##########################################################
# Query made at 02/16/2025 03:29:32 UTC
# Time interval: from 11/01/2017 00:00  to 11/30/2017 23:59  UTC
##########################################################

##########################################################
# KCLM, Port Angeles, William R. Fairchild International Airport (United States)
# WMO index: -----. WIGOS ID: Unknown
# Latitude 48-07-20N. Longitude 123-30-19W. Altitude 87 m.
##########################################################

###################################
#  METAR/SPECI from KCLM
###################################
201711302353 METAR KCLM 302353Z AUTO 29003KT 10SM FEW020 OVC036 07/07 A3006 RMK AO2 SLP180 60002 T00720072 10083 20072 50004=
201711302348 SPECI KCLM 302348Z AUTO 28004KT 10SM FEW020 OVC036 07/07 A3006 RMK AO2=
201711302332 SPECI KCLM 302332Z AUTO 31004KT 9SM FEW004 BKN020 OVC035 07/07 A3006 RMK AO2 T00720072=
201711302253 METAR KCLM 302253Z AUTO 31005KT 9SM BKN004 OVC028 08/07 A3005 RMK AO2 SLP179 T00780072=
201711302247 SPECI KCLM 302247Z AUTO 31004KT 8SM BKN004 OVC028 08/07 A3005 RMK AO2=
201711302235 SPECI KCLM 302235Z AUTO 30004KT 8SM SCT005 OVC028 08/07 A3005 RMK AO2 T00780072=
201711302153 METAR KCLM 302153Z AUTO 34003KT 10SM BKN005 OVC033 08/08 A3005 RMK AO2 CIG 003V008 SLP176 T00780078=
201711302137 SPECI KCLM 302137Z AUTO 31003KT 10SM BKN005 BKN009 OVC060 08/08 A3004 RMK AO2 CIG 003V007 T00830078=
201711302053 METAR KCLM 302053Z AUTO 00000KT 10SM FEW004 OVC011 08/07 A3004 RMK AO2 CIG 008V013 SLP174 60002 T00780072 56005=
201711302027 SPECI KCLM 302027Z AUTO 00000KT 10SM BKN005 BKN037 OVC050 08/08 A3004 RMK AO2 T00780078=
201711302019 SPECI KCLM 302019Z AUTO 35003KT 10SM SCT005 BKN020 OVC055 08/07 A3004 RMK AO2 T00780072=
201711301953 METAR KCLM 301953Z AUTO 33003KT 9SM BKN005 BKN020 OVC030 08/08 A3005 RMK AO2 RAE02 CIG 003V009 SLP177 P0000 T00780078=
201711301951 SPECI KCLM 301951Z AUTO 33003KT 9SM BKN005 BKN020 OVC030 08/08 A3005 RMK AO2 RAE02 P0000=
201711301905 SPECI KCLM 301905Z AUTO 00000KT 7SM SCT004 BKN016 OVC028 08/08 A3005 RMK AO2 RAE02 P0000 T00780078=
201711301853 METAR KCLM 301853Z AUTO 00000KT 3SM -RA BR BKN004 OVC014 08/08 A3006 RMK AO2 CIG 003V007 SLP180 P0002 T00780078=
201711301843 SPECI KCLM 301843Z AUTO VRB03KT 2 1/2SM -RA BR OVC005 07/07 A3006 RMK AO2 CIG 003V006 P0002 T00720067=
201711301820 SPECI KCLM 301820Z AUTO 00000KT 4SM -RA BR BKN007 OVC012 07/07 A3006 RMK AO2 CIG 005V010 P0000 T00720072=
201711301753 METAR KCLM 301753Z AUTO 00000KT 6SM -RA BR BKN012 OVC060 07/07 A3005 RMK AO2 SLP178 P0004 60027 T00720072 10072 20050 50003=
201711301748 SPECI KCLM 301748Z AUTO 00000KT 5SM -RA BR BKN012 OVC060 07/07 A3005 RMK AO2 P0004=
201711301720 SPECI KCLM 301720Z AUTO 00000KT 4SM -RA BR OVC049 07/07 A3004 RMK AO2 P0004 T00670067=
201711301713 SPECI KCLM 301713Z AUTO 00000KT 2 1/2SM -RA BR BKN050 OVC060 07/07 A3004 RMK AO2 P0004 T00670067=
201711301704 SPECI KCLM 301704Z AUTO 00000KT 1 3/4SM -RA BR OVC050 06/06 A3004 RMK AO2 P0002 T00610061=
201711301653 METAR KCLM 301653Z AUTO 00000KT 2SM -RA BR OVC050 06/06 A3004 RMK AO2 SLP175 P0019 T00610061=
201711301650 SPECI KCLM 301650Z AUTO 00000KT 2 1/2SM -RA BR OVC050 06/06 A3004 RMK AO2 P0017=
201711301553 METAR KCLM 301553Z AUTO 23003KT 6SM -RA BR BKN055 OVC070 06/06 A3005 RMK AO2 RAB26 SLP177 P0004 T00560056=
201711301453 METAR KCLM 301453Z AUTO 00000KT 10SM FEW070 OVC090 06/06 A3004 RMK AO2 SLP174 60000 T00560056 56014=
201711301353 METAR KCLM 301353Z AUTO 00000KT 8SM BKN070 OVC120 06/05 A3004 RMK AO2 RAE21 SLP175 P0000 T00560050=
201711301253 METAR KCLM 301253Z AUTO 00000KT 10SM -RA OVC060 06/06 A3007 RMK AO2 RAE15B40 SLP183 P0000 T00610056=
201711301153 METAR KCLM 301153Z AUTO 00000KT 10SM -RA OVC050 06/06 A3008 RMK AO2 RAB38 SLP188 P0000 60000 T00610056 10078 20050 58021=
201711301053 METAR KCLM 301053Z AUTO 09003KT 10SM OVC075 06/05 A3011 RMK AO2 SLP197 T00610050=
201711300953 METAR KCLM 300953Z AUTO 15003KT 10SM OVC070 07/05 A3013 RMK AO2 SLP205 T00670050=
201711300853 METAR KCLM 300853Z AUTO 24004KT 10SM OVC070 07/06 A3014 RMK AO2 SLP210 T00670056 56019=
201711300753 METAR KCLM 300753Z AUTO 00000KT 10SM OVC095 06/05 A3017 RMK AO2 SLP218 T00610050 400890017=
201711300653 METAR KCLM 300653Z AUTO 27005KT 10SM OVC095 06/04 A3018 RMK AO2 SLP220 T00610044=
201711300553 METAR KCLM 300553Z AUTO 00000KT 10SM OVC090 05/04 A3020 RMK AO2 SLP229 T00500039 10067 20050 56018=
201711300453 METAR KCLM 300453Z AUTO 00000KT 10SM OVC095 06/04 A3022 RMK AO2 SLP234 T00560044=
201711300353 METAR KCLM 300353Z AUTO 27005KT 10SM BKN090 OVC110 06/04 A3024 RMK AO2 SLP241 T00560044=
201711300253 METAR KCLM 300253Z AUTO 23003KT 10SM OVC110 06/05 A3026 RMK AO2 SLP248 T00560050 58018=
201711300153 METAR KCLM 300153Z AUTO 15003KT 10SM FEW055 BKN110 06/05 A3028 RMK AO2 SLP254 T00560050=
201711300053 METAR KCLM 300053Z AUTO 22004KT 10SM BKN060 06/05 A3030 RMK AO2 SLP262 T00560050=
201711292353 METAR KCLM 292353Z AUTO 00000KT 10SM BKN060 07/05 A3031 RMK AO2 SLP266 T00670050 10089 20067 58011=
201711292253 METAR KCLM 292253Z AUTO 00000KT 10SM SCT070 08/05 A3033 RMK AO2 SLP272 T00780050=
201711292153 METAR KCLM 292153Z AUTO 04003KT 10SM OVC060 08/05 A3034 RMK AO2 SLP275 T00830050=
201711292053 METAR KCLM 292053Z AUTO 12003KT 10SM FEW055 BKN100 09/04 A3034 RMK AO2 SLP277 T00890044 58007=
201711291953 METAR KCLM 291953Z AUTO 00000KT 10SM BKN065 08/04 A3037 RMK AO2 SLP286 T00830039=
201711291853 METAR KCLM 291853Z AUTO VRB03KT 10SM CLR 09/04 A3036 RMK AO2 SLP283 T00890039=
201711291753 METAR KCLM 291753Z AUTO VRB05KT 10SM CLR 07/03 A3036 RMK AO2 SLP284 T00720033 10072 20017 53012=
201711291653 METAR KCLM 291653Z AUTO 26005KT 10SM CLR 04/03 A3034 RMK AO2 SLP277 T00440033=
201711291553 METAR KCLM 291553Z AUTO 00000KT 10SM FEW050 02/01 A3033 RMK AO2 SLP272 T00170011=
201711291453 METAR KCLM 291453Z AUTO 23004KT 10SM BKN050 03/02 A3033 RMK AO2 SLP272 T00280017 51010=
201711291353 METAR KCLM 291353Z AUTO 23005KT 10SM OVC055 05/02 A3032 RMK AO2 SLP268 T00500022=
201711291253 METAR KCLM 291253Z AUTO 22006KT 10SM OVC055 06/02 A3031 RMK AO2 SLP266 T00560022=
201711291153 METAR KCLM 291153Z AUTO 23007KT 10SM BKN055 BKN070 06/02 A3030 RMK AO2 SLP262 70019 T00560022 10067 20017 51019=
201711291053 METAR KCLM 291053Z AUTO 24004KT 10SM BKN070 OVC085 05/02 A3029 RMK AO2 SLP258 T00500022=
201711290953 METAR KCLM 290953Z AUTO 24008KT 10SM CLR 05/02 A3027 RMK AO2 SLP253 T00500022=
201711290853 METAR KCLM 290853Z AUTO 22006KT 10SM CLR 06/02 A3024 RMK AO2 SLP243 T00560022 51033=
201711290753 METAR KCLM 290753Z AUTO 26010KT 10SM OVC060 06/03 A3022 RMK AO2 SLP235 T00560028 400720033=
201711290653 METAR KCLM 290653Z AUTO 26009KT 10SM OVC055 06/03 A3018 RMK AO2 SLP222 T00610028=
201711290553 METAR KCLM 290553Z AUTO 25009KT 10SM SCT050 BKN070 06/03 A3014 RMK AO2 SLP209 60002 T00610028 10067 20056 53031=
201711290453 METAR KCLM 290453Z AUTO 25008KT 10SM FEW050 FEW060 06/03 A3011 RMK AO2 SLP197 T00610033=
201711290353 METAR KCLM 290353Z AUTO 25007KT 10SM OVC049 07/04 A3008 RMK AO2 SLP187 T00670039=
201711290253 METAR KCLM 290253Z AUTO 22005KT 10SM CLR 06/04 A3005 RMK AO2 RAE0159 SLP177 P0000 60002 T00560039 51024=
201711290153 METAR KCLM 290153Z AUTO 20004KT 10SM -RA OVC050 06/05 A3003 RMK AO2 RAE01B31 SLP171 P0002 T00610050=
201711290053 METAR KCLM 290053Z AUTO 15005KT 10SM -RA OVC048 06/05 A3001 RMK AO2 RAB33 SLP164 P0000 T00610050=
201711282353 METAR KCLM 282353Z AUTO 00000KT 10SM BKN060 OVC075 06/05 A2998 RMK AO2 SLP153 60008 T00610050 10072 20056 53024=
201711282253 METAR KCLM 282253Z AUTO 32007KT 10SM SCT065 BKN080 06/05 A2995 RMK AO2 SLP144 T00610050=
201711282153 METAR KCLM 282153Z AUTO 27010G20KT 10SM BKN110 07/04 A2992 RMK AO2 SLP132 T00670044=
201711282053 METAR KCLM 282053Z AUTO 22006KT 10SM BKN044 OVC060 07/04 A2991 RMK AO2 RAE47 SLP129 P0004 60008 T00670044 58008=
201711281953 METAR KCLM 281953Z AUTO 28009G17KT 8SM -RA OVC039 06/04 A2994 RMK AO2 SLP142 P0003 T00560044=
201711281853 METAR KCLM 281853Z AUTO 27008KT 8SM -RA BKN047 OVC060 06/06 A2995 RMK AO2 SLP144 P0001 T00560056=
201711281802 SPECI KCLM 281802Z AUTO 31013KT 7SM -RA SCT008 BKN044 OVC050 06/06 A2994 RMK AO2 P0000 T00610056=
201711281753 METAR KCLM 281753Z AUTO 30015G21KT 5SM -RA BR BKN008 OVC035 06/06 A2993 RMK AO2 PK WND 30036/1711 SLP137 P0006 60009 T00610056 10072 20033 53038=
201711281708 SPECI KCLM 281708Z AUTO 30017G25KT 3SM -RA BR OVC007 07/06 A2990 RMK AO2 PK WND 29027/1658 P0003 T00670061=
201711281653 METAR KCLM 281653Z AUTO 30019G26KT 2 1/2SM -RA BR OVC007 07/06 A2989 RMK AO2 PK WND 29026/1645 RAB28 SLP122 P0003 T00670061=
201711281614 SPECI KCLM 281614Z AUTO 31011G20KT 6SM BR BKN006 OVC040 07/07 A2987 RMK AO2 CIG 005V011 T00720067 $=
201711281607 SPECI KCLM 281607Z AUTO 32009G20KT 8SM SCT006 BKN011 OVC055 07/06 A2987 RMK AO2 T00720061 $=
201711281553 METAR KCLM 281553Z AUTO 31007KT 10SM SCT041 OVC055 07/06 A2986 RMK AO2 RAB1456E06 SLP113 P0000 T00670056 $=
201711281453 METAR KCLM 281453Z AUTO 00000KT 10SM OVC060 05/04 A2982 RMK AO2 RAB1357E10 SLP099 P0000 60000 T00500044 56021 $=
201711281353 METAR KCLM 281353Z AUTO 20004KT 10SM BKN049 BKN075 05/03 A2984 RMK AO2 SLP106 T00500033 $=
201711281253 METAR KCLM 281253Z AUTO 15004KT 10SM FEW060 04/04 A2985 RMK AO2 SLP109 T00390039=
201711281153 METAR KCLM 281153Z AUTO 00000KT 10SM FEW047 SCT065 04/04 A2988 RMK AO2 SLP121 70002 T00440039 10061 20039 58031=
201711281053 METAR KCLM 281053Z AUTO 00000KT 9SM FEW037 BKN080 BKN110 04/04 A2992 RMK AO2 SLP135 T00440044=
201711280953 METAR KCLM 280953Z AUTO 00000KT 10SM SCT075 04/04 A2996 RMK AO2 SLP146 T00440044=
201711280853 METAR KCLM 280853Z AUTO 00000KT 10SM SCT010 BKN110 05/04 A2998 RMK AO2 SLP153 T00500044 58018=
201711280813 SPECI KCLM 280813Z AUTO 23003KT 10SM OVC010 04/04 A3000 RMK AO2 T00440039=
201711280753 METAR KCLM 280753Z AUTO 00000KT 10SM BKN009 OVC100 04/04 A3000 RMK AO2 SLP162 T00440039 401000033=
201711280750 SPECI KCLM 280750Z AUTO 00000KT 10SM BKN009 OVC100 04/04 A3000 RMK AO2=
201711280653 METAR KCLM 280653Z AUTO 00000KT 10SM SCT070 BKN090 BKN110 04/04 A3002 RMK AO2 SLP166 T00440039=
201711280553 METAR KCLM 280553Z AUTO 00000KT 10SM BKN090 06/03 A3003 RMK AO2 SLP171 T00610033 10078 20050 58016=
201711280453 METAR KCLM 280453Z AUTO 24003KT 10SM BKN090 OVC110 05/04 A3005 RMK AO2 SLP178 T00500039=
201711280353 METAR KCLM 280353Z AUTO 00000KT 10SM OVC100 05/04 A3007 RMK AO2 SLP185 T00500044=
201711280253 METAR KCLM 280253Z AUTO 00000KT 10SM OVC100 06/04 A3008 RMK AO2 SLP187 T00560044 58015=
201711280153 METAR KCLM 280153Z AUTO 23003KT 10SM FEW120 06/04 A3010 RMK AO2 SLP194 T00610044=
201711280053 METAR KCLM 280053Z AUTO 00000KT 10SM SCT120 06/04 A3011 RMK AO2 SLP198 T00610044=
201711272353 METAR KCLM 272353Z AUTO 00000KT 10SM SCT065 08/05 A3012 RMK AO2 SLP202 T00780050 10100 20072 51009=
201711272253 METAR KCLM 272253Z AUTO 13006KT 10SM SCT080 09/04 A3011 RMK AO2 SLP199 T00890044=
201711272153 METAR KCLM 272153Z AUTO 00000KT 10SM CLR 09/05 A3011 RMK AO2 SLP197 T00890050=
201711272053 METAR KCLM 272053Z AUTO VRB05KT 10SM CLR 09/05 A3009 RMK AO2 SLP192 T00890050 51017=
201711271953 METAR KCLM 271953Z AUTO 26005KT 10SM CLR 09/03 A3008 RMK AO2 SLP188 T00940028=
201711271853 METAR KCLM 271853Z AUTO 26008KT 10SM CLR 09/03 A3007 RMK AO2 SLP185 T00890028=
201711271753 METAR KCLM 271753Z AUTO 25010G18KT 10SM CLR 07/03 A3004 RMK AO2 SLP176 60002 T00720028 10072 20050 53021=
201711271653 METAR KCLM 271653Z AUTO 24007KT 10SM CLR 06/02 A3002 RMK AO2 SLP168 T00610022=
201711271553 METAR KCLM 271553Z AUTO 23004KT 10SM CLR 05/02 A3000 RMK AO2 SLP161 T00500022=
201711271453 METAR KCLM 271453Z AUTO 22005KT 10SM OVC048 06/02 A2998 RMK AO2 SLP155 60002 T00610022 52028=
201711271353 METAR KCLM 271353Z AUTO 27009KT 10SM OVC047 06/03 A2995 RMK AO2 RAB1258E08 SLP144 P0000 T00560028=
201711271253 METAR KCLM 271253Z AUTO 25006KT 10SM OVC049 06/03 A2993 RMK AO2 RAE1154B17E49 SLP136 P0002 T00560028=
201711271153 METAR KCLM 271153Z AUTO 25006KT 10SM -RA OVC050 06/03 A2990 RMK AO2 RAB42 SLP126 P0000 60000 70052 T00560028 10061 20033 51021=
201711271053 METAR KCLM 271053Z AUTO 00000KT 10SM OVC065 05/02 A2988 RMK AO2 SLP121 T00500022=
201711270953 METAR KCLM 270953Z AUTO 25007KT 10SM FEW060 BKN080 OVC095 04/02 A2986 RMK AO2 SLP114 T00440022=
201711270853 METAR KCLM 270853Z AUTO 23005KT 10SM CLR 06/02 A2984 RMK AO2 SLP105 T00560017 53014=
201711270753 METAR KCLM 270753Z AUTO 14008KT 10SM CLR 04/01 A2982 RMK AO2 SLP098 T00390011 401060039=
201711270653 METAR KCLM 270653Z AUTO 25008KT 10SM CLR 06/02 A2980 RMK AO2 SLP092 T00610022=
201711270553 METAR KCLM 270553Z AUTO 25009KT 10SM CLR 06/03 A2979 RMK AO2 SLP091 60000 T00610028 10083 20056 53028=
201711270453 METAR KCLM 270453Z AUTO 27007KT 10SM FEW060 BKN090 OVC110 06/03 A2977 RMK AO2 SLP082 T00610028=
201711270353 METAR KCLM 270353Z AUTO 25009KT 10SM CLR 07/03 A2973 RMK AO2 SLP067 T00670033=
201711270253 METAR KCLM 270253Z AUTO 29006KT 10SM BKN090 07/04 A2971 RMK AO2 SLP062 60000 T00670039 51026=
201711270153 METAR KCLM 270153Z AUTO 25009KT 10SM BKN110 06/05 A2969 RMK AO2 RAB0055E22 SLP055 P0000 T00610050=
201711270053 METAR KCLM 270053Z AUTO 27007KT 10SM FEW050 OVC060 08/04 A2968 RMK AO2 SLP049 T00780044=
201711262353 METAR KCLM 262353Z AUTO 27006KT 10SM SCT060 08/04 A2964 RMK AO2 SLP036 60006 T00830044 10094 20078 53033=
201711262253 METAR KCLM 262253Z AUTO 26011G17KT 10SM CLR 09/04 A2959 RMK AO2 SLP022 T00940044=
201711262153 METAR KCLM 262153Z AUTO 26013G21KT 10SM FEW065 08/04 A2955 RMK AO2 RAE2056 SLP008 P0000 T00830044=
201711262053 METAR KCLM 262053Z AUTO 26014G28KT 10SM -RA BKN047 BKN070 OVC095 09/04 A2954 RMK AO2 PK WND 26028/2050 RAB47 SLP003 P0000 60006 T00890039 53021 TSNO=
201711261953 METAR KCLM 261953Z AUTO 29015G23KT 10SM BKN060 OVC085 08/04 A2951 RMK AO2 PK WND 29028/1925 RAE47 SLP994 P0001 T00780044=
201711261853 METAR KCLM 261853Z AUTO 30014G21KT 10SM -RA OVC049 08/07 A2950 RMK AO2 SLP992 P0005 T00830072=
201711261817 SPECI KCLM 261817Z AUTO 29013G19KT 5SM -RA BR FEW036 OVC045 08/07 A2948 RMK AO2 P0005 T00830072=
201711261809 SPECI KCLM 261809Z AUTO 30011KT 2 1/2SM -RA BR OVC045 08/08 A2948 RMK AO2 P0003 T00830078=
201711261753 METAR KCLM 261753Z AUTO 29009KT 3SM -RA BR FEW012 SCT028 OVC036 09/08 A2948 RMK AO2 SLP982 P0009 60046 T00890083 10106 20089 51009=
201711261748 SPECI KCLM 261748Z AUTO 29008G20KT 2 1/2SM -RA BR FEW012 BKN029 OVC042 09/08 A2948 RMK AO2 P0008=
201711261737 SPECI KCLM 261737Z AUTO 30014G20KT 1 3/4SM RA BR FEW009 OVC027 09/08 A2947 RMK AO2 P0006 T00890083=
201711261716 SPECI KCLM 261716Z AUTO 31014G21KT 5SM -RA BR SCT008 OVC021 09/09 A2946 RMK AO2 P0000 T00940089=
201711261653 METAR KCLM 261653Z AUTO 31013G22KT 10SM -RA SCT010 OVC017 10/09 A2947 RMK AO2 RAB53 SLP981 P0001 T01000089=
201711261622 SPECI KCLM 261622Z AUTO 19005KT 10SM BKN010 10/09 A2946 RMK AO2 CIG 006V013 T01000094=
201711261553 METAR KCLM 261553Z AUTO 32010G18KT 10SM SCT007 SCT015 BKN048 10/10 A2945 RMK AO2 RAE51 SLP973 P0002 T01000100=
201711261503 SPECI KCLM 261503Z AUTO 30004KT 5SM -RA BR FEW007 BKN045 OVC055 10/10 A2943 RMK AO2 P0002 T01000100=
201711261453 METAR KCLM 261453Z AUTO 00000KT 2SM RA BR SCT005 OVC041 10/10 A2943 RMK AO2 SLP966 P0023 60034 T01000100 51019=
201711261448 SPECI KCLM 261448Z AUTO 35003KT 1 3/4SM RA BR SCT005 OVC041 10/10 A2942 RMK AO2 P0022=
201711261441 SPECI KCLM 261441Z AUTO 28003KT 1 1/2SM RA BR BKN004 OVC025 10/10 A2943 RMK AO2 P0019 T01000100=
201711261434 SPECI KCLM 261434Z AUTO 27006KT 2SM RA BR BKN004 OVC009 10/10 A2944 RMK AO2 P0014 T01000100=
201711261421 SPECI KCLM 261421Z AUTO 26007KT 3SM RA BR BKN004 BKN020 OVC029 10/10 A2942 RMK AO2 P0007 T01000100=
201711261407 SPECI KCLM 261407Z AUTO 29004KT 3SM -RA BR FEW004 BKN027 OVC065 10/10 A2940 RMK AO2 P0003 T01000100=
201711261353 METAR KCLM 261353Z AUTO 29008KT 7SM -RA FEW025 BKN065 OVC085 09/09 A2940 RMK AO2 SLP957 P0003 T00940094=
201711261253 METAR KCLM 261253Z AUTO 16004KT 10SM -RA FEW055 BKN075 OVC100 09/09 A2937 RMK AO2 SLP947 P0008 T00940089=
201711261153 METAR KCLM 261153Z AUTO 00000KT 5SM -RA BR BKN060 OVC070 09/09 A2937 RMK AO2 SLP945 P0006 60017 70040 T00890089 10089 20056 55019=
201711261053 METAR KCLM 261053Z AUTO VRB06KT 8SM -RA BKN065 OVC090 08/08 A2936 RMK AO2 RAB10 SLP944 P0002 T00780078=
201711260953 METAR KCLM 260953Z AUTO VRB04KT 10SM BKN065 OVC080 08/07 A2939 RMK AO2 RAB18E41 SLP951 P0000 T00780072=
201711260853 METAR KCLM 260853Z AUTO 15005KT 10SM BKN065 OVC080 07/07 A2942 RMK AO2 RAE31 SLP964 P0002 60009 T00720072 56034=
201711260753 METAR KCLM 260753Z AUTO VRB03KT 6SM -RA BR BKN080 OVC090 07/07 A2944 RMK AO2 PRESFR SLP970 P0003 T00670067 400890039=
201711260653 METAR KCLM 260653Z AUTO 00000KT 10SM -RA FEW055 SCT070 OVC085 07/06 A2949 RMK AO2 SLP986 P0004 T00670061=
201711260553 METAR KCLM 260553Z AUTO 00000KT 10SM -RA FEW060 OVC080 07/07 A2952 RMK AO2 SLP999 P0008 60023 T00720072 10089 20067 56027=
201711260550 SPECI KCLM 260550Z AUTO 24004KT 9SM -RA SCT060 OVC080 07/07 A2953 RMK AO2 P0008=
201711260540 SPECI KCLM 260540Z AUTO 00000KT 2SM -RA BR BKN070 OVC085 07/07 A2954 RMK AO2 VIS 1 1/4V5 P0008 T00720072=
201711260453 METAR KCLM 260453Z AUTO 00000KT 5SM -RA BR OVC065 07/07 A2956 RMK AO2 SLP010 P0008 T00720072=
201711260353 METAR KCLM 260353Z AUTO 00000KT 10SM -RA OVC080 07/07 A2961 RMK AO2 SLP027 P0002 T00720072=
201711260253 METAR KCLM 260253Z AUTO 18004KT 10SM -RA BKN070 OVC085 07/07 A2964 RMK AO2 SLP038 P0002 60005 T00720067 56038=
201711260153 METAR KCLM 260153Z AUTO 24006KT 9SM -RA OVC080 08/07 A2968 RMK AO2 SLP051 P0002 T00780072=
201711260053 METAR KCLM 260053Z AUTO 25009KT 10SM -RA BKN090 OVC100 08/07 A2970 RMK AO2 SLP058 P0001 T00780072=
201711252353 METAR KCLM 252353Z AUTO 10SM -RA BKN080 OVC095 09/07 A2975 RMK AO2 RAB15 SLP077 P0000 60000 T00890067 10089 20072 56035=
201711252253 METAR KCLM 252253Z AUTO 00000KT 10SM OVC100 09/07 A2979 RMK AO2 SLP088 T00890067=
201711252153 METAR KCLM 252153Z AUTO 00000KT 10SM OVC100 09/07 A2982 RMK AO2 SLP099 T00890067=
201711252053 METAR KCLM 252053Z AUTO 00000KT 10SM OVC095 09/07 A2986 RMK AO2 SLP112 60000 T00890067 58032=
201711251953 METAR KCLM 251953Z AUTO 00000KT 10SM OVC095 08/06 A2991 RMK AO2 RAB1855E06 SLP129 P0000 T00830061=
201711251853 METAR KCLM 251853Z AUTO 00000KT 10SM FEW060 BKN070 OVC085 08/07 A2992 RMK AO2 SLP134 T00780067=
201711251753 METAR KCLM 251753Z AUTO 12003KT 10SM BKN060 OVC075 07/07 A2995 RMK AO2 SLP144 T00720067 10072 20039 58011=
201711251705 SPECI KCLM 251705Z AUTO 00000KT 10SM SCT006 OVC100 06/06 A2997 RMK AO2 T00610056=
201711251653 METAR KCLM 251653Z AUTO 00000KT 10SM BKN006 OVC100 06/06 A2998 RMK AO2 SLP152 T00610056=
201711251644 SPECI KCLM 251644Z AUTO 00000KT 10SM BKN006 OVC110 06/06 A2998 RMK AO2 T00610056=
201711251628 SPECI KCLM 251628Z AUTO 00000KT 10SM FEW005 OVC110 06/05 A2998 RMK AO2 T00560050=
201711251553 METAR KCLM 251553Z AUTO 00000KT 10SM CLR 05/04 A2998 RMK AO2 SLP154 T00500044=
201711251453 METAR KCLM 251453Z AUTO 00000KT 10SM CLR 05/04 A2998 RMK AO2 SLP155 T00500044 55007=
201711251353 METAR KCLM 251353Z AUTO 00000KT 10SM FEW060 04/04 A2998 RMK AO2 SLP154 T00440044=
201711251253 METAR KCLM 251253Z AUTO 00000KT 10SM CLR 05/04 A3000 RMK AO2 SLP162 T00500044=
201711251153 METAR KCLM 251153Z AUTO 23004KT 10SM SCT060 06/05 A3001 RMK AO2 SLP162 T00560050 10061 20044 58005=
201711251053 METAR KCLM 251053Z AUTO 25003KT 10SM BKN070 BKN080 06/04 A3002 RMK AO2 SLP167 T00560044=
201711250953 METAR KCLM 250953Z AUTO 15003KT 10SM FEW060 SCT110 06/05 A3001 RMK AO2 SLP163 T00560050=
201711250853 METAR KCLM 250853Z AUTO 00000KT 10SM FEW060 BKN080 BKN110 06/05 A3002 RMK AO2 SLP166 T00560050 50000=
201711250753 METAR KCLM 250753Z AUTO 00000KT 10SM SCT060 BKN090 BKN100 05/05 A3002 RMK AO2 SLP169 T00500050 401060044=
201711250653 METAR KCLM 250653Z AUTO 12004KT 10SM SCT060 05/04 A3002 RMK AO2 SLP167 T00500044=
201711250553 METAR KCLM 250553Z AUTO 15003KT 10SM FEW060 SCT080 SCT095 05/05 A3002 RMK AO2 SLP167 60000 T00500050 10089 20050 53005=
201711250453 METAR KCLM 250453Z AUTO 00000KT 10SM FEW110 06/06 A3001 RMK AO2 SLP163 T00560056=
201711250353 METAR KCLM 250353Z AUTO 00000KT 10SM BKN110 07/07 A3000 RMK AO2 SLP161 T00670067=
201711250253 METAR KCLM 250253Z AUTO 00000KT 10SM OVC065 07/07 A3000 RMK AO2 SLP161 60000 T00670067 55001=
201711250153 METAR KCLM 250153Z AUTO 00000KT 10SM FEW060 07/07 A2999 RMK AO2 SLP159 T00720072=
201711250053 METAR KCLM 250053Z AUTO 15003KT 10SM SCT055 OVC110 08/07 A3000 RMK AO2 RAB07E29 SLP162 P0000 T00780072=
201711242353 METAR KCLM 242353Z AUTO 00000KT 10SM OVC060 09/07 A3001 RMK AO2 RAB27E37 SLP162 P0000 60000 T00890072 10106 20089 55001=
201711242253 METAR KCLM 242253Z AUTO 00000KT 10SM OVC055 09/07 A3000 RMK AO2 SLP160 T00890067=
201711242153 METAR KCLM 242153Z AUTO 09004KT 10SM SCT065 BKN085 OVC100 11/04 A3000 RMK AO2 SLP159 T01060044=
201711242053 METAR KCLM 242053Z AUTO 12003KT 10SM SCT070 BKN095 11/05 A3001 RMK AO2 SLP163 T01060050 56005=
201711241953 METAR KCLM 241953Z AUTO 10003KT 10SM FEW065 OVC110 10/06 A3001 RMK AO2 SLP164 T01000056=
201711241853 METAR KCLM 241853Z AUTO 13004KT 10SM OVC070 09/07 A3002 RMK AO2 SLP166 T00890067=
201711241753 METAR KCLM 241753Z AUTO 24005KT 10SM OVC065 08/07 A3002 RMK AO2 SLP168 T00830067 10083 20050 53005=
201711241653 METAR KCLM 241653Z AUTO 26004KT 10SM FEW060 FEW075 OVC100 08/06 A3002 RMK AO2 SLP166 T00780056=
201711241553 METAR KCLM 241553Z AUTO 21003KT 10SM OVC075 06/06 A3001 RMK AO2 SLP163 T00610056=
201711241453 METAR KCLM 241453Z AUTO 23004KT 10SM OVC075 06/06 A3001 RMK AO2 SLP164 T00560056 51003=
201711241353 METAR KCLM 241353Z AUTO 00000KT 10SM OVC090 06/06 A3000 RMK AO2 SLP162 T00560056=
201711241253 METAR KCLM 241253Z AUTO 22004KT 10SM FEW070 OVC095 06/05 A3000 RMK AO2 SLP162 T00560050=
201711241153 METAR KCLM 241153Z AUTO 23005KT 10SM FEW085 OVC110 06/05 A3000 RMK AO2 SLP161 60003 70060 T00560050 10089 20044 50010=
201711241053 METAR KCLM 241053Z AUTO 24005KT 10SM FEW047 SCT090 OVC120 07/06 A3000 RMK AO2 RAB28E38 SLP160 P0000 T00720056=
201711240953 METAR KCLM 240953Z AUTO 21005KT 10SM FEW055 SCT080 07/05 A2998 RMK AO2 SLP153 T00720050=
201711240853 METAR KCLM 240853Z AUTO 29005KT 10SM SCT035 SCT065 06/06 A2997 RMK AO2 RAB04E43 SLP149 P0002 60003 T00610056 51022=
201711240753 METAR KCLM 240753Z AUTO 27005KT 10SM BKN037 07/06 A2995 RMK AO2 RAB04E44 SLP143 P0001 T00670056 401280061=
201711240653 METAR KCLM 240653Z AUTO 26010KT 10SM BKN050 BKN060 08/06 A2992 RMK AO2 SLP134 T00830056=
201711240553 METAR KCLM 240553Z AUTO 26009KT 10SM SCT060 08/06 A2990 RMK AO2 SLP127 60000 T00830056 10100 20061 51010=
201711240453 METAR KCLM 240453Z AUTO 25009KT 10SM FEW055 08/06 A2990 RMK AO2 SLP125 T00780056=
201711240353 METAR KCLM 240353Z AUTO 23003KT 10SM CLR 07/05 A2989 RMK AO2 SLP121 T00720050=
201711240253 METAR KCLM 240253Z AUTO 25005KT 10SM FEW060 FEW100 07/06 A2987 RMK AO2 SLP117 60000 T00720061 51013=
201711240153 METAR KCLM 240153Z AUTO 23005KT 10SM SCT060 BKN110 08/07 A2986 RMK AO2 SLP113 T00780067=
201711240053 METAR KCLM 240053Z AUTO 00000KT 10SM FEW043 BKN065 BKN090 08/07 A2985 RMK AO2 RAB2359E38 SLP110 P0000 T00830067=
201711232353 METAR KCLM 232353Z AUTO 17004KT 10SM SCT060 SCT090 09/06 A2984 RMK AO2 SLP104 60017 T00940061 10122 20094 53010=
201711232253 METAR KCLM 232253Z AUTO 26006KT 10SM CLR 11/06 A2980 RMK AO2 SLP092 T01110061=
201711232153 METAR KCLM 232153Z AUTO 28009KT 10SM FEW065 12/08 A2979 RMK AO2 SLP087 T01170078=
201711232053 METAR KCLM 232053Z AUTO 26008KT 10SM FEW047 FEW055 12/09 A2980 RMK AO2 SLP093 60017 T01170089 58004=
201711231953 METAR KCLM 231953Z AUTO 29006KT 10SM FEW050 OVC080 11/09 A2982 RMK AO2 RAE31 SLP100 P0006 T01060094=
201711231853 METAR KCLM 231853Z AUTO 26009KT 3SM -RA BR FEW034 BKN046 OVC060 10/09 A2982 RMK AO2 SLP099 P0011 T01000094=
201711231827 SPECI KCLM 231827Z AUTO 30005KT 6SM -RA BR FEW036 BKN047 OVC060 10/10 A2982 RMK AO2 P0006 T01000100=
201711231753 METAR KCLM 231753Z AUTO 29004KT 2 1/2SM -RA BR FEW011 BKN049 OVC060 10/10 A2982 RMK AO2 SLP097 P0010 60040 T01000100 10128 20100 51007=
201711231732 SPECI KCLM 231732Z AUTO 26004KT 4SM -RA BR FEW011 BKN035 OVC050 10/10 A2981 RMK AO2 P0007 T01000100=
201711231725 SPECI KCLM 231725Z AUTO 24004KT 3SM -RA BR FEW013 OVC027 10/10 A2981 RMK AO2 P0007 T01000100=
201711231708 SPECI KCLM 231708Z AUTO 28004KT 2 1/2SM -RA BR SCT024 OVC031 10/10 A2981 RMK AO2 P0004 T01000100=
201711231702 SPECI KCLM 231702Z AUTO 27005KT 3SM -RA BR SCT024 OVC029 10/10 A2981 RMK AO2 P0002 T01000100=
201711231653 METAR KCLM 231653Z AUTO 28004KT 2SM -RA BR FEW022 BKN030 OVC036 10/10 A2981 RMK AO2 SLP094 P0018 T01000100=
201711231627 SPECI KCLM 231627Z AUTO 32006KT 1 3/4SM RA BR FEW026 BKN037 OVC048 10/09 A2980 RMK AO2 P0010 T01000094=
201711231613 SPECI KCLM 231613Z AUTO 31006KT 3SM -RA BR FEW010 SCT020 OVC035 10/09 A2981 RMK AO2 P0006 T01000094=
201711231600 SPECI KCLM 231600Z AUTO 30005KT 2 1/2SM RA BR FEW008 BKN019 OVC024 10/10 A2981 RMK AO2 P0003 T01000100=
201711231553 METAR KCLM 231553Z AUTO 27004KT 3SM -RA BR FEW006 BKN013 OVC024 10/10 A2981 RMK AO2 SLP095 P0009 T01000100=
201711231539 SPECI KCLM 231539Z AUTO 26004KT 4SM -RA BR SCT008 OVC013 11/10 A2980 RMK AO2 P0006 T01060100=
201711231453 METAR KCLM 231453Z AUTO 00000KT 8SM -RA BKN006 OVC070 11/11 A2980 RMK AO2 SLP090 P0003 60003 T01060106 56007=
201711231446 SPECI KCLM 231446Z AUTO 00000KT 7SM -RA BKN006 OVC055 10/10 A2979 RMK AO2 P0003 T01000100=
201711231423 SPECI KCLM 231423Z AUTO 28003KT 7SM -RA BKN004 OVC075 11/11 A2980 RMK AO2 P0001 T01060106=
201711231412 SPECI KCLM 231412Z AUTO 33005KT 9SM -RA BKN005 BKN023 OVC080 11/11 A2980 RMK AO2 P0000 T01060106=
201711231403 SPECI KCLM 231403Z AUTO 00000KT 8SM -RA SCT005 OVC080 11/11 A2980 RMK AO2 P0000 T01060106=
201711231353 METAR KCLM 231353Z AUTO 27003KT 10SM -RA OVC080 11/10 A2980 RMK AO2 RAB22 SLP092 P0000 T01060100=
201711231253 METAR KCLM 231253Z AUTO 26009KT 10SM FEW060 SCT080 BKN110 12/09 A2979 RMK AO2 RAB1155E39 SLP089 P0000 T01170094=
201711231153 METAR KCLM 231153Z AUTO VRB05KT 10SM FEW060 OVC075 11/10 A2982 RMK AO2 RAB15E39 SLP098 P0000 60006 70053 T01110100 10133 20111 53001=
201711231053 METAR KCLM 231053Z AUTO 28007KT 10SM FEW032 SCT060 11/10 A2981 RMK AO2 SLP096 T01110100=
201711230953 METAR KCLM 230953Z AUTO 31008KT 10SM SCT050 BKN070 BKN090 12/11 A2982 RMK AO2 SLP098 T01170106=
201711230853 METAR KCLM 230853Z AUTO 32010KT 10SM SCT017 BKN033 OVC049 12/12 A2982 RMK AO2 RAE52 SLP097 P0005 60006 T01220117 53003=
201711230826 SPECI KCLM 230826Z AUTO 32005KT 5SM -RA BR FEW003 SCT030 OVC039 12/12 A2981 RMK AO2 P0003 T01220122=
201711230753 METAR KCLM 230753Z AUTO 29006KT 3SM -RA BR SCT028 BKN050 OVC065 12/12 A2981 RMK AO2 RAE0658B12 SLP094 P0000 T01220122 401390072=
201711230740 SPECI KCLM 230740Z AUTO 27003KT 4SM -RA BR FEW003 BKN060 OVC080 12/12 A2980 RMK AO2 RAE0658B12 P0000 T01220122=
201711230731 SPECI KCLM 230731Z AUTO 21003KT 2SM -RA BR FEW003 SCT020 OVC065 13/13 A2980 RMK AO2 RAE0658B12 P0000 T01280128=
201711230725 SPECI KCLM 230725Z AUTO 00000KT 1SM -RA BR SCT003 BKN019 OVC070 12/12 A2980 RMK AO2 RAE0658B12 P0000 T01220122=
201711230717 SPECI KCLM 230717Z AUTO 00000KT 3/4SM -RA BR BKN003 BKN060 OVC090 12/12 A2980 RMK AO2 RAE0658B12 P0000 T01220122=
201711230713 SPECI KCLM 230713Z AUTO 00000KT 3/4SM -RA BR SCT005 BKN060 OVC090 13/13 A2980 RMK AO2 RAE0658B12 P0000 T01280128=
201711230710 SPECI KCLM 230710Z AUTO 00000KT 1 1/2SM BR SCT005 BKN060 OVC090 13/13 A2980 RMK AO2 RAE0658 P0000 T01280128=
201711230706 SPECI KCLM 230706Z AUTO 00000KT 2 1/2SM BR SCT005 BKN025 OVC049 13/13 A2980 RMK AO2 RAE0658 P0000 T01280128=
201711230703 SPECI KCLM 230703Z AUTO 00000KT 4SM BR BKN005 BKN017 OVC049 13/13 A2980 RMK AO2 RAE0658 P0000 T01330133=
201711230653 METAR KCLM 230653Z AUTO 00000KT 1 1/2SM -RA BR BKN005 OVC039 13/13 A2981 RMK AO2 SLP093 P0001 T01280128=
201711230630 SPECI KCLM 230630Z AUTO 29003KT 3/4SM -RA BR FEW008 SCT035 OVC047 13/13 A2980 RMK AO2 P0000 T01280128=
201711230613 SPECI KCLM 230613Z AUTO 00000KT 1SM -RA BR FEW008 SCT030 OVC050 13/13 A2979 RMK AO2 P0000 T01280128=
201711230606 SPECI KCLM 230606Z AUTO 00000KT 1 3/4SM -RA BR FEW010 SCT030 OVC050 12/12 A2980 RMK AO2 VIS 3/4V5 P0000 T01220122=
201711230602 SPECI KCLM 230602Z AUTO 00000KT 3SM -RA BR FEW010 SCT028 OVC050 13/13 A2980 RMK AO2 P0000 T01280128=
201711230553 METAR KCLM 230553Z AUTO 00000KT 1 1/4SM -RA BR FEW009 OVC055 13/13 A2980 RMK AO2 SLP090 P0009 60039 T01280128 10133 20117 53004=
201711230519 SPECI KCLM 230519Z AUTO 25004KT 1 3/4SM -RA BR FEW009 SCT015 OVC032 13/13 A2981 RMK AO2 P0004 T01280128=
201711230453 METAR KCLM 230453Z AUTO 00000KT 1SM -RA BR FEW016 BKN055 OVC070 13/13 A2978 RMK AO2 SLP086 P0012 T01280128=
201711230440 SPECI KCLM 230440Z AUTO 17003KT 2 1/2SM RA BR FEW009 BKN055 OVC070 13/13 A2980 RMK AO2 P0010 T01330133=
201711230433 SPECI KCLM 230433Z AUTO 16004KT 2 1/2SM -RA BR FEW011 SCT035 OVC055 13/13 A2980 RMK AO2 P0007 T01280128=
201711230425 SPECI KCLM 230425Z AUTO 13005KT 1 3/4SM RA BR FEW009 BKN033 OVC042 13/13 A2979 RMK AO2 P0006 T01280128=
201711230417 SPECI KCLM 230417Z AUTO 10003KT 2SM RA BR SCT009 BKN013 OVC037 13/13 A2980 RMK AO2 P0004 T01280128=
201711230405 SPECI KCLM 230405Z AUTO 13006KT 1SM -RA BR FEW005 BKN011 OVC037 13/13 A2980 RMK AO2 P0001 T01280128=
201711230357 SPECI KCLM 230357Z AUTO 11003KT 1SM -RA BR FEW003 BKN015 OVC037 13/13 A2979 RMK AO2 P0000 T01280128=
201711230353 METAR KCLM 230353Z AUTO 13004KT 1 1/4SM -RA BR BKN005 BKN015 OVC037 13/13 A2979 RMK AO2 SLP089 P0008 T01280128=
201711230341 SPECI KCLM 230341Z AUTO 16003KT 2 1/2SM -RA BR SCT002 BKN006 OVC013 13/13 A2979 RMK AO2 P0006 T01280128=
201711230253 METAR KCLM 230253Z AUTO 00000KT 3SM -RA BR BKN007 BKN019 OVC055 13/13 A2979 RMK AO2 SLP087 P0009 60010 T01280128 55006=
201711230248 SPECI KCLM 230248Z AUTO 00000KT 2 1/2SM RA BR SCT008 BKN019 OVC055 13/13 A2979 RMK AO2 P0008=
201711230237 SPECI KCLM 230237Z AUTO 26004KT 5SM -RA BR FEW008 BKN060 OVC075 13/13 A2979 RMK AO2 P0005 T01330133=
201711230229 SPECI KCLM 230229Z AUTO VRB03KT 2 1/2SM -RA BR FEW008 BKN060 OVC075 12/12 A2978 RMK AO2 P0005 T01220122=
201711230208 SPECI KCLM 230208Z AUTO 00000KT 3SM -RA BR FEW017 BKN075 OVC090 13/13 A2978 RMK AO2 P0002 T01280128=
201711230200 SPECI KCLM 230200Z AUTO 26005KT 2SM -RA BR FEW055 BKN080 OVC095 12/12 A2979 RMK AO2 P0002 T01220122=
201711230153 METAR KCLM 230153Z AUTO 19004KT 3/4SM -RA BR FEW055 OVC080 12/12 A2977 RMK AO2 RAE10B15 SLP083 P0001 T01170117=
201711230114 SPECI KCLM 230114Z AUTO 00000KT 1 3/4SM BR BKN070 OVC090 12/12 A2978 RMK AO2 RAE10 P0001 T01220122=
201711230053 METAR KCLM 230053Z AUTO 00000KT 6SM -RA BR FEW014 BKN080 OVC090 13/13 A2979 RMK AO2 RAB05 SLP088 P0000 T01280128=
201711222353 METAR KCLM 222353Z AUTO 11005KT 8SM SCT046 BKN070 BKN085 13/13 A2980 RMK AO2 RAE00B22E39 SLP093 P0002 60006 T01280128 10139 20100 58013=
201711222253 METAR KCLM 222253Z AUTO 00000KT 6SM -RA BR FEW050 FEW070 OVC085 13/13 A2982 RMK AO2 RAE23B40 SLP100 P0003 T01330133=
201711222153 METAR KCLM 222153Z AUTO 30003KT 6SM -RA BR FEW004 BKN080 OVC090 12/12 A2983 RMK AO2 RAB04E15B28 SLP102 P0001 T01220122=
201711222119 SPECI KCLM 222119Z AUTO 25003KT 4SM BR SCT007 BKN070 OVC085 12/12 A2985 RMK AO2 RAB04E15 P0000 T01170117=
201711222116 SPECI KCLM 222116Z AUTO 23003KT 1 1/4SM BR SCT007 SCT060 OVC080 12/12 A2985 RMK AO2 RAB04E15 P0000 T01170117=
201711222106 SPECI KCLM 222106Z AUTO 27005KT 1/2SM -RA FG BKN007 OVC080 12/12 A2984 RMK AO2 RAB04 P0000 T01170117=
201711222053 METAR KCLM 222053Z AUTO 31003KT 1/4SM FG VV002 11/11 A2984 RMK AO2 RAE06 SLP106 P0000 60000 T01110111 58011=
201711222011 SPECI KCLM 222011Z AUTO 00000KT 1/4SM FG VV002 11/11 A2985 RMK AO2 RAE06 P0000 T01060106=
201711221953 METAR KCLM 221953Z AUTO 00000KT M1/4SM -RA FG VV001 10/10 A2986 RMK AO2 RAE1857B53 SLP113 P0000 T01000100=
201711221943 SPECI KCLM 221943Z AUTO 06005KT M1/4SM FG VV001 10/10 A2986 RMK AO2 RAE1857 P0000 T01000100=
201711221927 SPECI KCLM 221927Z AUTO 35005KT M1/4SM FG BKN003 OVC070 11/11 A2986 RMK AO2 RAE1857 P0000 T01060106=
201711221918 SPECI KCLM 221918Z AUTO 36005KT 1/4SM FG SCT001 BKN006 OVC070 12/12 A2986 RMK AO2 RAE1857 P0000 T01170117=
201711221916 SPECI KCLM 221916Z AUTO 34005KT 3/4SM BR SCT001 BKN010 OVC080 12/12 A2987 RMK AO2 RAE1857 P0000 T01220122=
201711221913 SPECI KCLM 221913Z AUTO 33003KT 2 1/2SM BR SCT001 BKN017 OVC075 13/13 A2987 RMK AO2 RAE1857 P0000 T01280128=
201711221907 SPECI KCLM 221907Z AUTO 11004KT 3SM BR SCT001 SCT025 OVC075 13/13 A2987 RMK AO2 RAE1857 P0000 T01280128=
201711221903 SPECI KCLM 221903Z AUTO 13004KT 2 1/2SM BR SCT001 BKN010 OVC070 13/13 A2987 RMK AO2 RAE1857 P0000 T01280128=
201711221857 SPECI KCLM 221857Z AUTO 12005KT 1SM BR BKN001 OVC006 13/13 A2987 RMK AO2 RAE57 P0000 T01280128=
201711221853 METAR KCLM 221853Z AUTO 10005KT 1/2SM -RA FG SCT001 OVC006 12/12 A2987 RMK AO2 RAB45 SLP116 P0000 T01220122=
201711221848 SPECI KCLM 221848Z AUTO 00000KT 1/4SM -RA FG SCT002 BKN007 OVC070 12/12 A2987 RMK AO2 RAB45 P0000=
201711221810 SPECI KCLM 221810Z AUTO VRB03KT 1/4SM FG OVC002 12/12 A2988 RMK AO2 T01220122=
201711221806 SPECI KCLM 221806Z AUTO VRB03KT 1SM BR OVC002 12/12 A2988 RMK AO2 T01220122=
201711221753 METAR KCLM 221753Z AUTO 00000KT 1/2SM FG VV002 12/12 A2988 RMK AO2 SLP119 60002 T01220122 10122 20072 58004=
201711221731 SPECI KCLM 221731Z AUTO 00000KT M1/4SM FG VV002 12/12 A2988 RMK AO2 T01170117=
201711221719 SPECI KCLM 221719Z AUTO 11003KT M1/4SM FG VV001 12/12 A2989 RMK AO2 T01170117=
201711221653 METAR KCLM 221653Z AUTO 00000KT M1/4SM FG VV002 11/11 A2989 RMK AO2 RAB1556E08 SLP123 P0000 T01110111=
201711221634 SPECI KCLM 221634Z AUTO 13003KT M1/4SM FG VV001 11/11 A2989 RMK AO2 RAB1556E08 P0000 T01060106=
201711221602 SPECI KCLM 221602Z AUTO 16004KT 1/4SM -RA FG VV002 10/10 A2990 RMK AO2 RAB1556 P0000 T01000100=
201711221553 METAR KCLM 221553Z AUTO 00000KT 3/4SM BR VV002 10/10 A2989 RMK AO2 RAB07E18 SLP122 P0000 T01000100=
201711221546 SPECI KCLM 221546Z AUTO 00000KT 1 3/4SM BR BKN002 OVC008 10/10 A2990 RMK AO2 VIS 1V5 RAB07E18 P0000 T01000100=
201711221537 SPECI KCLM 221537Z AUTO 14003KT 3SM BR BKN002 BKN035 OVC075 09/09 A2989 RMK AO2 RAB07E18 P0000 T00940094=
201711221527 SPECI KCLM 221527Z AUTO 00000KT 1 1/2SM BR SCT002 BKN060 OVC085 10/10 A2989 RMK AO2 RAB07E18 P0000 T01000100=
201711221506 SPECI KCLM 221506Z AUTO 34003KT 2SM BR BKN060 OVC090 09/09 A2989 RMK AO2 T00940094=
201711221455 SPECI KCLM 221455Z AUTO 16003KT 3SM BR FEW001 BKN055 OVC065 09/09 A2989 RMK AO2 T00940094=
201711221452 METAR KCLM 221452Z AUTO 20003KT 1 3/4SM BR FEW001 BKN060 OVC075 09/09 A2989 RMK AO2 RAE1359B31E44 SLP123 P0002 60002 T00890089 50001=
201711221451 SPECI KCLM 221451Z AUTO 21003KT 1 3/4SM BR FEW001 BKN065 OVC075 09/09 A2989 RMK AO2 RAE1359B31E44 P0002=
201711221437 SPECI KCLM 221437Z AUTO 00000KT 2 1/2SM -RA BR BKN060 OVC075 09/09 A2990 RMK AO2 VIS 1 3/4V4 RAE1359B31 P0002 T00940094=
201711221429 SPECI KCLM 221429Z AUTO 00000KT 3SM BR BKN060 OVC075 09/09 A2990 RMK AO2 RAE1359 P0000 T00890089=
201711221425 SPECI KCLM 221425Z AUTO 00000KT 1 1/2SM BR BKN060 OVC075 09/09 A2990 RMK AO2 RAE1359 P0000 T00890089=
201711221405 SPECI KCLM 221405Z AUTO 00000KT 3/4SM BR FEW040 BKN065 BKN080 09/09 A2990 RMK AO2 RAE1359 P0000 T00890089=
201711221353 METAR KCLM 221353Z AUTO 09003KT 1 1/2SM -RA BR FEW027 OVC070 09/09 A2990 RMK AO2 RAB49 SLP125 P0000 T00890089=
201711221346 SPECI KCLM 221346Z AUTO 00000KT 1 3/4SM BR FEW027 OVC070 08/08 A2990 RMK AO2 T00830083=
201711221338 SPECI KCLM 221338Z AUTO 00000KT 3/4SM BR SCT006 OVC070 08/08 A2990 RMK AO2 T00830083=
201711221324 SPECI KCLM 221324Z AUTO 00000KT 3/4SM BR FEW001 BKN011 OVC090 09/09 A2990 RMK AO2 VIS 1/4V5 T00890089=
201711221311 SPECI KCLM 221311Z AUTO 00000KT 5SM BR FEW001 BKN011 OVC065 08/08 A2990 RMK AO2 T00830083=
201711221307 SPECI KCLM 221307Z AUTO 00000KT 2SM BR BKN012 OVC070 08/08 A2990 RMK AO2 T00830083=
201711221253 METAR KCLM 221253Z AUTO 00000KT 1 1/2SM BR FEW001 OVC070 08/08 A2990 RMK AO2 SLP128 T00830083=
201711221246 SPECI KCLM 221246Z AUTO 23004KT 2SM BR FEW001 OVC070 08/08 A2990 RMK AO2 VIS 1 1/2V3 T00780078=
201711221225 SPECI KCLM 221225Z AUTO 00000KT 1/2SM FG SCT001 BKN070 08/08 A2990 RMK AO2 T00780078=
201711221217 SPECI KCLM 221217Z AUTO 00000KT 1 1/4SM BR FEW001 SCT070 08/08 A2990 RMK AO2 T00780078=
201711221208 SPECI KCLM 221208Z AUTO 22004KT 2 1/2SM BR FEW001 SCT020 BKN070 08/08 A2990 RMK AO2 T00830083=
201711221201 SPECI KCLM 221201Z AUTO 20004KT 3SM BR SCT020 BKN070 09/09 A2990 RMK AO2 T00890089=
201711221153 METAR KCLM 221153Z AUTO 00000KT 2 1/2SM BR SCT020 BKN070 08/08 A2989 RMK AO2 RAE09 SLP124 P0000 60004 70131 T00830083 10100 20072 55003=
201711221143 SPECI KCLM 221143Z AUTO 00000KT 4SM BR SCT020 BKN065 09/09 A2989 RMK AO2 RAE09 P0000 T00890089=
201711221132 SPECI KCLM 221132Z AUTO 00000KT 2 1/2SM BR BKN070 09/09 A2989 RMK AO2 RAE09 P0000 T00890089=
201711221120 SPECI KCLM 221120Z AUTO 00000KT 3SM BR BKN070 OVC090 09/09 A2989 RMK AO2 RAE09 P0000 T00890089=
201711221053 METAR KCLM 221053Z AUTO 00000KT 2 1/2SM -RA BR FEW002 SCT046 OVC085 09/09 A2989 RMK AO2 VIS 1 1/4V4 SLP122 P0003 T00940089=
201711221045 SPECI KCLM 221045Z AUTO 19003KT 1 1/2SM -RA BR SCT002 BKN049 OVC080 09/09 A2990 RMK AO2 P0003 T00890089=
201711221034 SPECI KCLM 221034Z AUTO 00000KT 3/4SM -RA BR SCT002 BKN049 OVC110 09/09 A2990 RMK AO2 P0002 T00890089=
201711221029 SPECI KCLM 221029Z AUTO 00000KT 1 3/4SM -RA BR BKN002 BKN055 OVC110 09/09 A2989 RMK AO2 P0002 T00890089=
201711221013 SPECI KCLM 221013Z AUTO 14003KT 3SM -RA BR FEW007 BKN090 OVC110 09/09 A2989 RMK AO2 P0002 T00940094=
201711221007 SPECI KCLM 221007Z AUTO 00000KT 1SM -RA BR FEW007 BKN070 OVC100 09/09 A2989 RMK AO2 P0000 T00890089=
201711220959 SPECI KCLM 220959Z AUTO 10003KT 3/4SM -RA BR SCT055 BKN070 OVC085 10/10 A2989 RMK AO2 P0000 T01000100=
201711220953 METAR KCLM 220953Z AUTO 08003KT 2SM -RA BR SCT055 OVC070 09/09 A2989 RMK AO2 RAE18B53 SLP121 P0000 T00940094=
201711220853 METAR KCLM 220853Z AUTO 00000KT 4SM -RA BR BKN070 OVC085 09/09 A2990 RMK AO2 RAB50 SLP127 P0000 60001 T00890089 51012=
201711220840 SPECI KCLM 220840Z AUTO 24003KT 3SM BR FEW050 OVC070 09/09 A2990 RMK AO2 T00890089=
201711220825 SPECI KCLM 220825Z AUTO 00000KT 1SM BR OVC060 09/09 A2991 RMK AO2 T00890089=
201711220817 SPECI KCLM 220817Z AUTO 00000KT 3/4SM BR SCT046 BKN065 OVC075 09/09 A2990 RMK AO2 T00890089=
201711220810 SPECI KCLM 220810Z AUTO 00000KT 1SM BR BKN060 OVC075 09/09 A2990 RMK AO2 T00890089=
201711220803 SPECI KCLM 220803Z AUTO 00000KT 2SM BR BKN060 OVC075 09/09 A2990 RMK AO2 T00890089=
201711220753 METAR KCLM 220753Z AUTO VRB03KT 1 1/2SM BR FEW001 BKN047 OVC075 09/09 A2990 RMK AO2 VIS 1V3 SLP125 T00940094 401000006=
201711220750 SPECI KCLM 220750Z AUTO 01004KT 1 3/4SM BR FEW001 SCT047 BKN060 09/09 A2990 RMK AO2=
201711220653 METAR KCLM 220653Z AUTO 00000KT 9SM OVC070 09/09 A2988 RMK AO2 RAE53 SLP121 P0001 T00890089=
201711220553 METAR KCLM 220553Z AUTO 16004KT 4SM -RA BR SCT070 OVC110 07/07 A2986 RMK AO2 RAB0454 SLP114 P0002 60005 T00720072 10072 20061 51021=
201711220453 METAR KCLM 220453Z AUTO 00000KT 4SM BR FEW041 BKN080 OVC110 07/07 A2986 RMK AO2 RAB40E49 PRESRR SLP112 P0000 T00670067=
201711220440 SPECI KCLM 220440Z AUTO 00000KT 5SM -RA BR SCT009 SCT065 OVC090 07/07 A2983 RMK AO2 RAB40 P0000 T00670067=
201711220435 SPECI KCLM 220435Z AUTO 00000KT 2 1/2SM BR BKN010 BKN070 OVC090 07/07 A2983 RMK AO2 T00670067=
201711220431 SPECI KCLM 220431Z AUTO 00000KT 1SM BR BKN008 OVC070 07/07 A2983 RMK AO2 T00670067=
201711220424 SPECI KCLM 220424Z AUTO 21005KT 1/2SM FG VV003 07/07 A2983 RMK AO2 T00670067=
201711220413 SPECI KCLM 220413Z AUTO 00000KT 1/4SM FG VV001 07/07 A2982 RMK AO2 T00670067=
201711220407 SPECI KCLM 220407Z AUTO 15004KT 1 1/4SM BR OVC001 07/07 A2982 RMK AO2 VIS 1/4V4 T00670067=
201711220353 METAR KCLM 220353Z AUTO 12003KT 3SM BR OVC002 07/07 A2982 RMK AO2 SLP101 T00670067=
201711220339 SPECI KCLM 220339Z AUTO 00000KT 4SM BR OVC002 07/07 A2981 RMK AO2 T00670067=
201711220329 SPECI KCLM 220329Z AUTO 00000KT 2SM BR BKN003 BKN060 07/07 A2982 RMK AO2 VIS 1 1/4V5 T00670067=
201711220321 SPECI KCLM 220321Z AUTO 00000KT 3SM BR SCT003 BKN060 07/07 A2981 RMK AO2 T00670067=
201711220313 SPECI KCLM 220313Z AUTO 00000KT 3SM BR BKN060 07/07 A2981 RMK AO2 T00670067=
201711220304 SPECI KCLM 220304Z AUTO 33003KT 1 3/4SM BR FEW048 BKN060 07/07 A2980 RMK AO2 T00670067=
201711220253 METAR KCLM 220253Z AUTO 00000KT 6SM BR FEW003 BKN050 OVC060 07/07 A2980 RMK AO2 RAE23 SLP093 P0000 60003 T00720072 51011=
201711220248 SPECI KCLM 220248Z AUTO 00000KT 6SM BR SCT003 OVC060 07/07 A2980 RMK AO2 RAE23 P0000=
201711220153 METAR KCLM 220153Z AUTO 11004KT 5SM -RA BR OVC004 07/07 A2978 RMK AO2 SLP087 P0001 T00720072=
201711220053 METAR KCLM 220053Z AUTO 00000KT 4SM -RA BR OVC003 07/07 A2977 RMK AO2 SLP082 P0002 T00720072=
201711212353 METAR KCLM 212353Z AUTO 00000KT 4SM -RA BR OVC002 07/07 A2976 RMK AO2 SLP078 P0001 60077 T00720072 10072 20056 56005=
201711212253 METAR KCLM 212253Z AUTO 00000KT 7SM -RA OVC003 07/07 A2976 RMK AO2 CIG 002V006 SLP080 P0012 T00720072=
201711212248 SPECI KCLM 212248Z AUTO 00000KT 7SM -RA OVC003 07/07 A2976 RMK AO2 P0012=
201711212205 SPECI KCLM 212205Z AUTO 07003KT 2 1/2SM -RA BR OVC003 07/07 A2976 RMK AO2 P0003 T00670067=
201711212153 METAR KCLM 212153Z AUTO 00000KT 3SM -RA BR OVC004 07/07 A2977 RMK AO2 SLP083 P0014 T00670067=
201711212140 SPECI KCLM 212140Z AUTO 00000KT 2 1/2SM -RA BR OVC004 06/06 A2977 RMK AO2 CIG 003V008 P0012 T00610061=
201711212128 SPECI KCLM 212128Z AUTO 15003KT 3SM -RA BR OVC006 06/06 A2978 RMK AO2 P0009 T00610061=
201711212107 SPECI KCLM 212107Z AUTO 00000KT 2 1/2SM RA BR OVC007 06/06 A2980 RMK AO2 P0005 T00610056=
201711212053 METAR KCLM 212053Z AUTO 00000KT 1 3/4SM RA BR OVC007 06/06 A2981 RMK AO2 CIG 006V011 SLP097 P0017 60050 T00610061 58041=
201711212043 SPECI KCLM 212043Z AUTO 00000KT 2 1/2SM -RA BR OVC007 06/06 A2981 RMK AO2 CIG 006V010 P0013 T00610061=
201711212019 SPECI KCLM 212019Z AUTO 14004KT 3SM -RA BR BKN009 OVC013 06/06 A2983 RMK AO2 PRESFR P0007 T00610061=
201711211953 METAR KCLM 211953Z AUTO 13004KT 2 1/2SM RA BR OVC011 06/06 A2986 RMK AO2 CIG 008V013 SLP115 P0018 T00610056=
201711211940 SPECI KCLM 211940Z AUTO 00000KT 2 1/2SM RA BR OVC011 06/06 A2987 RMK AO2 CIG 007V013 P0014 T00610056=
201711211853 METAR KCLM 211853Z AUTO 00000KT 2 1/2SM -RA BR OVC007 06/06 A2991 RMK AO2 CIG 006V011 SLP132 P0015 T00560056=
201711211753 METAR KCLM 211753Z AUTO 23004KT 2 1/2SM -RA BR OVC009 05/05 A2993 RMK AO2 CIG 008V012 SLP138 P0015 60045 T00500050 10050 20022 58001=
201711211744 SPECI KCLM 211744Z AUTO 24005KT 2SM -RA BR OVC009 05/05 A2994 RMK AO2 CIG 008V012 P0014 T00500050=
201711211733 SPECI KCLM 211733Z AUTO 27003KT 1 3/4SM RA BR OVC009 05/05 A2994 RMK AO2 P0011 T00500050=
201711211653 METAR KCLM 211653Z AUTO 00000KT 2 1/2SM -RA BR OVC008 05/05 A2994 RMK AO2 SLP139 P0007 T00500050=
201711211641 SPECI KCLM 211641Z AUTO 00000KT 3SM -RA BR OVC008 05/04 A2993 RMK AO2 P0004 T00500044=
201711211629 SPECI KCLM 211629Z AUTO 00000KT 2 1/2SM -RA BR OVC008 05/04 A2993 RMK AO2 CIG 007V011 P0003 T00500044=
201711211553 METAR KCLM 211553Z AUTO 10004KT 5SM -RA BR OVC011 05/04 A2994 RMK AO2 SLP140 P0011 T00500044=
201711211543 SPECI KCLM 211543Z AUTO 12004KT 5SM -RA BR OVC011 05/04 A2995 RMK AO2 P0009 T00500044=
201711211528 SPECI KCLM 211528Z AUTO 00000KT 5SM -RA BR BKN009 OVC014 05/05 A2995 RMK AO2 P0008 T00500050=
201711211525 SPECI KCLM 211525Z AUTO 00000KT 5SM -RA BR BKN012 OVC017 05/05 A2995 RMK AO2 P0006 T00500050=
201711211516 SPECI KCLM 211516Z AUTO 12003KT 5SM -RA BR FEW010 OVC016 05/05 A2995 RMK AO2 P0005 T00500050=
201711211506 SPECI KCLM 211506Z AUTO 13004KT 5SM -RA BR OVC014 05/04 A2995 RMK AO2 P0003 T00500044=
201711211453 METAR KCLM 211453Z AUTO 12003KT 4SM RA BR OVC015 05/05 A2996 RMK AO2 SLP147 P0011 60012 T00500050 56015=
201711211427 SPECI KCLM 211427Z AUTO 14003KT 5SM -RA BR BKN015 04/04 A2996 RMK AO2 P0003 T00440044=
201711211353 METAR KCLM 211353Z AUTO 13003KT 9SM -RA OVC014 04/04 A2997 RMK AO2 SLP150 P0001 T00440044=
201711211335 SPECI KCLM 211335Z AUTO 14004KT 9SM -RA OVC013 04/04 A2998 RMK AO2 P0001 T00390039=
201711211253 METAR KCLM 211253Z AUTO 00000KT 10SM -RA BKN017 BKN050 OVC095 04/04 A2999 RMK AO2 RAB24 SLP158 P0000 T00390039=
201711211153 METAR KCLM 211153Z AUTO 16004KT 10SM BKN013 BKN090 02/02 A3000 RMK AO2 SLP161 70029 T00220022 10028 20006 56009=
201711211104 SPECI KCLM 211104Z AUTO 14004KT 10SM FEW007 01/01 A3001 RMK AO2 T00110011=
201711211053 METAR KCLM 211053Z AUTO 00000KT 10SM CLR 01/01 A3001 RMK AO2 SLP166 T00110011=
201711210953 METAR KCLM 210953Z AUTO 00000KT 9SM CLR 01/01 A3001 RMK AO2 SLP165 T00110011=
201711210853 METAR KCLM 210853Z AUTO VRB03KT 10SM CLR 01/01 A3003 RMK AO2 SLP170 T00110006 56013=
201711210753 METAR KCLM 210753Z AUTO 00000KT 10SM CLR 02/01 A3004 RMK AO2 SLP175 T00170011 401000011=
201711210653 METAR KCLM 210653Z AUTO 22003KT 10SM CLR 02/02 A3005 RMK AO2 SLP178 T00170017=
201711210553 METAR KCLM 210553Z AUTO 22005KT 10SM CLR 03/02 A3007 RMK AO2 SLP183 T00280017 10083 20017 53024=
201711210453 METAR KCLM 210453Z AUTO 23005KT 10SM CLR 03/02 A3004 RMK AO2 SLP174 T00280022=
201711210353 METAR KCLM 210353Z AUTO 00000KT 10SM FEW037 02/02 A3002 RMK AO2 SLP166 T00170017=
201711210253 METAR KCLM 210253Z AUTO 21004KT 10SM FEW041 03/02 A2999 RMK AO2 SLP159 T00280017 53034=
201711210153 METAR KCLM 210153Z AUTO 22007KT 10SM CLR 04/03 A2995 RMK AO2 SLP145 T00440028=
201711210053 METAR KCLM 210053Z AUTO 25006KT 10SM CLR 06/02 A2993 RMK AO2 SLP135 T00560022=
201711202353 METAR KCLM 202353Z AUTO 29008KT 10SM CLR 08/01 A2989 RMK AO2 SLP125 T00830011 10100 20078 51035=
201711202253 METAR KCLM 202253Z AUTO 30009KT 10SM CLR 09/01 A2986 RMK AO2 SLP111 T00940011=
201711202153 METAR KCLM 202153Z AUTO 29012KT 10SM CLR 10/02 A2983 RMK AO2 SLP101 T01000022=
201711202053 METAR KCLM 202053Z AUTO 29007KT 10SM BKN060 09/02 A2979 RMK AO2 SLP090 T00890022 52045=
201711201953 METAR KCLM 201953Z AUTO 30013G19KT 10SM FEW110 09/04 A2975 RMK AO2 SLP074 T00890044=
201711201853 METAR KCLM 201853Z AUTO 30010KT 10SM BKN120 08/06 A2970 RMK AO2 SLP058 T00830056=
201711201753 METAR KCLM 201753Z AUTO 28007KT 10SM SCT028 08/06 A2966 RMK AO2 SLP043 60029 T00830061 10083 20067 53033=
201711201745 SPECI KCLM 201745Z AUTO 29008KT 10SM SCT028 BKN033 08/06 A2965 RMK AO2 T00780056=
201711201653 METAR KCLM 201653Z AUTO 30010KT 10SM BKN027 08/06 A2961 RMK AO2 SLP030 T00780061=
201711201644 SPECI KCLM 201644Z AUTO 28009KT 10SM BKN026 07/07 A2961 RMK AO2 T00720067=
201711201636 SPECI KCLM 201636Z AUTO 28008KT 10SM SCT026 07/07 A2960 RMK AO2 T00720067=
201711201553 METAR KCLM 201553Z AUTO 28010KT 10SM BKN015 BKN025 OVC029 08/07 A2958 RMK AO2 RAE36 SLP016 P0002 T00780072=
201711201505 SPECI KCLM 201505Z AUTO 28007KT 10SM -RA SCT007 BKN013 OVC047 08/07 A2956 RMK AO2 P0002 T00780072=
201711201453 METAR KCLM 201453Z AUTO 28005KT 9SM -RA BKN009 BKN013 OVC029 07/07 A2956 RMK AO2 SLP010 P0007 60027 T00720072 53008=
201711201434 SPECI KCLM 201434Z AUTO 00000KT 6SM -RA BR BKN006 OVC020 07/07 A2955 RMK AO2 P0007 T00720072=
201711201353 METAR KCLM 201353Z AUTO 23003KT 3SM -RA BR OVC003 07/07 A2955 RMK AO2 SLP007 P0011 T00720072=
201711201253 METAR KCLM 201253Z AUTO 00000KT 4SM -RA BR OVC003 07/07 A2953 RMK AO2 SLP002 P0009 T00720072=
201711201153 METAR KCLM 201153Z AUTO 00000KT 3SM -RA BR BKN004 OVC020 07/07 A2953 RMK AO2 SLP001 P0012 60037 70070 T00670067 10078 20067 53001=
201711201137 SPECI KCLM 201137Z AUTO 00000KT 2 1/2SM RA BR BKN002 OVC024 07/07 A2953 RMK AO2 P0008 T00720072=
201711201116 SPECI KCLM 201116Z AUTO 27003KT 8SM -RA BKN003 OVC048 07/07 A2954 RMK AO2 P0002 T00670067=
201711201106 SPECI KCLM 201106Z AUTO 00000KT 5SM -RA BR SCT003 SCT038 OVC047 07/07 A2953 RMK AO2 P0002 T00670067=
201711201053 METAR KCLM 201053Z AUTO 00000KT 2SM RA BR SCT003 BKN039 OVC048 07/07 A2953 RMK AO2 SLP000 P0020 T00720072=
201711201027 SPECI KCLM 201027Z AUTO 00000KT 2SM RA BR OVC003 07/07 A2954 RMK AO2 P0010 T00720072=
201711201019 SPECI KCLM 201019Z AUTO 27005KT 3SM -RA BR OVC003 07/07 A2955 RMK AO2 P0007 T00720072=
201711201011 SPECI KCLM 201011Z AUTO 27004KT 2 1/2SM RA BR BKN003 OVC007 07/07 A2954 RMK AO2 P0005 T00720072=
201711200953 METAR KCLM 200953Z AUTO 29006KT 4SM RA BR OVC005 07/07 A2953 RMK AO2 RAB10E28B46 SLP000 P0003 T00720072=
201711200908 SPECI KCLM 200908Z AUTO 24004KT 9SM BKN005 BKN080 OVC110 07/07 A2952 RMK AO2 P0002 T00670067=
201711200853 METAR KCLM 200853Z AUTO 27005KT 9SM FEW005 BKN090 OVC110 07/07 A2952 RMK AO2 RAB06E17 SLP998 P0000 60002 T00670067 51005=
201711200753 METAR KCLM 200753Z AUTO 25004KT 10SM BKN065 OVC080 07/07 A2952 RMK AO2 RAE33 SLP996 P0000 T00720072 401170039=
201711200653 METAR KCLM 200653Z AUTO 29004KT 10SM -RA OVC065 07/07 A2952 RMK AO2 SLP997 P0002 T00720072=
201711200553 METAR KCLM 200553Z AUTO 24005KT 10SM -RA BKN065 OVC080 08/07 A2951 RMK AO2 RAB0457E08B29 SLP992 P0000 60012 T00780072 10106 20078 53004=
201711200453 METAR KCLM 200453Z AUTO 00000KT 10SM BKN060 BKN075 OVC090 08/07 A2950 RMK AO2 RAE50 SLP988 P0002 T00780072=
201711200353 METAR KCLM 200353Z AUTO VRB05KT 10SM -RA SCT070 OVC095 09/07 A2948 RMK AO2 SLP986 P0002 T00890072=
201711200253 METAR KCLM 200253Z AUTO VRB05G14KT 10SM -RA SCT060 BKN090 OVC110 08/07 A2950 RMK AO2 RAE26B46 SLP990 P0000 60008 T00830072 56007=
201711200153 METAR KCLM 200153Z AUTO 33005KT 9SM -RA FEW049 BKN085 OVC100 09/07 A2950 RMK AO2 SLP991 P0003 T00890072=
201711200053 METAR KCLM 200053Z AUTO VRB04KT 5SM -RA BKN048 OVC090 10/07 A2950 RMK AO2 SLP990 P0005 T01000067=
201711192353 METAR KCLM 192353Z AUTO VRB03KT 6SM -RA BR BKN050 BKN065 OVC095 09/07 A2952 RMK AO2 SLP997 P0004 60021 T00940072 10117 20083 56033=
201711192253 METAR KCLM 192253Z AUTO 26013G25KT 9SM -RA FEW055 BKN080 OVC095 10/07 A2955 RMK AO2 SLP007 P0001 T01000072=
201711192153 METAR KCLM 192153Z AUTO VRB05G22KT 4SM -RA BKN055 OVC070 11/06 A2958 RMK AO2 SLP018 P0008 T01110061=
201711192109 SPECI KCLM 192109Z AUTO 13005KT 4SM -RA BR FEW045 BKN055 OVC065 09/08 A2961 RMK AO2 P0002 T00890083=
201711192100 SPECI KCLM 192100Z AUTO 2 1/2SM -RA BR BKN055 OVC070 09/08 A2961 RMK AO2 P0002 T00940078=
201711192053 METAR KCLM 192053Z AUTO VRB03KT 3SM -RA BR BKN060 OVC070 08/08 A2962 RMK AO2 PRESFR SLP031 P0008 60008 T00830078 56026=
201711191953 METAR KCLM 191953Z AUTO 32005KT 10SM -RA BKN060 OVC075 09/07 A2963 RMK AO2 RAB50 SLP036 P0000 T00890067=
201711191853 METAR KCLM 191853Z AUTO 09003KT 10SM FEW046 FEW060 SCT120 09/04 A2966 RMK AO2 SLP044 T00940044=
201711191753 METAR KCLM 191753Z AUTO 14004KT 10SM BKN041 BKN060 08/04 A2969 RMK AO2 PRESFR SLP057 T00830044 10083 20044 58042=
201711191653 METAR KCLM 191653Z AUTO 00000KT 10SM FEW042 FEW049 08/05 A2975 RMK AO2 SLP074 T00830050=
201711191553 METAR KCLM 191553Z AUTO 23004KT 10SM CLR 05/03 A2979 RMK AO2 SLP089 T00500033=
201711191453 METAR KCLM 191453Z AUTO 00000KT 10SM SCT060 BKN120 06/03 A2982 RMK AO2 SLP100 T00610028 58027=
201711191353 METAR KCLM 191353Z AUTO 16007KT 10SM BKN060 BKN120 06/04 A2985 RMK AO2 PRESFR SLP110 T00560039=
201711191253 METAR KCLM 191253Z AUTO 30003KT 10SM BKN060 05/03 A2989 RMK AO2 SLP125 T00500033=
201711191153 METAR KCLM 191153Z AUTO 14004KT 10SM BKN060 04/03 A2990 RMK AO2 PRESFR SLP127 T00440033 10056 20039 58030=
201711191053 METAR KCLM 191053Z AUTO 15004KT 10SM BKN060 04/03 A2994 RMK AO2 SLP139 T00440033=
201711190953 METAR KCLM 190953Z AUTO 16005KT 10SM OVC060 04/03 A2996 RMK AO2 SLP149 T00440033=
201711190853 METAR KCLM 190853Z AUTO 16004KT 10SM CLR 04/03 A2999 RMK AO2 SLP158 T00440033 58016=
201711190753 METAR KCLM 190753Z AUTO 00000KT 10SM CLR 05/04 A3001 RMK AO2 SLP165 T00500039 400940011=
201711190653 METAR KCLM 190653Z AUTO 00000KT 10SM FEW120 05/04 A3003 RMK AO2 SLP169 T00500044=
201711190553 METAR KCLM 190553Z AUTO 00000KT 10SM FEW110 06/04 A3004 RMK AO2 SLP174 T00560039 10078 20044 58015=
201711190453 METAR KCLM 190453Z AUTO 15003KT 10SM BKN110 06/04 A3006 RMK AO2 SLP181 T00560044=
201711190353 METAR KCLM 190353Z AUTO 00000KT 10SM OVC120 06/04 A3008 RMK AO2 SLP187 T00560044=
201711190253 METAR KCLM 190253Z AUTO 23004KT 10SM SCT070 BKN120 06/04 A3008 RMK AO2 SLP189 T00560044 56013=
201711190153 METAR KCLM 190153Z AUTO 00000KT 9SM OVC075 06/05 A3009 RMK AO2 SLP192 T00560050=
201711190053 METAR KCLM 190053Z AUTO 00000KT 10SM BKN075 06/04 A3010 RMK AO2 SLP196 T00560044=
201711182353 METAR KCLM 182353Z AUTO 00000KT 10SM CLR 08/04 A3012 RMK AO2 SLP202 T00780044 10094 20072 56013=
201711182253 METAR KCLM 182253Z AUTO 00000KT 10SM BKN075 08/05 A3013 RMK AO2 SLP206 T00830050=
201711182153 METAR KCLM 182153Z AUTO 00000KT 10SM CLR 09/04 A3015 RMK AO2 SLP210 T00890044=
201711182053 METAR KCLM 182053Z AUTO 03003KT 10SM BKN075 09/04 A3016 RMK AO2 SLP215 T00890044 58019=
201711181953 METAR KCLM 181953Z AUTO 08004KT 10SM SCT070 09/03 A3018 RMK AO2 SLP221 T00890033=
201711181853 METAR KCLM 181853Z AUTO 00000KT 10SM OVC065 08/03 A3022 RMK AO2 SLP235 T00830033=
201711181753 METAR KCLM 181753Z AUTO 00000KT 10SM OVC070 07/04 A3022 RMK AO2 SLP234 T00720044 10072 20011 58003=
201711181653 METAR KCLM 181653Z AUTO 00000KT 10SM OVC070 04/04 A3023 RMK AO2 SLP237 T00390039=
201711181553 METAR KCLM 181553Z AUTO 00000KT 10SM FEW060 SCT080 01/01 A3023 RMK AO2 SLP240 T00110006=
201711181453 METAR KCLM 181453Z AUTO 21003KT 10SM FEW060 02/01 A3023 RMK AO2 SLP239 T00170011 56005=
201711181353 METAR KCLM 181353Z AUTO 11003KT 10SM SCT060 02/02 A3024 RMK AO2 SLP241 T00220017=
201711181253 METAR KCLM 181253Z AUTO 25003KT 10SM OVC065 03/03 A3023 RMK AO2 SLP240 T00330028=
201711181153 METAR KCLM 181153Z AUTO 00000KT 10SM FEW070 OVC120 04/03 A3024 RMK AO2 SLP243 T00390028 10056 20022 58008=
201711181053 METAR KCLM 181053Z AUTO 25006KT 10SM BKN065 06/03 A3026 RMK AO2 SLP248 T00560028=
201711180953 METAR KCLM 180953Z AUTO 24005KT 10SM BKN080 02/02 A3025 RMK AO2 SLP247 T00220017=
201711180853 METAR KCLM 180853Z AUTO 00000KT 10SM FEW060 SCT075 OVC120 02/02 A3027 RMK AO2 SLP251 T00220022 50003=
201711180753 METAR KCLM 180753Z AUTO 00000KT 10SM BKN060 03/03 A3027 RMK AO2 SLP251 T00330028 401000028=
201711180653 METAR KCLM 180653Z AUTO 25005KT 10SM SCT070 03/02 A3026 RMK AO2 SLP248 T00330022=
201711180553 METAR KCLM 180553Z AUTO 23004KT 10SM OVC060 05/03 A3025 RMK AO2 SLP247 T00500033 10083 20033 51010=
201711180453 METAR KCLM 180453Z AUTO 20003KT 10SM BKN070 04/03 A3025 RMK AO2 SLP244 T00390028=
201711180353 METAR KCLM 180353Z AUTO 22006KT 10SM BKN060 05/03 A3024 RMK AO2 SLP241 T00500033=
201711180253 METAR KCLM 180253Z AUTO 15003KT 10SM SCT060 04/03 A3022 RMK AO2 SLP237 T00440033 51013=
201711180153 METAR KCLM 180153Z AUTO 25004KT 10SM CLR 05/04 A3022 RMK AO2 SLP235 T00500039=
201711180053 METAR KCLM 180053Z AUTO 15003KT 10SM FEW035 OVC060 08/04 A3020 RMK AO2 SLP229 T00780039=
201711180014 SPECI KCLM 180014Z AUTO 00000KT 10SM SCT029 SCT038 OVC060 08/03 A3019 RMK AO2 T00830033=
201711172353 METAR KCLM 172353Z AUTO 10SM BKN029 OVC034 08/04 A3019 RMK AO2 SLP224 T00780044 10100 20072 51021=
201711172253 METAR KCLM 172253Z AUTO 12007KT 10SM FEW036 BKN070 09/03 A3015 RMK AO2 SLP212 T00940028=
201711172153 METAR KCLM 172153Z AUTO 32004KT 10SM OVC060 09/03 A3012 RMK AO2 SLP203 T00940028=
201711172053 METAR KCLM 172053Z AUTO 26008KT 10SM SCT055 10/03 A3010 RMK AO2 SLP195 T01000028 51025=
201711171953 METAR KCLM 171953Z AUTO 32005KT 10SM BKN050 OVC070 09/03 A3008 RMK AO2 SLP188 T00890033=
201711171853 METAR KCLM 171853Z AUTO 26008KT 10SM BKN070 09/03 A3006 RMK AO2 SLP180 T00890028=
201711171753 METAR KCLM 171753Z AUTO 24009KT 10SM CLR 07/02 A3002 RMK AO2 SLP169 60000 T00720022 10072 20039 51038=
201711171653 METAR KCLM 171653Z AUTO 25005KT 10SM BKN060 06/02 A2999 RMK AO2 SLP157 T00560022=
201711171553 METAR KCLM 171553Z AUTO 24006KT 10SM BKN060 05/02 A2995 RMK AO2 SLP144 T00500022=
201711171453 METAR KCLM 171453Z AUTO 27008KT 10SM SCT050 SCT065 04/02 A2991 RMK AO2 RAE07 SLP130 P0000 60000 T00440017 51028=
201711171353 METAR KCLM 171353Z AUTO 27011KT 9SM -RA SCT039 BKN049 05/02 A2989 RMK AO2 RAB52 SLP122 P0000 T00500022=
201711171253 METAR KCLM 171253Z AUTO 24011KT 10SM BKN050 BKN065 05/02 A2985 RMK AO2 SLP110 T00500022=
201711171153 METAR KCLM 171153Z AUTO 27008KT 10SM CLR 04/02 A2983 RMK AO2 SLP102 60002 70006 T00390022 10056 20039 51030=
201711171053 METAR KCLM 171053Z AUTO 25009KT 10SM SCT047 05/03 A2980 RMK AO2 SLP094 T00500028=
201711170953 METAR KCLM 170953Z AUTO 25009KT 10SM CLR 04/02 A2977 RMK AO2 SLP081 T00440022=
201711170853 METAR KCLM 170853Z AUTO 25009KT 10SM FEW048 05/03 A2974 RMK AO2 SLP071 60002 T00500028 53023=
201711170753 METAR KCLM 170753Z AUTO 25009KT 10SM BKN044 05/03 A2971 RMK AO2 SLP062 T00500033 401000011=
201711170653 METAR KCLM 170653Z AUTO 27011KT 10SM BKN040 BKN047 OVC055 05/03 A2969 RMK AO2 RAE35 SLP056 P0002 T00500033=
201711170553 METAR KCLM 170553Z AUTO 23005KT 7SM -RA BKN038 BKN050 OVC060 06/04 A2967 RMK AO2 SLP048 P0002 60004 T00560039 10067 20039 53017=
201711170453 METAR KCLM 170453Z AUTO 23004KT 10SM -RA BKN042 OVC080 04/04 A2964 RMK AO2 RAB32 SLP040 P0000 T00440039=
201711170353 METAR KCLM 170353Z AUTO 26008KT 10SM CLR 04/03 A2964 RMK AO2 SLP038 T00390028=
201711170253 METAR KCLM 170253Z AUTO VRB04KT 10SM CLR 04/03 A2962 RMK AO2 RAE06 SLP033 P0000 60002 T00440028 51008=
201711170153 METAR KCLM 170153Z AUTO 19005KT 8SM -RA OVC042 06/04 A2962 RMK AO2 SLP030 P0002 T00610039=
201711170053 METAR KCLM 170053Z AUTO 22005KT 10SM -RA BKN046 OVC070 06/06 A2961 RMK AO2 RAB45 SLP028 P0000 T00610056=
201711162353 METAR KCLM 162353Z AUTO 00000KT 10SM SCT060 07/05 A2960 RMK AO2 SLP023 T00670050 10100 20061 53003=
201711162253 METAR KCLM 162253Z AUTO 03003KT 10SM FEW009 08/06 A2959 RMK AO2 SLP020 T00780056=
201711162153 METAR KCLM 162153Z AUTO 00000KT 10SM OVC070 10/04 A2959 RMK AO2 SLP020 T01000044=
201711162053 METAR KCLM 162053Z AUTO 00000KT 10SM FEW065 OVC100 08/04 A2958 RMK AO2 SLP019 T00830044 58001=
201711161953 METAR KCLM 161953Z AUTO VRB03KT 10SM SCT070 BKN085 OVC110 08/04 A2958 RMK AO2 SLP019 T00830044=
201711161853 METAR KCLM 161853Z AUTO 00000KT 10SM OVC100 07/05 A2959 RMK AO2 SLP021 T00720050=
201711161753 METAR KCLM 161753Z AUTO 00000KT 10SM SCT110 06/04 A2959 RMK AO2 SLP020 T00610039 10061 20011 51010=
201711161653 METAR KCLM 161653Z AUTO 22005KT 10SM FEW044 FEW065 04/03 A2958 RMK AO2 SLP017 T00440033=
201711161553 METAR KCLM 161553Z AUTO 19003KT 10SM CLR 01/01 A2957 RMK AO2 SLP015 T00110011=
201711161453 METAR KCLM 161453Z AUTO 00000KT 10SM CLR 02/01 A2956 RMK AO2 SLP010 T00170011 51009=
201711161353 METAR KCLM 161353Z AUTO 22005KT 10SM FEW070 BKN090 02/02 A2955 RMK AO2 SLP009 T00220017=
201711161253 METAR KCLM 161253Z AUTO 00000KT 10SM FEW046 02/02 A2953 RMK AO2 SLP003 T00220017 TSNO=
201711161153 METAR KCLM 161153Z AUTO 25004KT 10SM FEW060 FEW075 BKN100 04/03 A2953 RMK AO2 SLP000 60000 70027 T00440033 10056 20028 51012=
201711161053 METAR KCLM 161053Z AUTO 23005KT 10SM SCT100 BKN120 04/03 A2952 RMK AO2 SLP997 T00390028=
201711160953 METAR KCLM 160953Z AUTO 25004KT 10SM SCT095 OVC110 04/03 A2950 RMK AO2 SLP992 T00390033=
201711160853 METAR KCLM 160853Z AUTO 24008KT 10SM FEW090 SCT120 05/03 A2949 RMK AO2 SLP988 60000 T00500028 53002=
201711160753 METAR KCLM 160753Z AUTO 27007KT 10SM FEW070 04/03 A2949 RMK AO2 RAE0658 SLP987 P0000 T00440033 401060028=
201711160653 METAR KCLM 160653Z AUTO 26009KT 10SM -RA BKN050 OVC070 06/03 A2949 RMK AO2 RAB45 SLP987 P0000 T00560033=
201711160553 METAR KCLM 160553Z AUTO 26006KT 10SM SCT060 BKN110 05/03 A2949 RMK AO2 SLP987 60000 T00500033 10072 20028 56008=
201711160453 METAR KCLM 160453Z AUTO 00000KT 9SM SCT110 03/03 A2949 RMK AO2 SLP988 T00280028=
201711160353 METAR KCLM 160353Z AUTO 00000KT 10SM BKN060 03/03 A2950 RMK AO2 SLP989 T00330033=
201711160253 METAR KCLM 160253Z AUTO 21004KT 10SM OVC070 06/04 A2951 RMK AO2 SLP995 60000 T00610039 58014=
201711160153 METAR KCLM 160153Z AUTO 24004KT 10SM CLR 06/03 A2953 RMK AO2 SLP000 T00560033=
201711160053 METAR KCLM 160053Z AUTO 23005KT 10SM SCT070 SCT085 06/04 A2955 RMK AO2 RAE2359 SLP006 P0000 T00610039=
201711152353 METAR KCLM 152353Z AUTO 27006KT 10SM -RA SCT048 BKN070 OVC085 08/04 A2955 RMK AO2 RAB23 SLP009 P0001 60001 T00780044 10106 20067 56005=
201711152253 METAR KCLM 152253Z AUTO 35003KT 10SM SCT065 08/04 A2955 RMK AO2 SLP009 T00830044=
201711152153 METAR KCLM 152153Z AUTO 25005KT 10SM BKN070 10/04 A2956 RMK AO2 SLP012 T01000039=
201711152053 METAR KCLM 152053Z AUTO VRB05KT 10SM CLR 10/04 A2957 RMK AO2 SLP013 T01000044 58009=
201711151953 METAR KCLM 151953Z AUTO 14007KT 10SM FEW065 BKN100 11/04 A2958 RMK AO2 SLP017 T01060039=
201711151853 METAR KCLM 151853Z AUTO 21004KT 10SM CLR 09/04 A2960 RMK AO2 SLP023 T00890044=
201711151753 METAR KCLM 151753Z AUTO 21007KT 10SM CLR 07/05 A2959 RMK AO2 SLP023 60026 T00720050 10072 20056 58006=
201711151653 METAR KCLM 151653Z AUTO 00000KT 10SM SCT060 06/06 A2960 RMK AO2 SLP024 T00560056=
201711151553 METAR KCLM 151553Z AUTO 14006KT 10SM SCT055 OVC080 06/04 A2961 RMK AO2 RAE43 SLP028 P0003 T00560044=
201711151453 METAR KCLM 151453Z AUTO 30011KT 3SM RA BR OVC032 06/05 A2961 RMK AO2 SLP029 P0009 60023 T00560050 53010=
201711151353 METAR KCLM 151353Z AUTO 28010KT 5SM -RA BR OVC036 06/06 A2960 RMK AO2 RAB1257 SLP025 P0011 T00610056=
201711151253 METAR KCLM 151253Z AUTO 26010KT 10SM SCT060 BKN075 OVC090 07/04 A2956 RMK AO2 RAE29 SLP012 P0003 T00670044=
201711151153 METAR KCLM 151153Z AUTO 20007KT 5SM RA BR OVC040 06/06 A2958 RMK AO2 SLP019 P0006 60043 70166 T00610056 10089 20061 58016=
201711151053 METAR KCLM 151053Z AUTO 26003KT 7SM -RA OVC044 06/06 A2960 RMK AO2 SLP025 P0007 T00610061=
201711150953 METAR KCLM 150953Z AUTO 21004KT 8SM -RA FEW005 OVC044 07/07 A2962 RMK AO2 SLP032 P0008 T00670067=
201711150924 SPECI KCLM 150924Z AUTO VRB03KT 7SM -RA FEW006 OVC040 07/07 A2960 RMK AO2 P0005 T00670067=
201711150853 METAR KCLM 150853Z AUTO VRB05KT 6SM -RA BR OVC040 07/07 A2963 RMK AO2 SLP034 P0013 60022 T00670067 58004=
201711150753 METAR KCLM 150753Z AUTO 25006KT 5SM -RA BR OVC041 07/06 A2965 RMK AO2 SLP041 P0008 T00720061 400890033=
201711150653 METAR KCLM 150653Z AUTO 00000KT 9SM -RA OVC050 07/06 A2962 RMK AO2 SLP033 P0001 T00720061=
201711150553 METAR KCLM 150553Z AUTO 18008KT 10SM -RA OVC050 08/05 A2964 RMK AO2 SLP038 P0003 60015 T00830050 10089 20061 56020=
201711150453 METAR KCLM 150453Z AUTO 14011G20KT 10SM -RA OVC055 09/05 A2965 RMK AO2 SLP042 P0002 T00890050=
201711150353 METAR KCLM 150353Z AUTO 00000KT 10SM -RA OVC050 07/06 A2968 RMK AO2 SLP051 P0001 T00720061=
201711150253 METAR KCLM 150253Z AUTO 24004KT 10SM -RA OVC050 07/07 A2970 RMK AO2 SLP058 P0002 60009 T00720067 58025=
201711150153 METAR KCLM 150153Z AUTO 00000KT 8SM -RA OVC050 07/06 A2973 RMK AO2 SLP070 P0003 T00670061=
201711150053 METAR KCLM 150053Z AUTO 00000KT 9SM -RA OVC055 07/07 A2975 RMK AO2 SLP077 P0004 T00670067=
201711142353 METAR KCLM 142353Z AUTO VRB03KT 6SM -RA BR OVC050 07/07 A2977 RMK AO2 SLP084 P0006 60074 T00720067 10072 20067 56025=
201711142302 SPECI KCLM 142302Z AUTO 00000KT 4SM -RA BR OVC043 07/07 A2978 RMK AO2 P0001 T00670067=
201711142253 METAR KCLM 142253Z AUTO 00000KT 2 1/2SM -RA BR OVC039 07/07 A2980 RMK AO2 SLP091 P0017 T00670067=
201711142240 SPECI KCLM 142240Z AUTO 26005KT 2SM RA BR OVC040 07/07 A2981 RMK AO2 P0014 T00670067=
201711142219 SPECI KCLM 142219Z AUTO 26003KT 1 3/4SM RA BR BKN042 OVC055 07/07 A2981 RMK AO2 P0005 T00720067=
201711142203 SPECI KCLM 142203Z AUTO 27005KT 9SM -RA FEW009 BKN048 OVC055 07/07 A2982 RMK AO2 P0000 T00720067=
201711142153 METAR KCLM 142153Z AUTO 00000KT 8SM -RA FEW010 BKN046 OVC055 07/07 A2981 RMK AO2 SLP097 P0007 T00720072=
201711142122 SPECI KCLM 142122Z AUTO 22004KT 7SM -RA BKN044 OVC055 07/07 A2984 RMK AO2 P0006 T00720067=
201711142053 METAR KCLM 142053Z AUTO 23003KT 2 1/2SM -RA BR FEW010 OVC039 07/07 A2985 RMK AO2 VIS 1 3/4V3 SLP109 P0015 60044 T00670067 58005=
201711142021 SPECI KCLM 142021Z AUTO VRB03KT 3SM -RA BR OVC038 07/06 A2986 RMK AO2 P0009 T00670061=
201711142012 SPECI KCLM 142012Z AUTO 00000KT 1 1/2SM RA BR OVC037 07/06 A2987 RMK AO2 P0006 T00670061=
201711142001 SPECI KCLM 142001Z AUTO 27004KT 2SM RA BR OVC037 07/06 A2987 RMK AO2 P0001 T00670061=
201711141953 METAR KCLM 141953Z AUTO 33004KT 1 3/4SM RA BR OVC037 07/07 A2986 RMK AO2 SLP113 P0021 T00670067=
201711141936 SPECI KCLM 141936Z AUTO 00000KT 1 3/4SM RA BR OVC037 07/07 A2987 RMK AO2 P0013 T00670067=
201711141926 SPECI KCLM 141926Z AUTO 24003KT 2 1/2SM -RA BR OVC037 07/07 A2987 RMK AO2 P0010 T00670067=
201711141904 SPECI KCLM 141904Z AUTO 00000KT 1 1/2SM RA BR OVC038 07/07 A2988 RMK AO2 P0003 T00670067=
201711141853 METAR KCLM 141853Z AUTO 22003KT 2SM -RA BR OVC040 07/07 A2989 RMK AO2 VIS 1 1/2V3 SLP124 P0008 T00670067=
201711141848 SPECI KCLM 141848Z AUTO 25004KT 1 3/4SM RA BR OVC040 07/07 A2989 RMK AO2 P0006=
201711141753 METAR KCLM 141753Z AUTO 10004KT 4SM -RA BR BKN041 OVC050 07/06 A2986 RMK AO2 SLP115 P0017 60034 T00670061 10072 20033 58002=
201711141748 SPECI KCLM 141748Z AUTO 00000KT 6SM -RA BR OVC041 07/06 A2987 RMK AO2 P0016=
201711141739 SPECI KCLM 141739Z AUTO 00000KT 2SM -RA BR OVC039 06/06 A2987 RMK AO2 P0014 T00610061=
201711141653 METAR KCLM 141653Z AUTO 00000KT 1 3/4SM RA BR OVC038 06/06 A2988 RMK AO2 RAB12 SLP120 P0012 T00610061=
201711141553 METAR KCLM 141553Z AUTO 14004KT 10SM OVC055 06/05 A2987 RMK AO2 RAE40 SLP117 P0000 T00610050=
201711141453 METAR KCLM 141453Z AUTO 25006KT 10SM -RA BKN050 OVC065 06/05 A2988 RMK AO2 RAE1358B19 SLP118 P0002 60005 T00610050 55004=
201711141353 METAR KCLM 141353Z AUTO 23005KT 10SM -RA OVC044 06/05 A2986 RMK AO2 RAB02 SLP115 P0003 T00610050 $=
201711141253 METAR KCLM 141253Z AUTO 17005KT 10SM BKN065 04/03 A2989 RMK AO2 SLP122 T00440033 $=
201711141153 METAR KCLM 141153Z AUTO 16003KT 10SM BKN065 03/03 A2989 RMK AO2 SLP123 60000 70067 T00330033 10089 20033 58002 $=
201711141053 METAR KCLM 141053Z AUTO 16003KT 10SM SCT055 BKN070 04/03 A2990 RMK AO2 SLP126 T00390033 $=
201711140953 METAR KCLM 140953Z AUTO 00000KT 10SM FEW065 06/04 A2989 RMK AO2 SLP123 T00610039 $=
201711140853 METAR KCLM 140853Z AUTO 23007KT 10SM CLR 06/04 A2989 RMK AO2 RAE11 SLP125 P0000 60000 T00560044 51019 $=
201711140753 METAR KCLM 140753Z AUTO 22004KT 10SM -RA BKN055 BKN070 OVC110 07/06 A2989 RMK AO2 RAB53 SLP122 P0000 T00670056 400940056 $=
201711140653 METAR KCLM 140653Z AUTO 24007KT 10SM BKN065 BKN090 07/05 A2987 RMK AO2 SLP115 T00720050 $=
201711140553 METAR KCLM 140553Z AUTO 19003KT 10SM BKN060 08/04 A2984 RMK AO2 SLP106 60009 T00780044 10083 20061 51047 $=
201711140453 METAR KCLM 140453Z AUTO 00000KT 10SM SCT060 08/06 A2979 RMK AO2 RAE15 PRESRR SLP091 P0000 T00780056 $=
201711140353 METAR KCLM 140353Z AUTO 24007KT 10SM -RA BKN050 OVC065 08/06 A2974 RMK AO2 SLP073 P0001 T00830061 $=
201711140253 METAR KCLM 140253Z AUTO 24012KT 10SM -RA FEW035 OVC050 08/06 A2970 RMK AO2 SLP057 P0000 60008 T00830056 53063 $=
201711140153 METAR KCLM 140153Z AUTO 26009KT 10SM -RA FEW040 BKN050 OVC090 08/06 A2963 RMK AO2 SLP036 P0002 T00830061 $=
201711140053 METAR KCLM 140053Z AUTO 24012KT 10SM -RA OVC055 08/06 A2956 RMK AO2 SLP012 P0006 T00780056=
201711132353 METAR KCLM 132353Z AUTO 24012KT 10SM -RA OVC055 07/06 A2951 RMK AO2 SLP994 P0003 60034 T00720056 10089 20067 53001=
201711132253 METAR KCLM 132253Z AUTO 10010G18KT 5SM -RA OVC043 09/06 A2946 RMK AO2 SLP977 P0012 T00890056=
201711132153 METAR KCLM 132153Z AUTO VRB06KT 9SM -RA BKN042 OVC050 08/06 A2947 RMK AO2 SLP979 P0004 T00830056=
201711132053 METAR KCLM 132053Z AUTO VRB03KT 5SM -RA BR BKN046 BKN050 OVC070 08/07 A2951 RMK AO2 RAB1959 SLP993 P0003 60015 T00830072 58034=
201711131953 METAR KCLM 131953Z AUTO 07003KT 10SM FEW045 BKN060 OVC070 08/07 A2957 RMK AO2 RAE27 SLP015 P0003 T00780067=
201711131916 SPECI KCLM 131916Z AUTO 09007KT 6SM -RA BR BKN033 BKN044 OVC050 07/06 A2960 RMK AO2 P0003 T00720061=
201711131853 METAR KCLM 131853Z AUTO 04003KT 2SM RA BR OVC031 07/06 A2961 RMK AO2 SLP027 P0009 T00670061=
201711131848 SPECI KCLM 131848Z AUTO 00000KT 2SM -RA BR OVC033 07/06 A2961 RMK AO2 P0006=
201711131753 METAR KCLM 131753Z AUTO 14005KT 10SM -RA BKN049 BKN070 OVC080 07/06 A2960 RMK AO2 RAB01E26B51 SLP025 P0002 60024 T00720061 10094 20072 51023=
201711131653 METAR KCLM 131653Z AUTO 19006KT 10SM BKN039 BKN070 BKN100 08/05 A2959 RMK AO2 RAE52 SLP020 P0000 T00780050=
201711131601 SPECI KCLM 131601Z AUTO 17005KT 10SM -RA BKN039 OVC070 07/06 A2956 RMK AO2 P0000 T00720056=
201711131553 METAR KCLM 131553Z AUTO 24006KT 2 1/2SM -RA BR OVC036 08/06 A2958 RMK AO2 SLP017 P0010 T00780056=
201711131546 SPECI KCLM 131546Z AUTO 19007G18KT 1 3/4SM RA BR OVC036 08/06 A2958 RMK AO2 P0008 T00780056=
201711131453 METAR KCLM 131453Z AUTO 23006KT 10SM -RA OVC044 09/06 A2953 RMK AO2 PRESRR SLP002 P0003 60012 T00890061 51030=
201711131353 METAR KCLM 131353Z AUTO 14006KT 5SM -RA BR OVC043 08/07 A2952 RMK AO2 SLP996 P0006 T00780072=
201711131253 METAR KCLM 131253Z AUTO 16004KT 7SM -RA OVC046 08/07 A2948 RMK AO2 SLP982 P0003 T00780072=
201711131153 METAR KCLM 131153Z AUTO 00000KT 10SM -RA BKN065 OVC080 07/07 A2944 RMK AO2 RAB03 SLP971 P0000 60045 70132 T00720067 10094 20067 58021=
201711131053 METAR KCLM 131053Z AUTO 18006KT 10SM BKN060 OVC080 09/05 A2946 RMK AO2 RAE29 SLP977 P0006 T00940050=
201711130953 METAR KCLM 130953Z AUTO 24014G17KT 4SM RA BR OVC046 08/08 A2954 RMK AO2 PRESRR SLP005 P0025 T00780078=
201711130941 SPECI KCLM 130941Z AUTO 24008KT 210V280 3SM RA BR OVC046 08/07 A2951 RMK AO2 PRESRR P0019 T00780072=
201711130930 SPECI KCLM 130930Z AUTO 00000KT 2 1/2SM RA BR OVC048 08/08 A2949 RMK AO2 P0016 T00780078=
201711130920 SPECI KCLM 130920Z AUTO 00000KT 1 3/4SM RA BR OVC048 08/08 A2949 RMK AO2 P0010 T00780078=
201711130853 METAR KCLM 130853Z AUTO 24004KT 3SM RA BR OVC055 07/07 A2950 RMK AO2 SLP992 P0007 60014 T00720072 56055=
201711130828 SPECI KCLM 130828Z AUTO 00000KT 7SM -RA BKN060 BKN075 OVC090 07/07 A2950 RMK AO2 P0000 T00720072=
201711130820 SPECI KCLM 130820Z AUTO 00000KT 2 1/2SM -RA BR FEW012 BKN060 OVC090 07/07 A2951 RMK AO2 P0000 T00670067=
201711130804 SPECI KCLM 130804Z AUTO 00000KT 6SM -RA BR SCT008 BKN045 OVC070 07/07 A2953 RMK AO2 P0000 T00720072=
201711130753 METAR KCLM 130753Z AUTO 00000KT 8SM -RA BKN009 BKN050 OVC080 07/07 A2953 RMK AO2 RAB0657 SLP001 P0002 T00720072 400940056=
201711130746 SPECI KCLM 130746Z AUTO 00000KT 7SM -RA SCT009 BKN050 OVC090 07/07 A2953 RMK AO2 RAB0657 P0002 T00720072=
201711130653 METAR KCLM 130653Z AUTO 00000KT 10SM OVC060 08/08 A2961 RMK AO2 RAE51 SLP028 P0005 T00780078=
201711130640 SPECI KCLM 130640Z AUTO 15003KT 8SM -RA BKN055 OVC070 08/08 A2961 RMK AO2 P0005 T00780078=
201711130633 SPECI KCLM 130633Z AUTO 13003KT 2 1/2SM -RA BR BKN055 OVC070 08/08 A2962 RMK AO2 PRESFR P0005 T00780078=
201711130553 METAR KCLM 130553Z AUTO VRB03KT 6SM -RA BR FEW005 OVC060 08/08 A2967 RMK AO2 RAE05B20 SLP047 P0002 60030 T00780078 10089 20067 58027=
201711130541 SPECI KCLM 130541Z AUTO 17006KT 7SM -RA FEW003 SCT008 OVC060 08/08 A2968 RMK AO2 RAE05B20 P0002 T00780078=
201711130513 SPECI KCLM 130513Z AUTO 12006KT 9SM BKN002 OVC060 08/08 A2968 RMK AO2 RAE05 P0002 T00780078=
201711130453 METAR KCLM 130453Z AUTO 07003KT 7SM -RA FEW002 OVC065 07/07 A2970 RMK AO2 SLP058 P0000 T00720072=
201711130415 SPECI KCLM 130415Z AUTO 00000KT 6SM -RA BR SCT004 BKN060 OVC075 07/07 A2971 RMK AO2 P0000 T00720072=
201711130353 METAR KCLM 130353Z AUTO 23004KT 10SM -RA BKN004 OVC065 07/07 A2973 RMK AO2 RAB21 SLP068 P0002 T00720072=
201711130346 SPECI KCLM 130346Z AUTO 00000KT 10SM -RA BKN004 BKN023 OVC065 07/07 A2973 RMK AO2 RAB21 P0002 T00720072=
201711130340 SPECI KCLM 130340Z AUTO 25004KT 10SM -RA SCT004 OVC070 07/07 A2973 RMK AO2 RAB21 P0000 T00720067=
201711130253 METAR KCLM 130253Z AUTO 32003KT 10SM FEW013 07/07 A2975 RMK AO2 RAE0157 SLP075 P0000 60026 T00670067 56029=
201711130223 SPECI KCLM 130223Z AUTO 00000KT 10SM BKN012 OVC060 08/07 A2977 RMK AO2 RAE0157 P0000 T00780072=
201711130153 METAR KCLM 130153Z AUTO 00000KT 10SM -RA SCT060 BKN070 OVC085 08/08 A2976 RMK AO2 SLP078 P0000 T00780078=
201711130053 METAR KCLM 130053Z AUTO 00000KT 4SM -RA BR OVC060 09/09 A2979 RMK AO2 SLP088 P0026 T00890089=
201711122353 METAR KCLM 122353Z AUTO 19003KT 3SM -RA BR OVC049 09/09 A2983 RMK AO2 RAB08 SLP102 P0017 60047 T00890089 10094 20083 56007=
201711122351 SPECI KCLM 122351Z AUTO 18003KT 4SM -RA BR OVC049 09/09 A2983 RMK AO2 RAB08 P0017=
201711122344 SPECI KCLM 122344Z AUTO 17004KT 2 1/2SM -RA BR OVC050 09/09 A2983 RMK AO2 VIS 1 3/4V4 RAB08 P0014 T00890089=
201711122333 SPECI KCLM 122333Z AUTO 17003KT 1 3/4SM RA BR OVC050 09/09 A2983 RMK AO2 RAB08 P0010 T00890089=
201711122253 METAR KCLM 122253Z AUTO 10004KT 8SM FEW040 BKN050 BKN065 09/09 A2984 RMK AO2 RAB04E16 SLP105 P0000 T00940089=
201711122153 METAR KCLM 122153Z AUTO 10004KT 7SM FEW004 OVC055 09/09 A2985 RMK AO2 RAE45 SLP110 P0004 T00940089=
201711122118 SPECI KCLM 122118Z AUTO 00000KT 4SM -RA BR SCT004 OVC055 09/09 A2987 RMK AO2 P0002 T00890089=
201711122053 METAR KCLM 122053Z AUTO 00000KT 7SM -RA OVC004 09/09 A2987 RMK AO2 SLP116 P0011 60026 T00890089 58006=
201711122023 SPECI KCLM 122023Z AUTO 36003KT 3SM -RA BR BKN003 OVC055 09/09 A2987 RMK AO2 P0008 T00890089=
201711122010 SPECI KCLM 122010Z AUTO 00000KT 3SM -RA BR SCT003 OVC050 09/09 A2987 RMK AO2 P0006 T00890089=
201711122002 SPECI KCLM 122002Z AUTO 00000KT 1 1/2SM RA BR FEW005 OVC050 09/09 A2987 RMK AO2 P0004 T00890089=
201711121953 METAR KCLM 121953Z AUTO 00000KT 2 1/2SM RA BR SCT005 OVC050 09/09 A2988 RMK AO2 SLP121 P0009 T00890089=
201711121946 SPECI KCLM 121946Z AUTO 12004KT 6SM -RA BR FEW006 OVC055 09/08 A2989 RMK AO2 P0004 T00890083=
201711121909 SPECI KCLM 121909Z AUTO 00000KT 5SM -RA BR OVC050 09/09 A2988 RMK AO2 P0002 T00890089=
201711121853 METAR KCLM 121853Z AUTO 28004KT 2SM -RA BR OVC055 09/08 A2987 RMK AO2 RAB28 SLP118 P0006 T00890083=
201711121753 METAR KCLM 121753Z AUTO 00000KT 10SM OVC060 09/08 A2989 RMK AO2 SLP122 60010 T00890083 10089 20056 53004=
201711121653 METAR KCLM 121653Z AUTO 00000KT 10SM BKN060 08/08 A2988 RMK AO2 SLP121 T00780078=
201711121553 METAR KCLM 121553Z AUTO 00000KT 9SM OVC070 06/06 A2987 RMK AO2 SLP118 T00560056=
201711121453 METAR KCLM 121453Z AUTO 00000KT 10SM BKN065 06/06 A2988 RMK AO2 RAE31 SLP118 P0000 60010 T00610061 58005=
201711121446 SPECI KCLM 121446Z AUTO 00000KT 10SM FEW050 BKN065 06/06 A2987 RMK AO2 RAE31 P0000 T00610061=
201711121439 SPECI KCLM 121439Z AUTO 30005KT 2 1/2SM BR OVC065 06/06 A2987 RMK AO2 RAE31 P0000 T00610056=
201711121353 METAR KCLM 121353Z AUTO 00000KT 10SM -RA BKN065 BKN080 06/06 A2988 RMK AO2 RAB48 SLP120 P0002 T00610061=
201711121253 METAR KCLM 121253Z AUTO 00000KT 10SM FEW055 SCT070 OVC110 07/07 A2989 RMK AO2 RAE49 SLP124 P0008 T00720072=
201711121216 SPECI KCLM 121216Z AUTO 22007KT 8SM -RA FEW019 BKN060 OVC075 07/07 A2991 RMK AO2 P0006 T00720072=
201711121203 SPECI KCLM 121203Z AUTO 00000KT 2SM RA BR FEW019 FEW035 OVC055 07/07 A2989 RMK AO2 P0004 T00720072=
201711121153 METAR KCLM 121153Z AUTO 00000KT 3SM -RA BR FEW020 BKN055 OVC070 07/07 A2989 RMK AO2 RAE25B39 SLP124 P0007 60045 70051 T00720072 10078 20050 58001=
201711121137 SPECI KCLM 121137Z AUTO 16004KT 9SM SCT003 BKN060 OVC070 07/07 A2989 RMK AO2 RAE25 P0004 T00720072=
201711121125 SPECI KCLM 121125Z AUTO 19003KT 9SM BKN003 BKN055 OVC070 07/07 A2990 RMK AO2 RAE25 P0004 T00720072=
201711121117 SPECI KCLM 121117Z AUTO 27004KT 6SM -RA BR SCT003 SCT045 OVC050 07/07 A2989 RMK AO2 P0004 T00720072=
201711121053 METAR KCLM 121053Z AUTO 14005KT 6SM -RA BR OVC055 07/07 A2990 RMK AO2 SLP124 P0014 T00720072=
201711121006 SPECI KCLM 121006Z AUTO 27005KT 5SM -RA BR OVC050 08/07 A2990 RMK AO2 P0002 T00780072=
201711120953 METAR KCLM 120953Z AUTO 26003KT 2SM RA BR OVC050 08/07 A2989 RMK AO2 SLP124 P0020 T00780072=
201711120946 SPECI KCLM 120946Z AUTO 29004KT 1 3/4SM RA BR OVC050 07/07 A2989 RMK AO2 P0016 T00720072=
201711120931 SPECI KCLM 120931Z AUTO 30004KT 3SM -RA BR OVC055 07/07 A2990 RMK AO2 P0008 T00670067=
201711120925 SPECI KCLM 120925Z AUTO 00000KT 1 3/4SM RA BR OVC050 07/07 A2989 RMK AO2 P0008 T00670067=
201711120853 METAR KCLM 120853Z AUTO 00000KT 10SM -RA SCT048 BKN055 OVC085 07/07 A2989 RMK AO2 SLP124 P0002 60004 T00670067 55002=
201711120753 METAR KCLM 120753Z AUTO 00000KT 10SM -RA BKN060 OVC070 06/06 A2989 RMK AO2 RAB00E19B41 SLP123 P0000 T00560056 400940006=
201711120733 SPECI KCLM 120733Z AUTO 00000KT 3SM BR SCT032 BKN065 06/06 A2989 RMK AO2 RAB00E19 P0000 T00560056=
201711120727 SPECI KCLM 120727Z AUTO VRB03KT 1 3/4SM BR SCT036 BKN070 05/05 A2989 RMK AO2 VIS 1V5 RAB00E19 P0000 T00500050=
201711120653 METAR KCLM 120653Z AUTO 19003KT 4SM BR SCT048 BKN070 BKN080 06/06 A2989 RMK AO2 RAB0557E51 SLP122 P0002 T00560056=
201711120553 METAR KCLM 120553Z AUTO 20005KT 4SM BR BKN060 BKN075 06/06 A2990 RMK AO2 RAE24 SLP126 P0000 60006 T00560056 10083 20056 53000=
201711120453 METAR KCLM 120453Z AUTO 00000KT 7SM -RA FEW060 BKN070 OVC095 07/07 A2989 RMK AO2 RAE04B25 SLP124 P0000 T00670067=
201711120434 SPECI KCLM 120434Z AUTO 24004KT 9SM -RA SCT013 BKN070 OVC085 07/07 A2989 RMK AO2 RAE04B25 P0000 T00720072=
201711120425 SPECI KCLM 120425Z AUTO 23003KT 10SM -RA BKN013 OVC065 07/07 A2989 RMK AO2 RAE04B25 P0000 T00720072=
201711120402 SPECI KCLM 120402Z AUTO 23005KT 9SM -RA SCT008 BKN065 OVC075 07/07 A2989 RMK AO2 P0000 T00720067=
201711120353 METAR KCLM 120353Z AUTO 00000KT 8SM -RA FEW010 OVC065 07/07 A2989 RMK AO2 SLP125 P0002 T00720072=
201711120333 SPECI KCLM 120333Z AUTO 26003KT 7SM -RA SCT015 BKN060 OVC080 07/07 A2990 RMK AO2 P0000 T00720072=
201711120321 SPECI KCLM 120321Z AUTO 24003KT 7SM -RA BKN015 BKN021 OVC060 07/07 A2990 RMK AO2 P0000 T00720072=
201711120253 METAR KCLM 120253Z AUTO 24003KT 10SM -RA FEW008 BKN014 OVC060 07/07 A2990 RMK AO2 SLP126 P0004 60004 T00720072 55003=
201711120242 SPECI KCLM 120242Z AUTO 23003KT 8SM -RA FEW008 SCT014 OVC060 07/07 A2990 RMK AO2 P0002 T00720072=
201711120153 METAR KCLM 120153Z AUTO 29004KT 5SM -RA BR OVC055 08/07 A2989 RMK AO2 RAE17B41 SLP124 P0000 T00780072=
201711120053 METAR KCLM 120053Z AUTO 32003KT 10SM -RA BKN065 OVC085 08/07 A2990 RMK AO2 RAB52 SLP128 P0000 T00780067=
201711112353 METAR KCLM 112353Z AUTO 00000KT 10SM BKN065 08/07 A2991 RMK AO2 SLP128 60000 T00830067 10094 20056 55004=
201711112253 METAR KCLM 112253Z AUTO 30003KT 10SM SCT070 09/07 A2990 RMK AO2 SLP128 T00890067=
201711112153 METAR KCLM 112153Z AUTO 29005KT 10SM FEW070 09/07 A2991 RMK AO2 SLP129 T00940067=
201711112053 METAR KCLM 112053Z AUTO 28005KT 10SM SCT011 08/07 A2992 RMK AO2 SLP133 60000 T00830067 56010=
201711112050 SPECI KCLM 112050Z AUTO 27004KT 10SM SCT010 08/06 A2992 RMK AO2=
201711112041 SPECI KCLM 112041Z AUTO 26004KT 10SM BKN010 08/07 A2992 RMK AO2 CIG 009V013 T00830067=
201711112031 SPECI KCLM 112031Z AUTO 23005KT 10SM OVC009 08/07 A2992 RMK AO2 CIG 009V013 T00830067=
201711112021 SPECI KCLM 112021Z AUTO 26004KT 10SM BKN010 08/06 A2993 RMK AO2 T00780061=
201711112009 SPECI KCLM 112009Z AUTO 24005KT 10SM BKN009 08/06 A2992 RMK AO2 T00780061=
201711111953 METAR KCLM 111953Z AUTO 25005KT 10SM FEW007 07/06 A2993 RMK AO2 SLP137 T00720061=
201711111930 SPECI KCLM 111930Z AUTO 32003KT 10SM SCT007 07/06 A2993 RMK AO2 T00720061=
201711111853 METAR KCLM 111853Z AUTO 25003KT 10SM BKN008 OVC070 07/06 A2995 RMK AO2 RAB25E37 SLP143 P0000 T00670056=
201711111834 SPECI KCLM 111834Z AUTO 00000KT 10SM -RA BKN007 BKN070 OVC085 07/06 A2995 RMK AO2 RAB25 CIG 007V021 P0000 T00670056=
201711111824 SPECI KCLM 111824Z AUTO 00000KT 10SM SCT009 BKN080 06/06 A2995 RMK AO2 T00610056=
201711111753 METAR KCLM 111753Z AUTO 26005KT 9SM FEW055 BKN070 OVC100 06/06 A2995 RMK AO2 SLP143 T00610056 10061 20022 58006=
201711111715 SPECI KCLM 111715Z AUTO 00000KT 8SM SCT009 BKN070 06/06 A2996 RMK AO2 T00560056=
201711111653 METAR KCLM 111653Z AUTO 00000KT 6SM BR BKN008 BKN075 BKN110 05/05 A2996 RMK AO2 SLP148 T00500050=
201711110153 METAR KCLM 110153Z AUTO 00000KT 8SM CLR 03/03 A2995 RMK AO2 SLP142 T00330033=
201711110053 METAR KCLM 110053Z AUTO 00000KT 8SM CLR 05/04 A2994 RMK AO2 SLP141 T00500044=
201711102353 METAR KCLM 102353Z AUTO 16004KT 10SM CLR 08/06 A2993 RMK AO2 SLP138 T00830056 10111 20061 53008=
201711102253 METAR KCLM 102253Z AUTO 03003KT 10SM CLR 11/06 A2992 RMK AO2 SLP133 T01060061=
201711102153 METAR KCLM 102153Z AUTO 05004KT 10SM FEW019 11/06 A2990 RMK AO2 SLP128 T01110061=
201711102106 SPECI KCLM 102106Z AUTO 09004KT 10SM SCT016 10/07 A2991 RMK AO2 T01000067=
201711102053 METAR KCLM 102053Z AUTO VRB04KT 10SM BKN016 11/07 A2991 RMK AO2 SLP130 T01060067 50001=
201711102045 SPECI KCLM 102045Z AUTO 03006KT 10SM BKN016 11/07 A2991 RMK AO2 T01060072=
201711101953 METAR KCLM 101953Z AUTO 00000KT 10SM OVC034 09/07 A2992 RMK AO2 SLP132 T00940072=
201711101853 METAR KCLM 101853Z AUTO 00000KT 10SM FEW026 OVC033 08/07 A2992 RMK AO2 SLP132 T00830067=
201711101826 SPECI KCLM 101826Z AUTO 00000KT 10SM SCT022 OVC032 07/07 A2991 RMK AO2 T00720067=
201711101753 METAR KCLM 101753Z AUTO 23005KT 6SM BR OVC017 06/06 A2991 RMK AO2 RAE03 SLP129 P0002 60002 T00610056 10061 20056 51015=
201711101738 SPECI KCLM 101738Z AUTO 22005KT 8SM SCT009 OVC017 06/06 A2990 RMK AO2 RAE03 P0000 T00610056=
201711101653 METAR KCLM 101653Z AUTO 24004KT 6SM -RA BR OVC010 06/04 A2990 RMK AO2 RAB53 SLP125 P0000 T00610044=
201711101620 SPECI KCLM 101620Z AUTO 24005KT 10SM OVC011 06/04 A2989 RMK AO2 T00610044=
201711101553 METAR KCLM 101553Z AUTO 23005KT 10SM BKN009 OVC020 06/04 A2988 RMK AO2 SLP121 T00560044=
201711101540 SPECI KCLM 101540Z AUTO 26005KT 10SM BKN010 OVC021 06/04 A2988 RMK AO2 T00560044=
201711101523 SPECI KCLM 101523Z AUTO 23006KT 10SM BKN009 OVC023 06/04 A2987 RMK AO2 T00560044=
201711101453 METAR KCLM 101453Z AUTO 25006KT 10SM BKN010 OVC021 06/04 A2986 RMK AO2 SLP114 T00560044 51005=
201711101450 SPECI KCLM 101450Z AUTO 25005KT 10SM BKN010 OVC021 06/04 A2986 RMK AO2=
201711101353 METAR KCLM 101353Z AUTO 24006KT 10SM BKN020 OVC025 06/05 A2985 RMK AO2 SLP110 T00610050=
201711101329 SPECI KCLM 101329Z AUTO 23006KT 10SM OVC016 06/05 A2985 RMK AO2 T00610050=
201711101253 METAR KCLM 101253Z AUTO 24005KT 10SM OVC014 06/05 A2985 RMK AO2 SLP109 T00560050=
201711101153 METAR KCLM 101153Z AUTO 22004KT 10SM OVC010 06/06 A2984 RMK AO2 SLP106 T00610056 10061 20022 51001=
201711101151 SPECI KCLM 101151Z AUTO 23006KT 10SM OVC010 06/06 A2984 RMK AO2=
201711101053 METAR KCLM 101053Z AUTO 20003KT 10SM OVC009 03/03 A2984 RMK AO2 SLP106 T00330033=
201711101022 SPECI KCLM 101022Z AUTO 00000KT 9SM BKN008 02/02 A2985 RMK AO2 CIG 007V011 T00220022=
201711101015 SPECI KCLM 101015Z AUTO 00000KT 7SM SCT008 02/02 A2984 RMK AO2 T00220022=
201711100953 METAR KCLM 100953Z AUTO 00000KT 10SM OVC008 03/03 A2984 RMK AO2 SLP105 T00330033=
201711100944 SPECI KCLM 100944Z AUTO 23006KT 9SM OVC008 04/04 A2984 RMK AO2 T00440039=
201711100935 SPECI KCLM 100935Z AUTO 00000KT 2 1/2SM BR BKN009 03/03 A2984 RMK AO2 T00280028=
201711100909 SPECI KCLM 100909Z AUTO 00000KT 2 1/2SM BR SCT005 03/03 A2984 RMK AO2 T00280028=
201711100853 METAR KCLM 100853Z AUTO 23006KT 10SM BKN004 04/04 A2984 RMK AO2 SLP107 T00390039 50002=
201711100803 SPECI KCLM 100803Z AUTO 00000KT 9SM BKN004 OVC065 04/04 A2985 RMK AO2 T00440044=
201711100753 METAR KCLM 100753Z AUTO 22003KT 8SM SCT004 OVC065 04/04 A2985 RMK AO2 SLP110 T00440044 400940022=
201711100722 SPECI KCLM 100722Z AUTO 20004KT 8SM FEW005 OVC065 04/04 A2985 RMK AO2 T00440044=
201711100653 METAR KCLM 100653Z AUTO 00000KT 10SM OVC060 04/03 A2985 RMK AO2 SLP108 T00390033=
201711100553 METAR KCLM 100553Z AUTO 00000KT 9SM FEW100 05/05 A2984 RMK AO2 RAB0456E28 SLP105 P0000 60000 T00500050 10089 20044 50006=
201711100453 METAR KCLM 100453Z AUTO 00000KT 10SM FEW055 BKN070 BKN090 06/06 A2984 RMK AO2 SLP105 T00560056=
201711100353 METAR KCLM 100353Z AUTO 15004KT 7SM FEW060 FEW070 OVC100 06/06 A2982 RMK AO2 RAB18E41 SLP099 P0000 T00610056=
201711100253 METAR KCLM 100253Z AUTO VRB03KT 10SM FEW065 OVC090 07/06 A2982 RMK AO2 RAB20E42 SLP099 P0000 60000 T00670061 53013=
201711100153 METAR KCLM 100153Z AUTO 00000KT 10SM CLR 05/05 A2980 RMK AO2 SLP093 T00500050=
201711100109 SPECI KCLM 100109Z AUTO 16004KT 10SM SCT016 07/06 A2979 RMK AO2 T00670056=
201711100053 METAR KCLM 100053Z AUTO 11004KT 10SM BKN016 08/06 A2979 RMK AO2 SLP090 T00780061=
201711092353 METAR KCLM 092353Z AUTO 11004KT 10SM OVC016 09/06 A2978 RMK AO2 SLP086 60000 T00890061 10094 20083 53017=
201711092253 METAR KCLM 092253Z AUTO 00000KT 10SM OVC016 09/06 A2975 RMK AO2 SLP077 T00890061=
201711092153 METAR KCLM 092153Z AUTO 00000KT 10SM OVC015 09/07 A2973 RMK AO2 RAB2058E11B35E51 SLP069 P0000 T00890067=
201711092149 SPECI KCLM 092149Z AUTO 00000KT 10SM -RA OVC015 08/07 A2973 RMK AO2 RAB2058E11B35 P0000=
201711092134 SPECI KCLM 092134Z AUTO 32004KT 10SM OVC014 08/06 A2972 RMK AO2 RAB2058E11 P0000 T00830061=
201711092120 SPECI KCLM 092120Z AUTO 32004KT 10SM OVC015 08/07 A2972 RMK AO2 RAB2058E11 P0000 T00830067=
201711092053 METAR KCLM 092053Z AUTO 35005KT 10SM BKN013 OVC019 08/07 A2970 RMK AO2 SLP060 T00830067 53008=
201711092039 SPECI KCLM 092039Z AUTO 30006KT 10SM FEW009 BKN013 OVC085 09/07 A2970 RMK AO2 T00890067=
201711092032 SPECI KCLM 092032Z AUTO 31007KT 10SM SCT011 BKN017 OVC085 09/07 A2969 RMK AO2 T00890072=
201711091953 METAR KCLM 091953Z AUTO 26007KT 10SM FEW017 BKN090 09/07 A2968 RMK AO2 SLP051 T00940067=
201711091951 SPECI KCLM 091951Z AUTO 27007KT 10SM SCT017 BKN085 09/07 A2968 RMK AO2=
201711091927 SPECI KCLM 091927Z AUTO 26005KT 10SM OVC017 09/07 A2968 RMK AO2 T00890067=
201711091853 METAR KCLM 091853Z AUTO 32006KT 10SM OVC013 08/06 A2968 RMK AO2 SLP052 T00830061=
201711091831 SPECI KCLM 091831Z AUTO 31008KT 10SM BKN012 BKN021 OVC090 09/07 A2967 RMK AO2 T00890072=
201711091753 METAR KCLM 091753Z AUTO 27008KT 10SM FEW014 08/07 A2965 RMK AO2 SLP042 60000 T00830067 10083 20022 51011=
201711091653 METAR KCLM 091653Z AUTO 26006KT 10SM BKN075 OVC090 07/06 A2964 RMK AO2 SLP040 T00720061=
201711091553 METAR KCLM 091553Z AUTO 26009KT 10SM OVC075 06/05 A2963 RMK AO2 RAB1458E07 SLP036 P0000 T00610050=
201711091453 METAR KCLM 091453Z AUTO 00000KT 10SM OVC070 04/04 A2962 RMK AO2 SLP031 T00440044 55001=
201711091353 METAR KCLM 091353Z AUTO 19003KT 8SM BKN090 03/03 A2961 RMK AO2 SLP030 T00280028=
201711091253 METAR KCLM 091253Z AUTO 23004KT 10SM FEW120 04/04 A2962 RMK AO2 SLP031 T00440039=
201711091153 METAR KCLM 091153Z AUTO 15003KT 10SM CLR 05/04 A2962 RMK AO2 SLP032 60003 70005 T00500044 10067 20050 58004=
201711091053 METAR KCLM 091053Z AUTO 24007KT 10SM BKN075 06/05 A2962 RMK AO2 SLP033 T00610050=
201711090953 METAR KCLM 090953Z AUTO 27006KT 10SM BKN075 07/06 A2964 RMK AO2 SLP037 T00670056=
201711090853 METAR KCLM 090853Z AUTO 31003KT 10SM CLR 06/06 A2963 RMK AO2 SLP036 60003 T00610056 58002=
201711090753 METAR KCLM 090753Z AUTO 22004KT 10SM FEW065 07/06 A2963 RMK AO2 SLP036 T00670056 400780022=
201711090653 METAR KCLM 090653Z AUTO 21005KT 10SM FEW120 06/05 A2964 RMK AO2 RAE20 SLP039 P0003 T00610050=
201711090553 METAR KCLM 090553Z AUTO 28004KT 5SM -RA BR BKN065 BKN080 OVC120 06/04 A2964 RMK AO2 RAB45 SLP038 P0002 60002 T00610044 10067 20050 53003=
201711090453 METAR KCLM 090453Z AUTO 00000KT 10SM OVC070 06/04 A2961 RMK AO2 SLP029 T00560039=
201711090353 METAR KCLM 090353Z AUTO 27004KT 10SM OVC070 06/04 A2962 RMK AO2 SLP033 T00560044=
201711090253 METAR KCLM 090253Z AUTO 26005KT 10SM FEW070 06/03 A2963 RMK AO2 SLP035 T00560033 55010=
201711090153 METAR KCLM 090153Z AUTO 00000KT 10SM FEW070 SCT110 06/04 A2962 RMK AO2 SLP032 T00560039=
201711090053 METAR KCLM 090053Z AUTO 23004KT 10SM SCT070 06/04 A2964 RMK AO2 SLP039 T00560039=
201711082353 METAR KCLM 082353Z AUTO 22003KT 10SM SCT070 OVC095 06/04 A2966 RMK AO2 RAE07 SLP045 P0000 60000 T00610044 10078 20061 56029=
201711082253 METAR KCLM 082253Z AUTO 24005KT 9SM -RA OVC070 07/04 A2970 RMK AO2 RAB41 SLP057 P0000 T00670039=
201711082153 METAR KCLM 082153Z AUTO 23005KT 10SM BKN110 07/04 A2971 RMK AO2 SLP061 T00720039=
201711082053 METAR KCLM 082053Z AUTO 23004KT 10SM FEW090 BKN110 07/03 A2975 RMK AO2 SLP075 T00720033 58022=
201711081953 METAR KCLM 081953Z AUTO 22007KT 10SM FEW095 OVC110 08/03 A2977 RMK AO2 SLP084 T00780028=
201711081853 METAR KCLM 081853Z AUTO 25006KT 10SM OVC100 07/03 A2980 RMK AO2 SLP092 T00670028=
201711081753 METAR KCLM 081753Z AUTO 24006KT 10SM BKN120 07/03 A2981 RMK AO2 SLP097 T00670033 10072 20028 58018=
201711081653 METAR KCLM 081653Z AUTO 00000KT 10SM BKN120 05/03 A2983 RMK AO2 SLP103 T00500028=
201711081553 METAR KCLM 081553Z AUTO 00000KT 10SM OVC110 04/02 A2986 RMK AO2 SLP114 T00390017=
201711081453 METAR KCLM 081453Z AUTO 00000KT 10SM OVC100 03/02 A2987 RMK AO2 SLP116 T00330022 56016=
201711081353 METAR KCLM 081353Z AUTO 00000KT 10SM OVC100 03/02 A2987 RMK AO2 SLP118 T00330017=
201711081253 METAR KCLM 081253Z AUTO 25004KT 10SM OVC095 03/02 A2989 RMK AO2 SLP123 T00330017=
201711081153 METAR KCLM 081153Z AUTO 22004KT 10SM OVC100 03/02 A2991 RMK AO2 SLP131 T00330017 10033 20022 56010=
201711081053 METAR KCLM 081053Z AUTO 00000KT 10SM FEW065 OVC080 03/02 A2992 RMK AO2 SLP133 T00280022=
201711080953 METAR KCLM 080953Z AUTO 23006KT 10SM OVC110 03/02 A2992 RMK AO2 SLP135 T00280022=
201711080853 METAR KCLM 080853Z AUTO 23004KT 10SM BKN110 02/02 A2995 RMK AO2 SLP142 T00220017 58011=
201711080753 METAR KCLM 080753Z AUTO 00000KT 10SM CLR 03/02 A2996 RMK AO2 SLP147 T00280017 400611022=
201711080653 METAR KCLM 080653Z AUTO 14003KT 10SM BKN120 03/02 A2997 RMK AO2 SLP149 T00280017=
201711080553 METAR KCLM 080553Z AUTO 22003KT 10SM BKN120 02/02 A2998 RMK AO2 SLP154 T00220017 10056 20022 56010=
201711080453 METAR KCLM 080453Z AUTO 00000KT 9SM FEW120 03/01 A2999 RMK AO2 SLP158 T00280011=
201711080353 METAR KCLM 080353Z AUTO 23006KT 10SM BKN120 03/02 A2999 RMK AO2 SLP157 T00280017=
201711080253 METAR KCLM 080253Z AUTO 23007KT 10SM CLR 03/02 A3001 RMK AO2 SLP165 T00280017 58013=
201711080153 METAR KCLM 080153Z AUTO 23003KT 10SM CLR 03/01 A3003 RMK AO2 SLP171 T00280011=
201711080053 METAR KCLM 080053Z AUTO 25003KT 10SM CLR 04/02 A3004 RMK AO2 SLP174 T00390017=
201711072353 METAR KCLM 072353Z AUTO 14005KT 10SM BKN110 06/02 A3005 RMK AO2 SLP178 T00560017 10061 20039 58013=
201711072253 METAR KCLM 072253Z AUTO 22003KT 10SM FEW120 06/01 A3007 RMK AO2 SLP184 T00610011=
201711072153 METAR KCLM 072153Z AUTO 24008KT 10SM CLR 06/01 A3007 RMK AO2 SLP187 T00610011=
201711072053 METAR KCLM 072053Z AUTO 25008KT 10SM CLR 06/02 A3009 RMK AO2 SLP191 T00560017 58020=
201711071953 METAR KCLM 071953Z AUTO 27007KT 10SM CLR 06/02 A3011 RMK AO2 SLP198 T00560017=
201711071853 METAR KCLM 071853Z AUTO 30003KT 10SM BKN110 04/02 A3012 RMK AO2 SLP204 T00440022=
201711071753 METAR KCLM 071753Z AUTO 00000KT 10SM FEW120 04/03 A3014 RMK AO2 SLP211 I6000 T00390028 10039 21017 58014=
201711071653 METAR KCLM 071653Z AUTO 22003KT 10SM CLR 01/01 A3016 RMK AO2 SLP218 T00060006=
201711071553 METAR KCLM 071553Z AUTO 24004KT 9SM FEW110 01/00 A3018 RMK AO2 SLP222 T00060000=
201711071453 METAR KCLM 071453Z AUTO 24003KT 9SM SCT120 00/00 A3019 RMK AO2 SLP225 I1000 I3000 T00000000 58014=
201711071353 METAR KCLM 071353Z AUTO 00000KT 8SM CLR M01/M01 A3019 RMK AO2 SLP228 T10061011=
201711071253 METAR KCLM 071253Z AUTO 23006KT 10SM CLR 00/M01 A3022 RMK AO2 SLP237 I1000 T00001006=
201711071153 METAR KCLM 071153Z AUTO 22004KT 8SM CLR M02/M02 A3023 RMK AO2 SLP238 I1000 I6000 T10171022 10006 21022 58015=
201711071053 METAR KCLM 071053Z AUTO 00000KT 9SM CLR M01/M02 A3025 RMK AO2 SLP246 I1000 T10111017=
201711071021 SPECI KCLM 071021Z AUTO 00000KT 7SM SCT013 M02/M02 A3026 RMK AO2 T10171022=
201711070953 METAR KCLM 070953Z AUTO 16004KT 6SM BR BKN012 M02/M02 A3026 RMK AO2 SLP250 T10171022=
201711070853 METAR KCLM 070853Z AUTO 24005KT 10SM CLR 00/M01 A3027 RMK AO2 SLP254 I3000 T00001011 55001=
201711070753 METAR KCLM 070753Z AUTO 00000KT 9SM CLR M01/M02 A3027 RMK AO2 SLP253 T10111017 400561028=
201711070653 METAR KCLM 070653Z AUTO 23007KT 10SM CLR M01/M01 A3027 RMK AO2 SLP252 I1000 T10061011=
201711070553 METAR KCLM 070553Z AUTO 00000KT 7SM CLR M01/M02 A3027 RMK AO2 SLP254 I1001 I6001 T10111017 10044 21028 56006=
201711070453 METAR KCLM 070453Z AUTO 00000KT 7SM FEW025 M01/M02 A3028 RMK AO2 SLP256 I1000 T10111017=
201711070353 METAR KCLM 070353Z AUTO 19003KT 8SM CLR M01/M02 A3028 RMK AO2 SLP258 T10111022=
201711070253 METAR KCLM 070253Z AUTO 20003KT 7SM CLR M02/M02 A3029 RMK AO2 SLP262 T10171017 53001=
201711070153 METAR KCLM 070153Z AUTO 00000KT 9SM CLR M02/M02 A3029 RMK AO2 SLP261 T10171022=
201711070053 METAR KCLM 070053Z AUTO 16004KT 10SM CLR 01/M01 A3029 RMK AO2 SLP260 T00111006=
201711062353 METAR KCLM 062353Z AUTO 10005KT 10SM CLR 04/M01 A3029 RMK AO2 SLP260 T00441011 10056 20022 55001=
201711062253 METAR KCLM 062253Z AUTO 09004KT 10SM CLR 05/M01 A3029 RMK AO2 SLP259 T00501011=
201711062241 SPECI KCLM 062241Z AUTO 10006KT 10SM SCT026 05/M01 A3029 RMK AO2 T00501011=
201711062153 METAR KCLM 062153Z AUTO 07006KT 10SM BKN028 05/M01 A3029 RMK AO2 SLP259 T00501006=
201711062132 SPECI KCLM 062132Z AUTO 08007KT 10SM BKN028 04/M01 A3029 RMK AO2 T00441011=
201711062053 METAR KCLM 062053Z AUTO 10007KT 10SM CLR 04/M01 A3029 RMK AO2 SLP261 T00441011 50006=
201711061953 METAR KCLM 061953Z AUTO 07004KT 10SM FEW031 04/M02 A3030 RMK AO2 SLP264 T00441022=
201711061853 METAR KCLM 061853Z AUTO 00000KT 10SM BKN030 06/M02 A3030 RMK AO2 SLP262 T00561017=
201711061753 METAR KCLM 061753Z AUTO 24004KT 10SM CLR 02/M02 A3027 RMK AO2 SLP255 T00221022 10022 21017 51013=
201711061653 METAR KCLM 061653Z AUTO 23005KT 10SM BKN036 00/M03 A3026 RMK AO2 SLP250 T00001028=
201711061553 METAR KCLM 061553Z AUTO 24007KT 10SM BKN031 M01/M03 A3025 RMK AO2 SLP247 T10061033=
201711061453 METAR KCLM 061453Z AUTO 23005KT 10SM CLR M02/M03 A3023 RMK AO2 SLP242 T10171033 51015=
201711061353 METAR KCLM 061353Z AUTO 24007KT 10SM CLR M01/M03 A3022 RMK AO2 SLP238 T10061033=
201711061253 METAR KCLM 061253Z AUTO 25008KT 10SM CLR M01/M03 A3021 RMK AO2 SLP232 T10061028=
201711061153 METAR KCLM 061153Z AUTO 25009KT 10SM CLR M01/M03 A3019 RMK AO2 SLP226 T10061028 10033 21022 51009=
201711061053 METAR KCLM 061053Z AUTO 24007KT 10SM CLR M01/M03 A3018 RMK AO2 SLP223 T10061033=
201711060953 METAR KCLM 060953Z AUTO 23007KT 10SM CLR M01/M04 A3018 RMK AO2 SLP222 T10111039=
201711060853 METAR KCLM 060853Z AUTO VRB06KT 10SM BKN060 02/M06 A3016 RMK AO2 SLP217 T00221056 53020=
201711060753 METAR KCLM 060753Z AUTO 00000KT 10SM OVC060 M01/M03 A3014 RMK AO2 SLP210 T10061028 400391022=
201711060653 METAR KCLM 060653Z AUTO 20003KT 10SM OVC060 M01/M02 A3012 RMK AO2 SLP203 T10061017=
201711060553 METAR KCLM 060553Z AUTO 00000KT 10SM OVC060 M01/M01 A3010 RMK AO2 SLP197 T10061011 10033 21022 53021=
201711060453 METAR KCLM 060453Z AUTO 22004KT 10SM OVC055 M01/M02 A3009 RMK AO2 SLP191 T10061017=
201711060353 METAR KCLM 060353Z AUTO 22005KT 10SM CLR M01/M02 A3006 RMK AO2 SLP182 T10111022=
201711060253 METAR KCLM 060253Z AUTO 21003KT 10SM CLR M02/M02 A3004 RMK AO2 SLP176 T10171022 53016=
201711060153 METAR KCLM 060153Z AUTO 00000KT 10SM CLR M01/M03 A3002 RMK AO2 SLP168 T10111028=
201711060053 METAR KCLM 060053Z AUTO 19006KT 10SM CLR 01/M03 A3000 RMK AO2 SLP163 T00111028=
201711052353 METAR KCLM 052353Z AUTO 18005KT 10SM CLR 03/M04 A2999 RMK AO2 SLP159 T00331039 10039 20022 53014=
201711052253 METAR KCLM 052253Z AUTO 17006KT 10SM OVC055 04/M03 A2998 RMK AO2 SLP154 T00391028=
201711052153 METAR KCLM 052153Z AUTO 17005KT 10SM OVC050 04/M03 A2996 RMK AO2 SLP150 T00391033=
201711052053 METAR KCLM 052053Z AUTO 16006KT 10SM OVC050 03/M03 A2995 RMK AO2 SLP146 T00331028 50006=
201711051953 METAR KCLM 051953Z AUTO 13006KT 10SM OVC050 04/M04 A2995 RMK AO2 SLP146 T00391039=
201711051853 METAR KCLM 051853Z AUTO 09008G15KT 10SM FEW042 OVC055 03/M04 A2995 RMK AO2 SLP146 T00331039=
201711051753 METAR KCLM 051753Z AUTO 14006KT 10SM FEW042 OVC060 02/M02 A2994 RMK AO2 SLP140 60000 T00221017 10028 20006 51019=
201711051653 METAR KCLM 051653Z AUTO 13007KT 10SM OVC060 02/M03 A2992 RMK AO2 SLP135 T00221033=
201711051553 METAR KCLM 051553Z AUTO 17005KT 10SM FEW038 OVC049 01/M02 A2990 RMK AO2 SLP129 T00111022=
201711051453 METAR KCLM 051453Z AUTO 17005KT 10SM OVC060 01/M02 A2988 RMK AO2 SLP121 60000 T00111022 51017=
201711051353 METAR KCLM 051353Z AUTO 19004KT 10SM OVC050 02/M02 A2986 RMK AO2 SLP114 T00171017=
201711051253 METAR KCLM 051253Z AUTO 17005KT 8SM OVC047 01/00 A2985 RMK AO2 SNE01 SLP110 P0000 T00110000=
201711051158 SPECI KCLM 051158Z AUTO 19003KT 4SM -SN BR FEW009 SCT014 OVC042 01/00 A2983 RMK AO2 P0000 T00060000=
201711051153 METAR KCLM 051153Z AUTO 18005KT 3SM -SN BR FEW010 BKN019 OVC042 01/00 A2983 RMK AO2 SLP104 P0002 60016 70038 T00060000 10033 20006 53011=
201711051139 SPECI KCLM 051139Z AUTO 00000KT 3SM -SN BR SCT009 BKN016 OVC021 01/01 A2983 RMK AO2 P0002 T00060006=
201711051129 SPECI KCLM 051129Z AUTO 21003KT 2 1/2SM -SN BR FEW007 SCT011 OVC020 01/01 A2982 RMK AO2 P0001 T00060006=
201711051121 SPECI KCLM 051121Z AUTO 18005KT 2SM -SN BR SCT011 OVC018 01/01 A2982 RMK AO2 P0001 T00060006=
201711051114 SPECI KCLM 051114Z AUTO 15005KT 1 3/4SM -SN BR BKN009 OVC016 01/00 A2982 RMK AO2 P0001 T00060000=
201711051110 SPECI KCLM 051110Z AUTO 15005KT 2SM -SN BR SCT009 BKN014 OVC018 01/00 A2982 RMK AO2 P0001 T00060000=
201711051103 SPECI KCLM 051103Z AUTO 13005KT 3SM -SN BR BKN009 OVC018 01/01 A2982 RMK AO2 CIG 006V014 P0001 T00110006=
201711051053 METAR KCLM 051053Z AUTO 11004KT 2 1/2SM -SN BR BKN007 OVC013 01/01 A2982 RMK AO2 CIG 006V010 SLP100 P0001 T00110006=
201711051004 SPECI KCLM 051004Z AUTO 08009G14KT 4SM -SN BR OVC005 02/01 A2981 RMK AO2 P0000 T00170011=
201711050953 METAR KCLM 050953Z AUTO 05009G15KT 020V080 5SM -SN BR OVC004 02/02 A2980 RMK AO2 RAE25UPB25E34SNB34 CIG 003V008 SLP095 P0003 T00170017=
201711050924 SPECI KCLM 050924Z AUTO VRB06KT 5SM -RA BR OVC004 02/02 A2980 RMK AO2 P0001 T00220017=
201711050853 METAR KCLM 050853Z AUTO 07008G15KT 5SM -RA BR OVC005 02/02 A2980 RMK AO2 CIG 004V009 SLP093 P0005 60010 T00220017 53014=
201711050831 SPECI KCLM 050831Z AUTO 07008G18KT 4SM -RA BR OVC005 02/02 A2979 RMK AO2 CIG 004V010 P0003 T00220017=
201711050824 SPECI KCLM 050824Z AUTO 09008G18KT 2 1/2SM RA BR OVC005 02/02 A2979 RMK AO2 CIG 004V010 P0002 T00220017=
201711050753 METAR KCLM 050753Z AUTO 09010G21KT 7SM -RA OVC006 03/02 A2978 RMK AO2 CIG 005V009 SLP087 P0002 T00280022 400391006=
201711050653 METAR KCLM 050653Z AUTO 09011G16KT 7SM -RA OVC006 03/02 A2976 RMK AO2 SLP080 P0003 T00280022=
201711050553 METAR KCLM 050553Z AUTO 12005KT 7SM -RA BKN009 OVC013 02/02 A2976 RMK AO2 SLP079 P0003 60022 T00220017 10033 20011 56014=
201711050517 SPECI KCLM 050517Z AUTO 00000KT 6SM -RA BR BKN009 OVC016 02/02 A2976 RMK AO2 P0002 T00170017=
201711050453 METAR KCLM 050453Z AUTO 10005KT 5SM -RA BR FEW009 SCT014 OVC020 02/02 A2976 RMK AO2 SLP079 P0007 T00170017=
201711050427 SPECI KCLM 050427Z AUTO 10005KT 4SM RA BR SCT009 OVC018 02/01 A2976 RMK AO2 P0004 T00170011=
201711050353 METAR KCLM 050353Z AUTO 13004KT 6SM -RA BR BKN011 OVC025 02/02 A2977 RMK AO2 SLP083 P0005 T00170017=
201711050253 METAR KCLM 050253Z AUTO 10003KT 6SM -RA BR OVC025 02/01 A2980 RMK AO2 SLP093 P0006 60007 T00170011 58024=
201711050153 METAR KCLM 050153Z AUTO 16004KT 7SM -RA OVC023 02/01 A2982 RMK AO2 UPB0055E02 SLP102 P0001 T00220011=
201711050113 SPECI KCLM 050113Z AUTO 00000KT 8SM -RA OVC024 02/01 A2984 RMK AO2 UPB0055E02 P0000 T00220011=
201711050053 METAR KCLM 050053Z AUTO 00000KT 10SM -RA OVC034 02/01 A2985 RMK AO2 RAB47 SLP110 P0000 T00220006=
201711042353 METAR KCLM 042353Z AUTO 13004KT 10SM SCT060 OVC075 03/00 A2987 RMK AO2 SLP117 T00330000 10039 20011 58023=
201711042253 METAR KCLM 042253Z AUTO 00000KT 10SM OVC050 04/M01 A2989 RMK AO2 SLP125 T00391006=
201711042153 METAR KCLM 042153Z AUTO 11004KT 10SM OVC048 04/M01 A2992 RMK AO2 SLP133 T00391011=
201711042053 METAR KCLM 042053Z AUTO 14003KT 10SM FEW039 OVC050 03/M01 A2994 RMK AO2 SLP140 T00331011 58016=
201711041953 METAR KCLM 041953Z AUTO 10005KT 10SM OVC065 03/M02 A2996 RMK AO2 SLP148 T00331017=
201711041853 METAR KCLM 041853Z AUTO 16003KT 10SM OVC065 03/M01 A2997 RMK AO2 SLP151 T00281011=
201711041753 METAR KCLM 041753Z AUTO 25003KT 10SM FEW047 BKN055 OVC070 01/M01 A2998 RMK AO2 SLP156 T00111006 10011 21006 58013=
201711041653 METAR KCLM 041653Z AUTO 23003KT 10SM BKN060 OVC100 01/M01 A3000 RMK AO2 SLP163 T00061006=
201711041553 METAR KCLM 041553Z AUTO 00000KT 10SM BKN055 OVC120 00/M01 A3002 RMK AO2 SLP168 T00001006=
201711041453 METAR KCLM 041453Z AUTO 23005KT 10SM BKN034 OVC055 00/M01 A3002 RMK AO2 SLP169 T00001011 58005=
201711041353 METAR KCLM 041353Z AUTO 00000KT 10SM BKN055 OVC110 00/M01 A3003 RMK AO2 SLP170 T00001006=
201711041253 METAR KCLM 041253Z AUTO 00000KT 10SM OVC035 00/M01 A3004 RMK AO2 SLP175 T00001011=
201711041153 METAR KCLM 041153Z AUTO 00000KT 10SM BKN035 OVC055 M01/M01 A3004 RMK AO2 SLP174 70008 T10061006 10000 21011 58011=
201711041053 METAR KCLM 041053Z AUTO 22004KT 10SM SCT036 OVC050 00/M01 A3006 RMK AO2 SLP183 T00001011=
201711040953 METAR KCLM 040953Z AUTO 00000KT 10SM OVC037 00/M01 A3007 RMK AO2 SLP184 T00001006=
201711040853 METAR KCLM 040853Z AUTO 22004KT 10SM BKN042 OVC055 00/M01 A3007 RMK AO2 SLP186 T00001011 56006=
201711040753 METAR KCLM 040753Z AUTO 00000KT 10SM OVC049 M01/M01 A3007 RMK AO2 SLP187 T10061011 400331022=
201711040653 METAR KCLM 040653Z AUTO 00000KT 10SM OVC048 M01/M01 A3008 RMK AO2 SLP190 T10061011=
201711040553 METAR KCLM 040553Z AUTO 00000KT 10SM OVC049 M01/M02 A3009 RMK AO2 SLP192 I6001 T10111017 10011 21022 53004=
201711040453 METAR KCLM 040453Z AUTO 00000KT 10SM OVC047 M01/M02 A3008 RMK AO2 SLP188 T10111017=
201711040353 METAR KCLM 040353Z AUTO 00000KT 10SM CLR M02/M02 A3007 RMK AO2 SLP187 I1001 T10171022=
201711040253 METAR KCLM 040253Z AUTO 18003KT 10SM CLR M02/M02 A3008 RMK AO2 SLP188 T10171017 53004=
201711040153 METAR KCLM 040153Z AUTO 00000KT 10SM CLR M01/M03 A3006 RMK AO2 SLP182 T10061028=
201711040053 METAR KCLM 040053Z AUTO 16005KT 10SM CLR 01/M03 A3006 RMK AO2 SLP183 T00061028=
201711032353 METAR KCLM 032353Z AUTO 16004KT 10SM SCT050 01/M02 A3007 RMK AO2 SLP185 T00111017 10033 20011 53005=
201711032253 METAR KCLM 032253Z AUTO 12005KT 10SM CLR 02/M03 A3005 RMK AO2 SLP180 T00221033=
201711032153 METAR KCLM 032153Z AUTO 12006KT 10SM BKN050 03/M03 A3005 RMK AO2 SLP179 T00281028=
201711032053 METAR KCLM 032053Z AUTO 07004KT 10SM OVC050 03/M04 A3005 RMK AO2 SLP180 T00331039 51009=
201711031953 METAR KCLM 031953Z AUTO 16006KT 10SM OVC055 02/M03 A3005 RMK AO2 SLP178 T00221033=
201711031853 METAR KCLM 031853Z AUTO VRB05KT 10SM OVC055 02/M04 A3004 RMK AO2 SLP175 T00221039=
201711031753 METAR KCLM 031753Z AUTO 09007KT 10SM OVC055 02/M04 A3003 RMK AO2 SLP171 60008 T00171044 10017 20006 52026=
201711031653 METAR KCLM 031653Z AUTO 09008KT 10SM OVC050 02/M03 A3000 RMK AO2 SLP162 T00171033=
201711031553 METAR KCLM 031553Z AUTO VRB03KT 10SM OVC050 01/M03 A2997 RMK AO2 SLP153 T00111033=
201711031453 METAR KCLM 031453Z AUTO 11006KT 10SM SCT031 OVC041 01/M01 A2995 RMK AO2 SNE21 SLP145 P0001 60008 T00061006 53009=
201711031442 SPECI KCLM 031442Z AUTO 13009KT 10SM FEW016 BKN033 OVC041 01/M01 A2994 RMK AO2 SNE21 P0001 T00061006=
201711031353 METAR KCLM 031353Z AUTO 14006KT 4SM -SN BR SCT014 OVC021 01/00 A2993 RMK AO2 SLP138 P0003 T00060000=
201711031348 SPECI KCLM 031348Z AUTO 14007KT 3SM -SN BR SCT014 OVC021 01/00 A2993 RMK AO2 P0003=
201711031347 SPECI KCLM 031347Z AUTO 13007KT 2 1/2SM -SN BR SCT014 OVC023 01/00 A2993 RMK AO2 P0003=
201711031339 SPECI KCLM 031339Z AUTO 15011KT 1 3/4SM -SN BR FEW008 BKN014 OVC023 01/00 A2993 RMK AO2 P0003 T00060000=
201711031325 SPECI KCLM 031325Z AUTO 16011KT 2SM -SN BR SCT008 BKN012 OVC023 01/00 A2993 RMK AO2 P0002 T00060000=
201711031303 SPECI KCLM 031303Z AUTO 14009KT 1 1/2SM -SN BR BKN006 OVC012 01/00 A2992 RMK AO2 P0002 T00060000=
201711031253 METAR KCLM 031253Z AUTO 13009KT 1SM -SN BR BKN004 BKN011 OVC018 01/00 A2992 RMK AO2 SLP135 P0004 T00060000=
201711031249 SPECI KCLM 031249Z AUTO 14010KT 1 1/4SM -SN BR SCT004 BKN009 OVC018 01/01 A2992 RMK AO2 P0004=
201711031230 SPECI KCLM 031230Z AUTO 14008KT 1 1/4SM -SN BR BKN003 OVC013 01/01 A2992 RMK AO2 P0003 T00060006=
201711031153 METAR KCLM 031153Z AUTO 10003KT 1/2SM SN FG OVC004 01/01 A2990 RMK AO2 SLP128 P0015 60040 70116 T00060006 10017 20006 52014=
201711031053 METAR KCLM 031053Z AUTO 17004KT 1/2SM SN FG OVC004 01/01 A2989 RMK AO2 SLP125 P0016 T00060006=
201711031036 SPECI KCLM 031036Z AUTO 16004KT 1/2SM SN FG OVC004 01/01 A2989 RMK AO2 P0006 T00060006=
201711031028 SPECI KCLM 031028Z AUTO 00000KT 1/2SM SN FG OVC006 01/01 A2989 RMK AO2 P0004 T00060006=
201711031008 SPECI KCLM 031008Z AUTO 15008KT 1 1/2SM -SN BR BKN008 OVC011 01/00 A2988 RMK AO2 P0000 T00060000=
201711030953 METAR KCLM 030953Z AUTO VRB04KT 2SM -SN BR BKN009 OVC013 01/01 A2987 RMK AO2 UPE07SNB21 SLP117 P0003 T00110006=
201711030944 SPECI KCLM 030944Z AUTO 10003KT 2SM -SN BR OVC009 01/01 A2987 RMK AO2 UPE07SNB21 P0001 T00110006=
201711030937 SPECI KCLM 030937Z AUTO 00000KT 1 3/4SM -SN BR SCT007 OVC012 01/01 A2987 RMK AO2 UPE07SNB21 P0001 T00110006=
201711030853 METAR KCLM 030853Z AUTO 10006KT 9SM UP OVC012 02/01 A2986 RMK AO2 UPB28SNE28 SLP114 P0000 60006 T00170006 51023=
201711030804 SPECI KCLM 030804Z AUTO VRB04KT 4SM -SN BR OVC008 01/01 A2985 RMK AO2 CIG 006V011 P0000 T00110006=
201711030753 METAR KCLM 030753Z AUTO VRB03KT 2 1/2SM -SN BR BKN008 OVC012 01/01 A2984 RMK AO2 CIG 005V009 SLP108 P0005 T00110006 400780011=
201711030733 SPECI KCLM 030733Z AUTO 00000KT 2SM -SN BR OVC006 01/01 A2984 RMK AO2 P0003 T00110006=
201711030653 METAR KCLM 030653Z AUTO 00000KT 4SM -SN BR OVC009 02/02 A2982 RMK AO2 UPB27E33SNE27B33 SLP099 P0001 T00170017=
201711030637 SPECI KCLM 030637Z AUTO VRB05G20KT 5SM -SN BR BKN010 OVC013 02/01 A2982 RMK AO2 UPB27E33SNE27B33 P0001 T00170011=
201711030553 METAR KCLM 030553Z AUTO 05012G22KT 4SM -SN BR OVC006 02/01 A2979 RMK AO2 RAE22UPB09E14SNB22 CIG 005V011 SLP090 P0003 60039 I1000 I6000 T00170011 10072 20017 53028=
201711030453 METAR KCLM 030453Z AUTO 03007KT 360V060 7SM -RA OVC005 02/02 A2976 RMK AO2 CIG 004V008 SLP079 P0008 T00220022=
201711030353 METAR KCLM 030353Z AUTO 04004KT 4SM -RA BR BKN009 OVC014 03/03 A2973 RMK AO2 CIG 006V011 SLP069 P0009 T00330028=
201711030336 SPECI KCLM 030336Z AUTO VRB06KT 4SM -RA BR SCT007 BKN010 OVC014 04/03 A2972 RMK AO2 P0006 T00390033=
201711030322 SPECI KCLM 030322Z AUTO VRB04KT 3SM -RA BR BKN007 OVC013 04/04 A2972 RMK AO2 P0005 T00390039=
201711030253 METAR KCLM 030253Z AUTO VRB06KT 5SM -RA BR OVC004 04/04 A2971 RMK AO2 SLP061 P0015 60019 T00390039 51011=
201711030249 SPECI KCLM 030249Z AUTO 35007KT 5SM -RA BR BKN004 OVC009 04/04 A2971 RMK AO2 CIG 003V007 P0014=
201711030240 SPECI KCLM 030240Z AUTO VRB04KT 3SM -RA BR OVC005 04/04 A2970 RMK AO2 P0014 T00390039=
201711030226 SPECI KCLM 030226Z AUTO VRB05KT 2 1/2SM RA BR OVC005 04/04 A2970 RMK AO2 CIG 003V007 P0011 T00390039=
201711030153 METAR KCLM 030153Z AUTO VRB06KT 4SM RA BR OVC007 04/04 A2969 RMK AO2 CIG 005V009 SLP057 P0004 T00440039=
201711030123 SPECI KCLM 030123Z AUTO 05007G15KT 360V100 5SM -RA BR OVC009 04/04 A2968 RMK AO2 CIG 007V013 P0000 T00440039=
201711030053 METAR KCLM 030053Z AUTO 06008G15KT 030V090 8SM -RA BKN010 OVC017 05/03 A2967 RMK AO2 RAB28 CIG 009V013 SLP050 P0000 T00500033=
201711030041 SPECI KCLM 030041Z AUTO 08008KT 040V110 10SM -RA BKN012 OVC020 06/04 A2967 RMK AO2 RAB28 P0000 T00560039=
201711030026 SPECI KCLM 030026Z AUTO 08007KT 10SM FEW015 BKN022 OVC060 06/03 A2967 RMK AO2 T00610033=
201711022353 METAR KCLM 022353Z AUTO 00000KT 10SM FEW060 SCT080 BKN110 07/03 A2965 RMK AO2 SLP043 60011 T00670028 10078 20061 53018=
201711022253 METAR KCLM 022253Z AUTO 25010KT 10SM CLR 06/03 A2962 RMK AO2 SLP032 T00610028=
201711022153 METAR KCLM 022153Z AUTO 25006KT 10SM FEW049 SCT110 06/03 A2962 RMK AO2 SLP031 T00610028=
201711022053 METAR KCLM 022053Z AUTO 30009KT 10SM SCT060 07/04 A2960 RMK AO2 SLP026 60011 T00670044 50000=
201711021953 METAR KCLM 021953Z AUTO 24008KT 10SM BKN060 OVC075 07/05 A2960 RMK AO2 RAE22 SLP025 P0003 T00720050=
201711021917 SPECI KCLM 021917Z AUTO 27004KT 8SM -RA BKN031 BKN043 OVC070 07/06 A2960 RMK AO2 P0003 T00670061=
201711021902 SPECI KCLM 021902Z AUTO 30006KT 2SM -RA BR BKN031 OVC041 06/05 A2961 RMK AO2 P0001 T00610050=
201711021853 METAR KCLM 021853Z AUTO 31008KT 3SM -RA BR BKN033 OVC041 06/05 A2961 RMK AO2 SLP027 P0008 T00610050=
201711021753 METAR KCLM 021753Z AUTO 24004KT 7SM -RA BKN046 BKN055 OVC070 07/06 A2960 RMK AO2 SLP026 P0006 60026 T00670056 10072 20050 56002=
201711021730 SPECI KCLM 021730Z AUTO 22003KT 9SM -RA BKN034 BKN044 OVC070 07/06 A2960 RMK AO2 P0006 T00670061=
201711021721 SPECI KCLM 021721Z AUTO 22004KT 2SM RA BR FEW024 OVC034 06/06 A2960 RMK AO2 P0006 T00610056=
201711021708 SPECI KCLM 021708Z AUTO 27008KT 5SM -RA BR FEW018 SCT025 OVC034 06/06 A2961 RMK AO2 P0002 T00610056=
201711021658 SPECI KCLM 021658Z AUTO 27008KT 3SM -RA BR FEW008 FEW017 OVC027 06/06 A2961 RMK AO2 P0000 T00610056=
201711021649 METAR KCLM 021649Z AUTO 29007KT 2SM RA BR SCT019 OVC029 07/06 A2960 RMK AO2 SLP026 P0017 T00670061=
201711021648 SPECI KCLM 021648Z AUTO 28007KT 2SM RA BR SCT019 OVC029 07/06 A2960 RMK AO2 P0015=
201711021634 SPECI KCLM 021634Z AUTO 30007KT 1 3/4SM RA BR FEW011 OVC033 07/06 A2960 RMK AO2 P0009 T00670056=
201711021613 SPECI KCLM 021613Z AUTO 28008KT 4SM -RA BR OVC037 07/06 A2959 RMK AO2 P0003 T00670056=
201711021601 SPECI KCLM 021601Z AUTO 27003KT 2SM -RA BR OVC041 07/06 A2959 RMK AO2 P0001 T00670061=
201711021553 METAR KCLM 021553Z AUTO 24006KT 3SM -RA BR BKN041 BKN060 OVC070 06/06 A2959 RMK AO2 RAE11B42 SLP023 P0003 T00610056=
201711021453 METAR KCLM 021453Z AUTO 25004KT 10SM -RA SCT042 BKN050 OVC070 06/04 A2961 RMK AO2 RAB43 SLP027 P0000 60000 T00610044 56030=
201711021353 METAR KCLM 021353Z AUTO 00000KT 10SM FEW046 BKN070 OVC085 06/04 A2963 RMK AO2 SLP035 T00560044=
201711021253 METAR KCLM 021253Z AUTO 12005KT 10SM BKN060 OVC095 07/05 A2965 RMK AO2 SLP042 T00670050=
201711021153 METAR KCLM 021153Z AUTO 16005KT 9SM OVC065 05/04 A2970 RMK AO2 RAB01E11 SLP057 P0000 60000 T00500044 10072 20033 58013=
201711021053 METAR KCLM 021053Z AUTO 00000KT 10SM BKN055 OVC070 04/04 A2971 RMK AO2 SLP063 T00440039=
201711020953 METAR KCLM 020953Z AUTO 19003KT 10SM OVC055 04/03 A2973 RMK AO2 RAB35E45 SLP068 P0000 T00440033=
201711020853 METAR KCLM 020853Z AUTO 19003KT 10SM FEW060 03/02 A2974 RMK AO2 SLP071 T00330022 55012=
201711020753 METAR KCLM 020753Z AUTO 28006KT 10SM CLR 06/03 A2973 RMK AO2 SLP069 T00560033 401330044=
201711020653 METAR KCLM 020653Z AUTO 22004KT 10SM CLR 06/04 A2975 RMK AO2 SLP076 T00560044=
201711020553 METAR KCLM 020553Z AUTO 23005KT 10SM FEW055 06/05 A2977 RMK AO2 SLP082 T00610050 10117 20056 58001=
201711020453 METAR KCLM 020453Z AUTO 24004KT 10SM FEW029 BKN035 08/06 A2978 RMK AO2 SLP084 T00780056=
201711020414 SPECI KCLM 020414Z AUTO 28005KT 10SM SCT024 BKN038 OVC049 08/06 A2977 RMK AO2 T00830056=
201711020353 METAR KCLM 020353Z AUTO 24003KT 10SM OVC024 09/06 A2977 RMK AO2 SLP083 T00940061=
201711020253 METAR KCLM 020253Z AUTO 00000KT 10SM BKN027 OVC039 09/07 A2977 RMK AO2 SLP083 T00940067 58003=
201711020153 METAR KCLM 020153Z AUTO 30003KT 10SM OVC025 10/07 A2979 RMK AO2 SLP089 T01000067=
201711020122 SPECI KCLM 020122Z AUTO 29003KT 10SM BKN024 OVC031 10/06 A2979 RMK AO2 T01000061=
201711020053 METAR KCLM 020053Z AUTO VRB03KT 10SM SCT032 OVC045 11/06 A2980 RMK AO2 SLP091 T01060061=
201711012353 METAR KCLM 012353Z AUTO 30004KT 10SM BKN035 OVC049 11/07 A2978 RMK AO2 SLP086 T01110067 10133 20111 58004=
201711012253 METAR KCLM 012253Z AUTO 00000KT 10SM FEW039 BKN055 12/07 A2980 RMK AO2 SLP092 T01170067=
201711012153 METAR KCLM 012153Z AUTO VRB04KT 10SM CLR 13/07 A2979 RMK AO2 SLP088 T01280067=
201711012053 METAR KCLM 012053Z AUTO 31004KT 10SM CLR 12/07 A2980 RMK AO2 SLP091 T01170067 50007 $=
201711011953 METAR KCLM 011953Z AUTO 35007KT 10SM OVC090 13/07 A2980 RMK AO2 SLP092 T01280072 $=
201711011853 METAR KCLM 011853Z AUTO 34009KT 300V020 10SM FEW095 12/07 A2979 RMK AO2 SLP089 T01170067 $=
201711011753 METAR KCLM 011753Z AUTO 30007KT 10SM CLR 13/04 A2978 RMK AO2 SLP083 T01330039 10133 20100 55002 $=
201711011653 METAR KCLM 011653Z AUTO 26008KT 10SM CLR 11/04 A2977 RMK AO2 SLP082 T01060044 $=
201711011553 METAR KCLM 011553Z AUTO 26008KT 10SM FEW060 10/04 A2978 RMK AO2 SLP086 T01000044 $=
201711011453 METAR KCLM 011453Z AUTO 29013G22KT 10SM BKN043 11/04 A2978 RMK AO2 SLP086 T01060044 53010 $=
201711011353 METAR KCLM 011353Z AUTO 30018G26KT 10SM CLR 10/04 A2976 RMK AO2 PK WND 32028/1335 SLP078 T01000044 $=
201711011253 METAR KCLM 011253Z AUTO 30012G20KT 10SM CLR 11/06 A2976 RMK AO2 SLP079 T01060056 $=
201711011153 METAR KCLM 011153Z AUTO 31011KT 10SM CLR 11/05 A2975 RMK AO2 PK WND 31026/1056 SLP075 T01110050 10128 20078 58011=
201711011053 METAR KCLM 011053Z AUTO 30014G24KT 10SM CLR 11/05 A2977 RMK AO2 SLP083 T01110050=
201711010953 METAR KCLM 010953Z AUTO 30011G20KT 10SM CLR 13/03 A2978 RMK AO2 SLP085 T01280028=
201711010853 METAR KCLM 010853Z AUTO 27010KT 10SM CLR 10/06 A2978 RMK AO2 SLP086 T01000061 58012=
201711010753 METAR KCLM 010753Z AUTO 25007KT 10SM CLR 10/08 A2979 RMK AO2 SLP089 T01000078 401390006=
201711010653 METAR KCLM 010653Z AUTO 28006KT 10SM CLR 08/07 A2982 RMK AO2 SLP097 T00830072=
201711010553 METAR KCLM 010553Z AUTO 33007KT 10SM CLR 09/08 A2982 RMK AO2 SLP098 T00890083 10100 20067 56022=
201711010453 METAR KCLM 010453Z AUTO 29011KT 10SM FEW006 08/08 A2984 RMK AO2 SLP104 T00830078=
201711010428 SPECI KCLM 010428Z AUTO 30009KT 10SM SCT005 08/07 A2983 RMK AO2 T00780067=
201711010417 SPECI KCLM 010417Z AUTO 24005KT 9SM BKN006 08/07 A2983 RMK AO2 T00780067=
201711010408 SPECI KCLM 010408Z AUTO 00000KT 9SM SCT006 08/08 A2984 RMK AO2 T00830083=
201711010353 METAR KCLM 010353Z AUTO 33005KT 10SM CLR 09/08 A2986 RMK AO2 SLP112 T00890083=
201711010343 SPECI KCLM 010343Z AUTO 32007KT 10SM SCT006 08/08 A2986 RMK AO2 T00830078=
201711010253 METAR KCLM 010253Z AUTO 28005KT 10SM OVC007 09/08 A2988 RMK AO2 SLP121 T00890078 56016=
201711010220 SPECI KCLM 010220Z AUTO VRB03KT 10SM BKN008 08/06 A2989 RMK AO2 T00830061=
201711010153 METAR KCLM 010153Z AUTO 26003KT 10SM SCT010 07/04 A2991 RMK AO2 SLP130 T00670039=
201711010053 METAR KCLM 010053Z AUTO 00000KT 10SM CLR 08/03 A2988 RMK AO2 SLP119 T00830033=

# No short TAF reports from KCLM in databse.

###################################
#  large TAF from KCLM
###################################
201711302330 TAF KCLM 302330Z 0100/0124 31005KT P6SM BKN004 OVC028 FM010600
                       23005KT P6SM BKN030 FM011200 26005KT 5SM
                       -RA OVC015=
201711301735 TAF KCLM 301735Z 3018/0118 00000KT 4SM -RA BR OVC050 FM301900 VRB03KT
                       5SM -RA BR OVC030 FM010000 28006KT P6SM
                       OVC025 FM010600 23005KT P6SM BKN030=
201711301206 TAF KCLM 301206Z 3012/0112 00000KT P6SM -RA OVC050 FM301400 VRB03KT
                       6SM -RA BR OVC035 FM301600 VRB03KT 5SM -RA
                       BR OVC030 FM010000 28006KT P6SM OVC025 FM010600
                       23005KT P6SM BKN030=
201711300604 TAF KCLM 300604Z 3006/0106 00000KT P6SM OVC080 FM301400 VRB03KT
                       P6SM -RA OVC060 FM301800 VRB03KT P6SM -RA
                       OVC030 FM010100 28006KT P6SM OVC020=
201711292325 TAF KCLM 292325Z 3000/3024 00000KT P6SM SCT070 FM301400 VRB03KT
                       P6SM -RA OVC060 FM301800 VRB03KT P6SM -RA
                       OVC015=
201711291720 TAF KCLM 291720Z 2918/3018 26005KT P6SM SCT045 FM292000 VRB04KT
                       P6SM SCT050 SCT070 FM300000 VRB04KT P6SM
                       SCT030 BKN150 FM301400 VRB03KT P6SM -RA
                       OVC060=
201711291134 TAF KCLM 291134Z 2912/3012 24005KT P6SM SCT050 BKN070 FM292000
                       VRB04KT P6SM SCT050 SCT070 FM300000 VRB04KT
                       P6SM SCT030 BKN150=
201711290553 TAF KCLM 290553Z 2906/3006 25008KT P6SM VCSH BKN050 FM291000 24005KT
                       P6SM SCT050 SCT080 FM300000 VRB03KT P6SM
                       SCT030 BKN120=
201711282320 TAF KCLM 282320Z 2900/2924 31010KT P6SM VCSH BKN050 FM290800 23005KT
                       P6SM BKN025 FM292000 VRB03KT P6SM SCT030
                       BKN060=
201711282245 KCLM 282245Z 2823/2918 27010G20KT P6SM VCSH BKN110 FM290600 25007KT
                       P6SM BKN050=
201711281901 KCLM 281901Z 2819/2918 27010KT P6SM -SHRA BKN045 OVC060 FM282200
                       27010KT P6SM VCSH BKN050 FM290600 25007KT
                       P6SM BKN050=
201711281840 KCLM 281840Z 2819/2918 30013KT P6SM -SHRA SCT008 BKN045 OVC050
                       FM282200 27010KT P6SM VCSH BKN050 FM290600
                       25007KT P6SM BKN050=
201711281729 TAF KCLM 281729Z 2818/2918 30017G25KT 2SM -RA BR OVC007 FM281900
                       27012G21KT P6SM -SHRA BKN035 BKN050 FM282200
                       27010KT P6SM VCSH BKN050 FM290600 25007KT
                       P6SM BKN050=
201711281157 TAF KCLM 281157Z 2812/2912 VRB04KT P6SM -RA OVC060 FM281500 25004KT
                       P6SM -RA OVC040 FM281900 27010KT P6SM -SHRA
                       BKN040 BKN050 FM282200 27010KT P6SM BKN050
                       FM290600 25007KT P6SM BKN050=
201711280551 TAF KCLM 280551Z 2806/2906 VRB04KT P6SM BKN080 OVC120 FM281000
                       VRB04KT P6SM -RA BKN050 OVC080 FM281500
                       25006KT 5SM -RA BR OVC030 FM281900 27010KT
                       P6SM -SHRA BKN040 BKN050 FM290000 27007KT
                       P6SM BKN050=
201711272335 TAF KCLM 272335Z 2800/2824 13006KT P6SM SCT080 FM280600 12007KT
                       P6SM SCT040 OVC070 FM281200 VRB03KT P6SM
                       -RA OVC025 FM282100 29012KT 4SM -RA BR OVC015=
201711271725 TAF KCLM 271725Z 2718/2818 24007KT P6SM SKC FM280000 10005KT P6SM
                       BKN070 OVC200 FM280600 12007KT P6SM SCT040
                       OVC070 FM281000 VRB03KT P6SM -RA OVC025=
201711271125 TAF KCLM 271125Z 2712/2812 25006KT P6SM VCSH SCT040 BKN070
                      TEMPO 2712/2716 -SHRA BKN035 FM271800 VRB04KT
                       P6SM SCT070 BKN200 FM280000 10005KT P6SM
                       BKN070 OVC200 FM280600 12007KT P6SM SCT040
                       OVC070=
201711270528 TAF KCLM 270528Z 2706/2806 26010KT P6SM VCSH SCT060 BKN080 FM271100
                       26011G20KT P6SM VCSH BKN045 FM271700 24008KT
                       P6SM SCT050 FM272100 VRB04KT P6SM SCT050
                       BKN070 BKN200=
201711262328 TAF KCLM 262328Z 2700/2724 26011G17KT P6SM BKN050 FM270200 26013KT
                       P6SM VCSH BKN050 FM271100 26011G22KT P6SM
                       VCSH BKN045 FM271700 24008KT P6SM SCT050=
201711262133 KCLM 262133Z 2622/2718 26014G28KT P6SM -SHRA BKN045 BKN070 OVC100
                       FM270200 26013KT P6SM VCSH BKN045 FM271100
                       26011G22KT P6SM VCSH BKN045=
201711261727 TAF KCLM 261727Z 2618/2718 31013G22KT P6SM -SHRA SCT010 OVC017
                       FM262000 29012G20KT P6SM VCSH BKN050 FM270700
                       26011KT P6SM VCSH BKN050=
201711261512 KCLM 261512Z 2615/2712 30004KT 5SM -RA BR FEW007 BKN045 OVC060
                       FM262000 28011KT P6SM -SHRA BKN045 OVC060
                       FM270000 27012KT P6SM VCSH SCT070 BKN120
                       OVC250=
201711261445 KCLM 261445Z 2615/2712 VRB03KT 4SM -SHRA OVC025
                      TEMPO 2615/2617 2SM RA BR OVC005 FM262100
                       26012G20KT P6SM -SHRA BKN030=
201711261431 KCLM 261431Z 2615/2712 VRB03KT 4SM -SHRA OVC025 FM262100 26012G20KT
                       P6SM -SHRA BKN030=
201711261121 TAF KCLM 261121Z 2612/2712 12004KT P6SM -SHRA SCT050 OVC070 FM261500
                       VRB03KT 4SM -SHRA OVC025 FM262100 26012G20KT
                       P6SM -SHRA BKN030=
201711260524 TAF KCLM 260524Z 2606/2706 12004KT P6SM -RA SCT050 OVC070 FM261400
                       VRB03KT 4SM -RA BR OVC025 FM262000 26012KT
                       P6SM VCSH BKN050=
201711252320 TAF KCLM 252320Z 2600/2624 00000KT P6SM OVC100 FM260200 12004KT
                       P6SM -RA OVC040 FM261400 VRB03KT 4SM -RA
                       BR OVC025 FM262000 26012KT P6SM VCSH BKN050=
201711251732 TAF KCLM 251732Z 2518/2618 00000KT P6SM BKN200 FM260100 12004KT
                       P6SM -RA OVC040 FM261400 VRB03KT 4SM -RA
                       BR OVC025=
201711251519 KCLM 251519Z 2515/2612 00000KT P6SM BKN200 FM251800 10005KT P6SM
                       SCT070 OVC120 FM260100 12004KT P6SM -RA
                       OVC040=
201711251121 TAF KCLM 251121Z 2512/2612 VRB04KT P6SM BKN070 BKN200 FM251800
                       10005KT P6SM BKN070 BKN120 OVC200 FM260300
                       12007KT P6SM -RA BKN040 OVC070=
201711250521 TAF KCLM 250521Z 2506/2606 00000KT P6SM BKN070 OVC120 FM250900
                       23003KT P6SM BKN120 OVC250 FM251800 VRB03KT
                       P6SM OVC060=
201711242320 TAF KCLM 242320Z 2500/2524 00000KT P6SM OVC060 FM250900 23003KT
                       P6SM BKN120 OVC250 FM251800 VRB03KT P6SM
                       OVC060=
201711241725 TAF KCLM 241725Z 2418/2518 26004KT P6SM SCT050 OVC100=
201711241123 TAF KCLM 241123Z 2412/2512 26006KT P6SM FEW040 BKN070 OVC120 FM241800
                       VRB04KT P6SM BKN040 BKN050 OVC070=
201711240522 TAF KCLM 240522Z 2406/2506 26006KT P6SM FEW030 SCT050 FM240900
                       26004KT P6SM SCT025 BKN050 FM241800 VRB04KT
                       P6SM BKN030 BKN050 OVC070=
201711232359 TAF KCLM 232359Z 2400/2424 26006KT P6SM FEW030 SCT050 FM240600
                       26007KT P6SM SCT025 BKN050=
201711231739 TAF KCLM 231739Z 2318/2418 27008KT 5SM -RA SCT012 OVC025
                      TEMPO 2318/2320 2SM RA BR OVC012 FM232000
                       29006KT P6SM SCT030 BKN040 FM240600 26004KT
                       P6SM SCT025 BKN050=
201711231419 KCLM 231419Z 2314/2412 28005KT P6SM SCT005 BKN025 OVC050
                      TEMPO 2314/2318 4SM -RA BR BKN005 OVC025
                       FM231800 27010KT P6SM VCSH BKN035 BKN060
                       FM232000 29012KT P6SM SCT040 BKN060 FM240600
                       26004KT P6SM BKN025=
201711231127 TAF KCLM 231127Z 2312/2412 28005KT P6SM -RA SCT030 OVC060
                      TEMPO 2312/2315 BKN030 FM231800 27010KT P6SM
                       VCSH BKN035 BKN060 FM232000 29012KT P6SM
                       SCT040 BKN060 FM240600 26004KT P6SM BKN025=
201711230524 TAF KCLM 230524Z 2306/2406 25005KT 1SM -RA BR FEW010 BKN050 OVC070
                       TEMPO 2306/2308 BKN008 FM230800 25005KT
                       P6SM -RA BKN025 OVC050 FM231500 27010KT
                       P6SM SCT015 OVC025 FM232000 29011KT P6SM
                       VCSH BKN035 BKN050=
201711230318 KCLM 230318Z 2303/2324 VRB03KT 3SM -RA BR BKN007 OVC020 FM230500
                       27007KT 3/4SM -RA OVC004 FM232000 29011KT
                       P6SM VCSH BKN035 BKN050=
201711222333 TAF KCLM 222333Z 2300/2324 00000KT P6SM -SHRA FEW050 FEW070 OVC090
                       FM230200 VRB03KT 1/4SM FG OVC030 FM230500
                       27007KT 3/4SM -RA OVC004 FM232000 29011KT
                       P6SM VCSH BKN035 BKN050=
201711222023 KCLM 222023Z 2220/2318 00000KT 1/4SM FG VV002 FM222200 00000KT
                       P6SM -SHRA SCT025 OVC040 FM230500 27007KT
                       5SM -SHRA BKN015 OVC030=
201711221729 TAF KCLM 221729Z 2218/2318 11003KT 1/4SM FG VV001 FM222000 25002KT
                       5SM BR OVC030 FM222100 00000KT P6SM -SHRA
                       SCT025 OVC040 FM230500 27007KT 5SM -SHRA
                       BKN015 OVC030=
201711221310 KCLM 221310Z 2213/2312 VRB03KT 1SM BR FEW002 OVC045
                      TEMPO 2213/2217 4SM -SHRA BR BKN015 OVC035
                       FM221700 VRB03KT 5SM BR VCSH SCT015 BKN045
                       FM230300 VRB03KT 4SM -SHRA BR BKN015 OVC025=
201711221124 TAF KCLM 221124Z 2212/2312 00000KT 4SM -SHRA BR FEW002 OVC045 FM221800
                       VRB03KT 5SM BR VCSH SCT015 BKN045 FM230300
                       VRB03KT 4SM -SHRA BR BKN015 OVC025=
201711220914 KCLM 220914Z 2209/2306 00000KT 4SM -SHRA BR SCT040 OVC070 FM221500
                       00000KT P6SM VCSH SCT025 OVC050 FM230300
                       VRB03KT 6SM -RA BR SCT007 OVC025=
201711220525 TAF KCLM 220525Z 2206/2306 00000KT 4SM BR FEW040 BKN080 OVC110
                       TEMPO 2206/2210 P6SM -SHRA SCT025 OVC040
                       FM221000 00000KT P6SM VCSH SCT007 OVC025
                       FM222000 VRB03KT 6SM -RA BR SCT007 OVC025=
201711212334 TAF KCLM 212334Z 2200/2224 00000KT P6SM -RA OVC003 WS020/19035KT
                       FM220400 29002KT 2SM -RA BR OVC007 FM221200
                       24002KT P6SM VCSH OVC015 FM222300 26004KT
                       4SM -RA BR OVC007=
201711212253 KCLM 212253Z 2123/2218 00000KT P6SM -RA OVC003 FM220100 00000KT
                       5SM -SHRA OVC009 FM220700 VRB03KT 5SM BR
                       VCSH OVC025=
201711211735 TAF KCLM 211735Z 2118/2218 00000KT 2SM -RA BR OVC008 WS020/19035KT
                       FM212200 00000KT 2SM -SHRA OVC009 FM220100
                       00000KT 5SM -SHRA OVC009 FM220700 VRB03KT
                       5SM BR VCSH OVC025=
201711211201 KCLM 211201Z 2112/2212 16004KT P6SM BKN013 BKN090 FM211400 00000KT
                       4SM -RA BR BKN013 OVC050 FM211800 10004KT
                       2SM RA BR OVC013 FM220100 27003KT 6SM -SHRA
                       SCT015 BKN025=
201711211123 TAF KCLM 211123Z 2112/2212 14004KT P6SM FEW007 BKN200 FM211400
                       00000KT 4SM -RA BR SCT007 OVC050 FM211800
                       10004KT 2SM RA BR SCT007 OVC015 FM220100
                       27003KT 6SM -SHRA SCT015 BKN025=
201711210528 TAF KCLM 210528Z 2106/2206 23005KT P6SM SCT250 FM211000 VRB03KT
                       P6SM OVC100 FM211400 00000KT 4SM -RA BR
                       OVC025 FM211800 10004KT 2SM RA BR SCT007
                       OVC015 FM220100 27003KT 6SM -SHRA SCT015
                       BKN025=
201711202336 TAF KCLM 202336Z 2100/2124 30009KT P6SM SCT200 FM211000 VRB03KT
                       P6SM OVC050 FM211400 00000KT 4SM -RA BR
                       OVC035 FM211800 00000KT 2SM -RA BR OVC007=
201711201736 TAF KCLM 201736Z 2018/2118 30010KT P6SM BKN027 FM202100 30012KT
                       P6SM BKN035 FM210100 VRB03KT P6SM SCT050
                       SCT250 FM210900 VRB03KT P6SM VCSH OVC050=
201711201128 TAF KCLM 201128Z 2012/2112 00000KT 4SM -RA BR VCSH SCT003 BKN040
                       OVC050
                      TEMPO 2012/2016 2SM RA BR OVC003 FM201900
                       29012KT P6SM SCT050 BKN200 FM210100 22004KT
                       P6SM SCT050 SCT200 FM210800 VRB03KT P6SM
                       OVC025=
201711200520 TAF KCLM 200520Z 2006/2106 00000KT P6SM VCSH BKN050 BKN080 OVC090
                       FM200800 27005KT P6SM VCSH SCT050 BKN070
                       FM201700 29012KT P6SM SCT050 BKN200 FM210100
                       22004KT P6SM SCT050 BKN100=
201711200426 KCLM 200426Z 2004/2024 27005KT P6SM -RA SCT070 OVC100 FM200800
                       25011KT P6SM VCSH SCT015 SCT035 BKN070 FM201600
                       VRB03KT P6SM SCT006 BKN020=
201711192353 TAF KCLM 192353Z 2000/2024 28009G16KT 6SM -RA BR SCT040 OVC050
                       FM200400 27010G18KT P6SM -SHRA BKN015 BKN030
                       OVC060 FM200800 25011KT P6SM VCSH SCT008
                       BKN015 OVC030 FM201600 VRB03KT P6SM SCT006
                       BKN020=
201711191757 TAF KCLM 191757Z 1918/2018 22005KT P6SM -RA SCT040 OVC050 FM200300
                       27005KT 5SM -RA BR BKN015 OVC030 FM200700
                       27010KT P6SM VCSH SCT018 BKN030 BKN050=
201711191120 TAF KCLM 191120Z 1912/2012 15004KT P6SM BKN060 FM191400 22005KT
                       P6SM -RA OVC050 FM192200 27005KT 4SM -RA
                       BR BKN015 OVC030 FM200400 28005KT P6SM -SHRA
                       SCT025 BKN030 OVC050=
201711190530 TAF KCLM 190530Z 1906/2006 15003KT P6SM BKN110 FM191400 22005KT
                       P6SM -RA OVC050 FM192200 27010KT 4SM -RA
                       BR BKN015 OVC030 FM200200 28005KT P6SM -SHRA
                       SCT025 BKN030 OVC050=
201711182344 TAF KCLM 182344Z 1900/1924 VRB03KT P6SM SCT070 BKN120 FM191400
                       22005KT P6SM -RA OVC050 FM192300 27010KT
                       5SM -RA BR SCT020 OVC045=
201711181739 TAF KCLM 181739Z 1818/1918 VRB03KT P6SM SCT070 BKN120 FM191400
                       22005KT P6SM -RA OVC050=
201711181120 TAF KCLM 181120Z 1812/1912 25006KT P6SM BKN070 FM181800 20003KT
                       P6SM BKN100 FM190300 22003KT P6SM BKN050
                       OVC100 FM191100 22003KT P6SM -RA OVC040=
201711180520 TAF KCLM 180520Z 1806/1906 20003KT P6SM BKN070 BKN150 FM181800
                       20003KT P6SM BKN100 FM190300 22003KT P6SM
                       BKN050 OVC100=
201711172344 TAF KCLM 172344Z 1800/1824 VRB03KT P6SM SCT045 BKN060 FM181500
                       VRB03KT P6SM SCT120 BKN200=
201711171740 TAF KCLM 171740Z 1718/1818 27005KT P6SM VCSH SCT045 BKN060 FM181200
                       24003KT P6SM VCSH SCT120 BKN200=
201711171313 KCLM 171313Z 1713/1812 25009KT P6SM VCSH SCT030 BKN050
                      TEMPO 1713/1715 -SHRA BKN030 BKN050 FM171500
                       27009KT P6SM VCSH SCT050 FM171700 27007KT
                       P6SM VCSH BKN045 FM172000 26005KT P6SM BKN045=
201711171135 TAF KCLM 171135Z 1712/1812 25009KT P6SM VCSH SCT045 OVC080 FM171700
                       27007KT P6SM VCSH BKN045 FM172000 26005KT
                       P6SM BKN045=
201711170520 TAF KCLM 170520Z 1706/1806 23004KT P6SM VCSH BKN040 OVC080 FM172000
                       29006KT P6SM OVC035=
201711162320 TAF KCLM 162320Z 1700/1724 VRB04KT P6SM VCSH SCT010 BKN050 FM170800
                       25011KT P6SM SCT010 BKN030 FM171800 30007KT
                       P6SM SCT015 BKN040=
201711161720 TAF KCLM 161720Z 1618/1718 23005KT P6SM VCSH SCT050 BKN070 FM162100
                       28004KT P6SM VCSH SCT030 BKN050 BKN080 FM170800
                       25011KT P6SM BKN030=
201711161120 TAF KCLM 161120Z 1612/1712 23005KT P6SM VCSH SCT100 BKN120 FM161900
                       28004KT P6SM VCSH SCT030 BKN050 BKN080 FM170900
                       25011KT P6SM BKN030=
201711160534 TAF KCLM 160534Z 1606/1706 00000KT P6SM VCSH BKN040 OVC080 FM160900
                       VRB03KT P6SM -SHRA BKN040 FM161400 24004KT
                       P6SM -SHRA BKN025 BKN040 FM161900 VRB03KT
                       P6SM VCSH SCT030 BKN050 BKN080=
201711152338 TAF KCLM 152338Z 1600/1624 VRB03KT P6SM -SHRA BKN050 OVC070
                      TEMPO 1600/1603 BKN030 OVC050 FM160300 VRB03KT
                       P6SM -SHRA BKN030 OVC050 FM161100 VRB03KT
                       P6SM VCSH BKN035 BKN070 FM161600 VRB03KT
                       P6SM VCSH SCT050 BKN080=
201711151739 TAF KCLM 151739Z 1518/1618 VRB03KT P6SM SCT050
                      TEMPO 1518/1522 -SHRA BKN030 BKN050 FM160000
                       VRB04KT P6SM VCSH BKN050=
201711151138 TAF KCLM 151138Z 1512/1612 26003KT P6SM -RA OVC045 FM151300 24003KT
                       4SM -RA BR OVC025 FM151800 VRB03KT P6SM
                       -RA BKN025 OVC050 FM152100 31004KT P6SM
                       VCSH BKN050=
201711150533 TAF KCLM 150533Z 1506/1606 14011G20KT P6SM -RA OVC060 FM150800
                       24004KT P6SM -RA OVC025 FM152300 27003KT
                       P6SM VCSH OVC050=
201711142339 TAF KCLM 142339Z 1500/1524 VRB03KT 5SM -SHRA BR SCT015 OVC040
                      TEMPO 1500/1504 2SM SHRA BR BKN015 OVC040
                       FM150400 VRB03KT 4SM -RA BR BKN015 OVC030
                       FM151800 VRB03KT P6SM -RA BKN020 OVC040=
201711141736 TAF KCLM 141736Z 1418/1518 VRB04KT P6SM -SHRA SCT015 OVC040
                      TEMPO 1418/1422 2SM SHRA BR BKN015 OVC040
                       FM142200 VRB04KT 6SM -SHRA BR BKN015 OVC030
                       FM150200 VRB04KT P6SM -RA BKN020 OVC040=
201711141139 TAF KCLM 141139Z 1412/1512 16003KT P6SM SCT060 BKN070 FM141400
                       23003KT P6SM -RA BKN050 OVC080 FM141600
                       25003KT 4SM -RA BR OVC050 FM141900 26003KT
                       4SM -RA BR OVC025 FM142300 22002KT 6SM -RA
                       BR OVC025=
201711140524 TAF KCLM 140524Z 1406/1506 00000KT P6SM SCT060 FM141100 24005KT
                       P6SM SCT020 BKN035 OVC050 FM141600 26004KT
                       5SM -RA OVC019=
201711132345 TAF KCLM 132345Z 1400/1424 VRB05KT 5SM -RA BR OVC035 FM140200 28012G22KT
                       6SM -SHRA BR BKN030 OVC050 FM140600 26010KT
                       P6SM VCSH BKN050 FM141200 24004KT P6SM -RA
                       BKN045 OVC060 FM141800 VRB05KT 5SM -RA BR
                       OVC025=
201711131734 TAF KCLM 131734Z 1318/1418 22006KT P6SM -SHRA BKN035 OVC060 FM140000
                       27015G25KT P6SM -SHRA SCT012 BKN018 OVC050
                       FM140900 24004KT P6SM VCSH SCT018 BKN050=
201711131140 TAF KCLM 131140Z 1312/1412 22006KT 6SM -RA OVC060 FM140000 27015G25KT
                       P6SM -SHRA SCT012 BKN018 OVC050 FM140900
                       24004KT P6SM VCSH SCT018 BKN050=
201711130553 TAF KCLM 130553Z 1306/1406 14006KT P6SM -RA SCT008 OVC060 FM132300
                       27015G25KT P6SM -SHRA SCT012 BKN018 OVC050=
201711122320 TAF KCLM 122320Z 1300/1324 11005KT P6SM -RA OVC040 FM130400 VRB03KT
                       P6SM VCSH BKN040 FM131200 09010G20KT 5SM
                       -RA BR OVC030 FM132100 27020G30KT P6SM -SHRA
                       BKN025 BKN050=
201711122010 KCLM 122010Z 1220/1318 VRB03KT 4SM -RA BR SCT005 OVC040
                      TEMPO 1220/1224 1 1/2SM RA BR BKN005 OVC030
                       FM130000 VRB03KT P6SM -SHRA SCT010 OVC040
                       FM130600 09006KT P6SM BKN050 FM131200 09012G20KT
                       5SM -RA BR OVC025=
201711121720 TAF KCLM 121720Z 1218/1318 VRB03KT P6SM VCSH BKN050 FM122200 VRB03KT
                       P6SM -SHRA OVC040 FM130600 09006KT P6SM
                       BKN050 FM131200 09012G20KT 5SM -RA BR OVC025=
201711121202 TAF KCLM 121202Z 1212/1312 16004KT P6SM -SHRA BKN040 OVC060 FM121700
                       VRB04KT P6SM VCSH BKN040 OVC070 FM130000
                       13005KT P6SM -RA BKN030 OVC050=
201711120958 KCLM 120958Z 1210/1306 26004KT 3SM -RA BR OVC050
                      TEMPO 1210/1212 1 1/2SM RA BR OVC030 FM121200
                       24003KT P6SM -SHRA BKN040 OVC060 FM121700
                       VRB04KT P6SM VCSH BKN040 OVC070 FM130000
                       13005KT P6SM -SHRA BKN030 OVC050=
201711120559 TAF KCLM 120559Z 1206/1306 24004KT P6SM -RA SCT020 OVC040
                      TEMPO 1207/1210 2SM -RA BR BKN015 OVC040
                       FM121700 VRB04KT P6SM VCSH BKN040 OVC070
                       FM130000 13005KT P6SM -SHRA BKN030 OVC050=
201711120309 KCLM 120309Z 1203/1224 24003KT P6SM -RA BKN015 OVC060 FM120600
                       09006KT 5SM -RA BR SCT020 OVC040
                      TEMPO 1206/1210 2SM -RA BR BKN015 OVC040
                       FM121700 VRB04KT P6SM VCSH BKN030=
201711112325 TAF KCLM 112325Z 1200/1224 00000KT P6SM VCSH OVC060 FM120600 09006KT
                       5SM -RA BR SCT020 OVC040
                      TEMPO 1206/1210 2SM -RA BR BKN015 OVC040
                       FM121700 VRB04KT P6SM VCSH BKN030=
201711111720 TAF KCLM 111720Z 1118/1218 00000KT 4SM -SHRA BR SCT008 OVC050
                      TEMPO 1118/1121 4SM BR BKN008 OVC050 FM112100
                       00000KT P6SM -SHRA SCT010 OVC040 FM120600
                       09006KT 5SM -RA BR OVC020
                      TEMPO 1206/1210 2SM -RA BR OVC010 FM121700
                       VRB04KT P6SM VCSH BKN030=
201711111515 KCLM 111515Z 1115/1212 21003KT P6SM SCT005 SCT050
                      TEMPO 1115/1118 BKN005 BKN050 FM111800 09003KT
                       P6SM VCSH SCT005 BKN050 FM120400 23004KT
                       P6SM -RA SCT010 OVC025=
201711111138 TAF KCLM 111138Z 1112/1212 21003KT P6SM BKN005 FM111500 09003KT
                       P6SM VCSH SCT005 BKN050 OVC200 FM120100
                       13003KT P6SM -SHRA BKN050 OVC100 FM121000
                       23004KT P6SM -RA SCT015 BKN025 OVC035=
201711110542 TAF KCLM 110542Z 1106/1206 21003KT P6SM BCFG SCT020
                      TEMPO 1108/1112 5SM BR OVC012 FM111500 09003KT
                       P6SM VCSH SCT020 BKN060 OVC200 FM120000
                       13003KT P6SM -RA BKN050 OVC100=
201711102357 TAF KCLM 102357Z 1100/1124 03004KT P6SM FEW020 SCT200
                      TEMPO 1108/1112 5SM BR OVC012 FM111200 VRB04KT
                       P6SM SCT015 SCT050 FM111500 VRB04KT P6SM
                       VCSH SCT020 BKN060=
201711102009 KCLM 102009Z 1020/1118 VRB04KT P6SM FEW015 BKN035 FM102200 VRB02KT
                       P6SM FEW015 SCT040 BKN200 FM110000 VRB02KT
                       P6SM SCT080 SCT200 FM110600 VRB02KT P6SM
                       SCT060 BKN200
                      TEMPO 1109/1111 4SM BR SCT003=
201711101751 TAF KCLM 101751Z 1018/1118 VRB04KT P6SM OVC010 FM102100 VRB02KT
                       P6SM SCT015 SCT080 BKN200 FM110000 VRB02KT
                       P6SM SCT080 SCT200 FM110600 VRB02KT P6SM
                       SCT060 BKN200
                      TEMPO 1109/1111 4SM BR SCT003=
201711101334 KCLM 101334Z 1014/1112 VRB04KT P6SM BKN010 OVC020 FM102000 VRB02KT
                       P6SM BKN020 BKN080 BKN200 FM110000 VRB02KT
                       P6SM FEW028 SCT090 SCT200 FM110600 VRB02KT
                       P6SM MIFG FEW005 SCT090 BKN200=
201711101120 TAF KCLM 101120Z 1012/1112 00000KT P6SM BKN008 OVC060 FM102000
                       VRB02KT P6SM BKN020 BKN080 BKN200 FM110000
                       VRB02KT P6SM FEW028 SCT090 SCT200 FM110600
                       VRB02KT P6SM MIFG FEW005 SCT090 BKN200=
201711100923 KCLM 100923Z 1009/1106 00000KT 6SM BR VCSH SCT004 BKN060 OVC150
                       TEMPO 1009/1012 2SM BR BKN004 OVC060 FM101200
                       00000KT P6SM BKN022 OVC060 FM102000 VRB03KT
                       P6SM BKN035 BKN080 BKN200 FM110000 VRB03KT
                       P6SM FEW035 SCT090 SCT200=
201711100815 KCLM 100815Z 1008/1106 00000KT P6SM MIFG VCSH SCT004 BKN060 OVC150
                       TEMPO 1008/1012 BKN004 OVC060 FM101200 00000KT
                       P6SM BKN022 OVC060 FM102000 VRB03KT P6SM
                       BKN035 BKN080 BKN200 FM110000 VRB03KT P6SM
                       FEW035 SCT090 SCT200=
201711100634 KCLM 100634Z 1007/1106 VRB02KT P6SM MIFG VCSH FEW022 SCT060 OVC150
                       TEMPO 1008/1012 FEW022 BKN060 OVC150 FM101200
                       00000KT P6SM BKN022 OVC060 FM102000 VRB03KT
                       P6SM BKN035 BKN080 BKN200 FM110000 VRB03KT
                       P6SM FEW035 SCT090 SCT200=
201711100543 TAF KCLM 100543Z 1006/1106 VRB02KT P6SM VCSH SCT015 BKN090
                      TEMPO 1006/1007 -SHRA BKN015 OVC030 FM100900
                       21003KT P6SM OVC015 FM101800 00000KT P6SM
                       SCT025 BKN050=
201711100316 KCLM 100316Z 1003/1024 VRB02KT P6SM VCSH SCT015 BKN090
                      TEMPO 1003/1007 -SHRA BKN015 OVC030 FM100900
                       21003KT P6SM OVC015 FM101800 00000KT P6SM
                       SCT025 BKN050=
201711100213 KCLM 100213Z 1002/1024 00000KT P6SM SCT016 FM100900 21003KT P6SM
                       OVC015 FM101800 00000KT P6SM SCT025 BKN050=
201711092325 TAF KCLM 092325Z 1000/1024 00000KT P6SM -SHRA BKN015 BKN040 FM100600
                       00000KT P6SM SCT020 BKN040
                      TEMPO 1006/1010 BKN020 BKN040 FM101000 21005KT
                       P6SM BKN015 FM101800 00000KT P6SM SCT025
                       BKN050=
201711092035 KCLM 092035Z 0921/1018 27007KT P6SM VCSH FEW010 BKN050 OVC070 FM092200
                       26006KT P6SM -SHRA BKN040 OVC060 FM100300
                       22003KT 5SM BR VCSH OVC018=
201711091747 TAF KCLM 091747Z 0918/1018 VRB03KT P6SM VCSH BKN070 OVC090 FM092000
                       VRB03KT 5SM -SHRA FEW010 BKN022 OVC040 FM100300
                       22003KT 5SM BR VCSH OVC018=
201711091209 KCLM 091209Z 0912/1012 VRB03KT P6SM VCFG FEW050 SCT090 OVC200
                      TEMPO 0912/0916 FEW050 BKN090 OVC200 FM091600
                       VRB03KT P6SM -RA SCT022 OVC050 FM091900
                       VRB03KT 5SM -SHRA FEW010 BKN022 OVC040 FM100300
                       VRB03KT 5SM BR VCSH OVC018=
201711091141 TAF KCLM 091141Z 0912/1012 VRB03KT P6SM VCFG FEW035 SCT110 OVC250
                       FM091500 VRB03KT 5SM -RA BR SCT020 OVC035
                       FM100000 VRB03KT P6SM BKN020 OVC035=
201711091113 KCLM 091113Z 0911/1006 VRB03KT P6SM BKN070 BKN110 OVC250 FM091200
                       VRB03KT P6SM VCFG FEW035 SCT110 OVC250 FM091500
                       VRB03KT 5SM -RA BR SCT020 OVC035 FM100000
                       VRB03KT P6SM BKN020 OVC035=
201711090540 TAF KCLM 090540Z 0906/1006 VRB03KT P6SM VCSH OVC070
                      TEMPO 0906/0910 -RA FM091200 VRB03KT P6SM
                       VCSH SCT035 OVC050
                      TEMPO 0912/0915 -RA FM091500 VRB03KT 5SM
                       -RA BR SCT020 OVC035 FM100000 VRB03KT P6SM
                       BKN020 OVC035=
201711090325 KCLM 090325Z 0903/0924 25005KT P6SM VCSH SCT070 OVC130 FM090600
                       VRB04KT P6SM VCSH BKN020 OVC040 FM091800
                       VRB04KT P6SM -SHRA SCT020 BKN040=
201711082320 TAF KCLM 082320Z 0900/0924 23005KT P6SM -RA SCT020 OVC040 FM090600
                       VRB04KT P6SM VCSH BKN020 OVC040 FM091800
                       VRB04KT P6SM -SHRA SCT020 BKN040=
201711081740 TAF KCLM 081740Z 0818/0918 10007KT P6SM SCT060 OVC090 FM090000
                       VRB03KT P6SM -RA SCT035 OVC060 FM090600
                       VRB03KT P6SM VCSH SCT020 OVC035 FM090900
                       00000KT 5SM BR BKN020 BKN035 OVC090 FM091600
                       21002KT P6SM VCSH OVC050=
201711081137 TAF KCLM 081137Z 0812/0912 22004KT P6SM VCSH SCT060 BKN090 OVC150
                       FM081800 10007KT P6SM VCSH SCT060 OVC090
                       TEMPO 0820/0824 -RA FM090000 VRB03KT P6SM
                       -RA SCT035 OVC060 FM090600 VRB03KT P6SM
                       -RA SCT020 OVC035 FM090900 00000KT 5SM BR
                       BKN020 BKN035 OVC090=
201711080902 KCLM 080902Z 0809/0906 23004KT P6SM BKN100 OVC150 FM081200 21004KT
                       P6SM VCSH SCT100 OVC150 FM081800 10005KT
                       P6SM VCSH FEW060 BKN100 OVC150 FM090000
                       VRB02KT P6SM VCSH SCT060 OVC100
                      PROB30 0900/0906 -RA BKN060 OVC100=
201711080535 TAF KCLM 080535Z 0806/0906 21004KT P6SM MIFG SCT100 OVC150 FM081200
                       21004KT P6SM VCSH SCT100 OVC150 FM081800
                       10005KT P6SM VCSH FEW060 BKN100 OVC150 FM090000
                       VRB02KT P6SM VCSH SCT060 OVC100
                      PROB30 0900/0906 -RA BKN060 OVC100=
201711080234 KCLM 080234Z 0803/0824 22003KT P6SM SCT100 OVC150 FM080500 22003KT
                       P6SM OVC100 FM081900 10005KT P6SM -RA OVC070=
201711072321 TAF KCLM 072321Z 0800/0824 VRB03KT P6SM BKN100 OVC150 FM080500
                       22003KT P6SM OVC100 FM081900 10005KT P6SM
                       -RA OVC070=
201711071724 TAF KCLM 071724Z 0718/0818 11006KT P6SM OVC150 FM080100 VRB03KT
                       P6SM OVC100 FM080600 22003KT P6SM OVC100=
201711071551 KCLM 071551Z 0716/0812 VRB03KT P6SM OVC200 FM071800 11006KT P6SM
                       BKN100 OVC150 FM080300 VRB03KT P6SM OVC100=
201711071135 TAF KCLM 071135Z 0712/0812 00000KT P6SM FEW025 FM071800 11006KT
                       P6SM OVC250 FM080300 VRB03KT P6SM BKN120
                       OVC250=
201711070530 TAF KCLM 070530Z 0706/0806 00000KT P6SM FEW025 FM072100 11004KT
                       P6SM BKN120=
201711062337 TAF KCLM 062337Z 0700/0724 09005KT P6SM SKC FM070600 23004KT P6SM
                       BKN200 FM072100 11004KT P6SM BKN120=
201711062141 KCLM 062141Z 0622/0718 09007KT P6SM SCT030
                      TEMPO 0622/0624 BKN030 FM070000 14003KT P6SM
                       SKC FM070600 23004KT P6SM BKN250=
201711061724 TAF KCLM 061724Z 0618/0718 23005KT P6SM SCT035 FM062000 09005KT
                       P6SM SKC FM070300 23004KT P6SM BKN250=
201711061135 TAF KCLM 061135Z 0612/0712 24007KT P6SM SKC FM062100 09004KT P6SM
                       SKC=
201711060530 TAF KCLM 060530Z 0606/0706 22004KT P6SM OVC060 FM061200 10004KT
                       P6SM SKC=
201711052333 TAF KCLM 052333Z 0600/0624 16003KT P6SM SCT045 BKN060 FM060200
                       23005KT P6SM SKC FM061800 10004KT P6SM SKC=
201711051735 TAF KCLM 051735Z 0518/0618 12008KT P6SM VCSH SCT045 BKN060 FM060200
                       23005KT P6SM SKC=
201711051120 TAF KCLM 051120Z 0512/0612 13005KT 2SM -SN BR BKN009 OVC016 FM051800
                       23009KT P6SM VCSH OVC018 FM052200 23009KT
                       P6SM SCT025 SCT050 FM060400 23007KT P6SM
                       SKC=
201711050855 KCLM 050855Z 0509/0606 07008G18KT 4SM -RA BR OVC005 FM051100 VRB02KT
                       1SM -SN BR OVC005 FM051800 23009KT P6SM
                       VCSH OVC025 FM052200 23009KT P6SM SCT025
                       SCT050=
201711050520 TAF KCLM 050520Z 0506/0606 00000KT 6SM -RA BR BKN009 OVC016 FM050900
                       VRB02KT 1SM -SN BR OVC005 FM051800 23009KT
                       P6SM VCSH OVC025 FM052200 23009KT P6SM SCT025
                       SCT050=
201711042325 TAF KCLM 042325Z 0500/0524 00000KT P6SM OVC050 FM050400 VRB02KT
                       1SM -SN BR OVC005 FM051800 23009KT P6SM
                       VCSH OVC025 FM052200 23009KT P6SM SCT025
                       SCT050=
201711042235 KCLM 042235Z 0423/0518 11004KT P6SM OVC050 FM050400 VRB02KT 1SM
                       -SN BR OVC005 FM051500 23009KT P6SM VCSH
                       OVC025=
201711041733 TAF KCLM 041733Z 0418/0518 23003KT P6SM VCSH OVC050 FM042200 22005KT
                       P6SM -RASN BKN015 OVC035 FM050400 VRB02KT
                       1SM -SN BR OVC005 FM051500 23009KT P6SM
                       VCSH OVC025=
201711041135 TAF KCLM 041135Z 0412/0512 VRB04KT P6SM SCT035 OVC050
                      TEMPO 0412/0416 OVC035 FM050600 25009KT P6SM
                       OVC025=
201711040520 TAF KCLM 040520Z 0406/0506 00000KT P6SM OVC045 FM041000 VRB03KT
                       P6SM OVC100 FM041600 VRB03KT P6SM OVC050
                       FM042200 08003KT P6SM -RA OVC030=
201711032320 TAF KCLM 032320Z 0400/0424 12005KT P6SM SCT035 SCT050 FM041000
                       VRB03KT P6SM OVC100 FM041600 VRB03KT P6SM
                       OVC050 FM042200 08003KT P6SM -RA OVC030=
201711032237 KCLM 032237Z 0323/0418 12006KT P6SM BKN050 FM040200 16004KT P6SM
                       SCT050 OVC250 FM041000 VRB03KT P6SM OVC100
                       FM041600 VRB03KT P6SM OVC050=
201711031741 TAF KCLM 031741Z 0318/0418 09008KT P6SM OVC050 FM032200 08008KT
                       P6SM SCT050 BKN250 FM040200 16004KT P6SM
                       OVC250 FM041000 VRB03KT P6SM OVC100 FM041600
                       VRB03KT P6SM OVC050=
201711031414 KCLM 031414Z 0314/0412 14006KT 4SM -SN BR SCT014 OVC021 FM031800
                       14006KT P6SM VCSH BKN025 OVC035 FM032200
                       08010KT P6SM SCT050 FM040200 VRB05KT P6SM
                       SKC=
201711031125 TAF KCLM 031125Z 0312/0412 17004KT 1/2SM SHSN FG OVC004
                      TEMPO 0314/0318 2SM -SHSN BKN008 OVC013 FM031800
                       05010KT P6SM VCSH BKN018 OVC035 FM032200
                       08010KT P6SM SCT050 FM040200 VRB05KT P6SM
                       SKC=
201711030530 TAF KCLM 030530Z 0306/0406 03007KT P6SM -RA OVC005
                      TEMPO 0309/0313 2SM -SHSN OVC003 FM031500
                       05010KT P6SM VCSH BKN018 OVC035 FM032100
                       08010KT P6SM SCT050 FM040200 VRB05KT P6SM
                       SKC=
201711022352 TAF KCLM 022352Z 0300/0324 26009KT 6SM -SHRA SCT030 BKN040
                      TEMPO 0302/0306 3SM -SHRA SCT012 OVC030 FM030600
                       03009KT 5SM -SHRASN BKN004 OVC010 FM030900
                       03010KT 2SM -SHSN BKN003 OVC008 FM031500
                       05010KT P6SM VCSH BKN018 OVC035 FM032100
                       08010KT P6SM SCT050=
201711021749 TAF KCLM 021749Z 0218/0318 26009KT 6SM -SHRA SCT030 BKN040 FM030300
                       08006KT 5SM -SHRASN BKN004 OVC010 FM030900
                       08008KT 3SM -SHSN BKN004 OVC010 FM031600
                       09010KT P6SM VCSH BKN018 OVC035=
201711021305 KCLM 021305Z 0213/0312 12005KT P6SM -SHRA SCT030 BKN060
                      TEMPO 0213/0217 BKN025 OVC060 FM021700 06006KT
                       P6SM -SHRA BKN025 BKN050 FM030300 24008KT
                       P6SM -SHRA BKN010 OVC020 FM030900 24010KT
                       P6SM VCSH BKN020 OVC040=
201711021120 TAF KCLM 021120Z 0212/0312 26009KT P6SM VCSH SCT015 SCT030 BKN070
                       FM021400 25005KT 6SM -SHRA BR BKN012 OVC060
                       FM021900 27005KT P6SM VCSH SCT020 BKN050
                       FM022300 VRB04KT 6SM -SHRA BR SCT005 OVC010
                       FM030300 24008KT P6SM -SHRA BKN010 OVC020
                       FM030900 24010KT P6SM VCSH BKN020 OVC040=
201711020523 TAF KCLM 020523Z 0206/0306 29005KT P6SM SCT030 BKN040 FM020800
                       26009KT P6SM VCSH SCT012 SCT020 BKN040 FM021400
                       25005KT 6SM -SHRA BR BKN012 OVC060 FM021900
                       27005KT P6SM VCSH SCT020 BKN050 FM022300
                       VRB04KT 6SM -SHRA BR SCT005 OVC010 FM030300
                       24008KT P6SM -SHRA BKN010 OVC020=
201711020029 KCLM 020029Z 0200/0224 29005KT P6SM SCT035 BKN050
                      TEMPO 0200/0204 BKN035 BKN050 FM020800 26009KT
                       P6SM VCSH SCT012 SCT020 BKN040 FM021400
                       25005KT 6SM -SHRA BR BKN012 OVC060 FM021900
                       27005KT P6SM VCSH SCT020 BKN050 FM022300
                       05008KT 6SM -SHRA BR SCT005 OVC010=
201711012336 TAF KCLM 012336Z 0200/0224 25003KT P6SM SCT040 BKN050 FM020800
                       26009KT P6SM VCSH SCT012 SCT020 BKN040 FM021400
                       25005KT 6SM -SHRA BR BKN012 OVC060 FM021900
                       27005KT P6SM VCSH SCT020 BKN050 FM022300
                       05008KT 6SM -SHRA BR SCT005 OVC010=
201711011736 TAF KCLM 011736Z 0118/0218 28008KT P6SM SCT050 SCT080 FM020000
                       28004KT P6SM SCT015 SCT050 FM020800 26009KT
                       P6SM VCSH SCT012 SCT020 BKN040 FM021400
                       25005KT 6SM -SHRA BR BKN012 OVC060=
201711011126 TAF KCLM 011126Z 0112/0212 27012G21KT P6SM SCT040 BKN100
                      TEMPO 0114/0118 -SHRA BKN010 OVC040 FM011800
                       29008KT P6SM SCT015 BKN050 FM020100 26006KT
                       P6SM SCT010 OVC030 FM020600 26009KT P6SM
                       SCT010 OVC020=
201711010522 TAF KCLM 010522Z 0106/0206 26008KT P6SM SCT005 FM010800 27012KT
                       P6SM VCSH SCT005 BKN012 OVC040 FM011800
                       29008KT P6SM SCT015 BKN050 FM020300 26007KT
                       P6SM SCT010 OVC030=
201711010259 KCLM 010259Z 0103/0124 26008KT P6SM OVC010 FM010800 27015G25KT
                       P6SM VCSH SCT008 BKN012 OVC040 FM011800
                       29008KT P6SM SCT015 BKN050=