##########################################################
# Query made at 02/16/2025 03:34:10 UTC
# Time interval: from 03/01/2018 00:00  to 03/31/2018 23:59  UTC
##########################################################

##########################################################
# KCLM, Port Angeles, William R. Fairchild International Airport (United States)
# WMO index: -----. WIGOS ID: Unknown
# Latitude 48-07-20N. Longitude 123-30-19W. Altitude 87 m.
##########################################################

###################################
#  METAR/SPECI from KCLM
###################################
201803312353 METAR KCLM 312353Z AUTO 00000KT 10SM OVC046 11/04 A3016 RMK AO2 SLP217 T01110039 10111 20078 58021=
201803312253 METAR KCLM 312253Z AUTO 07006KT 10SM FEW047 11/04 A3019 RMK AO2 SLP224 T01060039=
201803312153 METAR KCLM 312153Z AUTO 03005KT 10SM CLR 11/03 A3021 RMK AO2 SLP231 T01110033=
201803312053 METAR KCLM 312053Z AUTO VRB03KT 10SM CLR 10/03 A3023 RMK AO2 SLP238 T01000033 58004=
201803311953 METAR KCLM 311953Z AUTO 32006KT 10SM CLR 09/03 A3025 RMK AO2 SLP245 T00890028=
201803311924 SPECI KCLM 311924Z AUTO 34005KT 10SM SCT019 09/04 A3025 RMK AO2 T00890039=
201803311853 METAR KCLM 311853Z AUTO 03005KT 10SM OVC018 08/03 A3025 RMK AO2 SLP246 T00830033=
201803311753 METAR KCLM 311753Z AUTO 08005KT 10SM OVC018 08/04 A3024 RMK AO2 SLP243 T00780039 10083 20033 55003=
201803311700 SPECI KCLM 311700Z AUTO VRB03KT 10SM BKN015 08/05 A3024 RMK AO2 T00780050=
201803311653 METAR KCLM 311653Z AUTO VRB03KT 10SM SCT015 08/05 A3024 RMK AO2 SLP242 T00830050=
201803311603 SPECI KCLM 311603Z AUTO 22004KT 8SM FEW009 SCT023 06/04 A3025 RMK AO2 T00610039=
201803311553 METAR KCLM 311553Z AUTO 23004KT 7SM SCT008 BKN023 06/03 A3025 RMK AO2 SLP245 T00560033=
201803311544 SPECI KCLM 311544Z AUTO 00000KT 9SM BKN023 06/04 A3025 RMK AO2 T00560039=
201803311536 SPECI KCLM 311536Z AUTO 24005KT 10SM SCT023 05/03 A3025 RMK AO2 T00500033=
201803311529 SPECI KCLM 311529Z AUTO 23005KT 10SM BKN024 05/03 A3025 RMK AO2 T00500033=
201803311453 METAR KCLM 311453Z AUTO 24004KT 10SM FEW025 04/03 A3025 RMK AO2 SLP244 T00390028 50003=
201803311353 METAR KCLM 311353Z AUTO 23006KT 10SM BKN047 04/02 A3025 RMK AO2 SLP245 T00390022=
201803311253 METAR KCLM 311253Z AUTO 24005KT 10SM BKN045 04/02 A3024 RMK AO2 SLP243 T00390022=
201803311153 METAR KCLM 311153Z AUTO 23004KT 10SM BKN043 04/03 A3024 RMK AO2 SLP241 70005 T00440033 10072 20033 55001=
201803311053 METAR KCLM 311053Z AUTO 23004KT 10SM OVC036 04/03 A3023 RMK AO2 SLP240 T00390033=
201803310953 METAR KCLM 310953Z AUTO 22005KT 10SM FEW023 OVC034 04/03 A3024 RMK AO2 SLP242 T00390028=
201803310944 SPECI KCLM 310944Z AUTO 24004KT 10SM SCT023 OVC034 04/03 A3024 RMK AO2 T00440028=
201803310935 SPECI KCLM 310935Z AUTO 23003KT 10SM BKN022 OVC034 04/03 A3024 RMK AO2 T00440028=
201803310853 METAR KCLM 310853Z AUTO 24005KT 10SM CLR 04/03 A3024 RMK AO2 SLP242 T00440028 55000=
201803310753 METAR KCLM 310753Z AUTO 27004KT 10SM CLR 04/03 A3024 RMK AO2 SLP241 T00440028 401170039=
201803310653 METAR KCLM 310653Z AUTO 26004KT 10SM SCT018 06/04 A3024 RMK AO2 SLP243 T00610039=
201803310553 METAR KCLM 310553Z AUTO 29006KT 10SM OVC019 07/04 A3024 RMK AO2 SLP242 T00720044 10083 20072 51009=
201803310453 METAR KCLM 310453Z AUTO 27006KT 10SM OVC020 07/06 A3023 RMK AO2 SLP239 T00720056=
201803310353 METAR KCLM 310353Z AUTO 28005KT 10SM OVC018 08/05 A3023 RMK AO2 SLP236 T00780050=
201803310253 METAR KCLM 310253Z AUTO 29004KT 10SM OVC018 08/05 A3021 RMK AO2 SLP233 T00780050 56004=
201803310153 METAR KCLM 310153Z AUTO 30006KT 10SM OVC017 08/05 A3022 RMK AO2 SLP235 T00780050=
201803310124 SPECI KCLM 310124Z AUTO 31006KT 10SM BKN017 08/05 A3022 RMK AO2 T00830050=
201803310105 SPECI KCLM 310105Z AUTO 31008KT 10SM SCT016 08/05 A3022 RMK AO2 T00830050=
201803310053 METAR KCLM 310053Z AUTO 31008KT 10SM BKN016 08/06 A3022 RMK AO2 SLP235 T00830056=
201803302353 METAR KCLM 302353Z AUTO 32005KT 10SM OVC016 08/05 A3023 RMK AO2 SLP238 T00830050 10106 20078 50000=
201803302312 SPECI KCLM 302312Z AUTO 30006KT 10SM OVC015 08/05 A3023 RMK AO2 T00830050=
201803302253 METAR KCLM 302253Z AUTO 30008KT 10SM OVC014 08/05 A3023 RMK AO2 SLP240 T00780050=
201803302153 METAR KCLM 302153Z AUTO 28010KT 10SM OVC013 08/06 A3024 RMK AO2 SLP240 T00830061=
201803302053 METAR KCLM 302053Z AUTO 30012G17KT 10SM OVC011 08/06 A3023 RMK AO2 SLP237 T00830061 51013=
201803302011 SPECI KCLM 302011Z AUTO 31009KT 10SM OVC011 09/07 A3022 RMK AO2 T00890072=
201803301953 METAR KCLM 301953Z AUTO 31009KT 7SM OVC009 09/07 A3022 RMK AO2 CIG 006V012 SLP234 T00890072=
201803301909 SPECI KCLM 301909Z AUTO VRB05KT 10SM BKN007 OVC012 09/07 A3022 RMK AO2 CIG 005V009 T00890072=
201803301853 METAR KCLM 301853Z AUTO VRB05KT 10SM OVC012 09/07 A3022 RMK AO2 SLP234 T00890072=
201803301837 SPECI KCLM 301837Z AUTO 36005KT 10SM BKN014 10/07 A3021 RMK AO2 T01000067=
201803301753 METAR KCLM 301753Z AUTO VRB06KT 10SM CLR 10/06 A3019 RMK AO2 SLP223 60005 T01000061 10117 20067 53008=
201803301653 METAR KCLM 301653Z AUTO 28007KT 10SM BKN043 11/06 A3016 RMK AO2 SLP215 T01060061=
201803301553 METAR KCLM 301553Z AUTO 13005KT 9SM OVC043 08/08 A3017 RMK AO2 RAE44 SLP217 P0002 T00830078=
201803301453 METAR KCLM 301453Z AUTO 12008KT 8SM -RA OVC048 08/07 A3016 RMK AO2 RAE17B51 SLP215 P0000 60003 T00780067 56003=
201803301353 METAR KCLM 301353Z AUTO 16006KT 10SM -RA OVC049 07/07 A3017 RMK AO2 SLP216 P0000 T00720067=
201803301253 METAR KCLM 301253Z AUTO 00000KT 7SM -RA OVC050 07/07 A3016 RMK AO2 SLP215 P0003 T00670067=
201803301153 METAR KCLM 301153Z AUTO 18003KT 8SM -RA OVC055 07/06 A3017 RMK AO2 RAE05B22 SLP217 P0000 60000 70011 T00720061 10089 20067 56005=
201803301053 METAR KCLM 301053Z AUTO 00000KT 10SM -RA BKN065 OVC090 08/05 A3018 RMK AO2 RAB49 SLP220 P0000 T00780050=
201803300953 METAR KCLM 300953Z AUTO 27005KT 10SM BKN055 08/04 A3018 RMK AO2 SLP220 T00830044=
201803300853 METAR KCLM 300853Z AUTO 27005KT 10SM BKN047 08/04 A3019 RMK AO2 SLP223 T00830044 58014=
201803300753 METAR KCLM 300753Z AUTO 24006KT 10SM SCT047 BKN055 BKN070 08/05 A3020 RMK AO2 SLP229 T00830050 400940050=
201803300653 METAR KCLM 300653Z AUTO 24005KT 10SM BKN047 OVC055 08/06 A3022 RMK AO2 SLP234 T00830056=
201803300553 METAR KCLM 300553Z AUTO 24004KT 10SM OVC046 08/07 A3023 RMK AO2 SLP237 T00830067 10094 20078 58006=
201803300453 METAR KCLM 300453Z AUTO 00000KT 10SM OVC048 08/07 A3024 RMK AO2 SLP240 T00830067=
201803300353 METAR KCLM 300353Z AUTO 00000KT 9SM BKN055 BKN120 08/07 A3024 RMK AO2 SLP242 T00830072=
201803300253 METAR KCLM 300253Z AUTO 00000KT 10SM FEW019 BKN045 OVC050 08/08 A3025 RMK AO2 SLP244 T00830078 56015=
201803300153 METAR KCLM 300153Z AUTO 00000KT 10SM FEW016 OVC047 09/07 A3025 RMK AO2 SLP247 T00940072=
201803300053 METAR KCLM 300053Z AUTO 13004KT 10SM FEW016 BKN031 OVC055 09/07 A3027 RMK AO2 SLP254 T00940072=
201803300037 SPECI KCLM 300037Z AUTO 00000KT 10SM SCT016 BKN030 OVC047 09/07 A3028 RMK AO2 T00940067=
201803292353 METAR KCLM 292353Z AUTO 00000KT 10SM OVC015 09/07 A3029 RMK AO2 SLP259 60000 T00890067 10089 20078 56018=
201803292253 METAR KCLM 292253Z AUTO 00000KT 10SM OVC016 08/06 A3031 RMK AO2 SLP265 T00830061=
201803292232 SPECI KCLM 292232Z AUTO 03005KT 10SM SCT012 OVC020 08/06 A3031 RMK AO2 T00830061=
201803292153 METAR KCLM 292153Z AUTO 00000KT 10SM OVC012 09/06 A3032 RMK AO2 SLP270 T00890061=
201803292053 METAR KCLM 292053Z AUTO 04003KT 10SM OVC013 08/05 A3034 RMK AO2 SLP277 60000 T00780050 56006=
201803291953 METAR KCLM 291953Z AUTO VRB03KT 10SM OVC011 08/06 A3034 RMK AO2 SLP277 T00830061=
201803291904 SPECI KCLM 291904Z AUTO 08006KT 10SM BKN011 BKN042 OVC055 08/07 A3035 RMK AO2 T00830067=
201803291853 METAR KCLM 291853Z AUTO 10005KT 8SM SCT009 BKN048 OVC060 08/07 A3035 RMK AO2 RAE26B44E53 SLP280 P0000 T00830072=
201803291821 SPECI KCLM 291821Z AUTO 00000KT 6SM -RA BR FEW009 OVC034 08/07 A3036 RMK AO2 P0000 T00830067=
201803291753 METAR KCLM 291753Z AUTO 09003KT 8SM -RA OVC034 08/06 A3036 RMK AO2 SLP283 P0003 60011 T00780056 10083 20056 55003=
201803291653 METAR KCLM 291653Z AUTO 13004KT 8SM -RA BKN033 BKN046 OVC055 08/06 A3036 RMK AO2 SLP282 P0000 T00780056=
201803291553 METAR KCLM 291553Z AUTO 15003KT 5SM -RA BR OVC034 07/06 A3036 RMK AO2 SLP284 P0003 T00670061=
201803291453 METAR KCLM 291453Z AUTO 00000KT 5SM -RA BR OVC031 06/06 A3037 RMK AO2 SLP286 P0002 60005 T00560056 58002=
201803291353 METAR KCLM 291353Z AUTO 00000KT 9SM -RA OVC035 06/05 A3037 RMK AO2 SLP286 P0001 T00560050=
201803291253 METAR KCLM 291253Z AUTO 00000KT 5SM -RA BR OVC037 06/05 A3038 RMK AO2 SLP289 P0002 T00560050=
201803291153 METAR KCLM 291153Z AUTO 24004KT 9SM -RA OVC043 06/04 A3037 RMK AO2 SLP288 P0000 60000 T00560044 10072 20050 56009=
201803291053 METAR KCLM 291053Z AUTO 28006KT 10SM -RA OVC049 06/03 A3038 RMK AO2 RAB31 SLP290 P0000 T00610028=
201803290953 METAR KCLM 290953Z AUTO 26005KT 10SM BKN055 BKN085 07/02 A3039 RMK AO2 SLP292 T00670022=
201803290853 METAR KCLM 290853Z AUTO 27007KT 10SM FEW065 OVC090 06/02 A3040 RMK AO2 SLP297 T00610022 55002=
201803290753 METAR KCLM 290753Z AUTO 26006KT 10SM SCT095 06/02 A3040 RMK AO2 SLP296 T00560022 401060033=
201803290653 METAR KCLM 290653Z AUTO 26007KT 10SM FEW095 06/02 A3040 RMK AO2 SLP297 T00610022=
201803290553 METAR KCLM 290553Z AUTO 27009KT 10SM FEW110 07/02 A3041 RMK AO2 SLP299 T00670022 10089 20067 50000=
201803290453 METAR KCLM 290453Z AUTO 28007KT 10SM BKN110 07/03 A3041 RMK AO2 SLP300 T00670033=
201803290353 METAR KCLM 290353Z AUTO 28007KT 10SM FEW015 BKN120 07/04 A3041 RMK AO2 SLP301 T00720044=
201803290344 SPECI KCLM 290344Z AUTO 29006KT 10SM SCT017 OVC120 07/04 A3042 RMK AO2 T00720044=
201803290253 METAR KCLM 290253Z AUTO 30009KT 10SM OVC017 07/05 A3041 RMK AO2 SLP298 T00720050 56005=
201803290225 SPECI KCLM 290225Z AUTO 30008KT 9SM BKN019 BKN025 08/05 A3041 RMK AO2 T00780050=
201803290153 METAR KCLM 290153Z AUTO 31009KT 9SM FEW026 08/04 A3041 RMK AO2 SLP299 T00780044=
201803290053 METAR KCLM 290053Z AUTO 31012G18KT 10SM FEW025 BKN038 08/04 A3041 RMK AO2 SLP300 T00830044=
201803282353 METAR KCLM 282353Z AUTO 31014G20KT 10SM FEW026 FEW033 09/04 A3042 RMK AO2 SLP303 T00890044 10106 20083 55002=
201803282253 METAR KCLM 282253Z AUTO 31013G17KT 10SM SCT025 SCT070 09/05 A3042 RMK AO2 SLP303 T00940050=
201803282153 METAR KCLM 282153Z AUTO 32008KT 9SM OVC075 09/05 A3043 RMK AO2 SLP305 T00890050=
201803282053 METAR KCLM 282053Z AUTO 34008G15KT 10SM BKN080 09/04 A3043 RMK AO2 SLP305 T00890044 58008=
201803281953 METAR KCLM 281953Z AUTO 32011G19KT 10SM SCT038 BKN095 BKN110 10/03 A3043 RMK AO2 SLP306 T01000033=
201803281853 METAR KCLM 281853Z AUTO 31007G15KT 280V340 10SM OVC095 09/03 A3046 RMK AO2 SLP314 T00940033=
201803281753 METAR KCLM 281753Z AUTO 32009KT 10SM OVC095 09/02 A3045 RMK AO2 SLP313 T00890017 10094 20033 51007=
201803281653 METAR KCLM 281653Z AUTO VRB05KT 10SM OVC100 08/02 A3045 RMK AO2 SLP313 T00830017=
201803281553 METAR KCLM 281553Z AUTO 23003KT 10SM OVC100 07/02 A3043 RMK AO2 SLP308 T00670022=
201803281453 METAR KCLM 281453Z AUTO 22006KT 10SM OVC110 04/02 A3043 RMK AO2 SLP306 T00440017 51004=
201803281353 METAR KCLM 281353Z AUTO 23006KT 10SM BKN120 04/01 A3043 RMK AO2 SLP306 T00390011=
201803281253 METAR KCLM 281253Z AUTO 23007KT 10SM CLR 04/01 A3043 RMK AO2 SLP306 T00390011=
201803281153 METAR KCLM 281153Z AUTO 23007KT 10SM CLR 04/01 A3042 RMK AO2 SLP303 70013 T00390011 10072 20033 51005=
201803281053 METAR KCLM 281053Z AUTO 23005KT 10SM CLR 04/01 A3042 RMK AO2 SLP302 T00440011=
201803280953 METAR KCLM 280953Z AUTO 24006KT 10SM CLR 06/02 A3041 RMK AO2 SLP298 T00560017=
201803280853 METAR KCLM 280853Z AUTO 24007KT 220V290 10SM CLR 06/02 A3040 RMK AO2 SLP296 T00610022 52009=
201803280753 METAR KCLM 280753Z AUTO 26007KT 10SM CLR 06/02 A3040 RMK AO2 SLP294 T00610017 401110044=
201803280653 METAR KCLM 280653Z AUTO 29010KT 10SM CLR 07/02 A3038 RMK AO2 SLP289 T00720017=
201803280553 METAR KCLM 280553Z AUTO 28017G22KT 10SM CLR 07/01 A3037 RMK AO2 SLP287 T00670011 10100 20067 51014=
201803280453 METAR KCLM 280453Z AUTO 30014G20KT 10SM CLR 07/02 A3037 RMK AO2 SLP287 T00670022=
201803280353 METAR KCLM 280353Z AUTO 30013G22KT 10SM CLR 08/04 A3036 RMK AO2 SLP284 T00780039=
201803280253 METAR KCLM 280253Z AUTO 30012G20KT 10SM CLR 08/03 A3033 RMK AO2 SLP274 T00830028 51011=
201803280153 METAR KCLM 280153Z AUTO 31012G20KT 8SM CLR 09/06 A3032 RMK AO2 SLP269 T00890056=
201803280053 METAR KCLM 280053Z AUTO 31014G24KT 8SM CLR 09/06 A3031 RMK AO2 PK WND 29028/0024 SLP266 T00940061=
201803272353 METAR KCLM 272353Z AUTO 31016G26KT 10SM CLR 10/07 A3030 RMK AO2 PK WND 30028/2301 SLP261 60001 T01000067 10111 20100 53005=
201803272253 METAR KCLM 272253Z AUTO 31018G29KT 10SM FEW007 SCT055 10/08 A3029 RMK AO2 PK WND 30030/2242 SLP258 T01000078=
201803272249 SPECI KCLM 272249Z AUTO 31017G30KT 10SM SCT007 SCT055 10/08 A3029 RMK AO2 PK WND 30030/2242=
201803272235 SPECI KCLM 272235Z AUTO 31020G28KT 9SM BKN007 BKN060 10/08 A3029 RMK AO2 PK WND 31029/2216 T01000083=
201803272213 SPECI KCLM 272213Z AUTO 31014G28KT 10SM SCT006 SCT012 BKN060 10/08 A3029 RMK AO2 PK WND 32028/2207 T01000083=
201803272153 METAR KCLM 272153Z AUTO 32016G31KT 10SM BKN006 OVC060 10/09 A3029 RMK AO2 PK WND 30031/2148 SLP256 T01000089=
201803272120 SPECI KCLM 272120Z AUTO 31015G24KT 10SM BKN006 10/09 A3027 RMK AO2 T01000089=
201803272053 METAR KCLM 272053Z AUTO 30014G24KT 10SM FEW008 BKN048 11/09 A3027 RMK AO2 SLP251 60001 T01060094 53006=
201803272038 SPECI KCLM 272038Z AUTO 32013G21KT 10SM FEW007 BKN048 10/09 A3027 RMK AO2 T01000089=
201803271953 METAR KCLM 271953Z AUTO 32005KT 10SM OVC049 11/09 A3026 RMK AO2 SLP246 T01110089=
201803271853 METAR KCLM 271853Z AUTO VRB03KT 10SM OVC050 10/09 A3026 RMK AO2 RAE05 SLP248 P0001 T01000089=
201803271753 METAR KCLM 271753Z AUTO 30007KT 270V340 9SM -RA OVC050 10/09 A3025 RMK AO2 SLP246 P0000 60012 T01000089 10100 20067 52013=
201803271653 METAR KCLM 271653Z AUTO 17003KT 5SM -RA BR OVC060 09/08 A3023 RMK AO2 SLP237 P0004 T00890078=
201803271553 METAR KCLM 271553Z AUTO 00000KT 6SM -RA BR OVC055 07/07 A3023 RMK AO2 RAE31B49 SLP240 P0000 T00720072=
201803271453 METAR KCLM 271453Z AUTO 00000KT 4SM -RA BR OVC060 07/07 A3021 RMK AO2 SLP233 P0006 60008 T00720072 56004=
201803271353 METAR KCLM 271353Z AUTO 15003KT 7SM -RA OVC060 07/07 A3022 RMK AO2 RAB07 SLP234 P0002 T00720067=
201803271253 METAR KCLM 271253Z AUTO 12007KT 10SM OVC070 07/06 A3021 RMK AO2 SLP232 T00720061=
201803271153 METAR KCLM 271153Z AUTO 12004KT 10SM OVC070 07/06 A3022 RMK AO2 RAE09 SLP236 P0002 60002 70002 T00670056 10072 20033 58010=
201803271053 METAR KCLM 271053Z AUTO 00000KT 10SM -RA OVC070 07/06 A3024 RMK AO2 RAE15B48 SLP243 P0000 T00670056=
201803270953 METAR KCLM 270953Z AUTO 00000KT 9SM -RA OVC065 07/05 A3027 RMK AO2 RAB37 SLP251 P0000 T00670050=
201803270853 METAR KCLM 270853Z AUTO 09003KT 10SM SCT075 OVC090 06/04 A3025 RMK AO2 SLP247 T00560044 56008=
201803270753 METAR KCLM 270753Z AUTO 14004KT 10SM FEW070 SCT095 BKN120 05/04 A3026 RMK AO2 SLP250 T00500044 401000028=
201803270653 METAR KCLM 270653Z AUTO 00000KT 10SM FEW041 FEW120 04/04 A3026 RMK AO2 SLP250 T00390039=
201803270553 METAR KCLM 270553Z AUTO 00000KT 10SM CLR 04/04 A3028 RMK AO2 SLP255 T00440039 10100 20044 50007=
201803270453 METAR KCLM 270453Z AUTO 00000KT 10SM BKN060 OVC080 07/06 A3029 RMK AO2 SLP259 T00720056=
201803270353 METAR KCLM 270353Z AUTO 00000KT 10SM SCT060 OVC075 08/05 A3028 RMK AO2 SLP255 T00780050=
201803270253 METAR KCLM 270253Z AUTO 13004KT 10SM FEW060 OVC080 08/05 A3026 RMK AO2 SLP248 T00830050 51009=
201803270153 METAR KCLM 270153Z AUTO 10004KT 10SM OVC065 09/05 A3026 RMK AO2 SLP247 T00890050=
201803270053 METAR KCLM 270053Z AUTO 10004KT 10SM FEW032 SCT060 OVC075 09/05 A3025 RMK AO2 SLP246 T00890050=
201803262353 METAR KCLM 262353Z AUTO VRB03KT 10SM OVC070 09/05 A3023 RMK AO2 SLP239 T00940050 10094 20067 53012=
201803262253 METAR KCLM 262253Z AUTO VRB04KT 10SM FEW050 SCT065 OVC080 09/04 A3022 RMK AO2 SLP234 T00890039=
201803262153 METAR KCLM 262153Z AUTO VRB03KT 10SM FEW055 FEW070 OVC080 09/04 A3021 RMK AO2 SLP231 T00890039=
201803262053 METAR KCLM 262053Z AUTO 11005KT 10SM FEW060 OVC080 09/05 A3019 RMK AO2 SLP227 T00890050 55000=
201803261953 METAR KCLM 261953Z AUTO 11010KT 10SM OVC070 08/04 A3019 RMK AO2 SLP225 T00780039=
201803261853 METAR KCLM 261853Z AUTO 12006KT 10SM OVC060 08/04 A3020 RMK AO2 SLP227 T00780044=
201803261753 METAR KCLM 261753Z AUTO 10005KT 10SM OVC060 07/05 A3019 RMK AO2 RAE12 SLP227 P0000 60000 T00670050 10072 20039 53019=
201803261653 METAR KCLM 261653Z AUTO 12008KT 7SM -RA OVC055 07/05 A3017 RMK AO2 RAB33 SLP219 P0000 T00670050=
201803261553 METAR KCLM 261553Z AUTO 10004KT 10SM FEW018 FEW050 OVC060 07/03 A3016 RMK AO2 SLP215 T00670033=
201803261453 METAR KCLM 261453Z AUTO 17003KT 10SM SCT080 OVC100 05/03 A3014 RMK AO2 SLP208 T00500033 53015=
201803261353 METAR KCLM 261353Z AUTO 19004KT 10SM SCT055 OVC075 05/03 A3012 RMK AO2 SLP200 T00500028=
201803261253 METAR KCLM 261253Z AUTO 30004KT 10SM OVC060 05/02 A3011 RMK AO2 SLP199 T00500022=
201803261153 METAR KCLM 261153Z AUTO 24005KT 10SM BKN065 OVC100 04/02 A3009 RMK AO2 SLP193 70002 T00440017 10056 20028 55002=
201803261053 METAR KCLM 261053Z AUTO 00000KT 10SM BKN065 BKN090 03/01 A3009 RMK AO2 SLP190 T00280011=
201803260953 METAR KCLM 260953Z AUTO 00000KT 10SM FEW065 FEW080 BKN110 03/01 A3010 RMK AO2 SLP194 T00330011=
201803260853 METAR KCLM 260853Z AUTO 00000KT 10SM OVC085 04/02 A3010 RMK AO2 SLP194 T00390022 58007=
201803260653 METAR KCLM 260653Z AUTO 00000KT 10SM OVC090 04/02 A3012 RMK AO2 SLP202 T00390022=
201803260553 METAR KCLM 260553Z AUTO 00000KT 10SM OVC070 04/02 A3012 RMK AO2 SLP201 T00390022 10078 20028 50000 TSNO=
201803260453 METAR KCLM 260453Z AUTO 00000KT 10SM BKN090 OVC110 03/02 A3013 RMK AO2 SLP204 T00280017=
201803260353 METAR KCLM 260353Z AUTO 20003KT 10SM SCT060 04/02 A3012 RMK AO2 SLP202 T00390022=
201803260253 METAR KCLM 260253Z AUTO 00000KT 10SM CLR 04/02 A3012 RMK AO2 SLP202 T00440022 53002=
201803260153 METAR KCLM 260153Z AUTO 14005KT 10SM SCT090 SCT100 07/02 A3011 RMK AO2 SLP199 T00670022=
201803260053 METAR KCLM 260053Z AUTO 12005KT 10SM FEW055 07/03 A3011 RMK AO2 SLP198 T00720028=
201803252353 METAR KCLM 252353Z AUTO 26003KT 10SM SCT040 OVC070 07/04 A3011 RMK AO2 RAE51 SLP199 P0002 60002 T00670039 10094 20061 50007=
201803252253 METAR KCLM 252253Z AUTO 31005KT 9SM -RA SCT050 OVC070 06/03 A3013 RMK AO2 RAB49 SLP203 P0000 T00610028=
201803252153 METAR KCLM 252153Z AUTO 05005KT 10SM BKN085 07/00 A3011 RMK AO2 SLP198 T00720000=
201803252053 METAR KCLM 252053Z AUTO VRB04KT 10SM CLR 08/01 A3009 RMK AO2 SLP193 T00830006 50002=
201803251953 METAR KCLM 251953Z AUTO VRB05KT 10SM FEW065 08/M01 A3010 RMK AO2 SLP193 T00831006=
201803251853 METAR KCLM 251853Z AUTO 01004KT 10SM CLR 07/M02 A3009 RMK AO2 SLP193 T00671017=
201803251753 METAR KCLM 251753Z AUTO 00000KT 10SM SCT040 07/M02 A3009 RMK AO2 SLP190 T00721017 10072 20006 53014=
201803251653 METAR KCLM 251653Z AUTO 21004KT 10SM CLR 06/M01 A3007 RMK AO2 SLP184 T00561006=
201803251553 METAR KCLM 251553Z AUTO 24007KT 10SM CLR 04/M02 A3005 RMK AO2 SLP179 T00391017=
201803251453 METAR KCLM 251453Z AUTO 23005KT 10SM CLR 01/M02 A3004 RMK AO2 SLP177 T00061022 53018=
201803251353 METAR KCLM 251353Z AUTO 23006KT 10SM CLR 01/M02 A3002 RMK AO2 SLP170 T00061022=
201803251253 METAR KCLM 251253Z AUTO 25014KT 10SM CLR 01/M02 A3001 RMK AO2 SLP165 T00061017=
201803251153 METAR KCLM 251153Z AUTO 26007KT 10SM CLR 01/M02 A2999 RMK AO2 SLP158 T00111017 10022 20000 51006=
201803251053 METAR KCLM 251053Z AUTO 25009KT 10SM CLR 02/M01 A2999 RMK AO2 SLP157 T00171011=
201803250953 METAR KCLM 250953Z AUTO 26009KT 10SM CLR 02/M01 A2998 RMK AO2 SLP154 T00171006=
201803250853 METAR KCLM 250853Z AUTO 26010KT 10SM CLR 02/00 A2997 RMK AO2 SLP152 T00170000 51004=
201803250753 METAR KCLM 250753Z AUTO 24010KT 10SM CLR 02/01 A2997 RMK AO2 SLP151 T00170006 400780000=
201803250653 METAR KCLM 250653Z AUTO 23005KT 10SM CLR 01/00 A2996 RMK AO2 SLP149 T00060000=
201803250553 METAR KCLM 250553Z AUTO 24005KT 10SM CLR 01/01 A2996 RMK AO2 SLP147 T00110006 10072 20011 51007=
201803250453 METAR KCLM 250453Z AUTO 23005KT 10SM CLR 02/01 A2996 RMK AO2 SLP147 T00220006=
201803250353 METAR KCLM 250353Z AUTO 23005KT 10SM BKN050 03/02 A2995 RMK AO2 SLP145 T00330017=
201803250253 METAR KCLM 250253Z AUTO 24004KT 10SM FEW060 04/01 A2994 RMK AO2 SLP141 T00390011 51004=
201803250153 METAR KCLM 250153Z AUTO 28003KT 10SM FEW026 BKN034 06/02 A2994 RMK AO2 SLP140 T00560017=
201803250151 SPECI KCLM 250151Z AUTO 28004KT 10SM FEW026 BKN034 06/02 A2994 RMK AO2=
201803250141 SPECI KCLM 250141Z AUTO 26003KT 10SM BKN029 BKN035 06/02 A2994 RMK AO2 T00560017=
201803250053 METAR KCLM 250053Z AUTO 32004KT 10SM FEW044 06/01 A2993 RMK AO2 SLP136 T00560011=
201803242353 METAR KCLM 242353Z AUTO 00000KT 10SM CLR 07/M01 A2991 RMK AO2 SLP131 60000 T00671006 10078 20056 57001=
201803242253 METAR KCLM 242253Z AUTO 15008KT 10SM CLR 07/02 A2991 RMK AO2 SLP131 T00720022=
201803242153 METAR KCLM 242153Z AUTO 16005KT 10SM FEW021 BKN036 BKN055 06/03 A2992 RMK AO2 RAB2058E23 SLP133 P0000 T00610028=
201803242129 SPECI KCLM 242129Z AUTO 16006KT 8SM BKN021 BKN037 OVC070 07/03 A2992 RMK AO2 RAB2058E23 P0000 T00670028=
201803242053 METAR KCLM 242053Z AUTO VRB03KT 10SM FEW032 OVC055 06/01 A2992 RMK AO2 SLP132 T00610011 53008=
201803242000 SPECI KCLM 242000Z AUTO 35006KT 10SM SCT026 BKN080 07/02 A2990 RMK AO2 T00670017=
201803241953 METAR KCLM 241953Z AUTO 36005KT 10SM BKN026 BKN080 07/02 A2990 RMK AO2 SLP127 T00670017=
201803241853 METAR KCLM 241853Z AUTO VRB05KT 10SM SCT028 06/02 A2989 RMK AO2 SLP124 T00610017=
201803241753 METAR KCLM 241753Z AUTO 35007KT 10SM FEW022 06/02 A2988 RMK AO2 SLP120 T00610017 10067 20011 51012=
201803241719 SPECI KCLM 241719Z AUTO 31004KT 10SM SCT020 05/01 A2987 RMK AO2 T00500011=
201803241653 METAR KCLM 241653Z AUTO 27005KT 10SM BKN019 06/02 A2987 RMK AO2 SLP117 T00560017=
201803241553 METAR KCLM 241553Z AUTO 25005KT 10SM CLR 04/01 A2986 RMK AO2 SLP114 T00390006=
201803241453 METAR KCLM 241453Z AUTO 23007KT 10SM FEW016 02/00 A2984 RMK AO2 SLP109 T00170000 53019=
201803241351 METAR KCLM 241351Z AUTO 28008KT 10SM SCT013 SCT020 02/01 A2982 RMK AO2 SLP100 T00220006=
201803241350 SPECI KCLM 241350Z AUTO 27007KT 10SM SCT013 SCT020 02/01 A2982 RMK AO2=
201803241341 SPECI KCLM 241341Z AUTO 26007KT 10SM BKN013 BKN020 02/01 A2982 RMK AO2 T00220006=
201803241253 METAR KCLM 241253Z AUTO 26006KT 10SM FEW060 02/00 A2980 RMK AO2 SLP094 T00170000=
201803241153 METAR KCLM 241153Z AUTO 26006KT 10SM FEW026 SCT060 02/00 A2979 RMK AO2 SLP089 T00220000 10039 20017 53003=
201803241053 METAR KCLM 241053Z AUTO 25007KT 10SM BKN065 BKN080 BKN095 03/01 A2978 RMK AO2 SLP086 T00280006=
201803240953 METAR KCLM 240953Z AUTO 26005KT 10SM BKN044 03/01 A2978 RMK AO2 SLP086 T00280006=
201803240853 METAR KCLM 240853Z AUTO 25005KT 10SM SCT028 BKN042 OVC110 03/01 A2978 RMK AO2 SLP086 T00280006 53000=
201803240815 SPECI KCLM 240815Z AUTO 24006KT 10SM BKN025 OVC037 03/01 A2977 RMK AO2 T00280011=
201803240807 SPECI KCLM 240807Z AUTO 23005KT 10SM SCT025 BKN036 OVC110 03/01 A2977 RMK AO2 T00280011=
201803240753 METAR KCLM 240753Z AUTO 24007KT 10SM BKN025 03/01 A2977 RMK AO2 SLP083 T00280011 400720006=
201803240653 METAR KCLM 240653Z AUTO 26005KT 10SM OVC037 04/01 A2978 RMK AO2 SLP085 T00390011=
201803240553 METAR KCLM 240553Z AUTO 23004KT 10SM SCT027 OVC060 03/02 A2978 RMK AO2 SLP085 T00330017 10067 20028 52000=
201803240453 METAR KCLM 240453Z AUTO 00000KT 10SM BKN024 BKN060 OVC085 03/02 A2978 RMK AO2 SLP085 T00280017=
201803240353 METAR KCLM 240353Z AUTO 00000KT 10SM SCT045 BKN080 OVC110 03/01 A2978 RMK AO2 SLP087 T00330011=
201803240253 METAR KCLM 240253Z AUTO 00000KT 10SM FEW090 04/01 A2977 RMK AO2 SLP084 T00390011 55002=
201803240153 METAR KCLM 240153Z AUTO 28003KT 10SM OVC100 06/01 A2977 RMK AO2 SLP082 T00560011=
201803240053 METAR KCLM 240053Z AUTO 31007KT 10SM FEW055 SCT070 BKN095 06/01 A2978 RMK AO2 SLP085 T00610011=
201803232353 METAR KCLM 232353Z AUTO 31006KT 10SM SCT046 BKN060 OVC075 06/01 A2978 RMK AO2 SLP086 60000 T00610006 10072 20056 53001=
201803232253 METAR KCLM 232253Z AUTO 36004KT 10SM BKN065 OVC080 06/02 A2978 RMK AO2 SLP086 T00610017=
201803232153 METAR KCLM 232153Z AUTO 02005KT 10SM OVC060 06/02 A2977 RMK AO2 RAB2059E10 SLP085 P0000 T00610022=
201803232053 METAR KCLM 232053Z AUTO VRB03KT 10SM FEW035 SCT055 OVC070 06/02 A2978 RMK AO2 SLP086 T00610017 51009=
201803231953 METAR KCLM 231953Z AUTO 04003KT 10SM OVC065 07/02 A2977 RMK AO2 SLP082 T00670017=
201803231853 METAR KCLM 231853Z AUTO 34005KT 10SM FEW065 06/02 A2977 RMK AO2 SLP081 T00610017=
201803231753 METAR KCLM 231753Z AUTO 04005KT 10SM FEW019 06/01 A2975 RMK AO2 SLP076 T00560011 10061 20006 51012=
201803231653 METAR KCLM 231653Z AUTO 12003KT 10SM FEW019 05/02 A2974 RMK AO2 SLP073 T00500017=
201803231553 METAR KCLM 231553Z AUTO 15003KT 10SM SCT023 BKN050 04/02 A2973 RMK AO2 SLP070 T00390017=
201803231453 METAR KCLM 231453Z AUTO VRB04KT 10SM CLR 02/00 A2971 RMK AO2 SLP064 T00170000 51010=
201803231353 METAR KCLM 231353Z AUTO 22003KT 10SM FEW055 FEW070 SCT120 02/01 A2971 RMK AO2 SLP064 T00220006=
201803231253 METAR KCLM 231253Z AUTO 23004KT 10SM FEW048 SCT060 SCT075 02/01 A2970 RMK AO2 SLP060 T00170006=
201803231153 METAR KCLM 231153Z AUTO 13004KT 10SM FEW055 01/M01 A2968 RMK AO2 SLP053 70012 T00111006 10033 20006 58001=
201803231053 METAR KCLM 231053Z AUTO 26009KT 10SM BKN065 BKN090 OVC120 03/01 A2969 RMK AO2 SLP054 T00280006=
201803230953 METAR KCLM 230953Z AUTO 22005KT 10SM CLR 01/00 A2968 RMK AO2 SLP053 T00060000=
201803230853 METAR KCLM 230853Z AUTO 00000KT 10SM CLR 01/00 A2968 RMK AO2 SLP054 T00060000 58002=
201803230753 METAR KCLM 230753Z AUTO 00000KT 10SM BKN120 02/01 A2970 RMK AO2 SLP059 T00220006 400890011=
201803230653 METAR KCLM 230653Z AUTO 28004KT 10SM FEW055 SCT120 03/00 A2969 RMK AO2 SLP056 T00330000=
201803230553 METAR KCLM 230553Z AUTO 32005KT 10SM SCT014 BKN037 BKN110 03/01 A2969 RMK AO2 SLP056 T00280006 10078 20028 58004=
201803230524 SPECI KCLM 230524Z AUTO 24006KT 10SM BKN013 03/01 A2970 RMK AO2 T00330006=
201803230453 METAR KCLM 230453Z AUTO 21005KT 9SM FEW026 SCT035 BKN042 03/01 A2970 RMK AO2 SLP059 T00330011=
201803230449 SPECI KCLM 230449Z AUTO 22003KT 9SM SCT025 BKN035 BKN042 03/01 A2970 RMK AO2=
201803230353 METAR KCLM 230353Z AUTO VRB03KT 10SM OVC024 04/02 A2970 RMK AO2 SLP060 T00390017=
201803230333 SPECI KCLM 230333Z AUTO 12008KT 10SM BKN022 04/02 A2970 RMK AO2 T00390017=
201803230253 METAR KCLM 230253Z AUTO 00000KT 10SM FEW055 FEW080 SCT100 04/01 A2970 RMK AO2 SLP060 T00390006 51016=
201803230153 METAR KCLM 230153Z AUTO 22003KT 6SM HZ FEW070 FEW100 04/01 A2970 RMK AO2 SLP058 T00440011=
201803230053 METAR KCLM 230053Z AUTO 28007KT 10SM SCT070 06/01 A2968 RMK AO2 SLP052 T00560006=
201803222353 METAR KCLM 222353Z AUTO 31008KT 10SM FEW075 07/02 A2966 RMK AO2 SLP044 60000 T00720017 10089 20056 51022=
201803222253 METAR KCLM 222253Z AUTO 27011KT 10SM SCT055 BKN075 08/01 A2965 RMK AO2 SLP041 T00780006=
201803222153 METAR KCLM 222153Z AUTO 30011KT 10SM FEW046 BKN060 OVC080 07/01 A2962 RMK AO2 RAE03 SLP031 P0000 T00720006=
201803222053 METAR KCLM 222053Z AUTO 29008KT 9SM -RA BKN043 BKN055 OVC065 07/03 A2959 RMK AO2 RAE00B51 SLP022 P0000 60000 T00670033 53031=
201803221953 METAR KCLM 221953Z AUTO 31008KT 10SM -RA FEW030 BKN038 OVC055 06/04 A2956 RMK AO2 RAB28 SLP010 P0000 T00560039=
201803221853 METAR KCLM 221853Z AUTO 30006KT 10SM FEW012 BKN060 OVC090 07/06 A2953 RMK AO2 RAE14 SLP001 P0000 T00670056=
201803221836 SPECI KCLM 221836Z AUTO 31006KT 10SM FEW008 BKN031 OVC060 07/06 A2952 RMK AO2 RAE14 P0000 T00670056=
201803221753 METAR KCLM 221753Z AUTO 00000KT 7SM -RA SCT006 BKN018 OVC045 06/06 A2950 RMK AO2 SLP991 P0004 60012 T00610061 10061 20050 53017=
201803221739 SPECI KCLM 221739Z AUTO 31004KT 3SM -RA BR SCT006 BKN019 OVC030 06/06 A2949 RMK AO2 P0002 T00610056=
201803221727 SPECI KCLM 221727Z AUTO 31005KT 4SM -RA BR FEW020 OVC030 06/06 A2949 RMK AO2 P0002 T00610056=
201803221653 METAR KCLM 221653Z AUTO 28004KT 5SM -RA BR BKN016 OVC024 06/06 A2948 RMK AO2 SLP983 P0002 T00610056=
201803221553 METAR KCLM 221553Z AUTO 00000KT 4SM -RA BR OVC018 06/06 A2945 RMK AO2 SLP975 P0004 T00560056=
201803221530 SPECI KCLM 221530Z AUTO 25004KT 4SM -RA BR OVC015 06/06 A2945 RMK AO2 P0002 T00560056=
201803221453 METAR KCLM 221453Z AUTO 24003KT 6SM -RA BR OVC011 06/06 A2945 RMK AO2 RAE09B43 SLP974 P0000 60002 T00560056 55007=
201803221410 SPECI KCLM 221410Z AUTO 00000KT 8SM BKN007 BKN016 OVC055 06/06 A2944 RMK AO2 RAE09 P0000 T00560056=
201803221353 METAR KCLM 221353Z AUTO 33003KT 7SM -RA FEW005 OVC055 05/05 A2945 RMK AO2 RAE01B32 SLP973 P0000 T00500050=
201803221253 METAR KCLM 221253Z AUTO 00000KT 8SM -RA SCT025 OVC050 06/05 A2945 RMK AO2 SLP975 P0002 T00560050=
201803221239 SPECI KCLM 221239Z AUTO 24003KT 7SM -RA SCT008 BKN025 OVC050 06/06 A2946 RMK AO2 P0002 T00560056=
201803221217 SPECI KCLM 221217Z AUTO 28003KT 7SM -RA BKN009 OVC025 06/05 A2946 RMK AO2 CIG 007V013 P0000 T00560050=
201803221206 SPECI KCLM 221206Z AUTO 28003KT 8SM -RA SCT009 OVC025 06/05 A2947 RMK AO2 P0000 T00560050=
201803221153 METAR KCLM 221153Z AUTO 00000KT 6SM -RA BR FEW013 OVC025 06/05 A2947 RMK AO2 SLP981 P0001 60003 70003 T00560050 10072 20056 58017=
201803221147 SPECI KCLM 221147Z AUTO 00000KT 7SM -RA FEW009 SCT013 OVC025 06/05 A2947 RMK AO2 P0001=
201803221053 METAR KCLM 221053Z AUTO 24003KT 10SM -RA OVC014 06/06 A2949 RMK AO2 RAB15 SLP988 P0000 T00610056=
201803220953 METAR KCLM 220953Z AUTO 32005KT 10SM BKN013 OVC031 06/06 A2951 RMK AO2 RAE46 SLP995 P0002 T00610056=
201803220908 SPECI KCLM 220908Z AUTO 32006KT 9SM -RA BKN010 BKN017 OVC060 06/05 A2952 RMK AO2 P0000 T00610050=
201803220853 METAR KCLM 220853Z AUTO 31003KT 9SM -RA SCT010 SCT031 OVC060 06/06 A2952 RMK AO2 RAB32 SLP998 P0000 60000 T00610056 51001=
201803220823 SPECI KCLM 220823Z AUTO 00000KT 9SM SCT007 BKN050 OVC065 07/06 A2952 RMK AO2 T00670061=
201803220753 METAR KCLM 220753Z AUTO 00000KT 10SM BKN007 OVC060 06/06 A2952 RMK AO2 SLP998 T00610056 401000028=
201803220749 SPECI KCLM 220749Z AUTO 00000KT 10SM BKN007 OVC055 06/06 A2952 RMK AO2=
201803220724 SPECI KCLM 220724Z AUTO 00000KT 10SM FEW009 FEW022 OVC060 07/05 A2952 RMK AO2 T00670050=
201803220653 METAR KCLM 220653Z AUTO 28006KT 10SM BKN055 BKN070 OVC080 07/05 A2952 RMK AO2 SLP997 T00670050=
201803220553 METAR KCLM 220553Z AUTO 26006KT 10SM OVC075 07/05 A2952 RMK AO2 SLP998 T00670050 10094 20061 58016=
201803220453 METAR KCLM 220453Z AUTO 22005KT 10SM FEW048 BKN070 BKN085 07/05 A2954 RMK AO2 SLP004 T00720050=
201803220353 METAR KCLM 220353Z AUTO 00000KT 10SM SCT075 OVC090 07/05 A2955 RMK AO2 SLP009 T00720050=
201803220253 METAR KCLM 220253Z AUTO 00000KT 10SM BKN075 07/04 A2957 RMK AO2 SLP014 T00720044 58018=
201803220153 METAR KCLM 220153Z AUTO 10003KT 10SM BKN075 BKN110 08/04 A2959 RMK AO2 SLP022 T00830044=
201803220053 METAR KCLM 220053Z AUTO 00000KT 10SM BKN080 BKN100 OVC110 09/04 A2961 RMK AO2 SLP027 T00890044=
201803212353 METAR KCLM 212353Z AUTO 00000KT 10SM BKN100 09/04 A2962 RMK AO2 SLP032 T00890039 10100 20072 56023=
201803212253 METAR KCLM 212253Z AUTO 08005KT 10SM FEW120 09/04 A2964 RMK AO2 SLP037 T00940039=
201803212153 METAR KCLM 212153Z AUTO 08005KT 10SM CLR 09/04 A2966 RMK AO2 SLP046 T00940044=
201803212053 METAR KCLM 212053Z AUTO VRB05KT 10SM CLR 09/05 A2969 RMK AO2 SLP056 T00940050 58017=
201803211953 METAR KCLM 211953Z AUTO VRB06KT 10SM CLR 09/05 A2971 RMK AO2 SLP062 T00890050=
201803211853 METAR KCLM 211853Z AUTO VRB04KT 10SM CLR 08/05 A2972 RMK AO2 SLP067 T00780050=
201803211753 METAR KCLM 211753Z AUTO VRB03KT 10SM CLR 07/04 A2974 RMK AO2 SLP073 T00720044 10078 20028 56007=
201803211735 SPECI KCLM 211735Z AUTO VRB03KT 10SM FEW013 07/04 A2974 RMK AO2 T00720044=
201803211708 SPECI KCLM 211708Z AUTO 03003KT 10SM BKN013 OVC120 07/04 A2974 RMK AO2 T00670044=
201803211653 METAR KCLM 211653Z AUTO VRB03KT 10SM FEW014 OVC110 07/04 A2974 RMK AO2 SLP074 T00670044=
201803211612 SPECI KCLM 211612Z AUTO 00000KT 10SM FEW009 BKN100 07/03 A2975 RMK AO2 T00670033=
201803211553 METAR KCLM 211553Z AUTO 24003KT 10SM OVC100 06/03 A2975 RMK AO2 SLP075 T00560033=
201803211503 SPECI KCLM 211503Z AUTO 23004KT 8SM SCT011 OVC110 04/03 A2976 RMK AO2 T00390033=
201803211453 METAR KCLM 211453Z AUTO 23004KT 8SM FEW009 BKN013 OVC110 04/03 A2976 RMK AO2 SLP080 T00390028 56009=
201803211353 METAR KCLM 211353Z AUTO 23004KT 10SM OVC010 04/03 A2977 RMK AO2 SLP082 T00390028=
201803211253 METAR KCLM 211253Z AUTO 23005KT 10SM BKN008 OVC120 03/03 A2978 RMK AO2 SLP084 T00330028=
201803211153 METAR KCLM 211153Z AUTO 23004KT 10SM OVC110 03/03 A2979 RMK AO2 SLP089 T00330028 10050 20028 56018=
201803211053 METAR KCLM 211053Z AUTO 00000KT 10SM FEW010 BKN100 OVC120 03/03 A2980 RMK AO2 SLP092 T00330028=
201803210953 METAR KCLM 210953Z AUTO 00000KT 10SM OVC110 03/03 A2982 RMK AO2 SLP101 T00330028=
201803210853 METAR KCLM 210853Z AUTO 00000KT 10SM OVC100 03/03 A2984 RMK AO2 SLP107 T00330028 58019=
201803210753 METAR KCLM 210753Z AUTO 23003KT 10SM OVC110 04/03 A2986 RMK AO2 SLP114 T00390028 400890017=
201803210653 METAR KCLM 210653Z AUTO 23004KT 10SM OVC110 04/03 A2988 RMK AO2 SLP121 T00440028=
201803210553 METAR KCLM 210553Z AUTO 00000KT 10SM OVC120 05/03 A2990 RMK AO2 SLP126 T00500033 10089 20050 58015=
201803210453 METAR KCLM 210453Z AUTO 24005KT 10SM CLR 05/04 A2991 RMK AO2 SLP131 T00500039=
201803210353 METAR KCLM 210353Z AUTO 26004KT 10SM BKN031 06/04 A2993 RMK AO2 SLP137 T00610039=
201803210253 METAR KCLM 210253Z AUTO 00000KT 10SM OVC032 07/04 A2994 RMK AO2 SLP141 T00670039 58019=
201803210153 METAR KCLM 210153Z AUTO 00000KT 10SM BKN033 08/03 A2996 RMK AO2 SLP148 T00780028=
201803210053 METAR KCLM 210053Z AUTO 30003KT 10SM OVC032 08/03 A2998 RMK AO2 SLP155 T00830028=
201803202353 METAR KCLM 202353Z AUTO 00000KT 10SM OVC032 09/02 A3000 RMK AO2 SLP161 T00890022 10089 20072 56023=
201803202253 METAR KCLM 202253Z AUTO VRB04KT 10SM OVC033 08/02 A3002 RMK AO2 SLP168 T00830022=
201803202153 METAR KCLM 202153Z AUTO VRB04KT 10SM OVC032 08/02 A3005 RMK AO2 SLP176 T00830017=
201803202053 METAR KCLM 202053Z AUTO 33007KT 300V010 10SM OVC032 08/02 A3007 RMK AO2 SLP184 T00830022 58012=
201803201953 METAR KCLM 201953Z AUTO 33008KT 10SM OVC031 08/02 A3009 RMK AO2 SLP190 T00830017=
201803201919 SPECI KCLM 201919Z AUTO 33007KT 10SM OVC030 08/02 A3009 RMK AO2 T00830017=
201803201853 METAR KCLM 201853Z AUTO 32009KT 10SM OVC029 08/02 A3010 RMK AO2 SLP194 T00780017=
201803201753 METAR KCLM 201753Z AUTO VRB06KT 10SM OVC028 07/01 A3011 RMK AO2 SLP196 T00720011 10078 20017 56006=
201803201723 SPECI KCLM 201723Z AUTO VRB06KT 10SM BKN026 07/02 A3011 RMK AO2 T00720017=
201803201653 METAR KCLM 201653Z AUTO 29004KT 10SM CLR 07/02 A3011 RMK AO2 SLP198 T00720022=
201803201553 METAR KCLM 201553Z AUTO 25006KT 10SM CLR 05/01 A3011 RMK AO2 SLP199 T00500011=
201803201453 METAR KCLM 201453Z AUTO 23007KT 10SM CLR 03/01 A3012 RMK AO2 SLP202 T00280006 58004=
201803201353 METAR KCLM 201353Z AUTO 23006KT 10SM CLR 02/00 A3013 RMK AO2 SLP205 T00220000=
201803201253 METAR KCLM 201253Z AUTO 23007KT 10SM CLR 03/01 A3013 RMK AO2 SLP206 T00280006=
201803201153 METAR KCLM 201153Z AUTO 24007KT 10SM CLR 04/01 A3013 RMK AO2 SLP206 T00390011 10061 20033 58009=
201803201053 METAR KCLM 201053Z AUTO 24008KT 10SM CLR 04/02 A3014 RMK AO2 SLP208 T00390017=
201803200953 METAR KCLM 200953Z AUTO 25007KT 10SM CLR 04/02 A3016 RMK AO2 SLP215 T00440022=
201803200853 METAR KCLM 200853Z AUTO 26007KT 10SM CLR 05/02 A3016 RMK AO2 SLP216 T00500022 56007=
201803200753 METAR KCLM 200753Z AUTO 26007KT 10SM CLR 05/03 A3017 RMK AO2 SLP218 T00500028 401000022=
201803200653 METAR KCLM 200653Z AUTO 27008KT 10SM CLR 05/03 A3017 RMK AO2 SLP220 T00500028=
201803200613 SPECI KCLM 200613Z AUTO 29008KT 10SM SCT019 06/03 A3018 RMK AO2 T00560033=
201803200553 METAR KCLM 200553Z AUTO 29007KT 10SM BKN019 06/03 A3018 RMK AO2 SLP223 T00610033 10089 20056 58005=
201803200453 METAR KCLM 200453Z AUTO 28008KT 10SM OVC021 07/04 A3019 RMK AO2 SLP224 T00670039=
201803200353 METAR KCLM 200353Z AUTO 28008KT 10SM OVC017 07/04 A3020 RMK AO2 SLP227 T00720044=
201803200253 METAR KCLM 200253Z AUTO 27005KT 10SM BKN019 OVC090 06/04 A3020 RMK AO2 SLP228 T00610044 58006=
201803200212 SPECI KCLM 200212Z AUTO 29005KT 10SM BKN019 OVC085 07/04 A3021 RMK AO2 T00720044=
201803200153 METAR KCLM 200153Z AUTO 29008KT 10SM OVC085 07/04 A3021 RMK AO2 SLP233 T00720044=
201803200053 METAR KCLM 200053Z AUTO 30007KT 10SM FEW015 OVC085 08/05 A3022 RMK AO2 SLP235 T00780050=
201803192353 METAR KCLM 192353Z AUTO 29006KT 10SM OVC085 08/05 A3022 RMK AO2 SLP234 T00830050 10100 20078 56011=
201803192253 METAR KCLM 192253Z AUTO 31006KT 10SM CLR 09/05 A3023 RMK AO2 SLP238 T00890050=
201803192153 METAR KCLM 192153Z AUTO 34007KT 10SM BKN080 09/04 A3023 RMK AO2 SLP239 T00890044=
201803192053 METAR KCLM 192053Z AUTO 32006KT 10SM FEW017 BKN080 09/05 A3025 RMK AO2 SLP245 T00940050 58008=
201803191953 METAR KCLM 191953Z AUTO VRB04KT 10SM OVC085 08/05 A3026 RMK AO2 SLP248 T00830050=
201803191853 METAR KCLM 191853Z AUTO 33007KT 10SM FEW014 08/05 A3027 RMK AO2 SLP252 T00830050=
201803191753 METAR KCLM 191753Z AUTO 30006KT 10SM CLR 08/04 A3027 RMK AO2 SLP252 T00830044 10089 20022 53008=
201803191653 METAR KCLM 191653Z AUTO 25009KT 10SM CLR 07/02 A3026 RMK AO2 SLP249 T00720017=
201803191553 METAR KCLM 191553Z AUTO 27009KT 10SM CLR 04/02 A3025 RMK AO2 SLP247 T00440017=
201803191453 METAR KCLM 191453Z AUTO 25008KT 10SM CLR 03/01 A3025 RMK AO2 SLP245 T00330011 55000=
201803191353 METAR KCLM 191353Z AUTO 25009KT 10SM CLR 03/01 A3025 RMK AO2 SLP245 T00280011=
201803191253 METAR KCLM 191253Z AUTO 25008KT 10SM CLR 03/01 A3024 RMK AO2 SLP243 T00280011=
201803191153 METAR KCLM 191153Z AUTO 27010KT 10SM CLR 03/02 A3025 RMK AO2 SLP245 T00330017 10050 20028 58001=
201803191053 METAR KCLM 191053Z AUTO 26007KT 10SM CLR 03/02 A3025 RMK AO2 SLP245 T00330022=
201803190953 METAR KCLM 190953Z AUTO 25010KT 10SM CLR 04/03 A3026 RMK AO2 SLP248 T00440028=
201803190853 METAR KCLM 190853Z AUTO 27006KT 10SM CLR 04/03 A3025 RMK AO2 SLP245 T00390028 51006=
201803190753 METAR KCLM 190753Z AUTO 26006KT 10SM CLR 04/03 A3025 RMK AO2 SLP244 T00440028 401060033=
201803190653 METAR KCLM 190653Z AUTO 24005KT 10SM CLR 04/03 A3024 RMK AO2 SLP242 T00440033=
201803190553 METAR KCLM 190553Z AUTO 25006KT 10SM CLR 05/04 A3023 RMK AO2 SLP239 T00500039 10106 20044 51008=
201803190453 METAR KCLM 190453Z AUTO 24005KT 10SM BKN095 05/04 A3023 RMK AO2 SLP238 T00500039=
201803190353 METAR KCLM 190353Z AUTO 24004KT 10SM SCT080 06/04 A3022 RMK AO2 SLP235 T00560044=
201803190253 METAR KCLM 190253Z AUTO 28007KT 10SM OVC085 06/04 A3021 RMK AO2 SLP231 T00610044 53011=
201803190153 METAR KCLM 190153Z AUTO 00000KT 10SM FEW037 BKN080 07/05 A3019 RMK AO2 SLP227 T00720050=
201803190053 METAR KCLM 190053Z AUTO 00000KT 10SM BKN080 08/04 A3018 RMK AO2 SLP222 T00830039=
201803182353 METAR KCLM 182353Z AUTO VRB03KT 10SM CLR 10/04 A3017 RMK AO2 SLP219 T01000039 10106 20072 55002=
201803182253 METAR KCLM 182253Z AUTO 04006KT 10SM FEW020 10/05 A3017 RMK AO2 SLP217 T01000050=
201803182153 METAR KCLM 182153Z AUTO VRB05KT 10SM CLR 10/05 A3017 RMK AO2 SLP217 T01000050=
201803182053 METAR KCLM 182053Z AUTO VRB05KT 10SM SCT018 SCT070 09/06 A3018 RMK AO2 SLP221 T00940056 51009=
201803181953 METAR KCLM 181953Z AUTO 03005KT 10SM OVC047 09/06 A3017 RMK AO2 SLP219 T00890056=
201803181853 METAR KCLM 181853Z AUTO 00000KT 10SM OVC044 08/04 A3017 RMK AO2 SLP217 T00780044=
201803181753 METAR KCLM 181753Z AUTO 36003KT 10SM FEW021 OVC039 08/04 A3015 RMK AO2 SLP212 T00780039 10094 20050 53017=
201803181653 METAR KCLM 181653Z AUTO 00000KT 10SM FEW025 OVC040 07/05 A3013 RMK AO2 SLP206 T00720050=
201803181621 SPECI KCLM 181621Z AUTO 24004KT 10SM FEW029 OVC037 07/05 A3012 RMK AO2 T00670050=
201803181611 SPECI KCLM 181611Z AUTO 25004KT 10SM BKN029 OVC035 07/05 A3012 RMK AO2 T00670050=
201803181553 METAR KCLM 181553Z AUTO 24004KT 10SM SCT026 OVC032 06/05 A3012 RMK AO2 SLP200 T00610050=
201803181453 METAR KCLM 181453Z AUTO 22004KT 10SM BKN023 BKN034 OVC044 06/05 A3010 RMK AO2 SLP194 T00560050 53012=
201803181353 METAR KCLM 181353Z AUTO 00000KT 10SM OVC027 06/04 A3009 RMK AO2 SLP191 T00560044=
201803181253 METAR KCLM 181253Z AUTO 00000KT 10SM OVC027 06/04 A3007 RMK AO2 SLP185 T00560044=
201803181153 METAR KCLM 181153Z AUTO 24004KT 10SM OVC027 06/04 A3006 RMK AO2 SLP182 70001 T00560044 10056 20056 53009=
201803181053 METAR KCLM 181053Z AUTO 24004KT 10SM OVC024 06/04 A3005 RMK AO2 SLP178 T00560044=
201803181040 SPECI KCLM 181040Z AUTO 23004KT 10SM BKN024 OVC028 06/04 A3005 RMK AO2 T00560044=
201803181030 SPECI KCLM 181030Z AUTO 23003KT 10SM OVC030 06/05 A3005 RMK AO2 T00560050=
201803180953 METAR KCLM 180953Z AUTO 23004KT 10SM OVC027 06/04 A3005 RMK AO2 SLP177 T00560044=
201803180853 METAR KCLM 180853Z AUTO 23004KT 10SM OVC029 06/05 A3004 RMK AO2 SLP173 T00560050 52012=
201803180812 SPECI KCLM 180812Z AUTO 24005KT 10SM OVC029 06/05 A3003 RMK AO2 T00560050=
201803180753 METAR KCLM 180753Z AUTO 24006KT 10SM BKN030 OVC036 06/05 A3002 RMK AO2 SLP168 T00560050 401110011=
201803180653 METAR KCLM 180653Z AUTO 24004KT 10SM BKN041 OVC065 06/05 A3001 RMK AO2 SLP165 T00560050=
201803180553 METAR KCLM 180553Z AUTO 25006KT 10SM FEW036 SCT050 BKN065 06/04 A3000 RMK AO2 SLP161 60001 T00560044 10083 20050 51013=
201803180453 METAR KCLM 180453Z AUTO 24006KT 10SM SCT038 OVC070 06/05 A2999 RMK AO2 SLP157 T00610050=
201803180353 METAR KCLM 180353Z AUTO 24006KT 10SM BKN055 OVC080 06/04 A2998 RMK AO2 SLP153 T00610044=
201803180253 METAR KCLM 180253Z AUTO 25007KT 10SM BKN035 06/05 A2996 RMK AO2 RAB0156E45 SLP148 P0001 60001 T00610050 51012=
201803180153 METAR KCLM 180153Z AUTO 26006KT 9SM OVC055 07/06 A2996 RMK AO2 RAB0055E11 SLP147 P0000 T00720056=
201803180053 METAR KCLM 180053Z AUTO 28007KT 8SM OVC032 08/05 A2995 RMK AO2 SLP142 T00780050=
201803172353 METAR KCLM 172353Z AUTO 27005KT 8SM BKN034 OVC048 08/05 A2993 RMK AO2 SLP136 T00830050 10111 20083 53007=
201803172253 METAR KCLM 172253Z AUTO 30009KT 10SM FEW046 BKN085 09/04 A2991 RMK AO2 SLP132 T00890044=
201803172153 METAR KCLM 172153Z AUTO 32008KT 10SM BKN080 10/04 A2990 RMK AO2 SLP127 T01000044=
201803172053 METAR KCLM 172053Z AUTO 32011G16KT 10SM CLR 10/04 A2991 RMK AO2 SLP129 T01000039 52009=
201803171953 METAR KCLM 171953Z AUTO 32006KT 10SM SCT085 11/04 A2990 RMK AO2 SLP127 T01060044=
201803171853 METAR KCLM 171853Z AUTO 30009KT 10SM CLR 09/03 A2989 RMK AO2 SLP122 T00940033=
201803171753 METAR KCLM 171753Z AUTO 31009KT 10SM CLR 09/03 A2988 RMK AO2 SLP120 T00940028 10094 20011 53007=
201803171653 METAR KCLM 171653Z AUTO 25006KT 10SM CLR 08/01 A2987 RMK AO2 SLP116 T00780011=
201803171553 METAR KCLM 171553Z AUTO 25008KT 10SM CLR 06/M01 A2986 RMK AO2 SLP114 T00611006=
201803171453 METAR KCLM 171453Z AUTO 26009KT 10SM CLR 03/M02 A2986 RMK AO2 SLP112 T00331017 53007=
201803171353 METAR KCLM 171353Z AUTO 25006KT 10SM CLR 03/M02 A2985 RMK AO2 SLP109 T00281017=
201803171253 METAR KCLM 171253Z AUTO 24006KT 10SM CLR 02/M02 A2984 RMK AO2 SLP107 T00221017=
201803171153 METAR KCLM 171153Z AUTO 26007KT 10SM CLR 04/M02 A2984 RMK AO2 SLP104 T00391017 10067 20028 53004=
201803171053 METAR KCLM 171053Z AUTO 26007KT 10SM CLR 04/M02 A2983 RMK AO2 SLP102 T00441017=
201803170953 METAR KCLM 170953Z AUTO 27013KT 10SM BKN075 05/M01 A2982 RMK AO2 SLP100 T00501011=
201803170853 METAR KCLM 170853Z AUTO 25010KT 10SM BKN070 05/M01 A2982 RMK AO2 SLP100 T00501006 56003=
201803170753 METAR KCLM 170753Z AUTO 25012KT 10SM CLR 05/M01 A2983 RMK AO2 SLP102 T00501006 401280006=
201803170653 METAR KCLM 170653Z AUTO 25011KT 10SM CLR 06/M01 A2983 RMK AO2 SLP102 T00611006=
201803170553 METAR KCLM 170553Z AUTO 27010KT 10SM CLR 06/00 A2983 RMK AO2 SLP104 T00610000 10128 20039 50002=
201803170453 METAR KCLM 170453Z AUTO 26012KT 10SM CLR 06/01 A2984 RMK AO2 SLP106 T00610006=
201803170353 METAR KCLM 170353Z AUTO 24006KT 10SM CLR 05/01 A2983 RMK AO2 SLP104 T00500006=
201803170253 METAR KCLM 170253Z AUTO 26005KT 10SM CLR 07/01 A2983 RMK AO2 SLP102 T00720006 55002=
201803170153 METAR KCLM 170153Z AUTO 00000KT 10SM CLR 11/M02 A2982 RMK AO2 SLP100 T01111022=
201803170053 METAR KCLM 170053Z AUTO VRB04KT 10SM CLR 12/M02 A2983 RMK AO2 SLP101 T01171017=
201803162353 METAR KCLM 162353Z AUTO 00000KT 10SM CLR 12/M01 A2983 RMK AO2 SLP104 T01221011 10128 20094 56009=
201803162253 METAR KCLM 162253Z AUTO 09004KT 10SM CLR 12/M02 A2984 RMK AO2 SLP107 T01171017=
201803162153 METAR KCLM 162153Z AUTO VRB05KT 10SM CLR 12/M01 A2985 RMK AO2 SLP109 T01171011=
201803162053 METAR KCLM 162053Z AUTO 10SM CLR 12/01 A2986 RMK AO2 SLP113 T01170006 58008=
201803161953 METAR KCLM 161953Z AUTO 11006KT 10SM CLR 11/01 A2987 RMK AO2 SLP118 T01060011=
201803161853 METAR KCLM 161853Z AUTO 10003KT 10SM CLR 10/01 A2988 RMK AO2 SLP121 T01000011=
201803161753 METAR KCLM 161753Z AUTO 09008KT 10SM CLR 09/01 A2988 RMK AO2 SLP121 T00940006 10100 20006 53008=
201803161653 METAR KCLM 161653Z AUTO 12008KT 10SM CLR 09/01 A2988 RMK AO2 SLP119 T00890011=
201803161553 METAR KCLM 161553Z AUTO 24006KT 10SM CLR 04/M01 A2987 RMK AO2 SLP116 T00441006=
201803161453 METAR KCLM 161453Z AUTO 23006KT 10SM CLR 02/M02 A2986 RMK AO2 SLP115 T00171017 52007=
201803161353 METAR KCLM 161353Z AUTO 19004KT 10SM CLR 01/M02 A2985 RMK AO2 SLP111 T00061022=
201803161253 METAR KCLM 161253Z AUTO 23008KT 10SM CLR 03/M02 A2985 RMK AO2 SLP109 T00281017=
201803161153 METAR KCLM 161153Z AUTO 24008KT 10SM CLR 02/M02 A2984 RMK AO2 SLP106 T00221017 10033 20022 53006=
201803161053 METAR KCLM 161053Z AUTO 24009KT 10SM CLR 02/M02 A2983 RMK AO2 SLP104 T00221017=
201803160953 METAR KCLM 160953Z AUTO 24008KT 10SM CLR 03/M01 A2983 RMK AO2 SLP102 T00281011=
201803160853 METAR KCLM 160853Z AUTO 24007KT 10SM CLR 02/M01 A2982 RMK AO2 SLP100 T00221011 51003=
201803160753 METAR KCLM 160753Z AUTO 23008KT 10SM CLR 03/M01 A2982 RMK AO2 SLP100 T00281006 400891006=
201803160653 METAR KCLM 160653Z AUTO 24008KT 10SM CLR 03/00 A2982 RMK AO2 SLP098 T00280000=
201803160553 METAR KCLM 160553Z AUTO 23008KT 10SM CLR 03/01 A2981 RMK AO2 SLP097 T00280006 10083 20022 51007=
201803160453 METAR KCLM 160453Z AUTO 24006KT 10SM CLR 02/01 A2981 RMK AO2 SLP095 T00220011=
201803160353 METAR KCLM 160353Z AUTO 23005KT 10SM CLR 03/01 A2980 RMK AO2 SLP094 T00280011=
201803160253 METAR KCLM 160253Z AUTO 00000KT 10SM CLR 03/01 A2979 RMK AO2 SLP091 T00330011 53002=
201803160153 METAR KCLM 160153Z AUTO 20004KT 10SM CLR 07/02 A2978 RMK AO2 SLP087 T00720022=
201803160053 METAR KCLM 160053Z AUTO 17004KT 10SM CLR 08/03 A2978 RMK AO2 SLP087 T00830028=
201803152353 METAR KCLM 152353Z AUTO 10005KT 10SM OVC038 09/03 A2978 RMK AO2 SLP088 T00890033 10089 20067 56004=
201803152253 METAR KCLM 152253Z AUTO 07006KT 10SM OVC037 08/02 A2979 RMK AO2 SLP089 T00830022=
201803152153 METAR KCLM 152153Z AUTO 08006KT 10SM OVC037 08/02 A2979 RMK AO2 SLP089 T00780022=
201803152053 METAR KCLM 152053Z AUTO 08007KT 10SM FEW036 09/03 A2980 RMK AO2 SLP091 T00890028 58005=
201803151953 METAR KCLM 151953Z AUTO 08007KT 10SM FEW015 08/03 A2981 RMK AO2 SLP095 T00780028=
201803151853 METAR KCLM 151853Z AUTO 09008KT 10SM CLR 07/03 A2981 RMK AO2 SLP097 T00720033=
201803151753 METAR KCLM 151753Z AUTO 09004KT 10SM CLR 07/03 A2981 RMK AO2 SLP097 I6000 T00670028 10067 21006 53002=
201803151653 METAR KCLM 151653Z AUTO 18003KT 10SM CLR 06/04 A2981 RMK AO2 SLP095 T00560039=
201803151634 SPECI KCLM 151634Z AUTO 24004KT 10SM SCT023 03/02 A2981 RMK AO2 T00280017=
201803151614 SPECI KCLM 151614Z AUTO 00000KT 10SM SCT011 BKN023 03/02 A2981 RMK AO2 T00280022=
201803151601 SPECI KCLM 151601Z AUTO 22003KT 10SM BKN011 OVC021 03/02 A2981 RMK AO2 T00280017=
201803151553 METAR KCLM 151553Z AUTO 22006KT 10SM BKN009 OVC013 02/01 A2981 RMK AO2 CIG 007V011 SLP097 T00220011=
201803151537 SPECI KCLM 151537Z AUTO 00000KT 10SM OVC008 02/01 A2981 RMK AO2 CIG 007V013 T00170011=
201803151525 SPECI KCLM 151525Z AUTO 00000KT 10SM BKN010 OVC016 01/01 A2981 RMK AO2 CIG 007V013 T00110006=
201803151500 SPECI KCLM 151500Z AUTO 23004KT 10SM BKN016 01/00 A2981 RMK AO2 T00060000=
201803151453 METAR KCLM 151453Z AUTO 23004KT 10SM SCT016 01/00 A2981 RMK AO2 SLP096 I3000 T00060000 55001=
201803151353 METAR KCLM 151353Z AUTO 25005KT 10SM FEW019 02/00 A2980 RMK AO2 SLP092 T00170000=
201803151305 SPECI KCLM 151305Z AUTO 24006KT 10SM SCT009 OVC022 02/01 A2981 RMK AO2 T00170011=
201803151300 SPECI KCLM 151300Z AUTO 24005KT 10SM BKN010 OVC022 01/01 A2981 RMK AO2 T00110011=
201803151253 METAR KCLM 151253Z AUTO 22004KT 10SM SCT010 OVC022 01/01 A2981 RMK AO2 SLP096 I1000 T00110011=
201803151245 SPECI KCLM 151245Z AUTO 00000KT 10SM BKN010 OVC024 01/01 A2981 RMK AO2 I1000 T00060006=
201803151226 SPECI KCLM 151226Z AUTO 21003KT 10SM BKN009 BKN014 00/00 A2981 RMK AO2 I1000 T00000000=
201803151205 SPECI KCLM 151205Z AUTO 00000KT 10SM SCT009 01/M01 A2981 RMK AO2 T00061006=
201803151153 METAR KCLM 151153Z AUTO 00000KT 10SM CLR 01/00 A2982 RMK AO2 SLP099 70006 I1000 I6000 T00060000 10022 20000 58010=
201803151053 METAR KCLM 151053Z AUTO 21004KT 10SM CLR 02/01 A2983 RMK AO2 SLP102 T00170006=
201803150953 METAR KCLM 150953Z AUTO 00000KT 10SM CLR 00/00 A2984 RMK AO2 SLP108 T00000000=
201803150853 METAR KCLM 150853Z AUTO 00000KT 10SM CLR 01/01 A2985 RMK AO2 SLP109 T00060006 56010=
201803150753 METAR KCLM 150753Z AUTO 21003KT 10SM CLR 01/01 A2985 RMK AO2 SLP111 T00060006 401060006=
201803150653 METAR KCLM 150653Z AUTO 00000KT 9SM CLR 02/02 A2987 RMK AO2 SLP116 T00170017=
201803150553 METAR KCLM 150553Z AUTO 22005KT 10SM CLR 02/02 A2988 RMK AO2 SLP119 60002 T00220017 10089 20017 58005=
201803150453 METAR KCLM 150453Z AUTO 00000KT 10SM CLR 03/02 A2988 RMK AO2 SLP121 T00280022=
201803150353 METAR KCLM 150353Z AUTO 12003KT 8SM CLR 04/03 A2989 RMK AO2 SLP123 T00390028=
201803150253 METAR KCLM 150253Z AUTO 15004KT 10SM BKN047 06/03 A2989 RMK AO2 RAB24E50 SLP124 P0002 60002 T00560033 50001=
201803150153 METAR KCLM 150153Z AUTO 08003KT 10SM FEW026 SCT045 BKN065 07/04 A2989 RMK AO2 RAE02 SLP125 P0000 T00720039=
201803150053 METAR KCLM 150053Z AUTO 01003KT 9SM -RA BKN040 OVC060 08/03 A2989 RMK AO2 RAE2359B33 SLP124 P0000 T00780033=
201803142353 METAR KCLM 142353Z AUTO VRB04KT 8SM -RA BKN031 BKN040 OVC055 08/03 A2989 RMK AO2 RAB48 SLP123 P0000 60000 T00830033 10106 20078 52005=
201803142253 METAR KCLM 142253Z AUTO 36004KT 10SM OVC032 09/03 A2988 RMK AO2 SLP121 T00890033=
201803142153 METAR KCLM 142153Z AUTO 31009KT 10SM BKN090 08/03 A2988 RMK AO2 SLP119 T00830033=
201803142053 METAR KCLM 142053Z AUTO 32010G17KT 10SM SCT040 08/04 A2987 RMK AO2 SLP118 T00830039 51008=
201803141953 METAR KCLM 141953Z AUTO 33008G17KT 10SM FEW037 BKN045 08/03 A2987 RMK AO2 SLP116 T00830033=
201803141853 METAR KCLM 141853Z AUTO 32011KT 10SM FEW034 BKN065 09/03 A2986 RMK AO2 SLP113 T00940033=
201803141753 METAR KCLM 141753Z AUTO 29009KT 10SM CLR 08/04 A2985 RMK AO2 SLP110 60004 T00830044 10083 20056 51005=
201803141653 METAR KCLM 141653Z AUTO 30007KT 10SM CLR 07/06 A2985 RMK AO2 SLP109 T00670056=
201803141553 METAR KCLM 141553Z AUTO 27004KT 10SM SCT030 BKN050 06/05 A2985 RMK AO2 SLP108 T00610050=
201803141453 METAR KCLM 141453Z AUTO 27005KT 10SM SCT050 BKN075 OVC100 06/06 A2984 RMK AO2 RAE04 SLP105 P0000 60004 T00560056 51009=
201803141418 SPECI KCLM 141418Z AUTO 27005KT 10SM FEW019 BKN032 OVC070 06/06 A2983 RMK AO2 RAE04 P0000 T00610056=
201803141353 METAR KCLM 141353Z AUTO 28004KT 10SM -RA SCT007 BKN017 OVC030 06/06 A2983 RMK AO2 SLP102 P0002 T00610056=
201803141253 METAR KCLM 141253Z AUTO 27003KT 5SM -RA BR BKN009 OVC017 07/06 A2983 RMK AO2 RAB32 SLP102 P0002 T00670061=
201803141153 METAR KCLM 141153Z AUTO 23004KT 10SM BKN005 OVC010 06/06 A2981 RMK AO2 SLP096 70004 T00560056 10072 20033 53003=
201803141053 METAR KCLM 141053Z AUTO 00000KT 10SM OVC006 03/03 A2980 RMK AO2 SLP093 T00330033=
201803141009 SPECI KCLM 141009Z AUTO 22003KT 10SM BKN006 04/04 A2980 RMK AO2 T00390039=
201803140953 METAR KCLM 140953Z AUTO 00000KT 10SM FEW006 04/04 A2980 RMK AO2 SLP091 T00390039=
201803140853 METAR KCLM 140853Z AUTO 25004KT 10SM CLR 04/04 A2980 RMK AO2 SLP093 T00440039 51006=
201803140753 METAR KCLM 140753Z AUTO 27004KT 8SM CLR 05/05 A2979 RMK AO2 SLP090 T00500050 401170039=
201803140736 SPECI KCLM 140736Z AUTO 23005KT 5SM BR SCT011 05/05 A2979 RMK AO2 T00500050=
201803140720 SPECI KCLM 140720Z AUTO 26005KT 6SM BR BKN011 06/06 A2979 RMK AO2 CIG 009V013 T00560056=
201803140653 METAR KCLM 140653Z AUTO 29004KT 7SM BKN009 06/06 A2979 RMK AO2 CIG 007V011 SLP089 T00610061=
201803140624 SPECI KCLM 140624Z AUTO 25003KT 7SM SCT003 BKN009 07/07 A2979 RMK AO2 CIG 007V012 T00670067=
201803140553 METAR KCLM 140553Z AUTO 25003KT 7SM BKN003 07/07 A2978 RMK AO2 SLP086 60000 T00720072 10100 20072 50002=
201803140453 METAR KCLM 140453Z AUTO 30006KT 8SM BKN003 07/07 A2979 RMK AO2 SLP089 T00720072=
201803140419 SPECI KCLM 140419Z AUTO 31006KT 10SM BKN004 07/07 A2978 RMK AO2 T00720072=
201803140408 SPECI KCLM 140408Z AUTO 31007KT 10SM SCT004 07/07 A2978 RMK AO2 T00720072=
201803140353 METAR KCLM 140353Z AUTO 32006KT 10SM BKN005 07/07 A2978 RMK AO2 CIG 003V007 SLP086 T00720072=
201803140336 SPECI KCLM 140336Z AUTO 30006KT 10SM BKN005 OVC110 08/08 A2979 RMK AO2 CIG 003V010 T00780078=
201803140321 SPECI KCLM 140321Z AUTO 28006KT 10SM FEW003 SCT022 OVC120 07/07 A2979 RMK AO2 T00720072=
201803140309 SPECI KCLM 140309Z AUTO 28003KT 10SM SCT001 BKN022 OVC110 08/08 A2979 RMK AO2 T00780078=
201803140303 SPECI KCLM 140303Z AUTO VRB03KT 9SM BKN003 BKN020 OVC120 08/08 A2978 RMK AO2 CIG 001V006 T00780078=
201803140253 METAR KCLM 140253Z AUTO 35004KT 6SM BR BKN001 OVC050 08/08 A2978 RMK AO2 CIG 001V005 SLP084 60000 T00830083 56004=
201803140241 SPECI KCLM 140241Z AUTO 36004KT 6SM BR BKN001 BKN014 OVC055 08/08 A2978 RMK AO2 T00830083=
201803140239 SPECI KCLM 140239Z AUTO 35004KT 7SM SCT003 BKN013 OVC055 08/08 A2978 RMK AO2 CIG 009V019 T00830083=
201803140236 SPECI KCLM 140236Z AUTO 34004KT 8SM SCT003 BKN039 OVC050 08/08 A2978 RMK AO2 T00830083=
201803140205 SPECI KCLM 140205Z AUTO 00000KT 9SM SCT030 OVC040 09/09 A2978 RMK AO2 T00890089=
201803140153 METAR KCLM 140153Z AUTO 00000KT 10SM SCT013 BKN029 OVC038 09/09 A2978 RMK AO2 RAE11 SLP087 P0000 T00890089=
201803140127 SPECI KCLM 140127Z AUTO 00000KT 10SM OVC013 09/09 A2979 RMK AO2 RAE11 P0000 T00940089=
201803140107 SPECI KCLM 140107Z AUTO 10008KT 9SM -RA SCT008 BKN015 OVC065 09/09 A2977 RMK AO2 P0000 T00940089=
201803140053 METAR KCLM 140053Z AUTO 09012KT 7SM -RA OVC010 09/09 A2977 RMK AO2 RAB27E36B47 SLP082 P0000 T00940089=
201803140044 SPECI KCLM 140044Z AUTO 09012KT 8SM OVC008 09/09 A2978 RMK AO2 RAB27E36 CIG 005V012 P0000 T00940089=
201803140026 SPECI KCLM 140026Z AUTO 08007G16KT 8SM BKN010 OVC017 09/08 A2978 RMK AO2 CIG 006V015 T00940083=
201803140019 SPECI KCLM 140019Z AUTO 08009KT 8SM BKN008 BKN013 OVC080 09/08 A2979 RMK AO2 CIG 006V011 T00940083=
201803140011 SPECI KCLM 140011Z AUTO 08009KT 9SM BKN013 BKN027 OVC080 09/08 A2979 RMK AO2 T00940083=
201803132353 METAR KCLM 132353Z AUTO 10011KT 10SM FEW050 SCT060 OVC080 10/08 A2979 RMK AO2 RAE2259 SLP089 P0000 60004 T01000078 10117 20100 50007=
201803132253 METAR KCLM 132253Z AUTO 09006KT 10SM -RA BKN060 OVC070 10/08 A2979 RMK AO2 SLP089 P0002 T01000083=
201803132153 METAR KCLM 132153Z AUTO 12004KT 7SM -RA BKN055 OVC075 11/08 A2979 RMK AO2 RAB06 SLP088 P0002 T01060078=
201803132053 METAR KCLM 132053Z AUTO 02004KT 10SM SCT055 SCT075 OVC085 11/08 A2977 RMK AO2 SLP081 60000 T01060078 51017=
201803131953 METAR KCLM 131953Z AUTO 34007KT 10SM OVC080 10/07 A2976 RMK AO2 RAB03E14 SLP077 P0000 T01000067=
201803131853 METAR KCLM 131853Z AUTO 26005KT 10SM OVC070 11/06 A2974 RMK AO2 SLP072 T01110061=
201803131753 METAR KCLM 131753Z AUTO 00000KT 10SM OVC085 12/05 A2972 RMK AO2 SLP064 T01170050 10117 20039 53021=
201803131653 METAR KCLM 131653Z AUTO 27007KT 10SM OVC090 11/04 A2969 RMK AO2 SLP054 T01060044=
201803131553 METAR KCLM 131553Z AUTO 25004KT 10SM OVC095 09/04 A2968 RMK AO2 SLP051 T00890039=
201803131453 METAR KCLM 131453Z AUTO 28007KT 10SM SCT100 08/04 A2965 RMK AO2 SLP042 T00830039 55006=
201803131353 METAR KCLM 131353Z AUTO VRB03KT 10SM CLR 06/03 A2964 RMK AO2 SLP036 T00560033=
201803131253 METAR KCLM 131253Z AUTO 00000KT 10SM CLR 04/03 A2965 RMK AO2 SLP042 T00440028=
201803131153 METAR KCLM 131153Z AUTO VRB03KT 10SM FEW100 05/03 A2967 RMK AO2 SLP049 T00500028 10094 20044 58019=
201803131053 METAR KCLM 131053Z AUTO 26006KT 10SM CLR 07/03 A2969 RMK AO2 SLP056 T00670028=
201803130953 METAR KCLM 130953Z AUTO 26004KT 10SM CLR 08/02 A2972 RMK AO2 SLP063 T00780022=
201803130853 METAR KCLM 130853Z AUTO 00000KT 10SM CLR 07/03 A2973 RMK AO2 SLP068 T00670033 56027=
201803130753 METAR KCLM 130753Z AUTO 24006KT 10SM CLR 09/03 A2975 RMK AO2 SLP076 T00890033 401441006=
201803130653 METAR KCLM 130653Z AUTO 00000KT 10SM CLR 06/03 A2978 RMK AO2 SLP086 T00560033=
201803130553 METAR KCLM 130553Z AUTO 22003KT 10SM CLR 07/04 A2981 RMK AO2 SLP096 T00720039 10144 20056 56013=
201803130453 METAR KCLM 130453Z AUTO 00000KT 10SM CLR 08/04 A2983 RMK AO2 SLP100 T00780044=
201803130353 METAR KCLM 130353Z AUTO 22006KT 10SM CLR 09/06 A2983 RMK AO2 SLP104 T00940056=
201803130253 METAR KCLM 130253Z AUTO 00000KT 8SM CLR 08/05 A2985 RMK AO2 SLP109 T00780050 56019=
201803130153 METAR KCLM 130153Z AUTO 00000KT 10SM CLR 11/06 A2986 RMK AO2 SLP114 T01110056=
201803130053 METAR KCLM 130053Z AUTO 35003KT 10SM CLR 14/05 A2987 RMK AO2 SLP118 T01390050=
201803122353 METAR KCLM 122353Z AUTO VRB03KT 10SM CLR 14/06 A2990 RMK AO2 SLP128 T01440056 10144 20083 56031=
201803122253 METAR KCLM 122253Z AUTO 09005KT 10SM CLR 13/05 A2993 RMK AO2 SLP137 T01330050=
201803122153 METAR KCLM 122153Z AUTO 10006KT 10SM CLR 12/05 A2997 RMK AO2 SLP149 T01220050=
201803122053 METAR KCLM 122053Z AUTO 07004KT 10SM CLR 12/04 A3000 RMK AO2 SLP160 T01170044 58025=
201803121953 METAR KCLM 121953Z AUTO 08007KT 10SM CLR 11/04 A3003 RMK AO2 SLP170 T01060044=
201803121853 METAR KCLM 121853Z AUTO VRB05KT 10SM CLR 10/04 A3005 RMK AO2 SLP179 T01000044=
201803121753 METAR KCLM 121753Z AUTO 09007KT 10SM CLR 08/05 A3007 RMK AO2 SLP185 T00830050 10083 21006 56005=
201803121653 METAR KCLM 121653Z AUTO 11006KT 10SM CLR 08/06 A3008 RMK AO2 SLP187 T00830056=
201803121553 METAR KCLM 121553Z AUTO 00000KT 7SM CLR 04/04 A3008 RMK AO2 SLP189 T00440039=
201803121453 METAR KCLM 121453Z AUTO 14005KT 5SM BR CLR 00/00 A3009 RMK AO2 SLP192 T00000000 56006=
201803121353 METAR KCLM 121353Z AUTO 00000KT 9SM CLR 01/00 A3009 RMK AO2 SLP193 T00060000=
201803121253 METAR KCLM 121253Z AUTO 00000KT 9SM CLR 00/00 A3010 RMK AO2 SLP194 T00000000=
201803121153 METAR KCLM 121153Z AUTO 00000KT 10SM CLR 01/00 A3010 RMK AO2 SLP196 T00060000 10039 20000 58010=
201803121053 METAR KCLM 121053Z AUTO 22004KT 10SM CLR 01/01 A3012 RMK AO2 SLP201 T00060006=
201803120953 METAR KCLM 120953Z AUTO VRB04KT 10SM CLR 01/01 A3013 RMK AO2 SLP204 T00110006=
201803120853 METAR KCLM 120853Z AUTO 00000KT 10SM CLR 02/02 A3013 RMK AO2 SLP206 T00220017 58007=
201803120753 METAR KCLM 120753Z AUTO 21003KT 10SM CLR 03/03 A3014 RMK AO2 SLP208 T00330028 401171022=
201803120653 METAR KCLM 120653Z AUTO 23006KT 10SM CLR 03/02 A3015 RMK AO2 SLP213 T00280017=
201803120553 METAR KCLM 120553Z AUTO 22004KT 10SM CLR 03/02 A3016 RMK AO2 SLP214 T00280022 10117 20022 57000=
201803120453 METAR KCLM 120453Z AUTO 24005KT 10SM CLR 04/03 A3016 RMK AO2 SLP213 T00390028=
201803120353 METAR KCLM 120353Z AUTO 00000KT 9SM CLR 04/03 A3016 RMK AO2 SLP214 T00440033=
201803120253 METAR KCLM 120253Z AUTO 19004KT 10SM CLR 07/03 A3016 RMK AO2 SLP214 T00670028 56006=
201803120153 METAR KCLM 120153Z AUTO 16003KT 10SM CLR 09/02 A3016 RMK AO2 SLP214 T00890022=
201803120053 METAR KCLM 120053Z AUTO 11006KT 10SM CLR 11/03 A3016 RMK AO2 SLP215 T01060028=
201803112353 METAR KCLM 112353Z AUTO VRB04KT 10SM CLR 11/03 A3017 RMK AO2 SLP220 T01110033 10117 20072 58012=
201803112253 METAR KCLM 112253Z AUTO VRB04KT 10SM CLR 11/03 A3019 RMK AO2 SLP225 T01060028=
201803112153 METAR KCLM 112153Z AUTO 09007KT 10SM CLR 10/02 A3020 RMK AO2 SLP227 T01000022=
201803112053 METAR KCLM 112053Z AUTO VRB06KT 10SM CLR 09/03 A3021 RMK AO2 SLP231 T00940033 58001=
201803111953 METAR KCLM 111953Z AUTO 05007KT 10SM CLR 09/04 A3021 RMK AO2 SLP233 T00890039=
201803111853 METAR KCLM 111853Z AUTO 04005KT 10SM CLR 08/04 A3022 RMK AO2 SLP234 T00830044=
201803111836 SPECI KCLM 111836Z AUTO 03006KT 10SM SCT012 08/05 A3021 RMK AO2 T00830050=
201803111753 METAR KCLM 111753Z AUTO VRB05KT 10SM OVC012 08/06 A3021 RMK AO2 SLP232 I6000 T00780056 10078 21022 53014=
201803111653 METAR KCLM 111653Z AUTO 10004KT 9SM OVC013 07/05 A3019 RMK AO2 SLP225 T00670050=
201803111553 METAR KCLM 111553Z AUTO 00000KT 7SM OVC013 03/03 A3018 RMK AO2 SLP224 T00330033=
201803111534 SPECI KCLM 111534Z AUTO 00000KT 8SM BKN012 OVC100 02/02 A3018 RMK AO2 T00220017=
201803111453 METAR KCLM 111453Z AUTO 00000KT 7SM OVC100 01/01 A3017 RMK AO2 SLP219 I1000 I3000 T00110011 51012=
201803111353 METAR KCLM 111353Z AUTO 17003KT 5SM BR SCT100 M01/M01 A3016 RMK AO2 SLP215 I1000 T10061011=
201803111253 METAR KCLM 111253Z AUTO 00000KT 9SM CLR M01/M02 A3015 RMK AO2 SLP212 T10111017=
201803111153 METAR KCLM 111153Z AUTO 00000KT 10SM CLR M01/M01 A3013 RMK AO2 SLP206 T10061006 10017 21017 52006=
201803111053 METAR KCLM 111053Z AUTO 00000KT 10SM CLR M01/M02 A3013 RMK AO2 SLP204 T10111017=
201803110953 METAR KCLM 110953Z AUTO 20003KT 10SM CLR M01/M01 A3013 RMK AO2 SLP204 T10061006=
201803110853 METAR KCLM 110853Z AUTO 00000KT 10SM CLR 01/01 A3012 RMK AO2 SLP200 T00110006 53009=
201803110753 METAR KCLM 110753Z AUTO 22003KT 10SM CLR 00/00 A3010 RMK AO2 SLP196 T00000000 400891022=
201803110653 METAR KCLM 110653Z AUTO 21005KT 10SM CLR 02/01 A3010 RMK AO2 SLP194 T00170006=
201803110553 METAR KCLM 110553Z AUTO 22005KT 10SM CLR 02/00 A3009 RMK AO2 SLP191 T00170000 10083 20006 51014=
201803110453 METAR KCLM 110453Z AUTO 00000KT 10SM CLR 02/01 A3008 RMK AO2 SLP188 T00170006=
201803110353 METAR KCLM 110353Z AUTO 15003KT 10SM CLR 02/01 A3006 RMK AO2 SLP183 T00220011=
201803110253 METAR KCLM 110253Z AUTO 14004KT 10SM CLR 04/01 A3005 RMK AO2 SLP178 T00390011 55000=
201803110153 METAR KCLM 110153Z AUTO 13005KT 10SM CLR 07/01 A3005 RMK AO2 SLP177 T00670011=
201803110053 METAR KCLM 110053Z AUTO 09007KT 10SM CLR 08/02 A3004 RMK AO2 SLP176 T00780017=
201803102353 METAR KCLM 102353Z AUTO 08005KT 10SM CLR 08/01 A3005 RMK AO2 SLP178 T00830011 10089 20061 56013=
201803102253 METAR KCLM 102253Z AUTO 10007KT 10SM CLR 08/01 A3006 RMK AO2 SLP182 T00830011=
201803102153 METAR KCLM 102153Z AUTO 08007KT 10SM FEW031 07/02 A3007 RMK AO2 SLP185 T00720022=
201803102105 SPECI KCLM 102105Z AUTO 08009KT 10SM SCT010 07/03 A3009 RMK AO2 T00670028=
201803102053 METAR KCLM 102053Z AUTO 10009KT 10SM BKN010 06/03 A3009 RMK AO2 SLP192 T00610033 56007=
201803102048 SPECI KCLM 102048Z AUTO 09007KT 10SM BKN010 07/04 A3009 RMK AO2=
201803101953 METAR KCLM 101953Z AUTO 10007KT 10SM CLR 07/03 A3010 RMK AO2 SLP194 T00720033=
201803101853 METAR KCLM 101853Z AUTO 08006KT 10SM CLR 07/02 A3011 RMK AO2 SLP198 T00670017=
201803101753 METAR KCLM 101753Z AUTO 10007KT 10SM FEW015 06/03 A3011 RMK AO2 SLP197 I6000 T00610028 10061 21022 55002=
201803101749 SPECI KCLM 101749Z AUTO 10007KT 10SM SCT015 06/03 A3011 RMK AO2=
201803101723 SPECI KCLM 101723Z AUTO 09006KT 10SM OVC015 06/03 A3011 RMK AO2 T00560033=
201803101653 METAR KCLM 101653Z AUTO 10006KT 10SM OVC012 05/03 A3011 RMK AO2 SLP198 T00500033=
201803101553 METAR KCLM 101553Z AUTO 00000KT 7SM OVC014 01/01 A3011 RMK AO2 SLP200 I1000 T00110011=
201803101453 METAR KCLM 101453Z AUTO 16003KT 7SM BKN013 M02/M02 A3011 RMK AO2 SLP199 I1000 I3000 T10171022 55004=
201803101439 SPECI KCLM 101439Z AUTO 00000KT 9SM BKN013 M01/M01 A3011 RMK AO2 I1000 T10061006=
201803101353 METAR KCLM 101353Z AUTO 00000KT 7SM CLR M01/M01 A3011 RMK AO2 SLP198 I1000 T10061011=
201803101253 METAR KCLM 101253Z AUTO 00000KT 9SM CLR M01/M01 A3011 RMK AO2 SLP201 I1000 T10061011=
201803101153 METAR KCLM 101153Z AUTO 20003KT 10SM CLR M01/M01 A3012 RMK AO2 SLP203 I1000 I6000 T10061006 10033 21011 57001=
201803101053 METAR KCLM 101053Z AUTO 23003KT 10SM CLR 00/00 A3012 RMK AO2 SLP201 I1000 T00000000=
201803100953 METAR KCLM 100953Z AUTO 00000KT 10SM CLR 01/00 A3013 RMK AO2 SLP203 T00060000=
201803100853 METAR KCLM 100853Z AUTO 00000KT 10SM CLR 00/00 A3012 RMK AO2 SLP203 T00000000 52003=
201803100753 METAR KCLM 100753Z AUTO 00000KT 10SM CLR 01/00 A3012 RMK AO2 SLP201 T00060000 400891006=
201803100653 METAR KCLM 100653Z AUTO 23004KT 10SM CLR 02/02 A3012 RMK AO2 SLP202 T00220017=
201803100553 METAR KCLM 100553Z AUTO 21003KT 10SM OVC050 03/02 A3012 RMK AO2 SLP200 T00330022 10078 20033 51005=
201803100453 METAR KCLM 100453Z AUTO 23004KT 10SM OVC044 04/03 A3011 RMK AO2 SLP199 T00390028=
201803100353 METAR KCLM 100353Z AUTO 00000KT 10SM SCT040 OVC050 05/03 A3011 RMK AO2 SLP198 T00500028=
201803100253 METAR KCLM 100253Z AUTO 00000KT 10SM BKN043 OVC060 06/03 A3010 RMK AO2 SLP195 T00560028 53005=
201803100153 METAR KCLM 100153Z AUTO 00000KT 10SM BKN033 BKN040 OVC055 07/03 A3009 RMK AO2 SLP193 T00670028=
201803100053 METAR KCLM 100053Z AUTO 32003KT 10SM BKN065 07/02 A3009 RMK AO2 SLP191 T00720022=
201803092353 METAR KCLM 092353Z AUTO 31005KT 10SM FEW050 FEW065 07/03 A3008 RMK AO2 SLP189 T00720028 10089 20072 51011=
201803092253 METAR KCLM 092253Z AUTO 30010KT 10SM BKN065 08/03 A3008 RMK AO2 SLP187 T00830033=
201803092153 METAR KCLM 092153Z AUTO 32010G16KT 10SM SCT055 08/03 A3006 RMK AO2 SLP182 T00780028=
201803092053 METAR KCLM 092053Z AUTO 34005KT 10SM FEW050 08/02 A3005 RMK AO2 SLP178 T00780017 51015=
201803091953 METAR KCLM 091953Z AUTO 31009G15KT 10SM FEW048 09/02 A3004 RMK AO2 SLP176 T00890022=
201803091853 METAR KCLM 091853Z AUTO 32007KT 10SM BKN047 08/01 A3003 RMK AO2 SLP170 T00780006=
201803091753 METAR KCLM 091753Z AUTO 29008KT 10SM FEW055 08/02 A3001 RMK AO2 SLP163 60000 T00780017 10078 20028 51019=
201803091653 METAR KCLM 091653Z AUTO 25005KT 10SM BKN065 06/02 A2999 RMK AO2 SLP159 T00610022=
201803091553 METAR KCLM 091553Z AUTO 25010KT 10SM CLR 04/01 A2997 RMK AO2 SLP150 T00440011=
201803091453 METAR KCLM 091453Z AUTO 25007KT 10SM CLR 03/01 A2995 RMK AO2 SLP144 60000 T00280011 51018=
201803091353 METAR KCLM 091353Z AUTO 25009KT 10SM SCT035 SCT055 BKN080 03/01 A2993 RMK AO2 RAE02B26E45 SLP138 P0000 T00330011=
201803091253 METAR KCLM 091253Z AUTO 27012KT 9SM -RA FEW027 BKN080 04/01 A2992 RMK AO2 RAB50 SLP134 P0000 T00390011=
201803091153 METAR KCLM 091153Z AUTO 23008KT 10SM FEW038 SCT075 04/01 A2990 RMK AO2 RAB01E11 SLP125 P0000 60002 70019 T00440011 10067 20039 53026=
201803091053 METAR KCLM 091053Z AUTO 28010KT 10SM SCT090 04/01 A2987 RMK AO2 SLP116 T00440006=
201803090953 METAR KCLM 090953Z AUTO 28010KT 10SM FEW021 BKN085 04/01 A2985 RMK AO2 PK WND 28027/0927 RAE05B29E38 SLP108 P0000 T00390011=
201803090853 METAR KCLM 090853Z AUTO 30011G21KT 9SM -RA SCT037 BKN060 OVC080 04/01 A2982 RMK AO2 PK WND 30028/0816 RAB53 SLP099 P0000 60002 T00440011 53035=
201803090753 METAR KCLM 090753Z AUTO 28018G24KT 10SM OVC048 04/03 A2977 RMK AO2 RAE24 SLP082 P0000 T00440028 401060017=
201803090653 METAR KCLM 090653Z AUTO 29015G22KT 10SM -RA OVC065 06/04 A2975 RMK AO2 SLP077 P0002 T00560044=
201803090553 METAR KCLM 090553Z AUTO 29014KT 10SM -RA OVC050 07/06 A2971 RMK AO2 SLP064 P0000 60012 T00670056 10106 20061 53022=
201803090519 SPECI KCLM 090519Z AUTO 29013G18KT 10SM -RA SCT005 OVC049 07/07 A2969 RMK AO2 P0000 T00670067=
201803090453 METAR KCLM 090453Z AUTO 30009G18KT 7SM -RA OVC004 07/07 A2968 RMK AO2 SLP051 P0010 T00670067=
201803090448 SPECI KCLM 090448Z AUTO 30011G20KT 6SM -RA BR OVC004 07/07 A2967 RMK AO2 P0010=
201803090429 SPECI KCLM 090429Z AUTO 29009KT 4SM -RA BR BKN005 BKN011 OVC029 07/07 A2967 RMK AO2 P0008 T00720067=
201803090420 SPECI KCLM 090420Z AUTO 31018G23KT 4SM -RA BR SCT005 BKN011 OVC034 07/07 A2966 RMK AO2 P0006 T00720067=
201803090411 SPECI KCLM 090411Z AUTO 29014G18KT 4SM -RA BR BKN011 BKN018 OVC037 07/07 A2966 RMK AO2 P0004 T00720067=
201803090353 METAR KCLM 090353Z AUTO 33007G21KT 300V010 7SM -RA FEW009 BKN047 OVC060 07/07 A2965 RMK AO2 RAB45 SLP042 P0002 T00720067=
201803090253 METAR KCLM 090253Z AUTO 10SM SCT046 OVC060 08/06 A2959 RMK AO2 SLP020 T00780061 53008=
201803090153 METAR KCLM 090153Z AUTO 10004KT 10SM BKN048 08/06 A2958 RMK AO2 SLP017 T00780061=
201803090053 METAR KCLM 090053Z AUTO 00000KT 10SM FEW020 BKN060 BKN100 08/06 A2957 RMK AO2 SLP014 T00830056=
201803082353 METAR KCLM 082353Z AUTO 00000KT 10SM FEW014 BKN065 OVC080 09/06 A2956 RMK AO2 SLP013 60002 T00890061 10100 20061 53011=
201803082253 METAR KCLM 082253Z AUTO 35004KT 10SM SCT070 BKN085 08/06 A2955 RMK AO2 SLP010 T00830061=
201803082153 METAR KCLM 082153Z AUTO 32006KT 10SM BKN085 09/06 A2954 RMK AO2 SLP003 T00890056=
201803082053 METAR KCLM 082053Z AUTO 30007KT 10SM BKN080 OVC100 09/07 A2953 RMK AO2 SLP001 60002 T00890067 56015=
201803081953 METAR KCLM 081953Z AUTO 30006KT 10SM FEW008 08/07 A2954 RMK AO2 RAE1855 SLP004 P0000 T00780067=
201803081944 SPECI KCLM 081944Z AUTO 30004KT 10SM SCT008 08/07 A2954 RMK AO2 RAE1855 P0000 T00780067=
201803081902 SPECI KCLM 081902Z AUTO 00000KT 8SM BKN005 BKN045 OVC110 07/07 A2954 RMK AO2 RAE1855 P0000 T00720067=
201803081853 METAR KCLM 081853Z AUTO 00000KT 7SM -RA SCT004 BKN034 BKN049 07/06 A2954 RMK AO2 RAB04 SLP005 P0002 T00670061=
201803081808 SPECI KCLM 081808Z AUTO 20004KT 4SM -RA BR SCT009 BKN049 OVC060 06/06 A2956 RMK AO2 RAB04 P0000 T00610056=
201803081753 METAR KCLM 081753Z AUTO 25006KT 8SM BKN009 BKN039 06/06 A2957 RMK AO2 RAB1657E34 SLP016 P0003 60003 T00610056 10061 20028 56031=
201803081653 METAR KCLM 081653Z AUTO 24004KT 6SM BR OVC007 05/04 A2959 RMK AO2 RAE11B32E51 SLP021 P0000 T00500044=
201803081605 SPECI KCLM 081605Z AUTO 15003KT 7SM -RA OVC008 04/04 A2962 RMK AO2 CIG 008V011 P0000 T00440039=
201803081553 METAR KCLM 081553Z AUTO 18003KT 7SM -RA OVC010 04/04 A2963 RMK AO2 RAB31 CIG 008V012 SLP034 P0000 T00440039=
201803081535 SPECI KCLM 081535Z AUTO 16003KT 7SM -RA BKN012 OVC021 04/04 A2964 RMK AO2 RAB31 P0000 T00440039=
201803081521 SPECI KCLM 081521Z AUTO 14003KT 8SM FEW014 BKN021 OVC070 04/04 A2964 RMK AO2 T00440039=
201803081453 METAR KCLM 081453Z AUTO 18004KT 8SM SCT013 BKN060 OVC080 04/03 A2967 RMK AO2 SLP048 60000 T00390033 56019=
201803081353 METAR KCLM 081353Z AUTO 26003KT 9SM BKN012 BKN070 OVC110 03/03 A2969 RMK AO2 RAE30 SLP056 P0000 T00330033=
201803081334 SPECI KCLM 081334Z AUTO 20003KT 9SM BKN013 03/03 A2970 RMK AO2 RAE30 P0000 T00330033=
201803081319 SPECI KCLM 081319Z AUTO 30003KT 7SM -RA SCT009 BKN015 OVC060 04/03 A2971 RMK AO2 P0000 T00390033=
201803081313 SPECI KCLM 081313Z AUTO 29003KT 7SM -RA BKN009 OVC013 04/03 A2971 RMK AO2 P0000 T00440033=
201803081253 METAR KCLM 081253Z AUTO 19004KT 9SM -RA OVC011 04/03 A2972 RMK AO2 RAB52 SLP067 P0000 T00390028=
201803081153 METAR KCLM 081153Z AUTO 00000KT 10SM OVC011 03/02 A2975 RMK AO2 SLP076 T00280022 10044 20017 56016=
201803081106 SPECI KCLM 081106Z AUTO 15003KT 10SM OVC014 02/01 A2976 RMK AO2 T00220011=
201803081053 METAR KCLM 081053Z AUTO 00000KT 10SM BKN016 OVC065 03/01 A2977 RMK AO2 SLP084 T00280011=
201803080953 METAR KCLM 080953Z AUTO 15004KT 10SM BKN060 OVC075 03/01 A2980 RMK AO2 SLP093 T00330011=
201803080853 METAR KCLM 080853Z AUTO VRB03KT 10SM FEW060 OVC080 04/02 A2982 RMK AO2 SLP101 T00390017 58012=
201803080753 METAR KCLM 080753Z AUTO 00000KT 10SM OVC065 04/01 A2983 RMK AO2 SLP104 T00440011 400671028=
201803080653 METAR KCLM 080653Z AUTO 12004KT 10SM OVC100 04/01 A2985 RMK AO2 SLP111 T00440011=
201803080553 METAR KCLM 080553Z AUTO 00000KT 10SM OVC110 03/02 A2986 RMK AO2 SLP113 T00330017 10061 20033 55005=
201803080453 METAR KCLM 080453Z AUTO 00000KT 10SM OVC100 03/01 A2986 RMK AO2 SLP112 T00330011=
201803080353 METAR KCLM 080353Z AUTO 00000KT 9SM BKN120 04/02 A2986 RMK AO2 SLP116 T00390017=
201803080253 METAR KCLM 080253Z AUTO 00000KT 10SM FEW120 04/01 A2988 RMK AO2 SLP120 T00440011 56018=
201803080153 METAR KCLM 080153Z AUTO 10007KT 10SM CLR 05/02 A2988 RMK AO2 SLP122 T00500017=
201803080053 METAR KCLM 080053Z AUTO 09006KT 10SM CLR 06/01 A2991 RMK AO2 SLP130 T00560011=
201803072353 METAR KCLM 072353Z AUTO 10007KT 10SM CLR 06/01 A2993 RMK AO2 SLP138 T00560011 10067 20050 56026=
201803072253 METAR KCLM 072253Z AUTO 11009KT 10SM CLR 06/01 A2995 RMK AO2 SLP144 T00560011=
201803072153 METAR KCLM 072153Z AUTO 08007KT 10SM CLR 06/01 A2998 RMK AO2 SLP154 T00560011=
201803072053 METAR KCLM 072053Z AUTO 11010KT 10SM CLR 06/01 A3001 RMK AO2 SLP164 T00610006 58025=
201803071953 METAR KCLM 071953Z AUTO 06005KT 10SM CLR 06/00 A3004 RMK AO2 SLP175 T00560000=
201803071853 METAR KCLM 071853Z AUTO 09008KT 10SM CLR 06/01 A3006 RMK AO2 SLP181 T00560006=
201803071753 METAR KCLM 071753Z AUTO 09004KT 10SM FEW022 05/01 A3008 RMK AO2 SLP190 I6000 T00500006 10050 21028 58011=
201803071718 SPECI KCLM 071718Z AUTO 07006KT 10SM SCT020 05/00 A3009 RMK AO2 T00500000=
201803071653 METAR KCLM 071653Z AUTO VRB03KT 10SM OVC020 05/02 A3010 RMK AO2 SLP195 T00500022=
201803071553 METAR KCLM 071553Z AUTO 00000KT 7SM OVC020 01/01 A3011 RMK AO2 SLP199 T00110006=
201803071512 SPECI KCLM 071512Z AUTO 00000KT 7SM SCT010 BKN018 00/00 A3012 RMK AO2 T00000000=
201803071453 METAR KCLM 071453Z AUTO 12003KT 5SM BR BKN010 OVC018 00/M01 A3011 RMK AO2 SLP201 I3000 T00001006 58015=
201803071424 SPECI KCLM 071424Z AUTO 00000KT 8SM FEW012 BKN018 M01/M02 A3012 RMK AO2 T10111017=
201803071353 METAR KCLM 071353Z AUTO 16004KT 10SM CLR M03/M03 A3013 RMK AO2 SLP205 I1000 T10281033=
201803071253 METAR KCLM 071253Z AUTO 00000KT 10SM CLR M02/M03 A3015 RMK AO2 SLP213 I1000 T10221028=
201803071153 METAR KCLM 071153Z AUTO 20003KT 10SM CLR M02/M02 A3016 RMK AO2 SLP216 I1000 I6000 T10221022 10006 21028 56017=
201803071053 METAR KCLM 071053Z AUTO 00000KT 10SM CLR M02/M02 A3017 RMK AO2 SLP219 T10171022=
201803070953 METAR KCLM 070953Z AUTO 22004KT 10SM CLR M02/M03 A3020 RMK AO2 SLP228 T10221028=
201803070853 METAR KCLM 070853Z AUTO 23005KT 10SM CLR M01/M02 A3021 RMK AO2 SLP233 T10061017 58008=
201803070753 METAR KCLM 070753Z AUTO 22004KT 10SM CLR M01/M02 A3022 RMK AO2 SLP237 T10061017 400831022=
201803070653 METAR KCLM 070653Z AUTO 23005KT 10SM CLR M01/M01 A3024 RMK AO2 SLP244 T10061011=
201803070553 METAR KCLM 070553Z AUTO 20004KT 10SM CLR M01/M02 A3023 RMK AO2 SLP241 T10111022 10078 21017 58009=
201803070453 METAR KCLM 070453Z AUTO 00000KT 10SM CLR 00/M01 A3024 RMK AO2 SLP244 T00001006=
201803070353 METAR KCLM 070353Z AUTO 22003KT 10SM CLR 01/00 A3025 RMK AO2 SLP248 T00110000=
201803070253 METAR KCLM 070253Z AUTO 18003KT 10SM CLR 02/01 A3026 RMK AO2 SLP250 T00170011 56015=
201803070153 METAR KCLM 070153Z AUTO 11003KT 10SM CLR 06/03 A3027 RMK AO2 SLP254 T00560033=
201803070053 METAR KCLM 070053Z AUTO 08007KT 10SM CLR 07/01 A3028 RMK AO2 SLP257 T00720011=
201803062353 METAR KCLM 062353Z AUTO 08005KT 10SM CLR 08/01 A3031 RMK AO2 SLP264 T00780011 10083 20061 56016=
201803062253 METAR KCLM 062253Z AUTO 08006KT 10SM CLR 08/01 A3032 RMK AO2 SLP269 T00780011=
201803062237 SPECI KCLM 062237Z AUTO 08006KT 10SM FEW025 08/02 A3032 RMK AO2 T00830017=
201803062153 METAR KCLM 062153Z AUTO 10006KT 10SM OVC024 07/02 A3033 RMK AO2 SLP274 T00720017=
201803062053 METAR KCLM 062053Z AUTO 12006KT 10SM OVC022 07/03 A3035 RMK AO2 SLP280 T00670033 58005=
201803061953 METAR KCLM 061953Z AUTO 08009KT 10SM SCT012 OVC020 06/03 A3036 RMK AO2 SLP282 T00610033=
201803061917 SPECI KCLM 061917Z AUTO 10008KT 10SM SCT014 BKN023 OVC075 06/03 A3036 RMK AO2 T00610033=
201803061853 METAR KCLM 061853Z AUTO 09007KT 10SM FEW015 OVC075 07/03 A3036 RMK AO2 SLP284 T00720033=
201803061824 SPECI KCLM 061824Z AUTO 08006KT 10SM SCT018 OVC075 07/03 A3037 RMK AO2 T00720028=
201803061753 METAR KCLM 061753Z AUTO 09005KT 10SM BKN017 BKN022 OVC075 06/03 A3037 RMK AO2 SLP285 T00610033 10067 20006 51005=
201803061653 METAR KCLM 061653Z AUTO 13003KT 10SM SCT013 OVC075 06/01 A3036 RMK AO2 SLP283 T00560011=
201803061553 METAR KCLM 061553Z AUTO 00000KT 10SM OVC075 03/02 A3036 RMK AO2 SLP282 T00330017=
201803061453 METAR KCLM 061453Z AUTO 00000KT 10SM OVC075 01/01 A3035 RMK AO2 SLP280 T00110006 58002=
201803061353 METAR KCLM 061353Z AUTO 00000KT 10SM OVC075 01/00 A3036 RMK AO2 SLP284 T00110000=
201803061253 METAR KCLM 061253Z AUTO 25003KT 10SM OVC075 02/01 A3036 RMK AO2 SLP283 T00170006=
201803061153 METAR KCLM 061153Z AUTO 24006KT 10SM FEW070 03/00 A3036 RMK AO2 SLP282 T00280000 10044 20022 56004=
201803061053 METAR KCLM 061053Z AUTO 24007KT 10SM OVC075 04/01 A3036 RMK AO2 SLP283 T00440006=
201803060953 METAR KCLM 060953Z AUTO 25005KT 10SM OVC070 04/01 A3037 RMK AO2 SLP285 T00390011=
201803060853 METAR KCLM 060853Z AUTO 25005KT 10SM OVC075 04/01 A3037 RMK AO2 SLP286 T00390011 53001=
201803060753 METAR KCLM 060753Z AUTO 00000KT 10SM OVC075 03/02 A3037 RMK AO2 SLP285 T00330017 400720017=
201803060653 METAR KCLM 060653Z AUTO 00000KT 10SM OVC075 04/02 A3037 RMK AO2 SLP286 T00390017=
201803060553 METAR KCLM 060553Z AUTO 22003KT 10SM OVC075 04/02 A3037 RMK AO2 SLP285 T00390022 10067 20028 50000=
201803060453 METAR KCLM 060453Z AUTO 27003KT 10SM OVC070 04/02 A3037 RMK AO2 SLP288 T00390022=
201803060353 METAR KCLM 060353Z AUTO 00000KT 10SM OVC070 04/02 A3037 RMK AO2 SLP285 T00390022=
201803060253 METAR KCLM 060253Z AUTO 00000KT 10SM FEW060 OVC080 04/02 A3037 RMK AO2 SLP286 T00440022 56003=
201803060153 METAR KCLM 060153Z AUTO 32003KT 10SM FEW028 SCT055 OVC080 05/02 A3037 RMK AO2 SLP285 T00500022=
201803060053 METAR KCLM 060053Z AUTO 00000KT 10SM FEW048 OVC075 06/02 A3036 RMK AO2 SLP285 T00610017=
201803052353 METAR KCLM 052353Z AUTO 21004KT 10SM FEW049 BKN060 OVC070 06/02 A3037 RMK AO2 SLP288 60000 T00560017 10072 20050 58002=
201803052253 METAR KCLM 052253Z AUTO 33005KT 10SM OVC060 07/01 A3038 RMK AO2 RAE08 SLP288 P0000 T00670006=
201803052153 METAR KCLM 052153Z AUTO 29010KT 9SM -RA SCT033 BKN048 OVC060 05/01 A3038 RMK AO2 RAB25 SLP290 P0000 T00500011=
201803052053 METAR KCLM 052053Z AUTO VRB03KT 10SM OVC070 07/02 A3038 RMK AO2 SLP290 T00670022 50002=
201803051953 METAR KCLM 051953Z AUTO 30007KT 10SM FEW049 OVC070 07/01 A3039 RMK AO2 SLP292 T00670006=
201803051853 METAR KCLM 051853Z AUTO 26006KT 10SM OVC060 06/01 A3038 RMK AO2 SLP291 T00610011=
201803051753 METAR KCLM 051753Z AUTO 26005KT 10SM OVC055 05/02 A3038 RMK AO2 RAE1656 SLP288 P0000 60000 T00500017 10050 20017 51010=
201803051653 METAR KCLM 051653Z AUTO 25007KT 7SM -RA BKN045 OVC055 03/01 A3037 RMK AO2 RAB40 SLP287 P0000 T00330011=
201803051553 METAR KCLM 051553Z AUTO 25006KT 10SM BKN050 OVC065 04/M01 A3035 RMK AO2 SLP280 T00391006=
201803051453 METAR KCLM 051453Z AUTO 25009KT 10SM OVC070 02/00 A3035 RMK AO2 SLP279 T00220000 51007=
201803051353 METAR KCLM 051353Z AUTO 26008KT 10SM BKN070 03/M01 A3034 RMK AO2 SLP276 T00281006=
201803051253 METAR KCLM 051253Z AUTO 23008KT 10SM SCT070 02/00 A3034 RMK AO2 SLP275 T00220000=
201803051153 METAR KCLM 051153Z AUTO 25008KT 10SM BKN049 02/00 A3032 RMK AO2 SLP271 70005 T00220000 10033 20022 51007=
201803051053 METAR KCLM 051053Z AUTO 25009KT 10SM CLR 03/01 A3032 RMK AO2 SLP268 T00280006=
201803050953 METAR KCLM 050953Z AUTO 26009KT 10SM FEW080 02/01 A3031 RMK AO2 SLP267 T00220006=
201803050853 METAR KCLM 050853Z AUTO 25009KT 10SM CLR 03/01 A3030 RMK AO2 SLP263 T00280011 53008=
201803050753 METAR KCLM 050753Z AUTO 26007KT 10SM CLR 02/01 A3029 RMK AO2 SLP260 T00220011 400721017=
201803050653 METAR KCLM 050653Z AUTO 26009KT 10SM BKN080 03/02 A3028 RMK AO2 SLP256 T00330017=
201803050553 METAR KCLM 050553Z AUTO 22004KT 10SM FEW055 BKN095 02/02 A3028 RMK AO2 SLP255 60005 T00220017 10061 20022 53007=
201803050453 METAR KCLM 050453Z AUTO 22003KT 10SM OVC075 03/02 A3027 RMK AO2 RAB00E11 SLP252 P0000 T00280022=
201803050353 METAR KCLM 050353Z AUTO 24004KT 10SM SCT034 OVC065 03/02 A3026 RMK AO2 RAB24E43 SLP251 P0000 T00330022=
201803050331 SPECI KCLM 050331Z AUTO 24006KT 7SM -RA FEW010 FEW022 OVC034 03/02 A3026 RMK AO2 RAB24 P0000 T00330022=
201803050324 SPECI KCLM 050324Z AUTO 24007KT 9SM -RA SCT010 BKN021 OVC047 03/02 A3026 RMK AO2 RAB24 P0000 T00330022=
201803050308 SPECI KCLM 050308Z AUTO 24006KT 10SM BKN010 BKN018 OVC032 03/03 A3026 RMK AO2 CIG 008V012 T00330028=
201803050253 METAR KCLM 050253Z AUTO 27005KT 10SM FEW010 BKN017 OVC033 03/03 A3026 RMK AO2 RAE22 SLP249 P0002 60005 T00330028 53016=
201803050245 SPECI KCLM 050245Z AUTO 26005KT 10SM SCT010 OVC017 03/03 A3025 RMK AO2 RAE22 P0002 T00330028=
201803050234 SPECI KCLM 050234Z AUTO 28006KT 10SM BKN010 OVC016 03/03 A3025 RMK AO2 RAE22 CIG 007V014 P0002 T00330033=
201803050213 SPECI KCLM 050213Z AUTO 28003KT 9SM -RA BKN009 OVC015 04/03 A3024 RMK AO2 P0002 T00390033=
201803050200 SPECI KCLM 050200Z AUTO 29007KT 3SM -RA BR BKN014 OVC021 04/03 A3024 RMK AO2 P0000 T00390028=
201803050153 METAR KCLM 050153Z AUTO 29007KT 2 1/2SM -RA BR BKN016 OVC023 04/03 A3024 RMK AO2 RAB15 SLP242 P0003 T00440033=
201803050131 SPECI KCLM 050131Z AUTO 31008KT 8SM -RA BKN016 OVC032 04/03 A3023 RMK AO2 RAB15 P0002 T00440028=
201803050053 METAR KCLM 050053Z AUTO 31006KT 10SM OVC031 06/03 A3022 RMK AO2 RAB11E41 SLP236 P0000 T00560028=
201803042353 METAR KCLM 042353Z AUTO VRB04KT 10SM OVC065 07/02 A3021 RMK AO2 SLP233 60000 T00670022 10072 20056 53011=
201803042253 METAR KCLM 042253Z AUTO VRB06KT 10SM SCT055 OVC065 07/03 A3020 RMK AO2 SLP228 T00670028=
201803042153 METAR KCLM 042153Z AUTO 33007KT 300V010 10SM FEW046 OVC060 07/03 A3018 RMK AO2 RAE2056 SLP224 P0000 T00720033=
201803042053 METAR KCLM 042053Z AUTO 29008KT 10SM -RA FEW025 BKN050 OVC060 07/02 A3018 RMK AO2 RAB44 SLP221 P0000 60000 T00720022 51013=
201803041953 METAR KCLM 041953Z AUTO 29005KT 10SM BKN060 OVC075 07/02 A3017 RMK AO2 SLP218 T00670022=
201803041853 METAR KCLM 041853Z AUTO 24003KT 10SM SCT047 OVC065 06/02 A3015 RMK AO2 SLP214 T00560022=
201803041753 METAR KCLM 041753Z AUTO 27005KT 10SM OVC060 06/02 A3014 RMK AO2 SLP209 T00610022 10061 21017 51018=
201803041736 SPECI KCLM 041736Z AUTO 29003KT 10SM SCT027 OVC060 06/03 A3014 RMK AO2 T00610028=
201803041653 METAR KCLM 041653Z AUTO 25003KT 10SM BKN029 OVC060 04/01 A3013 RMK AO2 SLP205 T00390011=
201803041553 METAR KCLM 041553Z AUTO 00000KT 10SM OVC055 02/01 A3010 RMK AO2 SLP196 T00220006=
201803041453 METAR KCLM 041453Z AUTO 25007KT 10SM BKN065 02/00 A3009 RMK AO2 SLP191 T00220000 53013=
201803041353 METAR KCLM 041353Z AUTO 00000KT 10SM SCT070 00/M01 A3006 RMK AO2 SLP182 T00001006=
201803041253 METAR KCLM 041253Z AUTO 00000KT 10SM CLR 00/M01 A3005 RMK AO2 SLP179 T00001006=
201803041153 METAR KCLM 041153Z AUTO 20003KT 10SM CLR M01/M01 A3005 RMK AO2 SLP177 70010 I6000 T10061011 10017 21011 51004=
201803041053 METAR KCLM 041053Z AUTO 24005KT 10SM CLR 01/00 A3005 RMK AO2 SLP176 T00110000=
201803040953 METAR KCLM 040953Z AUTO 22004KT 10SM CLR M01/M01 A3004 RMK AO2 SLP177 T10061011=
201803040853 METAR KCLM 040853Z AUTO 25005KT 10SM CLR 01/00 A3003 RMK AO2 SLP173 I3000 T00060000 53011=
201803040753 METAR KCLM 040753Z AUTO 23005KT 10SM CLR 02/01 A3002 RMK AO2 SLP169 I1000 T00170006 400781011=
201803040653 METAR KCLM 040653Z AUTO 21003KT 10SM CLR 00/M01 A3001 RMK AO2 SLP165 I1000 T00001006=
201803040553 METAR KCLM 040553Z AUTO 23004KT 10SM CLR M01/M01 A3000 RMK AO2 SLP162 T10111011 10072 21011 51003=
201803040453 METAR KCLM 040453Z AUTO 23005KT 10SM CLR M01/M01 A3000 RMK AO2 SLP161 T10111011=
201803040353 METAR KCLM 040353Z AUTO 21003KT 8SM CLR 01/01 A3000 RMK AO2 SLP161 T00060006=
201803040253 METAR KCLM 040253Z AUTO 00000KT 10SM CLR 02/02 A2999 RMK AO2 SLP159 T00220022 51005=
201803040153 METAR KCLM 040153Z AUTO 14004KT 10SM BKN070 05/01 A2999 RMK AO2 SLP158 T00500011=
201803040053 METAR KCLM 040053Z AUTO 13003KT 10SM SCT065 06/02 A2998 RMK AO2 SLP155 T00610017=
201803032353 METAR KCLM 032353Z AUTO 11003KT 10SM CLR 07/01 A2998 RMK AO2 SLP153 T00720011 10078 20044 55001=
201803032253 METAR KCLM 032253Z AUTO 12004KT 10SM FEW024 07/02 A2998 RMK AO2 SLP153 T00670017=
201803032153 METAR KCLM 032153Z AUTO VRB04KT 10SM SCT023 06/01 A2998 RMK AO2 SLP152 T00610011=
201803032119 SPECI KCLM 032119Z AUTO 00000KT 10SM SCT023 06/01 A2998 RMK AO2 T00560011=
201803032053 METAR KCLM 032053Z AUTO 07003KT 10SM OVC023 06/02 A2998 RMK AO2 SLP154 T00610017 58001=
201803031953 METAR KCLM 031953Z AUTO 12003KT 10SM OVC020 05/02 A2999 RMK AO2 SLP157 T00500022=
201803031853 METAR KCLM 031853Z AUTO 00000KT 10SM OVC018 04/03 A2999 RMK AO2 SLP157 T00440033=
201803031825 SPECI KCLM 031825Z AUTO 14003KT 10SM OVC016 04/03 A2999 RMK AO2 T00440033=
201803031753 METAR KCLM 031753Z AUTO 17003KT 10SM OVC011 04/03 A2998 RMK AO2 SLP155 60010 T00440033 10050 20028 53015=
201803031706 SPECI KCLM 031706Z AUTO 00000KT 10SM BKN010 OVC015 04/03 A2997 RMK AO2 CIG 008V013 T00440033=
201803031653 METAR KCLM 031653Z AUTO 07003KT 10SM BKN009 OVC015 04/03 A2997 RMK AO2 CIG 008V012 SLP149 T00390033=
201803031620 SPECI KCLM 031620Z AUTO 00000KT 10SM OVC009 03/03 A2996 RMK AO2 T00330028=
201803031553 METAR KCLM 031553Z AUTO 00000KT 10SM OVC010 03/03 A2995 RMK AO2 RAE06 SLP145 P0000 T00280028=
201803031536 SPECI KCLM 031536Z AUTO 00000KT 10SM OVC010 03/03 A2995 RMK AO2 RAE06 P0000 T00280028=
201803031453 METAR KCLM 031453Z AUTO 00000KT 6SM -RA BR OVC008 03/03 A2994 RMK AO2 SLP140 P0001 60010 T00330028 53012=
201803031353 METAR KCLM 031353Z AUTO 17003KT 4SM -RA BR OVC006 03/03 A2992 RMK AO2 SLP135 P0006 T00330028=
201803031320 SPECI KCLM 031320Z AUTO 32003KT 3SM -RA BR OVC006 03/03 A2991 RMK AO2 CIG 004V009 P0003 T00330028=
201803031302 SPECI KCLM 031302Z AUTO 20004KT 2SM -RA BR OVC006 03/03 A2990 RMK AO2 P0001 T00330028=
201803031253 METAR KCLM 031253Z AUTO 00000KT 3SM -RA BR OVC006 04/03 A2990 RMK AO2 RAB17 SLP128 P0003 T00390033=
201803031251 SPECI KCLM 031251Z AUTO 00000KT 2 1/2SM -RA BR OVC007 04/03 A2990 RMK AO2 RAB17 P0003=
201803031230 SPECI KCLM 031230Z AUTO 29003KT 8SM -RA BKN008 OVC016 04/03 A2989 RMK AO2 RAB17 P0000 T00390028=
201803031153 METAR KCLM 031153Z AUTO 07003KT 10SM OVC019 05/02 A2988 RMK AO2 SLP121 70012 T00500022 10056 20044 51012=
201803031145 SPECI KCLM 031145Z AUTO 00000KT 10SM SCT014 BKN019 OVC033 05/02 A2988 RMK AO2 T00500022=
201803031130 SPECI KCLM 031130Z AUTO VRB05KT 10SM FEW009 BKN014 OVC028 05/03 A2988 RMK AO2 T00500033=
201803031122 SPECI KCLM 031122Z AUTO VRB05KT 10SM SCT009 BKN016 OVC028 05/04 A2988 RMK AO2 T00500039=
201803031110 SPECI KCLM 031110Z AUTO 06006KT 10SM BKN009 OVC014 05/04 A2988 RMK AO2 CIG 007V012 T00500039=
201803031053 METAR KCLM 031053Z AUTO VRB05KT 10SM BKN010 OVC016 05/04 A2988 RMK AO2 CIG 008V014 SLP120 T00500039=
201803030953 METAR KCLM 030953Z AUTO VRB06KT 10SM BKN011 OVC016 05/04 A2986 RMK AO2 SLP115 T00500039=
201803030853 METAR KCLM 030853Z AUTO 06005KT 10SM BKN012 BKN017 OVC027 05/03 A2985 RMK AO2 SLP109 T00500033 53010=
201803030823 SPECI KCLM 030823Z AUTO 00000KT 10SM SCT009 BKN013 OVC036 05/04 A2984 RMK AO2 T00500039=
201803030753 METAR KCLM 030753Z AUTO VRB03KT 10SM SCT011 OVC032 05/04 A2983 RMK AO2 SLP103 T00500039 400610017=
201803030740 SPECI KCLM 030740Z AUTO 00000KT 10SM SCT013 BKN024 OVC029 06/04 A2983 RMK AO2 T00560039=
201803030708 SPECI KCLM 030708Z AUTO 00000KT 10SM BKN011 BKN019 OVC034 05/04 A2982 RMK AO2 T00500039=
201803030701 SPECI KCLM 030701Z AUTO 00000KT 10SM SCT009 BKN015 OVC034 05/04 A2982 RMK AO2 T00500039=
201803030653 METAR KCLM 030653Z AUTO VRB03KT 10SM SCT010 SCT015 BKN021 05/04 A2982 RMK AO2 SLP099 T00500039=
201803030649 SPECI KCLM 030649Z AUTO 03004KT 10SM FEW010 SCT019 BKN035 05/04 A2982 RMK AO2=
201803030629 SPECI KCLM 030629Z AUTO VRB03KT 10SM SCT010 BKN016 OVC036 05/04 A2981 RMK AO2 T00500039=
201803030617 SPECI KCLM 030617Z AUTO VRB03KT 10SM BKN012 BKN018 OVC036 05/04 A2981 RMK AO2 T00500039=
201803030553 METAR KCLM 030553Z AUTO 25005KT 10SM BKN017 BKN025 OVC032 04/03 A2981 RMK AO2 SLP095 T00440028 10056 20044 53010=
201803030528 SPECI KCLM 030528Z AUTO VRB04KT 10SM BKN018 06/03 A2980 RMK AO2 T00560033=
201803030518 SPECI KCLM 030518Z AUTO VRB03KT 10SM SCT015 06/03 A2979 RMK AO2 T00560033=
201803030500 SPECI KCLM 030500Z AUTO VRB03KT 10SM BKN015 06/04 A2979 RMK AO2 T00560039=
201803030453 METAR KCLM 030453Z AUTO VRB03KT 10SM BKN014 BKN037 06/04 A2979 RMK AO2 SLP089 T00560039=
201803030446 SPECI KCLM 030446Z AUTO VRB05KT 10SM BKN014 BKN035 06/03 A2979 RMK AO2 T00560033=
201803030408 SPECI KCLM 030408Z AUTO VRB05KT 10SM BKN019 OVC041 06/03 A2978 RMK AO2 T00560033=
201803030353 METAR KCLM 030353Z AUTO VRB05KT 10SM FEW017 OVC038 06/03 A2978 RMK AO2 SLP085 T00560033=
201803030334 SPECI KCLM 030334Z AUTO 00000KT 10SM FEW022 SCT027 OVC035 06/03 A2978 RMK AO2 T00560033=
201803030253 METAR KCLM 030253Z AUTO 00000KT 10SM OVC018 06/03 A2978 RMK AO2 SLP085 T00560033 51013=
201803030226 SPECI KCLM 030226Z AUTO 00000KT 10SM BKN018 OVC033 06/03 A2977 RMK AO2 T00560028=
201803030212 SPECI KCLM 030212Z AUTO 07003KT 10SM FEW018 SCT028 OVC034 06/03 A2977 RMK AO2 T00560028=
201803030153 METAR KCLM 030153Z AUTO 00000KT 10SM BKN026 OVC033 06/03 A2976 RMK AO2 SLP081 T00560028=
201803030137 SPECI KCLM 030137Z AUTO 07003KT 10SM FEW019 BKN026 OVC034 06/03 A2976 RMK AO2 T00560028=
201803030053 METAR KCLM 030053Z AUTO VRB03KT 10SM FEW015 SCT020 OVC031 06/03 A2975 RMK AO2 SLP076 T00560028=
201803030024 SPECI KCLM 030024Z AUTO 08006KT 10SM FEW015 OVC030 06/02 A2974 RMK AO2 T00560022=
201803022353 METAR KCLM 022353Z AUTO 08005KT 10SM OVC029 06/03 A2974 RMK AO2 SLP072 T00560028 10061 20044 53010=
201803022315 SPECI KCLM 022315Z AUTO 09007KT 10SM SCT013 BKN023 BKN028 06/03 A2973 RMK AO2 T00560028=
201803022253 METAR KCLM 022253Z AUTO 08008KT 10SM FEW013 BKN032 06/03 A2972 RMK AO2 SLP066 T00610028=
201803022153 METAR KCLM 022153Z AUTO 11010KT 10SM SCT012 SCT025 BKN032 06/03 A2971 RMK AO2 SLP062 T00610033=
201803022148 SPECI KCLM 022148Z AUTO 10008KT 10SM FEW012 SCT025 BKN032 06/03 A2971 RMK AO2=
201803022053 METAR KCLM 022053Z AUTO VRB05KT 10SM FEW013 BKN026 OVC031 06/03 A2970 RMK AO2 SLP060 T00610033 51016=
201803021953 METAR KCLM 021953Z AUTO 09006KT 10SM OVC025 05/03 A2970 RMK AO2 SLP058 T00500028=
201803021853 METAR KCLM 021853Z AUTO 00000KT 10SM SCT013 BKN021 BKN025 05/03 A2967 RMK AO2 SLP050 T00500028=
201803021841 SPECI KCLM 021841Z AUTO 02003KT 10SM SCT011 BKN025 06/03 A2967 RMK AO2 T00560028=
201803021833 SPECI KCLM 021833Z AUTO VRB03KT 10SM FEW011 SCT025 05/03 A2966 RMK AO2 T00500028=
201803021753 METAR KCLM 021753Z AUTO 00000KT 10SM OVC024 04/03 A2965 RMK AO2 SLP044 60012 T00440028 10044 20017 51028=
201803021653 METAR KCLM 021653Z AUTO 00000KT 10SM OVC017 03/03 A2963 RMK AO2 SLP038 T00330028=
201803021553 METAR KCLM 021553Z AUTO 22004KT 10SM BKN016 OVC060 02/02 A2961 RMK AO2 SLP029 T00220022=
201803021453 METAR KCLM 021453Z AUTO 19004KT 10SM OVC010 02/02 A2957 RMK AO2 UPE1359 SLP016 P0000 60012 T00220017 51023=
201803021432 SPECI KCLM 021432Z AUTO 26005KT 10SM BKN010 OVC019 02/02 A2957 RMK AO2 UPE1359 CIG 007V013 P0000 T00220017=
201803021416 SPECI KCLM 021416Z AUTO 28006KT 10SM FEW009 BKN021 OVC080 02/02 A2956 RMK AO2 UPE1359 P0000 T00220017=
201803021353 METAR KCLM 021353Z AUTO 27006KT 10SM UP FEW010 BKN050 OVC065 02/02 A2955 RMK AO2 RAE48UPB48 SLP009 P0006 T00170017=
201803021339 SPECI KCLM 021339Z AUTO 27007KT 9SM -RA FEW008 OVC038 02/02 A2955 RMK AO2 P0006 T00170017=
201803021315 SPECI KCLM 021315Z AUTO 25007KT 3SM -RA BR FEW008 OVC019 02/02 A2954 RMK AO2 P0004 T00170017=
201803021253 METAR KCLM 021253Z AUTO 26008KT 3SM -RA BR SCT013 OVC020 02/02 A2954 RMK AO2 SLP003 P0006 T00170017=
201803021208 SPECI KCLM 021208Z AUTO 27008KT 6SM -RA BR OVC014 02/02 A2951 RMK AO2 P0001 T00220017=
201803021153 METAR KCLM 021153Z AUTO 26009KT 4SM -RA BR OVC016 02/02 A2950 RMK AO2 SLP992 P0014 60028 70028 T00220017 10039 20000 53010=
201803021134 SPECI KCLM 021134Z AUTO 26006KT 3SM -RA BR OVC015 02/02 A2950 RMK AO2 P0011 T00220017=
201803021105 SPECI KCLM 021105Z AUTO 25013KT 2 1/2SM RA BR OVC011 02/02 A2949 RMK AO2 CIG 009V016 P0003 T00220017=
201803021053 METAR KCLM 021053Z AUTO 24008KT 1 3/4SM RA BR OVC011 03/02 A2949 RMK AO2 SLP986 P0014 T00280017=
201803021027 SPECI KCLM 021027Z AUTO 26004KT 2 1/2SM RA BR OVC013 03/02 A2949 RMK AO2 VIS 2V3 P0004 T00330022=
201803020953 METAR KCLM 020953Z AUTO 22005KT 10SM -RA OVC018 03/02 A2948 RMK AO2 RAB0858E12B28UPB10E11B46E52 SLP983 P0000 T00280017=
201803020753 METAR KCLM 020753Z AUTO 25003KT 10SM BKN050 OVC120 02/00 A2947 RMK AO2 SLP980 T00170000 400781011=
201803020653 METAR KCLM 020653Z AUTO 25005KT 10SM BKN050 01/00 A2946 RMK AO2 SLP980 T00110000=
201803020553 METAR KCLM 020553Z AUTO 22004KT 10SM CLR 01/M01 A2945 RMK AO2 SLP975 T00111006 10072 20000 56004=
201803020453 METAR KCLM 020453Z AUTO 00000KT 10SM BKN080 01/M01 A2946 RMK AO2 SLP979 T00061006=
201803020353 METAR KCLM 020353Z AUTO 24005KT 10SM CLR 01/M01 A2946 RMK AO2 SLP977 T00111011=
201803020253 METAR KCLM 020253Z AUTO 13004KT 10SM CLR 02/M01 A2947 RMK AO2 SLP981 T00171006 55006=
201803020153 METAR KCLM 020153Z AUTO 00000KT 10SM CLR 04/01 A2946 RMK AO2 SLP977 T00390006=
201803020053 METAR KCLM 020053Z AUTO 00000KT 10SM CLR 06/01 A2947 RMK AO2 SLP981 T00560006=
201803012353 METAR KCLM 012353Z AUTO 00000KT 10SM SCT080 07/M01 A2949 RMK AO2 SLP986 T00671006 10078 20050 56015=
201803012253 METAR KCLM 012253Z AUTO VRB04KT 10SM BKN075 08/02 A2950 RMK AO2 SLP990 T00780022=
201803012153 METAR KCLM 012153Z AUTO 00000KT 10SM BKN075 07/02 A2951 RMK AO2 SLP995 T00670022=
201803012053 METAR KCLM 012053Z AUTO 35005KT 10SM SCT080 06/02 A2953 RMK AO2 SLP001 T00610022 58005=
201803011953 METAR KCLM 011953Z AUTO 35004KT 10SM SCT070 06/03 A2954 RMK AO2 SLP005 T00560028=
201803011853 METAR KCLM 011853Z AUTO 09004KT 10SM FEW014 06/02 A2954 RMK AO2 SLP004 T00560022=
201803011753 METAR KCLM 011753Z AUTO VRB03KT 10SM FEW120 06/02 A2955 RMK AO2 SLP006 T00610017 10061 21011 57001=
201803011653 METAR KCLM 011653Z AUTO 00000KT 10SM CLR 04/02 A2954 RMK AO2 SLP006 T00440017=
201803011553 METAR KCLM 011553Z AUTO 00000KT 10SM SCT035 02/01 A2955 RMK AO2 SLP009 T00170011=
201803011453 METAR KCLM 011453Z AUTO 21004KT 10SM FEW027 BKN033 M01/M01 A2955 RMK AO2 SLP008 T10061006 51012=
201803011353 METAR KCLM 011353Z AUTO 21003KT 10SM CLR 00/M01 A2954 RMK AO2 SLP006 T00001006=
201803011253 METAR KCLM 011253Z AUTO 15003KT 10SM SCT070 01/00 A2953 RMK AO2 SLP001 T00110000=
201803011153 METAR KCLM 011153Z AUTO 22004KT 10SM SCT060 OVC080 02/01 A2951 RMK AO2 SLP996 60003 70003 T00220011 10078 20022 51021=
201803011053 METAR KCLM 011053Z AUTO 00000KT 10SM SCT060 BKN085 02/01 A2950 RMK AO2 SLP992 T00220011=
201803010953 METAR KCLM 010953Z AUTO 29009KT 10SM BKN050 BKN070 04/01 A2948 RMK AO2 SLP983 T00390011=
201803010853 METAR KCLM 010853Z AUTO 26011KT 10SM FEW033 OVC044 04/02 A2945 RMK AO2 RAE42 SLP974 P0001 60003 T00440017 53038=
201803010753 METAR KCLM 010753Z AUTO 30012G21KT 8SM -RA FEW024 BKN041 OVC049 06/03 A2940 RMK AO2 RAB20 SLP958 P0002 T00560033 400830000=
201803010653 METAR KCLM 010653Z AUTO 30006KT 10SM SCT060 06/03 A2935 RMK AO2 SLP942 T00560028=
201803010553 METAR KCLM 010553Z AUTO 30004KT 10SM BKN050 BKN070 OVC110 06/02 A2934 RMK AO2 SLP936 T00560022 10078 20039 56019=
201803010453 METAR KCLM 010453Z AUTO VRB05KT 10SM BKN055 OVC075 06/02 A2934 RMK AO2 SLP937 T00560022=
201803010353 METAR KCLM 010353Z AUTO 13007KT 10SM SCT060 BKN070 BKN085 05/02 A2935 RMK AO2 SLP942 T00500022=
201803010253 METAR KCLM 010253Z AUTO VRB04KT 10SM BKN060 OVC075 06/03 A2940 RMK AO2 SLP956 T00610028 56037=
201803010153 METAR KCLM 010153Z AUTO 00000KT 10SM OVC070 06/03 A2944 RMK AO2 SLP969 T00610033=
201803010053 METAR KCLM 010053Z AUTO 00000KT 10SM OVC065 08/03 A2946 RMK AO2 SLP978 T00780028=

# No short TAF reports from KCLM in databse.

###################################
#  large TAF from KCLM
###################################
201803312322 TAF KCLM 312322Z 0100/0124 06005KT P6SM BKN040 BKN200 FM010600
                       26010KT P6SM BKN040 BKN200 FM011500 26010KT
                       P6SM -RA OVC025 FM012000 28012KT P6SM -SHRA
                       BKN030=
201803311720 TAF KCLM 311720Z 3118/0118 VRB03KT P6SM BKN015 BKN200 FM311900
                       VRB03KT P6SM SCT030 BKN200 FM312100 VRB03KT
                       P6SM BKN200 FM010300 28006KT P6SM BKN200
                       FM011100 26010KT P6SM SCT060 BKN100 FM011500
                       26010KT P6SM -RA OVC025=
201803311227 TAF KCLM 311227Z 3112/0112 24004KT P6SM BKN040 FM311700 VRB03KT
                       P6SM SCT040 BKN200 FM312100 VRB03KT P6SM
                       BKN200 FM010300 28006KT P6SM BKN200 FM011100
                       VRB03KT P6SM SCT060 BKN100=
201803310840 KCLM 310840Z 3109/0106 26005KT P6SM SCT020 SCT200 FM311800 06005KT
                       P6SM BKN200 FM010000 35005KT P6SM BKN200
                       FM010300 29005KT P6SM FEW110 BKN200=
201803310540 TAF KCLM 310540Z 3106/0106 26005KT P6SM OVC020 FM311500 22005KT
                       P6SM SCT020 BKN200 FM311800 06005KT P6SM
                       BKN200 FM010000 35005KT P6SM BKN200 FM010300
                       29005KT P6SM FEW110 BKN200=
201803310231 KCLM 310231Z 3103/3124 28008KT P6SM BKN018 BKN200 FM310900 27008KT
                       P6SM BKN012 FM311700 23004KT P6SM SCT020
                       BKN250 FM312000 VRB04KT P6SM SCT030 BKN250=
201803310115 KCLM 310115Z 3101/3124 31010KT P6SM SCT018 BKN200
                      TEMPO 3101/3103 BKN018 BKN200 FM310300 28008KT
                       P6SM SCT018 BKN200 FM310900 27008KT P6SM
                       BKN012 FM311700 23004KT P6SM SCT020 BKN250
                       FM312000 VRB04KT P6SM SCT030 BKN250=
201803310057 KCLM 310057Z 3101/3124 31010KT P6SM BKN018 BKN200 FM310300 28008KT
                       P6SM SCT018 BKN200 FM310900 27008KT P6SM
                       BKN012 FM311700 23004KT P6SM SCT020 BKN250
                       FM312000 VRB04KT P6SM SCT030 BKN250=
201803302323 TAF KCLM 302323Z 3100/3124 27010KT P6SM OVC015 FM310900 27008KT
                       P6SM BKN012 FM311700 23004KT P6SM SCT020
                       BKN250 FM312000 VRB04KT P6SM SCT030 BKN250=
201803301934 KCLM 301934Z 3020/3118 26008KT P6SM VCSH SCT007 BKN015 BKN250 FM302100
                       29008KT P6SM SCT050 BKN250 FM310000 27010KT
                       P6SM SCT060 BKN250 FM310600 27006KT P6SM
                       SCT025 BKN250 FM311000 23004KT P6SM BKN025=
201803301720 TAF KCLM 301720Z 3018/3118 26008KT P6SM VCSH BKN045 BKN250 FM302100
                       29008KT P6SM SCT050 BKN250 FM310000 27010KT
                       P6SM SCT060 BKN250 FM310600 27006KT P6SM
                       SCT025 BKN250 FM311000 23004KT P6SM BKN025=
201803301405 KCLM 301405Z 3014/3112 26008KT P6SM -SHRA BKN045 OVC070 FM301800
                       26008KT P6SM BKN025 OVC040 FM302100 29008KT
                       P6SM SCT050 BKN200=
201803301135 TAF KCLM 301135Z 3012/3112 26008KT P6SM BKN045 OVC070 FM301600
                       26008KT P6SM BKN025 OVC040 FM302100 29008KT
                       P6SM SCT050 BKN200=
201803300532 TAF KCLM 300532Z 3006/3106 VRB02KT P6SM VCSH FEW020 OVC050 FM300900
                       26006KT P6SM -RA FEW007 OVC020 FM301500
                       29009KT P6SM BKN028 BKN050 FM301800 31011KT
                       P6SM SCT028 BKN050 FM310000 29009KT P6SM
                       SCT050 BKN200=
201803300336 KCLM 300336Z 3004/3024 VRB03KT P6SM VCSH SCT020 OVC050 FM300600
                       28010KT P6SM VCSH BKN015 OVC040 FM301200
                       27007KT P6SM VCSH BKN020 OVC030 FM301800
                       30010KT P6SM SCT025 BKN030=
201803300206 KCLM 300206Z 3002/3024 VRB03KT P6SM VCSH SCT015 OVC045
                      TEMPO 3002/3006 BKN015 OVC045 FM300600 28010KT
                       P6SM VCSH BKN015 OVC040 FM301200 27007KT
                       P6SM VCSH BKN020 OVC030 FM301800 30010KT
                       P6SM SCT025 BKN030=
201803300014 KCLM 300014Z 3000/3024 VRB03KT P6SM VCSH OVC015
                      TEMPO 3000/3004 -RA FM300400 28010KT P6SM
                       VCSH BKN015 OVC040 FM301200 27007KT P6SM
                       VCSH BKN020 OVC030 FM301800 30010KT P6SM
                       SCT025 BKN030=
201803292330 TAF KCLM 292330Z 3000/3024 VRB03KT P6SM VCSH BKN015 OVC040 FM300200
                       28010KT P6SM VCSH BKN015 OVC040 FM301200
                       27007KT P6SM VCSH BKN020 OVC030 FM301800
                       30010KT P6SM SCT025 BKN030=
201803291725 TAF KCLM 291725Z 2918/3018 VRB04KT P6SM -RA BKN030 BKN045 OVC060
                       FM292100 VRB03KT P6SM VCSH BKN035 OVC070
                       FM300200 28010KT P6SM VCSH BKN025 OVC040
                       FM301200 27007KT P6SM VCSH BKN020 OVC030=
201803291124 TAF KCLM 291124Z 2912/3012 26006KT P6SM -RA SCT025 OVC040
                      TEMPO 2914/2918 BKN025 OVC040 FM291800 VRB03KT
                       P6SM BKN022 OVC040 FM300200 28006KT P6SM
                       -RA BKN022 OVC040=
201803290540 TAF KCLM 290540Z 2906/3006 27006KT P6SM FEW022 BKN090 OVC200 FM291200
                       24005KT P6SM SCT022 OVC060
                      TEMPO 2914/2918 BKN022 OVC060 FM291800 VRB03KT
                       P6SM VCSH BKN022 OVC040 FM292100 32004KT
                       P6SM -RA BKN022 OVC040=
201803290423 KCLM 290423Z 2904/2924 27007KT P6SM SCT015 BKN110 BKN200 FM290600
                       26005KT P6SM BKN030 OVC100 FM291200 24005KT
                       P6SM -RA BKN025 OVC040 FM292100 30005KT
                       P6SM VCSH BKN030 BKN040 OVC150=
201803290232 KCLM 290232Z 2903/2924 29010KT P6SM SCT020 BKN040
                      TEMPO 2903/2906 BKN020 BKN040 FM290600 26005KT
                       P6SM BKN030 OVC100 FM291200 24005KT P6SM
                       -RA BKN025 OVC040 FM292100 30005KT P6SM
                       VCSH BKN030 BKN040 OVC150=
201803290016 KCLM 290016Z 2900/2924 31013KT P6SM SCT035 BKN090 BKN200 FM290600
                       26005KT P6SM BKN030 OVC100 FM291200 24005KT
                       P6SM -RA BKN025 OVC040 FM292100 30005KT
                       P6SM VCSH BKN030 BKN040 OVC150=
201803282320 TAF KCLM 282320Z 2900/2924 31010KT P6SM SCT025 BKN070 BKN150 FM290600
                       26005KT P6SM BKN030 OVC100 FM291200 24005KT
                       P6SM -RA BKN025 OVC040 FM292100 30005KT
                       P6SM VCSH BKN030 BKN040 OVC150=
201803282103 KCLM 282103Z 2821/2918 27010KT P6SM BKN080 BKN150 FM282200 31008KT
                       P6SM BKN100 OVC150 FM290600 26005KT P6SM
                       BKN050 OVC100 FM291200 24005KT P6SM -RA
                       BKN025 OVC050=
201803281728 TAF KCLM 281728Z 2818/2918 24005KT P6SM BKN100 FM282200 31008KT
                       P6SM BKN100 OVC150 FM290600 26005KT P6SM
                       BKN050 OVC100 FM291200 24005KT P6SM -RA
                       BKN025 OVC050=
201803281125 TAF KCLM 281125Z 2812/2912 24005KT P6SM FEW030 BKN100 FM282200
                       31008KT P6SM BKN100 OVC150 FM290600 26005KT
                       P6SM BKN050 OVC100=
201803280520 TAF KCLM 280520Z 2806/2906 30014G20KT P6SM FEW050 SCT200 FM281000
                       27010KT P6SM FEW040 BKN200 FM282200 31008KT
                       P6SM BKN100 OVC150=
201803280023 KCLM 280023Z 2800/2824 30015G25KT P6SM FEW007 SCT060
                      TEMPO 2800/2802 SCT007 BKN050 FM280500 27005KT
                       P6SM FEW020 BKN050 FM282200 26009G18KT P6SM
                       BKN050=
201803272349 TAF KCLM 272349Z 2800/2824 31018G30KT P6SM VCSH BKN008 OVC050 FM280500
                       27005KT P6SM FEW020 BKN050 FM282200 26009G18KT
                       P6SM BKN050=
201803271815 TAF KCLM 271815Z 2718/2818 29010G20KT P6SM VCSH BKN025 OVC050
                      TEMPO 2718/2722 5SM -RA BR OVC025 FM280500
                       27009KT P6SM BKN030=
201803271130 TAF KCLM 271130Z 2712/2812 23005KT P6SM -RA SCT025 OVC050
                      TEMPO 2712/2716 6SM -RA BR BKN020 OVC035
                       FM271600 26006KT P6SM -RA BKN020 OVC035
                       FM272000 29012G20KT P6SM VCSH SCT025 BKN040
                       FM280500 27009KT P6SM BKN030=
201803270524 TAF KCLM 270524Z 2706/2806 00000KT P6SM SCT035 OVC060 FM271000
                       23005KT P6SM -RA SCT020 BKN035 OVC050 FM271600
                       26006KT P6SM -RA BKN020 OVC035 FM272000
                       29012G20KT P6SM SCT025 BKN050=
201803262323 TAF KCLM 262323Z 2700/2724 VRB04KT P6SM VCSH FEW050 SCT070 OVC080
                       FM270500 27008KT P6SM VCSH SCT020 BKN050
                       OVC080 FM271000 25007KT P6SM -RA OVC020
                       FM272000 29012G20KT P6SM VCSH SCT025 BKN050=
201803262138 KCLM 262138Z 2622/2718 11005KT P6SM VCSH SCT020 BKN050 OVC080 FM270500
                       27008KT P6SM VCSH SCT020 BKN050 OVC080 FM271000
                       25007KT P6SM -RA OVC020=
201803261720 TAF KCLM 261720Z 2618/2718 12008KT P6SM -RA OVC060 FM262000 29006KT
                       P6SM -RA OVC025 FM270500 27008KT P6SM -SHRA
                       SCT020 BKN040 FM271000 25007KT P6SM -RA
                       OVC020=
201803261631 KCLM 261631Z 2617/2712 10004KT P6SM FEW018 OVC050 FM262100 29006KT
                       P6SM -RA OVC025 FM270400 27008KT P6SM -SHRA
                       BKN020 BKN040=
201803261131 TAF KCLM 261131Z 2612/2712 24004KT P6SM SCT030 OVC050
                      TEMPO 2612/2616 -RA BKN027 OVC040 FM261600
                       25007KT P6SM -RA OVC025 FM262100 32006KT
                       P6SM -RA OVC022 FM270400 27008KT P6SM -SHRA
                       BKN020 BKN040=
201803260520 TAF KCLM 260520Z 2606/2706 00000KT P6SM BKN090 OVC150 FM260800
                       24004KT P6SM -RA OVC040 FM261200 24004KT
                       P6SM -RA OVC015=
201803252320 TAF KCLM 252320Z 2600/2624 31005KT P6SM SCT040 BKN070 FM260800
                       24004KT P6SM -RA OVC040 FM261200 24004KT
                       P6SM -RA OVC015=
201803251736 TAF KCLM 251736Z 2518/2618 21004KT P6SM SCT200 FM252200 29006KT
                       P6SM SCT060 BKN120 FM260700 VRB03KT P6SM
                       -RA OVC040 FM261100 24005KT P6SM -RA OVC015=
201803251730 TAF KCLM 251730Z 2518/2618 21004KT P6SM SCT200 FM252200 29006KT
                       P6SM SCT060 BKN120 FM260700 VRB03KT P6SM
                       -RA OVC040 FM261100 24005KT P6SM -RA OVC015=
201803251128 TAF KCLM 251128Z 2512/2612 26006KT P6SM SCT200 FM252200 29006KT
                       P6SM SCT060 BKN120 FM260700 VRB03KT P6SM
                       -RA OVC040=
201803250523 TAF KCLM 250523Z 2506/2606 23005KT P6SM FEW050 FM251900 32005KT
                       P6SM SCT050 SCT120 FM260400 26004KT P6SM
                       BKN050 BKN100=
201803242320 TAF KCLM 242320Z 2500/2524 15008KT P6SM SCT020 SCT050 SCT150 FM250200
                       24004KT P6SM SCT050 SCT150 FM251900 32005KT
                       P6SM SCT050 SCT120=
201803241726 TAF KCLM 241726Z 2418/2518 27005KT P6SM SCT020 FM241900 32005KT
                       P6SM SCT050 FM250200 24004KT P6SM SCT050=
201803241139 TAF KCLM 241139Z 2412/2512 25006KT P6SM BKN045 BKN070 FM241900
                       VRB03KT P6SM SCT050=
201803240525 TAF KCLM 240525Z 2406/2506 00000KT P6SM SCT025 BKN060 OVC090
                      TEMPO 2406/2408 -SHRA BKN025 OVC060 FM240800
                       23004KT P6SM -SHRA SCT020 OVC040 FM241900
                       VRB03KT P6SM SCT050=
201803232334 TAF KCLM 232334Z 2400/2424 36004KT P6SM VCSH BKN050 OVC080 FM240800
                       23004KT P6SM -SHRA SCT020 OVC040 FM241900
                       VRB03KT P6SM SCT050=
201803231734 TAF KCLM 231734Z 2318/2418 12003KT P6SM SCT020 SCT050 FM232100
                       VRB04KT P6SM VCSH SCT020 BKN050 FM240800
                       23004KT P6SM -SHRA SCT020 OVC040=
201803231224 KCLM 231224Z 2312/2412 13006KT P6SM SCT050 FM231900 VRB05KT P6SM
                       VCSH BKN040 FM240400 VRB03KT P6SM SCT050=
201803230520 TAF KCLM 230520Z 2306/2406 21005KT P6SM VCSH BKN040 FM231500 VRB05KT
                       P6SM VCSH BKN040=
201803222320 TAF KCLM 222320Z 2300/2324 30011KT P6SM -SHRA BKN040 BKN060 FM230400
                       25005KT P6SM -SHRA BKN040 FM231500 VRB03KT
                       P6SM VCSH BKN040=
201803221720 TAF KCLM 221720Z 2218/2318 25004KT 4SM -RA BR SCT015 OVC025 FM221900
                       30009KT P6SM -RA OVC030 FM222200 30011KT
                       P6SM -SHRA BKN035 BKN050 FM230400 25005KT
                       P6SM -SHRA BKN040=
201803221139 TAF KCLM 221139Z 2212/2312 25004KT P6SM -RA SCT015 OVC035
                      TEMPO 2212/2216 6SM -RA BR BKN015 OVC030
                       FM221800 30009KT P6SM -RA OVC030 FM222200
                       30011KT P6SM -SHRA BKN035 BKN050 FM230400
                       25005KT P6SM VCSH BKN040=
201803220520 TAF KCLM 220520Z 2206/2306 22005KT P6SM -RA OVC050 FM220900 26004KT
                       P6SM -RA OVC030 FM221800 30009KT P6SM -SHRA
                       OVC035 FM222200 30010KT P6SM VCSH BKN040=
201803212320 TAF KCLM 212320Z 2200/2224 VRB04KT P6SM BKN100 FM220400 VRB04KT
                       P6SM -RA BKN050 OVC080 FM220800 26004KT
                       P6SM -RA OVC030 FM221800 30009KT P6SM -SHRA
                       OVC035 FM222200 30010KT P6SM VCSH BKN040=
201803211720 TAF KCLM 211720Z 2118/2218 23005KT P6SM BKN015 OVC100 FM212000
                       VRB04KT P6SM BKN080 FM220400 VRB04KT P6SM
                       -RA BKN050 OVC080 FM220800 26004KT P6SM
                       -RA OVC030=
201803211320 KCLM 211320Z 2113/2212 23005KT P6SM SCT010 BKN100
                      TEMPO 2113/2117 BKN008 FM212000 VRB04KT P6SM
                       BKN080 FM220400 VRB04KT P6SM -RA BKN050
                       OVC080 FM220800 26004KT P6SM -RA OVC030=
201803211131 TAF KCLM 211131Z 2112/2212 23005KT P6SM BKN100 FM212000 VRB04KT
                       P6SM BKN080 FM220400 VRB04KT P6SM -RA BKN050
                       OVC080 FM220800 26004KT P6SM -RA OVC030=
201803210520 TAF KCLM 210520Z 2106/2206 23005KT P6SM SCT030 BKN200 FM212000
                       VRB04KT P6SM BKN040 BKN100 FM220400 VRB04KT
                       P6SM -RA BKN040 OVC080=
201803202320 TAF KCLM 202320Z 2100/2124 32006KT P6SM OVC030 FM210400 23005KT
                       P6SM BKN030 FM211700 05004KT P6SM OVC030=
201803201724 TAF KCLM 201724Z 2018/2118 VRB03KT P6SM SCT200 FM202100 32006KT
                       P6SM BKN120 BKN200 FM210400 25005KT P6SM
                       BKN100 OVC200 FM211100 22004KT P6SM SCT050
                       OVC100=
201803201131 TAF KCLM 201131Z 2012/2112 24007KT P6SM SCT025 BKN200
                      TEMPO 2012/2016 BKN022 FM201600 VRB03KT P6SM
                       SCT025 SCT200 FM202100 32006KT P6SM SCT020
                       BKN120 BKN200 FM210400 25005KT P6SM BKN100
                       OVC200=
201803200520 TAF KCLM 200520Z 2006/2106 28008KT P6SM BKN022 FM201600 VRB03KT
                       P6SM SCT025 SCT120 FM202000 32006KT P6SM
                       SCT020 BKN050 BKN100=
201803200306 KCLM 200306Z 2003/2024 26006KT P6SM SCT018 BKN080
                      TEMPO 2003/2006 BKN018 BKN080 FM200600 24005KT
                       P6SM SCT020 BKN050 BKN080 FM202200 32006KT
                       P6SM OVC050=
201803192323 TAF KCLM 192323Z 2000/2024 31006KT P6SM SCT080 FM200500 24005KT
                       P6SM BKN080 FM201000 24005KT P6SM OVC050
                       FM202200 32006KT P6SM OVC050=
201803191728 TAF KCLM 191728Z 1918/2018 25009KT P6SM SCT250 FM200600 24005KT
                       P6SM SCT050 SCT200 FM201000 24005KT P6SM
                       OVC050=
201803191128 TAF KCLM 191128Z 1912/2012 26006KT P6SM SCT050 FM191800 30006KT
                       P6SM SCT060 FM200600 24005KT P6SM SCT200=
201803190527 TAF KCLM 190527Z 1906/2006 24006KT P6SM BKN080 FM191800 30006KT
                       P6SM FEW080 FM200000 27008KT P6SM SCT080
                       SCT200=
201803182354 KCLM 182354Z 1900/1924 01004KT P6SM VCSH FEW020 BKN050 FM190200
                       28005KT P6SM SCT050 FM190600 24004KT P6SM
                       SKC FM191800 35006KT P6SM FEW050=
201803182339 TAF KCLM 182339Z 1900/1924 01004KT P6SM VCSH BKN060 FM190200 28005KT
                       P6SM VCSH BKN060 BKN100 FM190600 24004KT
                       P6SM FEW060 BKN100 BKN200=
201803182223 KCLM 182223Z 1822/1918 01004KT P6SM VCSH BKN060 FM190200 28005KT
                       P6SM VCSH BKN060 BKN100 FM190600 24004KT
                       P6SM FEW060 BKN100 BKN200=
201803182105 KCLM 182105Z 1821/1918 01004KT P6SM VCSH FEW020 SCT035 BKN060 FM190200
                       28005KT P6SM VCSH BKN050 BKN080 BKN200 FM190600
                       24004KT P6SM FEW050 BKN100 BKN200=
201803181742 TAF KCLM 181742Z 1818/1918 VRB03KT P6SM FEW025 OVC040 FM182000
                       01004KT P6SM VCSH SCT035 OVC050 FM190200
                       28005KT P6SM VCSH BKN050 BKN080 BKN200 FM190600
                       24004KT P6SM FEW050 BKN100 BKN200=
201803181605 KCLM 181605Z 1816/1912 24004KT P6SM SCT025 OVC035
                      TEMPO 1816/1818 BKN025 OVC035 FM181800 VRB04KT
                       P6SM VCSH BKN035 BKN050 FM190300 24004KT
                       P6SM SCT050 SCT120=
201803181128 TAF KCLM 181128Z 1812/1912 24004KT P6SM BKN022 BKN045 FM181800
                       VRB04KT P6SM VCSH SCT025 BKN050 FM190300
                       24004KT P6SM SCT050 SCT120=
201803180529 TAF KCLM 180529Z 1806/1906 24006KT P6SM VCSH BKN035 BKN060 FM181000
                       24004KT P6SM SCT025 BKN050 BKN090 FM181900
                       VRB04KT P6SM SCT045 BKN090 FM190300 24004KT
                       P6SM BKN050=
201803180111 KCLM 180111Z 1801/1824 27009KT P6SM VCSH BKN035 OVC050
                      TEMPO 1801/1805 -SHRA FM180900 24004KT P6SM
                       SCT025 BKN050 BKN090 FM181800 VRB04KT P6SM
                       VCSH SCT035 SCT050 BKN090
                      PROB30 1820/1824 -SHRA BKN035 OVC050=
201803172343 TAF KCLM 172343Z 1800/1824 29010KT P6SM -SHRA BKN050 OVC090 FM180200
                       26009KT P6SM VCSH FEW030 BKN050 OVC090
                      TEMPO 1802/1806 -SHRA FM180900 24004KT P6SM
                       SCT025 BKN050 BKN090 FM181800 VRB04KT P6SM
                       VCSH SCT035 SCT050 BKN090
                      PROB30 1820/1824 -SHRA BKN035 OVC050=
201803172313 KCLM 172313Z 1723/1818 30009KT P6SM VCSH SCT050 BKN100 BKN200
                      TEMPO 1723/1801 -SHRA OVC050 FM180100 27009KT
                       P6SM VCSH SCT050 BKN100 BKN200 FM180900
                       24004KT P6SM SCT020 BKN100=
201803172203 KCLM 172203Z 1722/1818 32009KT P6SM VCSH SCT050 BKN100 BKN200 FM180100
                       27009KT P6SM VCSH SCT050 BKN100 BKN200 FM180900
                       24004KT P6SM SCT020 BKN100=
201803171807 KCLM 171807Z 1718/1818 32009KT P6SM BKN200 FM172000 32009KT P6SM
                       VCSH SCT050 SCT100 BKN200 FM180100 27009KT
                       P6SM VCSH SCT050 BKN100 BKN200 FM180900
                       24004KT P6SM SCT020 BKN100=
201803171740 TAF KCLM 171740Z 1718/1818 01005KT P6SM SCT100 BKN200 FM172100
                       33005KT P6SM VCSH SCT050 SCT100 BKN200 FM180200
                       25005KT P6SM BKN040=
201803171445 KCLM 171445Z 1715/1812 25006KT P6SM FEW100 BKN200 FM171800 01005KT
                       P6SM SCT100 BKN200 FM172100 33005KT P6SM
                       VCSH SCT050 SCT100 BKN200 FM180200 25005KT
                       P6SM BKN040=
201803171120 TAF KCLM 171120Z 1712/1812 25006KT P6SM SKC FM171800 01005KT P6SM
                       SKC FM172100 33005KT P6SM VCSH SCT050 FM180200
                       25005KT P6SM BKN040=
201803170520 TAF KCLM 170520Z 1706/1806 25006KT P6SM SKC FM171800 01005KT P6SM
                       SKC FM172100 33005KT P6SM VCSH SCT050 FM180200
                       26005KT P6SM BKN040=
201803162330 TAF KCLM 162330Z 1700/1724 VRB04KT P6SM FEW060 FM170300 25005KT
                       P6SM SKC FM171800 01005KT P6SM SKC FM172100
                       33005KT P6SM VCSH SCT050=
201803161725 TAF KCLM 161725Z 1618/1718 11007KT P6SM SKC FM162100 04006KT P6SM
                       FEW060 FM170000 33005KT P6SM FEW060 FM170300
                       25005KT P6SM SKC=
201803161421 KCLM 161421Z 1614/1712 VRB04KT P6SM SKC FM161800 08006KT P6SM SCT050
                       FM170000 VRB03KT P6SM SKC FM170600 24006KT
                       P6SM SKC=
201803161128 TAF KCLM 161128Z 1612/1712 24006KT P6SM SKC FM161700 08006KT P6SM
                       SCT050 FM170000 VRB03KT P6SM SKC FM170600
                       24006KT P6SM SKC=
201803160536 TAF KCLM 160536Z 1606/1706 24006KT P6SM SKC FM161000 VRB03KT P6SM
                       SKC FM161800 08006KT P6SM SCT050 FM170000
                       VRB03KT P6SM SKC=
201803152320 TAF KCLM 152320Z 1600/1624 08004KT P6SM OVC035 FM160300 VRB03KT
                       P6SM FEW050 FM161000 VRB03KT P6SM SKC=
201803151749 TAF KCLM 151749Z 1518/1618 VRB03KT P6SM SKC FM152000 08004KT P6SM
                       SKC FM160300 VRB03KT P6SM FEW050=
201803151140 TAF KCLM 151140Z 1512/1612 VRB03KT P6SM SCT200 FM151800 05006KT
                       P6SM SCT200=
201803150541 TAF KCLM 150541Z 1506/1606 VRB03KT P6SM SCT200 FM151800 05006KT
                       P6SM SCT200=
201803150140 KCLM 150140Z 1502/1524 01003KT P6SM -RA BKN040 OVC060 FM150300
                       25003KT P6SM VCSH SCT040 BKN200 FM150600
                       24005KT P6SM SCT120 BKN200 FM151800 05006KT
                       P6SM SCT200=
201803150019 TAF KCLM 150019Z 1500/1524 VRB04KT P6SM -SHRA BKN030 OVC050 FM150300
                       25003KT P6SM VCSH SCT040 BKN200 FM150600
                       24005KT P6SM SCT120 BKN200 FM151800 05006KT
                       P6SM SCT200=
201803141726 TAF KCLM 141726Z 1418/1518 30007KT P6SM SCT050 FM142100 31005KT
                       P6SM SCT120 FM150300 25003KT P6SM BKN200
                       FM150600 24005KT P6SM SCT120 BKN200=
201803141133 TAF KCLM 141133Z 1412/1512 24005KT P6SM VCSH SCT008 BKN060
                      TEMPO 1412/1416 5SM BR OVC006 FM141600 27005KT
                       P6SM VCSH SCT020 BKN040 FM142100 31005KT
                       P6SM SCT040 BKN120 FM150600 24005KT P6SM
                       SCT120 BKN200=
201803140908 KCLM 140908Z 1409/1506 24005KT P6SM VCSH SCT012 BKN080
                      TEMPO 1409/1413 5SM BR BKN009 OVC050 FM141300
                       26004KT P6SM BKN015 BKN040 FM141600 27005KT
                       P6SM VCSH SCT020 BKN040 FM141900 31005KT
                       P6SM SCT040 BKN120=
201803140724 KCLM 140724Z 1407/1506 26005KT 6SM BR VCSH BKN011 FM141200 26004KT
                       P6SM OVC019 FM141600 27005KT P6SM VCSH SCT020
                       BKN040 FM141900 31005KT P6SM SCT040 BKN120=
201803140526 TAF KCLM 140526Z 1406/1506 30006KT P6SM VCSH BKN003 FM141200 26004KT
                       P6SM OVC019 FM141600 27005KT P6SM VCSH SCT020
                       BKN040 FM141900 31005KT P6SM SCT040 BKN120=
201803132320 TAF KCLM 132320Z 1400/1424 09006KT P6SM -RA OVC050 FM140600 26006KT
                       P6SM -SHRA BKN025 BKN050 FM141200 VRB03KT
                       P6SM SCT025 BKN050=
201803131720 TAF KCLM 131720Z 1318/1418 VRB04KT P6SM -RA BKN050 OVC080
                      TEMPO 1320/1324 5SM -RA BR OVC040 FM140400
                       24004KT P6SM -SHRA BKN025 BKN050 FM141200
                       VRB03KT P6SM SCT025 BKN050=
201803131135 TAF KCLM 131135Z 1312/1412 VRB04KT P6SM BKN120 OVC200 FM131800
                       VRB05KT P6SM OVC080 FM132000 33004KT 5SM
                       -RA OVC045 FM140400 24004KT P6SM -SHRA BKN025
                       BKN050=
201803130526 TAF KCLM 130526Z 1306/1406 00000KT P6SM BKN200 FM131200 VRB03KT
                       P6SM OVC060 FM132000 33004KT 5SM -RA OVC050
                       FM132100 28004KT P6SM -SHRA BKN025 BKN050=
201803122320 TAF KCLM 122320Z 1300/1324 09006KT P6SM BKN250 FM131200 09008KT
                       P6SM OVC100 FM131700 09010KT P6SM -RA OVC050
                       FM132100 28012KT P6SM -SHRA BKN025 BKN050=
201803121720 TAF KCLM 121720Z 1218/1318 11006KT P6SM SCT250 FM122200 11010KT
                       P6SM BKN250 FM131200 11010KT P6SM OVC100
                       FM131700 11010KT P6SM -RA OVC050=
201803121127 TAF KCLM 121127Z 1212/1312 24005KT P6SM SKC FM121900 09006KT P6SM
                       SCT200 FM130200 VRB04KT P6SM BKN200 FM130900
                       24004KT P6SM SCT120 BKN200=
201803120520 TAF KCLM 120520Z 1206/1306 24005KT P6SM SKC FM130000 00000KT P6SM
                       FEW200=
201803112320 TAF KCLM 112320Z 1200/1224 08004KT P6SM FEW200 FM120100 VRB03KT
                       P6SM SKC=
201803111720 TAF KCLM 111720Z 1118/1218 VRB03KT P6SM SKC FM112000 08004KT P6SM
                       SCT200 FM120100 VRB03KT P6SM SKC=
201803111120 TAF KCLM 111120Z 1112/1212 VRB03KT P6SM SKC FM112000 08004KT P6SM
                       SCT200 FM120100 VRB03KT P6SM SKC=
201803110529 TAF KCLM 110529Z 1106/1206 00000KT P6SM SKC FM112000 08004KT P6SM
                       SCT200=
201803102320 TAF KCLM 102320Z 1100/1124 09006KT P6SM SCT250 FM110800 09006KT
                       P6SM BKN150 FM112000 09006KT P6SM SCT200=
201803101732 TAF KCLM 101732Z 1018/1118 09006KT P6SM SCT015
                      TEMPO 1018/1020 BKN012 FM102100 09006KT P6SM
                       SKC FM110600 09006KT P6SM BKN200=
201803101535 KCLM 101535Z 1016/1112 VRB03KT P6SM BKN012 FM101900 08004KT P6SM
                       SCT200 FM110200 VRB03KT P6SM SCT200=
201803101120 TAF KCLM 101120Z 1012/1112 VRB03KT P6SM SCT200 FM102100 08004KT
                       P6SM SCT200 FM110200 VRB03KT P6SM SCT200=
201803100530 TAF KCLM 100530Z 1006/1106 23004KT P6SM OVC045 FM100800 VRB03KT
                       P6SM SCT200 FM102100 08004KT P6SM BKN200=
201803092320 TAF KCLM 092320Z 1000/1024 29008KT P6SM BKN060 FM100600 VRB03KT
                       P6SM SCT060 SCT200=
201803091750 TAF KCLM 091750Z 0918/1018 25005KT P6SM BKN060 FM100700 VRB03KT
                       P6SM SKC=
201803091120 TAF KCLM 091120Z 0912/1012 27010KT P6SM VCSH SCT090 FM091500 25010KT
                       P6SM SCT050 SCT250 FM092100 VRB03KT P6SM
                       BKN050 FM100500 VRB03KT P6SM SKC=
201803090553 TAF KCLM 090553Z 0906/1006 27015G24KT P6SM -SHRA SCT008 BKN050
                       FM091500 25010KT P6SM SCT050 SCT250 FM092100
                       VRB03KT P6SM BKN050=
201803082320 TAF KCLM 082320Z 0900/0924 32006KT P6SM VCSH SCT050 BKN090 FM090300
                       27015G28KT P6SM VCSH BKN050 BKN090 FM091500
                       25013KT P6SM SCT050 SCT250 FM092100 34005KT
                       P6SM BKN050=
201803082120 KCLM 082120Z 0821/0918 30007KT P6SM -SHRA SCT020 BKN080 OVC100
                       FM090200 27013G25KT P6SM -SHRA SCT020 BKN050
                       FM091400 25013KT P6SM SCT050 SCT250=
201803081720 TAF KCLM 081720Z 0818/0918 24004KT 6SM BR OVC007 FM090000 28010KT
                       P6SM -RA BKN015 BKN030 FM090300 27013G25KT
                       P6SM -SHRA BKN025 BKN040 FM090900 27015G25KT
                       P6SM VCSH BKN040 BKN060 FM091600 25013KT
                       P6SM SCT060 SCT250=
201803081559 KCLM 081559Z 0816/0912 18003KT P6SM -RA OVC010 FM090000 28010KT
                       P6SM -RA BKN025 BKN050 FM090300 27013G22KT
                       P6SM -SHRA BKN022 BKN040 FM090900 27015G25KT
                       P6SM VCSH BKN040 BKN060=
201803081536 KCLM 081536Z 0816/0912 14003KT P6SM FEW014 BKN021 OVC070 FM090000
                       28010KT P6SM -RA BKN025 BKN050 FM090300
                       27013G22KT P6SM -SHRA BKN022 BKN040 FM090900
                       27015G25KT P6SM VCSH BKN040 BKN060=
201803081132 TAF KCLM 081132Z 0812/0912 11005KT P6SM VCSH SCT015 OVC050
                      TEMPO 0812/0816 BKN015 FM081600 10007KT P6SM
                       -RA OVC040 FM090000 28010KT P6SM -RA BKN025
                       BKN050 FM090300 27013G22KT P6SM -SHRA BKN022
                       BKN040 FM090900 27015G25KT P6SM VCSH BKN040
                       BKN060=
201803080548 TAF KCLM 080548Z 0806/0906 VRB03KT P6SM OVC080 FM080800 VRB03KT
                       P6SM -RA SCT015 OVC050 FM081600 12004KT
                       P6SM -RA OVC040 FM090100 28012G22KT P6SM
                       -SHRA BKN025 BKN050=
201803072320 TAF KCLM 072320Z 0800/0824 10008KT P6SM OVC080 FM080800 06006KT
                       P6SM -RA SCT020 OVC050
                      TEMPO 0812/0816 5SM -RA BR BKN020 OVC040
                       FM081600 09007KT P6SM -RA BKN015 OVC040
                       FM082300 28012KT P6SM -SHRA BKN020 BKN040=
201803071720 TAF KCLM 071720Z 0718/0818 VRB03KT P6SM BKN020
                      TEMPO 0718/0721 SCT020 FM072100 VRB03KT P6SM
                       SCT020 BKN150 BKN250 FM080800 06006KT P6SM
                       -RA SCT020 OVC060
                      TEMPO 0812/0816 5SM -RA BR BKN020 OVC040
                       FM081600 09007KT P6SM -RA BKN015 OVC040=
201803071605 KCLM 071605Z 0716/0812 VRB03KT P6SM OVC020 FM071800 07008KT P6SM
                       BKN025 OVC200 FM080400 VRB04KT P6SM SCT070
                       OVC100 FM081100 VRB04KT P6SM -RA OVC050=
201803071514 KCLM 071514Z 0715/0812 VRB03KT 5SM BR OVC010 FM071800 07008KT P6SM
                       SCT015 SCT120 OVC200 FM080400 VRB04KT P6SM
                       SCT070 OVC100 FM081100 VRB04KT P6SM -RA
                       OVC050=
201803071129 TAF KCLM 071129Z 0712/0812 24004KT P6SM SCT250 FM071800 07008KT
                       P6SM SCT120 OVC200 FM080400 VRB04KT P6SM
                       SCT070 OVC100 FM081100 VRB04KT P6SM -RA
                       OVC050=
201803070537 TAF KCLM 070537Z 0706/0806 24004KT P6SM SKC FM071500 17004KT P6SM
                       SCT008 BKN200 FM071800 07008KT P6SM SCT120
                       OVC200 FM080400 23004KT P6SM SCT070 OVC100=
201803062329 TAF KCLM 062329Z 0700/0724 08006KT P6SM SKC FM070300 24004KT P6SM
                       SKC FM071600 07008KT P6SM SCT120 OVC250=
201803061730 TAF KCLM 061730Z 0618/0718 13003KT P6SM SCT013 OVC080 FM062100
                       01006KT P6SM SCT080 FM070300 24004KT P6SM
                       SKC=
201803061127 TAF KCLM 061127Z 0612/0712 24006KT P6SM BKN070 FM061800 04005KT
                       P6SM SCT070 FM070300 24004KT P6SM SKC=
201803060540 TAF KCLM 060540Z 0606/0706 25004KT P6SM BKN070 FM061200 VRB04KT
                       P6SM SKC FM061800 05005KT P6SM FEW040=
201803052330 TAF KCLM 052330Z 0600/0624 33005KT P6SM OVC060 FM060300 26004KT
                       P6SM SCT060 BKN120 FM061200 VRB04KT P6SM
                       SCT250=
201803051724 TAF KCLM 051724Z 0518/0618 25007KT P6SM -RA VCSH BKN045 OVC060
                       FM052000 27005KT P6SM VCSH SCT020 BKN060
                       FM052200 31004KT P6SM VCSH SCT030 BKN060
                       FM060600 24005KT P6SM SCT050=
201803051141 TAF KCLM 051141Z 0512/0612 25008KT P6SM VCSH SCT050 OVC070
                      TEMPO 0513/0517 BKN030 OVC050 FM051700 27005KT
                       P6SM VCSH SCT020 BKN050 FM052200 31004KT
                       P6SM VCSH SCT030 BKN060 FM060600 24005KT
                       P6SM SCT050=
201803050545 TAF KCLM 050545Z 0506/0606 23006KT P6SM VCSH SCT050 OVC070 FM051700
                       27005KT P6SM VCSH SCT020 BKN050 FM052100
                       31004KT P6SM VCSH SCT030 BKN040=
201803042323 TAF KCLM 042323Z 0500/0524 VRB06KT P6SM VCSH SCT060 OVC070 FM050800
                       25005KT P6SM VCSH BKN035 BKN060 FM051500
                       24005KT P6SM VCSH OVC020 FM052100 35005KT
                       P6SM VCSH BKN035=
201803041730 TAF KCLM 041730Z 0418/0518 25003KT P6SM BKN029 OVC060 FM042200
                       30006KT P6SM VCSH BKN040 FM050800 25005KT
                       P6SM VCSH BKN035 BKN060 FM051500 24005KT
                       P6SM VCSH OVC020=
201803041124 TAF KCLM 041124Z 0412/0512 24005KT P6SM SCT045 BKN070 FM041700
                       27005KT P6SM OVC040 FM042200 30006KT P6SM
                       VCSH BKN040 FM050800 25005KT P6SM VCSH BKN035
                       BKN060=
201803040520 TAF KCLM 040520Z 0406/0506 21003KT P6SM SCT200 FM041000 21003KT
                       P6SM BKN100 FM041300 21003KT P6SM OVC040
                       FM041800 19008KT P6SM VCSH BKN040 FM042200
                       30005KT P6SM BKN040=
201803032320 TAF KCLM 032320Z 0400/0424 12004KT P6SM FEW024 FM041200 23003KT
                       P6SM BKN040 FM041800 19008KT P6SM VCSH BKN040=
201803031725 TAF KCLM 031725Z 0318/0418 00000KT P6SM BKN010 OVC015 FM032100
                       VRB05KT P6SM FEW025 SCT150 FM041200 23003KT
                       P6SM BKN040=
201803031304 KCLM 031304Z 0313/0412 VRB04KT P6SM BKN010 OVC015
                      TEMPO 0313/0317 3SM -RA OVC006 FM031800 VRB05KT
                       P6SM BKN025 FM032200 05007KT P6SM SCT030=
201803031120 TAF KCLM 031120Z 0312/0412 VRB04KT P6SM BKN010 OVC015 FM031800
                       VRB05KT P6SM BKN025 FM032200 05007KT P6SM
                       SCT030=
201803030520 TAF KCLM 030520Z 0306/0406 VRB03KT P6SM BKN015 BKN035 FM031200
                       24005KT P6SM BKN090 BKN150 FM031800 VRB05KT
                       P6SM SCT090 BKN200 FM032100 05007KT P6SM
                       FEW050 SCT200=
201803022344 TAF KCLM 022344Z 0300/0324 09006KT P6SM VCSH BKN028 BKN050 BKN150
                       FM030600 24005KT P6SM FEW028 BKN070 BKN150
                       FM031200 24005KT P6SM BKN090 BKN150 FM031800
                       VRB05KT P6SM SCT090 BKN200 FM032100 05005KT
                       P6SM FEW050 SCT200=
201803021740 TAF KCLM 021740Z 0218/0318 07004KT P6SM VCSH BKN018 OVC035 FM022100
                       07004KT P6SM VCSH BKN025 OVC050 FM030000
                       VRB02KT P6SM VCSH BKN035 BKN060 OVC150 FM030600
                       24005KT P6SM FEW035 BKN090 OVC150=
201803021534 KCLM 021534Z 0216/0312 20004KT P6SM VCSH OVC010 FM021800 07005KT
                       P6SM VCSH SCT010 BKN035 OVC150 FM022300
                       VRB03KT P6SM VCSH SCT050=
201803021144 TAF KCLM 021144Z 0212/0312 24004KT 3SM -RASN BR OVC012 FM021500
                       VRB04KT P6SM VCSH SCT015 BKN025 FM022300
                       VRB03KT P6SM VCSH SCT050=
201803020520 TAF KCLM 020520Z 0206/0306 00000KT P6SM BKN080 FM020800 00000KT
                       P6SM VCSH BKN040
                      TEMPO 0212/0215 5SM -SHRASN OVC025 FM021500
                       VRB04KT P6SM VCSH BKN025 FM022000 VRB04KT
                       P6SM VCSH BKN040=
201803012320 TAF KCLM 012320Z 0200/0224 VRB04KT P6SM VCSH BKN050 FM020700 00000KT
                       P6SM BKN040
                      TEMPO 0212/0215 5SM -SHRASN OVC025 FM021500
                       VRB04KT P6SM VCSH BKN025 FM022000 VRB04KT
                       P6SM VCSH BKN040=
201803011720 TAF KCLM 011720Z 0118/0218 00000KT P6SM SCT050 FM011900 06003KT
                       P6SM VCSH SCT030 SCT050 FM020900 23005KT
                       P6SM VCSH BKN007 OVC050=
201803011135 TAF KCLM 011135Z 0112/0212 24004KT P6SM VCSH SCT050 BKN070 FM011900
                       06003KT P6SM VCSH SCT030 SCT050 FM020900
                       23005KT P6SM VCSH BKN007 OVC050=
201803010520 TAF KCLM 010520Z 0106/0206 13007KT P6SM VCSH OVC025 FM010700 27012KT
                       P6SM -SHRA BKN020 OVC040 FM011000 28008KT
                       P6SM VCSH BKN030 OVC040 FM011600 VRB03KT
                       P6SM VCSH BKN025 BKN050 FM012100 VRB03KT
                       P6SM SCT025 BKN050=