##########################################################
# Query made at 02/16/2025 03:42:11 UTC
# Time interval: from 10/01/2018 00:00  to 10/31/2018 23:59  UTC
##########################################################

##########################################################
# KCLM, Port Angeles, William R. Fairchild International Airport (United States)
# WMO index: -----. WIGOS ID: Unknown
# Latitude 48-07-20N. Longitude 123-30-19W. Altitude 87 m.
##########################################################

###################################
#  METAR/SPECI from KCLM
###################################
201810312353 METAR KCLM 312353Z AUTO 27006KT 4SM BR FEW009 SCT120 14/12 A3007 RMK AO2 SLP182 T01390122 10144 20100 51006=
201810312349 SPECI KCLM 312349Z AUTO 26006KT 4SM BR SCT009 14/12 A3006 RMK AO2=
201810312342 SPECI KCLM 312342Z AUTO 28006KT 4SM BR BKN009 14/12 A3006 RMK AO2 CIG 008V013 T01390122=
201810312332 SPECI KCLM 312332Z AUTO 30005KT 4SM BR BKN011 14/12 A3006 RMK AO2 CIG 008V013 T01390122=
201810312253 METAR KCLM 312253Z AUTO 27004KT 5SM HZ CLR 14/12 A3005 RMK AO2 SLP177 T01440117=
201810312153 METAR KCLM 312153Z AUTO 02003KT 10SM FEW050 14/12 A3005 RMK AO2 SLP176 T01390117=
201810312053 METAR KCLM 312053Z AUTO 31004KT 10SM SCT050 13/11 A3004 RMK AO2 SLP174 T01330106 51007=
201810312041 SPECI KCLM 312041Z AUTO VRB04KT 6SM HZ BKN050 BKN060 BKN080 13/11 A3004 RMK AO2 T01330106=
201810312032 SPECI KCLM 312032Z AUTO 31004KT 2SM HZ BKN050 BKN060 OVC080 13/10 A3004 RMK AO2 T01330100=
201810311953 METAR KCLM 311953Z AUTO 00000KT 9SM SCT049 BKN065 OVC080 12/10 A3004 RMK AO2 SLP173 T01170100=
201810311853 METAR KCLM 311853Z AUTO 00000KT 10SM FEW003 SCT055 BKN070 11/09 A3004 RMK AO2 SLP174 T01060089=
201810311843 SPECI KCLM 311843Z AUTO 04003KT 10SM FEW003 FEW055 BKN080 10/09 A3004 RMK AO2 T01000089=
201810311753 METAR KCLM 311753Z AUTO 03003KT 8SM OVC060 11/10 A3002 RMK AO2 SLP167 T01110100 10117 20083 53004=
201810311653 METAR KCLM 311653Z AUTO 00000KT 10SM BKN049 BKN075 11/09 A3001 RMK AO2 SLP163 T01060094=
201810311553 METAR KCLM 311553Z AUTO 00000KT 6SM BR SCT024 BKN050 OVC060 09/09 A3001 RMK AO2 SLP162 T00940089=
201810311534 SPECI KCLM 311534Z AUTO 00000KT 5SM BR SCT003 OVC024 09/08 A3001 RMK AO2 T00940083=
201810311453 METAR KCLM 311453Z AUTO 24003KT 7SM OVC002 09/08 A3001 RMK AO2 SLP163 T00890083 53005=
201810311415 SPECI KCLM 311415Z AUTO 28003KT 5SM BR BKN004 OVC041 09/08 A3000 RMK AO2 T00890083=
201810311353 METAR KCLM 311353Z AUTO 28003KT 5SM BR FEW004 OVC043 09/08 A2999 RMK AO2 SLP157 T00890083=
201810311351 SPECI KCLM 311351Z AUTO 25003KT 5SM BR FEW004 OVC043 09/08 A2999 RMK AO2=
201810311253 METAR KCLM 311253Z AUTO 00000KT 7SM SCT047 OVC060 08/08 A3000 RMK AO2 SLP158 T00830078=
201810311244 SPECI KCLM 311244Z AUTO 00000KT 7SM FEW010 BKN050 OVC065 08/08 A3000 RMK AO2 T00830078=
201810311235 SPECI KCLM 311235Z AUTO 00000KT 2 1/2SM BR FEW010 BKN050 OVC070 08/08 A3000 RMK AO2 T00830078=
201810311153 METAR KCLM 311153Z AUTO 00000KT 6SM BR OVC050 08/08 A3000 RMK AO2 SLP160 70007 T00830078 10094 20078 56005=
201810311105 SPECI KCLM 311105Z AUTO 19004KT 8SM SCT009 OVC060 09/08 A3000 RMK AO2 T00890078=
201810311053 METAR KCLM 311053Z AUTO 00000KT 9SM BKN009 OVC060 09/08 A3000 RMK AO2 CIG 008V012 SLP161 T00890083=
201810310953 METAR KCLM 310953Z AUTO 20003KT 10SM OVC008 09/08 A3001 RMK AO2 SLP164 T00940083=
201810310853 METAR KCLM 310853Z AUTO 28004KT 10SM OVC006 09/08 A3002 RMK AO2 SLP165 T00890078 56017=
201810310830 SPECI KCLM 310830Z AUTO 24004KT 10SM OVC008 09/08 A3002 RMK AO2 CIG 006V011 T00890078=
201810310804 SPECI KCLM 310804Z AUTO 22004KT 8SM BKN010 OVC060 09/08 A3003 RMK AO2 T00890078=
201810310753 METAR KCLM 310753Z AUTO 22005KT 7SM SCT010 OVC060 08/08 A3003 RMK AO2 SLP171 T00830078 401330050=
201810310741 SPECI KCLM 310741Z AUTO 28003KT 7SM SCT002 OVC060 08/08 A3004 RMK AO2 T00830078=
201810310653 METAR KCLM 310653Z AUTO 24003KT 4SM BR OVC002 08/08 A3004 RMK AO2 SLP172 T00830078=
201810310617 SPECI KCLM 310617Z AUTO 00000KT 8SM BKN002 BKN080 OVC095 08/08 A3005 RMK AO2 T00830078=
201810310609 SPECI KCLM 310609Z AUTO 00000KT 5SM BR SCT002 BKN080 OVC095 08/08 A3006 RMK AO2 T00780078=
201810310553 METAR KCLM 310553Z AUTO 00000KT 9SM SCT080 OVC095 08/07 A3007 RMK AO2 RAE03 SLP182 P0000 60007 T00830072 10094 20083 58027=
201810310453 METAR KCLM 310453Z AUTO 24004KT 7SM -RA OVC070 09/08 A3010 RMK AO2 SLP194 P0002 T00890078=
201810310353 METAR KCLM 310353Z AUTO 26004KT 7SM -RA OVC070 09/08 A3013 RMK AO2 SLP204 P0005 T00890078=
201810310253 METAR KCLM 310253Z AUTO 25004KT 6SM -RA BR OVC060 09/08 A3015 RMK AO2 RAB0154 SLP211 P0000 60000 T00890078 56032=
201810310153 METAR KCLM 310153Z AUTO 00000KT 10SM SCT070 OVC080 09/08 A3017 RMK AO2 SLP219 T00890078=
201810310053 METAR KCLM 310053Z AUTO 28004KT 10SM FEW060 OVC110 09/08 A3020 RMK AO2 SLP230 T00890078=
201810302353 METAR KCLM 302353Z AUTO 00000KT 10SM BKN060 OVC075 09/08 A3024 RMK AO2 RAB32E42 SLP242 P0000 60000 T00940078 10133 20094 56015=
201810302253 METAR KCLM 302253Z AUTO 00000KT 10SM OVC060 11/07 A3025 RMK AO2 SLP246 T01110067=
201810302153 METAR KCLM 302153Z AUTO 00000KT 10SM BKN070 11/06 A3027 RMK AO2 SLP250 T01110061=
201810302053 METAR KCLM 302053Z AUTO 02004KT 10SM BKN070 10/07 A3029 RMK AO2 SLP257 T01000072 58012=
201810301953 METAR KCLM 301953Z AUTO 03003KT 10SM FEW065 12/06 A3030 RMK AO2 SLP263 T01170061=
201810301853 METAR KCLM 301853Z AUTO 03003KT 10SM OVC060 11/06 A3032 RMK AO2 SLP268 T01110061 $=
201810301753 METAR KCLM 301753Z AUTO 00000KT 10SM BKN055 12/06 A3032 RMK AO2 SLP270 T01220061 10122 20050 51006 $=
201810301653 METAR KCLM 301653Z AUTO 22004KT FEW055 09/07 A3032 RMK AO2 SLP270 T00890072 $=
201810301553 METAR KCLM 301553Z AUTO 00000KT 9SM CLR 06/05 A3031 RMK AO2 SLP267 T00610050=
201810301453 METAR KCLM 301453Z AUTO 20003KT 9SM CLR 06/04 A3031 RMK AO2 SLP265 T00560044 53003=
201810301353 METAR KCLM 301353Z AUTO 00000KT 9SM BKN060 06/04 A3030 RMK AO2 SLP263 T00560044=
201810301253 METAR KCLM 301253Z AUTO 22004KT 10SM BKN055 07/05 A3030 RMK AO2 SLP262 T00670050=
201810301153 METAR KCLM 301153Z AUTO 00000KT 10SM SCT050 OVC060 07/06 A3030 RMK AO2 SLP260 70009 T00720056 10089 20067 51003=
201810301053 METAR KCLM 301053Z AUTO 23004KT 10SM OVC055 08/06 A3029 RMK AO2 SLP259 T00780056=
201810300953 METAR KCLM 300953Z AUTO 25004KT 10SM OVC055 08/05 A3030 RMK AO2 SLP260 T00780050=
201810300853 METAR KCLM 300853Z AUTO 27007KT 10SM OVC060 08/06 A3029 RMK AO2 SLP258 T00830056 53010=
201810300753 METAR KCLM 300753Z AUTO 28007KT 10SM OVC060 08/06 A3028 RMK AO2 SLP254 T00830056 401220022=
201810300653 METAR KCLM 300653Z AUTO 23006KT 10SM BKN065 08/05 A3026 RMK AO2 SLP248 T00830050=
201810300553 METAR KCLM 300553Z AUTO 23005KT 10SM BKN060 08/06 A3026 RMK AO2 SLP247 T00780056 10111 20050 53006=
201810300453 METAR KCLM 300453Z AUTO 23007KT 10SM BKN060 08/06 A3025 RMK AO2 SLP246 T00780056=
201810300425 SPECI KCLM 300425Z AUTO 24007KT 10SM FEW060 06/05 A3025 RMK AO2 T00610050=
201810300418 SPECI KCLM 300418Z AUTO 23003KT 2 1/2SM BR CLR 06/05 A3025 RMK AO2 T00560050=
201810300353 METAR KCLM 300353Z AUTO 00000KT 4SM BR FEW065 05/04 A3024 RMK AO2 SLP243 T00500044=
201810300253 METAR KCLM 300253Z AUTO 23003KT 9SM SCT060 07/07 A3024 RMK AO2 SLP242 T00720067 52012=
201810300237 SPECI KCLM 300237Z AUTO 24005KT 3SM BR SCT060 07/06 A3024 RMK AO2 T00670056=
201810300232 SPECI KCLM 300232Z AUTO 00000KT 1 3/4SM BR SCT065 07/06 A3024 RMK AO2 T00670056=
201810300200 SPECI KCLM 300200Z AUTO 22005KT 3SM BR CLR 07/06 A3023 RMK AO2 T00720061=
201810300153 METAR KCLM 300153Z AUTO 21003KT 1 1/4SM BR CLR 07/06 A3023 RMK AO2 VIS 3/4V3 SLP238 T00720061=
201810300147 SPECI KCLM 300147Z AUTO 00000KT 1 3/4SM BR FEW060 07/07 A3023 RMK AO2=
201810300053 METAR KCLM 300053Z AUTO 00000KT 9SM SCT055 09/08 A3022 RMK AO2 SLP234 T00940083=
201810292353 METAR KCLM 292353Z AUTO 16004KT 10SM CLR 11/08 A3021 RMK AO2 SLP230 60002 T01060083 10122 20083 50009=
201810292253 METAR KCLM 292253Z AUTO 00000KT 10SM BKN055 11/07 A3021 RMK AO2 SLP229 T01110072=
201810292153 METAR KCLM 292153Z AUTO 00000KT 10SM FEW050 12/08 A3019 RMK AO2 SLP224 T01220083=
201810292053 METAR KCLM 292053Z AUTO 00000KT 10SM SCT008 BKN055 11/09 A3018 RMK AO2 SLP220 60002 T01110089 53009=
201810292046 SPECI KCLM 292046Z AUTO 02003KT 10SM SCT008 BKN060 11/09 A3018 RMK AO2 T01110089=
201810292036 SPECI KCLM 292036Z AUTO VRB03KT 10SM BKN009 OVC060 11/08 A3018 RMK AO2 CIG 006V011 T01060083=
201810291953 METAR KCLM 291953Z AUTO 13003KT 10SM SCT006 SCT055 09/08 A3017 RMK AO2 SLP219 T00940078=
201810291918 SPECI KCLM 291918Z AUTO 00000KT 10SM FEW003 09/08 A3016 RMK AO2 T00890078=
201810291853 METAR KCLM 291853Z AUTO 03004KT 10SM FEW039 BKN060 09/08 A3016 RMK AO2 RAE44 SLP212 P0002 T00940083=
201810291815 SPECI KCLM 291815Z AUTO 24003KT 5SM -RA BR OVC055 09/07 A3015 RMK AO2 P0002 T00890072=
201810291753 METAR KCLM 291753Z AUTO 28005KT 2 1/2SM -RA BR OVC050 08/07 A3015 RMK AO2 SLP211 P0005 60007 T00830072 10083 20022 51028=
201810291653 METAR KCLM 291653Z AUTO 27008KT 4SM -RA BR OVC050 08/07 A3014 RMK AO2 RAB02 SLP207 P0002 T00780067=
201810291553 METAR KCLM 291553Z AUTO 00000KT 10SM FEW060 FEW075 OVC100 07/07 A3010 RMK AO2 SLP196 T00670067=
201810291510 SPECI KCLM 291510Z AUTO 23005KT 5SM BR CLR 03/02 A3008 RMK AO2 T00280022=
201810291502 SPECI KCLM 291502Z AUTO 11003KT 2SM BR CLR 03/02 A3007 RMK AO2 T00280017=
201810291453 METAR KCLM 291453Z AUTO 10003KT 1/2SM FG CLR 02/02 A3007 RMK AO2 SLP183 T00220017 51011=
201810291440 SPECI KCLM 291440Z AUTO 22005KT 1 1/4SM BR CLR 03/02 A3007 RMK AO2 VIS 3/4V4 T00330022=
201810291433 SPECI KCLM 291433Z AUTO 00000KT 1SM BR VV001 03/03 A3006 RMK AO2 VIS 1/2V3 T00330028=
201810291426 SPECI KCLM 291426Z AUTO 00000KT 2SM BR FEW001 03/03 A3006 RMK AO2 T00330028=
201810291353 METAR KCLM 291353Z AUTO 19003KT 1SM BR CLR 02/02 A3005 RMK AO2 SLP179 T00220017 $=
201810291346 SPECI KCLM 291346Z AUTO 00000KT 1 3/4SM BR CLR 02/02 A3006 RMK AO2 T00220017 $=
201810291342 SPECI KCLM 291342Z AUTO 21003KT 3SM BR CLR 02/02 A3005 RMK AO2 T00220017 $=
201810291317 SPECI KCLM 291317Z AUTO 13003KT 1 3/4SM BR CLR 03/02 A3006 RMK AO2 VIS 3/4V5 T00280022 $=
201810291307 SPECI KCLM 291307Z AUTO 22003KT 3SM BR FEW001 03/02 A3006 RMK AO2 T00280022 $=
201810291253 METAR KCLM 291253Z AUTO 00000KT 1 3/4SM BR FEW001 03/02 A3005 RMK AO2 VIS 3/4V5 SLP177 T00280022 $=
201810291248 SPECI KCLM 291248Z AUTO 21003KT 1 1/4SM BR FEW001 03/03 A3005 RMK AO2 VIS 1/2V5 $=
201810291239 SPECI KCLM 291239Z AUTO 00000KT 3/4SM BR VV001 03/02 A3005 RMK AO2 VIS 1/2V5 T00280022 $=
201810291236 SPECI KCLM 291236Z AUTO 00000KT 1 1/2SM BR FEW001 03/02 A3004 RMK AO2 VIS 1/2V5 T00280022 $=
201810291229 SPECI KCLM 291229Z AUTO 00000KT 3SM BR FEW001 03/02 A3005 RMK AO2 T00280017 $=
201810291219 SPECI KCLM 291219Z AUTO 00000KT 1 3/4SM BR FEW001 03/02 A3004 RMK AO2 T00280022 $=
201810291215 SPECI KCLM 291215Z AUTO 22003KT 3SM BR CLR 03/03 A3004 RMK AO2 T00330028 $=
201810291153 METAR KCLM 291153Z AUTO 00000KT 1SM BR CLR 03/02 A3003 RMK AO2 SLP172 70041 T00280022 10083 20022 51005 $=
201810291127 SPECI KCLM 291127Z AUTO 00000KT 1 3/4SM BR CLR 03/03 A3004 RMK AO2 VIS 3/4V5 T00330028 $=
201810291053 METAR KCLM 291053Z AUTO 00000KT 7SM CLR 06/04 A3003 RMK AO2 SLP170 T00560044 $=
201810291048 SPECI KCLM 291048Z AUTO 20003KT 2SM BR CLR 04/04 A3003 RMK AO2 $=
201810291024 SPECI KCLM 291024Z AUTO 00000KT 1 3/4SM BR CLR 03/03 A3002 RMK AO2 T00330033 $=
201810291020 SPECI KCLM 291020Z AUTO 00000KT 3SM BR CLR 04/03 A3002 RMK AO2 T00440033 $=
201810291009 SPECI KCLM 291009Z AUTO 00000KT 1 3/4SM BR CLR 03/03 A3002 RMK AO2 VIS 3/4V5 T00330028 $=
201810290953 METAR KCLM 290953Z AUTO 23003KT 7SM CLR 04/03 A3002 RMK AO2 SLP165 T00390028 $=
201810290923 SPECI KCLM 290923Z AUTO 21003KT 4SM BR CLR 03/03 A3001 RMK AO2 T00330028 $=
201810290910 SPECI KCLM 290910Z AUTO 23004KT 2 1/2SM BR FEW003 FEW010 03/03 A3000 RMK AO2 T00330028 $=
201810290853 METAR KCLM 290853Z AUTO 20003KT 10SM FEW010 05/04 A3000 RMK AO2 SLP159 T00500039 53012 $=
201810290839 SPECI KCLM 290839Z AUTO 00000KT 4SM BR CLR 06/04 A2999 RMK AO2 T00560044 $=
201810290823 SPECI KCLM 290823Z AUTO 00000KT 1 3/4SM BR CLR 04/04 A2999 RMK AO2 T00440039 $=
201810290816 SPECI KCLM 290816Z AUTO 00000KT 4SM BR CLR 06/04 A2998 RMK AO2 T00610044 $=
201810290805 SPECI KCLM 290805Z AUTO 00000KT 1 3/4SM BR CLR 04/03 A2998 RMK AO2 T00440033 $=
201810290753 METAR KCLM 290753Z AUTO 22005KT 10SM CLR 06/05 A2998 RMK AO2 SLP152 T00610050 401440061 $=
201810290653 METAR KCLM 290653Z AUTO 22005KT 10SM CLR 07/06 A2998 RMK AO2 SLP153 T00670061 $=
201810290553 METAR KCLM 290553Z AUTO 12003KT 10SM FEW065 08/07 A2996 RMK AO2 SLP147 60013 T00830067 10122 20083 52011 $=
201810290453 METAR KCLM 290453Z AUTO 28010KT 10SM BKN090 09/06 A2994 RMK AO2 RAE0354B43E53 SLP141 P0000 T00890061 $=
201810290353 METAR KCLM 290353Z AUTO 32005KT 10SM -RA BKN050 BKN060 OVC080 09/08 A2995 RMK AO2 RAB0256 SLP142 P0013 T00890078 $=
201810290253 METAR KCLM 290253Z AUTO 28012KT 10SM BKN060 BKN080 OVC100 11/06 A2993 RMK AO2 SLP136 60000 T01060061 55000 $=
201810290153 METAR KCLM 290153Z AUTO 24007KT 10SM SCT065 SCT120 10/08 A2991 RMK AO2 SLP131 T01000078 $=
201810290053 METAR KCLM 290053Z AUTO 23004KT 10SM OVC065 11/08 A2992 RMK AO2 RAB05E20 SLP133 P0000 T01060078 $=
201810282353 METAR KCLM 282353Z AUTO 20003KT 10SM BKN070 OVC080 12/07 A2993 RMK AO2 SLP136 60000 T01220072 10144 20117 53002 $=
201810282253 METAR KCLM 282253Z AUTO 17005KT 10SM FEW065 12/06 A2992 RMK AO2 SLP132 T01220061 $=
201810282153 METAR KCLM 282153Z AUTO 25009KT 10SM BKN047 BKN060 13/06 A2992 RMK AO2 RAE02B30E46 SLP133 P0000 T01280061 $=
201810282053 METAR KCLM 282053Z AUTO 11005KT 8SM -RA SCT049 BKN065 OVC090 13/08 A2992 RMK AO2 RAB49 SLP134 P0000 60000 T01280083 51023 $=
201810281953 METAR KCLM 281953Z AUTO 00000KT 10SM FEW065 13/07 A2992 RMK AO2 SLP132 T01330067 $=
201810281853 METAR KCLM 281853Z AUTO 25010KT 10SM CLR 14/07 A2988 RMK AO2 SLP119 T01390072 $=
201810281753 METAR KCLM 281753Z AUTO 23013G20KT 10SM CLR 12/07 A2985 RMK AO2 SLP110 60028 T01220067 10122 20089 51010 $=
201810281653 METAR KCLM 281653Z AUTO 25013KT 10SM FEW060 SCT100 11/06 A2984 RMK AO2 RAB1554E27 SLP105 P0003 T01110061 $=
201810281553 METAR KCLM 281553Z AUTO 27012KT 10SM BKN046 BKN055 OVC110 10/07 A2985 RMK AO2 LTG DSNT E RAE46 SLP107 P0015 T01000072 $=
201810281544 SPECI KCLM 281544Z AUTO 26008KT 10SM -RA BKN048 BKN060 OVC110 10/07 A2984 RMK AO2 LTG DSNT E P0015 T01000067 $=
201810281534 SPECI KCLM 281534Z AUTO 21008KT 2SM RA OVC046 11/07 A2982 RMK AO2 P0015 T01060067 $=
201810281522 SPECI KCLM 281522Z AUTO 19005KT 3SM -RA BR OVC046 10/08 A2983 RMK AO2 P0008 T01000083 $=
201810281514 SPECI KCLM 281514Z AUTO 20005KT 2 1/2SM RA BR OVC048 10/09 A2984 RMK AO2 P0007 T01000089 $=
201810281453 METAR KCLM 281453Z AUTO 27011KT 8SM -RA BKN055 BKN070 OVC100 10/08 A2982 RMK AO2 RAE09B46 SLP100 P0002 60010 T01000083 53020 $=
201810281401 SPECI KCLM 281401Z AUTO 00000KT 10SM -RA OVC060 10/09 A2980 RMK AO2 P0000 T01000089 $=
201810281353 METAR KCLM 281353Z AUTO 05003KT 2 1/2SM -RA BR OVC060 09/09 A2980 RMK AO2 SLP090 P0007 T00940089 $=
201810281253 METAR KCLM 281253Z AUTO 20003KT 3SM -RA BR BKN060 BKN075 OVC100 09/08 A2976 RMK AO2 RAE13B22 SLP079 P0001 T00890083 $=
201810281217 SPECI KCLM 281217Z AUTO 15005KT 9SM FEW009 BKN050 OVC070 09/09 A2976 RMK AO2 RAE13 P0000 T00940089 $=
201810281153 METAR KCLM 281153Z AUTO 09003KT 4SM -RA BR BKN055 OVC075 10/09 A2976 RMK AO2 SLP080 P0007 60016 70086 T01000089 10111 20094 53021 $=
201810281053 METAR KCLM 281053Z AUTO 25005KT 8SM -RA FEW008 BKN065 OVC120 11/09 A2974 RMK AO2 RAB05E18B51 SLP071 P0001 T01060094 $=
201810281044 SPECI KCLM 281044Z AUTO 24005KT 10SM FEW006 SCT065 BKN080 11/09 A2973 RMK AO2 RAB05E18 P0001 T01060094 $=
201810280953 METAR KCLM 280953Z AUTO VRB04KT 10SM FEW055 SCT070 BKN110 11/09 A2971 RMK AO2 RAE44 SLP061 P0003 T01060094 $=
201810280909 SPECI KCLM 280909Z AUTO 27003KT 4SM -RA BR SCT005 OVC065 10/09 A2971 RMK AO2 P0000 T01000094 $=
201810280853 METAR KCLM 280853Z AUTO 27003KT 4SM -RA BR BKN005 OVC070 10/09 A2970 RMK AO2 RAB05 SLP058 P0005 60005 T01000094 53004 $=
201810280753 METAR KCLM 280753Z AUTO 25005KT 9SM OVC004 10/09 A2969 RMK AO2 SLP056 T01000089 401000022 $=
201810280714 SPECI KCLM 280714Z AUTO 26006KT 10SM OVC004 10/09 A2969 RMK AO2 T01000089 $=
201810280653 METAR KCLM 280653Z AUTO 26006KT 10SM OVC006 09/09 A2968 RMK AO2 SLP052 T00940089 $=
201810280553 METAR KCLM 280553Z AUTO 25009KT 10SM OVC006 09/08 A2969 RMK AO2 CIG 004V010 SLP054 60070 T00940083 10094 20083 55003 $=
201810280541 SPECI KCLM 280541Z AUTO 25008KT 10SM BKN006 BKN014 OVC060 09/08 A2969 RMK AO2 CIG 005V010 T00890083 $=
201810280516 SPECI KCLM 280516Z AUTO 27007KT 10SM SCT008 BKN014 OVC065 09/08 A2968 RMK AO2 T00890083 $=
201810280453 METAR KCLM 280453Z AUTO 27008KT 9SM SCT003 BKN009 OVC070 09/08 A2968 RMK AO2 RAE34 CIG 007V013 SLP051 P0007 T00890078 $=
201810280441 SPECI KCLM 280441Z AUTO 29003KT 10SM FEW003 BKN008 BKN065 08/07 A2966 RMK AO2 RAE34 P0007 T00830072 $=
201810280439 SPECI KCLM 280439Z AUTO 26004KT 10SM SCT008 OVC070 08/07 A2967 RMK AO2 RAE34 P0007 T00830072 $=
201810280430 SPECI KCLM 280430Z AUTO 21004KT 6SM -RA BR BKN008 OVC065 08/08 A2968 RMK AO2 P0007 T00830083 $=
201810280412 SPECI KCLM 280412Z AUTO 26005KT 4SM -RA BR FEW008 BKN065 OVC080 08/08 A2971 RMK AO2 P0005 T00830078 $=
201810280404 SPECI KCLM 280404Z AUTO 26008KT 2 1/2SM -RA BR FEW008 BKN070 OVC085 08/08 A2972 RMK AO2 VIS 1 3/4V5 PRESRR P0004 T00830078 $=
201810280353 METAR KCLM 280353Z AUTO 28006KT 3SM -RA BR FEW060 BKN075 OVC090 08/07 A2969 RMK AO2 SLP056 P0012 T00830072 $=
201810280341 SPECI KCLM 280341Z AUTO 00000KT 5SM -RA BR FEW060 BKN075 OVC090 08/08 A2967 RMK AO2 P0010 T00830078 $=
201810280332 SPECI KCLM 280332Z AUTO 17005KT 2 1/2SM RA BR FEW055 BKN070 OVC090 08/08 A2968 RMK AO2 P0009 T00830078 $=
201810280316 SPECI KCLM 280316Z AUTO 25005KT 4SM -RA BR BKN075 OVC090 08/07 A2970 RMK AO2 P0004 T00830072 $=
201810280300 SPECI KCLM 280300Z AUTO 32003KT 2SM -RA BR FEW013 BKN080 OVC090 08/07 A2969 RMK AO2 PRESFR P0003 T00830072 $=
201810280253 METAR KCLM 280253Z AUTO 00000KT 3SM -RA BR FEW013 BKN080 OVC110 08/08 A2970 RMK AO2 SLP059 P0008 60051 T00830078 58042 $=
201810280230 SPECI KCLM 280230Z AUTO 00000KT 3SM -RA BR SCT016 BKN080 OVC100 08/08 A2971 RMK AO2 PRESFR P0006 T00830078 $=
201810280209 SPECI KCLM 280209Z AUTO 26005KT 3SM -RA BR FEW008 OVC016 08/07 A2976 RMK AO2 P0003 T00830072 $=
201810280153 METAR KCLM 280153Z AUTO 27006KT 2 1/2SM -RA BR BKN017 OVC075 08/08 A2975 RMK AO2 SLP077 P0023 T00830078 $=
201810280144 SPECI KCLM 280144Z AUTO 26003KT 3SM -RA BR BKN018 BKN060 OVC075 08/08 A2975 RMK AO2 P0022 T00830078 $=
201810280115 SPECI KCLM 280115Z AUTO 00000KT 2SM RA BR OVC055 09/08 A2977 RMK AO2 P0014 T00890078 $=
201810280053 METAR KCLM 280053Z AUTO 23005KT 1 1/2SM RA BR BKN060 OVC075 08/08 A2979 RMK AO2 SLP089 P0020 T00830078 $=
201810280031 SPECI KCLM 280031Z AUTO 24006KT 1 1/2SM -RA BR BKN070 OVC080 09/07 A2981 RMK AO2 P0006 T00890072 $=
201810280018 SPECI KCLM 280018Z AUTO 26003KT 2SM -RA BR SCT065 OVC085 09/08 A2981 RMK AO2 P0002 T00890078 $=
201810272353 METAR KCLM 272353Z AUTO 25004KT 6SM -RA BR BKN070 OVC090 09/08 A2983 RMK AO2 RAB42 SLP101 P0000 60000 T00940078 10100 20089 58050 $=
201810272313 SPECI KCLM 272313Z AUTO 25003KT 8SM SCT010 OVC070 09/08 A2985 RMK AO2 T00940078 $=
201810272253 METAR KCLM 272253Z AUTO 24004KT 7SM OVC011 09/08 A2987 RMK AO2 RAB20E29 SLP117 P0000 T00940078 $=
201810272234 SPECI KCLM 272234Z AUTO 27004KT 7SM BKN012 OVC095 09/08 A2989 RMK AO2 RAB20E29 P0000 T00940078 $=
201810272226 SPECI KCLM 272226Z AUTO 30003KT 5SM -RA BR SCT010 OVC095 09/08 A2989 RMK AO2 RAB20 P0000 T00940078 $=
201810272212 SPECI KCLM 272212Z AUTO 26003KT 7SM BKN010 OVC090 09/08 A2990 RMK AO2 CIG 008V012 PRESFR T00940078 $=
201810272153 METAR KCLM 272153Z AUTO 26006KT 7SM OVC008 09/08 A2994 RMK AO2 RAB15E27 SLP138 P0000 T00940078 $=
201810272132 SPECI KCLM 272132Z AUTO 00000KT 7SM BKN007 OVC011 09/08 A2993 RMK AO2 RAB15E27 P0000 T00940078 $=
201810272101 SPECI KCLM 272101Z AUTO 27003KT 8SM OVC010 09/08 A2997 RMK AO2 CIG 007V013 T00940078 $=
201810272053 METAR KCLM 272053Z AUTO 27003KT 8SM BKN007 OVC012 09/08 A2997 RMK AO2 CIG 007V011 SLP151 T00940078 56031 $=
201810271953 METAR KCLM 271953Z AUTO 09006KT 8SM OVC006 09/07 A2999 RMK AO2 SLP157 T00890072 $=
201810271853 METAR KCLM 271853Z AUTO 10007KT 8SM OVC007 09/07 A3004 RMK AO2 CIG 006V011 SLP174 T00940072 $=
201810271753 METAR KCLM 271753Z AUTO VRB03KT 10SM BKN008 09/06 A3007 RMK AO2 SLP183 T00940061 10094 20022 58018 $=
201810271718 SPECI KCLM 271718Z AUTO VRB03KT 10SM BKN009 09/06 A3008 RMK AO2 T00890056 $=
201810271704 SPECI KCLM 271704Z AUTO 00000KT 10SM FEW009 09/04 A3008 RMK AO2 T00940039 $=
201810271653 METAR KCLM 271653Z AUTO 00000KT 10SM CLR 08/03 A3010 RMK AO2 SLP194 T00780028 $=
201810271553 METAR KCLM 271553Z AUTO 24004KT 10SM CLR 04/02 A3011 RMK AO2 SLP198 T00440022 $=
201810271544 SPECI KCLM 271544Z AUTO 00000KT 10SM SCT007 04/02 A3010 RMK AO2 T00390017 $=
201810271508 SPECI KCLM 271508Z AUTO 23005KT 10SM BKN007 04/01 A3012 RMK AO2 T00390011 $=
201810271453 METAR KCLM 271453Z AUTO 21003KT 10SM FEW008 03/00 A3012 RMK AO2 SLP201 T00280000 57004 $=
201810271353 METAR KCLM 271353Z AUTO 24007KT 10SM CLR 04/01 A3013 RMK AO2 SLP202 T00440011 $=
201810271253 METAR KCLM 271253Z AUTO 21004KT 10SM CLR 03/01 A3013 RMK AO2 SLP203 T00280006 $=
201810271153 METAR KCLM 271153Z AUTO 21003KT 10SM CLR 03/01 A3013 RMK AO2 SLP204 70007 T00280006 10094 20022 58001 $=
201810271053 METAR KCLM 271053Z AUTO 22004KT 10SM CLR 06/02 A3013 RMK AO2 SLP205 T00610017 $=
201810270953 METAR KCLM 270953Z AUTO 23006KT 10SM CLR 07/02 A3013 RMK AO2 SLP204 T00720022 $=
201810270853 METAR KCLM 270853Z AUTO 24009KT 10SM CLR 08/03 A3013 RMK AO2 SLP205 T00780033 58003 $=
201810270753 METAR KCLM 270753Z AUTO 24006KT 10SM CLR 08/04 A3014 RMK AO2 SLP207 T00830039 401610083 $=
201810270653 METAR KCLM 270653Z AUTO 24010KT 10SM CLR 09/04 A3014 RMK AO2 SLP207 T00940039 $=
201810270553 METAR KCLM 270553Z AUTO 25009KT 10SM CLR 09/05 A3014 RMK AO2 SLP207 T00940050 10133 20089 53013 $=
201810270453 METAR KCLM 270453Z AUTO 26011KT 10SM CLR 10/06 A3012 RMK AO2 SLP202 T01000061 $=
201810270353 METAR KCLM 270353Z AUTO 26006KT 10SM CLR 09/06 A3010 RMK AO2 SLP194 T00940061 $=
201810270253 METAR KCLM 270253Z AUTO 25005KT 10SM CLR 11/06 A3010 RMK AO2 SLP194 T01060061 51012 $=
201810270153 METAR KCLM 270153Z AUTO 28007KT 10SM CLR 12/06 A3010 RMK AO2 SLP193 T01170061 $=
201810270053 METAR KCLM 270053Z AUTO 00000KT 7SM CLR 13/07 A3008 RMK AO2 SLP186 T01280072 $=
201810262353 METAR KCLM 262353Z AUTO 28009G19KT 7SM CLR 13/08 A3007 RMK AO2 RAE20 SLP182 P0000 60000 T01330078 10161 20128 51015 $=
201810262253 METAR KCLM 262253Z AUTO 30010G18KT 8SM -RA FEW043 14/08 A3006 RMK AO2 SLP179 P0000 T01390083 $=
201810262153 METAR KCLM 262153Z AUTO 31011G18KT 10SM -RA CLR 13/09 A3004 RMK AO2 SLP172 P0000 T01330094 $=
201810262053 METAR KCLM 262053Z AUTO 30014G22KT 10SM -RA CLR 13/10 A3002 RMK AO2 PK WND 30028/2042 SLP167 P0000 60000 T01280100 51020=
201810261953 METAR KCLM 261953Z AUTO 30016G25KT 10SM -RA CLR 13/11 A3001 RMK AO2 RAB29 SLP164 P0000 T01330106=
201810261853 METAR KCLM 261853Z AUTO VRB06KT 10SM FEW030 16/11 A2999 RMK AO2 SLP156 T01610111=
201810261753 METAR KCLM 261753Z AUTO 07004KT 10SM BKN065 14/13 A2996 RMK AO2 SLP147 60007 T01440128 10150 20100 53028=
201810261653 METAR KCLM 261653Z AUTO 26007KT 10SM CLR 14/11 A2993 RMK AO2 SLP135 T01390111=
201810261553 METAR KCLM 261553Z AUTO 14005KT 10SM FEW010 BKN060 13/12 A2990 RMK AO2 RAE16 SLP126 P0000 T01330122=
201810261515 SPECI KCLM 261515Z AUTO 27011KT 9SM -RA SCT010 BKN055 OVC070 13/13 A2989 RMK AO2 P0000 T01330128=
201810261453 METAR KCLM 261453Z AUTO 29008KT 8SM -RA OVC012 13/12 A2988 RMK AO2 RAE19B36 SLP118 P0002 60007 T01330122 53011=
201810261440 SPECI KCLM 261440Z AUTO 00000KT 6SM -RA BR BKN013 BKN038 OVC065 12/11 A2988 RMK AO2 RAE19B36 P0002 T01170111=
201810261406 SPECI KCLM 261406Z AUTO 15003KT 6SM -RA BR SCT014 BKN075 OVC095 11/11 A2986 RMK AO2 P0000 T01110111=
201810261353 METAR KCLM 261353Z AUTO 20003KT 7SM -RA BKN014 BKN042 OVC080 12/12 A2986 RMK AO2 SLP111 P0004 T01170117=
201810261348 SPECI KCLM 261348Z AUTO 17004KT 7SM -RA BKN014 BKN026 OVC075 12/11 A2986 RMK AO2 P0004=
201810261253 METAR KCLM 261253Z AUTO 18003KT 4SM -RA BR SCT003 BKN070 OVC100 11/10 A2985 RMK AO2 RAB36 SLP109 P0001 T01060100=
201810261251 SPECI KCLM 261251Z AUTO 00000KT 4SM -RA BR SCT005 BKN065 OVC100 11/10 A2985 RMK AO2 RAB36 P0001=
201810261249 SPECI KCLM 261249Z AUTO 14003KT 4SM -RA BR BKN005 BKN041 OVC095 11/10 A2985 RMK AO2 RAB36 P0001=
201810261243 SPECI KCLM 261243Z AUTO 00000KT 2SM -RA BR BKN002 BKN013 OVC090 11/10 A2985 RMK AO2 RAB36 P0001 T01060100=
201810261235 SPECI KCLM 261235Z AUTO 00000KT 1 3/4SM BR BKN001 OVC090 10/10 A2984 RMK AO2 T01000100=
201810261225 SPECI KCLM 261225Z AUTO 23003KT 3SM BR OVC001 11/10 A2984 RMK AO2 T01060100=
201810261217 SPECI KCLM 261217Z AUTO 00000KT 1 1/4SM BR OVC001 11/10 A2983 RMK AO2 T01060100=
201810261215 SPECI KCLM 261215Z AUTO 00000KT 3/4SM BR OVC003 11/10 A2983 RMK AO2 T01060100=
201810261203 SPECI KCLM 261203Z AUTO 00000KT 1/4SM FG VV002 11/10 A2981 RMK AO2 T01060100=
201810261153 METAR KCLM 261153Z AUTO 13003KT 1/2SM FG VV001 11/10 A2981 RMK AO2 SLP094 60006 70013 T01060100 10106 20100 58002=
201810261135 SPECI KCLM 261135Z AUTO 32003KT 1/4SM FG VV001 11/10 A2981 RMK AO2 T01060100=
201810261053 METAR KCLM 261053Z AUTO 26003KT 1/4SM FG VV002 11/11 A2982 RMK AO2 RAB20E29 SLP098 P0000 T01060106=
201810261028 SPECI KCLM 261028Z AUTO 28004KT 1/4SM -RA FG VV002 11/10 A2982 RMK AO2 RAB20 P0000 T01060100=
201810261019 SPECI KCLM 261019Z AUTO 30004KT 1 3/4SM BR OVC002 11/10 A2982 RMK AO2 T01060100=
201810261003 SPECI KCLM 261003Z AUTO 29003KT 3SM BR OVC002 11/10 A2981 RMK AO2 T01060100=
201810260953 METAR KCLM 260953Z AUTO 22004KT 2 1/2SM BR OVC002 11/10 A2981 RMK AO2 RAE10 SLP096 P0000 T01060100=
201810260944 SPECI KCLM 260944Z AUTO 27003KT 1 3/4SM BR OVC002 11/10 A2980 RMK AO2 RAE10 P0000 T01060100=
201810260926 SPECI KCLM 260926Z AUTO 29005KT 1SM BR BKN001 OVC035 11/10 A2981 RMK AO2 RAE10 P0000 T01060100=
201810260903 SPECI KCLM 260903Z AUTO 25003KT 2 1/2SM -RA BR BKN001 OVC031 11/10 A2981 RMK AO2 P0000 T01060100=
201810260853 METAR KCLM 260853Z AUTO 23003KT 1 3/4SM -RA BR BKN003 OVC008 11/11 A2981 RMK AO2 RAE0755B10 SLP095 P0003 60006 T01060106 56031=
201810260819 SPECI KCLM 260819Z AUTO 27003KT 1 1/4SM -RA BR OVC002 11/10 A2982 RMK AO2 RAE0755B10 P0000 T01060100=
201810260805 SPECI KCLM 260805Z AUTO 25004KT 1/2SM FG VV002 11/10 A2983 RMK AO2 RAE0755 P0000 T01060100=
201810260753 METAR KCLM 260753Z AUTO 00000KT 1 3/4SM -RA BR OVC002 11/10 A2984 RMK AO2 RAE17B38 SLP104 P0002 T01060100 401390067=
201810260740 SPECI KCLM 260740Z AUTO 26003KT 3/4SM -RA BR OVC002 10/10 A2985 RMK AO2 RAE17B38 P0002 T01000100=
201810260731 SPECI KCLM 260731Z AUTO 30004KT 1SM BR BKN002 OVC070 10/10 A2985 RMK AO2 RAE17 P0000 T01000100=
201810260718 SPECI KCLM 260718Z AUTO 31005KT 1/2SM FG BKN003 OVC100 10/09 A2986 RMK AO2 RAE17 P0000 T01000094=
201810260704 SPECI KCLM 260704Z AUTO 32004KT 3/4SM -RA BR SCT001 BKN085 OVC100 10/09 A2986 RMK AO2 P0000 T01000094=
201810260653 METAR KCLM 260653Z AUTO 00000KT 1 1/2SM -RA BR BKN085 OVC100 10/09 A2985 RMK AO2 RAE13B34 SLP110 P0001 T01000094=
201810260636 SPECI KCLM 260636Z AUTO 00000KT 2 1/2SM -RA BR OVC095 10/09 A2987 RMK AO2 RAE13B34 P0000 T01000094=
201810260624 SPECI KCLM 260624Z AUTO 22003KT 3SM BR FEW018 OVC095 10/09 A2988 RMK AO2 RAE13 P0000 T01000094=
201810260617 SPECI KCLM 260617Z AUTO 22006KT 1 3/4SM BR SCT016 OVC100 10/09 A2989 RMK AO2 RAE13 P0000 T01000094=
201810260607 SPECI KCLM 260607Z AUTO 22004KT 1/2SM -RA FG BKN016 OVC100 10/09 A2989 RMK AO2 P0000 T01000094=
201810260553 METAR KCLM 260553Z AUTO 23003KT 1/4SM -RA FG FEW001 BKN012 OVC060 10/09 A2990 RMK AO2 RAB37 SLP127 P0002 60002 T01000094 10133 20100 58019=
201810260543 SPECI KCLM 260543Z AUTO 00000KT 1/4SM -RA FG SCT001 BKN026 OVC060 10/09 A2991 RMK AO2 RAB37 P0002 T01000094=
201810260533 SPECI KCLM 260533Z AUTO 00000KT 3/4SM BR OVC001 10/09 A2990 RMK AO2 T01000094=
201810260527 SPECI KCLM 260527Z AUTO 00000KT 1 3/4SM BR OVC002 10/09 A2990 RMK AO2 PRESFR T01000094=
201810260516 SPECI KCLM 260516Z AUTO 00000KT 3SM BR BKN002 OVC070 10/09 A2992 RMK AO2 T01000094=
201810260507 SPECI KCLM 260507Z AUTO 00000KT 4SM BR SCT002 BKN070 OVC100 10/09 A2993 RMK AO2 T01000094=
201810260453 METAR KCLM 260453Z AUTO 00000KT 4SM BR BKN070 BKN100 10/09 A2993 RMK AO2 SLP137 T01000094=
201810260417 SPECI KCLM 260417Z AUTO 00000KT 4SM BR OVC060 11/10 A2995 RMK AO2 T01060100=
201810260403 SPECI KCLM 260403Z AUTO 00000KT 2 1/2SM BR SCT028 OVC060 11/11 A2994 RMK AO2 VIS 1 1/2V4 T01110106=
201810260353 METAR KCLM 260353Z AUTO 00000KT 5SM BR BKN028 OVC060 11/11 A2995 RMK AO2 SLP141 T01110106=
201810260253 METAR KCLM 260253Z AUTO 02003KT 8SM OVC020 13/12 A2996 RMK AO2 SLP146 60000 T01280117 57014=
201810260153 METAR KCLM 260153Z AUTO 13005KT 10SM OVC021 13/11 A2997 RMK AO2 SLP151 T01280111=
201810260128 SPECI KCLM 260128Z AUTO 11006KT 10SM FEW016 BKN021 OVC070 13/11 A2997 RMK AO2 T01280111=
201810260053 METAR KCLM 260053Z AUTO 10005KT 5SM BR FEW026 OVC065 12/11 A2998 RMK AO2 RAE24 SLP154 P0000 T01220111=
201810252353 METAR KCLM 252353Z AUTO 15004KT 5SM -RA BR FEW041 BKN070 OVC090 12/11 A3000 RMK AO2 RAB00 SLP159 P0003 60003 T01220111 10139 20111 53002=
201810252342 SPECI KCLM 252342Z AUTO 00000KT 3SM -RA BR SCT022 BKN041 OVC090 12/11 A3000 RMK AO2 RAB00 P0003 T01220111=
201810252327 SPECI KCLM 252327Z AUTO 00000KT 2SM -RA BR BKN022 BKN050 OVC070 12/11 A3001 RMK AO2 RAB00 P0002 T01220106=
201810252314 SPECI KCLM 252314Z AUTO 00000KT 7SM -RA BKN023 BKN070 OVC095 12/11 A3000 RMK AO2 RAB00 P0000 T01220111=
201810252253 METAR KCLM 252253Z AUTO 12004KT 8SM FEW025 OVC090 12/11 A2999 RMK AO2 RAB17E42 SLP156 P0000 T01220106=
201810252153 METAR KCLM 252153Z AUTO 09003KT 10SM FEW011 SCT100 BKN110 13/11 A2999 RMK AO2 SLP156 T01330106=
201810252140 SPECI KCLM 252140Z AUTO 00000KT 10SM FEW011 BKN110 14/11 A2998 RMK AO2 T01390106=
201810252129 SPECI KCLM 252129Z AUTO 00000KT 10SM BKN013 BKN120 13/11 A3000 RMK AO2 T01330106=
201810252105 SPECI KCLM 252105Z AUTO 00000KT 10SM BKN015 13/10 A2999 RMK AO2 T01330100=
201810252053 METAR KCLM 252053Z AUTO 00000KT 9SM FEW019 SCT070 13/11 A2999 RMK AO2 SLP158 60000 T01330106 53003=
201810251953 METAR KCLM 251953Z AUTO 00000KT 6SM BR BKN060 OVC070 12/11 A2999 RMK AO2 SLP157 T01170106=
201810251853 METAR KCLM 251853Z AUTO 00000KT 4SM BR OVC060 12/11 A2998 RMK AO2 RAE06 SLP154 P0000 T01170106=
201810251848 SPECI KCLM 251848Z AUTO 00000KT 4SM BR FEW004 OVC060 12/11 A2998 RMK AO2 RAE06 P0000=
201810251753 METAR KCLM 251753Z AUTO 00000KT 3SM -RA BR SCT044 OVC055 12/11 A2998 RMK AO2 RAB51 SLP153 P0002 60002 T01170106 10117 20078 53001=
201810251719 SPECI KCLM 251719Z AUTO 35003KT 4SM BR FEW003 OVC060 11/10 A2997 RMK AO2 T01110100=
201810251704 SPECI KCLM 251704Z AUTO 27003KT 5SM BR BKN003 OVC060 11/10 A2996 RMK AO2 T01060100=
201810251653 METAR KCLM 251653Z AUTO 00000KT 4SM BR SCT003 OVC060 11/10 A2996 RMK AO2 SLP148 T01060100=
201810251626 SPECI KCLM 251626Z AUTO 23003KT 6SM BR SCT005 BKN060 11/09 A2996 RMK AO2 T01060094=
201810251613 SPECI KCLM 251613Z AUTO 00000KT 6SM BR BKN005 OVC055 11/09 A2996 RMK AO2 T01060094=
201810251605 SPECI KCLM 251605Z AUTO 00000KT 6SM BR SCT005 OVC060 10/09 A2997 RMK AO2 T01000094=
201810251553 METAR KCLM 251553Z AUTO 31003KT 6SM BR BKN060 10/09 A2997 RMK AO2 RAB02E15 SLP150 P0000 T01000089=
201810251453 METAR KCLM 251453Z AUTO 00000KT 7SM BKN060 OVC075 09/08 A2998 RMK AO2 SLP153 T00890083 55001=
201810251353 METAR KCLM 251353Z AUTO 00000KT 6SM BR OVC060 09/08 A2998 RMK AO2 SLP152 T00890083=
201810251253 METAR KCLM 251253Z AUTO 00000KT 5SM BR SCT065 08/07 A2998 RMK AO2 SLP152 T00830072=
201810251153 METAR KCLM 251153Z AUTO 00000KT 5SM BR OVC060 09/08 A2998 RMK AO2 SLP154 T00940083 10100 20067 58002=
201810251134 SPECI KCLM 251134Z AUTO 20003KT 3SM BR BKN060 09/08 A2999 RMK AO2 T00890083=
201810251117 SPECI KCLM 251117Z AUTO 26003KT 2 1/2SM BR BKN060 08/08 A2999 RMK AO2 T00830078=
201810251053 METAR KCLM 251053Z AUTO 00000KT 6SM BR OVC060 10/09 A3000 RMK AO2 SLP159 T01000089=
201810251019 SPECI KCLM 251019Z AUTO 22004KT 5SM BR SCT006 SCT011 OVC060 09/09 A3001 RMK AO2 T00940089=
201810250953 METAR KCLM 250953Z AUTO 00000KT 5SM BR BKN006 OVC060 09/08 A2999 RMK AO2 SLP158 T00890083=
201810250943 SPECI KCLM 250943Z AUTO 22004KT 5SM BR BKN006 OVC060 09/08 A2999 RMK AO2 T00890083=
201810250914 SPECI KCLM 250914Z AUTO 00000KT 6SM BR OVC004 09/08 A2999 RMK AO2 T00890083=
201810250853 METAR KCLM 250853Z AUTO 00000KT 6SM BR OVC005 08/08 A2999 RMK AO2 SLP156 T00830078 51001=
201810250836 SPECI KCLM 250836Z AUTO 00000KT 4SM BR OVC005 08/07 A2999 RMK AO2 T00780067=
201810250827 SPECI KCLM 250827Z AUTO 00000KT 2SM BR BKN006 07/07 A2999 RMK AO2 VIS 1V4 T00720067=
201810250817 SPECI KCLM 250817Z AUTO 00000KT 1 1/4SM BR SCT006 07/06 A2999 RMK AO2 VIS 1V3 T00670061=
201810250809 SPECI KCLM 250809Z AUTO 00000KT 2 1/2SM BR FEW006 07/06 A2998 RMK AO2 T00670061=
201810250753 METAR KCLM 250753Z AUTO 00000KT 4SM BR CLR 08/07 A2999 RMK AO2 SLP156 T00780072 401170033=
201810250653 METAR KCLM 250653Z AUTO 27003KT 6SM BR FEW060 SCT070 BKN090 09/08 A2999 RMK AO2 SLP156 T00890083=
201810250553 METAR KCLM 250553Z AUTO 00000KT 6SM BR BKN070 BKN095 09/08 A2999 RMK AO2 RAE01B31E41 SLP155 P0000 60000 T00890083 10117 20089 50003=
201810250453 METAR KCLM 250453Z AUTO 00000KT 7SM -RA BKN075 OVC095 10/09 A2999 RMK AO2 RAB50 SLP156 P0000 T01000089=
201810250353 METAR KCLM 250353Z AUTO 26004KT 8SM BKN075 OVC090 11/09 A3000 RMK AO2 SLP158 T01060094=
201810250253 METAR KCLM 250253Z AUTO 24006KT 7SM BKN100 BKN120 10/09 A2998 RMK AO2 SLP152 T01000089 58001=
201810250153 METAR KCLM 250153Z AUTO 00000KT 8SM OVC095 10/09 A2999 RMK AO2 SLP157 T01000089=
201810250053 METAR KCLM 250053Z AUTO 00000KT 8SM OVC100 11/09 A2998 RMK AO2 SLP153 T01060094=
201810242353 METAR KCLM 242353Z AUTO 13004KT 10SM FEW120 12/09 A2998 RMK AO2 SLP153 T01170094 10117 20089 58012=
201810242253 METAR KCLM 242253Z AUTO 33003KT 10SM FEW120 11/09 A3002 RMK AO2 SLP166 T01110094=
201810242209 SPECI KCLM 242209Z AUTO 00000KT 8SM FEW005 BKN120 11/09 A3003 RMK AO2 T01060089=
201810242153 METAR KCLM 242153Z AUTO 01003KT 10SM BKN120 11/09 A3003 RMK AO2 SLP168 T01060089=
201810242053 METAR KCLM 242053Z AUTO 35004KT 9SM SCT002 11/08 A3001 RMK AO2 SLP165 T01060083 58004=
201810242045 SPECI KCLM 242045Z AUTO 00000KT 7SM BKN002 11/09 A3002 RMK AO2 T01060089=
201810242037 SPECI KCLM 242037Z AUTO 01003KT 2SM BR OVC002 10/09 A3002 RMK AO2 VIS 3/4V5 T01000089=
201810242030 SPECI KCLM 242030Z AUTO 31003KT 1/2SM FG OVC002 09/09 A3002 RMK AO2 T00940089=
201810242009 SPECI KCLM 242009Z AUTO 32004KT 1/4SM FG VV002 09/08 A3003 RMK AO2 T00940083=
201810241953 METAR KCLM 241953Z AUTO 02005KT 3/4SM BR VV003 10/08 A3003 RMK AO2 SLP170 T01000083=
201810241951 SPECI KCLM 241951Z AUTO 35004KT 3/4SM BR VV003 10/08 A3003 RMK AO2 VIS 1/4V5=
201810241950 SPECI KCLM 241950Z AUTO 34005KT 1SM BR VV003 10/09 A3003 RMK AO2 VIS 1/4V5=
201810241944 SPECI KCLM 241944Z AUTO 05004KT 2 1/2SM BR FEW003 11/08 A3003 RMK AO2 T01060083=
201810241853 METAR KCLM 241853Z AUTO 04004KT 10SM CLR 11/07 A3003 RMK AO2 SLP169 T01060072=
201810241753 METAR KCLM 241753Z AUTO 00000KT 10SM CLR 11/09 A3004 RMK AO2 SLP173 T01060089 10106 20033 58001=
201810241653 METAR KCLM 241653Z AUTO 00000KT 10SM FEW065 09/08 A3005 RMK AO2 SLP175 T00940078=
201810241553 METAR KCLM 241553Z AUTO 22005KT 10SM CLR 07/06 A3004 RMK AO2 SLP174 T00720061=
201810241536 SPECI KCLM 241536Z AUTO 00000KT 4SM BR CLR 06/05 A3004 RMK AO2 T00560050=
201810241526 SPECI KCLM 241526Z AUTO 22003KT 1 3/4SM BR CLR 04/04 A3004 RMK AO2 T00440044=
201810241517 SPECI KCLM 241517Z AUTO 23005KT 3SM BR CLR 05/04 A3004 RMK AO2 T00500044=
201810241511 SPECI KCLM 241511Z AUTO 24003KT 3/4SM BR CLR 04/03 A3004 RMK AO2 T00440033=
201810241456 SPECI KCLM 241456Z AUTO 21003KT 1 3/4SM BR CLR 04/04 A3004 RMK AO2 T00440044=
201810241453 METAR KCLM 241453Z AUTO 22004KT 3SM BR CLR 05/05 A3004 RMK AO2 SLP176 T00500050 57003=
201810241448 SPECI KCLM 241448Z AUTO 22004KT 3SM BR CLR 05/05 A3004 RMK AO2=
201810241421 SPECI KCLM 241421Z AUTO 00000KT 1 3/4SM BR CLR 03/03 A3004 RMK AO2 VIS 1/2V5 T00330028=
201810241404 SPECI KCLM 241404Z AUTO 23006KT 10SM CLR 06/06 A3005 RMK AO2 T00610056=
201810241353 METAR KCLM 241353Z AUTO 23005KT 2SM BR CLR 05/04 A3005 RMK AO2 SLP176 T00500044=
201810241257 SPECI KCLM 241257Z AUTO 22005KT 3SM BR CLR 06/05 A3005 RMK AO2 T00610050=
201810241253 METAR KCLM 241253Z AUTO 22003KT 1 1/4SM BR CLR 06/05 A3005 RMK AO2 SLP178 T00610050=
201810241245 SPECI KCLM 241245Z AUTO 00000KT 1 1/2SM BR CLR 04/04 A3005 RMK AO2 T00440044=
201810241227 SPECI KCLM 241227Z AUTO 00000KT 4SM BR CLR 06/06 A3005 RMK AO2 T00610056=
201810241218 SPECI KCLM 241218Z AUTO 00000KT 2 1/2SM BR FEW065 07/06 A3005 RMK AO2 T00720056=
201810241153 METAR KCLM 241153Z AUTO 22003KT 10SM OVC065 06/06 A3005 RMK AO2 SLP178 T00610056 10089 20044 52005=
201810241053 METAR KCLM 241053Z AUTO 00000KT 4SM BR CLR 05/04 A3005 RMK AO2 SLP177 T00500044=
201810241034 SPECI KCLM 241034Z AUTO 23003KT 7SM CLR 06/06 A3005 RMK AO2 T00610056=
201810241027 SPECI KCLM 241027Z AUTO 25003KT 2 1/2SM BR CLR 06/06 A3005 RMK AO2 T00610056=
201810241017 SPECI KCLM 241017Z AUTO 00000KT 6SM BR CLR 06/06 A3005 RMK AO2 T00610056=
201810241008 SPECI KCLM 241008Z AUTO 00000KT 2SM BR CLR 06/04 A3005 RMK AO2 T00560044=
201810240953 METAR KCLM 240953Z AUTO 20003KT 5SM BR CLR 06/04 A3004 RMK AO2 SLP174 T00560044=
201810240941 SPECI KCLM 240941Z AUTO 00000KT 6SM BR CLR 05/05 A3004 RMK AO2 T00500050=
201810240902 SPECI KCLM 240902Z AUTO 00000KT 2 1/2SM BR FEW002 07/06 A3004 RMK AO2 VIS 3/4V5 T00670056=
201810240853 METAR KCLM 240853Z AUTO 00000KT 2SM BR CLR 07/06 A3004 RMK AO2 SLP173 T00670056 53005=
201810240831 SPECI KCLM 240831Z AUTO 00000KT 4SM BR CLR 08/07 A3004 RMK AO2 T00780067=
201810240820 SPECI KCLM 240820Z AUTO 12004KT 1 1/2SM BR FEW002 06/06 A3004 RMK AO2 T00610061=
201810240815 SPECI KCLM 240815Z AUTO 20003KT 3/4SM BR CLR 07/06 A3004 RMK AO2 T00670056=
201810240806 SPECI KCLM 240806Z AUTO 14004KT 1 3/4SM BR CLR 06/05 A3003 RMK AO2 VIS 3/4V5 T00560050=
201810240753 METAR KCLM 240753Z AUTO 00000KT 3SM BR CLR 06/05 A3003 RMK AO2 SLP170 T00610050 401390022=
201810240751 SPECI KCLM 240751Z AUTO 00000KT 2SM BR CLR 06/05 A3003 RMK AO2=
201810240653 METAR KCLM 240653Z AUTO 22005KT 4SM BR BKN060 07/06 A3002 RMK AO2 SLP168 T00720061=
201810240632 SPECI KCLM 240632Z AUTO 00000KT 3SM BR BKN060 07/06 A3002 RMK AO2 T00720061=
201810240623 SPECI KCLM 240623Z AUTO 00000KT 1 3/4SM BR SCT065 07/07 A3002 RMK AO2 T00720067=
201810240614 SPECI KCLM 240614Z AUTO 22004KT 3SM BR CLR 08/07 A3001 RMK AO2 T00830072=
201810240602 SPECI KCLM 240602Z AUTO 23004KT 1 1/2SM BR CLR 08/07 A3001 RMK AO2 VIS 1/2V5 T00780072=
201810240553 METAR KCLM 240553Z AUTO 19003KT 7SM FEW043 09/08 A3001 RMK AO2 SLP162 60000 T00890083 10117 20078 51017=
201810240453 METAR KCLM 240453Z AUTO 34005KT 9SM FEW047 BKN060 11/09 A2999 RMK AO2 SLP158 T01060089=
201810240353 METAR KCLM 240353Z AUTO 22006KT 6SM BR BKN055 OVC070 10/09 A2997 RMK AO2 RAE0259 SLP150 P0000 T01000094=
201810240253 METAR KCLM 240253Z AUTO 00000KT 6SM -RA BR OVC050 10/09 A2996 RMK AO2 RAB26 SLP146 P0000 60000 T01000089 51015=
201810240153 METAR KCLM 240153Z AUTO 11004KT 5SM BR FEW016 SCT050 OVC065 09/08 A2996 RMK AO2 SLP146 T00940083=
201810240053 METAR KCLM 240053Z AUTO 35003KT 5SM BR CLR 10/09 A2992 RMK AO2 SLP135 T01000089=
201810232353 METAR KCLM 232353Z AUTO 00000KT 6SM BR FEW100 FEW120 11/09 A2991 RMK AO2 SLP132 T01110089 10139 20106 53007=
201810232253 METAR KCLM 232253Z AUTO 00000KT 10SM FEW075 14/08 A2991 RMK AO2 SLP128 T01390078=
201810232153 METAR KCLM 232153Z AUTO 12007KT 9SM CLR 14/08 A2988 RMK AO2 SLP119 T01390078=
201810232053 METAR KCLM 232053Z AUTO VRB03KT 9SM CLR 13/08 A2989 RMK AO2 SLP123 T01330078 58003=
201810232005 SPECI KCLM 232005Z AUTO 16005KT 9SM FEW021 12/08 A2989 RMK AO2 T01170083=
201810231953 METAR KCLM 231953Z AUTO 18005KT 9SM BKN019 12/08 A2989 RMK AO2 SLP123 T01170083=
201810231853 METAR KCLM 231853Z AUTO 21004KT 9SM OVC015 11/08 A2990 RMK AO2 SLP127 T01110083=
201810231848 SPECI KCLM 231848Z AUTO 24005KT 9SM OVC015 11/08 A2990 RMK AO2=
201810231814 SPECI KCLM 231814Z AUTO 27006KT 9SM BKN013 11/08 A2989 RMK AO2 T01060083=
201810231753 METAR KCLM 231753Z AUTO 27006KT 9SM FEW011 11/08 A2989 RMK AO2 SLP123 T01060083 10106 20022 51005=
201810231751 SPECI KCLM 231751Z AUTO 27006KT 9SM SCT011 11/08 A2989 RMK AO2=
201810231736 SPECI KCLM 231736Z AUTO 25007KT 9SM BKN010 10/08 A2989 RMK AO2 CIG 009V013 T01000083=
201810231653 METAR KCLM 231653Z AUTO 24005KT 6SM BR OVC006 09/08 A2989 RMK AO2 CIG 003V009 SLP122 T00890078=
201810231645 SPECI KCLM 231645Z AUTO 24006KT 5SM BR OVC006 08/08 A2989 RMK AO2 CIG 002V009 T00830078=
201810231630 SPECI KCLM 231630Z AUTO 25006KT 4SM BR OVC004 08/08 A2988 RMK AO2 CIG 001V007 T00830083=
201810231622 SPECI KCLM 231622Z AUTO 27007KT 2 1/2SM BR OVC002 08/08 A2988 RMK AO2 CIG 001V007 T00830078=
201810231606 SPECI KCLM 231606Z AUTO 27006KT 1 3/4SM BR OVC002 08/07 A2988 RMK AO2 T00780067=
201810231553 METAR KCLM 231553Z AUTO 23005KT 6SM BR OVC002 07/06 A2987 RMK AO2 SLP118 T00670061=
201810231550 SPECI KCLM 231550Z AUTO 23004KT 5SM BR OVC002 07/07 A2987 RMK AO2=
201810231530 SPECI KCLM 231530Z AUTO 28007KT 2SM BR OVC002 08/07 A2987 RMK AO2 T00780072=
201810231453 METAR KCLM 231453Z AUTO 27009KT 1/2SM FG VV002 08/07 A2986 RMK AO2 SLP112 T00780072 51004=
201810231353 METAR KCLM 231353Z AUTO 27004KT 1/4SM FG VV002 05/05 A2985 RMK AO2 SLP110 T00500050=
201810231351 SPECI KCLM 231351Z AUTO 27003KT 1/4SM FG VV002 05/05 A2985 RMK AO2=
201810231340 SPECI KCLM 231340Z AUTO 25004KT 1 3/4SM BR BKN003 05/04 A2985 RMK AO2 T00500039=
201810231334 SPECI KCLM 231334Z AUTO 27003KT 6SM BR BKN003 02/02 A2985 RMK AO2 CIG 001V005 T00220017=
201810231310 SPECI KCLM 231310Z AUTO 00000KT 8SM BKN001 02/02 A2985 RMK AO2 T00220017=
201810231300 SPECI KCLM 231300Z AUTO 26004KT 9SM SCT002 03/03 A2984 RMK AO2 T00330028=
201810231253 METAR KCLM 231253Z AUTO 25003KT 9SM CLR 03/03 A2984 RMK AO2 SLP108 T00330028=
201810231204 SPECI KCLM 231204Z AUTO 22004KT 3SM BR CLR 04/04 A2984 RMK AO2 T00440039=
201810231153 METAR KCLM 231153Z AUTO 00000KT 1 1/4SM BR CLR 04/03 A2984 RMK AO2 VIS 1/2V2 1/2 SLP105 T00440033 10056 20022 58005=
201810231144 SPECI KCLM 231144Z AUTO 00000KT 1 3/4SM BR CLR 04/03 A2984 RMK AO2 T00390028=
201810231128 SPECI KCLM 231128Z AUTO 00000KT 3SM BR CLR 04/04 A2984 RMK AO2 T00440039=
201810231057 SPECI KCLM 231057Z AUTO 00000KT 1 1/4SM BR CLR 04/03 A2984 RMK AO2 VIS 1/4V4 T00390033=
201810231053 METAR KCLM 231053Z AUTO 23004KT 3SM BR CLR 03/03 A2984 RMK AO2 SLP105 T00330028=
201810231042 SPECI KCLM 231042Z AUTO 24003KT 3SM BR CLR 03/03 A2984 RMK AO2 T00330033=
201810231024 SPECI KCLM 231024Z AUTO 00000KT 1 3/4SM BR CLR 03/03 A2984 RMK AO2 VIS 1V4 T00330028=
201810231005 SPECI KCLM 231005Z AUTO 00000KT 3SM BR CLR 05/04 A2985 RMK AO2 T00500039=
201810230953 METAR KCLM 230953Z AUTO 22003KT 1 1/4SM BR CLR 04/04 A2985 RMK AO2 SLP110 T00440039=
201810230935 SPECI KCLM 230935Z AUTO 00000KT 2 1/2SM BR CLR 04/03 A2985 RMK AO2 VIS 1 1/4V4 T00440033=
201810230916 SPECI KCLM 230916Z AUTO 00000KT 3SM BR CLR 03/03 A2985 RMK AO2 T00330028=
201810230908 SPECI KCLM 230908Z AUTO 12003KT 1 3/4SM BR CLR 04/04 A2985 RMK AO2 VIS 3/4V4 T00440039=
201810230853 METAR KCLM 230853Z AUTO 14003KT 5SM BR CLR 04/03 A2985 RMK AO2 SLP110 T00390033 57007=
201810230753 METAR KCLM 230753Z AUTO 00000KT 5SM BR CLR 04/04 A2986 RMK AO2 SLP114 T00440039 401390011=
201810230709 SPECI KCLM 230709Z AUTO 00000KT 3SM BR CLR 06/05 A2987 RMK AO2 T00560050=
201810230700 SPECI KCLM 230700Z AUTO 00000KT 1 3/4SM BR CLR 06/04 A2987 RMK AO2 T00560044=
201810230653 METAR KCLM 230653Z AUTO 00000KT 4SM BR CLR 05/04 A2986 RMK AO2 SLP115 T00500044=
201810230553 METAR KCLM 230553Z AUTO 00000KT 5SM BR CLR 05/04 A2987 RMK AO2 SLP118 T00500044 10133 20044 58006=
201810230453 METAR KCLM 230453Z AUTO 00000KT 6SM BR CLR 06/06 A2988 RMK AO2 SLP121 T00560056=
201810230353 METAR KCLM 230353Z AUTO 00000KT 6SM BR CLR 07/06 A2989 RMK AO2 SLP123 T00670056=
201810230253 METAR KCLM 230253Z AUTO 00000KT 6SM BR CLR 08/06 A2989 RMK AO2 SLP123 T00780061 56003=
201810230153 METAR KCLM 230153Z AUTO 00000KT 6SM BR CLR 09/07 A2989 RMK AO2 SLP123 T00890072=
201810230053 METAR KCLM 230053Z AUTO 00000KT 6SM HZ CLR 10/07 A2989 RMK AO2 SLP125 T01000072=
201810222353 METAR KCLM 222353Z AUTO 04003KT 6SM HZ CLR 13/08 A2990 RMK AO2 SLP125 T01280083 10139 20100 56016=
201810222253 METAR KCLM 222253Z AUTO 01003KT 8SM CLR 13/08 A2991 RMK AO2 SLP131 T01330083=
201810222153 METAR KCLM 222153Z AUTO VRB03KT 7SM CLR 13/08 A2993 RMK AO2 SLP135 T01280083=
201810222053 METAR KCLM 222053Z AUTO 01004KT 10SM CLR 13/07 A2995 RMK AO2 SLP141 T01280072 58015=
201810221953 METAR KCLM 221953Z AUTO VRB04KT 10SM CLR 11/07 A2996 RMK AO2 SLP146 T01110072=
201810221853 METAR KCLM 221853Z AUTO 02004KT 8SM CLR 10/07 A2998 RMK AO2 SLP154 T01000067=
201810221753 METAR KCLM 221753Z AUTO 01003KT 7SM CLR 10/07 A2999 RMK AO2 SLP157 T01000072 10111 20011 50001=
201810221653 METAR KCLM 221653Z AUTO 00000KT 6SM BR CLR 08/07 A3000 RMK AO2 SLP160 T00830067=
201810221553 METAR KCLM 221553Z AUTO 00000KT 5SM BR FEW002 04/04 A2999 RMK AO2 SLP158 T00440039=
201810221538 SPECI KCLM 221538Z AUTO 15003KT 3SM BR FEW002 03/02 A2999 RMK AO2 T00330022 $=
201810221526 SPECI KCLM 221526Z AUTO 00000KT 1 3/4SM BR SCT003 03/03 A2999 RMK AO2 T00330028 $=
201810221523 SPECI KCLM 221523Z AUTO 00000KT 3SM BR SCT003 03/02 A2999 RMK AO2 T00280022 $=
201810221453 METAR KCLM 221453Z AUTO 00000KT 6SM BR CLR 02/01 A2999 RMK AO2 SLP156 T00170011 50001 $=
201810221408 SPECI KCLM 221408Z AUTO 00000KT 3SM BR CLR 02/01 A2999 RMK AO2 T00170011 $=
201810221358 SPECI KCLM 221358Z AUTO 00000KT 1 3/4SM BR FEW001 03/02 A2999 RMK AO2 T00280017 $=
201810221353 METAR KCLM 221353Z AUTO 00000KT 4SM BR SCT001 02/02 A2999 RMK AO2 SLP157 T00220017 $=
201810221347 SPECI KCLM 221347Z AUTO 00000KT 2SM BR SCT001 03/02 A2999 RMK AO2 $=
201810221345 SPECI KCLM 221345Z AUTO 00000KT 1SM BR VV001 03/02 A2999 RMK AO2 T00280022 $=
201810221312 SPECI KCLM 221312Z AUTO 00000KT 1/4SM FG VV001 03/02 A2999 RMK AO2 T00280022=
201810221306 SPECI KCLM 221306Z AUTO 00000KT 1 3/4SM BR BKN001 03/02 A2999 RMK AO2 VIS 3/4V5 T00280017=
201810221253 METAR KCLM 221253Z AUTO 00000KT 4SM BR BKN001 03/02 A2998 RMK AO2 SLP154 T00330022=
201810221248 SPECI KCLM 221248Z AUTO 00000KT 1 1/4SM BR BKN001 02/02 A2998 RMK AO2=
201810221240 SPECI KCLM 221240Z AUTO 00000KT 2 1/2SM BR BKN001 03/02 A2999 RMK AO2 T00280017=
201810221214 SPECI KCLM 221214Z AUTO 00000KT 5SM BR SCT002 02/02 A2999 RMK AO2 T00220017=
201810221207 SPECI KCLM 221207Z AUTO 00000KT 2 1/2SM BR SCT002 02/01 A2999 RMK AO2 T00170011=
201810221200 SPECI KCLM 221200Z AUTO 00000KT 1 3/4SM BR BKN002 03/02 A2999 RMK AO2 T00280022=
201810221153 METAR KCLM 221153Z AUTO 00000KT 7SM BKN002 03/02 A2999 RMK AO2 SLP156 T00330022 10061 20011 58005=
201810221053 METAR KCLM 221053Z AUTO 00000KT 3SM BR FEW001 02/02 A3000 RMK AO2 SLP159 T00220022=
201810221021 SPECI KCLM 221021Z AUTO 15003KT 3SM BR FEW002 03/02 A3000 RMK AO2 T00330022=
201810221013 SPECI KCLM 221013Z AUTO 00000KT 1 1/4SM BR FEW002 03/02 A3000 RMK AO2 VIS 1/2V4 T00280022=
201810221009 SPECI KCLM 221009Z AUTO 00000KT 3/4SM BR VV002 03/03 A3000 RMK AO2 VIS 1/4V4 T00330028=
201810221001 SPECI KCLM 221001Z AUTO 00000KT 1SM BR VV002 03/03 A3000 RMK AO2 T00330028=
201810220959 SPECI KCLM 220959Z AUTO 00000KT 2 1/2SM BR FEW002 03/03 A3000 RMK AO2 T00330028=
201810220953 METAR KCLM 220953Z AUTO 00000KT 5SM BR CLR 03/03 A3000 RMK AO2 SLP161 T00330028=
201810220853 METAR KCLM 220853Z AUTO 00000KT 5SM BR CLR 03/03 A3001 RMK AO2 SLP162 T00330028 56001=
201810220839 SPECI KCLM 220839Z AUTO 00000KT 7SM CLR 04/03 A3001 RMK AO2 T00390028=
201810220830 SPECI KCLM 220830Z AUTO 00000KT 2 1/2SM BR CLR 03/03 A3001 RMK AO2 T00330028=
201810220753 METAR KCLM 220753Z AUTO 00000KT 7SM CLR 05/04 A3001 RMK AO2 SLP163 T00500039 401610039=
201810220739 SPECI KCLM 220739Z AUTO 00000KT 3SM BR CLR 04/04 A3001 RMK AO2 T00440039=
201810220737 SPECI KCLM 220737Z AUTO 00000KT 1 1/2SM BR FEW002 04/04 A3001 RMK AO2 T00440039=
201810220729 SPECI KCLM 220729Z AUTO 00000KT 3/4SM BR VV002 04/04 A3001 RMK AO2 T00390039=
201810220709 SPECI KCLM 220709Z AUTO 00000KT 3SM BR CLR 04/03 A3000 RMK AO2 T00390033=
201810220653 METAR KCLM 220653Z AUTO 00000KT 1 3/4SM BR CLR 06/04 A3000 RMK AO2 VIS 1/2V5 SLP161 T00560044=
201810220644 SPECI KCLM 220644Z AUTO 00000KT 3/4SM BR CLR 06/04 A3000 RMK AO2 VIS 1/4V5 T00560044=
201810220553 METAR KCLM 220553Z AUTO 00000KT 7SM CLR 04/04 A3001 RMK AO2 SLP162 T00440039 10161 20044 51005=
201810220453 METAR KCLM 220453Z AUTO 25003KT 8SM CLR 06/04 A3000 RMK AO2 SLP161 T00560044=
201810220353 METAR KCLM 220353Z AUTO 00000KT 10SM CLR 06/05 A3000 RMK AO2 SLP160 T00610050=
201810220253 METAR KCLM 220253Z AUTO 00000KT 10SM CLR 07/06 A2999 RMK AO2 SLP158 T00720061 53001=
201810220153 METAR KCLM 220153Z AUTO 00000KT 10SM CLR 09/07 A2999 RMK AO2 SLP157 T00940072=
201810220053 METAR KCLM 220053Z AUTO 00000KT 10SM CLR 13/08 A2999 RMK AO2 SLP155 T01330078=
201810212353 METAR KCLM 212353Z AUTO 11003KT 10SM CLR 16/07 A2999 RMK AO2 SLP155 T01560067 10161 20133 56008=
201810212253 METAR KCLM 212253Z AUTO 08004KT 10SM CLR 16/07 A2999 RMK AO2 SLP157 T01610067=
201810212153 METAR KCLM 212153Z AUTO VRB03KT 10SM CLR 16/08 A3000 RMK AO2 SLP160 T01560078=
201810212053 METAR KCLM 212053Z AUTO 04004KT 10SM CLR 15/07 A3001 RMK AO2 SLP164 T01500072 58008=
201810211953 METAR KCLM 211953Z AUTO 03005KT 10SM CLR 14/08 A3003 RMK AO2 SLP170 T01440078=
201810211853 METAR KCLM 211853Z AUTO VRB03KT 10SM CLR 15/08 A3004 RMK AO2 SLP172 T01500083=
201810211753 METAR KCLM 211753Z AUTO 09005KT 10SM CLR 14/08 A3004 RMK AO2 SLP173 T01390083 10139 20039 50002=
201810211653 METAR KCLM 211653Z AUTO VRB03KT 10SM CLR 13/08 A3004 RMK AO2 SLP175 T01330083=
201810211553 METAR KCLM 211553Z AUTO 15003KT 9SM CLR 08/07 A3004 RMK AO2 SLP174 T00830067=
201810211453 METAR KCLM 211453Z AUTO 00000KT 9SM CLR 05/04 A3003 RMK AO2 SLP172 T00500039 56002=
201810211353 METAR KCLM 211353Z AUTO 00000KT 10SM CLR 04/03 A3003 RMK AO2 SLP172 T00440033=
201810211253 METAR KCLM 211253Z AUTO 24003KT 10SM CLR 06/04 A3003 RMK AO2 SLP170 T00610044=
201810211153 METAR KCLM 211153Z AUTO 15005KT 10SM CLR 08/06 A3004 RMK AO2 SLP173 T00780056 10089 20050 56007=
201810211053 METAR KCLM 211053Z AUTO 15004KT 10SM CLR 05/04 A3004 RMK AO2 SLP175 T00500039=
201810210953 METAR KCLM 210953Z AUTO 00000KT 10SM CLR 08/06 A3005 RMK AO2 SLP177 T00830061=
201810210853 METAR KCLM 210853Z AUTO 15004KT 10SM CLR 08/06 A3006 RMK AO2 SLP180 T00830061 58003=
201810210753 METAR KCLM 210753Z AUTO 16003KT 10SM CLR 07/05 A3007 RMK AO2 SLP182 T00720050 401610028=
201810210653 METAR KCLM 210653Z AUTO 16005KT 10SM CLR 08/06 A3007 RMK AO2 SLP183 T00830061=
201810210553 METAR KCLM 210553Z AUTO 23004KT 10SM CLR 09/07 A3007 RMK AO2 SLP183 T00940067 10150 20067 56005=
201810210453 METAR KCLM 210453Z AUTO 19003KT 10SM CLR 07/06 A3007 RMK AO2 SLP185 T00720056=
201810210353 METAR KCLM 210353Z AUTO 20003KT 10SM CLR 08/07 A3008 RMK AO2 SLP187 T00830067=
201810210253 METAR KCLM 210253Z AUTO 22003KT 9SM CLR 08/07 A3009 RMK AO2 SLP190 T00830067 55008=
201810210153 METAR KCLM 210153Z AUTO 00000KT 10SM CLR 11/08 A3008 RMK AO2 SLP189 T01060083=
201810210053 METAR KCLM 210053Z AUTO 12005KT 10SM CLR 13/09 A3009 RMK AO2 SLP191 T01330089=
201810202353 METAR KCLM 202353Z AUTO 11007KT 10SM CLR 15/09 A3011 RMK AO2 SLP197 T01500089 10161 20122 58024=
201810202253 METAR KCLM 202253Z AUTO 11007KT 10SM CLR 14/09 A3014 RMK AO2 SLP206 T01440089=
201810202153 METAR KCLM 202153Z AUTO 11008KT 10SM CLR 16/08 A3016 RMK AO2 SLP213 T01560083=
201810202053 METAR KCLM 202053Z AUTO 12008KT 9SM CLR 16/08 A3018 RMK AO2 SLP221 T01560078 58020=
201810201953 METAR KCLM 201953Z AUTO 11006KT 8SM CLR 16/08 A3021 RMK AO2 SLP231 T01560078=
201810201853 METAR KCLM 201853Z AUTO 10004KT 6SM HZ CLR 12/09 A3023 RMK AO2 SLP239 T01220089=
201810201753 METAR KCLM 201753Z AUTO 08003KT 9SM CLR 13/08 A3024 RMK AO2 SLP241 T01280083 10128 20028 50001=
201810201653 METAR KCLM 201653Z AUTO 00000KT 10SM CLR 11/08 A3025 RMK AO2 SLP243 T01110078=
201810201553 METAR KCLM 201553Z AUTO 00000KT 4SM BR CLR 07/06 A3025 RMK AO2 SLP245 T00670056=
201810201453 METAR KCLM 201453Z AUTO 22004KT 5SM BR CLR 03/03 A3024 RMK AO2 SLP242 T00330028 56011=
201810201353 METAR KCLM 201353Z AUTO 22003KT 6SM BR CLR 04/03 A3025 RMK AO2 SLP245 T00390033=
201810201253 METAR KCLM 201253Z AUTO 24004KT 6SM BR CLR 04/03 A3026 RMK AO2 SLP249 T00440033=
201810201153 METAR KCLM 201153Z AUTO 25004KT 9SM CLR 05/04 A3027 RMK AO2 SLP252 T00500039 10089 20044 53004=
201810201053 METAR KCLM 201053Z AUTO 24005KT 7SM CLR 05/04 A3026 RMK AO2 SLP248 T00500044=
201810200953 METAR KCLM 200953Z AUTO 00000KT 8SM CLR 07/06 A3026 RMK AO2 SLP249 T00670056=
201810200853 METAR KCLM 200853Z AUTO 24004KT 6SM BR CLR 06/04 A3026 RMK AO2 SLP247 T00560044 50000=
201810200753 METAR KCLM 200753Z AUTO 27004KT 7SM CLR 07/06 A3026 RMK AO2 SLP249 T00720061 401330033=
201810200653 METAR KCLM 200653Z AUTO 26006KT 7SM CLR 08/07 A3026 RMK AO2 SLP249 T00830067=
201810200553 METAR KCLM 200553Z AUTO 26007KT 7SM CLR 09/07 A3026 RMK AO2 SLP247 T00890067 10128 20083 51001=
201810200453 METAR KCLM 200453Z AUTO 27007KT 7SM CLR 09/07 A3026 RMK AO2 SLP247 T00890072=
201810200353 METAR KCLM 200353Z AUTO 26005KT 7SM CLR 09/07 A3026 RMK AO2 SLP248 T00890072=
201810200253 METAR KCLM 200253Z AUTO 29009KT 8SM CLR 10/08 A3026 RMK AO2 SLP247 T01000078 58004=
201810200153 METAR KCLM 200153Z AUTO 27011KT 7SM CLR 10/08 A3027 RMK AO2 SLP252 T01000083=
201810200053 METAR KCLM 200053Z AUTO 30006KT 6SM HZ CLR 11/08 A3026 RMK AO2 SLP248 T01110083=
201810192353 METAR KCLM 192353Z AUTO 31008KT 7SM CLR 13/08 A3027 RMK AO2 SLP250 T01280083 10133 20111 58008=
201810192253 METAR KCLM 192253Z AUTO 30010KT 8SM CLR 13/08 A3028 RMK AO2 SLP253 T01330083=
201810192153 METAR KCLM 192153Z AUTO 33007KT 9SM CLR 13/08 A3028 RMK AO2 SLP256 T01330083=
201810192053 METAR KCLM 192053Z AUTO VRB05KT 9SM CLR 13/09 A3029 RMK AO2 SLP258 T01330089 58003=
201810191953 METAR KCLM 191953Z AUTO 36005KT 9SM CLR 13/09 A3030 RMK AO2 SLP262 T01280089=
201810191853 METAR KCLM 191853Z AUTO 36005KT 9SM CLR 12/08 A3031 RMK AO2 SLP264 T01170083=
201810191753 METAR KCLM 191753Z AUTO 00000KT 10SM CLR 12/09 A3030 RMK AO2 SLP261 T01220089 10122 20033 51006=
201810191653 METAR KCLM 191653Z AUTO 00000KT 10SM CLR 10/06 A3030 RMK AO2 SLP260 T01000061=
201810191553 METAR KCLM 191553Z AUTO 25004KT 8SM CLR 06/05 A3029 RMK AO2 SLP259 T00610050=
201810191511 SPECI KCLM 191511Z AUTO 00000KT 3SM BR CLR 04/04 A3029 RMK AO2 T00440039=
201810191504 SPECI KCLM 191504Z AUTO 00000KT 2 1/2SM BR CLR 04/04 A3028 RMK AO2 T00440039=
201810191453 METAR KCLM 191453Z AUTO 00000KT 4SM BR CLR 04/03 A3028 RMK AO2 SLP256 T00390033 52006=
201810191353 METAR KCLM 191353Z AUTO 00000KT 6SM BR CLR 04/04 A3028 RMK AO2 SLP255 T00440039=
201810191253 METAR KCLM 191253Z AUTO 00000KT 6SM BR CLR 04/03 A3027 RMK AO2 SLP251 T00390033=
201810191153 METAR KCLM 191153Z AUTO 24004KT 6SM BR CLR 04/03 A3026 RMK AO2 SLP250 T00390033 10072 20039 53005=
201810191053 METAR KCLM 191053Z AUTO 22004KT 9SM CLR 06/05 A3025 RMK AO2 SLP246 T00560050=
201810190953 METAR KCLM 190953Z AUTO 00000KT 6SM BR CLR 06/05 A3025 RMK AO2 SLP244 T00560050=
201810190853 METAR KCLM 190853Z AUTO 23005KT 8SM CLR 07/06 A3025 RMK AO2 SLP244 T00670056 51007=
201810190753 METAR KCLM 190753Z AUTO 24003KT 6SM BR CLR 05/04 A3024 RMK AO2 SLP242 T00500044 401500039=
201810190653 METAR KCLM 190653Z AUTO 00000KT 4SM BR CLR 06/05 A3024 RMK AO2 SLP241 T00560050=
201810190553 METAR KCLM 190553Z AUTO 00000KT 6SM BR CLR 06/06 A3023 RMK AO2 SLP237 T00610056 10117 20061 53006=
201810190453 METAR KCLM 190453Z AUTO 25004KT 6SM BR CLR 07/06 A3022 RMK AO2 SLP234 T00670056=
201810190353 METAR KCLM 190353Z AUTO 00000KT 6SM BR CLR 07/06 A3021 RMK AO2 SLP230 T00720061=
201810190253 METAR KCLM 190253Z AUTO 26004KT 8SM CLR 09/08 A3021 RMK AO2 SLP230 T00940078 50002=
201810190153 METAR KCLM 190153Z AUTO 28003KT 8SM CLR 09/07 A3021 RMK AO2 SLP232 T00940072=
201810190053 METAR KCLM 190053Z AUTO 29006KT 9SM CLR 11/08 A3021 RMK AO2 SLP230 T01060083=
201810182353 METAR KCLM 182353Z AUTO 30006KT 9SM CLR 12/08 A3020 RMK AO2 SLP228 T01170083 10150 20111 50000=
201810182253 METAR KCLM 182253Z AUTO 32005KT 9SM CLR 12/08 A3020 RMK AO2 SLP228 T01220083=
201810182153 METAR KCLM 182153Z AUTO 35004KT 9SM CLR 13/08 A3020 RMK AO2 SLP227 T01280083=
201810182053 METAR KCLM 182053Z AUTO VRB03KT 8SM CLR 13/08 A3020 RMK AO2 SLP227 T01330083 50005=
201810181953 METAR KCLM 181953Z AUTO 04004KT 9SM CLR 14/08 A3020 RMK AO2 SLP228 T01440083=
201810181853 METAR KCLM 181853Z AUTO 00000KT 9SM CLR 13/08 A3020 RMK AO2 SLP227 T01330083=
201810181753 METAR KCLM 181753Z AUTO VRB03KT 8SM CLR 12/08 A3018 RMK AO2 SLP222 T01170083 10122 20044 53003=
201810181653 METAR KCLM 181653Z AUTO 00000KT 9SM CLR 12/08 A3016 RMK AO2 SLP215 T01220083=
201810181553 METAR KCLM 181553Z AUTO 00000KT 9SM CLR 10/08 A3015 RMK AO2 SLP210 T01000078=
201810181453 METAR KCLM 181453Z AUTO 21005KT 10SM CLR 08/05 A3017 RMK AO2 SLP219 T00780050 53012=
201810181353 METAR KCLM 181353Z AUTO 11003KT 10SM CLR 06/04 A3013 RMK AO2 SLP205 T00610044=
201810181253 METAR KCLM 181253Z AUTO 00000KT 10SM CLR 06/04 A3014 RMK AO2 SLP207 T00560044=
201810181153 METAR KCLM 181153Z AUTO 00000KT 10SM CLR 06/04 A3014 RMK AO2 SLP206 T00560039 10094 20039 53005=
201810181053 METAR KCLM 181053Z AUTO 00000KT 10SM CLR 04/03 A3014 RMK AO2 SLP206 T00440033=
201810180953 METAR KCLM 180953Z AUTO 00000KT 10SM CLR 06/04 A3012 RMK AO2 SLP200 T00610044=
201810180853 METAR KCLM 180853Z AUTO 00000KT 10SM CLR 06/04 A3012 RMK AO2 SLP201 T00610039 55001=
201810180753 METAR KCLM 180753Z AUTO 00000KT 10SM CLR 08/04 A3011 RMK AO2 SLP198 T00780044 401830028=
201810180653 METAR KCLM 180653Z AUTO 14004KT 10SM CLR 08/05 A3011 RMK AO2 SLP198 T00780050=
201810180553 METAR KCLM 180553Z AUTO 24003KT 10SM CLR 10/06 A3013 RMK AO2 SLP203 T01000056 10178 20067 53010=
201810180453 METAR KCLM 180453Z AUTO 25005KT 9SM CLR 08/06 A3011 RMK AO2 SLP199 T00830061=
201810180353 METAR KCLM 180353Z AUTO 17003KT 10SM CLR 08/06 A3010 RMK AO2 SLP195 T00780061=
201810180253 METAR KCLM 180253Z AUTO 00000KT 9SM CLR 09/07 A3010 RMK AO2 SLP194 T00890072 57005=
201810180153 METAR KCLM 180153Z AUTO 00000KT 10SM CLR 11/08 A3010 RMK AO2 SLP194 T01110078=
201810180053 METAR KCLM 180053Z AUTO 00000KT 10SM CLR 14/08 A3011 RMK AO2 SLP196 T01440078=
201810172353 METAR KCLM 172353Z AUTO 00000KT 10SM CLR 17/07 A3011 RMK AO2 SLP198 T01720072 10183 20144 56017=
201810172253 METAR KCLM 172253Z AUTO 00000KT 10SM CLR 18/07 A3012 RMK AO2 SLP202 T01780067=
201810172153 METAR KCLM 172153Z AUTO VRB04KT 10SM CLR 17/06 A3013 RMK AO2 SLP205 T01720056=
201810172053 METAR KCLM 172053Z AUTO 10004KT 10SM CLR 16/07 A3016 RMK AO2 SLP215 T01560072 58015=
201810171953 METAR KCLM 171953Z AUTO 09005KT 10SM CLR 15/07 A3019 RMK AO2 SLP223 T01500072=
201810171853 METAR KCLM 171853Z AUTO VRB04KT 10SM CLR 15/07 A3019 RMK AO2 SLP225 T01500072=
201810171753 METAR KCLM 171753Z AUTO 09003KT 10SM CLR 14/07 A3021 RMK AO2 SLP229 T01440067 10144 20028 51001=
201810171653 METAR KCLM 171653Z AUTO 08004KT 10SM CLR 13/07 A3020 RMK AO2 SLP229 T01280067=
201810171553 METAR KCLM 171553Z AUTO 00000KT 9SM CLR 08/06 A3021 RMK AO2 SLP231 T00780061=
201810171453 METAR KCLM 171453Z AUTO 20003KT 6SM BR CLR 03/02 A3020 RMK AO2 SLP230 T00330022 55003=
201810171353 METAR KCLM 171353Z AUTO 00000KT 10SM CLR 06/04 A3020 RMK AO2 SLP228 T00560039=
201810171253 METAR KCLM 171253Z AUTO 00000KT 10SM CLR 05/04 A3021 RMK AO2 SLP230 T00500039=
201810171153 METAR KCLM 171153Z AUTO 22004KT 10SM CLR 04/03 A3021 RMK AO2 SLP232 T00440033 10078 20039 58004=
201810171053 METAR KCLM 171053Z AUTO 00000KT 10SM CLR 04/03 A3022 RMK AO2 SLP235 T00390033=
201810170953 METAR KCLM 170953Z AUTO 00000KT 10SM CLR 06/04 A3022 RMK AO2 SLP235 T00560039=
201810170853 METAR KCLM 170853Z AUTO 00000KT 10SM CLR 06/05 A3022 RMK AO2 SLP235 T00610050 58007=
201810170753 METAR KCLM 170753Z AUTO 16003KT 8SM CLR 06/05 A3023 RMK AO2 SLP238 T00560050 401720028=
201810170653 METAR KCLM 170653Z AUTO 21003KT 9SM CLR 06/05 A3024 RMK AO2 SLP241 T00610050=
201810170553 METAR KCLM 170553Z AUTO 00000KT 9SM CLR 06/04 A3024 RMK AO2 SLP243 T00560044 10172 20056 50002=
201810170353 METAR KCLM 170353Z AUTO 00000KT 10SM CLR 07/06 A3024 RMK AO2 SLP242 T00720061=
201810170253 METAR KCLM 170253Z AUTO 00000KT 10SM CLR 09/07 A3024 RMK AO2 SLP242 T00890072 58006=
201810170153 METAR KCLM 170153Z AUTO 16003KT 10SM CLR 12/08 A3025 RMK AO2 SLP244 T01170078=
201810170053 METAR KCLM 170053Z AUTO 00000KT 10SM CLR 16/07 A3025 RMK AO2 SLP245 T01560067=
201810162353 METAR KCLM 162353Z AUTO 11004KT 10SM CLR 17/07 A3026 RMK AO2 SLP247 T01720067 10172 20144 56014=
201810162253 METAR KCLM 162253Z AUTO 13004KT 10SM CLR 17/07 A3027 RMK AO2 SLP251 T01670067=
201810162153 METAR KCLM 162153Z AUTO 08005KT 10SM CLR 16/06 A3028 RMK AO2 SLP254 T01610061=
201810162053 METAR KCLM 162053Z AUTO 11006KT 10SM CLR 16/07 A3030 RMK AO2 SLP260 T01610067 58011=
201810161953 METAR KCLM 161953Z AUTO 10006KT 10SM CLR 16/07 A3032 RMK AO2 SLP268 T01560067=
201810161853 METAR KCLM 161853Z AUTO 09004KT 10SM CLR 16/07 A3033 RMK AO2 SLP271 T01560072=
201810161753 METAR KCLM 161753Z AUTO VRB04KT 10SM CLR 15/07 A3033 RMK AO2 SLP271 T01500067 10156 20028 50000=
201810161653 METAR KCLM 161653Z AUTO 11004KT 10SM CLR 14/06 A3033 RMK AO2 SLP273 T01390061=
201810161553 METAR KCLM 161553Z AUTO 00000KT 8SM CLR 08/06 A3033 RMK AO2 SLP273 T00830061=
201810161453 METAR KCLM 161453Z AUTO 00000KT 10SM CLR 04/03 A3033 RMK AO2 SLP272 T00440033 56002=
201810161353 METAR KCLM 161353Z AUTO 00000KT 10SM CLR 05/03 A3033 RMK AO2 SLP273 T00500033=
201810161253 METAR KCLM 161253Z AUTO 00000KT 10SM CLR 04/02 A3033 RMK AO2 SLP272 T00390022=
201810161153 METAR KCLM 161153Z AUTO 00000KT 10SM CLR 04/02 A3034 RMK AO2 SLP273 T00390022 10067 20033 56003=
201810161053 METAR KCLM 161053Z AUTO 16004KT 10SM CLR 04/02 A3034 RMK AO2 SLP274 T00390022=
201810160953 METAR KCLM 160953Z AUTO 00000KT 10SM CLR 04/02 A3034 RMK AO2 SLP276 T00390017=
201810160853 METAR KCLM 160853Z AUTO 00000KT 10SM CLR 06/03 A3034 RMK AO2 SLP276 T00560028 50002=
201810160753 METAR KCLM 160753Z AUTO 21004KT 10SM CLR 04/03 A3035 RMK AO2 SLP277 T00440028 401670006=
201810160653 METAR KCLM 160653Z AUTO 00000KT 10SM CLR 06/03 A3034 RMK AO2 SLP276 T00560028=
201810160553 METAR KCLM 160553Z AUTO 20003KT 10SM CLR 05/03 A3034 RMK AO2 SLP274 T00500028 10156 20050 53007=
201810160453 METAR KCLM 160453Z AUTO 00000KT 10SM CLR 06/03 A3033 RMK AO2 SLP271 T00610033=
201810160353 METAR KCLM 160353Z AUTO 00000KT 10SM CLR 06/03 A3032 RMK AO2 SLP269 T00560033=
201810160253 METAR KCLM 160253Z AUTO 00000KT 10SM CLR 08/04 A3032 RMK AO2 SLP268 T00830044 55007=
201810160153 METAR KCLM 160153Z AUTO 19005KT 10SM CLR 09/05 A3031 RMK AO2 SLP267 T00890050=
201810160053 METAR KCLM 160053Z AUTO 15004KT 10SM CLR 14/04 A3032 RMK AO2 SLP270 T01390044=
201810152353 METAR KCLM 152353Z AUTO 12006KT 10SM CLR 16/04 A3034 RMK AO2 SLP274 T01560039 10167 20122 58011=
201810152253 METAR KCLM 152253Z AUTO 09006KT 10SM CLR 16/02 A3035 RMK AO2 SLP278 T01610022=
201810152153 METAR KCLM 152153Z AUTO 09008KT 10SM CLR 16/03 A3036 RMK AO2 SLP281 T01560033=
201810152053 METAR KCLM 152053Z AUTO 08008KT 10SM CLR 16/03 A3037 RMK AO2 SLP285 T01560033 58008=
201810151953 METAR KCLM 151953Z AUTO 10007KT 10SM CLR 14/04 A3039 RMK AO2 SLP290 T01440039=
201810151853 METAR KCLM 151853Z AUTO 08008KT 10SM CLR 13/06 A3039 RMK AO2 SLP293 T01330056=
201810151753 METAR KCLM 151753Z AUTO 11008KT 10SM CLR 12/07 A3039 RMK AO2 SLP293 T01220067 10122 20006 52003=
201810151653 METAR KCLM 151653Z AUTO 12007KT 10SM CLR 12/07 A3039 RMK AO2 SLP293 T01170072=
201810151553 METAR KCLM 151553Z AUTO 00000KT 10SM CLR 06/04 A3038 RMK AO2 SLP291 T00610044=
201810151453 METAR KCLM 151453Z AUTO 00000KT 9SM CLR 02/00 A3038 RMK AO2 SLP291 T00170000 56001=
201810151353 METAR KCLM 151353Z AUTO 21003KT 10SM CLR 02/01 A3038 RMK AO2 SLP291 T00170006=
201810151253 METAR KCLM 151253Z AUTO 22004KT 10SM CLR 02/01 A3038 RMK AO2 SLP290 T00170006 $=
201810151153 METAR KCLM 151153Z AUTO 00000KT 10SM CLR 03/01 A3039 RMK AO2 SLP291 T00280011 10056 20017 55000 $=
201810151053 METAR KCLM 151053Z AUTO 00000KT 10SM CLR 03/01 A3038 RMK AO2 SLP290 T00330011 $=
201810150953 METAR KCLM 150953Z AUTO 17004KT 10SM CLR 03/01 A3039 RMK AO2 SLP291 T00280011 $=
201810150853 METAR KCLM 150853Z AUTO 00000KT 10SM CLR 03/02 A3039 RMK AO2 SLP291 T00330017 51002 $=
201810150753 METAR KCLM 150753Z AUTO 00000KT 10SM CLR 03/02 A3039 RMK AO2 SLP291 T00330022 401440028 $=
201810150653 METAR KCLM 150653Z AUTO 00000KT 10SM CLR 04/03 A3039 RMK AO2 SLP291 T00440028 $=
201810150553 METAR KCLM 150553Z AUTO 19003KT 10SM CLR 04/03 A3038 RMK AO2 SLP289 T00440028 10133 20039 53005 $=
201810150453 METAR KCLM 150453Z AUTO 00000KT 10SM CLR 06/04 A3037 RMK AO2 SLP285 T00560039 $=
201810150353 METAR KCLM 150353Z AUTO 00000KT 10SM CLR 06/04 A3036 RMK AO2 SLP284 T00610039 $=
201810150253 METAR KCLM 150253Z AUTO 00000KT 10SM CLR 06/04 A3037 RMK AO2 SLP286 T00610039 56008 $=
201810150153 METAR KCLM 150153Z AUTO 19003KT 10SM CLR 08/03 A3038 RMK AO2 SLP289 T00780028 $=
201810150053 METAR KCLM 150053Z AUTO 10003KT 10SM CLR 12/01 A3038 RMK AO2 SLP290 T01170006 $=
201810142353 METAR KCLM 142353Z AUTO 10004KT 10SM CLR 13/00 A3039 RMK AO2 SLP292 T01330000 10144 20117 57005 $=
201810142253 METAR KCLM 142253Z AUTO 10005KT 10SM CLR 14/01 A3039 RMK AO2 SLP293 T01390011 $=
201810142153 METAR KCLM 142153Z AUTO VRB04KT 10SM CLR 14/02 A3040 RMK AO2 SLP297 T01390022 $=
201810142053 METAR KCLM 142053Z AUTO VRB05KT 10SM CLR 13/02 A3041 RMK AO2 SLP298 T01280017 58005 $=
201810141953 METAR KCLM 141953Z AUTO 10007KT 10SM CLR 13/02 A3042 RMK AO2 SLP302 T01280017 $=
201810141853 METAR KCLM 141853Z AUTO 03005KT 10SM CLR 12/07 A3042 RMK AO2 SLP303 T01170067 $=
201810141753 METAR KCLM 141753Z AUTO 10006KT 10SM CLR 12/05 A3042 RMK AO2 SLP303 T01170050 10122 20028 51008 $=
201810141653 METAR KCLM 141653Z AUTO 00000KT 10SM CLR 11/03 A3041 RMK AO2 SLP300 T01110028 $=
201810141553 METAR KCLM 141553Z AUTO 22003KT 10SM CLR 07/02 A3041 RMK AO2 SLP299 T00670022 $=
201810141453 METAR KCLM 141453Z AUTO 23003KT 10SM CLR 03/01 A3040 RMK AO2 SLP296 T00330006 51003 $=
201810141353 METAR KCLM 141353Z AUTO 24007KT 10SM CLR 04/01 A3039 RMK AO2 SLP294 T00390006 $=
201810141253 METAR KCLM 141253Z AUTO 23004KT 10SM CLR 03/01 A3039 RMK AO2 SLP294 T00280006 $=
201810141153 METAR KCLM 141153Z AUTO 00000KT 10SM CLR 03/01 A3039 RMK AO2 SLP291 T00330011 10072 20028 53008 $=
201810141053 METAR KCLM 141053Z AUTO 22006KT 10SM CLR 04/01 A3038 RMK AO2 SLP288 T00440006 $=
201810140953 METAR KCLM 140953Z AUTO 22004KT 10SM CLR 05/01 A3037 RMK AO2 SLP286 T00500011 $=
201810140853 METAR KCLM 140853Z AUTO 22003KT 10SM CLR 05/02 A3037 RMK AO2 SLP284 T00500017 51009 $=
201810140753 METAR KCLM 140753Z AUTO 21004KT 10SM CLR 04/02 A3036 RMK AO2 SLP281 T00390017 401720033 $=
201810140653 METAR KCLM 140653Z AUTO 22005KT 10SM CLR 06/01 A3036 RMK AO2 SLP281 T00610011 $=
201810140553 METAR KCLM 140553Z AUTO VRB03KT 10SM CLR 07/01 A3034 RMK AO2 SLP274 T00720011 10161 20056 53007 $=
201810140453 METAR KCLM 140453Z AUTO 22004KT 10SM CLR 07/02 A3033 RMK AO2 SLP272 T00670017 $=
201810140353 METAR KCLM 140353Z AUTO 23006KT 10SM CLR 07/02 A3032 RMK AO2 SLP270 T00720017 $=
201810140253 METAR KCLM 140253Z AUTO 22005KT 10SM CLR 07/03 A3032 RMK AO2 SLP268 T00670028 53003 $=
201810140153 METAR KCLM 140153Z AUTO 19003KT 10SM CLR 08/04 A3031 RMK AO2 SLP265 T00830044 $=
201810140053 METAR KCLM 140053Z AUTO 00000KT 10SM CLR 15/02 A3030 RMK AO2 SLP263 T01500017 $=
201810132353 METAR KCLM 132353Z AUTO 02003KT 10SM CLR 16/02 A3031 RMK AO2 SLP264 T01610017 10172 20156 58009 $=
201810132253 METAR KCLM 132253Z AUTO 07005KT 10SM CLR 16/02 A3032 RMK AO2 SLP268 T01560017 $=
201810132153 METAR KCLM 132153Z AUTO 09005KT 10SM CLR 16/02 A3033 RMK AO2 SLP272 T01610017 $=
201810132053 METAR KCLM 132053Z AUTO 11008KT 10SM CLR 16/02 A3033 RMK AO2 SLP273 T01610017 53002=
201810131953 METAR KCLM 131953Z AUTO 10007KT 10SM CLR 16/02 A3033 RMK AO2 SLP271 T01610017=
201810131853 METAR KCLM 131853Z AUTO 08008KT 10SM CLR 16/03 A3033 RMK AO2 SLP271 T01610028=
201810131753 METAR KCLM 131753Z AUTO VRB05KT 10SM CLR 16/03 A3033 RMK AO2 SLP271 T01560033 10156 20044 51010=
201810131653 METAR KCLM 131653Z AUTO 13005KT 10SM CLR 14/07 A3032 RMK AO2 SLP269 T01390072=
201810131553 METAR KCLM 131553Z AUTO 00000KT 10SM CLR 08/06 A3031 RMK AO2 SLP268 T00780061=
201810131453 METAR KCLM 131453Z AUTO 23006KT 10SM CLR 06/04 A3030 RMK AO2 SLP262 T00610044 53019=
201810131353 METAR KCLM 131353Z AUTO 23006KT 10SM CLR 06/04 A3028 RMK AO2 SLP254 T00610044=
201810131253 METAR KCLM 131253Z AUTO 22006KT 10SM CLR 05/04 A3026 RMK AO2 SLP248 T00500044=
201810131153 METAR KCLM 131153Z AUTO 00000KT 9SM CLR 04/04 A3024 RMK AO2 SLP242 T00440039 10089 20039 52010=
201810131053 METAR KCLM 131053Z AUTO 22003KT 10SM CLR 06/05 A3023 RMK AO2 SLP237 T00610050=
201810130953 METAR KCLM 130953Z AUTO 00000KT 10SM CLR 06/05 A3022 RMK AO2 SLP236 T00610050=
201810130853 METAR KCLM 130853Z AUTO 00000KT 8SM CLR 07/06 A3021 RMK AO2 SLP231 T00670056 51016=
201810130753 METAR KCLM 130753Z AUTO 13007KT 10SM SCT033 08/06 A3020 RMK AO2 SLP227 T00780056 401220044=
201810130653 METAR KCLM 130653Z AUTO VRB03KT 10SM CLR 06/04 A3019 RMK AO2 SLP223 T00560044=
201810130553 METAR KCLM 130553Z AUTO 00000KT 6SM BR CLR 06/06 A3016 RMK AO2 SLP215 T00610061 10122 20056 51012=
201810130548 SPECI KCLM 130548Z AUTO 00000KT 2 1/2SM BR CLR 07/06 A3016 RMK AO2=
201810130453 METAR KCLM 130453Z AUTO 14004KT 7SM CLR 06/06 A3016 RMK AO2 SLP212 T00610056=
201810130353 METAR KCLM 130353Z AUTO 22005KT 8SM CLR 07/07 A3013 RMK AO2 SLP203 T00720067=
201810130339 SPECI KCLM 130339Z AUTO VRB03KT 3SM BR CLR 07/06 A3013 RMK AO2 T00720061=
201810130323 SPECI KCLM 130323Z AUTO 00000KT 1 3/4SM BR CLR 08/07 A3012 RMK AO2 T00780067=
201810130253 METAR KCLM 130253Z AUTO 00000KT 6SM BR CLR 08/07 A3012 RMK AO2 SLP201 T00780072 53003=
201810130153 METAR KCLM 130153Z AUTO 00000KT 10SM FEW013 10/08 A3011 RMK AO2 SLP195 T01000083=
201810130149 SPECI KCLM 130149Z AUTO 00000KT 10SM SCT013 10/09 A3010 RMK AO2=
201810130053 METAR KCLM 130053Z AUTO 00000KT 10SM OVC013 12/09 A3011 RMK AO2 SLP197 T01170094=
201810122353 METAR KCLM 122353Z AUTO 00000KT 10SM OVC011 12/09 A3012 RMK AO2 SLP201 T01170094 10122 20106 58006=
201810122253 METAR KCLM 122253Z AUTO 00000KT 10SM OVC012 12/09 A3013 RMK AO2 SLP205 T01170094=
201810122153 METAR KCLM 122153Z AUTO VRB04KT 10SM OVC012 12/09 A3013 RMK AO2 SLP204 T01220094=
201810122053 METAR KCLM 122053Z AUTO VRB03KT 10SM OVC012 12/09 A3014 RMK AO2 SLP207 T01170094 58005=
201810121953 METAR KCLM 121953Z AUTO 31007KT 10SM OVC011 12/09 A3016 RMK AO2 SLP213 T01170089=
201810121853 METAR KCLM 121853Z AUTO 30006KT 10SM OVC010 12/08 A3016 RMK AO2 SLP213 T01170083=
201810121753 METAR KCLM 121753Z AUTO 33007KT 9SM BKN008 11/09 A3016 RMK AO2 SLP213 T01110089 10111 20056 50003=
201810121653 METAR KCLM 121653Z AUTO 26004KT 5SM BR OVC005 10/08 A3016 RMK AO2 SLP215 T01000083=
201810121622 SPECI KCLM 121622Z AUTO 27004KT 5SM BR OVC005 09/08 A3016 RMK AO2 T00940083=
201810121553 METAR KCLM 121553Z AUTO 26006KT 4SM BR OVC004 09/08 A3015 RMK AO2 CIG 003V008 SLP211 T00890083=
201810121530 SPECI KCLM 121530Z AUTO 21004KT 4SM BR BKN002 OVC007 08/07 A3015 RMK AO2 T00830072=
201810121505 SPECI KCLM 121505Z AUTO 00000KT 2SM BR OVC002 08/07 A3016 RMK AO2 T00780072=
201810121453 METAR KCLM 121453Z AUTO 00000KT 3/4SM BR OVC002 07/07 A3015 RMK AO2 SLP211 T00720067 53003=
201810121428 SPECI KCLM 121428Z AUTO 00000KT 1/2SM FG VV002 07/07 A3013 RMK AO2 T00720067=
201810121413 SPECI KCLM 121413Z AUTO 00000KT 1 3/4SM BR OVC002 07/07 A3013 RMK AO2 T00720072=
201810121353 METAR KCLM 121353Z AUTO 28005KT 3/4SM BR VV002 08/07 A3013 RMK AO2 SLP204 T00780072=
201810121348 SPECI KCLM 121348Z AUTO 29005KT 2SM BR BKN002 07/07 A3013 RMK AO2=
201810121346 SPECI KCLM 121346Z AUTO 29005KT 4SM BR SCT002 07/06 A3013 RMK AO2 T00720061=
201810121253 METAR KCLM 121253Z AUTO 00000KT 10SM CLR 07/06 A3011 RMK AO2 SLP198 T00670056=
201810121153 METAR KCLM 121153Z AUTO 00000KT 10SM OVC075 08/07 A3014 RMK AO2 SLP206 T00830072 10100 20061 51002=
201810121053 METAR KCLM 121053Z AUTO 00000KT 10SM OVC075 07/07 A3014 RMK AO2 SLP206 T00670067=
201810121031 SPECI KCLM 121031Z AUTO 00000KT 3SM BR SCT001 OVC075 07/07 A3015 RMK AO2 T00720067=
201810121027 SPECI KCLM 121027Z AUTO 00000KT 1SM BR SCT001 OVC075 07/07 A3015 RMK AO2 T00720067=
201810120953 METAR KCLM 120953Z AUTO 30003KT 1/4SM FG VV001 08/07 A3016 RMK AO2 SLP212 T00780072=
201810120941 SPECI KCLM 120941Z AUTO 31004KT 1/4SM FG VV001 08/07 A3015 RMK AO2 T00780067=
201810120937 SPECI KCLM 120937Z AUTO 31005KT 1 3/4SM BR FEW001 08/06 A3015 RMK AO2 T00780061=
201810120853 METAR KCLM 120853Z AUTO 00000KT 8SM CLR 06/04 A3013 RMK AO2 SLP204 T00610044 55001=
201810120753 METAR KCLM 120753Z AUTO 25005KT 10SM CLR 08/06 A3013 RMK AO2 SLP202 T00780056 401500039=
201810120653 METAR KCLM 120653Z AUTO 00000KT 10SM CLR 07/06 A3014 RMK AO2 SLP206 T00670056=
201810120553 METAR KCLM 120553Z AUTO 00000KT 10SM CLR 08/06 A3013 RMK AO2 SLP204 T00780061 10144 20067 53006=
201810120453 METAR KCLM 120453Z AUTO 00000KT 10SM CLR 07/06 A3012 RMK AO2 SLP202 T00720056=
201810120353 METAR KCLM 120353Z AUTO 00000KT 10SM CLR 07/06 A3012 RMK AO2 SLP200 T00720061=
201810120253 METAR KCLM 120253Z AUTO 00000KT 9SM CLR 08/06 A3011 RMK AO2 SLP200 T00830061 55001=
201810120153 METAR KCLM 120153Z AUTO 00000KT 10SM CLR 10/06 A3011 RMK AO2 SLP198 T01000056=
201810120053 METAR KCLM 120053Z AUTO 00000KT 10SM CLR 13/06 A3012 RMK AO2 SLP199 T01280061=
201810112353 METAR KCLM 112353Z AUTO 00000KT 10SM CLR 14/06 A3012 RMK AO2 SLP199 T01440061 10150 20128 58008=
201810112253 METAR KCLM 112253Z AUTO 04003KT 10SM CLR 14/06 A3013 RMK AO2 SLP203 T01440061=
201810112153 METAR KCLM 112153Z AUTO 04003KT 10SM CLR 15/08 A3013 RMK AO2 SLP205 T01500078=
201810112053 METAR KCLM 112053Z AUTO 04005KT 10SM CLR 14/08 A3014 RMK AO2 SLP208 T01390083 58006=
201810111953 METAR KCLM 111953Z AUTO VRB03KT 10SM CLR 13/08 A3016 RMK AO2 SLP214 T01280078=
201810111853 METAR KCLM 111853Z AUTO VRB04KT 10SM CLR 13/08 A3016 RMK AO2 SLP213 T01280078=
201810111753 METAR KCLM 111753Z AUTO VRB04KT 10SM CLR 13/07 A3016 RMK AO2 SLP213 T01280072 10128 20039 53005=
201810111653 METAR KCLM 111653Z AUTO 00000KT 10SM CLR 12/07 A3015 RMK AO2 SLP210 T01170067=
201810111553 METAR KCLM 111553Z AUTO 23006KT 10SM CLR 09/05 A3014 RMK AO2 SLP207 T00890050=
201810111453 METAR KCLM 111453Z AUTO 23007KT 10SM CLR 07/04 A3014 RMK AO2 SLP208 T00720039 51007=
201810111353 METAR KCLM 111353Z AUTO 23006KT 10SM CLR 07/04 A3014 RMK AO2 SLP207 T00670039=
201810111253 METAR KCLM 111253Z AUTO 23006KT 10SM CLR 07/04 A3013 RMK AO2 SLP204 T00720044=
201810111153 METAR KCLM 111153Z AUTO 22006KT 10SM CLR 07/04 A3012 RMK AO2 SLP201 T00720044 10089 20044 51004=
201810111053 METAR KCLM 111053Z AUTO 23008KT 10SM CLR 07/04 A3012 RMK AO2 SLP200 T00720044=
201810110953 METAR KCLM 110953Z AUTO 23007KT 10SM CLR 08/05 A3012 RMK AO2 SLP200 T00780050=
201810110853 METAR KCLM 110853Z AUTO 23005KT 10SM CLR 05/04 A3011 RMK AO2 SLP197 T00500039 53009=
201810110753 METAR KCLM 110753Z AUTO 22005KT 10SM CLR 06/04 A3010 RMK AO2 SLP193 T00560044 401500050=
201810110653 METAR KCLM 110653Z AUTO 23004KT 10SM CLR 06/05 A3008 RMK AO2 SLP188 T00610050=
201810110553 METAR KCLM 110553Z AUTO 23007KT 10SM CLR 08/06 A3008 RMK AO2 SLP187 T00830061 10144 20061 53008=
201810110453 METAR KCLM 110453Z AUTO 23004KT 10SM CLR 07/05 A3007 RMK AO2 SLP182 T00670050=
201810110353 METAR KCLM 110353Z AUTO 22005KT 10SM CLR 08/07 A3006 RMK AO2 SLP181 T00780067=
201810110253 METAR KCLM 110253Z AUTO 00000KT 10SM CLR 09/07 A3006 RMK AO2 SLP179 T00890072 53006=
201810110153 METAR KCLM 110153Z AUTO 00000KT 10SM CLR 10/08 A3005 RMK AO2 SLP176 T01000083=
201810110053 METAR KCLM 110053Z AUTO 00000KT 9SM CLR 13/09 A3005 RMK AO2 SLP175 T01330089=
201810102353 METAR KCLM 102353Z AUTO 10004KT 10SM CLR 14/08 A3004 RMK AO2 SLP173 T01440083 10150 20122 55005=
201810102253 METAR KCLM 102253Z AUTO 09006KT 10SM CLR 14/08 A3004 RMK AO2 SLP172 T01440083=
201810102153 METAR KCLM 102153Z AUTO 09006KT 10SM CLR 14/08 A3005 RMK AO2 SLP176 T01440083=
201810102053 METAR KCLM 102053Z AUTO 10005KT 10SM CLR 14/09 A3006 RMK AO2 SLP179 T01440094 58002=
201810101953 METAR KCLM 101953Z AUTO 10006KT 10SM CLR 14/09 A3006 RMK AO2 SLP179 T01390089=
201810101853 METAR KCLM 101853Z AUTO 07006KT 10SM BKN090 13/09 A3007 RMK AO2 SLP182 T01280094=
201810101753 METAR KCLM 101753Z AUTO VRB04KT 10SM BKN090 12/09 A3006 RMK AO2 SLP181 T01220089 10139 20061 53008=
201810101653 METAR KCLM 101653Z AUTO VRB04KT 10SM CLR 13/08 A3005 RMK AO2 SLP178 T01280083=
201810101553 METAR KCLM 101553Z AUTO 00000KT 10SM CLR 11/08 A3004 RMK AO2 SLP175 T01060078=
201810101453 METAR KCLM 101453Z AUTO 22003KT 10SM FEW080 07/06 A3004 RMK AO2 SLP173 T00720056 53005=
201810101353 METAR KCLM 101353Z AUTO 17003KT 10SM CLR 07/06 A3003 RMK AO2 SLP169 T00670056=
201810101253 METAR KCLM 101253Z AUTO 00000KT 10SM CLR 06/05 A3002 RMK AO2 SLP166 T00610050=
201810101153 METAR KCLM 101153Z AUTO 22004KT 10SM CLR 07/05 A3002 RMK AO2 SLP168 T00670050 10106 20056 50001=
201810101053 METAR KCLM 101053Z AUTO 23004KT 10SM CLR 08/06 A3003 RMK AO2 SLP170 T00780061=
201810100953 METAR KCLM 100953Z AUTO 20003KT 10SM CLR 09/06 A3003 RMK AO2 SLP169 T00890061=
201810100853 METAR KCLM 100853Z AUTO 24007KT 10SM CLR 10/06 A3002 RMK AO2 SLP166 T01000061 58000=
201810100753 METAR KCLM 100753Z AUTO 23007KT 10SM CLR 10/06 A3002 RMK AO2 SLP167 T01000061 401780089=
201810100653 METAR KCLM 100653Z AUTO 24008KT 10SM CLR 10/07 A3002 RMK AO2 SLP168 T01000067=
201810100553 METAR KCLM 100553Z AUTO 24008KT 10SM CLR 10/07 A3002 RMK AO2 SLP167 T01000067 10172 20089 51008=
201810100453 METAR KCLM 100453Z AUTO 24009KT 10SM CLR 10/07 A3002 RMK AO2 SLP167 T01000067=
201810100353 METAR KCLM 100353Z AUTO 24008KT 10SM CLR 10/07 A3001 RMK AO2 SLP163 T01000067=
201810100253 METAR KCLM 100253Z AUTO 23006KT 10SM CLR 11/07 A3000 RMK AO2 SLP159 T01060072 53001=
201810100153 METAR KCLM 100153Z AUTO 17003KT 10SM CLR 11/08 A2999 RMK AO2 SLP158 T01110078=
201810100053 METAR KCLM 100053Z AUTO 11003KT 10SM CLR 16/06 A3000 RMK AO2 SLP157 T01560061=
201810092353 METAR KCLM 092353Z AUTO 00000KT 10SM CLR 17/06 A2999 RMK AO2 SLP157 T01720061 10178 20139 51002=
201810092253 METAR KCLM 092253Z AUTO VRB03KT 10SM CLR 18/05 A2999 RMK AO2 SLP156 T01780050=
201810092153 METAR KCLM 092153Z AUTO VRB04KT 10SM CLR 17/08 A2999 RMK AO2 SLP156 T01720078=
201810092053 METAR KCLM 092053Z AUTO 06004KT 10SM CLR 17/07 A2999 RMK AO2 SLP154 T01670072 50003=
201810091953 METAR KCLM 091953Z AUTO 10003KT 10SM CLR 16/08 A3000 RMK AO2 SLP158 T01610083=
201810091853 METAR KCLM 091853Z AUTO VRB06KT 10SM CLR 14/09 A2999 RMK AO2 SLP157 T01440089=
201810091753 METAR KCLM 091753Z AUTO 11008KT 10SM CLR 14/08 A2998 RMK AO2 SLP152 T01390083 10139 20094 53018=
201810091653 METAR KCLM 091653Z AUTO 10008KT 10SM CLR 13/08 A2995 RMK AO2 SLP144 T01330083=
201810091553 METAR KCLM 091553Z AUTO 13007KT 10SM CLR 13/09 A2994 RMK AO2 SLP138 T01280094=
201810091506 SPECI KCLM 091506Z AUTO 14005KT 10SM FEW024 10/09 A2993 RMK AO2 T01000094=
201810091453 METAR KCLM 091453Z AUTO 17004KT 10SM FEW012 BKN023 11/10 A2992 RMK AO2 SLP133 T01060100 51016=
201810091451 SPECI KCLM 091451Z AUTO 17004KT 10SM SCT012 BKN023 11/10 A2992 RMK AO2=
201810091400 SPECI KCLM 091400Z AUTO 13005KT 9SM BKN012 OVC046 09/09 A2990 RMK AO2 T00940089=
201810091353 METAR KCLM 091353Z AUTO 11003KT 7SM SCT012 BKN046 09/09 A2990 RMK AO2 SLP126 T00940089=
201810091351 SPECI KCLM 091351Z AUTO 12003KT 3SM BR SCT012 BKN046 09/09 A2990 RMK AO2=
201810091339 SPECI KCLM 091339Z AUTO 00000KT 1 1/2SM BR BKN046 09/09 A2989 RMK AO2 VIS 1/2V5 T00940089=
201810091300 SPECI KCLM 091300Z AUTO 00000KT 7SM OVC050 10/09 A2988 RMK AO2 T01000094=
201810091253 METAR KCLM 091253Z AUTO 00000KT 2 1/2SM BR BKN050 10/09 A2988 RMK AO2 VIS 1 1/2V5 SLP117 T01000089=
201810091153 METAR KCLM 091153Z AUTO 28006KT 10SM FEW002 OVC060 11/10 A2986 RMK AO2 SLP113 60000 70009 T01060100 10117 20100 53006=
201810091139 SPECI KCLM 091139Z AUTO 30008KT 10SM SCT003 OVC055 11/10 A2986 RMK AO2 T01110100=
201810091053 METAR KCLM 091053Z AUTO 29007KT 10SM SCT060 OVC100 11/10 A2984 RMK AO2 SLP106 T01110100=
201810090953 METAR KCLM 090953Z AUTO 27010KT 10SM CLR 11/10 A2984 RMK AO2 SLP106 T01110100=
201810090913 SPECI KCLM 090913Z AUTO 26009KT 10SM FEW008 SCT028 12/11 A2985 RMK AO2 T01170106=
201810090853 METAR KCLM 090853Z AUTO 29009KT 10SM FEW024 12/11 A2984 RMK AO2 SLP107 60000 T01170106 58005=
201810090817 SPECI KCLM 090817Z AUTO 29011KT 10SM SCT006 OVC015 12/11 A2985 RMK AO2 T01170106=
201810090753 METAR KCLM 090753Z AUTO 30012G20KT 9SM OVC004 12/11 A2985 RMK AO2 CIG 002V007 SLP110 T01170111 401170100=
201810090653 METAR KCLM 090653Z AUTO 23003KT 3SM BR OVC003 11/10 A2986 RMK AO2 RAB33E43 SLP112 P0000 T01060100=
201810090651 SPECI KCLM 090651Z AUTO 24004KT 3SM BR OVC003 11/10 A2986 RMK AO2 RAB33E43 P0000=
201810090643 SPECI KCLM 090643Z AUTO 25003KT 1 1/2SM BR OVC003 10/10 A2986 RMK AO2 RAB33E43 P0000 T01000100=
201810090625 SPECI KCLM 090625Z AUTO 29005KT 3/4SM BR VV002 10/09 A2987 RMK AO2 T01000094=
201810090619 SPECI KCLM 090619Z AUTO 28005KT 1SM BR OVC001 10/09 A2987 RMK AO2 T01000094=
201810090600 SPECI KCLM 090600Z AUTO 31006KT 2 1/2SM BR OVC001 10/09 A2987 RMK AO2 T01000094=
201810090553 METAR KCLM 090553Z AUTO 33004KT 1 3/4SM BR OVC001 10/10 A2987 RMK AO2 SLP116 T01000100 10117 20100 56011=
201810090547 SPECI KCLM 090547Z AUTO 29005KT 1SM BR VV001 10/09 A2987 RMK AO2=
201810090528 SPECI KCLM 090528Z AUTO 00000KT 1/4SM FG BKN001 OVC011 10/10 A2987 RMK AO2 T01000100=
201810090519 SPECI KCLM 090519Z AUTO 36004KT 1/4SM FG SCT001 OVC011 11/10 A2987 RMK AO2 T01060100=
201810090513 SPECI KCLM 090513Z AUTO VRB03KT 1 3/4SM BR FEW003 OVC011 11/10 A2987 RMK AO2 VIS 1/2V3 T01110100=
201810090453 METAR KCLM 090453Z AUTO 00000KT 3SM BR FEW003 OVC011 11/10 A2988 RMK AO2 SLP119 T01110100=
201810090450 SPECI KCLM 090450Z AUTO 00000KT 3SM BR FEW003 OVC011 11/11 A2988 RMK AO2=
201810090353 METAR KCLM 090353Z AUTO 00000KT 5SM BR OVC012 11/11 A2991 RMK AO2 SLP128 T01110106=
201810090253 METAR KCLM 090253Z AUTO 00000KT 6SM BR OVC013 11/10 A2991 RMK AO2 SLP131 T01110100 58006=
201810090233 SPECI KCLM 090233Z AUTO 00000KT 4SM BR OVC013 11/11 A2992 RMK AO2 T01110106=
201810090222 SPECI KCLM 090222Z AUTO 00000KT 3SM BR SCT004 OVC015 11/10 A2992 RMK AO2 T01110100=
201810090153 METAR KCLM 090153Z AUTO 00000KT 6SM BR BKN004 OVC016 11/11 A2992 RMK AO2 SLP132 T01110106=
201810090134 SPECI KCLM 090134Z AUTO 00000KT 6SM BR BKN004 OVC017 11/10 A2992 RMK AO2 T01110100=
201810090103 SPECI KCLM 090103Z AUTO 00000KT 3SM BR OVC005 11/11 A2993 RMK AO2 T01110106=
201810090053 METAR KCLM 090053Z AUTO 00000KT 2 1/2SM BR OVC006 11/10 A2994 RMK AO2 CIG 002V008 SLP138 T01110100=
201810090049 SPECI KCLM 090049Z AUTO 00000KT 1 3/4SM BR OVC006 11/11 A2993 RMK AO2 CIG 001V008=
201810090027 SPECI KCLM 090027Z AUTO 00000KT 2 1/2SM BR OVC005 11/11 A2994 RMK AO2 CIG 001V008 T01110106=
201810090015 SPECI KCLM 090015Z AUTO 02003KT 4SM BR OVC005 11/11 A2995 RMK AO2 CIG 002V008 T01110106=
201810082353 METAR KCLM 082353Z AUTO 00000KT 7SM BKN004 BKN020 OVC025 11/10 A2994 RMK AO2 SLP140 60005 T01110100 10111 20100 58010=
201810082342 SPECI KCLM 082342Z AUTO 00000KT 5SM BR BKN004 BKN020 OVC025 11/10 A2995 RMK AO2 T01110100=
201810082312 SPECI KCLM 082312Z AUTO 00000KT 5SM BR SCT003 OVC023 11/10 A2996 RMK AO2 T01110100=
201810082253 METAR KCLM 082253Z AUTO 00000KT 6SM BR OVC003 11/10 A2996 RMK AO2 RAB14E51 SLP148 P0003 T01060100=
201810082249 SPECI KCLM 082249Z AUTO 00000KT 4SM -RA BR OVC003 11/10 A2997 RMK AO2 RAB14 P0003=
201810082241 SPECI KCLM 082241Z AUTO 00000KT 2 1/2SM -RA BR OVC003 11/10 A2997 RMK AO2 RAB14 P0003 T01060100=
201810082227 SPECI KCLM 082227Z AUTO 00000KT 1 3/4SM -RA BR OVC003 11/10 A2997 RMK AO2 RAB14 P0001 T01060100=
201810082153 METAR KCLM 082153Z AUTO 00000KT 7SM OVC004 11/10 A2997 RMK AO2 RAE2058 SLP151 P0000 T01060100=
201810082144 SPECI KCLM 082144Z AUTO 00000KT 3SM BR OVC003 11/10 A2997 RMK AO2 RAE2058 P0000 T01060100=
201810082134 SPECI KCLM 082134Z AUTO 00000KT 1 1/4SM BR OVC002 11/10 A2998 RMK AO2 VIS 3/4V3 RAE2058 P0000 T01060100=
201810082116 SPECI KCLM 082116Z AUTO 00000KT 3/4SM BR OVC002 11/10 A2998 RMK AO2 RAE2058 P0000 T01060100=
201810082100 SPECI KCLM 082100Z AUTO 07003KT 1 1/4SM BR OVC002 11/10 A2998 RMK AO2 RAE2058 P0000 T01060100=
201810082053 METAR KCLM 082053Z AUTO 00000KT 3/4SM -RA BR VV002 11/10 A2999 RMK AO2 RAB22E40B45 SLP155 P0002 60002 T01060100 56007=
201810082040 SPECI KCLM 082040Z AUTO 00000KT 1/4SM FG VV002 11/10 A2999 RMK AO2 RAB22E40 P0002 T01060100=
201810082001 SPECI KCLM 082001Z AUTO 00000KT M1/4SM FG VV001 11/10 A2999 RMK AO2 T01060100=
201810081953 METAR KCLM 081953Z AUTO 06004KT M1/4SM FG VV002 11/10 A2999 RMK AO2 RAB17E29 SLP157 P0000 T01060100=
201810081938 SPECI KCLM 081938Z AUTO 00000KT 1/4SM FG VV002 11/10 A2999 RMK AO2 RAB17E29 P0000 T01060100=
201810081853 METAR KCLM 081853Z AUTO 00000KT M1/4SM FG VV001 11/10 A3000 RMK AO2 SLP161 T01060100=
201810081831 SPECI KCLM 081831Z AUTO VRB03KT M1/4SM FG VV002 11/10 A3000 RMK AO2 T01060100=
201810081823 SPECI KCLM 081823Z AUTO VRB03KT M1/4SM FG VV001 10/10 A3000 RMK AO2 T01000100=
201810081753 METAR KCLM 081753Z AUTO 00000KT 1/4SM FG OVC002 11/10 A3001 RMK AO2 RAE1657 SLP163 P0001 60004 T01060100 10106 20100 58009=
201810081740 SPECI KCLM 081740Z AUTO 00000KT 1 1/2SM BR OVC002 11/10 A3001 RMK AO2 RAE1657 P0001 T01060100=
201810081718 SPECI KCLM 081718Z AUTO 09003KT 3/4SM BR OVC002 11/10 A3002 RMK AO2 RAE1657 P0001 T01060100=
201810081711 SPECI KCLM 081711Z AUTO 00000KT 1SM BR OVC002 10/09 A3003 RMK AO2 RAE1657 P0000 T01000094=
201810081653 METAR KCLM 081653Z AUTO 08003KT 1/2SM -RA FG VV002 10/10 A3003 RMK AO2 RAB02E16B45 SLP169 P0002 T01000100=
201810081630 SPECI KCLM 081630Z AUTO 00000KT 1/2SM FG VV002 10/09 A3003 RMK AO2 RAB02E16 P0002 T01000094=
201810081553 METAR KCLM 081553Z AUTO 00000KT 1/4SM FG VV002 10/09 A3003 RMK AO2 SLP169 P0001 T01000094=
201810081546 SPECI KCLM 081546Z AUTO 00000KT 1/4SM FG VV002 10/09 A3003 RMK AO2 P0001 T01000094=
201810081512 SPECI KCLM 081512Z AUTO 00000KT 1/2SM FG VV002 10/09 A3003 RMK AO2 P0001 T01000094=
201810081453 METAR KCLM 081453Z AUTO 00000KT 1/4SM FG VV002 10/09 A3004 RMK AO2 RAB16E32 SLP172 P0000 60000 T01000094 55003=
201810081435 SPECI KCLM 081435Z AUTO 00000KT 1/4SM FG VV002 10/09 A3004 RMK AO2 RAB16E32 P0000 T01000094=
201810081424 SPECI KCLM 081424Z AUTO 00000KT 1/2SM -RA FG VV002 10/09 A3004 RMK AO2 RAB16 P0000 T01000094=
201810081417 SPECI KCLM 081417Z AUTO 00000KT 1SM -RA BR OVC002 10/09 A3004 RMK AO2 RAB16 P0000 T01000094=
201810081407 SPECI KCLM 081407Z AUTO 00000KT 2SM BR OVC002 10/09 A3004 RMK AO2 T01000094=
201810081353 METAR KCLM 081353Z AUTO 00000KT 1 1/2SM BR OVC003 10/09 A3003 RMK AO2 SLP171 T01000094=
201810081312 SPECI KCLM 081312Z AUTO 00000KT 1SM BR OVC002 10/09 A3004 RMK AO2 T01000094=
201810081253 METAR KCLM 081253Z AUTO 00000KT 3/4SM BR OVC002 10/09 A3005 RMK AO2 SLP175 T01000094=
201810081242 SPECI KCLM 081242Z AUTO 00000KT 1 1/4SM BR OVC002 10/09 A3005 RMK AO2 T01000094=
201810081153 METAR KCLM 081153Z AUTO 00000KT 2SM BR OVC004 10/09 A3005 RMK AO2 SLP175 60002 70038 T01000094 10100 20100 58010=
201810081145 SPECI KCLM 081145Z AUTO 00000KT 2SM BR OVC004 10/09 A3004 RMK AO2 T01000094=
201810081102 SPECI KCLM 081102Z AUTO 00000KT 1 1/4SM BR OVC002 10/09 A3005 RMK AO2 T01000094=
201810081053 METAR KCLM 081053Z AUTO 00000KT 1/2SM FG VV002 10/09 A3006 RMK AO2 SLP180 T01000094=
201810081013 SPECI KCLM 081013Z AUTO 00000KT 1/4SM FG OVC003 10/09 A3006 RMK AO2 T01000094=
201810081009 SPECI KCLM 081009Z AUTO 00000KT 3/4SM BR OVC005 10/09 A3006 RMK AO2 T01000094=
201810080953 METAR KCLM 080953Z AUTO 00000KT 2 1/2SM BR OVC006 10/09 A3007 RMK AO2 RAE0854 SLP182 P0000 T01000094=
201810080945 SPECI KCLM 080945Z AUTO 00000KT 2SM BR BKN006 OVC010 10/09 A3007 RMK AO2 RAE0854 P0000 T01000094=
201810080912 SPECI KCLM 080912Z AUTO 00000KT 2SM BR OVC004 10/09 A3007 RMK AO2 RAE0854 P0000 T01000094=
201810080853 METAR KCLM 080853Z AUTO 00000KT 1 3/4SM -RA BR OVC004 10/09 A3008 RMK AO2 RAE05B40 SLP185 P0002 60002 T01000094 58000=
201810080844 SPECI KCLM 080844Z AUTO 00000KT 1 3/4SM -RA BR OVC004 10/10 A3008 RMK AO2 RAE05B40 P0002 T01000100=
201810080816 SPECI KCLM 080816Z AUTO 29003KT 1 3/4SM BR BKN006 OVC010 10/09 A3008 RMK AO2 RAE05 P0000 T01000094=
201810080808 SPECI KCLM 080808Z AUTO 31004KT 2 1/2SM BR SCT006 OVC011 10/09 A3008 RMK AO2 RAE05 P0000 T01000094=
201810080753 METAR KCLM 080753Z AUTO 30003KT 3SM -RA BR OVC011 10/09 A3008 RMK AO2 RAB38 SLP188 P0000 T01000094 401060078=
201810080738 SPECI KCLM 080738Z AUTO 32003KT 5SM -RA BR BKN011 BKN026 OVC060 10/09 A3008 RMK AO2 RAB38 P0000 T01000094=
201810080710 SPECI KCLM 080710Z AUTO 28004KT 9SM SCT016 SCT027 OVC034 10/09 A3007 RMK AO2 T01000094=
201810080653 METAR KCLM 080653Z AUTO 26006KT 7SM OVC015 10/09 A3008 RMK AO2 RAE04 SLP185 P0000 T01000089=
201810080641 SPECI KCLM 080641Z AUTO 28005KT 5SM BR SCT004 OVC014 10/09 A3008 RMK AO2 RAE04 P0000 T01000094=
201810080553 METAR KCLM 080553Z AUTO 25005KT 5SM -RA BR OVC003 10/09 A3009 RMK AO2 SLP192 P0001 60006 T01000094 10100 20094 58001=
201810080453 METAR KCLM 080453Z AUTO 26004KT 6SM -RA BR OVC004 10/09 A3010 RMK AO2 SLP193 P0002 T01000094=
201810080444 SPECI KCLM 080444Z AUTO 26004KT 5SM -RA BR BKN005 BKN012 OVC060 10/09 A3010 RMK AO2 P0002 T01000094=
201810080436 SPECI KCLM 080436Z AUTO 27004KT 5SM -RA BR SCT005 BKN012 OVC060 10/09 A3010 RMK AO2 P0002 T01000089=
201810080412 SPECI KCLM 080412Z AUTO 28004KT 6SM -RA BR FEW006 SCT045 OVC060 10/09 A3009 RMK AO2 P0000 T01000089=
201810080353 METAR KCLM 080353Z AUTO 27004KT 5SM -RA BR OVC044 10/09 A3009 RMK AO2 RAE0254B16 SLP192 P0001 T01000089=
201810080253 METAR KCLM 080253Z AUTO 00000KT 6SM -RA BR OVC043 10/09 A3010 RMK AO2 RAB00 SLP193 P0002 60002 T01000089 56007=
201810080153 METAR KCLM 080153Z AUTO 00000KT 7SM FEW015 SCT045 OVC050 10/09 A3010 RMK AO2 RAB10E28 SLP193 P0000 T01000094=
201810080111 SPECI KCLM 080111Z AUTO 28003KT 3SM -RA BR SCT003 OVC015 10/09 A3012 RMK AO2 RAB10 P0000 T01000094=
201810080053 METAR KCLM 080053Z AUTO 00000KT 4SM BR BKN002 OVC015 10/09 A3012 RMK AO2 SLP201 T01000094=
201810080038 SPECI KCLM 080038Z AUTO 00000KT 3SM BR BKN002 OVC045 10/09 A3012 RMK AO2 T01000094=
201810080016 SPECI KCLM 080016Z AUTO 01003KT 5SM BR FEW002 OVC048 10/09 A3012 RMK AO2 T01000094=
201810072353 METAR KCLM 072353Z AUTO 34003KT 6SM BR OVC048 10/09 A3013 RMK AO2 SLP205 60010 T01000089 10106 20100 58005=
201810072312 SPECI KCLM 072312Z AUTO 00000KT 9SM SCT004 OVC050 11/09 A3013 RMK AO2 T01060089=
201810072253 METAR KCLM 072253Z AUTO 00000KT 7SM BKN004 OVC050 11/09 A3013 RMK AO2 RAE38 SLP205 P0001 T01060094=
201810072214 SPECI KCLM 072214Z AUTO 00000KT 4SM -RA BR SCT004 OVC050 11/09 A3014 RMK AO2 P0001 T01060094=
201810072153 METAR KCLM 072153Z AUTO 00000KT 4SM -RA BR OVC050 10/09 A3015 RMK AO2 SLP211 P0002 T01000089=
201810072122 SPECI KCLM 072122Z AUTO 06003KT 4SM -RA BR SCT006 OVC055 10/09 A3015 RMK AO2 P0002 T01000089=
201810072114 SPECI KCLM 072114Z AUTO 03004KT 4SM -RA BR BKN005 OVC055 11/09 A3015 RMK AO2 P0002 T01060094=
201810072053 METAR KCLM 072053Z AUTO VRB03KT 4SM -RA BR FEW003 OVC060 11/09 A3015 RMK AO2 SLP210 P0001 60007 T01060089 58010=
201810072039 SPECI KCLM 072039Z AUTO 08003KT 4SM -RA BR SCT005 OVC060 11/09 A3015 RMK AO2 P0001 T01060094=
201810072034 SPECI KCLM 072034Z AUTO VRB03KT 3SM -RA BR BKN003 OVC060 11/09 A3015 RMK AO2 P0001 T01060094=
201810071953 METAR KCLM 071953Z AUTO 00000KT 4SM -RA BR BKN005 BKN009 OVC050 11/09 A3016 RMK AO2 SLP216 P0001 T01060094=
201810071915 SPECI KCLM 071915Z AUTO 05004KT 6SM -RA BR BKN004 BKN011 OVC050 10/09 A3018 RMK AO2 P0000 T01000094=
201810071853 METAR KCLM 071853Z AUTO 00000KT 4SM -RA BR FEW005 OVC050 11/09 A3018 RMK AO2 SLP220 P0005 T01060094=
201810071753 METAR KCLM 071753Z AUTO 07003KT 3SM -RA BR FEW008 OVC060 10/09 A3018 RMK AO2 SLP220 P0005 60020 T01000089 10106 20083 55001=
201810071721 SPECI KCLM 071721Z AUTO 05003KT 6SM -RA BR FEW009 OVC065 10/09 A3018 RMK AO2 P0002 T01000089=
201810071653 METAR KCLM 071653Z AUTO 00000KT 5SM -RA BR SCT070 OVC090 10/09 A3018 RMK AO2 SLP220 P0005 T01000089=
201810071553 METAR KCLM 071553Z AUTO 00000KT 3SM -RA BR BKN070 OVC085 09/09 A3018 RMK AO2 SLP221 P0004 T00940089=
201810071453 METAR KCLM 071453Z AUTO 00000KT 4SM -RA BR OVC060 09/08 A3018 RMK AO2 SLP221 P0004 60006 T00890078 56003=
201810071353 METAR KCLM 071353Z AUTO 00000KT 7SM -RA OVC070 09/08 A3019 RMK AO2 SLP223 P0002 T00890078=
201810071253 METAR KCLM 071253Z AUTO 25004KT 10SM -RA OVC090 09/07 A3018 RMK AO2 RAB36 SLP220 P0000 T00890067=
201810071153 METAR KCLM 071153Z AUTO 25004KT 10SM SCT065 OVC090 08/07 A3019 RMK AO2 SLP224 T00830067 10100 20072 56004=
201810071053 METAR KCLM 071053Z AUTO 00000KT 10SM BKN120 08/07 A3020 RMK AO2 SLP227 T00830067=
201810070953 METAR KCLM 070953Z AUTO 23003KT 10SM CLR 08/07 A3019 RMK AO2 SLP224 T00830067=
201810070853 METAR KCLM 070853Z AUTO 22003KT 10SM CLR 09/06 A3020 RMK AO2 SLP228 T00940061 50000=
201810070753 METAR KCLM 070753Z AUTO 24005KT 10SM CLR 09/07 A3021 RMK AO2 SLP230 T00940067 401560039=
201810070653 METAR KCLM 070653Z AUTO VRB03KT 10SM CLR 09/07 A3021 RMK AO2 SLP229 T00890067=
201810070553 METAR KCLM 070553Z AUTO 21004KT 10SM CLR 09/07 A3020 RMK AO2 SLP228 T00890067 10144 20078 53002=
201810070453 METAR KCLM 070453Z AUTO 00000KT 10SM CLR 08/07 A3020 RMK AO2 SLP227 T00830067=
201810070353 METAR KCLM 070353Z AUTO 00000KT 10SM CLR 08/07 A3019 RMK AO2 SLP225 T00830072=
201810070253 METAR KCLM 070253Z AUTO 00000KT 10SM CLR 09/07 A3020 RMK AO2 SLP228 T00890072 53001=
201810070153 METAR KCLM 070153Z AUTO 00000KT 10SM CLR 10/07 A3019 RMK AO2 SLP225 T01000067=
201810070053 METAR KCLM 070053Z AUTO 13003KT 10SM CLR 14/07 A3019 RMK AO2 SLP224 T01440067=
201810062353 METAR KCLM 062353Z AUTO 35003KT 10SM CLR 14/08 A3019 RMK AO2 SLP225 T01440078 10156 20117 53008=
201810062253 METAR KCLM 062253Z AUTO 07004KT 10SM CLR 15/06 A3018 RMK AO2 SLP221 T01500056=
201810062153 METAR KCLM 062153Z AUTO VRB04KT 10SM CLR 15/07 A3017 RMK AO2 SLP216 T01500067=
201810062053 METAR KCLM 062053Z AUTO VRB03KT 10SM CLR 15/07 A3017 RMK AO2 SLP217 T01500067 53004=
201810061953 METAR KCLM 061953Z AUTO 04004KT 10SM CLR 14/08 A3017 RMK AO2 SLP216 T01390078=
201810061853 METAR KCLM 061853Z AUTO 08003KT 10SM CLR 14/08 A3016 RMK AO2 SLP213 T01440083=
201810061753 METAR KCLM 061753Z AUTO 00000KT 10SM CLR 12/09 A3016 RMK AO2 SLP213 T01170089 10117 20039 51020=
201810061653 METAR KCLM 061653Z AUTO 00000KT 10SM CLR 10/08 A3015 RMK AO2 SLP209 T01000083=
201810061553 METAR KCLM 061553Z AUTO 00000KT 10SM CLR 09/07 A3012 RMK AO2 SLP199 T00890072=
201810061453 METAR KCLM 061453Z AUTO 12004KT 10SM CLR 05/04 A3010 RMK AO2 SLP193 T00500044 51016=
201810061353 METAR KCLM 061353Z AUTO 21004KT 8SM CLR 05/04 A3008 RMK AO2 SLP188 T00500044=
201810061253 METAR KCLM 061253Z AUTO 23004KT 8SM CLR 05/04 A3007 RMK AO2 SLP186 T00500044=
201810061228 SPECI KCLM 061228Z AUTO 00000KT 3SM BR CLR 04/03 A3006 RMK AO2 T00440033=
201810061214 SPECI KCLM 061214Z AUTO 22006KT 1 1/4SM BR FEW002 05/04 A3006 RMK AO2 VIS 1/2V4 T00500044=
201810061200 SPECI KCLM 061200Z AUTO 22004KT 3/4SM BR VV002 05/04 A3005 RMK AO2 T00500044=
201810061153 METAR KCLM 061153Z AUTO 00000KT 1SM BR VV002 04/04 A3005 RMK AO2 VIS 1/4V5 SLP178 70047 T00440044 10094 20039 51009=
201810061149 SPECI KCLM 061149Z AUTO 00000KT 5SM BR CLR 06/05 A3005 RMK AO2=
201810061141 SPECI KCLM 061141Z AUTO 22004KT 2SM BR CLR 06/05 A3005 RMK AO2 T00560050=
201810061135 SPECI KCLM 061135Z AUTO 21003KT 1/2SM FG CLR 06/04 A3004 RMK AO2 T00560044=
201810061104 SPECI KCLM 061104Z AUTO 00000KT 1 1/2SM BR CLR 04/04 A3003 RMK AO2 VIS 1/2V5 T00440039=
201810061053 METAR KCLM 061053Z AUTO 19003KT 3SM BR CLR 05/04 A3003 RMK AO2 SLP171 T00500044=
201810061014 SPECI KCLM 061014Z AUTO 00000KT 1 1/4SM BR CLR 06/06 A3003 RMK AO2 VIS 1/2V5 T00610056=
201810060953 METAR KCLM 060953Z AUTO 20003KT 2 1/2SM BR CLR 07/06 A3002 RMK AO2 VIS 1 1/2V4 SLP168 T00670061=
201810060951 SPECI KCLM 060951Z AUTO 00000KT 3SM BR FEW001 07/06 A3002 RMK AO2=
201810060943 SPECI KCLM 060943Z AUTO 22003KT 2SM BR FEW001 07/06 A3002 RMK AO2 VIS 3/4V5 T00720061=
201810060923 SPECI KCLM 060923Z AUTO 00000KT 1/2SM FG VV001 07/06 A3002 RMK AO2 T00670061=
201810060918 SPECI KCLM 060918Z AUTO 00000KT 3/4SM BR CLR 07/07 A3002 RMK AO2 VIS 1/4V3 T00720067=
201810060901 SPECI KCLM 060901Z AUTO 00000KT 2SM BR SCT038 08/07 A3001 RMK AO2 T00780072=
201810060853 METAR KCLM 060853Z AUTO 00000KT 4SM BR BKN038 08/07 A3001 RMK AO2 SLP162 T00780072 53014=
201810060753 METAR KCLM 060753Z AUTO 16003KT 10SM OVC035 09/08 A3000 RMK AO2 SLP159 T00940078 400940039=
201810060653 METAR KCLM 060653Z AUTO 15006KT 10SM SCT033 BKN055 08/07 A2997 RMK AO2 SLP151 T00830072=
201810060553 METAR KCLM 060553Z AUTO 16006KT 8SM SCT035 OVC046 09/08 A2997 RMK AO2 SLP148 60003 T00890078 10094 20083 51011=
201810060517 SPECI KCLM 060517Z AUTO 00000KT 6SM BR SCT017 OVC044 09/08 A2997 RMK AO2 T00890083=
201810060509 SPECI KCLM 060509Z AUTO 13005KT 8SM BKN017 OVC044 09/08 A2996 RMK AO2 T00940083=
201810060453 METAR KCLM 060453Z AUTO 10003KT 4SM BR FEW009 SCT017 OVC042 09/08 A2996 RMK AO2 SLP147 T00890078=
201810060442 SPECI KCLM 060442Z AUTO 00000KT 3SM BR FEW009 SCT017 OVC042 09/08 A2996 RMK AO2 T00890078=
201810060434 SPECI KCLM 060434Z AUTO 00000KT 1 3/4SM BR FEW009 OVC040 09/08 A2996 RMK AO2 T00890083=
201810060408 SPECI KCLM 060408Z AUTO 12004KT 9SM FEW009 BKN034 OVC041 09/08 A2995 RMK AO2 T00890078=
201810060356 SPECI KCLM 060356Z AUTO 09003KT 8SM SCT011 OVC035 09/08 A2995 RMK AO2 T00940083=
201810060353 METAR KCLM 060353Z AUTO 00000KT 9SM BKN009 BKN020 OVC035 09/08 A2995 RMK AO2 CIG 008V012 SLP143 T00940083=
201810060349 SPECI KCLM 060349Z AUTO 08003KT 9SM BKN009 BKN020 OVC035 09/08 A2995 RMK AO2 CIG 008V014=
201810060341 SPECI KCLM 060341Z AUTO VRB03KT 10SM FEW009 BKN021 OVC034 09/08 A2995 RMK AO2 T00940083=
201810060253 METAR KCLM 060253Z AUTO 09005KT 10SM OVC012 09/08 A2993 RMK AO2 RAE10 SLP137 P0000 60003 T00940083 53009=
201810060235 SPECI KCLM 060235Z AUTO 09006KT 10SM SCT005 OVC013 09/08 A2993 RMK AO2 RAE10 P0000 T00940083=
201810060153 METAR KCLM 060153Z AUTO 00000KT 6SM -RA BR OVC009 09/08 A2992 RMK AO2 RAB39 CIG 005V011 SLP133 P0001 T00940083=
201810060123 SPECI KCLM 060123Z AUTO 00000KT 9SM BKN013 BKN020 OVC065 09/08 A2991 RMK AO2 T00940083=
201810060113 SPECI KCLM 060113Z AUTO 00000KT 8SM SCT011 BKN019 OVC070 09/08 A2991 RMK AO2 T00940083=
201810060053 METAR KCLM 060053Z AUTO 00000KT 6SM BR FEW005 BKN065 OVC095 09/08 A2991 RMK AO2 RAE48 SLP128 P0002 T00940083=
201810060051 SPECI KCLM 060051Z AUTO 00000KT 6SM BR FEW003 BKN065 OVC095 09/08 A2991 RMK AO2 RAE48 P0002=
201810052353 METAR KCLM 052353Z AUTO 00000KT 4SM -RA BR OVC070 09/08 A2990 RMK AO2 SLP126 P0001 60038 T00940078 10094 20089 55008=
201810052253 METAR KCLM 052253Z AUTO 00000KT 8SM -RA FEW007 OVC065 09/08 A2990 RMK AO2 SLP127 P0003 T00940078=
201810052153 METAR KCLM 052153Z AUTO 09003KT 4SM -RA BR SCT003 OVC060 09/08 A2990 RMK AO2 SLP128 P0005 T00940083=
201810052143 SPECI KCLM 052143Z AUTO 00000KT 3SM -RA BR SCT005 OVC060 09/08 A2991 RMK AO2 P0005 T00940083=
201810052124 SPECI KCLM 052124Z AUTO 10005KT 2 1/2SM -RA BR FEW006 OVC060 09/08 A2991 RMK AO2 P0003 T00940083=
201810052053 METAR KCLM 052053Z AUTO 00000KT 3SM -RA BR FEW004 OVC060 09/08 A2992 RMK AO2 SLP135 P0006 60029 T00940078 58015=
201810052044 SPECI KCLM 052044Z AUTO 00000KT 4SM -RA BR SCT005 OVC065 09/08 A2993 RMK AO2 P0005 T00940078=
201810052035 SPECI KCLM 052035Z AUTO 00000KT 4SM -RA BR OVC065 09/08 A2993 RMK AO2 P0005 T00890078=
201810052018 SPECI KCLM 052018Z AUTO 22003KT 2 1/2SM -RA BR OVC060 09/08 A2993 RMK AO2 P0005 T00890078=
201810051953 METAR KCLM 051953Z AUTO 25003KT 1 1/2SM -RA BR OVC055 09/08 A2994 RMK AO2 SLP141 P0017 T00890078=
201810051937 SPECI KCLM 051937Z AUTO 25004KT 1 1/4SM RA BR SCT005 SCT010 OVC055 09/08 A2995 RMK AO2 P0012 T00890078=
201810051906 SPECI KCLM 051906Z AUTO 27005KT 1 3/4SM -RA BR OVC007 09/07 A2996 RMK AO2 P0003 T00890072=
201810051853 METAR KCLM 051853Z AUTO 27004KT 3SM -RA BR BKN008 OVC055 09/07 A2997 RMK AO2 SLP150 P0006 T00890072=
201810051753 METAR KCLM 051753Z AUTO 00000KT 4SM -RA BR OVC060 09/08 A2999 RMK AO2 SLP155 P0003 60006 T00890078 10089 20067 58019=
201810051653 METAR KCLM 051653Z AUTO 09004KT 5SM -RA BR OVC055 08/06 A3002 RMK AO2 RAB13 SLP166 P0002 T00830061=
201810051553 METAR KCLM 051553Z AUTO 16003KT 9SM OVC080 08/06 A3003 RMK AO2 RAE19 SLP172 P0001 T00830061=
201810051453 METAR KCLM 051453Z AUTO 00000KT 5SM -RA BR BKN060 OVC075 07/06 A3004 RMK AO2 SLP176 P0000 60000 T00720061 58005=
201810051353 METAR KCLM 051353Z AUTO 00000KT 9SM -RA FEW050 OVC060 07/06 A3006 RMK AO2 RAB12 SLP180 P0000 T00720061=
201810051253 METAR KCLM 051253Z AUTO 13003KT 10SM OVC070 07/05 A3006 RMK AO2 SLP182 T00720050=
201810051153 METAR KCLM 051153Z AUTO 24005KT 10SM BKN100 BKN120 07/05 A3006 RMK AO2 SLP180 T00720050 10072 20039 55010=
201810051053 METAR KCLM 051053Z AUTO 23003KT 10SM CLR 06/04 A3006 RMK AO2 SLP179 T00560044=
201810050953 METAR KCLM 050953Z AUTO 23003KT 10SM CLR 04/04 A3007 RMK AO2 SLP185 T00440039=
201810050853 METAR KCLM 050853Z AUTO 00000KT 10SM CLR 04/03 A3009 RMK AO2 SLP190 T00440033 58004=
201810050753 METAR KCLM 050753Z AUTO 23004KT 10SM CLR 06/04 A3009 RMK AO2 SLP191 T00560039 401330022=
201810050653 METAR KCLM 050653Z AUTO 23004KT 10SM CLR 06/04 A3010 RMK AO2 SLP195 T00560039=
201810050553 METAR KCLM 050553Z AUTO 24004KT 10SM CLR 07/04 A3010 RMK AO2 SLP195 T00720044 10122 20050 53007=
201810050453 METAR KCLM 050453Z AUTO 23005KT 10SM CLR 07/04 A3009 RMK AO2 SLP189 T00720039=
201810050353 METAR KCLM 050353Z AUTO 00000KT 9SM CLR 07/04 A3008 RMK AO2 SLP187 T00670044=
201810050253 METAR KCLM 050253Z AUTO 24003KT 10SM FEW065 08/06 A3008 RMK AO2 SLP188 T00830056 53007=
201810050153 METAR KCLM 050153Z AUTO 00000KT 10SM OVC065 11/04 A3008 RMK AO2 SLP186 T01110044=
201810050053 METAR KCLM 050053Z AUTO 00000KT 10SM BKN055 OVC070 12/03 A3006 RMK AO2 SLP181 T01220033=
201810042353 METAR KCLM 042353Z AUTO 00000KT 10SM OVC055 12/04 A3006 RMK AO2 SLP181 T01170039 10133 20100 53007=
201810042253 METAR KCLM 042253Z AUTO VRB03KT 10SM CLR 13/03 A3005 RMK AO2 SLP176 T01280028=
201810042153 METAR KCLM 042153Z AUTO 04005KT 10SM CLR 13/04 A3003 RMK AO2 SLP170 T01280039=
201810042053 METAR KCLM 042053Z AUTO VRB05KT 10SM CLR 13/05 A3004 RMK AO2 SLP172 T01280050 50006=
201810041953 METAR KCLM 041953Z AUTO VRB03KT 10SM CLR 11/05 A3005 RMK AO2 SLP177 T01110050=
201810041853 METAR KCLM 041853Z AUTO 09007KT 10SM FEW019 11/06 A3003 RMK AO2 SLP172 T01060056=
201810041753 METAR KCLM 041753Z AUTO 02006KT 10SM CLR 10/05 A3002 RMK AO2 SLP167 T01000050 10100 20022 51009=
201810041741 SPECI KCLM 041741Z AUTO VRB03KT 10SM SCT021 10/05 A3001 RMK AO2 T01000050=
201810041653 METAR KCLM 041653Z AUTO 00000KT 10SM OVC024 09/05 A3001 RMK AO2 SLP164 T00890050=
201810041553 METAR KCLM 041553Z AUTO 24004KT 10SM OVC024 07/05 A3000 RMK AO2 SLP162 T00670050=
201810041453 METAR KCLM 041453Z AUTO 23004KT 10SM OVC024 06/04 A2999 RMK AO2 SLP158 T00560044 53012=
201810041353 METAR KCLM 041353Z AUTO 22004KT 10SM OVC024 03/02 A2997 RMK AO2 SLP150 T00330022=
201810041330 SPECI KCLM 041330Z AUTO 00000KT 10SM BKN023 03/02 A2996 RMK AO2 T00280017=
201810041253 METAR KCLM 041253Z AUTO 00000KT 8SM FEW018 03/02 A2996 RMK AO2 SLP147 T00280017=
201810041153 METAR KCLM 041153Z AUTO 00000KT 9SM CLR 03/02 A2996 RMK AO2 SLP146 T00330022 10044 20022 50001=
201810041053 METAR KCLM 041053Z AUTO 00000KT 10SM BKN100 04/03 A2996 RMK AO2 SLP148 T00440028=
201810040953 METAR KCLM 040953Z AUTO 00000KT 10SM CLR 04/02 A2996 RMK AO2 SLP148 T00390022=
201810040853 METAR KCLM 040853Z AUTO 00000KT 10SM CLR 04/03 A2995 RMK AO2 SLP145 T00390028 56004=
201810040753 METAR KCLM 040753Z AUTO 17003KT 10SM CLR 03/02 A2996 RMK AO2 SLP145 T00280022 401000022=
201810040653 METAR KCLM 040653Z AUTO 00000KT 9SM CLR 02/02 A2996 RMK AO2 SLP148 T00220017=
201810040553 METAR KCLM 040553Z AUTO 00000KT 7SM CLR 04/03 A2997 RMK AO2 SLP149 T00390028 10094 20033 51001=
201810040453 METAR KCLM 040453Z AUTO 00000KT 8SM CLR 06/05 A2996 RMK AO2 SLP147 T00610050=
201810040353 METAR KCLM 040353Z AUTO 25003KT 10SM BKN100 07/05 A2997 RMK AO2 SLP151 T00670050=
201810040253 METAR KCLM 040253Z AUTO 00000KT 10SM OVC090 08/05 A2996 RMK AO2 SLP148 T00780050 58012=
201810040153 METAR KCLM 040153Z AUTO 00000KT 10SM SCT080 BKN100 OVC120 09/05 A2997 RMK AO2 SLP151 T00890050=
201810040053 METAR KCLM 040053Z AUTO 00000KT 10SM OVC100 09/04 A2999 RMK AO2 SLP157 T00940044=
201810040030 SPECI KCLM 040030Z AUTO 11004KT 10SM FEW021 OVC100 09/04 A2998 RMK AO2 T00940044=
201810032353 METAR KCLM 032353Z AUTO 10004KT 10SM OVC028 09/04 A3000 RMK AO2 SLP159 T00940039 10100 20083 58010=
201810032253 METAR KCLM 032253Z AUTO 09006KT 10SM OVC028 09/04 A3001 RMK AO2 SLP163 T00940044=
201810032238 SPECI KCLM 032238Z AUTO 11006KT 10SM FEW022 OVC030 09/04 A3001 RMK AO2 T00940044=
201810032153 METAR KCLM 032153Z AUTO 10SM OVC024 09/04 A3002 RMK AO2 SLP168 T00940039=
201810032053 METAR KCLM 032053Z AUTO 00000KT 10SM BKN026 09/05 A3003 RMK AO2 SLP170 T00940050 55007=
201810032051 SPECI KCLM 032051Z AUTO VRB04KT 10SM BKN026 09/05 A3003 RMK AO2=
201810031953 METAR KCLM 031953Z AUTO 05004KT 10SM FEW029 10/06 A3004 RMK AO2 SLP175 T01000061=
201810031853 METAR KCLM 031853Z AUTO 00000KT 10SM SCT017 10/06 A3005 RMK AO2 SLP177 T01000056=
201810031753 METAR KCLM 031753Z AUTO 00000KT 10SM BKN015 OVC030 08/04 A3005 RMK AO2 SLP178 T00830039 10083 20033 58004=
201810031653 METAR KCLM 031653Z AUTO 24004KT 10SM OVC017 07/03 A3006 RMK AO2 SLP181 T00670033=
201810031553 METAR KCLM 031553Z AUTO 23005KT 10SM OVC018 06/03 A3007 RMK AO2 SLP184 T00560028=
201810031509 SPECI KCLM 031509Z AUTO 24006KT 10SM BKN018 BKN026 OVC033 05/02 A3007 RMK AO2 T00500022=
201810031453 METAR KCLM 031453Z AUTO 23007KT 10SM BKN033 04/02 A3007 RMK AO2 SLP183 T00440017 50011=
201810031353 METAR KCLM 031353Z AUTO 24007KT 10SM SCT032 04/01 A3007 RMK AO2 SLP183 T00440011=
201810031253 METAR KCLM 031253Z AUTO 24005KT 10SM FEW021 04/02 A3005 RMK AO2 SLP177 T00390017=
201810031153 METAR KCLM 031153Z AUTO 24008KT 10SM CLR 04/02 A3003 RMK AO2 SLP172 70003 T00390017 10056 20033 51009=
201810031053 METAR KCLM 031053Z AUTO 24004KT 10SM CLR 03/02 A3003 RMK AO2 SLP170 T00330017=
201810030953 METAR KCLM 030953Z AUTO 25006KT 10SM CLR 05/02 A3002 RMK AO2 SLP167 T00500022=
201810030853 METAR KCLM 030853Z AUTO 23007KT 10SM CLR 04/02 A3001 RMK AO2 SLP163 T00440022 51014=
201810030753 METAR KCLM 030753Z AUTO 00000KT 10SM CLR 04/02 A2999 RMK AO2 SLP157 T00440022 401610033=
201810030653 METAR KCLM 030653Z AUTO 23007KT 10SM CLR 05/03 A2999 RMK AO2 SLP155 T00500028=
201810030553 METAR KCLM 030553Z AUTO 23007KT 10SM CLR 05/03 A2996 RMK AO2 SLP148 T00500033 10117 20044 51029=
201810030453 METAR KCLM 030453Z AUTO 00000KT 10SM CLR 05/03 A2994 RMK AO2 SLP138 T00500033=
201810030353 METAR KCLM 030353Z AUTO 23005KT 10SM CLR 06/04 A2991 RMK AO2 SLP130 T00560039=
201810030253 METAR KCLM 030253Z AUTO 26005KT 10SM CLR 08/05 A2988 RMK AO2 SLP118 T00830050 53029=
201810030153 METAR KCLM 030153Z AUTO 30007KT 8SM CLR 09/05 A2984 RMK AO2 SLP105 T00890050=
201810030053 METAR KCLM 030053Z AUTO 29012KT 9SM CLR 10/05 A2982 RMK AO2 SLP098 T01000050=
201810022353 METAR KCLM 022353Z AUTO 31009KT 9SM FEW055 12/06 A2979 RMK AO2 RAE21 SLP088 P0002 60003 T01170056 10161 20106 53012=
201810022253 METAR KCLM 022253Z AUTO 30008G17KT 4SM -RA SCT055 BKN070 OVC090 11/07 A2977 RMK AO2 RAB22 SLP083 P0001 T01110067=
201810022153 METAR KCLM 022153Z AUTO 30014G26KT 10SM FEW046 13/06 A2976 RMK AO2 PK WND 30026/2149 WSHFT 2119 SLP078 T01280056=
201810022139 SPECI KCLM 022139Z AUTO 30017G25KT 10SM SCT046 13/06 A2976 RMK AO2 WSHFT 2119 T01330061=
201810022053 METAR KCLM 022053Z AUTO 26008KT 10SM FEW070 BKN090 11/06 A2975 RMK AO2 PK WND 25027/2022 RAE12 SLP076 P0000 60000 T01110056 51010=
201810021953 METAR KCLM 021953Z AUTO 28011G20KT 6SM -RA SCT047 BKN060 OVC075 12/06 A2975 RMK AO2 RAE1854B52 SLP072 P0000 T01220061=
201810021853 METAR KCLM 021853Z AUTO 25013G27KT 10SM -RA OVC060 13/03 A2974 RMK AO2 PK WND 27028/1843 RAB35 SLP070 P0000 T01330033=
201810021753 METAR KCLM 021753Z AUTO 29012G18KT 10SM FEW042 FEW049 BKN060 15/08 A2972 RMK AO2 SLP065 T01500083 10150 20078 58002=
201810021653 METAR KCLM 021653Z AUTO 28007KT 10SM FEW055 13/09 A2973 RMK AO2 SLP068 T01330094=
201810021553 METAR KCLM 021553Z AUTO 31007KT 10SM CLR 11/08 A2973 RMK AO2 SLP067 T01110083=
201810021453 METAR KCLM 021453Z AUTO 25005KT 10SM CLR 10/08 A2973 RMK AO2 SLP068 T01000083 58009=
201810021414 SPECI KCLM 021414Z AUTO 18003KT 4SM BR FEW001 09/08 A2974 RMK AO2 T00890083=
201810021353 METAR KCLM 021353Z AUTO 26003KT 10SM CLR 09/08 A2975 RMK AO2 SLP075 T00890083=
201810021349 SPECI KCLM 021349Z AUTO 24003KT 4SM BR CLR 09/08 A2975 RMK AO2=
201810021339 SPECI KCLM 021339Z AUTO 00000KT 1 3/4SM BR CLR 08/07 A2976 RMK AO2 T00780072=
201810021253 METAR KCLM 021253Z AUTO 00000KT 10SM SCT026 10/09 A2977 RMK AO2 SLP081 T01000089 $=
201810021237 SPECI KCLM 021237Z AUTO 00000KT 10SM BKN026 10/09 A2977 RMK AO2 T01000094 $=
201810021226 SPECI KCLM 021226Z AUTO 00000KT 4SM BR SCT024 10/09 A2977 RMK AO2 T01000094 $=
201810021218 SPECI KCLM 021218Z AUTO 00000KT 1 3/4SM BR FEW022 09/08 A2977 RMK AO2 VIS 3/4V5 T00890083 $=
201810021153 METAR KCLM 021153Z AUTO 00000KT 3SM BR FEW023 11/09 A2976 RMK AO2 SLP076 70007 T01060094 10128 20100 58003 $=
201810021141 SPECI KCLM 021141Z AUTO 00000KT 10SM SCT023 11/10 A2976 RMK AO2 T01060100 $=
201810021119 SPECI KCLM 021119Z AUTO 31003KT 8SM BKN016 OVC023 12/11 A2976 RMK AO2 T01170106 $=
201810021053 METAR KCLM 021053Z AUTO 22003KT 9SM FEW004 OVC012 12/11 A2976 RMK AO2 SLP078 T01170111 $=
201810021030 SPECI KCLM 021030Z AUTO 28003KT 8SM FEW004 BKN010 12/12 A2976 RMK AO2 T01170117 $=
201810021023 SPECI KCLM 021023Z AUTO 29003KT 9SM BKN006 12/12 A2977 RMK AO2 T01170117 $=
201810021011 SPECI KCLM 021011Z AUTO 33004KT 3SM BR FEW002 FEW008 12/11 A2977 RMK AO2 T01170111 $=
201810020953 METAR KCLM 020953Z AUTO 30005KT 1 1/4SM BR FEW002 FEW006 11/11 A2977 RMK AO2 SLP080 T01110106 $=
201810020950 SPECI KCLM 020950Z AUTO 30003KT 3SM BR FEW002 SCT006 12/12 A2977 RMK AO2 $=
201810020853 METAR KCLM 020853Z AUTO 30003KT 10SM BKN006 BKN010 OVC015 13/12 A2980 RMK AO2 SLP091 T01280122 57000 $=
201810020850 SPECI KCLM 020850Z AUTO 31004KT 10SM BKN007 BKN012 OVC019 13/12 A2980 RMK AO2 $=
201810020825 SPECI KCLM 020825Z AUTO 26004KT 10SM FEW008 BKN013 OVC022 13/12 A2980 RMK AO2 T01280122 $=
201810020753 METAR KCLM 020753Z AUTO 29003KT 10SM BKN008 OVC018 13/12 A2980 RMK AO2 CIG 007V011 SLP091 T01280122 401610100 $=
201810020749 SPECI KCLM 020749Z AUTO 29003KT 10SM BKN008 OVC018 13/12 A2980 RMK AO2 CIG 007V011 $=
201810020653 METAR KCLM 020653Z AUTO 24003KT 3SM BR SCT003 BKN015 12/11 A2979 RMK AO2 SLP088 T01170111 $=
201810020647 SPECI KCLM 020647Z AUTO 26004KT 2 1/2SM BR SCT003 BKN015 12/12 A2979 RMK AO2 VIS 1 1/2V5 $=
201810020642 SPECI KCLM 020642Z AUTO 28003KT 3SM BR BKN003 BKN015 12/12 A2979 RMK AO2 T01220117 $=
201810020638 SPECI KCLM 020638Z AUTO 29003KT 1SM BR VV003 12/12 A2979 RMK AO2 VIS 1/4V5 T01220117 $=
201810020628 SPECI KCLM 020628Z AUTO 00000KT 1/4SM FG VV002 12/12 A2979 RMK AO2 T01170117 $=
201810020619 SPECI KCLM 020619Z AUTO 00000KT 1/4SM FG VV001 12/11 A2979 RMK AO2 T01170111 $=
201810020612 SPECI KCLM 020612Z AUTO 00000KT 1 1/4SM BR FEW001 12/12 A2979 RMK AO2 VIS 1/4V5 T01170117 $=
201810020607 SPECI KCLM 020607Z AUTO 00000KT 3SM BR CLR 12/12 A2979 RMK AO2 T01220117 $=
201810020600 SPECI KCLM 020600Z AUTO 22003KT 1 1/4SM BR FEW001 FEW075 13/12 A2979 RMK AO2 VIS 1/2V4 T01280122 $=
201810020553 METAR KCLM 020553Z AUTO 00000KT 2SM BR FEW001 SCT075 12/12 A2978 RMK AO2 SLP085 60000 T01220122 10144 20122 58009 $=
201810020453 METAR KCLM 020453Z AUTO 00000KT 9SM OVC070 14/13 A2980 RMK AO2 SLP090 T01390128 $=
201810020433 SPECI KCLM 020433Z AUTO 14003KT 10SM SCT027 OVC075 14/13 A2980 RMK AO2 T01390133 $=
201810020353 METAR KCLM 020353Z AUTO 27005KT 10SM OVC026 14/13 A2982 RMK AO2 SLP097 T01440133 $=
201810020335 SPECI KCLM 020335Z AUTO 27003KT 9SM BKN026 OVC031 14/13 A2982 RMK AO2 T01390133 $=
201810020326 SPECI KCLM 020326Z AUTO 31003KT 7SM OVC030 14/13 A2981 RMK AO2 T01390133 $=
201810020253 METAR KCLM 020253Z AUTO 20005KT 8SM BKN026 OVC041 14/13 A2981 RMK AO2 SLP094 60000 T01390133 53002 $=
201810020153 METAR KCLM 020153Z AUTO 00000KT 8SM OVC037 14/13 A2980 RMK AO2 RAE06 SLP089 P0000 T01440133 $=
201810020053 METAR KCLM 020053Z AUTO 00000KT 4SM -RA BR FEW025 OVC034 14/13 A2980 RMK AO2 RAB38 SLP092 P0000 T01390133 $=
201810020024 SPECI KCLM 020024Z AUTO 00000KT 3SM BR FEW005 OVC036 14/13 A2980 RMK AO2 T01390128 $=
201810020020 SPECI KCLM 020020Z AUTO 00000KT 1 1/4SM BR FEW007 OVC036 13/13 A2980 RMK AO2 T01330128 $=
201810020012 SPECI KCLM 020012Z AUTO 00000KT 1/4SM FG FEW005 OVC036 13/13 A2980 RMK AO2 T01280128 $=
201810020004 SPECI KCLM 020004Z AUTO 35004KT 3/4SM BR FEW001 SCT008 OVC036 13/12 A2980 RMK AO2 T01330122 $=
201810012353 METAR KCLM 012353Z AUTO 00000KT 9SM FEW009 BKN035 OVC050 14/13 A2980 RMK AO2 SLP090 60001 T01440133 10161 20139 57004 $=
201810012253 METAR KCLM 012253Z AUTO 14007KT 10SM SCT004 BKN036 OVC080 15/14 A2980 RMK AO2 RAB05E14 SLP090 P0000 T01500139 $=
201810012226 SPECI KCLM 012226Z AUTO 00000KT 6SM BR SCT002 OVC035 14/13 A2981 RMK AO2 RAB05E14 P0000 T01440133 $=
201810012153 METAR KCLM 012153Z AUTO 00000KT 6SM BR BKN003 BKN030 OVC035 14/13 A2981 RMK AO2 RAB12E32 SLP095 P0001 T01390133 $=
201810012128 SPECI KCLM 012128Z AUTO 35003KT 3SM -RA BR BKN004 OVC030 14/13 A2981 RMK AO2 RAB12 CIG 002V006 P0001 T01390128 $=
201810012115 SPECI KCLM 012115Z AUTO 03004KT 2 1/2SM -RA BR SCT005 OVC030 14/13 A2981 RMK AO2 RAB12 P0000 T01390128 $=
201810012053 METAR KCLM 012053Z AUTO 04003KT 9SM BKN005 OVC030 14/13 A2981 RMK AO2 SLP095 60000 T01440133 53005 $=
201810012011 SPECI KCLM 012011Z AUTO 09003KT 10SM BKN005 OVC039 15/13 A2981 RMK AO2 CIG 003V008 T01500133 $=
201810011953 METAR KCLM 011953Z AUTO 09004KT 7SM BKN004 BKN036 OVC090 15/13 A2980 RMK AO2 RAB13E44 SLP092 P0000 T01500133 $=
201810011950 SPECI KCLM 011950Z AUTO 09004KT 6SM BR BKN004 BKN039 OVC090 14/14 A2980 RMK AO2 RAB13E44 P0000 $=
201810011942 SPECI KCLM 011942Z AUTO 00000KT 3SM -RA BR SCT006 BKN035 OVC090 14/13 A2980 RMK AO2 RAB13 P0000 T01440133 $=
201810011930 SPECI KCLM 011930Z AUTO 00000KT 2SM -RA BR FEW006 BKN013 OVC050 14/13 A2980 RMK AO2 RAB13 P0000 T01390133=
201810011853 METAR KCLM 011853Z AUTO 01003KT 10SM SCT005 OVC011 14/13 A2980 RMK AO2 SLP090 T01390128=
201810011818 SPECI KCLM 011818Z AUTO VRB03KT 10SM OVC005 14/13 A2979 RMK AO2 CIG 002V007 T01440133=
201810011753 METAR KCLM 011753Z AUTO 00000KT 10SM OVC004 14/13 A2979 RMK AO2 CIG 002V006 SLP086 60006 T01390128 10144 20117 51011=
201810011653 METAR KCLM 011653Z AUTO 00000KT 10SM OVC002 13/13 A2979 RMK AO2 SLP086 T01330133=
201810011607 SPECI KCLM 011607Z AUTO 00000KT 5SM BR OVC003 13/13 A2978 RMK AO2 CIG 002V007 T01280128=
201810011553 METAR KCLM 011553Z AUTO 28003KT 3SM BR OVC007 13/13 A2978 RMK AO2 RAB12E27 CIG 003V009 SLP084 P0002 T01280128=
201810011528 SPECI KCLM 011528Z AUTO 31003KT 4SM BR BKN009 OVC037 13/12 A2977 RMK AO2 RAB12E27 P0002 T01280122=
201810011509 SPECI KCLM 011509Z AUTO 24003KT 7SM FEW009 BKN039 OVC050 13/12 A2977 RMK AO2 T01280122=
201810011453 METAR KCLM 011453Z AUTO 00000KT 6SM BR BKN008 OVC041 13/12 A2975 RMK AO2 RAE02 SLP075 P0000 60004 T01280122 53012=
201810011425 SPECI KCLM 011425Z AUTO 00000KT 8SM BKN008 BKN041 OVC060 13/12 A2975 RMK AO2 RAE02 P0000 T01280122=
201810011409 SPECI KCLM 011409Z AUTO 13003KT 7SM SCT006 BKN046 OVC060 12/12 A2974 RMK AO2 RAE02 P0000 T01220122=
201810011353 METAR KCLM 011353Z AUTO 00000KT 6SM -RA BR OVC044 12/12 A2974 RMK AO2 SLP070 P0002 T01220117=
201810011253 METAR KCLM 011253Z AUTO 00000KT 5SM -RA BR BKN060 OVC070 12/12 A2973 RMK AO2 SLP066 P0002 T01220117=
201810011153 METAR KCLM 011153Z AUTO 09003KT 5SM -RA BR OVC055 12/11 A2972 RMK AO2 SLP065 P0001 60001 70006 T01170111 10122 20100 53001=
201810011053 METAR KCLM 011053Z AUTO 00000KT 7SM -RA BKN070 OVC085 12/11 A2971 RMK AO2 RAB0958 SLP062 P0000 T01170111=
201810011015 SPECI KCLM 011015Z AUTO 09003KT 8SM -RA BKN075 OVC095 11/11 A2971 RMK AO2 RAB0958 P0000 T01110106=
201810011006 SPECI KCLM 011006Z AUTO 00000KT 2SM -RA BR SCT070 OVC090 11/10 A2971 RMK AO2 RAB0958 P0000 T01060100=
201810010953 METAR KCLM 010953Z AUTO 00000KT 9SM BKN070 OVC090 11/11 A2971 RMK AO2 RAB34E49 SLP060 P0000 T01110106=
201810010853 METAR KCLM 010853Z AUTO 00000KT 6SM BR BKN090 BKN110 11/10 A2972 RMK AO2 SLP064 T01060100 55004=
201810010846 SPECI KCLM 010846Z AUTO 00000KT 2 1/2SM BR BKN090 BKN110 11/10 A2972 RMK AO2 T01060100=
201810010834 SPECI KCLM 010834Z AUTO 17003KT 3SM BR SCT090 10/10 A2971 RMK AO2 T01000100=
201810010801 SPECI KCLM 010801Z AUTO 00000KT 1 1/2SM BR FEW001 11/11 A2971 RMK AO2 T01110106=
201810010753 METAR KCLM 010753Z AUTO 02004KT 1 3/4SM BR CLR 11/10 A2971 RMK AO2 SLP061 T01060100 401330106=
201810010747 SPECI KCLM 010747Z AUTO VRB03KT 3SM BR FEW110 11/10 A2971 RMK AO2=
201810010720 SPECI KCLM 010720Z AUTO 00000KT 1 3/4SM BR FEW065 BKN095 BKN120 11/11 A2971 RMK AO2 T01110111=
201810010653 METAR KCLM 010653Z AUTO 08003KT 5SM BR BKN060 OVC090 12/11 A2971 RMK AO2 SLP062 T01170111=
201810010638 SPECI KCLM 010638Z AUTO 00000KT 4SM BR BKN060 OVC070 12/12 A2973 RMK AO2 T01220117=
201810010620 SPECI KCLM 010620Z AUTO 00000KT 2SM BR BKN060 OVC080 12/12 A2973 RMK AO2 T01170117=
201810010608 SPECI KCLM 010608Z AUTO 00000KT 3SM BR BKN055 OVC080 12/12 A2973 RMK AO2 T01220117=
201810010553 METAR KCLM 010553Z AUTO 00000KT 2SM BR BKN060 OVC080 12/11 A2973 RMK AO2 SLP068 60002 T01170111 10133 20111 58006=
201810010527 SPECI KCLM 010527Z AUTO 18003KT 3SM BR OVC070 12/11 A2974 RMK AO2 T01170111=
201810010514 SPECI KCLM 010514Z AUTO 00000KT 2 1/2SM BR SCT060 OVC075 12/12 A2974 RMK AO2 T01170117=
201810010453 METAR KCLM 010453Z AUTO 17003KT 4SM BR BKN060 BKN075 OVC095 12/11 A2974 RMK AO2 SLP071 T01170111=
201810010441 SPECI KCLM 010441Z AUTO 00000KT 3SM BR BKN060 OVC075 12/12 A2974 RMK AO2 T01170117=
201810010422 SPECI KCLM 010422Z AUTO 00000KT 1 1/4SM BR BKN060 OVC075 12/11 A2975 RMK AO2 T01170111=
201810010414 SPECI KCLM 010414Z AUTO 25003KT 3/4SM BR FEW043 BKN060 OVC075 12/11 A2975 RMK AO2 T01170111=
201810010403 SPECI KCLM 010403Z AUTO 28003KT 1 3/4SM BR BKN070 OVC085 12/11 A2975 RMK AO2 T01170111=
201810010353 METAR KCLM 010353Z AUTO 25003KT 3SM BR SCT060 BKN075 11/11 A2975 RMK AO2 SLP075 T01110106=
201810010349 SPECI KCLM 010349Z AUTO 25004KT 3SM BR FEW060 BKN070 BKN085 11/11 A2975 RMK AO2=
201810010340 SPECI KCLM 010340Z AUTO 29003KT 2SM BR FEW002 SCT075 BKN090 11/11 A2975 RMK AO2 T01110106=
201810010314 SPECI KCLM 010314Z AUTO 14006KT 4SM BR SCT001 SCT049 BKN060 12/11 A2975 RMK AO2 T01170111=
201810010307 SPECI KCLM 010307Z AUTO 13004KT 2 1/2SM BR FEW001 SCT048 OVC065 12/12 A2975 RMK AO2 T01220117=
201810010253 METAR KCLM 010253Z AUTO 00000KT 1 1/4SM BR SCT001 SCT022 OVC060 12/12 A2976 RMK AO2 SLP078 60002 T01220117 55007=
201810010219 SPECI KCLM 010219Z AUTO 00000KT 3SM BR FEW001 BKN065 OVC080 12/12 A2976 RMK AO2 T01170117=
201810010203 SPECI KCLM 010203Z AUTO 34004KT 2 1/2SM BR FEW001 BKN080 13/12 A2976 RMK AO2 T01280122=
201810010153 METAR KCLM 010153Z AUTO 15003KT 3SM BR BKN080 BKN090 13/12 A2976 RMK AO2 RAE31 SLP077 P0002 T01330122=
201810010136 SPECI KCLM 010136Z AUTO 14006KT 3SM BR FEW050 BKN065 OVC085 13/12 A2975 RMK AO2 RAE31 P0002 T01330122=
201810010111 SPECI KCLM 010111Z AUTO 00000KT 2SM -RA BR FEW003 SCT048 OVC055 13/12 A2978 RMK AO2 P0000 T01280122=
201810010101 SPECI KCLM 010101Z AUTO 00000KT 3SM -RA BR FEW004 BKN055 OVC065 13/12 A2978 RMK AO2 P0000 T01280117=
201810010053 METAR KCLM 010053Z AUTO 00000KT 3SM -RA BR BKN004 OVC050 13/12 A2978 RMK AO2 RAB39 SLP085 P0000 T01280117=

# No short TAF reports from KCLM in databse.

###################################
#  large TAF from KCLM
###################################
201810312355 KCLM 312355Z 0100/0124 26006KT 5SM BR SCT009 BKN050 BKN120
                      TEMPO 0100/0103 3SM BR BKN009 OVC050 FM010300
                       25005KT P6SM BKN012 OVC040 FM010700 25005KT
                       P6SM -RA BKN012 OVC025 FM012000 VRB04KT
                       P6SM BKN025 BKN050=
201810312320 TAF KCLM 312320Z 0100/0124 VRB03KT P6SM SCT020 BKN050 FM010300
                       25005KT P6SM BKN020 OVC040 FM010700 25005KT
                       P6SM -RA BKN012 OVC025 FM012000 VRB04KT
                       P6SM BKN025 BKN050=
201810311720 TAF KCLM 311720Z 3118/0118 VRB03KT P6SM SCT020 BKN050
                      TEMPO 3118/3122 SCT005 BKN020 OVC040 FM010100
                       27006KT P6SM BKN022 OVC035 FM010700 25004KT
                       P6SM -RA BKN012 OVC025=
201810311611 KCLM 311611Z 3116/0112 VRB03KT P6SM SCT004 SCT020 OVC050
                      TEMPO 3116/3118 5SM BR BKN004 BKN020 OVC050
                       FM311800 25004KT P6SM SCT020 OVC040
                      TEMPO 3118/3122 SCT005 BKN020 OVC040 FM010100
                       27006KT P6SM BKN022 OVC035 FM010700 25004KT
                       P6SM -RA BKN012 OVC025=
201810311522 KCLM 311522Z 3115/0112 VRB03KT P6SM BKN004 OVC040
                      TEMPO 3115/3117 3SM BR OVC002 FM311700 25004KT
                       P6SM BKN005 OVC040 FM010100 27006KT P6SM
                       BKN022 OVC035 FM010700 25004KT P6SM -RA
                       BKN012 OVC025=
201810311138 TAF KCLM 311138Z 3112/0112 VRB03KT 5SM BR VCSH BKN008 OVC060 FM311400
                       18003KT 4SM BR VCSH BKN010 OVC020 FM311700
                       25004KT P6SM BKN015 OVC030 FM010100 27006KT
                       P6SM BKN022 OVC035 FM010700 25004KT P6SM
                       -RA BKN012 OVC025=
201810310626 KCLM 310626Z 3106/0106 24004KT P6SM -SHRA BKN002 OVC080 FM310900
                       VRB03KT 5SM -SHRA OVC015 FM311400 18003KT
                       4SM BR VCSH OVC020 FM311700 25004KT P6SM
                       BKN010 OVC020=
201810310524 TAF KCLM 310524Z 3106/0106 24004KT P6SM -RA OVC070 FM310900 VRB03KT
                       5SM -RA OVC015 FM311400 18003KT 4SM BR VCSH
                       OVC020 FM311700 25004KT P6SM BKN010 OVC020=
201810302340 TAF KCLM 302340Z 3100/3124 00000KT P6SM BKN060 OVC200 FM310200
                       00000KT P6SM -RA SCT020 OVC060 FM310600
                       VRB03KT 4SM -RA BR OVC015 FM311500 23004KT
                       P6SM SCT015 OVC030=
201810301734 TAF KCLM 301734Z 3018/3118 22004KT P6SM FEW060 FM310100 00000KT
                       P6SM -RA SCT020 OVC060 FM310600 VRB03KT
                       4SM -RA BR OVC015 FM311500 23004KT P6SM
                       BKN015 OVC035=
201810301120 TAF KCLM 301120Z 3012/3112 24004KT P6SM BKN060 FM301700 VRB03KT
                       P6SM SCT060 BKN250 FM310100 00000KT P6SM
                       -RA SCT020 OVC060 FM310700 VRB03KT P6SM
                       OVC020=
201810300534 TAF KCLM 300534Z 3006/3106 23007KT P6SM VCSH BKN060 FM300700 23003KT
                       5SM BR FEW030 BKN060 BKN100 FM300900 23004KT
                       5SM BR OVC070 FM301200 VRB03KT P6SM SCT035
                       FM301800 VRB03KT P6SM OVC035 FM302100 05004KT
                       P6SM SCT028 BKN060 OVC100 FM310100 00000KT
                       5SM -RA FEW011 OVC019=
201810292342 TAF KCLM 292342Z 3000/3024 VRB02KT P6SM SCT060
                      TEMPO 3000/3002 BKN060 FM300900 VRB02KT 5SM
                       MIFG FEW020 SCT200 FM301200 VRB02KT 5SM
                       BR BKN020 BKN200 FM301800 VRB02KT P6SM FEW025
                       BKN090 OVC150 FM302100 VRB02KT P6SM VCSH
                       SCT025 BKN060 OVC100
                      TEMPO 3021/3024 -RA=
201810292122 KCLM 292122Z 2921/3018 29005KT P6SM VCSH FEW008 BKN060 FM300300
                       25004KT P6SM SCT060 FM300900 VRB03KT P6SM
                       VCFG SCT012
                      TEMPO 3012/3016 BKN012=
201810291744 KCLM 291744Z 2918/3018 29008KT P6SM -SHRA SCT022 OVC050
                      TEMPO 2918/2922 4SM SHRA BKN022 OVC050 FM292200
                       29008KT P6SM VCSH SCT035 BKN060 FM300300
                       25004KT P6SM SCT060 FM300900 VRB03KT P6SM
                       VCFG SCT012
                      TEMPO 3012/3016 BKN012=
201810291741 TAF KCLM 291741Z 2918/3018 29008KT P6SM -SHRA SCT022 OVC050
                      TEMPO 2918/2922 4SM SHRA BKN022 OVC050 FM292200
                       29008KT P6SM VCSH SCT035 BKN060 FM300300
                       25004KT P6SM SCT060=
201810291436 KCLM 291436Z 2915/3012 00000KT 3SM BR FEW001 SCT060 BKN200
                      TEMPO 2915/2917 1SM BR VV001 FM291800 VRB03KT
                       P6SM -SHRA SCT030 BKN060 OVC100 FM300300
                       25004KT P6SM SCT060=
201810291208 KCLM 291208Z 2912/3012 00000KT P6SM FEW015 BKN200
                      TEMPO 2912/2915 1SM BR FM291800 VRB03KT P6SM
                       -SHRA SCT030 BKN060 OVC100 FM300300 25004KT
                       P6SM SCT060=
201810291125 TAF KCLM 291125Z 2912/3012 00000KT P6SM FEW015 BKN200 FM291800
                       VRB03KT P6SM -SHRA SCT030 BKN060 OVC100
                       FM300300 25004KT P6SM SCT060=
201810290812 KCLM 290812Z 2908/3006 00000KT 4SM BR FEW060
                      TEMPO 2908/2912 1SM BR SCT001 SCT060 FM291700
                       VRB03KT P6SM -SHRA SCT010 BKN018 OVC030
                       FM292200 28005KT P6SM VCSH SCT045 BKN060=
201810290536 TAF KCLM 290536Z 2906/3006 26008KT P6SM VCSH SCT060 BKN080 FM291700
                       VRB03KT P6SM -SHRA SCT010 BKN018 OVC030
                       FM292200 28005KT P6SM VCSH SCT045 BKN060=
201810282320 TAF KCLM 282320Z 2900/2924 VRB04KT P6SM VCSH BKN050 FM291000 VRB04KT
                       P6SM BKN030 FM291800 20008KT P6SM BKN050=
201810281720 TAF KCLM 281720Z 2818/2918 25012KT P6SM SCT030 BKN060 FM282300
                       27007KT P6SM BKN030 BKN060 FM290500 VRB04KT
                       P6SM VCSH BKN030 BKN060=
201810281122 TAF KCLM 281122Z 2812/2912 25005KT P6SM FEW008 BKN070 OVC120
                      TEMPO 2812/2814 4SM -SHRA BR BKN008 OVC050
                       FM282300 30005KT 6SM -SHRA BR FEW012 SCT025
                       OVC050 FM290500 25004KT P6SM VCSH SCT050
                       BKN150=
201810280927 KCLM 280927Z 2809/2906 27003KT P6SM SCT005 OVC070
                      TEMPO 2809/2813 4SM -SHRA BR BKN005 OVC050
                       FM281300 26006KT P6SM VCSH SCT015 BKN060
                       FM282300 30005KT 6SM -SHRA BR SCT012 BKN025
                       OVC045 FM290500 25004KT P6SM VCSH BKN050=
201810280721 KCLM 280721Z 2807/2906 26006KT P6SM VCSH BKN004 OVC060 FM281500
                       26006KT P6SM VCSH SCT015 BKN060 FM282300
                       30005KT 6SM -SHRA BR SCT012 BKN025 OVC045
                       FM290500 25004KT P6SM VCSH BKN050=
201810280542 TAF KCLM 280542Z 2806/2906 26005KT P6SM -SHRA SCT008 BKN012 OVC060
                       FM281000 26006KT P6SM -SHRA SCT018 BKN050
                       FM281500 26006KT P6SM VCSH BKN050 FM282300
                       30005KT 6SM -SHRA BR SCT012 BKN025 OVC045
                       FM290500 25004KT P6SM VCSH BKN050=
201810272320 TAF KCLM 272320Z 2800/2824 VRB04KT P6SM -RA BKN012 OVC060
                      TEMPO 2800/2804 4SM -RA BR OVC008 FM280400
                       VRB04KT 5SM -RA BR BKN008 OVC030 FM280800
                       27007KT P6SM -SHRA OVC025 FM281600 VRB04KT
                       P6SM VCSH BKN030=
201810272107 KCLM 272107Z 2721/2818 VRB04KT P6SM BKN010 OVC080
                      TEMPO 2721/2723 SCT010 OVC080 FM272300 VRB04KT
                       6SM -RA BR SCT010 OVC040
                      TEMPO 2800/2804 4SM -RA BR BKN010 OVC030
                       FM280400 VRB03KT 5SM -RA BR BKN010 OVC040
                       FM280900 27004KT P6SM -SHRA OVC025 FM281600
                       28008KT P6SM VCSH BKN030=
201810272008 KCLM 272008Z 2720/2818 09006KT P6SM BKN006 OVC080 FM272200 09006KT
                       P6SM SCT015 OVC080 FM280100 10003KT 6SM
                       -RA BR SCT010 BKN050 OVC080 FM280400 VRB03KT
                       5SM -RA BR BKN010 OVC040 FM280900 27004KT
                       P6SM -SHRA OVC025 FM281600 28008KT P6SM
                       VCSH BKN030=
201810271729 TAF KCLM 271729Z 2718/2818 VRB03KT P6SM SCT010 BKN200
                      TEMPO 2718/2720 BKN010 BKN200 FM272200 09006KT
                       P6SM SCT020 SCT050 OVC120 FM280100 10003KT
                       6SM -RA BR SCT010 BKN050 OVC080 FM280400
                       VRB03KT 5SM -RA BR BKN010 OVC040 FM280900
                       27004KT P6SM -SHRA OVC025 FM281600 28008KT
                       P6SM VCSH BKN030=
201810271542 KCLM 271542Z 2716/2812 22004KT P6SM SCT005 SCT200
                      TEMPO 2716/2719 5SM BR BKN005 BKN200 FM271900
                       09006KT P6SM SCT007 BKN200 FM280000 10003KT
                       6SM -RA BR SCT010 BKN050 OVC080 FM280300
                       VRB03KT 5SM -RA BR BKN010 OVC040 FM280900
                       27004KT P6SM -SHRA SCT015 OVC040=
201810271125 TAF KCLM 271125Z 2712/2812 22004KT P6SM SKC FM271700 09006KT P6SM
                       SCT007 BKN200 FM280000 10003KT 6SM -RA BR
                       SCT010 BKN050 OVC080 FM280300 VRB03KT 5SM
                       -RA BR BKN010 OVC040 FM280900 27004KT P6SM
                       -SHRA SCT015 OVC040=
201810270540 TAF KCLM 270540Z 2706/2806 23005KT P6SM SKC FM271700 09006KT P6SM
                       SCT007 BKN200 FM280000 10003KT 6SM -RA BR
                       SCT005 BKN050 OVC080=
201810262320 TAF KCLM 262320Z 2700/2724 30012KT P6SM SCT040 BKN150 FM270900
                       00000KT P6SM SCT005 SCT150 FM271100 00000KT
                       5SM BR BKN005 FM271700 09006KT P6SM SCT010
                       BKN200 FM271900 15012KT P6SM OVC120=
201810261726 TAF KCLM 261726Z 2618/2718 27012KT P6SM SCT025 BKN200 FM270900
                       00000KT P6SM SCT005 FM271100 00000KT 5SM
                       BR BKN005 FM271700 09006KT P6SM SCT010 SCT200=
201810261136 TAF KCLM 261136Z 2612/2712 25004KT 4SM BR SCT010 OVC020
                      TEMPO 2612/2615 1/2SM FG VV002 FM261700 27010KT
                       P6SM SCT020 BKN040 FM262100 29010KT P6SM
                       SCT040 FM270700 23005KT 4SM BR SCT003=
201810260818 KCLM 260818Z 2608/2706 VRB04KT 2SM -RA BR SCT002 OVC060
                      TEMPO 2608/2612 1/2SM -RA FG VV002 FM261200
                       25004KT 5SM BR SCT010 OVC020 FM261700 27010KT
                       P6SM SCT020 BKN040 FM262100 29010KT P6SM
                       SCT040=
201810260527 TAF KCLM 260527Z 2606/2706 00000KT 4SM -RA BR SCT002 OVC060
                      TEMPO 2606/2610 2SM -RA BR BKN002 OVC060
                       FM261200 VRB03KT 5SM BR SCT010 OVC020 FM261700
                       27010KT P6SM SCT020 BKN040 FM262100 29010KT
                       P6SM SCT040=
201810252320 TAF KCLM 252320Z 2600/2624 VRB04KT P6SM -RA SCT020 OVC040
                      TEMPO 2600/2604 5SM -RA BR BKN020 OVC040
                       FM260400 VRB03KT 3SM RA BR OVC008 FM260800
                       VRB03KT 5SM BR SCT010 OVC020 FM261700 27010KT
                       P6SM VCSH SCT020 BKN040=
201810251721 TAF KCLM 251721Z 2518/2618 VRB03KT 5SM -RA BR SCT003 OVC040
                      TEMPO 2518/2521 3SM -RA BR BKN003 OVC030
                       FM252100 32003KT 5SM -RA BR OVC015 FM260200
                       VRB03KT 3SM RA BR OVC008 FM260800 VRB03KT
                       5SM BR SCT010 OVC020 FM261700 27010KT P6SM
                       VCSH SCT020 BKN040=
201810251137 TAF KCLM 251137Z 2512/2612 VRB03KT P6SM SCT005 OVC060
                      TEMPO 2512/2515 3SM -RA BR FM251500 VRB03KT
                       P6SM -RA SCT008 OVC050 FM252200 32003KT
                       4SM -RA BR SCT008 OVC020 FM260200 VRB03KT
                       4SM RA BR SCT007 OVC015 FM260800 VRB03KT
                       5SM BR SCT010 OVC020=
201810250903 KCLM 250903Z 2509/2606 VRB03KT P6SM SCT005 SCT080 BKN200
                      TEMPO 2509/2512 3SM BR BKN005 BKN080 FM251500
                       VRB03KT P6SM -RA OVC050 FM252200 32003KT
                       P6SM -RA SCT008 OVC050 FM260200 VRB03KT
                       4SM RA BR BKN008 OVC045=
201810250541 TAF KCLM 250541Z 2506/2606 VRB03KT P6SM VCSH SCT050 OVC070 FM251500
                       VRB03KT P6SM -RA OVC050 FM252200 32003KT
                       P6SM -RA SCT008 OVC050 FM260200 VRB03KT
                       4SM RA BR BKN008 OVC045=
201810242320 TAF KCLM 242320Z 2500/2524 VRB04KT P6SM SCT040 OVC100 FM250300
                       09005KT P6SM BKN040 OVC080 FM250600 09007KT
                       P6SM -RA BKN020 OVC040 FM251200 18010KT
                       P6SM -RA OVC015 FM252000 VRB04KT P6SM VCSH
                       BKN030 OVC060=
201810241955 KCLM 241955Z 2420/2518 00000KT 5SM BR VCFG SCT002 SCT050 OVC100
                       TEMPO 2420/2422 1SM BR VV002 FM250600 09006KT
                       P6SM -RA SCT020 OVC040 FM251200 09006KT
                       P6SM -RA BKN020 OVC040=
201810241720 TAF KCLM 241720Z 2418/2518 00000KT P6SM BKN050 OVC100 FM250600
                       09006KT P6SM -RA SCT020 OVC040 FM251200
                       09006KT P6SM -RA BKN020 OVC040=
201810241558 KCLM 241558Z 2416/2512 VRB04KT P6SM SCT040 BKN120 FM250000 VRB04KT
                       P6SM BKN025 BKN040 OVC100 FM250600 VRB03KT
                       P6SM -RA BKN025 BKN040 OVC050=
201810241134 TAF KCLM 241134Z 2412/2512 VRB04KT 3SM BR BKN030 OVC040 FM241800
                       VRB04KT P6SM BKN040 BKN060 BKN100 FM250000
                       VRB04KT P6SM BKN025 BKN040 OVC100 FM250600
                       VRB03KT P6SM -RA BKN025 BKN040 OVC050=
201810240629 KCLM 240629Z 2406/2506 VRB04KT 2SM BR BKN040 OVC060 FM241300 24004KT
                       2SM HZ BR OVC040 FM241800 VRB04KT P6SM BKN060
                       BKN090=
201810240531 TAF KCLM 240531Z 2406/2506 VRB04KT P6SM BKN040 OVC060 FM241300
                       24004KT 5SM HZ BR OVC040 FM241800 VRB04KT
                       P6SM BKN060 BKN090=
201810232320 TAF KCLM 232320Z 2400/2424 12006KT P6SM SCT015 BKN120 BKN200 FM240100
                       VRB04KT P6SM -SHRA BKN060 OVC090 FM240200
                       26008KT P6SM -SHRA BKN050 OVC080 FM240700
                       26005KT 6SM BR BKN040 OVC060 FM241300 24004KT
                       5SM HZ BR OVC040 FM241800 24008KT P6SM BKN060
                       BKN090=
201810231753 TAF KCLM 231753Z 2318/2418 24006KT 6SM HZ BR BKN011 BKN200 FM231900
                       24006KT P6SM SCT015 SCT100 BKN200 FM240100
                       25008KT P6SM -SHRA BKN060 OVC090 FM240700
                       26004KT 6SM BR BKN030 OVC060 FM241300 24004KT
                       5SM HZ BR SCT020 BKN060=
201810231725 KCLM 231725Z 2317/2412 24005KT 6SM HZ BR BKN006 BKN200 FM231900
                       24005KT P6SM SCT100 BKN200 FM240100 VRB05KT
                       P6SM -SHRA BKN060 OVC090 FM240700 26004KT
                       6SM BR BKN030 OVC060=
201810231337 KCLM 231337Z 2314/2412 VRB03KT P6SM VCFG SCT001
                      TEMPO 2314/2316 1/2SM FG BKN001 FM231700
                       VRB04KT P6SM SCT100 BKN200 FM240100 VRB05KT
                       P6SM -SHRA BKN060 OVC090 FM240700 26004KT
                       6SM BR BKN030 OVC060=
201810231159 TAF KCLM 231159Z 2312/2412 VRB03KT 3SM BR VCFG SKC
                      TEMPO 2312/2315 1/2SM FG BKN002 FM231700
                       VRB04KT P6SM SCT100 BKN200 FM240100 VRB05KT
                       P6SM -SHRA BKN060 OVC090 FM240700 26004KT
                       6SM BR BKN030 OVC060=
201810230706 KCLM 230706Z 2307/2406 VRB03KT 2SM BR VCFG SKC
                      TEMPO 2309/2313 1/2SM FG BKN002 FM231700
                       VRB04KT P6SM SCT100 BKN200 FM232200 29004KT
                       P6SM -SHRA BKN060 OVC090 FM240400 26004KT
                       6SM BR BKN030 OVC060=
201810230537 TAF KCLM 230537Z 2306/2406 VRB03KT 6SM BR VCFG SKC
                      TEMPO 2309/2313 1/2SM FG BKN002 FM231700
                       VRB04KT P6SM SCT100 BKN200 FM232200 29004KT
                       P6SM -SHRA BKN060 OVC090 FM240400 26004KT
                       6SM BR BKN030 OVC060=
201810222320 TAF KCLM 222320Z 2300/2324 VRB03KT P6SM VCFG SKC FM231700 VRB04KT
                       P6SM SCT100 BKN200 FM232200 04004KT P6SM
                       -SHRA BKN060 OVC090=
201810221725 TAF KCLM 221725Z 2218/2318 VRB03KT 6SM HZ BR FEW005 FM222000 VRB03KT
                       P6SM SKC=
201810221502 KCLM 221502Z 2215/2312 VRB03KT 5SM BR SCT002
                      TEMPO 2215/2217 2SM BR BKN002 FM222100 VRB03KT
                       P6SM VCFG SKC=
201810221131 TAF KCLM 221131Z 2212/2312 VRB03KT 2SM BR SCT002
                      TEMPO 2213/2217 1/4SM FG VV001 FM222100 VRB03KT
                       P6SM VCFG SKC=
201810220736 KCLM 220736Z 2208/2306 21003KT 1SM BR BKN002 FM221000 VRB03KT 1/4SM
                       FG VV001 FM221800 VRB03KT 3SM BR BKN004
                       FM222000 08004KT P6SM VCFG SKC=
201810220520 TAF KCLM 220520Z 2206/2306 VRB03KT P6SM SKC FM221300 VRB03KT 3SM
                       BR BKN006 FM221800 VRB03KT 5SM HZ BR FEW010
                       FM221900 VRB03KT P6SM SKC=
201810212320 TAF KCLM 212320Z 2200/2224 04005KT P6SM SKC FM220300 VRB03KT P6SM
                       SKC FM221300 VRB03KT 3SM BR BKN006 FM221800
                       VRB03KT 5SM HZ BR FEW010 FM221900 VRB04KT
                       P6SM SKC=
201810211720 TAF KCLM 211720Z 2118/2218 15003KT P6SM SKC FM211900 08005KT P6SM
                       SKC FM220200 21003KT P6SM SKC=
201810211131 TAF KCLM 211131Z 2112/2212 15003KT P6SM SKC FM211900 08005KT P6SM
                       SKC FM220200 21003KT P6SM SKC=
201810210520 TAF KCLM 210520Z 2106/2206 VRB03KT P6SM SKC
                      TEMPO 2113/2117 4SM BR BKN003 FM211900 08005KT
                       P6SM SKC FM220200 23003KT P6SM SKC=
201810202320 TAF KCLM 202320Z 2100/2124 09008KT P6SM SKC FM210300 05006KT P6SM
                       SKC
                      TEMPO 2113/2117 VRB03KT 4SM BR BKN003=
201810201743 TAF KCLM 201743Z 2018/2118 VRB04KT P6SM VCFG SCT004 FM201900 05007KT
                       P6SM SKC FM210300 05006KT P6SM SKC=
201810201133 TAF KCLM 201133Z 2012/2112 23004KT P6SM VCFG SCT004 FM201900 05007KT
                       P6SM SKC FM210300 21004KT P6SM SKC=
201810200520 TAF KCLM 200520Z 2006/2106 30008KT P6SM SKC FM200800 25003KT P6SM
                       VCFG SCT001 FM201900 07007KT P6SM SKC FM210100
                       VRB03KT P6SM SKC=
201810192330 TAF KCLM 192330Z 2000/2024 30010KT P6SM SKC FM200800 25003KT P6SM
                       VCFG SCT001 FM201900 07007KT P6SM SKC=
201810191725 TAF KCLM 191725Z 1918/2018 00000KT P6SM SKC FM200200 27006KT P6SM
                       SKC FM200800 VRB03KT P6SM BKN020=
201810191129 TAF KCLM 191129Z 1912/2012 24004KT P6SM SKC
                      TEMPO 1912/1916 2SM BR SCT001 FM191800 08004KT
                       P6SM SKC FM200200 27006KT P6SM SKC FM200900
                       25004KT 6SM BR BCFG FEW002=
201810190520 TAF KCLM 190520Z 1906/2006 VRB03KT P6SM SCT250 FM190900 VRB02KT
                       4SM BR BKN250 FM191500 VRB02KT 1/4SM FG
                       BKN004 FM191800 VRB04KT P6SM BKN250 FM200200
                       25003KT P6SM BKN250=
201810182320 TAF KCLM 182320Z 1900/1924 VRB03KT P6SM SCT250 FM190900 VRB02KT
                       2SM BR BKN250 FM191500 VRB02KT 1/4SM FG
                       BKN004 FM191800 VRB04KT P6SM BKN250=
201810181732 TAF KCLM 181732Z 1818/1918 VRB03KT P6SM SCT250 FM190900 VRB02KT
                       2SM BR BKN250 FM191500 VRB02KT 1/4SM FG
                       BKN004=
201810181137 TAF KCLM 181137Z 1812/1912 VRB03KT P6SM SCT250=
201810180530 TAF KCLM 180530Z 1806/1906 VRB03KT P6SM SKC
                      TEMPO 1813/1816 4SM BR SCT001=
201810172320 TAF KCLM 172320Z 1800/1824 VRB04KT P6SM SKC FM180500 25005KT P6SM
                       SCT250 FM181100 25005KT 1/2SM FG VV002 FM181700
                       VRB03KT 2SM BR BKN002 FM181900 08004KT P6SM
                       SKC=
201810171720 TAF KCLM 171720Z 1718/1818 08006KT P6SM SKC FM180500 25005KT P6SM
                       SCT250 FM181100 25005KT 1/2SM FG VV002 FM181700
                       VRB03KT 2SM BR BKN002=
201810171129 TAF KCLM 171129Z 1712/1812 VRB04KT P6SM SKC=
201810170528 TAF KCLM 170528Z 1706/1806 VRB04KT P6SM SKC=
201810162320 TAF KCLM 162320Z 1700/1724 VRB04KT P6SM SKC=
201810161720 TAF KCLM 161720Z 1618/1718 10008KT P6SM SKC FM170300 VRB03KT P6SM
                       SKC=
201810161131 TAF KCLM 161131Z 1612/1712 VRB03KT P6SM SKC FM161800 10008KT P6SM
                       SKC FM170300 VRB03KT P6SM SKC=
201810160526 TAF KCLM 160526Z 1606/1706 VRB03KT P6SM SKC=
201810152320 TAF KCLM 152320Z 1600/1624 10007KT P6SM FEW250 FM160200 VRB03KT
                       P6SM SKC FM161700 10008KT P6SM FEW250=
201810151721 TAF KCLM 151721Z 1518/1618 10007KT P6SM SKC FM160200 VRB03KT P6SM
                       SKC=
201810151120 TAF KCLM 151120Z 1512/1612 19003KT P6SM SCT250 FM151800 09006KT
                       P6SM SKC FM160200 19003KT P6SM SKC=
201810150524 TAF KCLM 150524Z 1506/1606 20003KT P6SM SKC FM151800 12006KT P6SM
                       SKC=
201810142320 TAF KCLM 142320Z 1500/1524 11005KT P6SM SKC FM150400 22006KT P6SM
                       SKC FM151800 10005KT P6SM SKC=
201810141720 TAF KCLM 141720Z 1418/1518 09006KT P6SM SKC FM150400 22006KT P6SM
                       SKC=
201810141126 TAF KCLM 141126Z 1412/1512 22006KT P6SM SKC FM141800 09006KT P6SM
                       SKC FM150400 22006KT P6SM SKC=
201810140525 TAF KCLM 140525Z 1406/1506 22005KT P6SM SKC FM141200 22004KT P6SM
                       SKC FM141800 09004KT P6SM SKC FM150400 20003KT
                       P6SM SKC=
201810132320 TAF KCLM 132320Z 1400/1424 08006KT P6SM SKC FM140500 21006KT P6SM
                       SKC FM141800 08004KT P6SM SKC=
201810131720 TAF KCLM 131720Z 1318/1418 10008KT P6SM SKC FM140500 21006KT P6SM
                       SKC=
201810131137 TAF KCLM 131137Z 1312/1412 24007KT P6SM SKC FM131800 13012KT P6SM
                       SKC FM140400 21006KT P6SM SKC=
201810130539 TAF KCLM 130539Z 1306/1406 VRB03KT 6SM BR FEW025 FEW040
                      TEMPO 1306/1310 3SM BR SCT002 FM131200 24007KT
                       P6SM SKC FM131800 15012KT P6SM SKC FM140400
                       02006KT P6SM SKC=
201810130306 KCLM 130306Z 1303/1324 00000KT P6SM SCT012 FM131000 22006KT P6SM
                       SKC FM131700 10009KT P6SM SKC=
201810122330 TAF KCLM 122330Z 1300/1324 35005KT P6SM OVC012 FM130400 25004KT
                       P6SM SCT014 FM131000 22006KT P6SM SKC FM131700
                       10009KT P6SM SKC=
201810122114 KCLM 122114Z 1221/1318 34005KT P6SM OVC014 FM130400 25004KT P6SM
                       SCT010 FM131100 22006KT P6SM SKC FM131700
                       10009KT P6SM SKC=
201810121735 TAF KCLM 121735Z 1218/1318 VRB03KT 5SM BR BKN005 BKN012 FM122000
                       29006KT 6SM BR BKN006 FM130600 25004KT P6SM
                       SCT010 FM131100 22006KT P6SM SKC FM131700
                       10009KT P6SM SKC=
201810121532 KCLM 121532Z 1216/1312 VRB03KT 3SM BR BKN004
                      TEMPO 1216/1218 3/4SM BR OVC002 FM121900
                       29006KT 6SM BR BKN008 FM130300 25004KT P6SM
                       SCT010 FM131000 22006KT P6SM SKC=
201810121139 TAF KCLM 121139Z 1212/1312 29003KT P6SM OVC080 FM121300 29003KT
                       4SM BR OVC080
                      TEMPO 1214/1216 1SM BR BKN003 FM121700 29006KT
                       4SM BR SCT015 BKN040 FM121900 29005KT P6SM
                       BKN015 FM130200 25004KT P6SM BKN010=
201810120958 KCLM 120958Z 1210/1306 29003KT 1/2SM FG VV001 FM121600 29006KT
                       4SM BR SCT015 BKN040 FM121900 31005KT P6SM
                       BKN015 FM130200 25004KT P6SM BKN008=
201810120542 TAF KCLM 120542Z 1206/1306 00000KT P6SM SCT150 FM121100 24003KT
                       P6SM BKN030 FM121600 27006KT P6SM SCT015
                       BKN040 FM122100 34005KT P6SM BKN015 FM130200
                       25004KT P6SM BKN008=
201810112334 TAF KCLM 112334Z 1200/1224 VRB03KT P6SM SCT150 FM121100 22003KT
                       P6SM BKN045 FM121600 27006KT P6SM SCT015
                       FM122100 34005KT P6SM SCT010 BKN015=
201810111734 TAF KCLM 111734Z 1118/1218 07005KT P6SM BKN200 FM120100 23004KT
                       P6SM SCT200 FM121100 22003KT P6SM BKN050
                       FM121700 25004KT P6SM SCT015 BKN040=
201810111141 TAF KCLM 111141Z 1112/1212 21005KT P6SM SKC FM111800 07005KT P6SM
                       SCT200 FM120100 23004KT P6SM SCT200=
201810110520 TAF KCLM 110520Z 1106/1206 21005KT P6SM SKC FM111800 07005KT P6SM
                       SCT200 FM120100 23004KT P6SM SCT200=
201810102337 TAF KCLM 102337Z 1100/1124 05004KT P6SM SCT080 FM110200 21005KT
                       P6SM SKC FM111800 07005KT P6SM SCT200=
201810101737 TAF KCLM 101737Z 1018/1118 05004KT P6SM SCT080 FM110200 21005KT
                       P6SM SKC=
201810101127 TAF KCLM 101127Z 1012/1112 20003KT P6SM BKN250 FM101500 VRB03KT
                       5SM BR SCT250 FM101800 VRB04KT P6SM SCT250
                       FM110200 23005KT P6SM SCT250=
201810100520 TAF KCLM 100520Z 1006/1106 VRB04KT P6SM SCT200 FM101500 VRB03KT
                       5SM BR SCT250 FM101800 09004KT P6SM SCT250
                       FM110200 23004KT P6SM SCT250=
201810092320 TAF KCLM 092320Z 1000/1024 VRB04KT P6SM SCT200 FM101500 VRB03KT
                       5SM BR SCT250 FM101800 09004KT P6SM SCT250=
201810091726 TAF KCLM 091726Z 0918/1018 08007KT P6SM SCT025 SCT200 FM092300
                       VRB04KT P6SM SCT050 SCT200 FM101500 VRB03KT
                       P6SM SCT250=
201810091132 TAF KCLM 091132Z 0912/1012 27009KT P6SM SCT025 BKN050 FM091900
                       VRB05KT P6SM SCT030 SCT200 FM092300 07004KT
                       P6SM SCT050 SCT200 FM100400 25004KT P6SM
                       SCT200=
201810090527 KCLM 090527Z 0905/1006 VRB03KT 3SM BR SCT003 OVC010
                      TEMPO 0906/0908 1/2SM FG BKN001 FM090800
                       27005KT P6SM BKN007 OVC015 FM091900 07005KT
                       P6SM BKN015 BKN250 FM092300 VRB03KT P6SM
                       SCT050 BKN250=
201810090526 TAF KCLM 090526Z 0906/1006 VRB03KT 3SM BR SCT003 OVC010 FM090800
                       27005KT P6SM BKN007 OVC015 FM091900 07005KT
                       P6SM BKN015 BKN250 FM092300 VRB03KT P6SM
                       SCT050 BKN250=
201810082320 TAF KCLM 082320Z 0900/0924 00000KT 5SM -SHRA BR BKN003 OVC020 FM090700
                       27005KT P6SM BKN007 OVC015 FM091900 02005KT
                       P6SM BKN015 BKN250 FM092300 07004KT P6SM
                       SCT050 BKN250=
201810082227 KCLM 082227Z 0822/0918 VRB03KT P6SM -RA OVC004=
201810081915 KCLM 081915Z 0819/0918 00000KT 1/4SM -RA FG VV001 FM082100 VRB03KT
                       2SM -RA BR OVC004 FM090200 26004KT 4SM BR
                       OVC007=
201810081720 TAF KCLM 081720Z 0818/0918 00000KT 1/2SM -RA FG VV002 FM082000
                       VRB03KT 2SM -RA BR OVC004 FM090200 26004KT
                       4SM BR OVC007=
201810081601 KCLM 081601Z 0816/0912 00000KT 1/4SM FG VV002 FM081900 VRB03KT
                       2SM -RA BR OVC004 FM090200 VRB02KT 4SM BR
                       OVC007 FM090900 27006KT P6SM OVC008=
201810081436 KCLM 081436Z 0815/0912 00000KT 3/4SM -RA BR OVC002 FM081900 VRB03KT
                       2SM -RA BR OVC004 FM090200 VRB02KT 4SM BR
                       OVC007 FM090900 27006KT P6SM OVC008=
201810081140 TAF KCLM 081140Z 0812/0912 VRB03KT 4SM -RA BR OVC006
                      TEMPO 0812/0816 1/4SM FG VV002 FM081600 VRB03KT
                       2SM BR VCSH OVC005 FM082200 VRB04KT 5SM
                       -RA BR OVC007 FM090900 27006KT P6SM VCSH
                       SCT007 OVC015=
201810080520 TAF KCLM 080520Z 0806/0906 VRB03KT 4SM -RA BR OVC004 FM090100 VRB03KT
                       P6SM VCSH SCT005 OVC010=
201810072327 TAF KCLM 072327Z 0800/0824 00000KT P6SM SCT004 OVC050
                      TEMPO 0800/0804 5SM -RA OVC004 FM080400 VRB03KT
                       4SM -RA BR BKN004 OVC025=
201810072005 KCLM 072005Z 0720/0818 00000KT 4SM -RA BR BKN005 BKN009 OVC050=
201810071933 KCLM 071933Z 0720/0818 05004KT 6SM -RA BR SCT004 BKN011 OVC050
                       FM080200 VRB03KT 4SM -RA BR OVC005=
201810071726 TAF KCLM 071726Z 0718/0818 00000KT 5SM -RA BR SCT025 OVC050 FM080200
                       VRB03KT 4SM -RA BR OVC015=
201810071432 KCLM 071432Z 0715/0812 00000KT P6SM -RA OVC070 FM071600 VRB03KT
                       5SM -RA BR SCT020 OVC040 FM071800 VRB03KT
                       5SM -RA BR SCT007 OVC017 FM080200 VRB03KT
                       5SM BR VCSH OVC010=
201810071124 TAF KCLM 071124Z 0712/0812 23003KT P6SM -RA OVC060 FM071400 VRB03KT
                       P6SM -RA SCT015 OVC030 FM071800 VRB03KT
                       5SM -RA BR SCT007 OVC017 FM080200 VRB03KT
                       5SM BR VCSH OVC010=
201810070520 TAF KCLM 070520Z 0706/0806 VRB03KT P6SM OVC250 FM070800 23003KT
                       P6SM OVC060 FM071300 VRB03KT 5SM -RA BR
                       SCT015 OVC030 FM071900 VRB03KT 5SM -RA BR
                       SCT007 OVC015 FM072300 VRB03KT 3SM -RA BR
                       OVC007=
201810062325 TAF KCLM 062325Z 0700/0724 07004KT P6SM OVC250 FM070800 23003KT
                       P6SM OVC060 FM071300 VRB03KT 5SM -RA BR
                       SCT015 OVC030 FM071900 VRB03KT 5SM -RA BR
                       SCT007 OVC015=
201810061722 TAF KCLM 061722Z 0618/0718 VRB03KT P6SM SKC FM070100 24004KT P6SM
                       BKN250 FM070800 23003KT P6SM OVC035 FM071500
                       VRB03KT 5SM -RA BR OVC030=
201810061445 KCLM 061445Z 0615/0712 21004KT P6SM SKC FM061600 09004KT P6SM FEW040
                       FM070100 24004KT P6SM BKN250=
201810061122 TAF KCLM 061122Z 0612/0712 21003KT 3SM BR SCT001
                      TEMPO 0612/0616 1/2SM FG VV001 FM061600 09004KT
                       P6SM FEW040 FM070100 24004KT P6SM BKN250=
201810060946 KCLM 060946Z 0610/0706 22003KT 2SM BR FEW001
                      TEMPO 0610/0614 1/2SM FG VV001 FM061600 00000KT
                       P6SM OVC005 FM061800 VRB04KT P6SM SCT050
                       FM070100 24004KT P6SM BKN250=
201810060930 KCLM 060930Z 0610/0706 00000KT 1/2SM FG VV001 FM061600 00000KT
                       P6SM OVC005 FM061800 VRB04KT P6SM SCT050
                       FM070100 24004KT P6SM BKN250=
201810060924 KCLM 060924Z 0609/0706 00000KT 4SM BR SCT005 SCT040
                      TEMPO 0609/0613 3/4SM BR BKN005 BKN040 FM061300
                       23004KT P6SM OVC010 FM061800 VRB04KT P6SM
                       SCT050 FM070100 24004KT P6SM BKN250=
201810060732 KCLM 060732Z 0608/0706 VRB04KT P6SM SCT035 BKN060 FM061200 VRB04KT
                       P6SM OVC010 FM061800 VRB04KT P6SM SCT050
                       FM070100 24004KT P6SM BKN250=
201810060524 TAF KCLM 060524Z 0606/0706 VRB04KT 5SM BR BKN015 OVC050 FM061200
                       VRB04KT P6SM OVC010 FM061800 VRB04KT P6SM
                       SCT050 FM070100 24004KT P6SM BKN250=
201810052331 TAF KCLM 052331Z 0600/0624 00000KT P6SM -RA SCT007 OVC045 FM060500
                       VRB04KT 5SM BR BKN015 OVC050 FM061200 VRB04KT
                       P6SM OVC010 FM061800 VRB04KT P6SM SCT050=
201810051911 KCLM 051911Z 0519/0618 VRB04KT 2SM -RA BR OVC007 FM060500 VRB04KT
                       5SM BR BKN015 OVC050 FM061200 VRB04KT P6SM
                       OVC010=
201810051731 TAF KCLM 051731Z 0518/0618 09004KT 5SM -RA BR SCT020 OVC060 FM060000
                       02004KT 5SM BR BKN015 OVC050 FM061200 02005KT
                       P6SM OVC010=
201810051509 KCLM 051509Z 0515/0612 00000KT 5SM -RA BR BKN060 OVC080 FM051800
                       09005KT 5SM -RA BR BKN015 OVC030 FM060200
                       VRB03KT P6SM BKN020 OVC050 FM060700 24005KT
                       P6SM SCT050 SCT100=
201810051127 TAF KCLM 051127Z 0512/0612 23003KT P6SM FEW050 OVC150 FM051600
                       10005KT P6SM -RA SCT030 OVC060 FM051900
                       09005KT P6SM -RA BKN015 OVC030 FM060200
                       VRB03KT P6SM BKN020 OVC050 FM060700 24005KT
                       P6SM SCT050 SCT100=
201810050539 TAF KCLM 050539Z 0506/0606 23005KT P6SM FEW100 BKN200 FM051200
                       VRB03KT P6SM SCT060 OVC100
                      TEMPO 0515/0518 -RA BKN060 OVC100 FM051800
                       10008KT P6SM -RA SCT028 OVC060 FM060000
                       VRB03KT P6SM -RA BKN028 OVC050=
201810050317 KCLM 050317Z 0503/0524 VRB03KT P6SM SCT060 BKN200
                      TEMPO 0503/0506 BKN060 BKN200 FM050600 23004KT
                       P6SM SCT060 BKN200 FM050900 10005KT P6SM
                       SCT070 BKN090 OVC120 FM051200 10006KT P6SM
                       -RA BKN050 OVC090 FM051700 10005KT P6SM
                       SCT060 BKN100=
201810050225 KCLM 050225Z 0502/0524 VRB03KT P6SM OVC070 FM050600 23004KT P6SM
                       SCT100 BKN200 FM050900 10005KT P6SM SCT070
                       BKN090 OVC120 FM051200 10006KT P6SM -RA
                       BKN050 OVC090 FM051700 10005KT P6SM SCT060
                       BKN100=
201810042347 TAF KCLM 042347Z 0500/0524 VRB03KT P6SM SCT200 FM050600 23004KT
                       P6SM SCT100 BKN200 FM050900 10005KT P6SM
                       SCT070 BKN090 OVC120 FM051200 10006KT P6SM
                       -RA BKN050 OVC090 FM051700 10005KT P6SM
                       SCT060 BKN100=
201810041749 TAF KCLM 041749Z 0418/0518 05005KT P6SM SCT020 SCT250 FM050000
                       VRB03KT P6SM SCT200 FM050900 23003KT P6SM
                       FEW090 BKN200 FM051200 24006KT P6SM -RA
                       BKN060 OVC120 FM051700 VRB04KT P6SM SCT060
                       BKN150=
201810041354 KCLM 041354Z 0414/0512 00000KT P6SM SCT025 SCT100
                      TEMPO 0414/0417 BKN025 BKN100 FM041800 05005KT
                       P6SM SCT250 FM050000 VRB03KT P6SM SCT200
                       FM050900 23003KT P6SM FEW090 BKN200=
201810041131 TAF KCLM 041131Z 0412/0512 00000KT P6SM SCT120 BKN250 FM041800
                       05005KT P6SM SCT250 FM050000 VRB03KT P6SM
                       SCT200 FM050900 23003KT P6SM FEW090 BKN200=
201810040533 TAF KCLM 040533Z 0406/0506 24005KT P6SM VCFG BKN200 FM041800 05005KT
                       P6SM SCT200 FM050000 VRB03KT P6SM SCT200=
201810040317 KCLM 040317Z 0403/0424 00000KT P6SM SCT090 OVC200
                      TEMPO 0403/0405 BKN090 BKN200 FM040600 23004KT
                       P6SM BKN200 FM041800 07005KT P6SM BKN200=
201810032328 TAF KCLM 032328Z 0400/0424 09006KT P6SM OVC028 FM040600 23004KT
                       P6SM BKN120 OVC200 FM041800 07005KT P6SM
                       BKN200=
201810032103 KCLM 032103Z 0321/0418 00000KT P6SM BKN026 FM040000 VRB03KT P6SM
                       BKN120 OVC200=
201810031731 TAF KCLM 031731Z 0318/0418 24004KT P6SM OVC017 FM032100 VRB03KT
                       P6SM OVC200 FM040900 VRB03KT P6SM BKN120
                       OVC200=
201810031134 TAF KCLM 031134Z 0312/0412 23005KT P6SM FEW200 FM031700 07007KT
                       P6SM BKN200 FM040000 VRB04KT P6SM OVC200=
201810030529 TAF KCLM 030529Z 0306/0406 23005KT P6SM FEW200 FM031700 07007KT
                       P6SM BKN200 FM040000 VRB05KT P6SM BKN200=
201810030019 KCLM 030019Z 0300/0324 31009KT P6SM FEW060 FM030400 24006KT P6SM
                       SCT035 BKN200 FM031700 20004KT P6SM BKN004
                       FM031900 06005KT P6SM SCT006 SCT200=
201810022333 TAF KCLM 022333Z 0300/0324 30008G17KT P6SM VCSH SCT060 BKN070 OVC090
                       TEMPO 0300/0304 4SM -SHRA BR BKN020 OVC040
                       FM030400 24006KT P6SM SCT035 BKN200 FM031700
                       20004KT P6SM BKN004 FM031900 06005KT P6SM
                       SCT006 SCT200=
201810021735 TAF KCLM 021735Z 0218/0318 28007KT P6SM VCSH FEW060 FM030000 28018G24KT
                       P6SM VCSH SCT050 FM030300 26009KT P6SM SCT035
                       BKN200 FM030600 22004KT P6SM SCT050 SCT200=
201810021133 TAF KCLM 021133Z 0212/0312 27005KT 6SM BR VCSH BKN020 BKN050 FM021500
                       27010KT P6SM SCT025 BKN050 BKN200 FM021800
                       28013KT P6SM VCSH SCT035 BKN050 BKN200
                      TEMPO 0220/0224 29015G25KT -SHRA BKN035 OVC050
                       FM030000 29013KT P6SM SCT050 SCT200 FM030300
                       26007KT P6SM SCT200=
201810020951 KCLM 020951Z 0210/0306 VRB03KT P6SM BKN007 BKN035 FM021200 25005KT
                       6SM BR VCSH BKN020 BKN050 FM021500 27010KT
                       P6SM SCT025 BKN050 BKN200 FM021800 29013KT
                       P6SM VCSH SCT035 BKN050 BKN200
                      TEMPO 0220/0224 29015G25KT -SHRA BKN035 OVC050
                       FM030000 29013KT P6SM SCT050 SCT200 FM030300
                       26007KT P6SM SCT200=
201810020638 KCLM 020638Z 0207/0306 VRB03KT 1/4SM FG VV002
                      TEMPO 0209/0212 6SM BR BKN015 BKN040 FM021200
                       25005KT 6SM BR BKN020 BKN050 FM021500 27010KT
                       P6SM SCT025 BKN050 BKN200 FM021800 29013KT
                       P6SM VCSH SCT035 BKN050 BKN200
                      TEMPO 0220/0224 29015G25KT -SHRA BKN035 OVC050
                       FM030000 29013KT P6SM SCT050 SCT200 FM030300
                       26007KT P6SM SCT200=
201810020542 TAF KCLM 020542Z 0206/0306 25004KT P6SM VCSH FEW020 OVC070 FM020900
                       25005KT 6SM BR FEW020 OVC050 FM021500 27010KT
                       P6SM SCT025 BKN050 BKN200 FM021800 29013KT
                       P6SM VCSH SCT035 BKN050 BKN200
                      TEMPO 0220/0224 29015G25KT -SHRA BKN035 OVC050
                       FM030000 29013KT P6SM SCT050 SCT200 FM030300
                       26007KT P6SM SCT200=
201810020358 KCLM 020358Z 0204/0224 27005KT P6SM OVC025 FM022100 29015G22KT
                       P6SM BKN025 FM022300 29018G25KT P6SM SCT250=
201810020117 KCLM 020117Z 0201/0224 00000KT 4SM BR SCT005 SCT022 OVC035
                      TEMPO 0201/0204 1SM -DZ BR BKN005 OVC022
                       FM020400 26003KT P6SM OVC007 FM022100 29015G22KT
                       P6SM BKN025 FM022300 29018G25KT P6SM SCT250=
201810012333 TAF KCLM 012333Z 0200/0224 14007KT P6SM SCT004 BKN035 OVC080 FM020300
                       26003KT P6SM OVC007 FM022100 29015G22KT
                       P6SM BKN025 FM022300 29018G25KT P6SM SCT250=
201810012044 KCLM 012044Z 0121/0218 09003KT P6SM BKN005 OVC040 FM012300 31003KT
                       P6SM OVC050 FM020200 27003KT P6SM OVC015=
201810011725 TAF KCLM 011725Z 0118/0218 00000KT P6SM OVC002 FM012000 VRB03KT
                       P6SM OVC015 FM012300 31003KT P6SM OVC050
                       FM020200 27003KT P6SM OVC015=
201810011125 TAF KCLM 011125Z 0112/0212 VRB03KT P6SM -RA SCT022 BKN040 OVC070
                       TEMPO 0112/0116 3SM -RA BR BKN015 OVC030
                       FM011600 28004KT 6SM -RA BR BKN022 OVC035
                       FM012100 30005KT P6SM VCSH SCT030 BKN050
                       FM020500 27005KT P6SM BKN018 OVC030=
201810010525 TAF KCLM 010525Z 0106/0206 VRB03KT P6SM SCT060 OVC100
                      TEMPO 0106/0108 3SM BR BKN060 OVC100 FM011200
                       VRB03KT 4SM -RA BR BKN020 OVC040 FM011800
                       31004KT P6SM SCT020 BKN060=