##########################################################
# Query made at 02/16/2025 03:36:29 UTC
# Time interval: from 05/01/2018 00:00  to 05/31/2018 23:59  UTC
##########################################################

##########################################################
# KCLM, Port Angeles, William R. Fairchild International Airport (United States)
# WMO index: -----. WIGOS ID: Unknown
# Latitude 48-07-20N. Longitude 123-30-19W. Altitude 87 m.
##########################################################

###################################
#  METAR/SPECI from KCLM
###################################
201805312353 METAR KCLM 312353Z AUTO 31011KT 10SM FEW060 BKN080 BKN120 13/07 A2996 RMK AO2 SLP145 T01280072 10144 20122 51009=
201805312253 METAR KCLM 312253Z AUTO 31012G22KT 10SM FEW050 SCT075 14/07 A2995 RMK AO2 SLP143 T01440072=
201805312153 METAR KCLM 312153Z AUTO 30011G17KT 10SM BKN042 14/07 A2994 RMK AO2 SLP139 T01390067=
201805312053 METAR KCLM 312053Z AUTO 31010G18KT 10SM SCT080 14/07 A2993 RMK AO2 SLP136 T01390067 52005=
201805311953 METAR KCLM 311953Z AUTO 31011KT 290V010 10SM CLR 14/06 A2992 RMK AO2 SLP133 T01390061=
201805311853 METAR KCLM 311853Z AUTO 32009G17KT 10SM CLR 13/06 A2992 RMK AO2 SLP132 T01280061=
201805311753 METAR KCLM 311753Z AUTO 30012KT 10SM CLR 12/07 A2991 RMK AO2 SLP130 T01220067 10133 20083 53003=
201805311653 METAR KCLM 311653Z AUTO 31013G20KT 10SM CLR 12/06 A2991 RMK AO2 SLP129 T01220061=
201805311553 METAR KCLM 311553Z AUTO 32007KT 10SM FEW044 12/06 A2990 RMK AO2 SLP127 T01170056=
201805311453 METAR KCLM 311453Z AUTO 29009G16KT 10SM OVC090 11/06 A2990 RMK AO2 SLP126 T01110056 51007=
201805311353 METAR KCLM 311353Z AUTO 27009KT 10SM BKN080 09/05 A2990 RMK AO2 SLP125 T00940050=
201805311253 METAR KCLM 311253Z AUTO 27007KT 10SM FEW070 09/04 A2989 RMK AO2 SLP121 T00890044=
201805311153 METAR KCLM 311153Z AUTO 27010KT 10SM SCT075 BKN085 09/04 A2988 RMK AO2 SLP120 T00890039 10094 20083 50002=
201805311053 METAR KCLM 311053Z AUTO 27007KT 10SM FEW070 BKN085 09/04 A2989 RMK AO2 SLP121 T00890039=
201805310953 METAR KCLM 310953Z AUTO 28007KT 10SM OVC070 09/03 A2988 RMK AO2 SLP120 T00940033=
201805310853 METAR KCLM 310853Z AUTO 27008KT 10SM FEW075 09/03 A2988 RMK AO2 SLP118 T00890033 56005=
201805310753 METAR KCLM 310753Z AUTO 26006KT 10SM CLR 09/05 A2988 RMK AO2 SLP120 T00890050 401560072=
201805310653 METAR KCLM 310653Z AUTO 27007KT 10SM CLR 08/05 A2988 RMK AO2 SLP118 T00830050=
201805310553 METAR KCLM 310553Z AUTO 28009KT 10SM BKN075 09/05 A2989 RMK AO2 SLP123 T00940050 10133 20089 58006=
201805310453 METAR KCLM 310453Z AUTO 28008KT 10SM BKN075 09/06 A2990 RMK AO2 SLP127 T00890056=
201805310353 METAR KCLM 310353Z AUTO 29009KT 10SM SCT075 09/06 A2990 RMK AO2 SLP126 T00940056=
201805310253 METAR KCLM 310253Z AUTO 29008G15KT 10SM CLR 10/05 A2991 RMK AO2 SLP129 T01000050 55007=
201805310153 METAR KCLM 310153Z AUTO 31009KT 10SM BKN070 12/06 A2991 RMK AO2 SLP128 T01170061=
201805310053 METAR KCLM 310053Z AUTO 30011G14KT 10SM SCT070 13/07 A2992 RMK AO2 SLP131 T01330072=
201805302353 METAR KCLM 302353Z AUTO 35008KT 10SM FEW060 13/07 A2993 RMK AO2 SLP136 T01330072 10156 20117 56018=
201805302253 METAR KCLM 302253Z AUTO 35005KT 10SM FEW070 14/05 A2994 RMK AO2 SLP139 T01440050=
201805302153 METAR KCLM 302153Z AUTO 36005KT 10SM CLR 14/06 A2996 RMK AO2 SLP146 T01440061=
201805302053 METAR KCLM 302053Z AUTO 35006KT 10SM CLR 13/06 A2998 RMK AO2 SLP154 T01330056 58012=
201805301953 METAR KCLM 301953Z AUTO 35007KT 10SM CLR 13/06 A3000 RMK AO2 SLP159 T01330061=
201805301853 METAR KCLM 301853Z AUTO 35005KT 10SM BKN039 13/06 A3001 RMK AO2 SLP162 T01280056 $=
201805301753 METAR KCLM 301753Z AUTO 35008KT 10SM CLR 12/07 A3002 RMK AO2 SLP165 T01220072 10122 20072 58004 $=
201805301653 METAR KCLM 301653Z AUTO 35007KT 10SM SCT033 11/07 A3002 RMK AO2 SLP167 T01110072 $=
201805301553 METAR KCLM 301553Z AUTO 31004KT 10SM CLR 11/07 A3003 RMK AO2 SLP168 T01110072 $=
201805301453 METAR KCLM 301453Z AUTO 25006KT 10SM SCT034 10/03 A3003 RMK AO2 SLP169 T01000033 58004 $=
201805301353 METAR KCLM 301353Z AUTO 23004KT 10SM CLR 08/03 A3003 RMK AO2 SLP171 T00780028 $=
201805301253 METAR KCLM 301253Z AUTO 25007KT 10SM CLR 07/02 A3004 RMK AO2 SLP172 T00720022 $=
201805301153 METAR KCLM 301153Z AUTO 24008KT 10SM CLR 08/02 A3004 RMK AO2 SLP173 T00780022 10089 20061 55003 $=
201805301053 METAR KCLM 301053Z AUTO 25009KT 10SM CLR 08/03 A3004 RMK AO2 SLP172 T00830028 $=
201805300953 METAR KCLM 300953Z AUTO 26011KT 10SM CLR 09/02 A3004 RMK AO2 SLP174 T00890022 $=
201805300853 METAR KCLM 300853Z AUTO 26007KT 10SM CLR 08/04 A3005 RMK AO2 SLP177 T00780039 56007 $=
201805300753 METAR KCLM 300753Z AUTO 30006KT 10SM CLR 07/03 A3006 RMK AO2 SLP180 T00670028 401390056 $=
201805300653 METAR KCLM 300653Z AUTO 27007KT 10SM CLR 07/03 A3006 RMK AO2 SLP181 T00720033 $=
201805300553 METAR KCLM 300553Z AUTO 28005KT 10SM CLR 08/03 A3007 RMK AO2 SLP184 T00830033 10122 20083 50002 $=
201805300453 METAR KCLM 300453Z AUTO 27007KT 10SM CLR 09/04 A3008 RMK AO2 SLP186 T00940039 $=
201805300353 METAR KCLM 300353Z AUTO 29010G18KT 10SM CLR 10/07 A3007 RMK AO2 SLP184 T01000067 $=
201805300253 METAR KCLM 300253Z AUTO 30014G23KT 10SM CLR 11/06 A3007 RMK AO2 SLP183 T01110061 56008 $=
201805300153 METAR KCLM 300153Z AUTO 29012G19KT 10SM CLR 12/07 A3008 RMK AO2 PK WND 29027/0118 SLP186 T01170072 $=
201805300053 METAR KCLM 300053Z AUTO 30017G26KT 9SM CLR 12/07 A3008 RMK AO2 PK WND 31028/0027 SLP187 T01170072 $=
201805292353 METAR KCLM 292353Z AUTO 30016G24KT 10SM CLR 12/07 A3009 RMK AO2 SLP190 T01220067 10139 20117 58007 $=
201805292253 METAR KCLM 292253Z AUTO 31010G18KT 10SM CLR 13/06 A3010 RMK AO2 SLP193 T01280061 $=
201805292153 METAR KCLM 292153Z AUTO 32010G20KT 280V350 10SM CLR 13/06 A3011 RMK AO2 SLP196 T01330061 $=
201805292053 METAR KCLM 292053Z AUTO 31011G19KT 10SM CLR 13/06 A3011 RMK AO2 SLP198 T01330056 58004 $=
201805291953 METAR KCLM 291953Z AUTO 32012G19KT 10SM CLR 12/07 A3012 RMK AO2 SLP199 T01220067 $=
201805291853 METAR KCLM 291853Z AUTO 31012KT 10SM CLR 12/07 A3012 RMK AO2 SLP201 T01220072 $=
201805291753 METAR KCLM 291753Z AUTO 31012G18KT 10SM CLR 12/07 A3013 RMK AO2 SLP202 T01170072 10122 20061 50000 $=
201805291653 METAR KCLM 291653Z AUTO 32015G22KT 10SM CLR 12/07 A3013 RMK AO2 SLP203 T01170072 $=
201805291553 METAR KCLM 291553Z AUTO 30010KT 10SM CLR 12/07 A3013 RMK AO2 SLP203 T01220067 $=
201805291453 METAR KCLM 291453Z AUTO 29008KT 10SM CLR 11/08 A3013 RMK AO2 SLP202 T01110078 56004 $=
201805291353 METAR KCLM 291353Z AUTO 26006KT 10SM CLR 09/04 A3013 RMK AO2 SLP202 T00940039 $=
201805291253 METAR KCLM 291253Z AUTO 24005KT 10SM CLR 07/04 A3012 RMK AO2 SLP202 T00670039 $=
201805291153 METAR KCLM 291153Z AUTO 23007KT 10SM CLR 07/04 A3014 RMK AO2 SLP206 T00670044 10094 20056 56012 $=
201805291053 METAR KCLM 291053Z AUTO 24004KT 10SM CLR 06/04 A3015 RMK AO2 SLP211 T00610044 $=
201805290953 METAR KCLM 290953Z AUTO 24006KT 10SM CLR 07/04 A3016 RMK AO2 SLP214 T00720044 $=
201805290853 METAR KCLM 290853Z AUTO 25008KT 10SM BKN060 BKN070 08/05 A3017 RMK AO2 SLP218 T00830050 58007 $=
201805290753 METAR KCLM 290753Z AUTO 29006KT 10SM BKN060 08/04 A3018 RMK AO2 SLP221 T00780044 401670067 $=
201805290653 METAR KCLM 290653Z AUTO 27009KT 10SM CLR 09/04 A3019 RMK AO2 SLP224 T00940039 $=
201805290553 METAR KCLM 290553Z AUTO 27012KT 10SM CLR 09/04 A3019 RMK AO2 SLP225 T00940039 10144 20089 55000 $=
201805290453 METAR KCLM 290453Z AUTO 29010KT 10SM CLR 10/04 A3019 RMK AO2 SLP224 T01000044 $=
201805290353 METAR KCLM 290353Z AUTO 30009G17KT 10SM CLR 10/06 A3019 RMK AO2 SLP223 T01000061 $=
201805290253 METAR KCLM 290253Z AUTO 30014G21KT 10SM CLR 11/07 A3019 RMK AO2 PK WND 30026/0214 SLP224 T01110067 58015 $=
201805290153 METAR KCLM 290153Z AUTO 30015G22KT 10SM CLR 12/06 A3021 RMK AO2 SLP232 T01220061 $=
201805290053 METAR KCLM 290053Z AUTO 30015G21KT 10SM SCT034 12/06 A3023 RMK AO2 SLP238 T01220056 $=
201805282353 METAR KCLM 282353Z AUTO 31013G20KT 10SM BKN037 14/06 A3024 RMK AO2 SLP240 T01390061 10167 20133 58004 $=
201805282316 SPECI KCLM 282316Z AUTO 30013KT 10SM FEW024 BKN031 BKN042 13/07 A3024 RMK AO2 T01330072 $=
201805282253 METAR KCLM 282253Z AUTO 30012G16KT 10SM BKN021 OVC029 13/07 A3025 RMK AO2 SLP246 T01330067 $=
201805282210 SPECI KCLM 282210Z AUTO 28017G24KT 10SM BKN022 OVC033 15/07 A3025 RMK AO2 T01500072 $=
201805282153 METAR KCLM 282153Z AUTO 30016G22KT 10SM SCT022 SCT034 16/08 A3025 RMK AO2 SLP246 T01610083 $=
201805282053 METAR KCLM 282053Z AUTO 30017G23KT 10SM SCT018 16/09 A3025 RMK AO2 SLP244 T01610094 58001 $=
201805282002 SPECI KCLM 282002Z AUTO 30016G23KT 10SM BKN015 16/11 A3026 RMK AO2 T01560111 $=
201805281953 METAR KCLM 281953Z AUTO 29018G23KT 10SM SCT017 16/11 A3025 RMK AO2 SLP245 T01610111 $=
201805281853 METAR KCLM 281853Z AUTO 30009KT 260V330 10SM BKN070 15/11 A3026 RMK AO2 SLP246 T01500106 $=
201805281753 METAR KCLM 281753Z AUTO 31008G18KT 10SM OVC070 15/09 A3026 RMK AO2 SLP245 T01500094 10156 20094 53003 $=
201805281653 METAR KCLM 281653Z AUTO 31010KT 10SM FEW075 15/09 A3025 RMK AO2 SLP242 T01500094 $=
201805281553 METAR KCLM 281553Z AUTO 31011KT 10SM CLR 14/09 A3025 RMK AO2 SLP243 T01440089 $=
201805281453 METAR KCLM 281453Z AUTO 31007KT 10SM CLR 14/09 A3025 RMK AO2 SLP243 T01390089 53002 $=
201805281353 METAR KCLM 281353Z AUTO 28007KT 10SM CLR 12/08 A3025 RMK AO2 SLP242 T01170083 $=
201805281253 METAR KCLM 281253Z AUTO 25006KT 10SM CLR 09/07 A3024 RMK AO2 SLP241 T00940072 $=
201805281153 METAR KCLM 281153Z AUTO 25007KT 10SM CLR 11/08 A3024 RMK AO2 SLP240 T01060078 10122 20067 50005 $=
201805281053 METAR KCLM 281053Z AUTO 25010KT 10SM CLR 11/08 A3024 RMK AO2 SLP241 T01060078 $=
201805280953 METAR KCLM 280953Z AUTO 00000KT 10SM CLR 08/06 A3024 RMK AO2 SLP240 T00780061 $=
201805280853 METAR KCLM 280853Z AUTO 28005KT 10SM CLR 10/06 A3023 RMK AO2 SLP236 T01000061 51005 $=
201805280753 METAR KCLM 280753Z AUTO 28004KT 10SM CLR 11/07 A3022 RMK AO2 SLP235 T01110072 401780061 $=
201805280653 METAR KCLM 280653Z AUTO 28008KT 10SM CLR 12/08 A3021 RMK AO2 SLP231 T01170078 $=
201805280553 METAR KCLM 280553Z AUTO 28010KT 10SM CLR 11/09 A3021 RMK AO2 SLP231 T01110089 10167 20106 50002 $=
201805280453 METAR KCLM 280453Z AUTO 29010KT 10SM FEW015 11/09 A3022 RMK AO2 SLP232 T01110094 $=
201805280353 METAR KCLM 280353Z AUTO 30007KT 10SM CLR 12/09 A3020 RMK AO2 SLP228 T01170094 $=
201805280253 METAR KCLM 280253Z AUTO 30008KT 10SM CLR 13/09 A3021 RMK AO2 SLP228 T01280094 56002 $=
201805280153 METAR KCLM 280153Z AUTO 31008G18KT 10SM CLR 14/09 A3021 RMK AO2 SLP231 T01390094 $=
201805280053 METAR KCLM 280053Z AUTO 31016G20KT 10SM CLR 16/07 A3020 RMK AO2 SLP228 T01560067 $=
201805272353 METAR KCLM 272353Z AUTO 31010KT 10SM CLR 17/07 A3021 RMK AO2 SLP232 T01670072 10178 20144 57010 $=
201805272253 METAR KCLM 272253Z AUTO 31011G17KT 10SM CLR 17/08 A3022 RMK AO2 SLP235 T01670083 $=
201805272153 METAR KCLM 272153Z AUTO 31010G18KT 10SM CLR 17/09 A3023 RMK AO2 SLP238 T01720089 $=
201805272053 METAR KCLM 272053Z AUTO 30010G16KT 10SM CLR 17/08 A3024 RMK AO2 SLP241 T01670078 58005 $=
201805271953 METAR KCLM 271953Z AUTO 32010KT 10SM CLR 16/06 A3025 RMK AO2 SLP244 T01610061 $=
201805271853 METAR KCLM 271853Z AUTO VRB04KT 10SM CLR 16/07 A3026 RMK AO2 SLP246 T01560067 $=
201805271753 METAR KCLM 271753Z AUTO 34006KT 10SM CLR 14/08 A3026 RMK AO2 SLP248 T01390083 10144 20061 50000 $=
201805271653 METAR KCLM 271653Z AUTO VRB04KT 10SM CLR 14/08 A3026 RMK AO2 SLP248 T01390083 $=
201805271553 METAR KCLM 271553Z AUTO 30005KT 10SM CLR 13/06 A3026 RMK AO2 SLP249 T01330056 $=
201805271453 METAR KCLM 271453Z AUTO 28005KT 10SM CLR 13/08 A3026 RMK AO2 SLP247 T01280078 58003 $=
201805271353 METAR KCLM 271353Z AUTO 24005KT 10SM CLR 09/08 A3026 RMK AO2 SLP248 T00940078 $=
201805271253 METAR KCLM 271253Z AUTO 22006KT 10SM CLR 07/06 A3027 RMK AO2 SLP251 T00720061 $=
201805271153 METAR KCLM 271153Z AUTO 25003KT 10SM CLR 07/06 A3027 RMK AO2 SLP250 T00720061 10100 20067 53004 $=
201805271053 METAR KCLM 271053Z AUTO 24004KT 10SM CLR 08/06 A3026 RMK AO2 SLP247 T00780061 $=
201805270953 METAR KCLM 270953Z AUTO 24005KT 10SM CLR 08/07 A3026 RMK AO2 SLP248 T00830067 $=
201805270853 METAR KCLM 270853Z AUTO 24005KT 10SM CLR 08/07 A3025 RMK AO2 SLP246 T00830067 51005 $=
201805270753 METAR KCLM 270753Z AUTO 26005KT 10SM CLR 09/07 A3025 RMK AO2 SLP243 T00940072 401560078 $=
201805270653 METAR KCLM 270653Z AUTO 27009KT 10SM CLR 10/08 A3025 RMK AO2 SLP243 T01000078 $=
201805270553 METAR KCLM 270553Z AUTO 29006KT 10SM CLR 09/07 A3024 RMK AO2 SLP240 T00940072 10144 20094 51006 $=
201805270453 METAR KCLM 270453Z AUTO 29005KT 10SM CLR 10/07 A3023 RMK AO2 SLP239 T01000067 $=
201805270353 METAR KCLM 270353Z AUTO 29007KT 10SM CLR 11/07 A3022 RMK AO2 SLP236 T01110067 $=
201805270253 METAR KCLM 270253Z AUTO 31005KT 10SM FEW095 12/07 A3022 RMK AO2 SLP234 T01220067 50000 $=
201805270153 METAR KCLM 270153Z AUTO 31007G15KT 10SM FEW075 OVC095 13/06 A3022 RMK AO2 SLP235 T01280061 $=
201805270053 METAR KCLM 270053Z AUTO 30008KT 10SM OVC080 13/06 A3022 RMK AO2 SLP235 T01330061 $=
201805262353 METAR KCLM 262353Z AUTO 33008KT 10SM FEW032 OVC110 14/07 A3022 RMK AO2 SLP234 T01440072 10156 20133 51008 $=
201805262253 METAR KCLM 262253Z AUTO 32011G18KT 10SM OVC036 13/07 A3022 RMK AO2 SLP233 T01330072 $=
201805262153 METAR KCLM 262153Z AUTO 30014G18KT 10SM FEW040 14/07 A3020 RMK AO2 SLP229 T01440072 $=
201805262053 METAR KCLM 262053Z AUTO 30012G21KT 10SM OVC044 14/07 A3019 RMK AO2 SLP226 T01440072 53013 $=
201805261953 METAR KCLM 261953Z AUTO 30012G17KT 10SM CLR 16/08 A3018 RMK AO2 SLP219 T01560083 $=
201805261853 METAR KCLM 261853Z AUTO 30013G17KT 10SM CLR 14/08 A3017 RMK AO2 SLP216 T01440083 $=
201805261753 METAR KCLM 261753Z AUTO 31010KT 10SM CLR 14/09 A3016 RMK AO2 SLP213 T01440089 10144 20083 51008 $=
201805261653 METAR KCLM 261653Z AUTO 31011G16KT 10SM CLR 14/09 A3015 RMK AO2 SLP210 T01390089 $=
201805261553 METAR KCLM 261553Z AUTO 31011KT 10SM CLR 13/08 A3015 RMK AO2 SLP209 T01330083 $=
201805261453 METAR KCLM 261453Z AUTO 27007KT 10SM CLR 12/08 A3013 RMK AO2 SLP205 T01220078 53012 $=
201805261353 METAR KCLM 261353Z AUTO 27008KT 10SM CLR 11/07 A3013 RMK AO2 SLP202 T01110067 $=
201805261253 METAR KCLM 261253Z AUTO 26011KT 10SM CLR 09/06 A3010 RMK AO2 SLP193 T00890061 $=
201805261153 METAR KCLM 261153Z AUTO 26011KT 10SM CLR 09/06 A3010 RMK AO2 SLP192 T00890061 10100 20078 51002 $=
201805261053 METAR KCLM 261053Z AUTO 25006KT 10SM SCT026 09/06 A3009 RMK AO2 SLP191 T00890056 $=
201805261007 SPECI KCLM 261007Z AUTO 26009KT 10SM BKN024 10/06 A3010 RMK AO2 T01000061 $=
201805260953 METAR KCLM 260953Z AUTO 25007KT 10SM FEW023 09/06 A3010 RMK AO2 SLP192 T00940061 $=
201805260853 METAR KCLM 260853Z AUTO 25008KT 10SM 10/06 A3009 RMK AO2 SLP191 T01000061 $=
201805260753 METAR KCLM 260753Z AUTO 26011KT 10SM CLR 09/06 A3009 RMK AO2 SLP189 T00940061 401500089=
201805260653 METAR KCLM 260653Z AUTO 27012KT 10SM CLR 10/06 A3009 RMK AO2 SLP189 T01000056=
201805260553 METAR KCLM 260553Z AUTO 28011KT 10SM CLR 10/06 A3008 RMK AO2 SLP188 T01000061 10144 20100 53013=
201805260453 METAR KCLM 260453Z AUTO 29013KT 10SM CLR 11/07 A3007 RMK AO2 SLP183 T01060067=
201805260353 METAR KCLM 260353Z AUTO 27011KT 10SM CLR 11/07 A3005 RMK AO2 SLP177 T01110067=
201805260253 METAR KCLM 260253Z AUTO 29012KT 10SM BKN100 12/07 A3005 RMK AO2 SLP175 T01220067 56001=
201805260153 METAR KCLM 260153Z AUTO 29013KT 10SM SCT085 13/07 A3005 RMK AO2 SLP175 T01330067=
201805260053 METAR KCLM 260053Z AUTO 30013G19KT 10SM BKN080 14/05 A3005 RMK AO2 SLP175 T01390050=
201805252353 METAR KCLM 252353Z AUTO 30012G17KT 10SM CLR 14/05 A3005 RMK AO2 SLP176 T01440050 10150 20128 58003=
201805252253 METAR KCLM 252253Z AUTO 31015G21KT 10SM CLR 13/06 A3006 RMK AO2 SLP181 T01330056=
201805252153 METAR KCLM 252153Z AUTO 31011KT 10SM CLR 13/06 A3006 RMK AO2 SLP181 T01330056=
201805252053 METAR KCLM 252053Z AUTO 31014G20KT 10SM CLR 14/07 A3006 RMK AO2 SLP179 T01390067 55002=
201805251953 METAR KCLM 251953Z AUTO 30012G19KT 10SM CLR 14/07 A3005 RMK AO2 SLP177 T01440072=
201805251853 METAR KCLM 251853Z AUTO 30014G20KT 10SM CLR 13/08 A3006 RMK AO2 SLP179 T01330078=
201805251753 METAR KCLM 251753Z AUTO 31014G20KT 10SM CLR 13/07 A3006 RMK AO2 SLP181 T01280072 10128 20089 56001=
201805251653 METAR KCLM 251653Z AUTO 31013G21KT 10SM CLR 12/08 A3006 RMK AO2 SLP181 T01220078=
201805251553 METAR KCLM 251553Z AUTO 30009G17KT 10SM CLR 12/06 A3006 RMK AO2 SLP181 T01220061 $=
201805251453 METAR KCLM 251453Z AUTO 31009KT 270V350 10SM CLR 12/05 A3007 RMK AO2 SLP182 T01220050 53006 $=
201805251353 METAR KCLM 251353Z AUTO 28006KT 10SM CLR 11/05 A3006 RMK AO2 SLP180 T01060050 $=
201805251253 METAR KCLM 251253Z AUTO 27008KT 10SM SCT060 09/06 A3005 RMK AO2 SLP177 T00890056 $=
201805251153 METAR KCLM 251153Z AUTO 28008KT 10SM CLR 09/06 A3005 RMK AO2 SLP176 T00890056 10106 20089 50001 $=
201805251053 METAR KCLM 251053Z AUTO 26007KT 10SM CLR 09/05 A3006 RMK AO2 SLP179 T00890050 $=
201805250953 METAR KCLM 250953Z AUTO 28010KT 10SM BKN060 09/06 A3005 RMK AO2 SLP176 T00940056 $=
201805250853 METAR KCLM 250853Z AUTO 28010KT 10SM FEW060 10/06 A3005 RMK AO2 SLP176 T01000061 58006 $=
201805250753 METAR KCLM 250753Z AUTO 28011KT 10SM FEW060 10/06 A3006 RMK AO2 SLP180 T01000061 401500100 $=
201805250653 METAR KCLM 250653Z AUTO 29012KT 10SM BKN070 11/07 A3007 RMK AO2 SLP182 T01060067 $=
201805250553 METAR KCLM 250553Z AUTO 28011KT 10SM OVC070 11/07 A3007 RMK AO2 SLP182 T01060072 10144 20106 53001 $=
201805250453 METAR KCLM 250453Z AUTO 29013KT 10SM FEW060 11/08 A3006 RMK AO2 SLP181 T01060078 $=
201805250353 METAR KCLM 250353Z AUTO 28011KT 10SM OVC065 11/07 A3006 RMK AO2 SLP181 T01110072 $=
201805250253 METAR KCLM 250253Z AUTO 30009KT 10SM SCT070 12/08 A3006 RMK AO2 SLP181 T01170078 $=
201805250153 METAR KCLM 250153Z AUTO 31010KT 10SM CLR 13/08 A3006 RMK AO2 SLP180 T01330078 $=
201805250053 METAR KCLM 250053Z AUTO 30010G17KT 10SM CLR 14/09 A3007 RMK AO2 SLP182 T01390089 $=
201805242353 METAR KCLM 242353Z AUTO 32011KT 10SM CLR 14/09 A3007 RMK AO2 SLP184 T01390094 10150 20117 58005=
201805242253 METAR KCLM 242253Z AUTO 32008KT 290V350 10SM CLR 14/09 A3008 RMK AO2 SLP186 T01440094=
201805242153 METAR KCLM 242153Z AUTO 32011G19KT 10SM CLR 14/09 A3008 RMK AO2 SLP187 T01440094=
201805242053 METAR KCLM 242053Z AUTO 31009G19KT 10SM CLR 14/09 A3009 RMK AO2 SLP188 T01440094 50000=
201805242022 SPECI KCLM 242022Z AUTO 31011G17KT 10SM SCT017 14/10 A3009 RMK AO2 T01440100=
201805241953 METAR KCLM 241953Z AUTO 31011KT 10SM OVC016 14/09 A3009 RMK AO2 SLP188 T01390094=
201805241923 SPECI KCLM 241923Z AUTO 30009G17KT 10SM OVC015 13/09 A3009 RMK AO2 T01280094=
201805241853 METAR KCLM 241853Z AUTO 30010G18KT 10SM OVC013 13/09 A3009 RMK AO2 SLP190 T01280094=
201805241753 METAR KCLM 241753Z AUTO 31012G18KT 10SM OVC011 12/09 A3009 RMK AO2 SLP189 T01170094 10117 20106 51013=
201805241738 SPECI KCLM 241738Z AUTO 30010KT 10SM OVC010 12/09 A3008 RMK AO2 T01170094=
201805241653 METAR KCLM 241653Z AUTO 31010KT 10SM OVC009 11/10 A3008 RMK AO2 SLP186 T01110100=
201805241553 METAR KCLM 241553Z AUTO 31007KT 10SM OVC009 12/10 A3006 RMK AO2 SLP181 T01170100=
201805241453 METAR KCLM 241453Z AUTO VRB03KT 10SM OVC006 12/11 A3005 RMK AO2 SLP175 T01170111 53017=
201805241353 METAR KCLM 241353Z AUTO 28006KT 10SM OVC005 11/11 A3003 RMK AO2 SLP169 T01110111=
201805241253 METAR KCLM 241253Z AUTO 30007KT 10SM BKN009 11/10 A3001 RMK AO2 CIG 005V011 SLP163 T01060100=
201805241245 SPECI KCLM 241245Z AUTO 29005KT 10SM BKN010 11/09 A3001 RMK AO2 T01060094=
201805241153 METAR KCLM 241153Z AUTO 27006KT 10SM CLR 11/10 A3000 RMK AO2 SLP158 T01060100 10117 20106 51013=
201805241106 SPECI KCLM 241106Z AUTO 25006KT 10SM SCT018 11/10 A3000 RMK AO2 T01110100=
201805241053 METAR KCLM 241053Z AUTO 27006KT 10SM BKN017 11/10 A3000 RMK AO2 SLP157 T01110100=
201805241038 SPECI KCLM 241038Z AUTO 28007KT 10SM BKN016 11/10 A2999 RMK AO2 T01110100=
201805240953 METAR KCLM 240953Z AUTO 28008KT 10SM SCT060 11/10 A2998 RMK AO2 SLP151 T01110100=
201805240853 METAR KCLM 240853Z AUTO 28009KT 10SM CLR 11/10 A2996 RMK AO2 SLP145 T01110100 51025=
201805240753 METAR KCLM 240753Z AUTO 29009KT 10SM FEW007 11/11 A2994 RMK AO2 SLP137 T01110106 401720100=
201805240706 SPECI KCLM 240706Z AUTO 28015KT 10SM SCT009 BKN100 12/11 A2992 RMK AO2 T01170106=
201805240653 METAR KCLM 240653Z AUTO 28011G19KT 10SM BKN008 BKN100 12/11 A2991 RMK AO2 SLP129 T01170106=
201805240553 METAR KCLM 240553Z AUTO 28014KT 10SM FEW008 OVC090 12/11 A2989 RMK AO2 SLP121 T01170111 10172 20117 53013=
201805240453 METAR KCLM 240453Z AUTO 28011KT 10SM FEW095 12/11 A2987 RMK AO2 SLP116 T01170106=
201805240353 METAR KCLM 240353Z AUTO 28013KT 10SM BKN100 13/11 A2986 RMK AO2 SLP112 T01280111=
201805240253 METAR KCLM 240253Z AUTO 29013G19KT 10SM OVC090 14/11 A2985 RMK AO2 SLP108 T01390111 53012=
201805240153 METAR KCLM 240153Z AUTO 30015G22KT 10SM CLR 16/12 A2984 RMK AO2 SLP103 T01560117=
201805240053 METAR KCLM 240053Z AUTO 29015G22KT 10SM CLR 16/12 A2983 RMK AO2 SLP101 T01610117=
201805232353 METAR KCLM 232353Z AUTO 28013KT 10SM CLR 17/12 A2982 RMK AO2 SLP096 T01670122 10167 20133 56004=
201805232253 METAR KCLM 232253Z AUTO 31009G16KT 10SM CLR 16/12 A2982 RMK AO2 SLP096 T01610122=
201805232153 METAR KCLM 232153Z AUTO 32009KT 10SM CLR 16/12 A2982 RMK AO2 SLP097 T01610122=
201805232053 METAR KCLM 232053Z AUTO 32008KT 10SM CLR 17/12 A2983 RMK AO2 SLP100 T01670122 58006=
201805231953 METAR KCLM 231953Z AUTO 32009KT 10SM CLR 15/12 A2983 RMK AO2 SLP102 T01500122=
201805231853 METAR KCLM 231853Z AUTO 32007KT 9SM CLR 14/12 A2985 RMK AO2 SLP106 T01440117=
201805231753 METAR KCLM 231753Z AUTO 31009KT 8SM CLR 13/12 A2985 RMK AO2 SLP106 T01330117 10144 20100 58000=
201805231653 METAR KCLM 231653Z AUTO 32008KT 9SM CLR 14/12 A2985 RMK AO2 SLP108 T01390117=
201805231553 METAR KCLM 231553Z AUTO 30009KT 9SM CLR 13/11 A2985 RMK AO2 SLP107 T01280111=
201805231453 METAR KCLM 231453Z AUTO 30009KT 10SM CLR 12/11 A2985 RMK AO2 SLP107 T01220106 53004=
201805231353 METAR KCLM 231353Z AUTO 31009KT 10SM CLR 11/10 A2984 RMK AO2 SLP104 T01110100=
201805231253 METAR KCLM 231253Z AUTO 30007KT 9SM CLR 10/09 A2984 RMK AO2 SLP104 T01000094=
201805231153 METAR KCLM 231153Z AUTO 30008KT 10SM CLR 11/09 A2984 RMK AO2 SLP103 T01060094 10122 20106 50000=
201805231053 METAR KCLM 231053Z AUTO 30006KT 10SM CLR 11/09 A2984 RMK AO2 SLP103 T01060089=
201805230953 METAR KCLM 230953Z AUTO 30008KT 10SM CLR 11/09 A2984 RMK AO2 SLP104 T01110089=
201805230853 METAR KCLM 230853Z AUTO 30008KT 10SM CLR 11/09 A2984 RMK AO2 SLP103 T01110089 56008=
201805230753 METAR KCLM 230753Z AUTO 30008KT 10SM CLR 11/08 A2984 RMK AO2 SLP103 T01060083 401940083=
201805230653 METAR KCLM 230653Z AUTO 30007KT 10SM CLR 12/08 A2985 RMK AO2 SLP108 T01170083=
201805230553 METAR KCLM 230553Z AUTO 30010KT 10SM CLR 12/08 A2986 RMK AO2 SLP112 T01220083 10172 20122 55000=
201805230453 METAR KCLM 230453Z AUTO 30007KT 10SM CLR 13/08 A2986 RMK AO2 SLP111 T01280083=
201805230353 METAR KCLM 230353Z AUTO 29009KT 10SM CLR 14/08 A2986 RMK AO2 SLP110 T01390078=
201805230253 METAR KCLM 230253Z AUTO 30008KT 10SM CLR 16/08 A2986 RMK AO2 SLP112 T01560083 56013=
201805230153 METAR KCLM 230153Z AUTO 30008KT 270V330 10SM CLR 17/10 A2987 RMK AO2 SLP115 T01670100=
201805230053 METAR KCLM 230053Z AUTO 30011KT 10SM CLR 16/11 A2989 RMK AO2 SLP121 T01610106=
201805222353 METAR KCLM 222353Z AUTO 32007KT 10SM CLR 17/11 A2990 RMK AO2 SLP125 T01670111 10194 20150 58013=
201805222253 METAR KCLM 222253Z AUTO 31008KT 10SM CLR 16/11 A2992 RMK AO2 SLP130 T01560111=
201805222153 METAR KCLM 222153Z AUTO 30008KT 10SM CLR 16/11 A2993 RMK AO2 SLP135 T01560111=
201805222053 METAR KCLM 222053Z AUTO VRB04KT 10SM CLR 16/11 A2994 RMK AO2 SLP138 T01610111 56013=
201805221953 METAR KCLM 221953Z AUTO VRB04KT 10SM CLR 19/10 A2995 RMK AO2 SLP141 T01940100=
201805221853 METAR KCLM 221853Z AUTO VRB04KT 10SM CLR 17/11 A2996 RMK AO2 SLP146 T01720111=
201805221753 METAR KCLM 221753Z AUTO 35003KT 10SM CLR 16/12 A2998 RMK AO2 SLP151 T01610117 10161 20083 58005=
201805221653 METAR KCLM 221653Z AUTO 35004KT 10SM CLR 12/11 A2999 RMK AO2 SLP155 T01220106=
201805221553 METAR KCLM 221553Z AUTO 33003KT 10SM FEW004 11/11 A2999 RMK AO2 SLP157 T01110106=
201805221550 SPECI KCLM 221550Z AUTO 00000KT 10SM SCT004 11/11 A2999 RMK AO2=
201805221514 SPECI KCLM 221514Z AUTO 00000KT 7SM OVC002 10/10 A3000 RMK AO2 T01000100=
201805221505 SPECI KCLM 221505Z AUTO 28003KT 2 1/2SM BR OVC002 10/10 A3000 RMK AO2 T01000100=
201805221453 METAR KCLM 221453Z AUTO 28003KT 3SM BR OVC002 10/10 A3000 RMK AO2 SLP159 T01000100 55001=
201805221451 SPECI KCLM 221451Z AUTO 32003KT 3SM BR OVC002 10/10 A3000 RMK AO2=
201805221446 SPECI KCLM 221446Z AUTO 31003KT 1 3/4SM BR OVC002 10/10 A3000 RMK AO2 T01000100=
201805221434 SPECI KCLM 221434Z AUTO 30005KT 3/4SM BR OVC002 09/09 A3000 RMK AO2 T00940094=
201805221353 METAR KCLM 221353Z AUTO 29005KT 1/4SM FG VV002 09/09 A3000 RMK AO2 SLP159 T00940094=
201805221253 METAR KCLM 221253Z AUTO 29005KT 1/4SM FG VV002 09/09 A2999 RMK AO2 SLP157 T00940094=
201805221235 SPECI KCLM 221235Z AUTO 28005KT 1/4SM FG OVC002 09/09 A2999 RMK AO2 T00940094=
201805221225 SPECI KCLM 221225Z AUTO 25003KT 1 3/4SM BR OVC002 09/09 A3000 RMK AO2 VIS 1 1/2V2 1/2 T00940094=
201805221208 SPECI KCLM 221208Z AUTO 27003KT 7SM BKN003 09/09 A3000 RMK AO2 T00890089=
201805221200 SPECI KCLM 221200Z AUTO 30004KT 9SM SCT003 09/08 A3000 RMK AO2 T00890083=
201805221153 METAR KCLM 221153Z AUTO 29004KT 10SM CLR 09/08 A3000 RMK AO2 SLP161 T00890083 10106 20083 56002=
201805221053 METAR KCLM 221053Z AUTO 27004KT 10SM CLR 09/08 A3001 RMK AO2 SLP161 T00940083=
201805220953 METAR KCLM 220953Z AUTO 28006KT 10SM CLR 09/08 A3000 RMK AO2 SLP160 T00890078=
201805220853 METAR KCLM 220853Z AUTO 27005KT 10SM CLR 10/08 A3001 RMK AO2 SLP163 T01000083 56007=
201805220753 METAR KCLM 220753Z AUTO 29007KT 10SM CLR 10/09 A3001 RMK AO2 SLP165 T01000089 401830089=
201805220653 METAR KCLM 220653Z AUTO 28008KT 10SM CLR 11/09 A3003 RMK AO2 SLP168 T01060089=
201805220553 METAR KCLM 220553Z AUTO 29008KT 10SM CLR 11/09 A3003 RMK AO2 SLP170 T01060089 10150 20106 56002=
201805220453 METAR KCLM 220453Z AUTO 30008KT 10SM CLR 11/08 A3003 RMK AO2 SLP170 T01060083=
201805220353 METAR KCLM 220353Z AUTO 27007KT 10SM CLR 12/08 A3003 RMK AO2 SLP170 T01170083=
201805220253 METAR KCLM 220253Z AUTO 29008KT 10SM CLR 13/09 A3004 RMK AO2 SLP172 T01280089 56005=
201805220153 METAR KCLM 220153Z AUTO 31009KT 10SM CLR 13/09 A3004 RMK AO2 SLP173 T01330089=
201805220053 METAR KCLM 220053Z AUTO 32008KT 10SM CLR 14/09 A3004 RMK AO2 SLP174 T01440094=
201805212353 METAR KCLM 212353Z AUTO 32006KT 10SM CLR 15/09 A3005 RMK AO2 SLP177 T01500094 10183 20128 56017=
201805212253 METAR KCLM 212253Z AUTO 36008KT 10SM CLR 14/09 A3007 RMK AO2 SLP182 T01440089=
201805212153 METAR KCLM 212153Z AUTO 00000KT 10SM OVC042 16/11 A3008 RMK AO2 SLP186 T01610106=
201805212053 METAR KCLM 212053Z AUTO 30007KT 10SM OVC043 13/09 A3010 RMK AO2 SLP194 T01330094 55001=
201805211953 METAR KCLM 211953Z AUTO 30006KT 10SM OVC043 14/09 A3009 RMK AO2 SLP191 T01440094=
201805211853 METAR KCLM 211853Z AUTO 32004KT 10SM OVC045 13/09 A3010 RMK AO2 SLP194 T01330094=
201805211753 METAR KCLM 211753Z AUTO 33008KT 10SM OVC045 13/09 A3010 RMK AO2 SLP195 T01280089 10128 20089 51005=
201805211653 METAR KCLM 211653Z AUTO 30009KT 10SM OVC045 12/09 A3010 RMK AO2 SLP194 T01220089=
201805211553 METAR KCLM 211553Z AUTO 30006KT 10SM OVC041 12/08 A3010 RMK AO2 SLP192 T01170083=
201805211453 METAR KCLM 211453Z AUTO 30007KT 10SM FEW034 OVC046 11/08 A3009 RMK AO2 SLP190 T01110083 53005=
201805211353 METAR KCLM 211353Z AUTO 28006KT 10SM SCT036 OVC044 11/08 A3008 RMK AO2 SLP186 T01060083=
201805211253 METAR KCLM 211253Z AUTO 28005KT 10SM BKN044 09/08 A3007 RMK AO2 SLP183 T00940078=
201805211153 METAR KCLM 211153Z AUTO 27007KT 10SM OVC041 09/08 A3007 RMK AO2 SLP185 T00940078 10100 20089 58001=
201805211053 METAR KCLM 211053Z AUTO 27007KT 10SM FEW045 09/07 A3008 RMK AO2 SLP185 T00890067=
201805210953 METAR KCLM 210953Z AUTO 28009KT 10SM OVC045 10/07 A3008 RMK AO2 SLP186 T01000067=
201805210853 METAR KCLM 210853Z AUTO 28009KT 10SM OVC044 10/07 A3008 RMK AO2 SLP186 T01000067 58004=
201805210753 METAR KCLM 210753Z AUTO 29008KT 10SM OVC045 10/07 A3009 RMK AO2 SLP191 T01000067 401500094=
201805210653 METAR KCLM 210653Z AUTO 29009KT 10SM FEW050 09/07 A3009 RMK AO2 SLP189 T00940072=
201805210553 METAR KCLM 210553Z AUTO 28011KT 10SM OVC055 10/08 A3009 RMK AO2 SLP189 T01000078 10139 20094 53008=
201805210453 METAR KCLM 210453Z AUTO 28008KT 10SM CLR 09/08 A3008 RMK AO2 SLP187 T00940078=
201805210353 METAR KCLM 210353Z AUTO 29009KT 10SM CLR 10/08 A3007 RMK AO2 SLP183 T01000078=
201805210253 METAR KCLM 210253Z AUTO 29012KT 10SM CLR 12/08 A3006 RMK AO2 SLP181 T01170083 50000=
201805210153 METAR KCLM 210153Z AUTO 31013G18KT 10SM CLR 12/08 A3006 RMK AO2 SLP181 T01220083=
201805210053 METAR KCLM 210053Z AUTO 31008KT 10SM SCT070 13/09 A3007 RMK AO2 SLP182 T01280089=
201805202353 METAR KCLM 202353Z AUTO 31014G19KT 10SM OVC070 13/09 A3006 RMK AO2 SLP181 T01330094 10150 20117 58005=
201805202253 METAR KCLM 202253Z AUTO 31012KT 10SM CLR 14/10 A3007 RMK AO2 SLP183 T01390100=
201805202214 SPECI KCLM 202214Z AUTO 29009G17KT 10SM FEW025 15/10 A3007 RMK AO2 T01500100=
201805202153 METAR KCLM 202153Z AUTO 31010KT 10SM BKN024 14/09 A3008 RMK AO2 SLP184 T01440094=
201805202053 METAR KCLM 202053Z AUTO 32007KT 10SM OVC022 13/09 A3008 RMK AO2 SLP186 T01330089 51004=
201805201953 METAR KCLM 201953Z AUTO 31005KT 10SM OVC022 13/09 A3007 RMK AO2 SLP185 T01330094=
201805201853 METAR KCLM 201853Z AUTO 30007KT 10SM OVC020 13/09 A3007 RMK AO2 SLP184 T01280089=
201805201753 METAR KCLM 201753Z AUTO 31005KT 10SM OVC021 12/09 A3006 RMK AO2 SLP182 T01170094 10117 20106 51011=
201805201653 METAR KCLM 201653Z AUTO 30009KT 10SM OVC020 11/09 A3006 RMK AO2 SLP181 T01110094=
201805201553 METAR KCLM 201553Z AUTO 30009KT 10SM OVC018 11/09 A3005 RMK AO2 SLP176 T01110089=
201805201453 METAR KCLM 201453Z AUTO 28008KT 10SM OVC019 11/08 A3003 RMK AO2 SLP170 T01110083 51012=
201805201353 METAR KCLM 201353Z AUTO 28006KT 10SM OVC017 11/09 A3002 RMK AO2 SLP167 T01110089=
201805201324 SPECI KCLM 201324Z AUTO 29009KT 10SM OVC015 11/09 A3001 RMK AO2 T01060094=
201805201308 SPECI KCLM 201308Z AUTO 27007KT 9SM SCT009 OVC013 11/09 A3001 RMK AO2 T01060094=
201805201253 METAR KCLM 201253Z AUTO 27007KT 9SM OVC009 11/09 A3001 RMK AO2 CIG 007V013 SLP163 T01060094=
201805201237 SPECI KCLM 201237Z AUTO 29007KT 9SM OVC008 11/09 A3001 RMK AO2 CIG 007V012 T01060094=
201805201153 METAR KCLM 201153Z AUTO 29005KT 10SM OVC014 11/09 A3000 RMK AO2 SLP159 70003 T01110094 10111 20111 51003=
201805201149 SPECI KCLM 201149Z AUTO 28004KT 10SM OVC014 11/09 A3000 RMK AO2=
201805201053 METAR KCLM 201053Z AUTO 28007KT 10SM OVC016 11/09 A2999 RMK AO2 SLP157 T01110089=
201805200953 METAR KCLM 200953Z AUTO 29005KT 10SM OVC017 11/09 A2999 RMK AO2 SLP155 T01110094=
201805200853 METAR KCLM 200853Z AUTO 28005KT 10SM OVC016 11/09 A2999 RMK AO2 SLP155 T01110094 53001=
201805200753 METAR KCLM 200753Z AUTO 29008KT 10SM OVC016 11/09 A2998 RMK AO2 SLP153 T01110094 401610100=
201805200653 METAR KCLM 200653Z AUTO 28008KT 10SM OVC016 11/09 A2999 RMK AO2 SLP155 T01110094=
201805200553 METAR KCLM 200553Z AUTO 28010KT 10SM OVC016 11/09 A2999 RMK AO2 SLP154 60000 T01110094 10139 20111 51008=
201805200453 METAR KCLM 200453Z AUTO 27009KT 10SM OVC020 11/10 A2999 RMK AO2 SLP155 T01110100=
201805200353 METAR KCLM 200353Z AUTO 28008KT 8SM BKN021 OVC080 12/10 A2997 RMK AO2 SLP150 T01170100=
201805200253 METAR KCLM 200253Z AUTO 27008KT 8SM OVC018 12/11 A2996 RMK AO2 SLP147 60000 T01220106 56003=
201805200225 SPECI KCLM 200225Z AUTO 29009KT 8SM BKN017 BKN070 13/11 A2996 RMK AO2 T01280111=
201805200153 METAR KCLM 200153Z AUTO 29008KT 8SM BKN075 BKN090 13/11 A2997 RMK AO2 SLP148 T01330111=
201805200053 METAR KCLM 200053Z AUTO 34005KT 9SM FEW020 BKN070 BKN100 14/12 A2997 RMK AO2 RAE03B30E42 SLP148 P0000 T01390122=
201805192353 METAR KCLM 192353Z AUTO 30007KT 3SM -RA BR SCT027 BKN037 OVC080 13/12 A2997 RMK AO2 RAB13 SLP150 P0003 60003 T01330117 10161 20133 57011=
201805192253 METAR KCLM 192253Z AUTO 31005KT 10SM FEW090 BKN120 16/12 A2998 RMK AO2 SLP152 T01560117=
201805192153 METAR KCLM 192153Z AUTO 29005KT 10SM FEW050 SCT085 OVC110 15/12 A3000 RMK AO2 RAB30E48 SLP158 P0000 T01500117=
201805192053 METAR KCLM 192053Z AUTO 36005KT 10SM FEW034 OVC100 15/12 A3001 RMK AO2 SLP161 T01500117 58007=
201805191953 METAR KCLM 191953Z AUTO 36003KT 10SM OVC034 14/11 A3002 RMK AO2 SLP165 T01440111=
201805191853 METAR KCLM 191853Z AUTO 36004KT 10SM OVC034 14/11 A3003 RMK AO2 SLP170 T01390111=
201805191753 METAR KCLM 191753Z AUTO 30006KT 10SM OVC035 14/11 A3003 RMK AO2 SLP169 60000 T01390111 10139 20106 58003=
201805191653 METAR KCLM 191653Z AUTO 32005KT 9SM FEW010 OVC033 13/11 A3003 RMK AO2 SLP169 T01330111=
201805191623 SPECI KCLM 191623Z AUTO 33005KT 9SM SCT009 SCT028 OVC033 13/11 A3003 RMK AO2 T01280106=
201805191619 SPECI KCLM 191619Z AUTO 33005KT 9SM BKN009 BKN028 OVC033 13/11 A3003 RMK AO2 T01280111=
201805191608 SPECI KCLM 191608Z AUTO 30006KT 9SM SCT009 BKN027 OVC034 13/11 A3004 RMK AO2 T01280111=
201805191553 METAR KCLM 191553Z AUTO 31005KT 9SM BKN009 BKN027 OVC035 12/11 A3004 RMK AO2 SLP173 T01220106=
201805191543 SPECI KCLM 191543Z AUTO 30004KT 10SM FEW009 BKN028 OVC035 12/11 A3003 RMK AO2 T01220106=
201805191516 SPECI KCLM 191516Z AUTO 28007KT 10SM FEW009 FEW027 OVC033 12/11 A3003 RMK AO2 T01220106=
201805191453 METAR KCLM 191453Z AUTO 30004KT 10SM OVC029 12/10 A3004 RMK AO2 SLP172 60000 T01170100 53005=
201805191425 SPECI KCLM 191425Z AUTO 29005KT 10SM OVC028 11/10 A3003 RMK AO2 T01110100=
201805191409 SPECI KCLM 191409Z AUTO 30003KT 10SM OVC030 11/10 A3003 RMK AO2 T01110100=
201805191353 METAR KCLM 191353Z AUTO 30004KT 9SM BKN029 BKN065 OVC080 11/10 A3003 RMK AO2 SLP168 T01110100=
201805191253 METAR KCLM 191253Z AUTO 28004KT 9SM OVC065 11/10 A3002 RMK AO2 RAE05B25E37 SLP168 P0000 T01060100=
201805191153 METAR KCLM 191153Z AUTO 26003KT 8SM -RA SCT075 BKN090 BKN110 10/09 A3002 RMK AO2 RAB47 SLP168 P0000 60000 T01000094 10106 20100 56006=
201805191053 METAR KCLM 191053Z AUTO 25003KT 10SM SCT100 11/09 A3002 RMK AO2 SLP168 T01060094=
201805190953 METAR KCLM 190953Z AUTO 23004KT 9SM BKN100 10/09 A3003 RMK AO2 SLP171 T01000094=
201805190903 SPECI KCLM 190903Z AUTO 27004KT 9SM SCT010 OVC100 10/09 A3004 RMK AO2 T01000094=
201805190853 METAR KCLM 190853Z AUTO 27004KT 9SM BKN010 OVC100 10/09 A3004 RMK AO2 SLP174 T01000094 58003=
201805190814 SPECI KCLM 190814Z AUTO 27006KT 9SM BKN011 OVC100 11/09 A3005 RMK AO2 T01060094=
201805190753 METAR KCLM 190753Z AUTO 29006KT 9SM OVC100 11/09 A3005 RMK AO2 SLP177 T01060094 401440100=
201805190653 METAR KCLM 190653Z AUTO 29006KT 10SM FEW010 OVC100 11/09 A3005 RMK AO2 SLP178 T01060094=
201805190553 METAR KCLM 190553Z AUTO 30004KT 10SM OVC100 11/09 A3005 RMK AO2 SLP177 T01060094 10139 20100 50003=
201805190453 METAR KCLM 190453Z AUTO 29006KT 10SM FEW100 11/09 A3006 RMK AO2 SLP181 T01060094=
201805190353 METAR KCLM 190353Z AUTO 30007KT 10SM FEW041 OVC100 12/10 A3005 RMK AO2 SLP177 T01170100=
201805190253 METAR KCLM 190253Z AUTO 30007KT 10SM OVC042 12/11 A3004 RMK AO2 SLP174 T01220106 55003=
201805190153 METAR KCLM 190153Z AUTO 31006KT 10SM OVC043 12/11 A3004 RMK AO2 SLP174 T01220106=
201805190053 METAR KCLM 190053Z AUTO 31006KT 10SM BKN045 OVC090 13/11 A3005 RMK AO2 SLP175 T01330106=
201805182353 METAR KCLM 182353Z AUTO 30006KT 10SM OVC045 13/11 A3005 RMK AO2 SLP177 T01330106 10144 20117 58004=
201805182253 METAR KCLM 182253Z AUTO VRB04KT 10SM OVC044 14/11 A3006 RMK AO2 SLP179 T01390106=
201805182153 METAR KCLM 182153Z AUTO 34007KT 10SM OVC044 13/11 A3006 RMK AO2 SLP181 T01330106=
201805182053 METAR KCLM 182053Z AUTO 32006KT 10SM OVC045 14/11 A3006 RMK AO2 SLP180 T01390106 53001=
201805181953 METAR KCLM 181953Z AUTO 34007KT 300V010 10SM OVC045 13/11 A3006 RMK AO2 SLP180 T01330106=
201805181907 SPECI KCLM 181907Z AUTO 31004KT 10SM SCT011 BKN046 14/11 A3007 RMK AO2 T01390111=
201805181853 METAR KCLM 181853Z AUTO 34006KT 10SM BKN011 BKN046 13/11 A3006 RMK AO2 SLP181 T01330106=
201805181753 METAR KCLM 181753Z AUTO 33006KT 9SM OVC010 12/10 A3006 RMK AO2 SLP180 T01170100 10122 20106 51004=
201805181653 METAR KCLM 181653Z AUTO 32005KT 9SM OVC009 12/10 A3006 RMK AO2 SLP180 T01170100 $=
201805181553 METAR KCLM 181553Z AUTO 33005KT 9SM OVC009 11/10 A3006 RMK AO2 SLP179 T01110100 $=
201805181453 METAR KCLM 181453Z AUTO 31006KT 10SM OVC008 11/09 A3005 RMK AO2 CIG 008V011 SLP177 T01110094 51004 $=
201805181353 METAR KCLM 181353Z AUTO 30006KT 10SM OVC009 11/09 A3005 RMK AO2 SLP176 T01060094 $=
201805181253 METAR KCLM 181253Z AUTO 29003KT 10SM OVC009 11/09 A3005 RMK AO2 SLP176 T01060094 $=
201805181224 SPECI KCLM 181224Z AUTO 28003KT 10SM OVC009 11/09 A3005 RMK AO2 T01060094 $=
201805181153 METAR KCLM 181153Z AUTO 30004KT 10SM OVC010 11/09 A3004 RMK AO2 SLP172 T01060094 10111 20106 56007 $=
201805181053 METAR KCLM 181053Z AUTO 30003KT 10SM OVC010 11/09 A3005 RMK AO2 SLP175 T01060094 $=
201805180953 METAR KCLM 180953Z AUTO 30007KT 10SM OVC011 11/09 A3005 RMK AO2 SLP175 T01110094 $=
201805180853 METAR KCLM 180853Z AUTO 29005KT 10SM OVC011 11/09 A3006 RMK AO2 SLP179 T01110094 51004 $=
201805180753 METAR KCLM 180753Z AUTO 30006KT 10SM OVC011 11/10 A3006 RMK AO2 SLP179 T01110100 401560106 $=
201805180653 METAR KCLM 180653Z AUTO 28006KT 10SM OVC012 11/09 A3006 RMK AO2 SLP180 T01110094 $=
201805180553 METAR KCLM 180553Z AUTO 29008KT 10SM BKN013 11/09 A3005 RMK AO2 SLP175 T01110094 10150 20106 56002=
201805180547 SPECI KCLM 180547Z AUTO 29010KT 10SM BKN013 11/09 A3005 RMK AO2=
201805180453 METAR KCLM 180453Z AUTO 28009KT 10SM FEW014 BKN050 11/09 A3005 RMK AO2 SLP176 T01110094=
201805180353 METAR KCLM 180353Z AUTO 29009KT 10SM OVC055 12/10 A3004 RMK AO2 SLP173 T01170100=
201805180253 METAR KCLM 180253Z AUTO 29009KT 10SM BKN060 13/10 A3005 RMK AO2 SLP177 T01280100 55001=
201805180153 METAR KCLM 180153Z AUTO 30010KT 10SM CLR 13/10 A3005 RMK AO2 SLP176 T01330100=
201805180053 METAR KCLM 180053Z AUTO 32009KT 10SM CLR 14/11 A3005 RMK AO2 SLP177 T01390106=
201805172353 METAR KCLM 172353Z AUTO 30011G17KT 10SM CLR 14/11 A3006 RMK AO2 SLP178 T01440106 10156 20128 58009=
201805172253 METAR KCLM 172253Z AUTO 31008G16KT 10SM CLR 15/11 A3007 RMK AO2 SLP181 T01500111=
201805172153 METAR KCLM 172153Z AUTO 30008KT 280V340 10SM FEW095 15/11 A3008 RMK AO2 SLP185 T01500106=
201805172053 METAR KCLM 172053Z AUTO 30006KT 10SM CLR 16/11 A3008 RMK AO2 SLP187 T01560111 56003=
201805171953 METAR KCLM 171953Z AUTO VRB05KT 10SM BKN031 14/11 A3009 RMK AO2 SLP189 T01440106=
201805171905 SPECI KCLM 171905Z AUTO 33008KT 10SM SCT016 SCT030 14/11 A3008 RMK AO2 T01390106=
201805171853 METAR KCLM 171853Z AUTO 36007KT 10SM BKN016 13/09 A3009 RMK AO2 SLP189 T01330094=
201805171753 METAR KCLM 171753Z AUTO VRB06KT 10SM OVC016 13/09 A3009 RMK AO2 SLP191 T01280094 10133 20106 58002=
201805171726 SPECI KCLM 171726Z AUTO 01004KT 10SM OVC015 13/09 A3010 RMK AO2 T01280094=
201805171653 METAR KCLM 171653Z AUTO 00000KT 10SM OVC013 13/10 A3009 RMK AO2 SLP192 T01330100=
201805171553 METAR KCLM 171553Z AUTO 30005KT 10SM OVC012 12/09 A3010 RMK AO2 SLP194 T01170094=
201805171453 METAR KCLM 171453Z AUTO VRB03KT 10SM OVC013 12/09 A3010 RMK AO2 SLP193 T01170089 51005=
201805171353 METAR KCLM 171353Z AUTO 29003KT 10SM OVC013 11/09 A3010 RMK AO2 SLP193 T01110094=
201805171253 METAR KCLM 171253Z AUTO 29003KT 10SM OVC013 11/09 A3009 RMK AO2 SLP192 T01060094=
201805171153 METAR KCLM 171153Z AUTO 27004KT 10SM OVC013 11/09 A3008 RMK AO2 SLP188 T01060094 10111 20106 50003=
201805171053 METAR KCLM 171053Z AUTO 29003KT 10SM OVC012 11/09 A3009 RMK AO2 SLP188 T01060094=
201805170953 METAR KCLM 170953Z AUTO 31003KT 10SM OVC013 11/09 A3008 RMK AO2 SLP185 T01110094=
201805170853 METAR KCLM 170853Z AUTO 29007KT 10SM OVC013 11/09 A3008 RMK AO2 SLP185 T01110094 53002=
201805170753 METAR KCLM 170753Z AUTO 29004KT 10SM OVC013 11/09 A3007 RMK AO2 SLP185 T01110094 401560106=
201805170653 METAR KCLM 170653Z AUTO 29008KT 10SM OVC012 11/09 A3007 RMK AO2 SLP183 T01110094=
201805170553 METAR KCLM 170553Z AUTO 29010KT 10SM OVC013 11/09 A3007 RMK AO2 SLP184 T01110094 10139 20111 53007=
201805170453 METAR KCLM 170453Z AUTO 28009KT 10SM OVC013 11/09 A3006 RMK AO2 SLP180 T01110094=
201805170353 METAR KCLM 170353Z AUTO 30008KT 10SM OVC010 12/10 A3005 RMK AO2 SLP178 T01170100=
201805170253 METAR KCLM 170253Z AUTO 31009KT 10SM OVC011 12/10 A3005 RMK AO2 SLP177 T01170100 53004=
201805170153 METAR KCLM 170153Z AUTO 31009KT 10SM OVC013 12/10 A3004 RMK AO2 SLP175 T01220100=
201805170117 SPECI KCLM 170117Z AUTO 30010KT 10SM BKN013 13/10 A3004 RMK AO2 T01280100=
201805170053 METAR KCLM 170053Z AUTO 29011G18KT 10SM CLR 13/10 A3004 RMK AO2 SLP173 T01330100=
201805162353 METAR KCLM 162353Z AUTO 30012G18KT 10SM CLR 14/10 A3004 RMK AO2 SLP172 T01390100 10156 20122 58006=
201805162253 METAR KCLM 162253Z AUTO 32009KT 10SM CLR 14/11 A3005 RMK AO2 SLP175 T01440106=
201805162153 METAR KCLM 162153Z AUTO 32008KT 10SM FEW014 14/11 A3006 RMK AO2 SLP178 T01390106=
201805162146 SPECI KCLM 162146Z AUTO 32011G16KT 10SM SCT014 14/11 A3006 RMK AO2 T01390106=
201805162119 SPECI KCLM 162119Z AUTO 31012G16KT 10SM OVC015 14/11 A3006 RMK AO2 T01390106=
201805162053 METAR KCLM 162053Z AUTO 30010KT 10SM OVC014 13/11 A3006 RMK AO2 SLP179 T01330106 52005=
201805161953 METAR KCLM 161953Z AUTO 30010KT 10SM OVC013 13/11 A3005 RMK AO2 SLP176 T01330106=
201805161853 METAR KCLM 161853Z AUTO 31007KT 10SM OVC012 13/10 A3005 RMK AO2 SLP177 T01280100=
201805161753 METAR KCLM 161753Z AUTO 30007KT 10SM OVC010 13/11 A3004 RMK AO2 SLP174 T01280106 10128 20106 53003=
201805161706 SPECI KCLM 161706Z AUTO 31005KT 10SM OVC010 12/11 A3004 RMK AO2 T01220106=
201805161653 METAR KCLM 161653Z AUTO 31005KT 10SM OVC009 12/11 A3004 RMK AO2 SLP173 T01220106=
201805161642 SPECI KCLM 161642Z AUTO 31006KT 10SM OVC009 12/11 A3004 RMK AO2 T01170106=
201805161610 SPECI KCLM 161610Z AUTO 32003KT 9SM OVC010 12/11 A3004 RMK AO2 CIG 006V012 T01170106=
201805161553 METAR KCLM 161553Z AUTO 34004KT 10SM OVC009 12/11 A3004 RMK AO2 CIG 006V012 SLP172 T01170106=
201805161535 SPECI KCLM 161535Z AUTO 33004KT 8SM OVC010 12/11 A3003 RMK AO2 T01170106=
201805161453 METAR KCLM 161453Z AUTO 29005KT 6SM BR OVC005 11/11 A3003 RMK AO2 SLP171 T01110106 51003=
201805161439 SPECI KCLM 161439Z AUTO 28004KT 3SM BR OVC006 11/11 A3003 RMK AO2 T01110106=
201805161353 METAR KCLM 161353Z AUTO 27003KT 2SM BR OVC008 11/11 A3003 RMK AO2 SLP171 T01060106=
201805161350 SPECI KCLM 161350Z AUTO 27003KT 2SM BR OVC008 11/11 A3003 RMK AO2=
201805161253 METAR KCLM 161253Z AUTO 00000KT 4SM BR OVC009 11/10 A3003 RMK AO2 SLP168 T01060100=
201805161153 METAR KCLM 161153Z AUTO 28006KT 10SM OVC009 11/10 A3001 RMK AO2 SLP164 T01110100 10117 20111 51006=
201805161053 METAR KCLM 161053Z AUTO 30006KT 9SM OVC008 11/11 A3001 RMK AO2 SLP163 T01110106=
201805160953 METAR KCLM 160953Z AUTO 30008KT 10SM OVC008 11/11 A3000 RMK AO2 SLP160 T01110106=
201805160853 METAR KCLM 160853Z AUTO 29007KT 10SM OVC007 11/11 A3000 RMK AO2 SLP157 T01110106 53013=
201805160753 METAR KCLM 160753Z AUTO 31007KT 10SM OVC006 12/11 A2998 RMK AO2 SLP152 T01170106 401670100=
201805160653 METAR KCLM 160653Z AUTO 29012KT 10SM OVC007 12/11 A2997 RMK AO2 SLP148 T01170106=
201805160553 METAR KCLM 160553Z AUTO 30012KT 10SM OVC007 12/11 A2996 RMK AO2 SLP144 T01170111 10150 20117 53014=
201805160453 METAR KCLM 160453Z AUTO 29013KT 10SM BKN007 12/11 A2994 RMK AO2 SLP139 T01170106=
201805160446 SPECI KCLM 160446Z AUTO 30014G21KT 10SM BKN007 12/11 A2994 RMK AO2 T01170106=
201805160424 SPECI KCLM 160424Z AUTO 29013KT 10SM FEW007 SCT110 12/11 A2993 RMK AO2 T01170106=
201805160353 METAR KCLM 160353Z AUTO 29011KT 10SM FEW120 12/11 A2992 RMK AO2 SLP133 T01170111=
201805160253 METAR KCLM 160253Z AUTO 30011G19KT 10SM FEW009 FEW120 13/11 A2992 RMK AO2 SLP131 T01280111 56005=
201805160243 SPECI KCLM 160243Z AUTO 29012KT 10SM FEW009 SCT120 13/11 A2991 RMK AO2 T01330111=
201805160153 METAR KCLM 160153Z AUTO 29011G17KT 10SM CLR 14/12 A2992 RMK AO2 SLP132 T01390117=
201805160053 METAR KCLM 160053Z AUTO 29011KT 10SM CLR 14/12 A2992 RMK AO2 SLP133 T01390117=
201805152353 METAR KCLM 152353Z AUTO 30011KT 10SM FEW011 15/12 A2993 RMK AO2 SLP135 T01500122 10167 20133 58007=
201805152253 METAR KCLM 152253Z AUTO 31010KT 10SM FEW011 16/12 A2994 RMK AO2 SLP139 T01560122=
201805152153 METAR KCLM 152153Z AUTO 30010G17KT 10SM FEW012 16/12 A2995 RMK AO2 SLP141 T01560122=
201805152053 METAR KCLM 152053Z AUTO 30009KT 10SM CLR 15/12 A2995 RMK AO2 SLP142 T01500122 58003=
201805151953 METAR KCLM 151953Z AUTO 33009KT 10SM CLR 15/12 A2996 RMK AO2 SLP144 T01500122=
201805151900 SPECI KCLM 151900Z AUTO 30009KT 10SM SCT009 14/12 A2996 RMK AO2 T01390122=
201805151853 METAR KCLM 151853Z AUTO 31010KT 10SM BKN009 14/12 A2996 RMK AO2 SLP146 T01390117=
201805151753 METAR KCLM 151753Z AUTO 32007KT 10SM SCT007 14/12 A2995 RMK AO2 SLP142 T01390117 10139 20100 50002=
201805151710 SPECI KCLM 151710Z AUTO 29004KT 10SM OVC005 13/12 A2995 RMK AO2 T01280117=
201805151653 METAR KCLM 151653Z AUTO 32004KT 10SM OVC004 12/12 A2995 RMK AO2 SLP141 T01220117=
201805151553 METAR KCLM 151553Z AUTO 29005KT 8SM OVC003 11/11 A2995 RMK AO2 SLP141 T01110111=
201805151510 SPECI KCLM 151510Z AUTO 30007KT 3SM BR OVC002 11/11 A2994 RMK AO2 T01110111=
201805151453 METAR KCLM 151453Z AUTO 29007KT 1 3/4SM BR OVC002 11/11 A2994 RMK AO2 SLP139 T01060106 51010=
201805151437 SPECI KCLM 151437Z AUTO 29008KT 1SM BR OVC002 11/11 A2994 RMK AO2 T01060106=
201805151429 SPECI KCLM 151429Z AUTO 29008KT 2SM BR OVC002 11/11 A2994 RMK AO2 T01060106=
201805151408 SPECI KCLM 151408Z AUTO 30006KT 1SM BR OVC002 11/11 A2994 RMK AO2 T01060106=
201805151353 METAR KCLM 151353Z AUTO 29004KT 1/2SM FG VV002 11/11 A2994 RMK AO2 SLP137 T01060106=
201805151344 SPECI KCLM 151344Z AUTO 31006KT 1/4SM FG VV002 11/11 A2993 RMK AO2 T01060106=
201805151325 SPECI KCLM 151325Z AUTO 28005KT 1/2SM FG VV002 10/10 A2993 RMK AO2 T01000100=
201805151253 METAR KCLM 151253Z AUTO VRB06KT 1/4SM FG VV002 10/10 A2992 RMK AO2 SLP132 T01000100=
201805151153 METAR KCLM 151153Z AUTO 29007KT 1/4SM FG VV002 10/10 A2991 RMK AO2 SLP129 T01000100 10111 20100 53005=
201805151117 SPECI KCLM 151117Z AUTO 29008KT 1/4SM FG VV002 10/10 A2990 RMK AO2 T01000100=
201805151053 METAR KCLM 151053Z AUTO 29008KT 1/2SM FG VV002 10/10 A2990 RMK AO2 SLP125 T01000100=
201805151016 SPECI KCLM 151016Z AUTO 29006KT 1/2SM FG VV002 10/10 A2990 RMK AO2 T01000100=
201805150953 METAR KCLM 150953Z AUTO 29009KT 3/4SM BR OVC001 10/10 A2990 RMK AO2 SLP123 T01000100=
201805150950 SPECI KCLM 150950Z AUTO 29006KT 3/4SM BR OVC001 10/10 A2990 RMK AO2=
201805150919 SPECI KCLM 150919Z AUTO 29006KT 1SM BR OVC001 10/10 A2989 RMK AO2 T01000100=
201805150853 METAR KCLM 150853Z AUTO 30006KT 3/4SM BR VV002 10/10 A2989 RMK AO2 SLP120 T01000100 53003=
201805150833 SPECI KCLM 150833Z AUTO 29006KT 3/4SM BR OVC002 10/10 A2989 RMK AO2 T01000100=
201805150823 SPECI KCLM 150823Z AUTO 30005KT 1 3/4SM BR BKN002 10/10 A2989 RMK AO2 T01000100=
201805150816 SPECI KCLM 150816Z AUTO 30005KT 8SM BKN002 10/10 A2989 RMK AO2 T01000100=
201805150807 SPECI KCLM 150807Z AUTO 29003KT 9SM SCT002 10/10 A2988 RMK AO2 T01000100=
201805150753 METAR KCLM 150753Z AUTO 29004KT 10SM CLR 10/10 A2988 RMK AO2 SLP119 T01000100 402110094=
201805150653 METAR KCLM 150653Z AUTO 30005KT 10SM CLR 11/10 A2988 RMK AO2 SLP117 T01060100=
201805150553 METAR KCLM 150553Z AUTO 30006KT 10SM CLR 11/10 A2988 RMK AO2 SLP117 T01060100 10183 20106 56000=
201805150453 METAR KCLM 150453Z AUTO 29005KT 10SM CLR 14/11 A2988 RMK AO2 SLP118 T01390106=
201805150353 METAR KCLM 150353Z AUTO 00000KT 10SM CLR 14/11 A2987 RMK AO2 SLP116 T01390106=
201805150253 METAR KCLM 150253Z AUTO 32003KT 10SM FEW100 15/12 A2988 RMK AO2 SLP118 T01500117 56013=
201805150153 METAR KCLM 150153Z AUTO 31005KT 10SM CLR 17/12 A2989 RMK AO2 SLP121 T01670122=
201805150053 METAR KCLM 150053Z AUTO 30007KT 10SM CLR 17/12 A2990 RMK AO2 SLP125 T01670122=
201805142353 METAR KCLM 142353Z AUTO 30004KT 10SM CLR 18/13 A2992 RMK AO2 SLP131 T01830128 10211 20178 58014=
201805142253 METAR KCLM 142253Z AUTO 34006KT 10SM CLR 18/13 A2994 RMK AO2 SLP137 T01830128=
201805142153 METAR KCLM 142153Z AUTO 34006KT 10SM CLR 19/13 A2995 RMK AO2 SLP142 T01890128=
201805142053 METAR KCLM 142053Z AUTO 33006KT 10SM CLR 21/13 A2996 RMK AO2 SLP144 T02060128 58007=
201805141953 METAR KCLM 141953Z AUTO 30007KT 10SM CLR 19/13 A2997 RMK AO2 SLP148 T01940128=
201805141853 METAR KCLM 141853Z AUTO VRB05KT 10SM CLR 19/12 A2998 RMK AO2 SLP151 T01940122=
201805141753 METAR KCLM 141753Z AUTO VRB03KT 10SM CLR 19/12 A2998 RMK AO2 SLP150 T01940122 10206 20094 58001=
201805141653 METAR KCLM 141653Z AUTO 00000KT 10SM CLR 20/11 A2998 RMK AO2 SLP152 T02000106=
201805141553 METAR KCLM 141553Z AUTO 36003KT 10SM CLR 18/11 A2998 RMK AO2 SLP152 T01780106=
201805141453 METAR KCLM 141453Z AUTO 01004KT 10SM CLR 17/09 A2998 RMK AO2 SLP151 T01670094 51012=
201805141353 METAR KCLM 141353Z AUTO 00000KT 10SM CLR 13/09 A2997 RMK AO2 SLP147 T01330094=
201805141253 METAR KCLM 141253Z AUTO 00000KT 10SM CLR 10/07 A2996 RMK AO2 SLP144 T01000072=
201805141153 METAR KCLM 141153Z AUTO 23006KT 10SM CLR 13/07 A2995 RMK AO2 SLP139 T01330072 10178 20094 51007=
201805141053 METAR KCLM 141053Z AUTO 00000KT 10SM CLR 10/07 A2995 RMK AO2 SLP139 T01000067=
201805140953 METAR KCLM 140953Z AUTO 00000KT 10SM CLR 11/07 A2994 RMK AO2 SLP136 T01110072=
201805140853 METAR KCLM 140853Z AUTO 21006KT 10SM CLR 17/06 A2992 RMK AO2 SLP131 T01720061 53001=
201805140753 METAR KCLM 140753Z AUTO 22006KT 10SM CLR 17/07 A2992 RMK AO2 SLP129 T01670067 402610083=
201805140653 METAR KCLM 140653Z AUTO 24007KT 10SM CLR 17/07 A2991 RMK AO2 SLP127 T01720067=
201805140553 METAR KCLM 140553Z AUTO 27003KT 10SM CLR 16/08 A2992 RMK AO2 SLP130 T01610083 10261 20133 50004=
201805140453 METAR KCLM 140453Z AUTO 00000KT 10SM CLR 15/10 A2992 RMK AO2 SLP130 T01500100=
201805140353 METAR KCLM 140353Z AUTO 00000KT 10SM CLR 17/09 A2991 RMK AO2 SLP127 T01720094=
201805140253 METAR KCLM 140253Z AUTO 00000KT 10SM CLR 23/08 A2991 RMK AO2 SLP126 T02330083 56006=
201805140153 METAR KCLM 140153Z AUTO 11003KT 10SM CLR 26/08 A2991 RMK AO2 SLP127 T02560083=
201805140053 METAR KCLM 140053Z AUTO 12004KT 10SM CLR 26/08 A2991 RMK AO2 SLP129 T02560078=
201805132353 METAR KCLM 132353Z AUTO 09005KT 10SM CLR 25/07 A2993 RMK AO2 SLP132 T02500067 10256 20206 56013=
201805132253 METAR KCLM 132253Z AUTO 06006KT 10SM CLR 26/07 A2993 RMK AO2 SLP135 T02560067=
201805132153 METAR KCLM 132153Z AUTO VRB05KT 10SM CLR 25/08 A2995 RMK AO2 SLP142 T02500083=
201805132053 METAR KCLM 132053Z AUTO 09006KT 10SM CLR 23/09 A2996 RMK AO2 SLP146 T02330089 58013=
201805131953 METAR KCLM 131953Z AUTO 11006KT 10SM CLR 22/10 A2998 RMK AO2 SLP151 T02220100=
201805131853 METAR KCLM 131853Z AUTO 07005KT 10SM CLR 21/09 A3000 RMK AO2 SLP159 T02110094=
201805131753 METAR KCLM 131753Z AUTO 11007KT 10SM CLR 21/10 A3000 RMK AO2 SLP159 T02060100 10211 20083 58001=
201805131653 METAR KCLM 131653Z AUTO 10010KT 10SM CLR 21/10 A3001 RMK AO2 SLP161 T02060100=
201805131553 METAR KCLM 131553Z AUTO 00000KT 10SM CLR 21/11 A3000 RMK AO2 SLP159 T02110106=
201805131453 METAR KCLM 131453Z AUTO 09005KT 10SM CLR 19/09 A3001 RMK AO2 SLP161 T01940094 53007=
201805131353 METAR KCLM 131353Z AUTO 12009KT 10SM CLR 16/10 A3000 RMK AO2 SLP158 T01610100=
201805131253 METAR KCLM 131253Z AUTO 15005KT 10SM CLR 11/08 A2999 RMK AO2 SLP156 T01060078=
201805131153 METAR KCLM 131153Z AUTO 23006KT 10SM CLR 11/07 A2999 RMK AO2 SLP153 T01110072 10128 20083 50000=
201805131053 METAR KCLM 131053Z AUTO 21004KT 10SM CLR 10/07 A2998 RMK AO2 SLP153 T01000072=
201805130953 METAR KCLM 130953Z AUTO 19003KT 10SM CLR 09/07 A2999 RMK AO2 SLP156 T00890072=
201805130853 METAR KCLM 130853Z AUTO 00000KT 10SM CLR 10/07 A2999 RMK AO2 SLP154 T01000072 55000=
201805130753 METAR KCLM 130753Z AUTO 00000KT 10SM CLR 09/08 A2998 RMK AO2 SLP153 T00940078 402440050=
201805130653 METAR KCLM 130653Z AUTO 00000KT 10SM CLR 11/09 A2998 RMK AO2 SLP152 T01110094=
201805130553 METAR KCLM 130553Z AUTO 00000KT 10SM CLR 12/10 A2999 RMK AO2 SLP154 T01220100 10244 20106 56002=
201805130453 METAR KCLM 130453Z AUTO 27003KT 10SM CLR 13/10 A2999 RMK AO2 SLP154 T01280100=
201805130353 METAR KCLM 130353Z AUTO 00000KT 10SM CLR 14/10 A2999 RMK AO2 SLP154 T01390100=
201805130253 METAR KCLM 130253Z AUTO 30005KT 10SM CLR 14/11 A2999 RMK AO2 SLP157 T01440106 58015=
201805130153 METAR KCLM 130153Z AUTO 32004KT 10SM CLR 19/11 A3001 RMK AO2 SLP161 T01940106=
201805130053 METAR KCLM 130053Z AUTO 36004KT 10SM CLR 18/11 A3003 RMK AO2 SLP169 T01780106=
201805122353 METAR KCLM 122353Z AUTO 02004KT 10SM CLR 24/07 A3004 RMK AO2 SLP172 T02440072 10244 20189 56023=
201805122253 METAR KCLM 122253Z AUTO VRB04KT 10SM CLR 24/08 A3006 RMK AO2 SLP177 T02390083=
201805122153 METAR KCLM 122153Z AUTO 00000KT 10SM CLR 23/10 A3008 RMK AO2 SLP187 T02330100=
201805122053 METAR KCLM 122053Z AUTO VRB04KT 10SM CLR 22/08 A3011 RMK AO2 SLP195 T02170083 58022=
201805121953 METAR KCLM 121953Z AUTO 12004KT 10SM CLR 21/09 A3013 RMK AO2 SLP203 T02060089=
201805121853 METAR KCLM 121853Z AUTO 08007KT 10SM CLR 19/10 A3016 RMK AO2 SLP212 T01940100=
201805121753 METAR KCLM 121753Z AUTO 09006KT 10SM CLR 19/10 A3018 RMK AO2 SLP218 T01940100 10194 20056 58013=
201805121653 METAR KCLM 121653Z AUTO 07005KT 10SM CLR 18/11 A3020 RMK AO2 SLP227 T01780106=
201805121553 METAR KCLM 121553Z AUTO 00000KT 10SM CLR 16/10 A3022 RMK AO2 SLP232 T01610100=
201805121453 METAR KCLM 121453Z AUTO 11003KT 10SM CLR 16/10 A3021 RMK AO2 SLP231 T01560100 50003=
201805121353 METAR KCLM 121353Z AUTO 13006KT 10SM CLR 11/09 A3021 RMK AO2 SLP231 T01110089=
201805121253 METAR KCLM 121253Z AUTO 23003KT 9SM CLR 07/07 A3021 RMK AO2 SLP230 T00720067=
201805121153 METAR KCLM 121153Z AUTO 00000KT 10SM CLR 06/05 A3021 RMK AO2 SLP229 T00560050 10100 20050 58001=
201805121053 METAR KCLM 121053Z AUTO 00000KT 8SM CLR 06/06 A3021 RMK AO2 SLP230 T00610061=
201805121031 SPECI KCLM 121031Z AUTO 00000KT 9SM SCT001 07/07 A3021 RMK AO2 T00670067=
201805121024 SPECI KCLM 121024Z AUTO 15003KT 3SM BR BKN001 07/07 A3021 RMK AO2 T00720072=
201805121020 SPECI KCLM 121020Z AUTO 00000KT 1SM BR VV001 07/07 A3021 RMK AO2 T00670067=
201805120953 METAR KCLM 120953Z AUTO 00000KT 1/4SM FG VV001 08/08 A3021 RMK AO2 SLP232 T00830078=
201805120943 SPECI KCLM 120943Z AUTO 00000KT 1/4SM FG VV002 08/08 A3022 RMK AO2 T00830083=
201805120926 SPECI KCLM 120926Z AUTO 00000KT 3/4SM BR BKN002 08/08 A3021 RMK AO2 T00830083=
201805120921 SPECI KCLM 120921Z AUTO 00000KT 1 1/2SM BR BKN001 08/08 A3021 RMK AO2 VIS 1/2V5 T00780078=
201805120919 SPECI KCLM 120919Z AUTO 00000KT 4SM BR BKN001 08/08 A3021 RMK AO2 T00780078=
201805120911 SPECI KCLM 120911Z AUTO 00000KT 10SM SCT001 07/07 A3021 RMK AO2 T00720067=
201805120853 METAR KCLM 120853Z AUTO 00000KT 8SM CLR 08/08 A3021 RMK AO2 SLP230 T00780078 58003=
201805120753 METAR KCLM 120753Z AUTO 31004KT 8SM CLR 09/08 A3021 RMK AO2 SLP231 T00890083 401610072=
201805120653 METAR KCLM 120653Z AUTO 00000KT 10SM CLR 08/08 A3022 RMK AO2 SLP233 T00830078=
201805120553 METAR KCLM 120553Z AUTO 28006KT 10SM CLR 10/09 A3022 RMK AO2 SLP233 T01000089 10161 20094 53003=
201805120453 METAR KCLM 120453Z AUTO 29003KT 10SM CLR 10/08 A3021 RMK AO2 SLP231 T01000083=
201805120353 METAR KCLM 120353Z AUTO 29004KT 10SM CLR 11/08 A3020 RMK AO2 SLP228 T01110083=
201805120253 METAR KCLM 120253Z AUTO 32004KT 10SM CLR 13/09 A3021 RMK AO2 SLP229 T01330089 55007=
201805120153 METAR KCLM 120153Z AUTO 32005KT 10SM CLR 14/09 A3020 RMK AO2 SLP229 T01440089=
201805120053 METAR KCLM 120053Z AUTO 33005KT 10SM CLR 16/09 A3022 RMK AO2 SLP233 T01560094=
201805112353 METAR KCLM 112353Z AUTO 28005KT 10SM CLR 16/11 A3023 RMK AO2 SLP236 T01610106 10161 20122 57015=
201805112253 METAR KCLM 112253Z AUTO VRB06KT 10SM CLR 14/10 A3024 RMK AO2 SLP242 T01390100=
201805112153 METAR KCLM 112153Z AUTO 36006KT 10SM CLR 14/09 A3025 RMK AO2 SLP244 T01440094=
201805112053 METAR KCLM 112053Z AUTO VRB05KT 10SM CLR 15/09 A3027 RMK AO2 SLP251 T01500094 58008=
201805111953 METAR KCLM 111953Z AUTO 05005KT 10SM CLR 14/09 A3028 RMK AO2 SLP255 T01440094=
201805111853 METAR KCLM 111853Z AUTO VRB05KT 10SM CLR 13/09 A3028 RMK AO2 SLP256 T01330089=
201805111753 METAR KCLM 111753Z AUTO 36007KT 10SM CLR 12/09 A3029 RMK AO2 SLP259 T01220089 10128 20078 $=
201805111653 METAR KCLM 111653Z AUTO VRB06KT 12/08 A3029 RMK AO2 SLP258 T01170083 $=
201805111553 METAR KCLM 111553Z AUTO 31007KT 290V350 10SM CLR 12/08 A3029 RMK AO2 SLP257 T01220083=
201805111453 METAR KCLM 111453Z AUTO 26007KT 10SM CLR 11/07 A3027 RMK AO2 SLP252 T01060067 51013=
201805111353 METAR KCLM 111353Z AUTO 25007KT 10SM CLR 09/06 A3027 RMK AO2 SLP251 T00890056=
201805111253 METAR KCLM 111253Z AUTO 26009KT 10SM CLR 08/05 A3025 RMK AO2 SLP243 T00830050=
201805111153 METAR KCLM 111153Z AUTO 26008KT 10SM CLR 08/05 A3023 RMK AO2 SLP239 70011 T00780050 10083 20067 55000=
201805111053 METAR KCLM 111053Z AUTO 26009KT 10SM CLR 08/04 A3023 RMK AO2 SLP237 T00780044=
201805110953 METAR KCLM 110953Z AUTO 26010KT 10SM OVC055 08/05 A3023 RMK AO2 SLP238 T00830050=
201805110853 METAR KCLM 110853Z AUTO 26009KT 10SM FEW050 08/05 A3023 RMK AO2 SLP239 T00780050 51009=
201805110753 METAR KCLM 110753Z AUTO 26008KT 10SM CLR 08/05 A3023 RMK AO2 SLP236 T00780050 401280067=
201805110653 METAR KCLM 110653Z AUTO 27007KT 10SM CLR 07/06 A3022 RMK AO2 SLP234 T00720056=
201805110553 METAR KCLM 110553Z AUTO 26008KT 10SM CLR 08/06 A3021 RMK AO2 SLP230 T00780061 10122 20072 51015=
201805110453 METAR KCLM 110453Z AUTO 27008KT 10SM CLR 08/07 A3020 RMK AO2 SLP227 T00830067=
201805110353 METAR KCLM 110353Z AUTO 30009KT 9SM CLR 09/08 A3018 RMK AO2 SLP222 T00940078=
201805110253 METAR KCLM 110253Z AUTO 31009KT 10SM CLR 11/08 A3016 RMK AO2 SLP215 T01110078 55001=
201805110153 METAR KCLM 110153Z AUTO 29011G19KT 10SM CLR 12/08 A3016 RMK AO2 SLP214 T01170083=
201805110053 METAR KCLM 110053Z AUTO 31013G20KT 10SM SCT019 BKN035 11/08 A3016 RMK AO2 SLP216 T01110083=
201805102353 METAR KCLM 102353Z AUTO 31014G20KT 10SM BKN018 BKN026 11/08 A3017 RMK AO2 SLP216 60001 T01110078 10128 20106 51009=
201805102253 METAR KCLM 102253Z AUTO 30015G26KT 10SM OVC018 11/08 A3016 RMK AO2 PK WND 31026/2221 SLP215 T01110083=
201805102153 METAR KCLM 102153Z AUTO 31015G25KT 10SM BKN016 BKN021 OVC038 11/08 A3015 RMK AO2 SLP211 T01110083=
201805102053 METAR KCLM 102053Z AUTO 31014G20KT 10SM BKN016 OVC022 11/09 A3014 RMK AO2 SLP207 60001 T01110089 53004=
201805102037 SPECI KCLM 102037Z AUTO 30012KT 10SM OVC015 12/09 A3014 RMK AO2 T01170089=
201805102016 SPECI KCLM 102016Z AUTO 30014G21KT 9SM BKN012 BKN018 OVC033 12/10 A3014 RMK AO2 T01220100=
201805102003 SPECI KCLM 102003Z AUTO 31010KT 10SM SCT012 BKN018 OVC047 12/09 A3013 RMK AO2 T01170094=
201805101953 METAR KCLM 101953Z AUTO 32009KT 9SM FEW011 SCT019 OVC046 12/10 A3013 RMK AO2 RAB29E39 SLP203 P0000 T01220100=
201805101948 SPECI KCLM 101948Z AUTO 31008KT 7SM FEW016 SCT022 OVC046 12/10 A3013 RMK AO2 RAB29E39 P0000=
201805101905 SPECI KCLM 101905Z AUTO 30011KT 10SM BKN015 OVC047 12/09 A3013 RMK AO2 T01170094=
201805101853 METAR KCLM 101853Z AUTO 33007KT 300V010 10SM BKN013 OVC060 12/10 A3013 RMK AO2 RAB1754E05 SLP203 P0001 T01220100=
201805101841 SPECI KCLM 101841Z AUTO 31007KT 280V340 10SM BKN011 BKN048 OVC060 12/09 A3013 RMK AO2 RAB1754E05 P0001 T01170094=
201805101814 SPECI KCLM 101814Z AUTO 30008KT 10SM SCT009 BKN048 OVC055 11/09 A3013 RMK AO2 RAB1754E05 P0001 T01110094=
201805101807 SPECI KCLM 101807Z AUTO 32006KT 9SM FEW009 BKN012 OVC055 11/09 A3013 RMK AO2 RAB1754E05 P0001 T01060094=
201805101800 SPECI KCLM 101800Z AUTO 31005KT 2 1/2SM -RA BR SCT010 BKN022 OVC055 11/09 A3013 RMK AO2 RAB1754 P0001 T01060094=
201805101753 METAR KCLM 101753Z AUTO 32006KT 2SM BR SCT008 BKN012 OVC042 11/10 A3013 RMK AO2 RAE1658B23E44 SLP203 P0000 60010 T01060100 10117 20089 53010=
201805101746 SPECI KCLM 101746Z AUTO VRB03KT 2SM BR FEW008 BKN020 OVC032 11/09 A3013 RMK AO2 RAE1658B23E44 P0000 T01060094=
201805101737 SPECI KCLM 101737Z AUTO 36004KT 1 3/4SM -RA BR SCT019 BKN027 OVC036 11/09 A3013 RMK AO2 RAE1658B23 P0000 T01060089=
201805101720 SPECI KCLM 101720Z AUTO 36004KT 9SM BKN027 BKN044 OVC050 11/09 A3012 RMK AO2 RAE1658 P0000 T01110089=
201805101653 METAR KCLM 101653Z AUTO 01003KT 8SM -RA FEW037 BKN050 OVC060 11/09 A3012 RMK AO2 RAB47 SLP199 P0000 T01110094=
201805101553 METAR KCLM 101553Z AUTO 00000KT 9SM OVC046 11/09 A3011 RMK AO2 SLP195 T01060094=
201805101453 METAR KCLM 101453Z AUTO 00000KT 9SM FEW030 SCT044 OVC050 10/09 A3010 RMK AO2 RAE13 SLP193 P0000 60010 T01000089 53009=
201805101353 METAR KCLM 101353Z AUTO 00000KT 3SM -RA BR BKN030 OVC048 09/09 A3009 RMK AO2 SLP190 P0008 T00940089=
201805101350 SPECI KCLM 101350Z AUTO 00000KT 3SM -RA BR SCT030 OVC048 09/09 A3009 RMK AO2 P0008=
201805101327 SPECI KCLM 101327Z AUTO 00000KT 1 1/2SM -RA BR FEW030 OVC050 09/09 A3008 RMK AO2 P0003 T00890089=
201805101318 SPECI KCLM 101318Z AUTO 00000KT 2 1/2SM -RA BR SCT029 OVC048 09/09 A3008 RMK AO2 P0002 T00940089=
201805101253 METAR KCLM 101253Z AUTO 00000KT 4SM -RA BR OVC028 09/09 A3008 RMK AO2 RAB15 SLP186 P0002 T00940089=
201805101153 METAR KCLM 101153Z AUTO 00000KT 9SM OVC025 09/09 A3007 RMK AO2 SLP184 60002 70002 T00940089 10100 20078 55002=
201805101053 METAR KCLM 101053Z AUTO 20003KT 10SM OVC021 09/09 A3007 RMK AO2 RAE34 SLP184 P0002 T00940089=
201805101019 SPECI KCLM 101019Z AUTO 00000KT 9SM -RA SCT018 BKN027 OVC065 09/08 A3006 RMK AO2 P0002 T00940083=
201805100953 METAR KCLM 100953Z AUTO 00000KT 10SM -RA FEW036 BKN055 OVC070 09/08 A3007 RMK AO2 RAB35 SLP183 P0000 T00890078=
201805100853 METAR KCLM 100853Z AUTO 22003KT 10SM FEW030 BKN090 OVC110 09/08 A3008 RMK AO2 SLP186 T00890078 58002=
201805100753 METAR KCLM 100753Z AUTO 00000KT 10SM BKN120 09/07 A3008 RMK AO2 SLP187 T00940072 401500094=
201805100653 METAR KCLM 100653Z AUTO 26005KT 10SM SCT038 BKN046 09/07 A3008 RMK AO2 SLP187 T00940072=
201805100353 METAR KCLM 100353Z AUTO 28009KT 10SM CLR 11/08 A3007 RMK AO2 SLP184 T01060078=
201805100253 METAR KCLM 100253Z AUTO 29007KT 10SM FEW024 11/08 A3007 RMK AO2 SLP183 T01110083 56004=
201805100153 METAR KCLM 100153Z AUTO 31010KT 10SM FEW021 SCT037 SCT065 12/09 A3007 RMK AO2 SLP183 T01220089=
201805100053 METAR KCLM 100053Z AUTO 30009G16KT 10SM BKN033 OVC041 12/09 A3008 RMK AO2 SLP186 T01220089=
201805092353 METAR KCLM 092353Z AUTO 29012G17KT 8SM FEW018 FEW024 OVC039 12/09 A3008 RMK AO2 RAB2258E08 SLP187 P0000 60000 T01170094 10150 20117 51004=
201805092351 SPECI KCLM 092351Z AUTO 30012G17KT 9SM FEW016 FEW021 OVC039 12/09 A3008 RMK AO2 RAB2258E08 P0000=
201805092343 SPECI KCLM 092343Z AUTO 31010KT 10SM SCT014 BKN021 OVC045 12/09 A3008 RMK AO2 RAB2258E08 P0000 T01220094=
201805092322 SPECI KCLM 092322Z AUTO 30012G20KT 10SM BKN014 BKN047 OVC075 13/10 A3008 RMK AO2 RAB2258E08 P0000 T01280100=
201805092253 METAR KCLM 092253Z AUTO 31012KT 10SM BKN049 BKN065 13/11 A3007 RMK AO2 SLP184 T01280106=
201805092153 METAR KCLM 092153Z AUTO 30012G17KT 10SM FEW027 BKN070 13/10 A3007 RMK AO2 SLP182 T01330100=
201805092110 SPECI KCLM 092110Z AUTO 31009KT 10SM SCT023 BKN075 15/11 A3006 RMK AO2 T01500106=
201805092053 METAR KCLM 092053Z AUTO 30009KT 10SM BKN023 14/10 A3006 RMK AO2 SLP181 T01390100 53010=
201805092043 SPECI KCLM 092043Z AUTO 33009KT 10SM BKN023 BKN048 14/09 A3006 RMK AO2 T01440094=
201805091953 METAR KCLM 091953Z AUTO 30008KT 10SM CLR 14/09 A3005 RMK AO2 SLP176 T01440094=
201805091919 SPECI KCLM 091919Z AUTO VRB04KT 10SM SCT025 SCT031 13/09 A3005 RMK AO2 T01330094=
201805091853 METAR KCLM 091853Z AUTO VRB04KT 10SM OVC022 13/09 A3004 RMK AO2 SLP172 T01280094=
201805091839 SPECI KCLM 091839Z AUTO VRB04KT 10SM BKN019 13/09 A3004 RMK AO2 T01280094=
201805091753 METAR KCLM 091753Z AUTO 36005KT 10SM CLR 12/10 A3003 RMK AO2 SLP170 60000 T01220100 10128 20106 53009=
201805091653 METAR KCLM 091653Z AUTO VRB04KT 10SM BKN034 BKN042 BKN060 13/10 A3002 RMK AO2 SLP166 T01280100=
201805091605 SPECI KCLM 091605Z AUTO 26003KT 10SM SCT006 SCT032 OVC060 12/11 A3002 RMK AO2 T01170106=
201805091553 METAR KCLM 091553Z AUTO 26004KT 10SM BKN006 BKN010 OVC065 12/11 A3002 RMK AO2 RAB01E23 SLP164 P0000 T01170106=
201805091517 SPECI KCLM 091517Z AUTO 34003KT 8SM -RA BKN007 OVC017 12/11 A3001 RMK AO2 RAB01 CIG 005V011 P0000 T01170111=
201805091453 METAR KCLM 091453Z AUTO 30008KT 9SM FEW009 OVC015 11/11 A3001 RMK AO2 RAB08E21B37E50 SLP161 P0000 60000 T01110106 51020=
201805091450 SPECI KCLM 091450Z AUTO 29006KT 9SM FEW009 OVC015 11/11 A3001 RMK AO2 RAB08E21B37E50 P0000=
201805091442 SPECI KCLM 091442Z AUTO 30006KT 8SM -RA FEW009 OVC014 11/11 A3000 RMK AO2 RAB08E21B37 P0000 T01110106=
201805091422 SPECI KCLM 091422Z AUTO 34004KT 8SM OVC014 11/10 A3000 RMK AO2 RAB08E21 P0000 T01110100=
201805091353 METAR KCLM 091353Z AUTO 00000KT 10SM BKN008 BKN027 12/12 A2998 RMK AO2 CIG 005V011 SLP152 T01170117=
201805091339 SPECI KCLM 091339Z AUTO 02004KT 10SM FEW006 SCT011 BKN025 12/12 A2997 RMK AO2 T01170117=
201805091335 SPECI KCLM 091335Z AUTO VRB03KT 10SM SCT011 SCT017 BKN075 12/12 A2996 RMK AO2 T01220117=
201805091253 METAR KCLM 091253Z AUTO 00000KT 9SM OVC012 12/12 A2995 RMK AO2 SLP141 T01170117=
201805091157 SPECI KCLM 091157Z AUTO 00000KT 7SM BKN011 BKN023 BKN080 11/11 A2994 RMK AO2 T01110106=
201805091153 METAR KCLM 091153Z AUTO 00000KT 4SM BR SCT011 SCT023 BKN080 11/11 A2994 RMK AO2 SLP138 60001 70001 T01060106 10133 20100 53011=
201805091151 SPECI KCLM 091151Z AUTO 00000KT 2 1/2SM BR FEW011 SCT021 BKN080 11/10 A2994 RMK AO2=
201805091145 SPECI KCLM 091145Z AUTO 01003KT 1/2SM FG FEW025 SCT033 BKN080 10/10 A2994 RMK AO2 T01000100=
201805091137 SPECI KCLM 091137Z AUTO 00000KT 1 1/2SM BR FEW025 SCT050 BKN080 11/11 A2993 RMK AO2 T01060106=
201805091053 METAR KCLM 091053Z AUTO 00000KT 10SM FEW050 BKN075 OVC090 12/12 A2992 RMK AO2 RAB31E47 SLP130 P0000 T01170117=
201805090953 METAR KCLM 090953Z AUTO 00000KT 10SM FEW013 SCT075 BKN090 12/11 A2991 RMK AO2 SLP127 T01170111=
201805090904 SPECI KCLM 090904Z AUTO 28004KT 9SM BKN011 12/12 A2991 RMK AO2 T01170117=
201805090853 METAR KCLM 090853Z AUTO 32004KT 10SM SCT013 SCT080 12/12 A2991 RMK AO2 RAB16E31 SLP128 P0000 60001 T01170117 51005=
201805090753 METAR KCLM 090753Z AUTO 32005KT 10SM SCT080 BKN090 12/11 A2991 RMK AO2 RAE0656 SLP127 P0000 T01170111 402000056=
201805090353 METAR KCLM 090353Z AUTO 23005KT 10SM FEW060 BKN085 OVC100 15/12 A2991 RMK AO2 SLP130 T01500117=
201805090253 METAR KCLM 090253Z AUTO 24004KT 10SM BKN110 15/11 A2989 RMK AO2 SLP122 T01500111 56018=
201805090153 METAR KCLM 090153Z AUTO 26009KT 10SM CLR 15/11 A2990 RMK AO2 SLP126 T01500111=
201805090053 METAR KCLM 090053Z AUTO 29006KT 10SM CLR 16/11 A2992 RMK AO2 SLP133 T01560111=
201805082353 METAR KCLM 082353Z AUTO 31006KT 10SM CLR 17/12 A2995 RMK AO2 SLP141 T01670117 10200 20150 55007=
201805082253 METAR KCLM 082253Z AUTO 30007KT 10SM CLR 20/13 A2994 RMK AO2 SLP137 T02000128=
201805082153 METAR KCLM 082153Z AUTO 00000KT 10SM CLR 17/12 A2995 RMK AO2 SLP143 T01720117=
201805082053 METAR KCLM 082053Z AUTO 05004KT 8SM CLR 17/12 A2997 RMK AO2 SLP147 T01670117 58021=
201805081953 METAR KCLM 081953Z AUTO VRB04KT 10SM CLR 17/11 A2999 RMK AO2 SLP157 T01670111=
201805081853 METAR KCLM 081853Z AUTO VRB04KT 10SM CLR 16/11 A3001 RMK AO2 SLP164 T01610111=
201805081753 METAR KCLM 081753Z AUTO 07005KT 10SM CLR 15/11 A3003 RMK AO2 SLP170 T01500106 10150 20056 58020=
201805081653 METAR KCLM 081653Z AUTO 10006KT 10SM CLR 13/11 A3006 RMK AO2 SLP180 T01330106=
201805081553 METAR KCLM 081553Z AUTO 08006KT 10SM CLR 14/11 A3007 RMK AO2 SLP184 T01390106=
201805081453 METAR KCLM 081453Z AUTO 11003KT 10SM CLR 12/11 A3009 RMK AO2 SLP189 T01220111 56014=
201805081353 METAR KCLM 081353Z AUTO 00000KT 8SM CLR 08/08 A3010 RMK AO2 SLP192 T00780078=
201805081253 METAR KCLM 081253Z AUTO 00000KT 3SM BR SCT001 07/07 A3011 RMK AO2 SLP198 T00670067=
201805081251 SPECI KCLM 081251Z AUTO 00000KT 1SM BR VV001 07/07 A3011 RMK AO2=
201805081241 SPECI KCLM 081241Z AUTO 00000KT 1/4SM FG VV001 06/06 A3011 RMK AO2 T00610061=
201805081212 SPECI KCLM 081212Z AUTO 00000KT 1SM BR VV001 06/06 A3012 RMK AO2 VIS 1/2V5 T00610061=
201805081209 SPECI KCLM 081209Z AUTO 00000KT 2SM BR FEW001 06/06 A3012 RMK AO2 VIS 1/2V5 T00610061=
201805081153 METAR KCLM 081153Z AUTO 00000KT 10SM CLR 06/06 A3013 RMK AO2 SLP204 T00610061 10089 20056 58008=
201805081144 SPECI KCLM 081144Z AUTO 00000KT 3SM BR CLR 06/06 A3013 RMK AO2 T00560056=
201805081132 SPECI KCLM 081132Z AUTO 00000KT 1 1/2SM BR CLR 06/06 A3013 RMK AO2 T00610061=
201805081107 SPECI KCLM 081107Z AUTO 19003KT 9SM SCT001 07/07 A3014 RMK AO2 T00670067=
201805081100 SPECI KCLM 081100Z AUTO 00000KT 1SM BR VV001 07/07 A3014 RMK AO2 T00670067=
201805081053 METAR KCLM 081053Z AUTO 23004KT 1/4SM FG VV001 07/07 A3015 RMK AO2 SLP209 T00670067=
201805081032 SPECI KCLM 081032Z AUTO 24003KT 1/4SM FG VV001 07/07 A3015 RMK AO2 T00720072=
201805081016 SPECI KCLM 081016Z AUTO 23004KT 1/4SM FG VV002 07/07 A3015 RMK AO2 T00720072=
201805080953 METAR KCLM 080953Z AUTO 23003KT M1/4SM FG VV001 08/08 A3015 RMK AO2 SLP211 T00780078=
201805080903 SPECI KCLM 080903Z AUTO 00000KT 1/4SM FG VV001 08/08 A3016 RMK AO2 T00780078=
201805080853 METAR KCLM 080853Z AUTO 00000KT 1/4SM FG VV002 08/08 A3015 RMK AO2 SLP212 T00830083 56003=
201805080829 SPECI KCLM 080829Z AUTO 26004KT 1/4SM FG VV002 08/08 A3016 RMK AO2 T00830083=
201805080815 SPECI KCLM 080815Z AUTO 23003KT 1/4SM FG VV001 09/09 A3016 RMK AO2 T00890089=
201805080753 METAR KCLM 080753Z AUTO 00000KT 1/4SM FG VV002 09/09 A3016 RMK AO2 SLP214 T00890089 401500078=
201805080724 SPECI KCLM 080724Z AUTO 00000KT 1/4SM FG OVC002 08/08 A3016 RMK AO2 T00830083=
201805080719 SPECI KCLM 080719Z AUTO 30003KT 1 1/4SM BR OVC002 08/08 A3016 RMK AO2 T00830083=
201805080708 SPECI KCLM 080708Z AUTO 29003KT 4SM BR BKN002 08/08 A3016 RMK AO2 T00780078=
201805080653 METAR KCLM 080653Z AUTO 00000KT 8SM FEW002 08/08 A3016 RMK AO2 SLP213 T00830083=
201805080553 METAR KCLM 080553Z AUTO 29003KT 10SM CLR 09/08 A3016 RMK AO2 SLP215 T00890083 10150 20089 58002=
201805080453 METAR KCLM 080453Z AUTO 25004KT 10SM CLR 10/09 A3017 RMK AO2 SLP218 T01000094=
201805080353 METAR KCLM 080353Z AUTO 29003KT 10SM CLR 10/09 A3017 RMK AO2 SLP216 T01000094=
201805080253 METAR KCLM 080253Z AUTO 32004KT 10SM CLR 12/10 A3017 RMK AO2 SLP218 T01220100 56013=
201805080153 METAR KCLM 080153Z AUTO 29006KT 10SM CLR 13/10 A3018 RMK AO2 SLP222 T01330100=
201805080053 METAR KCLM 080053Z AUTO 31006KT 10SM CLR 14/11 A3019 RMK AO2 SLP225 T01440111=
201805072353 METAR KCLM 072353Z AUTO 30004KT 10SM CLR 14/11 A3021 RMK AO2 SLP231 T01390106 10144 20117 56015=
201805072253 METAR KCLM 072253Z AUTO 33005KT 10SM FEW070 14/11 A3022 RMK AO2 SLP236 T01440106=
201805072153 METAR KCLM 072153Z AUTO 01007KT 10SM CLR 13/10 A3024 RMK AO2 SLP240 T01330100=
201805072053 METAR KCLM 072053Z AUTO 35007KT 10SM FEW011 12/10 A3026 RMK AO2 SLP246 T01220100 50007=
201805071953 METAR KCLM 071953Z AUTO VRB06KT 10SM OVC010 12/10 A3026 RMK AO2 SLP247 T01220100=
201805071936 SPECI KCLM 071936Z AUTO 35006KT 10SM OVC010 12/10 A3025 RMK AO2 T01170100=
201805071853 METAR KCLM 071853Z AUTO VRB04KT 10SM OVC008 12/10 A3025 RMK AO2 SLP243 T01170100=
201805071753 METAR KCLM 071753Z AUTO VRB05KT 10SM OVC007 11/09 A3024 RMK AO2 SLP240 T01110094 10117 20100 50006=
201805071653 METAR KCLM 071653Z AUTO 33004KT 6SM BR OVC006 11/10 A3024 RMK AO2 SLP240 T01060100=
201805071553 METAR KCLM 071553Z AUTO VRB03KT 8SM OVC006 11/09 A3023 RMK AO2 SLP237 T01060094=
201805071453 METAR KCLM 071453Z AUTO 31003KT 7SM OVC005 11/10 A3022 RMK AO2 SLP234 T01060100 51010=
201805071438 SPECI KCLM 071438Z AUTO 30004KT 7SM OVC005 11/10 A3022 RMK AO2 T01060100=
201805071353 METAR KCLM 071353Z AUTO 00000KT 9SM OVC004 10/10 A3021 RMK AO2 SLP231 T01000100=
201805071253 METAR KCLM 071253Z AUTO 29003KT 10SM OVC004 10/10 A3020 RMK AO2 SLP225 T01000100=
201805071223 SPECI KCLM 071223Z AUTO 28003KT 10SM OVC004 10/10 A3019 RMK AO2 T01000100=
201805071153 METAR KCLM 071153Z AUTO 28005KT 10SM OVC005 10/10 A3019 RMK AO2 SLP222 T01000100 10106 20100 51010=
201805071053 METAR KCLM 071053Z AUTO 30005KT 10SM OVC005 10/10 A3019 RMK AO2 SLP222 T01000100=
201805070953 METAR KCLM 070953Z AUTO 30007KT 10SM OVC005 11/10 A3017 RMK AO2 SLP217 T01060100=
201805070853 METAR KCLM 070853Z AUTO 29010KT 10SM OVC005 11/10 A3016 RMK AO2 SLP211 T01060100 53011=
201805070829 SPECI KCLM 070829Z AUTO 29008KT 10SM OVC005 11/10 A3015 RMK AO2 CIG 004V008 T01060100=
201805070753 METAR KCLM 070753Z AUTO 30006KT 9SM OVC004 11/10 A3014 RMK AO2 SLP207 T01060100 402220078=
201805070707 SPECI KCLM 070707Z AUTO 29007KT 9SM OVC004 11/11 A3014 RMK AO2 T01060106=
201805070653 METAR KCLM 070653Z AUTO 31007KT 9SM BKN005 11/10 A3013 RMK AO2 SLP201 T01060100=
201805070648 SPECI KCLM 070648Z AUTO 30006KT 9SM BKN005 11/11 A3012 RMK AO2=
201805070626 SPECI KCLM 070626Z AUTO 29009KT 9SM SCT005 11/10 A3011 RMK AO2 T01060100=
201805070553 METAR KCLM 070553Z AUTO 29011KT 10SM OVC006 11/10 A3011 RMK AO2 SLP195 T01110100 10183 20111 51019=
201805070453 METAR KCLM 070453Z AUTO 28009KT 10SM BKN006 11/10 A3010 RMK AO2 SLP192 T01110100=
201805070424 SPECI KCLM 070424Z AUTO 29013G20KT 10SM BKN007 11/10 A3009 RMK AO2 T01110100=
201805070406 SPECI KCLM 070406Z AUTO 29012G17KT 10SM FEW007 11/10 A3008 RMK AO2 T01110100=
201805070353 METAR KCLM 070353Z AUTO 29014KT 9SM CLR 11/10 A3007 RMK AO2 SLP184 T01110100=
201805070253 METAR KCLM 070253Z AUTO 29015KT 10SM CLR 13/10 A3005 RMK AO2 SLP176 T01330100 53007=
201805070153 METAR KCLM 070153Z AUTO 30007KT 10SM CLR 16/10 A3004 RMK AO2 SLP171 T01610100=
201805070053 METAR KCLM 070053Z AUTO 33004KT 10SM BKN100 17/11 A3003 RMK AO2 LTG DSNT S SLP170 T01670106=
201805062353 METAR KCLM 062353Z AUTO 30005KT 10SM BKN080 17/11 A3003 RMK AO2 SLP169 T01670106 10222 20161 53006=
201805062253 METAR KCLM 062253Z AUTO 35004KT 10SM SCT075 21/10 A3001 RMK AO2 LTG DSNT SE SLP163 T02060100=
201805062153 METAR KCLM 062153Z AUTO VRB04KT 10SM CLR 22/11 A3001 RMK AO2 SLP161 T02170106=
201805062053 METAR KCLM 062053Z AUTO VRB03KT 10SM CLR 21/12 A3001 RMK AO2 SLP163 T02110117 58001=
201805061953 METAR KCLM 061953Z AUTO 10004KT 10SM CLR 20/11 A3002 RMK AO2 SLP165 T02000106=
201805061853 METAR KCLM 061853Z AUTO VRB04KT 10SM CLR 19/10 A3002 RMK AO2 SLP165 T01890100=
201805061753 METAR KCLM 061753Z AUTO 07007KT 10SM CLR 18/09 A3001 RMK AO2 SLP164 T01780094 10183 20078 53006=
201805061653 METAR KCLM 061653Z AUTO 08007KT 10SM CLR 18/09 A3001 RMK AO2 SLP161 T01830094=
201805061553 METAR KCLM 061553Z AUTO VRB04KT 10SM CLR 18/09 A3000 RMK AO2 SLP158 T01780094=
201805061453 METAR KCLM 061453Z AUTO 22003KT 10SM FEW120 15/10 A3000 RMK AO2 SLP158 T01500100 53001=
201805061353 METAR KCLM 061353Z AUTO 21004KT 10SM CLR 11/09 A2999 RMK AO2 SLP156 T01060089=
201805061253 METAR KCLM 061253Z AUTO 15003KT 10SM CLR 08/07 A2999 RMK AO2 SLP156 T00830072=
201805061153 METAR KCLM 061153Z AUTO 00000KT 10SM CLR 09/08 A2999 RMK AO2 SLP157 T00940083 10117 20089 55004=
201805061053 METAR KCLM 061053Z AUTO 20003KT 10SM CLR 10/08 A2999 RMK AO2 SLP154 T01000083=
201805060953 METAR KCLM 060953Z AUTO 21003KT 10SM CLR 11/09 A2999 RMK AO2 SLP157 T01060089=
201805060853 METAR KCLM 060853Z AUTO 21003KT 10SM CLR 11/09 A3001 RMK AO2 SLP161 T01110094 56008=
201805060753 METAR KCLM 060753Z AUTO 00000KT 10SM SCT080 BKN100 12/09 A3001 RMK AO2 SLP163 T01170094 401830044=
201805060653 METAR KCLM 060653Z AUTO 00000KT 10SM BKN110 11/09 A3002 RMK AO2 SLP166 T01060089=
201805060553 METAR KCLM 060553Z AUTO 22003KT 10SM CLR 12/09 A3003 RMK AO2 SLP169 T01170089 10183 20106 50005=
201805060453 METAR KCLM 060453Z AUTO 30003KT 10SM CLR 12/08 A3004 RMK AO2 SLP172 T01170083=
201805060353 METAR KCLM 060353Z AUTO 00000KT 10SM CLR 13/08 A3002 RMK AO2 SLP167 T01330083=
201805060253 METAR KCLM 060253Z AUTO 08003KT 10SM CLR 17/08 A3002 RMK AO2 SLP165 T01670078 56017=
201805060153 METAR KCLM 060153Z AUTO VRB04KT 10SM CLR 18/08 A3003 RMK AO2 SLP168 T01780078=
201805060053 METAR KCLM 060053Z AUTO 09007KT 10SM CLR 18/07 A3005 RMK AO2 SLP176 T01780072=
201805052353 METAR KCLM 052353Z AUTO 08007KT 10SM CLR 17/08 A3007 RMK AO2 SLP182 T01720078 10178 20144 56025=
201805052253 METAR KCLM 052253Z AUTO 07005KT 10SM CLR 17/07 A3009 RMK AO2 SLP189 T01720072=
201805052153 METAR KCLM 052153Z AUTO 10008KT 10SM CLR 17/08 A3011 RMK AO2 SLP198 T01670083=
201805052053 METAR KCLM 052053Z AUTO 09007KT 040V120 10SM CLR 16/08 A3014 RMK AO2 SLP207 T01610083 56023=
201805051953 METAR KCLM 051953Z AUTO 09009KT 10SM CLR 16/08 A3016 RMK AO2 SLP214 T01560083=
201805051853 METAR KCLM 051853Z AUTO 09008KT 10SM CLR 15/08 A3018 RMK AO2 SLP222 T01500078=
201805051753 METAR KCLM 051753Z AUTO 10007KT 10SM CLR 14/08 A3021 RMK AO2 SLP230 T01440078 10144 20044 58006=
201805051653 METAR KCLM 051653Z AUTO VRB05KT 10SM FEW029 14/08 A3022 RMK AO2 SLP235 T01390083=
201805051553 METAR KCLM 051553Z AUTO 10006KT 10SM CLR 13/08 A3022 RMK AO2 SLP235 T01330078=
201805051453 METAR KCLM 051453Z AUTO 11004KT 10SM SCT033 12/09 A3023 RMK AO2 SLP237 T01220089 55004=
201805051353 METAR KCLM 051353Z AUTO 00000KT 10SM OVC033 08/08 A3022 RMK AO2 SLP235 T00830083=
201805051253 METAR KCLM 051253Z AUTO 21003KT 8SM SCT031 05/05 A3023 RMK AO2 SLP236 T00500050=
201805051153 METAR KCLM 051153Z AUTO 00000KT 10SM CLR 06/06 A3024 RMK AO2 SLP241 T00560056 10089 20050 56005=
201805051053 METAR KCLM 051053Z AUTO 00000KT 10SM FEW070 06/06 A3025 RMK AO2 SLP243 T00610056=
201805050953 METAR KCLM 050953Z AUTO 23005KT 10SM CLR 07/07 A3025 RMK AO2 SLP244 T00670067=
201805050853 METAR KCLM 050853Z AUTO 22003KT 10SM CLR 07/07 A3026 RMK AO2 SLP246 T00670067 58000=
201805050753 METAR KCLM 050753Z AUTO 25004KT 10SM CLR 08/07 A3026 RMK AO2 SLP246 T00780072 401330067=
201805050653 METAR KCLM 050653Z AUTO 27006KT 10SM CLR 08/07 A3026 RMK AO2 SLP248 T00830072=
201805050553 METAR KCLM 050553Z AUTO 00000KT 10SM CLR 08/08 A3026 RMK AO2 SLP247 T00830078 10122 20083 50000=
201805050453 METAR KCLM 050453Z AUTO 32004KT 10SM BKN080 09/08 A3027 RMK AO2 SLP251 T00940083=
201805050353 METAR KCLM 050353Z AUTO 29003KT 10SM BKN080 11/09 A3027 RMK AO2 SLP250 T01060089=
201805050253 METAR KCLM 050253Z AUTO 31004KT 10SM SCT041 OVC080 12/09 A3026 RMK AO2 SLP247 T01170089 56010=
201805050206 SPECI KCLM 050206Z AUTO 29006KT 10SM SCT027 OVC080 12/09 A3026 RMK AO2 T01170089=
201805050153 METAR KCLM 050153Z AUTO 28005KT 10SM BKN027 OVC085 12/09 A3026 RMK AO2 SLP248 T01170089=
201805050053 METAR KCLM 050053Z AUTO 31004KT 10SM OVC026 12/08 A3028 RMK AO2 SLP254 T01170083=
201805050007 SPECI KCLM 050007Z AUTO 31005KT 10SM BKN026 OVC033 12/08 A3029 RMK AO2 T01170083=
201805042353 METAR KCLM 042353Z AUTO 31006KT 10SM OVC033 12/08 A3029 RMK AO2 SLP257 T01170083 10133 20106 58002=
201805042253 METAR KCLM 042253Z AUTO 34003KT 10SM OVC033 12/08 A3030 RMK AO2 SLP261 T01220083=
201805042153 METAR KCLM 042153Z AUTO 35005KT 10SM SCT031 12/08 A3030 RMK AO2 SLP260 T01220078=
201805042146 SPECI KCLM 042146Z AUTO 36004KT 10SM BKN031 13/08 A3030 RMK AO2 T01330078=
201805042053 METAR KCLM 042053Z AUTO VRB04KT 10SM OVC026 12/08 A3030 RMK AO2 SLP260 T01170078 58001=
201805041953 METAR KCLM 041953Z AUTO 35005KT 10SM OVC026 11/08 A3030 RMK AO2 SLP262 T01110078=
201805041946 SPECI KCLM 041946Z AUTO 36004KT 10SM OVC028 11/08 A3030 RMK AO2 T01110078=
201805041853 METAR KCLM 041853Z AUTO 34005KT 10SM FEW019 OVC075 12/08 A3030 RMK AO2 SLP263 T01220083=
201805041844 SPECI KCLM 041844Z AUTO 34006KT 10SM SCT017 BKN075 OVC100 12/08 A3031 RMK AO2 T01170078=
201805041753 METAR KCLM 041753Z AUTO VRB05KT 10SM BKN018 OVC080 11/08 A3030 RMK AO2 SLP260 T01110078 10111 20083 51007=
201805041653 METAR KCLM 041653Z AUTO 35003KT 10SM FEW014 OVC026 11/08 A3029 RMK AO2 SLP259 T01060078=
201805041628 SPECI KCLM 041628Z AUTO 36005KT 10SM SCT014 OVC026 10/08 A3029 RMK AO2 T01000078=
201805041553 METAR KCLM 041553Z AUTO VRB03KT 10SM BKN012 OVC090 10/08 A3029 RMK AO2 SLP257 T01000083=
201805041538 SPECI KCLM 041538Z AUTO 31004KT 10SM SCT008 BKN012 OVC024 10/08 A3028 RMK AO2 T01000083=
201805041523 SPECI KCLM 041523Z AUTO 29004KT 10SM BKN008 OVC024 09/08 A3028 RMK AO2 T00940078=
201805041515 SPECI KCLM 041515Z AUTO 29004KT 9SM SCT006 BKN015 OVC026 09/09 A3028 RMK AO2 T00940089=
201805041502 SPECI KCLM 041502Z AUTO 00000KT 3SM BR SCT008 BKN013 OVC020 09/09 A3028 RMK AO2 T00890089=
201805041453 METAR KCLM 041453Z AUTO 32003KT 1 3/4SM BR FEW005 BKN011 OVC016 09/08 A3028 RMK AO2 SLP254 T00890083 53012=
201805041432 SPECI KCLM 041432Z AUTO 00000KT 1SM BR FEW005 OVC011 09/08 A3027 RMK AO2 T00890083=
201805041420 SPECI KCLM 041420Z AUTO 00000KT 1 1/4SM BR OVC011 08/08 A3027 RMK AO2 T00830083=
201805041353 METAR KCLM 041353Z AUTO 00000KT 2 1/2SM BR OVC010 08/08 A3027 RMK AO2 CIG 008V013 SLP250 T00830083=
201805041253 METAR KCLM 041253Z AUTO 00000KT 10SM OVC013 08/08 A3024 RMK AO2 SLP243 T00830078=
201805041153 METAR KCLM 041153Z AUTO 32003KT 4SM BR OVC010 08/08 A3024 RMK AO2 SLP242 T00830078 10094 20083 51004=
201805041053 METAR KCLM 041053Z AUTO 30006KT 6SM BR OVC010 08/08 A3024 RMK AO2 SLP241 T00830078=
201805041004 SPECI KCLM 041004Z AUTO 29007KT 6SM BR OVC013 09/07 A3024 RMK AO2 T00890072=
201805040953 METAR KCLM 040953Z AUTO 30007KT 6SM BR OVC015 09/08 A3023 RMK AO2 SLP239 T00890078=
201805040932 SPECI KCLM 040932Z AUTO 30008KT 6SM BR OVC015 09/07 A3023 RMK AO2 T00890072=
201805040853 METAR KCLM 040853Z AUTO 30008KT 9SM OVC014 09/07 A3023 RMK AO2 SLP237 T00890072 51011=
201805040845 SPECI KCLM 040845Z AUTO 30010KT 9SM OVC014 09/08 A3023 RMK AO2 T00890078=
201805040834 SPECI KCLM 040834Z AUTO 29010KT 8SM OVC015 09/08 A3023 RMK AO2 T00890078=
201805040807 SPECI KCLM 040807Z AUTO 30006KT 6SM BR OVC011 09/08 A3022 RMK AO2 T00890078=
201805040753 METAR KCLM 040753Z AUTO 30006KT 5SM BR OVC009 09/08 A3022 RMK AO2 SLP235 T00890078 401610067=
201805040653 METAR KCLM 040653Z AUTO 30010KT 10SM OVC009 09/08 A3021 RMK AO2 SLP231 T00940078=
201805040553 METAR KCLM 040553Z AUTO 30013G20KT 10SM OVC009 09/08 A3020 RMK AO2 CIG 007V012 SLP226 T00940083 10156 20094 51010=
201805040550 SPECI KCLM 040550Z AUTO 31013G20KT 10SM BKN009 OVC012 09/08 A3019 RMK AO2 CIG 007V010=
201805040453 METAR KCLM 040453Z AUTO 31008G16KT 10SM OVC013 10/08 A3018 RMK AO2 SLP220 T01000078=
201805040353 METAR KCLM 040353Z AUTO 29014G20KT 10SM OVC013 10/08 A3017 RMK AO2 SLP216 T01000083=
201805040253 METAR KCLM 040253Z AUTO 30014G21KT 9SM OVC012 10/08 A3015 RMK AO2 PK WND 30026/0212 SLP211 T01000083 53000=
201805040153 METAR KCLM 040153Z AUTO 30016G23KT 8SM BKN013 10/08 A3015 RMK AO2 SLP211 T01000083=
201805040151 SPECI KCLM 040151Z AUTO 30017G23KT 8SM BKN013 11/08 A3015 RMK AO2=
201805040053 METAR KCLM 040053Z AUTO 29014G21KT 10SM CLR 13/09 A3015 RMK AO2 SLP211 T01280089=
201805032353 METAR KCLM 032353Z AUTO 29009KT 10SM CLR 15/10 A3014 RMK AO2 SLP207 T01500100 10161 20128 58001=
201805032253 METAR KCLM 032253Z AUTO 28010KT 10SM CLR 15/11 A3015 RMK AO2 SLP209 T01500106=
201805032153 METAR KCLM 032153Z AUTO 32007KT 10SM CLR 13/09 A3015 RMK AO2 SLP210 T01330089=
201805032053 METAR KCLM 032053Z AUTO 34004KT 10SM CLR 13/09 A3014 RMK AO2 SLP208 T01330094 51003=
201805031953 METAR KCLM 031953Z AUTO VRB04KT 10SM CLR 14/10 A3014 RMK AO2 SLP207 T01440100=
201805031853 METAR KCLM 031853Z AUTO VRB04KT 10SM CLR 14/10 A3014 RMK AO2 SLP205 T01390100=
201805031753 METAR KCLM 031753Z AUTO 36004KT 9SM CLR 13/09 A3013 RMK AO2 SLP204 T01330094 10133 20067 51005=
201805031653 METAR KCLM 031653Z AUTO VRB03KT 9SM CLR 12/09 A3013 RMK AO2 SLP203 T01220094=
201805031553 METAR KCLM 031553Z AUTO 35004KT 8SM CLR 11/09 A3012 RMK AO2 SLP201 T01110094=
201805031453 METAR KCLM 031453Z AUTO 00000KT 8SM CLR 11/10 A3011 RMK AO2 SLP199 T01110100 53004=
201805031353 METAR KCLM 031353Z AUTO 00000KT 6SM BR CLR 08/08 A3011 RMK AO2 SLP197 T00830078=
201805031253 METAR KCLM 031253Z AUTO 00000KT 8SM CLR 07/07 A3010 RMK AO2 SLP195 T00670067=
201805031153 METAR KCLM 031153Z AUTO 00000KT 7SM CLR 07/07 A3010 RMK AO2 SLP194 T00670067 10122 20067 50003=
201805031053 METAR KCLM 031053Z AUTO 00000KT 7SM CLR 07/07 A3011 RMK AO2 SLP196 T00720067=
201805030953 METAR KCLM 030953Z AUTO 25003KT 9SM CLR 08/07 A3010 RMK AO2 SLP193 T00780072=
201805030853 METAR KCLM 030853Z AUTO 00000KT 8SM CLR 09/08 A3009 RMK AO2 SLP191 T00890078 50002=
201805030753 METAR KCLM 030753Z AUTO 00000KT 10SM CLR 09/08 A3010 RMK AO2 SLP192 T00940083 401560067=
201805030653 METAR KCLM 030653Z AUTO 23005KT 10SM CLR 12/09 A3009 RMK AO2 SLP190 T01220094=
201805030553 METAR KCLM 030553Z AUTO 23003KT 9SM CLR 10/08 A3009 RMK AO2 SLP189 T01000083 10156 20094 50001=
201805030453 METAR KCLM 030453Z AUTO 27005KT 10SM CLR 10/07 A3010 RMK AO2 SLP192 T01000072=
201805030353 METAR KCLM 030353Z AUTO 26005KT 10SM CLR 12/06 A3010 RMK AO2 SLP192 T01170061=
201805030253 METAR KCLM 030253Z AUTO 27004KT 10SM CLR 13/07 A3008 RMK AO2 SLP188 T01330072 55009=
201805030153 METAR KCLM 030153Z AUTO 30003KT 10SM CLR 14/07 A3008 RMK AO2 SLP188 T01390072=
201805030053 METAR KCLM 030053Z AUTO VRB03KT 10SM CLR 15/09 A3009 RMK AO2 SLP191 T01500089=
201805022353 METAR KCLM 022353Z AUTO 29007KT 10SM CLR 14/08 A3011 RMK AO2 SLP198 T01440083 10156 20122 58008=
201805022253 METAR KCLM 022253Z AUTO 31008KT 10SM CLR 14/08 A3013 RMK AO2 SLP203 T01390083=
201805022153 METAR KCLM 022153Z AUTO VRB05KT 10SM CLR 14/08 A3012 RMK AO2 SLP201 T01440078=
201805022053 METAR KCLM 022053Z AUTO VRB03KT 10SM CLR 15/08 A3014 RMK AO2 SLP206 T01500078 55006=
201805021953 METAR KCLM 021953Z AUTO 04006KT 10SM CLR 13/07 A3013 RMK AO2 SLP205 T01330072=
201805021853 METAR KCLM 021853Z AUTO 05004KT 10SM CLR 14/09 A3014 RMK AO2 SLP209 T01390089=
201805021753 METAR KCLM 021753Z AUTO 01006KT 10SM CLR 12/08 A3015 RMK AO2 SLP212 T01220083 10128 20072 53002=
201805021653 METAR KCLM 021653Z AUTO VRB03KT 10SM CLR 12/08 A3015 RMK AO2 SLP210 T01170083=
201805021553 METAR KCLM 021553Z AUTO 31005KT 10SM CLR 12/08 A3015 RMK AO2 SLP211 T01170078=
201805021453 METAR KCLM 021453Z AUTO 26005KT 10SM CLR 10/06 A3015 RMK AO2 SLP210 T01000056 53007=
201805021353 METAR KCLM 021353Z AUTO 28010KT 10SM CLR 08/05 A3014 RMK AO2 SLP207 T00830050=
201805021253 METAR KCLM 021253Z AUTO 27008KT 10SM CLR 07/05 A3013 RMK AO2 SLP203 T00720050=
201805021153 METAR KCLM 021153Z AUTO 23007KT 10SM CLR 08/05 A3013 RMK AO2 SLP202 T00780050 10094 20067 50004=
201805021053 METAR KCLM 021053Z AUTO 25006KT 10SM CLR 08/06 A3013 RMK AO2 SLP203 T00780056=
201805020953 METAR KCLM 020953Z AUTO 27007KT 10SM CLR 08/06 A3013 RMK AO2 SLP203 T00830061=
201805020853 METAR KCLM 020853Z AUTO 29005KT 10SM CLR 08/06 A3011 RMK AO2 SLP198 T00780061 58006=
201805020753 METAR KCLM 020753Z AUTO 27006KT 10SM CLR 08/07 A3013 RMK AO2 SLP205 T00780067 401440067=
201805020653 METAR KCLM 020653Z AUTO 30005KT 10SM CLR 08/07 A3013 RMK AO2 SLP203 T00780067=
201805020553 METAR KCLM 020553Z AUTO 27005KT 10SM CLR 08/07 A3013 RMK AO2 SLP204 T00780067 10144 20078 50007=
201805020453 METAR KCLM 020453Z AUTO 29009KT 10SM CLR 09/07 A3014 RMK AO2 SLP207 T00890067=
201805020353 METAR KCLM 020353Z AUTO 27008KT 10SM CLR 09/07 A3012 RMK AO2 SLP201 T00890067=
201805020253 METAR KCLM 020253Z AUTO 30005KT 10SM CLR 10/07 A3011 RMK AO2 SLP198 T01000072 51009=
201805020153 METAR KCLM 020153Z AUTO 36004KT 10SM CLR 13/08 A3010 RMK AO2 SLP194 T01280083=
201805020053 METAR KCLM 020053Z AUTO 33003KT 10SM CLR 13/06 A3011 RMK AO2 SLP195 T01330061=
201805012353 METAR KCLM 012353Z AUTO 08004KT 10SM CLR 14/07 A3008 RMK AO2 SLP188 T01440067 10144 20117 58012=
201805012253 METAR KCLM 012253Z AUTO 04004KT 10SM CLR 13/06 A3010 RMK AO2 SLP194 T01280061=
201805012153 METAR KCLM 012153Z AUTO 01006KT 10SM CLR 12/07 A3012 RMK AO2 SLP199 T01220072=
201805012053 METAR KCLM 012053Z AUTO VRB04KT 10SM CLR 12/07 A3012 RMK AO2 SLP200 T01220072 55000=
201805011953 METAR KCLM 011953Z AUTO 34006KT 10SM CLR 12/07 A3012 RMK AO2 SLP199 T01220072=
201805011853 METAR KCLM 011853Z AUTO VRB06KT 10SM CLR 12/07 A3012 RMK AO2 SLP200 T01170072=
201805011753 METAR KCLM 011753Z AUTO 34009G14KT 10SM CLR 12/07 A3012 RMK AO2 SLP200 T01170067 10122 20067 53003=
201805011653 METAR KCLM 011653Z AUTO 35008KT 10SM CLR 12/06 A3012 RMK AO2 SLP200 T01220061=
201805011553 METAR KCLM 011553Z AUTO 27006KT 10SM CLR 11/06 A3010 RMK AO2 SLP195 T01110061=
201805011453 METAR KCLM 011453Z AUTO 29008KT 9SM CLR 09/07 A3011 RMK AO2 SLP197 T00940067 53009=
201805011353 METAR KCLM 011353Z AUTO 27008KT 9SM CLR 08/06 A3009 RMK AO2 SLP191 T00780061=
201805011253 METAR KCLM 011253Z AUTO 28009KT 8SM CLR 07/06 A3008 RMK AO2 SLP185 T00720061=
201805011153 METAR KCLM 011153Z AUTO 25005KT 9SM CLR 08/07 A3009 RMK AO2 SLP189 T00780067 10100 20072 56005=
201805011053 METAR KCLM 011053Z AUTO 27007KT 10SM CLR 08/06 A3009 RMK AO2 SLP190 T00780061=
201805010953 METAR KCLM 010953Z AUTO 29007KT 10SM CLR 08/06 A3008 RMK AO2 SLP188 T00830061=
201805010853 METAR KCLM 010853Z AUTO 28008KT 10SM CLR 09/07 A3010 RMK AO2 SLP194 T00940067 56013=
201805010753 METAR KCLM 010753Z AUTO 28009KT 10SM CLR 09/07 A3011 RMK AO2 SLP197 T00940067 401390083=
201805010653 METAR KCLM 010653Z AUTO 28007KT 10SM CLR 09/08 A3011 RMK AO2 SLP198 T00940078=
201805010553 METAR KCLM 010553Z AUTO 29007KT 9SM SCT060 BKN075 09/08 A3014 RMK AO2 SLP207 T00940083 10133 20094 58002=
201805010453 METAR KCLM 010453Z AUTO 28008KT 9SM BKN055 OVC075 10/08 A3016 RMK AO2 SLP213 T01000083=
201805010353 METAR KCLM 010353Z AUTO 30006KT 9SM FEW060 BKN080 10/08 A3014 RMK AO2 SLP207 T01000078=
201805010253 METAR KCLM 010253Z AUTO 28006KT 10SM BKN031 BKN060 11/07 A3014 RMK AO2 SLP209 T01060067 58001=
201805010153 METAR KCLM 010153Z AUTO 32006KT 9SM CLR 12/07 A3015 RMK AO2 SLP209 T01170072=
201805010053 METAR KCLM 010053Z AUTO VRB04KT 10SM CLR 12/06 A3015 RMK AO2 SLP211 T01220061=

# No short TAF reports from KCLM in databse.

###################################
#  large TAF from KCLM
###################################
201805312320 TAF KCLM 312320Z 0100/0124 30014G24KT P6SM FEW050 SCT080 BKN150
                       FM010100 29015G25KT P6SM SCT070 FM010900
                       27008KT P6SM BKN030 FM011700 35008KT P6SM
                       SCT035 SCT060=
201805311720 TAF KCLM 311720Z 3118/0118 31013G20KT P6SM FEW060 SCT150 FM010100
                       29015G25KT P6SM SCT070 FM010900 27008KT
                       P6SM BKN030=
201805311133 TAF KCLM 311133Z 3112/0112 27006KT P6SM BKN060 BKN100 FM311800
                       33010KT P6SM SCT060 BKN100 FM312200 30012G18KT
                       P6SM BKN080 FM010900 27008KT P6SM BKN030=
201805310534 TAF KCLM 310534Z 3106/0106 29010KT P6SM BKN070 FM310900 27006KT
                       P6SM BKN060 BKN120 FM311800 33010KT P6SM
                       SCT060 BKN120=
201805302321 TAF KCLM 302321Z 3100/3124 35005KT P6SM FEW050 SCT250 FM310100
                       29010KT P6SM FEW040 BKN200 FM310900 27006KT
                       P6SM SCT060 BKN120 FM311800 33010KT P6SM
                       SCT060 BKN120=
201805301723 TAF KCLM 301723Z 3018/3118 35007KT P6SM SCT035 BKN250 FM310100
                       29010KT P6SM FEW040 BKN200 FM310900 27006KT
                       P6SM SCT060 BKN120=
201805301127 TAF KCLM 301127Z 3012/3112 25009KT P6SM FEW050 BKN200 FM301800
                       32009KT P6SM SCT060 BKN200 FM310100 29010KT
                       P6SM BKN200 FM310900 27006KT P6SM SCT060
                       BKN120=
201805300520 TAF KCLM 300520Z 3006/3106 29010G18KT P6SM SCT050 FM300900 28010KT
                       P6SM BKN050 FM301600 32008KT P6SM SCT060=
201805292320 TAF KCLM 292320Z 3000/3024 31010G18KT P6SM FEW050 FM300200 29014G22KT
                       P6SM SCT050 FM300900 28012KT P6SM BKN050
                       FM301600 34008KT P6SM SCT060=
201805291722 TAF KCLM 291722Z 2918/3018 32014G22KT P6SM SCT040 FM300100 29014G22KT
                       P6SM SCT050 FM300900 28012KT P6SM BKN050=
201805291124 TAF KCLM 291124Z 2912/3012 25005KT P6SM BKN060 FM291700 30012KT
                       P6SM SCT060 FM292300 30015G25KT P6SM SCT050
                       FM300900 28012KT P6SM SCT050=
201805290520 TAF KCLM 290520Z 2906/3006 29010KT P6SM SKC FM290900 28010KT P6SM
                       BKN030 FM291700 32012KT P6SM SCT035 SCT050
                       FM292200 30015G22KT P6SM SCT050 FM300200
                       28020G27KT P6SM SCT050=
201805290109 KCLM 290109Z 2901/2924 30015G21KT P6SM SCT035 FM290900 28010KT
                       P6SM BKN030 FM291700 32012KT P6SM SCT035=
201805282324 KCLM 282324Z 2900/2924 30012G16KT P6SM BKN030 BKN050 FM290200 29015G25KT
                       P6SM SCT030 SCT050 FM290900 28010KT P6SM
                       BKN030 FM291700 32012KT P6SM SCT035=
201805282322 TAF KCLM 282322Z 2900/2924 30012G16KT P6SM BKN021 FM290200 29015G25KT
                       P6SM SCT025 SCT050 FM290900 28010KT P6SM
                       BKN030 FM291700 32012KT P6SM SCT035=
201805282041 KCLM 282041Z 2821/2918 30016G23KT P6SM BKN015 FM282300 29014G22KT
                       P6SM FEW025 SCT060 FM290900 28010KT P6SM
                       BKN030=
201805281722 TAF KCLM 281722Z 2818/2918 31010KT P6SM FEW020 BKN060 FM282300
                       29014G22KT P6SM FEW025 SCT060 FM290900 28010KT
                       P6SM BKN030=
201805281133 TAF KCLM 281133Z 2812/2912 27010KT P6SM SCT022
                      TEMPO 2813/2816 BKN020 FM282100 29014G22KT
                       P6SM SCT025 SCT060 FM290700 28012KT P6SM
                       BKN030=
201805280805 KCLM 280805Z 2808/2906 28008KT P6SM SCT012
                      TEMPO 2809/2812 BKN010 FM281200 28008KT P6SM
                       OVC009 FM282100 29015G25KT P6SM SKC FM290500
                       29012G22KT P6SM BKN015=
201805280520 TAF KCLM 280520Z 2806/2906 29010KT P6SM FEW015 FM280800 28009KT
                       P6SM SCT008 BKN012 FM282100 29015G25KT P6SM
                       SKC FM290500 29012G22KT P6SM BKN015=
201805280434 KCLM 280434Z 2805/2824 30007KT P6SM SKC FM280900 28009KT P6SM SCT008
                       BKN012 FM282100 30015G25KT P6SM SKC=
201805272342 TAF KCLM 272342Z 2800/2824 30011G18KT P6SM SKC FM280500 29012KT
                       P6SM SCT008 FM280900 28009KT P6SM SCT008
                       BKN012 FM282100 30015G25KT P6SM SKC=
201805271743 TAF KCLM 271743Z 2718/2818 33007KT P6SM SKC FM280500 29012KT P6SM
                       SCT008 FM280900 28009KT P6SM SCT008 BKN012=
201805271123 TAF KCLM 271123Z 2712/2812 24005KT P6SM SCT070 SCT200 FM271800
                       33005KT P6SM SCT200 FM280100 29012KT P6SM
                       SCT200 FM280900 28009KT P6SM OVC012=
201805270520 TAF KCLM 270520Z 2706/2806 29005KT P6SM BKN250 FM271600 33005KT
                       P6SM SCT035 SCT250 FM272300 30009KT P6SM
                       SCT250 FM280200 29012G18KT P6SM SCT250=
201805270152 KCLM 270152Z 2702/2724 30008KT P6SM OVC080 FM270600 27007KT P6SM
                       BKN080 FM271600 33007KT P6SM SCT035=
201805262320 TAF KCLM 262320Z 2700/2724 30011G18KT P6SM SCT040 BKN120 FM270600
                       27007KT P6SM BKN080 FM271600 33007KT P6SM
                       SCT035=
201805261735 TAF KCLM 261735Z 2618/2718 31011G18KT P6SM SCT035 SCT050 BKN150
                       FM270600 27007KT P6SM BKN080 FM271600 33007KT
                       P6SM SKC=
201805261130 TAF KCLM 261130Z 2612/2712 25006KT P6SM SCT025 BKN200
                      TEMPO 2612/2616 BKN025 BKN200 FM261900 29010KT
                       P6SM SCT050 SCT200=
201805260521 TAF KCLM 260521Z 2606/2706 29013KT P6SM SKC FM261100 26008KT P6SM
                       SCT010 BKN020 FM261900 32011KT P6SM SCT050
                       FM270200 29008KT P6SM SCT050=
201805260303 KCLM 260303Z 2603/2624 29012KT P6SM BKN100 FM261000 27011KT P6SM
                       SCT010 BKN020 FM261900 32011KT P6SM SCT080=
201805252336 TAF KCLM 252336Z 2600/2624 30014G22KT P6SM SCT200 FM261000 27011KT
                       P6SM SCT010 BKN020 FM261900 32011KT P6SM
                       SCT080=
201805251739 TAF KCLM 251739Z 2518/2618 30013G20KT P6SM SCT018 BKN200 FM252200
                       30014G24KT P6SM SKC FM261100 27012KT P6SM
                       SCT012 BKN020 BKN200=
201805251124 TAF KCLM 251124Z 2512/2612 26008KT P6SM SCT060 FM260200 29014G24KT
                       P6SM SCT060 FM261000 27012KT P6SM OVC022=
201805250525 TAF KCLM 250525Z 2506/2606 29013KT P6SM FEW060 SCT250 FM251400
                       29008KT P6SM SCT008 SCT020 FM251900 31013G20KT
                       P6SM FEW035 FM260200 29019G25KT P6SM SCT035=
201805242335 TAF KCLM 242335Z 2500/2524 30010KT P6SM SKC FM251400 29008KT P6SM
                       SCT008 FM251900 31013G20KT P6SM SKC=
201805242104 KCLM 242104Z 2421/2518 30010KT P6SM SKC FM251400 29008KT P6SM SCT008=
201805241743 TAF KCLM 241743Z 2418/2518 30010KT P6SM BKN012 FM242100 31010KT
                       P6SM BKN020 FM250000 29011KT P6SM SKC FM251400
                       29008KT P6SM SCT008=
201805241359 KCLM 241359Z 2414/2512 26006KT P6SM OVC005 FM241700 26006KT P6SM
                       OVC011 FM241900 27006KT P6SM BKN025 FM242000
                       27012KT P6SM SCT045 FM250700 27008KT P6SM
                       SCT045=
201805241128 TAF KCLM 241128Z 2412/2512 26006KT P6SM BKN015 FM241700 27006KT
                       P6SM BKN025 FM242000 27012KT P6SM SCT045
                       FM250700 27008KT P6SM SCT045=
201805240521 TAF KCLM 240521Z 2406/2506 28011KT P6SM FEW100 FM240900 28010KT
                       P6SM OVC010 FM241900 25005KT P6SM BKN025
                       FM242100 27010KT P6SM SCT045 FM250000 29012G19KT
                       P6SM SCT050=
201805232320 TAF KCLM 232320Z 2400/2424 30012G20KT P6SM SCT060 SCT120 FM240600
                       28012KT P6SM BKN015 FM240900 28010KT P6SM
                       OVC015 FM241700 25005KT P6SM BKN025 FM242100
                       27010KT P6SM SCT030=
201805231720 TAF KCLM 231720Z 2318/2418 32008KT P6SM SCT010 FM240000 30012G20KT
                       P6SM SCT010 SCT060 BKN120 FM240600 28012KT
                       P6SM BKN015 FM240900 28010KT P6SM OVC015
                       FM241700 25005KT P6SM BKN025=
201805231132 TAF KCLM 231132Z 2312/2412 30007KT P6SM SCT010
                      TEMPO 2313/2317 BKN007 FM231700 32009KT P6SM
                       SCT100 SCT250 FM240100 29013G20KT P6SM SCT100
                       BKN250 FM240700 29012KT P6SM OVC013=
201805230535 TAF KCLM 230535Z 2306/2406 30007KT P6SM SKC FM231200 30007KT P6SM
                       BKN013 FM231700 32009KT P6SM SCT250 FM240100
                       29013G20KT P6SM SCT100 BKN250=
201805222320 TAF KCLM 222320Z 2300/2324 29008KT P6SM SCT250 FM231300 30007KT
                       P6SM OVC020 FM231700 32009KT P6SM SCT025
                       SCT250 FM232000 31011KT P6SM SCT250=
201805221720 TAF KCLM 221720Z 2218/2318 01008KT P6SM SCT250 FM230100 29008KT
                       P6SM SCT250 FM231300 30007KT P6SM OVC020
                       FM231700 32006KT P6SM SCT025 SCT250=
201805221254 KCLM 221254Z 2213/2312 27004KT P6SM FEW007 SCT250
                      TEMPO 2213/2216 1/2SM FG VV002 FM221800 02008KT
                       P6SM SCT250 FM230100 29008KT P6SM SCT250=
201805221120 TAF KCLM 221120Z 2212/2312 27004KT P6SM FEW007 SCT250
                      TEMPO 2212/2216 BKN005 FM221800 02008KT P6SM
                       SCT250 FM230100 29008KT P6SM SCT250=
201805220537 TAF KCLM 220537Z 2206/2306 30008KT P6SM SKC FM221200 27003KT P6SM
                       SCT250 FM221800 02008KT P6SM SCT250 FM230100
                       29008KT P6SM SCT250=
201805212320 TAF KCLM 212320Z 2200/2224 33009KT P6SM SCT040 SCT250 FM220500
                       28008KT P6SM SCT250 FM221300 VRB04KT P6SM
                       BKN050 FM221700 35005KT P6SM SCT050=
201805211720 TAF KCLM 211720Z 2118/2218 27007KT P6SM BKN045 FM211900 33009KT
                       P6SM SCT040 SCT250 FM220500 28008KT P6SM
                       SCT250 FM221300 VRB04KT P6SM BKN050=
201805211132 TAF KCLM 211132Z 2112/2212 27007KT P6SM SCT045
                      TEMPO 2112/2116 BKN040 FM211900 33009KT P6SM
                       SCT040 SCT250 FM220500 29008KT P6SM SKC=
201805210523 TAF KCLM 210523Z 2106/2206 28008KT P6SM SKC FM210900 27008KT P6SM
                       BKN050 FM211100 30008KT P6SM OVC025 FM211900
                       33007KT P6SM SCT030 SCT250=
201805202320 TAF KCLM 202320Z 2100/2124 29012KT P6SM SCT050 BKN100 FM210700
                       27008KT P6SM BKN050 FM211100 30008KT P6SM
                       OVC025 FM211900 33007KT P6SM SCT030 SCT200=
201805201720 TAF KCLM 201720Z 2018/2118 29008KT P6SM OVC020 FM202000 31011KT
                       P6SM SCT020 BKN035 FM210000 29012KT P6SM
                       SCT050 BKN100 FM210700 27008KT P6SM BKN050
                       FM211100 VRB05KT P6SM OVC025=
201805201121 TAF KCLM 201121Z 2012/2112 27008KT P6SM OVC015 FM202000 31011KT
                       P6SM SCT020 BKN035 FM210000 29012KT P6SM
                       SCT050 BKN100 FM210700 27008KT P6SM BKN050=
201805200522 TAF KCLM 200522Z 2006/2106 27009KT P6SM OVC020 FM200800 27008KT
                       P6SM OVC015 FM202000 31012KT P6SM SCT020
                       BKN030 FM210000 29012KT P6SM BKN100=
201805200303 KCLM 200303Z 2003/2024 27008KT P6SM OVC018 FM200800 27008KT P6SM
                       OVC015 FM202000 31012KT P6SM SCT020 BKN030=
201805192320 TAF KCLM 192320Z 2000/2024 29008KT P6SM SCT080 BKN120 FM200400
                       29006KT P6SM BKN035 OVC060 FM200800 27008KT
                       P6SM BKN015 OVC025 FM202000 31012KT P6SM
                       SCT020 BKN030=
201805191720 TAF KCLM 191720Z 1918/2018 25003KT P6SM FEW010 BKN035 BKN100 FM192100
                       33006KT P6SM SCT040 SCT100 FM200000 29008KT
                       P6SM SCT050 BKN100 FM200800 29006KT P6SM
                       BKN025 OVC050 FM201200 30007KT P6SM BKN015
                       OVC025=
201805191121 TAF KCLM 191121Z 1912/2012 25003KT P6SM FEW010 BKN050 BKN100 FM192100
                       33006KT P6SM SCT050 SCT100 FM200000 29008KT
                       P6SM SCT050 BKN100 FM201000 29006KT P6SM
                       BKN025 OVC050=
201805191013 KCLM 191013Z 1910/2006 23004KT P6SM SCT010 BKN100 FM191200 28003KT
                       P6SM SCT010 BKN050 OVC100
                      TEMPO 1912/1916 OVC010 FM192100 33006KT P6SM
                       SCT020 FM200000 31009KT P6SM BKN100=
201805190823 KCLM 190823Z 1908/2006 27006KT P6SM BKN011 OVC100 FM191100 32004KT
                       P6SM BKN010 OVC020 FM192100 33006KT P6SM
                       SCT020 FM200000 31009KT P6SM BKN100=
201805190527 TAF KCLM 190527Z 1906/2006 29006KT P6SM FEW100 FM191100 32004KT
                       P6SM BKN010 OVC020 FM192100 33006KT P6SM
                       SCT020 FM200000 31009KT P6SM BKN100=
201805182320 TAF KCLM 182320Z 1900/1924 29006KT P6SM OVC040 FM190800 28005KT
                       P6SM BKN020 BKN040 FM191300 32004KT P6SM
                       BKN010 OVC020 FM191900 33007KT P6SM BKN020
                       OVC050=
201805181720 TAF KCLM 181720Z 1818/1918 29003KT P6SM OVC010 FM181900 35006KT
                       P6SM BKN010 OVC030 FM182300 29006KT P6SM
                       BKN020 BKN040 FM191300 32004KT P6SM BKN010
                       OVC020=
201805181127 TAF KCLM 181127Z 1812/1912 29003KT P6SM OVC010 FM181800 35006KT
                       P6SM SCT020 SCT035 BKN100 FM182300 29006KT
                       P6SM SCT040 BKN150=
201805180620 KCLM 180620Z 1806/1906 29008KT P6SM BKN013 BKN050 FM181000 29006KT
                       P6SM OVC012 FM181800 35005KT P6SM SCT020
                       SCT035 BKN250=
201805180528 TAF KCLM 180528Z 1806/1906 28009KT P6SM FEW014 BKN050 FM181000
                       29006KT P6SM OVC012 FM181800 35005KT P6SM
                       SCT020 SCT035 BKN250=
201805180301 KCLM 180301Z 1803/1824 29009KT P6SM BKN060 FM181000 29006KT P6SM
                       OVC015 FM181800 35005KT P6SM SCT020 BKN250=
201805172338 TAF KCLM 172338Z 1800/1824 31010G20KT P6SM SKC FM181000 29006KT
                       P6SM OVC015 FM181800 35005KT P6SM SCT020
                       BKN250=
201805172108 KCLM 172108Z 1721/1818 30006KT P6SM SKC FM172200 31006KT P6SM SCT040
                       FM181000 29006KT P6SM OVC015=
201805171724 TAF KCLM 171724Z 1718/1818 00000KT P6SM OVC013 FM171900 33006KT
                       P6SM SCT020 BKN040 FM172200 31006KT P6SM
                       SCT040 FM181000 29006KT P6SM OVC015=
201805171123 TAF KCLM 171123Z 1712/1812 29003KT P6SM OVC012 FM171900 33006KT
                       P6SM SCT020 BKN040 FM172200 31006KT P6SM
                       SCT040 FM181000 29006KT P6SM BKN015 BKN040=
201805170527 TAF KCLM 170527Z 1706/1806 28009KT P6SM OVC013 FM171900 32007KT
                       P6SM SCT020 BKN040 FM180100 29006KT P6SM
                       SCT040=
201805170126 KCLM 170126Z 1701/1724 30010G17KT P6SM BKN013 FM170800 27008KT
                       P6SM OVC013 FM171900 33007KT P6SM SCT020
                       OVC030=
201805170100 KCLM 170100Z 1701/1724 29011G18KT P6SM SCT025 FM170400 29012G18KT
                       P6SM SCT015 BKN050 FM170800 27008KT P6SM
                       OVC015 FM171900 33007KT P6SM SCT020 OVC030=
201805162320 TAF KCLM 162320Z 1700/1724 32012KT P6SM SCT015 FM170400 29012G18KT
                       P6SM SCT015 BKN050 FM170800 27008KT P6SM
                       OVC015 FM171900 33007KT P6SM SCT020 OVC030=
201805161720 TAF KCLM 161720Z 1618/1718 30008KT P6SM OVC008 FM161900 33007KT
                       P6SM BKN014 BKN030 FM162100 32012KT P6SM
                       BKN022 BKN040 FM170100 29012G18KT P6SM SCT025
                       BKN050 FM170800 27008KT P6SM OVC020=
201805161408 KCLM 161408Z 1614/1712 30008KT P6SM OVC008
                      TEMPO 1614/1616 3SM BR FM161800 33007KT P6SM
                       BKN014 BKN030 FM162100 32012KT P6SM BKN022
                       BKN040 FM170100 29012G18KT P6SM SCT025 BKN050
                       FM170800 27008KT P6SM OVC022=
201805161126 TAF KCLM 161126Z 1612/1712 30008KT P6SM OVC008 FM161800 33007KT
                       P6SM BKN014 BKN030 FM162100 32012KT P6SM
                       BKN022 BKN040 FM170100 29012G18KT P6SM SCT025
                       BKN050 FM170800 27008KT P6SM OVC022=
201805160520 TAF KCLM 160520Z 1606/1706 30014G21KT P6SM BKN007 FM160800 30008KT
                       P6SM OVC006 FM162100 32010G18KT P6SM OVC020=
201805152324 TAF KCLM 152324Z 1600/1624 31010G18KT P6SM SKC FM160800 30008KT
                       P6SM OVC010 FM162100 32010G18KT P6SM OVC015=
201805151725 TAF KCLM 151725Z 1518/1618 29004KT P6SM OVC005 FM151900 31008KT
                       P6SM BKN006 FM152000 29009KT P6SM SKC FM160100
                       29009G15KT P6SM SKC FM160800 28006KT P6SM
                       OVC014=
201805151121 TAF KCLM 151121Z 1512/1612 29008KT 3SM BR BKN002
                      TEMPO 1512/1516 1/2SM FG VV002 FM151600 30005KT
                       5SM BR BKN002 FM151800 32008KT P6SM SCT200
                       FM160100 29012G18KT P6SM SCT200 FM160600
                       29011KT P6SM OVC010=
201805150832 KCLM 150832Z 1509/1606 29005KT P6SM VCFG FEW002 SCT250
                      TEMPO 1509/1513 1SM BR OVC002 FM151300 30005KT
                       5SM BR BKN002 FM151700 32005KT P6SM SCT200
                       FM160100 29014G20KT P6SM SCT200=
201805150520 TAF KCLM 150520Z 1506/1606 29005KT P6SM SCT250 FM150800 29005KT
                       P6SM VCFG FEW002 SCT250 FM151600 32005KT
                       P6SM SCT200 FM160100 29014G20KT P6SM SCT200=
201805142320 TAF KCLM 142320Z 1500/1524 34006KT P6SM SKC FM151000 29004KT P6SM
                       SCT030 BKN200 FM151800 34007KT P6SM SCT200=
201805141743 TAF KCLM 141743Z 1418/1518 VRB03KT P6SM SKC FM142100 30006KT P6SM
                       SCT250 FM151200 29004KT P6SM SCT030 BKN200=
201805141137 TAF KCLM 141137Z 1412/1512 VRB04KT P6SM SKC FM141800 02005KT P6SM
                       SKC FM150000 30006KT P6SM SCT250=
201805140520 TAF KCLM 140520Z 1406/1506 25004KT P6SM SKC FM141800 02005KT P6SM
                       SKC FM150000 30006KT P6SM SKC=
201805132327 TAF KCLM 132327Z 1400/1424 06006KT P6SM SKC FM140500 32004KT P6SM
                       SKC FM141800 04005KT P6SM SKC=
201805131722 TAF KCLM 131722Z 1318/1418 10010KT P6SM SKC FM140300 28004KT P6SM
                       SKC=
201805131137 TAF KCLM 131137Z 1312/1412 VRB03KT P6SM SKC FM131800 07006KT P6SM
                       SKC FM140300 28004KT P6SM SKC=
201805130520 TAF KCLM 130520Z 1306/1406 26003KT P6SM SKC FM131800 07006KT P6SM
                       SKC FM140300 28004KT P6SM SKC=
201805122324 TAF KCLM 122324Z 1300/1324 27004KT P6SM SKC FM130400 29005KT P6SM
                       SKC=
201805121741 TAF KCLM 121741Z 1218/1318 07005KT P6SM SKC FM121900 03006KT P6SM
                       SKC FM130400 25004KT P6SM SKC=
201805121120 TAF KCLM 121120Z 1212/1312 VRB03KT 6SM BR SCT002
                      TEMPO 1212/1215 1/2SM FG VV001 FM121600 06008KT
                       P6SM SKC FM130200 29006KT P6SM SKC=
201805120945 KCLM 120945Z 1210/1306 VRB03KT 6SM BR SCT002
                      TEMPO 1210/1214 1/2SM FG VV001 FM121600 06008KT
                       P6SM SKC FM130200 29006KT P6SM SKC=
201805120528 TAF KCLM 120528Z 1206/1306 28006KT P6SM SKC FM121100 24004KT P6SM
                       SKC FM121600 06008KT P6SM SKC FM130200 29006KT
                       P6SM SKC=
201805112320 TAF KCLM 112320Z 1200/1224 28006KT P6SM SKC FM121100 24004KT P6SM
                       SKC FM121600 06008KT P6SM SKC=
201805111730 TAF KCLM 111730Z 1118/1218 VRB06KT P6SM SKC FM112200 32008KT P6SM
                       SKC FM120300 28006KT P6SM SKC FM120800 24004KT
                       P6SM SKC FM121600 06008KT P6SM SKC=
201805111308 KCLM 111308Z 1113/1212 26008KT P6SM FEW020 SCT050 FM111800 35008KT
                       P6SM SKC FM120200 29005KT P6SM SKC=
201805111128 TAF KCLM 111128Z 1112/1212 26008KT P6SM SCT020 SCT050
                      TEMPO 1113/1117 BKN020 BKN050 FM111800 35008KT
                       P6SM SKC FM120200 29005KT P6SM SKC=
201805110524 TAF KCLM 110524Z 1106/1206 27010KT P6SM SKC FM111200 26005KT P6SM
                       SCT020
                      TEMPO 1112/1116 BKN020 FM111800 35008KT P6SM
                       SKC FM120200 29005KT P6SM SKC=
201805110419 KCLM 110419Z 1104/1124 28010KT P6SM FEW035 FM110900 26005KT P6SM
                       SKC FM112200 33009KT P6SM SCT250=
201805102324 TAF KCLM 102324Z 1100/1124 30015G26KT P6SM VCSH BKN018 OVC035 FM110200
                       28013G22KT P6SM SCT020 BKN035 FM110600 27012KT
                       P6SM FEW035 FM111400 26005KT P6SM SKC FM112200
                       33009KT P6SM SCT250=
201805102039 KCLM 102039Z 1021/1118 30014G21KT P6SM VCSH BKN012 BKN018 OVC035
                       FM110000 29017G27KT P6SM FEW035 SCT060 FM110300
                       28013G22KT P6SM FEW035 FM110600 27012KT
                       P6SM FEW035 FM111400 26005KT P6SM SKC=
201805101729 TAF KCLM 101729Z 1018/1118 01003KT P6SM -SHRA FEW035 BKN040 OVC060
                       FM102100 31014G25KT P6SM VCSH SCT035 BKN050
                       FM110000 29017G27KT P6SM FEW035 SCT060 FM110300
                       28013G22KT P6SM FEW035 FM110600 27012KT
                       P6SM FEW035 FM111400 26005KT P6SM SKC=
201805101312 KCLM 101312Z 1013/1112 25005KT P6SM -SHRA SCT009 OVC022
                      TEMPO 1013/1016 4SM -SHRA BR BKN009 OVC022
                       FM101800 31008KT P6SM VCSH BKN028 OVC050
                       FM102100 31014G25KT P6SM VCSH BKN035 BKN060
                       FM110000 29017G27KT P6SM FEW035 SCT060 FM110300
                       28013G22KT P6SM FEW060 FM110600 27010KT
                       P6SM FEW090=
201805101122 TAF KCLM 101122Z 1012/1112 25005KT P6SM -SHRA SCT009 OVC022
                      TEMPO 1012/1016 5SM -SHRA BR BKN009 OVC022
                       FM101800 31008KT P6SM VCSH BKN028 OVC050
                       FM102100 31014G25KT P6SM VCSH BKN035 BKN060
                       FM110000 29017G27KT P6SM FEW035 SCT060 FM110300
                       28013G22KT P6SM FEW060 FM110600 27010KT
                       P6SM FEW090=
201805101050 KCLM 101050Z 1011/1106 VRB03KT P6SM -SHRA BKN025 OVC060 FM101400
                       25005KT P6SM -SHRA BKN030 OVC070 FM101900
                       31014KT P6SM VCSH BKN040 BKN060=
201805100908 KCLM 100908Z 1009/1106 VRB03KT P6SM VCSH SCT030 OVC090
                      TEMPO 1009/1012 -SHRA BKN030 OVC090 FM101400
                       25005KT P6SM -SHRA BKN030 OVC070 FM101900
                       31014KT P6SM VCSH BKN040 BKN060=
201805100906 KCLM 100906Z 1009/1106 VRB03KT P6SM VCSH SCT030 OVC090
                      TEMPO 1009/1012 -SHRA BKN030 OVC090 FM101400
                       25005KT P6SM -SHRA BKN030 OVC070 FM101900
                       31014KT P6SM VCSH BKN040 BKN060=
201805100637 KCLM 100637Z 1007/1106 28008KT P6SM FEW025 SCT050 SCT100 FM100900
                       VRB03KT P6SM SCT050 BKN100 BKN250 FM101400
                       25005KT P6SM -SHRA BKN030 OVC070 FM101900
                       31014KT P6SM VCSH BKN040 BKN060=
201805100522 TAF KCLM 100522Z 1006/1106 28008KT P6SM FEW025 SCT050 SCT100 FM100900
                       VRB03KT P6SM SCT050 BKN100 BKN250 FM101400
                       25005KT P6SM -SHRA BKN030 OVC070 FM101900
                       31014KT P6SM VCSH BKN040 BKN060=
201805092320 TAF KCLM 092320Z 1000/1024 30012KT P6SM VCSH SCT030 BKN050 BKN250
                       FM100300 28010KT P6SM SCT070 BKN250 FM100600
                       25004KT P6SM SCT110 BKN250 FM100900 VRB03KT
                       P6SM BKN110 BKN250 FM101400 25005KT P6SM
                       -RA BKN030 OVC070 FM101900 31014KT P6SM
                       VCSH BKN040 BKN060=
201805091721 TAF KCLM 091721Z 0918/1018 30009KT P6SM VCSH BKN040 BKN060 BKN250
                       FM100300 28007KT P6SM BKN250 FM100600 25004KT
                       P6SM SCT110 BKN250 FM100900 VRB03KT P6SM
                       BKN110 BKN250 FM101200 25005KT P6SM -RA
                       BKN040 OVC070=
201805091149 KCLM 091149Z 0912/1012 VRB03KT P6SM VCSH SCT050 BKN090 BKN250
                      TEMPO 0912/0916 1/2SM FG BKN005 BKN050 BKN090
                       FM091800 32009KT P6SM VCSH SCT060 BKN250
                       PROB30 0921/0924 -SHRA OVC060 FM100300 28007KT
                       P6SM BKN250 FM100600 25004KT P6SM SCT110
                       BKN250 FM100900 VRB03KT P6SM BKN110 BKN250=
201805091132 TAF KCLM 091132Z 0912/1012 VRB03KT P6SM VCSH SCT050 BKN090 BKN250
                       FM091800 32009KT P6SM VCSH SCT060 BKN250
                       PROB30 0921/0924 -SHRA OVC060 FM100300 28007KT
                       P6SM BKN250 FM100600 25004KT P6SM SCT110
                       BKN250 FM100900 VRB03KT P6SM BKN110 BKN250=
201805090825 KCLM 090825Z 0908/1006 VRB04KT P6SM VCSH FEW050 BKN090 OVC200 FM091200
                       VRB05KT P6SM VCSH BKN050 OVC090 FM091900
                       22012KT P6SM VCSH BKN050=
201805090520 TAF KCLM 090520Z 0906/1006 22005KT P6SM VCSH BKN070 BKN120 FM091000
                       18010KT P6SM -SHRA BKN030 BKN120 FM091900
                       22012KT P6SM VCSH BKN050=
201805082320 TAF KCLM 082320Z 0900/0924 27008KT P6SM SCT070 BKN150 FM090400
                       24005KT P6SM -RA OVC040 FM091400 29005KT
                       P6SM VCSH OVC040 FM091700 31009KT P6SM BKN050=
201805081720 TAF KCLM 081720Z 0818/0918 VRB04KT P6SM SCT120 SCT200 FM082200
                       27008KT P6SM BKN070 BKN150 FM090400 24005KT
                       P6SM -RA OVC040 FM091400 29005KT P6SM VCSH
                       OVC040=
201805081245 KCLM 081245Z 0813/0912 VRB03KT 5SM BR SCT002 BKN250
                      TEMPO 0813/0816 1/4SM FG VV001 FM081700 VRB03KT
                       P6SM SCT120 BKN200 FM082200 27008KT P6SM
                       BKN070 BKN150 FM090400 24005KT P6SM -RA
                       OVC040=
201805081132 TAF KCLM 081132Z 0812/0912 VRB03KT P6SM SCT002 BKN250
                      TEMPO 0812/0815 3SM BR FM081800 VRB03KT P6SM
                       SCT120 BKN200 FM082200 27008KT P6SM BKN070
                       BKN150 FM090400 24005KT P6SM -RA OVC040=
201805080806 KCLM 080806Z 0808/0906 25005KT P6SM SCT002 BKN250
                      TEMPO 0808/0812 1/4SM FG VV002 FM081800 VRB03KT
                       P6SM SCT070 BKN200 FM082200 27008KT P6SM
                       BKN070 BKN150 FM090200 27008KT P6SM -RA
                       OVC040=
201805080520 TAF KCLM 080520Z 0806/0906 25005KT P6SM BKN250 FM081800 VRB03KT
                       P6SM SCT070 BKN200 FM082200 27008KT P6SM
                       BKN070 BKN150 FM090200 27008KT P6SM -RA
                       OVC040=
201805072330 TAF KCLM 072330Z 0800/0824 33005KT P6SM FEW070 FM080300 29008KT
                       P6SM SCT250 FM081200 VRB03KT P6SM SCT250=
201805071806 TAF KCLM 071806Z 0718/0818 33004KT 6SM BR OVC006 FM072000 33005KT
                       P6SM BKN010 OVC030 FM072100 33007KT P6SM
                       SCT035 SCT250 FM080400 25005KT P6SM SKC=
201805071126 TAF KCLM 071126Z 0712/0812 29007KT P6SM OVC005 FM071600 31006KT
                       P6SM OVC009 FM071900 33005KT P6SM SCT015
                       BKN035 FM072100 33007KT P6SM SCT035 SCT250
                       FM080400 25005KT P6SM SKC=
201805070524 TAF KCLM 070524Z 0706/0806 28009KT P6SM BKN006 FM070900 27012KT
                       P6SM OVC010 FM071800 33005KT P6SM SCT015
                       BKN035 FM072100 33007KT P6SM SCT035 SCT250=
201805070432 KCLM 070432Z 0705/0724 29013G20KT P6SM BKN007 FM070900 27012KT
                       P6SM OVC010 FM071800 33005KT P6SM SCT015
                       BKN035 FM072100 33007KT P6SM SCT035 SCT250=
201805070303 KCLM 070303Z 0703/0724 29014G22KT P6SM SCT080 FM070900 27012KT
                       P6SM OVC011 FM071800 33005KT P6SM SCT015
                       BKN035 FM072100 33007KT P6SM SCT035 SCT250=
201805062331 TAF KCLM 062331Z 0700/0724 35004KT P6SM SCT080 BKN220 FM070900
                       27009KT P6SM OVC011 FM071800 33005KT P6SM
                       SCT015 BKN035 FM072100 33007KT P6SM SCT035
                       SCT250=
201805061722 TAF KCLM 061722Z 0618/0718 08007KT P6SM SCT120 BKN220 FM070000
                       29010G17KT P6SM SCT050 BKN090 FM070900 27009KT
                       P6SM OVC011=
201805061127 TAF KCLM 061127Z 0612/0712 20003KT P6SM SCT120 BKN250 FM070000
                       29010G17KT P6SM SCT050 FM070900 27009KT
                       P6SM OVC020=
201805060520 TAF KCLM 060520Z 0606/0706 VRB03KT P6SM BKN090 FM070000 27010KT
                       P6SM BKN050 BKN090=
201805052332 TAF KCLM 052332Z 0600/0624 07005KT P6SM SCT150 BKN200 FM060600
                       26004KT P6SM OVC100 FM061500 28003KT P6SM
                       SCT120 OVC250=
201805051753 TAF KCLM 051753Z 0518/0618 VRB05KT P6SM FEW029 FM052000 05005KT
                       P6SM SCT040 BKN150 FM060600 26004KT P6SM
                       OVC100 FM061500 28003KT P6SM SCT120 OVC250=
201805051120 TAF KCLM 051120Z 0512/0612 00000KT P6SM FEW070 BKN250 FM051400
                       10005KT P6SM SCT020 BKN200 FM052000 05005KT
                       P6SM SCT040 BKN150 FM060600 26004KT P6SM
                       OVC100=
201805050520 TAF KCLM 050520Z 0506/0606 32005KT P6SM BKN080 BKN250 FM051000
                       VRB03KT P6SM BKN025 BKN080 BKN250 FM051700
                       VRB03KT P6SM SCT030 BKN080 BKN200 FM052000
                       33007KT P6SM SCT050 BKN150 FM060000 33007KT
                       P6SM BKN050 BKN120=
201805050300 KCLM 050300Z 0503/0524 28008KT P6SM SCT035 BKN080
                      TEMPO 0506/0510 BKN030 BKN080 FM051000 30005KT
                       P6SM BKN030 BKN080 FM051800 05008KT P6SM
                       SCT030 SCT080 BKN200=
201805050126 KCLM 050126Z 0501/0524 34003KT P6SM BKN025
                      TEMPO 0514/0518 SCT030 FM051800 05008KT P6SM
                       SCT030 BKN250=
201805042329 TAF KCLM 042329Z 0500/0524 34003KT P6SM OVC035 FM051800 05008KT
                       P6SM SCT035 BKN250=
201805041730 TAF KCLM 041730Z 0418/0518 35003KT P6SM FEW014 OVC026 FM042200
                       VRB04KT P6SM OVC050 FM051500 27003KT P6SM
                       SCT250=
201805041507 KCLM 041507Z 0415/0512 30006KT P6SM OVC010
                      TEMPO 0415/0418 2SM BR BKN011 OVC016 FM042200
                       VRB04KT P6SM OVC050=
201805041129 TAF KCLM 041129Z 0412/0512 30006KT P6SM OVC010 FM042200 VRB04KT
                       P6SM OVC050=
201805040520 TAF KCLM 040520Z 0406/0506 29014G22KT P6SM BKN013 BKN080 BKN200
                       FM040800 29010KT P6SM OVC012 FM041200 28006KT
                       P6SM OVC012 FM041800 28007KT P6SM SCT025
                       BKN060 FM042100 28006KT P6SM SCT030 BKN080
                       BKN150=
201805040245 KCLM 040245Z 0403/0424 30014G22KT P6SM BKN013 FM040800 29010KT
                       P6SM OVC012 FM041200 28006KT P6SM OVC012
                       FM041800 28007KT P6SM SCT025 BKN060=
201805032320 TAF KCLM 032320Z 0400/0424 28010KT P6SM BKN200 FM040100 30010G18KT
                       P6SM BKN200 FM040900 28008KT P6SM BKN014
                       FM041200 28006KT P6SM OVC012 FM041900 28007KT
                       P6SM SCT030 BKN060=
201805031720 TAF KCLM 031720Z 0318/0418 30006KT P6SM BKN200 FM040100 30010G18KT
                       P6SM BKN200 FM040900 28008KT P6SM BKN014
                       FM041200 28006KT P6SM OVC012=
201805031120 TAF KCLM 031120Z 0312/0412 26006KT P6SM SCT200 FM031800 30006KT
                       P6SM BKN200 FM040100 30010G18KT P6SM SCT150
                       BKN200 FM040800 28008KT P6SM SCT030 BKN050
                       BKN150=
201805030520 TAF KCLM 030520Z 0306/0406 26006KT P6SM SCT200 FM031800 30006KT
                       P6SM BKN200 FM040200 30010G18KT P6SM SCT150
                       BKN200=
201805022320 TAF KCLM 022320Z 0300/0324 30008KT P6SM SCT200 FM031200 28004KT
                       P6SM SCT018
                      TEMPO 0312/0316 BKN018 FM031800 30006KT P6SM
                       SCT200=
201805021720 TAF KCLM 021720Z 0218/0318 VRB04KT P6SM FEW200 FM030100 28008KT
                       P6SM FEW200 FM031200 28004KT P6SM BKN018=
201805021120 TAF KCLM 021120Z 0212/0312 27009KT P6SM FEW250 FM021300 VRB04KT
                       P6SM FEW250 FM030300 28005KT P6SM FEW250=
201805020520 TAF KCLM 020520Z 0206/0306 27009KT P6SM FEW150 FM021200 VRB03KT
                       P6SM FEW200=
201805012321 TAF KCLM 012321Z 0200/0224 VRB04KT P6SM FEW050 FM020200 27009KT
                       P6SM SCT150 FM021200 VRB03KT P6SM SCT150
                       FM021800 VRB03KT P6SM FEW200=
201805011720 TAF KCLM 011720Z 0118/0218 33007KT P6SM SCT050 FM020100 27009KT
                       P6SM SCT150 FM020900 VRB03KT P6SM SCT150=
201805011120 TAF KCLM 011120Z 0112/0212 27005KT P6SM BKN040 FM012000 VRB04KT
                       P6SM SCT040 SCT200 FM020300 27005KT P6SM
                       SCT200=
201805010645 TAF KCLM 010645Z 0107/0206 29008KT P6SM SCT060 BKN200 FM011200
                       27005KT P6SM BKN040 FM012000 VRB04KT P6SM
                       SCT040=