##########################################################
# Query made at 02/16/2025 03:43:22 UTC
# Time interval: from 11/01/2018 00:00  to 11/30/2018 23:59  UTC
##########################################################

##########################################################
# KCLM, Port Angeles, William R. Fairchild International Airport (United States)
# WMO index: -----. WIGOS ID: Unknown
# Latitude 48-07-20N. Longitude 123-30-19W. Altitude 87 m.
##########################################################

###################################
#  METAR/SPECI from KCLM
###################################
201811302353 METAR KCLM 302353Z AUTO 00000KT 10SM CLR 07/05 A2970 RMK AO2 SLP058 T00670050 10094 20061 58006=
201811302253 METAR KCLM 302253Z AUTO 00000KT 10SM FEW031 07/05 A2971 RMK AO2 SLP061 T00720050=
201811302153 METAR KCLM 302153Z AUTO VRB03KT 10SM BKN065 08/05 A2971 RMK AO2 SLP062 T00830050=
201811302053 METAR KCLM 302053Z AUTO 09005KT 10SM BKN080 09/06 A2972 RMK AO2 SLP065 T00890056 58007=
201811301953 METAR KCLM 301953Z AUTO 09003KT 10SM FEW080 BKN110 08/05 A2973 RMK AO2 SLP070 T00780050=
201811301853 METAR KCLM 301853Z AUTO 00000KT 10SM OVC065 08/05 A2974 RMK AO2 SLP072 T00830050=
201811301753 METAR KCLM 301753Z AUTO 00000KT 10SM OVC070 07/05 A2974 RMK AO2 SLP071 60000 T00670050 10067 20028 53008=
201811301653 METAR KCLM 301653Z AUTO 25004KT 10SM FEW049 OVC065 06/04 A2973 RMK AO2 RAB14E45 SLP067 P0000 T00560039=
201811301553 METAR KCLM 301553Z AUTO 25006KT 10SM FEW032 BKN075 OVC095 05/03 A2972 RMK AO2 SLP065 T00500033=
201811301453 METAR KCLM 301453Z AUTO 23007KT 10SM FEW065 04/02 A2971 RMK AO2 SLP063 T00390022 53005=
201811301353 METAR KCLM 301353Z AUTO 23006KT 10SM CLR 03/02 A2970 RMK AO2 SLP060 T00280017=
201811301253 METAR KCLM 301253Z AUTO 22006KT 10SM FEW060 04/03 A2970 RMK AO2 SLP059 T00440028=
201811301153 METAR KCLM 301153Z AUTO 23003KT 10SM OVC060 04/04 A2970 RMK AO2 SLP057 60000 70008 T00440039 10067 20039 58000=
201811301053 METAR KCLM 301053Z AUTO 23004KT 10SM SCT060 05/04 A2970 RMK AO2 SLP060 T00500044=
201811301021 SPECI KCLM 301021Z AUTO 25005KT 10SM SCT029 BKN060 06/04 A2970 RMK AO2 T00560044=
201811301006 SPECI KCLM 301006Z AUTO 25004KT 10SM BKN029 OVC060 06/05 A2970 RMK AO2 T00610050=
201811300953 METAR KCLM 300953Z AUTO 26005KT 10SM BKN031 OVC060 06/05 A2970 RMK AO2 SLP059 T00610050=
201811300853 METAR KCLM 300853Z AUTO 26004KT 10SM OVC050 06/04 A2970 RMK AO2 RAE14 SLP058 P0000 60000 T00560044 51003=
201811300753 METAR KCLM 300753Z AUTO 00000KT 7SM -RA FEW029 BKN041 OVC050 06/06 A2969 RMK AO2 RAB38 SLP057 P0000 T00610056 400890056=
201811300750 SPECI KCLM 300750Z AUTO 00000KT 7SM -RA SCT029 BKN041 OVC049 06/06 A2969 RMK AO2 RAB38 P0000=
201811300735 SPECI KCLM 300735Z AUTO 15003KT 6SM BR BKN028 OVC043 06/05 A2969 RMK AO2 T00610050=
201811300653 METAR KCLM 300653Z AUTO 24005KT 10SM FEW039 OVC060 06/05 A2969 RMK AO2 SLP054 T00610050=
201811300553 METAR KCLM 300553Z AUTO 22005KT 10SM SCT029 OVC045 06/06 A2969 RMK AO2 SLP055 T00610056 10083 20056 53005=
201811300453 METAR KCLM 300453Z AUTO 00000KT 6SM BR FEW028 BKN120 06/05 A2968 RMK AO2 SLP051 T00560050=
201811300353 METAR KCLM 300353Z AUTO 00000KT 8SM OVC050 06/06 A2968 RMK AO2 SLP051 T00610056=
201811300332 SPECI KCLM 300332Z AUTO 00000KT 7SM SCT024 OVC050 07/06 A2968 RMK AO2 T00670056=
201811300253 METAR KCLM 300253Z AUTO 00000KT 8SM OVC023 06/06 A2967 RMK AO2 SLP050 T00610056 56003=
201811300200 SPECI KCLM 300200Z AUTO 00000KT 10SM BKN024 OVC031 07/06 A2967 RMK AO2 T00670061=
201811300153 METAR KCLM 300153Z AUTO 00000KT 10SM SCT024 OVC031 07/06 A2967 RMK AO2 SLP050 T00670061=
201811300115 SPECI KCLM 300115Z AUTO 00000KT 10SM OVC030 08/06 A2967 RMK AO2 T00780061=
201811300053 METAR KCLM 300053Z AUTO 16003KT 10SM OVC028 08/06 A2968 RMK AO2 SLP051 T00780061=
201811292353 METAR KCLM 292353Z AUTO 16003KT 10SM FEW016 OVC023 08/06 A2968 RMK AO2 SLP052 T00830061 10089 20083 53003=
201811292253 METAR KCLM 292253Z AUTO 10003KT 10SM OVC015 08/06 A2968 RMK AO2 SLP051 T00830061=
201811292235 SPECI KCLM 292235Z AUTO VRB03KT 10SM OVC015 08/06 A2968 RMK AO2 T00830056=
201811292201 SPECI KCLM 292201Z AUTO 00000KT 10SM OVC014 08/06 A2967 RMK AO2 T00830056=
201811292153 METAR KCLM 292153Z AUTO 07003KT 10SM OVC015 08/06 A2967 RMK AO2 SLP050 T00830056=
201811292110 SPECI KCLM 292110Z AUTO VRB04KT 10SM OVC011 08/07 A2967 RMK AO2 T00830067=
201811292053 METAR KCLM 292053Z AUTO VRB03KT 9SM BKN009 OVC014 08/07 A2967 RMK AO2 CIG 008V012 SLP048 T00830067 58008=
201811291953 METAR KCLM 291953Z AUTO VRB03KT 5SM BR OVC006 08/07 A2968 RMK AO2 SLP052 T00830072=
201811291853 METAR KCLM 291853Z AUTO VRB03KT 7SM BKN006 OVC010 08/07 A2969 RMK AO2 SLP057 T00830072=
201811291753 METAR KCLM 291753Z AUTO 00000KT 8SM OVC007 08/07 A2970 RMK AO2 SLP057 60008 T00830067 10083 20067 51007=
201811291653 METAR KCLM 291653Z AUTO 24003KT 10SM OVC006 07/06 A2969 RMK AO2 SLP055 T00720061=
201811291553 METAR KCLM 291553Z AUTO 00000KT 9SM OVC005 07/07 A2968 RMK AO2 SLP053 T00720067=
201811291524 SPECI KCLM 291524Z AUTO 00000KT 10SM BKN007 OVC046 07/07 A2968 RMK AO2 T00720067=
201811291453 METAR KCLM 291453Z AUTO 00000KT 9SM FEW007 OVC043 07/07 A2968 RMK AO2 RAE00B19E28 SLP051 P0000 60008 T00720067 55002=
201811291444 SPECI KCLM 291444Z AUTO 00000KT 10SM FEW008 OVC041 07/06 A2968 RMK AO2 RAE00B19E28 P0000 T00720061=
201811291430 SPECI KCLM 291430Z AUTO 00000KT 6SM BR FEW014 FEW024 OVC041 07/07 A2967 RMK AO2 RAE00B19E28 P0000 T00720067=
201811291422 SPECI KCLM 291422Z AUTO 24003KT 4SM -RA BR SCT013 BKN024 OVC041 07/07 A2967 RMK AO2 RAE00B19 P0000 T00720067=
201811291353 METAR KCLM 291353Z AUTO 00000KT 4SM -RA BR OVC011 08/07 A2967 RMK AO2 RAB14 SLP050 P0006 T00780072=
201811291334 SPECI KCLM 291334Z AUTO 00000KT 2SM -RA BR OVC009 07/07 A2967 RMK AO2 RAB14 CIG 005V013 P0004 T00720067=
201811291330 SPECI KCLM 291330Z AUTO 17003KT 1 3/4SM -RA BR OVC011 08/07 A2967 RMK AO2 RAB14 CIG 005V013 P0004 T00780072=
201811291319 SPECI KCLM 291319Z AUTO 00000KT 2 1/2SM -RA BR OVC009 07/07 A2967 RMK AO2 RAB14 CIG 007V012 P0002 T00720067=
201811291253 METAR KCLM 291253Z AUTO 00000KT 4SM BR OVC010 08/07 A2968 RMK AO2 RAB1155E16 SLP053 P0002 T00780067=
201811291250 SPECI KCLM 291250Z AUTO 00000KT 4SM BR OVC010 08/07 A2968 RMK AO2 RAB1155E16 P0002=
201811291153 METAR KCLM 291153Z AUTO 00000KT 9SM OVC005 07/07 A2968 RMK AO2 SLP052 70004 T00720067 10078 20061 58006=
201811291134 SPECI KCLM 291134Z AUTO 00000KT 9SM BKN005 OVC019 07/07 A2969 RMK AO2 T00720067=
201811291125 SPECI KCLM 291125Z AUTO 00000KT 10SM SCT005 OVC019 07/07 A2969 RMK AO2 T00720067=
201811291053 METAR KCLM 291053Z AUTO 00000KT 10SM OVC017 07/07 A2970 RMK AO2 SLP057 T00720067=
201811291016 SPECI KCLM 291016Z AUTO 00000KT 10SM OVC017 07/07 A2970 RMK AO2 T00720067=
201811290953 METAR KCLM 290953Z AUTO 00000KT 7SM OVC014 07/07 A2970 RMK AO2 SLP057 T00720067=
201811290935 SPECI KCLM 290935Z AUTO 00000KT 7SM OVC014 08/07 A2970 RMK AO2 T00780067=
201811290927 SPECI KCLM 290927Z AUTO 00000KT 9SM SCT010 OVC016 08/07 A2970 RMK AO2 T00780067=
201811290918 SPECI KCLM 290918Z AUTO 21003KT 10SM BKN010 OVC018 08/07 A2970 RMK AO2 T00780067=
201811290906 SPECI KCLM 290906Z AUTO 00000KT 10SM FEW008 OVC017 08/07 A2970 RMK AO2 T00780067=
201811290853 METAR KCLM 290853Z AUTO 25003KT 9SM OVC017 08/07 A2970 RMK AO2 SLP058 T00780067 58000=
201811290840 SPECI KCLM 290840Z AUTO 24003KT 7SM OVC015 08/07 A2970 RMK AO2 T00780067=
201811290816 SPECI KCLM 290816Z AUTO 00000KT 5SM BR FEW005 OVC013 08/07 A2970 RMK AO2 T00780072=
201811290753 METAR KCLM 290753Z AUTO 00000KT 5SM BR BKN005 OVC015 08/07 A2970 RMK AO2 SLP057 T00780067 401060039=
201811290653 METAR KCLM 290653Z AUTO 00000KT 7SM BKN005 OVC012 07/06 A2971 RMK AO2 SLP060 T00720061=
201811290648 SPECI KCLM 290648Z AUTO 00000KT 7SM SCT005 OVC012 07/06 A2970 RMK AO2=
201811290623 SPECI KCLM 290623Z AUTO 24003KT 6SM BR BKN007 BKN010 BKN065 07/06 A2971 RMK AO2 CIG 005V009 T00670061=
201811290606 SPECI KCLM 290606Z AUTO 00000KT 6SM BR FEW007 BKN060 07/06 A2971 RMK AO2 T00670056=
201811290553 METAR KCLM 290553Z AUTO 00000KT 10SM BKN007 OVC060 07/06 A2971 RMK AO2 SLP063 T00670061 10089 20050 53007=
201811290512 SPECI KCLM 290512Z AUTO 00000KT 7SM BKN007 OVC065 06/06 A2970 RMK AO2 T00610056=
201811290453 METAR KCLM 290453Z AUTO 00000KT 6SM BR FEW009 OVC065 06/05 A2970 RMK AO2 SLP057 T00560050=
201811290440 SPECI KCLM 290440Z AUTO 14003KT 7SM FEW010 OVC065 05/04 A2970 RMK AO2 T00500044=
201811290416 SPECI KCLM 290416Z AUTO 24003KT 9SM BKN010 BKN070 06/06 A2970 RMK AO2 T00560056=
201811290406 SPECI KCLM 290406Z AUTO 24004KT 3SM BR SCT010 06/06 A2970 RMK AO2 T00560056=
201811290353 METAR KCLM 290353Z AUTO 00000KT 1 3/4SM BR FEW001 06/06 A2970 RMK AO2 SLP058 T00610056=
201811290349 SPECI KCLM 290349Z AUTO 00000KT 1 1/4SM BR FEW001 06/06 A2970 RMK AO2=
201811290342 SPECI KCLM 290342Z AUTO 00000KT 1/2SM FG VV001 06/05 A2969 RMK AO2 T00560050=
201811290335 SPECI KCLM 290335Z AUTO 27003KT 1/2SM FG FEW001 SCT010 06/05 A2969 RMK AO2 T00560050=
201811290328 SPECI KCLM 290328Z AUTO VRB03KT 3/4SM BR VV010 06/06 A2969 RMK AO2 VIS 1/4V2 1/2 T00560056=
201811290322 SPECI KCLM 290322Z AUTO 00000KT 1 1/2SM BR SCT010 SCT029 07/07 A2969 RMK AO2 VIS 1/2V5 T00720067=
201811290320 SPECI KCLM 290320Z AUTO 00000KT 2SM BR SCT010 BKN029 07/07 A2969 RMK AO2 VIS 1/2V5 T00720067=
201811290314 SPECI KCLM 290314Z AUTO 00000KT 6SM BR BKN010 BKN029 07/07 A2969 RMK AO2 T00720067=
201811290253 METAR KCLM 290253Z AUTO 00000KT 9SM FEW015 OVC028 08/07 A2969 RMK AO2 SLP056 T00780067 53001=
201811290153 METAR KCLM 290153Z AUTO 00000KT 10SM BKN027 BKN037 OVC060 07/07 A2969 RMK AO2 SLP055 T00720067=
201811290117 SPECI KCLM 290117Z AUTO 00000KT 10SM BKN027 BKN038 OVC060 07/07 A2969 RMK AO2 T00720067=
201811290053 METAR KCLM 290053Z AUTO 23003KT 10SM FEW014 SCT019 OVC038 08/07 A2969 RMK AO2 SLP055 T00780072=
201811290043 SPECI KCLM 290043Z AUTO 22004KT 10SM BKN015 OVC038 08/07 A2969 RMK AO2 T00780072=
201811290013 SPECI KCLM 290013Z AUTO 27003KT 10SM BKN014 BKN024 08/07 A2969 RMK AO2 T00830072=
201811282353 METAR KCLM 282353Z AUTO 00000KT 10SM CLR 09/07 A2968 RMK AO2 SLP053 T00890072 10106 20083 53001=
201811282253 METAR KCLM 282253Z AUTO 26005KT 10SM BKN060 09/08 A2968 RMK AO2 SLP052 T00940078=
201811282242 SPECI KCLM 282242Z AUTO 27005KT 10SM FEW010 FEW015 BKN060 09/08 A2968 RMK AO2 T00890078=
201811282224 SPECI KCLM 282224Z AUTO 30005KT 10SM FEW008 BKN014 OVC060 09/08 A2968 RMK AO2 T00940078=
201811282153 METAR KCLM 282153Z AUTO 31004KT 10SM OVC011 09/08 A2968 RMK AO2 SLP051 T00940078=
201811282124 SPECI KCLM 282124Z AUTO 31006KT 10SM FEW007 BKN012 OVC060 09/07 A2968 RMK AO2 T00940072=
201811282113 SPECI KCLM 282113Z AUTO 31006KT 10SM BKN007 BKN012 09/08 A2968 RMK AO2 T00940078=
201811282053 METAR KCLM 282053Z AUTO 28007KT 10SM SCT008 BKN013 09/08 A2968 RMK AO2 SLP051 T00940078 58009=
201811282038 SPECI KCLM 282038Z AUTO 31007KT 10SM SCT007 BKN013 09/08 A2968 RMK AO2 T00940078=
201811281953 METAR KCLM 281953Z AUTO 33003KT 10SM BKN009 09/08 A2969 RMK AO2 CIG 006V014 SLP055 T00890078=
201811281945 SPECI KCLM 281945Z AUTO VRB04KT 10SM OVC009 09/08 A2969 RMK AO2 CIG 006V014 T00890078=
201811281937 SPECI KCLM 281937Z AUTO 36004KT 10SM SCT007 OVC011 09/08 A2969 RMK AO2 T00940078=
201811281853 METAR KCLM 281853Z AUTO 00000KT 10SM BKN006 BKN009 OVC100 09/08 A2970 RMK AO2 CIG 003V007 SLP057 T00890078=
201811281846 SPECI KCLM 281846Z AUTO 00000KT 10SM BKN004 BKN075 OVC100 09/08 A2970 RMK AO2 CIG 003V008 T00890078=
201811281829 SPECI KCLM 281829Z AUTO 04005KT 10SM SCT004 OVC070 09/08 A2971 RMK AO2 T00890078=
201811281753 METAR KCLM 281753Z AUTO 00000KT 10SM OVC070 08/07 A2971 RMK AO2 SLP061 60004 T00830072 10083 20039 57005=
201811281653 METAR KCLM 281653Z AUTO 00000KT 10SM SCT048 OVC075 08/07 A2971 RMK AO2 RAE45 SLP062 P0002 T00780067=
201811281553 METAR KCLM 281553Z AUTO 00000KT 10SM -RA FEW037 SCT045 OVC055 07/06 A2972 RMK AO2 RAB1457 SLP066 P0002 T00670061=
201811281453 METAR KCLM 281453Z AUTO 23005KT 10SM OVC065 06/05 A2972 RMK AO2 SLP067 T00610050 56007=
201811281353 METAR KCLM 281353Z AUTO 00000KT 10SM SCT060 OVC100 05/04 A2973 RMK AO2 SLP067 T00500044=
201811281253 METAR KCLM 281253Z AUTO 19003KT 10SM CLR 04/04 A2974 RMK AO2 SLP072 T00440039=
201811281217 SPECI KCLM 281217Z AUTO 19004KT 3SM BR CLR 04/04 A2974 RMK AO2 T00440039=
201811281209 SPECI KCLM 281209Z AUTO 00000KT 1 3/4SM BR CLR 04/03 A2974 RMK AO2 T00390033=
201811281153 METAR KCLM 281153Z AUTO 00000KT 3SM BR CLR 04/03 A2974 RMK AO2 SLP074 60008 70033 T00440033 10083 20039 53002=
201811281053 METAR KCLM 281053Z AUTO 19003KT 10SM FEW060 06/05 A2974 RMK AO2 SLP072 T00610050=
201811280953 METAR KCLM 280953Z AUTO 20003KT 10SM SCT065 06/05 A2974 RMK AO2 SLP072 T00610050=
201811280853 METAR KCLM 280853Z AUTO 20006KT 10SM OVC060 08/06 A2974 RMK AO2 SLP071 60008 T00780061 51007=
201811280753 METAR KCLM 280753Z AUTO 12004KT 10SM BKN055 BKN065 07/06 A2973 RMK AO2 RAE36 SLP069 P0006 T00670061 401390056=
201811280653 METAR KCLM 280653Z AUTO 24004KT 10SM -RA OVC060 08/07 A2972 RMK AO2 RAB38 SLP066 P0002 T00780067=
201811280553 METAR KCLM 280553Z AUTO 23006KT 10SM BKN065 07/06 A2972 RMK AO2 SLP064 60010 T00720061 10111 20056 53013=
201811280453 METAR KCLM 280453Z AUTO 24004KT 6SM BR SCT048 SCT060 06/06 A2969 RMK AO2 SLP057 T00610056=
201811280353 METAR KCLM 280353Z AUTO 00000KT 10SM CLR 07/06 A2969 RMK AO2 RAB14E30 SLP054 P0000 T00670056=
201811280253 METAR KCLM 280253Z AUTO 30008KT 250V310 10SM FEW045 SCT080 08/07 A2968 RMK AO2 RAB03E50 SLP051 P0002 60010 T00830067 51010=
201811280153 METAR KCLM 280153Z AUTO 00000KT 10SM FEW011 BKN042 OVC120 09/08 A2966 RMK AO2 RAE52 SLP046 P0006 T00890083=
201811280132 SPECI KCLM 280132Z AUTO 30006KT 6SM -RA BR SCT007 BKN046 OVC090 09/08 A2967 RMK AO2 P0006 T00890083=
201811280110 SPECI KCLM 280110Z AUTO 29005KT 6SM -RA BR BKN007 BKN011 OVC055 09/08 A2968 RMK AO2 P0002 T00940083=
201811280108 SPECI KCLM 280108Z AUTO 30005KT 6SM -RA BR SCT007 SCT011 OVC055 09/08 A2968 RMK AO2 P0002 T00940083=
201811280053 METAR KCLM 280053Z AUTO 31009KT 7SM -RA BKN055 OVC065 09/08 A2967 RMK AO2 RAE02B32 SLP049 P0002 T00940083=
201811272353 METAR KCLM 272353Z AUTO 23005KT 10SM -RA OVC065 11/08 A2965 RMK AO2 RAE2258B47 SLP040 P0000 60002 T01060083 10139 20106 52000=
201811272253 METAR KCLM 272253Z AUTO 20005KT 10SM -RA FEW060 BKN090 OVC110 12/07 A2965 RMK AO2 LTG DSNT NW RAE2156B45 SLP039 P0002 T01170072=
201811272153 METAR KCLM 272153Z AUTO 14005KT 10SM -RA FEW033 SCT050 BKN070 13/09 A2965 RMK AO2 RAB40 SLP041 P0000 T01330094=
201811272053 METAR KCLM 272053Z AUTO 14005KT 10SM BKN065 13/09 A2965 RMK AO2 SLP040 T01330094 53004=
201811271953 METAR KCLM 271953Z AUTO VRB03KT 10SM CLR 13/08 A2964 RMK AO2 SLP037 T01280078=
201811271853 METAR KCLM 271853Z AUTO 25011KT 10SM FEW055 FEW070 13/09 A2964 RMK AO2 SLP037 T01280089=
201811271753 METAR KCLM 271753Z AUTO 23005KT 10SM FEW040 SCT055 OVC070 11/10 A2964 RMK AO2 SLP036 60013 T01110100 10117 20089 51021=
201811271653 METAR KCLM 271653Z AUTO 11003KT 10SM FEW050 OVC065 09/09 A2961 RMK AO2 RAE52 SLP029 P0002 T00940089=
201811271553 METAR KCLM 271553Z AUTO 28003KT 7SM -RA SCT049 OVC060 10/09 A2960 RMK AO2 RAE03B36 SLP024 P0000 T01000094=
201811271453 METAR KCLM 271453Z AUTO 00000KT 3SM -RA BR BKN060 BKN090 09/09 A2957 RMK AO2 RAE15B53 SLP015 P0002 60011 T00940089 51014=
201811271449 SPECI KCLM 271449Z AUTO 00000KT 2 1/2SM BR BKN060 BKN090 09/09 A2957 RMK AO2 RAE15 P0002=
201811271353 METAR KCLM 271353Z AUTO 21003KT 9SM -RA OVC060 10/10 A2956 RMK AO2 SLP011 P0004 T01000100=
201811271253 METAR KCLM 271253Z AUTO 00000KT 4SM -RA BR FEW013 BKN055 OVC065 10/09 A2953 RMK AO2 SLP001 P0005 T01000089=
201811271236 SPECI KCLM 271236Z AUTO 00000KT 7SM -RA SCT010 SCT050 OVC065 09/09 A2953 RMK AO2 P0003 T00940094=
201811271228 SPECI KCLM 271228Z AUTO 00000KT 7SM -RA SCT002 BKN014 OVC100 10/09 A2953 RMK AO2 P0003 T01000094=
201811271206 SPECI KCLM 271206Z AUTO 18003KT 3SM -RA BR BKN002 BKN046 OVC065 10/09 A2953 RMK AO2 P0002 T01000094=
201811271153 METAR KCLM 271153Z AUTO 30006KT 6SM -RA BR FEW002 SCT036 OVC065 10/09 A2952 RMK AO2 RAB1054E04B13 SLP997 P0005 60033 70144 T01000094 10100 20089 53016=
201811271135 SPECI KCLM 271135Z AUTO 00000KT 3SM -RA BR OVC060 09/09 A2951 RMK AO2 RAB1054E04B13 P0005 T00940089=
201811271127 SPECI KCLM 271127Z AUTO 30003KT 2SM -RA BR BKN046 OVC060 09/09 A2951 RMK AO2 RAB1054E04B13 P0004 T00940089=
201811271118 SPECI KCLM 271118Z AUTO 00000KT 1/2SM -RA FG BKN031 BKN060 OVC075 09/09 A2951 RMK AO2 RAB1054E04B13 P0002 T00890089=
201811271113 SPECI KCLM 271113Z AUTO 00000KT 1/4SM -RA FG BKN018 BKN060 OVC075 09/08 A2950 RMK AO2 RAB1054E04B13 P0000 T00890083=
201811271110 SPECI KCLM 271110Z AUTO 28004KT 1/4SM FG BKN005 BKN060 OVC075 09/08 A2950 RMK AO2 RAB1054E04 PRESRR P0000 T00890083=
201811271053 METAR KCLM 271053Z AUTO 00000KT 1/4SM FG BKN001 OVC065 09/09 A2948 RMK AO2 RAE04 SLP983 P0000 T00890089=
201811271049 SPECI KCLM 271049Z AUTO 00000KT 1/4SM FG BKN001 OVC065 09/09 A2948 RMK AO2 RAE04 P0000=
201811271041 SPECI KCLM 271041Z AUTO 08005KT 1/2SM FG BKN001 BKN065 09/09 A2948 RMK AO2 RAE04 P0000 T00890089=
201811271035 SPECI KCLM 271035Z AUTO VRB03KT 1SM BR SCT001 BKN065 09/09 A2948 RMK AO2 VIS 1/2V3 RAE04 P0000 T00940094=
201811271027 SPECI KCLM 271027Z AUTO 01006KT 2 1/2SM BR FEW001 SCT065 BKN110 09/09 A2948 RMK AO2 RAE04 P0000 T00940089=
201811270953 METAR KCLM 270953Z AUTO 12009KT 3SM -RA BR FEW050 BKN075 OVC100 09/09 A2947 RMK AO2 PRESFR SLP981 P0012 T00940089=
201811270945 SPECI KCLM 270945Z AUTO 14008KT 2SM -RA BR SCT033 OVC080 09/09 A2949 RMK AO2 P0012 T00940089=
201811270853 METAR KCLM 270853Z AUTO 00000KT 3/4SM -RA BR BKN060 OVC070 10/09 A2950 RMK AO2 SLP991 P0008 60016 T01000094 56028=
201811270815 SPECI KCLM 270815Z AUTO 34003KT 1 3/4SM -RA BR OVC070 10/09 A2951 RMK AO2 P0003 T01000094=
201811270753 METAR KCLM 270753Z AUTO 00000KT 3SM -RA BR OVC075 09/09 A2952 RMK AO2 SLP996 P0006 T00940094 401110056=
201811270653 METAR KCLM 270653Z AUTO 00000KT 4SM -RA BR OVC080 09/09 A2956 RMK AO2 SLP010 P0002 T00940089=
201811270606 SPECI KCLM 270606Z AUTO VRB03KT 6SM -RA BR SCT005 BKN036 OVC090 09/08 A2958 RMK AO2 P0000 T00890083=
201811270553 METAR KCLM 270553Z AUTO 00000KT 6SM -RA BR BKN003 OVC095 09/08 A2958 RMK AO2 RAB0454E17B51 SLP019 P0002 60012 T00890083 10106 20089 58020=
201811270541 SPECI KCLM 270541Z AUTO 04003KT 5SM BR OVC003 09/09 A2959 RMK AO2 RAB0454E17 P0000 T00890089=
201811270533 SPECI KCLM 270533Z AUTO 00000KT 2SM BR OVC004 09/08 A2959 RMK AO2 RAB0454E17 P0000 T00890083=
201811270512 SPECI KCLM 270512Z AUTO 00000KT 3/4SM -RA BR BKN004 OVC090 09/08 A2960 RMK AO2 VIS 1/2V5 RAB0454 P0000 T00890083=
201811270502 SPECI KCLM 270502Z AUTO 00000KT 2 1/2SM -RA BR BKN003 OVC085 09/08 A2961 RMK AO2 RAB0454 P0000 T00890083=
201811270453 METAR KCLM 270453Z AUTO 00000KT 1/2SM FG BKN002 OVC090 09/08 A2961 RMK AO2 RAE15 SLP029 P0000 T00890083=
201811270426 SPECI KCLM 270426Z AUTO 00000KT 3/4SM BR BKN002 OVC100 09/09 A2962 RMK AO2 RAE15 P0000 T00890089=
201811270415 SPECI KCLM 270415Z AUTO 32003KT 2 1/2SM BR BKN002 OVC090 09/09 A2962 RMK AO2 RAE15 P0000 T00890089=
201811270353 METAR KCLM 270353Z AUTO 00000KT 1SM -RA BR FEW009 OVC085 09/09 A2962 RMK AO2 SLP032 P0002 T00940089=
201811270337 SPECI KCLM 270337Z AUTO 00000KT 1/2SM -RA FG OVC085 09/09 A2963 RMK AO2 P0002 T00940089=
201811270328 SPECI KCLM 270328Z AUTO 34003KT 1 1/2SM -RA BR FEW013 OVC090 10/09 A2964 RMK AO2 P0000 T01000094=
201811270318 SPECI KCLM 270318Z AUTO 00000KT 3SM -RA BR OVC090 11/10 A2964 RMK AO2 P0000 T01060100=
201811270307 SPECI KCLM 270307Z AUTO 00000KT 1 3/4SM -RA BR BKN090 OVC110 10/10 A2964 RMK AO2 VIS 1V2 1/2 P0000 T01000100=
201811270253 METAR KCLM 270253Z AUTO 00000KT 3SM -RA BR OVC090 10/10 A2964 RMK AO2 RAE00B22 SLP039 P0002 60008 T01000100 58013=
201811270247 SPECI KCLM 270247Z AUTO 00000KT 3SM -RA BR OVC095 11/10 A2965 RMK AO2 RAE00B22 P0002=
201811270235 SPECI KCLM 270235Z AUTO 00000KT 1SM -RA BR FEW013 FEW060 OVC100 10/10 A2965 RMK AO2 RAE00B22 P0002 T01000100=
201811270227 SPECI KCLM 270227Z AUTO 00000KT 2 1/2SM -RA BR SCT013 BKN060 OVC095 10/10 A2965 RMK AO2 RAE00B22 P0000 T01000100=
201811270218 SPECI KCLM 270218Z AUTO 18004KT 4SM BR SCT014 BKN028 OVC060 11/10 A2965 RMK AO2 RAE00 P0000 T01060100=
201811270210 SPECI KCLM 270210Z AUTO 00000KT 2 1/2SM BR SCT014 SCT030 OVC060 11/10 A2966 RMK AO2 VIS 1 1/4V4 RAE00 P0000 T01060100=
201811270200 SPECI KCLM 270200Z AUTO 00000KT 4SM BR BKN055 BKN070 OVC080 11/10 A2966 RMK AO2 RAE00 P0000 T01060100=
201811270153 METAR KCLM 270153Z AUTO 14004KT 2 1/2SM -RA BR BKN060 OVC080 11/10 A2965 RMK AO2 VIS 1 1/2V5 SLP040 P0004 T01060100=
201811270138 SPECI KCLM 270138Z AUTO 00000KT 1SM -RA BR OVC085 10/10 A2967 RMK AO2 P0004 T01000100=
201811270126 SPECI KCLM 270126Z AUTO 15005KT 1/2SM -RA FG OVC090 10/10 A2967 RMK AO2 P0004 T01000100=
201811270119 SPECI KCLM 270119Z AUTO 15004KT 1/4SM -RA FG FEW030 OVC090 10/10 A2967 RMK AO2 P0002 T01000100=
201811270053 METAR KCLM 270053Z AUTO 00000KT 1/2SM -RA FG FEW037 OVC080 11/11 A2968 RMK AO2 SLP052 P0002 T01110106=
201811270050 SPECI KCLM 270050Z AUTO 00000KT 1/2SM -RA FG FEW040 OVC080 11/11 A2968 RMK AO2 P0002=
201811270040 SPECI KCLM 270040Z AUTO 00000KT 1 1/2SM -RA BR OVC080 11/11 A2969 RMK AO2 P0002 T01110106=
201811270035 SPECI KCLM 270035Z AUTO 00000KT 3SM -RA BR OVC080 11/11 A2969 RMK AO2 P0002 T01110106=
201811270018 SPECI KCLM 270018Z AUTO 00000KT 1 3/4SM -RA BR OVC080 11/11 A2969 RMK AO2 P0000 T01110106=
201811262353 METAR KCLM 262353Z AUTO 00000KT 4SM -RA BR FEW065 OVC080 11/11 A2970 RMK AO2 SLP059 P0005 60073 T01110106 10111 20089 58003=
201811262304 SPECI KCLM 262304Z AUTO 00000KT 3SM -RA BR SCT014 BKN050 OVC080 11/11 A2971 RMK AO2 P0000 T01060106=
201811262300 SPECI KCLM 262300Z AUTO 00000KT 2SM -RA BR BKN014 BKN050 OVC080 11/11 A2971 RMK AO2 P0000 T01110106=
201811262253 METAR KCLM 262253Z AUTO 00000KT 1 3/4SM -RA BR FEW010 BKN015 OVC085 11/11 A2971 RMK AO2 SLP062 P0011 T01110106=
201811262249 SPECI KCLM 262249Z AUTO 00000KT 2 1/2SM -RA BR SCT010 BKN015 OVC075 11/10 A2972 RMK AO2 P0009=
201811262239 SPECI KCLM 262239Z AUTO 25003KT 2SM -RA BR BKN013 OVC017 11/10 A2972 RMK AO2 P0008 T01110100=
201811262153 METAR KCLM 262153Z AUTO 00000KT 5SM -RA BR BKN011 BKN017 OVC065 11/10 A2971 RMK AO2 SLP062 P0009 T01060100=
201811262137 SPECI KCLM 262137Z AUTO 00000KT 5SM -RA BR BKN014 BKN065 OVC085 10/09 A2972 RMK AO2 P0007 T01000094=
201811262053 METAR KCLM 262053Z AUTO 26004KT 3SM -RA BR FEW065 OVC085 10/09 A2973 RMK AO2 SLP068 P0016 60048 T01000094 50000=
201811261953 METAR KCLM 261953Z AUTO VRB03KT 4SM -RA BR FEW007 BKN070 OVC090 10/09 A2974 RMK AO2 SLP072 P0014 T01000089=
201811261939 SPECI KCLM 261939Z AUTO 26005KT 3SM -RA BR FEW007 OVC075 09/08 A2975 RMK AO2 P0012 T00940083=
201811261932 SPECI KCLM 261932Z AUTO 26004KT 2 1/2SM -RA BR SCT007 BKN075 OVC095 09/08 A2975 RMK AO2 P0010 T00940083=
201811261910 SPECI KCLM 261910Z AUTO 21006KT 3SM -RA BR SCT007 OVC075 09/08 A2975 RMK AO2 P0006 T00940083=
201811261902 SPECI KCLM 261902Z AUTO 21004KT 2 1/2SM -RA BR FEW009 OVC075 09/08 A2974 RMK AO2 P0004 T00940083=
201811261853 METAR KCLM 261853Z AUTO 21005KT 2 1/2SM -RA BR BKN070 OVC085 09/08 A2975 RMK AO2 SLP076 P0018 T00890083=
201811261843 SPECI KCLM 261843Z AUTO 24006KT 2SM RA BR FEW004 BKN075 OVC090 09/08 A2975 RMK AO2 P0014 T00890083=
201811261826 SPECI KCLM 261826Z AUTO 25008KT 3SM -RA BR SCT004 BKN080 OVC090 09/08 A2974 RMK AO2 P0008 T00890083=
201811261815 SPECI KCLM 261815Z AUTO 31006KT 2 1/2SM -RA BR BKN004 BKN080 OVC090 09/08 A2974 RMK AO2 P0004 T00890083=
201811261805 SPECI KCLM 261805Z AUTO 28006KT 4SM -RA BR FEW004 SCT065 OVC085 09/08 A2974 RMK AO2 P0002 T00890083=
201811261753 METAR KCLM 261753Z AUTO 28007KT 4SM -RA BR FEW065 OVC085 09/08 A2973 RMK AO2 RAE05B27 SLP069 P0004 60026 T00890083 10089 20067 55009=
201811261653 METAR KCLM 261653Z AUTO 00000KT 8SM -RA FEW004 BKN075 OVC090 08/07 A2973 RMK AO2 SLP069 P0000 T00780072=
201811261553 METAR KCLM 261553Z AUTO 00000KT 8SM -RA FEW009 BKN075 OVC100 07/07 A2976 RMK AO2 SLP079 P0002 T00720067=
201811261551 SPECI KCLM 261551Z AUTO 00000KT 9SM -RA FEW009 BKN075 OVC100 07/07 A2976 RMK AO2 P0000=
201811261453 METAR KCLM 261453Z AUTO 00000KT 6SM -RA BR BKN070 OVC095 07/07 A2980 RMK AO2 SLP091 P0006 60020 T00720067 56024 TSNO=
201811261353 METAR KCLM 261353Z AUTO 23007KT 7SM -RA BKN070 OVC100 07/06 A2982 RMK AO2 SLP101 P0008 T00670061 TSNO=
201811261253 METAR KCLM 261253Z AUTO 00000KT 6SM -RA BR OVC090 07/06 A2983 RMK AO2 SLP104 P0006 T00670061=
201811261153 METAR KCLM 261153Z AUTO 00000KT 8SM -RA SCT070 OVC085 07/06 A2987 RMK AO2 SLP116 P0004 60004 70004 T00670056 10072 20056 58027=
201811261053 METAR KCLM 261053Z AUTO 00000KT 10SM -RA OVC080 07/06 A2991 RMK AO2 RAB19 SLP130 P0000 T00670056=
201811260953 METAR KCLM 260953Z AUTO 25003KT 10SM BKN070 06/05 A2993 RMK AO2 SLP137 T00610050=
201811260853 METAR KCLM 260853Z AUTO 00000KT 10SM SCT070 06/05 A2995 RMK AO2 SLP143 T00610050 58024=
201811260753 METAR KCLM 260753Z AUTO 00000KT 10SM SCT070 07/05 A2999 RMK AO2 SLP156 T00670050 400720022=
201811260653 METAR KCLM 260653Z AUTO 00000KT 10SM BKN060 06/05 A3000 RMK AO2 SLP160 T00610050=
201811260553 METAR KCLM 260553Z AUTO 22004KT 10SM FEW010 SCT017 OVC110 07/05 A3002 RMK AO2 SLP168 T00670050 10072 20061 57016=
201811260453 METAR KCLM 260453Z AUTO 22004KT 10SM OVC100 07/05 A3004 RMK AO2 SLP174 T00670050=
201811260353 METAR KCLM 260353Z AUTO 00000KT 10SM OVC100 07/05 A3005 RMK AO2 SLP177 T00670050=
201811260253 METAR KCLM 260253Z AUTO 13003KT 10SM OVC085 06/05 A3007 RMK AO2 SLP183 T00610050 58010=
201811260153 METAR KCLM 260153Z AUTO 24004KT 10SM SCT013 BKN095 OVC110 07/05 A3009 RMK AO2 SLP191 T00670050=
201811260053 METAR KCLM 260053Z AUTO 20003KT 10SM BKN014 BKN085 BKN120 06/04 A3009 RMK AO2 SLP193 T00610044=
201811252353 METAR KCLM 252353Z AUTO 11003KT 10SM BKN080 OVC095 07/04 A3010 RMK AO2 SLP194 60000 T00720044 10072 20067 58004=
201811252253 METAR KCLM 252253Z AUTO 25003KT 10SM SCT055 BKN070 OVC090 07/05 A3011 RMK AO2 SLP197 T00720050=
201811252153 METAR KCLM 252153Z AUTO 27005KT 10SM SCT013 OVC080 07/05 A3011 RMK AO2 RAB20E41 SLP197 P0000 T00720050=
201811252053 METAR KCLM 252053Z AUTO 27006KT 10SM BKN011 BKN080 OVC120 07/05 A3011 RMK AO2 SLP197 T00720050 56005=
201811252045 SPECI KCLM 252045Z AUTO 28005KT 10SM SCT011 SCT080 OVC110 07/05 A3010 RMK AO2 T00670050=
201811251953 METAR KCLM 251953Z AUTO 29004KT 10SM OVC010 07/04 A3011 RMK AO2 SLP199 T00670044=
201811251944 SPECI KCLM 251944Z AUTO 30004KT 10SM OVC010 07/04 A3012 RMK AO2 CIG 008V014 T00670044=
201811251918 SPECI KCLM 251918Z AUTO 00000KT 10SM OVC009 07/04 A3011 RMK AO2 T00670044=
201811251900 SPECI KCLM 251900Z AUTO 06003KT 10SM OVC010 07/04 A3012 RMK AO2 CIG 008V013 T00670044=
201811251853 METAR KCLM 251853Z AUTO VRB04KT 10SM BKN009 OVC014 07/04 A3012 RMK AO2 CIG 008V013 SLP200 T00670044=
201811251753 METAR KCLM 251753Z AUTO 07003KT 10SM OVC009 07/05 A3012 RMK AO2 CIG 006V011 SLP202 T00670050 10067 20028 52001=
201811251705 SPECI KCLM 251705Z AUTO 00000KT 10SM BKN009 OVC095 06/04 A3012 RMK AO2 T00560044=
201811251653 METAR KCLM 251653Z AUTO 00000KT 10SM SCT009 OVC095 05/04 A3012 RMK AO2 SLP202 T00500044=
201811251619 SPECI KCLM 251619Z AUTO 00000KT 10SM FEW008 BKN100 04/03 A3011 RMK AO2 T00440033=
201811251553 METAR KCLM 251553Z AUTO 23003KT 9SM BKN008 OVC110 04/03 A3012 RMK AO2 CIG 006V011 SLP201 T00390033=
201811251544 SPECI KCLM 251544Z AUTO 00000KT 10SM BKN010 OVC110 03/03 A3012 RMK AO2 CIG 006V011 T00330028=
201811251453 METAR KCLM 251453Z AUTO 15004KT 10SM OVC110 03/03 A3013 RMK AO2 SLP206 T00330028 58004=
201811251439 SPECI KCLM 251439Z AUTO 00000KT 10SM SCT007 OVC110 03/03 A3014 RMK AO2 T00330028=
201811251417 SPECI KCLM 251417Z AUTO 00000KT 10SM BKN007 BKN110 03/03 A3014 RMK AO2 T00330028=
201811251409 SPECI KCLM 251409Z AUTO 00000KT 10SM SCT006 04/03 A3014 RMK AO2 T00390033=
201811251353 METAR KCLM 251353Z AUTO 00000KT 9SM CLR 03/02 A3014 RMK AO2 SLP208 T00330022=
201811251253 METAR KCLM 251253Z AUTO 00000KT 10SM SCT075 BKN100 04/04 A3014 RMK AO2 SLP210 T00440039=
201811251212 SPECI KCLM 251212Z AUTO 21003KT 10SM SCT011 OVC100 06/04 A3014 RMK AO2 T00560044=
201811251153 METAR KCLM 251153Z AUTO 19005KT 10SM OVC011 04/04 A3014 RMK AO2 SLP210 T00440039 10050 20022 56011=
201811251053 METAR KCLM 251053Z AUTO 00000KT 10SM OVC008 03/03 A3016 RMK AO2 SLP215 T00330028=
201811251029 SPECI KCLM 251029Z AUTO 15004KT 8SM BKN007 03/02 A3016 RMK AO2 T00280017=
201811251011 SPECI KCLM 251011Z AUTO 00000KT 10SM FEW008 03/03 A3016 RMK AO2 T00330028=
201811250953 METAR KCLM 250953Z AUTO 00000KT 10SM BKN110 03/03 A3016 RMK AO2 SLP215 T00330028=
201811250935 SPECI KCLM 250935Z AUTO 12003KT 10SM SCT009 OVC110 04/03 A3016 RMK AO2 T00390028=
201811250917 SPECI KCLM 250917Z AUTO 00000KT 10SM BKN008 OVC110 03/02 A3017 RMK AO2 T00330022=
201811250903 SPECI KCLM 250903Z AUTO 00000KT 10SM SCT008 BKN110 03/02 A3017 RMK AO2 T00330022=
201811250853 METAR KCLM 250853Z AUTO 24003KT 10SM SCT110 03/02 A3018 RMK AO2 SLP221 T00280017 53001=
201811250753 METAR KCLM 250753Z AUTO 00000KT 10SM FEW120 04/03 A3017 RMK AO2 SLP217 T00390028 400940011=
201811250653 METAR KCLM 250653Z AUTO 13003KT 10SM SCT110 04/03 A3016 RMK AO2 SLP216 T00390033=
201811250553 METAR KCLM 250553Z AUTO 22004KT 10SM FEW080 SCT100 04/03 A3018 RMK AO2 SLP220 T00440028 10078 20033 53003=
201811250453 METAR KCLM 250453Z AUTO 00000KT 10SM OVC100 04/04 A3017 RMK AO2 SLP220 T00440039=
201811250353 METAR KCLM 250353Z AUTO 23003KT 10SM FEW095 04/04 A3017 RMK AO2 SLP218 T00440039=
201811250253 METAR KCLM 250253Z AUTO 00000KT 10SM BKN100 05/04 A3017 RMK AO2 SLP217 T00500039 50004=
201811250153 METAR KCLM 250153Z AUTO 25004KT 10SM BKN100 06/04 A3017 RMK AO2 SLP218 T00560044=
201811250053 METAR KCLM 250053Z AUTO 23003KT 10SM SCT038 BKN110 07/04 A3016 RMK AO2 SLP216 T00670044=
201811242353 METAR KCLM 242353Z AUTO 00000KT 10SM OVC110 08/04 A3015 RMK AO2 SLP213 T00780044 10094 20067 51007=
201811242253 METAR KCLM 242253Z AUTO 00000KT 10SM FEW120 08/04 A3015 RMK AO2 SLP211 T00780039=
201811242153 METAR KCLM 242153Z AUTO 00000KT 10SM CLR 08/03 A3014 RMK AO2 SLP209 T00830033=
201811242053 METAR KCLM 242053Z AUTO 00000KT 10SM CLR 09/03 A3013 RMK AO2 SLP206 T00890033 58000=
201811241953 METAR KCLM 241953Z AUTO 00000KT 10SM CLR 08/03 A3014 RMK AO2 SLP207 T00830033=
201811241853 METAR KCLM 241853Z AUTO 25005KT 10SM CLR 08/02 A3014 RMK AO2 SLP209 T00780022=
201811241753 METAR KCLM 241753Z AUTO 23006KT 10SM FEW039 07/02 A3013 RMK AO2 SLP206 T00670022 10067 20011 53021=
201811241653 METAR KCLM 241653Z AUTO 24006KT 10SM SCT040 05/02 A3011 RMK AO2 SLP199 T00500017=
201811241553 METAR KCLM 241553Z AUTO 23008KT 10SM CLR 03/01 A3009 RMK AO2 SLP192 T00280006=
201811241453 METAR KCLM 241453Z AUTO 24008KT 10SM CLR 03/01 A3007 RMK AO2 SLP185 T00330011 51022=
201811241353 METAR KCLM 241353Z AUTO 00000KT 10SM CLR 03/01 A3005 RMK AO2 SLP178 T00280006=
201811241253 METAR KCLM 241253Z AUTO 23007KT 10SM FEW040 04/01 A3004 RMK AO2 SLP173 T00390011=
201811241153 METAR KCLM 241153Z AUTO 24006KT 10SM CLR 03/01 A3001 RMK AO2 SLP163 60000 70020 T00330011 10067 20033 51023=
201811241053 METAR KCLM 241053Z AUTO 23006KT 10SM SCT040 04/01 A2999 RMK AO2 SLP157 T00440011=
201811240953 METAR KCLM 240953Z AUTO 26009KT 10SM OVC042 06/02 A2996 RMK AO2 SLP148 T00610022=
201811240853 METAR KCLM 240853Z AUTO 25011KT 10SM OVC042 06/02 A2994 RMK AO2 RAB43E53 SLP140 P0000 60000 T00560022 53036=
201811240753 METAR KCLM 240753Z AUTO 25010KT 10SM OVC045 07/02 A2990 RMK AO2 SLP127 T00670022 400890050=
201811240653 METAR KCLM 240653Z AUTO 26009KT 10SM OVC037 06/03 A2986 RMK AO2 RAB0554E04 SLP113 P0000 T00610028=
201811240553 METAR KCLM 240553Z AUTO 26010KT 10SM FEW037 OVC048 07/03 A2983 RMK AO2 RAB02E26 SLP103 P0000 60000 T00670028 10078 20056 53027=
201811240453 METAR KCLM 240453Z AUTO 29008KT 10SM OVC043 06/03 A2980 RMK AO2 SLP092 T00610028=
201811240353 METAR KCLM 240353Z AUTO 24010KT 10SM SCT043 BKN080 07/02 A2977 RMK AO2 SLP084 T00670022=
201811240253 METAR KCLM 240253Z AUTO 28008KT 10SM BKN100 06/02 A2975 RMK AO2 SLP076 T00610022 53027=
201811240153 METAR KCLM 240153Z AUTO 25009KT 10SM SCT070 BKN095 BKN110 07/03 A2972 RMK AO2 SLP065 T00670028=
201811240053 METAR KCLM 240053Z AUTO 26008KT 10SM CLR 06/03 A2969 RMK AO2 SLP057 T00610028=
201811232353 METAR KCLM 232353Z AUTO 26010KT 10SM BKN100 07/03 A2967 RMK AO2 SLP049 60008 T00720028 10089 20067 53012=
201811232253 METAR KCLM 232253Z AUTO 24007KT 10SM FEW034 SCT049 SCT070 07/05 A2965 RMK AO2 PK WND 30026/2210 RAB31E49 SLP042 P0000 T00720050=
201811232153 METAR KCLM 232153Z AUTO 27010KT 10SM BKN050 09/03 A2964 RMK AO2 RAB19E28 SLP039 P0002 T00890033=
201811232053 METAR KCLM 232053Z AUTO 26007KT 10SM BKN050 BKN070 08/06 A2963 RMK AO2 SLP037 60006 T00830056 58005=
201811232035 SPECI KCLM 232035Z AUTO 28008KT 10SM SCT013 BKN070 OVC085 07/05 A2964 RMK AO2 T00720050=
201811232011 SPECI KCLM 232011Z AUTO 28007KT 10SM BKN014 BKN027 BKN100 08/05 A2965 RMK AO2 T00780050=
201811231953 METAR KCLM 231953Z AUTO 27007KT 10SM FEW027 FEW050 SCT100 08/06 A2965 RMK AO2 RAE06 SLP041 P0000 T00780056=
201811231853 METAR KCLM 231853Z AUTO 22010KT 180V250 5SM -RA OVC033 07/04 A2965 RMK AO2 SLP041 P0006 T00670039=
201811231753 METAR KCLM 231753Z AUTO 21004KT 10SM -RA SCT008 BKN050 OVC070 07/05 A2965 RMK AO2 RAB05E16B51 SLP041 P0002 60012 T00670050 10072 20050 53002=
201811231738 SPECI KCLM 231738Z AUTO 26004KT 10SM FEW009 BKN070 OVC085 07/05 A2964 RMK AO2 RAB05E16 P0000 T00670050=
201811231653 METAR KCLM 231653Z AUTO 10005KT 10SM BKN044 BKN070 OVC090 06/06 A2964 RMK AO2 RAB25E44 SLP039 P0002 T00610056=
201811231553 METAR KCLM 231553Z AUTO 23003KT 10SM SCT039 SCT100 06/04 A2964 RMK AO2 RAE45 SLP038 P0004 T00560044=
201811231453 METAR KCLM 231453Z AUTO 28007KT 10SM -RA FEW014 OVC040 07/06 A2964 RMK AO2 RAB09 SLP039 P0004 60004 T00670056 58001=
201811231353 METAR KCLM 231353Z AUTO 24004KT 10SM BKN050 BKN065 OVC085 06/05 A2964 RMK AO2 RAE46 SLP039 P0000 T00610050=
201811231253 METAR KCLM 231253Z AUTO 23004KT 10SM -RA OVC055 06/05 A2965 RMK AO2 RAB33 SLP041 P0000 T00610050=
201811231153 METAR KCLM 231153Z AUTO 21003KT 10SM BKN060 06/05 A2964 RMK AO2 SLP040 60016 70022 T00610050 10078 20044 58000=
201811231053 METAR KCLM 231053Z AUTO VRB03KT 10SM SCT060 06/04 A2966 RMK AO2 SLP044 T00610039=
201811230953 METAR KCLM 230953Z AUTO 23007KT 10SM BKN110 07/04 A2964 RMK AO2 RAB0856E13 SLP039 P0000 T00670044=
201811230853 METAR KCLM 230853Z AUTO 16004KT 10SM FEW033 SCT065 OVC100 06/05 A2964 RMK AO2 RAB0758E38 SLP040 P0008 60016 T00610050 51013=
201811230753 METAR KCLM 230753Z AUTO 29008KT 10SM FEW060 FEW080 06/04 A2964 RMK AO2 RAE0657 SLP037 P0000 T00560044 400890033=
201811230653 METAR KCLM 230653Z AUTO 19003KT 10SM -RA BKN041 07/04 A2962 RMK AO2 RAB18 SLP031 P0008 T00670044=
201811230553 METAR KCLM 230553Z AUTO 36003KT 10SM FEW060 06/04 A2961 RMK AO2 SLP027 60000 T00560044 10083 20033 53019=
201811230453 METAR KCLM 230453Z AUTO 00000KT 10SM FEW080 FEW110 05/04 A2958 RMK AO2 SLP019 T00500039=
201811230416 SPECI KCLM 230416Z AUTO 00000KT 3SM BR FEW001 FEW120 04/04 A2957 RMK AO2 T00440039=
201811230401 SPECI KCLM 230401Z AUTO 00000KT 1 3/4SM BR FEW002 04/03 A2957 RMK AO2 T00390033=
201811230353 METAR KCLM 230353Z AUTO 00000KT 4SM BR CLR 05/04 A2956 RMK AO2 SLP012 T00500039=
201811230253 METAR KCLM 230253Z AUTO 24005KT 10SM SCT110 07/04 A2955 RMK AO2 SLP008 60000 T00720044 51026=
201811230153 METAR KCLM 230153Z AUTO 00000KT 9SM BKN075 BKN095 BKN110 07/06 A2953 RMK AO2 RAE0057B14E31 SLP003 P0000 T00670061=
201811230053 METAR KCLM 230053Z AUTO 22005KT 10SM -RA BKN060 OVC075 07/06 A2951 RMK AO2 RAB36 SLP995 P0000 T00720061=
201811222353 METAR KCLM 222353Z AUTO 18003KT 10SM BKN100 08/07 A2947 RMK AO2 RAE15 SLP980 P0000 60006 T00830067 10089 20078 53013=
201811222253 METAR KCLM 222253Z AUTO 00000KT 10SM -RA FEW024 BKN060 OVC070 08/08 A2945 RMK AO2 SLP971 P0006 T00830078=
201811222248 SPECI KCLM 222248Z AUTO 27003KT 9SM -RA FEW016 BKN055 OVC070 08/08 A2944 RMK AO2 P0006=
201811222231 SPECI KCLM 222231Z AUTO 29007KT 3SM -RA BR SCT007 BKN018 OVC045 08/08 A2945 RMK AO2 P0004 T00830078=
201811222220 SPECI KCLM 222220Z AUTO 29008KT 5SM -RA BR BKN007 BKN018 OVC060 08/08 A2945 RMK AO2 P0002 T00830078=
201811222214 SPECI KCLM 222214Z AUTO 29009KT 8SM -RA SCT007 BKN048 OVC060 09/08 A2945 RMK AO2 P0000 T00890078=
201811222153 METAR KCLM 222153Z AUTO 25004KT 10SM -RA OVC055 09/07 A2943 RMK AO2 RAB50 SLP967 P0000 T00890072=
201811222134 SPECI KCLM 222134Z AUTO 27005KT 10SM SCT005 OVC055 08/08 A2943 RMK AO2 T00830078=
201811222112 SPECI KCLM 222112Z AUTO 00000KT 10SM BKN005 OVC060 08/08 A2943 RMK AO2 T00830078=
201811222102 SPECI KCLM 222102Z AUTO 00000KT 10SM SCT005 OVC060 08/07 A2943 RMK AO2 T00830072=
201811222053 METAR KCLM 222053Z AUTO 00000KT 10SM OVC060 09/08 A2943 RMK AO2 RAE00 SLP966 P0000 60000 T00890078 58040=
201811222033 SPECI KCLM 222033Z AUTO 11003KT 10SM FEW005 OVC060 08/08 A2944 RMK AO2 RAE00 P0000 T00830078=
201811221953 METAR KCLM 221953Z AUTO 00000KT 9SM -RA OVC006 08/07 A2947 RMK AO2 RAB45 SLP979 P0000 T00830072=
201811221909 SPECI KCLM 221909Z AUTO 00000KT 10SM OVC005 08/08 A2950 RMK AO2 T00830078=
201811221853 METAR KCLM 221853Z AUTO 00000KT 10SM OVC004 08/07 A2951 RMK AO2 CIG 002V008 SLP993 T00830072=
201811221753 METAR KCLM 221753Z AUTO 00000KT 7SM OVC003 08/07 A2955 RMK AO2 SLP006 T00780072 10078 20033 58020=
201811221719 SPECI KCLM 221719Z AUTO 00000KT 10SM OVC004 07/07 A2956 RMK AO2 T00720067=
201811221653 METAR KCLM 221653Z AUTO 00000KT 9SM BKN007 BKN019 06/06 A2957 RMK AO2 SLP015 T00610061=
201811221639 SPECI KCLM 221639Z AUTO 17003KT 6SM BR BKN007 BKN024 06/05 A2958 RMK AO2 T00560050=
201811221632 SPECI KCLM 221632Z AUTO 00000KT 4SM BR FEW001 SCT007 BKN024 06/05 A2958 RMK AO2 T00560050=
201811221629 SPECI KCLM 221629Z AUTO 00000KT 1SM BR FEW001 SCT007 BKN024 06/05 A2959 RMK AO2 T00560050=
201811221619 SPECI KCLM 221619Z AUTO 00000KT 1/4SM FG FEW001 BKN024 05/04 A2959 RMK AO2 T00500044=
201811221553 METAR KCLM 221553Z AUTO 21003KT 1/4SM FG VV001 04/03 A2959 RMK AO2 SLP023 T00440033=
201811221532 SPECI KCLM 221532Z AUTO 00000KT 1/4SM FG VV001 04/04 A2960 RMK AO2 T00440039=
201811221524 SPECI KCLM 221524Z AUTO 00000KT 1/2SM FG SCT001 BKN027 04/04 A2960 RMK AO2 T00440039=
201811221518 SPECI KCLM 221518Z AUTO 16003KT 1/4SM FG BKN001 BKN028 05/04 A2960 RMK AO2 T00500039=
201811221511 SPECI KCLM 221511Z AUTO 00000KT 1/4SM FG SCT001 BKN028 05/04 A2960 RMK AO2 T00500044=
201811221504 SPECI KCLM 221504Z AUTO 05003KT 1/2SM FG FEW002 BKN028 04/04 A2960 RMK AO2 T00440044=
201811221453 METAR KCLM 221453Z AUTO 15004KT 1 1/4SM BR FEW002 SCT030 06/05 A2961 RMK AO2 VIS 1/2V4 SLP027 T00560050 50003=
201811221430 SPECI KCLM 221430Z AUTO 00000KT 1/2SM FG FEW001 BKN060 06/05 A2961 RMK AO2 T00560050=
201811221421 SPECI KCLM 221421Z AUTO 00000KT 3/4SM BR BKN060 06/04 A2961 RMK AO2 T00560044=
201811221410 SPECI KCLM 221410Z AUTO 00000KT 1 3/4SM BR BKN060 06/06 A2961 RMK AO2 T00610061=
201811221353 METAR KCLM 221353Z AUTO 17005KT 7SM BKN055 06/05 A2961 RMK AO2 SLP029 T00610050=
201811221320 SPECI KCLM 221320Z AUTO 00000KT 2 1/2SM BR FEW001 FEW025 BKN060 06/06 A2961 RMK AO2 T00610056=
201811221253 METAR KCLM 221253Z AUTO 00000KT 5SM BR FEW016 BKN060 07/06 A2961 RMK AO2 SLP026 T00720061=
201811221153 METAR KCLM 221153Z AUTO 24006KT 10SM BKN050 OVC060 08/07 A2960 RMK AO2 SLP023 60035 70047 T00780067 10083 20072 58003=
201811221053 METAR KCLM 221053Z AUTO 26003KT 10SM BKN060 OVC075 08/07 A2961 RMK AO2 RAE53 SLP026 P0004 T00780067=
201811221007 SPECI KCLM 221007Z AUTO 29003KT 3SM -RA BR FEW001 BKN041 OVC055 08/07 A2961 RMK AO2 P0000 T00780072=
201811221003 SPECI KCLM 221003Z AUTO 28003KT 1 3/4SM -RA BR FEW001 BKN039 OVC055 08/07 A2961 RMK AO2 VIS 1 1/4V3 P0000 T00780072=
201811220953 METAR KCLM 220953Z AUTO 00000KT 3/4SM -RA BR SCT001 OVC039 08/07 A2961 RMK AO2 SLP027 P0004 T00780072=
201811220951 SPECI KCLM 220951Z AUTO 00000KT 3/4SM -RA BR SCT001 SCT021 OVC037 08/08 A2961 RMK AO2 P0004=
201811220944 SPECI KCLM 220944Z AUTO 00000KT 3/4SM -RA BR BKN001 BKN021 OVC055 08/08 A2961 RMK AO2 P0002 T00830078=
201811220938 SPECI KCLM 220938Z AUTO 00000KT 1SM -RA BR BKN002 OVC022 08/08 A2961 RMK AO2 P0002 T00780078=
201811220915 SPECI KCLM 220915Z AUTO 00000KT 3/4SM -RA BR VV003 08/08 A2961 RMK AO2 P0000 T00830078=
201811220853 METAR KCLM 220853Z AUTO 00000KT 1 3/4SM -RA BR OVC002 08/08 A2962 RMK AO2 SLP029 P0002 60027 T00830078 56015=
201811220818 SPECI KCLM 220818Z AUTO 00000KT 4SM -RA BR OVC002 08/08 A2962 RMK AO2 P0002 T00830078=
201811220810 SPECI KCLM 220810Z AUTO 00000KT 2 1/2SM -RA BR BKN002 OVC047 08/07 A2962 RMK AO2 P0002 T00780072=
201811220803 SPECI KCLM 220803Z AUTO 00000KT 1 3/4SM -RA BR BKN003 BKN024 OVC047 08/08 A2963 RMK AO2 P0000 T00780078=
201811220758 SPECI KCLM 220758Z AUTO 00000KT 1 3/4SM -RA BR SCT003 SCT024 OVC047 08/07 A2963 RMK AO2 P0000 T00780072=
201811220753 METAR KCLM 220753Z AUTO 00000KT 2 1/2SM -RA BR FEW025 OVC047 08/07 A2963 RMK AO2 SLP033 P0014 T00780072 401110044=
201811220742 SPECI KCLM 220742Z AUTO 00000KT 2SM -RA BR FEW004 SCT023 OVC047 08/08 A2963 RMK AO2 P0012 T00780078=
201811220734 SPECI KCLM 220734Z AUTO 00000KT 2 1/2SM -RA BR FEW004 BKN024 OVC047 08/08 A2963 RMK AO2 P0010 T00780078=
201811220724 SPECI KCLM 220724Z AUTO 00000KT 2 1/2SM -RA BR SCT004 BKN012 OVC045 08/08 A2963 RMK AO2 P0008 T00780078=
201811220710 SPECI KCLM 220710Z AUTO 28003KT 2SM -RA BR SCT002 BKN043 OVC050 08/07 A2963 RMK AO2 P0004 T00780072=
201811220653 METAR KCLM 220653Z AUTO 28003KT 1 3/4SM -RA BR SCT004 OVC050 08/07 A2964 RMK AO2 SLP036 P0011 T00780072=
201811220621 SPECI KCLM 220621Z AUTO 00000KT 2SM -RA BR SCT006 OVC047 08/07 A2965 RMK AO2 P0007 T00830072=
201811220612 SPECI KCLM 220612Z AUTO 00000KT 1 1/2SM RA BR BKN005 OVC040 08/08 A2965 RMK AO2 P0005 T00830078=
201811220601 SPECI KCLM 220601Z AUTO 00000KT 2 1/2SM -RA BR OVC005 08/08 A2966 RMK AO2 P0001 T00830078=
201811220553 METAR KCLM 220553Z AUTO 22004KT 4SM -RA BR OVC004 08/08 A2966 RMK AO2 SLP044 P0004 60004 T00830078 10100 20072 56010=
201811220509 SPECI KCLM 220509Z AUTO 00000KT 3SM -RA BR BKN004 BKN020 OVC065 08/07 A2966 RMK AO2 P0002 T00780072=
201811220457 SPECI KCLM 220457Z AUTO 00000KT 2 1/2SM -RA BR FEW004 BKN019 OVC065 07/07 A2966 RMK AO2 P0000 T00720067=
201811220453 METAR KCLM 220453Z AUTO 00000KT 3SM -RA BR BKN019 BKN033 OVC065 07/07 A2966 RMK AO2 RAB46 SLP046 P0000 T00720072=
201811220448 SPECI KCLM 220448Z AUTO 00000KT 3SM -RA BR BKN019 BKN037 OVC070 08/07 A2966 RMK AO2 RAB46 P0000=
201811220436 SPECI KCLM 220436Z AUTO 00000KT 1 1/2SM BR BKN019 BKN065 OVC100 07/07 A2967 RMK AO2 T00720067=
201811220430 SPECI KCLM 220430Z AUTO 00000KT 2SM BR FEW001 BKN065 OVC100 07/07 A2967 RMK AO2 T00720067=
201811220422 SPECI KCLM 220422Z AUTO 00000KT 1 1/2SM BR FEW002 BKN070 OVC095 08/07 A2967 RMK AO2 T00780072=
201811220353 METAR KCLM 220353Z AUTO 00000KT 3/4SM BR FEW005 BKN065 OVC080 08/07 A2968 RMK AO2 SLP052 T00780072=
201811220317 SPECI KCLM 220317Z AUTO 20003KT 1/2SM FG FEW008 SCT022 OVC070 08/07 A2968 RMK AO2 T00830072=
201811220312 SPECI KCLM 220312Z AUTO 15003KT 1/2SM FG FEW002 BKN008 OVC085 08/07 A2968 RMK AO2 T00830072=
201811220300 SPECI KCLM 220300Z AUTO 00000KT 1SM BR BKN008 OVC070 08/08 A2969 RMK AO2 T00830078=
201811220253 METAR KCLM 220253Z AUTO 00000KT 2SM BR OVC008 08/08 A2969 RMK AO2 SLP055 60000 T00830078 58003=
201811220245 SPECI KCLM 220245Z AUTO 19003KT 4SM BR OVC008 08/08 A2969 RMK AO2 T00830083=
201811220236 SPECI KCLM 220236Z AUTO 00000KT 2SM BR OVC007 09/08 A2969 RMK AO2 T00890083=
201811220217 SPECI KCLM 220217Z AUTO 00000KT 3SM BR BKN007 BKN070 OVC090 09/08 A2969 RMK AO2 T00890083=
201811220204 SPECI KCLM 220204Z AUTO 00000KT 1 1/4SM BR BKN005 BKN080 OVC090 09/08 A2969 RMK AO2 CIG 002V010 T00890078=
201811220156 SPECI KCLM 220156Z AUTO 00000KT 2 1/2SM BR SCT005 SCT010 OVC075 09/08 A2969 RMK AO2 T00890083=
201811220153 METAR KCLM 220153Z AUTO 00000KT 3SM BR BKN006 BKN010 OVC075 09/08 A2969 RMK AO2 RAE32 CIG 002V008 SLP057 P0000 T00890083=
201811220053 METAR KCLM 220053Z AUTO 00000KT 5SM -RA BR OVC009 09/09 A2970 RMK AO2 RAB52 SLP058 P0000 T00940089=
201811220028 SPECI KCLM 220028Z AUTO 00000KT 5SM BR OVC009 09/09 A2970 RMK AO2 T00940089=
201811212353 METAR KCLM 212353Z AUTO 00000KT 4SM BR BKN011 BKN060 OVC110 10/09 A2970 RMK AO2 RAE13B22E32 SLP058 P0002 60006 T01000089 10111 20089 50003=
201811212343 SPECI KCLM 212343Z AUTO 00000KT 6SM BR SCT013 SCT060 OVC110 10/09 A2970 RMK AO2 RAE13B22E32 P0002 T01000089=
201811212320 SPECI KCLM 212320Z AUTO 00000KT 8SM BKN013 BKN060 OVC070 09/08 A2970 RMK AO2 RAE13 P0000 T00940083=
201811212253 METAR KCLM 212253Z AUTO 00000KT 5SM -RA BR OVC065 09/08 A2970 RMK AO2 RAB2155 SLP060 P0004 T00940083=
201811212153 METAR KCLM 212153Z AUTO 00000KT 10SM OVC060 11/08 A2969 RMK AO2 RAB00E44 SLP057 P0000 T01060083=
201811212053 METAR KCLM 212053Z AUTO 00000KT 10SM OVC055 11/07 A2969 RMK AO2 SLP055 T01110072 57001=
201811211953 METAR KCLM 211953Z AUTO 00000KT 10SM OVC060 11/07 A2969 RMK AO2 SLP054 T01060067=
201811211853 METAR KCLM 211853Z AUTO 15004KT 10SM FEW065 10/07 A2970 RMK AO2 SLP058 T01000067=
201811211753 METAR KCLM 211753Z AUTO 27004KT 10SM CLR 09/07 A2969 RMK AO2 SLP057 60002 T00890072 10089 20056 56002=
201811211653 METAR KCLM 211653Z AUTO 28006KT 9SM SCT100 08/06 A2970 RMK AO2 RAE03 SLP059 P0000 T00780061=
201811211553 METAR KCLM 211553Z AUTO VRB06KT 9SM -RA OVC070 07/06 A2968 RMK AO2 RAB36 SLP053 P0002 T00720056=
201811211453 METAR KCLM 211453Z AUTO 00000KT 10SM OVC060 06/05 A2970 RMK AO2 RAB26E36 SLP058 P0000 60000 T00610050 57015=
201811211353 METAR KCLM 211353Z AUTO 00000KT 10SM OVC060 06/04 A2971 RMK AO2 SLP062 T00560044=
201811211253 METAR KCLM 211253Z AUTO 23005KT 10SM OVC070 06/04 A2973 RMK AO2 SLP069 T00610044=
201811211153 METAR KCLM 211153Z AUTO 00000KT 10SM OVC070 08/04 A2974 RMK AO2 SLP073 T00780044 10078 20028 58023=
201811211053 METAR KCLM 211053Z AUTO 12003KT 10SM OVC080 06/04 A2978 RMK AO2 SLP084 T00560039=
201811210953 METAR KCLM 210953Z AUTO 00000KT 10SM CLR 04/04 A2980 RMK AO2 SLP091 T00440039=
201811210853 METAR KCLM 210853Z AUTO 16004KT 10SM CLR 04/04 A2981 RMK AO2 SLP097 T00440039 58007=
201811210753 METAR KCLM 210753Z AUTO 23004KT 10SM CLR 04/03 A2982 RMK AO2 SLP101 T00440033 400831022=
201811210653 METAR KCLM 210653Z AUTO 23004KT 8SM CLR 04/03 A2983 RMK AO2 SLP105 T00390033=
201811210553 METAR KCLM 210553Z AUTO 24004KT 5SM BR CLR 03/02 A2983 RMK AO2 SLP104 T00280022 10072 20028 58003=
201811210453 METAR KCLM 210453Z AUTO 24004KT 8SM CLR 03/02 A2984 RMK AO2 SLP108 T00330022=
201811210353 METAR KCLM 210353Z AUTO 23004KT 8SM CLR 04/03 A2985 RMK AO2 SLP110 T00390028=
201811210253 METAR KCLM 210253Z AUTO 18003KT 9SM CLR 04/03 A2984 RMK AO2 SLP108 T00440033 58017=
201811210153 METAR KCLM 210153Z AUTO 00000KT 9SM CLR 05/04 A2986 RMK AO2 SLP113 T00500039=
201811210053 METAR KCLM 210053Z AUTO 00000KT 10SM CLR 05/04 A2988 RMK AO2 SLP121 T00500039=
201811202353 METAR KCLM 202353Z AUTO 00000KT 10SM CLR 07/05 A2989 RMK AO2 SLP124 T00720050 10083 20050 58007=
201811202253 METAR KCLM 202253Z AUTO 00000KT 10SM CLR 08/04 A2990 RMK AO2 SLP128 T00780044=
201811202153 METAR KCLM 202153Z AUTO 00000KT 10SM FEW013 08/04 A2991 RMK AO2 SLP131 T00830044=
201811202149 SPECI KCLM 202149Z AUTO 00000KT 10SM SCT013 08/04 A2991 RMK AO2=
201811202106 SPECI KCLM 202106Z AUTO 00000KT 10SM BKN012 08/05 A2993 RMK AO2 T00830050=
201811202053 METAR KCLM 202053Z AUTO 00000KT 10SM SCT010 08/05 A2993 RMK AO2 SLP136 T00780050 58013=
201811202023 SPECI KCLM 202023Z AUTO 12003KT 10SM SCT008 08/06 A2993 RMK AO2 T00780056=
201811201953 METAR KCLM 201953Z AUTO 00000KT 9SM BKN007 08/06 A2994 RMK AO2 SLP142 T00780061=
201811201853 METAR KCLM 201853Z AUTO 14003KT 7SM BKN007 07/06 A2996 RMK AO2 SLP147 T00720056=
201811201803 SPECI KCLM 201803Z AUTO 17003KT 5SM BR BKN008 06/05 A2996 RMK AO2 T00560050=
201811201753 METAR KCLM 201753Z AUTO 00000KT 5SM BR SCT008 05/04 A2997 RMK AO2 SLP150 I6000 T00500044 10056 21022 58004=
201811201736 SPECI KCLM 201736Z AUTO 00000KT 4SM BR SCT006 SCT010 05/04 A2997 RMK AO2 T00500044=
201811201655 SPECI KCLM 201655Z AUTO 00000KT 3SM BR BKN005 03/03 A2997 RMK AO2 T00330028=
201811201653 METAR KCLM 201653Z AUTO 00000KT 2 1/2SM BR SCT005 03/03 A2997 RMK AO2 SLP153 T00330028=
201811201610 SPECI KCLM 201610Z AUTO 00000KT 3SM BR SCT006 02/02 A2998 RMK AO2 T00220017=
201811201553 METAR KCLM 201553Z AUTO 00000KT 4SM BR OVC006 02/01 A2998 RMK AO2 SLP153 T00170011=
201811201453 METAR KCLM 201453Z AUTO 17003KT 7SM OVC006 01/00 A2998 RMK AO2 SLP154 I1000 I3000 T00060000 56005=
201811201411 SPECI KCLM 201411Z AUTO 00000KT 3SM BR BKN006 01/00 A2998 RMK AO2 T00060000=
201811201401 SPECI KCLM 201401Z AUTO 00000KT 3SM BR SCT006 01/00 A2999 RMK AO2 T00060000=
201811201353 METAR KCLM 201353Z AUTO 00000KT 3SM BR CLR 00/M01 A2999 RMK AO2 SLP157 I1000 T00001011=
201811201348 SPECI KCLM 201348Z AUTO 00000KT 3SM BR CLR M01/M02 A2999 RMK AO2 I1000=
201811201314 SPECI KCLM 201314Z AUTO 00000KT 2SM BR FEW007 01/01 A2999 RMK AO2 I1000 T00060006=
201811201308 SPECI KCLM 201308Z AUTO 00000KT 1SM BR CLR 01/01 A2999 RMK AO2 T00110006=
201811201303 SPECI KCLM 201303Z AUTO 00000KT 3/4SM BR VV007 01/01 A2999 RMK AO2 T00110006=
201811201253 METAR KCLM 201253Z AUTO 00000KT 1 1/4SM BR FEW007 01/00 A2999 RMK AO2 SLP160 I1000 T00060000=
201811201248 SPECI KCLM 201248Z AUTO 00000KT 3/4SM BR VV007 00/M01 A3000 RMK AO2=
201811201239 SPECI KCLM 201239Z AUTO 00000KT 1SM BR VV007 M01/M02 A3000 RMK AO2 T10111022=
201811201232 SPECI KCLM 201232Z AUTO 00000KT 1 3/4SM BR CLR M01/M02 A3000 RMK AO2 T10061017=
201811201153 METAR KCLM 201153Z AUTO 00000KT 3SM BR CLR 01/00 A3001 RMK AO2 SLP166 I1000 I6002 T00060000 10017 21011 56006=
201811201150 SPECI KCLM 201150Z AUTO 00000KT 2 1/2SM BR CLR 01/00 A3001 RMK AO2 I1000=
201811201133 SPECI KCLM 201133Z AUTO 00000KT 4SM BR CLR 01/01 A3002 RMK AO2 I1000 T00110006=
201811201124 SPECI KCLM 201124Z AUTO 00000KT 2 1/2SM BR CLR 01/00 A3002 RMK AO2 I1000 T00110000=
201811201053 METAR KCLM 201053Z AUTO 22005KT 5SM BR CLR 00/M01 A3002 RMK AO2 SLP169 I1001 T00001011=
201811200953 METAR KCLM 200953Z AUTO 22003KT 6SM BR CLR 00/M01 A3003 RMK AO2 SLP172 I1001 T00001006=
201811200853 METAR KCLM 200853Z AUTO 22004KT 7SM CLR 00/M01 A3004 RMK AO2 SLP175 T00001006 58002=
201811200753 METAR KCLM 200753Z AUTO 23004KT 5SM BR CLR 01/00 A3005 RMK AO2 SLP179 T00060000 400831017=
201811200653 METAR KCLM 200653Z AUTO 22004KT 6SM BR CLR 01/00 A3005 RMK AO2 SLP176 T00060000=
201811200553 METAR KCLM 200553Z AUTO 00000KT 5SM BR CLR 01/01 A3005 RMK AO2 SLP177 T00110006 10061 20000 58005=
201811200453 METAR KCLM 200453Z AUTO 00000KT 4SM BR CLR 02/01 A3006 RMK AO2 SLP179 T00170006=
201811200353 METAR KCLM 200353Z AUTO 23003KT 5SM BR CLR 02/01 A3006 RMK AO2 SLP181 T00170011=
201811200253 METAR KCLM 200253Z AUTO 00000KT 6SM BR CLR 01/00 A3006 RMK AO2 SLP183 T00110000 58005=
201811200153 METAR KCLM 200153Z AUTO 00000KT 6SM BR CLR 03/02 A3008 RMK AO2 SLP188 T00280017=
201811200053 METAR KCLM 200053Z AUTO 00000KT 8SM CLR 03/02 A3008 RMK AO2 SLP188 T00330022=
201811192353 METAR KCLM 192353Z AUTO 12003KT 10SM CLR 06/04 A3008 RMK AO2 SLP188 T00610039 10083 20061 56014=
201811192339 SPECI KCLM 192339Z AUTO 11003KT 10SM FEW013 07/04 A3009 RMK AO2 T00720039=
201811192253 METAR KCLM 192253Z AUTO 10005KT 10SM OVC012 07/04 A3009 RMK AO2 SLP191 T00720044=
201811192153 METAR KCLM 192153Z AUTO 08004KT 10SM OVC012 08/04 A3010 RMK AO2 SLP196 T00780044=
201811192053 METAR KCLM 192053Z AUTO 09005KT 10SM BKN012 08/04 A3012 RMK AO2 SLP202 T00780044 56010=
201811192050 SPECI KCLM 192050Z AUTO 06004KT 10SM BKN012 08/04 A3012 RMK AO2=
201811191953 METAR KCLM 191953Z AUTO 08007KT 10SM CLR 08/04 A3013 RMK AO2 SLP205 T00830039=
201811191853 METAR KCLM 191853Z AUTO 08006KT 9SM SCT011 07/04 A3015 RMK AO2 SLP212 T00720044=
201811191753 METAR KCLM 191753Z AUTO 11007KT 8SM BKN011 07/04 A3016 RMK AO2 SLP215 T00720044 10072 20006 51003=
201811191735 SPECI KCLM 191735Z AUTO 12003KT 8SM SCT010 07/04 A3016 RMK AO2 T00670044=
201811191653 METAR KCLM 191653Z AUTO 13003KT 6SM BR BKN011 06/04 A3016 RMK AO2 SLP215 T00560039=
201811191553 METAR KCLM 191553Z AUTO 00000KT 5SM BR OVC011 02/02 A3015 RMK AO2 SLP213 T00220017=
201811191453 METAR KCLM 191453Z AUTO 13004KT 6SM BR OVC011 02/02 A3015 RMK AO2 SLP212 T00220017 56003=
201811191353 METAR KCLM 191353Z AUTO 12003KT 8SM OVC011 04/03 A3015 RMK AO2 SLP213 T00390033=
201811191253 METAR KCLM 191253Z AUTO 15004KT 10SM OVC011 03/02 A3015 RMK AO2 SLP210 T00330022=
201811191153 METAR KCLM 191153Z AUTO 00000KT 8SM OVC011 01/01 A3016 RMK AO2 SLP214 I1001 I6002 T00110006 10011 21017 58005=
201811191133 SPECI KCLM 191133Z AUTO 13003KT 5SM BR BKN011 01/00 A3016 RMK AO2 I1001 T00060000=
201811191053 METAR KCLM 191053Z AUTO 00000KT 10SM FEW011 M01/M02 A3017 RMK AO2 SLP218 I1000 T10111017=
201811190953 METAR KCLM 190953Z AUTO 00000KT 8SM CLR 00/M01 A3017 RMK AO2 SLP217 I1000 T00001011=
201811190853 METAR KCLM 190853Z AUTO 00000KT 9SM CLR 00/M01 A3017 RMK AO2 SLP220 I1000 I3001 T00001011 50000=
201811190753 METAR KCLM 190753Z AUTO 22004KT 10SM FEW010 M01/M02 A3018 RMK AO2 SLP221 I1001 T10061017 400891011=
201811190653 METAR KCLM 190653Z AUTO 00000KT 9SM CLR 00/M01 A3018 RMK AO2 SLP221 T00001011=
201811190553 METAR KCLM 190553Z AUTO 21003KT 9SM CLR M01/M02 A3017 RMK AO2 SLP221 T10061022 10067 21006 51003=
201811190453 METAR KCLM 190453Z AUTO 00000KT 10SM CLR 00/M01 A3017 RMK AO2 SLP219 T00001006=
201811190353 METAR KCLM 190353Z AUTO 00000KT 9SM CLR 00/M01 A3017 RMK AO2 SLP220 T00001006=
201811190253 METAR KCLM 190253Z AUTO 00000KT 10SM CLR 02/01 A3017 RMK AO2 SLP218 T00170006 56004=
201811190153 METAR KCLM 190153Z AUTO 00000KT 8SM CLR 01/00 A3017 RMK AO2 SLP219 T00110000=
201811190053 METAR KCLM 190053Z AUTO 17003KT 9SM CLR 04/02 A3017 RMK AO2 SLP220 T00390022=
201811182353 METAR KCLM 182353Z AUTO 10004KT 10SM CLR 07/03 A3018 RMK AO2 SLP221 T00670028 10089 20067 56005=
201811182253 METAR KCLM 182253Z AUTO 09005KT 10SM CLR 08/03 A3018 RMK AO2 SLP223 T00780028=
201811182153 METAR KCLM 182153Z AUTO 08006KT 10SM CLR 08/02 A3018 RMK AO2 SLP223 T00830022=
201811182053 METAR KCLM 182053Z AUTO 08004KT 10SM CLR 08/03 A3019 RMK AO2 SLP227 T00830028 58008=
201811181953 METAR KCLM 181953Z AUTO 10006KT 10SM CLR 08/03 A3021 RMK AO2 SLP232 T00780028=
201811181853 METAR KCLM 181853Z AUTO 08009KT 10SM CLR 08/03 A3023 RMK AO2 SLP238 T00780033=
201811181753 METAR KCLM 181753Z AUTO 10005KT 10SM CLR 07/03 A3022 RMK AO2 SLP236 T00720033 10072 20000 56004=
201811181653 METAR KCLM 181653Z AUTO 00000KT 8SM CLR 03/02 A3022 RMK AO2 SLP238 T00280017=
201811181553 METAR KCLM 181553Z AUTO 24004KT 10SM CLR 01/M01 A3021 RMK AO2 SLP234 T00061006=
201811181453 METAR KCLM 181453Z AUTO 22004KT 10SM FEW019 01/00 A3023 RMK AO2 SLP241 T00110000 53000=
201811181436 SPECI KCLM 181436Z AUTO 00000KT 10SM SCT015 02/01 A3024 RMK AO2 T00170006=
201811181353 METAR KCLM 181353Z AUTO 23005KT 10SM OVC016 03/01 A3023 RMK AO2 SLP240 T00280011=
201811181305 SPECI KCLM 181305Z AUTO 00000KT 10SM SCT010 OVC017 03/02 A3023 RMK AO2 T00330022=
201811181253 METAR KCLM 181253Z AUTO 00000KT 10SM BKN010 OVC017 03/02 A3023 RMK AO2 SLP240 T00280022=
201811181153 METAR KCLM 181153Z AUTO 00000KT 10SM OVC014 02/01 A3023 RMK AO2 SLP239 I6001 T00220011 10022 21017 56012=
201811181053 METAR KCLM 181053Z AUTO 00000KT 10SM OVC014 02/01 A3024 RMK AO2 SLP242 T00170006=
201811180953 METAR KCLM 180953Z AUTO 00000KT 10SM OVC014 02/01 A3025 RMK AO2 SLP245 T00170011=
201811180853 METAR KCLM 180853Z AUTO 00000KT 10SM OVC012 01/01 A3027 RMK AO2 SLP251 I1001 I3001 T00110006 53005=
201811180753 METAR KCLM 180753Z AUTO 00000KT 10SM BKN012 00/M01 A3025 RMK AO2 SLP247 I1000 T00001006 400941017=
201811180653 METAR KCLM 180653Z AUTO 00000KT 10SM CLR M01/M02 A3025 RMK AO2 SLP246 I1000 T10111017=
201811180553 METAR KCLM 180553Z AUTO 00000KT 10SM CLR M01/M01 A3026 RMK AO2 SLP249 T10061011 10072 21011 58009=
201811180453 METAR KCLM 180453Z AUTO 00000KT 10SM CLR 00/M01 A3027 RMK AO2 SLP253 T00001006=
201811180353 METAR KCLM 180353Z AUTO 00000KT 10SM CLR 01/M01 A3028 RMK AO2 SLP257 T00061006=
201811180253 METAR KCLM 180253Z AUTO 00000KT 10SM CLR 02/00 A3028 RMK AO2 SLP258 T00170000 58003=
201811180153 METAR KCLM 180153Z AUTO 00000KT 10SM CLR 02/00 A3029 RMK AO2 SLP262 T00170000=
201811180053 METAR KCLM 180053Z AUTO 00000KT 10SM CLR 03/00 A3030 RMK AO2 SLP262 T00280000=
201811172353 METAR KCLM 172353Z AUTO 09004KT 10SM CLR 07/M01 A3029 RMK AO2 SLP260 T00721011 10094 20067 57012=
201811172253 METAR KCLM 172253Z AUTO VRB04KT 10SM CLR 09/M01 A3030 RMK AO2 SLP263 T00891011=
201811172153 METAR KCLM 172153Z AUTO 07006KT 10SM CLR 09/02 A3032 RMK AO2 SLP270 T00890017=
201811172053 METAR KCLM 172053Z AUTO 07005KT 10SM CLR 09/02 A3033 RMK AO2 SLP272 T00890022 58007=
201811171953 METAR KCLM 171953Z AUTO 08007KT 10SM CLR 09/03 A3035 RMK AO2 SLP279 T00890033=
201811171853 METAR KCLM 171853Z AUTO VRB04KT 10SM CLR 09/02 A3035 RMK AO2 SLP281 T00890017=
201811171753 METAR KCLM 171753Z AUTO 23003KT 10SM CLR 07/04 A3035 RMK AO2 SLP280 I6000 T00670039 10067 21006 50003=
201811171653 METAR KCLM 171653Z AUTO 23007KT 10SM CLR 04/02 A3036 RMK AO2 SLP283 T00390022=
201811171553 METAR KCLM 171553Z AUTO 23004KT 8SM SCT018 02/01 A3035 RMK AO2 SLP282 I1000 T00170006=
201811171453 METAR KCLM 171453Z AUTO 23005KT 10SM FEW015 01/M01 A3034 RMK AO2 SLP278 I1000 I3000 T00061006 53002=
201811171353 METAR KCLM 171353Z AUTO 00000KT 10SM CLR 00/M01 A3034 RMK AO2 SLP276 T00001006=
201811171253 METAR KCLM 171253Z AUTO 22005KT 10SM CLR 00/M01 A3033 RMK AO2 SLP274 T00001006=
201811171153 METAR KCLM 171153Z AUTO 23007KT 10SM CLR 02/01 A3034 RMK AO2 SLP276 7//// T00220011 10050 20011 58001=
201811171053 METAR KCLM 171053Z AUTO VRB03KT 10SM CLR 02/01 A3034 RMK AO2 SLP276 T00170006=
201811170953 METAR KCLM 170953Z AUTO 22007KT 10SM CLR 04/02 A3034 RMK AO2 SLP277 T00390017=
201811170853 METAR KCLM 170853Z AUTO 23005KT 10SM SCT047 03/02 A3034 RMK AO2 SLP277 T00330017 51007=
201811170753 METAR KCLM 170753Z AUTO 23004KT 10SM SCT045 03/02 A3034 RMK AO2 SLP275 T00280017 401170022=
201811170653 METAR KCLM 170653Z AUTO 20005KT 10SM CLR 03/02 A3033 RMK AO2 SLP273 T00330022=
201811170553 METAR KCLM 170553Z AUTO 22003KT 10SM CLR 03/02 A3032 RMK AO2 SLP269 T00330022 10094 20028 51010=
201811170453 METAR KCLM 170453Z AUTO 00000KT 10SM CLR 03/02 A3032 RMK AO2 SLP268 T00330022=
201811170353 METAR KCLM 170353Z AUTO 15005KT 10SM CLR 05/03 A3031 RMK AO2 SLP265 T00500028=
201811170253 METAR KCLM 170253Z AUTO 18005KT 7SM CLR 05/04 A3029 RMK AO2 SLP259 T00500044 53004=
201811170244 SPECI KCLM 170244Z AUTO 15004KT 4SM BR CLR 06/05 A3029 RMK AO2 T00560050=
201811170235 SPECI KCLM 170235Z AUTO 16004KT 1 3/4SM BR FEW002 04/04 A3029 RMK AO2 VIS 3/4V5 T00390039=
201811170226 SPECI KCLM 170226Z AUTO 16005KT 4SM BR FEW002 04/04 A3028 RMK AO2 T00440044=
201811170223 SPECI KCLM 170223Z AUTO 14004KT 1 1/4SM BR FEW002 05/05 A3028 RMK AO2 T00500050=
201811170213 SPECI KCLM 170213Z AUTO 00000KT 3/4SM BR VV002 04/04 A3028 RMK AO2 VIS 1/4V5 T00440039=
201811170202 SPECI KCLM 170202Z AUTO 14003KT 1 3/4SM BR CLR 04/04 A3028 RMK AO2 T00390039=
201811170153 METAR KCLM 170153Z AUTO 15003KT 3SM BR CLR 07/06 A3028 RMK AO2 SLP253 T00670056=
201811170053 METAR KCLM 170053Z AUTO 12005KT 10SM CLR 07/06 A3028 RMK AO2 SLP254 T00720061=
201811162353 METAR KCLM 162353Z AUTO 13005KT 10SM FEW026 FEW033 09/07 A3027 RMK AO2 SLP253 6//// T00940072 10111 20094 53002=
201811162346 SPECI KCLM 162346Z AUTO 12005KT 10SM SCT026 SCT033 09/07 A3027 RMK AO2 T00940072=
201811162253 METAR KCLM 162253Z AUTO 11005KT 10SM OVC027 11/08 A3027 RMK AO2 SLP251 T01110083=
201811162153 METAR KCLM 162153Z AUTO 12004KT 10SM OVC029 11/08 A3027 RMK AO2 SLP250 T01060083=
201811162148 SPECI KCLM 162148Z AUTO 13005KT 10SM BKN029 11/08 A3027 RMK AO2=
201811162131 SPECI KCLM 162131Z AUTO 15005KT 10SM FEW013 BKN032 BKN039 10/08 A3026 RMK AO2 T01000083=
201811162053 METAR KCLM 162053Z AUTO 12005KT 10SM FEW013 OVC024 11/08 A3027 RMK AO2 SLP251 6//// T01060083=
201811161853 METAR KCLM 161853Z AUTO 14006KT 10SM BKN027 OVC033 11/09 A3029 RMK AO2 SLP257 T01060089=
201811161753 METAR KCLM 161753Z AUTO 13007KT 10SM OVC023 10/09 A3028 RMK AO2 SLP254 60010 T01000089 10100 20094 53012=
201811161731 SPECI KCLM 161731Z AUTO 14006KT 10SM SCT014 OVC023 10/08 A3028 RMK AO2 T01000083=
201811161653 METAR KCLM 161653Z AUTO 12008KT 10SM BKN014 OVC022 10/08 A3027 RMK AO2 SLP251 T01000083=
201811161640 SPECI KCLM 161640Z AUTO 12006KT 10SM OVC014 10/08 A3027 RMK AO2 T01000083=
201811161622 SPECI KCLM 161622Z AUTO 11005KT 10SM BKN015 OVC040 10/09 A3025 RMK AO2 T01000089=
201811161602 SPECI KCLM 161602Z AUTO 14007KT 10SM FEW015 BKN031 OVC038 10/08 A3025 RMK AO2 T01000083=
201811161553 METAR KCLM 161553Z AUTO 15006KT 10SM FEW015 BKN023 OVC033 09/08 A3025 RMK AO2 SLP243 T00940083=
201811161501 SPECI KCLM 161501Z AUTO 11005KT 5SM BR FEW005 BKN016 OVC023 09/09 A3024 RMK AO2 T00940089=
201811161452 METAR KCLM 161452Z AUTO 12006KT 4SM BR SCT005 BKN012 OVC022 09/09 A3024 RMK AO2 SLP242 60010 T00940089 50003=
201811161451 SPECI KCLM 161451Z AUTO 12005KT 4SM BR SCT005 BKN016 OVC022 09/09 A3024 RMK AO2=
201811161445 SPECI KCLM 161445Z AUTO 12006KT 2 1/2SM BR BKN005 BKN012 OVC017 10/09 A3024 RMK AO2 CIG 003V008 T01000089=
201811161404 SPECI KCLM 161404Z AUTO 11006KT 2SM BR FEW004 OVC017 10/09 A3025 RMK AO2 T01000089=
201811161353 METAR KCLM 161353Z AUTO 10004KT 1 3/4SM BR SCT005 BKN011 OVC017 10/09 A3024 RMK AO2 RAB1254E44 SLP243 P0006 T01000094=
201811161330 SPECI KCLM 161330Z AUTO 12005KT 1 1/2SM -RA BR FEW004 OVC014 10/09 A3023 RMK AO2 RAB1254 P0004 T01000094=
201811161320 SPECI KCLM 161320Z AUTO 12005KT 2SM -RA BR FEW004 OVC014 10/09 A3024 RMK AO2 RAB1254 P0002 T01000094=
201811161311 SPECI KCLM 161311Z AUTO 12006KT 2SM -RA BR SCT004 OVC016 10/09 A3024 RMK AO2 RAB1254 P0002 T01000094=
201811161302 SPECI KCLM 161302Z AUTO 11005KT 1 3/4SM -RA BR SCT005 BKN011 OVC016 10/09 A3023 RMK AO2 RAB1254 P0000 T01000094=
201811161253 METAR KCLM 161253Z AUTO 11005KT 1 3/4SM BR BKN005 OVC010 10/09 A3023 RMK AO2 RAB1159E14 SLP239 P0004 T01000094=
201811161237 SPECI KCLM 161237Z AUTO 12005KT 1 3/4SM BR BKN005 OVC010 10/09 A3023 RMK AO2 RAB1159E14 P0004 T01000094=
201811161153 METAR KCLM 161153Z AUTO 00000KT 1 3/4SM BR OVC003 10/10 A3022 RMK AO2 RAB24E47 SLP235 P0002 60006 70006 T01000100 10128 20094 51003=
201811161135 SPECI KCLM 161135Z AUTO 00000KT 1SM -RA BR VV003 10/10 A3022 RMK AO2 RAB24 P0002 T01000100=
201811161113 SPECI KCLM 161113Z AUTO 00000KT 1/2SM FG VV003 11/10 A3022 RMK AO2 T01060100=
201811161053 METAR KCLM 161053Z AUTO 00000KT 1/4SM FG VV002 11/10 A3022 RMK AO2 RAE20 SLP234 P0002 T01060100=
201811161049 SPECI KCLM 161049Z AUTO 00000KT 1/4SM FG VV002 11/10 A3022 RMK AO2 RAE20 P0002=
201811161027 SPECI KCLM 161027Z AUTO VRB03KT 3/4SM BR OVC002 11/11 A3021 RMK AO2 RAE20 P0002 T01110106=
201811160953 METAR KCLM 160953Z AUTO 31004KT 2 1/2SM -RA BR OVC003 11/11 A3021 RMK AO2 RAB28E44B49 SLP231 P0002 T01110106=
201811160945 SPECI KCLM 160945Z AUTO 30004KT 4SM BR OVC004 11/11 A3021 RMK AO2 RAB28E44 CIG 002V006 P0000 T01110106=
201811160915 SPECI KCLM 160915Z AUTO 00000KT 10SM BKN008 BKN015 OVC031 11/10 A3021 RMK AO2 T01110100=
201811160908 SPECI KCLM 160908Z AUTO VRB03KT 10SM SCT010 BKN015 OVC031 11/09 A3020 RMK AO2 T01110094=
201811160853 METAR KCLM 160853Z AUTO 05004KT 10SM FEW016 OVC033 12/10 A3020 RMK AO2 SLP226 T01170100 53010=
201811160753 METAR KCLM 160753Z AUTO 00000KT 10SM BKN036 OVC050 12/09 A3017 RMK AO2 SLP219 T01170094 401280061=
201811160653 METAR KCLM 160653Z AUTO 27006KT 10SM BKN036 OVC100 12/09 A3016 RMK AO2 SLP214 T01220089=
201811160553 METAR KCLM 160553Z AUTO 00000KT 10SM FEW045 BKN060 OVC075 10/08 A3017 RMK AO2 SLP216 60000 T01000083 10117 20089 56000=
201811160521 SPECI KCLM 160521Z AUTO 13005KT 6SM BR SCT003 BKN041 OVC060 09/09 A3017 RMK AO2 T00940089=
201811160453 METAR KCLM 160453Z AUTO 13006KT 7SM OVC002 09/08 A3017 RMK AO2 SLP218 T00940083=
201811160439 SPECI KCLM 160439Z AUTO 00000KT 5SM BR BKN001 OVC042 09/09 A3017 RMK AO2 T00940089=
201811160420 SPECI KCLM 160420Z AUTO VRB03KT 7SM FEW003 BKN041 BKN095 10/09 A3016 RMK AO2 T01000089=
201811160353 METAR KCLM 160353Z AUTO VRB06KT 9SM BKN040 BKN070 OVC090 10/08 A3015 RMK AO2 RAB04E17 SLP210 P0000 T01000083=
201811160253 METAR KCLM 160253Z AUTO 02009KT 10SM FEW038 BKN090 OVC110 10/07 A3017 RMK AO2 SLP216 T01000072 56019=
201811160153 METAR KCLM 160153Z AUTO 00000KT 10SM OVC040 10/07 A3019 RMK AO2 SLP222 T01000072=
201811160053 METAR KCLM 160053Z AUTO 00000KT 10SM OVC043 11/07 A3020 RMK AO2 SLP227 T01060072=
201811152353 METAR KCLM 152353Z AUTO 00000KT 10SM OVC044 12/07 A3022 RMK AO2 SLP235 T01170072 10128 20100 58010=
201811152253 METAR KCLM 152253Z AUTO 18003KT 10SM OVC048 11/08 A3024 RMK AO2 SLP240 T01060078=
201811152153 METAR KCLM 152153Z AUTO 00000KT 10SM OVC050 10/08 A3026 RMK AO2 SLP246 T01000083=
201811152053 METAR KCLM 152053Z AUTO VRB03KT 10SM OVC065 13/08 A3025 RMK AO2 SLP245 T01280083 58016=
201811151953 METAR KCLM 151953Z AUTO 00000KT 10SM OVC070 12/07 A3028 RMK AO2 SLP254 T01170072=
201811151853 METAR KCLM 151853Z AUTO 36003KT 10SM BKN075 11/07 A3030 RMK AO2 SLP262 T01110067=
201811151753 METAR KCLM 151753Z AUTO 24004KT 10SM FEW065 10/06 A3030 RMK AO2 SLP263 T01000061 10100 20072 58010=
201811151653 METAR KCLM 151653Z AUTO 24005KT 10SM CLR 09/06 A3031 RMK AO2 SLP266 T00890056=
201811151553 METAR KCLM 151553Z AUTO 22005KT 10SM SCT080 08/06 A3032 RMK AO2 SLP269 T00780056=
201811151453 METAR KCLM 151453Z AUTO 24006KT 10SM FEW110 07/06 A3033 RMK AO2 SLP273 T00720056 58010=
201811151353 METAR KCLM 151353Z AUTO 23004KT 10SM OVC050 08/06 A3034 RMK AO2 SLP277 T00780056=
201811151253 METAR KCLM 151253Z AUTO 24005KT 10SM OVC055 08/06 A3035 RMK AO2 SLP279 T00830061=
201811151153 METAR KCLM 151153Z AUTO 24004KT 10SM OVC055 08/06 A3036 RMK AO2 SLP282 70010 T00830061 10083 20044 58004=
201811151053 METAR KCLM 151053Z AUTO 25005KT 10SM FEW060 OVC110 08/06 A3037 RMK AO2 SLP284 T00780061=
201811150953 METAR KCLM 150953Z AUTO 23006KT 10SM OVC110 08/07 A3037 RMK AO2 SLP286 T00830067=
201811150939 SPECI KCLM 150939Z AUTO 24005KT 10SM FEW022 BKN120 08/06 A3037 RMK AO2 T00780061=
201811150914 SPECI KCLM 150914Z AUTO 23003KT 10SM FEW017 BKN023 OVC034 08/07 A3037 RMK AO2 T00830067=
201811150853 METAR KCLM 150853Z AUTO 23004KT 10SM FEW025 SCT031 08/07 A3037 RMK AO2 SLP287 T00780067 53004=
201811150753 METAR KCLM 150753Z AUTO 24005KT 9SM CLR 07/06 A3036 RMK AO2 SLP283 T00670056 401560044=
201811150720 SPECI KCLM 150720Z AUTO 00000KT 8SM CLR 05/05 A3036 RMK AO2 T00500050=
201811150713 SPECI KCLM 150713Z AUTO 23005KT 2 1/2SM BR CLR 06/05 A3036 RMK AO2 VIS 3/4V5 T00610050=
201811150704 SPECI KCLM 150704Z AUTO 22003KT 1/2SM FG CLR 06/04 A3036 RMK AO2 T00560044=
201811150653 METAR KCLM 150653Z AUTO 00000KT 3/4SM BR VV003 05/04 A3036 RMK AO2 SLP282 T00500044=
201811150651 SPECI KCLM 150651Z AUTO 00000KT 3/4SM BR VV003 05/04 A3036 RMK AO2=
201811150647 SPECI KCLM 150647Z AUTO 00000KT 1 1/2SM BR FEW003 04/04 A3036 RMK AO2=
201811150633 SPECI KCLM 150633Z AUTO 00000KT 3SM BR CLR 06/05 A3037 RMK AO2 T00560050=
201811150622 SPECI KCLM 150622Z AUTO 14003KT 1 3/4SM BR CLR 05/04 A3037 RMK AO2 VIS 1/2V5 T00500044=
201811150607 SPECI KCLM 150607Z AUTO 24005KT 3SM BR CLR 07/06 A3037 RMK AO2 T00670061=
201811150553 METAR KCLM 150553Z AUTO 24004KT 1SM BR CLR 06/05 A3036 RMK AO2 SLP282 T00560050 10128 20050 51009=
201811150548 SPECI KCLM 150548Z AUTO 23004KT 1 3/4SM BR CLR 05/05 A3036 RMK AO2=
201811150542 SPECI KCLM 150542Z AUTO 23004KT 3SM BR CLR 07/07 A3036 RMK AO2 T00720067=
201811150533 SPECI KCLM 150533Z AUTO 00000KT 1 3/4SM BR CLR 07/07 A3035 RMK AO2 VIS 1/2V5 T00720067=
201811150514 SPECI KCLM 150514Z AUTO 00000KT 9SM FEW022 07/06 A3035 RMK AO2 T00720061=
201811150453 METAR KCLM 150453Z AUTO 27004KT 10SM BKN025 09/07 A3036 RMK AO2 SLP280 T00890072=
201811150353 METAR KCLM 150353Z AUTO 00000KT 10SM OVC025 09/08 A3035 RMK AO2 SLP279 T00890078=
201811150322 SPECI KCLM 150322Z AUTO 22003KT 10SM BKN029 BKN055 08/07 A3034 RMK AO2 T00830072=
201811150253 METAR KCLM 150253Z AUTO 00000KT 9SM BKN055 08/07 A3034 RMK AO2 SLP274 T00780072 51008=
201811150153 METAR KCLM 150153Z AUTO 19004KT 10SM BKN050 09/08 A3033 RMK AO2 SLP271 T00940083=
201811150053 METAR KCLM 150053Z AUTO 00000KT 10SM BKN060 11/09 A3033 RMK AO2 SLP270 T01060089=
201811142353 METAR KCLM 142353Z AUTO 33006KT 10SM CLR 13/09 A3031 RMK AO2 SLP265 T01280089 10156 20128 51015=
201811142253 METAR KCLM 142253Z AUTO 24007KT 10SM OVC060 14/08 A3030 RMK AO2 SLP263 T01440083=
201811142153 METAR KCLM 142153Z AUTO 29004KT 10SM BKN050 OVC060 14/09 A3029 RMK AO2 SLP258 T01440089=
201811142053 METAR KCLM 142053Z AUTO 29003KT 10SM OVC055 14/10 A3027 RMK AO2 SLP250 T01440100 51024=
201811141953 METAR KCLM 141953Z AUTO 31005KT 10SM OVC055 14/10 A3026 RMK AO2 SLP246 T01390100=
201811141853 METAR KCLM 141853Z AUTO 25005KT 10SM BKN060 OVC070 14/10 A3023 RMK AO2 SLP239 T01390100=
201811141753 METAR KCLM 141753Z AUTO 28006KT 10SM SCT045 OVC060 13/09 A3020 RMK AO2 RAB1656E05 PRESRR SLP226 P0000 60010 T01330094 10139 20067 53024=
201811141653 METAR KCLM 141653Z AUTO 34006KT 8SM OVC060 10/09 A3016 RMK AO2 RAE12B28E40 SLP215 P0000 T01000089=
201811141553 METAR KCLM 141553Z AUTO 29004KT 3SM -RA BR FEW029 BKN065 OVC080 08/08 A3013 RMK AO2 SLP205 P0006 T00830078=
201811141544 SPECI KCLM 141544Z AUTO 33005KT 2SM -RA BR OVC070 08/07 A3013 RMK AO2 P0004 T00780072=
201811141453 METAR KCLM 141453Z AUTO 22003KT 3SM -RA BR BKN060 OVC080 07/07 A3012 RMK AO2 RAE1359B11 SLP203 P0002 60004 T00720067 56005=
201811141448 SPECI KCLM 141448Z AUTO 25003KT 3SM -RA BR SCT055 OVC075 07/07 A3013 RMK AO2 RAE1359B11 P0002=
201811141437 SPECI KCLM 141437Z AUTO VRB03KT 1 3/4SM -RA BR SCT050 BKN065 OVC090 07/07 A3012 RMK AO2 VIS 1V2 1/2 RAE1359B11 P0002 T00720067=
201811141413 SPECI KCLM 141413Z AUTO 21005KT 3SM -RA BR FEW005 BKN044 OVC075 07/07 A3012 RMK AO2 RAE1359B11 P0000 T00720067=
201811141403 SPECI KCLM 141403Z AUTO 00000KT 2 1/2SM BR BKN005 BKN029 OVC110 07/06 A3012 RMK AO2 RAE1359 P0000 T00720061=
201811141353 METAR KCLM 141353Z AUTO 00000KT 3SM -RA BR BKN005 BKN035 OVC100 07/07 A3012 RMK AO2 RAE1258B20 SLP201 P0000 T00670067=
201811141340 SPECI KCLM 141340Z AUTO 00000KT 1 3/4SM -RA BR BKN005 BKN060 OVC095 07/07 A3012 RMK AO2 RAE1258B20 P0000 T00720067=
201811141323 SPECI KCLM 141323Z AUTO 21003KT 2 1/2SM -RA BR BKN005 BKN044 BKN065 07/07 A3012 RMK AO2 RAE1258B20 P0000 T00720067=
201811141305 SPECI KCLM 141305Z AUTO 00000KT 2 1/2SM BR FEW008 BKN065 BKN080 07/07 A3013 RMK AO2 RAE1258 P0000 T00720067=
201811141253 METAR KCLM 141253Z AUTO 30003KT 3SM -RA BR FEW008 SCT065 OVC085 08/07 A3014 RMK AO2 RAB20E36B45 SLP206 P0002 T00780072=
201811141237 SPECI KCLM 141237Z AUTO VRB03KT 4SM BR SCT006 BKN065 OVC085 08/07 A3014 RMK AO2 RAB20E36 P0000 T00780072=
201811141153 METAR KCLM 141153Z AUTO 00000KT 3SM BR OVC006 08/07 A3016 RMK AO2 RAE1056B34E48 SLP213 P0000 60010 70015 T00780072 10078 20072 58020=
201811141057 SPECI KCLM 141057Z AUTO 27004KT 3SM BR BKN009 OVC060 08/07 A3018 RMK AO2 RAE56 P0000 T00780067=
201811141053 METAR KCLM 141053Z AUTO 26003KT 3SM -RA BR SCT011 OVC060 08/07 A3018 RMK AO2 RAB23 SLP222 P0000 T00780072=
201811141000 SPECI KCLM 141000Z AUTO 00000KT 3SM BR BKN007 BKN010 OVC050 08/07 A3019 RMK AO2 T00780072=
201811140953 METAR KCLM 140953Z AUTO 31003KT 3SM BR BKN010 OVC050 08/07 A3020 RMK AO2 SLP227 T00780067=
201811140853 METAR KCLM 140853Z AUTO 00000KT 4SM BR OVC005 08/07 A3022 RMK AO2 CIG 004V008 SLP233 60010 T00780072 58001=
201811140753 METAR KCLM 140753Z AUTO 25005KT 4SM BR OVC005 08/07 A3022 RMK AO2 RAE12 CIG 003V008 SLP236 P0002 T00780072 401060006=
201811140743 SPECI KCLM 140743Z AUTO 24005KT 5SM BR BKN004 OVC018 08/07 A3022 RMK AO2 RAE12 CIG 003V008 P0002 T00780072=
201811140736 SPECI KCLM 140736Z AUTO 23004KT 5SM BR BKN006 OVC018 08/07 A3022 RMK AO2 RAE12 CIG 003V009 P0002 T00780072=
201811140710 SPECI KCLM 140710Z AUTO 30003KT 5SM -RA BR SCT006 BKN020 OVC080 08/07 A3022 RMK AO2 P0002 T00780072=
201811140653 METAR KCLM 140653Z AUTO 33004KT 3SM -RA BR FEW015 SCT060 OVC075 08/07 A3023 RMK AO2 RAB16 SLP238 P0008 T00780067=
201811140553 METAR KCLM 140553Z AUTO 27003KT 7SM SCT060 OVC085 08/07 A3022 RMK AO2 SLP235 60005 T00780067 10094 20078 55008=
201811140453 METAR KCLM 140453Z AUTO 14011KT 7SM SCT009 BKN065 OVC090 08/07 A3021 RMK AO2 RAE03 PRESFR SLP232 P0000 T00780067=
201811140438 SPECI KCLM 140438Z AUTO 00000KT 7SM BKN009 OVC090 08/07 A3024 RMK AO2 RAE03 P0000 T00780067=
201811140353 METAR KCLM 140353Z AUTO 11004KT 9SM -RA SCT009 SCT038 OVC095 08/07 A3024 RMK AO2 RAE28B40 SLP243 P0000 T00780067=
201811140331 SPECI KCLM 140331Z AUTO 00000KT 10SM BKN009 OVC090 08/07 A3026 RMK AO2 RAE28 P0000 T00830072=
201811140318 SPECI KCLM 140318Z AUTO 00000KT 6SM -RA BR SCT007 SCT035 OVC085 08/07 A3025 RMK AO2 P0000 T00830072=
201811140253 METAR KCLM 140253Z AUTO 12003KT 9SM -RA OVC085 08/07 A3025 RMK AO2 SLP245 P0005 60005 T00830067 56012=
201811140153 METAR KCLM 140153Z AUTO 00000KT 10SM -RA OVC055 09/07 A3027 RMK AO2 RAB36 SLP252 P0000 T00890072=
201811140053 METAR KCLM 140053Z AUTO 10004KT 9SM OVC060 09/07 A3025 RMK AO2 SLP244 T00940067=
201811132353 METAR KCLM 132353Z AUTO 00000KT 10SM OVC060 09/07 A3029 RMK AO2 SLP258 T00940067 10106 20056 58005=
201811132253 METAR KCLM 132253Z AUTO 00000KT 10SM OVC060 09/06 A3030 RMK AO2 SLP263 T00940061=
201811132153 METAR KCLM 132153Z AUTO 00000KT 10SM BKN060 OVC090 10/06 A3031 RMK AO2 SLP265 T01000056=
201811132053 METAR KCLM 132053Z AUTO 00000KT 10SM CLR 10/06 A3030 RMK AO2 SLP263 T01000056 58012=
201811131953 METAR KCLM 131953Z AUTO 14003KT 10SM CLR 09/05 A3032 RMK AO2 SLP269 T00940050=
201811131853 METAR KCLM 131853Z AUTO 10003KT 10SM CLR 08/05 A3034 RMK AO2 SLP274 T00830050=
201811131753 METAR KCLM 131753Z AUTO 23005KT 10SM CLR 06/04 A3034 RMK AO2 SLP276 T00560039 10056 20006 50005=
201811131653 METAR KCLM 131653Z AUTO 00000KT 10SM CLR 04/03 A3034 RMK AO2 SLP278 T00440033=
201811131553 METAR KCLM 131553Z AUTO 24006KT 10SM CLR 02/01 A3034 RMK AO2 SLP277 T00220011=
201811131453 METAR KCLM 131453Z AUTO 00000KT 7SM CLR 02/01 A3032 RMK AO2 SLP271 T00170006 56000=
201811131353 METAR KCLM 131353Z AUTO 22004KT 9SM CLR 02/02 A3033 RMK AO2 SLP272 T00220017 $=
201811131253 METAR KCLM 131253Z AUTO 21004KT 7SM CLR 01/01 A3032 RMK AO2 SLP270 T00110006 $=
201811131153 METAR KCLM 131153Z AUTO 23007KT 10SM CLR 03/02 A3032 RMK AO2 SLP271 T00280017 10033 20011 56004 $=
201811131053 METAR KCLM 131053Z AUTO 23006KT 10SM CLR 03/02 A3033 RMK AO2 SLP274 T00330022 $=
201811130953 METAR KCLM 130953Z AUTO 00000KT 9SM CLR 02/01 A3032 RMK AO2 SLP268 T00170011 $=
201811130853 METAR KCLM 130853Z AUTO 24005KT 10SM CLR 03/02 A3034 RMK AO2 SLP274 T00280017 57005 $=
201811130753 METAR KCLM 130753Z AUTO 22004KT 10SM CLR 02/01 A3034 RMK AO2 SLP276 T00170011 400941006 $=
201811130653 METAR KCLM 130653Z AUTO 00000KT 10SM CLR 02/01 A3035 RMK AO2 SLP278 T00220011 $=
201811130553 METAR KCLM 130553Z AUTO 00000KT 10SM CLR 01/01 A3035 RMK AO2 SLP280 T00110006 10078 20011 58002 $=
201811130453 METAR KCLM 130453Z AUTO 21003KT 10SM CLR 02/01 A3036 RMK AO2 SLP285 T00220011 $=
201811130353 METAR KCLM 130353Z AUTO 23005KT 10SM CLR 02/01 A3036 RMK AO2 SLP283 T00220011 $=
201811130253 METAR KCLM 130253Z AUTO 00000KT 10SM CLR 02/01 A3036 RMK AO2 SLP283 T00170006 55007 $=
201811130153 METAR KCLM 130153Z AUTO 14003KT 9SM CLR 03/02 A3035 RMK AO2 SLP282 T00280017 $=
201811130053 METAR KCLM 130053Z AUTO 16003KT 10SM CLR 04/02 A3037 RMK AO2 SLP285 T00440017 $=
201811122353 METAR KCLM 122353Z AUTO 00000KT 10SM CLR 08/02 A3038 RMK AO2 SLP289 T00780017 10094 20078 55008 $=
201811122253 METAR KCLM 122253Z AUTO 12006KT 10SM CLR 09/02 A3037 RMK AO2 SLP286 T00890022 $=
201811122153 METAR KCLM 122153Z AUTO 11007KT 10SM CLR 09/03 A3038 RMK AO2 SLP290 T00940033 $=
201811122053 METAR KCLM 122053Z AUTO 08007KT 10SM CLR 09/03 A3040 RMK AO2 SLP297 T00890033 58006 $=
201811121953 METAR KCLM 121953Z AUTO 08006KT 10SM CLR 08/03 A3041 RMK AO2 SLP301 T00830033 $=
201811121853 METAR KCLM 121853Z AUTO 11005KT 10SM CLR 08/04 A3043 RMK AO2 SLP305 T00830044 $=
201811121753 METAR KCLM 121753Z AUTO 12006KT 10SM CLR 08/04 A3042 RMK AO2 SLP304 T00780039 10078 20000 58003 $=
201811121653 METAR KCLM 121653Z AUTO 12005KT 10SM CLR 03/02 A3043 RMK AO2 SLP307 T00280022 $=
201811121553 METAR KCLM 121553Z AUTO 17003KT 8SM CLR 01/M01 A3043 RMK AO2 SLP309 T00061006 $=
201811121453 METAR KCLM 121453Z AUTO 13005KT 10SM CLR 01/M01 A3043 RMK AO2 SLP307 T00061006 55001 $=
201811121353 METAR KCLM 121353Z AUTO 00000KT 9SM CLR 02/01 A3043 RMK AO2 SLP307 T00170006 $=
201811121253 METAR KCLM 121253Z AUTO 16005KT 10SM FEW013 03/02 A3043 RMK AO2 SLP307 T00280022 $=
201811121226 SPECI KCLM 121226Z AUTO 17005KT 10SM SCT015 02/02 A3043 RMK AO2 T00220017 $=
201811121153 METAR KCLM 121153Z AUTO 15003KT 9SM BKN015 02/01 A3043 RMK AO2 SLP307 T00170011 10033 21006 58007 $=
201811121144 SPECI KCLM 121144Z AUTO 18003KT 10SM BKN014 02/02 A3043 RMK AO2 T00220017 $=
201811121053 METAR KCLM 121053Z AUTO 00000KT 10SM SCT014 02/01 A3045 RMK AO2 SLP313 T00220011 $=
201811121008 SPECI KCLM 121008Z AUTO 00000KT 9SM BKN013 01/01 A3045 RMK AO2 T00110006 $=
201811120953 METAR KCLM 120953Z AUTO 17005KT 8SM SCT014 01/00 A3045 RMK AO2 SLP314 T00060000 $=
201811120928 SPECI KCLM 120928Z AUTO 00000KT 9SM BKN014 01/00 A3045 RMK AO2 T00110000 $=
201811120853 METAR KCLM 120853Z AUTO 00000KT 9SM CLR 01/M01 A3045 RMK AO2 SLP314 T00061006 58006 $=
201811120753 METAR KCLM 120753Z AUTO 15003KT 8SM CLR 01/00 A3045 RMK AO2 SLP313 T00060000 400891006 $=
201811120653 METAR KCLM 120653Z AUTO 15003KT 10SM CLR 02/01 A3047 RMK AO2 SLP321 T00220011 $=
201811120553 METAR KCLM 120553Z AUTO 14005KT 10SM CLR 02/01 A3047 RMK AO2 SLP320 T00170006 10072 20011 53001 $=
201811120453 METAR KCLM 120453Z AUTO 13004KT 9SM CLR 02/01 A3047 RMK AO2 SLP320 T00170006 $=
201811120353 METAR KCLM 120353Z AUTO 13004KT 10SM CLR 02/01 A3046 RMK AO2 SLP319 T00170006 $=
201811120253 METAR KCLM 120253Z AUTO 13007KT 10SM CLR 03/02 A3047 RMK AO2 SLP319 T00330017 53003 $=
201811120153 METAR KCLM 120153Z AUTO 13005KT 10SM CLR 04/02 A3046 RMK AO2 SLP316 T00440022 $=
201811120053 METAR KCLM 120053Z AUTO 13004KT 10SM CLR 05/03 A3046 RMK AO2 SLP316 T00500028 $=
201811112353 METAR KCLM 112353Z AUTO 09006KT 10SM CLR 07/03 A3046 RMK AO2 SLP316 T00720033 10089 20072 58006 $=
201811112253 METAR KCLM 112253Z AUTO 10006KT 10SM CLR 08/03 A3047 RMK AO2 SLP320 T00780033 $=
201811112153 METAR KCLM 112153Z AUTO 10010KT 10SM CLR 09/02 A3047 RMK AO2 SLP321 T00890022 $=
201811112053 METAR KCLM 112053Z AUTO 07006KT 10SM CLR 08/03 A3048 RMK AO2 SLP322 T00830028 58003 $=
201811111953 METAR KCLM 111953Z AUTO 08008G15KT 10SM CLR 08/03 A3048 RMK AO2 SLP325 T00780033 $=
201811111853 METAR KCLM 111853Z AUTO 09007KT 10SM CLR 08/03 A3049 RMK AO2 SLP327 T00780028 $=
201811111753 METAR KCLM 111753Z AUTO 11008KT 10SM FEW014 08/04 A3048 RMK AO2 SLP325 T00780039 10078 20039 50007 $=
201811111702 SPECI KCLM 111702Z AUTO 11006KT 10SM SCT019 07/03 A3049 RMK AO2 T00720033 $=
201811111653 METAR KCLM 111653Z AUTO 09007KT 10SM BKN020 08/03 A3049 RMK AO2 SLP328 T00780033 $=
201811111553 METAR KCLM 111553Z AUTO 00000KT 10SM FEW015 OVC022 04/02 A3048 RMK AO2 SLP325 T00390022 $=
201811111453 METAR KCLM 111453Z AUTO 23004KT 10SM OVC017 04/02 A3047 RMK AO2 SLP320 T00390022 51004 $=
201811111353 METAR KCLM 111353Z AUTO 23004KT 10SM OVC020 04/02 A3046 RMK AO2 SLP319 T00390022 $=
201811111253 METAR KCLM 111253Z AUTO 23005KT 10SM OVC018 04/02 A3046 RMK AO2 SLP317 T00390022 $=
201811111153 METAR KCLM 111153Z AUTO 00000KT 10SM OVC018 04/03 A3045 RMK AO2 SLP314 I6000 T00390028 10039 21011 56007 $=
201811111053 METAR KCLM 111053Z AUTO 23004KT 10SM OVC020 03/02 A3045 RMK AO2 SLP315 T00330022 $=
201811110953 METAR KCLM 110953Z AUTO 23003KT 10SM OVC020 03/02 A3045 RMK AO2 SLP314 T00280017 $=
201811110853 METAR KCLM 110853Z AUTO VRB03KT 9SM OVC023 02/02 A3047 RMK AO2 SLP322 I3000 T00170017 51003 $=
201811110828 SPECI KCLM 110828Z AUTO 14004KT 9SM BKN026 02/01 A3048 RMK AO2 T00170006 $=
201811110753 METAR KCLM 110753Z AUTO 16004KT 6SM BR CLR M01/M01 A3047 RMK AO2 SLP322 I1000 T10061011 400891011 $=
201811110653 METAR KCLM 110653Z AUTO 00000KT 9SM CLR M01/M01 A3047 RMK AO2 SLP321 T10061011 $=
201811110553 METAR KCLM 110553Z AUTO 00000KT 7SM CLR M01/M01 A3047 RMK AO2 SLP320 I1001 I6002 T10061006 10067 21011 51011 $=
201811110453 METAR KCLM 110453Z AUTO 00000KT 7SM CLR M01/M02 A3045 RMK AO2 SLP316 I1001 T10111017 $=
201811110353 METAR KCLM 110353Z AUTO 00000KT 6SM BR CLR 01/00 A3045 RMK AO2 SLP316 T00060000 $=
201811110253 METAR KCLM 110253Z AUTO 00000KT 6SM BR CLR 02/01 A3043 RMK AO2 SLP308 T00170006 53001 $=
201811110153 METAR KCLM 110153Z AUTO 00000KT 9SM CLR 03/02 A3042 RMK AO2 SLP304 T00280017 $=
201811110053 METAR KCLM 110053Z AUTO 00000KT 6SM BR CLR 04/04 A3044 RMK AO2 SLP308 T00440039 $=
201811102353 METAR KCLM 102353Z AUTO 15003KT 10SM CLR 06/04 A3043 RMK AO2 SLP307 T00610039 10089 20061 55005 $=
201811102253 METAR KCLM 102253Z AUTO 12005KT 10SM CLR 08/04 A3043 RMK AO2 SLP306 T00830044 $=
201811102153 METAR KCLM 102153Z AUTO 12007KT 10SM FEW036 08/06 A3043 RMK AO2 SLP305 T00830056 $=
201811102053 METAR KCLM 102053Z AUTO 11006KT 10SM OVC039 08/06 A3044 RMK AO2 SLP312 T00830056 50005 $=
201811101953 METAR KCLM 101953Z AUTO 06004KT 10SM FEW011 OVC040 08/06 A3045 RMK AO2 SLP315 T00830056 $=
201811101938 SPECI KCLM 101938Z AUTO 06003KT 10SM FEW011 OVC040 08/06 A3045 RMK AO2 T00830061 $=
201811101930 SPECI KCLM 101930Z AUTO 02003KT 10SM BKN011 OVC040 08/06 A3045 RMK AO2 T00830061 $=
201811101922 SPECI KCLM 101922Z AUTO 02004KT 10SM SCT009 SCT014 OVC040 08/06 A3045 RMK AO2 T00830061 $=
201811101919 SPECI KCLM 101919Z AUTO 00000KT 10SM BKN011 OVC040 08/06 A3045 RMK AO2 T00830061 $=
201811101908 SPECI KCLM 101908Z AUTO VRB03KT 10SM BKN008 BKN013 OVC040 08/06 A3045 RMK AO2 CIG 007V012 T00830061 $=
201811101853 METAR KCLM 101853Z AUTO 08004KT 10SM SCT009 BKN012 OVC042 08/06 A3044 RMK AO2 SLP312 T00830061 $=
201811101753 METAR KCLM 101753Z AUTO 00000KT 10SM BKN010 OVC016 07/06 A3043 RMK AO2 CIG 008V012 SLP307 60000 T00670056 10067 20050 52016 $=
201811101710 SPECI KCLM 101710Z AUTO 00000KT 10SM BKN013 OVC050 07/06 A3042 RMK AO2 T00670056 $=
201811101653 METAR KCLM 101653Z AUTO 23003KT 10SM BKN015 BKN031 BKN050 06/05 A3041 RMK AO2 SLP301 T00610050 $=
201811101636 SPECI KCLM 101636Z AUTO 00000KT 10SM BKN015 06/05 A3041 RMK AO2 T00610050 $=
201811101553 METAR KCLM 101553Z AUTO 24004KT 10SM OVC012 06/04 A3040 RMK AO2 SLP296 T00560044 $=
201811101536 SPECI KCLM 101536Z AUTO 00000KT 10SM BKN012 OVC034 06/04 A3039 RMK AO2 T00560044 $=
201811101453 METAR KCLM 101453Z AUTO 22004KT 10SM FEW016 SCT037 OVC055 06/04 A3038 RMK AO2 RAE1357 SLP291 P0000 60000 T00560044 53013 $=
201811101436 SPECI KCLM 101436Z AUTO 00000KT 10SM FEW017 SCT022 OVC055 06/04 A3038 RMK AO2 RAE1357 P0000 T00560044 $=
201811101406 SPECI KCLM 101406Z AUTO 23003KT 10SM BKN019 OVC046 06/04 A3036 RMK AO2 RAE1357 P0000 T00560044 $=
201811101353 METAR KCLM 101353Z AUTO 23004KT 10SM -RA FEW020 BKN042 OVC049 06/04 A3036 RMK AO2 RAB27 SLP283 P0000 T00560044 $=
201811101253 METAR KCLM 101253Z AUTO 24004KT 10SM BKN031 OVC055 06/04 A3035 RMK AO2 SLP280 T00560044 $=
201811101229 SPECI KCLM 101229Z AUTO 21004KT 10SM SCT027 SCT034 OVC055 06/04 A3035 RMK AO2 T00560039 $=
201811101153 METAR KCLM 101153Z AUTO 23006KT 10SM OVC029 06/04 A3035 RMK AO2 SLP278 70014 T00560039 10061 20033 51006 $=
201811101149 SPECI KCLM 101149Z AUTO 24005KT 10SM OVC029 05/04 A3034 RMK AO2 $=
201811101053 METAR KCLM 101053Z AUTO 00000KT 10SM FEW055 03/03 A3033 RMK AO2 SLP274 T00330028 $=
201811100953 METAR KCLM 100953Z AUTO 24007KT 10SM SCT060 06/04 A3033 RMK AO2 SLP271 T00560039 $=
201811100853 METAR KCLM 100853Z AUTO 24006KT 10SM FEW042 OVC060 06/04 A3032 RMK AO2 SLP271 T00610044 53003 $=
201811100753 METAR KCLM 100753Z AUTO 22003KT 10SM OVC050 05/04 A3032 RMK AO2 SLP268 T00500039 400830000 $=
201811100653 METAR KCLM 100653Z AUTO 20003KT 4SM BR FEW020 04/03 A3032 RMK AO2 SLP268 T00390033 $=
201811100635 SPECI KCLM 100635Z AUTO 23005KT 6SM BR FEW020 05/04 A3032 RMK AO2 T00500039 $=
201811100627 SPECI KCLM 100627Z AUTO 22004KT 2SM BR FEW020 04/04 A3032 RMK AO2 VIS 1V5 T00440039 $=
201811100620 SPECI KCLM 100620Z AUTO 22003KT 1 3/4SM BR CLR 05/04 A3032 RMK AO2 VIS 1V3 T00500039 $=
201811100553 METAR KCLM 100553Z AUTO 22003KT 7SM FEW027 06/05 A3032 RMK AO2 SLP268 T00560050 10072 20056 51005 $=
201811100546 SPECI KCLM 100546Z AUTO 22003KT 8SM SCT027 06/05 A3032 RMK AO2 T00560050 $=
201811100506 SPECI KCLM 100506Z AUTO 00000KT 10SM SCT010 OVC027 07/06 A3032 RMK AO2 T00720061 TSNO $=
201811100453 METAR KCLM 100453Z AUTO 23003KT 10SM BKN010 OVC026 07/06 A3031 RMK AO2 SLP267 T00720061 $=
201811100442 SPECI KCLM 100442Z AUTO 22003KT 10SM BKN010 OVC024 07/06 A3031 RMK AO2 T00720061 $=
201811100424 SPECI KCLM 100424Z AUTO 00000KT 10SM SCT010 OVC022 07/06 A3031 RMK AO2 T00720061 $=
201811100353 METAR KCLM 100353Z AUTO 24004KT 10SM OVC010 07/06 A3031 RMK AO2 SLP265 T00720061 $=
201811100304 SPECI KCLM 100304Z AUTO 00000KT 7SM BKN011 OVC017 07/07 A3030 RMK AO2 T00720067 $=
201811100253 METAR KCLM 100253Z AUTO 00000KT 8SM OVC015 07/07 A3030 RMK AO2 SLP263 T00720067 51007 $=
201811100246 SPECI KCLM 100246Z AUTO 17003KT 8SM OVC015 07/06 A3030 RMK AO2 T00720061 $=
201811100153 METAR KCLM 100153Z AUTO 00000KT 10SM OVC013 07/06 A3030 RMK AO2 SLP261 T00720061 $=
201811100119 SPECI KCLM 100119Z AUTO 17003KT 10SM OVC014 07/06 A3029 RMK AO2 T00720061 $=
201811100108 SPECI KCLM 100108Z AUTO 00000KT 10SM OVC015 07/06 A3029 RMK AO2 T00720061 $=
201811100053 METAR KCLM 100053Z AUTO 00000KT 10SM BKN014 OVC047 07/06 A3029 RMK AO2 SLP258 T00720061 $=
201811100045 SPECI KCLM 100045Z AUTO 00000KT 10SM BKN015 OVC047 07/06 A3028 RMK AO2 T00720061 $=
201811092353 METAR KCLM 092353Z AUTO 00000KT 10SM BKN045 07/06 A3028 RMK AO2 SLP255 60000 T00720061 10083 20056 57001 $=
201811092303 SPECI KCLM 092303Z AUTO 00000KT 10SM FEW023 OVC043 08/06 A3028 RMK AO2 T00780056 $=
201811092253 METAR KCLM 092253Z AUTO 25003KT 10SM BKN023 OVC041 08/06 A3028 RMK AO2 SLP255 T00780056 $=
201811092153 METAR KCLM 092153Z AUTO 00000KT 10SM FEW013 BKN027 OVC070 08/06 A3028 RMK AO2 SLP256 T00780056 $=
201811092151 SPECI KCLM 092151Z AUTO 00000KT 10SM FEW013 BKN027 BKN070 08/06 A3028 RMK AO2 $=
201811092128 SPECI KCLM 092128Z AUTO 00000KT 10SM FEW024 BKN031 BKN043 08/06 A3028 RMK AO2 T00830061 $=
201811092119 SPECI KCLM 092119Z AUTO 23006KT 10SM FEW016 BKN028 OVC043 08/06 A3027 RMK AO2 T00780056 $=
201811092053 METAR KCLM 092053Z AUTO 32005KT 10SM SCT015 BKN032 OVC070 07/05 A3028 RMK AO2 SLP256 60000 T00720050 50003 $=
201811092001 SPECI KCLM 092001Z AUTO 00000KT 10SM SCT011 OVC033 07/06 A3029 RMK AO2 T00720056=
201811091953 METAR KCLM 091953Z AUTO 24004KT 10SM SCT011 BKN018 OVC032 07/05 A3029 RMK AO2 SLP261 T00720050=
201811091940 SPECI KCLM 091940Z AUTO 24004KT 10SM BKN011 BKN017 OVC034 07/05 A3030 RMK AO2 T00670050=
201811091927 SPECI KCLM 091927Z AUTO 28004KT 10SM FEW012 SCT017 OVC034 07/05 A3030 RMK AO2 T00670050=
201811091901 SPECI KCLM 091901Z AUTO 27003KT 10SM BKN018 BKN037 OVC065 06/05 A3030 RMK AO2 T00610050=
201811091853 METAR KCLM 091853Z AUTO 22004KT 10SM SCT018 BKN037 OVC065 06/05 A3030 RMK AO2 RAE25 SLP262 P0000 T00610050=
201811091753 METAR KCLM 091753Z AUTO 18005KT 5SM -RA BR OVC070 06/04 A3027 RMK AO2 SLP254 P0006 60014 T00560044 10061 20022 58018=
201811091653 METAR KCLM 091653Z AUTO 22003KT 7SM -RA OVC039 05/04 A3031 RMK AO2 SLP265 P0006 T00500039=
201811091553 METAR KCLM 091553Z AUTO 00000KT 5SM -RA BR BKN047 OVC075 05/04 A3031 RMK AO2 SLP267 P0002 T00500039=
201811091453 METAR KCLM 091453Z AUTO 21005KT 10SM -RA FEW012 OVC050 04/03 A3032 RMK AO2 SLP272 P0000 60000 T00390028 55012=
201811091353 METAR KCLM 091353Z AUTO 00000KT 10SM -RA OVC049 04/03 A3032 RMK AO2 RAB43 SLP269 P0000 T00390028=
201811091253 METAR KCLM 091253Z AUTO 00000KT 10SM BKN090 OVC100 03/02 A3033 RMK AO2 SLP273 T00330017=
201811091153 METAR KCLM 091153Z AUTO 21005KT 10SM FEW070 FEW110 03/01 A3036 RMK AO2 SLP283 T00330011 10033 21006 58025=
201811091053 METAR KCLM 091053Z AUTO 15003KT 10SM CLR 01/00 A3038 RMK AO2 SLP290 T00110000=
201811090953 METAR KCLM 090953Z AUTO 25003KT 10SM CLR 02/01 A3042 RMK AO2 SLP302 T00170006=
201811090853 METAR KCLM 090853Z AUTO 23004KT 10SM CLR 01/00 A3043 RMK AO2 SLP308 T00060000 56019=
201811090753 METAR KCLM 090753Z AUTO 22004KT 10SM CLR 01/00 A3045 RMK AO2 SLP312 T00110000 400891006=
201811090653 METAR KCLM 090653Z AUTO 00000KT 10SM CLR 01/M01 A3047 RMK AO2 SLP321 T00061006=
201811090553 METAR KCLM 090553Z AUTO 20004KT 10SM CLR 01/00 A3049 RMK AO2 SLP327 T00110000 10072 20000 57007=
201811090453 METAR KCLM 090453Z AUTO 18003KT 9SM CLR 01/01 A3049 RMK AO2 SLP329 T00110006=
201811090353 METAR KCLM 090353Z AUTO 00000KT 10SM CLR 02/01 A3051 RMK AO2 SLP334 T00170006=
201811090253 METAR KCLM 090253Z AUTO 23003KT 10SM CLR 03/02 A3051 RMK AO2 SLP335 T00280017 58011=
201811090153 METAR KCLM 090153Z AUTO 00000KT 10SM CLR 03/02 A3052 RMK AO2 SLP339 T00330017=
201811090053 METAR KCLM 090053Z AUTO 17004KT 10SM CLR 06/03 A3054 RMK AO2 SLP344 T00560028=
201811082353 METAR KCLM 082353Z AUTO 11006KT 10SM CLR 07/02 A3054 RMK AO2 SLP345 T00720022 10089 20072 56004=
201811082253 METAR KCLM 082253Z AUTO 10006KT 10SM CLR 08/03 A3055 RMK AO2 SLP346 T00830028=
201811082153 METAR KCLM 082153Z AUTO 07006KT 10SM CLR 08/03 A3055 RMK AO2 SLP347 T00830033=
201811082053 METAR KCLM 082053Z AUTO VRB06KT 10SM CLR 09/03 A3055 RMK AO2 SLP349 T00890033 58009=
201811082030 SPECI KCLM 082030Z AUTO VRB04KT 10SM SCT019 08/03 A3056 RMK AO2 T00830033=
201811081953 METAR KCLM 081953Z AUTO VRB05KT 10SM BKN019 08/04 A3057 RMK AO2 SLP354 T00830039=
201811081853 METAR KCLM 081853Z AUTO 09006KT 10SM OVC018 08/03 A3059 RMK AO2 SLP361 T00830033=
201811081810 SPECI KCLM 081810Z AUTO 00000KT 10SM OVC017 08/04 A3058 RMK AO2 T00780039=
201811081753 METAR KCLM 081753Z AUTO 00000KT 10SM OVC014 08/04 A3058 RMK AO2 SLP358 T00780039 10078 20000 51004=
201811081739 SPECI KCLM 081739Z AUTO 00000KT 10SM BKN013 07/03 A3058 RMK AO2 T00720028=
201811081653 METAR KCLM 081653Z AUTO 00000KT 10SM SCT015 06/02 A3058 RMK AO2 SLP356 T00560022=
201811081628 SPECI KCLM 081628Z AUTO 22003KT 10SM OVC015 04/01 A3057 RMK AO2 T00390011=
201811081553 METAR KCLM 081553Z AUTO 23006KT 10SM OVC014 04/01 A3057 RMK AO2 SLP354 T00390006=
201811081453 METAR KCLM 081453Z AUTO 23004KT 10SM OVC013 03/01 A3056 RMK AO2 SLP351 T00280006 56002=
201811081353 METAR KCLM 081353Z AUTO 24006KT 10SM FEW009 BKN014 02/M01 A3057 RMK AO2 SLP354 T00171006=
201811081334 SPECI KCLM 081334Z AUTO 24005KT 10SM FEW009 01/00 A3056 RMK AO2 T00060000=
201811081253 METAR KCLM 081253Z AUTO 00000KT 10SM FEW012 01/M01 A3055 RMK AO2 SLP349 T00061006=
201811081214 SPECI KCLM 081214Z AUTO 00000KT 10SM SCT013 01/00 A3056 RMK AO2 T00110000=
201811081153 METAR KCLM 081153Z AUTO 00000KT 10SM BKN013 02/M01 A3057 RMK AO2 SLP353 T00171006 10033 21006 52007=
201811081129 SPECI KCLM 081129Z AUTO 24004KT 10SM BKN011 03/00 A3057 RMK AO2 T00280000=
201811081053 METAR KCLM 081053Z AUTO 22005KT 10SM BKN008 03/00 A3056 RMK AO2 SLP351 T00330000=
201811081044 SPECI KCLM 081044Z AUTO 23007KT 10SM BKN008 03/00 A3056 RMK AO2 T00280000=
201811081028 SPECI KCLM 081028Z AUTO 23007KT 10SM SCT008 03/00 A3056 RMK AO2 T00280000=
201811081007 SPECI KCLM 081007Z AUTO 23005KT 10SM BKN008 03/00 A3055 RMK AO2 T00280000=
201811080953 METAR KCLM 080953Z AUTO 24003KT 10SM FEW008 00/M01 A3055 RMK AO2 SLP347 T00001006=
201811080936 SPECI KCLM 080936Z AUTO 21003KT 10SM FEW008 M01/M02 A3054 RMK AO2 T10061017=
201811080910 SPECI KCLM 080910Z AUTO 23007KT 10SM BKN008 02/00 A3055 RMK AO2 T00220000=
201811080902 SPECI KCLM 080902Z AUTO 23006KT 10SM SCT008 01/M01 A3055 RMK AO2 T00061006=
201811080853 METAR KCLM 080853Z AUTO 00000KT 10SM CLR 00/M01 A3055 RMK AO2 SLP346 T00001011 51009=
201811080753 METAR KCLM 080753Z AUTO 23005KT 10SM CLR 01/M01 A3054 RMK AO2 SLP342 T00111006 401060000=
201811080653 METAR KCLM 080653Z AUTO 22004KT 10SM CLR 01/M01 A3053 RMK AO2 SLP340 T00061006=
201811080553 METAR KCLM 080553Z AUTO 20003KT 10SM CLR 03/01 A3052 RMK AO2 SLP336 T00280006 10094 20006 51017=
201811080453 METAR KCLM 080453Z AUTO 22003KT 10SM CLR 02/01 A3050 RMK AO2 SLP331 T00170006=
201811080353 METAR KCLM 080353Z AUTO 24007KT 10SM CLR 04/02 A3049 RMK AO2 SLP326 T00440017=
201811080253 METAR KCLM 080253Z AUTO 22003KT 10SM CLR 02/02 A3047 RMK AO2 SLP319 T00220017 53001=
201811080153 METAR KCLM 080153Z AUTO 00000KT 10SM CLR 04/03 A3047 RMK AO2 SLP319 T00440028=
201811080053 METAR KCLM 080053Z AUTO 16003KT 10SM CLR 07/04 A3046 RMK AO2 SLP317 T00670039=
201811072353 METAR KCLM 072353Z AUTO 11003KT 10SM CLR 09/03 A3046 RMK AO2 SLP318 T00940033 10106 20089 53003=
201811072253 METAR KCLM 072253Z AUTO 09005KT 10SM CLR 10/04 A3046 RMK AO2 SLP315 T01000039=
201811072153 METAR KCLM 072153Z AUTO 10005KT 10SM CLR 11/05 A3045 RMK AO2 SLP312 T01060050=
201811072053 METAR KCLM 072053Z AUTO 06005KT 10SM CLR 11/05 A3045 RMK AO2 SLP314 T01060050 51006=
201811071953 METAR KCLM 071953Z AUTO 04005KT 10SM FEW018 11/06 A3045 RMK AO2 SLP311 T01060056=
201811071929 SPECI KCLM 071929Z AUTO 00000KT 10SM FEW026 10/06 A3045 RMK AO2 T01000056=
201811071853 METAR KCLM 071853Z AUTO 11003KT 10SM FEW016 OVC027 09/06 A3045 RMK AO2 SLP313 T00940056=
201811071753 METAR KCLM 071753Z AUTO 09004KT 10SM OVC021 09/06 A3044 RMK AO2 SLP308 T00890056 10089 20056 53020=
201811071712 SPECI KCLM 071712Z AUTO 00000KT 10SM BKN023 07/06 A3042 RMK AO2 T00670056=
201811071653 METAR KCLM 071653Z AUTO 23004KT 10SM SCT031 07/04 A3041 RMK AO2 SLP301 T00670044=
201811071628 SPECI KCLM 071628Z AUTO 23003KT 10SM SCT022 OVC030 07/05 A3040 RMK AO2 T00670050=
201811071553 METAR KCLM 071553Z AUTO 22004KT 10SM BKN023 OVC029 06/04 A3039 RMK AO2 SLP293 T00610044=
201811071453 METAR KCLM 071453Z AUTO 23004KT 10SM BKN023 BKN028 OVC037 06/04 A3038 RMK AO2 SLP289 T00610039 51014=
201811071414 SPECI KCLM 071414Z AUTO 24006KT 10SM BKN026 OVC040 06/04 A3037 RMK AO2 T00610044=
201811071353 METAR KCLM 071353Z AUTO 23006KT 10SM BKN040 06/04 A3036 RMK AO2 SLP284 T00560039=
201811071253 METAR KCLM 071253Z AUTO VRB04KT 10SM FEW020 OVC042 06/04 A3035 RMK AO2 SLP280 T00560044=
201811071153 METAR KCLM 071153Z AUTO 24004KT 10SM FEW018 SCT028 OVC039 06/04 A3034 RMK AO2 RAE27 SLP273 P0005 60005 70005 T00610044 10078 20061 51012=
201811071053 METAR KCLM 071053Z AUTO 25004KT 9SM -RA BKN019 OVC025 07/03 A3033 RMK AO2 RAB52 SLP270 P0000 T00670028=
201811071012 SPECI KCLM 071012Z AUTO 24005KT 10SM SCT020 BKN029 OVC045 07/03 A3032 RMK AO2 T00670028=
201811070953 METAR KCLM 070953Z AUTO 23006KT 10SM SCT030 SCT038 OVC045 06/03 A3031 RMK AO2 SLP266 T00610028=
201811070935 SPECI KCLM 070935Z AUTO 23007KT 10SM FEW020 BKN031 06/03 A3031 RMK AO2 T00610028=
201811070902 SPECI KCLM 070902Z AUTO 25006KT 10SM BKN019 OVC070 07/03 A3030 RMK AO2 T00670028=
201811070853 METAR KCLM 070853Z AUTO 25007KT 10SM SCT019 BKN044 OVC070 07/03 A3030 RMK AO2 SLP262 T00670028 53013=
201811070753 METAR KCLM 070753Z AUTO 24009KT 10SM BKN050 BKN060 08/03 A3029 RMK AO2 SLP256 T00780028 401280067=
201811070653 METAR KCLM 070653Z AUTO 24007KT 10SM BKN050 OVC075 07/03 A3028 RMK AO2 SLP254 T00670033=
201811070553 METAR KCLM 070553Z AUTO 25007KT 10SM BKN046 BKN070 08/03 A3026 RMK AO2 SLP249 T00780033 10106 20072 51012=
201811070453 METAR KCLM 070453Z AUTO 25008KT 10SM SCT065 08/04 A3025 RMK AO2 SLP245 T00780039=
201811070353 METAR KCLM 070353Z AUTO 26006KT 10SM CLR 08/04 A3024 RMK AO2 SLP241 T00780039=
201811070253 METAR KCLM 070253Z AUTO 26006KT 10SM CLR 08/03 A3023 RMK AO2 SLP237 T00780033 53003=
201811070153 METAR KCLM 070153Z AUTO 25006KT 10SM BKN085 09/03 A3022 RMK AO2 SLP234 T00890033=
201811070053 METAR KCLM 070053Z AUTO 29006KT 10SM BKN060 OVC075 10/04 A3022 RMK AO2 SLP233 T01000044=
201811062353 METAR KCLM 062353Z AUTO 30009KT 10SM FEW060 OVC080 10/06 A3022 RMK AO2 RAB2257E12 SLP234 P0000 60000 T01000061 10128 20100 53004=
201811062253 METAR KCLM 062253Z AUTO 29013KT 10SM FEW028 BKN080 11/04 A3021 RMK AO2 SLP230 T01110039=
201811062153 METAR KCLM 062153Z AUTO 28009KT 10SM SCT060 OVC075 12/06 A3021 RMK AO2 RAB18E28 SLP232 P0000 T01170056=
201811062053 METAR KCLM 062053Z AUTO 31009KT 10SM FEW050 FEW060 FEW085 13/06 A3021 RMK AO2 SLP230 T01280061 50002=
201811061953 METAR KCLM 061953Z AUTO 32009KT 10SM FEW033 SCT050 SCT060 12/07 A3021 RMK AO2 SLP231 T01220067=
201811061853 METAR KCLM 061853Z AUTO 30009KT 10SM FEW035 FEW044 12/07 A3021 RMK AO2 SLP232 T01170067=
201811061753 METAR KCLM 061753Z AUTO 26007KT 10SM SCT047 12/07 A3020 RMK AO2 SLP228 T01170067 10117 20083 51011=
201811061653 METAR KCLM 061653Z AUTO 28008KT 10SM SCT034 BKN046 BKN055 10/05 A3020 RMK AO2 SLP226 T01000050=
201811061553 METAR KCLM 061553Z AUTO 25008KT 10SM SCT036 09/04 A3018 RMK AO2 SLP221 T00890044=
201811061453 METAR KCLM 061453Z AUTO 25007KT 10SM SCT033 BKN045 BKN055 09/04 A3017 RMK AO2 SLP217 T00890044 51007 $=
201811061353 METAR KCLM 061353Z AUTO 25009KT 10SM FEW043 09/05 A3017 RMK AO2 SLP216 T00890050 $=
201811061253 METAR KCLM 061253Z AUTO 27010KT 10SM OVC036 09/05 A3016 RMK AO2 SLP214 T00940050 $=
201811061153 METAR KCLM 061153Z AUTO 27012KT 10SM SCT033 OVC047 09/05 A3015 RMK AO2 SLP210 70012 T00940050 10106 20089 52006 $=
201811061053 METAR KCLM 061053Z AUTO 26007KT 10SM FEW038 OVC050 09/05 A3014 RMK AO2 SLP208 T00940050=
201811060953 METAR KCLM 060953Z AUTO 25009KT 10SM OVC050 09/05 A3014 RMK AO2 SLP206 T00940050=
201811060853 METAR KCLM 060853Z AUTO 25008KT 10SM BKN050 09/05 A3013 RMK AO2 SLP204 T00940050 53015=
201811060753 METAR KCLM 060753Z AUTO 25008KT 10SM CLR 09/04 A3011 RMK AO2 SLP198 T00940044 401330089=
201811060653 METAR KCLM 060653Z AUTO 24006KT 10SM FEW037 SCT110 09/05 A3010 RMK AO2 SLP194 T00940050=
201811060553 METAR KCLM 060553Z AUTO 27012KT 10SM FEW037 10/05 A3009 RMK AO2 SLP189 60000 T01000050 10128 20089 53010=
201811060453 METAR KCLM 060453Z AUTO 25010KT 10SM FEW032 09/06 A3007 RMK AO2 SLP183 T00940056=
201811060353 METAR KCLM 060353Z AUTO 25010KT 10SM CLR 09/06 A3006 RMK AO2 SLP179 T00940056=
201811060253 METAR KCLM 060253Z AUTO 26013KT 10SM CLR 09/06 A3006 RMK AO2 RAE07 SLP179 P0000 60000 T00940061 53005=
201811060153 METAR KCLM 060153Z AUTO 28011KT 10SM -RA SCT040 SCT047 BKN060 10/06 A3005 RMK AO2 RAB40 SLP177 P0000 T01000061=
201811060053 METAR KCLM 060053Z AUTO 26008KT 10SM FEW045 11/05 A3004 RMK AO2 SLP174 T01060050=
201811052353 METAR KCLM 052353Z AUTO 28007KT 10SM OVC041 12/06 A3004 RMK AO2 SLP174 60002 T01220056 10133 20111 53001=
201811052253 METAR KCLM 052253Z AUTO 26009KT 10SM OVC048 13/06 A3004 RMK AO2 SLP172 T01280056=
201811052153 METAR KCLM 052153Z AUTO 25007KT 10SM CLR 13/06 A3004 RMK AO2 SLP172 T01330056=
201811052053 METAR KCLM 052053Z AUTO 28007KT 10SM SCT055 BKN110 13/07 A3004 RMK AO2 SLP172 60002 T01280072 58000=
201811051953 METAR KCLM 051953Z AUTO 25007KT 10SM SCT055 SCT070 BKN090 12/08 A3005 RMK AO2 RAB15E50 SLP175 P0002 T01170083=
201811051853 METAR KCLM 051853Z AUTO 26009KT 10SM FEW060 SCT100 13/07 A3004 RMK AO2 SLP174 T01280072=
201811051753 METAR KCLM 051753Z AUTO 27010KT 10SM SCT046 BKN055 OVC110 11/06 A3004 RMK AO2 SLP173 60010 T01110061 10111 20089 53007=
201811051653 METAR KCLM 051653Z AUTO 25012KT 10SM OVC050 11/06 A3002 RMK AO2 SLP167 T01060061=
201811051553 METAR KCLM 051553Z AUTO 25009KT 10SM OVC044 09/06 A3002 RMK AO2 SLP167 T00940061=
201811051453 METAR KCLM 051453Z AUTO 25014G19KT 10SM BKN050 09/07 A3002 RMK AO2 RAE20 SLP166 P0000 60010 T00940067 50002=
201811051353 METAR KCLM 051353Z AUTO 26010KT 10SM -RA BKN044 OVC055 09/07 A3003 RMK AO2 SLP170 P0008 T00940067 $=
201811051253 METAR KCLM 051253Z AUTO 27006KT 9SM -RA BKN050 OVC065 10/06 A3003 RMK AO2 RAB44 SLP169 P0002 T01000061 $=
201811051153 METAR KCLM 051153Z AUTO 24011KT 10SM SCT065 SCT120 10/06 A3001 RMK AO2 SLP164 T01000061 10106 20089 58005 $=
201811051053 METAR KCLM 051053Z AUTO 28007KT 10SM CLR 09/06 A3003 RMK AO2 SLP170 T00890061 $=
201811050953 METAR KCLM 050953Z AUTO 27006KT 10SM FEW045 SCT100 09/07 A3003 RMK AO2 SLP171 T00940067 $=
201811050853 METAR KCLM 050853Z AUTO 27009KT 10SM SCT041 BKN055 10/06 A3003 RMK AO2 SLP169 T01000061 51002 $=
201811050753 METAR KCLM 050753Z AUTO 26008KT 10SM BKN060 10/06 A3003 RMK AO2 SLP168 T01000061 401560100 $=
201811050653 METAR KCLM 050653Z AUTO 26009KT 10SM OVC055 11/07 A3003 RMK AO2 SLP167 T01060067 $=
201811050553 METAR KCLM 050553Z AUTO 24008KT 10SM SCT080 BKN090 11/07 A3002 RMK AO2 RAE05 SLP167 P0000 60000 T01060067 10133 20106 50004 $=
201811050453 METAR KCLM 050453Z AUTO 28009KT 10SM -RA SCT045 BKN055 OVC100 11/07 A3002 RMK AO2 RAB53 SLP168 P0000 T01110067 $=
201811050353 METAR KCLM 050353Z AUTO 25013KT 10SM FEW050 BKN095 OVC110 11/07 A3002 RMK AO2 SLP165 T01110067 $=
201811050253 METAR KCLM 050253Z AUTO 25009KT 10SM SCT049 11/07 A3001 RMK AO2 SLP163 60000 T01110072 50001 $=
201811050153 METAR KCLM 050153Z AUTO 26009KT 10SM OVC065 11/07 A3001 RMK AO2 RAB06E36 SLP164 P0000 T01110072 $=
201811050053 METAR KCLM 050053Z AUTO 28009KT 10SM SCT075 BKN120 12/07 A3001 RMK AO2 SLP164 T01170072 $=
201811042353 METAR KCLM 042353Z AUTO 30013KT 10SM BKN049 BKN085 13/06 A3001 RMK AO2 SLP162 T01330061 10156 20133 51010 $=
201811042253 METAR KCLM 042253Z AUTO 28014G21KT 10SM FEW090 14/06 A3000 RMK AO2 SLP159 T01440061 $=
201811042153 METAR KCLM 042153Z AUTO 28012KT 10SM SCT060 14/06 A2999 RMK AO2 SLP157 T01440056 $=
201811042053 METAR KCLM 042053Z AUTO 27014G22KT 10SM SCT047 SCT055 15/04 A2998 RMK AO2 SLP152 T01500044 51018 $=
201811041953 METAR KCLM 041953Z AUTO 29013G22KT 10SM CLR 15/04 A2998 RMK AO2 SLP151 T01500044 $=
201811041853 METAR KCLM 041853Z AUTO 28015G21KT 10SM CLR 15/04 A2996 RMK AO2 SLP145 T01500039 $=
201811041753 METAR KCLM 041753Z AUTO 28014G23KT 10SM CLR 14/04 A2993 RMK AO2 SLP135 T01440044 10144 20117 51025 $=
201811041653 METAR KCLM 041653Z AUTO 29015G20KT 10SM CLR 13/06 A2991 RMK AO2 PK WND 26027/1624 SLP129 T01330056 $=
201811041553 METAR KCLM 041553Z AUTO 28014G21KT 10SM CLR 13/06 A2988 RMK AO2 SLP120 T01280061 $=
201811041453 METAR KCLM 041453Z AUTO 27016G26KT 10SM CLR 12/07 A2985 RMK AO2 PK WND 27026/1449 SLP109 T01220072 51020 $=
201811041353 METAR KCLM 041353Z AUTO 30011KT 10SM CLR 12/08 A2984 RMK AO2 SLP107 T01170078 $=
201811041253 METAR KCLM 041253Z AUTO 28012G20KT 260V340 10SM CLR 13/08 A2982 RMK AO2 PK WND 28026/1237 SLP100 T01280078 $=
201811041153 METAR KCLM 041153Z AUTO 29012KT 10SM SCT060 13/11 A2979 RMK AO2 RAE21 SLP087 P0000 60049 70088 T01330111 10133 20100 $=
201811041053 METAR KCLM 041053Z AUTO 30011KT 10SM -RA SCT031 BKN040 OVC060 13/12 A2978 RMK AO2 RAB0954B50 SLP084 P0000 T01330122 $=
201811040953 METAR KCLM 040953Z AUTO 26007KT 10SM BKN037 OVC043 13/11 A2976 RMK AO2 RAE45 SLP078 P0008 T01280111=
201811040853 METAR KCLM 040853Z AUTO VRB04KT 3SM RA BR FEW030 OVC039 11/10 A2975 RMK AO2 SLP075 P0008 60041 T01110100 55039=
201811040753 METAR KCLM 040753Z AUTO 33006KT 6SM -RA BR OVC070 11/09 A2974 RMK AO2 SLP072 P0016 T01060094 401220094=
201811040653 METAR KCLM 040653Z AUTO 18008KT 4SM -RA BR OVC080 11/09 A2979 RMK AO2 SLP088 P0017 T01110094=
201811040553 METAR KCLM 040553Z AUTO VRB03KT 4SM -RA BR OVC080 09/09 A2987 RMK AO2 SLP115 P0014 60030 T00940094 10117 20094 56034=
201811040453 METAR KCLM 040453Z AUTO 18005KT 5SM -RA BR FEW002 SCT060 OVC090 10/09 A2988 RMK AO2 RAB0354E03B32 SLP119 P0000 T01000094=
201811040443 SPECI KCLM 040443Z AUTO 10004KT 5SM -RA BR SCT002 BKN060 OVC095 10/09 A2988 RMK AO2 RAB0354E03B32 P0000 T01000094=
201811040353 METAR KCLM 040353Z AUTO 29003KT 7SM OVC002 10/09 A2994 RMK AO2 RAE43 SLP138 P0002 T01000094=
201811040308 SPECI KCLM 040308Z AUTO 30004KT 5SM -RA BR BKN003 BKN049 OVC070 11/09 A2995 RMK AO2 P0000 T01060094=
201811040253 METAR KCLM 040253Z AUTO 00000KT 6SM -RA BR FEW003 BKN050 OVC075 11/10 A2997 RMK AO2 SLP148 P0006 60014 T01060100 56038=
201811040153 METAR KCLM 040153Z AUTO VRB04KT 7SM -RA OVC055 11/10 A2998 RMK AO2 SLP153 P0006 T01110100=
201811040053 METAR KCLM 040053Z AUTO 27003KT 7SM -RA OVC055 11/10 A3005 RMK AO2 SLP177 P0002 T01060100=
201811032353 METAR KCLM 032353Z AUTO 00000KT 6SM -RA BR BKN065 OVC080 12/11 A3008 RMK AO2 SLP187 P0004 60008 T01170106 10122 20106 58032=
201811032253 METAR KCLM 032253Z AUTO 00000KT 6SM -RA BR FEW002 FEW060 OVC080 11/10 A3012 RMK AO2 RAB2159 SLP200 P0002 T01110100=
201811032223 SPECI KCLM 032223Z AUTO 36003KT 4SM -RA BR FEW002 FEW019 OVC070 11/10 A3014 RMK AO2 RAB2159 P0002 T01060100=
201811032153 METAR KCLM 032153Z AUTO 01003KT 9SM OVC070 11/10 A3016 RMK AO2 SLP213 T01110100=
201811032053 METAR KCLM 032053Z AUTO VRB03KT 8SM SCT004 BKN048 OVC060 11/10 A3018 RMK AO2 SLP220 60002 T01110100 56004=
201811032050 SPECI KCLM 032050Z AUTO 00000KT 8SM FEW004 BKN050 OVC060 11/10 A3018 RMK AO2=
201811031953 METAR KCLM 031953Z AUTO 00000KT 10SM OVC060 12/09 A3018 RMK AO2 SLP220 T01220094=
201811031853 METAR KCLM 031853Z AUTO 00000KT 10SM SCT060 OVC080 12/10 A3019 RMK AO2 RAB04E44 SLP224 P0002 T01220100=
201811031753 METAR KCLM 031753Z AUTO 15004KT 10SM OVC055 11/10 A3022 RMK AO2 RAB40E53 SLP234 P0000 60001 T01110100 10117 20100 56013=
201811031653 METAR KCLM 031653Z AUTO 31003KT 10SM BKN060 OVC080 11/09 A3023 RMK AO2 SLP236 T01110094=
201811031553 METAR KCLM 031553Z AUTO 14004KT 10SM OVC060 10/09 A3024 RMK AO2 SLP242 T01000089=
201811031453 METAR KCLM 031453Z AUTO 00000KT 10SM BKN060 BKN100 10/09 A3026 RMK AO2 RAB12E28 SLP247 P0001 60001 T01000089 58002=
201811031353 METAR KCLM 031353Z AUTO 00000KT 10SM OVC060 11/09 A3026 RMK AO2 RAB01E52 SLP247 P0000 T01060089=
201811031253 METAR KCLM 031253Z AUTO 11008KT 10SM FEW065 BKN080 OVC095 12/08 A3026 RMK AO2 SLP248 T01170083=
201811031153 METAR KCLM 031153Z AUTO 13005KT 10SM BKN043 BKN050 OVC110 10/08 A3026 RMK AO2 SLP248 T01000083 10128 20100 58002=
201811031053 METAR KCLM 031053Z AUTO 00000KT 10SM CLR 11/08 A3026 RMK AO2 SLP247 T01060083=
201811030953 METAR KCLM 030953Z AUTO 23004KT 10SM OVC110 11/08 A3028 RMK AO2 SLP252 T01110083=
201811030853 METAR KCLM 030853Z AUTO 28008KT 10SM BKN100 BKN120 11/08 A3027 RMK AO2 SLP250 T01110083 53006=
201811030753 METAR KCLM 030753Z AUTO 33004KT 10SM OVC120 12/08 A3026 RMK AO2 SLP246 T01170078 401560111=
201811030653 METAR KCLM 030653Z AUTO 30006KT 10SM BKN120 12/07 A3025 RMK AO2 SLP244 T01170072=
201811030553 METAR KCLM 030553Z AUTO 29012KT 10SM OVC100 12/08 A3025 RMK AO2 SLP244 T01170078 10139 20117 50001=
201811030453 METAR KCLM 030453Z AUTO 30010KT 10SM BKN120 13/07 A3027 RMK AO2 SLP250 T01280067=
201811030353 METAR KCLM 030353Z AUTO 27013KT 10SM OVC110 14/07 A3026 RMK AO2 SLP246 T01390067=
201811030253 METAR KCLM 030253Z AUTO 27017G26KT 10SM SCT047 14/07 A3025 RMK AO2 PK WND 25026/0249 SLP243 T01390067 53013=
201811030153 METAR KCLM 030153Z AUTO 26012KT 10SM CLR 13/07 A3023 RMK AO2 SLP238 T01330072=
201811030053 METAR KCLM 030053Z AUTO 29016G23KT 10SM CLR 13/07 A3022 RMK AO2 SLP232 T01330072=
201811022353 METAR KCLM 022353Z AUTO 30012G19KT 10SM FEW033 BKN042 OVC070 13/09 A3021 RMK AO2 SLP230 60000 T01330089 10156 20122 51021=
201811022253 METAR KCLM 022253Z AUTO 32010KT 10SM FEW031 BKN047 BKN055 13/11 A3021 RMK AO2 SLP228 T01330106=
201811022153 METAR KCLM 022153Z AUTO 31014G19KT 10SM FEW036 BKN044 OVC055 14/09 A3017 RMK AO2 SLP217 T01390094=
201811022053 METAR KCLM 022053Z AUTO 29011G19KT 10SM BKN047 BKN060 15/09 A3015 RMK AO2 SLP209 60000 T01500089 53014=
201811021953 METAR KCLM 021953Z AUTO 30013KT 10SM BKN060 OVC070 14/11 A3013 RMK AO2 SLP204 T01390106=
201811021853 METAR KCLM 021853Z AUTO 29010KT 10SM SCT055 14/11 A3011 RMK AO2 RAB1754E04B24E36 SLP196 P0000 T01390111=
201811021753 METAR KCLM 021753Z AUTO 31016G20KT 5SM HZ FEW024 BKN042 OVC055 14/09 A3011 RMK AO2 RAB09E19 SLP195 P0000 60000 T01390094 10156 20128 53037=
201811021653 METAR KCLM 021653Z AUTO 28014KT 10SM BKN060 15/07 A3006 RMK AO2 SLP180 T01500072=
201811021553 METAR KCLM 021553Z AUTO 27016G24KT 10SM BKN055 14/07 A3003 RMK AO2 PK WND 29031/1542 SLP170 T01390072=
201811021453 METAR KCLM 021453Z AUTO 29012G20KT 10SM SCT060 13/11 A3000 RMK AO2 SLP158 T01280106 53035 $=
201811021353 METAR KCLM 021353Z AUTO 32007G17KT 10SM CLR 14/10 A2996 RMK AO2 SLP146 T01440100 $=
201811021253 METAR KCLM 021253Z AUTO 27012G21KT 10SM CLR 15/11 A2991 RMK AO2 SLP129 T01500106 $=
201811021153 METAR KCLM 021153Z AUTO 27012G18KT 10SM CLR 15/11 A2989 RMK AO2 SLP123 60085 70105 T01500111 10161 20128 55000 $=
201811021053 METAR KCLM 021053Z AUTO 27009KT 10SM FEW055 15/12 A2989 RMK AO2 RAE06 SLP121 P0000 T01500122 $=
201811021000 SPECI KCLM 021000Z AUTO 23006KT 7SM -RA SCT007 BKN050 OVC070 14/13 A2989 RMK AO2 P0000 T01390133 $=
201811020953 METAR KCLM 020953Z AUTO 25007KT 4SM -RA BR BKN007 OVC045 14/13 A2990 RMK AO2 SLP123 P0035 T01390133 $=
201811020940 SPECI KCLM 020940Z AUTO 29003KT 2SM -RA BR BKN008 OVC014 13/13 A2991 RMK AO2 P0032 T01330128 $=
201811020934 SPECI KCLM 020934Z AUTO 00000KT 1 1/2SM RA BR SCT008 OVC014 14/13 A2990 RMK AO2 P0030 T01390128 $=
201811020931 SPECI KCLM 020931Z AUTO 00000KT 2SM RA BR BKN008 OVC016 14/13 A2990 RMK AO2 P0028 T01390133 $=
201811020920 SPECI KCLM 020920Z AUTO 19003KT 3SM -RA BR FEW004 SCT014 OVC021 13/13 A2990 RMK AO2 P0022 T01330133 $=
201811020913 SPECI KCLM 020913Z AUTO 00000KT 1 1/2SM RA BR FEW006 BKN019 OVC024 14/13 A2990 RMK AO2 P0018 T01390133 $=
201811020902 SPECI KCLM 020902Z AUTO 31003KT 1 1/2SM RA BR FEW016 FEW022 OVC029 13/13 A2990 RMK AO2 P0010 T01330128 $=
201811020853 METAR KCLM 020853Z AUTO 30005KT 2 1/2SM RA BR FEW029 OVC040 14/13 A2990 RMK AO2 PRESRR SLP123 P0024 60050 T01390128 53001 $=
201811020849 SPECI KCLM 020849Z AUTO 28004KT 2 1/2SM RA BR FEW030 OVC042 14/13 A2989 RMK AO2 P0020 $=
201811020837 SPECI KCLM 020837Z AUTO 31003KT 3SM -RA BR OVC050 14/13 A2988 RMK AO2 P0014 T01390128 $=
201811020828 SPECI KCLM 020828Z AUTO 00000KT 2 1/2SM RA BR BKN055 OVC075 14/13 A2987 RMK AO2 P0010 T01390128 $=
201811020753 METAR KCLM 020753Z AUTO 00000KT 4SM -RA BR OVC080 13/12 A2986 RMK AO2 SLP113 P0019 T01330122 401610117 $=
201811020653 METAR KCLM 020653Z AUTO 00000KT 3SM -RA BR FEW004 SCT060 OVC075 13/13 A2989 RMK AO2 SLP122 P0007 T01280128 $=
201811020643 SPECI KCLM 020643Z AUTO VRB04KT 5SM -RA BR FEW003 BKN075 OVC110 13/12 A2990 RMK AO2 P0004 T01280122 $=
201811020553 METAR KCLM 020553Z AUTO 00000KT 10SM -RA FEW085 SCT110 16/13 A2988 RMK AO2 RAB50 SLP117 P0000 60000 T01610128 10161 20128 55027 $=
201811020453 METAR KCLM 020453Z AUTO 12007KT 10SM CLR 15/13 A2987 RMK AO2 SLP115 T01500128 $=
201811020353 METAR KCLM 020353Z AUTO 00000KT 10SM OVC060 14/13 A2993 RMK AO2 SLP136 T01440128 $=
201811020253 METAR KCLM 020253Z AUTO 15005KT 5SM BR OVC055 13/13 A2996 RMK AO2 RAB20E30 SLP144 P0000 60000 T01330128 58010 $=
201811020223 SPECI KCLM 020223Z AUTO 00000KT 3SM -RA BR OVC050 13/13 A2997 RMK AO2 RAB20 P0000 T01330128 $=
201811020203 SPECI KCLM 020203Z AUTO 00000KT 1 1/2SM BR FEW001 BKN040 OVC050 13/13 A2997 RMK AO2 T01330128 $=
201811020153 METAR KCLM 020153Z AUTO 00000KT 3/4SM BR SCT001 BKN034 OVC050 13/13 A2997 RMK AO2 SLP150 T01330128 $=
201811020136 SPECI KCLM 020136Z AUTO 00000KT 2 1/2SM BR FEW002 OVC055 13/13 A2997 RMK AO2 T01330128 $=
201811020053 METAR KCLM 020053Z AUTO 34003KT 10SM OVC055 14/13 A2998 RMK AO2 SLP152 T01390128 $=
201811012353 METAR KCLM 012353Z AUTO 00000KT 10SM OVC050 15/13 A2999 RMK AO2 RAB09E20 SLP154 P0000 60006 T01500133 10150 20139 56019 $=
201811012253 METAR KCLM 012253Z AUTO 00000KT 10SM OVC055 14/13 A3000 RMK AO2 RAE01 SLP159 P0000 T01440133 $=
201811012202 SPECI KCLM 012202Z AUTO 10004KT 10SM OVC055 14/13 A3001 RMK AO2 RAE01 P0000 T01440133 $=
201811012153 METAR KCLM 012153Z AUTO 00000KT 2 1/2SM RA BR OVC050 14/13 A3002 RMK AO2 RAB27 SLP166 P0004 T01390133 $=
201811012053 METAR KCLM 012053Z AUTO 11004KT 9SM OVC060 14/13 A3004 RMK AO2 RAB20E52 SLP173 P0002 60002 T01440128 58004 $=
201811011953 METAR KCLM 011953Z AUTO 03004KT 10SM FEW014 BKN060 OVC075 14/13 A3006 RMK AO2 SLP180 T01440128 $=
201811011853 METAR KCLM 011853Z AUTO 10006KT 10SM FEW014 BKN075 OVC095 14/13 A3006 RMK AO2 SLP178 T01440128 $=
201811011753 METAR KCLM 011753Z AUTO 12006KT 10SM FEW009 SCT070 BKN095 14/13 A3005 RMK AO2 SLP177 60014 T01390128 10139 20117 56003 $=
201811011724 SPECI KCLM 011724Z AUTO 11004KT 10SM FEW009 BKN090 13/13 A3006 RMK AO2 T01330128 $=
201811011653 METAR KCLM 011653Z AUTO 00000KT 10SM BKN085 BKN110 13/12 A3006 RMK AO2 RAE00 SLP179 P0002 T01280122=
201811011553 METAR KCLM 011553Z AUTO 00000KT 5SM -RA BR OVC110 12/11 A3006 RMK AO2 RAB32 SLP178 P0000 T01220111=
201811011453 METAR KCLM 011453Z AUTO 00000KT 9SM OVC050 12/11 A3006 RMK AO2 RAB1354E31 SLP181 P0002 60012 T01170111 56007=
201811011353 METAR KCLM 011353Z AUTO 00000KT 9SM OVC050 12/12 A3007 RMK AO2 RAE44 SLP182 P0008 T01220117 $=
201811011253 METAR KCLM 011253Z AUTO 00000KT 5SM -RA BR SCT050 BKN080 OVC095 12/11 A3008 RMK AO2 RAB45 SLP185 P0002 T01170111 $=
201811011153 METAR KCLM 011153Z AUTO 17004KT 7SM SCT008 OVC048 12/12 A3009 RMK AO2 RAE40 SLP188 P0004 60024 70024 T01220117 10122 20122 58012=
201811011110 SPECI KCLM 011110Z AUTO 00000KT 5SM -RA BR BKN007 BKN015 OVC029 12/12 A3011 RMK AO2 P0002 T01220117=
201811011103 SPECI KCLM 011103Z AUTO 00000KT 8SM -RA SCT007 BKN014 OVC038 12/12 A3011 RMK AO2 P0000 T01220117=
201811011053 METAR KCLM 011053Z AUTO 00000KT 4SM -RA BR SCT007 BKN028 OVC037 12/12 A3011 RMK AO2 RAB13 SLP195 P0014 T01220117=
201811011040 SPECI KCLM 011040Z AUTO 00000KT 2 1/2SM -RA BR SCT008 BKN015 OVC040 12/12 A3011 RMK AO2 RAB13 P0012 T01220117=
201811011033 SPECI KCLM 011033Z AUTO 21003KT 1 1/2SM RA BR BKN009 BKN015 OVC026 12/12 A3011 RMK AO2 RAB13 CIG 006V011 P0010 T01220117=
201811011019 SPECI KCLM 011019Z AUTO 25005KT 2 1/2SM RA BR OVC009 12/12 A3012 RMK AO2 RAB13 P0001 T01220117=
201811011005 SPECI KCLM 011005Z AUTO 28003KT 6SM BR FEW005 OVC010 12/12 A3012 RMK AO2 T01220117=
201811010953 METAR KCLM 010953Z AUTO 00000KT 4SM BR BKN004 OVC010 12/12 A3012 RMK AO2 SLP199 T01220117=
201811010853 METAR KCLM 010853Z AUTO 24003KT 8SM BKN004 OVC013 12/12 A3012 RMK AO2 RAB17E39 SLP200 P0000 60006 T01220117 58003=
201811010834 SPECI KCLM 010834Z AUTO 00000KT 7SM -RA OVC004 12/12 A3011 RMK AO2 RAB17 P0000 T01220117=
201811010753 METAR KCLM 010753Z AUTO 32003KT 4SM BR OVC006 12/12 A3013 RMK AO2 RAE15 SLP202 P0001 T01220117 401440083=
201811010653 METAR KCLM 010653Z AUTO 00000KT 4SM -RA BR OVC005 12/12 A3013 RMK AO2 RAB00 CIG 005V008 SLP203 P0005 T01220117=
201811010553 METAR KCLM 010553Z AUTO 00000KT 10SM OVC006 13/12 A3013 RMK AO2 RAB05E15 SLP203 P0000 60000 T01280117 10139 20128 51012=
201811010510 SPECI KCLM 010510Z AUTO 00000KT 10SM -RA OVC009 13/12 A3012 RMK AO2 RAB05 CIG 007V012 P0000 T01280117=
201811010453 METAR KCLM 010453Z AUTO 30003KT 10SM BKN010 OVC015 13/12 A3012 RMK AO2 SLP201 T01280117=
201811010409 SPECI KCLM 010409Z AUTO 29004KT 10SM BKN013 BKN100 13/12 A3011 RMK AO2 T01280117=
201811010353 METAR KCLM 010353Z AUTO 00000KT 10SM FEW014 BKN080 BKN100 13/12 A3010 RMK AO2 SLP195 T01280117=
201811010253 METAR KCLM 010253Z AUTO 28007KT 10SM OVC085 13/12 A3009 RMK AO2 RAB06E16 SLP192 P0000 60000 T01330117 53009=
201811010217 SPECI KCLM 010217Z AUTO 28007KT 10SM FEW007 OVC090 13/12 A3009 RMK AO2 RAB06E16 P0000 T01330117=
201811010153 METAR KCLM 010153Z AUTO 29007KT 10SM OVC100 13/12 A3008 RMK AO2 SLP187 T01330117=
201811010053 METAR KCLM 010053Z AUTO 28007KT 8SM OVC110 13/12 A3006 RMK AO2 SLP180 T01330122=

# No short TAF reports from KCLM in databse.

###################################
#  large TAF from KCLM
###################################
201811302338 TAF KCLM 302338Z 0100/0124 VRB03KT P6SM BKN050 BKN080 FM010100
                       VRB02KT P6SM BKN030 OVC070 FM010400 VRB03KT
                       P6SM VCSH BKN025 OVC050 FM010800 23005KT
                       P6SM BKN020 OVC050=
201811301737 TAF KCLM 301737Z 3018/0118 VRB03KT P6SM -SHRA OVC050
                      TEMPO 3018/3021 P6SM -SHRA BKN030 OVC050
                       FM010000 VRB03KT P6SM VCSH BKN050 BKN080
                       FM010700 22003KT P6SM BKN020 OVC050=
201811301120 TAF KCLM 301120Z 3012/0112 VRB04KT P6SM VCSH SCT030 BKN060 OVC080
                       FM301400 VRB03KT P6SM -SHRA BKN035 BKN050
                       OVC080 FM010000 VRB03KT P6SM VCSH BKN050
                       BKN080 FM010700 22003KT P6SM BKN020 OVC050=
201811300540 TAF KCLM 300540Z 3006/0106 VRB03KT 6SM BR FEW018 SCT025 OVC050
                       TEMPO 3006/3010 5SM BR OVC018 FM301000 VRB04KT
                       P6SM VCSH BKN018 BKN040 OVC080 FM301400
                       VRB03KT P6SM -SHRA BKN035 BKN050 OVC080
                       FM010000 VRB03KT P6SM BKN050 BKN080=
201811300405 KCLM 300405Z 3004/3024 VRB03KT P6SM SCT015 SCT025 OVC050
                      TEMPO 3004/3008 OVC015 FM300800 VRB04KT P6SM
                       VCSH OVC015 FM301700 VRB03KT P6SM VCSH SCT020
                       BKN040 OVC080=
201811292335 TAF KCLM 292335Z 3000/3024 34004KT P6SM OVC015 FM300300 VRB03KT
                       P6SM OVC010 FM301100 25003KT P6SM VCSH OVC015
                       FM301700 VRB03KT P6SM VCSH SCT020 BKN040
                       OVC080=
201811291805 KCLM 291805Z 2918/3018 34004KT P6SM BKN010 BKN120 BKN200
                      TEMPO 2918/2921 5SM BR OVC007 FM300300 VRB03KT
                       P6SM SCT015 BKN060 BKN100 FM301100 VRB03KT
                       P6SM VCSH BKN015 OVC030 FM301700 VRB03KT
                       P6SM VCSH SCT020 BKN040 OVC080=
201811291727 TAF KCLM 291727Z 2918/3018 34004KT P6SM SCT005 BKN120 BKN200
                      TEMPO 2918/2921 3SM BR BKN005 FM300300 VRB03KT
                       P6SM SCT015 BKN060 BKN100 FM301100 VRB03KT
                       P6SM VCSH BKN015 OVC030 FM301700 VRB03KT
                       P6SM VCSH SCT020 BKN040 OVC080=
201811291608 KCLM 291608Z 2916/3012 00000KT P6SM OVC012
                      TEMPO 2916/2919 5SM BR OVC005 FM292000 34005KT
                       P6SM SCT035 BKN060 BKN120 FM300600 25004KT
                       P6SM BKN050 OVC120 FM301100 25004KT P6SM
                       VCSH BKN030 OVC050=
201811291514 KCLM 291514Z 2915/3012 00000KT P6SM SCT010 BKN050
                      TEMPO 2915/2918 5SM BR BKN010 BKN040 FM291800
                       34006KT P6SM SCT035 BKN060 BKN120 FM300600
                       25004KT P6SM BKN050 OVC120 FM301100 25004KT
                       P6SM VCSH BKN030 OVC050=
201811291138 TAF KCLM 291138Z 2912/3012 24004KT P6SM FEW009 BKN015 OVC025
                      TEMPO 2912/2916 5SM BR BKN005 OVC013 FM291800
                       33006KT P6SM SCT015 BKN025 FM292200 34006KT
                       P6SM SCT035 BKN060 BKN120 FM300600 25004KT
                       P6SM BKN050 OVC120 FM301100 25004KT P6SM
                       VCSH BKN030 OVC050=
201811290534 TAF KCLM 290534Z 2906/3006 00000KT P6SM VCSH SCT009 OVC050
                      TEMPO 2906/2910 3SM BR BKN007 FM291000 24004KT
                       6SM BR FEW009 BKN015 OVC025 FM291800 33006KT
                       P6SM SCT015 BKN025 FM292200 34006KT P6SM
                       BKN025 FM300300 26004KT P6SM OVC018=
201811282327 TAF KCLM 282327Z 2900/2924 VRB03KT P6SM BKN060
                      TEMPO 2901/2904 5SM -SHRA FM290500 25004KT
                       P6SM BKN015 OVC030 FM291200 24004KT P6SM
                       BKN015 OVC025=
201811282006 KCLM 282006Z 2820/2918 VRB03KT P6SM -SHRA BKN009 OVC100
                      TEMPO 2820/2824 SCT009 BKN100 FM290600 24003KT
                       P6SM BKN015 OVC030=
201811281723 TAF KCLM 281723Z 2818/2918 VRB03KT P6SM -SHRA FEW015 BKN050 OVC080
                       TEMPO 2823/2903 -SHRA BKN015 OVC050 FM290600
                       24003KT P6SM BKN015 OVC030=
201811281137 TAF KCLM 281137Z 2812/2912 VRB03KT P6SM VCSH SCT025 OVC050 FM281900
                       VRB03KT P6SM VCSH SCT015 BKN030 FM290000
                       VRB03KT P6SM -SHRA SCT012 BKN025 FM290600
                       25004KT P6SM VCSH BKN015 OVC030=
201811281135 TAF KCLM 281135Z 2812/2912 VRB03KT P6SM VCSH SCT025 OVC050 FM281900
                       VRB03KT P6SM VCSH SCT015 BKN030 FM290000
                       VRB03KT P6SM -SHRA SCT012 BKN025 FM290600
                       25004KT P6SM VCSH BKN015 OVC030=
201811280538 TAF KCLM 280538Z 2806/2906 24005KT P6SM VCSH FEW010 SCT040
                      TEMPO 2806/2810 3SM BR BKN010 FM281000 VRB03KT
                       P6SM VCSH SCT015 OVC025 FM282000 VRB03KT
                       P6SM VCSH SCT015 BKN030
                      PROB30 2820/2902 -SHRA FM290200 VRB03KT P6SM
                       VCSH FEW018 BKN025=
201811272334 TAF KCLM 272334Z 2800/2824 20005KT P6SM VCSH FEW060 BKN090 OVC110
                       TEMPO 2800/2804 3SM BR OVC035 FM280700 VRB03KT
                       P6SM VCSH SCT015 OVC025 FM282300 11001KT
                       P6SM VCSH SCT015 BKN030=
201811271730 TAF KCLM 271730Z 2718/2818 27005KT 6SM -SHRA BR BKN030 BKN060 FM272000
                       29007KT P6SM VCSH BKN035 BKN070
                      TEMPO 2723/2802 -SHRA BKN020 OVC040 FM280500
                       25005KT P6SM VCSH BKN030 BKN050=
201811271133 TAF KCLM 271133Z 2712/2812 VRB03KT 3SM -SHRA BR FEW001 BKN035 BKN060
                       TEMPO 2712/2716 1/2SM -SHRA FG BKN001 OVC030
                       FM271600 27005KT 6SM -SHRA BR BKN030 BKN060
                       FM272000 29007KT P6SM VCSH BKN035 BKN070
                       FM280500 25005KT P6SM VCSH BKN030 BKN050=
201811270949 KCLM 270949Z 2710/2806 VRB05KT 3SM -RA BR OVC050 FM271200 VRB03KT
                       5SM -SHRA BR BKN035 BKN060 FM272000 30007KT
                       P6SM VCSH BKN035 BKN070 FM280200 29005KT
                       P6SM VCSH OVC025=
201811270535 TAF KCLM 270535Z 2706/2806 00000KT 2SM -RA BR BKN004 OVC050 WS020/18050KT
                       TEMPO 2706/2710 3/4SM BR OVC002 FM271000
                       VRB03KT 2SM -RA BR OVC003 FM271300 25004KT
                       5SM -SHRA SCT004 OVC007 FM272000 30007KT
                       P6SM VCSH BKN015 OVC025 FM280200 29005KT
                       P6SM VCSH OVC025=
201811262322 TAF KCLM 262322Z 2700/2724 00000KT 3SM -RA BR SCT014 BKN050 OVC080
                       WS020/18050KT FM270600 VRB03KT 5SM -RA BR
                       OVC019 FM271400 29005KT P6SM -SHRA OVC025=
201811261722 TAF KCLM 261722Z 2618/2718 00000KT P6SM -RA FEW004 BKN080 OVC090
                       WS020/18045KT FM262100 22003KT 2SM -RA BR
                       OVC030 WS020/18050KT FM262300 25002KT 4SM
                       -RA BR OVC019 WS020/18050KT FM270000 VRB03KT
                       5SM -RA OVC019 WS020/18050KT FM270800 VRB03KT
                       5SM -RA BR OVC019 FM271400 VRB03KT 3SM -SHRA
                       BR OVC025=
201811261215 TAF KCLM 261215Z 2612/2712 VRB03KT P6SM -RA OVC060 FM261600 14005KT
                       P6SM -RA BKN010 OVC040 FM262100 21005KT
                       3SM -RA BR OVC035 FM270000 20004KT 5SM -RA
                       BR OVC020=
201811260527 TAF KCLM 260527Z 2606/2706 22004KT P6SM OVC070 FM260800 VRB04KT
                       P6SM -RA SCT010 OVC040 FM261000 VRB03KT
                       4SM -RA BR BKN010 OVC040=
201811252331 TAF KCLM 252331Z 2600/2624 25003KT P6SM SCT060 BKN070 OVC090 FM260300
                       14003KT P6SM -RA BKN010 OVC040 FM261000
                       VRB03KT 4SM -RA BR BKN010 OVC040=
201811252122 KCLM 252122Z 2521/2618 27006KT P6SM BKN011 BKN080 OVC120 FM260300
                       14003KT P6SM -RA BKN010 OVC040 FM261000
                       14002KT 4SM -RA BR BKN010 OVC040=
201811251721 TAF KCLM 251721Z 2518/2618 00000KT P6SM SCT009 OVC100 FM252000
                       09006KT P6SM BKN050 OVC100 FM260200 14003KT
                       P6SM -RA SCT020 OVC040 FM261000 14002KT
                       4SM -RA BR SCT020 OVC040=
201811251136 TAF KCLM 251136Z 2512/2612 VRB03KT P6SM OVC010 FM252000 09006KT
                       P6SM BKN050 OVC100 FM252300 14004KT P6SM
                       -RA SCT020 OVC040=
201811250520 TAF KCLM 250520Z 2506/2606 VRB03KT P6SM BKN100 BKN200 FM252000
                       09006KT P6SM BKN050 OVC100=
201811242320 TAF KCLM 242320Z 2500/2524 00000KT P6SM FEW120 BKN170 FM250200
                       VRB03KT P6SM OVC080 FM252000 12003KT P6SM
                       OVC050=
201811241728 TAF KCLM 241728Z 2418/2518 24006KT P6SM SCT040 FM242200 VRB03KT
                       P6SM SCT040 BKN080 OVC200 FM250200 VRB03KT
                       P6SM OVC070=
201811241120 TAF KCLM 241120Z 2412/2512 29008KT P6SM SCT040 BKN200 FM241800
                       VRB03KT P6SM SCT030 SCT100 BKN200 FM242200
                       VRB03KT P6SM SCT030 BKN100 OVC250 FM250700
                       VRB03KT P6SM BKN030=
201811240522 TAF KCLM 240522Z 2406/2506 29008KT P6SM VCSH SCT020 BKN040
                      TEMPO 2410/2414 BKN020 OVC040 FM241800 VRB03KT
                       P6SM SCT030 SCT150 BKN250 FM242200 VRB03KT
                       P6SM SCT030 BKN150 OVC250=
201811232320 TAF KCLM 232320Z 2400/2424 24007KT P6SM VCSH FEW035 SCT050 SCT070
                       FM241400 VRB03KT P6SM BKN025 OVC050=
201811231720 TAF KCLM 231720Z 2318/2418 VRB03KT P6SM -SHRA SCT035 BKN050 FM232000
                       27008KT P6SM VCSH SCT035 BKN050 FM240800
                       24005KT P6SM SCT025 SCT040=
201811231659 KCLM 231659Z 2317/2412 VRB03KT P6SM -SHRA SCT035 BKN050 FM232000
                       27008KT P6SM VCSH SCT035 BKN050 FM240800
                       24005KT P6SM SCT025 SCT040=
201811231122 TAF KCLM 231122Z 2312/2412 VRB03KT P6SM VCSH SCT025 BKN060 FM231800
                       29010KT P6SM SCT030 BKN070
                      TEMPO 2320/2324 -SHRA BKN020 BKN040 FM240300
                       25008KT P6SM SCT070 SCT200=
201811230520 TAF KCLM 230520Z 2306/2406 VRB03KT P6SM SCT050
                      TEMPO 2306/2308 2SM BR SCT002 BKN050 FM231000
                       24003KT P6SM VCSH BKN015 BKN040 FM231800
                       29010KT P6SM SCT020 BKN040
                      TEMPO 2320/2324 -SHRA BKN020 BKN040=
201811230409 KCLM 230409Z 2304/2324 VRB03KT 4SM BR SCT002 SCT050
                      TEMPO 2304/2308 2SM BR BKN002 BKN050 FM231000
                       24003KT P6SM VCSH BKN015 OVC030 FM232000
                       29008KT P6SM SCT020 BKN035=
201811222320 TAF KCLM 222320Z 2300/2324 00000KT P6SM -RA FEW024 BKN060 OVC070
                       FM230200 25005KT P6SM -SHRA SCT020 OVC035
                       FM231000 24003KT 5SM -SHRA BKN015 OVC030
                       FM232000 29008KT P6SM SCT020 BKN035=
201811221958 KCLM 221958Z 2220/2318 00000KT P6SM -RA OVC006 FM222300 VRB03KT
                       P6SM -RA OVC010 FM230200 25005KT P6SM -SHRA
                       SCT020 OVC035 FM231300 25004KT P6SM -SHRA
                       BKN020 OVC035=
201811221741 TAF KCLM 221741Z 2218/2318 VRB03KT P6SM BKN004 BKN050 FM222000
                       VRB03KT P6SM SCT008 BKN050 FM222200 VRB03KT
                       P6SM -RA BKN015 OVC035 FM230200 25005KT
                       P6SM -SHRA SCT020 OVC035 FM231300 25004KT
                       P6SM -SHRA BKN020 OVC035=
201811221535 KCLM 221535Z 2216/2312 00000KT 2SM BR SCT001 BKN027 FM221800 VRB03KT
                       P6SM BKN050 FM222300 VRB03KT P6SM -RA BKN025
                       OVC050 FM230300 25005KT P6SM -RA OVC025
                       FM230900 VRB03KT P6SM -RA OVC030=
201811221130 TAF KCLM 221130Z 2212/2312 VRB03KT P6SM -RA BKN050 OVC070
                      TEMPO 2212/2216 2SM -RA BR BKN004 OVC020
                       FM221700 VRB03KT P6SM BKN050 FM222300 VRB03KT
                       P6SM -RA BKN025 OVC050 FM230300 25005KT
                       P6SM -RA OVC025 FM230900 VRB03KT P6SM -RA
                       OVC030=
201811221003 KCLM 221003Z 2210/2306 00000KT 4SM -RA BR SCT004 OVC040
                      TEMPO 2210/2214 1SM -RA BR BKN004 OVC020
                       FM221700 VRB03KT P6SM BKN050 FM222300 VRB03KT
                       P6SM -RA BKN025 OVC050=
201811220524 TAF KCLM 220524Z 2206/2306 00000KT 4SM -RA BR SCT004 OVC020
                      TEMPO 2206/2210 2SM -RA BR BKN004 OVC020
                       FM221700 VRB03KT P6SM BKN050 FM222300 VRB03KT
                       P6SM -RA BKN025 OVC050=
201811220302 KCLM 220302Z 2203/2224 VRB03KT 5SM BR BKN010 OVC040
                      TEMPO 2203/2206 2SM BR OVC008 FM220600 25004KT
                       6SM -RA BR BKN012 OVC024 FM221700 VRB03KT
                       P6SM BKN050 FM222300 VRB03KT P6SM -RA BKN025
                       OVC050=
201811212357 KCLM 212357Z 2200/2224 00000KT 4SM -SHRA BR BKN011 BKN060 OVC110
                       FM220300 VRB03KT P6SM SCT015 OVC060 FM220600
                       25004KT 6SM -RA BR BKN012 OVC024 FM221700
                       VRB03KT P6SM BKN050 FM222300 VRB03KT P6SM
                       -RA BKN025 OVC050=
201811212325 TAF KCLM 212325Z 2200/2224 00000KT 6SM -SHRA BR BKN040 OVC070 FM220600
                       25004KT 6SM -RA BR BKN012 OVC024 FM221700
                       VRB03KT P6SM BKN050 FM222300 VRB03KT P6SM
                       -RA BKN025 OVC050=
201811211733 TAF KCLM 211733Z 2118/2218 28006KT P6SM SCT050 BKN100 FM220000
                       VRB03KT P6SM VCSH FEW012 BKN028 FM220600
                       25004KT 6SM -RA BR BKN012 OVC024 FM221400
                       VRB03KT P6SM BKN050=
201811211137 TAF KCLM 211137Z 2112/2212 VRB03KT P6SM -RA SCT035 OVC060
                      TEMPO 2115/2117 BKN030 OVC050 FM211700 VRB04KT
                       P6SM -RA BKN030 OVC050 FM220000 VRB03KT
                       P6SM VCSH FEW012 OVC028 FM220600 25004KT
                       6SM -RA BR BKN012 OVC024=
201811210615 KCLM 210615Z 2106/2206 23005KT P6SM BCFG SCT100 OVC200
                      TEMPO 2106/2109 5SM BR FM210900 VRB03KT P6SM
                       SCT050 OVC100 FM211200 VRB03KT 5SM -RA BR
                       SCT028 OVC050 FM212000 VRB03KT P6SM FEW009
                       OVC028
                      TEMPO 2120/2124 5SM -RA BR=
201811210542 TAF KCLM 210542Z 2106/2206 24004KT P6SM SKC FM210900 VRB03KT P6SM
                       BKN070 OVC120 FM211500 VRB04KT P6SM VCSH
                       BKN040 OVC080=
201811202321 TAF KCLM 202321Z 2100/2124 VRB04KT P6SM SCT150 BKN200 FM210600
                       VRB04KT P6SM SCT120 OVC200 FM210900 VRB03KT
                       P6SM BKN070 OVC120 FM211500 VRB04KT P6SM
                       VCSH BKN040 OVC080=
201811202001 KCLM 202001Z 2020/2118 VRB04KT P6SM SCT007 BKN200
                      TEMPO 2020/2022 BKN007 FM202200 VRB04KT P6SM
                       BKN200 FM210200 VRB04KT P6SM SCT120 OVC200
                       FM210900 VRB03KT P6SM BKN070 OVC120 FM211500
                       VRB04KT P6SM VCSH BKN040 OVC080=
201811201734 TAF KCLM 201734Z 2018/2118 VRB04KT 3SM BR BKN005 BKN200 FM202000
                       09005KT P6SM BKN200 FM210200 VRB04KT P6SM
                       SCT120 OVC200 FM210900 VRB03KT P6SM BKN070
                       OVC120 FM211500 VRB04KT P6SM VCSH BKN040
                       OVC080=
201811201423 KCLM 201423Z 2014/2112 VRB04KT 6SM BR FEW005 BKN200
                      TEMPO 2014/2018 3SM BR BKN005 FM201900 09005KT
                       P6SM BKN200 FM210200 VRB04KT P6SM SCT120
                       OVC200 FM210900 VRB03KT P6SM BKN070 OVC120=
201811201133 TAF KCLM 201133Z 2012/2112 25004KT 6SM BR FEW005 BKN200
                      TEMPO 2012/2016 3SM BR FM201700 09005KT P6SM
                       BKN200 FM210200 VRB04KT P6SM SCT120 OVC200
                       FM210900 VRB03KT P6SM BKN070 OVC120=
201811200532 TAF KCLM 200532Z 2006/2106 VRB02KT 4SM BR FEW008 FM200900 VRB02KT
                       6SM BR SCT008
                      TEMPO 2009/2012 BKN008 FM201200 VRB02KT P6SM
                       VCFG OVC008 FM201800 09005KT P6SM SCT011
                       BKN200 FM202100 09005KT P6SM BKN200=
201811200501 KCLM 200501Z 2005/2024 VRB02KT 4SM BR FEW009 FM201700 VRB03KT P6SM
                       SCT150 BKN200 FM202100 VRB04KT P6SM SCT120
                       OVC200=
201811200119 KCLM 200119Z 2001/2024 VRB02KT P6SM MIFG SKC
                      TEMPO 2002/2006 5SM BR FM200600 VRB02KT 5SM
                       BR SKC FM201700 VRB03KT P6SM SCT150 BKN200
                       FM202100 VRB04KT P6SM SCT120 OVC200=
201811192332 TAF KCLM 192332Z 2000/2024 10004KT P6SM FEW015 SCT250
                      TEMPO 2000/2002 BKN012 FM200200 VRB04KT P6SM
                       SKC FM201700 VRB03KT P6SM SCT150 BKN200
                       FM202100 VRB04KT P6SM SCT120 OVC200=
201811192112 KCLM 192112Z 1921/2018 10004KT P6SM FEW015 SCT250
                      TEMPO 1921/1923 BKN012 FM200100 VRB04KT P6SM
                       SKC FM201700 VRB03KT P6SM BKN200=
201811191743 TAF KCLM 191743Z 1918/2018 VRB02KT 5SM BR OVC012 FM192000 10004KT
                       P6SM SKC FM200100 VRB04KT P6SM SKC FM201700
                       VRB03KT P6SM BKN200=
201811191626 KCLM 191626Z 1916/2012 VRB02KT 5SM BR OVC012 FM191900 10004KT P6SM
                       SKC FM200100 VRB04KT P6SM SKC FM200900 VRB03KT
                       P6SM BKN200=
201811191138 KCLM 191138Z 1912/2012 VRB02KT P6SM SCT012
                      TEMPO 1912/1916 5SM BR BKN010 FM191900 10004KT
                       P6SM SKC FM200100 VRB04KT P6SM SKC FM200900
                       VRB03KT P6SM BKN200=
201811191128 TAF KCLM 191128Z 1912/2012 VRB02KT P6SM SCT012
                      TEMPO 1913/1917 BKN010 FM191900 10004KT P6SM
                       SKC FM200100 VRB04KT P6SM SKC FM200900 VRB03KT
                       P6SM BKN200=
201811190539 TAF KCLM 190539Z 1906/2006 VRB02KT P6SM MIFG SKC FM190900 VRB02KT
                       P6SM MIFG SCT008
                      TEMPO 1910/1912 BKN008 FM191200 VRB02KT P6SM
                       BKN008 FM191800 10004KT P6SM SCT011 FM191900
                       10004KT P6SM SKC FM200100 VRB04KT P6SM SKC=
201811182320 TAF KCLM 182320Z 1900/1924 10005KT P6SM SKC FM190600 VRB04KT P6SM
                       SKC FM191900 08005KT P6SM SKC=
201811181721 TAF KCLM 181721Z 1818/1918 11006KT P6SM FEW015 FM182000 10005KT
                       P6SM SKC FM190200 VRB04KT P6SM SKC=
201811181120 TAF KCLM 181120Z 1812/1912 VRB04KT P6SM SCT012
                      TEMPO 1812/1816 BKN012 FM181800 11006KT P6SM
                       FEW015 FM190200 VRB04KT P6SM SKC=
201811180858 KCLM 180858Z 1809/1906 VRB04KT P6SM SCT012
                      TEMPO 1809/1813 BKN012 FM181800 11006KT P6SM
                       SKC FM190200 VRB04KT P6SM SKC=
201811180542 TAF KCLM 180542Z 1806/1906 21004KT P6SM VCFG SKC FM181800 11006KT
                       P6SM SKC FM190200 VRB04KT P6SM SKC=
201811172326 TAF KCLM 172326Z 1800/1824 VRB05KT P6SM SKC=
201811171720 TAF KCLM 171720Z 1718/1818 23005KT P6SM FEW020 FM172000 10008KT
                       P6SM SKC FM180000 VRB05KT P6SM SKC=
201811171140 TAF KCLM 171140Z 1712/1812 22006KT P6SM SKC FM171800 10008KT P6SM
                       SKC FM180000 VRB05KT P6SM SKC=
201811170537 TAF KCLM 170537Z 1706/1806 22006KT P6SM VCFG SKC FM171800 09008KT
                       P6SM SKC FM180000 VRB05KT P6SM SKC=
201811170257 KCLM 170257Z 1703/1724 20005KT P6SM VCFG SKC FM171800 07007KT P6SM
                       SKC=
201811170207 KCLM 170207Z 1702/1724 VRB03KT 3SM BR FEW002
                      TEMPO 1702/1706 1SM BR VV002 FM170600 20005KT
                       3SM BR SKC FM171800 07007KT P6SM SKC=
201811170113 KCLM 170113Z 1701/1724 12005KT P6SM SKC FM170600 20005KT P6SM SKC=
201811162320 TAF KCLM 162320Z 1700/1724 15005KT P6SM FEW013 BKN030 FM170200
                       20005KT P6SM SKC=
201811161732 TAF KCLM 161732Z 1618/1718 12008KT P6SM BKN014 OVC022 FM162300
                       11006KT P6SM SCT025 FM170200 20005KT P6SM
                       SKC FM170900 22007KT P6SM SKC=
201811161138 TAF KCLM 161138Z 1612/1712 28005KT 4SM BR VCSH OVC007
                      TEMPO 1612/1614 1/2SM FG VV003 FM161500 VRB04KT
                       P6SM VCSH OVC018 FM162100 07006KT P6SM SCT025
                       FM170200 20005KT P6SM SKC=
201811161039 KCLM 161039Z 1611/1706 28005KT 4SM BR VCSH OVC007
                      TEMPO 1611/1613 1SM BR FM161500 23007KT P6SM
                       VCSH OVC018 FM162100 03006KT P6SM SCT025
                       FM170200 20005KT P6SM SKC=
201811160737 KCLM 160737Z 1608/1706 13006KT P6SM VCSH BKN030 OVC050
                      TEMPO 1608/1610 5SM -SHRA BR OVC010 FM161000
                       28005KT P6SM VCSH OVC007 FM161500 23007KT
                       P6SM VCSH OVC018 FM162100 03006KT P6SM SCT025
                       FM170200 20005KT P6SM SKC=
201811160535 TAF KCLM 160535Z 1606/1706 13006KT P6SM VCSH BKN007 OVC012
                      TEMPO 1606/1610 5SM -SHRA BR OVC005 FM161000
                       28005KT P6SM VCSH OVC007 FM161500 23007KT
                       P6SM VCSH OVC018 FM162100 03006KT P6SM SCT025
                       FM170200 20005KT P6SM SKC=
201811152331 TAF KCLM 152331Z 1600/1624 24004KT P6SM VCSH SCT020 OVC050 FM160300
                       25003KT P6SM -RA SCT018 OVC040 FM160600
                       25004KT P6SM -RA OVC015 FM161500 VRB04KT
                       P6SM VCSH BKN020 FM162000 04004KT P6SM SCT025
                       FM162200 04005KT P6SM SKC=
201811151732 TAF KCLM 151732Z 1518/1618 24004KT P6SM SCT020 BKN050 FM160300
                       25003KT P6SM VCSH SCT025 BKN050 FM160600
                       25004KT P6SM -RA OVC020=
201811151135 TAF KCLM 151135Z 1512/1612 23004KT P6SM FEW040 OVC080 FM151800
                       VRB04KT P6SM SCT020 BKN050 FM160300 25003KT
                       P6SM VCSH SCT025 BKN050 FM160900 25004KT
                       P6SM -RA OVC020=
201811150633 KCLM 150633Z 1507/1606 VRB03KT 5SM BR BKN025
                      TEMPO 1507/1510 2SM BR FM151200 23003KT P6SM
                       OVC015 FM151800 VRB04KT P6SM SCT020 BKN050
                       FM160300 25003KT P6SM VCSH SCT025 BKN050=
201811150532 TAF KCLM 150532Z 1506/1606 VRB03KT P6SM BKN025 FM151200 23003KT
                       P6SM OVC015 FM151800 VRB04KT P6SM SCT020
                       BKN050 FM160300 25003KT P6SM VCSH SCT025
                       BKN050=
201811142321 TAF KCLM 142321Z 1500/1524 25007KT P6SM OVC060 FM150400 24005KT
                       P6SM OVC025 FM151800 VRB04KT P6SM OVC050=
201811141727 TAF KCLM 141727Z 1418/1518 VRB06KT P6SM VCSH SCT030 OVC050 FM142000
                       28007KT P6SM SCT030 BKN060 FM150400 24005KT
                       P6SM OVC025=
201811141128 KCLM 141128Z 1411/1512 VRB05KT 5SM -RA BR SCT012 BKN050
                      TEMPO 1412/1416 3SM -RA BR BKN007 OVC040
                       FM141600 26007KT P6SM -RA SCT007 BKN030
                       FM142000 29010KT P6SM VCSH BKN030 BKN060
                       FM150400 25005KT P6SM OVC017=
201811141122 TAF KCLM 141122Z 1412/1512 VRB05KT P6SM -RA SCT012 BKN050
                      TEMPO 1412/1416 BKN007 OVC040 FM141600 26007KT
                       P6SM -RA SCT007 BKN030 FM142000 29010KT
                       P6SM VCSH BKN030 BKN060 FM150400 25005KT
                       P6SM OVC017=
201811140759 KCLM 140759Z 1408/1506 14011KT P6SM -RA SCT009 BKN050
                      TEMPO 1408/1412 4SM -RA BR BKN005 OVC020
                       FM141500 28008KT P6SM -RA SCT007 BKN030
                       FM142000 26010KT P6SM VCSH OVC025 FM150200
                       29005KT P6SM OVC015=
201811140532 TAF KCLM 140532Z 1406/1506 14011KT P6SM -RA SCT009 BKN050 FM141500
                       28008KT P6SM -RA SCT007 BKN030 FM142000
                       26010KT P6SM VCSH OVC025 FM150200 29005KT
                       P6SM OVC015=
201811132320 TAF KCLM 132320Z 1400/1424 VRB04KT P6SM VCSH OVC060 FM140400 23005KT
                       P6SM -RA SCT025 OVC040 FM140600 25004KT
                       4SM -RA OVC020 FM141800 28008KT P6SM BKN050=
201811131720 TAF KCLM 131720Z 1318/1418 VRB05KT P6SM BKN200 FM132300 24005KT
                       P6SM VCSH SCT040 BKN080 FM140300 23005KT
                       P6SM -RA SCT025 OVC040 FM140600 25004KT
                       4SM -RA OVC020=
201811131138 TAF KCLM 131138Z 1312/1412 21004KT P6SM BKN250 FM131800 12005KT
                       P6SM SCT250 FM132200 VRB04KT P6SM VCSH SCT040
                       BKN080 FM140100 29004KT P6SM -RA SCT025
                       OVC040=
201811130533 TAF KCLM 130533Z 1306/1406 21004KT P6SM BKN250 FM131800 12005KT
                       P6SM BKN150 FM132200 VRB04KT P6SM VCSH SCT040
                       BKN080 FM140100 29004KT P6SM -RA SCT025
                       OVC040=
201811122337 TAF KCLM 122337Z 1300/1324 09005KT P6SM BKN250 FM130700 VRB03KT
                       P6SM BKN250 FM131800 12005KT P6SM BKN250=
201811121720 TAF KCLM 121720Z 1218/1318 10005KT P6SM BKN250 FM122000 09005KT
                       P6SM SCT250 FM130700 VRB03KT P6SM SCT250=
201811121124 TAF KCLM 121124Z 1212/1312 VRB04KT P6SM SCT015 SCT250
                      TEMPO 1212/1216 BKN014 FM121800 10005KT P6SM
                       SCT250 FM130300 VRB03KT P6SM BKN250=
201811120550 TAF KCLM 120550Z 1206/1306 13004KT P6SM SKC FM121800 10005KT P6SM
                       SCT250=
201811112320 TAF KCLM 112320Z 1200/1224 10007KT P6SM SCT250 FM120500 VRB03KT
                       P6SM SKC FM121800 10005KT P6SM SCT250=
201811111720 TAF KCLM 111720Z 1118/1218 10005KT P6SM SCT020 SCT250 FM112100
                       10007KT P6SM SCT250 FM120500 VRB03KT P6SM
                       SKC=
201811111126 TAF KCLM 111126Z 1112/1212 25004KT P6SM BKN020 FM111700 VRB05KT
                       P6SM SCT022 SCT250 FM112100 10007KT P6SM
                       SCT250 FM120500 25004KT P6SM SKC=
201811110838 KCLM 110838Z 1109/1206 11004KT P6SM SCT025 SCT250
                      TEMPO 1109/1113 5SM BR BKN022 FM111600 10006KT
                       P6SM SCT250=
201811110527 TAF KCLM 110527Z 1106/1206 VRB03KT P6SM SCT250
                      TEMPO 1110/1114 2SM BR=
201811102320 TAF KCLM 102320Z 1100/1124 12006KT P6SM SCT250 FM110100 20006KT
                       P6SM SCT250 FM110900 VRB03KT 4SM BR BKN010
                       FM111800 12005KT P6SM SCT015 SCT250=
201811101918 KCLM 101918Z 1019/1118 VRB03KT P6SM SCT008 BKN015 OVC050 FM102000
                       07006KT P6SM SCT250 FM110100 20006KT P6SM
                       SCT250=
201811101723 TAF KCLM 101723Z 1018/1118 VRB03KT P6SM BKN015 OVC050 FM101900
                       07006KT P6SM SCT250 FM110100 20006KT P6SM
                       SCT250=
201811101137 TAF KCLM 101137Z 1012/1112 VRB03KT P6SM BKN050 FM101900 07006KT
                       P6SM SCT250 FM110100 24006KT P6SM SCT250=
201811100525 TAF KCLM 100525Z 1006/1106 23004KT P6SM BKN010 OVC025 FM101000
                       VRB03KT P6SM BKN010 BKN025 FM101900 04004KT
                       P6SM SCT250=
201811092320 TAF KCLM 092320Z 1000/1024 VRB03KT P6SM OVC025 FM101300 24005KT
                       P6SM SCT250=
201811091722 TAF KCLM 091722Z 0918/1018 VRB03KT P6SM -RA OVC040 FM092000 VRB03KT
                       P6SM SCT040 OVC060 FM092300 26006KT P6SM
                       BKN060 FM101200 22004KT P6SM OVC025=
201811091141 TAF KCLM 091141Z 0912/1012 VRB03KT P6SM BKN200 FM091400 VRB03KT
                       P6SM BKN060 OVC100 FM091600 VRB03KT P6SM
                       -RA SCT020 OVC035 FM092000 VRB03KT P6SM
                       SCT025 BKN035 OVC050 FM092300 26006KT P6SM
                       SCT035 BKN050=
201811090520 TAF KCLM 090520Z 0906/1006 VRB03KT P6SM OVC200
                      TEMPO 0906/0909 5SM BR FM090900 VRB03KT P6SM
                       OVC090 FM091300 VRB03KT P6SM OVC040
                      TEMPO 0915/0918 -RA FM091800 VRB03KT P6SM
                       VCSH SCT015 OVC035=
201811082335 TAF KCLM 082335Z 0900/0924 07006KT P6SM SCT250 FM090900 VRB03KT
                       P6SM OVC090 FM091300 VRB03KT P6SM OVC040
                       TEMPO 0915/0918 -RA FM091800 VRB03KT P6SM
                       VCSH SCT015 OVC035=
201811081731 TAF KCLM 081731Z 0818/0918 VRB03KT P6SM SCT250 FM091300 23004KT
                       P6SM -RA OVC050=
201811081140 TAF KCLM 081140Z 0812/0912 23006KT P6SM SCT011
                      TEMPO 0812/0816 BKN011 FM081600 VRB03KT P6SM
                       SCT250=
201811080602 TAF KCLM 080602Z 0806/0906 VRB04KT P6SM FEW250=
201811072320 TAF KCLM 072320Z 0800/0824 VRB04KT P6SM FEW250=
201811071720 TAF KCLM 071720Z 0718/0818 23004KT P6SM SCT035 FM080200 25004KT
                       P6SM SKC FM081200 VRB03KT P6SM FEW250=
201811071133 TAF KCLM 071133Z 0712/0812 25004KT P6SM VCSH BKN020 BKN040 FM071400
                       VRB04KT P6SM SCT030 BKN050 FM071900 05004KT
                       P6SM SCT050 FM080200 25004KT P6SM SKC=
201811070520 TAF KCLM 070520Z 0706/0806 26006KT P6SM SCT040 FM071200 VRB04KT
                       P6SM FEW006 SCT030 FM071800 VRB04KT P6SM
                       SKC=
201811062320 TAF KCLM 062320Z 0700/0724 29010KT P6SM VCSH SCT030 BKN060 FM070300
                       24005KT P6SM SCT060 FM071200 VRB04KT P6SM
                       SCT250=
201811061720 TAF KCLM 061720Z 0618/0718 28008KT P6SM SCT035 BKN060 FM062100
                       30006KT P6SM VCSH BKN060 BKN120 FM070300
                       25005KT P6SM SCT060=
201811061128 TAF KCLM 061128Z 0612/0712 26007KT P6SM FEW030 BKN050 FM061800
                       28007KT P6SM SCT060 BKN120 FM062100 30006KT
                       P6SM VCSH BKN060 BKN120 FM070300 25005KT
                       P6SM SCT060=
201811060520 TAF KCLM 060520Z 0606/0706 25007KT P6SM FEW030 SCT060
                      TEMPO 0610/0614 BKN025 BKN060 FM061800 28007KT
                       P6SM SCT060 BKN120 FM062100 30006KT P6SM
                       VCSH BKN060 BKN120 FM070300 29009KT P6SM
                       BKN060 BKN120=
201811060048 KCLM 060048Z 0601/0624 28008KT P6SM VCSH BKN040 FM060600 25007KT
                       P6SM FEW028 SCT040
                      TEMPO 0610/0614 BKN028 BKN040 FM061800 28007KT
                       P6SM SCT060 FM062100 31006KT P6SM VCSH BKN060=
201811052341 TAF KCLM 052341Z 0600/0624 27011KT P6SM VCSH SCT035 BKN050
                      TEMPO 0600/0602 -SHRA BKN035 OVC050 FM060300
                       27009KT P6SM VCSH BKN035 BKN060=
201811051725 TAF KCLM 051725Z 0518/0618 27013KT P6SM VCSH SCT035 BKN050
                      TEMPO 0522/0602 -SHRA BKN035 OVC050 FM060300
                       27009KT P6SM VCSH BKN035 BKN060=
201811051550 KCLM 051550Z 0516/0612 27013KT P6SM VCSH SCT035 BKN050 FM060200
                       30010KT P6SM VCSH FEW040 BKN060=
201811051125 TAF KCLM 051125Z 0512/0612 29007KT P6SM VCSH SCT040 BKN060 FM060200
                       30010KT P6SM VCSH FEW040 BKN060=
201811050544 TAF KCLM 050544Z 0506/0606 28010KT P6SM VCSH SCT035 BKN050 FM051200
                       29007KT P6SM VCSH SCT040 BKN060 FM060200
                       30010KT P6SM FEW040 BKN060=
201811050013 KCLM 050013Z 0500/0524 29013KT P6SM VCSH FEW035 BKN050 BKN080
                      TEMPO 0500/0504 -SHRA FM050600 25008KT P6SM
                       VCSH BKN035 BKN050 FM051800 29008KT P6SM
                       VCSH SCT035 BKN060
                      PROB30 0518/0524 -SHRA OVC035=
201811042341 TAF KCLM 042341Z 0500/0524 28009KT P6SM SCT060
                      TEMPO 0503/0506 BKN060 FM050600 26007KT P6SM
                       VCSH BKN060=
201811042157 KCLM 042157Z 0422/0518 28013KT P6SM VCSH SCT050 FM050000 28009KT
                       P6SM SCT060
                      TEMPO 0503/0506 BKN060 FM050600 26007KT P6SM
                       VCSH BKN060=
201811042006 KCLM 042006Z 0420/0518 29013G22KT P6SM FEW050 FM050000 29009KT
                       P6SM SCT060
                      TEMPO 0503/0506 BKN060 FM050600 26007KT P6SM
                       VCSH BKN060=
201811041740 TAF KCLM 041740Z 0418/0518 28012G20KT P6SM VCSH SCT050 FM050600
                       26006KT P6SM VCSH SCT025 BKN050 OVC080=
201811041149 TAF KCLM 041149Z 0412/0512 28012G20KT P6SM VCSH SCT030 BKN050 FM041800
                       28012G20KT P6SM VCSH SCT050 FM050600 26006KT
                       P6SM VCSH SCT025 BKN050 OVC080=
201811040610 TAF KCLM 040610Z 0406/0506 25008KT 4SM -RA BR SCT015 OVC040 FM040800
                       25009KT 4SM -RA BR BKN015 OVC030 FM041000
                       29017G28KT P6SM VCSH FEW015 BKN030 BKN050
                       FM041800 28008KT P6SM VCSH FEW030 BKN060=
201811040317 KCLM 040317Z 0403/0424 VRB04KT 6SM -RA BR SCT003 SCT025 OVC040
                       TEMPO 0403/0406 4SM -RA BR OVC003 FM040600
                       25008KT 5SM -RA BR SCT006 BKN015 OVC040
                       FM040800 25009KT 6SM -RA BR BKN015 OVC030
                       FM041000 29017G28KT P6SM VCSH FEW015 BKN030
                       BKN050 FM041800 28015KT P6SM VCSH FEW030
                       BKN060=
201811032357 KCLM 032357Z 0400/0424 VRB03KT 5SM -RA BR FEW002 OVC060 FM040300
                       VRB03KT 6SM -RA BR FEW002 SCT015 OVC030
                       TEMPO 0405/0409 4SM -RA BR SCT002 OVC015
                       FM040900 25010KT 6SM -RA BR BKN015 OVC030
                       FM041200 28018G28KT P6SM VCSH FEW015 BKN030
                       BKN050 FM041800 28015KT P6SM VCSH FEW030
                       BKN060=
201811032341 TAF KCLM 032341Z 0400/0424 VRB03KT 5SM -RA BR SCT004 OVC020 FM040100
                       VRB03KT 3SM -RA BR FEW002 OVC010 FM040900
                       28010KT 6SM -RA BR BKN015 OVC030 FM041200
                       21015G25KT P6SM VCSH FEW015 BKN030 BKN050=
201811032113 KCLM 032113Z 0321/0418 VRB03KT P6SM -RA SCT004 OVC040 FM032300
                       VRB03KT 5SM -RA BR SCT004 OVC020 FM040100
                       VRB03KT 3SM -RA BR FEW002 OVC010 FM040900
                       28010KT 6SM -RA BR BKN015 OVC030 FM041200
                       21015G25KT P6SM VCSH FEW015 BKN030 BKN050=
201811031740 TAF KCLM 031740Z 0318/0418 VRB03KT P6SM -RA FEW020 OVC050 FM032000
                       VRB03KT 5SM -RA BR FEW005 OVC020 FM040000
                       VRB03KT 3SM -RA BR FEW002 OVC010 FM040900
                       28010KT 6SM -RA BR BKN015 OVC030 FM041200
                       21015G25KT P6SM VCSH FEW015 BKN030 BKN050=
201811031146 TAF KCLM 031146Z 0312/0412 25004KT P6SM OVC100 FM031600 25004KT
                       P6SM -RA OVC070 FM032100 30005KT 4SM -RA
                       BR SCT030 OVC050 FM041000 28010G18KT P6SM
                       -SHRA SCT020 BKN050=
201811030556 TAF KCLM 030556Z 0306/0406 25006KT P6SM VCSH SCT035 OVC060 FM030900
                       VRB03KT P6SM VCSH FEW018 BKN035 OVC060 FM031200
                       VRB03KT P6SM -RA FEW005 BKN018 OVC035 FM031800
                       VRB05KT 3SM -RA BR BKN005 OVC012=
201811022330 TAF KCLM 022330Z 0300/0324 31010KT P6SM FEW030 BKN050 BKN150 FM030300
                       28010KT P6SM SCT050 OVC100 FM030600 25006KT
                       P6SM VCSH SCT035 OVC060 FM030900 VRB03KT
                       P6SM VCSH FEW018 BKN035 OVC060 FM031200
                       VRB03KT P6SM -RA FEW005 BKN018 OVC035 FM031800
                       VRB05KT 3SM -RA BR BKN005 OVC012=
201811021822 KCLM 021822Z 0218/0318 30017KT P6SM VCSH FEW025 BKN050
                      TEMPO 0218/0222 30017G27KT 5SM SHRA BKN025
                       OVC050 FM030000 29012KT P6SM VCSH SCT035
                       BKN060 FM030300 27009KT P6SM FEW028 BKN060
                       BKN100 FM030600 25005KT P6SM VCSH BKN028
                       OVC050 FM031200 VRB03KT P6SM -RA FEW006
                       OVC020=
201811021743 TAF KCLM 021743Z 0218/0318 29017KT P6SM BKN060 FM030200 27008KT
                       P6SM SCT035 BKN120 FM031000 24005KT P6SM
                       -RA SCT050 OVC080=
201811021504 KCLM 021504Z 0215/0312 29015G25KT P6SM SCT060 FM030200 27008KT
                       P6SM SCT035 BKN120 FM031000 24005KT P6SM
                       -RA SCT050 OVC080=
201811021143 TAF KCLM 021143Z 0212/0312 27010KT P6SM VCSH SCT010 BKN050 FM030200
                       27008KT P6SM SCT035 BKN120 FM031000 24005KT
                       P6SM -RA SCT050 OVC080=
201811020542 TAF KCLM 020542Z 0206/0306 VRB04KT 5SM -RA BR OVC060 FM020800 28009KT
                       4SM -RA BR SCT012 BKN035 OVC060 FM021100
                       27012G22KT P6SM -SHRA BKN020 BKN060 FM021600
                       27012KT P6SM VCSH SCT025 BKN050 FM030200
                       27008KT P6SM SCT035 BKN120=
201811020158 KCLM 020158Z 0202/0224 00000KT P6SM SCT001 BKN035 OVC050
                      TEMPO 0202/0206 1/2SM FG OVC001 FM020600
                       VRB04KT 5SM -RA BR OVC020 FM021000 27012G22KT
                       P6SM -SHRA BKN020 BKN050 FM021600 27012KT
                       P6SM VCSH SCT025 BKN050=
201811012323 TAF KCLM 012323Z 0200/0224 00000KT P6SM -RA OVC040 FM020400 VRB04KT
                       5SM RA BR OVC020 FM021000 27012G22KT P6SM
                       -SHRA BKN020 BKN050 FM021600 27012KT P6SM
                       VCSH SCT025 BKN050=
201811011720 TAF KCLM 011720Z 0118/0218 VRB04KT P6SM SCT020 BKN050 OVC100
                      TEMPO 0118/0122 5SM -RA BR BKN015 OVC040
                       FM012200 VRB04KT P6SM -RA BKN015 OVC030
                       FM020400 VRB04KT 5SM RA BR OVC012 FM021000
                       27012G22KT P6SM -SHRA BKN020 BKN050 FM021600
                       27012KT P6SM VCSH SCT025 BKN050=
201811011414 KCLM 011414Z 0114/0212 00000KT P6SM SCT015 OVC050
                      TEMPO 0114/0118 5SM -RA BR BKN015 OVC050
                       FM011800 26006KT P6SM VCSH SCT020 OVC050
                       TEMPO 0118/0122 -RA BKN020 OVC050 FM020300
                       26008KT 5SM -RA BR BKN020 OVC040 FM020700
                       27010KT 3SM -RA BR SCT008 OVC020=
201811011145 TAF KCLM 011145Z 0112/0212 00000KT 5SM -RA BR BKN008 OVC015 FM011600
                       26006KT P6SM VCSH SCT008 BKN030 OVC050 FM020300
                       26008KT 5SM -RA BR BKN035 OVC050 FM020700
                       27010KT 3SM -RA BR SCT008 BKN015 OVC025=
201811010521 TAF KCLM 010521Z 0106/0206 00000KT P6SM -RA OVC009 FM011500 26004KT
                       P6SM VCSH OVC008 FM012000 28005KT P6SM VCSH
                       OVC019=