##########################################################
# Query made at 02/16/2025 03:44:31 UTC
# Time interval: from 12/01/2018 00:00  to 12/31/2018 23:59  UTC
##########################################################

##########################################################
# KCLM, Port Angeles, William R. Fairchild International Airport (United States)
# WMO index: -----. WIGOS ID: Unknown
# Latitude 48-07-20N. Longitude 123-30-19W. Altitude 87 m.
##########################################################

###################################
#  METAR/SPECI from KCLM
###################################
201812312353 METAR KCLM 312353Z AUTO 00000KT 10SM CLR 04/M02 A3050 RMK AO2 SLP330 T00441022 10061 20028 50005=
201812312253 METAR KCLM 312253Z AUTO 35003KT 10SM FEW110 06/M03 A3050 RMK AO2 SLP331 T00561033=
201812312153 METAR KCLM 312153Z AUTO 00000KT 10SM CLR 06/M03 A3049 RMK AO2 SLP327 T00611028=
201812312053 METAR KCLM 312053Z AUTO 01004KT 10SM CLR 06/M02 A3048 RMK AO2 SLP324 T00611017 58002=
201812311953 METAR KCLM 311953Z AUTO 08003KT 10SM CLR 06/M02 A3050 RMK AO2 SLP331 T00611017=
201812311853 METAR KCLM 311853Z AUTO 00000KT 10SM CLR 05/M02 A3051 RMK AO2 SLP334 T00501017=
201812311753 METAR KCLM 311753Z AUTO 25005KT 10SM CLR 02/M01 A3049 RMK AO2 SLP327 I6001 T00221006 10022 21022 51009=
201812311653 METAR KCLM 311653Z AUTO 17003KT 10SM CLR 01/M01 A3048 RMK AO2 SLP326 T00061011=
201812311553 METAR KCLM 311553Z AUTO 20003KT 10SM CLR M01/M02 A3047 RMK AO2 SLP323 I1001 T10111017=
201812311453 METAR KCLM 311453Z AUTO 15003KT 10SM CLR M02/M02 A3046 RMK AO2 SLP318 I1000 I3000 T10171022 50001=
201812311353 METAR KCLM 311353Z AUTO 00000KT 10SM CLR M02/M02 A3047 RMK AO2 SLP321 I1000 T10221022=
201812311253 METAR KCLM 311253Z AUTO 21003KT 10SM CLR 00/M01 A3045 RMK AO2 SLP314 T00001011=
201812311153 METAR KCLM 311153Z AUTO 00000KT 10SM FEW022 FEW035 M01/M01 A3046 RMK AO2 SLP316 T10111011 10044 21011 50015=
201812311053 METAR KCLM 311053Z AUTO 19003KT 10SM FEW020 FEW025 BKN030 01/00 A3047 RMK AO2 SLP319 T00110000=
201812311045 SPECI KCLM 311045Z AUTO 00000KT 10SM FEW021 BKN030 01/00 A3047 RMK AO2 T00060000=
201812311014 SPECI KCLM 311014Z AUTO 00000KT 10SM SCT021 BKN028 BKN032 02/00 A3046 RMK AO2 T00170000=
201812311005 SPECI KCLM 311005Z AUTO 21003KT 10SM SCT021 01/M01 A3045 RMK AO2 T00061006=
201812310953 METAR KCLM 310953Z AUTO 00000KT 10SM BKN021 BKN027 01/01 A3044 RMK AO2 SLP311 T00110006=
201812310937 SPECI KCLM 310937Z AUTO 00000KT 10SM BKN018 01/00 A3043 RMK AO2 T00110000=
201812310853 METAR KCLM 310853Z AUTO 00000KT 10SM FEW016 BKN034 03/01 A3041 RMK AO2 SLP300 T00280011 53015=
201812310839 SPECI KCLM 310839Z AUTO 00000KT 10SM FEW017 SCT021 BKN034 03/02 A3040 RMK AO2 T00330017=
201812310753 METAR KCLM 310753Z AUTO 00000KT 10SM BKN020 OVC025 03/01 A3040 RMK AO2 SLP296 T00280011 400890011=
201812310653 METAR KCLM 310653Z AUTO 00000KT 10SM FEW021 BKN027 BKN036 02/01 A3037 RMK AO2 SLP286 T00220006=
201812310648 SPECI KCLM 310648Z AUTO 00000KT 10SM FEW022 BKN027 BKN036 02/01 A3037 RMK AO2=
201812310553 METAR KCLM 310553Z AUTO 00000KT 10SM FEW022 SCT037 BKN065 04/01 A3035 RMK AO2 SLP280 T00440011 10061 20011 51020=
201812310453 METAR KCLM 310453Z AUTO VRB03KT 10SM BKN047 BKN055 05/01 A3034 RMK AO2 SLP276 T00500011=
201812310353 METAR KCLM 310353Z AUTO 11005KT 10SM BKN044 05/02 A3032 RMK AO2 SLP268 T00500017=
201812310253 METAR KCLM 310253Z AUTO 00000KT 10SM SCT033 OVC041 03/02 A3029 RMK AO2 SLP259 T00280017 52021=
201812310236 SPECI KCLM 310236Z AUTO 22005KT 10SM SCT024 BKN033 OVC041 03/02 A3028 RMK AO2 T00330017=
201812310153 METAR KCLM 310153Z AUTO 23004KT 10SM OVC024 02/01 A3027 RMK AO2 SLP254 T00220006=
201812310142 SPECI KCLM 310142Z AUTO 23004KT 10SM BKN022 02/02 A3027 RMK AO2 T00220017=
201812310053 METAR KCLM 310053Z AUTO 00000KT 10SM CLR 03/02 A3025 RMK AO2 SLP245 T00280022=
201812302353 METAR KCLM 302353Z AUTO 26003KT 10SM CLR 06/03 A3023 RMK AO2 SLP239 T00610028 10089 20056 53020=
201812302253 METAR KCLM 302253Z AUTO 30007KT 10SM CLR 08/03 A3021 RMK AO2 SLP231 T00780033=
201812302153 METAR KCLM 302153Z AUTO 30009KT 10SM CLR 08/03 A3019 RMK AO2 SLP224 T00780033=
201812302053 METAR KCLM 302053Z AUTO 32004KT 10SM CLR 09/02 A3017 RMK AO2 SLP219 T00890022 58003=
201812301953 METAR KCLM 301953Z AUTO 26008KT 10SM CLR 08/02 A3017 RMK AO2 SLP219 T00830017=
201812301853 METAR KCLM 301853Z AUTO 26012KT 10SM CLR 07/02 A3019 RMK AO2 SLP227 T00720017=
201812301753 METAR KCLM 301753Z AUTO 26012KT 10SM CLR 06/01 A3018 RMK AO2 SLP222 T00560011 10061 20039 53018=
201812301653 METAR KCLM 301653Z AUTO 25011KT 10SM CLR 04/01 A3016 RMK AO2 SLP215 T00440011=
201812301553 METAR KCLM 301553Z AUTO 26010KT 10SM CLR 04/01 A3015 RMK AO2 SLP210 T00390006=
201812301453 METAR KCLM 301453Z AUTO 26011KT 10SM CLR 04/01 A3013 RMK AO2 SLP204 T00440011 53012=
201812301353 METAR KCLM 301353Z AUTO 26010KT 10SM CLR 04/01 A3011 RMK AO2 SLP197 T00440011=
201812301253 METAR KCLM 301253Z AUTO 25008KT 10SM CLR 04/01 A3009 RMK AO2 SLP190 T00440011=
201812301153 METAR KCLM 301153Z AUTO 29007KT 10SM BKN038 06/02 A3009 RMK AO2 SLP191 60010 70079 T00610017 10078 20056 51018=
201812300953 METAR KCLM 300953Z AUTO 28011G17KT 10SM FEW100 07/02 A3005 RMK AO2 PK WND 25031/0906 RAE00 SLP175 P0000 T00670017=
201812300853 METAR KCLM 300853Z AUTO 25017G23KT 10SM -RA BKN038 BKN080 OVC110 06/03 A3004 RMK AO2 SLP173 P0004 60010 T00560028 50013=
201812300808 SPECI KCLM 300808Z AUTO 27008G19KT 9SM -RA FEW021 OVC031 06/03 A3005 RMK AO2 P0001 T00560033=
201812300753 METAR KCLM 300753Z AUTO 27013G25KT 3SM RA BR FEW011 OVC027 06/04 A3005 RMK AO2 RAE0655B20 SLP177 P0006 T00560039 401330056=
201812300653 METAR KCLM 300653Z AUTO 25010KT 10SM -RA FEW025 FEW090 BKN110 07/03 A3002 RMK AO2 RAB36 SLP165 P0000 T00670033=
201812300553 METAR KCLM 300553Z AUTO 28016KT 10SM FEW042 07/02 A3000 RMK AO2 SLP159 60002 T00720017 10089 20067 53004=
201812300453 METAR KCLM 300453Z AUTO 28012KT 10SM FEW039 07/02 A2999 RMK AO2 SLP156 T00670022=
201812300253 METAR KCLM 300253Z AUTO 29017G27KT 7SM -RA BKN040 BKN055 OVC070 08/04 A2998 RMK AO2 PK WND 29031/0242 RAE03B35 SLP155 P0002 60002 T00780039 53015=
201812300153 METAR KCLM 300153Z AUTO 29014G22KT 10SM -RA FEW022 08/05 A2995 RMK AO2 RAB53 SLP144 P0000 T00780050=
201812300053 METAR KCLM 300053Z AUTO 29008KT 10SM BKN049 BKN060 08/06 A2994 RMK AO2 SLP138 T00830061=
201812292353 METAR KCLM 292353Z AUTO 31007G17KT 10SM OVC050 09/07 A2994 RMK AO2 RAE33 SLP139 P0000 60066 T00890067 10122 20089 53001=
201812292253 METAR KCLM 292253Z AUTO 23006KT 9SM -RA OVC050 09/07 A2993 RMK AO2 SLP136 P0003 T00890072=
201812292153 METAR KCLM 292153Z AUTO 27008G17KT 7SM -RA BKN060 OVC075 09/08 A2992 RMK AO2 SLP133 P0019 T00940078=
201812292132 SPECI KCLM 292132Z AUTO 29012G19KT 3SM -RA BR FEW004 BKN035 OVC060 09/08 A2992 RMK AO2 P0016 T00940078=
201812292127 SPECI KCLM 292127Z AUTO 29012G18KT 2 1/2SM -RA BR SCT004 BKN013 OVC028 09/08 A2993 RMK AO2 P0014 T00940083=
201812292118 SPECI KCLM 292118Z AUTO 30012G21KT 2SM RA BR BKN004 BKN010 OVC021 09/08 A2992 RMK AO2 P0010 T00890083=
201812292100 SPECI KCLM 292100Z AUTO 30013G22KT 1 3/4SM RA BR BKN005 BKN013 OVC018 09/08 A2993 RMK AO2 P0003 T00890083=
201812292053 METAR KCLM 292053Z AUTO 30012G28KT 2 1/2SM RA BR SCT005 BKN013 OVC055 09/08 A2993 RMK AO2 PK WND 30028/2046 SLP137 P0016 60044 T00940083 55006=
201812292048 SPECI KCLM 292048Z AUTO 30016G28KT 2 1/2SM RA BR FEW007 BKN013 OVC055 10/08 A2994 RMK AO2 PK WND 30028/2046 P0014=
201812292041 SPECI KCLM 292041Z AUTO 31017G25KT 2 1/2SM RA BR FEW013 BKN023 OVC055 10/08 A2994 RMK AO2 P0011 T01000083=
201812291953 METAR KCLM 291953Z AUTO 24012KT 4SM -RA BR OVC060 11/08 A2992 RMK AO2 SLP132 P0015 T01060083=
201812291934 SPECI KCLM 291934Z AUTO 25010KT 4SM -RA BR OVC060 11/08 A2992 RMK AO2 P0012 T01060083=
201812291924 SPECI KCLM 291924Z AUTO 23011KT 2 1/2SM RA BR OVC060 11/08 A2993 RMK AO2 P0009 T01060083=
201812291853 METAR KCLM 291853Z AUTO 28007KT 3SM -RA BR OVC065 11/08 A2995 RMK AO2 SLP144 P0013 T01060083=
201812291844 SPECI KCLM 291844Z AUTO 29007KT 2 1/2SM RA OVC060 11/08 A2996 RMK AO2 P0011 T01110083=
201812291753 METAR KCLM 291753Z AUTO 28010G27KT 220V320 10SM -RA BKN075 OVC100 13/06 A2995 RMK AO2 PK WND 27030/1708 RAB42 SLP143 P0000 60001 T01280061 10133 20072 57030=
201812291653 METAR KCLM 291653Z AUTO 29005KT 10SM CLR 10/08 A2997 RMK AO2 SLP150 T01000078=
201812291553 METAR KCLM 291553Z AUTO 16008KT 10SM BKN050 08/07 A3002 RMK AO2 RAB15E32 SLP168 P0001 T00830072=
201812291453 METAR KCLM 291453Z AUTO 34003KT 10SM SCT046 OVC060 08/07 A3004 RMK AO2 PRESRR SLP175 60000 T00780072 55014=
201812291353 METAR KCLM 291353Z AUTO 13003KT 10SM FEW041 OVC060 08/07 A3004 RMK AO2 SLP174 T00780072=
201812291253 METAR KCLM 291253Z AUTO VRB03KT 10SM SCT045 OVC055 08/07 A3006 RMK AO2 RAB18E28 SLP181 P0000 T00780072=
201812291153 METAR KCLM 291153Z AUTO 00000KT 10SM OVC050 08/07 A3008 RMK AO2 SLP188 70020 T00780072 10078 20061 58008=
201812291053 METAR KCLM 291053Z AUTO 20003KT 9SM OVC050 07/07 A3009 RMK AO2 SLP191 T00670067=
201812290953 METAR KCLM 290953Z AUTO 24003KT 8SM OVC047 07/07 A3011 RMK AO2 SLP199 T00720067=
201812290853 METAR KCLM 290853Z AUTO 00000KT 8SM SCT042 OVC049 07/06 A3011 RMK AO2 SLP197 T00670061 53008=
201812290753 METAR KCLM 290753Z AUTO VRB03KT 5SM BR OVC050 07/06 A3008 RMK AO2 SLP189 T00670061 400670033=
201812290653 METAR KCLM 290653Z AUTO 00000KT 6SM BR OVC060 07/06 A3008 RMK AO2 SLP186 T00670056=
201812290553 METAR KCLM 290553Z AUTO 00000KT 10SM OVC060 06/06 A3008 RMK AO2 SLP188 60003 T00610056 10067 20056 58005=
201812290453 METAR KCLM 290453Z AUTO 00000KT 10SM OVC060 06/06 A3008 RMK AO2 RAB01E35 SLP188 P0002 T00610056=
201812290353 METAR KCLM 290353Z AUTO 26003KT 9SM FEW006 BKN060 OVC075 06/05 A3011 RMK AO2 RAE35 SLP197 P0000 T00560050=
201812290253 METAR KCLM 290253Z AUTO 00000KT 10SM -RA BKN060 OVC085 06/05 A3010 RMK AO2 RAB51 SLP193 P0000 60001 T00610050 56019=
201812290153 METAR KCLM 290153Z AUTO 33003KT 7SM BKN070 OVC085 06/05 A3011 RMK AO2 SLP199 T00560050=
201812290053 METAR KCLM 290053Z AUTO 00000KT 6SM BR FEW002 SCT080 OVC090 06/05 A3012 RMK AO2 RAE41 SLP202 P0001 T00610050=
201812282353 METAR KCLM 282353Z AUTO 29004KT 5SM -RA BR OVC070 06/06 A3015 RMK AO2 RAB12 SLP213 P0000 60011 T00610056 10067 20050 56013=
201812282312 SPECI KCLM 282312Z AUTO 00000KT 9SM -RA SCT003 SCT055 OVC075 06/06 A3016 RMK AO2 RAB12 P0000 T00610056=
201812282253 METAR KCLM 282253Z AUTO 00000KT 10SM BKN003 OVC075 06/06 A3016 RMK AO2 SLP216 T00610056=
201812282153 METAR KCLM 282153Z AUTO 00000KT 10SM FEW002 OVC060 07/06 A3018 RMK AO2 RAE20 SLP221 P0002 T00670056=
201812282118 SPECI KCLM 282118Z AUTO 00000KT 6SM -RA BR FEW002 BKN060 OVC070 07/06 A3018 RMK AO2 P0000 T00670056=
201812282053 METAR KCLM 282053Z AUTO 09003KT 7SM -RA OVC060 06/06 A3019 RMK AO2 RAE13B49 SLP226 P0001 60009 T00610056 58033=
201812281953 METAR KCLM 281953Z AUTO 13004KT 7SM -RA FEW039 OVC055 06/04 A3023 RMK AO2 SLP240 P0002 T00560044=
201812281853 METAR KCLM 281853Z AUTO 13004KT 5SM -RA BR BKN041 OVC055 05/04 A3027 RMK AO2 SLP253 P0006 T00500044=
201812281753 METAR KCLM 281753Z AUTO 13003KT 5SM -RA BR OVC040 05/04 A3029 RMK AO2 SLP259 P0003 60006 T00500039 10050 20033 58006=
201812281653 METAR KCLM 281653Z AUTO 00000KT 5SM -RA BR OVC050 04/04 A3030 RMK AO2 RAE12B38 SLP262 P0000 T00440039=
201812281553 METAR KCLM 281553Z AUTO 00000KT 4SM -RA BR OVC050 04/04 A3030 RMK AO2 SLP264 P0001 T00440039=
201812281453 METAR KCLM 281453Z AUTO 16004KT 8SM -RA FEW035 OVC050 04/03 A3031 RMK AO2 SLP266 P0002 60002 T00390033 56009=
201812281353 METAR KCLM 281353Z AUTO 00000KT 10SM -RA BKN060 OVC075 04/03 A3031 RMK AO2 RAB19E32B50 SLP266 P0000 T00390033=
201812281253 METAR KCLM 281253Z AUTO 21003KT 9SM FEW055 SCT075 OVC100 04/03 A3032 RMK AO2 RAE04 SLP270 P0000 T00390033=
201812281153 METAR KCLM 281153Z AUTO 00000KT 10SM -RA SCT046 OVC060 04/03 A3034 RMK AO2 RAB01 SLP275 P0000 60005 70005 T00390033 10044 20039 58010=
201812281053 METAR KCLM 281053Z AUTO 00000KT 5SM BR BKN049 OVC060 04/04 A3036 RMK AO2 RAE37 SLP282 P0001 T00440039=
201812280953 METAR KCLM 280953Z AUTO 00000KT 5SM -RA BR OVC047 04/04 A3037 RMK AO2 SLP285 P0002 T00440039=
201812280853 METAR KCLM 280853Z AUTO 00000KT 6SM -RA BR OVC040 04/04 A3037 RMK AO2 RAB0755 SLP285 P0002 60002 T00440039 58002=
201812280753 METAR KCLM 280753Z AUTO 00000KT 9SM OVC036 04/03 A3037 RMK AO2 SLP286 T00440033 400720011=
201812280653 METAR KCLM 280653Z AUTO 00000KT 8SM OVC045 04/04 A3037 RMK AO2 SLP288 T00440039=
201812280553 METAR KCLM 280553Z AUTO 00000KT 8SM OVC050 04/03 A3037 RMK AO2 SLP287 T00440033 10061 20039 58005=
201812280453 METAR KCLM 280453Z AUTO 21003KT 7SM FEW035 OVC060 04/03 A3038 RMK AO2 SLP290 T00390033=
201812280353 METAR KCLM 280353Z AUTO 00000KT 9SM FEW035 OVC048 04/03 A3039 RMK AO2 SLP294 T00440033=
201812280253 METAR KCLM 280253Z AUTO 23003KT 10SM FEW045 BKN080 OVC100 04/03 A3039 RMK AO2 SLP293 T00440033 55000=
201812280153 METAR KCLM 280153Z AUTO 00000KT 10SM OVC090 05/03 A3038 RMK AO2 SLP289 T00500033=
201812280053 METAR KCLM 280053Z AUTO 00000KT 10SM FEW038 SCT070 OVC085 06/03 A3038 RMK AO2 SLP289 T00560033=
201812272353 METAR KCLM 272353Z AUTO 00000KT 10SM FEW013 SCT020 OVC100 06/03 A3039 RMK AO2 SLP292 T00610033 10072 20039 53008=
201812272334 SPECI KCLM 272334Z AUTO 00000KT 10SM SCT019 OVC100 06/03 A3038 RMK AO2 T00610033=
201812272253 METAR KCLM 272253Z AUTO 09004KT 10SM OVC017 07/03 A3038 RMK AO2 SLP289 T00670028=
201812272153 METAR KCLM 272153Z AUTO 08005KT 10SM BKN016 OVC110 06/03 A3037 RMK AO2 SLP287 T00610033=
201812272053 METAR KCLM 272053Z AUTO 09005KT 10SM BKN022 06/03 A3036 RMK AO2 SLP284 T00610033 58004=
201812272040 SPECI KCLM 272040Z AUTO 08003KT 10SM FEW015 SCT022 06/03 A3036 RMK AO2 T00610033=
201812271953 METAR KCLM 271953Z AUTO 09005KT 10SM OVC016 07/03 A3037 RMK AO2 SLP286 T00670033=
201812271853 METAR KCLM 271853Z AUTO 12003KT 10SM BKN015 07/03 A3038 RMK AO2 SLP289 T00670028=
201812271850 SPECI KCLM 271850Z AUTO 12004KT 10SM BKN015 07/03 A3038 RMK AO2=
201812271825 SPECI KCLM 271825Z AUTO 00000KT 10SM SCT017 05/02 A3037 RMK AO2 T00500022=
201812271753 METAR KCLM 271753Z AUTO 24005KT 10SM SCT017 BKN025 04/02 A3037 RMK AO2 SLP286 T00390017 10039 20011 51019=
201812271653 METAR KCLM 271653Z AUTO 23006KT 10SM OVC033 03/01 A3036 RMK AO2 SLP284 T00280011=
201812271553 METAR KCLM 271553Z AUTO 23004KT 10SM FEW015 OVC033 02/01 A3034 RMK AO2 SLP276 T00170006=
201812271531 SPECI KCLM 271531Z AUTO 23006KT 10SM FEW018 SCT024 OVC032 02/01 A3033 RMK AO2 T00220006=
201812271453 METAR KCLM 271453Z AUTO 22006KT 10SM BKN021 01/00 A3031 RMK AO2 SLP268 T00110000 51011=
201812271449 SPECI KCLM 271449Z AUTO 23005KT 10SM BKN021 01/00 A3031 RMK AO2=
201812271353 METAR KCLM 271353Z AUTO 24005KT 10SM CLR 02/01 A3029 RMK AO2 SLP259 T00220006=
201812271253 METAR KCLM 271253Z AUTO 24006KT 10SM OVC031 03/01 A3028 RMK AO2 SLP256 T00330011=
201812271153 METAR KCLM 271153Z AUTO 24007KT 10SM OVC030 04/02 A3027 RMK AO2 SLP251 70009 T00390017 10050 20033 51019=
201812271124 SPECI KCLM 271124Z AUTO 24005KT 10SM OVC030 04/02 A3026 RMK AO2 T00440022=
201812271107 SPECI KCLM 271107Z AUTO 24006KT 10SM FEW019 BKN028 OVC034 04/02 A3026 RMK AO2 T00440022=
201812271053 METAR KCLM 271053Z AUTO 25006KT 10SM FEW019 OVC034 04/02 A3026 RMK AO2 SLP250 T00440022=
201812271009 SPECI KCLM 271009Z AUTO 26006KT 10SM SCT026 BKN033 OVC039 04/02 A3024 RMK AO2 T00440022=
201812270953 METAR KCLM 270953Z AUTO 24006KT 10SM BKN024 OVC030 04/02 A3024 RMK AO2 SLP242 T00440022=
201812270936 SPECI KCLM 270936Z AUTO 25005KT 10SM BKN024 04/02 A3023 RMK AO2 T00390022=
201812270853 METAR KCLM 270853Z AUTO 24007KT 10SM CLR 04/02 A3021 RMK AO2 SLP232 T00440022 53019=
201812270753 METAR KCLM 270753Z AUTO 25008KT 10SM CLR 04/02 A3018 RMK AO2 SLP222 T00440022 400780017=
201812270653 METAR KCLM 270653Z AUTO 25008KT 10SM FEW060 05/03 A3017 RMK AO2 SLP217 T00500028=
201812270553 METAR KCLM 270553Z AUTO 27005KT 10SM BKN065 04/03 A3015 RMK AO2 SLP212 60002 T00440028 10056 20039 53016=
201812270453 METAR KCLM 270453Z AUTO 27006KT 10SM OVC036 06/03 A3013 RMK AO2 SLP204 T00560033=
201812270400 SPECI KCLM 270400Z AUTO 24005KT 10SM OVC030 05/04 A3011 RMK AO2 T00500039=
201812270353 METAR KCLM 270353Z AUTO 24005KT 10SM OVC029 05/04 A3011 RMK AO2 SLP197 T00500039=
201812270350 SPECI KCLM 270350Z AUTO 24005KT 10SM OVC029 05/04 A3011 RMK AO2=
201812270253 METAR KCLM 270253Z AUTO 24004KT 10SM BKN038 04/03 A3009 RMK AO2 SLP190 60002 T00440033 53019=
201812270153 METAR KCLM 270153Z AUTO 26006KT 10SM SCT042 BKN075 OVC090 06/04 A3005 RMK AO2 RAE13 SLP179 P0000 T00560039=
201812270053 METAR KCLM 270053Z AUTO 22003KT 10SM -RA FEW038 OVC050 06/04 A3004 RMK AO2 SLP173 P0002 T00560044=
201812270006 SPECI KCLM 270006Z AUTO 20003KT 8SM -RA BKN033 OVC070 06/05 A3003 RMK AO2 P0000 T00560050=
201812262353 METAR KCLM 262353Z AUTO 22003KT 3SM -RA BR OVC027 06/05 A3003 RMK AO2 RAB04 SLP170 P0006 60006 T00560050 10078 20039 50019=
201812262350 SPECI KCLM 262350Z AUTO 24003KT 3SM -RA BR OVC029 06/04 A3003 RMK AO2 RAB04 P0006=
201812262253 METAR KCLM 262253Z AUTO 26006KT 10SM BKN049 BKN055 OVC090 07/04 A3001 RMK AO2 SLP162 T00670039=
201812262153 METAR KCLM 262153Z AUTO 16004KT 10SM CLR 07/03 A2997 RMK AO2 SLP152 T00670033=
201812262053 METAR KCLM 262053Z AUTO VRB04KT 10SM FEW014 BKN050 08/04 A2997 RMK AO2 SLP149 60000 T00780039 50001=
201812261953 METAR KCLM 261953Z AUTO 00000KT 10SM FEW048 BKN110 07/04 A2998 RMK AO2 RAB19E35 SLP153 P0000 T00720039=
201812261853 METAR KCLM 261853Z AUTO 29003KT 10SM FEW040 BKN055 OVC070 06/03 A2998 RMK AO2 RAB05E22 SLP154 P0000 T00560033=
201812261753 METAR KCLM 261753Z AUTO 20005KT 10SM FEW060 SCT070 BKN085 04/03 A2996 RMK AO2 SLP149 60001 T00390028 10039 20017 53004=
201812261653 METAR KCLM 261653Z AUTO 22003KT 10SM FEW044 03/02 A2995 RMK AO2 RAB21E33 SLP146 P0000 T00280017=
201812261553 METAR KCLM 261553Z AUTO 00000KT 10SM FEW060 SCT075 BKN090 03/02 A2995 RMK AO2 RAB1457E11 SLP143 P0000 T00280017=
201812261453 METAR KCLM 261453Z AUTO 22003KT 10SM BKN050 OVC080 03/03 A2995 RMK AO2 RAE43 SLP145 P0000 60001 T00330028 58012=
201812261353 METAR KCLM 261353Z AUTO 24005KT 10SM -RA FEW033 BKN044 OVC075 03/02 A2996 RMK AO2 SLP149 P0001 T00330022=
201812261253 METAR KCLM 261253Z AUTO 24006KT 10SM -RA OVC034 03/02 A2998 RMK AO2 RAB17 SLP154 P0000 T00330022=
201812261153 METAR KCLM 261153Z AUTO 00000KT 10SM SCT065 OVC080 03/02 A2999 RMK AO2 SLP156 T00330017 10044 20028 58038=
201812261053 METAR KCLM 261053Z AUTO 18003KT 10SM OVC085 03/02 A3003 RMK AO2 SLP171 T00330017=
201812260953 METAR KCLM 260953Z AUTO 00000KT 10SM OVC095 03/02 A3008 RMK AO2 SLP187 T00330017=
201812260853 METAR KCLM 260853Z AUTO 25004KT 10SM BKN075 OVC110 04/01 A3010 RMK AO2 SLP194 T00390006 58011=
201812260753 METAR KCLM 260753Z AUTO 27005KT 10SM FEW070 OVC100 04/02 A3012 RMK AO2 SLP200 T00440017 400670017=
201812260653 METAR KCLM 260653Z AUTO 27004KT 10SM OVC100 03/02 A3013 RMK AO2 SLP205 T00280017=
201812260553 METAR KCLM 260553Z AUTO 00000KT 10SM BKN090 OVC110 03/02 A3013 RMK AO2 SLP207 T00280022 10056 20028 58020=
201812260453 METAR KCLM 260453Z AUTO 23003KT 10SM FEW045 BKN100 03/02 A3015 RMK AO2 SLP211 T00330022=
201812260353 METAR KCLM 260353Z AUTO 00000KT 8SM OVC045 03/02 A3018 RMK AO2 SLP222 T00330022=
201812260253 METAR KCLM 260253Z AUTO 18003KT 10SM SCT041 04/03 A3019 RMK AO2 SLP226 T00390028 56008=
201812260153 METAR KCLM 260153Z AUTO 00000KT 10SM OVC036 05/03 A3020 RMK AO2 SLP228 T00500028=
201812260053 METAR KCLM 260053Z AUTO 12005KT 10SM OVC037 05/03 A3020 RMK AO2 SLP229 T00500028=
201812252353 METAR KCLM 252353Z AUTO 13007KT 10SM SCT019 OVC042 06/03 A3021 RMK AO2 SLP234 T00560033 10067 20039 58004=
201812252341 SPECI KCLM 252341Z AUTO 12006KT 10SM FEW016 SCT021 OVC042 06/03 A3022 RMK AO2 T00560033=
201812252317 SPECI KCLM 252317Z AUTO 10005KT 10SM BKN016 OVC021 06/03 A3023 RMK AO2 T00610033=
201812252253 METAR KCLM 252253Z AUTO 08004KT 10SM OVC014 06/03 A3023 RMK AO2 SLP237 T00610033=
201812252225 SPECI KCLM 252225Z AUTO 09004KT 10SM OVC014 06/03 A3022 RMK AO2 T00610033=
201812252208 SPECI KCLM 252208Z AUTO 09005KT 10SM SCT013 BKN019 OVC042 06/03 A3022 RMK AO2 T00610033=
201812252153 METAR KCLM 252153Z AUTO 00000KT 10SM SCT019 BKN035 OVC042 07/03 A3022 RMK AO2 SLP237 T00670033=
201812252115 SPECI KCLM 252115Z AUTO 00000KT 10SM FEW011 OVC036 06/03 A3022 RMK AO2 T00610033=
201812252053 METAR KCLM 252053Z AUTO 05003KT 10SM FEW010 BKN025 OVC038 06/03 A3023 RMK AO2 SLP237 T00610033 58005=
201812251953 METAR KCLM 251953Z AUTO 00000KT 10SM OVC022 06/02 A3023 RMK AO2 SLP240 T00610022=
201812251853 METAR KCLM 251853Z AUTO 24003KT 10SM OVC015 05/01 A3024 RMK AO2 SLP244 T00500011=
201812251753 METAR KCLM 251753Z AUTO 23004KT 10SM OVC015 04/02 A3024 RMK AO2 RAB20E30 SLP243 P0000 60000 T00390022 10039 20017 51013=
201812251739 SPECI KCLM 251739Z AUTO 25005KT 9SM OVC014 04/02 A3024 RMK AO2 RAB20E30 P0000 T00390022=
201812251653 METAR KCLM 251653Z AUTO 24004KT 10SM OVC021 03/02 A3024 RMK AO2 SLP242 T00330022=
201812251631 SPECI KCLM 251631Z AUTO 00000KT 10SM BKN018 OVC040 03/02 A3023 RMK AO2 T00280017=
201812251553 METAR KCLM 251553Z AUTO 00000KT 10SM SCT021 OVC041 03/01 A3021 RMK AO2 SLP233 T00280011=
201812251531 SPECI KCLM 251531Z AUTO 21003KT 10SM BKN021 BKN027 BKN041 02/01 A3020 RMK AO2 T00220011=
201812251521 SPECI KCLM 251521Z AUTO 19003KT 10SM FEW015 SCT029 BKN041 02/01 A3021 RMK AO2 T00220011=
201812251511 SPECI KCLM 251511Z AUTO 00000KT 10SM SCT015 BKN023 BKN039 04/02 A3021 RMK AO2 T00390022=
201812251453 METAR KCLM 251453Z AUTO 00000KT 10SM SCT016 BKN039 02/01 A3020 RMK AO2 SLP230 T00220011 51008=
201812251402 SPECI KCLM 251402Z AUTO 00000KT 10SM FEW018 BKN030 03/02 A3020 RMK AO2 T00280017=
201812251353 METAR KCLM 251353Z AUTO 22003KT 10SM SCT017 OVC028 03/02 A3020 RMK AO2 SLP229 T00330017=
201812251253 METAR KCLM 251253Z AUTO 22003KT 10SM OVC023 04/02 A3019 RMK AO2 SLP226 T00390022=
201812251153 METAR KCLM 251153Z AUTO 22003KT 10SM BKN018 03/02 A3018 RMK AO2 SLP222 T00330017 10056 20028 51010=
201812251150 SPECI KCLM 251150Z AUTO 00000KT 10SM BKN018 03/02 A3018 RMK AO2=
201812251053 METAR KCLM 251053Z AUTO 21003KT 10SM OVC044 04/03 A3016 RMK AO2 SLP216 T00440028=
201812250953 METAR KCLM 250953Z AUTO 00000KT 10SM OVC044 03/03 A3015 RMK AO2 SLP212 T00330028=
201812250853 METAR KCLM 250853Z AUTO 24003KT 10SM SCT045 04/03 A3013 RMK AO2 SLP205 T00440033 51006=
201812250753 METAR KCLM 250753Z AUTO 00000KT 10SM FEW035 OVC043 05/04 A3013 RMK AO2 SLP204 T00500044 400781006=
201812250653 METAR KCLM 250653Z AUTO 21004KT 10SM FEW018 OVC036 05/04 A3012 RMK AO2 SLP203 T00500039=
201812250553 METAR KCLM 250553Z AUTO 00000KT 10SM OVC032 06/04 A3011 RMK AO2 SLP200 T00560044 10067 20056 51014=
201812250529 SPECI KCLM 250529Z AUTO 00000KT 10SM OVC030 06/04 A3011 RMK AO2 T00560044=
201812250453 METAR KCLM 250453Z AUTO 23005KT 10SM OVC028 06/04 A3010 RMK AO2 SLP195 T00560044=
201812250353 METAR KCLM 250353Z AUTO 00000KT 10SM SCT020 OVC026 06/04 A3008 RMK AO2 SLP189 T00560044=
201812250253 METAR KCLM 250253Z AUTO 21004KT 10SM OVC028 06/04 A3007 RMK AO2 SLP185 T00560044 53010=
201812250243 SPECI KCLM 250243Z AUTO 00000KT 10SM FEW013 OVC027 06/04 A3007 RMK AO2 T00560044=
201812250153 METAR KCLM 250153Z AUTO 22003KT 10SM OVC030 06/04 A3006 RMK AO2 SLP182 T00610044=
201812250121 SPECI KCLM 250121Z AUTO 00000KT 10SM OVC029 06/04 A3006 RMK AO2 T00560044=
201812250053 METAR KCLM 250053Z AUTO 00000KT 8SM OVC031 06/04 A3004 RMK AO2 SLP175 T00610044=
201812242353 METAR KCLM 242353Z AUTO 00000KT 10SM OVC030 07/04 A3004 RMK AO2 SLP175 T00670039 10078 20044 53007=
201812242332 SPECI KCLM 242332Z AUTO 00000KT 10SM OVC030 07/04 A3004 RMK AO2 T00720039=
201812242317 SPECI KCLM 242317Z AUTO 00000KT 10SM SCT012 OVC029 07/04 A3004 RMK AO2 T00720039=
201812242253 METAR KCLM 242253Z AUTO 00000KT 10SM BKN012 OVC030 07/04 A3003 RMK AO2 SLP171 T00720039=
201812242153 METAR KCLM 242153Z AUTO 10003KT 10SM OVC032 07/04 A3002 RMK AO2 SLP167 T00720039=
201812242053 METAR KCLM 242053Z AUTO 13003KT 10SM FEW012 SCT034 07/03 A3002 RMK AO2 SLP168 T00670033 56002=
201812241953 METAR KCLM 241953Z AUTO 00000KT 10SM OVC013 07/04 A3002 RMK AO2 SLP168 T00670039=
201812241937 SPECI KCLM 241937Z AUTO 00000KT 10SM OVC013 07/04 A3003 RMK AO2 T00670039=
201812241853 METAR KCLM 241853Z AUTO 22004KT 10SM BKN016 06/04 A3003 RMK AO2 SLP170 T00610039=
201812241850 SPECI KCLM 241850Z AUTO 23004KT 10SM BKN017 06/04 A3003 RMK AO2=
201812241753 METAR KCLM 241753Z AUTO 25003KT 10SM OVC033 04/03 A3003 RMK AO2 SLP172 T00440028 10044 20000 53003=
201812241653 METAR KCLM 241653Z AUTO 22005KT 10SM OVC030 04/03 A3003 RMK AO2 SLP170 T00390028=
201812241641 SPECI KCLM 241641Z AUTO 20004KT 10SM FEW012 OVC030 04/03 A3003 RMK AO2 T00390028=
201812241553 METAR KCLM 241553Z AUTO 00000KT 10SM OVC012 03/02 A3002 RMK AO2 SLP167 T00280022=
201812241453 METAR KCLM 241453Z AUTO 23005KT 10SM OVC010 03/02 A3002 RMK AO2 SLP169 T00280017 56004=
201812241353 METAR KCLM 241353Z AUTO 23004KT 10SM OVC011 01/01 A3003 RMK AO2 SLP170 T00110011=
201812241329 SPECI KCLM 241329Z AUTO 00000KT 10SM BKN011 BKN110 00/00 A3002 RMK AO2 T00000000=
201812241253 METAR KCLM 241253Z AUTO 23007KT 10SM CLR 02/01 A3003 RMK AO2 SLP171 T00220006=
201812241153 METAR KCLM 241153Z AUTO 23006KT 10SM CLR 02/01 A3004 RMK AO2 SLP173 70032 T00170006 10039 21006 50006=
201812241053 METAR KCLM 241053Z AUTO 22003KT 10SM CLR 01/01 A3004 RMK AO2 SLP173 T00110006=
201812240953 METAR KCLM 240953Z AUTO 23006KT 10SM CLR 02/02 A3003 RMK AO2 SLP172 T00220017=
201812240853 METAR KCLM 240853Z AUTO 20003KT 9SM CLR 01/01 A3002 RMK AO2 SLP166 T00110006 50001=
201812240753 METAR KCLM 240753Z AUTO 24006KT 10SM OVC060 04/03 A3003 RMK AO2 SLP172 T00390028 400830028=
201812240653 METAR KCLM 240653Z AUTO 28005KT 10SM BKN050 04/02 A3003 RMK AO2 SLP169 T00390022=
201812240553 METAR KCLM 240553Z AUTO 00000KT 10SM BKN050 03/03 A3001 RMK AO2 SLP165 60002 T00330028 10067 20033 53004=
201812240453 METAR KCLM 240453Z AUTO 23006KT 10SM OVC065 06/04 A3000 RMK AO2 SLP161 T00560039=
201812240353 METAR KCLM 240353Z AUTO 24003KT 10SM BKN070 OVC085 06/04 A3000 RMK AO2 RAE24 SLP160 P0000 T00560044=
201812240253 METAR KCLM 240253Z AUTO 25006KT 10SM -RA BKN050 OVC065 06/04 A3000 RMK AO2 RAE28B52 SLP161 P0002 60002 T00610044 51010=
201812240153 METAR KCLM 240153Z AUTO 24005KT 10SM -RA OVC055 06/05 A2999 RMK AO2 RAE02B35 SLP159 P0000 T00610050=
201812240053 METAR KCLM 240053Z AUTO 00000KT 9SM -RA FEW060 OVC070 07/06 A2998 RMK AO2 RAB08E30B51 SLP155 P0000 T00670056=
201812232353 METAR KCLM 232353Z AUTO 22003KT 10SM OVC060 07/06 A2997 RMK AO2 SLP151 60005 T00670056 10083 20061 53011=
201812232253 METAR KCLM 232253Z AUTO 00000KT 10SM FEW031 OVC060 07/06 A2995 RMK AO2 SLP144 T00720061=
201812232153 METAR KCLM 232153Z AUTO 00000KT 10SM FEW013 BKN060 OVC075 08/06 A2994 RMK AO2 SLP141 T00780061=
201812232136 SPECI KCLM 232136Z AUTO 10006KT 10SM FEW009 SCT013 BKN055 08/06 A2994 RMK AO2 T00780056=
201812232129 SPECI KCLM 232129Z AUTO 10005KT 10SM BKN010 BKN060 08/06 A2994 RMK AO2 T00780056=
201812232053 METAR KCLM 232053Z AUTO 20003KT 10SM FEW033 SCT085 08/05 A2994 RMK AO2 RAB10E44 SLP140 P0002 60005 T00780050 50010=
201812231953 METAR KCLM 231953Z AUTO 24009KT 10SM SCT070 OVC085 08/05 A2994 RMK AO2 SLP141 T00780050=
201812231853 METAR KCLM 231853Z AUTO 27007KT 10SM SCT036 SCT047 OVC070 08/06 A2994 RMK AO2 RAB19E51 SLP139 P0003 T00780056=
201812231753 METAR KCLM 231753Z AUTO 26009KT 10SM SCT110 07/04 A2991 RMK AO2 SLP129 60025 T00720039 10072 20044 51017=
201812231653 METAR KCLM 231653Z AUTO 23005KT 10SM BKN055 BKN100 04/03 A2990 RMK AO2 SLP128 T00440033=
201812231553 METAR KCLM 231553Z AUTO 28005KT 10SM SCT055 OVC110 06/03 A2988 RMK AO2 RAE01 SLP119 P0000 T00560033=
201812231453 METAR KCLM 231453Z AUTO 19005KT 10SM -RA BKN035 OVC085 06/04 A2986 RMK AO2 SLP112 P0008 60025 T00560044 51008=
201812231353 METAR KCLM 231353Z AUTO 21005KT 4SM RA BR OVC038 07/05 A2986 RMK AO2 SLP112 P0012 T00670050=
201812231253 METAR KCLM 231253Z AUTO 25007KT 7SM -RA OVC045 06/05 A2984 RMK AO2 SLP107 P0005 T00610050=
201812231153 METAR KCLM 231153Z AUTO 28010KT 10SM -RA OVC048 06/04 A2983 RMK AO2 RAE01B24 SLP104 P0002 60026 70035 T00610044 10072 20050 53018=
201812231053 METAR KCLM 231053Z AUTO 22004KT 10SM -RA OVC048 07/05 A2981 RMK AO2 RAB11 SLP098 P0005 T00670050=
201812230953 METAR KCLM 230953Z AUTO 14003KT 10SM OVC060 06/05 A2980 RMK AO2 RAB17E38 SLP091 P0000 T00610050=
201812230853 METAR KCLM 230853Z AUTO 24006KT 10SM FEW055 SCT100 06/04 A2978 RMK AO2 RAE38 SLP086 P0003 60019 T00610044 58001=
201812230753 METAR KCLM 230753Z AUTO 22005KT 10SM -RA OVC050 07/05 A2979 RMK AO2 RAB28 SLP089 P0002 T00670050 400670006=
201812230653 METAR KCLM 230653Z AUTO 10003KT 3SM BR FEW017 FEW085 06/04 A2977 RMK AO2 RAE42 SLP084 P0014 T00560044=
201812230613 SPECI KCLM 230613Z AUTO 17005KT 4SM -RA BR OVC040 06/05 A2979 RMK AO2 P0011 T00560050=
201812230555 SPECI KCLM 230555Z AUTO 26005KT 2SM RA BR OVC040 05/04 A2979 RMK AO2 P0005 T00500039=
201812230548 METAR KCLM 230548Z AUTO 00000KT 1 3/4SM RA BR BKN042 OVC070 03/03 A2978 RMK AO2 RAB39 PRESRR SLP087 P0004 60009 T00330028 10061 20017 55011=
201812230547 SPECI KCLM 230547Z AUTO 00000KT 1 3/4SM RA BR BKN042 OVC070 03/03 A2978 RMK AO2 RAB39 PRESRR P0004=
201812230453 METAR KCLM 230453Z AUTO 00000KT 10SM CLR 04/03 A2974 RMK AO2 SLP073 T00390028=
201812230423 SPECI KCLM 230423Z AUTO 00000KT 9SM FEW041 04/03 A2976 RMK AO2 T00390028=
201812230415 SPECI KCLM 230415Z AUTO 00000KT 2 1/2SM BR FEW038 04/03 A2976 RMK AO2 T00440033=
201812230353 METAR KCLM 230353Z AUTO 10SM FEW100 04/03 A2978 RMK AO2 RAB00E09 SLP086 P0000 T00440033=
201812230253 METAR KCLM 230253Z AUTO 15007KT 10SM BKN050 05/04 A2981 RMK AO2 RAE49 SLP098 P0002 60005 T00500039 58007=
201812230153 METAR KCLM 230153Z AUTO 29003KT 6SM -RA BR OVC046 06/04 A2982 RMK AO2 SLP100 P0003 T00560044=
201812230053 METAR KCLM 230053Z AUTO 00000KT 8SM -RA OVC050 06/04 A2983 RMK AO2 RAE2354B45 SLP103 P0000 T00560039=
201812222353 METAR KCLM 222353Z AUTO 27007KT 230V290 10SM -RA OVC055 06/04 A2984 RMK AO2 RAB41 SLP105 P0000 60000 T00610039 10067 20039 56029=
201812222253 METAR KCLM 222253Z AUTO 23005KT 10SM FEW075 BKN095 06/03 A2987 RMK AO2 SLP116 T00610033=
201812222153 METAR KCLM 222153Z AUTO VRB03KT 10SM SCT070 06/03 A2988 RMK AO2 SLP120 T00610033=
201812222053 METAR KCLM 222053Z AUTO VRB04KT 10SM FEW075 06/03 A2992 RMK AO2 SLP135 T00610028 58035=
201812221953 METAR KCLM 221953Z AUTO 00000KT 10SM BKN065 07/03 A2998 RMK AO2 SLP153 T00670033=
201812221853 METAR KCLM 221853Z AUTO 27004KT 10SM FEW065 06/03 A3002 RMK AO2 SLP167 T00560033=
201812221753 METAR KCLM 221753Z AUTO 00000KT 10SM CLR 04/03 A3003 RMK AO2 SLP171 60000 T00390028 10039 20017 58011=
201812221653 METAR KCLM 221653Z AUTO 00000KT 10SM OVC100 03/02 A3005 RMK AO2 SLP179 T00330022=
201812221553 METAR KCLM 221553Z AUTO 17003KT 10SM OVC100 03/02 A3005 RMK AO2 SLP179 T00280022=
201812221453 METAR KCLM 221453Z AUTO 00000KT 10SM OVC095 03/02 A3006 RMK AO2 RAE1357 SLP182 P0000 60000 T00280017 56021=
201812221353 METAR KCLM 221353Z AUTO 00000KT 10SM -RA BKN060 OVC110 03/02 A3008 RMK AO2 RAB48 SLP188 P0000 T00280017=
201812221253 METAR KCLM 221253Z AUTO 19003KT 10SM SCT075 BKN090 BKN110 02/01 A3009 RMK AO2 SLP193 T00220011=
201812221153 METAR KCLM 221153Z AUTO 24004KT 10SM SCT050 OVC070 03/01 A3012 RMK AO2 RAB30E40 SLP202 P0000 60000 T00330011 10033 20006 58004=
201812221053 METAR KCLM 221053Z AUTO 16003KT 10SM BKN048 OVC070 02/01 A3013 RMK AO2 SLP205 T00220006=
201812220953 METAR KCLM 220953Z AUTO 00000KT 10SM BKN048 BKN065 OVC085 02/00 A3013 RMK AO2 SLP206 T00220000=
201812220853 METAR KCLM 220853Z AUTO 14006KT 10SM CLR 01/M01 A3013 RMK AO2 SLP206 T00111006 58015=
201812220753 METAR KCLM 220753Z AUTO 12003KT 10SM BKN060 01/M01 A3016 RMK AO2 SLP215 T00111006 400780000=
201812220653 METAR KCLM 220653Z AUTO 00000KT 10SM SCT075 02/00 A3015 RMK AO2 SLP213 T00170000=
201812220553 METAR KCLM 220553Z AUTO 23003KT 10SM OVC070 02/00 A3018 RMK AO2 SLP222 T00220000 10061 20000 58001=
201812220453 METAR KCLM 220453Z AUTO 23003KT 10SM OVC080 02/00 A3018 RMK AO2 SLP224 T00220000=
201812220353 METAR KCLM 220353Z AUTO 00000KT 10SM CLR 01/M01 A3018 RMK AO2 SLP222 T00061011=
201812220253 METAR KCLM 220253Z AUTO 21003KT 10SM CLR 00/M02 A3018 RMK AO2 SLP222 T00001017 58004=
201812220153 METAR KCLM 220153Z AUTO 21004KT 10SM CLR 01/M01 A3019 RMK AO2 SLP225 T00111006=
201812220053 METAR KCLM 220053Z AUTO 00000KT 10SM CLR 02/00 A3019 RMK AO2 SLP225 T00220000=
201812212353 METAR KCLM 212353Z AUTO 00000KT 10SM CLR 06/01 A3019 RMK AO2 SLP226 T00610011 10078 20044 53007=
201812212253 METAR KCLM 212253Z AUTO 28003KT 10SM CLR 07/00 A3018 RMK AO2 SLP223 T00720000=
201812212153 METAR KCLM 212153Z AUTO 25005KT 10SM CLR 06/01 A3017 RMK AO2 SLP219 T00610006=
201812212053 METAR KCLM 212053Z AUTO 23004KT 10SM CLR 07/01 A3017 RMK AO2 SLP219 T00670006 50001=
201812211953 METAR KCLM 211953Z AUTO 25008KT 10SM CLR 06/M01 A3018 RMK AO2 SLP220 T00611006=
201812211853 METAR KCLM 211853Z AUTO 25008KT 10SM FEW049 06/M01 A3019 RMK AO2 SLP224 T00561006=
201812211753 METAR KCLM 211753Z AUTO 23004KT 10SM CLR 04/M01 A3017 RMK AO2 SLP218 60000 T00441006 10050 20033 50016=
201812211653 METAR KCLM 211653Z AUTO 25011KT 10SM CLR 03/M01 A3017 RMK AO2 SLP218 T00331006=
201812211553 METAR KCLM 211553Z AUTO 25010KT 10SM CLR 03/M01 A3014 RMK AO2 SLP210 T00331006=
201812211453 METAR KCLM 211453Z AUTO 26009KT 10SM CLR 03/M01 A3012 RMK AO2 SLP201 60000 T00331006 51009=
201812211353 METAR KCLM 211353Z AUTO 26010KT 10SM CLR 04/00 A3011 RMK AO2 RAE1257 SLP198 P0000 T00390000=
201812211253 METAR KCLM 211253Z AUTO 29010KT 9SM -RA SCT036 BKN043 BKN055 05/01 A3011 RMK AO2 RAB44 SLP199 P0000 T00500006=
201812211153 METAR KCLM 211153Z AUTO 25012G20KT 10SM BKN075 06/00 A3009 RMK AO2 SLP192 60001 70055 T00560000 10061 20039 51030=
201812211053 METAR KCLM 211053Z AUTO 25011KT 10SM CLR 04/00 A3006 RMK AO2 RAE0956 SLP182 P0000 T00440000=
201812210953 METAR KCLM 210953Z AUTO 28012G21KT 8SM -RA SCT028 BKN044 BKN080 04/01 A3004 RMK AO2 RAB32 SLP175 P0001 T00440011=
201812210853 METAR KCLM 210853Z AUTO 27014KT 10SM CLR 06/M01 A3000 RMK AO2 PK WND 26030/0814 SLP162 60000 T00561011 53024=
201812210753 METAR KCLM 210753Z AUTO 26017G25KT 10SM CLR 06/M02 A2997 RMK AO2 SLP151 T00611022 401390044=
201812210653 METAR KCLM 210653Z AUTO 26014G21KT 10SM SCT080 06/M02 A2996 RMK AO2 PK WND 26033/0558 RAB00E14 SLP145 P0000 T00561017=
201812210553 METAR KCLM 210553Z AUTO 25019G28KT 10SM FEW055 06/00 A2993 RMK AO2 PK WND 29029/0522 RAE0459B23E34 SLP138 P0000 60014 T00560000 10072 20050 51023=
201812210453 METAR KCLM 210453Z AUTO 26017G32KT 8SM -RA SCT028 SCT055 BKN070 06/01 A2991 RMK AO2 PK WND 26032/0446 RAB28 SLP129 P0000 T00560006=
201812210353 METAR KCLM 210353Z AUTO 26012KT 10SM SCT042 BKN055 OVC090 06/01 A2990 RMK AO2 PK WND 28027/0327 RAE46 SLP126 P0002 T00560011=
201812210253 METAR KCLM 210253Z AUTO 25008G17KT 10SM -RA BKN047 OVC070 06/02 A2986 RMK AO2 PK WND 27027/0219 RAB0157 SLP114 P0003 60012 T00560022 53041=
201812210232 SPECI KCLM 210232Z AUTO 27012G19KT 9SM -RA OVC037 06/02 A2985 RMK AO2 PK WND 27027/0219 RAB0157 P0003 T00560022=
201812210225 SPECI KCLM 210225Z AUTO 27016G27KT 6SM -RA OVC028 05/02 A2984 RMK AO2 PK WND 27027/0219 RAB0157 P0003 T00500022=
201812210153 METAR KCLM 210153Z AUTO 23005KT 10SM BKN050 OVC070 06/03 A2981 RMK AO2 RAE36 SLP097 P0001 T00610028=
201812210110 SPECI KCLM 210110Z AUTO 24013KT 9SM -RA OVC031 06/03 A2976 RMK AO2 PRESFR P0001 T00560028=
201812210053 METAR KCLM 210053Z AUTO 25011KT 8SM -RA OVC029 06/03 A2979 RMK AO2 SLP089 P0008 T00610028=
201812210035 SPECI KCLM 210035Z AUTO 24010G22KT 6SM -RA OVC027 06/03 A2979 RMK AO2 P0006 T00610033=
201812202353 METAR KCLM 202353Z AUTO VRB03KT 8SM -RA OVC034 07/03 A2974 RMK AO2 SLP072 P0004 60008 T00720033 10139 20067 51058=
201812202253 METAR KCLM 202253Z AUTO 24006G16KT 8SM -RA OVC047 08/04 A2968 RMK AO2 SLP054 P0002 T00780039=
201812202153 METAR KCLM 202153Z AUTO 21006G19KT 10SM -RA OVC060 09/03 A2964 RMK AO2 SLP040 P0002 T00890033=
201812202053 METAR KCLM 202053Z AUTO VRB05G15KT 10SM -RA BKN047 BKN055 OVC070 10/03 A2957 RMK AO2 PRESRR SLP013 P0000 60000 T01000033 53076=
201812201953 METAR KCLM 201953Z AUTO 21018G31KT 8SM -RA BKN055 OVC070 11/03 A2948 RMK AO2 PK WND 21038/1934 RAB09E29B50 PRESRR SLP984 P0000 T01110028=
201812201853 METAR KCLM 201853Z AUTO 24018G24KT 10SM SCT039 BKN065 OVC095 13/05 A2938 RMK AO2 PK WND 22026/1841 RAB14E50 SLP949 P0000 T01330050=
201812201753 METAR KCLM 201753Z AUTO 00000KT 10SM BKN045 BKN060 BKN100 10/09 A2934 RMK AO2 RAE35 SLP936 P0002 60032 T01000089 10106 20061 58028=
201812201653 METAR KCLM 201653Z AUTO VRB03KT 10SM -RA BKN060 OVC075 09/08 A2938 RMK AO2 SLP950 P0003 T00940083=
201812201553 METAR KCLM 201553Z AUTO VRB04KT 5SM -RA BR OVC060 07/07 A2941 RMK AO2 SLP959 P0001 T00720067=
201812201504 SPECI KCLM 201504Z AUTO 00000KT 7SM -RA BKN055 OVC070 07/06 A2943 RMK AO2 P0000 T00670061=
201812201453 METAR KCLM 201453Z AUTO 00000KT 2SM -RA BR BKN050 OVC070 07/06 A2943 RMK AO2 VIS 3/4V5 SLP966 P0003 60026 T00670056 58061=
201812201353 METAR KCLM 201353Z AUTO 29005KT 5SM -RA BR OVC060 07/07 A2950 RMK AO2 SLP991 P0012 T00670067=
201812201253 METAR KCLM 201253Z AUTO 13009KT 7SM -RA OVC060 06/06 A2955 RMK AO2 SLP009 P0011 T00610056=
201812201153 METAR KCLM 201153Z AUTO VRB03KT 7SM -RA OVC060 06/06 A2961 RMK AO2 RAE27B43 SLP027 P0001 60007 70007 T00610056 10067 20050 58053=
201812201053 METAR KCLM 201053Z AUTO 15005KT 8SM -RA OVC060 06/05 A2966 RMK AO2 PRESFR SLP045 P0004 T00610050=
201812200953 METAR KCLM 200953Z AUTO 23004KT 7SM -RA OVC060 06/06 A2972 RMK AO2 RAB11 SLP065 P0001 T00610056=
201812200853 METAR KCLM 200853Z AUTO 00000KT 9SM OVC065 06/04 A2976 RMK AO2 RAE30 SLP081 P0001 60001 T00560044 58050=
201812200753 METAR KCLM 200753Z AUTO 16004KT 10SM -RA OVC070 06/04 A2982 RMK AO2 RAB53 PRESFR SLP101 P0000 T00560044 401000050=
201812200653 METAR KCLM 200653Z AUTO 00000KT 10SM BKN065 06/04 A2986 RMK AO2 SLP114 T00560039=
201812200553 METAR KCLM 200553Z AUTO 29003KT 10SM FEW050 BKN070 BKN100 07/04 A2991 RMK AO2 SLP131 T00670044 10083 20061 56041=
201812200453 METAR KCLM 200453Z AUTO VRB03KT 10SM BKN070 OVC090 06/05 A2994 RMK AO2 SLP139 T00610050=
201812200353 METAR KCLM 200353Z AUTO 22004KT 9SM OVC070 06/05 A2999 RMK AO2 SLP156 T00610050=
201812200253 METAR KCLM 200253Z AUTO 00000KT 9SM OVC075 06/05 A3004 RMK AO2 SLP173 T00610050 58040=
201812200153 METAR KCLM 200153Z AUTO 16003KT 7SM OVC080 07/06 A3009 RMK AO2 SLP191 T00720056=
201812200053 METAR KCLM 200053Z AUTO 17003KT 7SM OVC090 07/06 A3011 RMK AO2 SLP200 T00720056=
201812192353 METAR KCLM 192353Z AUTO 00000KT 10SM OVC095 08/06 A3016 RMK AO2 SLP213 T00830056 10100 20072 58018=
201812192312 SPECI KCLM 192312Z AUTO 11005KT 3SM HZ OVC100 09/06 A3017 RMK AO2 T00890056=
201812192305 SPECI KCLM 192305Z AUTO 08003KT 1 3/4SM HZ BKN100 09/06 A3017 RMK AO2 T00890056=
201812192253 METAR KCLM 192253Z AUTO 11003KT 10SM SCT100 09/06 A3018 RMK AO2 SLP222 T00890056=
201812192153 METAR KCLM 192153Z AUTO VRB03KT 10SM CLR 09/05 A3019 RMK AO2 SLP224 T00940050=
201812192053 METAR KCLM 192053Z AUTO 13005KT 10SM CLR 09/05 A3021 RMK AO2 SLP230 T00940050 58011=
201812191953 METAR KCLM 191953Z AUTO 08005KT 10SM CLR 09/04 A3023 RMK AO2 SLP237 T00940044=
201812191853 METAR KCLM 191853Z AUTO 13004KT 10SM SCT070 08/05 A3025 RMK AO2 SLP244 T00830050=
201812191753 METAR KCLM 191753Z AUTO 08003KT 10SM BKN065 08/04 A3024 RMK AO2 SLP243 60000 T00780044 10078 20050 53025=
201812191653 METAR KCLM 191653Z AUTO 22003KT 10SM OVC060 07/04 A3022 RMK AO2 SLP234 T00670044=
201812191553 METAR KCLM 191553Z AUTO 22004KT 10SM BKN060 OVC070 07/04 A3018 RMK AO2 SLP223 T00670039=
201812191453 METAR KCLM 191453Z AUTO 28003KT 10SM OVC055 07/04 A3017 RMK AO2 RAB12E21 SLP217 P0000 60000 T00670039 50016=
201812191353 METAR KCLM 191353Z AUTO 00000KT 10SM BKN060 OVC085 08/03 A3017 RMK AO2 SLP220 T00780033=
201812191253 METAR KCLM 191253Z AUTO 00000KT 10SM FEW090 06/03 A3015 RMK AO2 RAB1154E07 SLP211 P0000 T00610033=
201812191153 METAR KCLM 191153Z AUTO 24009G19KT 10SM FEW042 07/04 A3012 RMK AO2 RAE16 SLP201 P0000 60012 70098 T00720039 10083 20061 53017=
201812191128 SPECI KCLM 191128Z AUTO 25011KT 10SM SCT025 07/03 A3011 RMK AO2 RAE16 P0000 T00720033=
201812191111 SPECI KCLM 191111Z AUTO 24012KT 10SM -RA BKN025 07/03 A3010 RMK AO2 P0000 T00670033=
201812191053 METAR KCLM 191053Z AUTO 27011KT 10SM -RA SCT027 SCT055 07/04 A3010 RMK AO2 RAE0958B39 SLP196 P0000 T00670039=
201812190953 METAR KCLM 190953Z AUTO 25009KT 10SM -RA BKN038 BKN049 07/04 A3008 RMK AO2 SLP189 P0005 T00670039=
201812190853 METAR KCLM 190853Z AUTO 21008G18KT 7SM -RA BKN047 OVC070 07/04 A3007 RMK AO2 RAB02 SLP183 P0005 60007 T00720044 51033=
201812190753 METAR KCLM 190753Z AUTO 26006KT 10SM SCT060 06/04 A3003 RMK AO2 RAB00E13 SLP170 P0000 T00610039 400940056=
201812190653 METAR KCLM 190653Z AUTO 23006KT 10SM BKN050 OVC060 07/04 A3001 RMK AO2 RAB0554E49 SLP165 P0002 T00670044=
201812190553 METAR KCLM 190553Z AUTO 26007KT 10SM SCT055 SCT070 BKN100 07/04 A2997 RMK AO2 SLP150 60013 T00720044 10089 20056 53037=
201812190453 METAR KCLM 190453Z AUTO 25008KT 10SM CLR 07/04 A2993 RMK AO2 SLP138 T00670044=
201812190353 METAR KCLM 190353Z AUTO 26007KT 10SM FEW080 SCT100 07/04 A2990 RMK AO2 RAE0255 SLP125 P0000 T00670044=
201812190253 METAR KCLM 190253Z AUTO 20006KT 10SM -RA SCT037 BKN090 OVC110 07/06 A2986 RMK AO2 SLP114 P0006 60013 T00720056 53034=
201812190153 METAR KCLM 190153Z AUTO 23012G16KT 9SM -RA FEW036 OVC044 08/05 A2982 RMK AO2 RAB08 SLP099 P0001 T00780050=
201812190053 METAR KCLM 190053Z AUTO 25003KT 10SM BKN047 BKN060 OVC070 07/06 A2978 RMK AO2 RAE52 SLP086 P0006 T00720056=
201812182353 METAR KCLM 182353Z AUTO 19007KT 8SM -RA BKN048 OVC060 08/06 A2976 RMK AO2 LTG DSNT NW RAB08E22B43 SLP080 P0000 60035 T00830061 10094 20078 51026=
201812182253 METAR KCLM 182253Z AUTO 17006KT 10SM BKN047 BKN060 OVC070 08/07 A2974 RMK AO2 RAE44 SLP074 P0008 T00830067=
201812182225 SPECI KCLM 182225Z AUTO 20004KT 3SM -RA BR OVC037 08/07 A2974 RMK AO2 P0006 T00780067=
201812182214 SPECI KCLM 182214Z AUTO 28003KT 1 3/4SM RA BR OVC037 08/06 A2974 RMK AO2 P0005 T00780061=
201812182153 METAR KCLM 182153Z AUTO 26005KT 6SM -RA BR OVC050 08/06 A2972 RMK AO2 LTG DSNT SW RAB2057 SLP065 P0003 T00830061=
201812182053 METAR KCLM 182053Z AUTO 00000KT 10SM BKN060 OVC070 09/08 A2968 RMK AO2 RAE23 SLP052 P0003 60024 T00940078 51026=
201812181953 METAR KCLM 181953Z AUTO 22006KT 8SM -RA BKN049 OVC065 08/07 A2968 RMK AO2 SLP052 P0007 T00830067=
201812181906 SPECI KCLM 181906Z AUTO 21007KT 3SM -RA BR OVC039 08/07 A2967 RMK AO2 P0003 T00780067=
201812181853 METAR KCLM 181853Z AUTO 25005KT 2 1/2SM -RA BR OVC039 08/07 A2966 RMK AO2 RAB09 SLP046 P0014 T00780067=
201812181839 SPECI KCLM 181839Z AUTO 32005KT 2 1/2SM -RA BR OVC041 08/07 A2965 RMK AO2 RAB09 P0008 T00830067=
201812181753 METAR KCLM 181753Z AUTO 25007KT 10SM SCT043 BKN070 OVC090 09/07 A2960 RMK AO2 RAE51 SLP025 P0004 60038 T00890067 10089 20067 51032=
201812181653 METAR KCLM 181653Z AUTO 27006KT 4SM -RA BR BKN047 OVC055 08/07 A2959 RMK AO2 SLP020 P0008 T00830067=
201812181553 METAR KCLM 181553Z AUTO 21006KT 10SM -RA OVC048 08/06 A2956 RMK AO2 RAE01B52 SLP009 P0000 T00780061=
201812181453 METAR KCLM 181453Z AUTO 17007G15KT 5SM -RA BR BKN042 BKN060 OVC080 08/06 A2951 RMK AO2 SLP993 P0022 60026 T00830061 53006=
201812181353 METAR KCLM 181353Z AUTO 26007KT 10SM -RA OVC060 08/06 A2948 RMK AO2 RAB01 SLP985 P0002 T00780061=
201812181253 METAR KCLM 181253Z AUTO 24008KT 10SM SCT055 BKN070 OVC090 08/06 A2949 RMK AO2 RAE52 SLP987 P0002 T00830061=
201812181153 METAR KCLM 181153Z AUTO 00000KT 6SM -RA BR OVC055 07/07 A2949 RMK AO2 RAB10 SLP988 P0001 60016 70059 T00670067 10078 20067 58023=
201812181053 METAR KCLM 181053Z AUTO 22004KT 10SM BKN060 BKN075 OVC100 07/07 A2953 RMK AO2 RAE49 SLP001 P0004 T00720067=
201812180953 METAR KCLM 180953Z AUTO 00000KT 5SM -RA BR BKN050 BKN070 OVC110 07/06 A2954 RMK AO2 SLP005 P0005 T00720061=
201812180853 METAR KCLM 180853Z AUTO 19003KT 8SM -RA BKN055 OVC070 07/06 A2956 RMK AO2 RAE26B50 SLP011 P0002 60006 T00670061 58007=
201812180753 METAR KCLM 180753Z AUTO 24004KT 9SM -RA OVC060 07/07 A2958 RMK AO2 RAE0656B23 SLP018 P0002 T00720067=
201812180653 METAR KCLM 180653Z AUTO 18003KT 10SM -RA BKN055 BKN075 OVC120 07/06 A2959 RMK AO2 SLPNO P0002 T00720061=
201812180553 METAR KCLM 180553Z AUTO 00000KT 8SM -RA OVC050 08/07 A2958 RMK AO2 SLPNO P0011 60041 T00830067 10100 20072 53022=
201812180453 METAR KCLM 180453Z AUTO 24007KT 6SM -RA OVC050 09/06 A2955 RMK AO2 PRESRR SLPNO P0015 T00890061=
201812180353 METAR KCLM 180353Z AUTO VRB03KT 5SM -RA OVC050 09/06 A2950 RMK AO2 SLPNO P0007 T00890056=
201812180253 METAR KCLM 180253Z AUTO VRB04KT 10SM -RA OVC050 09/04 A2952 RMK AO2 SLPNO P0003 60008 T00940044 58050=
201812180153 METAR KCLM 180153Z AUTO 36005KT 8SM -RA OVC048 08/06 A2959 RMK AO2 SLPNO P0003 T00780061=
201812180053 METAR KCLM 180053Z AUTO 00000KT 8SM -RA FEW003 OVC048 08/07 A2963 RMK AO2 SLPNO P0002 T00780067=
201812180024 SPECI KCLM 180024Z AUTO VRB03KT 7SM -RA SCT002 OVC050 08/07 A2964 RMK AO2 P0002 T00780067=
201812172353 METAR KCLM 172353Z AUTO 00000KT 6SM -RA BR OVC055 08/07 A2967 RMK AO2 SLPNO P0000 60002 T00780072 58040=
201812172253 METAR KCLM 172253Z AUTO 02004KT 9SM -RA OVC055 08/07 A2970 RMK AO2 RAB12 SLPNO P0002 T00830072=
201812172153 METAR KCLM 172153Z AUTO 34003KT 10SM SCT046 OVC065 09/08 A2976 RMK AO2 SLPNO T00890078=
201812172053 METAR KCLM 172053Z AUTO 00000KT 8SM FEW060 09/07 A2979 RMK AO2 SLPNO T00940072 58023=
201812171953 METAR KCLM 171953Z AUTO 00000KT 10SM BKN070 09/07 A2983 RMK AO2 SLPNO T00890072 $=
201812171853 METAR KCLM 171853Z AUTO A2984 RMK AO2 SLPNO PWINO FZRANO $=
201812171753 METAR KCLM 171753Z AUTO A2985 RMK AO2 SLPNO 54000 PWINO FZRANO $=
201812171653 METAR KCLM 171653Z AUTO A2986 RMK AO2 SLPNO PWINO FZRANO $=
201812171553 METAR KCLM 171553Z AUTO A2984 RMK AO2 SLPNO PWINO FZRANO $=
201812171453 METAR KCLM 171453Z AUTO A2985 RMK AO2 SLPNO 58003 PWINO FZRANO $=
201812171353 METAR KCLM 171353Z AUTO A2987 RMK AO2 SLPNO PWINO FZRANO $=
201812171253 METAR KCLM 171253Z AUTO A2986 RMK AO2 SLPNO PWINO FZRANO $=
201812171153 METAR KCLM 171153Z AUTO A2986 RMK AO2 SLPNO 51010 PWINO FZRANO $=
201812171053 METAR KCLM 171053Z AUTO A2986 RMK AO2 SLPNO PWINO FZRANO $=
201812170953 METAR KCLM 170953Z AUTO A2984 RMK AO2 SLPNO PWINO FZRANO $=
201812170853 METAR KCLM 170853Z AUTO A2983 RMK AO2 SLPNO 51027 PWINO FZRANO $=
201812170753 METAR KCLM 170753Z AUTO A2981 RMK AO2 SLPNO PWINO FZRANO $=
201812170653 METAR KCLM 170653Z AUTO A2979 RMK AO2 SLPNO PWINO FZRANO $=
201812170553 METAR KCLM 170553Z AUTO A2975 RMK AO2 SLPNO 53023 PWINO FZRANO $=
201812170453 METAR KCLM 170453Z AUTO A2972 RMK AO2 SLPNO PWINO FZRANO $=
201812170353 METAR KCLM 170353Z AUTO A2969 RMK AO2 SLPNO PWINO FZRANO $=
201812170253 METAR KCLM 170253Z AUTO A2968 RMK AO2 PRESRR SLPNO 53040 PWINO FZRANO $=
201812170153 METAR KCLM 170153Z AUTO A2961 RMK AO2 SLPNO PWINO FZRANO $=
201812170053 METAR KCLM 170053Z AUTO A2958 RMK AO2 SLPNO PWINO FZRANO $=
201812162353 METAR KCLM 162353Z AUTO A2956 RMK AO2 SLPNO 58003 PWINO FZRANO $=
201812162253 METAR KCLM 162253Z AUTO A2957 RMK AO2 SLPNO PWINO FZRANO $=
201812162153 METAR KCLM 162153Z AUTO A2957 RMK AO2 SLPNO PWINO FZRANO $=
201812162053 METAR KCLM 162053Z AUTO A2957 RMK AO2 SLPNO 50000 PWINO FZRANO $=
201812161953 METAR KCLM 161953Z AUTO A2958 RMK AO2 SLPNO PWINO FZRANO $=
201812161853 METAR KCLM 161853Z AUTO A2959 RMK AO2 SLPNO PWINO FZRANO $=
201812161753 METAR KCLM 161753Z AUTO A2957 RMK AO2 SLPNO 53003 PWINO FZRANO $=
201812161653 METAR KCLM 161653Z AUTO A2955 RMK AO2 SLPNO PWINO FZRANO $=
201812161553 METAR KCLM 161553Z AUTO A2955 RMK AO2 SLPNO PWINO FZRANO $=
201812161453 METAR KCLM 161453Z AUTO A2956 RMK AO2 SLPNO 56007 PWINO FZRANO $=
201812161353 METAR KCLM 161353Z AUTO A2956 RMK AO2 SLPNO PWINO FZRANO $=
201812161253 METAR KCLM 161253Z AUTO A2956 RMK AO2 SLPNO PWINO FZRANO $=
201812161153 METAR KCLM 161153Z AUTO A2958 RMK AO2 SLPNO 57023 PWINO FZRANO $=
201812161053 METAR KCLM 161053Z AUTO A2960 RMK AO2 SLPNO PWINO FZRANO $=
201812160953 METAR KCLM 160953Z AUTO A2963 RMK AO2 SLPNO PWINO FZRANO $=
201812160853 METAR KCLM 160853Z AUTO A2965 RMK AO2 SLPNO 58023 PWINO FZRANO $=
201812160753 METAR KCLM 160753Z AUTO A2968 RMK AO2 SLPNO PWINO FZRANO $=
201812160653 METAR KCLM 160653Z AUTO A2971 RMK AO2 SLPNO PWINO FZRANO $=
201812160553 METAR KCLM 160553Z AUTO A2972 RMK AO2 SLPNO 58020 PWINO FZRANO $=
201812160453 METAR KCLM 160453Z AUTO A2974 RMK AO2 SLPNO PWINO FZRANO $=
201812160353 METAR KCLM 160353Z AUTO A2977 RMK AO2 SLPNO PWINO FZRANO $=
201812160253 METAR KCLM 160253Z AUTO A2978 RMK AO2 SLPNO 56027 PWINO FZRANO $=
201812160153 METAR KCLM 160153Z AUTO A2979 RMK AO2 SLPNO PWINO FZRANO $=
201812160053 METAR KCLM 160053Z AUTO A2983 RMK AO2 SLPNO PWINO FZRANO $=
201812152353 METAR KCLM 152353Z AUTO A2986 RMK AO2 SLPNO 56007 PWINO FZRANO $=
201812152253 METAR KCLM 152253Z AUTO A2986 RMK AO2 SLPNO PWINO FZRANO $=
201812152153 METAR KCLM 152153Z AUTO A2986 RMK AO2 SLPNO PWINO FZRANO $=
201812152053 METAR KCLM 152053Z AUTO A2988 RMK AO2 SLPNO 58020 PWINO FZRANO $=
201812151953 METAR KCLM 151953Z AUTO A2991 RMK AO2 SLPNO PWINO FZRANO $=
201812151853 METAR KCLM 151853Z AUTO A2994 RMK AO2 SLPNO PWINO FZRANO $=
201812151753 METAR KCLM 151753Z AUTO A2994 RMK AO2 SLPNO 58003 PWINO FZRANO $=
201812151653 METAR KCLM 151653Z AUTO A2997 RMK AO2 SLPNO PWINO FZRANO $=
201812151553 METAR KCLM 151553Z AUTO A3000 RMK AO2 SLPNO PWINO FZRANO $=
201812151453 METAR KCLM 151453Z AUTO A2995 RMK AO2 SLPNO 58017 PWINO FZRANO $=
201812151353 METAR KCLM 151353Z AUTO A2997 RMK AO2 SLPNO PWINO FZRANO $=
201812151253 METAR KCLM 151253Z AUTO A3000 RMK AO2 SLPNO PWINO FZRANO $=
201812151153 METAR KCLM 151153Z AUTO A3000 RMK AO2 SLPNO 51023 PWINO FZRANO $=
201812151053 METAR KCLM 151053Z AUTO A2998 RMK AO2 SLPNO PWINO FZRANO $=
201812150953 METAR KCLM 150953Z AUTO A2996 RMK AO2 SLPNO PWINO FZRANO $=
201812150853 METAR KCLM 150853Z AUTO A2993 RMK AO2 SLPNO 51044 PWINO FZRANO $=
201812150753 METAR KCLM 150753Z AUTO A2991 RMK AO2 SLPNO PWINO FZRANO $=
201812150653 METAR KCLM 150653Z AUTO A2986 RMK AO2 SLPNO PWINO FZRANO $=
201812150553 METAR KCLM 150553Z AUTO A2980 RMK AO2 SLPNO 52064 PWINO FZRANO $=
201812150453 METAR KCLM 150453Z AUTO A2974 RMK AO2 PRESRR SLPNO PWINO FZRANO $=
201812150353 METAR KCLM 150353Z AUTO A2967 RMK AO2 SLPNO PWINO FZRANO $=
201812150253 METAR KCLM 150253Z AUTO A2961 RMK AO2 PRESRR SLPNO 53081 PWINO FZRANO $=
201812150153 METAR KCLM 150153Z AUTO A2950 RMK AO2 PRESRR SLPNO PWINO FZRANO $=
201812150053 METAR KCLM 150053Z AUTO A2941 RMK AO2 SLPNO PWINO FZRANO $=
201812142353 METAR KCLM 142353Z AUTO A2937 RMK AO2 SLPNO 51027 PWINO FZRANO $=
201812142253 METAR KCLM 142253Z AUTO A2937 RMK AO2 SLPNO PWINO FZRANO $=
201812142153 METAR KCLM 142153Z AUTO A2933 RMK AO2 SLPNO PWINO FZRANO $=
201812142053 METAR KCLM 142053Z AUTO A2929 RMK AO2 SLPNO 58037 PWINO FZRANO=
201812141953 METAR KCLM 141953Z AUTO A2933 RMK AO2 SLPNO PWINO FZRANO=
201812141853 METAR KCLM 141853Z AUTO A2939 RMK AO2 SLPNO PWINO FZRANO $=
201812141753 METAR KCLM 141753Z AUTO A2940 RMK AO2 SLPNO 56025 PWINO FZRANO $=
201812141653 METAR KCLM 141653Z AUTO A2943 RMK AO2 PK WND 22039/1616 SLPNO PWINO FZRANO $=
201812141553 METAR KCLM 141553Z AUTO 21016G29KT 10SM CLR 17/M12 A2943 RMK AO2 PK WND 21039/1543 SLP967 T01671117=
201812141453 METAR KCLM 141453Z AUTO 21011G27KT 170V240 10SM SCT110 16/M10 A2948 RMK AO2 PK WND 24034/1437 PRESFR SLP984 T01611100 58042=
201812141353 METAR KCLM 141353Z AUTO 00000KT 10SM CLR 11/M01 A2953 RMK AO2 SLP000 T01061006=
201812141253 METAR KCLM 141253Z AUTO VRB04KT 9SM CLR 06/04 A2956 RMK AO2 SLP011 T00610044=
201812141153 METAR KCLM 141153Z AUTO VRB04KT 10SM CLR 07/06 A2961 RMK AO2 SLP026 60003 70038 T00720056 10083 20056 56030=
201812141106 SPECI KCLM 141106Z AUTO VRB06KT 10SM FEW007 08/07 A2962 RMK AO2 T00780067=
201812141053 METAR KCLM 141053Z AUTO VRB06KT 9SM CLR 07/06 A2963 RMK AO2 RAE00 SLP033 P0002 T00670056=
201812140953 METAR KCLM 140953Z AUTO 00000KT 7SM -RA BKN070 OVC090 07/07 A2967 RMK AO2 RAB25 PRESFR SLP048 P0001 T00720067=
201812140916 SPECI KCLM 140916Z AUTO 22006KT 6SM BR SCT009 BKN080 OVC100 07/07 A2970 RMK AO2 T00720072=
201812140912 SPECI KCLM 140912Z AUTO 23005KT 2SM BR BKN011 BKN065 OVC100 07/07 A2970 RMK AO2 T00720072=
201812140909 SPECI KCLM 140909Z AUTO 24004KT 1SM BR BKN009 BKN065 OVC080 07/07 A2970 RMK AO2 T00720072=
201812140853 METAR KCLM 140853Z AUTO 24005KT 1/2SM FG VV002 07/07 A2970 RMK AO2 SLP057 T00720067 56027=
201812140838 SPECI KCLM 140838Z AUTO 24004KT 3/4SM BR VV002 07/07 A2971 RMK AO2 T00720072=
201812140813 SPECI KCLM 140813Z AUTO 23004KT 1 1/2SM BR BKN001 OVC075 07/07 A2972 RMK AO2 T00720067=
201812140801 SPECI KCLM 140801Z AUTO 21005KT 2 1/2SM BR BKN001 OVC075 07/06 A2972 RMK AO2 T00670061=
201812140753 METAR KCLM 140753Z AUTO 31003KT 5SM BR FEW001 BKN075 07/06 A2972 RMK AO2 SLP066 T00670061 401110056=
201812140729 SPECI KCLM 140729Z AUTO 00000KT 3SM BR FEW075 06/06 A2973 RMK AO2 T00610056=
201812140724 SPECI KCLM 140724Z AUTO 33004KT 1 1/4SM BR FEW001 FEW060 FEW075 06/06 A2973 RMK AO2 T00610056=
201812140715 SPECI KCLM 140715Z AUTO 00000KT 1 3/4SM BR CLR 06/06 A2972 RMK AO2 T00610056=
201812140700 SPECI KCLM 140700Z AUTO 00000KT 3SM BR FEW001 BKN070 06/06 A2974 RMK AO2 T00610056=
201812140653 METAR KCLM 140653Z AUTO 00000KT 2 1/2SM BR BKN070 06/06 A2974 RMK AO2 SLP072 T00610056=
201812140638 SPECI KCLM 140638Z AUTO 00000KT 3SM BR OVC070 06/06 A2976 RMK AO2 T00610056=
201812140630 SPECI KCLM 140630Z AUTO 00000KT 2 1/2SM BR OVC070 07/06 A2977 RMK AO2 T00670061=
201812140553 METAR KCLM 140553Z AUTO 13003KT 5SM BR OVC070 07/06 A2978 RMK AO2 SLP084 60002 T00720061 10094 20067 58019=
201812140532 SPECI KCLM 140532Z AUTO 11004KT 5SM BR FEW004 BKN065 OVC075 07/07 A2979 RMK AO2 T00670067=
201812140523 SPECI KCLM 140523Z AUTO 13005KT 3SM BR BKN004 OVC070 07/06 A2979 RMK AO2 T00720061=
201812140504 SPECI KCLM 140504Z AUTO 15003KT 1SM BR OVC004 07/07 A2981 RMK AO2 T00720067=
201812140453 METAR KCLM 140453Z AUTO 19003KT 2 1/2SM BR OVC004 07/06 A2981 RMK AO2 SLP095 T00720061=
201812140434 SPECI KCLM 140434Z AUTO 00000KT 3SM BR OVC004 07/07 A2982 RMK AO2 T00720067=
201812140415 SPECI KCLM 140415Z AUTO 00000KT 1 1/2SM BR BKN004 OVC022 07/07 A2982 RMK AO2 T00720067=
201812140402 SPECI KCLM 140402Z AUTO 17003KT 5SM BR BKN004 OVC055 08/07 A2982 RMK AO2 T00780072=
201812140353 METAR KCLM 140353Z AUTO 19003KT 3SM BR SCT004 OVC055 07/07 A2982 RMK AO2 SLP101 T00720067=
201812140313 SPECI KCLM 140313Z AUTO 00000KT 6SM BR FEW002 OVC060 07/07 A2983 RMK AO2 T00720072=
201812140253 METAR KCLM 140253Z AUTO 22003KT 6SM BR BKN060 BKN075 07/07 A2983 RMK AO2 SLP104 60002 T00720067 58015=
201812140231 SPECI KCLM 140231Z AUTO 00000KT 4SM BR FEW002 BKN049 OVC065 08/07 A2984 RMK AO2 T00780072=
201812140219 SPECI KCLM 140219Z AUTO 00000KT 3SM BR SCT003 OVC020 08/07 A2984 RMK AO2 T00780072=
201812140217 SPECI KCLM 140217Z AUTO 10003KT 1 1/2SM BR SCT003 OVC015 08/07 A2984 RMK AO2 T00780072=
201812140212 SPECI KCLM 140212Z AUTO 10006KT 1/2SM FG SCT001 OVC009 07/07 A2984 RMK AO2 T00720067=
201812140207 SPECI KCLM 140207Z AUTO 14005KT 1/4SM FG FEW001 BKN013 OVC065 07/07 A2984 RMK AO2 T00720072=
201812140158 SPECI KCLM 140158Z AUTO 00000KT 3/4SM BR BKN020 OVC065 08/08 A2984 RMK AO2 T00830078=
201812140153 METAR KCLM 140153Z AUTO 00000KT 1SM BR SCT031 OVC065 08/07 A2985 RMK AO2 RAE22 SLP109 P0000 T00780072=
201812140144 SPECI KCLM 140144Z AUTO 00000KT 1/2SM FG OVC060 08/08 A2985 RMK AO2 RAE22 P0000 T00780078=
201812140101 SPECI KCLM 140101Z AUTO 00000KT 1 3/4SM -RA BR FEW001 BKN046 OVC070 08/08 A2987 RMK AO2 P0000 T00830078=
201812140053 METAR KCLM 140053Z AUTO 25003KT 4SM -RA BR FEW001 BKN044 OVC065 08/07 A2988 RMK AO2 RAB04E16B50 SLP118 P0002 T00830072=
201812140051 SPECI KCLM 140051Z AUTO 27004KT 4SM -RA BR FEW001 BKN042 OVC065 08/07 A2988 RMK AO2 RAB04E16B50 P0000=
201812140044 SPECI KCLM 140044Z AUTO 00000KT 2 1/2SM BR SCT001 BKN031 OVC065 08/07 A2988 RMK AO2 RAB04E16 P0000 T00830072=
201812140039 SPECI KCLM 140039Z AUTO 32003KT 1 3/4SM BR SCT001 BKN029 OVC065 08/08 A2988 RMK AO2 RAB04E16 P0000 T00830078=
201812140025 SPECI KCLM 140025Z AUTO 00000KT 1 3/4SM BR FEW001 OVC060 09/08 A2988 RMK AO2 VIS 3/4V5 RAB04E16 P0000 T00890083=
201812132353 METAR KCLM 132353Z AUTO 00000KT 5SM BR FEW002 OVC060 09/08 A2988 RMK AO2 RAE2254 SLP119 P0000 60004 T00890083 10100 20089 56008=
201812132253 METAR KCLM 132253Z AUTO 00000KT 10SM -RA SCT002 OVC060 09/09 A2989 RMK AO2 RAE24B38 SLP123 P0001 T00940089=
201812132251 SPECI KCLM 132251Z AUTO 00000KT 9SM -RA SCT002 OVC060 09/08 A2989 RMK AO2 RAE24B38 P0001=
201812132231 SPECI KCLM 132231Z AUTO 00000KT 9SM BKN002 OVC060 09/08 A2989 RMK AO2 RAE24 P0000 T00890083=
201812132200 SPECI KCLM 132200Z AUTO 04003KT 7SM -RA FEW004 BKN042 OVC065 09/08 A2990 RMK AO2 P0000 T00890078=
201812132153 METAR KCLM 132153Z AUTO VRB04KT 7SM -RA SCT050 BKN065 09/08 A2990 RMK AO2 RAE06B48 SLP127 P0000 T00940083=
201812132053 METAR KCLM 132053Z AUTO 11003KT 9SM -RA FEW004 BKN045 OVC060 09/08 A2990 RMK AO2 RAB52 SLP127 P0002 60003 T00940083 58014=
201812131953 METAR KCLM 131953Z AUTO 09004KT 10SM FEW007 BKN042 OVC070 10/08 A2991 RMK AO2 RAE35 SLP130 P0000 T01000083=
201812131910 SPECI KCLM 131910Z AUTO 09003KT 10SM -RA FEW008 BKN060 OVC080 10/08 A2992 RMK AO2 P0000 T01000083=
201812131853 METAR KCLM 131853Z AUTO 16003KT 10SM -RA SCT065 BKN080 OVC090 09/08 A2994 RMK AO2 RAE1758B24 SLP138 P0001 T00940083=
201812131753 METAR KCLM 131753Z AUTO 13005KT 10SM -RA BKN065 OVC085 09/08 A2994 RMK AO2 SLP142 P0002 60029 T00890078 10089 20072 50001=
201812131653 METAR KCLM 131653Z AUTO 00000KT 7SM -RA SCT013 OVC070 08/08 A2995 RMK AO2 SLP143 P0001 T00830078=
201812131553 METAR KCLM 131553Z AUTO 11003KT 7SM -RA OVC010 08/07 A2994 RMK AO2 RAB1458E25B35 SLP140 P0002 T00780072=
201812131526 SPECI KCLM 131526Z AUTO 00000KT 5SM BR OVC009 08/07 A2994 RMK AO2 RAB1458E25 P0000 T00780072=
201812131453 METAR KCLM 131453Z AUTO 14004KT 9SM OVC011 08/07 A2994 RMK AO2 RAE23 SLP141 P0001 60024 T00780072 53003=
201812131415 SPECI KCLM 131415Z AUTO 00000KT 8SM -RA BKN013 OVC050 08/07 A2993 RMK AO2 P0001 T00780072=
201812131353 METAR KCLM 131353Z AUTO 24004KT 4SM -RA BR FEW011 OVC055 08/07 A2993 RMK AO2 SLP138 P0014 T00780072=
201812131253 METAR KCLM 131253Z AUTO 00000KT 5SM -RA BR FEW007 BKN050 OVC070 08/07 A2992 RMK AO2 SLP134 P0009 T00830072=
201812131206 SPECI KCLM 131206Z AUTO 00000KT 4SM -RA BR FEW004 OVC055 08/08 A2993 RMK AO2 P0005 T00830078=
201812131153 METAR KCLM 131153Z AUTO 07004KT 5SM -RA BR OVC060 08/07 A2993 RMK AO2 SLP138 P0003 60016 70016 T00830072 10111 20061 53022=
201812131053 METAR KCLM 131053Z AUTO 26016G22KT 10SM -RA OVC070 09/06 A2991 RMK AO2 SLP128 P0003 T00940061=
201812130953 METAR KCLM 130953Z AUTO 26014G20KT 10SM -RA OVC085 09/06 A2987 RMK AO2 SLP116 P0003 T00890056=
201812130853 METAR KCLM 130853Z AUTO 23014G26KT 8SM -RA OVC085 11/06 A2987 RMK AO2 PK WND 25026/0845 SLP115 P0003 60007 T01060056 58025=
201812130753 METAR KCLM 130753Z AUTO VRB03KT 7SM -RA OVC080 07/05 A2990 RMK AO2 SLP126 P0003 T00670050 400890050=
201812130653 METAR KCLM 130653Z AUTO 12007KT 080V140 7SM -RA BKN075 OVC090 07/06 A2993 RMK AO2 RAB22 SLP136 P0001 T00720056=
201812130553 METAR KCLM 130553Z AUTO VRB03KT 10SM OVC080 06/05 A2994 RMK AO2 RAB20E29 SLP141 P0000 60000 T00610050 10089 20056 58031=
201812130453 METAR KCLM 130453Z AUTO 33005KT 10SM BKN070 OVC080 06/04 A2998 RMK AO2 RAE36 SLP153 P0000 T00610044=
201812130353 METAR KCLM 130353Z AUTO 14004KT 10SM -RA OVC047 06/04 A3001 RMK AO2 SLP164 P0000 T00610039=
201812130253 METAR KCLM 130253Z AUTO 28003KT 10SM -RA OVC048 06/03 A3004 RMK AO2 RAB32 SLP173 P0000 60000 T00610033 56031=
201812130153 METAR KCLM 130153Z AUTO 09003KT 10SM FEW048 BKN055 OVC070 07/03 A3006 RMK AO2 SLP181 T00670028=
201812130053 METAR KCLM 130053Z AUTO 16005KT 10SM BKN060 OVC085 07/03 A3009 RMK AO2 SLP192 T00720028=
201812122353 METAR KCLM 122353Z AUTO 11006KT 10SM SCT065 BKN075 OVC110 07/03 A3013 RMK AO2 SLP204 60000 T00720033 10089 20067 56015=
201812122253 METAR KCLM 122253Z AUTO 00000KT 10SM SCT065 BKN120 08/04 A3013 RMK AO2 SLP206 T00780039=
201812122153 METAR KCLM 122153Z AUTO 25012KT 10SM BKN050 BKN060 OVC110 07/03 A3015 RMK AO2 SLP213 T00720033=
201812122053 METAR KCLM 122053Z AUTO 20006KT 10SM BKN046 OVC055 07/03 A3017 RMK AO2 RAB36E53 SLP219 P0000 60000 T00720033 58013=
201812121953 METAR KCLM 121953Z AUTO 22006KT 10SM FEW075 BKN095 OVC120 09/02 A3018 RMK AO2 SLP222 T00890017=
201812121853 METAR KCLM 121853Z AUTO 13005KT 10SM FEW120 08/02 A3020 RMK AO2 SLP230 T00780022=
201812121753 METAR KCLM 121753Z AUTO 20004KT 10SM CLR 07/01 A3021 RMK AO2 SLP231 60000 T00670011 10067 20050 53024=
201812121653 METAR KCLM 121653Z AUTO 26012KT 10SM CLR 06/01 A3018 RMK AO2 SLP223 T00560011=
201812121553 METAR KCLM 121553Z AUTO 25012KT 10SM CLR 06/01 A3016 RMK AO2 RAE1456 SLP214 P0000 T00610006=
201812121453 METAR KCLM 121453Z AUTO 25012G20KT 10SM -RA SCT035 BKN045 06/01 A3014 RMK AO2 RAB47 SLP208 P0000 60000 T00560011 51027=
201812121353 METAR KCLM 121353Z AUTO 24012G18KT 10SM FEW055 BKN070 BKN085 06/01 A3011 RMK AO2 SLP200 T00560006=
201812121253 METAR KCLM 121253Z AUTO 26012KT 10SM CLR 07/00 A3009 RMK AO2 PK WND 24028/1226 SLP192 T00670000=
201812121153 METAR KCLM 121153Z AUTO 26014KT 10SM FEW038 06/01 A3006 RMK AO2 PK WND 26026/1105 SLP181 60006 70115 T00610006 10078 20056 51046=
201812121053 METAR KCLM 121053Z AUTO 26017G29KT 10SM CLR 06/02 A3002 RMK AO2 PK WND 27035/0959 RAB0958E31 SLP168 P0002 T00610017=
201812120953 METAR KCLM 120953Z AUTO 26014KT 10SM FEW037 07/02 A2999 RMK AO2 SLP155 T00670022=
201812120853 METAR KCLM 120853Z AUTO 25010G21KT 10SM CLR 06/03 A2992 RMK AO2 RAE26 SLP134 P0001 60004 T00610028 51039=
201812120753 METAR KCLM 120753Z AUTO 28013G18KT 10SM -RA BKN039 OVC085 07/03 A2989 RMK AO2 PK WND 27030/0731 RAE04B27 SLP124 P0000 T00720028 401000050=
201812120653 METAR KCLM 120653Z AUTO 30012G19KT 8SM -RA BKN035 07/03 A2986 RMK AO2 RAB0559 SLP111 P0003 T00670033=
201812120553 METAR KCLM 120553Z AUTO 27009KT 10SM SCT049 07/03 A2980 RMK AO2 SLP094 60009 T00720028 10089 20056 53040=
201812120453 METAR KCLM 120453Z AUTO 25016G25KT 10SM SCT043 BKN070 OVC095 07/03 A2976 RMK AO2 PK WND 27029/0432 RAB20E49 SLP080 P0000 T00720028=
201812120353 METAR KCLM 120353Z AUTO 26012G21KT 10SM CLR 07/02 A2970 RMK AO2 SLP058 T00720022=
201812120253 METAR KCLM 120253Z AUTO 25006KT 10SM FEW045 06/04 A2969 RMK AO2 PK WND 28033/0203 RAE36 SLP054 P0005 60009 T00560044 53017=
201812120153 METAR KCLM 120153Z AUTO 28014G21KT 8SM -RA FEW018 SCT031 OVC040 08/06 A2967 RMK AO2 RAB19 SLP049 P0003 T00780056=
201812120053 METAR KCLM 120053Z AUTO 25005KT 10SM FEW038 BKN070 OVC085 08/06 A2963 RMK AO2 RAE16 SLP036 P0001 T00830061=
201812112353 METAR KCLM 112353Z AUTO 26008KT 3SM -RA BR OVC043 09/07 A2964 RMK AO2 SLP037 P0016 60078 T00890067 10100 20078 53010=
201812112334 SPECI KCLM 112334Z AUTO 36003KT 4SM -RA BR BKN047 OVC060 09/08 A2963 RMK AO2 P0014 T00890078=
201812112327 SPECI KCLM 112327Z AUTO VRB04KT 2 1/2SM -RA BR FEW008 OVC039 09/08 A2963 RMK AO2 P0014 T00890078=
201812112310 SPECI KCLM 112310Z AUTO 27006KT 1 3/4SM RA BR SCT009 OVC033 09/08 A2963 RMK AO2 P0007 T00890078=
201812112306 SPECI KCLM 112306Z AUTO 29008KT 1 1/2SM RA BR BKN009 BKN024 OVC034 09/08 A2963 RMK AO2 P0005 T00890078=
201812112300 SPECI KCLM 112300Z AUTO 29009KT 2 1/2SM RA BR SCT007 BKN011 OVC034 09/08 A2963 RMK AO2 P0001 T00890078=
201812112253 METAR KCLM 112253Z AUTO 31009KT 8SM -RA SCT009 OVC034 09/08 A2962 RMK AO2 SLP033 P0008 T00890078=
201812112244 SPECI KCLM 112244Z AUTO 31007KT 5SM -RA BR FEW006 SCT010 OVC034 09/08 A2961 RMK AO2 P0008 T00890078=
201812112217 SPECI KCLM 112217Z AUTO 30011G21KT 6SM -RA BR BKN006 BKN017 OVC049 08/08 A2961 RMK AO2 P0004 T00830078=
201812112207 SPECI KCLM 112207Z AUTO 31011G21KT 5SM -RA BR SCT006 BKN017 OVC050 09/07 A2961 RMK AO2 P0002 T00890072=
201812112201 SPECI KCLM 112201Z AUTO 32008KT 290V360 5SM -RA BR FEW010 BKN050 OVC055 09/08 A2961 RMK AO2 P0002 T00940078=
201812112153 METAR KCLM 112153Z AUTO 26004KT 2 1/2SM RA BR OVC048 09/08 A2960 RMK AO2 SLP026 P0022 T00940078=
201812112148 SPECI KCLM 112148Z AUTO 26005KT 3SM -RA BR OVC048 09/08 A2960 RMK AO2 P0022=
201812112135 SPECI KCLM 112135Z AUTO 25004KT 2SM RA BR FEW025 FEW034 OVC045 09/08 A2960 RMK AO2 P0019 T00940083=
201812112125 SPECI KCLM 112125Z AUTO 25007KT 3SM -RA BR SCT025 BKN034 OVC041 09/08 A2961 RMK AO2 P0013 T00940078=
201812112114 SPECI KCLM 112114Z AUTO 28005KT 2 1/2SM -RA BR FEW025 SCT032 OVC039 09/08 A2960 RMK AO2 P0010 T00940078=
201812112053 METAR KCLM 112053Z AUTO 26008KT 1 3/4SM RA BR SCT035 OVC046 09/08 A2959 RMK AO2 SLP022 P0014 60032 T00940078 55027=
201812112008 SPECI KCLM 112008Z AUTO 25013G17KT 4SM -RA OVC065 10/07 A2958 RMK AO2 P0004 T01000072=
201812111953 METAR KCLM 111953Z AUTO 21004KT 2 1/2SM RA BR OVC065 09/07 A2958 RMK AO2 SLP020 P0011 T00940072=
201812111853 METAR KCLM 111853Z AUTO 19006KT 7SM -RA OVC070 09/07 A2964 RMK AO2 SLP037 P0007 T00940067=
201812111753 METAR KCLM 111753Z AUTO 19004KT 4SM -RA BR OVC070 08/07 A2967 RMK AO2 SLP050 P0008 60022 T00780067 10083 20056 58026=
201812111653 METAR KCLM 111653Z AUTO 18005KT 5SM -RA BR OVC070 07/06 A2971 RMK AO2 SLP061 P0008 T00670061=
201812111553 METAR KCLM 111553Z AUTO VRB04KT 6SM -RA BR OVC070 07/06 A2974 RMK AO2 SLP072 P0006 T00720061=
201812111453 METAR KCLM 111453Z AUTO 29005KT 10SM -RA FEW055 BKN090 OVC110 07/06 A2975 RMK AO2 RAB1356E06B29 SLP077 P0000 60000 T00720056 56028=
201812111353 METAR KCLM 111353Z AUTO VRB04KT 10SM FEW042 BKN090 06/05 A2976 RMK AO2 RAB00E09B25E46 SLP079 P0000 T00610050=
201812111253 METAR KCLM 111253Z AUTO 00000KT 10SM FEW044 SCT090 06/05 A2980 RMK AO2 SLP091 T00560050=
201812111153 METAR KCLM 111153Z AUTO 08003KT 8SM SCT055 SCT065 BKN080 06/05 A2984 RMK AO2 RAE14B29E41 PRESFR SLP105 P0000 60002 70004 T00560050 10061 20044 58045=
201812111125 SPECI KCLM 111125Z AUTO 00000KT 8SM SCT006 BKN045 OVC095 06/05 A2987 RMK AO2 RAE14 PRESFR P0000 T00610050=
201812111053 METAR KCLM 111053Z AUTO 21004KT 8SM -RA BKN008 OVC046 06/05 A2990 RMK AO2 PRESFR SLP127 P0002 T00610050=
201812111043 SPECI KCLM 111043Z AUTO VRB03KT 9SM -RA FEW008 OVC048 06/05 A2992 RMK AO2 P0000 T00610050=
201812110953 METAR KCLM 110953Z AUTO 22003KT 10SM -RA FEW049 BKN060 OVC090 05/04 A2993 RMK AO2 RAB45 SLP138 P0000 T00500044=
201812110853 METAR KCLM 110853Z AUTO 00000KT 10SM SCT007 OVC095 06/05 A2997 RMK AO2 SLP150 T00560050 57019=
201812110753 METAR KCLM 110753Z AUTO 24004KT 10SM BKN007 OVC100 05/04 A3003 RMK AO2 SLP169 T00500039 401000017=
201812110750 SPECI KCLM 110750Z AUTO 24005KT 10SM BKN007 OVC100 05/04 A3003 RMK AO2=
201812110653 METAR KCLM 110653Z AUTO 23003KT 10SM FEW005 OVC100 06/04 A3006 RMK AO2 SLP181 T00560044=
201812110611 SPECI KCLM 110611Z AUTO 25003KT 10SM FEW005 OVC065 05/03 A3008 RMK AO2 T00500033=
201812110553 METAR KCLM 110553Z AUTO 25004KT 10SM BKN065 OVC080 04/03 A3009 RMK AO2 SLP191 T00440033 10072 20017 58023=
201812110453 METAR KCLM 110453Z AUTO 00000KT 10SM OVC090 03/03 A3012 RMK AO2 SLP200 T00330028=
201812110353 METAR KCLM 110353Z AUTO 00000KT 9SM CLR 02/02 A3013 RMK AO2 SLP205 T00220017=
201812110253 METAR KCLM 110253Z AUTO 20003KT 9SM CLR 02/02 A3016 RMK AO2 SLP214 T00220022 58017=
201812110200 SPECI KCLM 110200Z AUTO 00000KT 3SM BR FEW080 03/02 A3018 RMK AO2 T00280017=
201812110153 METAR KCLM 110153Z AUTO 00000KT 1 3/4SM BR CLR 02/02 A3018 RMK AO2 SLP224 T00170017=
201812110114 SPECI KCLM 110114Z AUTO 23004KT 3SM BR FEW003 03/02 A3020 RMK AO2 T00330022=
201812110111 SPECI KCLM 110111Z AUTO 23005KT 1 1/2SM BR FEW003 03/02 A3020 RMK AO2 T00280022=
201812110101 SPECI KCLM 110101Z AUTO 00000KT 1/2SM FG VV003 03/03 A3020 RMK AO2 T00330028=
201812110053 METAR KCLM 110053Z AUTO 00000KT 1SM BR VV002 04/03 A3020 RMK AO2 SLP228 T00390033=
201812102353 METAR KCLM 102353Z AUTO 13004KT 10SM CLR 07/06 A3021 RMK AO2 SLP231 T00670056 10100 20067 58003=
201812102253 METAR KCLM 102253Z AUTO 09003KT 10SM CLR 09/06 A3022 RMK AO2 SLP235 T00890056=
201812102153 METAR KCLM 102153Z AUTO 09004KT 10SM CLR 09/06 A3021 RMK AO2 SLP233 T00890056=
201812102053 METAR KCLM 102053Z AUTO 05003KT 10SM FEW085 08/06 A3022 RMK AO2 SLP234 T00830056 58004=
201812101953 METAR KCLM 101953Z AUTO 29003KT 10SM BKN050 08/04 A3022 RMK AO2 SLP235 T00830044=
201812101853 METAR KCLM 101853Z AUTO 27005KT 10SM BKN080 BKN100 09/05 A3023 RMK AO2 SLP239 T00890050=
201812101753 METAR KCLM 101753Z AUTO 29003KT 10SM BKN055 OVC070 08/04 A3023 RMK AO2 SLP238 60002 T00830044 10089 20033 51014=
201812101653 METAR KCLM 101653Z AUTO 19003KT 10SM BKN070 OVC085 06/04 A3022 RMK AO2 RAE02 SLP235 P0000 T00560044=
201812101553 METAR KCLM 101553Z AUTO 24007KT 10SM -RA BKN045 OVC070 06/04 A3020 RMK AO2 RAB44 SLP230 P0000 T00610039=
201812101453 METAR KCLM 101453Z AUTO 28007KT 10SM BKN100 OVC110 06/04 A3019 RMK AO2 SLP224 60002 T00560039 53010=
201812101353 METAR KCLM 101353Z AUTO 20003KT 10SM OVC047 05/04 A3017 RMK AO2 SLP220 T00500039=
201812101253 METAR KCLM 101253Z AUTO 27009KT 10SM SCT055 06/04 A3016 RMK AO2 RAE17 SLP214 P0002 T00610039=
201812101153 METAR KCLM 101153Z AUTO 22005KT 10SM -RA FEW045 BKN050 OVC065 06/05 A3016 RMK AO2 RAB02E19B37 SLP214 P0000 60000 70020 T00610050 10072 20039 51014=
201812101053 METAR KCLM 101053Z AUTO 00000KT 10SM FEW041 BKN060 BKN080 06/04 A3016 RMK AO2 SLP214 T00560044=
201812100953 METAR KCLM 100953Z AUTO 27010KT 10SM FEW044 BKN060 06/04 A3013 RMK AO2 SLP205 T00610044=
201812100853 METAR KCLM 100853Z AUTO 23003KT 10SM BKN060 05/04 A3012 RMK AO2 RAE00 SLP200 P0000 60000 T00500044 50009=
201812100753 METAR KCLM 100753Z AUTO 24007KT 10SM -RA BKN055 BKN070 OVC090 07/05 A3012 RMK AO2 RAB0657E06B26 SLP202 P0000 T00720050 400830017=
201812100653 METAR KCLM 100653Z AUTO 20004KT 10SM BKN045 OVC055 06/05 A3011 RMK AO2 RAB34E43 SLP198 P0000 T00610050=
201812100553 METAR KCLM 100553Z AUTO 18004KT 9SM FEW050 BKN060 OVC100 05/04 A3009 RMK AO2 SLP191 60004 T00500044 10078 20033 53009=
201812100535 SPECI KCLM 100535Z AUTO 22006KT 4SM BR BKN060 04/04 A3009 RMK AO2 T00440039=
201812100527 SPECI KCLM 100527Z AUTO VRB04KT 1 3/4SM BR SCT060 03/03 A3009 RMK AO2 VIS 1V5 T00330033=
201812100512 SPECI KCLM 100512Z AUTO VRB03KT 9SM FEW085 04/04 A3008 RMK AO2 T00440044=
201812100457 SPECI KCLM 100457Z AUTO 00000KT 2 1/2SM BR FEW001 SCT090 04/04 A3007 RMK AO2 VIS 3/4V5 T00440044=
201812100453 METAR KCLM 100453Z AUTO 08003KT 6SM BR FEW085 05/05 A3007 RMK AO2 SLP185 T00500050=
201812100437 SPECI KCLM 100437Z AUTO 35003KT 2 1/2SM BR FEW001 SCT050 05/04 A3007 RMK AO2 VIS 1 1/4V5 T00500039=
201812100423 SPECI KCLM 100423Z AUTO 16007KT 3SM BR BKN050 06/04 A3006 RMK AO2 T00560044=
201812100402 SPECI KCLM 100402Z AUTO 18003KT 1 3/4SM BR BKN055 OVC065 05/04 A3006 RMK AO2 T00500044=
201812100353 METAR KCLM 100353Z AUTO 00000KT 4SM BR BKN055 OVC065 06/06 A3006 RMK AO2 RAB14E24 SLP182 P0000 T00610056=
201812100335 SPECI KCLM 100335Z AUTO 13003KT 3SM BR OVC060 06/06 A3006 RMK AO2 RAB14E24 P0000 T00610056=
201812100321 SPECI KCLM 100321Z AUTO 00000KT 1 3/4SM -RA BR OVC060 06/06 A3006 RMK AO2 RAB14 P0000 T00610056=
201812100309 SPECI KCLM 100309Z AUTO 00000KT 3SM BR BKN060 OVC070 06/05 A3005 RMK AO2 T00610050=
201812100253 METAR KCLM 100253Z AUTO 00000KT 1 1/2SM BR BKN050 OVC060 06/06 A3005 RMK AO2 RAE32 SLP179 P0002 60004 T00610056 51009=
201812100245 SPECI KCLM 100245Z AUTO 00000KT 1 3/4SM BR OVC055 06/06 A3005 RMK AO2 RAE32 P0002 T00610056=
201812100153 METAR KCLM 100153Z AUTO 00000KT 5SM -RA BR OVC055 07/06 A3005 RMK AO2 SLP178 P0002 T00720061=
201812100119 SPECI KCLM 100119Z AUTO 24003KT 6SM -RA BR FEW010 SCT017 OVC060 07/07 A3004 RMK AO2 P0000 T00720067=
201812100053 METAR KCLM 100053Z AUTO 27004KT 7SM -RA BKN012 BKN070 OVC085 07/07 A3004 RMK AO2 RAB47 SLP175 P0000 T00720067=
201812100038 SPECI KCLM 100038Z AUTO 27005KT 7SM FEW012 BKN070 OVC085 07/07 A3003 RMK AO2 T00720067=
201812100029 SPECI KCLM 100029Z AUTO 29004KT 7SM SCT007 BKN018 OVC085 07/07 A3003 RMK AO2 T00720067=
201812092353 METAR KCLM 092353Z AUTO 27006KT 6SM BR OVC006 08/07 A3003 RMK AO2 CIG 003V008 SLP170 60010 T00780067 10083 20072 55000=
201812092334 SPECI KCLM 092334Z AUTO 28006KT 7SM OVC005 08/07 A3003 RMK AO2 CIG 003V007 T00780072=
201812092318 SPECI KCLM 092318Z AUTO 32006KT 7SM BKN004 BKN060 OVC090 08/07 A3002 RMK AO2 T00780067=
201812092304 SPECI KCLM 092304Z AUTO 32007KT 9SM FEW004 BKN080 OVC090 08/07 A3002 RMK AO2 T00780072=
201812092253 METAR KCLM 092253Z AUTO 28007KT 10SM FEW048 BKN075 OVC090 08/07 A3002 RMK AO2 RAE25 SLP167 P0002 T00780072=
201812092153 METAR KCLM 092153Z AUTO 28005KT 9SM -RA OVC065 08/07 A3002 RMK AO2 RAB50 SLP168 P0000 T00830072=
201812092053 METAR KCLM 092053Z AUTO 23005KT 10SM SCT060 08/07 A3003 RMK AO2 SLP170 60008 T00780067 58003=
201812092009 SPECI KCLM 092009Z AUTO 31004KT 10SM FEW007 OVC055 08/07 A3003 RMK AO2 T00780067=
201812091953 METAR KCLM 091953Z AUTO 31003KT 9SM OVC060 08/07 A3003 RMK AO2 RAE45 SLP172 P0002 T00780067=
201812091914 SPECI KCLM 091914Z AUTO 00000KT 6SM -RA BR FEW004 OVC055 07/07 A3004 RMK AO2 P0000 T00720067=
201812091853 METAR KCLM 091853Z AUTO 31004KT 4SM -RA BR OVC055 07/07 A3004 RMK AO2 SLP174 P0006 T00720067=
201812091753 METAR KCLM 091753Z AUTO 27003KT 4SM -RA BR OVC055 07/06 A3004 RMK AO2 SLP173 P0004 60006 T00720061 10072 20028 53007=
201812091653 METAR KCLM 091653Z AUTO 22005KT 10SM -RA OVC055 07/06 A3002 RMK AO2 RAE14B46 SLP168 P0000 T00670056=
201812091553 METAR KCLM 091553Z AUTO 22004KT 10SM -RA OVC055 05/04 A3001 RMK AO2 RAE16B45 SLP165 P0000 T00500044=
201812091453 METAR KCLM 091453Z AUTO 23005KT 10SM -RA OVC060 04/03 A3001 RMK AO2 RAB01 SLP166 P0002 60002 T00390033 56011=
201812091353 METAR KCLM 091353Z AUTO 23005KT 10SM OVC060 04/03 A3002 RMK AO2 RAB1259E40 SLP168 P0000 T00390028=
201812091253 METAR KCLM 091253Z AUTO 25008KT 10SM BKN065 OVC085 04/02 A3003 RMK AO2 RAB19E43 SLP170 P0000 T00390022=
201812091153 METAR KCLM 091153Z AUTO 25006KT 10SM OVC060 03/02 A3005 RMK AO2 SLP177 T00280017 10039 20017 58036=
201812091053 METAR KCLM 091053Z AUTO 15003KT 10SM FEW075 02/01 A3009 RMK AO2 SLP192 T00220011=
201812090953 METAR KCLM 090953Z AUTO 24006KT 10SM BKN070 02/01 A3013 RMK AO2 SLP206 T00220011=
201812090853 METAR KCLM 090853Z AUTO 00000KT 10SM CLR 02/01 A3016 RMK AO2 SLP213 T00170011 56021=
201812090753 METAR KCLM 090753Z AUTO VRB03KT 10SM CLR 03/02 A3018 RMK AO2 SLP221 T00330017 400780000=
201812090653 METAR KCLM 090653Z AUTO 22006KT 10SM CLR 02/01 A3019 RMK AO2 SLP224 T00220011=
201812090613 SPECI KCLM 090613Z AUTO 00000KT 10SM SCT015 03/01 A3021 RMK AO2 T00280011=
201812090553 METAR KCLM 090553Z AUTO 00000KT 10SM OVC014 03/02 A3022 RMK AO2 SLP234 T00330022 10061 20017 56010=
201812090536 SPECI KCLM 090536Z AUTO 00000KT 10SM OVC014 03/02 A3023 RMK AO2 T00330022=
201812090453 METAR KCLM 090453Z AUTO 20003KT 9SM BKN015 02/01 A3022 RMK AO2 SLP237 T00220011=
201812090353 METAR KCLM 090353Z AUTO 00000KT 10SM CLR 03/02 A3025 RMK AO2 SLP245 T00330022=
201812090342 SPECI KCLM 090342Z AUTO 00000KT 10SM SCT015 03/02 A3026 RMK AO2 T00330017=
201812090253 METAR KCLM 090253Z AUTO 23004KT 10SM OVC016 04/02 A3027 RMK AO2 SLP252 T00440022 58013=
201812090153 METAR KCLM 090153Z AUTO 23006KT 10SM OVC015 04/03 A3029 RMK AO2 SLP259 T00440028=
201812090142 SPECI KCLM 090142Z AUTO 23005KT 10SM OVC014 04/02 A3029 RMK AO2 T00390022=
201812090109 SPECI KCLM 090109Z AUTO 22004KT 10SM BKN016 03/02 A3030 RMK AO2 T00330022=
201812090053 METAR KCLM 090053Z AUTO 23003KT 10SM SCT016 04/02 A3030 RMK AO2 SLP263 T00390022=
201812090024 SPECI KCLM 090024Z AUTO 00000KT 10SM OVC015 06/02 A3030 RMK AO2 T00560022=
201812082353 METAR KCLM 082353Z AUTO 00000KT 10SM OVC013 06/03 A3031 RMK AO2 SLP265 T00610028 10078 20050 53000=
201812082342 SPECI KCLM 082342Z AUTO 00000KT 10SM BKN013 06/03 A3031 RMK AO2 T00610028=
201812082253 METAR KCLM 082253Z AUTO 00000KT 10SM CLR 07/03 A3030 RMK AO2 SLP263 T00670033=
201812082153 METAR KCLM 082153Z AUTO 00000KT 10SM CLR 07/04 A3031 RMK AO2 SLP265 T00720039=
201812082053 METAR KCLM 082053Z AUTO 00000KT 10SM CLR 07/04 A3031 RMK AO2 SLP265 T00720039 50003=
201812082022 SPECI KCLM 082022Z AUTO 25004KT 10SM SCT013 07/03 A3031 RMK AO2 T00670033=
201812081953 METAR KCLM 081953Z AUTO 30004KT 10SM OVC012 07/03 A3032 RMK AO2 SLP269 T00670033=
201812081853 METAR KCLM 081853Z AUTO 26006KT 10SM BKN013 06/03 A3031 RMK AO2 SLP268 T00610028=
201812081753 METAR KCLM 081753Z AUTO 25006KT 10SM BKN014 05/01 A3030 RMK AO2 SLP262 T00500011 10050 20000 51020=
201812081751 SPECI KCLM 081751Z AUTO 25006KT 10SM BKN014 04/01 A3030 RMK AO2=
201812081653 METAR KCLM 081653Z AUTO 25004KT 10SM CLR 01/M01 A3027 RMK AO2 SLP254 T00061011=
201812081553 METAR KCLM 081553Z AUTO 23005KT 10SM FEW070 01/M01 A3024 RMK AO2 SLP242 T00061011=
201812081453 METAR KCLM 081453Z AUTO 23007KT 10SM CLR 00/M02 A3022 RMK AO2 SLP236 T00001017 53004=
201812081353 METAR KCLM 081353Z AUTO 23007KT 10SM CLR 01/M02 A3021 RMK AO2 SLP233 T00111017=
201812081253 METAR KCLM 081253Z AUTO 23006KT 10SM BKN060 01/M01 A3020 RMK AO2 SLP231 T00061011=
201812081153 METAR KCLM 081153Z AUTO 23006KT 10SM OVC065 02/M01 A3021 RMK AO2 SLP232 T00221011 10022 20000 53009=
201812081053 METAR KCLM 081053Z AUTO 24006KT 10SM SCT070 OVC090 01/M01 A3020 RMK AO2 SLP229 T00111011=
201812080953 METAR KCLM 080953Z AUTO 22003KT 10SM FEW100 BKN110 01/M01 A3018 RMK AO2 SLP224 T00061011=
201812080853 METAR KCLM 080853Z AUTO 24005KT 10SM BKN100 BKN120 01/M01 A3018 RMK AO2 SLP222 T00111011 51005=
201812080753 METAR KCLM 080753Z AUTO 00000KT 10SM FEW080 BKN120 01/M02 A3018 RMK AO2 SLP221 T00061017 400441056=
201812080653 METAR KCLM 080653Z AUTO 23004KT 10SM BKN080 01/M02 A3017 RMK AO2 SLP220 T00061022=
201812080553 METAR KCLM 080553Z AUTO 00000KT 10SM BKN075 01/M03 A3016 RMK AO2 SLP217 T00061028 10022 20000 53007=
201812080453 METAR KCLM 080453Z AUTO 24006KT 10SM OVC110 02/M03 A3015 RMK AO2 SLP212 T00221028=
201812080353 METAR KCLM 080353Z AUTO 23005KT 10SM OVC110 02/M02 A3014 RMK AO2 SLP210 T00171022=
201812080253 METAR KCLM 080253Z AUTO 23006KT 10SM CLR 01/M02 A3014 RMK AO2 SLP210 T00111022 51006=
201812080153 METAR KCLM 080153Z AUTO 22003KT 10SM CLR 01/M02 A3014 RMK AO2 SLP209 T00061022=
201812080053 METAR KCLM 080053Z AUTO 00000KT 10SM CLR 01/M02 A3014 RMK AO2 SLP209 T00061022=
201812072353 METAR KCLM 072353Z AUTO 00000KT 10SM CLR 02/M03 A3012 RMK AO2 SLP203 T00221028 10044 21006 53007=
201812072253 METAR KCLM 072253Z AUTO 23003KT 10SM CLR 03/M02 A3011 RMK AO2 SLP199 T00331022=
201812072153 METAR KCLM 072153Z AUTO 29006KT 10SM CLR 04/M02 A3011 RMK AO2 SLP199 T00391017=
201812072053 METAR KCLM 072053Z AUTO 29005KT 10SM CLR 04/M02 A3010 RMK AO2 SLP196 T00391022 58003=
201812071953 METAR KCLM 071953Z AUTO 25005KT 10SM CLR 03/M03 A3011 RMK AO2 SLP198 T00331028=
201812071853 METAR KCLM 071853Z AUTO 24003KT 10SM CLR 01/M03 A3011 RMK AO2 SLP200 T00111028=
201812071753 METAR KCLM 071753Z AUTO 24006KT 10SM CLR M01/M03 A3011 RMK AO2 SLP200 I6001 T10061033 11006 21056 51004=
201812071653 METAR KCLM 071653Z AUTO 23005KT 10SM CLR M02/M05 A3011 RMK AO2 SLP200 T10221050=
201812071553 METAR KCLM 071553Z AUTO 23007KT 10SM CLR M03/M06 A3010 RMK AO2 SLP197 T10281056=
201812071453 METAR KCLM 071453Z AUTO 23005KT 10SM CLR M03/M05 A3010 RMK AO2 SLP196 I3001 T10331050 53001=
201812071353 METAR KCLM 071353Z AUTO 00000KT 10SM CLR M05/M06 A3010 RMK AO2 SLP195 T10501061=
201812071253 METAR KCLM 071253Z AUTO 23005KT 10SM CLR M04/M05 A3009 RMK AO2 SLP194 I1001 T10391050=
201812071153 METAR KCLM 071153Z AUTO 24006KT 10SM CLR M03/M05 A3009 RMK AO2 SLP194 T10281050 11017 21050 53000=
201812071053 METAR KCLM 071053Z AUTO 21003KT 10SM CLR M04/M06 A3009 RMK AO2 SLP191 T10391061=
201812070953 METAR KCLM 070953Z AUTO 00000KT 10SM CLR M04/M06 A3009 RMK AO2 SLP192 T10441056=
201812070853 METAR KCLM 070853Z AUTO 23007KT 10SM CLR M02/M05 A3009 RMK AO2 SLP193 T10171050 53001=
201812070753 METAR KCLM 070753Z AUTO 24007KT 10SM CLR M02/M05 A3009 RMK AO2 SLP192 T10221050 400441056=
201812070653 METAR KCLM 070653Z AUTO 24007KT 10SM CLR M03/M05 A3009 RMK AO2 SLP192 T10331050=
201812070553 METAR KCLM 070553Z AUTO 22004KT 10SM CLR M03/M05 A3009 RMK AO2 SLP193 T10281050 10033 21039 58006=
201812070453 METAR KCLM 070453Z AUTO 23006KT 10SM CLR M02/M04 A3010 RMK AO2 SLP197 T10221044=
201812070353 METAR KCLM 070353Z AUTO 22004KT 10SM CLR M03/M04 A3011 RMK AO2 SLP199 T10281044=
201812070253 METAR KCLM 070253Z AUTO 20003KT 10SM CLR M02/M04 A3011 RMK AO2 SLP199 T10221044 56003=
201812070153 METAR KCLM 070153Z AUTO 22005KT 10SM CLR M02/M04 A3011 RMK AO2 SLP201 T10171039=
201812070053 METAR KCLM 070053Z AUTO 00000KT 10SM CLR M01/M04 A3011 RMK AO2 SLP201 T10111044=
201812062353 METAR KCLM 062353Z AUTO 10005KT 10SM CLR 03/M04 A3012 RMK AO2 SLP201 T00331039 10044 20006 56008=
201812062253 METAR KCLM 062253Z AUTO 11008KT 10SM CLR 04/M05 A3012 RMK AO2 SLP201 T00441050=
201812062153 METAR KCLM 062153Z AUTO 08008KT 10SM CLR 04/M04 A3013 RMK AO2 SLP206 T00441039=
201812062053 METAR KCLM 062053Z AUTO 09008KT 10SM CLR 04/M04 A3014 RMK AO2 SLP210 T00391044 58010=
201812061953 METAR KCLM 061953Z AUTO 11006KT 10SM CLR 04/M04 A3015 RMK AO2 SLP213 T00441039=
201812061853 METAR KCLM 061853Z AUTO 12006KT 10SM CLR 04/M02 A3016 RMK AO2 SLP217 T00391022=
201812061753 METAR KCLM 061753Z AUTO 00000KT 10SM CLR 01/M03 A3017 RMK AO2 SLP221 T00061028 10006 21056 53009=
201812061653 METAR KCLM 061653Z AUTO 00000KT 10SM CLR M03/M05 A3015 RMK AO2 SLP215 T10331050=
201812061553 METAR KCLM 061553Z AUTO 21003KT 10SM CLR M04/M06 A3015 RMK AO2 SLP213 T10391056=
201812061453 METAR KCLM 061453Z AUTO 23006KT 10SM CLR M04/M06 A3014 RMK AO2 SLP212 T10441061 58006=
201812061353 METAR KCLM 061353Z AUTO 23006KT 10SM CLR M04/M06 A3015 RMK AO2 SLP214 T10391061=
201812061253 METAR KCLM 061253Z AUTO 24007KT 10SM CLR M02/M05 A3016 RMK AO2 SLP219 T10221050=
201812061153 METAR KCLM 061153Z AUTO 23006KT 10SM CLR M02/M05 A3016 RMK AO2 SLP217 I6000 T10221050 11011 21044 56000=
201812061053 METAR KCLM 061053Z AUTO 23006KT 10SM CLR M02/M05 A3016 RMK AO2 SLP217 T10221050=
201812060953 METAR KCLM 060953Z AUTO 22005KT 10SM CLR M02/M04 A3016 RMK AO2 SLP216 T10221044=
201812060853 METAR KCLM 060853Z AUTO 24005KT 10SM CLR M03/M05 A3016 RMK AO2 SLP217 I1000 I3000 T10331050 58002=
201812060753 METAR KCLM 060753Z AUTO 21003KT 10SM CLR M03/M04 A3017 RMK AO2 SLP219 T10281044 400721044=
201812060653 METAR KCLM 060653Z AUTO 23005KT 10SM CLR M03/M05 A3018 RMK AO2 SLP222 T10331050=
201812060553 METAR KCLM 060553Z AUTO 23005KT 10SM CLR M04/M05 A3017 RMK AO2 SLP221 T10391050 10022 21039 53001=
201812060453 METAR KCLM 060453Z AUTO 24006KT 10SM CLR M03/M06 A3017 RMK AO2 SLP219 T10281056=
201812060353 METAR KCLM 060353Z AUTO 23005KT 10SM CLR M03/M05 A3017 RMK AO2 SLP220 T10331050=
201812060253 METAR KCLM 060253Z AUTO 22004KT 10SM CLR M01/M04 A3017 RMK AO2 SLP219 T10111044 50000=
201812060153 METAR KCLM 060153Z AUTO 23005KT 10SM CLR M01/M04 A3017 RMK AO2 SLP219 T10111044=
201812060053 METAR KCLM 060053Z AUTO 00000KT 10SM CLR 00/M03 A3017 RMK AO2 SLP221 T00001033=
201812052353 METAR KCLM 052353Z AUTO 00000KT 10SM CLR 03/M03 A3017 RMK AO2 SLP218 T00281028 10072 20011 56007=
201812052253 METAR KCLM 052253Z AUTO 10003KT 10SM CLR 07/M06 A3017 RMK AO2 SLP219 T00671056=
201812052153 METAR KCLM 052153Z AUTO 00000KT 10SM CLR 07/M05 A3018 RMK AO2 SLP222 T00671050=
201812052053 METAR KCLM 052053Z AUTO 00000KT 10SM CLR 07/M03 A3019 RMK AO2 SLP225 T00721033 58009=
201812051953 METAR KCLM 051953Z AUTO 14004KT 10SM CLR 06/M02 A3020 RMK AO2 SLP230 T00611017=
201812051853 METAR KCLM 051853Z AUTO 24003KT 10SM CLR 04/M02 A3021 RMK AO2 SLP235 T00391017=
201812051753 METAR KCLM 051753Z AUTO 23006KT 10SM CLR 01/M02 A3022 RMK AO2 SLP236 I6001 T00111017 10011 21033 53007=
201812051653 METAR KCLM 051653Z AUTO 24005KT 10SM CLR M01/M03 A3021 RMK AO2 SLP233 T10061028=
201812051553 METAR KCLM 051553Z AUTO 23004KT 10SM CLR M02/M04 A3020 RMK AO2 SLP230 T10221039=
201812051453 METAR KCLM 051453Z AUTO 23004KT 10SM CLR M02/M03 A3020 RMK AO2 SLP229 I1001 I3001 T10221033 56004=
201812051353 METAR KCLM 051353Z AUTO 00000KT 10SM CLR M02/M03 A3020 RMK AO2 SLP230 T10171033=
201812051253 METAR KCLM 051253Z AUTO 23005KT 10SM CLR M02/M03 A3020 RMK AO2 SLP230 T10171033=
201812051153 METAR KCLM 051153Z AUTO 23003KT 10SM CLR M01/M03 A3021 RMK AO2 SLP233 T10111028 10022 21033 58001=
201812051132 SPECI KCLM 051132Z AUTO 00000KT 10SM SCT022 M01/M03 A3021 RMK AO2 T10111028=
201812051053 METAR KCLM 051053Z AUTO 00000KT 10SM OVC022 01/M02 A3022 RMK AO2 SLP236 T00061017=
201812050953 METAR KCLM 050953Z AUTO 14004KT 10SM OVC019 02/M01 A3022 RMK AO2 SLP236 T00221011=
201812050853 METAR KCLM 050853Z AUTO 14004KT 10SM OVC021 02/M01 A3021 RMK AO2 SLP234 T00171006 58004=
201812050753 METAR KCLM 050753Z AUTO 12003KT 10SM OVC018 01/M02 A3022 RMK AO2 SLP237 T00061017 400561039=
201812050653 METAR KCLM 050653Z AUTO 13003KT 10SM BKN022 M01/M02 A3022 RMK AO2 SLP237 T10061022=
201812050627 SPECI KCLM 050627Z AUTO 15004KT 10SM BKN022 M02/M03 A3022 RMK AO2 T10171028=
201812050553 METAR KCLM 050553Z AUTO 16003KT 10SM CLR M03/M04 A3022 RMK AO2 SLP239 I1000 I6000 T10331039 10022 21033 58002=
201812050453 METAR KCLM 050453Z AUTO 16003KT 9SM FEW023 M03/M03 A3022 RMK AO2 SLP239 T10281033=
201812050353 METAR KCLM 050353Z AUTO 16003KT 9SM CLR M02/M03 A3023 RMK AO2 SLP242 T10221033=
201812050253 METAR KCLM 050253Z AUTO 00000KT 9SM CLR M02/M03 A3023 RMK AO2 SLP241 T10171028 56017=
201812050153 METAR KCLM 050153Z AUTO 12003KT 10SM CLR 00/M02 A3024 RMK AO2 SLP243 T00001017=
201812050053 METAR KCLM 050053Z AUTO 00000KT 10SM CLR 01/M02 A3026 RMK AO2 SLP251 T00061022=
201812042353 METAR KCLM 042353Z AUTO 15005KT 10SM SCT027 02/M02 A3028 RMK AO2 SLP257 T00171017 10056 20011 56007=
201812042350 SPECI KCLM 042350Z AUTO 15005KT 10SM SCT027 02/M02 A3028 RMK AO2=
201812042332 SPECI KCLM 042332Z AUTO 12004KT 10SM BKN026 03/M02 A3029 RMK AO2 T00281022=
201812042253 METAR KCLM 042253Z AUTO 11004KT 10SM FEW027 03/M03 A3029 RMK AO2 SLP261 T00331028=
201812042153 METAR KCLM 042153Z AUTO 07004KT 10SM CLR 04/M02 A3030 RMK AO2 SLP264 T00441022=
201812042053 METAR KCLM 042053Z AUTO 07006KT 10SM CLR 05/M01 A3031 RMK AO2 SLP268 T00501011 58016=
201812041953 METAR KCLM 041953Z AUTO 10007KT 10SM CLR 05/M01 A3034 RMK AO2 SLP277 T00501011=
201812041853 METAR KCLM 041853Z AUTO 12005KT 10SM CLR 04/M01 A3036 RMK AO2 SLP282 T00441006=
201812041753 METAR KCLM 041753Z AUTO VRB03KT 10SM CLR 01/00 A3036 RMK AO2 SLP284 I1001 I6003 T00110000 10011 21039 55000=
201812041653 METAR KCLM 041653Z AUTO 22004KT 10SM CLR M02/M02 A3036 RMK AO2 SLP285 T10171022=
201812041553 METAR KCLM 041553Z AUTO 00000KT 10SM CLR M03/M04 A3036 RMK AO2 SLP284 I1001 T10331044=
201812041453 METAR KCLM 041453Z AUTO 23006KT 10SM CLR M01/M03 A3036 RMK AO2 SLP285 I3001 T10111028 55005 TSNO=
201812041353 METAR KCLM 041353Z AUTO 22003KT 10SM CLR M02/M03 A3036 RMK AO2 SLP284 I1001 T10221033 TSNO=
201812041253 METAR KCLM 041253Z AUTO 22004KT 10SM CLR M01/M03 A3037 RMK AO2 SLP286 I1000 T10111028 TSNO=
201812041153 METAR KCLM 041153Z AUTO 00000KT 10SM FEW023 M01/M03 A3038 RMK AO2 SLP289 I1000 I6002 T10111028 11006 21028 51004 TSNO=
201812041149 SPECI KCLM 041149Z AUTO 00000KT 10SM FEW023 M02/M03 A3038 RMK AO2 I1000 TSNO=
201812041116 SPECI KCLM 041116Z AUTO 23005KT 10SM BKN022 M01/M02 A3038 RMK AO2 T10061017 TSNO=
201812041053 METAR KCLM 041053Z AUTO 00000KT 10SM CLR M02/M03 A3038 RMK AO2 SLP290 I1000 T10171028 TSNO=
201812040953 METAR KCLM 040953Z AUTO 22004KT 10SM CLR M01/M02 A3036 RMK AO2 SLP285 T10061022 TSNO=
201812040853 METAR KCLM 040853Z AUTO 23005KT 10SM CLR M01/M02 A3036 RMK AO2 SLP284 I1001 I3002 T10061022 58003 TSNO=
201812040753 METAR KCLM 040753Z AUTO 22004KT 10SM CLR M02/M03 A3038 RMK AO2 SLP289 T10171028 400611028 TSNO=
201812040653 METAR KCLM 040653Z AUTO 00000KT 7SM CLR M01/M02 A3038 RMK AO2 SLP289 I1001 T10111022 TSNO=
201812040553 METAR KCLM 040553Z AUTO 00000KT 10SM CLR M01/M02 A3037 RMK AO2 SLP287 I6001 T10061022 10022 21017 58004 TSNO=
201812040453 METAR KCLM 040453Z AUTO 22003KT 10SM CLR M01/M02 A3038 RMK AO2 SLP290 I1001 T10111022=
201812040353 METAR KCLM 040353Z AUTO 23006KT 10SM CLR M01/M02 A3038 RMK AO2 SLP292 I1000 T10111022=
201812040253 METAR KCLM 040253Z AUTO 00000KT 10SM CLR M01/M02 A3038 RMK AO2 SLP291 I1000 I3000 T10111022 51005=
201812040153 METAR KCLM 040153Z AUTO 00000KT 9SM CLR M01/M02 A3038 RMK AO2 SLP290 T10061022=
201812040053 METAR KCLM 040053Z AUTO 19004KT 10SM CLR 01/M01 A3037 RMK AO2 SLP289 T00061006=
201812032353 METAR KCLM 032353Z AUTO 00000KT 10SM CLR 02/00 A3037 RMK AO2 SLP286 T00220000 10061 20017 58001=
201812032253 METAR KCLM 032253Z AUTO 12003KT 10SM CLR 05/M02 A3037 RMK AO2 SLP285 T00501017=
201812032153 METAR KCLM 032153Z AUTO VRB04KT 10SM OVC042 06/M01 A3037 RMK AO2 SLP285 T00611011=
201812032053 METAR KCLM 032053Z AUTO 09007KT 10SM FEW032 OVC042 06/01 A3037 RMK AO2 SLP286 T00610006 58002=
201812031953 METAR KCLM 031953Z AUTO 09005KT 10SM BKN030 OVC044 06/M01 A3038 RMK AO2 SLP288 T00561006=
201812031931 SPECI KCLM 031931Z AUTO 08005KT 10SM OVC031 06/01 A3038 RMK AO2 T00560006=
201812031853 METAR KCLM 031853Z AUTO 00000KT 9SM SCT021 OVC028 05/M01 A3038 RMK AO2 SLP290 T00501011=
201812031802 SPECI KCLM 031802Z AUTO VRB06KT 10SM SCT014 BKN021 OVC027 04/02 A3038 RMK AO2 T00440017=
201812031753 METAR KCLM 031753Z AUTO 00000KT 10SM BKN014 OVC021 04/02 A3037 RMK AO2 SLP289 60000 T00390022 10056 20039 53012=
201812031653 METAR KCLM 031653Z AUTO 24006KT 10SM OVC011 04/02 A3036 RMK AO2 SLP282 T00390022=
201812031648 SPECI KCLM 031648Z AUTO 24006KT 10SM OVC011 04/02 A3035 RMK AO2=
201812031640 SPECI KCLM 031640Z AUTO 27004KT 10SM OVC009 04/02 A3035 RMK AO2 CIG 008V013 T00390017=
201812031553 METAR KCLM 031553Z AUTO VRB03KT 10SM BKN012 BKN019 OVC023 05/03 A3034 RMK AO2 RAE1457 SLP276 P0000 T00500028=
201812031519 SPECI KCLM 031519Z AUTO 25005KT 10SM OVC010 04/03 A3033 RMK AO2 RAE1457 P0000 T00390028=
201812031453 METAR KCLM 031453Z AUTO 00000KT 10SM -RA OVC009 04/03 A3033 RMK AO2 RAB13 SLP273 P0000 60000 T00390028 53003=
201812031417 SPECI KCLM 031417Z AUTO 23003KT 10SM -RA OVC009 04/03 A3032 RMK AO2 RAB13 CIG 008V014 P0000 T00440033=
201812031353 METAR KCLM 031353Z AUTO 00000KT 10SM OVC014 04/03 A3032 RMK AO2 SLP271 T00440028=
201812031340 SPECI KCLM 031340Z AUTO 00000KT 10SM OVC014 04/03 A3032 RMK AO2 T00440028=
201812031253 METAR KCLM 031253Z AUTO 00000KT 10SM OVC016 04/02 A3032 RMK AO2 SLP270 T00390022=
201812031153 METAR KCLM 031153Z AUTO 00000KT 10SM OVC019 04/03 A3032 RMK AO2 SLP269 70030 T00390028 10044 20022 53006=
201812030953 METAR KCLM 030953Z AUTO 24004KT 10SM BKN015 OVC037 04/02 A3030 RMK AO2 SLP263 T00390022=
201812030941 SPECI KCLM 030941Z AUTO 00000KT 10SM SCT015 OVC037 03/02 A3030 RMK AO2 T00330022=
201812030908 SPECI KCLM 030908Z AUTO 23004KT 10SM FEW013 BKN027 OVC041 03/02 A3029 RMK AO2 T00330022=
201812030853 METAR KCLM 030853Z AUTO 23003KT 10SM FEW027 OVC041 03/02 A3029 RMK AO2 SLP258 T00330022 51012=
201812030753 METAR KCLM 030753Z AUTO 25004KT 10SM OVC037 03/02 A3029 RMK AO2 SLP258 T00330022 400670006=
201812030653 METAR KCLM 030653Z AUTO 25004KT 10SM OVC039 03/02 A3028 RMK AO2 SLP254 T00330022=
201812030553 METAR KCLM 030553Z AUTO 23007KT 9SM OVC032 02/02 A3025 RMK AO2 SLP247 T00220017 10056 20006 53009=
201812030453 METAR KCLM 030453Z AUTO 22003KT 5SM BR OVC032 01/01 A3024 RMK AO2 SLP245 T00060006=
201812030435 SPECI KCLM 030435Z AUTO 00000KT 3SM BR SCT033 01/01 A3024 RMK AO2 T00110006=
201812030428 SPECI KCLM 030428Z AUTO 00000KT 1 3/4SM BR FEW033 01/00 A3024 RMK AO2 VIS 3/4V4 T00110000=
201812030411 SPECI KCLM 030411Z AUTO 22003KT 4SM BR FEW035 01/01 A3024 RMK AO2 T00110011=
201812030353 METAR KCLM 030353Z AUTO 00000KT 2 1/2SM BR CLR 02/02 A3023 RMK AO2 SLP241 T00220017=
201812030304 SPECI KCLM 030304Z AUTO 00000KT 3SM BR SCT030 03/02 A3023 RMK AO2 T00280022=
201812030253 METAR KCLM 030253Z AUTO 00000KT 1SM BR BKN030 03/02 A3023 RMK AO2 SLP239 T00280022 53009=
201812030250 SPECI KCLM 030250Z AUTO 00000KT 1 1/2SM BR BKN030 03/02 A3023 RMK AO2=
201812030226 SPECI KCLM 030226Z AUTO 00000KT 3SM BR OVC031 03/03 A3022 RMK AO2 T00330028=
201812030216 SPECI KCLM 030216Z AUTO 00000KT 1 3/4SM BR OVC031 03/02 A3022 RMK AO2 T00280022=
201812030201 SPECI KCLM 030201Z AUTO 22003KT 5SM BR OVC031 03/03 A3022 RMK AO2 T00330028=
201812030153 METAR KCLM 030153Z AUTO 00000KT 2SM BR OVC031 03/03 A3022 RMK AO2 SLP235 T00330028=
201812030145 SPECI KCLM 030145Z AUTO 00000KT 1 3/4SM BR OVC031 03/03 A3022 RMK AO2 T00330028=
201812030053 METAR KCLM 030053Z AUTO 00000KT 9SM BKN030 04/04 A3020 RMK AO2 SLP230 T00440039=
201812022353 METAR KCLM 022353Z AUTO 00000KT 10SM BKN032 06/04 A3020 RMK AO2 SLP228 60004 T00560039 10067 20050 53010=
201812022253 METAR KCLM 022253Z AUTO 11004KT 10SM OVC031 07/04 A3018 RMK AO2 SLP222 T00670039=
201812022239 SPECI KCLM 022239Z AUTO 12003KT 10SM OVC031 07/04 A3018 RMK AO2 T00670039=
201812022153 METAR KCLM 022153Z AUTO 15004KT 10SM OVC025 07/04 A3017 RMK AO2 RAE12 SLP219 P0002 T00670039=
201812022053 METAR KCLM 022053Z AUTO 13007KT 9SM -RA OVC026 06/04 A3017 RMK AO2 RAB39 SLP218 P0000 60002 T00610039 53009=
201812021953 METAR KCLM 021953Z AUTO 13005KT 10SM SCT014 BKN025 OVC030 06/04 A3016 RMK AO2 RAE09 SLP215 P0000 T00610044=
201812021853 METAR KCLM 021853Z AUTO 12004KT 7SM -RA BKN020 OVC026 06/04 A3015 RMK AO2 RAB13 SLP212 P0002 T00610044=
201812021753 METAR KCLM 021753Z AUTO 00000KT 9SM OVC025 05/04 A3014 RMK AO2 RAE34 SLP209 P0000 60026 T00500039 10050 20039 53020=
201812021732 SPECI KCLM 021732Z AUTO 23004KT 9SM -RA SCT011 OVC022 04/03 A3014 RMK AO2 P0000 T00440033=
201812021653 METAR KCLM 021653Z AUTO 24004KT 6SM -RA BR BKN013 OVC018 04/03 A3012 RMK AO2 RAB13 SLP202 P0002 T00390028=
201812021553 METAR KCLM 021553Z AUTO 23006KT 10SM BKN016 OVC040 04/03 A3010 RMK AO2 SLP194 T00390028=
201812021546 SPECI KCLM 021546Z AUTO 24006KT 10SM SCT016 SCT024 OVC040 04/03 A3009 RMK AO2 T00390028=
201812021453 METAR KCLM 021453Z AUTO 24004KT 10SM BKN016 OVC025 04/03 A3008 RMK AO2 RAE49 SLP189 P0007 60024 T00390028 53012=
201812021353 METAR KCLM 021353Z AUTO 22006KT 4SM -RA BR OVC021 04/03 A3007 RMK AO2 SLP184 P0005 T00390028=
201812021253 METAR KCLM 021253Z AUTO 21004KT 6SM -RA BR OVC018 04/03 A3005 RMK AO2 SLP177 P0012 T00440028=
201812021241 SPECI KCLM 021241Z AUTO 21004KT 2SM RA BR OVC016 04/03 A3004 RMK AO2 P0010 T00440033=
201812021234 SPECI KCLM 021234Z AUTO 20006KT 3SM RA BR OVC016 04/03 A3004 RMK AO2 P0006 T00440033=
201812021153 METAR KCLM 021153Z AUTO 30003KT 7SM -RA OVC011 04/03 A3003 RMK AO2 RAB1055E24B46 CIG 009V013 SLP172 P0002 60003 70030 T00440033 10050 20039 53007=
201812021103 SPECI KCLM 021103Z AUTO 23006KT 10SM -RA BKN013 OVC022 04/03 A3003 RMK AO2 RAB1055 P0000 T00440033=
201812021053 METAR KCLM 021053Z AUTO 24004KT 10SM BKN015 OVC022 04/04 A3002 RMK AO2 SLP169 T00440039=
201812021038 SPECI KCLM 021038Z AUTO 00000KT 9SM BKN015 BKN020 OVC032 04/04 A3002 RMK AO2 T00440039=
201812020953 METAR KCLM 020953Z AUTO 00000KT 10SM BKN031 OVC055 04/04 A3002 RMK AO2 SLP166 T00440039=
201812020923 SPECI KCLM 020923Z AUTO 00000KT 8SM BKN028 OVC034 04/04 A3001 RMK AO2 T00440039=
201812020901 SPECI KCLM 020901Z AUTO 00000KT 9SM SCT025 OVC035 04/04 A3001 RMK AO2 T00440039=
201812020853 METAR KCLM 020853Z AUTO 00000KT 9SM BKN025 OVC035 04/04 A3001 RMK AO2 SLP164 60001 T00440039 51009=
201812020846 SPECI KCLM 020846Z AUTO 00000KT 7SM BKN025 OVC035 04/04 A3001 RMK AO2 T00440039=
201812020832 SPECI KCLM 020832Z AUTO 00000KT 5SM BR SCT027 OVC035 04/03 A3001 RMK AO2 T00390033=
201812020822 SPECI KCLM 020822Z AUTO 00000KT 2SM BR OVC034 04/04 A3001 RMK AO2 T00390039=
201812020753 METAR KCLM 020753Z AUTO 12003KT 5SM BR OVC032 04/03 A3000 RMK AO2 RAE10 SLP162 P0000 T00440033 400780033=
201812020703 SPECI KCLM 020703Z AUTO 00000KT 10SM -RA FEW025 SCT030 OVC040 05/04 A3000 RMK AO2 P0000 T00500044=
201812020653 METAR KCLM 020653Z AUTO 16003KT 6SM -RA BR BKN028 OVC040 05/04 A3000 RMK AO2 RAB44 SLP159 P0001 T00500044=
201812020553 METAR KCLM 020553Z AUTO 00000KT 10SM SCT015 BKN025 OVC033 04/04 A2998 RMK AO2 SLP154 60003 T00440039 10061 20033 53015=
201812020453 METAR KCLM 020453Z AUTO 00000KT 8SM OVC019 04/04 A2997 RMK AO2 SLP150 T00390039=
201812020427 SPECI KCLM 020427Z AUTO 00000KT 10SM FEW019 BKN029 OVC065 03/03 A2996 RMK AO2 T00330028=
201812020353 METAR KCLM 020353Z AUTO 00000KT 10SM FEW024 BKN043 OVC060 04/03 A2995 RMK AO2 SLP144 T00390033=
201812020329 SPECI KCLM 020329Z AUTO 23003KT 5SM BR FEW020 SCT039 04/04 A2995 RMK AO2 T00390039=
201812020322 SPECI KCLM 020322Z AUTO 00000KT 2 1/2SM BR FEW090 04/03 A2995 RMK AO2 VIS 1V5 T00390033=
201812020253 METAR KCLM 020253Z AUTO 00000KT 8SM FEW035 BKN055 OVC085 04/04 A2994 RMK AO2 RAB15E42 SLP140 P0000 60003 T00440039 53004=
201812020153 METAR KCLM 020153Z AUTO 00000KT 10SM OVC031 05/04 A2994 RMK AO2 RAE32 SLP139 P0000 T00500044=
201812020143 SPECI KCLM 020143Z AUTO 22003KT 10SM FEW020 SCT027 OVC031 05/04 A2994 RMK AO2 RAE32 P0000 T00500039=
201812020111 SPECI KCLM 020111Z AUTO 00000KT 10SM -RA BKN017 BKN028 OVC034 05/04 A2993 RMK AO2 P0000 T00500044=
201812020053 METAR KCLM 020053Z AUTO 20004KT 10SM -RA SCT020 OVC031 06/04 A2993 RMK AO2 SLP135 P0003 T00560039=
201812020050 SPECI KCLM 020050Z AUTO 20004KT 10SM -RA FEW017 SCT022 OVC031 06/04 A2993 RMK AO2 P0003=
201812020025 SPECI KCLM 020025Z AUTO 16005KT 5SM -RA BR SCT008 BKN017 OVC029 06/04 A2992 RMK AO2 P0001 T00610044=
201812012353 METAR KCLM 012353Z AUTO 00000KT 3SM -RA BR BKN008 OVC017 06/04 A2992 RMK AO2 CIG 006V013 SLP133 P0016 60021 T00560044 10078 20056 53010=
201812012350 SPECI KCLM 012350Z AUTO 30003KT 2 1/2SM -RA BR BKN008 OVC017 06/04 A2992 RMK AO2 CIG 006V013 P0014=
201812012342 SPECI KCLM 012342Z AUTO 00000KT 2SM -RA BR BKN013 OVC019 06/05 A2992 RMK AO2 P0013 T00610050=
201812012319 SPECI KCLM 012319Z AUTO 15003KT 3SM -RA BR BKN018 OVC024 06/04 A2991 RMK AO2 P0008 T00610044=
201812012312 SPECI KCLM 012312Z AUTO 11003KT 1 3/4SM RA BR OVC018 06/05 A2991 RMK AO2 P0006 T00610050=
201812012253 METAR KCLM 012253Z AUTO 07003KT 3SM -RA BR OVC016 07/05 A2991 RMK AO2 RAB23 SLP129 P0004 T00670050=
201812012238 SPECI KCLM 012238Z AUTO 00000KT 7SM -RA BKN013 OVC020 07/05 A2990 RMK AO2 RAB23 P0000 T00670050=
201812012216 SPECI KCLM 012216Z AUTO 33003KT 10SM BKN021 OVC035 07/04 A2990 RMK AO2 T00720039=
201812012153 METAR KCLM 012153Z AUTO 14004KT 10SM BKN034 08/04 A2989 RMK AO2 SLP124 T00780039=
201812012053 METAR KCLM 012053Z AUTO 12003KT 10SM FEW013 OVC033 07/04 A2989 RMK AO2 SLP123 60001 T00720044 51003=
201812012051 SPECI KCLM 012051Z AUTO 12003KT 10SM SCT012 OVC033 07/04 A2989 RMK AO2=
201812011953 METAR KCLM 011953Z AUTO 00000KT 10SM BKN011 OVC048 07/05 A2988 RMK AO2 SLP121 T00670050=
201812011945 SPECI KCLM 011945Z AUTO 00000KT 10SM BKN012 OVC048 07/05 A2988 RMK AO2 T00670050=
201812011938 SPECI KCLM 011938Z AUTO 00000KT 10SM SCT012 OVC048 07/05 A2988 RMK AO2 T00670050=
201812011853 METAR KCLM 011853Z AUTO 00000KT 10SM BKN014 OVC020 06/05 A2988 RMK AO2 RAE42 SLP120 P0001 T00560050=
201812011753 METAR KCLM 011753Z AUTO 00000KT 8SM -RA BKN011 OVC019 06/04 A2987 RMK AO2 RAE01B53 SLP118 P0000 60003 T00560044 10061 20050 53022=
201812011653 METAR KCLM 011653Z AUTO 25009KT 5SM -RA BR BKN012 OVC018 06/04 A2985 RMK AO2 RAB37 SLP110 P0003 T00560039=
201812011645 SPECI KCLM 011645Z AUTO 25006KT 2 1/2SM -RA BR OVC013 06/03 A2985 RMK AO2 RAB37 P0001 T00560033=
201812011621 SPECI KCLM 011621Z AUTO 25008KT 10SM OVC015 06/03 A2984 RMK AO2 T00560033=
201812011553 METAR KCLM 011553Z AUTO 25009KT 10SM OVC014 06/03 A2983 RMK AO2 SLP102 T00560033=
201812011507 SPECI KCLM 011507Z AUTO 26006KT 10SM BKN014 BKN022 OVC026 06/04 A2981 RMK AO2 T00560039=
201812011453 METAR KCLM 011453Z AUTO 25007KT 10SM BKN016 OVC021 06/03 A2981 RMK AO2 SLP096 T00560033 51011=
201812011353 METAR KCLM 011353Z AUTO 25007KT 10SM OVC026 06/03 A2980 RMK AO2 SLP092 T00560033=
201812011253 METAR KCLM 011253Z AUTO VRB03KT 10SM OVC023 06/03 A2979 RMK AO2 SLP089 T00560033=
201812011153 METAR KCLM 011153Z AUTO 24004KT 10SM OVC020 06/04 A2978 RMK AO2 SLP085 T00610039 10067 20050 52011=
201812011053 METAR KCLM 011053Z AUTO 25006KT 10SM OVC024 06/04 A2977 RMK AO2 SLP081 T00560039=
201812011003 SPECI KCLM 011003Z AUTO 25006KT 10SM BKN025 06/03 A2976 RMK AO2 T00560033=
201812010953 METAR KCLM 010953Z AUTO 26006KT 10SM SCT025 05/03 A2975 RMK AO2 SLP077 T00500033=
201812010935 SPECI KCLM 010935Z AUTO 24005KT 10SM SCT014 05/03 A2975 RMK AO2 T00500033=
201812010853 METAR KCLM 010853Z AUTO 25006KT 10SM BKN013 06/04 A2974 RMK AO2 SLP074 T00560039 53012=
201812010833 SPECI KCLM 010833Z AUTO 25006KT 10SM SCT027 06/04 A2974 RMK AO2 T00560039=
201812010805 SPECI KCLM 010805Z AUTO 25007KT 10SM FEW014 BKN025 07/05 A2974 RMK AO2 T00670050=
201812010753 METAR KCLM 010753Z AUTO 26007KT 10SM BKN013 OVC025 07/04 A2973 RMK AO2 SLP071 T00670044 400940028=
201812010721 SPECI KCLM 010721Z AUTO 25008KT 10SM BKN011 OVC110 07/04 A2973 RMK AO2 T00670044=
201812010653 METAR KCLM 010653Z AUTO 27007KT 10SM OVC100 06/04 A2972 RMK AO2 SLP064 T00610044=
201812010605 SPECI KCLM 010605Z AUTO 25007KT 10SM SCT024 BKN043 OVC120 07/05 A2971 RMK AO2 T00670050=
201812010553 METAR KCLM 010553Z AUTO 25008KT 10SM BKN025 OVC043 07/05 A2971 RMK AO2 SLP062 60000 T00670050 10067 20050 51008=
201812010453 METAR KCLM 010453Z AUTO 25004KT 10SM FEW013 BKN022 OVC080 06/05 A2970 RMK AO2 SLP058 T00610050=
201812010427 SPECI KCLM 010427Z AUTO 24005KT 10SM SCT013 OVC020 07/05 A2970 RMK AO2 T00670050=
201812010404 SPECI KCLM 010404Z AUTO 22003KT 10SM BKN014 OVC060 06/06 A2969 RMK AO2 T00610056=
201812010353 METAR KCLM 010353Z AUTO 23004KT 10SM SCT014 BKN060 OVC080 06/05 A2969 RMK AO2 RAB39E49 SLP056 P0000 T00610050=
201812010253 METAR KCLM 010253Z AUTO 00000KT 10SM BKN060 OVC080 06/05 A2968 RMK AO2 SLP053 T00560050 56005=
201812010153 METAR KCLM 010153Z AUTO 23003KT 10SM SCT009 OVC075 06/05 A2969 RMK AO2 SLP054 T00560050=
201812010125 SPECI KCLM 010125Z AUTO 23004KT 10SM BKN008 05/04 A2969 RMK AO2 T00500044=
201812010107 SPECI KCLM 010107Z AUTO 23004KT 8SM FEW008 SCT080 05/04 A2969 RMK AO2 T00500044=
201812010053 METAR KCLM 010053Z AUTO 00000KT 9SM SCT075 05/04 A2969 RMK AO2 SLP055 T00500044=

# No short TAF reports from KCLM in databse.

###################################
#  large TAF from KCLM
###################################
201812312322 TAF KCLM 312322Z 0100/0124 35003KT P6SM FEW110 SCT200 FM010700
                       24004KT P6SM SCT120 BKN200 FM011100 VRB03KT
                       P6SM BKN100 BKN200=
201812311720 TAF KCLM 311720Z 3118/0118 10003KT P6SM SKC FM010000 VRB04KT P6SM
                       BKN200 FM010700 24004KT P6SM SCT120 BKN200=
201812311138 TAF KCLM 311138Z 3112/0112 VRB04KT P6SM SCT030 SCT250
                      TEMPO 3112/3116 BKN025 FM311800 10004KT P6SM
                       FEW030 SCT250 FM010000 VRB04KT P6SM BKN200
                       FM010700 24004KT P6SM SCT120 BKN200=
201812310522 TAF KCLM 310522Z 3106/0106 23005KT P6SM BKN045 BKN060 FM311800
                       10004KT P6SM FEW050 SCT250=
201812310214 KCLM 310214Z 3102/3124 23004KT P6SM SCT024
                      TEMPO 3102/3106 BKN024 FM311800 10004KT P6SM
                       SCT250=
201812302338 TAF KCLM 302338Z 3100/3124 30007KT P6SM SKC FM310400 24006KT P6SM
                       SKC FM311800 10004KT P6SM SCT250=
201812301720 TAF KCLM 301720Z 3018/3118 25011KT P6SM SCT060 FM310000 25005KT
                       P6SM SCT050 FM310600 24005KT P6SM SKC=
201812301127 TAF KCLM 301127Z 3012/3112 28012G18KT P6SM SCT035 BKN080 FM301800
                       28011KT P6SM SCT040 FM310000 34007KT P6SM
                       SCT050 FM310600 24005KT P6SM SKC=
201812300524 TAF KCLM 300524Z 3006/3106 28010KT P6SM FEW040 BKN080 FM301400
                       28008KT P6SM SCT040=
201812292323 TAF KCLM 292323Z 3000/3024 27012G20KT P6SM SCT025 BKN050 FM302000
                       28008KT P6SM SCT030=
201812291731 TAF KCLM 291731Z 2918/3018 29005KT P6SM BKN050 OVC120 FM292100
                       27014G22KT 4SM -RA BR BKN015 OVC030 FM300000
                       28018G25KT P6SM VCSH BKN050=
201812291138 TAF KCLM 291138Z 2912/3012 20003KT P6SM OVC050 FM291800 26008KT
                       5SM -RA BKN010 OVC030 FM292100 27014G22KT
                       4SM -SHRA BR BKN015 OVC030 FM300100 28016G25KT
                       4SM -SHRA BR OVC030=
201812290525 TAF KCLM 290525Z 2906/3006 26003KT P6SM FEW007 OVC060 FM291800
                       26008KT 5SM -RA BKN010 OVC030 FM292100 27015G25KT
                       4SM -SHRA BR BKN015 OVC030=
201812282335 TAF KCLM 282335Z 2900/2924 00000KT P6SM -RA SCT003 SCT015 OVC060
                       FM290200 26006KT P6SM VCSH BKN015 OVC025
                       FM291000 27007KT P6SM SCT030 OVC050 FM291800
                       27015G25KT 4SM -SHRA BR BKN015 OVC030=
201812281723 TAF KCLM 281723Z 2818/2918 00000KT 5SM -RA BR OVC050 FM282000 VRB04KT
                       3SM -RA BR OVC015 FM291000 26006KT P6SM
                       -SHRA BKN015 OVC025=
201812281610 KCLM 281610Z 2816/2912 00000KT 4SM -RA BR SCT010 OVC050 FM282000
                       VRB04KT 3SM -RA BR OVC007 FM290300 26006KT
                       5SM -RA BR OVC015=
201812281410 KCLM 281410Z 2814/2912 VRB03KT P6SM BKN060 OVC070
                      TEMPO 2814/2816 5SM -RA BR BKN020 OVC030
                       FM281600 09004KT 5SM -RA OVC010 FM282000
                       VRB04KT 3SM -RA BR OVC007 FM290300 26006KT
                       5SM -RA BR OVC015=
201812281139 TAF KCLM 281139Z 2812/2912 VRB03KT P6SM SCT010 OVC030
                      TEMPO 2812/2816 5SM -RA BR BKN010 OVC030
                       FM281600 09004KT 5SM -RA OVC010 FM282000
                       VRB04KT 3SM -RA BR OVC007 FM290300 26006KT
                       5SM -RA BR OVC015=
201812280520 TAF KCLM 280520Z 2806/2906 VRB03KT P6SM OVC050 FM281200 09004KT
                       P6SM SCT010 OVC030
                      TEMPO 2812/2816 5SM -RA BR BKN010 OVC030
                       FM281600 09004KT 5SM -RA OVC010 FM282000
                       09004KT 3SM -RA BR OVC007=
201812280115 KCLM 280115Z 2801/2824 00000KT P6SM SCT035 OVC070
                      TEMPO 2804/2807 BKN035 OVC070 FM280700 00000KT
                       P6SM SCT015 OVC035 FM281200 09004KT P6SM
                       SCT007 BKN015 OVC035 FM282000 09004KT 5SM
                       -RA BKN007 OVC015 FM282300 09004KT 3SM -RA
                       BR OVC007=
201812272320 TAF KCLM 272320Z 2800/2824 08005KT P6SM BKN016 OVC110 FM280600
                       20004KT P6SM VCSH BKN015 FM282000 21002KT
                       4SM -RA OVC007=
201812271907 KCLM 271907Z 2719/2818 12003KT P6SM BKN015 FM280600 20004KT P6SM
                       VCSH BKN015=
201812271720 TAF KCLM 271720Z 2718/2818 23004KT P6SM FEW015 OVC035 FM272000
                       VRB03KT P6SM SCT015 BKN050 FM280600 20004KT
                       P6SM VCSH BKN025 FM281500 20002KT P6SM VCSH
                       OVC015=
201812271508 KCLM 271508Z 2715/2812 22006KT P6SM BKN021 FM272000 VRB03KT P6SM
                       SCT025 BKN120 BKN200=
201812271130 TAF KCLM 271130Z 2712/2812 24006KT P6SM FEW019 OVC035 FM272000
                       VRB03KT P6SM SCT025 BKN120 BKN200=
201812270537 TAF KCLM 270537Z 2706/2806 27006KT P6SM SCT015 BKN040 FM271000
                       VRB03KT P6SM BKN015 BKN040 FM272000 VRB03KT
                       P6SM SCT025 BKN120 BKN200=
201812262320 TAF KCLM 262320Z 2700/2724 26006KT P6SM VCSH BKN050 FM270300 26008KT
                       P6SM VCSH OVC025 FM271200 25006KT P6SM OVC015=
201812261729 TAF KCLM 261729Z 2618/2718 22003KT P6SM VCSH FEW045 FM270300 26007KT
                       P6SM VCSH BKN050 FM270600 26010KT P6SM OVC025
                       FM271200 25006KT P6SM OVC025=
201812261141 TAF KCLM 261141Z 2612/2712 VRB04KT P6SM -RA OVC080 FM261500 25005KT
                       P6SM VCSH BKN030 FM270300 26007KT P6SM VCSH
                       BKN050=
201812260529 TAF KCLM 260529Z 2606/2706 23003KT P6SM OVC050 FM261200 22004KT
                       P6SM -RA OVC015 FM261800 27008KT P6SM VCSH
                       BKN030=
201812252320 TAF KCLM 252320Z 2600/2624 08004KT P6SM OVC015 FM261200 22004KT
                       P6SM -RA OVC015=
201812251723 TAF KCLM 251723Z 2518/2618 VRB03KT P6SM OVC025 FM252300 22004KT
                       P6SM SCT025 OVC050 FM261200 22004KT P6SM
                       -RA OVC020=
201812251141 TAF KCLM 251141Z 2512/2612 VRB03KT P6SM OVC045 FM252000 VRB03KT
                       P6SM OVC025 FM252300 VRB03KT P6SM SCT030
                       OVC060=
201812250520 TAF KCLM 250520Z 2506/2606 23005KT P6SM OVC025 FM252000 VRB03KT
                       P6SM BKN025 FM252300 VRB03KT P6SM SCT030=
201812250322 KCLM 250322Z 2503/2524 VRB04KT P6SM OVC025 FM251200 23006KT P6SM
                       OVC018 FM252300 08004KT P6SM OVC025=
201812242320 TAF KCLM 242320Z 2500/2524 VRB04KT P6SM BKN015 OVC030 FM251200
                       23006KT P6SM OVC015 FM252300 08004KT P6SM
                       OVC050=
201812241720 TAF KCLM 241720Z 2418/2518 22006KT P6SM OVC030 FM242000 VRB04KT
                       P6SM SCT040 FM251200 23006KT P6SM OVC015=
201812241138 TAF KCLM 241138Z 2412/2512 23006KT P6SM SCT030
                      TEMPO 2413/2416 4SM BR FM242000 VRB04KT P6SM
                       SCT040=
201812240520 TAF KCLM 240520Z 2406/2506 23006KT P6SM SCT030 OVC050 FM241400
                       VRB03KT P6SM BKN025 BKN040 FM242000 VRB04KT
                       P6SM SCT040=
201812232329 TAF KCLM 232329Z 2400/2424 00000KT P6SM VCSH SCT009 SCT030 OVC060
                       FM240200 VRB03KT P6SM SCT030 OVC050 FM241400
                       VRB03KT P6SM BKN025 BKN040 FM242000 VRB04KT
                       P6SM SCT040=
201812231726 TAF KCLM 231726Z 2318/2418 23005KT P6SM SCT025 BKN060 BKN100
                      TEMPO 2318/2322 -SHRA BKN020 OVC040 FM232200
                       VRB03KT P6SM SCT030 BKN050 FM241400 VRB03KT
                       P6SM BKN025 BKN040=
201812231138 TAF KCLM 231138Z 2312/2412 23006KT P6SM -SHRA OVC040 FM232000 VRB03KT
                       P6SM SCT030 BKN050=
201812230530 TAF KCLM 230530Z 2306/2406 VRB04KT P6SM BKN050
                      TEMPO 2306/2310 5SM -SHRA BR BKN020 OVC050
                       FM231200 29006KT P6SM VCSH SCT025 BKN040=
201812222320 TAF KCLM 222320Z 2300/2324 23005KT P6SM OVC050 FM230500 VRB03KT
                       P6SM -RA OVC020 FM230900 24006KT P6SM -SHRA
                       BKN020 BKN040 FM231500 29006KT P6SM VCSH
                       SCT025 BKN040=
201812221733 TAF KCLM 221733Z 2218/2318 00000KT P6SM OVC100 FM222300 VRB04KT
                       P6SM -RA OVC040 FM230500 VRB03KT P6SM -RA
                       OVC020 FM230900 24006KT P6SM -SHRA BKN025
                       BKN050 FM231500 26006KT P6SM VCSH SCT025
                       BKN050=
201812221140 TAF KCLM 221140Z 2212/2312 VRB04KT P6SM BKN040 OVC060 FM221700
                       VRB04KT P6SM SCT040 BKN060 OVC100 FM222300
                       VRB04KT P6SM -RA OVC040=
201812220520 TAF KCLM 220520Z 2206/2306 VRB04KT P6SM OVC080 FM220900 VRB04KT
                       P6SM -RA SCT030 OVC050=
201812212320 TAF KCLM 212320Z 2200/2224 25005KT P6SM OVC120 FM220900 VRB03KT
                       P6SM -RA SCT030 OVC050=
201812211734 TAF KCLM 211734Z 2118/2218 25012KT P6SM BKN250 FM212100 VRB03KT
                       P6SM SCT050 BKN120 OVC200 FM221000 VRB03KT
                       P6SM VCSH OVC050 FM221500 10005KT P6SM BKN050
                       BKN100 OVC200=
201812211137 TAF KCLM 211137Z 2112/2212 25012KT P6SM SCT050 FM211900 VRB03KT
                       P6SM SCT050 BKN120 OVC200 FM221000 VRB03KT
                       P6SM OVC050=
201812210520 TAF KCLM 210520Z 2106/2206 26015G25KT P6SM -SHRA SCT025 BKN050
                       FM211000 25012G20KT P6SM VCSH BKN050 FM211500
                       25010KT P6SM SCT050 FM211800 VRB03KT P6SM
                       BKN050 OVC120=
201812202330 TAF KCLM 202330Z 2100/2124 24012G28KT P6SM -SHRA SCT025 OVC045
                       FM211000 25012G20KT P6SM SCT050 FM211500
                       25010KT P6SM SCT050 FM211800 VRB03KT P6SM
                       BKN050=
201812201734 TAF KCLM 201734Z 2018/2118 VRB04KT P6SM -RA OVC035 FM202000 28018G28KT
                       P6SM -SHRA SCT015 BKN030 BKN050 FM202300
                       27030G40KT P6SM -SHRA BKN030 BKN050 FM210400
                       28022G33KT P6SM SCT030 BKN050 FM211000 25015G22KT
                       P6SM SCT050 FM211500 25010KT P6SM SCT050=
201812201142 TAF KCLM 201142Z 2012/2112 14008KT P6SM -RA OVC050 FM201800 VRB04KT
                       P6SM -RA OVC035 FM202200 28018G28KT P6SM
                       -SHRA SCT015 BKN030 BKN050 FM210400 28012G18KT
                       P6SM SCT030 BKN050=
201812200520 TAF KCLM 200520Z 2006/2106 VRB05KT P6SM -RA SCT025 OVC050 FM201000
                       VRB05KT 5SM -RA BR BKN025 OVC040 FM202200
                       28022G38KT 5SM SHRA BR BKN015 OVC040=
201812192346 TAF KCLM 192346Z 2000/2024 11005KT 6SM BR OVC100 FM200400 VRB05KT
                       P6SM -RA SCT025 OVC050 FM201000 VRB05KT
                       5SM -RA BR BKN025 OVC040 FM202200 28022G38KT
                       5SM SHRA BR BKN015 OVC040=
201812191727 TAF KCLM 191727Z 1918/2018 22003KT P6SM OVC060 FM192100 VRB05KT
                       P6SM SCT060 OVC150 FM200400 VRB05KT P6SM
                       -RA SCT025 OVC050 FM201000 VRB05KT P6SM
                       -RA BKN025 OVC040=
201812191131 TAF KCLM 191131Z 1912/2012 26010KT P6SM VCSH SCT035 SCT070
                      TEMPO 1912/1916 -SHRA BKN025 OVC050 FM191600
                       25007KT P6SM SCT025 BKN070 FM192100 07006KT
                       P6SM SCT035 BKN060 OVC100 FM200400 VRB05KT
                       P6SM -RA BKN025 OVC050=
201812190531 TAF KCLM 190531Z 1906/2006 25008KT P6SM VCSH SCT035 SCT070 FM191500
                       25007KT P6SM SCT025 BKN070 FM192100 35005KT
                       P6SM VCSH BKN025 OVC070 FM200000 04003KT
                       P6SM -RA BKN025 OVC050=
201812182320 TAF KCLM 182320Z 1900/1924 26005KT P6SM SCT030 BKN070
                      TEMPO 1900/1903 4SM -SHRA BR BKN030 OVC070
                       FM190600 26008KT P6SM FEW040 BKN070=
201812181728 TAF KCLM 181728Z 1818/1918 27006KT P6SM SCT045 BKN090
                      TEMPO 1818/1822 -SHRA OVC050 FM190000 26012G18KT
                       P6SM SCT050 BKN120 FM190600 26008KT P6SM
                       FEW040 BKN070=
201812181140 TAF KCLM 181140Z 1812/1912 VRB05KT P6SM -RA BKN040 BKN070
                      TEMPO 1813/1816 5SM RA BR BKN030 OVC050 FM182000
                       28009G18KT P6SM -SHRA BKN030 BKN050 FM190000
                       26012G19KT P6SM -SHRA SCT025 OVC050 FM190600
                       26011KT P6SM VCSH BKN040 BKN070=
201812180526 TAF KCLM 180526Z 1806/1906 24007KT 6SM -RA OVC050 WS020/17040KT
                       FM180800 25004KT 5SM RA BR OVC015 WS020/17040KT
                       FM181600 25004KT 6SM -SHRA BKN020 OVC040
                       FM182000 28009G18KT P6SM -SHRA BKN025 FM190000
                       26012G19KT P6SM -SHRA SCT025 OVC050
                      PROB30 1905/1906 P6SM -SHRA BKN050=
201812172320 TAF KCLM 172320Z 1800/1824 VRB04KT P6SM -RA FEW025 OVC050 FM180300
                       VRB03KT P6SM -RA OVC020 FM181300 27005KT
                       P6SM -SHRA OVC015 FM181800 27008KT P6SM
                       -SHRA SCT020 OVC050=
201812171723 TAF KCLM 171723Z 1718/1818 VRB03KT P6SM SCT030 BKN070 OVC150 FM172200
                       VRB04KT P6SM -RA SCT025 OVC070 FM180300
                       VRB03KT P6SM -RA OVC020 FM181300 27005KT
                       P6SM -SHRA OVC015=
201812171140 TAF KCLM 171140Z 1712/1812 VRB03KT P6SM VCSH BKN050 FM171600 VRB03KT
                       P6SM SCT030 BKN070 FM172200 18004KT P6SM
                       -RA SCT025 OVC050 FM180300 VRB03KT P6SM
                       -RA OVC019=
201812170533 TAF KCLM 170533Z 1706/1806 VRB03KT P6SM VCSH BKN035 OVC045 FM170900
                       25004KT P6SM VCSH BKN020 BKN050 FM171200
                       VRB03KT P6SM VCSH BKN050 FM171600 VRB03KT
                       P6SM SCT030 BKN070 FM172200 18004KT P6SM
                       -RA SCT025 OVC050 FM180300 VRB03KT P6SM
                       -RA OVC019=
201812162323 TAF KCLM 162323Z 1700/1724 VRB03KT P6SM -RA SCT025 OVC060 FM170400
                       26005KT 6SM -SHRA BKN025 OVC050 FM171000
                       24003KT P6SM SCT030 BKN060 FM172200 10005KT
                       P6SM -RA SCT030 OVC050=
201812161722 TAF KCLM 161722Z 1618/1718 VRB03KT P6SM -RA SCT025 OVC060 FM170000
                       VRB03KT P6SM -RA BKN025 OVC050 FM170400
                       26005KT 6SM -RA BKN025 OVC050 FM171000 24003KT
                       P6SM SCT030 BKN060=
201812161135 TAF KCLM 161135Z 1612/1712 10007KT P6SM -RA SCT035 OVC060 FM161600
                       00000KT P6SM -RA OVC019 FM170000 VRB03KT
                       P6SM -RA BKN025 OVC050 FM170400 26005KT
                       6SM -RA BKN025 OVC050=
201812160524 TAF KCLM 160524Z 1606/1706 10007KT P6SM -RA SCT035 OVC060 FM161600
                       00000KT P6SM -RA OVC019 FM170000 VRB03KT
                       P6SM -RA BKN025 OVC050 FM170400 26005KT
                       6SM -RA BKN025 OVC050=
201812152325 TAF KCLM 152325Z 1600/1624 07004KT P6SM SCT060 OVC100 FM160400
                       VRB03KT P6SM -RA SCT035 OVC060 FM161500
                       VRB03KT P6SM -RA SCT020 OVC030=
201812151722 TAF KCLM 151722Z 1518/1618 10006KT P6SM SCT070 BKN120 OVC200 FM160300
                       VRB03KT P6SM -RA SCT040 OVC070 FM161500
                       VRB03KT P6SM -RA SCT020 OVC030=
201812151120 TAF KCLM 151120Z 1512/1612 23007KT P6SM VCSH SCT030 BKN070 BKN100
                       FM151600 VRB04KT P6SM SCT060 BKN100 FM152000
                       13007KT P6SM SCT060 OVC100 FM160300 15005KT
                       P6SM -RA BKN040 OVC060=
201812150633 KCLM 150633Z 1507/1606 26010KT P6SM VCSH SCT030 BKN070 BKN100 FM151600
                       VRB04KT P6SM SCT060 BKN100 FM152000 13007KT
                       P6SM SCT060 OVC100 FM160300 15005KT P6SM
                       -RA BKN040 OVC060=
201812150529 TAF KCLM 150529Z 1506/1606 26010KT P6SM VCSH SCT030 BKN070 BKN100
                       FM151600 VRB04KT P6SM SCT060 BKN100 FM152000
                       13007KT P6SM SCT060 OVC100 FM160300 15005KT
                       P6SM -RA BKN040 OVC060=
201812142340 TAF KCLM 142340Z 1500/1524 21013G25KT P6SM -RA BKN060 OVC100 FM150400
                       27012G22KT P6SM VCSH SCT020 OVC060 FM150700
                       26010KT P6SM SCT020 OVC050 FM151200 24006KT
                       P6SM BKN060 BKN100 FM151800 VRB04KT P6SM
                       BKN100=
201812141737 TAF KCLM 141737Z 1418/1518 21015G30KT P6SM VCSH BKN100 FM141900
                       20012G28KT P6SM -RA BKN030 OVC050 FM150000
                       27019G27KT P6SM -SHRA BKN020 OVC050 FM150400
                       27016G25KT P6SM VCSH SCT020 BKN060 FM150800
                       26010KT P6SM SCT020 OVC060 FM151200 24006KT
                       P6SM BKN100=
201812141623 KCLM 141623Z 1416/1512 21015G30KT P6SM VCSH SCT100 FM141700 20012G28KT
                       P6SM -RA BKN030 OVC050 FM150000 27019G27KT
                       P6SM -RA BKN020 OVC050 FM150600 27016G25KT
                       P6SM SCT020 BKN060 FM150800 26010KT P6SM
                       SCT020 OVC060=
201812141123 TAF KCLM 141123Z 1412/1512 VRB03KT P6SM FEW007 SCT030 BKN250 FM141700
                       VRB04KT P6SM -RA BKN030 OVC050 WS020/18030KT
                       FM150000 27019G27KT P6SM -RA BKN020 OVC050
                       FM150600 27016G25KT P6SM SCT020 BKN060 FM150800
                       26010KT P6SM SCT020 OVC060=
201812140556 KCLM 140556Z 1406/1506 VRB03KT 5SM BR SCT005 BKN060 OVC070
                      TEMPO 1406/1410 1SM BR OVC004 FM141100 VRB03KT
                       P6SM SCT030 BKN250 FM141700 VRB04KT P6SM
                       -RA BKN030 OVC050 WS020/18030KT FM150000
                       27019G27KT P6SM -RA OVC050=
201812140530 TAF KCLM 140530Z 1406/1506 VRB03KT 1SM BR OVC004 FM141100 VRB03KT
                       P6SM SCT030 BKN250 FM141700 VRB04KT P6SM
                       -RA BKN030 OVC050 WS020/18030KT FM150000
                       27019G27KT P6SM -RA OVC050=
201812140412 KCLM 140412Z 1404/1424 VRB03KT 5SM -SHRA BR BKN004 OVC050 FM140700
                       VRB04KT P6SM VCSH SCT030 BKN080 FM141700
                       VRB04KT P6SM -RA BKN030 OVC050 WS020/18030KT=
201812132344 TAF KCLM 132344Z 1400/1424 VRB04KT P6SM -RA SCT004 OVC050 WS020/18030KT
                       TEMPO 1400/1402 BKN003 FM140300 VRB03KT
                       P6SM -SHRA SCT006 BKN025 OVC050 FM140700
                       VRB04KT P6SM VCSH SCT030 BKN080 FM141700
                       VRB04KT P6SM -RA BKN030 OVC050 WS020/18030KT=
201812131748 TAF KCLM 131748Z 1318/1418 VRB04KT P6SM -RA SCT015 OVC050 WS020/18030KT
                       TEMPO 1318/1320 5SM BR OVC010 FM132000 VRB05KT
                       P6SM -SHRA BKN025 OVC050 FM140800 VRB04KT
                       P6SM VCSH SCT030 BKN080 FM141400 VRB04KT
                       P6SM -RA BKN030 OVC050=
201812131120 TAF KCLM 131120Z 1312/1412 26014G23KT P6SM -RA SCT025 OVC060 WS020/18030KT
                       FM131500 25006KT P6SM -SHRA SCT030 OVC050
                       WS020/18030KT FM140100 VRB04KT P6SM VCSH
                       OVC035=
201812130528 TAF KCLM 130528Z 1306/1406 VRB06KT 6SM -RA BR OVC025 WS020/18030KT
                       FM131500 25006KT P6SM -SHRA OVC018 WS020/18030KT
                       FM140100 VRB05KT P6SM VCSH OVC035=
201812122327 TAF KCLM 122327Z 1300/1324 22011KT P6SM VCSH SCT025 BKN050 FM130100
                       23009KT 6SM -RA BR OVC025 WS020/18030KT
                       FM131500 25006KT P6SM -SHRA OVC018 WS020/18030KT=
201812122035 KCLM 122035Z 1221/1318 22011KT P6SM VCSH FEW025 SCT040 BKN070
                      TEMPO 1221/1222 -SHRA FM122200 29008KT P6SM
                       -RA SCT030 BKN040 FM130300 VRB05KT 6SM -RA
                       BR OVC025 WS020/18025KT FM131500 25006KT
                       P6SM -SHRA OVC018=
201812121731 TAF KCLM 121731Z 1218/1318 26011KT P6SM VCSH FEW025 SCT040 BKN070
                       FM122200 29008KT P6SM -RA SCT030 BKN040
                       FM130300 VRB05KT 6SM -RA BR OVC025 WS020/18025KT
                       FM131500 25006KT P6SM -SHRA OVC018=
201812121131 TAF KCLM 121131Z 1212/1312 26012G20KT P6SM SCT040 BKN070 FM121500
                       26011KT P6SM BKN070 BKN200 FM122200 30008KT
                       P6SM -RA SCT030 BKN050 FM130300 VRB05KT
                       6SM -RA BR OVC025=
201812120522 TAF KCLM 120522Z 1206/1306 26012G20KT P6SM VCSH SCT040 BKN070 FM121600
                       26010KT P6SM OVC050 FM122100 30008KT P6SM
                       VCSH SCT030 BKN050 FM130000 26008G15KT P6SM
                       -RA OVC025=
201812112337 TAF KCLM 112337Z 1200/1224 28010KT 5SM -RA BR SCT008 OVC030 FM120200
                       27012KT P6SM -SHRA BKN015 OVC030 FM120700
                       27015G25KT P6SM VCSH BKN035 BKN050 FM121700
                       26010KT P6SM BKN060 FM122100 33008KT P6SM
                       VCSH SCT030 BKN050=
201812112112 KCLM 112112Z 1121/1218 29012G18KT 5SM RA BR SCT020 OVC040
                      TEMPO 1121/1123 2SM BR FM120100 27017G25KT
                       P6SM -SHRA BKN030 OVC050 FM120800 27020G30KT
                       P6SM VCSH BKN035 BKN060 FM121700 26010KT
                       P6SM SCT060=
201812111746 TAF KCLM 111746Z 1118/1218 18005KT P6SM -RA OVC050 WS020/18040KT
                       FM112000 29012G22KT 6SM -RA BR BKN020 OVC050
                       FM120100 27017G25KT P6SM -SHRA BKN030 OVC050
                       FM120800 27020G30KT P6SM VCSH BKN035 BKN060
                       FM121700 26010KT P6SM SCT060=
201812111120 TAF KCLM 111120Z 1112/1212 VRB06KT P6SM -RA SCT006 OVC035
                      TEMPO 1116/1120 5SM -RA BR BKN005 OVC020
                       FM112000 29008KT 6SM -RA BR BKN020 OVC040
                       FM120100 27014G22KT P6SM -SHRA BKN030 OVC050
                       FM120600 27015G25KT P6SM VCSH BKN035 BKN060=
201812110817 KCLM 110817Z 1108/1206 VRB05KT P6SM -RA SCT010 OVC035
                      TEMPO 1108/1112 6SM -RA BKN007 OVC025 FM111200
                       VRB06KT 5SM -RA BR SCT006 OVC022 FM112000
                       29012G22KT P6SM VCSH BKN040=
201812110520 TAF KCLM 110520Z 1106/1206 09007KT P6SM BKN050 OVC100 FM110800
                       09006KT P6SM -RA OVC040 FM111200 VRB06KT
                       5SM -RA BR OVC025 FM112000 29012G22KT P6SM
                       VCSH BKN040=
201812102320 TAF KCLM 102320Z 1100/1124 09005KT P6SM SCT050 BKN120 BKN200 FM110400
                       09007KT P6SM BKN050 OVC100 FM110800 09006KT
                       P6SM -RA OVC040 FM111200 VRB06KT 5SM -RA
                       BR OVC025 FM112000 29012G22KT P6SM VCSH
                       BKN040=
201812101720 TAF KCLM 101720Z 1018/1118 VRB03KT P6SM BKN050 FM110800 09006KT
                       P6SM -RA OVC040 FM111200 VRB06KT 5SM -RA
                       BR OVC025=
201812101127 TAF KCLM 101127Z 1012/1112 VRB05KT P6SM SCT035 BKN050 FM101800
                       VRB05KT P6SM SCT025 BKN060 FM102200 VRB03KT
                       P6SM SCT050 SCT120 BKN200 FM110600 VRB05KT
                       P6SM BKN040 OVC090 FM111000 VRB04KT P6SM
                       -RA OVC030=
201812100538 TAF KCLM 100538Z 1006/1106 VRB03KT P6SM SCT050
                      TEMPO 1006/1010 2SM BR BKN050 FM101400 24006KT
                       P6SM SCT025 BKN060 FM102200 VRB03KT P6SM
                       SCT050 SCT120=
201812092327 TAF KCLM 092327Z 1000/1024 29006KT P6SM SCT004 OVC070
                      TEMPO 1000/1004 -SHRA BKN004 OVC070 FM100400
                       27008KT P6SM VCSH BKN010 BKN050 BKN080 FM101200
                       25005KT P6SM SCT025 BKN060 BKN100 FM102200
                       VRB03KT P6SM SCT060 SCT150=
201812091722 TAF KCLM 091722Z 0918/1018 22005KT P6SM -RA OVC060 FM092300 VRB05KT
                       P6SM -RA BKN015 OVC025 FM100300 25008KT
                       P6SM VCSH BKN025 BKN050 BKN080 FM101200
                       25005KT P6SM SCT025 BKN060 BKN100=
201812091129 TAF KCLM 091129Z 0912/1012 VRB05KT P6SM OVC050 FM091500 VRB04KT
                       P6SM -RA SCT025 OVC040 FM092100 VRB05KT
                       P6SM -RA OVC025 FM100300 25008KT P6SM VCSH
                       SCT025 BKN050 BKN080=
201812090548 TAF KCLM 090548Z 0906/1006 VRB04KT P6SM BKN015 FM091000 VRB04KT
                       P6SM SCT020 BKN050 OVC200 FM091700 VRB04KT
                       P6SM -RA OVC045 FM100300 25008KT P6SM VCSH
                       SCT025 BKN050 BKN080=
201812090029 KCLM 090029Z 0900/0924 VRB04KT P6SM OVC015 FM091000 VRB04KT P6SM
                       -RA BKN020 OVC040 FM091800 24006KT P6SM
                       VCSH BKN050 BKN080=
201812082347 TAF KCLM 082347Z 0900/0924 26006KT P6SM SCT020 BKN080 FM090200
                       VRB03KT P6SM SCT040 BKN080 FM091000 VRB03KT
                       P6SM -RA OVC040 FM091800 24006KT P6SM VCSH
                       BKN050 BKN080=
201812081955 KCLM 081955Z 0820/0918 25005KT P6SM BKN015 BKN070 FM082200 26006KT
                       P6SM SCT020 BKN080 FM090200 VRB03KT P6SM
                       SCT040 BKN080 FM091000 VRB03KT P6SM -RA
                       OVC030=
201812081753 TAF KCLM 081753Z 0818/0918 24005KT P6SM VCSH BKN060 FM090100 VRB03KT
                       P6SM SCT060 BKN080 FM091000 VRB03KT P6SM
                       -RA OVC030=
201812081120 TAF KCLM 081120Z 0812/0912 24006KT P6SM OVC080 FM081300 VRB03KT
                       P6SM BKN045 BKN070 FM081800 VRB03KT P6SM
                       SCT070 BKN120 OVC200 FM090100 VRB03KT P6SM
                       SCT050 BKN070 FM091000 VRB03KT P6SM VCSH
                       OVC050=
201812080535 TAF KCLM 080535Z 0806/0906 24006KT P6SM OVC080 FM080900 VRB03KT
                       P6SM -RA OVC050 FM081300 VRB03KT P6SM BKN045
                       BKN070 FM081800 VRB03KT P6SM SCT070 BKN120
                       OVC200=
201812072346 TAF KCLM 072346Z 0800/0824 VRB04KT P6SM SCT100 BKN200 FM080800
                       VRB03KT P6SM -RA OVC030 FM081300 VRB04KT
                       P6SM BKN045=
201812071747 TAF KCLM 071747Z 0718/0818 23004KT P6SM SKC FM071900 VRB04KT P6SM
                       SCT200 FM072300 VRB04KT P6SM SCT100 BKN200
                       FM080800 VRB03KT P6SM -RA OVC030 FM081300
                       VRB04KT P6SM BKN045=
201812071120 TAF KCLM 071120Z 0712/0812 23004KT P6SM SKC FM071900 VRB04KT P6SM
                       SCT200 FM072300 VRB04KT P6SM SCT100 BKN200
                       FM080800 VRB03KT P6SM -RA OVC030=
201812070540 TAF KCLM 070540Z 0706/0806 23006KT P6SM SKC FM071900 VRB04KT P6SM
                       SCT200 FM072300 VRB04KT P6SM SCT100 BKN200=
201812062344 TAF KCLM 062344Z 0700/0724 10008KT P6SM SKC FM070900 VRB04KT P6SM
                       SKC FM071800 VRB04KT P6SM SCT200 FM072100
                       VRB04KT P6SM SCT150 BKN200=
201812061736 TAF KCLM 061736Z 0618/0718 VRB04KT P6SM SKC=
201812061120 TAF KCLM 061120Z 0612/0712 22004KT P6SM SKC FM061800 10004KT P6SM
                       SKC FM070200 VRB03KT P6SM SKC=
201812060540 TAF KCLM 060540Z 0606/0706 24006KT P6SM SKC FM061200 VRB03KT P6SM
                       SKC=
201812052334 TAF KCLM 052334Z 0600/0624 10005KT P6SM SKC FM060300 VRB04KT P6SM
                       SKC=
201812051742 TAF KCLM 051742Z 0518/0618 10008KT P6SM SCT020 FM052000 10006KT
                       P6SM SKC FM060300 VRB04KT P6SM SKC=
201812051134 TAF KCLM 051134Z 0512/0612 VRB03KT P6SM BKN020
                      TEMPO 0514/0518 SCT020 FM051800 10008KT P6SM
                       SCT020 FM052000 10006KT P6SM SKC FM060300
                       VRB04KT P6SM SKC=
201812050520 TAF KCLM 050520Z 0506/0606 VRB03KT P6SM SCT020
                      TEMPO 0506/0510 BKN020 FM051000 VRB03KT P6SM
                       BKN020 FM051800 10008KT P6SM SCT020 FM052000
                       10006KT P6SM SKC=
201812042332 TAF KCLM 042332Z 0500/0524 11004KT P6SM FEW027 FM050300 22005KT
                       P6SM SKC=
201812041734 TAF KCLM 041734Z 0418/0518 VRB04KT P6SM SKC=
201812041132 KCLM 041132Z 0412/0512 VRB03KT P6SM SCT025
                      TEMPO 0412/0416 BKN020 FM041800 10007KT P6SM
                       SKC FM050400 VRB04KT P6SM SKC=
201812041123 TAF KCLM 041123Z 0412/0512 VRB03KT P6SM SKC FM041800 10007KT P6SM
                       SKC FM050400 VRB04KT P6SM SKC=
201812040520 TAF KCLM 040520Z 0406/0506 VRB03KT P6SM SKC FM041800 10006KT P6SM
                       SKC=
201812032320 TAF KCLM 032320Z 0400/0424 12003KT P6SM SKC=
201812031958 KCLM 031958Z 0320/0418 09005KT P6SM BKN030 OVC045 FM032300 05005KT
                       P6SM SKC=
201812031720 TAF KCLM 031720Z 0318/0418 24006KT P6SM OVC011 FM032000 08004KT
                       P6SM BKN015 FM032300 05005KT P6SM SKC=
201812031651 KCLM 031651Z 0317/0412 27004KT P6SM OVC009 FM032300 09006KT P6SM
                       SKC FM040500 25004KT P6SM SKC=
201812031122 TAF KCLM 031122Z 0312/0412 24004KT P6SM SCT015 BKN040
                      TEMPO 0312/0316 6SM BR BKN015 FM031600 VRB03KT
                       P6SM BKN020 FM031800 10005KT P6SM SCT020
                       FM032100 09006KT P6SM SKC FM040500 25004KT
                       P6SM SKC=
201812030530 TAF KCLM 030530Z 0306/0406 VRB03KT 5SM BR OVC030 FM031200 21003KT
                       4SM BR OVC020 FM031500 17003KT P6SM BKN020
                       FM031800 10005KT P6SM SCT020 FM032100 09006KT
                       P6SM SKC=
201812030229 KCLM 030229Z 0302/0324 11004KT P6SM OVC030
                      TEMPO 0302/0306 2SM BR FM031200 21003KT 4SM
                       BR OVC025 FM031500 17003KT P6SM BKN050 FM031800
                       10005KT P6SM SKC=
201812022330 TAF KCLM 022330Z 0300/0324 11004KT P6SM OVC030 FM031200 21003KT
                       4SM BR OVC025 FM031500 17003KT P6SM BKN050
                       FM031800 10005KT P6SM SKC=
201812021735 TAF KCLM 021735Z 0218/0318 24004KT P6SM -SHRA SCT011 OVC022 FM022000
                       34004KT P6SM BKN019 FM022300 VRB03KT P6SM
                       SCT250 FM030600 22004KT P6SM SCT050=
201812021122 TAF KCLM 021122Z 0212/0312 VRB04KT P6SM OVC020
                      TEMPO 0212/0216 -SHRA OVC015 FM021700 VRB03KT
                       P6SM BKN030 FM022000 VRB03KT P6SM SCT035
                       FM030300 21003KT P6SM SCT250=
201812020522 TAF KCLM 020522Z 0206/0306 00000KT P6SM OVC020 FM021700 VRB03KT
                       P6SM BKN030 FM022000 VRB03KT P6SM SCT035=
201812012329 TAF KCLM 012329Z 0200/0224 15003KT 3SM -RA BR BKN018 OVC024 FM020500
                       VRB03KT P6SM OVC020 FM021700 00000KT P6SM
                       BKN030 FM022000 VRB03KT P6SM BKN035=
201812011725 TAF KCLM 011725Z 0118/0218 25009KT P6SM VCSH BKN012 OVC018 FM020700
                       23005KT P6SM OVC020 FM021700 18004KT P6SM
                       OVC035=
201812011120 TAF KCLM 011120Z 0112/0212 23005KT P6SM BKN020 OVC050 FM011500
                       04005KT P6SM VCSH OVC020 FM012000 VRB05KT
                       P6SM SCT025 BKN050 FM020500 23004KT P6SM
                       BKN020=
201812010527 TAF KCLM 010527Z 0106/0206 25005KT P6SM VCSH FEW013 BKN022 OVC080
                       FM011000 23005KT P6SM BKN020 OVC050 FM011500
                       04005KT P6SM VCSH OVC020 FM012000 VRB05KT
                       P6SM SCT025 BKN050=