##########################################################
# Query made at 02/16/2025 03:35:19 UTC
# Time interval: from 04/01/2018 00:00  to 04/30/2018 23:59  UTC
##########################################################

##########################################################
# KCLM, Port Angeles, William R. Fairchild International Airport (United States)
# WMO index: -----. WIGOS ID: Unknown
# Latitude 48-07-20N. Longitude 123-30-19W. Altitude 87 m.
##########################################################

###################################
#  METAR/SPECI from KCLM
###################################
201804302353 METAR KCLM 302353Z AUTO 00000KT 10SM CLR 13/06 A3015 RMK AO2 SLP209 T01330061 10139 20106 58008=
201804302253 METAR KCLM 302253Z AUTO VRB03KT 10SM CLR 13/06 A3016 RMK AO2 SLP215 T01280061=
201804302153 METAR KCLM 302153Z AUTO VRB03KT 9SM CLR 13/08 A3017 RMK AO2 SLP218 T01330083=
201804302053 METAR KCLM 302053Z AUTO 35005KT 10SM CLR 12/06 A3017 RMK AO2 SLP218 T01220061 50004=
201804301953 METAR KCLM 301953Z AUTO 02003KT 9SM BKN070 12/07 A3017 RMK AO2 SLP218 T01220072=
201804301853 METAR KCLM 301853Z AUTO 01006KT 10SM FEW047 OVC065 11/07 A3017 RMK AO2 SLP217 T01110067=
201804301753 METAR KCLM 301753Z AUTO 35005KT 9SM BKN046 BKN060 OVC095 11/08 A3016 RMK AO2 SLP214 60000 T01110083 10111 20083 51010=
201804301653 METAR KCLM 301653Z AUTO 00000KT 8SM OVC046 11/08 A3015 RMK AO2 SLP210 T01060083=
201804301553 METAR KCLM 301553Z AUTO 00000KT 7SM OVC038 09/08 A3015 RMK AO2 RAE10 SLP209 P0000 T00940083=
201804301453 METAR KCLM 301453Z AUTO 00000KT 7SM -RA OVC036 09/08 A3013 RMK AO2 RAB51 SLP203 P0000 60000 T00940083 53012=
201804301353 METAR KCLM 301353Z AUTO 00000KT 8SM OVC034 09/08 A3011 RMK AO2 SLP196 T00890078=
201804301253 METAR KCLM 301253Z AUTO 24003KT 8SM FEW019 OVC030 09/08 A3009 RMK AO2 RAE33 SLP192 P0000 T00890078=
201804301248 SPECI KCLM 301248Z AUTO 25004KT 8SM FEW019 OVC030 09/08 A3009 RMK AO2 RAE33 P0000=
201804301153 METAR KCLM 301153Z AUTO 25006KT 7SM -RA OVC026 09/07 A3010 RMK AO2 RAB52 SLP192 P0000 60000 70002 T00890072 10089 20083 53005=
201804301053 METAR KCLM 301053Z AUTO 25004KT 10SM BKN029 OVC036 09/08 A3009 RMK AO2 SLP189 T00890078=
201804301051 SPECI KCLM 301051Z AUTO 25004KT 10SM BKN029 OVC038 09/08 A3009 RMK AO2=
201804300953 METAR KCLM 300953Z AUTO 25003KT 10SM OVC036 09/08 A3008 RMK AO2 SLP187 T00890083=
201804300853 METAR KCLM 300853Z AUTO 24004KT 10SM OVC040 09/08 A3007 RMK AO2 SLP185 T00890083 51004=
201804300753 METAR KCLM 300753Z AUTO 24004KT 10SM OVC046 09/08 A3007 RMK AO2 SLP184 T00890083 401170061=
201804300653 METAR KCLM 300653Z AUTO 00000KT 7SM FEW035 OVC046 09/09 A3007 RMK AO2 SLP182 T00890089=
201804300553 METAR KCLM 300553Z AUTO 00000KT 10SM OVC050 09/08 A3006 RMK AO2 RAE08 SLP180 P0000 60002 T00890083 10106 20089 51007=
201804300453 METAR KCLM 300453Z AUTO 00000KT 7SM -RA OVC050 09/08 A3006 RMK AO2 RAB40 SLP179 P0002 T00940083=
201804300353 METAR KCLM 300353Z AUTO 00000KT 9SM BKN055 OVC070 09/08 A3005 RMK AO2 SLP177 T00890083=
201804300253 METAR KCLM 300253Z AUTO 25003KT 8SM BKN048 OVC060 09/08 A3004 RMK AO2 RAB0158E22 SLP173 P0000 60000 T00940078 53001=
201804300153 METAR KCLM 300153Z AUTO 32003KT 7SM OVC047 10/07 A3004 RMK AO2 SLP172 T01000072=
201804300053 METAR KCLM 300053Z AUTO 00000KT 9SM SCT042 OVC060 11/07 A3004 RMK AO2 RAE2358 SLP172 P0000 T01060072=
201804292353 METAR KCLM 292353Z AUTO 35003KT 7SM -RA FEW040 OVC060 11/07 A3004 RMK AO2 RAB47 SLP173 P0000 60000 T01060072 10117 20094 53002=
201804292253 METAR KCLM 292253Z AUTO VRB05KT 10SM SCT041 OVC049 11/07 A3003 RMK AO2 SLP171 T01060072=
201804292153 METAR KCLM 292153Z AUTO 00000KT 9SM SCT043 OVC055 12/08 A3004 RMK AO2 SLP172 T01170078=
201804292053 METAR KCLM 292053Z AUTO 03005KT 10SM OVC047 11/07 A3003 RMK AO2 SLP171 T01060067 53002=
201804291953 METAR KCLM 291953Z AUTO VRB04KT 10SM FEW018 OVC060 11/07 A3002 RMK AO2 SLP168 T01110072=
201804291951 SPECI KCLM 291951Z AUTO VRB04KT 10SM SCT018 OVC060 11/07 A3002 RMK AO2=
201804291902 SPECI KCLM 291902Z AUTO VRB03KT 10SM OVC015 11/07 A3003 RMK AO2 T01060072=
201804291853 METAR KCLM 291853Z AUTO VRB03KT 10SM OVC014 10/07 A3003 RMK AO2 SLP169 T01000067=
201804291753 METAR KCLM 291753Z AUTO 36004KT 10SM OVC014 10/07 A3002 RMK AO2 SLP168 T01000067 10100 20061 51009=
201804291738 SPECI KCLM 291738Z AUTO VRB04KT 10SM OVC015 10/07 A3002 RMK AO2 T01000072=
201804291653 METAR KCLM 291653Z AUTO VRB03KT 10SM OVC013 09/07 A3002 RMK AO2 SLP165 T00940072=
201804291646 SPECI KCLM 291646Z AUTO 02003KT 10SM OVC013 09/07 A3002 RMK AO2 T00940072=
201804291553 METAR KCLM 291553Z AUTO 32003KT 10SM SCT012 OVC017 09/07 A3001 RMK AO2 SLP163 T00890072=
201804291535 SPECI KCLM 291535Z AUTO 30003KT 10SM OVC016 09/08 A3001 RMK AO2 T00890078=
201804291453 METAR KCLM 291453Z AUTO 00000KT 10SM OVC012 08/08 A3000 RMK AO2 SLP158 T00830078 53008=
201804291434 SPECI KCLM 291434Z AUTO 00000KT 7SM BKN014 OVC060 07/07 A2999 RMK AO2 T00720072=
201804291353 METAR KCLM 291353Z AUTO 00000KT 6SM BR OVC055 07/07 A2998 RMK AO2 SLP154 T00670067=
201804291313 SPECI KCLM 291313Z AUTO 00000KT 8SM SCT014 BKN060 07/07 A2997 RMK AO2 T00670067=
201804291253 METAR KCLM 291253Z AUTO 23003KT 10SM OVC013 07/07 A2998 RMK AO2 SLP151 T00720072=
201804291230 SPECI KCLM 291230Z AUTO 24005KT 10SM BKN012 BKN016 BKN055 07/07 A2998 RMK AO2 T00670067=
201804291153 METAR KCLM 291153Z AUTO 00000KT 8SM OVC060 07/07 A2997 RMK AO2 SLP151 70037 T00670067 10083 20061 51003=
201804291053 METAR KCLM 291053Z AUTO 00000KT 10SM FEW060 BKN110 07/06 A2997 RMK AO2 SLP151 T00670061=
201804290953 METAR KCLM 290953Z AUTO 23003KT 7SM FEW016 FEW036 BKN110 07/07 A2997 RMK AO2 SLP149 T00720067=
201804290853 METAR KCLM 290853Z AUTO VRB03KT 10SM SCT031 BKN095 07/07 A2996 RMK AO2 SLP147 T00720072 55000=
201804290837 SPECI KCLM 290837Z AUTO 24003KT 10SM OVC030 08/07 A2996 RMK AO2 T00780072=
201804290753 METAR KCLM 290753Z AUTO 00000KT 10SM BKN027 OVC090 08/07 A2996 RMK AO2 SLP146 T00780072 401000078=
201804290726 SPECI KCLM 290726Z AUTO 28005KT 10SM SCT025 OVC100 08/07 A2996 RMK AO2 T00780072=
201804290653 METAR KCLM 290653Z AUTO 24004KT 10SM FEW014 BKN025 OVC075 08/07 A2996 RMK AO2 SLP147 T00830072=
201804290648 SPECI KCLM 290648Z AUTO 25003KT 10SM SCT014 BKN025 OVC080 08/07 A2996 RMK AO2=
201804290553 METAR KCLM 290553Z AUTO 30005KT 10SM OVC010 08/08 A2996 RMK AO2 SLP147 60000 T00830078 10094 20078 50004=
201804290548 SPECI KCLM 290548Z AUTO 31006KT 10SM BKN010 OVC100 08/08 A2996 RMK AO2=
201804290538 SPECI KCLM 290538Z AUTO 30005KT 10SM BKN009 BKN032 OVC100 08/08 A2996 RMK AO2 T00830078=
201804290453 METAR KCLM 290453Z AUTO 29005KT 10SM FEW009 SCT020 SCT031 08/08 A2996 RMK AO2 SLP147 T00830078=
201804290439 SPECI KCLM 290439Z AUTO 29005KT 10SM SCT009 OVC019 08/08 A2996 RMK AO2 T00830078=
201804290353 METAR KCLM 290353Z AUTO 27005KT 10SM OVC007 08/08 A2995 RMK AO2 CIG 005V011 SLP142 T00830078=
201804290253 METAR KCLM 290253Z AUTO 30004KT 10SM OVC007 09/08 A2994 RMK AO2 CIG 005V010 SLP140 60000 T00890083 55002=
201804290153 METAR KCLM 290153Z AUTO 33003KT 10SM BKN007 OVC011 09/09 A2994 RMK AO2 CIG 005V010 SLP140 T00890089=
201804290053 METAR KCLM 290053Z AUTO 31004KT 10SM BKN007 OVC011 09/09 A2995 RMK AO2 RAE11 SLP141 P0000 T00890089=
201804282353 METAR KCLM 282353Z AUTO 30005KT 6SM -RA BR OVC008 09/09 A2995 RMK AO2 RAE29B46 CIG 005V012 SLP142 P0002 60015 T00890089 10100 20089 58001=
201804282253 METAR KCLM 282253Z AUTO 30007KT 6SM -RA BR BKN007 OVC011 09/09 A2995 RMK AO2 SLP143 P0003 T00890089=
201804282153 METAR KCLM 282153Z AUTO 31006KT 4SM -RA BR BKN005 BKN010 OVC055 09/09 A2996 RMK AO2 SLP145 P0003 T00890089=
201804282146 SPECI KCLM 282146Z AUTO 32006KT 5SM -RA BR BKN005 BKN010 OVC055 09/09 A2996 RMK AO2 P0003 T00890089=
201804282124 SPECI KCLM 282124Z AUTO 33007KT 4SM -RA BR OVC004 09/09 A2996 RMK AO2 P0002 T00940089=
201804282053 METAR KCLM 282053Z AUTO 31009KT 7SM -RA BKN006 BKN037 OVC049 09/09 A2995 RMK AO2 SLP143 P0001 60007 T00940089 50001=
201804282036 SPECI KCLM 282036Z AUTO VRB04KT 6SM -RA BR BKN006 BKN048 OVC060 10/09 A2995 RMK AO2 P0001 T01000089=
201804281953 METAR KCLM 281953Z AUTO 31004KT 5SM -RA BR FEW006 OVC060 10/09 A2995 RMK AO2 SLP144 P0003 T01000094=
201804281907 SPECI KCLM 281907Z AUTO 32006KT 7SM -RA SCT009 OVC055 09/08 A2996 RMK AO2 P0001 T00940083=
201804281853 METAR KCLM 281853Z AUTO 31004KT 6SM -RA BR BKN009 BKN012 OVC055 09/09 A2995 RMK AO2 SLP144 P0003 T00940089=
201804281849 SPECI KCLM 281849Z AUTO 32006KT 6SM -RA BR BKN009 OVC055 09/09 A2996 RMK AO2 P0003=
201804281800 SPECI KCLM 281800Z AUTO 29005KT 5SM -RA BR SCT006 OVC060 10/09 A2995 RMK AO2 P0001 T01000094=
201804281753 METAR KCLM 281753Z AUTO 30005KT 4SM -RA BR SCT004 BKN009 OVC060 09/09 A2995 RMK AO2 SLP142 P0003 60022 T00940089 10094 20089 51004=
201804281703 SPECI KCLM 281703Z AUTO 33004KT 5SM -RA BR BKN004 BKN060 OVC075 09/09 A2995 RMK AO2 P0000 T00940089=
201804281653 METAR KCLM 281653Z AUTO 29004KT 6SM -RA BR BKN005 BKN060 OVC075 09/09 A2994 RMK AO2 RAB50 SLP140 P0000 T00940094=
201804281643 SPECI KCLM 281643Z AUTO 31003KT 10SM SCT005 BKN060 OVC075 09/09 A2994 RMK AO2 T00940089=
201804281601 SPECI KCLM 281601Z AUTO 30005KT 7SM OVC004 09/09 A2994 RMK AO2 T00940089=
201804281553 METAR KCLM 281553Z AUTO 30004KT 6SM BR OVC005 09/09 A2994 RMK AO2 RAE44 SLP140 P0003 T00890089=
201804281511 SPECI KCLM 281511Z AUTO 29006KT 3SM -RA BR BKN005 OVC043 09/09 A2994 RMK AO2 P0001 T00890089=
201804281453 METAR KCLM 281453Z AUTO 29005KT 2 1/2SM -RA BR BKN005 BKN011 OVC045 09/09 A2994 RMK AO2 SLP138 P0008 60016 T00890089 55003=
201804281442 SPECI KCLM 281442Z AUTO 00000KT 2 1/2SM -RA BR SCT005 BKN009 OVC043 09/09 A2994 RMK AO2 P0006 T00890089=
201804281432 SPECI KCLM 281432Z AUTO 00000KT 3SM -RA BR BKN005 OVC043 09/09 A2994 RMK AO2 P0005 T00890089=
201804281422 SPECI KCLM 281422Z AUTO 28003KT 2 1/2SM -RA BR SCT005 OVC043 09/09 A2994 RMK AO2 P0005 T00890089=
201804281409 SPECI KCLM 281409Z AUTO 28004KT 1 1/2SM -RA BR FEW005 FEW012 OVC045 09/09 A2994 RMK AO2 P0003 T00890089=
201804281359 SPECI KCLM 281359Z AUTO 30003KT 2 1/2SM -RA BR FEW007 OVC049 09/09 A2994 RMK AO2 P0000 T00890089=
201804281353 METAR KCLM 281353Z AUTO 00000KT 4SM -RA BR OVC049 09/09 A2994 RMK AO2 SLP138 P0007 T00890089=
201804281306 SPECI KCLM 281306Z AUTO 29006KT 6SM -RA BR FEW009 OVC055 09/08 A2993 RMK AO2 P0000 T00890083=
201804281253 METAR KCLM 281253Z AUTO 28006KT 7SM -RA BKN008 OVC050 09/08 A2993 RMK AO2 SLP136 P0001 T00890083=
201804281153 METAR KCLM 281153Z AUTO 29006KT 6SM -RA BR OVC006 09/09 A2994 RMK AO2 RAB29 SLP141 P0000 60000 T00890089 10100 20089 56005=
201804281053 METAR KCLM 281053Z AUTO 31003KT 4SM BR BKN006 OVC010 09/09 A2995 RMK AO2 CIG 004V008 SLP141 T00890089=
201804281043 SPECI KCLM 281043Z AUTO 00000KT 2SM BR OVC006 09/09 A2994 RMK AO2 T00890089=
201804280953 METAR KCLM 280953Z AUTO 29003KT 7SM OVC007 09/08 A2995 RMK AO2 SLP143 T00890083=
201804280903 SPECI KCLM 280903Z AUTO 29005KT 8SM OVC009 09/08 A2996 RMK AO2 T00940083=
201804280853 METAR KCLM 280853Z AUTO 28004KT 8SM BKN011 OVC031 09/09 A2996 RMK AO2 CIG 007V012 SLP146 T00940089 58008=
201804280837 SPECI KCLM 280837Z AUTO 28004KT 6SM BR BKN010 OVC030 09/09 A2997 RMK AO2 T00940089=
201804280811 SPECI KCLM 280811Z AUTO 27005KT 4SM BR OVC009 09/08 A2997 RMK AO2 CIG 008V012 T00940083=
201804280753 METAR KCLM 280753Z AUTO 29006KT 5SM BR OVC011 09/08 A2998 RMK AO2 SLP152 T00940083 401330089=
201804280653 METAR KCLM 280653Z AUTO 28008KT 9SM BKN014 OVC020 10/08 A2997 RMK AO2 SLP150 T01000083=
201804280648 SPECI KCLM 280648Z AUTO 28007KT 9SM BKN014 OVC020 10/08 A2998 RMK AO2=
201804280603 SPECI KCLM 280603Z AUTO 29009KT 9SM OVC016 10/08 A2999 RMK AO2 T01000083=
201804280553 METAR KCLM 280553Z AUTO 30011KT 9SM OVC014 10/08 A2999 RMK AO2 SLP155 T01000083 10111 20100 50003=
201804280503 SPECI KCLM 280503Z AUTO 30008KT 10SM OVC011 10/08 A2999 RMK AO2 T01000083=
201804280453 METAR KCLM 280453Z AUTO 31007KT 10SM OVC009 10/08 A2999 RMK AO2 CIG 008V012 SLP155 T01000083=
201804280448 SPECI KCLM 280448Z AUTO 30006KT 10SM OVC009 10/09 A2999 RMK AO2 CIG 008V012=
201804280353 METAR KCLM 280353Z AUTO 29006KT 10SM OVC012 10/09 A2998 RMK AO2 SLP152 T01000089=
201804280331 SPECI KCLM 280331Z AUTO 30008G16KT 270V330 10SM OVC014 11/08 A2997 RMK AO2 T01060083=
201804280253 METAR KCLM 280253Z AUTO 30008KT 9SM OVC016 11/08 A2995 RMK AO2 SLP143 T01060083 51011=
201804280153 METAR KCLM 280153Z AUTO 31010KT 9SM OVC016 11/08 A2994 RMK AO2 SLP140 T01060083=
201804280122 SPECI KCLM 280122Z AUTO 30012G19KT 10SM OVC015 11/08 A2994 RMK AO2 T01060083=
201804280053 METAR KCLM 280053Z AUTO 30011G21KT 10SM OVC013 11/09 A2994 RMK AO2 SLP140 T01060089=
201804272353 METAR KCLM 272353Z AUTO 30012G19KT 10SM OVC014 11/09 A2992 RMK AO2 SLP131 T01110089 10133 20111 51010=
201804272253 METAR KCLM 272253Z AUTO 31012G18KT 9SM OVC011 11/09 A2991 RMK AO2 SLP128 T01110089=
201804272153 METAR KCLM 272153Z AUTO 30009KT 8SM OVC010 11/09 A2991 RMK AO2 SLP128 T01110094=
201804272112 SPECI KCLM 272112Z AUTO 30011KT 10SM BKN012 12/09 A2989 RMK AO2 T01220089=
201804272053 METAR KCLM 272053Z AUTO 31012G16KT 10SM FEW012 13/09 A2989 RMK AO2 SLP121 T01280094 55003=
201804271953 METAR KCLM 271953Z AUTO 34007KT 10SM CLR 13/09 A2988 RMK AO2 SLP118 T01280094=
201804271936 SPECI KCLM 271936Z AUTO 31011G14KT 10SM SCT012 13/09 A2988 RMK AO2 T01280094=
201804271853 METAR KCLM 271853Z AUTO 32009KT 10SM OVC011 12/09 A2989 RMK AO2 SLP121 T01220094=
201804271817 SPECI KCLM 271817Z AUTO 31010KT 10SM OVC010 12/09 A2990 RMK AO2 T01170094=
201804271753 METAR KCLM 271753Z AUTO 30008KT 10SM OVC009 11/09 A2990 RMK AO2 SLP125 T01110094 10111 20089 53001=
201804271653 METAR KCLM 271653Z AUTO 32006KT 9SM OVC006 11/09 A2989 RMK AO2 CIG 005V010 SLP123 T01060089=
201804271553 METAR KCLM 271553Z AUTO 31010KT 8SM OVC006 10/09 A2989 RMK AO2 SLP122 T01000089=
201804271509 SPECI KCLM 271509Z AUTO 29009KT 7SM OVC005 09/09 A2989 RMK AO2 T00940089=
201804271453 METAR KCLM 271453Z AUTO 30009KT 7SM OVC004 09/09 A2989 RMK AO2 SLP124 T00940089 58000=
201804271353 METAR KCLM 271353Z AUTO 30010KT 4SM BR OVC003 09/09 A2989 RMK AO2 SLP124 T00890089=
201804271253 METAR KCLM 271253Z AUTO 29010KT 3SM BR OVC002 09/09 A2990 RMK AO2 SLP124 T00890089=
201804271214 SPECI KCLM 271214Z AUTO 28008KT 3SM BR OVC002 09/09 A2990 RMK AO2 T00890089=
201804271153 METAR KCLM 271153Z AUTO 30007KT 2 1/2SM BR OVC002 09/09 A2990 RMK AO2 SLP123 T00890089 10089 20083 55004=
201804271149 SPECI KCLM 271149Z AUTO 30006KT 2SM BR OVC002 09/09 A2989 RMK AO2=
201804271102 SPECI KCLM 271102Z AUTO 29008KT 1 1/2SM BR OVC002 09/09 A2989 RMK AO2 T00890089=
201804271053 METAR KCLM 271053Z AUTO 30006KT 1 1/2SM BR OVC001 09/09 A2989 RMK AO2 SLP122 T00890089=
201804270953 METAR KCLM 270953Z AUTO 30007KT 1 1/4SM BR OVC001 09/09 A2991 RMK AO2 SLP127 T00890089=
201804270900 SPECI KCLM 270900Z AUTO 30007KT 1SM BR OVC001 09/09 A2992 RMK AO2 T00890089=
201804270853 METAR KCLM 270853Z AUTO 29009KT 3/4SM BR OVC001 09/09 A2992 RMK AO2 SLP132 T00890089 50002=
201804270840 SPECI KCLM 270840Z AUTO 29006KT 3/4SM BR OVC001 09/09 A2992 RMK AO2 T00890089=
201804270809 SPECI KCLM 270809Z AUTO 29007KT 1 1/2SM BR OVC002 09/09 A2993 RMK AO2 T00890089=
201804270753 METAR KCLM 270753Z AUTO 29007KT 2 1/2SM BR OVC002 09/09 A2992 RMK AO2 SLP133 T00890089 402390056=
201804270653 METAR KCLM 270653Z AUTO 30006KT 4SM BR OVC003 09/09 A2992 RMK AO2 SLP133 T00890089=
201804270602 SPECI KCLM 270602Z AUTO 30007KT 5SM BR BKN004 09/08 A2992 RMK AO2 T00890083=
201804270553 METAR KCLM 270553Z AUTO 30005KT 6SM BR SCT004 09/08 A2992 RMK AO2 SLP130 T00890083 10239 20089 58001=
201804270536 SPECI KCLM 270536Z AUTO 29005KT 6SM BR FEW004 09/08 A2992 RMK AO2 T00890083=
201804270453 METAR KCLM 270453Z AUTO 30006KT 8SM CLR 09/08 A2992 RMK AO2 SLP132 T00940083=
201804270353 METAR KCLM 270353Z AUTO 30006KT 10SM CLR 11/08 A2992 RMK AO2 SLP133 T01060078=
201804270253 METAR KCLM 270253Z AUTO 29003KT 10SM CLR 12/08 A2992 RMK AO2 SLP132 T01220083 56012=
201804270153 METAR KCLM 270153Z AUTO 30005KT 10SM CLR 15/07 A2993 RMK AO2 SLP135 T01500072=
201804270053 METAR KCLM 270053Z AUTO 13004KT 10SM CLR 23/02 A2994 RMK AO2 SLP137 T02280022=
201804262353 METAR KCLM 262353Z AUTO VRB05KT 10SM CLR 22/03 A2995 RMK AO2 SLP143 T02220028 10222 20172 58021=
201804262253 METAR KCLM 262253Z AUTO 09006KT 10SM CLR 21/03 A2998 RMK AO2 SLP150 T02110033=
201804262153 METAR KCLM 262153Z AUTO 11006KT 10SM CLR 20/04 A3000 RMK AO2 SLP158 T02000039=
201804262053 METAR KCLM 262053Z AUTO 10006KT 10SM CLR 20/04 A3002 RMK AO2 SLP164 T02000044 58014=
201804261953 METAR KCLM 261953Z AUTO 10006KT 10SM CLR 19/04 A3003 RMK AO2 SLP170 T01890039=
201804261853 METAR KCLM 261853Z AUTO 08004KT 10SM CLR 18/04 A3005 RMK AO2 SLP175 T01830039=
201804261753 METAR KCLM 261753Z AUTO 07006KT 10SM CLR 17/04 A3006 RMK AO2 SLP178 T01720044 10178 20056 58004=
201804261653 METAR KCLM 261653Z AUTO 10005KT 10SM CLR 17/04 A3007 RMK AO2 SLP182 T01670044=
201804261553 METAR KCLM 261553Z AUTO 00000KT 10SM CLR 16/05 A3007 RMK AO2 SLP183 T01560050=
201804261453 METAR KCLM 261453Z AUTO 00000KT 10SM CLR 12/07 A3007 RMK AO2 SLP183 T01220067 55000=
201804261353 METAR KCLM 261353Z AUTO 23003KT 10SM CLR 07/04 A3007 RMK AO2 SLP182 T00720044=
201804261253 METAR KCLM 261253Z AUTO 23005KT 10SM CLR 08/03 A3007 RMK AO2 SLP183 T00780033=
201804261153 METAR KCLM 261153Z AUTO 00000KT 10SM CLR 08/03 A3007 RMK AO2 SLP183 T00780033 10128 20061 56001=
201804261053 METAR KCLM 261053Z AUTO 23009KT 10SM CLR 11/03 A3007 RMK AO2 SLP184 T01110033=
201804260953 METAR KCLM 260953Z AUTO 23008KT 10SM CLR 11/04 A3007 RMK AO2 SLP181 T01110039=
201804260853 METAR KCLM 260853Z AUTO 24009KT 10SM CLR 12/04 A3007 RMK AO2 SLP184 T01170039 58001=
201804260753 METAR KCLM 260753Z AUTO 23007KT 10SM CLR 11/04 A3008 RMK AO2 SLP186 T01110039 402110050=
201804260653 METAR KCLM 260653Z AUTO 24008KT 10SM CLR 12/04 A3008 RMK AO2 SLP186 T01170039=
201804260553 METAR KCLM 260553Z AUTO 23007KT 10SM CLR 13/03 A3008 RMK AO2 SLP185 T01280033 10211 20106 52001=
201804260453 METAR KCLM 260453Z AUTO 22006KT 10SM CLR 13/04 A3008 RMK AO2 SLP186 T01280044=
201804260353 METAR KCLM 260353Z AUTO 20003KT 10SM CLR 12/08 A3007 RMK AO2 SLP183 T01170078=
201804260253 METAR KCLM 260253Z AUTO 15003KT 10SM CLR 17/06 A3008 RMK AO2 SLP184 T01670056 58013=
201804260153 METAR KCLM 260153Z AUTO 11004KT 10SM CLR 19/03 A3009 RMK AO2 SLP187 T01890028=
201804260053 METAR KCLM 260053Z AUTO 09003KT 10SM CLR 21/02 A3010 RMK AO2 SLP193 T02060017=
201804252353 METAR KCLM 252353Z AUTO 07006KT 10SM CLR 21/02 A3011 RMK AO2 SLP197 T02060022 10211 20161 58016=
201804252253 METAR KCLM 252253Z AUTO 11007KT 10SM CLR 20/03 A3013 RMK AO2 SLP203 T02000028=
201804252153 METAR KCLM 252153Z AUTO 08007KT 10SM CLR 19/03 A3014 RMK AO2 SLP207 T01890028=
201804252053 METAR KCLM 252053Z AUTO 11005KT 10SM CLR 19/03 A3016 RMK AO2 SLP212 T01890033 58005=
201804251953 METAR KCLM 251953Z AUTO 08005KT 10SM CLR 18/04 A3017 RMK AO2 SLP216 T01780039=
201804251853 METAR KCLM 251853Z AUTO 10009KT 10SM CLR 17/04 A3017 RMK AO2 SLP218 T01670039=
201804251753 METAR KCLM 251753Z AUTO 08008KT 10SM CLR 17/04 A3017 RMK AO2 SLP217 T01670044 10167 20050 51006=
201804251653 METAR KCLM 251653Z AUTO 09009KT 10SM CLR 15/05 A3017 RMK AO2 SLP216 T01500050=
201804251553 METAR KCLM 251553Z AUTO 10006KT 10SM CLR 16/05 A3016 RMK AO2 SLP214 T01560050=
201804251453 METAR KCLM 251453Z AUTO 13008KT 10SM CLR 14/04 A3016 RMK AO2 SLP211 T01390044 53015=
201804251353 METAR KCLM 251353Z AUTO 00000KT 10SM CLR 07/03 A3014 RMK AO2 SLP207 T00720033=
201804251253 METAR KCLM 251253Z AUTO 22006KT 10SM CLR 07/03 A3012 RMK AO2 SLP200 T00720028=
201804251153 METAR KCLM 251153Z AUTO VRB03KT 10SM CLR 06/02 A3011 RMK AO2 SLP198 T00560022 10117 20050 51006=
201804251053 METAR KCLM 251053Z AUTO 23007KT 10SM CLR 09/03 A3011 RMK AO2 SLP196 T00890028=
201804250953 METAR KCLM 250953Z AUTO 23008KT 10SM CLR 10/03 A3011 RMK AO2 SLP195 T01000028=
201804250853 METAR KCLM 250853Z AUTO 23006KT 10SM CLR 10/03 A3009 RMK AO2 SLP190 T01000028 58003=
201804250753 METAR KCLM 250753Z AUTO 23009KT 10SM CLR 11/03 A3010 RMK AO2 SLP192 T01110033 401890022=
201804250653 METAR KCLM 250653Z AUTO 24008KT 10SM CLR 11/03 A3010 RMK AO2 SLP193 T01110033=
201804250553 METAR KCLM 250553Z AUTO 23007KT 10SM CLR 12/02 A3010 RMK AO2 SLP194 T01170022 10189 20094 50006=
201804250453 METAR KCLM 250453Z AUTO 00000KT 10SM CLR 11/03 A3011 RMK AO2 SLP196 T01060033=
201804250353 METAR KCLM 250353Z AUTO 20003KT 10SM CLR 13/05 A3009 RMK AO2 SLP191 T01280050=
201804250253 METAR KCLM 250253Z AUTO 00000KT 10SM CLR 16/05 A3008 RMK AO2 SLP187 T01560050 56015=
201804250153 METAR KCLM 250153Z AUTO 14004KT 10SM CLR 17/04 A3009 RMK AO2 SLP192 T01720044=
201804250053 METAR KCLM 250053Z AUTO 08003KT 10SM CLR 18/03 A3011 RMK AO2 SLP198 T01780028=
201804242353 METAR KCLM 242353Z AUTO 12005KT 10SM CLR 18/03 A3013 RMK AO2 SLP204 T01830033 10183 20139 58023=
201804242253 METAR KCLM 242253Z AUTO 08004KT 10SM CLR 18/02 A3015 RMK AO2 SLP212 T01780017=
201804242153 METAR KCLM 242153Z AUTO 08005KT 10SM CLR 17/03 A3018 RMK AO2 SLP220 T01720028=
201804242053 METAR KCLM 242053Z AUTO 11009KT 10SM CLR 16/04 A3020 RMK AO2 SLP227 T01610039 58015=
201804241953 METAR KCLM 241953Z AUTO 08006KT 10SM CLR 16/04 A3021 RMK AO2 SLP232 T01560039=
201804241853 METAR KCLM 241853Z AUTO 08008KT 10SM CLR 15/04 A3023 RMK AO2 SLP238 T01500044=
201804241753 METAR KCLM 241753Z AUTO 09009KT 10SM CLR 14/04 A3024 RMK AO2 SLP242 T01390039 10139 20022 53001=
201804241653 METAR KCLM 241653Z AUTO 09004KT 10SM CLR 12/04 A3024 RMK AO2 SLP241 T01220044=
201804241553 METAR KCLM 241553Z AUTO 05003KT 10SM CLR 12/05 A3023 RMK AO2 SLP237 T01220050=
201804241453 METAR KCLM 241453Z AUTO 00000KT 10SM CLR 11/05 A3024 RMK AO2 SLP241 T01060050 55001=
201804241353 METAR KCLM 241353Z AUTO 19003KT 10SM CLR 03/02 A3024 RMK AO2 SLP241 T00330017=
201804241253 METAR KCLM 241253Z AUTO 00000KT 10SM CLR 03/01 A3024 RMK AO2 SLP242 T00280011=
201804241153 METAR KCLM 241153Z AUTO VRB03KT 10SM CLR 04/01 A3024 RMK AO2 SLP241 T00440011 10089 20028 55005=
201804241053 METAR KCLM 241053Z AUTO 21003KT 10SM CLR 04/02 A3024 RMK AO2 SLP240 T00440017=
201804240953 METAR KCLM 240953Z AUTO 23007KT 10SM CLR 07/03 A3025 RMK AO2 SLP243 T00720028=
201804240853 METAR KCLM 240853Z AUTO 22005KT 10SM CLR 06/02 A3026 RMK AO2 SLP246 T00560017 58001=
201804240753 METAR KCLM 240753Z AUTO 23007KT 10SM CLR 08/02 A3026 RMK AO2 SLP249 T00830022 401610006=
201804240653 METAR KCLM 240653Z AUTO 00000KT 10SM CLR 06/03 A3026 RMK AO2 SLP249 T00610028=
201804240553 METAR KCLM 240553Z AUTO 19003KT 10SM CLR 06/03 A3026 RMK AO2 SLP247 T00610028 10161 20061 53008=
201804240453 METAR KCLM 240453Z AUTO 00000KT 10SM CLR 08/03 A3025 RMK AO2 SLP244 T00780033=
201804240353 METAR KCLM 240353Z AUTO 17003KT 10SM CLR 11/03 A3024 RMK AO2 SLP240 T01060033=
201804240253 METAR KCLM 240253Z AUTO 12004KT 10SM CLR 13/02 A3023 RMK AO2 SLP238 T01280017 56020=
201804240153 METAR KCLM 240153Z AUTO 10006KT 10SM CLR 16/02 A3025 RMK AO2 SLP243 T01560017=
201804240053 METAR KCLM 240053Z AUTO 10006KT 10SM CLR 16/01 A3027 RMK AO2 SLP252 T01610006=
201804232353 METAR KCLM 232353Z AUTO 11007KT 10SM CLR 16/02 A3029 RMK AO2 SLP258 T01560022 10156 20111 58021=
201804232253 METAR KCLM 232253Z AUTO 08008KT 10SM CLR 15/03 A3031 RMK AO2 SLP265 T01500028=
201804232153 METAR KCLM 232153Z AUTO 10008KT 10SM CLR 14/03 A3034 RMK AO2 SLP273 T01440033=
201804232053 METAR KCLM 232053Z AUTO 08008KT 10SM CLR 14/03 A3035 RMK AO2 SLP280 T01390033 58013=
201804231953 METAR KCLM 231953Z AUTO 10009KT 10SM CLR 13/04 A3037 RMK AO2 SLP288 T01280039=
201804231853 METAR KCLM 231853Z AUTO 08008KT 10SM CLR 11/04 A3039 RMK AO2 SLP292 T01110044=
201804231753 METAR KCLM 231753Z AUTO VRB05KT 10SM CLR 11/06 A3039 RMK AO2 SLP293 T01110056 10111 20017 51003=
201804231653 METAR KCLM 231653Z AUTO 09007KT 10SM CLR 10/05 A3039 RMK AO2 SLP293 T01000050=
201804231553 METAR KCLM 231553Z AUTO 04003KT 10SM CLR 10/03 A3039 RMK AO2 SLP292 T01000033=
201804231453 METAR KCLM 231453Z AUTO 23004KT 10SM CLR 08/02 A3038 RMK AO2 SLP290 T00780017 53004=
201804231353 METAR KCLM 231353Z AUTO 23007KT 10SM CLR 04/M01 A3037 RMK AO2 SLP286 T00441006=
201804231253 METAR KCLM 231253Z AUTO 00000KT 10SM CLR 02/M01 A3037 RMK AO2 SLP285 T00171006=
201804231153 METAR KCLM 231153Z AUTO 23007KT 10SM CLR 03/M01 A3037 RMK AO2 SLP285 T00331006 10067 20006 53001=
201804231053 METAR KCLM 231053Z AUTO 24007KT 10SM CLR 04/M01 A3037 RMK AO2 SLP285 T00391006=
201804230953 METAR KCLM 230953Z AUTO 19003KT 10SM CLR 02/M01 A3037 RMK AO2 SLP285 T00171011=
201804230853 METAR KCLM 230853Z AUTO 23005KT 10SM CLR 03/M01 A3037 RMK AO2 SLP286 T00331006 53001=
201804230753 METAR KCLM 230753Z AUTO 00000KT 10SM CLR 03/M01 A3037 RMK AO2 SLP285 T00281006 401440028=
201804230653 METAR KCLM 230653Z AUTO 25006KT 10SM CLR 06/00 A3036 RMK AO2 SLP282 T00560000=
201804230553 METAR KCLM 230553Z AUTO 25006KT 10SM CLR 07/01 A3037 RMK AO2 SLP284 T00670011 10144 20039 51007=
201804230453 METAR KCLM 230453Z AUTO 25003KT 10SM CLR 05/02 A3036 RMK AO2 SLP283 T00500017=
201804230353 METAR KCLM 230353Z AUTO 00000KT 10SM CLR 09/03 A3036 RMK AO2 SLP281 T00890028=
201804230253 METAR KCLM 230253Z AUTO 12003KT 10SM CLR 11/M02 A3035 RMK AO2 SLP277 T01111017 56008=
201804230153 METAR KCLM 230153Z AUTO 10004KT 10SM CLR 13/01 A3035 RMK AO2 SLP277 T01330011=
201804230053 METAR KCLM 230053Z AUTO 09005KT 10SM CLR 14/01 A3036 RMK AO2 SLP281 T01390011=
201804222353 METAR KCLM 222353Z AUTO VRB04KT 10SM CLR 14/M01 A3037 RMK AO2 SLP285 T01391006 10139 20100 58013=
201804222253 METAR KCLM 222253Z AUTO VRB04KT 10SM CLR 13/01 A3038 RMK AO2 SLP290 T01330006=
201804222153 METAR KCLM 222153Z AUTO 09005KT 10SM CLR 13/00 A3040 RMK AO2 SLP295 T01280000=
201804222053 METAR KCLM 222053Z AUTO 00000KT 10SM CLR 12/02 A3041 RMK AO2 SLP298 T01220017 58008=
201804221953 METAR KCLM 221953Z AUTO 09006KT 10SM CLR 12/03 A3042 RMK AO2 SLP302 T01170033=
201804221853 METAR KCLM 221853Z AUTO 09007KT 10SM CLR 11/03 A3043 RMK AO2 SLP306 T01060028=
201804221753 METAR KCLM 221753Z AUTO 09005KT 10SM CLR 11/02 A3043 RMK AO2 SLP306 T01060022 10106 20039 58002=
201804221653 METAR KCLM 221653Z AUTO VRB04KT 10SM SCT049 10/02 A3043 RMK AO2 SLP307 T01000022=
201804221553 METAR KCLM 221553Z AUTO 00000KT 10SM OVC050 07/02 A3043 RMK AO2 SLP308 T00720022=
201804221453 METAR KCLM 221453Z AUTO 23007KT 10SM OVC048 05/01 A3044 RMK AO2 SLP309 T00500011 53004=
201804221353 METAR KCLM 221353Z AUTO 25009KT 10SM OVC045 04/01 A3043 RMK AO2 SLP308 T00390006=
201804221253 METAR KCLM 221253Z AUTO 25009KT 10SM OVC044 04/00 A3042 RMK AO2 SLP304 T00440000=
201804221153 METAR KCLM 221153Z AUTO 25010KT 10SM CLR 04/00 A3042 RMK AO2 SLP305 T00440000 10056 20044 55001=
201804221053 METAR KCLM 221053Z AUTO 25010KT 10SM CLR 05/01 A3042 RMK AO2 SLP304 T00500006=
201804220953 METAR KCLM 220953Z AUTO 25011KT 10SM CLR 05/01 A3042 RMK AO2 SLP305 T00500006=
201804220853 METAR KCLM 220853Z AUTO 26008KT 10SM CLR 05/01 A3043 RMK AO2 SLP306 T00500011 56005=
201804220753 METAR KCLM 220753Z AUTO 26008KT 10SM CLR 05/02 A3043 RMK AO2 SLP306 T00500017 401220050=
201804220653 METAR KCLM 220653Z AUTO 24007KT 10SM CLR 05/02 A3044 RMK AO2 SLP308 T00500022=
201804220553 METAR KCLM 220553Z AUTO 26006KT 10SM CLR 06/03 A3044 RMK AO2 SLP310 T00560033 10094 20056 50002=
201804220453 METAR KCLM 220453Z AUTO 26004KT 10SM CLR 06/04 A3045 RMK AO2 SLP312 T00610044=
201804220353 METAR KCLM 220353Z AUTO 29006KT 10SM CLR 07/04 A3044 RMK AO2 SLP309 T00670044=
201804220253 METAR KCLM 220253Z AUTO 30007G16KT 10SM CLR 08/04 A3044 RMK AO2 SLP307 T00780039 50003=
201804220153 METAR KCLM 220153Z AUTO 31010KT 10SM CLR 09/03 A3044 RMK AO2 SLP309 T00890033=
201804220053 METAR KCLM 220053Z AUTO 31013G19KT 10SM CLR 09/04 A3043 RMK AO2 SLP306 T00940039=
201804212353 METAR KCLM 212353Z AUTO 30014G21KT 10SM CLR 09/05 A3043 RMK AO2 SLP305 T00940050 10122 20094 51004=
201804212253 METAR KCLM 212253Z AUTO 32014G22KT 10SM CLR 10/05 A3042 RMK AO2 SLP303 T01000050=
201804212153 METAR KCLM 212153Z AUTO 32012G19KT 10SM FEW060 10/05 A3042 RMK AO2 SLP303 T01000050=
201804212053 METAR KCLM 212053Z AUTO 30014G19KT 10SM FEW046 BKN060 BKN070 09/04 A3041 RMK AO2 SLP300 T00940044 53010=
201804211953 METAR KCLM 211953Z AUTO 34008G19KT 10SM FEW070 10/04 A3040 RMK AO2 SLP297 T01000044=
201804211853 METAR KCLM 211853Z AUTO 31009KT 10SM OVC060 11/03 A3039 RMK AO2 SLP293 T01060028=
201804211753 METAR KCLM 211753Z AUTO 28009KT 10SM CLR 12/01 A3038 RMK AO2 SLP290 60000 T01170006 10117 20056 51025=
201804211653 METAR KCLM 211653Z AUTO 29013G20KT 10SM CLR 11/01 A3036 RMK AO2 SLP283 T01060011=
201804211553 METAR KCLM 211553Z AUTO 29007KT 260V320 10SM CLR 09/02 A3034 RMK AO2 SLP274 T00940017=
201804211453 METAR KCLM 211453Z AUTO 28008KT 10SM CLR 08/02 A3031 RMK AO2 SLP265 60000 T00830022 53036=
201804211353 METAR KCLM 211353Z AUTO 30011KT 10SM FEW045 06/03 A3027 RMK AO2 SLP252 T00610028=
201804211253 METAR KCLM 211253Z AUTO 28014KT 10SM FEW026 FEW040 06/03 A3022 RMK AO2 RAE1157B14E25 SLP236 P0000 T00610033=
201804211153 METAR KCLM 211153Z AUTO 27010KT 9SM -RA SCT042 BKN050 OVC080 06/04 A3020 RMK AO2 RAB05E26B43 SLP230 P0002 60003 70005 T00610044 10072 20050 51026=
201804211053 METAR KCLM 211053Z AUTO 28009KT 10SM BKN049 BKN065 07/04 A3019 RMK AO2 SLP223 T00720044=
201804210953 METAR KCLM 210953Z AUTO 27008KT 10SM FEW035 SCT045 BKN055 07/06 A3014 RMK AO2 SLP208 T00720061=
201804210853 METAR KCLM 210853Z AUTO 26008KT 10SM FEW037 BKN055 07/06 A3012 RMK AO2 RAE16B44E53 SLP202 P0001 60001 T00720056 53010=
201804210753 METAR KCLM 210753Z AUTO 24003KT 7SM -RA OVC048 07/06 A3010 RMK AO2 SLP194 P0000 T00670061 401110050=
201804210653 METAR KCLM 210653Z AUTO 00000KT 8SM -RA FEW015 SCT055 OVC075 07/06 A3010 RMK AO2 RAB52 SLP193 P0000 T00670061=
201804210553 METAR KCLM 210553Z AUTO 00000KT 7SM FEW050 BKN090 BKN110 07/06 A3009 RMK AO2 SLP192 60002 T00670061 10094 20061 58018=
201804210453 METAR KCLM 210453Z AUTO 00000KT 10SM OVC050 07/07 A3012 RMK AO2 SLP199 T00720067=
201804210353 METAR KCLM 210353Z AUTO 00000KT 10SM SCT060 BKN110 07/07 A3013 RMK AO2 SLP205 T00720067=
201804210253 METAR KCLM 210253Z AUTO 00000KT 10SM SCT065 OVC085 08/07 A3015 RMK AO2 RAB0157E27 SLP211 P0002 60002 T00780067 56014=
201804210153 METAR KCLM 210153Z AUTO 32003KT 10SM BKN060 OVC075 08/06 A3016 RMK AO2 RAB33E44 SLP215 P0000 T00830061=
201804210053 METAR KCLM 210053Z AUTO 31005KT 10SM OVC070 09/06 A3018 RMK AO2 SLP221 T00890056=
201804202353 METAR KCLM 202353Z AUTO 32005KT 10SM BKN070 BKN085 09/05 A3019 RMK AO2 SLP224 60000 T00940050 10111 20089 58006=
201804202253 METAR KCLM 202253Z AUTO 33004KT 10SM SCT055 BKN065 OVC085 09/04 A3021 RMK AO2 RAB03E41 SLP232 P0000 T00890044=
201804202153 METAR KCLM 202153Z AUTO 29004KT 10SM OVC070 10/03 A3020 RMK AO2 SLP228 T01000028=
201804202053 METAR KCLM 202053Z AUTO VRB03KT 10SM OVC100 10/04 A3021 RMK AO2 SLP230 T01000044 56012=
201804201953 METAR KCLM 201953Z AUTO 01003KT 10SM OVC110 11/04 A3021 RMK AO2 SLP230 T01060044=
201804201853 METAR KCLM 201853Z AUTO VRB03KT 10SM OVC110 11/04 A3022 RMK AO2 SLP234 T01060044=
201804201753 METAR KCLM 201753Z AUTO VRB04KT 10SM BKN110 10/06 A3024 RMK AO2 SLP241 T01000056 10111 20061 58002=
201804201653 METAR KCLM 201653Z AUTO 34003KT 10SM OVC100 10/06 A3024 RMK AO2 SLP242 T01000061=
201804201553 METAR KCLM 201553Z AUTO 00000KT 10SM BKN110 09/04 A3025 RMK AO2 SLP243 T00940039=
201804201453 METAR KCLM 201453Z AUTO 00000KT 10SM SCT120 08/05 A3025 RMK AO2 SLP244 T00780050 52001=
201804201353 METAR KCLM 201353Z AUTO 22003KT 10SM CLR 07/04 A3024 RMK AO2 SLP242 T00670044=
201804201253 METAR KCLM 201253Z AUTO 26005KT 10SM SCT110 06/04 A3025 RMK AO2 SLP244 T00610044=
201804201153 METAR KCLM 201153Z AUTO 24004KT 10SM FEW095 SCT110 07/04 A3025 RMK AO2 SLP243 T00670039 10083 20061 58009=
201804201053 METAR KCLM 201053Z AUTO 26006KT 10SM OVC095 06/04 A3026 RMK AO2 SLP248 T00610039=
201804200953 METAR KCLM 200953Z AUTO 26005KT 10SM OVC095 07/05 A3027 RMK AO2 SLP251 T00720050=
201804200853 METAR KCLM 200853Z AUTO 28004KT 10SM OVC095 07/04 A3027 RMK AO2 SLP252 T00720044 58003=
201804200753 METAR KCLM 200753Z AUTO 28005KT 10SM OVC100 08/05 A3028 RMK AO2 SLP254 T00780050 401330017=
201804200653 METAR KCLM 200653Z AUTO 28005KT 10SM BKN100 07/06 A3028 RMK AO2 SLP253 T00720056=
201804200553 METAR KCLM 200553Z AUTO 27005KT 10SM SCT110 08/06 A3028 RMK AO2 SLP255 T00830056 10128 20078 50003=
201804200453 METAR KCLM 200453Z AUTO 27005KT 10SM FEW120 08/06 A3028 RMK AO2 SLP256 T00830056=
201804200353 METAR KCLM 200353Z AUTO 27005KT 10SM CLR 09/05 A3028 RMK AO2 SLP254 T00890050=
201804200253 METAR KCLM 200253Z AUTO 28008KT 10SM CLR 09/04 A3027 RMK AO2 SLP253 T00940039 53001=
201804200153 METAR KCLM 200153Z AUTO 30009KT 10SM CLR 10/03 A3027 RMK AO2 SLP252 T01000028=
201804200053 METAR KCLM 200053Z AUTO 31011KT 10SM CLR 12/04 A3027 RMK AO2 SLP252 T01170039=
201804192353 METAR KCLM 192353Z AUTO 31009KT 10SM CLR 13/04 A3027 RMK AO2 SLP251 T01280039 10133 20100 58004=
201804192253 METAR KCLM 192253Z AUTO 31007KT 10SM CLR 13/04 A3027 RMK AO2 SLP252 T01330039=
201804192153 METAR KCLM 192153Z AUTO VRB04KT 10SM CLR 12/07 A3028 RMK AO2 SLP255 T01220067=
201804192053 METAR KCLM 192053Z AUTO VRB04KT 10SM CLR 12/06 A3028 RMK AO2 SLP256 T01170061 50000=
201804191953 METAR KCLM 191953Z AUTO VRB05KT 10SM CLR 11/06 A3029 RMK AO2 SLP257 T01110061=
201804191853 METAR KCLM 191853Z AUTO 36005KT 10SM CLR 11/04 A3028 RMK AO2 SLP257 T01060044=
201804191753 METAR KCLM 191753Z AUTO 34004KT 10SM CLR 10/04 A3028 RMK AO2 SLP256 T01000044 10106 20017 53007=
201804191653 METAR KCLM 191653Z AUTO VRB04KT 10SM CLR 11/04 A3027 RMK AO2 SLP252 T01060039=
201804191553 METAR KCLM 191553Z AUTO 24003KT 10SM CLR 09/04 A3027 RMK AO2 SLP251 T00890039=
201804191453 METAR KCLM 191453Z AUTO 25008KT 10SM CLR 06/03 A3026 RMK AO2 SLP248 T00610028 53010=
201804191353 METAR KCLM 191353Z AUTO 23006KT 10SM CLR 04/02 A3024 RMK AO2 SLP241 T00440017=
201804191253 METAR KCLM 191253Z AUTO 22006KT 10SM CLR 04/02 A3023 RMK AO2 SLP238 T00390017=
201804191153 METAR KCLM 191153Z AUTO 24006KT 10SM CLR 04/02 A3023 RMK AO2 SLP239 70003 T00390017 10050 20017 53002=
201804191053 METAR KCLM 191053Z AUTO 23007KT 10SM CLR 04/02 A3023 RMK AO2 SLP239 T00440022=
201804190953 METAR KCLM 190953Z AUTO 24007KT 10SM CLR 04/02 A3021 RMK AO2 SLP233 T00390017=
201804190853 METAR KCLM 190853Z AUTO 23005KT 10SM CLR 02/01 A3022 RMK AO2 SLP237 T00170011 53002=
201804190753 METAR KCLM 190753Z AUTO 24008KT 10SM CLR 04/02 A3022 RMK AO2 SLP236 T00440022 401220039=
201804190653 METAR KCLM 190653Z AUTO 25007KT 10SM CLR 05/02 A3022 RMK AO2 SLP235 T00500022=
201804190553 METAR KCLM 190553Z AUTO 27006KT 10SM CLR 05/02 A3022 RMK AO2 SLP234 T00500022 10122 20050 51008=
201804190453 METAR KCLM 190453Z AUTO 27008KT 10SM CLR 06/03 A3022 RMK AO2 SLP234 T00560028=
201804190353 METAR KCLM 190353Z AUTO 25004KT 10SM CLR 07/03 A3021 RMK AO2 SLP233 T00670033=
201804190253 METAR KCLM 190253Z AUTO 22003KT 10SM CLR 10/02 A3019 RMK AO2 SLP226 T01000022 56003=
201804190153 METAR KCLM 190153Z AUTO 00000KT 10SM CLR 12/01 A3019 RMK AO2 SLP225 T01220006=
201804190053 METAR KCLM 190053Z AUTO 11004KT 10SM CLR 12/00 A3020 RMK AO2 SLP226 T01170000=
201804182353 METAR KCLM 182353Z AUTO VRB05KT 10SM CLR 11/01 A3020 RMK AO2 SLP229 T01110011 10117 20089 58011=
201804182253 METAR KCLM 182253Z AUTO 02004KT 10SM SCT080 BKN095 11/01 A3022 RMK AO2 SLP233 T01060011=
201804182153 METAR KCLM 182153Z AUTO 00000KT 10SM OVC100 10/04 A3023 RMK AO2 SLP238 T01000044=
201804182053 METAR KCLM 182053Z AUTO VRB04KT 10SM BKN095 10/05 A3023 RMK AO2 SLP239 T01000050 56006=
201804181953 METAR KCLM 181953Z AUTO VRB06KT 10SM FEW015 SCT100 10/06 A3024 RMK AO2 SLP240 T01000061=
201804181853 METAR KCLM 181853Z AUTO VRB05KT 10SM CLR 10/06 A3024 RMK AO2 SLP243 T01000061=
201804181826 SPECI KCLM 181826Z AUTO 07004KT 10SM SCT013 09/07 A3025 RMK AO2 T00940067=
201804181753 METAR KCLM 181753Z AUTO VRB03KT 10SM BKN013 09/06 A3025 RMK AO2 SLP246 60003 T00890061 10089 20050 50002=
201804181653 METAR KCLM 181653Z AUTO VRB03KT 10SM BKN014 OVC100 08/06 A3025 RMK AO2 SLP247 T00780056=
201804181553 METAR KCLM 181553Z AUTO 00000KT 10SM BKN013 BKN065 OVC110 08/06 A3025 RMK AO2 SLP245 T00780061=
201804181536 SPECI KCLM 181536Z AUTO 00000KT 10SM BKN013 BKN075 OVC100 07/06 A3025 RMK AO2 T00720056=
201804181453 METAR KCLM 181453Z AUTO 00000KT 10SM SCT050 OVC060 06/05 A3025 RMK AO2 RAE31 SLP244 P0000 60003 T00560050 55003=
201804181353 METAR KCLM 181353Z AUTO 22004KT 3SM -RA BR BKN034 OVC049 05/05 A3024 RMK AO2 RAB23 SLP243 P0003 T00500050=
201804181253 METAR KCLM 181253Z AUTO 19003KT 10SM BKN038 OVC050 06/06 A3025 RMK AO2 RAE25B39E48 SLP244 P0000 T00560056=
201804181225 SPECI KCLM 181225Z AUTO 15005KT 8SM SCT025 OVC034 06/06 A3025 RMK AO2 RAE25 P0000 T00610056=
201804181153 METAR KCLM 181153Z AUTO 13004KT 3SM -RA BR BKN021 OVC028 06/05 A3026 RMK AO2 RAB1055 SLP247 P0001 60004 70006 T00610050 10067 20050 58000=
201804181053 METAR KCLM 181053Z AUTO 23003KT 6SM BR SCT013 OVC019 06/04 A3026 RMK AO2 RAE30 SLP248 P0002 T00560044=
201804181024 SPECI KCLM 181024Z AUTO 24003KT 7SM -RA SCT021 BKN028 OVC039 06/05 A3025 RMK AO2 P0002 T00560050=
201804180953 METAR KCLM 180953Z AUTO 23004KT 5SM -RA BR SCT019 BKN033 OVC043 06/05 A3026 RMK AO2 RAB38 SLP247 P0001 T00610050=
201804180853 METAR KCLM 180853Z AUTO 23003KT 10SM FEW016 BKN024 OVC043 06/06 A3026 RMK AO2 SLP247 T00610056 50002=
201804180821 SPECI KCLM 180821Z AUTO 24003KT 10SM SCT025 BKN037 OVC046 06/06 A3026 RMK AO2 T00610056=
201804180753 METAR KCLM 180753Z AUTO 00000KT 10SM SCT019 BKN025 OVC037 06/06 A3026 RMK AO2 SLP249 T00610056 401170050=
201804180653 METAR KCLM 180653Z AUTO 00000KT 9SM OVC024 06/06 A3025 RMK AO2 SLP246 T00610056=
201804180604 SPECI KCLM 180604Z AUTO 00000KT 10SM BKN025 OVC100 06/05 A3025 RMK AO2 T00560050=
201804180553 METAR KCLM 180553Z AUTO 00000KT 9SM SCT025 OVC100 06/04 A3025 RMK AO2 SLP246 60000 T00560044 10083 20056 51005=
201804180453 METAR KCLM 180453Z AUTO 17003KT 10SM FEW036 OVC100 06/06 A3025 RMK AO2 SLP244 T00610056=
201804180422 SPECI KCLM 180422Z AUTO 17003KT 10SM SCT021 SCT037 OVC100 07/05 A3025 RMK AO2 T00670050=
201804180353 METAR KCLM 180353Z AUTO 29004KT 10SM BKN023 OVC110 07/05 A3024 RMK AO2 SLP242 T00720050=
201804180336 SPECI KCLM 180336Z AUTO 32004KT 10SM BKN021 OVC110 07/05 A3024 RMK AO2 T00720050=
201804180253 METAR KCLM 180253Z AUTO 00000KT 10SM BKN110 08/05 A3024 RMK AO2 SLP240 60000 T00780050 50001=
201804180153 METAR KCLM 180153Z AUTO 29006KT 10SM FEW050 OVC090 08/05 A3024 RMK AO2 RAE00B32E41 SLP241 P0000 T00780050=
201804180053 METAR KCLM 180053Z AUTO 32008KT 7SM -RA SCT037 OVC049 08/05 A3023 RMK AO2 RAB16 SLP240 P0000 T00780050=
201804172353 METAR KCLM 172353Z AUTO 31009G17KT 10SM SCT037 BKN050 OVC055 08/05 A3023 RMK AO2 RAE00B42E53 SLP239 P0000 60002 T00830050 10117 20083 51014=
201804172253 METAR KCLM 172253Z AUTO 5SM -RA SCT032 BKN043 OVC050 09/06 A3023 RMK AO2 RAB2158 SLP238 P0002 T00940061=
201804172153 METAR KCLM 172153Z AUTO 31012G19KT 10SM BKN055 BKN070 OVC095 10/03 A3021 RMK AO2 SLP232 T01000033=
201804172053 METAR KCLM 172053Z AUTO 31009KT 10SM BKN060 OVC075 10/03 A3019 RMK AO2 SLP224 T01000033 51014=
201804171953 METAR KCLM 171953Z AUTO 31012G22KT 10SM FEW050 SCT065 09/03 A3018 RMK AO2 SLP221 T00890033=
201804171853 METAR KCLM 171853Z AUTO 31010KT 10SM FEW050 BKN060 11/01 A3016 RMK AO2 SLP214 T01060011=
201804171753 METAR KCLM 171753Z AUTO 31009KT 10SM BKN050 OVC060 09/04 A3015 RMK AO2 SLP210 T00890044 10106 20056 53027=
201804171653 METAR KCLM 171653Z AUTO 27009G14KT 10SM FEW044 SCT055 11/02 A3012 RMK AO2 SLP200 T01060022=
201804171553 METAR KCLM 171553Z AUTO 29008KT 10SM SCT060 09/02 A3009 RMK AO2 SLP190 T00890022=
201804171453 METAR KCLM 171453Z AUTO 27010KT 10SM CLR 07/02 A3007 RMK AO2 SLP183 T00720022 51031=
201804171353 METAR KCLM 171353Z AUTO 28012KT 10SM FEW049 06/02 A3004 RMK AO2 SLP174 T00610017=
201804171253 METAR KCLM 171253Z AUTO 27013KT 10SM FEW060 07/01 A3001 RMK AO2 SLP165 T00670006=
201804171153 METAR KCLM 171153Z AUTO 29016KT 10SM CLR 06/01 A2998 RMK AO2 SLP152 60000 70044 T00610011 10083 20061 53021=
201804171053 METAR KCLM 171053Z AUTO 29011KT 10SM CLR 06/01 A2995 RMK AO2 SLP143 T00610011=
201804170953 METAR KCLM 170953Z AUTO 28010G16KT 10SM CLR 06/02 A2993 RMK AO2 SLP137 T00610022=
201804170853 METAR KCLM 170853Z AUTO 27012G18KT 10SM BKN050 07/03 A2991 RMK AO2 SLP131 60000 T00720028 53028=
201804170753 METAR KCLM 170753Z AUTO 28015G24KT 10SM BKN047 BKN090 08/04 A2988 RMK AO2 SLP120 T00780044 400890050=
201804170653 METAR KCLM 170653Z AUTO 27008KT 10SM OVC041 08/05 A2985 RMK AO2 RAE01 SLP109 P0000 T00780050=
201804170553 METAR KCLM 170553Z AUTO 27009KT 10SM -RA BKN038 OVC047 07/05 A2983 RMK AO2 SLP103 P0001 60011 T00720050 10083 20067 51021=
201804170453 METAR KCLM 170453Z AUTO 27007KT 10SM -RA BKN041 OVC050 07/05 A2981 RMK AO2 SLP098 P0002 T00720050=
201804170353 METAR KCLM 170353Z AUTO 28008KT 9SM -RA OVC042 07/05 A2979 RMK AO2 RAB05 SLP089 P0002 T00720050=
201804170253 METAR KCLM 170253Z AUTO 25006KT 10SM OVC048 07/05 A2977 RMK AO2 SLP082 60006 T00720050 53016=
201804170153 METAR KCLM 170153Z AUTO 29006KT 10SM BKN042 OVC055 08/06 A2974 RMK AO2 RAE47 SLP074 P0002 T00780061=
201804170053 METAR KCLM 170053Z AUTO 31005KT 7SM -RA FEW029 OVC039 08/06 A2974 RMK AO2 SLP073 P0004 T00780061=
201804162353 METAR KCLM 162353Z AUTO 11004KT 3SM -RA BR FEW018 SCT029 OVC037 08/07 A2972 RMK AO2 SLP066 P0006 60032 T00780067 10089 20078 53012=
201804162318 SPECI KCLM 162318Z AUTO 09003KT 3SM -RA BR FEW009 BKN037 OVC045 08/07 A2971 RMK AO2 P0002 T00780067=
201804162253 METAR KCLM 162253Z AUTO 12004KT 5SM -RA BR BKN040 OVC050 08/06 A2970 RMK AO2 SLP058 P0004 T00780061=
201804162201 SPECI KCLM 162201Z AUTO 11006KT 3SM -RA BR SCT008 BKN034 OVC044 08/07 A2969 RMK AO2 P0000 T00780067=
201804162157 SPECI KCLM 162157Z AUTO 11005KT 2SM -RA BR SCT008 BKN012 OVC035 08/07 A2969 RMK AO2 P0000 T00780067=
201804162153 METAR KCLM 162153Z AUTO 09003KT 1 1/2SM -RA BR BKN008 BKN012 OVC031 08/07 A2969 RMK AO2 SLP054 P0012 T00780067=
201804162150 SPECI KCLM 162150Z AUTO 07003KT 1 1/2SM RA BR BKN008 BKN012 OVC027 08/07 A2969 RMK AO2 P0010=
201804162142 SPECI KCLM 162142Z AUTO 00000KT 1 3/4SM -RA BR SCT008 BKN012 OVC031 08/07 A2968 RMK AO2 P0008 T00780067=
201804162135 SPECI KCLM 162135Z AUTO 00000KT 2 1/2SM -RA BR SCT010 BKN014 OVC026 08/07 A2968 RMK AO2 P0004 T00780067=
201804162116 SPECI KCLM 162116Z AUTO 08003KT 4SM -RA BR SCT012 BKN027 OVC038 08/07 A2967 RMK AO2 P0000 T00780067=
201804162104 SPECI KCLM 162104Z AUTO 08005KT 4SM -RA BR FEW026 BKN031 OVC039 08/07 A2967 RMK AO2 P0000 T00830067=
201804162053 METAR KCLM 162053Z AUTO VRB03KT 3SM -RA BR BKN028 OVC036 08/07 A2966 RMK AO2 SLP046 P0006 60010 T00830067 51014=
201804162043 SPECI KCLM 162043Z AUTO 06004KT 4SM -RA BR BKN027 BKN037 OVC047 08/06 A2966 RMK AO2 P0004 T00780061=
201804161953 METAR KCLM 161953Z AUTO 06005KT 5SM -RA BR BKN035 OVC042 08/06 A2965 RMK AO2 SLP042 P0004 T00830061=
201804161853 METAR KCLM 161853Z AUTO 08004KT 10SM -RA BKN041 OVC050 08/06 A2964 RMK AO2 SLP038 P0000 T00830056=
201804161753 METAR KCLM 161753Z AUTO 00000KT 9SM -RA SCT041 OVC055 08/05 A2962 RMK AO2 RAB14 SLP032 P0001 60001 T00780050 10078 20050 53017=
201804161653 METAR KCLM 161653Z AUTO 31003KT 10SM OVC045 07/05 A2960 RMK AO2 SLP024 T00720050=
201804161553 METAR KCLM 161553Z AUTO 28003KT 10SM OVC050 07/04 A2958 RMK AO2 SLP018 T00670039=
201804161453 METAR KCLM 161453Z AUTO 26005KT 10SM FEW065 BKN085 OVC110 06/04 A2957 RMK AO2 SLP015 60000 T00560044 53008=
201804161353 METAR KCLM 161353Z AUTO 25008KT 10SM OVC060 06/04 A2956 RMK AO2 SLP012 T00560039=
201804161341 SPECI KCLM 161341Z AUTO 26007KT 10SM SCT021 OVC050 06/04 A2956 RMK AO2 T00560039=
201804161320 SPECI KCLM 161320Z AUTO 24007KT 10SM BKN021 OVC055 06/04 A2956 RMK AO2 T00560039=
201804161253 METAR KCLM 161253Z AUTO 25008KT 10SM FEW025 OVC049 05/04 A2955 RMK AO2 RAE21 SLP009 P0000 T00500039=
201804161246 SPECI KCLM 161246Z AUTO 25008KT 10SM SCT025 OVC047 05/04 A2955 RMK AO2 RAE21 P0000 T00500039=
201804161153 METAR KCLM 161153Z AUTO 26005KT 8SM -RA BKN023 BKN030 OVC042 05/04 A2955 RMK AO2 SLP007 P0002 60017 70030 T00500039 10061 20050 53000=
201804161150 SPECI KCLM 161150Z AUTO 26005KT 9SM -RA BKN023 BKN030 OVC042 05/04 A2955 RMK AO2 P0002=
201804161053 METAR KCLM 161053Z AUTO 25006KT 9SM -RA OVC042 05/04 A2955 RMK AO2 SLP007 P0001 T00500039=
201804160953 METAR KCLM 160953Z AUTO 25006KT 7SM -RA OVC044 05/04 A2955 RMK AO2 SLP007 P0003 T00500039=
201804160853 METAR KCLM 160853Z AUTO 27006KT 8SM -RA OVC042 06/04 A2955 RMK AO2 SLP009 P0003 60011 T00560044 56004=
201804160753 METAR KCLM 160753Z AUTO 26008KT 5SM -RA BR FEW025 OVC035 06/04 A2956 RMK AO2 SLP010 P0003 T00560044 400940017=
201804160653 METAR KCLM 160653Z AUTO 25010KT 5SM -RA BR OVC030 06/04 A2956 RMK AO2 SLP010 P0005 T00610044=
201804160611 SPECI KCLM 160611Z AUTO 25006KT 5SM -RA BR OVC027 06/04 A2956 RMK AO2 P0002 T00610044=
201804160553 METAR KCLM 160553Z AUTO 23005KT 5SM -RA BR OVC030 06/05 A2957 RMK AO2 SLP014 P0010 60013 T00610050 10089 20061 56019=
201804160453 METAR KCLM 160453Z AUTO 22006KT 6SM -RA BR FEW030 OVC035 06/05 A2958 RMK AO2 SLP020 P0001 T00610050=
201804160353 METAR KCLM 160353Z AUTO 23006KT 9SM -RA OVC034 07/04 A2960 RMK AO2 SLP026 P0002 T00670044=
201804160253 METAR KCLM 160253Z AUTO 22006KT 6SM -RA SCT033 OVC042 07/04 A2962 RMK AO2 RAB17 SLP032 P0000 60000 T00720044 58030=
201804160153 METAR KCLM 160153Z AUTO 21003KT 10SM FEW036 OVC050 08/04 A2966 RMK AO2 SLP044 T00830044=
201804160053 METAR KCLM 160053Z AUTO 19004KT 10SM BKN060 OVC075 09/04 A2969 RMK AO2 SLP055 T00890039=
201804152353 METAR KCLM 152353Z AUTO 13003KT 10SM OVC090 09/04 A2971 RMK AO2 SLP063 T00890039 10094 20078 56034=
201804152253 METAR KCLM 152253Z AUTO VRB05KT 10SM FEW120 09/05 A2974 RMK AO2 SLP073 T00890050=
201804152153 METAR KCLM 152153Z AUTO VRB04KT 10SM CLR 09/05 A2978 RMK AO2 SLP085 T00940050=
201804152053 METAR KCLM 152053Z AUTO 08006KT 10SM SCT018 09/04 A2981 RMK AO2 SLP097 T00940044 58021=
201804151953 METAR KCLM 151953Z AUTO 08005KT 10SM FEW015 08/04 A2983 RMK AO2 SLP104 T00830044=
201804151853 METAR KCLM 151853Z AUTO 09007KT 10SM CLR 08/04 A2986 RMK AO2 SLP114 T00830044=
201804151753 METAR KCLM 151753Z AUTO VRB06KT 10SM BKN039 08/04 A2988 RMK AO2 SLP119 T00830044 10089 20017 56016=
201804151653 METAR KCLM 151653Z AUTO 34005KT 10SM SCT039 08/04 A2989 RMK AO2 SLP122 T00830044=
201804151553 METAR KCLM 151553Z AUTO 00000KT 10SM FEW038 07/04 A2990 RMK AO2 SLP127 T00670044=
201804151453 METAR KCLM 151453Z AUTO 25006KT 10SM CLR 04/04 A2993 RMK AO2 SLP135 T00440039 56008=
201804151353 METAR KCLM 151353Z AUTO 24004KT 10SM CLR 03/02 A2993 RMK AO2 SLP136 T00280022=
201804151253 METAR KCLM 151253Z AUTO 25006KT 10SM CLR 04/03 A2994 RMK AO2 SLP139 T00390028=
201804151153 METAR KCLM 151153Z AUTO 00000KT 8SM CLR 03/03 A2995 RMK AO2 SLP143 60000 70019 T00330028 10061 20017 55003=
201804151146 SPECI KCLM 151146Z AUTO 00000KT 3SM BR CLR 02/02 A2995 RMK AO2 T00220022=
201804151137 SPECI KCLM 151137Z AUTO 00000KT 1 3/4SM BR CLR 02/02 A2994 RMK AO2 VIS 1V2 1/2 T00170017=
201804151053 METAR KCLM 151053Z AUTO 23003KT 10SM CLR 03/03 A2995 RMK AO2 SLP142 T00280028=
201804150953 METAR KCLM 150953Z AUTO 24004KT 10SM CLR 03/03 A2995 RMK AO2 SLP144 T00330033=
201804150853 METAR KCLM 150853Z AUTO 23004KT 10SM FEW043 05/04 A2996 RMK AO2 RAE0754 SLP146 P0000 60000 T00500044 56007=
201804150753 METAR KCLM 150753Z AUTO 23003KT 10SM -RA SCT035 OVC044 06/06 A2996 RMK AO2 RAB38 SLP148 P0000 T00610056 401060039=
201804150730 SPECI KCLM 150730Z AUTO 25003KT 9SM SCT012 OVC031 06/06 A2997 RMK AO2 T00610056=
201804150653 METAR KCLM 150653Z AUTO 24004KT 6SM BR BKN012 OVC018 06/06 A2997 RMK AO2 SLP150 T00610056=
201804150644 SPECI KCLM 150644Z AUTO 24004KT 8SM BKN014 OVC020 06/06 A2997 RMK AO2 T00610056=
201804150553 METAR KCLM 150553Z AUTO 26005KT 10SM SCT010 BKN016 OVC022 06/05 A2998 RMK AO2 RAE42 SLP153 P0000 60017 T00610050 10089 20061 56009=
201804150533 SPECI KCLM 150533Z AUTO 27006KT 9SM -RA BKN010 OVC026 06/05 A2999 RMK AO2 P0000 T00610050=
201804150453 METAR KCLM 150453Z AUTO 26008KT 6SM -RA BR BKN028 OVC033 06/05 A2998 RMK AO2 RAB31 SLP155 P0002 T00610050=
201804150353 METAR KCLM 150353Z AUTO 24005KT 10SM FEW030 OVC050 07/06 A2999 RMK AO2 RAE49 SLP156 P0004 T00670061=
201804150253 METAR KCLM 150253Z AUTO 23004KT 5SM -RA BR FEW005 OVC037 07/07 A3001 RMK AO2 SLP163 P0005 60011 T00720072 58018=
201804150153 METAR KCLM 150153Z AUTO 00000KT 4SM -RA BR FEW016 SCT025 OVC036 07/07 A3003 RMK AO2 SLP171 P0004 T00720067=
201804150145 SPECI KCLM 150145Z AUTO 24004KT 5SM -RA BR SCT017 BKN025 OVC038 07/06 A3003 RMK AO2 P0002 T00720061=
201804150053 METAR KCLM 150053Z AUTO 25008KT 8SM -RA BKN046 OVC055 08/06 A3005 RMK AO2 RAB28 SLP176 P0002 T00780056=
201804142353 METAR KCLM 142353Z AUTO 27007KT 10SM OVC065 09/06 A3006 RMK AO2 RAE18 SLP182 P0000 60002 T00890056 10106 20083 58018=
201804142253 METAR KCLM 142253Z AUTO 00000KT 6SM -RA BR FEW010 BKN041 OVC055 08/08 A3009 RMK AO2 RAB16 SLP192 P0002 T00830078=
201804142201 SPECI KCLM 142201Z AUTO 00000KT 10SM FEW009 SCT070 OVC095 09/07 A3010 RMK AO2 T00890067=
201804142153 METAR KCLM 142153Z AUTO VRB03KT 10SM BKN090 09/07 A3009 RMK AO2 SLP193 T00890072=
201804142058 SPECI KCLM 142058Z AUTO VRB03KT 10SM SCT012 SCT024 SCT110 09/07 A3012 RMK AO2 T00940072=
201804142053 METAR KCLM 142053Z AUTO 05005KT 10SM BKN012 BKN024 09/07 A3012 RMK AO2 SLP200 T00940072 56017=
201804142048 SPECI KCLM 142048Z AUTO VRB05KT 10SM BKN011 BKN024 10/07 A3012 RMK AO2=
201804142041 SPECI KCLM 142041Z AUTO 06004KT 10SM SCT011 BKN024 10/07 A3012 RMK AO2 T01000072=
201804142026 SPECI KCLM 142026Z AUTO VRB03KT 10SM BKN011 10/07 A3013 RMK AO2 T01000072=
201804141953 METAR KCLM 141953Z AUTO 10007KT 10SM SCT008 09/07 A3014 RMK AO2 SLP207 T00940072=
201804141942 SPECI KCLM 141942Z AUTO 09008KT 10SM SCT009 09/07 A3015 RMK AO2 T00940072=
201804141853 METAR KCLM 141853Z AUTO 08007KT 10SM CLR 10/06 A3017 RMK AO2 SLP216 T01000056=
201804141753 METAR KCLM 141753Z AUTO VRB05KT 9SM FEW014 11/07 A3018 RMK AO2 SLP220 T01060067 10106 20050 58012=
201804141653 METAR KCLM 141653Z AUTO 07004KT 10SM SCT025 09/07 A3020 RMK AO2 SLP226 T00940067=
201804141632 SPECI KCLM 141632Z AUTO 09005KT 10SM SCT016 09/07 A3020 RMK AO2 T00940072=
201804141622 SPECI KCLM 141622Z AUTO 00000KT 10SM BKN016 09/07 A3020 RMK AO2 T00890072=
201804141553 METAR KCLM 141553Z AUTO 00000KT 10SM CLR 08/06 A3020 RMK AO2 SLP228 T00830061=
201804141453 METAR KCLM 141453Z AUTO 25005KT 10SM CLR 06/05 A3021 RMK AO2 SLP233 T00610050 50003=
201804141417 SPECI KCLM 141417Z AUTO 23006KT 10SM SCT020 BKN038 BKN048 06/04 A3021 RMK AO2 T00560044=
201804141353 METAR KCLM 141353Z AUTO 24006KT 10SM OVC019 06/05 A3022 RMK AO2 SLP234 T00560050=
201804141253 METAR KCLM 141253Z AUTO 24004KT 10SM SCT016 BKN027 BKN034 06/04 A3021 RMK AO2 SLP233 T00560044=
201804141244 SPECI KCLM 141244Z AUTO 00000KT 10SM FEW027 BKN035 OVC043 06/05 A3021 RMK AO2 T00560050=
201804141153 METAR KCLM 141153Z AUTO 00000KT 10SM OVC026 06/05 A3021 RMK AO2 SLP229 60022 70074 T00560050 10083 20039 56004=
201804141053 METAR KCLM 141053Z AUTO 00000KT 10SM SCT019 BKN025 05/05 A3021 RMK AO2 SLP232 T00500050=
201804141043 SPECI KCLM 141043Z AUTO 26003KT 10SM FEW025 06/06 A3021 RMK AO2 T00610056=
201804141027 SPECI KCLM 141027Z AUTO 36003KT 1 1/2SM BR CLR 04/04 A3021 RMK AO2 T00390039=
201804140953 METAR KCLM 140953Z AUTO 19004KT 7SM FEW030 04/04 A3021 RMK AO2 SLP231 T00440044=
201804140853 METAR KCLM 140853Z AUTO 26007KT 9SM FEW085 06/06 A3022 RMK AO2 RAE07 SLP234 P0000 60022 T00610061 50010=
201804140818 SPECI KCLM 140818Z AUTO 27005KT 3SM BR SCT031 BKN070 BKN100 07/06 A3021 RMK AO2 RAE07 P0000 T00670061=
201804140809 SPECI KCLM 140809Z AUTO 33003KT 1 3/4SM BR BKN035 BKN065 07/06 A3021 RMK AO2 RAE07 P0000 T00670061=
201804140753 METAR KCLM 140753Z AUTO 00000KT 4SM -RA BR FEW029 OVC044 08/07 A3022 RMK AO2 SLP234 P0008 T00780072 401110039=
201804140745 SPECI KCLM 140745Z AUTO 26005KT 4SM -RA BR FEW029 BKN042 OVC049 08/07 A3022 RMK AO2 P0008 T00780072=
201804140736 SPECI KCLM 140736Z AUTO 25005KT 7SM -RA BKN029 OVC040 08/07 A3022 RMK AO2 P0006 T00780067=
201804140653 METAR KCLM 140653Z AUTO 27004KT 8SM -RA FEW012 BKN046 OVC055 08/07 A3021 RMK AO2 RAB0555 SLP231 P0014 T00780072=
201804140644 SPECI KCLM 140644Z AUTO 31003KT 4SM -RA BR SCT014 SCT022 OVC046 08/08 A3020 RMK AO2 RAB0555 P0014 T00780078=
201804140631 SPECI KCLM 140631Z AUTO 27005KT 2 1/2SM RA BR BKN015 OVC022 08/08 A3021 RMK AO2 RAB0555 P0012 T00780078=
201804140628 SPECI KCLM 140628Z AUTO 29005KT 3SM RA BR BKN014 OVC022 08/08 A3021 RMK AO2 RAB0555 P0012 T00780078=
201804140621 SPECI KCLM 140621Z AUTO 29005KT 5SM -RA BR SCT014 BKN019 OVC031 08/07 A3020 RMK AO2 RAB0555 P0008 T00780072=
201804140611 SPECI KCLM 140611Z AUTO 28003KT 2SM -RA BR SCT018 BKN024 OVC031 08/07 A3019 RMK AO2 RAB0555 P0008 T00780072=
201804140605 SPECI KCLM 140605Z AUTO 25008KT 1 3/4SM RA BR FEW006 SCT024 OVC032 08/08 A3019 RMK AO2 RAB0555 P0006 T00780078=
201804140553 METAR KCLM 140553Z AUTO 28008KT 10SM SCT007 BKN032 OVC045 08/08 A3019 RMK AO2 RAE21B26E40 SLP223 P0001 60039 T00830078 10106 20078 51017=
201804140551 SPECI KCLM 140551Z AUTO 28006KT 10SM SCT007 BKN032 OVC045 08/08 A3019 RMK AO2 RAE21B26E40 P0001=
201804140539 SPECI KCLM 140539Z AUTO 34004KT 8SM -RA BKN008 BKN019 OVC046 08/08 A3018 RMK AO2 RAE21B26 P0001 T00830078=
201804140521 SPECI KCLM 140521Z AUTO 30005KT 9SM SCT006 BKN017 OVC050 08/08 A3018 RMK AO2 RAE21 P0000 T00830078=
201804140453 METAR KCLM 140453Z AUTO 00000KT 5SM -RA BR FEW007 BKN031 OVC047 08/08 A3018 RMK AO2 SLP219 P0009 T00830078=
201804140353 METAR KCLM 140353Z AUTO 25014KT 9SM -RA BKN050 OVC070 08/07 A3014 RMK AO2 RAB0258 SLP206 P0002 T00830067=
201804140253 METAR KCLM 140253Z AUTO 23007KT 10SM FEW018 BKN043 OVC075 09/07 A3013 RMK AO2 RAE49 SLP203 P0010 60027 T00890067 50001=
201804140249 SPECI KCLM 140249Z AUTO 23009KT 10SM FEW018 BKN041 OVC100 09/07 A3013 RMK AO2 RAE49 P0010=
201804140221 SPECI KCLM 140221Z AUTO 22007KT 2SM RA BR OVC048 09/07 A3014 RMK AO2 P0005 T00890072=
201804140153 METAR KCLM 140153Z AUTO 22006KT 6SM -RA BR OVC050 09/07 A3013 RMK AO2 SLP204 P0005 T00890072=
201804140053 METAR KCLM 140053Z AUTO 26007KT 4SM -RA BR OVC050 09/08 A3012 RMK AO2 SLP202 P0012 T00940078=
201804140042 SPECI KCLM 140042Z AUTO 26008KT 3SM -RA BR BKN047 OVC055 10/08 A3012 RMK AO2 P0010 T01000078=
201804140020 SPECI KCLM 140020Z AUTO 26007KT 2SM -RA BR BKN049 OVC060 11/08 A3012 RMK AO2 P0006 T01060083=
201804140005 SPECI KCLM 140005Z AUTO 00000KT 3SM -RA BR BKN049 OVC060 10/09 A3012 RMK AO2 P0002 T01000094=
201804132353 METAR KCLM 132353Z AUTO 29003KT 2 1/2SM -RA BR BKN047 OVC060 11/08 A3011 RMK AO2 SLP198 P0005 60013 T01060083 10111 20083 50000=
201804132253 METAR KCLM 132253Z AUTO 15005KT 6SM -RA BR OVC060 10/08 A3012 RMK AO2 RAB02 SLP202 P0006 T01000083=
201804132231 SPECI KCLM 132231Z AUTO 12005KT 5SM -RA BR BKN050 OVC060 11/08 A3013 RMK AO2 RAB02 P0006 T01060083=
201804132220 SPECI KCLM 132220Z AUTO 10004KT 2 1/2SM -RA BR BKN048 OVC060 10/08 A3013 RMK AO2 RAB02 P0004 T01000078=
201804132153 METAR KCLM 132153Z AUTO 08004KT 10SM SCT065 BKN080 11/07 A3012 RMK AO2 RAE00 SLP201 P0000 T01060072=
201804132053 METAR KCLM 132053Z AUTO VRB03KT 6SM -RA BR BKN048 OVC060 09/08 A3011 RMK AO2 RAB19 SLP197 P0002 60002 T00940083 51013=
201804131953 METAR KCLM 131953Z AUTO VRB04KT 10SM FEW039 09/07 A3010 RMK AO2 SLP193 T00940067=
201804131853 METAR KCLM 131853Z AUTO 00000KT 10SM SCT042 SCT060 09/07 A3008 RMK AO2 SLP189 T00940067=
201804131753 METAR KCLM 131753Z AUTO 35005KT 10SM BKN046 OVC060 08/06 A3007 RMK AO2 SLP184 60000 T00830056 10094 20039 53002=
201804131653 METAR KCLM 131653Z AUTO 01003KT 10SM OVC055 08/06 A3006 RMK AO2 RAB19E38 SLP180 P0000 T00830056=
201804131553 METAR KCLM 131553Z AUTO 00000KT 10SM FEW040 OVC050 08/05 A3007 RMK AO2 SLP183 T00780050=
201804131453 METAR KCLM 131453Z AUTO 00000KT 10SM FEW080 OVC100 07/06 A3006 RMK AO2 SLP183 T00670061 50002=
201804131353 METAR KCLM 131353Z AUTO 00000KT 10SM FEW055 FEW070 OVC110 05/04 A3007 RMK AO2 SLP184 T00500044=
201804131253 METAR KCLM 131253Z AUTO 00000KT 10SM BKN110 04/04 A3006 RMK AO2 SLP180 T00440039=
201804131153 METAR KCLM 131153Z AUTO 22003KT 10SM SCT055 05/03 A3006 RMK AO2 SLP181 60000 70004 T00500033 10067 20044 55004=
201804131053 METAR KCLM 131053Z AUTO 00000KT 10SM BKN049 OVC065 05/04 A3004 RMK AO2 RAB17E28 SLP173 P0000 T00500044=
201804130953 METAR KCLM 130953Z AUTO 22004KT 10SM FEW048 BKN055 OVC080 06/05 A3005 RMK AO2 RAB36E47 SLP176 P0000 T00560050=
201804130853 METAR KCLM 130853Z AUTO 00000KT 10SM SCT055 OVC070 06/05 A3007 RMK AO2 RAB32E34 SLP185 P0000 60000 T00560050 58008=
201804130753 METAR KCLM 130753Z AUTO 25003KT 10SM SCT050 BKN065 OVC090 06/04 A3009 RMK AO2 RAB43E47 SLP191 P0000 T00610044 401000006=
201804130653 METAR KCLM 130653Z AUTO 24007KT 10SM BKN070 OVC080 06/04 A3009 RMK AO2 SLP192 T00560044=
201804130553 METAR KCLM 130553Z AUTO 00000KT 10SM OVC100 07/04 A3010 RMK AO2 SLP194 60000 T00670044 10094 20050 51008=
201804130453 METAR KCLM 130453Z AUTO 12005KT 10SM FEW120 05/04 A3009 RMK AO2 SLP192 T00500044=
201804130353 METAR KCLM 130353Z AUTO 00000KT 10SM CLR 05/04 A3009 RMK AO2 SLP192 T00500039=
201804130253 METAR KCLM 130253Z AUTO 00000KT 10SM CLR 07/04 A3007 RMK AO2 SLP185 60000 T00720044 51014=
201804130153 METAR KCLM 130153Z AUTO 31007KT 10SM BKN036 BKN047 09/04 A3007 RMK AO2 SLP185 T00890044=
201804130053 METAR KCLM 130053Z AUTO 27008KT 10SM BKN049 OVC060 09/04 A3005 RMK AO2 RAE2354B17E32 SLP179 P0000 T00890044=
201804122353 METAR KCLM 122353Z AUTO 28006KT 10SM -RA BKN040 BKN048 OVC060 09/04 A3003 RMK AO2 RAB44 SLP171 P0000 60004 T00890044 10100 20050 51026=
201804122253 METAR KCLM 122253Z AUTO 34006KT 10SM OVC037 09/03 A3001 RMK AO2 SLP163 T00890033=
201804122153 METAR KCLM 122153Z AUTO VRB04KT 10SM CLR 09/04 A2998 RMK AO2 SLP153 T00940039=
201804122053 METAR KCLM 122053Z AUTO 03004KT 10SM FEW027 FEW065 09/03 A2995 RMK AO2 RAE1958 SLP145 P0000 60004 T00940033 51024=
201804121953 METAR KCLM 121953Z AUTO 24006KT 7SM -RA FEW028 BKN037 OVC047 07/04 A2993 RMK AO2 RAB01 SLP139 P0004 T00720044=
201804121946 SPECI KCLM 121946Z AUTO 25007KT 5SM -RA BR FEW025 OVC033 07/04 A2993 RMK AO2 RAB01 P0004 T00670044=
201804121913 SPECI KCLM 121913Z AUTO 23006KT 8SM -RA BKN018 BKN022 OVC045 07/03 A2992 RMK AO2 RAB01 P0000 T00670033=
201804121853 METAR KCLM 121853Z AUTO VRB03KT 9SM FEW018 OVC045 08/04 A2991 RMK AO2 SLP130 T00780044=
201804121753 METAR KCLM 121753Z AUTO 00000KT 10SM FEW037 OVC055 08/05 A2988 RMK AO2 SLP120 T00780050 10078 20006 53022=
201804121653 METAR KCLM 121653Z AUTO 00000KT 10SM BKN070 BKN100 07/04 A2985 RMK AO2 SLP111 T00720039=
201804121553 METAR KCLM 121553Z AUTO 00000KT 10SM CLR 07/03 A2984 RMK AO2 SLP105 T00720028=
201804121453 METAR KCLM 121453Z AUTO 25004KT 10SM FEW110 05/03 A2982 RMK AO2 SLP098 T00500033 51016=
201804121353 METAR KCLM 121353Z AUTO 15004KT 10SM CLR 02/01 A2980 RMK AO2 SLP093 T00170006=
201804121253 METAR KCLM 121253Z AUTO 23006KT 10SM FEW055 02/01 A2979 RMK AO2 SLP089 T00170011=
201804121153 METAR KCLM 121153Z AUTO 15003KT 10SM BKN060 03/02 A2977 RMK AO2 SLP082 70009 T00280022 10061 20017 51017=
201804121053 METAR KCLM 121053Z AUTO 00000KT 10SM SCT070 BKN120 02/02 A2975 RMK AO2 SLP076 T00220022=
201804120953 METAR KCLM 120953Z AUTO 23006KT 10SM BKN080 04/02 A2974 RMK AO2 SLP071 T00390017=
201804120853 METAR KCLM 120853Z AUTO 23012G17KT 10SM BKN090 06/02 A2972 RMK AO2 SLP064 T00560022 53019=
201804120753 METAR KCLM 120753Z AUTO 26007KT 10SM CLR 04/03 A2970 RMK AO2 SLP057 T00440028 401170028=
201804120653 METAR KCLM 120653Z AUTO 24009KT 10SM CLR 06/03 A2968 RMK AO2 SLP050 T00560028=
201804120553 METAR KCLM 120553Z AUTO 25008KT 10SM SCT120 06/03 A2966 RMK AO2 SLP046 60009 T00560033 10083 20050 51016=
201804120453 METAR KCLM 120453Z AUTO 25005KT 10SM OVC080 06/04 A2966 RMK AO2 SLP045 T00560039=
201804120353 METAR KCLM 120353Z AUTO 00000KT 10SM OVC100 06/04 A2962 RMK AO2 SLP033 T00560039=
201804120253 METAR KCLM 120253Z AUTO 27008KT 10SM BKN065 OVC080 06/04 A2961 RMK AO2 RAE15 SLP030 P0002 60009 T00560039 50000=
201804120153 METAR KCLM 120153Z AUTO 30010G19KT 8SM -RA BKN031 OVC049 06/04 A2963 RMK AO2 RAB05 SLP037 P0007 T00560044=
201804120148 SPECI KCLM 120148Z AUTO 29011KT 5SM -RA BR OVC031 06/04 A2963 RMK AO2 RAB05 P0007=
201804120139 SPECI KCLM 120139Z AUTO 30009KT 2 1/2SM -RA BR BKN031 OVC046 06/04 A2962 RMK AO2 RAB05 P0007 T00560044=
201804120120 SPECI KCLM 120120Z AUTO 28013G20KT 3SM -RA BR SCT010 BKN043 OVC050 06/05 A2962 RMK AO2 RAB05 P0002 T00610050=
201804120053 METAR KCLM 120053Z AUTO 30012G18KT 9SM BKN011 BKN043 OVC065 07/05 A2961 RMK AO2 RAE28 SLP030 P0000 T00670050=
201804120049 SPECI KCLM 120049Z AUTO 30012KT 8SM BKN011 BKN041 OVC065 07/06 A2962 RMK AO2 RAE28 P0000=
201804120021 SPECI KCLM 120021Z AUTO 30014G25KT 8SM -RA FEW008 SCT020 OVC070 07/05 A2961 RMK AO2 P0000 T00670050=
201804120014 SPECI KCLM 120014Z AUTO 31016G25KT 6SM -RA BR FEW007 BKN025 OVC065 07/06 A2961 RMK AO2 P0000 T00720056=
201804112353 METAR KCLM 112353Z AUTO 31010G20KT 4SM -RA BR BKN007 BKN045 OVC049 08/07 A2960 RMK AO2 PK WND 30031/2322 RAB46 SLP026 P0000 60000 T00780072 10117 20078 53004=
201804112345 SPECI KCLM 112345Z AUTO 31015G23KT 5SM BR BKN009 BKN044 OVC060 08/07 A2960 RMK AO2 PK WND 30031/2322 T00780067=
201804112253 METAR KCLM 112253Z AUTO 26008KT 10SM OVC070 12/03 A2958 RMK AO2 SLP016 T01170033=
201804112153 METAR KCLM 112153Z AUTO 35006KT 10SM BKN070 12/04 A2957 RMK AO2 SLP015 T01170044=
201804112053 METAR KCLM 112053Z AUTO VRB03KT 10SM BKN070 11/06 A2959 RMK AO2 SLP020 T01060056 58018=
201804111953 METAR KCLM 111953Z AUTO 32007KT 270V360 10SM BKN070 11/06 A2960 RMK AO2 SLP025 T01110061=
201804111853 METAR KCLM 111853Z AUTO 36004KT 10SM FEW070 09/06 A2964 RMK AO2 SLP036 T00940061=
201804111753 METAR KCLM 111753Z AUTO 03005KT 10SM BKN065 09/07 A2964 RMK AO2 SLP039 T00890067 10094 20028 56024=
201804111653 METAR KCLM 111653Z AUTO 04004KT 10SM OVC070 09/06 A2967 RMK AO2 SLP048 T00890061=
201804111553 METAR KCLM 111553Z AUTO 00000KT 10SM FEW070 09/06 A2969 RMK AO2 SLP053 T00940056=
201804111453 METAR KCLM 111453Z AUTO 23003KT 10SM BKN070 07/06 A2972 RMK AO2 SLP063 T00720056 58025=
201804111353 METAR KCLM 111353Z AUTO 30003KT 10SM SCT070 03/03 A2974 RMK AO2 SLP074 T00330028=
201804111253 METAR KCLM 111253Z AUTO 17004KT 9SM SCT065 03/03 A2977 RMK AO2 SLP082 T00330033=
201804111153 METAR KCLM 111153Z AUTO 11003KT 10SM FEW060 06/04 A2979 RMK AO2 SLP089 60000 70017 T00560039 10083 20050 56020=
201804111053 METAR KCLM 111053Z AUTO 16003KT 10SM BKN085 BKN100 07/05 A2981 RMK AO2 SLP094 T00670050=
201804110953 METAR KCLM 110953Z AUTO 00000KT 10SM BKN090 06/05 A2983 RMK AO2 SLP102 T00610050=
201804110853 METAR KCLM 110853Z AUTO 22005KT 10SM SCT060 OVC075 07/06 A2985 RMK AO2 RAB34E44 SLP109 P0000 60000 T00720056 57010=
201804110753 METAR KCLM 110753Z AUTO 22003KT 10SM OVC070 07/05 A2986 RMK AO2 SLP113 T00720050 401560061=
201804110653 METAR KCLM 110653Z AUTO 00000KT 10SM BKN070 07/04 A2987 RMK AO2 SLP115 T00670044=
201804110553 METAR KCLM 110553Z AUTO 00000KT 10SM FEW075 08/04 A2988 RMK AO2 SLP119 T00830039 10128 20078 58000=
201804110253 METAR KCLM 110253Z AUTO 24009KT 10SM FEW080 10/04 A2988 RMK AO2 SLP119 T01000039 58001=
201804110153 METAR KCLM 110153Z AUTO 30003KT 10SM SCT060 BKN075 11/06 A2989 RMK AO2 SLP124 T01110056=
201804110053 METAR KCLM 110053Z AUTO 12009KT 10SM FEW060 BKN075 OVC090 12/04 A2988 RMK AO2 SLP120 T01220044=
201804102353 METAR KCLM 102353Z AUTO 10011KT 10SM BKN060 OVC070 12/06 A2988 RMK AO2 SLP120 60000 T01170056 10156 20106 50005=
201804102253 METAR KCLM 102253Z AUTO 11010KT 10SM FEW050 BKN070 13/06 A2989 RMK AO2 SLP121 T01330061=
201804102153 METAR KCLM 102153Z AUTO 20010KT 190V260 10SM FEW070 15/01 A2988 RMK AO2 SLP118 T01500011=
201804102053 METAR KCLM 102053Z AUTO 15007KT 110V200 10SM BKN075 14/07 A2987 RMK AO2 SLP114 60000 T01390072 51025=
201804101953 METAR KCLM 101953Z AUTO 25009KT 10SM FEW039 SCT070 BKN080 14/08 A2984 RMK AO2 SLP105 T01390078=
201804101853 METAR KCLM 101853Z AUTO VRB03KT 10SM FEW016 BKN036 BKN065 12/09 A2983 RMK AO2 RAB1759E18 SLP101 P0000 T01220089=
201804101753 METAR KCLM 101753Z AUTO 29007KT 9SM FEW031 BKN040 OVC050 11/10 A2979 RMK AO2 RAE44 SLP089 P0010 60017 T01060100 10133 20067 51044=
201804101725 SPECI KCLM 101725Z AUTO 32004KT 3SM -RA BR BKN045 OVC055 10/09 A2978 RMK AO2 P0010 T01000094=
201804101706 SPECI KCLM 101706Z AUTO 29009KT 1 3/4SM RA BR SCT042 OVC050 11/09 A2977 RMK AO2 PRESRR P0004 T01060094=
201804101653 METAR KCLM 101653Z AUTO 31007KT 7SM -RA OVC060 11/09 A2975 RMK AO2 SLP074 P0002 T01060094=
201804101553 METAR KCLM 101553Z AUTO 00000KT 7SM -RA BKN065 OVC075 10/09 A2971 RMK AO2 RAE02B24 SLP061 P0001 T01000089=
201804101453 METAR KCLM 101453Z AUTO VRB04KT 9SM -RA FEW050 BKN065 OVC080 09/08 A2966 RMK AO2 RAE01B52 SLP045 P0000 60004 T00940078 58012=
201804101353 METAR KCLM 101353Z AUTO VRB05G14KT 9SM -RA OVC060 13/07 A2969 RMK AO2 RAB04 SLP053 P0004 T01330072=
201804101253 METAR KCLM 101253Z AUTO 23004KT 10SM OVC075 08/07 A2971 RMK AO2 SLP061 T00830067=
201804101153 METAR KCLM 101153Z AUTO 00000KT 10SM SCT090 BKN110 07/06 A2970 RMK AO2 SLP057 T00670061 10089 20061 56027=
201804101053 METAR KCLM 101053Z AUTO 00000KT 10SM CLR 07/06 A2971 RMK AO2 SLP062 T00670061=
201804100953 METAR KCLM 100953Z AUTO 00000KT 10SM CLR 07/06 A2975 RMK AO2 SLP074 T00670061=
201804100853 METAR KCLM 100853Z AUTO 00000KT 10SM CLR 07/06 A2978 RMK AO2 SLP085 T00720061 56038=
201804100753 METAR KCLM 100753Z AUTO 10006KT 10SM CLR 08/07 A2981 RMK AO2 SLP095 T00830067 401110072=
201804100653 METAR KCLM 100653Z AUTO 14004KT 10SM CLR 08/06 A2985 RMK AO2 SLP109 T00830061=
201804100553 METAR KCLM 100553Z AUTO 14006KT 10SM CLR 08/07 A2989 RMK AO2 SLP123 T00830067 10100 20072 58031=
201804100453 METAR KCLM 100453Z AUTO 15005KT 10SM CLR 08/06 A2993 RMK AO2 SLP138 T00830061=
201804100353 METAR KCLM 100353Z AUTO 13005KT 10SM CLR 09/06 A2996 RMK AO2 SLP145 T00890061=
201804100253 METAR KCLM 100253Z AUTO 13006KT 10SM CLR 09/06 A2999 RMK AO2 SLP155 T00940061 56033=
201804100153 METAR KCLM 100153Z AUTO 11005KT 10SM FEW025 10/06 A3001 RMK AO2 SLP164 T01000061=
201804100053 METAR KCLM 100053Z AUTO 09008KT 10SM OVC026 10/06 A3004 RMK AO2 SLP173 T01000056=
201804092353 METAR KCLM 092353Z AUTO 11006KT 10SM OVC025 11/05 A3008 RMK AO2 SLP188 T01060050 10111 20094 58032=
201804092253 METAR KCLM 092253Z AUTO VRB04KT 10SM OVC023 10/07 A3012 RMK AO2 SLP201 T01000072=
201804092153 METAR KCLM 092153Z AUTO 08008KT 10SM OVC027 10/07 A3014 RMK AO2 SLP209 T01000067=
201804092053 METAR KCLM 092053Z AUTO 09006KT 10SM OVC027 10/07 A3018 RMK AO2 SLP220 T01000067 58022=
201804091953 METAR KCLM 091953Z AUTO 08006KT 10SM OVC027 10/06 A3021 RMK AO2 SLP231 T01000056=
201804091853 METAR KCLM 091853Z AUTO 11006KT 10SM OVC027 10/05 A3023 RMK AO2 SLP236 T01000050=
201804091821 SPECI KCLM 091821Z AUTO 09004KT 10SM BKN027 OVC033 10/04 A3024 RMK AO2 T01000044=
201804091753 METAR KCLM 091753Z AUTO VRB03KT 10SM OVC032 10/06 A3024 RMK AO2 SLP242 T01000056 10100 20072 58015=
201804091705 SPECI KCLM 091705Z AUTO VRB03KT 10SM OVC030 09/06 A3027 RMK AO2 T00890056=
201804091653 METAR KCLM 091653Z AUTO 16003KT 10SM OVC029 09/06 A3026 RMK AO2 SLP248 T00890056=
201804091553 METAR KCLM 091553Z AUTO 17003KT 7SM FEW019 OVC024 08/07 A3028 RMK AO2 SLP255 T00830072=
201804091453 METAR KCLM 091453Z AUTO 00000KT 4SM BR OVC016 08/07 A3029 RMK AO2 SLP258 T00780072 53002=
201804091353 METAR KCLM 091353Z AUTO 00000KT 10SM OVC017 08/07 A3029 RMK AO2 SLP256 T00780067=
201804091313 SPECI KCLM 091313Z AUTO 00000KT 10SM BKN016 OVC021 08/07 A3029 RMK AO2 T00780067=
201804091305 SPECI KCLM 091305Z AUTO 24003KT 10SM BKN014 OVC022 08/07 A3029 RMK AO2 T00780067=
201804091253 METAR KCLM 091253Z AUTO 00000KT 10SM SCT011 SCT016 OVC022 08/07 A3028 RMK AO2 SLP256 T00780067=
201804091153 METAR KCLM 091153Z AUTO 27003KT 10SM BKN011 OVC019 08/07 A3028 RMK AO2 SLP256 60000 70006 T00780067 10089 20072 53003=
201804091120 SPECI KCLM 091120Z AUTO 00000KT 10SM BKN011 OVC022 08/07 A3028 RMK AO2 T00780072=
201804091053 METAR KCLM 091053Z AUTO 28003KT 8SM FEW011 OVC024 08/07 A3027 RMK AO2 RAB41E50 SLP252 P0000 T00780067=
201804090953 METAR KCLM 090953Z AUTO 26007KT 10SM FEW020 OVC029 08/07 A3027 RMK AO2 SLP252 T00780067=
201804090949 SPECI KCLM 090949Z AUTO 25005KT 10SM FEW020 OVC029 08/07 A3027 RMK AO2=
201804090853 METAR KCLM 090853Z AUTO 28005KT 10SM SCT050 08/07 A3026 RMK AO2 SLP249 T00780072 53011=
201804090843 SPECI KCLM 090843Z AUTO 29007KT 10SM SCT029 BKN050 08/07 A3027 RMK AO2 T00780067=
201804090753 METAR KCLM 090753Z AUTO 30004KT 10SM OVC024 08/07 A3026 RMK AO2 SLP247 T00780072 401220050=
201804090653 METAR KCLM 090653Z AUTO 26003KT 10SM BKN017 BKN024 OVC050 08/08 A3023 RMK AO2 SLP238 T00830078=
201804090650 SPECI KCLM 090650Z AUTO 26003KT 10SM SCT017 BKN024 OVC050 08/08 A3023 RMK AO2=
201804090632 SPECI KCLM 090632Z AUTO 00000KT 10SM SCT027 BKN035 OVC048 08/08 A3022 RMK AO2 T00830078=
201804090553 METAR KCLM 090553Z AUTO 00000KT 10SM BKN026 OVC032 08/08 A3021 RMK AO2 RAB14E23 SLP232 P0000 60000 T00830083 10111 20078 51012=
201804090549 SPECI KCLM 090549Z AUTO 00000KT 10SM BKN026 BKN032 OVC060 08/08 A3021 RMK AO2 RAB14E23 P0000=
201804090453 METAR KCLM 090453Z AUTO 27004KT 10SM BKN030 08/08 A3021 RMK AO2 RAB01E20 SLP229 P0000 T00780078=
201804090444 SPECI KCLM 090444Z AUTO 00000KT 3SM BR BKN030 BKN055 08/08 A3020 RMK AO2 RAB01E20 P0000 T00780078=
201804090440 SPECI KCLM 090440Z AUTO 00000KT 3/4SM BR SCT032 BKN055 08/08 A3020 RMK AO2 RAB01E20 P0000 T00830083=
201804090431 SPECI KCLM 090431Z AUTO 00000KT 1 1/2SM BR FEW032 SCT039 SCT050 08/08 A3019 RMK AO2 RAB01E20 P0000 T00780078=
201804090353 METAR KCLM 090353Z AUTO 25003KT 10SM FEW028 BKN038 OVC046 08/08 A3018 RMK AO2 RAB0254E05B30E41 SLP220 P0000 T00830083=
201804090253 METAR KCLM 090253Z AUTO 21004KT 10SM BKN041 10/09 A3014 RMK AO2 SLP206 T01000089 51023=
201804090153 METAR KCLM 090153Z AUTO 00000KT 10SM SCT036 OVC075 11/08 A3012 RMK AO2 SLP199 T01060083=
201804090053 METAR KCLM 090053Z AUTO 00000KT 10SM SCT021 BKN037 11/08 A3009 RMK AO2 SLP192 T01060083=
201804090045 SPECI KCLM 090045Z AUTO 00000KT 10SM SCT020 BKN039 11/09 A3009 RMK AO2 T01060089=
201804090038 SPECI KCLM 090038Z AUTO 00000KT 10SM BKN020 BKN038 11/09 A3009 RMK AO2 T01060089=
201804090026 SPECI KCLM 090026Z AUTO 00000KT 10SM SCT020 BKN038 11/08 A3008 RMK AO2 T01060083=
201804090001 SPECI KCLM 090001Z AUTO 00000KT 10SM BKN023 BKN031 OVC040 11/08 A3007 RMK AO2 T01060083=
201804082353 METAR KCLM 082353Z AUTO 00000KT 10SM SCT025 BKN032 BKN042 11/08 A3007 RMK AO2 RAB2256E16 SLP182 P0000 60002 T01060083 10122 20089 51036=
201804082301 SPECI KCLM 082301Z AUTO 00000KT 4SM -RA BR BKN023 OVC034 11/08 A3004 RMK AO2 RAB2256 P0000 T01060083=
201804082253 METAR KCLM 082253Z AUTO 08003KT 10SM SCT023 BKN030 OVC036 11/08 A3003 RMK AO2 RAB00E15B17E42 SLP171 P0002 T01110083=
201804082239 SPECI KCLM 082239Z AUTO VRB03KT 5SM -RA SCT027 OVC036 11/08 A3003 RMK AO2 RAB00E15B17 P0002 T01110083=
201804082229 SPECI KCLM 082229Z AUTO 00000KT 2SM -RA BKN027 OVC034 11/08 A3002 RMK AO2 RAB00E15B17 P0002 T01110083=
201804082215 SPECI KCLM 082215Z AUTO 00000KT 7SM BKN028 BKN034 OVC060 11/07 A3002 RMK AO2 RAB00E15 P0000 T01110072=
201804082153 METAR KCLM 082153Z AUTO 00000KT 8SM SCT029 OVC055 12/07 A3000 RMK AO2 RAB15E37 SLP160 P0000 T01170072=
201804082053 METAR KCLM 082053Z AUTO VRB06KT 10SM FEW035 BKN060 OVC100 12/08 A2996 RMK AO2 PRESRR SLP146 T01170078 51049=
201804081953 METAR KCLM 081953Z AUTO VRB03KT 10SM FEW010 OVC060 11/08 A2992 RMK AO2 SLP131 T01060083=
201804081929 SPECI KCLM 081929Z AUTO 04004KT 10SM SCT007 OVC060 10/08 A2990 RMK AO2 T01000078=
201804081919 SPECI KCLM 081919Z AUTO 05004KT 10SM BKN007 OVC060 10/08 A2989 RMK AO2 T01000078=
201804081903 SPECI KCLM 081903Z AUTO VRB03KT 10SM FEW005 BKN055 OVC075 10/08 A2988 RMK AO2 T01000083=
201804081853 METAR KCLM 081853Z AUTO 06003KT 10SM BKN060 OVC075 10/09 A2987 RMK AO2 SLP115 T01000089=
201804081753 METAR KCLM 081753Z AUTO 00000KT 10SM OVC070 10/08 A2981 RMK AO2 SLP096 60004 T01000078 10100 20061 53045=
201804081717 SPECI KCLM 081717Z AUTO 00000KT 10SM SCT004 BKN055 OVC080 10/09 A2978 RMK AO2 T01000089=
201804081653 METAR KCLM 081653Z AUTO 00000KT 9SM OVC004 09/09 A2976 RMK AO2 RAE19 SLP079 P0000 T00940089=
201804081643 SPECI KCLM 081643Z AUTO 00000KT 7SM BKN004 OVC060 09/08 A2976 RMK AO2 RAE19 P0000 T00890083=
201804081633 SPECI KCLM 081633Z AUTO 00000KT 7SM SCT004 OVC060 09/08 A2975 RMK AO2 RAE19 P0000 T00890083=
201804081553 METAR KCLM 081553Z AUTO 00000KT 5SM -RA BR BKN050 OVC060 08/08 A2972 RMK AO2 SLP066 P0003 T00780078=
201804081453 METAR KCLM 081453Z AUTO 23003KT 6SM -RA BR OVC055 07/07 A2968 RMK AO2 SLP051 P0001 60001 T00720072 53037=
201804081353 METAR KCLM 081353Z AUTO 11003KT 9SM -RA BKN060 OVC080 07/07 A2963 RMK AO2 RAB13E23B41 SLP035 P0000 T00720067=
201804081253 METAR KCLM 081253Z AUTO 18004KT 10SM SCT060 BKN075 OVC100 07/07 A2960 RMK AO2 SLP023 T00670067=
201804081153 METAR KCLM 081153Z AUTO 14003KT 10SM BKN060 BKN070 OVC110 07/06 A2957 RMK AO2 SLP013 70056 T00670061 10072 20050 53027=
201804081053 METAR KCLM 081053Z AUTO 25006KT 10SM OVC060 07/06 A2954 RMK AO2 SLP002 T00720056=
201804080953 METAR KCLM 080953Z AUTO 20003KT 10SM FEW070 SCT090 SCT110 06/06 A2952 RMK AO2 SLP996 T00560056=
201804080930 SPECI KCLM 080930Z AUTO 24003KT 9SM FEW070 BKN100 06/06 A2951 RMK AO2 T00560056=
201804080922 SPECI KCLM 080922Z AUTO 18003KT 2SM BR FEW080 BKN100 06/06 A2951 RMK AO2 T00560056=
201804080904 SPECI KCLM 080904Z AUTO 00000KT 4SM BR FEW070 06/06 A2950 RMK AO2 T00560056=
201804080853 METAR KCLM 080853Z AUTO 17003KT 2SM BR FEW070 06/06 A2949 RMK AO2 SLP986 T00560056 53019=
201804080753 METAR KCLM 080753Z AUTO 13003KT 9SM OVC070 06/06 A2946 RMK AO2 SLP978 T00610056 401170050=
201804080732 SPECI KCLM 080732Z AUTO 22006KT 6SM BR SCT070 06/06 A2946 RMK AO2 T00560056=
201804080723 SPECI KCLM 080723Z AUTO 24003KT 2SM BR FEW060 FEW080 05/05 A2946 RMK AO2 T00500050=
201804080653 METAR KCLM 080653Z AUTO 23003KT 10SM SCT060 06/06 A2945 RMK AO2 SLP973 T00610061=
201804080553 METAR KCLM 080553Z AUTO 23004KT 10SM OVC080 07/07 A2943 RMK AO2 RAE01 SLP967 P0000 60010 T00670067 10100 20067 51019=
201804080505 SPECI KCLM 080505Z AUTO 25003KT 10SM FEW010 BKN055 OVC070 08/07 A2942 RMK AO2 RAE01 P0000 T00780067=
201804080453 METAR KCLM 080453Z AUTO 26004KT 10SM -RA FEW010 BKN022 OVC055 08/07 A2942 RMK AO2 RAE21B32 SLP962 P0002 T00780067=
201804080427 SPECI KCLM 080427Z AUTO 00000KT 10SM BKN015 OVC060 08/07 A2941 RMK AO2 RAE21 P0002 T00830072=
201804080353 METAR KCLM 080353Z AUTO 22004KT 10SM -RA FEW015 OVC055 08/07 A2939 RMK AO2 SLP953 P0000 T00780072=
201804080253 METAR KCLM 080253Z AUTO 30004KT 10SM -RA OVC060 08/07 A2938 RMK AO2 SLP948 P0001 60008 T00830072 53004=
201804080153 METAR KCLM 080153Z AUTO 25005KT 5SM -RA BR FEW016 BKN048 OVC055 09/08 A2937 RMK AO2 SLP946 P0003 T00890083=
201804080053 METAR KCLM 080053Z AUTO 25003KT 3SM -RA BR OVC050 09/08 A2936 RMK AO2 SLP944 P0004 T00940083=
201804080008 SPECI KCLM 080008Z AUTO 24004KT 3SM -RA BR BKN045 OVC055 09/08 A2936 RMK AO2 P0000 T00940083=
201804072353 METAR KCLM 072353Z AUTO 25005KT 2SM -RA BR OVC044 09/08 A2936 RMK AO2 SLP944 P0008 60039 T00940083 10117 20094 53005=
201804072253 METAR KCLM 072253Z AUTO 26004KT 4SM -RA BR OVC040 10/08 A2935 RMK AO2 SLP940 P0010 T01000083=
201804072241 SPECI KCLM 072241Z AUTO 26005KT 2 1/2SM -RA BR BKN036 OVC045 10/08 A2936 RMK AO2 P0008 T01000083=
201804072221 SPECI KCLM 072221Z AUTO 25004KT 3SM -RA BR BKN045 OVC055 10/08 A2935 RMK AO2 P0004 T01000083=
201804072153 METAR KCLM 072153Z AUTO 25006KT 2SM -RA BR FEW023 OVC035 10/08 A2935 RMK AO2 SLP941 P0011 T01000083=
201804072140 SPECI KCLM 072140Z AUTO 25004KT 1 3/4SM -RA BR FEW017 SCT024 OVC033 10/09 A2935 RMK AO2 P0007 T01000089=
201804072130 SPECI KCLM 072130Z AUTO 25006KT 2 1/2SM -RA BR FEW008 BKN024 OVC035 10/08 A2935 RMK AO2 P0005 T01000083=
201804072120 SPECI KCLM 072120Z AUTO 26005KT 3SM -RA BR FEW008 BKN025 OVC044 10/09 A2935 RMK AO2 P0003 T01000089=
201804072101 SPECI KCLM 072101Z AUTO 25005KT 2SM -RA BR FEW007 SCT033 OVC042 11/09 A2935 RMK AO2 P0002 T01060094=
201804072053 METAR KCLM 072053Z AUTO 25003KT 3SM -RA BR SCT009 BKN033 OVC044 11/09 A2935 RMK AO2 SLP939 P0006 60010 T01060094 50000=
201804072050 SPECI KCLM 072050Z AUTO 23004KT 3SM -RA BR SCT009 OVC041 11/09 A2935 RMK AO2 P0006=
201804072042 SPECI KCLM 072042Z AUTO 00000KT 2 1/2SM -RA BR BKN008 OVC044 11/09 A2935 RMK AO2 P0004 T01060094=
201804072034 SPECI KCLM 072034Z AUTO 00000KT 3SM -RA BR BKN008 BKN013 OVC044 11/09 A2936 RMK AO2 P0002 T01060094=
201804072032 SPECI KCLM 072032Z AUTO 00000KT 3SM -RA BR SCT010 BKN013 OVC049 11/09 A2936 RMK AO2 P0002 T01060094=
201804072022 SPECI KCLM 072022Z AUTO 00000KT 4SM -RA BR FEW008 BKN016 OVC047 11/09 A2935 RMK AO2 P0002 T01060094=
201804071953 METAR KCLM 071953Z AUTO 34005KT 4SM -RA BR BKN045 OVC055 11/09 A2935 RMK AO2 RAB10 SLP940 P0004 T01060089=
201804071853 METAR KCLM 071853Z AUTO 08007KT 9SM FEW048 BKN060 OVC070 11/08 A2935 RMK AO2 SLP940 T01060078=
201804071753 METAR KCLM 071753Z AUTO 08004KT 10SM SCT041 BKN048 OVC070 11/09 A2935 RMK AO2 RAB04E18 SLP939 P0000 60007 T01110094 10111 20089 51015=
201804071704 SPECI KCLM 071704Z AUTO 00000KT 7SM -RA FEW004 BKN039 OVC050 11/10 A2934 RMK AO2 RAB04 P0000 T01060100=
201804071653 METAR KCLM 071653Z AUTO 00000KT 9SM SCT003 BKN010 OVC050 10/10 A2934 RMK AO2 RAE08 SLP934 P0002 T01000100=
201804071620 SPECI KCLM 071620Z AUTO VRB03KT 5SM BR BKN003 BKN043 OVC075 10/10 A2934 RMK AO2 RAE08 P0002 T01000100=
201804071553 METAR KCLM 071553Z AUTO 29011KT 3SM -RA BR FEW005 BKN049 OVC070 10/10 A2934 RMK AO2 RAB1455E19B47 SLP936 P0001 T01000100=
201804071539 SPECI KCLM 071539Z AUTO 27007KT 9SM SCT007 BKN065 OVC080 10/10 A2933 RMK AO2 RAB1455E19 P0000 T01000100=
201804071453 METAR KCLM 071453Z AUTO 26004KT 7SM OVC060 10/09 A2930 RMK AO2 RAB32E44 SLP923 P0000 60004 T01000094 53009=
201804071401 SPECI KCLM 071401Z AUTO 00000KT 10SM SCT006 BKN070 10/09 A2928 RMK AO2 T01000094=
201804071353 METAR KCLM 071353Z AUTO 00000KT 10SM BKN065 BKN110 09/09 A2927 RMK AO2 RAE12 SLP911 P0002 T00940094=
201804071308 SPECI KCLM 071308Z AUTO 36005KT 7SM -RA FEW008 BKN060 OVC100 09/09 A2927 RMK AO2 PRESFR P0002 T00940094=
201804071253 METAR KCLM 071253Z AUTO 28014G18KT 10SM -RA FEW035 BKN060 OVC075 09/09 A2930 RMK AO2 RAB16 SLP924 P0002 T00940094=
201804071153 METAR KCLM 071153Z AUTO 26008KT 6SM BR OVC060 09/09 A2927 RMK AO2 RAE1054 SLP913 P0000 60004 70004 T00890089 10117 20083 56048=
201804071119 SPECI KCLM 071119Z AUTO 28006KT 3SM BR FEW001 SCT017 OVC060 09/09 A2926 RMK AO2 RAE1054 P0000 T00890089=
201804071113 SPECI KCLM 071113Z AUTO 28005KT 1 1/4SM BR SCT003 OVC060 09/09 A2927 RMK AO2 RAE1054 P0000 T00890089=
201804071109 SPECI KCLM 071109Z AUTO 26007KT 1 1/4SM BR FEW001 BKN004 OVC060 09/09 A2927 RMK AO2 RAE1054 P0000 T00890089=
201804071101 SPECI KCLM 071101Z AUTO 25004KT 1SM BR BKN001 OVC060 09/09 A2927 RMK AO2 RAE1054 P0000 T00890089=
201804071053 METAR KCLM 071053Z AUTO 27003KT 1/4SM -RA FG VV003 09/09 A2927 RMK AO2 RAB07 SLP913 P0004 T00890089=
201804071041 SPECI KCLM 071041Z AUTO 31003KT 1/4SM -RA FG VV004 08/08 A2928 RMK AO2 RAB07 PRESFR P0004 T00830083=
201804071030 SPECI KCLM 071030Z AUTO 32003KT 1/4SM -RA FG VV007 09/09 A2929 RMK AO2 RAB07 PRESFR P0004 T00890089=
201804071015 SPECI KCLM 071015Z AUTO 29005KT 1/4SM -RA FG VV002 09/09 A2932 RMK AO2 RAB07 P0000 T00890089=
201804070953 METAR KCLM 070953Z AUTO 28004KT 1/4SM FG VV001 09/09 A2934 RMK AO2 SLP935 T00890089=
201804070933 SPECI KCLM 070933Z AUTO 09004KT 1/4SM FG VV001 09/09 A2935 RMK AO2 PRESFR T00890089=
201804070924 SPECI KCLM 070924Z AUTO 11005KT 1/4SM FG VV002 09/09 A2937 RMK AO2 PRESFR T00890089=
201804070910 SPECI KCLM 070910Z AUTO VRB03KT 1/2SM FG VV002 09/09 A2939 RMK AO2 PRESFR T00890089=
201804070853 METAR KCLM 070853Z AUTO 00000KT 3/4SM BR OVC001 09/09 A2942 RMK AO2 SLP962 T00940094 58053=
201804070844 SPECI KCLM 070844Z AUTO 00000KT 1 1/2SM BR OVC001 09/09 A2941 RMK AO2 PRESFR T00940094=
201804070835 SPECI KCLM 070835Z AUTO 08003KT 2 1/2SM BR OVC002 09/09 A2942 RMK AO2 T00940094=
201804070753 METAR KCLM 070753Z AUTO 08003KT 4SM BR OVC002 09/09 A2947 RMK AO2 SLP981 T00940094 401390056=
201804070738 SPECI KCLM 070738Z AUTO 08006KT 5SM BR OVC003 10/09 A2949 RMK AO2 CIG 002V006 T01000094=
201804070653 METAR KCLM 070653Z AUTO 09007KT 9SM OVC008 11/10 A2953 RMK AO2 SLP002 T01110100=
201804070623 SPECI KCLM 070623Z AUTO 11005KT 9SM OVC009 12/10 A2956 RMK AO2 T01170100=
201804070553 METAR KCLM 070553Z AUTO 10004KT 10SM OVC010 12/10 A2957 RMK AO2 SLP015 T01170100 10133 20117 58026=
201804070453 METAR KCLM 070453Z AUTO 12004KT 10SM OVC011 12/10 A2961 RMK AO2 SLP026 T01170100=
201804070353 METAR KCLM 070353Z AUTO 13006KT 10SM OVC010 12/10 A2964 RMK AO2 SLP038 T01170100=
201804070321 SPECI KCLM 070321Z AUTO 12007KT 10SM BKN011 OVC028 12/10 A2965 RMK AO2 T01170100=
201804070253 METAR KCLM 070253Z AUTO 12005KT 10SM FEW009 BKN022 OVC028 12/09 A2965 RMK AO2 SLP041 T01170094 56013=
201804070231 SPECI KCLM 070231Z AUTO 12005KT 10SM BKN023 OVC030 12/09 A2965 RMK AO2 T01170094=
201804070153 METAR KCLM 070153Z AUTO 10004KT 10SM OVC031 12/10 A2967 RMK AO2 SLP047 T01170100=
201804070148 SPECI KCLM 070148Z AUTO 08004KT 10SM OVC031 12/10 A2967 RMK AO2=
201804070112 SPECI KCLM 070112Z AUTO 03003KT 10SM OVC029 12/09 A2968 RMK AO2 T01220094=
201804070053 METAR KCLM 070053Z AUTO 00000KT 10SM OVC030 12/09 A2969 RMK AO2 SLP054 T01220089=
201804062353 METAR KCLM 062353Z AUTO 02003KT 10SM BKN034 13/09 A2971 RMK AO2 SLP063 T01280089 10139 20100 56022=
201804062253 METAR KCLM 062253Z AUTO VRB04KT 10SM CLR 12/09 A2973 RMK AO2 SLP069 T01220089=
201804062153 METAR KCLM 062153Z AUTO 03006KT 10SM FEW065 12/09 A2975 RMK AO2 SLP076 T01170094=
201804062053 METAR KCLM 062053Z AUTO 00000KT 10SM FEW070 13/09 A2978 RMK AO2 SLP085 T01330089 58009=
201804061953 METAR KCLM 061953Z AUTO 05004KT 10SM SCT013 SCT070 12/09 A2979 RMK AO2 SLP090 T01220094=
201804061945 SPECI KCLM 061945Z AUTO 05004KT 10SM SCT013 BKN070 12/09 A2979 RMK AO2 T01220089=
201804061936 SPECI KCLM 061936Z AUTO 03003KT 10SM BKN011 BKN070 13/09 A2980 RMK AO2 T01280094=
201804061853 METAR KCLM 061853Z AUTO 00000KT 10SM OVC009 11/09 A2980 RMK AO2 SLP092 T01110094=
201804061837 SPECI KCLM 061837Z AUTO 00000KT 10SM OVC007 11/09 A2981 RMK AO2 CIG 004V010 T01110094=
201804061753 METAR KCLM 061753Z AUTO 01004KT 7SM OVC003 10/09 A2981 RMK AO2 SLP094 60000 T01000094 10106 20061 50001=
201804061708 SPECI KCLM 061708Z AUTO 06003KT 8SM OVC004 10/09 A2981 RMK AO2 T01000094=
201804061653 METAR KCLM 061653Z AUTO 04004KT 8SM OVC005 10/09 A2981 RMK AO2 CIG 003V007 SLP095 T01000094=
201804061639 SPECI KCLM 061639Z AUTO 36003KT 10SM BKN005 OVC025 11/09 A2981 RMK AO2 T01060094=
201804061553 METAR KCLM 061553Z AUTO 00000KT 10SM SCT003 OVC024 10/09 A2981 RMK AO2 SLP094 T01000094=
201804061545 SPECI KCLM 061545Z AUTO 00000KT 10SM SCT003 OVC024 10/09 A2981 RMK AO2 T01000094=
201804061453 METAR KCLM 061453Z AUTO 00000KT 10SM OVC020 09/09 A2981 RMK AO2 SLP094 60000 T00890089 54000=
201804061353 METAR KCLM 061353Z AUTO 20003KT 9SM OVC019 07/07 A2980 RMK AO2 SLP094 T00720072=
201804061253 METAR KCLM 061253Z AUTO 21003KT 5SM BR BKN018 BKN080 07/07 A2981 RMK AO2 RAB09E19 SLP095 P0000 T00720072=
201804061250 SPECI KCLM 061250Z AUTO 22004KT 3SM BR BKN018 BKN080 07/07 A2981 RMK AO2 RAB09E19 P0000=
201804061153 METAR KCLM 061153Z AUTO 13003KT 5SM BR FEW010 OVC065 07/07 A2981 RMK AO2 SLP096 60002 70003 T00720072 10078 20044 51006=
201804061135 SPECI KCLM 061135Z AUTO 00000KT 4SM BR SCT010 OVC060 07/07 A2981 RMK AO2 T00720072=
201804061101 SPECI KCLM 061101Z AUTO 00000KT 9SM SCT003 OVC008 08/08 A2981 RMK AO2 T00780078=
201804061053 METAR KCLM 061053Z AUTO 22004KT 10SM BKN003 OVC008 08/08 A2981 RMK AO2 RAB0955E10 SLP095 P0000 T00780078=
201804061012 SPECI KCLM 061012Z AUTO 23006KT 7SM BKN003 BKN007 OVC065 07/07 A2981 RMK AO2 RAB0955E10 P0000 T00670067=
201804060953 METAR KCLM 060953Z AUTO 00000KT 6SM BR FEW005 FEW009 OVC065 07/07 A2980 RMK AO2 RAB09E27 SLP094 P0002 T00670067=
201804060939 SPECI KCLM 060939Z AUTO 23004KT 6SM BR FEW009 OVC065 07/07 A2981 RMK AO2 RAB09E27 P0002 T00670067=
201804060924 SPECI KCLM 060924Z AUTO 00000KT 4SM -RA BR FEW043 OVC065 06/06 A2980 RMK AO2 RAB09 P0002 T00610061=
201804060915 SPECI KCLM 060915Z AUTO 00000KT 2SM -RA BR FEW034 OVC065 06/06 A2980 RMK AO2 RAB09 P0000 T00610061=
201804060907 SPECI KCLM 060907Z AUTO 00000KT 3/4SM BR SCT007 OVC065 06/06 A2980 RMK AO2 T00610061=
201804060853 METAR KCLM 060853Z AUTO 00000KT 1/4SM FG BKN002 OVC065 06/06 A2979 RMK AO2 SLP090 T00610061 52001=
201804060846 SPECI KCLM 060846Z AUTO 00000KT 1/2SM FG VV002 07/07 A2979 RMK AO2 T00670067=
201804060831 SPECI KCLM 060831Z AUTO 00000KT 3/4SM BR OVC001 06/06 A2979 RMK AO2 T00560056=
201804060821 SPECI KCLM 060821Z AUTO 00000KT 1 3/4SM BR OVC001 06/06 A2979 RMK AO2 VIS 1V3 T00560056=
201804060816 SPECI KCLM 060816Z AUTO 00000KT 3SM BR OVC001 06/06 A2979 RMK AO2 T00560056=
201804060808 SPECI KCLM 060808Z AUTO 22004KT 1SM BR BKN001 OVC065 06/06 A2979 RMK AO2 T00560056=
201804060753 METAR KCLM 060753Z AUTO 00000KT 1/2SM FG BKN002 OVC070 05/05 A2979 RMK AO2 SLP089 T00500050 401000044=
201804060744 SPECI KCLM 060744Z AUTO 00000KT 1SM BR BKN002 OVC070 05/05 A2979 RMK AO2 T00500050=
201804060736 SPECI KCLM 060736Z AUTO 20003KT 1/2SM FG SCT002 OVC070 05/05 A2979 RMK AO2 T00500050=
201804060719 SPECI KCLM 060719Z AUTO 00000KT 1/4SM FG SCT002 BKN070 06/06 A2979 RMK AO2 T00560056=
201804060653 METAR KCLM 060653Z AUTO 00000KT 1/2SM FG VV002 06/06 A2979 RMK AO2 SLP088 T00560056=
201804060651 SPECI KCLM 060651Z AUTO 24003KT 1/2SM FG VV002 06/06 A2979 RMK AO2=
201804060640 SPECI KCLM 060640Z AUTO 00000KT 1/4SM FG VV002 05/05 A2979 RMK AO2 T00500050=
201804060634 SPECI KCLM 060634Z AUTO 11003KT 1/2SM FG VV001 06/06 A2979 RMK AO2 T00610061=
201804060623 SPECI KCLM 060623Z AUTO 00000KT 3/4SM BR FEW001 FEW100 06/06 A2978 RMK AO2 T00610061=
201804060617 SPECI KCLM 060617Z AUTO 00000KT 1 3/4SM BR FEW100 06/06 A2979 RMK AO2 VIS 3/4V5 T00610061=
201804060553 METAR KCLM 060553Z AUTO 00000KT 4SM BR SCT065 BKN080 BKN090 07/07 A2979 RMK AO2 SLP090 60001 T00720072 10089 20072 50003=
201804060453 METAR KCLM 060453Z AUTO 25003KT 5SM BR SCT065 BKN080 OVC100 08/08 A2979 RMK AO2 RAB22E42 SLP090 P0000 T00780078=
201804060353 METAR KCLM 060353Z AUTO 00000KT 5SM BR BKN060 OVC100 08/08 A2978 RMK AO2 RAB26E49 SLP086 P0000 T00830083=
201804060335 SPECI KCLM 060335Z AUTO 00000KT 4SM -RA BR FEW001 OVC060 08/08 A2978 RMK AO2 RAB26 P0000 T00830083=
201804060328 SPECI KCLM 060328Z AUTO 24003KT 2 1/2SM -RA BR FEW001 OVC060 08/08 A2978 RMK AO2 RAB26 P0000 T00830083=
201804060318 SPECI KCLM 060318Z AUTO 24005KT 1 3/4SM BR BKN003 OVC060 08/08 A2978 RMK AO2 CIG 001V004 T00780078=
201804060307 SPECI KCLM 060307Z AUTO 25005KT 2 1/2SM BR BKN004 OVC060 08/08 A2978 RMK AO2 CIG 001V005 T00780078=
201804060253 METAR KCLM 060253Z AUTO 24004KT 5SM BR OVC005 08/08 A2978 RMK AO2 SLP086 60001 T00830078 56012=
201804060153 METAR KCLM 060153Z AUTO 00000KT 10SM OVC005 08/08 A2979 RMK AO2 RAE11 CIG 003V008 SLP088 P0001 T00780078=
201804060121 SPECI KCLM 060121Z AUTO 00000KT 10SM OVC005 08/08 A2979 RMK AO2 RAE11 CIG 003V007 P0001 T00830078=
201804060053 METAR KCLM 060053Z AUTO 00000KT 8SM -RA OVC002 08/08 A2980 RMK AO2 RAB44 SLP093 P0000 T00830078=
201804052353 METAR KCLM 052353Z AUTO 00000KT 7SM BKN004 OVC007 08/08 A2982 RMK AO2 CIG 004V007 SLP098 T00830078 10100 20072 56018=
201804052322 SPECI KCLM 052322Z AUTO 01003KT 8SM OVC009 09/08 A2982 RMK AO2 CIG 007V012 T00890083=
201804052253 METAR KCLM 052253Z AUTO 00000KT 10SM BKN010 BKN070 OVC085 09/08 A2983 RMK AO2 SLP102 T00940078=
201804052225 SPECI KCLM 052225Z AUTO 00000KT 10SM SCT008 BKN090 10/08 A2984 RMK AO2 T01000083=
201804052153 METAR KCLM 052153Z AUTO 00000KT 9SM OVC006 09/08 A2985 RMK AO2 CIG 006V010 SLP110 T00890078=
201804052122 SPECI KCLM 052122Z AUTO 33004KT 9SM OVC009 09/08 A2986 RMK AO2 T00890083=
201804052053 METAR KCLM 052053Z AUTO 31005KT 10SM SCT008 BKN012 OVC060 09/08 A2987 RMK AO2 SLP116 T00940083 56007=
201804052046 SPECI KCLM 052046Z AUTO 31005KT 10SM FEW008 SCT012 OVC065 09/08 A2987 RMK AO2 T00940083=
201804051953 METAR KCLM 051953Z AUTO 30005KT 10SM OVC007 09/08 A2988 RMK AO2 CIG 004V010 SLP118 T00890078=
201804051853 METAR KCLM 051853Z AUTO 00000KT 10SM BKN005 OVC009 08/08 A2989 RMK AO2 CIG 003V008 SLP122 T00780078=
201804051829 SPECI KCLM 051829Z AUTO 00000KT 8SM OVC005 08/08 A2989 RMK AO2 CIG 002V007 T00780078=
201804051753 METAR KCLM 051753Z AUTO 00000KT 4SM BR OVC004 07/07 A2989 RMK AO2 SLP124 60000 T00720072 10078 20067 56006=
201804051703 SPECI KCLM 051703Z AUTO 00000KT 3SM BR OVC002 07/07 A2990 RMK AO2 T00720072=
201804051653 METAR KCLM 051653Z AUTO 00000KT 1 1/4SM BR OVC002 07/07 A2990 RMK AO2 SLP126 T00720072=
201804051651 SPECI KCLM 051651Z AUTO 13003KT 1 1/4SM BR OVC002 07/07 A2990 RMK AO2=
201804051633 SPECI KCLM 051633Z AUTO VRB03KT 2 1/2SM BR OVC002 07/07 A2990 RMK AO2 T00720072=
201804051553 METAR KCLM 051553Z AUTO 08005KT 1 1/4SM BR OVC002 07/07 A2991 RMK AO2 RAE09 SLP130 P0000 T00720072=
201804051538 SPECI KCLM 051538Z AUTO 08004KT 1SM BR OVC001 07/07 A2992 RMK AO2 RAE09 P0000 T00720072=
201804051531 SPECI KCLM 051531Z AUTO 09004KT 3/4SM BR OVC001 07/07 A2992 RMK AO2 RAE09 P0000 T00720072=
201804051453 METAR KCLM 051453Z AUTO 07004KT 1/2SM -RA FG VV002 07/07 A2992 RMK AO2 RAE33B47 SLP133 P0000 60000 T00670067 57007=
201804051445 SPECI KCLM 051445Z AUTO 06003KT 1/4SM FG VV002 07/07 A2992 RMK AO2 RAE33 P0000 T00670067=
201804051434 SPECI KCLM 051434Z AUTO 09004KT 1/2SM FG VV002 07/07 A2992 RMK AO2 RAE33 P0000 T00670067=
201804051409 SPECI KCLM 051409Z AUTO 07004KT 1/4SM -RA FG VV002 07/07 A2992 RMK AO2 P0000 T00670067=
201804051353 METAR KCLM 051353Z AUTO VRB04KT 3/4SM -RA BR VV002 07/07 A2992 RMK AO2 RAB47 SLP135 P0000 T00670067=
201804051338 SPECI KCLM 051338Z AUTO 07004KT 2SM BR OVC002 07/07 A2993 RMK AO2 T00670067=
201804051321 SPECI KCLM 051321Z AUTO 06005KT 3SM BR OVC002 07/07 A2993 RMK AO2 T00670067=
201804051308 SPECI KCLM 051308Z AUTO 05004KT 2SM BR OVC001 07/07 A2993 RMK AO2 T00670067=
201804051253 METAR KCLM 051253Z AUTO VRB04KT 1 1/2SM BR OVC001 07/07 A2994 RMK AO2 SLP139 T00670067=
201804051237 SPECI KCLM 051237Z AUTO VRB03KT 1SM BR VV002 07/07 A2994 RMK AO2 T00670067=
201804051219 SPECI KCLM 051219Z AUTO 00000KT 1/2SM FG VV002 07/07 A2994 RMK AO2 T00670067=
201804051153 METAR KCLM 051153Z AUTO 01004KT 1/4SM FG VV001 07/07 A2994 RMK AO2 SLP141 60000 70035 T00670067 10072 20067 56015=
201804051139 SPECI KCLM 051139Z AUTO VRB03KT 1/4SM FG VV001 07/07 A2994 RMK AO2 T00670067=
201804051136 SPECI KCLM 051136Z AUTO 00000KT 1/2SM FG VV002 07/07 A2994 RMK AO2 T00670067=
201804051113 SPECI KCLM 051113Z AUTO VRB04KT 1 3/4SM BR OVC001 07/07 A2994 RMK AO2 T00670067=
201804051053 METAR KCLM 051053Z AUTO VRB05KT 2SM BR OVC001 07/07 A2995 RMK AO2 SLP143 T00670067=
201804051038 SPECI KCLM 051038Z AUTO 08005KT 2 1/2SM BR OVC001 07/07 A2994 RMK AO2 T00670067=
201804050953 METAR KCLM 050953Z AUTO 08006KT 7SM OVC003 07/07 A2996 RMK AO2 SLP148 T00670067=
201804050853 METAR KCLM 050853Z AUTO 06004KT 7SM OVC002 07/07 A2998 RMK AO2 SLP155 60000 T00720072 56005=
201804050753 METAR KCLM 050753Z AUTO VRB03KT 5SM BR OVC002 07/07 A2999 RMK AO2 SLP157 T00720072 400720028=
201804050723 SPECI KCLM 050723Z AUTO 00000KT 3SM BR OVC004 07/07 A2999 RMK AO2 CIG 002V006 T00670067=
201804050653 METAR KCLM 050653Z AUTO 00000KT 1 3/4SM BR OVC007 07/07 A2999 RMK AO2 RAE40 SLP156 P0000 T00670067=
201804050631 SPECI KCLM 050631Z AUTO 00000KT 2SM -RA BR OVC008 07/07 A2999 RMK AO2 P0000 T00670067=
201804050605 SPECI KCLM 050605Z AUTO 00000KT 3SM -RA BR OVC008 07/07 A3000 RMK AO2 CIG 007V011 P0000 T00670067=
201804050553 METAR KCLM 050553Z AUTO 00000KT 1 1/4SM -RA BR OVC008 07/07 A3000 RMK AO2 SLP160 P0003 60017 T00670067 10067 20061 56005=
201804050539 SPECI KCLM 050539Z AUTO 00000KT 3/4SM -RA BR OVC009 07/07 A3000 RMK AO2 P0003 T00670067=
201804050526 SPECI KCLM 050526Z AUTO 00000KT 1 1/4SM -RA BR OVC009 07/06 A3001 RMK AO2 P0002 T00670061=
201804050516 SPECI KCLM 050516Z AUTO 00000KT 2 1/2SM -RA BR BKN009 OVC043 07/06 A3001 RMK AO2 P0002 T00670061=
201804050504 SPECI KCLM 050504Z AUTO 00000KT 3SM -RA BR FEW006 OVC011 07/07 A3001 RMK AO2 P0000 T00670067=
201804050453 METAR KCLM 050453Z AUTO 00000KT 1 3/4SM -RA BR FEW006 BKN013 OVC041 07/07 A3001 RMK AO2 SLP164 P0004 T00670067=
201804050448 SPECI KCLM 050448Z AUTO 00000KT 2 1/2SM -RA BR FEW006 OVC013 07/07 A3001 RMK AO2 P0002=
201804050353 METAR KCLM 050353Z AUTO 12003KT 5SM -RA BR BKN012 OVC070 06/06 A3001 RMK AO2 SLP165 P0002 T00610061=
201804050329 SPECI KCLM 050329Z AUTO 12003KT 5SM -RA BR SCT017 SCT032 OVC065 06/06 A3002 RMK AO2 P0002 T00610061=
201804050253 METAR KCLM 050253Z AUTO 12003KT 4SM -RA BR SCT006 BKN015 OVC055 07/06 A3002 RMK AO2 SLP168 P0004 60008 T00670061 58006=
201804050232 SPECI KCLM 050232Z AUTO 00000KT 4SM -RA BR BKN006 OVC017 07/06 A3003 RMK AO2 CIG 006V010 P0002 T00670061=
201804050153 METAR KCLM 050153Z AUTO 00000KT 7SM -RA FEW007 OVC016 07/06 A3003 RMK AO2 SLP172 P0000 T00670061=
201804050053 METAR KCLM 050053Z AUTO 00000KT 5SM -RA BR FEW004 OVC015 07/06 A3004 RMK AO2 SLP173 P0004 T00670061=
201804050034 SPECI KCLM 050034Z AUTO 00000KT 5SM -RA BR SCT006 OVC015 07/06 A3004 RMK AO2 P0004 T00670061=
201804042353 METAR KCLM 042353Z AUTO 04003KT 3SM -RA BR OVC005 07/06 A3004 RMK AO2 SLP174 P0006 60018 T00670061 10067 20056 56003=
201804042339 SPECI KCLM 042339Z AUTO 00000KT 3SM -RA BR BKN005 BKN016 OVC043 06/06 A3004 RMK AO2 P0004 T00610056=
201804042332 SPECI KCLM 042332Z AUTO 00000KT 2 1/2SM -RA BR SCT007 BKN016 OVC055 07/06 A3004 RMK AO2 P0004 T00670061=
201804042327 SPECI KCLM 042327Z AUTO 00000KT 3SM -RA BR FEW007 BKN043 OVC055 07/06 A3004 RMK AO2 P0004 T00670056=
201804042253 METAR KCLM 042253Z AUTO 00000KT 3SM -RA BR BKN017 OVC040 06/05 A3004 RMK AO2 SLP175 P0005 T00610050=
201804042214 SPECI KCLM 042214Z AUTO VRB03KT 5SM -RA BR SCT015 BKN021 OVC055 06/05 A3004 RMK AO2 P0001 T00610050=
201804042153 METAR KCLM 042153Z AUTO VRB03KT 5SM -RA BR OVC060 07/05 A3005 RMK AO2 SLP176 P0002 T00670050=
201804042110 SPECI KCLM 042110Z AUTO 00000KT 7SM -RA SCT017 BKN041 OVC055 07/05 A3005 RMK AO2 P0000 T00670050=
201804042053 METAR KCLM 042053Z AUTO 00000KT 6SM -RA BR OVC019 07/05 A3005 RMK AO2 SLP178 P0001 60005 T00670050 50005=
201804042003 SPECI KCLM 042003Z AUTO 33003KT 5SM -RA BR FEW006 OVC018 06/04 A3005 RMK AO2 P0000 T00610044=
201804041953 METAR KCLM 041953Z AUTO 00000KT 5SM -RA BR BKN018 BKN045 OVC050 06/05 A3005 RMK AO2 SLP178 P0004 T00610050=
201804041853 METAR KCLM 041853Z AUTO 00000KT 5SM -RA BR SCT009 OVC017 06/04 A3005 RMK AO2 RAB33 SLP176 P0000 T00610044=
201804041837 SPECI KCLM 041837Z AUTO VRB03KT 6SM -RA BR SCT009 BKN017 OVC055 06/04 A3005 RMK AO2 RAB33 P0000 T00610044=
201804041821 SPECI KCLM 041821Z AUTO VRB03KT 8SM BKN015 OVC055 06/04 A3004 RMK AO2 T00610039=
201804041753 METAR KCLM 041753Z AUTO 36004KT 10SM FEW011 BKN060 OVC070 06/04 A3004 RMK AO2 SLP173 T00610039 10061 20028 55001=
201804041739 SPECI KCLM 041739Z AUTO 35003KT 10SM FEW009 OVC065 06/04 A3003 RMK AO2 T00610044=
201804041713 SPECI KCLM 041713Z AUTO 33003KT 10SM FEW009 OVC015 06/04 A3003 RMK AO2 T00610044=
201804041705 SPECI KCLM 041705Z AUTO 00000KT 9SM OVC015 06/04 A3003 RMK AO2 T00610044=
201804041653 METAR KCLM 041653Z AUTO 00000KT 10SM OVC014 06/04 A3003 RMK AO2 SLP170 T00610044=
201804041627 SPECI KCLM 041627Z AUTO 00000KT 10SM OVC014 06/04 A3004 RMK AO2 T00560044=
201804041553 METAR KCLM 041553Z AUTO 00000KT 10SM OVC017 06/04 A3004 RMK AO2 SLP174 T00560044=
201804041516 SPECI KCLM 041516Z AUTO 00000KT 10SM BKN020 OVC070 05/03 A3004 RMK AO2 T00500033=
201804041453 METAR KCLM 041453Z AUTO 11003KT 10SM FEW024 OVC065 04/04 A3004 RMK AO2 SLP174 T00440039 56003=
201804041353 METAR KCLM 041353Z AUTO 00000KT 6SM BR FEW017 OVC070 03/03 A3004 RMK AO2 SLP175 T00330033=
201804041253 METAR KCLM 041253Z AUTO 17003KT 6SM BR OVC050 03/03 A3004 RMK AO2 SLP175 T00330033=
201804041153 METAR KCLM 041153Z AUTO 00000KT 10SM OVC055 03/03 A3005 RMK AO2 RAE1056 SLP177 P0000 60006 70006 T00330033 10056 20033 58006=
201804041105 SPECI KCLM 041105Z AUTO 00000KT 9SM SCT019 OVC055 04/03 A3006 RMK AO2 RAE1056 P0000 T00390033=
201804041053 METAR KCLM 041053Z AUTO 00000KT 10SM -RA BKN019 BKN042 OVC055 04/03 A3006 RMK AO2 RAE16B22 SLP180 P0000 T00390033=
201804041032 SPECI KCLM 041032Z AUTO 00000KT 10SM -RA BKN020 BKN040 OVC060 04/03 A3006 RMK AO2 RAE16B22 P0000 T00390033=
201804041020 SPECI KCLM 041020Z AUTO 00000KT 9SM SCT022 BKN055 OVC070 04/04 A3006 RMK AO2 RAE16 P0000 T00390039=
201804040953 METAR KCLM 040953Z AUTO 00000KT 6SM -RA BR BKN018 OVC031 04/04 A3007 RMK AO2 SLP183 P0003 T00440039=
201804040927 SPECI KCLM 040927Z AUTO 19003KT 5SM -RA BR FEW020 OVC028 04/04 A3007 RMK AO2 P0001 T00440039=
201804040910 SPECI KCLM 040910Z AUTO 00000KT 5SM -RA BR SCT022 BKN030 OVC035 04/04 A3007 RMK AO2 P0000 T00440039=
201804040853 METAR KCLM 040853Z AUTO 19004KT 5SM -RA BR BKN024 OVC032 04/04 A3007 RMK AO2 SLP184 P0003 60003 T00440039 52007=
201804040836 SPECI KCLM 040836Z AUTO 20003KT 5SM -RA BR BKN025 OVC033 04/04 A3007 RMK AO2 P0001 T00440039=
201804040753 METAR KCLM 040753Z AUTO 24004KT 6SM -RA BR OVC038 04/04 A3006 RMK AO2 SLP181 P0000 T00440039 400830033=
201804040653 METAR KCLM 040653Z AUTO 26004KT 9SM -RA OVC044 05/03 A3005 RMK AO2 RAB45 SLP179 P0000 T00500028=
201804040553 METAR KCLM 040553Z AUTO 22003KT 10SM BKN080 OVC110 05/02 A3005 RMK AO2 SLP177 T00500022 10072 20039 50005=
201804040453 METAR KCLM 040453Z AUTO 24003KT 10SM BKN120 05/02 A3005 RMK AO2 SLP177 T00500022=
201804040353 METAR KCLM 040353Z AUTO 20003KT 10SM OVC050 06/03 A3004 RMK AO2 SLP176 T00560028=
201804040253 METAR KCLM 040253Z AUTO 00000KT 10SM BKN047 OVC060 06/03 A3003 RMK AO2 SLP171 T00610028 56009=
201804040153 METAR KCLM 040153Z AUTO 00000KT 10SM SCT110 07/02 A3004 RMK AO2 SLP173 T00670022=
201804040053 METAR KCLM 040053Z AUTO 00000KT 10SM FEW050 SCT070 BKN110 07/02 A3004 RMK AO2 SLP176 T00670017=
201804032353 METAR KCLM 032353Z AUTO VRB03KT 10SM BKN050 OVC070 07/02 A3006 RMK AO2 SLP180 T00720017 10083 20067 58001=
201804032253 METAR KCLM 032253Z AUTO 04004KT 10SM BKN042 BKN110 08/02 A3006 RMK AO2 SLP180 T00780022=
201804032153 METAR KCLM 032153Z AUTO 10004KT 10SM BKN049 OVC060 08/03 A3007 RMK AO2 SLP184 T00780033=
201804032053 METAR KCLM 032053Z AUTO VRB04KT 10SM BKN070 07/03 A3006 RMK AO2 SLP182 T00720033 56002=
201804031953 METAR KCLM 031953Z AUTO VRB04KT 10SM OVC060 07/04 A3007 RMK AO2 SLP183 T00720039=
201804031853 METAR KCLM 031853Z AUTO VRB05KT 10SM BKN065 07/02 A3006 RMK AO2 SLP181 T00720022=
201804031822 SPECI KCLM 031822Z AUTO 02004KT 10SM FEW024 SCT029 BKN120 07/02 A3007 RMK AO2 T00720022=
201804031815 SPECI KCLM 031815Z AUTO VRB04KT 10SM SCT023 BKN029 BKN065 07/02 A3007 RMK AO2 T00720022=
201804031753 METAR KCLM 031753Z AUTO 00000KT 10SM OVC065 07/02 A3007 RMK AO2 SLP184 T00670022 10072 20033 55005=
201804031653 METAR KCLM 031653Z AUTO VRB05KT 10SM OVC060 07/02 A3007 RMK AO2 SLP183 T00670017=
201804031553 METAR KCLM 031553Z AUTO 00000KT 10SM OVC060 05/02 A3007 RMK AO2 SLP185 T00500017=
201804031453 METAR KCLM 031453Z AUTO 22004KT 10SM OVC060 04/02 A3008 RMK AO2 SLP189 T00390017 57008=
201804031353 METAR KCLM 031353Z AUTO 17003KT 10SM OVC060 03/01 A3009 RMK AO2 SLP192 T00330011=
201804031312 SPECI KCLM 031312Z AUTO 00000KT 10SM SCT025 BKN031 OVC060 04/01 A3010 RMK AO2 T00390011=
201804031253 METAR KCLM 031253Z AUTO 22003KT 10SM BKN026 BKN031 OVC060 04/01 A3010 RMK AO2 SLP194 T00390006=
201804031205 SPECI KCLM 031205Z AUTO 00000KT 10SM BKN029 OVC055 04/00 A3011 RMK AO2 T00390000=
201804031153 METAR KCLM 031153Z AUTO 24003KT 10SM SCT030 OVC060 04/00 A3011 RMK AO2 SLP198 T00390000 10067 20039 56004=
201804031053 METAR KCLM 031053Z AUTO 33003KT 10SM OVC060 04/M01 A3011 RMK AO2 SLP199 T00391006=
201804030953 METAR KCLM 030953Z AUTO 16005KT 10SM OVC065 04/M01 A3011 RMK AO2 SLP198 T00441006=
201804030853 METAR KCLM 030853Z AUTO 33006KT 10SM OVC060 06/M02 A3012 RMK AO2 SLP202 T00611017 58003=
201804030753 METAR KCLM 030753Z AUTO VRB03KT 10SM OVC065 06/M02 A3013 RMK AO2 SLP204 T00611022 401060017=
201804030653 METAR KCLM 030653Z AUTO 25007KT 10SM OVC060 06/00 A3013 RMK AO2 SLP205 T00560000=
201804030553 METAR KCLM 030553Z AUTO 28006KT 10SM OVC060 06/00 A3013 RMK AO2 SLP205 T00560000 10089 20050 51009=
201804030453 METAR KCLM 030453Z AUTO 27006KT 10SM OVC060 06/01 A3013 RMK AO2 SLP204 T00560006=
201804030353 METAR KCLM 030353Z AUTO 29007KT 10SM OVC065 06/01 A3012 RMK AO2 SLP200 T00560006=
201804030253 METAR KCLM 030253Z AUTO 28012G16KT 10SM SCT060 07/M01 A3010 RMK AO2 SLP196 T00671006 52003=
201804030153 METAR KCLM 030153Z AUTO 29009KT 10SM SCT046 08/M01 A3010 RMK AO2 SLP196 T00781006=
201804030053 METAR KCLM 030053Z AUTO 30010KT 10SM FEW065 08/00 A3009 RMK AO2 SLP193 T00780000=
201804022353 METAR KCLM 022353Z AUTO 31015G27KT 10SM CLR 08/02 A3009 RMK AO2 PK WND 32027/2346 SLP193 T00830017 10106 20078 51013=
201804022253 METAR KCLM 022253Z AUTO 32016G22KT 10SM FEW055 09/01 A3008 RMK AO2 SLP189 T00890006=
201804022153 METAR KCLM 022153Z AUTO 32013G22KT 10SM FEW065 08/01 A3009 RMK AO2 SLP190 T00830006=
201804022053 METAR KCLM 022053Z AUTO 34011G19KT 10SM SCT060 08/02 A3006 RMK AO2 SLP180 T00830017 51010=
201804021953 METAR KCLM 021953Z AUTO 33009G17KT 10SM CLR 09/M01 A3005 RMK AO2 SLP176 T00941011=
201804021853 METAR KCLM 021853Z AUTO 32011G16KT 10SM CLR 09/M01 A3004 RMK AO2 SLP175 T00891006=
201804021753 METAR KCLM 021753Z AUTO 31011G20KT 250V350 10SM CLR 09/M03 A3003 RMK AO2 SLP170 T00891028 10089 20017 51021=
201804021653 METAR KCLM 021653Z AUTO 25008KT 10SM CLR 07/M02 A3001 RMK AO2 SLP166 T00721017=
201804021553 METAR KCLM 021553Z AUTO 26008KT 10SM CLR 04/M01 A2999 RMK AO2 SLP158 T00441011=
201804021453 METAR KCLM 021453Z AUTO 25011KT 10SM CLR 03/M02 A2997 RMK AO2 SLP149 T00281017 51022=
201804021353 METAR KCLM 021353Z AUTO 25010KT 10SM CLR 02/M02 A2995 RMK AO2 SLP142 T00221017=
201804021253 METAR KCLM 021253Z AUTO 27007KT 10SM CLR 02/M02 A2992 RMK AO2 SLP135 T00171017=
201804021153 METAR KCLM 021153Z AUTO 27008KT 10SM CLR 02/M01 A2990 RMK AO2 SLP127 60000 70003 T00221011 10039 20017 53014=
201804021053 METAR KCLM 021053Z AUTO 25010KT 10SM CLR 03/M01 A2988 RMK AO2 SLP120 T00281011=
201804021023 SPECI KCLM 021023Z AUTO 24009KT 10SM SCT029 03/M01 A2988 RMK AO2 T00281006=
201804021015 SPECI KCLM 021015Z AUTO 24009KT 10SM BKN029 03/M01 A2988 RMK AO2 T00281006=
201804020953 METAR KCLM 020953Z AUTO 25010KT 10SM BKN030 03/M01 A2987 RMK AO2 SLP116 T00281006=
201804020853 METAR KCLM 020853Z AUTO 24010KT 10SM FEW034 BKN041 OVC070 03/M01 A2986 RMK AO2 RAB0755E21UPB37E47 SLP113 P0000 60000 T00331006 53003=
201804020827 SPECI KCLM 020827Z AUTO 25009KT 10SM SCT021 BKN060 OVC075 03/00 A2986 RMK AO2 RAB0755E21 P0000 T00330000=
201804020809 SPECI KCLM 020809Z AUTO 27012G22KT 7SM -RA FEW012 BKN026 OVC090 03/00 A2986 RMK AO2 RAB0755 P0000 T00330000=
201804020753 METAR KCLM 020753Z AUTO 27013G23KT 10SM FEW019 BKN039 BKN080 03/M01 A2985 RMK AO2 SLP111 T00331011 400830028=
201804020653 METAR KCLM 020653Z AUTO 25012KT 10SM FEW045 SCT060 03/M01 A2984 RMK AO2 SLP108 T00331011=
201804020553 METAR KCLM 020553Z AUTO 25010KT 10SM FEW050 03/M02 A2985 RMK AO2 SLP110 T00331017 10078 20028 58001=
201804020453 METAR KCLM 020453Z AUTO 24009KT 10SM FEW040 03/M01 A2985 RMK AO2 SLP111 T00281011=
201804020353 METAR KCLM 020353Z AUTO 27015G20KT 10SM FEW060 04/M02 A2985 RMK AO2 SLP110 T00441022=
201804020253 METAR KCLM 020253Z AUTO 27011KT 10SM FEW055 SCT075 BKN110 04/M02 A2985 RMK AO2 SLP111 T00441022 56005=
201804020153 METAR KCLM 020153Z AUTO 25020G27KT 10SM FEW047 06/M02 A2985 RMK AO2 PK WND 26027/0152 SLP111 T00611022=
201804020053 METAR KCLM 020053Z AUTO 27016G21KT 10SM CLR 07/M01 A2986 RMK AO2 SLP112 T00671011=
201804012353 METAR KCLM 012353Z AUTO 26015G22KT 10SM FEW040 SCT055 SCT080 08/M01 A2987 RMK AO2 PK WND 28027/2325 RAE09 SLP116 P0000 60000 T00781006 10083 20044 58010=
201804012253 METAR KCLM 012253Z AUTO 31013G22KT 9SM -RA BKN036 OVC044 06/00 A2989 RMK AO2 RAB51 SLP123 P0000 T00560000=
201804012153 METAR KCLM 012153Z AUTO 27015G21KT 10SM FEW038 BKN055 OVC070 06/01 A2990 RMK AO2 PK WND 29028/2129 RAB15E42 SLP126 P0000 T00610011=
201804012053 METAR KCLM 012053Z AUTO 32016G25KT 10SM FEW030 BKN050 BKN065 06/02 A2990 RMK AO2 PK WND 30031/2035 SLP126 60000 T00610017 56014=
201804011953 METAR KCLM 011953Z AUTO 29014G20KT 10SM SCT043 BKN050 BKN065 07/01 A2991 RMK AO2 PK WND 32028/1910 RAB38E48 SLP129 P0000 T00670011=
201804011853 METAR KCLM 011853Z AUTO 30013G19KT 10SM FEW031 SCT043 SCT050 07/02 A2992 RMK AO2 RAE15 SLP134 P0000 T00720022=
201804011753 METAR KCLM 011753Z AUTO 28017G21KT 7SM -RA BKN047 OVC055 05/03 A2994 RMK AO2 SLP140 P0001 60003 T00500033 10067 20050 56005=
201804011653 METAR KCLM 011653Z AUTO 31010G15KT 5SM -RA BR FEW024 BKN031 OVC043 06/03 A2994 RMK AO2 RAB25 SLP141 P0002 T00560033=
201804011553 METAR KCLM 011553Z AUTO 29007KT 10SM OVC055 06/04 A2994 RMK AO2 RAE09 SLP140 P0000 T00610039=
201804011453 METAR KCLM 011453Z AUTO 27003KT 6SM -RA BR BKN042 OVC055 06/04 A2996 RMK AO2 RAB23 SLP146 P0000 60000 T00560039 58014=
201804011353 METAR KCLM 011353Z AUTO 29006KT 10SM OVC075 06/03 A2997 RMK AO2 SLP151 T00610028=
201804011253 METAR KCLM 011253Z AUTO 27005KT 10SM BKN060 OVC100 06/03 A2999 RMK AO2 SLP155 T00610028=
201804011153 METAR KCLM 011153Z AUTO 12003KT 10SM SCT065 OVC095 06/03 A3000 RMK AO2 SLP159 T00610033 10072 20061 56017=
201804011053 METAR KCLM 011053Z AUTO 21004KT 10SM OVC070 07/03 A3001 RMK AO2 SLP161 T00670033=
201804010953 METAR KCLM 010953Z AUTO 24006KT 10SM OVC080 07/04 A3002 RMK AO2 SLP168 T00670039=
201804010853 METAR KCLM 010853Z AUTO 26010KT 10SM BKN095 OVC110 07/03 A3005 RMK AO2 SLP176 T00670033 58017=
201804010803 SPECI KCLM 010803Z AUTO 29006KT 10SM SCT022 OVC085 07/04 A3006 RMK AO2 T00670044=
201804010753 METAR KCLM 010753Z AUTO 30006KT 10SM BKN020 OVC085 07/04 A3006 RMK AO2 SLP182 T00670044 401110033=
201804010653 METAR KCLM 010653Z AUTO 29007KT 10SM OVC017 07/04 A3008 RMK AO2 SLP189 T00720044=
201804010553 METAR KCLM 010553Z AUTO 26004KT 10SM OVC017 07/06 A3010 RMK AO2 SLP194 T00720056 10111 20061 58012=
201804010453 METAR KCLM 010453Z AUTO 28004KT 10SM OVC015 07/06 A3012 RMK AO2 SLP201 T00720056=
201804010418 SPECI KCLM 010418Z AUTO 28006KT 10SM BKN013 07/06 A3013 RMK AO2 T00670056=
201804010353 METAR KCLM 010353Z AUTO 29005KT 10SM CLR 06/05 A3013 RMK AO2 SLP206 T00610050=
201804010253 METAR KCLM 010253Z AUTO 30006KT 10SM CLR 07/04 A3013 RMK AO2 SLP205 T00720044 56011=
201804010153 METAR KCLM 010153Z AUTO 34005KT 10SM OVC042 09/05 A3013 RMK AO2 SLP206 T00890050=
201804010053 METAR KCLM 010053Z AUTO 00000KT 10SM OVC045 11/03 A3015 RMK AO2 SLP211 T01110033=

# No short TAF reports from KCLM in databse.

###################################
#  large TAF from KCLM
###################################
201804302320 TAF KCLM 302320Z 0100/0124 29007KT P6SM SCT025 FM010600 27010KT
                       P6SM BKN020 FM011500 27005KT P6SM BKN030
                       FM012000 VRB04KT P6SM SCT040=
201804301721 TAF KCLM 301721Z 3018/0118 33007KT P6SM OVC040 FM302000 32007KT
                       P6SM SCT040 BKN050 FM010800 27010KT P6SM
                       OVC025=
201804301148 KCLM 301148Z 3012/0112 26005KT P6SM OVC025 FM301800 33007KT P6SM
                       BKN025 OVC050 FM302000 32007KT P6SM SCT030
                       BKN050 FM010800 27010KT P6SM OVC025=
201804301133 TAF KCLM 301133Z 3012/0112 26005KT P6SM OVC025 FM301800 33007KT
                       P6SM BKN025 OVC050 FM302000 32007KT P6SM
                       SCT030 BKN050=
201804300524 TAF KCLM 300524Z 3006/0106 00000KT P6SM VCSH OVC050 FM300900 26004KT
                       P6SM BKN010 OVC025 FM301200 26005KT P6SM
                       OVC025 FM301800 33007KT P6SM BKN025 OVC050
                       FM302000 32007KT P6SM SCT030 BKN050=
201804292321 TAF KCLM 292321Z 3000/3024 30005KT P6SM SCT025 OVC050 FM300800
                       27008KT P6SM SCT010 OVC020 FM301800 33006KT
                       P6SM SCT025 BKN050=
201804291720 TAF KCLM 291720Z 2918/3018 33004KT P6SM OVC015 FM292000 30006KT
                       P6SM SCT020 BKN050 FM300800 27008KT P6SM
                       SCT010 OVC020=
201804291120 TAF KCLM 291120Z 2912/3012 VRB03KT P6SM FEW020 SCT050 BKN100 FM291900
                       30006KT P6SM SCT020 BKN050 FM300800 27009KT
                       P6SM SCT010 BKN020=
201804290541 TAF KCLM 290541Z 2906/3006 29005KT P6SM VCSH FEW009 SCT020 SCT030
                       FM291900 33006KT P6SM SCT015 BKN050=
201804282320 TAF KCLM 282320Z 2900/2924 29006KT P6SM BKN007 OVC015
                      TEMPO 2900/2903 5SM -SHRA BR OVC005 FM290500
                       26005KT P6SM OVC005 FM291900 33006KT P6SM
                       SCT015 BKN050=
201804282143 KCLM 282143Z 2822/2918 33007KT 4SM -SHRA BR OVC004 FM290200 30006KT
                       P6SM SCT011 OVC020=
201804282007 KCLM 282007Z 2820/2918 31005KT P6SM -SHRA SCT006 OVC060
                      TEMPO 2820/2823 5SM -SHRA BR BKN006 OVC060
                       FM290200 30006KT P6SM SCT011 OVC020=
201804281720 TAF KCLM 281720Z 2818/2918 29004KT 5SM -SHRA BR BKN005 OVC070 FM282000
                       31005KT P6SM -SHRA SCT006 BKN025 OVC050
                       FM290200 30006KT P6SM SCT011 OVC020=
201804281134 TAF KCLM 281134Z 2812/2912 30006KT 5SM BR BKN006 OVC010 FM281700
                       30006KT P6SM -SHRA SCT006 BKN011 OVC020
                       FM290200 30006KT P6SM SCT011 OVC020=
201804280532 TAF KCLM 280532Z 2806/2906 30008KT P6SM OVC011 FM281000 27006KT
                       P6SM -RA OVC007 FM281700 31005KT P6SM -SHRA
                       BKN011 OVC020=
201804272321 TAF KCLM 272321Z 2800/2824 29012G18KT P6SM OVC011 FM281000 27006KT
                       P6SM -SHRA OVC007 FM281700 31005KT P6SM
                       -SHRA BKN011 OVC020=
201804271720 TAF KCLM 271720Z 2718/2818 32006KT P6SM OVC006 FM272000 28012KT
                       P6SM SCT120 BKN200 FM280600 28012KT P6SM
                       -SHRA BKN025 OVC040=
201804271135 TAF KCLM 271135Z 2712/2812 28008KT 1SM BR OVC002 FM271500 28008KT
                       3SM BR OVC004 FM271700 28008KT P6SM OVC006
                       FM272000 28012KT P6SM SCT120 BKN200 FM280600
                       28012KT P6SM -SHRA BKN025 OVC040=
201804270711 KCLM 270711Z 2707/2806 30006KT 3SM BR OVC003 FM271200 28006KT P6SM
                       OVC005 FM271700 28006KT P6SM OVC011 FM272100
                       28012KT P6SM SCT120 BKN200=
201804270532 TAF KCLM 270532Z 2706/2806 30006KT P6SM SKC FM271500 28006KT P6SM
                       SCT020
                      TEMPO 2715/2719 BKN020 FM272300 28012KT P6SM
                       SCT120 BKN200=
201804262321 TAF KCLM 262321Z 2700/2724 09006KT P6SM SKC FM270300 26008KT P6SM
                       SCT250 FM271500 28006KT P6SM SCT020
                      TEMPO 2715/2719 BKN020=
201804261723 TAF KCLM 261723Z 2618/2718 10005KT P6SM SKC FM270300 26008KT P6SM
                       SCT250 FM271500 28006KT P6SM BKN020=
201804261124 TAF KCLM 261124Z 2612/2712 23006KT P6SM SKC FM261700 08006KT P6SM
                       SKC FM270300 26008KT P6SM SCT250=
201804260520 TAF KCLM 260520Z 2606/2706 VRB03KT P6SM FEW250 FM261700 04006KT
                       P6SM SCT200 FM270400 28005KT P6SM SCT200=
201804252327 TAF KCLM 252327Z 2600/2624 11007KT P6SM SKC FM260400 24004KT P6SM
                       SKC FM261700 08006KT P6SM SKC=
201804251720 TAF KCLM 251720Z 2518/2618 09009KT P6SM SKC FM260300 24004KT P6SM
                       SKC FM261700 08006KT P6SM SKC=
201804251126 TAF KCLM 251126Z 2512/2612 23006KT P6SM SCT200 FM251700 09007KT
                       P6SM SCT200 FM260400 27005KT P6SM SCT200=
201804250532 TAF KCLM 250532Z 2506/2606 23003KT P6SM SCT200 FM251600 09007KT
                       P6SM SKC=
201804242320 TAF KCLM 242320Z 2500/2524 VRB04KT P6SM BKN250 FM251200 09006KT
                       P6SM SCT250=
201804241720 TAF KCLM 241720Z 2418/2518 09004KT P6SM SCT250 FM250400 27005KT
                       P6SM BKN200=
201804241133 TAF KCLM 241133Z 2412/2512 VRB03KT P6SM SCT200 FM241800 07006KT
                       P6SM SCT200 FM250400 27005KT P6SM SKC=
201804240526 TAF KCLM 240526Z 2406/2506 VRB03KT P6SM SKC FM241800 07006KT P6SM
                       SKC=
201804232322 TAF KCLM 232322Z 2400/2424 08008KT P6SM SKC FM240500 VRB04KT P6SM
                       SKC FM241000 08008KT P6SM SKC=
201804231720 TAF KCLM 231720Z 2318/2418 09007KT P6SM SKC FM240500 24004KT P6SM
                       SKC=
201804231127 TAF KCLM 231127Z 2312/2412 23004KT P6SM SKC FM231800 08005KT P6SM
                       SKC FM240500 24004KT P6SM SKC=
201804230521 TAF KCLM 230521Z 2306/2406 23004KT P6SM SKC FM231800 08005KT P6SM
                       SKC=
201804222320 TAF KCLM 222320Z 2300/2324 VRB04KT P6SM SKC=
201804221720 TAF KCLM 221720Z 2218/2318 VRB04KT P6SM SKC=
201804221120 TAF KCLM 221120Z 2212/2312 25010KT P6SM SCT200 FM221800 04007KT
                       P6SM SKC FM230300 25004KT P6SM SKC=
201804220537 TAF KCLM 220537Z 2206/2306 25004KT P6SM SKC FM221800 04007KT P6SM
                       SKC FM230300 25004KT P6SM SKC=
201804212320 TAF KCLM 212320Z 2200/2224 31012G22KT P6SM SCT050 BKN150 FM220500
                       30006KT P6SM SCT050 SCT200 FM221200 VRB03KT
                       P6SM SCT003 SCT250
                      TEMPO 2212/2216 3SM BR BKN003 FM221700 33007KT
                       P6SM SCT250=
201804211720 TAF KCLM 211720Z 2118/2218 29012G22KT P6SM SCT040 FM220500 30006KT
                       P6SM SCT050 BKN250 FM221200 VRB03KT P6SM
                       SCT003 SCT250
                      TEMPO 2212/2216 3SM BR BKN003 FM221700 33007KT
                       P6SM SCT250=
201804211122 TAF KCLM 211122Z 2112/2212 28010G20KT P6SM -SHRA SCT025 BKN045
                       FM211700 30014G24KT P6SM VCSH SCT045 FM220000
                       29012G20KT P6SM SCT200=
201804210542 TAF KCLM 210542Z 2106/2206 VRB03KT P6SM -RA OVC050 FM211100 28010G20KT
                       P6SM -SHRA SCT025 BKN045 FM211700 30014G24KT
                       P6SM VCSH SCT045 FM220000 29012G20KT P6SM
                       SCT200=
201804202320 TAF KCLM 202320Z 2100/2124 30007KT P6SM BKN050 OVC090 FM210400
                       28012KT P6SM -SHRA BKN030 OVC050 FM211100
                       28012G22KT P6SM -SHRA BKN025 BKN040 FM211700
                       30012G22KT P6SM VCSH BKN040 FM212000 VRB05KT
                       P6SM SCT030 BKN040=
201804201720 TAF KCLM 201720Z 2018/2118 33006KT P6SM OVC100 FM210000 VRB03KT
                       P6SM -RA BKN050 OVC100 FM210600 28012KT
                       P6SM -SHRA BKN030 OVC050 FM211100 28012G22KT
                       P6SM VCSH BKN025 BKN040 FM211700 30012G22KT
                       P6SM VCSH BKN030 BKN060=
201804201121 TAF KCLM 201121Z 2012/2112 26006KT P6SM BKN100 BKN150 FM210200
                       VRB03KT P6SM -RA BKN050 OVC100 FM210800
                       30012KT P6SM VCSH BKN030 OVC050 FM211100
                       29014G24KT P6SM VCSH BKN025 BKN040=
201804200523 TAF KCLM 200523Z 2006/2106 27005KT P6SM SCT120 OVC200 FM201000
                       VRB04KT P6SM BKN120 OVC200 FM201800 VRB04KT
                       P6SM SCT100 OVC150 FM210200 VRB03KT P6SM
                       -RA BKN050 OVC100=
201804192329 TAF KCLM 192329Z 2000/2024 32008KT P6SM BKN200 FM200600 27005KT
                       P6SM SCT120 OVC200 FM201000 VRB04KT P6SM
                       BKN120 OVC200 FM201800 VRB04KT P6SM SCT100
                       OVC150=
201804191733 TAF KCLM 191733Z 1918/2018 VRB04KT P6SM SCT200 FM192000 33005KT
                       P6SM SCT200 FM200000 32008KT P6SM BKN200
                       FM200700 27005KT P6SM BKN120 OVC200=
201804191121 TAF KCLM 191121Z 1912/2012 24006KT P6SM SCT200 FM191800 VRB05KT
                       P6SM SCT200 FM200000 29008KT P6SM BKN200
                       FM200700 27005KT P6SM BKN120 OVC200=
201804190520 TAF KCLM 190520Z 1906/2006 25006KT P6SM SCT200 FM192200 30007KT
                       P6SM SCT200=
201804182320 TAF KCLM 182320Z 1900/1924 02004KT P6SM SCT080 BKN100 FM190500
                       25006KT P6SM SCT200 FM192200 32007KT P6SM
                       SCT200=
201804181720 TAF KCLM 181720Z 1818/1918 VRB03KT P6SM BKN014 OVC100 FM182000
                       03005KT P6SM SCT020 BKN100 OVC200 FM182300
                       30005KT P6SM SCT100 BKN200 FM190500 25006KT
                       P6SM SCT200=
201804181611 KCLM 181611Z 1816/1912 00000KT P6SM BKN013 BKN070 OVC110 FM181800
                       05005KT P6SM SCT050 BKN100 BKN200 FM182300
                       35005KT P6SM SCT100 BKN200 FM190500 25006KT
                       P6SM SCT200=
201804181126 TAF KCLM 181126Z 1812/1912 23004KT P6SM VCSH SCT020 BKN040 OVC100
                       TEMPO 1812/1816 6SM -RA BR BKN015 OVC030
                       FM181800 05005KT P6SM SCT050 BKN100 BKN200
                       FM182300 35005KT P6SM SCT100 BKN200 FM190500
                       25006KT P6SM SCT200=
201804180520 TAF KCLM 180520Z 1806/1906 VRB03KT P6SM SCT040 BKN100 OVC200 FM180900
                       23004KT P6SM BKN040 OVC100 FM181800 05005KT
                       P6SM BKN110 BKN200 FM182100 35005KT P6SM
                       SCT110 BKN200 FM190300 28006KT P6SM SCT110
                       SCT200=
201804172333 TAF KCLM 172333Z 1800/1824 30012KT P6SM VCSH SCT035 BKN050 OVC200
                       TEMPO 1800/1802 5SM SHRA BKN035 OVC050 FM180300
                       28007KT P6SM VCSH BKN060 OVC200 FM180900
                       23004KT P6SM BKN090 OVC200 FM181800 07005KT
                       P6SM BKN110 BKN200 FM182100 02005KT P6SM
                       SCT110 BKN200=
201804172207 KCLM 172207Z 1722/1818 31012KT P6SM VCSH BKN050 BKN200
                      TEMPO 1722/1724 31012G22KT -SHRA FM180200
                       28007KT P6SM VCSH BKN080 BKN200 FM180600
                       24004KT P6SM BKN090 BKN200=
201804172018 KCLM 172018Z 1720/1818 31012KT P6SM VCSH BKN050 BKN200
                      TEMPO 1720/1724 31012G22KT FM180200 28007KT
                       P6SM VCSH BKN080 BKN200 FM180600 24004KT
                       P6SM BKN090 BKN200=
201804171723 TAF KCLM 171723Z 1718/1818 29010KT P6SM VCSH BKN050 BKN200 FM172000
                       31012KT P6SM VCSH BKN050 BKN200 FM180200
                       28007KT P6SM VCSH BKN080 BKN200 FM180600
                       24004KT P6SM BKN090 BKN200=
201804171422 KCLM 171422Z 1714/1812 29012KT P6SM VCSH SCT050
                      TEMPO 1714/1718 BKN050 FM180200 27007KT P6SM
                       VCSH BKN050 FM180900 25005KT P6SM BKN050
                       BKN120=
201804171131 TAF KCLM 171131Z 1712/1812 29012KT P6SM VCSH BKN045 BKN080 FM180200
                       27007KT P6SM VCSH BKN050 FM180900 25005KT
                       P6SM BKN050 BKN120=
201804170520 TAF KCLM 170520Z 1706/1806 27007KT P6SM -SHRA SCT035 OVC050 FM170900
                       29013G22KT P6SM VCSH BKN050 FM180200 27007KT
                       P6SM VCSH BKN050=
201804162320 TAF KCLM 162320Z 1700/1724 12004KT 5SM -SHRA BR SCT025 OVC050 FM170100
                       29013G22KT P6SM VCSH BKN050=
201804162237 KCLM 162237Z 1623/1718 11006KT 3SM -RA BR SCT008 BKN035 OVC045
                       FM170100 29013G22KT P6SM VCSH BKN045=
201804161724 TAF KCLM 161724Z 1618/1718 31003KT P6SM VCSH OVC045 FM162200 30010KT
                       P6SM BKN045 FM170100 29013G22KT P6SM VCSH
                       BKN045=
201804161141 TAF KCLM 161141Z 1612/1712 25006KT P6SM -SHRA OVC035 FM161800 30010KT
                       P6SM -SHRA SCT022 BKN030 BKN060 FM170000
                       29012G20KT P6SM VCSH BKN035 FM170700 28014G24KT
                       P6SM VCSH BKN035 BKN060=
201804160524 TAF KCLM 160524Z 1606/1706 22006KT P6SM -RA OVC035 FM161000 25005KT
                       P6SM -RA OVC018 FM161800 30010KT P6SM VCSH
                       SCT025 BKN030 FM170000 29012G20KT P6SM BKN030=
201804152335 TAF KCLM 152335Z 1600/1624 VRB05KT P6SM OVC120 FM160800 25005KT
                       P6SM -RA OVC018 FM161700 31006KT P6SM VCSH
                       OVC020=
201804151734 TAF KCLM 151734Z 1518/1618 34005KT P6SM SCT040 OVC080 FM160300
                       VRB04KT P6SM -RA SCT025 OVC040 FM161000
                       28005KT P6SM -RA OVC015=
201804151141 KCLM 151141Z 1512/1612 24004KT P6SM FEW002 SCT025 OVC040
                      TEMPO 1512/1516 2SM BR BKN002 FM151600 VRB05KT
                       P6SM BKN040 OVC070 FM152100 30007KT P6SM
                       BKN050 FM160500 27010KT P6SM -RA OVC035
                       FM161000 26008KT P6SM -RA OVC022=
201804151137 TAF KCLM 151137Z 1512/1612 24004KT P6SM SCT025 OVC040 FM151600
                       VRB05KT P6SM BKN040 OVC070 FM152100 30007KT
                       P6SM BKN050 FM160500 27010KT P6SM -RA OVC035
                       FM161000 26008KT P6SM -RA OVC022=
201804150531 TAF KCLM 150531Z 1506/1606 26008KT P6SM VCSH SCT025 OVC035
                      TEMPO 1506/1508 -SHRA BKN025 FM150800 27004KT
                       P6SM SCT025 OVC040 FM151600 06005KT P6SM
                       OVC035=
201804142335 TAF KCLM 142335Z 1500/1524 00000KT P6SM -RA FEW010 BKN040 OVC060
                       FM150700 27004KT P6SM VCSH SCT015 BKN025
                       OVC040 FM151600 06005KT P6SM OVC035=
201804142102 KCLM 142102Z 1421/1518 05005KT P6SM VCSH BKN012 BKN024 FM142200
                       31004KT 5SM -RA SCT008 OVC025 FM150500 27004KT
                       P6SM VCSH SCT008 OVC035 FM151100 26006KT
                       P6SM OVC035=
201804141736 TAF KCLM 141736Z 1418/1518 07004KT P6SM VCSH SCT025 OVC050 FM142200
                       31004KT 5SM -RA SCT008 OVC025 FM150500 27004KT
                       P6SM VCSH SCT008 OVC035 FM151100 26006KT
                       P6SM OVC035=
201804141141 TAF KCLM 141141Z 1412/1512 VRB03KT P6SM SCT015 BKN025 FM141600
                       VRB03KT P6SM SCT035 BKN050 FM142000 VRB03KT
                       5SM -RA OVC035 FM150300 VRB03KT P6SM SCT030
                       BKN045=
201804140522 TAF KCLM 140522Z 1406/1506 28005KT P6SM -RA FEW015 BKN030 OVC045
                       FM141100 26004KT P6SM VCSH SCT035 BKN050
                       FM141800 VRB04KT P6SM VCSH OVC030=
201804132341 TAF KCLM 132341Z 1400/1424 28005KT P6SM -RA OVC060 FM141100 26004KT
                       P6SM VCSH SCT035 BKN050 FM141800 02005KT
                       P6SM -RA OVC030=
201804132104 KCLM 132104Z 1321/1418 VRB03KT 6SM -RA BR BKN050 OVC060 FM140600
                       28007G16KT P6SM -RA OVC020 FM141200 VRB03KT
                       P6SM VCSH OVC035=
201804131728 TAF KCLM 131728Z 1318/1418 01003KT P6SM VCSH OVC060 FM132100 28008G15KT
                       5SM -RA OVC020 FM140600 28007G16KT P6SM
                       -RA OVC020 FM141200 VRB03KT P6SM VCSH OVC035=
201804131125 TAF KCLM 131125Z 1312/1412 VRB03KT P6SM BKN040 OVC060 FM132000
                       29008KT P6SM -RA BKN025 OVC040 FM140600
                       29008KT P6SM SCT030 OVC050=
201804130528 TAF KCLM 130528Z 1306/1406 VRB04KT P6SM FEW040 BKN120 FM131000
                       VRB04KT P6SM VCSH SCT025 OVC040 FM131200
                       VRB03KT P6SM VCSH OVC025=
201804130005 KCLM 130005Z 1300/1324 30008KT P6SM BKN040
                      TEMPO 1300/1303 -SHRA FM131000 VRB03KT P6SM
                       -RA SCT025 OVC035 FM131200 VRB03KT P6SM
                       -RA OVC025=
201804122320 TAF KCLM 122320Z 1300/1324 30008KT P6SM BKN040 FM131000 VRB03KT
                       P6SM -RA SCT025 OVC035 FM131200 VRB03KT
                       P6SM -RA OVC025=
201804121722 TAF KCLM 121722Z 1218/1318 VRB04KT P6SM VCSH BKN040 BKN080 FM130000
                       27012KT P6SM SCT030 BKN060 OVC100 FM131000
                       VRB03KT P6SM -RA SCT025 OVC035 FM131200
                       VRB03KT P6SM -RA OVC025=
201804121128 TAF KCLM 121128Z 1212/1312 24006KT P6SM BKN060 BKN100 FM121600
                       VRB03KT P6SM VCSH BKN040 OVC060 FM122200
                       29010KT P6SM VCSH BKN040 OVC060 FM130500
                       24006KT P6SM SCT040 BKN060 BKN100=
201804120521 TAF KCLM 120521Z 1206/1306 27005KT P6SM OVC080 FM121600 VRB05KT
                       P6SM VCSH OVC040 FM122200 30012KT P6SM VCSH
                       OVC040=
201804120031 KCLM 120031Z 1201/1224 30015G25KT P6SM -SHRA FEW008 SCT020 OVC070
                       FM120400 27006KT P6SM VCSH SCT020 OVC060
                       FM121600 32005KT P6SM VCSH OVC040 FM122200
                       31013G19KT P6SM VCSH OVC040=
201804112335 TAF KCLM 112335Z 1200/1224 26008KT P6SM VCSH OVC070 FM120300 27006KT
                       P6SM VCSH SCT020 OVC060 FM121600 32005KT
                       P6SM VCSH OVC040 FM122200 31013G19KT P6SM
                       VCSH OVC040=
201804111737 TAF KCLM 111737Z 1118/1218 04004KT P6SM OVC070
                      TEMPO 1118/1120 6SM -RA BR OVC040 FM112000
                       06005KT 5SM -RA BR SCT018 OVC035 FM112200
                       28006KT P6SM -SHRA SCT020 OVC045 FM120200
                       29007KT P6SM VCSH SCT020 OVC045 FM121400
                       27005KT P6SM OVC040=
201804111132 TAF KCLM 111132Z 1112/1212 VRB04KT P6SM VCSH SCT035 BKN070 FM111600
                       VRB03KT 5SM -RA BR SCT020 OVC040 FM112100
                       29010G16KT P6SM -SHRA SCT025 BKN040 OVC060
                       FM120300 29009KT P6SM VCSH BKN035 BKN060
                       FM120900 25005KT P6SM VCSH BKN040 BKN070=
201804110524 TAF KCLM 110524Z 1106/1206 24009KT P6SM VCSH OVC080 FM111000 VRB02KT
                       P6SM -RA SCT025 OVC040 FM111600 VRB03KT
                       5SM -RA BR SCT020 OVC040 FM112100 29010G16KT
                       P6SM -SHRA SCT025 BKN040 OVC060=
201804102341 TAF KCLM 102341Z 1100/1124 VRB03KT P6SM BKN050 FM110600 20005KT
                       P6SM VCSH SCT040 BKN050 FM111600 VRB03KT
                       5SM -RA BR SCT020 OVC045 FM112100 30008KT
                       P6SM -SHRA SCT030 BKN040 OVC060=
201804101746 TAF KCLM 101746Z 1018/1118 31012G22KT P6SM VCSH SCT050
                      TEMPO 1018/1019 5SM -SHRA BR SCT040 BKN050
                       FM102300 30006KT P6SM VCSH BKN050 FM110600
                       20005KT P6SM VCSH SCT040 BKN050 FM111600
                       VRB03KT 5SM -RA BR SCT020 OVC045=
201804101128 TAF KCLM 101128Z 1012/1112 VRB04KT P6SM SCT060 OVC090 FM101400
                       VRB03KT 5SM -RA BR SCT040 OVC060 FM101800
                       26012G22KT P6SM -RA BKN030 BKN050 FM102200
                       31011KT P6SM VCSH BKN040 OVC080 FM110400
                       24005KT P6SM VCSH BKN050 FM111000 VRB04KT
                       P6SM -RA OVC035=
201804100537 TAF KCLM 100537Z 1006/1106 11005KT P6SM SCT120 OVC200 FM101000
                       VRB04KT P6SM SCT060 OVC090 FM101300 VRB03KT
                       5SM -RA BR SCT040 OVC060 FM101800 26012G22KT
                       P6SM -RA BKN030 BKN050 FM102200 31011KT
                       P6SM -SHRA BKN040 OVC080 FM110400 24005KT
                       P6SM VCSH BKN050=
201804092335 TAF KCLM 092335Z 1000/1024 08005KT P6SM BKN025 OVC200 FM100300
                       VRB03KT P6SM OVC200 FM101000 VRB03KT P6SM
                       SCT060 OVC090 FM101300 VRB03KT 5SM -RA BR
                       SCT040 OVC060 FM101800 26014G25KT P6SM VCSH
                       BKN050 FM102200 31008KT P6SM -SHRA BKN050
                       OVC080=
201804091750 TAF KCLM 091750Z 0918/1018 VRB03KT P6SM BKN030 BKN200 FM092000
                       06005KT P6SM SCT035 OVC200 FM100100 VRB03KT
                       P6SM OVC200 FM101000 VRB03KT P6SM SCT060
                       OVC100 FM101300 VRB03KT 5SM -RA BR SCT040
                       OVC060=
201804091136 TAF KCLM 091136Z 0912/1012 VRB03KT P6SM SCT020 BKN050 BKN200
                      TEMPO 0912/0916 BKN015 OVC050 FM091900 05005KT
                       P6SM SCT030 BKN200 FM100200 VRB03KT P6SM
                       SCT120 OVC200 FM100700 VRB04KT P6SM BKN080
                       OVC120
                      PROB30 1008/1012 -RA=
201804090521 TAF KCLM 090521Z 0906/1006 27004KT P6SM BKN030 FM091100 VRB03KT
                       P6SM BKN015 BKN200 FM091900 03005KT P6SM
                       SCT020 BKN200 FM100200 00000KT P6SM OVC200=
201804090312 KCLM 090312Z 0903/0924 21004KT P6SM SCT025 BKN040 FM091400 04004KT
                       P6SM BKN015 OVC200 FM092200 03005KT P6SM
                       SCT020 OVC200=
201804090047 KCLM 090047Z 0901/0924 VRB03KT P6SM BKN025 BKN040 FM091600 04004KT
                       P6SM BKN006 OVC200 FM092200 03005KT P6SM
                       SCT008 OVC200=
201804082335 TAF KCLM 082335Z 0900/0924 30005KT P6SM SCT025 BKN040 OVC060 FM090400
                       25005KT P6SM BKN050 FM091600 04004KT P6SM
                       BKN006 OVC200 FM092200 03005KT P6SM SCT008
                       OVC200=
201804081741 TAF KCLM 081741Z 0818/0918 VRB03KT P6SM -SHRA SCT005 BKN025 OVC050
                       FM082200 32007KT P6SM SCT030 BKN050 FM090800
                       25005KT P6SM SCT007 BKN020=
201804081142 TAF KCLM 081142Z 0812/0912 25005KT P6SM VCSH FEW020 BKN050 OVC200
                       TEMPO 0812/0814 -SHRA BKN020 OVC035 FM081400
                       25005KT 5SM -SHRA BR BKN020 OVC035 FM081800
                       32006KT P6SM -SHRA FEW020 BKN035 OVC050
                       FM082100 32010KT P6SM VCSH SCT035 BKN050
                       BKN200 FM090100 28009KT P6SM VCSH BKN060
                       BKN200 FM090600 27006KT P6SM SCT090=
201804080906 KCLM 080906Z 0809/0906 VRB03KT 5SM BR VCSH FEW007 SCT050 OVC200
                       TEMPO 0809/0813 2SM BR BKN007 OVC050 FM081800
                       30007KT P6SM VCSH SCT025 BKN050 FM082300
                       29012G20KT P6SM SCT025 BKN050=
201804080723 KCLM 080723Z 0807/0906 VRB03KT P6SM VCSH FEW020 SCT050 OVC200
                      TEMPO 0807/0811 -SHRA BKN020 OVC040 FM081800
                       30007KT P6SM VCSH SCT025 BKN050 FM082300
                       29012G20KT P6SM SCT025 BKN050=
201804080522 TAF KCLM 080522Z 0806/0906 26004KT P6SM -SHRA FEW010 BKN022 OVC050
                       FM081800 30007KT P6SM VCSH SCT025 BKN050
                       FM082300 29012G20KT P6SM SCT025 BKN050=
201804072333 TAF KCLM 072333Z 0800/0824 VRB05KT 4SM -SHRA BR BKN040 OVC050 FM081000
                       24005KT 5SM -SHRA BR SCT004 BKN020 OVC040
                       FM081800 27010KT P6SM VCSH SCT015 BKN035
                       OVC060 FM082300 32009KT P6SM SCT035 BKN050=
201804071745 TAF KCLM 071745Z 0718/0818 VRB05KT 6SM -SHRA BR SCT006 BKN040 OVC050
                       FM081000 24005KT 5SM -SHRA BR SCT004 BKN020
                       OVC040 FM081600 27010KT 6SM -SHRA SCT015
                       BKN040 OVC060=
201804071308 KCLM 071308Z 0713/0812 28010KT P6SM -RA SCT020 OVC050
                      TEMPO 0713/0716 3SM RA BR SCT009 BKN020 OVC050
                       FM071600 VRB05KT 4SM -RA BR SCT005 BKN018
                       OVC040 FM071900 VRB05KT P6SM -SHRA SCT009
                       BKN022 OVC050 FM080000 VRB05KT P6SM VCSH
                       BKN025 BKN050 BKN200
                      PROB30 0800/0806 -SHRA BKN025 OVC050 FM080600
                       27005KT P6SM -SHRA OVC018=
201804071140 TAF KCLM 071140Z 0712/0812 VRB05KT 4SM -RA BR SCT002 SCT018 OVC050
                       TEMPO 0712/0716 2SM RA BR SCT002 BKN018
                       OVC050 FM071600 VRB05KT 4SM -RA BR SCT005
                       BKN018 OVC040 FM071900 VRB05KT P6SM -SHRA
                       SCT009 BKN022 OVC050 FM080000 VRB05KT P6SM
                       VCSH BKN025 BKN050 BKN200
                      PROB30 0800/0806 -SHRA BKN025 OVC050 FM080600
                       27005KT P6SM -SHRA OVC018=
201804070959 KCLM 070959Z 0710/0806 VRB04KT 1SM BR OVC002
                      TEMPO 0710/0712 1/4SM FG VV001 FM071200 VRB04KT
                       5SM -RA BR OVC010 FM071600 VRB04KT P6SM
                       -SHRA SCT020 BKN050=
201804070839 KCLM 070839Z 0709/0806 VRB03KT 4SM BR OVC002
                      TEMPO 0709/0712 1 1/2SM BR FM071200 VRB04KT
                       5SM -RA BR OVC010 FM071600 VRB04KT P6SM
                       -SHRA SCT020 BKN050=
201804070805 KCLM 070805Z 0708/0806 VRB03KT 4SM BR OVC002 FM071000 VRB04KT 5SM
                       -RA BR OVC010 FM071600 VRB04KT P6SM -SHRA
                       SCT020 BKN050=
201804070524 TAF KCLM 070524Z 0706/0806 12004KT P6SM OVC011 FM071000 VRB04KT
                       5SM -RA BR OVC010 FM071600 VRB04KT P6SM
                       -SHRA SCT020 BKN050=
201804070133 KCLM 070133Z 0702/0724 03003KT P6SM OVC029 FM070600 VRB04KT 6SM
                       BR OVC025 FM071200 VRB04KT 5SM -RA BR BKN015
                       OVC050 FM071600 10006KT 5SM -RA BR OVC015
                       FM072000 12006KT 4SM -SHRA BR BKN020 BKN040=
201804062346 TAF KCLM 062346Z 0700/0724 03005KT P6SM VCSH SCT012 BKN060 FM070600
                       VRB04KT 6SM BR OVC025 FM071200 VRB04KT 5SM
                       -RA BR BKN015 OVC050 FM071600 10006KT 5SM
                       -RA BR OVC015 FM072000 12006KT 4SM -SHRA
                       BR BKN020 BKN040=
201804062012 KCLM 062012Z 0620/0718 06005KT P6SM VCSH BKN012 OVC070 FM070000
                       05005KT P6SM VCSH SCT008 OVC015 FM070600
                       VRB04KT 6SM BR OVC025 FM071200 VRB04KT P6SM
                       BKN025 OVC050 FM071600 10008KT 5SM -RA BR
                       OVC020=
201804061740 TAF KCLM 061740Z 0618/0718 06004KT P6SM VCSH OVC004 FM070000 VRB03KT
                       P6SM SCT008 OVC015 FM070600 VRB04KT 6SM
                       BR OVC025 FM071200 00000KT P6SM BKN025 OVC050=
201804061432 KCLM 061432Z 0615/0712 00000KT P6SM VCSH OVC018
                      TEMPO 0615/0617 4SM -DZ BR BKN008 OVC015
                       FM061700 VRB03KT P6SM VCSH SCT007 BKN015
                       OVC030 FM062100 VRB03KT P6SM VCSH FEW020
                       BKN035 BKN060 FM070000 VRB03KT P6SM FEW035
                       BKN090 BKN200 FM070300 00000KT P6SM SCT100
                       OVC200 FM070800 00000KT P6SM FEW028 SCT050
                       OVC100
                      PROB30 0708/0712 -RA FEW028 OVC050=
201804061140 TAF KCLM 061140Z 0612/0712 00000KT P6SM VCSH OVC007
                      TEMPO 0612/0616 4SM -DZ BR OVC003 FM061800
                       VRB03KT P6SM VCSH SCT007 BKN015 OVC030 FM062100
                       VRB03KT P6SM VCSH FEW020 BKN035 BKN060 FM070000
                       VRB03KT P6SM FEW035 BKN090 BKN200 FM070300
                       00000KT P6SM SCT100 OVC200 FM070800 00000KT
                       P6SM FEW028 SCT050 OVC100
                      PROB30 0708/0712 -RA FEW028 OVC050=
201804061001 KCLM 061001Z 0610/0706 00000KT 6SM -DZ BR FEW005 SCT040 OVC070
                       TEMPO 0610/0612 2SM -DZ BR BKN005 OVC040
                       FM061500 VRB04KT P6SM SCT030=
201804060934 KCLM 060934Z 0610/0706 00000KT 4SM -DZ BR FEW005 SCT040 OVC070
                       TEMPO 0610/0612 1SM -DZ BR BKN005 OVC040
                       FM061500 VRB04KT P6SM SCT030=
201804060535 TAF KCLM 060535Z 0606/0706 25003KT 5SM BR SCT070 BKN080 OVC100
                       FM061500 VRB04KT P6SM SCT030=
201804060009 KCLM 060009Z 0600/0624 VRB04KT 6SM -RA BR OVC004 FM060400 25004KT
                       5SM BR SCT008 OVC012 FM061500 VRB04KT P6SM
                       SCT030=
201804052358 TAF KCLM 052358Z 0600/0624 VRB04KT 6SM -RA BR OVC008 FM060400 25004KT
                       5SM BR SCT008 OVC012 FM061500 VRB04KT P6SM
                       SCT030=
201804052246 KCLM 052246Z 0523/0618 VRB04KT 5SM -RA BR SCT008 SCT015 OVC060
                       FM060400 25004KT 4SM BR SCT008 OVC012=
201804051959 KCLM 051959Z 0520/0618 07005KT 5SM -RA BR OVC006 FM052300 VRB04KT
                       3SM -RA BR BKN008 OVC012 FM060600 25004KT
                       P6SM SCT015 OVC030=
201804051741 TAF KCLM 051741Z 0518/0618 07005KT 2SM -RA BR OVC002 FM052100 VRB04KT
                       3SM -RA BR OVC006 FM060800 25004KT P6SM
                       -SHRA BKN012 OVC020=
201804051431 KCLM 051431Z 0515/0612 07005KT 1/2SM -RA FG OVC002 FM052100 VRB04KT
                       3SM -RA BR BKN006 OVC015 FM060400 25004KT
                       P6SM -SHRA BKN015 BKN035=
201804051136 TAF KCLM 051136Z 0512/0612 VRB05KT 6SM BR VCSH SCT002 OVC022
                      TEMPO 0512/0515 2SM -RA BR OVC001 FM051500
                       VRB04KT 5SM -RA BR OVC015 FM060300 25004KT
                       P6SM -SHRA BKN015 BKN035=
201804051044 KCLM 051044Z 0511/0606 08005KT 6SM BR VCSH SCT002 OVC009
                      TEMPO 0511/0514 2SM BR OVC001 FM051400 VRB04KT
                       5SM -RA BR OVC020 FM060300 00000KT P6SM
                       -RA OVC025=
201804050537 TAF KCLM 050537Z 0506/0606 00000KT 1SM -RA BR OVC009 FM051200 VRB04KT
                       5SM -RA BR OVC020 FM060300 00000KT P6SM
                       -RA OVC025=
201804042320 TAF KCLM 042320Z 0500/0524 VRB05KT 5SM -RA BR FEW008 OVC015
                      TEMPO 0500/0504 4SM RA BR OVC008 FM050400
                       VRB04KT P6SM -RA OVC025 FM051000 VRB04KT
                       5SM -RA BR OVC020=
201804041732 TAF KCLM 041732Z 0418/0518 VRB05KT 6SM -RA BR FEW008 OVC015
                      TEMPO 0418/0422 5SM -RA BR OVC008 FM050300
                       VRB04KT P6SM -RA BKN025 OVC040 FM051000
                       VRB04KT 5SM -RA BR OVC020=
201804041120 TAF KCLM 041120Z 0412/0512 VRB04KT P6SM -RA SCT020 OVC040
                      TEMPO 0412/0416 4SM -RA BR OVC018 FM041600
                       VRB05KT 6SM -RA BR OVC020 FM042100 10005KT
                       6SM -RA BR OVC017 FM050500 VRB04KT P6SM
                       -RA BKN025 OVC040 FM051000 VRB04KT P6SM
                       BKN040 OVC070=
201804040539 TAF KCLM 040539Z 0406/0506 24003KT P6SM BKN120 FM041000 VRB04KT
                       P6SM -RA OVC040
                      TEMPO 0411/0415 4SM -RA BR SCT025 OVC040
                       FM041700 18005KT P6SM VCSH BKN080 FM042100
                       10005KT P6SM VCSH BKN040 OVC060=
201804032320 TAF KCLM 032320Z 0400/0424 VRB04KT P6SM OVC060 FM040400 VRB04KT
                       P6SM BKN040 OVC080 FM041000 VRB04KT P6SM
                       -RA OVC040
                      TEMPO 0411/0415 4SM -RA BR SCT025 OVC040
                       FM041700 18005KT P6SM VCSH BKN080 FM042100
                       10005KT P6SM VCSH BKN040 OVC060=
201804031733 TAF KCLM 031733Z 0318/0418 VRB04KT P6SM OVC050 FM040300 25004KT
                       P6SM OVC100 FM041000 VRB04KT P6SM -RA OVC060
                       TEMPO 0412/0415 4SM -RA BR SCT025 OVC040
                       FM041600 18005KT P6SM VCSH BKN080=
201804031128 TAF KCLM 031128Z 0312/0412 27006KT P6SM OVC060 FM031800 33005KT
                       P6SM OVC050 FM040300 25004KT P6SM OVC100
                       FM041100 VRB04KT P6SM -RA OVC050=
201804030520 TAF KCLM 030520Z 0306/0406 27006KT P6SM OVC060 FM031800 35005KT
                       P6SM OVC050 FM040300 28003KT P6SM OVC100=
201804022320 TAF KCLM 022320Z 0300/0324 30014G24KT P6SM SCT060 SCT200 FM030600
                       28010G18KT P6SM SCT040 SCT150 OVC200 FM030800
                       26008KT P6SM BKN050 BKN150 OVC200 FM031600
                       VRB04KT P6SM BKN040 OVC120=
201804021755 TAF KCLM 021755Z 0218/0318 16010KT P6SM SCT040 SCT200 FM030100
                       29013KT P6SM SCT040 SCT080 SCT200 FM030600
                       24005KT P6SM SCT040 SCT100 BKN200=
201804021128 TAF KCLM 021128Z 0212/0312 25010KT P6SM VCSH SCT030 FM021800 33013KT
                       P6SM SCT040 SCT200 FM030300 29009KT P6SM
                       SCT040 BKN070 FM030900 24005KT P6SM VCSH
                       BKN040 OVC060=
201804020602 KCLM 020602Z 0206/0306 25011KT P6SM VCSH SCT040 BKN200 FM021800
                       33013KT P6SM FEW060 SCT200 FM030200 29009KT
                       P6SM BKN200=
201804020542 TAF KCLM 020542Z 0206/0306 25013KT P6SM VCSH SCT040 BKN200 FM020700
                       28012G20KT P6SM SCT022 BKN040 FM021000 28012KT
                       P6SM BKN022 FM021800 30010KT P6SM SCT030
                       BKN040=
201804020531 KCLM 020531Z 0206/0224 25013KT P6SM VCSH SCT040 BKN200 FM020700
                       28012G20KT P6SM SCT022 BKN040 FM021000 28012KT
                       P6SM BKN022 FM021800 30010KT P6SM SCT030
                       BKN040=
201804020308 KCLM 020308Z 0203/0224 27015KT P6SM VCSH SCT050 BKN110
                      TEMPO 0203/0206 27015G25KT FM020700 28012G20KT
                       P6SM SCT022 BKN040 FM021000 28012KT P6SM
                       BKN022 FM021800 30010KT P6SM SCT030 BKN040=
201804020207 KCLM 020207Z 0202/0224 27018G28KT P6SM VCSH SCT050 FM020700 28012G20KT
                       P6SM SCT022 BKN040 FM021000 28012KT P6SM
                       BKN022 FM021800 30010KT P6SM SCT030 BKN040=
201804020021 KCLM 020021Z 0200/0224 28015G25KT P6SM VCSH FEW040 SCT060
                      TEMPO 0200/0202 -SHRA BKN040 BKN060 FM020700
                       28012G20KT P6SM SCT022 BKN040 FM021000 28012KT
                       P6SM BKN022 FM021800 30010KT P6SM SCT030
                       BKN040=
201804012324 TAF KCLM 012324Z 0200/0224 30015G25KT P6SM VCSH BKN035 OVC045
                      TEMPO 0200/0204 -SHRA BKN030 FM020700 28012G20KT
                       P6SM SCT022 BKN040 FM021000 28012KT P6SM
                       BKN022 FM021800 30010KT P6SM SCT030 BKN040=
201804011721 TAF KCLM 011721Z 0118/0218 31015G25KT P6SM -RA FEW025 BKN030 OVC040
                       TEMPO 0118/0120 5SM -RA BR FM020000 29018G28KT
                       P6SM SCT035 SCT050 FM020300 28014G22KT P6SM
                       VCSH SCT022 BKN040 FM021000 28012KT P6SM
                       BKN022=
201804011139 TAF KCLM 011139Z 0112/0212 27009KT P6SM VCSH SCT025 OVC050
                      TEMPO 0112/0116 -RA BKN020 OVC040 FM011600
                       29013KT P6SM VCSH BKN028 BKN050 FM011800
                       31015G25KT P6SM VCSH SCT028 BKN050 FM020000
                       29018G28KT P6SM SCT035 SCT050 FM020300 28014G22KT
                       P6SM VCSH SCT022 BKN040=
201804010536 TAF KCLM 010536Z 0106/0206 28006KT P6SM BKN020 BKN050 OVC120 FM011200
                       27009KT P6SM -RA OVC020 FM011800 31013KT
                       P6SM VCSH BKN028 BKN050
                      TEMPO 0118/0121 31013G22KT -SHRA FM012100
                       31018G28KT P6SM VCSH SCT028 BKN050 FM020000
                       29022G32KT P6SM VCSH SCT035 SCT050 FM020300
                       28017G22KT P6SM VCSH SCT050=
201804010139 KCLM 010139Z 0102/0124 VRB04KT P6SM BKN045 BKN200 FM010600 26010KT
                       P6SM BKN040 BKN200 FM011500 26010KT P6SM
                       -RA OVC025 FM012000 28012KT P6SM -SHRA BKN030=