##########################################################
# Query made at 02/16/2025 03:58:47 UTC
# Time interval: from 12/01/2019 00:00  to 12/31/2019 23:59  UTC
##########################################################

##########################################################
# KCLM, Port Angeles, William R. Fairchild International Airport (United States)
# WMO index: -----. WIGOS ID: Unknown
# Latitude 48-07-20N. Longitude 123-30-19W. Altitude 87 m.
##########################################################

###################################
#  METAR/SPECI from KCLM
###################################
201912312353 METAR KCLM 312353Z AUTO 22010KT 8SM -RA OVC055 10/08 A2963 RMK AO2 SLP034 P0005 60024 T01000078 10106 20072 56040=
201912312323 SPECI KCLM 312323Z AUTO VRB05KT 6SM -RA BR OVC055 10/08 A2965 RMK AO2 P0004 T01000078=
201912312308 SPECI KCLM 312308Z AUTO 00000KT 2 1/2SM RA BR OVC050 10/08 A2965 RMK AO2 P0003 T01000083=
201912312253 METAR KCLM 312253Z AUTO 20009G20KT 170V230 3SM -RA BKN055 OVC080 11/08 A2965 RMK AO2 SLP042 P0004 T01060078=
201912312153 METAR KCLM 312153Z AUTO 24009KT 10SM -RA BKN055 BKN070 OVC095 11/08 A2967 RMK AO2 SLP049 P0002 T01060083=
201912312053 METAR KCLM 312053Z AUTO 22003KT 9SM -RA OVC055 09/08 A2974 RMK AO2 PRESRR SLP074 P0001 60013 T00890078 58027=
201912311953 METAR KCLM 311953Z AUTO 00000KT 3SM -RA BR OVC055 09/08 A2976 RMK AO2 SLP079 P0008 T00890083=
201912311946 SPECI KCLM 311946Z AUTO VRB03KT 1 3/4SM RA BR OVC055 09/08 A2976 RMK AO2 PRESFR P0007 T00890078=
201912311853 METAR KCLM 311853Z AUTO 15007KT 3SM RA BR OVC055 08/07 A2983 RMK AO2 RAB1755 SLP104 P0004 T00780072=
201912311753 METAR KCLM 311753Z AUTO 00000KT 6SM BR FEW001 OVC080 07/07 A2982 RMK AO2 RAE41 SLP101 P0004 60016 T00720067 10072 20056 56030=
201912311728 SPECI KCLM 311728Z AUTO 00000KT 4SM -RA BR FEW003 SCT070 OVC085 07/07 A2984 RMK AO2 P0004 T00670067=
201912311714 SPECI KCLM 311714Z AUTO 15003KT 2 1/2SM RA BR FEW003 BKN070 OVC085 07/07 A2986 RMK AO2 P0003 T00670067=
201912311653 METAR KCLM 311653Z AUTO 10004KT 6SM -RA BR SCT003 BKN075 OVC090 07/07 A2987 RMK AO2 SLP118 P0003 T00720067=
201912311634 SPECI KCLM 311634Z AUTO VRB04KT 4SM -RA BR FEW002 BKN070 OVC085 07/07 A2988 RMK AO2 P0003 T00720067=
201912311553 METAR KCLM 311553Z AUTO 11004KT 9SM -RA FEW060 OVC090 07/06 A2985 RMK AO2 SLP111 P0003 T00670061=
201912311453 METAR KCLM 311453Z AUTO 00000KT 5SM -RA BR BKN075 OVC090 06/06 A2991 RMK AO2 SLP132 P0005 60006 T00610056 58029=
201912311353 METAR KCLM 311353Z AUTO 00000KT 6SM -RA BR BKN060 OVC080 06/06 A2994 RMK AO2 RAB29 SLP139 P0001 T00610056=
201912311253 METAR KCLM 311253Z AUTO 00000KT 10SM OVC065 06/06 A2998 RMK AO2 RAB1155E07 SLP154 P0000 T00610056=
201912311153 METAR KCLM 311153Z AUTO 00000KT 10SM BKN080 OVC100 06/05 A3000 RMK AO2 RAB1054E14 SLP161 P0000 60000 T00560050 10061 20039 58029=
201912311053 METAR KCLM 311053Z AUTO 22005KT 8SM OVC085 06/06 A3005 RMK AO2 RAB20E34 SLP177 P0000 T00560056=
201912310953 METAR KCLM 310953Z AUTO 00000KT 3SM BR FEW050 BKN085 04/04 A3006 RMK AO2 SLP182 T00440039=
201912310927 SPECI KCLM 310927Z AUTO 24003KT 8SM FEW002 BKN090 05/04 A3007 RMK AO2 T00500044=
201912310903 SPECI KCLM 310903Z AUTO 00000KT 9SM BKN002 OVC090 06/06 A3008 RMK AO2 T00560056=
201912310853 METAR KCLM 310853Z AUTO 23004KT 9SM SCT003 OVC090 06/05 A3009 RMK AO2 SLP191 T00560050 56016=
201912310848 SPECI KCLM 310848Z AUTO 22004KT 8SM FEW003 OVC090 06/05 A3009 RMK AO2=
201912310753 METAR KCLM 310753Z AUTO 31003KT 5SM BR OVC080 05/05 A3011 RMK AO2 SLP197 T00500050 400890028=
201912310653 METAR KCLM 310653Z AUTO 00000KT 4SM BR BKN090 05/05 A3014 RMK AO2 SLP207 T00500050=
201912310553 METAR KCLM 310553Z AUTO 00000KT 6SM BR FEW050 BKN080 06/06 A3017 RMK AO2 SLP219 T00610056 10078 20061 56023=
201912310453 METAR KCLM 310453Z AUTO 00000KT 8SM OVC075 07/06 A3018 RMK AO2 SLP222 T00670061=
201912310353 METAR KCLM 310353Z AUTO 00000KT 7SM OVC090 07/06 A3022 RMK AO2 SLP234 T00670061=
201912310342 SPECI KCLM 310342Z AUTO 00000KT 8SM SCT018 OVC090 07/07 A3022 RMK AO2 T00670067=
201912310311 SPECI KCLM 310311Z AUTO 29003KT 9SM OVC016 07/07 A3024 RMK AO2 T00720067=
201912310253 METAR KCLM 310253Z AUTO 26004KT 8SM OVC014 07/07 A3024 RMK AO2 SLP242 T00720067 58014=
201912310153 METAR KCLM 310153Z AUTO 00000KT 8SM FEW002 OVC014 08/07 A3026 RMK AO2 SLP250 T00780072=
201912310145 SPECI KCLM 310145Z AUTO 00000KT 8SM SCT002 OVC014 08/07 A3027 RMK AO2 T00780072=
201912310053 METAR KCLM 310053Z AUTO 00000KT 7SM OVC003 08/07 A3028 RMK AO2 SLP257 T00780067=
201912310044 SPECI KCLM 310044Z AUTO 00000KT 8SM OVC004 08/07 A3028 RMK AO2 CIG 002V007 T00780067=
201912310036 SPECI KCLM 310036Z AUTO 00000KT 9SM BKN005 BKN010 OVC013 08/06 A3028 RMK AO2 T00780061=
201912310023 SPECI KCLM 310023Z AUTO 00000KT 7SM SCT005 OVC013 08/06 A3028 RMK AO2 T00780061=
201912302353 METAR KCLM 302353Z AUTO 00000KT 10SM OVC013 08/06 A3028 RMK AO2 SLP256 T00780061 10089 20067 58010=
201912302253 METAR KCLM 302253Z AUTO 00000KT 10SM OVC016 08/06 A3030 RMK AO2 SLP261 T00830061=
201912302217 SPECI KCLM 302217Z AUTO 12003KT 10SM FEW011 BKN017 OVC070 08/06 A3029 RMK AO2 PRESFR T00780056=
201912302153 METAR KCLM 302153Z AUTO 00000KT 10SM FEW016 BKN075 OVC090 08/06 A3031 RMK AO2 SLP265 T00780056=
201912302053 METAR KCLM 302053Z AUTO VRB04KT 10SM BKN110 08/06 A3031 RMK AO2 SLP266 T00830056 58005=
201912301953 METAR KCLM 301953Z AUTO 00000KT 10SM BKN090 08/07 A3031 RMK AO2 SLP266 T00830067=
201912301853 METAR KCLM 301853Z AUTO 00000KT 10SM OVC100 08/07 A3033 RMK AO2 SLP272 T00830067=
201912301753 METAR KCLM 301753Z AUTO 00000KT 10SM FEW120 07/06 A3033 RMK AO2 SLP271 T00670056 10067 20028 50011=
201912301653 METAR KCLM 301653Z AUTO 00000KT 10SM CLR 06/05 A3033 RMK AO2 SLP272 T00560050=
201912301553 METAR KCLM 301553Z AUTO 22005KT 10SM CLR 04/04 A3030 RMK AO2 SLP261 T00390039=
201912301539 SPECI KCLM 301539Z AUTO 00000KT 3SM BR CLR 04/04 A3029 RMK AO2 T00390039=
201912301508 SPECI KCLM 301508Z AUTO 00000KT 1 1/2SM BR CLR 03/03 A3029 RMK AO2 T00280028=
201912301453 METAR KCLM 301453Z AUTO 22003KT 9SM CLR 04/04 A3029 RMK AO2 SLP260 T00440044 51014=
201912301449 SPECI KCLM 301449Z AUTO 22003KT 10SM CLR 05/04 A3029 RMK AO2=
201912301442 SPECI KCLM 301442Z AUTO 27005KT 2 1/2SM BR CLR 04/04 A3029 RMK AO2 T00440044=
201912301400 SPECI KCLM 301400Z AUTO 00000KT 10SM FEW021 SCT027 OVC036 06/06 A3027 RMK AO2 T00610056=
201912301353 METAR KCLM 301353Z AUTO 00000KT 10SM SCT021 BKN027 OVC034 06/06 A3027 RMK AO2 SLP253 T00610056=
201912301334 SPECI KCLM 301334Z AUTO 24006KT 10SM BKN021 OVC032 06/06 A3027 RMK AO2 T00610056=
201912301320 SPECI KCLM 301320Z AUTO 24004KT 3SM BR FEW025 BKN032 06/06 A3026 RMK AO2 PRESRR T00560056=
201912301313 SPECI KCLM 301313Z AUTO 00000KT 1SM BR FEW018 SCT032 05/05 A3026 RMK AO2 T00500050=
201912301253 METAR KCLM 301253Z AUTO 00000KT 7SM FEW018 SCT037 06/06 A3025 RMK AO2 SLP246 T00560056=
201912301228 SPECI KCLM 301228Z AUTO 24004KT 10SM SCT019 OVC038 07/06 A3025 RMK AO2 T00670061=
201912301153 METAR KCLM 301153Z AUTO 24004KT 10SM BKN018 OVC034 07/06 A3027 RMK AO2 SLP252 60002 70002 T00670061 10072 20061 50014=
201912301150 SPECI KCLM 301150Z AUTO 24004KT 10SM SCT016 OVC034 07/06 A3027 RMK AO2=
201912301127 SPECI KCLM 301127Z AUTO 00000KT 8SM OVC014 07/06 A3026 RMK AO2 T00670061=
201912301053 METAR KCLM 301053Z AUTO 00000KT 8SM BKN017 OVC027 07/06 A3025 RMK AO2 SLP244 T00670061=
201912300953 METAR KCLM 300953Z AUTO 00000KT 3SM BR OVC015 07/07 A3023 RMK AO2 SLP237 T00670067=
201912300853 METAR KCLM 300853Z AUTO 00000KT 4SM BR OVC017 07/07 A3020 RMK AO2 SLP228 60002 T00670067 50010=
201912300823 SPECI KCLM 300823Z AUTO 00000KT 3SM BR SCT010 OVC019 07/07 A3020 RMK AO2 T00670067=
201912300753 METAR KCLM 300753Z AUTO 00000KT 3SM BR OVC010 07/06 A3022 RMK AO2 RAE20 SLP235 P0000 T00670061 400780044=
201912300716 SPECI KCLM 300716Z AUTO 00000KT 3SM -RA BR BKN010 OVC023 07/06 A3021 RMK AO2 P0000 T00670061=
201912300653 METAR KCLM 300653Z AUTO 00000KT 2SM -RA BR FEW013 OVC023 07/07 A3020 RMK AO2 RAB32 SLP229 P0002 T00670067=
201912300646 SPECI KCLM 300646Z AUTO 00000KT 1 1/2SM -RA BR SCT013 OVC023 07/07 A3020 RMK AO2 RAB32 P0002 T00670067=
201912300638 SPECI KCLM 300638Z AUTO 21003KT 1 3/4SM -RA BR BKN013 OVC022 07/07 A3019 RMK AO2 RAB32 P0001 T00670067=
201912300553 METAR KCLM 300553Z AUTO 00000KT 4SM BR BKN013 OVC022 07/06 A3017 RMK AO2 SLP219 60000 T00670061 10078 20067 51020=
201912300549 SPECI KCLM 300549Z AUTO 00000KT 3SM BR BKN013 BKN022 OVC030 07/06 A3017 RMK AO2=
201912300545 SPECI KCLM 300545Z AUTO 00000KT 2 1/2SM BR SCT015 BKN024 OVC030 07/07 A3017 RMK AO2 T00670067=
201912300534 SPECI KCLM 300534Z AUTO 00000KT 2 1/2SM BR FEW013 SCT022 OVC030 07/06 A3017 RMK AO2 T00670061=
201912300453 METAR KCLM 300453Z AUTO 18003KT 6SM BR OVC030 07/06 A3016 RMK AO2 SLP214 T00670061=
201912300444 SPECI KCLM 300444Z AUTO 19003KT 7SM OVC030 07/06 A3015 RMK AO2 T00670061=
201912300353 METAR KCLM 300353Z AUTO 23004KT 10SM OVC028 07/06 A3014 RMK AO2 SLP208 T00670061=
201912300253 METAR KCLM 300253Z AUTO 00000KT 9SM OVC029 07/06 A3011 RMK AO2 RAE19 SLP198 P0000 60000 T00670061 53013=
201912300153 METAR KCLM 300153Z AUTO 00000KT 10SM -RA BKN028 OVC060 07/06 A3009 RMK AO2 RAB38 SLP192 P0000 T00670056=
201912300110 SPECI KCLM 300110Z AUTO 24003KT 10SM OVC029 07/06 A3009 RMK AO2 T00720056=
201912300053 METAR KCLM 300053Z AUTO 00000KT 10SM OVC030 07/06 A3008 RMK AO2 SLP189 T00720056=
201912300031 SPECI KCLM 300031Z AUTO 00000KT 10SM SCT014 OVC031 07/06 A3007 RMK AO2 T00720056=
201912300020 SPECI KCLM 300020Z AUTO 22003KT 10SM BKN014 OVC030 07/06 A3008 RMK AO2 T00720056=
201912292353 METAR KCLM 292353Z AUTO 20003KT 10SM OVC015 08/06 A3007 RMK AO2 SLP185 T00780056 10078 20061 53018=
201912292344 SPECI KCLM 292344Z AUTO 20003KT 10SM OVC015 08/06 A3007 RMK AO2 T00780056=
201912292253 METAR KCLM 292253Z AUTO 26003KT 10SM OVC013 08/06 A3005 RMK AO2 SLP179 T00780056=
201912292153 METAR KCLM 292153Z AUTO 26005KT 10SM OVC011 07/06 A3003 RMK AO2 SLP172 T00720056=
201912292053 METAR KCLM 292053Z AUTO 23004KT 10SM OVC010 07/06 A3002 RMK AO2 SLP167 T00720056 50004=
201912291953 METAR KCLM 291953Z AUTO 25005KT 10SM OVC010 07/06 A3002 RMK AO2 SLP168 T00720056=
201912291924 SPECI KCLM 291924Z AUTO 22005KT 10SM OVC010 07/05 A3002 RMK AO2 T00670050=
201912291853 METAR KCLM 291853Z AUTO 00000KT 10SM OVC008 06/05 A3002 RMK AO2 SLP167 T00610050=
201912291753 METAR KCLM 291753Z AUTO 00000KT 10SM OVC009 06/05 A3001 RMK AO2 SLP164 60000 T00610050 10061 20044 53003=
201912291726 SPECI KCLM 291726Z AUTO 23004KT 10SM OVC009 06/05 A3001 RMK AO2 T00560050=
201912291653 METAR KCLM 291653Z AUTO 00000KT 8SM OVC010 05/05 A3000 RMK AO2 RAB04E16 SLP161 P0000 T00500050=
201912291642 SPECI KCLM 291642Z AUTO 21004KT 7SM OVC010 05/04 A3000 RMK AO2 RAB04E16 P0000 T00500044=
201912291616 SPECI KCLM 291616Z AUTO 00000KT 7SM BKN009 OVC095 04/04 A2999 RMK AO2 RAB04E16 P0000 T00440044=
201912291553 METAR KCLM 291553Z AUTO 00000KT 10SM OVC010 05/04 A3000 RMK AO2 RAE02B35E48 CIG 009V013 SLP159 P0000 T00500044=
201912291453 METAR KCLM 291453Z AUTO 00000KT 7SM -RA OVC011 05/04 A3000 RMK AO2 RAB46 SLP161 P0000 60000 T00500044 56012=
201912291353 METAR KCLM 291353Z AUTO 00000KT 9SM BKN013 BKN070 OVC090 05/04 A3000 RMK AO2 RAB06E37 SLP162 P0000 T00500044=
201912291309 SPECI KCLM 291309Z AUTO 00000KT 10SM -RA SCT012 OVC070 05/04 A3001 RMK AO2 RAB06 P0000 T00500044=
201912291253 METAR KCLM 291253Z AUTO 00000KT 10SM OVC013 06/04 A3002 RMK AO2 SLP167 T00560044=
201912291228 SPECI KCLM 291228Z AUTO 00000KT 10SM OVC011 06/04 A3002 RMK AO2 T00560044=
201912291209 SPECI KCLM 291209Z AUTO 22003KT 10SM OVC009 06/04 A3003 RMK AO2 T00560044=
201912291153 METAR KCLM 291153Z AUTO 23005KT 10SM OVC010 06/04 A3003 RMK AO2 SLP172 70001 T00560044 10056 20044 58003=
201912291053 METAR KCLM 291053Z AUTO 00000KT 10SM OVC011 05/04 A3004 RMK AO2 SLP175 T00500044=
201912290953 METAR KCLM 290953Z AUTO 00000KT 10SM OVC011 05/04 A3004 RMK AO2 SLP175 T00500044=
201912290902 SPECI KCLM 290902Z AUTO 21004KT 10SM OVC012 05/04 A3004 RMK AO2 T00500044=
201912290853 METAR KCLM 290853Z AUTO 21004KT 10SM OVC009 05/04 A3004 RMK AO2 SLP175 T00500044 58003=
201912290753 METAR KCLM 290753Z AUTO 00000KT 7SM OVC010 04/04 A3006 RMK AO2 SLP182 T00440044 400670028=
201912290701 SPECI KCLM 290701Z AUTO 21003KT 10SM BKN012 OVC075 05/04 A3007 RMK AO2 T00500039=
201912290653 METAR KCLM 290653Z AUTO 00000KT 10SM SCT012 OVC070 04/04 A3007 RMK AO2 SLP185 T00440039=
201912290610 SPECI KCLM 290610Z AUTO 25004KT 10SM FEW009 SCT012 BKN075 04/04 A3006 RMK AO2 T00440039=
201912290553 METAR KCLM 290553Z AUTO 21005KT 10SM SCT012 BKN070 04/04 A3005 RMK AO2 PRESFR SLP178 60001 T00440039 10061 20044 58016=
201912290453 METAR KCLM 290453Z AUTO 22004KT 10SM OVC010 05/04 A3008 RMK AO2 RAB0355E05 SLP188 P0000 T00500044=
201912290353 METAR KCLM 290353Z AUTO 22004KT 10SM OVC011 05/04 A3009 RMK AO2 SLP191 T00500044=
201912290312 SPECI KCLM 290312Z AUTO 00000KT 5SM BR BKN011 OVC060 04/04 A3009 RMK AO2 T00440044=
201912290253 METAR KCLM 290253Z AUTO 00000KT 5SM BR FEW011 OVC060 04/04 A3010 RMK AO2 SLP193 60001 T00440044 56004=
201912290153 METAR KCLM 290153Z AUTO 00000KT 10SM OVC065 05/04 A3010 RMK AO2 SLP195 T00500044=
201912290053 METAR KCLM 290053Z AUTO 00000KT 10SM OVC060 06/04 A3010 RMK AO2 RAE13 SLP194 P0001 T00560044=
201912290000 SPECI KCLM 290000Z AUTO 11004KT 10SM -RA SCT013 OVC070 06/04 A3010 RMK AO2 P0001 T00610044=
201912282353 METAR KCLM 282353Z AUTO 11004KT 10SM -RA BKN013 OVC065 06/05 A3011 RMK AO2 RAB2255 SLP197 P0000 60000 T00610050 10067 20050 56009=
201912282338 SPECI KCLM 282338Z AUTO 00000KT 10SM -RA BKN013 OVC060 06/05 A3012 RMK AO2 RAB2255 P0000 T00610050=
201912282253 METAR KCLM 282253Z AUTO 00000KT 10SM FEW060 OVC075 06/04 A3011 RMK AO2 SLP198 T00610044=
201912282204 SPECI KCLM 282204Z AUTO 29003KT 10SM SCT011 BKN060 OVC110 06/04 A3011 RMK AO2 T00610044=
201912282153 METAR KCLM 282153Z AUTO 28003KT 10SM BKN011 BKN060 OVC110 06/04 A3011 RMK AO2 SLP197 T00610044=
201912282053 METAR KCLM 282053Z AUTO 27005KT 10SM OVC012 06/04 A3013 RMK AO2 SLP206 T00610044 56017=
201912281953 METAR KCLM 281953Z AUTO 25006KT 10SM OVC012 06/04 A3015 RMK AO2 SLP210 T00610044=
201912281944 SPECI KCLM 281944Z AUTO 25005KT 6SM BR BKN012 06/04 A3014 RMK AO2 T00610044=
201912281913 SPECI KCLM 281913Z AUTO 24005KT 10SM SCT011 SCT120 06/04 A3016 RMK AO2 T00560039=
201912281853 METAR KCLM 281853Z AUTO 25005KT 10SM OVC011 06/04 A3017 RMK AO2 SLP219 T00560039=
201912281753 METAR KCLM 281753Z AUTO 24006KT 10SM OVC013 05/04 A3018 RMK AO2 SLP223 T00500039 10050 20033 58001=
201912281726 SPECI KCLM 281726Z AUTO 25007KT 10SM OVC011 05/04 A3019 RMK AO2 T00500039=
201912281704 SPECI KCLM 281704Z AUTO 26005KT 10SM OVC009 05/03 A3019 RMK AO2 CIG 008V013 T00500033=
201912281653 METAR KCLM 281653Z AUTO 24006KT 10SM OVC011 05/03 A3019 RMK AO2 SLP226 T00500033=
201912281648 SPECI KCLM 281648Z AUTO 24006KT 10SM BKN011 05/03 A3019 RMK AO2=
201912281608 SPECI KCLM 281608Z AUTO 26005KT 10SM BKN008 03/02 A3019 RMK AO2 T00330022=
201912281553 METAR KCLM 281553Z AUTO 26004KT 10SM SCT008 03/02 A3019 RMK AO2 SLP224 T00330022=
201912281511 SPECI KCLM 281511Z AUTO 00000KT 10SM SCT007 OVC075 03/03 A3019 RMK AO2 T00330028=
201912281453 METAR KCLM 281453Z AUTO 25004KT 10SM OVC007 03/02 A3019 RMK AO2 SLP225 T00330022 56010=
201912281419 SPECI KCLM 281419Z AUTO 23004KT 10SM BKN006 OVC080 04/03 A3020 RMK AO2 T00390028=
201912281405 SPECI KCLM 281405Z AUTO 23003KT 10SM FEW006 OVC080 04/03 A3020 RMK AO2 T00390028=
201912281353 METAR KCLM 281353Z AUTO 25003KT 10SM BKN080 04/03 A3020 RMK AO2 SLP229 T00390028=
201912281253 METAR KCLM 281253Z AUTO 22003KT 10SM BKN075 OVC095 04/03 A3020 RMK AO2 SLP229 T00440028=
201912281153 METAR KCLM 281153Z AUTO 23003KT 10SM FEW075 04/03 A3022 RMK AO2 SLP235 T00390028 10044 20028 58001=
201912281053 METAR KCLM 281053Z AUTO 00000KT 9SM BKN050 OVC100 04/03 A3024 RMK AO2 SLP241 T00390028=
201912280953 METAR KCLM 280953Z AUTO 23005KT 10SM SCT055 BKN070 OVC100 04/03 A3023 RMK AO2 SLP237 T00390033=
201912280853 METAR KCLM 280853Z AUTO 00000KT 10SM BKN075 OVC095 03/03 A3022 RMK AO2 SLP236 T00330033 51005=
201912280753 METAR KCLM 280753Z AUTO 00000KT 9SM BKN090 03/02 A3022 RMK AO2 SLP236 T00280022 400721006=
201912280653 METAR KCLM 280653Z AUTO 00000KT 10SM OVC095 03/03 A3022 RMK AO2 SLP236 T00330033=
201912280553 METAR KCLM 280553Z AUTO 00000KT 6SM BR SCT120 03/03 A3021 RMK AO2 SLP231 T00330028 10067 20028 53004=
201912280453 METAR KCLM 280453Z AUTO 00000KT 9SM SCT060 BKN110 04/03 A3019 RMK AO2 SLP226 T00390033=
201912280353 METAR KCLM 280353Z AUTO 00000KT 6SM BR SCT046 OVC060 04/04 A3020 RMK AO2 SLP228 T00440039=
201912280253 METAR KCLM 280253Z AUTO 00000KT 6SM BR BKN050 OVC065 04/04 A3020 RMK AO2 SLP228 T00390039 51009=
201912280153 METAR KCLM 280153Z AUTO 14003KT 9SM OVC060 06/04 A3019 RMK AO2 SLP226 T00560044=
201912280053 METAR KCLM 280053Z AUTO 00000KT 9SM BKN060 OVC110 06/04 A3018 RMK AO2 SLP223 T00610044=
201912272353 METAR KCLM 272353Z AUTO 28003KT 10SM BKN060 OVC090 07/05 A3017 RMK AO2 SLP217 T00670050 10072 20056 51008=
201912272253 METAR KCLM 272253Z AUTO 19003KT 10SM SCT015 OVC055 07/05 A3016 RMK AO2 SLP216 T00670050=
201912272213 SPECI KCLM 272213Z AUTO 27004KT 10SM OVC015 07/05 A3015 RMK AO2 T00720050=
201912272153 METAR KCLM 272153Z AUTO 27004KT 10SM OVC011 07/05 A3014 RMK AO2 SLP210 T00670050=
201912272113 SPECI KCLM 272113Z AUTO 31004KT 10SM BKN011 OVC050 07/05 A3014 RMK AO2 T00720050=
201912272053 METAR KCLM 272053Z AUTO 30004KT 10SM FEW010 OVC055 07/05 A3014 RMK AO2 SLP209 T00720050 53008=
201912271953 METAR KCLM 271953Z AUTO 27005KT 10SM OVC049 07/05 A3014 RMK AO2 SLP207 T00670050=
201912271853 METAR KCLM 271853Z AUTO 25008KT 10SM FEW042 BKN065 06/02 A3012 RMK AO2 SLP203 T00610022=
201912271753 METAR KCLM 271753Z AUTO 26006KT 10SM BKN040 OVC048 06/03 A3012 RMK AO2 SLP201 60000 T00560028 10056 20000 51011=
201912271653 METAR KCLM 271653Z AUTO 25003KT 10SM SCT009 OVC042 05/03 A3011 RMK AO2 RAB31E45 SLP199 P0000 T00500033=
201912271650 SPECI KCLM 271650Z AUTO 25003KT 10SM FEW009 SCT012 OVC042 05/03 A3011 RMK AO2 RAB31E45 P0000=
201912271624 SPECI KCLM 271624Z AUTO 25006KT 10SM BKN009 BKN044 OVC075 05/03 A3010 RMK AO2 T00500028=
201912271553 METAR KCLM 271553Z AUTO 25009KT 10SM OVC075 05/02 A3009 RMK AO2 SLP191 T00500017=
201912271453 METAR KCLM 271453Z AUTO 26008KT 10SM FEW042 02/01 A3007 RMK AO2 SLP186 60000 T00220006 51007=
201912271353 METAR KCLM 271353Z AUTO 00000KT 10SM FEW033 SCT041 SCT075 02/01 A3007 RMK AO2 RAE11 SLP186 P0000 T00170011=
201912271253 METAR KCLM 271253Z AUTO VRB03KT 9SM -RA BKN039 BKN070 04/01 A3006 RMK AO2 RAB51 SLP181 P0000 T00390011=
201912271153 METAR KCLM 271153Z AUTO 21005KT 10SM OVC044 03/02 A3005 RMK AO2 RAE1056 SLP178 P0000 60001 70001 T00330017 10039 21006 51013=
201912271053 METAR KCLM 271053Z AUTO 00000KT 10SM -RA BKN045 OVC055 01/01 A3005 RMK AO2 RAB45 SLP179 P0000 T00110011=
201912270953 METAR KCLM 270953Z AUTO 00000KT 10SM OVC049 01/00 A3003 RMK AO2 SLP172 T00060000=
201912270853 METAR KCLM 270853Z AUTO 00000KT 4SM BR FEW048 01/01 A3001 RMK AO2 RAE02 SLP166 P0000 60001 T00110006 51012=
201912270753 METAR KCLM 270753Z AUTO 00000KT 10SM -RA OVC055 03/02 A3001 RMK AO2 RAB00UPB34E35 SLP162 P0001 T00280022 400560006=
201912270653 METAR KCLM 270653Z AUTO 21006KT 10SM OVC070 03/02 A3000 RMK AO2 SLP160 T00280022=
201912270553 METAR KCLM 270553Z AUTO 22005KT 10SM SCT011 OVC070 03/02 A2998 RMK AO2 SLP154 T00330022 10039 20006 53011=
201912270531 SPECI KCLM 270531Z AUTO 25005KT 10SM BKN011 OVC085 03/02 A2998 RMK AO2 T00280022=
201912270453 METAR KCLM 270453Z AUTO 25005KT 10SM FEW013 OVC065 01/01 A2996 RMK AO2 SLP147 T00110011=
201912270353 METAR KCLM 270353Z AUTO 00000KT 8SM FEW070 BKN090 02/01 A2996 RMK AO2 SLP147 T00170011=
201912270253 METAR KCLM 270253Z AUTO 16005KT 8SM BKN075 BKN120 02/02 A2995 RMK AO2 SLP143 T00220017 56019=
201912270153 METAR KCLM 270153Z AUTO 24004KT 9SM BKN070 OVC090 03/02 A2996 RMK AO2 SLP150 T00280022=
201912270053 METAR KCLM 270053Z AUTO 00000KT 10SM BKN100 OVC110 03/02 A2998 RMK AO2 SLP155 T00330022=
201912262353 METAR KCLM 262353Z AUTO 10003KT 10SM OVC110 04/02 A3000 RMK AO2 SLP162 T00390022 10056 20033 58019=
201912262253 METAR KCLM 262253Z AUTO 07004KT 10SM SCT006 BKN110 04/02 A3002 RMK AO2 SLP169 T00390022=
201912262223 SPECI KCLM 262223Z AUTO 03003KT 10SM BKN006 04/02 A3003 RMK AO2 T00390022=
201912262153 METAR KCLM 262153Z AUTO 04004KT 10SM FEW007 04/02 A3004 RMK AO2 SLP174 T00440022=
201912262105 SPECI KCLM 262105Z AUTO 09005KT 10SM FEW006 SCT026 04/03 A3005 RMK AO2 T00440028=
201912262053 METAR KCLM 262053Z AUTO 07005KT 10SM FEW007 BKN025 04/03 A3006 RMK AO2 SLP180 T00440028 58013=
201912262037 SPECI KCLM 262037Z AUTO 10005KT 10SM SCT025 04/03 A3006 RMK AO2 T00440028=
201912262022 SPECI KCLM 262022Z AUTO 08004KT 10SM BKN026 05/02 A3006 RMK AO2 T00500022=
201912262000 SPECI KCLM 262000Z AUTO VRB03KT 10SM SCT028 05/02 A3008 RMK AO2 T00500017=
201912261953 METAR KCLM 261953Z AUTO 09004KT 10SM BKN028 06/01 A3008 RMK AO2 SLP188 T00560011=
201912261930 SPECI KCLM 261930Z AUTO 27003KT 10SM BKN029 04/01 A3011 RMK AO2 T00440011=
201912261853 METAR KCLM 261853Z AUTO 00000KT 10SM BKN031 04/01 A3011 RMK AO2 SLP198 T00440006=
201912261753 METAR KCLM 261753Z AUTO 00000KT 10SM OVC031 03/01 A3010 RMK AO2 SLP195 T00330011 10033 20017 58011=
201912261653 METAR KCLM 261653Z AUTO 23003KT 10SM OVC032 03/01 A3011 RMK AO2 SLP200 T00280011=
201912261553 METAR KCLM 261553Z AUTO 23005KT 10SM OVC032 02/01 A3012 RMK AO2 SLP203 T00220006=
201912261545 SPECI KCLM 261545Z AUTO 24003KT 10SM OVC030 02/01 A3012 RMK AO2 T00220006=
201912261453 METAR KCLM 261453Z AUTO 24006KT 10SM OVC028 03/01 A3013 RMK AO2 SLP206 T00280006 51001=
201912261353 METAR KCLM 261353Z AUTO 22004KT 10SM OVC028 03/01 A3013 RMK AO2 SLP205 T00280011=
201912261253 METAR KCLM 261253Z AUTO 00000KT 10SM OVC026 02/01 A3014 RMK AO2 SLP208 T00220006=
201912261153 METAR KCLM 261153Z AUTO 22004KT 10SM OVC023 02/01 A3013 RMK AO2 SLP203 70001 T00220006 10039 20022 51001=
201912261053 METAR KCLM 261053Z AUTO 24003KT 10SM OVC021 03/01 A3012 RMK AO2 SLP202 T00280011=
201912260953 METAR KCLM 260953Z AUTO 22004KT 10SM OVC022 03/02 A3013 RMK AO2 SLP205 T00280017=
201912260853 METAR KCLM 260853Z AUTO 17005KT 10SM OVC024 03/02 A3012 RMK AO2 SLP202 T00330017 50000=
201912260753 METAR KCLM 260753Z AUTO 17003KT 10SM OVC022 03/02 A3013 RMK AO2 SLP206 T00280017 400560022=
201912260653 METAR KCLM 260653Z AUTO 18003KT 10SM OVC025 03/01 A3013 RMK AO2 SLP205 T00330011=
201912260604 SPECI KCLM 260604Z AUTO 18004KT 10SM BKN026 03/01 A3012 RMK AO2 T00330011=
201912260553 METAR KCLM 260553Z AUTO 18005KT 10SM FEW027 03/01 A3012 RMK AO2 SLP202 T00330011 10050 20022 51008=
201912260535 SPECI KCLM 260535Z AUTO 18005KT 10SM SCT026 03/01 A3012 RMK AO2 T00280011=
201912260453 METAR KCLM 260453Z AUTO 00000KT 10SM OVC026 03/02 A3012 RMK AO2 SLP202 T00330022=
201912260353 METAR KCLM 260353Z AUTO 00000KT 10SM OVC025 03/02 A3011 RMK AO2 SLP201 T00330022=
201912260321 SPECI KCLM 260321Z AUTO 14003KT 10SM BKN026 OVC030 03/02 A3010 RMK AO2 T00280022=
201912260253 METAR KCLM 260253Z AUTO 00000KT 10SM OVC031 03/02 A3010 RMK AO2 SLP195 T00280022 53013=
201912260153 METAR KCLM 260153Z AUTO 16003KT 10SM OVC032 04/02 A3008 RMK AO2 SLP189 T00390022=
201912260053 METAR KCLM 260053Z AUTO 14003KT 10SM OVC031 04/02 A3007 RMK AO2 SLP186 T00440017=
201912252353 METAR KCLM 252353Z AUTO 00000KT 10SM OVC033 05/02 A3006 RMK AO2 SLP181 60000 T00500022 10056 20044 53018=
201912252253 METAR KCLM 252253Z AUTO 12004KT 10SM OVC032 05/02 A3004 RMK AO2 SLP174 T00500022=
201912252235 SPECI KCLM 252235Z AUTO 11004KT 10SM OVC030 05/03 A3003 RMK AO2 T00500028=
201912252219 SPECI KCLM 252219Z AUTO 12005KT 10SM BKN028 OVC033 05/03 A3002 RMK AO2 T00500028=
201912252153 METAR KCLM 252153Z AUTO 11006KT 10SM SCT015 OVC035 05/03 A3002 RMK AO2 SLP166 T00500028=
201912252053 METAR KCLM 252053Z AUTO 11004KT 10SM OVC020 05/03 A3001 RMK AO2 SLP163 60000 T00500028 51013=
201912251953 METAR KCLM 251953Z AUTO 11005KT 10SM OVC017 04/03 A3000 RMK AO2 RAB16E37 SLP160 P0000 T00440028=
201912251853 METAR KCLM 251853Z AUTO 10005KT 10SM OVC015 04/03 A2998 RMK AO2 RAE15 SLP155 P0000 T00440033=
201912251753 METAR KCLM 251753Z AUTO 10003KT 10SM -RA BKN015 OVC021 04/03 A2997 RMK AO2 RAB50 SLP150 P0000 60001 T00440033 10044 20033 51032=
201912251653 METAR KCLM 251653Z AUTO 00000KT 5SM BR BKN016 OVC022 03/03 A2994 RMK AO2 SLP141 T00330033=
201912251553 METAR KCLM 251553Z AUTO 00000KT 10SM OVC018 03/03 A2991 RMK AO2 SLP130 T00330033=
201912251502 SPECI KCLM 251502Z AUTO 21003KT 10SM OVC015 03/03 A2988 RMK AO2 T00330028=
201912251453 METAR KCLM 251453Z AUTO 00000KT 10SM OVC014 03/03 A2987 RMK AO2 RAE10 SLP119 P0000 60001 T00330033 53017=
201912251406 SPECI KCLM 251406Z AUTO 00000KT 7SM -RA BKN014 OVC019 03/03 A2986 RMK AO2 P0000 T00330033=
201912251353 METAR KCLM 251353Z AUTO 00000KT 9SM -RA FEW011 OVC020 03/03 A2986 RMK AO2 RAE19B51 SLP112 P0000 T00330033=
201912251253 METAR KCLM 251253Z AUTO 21003KT 10SM -RA OVC018 03/03 A2983 RMK AO2 SLP105 P0001 T00330028=
201912251206 SPECI KCLM 251206Z AUTO 22005KT 10SM -RA BKN017 OVC042 03/03 A2983 RMK AO2 P0000 T00330028=
201912251153 METAR KCLM 251153Z AUTO 23004KT 10SM -RA FEW013 SCT019 OVC041 03/03 A2982 RMK AO2 SLP100 P0000 60001 70001 T00330028 10039 20033 51010=
201912251145 SPECI KCLM 251145Z AUTO 23005KT 10SM -RA FEW013 SCT021 OVC041 03/03 A2982 RMK AO2 P0000 T00330028=
201912251138 SPECI KCLM 251138Z AUTO 23005KT 10SM -RA FEW013 BKN020 OVC049 03/03 A2982 RMK AO2 P0000 T00330028=
201912251111 SPECI KCLM 251111Z AUTO 22003KT 9SM -RA FEW019 BKN034 OVC048 03/03 A2982 RMK AO2 P0000 T00330028=
201912251053 METAR KCLM 251053Z AUTO 22005KT 9SM -RA BKN018 BKN026 OVC034 03/03 A2982 RMK AO2 RAB18 SLP099 P0001 T00330028=
201912251028 SPECI KCLM 251028Z AUTO 21004KT 10SM -RA BKN019 OVC060 03/02 A2981 RMK AO2 RAB18 P0000 T00330022=
201912250953 METAR KCLM 250953Z AUTO 22005KT 10SM SCT018 BKN044 OVC060 03/02 A2980 RMK AO2 SLP093 T00330022=
201912250934 SPECI KCLM 250934Z AUTO 23005KT 10SM BKN017 OVC044 03/02 A2980 RMK AO2 T00330022=
201912250853 METAR KCLM 250853Z AUTO 23006KT 10SM FEW043 BKN060 OVC070 03/02 A2979 RMK AO2 SLP090 T00330022 51004=
201912250753 METAR KCLM 250753Z AUTO 24004KT 10SM FEW013 OVC065 04/02 A2979 RMK AO2 SLP088 T00390022 400501028=
201912250732 SPECI KCLM 250732Z AUTO 23005KT 10SM SCT016 OVC065 04/02 A2979 RMK AO2 T00390022=
201912250653 METAR KCLM 250653Z AUTO 22004KT 10SM BKN015 OVC065 04/02 A2979 RMK AO2 SLP091 T00390022=
201912250646 SPECI KCLM 250646Z AUTO 23005KT 10SM BKN016 OVC065 04/02 A2979 RMK AO2 T00390022=
201912250553 METAR KCLM 250553Z AUTO 24006KT 10SM FEW013 OVC065 04/02 A2978 RMK AO2 SLP087 T00390022 10044 20017 53005=
201912250532 SPECI KCLM 250532Z AUTO 24006KT 10SM SCT013 OVC070 04/02 A2978 RMK AO2 T00390022=
201912250453 METAR KCLM 250453Z AUTO 23005KT 10SM OVC015 04/02 A2977 RMK AO2 SLP083 T00390022=
201912250450 SPECI KCLM 250450Z AUTO 23006KT 10SM OVC015 04/02 A2977 RMK AO2=
201912250433 SPECI KCLM 250433Z AUTO 23006KT 10SM BKN014 BKN060 OVC070 03/02 A2977 RMK AO2 T00330017=
201912250353 METAR KCLM 250353Z AUTO 22006KT 10SM FEW013 OVC060 03/02 A2976 RMK AO2 SLP081 T00280017=
201912250253 METAR KCLM 250253Z AUTO 23005KT 10SM OVC060 02/02 A2976 RMK AO2 SLP081 T00220017 51002=
201912250153 METAR KCLM 250153Z AUTO 25004KT 10SM FEW060 SCT080 02/02 A2976 RMK AO2 SLP080 T00220017=
201912250053 METAR KCLM 250053Z AUTO 00000KT 10SM BKN065 OVC080 03/02 A2976 RMK AO2 SLP081 T00330022=
201912242353 METAR KCLM 242353Z AUTO 00000KT 10SM FEW070 OVC085 04/03 A2976 RMK AO2 SLP079 T00440028 10050 20006 56004=
201912242253 METAR KCLM 242253Z AUTO 00000KT 10SM BKN075 OVC090 05/02 A2976 RMK AO2 SLP079 T00500022=
201912242153 METAR KCLM 242153Z AUTO 00000KT 10SM OVC070 05/02 A2976 RMK AO2 SLP079 T00500022=
201912242053 METAR KCLM 242053Z AUTO 00000KT 10SM OVC080 05/02 A2977 RMK AO2 SLP084 T00500022 58016=
201912241953 METAR KCLM 241953Z AUTO 00000KT 10SM OVC085 05/02 A2978 RMK AO2 SLP089 T00500022=
201912241853 METAR KCLM 241853Z AUTO 00000KT 9SM FEW075 OVC090 03/02 A2980 RMK AO2 SLP095 T00280022=
201912241753 METAR KCLM 241753Z AUTO 00000KT 7SM OVC090 01/00 A2982 RMK AO2 SLP099 I6000 T00060000 10006 21028 56001=
201912241653 METAR KCLM 241653Z AUTO 00000KT 10SM OVC100 M01/M01 A2982 RMK AO2 SLP100 T10061011=
201912241553 METAR KCLM 241553Z AUTO 00000KT 9SM BKN110 M01/M01 A2981 RMK AO2 SLP098 T10111011=
201912241453 METAR KCLM 241453Z AUTO 00000KT 10SM CLR M02/M02 A2982 RMK AO2 SLP100 I1000 I3000 T10171022 56012=
201912241353 METAR KCLM 241353Z AUTO 00000KT 10SM CLR M02/M02 A2983 RMK AO2 SLP104 I1000 T10171022=
201912241253 METAR KCLM 241253Z AUTO 22005KT 10SM CLR M02/M02 A2984 RMK AO2 SLP107 I1000 T10171022=
201912241153 METAR KCLM 241153Z AUTO 21003KT 10SM CLR M02/M03 A2985 RMK AO2 SLP112 I1000 I6001 T10221028 10006 21028 56014=
201912241112 SPECI KCLM 241112Z AUTO 19003KT 10SM FEW007 M01/M02 A2986 RMK AO2 T10111017=
201912241053 METAR KCLM 241053Z AUTO 00000KT 10SM CLR M01/M01 A2987 RMK AO2 SLP117 I1000 T10111011=
201912240953 METAR KCLM 240953Z AUTO 00000KT 5SM BR CLR M01/M02 A2987 RMK AO2 SLP118 I1000 T10111022=
201912240853 METAR KCLM 240853Z AUTO 21003KT 10SM BKN055 M01/M02 A2989 RMK AO2 SLP125 I3001 T10061017 58013=
201912240753 METAR KCLM 240753Z AUTO 23006KT 10SM OVC055 01/M01 A2991 RMK AO2 SLP132 I1001 T00061006 400671017=
201912240713 SPECI KCLM 240713Z AUTO 19003KT 10SM CLR M01/M02 A2992 RMK AO2 I1000 T10111017=
201912240704 SPECI KCLM 240704Z AUTO 00000KT 2SM BR CLR M01/M01 A2993 RMK AO2 VIS 1V5 T10111011=
201912240653 METAR KCLM 240653Z AUTO 19003KT 3SM BR CLR M01/M02 A2993 RMK AO2 SLP137 I1000 T10111017=
201912240553 METAR KCLM 240553Z AUTO 22004KT 10SM CLR M01/M01 A2993 RMK AO2 SLP139 I6002 T10061011 10044 21017 58009=
201912240453 METAR KCLM 240453Z AUTO 00000KT 10SM CLR M01/M02 A2994 RMK AO2 SLP143 I1001 T10111017=
201912240353 METAR KCLM 240353Z AUTO 22006KT 10SM CLR 01/00 A2995 RMK AO2 SLP145 I1001 T00060000=
201912240253 METAR KCLM 240253Z AUTO 22004KT 10SM CLR 00/00 A2996 RMK AO2 SLP147 T00000000 58008=
201912240153 METAR KCLM 240153Z AUTO 21003KT 7SM CLR M01/M01 A2996 RMK AO2 SLP149 T10061006=
201912240053 METAR KCLM 240053Z AUTO 21003KT 10SM CLR 03/02 A2998 RMK AO2 SLP155 T00280022=
201912232353 METAR KCLM 232353Z AUTO 08003KT 10SM CLR 04/03 A2998 RMK AO2 SLP154 T00440033 10067 20039 56006=
201912232253 METAR KCLM 232253Z AUTO 09003KT 10SM FEW014 SCT045 BKN055 06/04 A2998 RMK AO2 SLP155 T00560039=
201912232153 METAR KCLM 232153Z AUTO VRB03KT 10SM SCT011 OVC040 06/04 A2998 RMK AO2 SLP155 T00610039=
201912232139 SPECI KCLM 232139Z AUTO 08003KT 10SM FEW009 SCT013 OVC039 06/04 A2999 RMK AO2 T00610039=
201912232129 SPECI KCLM 232129Z AUTO 09003KT 10SM FEW009 BKN013 OVC039 06/04 A2999 RMK AO2 T00610039=
201912232122 SPECI KCLM 232122Z AUTO 06003KT 10SM SCT009 BKN015 OVC039 06/04 A2999 RMK AO2 T00610039=
201912232053 METAR KCLM 232053Z AUTO 00000KT 10SM SCT010 BKN014 OVC039 06/04 A3000 RMK AO2 SLP161 T00610039 58003=
201912232042 SPECI KCLM 232042Z AUTO 05003KT 10SM SCT009 BKN014 BKN038 06/03 A3000 RMK AO2 T00610033=
201912232031 SPECI KCLM 232031Z AUTO VRB03KT 10SM SCT009 BKN015 BKN040 06/04 A3000 RMK AO2 T00610039=
201912232019 SPECI KCLM 232019Z AUTO VRB03KT 10SM BKN009 BKN015 06/04 A3001 RMK AO2 CIG 006V011 T00610039=
201912232009 SPECI KCLM 232009Z AUTO 02004KT 10SM SCT010 BKN015 06/04 A3001 RMK AO2 T00610039=
201912231953 METAR KCLM 231953Z AUTO 35003KT 10SM FEW010 SCT020 06/03 A3001 RMK AO2 SLP164 T00560033=
201912231853 METAR KCLM 231853Z AUTO 21004KT 10SM CLR 05/02 A3002 RMK AO2 SLP166 T00500022=
201912231839 SPECI KCLM 231839Z AUTO 24004KT 10SM SCT018 05/02 A3002 RMK AO2 T00500022=
201912231753 METAR KCLM 231753Z AUTO 23004KT 10SM OVC019 04/02 A3001 RMK AO2 SLP164 60000 T00390022 10039 20022 51019=
201912231653 METAR KCLM 231653Z AUTO 24004KT 10SM OVC017 03/03 A3000 RMK AO2 SLP160 T00330028=
201912231621 SPECI KCLM 231621Z AUTO 00000KT 10SM BKN016 OVC038 03/02 A2999 RMK AO2 T00330022=
201912231553 METAR KCLM 231553Z AUTO 00000KT 10SM FEW010 FEW023 OVC038 03/03 A2997 RMK AO2 SLP151 T00330028=
201912231453 METAR KCLM 231453Z AUTO 00000KT 10SM SCT013 BKN018 BKN039 03/02 A2995 RMK AO2 SLP146 60000 T00330022 51009=
201912231416 SPECI KCLM 231416Z AUTO 10007KT 10SM FEW027 OVC034 03/02 A2995 RMK AO2 T00280022=
201912231353 METAR KCLM 231353Z AUTO 12005KT 10SM BKN025 OVC035 03/02 A2994 RMK AO2 RAB40E51 SLP143 P0000 T00330022=
201912231335 SPECI KCLM 231335Z AUTO 00000KT 10SM SCT013 BKN024 OVC047 04/03 A2994 RMK AO2 T00390028=
201912231304 SPECI KCLM 231304Z AUTO 24003KT 10SM BKN011 OVC026 04/03 A2993 RMK AO2 T00390028=
201912231253 METAR KCLM 231253Z AUTO 23005KT 10SM SCT011 OVC025 04/03 A2993 RMK AO2 RAB39E52 SLP136 P0000 T00390033=
201912231241 SPECI KCLM 231241Z AUTO 00000KT 10SM -RA SCT009 OVC025 04/03 A2992 RMK AO2 RAB39 P0000 T00390033=
201912231213 SPECI KCLM 231213Z AUTO 00000KT 10SM BKN007 BKN013 OVC021 04/03 A2992 RMK AO2 T00390033=
201912231206 SPECI KCLM 231206Z AUTO 00000KT 10SM SCT007 SCT013 OVC021 04/03 A2992 RMK AO2 T00390033=
201912231153 METAR KCLM 231153Z AUTO 13003KT 10SM FEW013 BKN020 OVC031 04/03 A2992 RMK AO2 RAB1059E09 SLP134 P0000 60000 T00390033 10044 20033 53020=
201912231122 SPECI KCLM 231122Z AUTO 00000KT 10SM BKN017 OVC044 03/03 A2991 RMK AO2 RAB1059E09 P0000 T00330033=
201912231104 SPECI KCLM 231104Z AUTO 00000KT 8SM -RA FEW017 OVC044 03/03 A2990 RMK AO2 RAB1059 P0000 T00330028=
201912231053 METAR KCLM 231053Z AUTO 00000KT 10SM BKN018 BKN044 OVC050 04/03 A2990 RMK AO2 SLP127 T00390033=
201912230953 METAR KCLM 230953Z AUTO 00000KT 10SM BKN035 OVC047 04/03 A2988 RMK AO2 SLP120 T00440033=
201912230945 SPECI KCLM 230945Z AUTO 20003KT 10SM BKN030 OVC037 04/03 A2988 RMK AO2 T00440033=
201912230853 METAR KCLM 230853Z AUTO 23005KT 10SM OVC023 03/03 A2986 RMK AO2 SLP114 T00330033 51019=
201912230830 SPECI KCLM 230830Z AUTO 00000KT 10SM BKN023 OVC040 03/03 A2986 RMK AO2 T00330033=
201912230753 METAR KCLM 230753Z AUTO 00000KT 10SM OVC038 04/03 A2984 RMK AO2 SLP107 T00390033 400720011=
201912230653 METAR KCLM 230653Z AUTO 22003KT 9SM OVC036 04/03 A2983 RMK AO2 SLP102 T00390033=
201912230553 METAR KCLM 230553Z AUTO 00000KT 7SM OVC037 03/03 A2981 RMK AO2 SLP095 T00330028 10056 20017 51011=
201912230453 METAR KCLM 230453Z AUTO 00000KT 6SM BR OVC040 02/02 A2980 RMK AO2 SLP093 T00220022=
201912230353 METAR KCLM 230353Z AUTO 00000KT 7SM FEW022 02/02 A2979 RMK AO2 SLP090 T00220022=
201912230321 SPECI KCLM 230321Z AUTO 00000KT 5SM BR CLR 02/02 A2978 RMK AO2 T00220022=
201912230305 SPECI KCLM 230305Z AUTO 00000KT 2SM BR CLR 02/02 A2978 RMK AO2 VIS 1V5 T00170017=
201912230253 METAR KCLM 230253Z AUTO 00000KT 3SM BR CLR 03/02 A2977 RMK AO2 SLP085 T00280022 51004=
201912230153 METAR KCLM 230153Z AUTO 14003KT 10SM CLR 03/03 A2977 RMK AO2 SLP083 T00280028=
201912230053 METAR KCLM 230053Z AUTO 15003KT 10SM CLR 04/03 A2977 RMK AO2 SLP084 T00390033=
201912222353 METAR KCLM 222353Z AUTO 00000KT 10SM FEW040 06/04 A2976 RMK AO2 SLP080 T00560039 10072 20050 55006=
201912222315 SPECI KCLM 222315Z AUTO 00000KT 10SM FEW017 OVC037 07/04 A2976 RMK AO2 T00670044=
201912222253 METAR KCLM 222253Z AUTO 06003KT 10SM FEW010 BKN017 OVC033 07/04 A2976 RMK AO2 SLP079 T00670044=
201912222245 SPECI KCLM 222245Z AUTO 00000KT 10SM SCT009 BKN017 OVC033 07/04 A2976 RMK AO2 T00670044=
201912222238 SPECI KCLM 222238Z AUTO 00000KT 10SM FEW009 SCT017 OVC033 07/04 A2976 RMK AO2 T00670044=
201912222207 SPECI KCLM 222207Z AUTO 04003KT 10SM SCT010 OVC030 07/04 A2977 RMK AO2 T00670044=
201912222153 METAR KCLM 222153Z AUTO 00000KT 10SM SCT009 OVC028 07/05 A2977 RMK AO2 SLP083 T00670050=
201912222104 SPECI KCLM 222104Z AUTO 00000KT 10SM FEW009 OVC028 07/04 A2978 RMK AO2 T00670044=
201912222053 METAR KCLM 222053Z AUTO 00000KT 10SM OVC028 07/04 A2978 RMK AO2 SLP086 T00670044 58016=
201912221953 METAR KCLM 221953Z AUTO 00000KT 10SM OVC027 07/04 A2979 RMK AO2 SLP089 T00670044=
201912221853 METAR KCLM 221853Z AUTO 00000KT 10SM OVC025 06/04 A2982 RMK AO2 SLP099 T00610044=
201912221753 METAR KCLM 221753Z AUTO 00000KT 10SM OVC026 05/04 A2983 RMK AO2 SLP103 T00500039 10050 20022 53002=
201912221718 SPECI KCLM 221718Z AUTO 22004KT 10SM BKN026 04/03 A2983 RMK AO2 T00390028=
201912221653 METAR KCLM 221653Z AUTO 00000KT 10SM CLR 03/02 A2983 RMK AO2 SLP102 T00280022=
201912221553 METAR KCLM 221553Z AUTO 00000KT 10SM SCT110 03/02 A2982 RMK AO2 SLP101 T00280017=
201912221453 METAR KCLM 221453Z AUTO 24006KT 10SM FEW013 03/02 A2982 RMK AO2 SLP101 T00330022 58001=
201912221353 METAR KCLM 221353Z AUTO 22004KT 10SM BKN011 03/02 A2983 RMK AO2 SLP103 T00280022=
201912221315 SPECI KCLM 221315Z AUTO 24005KT 10SM SCT010 SCT090 02/02 A2982 RMK AO2 T00220017=
201912221253 METAR KCLM 221253Z AUTO 21005KT 10SM BKN011 03/02 A2982 RMK AO2 SLP100 T00280017=
201912221249 SPECI KCLM 221249Z AUTO 21003KT 10SM BKN011 02/02 A2982 RMK AO2=
201912221153 METAR KCLM 221153Z AUTO 23004KT 10SM FEW080 SCT120 03/02 A2983 RMK AO2 SLP103 70004 T00280022 10033 20006 58000=
201912221053 METAR KCLM 221053Z AUTO 21004KT 10SM FEW010 BKN100 02/02 A2984 RMK AO2 SLP107 T00220017=
201912220953 METAR KCLM 220953Z AUTO 23005KT 10SM SCT007 BKN085 BKN120 02/02 A2983 RMK AO2 SLP102 T00220022=
201912220951 SPECI KCLM 220951Z AUTO 23004KT 10SM SCT007 BKN085 BKN120 02/02 A2983 RMK AO2=
201912220912 SPECI KCLM 220912Z AUTO 23005KT 3SM BR FEW090 02/01 A2983 RMK AO2 T00170011=
201912220903 SPECI KCLM 220903Z AUTO 00000KT 1 3/4SM BR FEW110 01/01 A2983 RMK AO2 T00110011=
201912220853 METAR KCLM 220853Z AUTO 23003KT 10SM FEW012 FEW110 03/02 A2983 RMK AO2 SLP102 T00280022 51001=
201912220803 SPECI KCLM 220803Z AUTO 21005KT 8SM SCT008 02/02 A2983 RMK AO2 T00220017=
201912220753 METAR KCLM 220753Z AUTO 00000KT 10SM BKN008 02/02 A2983 RMK AO2 SLP102 T00170017 400720006=
201912220653 METAR KCLM 220653Z AUTO 22004KT 5SM BR BKN009 02/02 A2983 RMK AO2 SLP102 T00220017=
201912220643 SPECI KCLM 220643Z AUTO 00000KT 2SM BR FEW009 01/01 A2983 RMK AO2 T00110011=
201912220553 METAR KCLM 220553Z AUTO 21005KT 6SM BR CLR 02/01 A2982 RMK AO2 SLP102 T00170006 10061 20011 50001=
201912220502 SPECI KCLM 220502Z AUTO 00000KT 6SM BR CLR 02/02 A2983 RMK AO2 T00220022=
201912220453 METAR KCLM 220453Z AUTO 00000KT 2 1/2SM BR CLR 01/01 A2983 RMK AO2 SLP105 T00110011=
201912220437 SPECI KCLM 220437Z AUTO 00000KT 10SM SCT085 02/02 A2983 RMK AO2 T00220022=
201912220418 SPECI KCLM 220418Z AUTO 00000KT 2 1/2SM BR FEW085 02/02 A2982 RMK AO2 T00220017=
201912220411 SPECI KCLM 220411Z AUTO 15003KT 3SM BR CLR 02/01 A2982 RMK AO2 T00170011=
201912220404 SPECI KCLM 220404Z AUTO 00000KT 2 1/2SM BR CLR 02/02 A2982 RMK AO2 T00170017=
201912220353 METAR KCLM 220353Z AUTO 21004KT 10SM CLR 03/03 A2982 RMK AO2 SLP099 T00330028=
201912220334 SPECI KCLM 220334Z AUTO 22006KT 3SM BR CLR 03/02 A2983 RMK AO2 T00280022=
201912220316 SPECI KCLM 220316Z AUTO 00000KT 1 3/4SM BR FEW080 02/02 A2982 RMK AO2 T00220022=
201912220253 METAR KCLM 220253Z AUTO 00000KT 4SM BR FEW001 BKN080 03/03 A2982 RMK AO2 SLP101 T00280028 50003=
201912220248 SPECI KCLM 220248Z AUTO 21004KT 10SM FEW001 SCT080 03/03 A2982 RMK AO2=
201912220241 SPECI KCLM 220241Z AUTO 22005KT 2 1/2SM BR FEW001 SCT090 03/02 A2983 RMK AO2 T00280022=
201912220229 SPECI KCLM 220229Z AUTO 00000KT 3/4SM BR FEW001 BKN090 02/02 A2982 RMK AO2 T00220022=
201912220225 SPECI KCLM 220225Z AUTO 00000KT 1 3/4SM BR BKN090 02/02 A2982 RMK AO2 T00220022=
201912220219 SPECI KCLM 220219Z AUTO 18003KT 3SM BR BKN090 03/03 A2982 RMK AO2 T00330033=
201912220202 SPECI KCLM 220202Z AUTO 19003KT 1 3/4SM BR FEW065 SCT100 04/03 A2983 RMK AO2 VIS 3/4V5 T00390033=
201912220153 METAR KCLM 220153Z AUTO 00000KT 9SM SCT065 BKN100 04/04 A2983 RMK AO2 SLP103 T00390039=
201912220135 SPECI KCLM 220135Z AUTO 18003KT 6SM BR BKN070 OVC090 04/04 A2982 RMK AO2 T00390039=
201912220127 SPECI KCLM 220127Z AUTO 18003KT 2 1/2SM BR BKN070 OVC080 04/04 A2982 RMK AO2 T00440044=
201912220117 SPECI KCLM 220117Z AUTO 00000KT 5SM BR FEW001 BKN075 04/04 A2982 RMK AO2 T00440044=
201912220108 SPECI KCLM 220108Z AUTO 00000KT 2 1/2SM BR FEW001 FEW035 BKN080 05/04 A2982 RMK AO2 T00500044=
201912220053 METAR KCLM 220053Z AUTO 00000KT 1SM BR FEW001 BKN033 04/04 A2981 RMK AO2 SLP097 T00440039=
201912220050 SPECI KCLM 220050Z AUTO 00000KT 1 3/4SM BR FEW001 BKN033 04/04 A2981 RMK AO2=
201912212353 METAR KCLM 212353Z AUTO 00000KT 10SM OVC031 06/05 A2981 RMK AO2 SLP097 T00610050 10072 20050 52004=
201912212253 METAR KCLM 212253Z AUTO 00000KT 10SM OVC031 07/04 A2982 RMK AO2 SLP098 T00670039=
201912212153 METAR KCLM 212153Z AUTO 00000KT 10SM FEW033 OVC050 07/04 A2980 RMK AO2 SLP091 T00720044=
201912212053 METAR KCLM 212053Z AUTO 16003KT 10SM FEW075 07/05 A2980 RMK AO2 SLP093 T00670050 53001=
201912211953 METAR KCLM 211953Z AUTO 00000KT 10SM BKN047 07/05 A2979 RMK AO2 SLP088 T00670050=
201912211853 METAR KCLM 211853Z AUTO 00000KT 10SM OVC050 06/04 A2980 RMK AO2 SLP093 T00560044=
201912211753 METAR KCLM 211753Z AUTO 23003KT 10SM FEW034 OVC047 05/04 A2980 RMK AO2 PK WND 33034/1728 SLP092 60004 T00500039 10050 20039 53019=
201912211653 METAR KCLM 211653Z AUTO 12003KT 5SM BR SCT080 OVC100 04/03 A2976 RMK AO2 SLP079 T00390033=
201912211553 METAR KCLM 211553Z AUTO 00000KT 10SM FEW048 SCT065 OVC090 04/03 A2976 RMK AO2 RAE1454 SLP078 P0000 T00390033=
201912211453 METAR KCLM 211453Z AUTO 00000KT 10SM -RA BKN055 OVC080 04/04 A2974 RMK AO2 SLP073 P0001 60004 T00390039 58003=
201912211353 METAR KCLM 211353Z AUTO 00000KT 10SM -RA OVC047 04/04 A2976 RMK AO2 SLP078 P0000 T00440039=
201912211253 METAR KCLM 211253Z AUTO 26004KT 7SM -RA OVC035 04/03 A2975 RMK AO2 SLP077 P0003 T00440033=
201912211153 METAR KCLM 211153Z AUTO 24004KT 10SM -RA OVC055 04/03 A2975 RMK AO2 SLP076 P0001 60028 70119 T00440033 10044 20039 58003=
201912211053 METAR KCLM 211053Z AUTO 22004KT 9SM -RA BKN047 OVC055 04/03 A2976 RMK AO2 SLP080 P0002 T00390033=
201912210953 METAR KCLM 210953Z AUTO 24005KT 7SM -RA OVC040 04/03 A2976 RMK AO2 SLP078 P0005 T00390028=
201912210853 METAR KCLM 210853Z AUTO 23008KT 6SM -RA BR OVC040 04/03 A2976 RMK AO2 SLP080 P0005 60020 T00390028 51005=
201912210753 METAR KCLM 210753Z AUTO 24005KT 7SM -RA OVC044 04/03 A2976 RMK AO2 SLP080 P0006 T00390028 400780039=
201912210653 METAR KCLM 210653Z AUTO 22005KT 4SM -RA BR FEW018 OVC039 04/03 A2976 RMK AO2 SLP080 P0009 T00440033=
201912210553 METAR KCLM 210553Z AUTO 24006KT 5SM -RA BR OVC039 04/04 A2975 RMK AO2 SLP075 P0007 60039 T00440039 10061 20044 53000=
201912210540 SPECI KCLM 210540Z AUTO 23005KT 5SM -RA BR SCT022 OVC039 04/04 A2974 RMK AO2 P0005 T00440039=
201912210516 SPECI KCLM 210516Z AUTO 25003KT 5SM -RA BR BKN021 OVC033 04/04 A2974 RMK AO2 P0002 T00440039=
201912210453 METAR KCLM 210453Z AUTO 00000KT 5SM -RA BR FEW024 OVC036 05/04 A2973 RMK AO2 SLP070 P0007 T00500044=
201912210353 METAR KCLM 210353Z AUTO 21004KT 7SM -RA FEW024 OVC039 05/04 A2973 RMK AO2 SLP070 P0005 T00500044=
201912210253 METAR KCLM 210253Z AUTO 22003KT 5SM -RA BR SCT030 OVC040 06/05 A2975 RMK AO2 SLP074 P0007 60020 T00560050 56012=
201912210153 METAR KCLM 210153Z AUTO 22004KT 5SM -RA BR SCT027 OVC034 06/06 A2976 RMK AO2 SLP078 P0007 T00560056=
201912210104 SPECI KCLM 210104Z AUTO 14004KT 5SM -RA BR FEW027 OVC039 06/06 A2976 RMK AO2 P0001 T00560056=
201912210053 METAR KCLM 210053Z AUTO 13004KT 7SM -RA BKN027 OVC037 06/06 A2976 RMK AO2 SLP079 P0006 T00560056=
201912210020 SPECI KCLM 210020Z AUTO 00000KT 6SM -RA BR BKN027 OVC032 06/06 A2976 RMK AO2 P0004 T00610056=
201912210012 SPECI KCLM 210012Z AUTO 17003KT 4SM -RA BR OVC031 06/06 A2977 RMK AO2 P0003 T00610056=
201912210004 SPECI KCLM 210004Z AUTO 18003KT 2 1/2SM -RA BR FEW021 BKN029 OVC035 06/06 A2977 RMK AO2 P0002 T00610056=
201912202353 METAR KCLM 202353Z AUTO 21004KT 2 1/2SM RA BR BKN030 OVC035 06/06 A2978 RMK AO2 SLP086 P0009 60031 T00610056 10072 20061 53009=
201912202327 SPECI KCLM 202327Z AUTO 29007KT 2 1/2SM -RA BR FEW003 FEW008 OVC035 06/06 A2977 RMK AO2 P0005 T00610056=
201912202311 SPECI KCLM 202311Z AUTO 09004KT 2SM -RA BR OVC040 07/06 A2975 RMK AO2 P0002 T00670061=
201912202253 METAR KCLM 202253Z AUTO 00000KT 4SM -RA BR OVC042 07/07 A2974 RMK AO2 SLP073 P0003 T00670067=
201912202153 METAR KCLM 202153Z AUTO 14005KT 6SM -RA BR BKN050 OVC065 07/06 A2973 RMK AO2 SLP069 P0003 T00670061=
201912202053 METAR KCLM 202053Z AUTO 25005KT 4SM -RA BR BKN040 OVC050 07/06 A2975 RMK AO2 SLP077 P0004 60016 T00670056 50006=
201912201953 METAR KCLM 201953Z AUTO 27006KT 5SM -RA BR BKN044 OVC055 07/06 A2975 RMK AO2 SLP077 P0005 T00670056=
201912201928 SPECI KCLM 201928Z AUTO 27004KT 3SM -RA BR SCT006 OVC040 07/06 A2975 RMK AO2 P0003 T00670061=
201912201853 METAR KCLM 201853Z AUTO 29004KT 3SM -RA BR BKN008 OVC036 07/06 A2975 RMK AO2 SLP075 P0007 T00670061=
201912201753 METAR KCLM 201753Z AUTO 29004KT 4SM -RA BR FEW006 BKN021 OVC028 07/06 A2974 RMK AO2 SLP071 P0005 60021 T00670061 10072 20067 51013=
201912201707 SPECI KCLM 201707Z AUTO VRB05KT 4SM -RA BR FEW003 SCT010 OVC022 07/06 A2973 RMK AO2 P0001 T00670061=
201912201653 METAR KCLM 201653Z AUTO 28004KT 3SM -RA BR BKN004 OVC011 07/07 A2973 RMK AO2 SLP070 P0005 T00720067=
201912201651 SPECI KCLM 201651Z AUTO 25003KT 2 1/2SM -RA BR BKN004 BKN011 OVC017 07/07 A2973 RMK AO2 P0005=
201912201646 SPECI KCLM 201646Z AUTO 26003KT 3SM -RA BR SCT004 BKN011 OVC017 07/07 A2973 RMK AO2 P0004 T00720067=
201912201635 SPECI KCLM 201635Z AUTO 27003KT 5SM -RA BR BKN005 BKN010 OVC020 07/06 A2973 RMK AO2 P0003 T00670061=
201912201613 SPECI KCLM 201613Z AUTO 29005KT 6SM -RA BR FEW009 BKN016 OVC030 07/06 A2972 RMK AO2 P0001 T00670061=
201912201553 METAR KCLM 201553Z AUTO 29004KT 6SM -RA BR BKN016 OVC044 07/06 A2971 RMK AO2 SLP062 P0003 T00720061=
201912201453 METAR KCLM 201453Z AUTO VRB03KT 8SM -RA OVC047 07/07 A2970 RMK AO2 SLP058 P0002 60008 T00720067 53003=
201912201353 METAR KCLM 201353Z AUTO 19004KT 6SM -RA BR OVC044 07/07 A2969 RMK AO2 SLP054 P0004 T00670067=
201912201253 METAR KCLM 201253Z AUTO 00000KT 9SM -RA OVC050 07/07 A2968 RMK AO2 SLP052 P0002 T00670067=
201912201153 METAR KCLM 201153Z AUTO 19003KT 8SM -RA OVC046 07/07 A2969 RMK AO2 SLP055 P0004 60027 70092 T00720067 10078 20067 51023=
201912201053 METAR KCLM 201053Z AUTO 00000KT 5SM -RA BR OVC047 07/07 A2967 RMK AO2 SLP050 P0007 T00720067=
201912200953 METAR KCLM 200953Z AUTO 27006KT 3SM -RA BR FEW027 OVC035 08/07 A2965 RMK AO2 SLP044 P0009 T00780072=
201912200853 METAR KCLM 200853Z AUTO 15003KT 6SM -RA BR OVC050 07/07 A2962 RMK AO2 SLP031 P0002 60007 T00720067 51022=
201912200753 METAR KCLM 200753Z AUTO 16004KT 9SM -RA OVC055 07/07 A2959 RMK AO2 SLP022 P0002 T00720072 400781006=
201912200653 METAR KCLM 200653Z AUTO 26003KT 5SM -RA BR OVC050 07/07 A2960 RMK AO2 PRESRR SLP023 P0003 T00720072=
201912200623 SPECI KCLM 200623Z AUTO 23003KT 3SM -RA BR OVC055 07/07 A2957 RMK AO2 P0001 T00720072=
201912200613 SPECI KCLM 200613Z AUTO 00000KT 1 3/4SM -RA BR OVC060 07/07 A2956 RMK AO2 P0001 T00670067=
201912200553 METAR KCLM 200553Z AUTO 00000KT 5SM -RA BR OVC055 07/07 A2955 RMK AO2 SLP009 P0002 60042 T00720072 10078 20050 51027=
201912200453 METAR KCLM 200453Z AUTO 00000KT 7SM -RA OVC050 08/07 A2954 RMK AO2 SLP003 P0004 T00780072=
201912200353 METAR KCLM 200353Z AUTO 23004KT 8SM -RA FEW013 OVC055 08/07 A2951 RMK AO2 SLP993 P0005 T00780072=
201912200335 SPECI KCLM 200335Z AUTO 24003KT 7SM -RA SCT014 BKN039 OVC049 08/07 A2950 RMK AO2 P0004 T00780072=
201912200327 SPECI KCLM 200327Z AUTO 00000KT 6SM -RA BR BKN014 OVC040 07/07 A2950 RMK AO2 P0004 T00720072=
201912200312 SPECI KCLM 200312Z AUTO 27003KT 5SM -RA BR BKN016 OVC039 08/07 A2949 RMK AO2 P0003 T00780072=
201912200253 METAR KCLM 200253Z AUTO 29004KT 4SM -RA BR FEW018 OVC038 08/07 A2947 RMK AO2 PRESRR SLP982 P0007 60031 T00780067 53005=
201912200223 SPECI KCLM 200223Z AUTO 00000KT 3SM -RA BR OVC039 06/06 A2944 RMK AO2 P0004 T00610061=
201912200216 SPECI KCLM 200216Z AUTO 00000KT 2 1/2SM -RA BR FEW034 OVC044 06/06 A2943 RMK AO2 P0003 T00610061=
201912200153 METAR KCLM 200153Z AUTO 00000KT 3SM -RA BR OVC055 06/06 A2942 RMK AO2 SLP964 P0009 T00560056=
201912200137 SPECI KCLM 200137Z AUTO 24003KT 3SM -RA BR OVC055 05/05 A2942 RMK AO2 P0007 T00500050=
201912200129 SPECI KCLM 200129Z AUTO 00000KT 2 1/2SM -RA BR OVC055 05/04 A2941 RMK AO2 P0006 T00500044=
201912200100 SPECI KCLM 200100Z AUTO 00000KT 4SM -RA BR OVC055 05/05 A2941 RMK AO2 P0001 T00500050=
201912200053 METAR KCLM 200053Z AUTO 00000KT 2 1/2SM RA BR OVC050 05/04 A2941 RMK AO2 SLP962 P0015 T00500044=
201912200004 SPECI KCLM 200004Z AUTO 13004KT 3SM RA BR OVC048 05/04 A2943 RMK AO2 PRESFR P0003 T00500044=
201912192353 METAR KCLM 192353Z AUTO 16004KT 1 3/4SM RA BR BKN044 OVC055 05/04 A2946 RMK AO2 SLP977 P0013 60023 T00500044 10061 20033 56030=
201912192344 SPECI KCLM 192344Z AUTO 12003KT 2SM -RA BR BKN044 OVC055 05/05 A2946 RMK AO2 P0011 T00500050=
201912192322 SPECI KCLM 192322Z AUTO 00000KT 1 3/4SM RA BR OVC043 06/05 A2948 RMK AO2 P0005 T00560050=
201912192253 METAR KCLM 192253Z AUTO VRB03KT 3SM -RA BR SCT004 OVC039 06/05 A2950 RMK AO2 SLP991 P0007 T00560050=
201912192248 SPECI KCLM 192248Z AUTO 00000KT 2SM -RA BR BKN004 OVC039 06/05 A2950 RMK AO2 P0006=
201912192232 SPECI KCLM 192232Z AUTO 00000KT 2 1/2SM -RA BR FEW003 OVC040 06/06 A2951 RMK AO2 VIS 1 3/4V4 P0004 T00560056=
201912192153 METAR KCLM 192153Z AUTO 07003KT 5SM -RA BR OVC043 06/05 A2955 RMK AO2 RAB2058 SLP006 P0003 T00610050=
201912192053 METAR KCLM 192053Z AUTO 23005KT 10SM BKN060 BKN075 OVC095 06/05 A2961 RMK AO2 SLP027 T00610050 58039=
201912192003 SPECI KCLM 192003Z AUTO 23007KT 10SM FEW008 SCT065 BKN110 06/05 A2964 RMK AO2 T00610050=
201912191953 METAR KCLM 191953Z AUTO 10SM FEW070 BKN120 06/05 A2965 RMK AO2 SLP043 T00610050=
201912191853 METAR KCLM 191853Z AUTO VRB03KT 10SM CLR 06/05 A2969 RMK AO2 SLP057 T00610050=
201912191753 METAR KCLM 191753Z AUTO 29004KT 10SM SCT075 03/02 A2972 RMK AO2 SLP066 T00330022 10039 21006 55014=
201912191653 METAR KCLM 191653Z AUTO 00000KT 10SM SCT120 02/01 A2972 RMK AO2 SLP066 T00170011=
201912191553 METAR KCLM 191553Z AUTO 00000KT 10SM CLR 01/01 A2973 RMK AO2 SLP071 T00110006=
201912191453 METAR KCLM 191453Z AUTO 00000KT 10SM CLR 02/01 A2976 RMK AO2 SLP080 T00220011 55001=
201912191353 METAR KCLM 191353Z AUTO 21005KT 10SM FEW060 SCT110 00/M01 A2976 RMK AO2 SLP079 T00001006=
201912191253 METAR KCLM 191253Z AUTO 19003KT 10SM CLR 01/01 A2976 RMK AO2 SLP081 T00060006=
201912191153 METAR KCLM 191153Z AUTO 00000KT 10SM CLR 01/01 A2977 RMK AO2 SLP081 60002 70002 T00060006 10056 20000 51028=
201912191053 METAR KCLM 191053Z AUTO 00000KT 9SM CLR 01/01 A2974 RMK AO2 SLP074 T00060006=
201912190953 METAR KCLM 190953Z AUTO 00000KT 10SM CLR 02/02 A2971 RMK AO2 SLP063 T00170017=
201912190853 METAR KCLM 190853Z AUTO 00000KT 10SM CLR 04/03 A2968 RMK AO2 SLP053 60002 T00390028 53011=
201912190753 METAR KCLM 190753Z AUTO 28007KT 10SM BKN060 BKN080 05/04 A2967 RMK AO2 RAB19E28 SLP049 P0000 T00500044 400720028=
201912190653 METAR KCLM 190653Z AUTO 00000KT 9SM BKN044 OVC080 05/04 A2965 RMK AO2 RAB20E43 SLP043 P0002 T00500044=
201912190553 METAR KCLM 190553Z AUTO 19004KT 10SM FEW014 FEW120 05/04 A2965 RMK AO2 RAE01B19E31 SLP042 P0000 60000 T00500044 10067 20044 53002=
201912190528 SPECI KCLM 190528Z AUTO 00000KT 10SM -RA SCT013 SCT037 BKN050 06/05 A2965 RMK AO2 RAE01B19 P0000 T00610050=
201912190506 SPECI KCLM 190506Z AUTO 28003KT 10SM SCT008 BKN012 OVC080 06/05 A2966 RMK AO2 RAE01 P0000 T00610050=
201912190453 METAR KCLM 190453Z AUTO 30004KT 10SM -RA BKN007 BKN065 OVC080 06/06 A2964 RMK AO2 RAE26B51 SLP039 P0000 T00610056=
201912190445 SPECI KCLM 190445Z AUTO 00000KT 10SM BKN005 BKN060 OVC080 06/06 A2964 RMK AO2 RAE26 CIG 004V008 P0000 T00610056=
201912190436 SPECI KCLM 190436Z AUTO 27006KT 10SM SCT007 BKN055 OVC080 06/05 A2965 RMK AO2 RAE26 P0000 T00610050=
201912190353 METAR KCLM 190353Z AUTO 32005KT 10SM -RA BKN060 OVC075 06/04 A2963 RMK AO2 RAB46 SLP037 P0000 T00560039=
201912190253 METAR KCLM 190253Z AUTO 00000KT 10SM OVC060 05/04 A2964 RMK AO2 SLP040 60000 T00500039 58025=
201912190153 METAR KCLM 190153Z AUTO 22006KT 10SM FEW060 05/04 A2967 RMK AO2 RAB19E28 SLP049 P0000 T00500044=
201912190053 METAR KCLM 190053Z AUTO 00000KT 10SM FEW050 FEW100 BKN120 06/04 A2970 RMK AO2 RAE08 SLP059 P0000 T00560044=
201912182353 METAR KCLM 182353Z AUTO 19004KT 10SM -RA OVC060 07/05 A2972 RMK AO2 RAB45 SLP066 P0000 60000 T00670050 10072 20050 55003=
201912182253 METAR KCLM 182253Z AUTO 25003KT 10SM BKN065 OVC090 07/05 A2972 RMK AO2 SLP065 T00670050=
201912182153 METAR KCLM 182153Z AUTO 00000KT 10SM OVC065 07/05 A2971 RMK AO2 SLP062 T00720050=
201912182103 SPECI KCLM 182103Z AUTO 00000KT 10SM SCT010 OVC065 07/06 A2973 RMK AO2 T00670056=
201912182053 METAR KCLM 182053Z AUTO 29003KT 10SM BKN010 OVC065 07/06 A2973 RMK AO2 SLP069 T00720056 56013=
201912182050 SPECI KCLM 182050Z AUTO 29004KT 10SM BKN010 OVC065 07/06 A2973 RMK AO2 CIG 007V012=
201912182003 SPECI KCLM 182003Z AUTO 28005KT 10SM BKN007 07/06 A2973 RMK AO2 T00720061=
201912181953 METAR KCLM 181953Z AUTO 30003KT 10SM SCT007 07/06 A2974 RMK AO2 SLP071 T00720056=
201912181853 METAR KCLM 181853Z AUTO 23003KT 10SM CLR 06/06 A2977 RMK AO2 SLP082 T00610056=
201912181753 METAR KCLM 181753Z AUTO 26005KT 10SM FEW120 05/04 A2979 RMK AO2 SLP088 T00500044 10061 20033 55002=
201912181653 METAR KCLM 181653Z AUTO 00000KT 10SM FEW095 05/04 A2978 RMK AO2 SLP087 T00500044=
201912181553 METAR KCLM 181553Z AUTO 15004KT 8SM SCT070 OVC095 04/03 A2979 RMK AO2 SLP089 T00390033=
201912181453 METAR KCLM 181453Z AUTO 00000KT 10SM FEW065 FEW100 04/03 A2979 RMK AO2 SLP090 T00390033 58012=
201912181353 METAR KCLM 181353Z AUTO 00000KT 9SM SCT070 05/05 A2981 RMK AO2 SLP095 T00500050=
201912181253 METAR KCLM 181253Z AUTO 25003KT 10SM FEW003 04/03 A2982 RMK AO2 SLP098 T00390033=
201912181241 SPECI KCLM 181241Z AUTO 23005KT 10SM FEW003 SCT110 04/03 A2982 RMK AO2 T00390028=
201912181153 METAR KCLM 181153Z AUTO 26004KT 10SM SCT120 03/03 A2983 RMK AO2 SLP102 T00330033 10044 20022 56027=
201912181053 METAR KCLM 181053Z AUTO 13003KT 7SM FEW003 04/03 A2986 RMK AO2 SLP112 T00390033=
201912181028 SPECI KCLM 181028Z AUTO 00000KT 9SM FEW004 03/03 A2986 RMK AO2 T00330033=
201912180953 METAR KCLM 180953Z AUTO 24003KT 9SM CLR 03/03 A2988 RMK AO2 SLP119 T00330028=
201912180939 SPECI KCLM 180939Z AUTO 08003KT 9SM FEW004 SCT075 03/03 A2988 RMK AO2 T00330033=
201912180853 METAR KCLM 180853Z AUTO 00000KT 10SM OVC004 04/03 A2991 RMK AO2 SLP129 T00390033 58015=
201912180831 SPECI KCLM 180831Z AUTO 21004KT 10SM BKN004 03/03 A2991 RMK AO2 T00280028=
201912180809 SPECI KCLM 180809Z AUTO 00000KT 10SM SCT006 03/03 A2992 RMK AO2 T00280028=
201912180753 METAR KCLM 180753Z AUTO 20003KT 10SM OVC006 03/03 A2993 RMK AO2 SLP136 T00280028 400830006=
201912180739 SPECI KCLM 180739Z AUTO 00000KT 10SM BKN006 03/03 A2993 RMK AO2 T00330028=
201912180726 SPECI KCLM 180726Z AUTO 00000KT 10SM FEW006 03/03 A2994 RMK AO2 T00280028=
201912180653 METAR KCLM 180653Z AUTO 00000KT 10SM CLR 03/02 A2994 RMK AO2 SLP142 T00280022=
201912180553 METAR KCLM 180553Z AUTO 22003KT 9SM CLR 03/02 A2995 RMK AO2 SLP144 T00280022 10067 20022 58007=
201912180453 METAR KCLM 180453Z AUTO 15003KT 5SM BR CLR 02/02 A2996 RMK AO2 SLP148 T00220022=
201912180353 METAR KCLM 180353Z AUTO 00000KT 4SM BR CLR 03/03 A2997 RMK AO2 SLP150 T00330028=
201912180253 METAR KCLM 180253Z AUTO 00000KT 8SM CLR 04/03 A2997 RMK AO2 SLP152 T00390033 56009=
201912180205 SPECI KCLM 180205Z AUTO 20004KT 10SM SCT007 05/04 A2998 RMK AO2 T00500044=
201912180153 METAR KCLM 180153Z AUTO 26004KT 7SM BKN007 04/04 A2999 RMK AO2 SLP156 T00440039=
201912180141 SPECI KCLM 180141Z AUTO 00000KT 7SM SCT007 04/04 A2999 RMK AO2 T00440039=
201912180122 SPECI KCLM 180122Z AUTO 00000KT 10SM BKN007 05/04 A2998 RMK AO2 T00500044=
201912180113 SPECI KCLM 180113Z AUTO 00000KT 10SM SCT007 SCT110 05/04 A2999 RMK AO2 T00500044=
201912180053 METAR KCLM 180053Z AUTO 00000KT 10SM CLR 05/04 A2999 RMK AO2 SLP157 T00500044=
201912172353 METAR KCLM 172353Z AUTO 00000KT 10SM CLR 06/06 A3000 RMK AO2 SLP162 T00610056 10083 20061 56012=
201912172253 METAR KCLM 172253Z AUTO 00000KT 10SM CLR 07/06 A3002 RMK AO2 SLP166 T00720056=
201912172153 METAR KCLM 172153Z AUTO VRB03KT 10SM CLR 08/06 A3002 RMK AO2 SLP168 T00830056=
201912172053 METAR KCLM 172053Z AUTO 05003KT 10SM SCT008 OVC100 08/06 A3004 RMK AO2 SLP173 T00780056 58012=
201912172031 SPECI KCLM 172031Z AUTO 08004KT 10SM SCT006 OVC100 08/06 A3004 RMK AO2 T00780061=
201912171953 METAR KCLM 171953Z AUTO 00000KT 10SM OVC006 07/06 A3006 RMK AO2 SLP181 T00720056=
201912171904 SPECI KCLM 171904Z AUTO 29006KT 10SM BKN006 BKN120 07/06 A3008 RMK AO2 T00670056=
201912171853 METAR KCLM 171853Z AUTO 31004KT 10SM SCT006 SCT120 07/06 A3007 RMK AO2 SLP187 T00670056=
201912171753 METAR KCLM 171753Z AUTO 00000KT 8SM FEW006 OVC120 06/05 A3007 RMK AO2 SLP186 T00560050 10056 20022 56007=
201912171712 SPECI KCLM 171712Z AUTO 16004KT 10SM SCT008 SCT110 04/04 A3007 RMK AO2 T00440039=
201912171653 METAR KCLM 171653Z AUTO 00000KT 10SM OVC008 04/04 A3008 RMK AO2 SLP188 T00440039=
201912171553 METAR KCLM 171553Z AUTO 22005KT 10SM OVC007 04/03 A3008 RMK AO2 SLP190 T00390033=
201912171453 METAR KCLM 171453Z AUTO 25004KT 10SM OVC006 04/03 A3009 RMK AO2 SLP193 T00390033 56006=
201912171413 SPECI KCLM 171413Z AUTO 00000KT 10SM OVC008 03/03 A3010 RMK AO2 CIG 007V011 T00330028=
201912171353 METAR KCLM 171353Z AUTO 23004KT 10SM BKN010 03/03 A3010 RMK AO2 SLP196 T00330028=
201912171350 SPECI KCLM 171350Z AUTO 23005KT 10SM BKN010 03/03 A3010 RMK AO2=
201912171253 METAR KCLM 171253Z AUTO 22006KT 10SM OVC009 03/03 A3011 RMK AO2 SLP199 T00330028=
201912171221 SPECI KCLM 171221Z AUTO 23005KT 10SM BKN009 03/02 A3012 RMK AO2 CIG 007V011 T00280022=
201912171153 METAR KCLM 171153Z AUTO 22005KT 10SM SCT008 02/02 A3012 RMK AO2 SLP203 T00220017 10033 21011 56017=
201912171114 SPECI KCLM 171114Z AUTO 23006KT 10SM OVC009 03/02 A3013 RMK AO2 CIG 007V013 T00330022=
201912171053 METAR KCLM 171053Z AUTO 22004KT 10SM OVC010 03/03 A3014 RMK AO2 SLP208 T00330028=
201912170953 METAR KCLM 170953Z AUTO 22006KT 10SM OVC011 03/03 A3016 RMK AO2 SLP214 T00330028=
201912170911 SPECI KCLM 170911Z AUTO 24006KT 10SM BKN011 02/01 A3017 RMK AO2 T00170011=
201912170853 METAR KCLM 170853Z AUTO 22007KT 10SM FEW011 02/01 A3017 RMK AO2 SLP220 T00170011 56009=
201912170839 SPECI KCLM 170839Z AUTO 23007KT 10SM SCT008 SCT013 02/02 A3018 RMK AO2 T00220017=
201912170811 SPECI KCLM 170811Z AUTO 23006KT 10SM BKN007 01/01 A3018 RMK AO2 T00060006=
201912170753 METAR KCLM 170753Z AUTO 21007KT 10SM FEW007 01/01 A3018 RMK AO2 SLP223 T00110006 400721011=
201912170749 SPECI KCLM 170749Z AUTO 22006KT 10SM SCT007 01/01 A3018 RMK AO2=
201912170653 METAR KCLM 170653Z AUTO 00000KT 8SM CLR M01/M01 A3020 RMK AO2 SLP230 T10061011=
201912170553 METAR KCLM 170553Z AUTO 00000KT 10SM CLR 00/M01 A3022 RMK AO2 SLP237 T00001006 10056 20000 56005=
201912170453 METAR KCLM 170453Z AUTO 14003KT 10SM BKN100 02/01 A3023 RMK AO2 SLP238 T00220011=
201912170428 SPECI KCLM 170428Z AUTO VRB03KT 10SM FEW009 BKN100 02/01 A3023 RMK AO2 T00170011=
201912170353 METAR KCLM 170353Z AUTO 11003KT 10SM OVC100 01/00 A3023 RMK AO2 SLP238 T00060000=
201912170253 METAR KCLM 170253Z AUTO 21003KT 9SM CLR 01/01 A3024 RMK AO2 SLP242 T00110006 58007=
201912170153 METAR KCLM 170153Z AUTO 24006KT 10SM FEW095 03/02 A3025 RMK AO2 SLP248 T00280017=
201912170053 METAR KCLM 170053Z AUTO 21003KT 10SM SCT090 03/01 A3025 RMK AO2 SLP248 T00280011=
201912162353 METAR KCLM 162353Z AUTO 00000KT 10SM OVC100 06/02 A3026 RMK AO2 SLP250 T00560022 10072 20044 53001=
201912162253 METAR KCLM 162253Z AUTO 07003KT 10SM FEW060 OVC100 07/02 A3025 RMK AO2 SLP245 T00720017=
201912162153 METAR KCLM 162153Z AUTO 07003KT 10SM OVC100 07/03 A3024 RMK AO2 SLP244 T00720033=
201912162053 METAR KCLM 162053Z AUTO 11005KT 10SM SCT060 OVC090 07/04 A3026 RMK AO2 SLP249 T00670039 58004=
201912161953 METAR KCLM 161953Z AUTO 35004KT 10SM OVC055 06/03 A3027 RMK AO2 SLP252 T00610033=
201912161853 METAR KCLM 161853Z AUTO 26003KT 10SM OVC060 06/03 A3028 RMK AO2 SLP255 T00610028=
201912161753 METAR KCLM 161753Z AUTO 00000KT 10SM OVC060 04/02 A3027 RMK AO2 SLP254 T00440017 10044 20006 53007=
201912161653 METAR KCLM 161653Z AUTO 22004KT 10SM BKN065 OVC090 03/01 A3025 RMK AO2 SLP246 T00280011=
201912161553 METAR KCLM 161553Z AUTO 21004KT 10SM BKN070 OVC090 02/00 A3024 RMK AO2 SLP243 T00220000=
201912161453 METAR KCLM 161453Z AUTO 22006KT 10SM OVC060 02/00 A3025 RMK AO2 SLP246 T00220000 55008=
201912161353 METAR KCLM 161353Z AUTO 25004KT 10SM OVC065 02/00 A3025 RMK AO2 SLP246 T00170000=
201912161253 METAR KCLM 161253Z AUTO 24003KT 10SM OVC070 01/00 A3026 RMK AO2 SLP248 T00110000=
201912161153 METAR KCLM 161153Z AUTO 00000KT 10SM OVC085 01/00 A3028 RMK AO2 SLP255 T00060000 10006 21017 58003=
201912161053 METAR KCLM 161053Z AUTO 00000KT 10SM OVC080 01/00 A3028 RMK AO2 SLP257 T00060000=
201912160953 METAR KCLM 160953Z AUTO 00000KT 10SM BKN100 OVC120 M01/M01 A3028 RMK AO2 SLP256 T10061011=
201912160853 METAR KCLM 160853Z AUTO 00000KT 10SM SCT120 M01/M01 A3028 RMK AO2 SLP258 T10061011 50008=
201912160753 METAR KCLM 160753Z AUTO 22003KT 10SM CLR M01/M02 A3028 RMK AO2 SLP258 T10061017 400781017=
201912160653 METAR KCLM 160653Z AUTO 22005KT 10SM CLR M01/M01 A3027 RMK AO2 SLP255 T10061011=
201912160553 METAR KCLM 160553Z AUTO 23004KT 10SM CLR 01/M02 A3026 RMK AO2 SLP250 T00061017 10039 21011 51005=
201912160453 METAR KCLM 160453Z AUTO 22005KT 10SM CLR 00/M01 A3026 RMK AO2 SLP250 T00001011=
201912160353 METAR KCLM 160353Z AUTO 00000KT 10SM CLR 01/M01 A3025 RMK AO2 SLP248 T00111011=
201912160253 METAR KCLM 160253Z AUTO 23007KT 10SM CLR 01/M01 A3025 RMK AO2 SLP245 T00111011 51005=
201912160153 METAR KCLM 160153Z AUTO 22006KT 10SM CLR 01/M01 A3024 RMK AO2 SLP244 T00061011=
201912160053 METAR KCLM 160053Z AUTO 21005KT 10SM CLR 02/M01 A3024 RMK AO2 SLP243 T00171006=
201912152353 METAR KCLM 152353Z AUTO 23004KT 10SM CLR 04/01 A3023 RMK AO2 SLP240 T00390006 10078 20028 53010=
201912152253 METAR KCLM 152253Z AUTO 07003KT 10SM CLR 07/01 A3021 RMK AO2 SLP233 T00670011=
201912152153 METAR KCLM 152153Z AUTO VRB03KT 10SM CLR 07/01 A3021 RMK AO2 SLP231 T00720011=
201912152053 METAR KCLM 152053Z AUTO 27003KT 10SM CLR 07/M01 A3020 RMK AO2 SLP228 T00671006 51008=
201912151953 METAR KCLM 151953Z AUTO 24006KT 10SM CLR 06/M01 A3020 RMK AO2 SLP227 T00561006=
201912151853 METAR KCLM 151853Z AUTO 24009KT 10SM SCT039 04/M01 A3019 RMK AO2 SLP225 T00441011=
201912151753 METAR KCLM 151753Z AUTO 23009KT 10SM SCT041 03/M01 A3018 RMK AO2 SLP221 60000 T00281011 10028 20017 53021=
201912151653 METAR KCLM 151653Z AUTO 23008KT 10SM CLR 02/M02 A3015 RMK AO2 SLP213 T00221017=
201912151553 METAR KCLM 151553Z AUTO 24010KT 10SM FEW032 02/M02 A3013 RMK AO2 RAB09E20 SLP204 P0000 T00221017=
201912151453 METAR KCLM 151453Z AUTO 24009KT 10SM FEW031 OVC040 03/M01 A3011 RMK AO2 SLP200 T00281011 53008=
201912151353 METAR KCLM 151353Z AUTO 24008KT 10SM FEW029 02/M01 A3010 RMK AO2 SLP195 T00221011=
201912151350 SPECI KCLM 151350Z AUTO 26008KT 10SM FEW029 02/M01 A3010 RMK AO2=
201912151333 SPECI KCLM 151333Z AUTO 25006KT 10SM BKN028 02/M01 A3009 RMK AO2 T00221011=
201912151253 METAR KCLM 151253Z AUTO 23011KT 10SM BKN036 BKN044 03/M01 A3009 RMK AO2 SLP192 T00281011=
201912151153 METAR KCLM 151153Z AUTO 25010KT 10SM FEW039 02/M01 A3008 RMK AO2 SLP190 60001 70001 T00221006 10039 20022 51010=
201912151053 METAR KCLM 151053Z AUTO 23008KT 10SM SCT035 BKN046 02/00 A3008 RMK AO2 SLP187 T00220000=
201912150953 METAR KCLM 150953Z AUTO 24008KT 10SM FEW028 03/00 A3007 RMK AO2 SLP183 T00280000=
201912150944 SPECI KCLM 150944Z AUTO 24008KT 10SM SCT028 03/01 A3007 RMK AO2 T00280006=
201912150919 SPECI KCLM 150919Z AUTO 24008KT 10SM BKN028 03/01 A3006 RMK AO2 T00280006=
201912150853 METAR KCLM 150853Z AUTO 24008KT 10SM SCT040 02/01 A3005 RMK AO2 SLP179 60001 T00220006 51008=
201912150753 METAR KCLM 150753Z AUTO 24007KT 10SM FEW017 03/01 A3005 RMK AO2 RAE06 SLP176 P0000 T00280006 400721006=
201912150746 SPECI KCLM 150746Z AUTO 24006KT 10SM SCT017 03/01 A3005 RMK AO2 RAE06 P0000 T00280006=
201912150720 SPECI KCLM 150720Z AUTO 25005KT 10SM BKN015 OVC019 04/02 A3005 RMK AO2 RAE06 P0000 T00390017=
201912150653 METAR KCLM 150653Z AUTO 00000KT 4SM -RA BR BKN011 BKN016 OVC028 03/02 A3004 RMK AO2 RAB46 SLP175 P0001 T00330022=
201912150642 SPECI KCLM 150642Z AUTO 24006KT 10SM BKN013 OVC038 04/02 A3004 RMK AO2 T00390017=
201912150553 METAR KCLM 150553Z AUTO 21005KT 10SM FEW017 FEW025 OVC038 03/02 A3003 RMK AO2 SLP171 T00280017 10033 20006 52006=
201912150535 SPECI KCLM 150535Z AUTO 23005KT 10SM SCT012 BKN018 OVC038 03/02 A3003 RMK AO2 T00280017=
201912150514 SPECI KCLM 150514Z AUTO 22005KT 10SM BKN013 OVC038 03/02 A3002 RMK AO2 T00280017=
201912150453 METAR KCLM 150453Z AUTO 22005KT 10SM FEW013 OVC038 03/02 A3002 RMK AO2 SLP169 T00330017=
201912150353 METAR KCLM 150353Z AUTO 23005KT 10SM BKN039 OVC050 03/02 A3002 RMK AO2 SLP168 T00280017=
201912150253 METAR KCLM 150253Z AUTO 22006KT 10SM OVC039 03/02 A3001 RMK AO2 SLP165 T00280022 51002=
201912150153 METAR KCLM 150153Z AUTO 00000KT 6SM BR BKN040 OVC090 01/01 A3001 RMK AO2 SLP165 T00110011=
201912150053 METAR KCLM 150053Z AUTO 23003KT 8SM FEW013 OVC075 01/01 A3001 RMK AO2 SLP165 T00110011=
201912150027 SPECI KCLM 150027Z AUTO 00000KT 8SM FEW009 BKN080 02/02 A3001 RMK AO2 T00170017=
201912150014 SPECI KCLM 150014Z AUTO 00000KT 2 1/2SM BR FEW009 SCT080 02/02 A3000 RMK AO2 VIS 1V5 T00220017=
201912142353 METAR KCLM 142353Z AUTO 00000KT 8SM CLR 02/02 A3000 RMK AO2 SLP163 T00170017 10072 20017 53001=
201912142253 METAR KCLM 142253Z AUTO 00000KT 10SM CLR 04/03 A3000 RMK AO2 SLP162 T00390033=
201912142153 METAR KCLM 142153Z AUTO 11003KT 10SM CLR 07/04 A3000 RMK AO2 SLP161 T00670039=
201912142053 METAR KCLM 142053Z AUTO 09003KT 10SM FEW065 07/03 A3000 RMK AO2 SLP161 T00670033 58005=
201912142035 SPECI KCLM 142035Z AUTO 08003KT 10SM FEW016 BKN065 06/03 A3000 RMK AO2 T00610033=
201912142024 SPECI KCLM 142024Z AUTO 06003KT 10SM BKN016 OVC065 06/03 A3000 RMK AO2 T00610033=
201912142017 SPECI KCLM 142017Z AUTO 00000KT 10SM SCT016 BKN070 07/03 A3001 RMK AO2 T00670033=
201912142010 SPECI KCLM 142010Z AUTO 00000KT 10SM BKN016 BKN070 07/03 A3001 RMK AO2 T00670033=
201912141953 METAR KCLM 141953Z AUTO 00000KT 10SM FEW016 07/03 A3001 RMK AO2 SLP164 T00670033=
201912141853 METAR KCLM 141853Z AUTO 00000KT 10SM CLR 06/03 A3001 RMK AO2 SLP164 T00610033=
201912141753 METAR KCLM 141753Z AUTO 22005KT 10SM BKN049 BKN075 04/02 A3002 RMK AO2 SLP167 T00390022 10039 21006 53005=
201912141653 METAR KCLM 141653Z AUTO 22006KT 10SM CLR 01/01 A3001 RMK AO2 SLP165 T00110006=
201912141553 METAR KCLM 141553Z AUTO 22005KT 10SM CLR 00/00 A2999 RMK AO2 SLP160 T00000000=
201912141453 METAR KCLM 141453Z AUTO 22003KT 10SM BKN055 OVC070 02/01 A3000 RMK AO2 SLP162 T00220011 53003=
201912141353 METAR KCLM 141353Z AUTO 00000KT 10SM BKN060 BKN120 01/01 A2999 RMK AO2 SLP160 T00110006=
201912141253 METAR KCLM 141253Z AUTO 22007KT 10SM FEW040 FEW048 03/02 A2999 RMK AO2 SLP157 T00280017=
201912141153 METAR KCLM 141153Z AUTO 23007KT 10SM OVC039 03/02 A2999 RMK AO2 SLP159 70005 T00280017 10028 20000 58002=
201912141053 METAR KCLM 141053Z AUTO 22005KT 10SM CLR 01/01 A3000 RMK AO2 SLP160 T00110006=
201912140953 METAR KCLM 140953Z AUTO 22006KT 10SM CLR 02/01 A3000 RMK AO2 SLP161 T00220011=
201912140853 METAR KCLM 140853Z AUTO 22006KT 10SM CLR 01/00 A3000 RMK AO2 SLP160 T00060000 58005=
201912140753 METAR KCLM 140753Z AUTO 21003KT 6SM BR CLR 01/00 A3001 RMK AO2 SLP163 T00060000 400940000=
201912140653 METAR KCLM 140653Z AUTO 22006KT 10SM CLR 02/01 A3001 RMK AO2 SLP166 T00170011=
201912140553 METAR KCLM 140553Z AUTO 24005KT 10SM CLR 02/02 A3001 RMK AO2 SLP165 T00220017 10056 20000 55001=
201912140453 METAR KCLM 140453Z AUTO 22004KT 10SM CLR 01/01 A3001 RMK AO2 SLP164 T00060006=
201912140353 METAR KCLM 140353Z AUTO 24006KT 10SM CLR 02/02 A3001 RMK AO2 SLP165 T00170017=
201912140253 METAR KCLM 140253Z AUTO 24005KT 10SM BKN050 04/03 A3002 RMK AO2 SLP166 T00390028 58007=
201912140206 SPECI KCLM 140206Z AUTO 00000KT 3SM BR SCT055 02/02 A3002 RMK AO2 T00220017=
201912140153 METAR KCLM 140153Z AUTO 00000KT 2SM BR CLR 03/02 A3003 RMK AO2 SLP170 T00280022=
201912140053 METAR KCLM 140053Z AUTO 22004KT 8SM FEW046 04/04 A3003 RMK AO2 SLP172 T00390039=
201912132353 METAR KCLM 132353Z AUTO 00000KT 10SM SCT045 06/04 A3004 RMK AO2 RAB2255E14 SLP173 P0000 60005 T00560044 10094 20056 56008=
201912132253 METAR KCLM 132253Z AUTO 16004KT 10SM SCT044 BKN050 OVC070 06/04 A3004 RMK AO2 RAE45 SLP175 P0004 T00610039=
201912132218 SPECI KCLM 132218Z AUTO 15008KT 5SM -RA BR FEW018 SCT027 OVC038 06/04 A3004 RMK AO2 P0004 T00610044=
201912132211 SPECI KCLM 132211Z AUTO 16006KT 2 1/2SM -RA BR FEW013 BKN027 OVC033 07/06 A3005 RMK AO2 P0003 T00670056=
201912132200 SPECI KCLM 132200Z AUTO 00000KT 2 1/2SM -RA BR BKN013 OVC020 07/06 A3005 RMK AO2 VIS 1 1/4V4 P0002 T00670056=
201912132153 METAR KCLM 132153Z AUTO 30003KT 4SM -RA BR BKN013 OVC019 07/05 A3005 RMK AO2 RAB35 SLP178 P0001 T00670050=
201912132139 SPECI KCLM 132139Z AUTO VRB03KT 10SM -RA BKN014 OVC020 07/05 A3005 RMK AO2 RAB35 P0000 T00720050=
201912132123 SPECI KCLM 132123Z AUTO 36004KT 10SM BKN018 BKN075 OVC095 07/05 A3005 RMK AO2 T00720050=
201912132108 SPECI KCLM 132108Z AUTO 32005KT 10SM SCT019 BKN075 OVC095 08/05 A3006 RMK AO2 T00780050=
201912132053 METAR KCLM 132053Z AUTO VRB03KT 10SM BKN020 BKN045 BKN100 07/04 A3006 RMK AO2 SLP181 T00720044 58007=
201912131953 METAR KCLM 131953Z AUTO 03004KT 10SM BKN055 09/06 A3007 RMK AO2 SLP183 T00890056=
201912131853 METAR KCLM 131853Z AUTO 00000KT 10SM CLR 08/04 A3008 RMK AO2 SLP187 T00830044=
201912131753 METAR KCLM 131753Z AUTO 22004KT 10SM OVC060 06/04 A3008 RMK AO2 SLP189 60000 T00560039 10061 20039 51005=
201912131653 METAR KCLM 131653Z AUTO 23003KT 10SM FEW041 04/03 A3008 RMK AO2 RAB33E43 SLP187 P0000 T00390028=
201912131553 METAR KCLM 131553Z AUTO 26005KT 10SM FEW049 OVC060 05/03 A3008 RMK AO2 SLP186 T00500033=
201912131453 METAR KCLM 131453Z AUTO VRB03KT 10SM OVC055 06/03 A3007 RMK AO2 SLP184 60000 T00560033 58001=
201912131353 METAR KCLM 131353Z AUTO 23005KT 10SM SCT045 OVC055 05/04 A3007 RMK AO2 RAB23E49 SLP184 P0000 T00500039=
201912131253 METAR KCLM 131253Z AUTO 23004KT 10SM BKN055 04/03 A3007 RMK AO2 SLP184 T00440033=
201912131153 METAR KCLM 131153Z AUTO 21005KT 10SM BKN050 OVC065 04/03 A3007 RMK AO2 RAE35 SLP185 P0000 60001 70063 T00390033 10061 20022 50008=
201912131053 METAR KCLM 131053Z AUTO 00000KT 6SM -RA BR BKN042 BKN060 OVC080 06/04 A3008 RMK AO2 RAB43 SLP187 P0001 T00560044=
201912130953 METAR KCLM 130953Z AUTO 22006KT 10SM FEW050 04/03 A3006 RMK AO2 SLP181 T00390028=
201912130853 METAR KCLM 130853Z AUTO 22003KT 10SM CLR 03/02 A3005 RMK AO2 SLP177 60000 T00330022 51016=
201912130753 METAR KCLM 130753Z AUTO 24005KT 10SM FEW085 SCT110 04/03 A3004 RMK AO2 RAE0655 SLP173 P0000 T00440033 400890044=
201912130653 METAR KCLM 130653Z AUTO 24006KT 10SM -RA SCT046 OVC060 06/04 A3002 RMK AO2 RAB41 SLP166 P0000 T00560044=
201912130553 METAR KCLM 130553Z AUTO 24005KT 10SM FEW048 SCT060 SCT075 05/04 A3000 RMK AO2 SLP161 60003 T00500039 10067 20050 51018=
201912130453 METAR KCLM 130453Z AUTO 00000KT 10SM BKN060 OVC080 05/04 A2998 RMK AO2 RAB09E18 SLP155 P0000 T00500044=
201912130353 METAR KCLM 130353Z AUTO 23006KT 7SM SCT055 BKN075 05/04 A2997 RMK AO2 RAE24 SLP149 P0003 T00500044=
201912130253 METAR KCLM 130253Z AUTO 21003KT 10SM -RA OVC045 06/04 A2995 RMK AO2 RAB44 SLP143 P0000 60000 T00560044 53026=
201912130153 METAR KCLM 130153Z AUTO 26011KT 10SM SCT070 SCT090 06/03 A2991 RMK AO2 SLP130 T00610033=
201912130053 METAR KCLM 130053Z AUTO 24010KT 10SM CLR 06/03 A2988 RMK AO2 RAE00 SLP120 P0000 T00610033=
201912122353 METAR KCLM 122353Z AUTO 25008KT 10SM -RA BKN045 BKN050 OVC080 06/04 A2987 RMK AO2 SLP116 P0004 60029 T00610039 10089 20061 51018=
201912122317 SPECI KCLM 122317Z AUTO 22008KT 5SM -RA BR BKN036 OVC055 06/04 A2987 RMK AO2 P0003 T00610044=
201912122307 SPECI KCLM 122307Z AUTO 18004KT 2 1/2SM -RA BR OVC034 06/05 A2986 RMK AO2 P0003 T00610050=
201912122253 METAR KCLM 122253Z AUTO 19005KT 4SM RA BR OVC034 06/05 A2987 RMK AO2 SLP115 P0013 T00610050=
201912122245 SPECI KCLM 122245Z AUTO 19005KT 3SM -RA BR OVC032 06/05 A2986 RMK AO2 P0012 T00610050=
201912122221 SPECI KCLM 122221Z AUTO 23005KT 1 3/4SM RA BR OVC036 06/06 A2986 RMK AO2 P0004 T00610056=
201912122153 METAR KCLM 122153Z AUTO 24004KT 3SM -RA BR FEW019 SCT026 OVC036 06/06 A2984 RMK AO2 RAB2055 SLP108 P0011 T00610056=
201912122139 SPECI KCLM 122139Z AUTO 27006KT 2SM RA BR BKN017 BKN026 OVC032 06/06 A2984 RMK AO2 RAB2055 P0008 T00610056=
201912122125 SPECI KCLM 122125Z AUTO 28010KT 4SM -RA BR FEW007 OVC015 06/06 A2984 RMK AO2 RAB2055 P0004 T00610056=
201912122113 SPECI KCLM 122113Z AUTO 31009G19KT 2SM RA BR FEW007 BKN015 OVC044 07/06 A2983 RMK AO2 RAB2055 P0003 T00670056=
201912122106 SPECI KCLM 122106Z AUTO 31013G19KT 3SM RA BR FEW007 BKN029 OVC047 07/06 A2983 RMK AO2 RAB2055 P0001 T00720061=
201912122053 METAR KCLM 122053Z AUTO 26009KT 10SM FEW042 BKN050 OVC060 08/06 A2982 RMK AO2 RAB09E45 SLP098 P0001 60001 T00780061 55002=
201912121953 METAR KCLM 121953Z AUTO 01003KT 10SM BKN055 BKN070 OVC095 08/06 A2980 RMK AO2 RAB12E22 SLP093 P0000 T00830061=
201912121853 METAR KCLM 121853Z AUTO VRB03KT 10SM OVC065 08/07 A2982 RMK AO2 SLP099 T00780067=
201912121753 METAR KCLM 121753Z AUTO 20004KT 10SM SCT039 SCT050 07/06 A2982 RMK AO2 RAE41 SLP100 P0003 60030 T00670061 10089 20056 58002=
201912121714 SPECI KCLM 121714Z AUTO 21005KT 6SM -RA BR BKN045 OVC060 07/06 A2983 RMK AO2 P0003 T00670061=
201912121653 METAR KCLM 121653Z AUTO 20004KT 2 1/2SM -RA BR OVC039 07/06 A2983 RMK AO2 SLP103 P0016 T00670061=
201912121553 METAR KCLM 121553Z AUTO 00000KT 6SM -RA BR OVC045 07/06 A2983 RMK AO2 SLP104 P0007 T00670056=
201912121453 METAR KCLM 121453Z AUTO 22006KT 9SM -RA BKN049 OVC070 07/05 A2983 RMK AO2 SLP102 P0002 60004 T00670050 58002=
201912121353 METAR KCLM 121353Z AUTO 23005KT 5SM -RA OVC044 07/04 A2983 RMK AO2 RAB1256 SLP104 P0002 T00720044=
201912121253 METAR KCLM 121253Z AUTO 20008KT 10SM FEW050 SCT070 BKN120 08/04 A2985 RMK AO2 SLP110 T00830039=
201912121153 METAR KCLM 121153Z AUTO 22005KT 10SM FEW055 08/04 A2983 RMK AO2 SLP104 60006 7//// T00780044 10078 20050 51028=
201912121053 METAR KCLM 121053Z AUTO 17004KT 10SM BKN060 OVC075 06/05 A2981 RMK AO2 SLP097 T00560050=
201912120953 METAR KCLM 120953Z AUTO 20004KT 10SM BKN060 BKN090 06/05 A2979 RMK AO2 RAB09E35 SLP089 P0001 T00610050=
201912120853 METAR KCLM 120853Z AUTO 23006KT 10SM BKN055 OVC070 07/06 A2975 RMK AO2 RAE21 SLP076 P0000 60005 T00670056 53025=
201912120753 METAR KCLM 120753Z AUTO 00000KT 9SM -RA FEW048 BKN060 OVC090 06/06 A2972 RMK AO2 SLP067 P0004 T00610056 400720006=
201912120653 METAR KCLM 120653Z AUTO 21004KT 6SM -RA BR OVC055 06/06 A2969 RMK AO2 SLP056 P0001 T00560056=
201912120553 METAR KCLM 120553Z AUTO 17003KT 6SM -RA BR OVC060 05/05 A2968 RMK AO2 RAB34 SLP050 P0000 60003 T00500050 10067 20050 56017=
201912120512 SPECI KCLM 120512Z AUTO 15003KT 9SM SCT004 06/05 A2967 RMK AO2 T00560050=
201912120453 METAR KCLM 120453Z AUTO 00000KT 7SM BKN005 BKN120 05/05 A2968 RMK AO2 SLP050 T00500050=
201912120419 SPECI KCLM 120419Z AUTO 18005KT 6SM BR BKN006 OVC100 06/05 A2969 RMK AO2 T00560050=
201912120403 SPECI KCLM 120403Z AUTO 00000KT 8SM FEW005 BKN100 OVC110 06/06 A2969 RMK AO2 T00560056=
201912120353 METAR KCLM 120353Z AUTO 00000KT 8SM SCT060 BKN100 OVC110 06/06 A2969 RMK AO2 RAB23E52 SLP057 P0001 T00610056=
201912120253 METAR KCLM 120253Z AUTO 00000KT 8SM SCT005 BKN065 OVC095 06/06 A2973 RMK AO2 RAB06E22 SLP068 P0000 60002 T00560056 56027=
201912120251 SPECI KCLM 120251Z AUTO 00000KT 8SM SCT005 BKN070 OVC100 06/06 A2973 RMK AO2 RAB06E22 P0000=
201912120153 METAR KCLM 120153Z AUTO 00000KT 5SM BR BKN055 OVC075 06/06 A2976 RMK AO2 RAE48 SLP080 P0002 T00560056=
201912120053 METAR KCLM 120053Z AUTO 00000KT 9SM -RA OVC060 06/06 A2981 RMK AO2 RAE17B51 SLP095 P0000 T00610061=
201912112353 METAR KCLM 112353Z AUTO 00000KT 8SM -RA FEW008 OVC055 07/06 A2982 RMK AO2 RAB45 SLP100 P0000 6//// T00670061 10072 20061 56019=
201912112346 SPECI KCLM 112346Z AUTO 23004KT 10SM -RA SCT008 OVC060 07/06 A2983 RMK AO2 RAB45 P0000 T00670061=
201912112253 METAR KCLM 112253Z AUTO 25005KT 10SM BKN009 OVC060 07/06 A2983 RMK AO2 RAB12E23 SLP104 P0000 T00720056=
201912112244 SPECI KCLM 112244Z AUTO 24003KT 10SM BKN009 OVC065 07/06 A2983 RMK AO2 RAB12E23 P0000 T00720056=
201912112153 METAR KCLM 112153Z AUTO 25007KT 10SM OVC060 07/06 A2986 RMK AO2 RAB26E44 SLP113 T00720056=
201912112100 SPECI KCLM 112100Z AUTO 23004KT 10SM SCT011 OVC065 07/05 A2988 RMK AO2 T00670050 PNO $=
201912112053 METAR KCLM 112053Z AUTO 20004KT 10SM BKN011 OVC065 07/05 A2988 RMK AO2 SLP120 6//// T00670050 58029 PNO $=
201912112021 SPECI KCLM 112021Z AUTO 21004KT 10SM BKN011 BKN065 07/05 A2989 RMK AO2 T00670050 PNO $=
201912111953 METAR KCLM 111953Z AUTO 00000KT 10SM OVC008 06/05 A2991 RMK AO2 SLP131 T00610050 PWINO PNO $=
201912111853 METAR KCLM 111853Z AUTO 00000KT 10SM OVC007 07/05 A2994 RMK AO2 SLP140 T00670050 PWINO PNO $=
201912111844 SPECI KCLM 111844Z AUTO 00000KT 4SM BR OVC007 06/05 A2995 RMK AO2 T00610050 PWINO PNO $=
201912111834 SPECI KCLM 111834Z AUTO 00000KT 3/4SM BR OVC007 06/05 A2995 RMK AO2 T00610050 PNO $=
201912111753 METAR KCLM 111753Z AUTO 00000KT 10SM OVC008 06/05 A2997 RMK AO2 SLP149 6//// T00610050 10061 20039 56019 PNO $=
201912111653 METAR KCLM 111653Z AUTO 12004KT 10SM OVC008 06/05 A2997 RMK AO2 SLP149 T00610050=
201912111553 METAR KCLM 111553Z AUTO 00000KT 10SM OVC008 05/04 A3001 RMK AO2 SLP163 T00500044=
201912111453 METAR KCLM 111453Z AUTO 21003KT 10SM OVC008 05/05 A3002 RMK AO2 SLP168 T00500050 56007=
201912111353 METAR KCLM 111353Z AUTO 00000KT 10SM OVC007 04/04 A3002 RMK AO2 SLP169 T00440044=
201912111253 METAR KCLM 111253Z AUTO 00000KT 10SM OVC006 04/04 A3003 RMK AO2 SLP172 T00440044=
201912111216 SPECI KCLM 111216Z AUTO 21005KT 10SM OVC005 04/04 A3005 RMK AO2 T00390039=
201912111153 METAR KCLM 111153Z AUTO 21005KT 10SM OVC004 04/04 A3004 RMK AO2 SLP175 T00390039 10050 20006 55000=
201912111053 METAR KCLM 111053Z AUTO 00000KT 10SM OVC006 02/01 A3004 RMK AO2 SLP175 T00170011=
201912111031 SPECI KCLM 111031Z AUTO 20003KT 10SM BKN009 01/01 A3004 RMK AO2 T00060006=
201912111020 SPECI KCLM 111020Z AUTO 00000KT 10SM SCT009 01/01 A3004 RMK AO2 T00110006=
201912110953 METAR KCLM 110953Z AUTO 00000KT 8SM CLR 01/01 A3004 RMK AO2 SLP174 T00110011=
201912110904 SPECI KCLM 110904Z AUTO 00000KT 4SM BR CLR 02/02 A3004 RMK AO2 T00170017=
201912110900 SPECI KCLM 110900Z AUTO 15003KT 1 3/4SM BR CLR 03/02 A3004 RMK AO2 T00280022=
201912110853 METAR KCLM 110853Z AUTO 00000KT 2 1/2SM BR CLR 02/02 A3004 RMK AO2 SLP175 T00220022 58016=
201912110753 METAR KCLM 110753Z AUTO 21003KT 10SM OVC047 04/04 A3007 RMK AO2 SLP186 T00440039 400670044=
201912110723 SPECI KCLM 110723Z AUTO 19003KT 10SM SCT008 OVC045 04/04 A3008 RMK AO2 T00440039=
201912110653 METAR KCLM 110653Z AUTO 00000KT 7SM BKN007 OVC043 05/04 A3008 RMK AO2 SLP189 T00500044=
201912110553 METAR KCLM 110553Z AUTO 14004KT 7SM OVC006 05/04 A3009 RMK AO2 SLP191 60000 T00500039 10061 20050 53007=
201912110453 METAR KCLM 110453Z AUTO 13004KT 9SM OVC007 06/04 A3008 RMK AO2 SLP188 T00560044=
201912110353 METAR KCLM 110353Z AUTO 00000KT 9SM OVC006 06/04 A3008 RMK AO2 SLP187 T00560044=
201912110253 METAR KCLM 110253Z AUTO 00000KT 8SM OVC007 06/04 A3007 RMK AO2 SLP184 60000 T00560044 58008=
201912110153 METAR KCLM 110153Z AUTO 00000KT 10SM OVC008 06/04 A3008 RMK AO2 SLP189 T00560044=
201912110116 SPECI KCLM 110116Z AUTO 00000KT 10SM OVC009 06/04 A3008 RMK AO2 T00610044=
201912110053 METAR KCLM 110053Z AUTO 00000KT 10SM OVC010 06/05 A3009 RMK AO2 RAB06E22 SLP190 P0000 T00610050=
201912110031 SPECI KCLM 110031Z AUTO 00000KT 10SM OVC010 06/04 A3009 RMK AO2 RAB06E22 P0000 T00610044=
201912102353 METAR KCLM 102353Z AUTO 00000KT 10SM OVC009 06/04 A3009 RMK AO2 SLP192 60000 T00610044 10067 20050 55005=
201912102253 METAR KCLM 102253Z AUTO 06003KT 10SM OVC011 07/04 A3009 RMK AO2 SLP191 T00670044=
201912102153 METAR KCLM 102153Z AUTO 08003KT 10SM OVC013 07/04 A3009 RMK AO2 SLP193 T00670044=
201912102053 METAR KCLM 102053Z AUTO 00000KT 10SM OVC012 07/04 A3011 RMK AO2 SLP197 60000 T00670044 55008=
201912102019 SPECI KCLM 102019Z AUTO VRB03KT 10SM OVC012 07/04 A3010 RMK AO2 T00670044=
201912102001 SPECI KCLM 102001Z AUTO 10003KT 10SM BKN017 OVC080 07/04 A3010 RMK AO2 T00670044=
201912101953 METAR KCLM 101953Z AUTO 11003KT 10SM SCT017 OVC085 07/04 A3010 RMK AO2 SLP196 T00670044=
201912101938 SPECI KCLM 101938Z AUTO 12004KT 10SM SCT017 OVC085 07/04 A3010 RMK AO2 T00670044=
201912101916 SPECI KCLM 101916Z AUTO 14003KT 10SM OVC017 07/05 A3011 RMK AO2 T00670050=
201912101853 METAR KCLM 101853Z AUTO 12003KT 10SM OVC014 06/05 A3011 RMK AO2 RAE46 SLP198 P0000 T00610050=
201912101838 SPECI KCLM 101838Z AUTO 00000KT 9SM -RA OVC014 06/05 A3012 RMK AO2 P0000 T00610050=
201912101822 SPECI KCLM 101822Z AUTO 00000KT 10SM -RA OVC015 06/04 A3013 RMK AO2 P0000 T00560044=
201912101753 METAR KCLM 101753Z AUTO 23005KT 10SM -RA BKN011 OVC016 05/03 A3013 RMK AO2 RAB33 SLP205 P0000 60000 T00500033 10056 20050 53003=
201912101653 METAR KCLM 101653Z AUTO 00000KT 10SM OVC010 05/04 A3012 RMK AO2 SLP200 T00500039=
201912101553 METAR KCLM 101553Z AUTO 10004KT 8SM OVC012 06/04 A3011 RMK AO2 SLP197 T00560044=
201912101453 METAR KCLM 101453Z AUTO 00000KT 10SM OVC010 05/05 A3012 RMK AO2 SLP202 T00500050 58007=
201912101404 SPECI KCLM 101404Z AUTO 00000KT 10SM OVC011 05/04 A3014 RMK AO2 T00500039=
201912101353 METAR KCLM 101353Z AUTO 19003KT 10SM OVC009 05/04 A3014 RMK AO2 CIG 008V012 SLP207 T00500039=
201912101253 METAR KCLM 101253Z AUTO 24004KT 10SM OVC007 05/03 A3014 RMK AO2 SLP207 T00500033=
201912101153 METAR KCLM 101153Z AUTO 22003KT 10SM OVC009 05/04 A3014 RMK AO2 SLP209 T00500039 10050 20044 56003=
201912101053 METAR KCLM 101053Z AUTO 27003KT 10SM OVC008 04/04 A3015 RMK AO2 CIG 006V010 SLP210 T00440039=
201912100953 METAR KCLM 100953Z AUTO 00000KT 10SM OVC009 05/04 A3014 RMK AO2 SLP209 T00500039=
201912100925 SPECI KCLM 100925Z AUTO 24003KT 8SM OVC008 05/04 A3015 RMK AO2 CIG 006V011 T00500044=
201912100853 METAR KCLM 100853Z AUTO 00000KT 6SM BR OVC011 05/04 A3015 RMK AO2 SLP212 T00500044 58008=
201912100753 METAR KCLM 100753Z AUTO 00000KT 7SM SCT004 OVC013 05/04 A3016 RMK AO2 SLP216 T00500044 400830044=
201912100733 SPECI KCLM 100733Z AUTO 00000KT 7SM OVC004 05/04 A3017 RMK AO2 T00500044=
201912100714 SPECI KCLM 100714Z AUTO 00000KT 7SM OVC005 05/04 A3017 RMK AO2 T00500039=
201912100701 SPECI KCLM 100701Z AUTO 00000KT 7SM OVC004 05/05 A3017 RMK AO2 T00500050=
201912100653 METAR KCLM 100653Z AUTO 00000KT 7SM OVC005 05/05 A3018 RMK AO2 CIG 003V007 SLP220 T00500050=
201912100651 SPECI KCLM 100651Z AUTO 00000KT 7SM OVC005 05/04 A3017 RMK AO2 CIG 003V007=
201912100612 SPECI KCLM 100612Z AUTO 11005KT 4SM BR OVC002 04/04 A3017 RMK AO2 T00440044=
201912100603 SPECI KCLM 100603Z AUTO 10003KT 2 1/2SM BR OVC002 05/04 A3018 RMK AO2 T00500044=
201912100553 METAR KCLM 100553Z AUTO 09004KT 1 3/4SM BR OVC002 04/04 A3018 RMK AO2 SLP220 T00440044 10056 20044 58009=
201912100548 SPECI KCLM 100548Z AUTO 08005KT 1 3/4SM BR OVC002 04/04 A3017 RMK AO2=
201912100453 METAR KCLM 100453Z AUTO 10005KT 6SM BR OVC003 05/04 A3019 RMK AO2 SLP224 T00500044=
201912100422 SPECI KCLM 100422Z AUTO 10005KT 3SM BR OVC002 04/04 A3019 RMK AO2 T00440044=
201912100409 SPECI KCLM 100409Z AUTO 09004KT 1 3/4SM BR OVC002 05/04 A3020 RMK AO2 T00500044=
201912100353 METAR KCLM 100353Z AUTO 09003KT 4SM BR OVC002 04/04 A3020 RMK AO2 SLP228 T00440044=
201912100253 METAR KCLM 100253Z AUTO 00000KT 4SM BR OVC002 05/04 A3020 RMK AO2 SLP229 T00500044 55002=
201912100153 METAR KCLM 100153Z AUTO 13005KT 7SM OVC004 05/04 A3020 RMK AO2 SLP228 T00500044=
201912100053 METAR KCLM 100053Z AUTO 00000KT 7SM OVC003 06/05 A3021 RMK AO2 SLP232 T00560050=
201912092353 METAR KCLM 092353Z AUTO 08004KT 8SM OVC004 06/05 A3021 RMK AO2 SLP231 T00560050 10083 20056 56005=
201912092253 METAR KCLM 092253Z AUTO 08005KT 8SM OVC004 06/05 A3021 RMK AO2 SLP234 T00610050=
201912092251 SPECI KCLM 092251Z AUTO 09004KT 9SM OVC004 06/05 A3021 RMK AO2=
201912092153 METAR KCLM 092153Z AUTO 07008KT 10SM BKN007 07/06 A3022 RMK AO2 SLP236 T00720056=
201912092143 SPECI KCLM 092143Z AUTO 07006KT 10SM BKN007 07/05 A3022 RMK AO2 T00670050=
201912092053 METAR KCLM 092053Z AUTO 08009KT 10SM SCT009 07/05 A3024 RMK AO2 SLP242 T00720050 56009=
201912092048 SPECI KCLM 092048Z AUTO 09008KT 10SM FEW009 07/05 A3024 RMK AO2=
201912091953 METAR KCLM 091953Z AUTO 08006KT 10SM CLR 08/04 A3025 RMK AO2 SLP245 T00780044=
201912091905 SPECI KCLM 091905Z AUTO 04003KT 10SM SCT013 07/05 A3027 RMK AO2 T00670050=
201912091853 METAR KCLM 091853Z AUTO 33003KT 10SM BKN013 07/04 A3027 RMK AO2 SLP251 T00670044=
201912091811 SPECI KCLM 091811Z AUTO 00000KT 10SM FEW019 07/04 A3027 RMK AO2 T00670044=
201912091753 METAR KCLM 091753Z AUTO 23003KT 10SM BKN019 06/04 A3027 RMK AO2 SLP254 T00560039 10061 20050 53002=
201912091653 METAR KCLM 091653Z AUTO 00000KT 10SM OVC020 05/04 A3027 RMK AO2 SLP252 T00500044=
201912091553 METAR KCLM 091553Z AUTO 00000KT 10SM OVC018 05/04 A3026 RMK AO2 SLP251 T00500044=
201912091453 METAR KCLM 091453Z AUTO 00000KT 10SM OVC018 05/04 A3027 RMK AO2 SLP252 T00500044 55001=
201912091353 METAR KCLM 091353Z AUTO 00000KT 10SM OVC017 06/05 A3027 RMK AO2 SLP251 T00560050=
201912091319 SPECI KCLM 091319Z AUTO 00000KT 10SM OVC016 06/05 A3027 RMK AO2 T00560050=
201912091309 SPECI KCLM 091309Z AUTO 00000KT 10SM OVC014 06/05 A3027 RMK AO2 T00560050=
201912091253 METAR KCLM 091253Z AUTO 00000KT 10SM OVC015 06/05 A3027 RMK AO2 SLP253 T00560050=
201912091248 SPECI KCLM 091248Z AUTO 00000KT 10SM OVC015 06/04 A3027 RMK AO2=
201912091230 SPECI KCLM 091230Z AUTO 00000KT 10SM OVC014 06/05 A3026 RMK AO2 T00610050=
201912091205 SPECI KCLM 091205Z AUTO 00000KT 10SM BKN015 OVC019 06/05 A3026 RMK AO2 T00560050=
201912091153 METAR KCLM 091153Z AUTO 21005KT 10SM OVC013 06/05 A3027 RMK AO2 SLP251 70001 T00610050 10067 20061 50001=
201912091053 METAR KCLM 091053Z AUTO 00000KT 10SM OVC012 06/05 A3027 RMK AO2 SLP251 T00610050=
201912090953 METAR KCLM 090953Z AUTO 11003KT 10SM OVC010 07/05 A3027 RMK AO2 SLP252 T00670050=
201912090853 METAR KCLM 090853Z AUTO VRB03KT 10SM OVC011 07/06 A3026 RMK AO2 SLP250 T00670056 51004=
201912090753 METAR KCLM 090753Z AUTO 00000KT 9SM OVC011 07/06 A3026 RMK AO2 SLP249 T00670061 400940050=
201912090653 METAR KCLM 090653Z AUTO 10003KT 9SM OVC011 07/06 A3026 RMK AO2 SLP249 T00670061=
201912090629 SPECI KCLM 090629Z AUTO 16003KT 10SM OVC010 07/06 A3027 RMK AO2 T00670056=
201912090553 METAR KCLM 090553Z AUTO 12004KT 10SM OVC009 07/07 A3025 RMK AO2 SLP245 T00670067 10083 20050 53018=
201912090540 SPECI KCLM 090540Z AUTO 11003KT 9SM OVC009 07/06 A3024 RMK AO2 T00670061=
201912090506 SPECI KCLM 090506Z AUTO 11004KT 10SM SCT005 OVC010 06/06 A3022 RMK AO2 T00610061=
201912090453 METAR KCLM 090453Z AUTO 12004KT 10SM BKN006 OVC010 07/06 A3022 RMK AO2 SLP235 T00670061=
201912090353 METAR KCLM 090353Z AUTO 00000KT 7SM OVC005 06/06 A3020 RMK AO2 SLP230 T00560056=
201912090310 SPECI KCLM 090310Z AUTO 16003KT 10SM BKN006 OVC050 06/06 A3019 RMK AO2 T00560056=
201912090301 SPECI KCLM 090301Z AUTO 00000KT 10SM SCT006 OVC055 06/06 A3020 RMK AO2 T00610056=
201912090253 METAR KCLM 090253Z AUTO 00000KT 10SM OVC055 06/06 A3020 RMK AO2 SLP227 T00560056 51007=
201912090232 SPECI KCLM 090232Z AUTO 00000KT 3SM BR BKN055 06/06 A3019 RMK AO2 T00610056=
201912090222 SPECI KCLM 090222Z AUTO 00000KT 1 3/4SM BR SCT055 06/05 A3018 RMK AO2 VIS 1/2V5 T00560050=
201912090153 METAR KCLM 090153Z AUTO 12004KT 10SM BKN055 06/06 A3018 RMK AO2 SLP222 T00610056=
201912090053 METAR KCLM 090053Z AUTO 12004KT 10SM FEW036 OVC055 07/06 A3019 RMK AO2 SLP225 T00720061=
201912082353 METAR KCLM 082353Z AUTO 10006KT 10SM OVC035 08/06 A3018 RMK AO2 SLP219 T00830061 10094 20078 53017=
201912082253 METAR KCLM 082253Z AUTO 11007KT 10SM OVC034 08/07 A3015 RMK AO2 SLP212 T00830072=
201912082202 SPECI KCLM 082202Z AUTO 12006KT 10SM SCT014 SCT026 OVC036 08/07 A3015 RMK AO2 T00830072=
201912082153 METAR KCLM 082153Z AUTO 12006KT 10SM BKN014 BKN026 OVC036 08/07 A3014 RMK AO2 SLP208 T00830072=
201912082053 METAR KCLM 082053Z AUTO 11004KT 10SM OVC010 08/07 A3012 RMK AO2 CIG 008V012 SLP203 T00830072 51012=
201912082007 SPECI KCLM 082007Z AUTO 08004KT 8SM BKN006 OVC026 09/08 A3011 RMK AO2 CIG 004V007 T00890078=
201912081953 METAR KCLM 081953Z AUTO 08004KT 7SM FEW004 OVC025 09/08 A3011 RMK AO2 SLP197 T00890083=
201912081926 SPECI KCLM 081926Z AUTO 10004KT 9SM BKN023 OVC038 09/08 A3010 RMK AO2 T00890078=
201912081853 METAR KCLM 081853Z AUTO 07003KT 10SM FEW005 BKN035 BKN043 09/08 A3009 RMK AO2 SLP190 T00890083=
201912081803 SPECI KCLM 081803Z AUTO 00000KT 3SM BR SCT001 BKN055 08/08 A3008 RMK AO2 T00780078=
201912081758 SPECI KCLM 081758Z AUTO 00000KT 1SM BR SCT001 BKN055 08/08 A3007 RMK AO2 T00780078=
201912081753 METAR KCLM 081753Z AUTO 00000KT 1/4SM FG SCT001 OVC055 08/08 A3007 RMK AO2 SLP185 60001 T00780078 10083 20072 51018=
201912081743 SPECI KCLM 081743Z AUTO 35003KT 3/4SM BR FEW001 OVC055 08/08 A3007 RMK AO2 T00780078=
201912081739 SPECI KCLM 081739Z AUTO 00000KT 2SM BR FEW001 OVC055 08/08 A3007 RMK AO2 T00830078=
201912081653 METAR KCLM 081653Z AUTO 00000KT 8SM BKN044 OVC055 07/07 A3006 RMK AO2 SLP181 T00720072=
201912081630 SPECI KCLM 081630Z AUTO 00000KT 9SM BKN040 OVC050 08/08 A3006 RMK AO2 T00780078=
201912081622 SPECI KCLM 081622Z AUTO 00000KT 2SM BR BKN040 OVC050 07/07 A3005 RMK AO2 T00720072=
201912081553 METAR KCLM 081553Z AUTO 21003KT 6SM BR SCT037 OVC049 07/07 A3003 RMK AO2 SLP172 T00720072=
201912081453 METAR KCLM 081453Z AUTO 00000KT 5SM BR OVC031 08/07 A3002 RMK AO2 SLP167 60001 T00780072 53017=
201912081413 SPECI KCLM 081413Z AUTO 00000KT 4SM BR OVC030 07/07 A3001 RMK AO2 T00720072=
201912081353 METAR KCLM 081353Z AUTO 00000KT 4SM BR OVC028 08/08 A3000 RMK AO2 RAB18E38 SLP160 P0001 T00780078=
201912081333 SPECI KCLM 081333Z AUTO 15003KT 3SM -RA BR OVC025 08/07 A2999 RMK AO2 RAB18 P0001 T00780072=
201912081321 SPECI KCLM 081321Z AUTO 00000KT 1 3/4SM -RA BR FEW014 OVC024 08/08 A2999 RMK AO2 RAB18 P0000 T00780078=
201912081253 METAR KCLM 081253Z AUTO 12003KT 8SM SCT013 OVC024 08/08 A2998 RMK AO2 SLP154 T00780078=
201912081153 METAR KCLM 081153Z AUTO 00000KT 5SM BR FEW014 OVC026 08/08 A2997 RMK AO2 SLP150 60001 70048 T00780078 10078 20067 51025=
201912081053 METAR KCLM 081053Z AUTO 20003KT 5SM BR FEW011 OVC017 08/08 A2995 RMK AO2 RAB0955E04 SLP142 P0000 T00780078=
201912081035 SPECI KCLM 081035Z AUTO 20004KT 3SM BR OVC015 08/08 A2994 RMK AO2 RAB0955E04 P0000 T00780078=
201912081021 SPECI KCLM 081021Z AUTO 20003KT 2 1/2SM BR FEW006 OVC014 08/08 A2994 RMK AO2 RAB0955E04 P0000 T00780078=
201912081004 SPECI KCLM 081004Z AUTO 21004KT 2 1/2SM BR SCT002 BKN008 OVC012 08/07 A2993 RMK AO2 RAB0955E04 P0000 T00780072=
201912081001 SPECI KCLM 081001Z AUTO 22004KT 3SM -RA BR BKN002 OVC006 08/07 A2993 RMK AO2 RAB0955 P0000 T00780072=
201912080953 METAR KCLM 080953Z AUTO 00000KT 2 1/2SM BR BKN002 OVC006 08/08 A2992 RMK AO2 SLP134 T00780078=
201912080931 SPECI KCLM 080931Z AUTO 00000KT 3SM BR OVC002 07/07 A2991 RMK AO2 T00720072=
201912080917 SPECI KCLM 080917Z AUTO 00000KT 1 1/4SM BR BKN002 OVC015 07/07 A2991 RMK AO2 T00720072=
201912080905 SPECI KCLM 080905Z AUTO 00000KT 3/4SM BR BKN003 OVC015 07/07 A2990 RMK AO2 T00720067=
201912080902 SPECI KCLM 080902Z AUTO 00000KT 1SM BR SCT003 BKN015 OVC020 07/07 A2990 RMK AO2 T00720067=
201912080853 METAR KCLM 080853Z AUTO 00000KT 3/4SM BR BKN014 OVC038 07/07 A2990 RMK AO2 SLP126 60001 T00720072 53013=
201912080828 SPECI KCLM 080828Z AUTO 00000KT 1/2SM FG FEW002 SCT029 OVC037 07/07 A2988 RMK AO2 T00720072=
201912080815 SPECI KCLM 080815Z AUTO 00000KT 1SM BR SCT002 BKN030 OVC037 07/07 A2988 RMK AO2 T00720072=
201912080813 SPECI KCLM 080813Z AUTO 00000KT 3/4SM BR BKN002 BKN030 OVC037 07/07 A2988 RMK AO2 T00720072=
201912080805 SPECI KCLM 080805Z AUTO 00000KT 1/2SM FG SCT001 BKN010 OVC037 07/07 A2988 RMK AO2 T00720072=
201912080759 SPECI KCLM 080759Z AUTO 00000KT 1SM BR SCT001 BKN030 OVC036 07/07 A2987 RMK AO2 T00720072=
201912080753 METAR KCLM 080753Z AUTO 00000KT 1 3/4SM BR BKN001 BKN009 OVC036 08/08 A2987 RMK AO2 RAB10E19 SLP116 P0000 T00780078 400890061=
201912080748 SPECI KCLM 080748Z AUTO 00000KT 1 3/4SM BR BKN001 BKN009 OVC038 07/07 A2987 RMK AO2 RAB10E19 P0000=
201912080745 SPECI KCLM 080745Z AUTO 00000KT 2SM BR SCT001 BKN009 OVC038 07/07 A2987 RMK AO2 RAB10E19 P0000 T00720072=
201912080728 SPECI KCLM 080728Z AUTO 14003KT 1 1/2SM BR SCT003 BKN006 OVC034 07/07 A2987 RMK AO2 RAB10E19 P0000 T00720072=
201912080709 SPECI KCLM 080709Z AUTO 00000KT 2SM BR FEW006 BKN034 OVC045 08/08 A2987 RMK AO2 T00780078=
201912080653 METAR KCLM 080653Z AUTO 00000KT 1/2SM FG SCT004 SCT037 OVC049 07/07 A2986 RMK AO2 RAE34 SLP113 P0001 T00720072=
201912080648 SPECI KCLM 080648Z AUTO 00000KT 3/4SM BR SCT004 BKN018 OVC049 08/08 A2986 RMK AO2 RAE34 P0001=
201912080647 SPECI KCLM 080647Z AUTO 00000KT 1SM BR SCT004 BKN018 OVC049 08/08 A2986 RMK AO2 RAE34 P0001=
201912080640 SPECI KCLM 080640Z AUTO 00000KT 2 1/2SM BR BKN004 OVC049 08/08 A2986 RMK AO2 RAE34 P0001 T00780078=
201912080610 SPECI KCLM 080610Z AUTO 00000KT 1 1/2SM -RA BR OVC002 08/08 A2985 RMK AO2 P0001 T00780078=
201912080553 METAR KCLM 080553Z AUTO 00000KT 1/2SM -RA FG VV002 08/08 A2985 RMK AO2 RAB10 SLP111 P0002 60007 T00780078 10078 20072 53022=
201912080537 SPECI KCLM 080537Z AUTO 26003KT 1/2SM -RA FG VV002 08/08 A2985 RMK AO2 RAB10 P0001 T00780078=
201912080527 SPECI KCLM 080527Z AUTO 00000KT 1/4SM -RA FG VV002 08/08 A2985 RMK AO2 RAB10 P0001 T00780078=
201912080516 SPECI KCLM 080516Z AUTO 31003KT 1/4SM -RA FG VV001 08/08 A2984 RMK AO2 RAB10 P0000 T00780078=
201912080453 METAR KCLM 080453Z AUTO 00000KT 1/4SM FG BKN003 OVC036 08/08 A2983 RMK AO2 SLP102 T00780078=
201912080448 SPECI KCLM 080448Z AUTO 00000KT 1/4SM FG BKN009 BKN036 OVC050 08/08 A2982 RMK AO2=
201912080442 SPECI KCLM 080442Z AUTO 00000KT 1/4SM FG FEW006 BKN025 OVC050 08/07 A2982 RMK AO2 T00780072=
201912080440 SPECI KCLM 080440Z AUTO 00000KT 1/2SM FG FEW006 BKN033 OVC050 08/07 A2982 RMK AO2 T00780072=
201912080405 SPECI KCLM 080405Z AUTO 00000KT 1/2SM FG OVC050 07/07 A2980 RMK AO2 T00720072=
201912080353 METAR KCLM 080353Z AUTO 00000KT 1 1/2SM BR FEW041 OVC050 08/08 A2980 RMK AO2 RAB0257E43 SLP092 P0003 T00780078=
201912080336 SPECI KCLM 080336Z AUTO 00000KT 2 1/2SM -RA BR BKN037 OVC048 08/08 A2979 RMK AO2 RAB0257 P0003 T00780078=
201912080314 SPECI KCLM 080314Z AUTO 00000KT 1 1/4SM -RA BR SCT008 BKN037 OVC047 08/08 A2979 RMK AO2 RAB0257 P0002 T00780078=
201912080306 SPECI KCLM 080306Z AUTO 00000KT 2SM -RA BR SCT008 BKN039 OVC045 08/08 A2979 RMK AO2 RAB0257 P0001 T00780078=
201912080300 SPECI KCLM 080300Z AUTO 00000KT 1 1/4SM -RA BR BKN008 OVC039 08/08 A2979 RMK AO2 RAB0257 P0000 T00780078=
201912080253 METAR KCLM 080253Z AUTO 00000KT 2SM BR BKN008 OVC039 08/08 A2979 RMK AO2 RAE40 SLP089 P0000 60002 T00780078 51016=
201912080237 SPECI KCLM 080237Z AUTO 21004KT 3SM -RA BR SCT008 OVC041 08/08 A2978 RMK AO2 P0000 T00780078=
201912080225 SPECI KCLM 080225Z AUTO 00000KT 1 1/2SM -RA BR SCT008 BKN042 OVC049 08/08 A2978 RMK AO2 P0000 T00780078=
201912080210 SPECI KCLM 080210Z AUTO 22003KT 2 1/2SM -RA BR SCT008 OVC048 08/08 A2978 RMK AO2 P0000 T00780078=
201912080202 SPECI KCLM 080202Z AUTO 00000KT 1 3/4SM -RA BR BKN008 OVC050 08/08 A2978 RMK AO2 P0000 T00780078=
201912080153 METAR KCLM 080153Z AUTO 00000KT 2SM -RA BR OVC008 08/08 A2977 RMK AO2 RAE22B42 SLP084 P0002 T00780078=
201912080136 SPECI KCLM 080136Z AUTO 00000KT 3SM BR OVC006 08/08 A2977 RMK AO2 RAE22 CIG 004V008 P0001 T00780078=
201912080126 SPECI KCLM 080126Z AUTO 00000KT 2SM BR OVC006 08/08 A2977 RMK AO2 VIS 1 1/4V3 RAE22 CIG 004V009 P0001 T00780078=
201912080053 METAR KCLM 080053Z AUTO 00000KT 4SM -RA BR OVC006 08/08 A2976 RMK AO2 RAE18B47 SLP080 P0000 T00780078=
201912080044 SPECI KCLM 080044Z AUTO 00000KT 2SM BR OVC006 08/08 A2976 RMK AO2 RAE18 P0000 T00780078=
201912080042 SPECI KCLM 080042Z AUTO 00000KT 1 1/2SM BR BKN004 OVC008 08/08 A2976 RMK AO2 RAE18 P0000 T00780078=
201912080029 SPECI KCLM 080029Z AUTO 26003KT 1/2SM FG BKN005 OVC046 08/08 A2975 RMK AO2 RAE18 P0000 T00780078=
201912080017 SPECI KCLM 080017Z AUTO 00000KT 1/4SM -RA FG BKN003 BKN008 OVC046 08/08 A2975 RMK AO2 P0000 T00780078=
201912080010 SPECI KCLM 080010Z AUTO 00000KT 1/4SM -RA FG SCT003 BKN008 OVC046 08/08 A2974 RMK AO2 P0000 T00780078=
201912072353 METAR KCLM 072353Z AUTO 00000KT 1/4SM -RA FG VV003 08/08 A2974 RMK AO2 SLP072 P0000 60015 T00780078 10089 20078 53004=
201912072333 SPECI KCLM 072333Z AUTO 00000KT M1/4SM -RA FG VV003 08/08 A2973 RMK AO2 P0000 T00780078=
201912072318 SPECI KCLM 072318Z AUTO 00000KT M1/4SM -RA FG VV001 08/08 A2973 RMK AO2 P0000 T00780078=
201912072315 SPECI KCLM 072315Z AUTO 00000KT M1/4SM -RA FG VV005 08/08 A2973 RMK AO2 P0000 T00780078=
201912072303 SPECI KCLM 072303Z AUTO 36003KT M1/4SM -RA FG BKN011 OVC060 08/08 A2973 RMK AO2 P0000 T00780078=
201912072253 METAR KCLM 072253Z AUTO 34003KT 1/4SM -RA FG BKN017 OVC060 08/08 A2973 RMK AO2 RAE15B27 SLP068 P0001 T00780078=
201912072245 SPECI KCLM 072245Z AUTO 00000KT 1/4SM -RA FG BKN016 OVC065 08/08 A2972 RMK AO2 RAE15B27 P0001 T00830083=
201912072229 SPECI KCLM 072229Z AUTO 31003KT 1/4SM -RA FG FEW002 BKN008 OVC065 08/08 A2972 RMK AO2 RAE15B27 P0001 T00830083=
201912072222 SPECI KCLM 072222Z AUTO 29003KT 1/4SM FG FEW002 BKN016 OVC060 08/08 A2972 RMK AO2 RAE15 P0001 T00830083=
201912072218 SPECI KCLM 072218Z AUTO 00000KT 3/4SM BR FEW002 SCT029 OVC060 09/09 A2972 RMK AO2 RAE15 P0001 T00890089=
201912072153 METAR KCLM 072153Z AUTO 11003KT 6SM -RA BR FEW002 OVC055 09/08 A2972 RMK AO2 SLP065 P0002 T00890083=
201912072128 SPECI KCLM 072128Z AUTO 00000KT 3SM -RA BR SCT002 BKN038 OVC050 09/09 A2972 RMK AO2 P0002 T00890089=
201912072117 SPECI KCLM 072117Z AUTO 00000KT 1SM -RA BR FEW002 BKN036 OVC055 09/08 A2972 RMK AO2 P0002 T00890083=
201912072102 SPECI KCLM 072102Z AUTO 00000KT 1/2SM -RA FG BKN030 BKN040 OVC055 08/08 A2973 RMK AO2 P0001 T00830083=
201912072053 METAR KCLM 072053Z AUTO 00000KT 1/4SM -RA FG BKN025 OVC042 08/08 A2973 RMK AO2 SLP068 P0004 60012 T00830078 55000=
201912072043 SPECI KCLM 072043Z AUTO 00000KT 1/2SM -RA FG BKN025 BKN037 OVC045 08/08 A2973 RMK AO2 P0003 T00830083=
201912072032 SPECI KCLM 072032Z AUTO 00000KT 1/2SM -RA FG SCT032 OVC044 08/08 A2973 RMK AO2 P0002 T00830083=
201912072015 SPECI KCLM 072015Z AUTO 00000KT 1SM -RA BR BKN048 OVC055 08/08 A2973 RMK AO2 P0001 T00830083=
201912071953 METAR KCLM 071953Z AUTO 00000KT 2 1/2SM -RA BR OVC055 09/08 A2972 RMK AO2 SLP067 P0005 T00890083=
201912071944 SPECI KCLM 071944Z AUTO 00000KT 2 1/2SM -RA BR OVC055 09/08 A2972 RMK AO2 P0004 T00890083=
201912071937 SPECI KCLM 071937Z AUTO 00000KT 3SM -RA BR BKN050 OVC060 09/08 A2972 RMK AO2 P0003 T00890083=
201912071919 SPECI KCLM 071919Z AUTO 00000KT 2 1/2SM -RA BR BKN050 OVC060 09/08 A2973 RMK AO2 P0002 T00890083=
201912071853 METAR KCLM 071853Z AUTO 00000KT 3SM -RA BR OVC055 08/08 A2973 RMK AO2 SLP069 P0003 T00830083=
201912071850 SPECI KCLM 071850Z AUTO 00000KT 3SM -RA BR OVC060 08/08 A2973 RMK AO2 P0003=
201912071810 SPECI KCLM 071810Z AUTO 00000KT 2 1/2SM -RA BR FEW016 OVC055 08/08 A2973 RMK AO2 P0001 T00780078=
201912071753 METAR KCLM 071753Z AUTO 00000KT 3SM -RA BR FEW016 SCT048 OVC060 08/07 A2973 RMK AO2 SLP069 P0004 60025 T00780072 10078 20061 52011=
201912071653 METAR KCLM 071653Z AUTO 00000KT 2SM -RA BR FEW006 OVC050 07/07 A2972 RMK AO2 SLP065 P0003 T00670067=
201912071643 SPECI KCLM 071643Z AUTO 13003KT 1 3/4SM -RA BR FEW006 SCT013 OVC050 07/07 A2972 RMK AO2 P0003 T00670067=
201912071630 SPECI KCLM 071630Z AUTO 00000KT 1 3/4SM -RA BR FEW013 FEW038 OVC050 07/07 A2971 RMK AO2 P0002 T00670067=
201912071623 SPECI KCLM 071623Z AUTO 00000KT 2SM -RA BR FEW013 SCT040 OVC050 07/07 A2971 RMK AO2 P0001 T00670067=
201912071614 SPECI KCLM 071614Z AUTO 13003KT 3SM -RA BR FEW015 FEW039 OVC049 07/07 A2971 RMK AO2 P0001 T00670067=
201912071600 SPECI KCLM 071600Z AUTO 00000KT 2 1/2SM -RA BR FEW005 FEW039 OVC047 07/07 A2971 RMK AO2 P0000 T00670067=
201912071553 METAR KCLM 071553Z AUTO 00000KT 2 1/2SM -RA BR FEW024 OVC045 07/07 A2971 RMK AO2 SLP061 P0005 T00670067=
201912071505 SPECI KCLM 071505Z AUTO 00000KT 2SM -RA BR SCT025 OVC050 07/06 A2970 RMK AO2 P0001 T00670061=
201912071453 METAR KCLM 071453Z AUTO 00000KT 1 1/4SM -RA BR FEW024 OVC050 07/06 A2970 RMK AO2 SLP058 P0004 60013 T00670061 55004=
201912071437 SPECI KCLM 071437Z AUTO 00000KT 1 3/4SM -RA BR FEW025 OVC050 07/07 A2969 RMK AO2 P0003 T00670067=
201912071430 SPECI KCLM 071430Z AUTO 00000KT 2SM -RA BR OVC050 07/06 A2969 RMK AO2 P0002 T00670061=
201912071353 METAR KCLM 071353Z AUTO 00000KT 1 1/2SM -RA BR OVC055 07/07 A2969 RMK AO2 SLP057 P0004 T00670067=
201912071342 SPECI KCLM 071342Z AUTO 00000KT 1 1/4SM -RA BR OVC055 07/07 A2970 RMK AO2 P0003 T00670067=
201912071333 SPECI KCLM 071333Z AUTO 00000KT 2SM -RA BR OVC050 07/07 A2969 RMK AO2 P0003 T00670067=
201912071325 SPECI KCLM 071325Z AUTO 00000KT 3/4SM -RA BR OVC050 07/07 A2970 RMK AO2 P0002 T00670067=
201912071307 SPECI KCLM 071307Z AUTO 00000KT 1 1/4SM -RA BR OVC050 07/07 A2970 RMK AO2 P0001 T00670067=
201912071253 METAR KCLM 071253Z AUTO 00000KT 3/4SM -RA BR OVC050 07/07 A2970 RMK AO2 SLP058 P0005 T00670067=
201912071243 SPECI KCLM 071243Z AUTO 00000KT 1 3/4SM -RA BR OVC050 07/07 A2970 RMK AO2 P0004 T00670067=
201912071234 SPECI KCLM 071234Z AUTO 00000KT 3SM -RA BR OVC050 07/07 A2970 RMK AO2 P0003 T00720067=
201912071217 SPECI KCLM 071217Z AUTO 00000KT 2 1/2SM -RA BR FEW007 OVC055 07/07 A2970 RMK AO2 P0002 T00670067=
201912071209 SPECI KCLM 071209Z AUTO 00000KT 4SM -RA BR OVC055 07/07 A2971 RMK AO2 P0001 T00670067=
201912071200 SPECI KCLM 071200Z AUTO 00000KT 2 1/2SM -RA BR OVC055 07/07 A2971 RMK AO2 P0000 T00670067=
201912071153 METAR KCLM 071153Z AUTO 00000KT 3SM -RA BR OVC055 07/07 A2971 RMK AO2 SLP062 P0005 60012 70013 T00670067 10067 20056 56015=
201912071053 METAR KCLM 071053Z AUTO 00000KT 3SM -RA BR OVC060 07/07 A2972 RMK AO2 SLP067 P0003 T00670067=
201912070953 METAR KCLM 070953Z AUTO 00000KT 3SM -RA BR OVC060 06/06 A2973 RMK AO2 SLP070 P0002 T00610061=
201912070946 SPECI KCLM 070946Z AUTO 00000KT 2 1/2SM -RA BR OVC060 06/06 A2973 RMK AO2 P0002 T00610061=
201912070853 METAR KCLM 070853Z AUTO 20003KT 4SM -RA BR OVC060 06/06 A2975 RMK AO2 SLP077 P0002 60002 T00610061 57010=
201912070846 SPECI KCLM 070846Z AUTO 00000KT 3SM -RA BR OVC055 06/06 A2975 RMK AO2 P0002 T00610061=
201912070831 SPECI KCLM 070831Z AUTO 00000KT 2 1/2SM -RA BR OVC055 06/06 A2976 RMK AO2 P0001 T00610056=
201912070824 SPECI KCLM 070824Z AUTO 00000KT 3SM -RA BR OVC055 06/06 A2976 RMK AO2 P0001 T00610061=
201912070816 SPECI KCLM 070816Z AUTO 13003KT 2 1/2SM -RA BR BKN060 OVC070 06/06 A2976 RMK AO2 P0001 T00610061=
201912070753 METAR KCLM 070753Z AUTO 13003KT 3SM -RA BR OVC065 06/06 A2977 RMK AO2 SLP082 P0000 T00610061 400780056=
201912070748 SPECI KCLM 070748Z AUTO 11003KT 3SM -RA BR OVC060 06/06 A2977 RMK AO2 P0000=
201912070735 SPECI KCLM 070735Z AUTO 11003KT 2 1/2SM -RA BR BKN060 OVC075 06/06 A2977 RMK AO2 P0000 T00610061=
201912070653 METAR KCLM 070653Z AUTO 00000KT 4SM -RA BR FEW004 OVC075 06/06 A2978 RMK AO2 RAB37 SLP087 P0000 T00610061=
201912070644 SPECI KCLM 070644Z AUTO 00000KT 4SM -RA BR SCT004 OVC070 06/06 A2978 RMK AO2 RAB37 P0000 T00610061=
201912070620 SPECI KCLM 070620Z AUTO 20003KT 3SM BR OVC004 06/06 A2978 RMK AO2 T00610061=
201912070609 SPECI KCLM 070609Z AUTO 24003KT 2 1/2SM BR OVC004 06/06 A2979 RMK AO2 T00560056=
201912070602 SPECI KCLM 070602Z AUTO 00000KT 4SM BR OVC005 06/06 A2979 RMK AO2 T00610061=
201912070553 METAR KCLM 070553Z AUTO 22004KT 2 1/2SM BR OVC005 06/06 A2979 RMK AO2 RAE02B20E34 SLP090 P0000 60001 T00560056 10072 20056 50000=
201912070550 SPECI KCLM 070550Z AUTO 24003KT 2SM BR OVC005 06/06 A2979 RMK AO2 RAE02B20E34 P0000=
201912070539 SPECI KCLM 070539Z AUTO 00000KT 3/4SM BR BKN005 BKN070 06/06 A2979 RMK AO2 RAE02B20E34 P0000 T00560056=
201912070526 SPECI KCLM 070526Z AUTO 00000KT 2 1/2SM -RA BR BKN005 OVC070 06/06 A2979 RMK AO2 RAE02B20 P0000 T00610061=
201912070517 SPECI KCLM 070517Z AUTO 00000KT 2SM BR SCT005 BKN035 OVC070 06/06 A2978 RMK AO2 RAE02 P0000 T00610056=
201912070513 SPECI KCLM 070513Z AUTO 13004KT 1 3/4SM BR BKN005 BKN070 06/06 A2978 RMK AO2 RAE02 P0000 T00610056=
201912070505 SPECI KCLM 070505Z AUTO 13004KT 1 1/4SM BR SCT005 OVC075 06/06 A2979 RMK AO2 RAE02 P0000 T00560056=
201912070457 SPECI KCLM 070457Z AUTO 00000KT 2SM -RA BR FEW005 FEW023 BKN070 06/06 A2979 RMK AO2 P0000 T00560056=
201912070453 METAR KCLM 070453Z AUTO 13003KT 3SM -RA BR FEW023 BKN070 OVC085 06/06 A2979 RMK AO2 RAE09B15 SLP090 P0000 T00610061=
201912070426 SPECI KCLM 070426Z AUTO 00000KT 2 1/2SM BR SCT003 BKN065 OVC080 07/06 A2979 RMK AO2 RAE09B15E26 P0000 T00670061=
201912070410 SPECI KCLM 070410Z AUTO 00000KT 3SM BR BKN003 OVC065 07/07 A2979 RMK AO2 RAE09 P0000 T00670067=
201912070353 METAR KCLM 070353Z AUTO 00000KT 1 1/4SM -RA BR OVC002 07/07 A2979 RMK AO2 RAE24B34 SLP090 P0001 T00670067=
201912070327 SPECI KCLM 070327Z AUTO 00000KT 1 3/4SM BR OVC002 07/07 A2980 RMK AO2 RAE24 P0000 T00670067=
201912070320 SPECI KCLM 070320Z AUTO 00000KT 3SM -RA BR OVC002 07/07 A2980 RMK AO2 P0000 T00670067=
201912070253 METAR KCLM 070253Z AUTO 00000KT 2 1/2SM -RA BR OVC002 07/06 A2979 RMK AO2 RAB48 SLP089 P0000 60000 T00670061 56015=
201912070153 METAR KCLM 070153Z AUTO 09004KT 3SM BR OVC003 07/07 A2979 RMK AO2 SLP091 T00720067=
201912070053 METAR KCLM 070053Z AUTO 09005KT 4SM BR OVC004 07/07 A2982 RMK AO2 RAB07E25 SLP098 P0000 T00720067=
201912062353 METAR KCLM 062353Z AUTO 00000KT 4SM BR OVC004 07/07 A2983 RMK AO2 RAE51 SLP104 P0000 60000 T00720067 10078 20072 56008=
201912062253 METAR KCLM 062253Z AUTO 30003KT 5SM -RA BR OVC004 07/07 A2984 RMK AO2 RAB43 SLP108 P0000 T00720067=
201912062153 METAR KCLM 062153Z AUTO 00000KT 7SM OVC004 07/07 A2985 RMK AO2 SLP108 T00720067=
201912062130 SPECI KCLM 062130Z AUTO 00000KT 7SM OVC004 07/07 A2985 RMK AO2 T00720067=
201912062053 METAR KCLM 062053Z AUTO 09003KT 8SM OVC005 07/07 A2986 RMK AO2 SLP113 T00720067 58021=
201912061953 METAR KCLM 061953Z AUTO 08006KT 7SM OVC005 07/07 A2988 RMK AO2 SLP121 T00720067=
201912061853 METAR KCLM 061853Z AUTO 05004KT 7SM OVC005 07/07 A2991 RMK AO2 SLP128 T00720067=
201912061753 METAR KCLM 061753Z AUTO 10005KT 6SM BR OVC005 07/07 A2992 RMK AO2 SLP134 60000 T00720067 10072 20061 53003=
201912061736 SPECI KCLM 061736Z AUTO 10005KT 5SM BR OVC005 07/07 A2992 RMK AO2 T00720067=
201912061653 METAR KCLM 061653Z AUTO 10003KT 3SM BR OVC004 07/07 A2991 RMK AO2 SLP131 T00670067=
201912061630 SPECI KCLM 061630Z AUTO 13003KT 2 1/2SM BR OVC004 07/07 A2992 RMK AO2 T00670067=
201912061553 METAR KCLM 061553Z AUTO 10005KT 6SM BR OVC004 07/06 A2991 RMK AO2 SLP130 T00670061=
201912061453 METAR KCLM 061453Z AUTO 10005KT 5SM BR OVC004 07/06 A2991 RMK AO2 RAB14E42 SLP131 P0000 60000 T00670061 58007=
201912061353 METAR KCLM 061353Z AUTO 08004KT 6SM BR OVC004 07/06 A2992 RMK AO2 SLP135 T00670061=
201912061253 METAR KCLM 061253Z AUTO 13005KT 5SM BR OVC006 06/06 A2992 RMK AO2 SLP135 T00610061=
201912061153 METAR KCLM 061153Z AUTO 12006KT 5SM BR OVC007 06/06 A2993 RMK AO2 SLP138 60000 T00610056 10061 20056 58010=
201912061053 METAR KCLM 061053Z AUTO 12004KT 7SM OVC008 06/06 A2995 RMK AO2 RAB06E32 SLP143 P0000 T00610056=
201912061014 SPECI KCLM 061014Z AUTO 11004KT 5SM -RA BR OVC006 06/06 A2996 RMK AO2 RAB06 CIG 003V008 P0000 T00610056=
201912060953 METAR KCLM 060953Z AUTO 09003KT 7SM OVC004 06/06 A2996 RMK AO2 SLP148 T00610056=
201912060916 SPECI KCLM 060916Z AUTO 10005KT 10SM BKN007 OVC075 06/05 A2996 RMK AO2 T00610050=
201912060904 SPECI KCLM 060904Z AUTO 10006KT 10SM SCT008 OVC075 06/05 A2996 RMK AO2 T00610050=
201912060853 METAR KCLM 060853Z AUTO 08005KT 10SM OVC075 06/05 A2997 RMK AO2 SLP149 60000 T00610050 58011=
201912060753 METAR KCLM 060753Z AUTO 09003KT 10SM OVC055 06/05 A2999 RMK AO2 RAE07 SLP156 P0000 T00560050 400720056=
201912060740 SPECI KCLM 060740Z AUTO 00000KT 10SM SCT011 OVC055 06/05 A2999 RMK AO2 RAE07 P0000 T00560050=
201912060653 METAR KCLM 060653Z AUTO 00000KT 10SM -RA OVC012 06/04 A3001 RMK AO2 RAB38 SLP163 P0000 T00610044=
201912060553 METAR KCLM 060553Z AUTO 13004KT 10SM OVC011 06/05 A3000 RMK AO2 SLP160 T00610050 10067 20061 58006=
201912060453 METAR KCLM 060453Z AUTO 00000KT 9SM OVC011 06/05 A3001 RMK AO2 SLP164 T00610050=
201912060423 SPECI KCLM 060423Z AUTO 10003KT 9SM OVC010 06/05 A3001 RMK AO2 T00610050=
201912060353 METAR KCLM 060353Z AUTO 00000KT 9SM OVC009 06/05 A3002 RMK AO2 SLP166 T00610050=
201912060332 SPECI KCLM 060332Z AUTO 00000KT 9SM OVC008 07/06 A3002 RMK AO2 T00670056=
201912060253 METAR KCLM 060253Z AUTO 00000KT 9SM OVC011 06/05 A3002 RMK AO2 SLP167 T00610050 58009=
201912060153 METAR KCLM 060153Z AUTO 00000KT 10SM OVC011 06/05 A3003 RMK AO2 SLP171 T00610050=
201912060053 METAR KCLM 060053Z AUTO 00000KT 10SM OVC011 07/05 A3003 RMK AO2 SLP173 T00670050=
201912052353 METAR KCLM 052353Z AUTO 12006KT 10SM OVC012 07/04 A3004 RMK AO2 SLP175 T00670044 10072 20061 58003=
201912052253 METAR KCLM 052253Z AUTO 09003KT 10SM OVC012 07/05 A3005 RMK AO2 SLP177 T00670050=
201912052153 METAR KCLM 052153Z AUTO 00000KT 10SM OVC013 07/04 A3005 RMK AO2 SLP178 T00670044=
201912052053 METAR KCLM 052053Z AUTO 08004KT 10SM OVC011 07/05 A3005 RMK AO2 SLP178 T00670050 58001=
201912051953 METAR KCLM 051953Z AUTO 09004KT 10SM OVC011 07/05 A3005 RMK AO2 SLP178 T00670050=
201912051853 METAR KCLM 051853Z AUTO 10004KT 10SM OVC012 07/04 A3007 RMK AO2 SLP183 T00670044=
201912051753 METAR KCLM 051753Z AUTO 09004KT 10SM OVC012 06/04 A3005 RMK AO2 SLP179 T00610044 10061 20056 53013=
201912051653 METAR KCLM 051653Z AUTO 09004KT 10SM OVC012 06/05 A3004 RMK AO2 SLP174 T00610050=
201912051553 METAR KCLM 051553Z AUTO 11005KT 10SM OVC012 06/05 A3002 RMK AO2 SLP169 T00560050=
201912051453 METAR KCLM 051453Z AUTO 12005KT 10SM OVC013 06/05 A3002 RMK AO2 SLP166 T00560050 53002=
201912051353 METAR KCLM 051353Z AUTO 10003KT 10SM OVC013 06/05 A3001 RMK AO2 SLP163 T00560050=
201912051253 METAR KCLM 051253Z AUTO 11004KT 9SM OVC013 06/05 A3001 RMK AO2 SLP164 T00560050=
201912051153 METAR KCLM 051153Z AUTO 11004KT 5SM BR OVC013 06/05 A3001 RMK AO2 SLP164 70011 T00560050 10056 20044 53004=
201912051053 METAR KCLM 051053Z AUTO 11005KT 10SM OVC012 06/05 A3000 RMK AO2 SLP162 T00560050=
201912050953 METAR KCLM 050953Z AUTO 11006KT 10SM OVC013 06/05 A3000 RMK AO2 SLP162 T00560050=
201912050853 METAR KCLM 050853Z AUTO 12004KT 4SM BR OVC013 06/05 A3000 RMK AO2 SLP160 T00560050 51013=
201912050807 SPECI KCLM 050807Z AUTO 12006KT 8SM OVC014 06/04 A3000 RMK AO2 T00560044=
201912050753 METAR KCLM 050753Z AUTO 12006KT 9SM OVC015 06/04 A3000 RMK AO2 SLP159 T00560044 400830039=
201912050653 METAR KCLM 050653Z AUTO 11005KT 10SM OVC019 06/04 A2998 RMK AO2 SLP154 T00560039=
201912050623 SPECI KCLM 050623Z AUTO 12006KT 10SM BKN018 OVC032 06/04 A2998 RMK AO2 T00560039=
201912050553 METAR KCLM 050553Z AUTO 13006KT 10SM BKN031 04/03 A2996 RMK AO2 SLP147 T00440028 10067 20039 51007=
201912050453 METAR KCLM 050453Z AUTO 11009KT 10SM BKN031 06/03 A2995 RMK AO2 SLP143 T00560033=
201912050446 SPECI KCLM 050446Z AUTO 11009KT 10SM OVC031 06/04 A2995 RMK AO2 T00610039=
201912050353 METAR KCLM 050353Z AUTO 11007KT 10SM OVC021 06/05 A2995 RMK AO2 SLP144 T00610050=
201912050253 METAR KCLM 050253Z AUTO 10004KT 10SM BKN022 OVC035 06/06 A2994 RMK AO2 SLP140 T00610056 53005=
201912050153 METAR KCLM 050153Z AUTO 14007KT 10SM OVC022 06/05 A2993 RMK AO2 SLP137 T00610050=
201912050053 METAR KCLM 050053Z AUTO 13007KT 10SM OVC020 06/06 A2993 RMK AO2 SLP137 T00610056=
201912050001 SPECI KCLM 050001Z AUTO 11006KT 10SM OVC015 07/06 A2992 RMK AO2 T00670061=
201912042353 METAR KCLM 042353Z AUTO 10005KT 10SM OVC013 07/06 A2992 RMK AO2 RAE2254 SLP135 P0001 60009 T00670061 10083 20067 53004=
201912042334 SPECI KCLM 042334Z AUTO 09006KT 9SM SCT007 OVC011 07/06 A2992 RMK AO2 RAE2254 P0001 T00670061=
201912042327 SPECI KCLM 042327Z AUTO 08007KT 6SM BR SCT003 OVC009 07/06 A2992 RMK AO2 RAE2254 CIG 007V013 P0001 T00670061=
201912042317 SPECI KCLM 042317Z AUTO 09006KT 2 1/2SM BR BKN005 OVC009 07/07 A2991 RMK AO2 RAE2254 CIG 002V008 P0001 T00670067=
201912042253 METAR KCLM 042253Z AUTO 07004KT 5SM -RA BR OVC004 07/07 A2991 RMK AO2 SLP132 P0003 T00670067=
201912042218 SPECI KCLM 042218Z AUTO 07004KT 3SM -RA BR BKN003 OVC007 07/07 A2991 RMK AO2 P0003 T00720067=
201912042204 SPECI KCLM 042204Z AUTO 08004KT 1 1/4SM -RA BR BKN003 OVC007 07/07 A2992 RMK AO2 P0002 T00720067=
201912042153 METAR KCLM 042153Z AUTO 06004KT 1 1/4SM -RA BR OVC005 07/07 A2992 RMK AO2 RAB2054 SLP133 P0004 T00720067=
201912042135 SPECI KCLM 042135Z AUTO 00000KT 1 1/4SM RA BR BKN005 OVC011 07/07 A2992 RMK AO2 RAB2054 CIG 004V010 P0002 T00720067=
201912042128 SPECI KCLM 042128Z AUTO 00000KT 2SM -RA BR BKN007 OVC011 07/07 A2992 RMK AO2 RAB2054 CIG 005V010 P0001 T00720067=
201912042053 METAR KCLM 042053Z AUTO 33004KT 8SM FEW003 OVC014 07/07 A2991 RMK AO2 RAE1959B29E39 SLP131 P0000 60001 T00720067 50000=
201912042042 SPECI KCLM 042042Z AUTO 00000KT 8SM SCT003 OVC014 08/07 A2991 RMK AO2 RAE1959B29E39 P0000 T00780072=
201912042031 SPECI KCLM 042031Z AUTO 32003KT 7SM -RA BKN003 OVC014 08/07 A2991 RMK AO2 RAE1959B29 P0000 T00780072=
201912042019 SPECI KCLM 042019Z AUTO 34003KT 7SM SCT003 BKN014 OVC028 08/07 A2991 RMK AO2 RAE1959 P0000 T00780072=
201912041955 SPECI KCLM 041955Z AUTO 00000KT 8SM -RA FEW003 BKN029 OVC055 08/08 A2991 RMK AO2 P0000 T00830078=
201912041953 METAR KCLM 041953Z AUTO 00000KT 7SM -RA BKN030 OVC055 08/08 A2991 RMK AO2 RAB08 SLP130 P0001 T00830078=
201912041937 SPECI KCLM 041937Z AUTO 00000KT 6SM -RA BR SCT010 OVC030 08/08 A2991 RMK AO2 RAB08 P0001 T00780078=
201912041912 SPECI KCLM 041912Z AUTO 22003KT 10SM -RA OVC009 08/07 A2992 RMK AO2 RAB08 P0000 T00780072=
201912041853 METAR KCLM 041853Z AUTO 25006KT 10SM OVC011 08/07 A2992 RMK AO2 RAB13E23 SLP133 P0000 T00780072=
201912041834 SPECI KCLM 041834Z AUTO 25005KT 10SM OVC010 08/07 A2992 RMK AO2 RAB13E23 P0000 T00780072=
201912041753 METAR KCLM 041753Z AUTO 26006KT 10SM SCT003 OVC007 08/08 A2991 RMK AO2 SLP131 60002 T00780078 10078 20061 53012=
201912041708 SPECI KCLM 041708Z AUTO 32003KT 9SM BKN004 OVC009 08/07 A2989 RMK AO2 CIG 002V006 T00780072=
201912041653 METAR KCLM 041653Z AUTO 00000KT 7SM FEW002 OVC009 08/08 A2988 RMK AO2 CIG 005V010 SLP120 T00780078=
201912041553 METAR KCLM 041553Z AUTO 22004KT 9SM BKN008 07/07 A2988 RMK AO2 RAB1459E42 SLP121 P0001 T00720072=
201912041546 SPECI KCLM 041546Z AUTO 22004KT 7SM BKN008 BKN013 OVC055 07/07 A2988 RMK AO2 RAB1459E42 P0001 T00670067=
201912041536 SPECI KCLM 041536Z AUTO 00000KT 6SM -RA BR SCT008 BKN013 OVC060 07/07 A2988 RMK AO2 RAB1459 P0001 T00670067=
201912041453 METAR KCLM 041453Z AUTO 33003KT 7SM SCT034 OVC049 07/07 A2988 RMK AO2 RAB12E49 SLP119 P0001 60001 T00670067 55002=
201912041425 SPECI KCLM 041425Z AUTO 00000KT 7SM -RA SCT030 OVC050 07/06 A2988 RMK AO2 RAB12 P0001 T00670061=
201912041415 SPECI KCLM 041415Z AUTO 00000KT 8SM -RA BKN029 OVC055 07/07 A2988 RMK AO2 RAB12 P0000 T00720067=
201912041353 METAR KCLM 041353Z AUTO 18003KT 10SM OVC055 06/06 A2988 RMK AO2 RAE24 SLP118 P0000 T00610061=
201912041253 METAR KCLM 041253Z AUTO 17003KT 8SM -RA OVC060 06/06 A2988 RMK AO2 RAB28 SLP119 P0000 T00610056=
201912041153 METAR KCLM 041153Z AUTO 00000KT 10SM FEW007 BKN060 OVC090 07/06 A2988 RMK AO2 SLP121 T00670061 10072 20056 56013=
201912041144 SPECI KCLM 041144Z AUTO 00000KT 10SM SCT007 BKN065 OVC090 06/06 A2988 RMK AO2 T00610056=
201912041136 SPECI KCLM 041136Z AUTO 00000KT 10SM BKN007 BKN065 OVC110 06/06 A2989 RMK AO2 T00610056=
201912041128 SPECI KCLM 041128Z AUTO 00000KT 10SM SCT007 BKN065 OVC110 06/06 A2989 RMK AO2 T00610061=
201912041053 METAR KCLM 041053Z AUTO 00000KT 10SM BKN055 OVC075 06/06 A2989 RMK AO2 SLP124 T00610061=
201912040953 METAR KCLM 040953Z AUTO 00000KT 10SM SCT065 OVC120 06/06 A2990 RMK AO2 SLP126 T00610056=
201912040853 METAR KCLM 040853Z AUTO 14003KT 10SM OVC055 06/06 A2992 RMK AO2 SLP133 T00610056 58009=
201912040753 METAR KCLM 040753Z AUTO 00000KT 10SM SCT060 BKN070 OVC110 06/06 A2993 RMK AO2 SLP138 T00610056 401000044=
201912040653 METAR KCLM 040653Z AUTO 22003KT 10SM SCT070 BKN080 OVC110 06/06 A2994 RMK AO2 SLP140 T00610056=
201912040553 METAR KCLM 040553Z AUTO 22003KT 10SM SCT060 OVC085 06/05 A2995 RMK AO2 SLP143 T00560050 10083 20044 58008=
201912040453 METAR KCLM 040453Z AUTO 20003KT 10SM OVC080 06/06 A2996 RMK AO2 SLP148 T00560056=
201912040353 METAR KCLM 040353Z AUTO 00000KT 8SM BKN075 05/05 A2997 RMK AO2 SLP149 T00500050=
201912040253 METAR KCLM 040253Z AUTO 00000KT 7SM BKN090 OVC110 06/06 A2997 RMK AO2 SLP151 T00610056 58020=
201912040153 METAR KCLM 040153Z AUTO 00000KT 10SM SCT060 SCT080 OVC110 07/06 A2999 RMK AO2 SLP158 T00720061=
201912040053 METAR KCLM 040053Z AUTO 00000KT 10SM FEW040 BKN060 OVC110 08/07 A3002 RMK AO2 SLP166 T00830072=
201912032353 METAR KCLM 032353Z AUTO 00000KT 10SM OVC110 08/07 A3003 RMK AO2 SLP172 T00830072 10100 20072 56014=
201912032253 METAR KCLM 032253Z AUTO 00000KT 10SM OVC085 09/07 A3004 RMK AO2 SLP175 T00940072=
201912032153 METAR KCLM 032153Z AUTO 00000KT 10SM OVC080 10/07 A3006 RMK AO2 SLP181 T01000072=
201912032053 METAR KCLM 032053Z AUTO 11004KT 10SM OVC085 10/07 A3007 RMK AO2 SLP186 T01000072 58012=
201912031953 METAR KCLM 031953Z AUTO 00000KT 10SM SCT085 BKN120 09/07 A3010 RMK AO2 SLP193 T00940072=
201912031853 METAR KCLM 031853Z AUTO 00000KT 10SM OVC110 09/07 A3010 RMK AO2 SLP194 T00890072=
201912031753 METAR KCLM 031753Z AUTO 00000KT 10SM SCT014 OVC075 07/07 A3011 RMK AO2 SLP197 60000 T00720067 10078 20044 53002=
201912031744 SPECI KCLM 031744Z AUTO 00000KT 10SM BKN014 OVC075 08/07 A3011 RMK AO2 T00780067=
201912031653 METAR KCLM 031653Z AUTO 12003KT 10SM OVC070 07/06 A3010 RMK AO2 SLP193 T00670056=
201912031553 METAR KCLM 031553Z AUTO 00000KT 10SM FEW047 OVC075 06/05 A3010 RMK AO2 RAE00 SLP195 P0000 T00610050=
201912031453 METAR KCLM 031453Z AUTO 20004KT 10SM -RA FEW055 BKN075 OVC110 06/05 A3007 RMK AO2 RAB47 SLP185 P0000 60000 T00560050 58012=
201912031401 SPECI KCLM 031401Z AUTO 20003KT 10SM FEW011 SCT016 OVC070 05/04 A3010 RMK AO2 T00500044=
201912031353 METAR KCLM 031353Z AUTO 18004KT 10SM BKN013 OVC070 05/04 A3011 RMK AO2 SLP197 T00500044=
201912031342 SPECI KCLM 031342Z AUTO 00000KT 10SM BKN013 OVC070 05/04 A3011 RMK AO2 T00500044=
201912031253 METAR KCLM 031253Z AUTO 00000KT 10SM OVC075 05/04 A3010 RMK AO2 SLP196 T00500044=
201912031153 METAR KCLM 031153Z AUTO 00000KT 10SM OVC075 04/04 A3011 RMK AO2 SLP196 T00440039 10050 20033 58008=
201912031119 SPECI KCLM 031119Z AUTO 00000KT 10SM FEW004 OVC070 04/04 A3012 RMK AO2 T00440039=
201912031053 METAR KCLM 031053Z AUTO 00000KT 10SM BKN004 OVC075 04/04 A3013 RMK AO2 SLP204 T00440039=
201912031050 SPECI KCLM 031050Z AUTO 00000KT 10SM BKN004 OVC075 04/04 A3013 RMK AO2=
201912031040 SPECI KCLM 031040Z AUTO 00000KT 10SM SCT004 OVC070 04/04 A3013 RMK AO2 T00440039=
201912031013 SPECI KCLM 031013Z AUTO 00000KT 8SM BKN004 OVC070 04/04 A3013 RMK AO2 T00440039=
201912030953 METAR KCLM 030953Z AUTO 00000KT 9SM FEW004 OVC075 04/04 A3013 RMK AO2 SLP204 T00440039=
201912030926 SPECI KCLM 030926Z AUTO 00000KT 10SM SCT004 OVC075 04/03 A3012 RMK AO2 T00440033=
201912030904 SPECI KCLM 030904Z AUTO 17004KT 10SM BKN004 OVC080 04/03 A3013 RMK AO2 T00440033=
201912030853 METAR KCLM 030853Z AUTO 00000KT 9SM SCT004 OVC080 04/03 A3013 RMK AO2 SLP204 T00440033 58004=
201912030753 METAR KCLM 030753Z AUTO 22004KT 10SM OVC055 04/04 A3014 RMK AO2 SLP208 T00440039 400670022=
201912030653 METAR KCLM 030653Z AUTO 00000KT 9SM OVC055 04/03 A3014 RMK AO2 SLP208 T00390028=
201912030553 METAR KCLM 030553Z AUTO 00000KT 8SM OVC055 03/03 A3014 RMK AO2 SLP209 T00330033 10061 20033 55003=
201912030453 METAR KCLM 030453Z AUTO 14005KT 8SM FEW055 SCT100 04/03 A3014 RMK AO2 SLP207 T00390028=
201912030353 METAR KCLM 030353Z AUTO 00000KT 9SM FEW049 BKN065 04/03 A3014 RMK AO2 SLP208 T00440033=
201912030253 METAR KCLM 030253Z AUTO 00000KT 10SM OVC045 06/04 A3015 RMK AO2 SLP212 T00560039 51006=
201912030153 METAR KCLM 030153Z AUTO 00000KT 10SM BKN045 OVC055 06/04 A3015 RMK AO2 SLP210 T00610039=
201912030053 METAR KCLM 030053Z AUTO 00000KT 10SM OVC049 06/04 A3014 RMK AO2 SLP208 T00610039=
201912022353 METAR KCLM 022353Z AUTO 10003KT 10SM OVC055 06/04 A3013 RMK AO2 SLP205 T00610039 10067 20061 56004=
201912022253 METAR KCLM 022253Z AUTO 08005KT 10SM OVC060 06/03 A3013 RMK AO2 SLP206 T00610033=
201912022153 METAR KCLM 022153Z AUTO 07005KT 10SM OVC065 07/03 A3013 RMK AO2 SLP204 T00670033=
201912022053 METAR KCLM 022053Z AUTO 09004KT 10SM OVC060 06/03 A3014 RMK AO2 SLP209 T00610028 51003=
201912021953 METAR KCLM 021953Z AUTO 07004KT 10SM OVC060 06/02 A3014 RMK AO2 SLP208 T00610022=
201912021853 METAR KCLM 021853Z AUTO 07004KT 10SM BKN050 OVC080 07/02 A3014 RMK AO2 SLP210 T00670022=
201912021753 METAR KCLM 021753Z AUTO 11004KT 10SM OVC065 06/02 A3014 RMK AO2 SLP207 T00610022 10061 20022 53012=
201912021653 METAR KCLM 021653Z AUTO 00000KT 10SM OVC060 04/03 A3012 RMK AO2 SLP202 T00390028=
201912021637 SPECI KCLM 021637Z AUTO 14003KT 10SM SCT016 OVC060 03/02 A3012 RMK AO2 T00330017=
201912021553 METAR KCLM 021553Z AUTO 00000KT 10SM OVC015 02/01 A3011 RMK AO2 SLP200 T00220011=
201912021533 SPECI KCLM 021533Z AUTO 00000KT 10SM OVC015 02/02 A3011 RMK AO2 T00220017=
201912021453 METAR KCLM 021453Z AUTO 00000KT 10SM OVC014 03/02 A3010 RMK AO2 SLP196 T00280017 55000=
201912021353 METAR KCLM 021353Z AUTO 00000KT 10SM OVC016 03/01 A3010 RMK AO2 SLP195 T00280011=
201912021253 METAR KCLM 021253Z AUTO 00000KT 10SM OVC018 03/01 A3010 RMK AO2 SLP196 T00280011=
201912021153 METAR KCLM 021153Z AUTO VRB03KT 10SM OVC016 05/03 A3010 RMK AO2 SLP194 T00500028 10050 20022 53010=
201912021053 METAR KCLM 021053Z AUTO VRB04KT 10SM OVC016 05/02 A3008 RMK AO2 SLP189 T00500022=
201912020953 METAR KCLM 020953Z AUTO 00000KT 10SM OVC015 02/01 A3007 RMK AO2 SLP185 T00220011=
201912020937 SPECI KCLM 020937Z AUTO VRB03KT 10SM OVC015 02/01 A3007 RMK AO2 T00220011=
201912020913 SPECI KCLM 020913Z AUTO 20005KT 10SM OVC014 03/01 A3008 RMK AO2 T00280011=
201912020853 METAR KCLM 020853Z AUTO VRB03KT 10SM OVC015 02/01 A3007 RMK AO2 SLP184 T00220011 51016=
201912020753 METAR KCLM 020753Z AUTO VRB03KT 10SM OVC018 03/02 A3006 RMK AO2 SLP180 T00330017 400501033=
201912020653 METAR KCLM 020653Z AUTO VRB03KT 10SM OVC019 03/02 A3004 RMK AO2 SLP177 T00330017=
201912020553 METAR KCLM 020553Z AUTO 16003KT 10SM OVC019 03/02 A3002 RMK AO2 SLP169 60000 T00330017 10044 20011 50005=
201912020453 METAR KCLM 020453Z AUTO 19003KT 10SM OVC019 03/02 A3002 RMK AO2 RAE00 SLP169 P0000 T00280017=
201912020353 METAR KCLM 020353Z AUTO 05004KT 8SM -RA BKN017 OVC026 04/02 A3001 RMK AO2 RAB16 SLP166 P0000 T00440017=
201912020253 METAR KCLM 020253Z AUTO 00000KT 10SM OVC029 03/01 A3001 RMK AO2 SLP164 T00330011 51012=
201912020153 METAR KCLM 020153Z AUTO 24005KT 10SM BKN029 OVC070 02/01 A3000 RMK AO2 SLP161 T00220006=
201912020150 SPECI KCLM 020150Z AUTO 22005KT 10SM BKN029 OVC070 02/01 A3000 RMK AO2=
201912020053 METAR KCLM 020053Z AUTO 21003KT 10SM FEW060 OVC080 02/01 A2997 RMK AO2 SLP152 T00220006=
201912012353 METAR KCLM 012353Z AUTO 22003KT 10SM OVC060 03/01 A2995 RMK AO2 RAE02 SLP143 P0000 60000 T00330006 10050 20022 53005=
201912012253 METAR KCLM 012253Z AUTO 07003KT 10SM -RA SCT055 OVC070 05/M01 A2993 RMK AO2 RAB05E15B42 SLP139 P0000 T00501006=
201912012153 METAR KCLM 012153Z AUTO 10005KT 10SM OVC060 05/M01 A2993 RMK AO2 SLP139 T00501006=
201912012053 METAR KCLM 012053Z AUTO 12003KT 10SM OVC060 05/M01 A2993 RMK AO2 SLP138 T00501006 53003=
201912011953 METAR KCLM 011953Z AUTO 00000KT 10SM OVC055 05/M01 A2992 RMK AO2 SLP136 T00501006=
201912011915 SPECI KCLM 011915Z AUTO 00000KT 10SM SCT022 OVC060 04/M02 A2992 RMK AO2 T00391017=
201912011853 METAR KCLM 011853Z AUTO 24004KT 10SM OVC024 03/M02 A2993 RMK AO2 SLP137 T00331017=
201912011802 SPECI KCLM 011802Z AUTO 22007KT 10SM OVC029 02/M02 A2992 RMK AO2 T00221017=
201912011753 METAR KCLM 011753Z AUTO 21006KT 10SM BKN031 OVC085 02/M02 A2992 RMK AO2 SLP135 T00221022 10022 21011 52010=
201912011653 METAR KCLM 011653Z AUTO 23007KT 10SM OVC075 02/M03 A2991 RMK AO2 SLP132 T00171028=
201912011553 METAR KCLM 011553Z AUTO 22004KT 10SM BKN100 BKN120 M01/M03 A2990 RMK AO2 SLP130 T10061028=
201912011453 METAR KCLM 011453Z AUTO 21005KT 10SM BKN080 OVC095 00/M03 A2989 RMK AO2 SLP125 T00001028 55002=
201912011353 METAR KCLM 011353Z AUTO 15003KT 10SM OVC095 00/M02 A2989 RMK AO2 SLP125 T00001022=
201912011253 METAR KCLM 011253Z AUTO 13004KT 10SM OVC075 01/M02 A2989 RMK AO2 SLP125 T00111017=
201912011153 METAR KCLM 011153Z AUTO 19004KT 10SM OVC085 M01/M02 A2990 RMK AO2 SLP128 I6000 T10061022 10000 21056 56009=
201912011053 METAR KCLM 011053Z AUTO 00000KT 10SM OVC100 M01/M02 A2991 RMK AO2 SLP131 T10111022=
201912010953 METAR KCLM 010953Z AUTO 17004KT 10SM SCT024 OVC110 M02/M03 A2991 RMK AO2 SLP133 T10171033=
201912010853 METAR KCLM 010853Z AUTO 19003KT 10SM CLR M02/M03 A2993 RMK AO2 SLP137 I3000 T10221033 56014=
201912010753 METAR KCLM 010753Z AUTO 21005KT 9SM CLR M03/M04 A2993 RMK AO2 SLP140 I1000 T10331044 400391056=
201912010653 METAR KCLM 010653Z AUTO 00000KT 10SM CLR M04/M05 A2996 RMK AO2 SLP147 I1000 T10391050=
201912010553 METAR KCLM 010553Z AUTO 13003KT 10SM CLR M04/M04 A2997 RMK AO2 SLP152 I1000 I6000 T10391044 10017 21050 56018=
201912010453 METAR KCLM 010453Z AUTO 00000KT 10SM CLR M04/M04 A2998 RMK AO2 SLP156 I1000 T10441044=
201912010353 METAR KCLM 010353Z AUTO 00000KT 10SM CLR M04/M05 A3000 RMK AO2 SLP163 T10441050=
201912010253 METAR KCLM 010253Z AUTO 00000KT 10SM CLR M02/M04 A3002 RMK AO2 SLP170 T10171039 56010=
201912010153 METAR KCLM 010153Z AUTO 12004KT 10SM CLR M01/M03 A3003 RMK AO2 SLP173 T10111033=
201912010053 METAR KCLM 010053Z AUTO 15005KT 10SM CLR M01/M04 A3004 RMK AO2 SLP176 T10111039=

# No short TAF reports from KCLM in databse.

###################################
#  large TAF from KCLM
###################################
201912312332 TAF KCLM 312332Z 0100/0124 25009KT 5SM -RA BR SCT025 OVC050 FM010200
                       27014KT 5SM -RA BR SCT015 OVC025 FM010900
                       28014G27KT P6SM SCT007 SCT025 OVC050=
201912311739 TAF KCLM 311739Z 3118/0118 15004KT 4SM -RA BR SCT003 SCT007 OVC070
                       FM311900 25009KT 2SM -RA BR SCT015 OVC025
                       FM010200 27013G22KT 5SM -RA BR SCT007 OVC015
                       FM010900 28014G27KT P6SM SCT007 SCT025 OVC050=
201912311145 TAF KCLM 311145Z 3112/0112 22005KT 6SM -RA BR SCT020 OVC080 FM311800
                       24008KT 2SM -RA BR SCT007 OVC010 FM010200
                       27013G22KT 5SM -RA BR SCT007 OVC015=
201912310525 TAF KCLM 310525Z 3106/0106 VRB03KT P6SM VCSH OVC015 FM310900 24006KT
                       4SM -RA BR OVC015 FM311800 24008KT 2SM -RA
                       BR SCT007 OVC010 FM010200 27013G22KT 5SM
                       -RA BR SCT007 OVC015=
201912302339 TAF KCLM 302339Z 3100/3124 VRB03KT P6SM SCT010 OVC020 FM310500
                       24006KT P6SM VCSH OVC015 FM310900 24006KT
                       4SM -RA BR OVC015 FM311800 24008KT 2SM -RA
                       BR SCT007 OVC010=
201912301739 TAF KCLM 301739Z 3018/3118 VRB03KT P6SM SCT025 OVC250 FM302200
                       VRB03KT P6SM SCT010 OVC030 FM310500 24006KT
                       P6SM VCSH OVC030 FM310900 24006KT 4SM -RA
                       BR OVC015=
201912301326 KCLM 301326Z 3013/3112 VRB04KT P6SM VCSH SCT018 BKN030
                      TEMPO 3013/3016 3SM BR FM301600 VRB03KT P6SM
                       BKN025 FM302000 VRB03KT P6SM SCT010 OVC030
                       FM310500 24006KT P6SM VCSH OVC030 FM310900
                       24006KT 6SM -RA BR OVC015=
201912301130 TAF KCLM 301130Z 3012/3112 00000KT P6SM VCSH OVC018
                      TEMPO 3012/3015 3SM BR FM301500 VRB03KT P6SM
                       SCT007 OVC020 FM302000 VRB03KT P6SM SCT010
                       OVC030 FM310500 24006KT P6SM VCSH OVC030
                       FM310900 24006KT 6SM -RA BR OVC015=
201912300647 KCLM 300647Z 3007/3106 VRB03KT P6SM OVC030
                      TEMPO 3007/3009 1 1/2SM -RA BR OVC015 FM300900
                       25004KT P6SM SCT007 OVC015 FM302000 VRB03KT
                       P6SM SCT010 OVC030=
201912300529 TAF KCLM 300529Z 3006/3106 VRB03KT P6SM OVC030 FM300900 25004KT
                       P6SM SCT007 OVC015 FM302000 VRB03KT P6SM
                       SCT010 OVC030=
201912292336 TAF KCLM 292336Z 3000/3024 25003KT P6SM OVC015 FM300900 25004KT
                       P6SM SCT007 OVC015=
201912291744 TAF KCLM 291744Z 2918/3018 VRB03KT P6SM OVC010 FM292100 VRB03KT
                       P6SM SCT010 BKN050 OVC120 FM300900 25004KT
                       P6SM OVC015=
201912291138 TAF KCLM 291138Z 2912/3012 00000KT P6SM OVC011 FM291400 VRB03KT
                       P6SM SCT015 BKN030 OVC050 FM291800 VRB03KT
                       P6SM BKN050 OVC100 FM300200 VRB03KT P6SM
                       BKN120=
201912290540 TAF KCLM 290540Z 2906/3006 VRB03KT P6SM OVC010 FM291400 VRB03KT
                       P6SM SCT015 BKN030 OVC050 FM291800 VRB03KT
                       P6SM BKN050 OVC100 FM300200 VRB03KT P6SM
                       BKN120=
201912282320 TAF KCLM 282320Z 2900/2924 VRB03KT P6SM VCSH OVC060 FM290500 VRB03KT
                       P6SM VCSH OVC020=
201912281725 TAF KCLM 281725Z 2818/2918 25005KT P6SM OVC011 FM282000 VRB04KT
                       P6SM OVC025 FM290000 VRB03KT P6SM VCSH BKN025
                       OVC050 FM291200 VRB03KT P6SM OVC015=
201912281120 TAF KCLM 281120Z 2812/2912 00000KT P6SM BKN050 OVC100 FM290000
                       VRB03KT P6SM BKN025 OVC050=
201912280544 TAF KCLM 280544Z 2806/2906 VRB03KT P6SM SCT050 BKN100 FM281600
                       VRB03KT P6SM OVC050 FM282200 12003KT P6SM
                       OVC025=
201912272324 TAF KCLM 272324Z 2800/2824 VRB03KT P6SM SCT015 OVC050 FM282200
                       12003KT P6SM OVC025=
201912271722 TAF KCLM 271722Z 2718/2818 25003KT P6SM SCT009 OVC040 FM272100
                       VRB03KT P6SM BKN050 FM280800 22003KT P6SM
                       OVC050=
201912271125 TAF KCLM 271125Z 2712/2812 00000KT P6SM -RA SCT025 BKN045 OVC050
                       FM271300 21003KT P6SM VCSH SCT025 BKN050
                       FM272100 VRB03KT P6SM BKN050 FM280800 22003KT
                       P6SM OVC025=
201912270534 TAF KCLM 270534Z 2706/2806 25005KT P6SM VCSH SCT015 OVC060
                      TEMPO 2706/2710 -SHRA FM271000 VRB03KT P6SM
                       VCSH SCT025 BKN050 FM272100 VRB03KT P6SM
                       BKN050=
201912262320 TAF KCLM 262320Z 2700/2724 VRB04KT P6SM VCSH SCT010 OVC060 FM270200
                       VRB04KT 6SM -SHRA SCT020 OVC050 FM270700
                       25005KT P6SM OVC020 FM272000 VRB03KT P6SM
                       OVC025=
201912261720 TAF KCLM 261720Z 2618/2718 VRB03KT P6SM OVC035 FM262000 VRB05KT
                       P6SM BKN120 BKN250 FM262300 VRB04KT P6SM
                       VCSH OVC060 FM270200 VRB04KT 6SM -SHRA SCT020
                       OVC050 FM270700 25005KT P6SM OVC025=
201912261131 TAF KCLM 261131Z 2612/2712 00000KT P6SM OVC025 FM261600 VRB03KT
                       P6SM FEW025 SCT250 FM261900 VRB05KT P6SM
                       BKN120 BKN250 FM262300 VRB04KT P6SM VCSH
                       OVC060 FM270200 VRB04KT 6SM -SHRA SCT020
                       OVC050 FM270700 25005KT P6SM OVC025=
201912260528 TAF KCLM 260528Z 2606/2706 00000KT P6SM OVC025 FM261600 VRB03KT
                       P6SM FEW025 SCT250 FM261900 VRB05KT P6SM
                       BKN120 BKN250 FM262300 VRB04KT P6SM VCSH
                       OVC060 FM270200 VRB04KT 6SM -SHRA SCT020
                       OVC050=
201912252320 TAF KCLM 252320Z 2600/2624 VRB04KT P6SM OVC030 FM260600 22003KT
                       P6SM OVC030 FM261600 VRB03KT P6SM OVC030=
201912251720 TAF KCLM 251720Z 2518/2618 VRB04KT P6SM BKN015 OVC025
                      TEMPO 2518/2522 5SM BR OVC012 FM252200 VRB04KT
                       P6SM FEW030 BKN050 FM260600 20003KT P6SM
                       SCT250=
201912251137 TAF KCLM 251137Z 2512/2612 23005KT P6SM VCSH OVC015
                      TEMPO 2512/2515 5SM -RA BR FM251900 VRB04KT
                       P6SM OVC025 FM252200 VRB04KT P6SM FEW030
                       BKN050 FM260600 20003KT P6SM SCT250=
201912250526 TAF KCLM 250526Z 2506/2606 23005KT P6SM VCSH OVC015 FM251900 VRB04KT
                       P6SM OVC025 FM252200 VRB04KT P6SM FEW030
                       BKN050=
201912242320 TAF KCLM 242320Z 2500/2524 VRB03KT P6SM SCT060 OVC100 FM250300
                       21004KT P6SM BKN030 OVC050
                      TEMPO 2504/2508 -RA OVC015 FM251000 24003KT
                       P6SM BKN015 OVC025 FM251900 VRB03KT P6SM
                       OVC020=
201912241722 TAF KCLM 241722Z 2418/2518 VRB03KT P6SM SCT040 OVC100 FM242000
                       06004KT P6SM SCT020 OVC040 FM250300 21004KT
                       P6SM BKN020 OVC030
                      TEMPO 2503/2507 -RA OVC015 FM251000 20003KT
                       P6SM BKN015 OVC025=
201912241133 TAF KCLM 241133Z 2412/2512 24003KT P6SM BKN040
                      TEMPO 2412/2416 FEW007 FM241900 09004KT P6SM
                       SCT020 OVC035 FM250300 21004KT P6SM BKN020
                       OVC025 FM250500 20003KT P6SM BKN015 OVC025=
201912240649 KCLM 240649Z 2407/2506 22005KT P6SM SKC FM241200 24003KT P6SM BKN040
                       FM241800 09004KT P6SM SCT020 OVC035 FM250300
                       21004KT P6SM BKN015 OVC025=
201912240554 TAF KCLM 240554Z 2406/2506 21005KT P6SM BKN030 FM241800 10004KT
                       P6SM SCT020 OVC030=
201912232320 TAF KCLM 232320Z 2400/2424 VRB04KT P6SM SCT015 BKN040 FM240300
                       21005KT P6SM BKN030 FM241800 10004KT P6SM
                       SCT020 OVC030=
201912231722 TAF KCLM 231722Z 2318/2418 25005KT P6SM OVC020 FM231900 VRB04KT
                       P6SM BKN040 FM240300 25005KT P6SM BKN030=
201912231308 KCLM 231308Z 2313/2412 25005KT P6SM VCSH OVC025
                      TEMPO 2313/2317 -RA BKN011 FM231800 VRB04KT
                       P6SM BKN040 FM240300 25005KT P6SM BKN030=
201912231129 TAF KCLM 231129Z 2312/2412 25005KT P6SM VCSH FEW017 OVC045
                      TEMPO 2312/2316 -RA BKN017 FM231800 VRB04KT
                       P6SM BKN040 FM240300 25005KT P6SM BKN030=
201912231000 KCLM 231000Z 2310/2406 25005KT P6SM BKN035 OVC050 FM231800 VRB04KT
                       P6SM BKN040 FM240300 25005KT P6SM BKN030
                       OVC050=
201912230548 TAF KCLM 230548Z 2306/2406 25003KT P6SM OVC040 FM230900 25005KT
                       P6SM OVC022 FM231800 VRB04KT P6SM BKN025
                       BKN040 FM240300 25005KT P6SM BKN030 OVC050=
201912222339 TAF KCLM 222339Z 2300/2324 VRB04KT P6SM SCT015 OVC035 FM230500
                       26005KT P6SM OVC035 FM230900 25005KT P6SM
                       OVC022 FM231800 VRB04KT P6SM BKN025 BKN040=
201912221733 TAF KCLM 221733Z 2218/2318 VRB04KT P6SM SCT040 BKN100 OVC200
                      TEMPO 2218/2222 BKN030 FM222200 31006KT P6SM
                       SCT050 OVC100 FM230500 26005KT P6SM OVC050
                       FM231200 25005KT P6SM OVC027=
201912221125 TAF KCLM 221125Z 2212/2312 21004KT P6SM FEW010 BKN100 OVC200 FM221800
                       VRB04KT P6SM SCT040 BKN100 OVC200 FM230300
                       25008KT P6SM BKN040 OVC100=
201912220526 TAF KCLM 220526Z 2206/2306 00000KT 6SM BR VCSH BKN060
                      TEMPO 2206/2210 3SM BR SCT002 FM221500 VRB05KT
                       P6SM BKN060 FM222100 04005KT P6SM SCT060
                       BKN100 FM230300 25005KT P6SM BKN050 BKN100=
201912212335 TAF KCLM 212335Z 2200/2224 VRB04KT P6SM VCSH BKN035 BKN060 FM220800
                       24004KT P6SM BKN040 FM221500 VRB05KT P6SM
                       BKN060 FM222100 04005KT P6SM BKN100=
201912211741 TAF KCLM 211741Z 2118/2218 VRB04KT P6SM VCSH BKN045 BKN070 FM220000
                       27004KT P6SM BKN035 FM220800 24004KT P6SM
                       BKN050=
201912211124 TAF KCLM 211124Z 2112/2212 24004KT P6SM -RA BKN045 OVC060 FM211800
                       29004KT P6SM OVC050 FM220000 27004KT P6SM
                       BKN030=
201912210523 TAF KCLM 210523Z 2106/2206 25004KT 4SM -RA BR OVC015 FM211800 29004KT
                       P6SM OVC025 FM212200 33004KT P6SM OVC050=
201912202338 TAF KCLM 202338Z 2100/2124 VRB03KT 4SM -RA BR OVC040 FM210200 25004KT
                       4SM -RA BR OVC025 FM210500 25004KT 4SM -RA
                       BR OVC015 FM211800 29004KT P6SM OVC025=
201912201732 TAF KCLM 201732Z 2018/2118 27005KT 5SM -RA BR SCT005 BKN010 OVC020
                       FM202000 VRB03KT 4SM -RA BR OVC015=
201912201701 KCLM 201701Z 2017/2112 27005KT 5SM -RA BR BKN005 BKN010 OVC020
                       FM202000 VRB03KT P6SM -RA OVC015=
201912201130 TAF KCLM 201130Z 2012/2112 VRB04KT 5SM -RA BR OVC045 FM202000 VRB03KT
                       P6SM -RA OVC020=
201912200923 KCLM 200923Z 2009/2106 VRB04KT 6SM -RA BR OVC050 FM201300 27006KT
                       5SM -RA BR OVC015 FM202000 VRB03KT 4SM -RA
                       BR OVC010=
201912200535 TAF KCLM 200535Z 2006/2106 VRB04KT 5SM -RA BR SCT015 OVC050
                      TEMPO 2006/2010 BKN015 FM201000 27006KT 5SM
                       -RA BR OVC015 FM202000 VRB03KT 4SM -RA BR
                       OVC010=
201912192320 TAF KCLM 192320Z 2000/2024 VRB04KT 3SM -RA BR SCT005 OVC040 FM200200
                       VRB03KT 4SM -RA BR OVC010 FM200600 27005KT
                       5SM -RA BR OVC015 FM202000 VRB03KT 4SM -RA
                       BR OVC010=
201912192241 KCLM 192241Z 1923/2018 VRB04KT 3SM -RA BR SCT005 BKN025 OVC040
                       FM200200 VRB03KT 4SM -RA BR OVC010 FM200600
                       27005KT 5SM -RA BR OVC015=
201912191720 TAF KCLM 191720Z 1918/2018 00000KT P6SM SCT060 BKN100 FM191900
                       12005KT P6SM SCT050 OVC100 FM192300 VRB04KT
                       P6SM -RA BKN025 OVC040 FM200200 VRB03KT
                       4SM -RA BR OVC010 FM200600 27005KT 5SM -RA
                       BR OVC015=
201912191133 TAF KCLM 191133Z 1912/2012 00000KT P6SM SCT060 BKN200 FM191800
                       10005KT P6SM SCT050 OVC100 FM192300 VRB04KT
                       P6SM -RA BKN025 OVC040 FM200200 22003KT
                       4SM -RA BR OVC010=
201912190824 KCLM 190824Z 1908/2006 28006KT P6SM SCT015 BKN060
                      TEMPO 1908/1912 -RA BKN015 OVC060 FM191200
                       24005KT P6SM OVC050 FM191800 26005KT P6SM
                       -RA OVC025 FM200100 13003KT 4SM -RA BR OVC010=
201912190536 TAF KCLM 190536Z 1906/2006 28005KT P6SM -RA SCT008 BKN010 OVC080
                       FM190900 24005KT P6SM OVC050 FM191800 26005KT
                       P6SM -RA OVC025 FM200100 13003KT 4SM -RA
                       BR OVC010=
201912182320 TAF KCLM 182320Z 1900/1924 23005KT P6SM -RA BKN015 OVC050 FM190900
                       23005KT P6SM OVC050 FM191800 26005KT P6SM
                       -RA OVC025=
201912181720 TAF KCLM 181720Z 1818/1918 VRB03KT P6SM VCSH OVC070 FM182200 VRB03KT
                       5SM -RA BR OVC020 FM190000 22005KT 4SM -RA
                       BR OVC015 FM190900 23005KT P6SM OVC050=
201912181139 TAF KCLM 181139Z 1812/1912 VRB03KT P6SM VCSH FEW003 BKN040 OVC070
                       TEMPO 1812/1816 BKN004 FM182000 11003KT
                       5SM -RA BR OVC020 FM190000 19005KT 4SM -RA
                       BR OVC015=
201912181011 KCLM 181011Z 1810/1906 VRB03KT P6SM VCSH FEW004 BKN040 OVC070
                      TEMPO 1813/1817 -RA OVC035 FM181700 16004KT
                       5SM -RA BR OVC030 FM182000 11003KT 5SM -RA
                       BR OVC020 FM190000 19005KT 4SM -RA BR OVC015=
201912180902 KCLM 180902Z 1809/1906 VRB03KT P6SM OVC004 FM181300 22004KT P6SM
                       VCSH BKN004 OVC040
                      TEMPO 1813/1817 -RA OVC035 FM181700 16004KT
                       5SM -RA BR OVC030 FM182000 11003KT 5SM -RA
                       BR OVC020 FM190000 19005KT 4SM -RA BR OVC015=
201912180741 KCLM 180741Z 1808/1906 VRB03KT P6SM BKN100 FM181300 22004KT P6SM
                       VCSH OVC040
                      TEMPO 1813/1817 -RA OVC035 FM181700 16004KT
                       5SM -RA BR OVC030 FM182000 11003KT 5SM -RA
                       BR OVC020 FM190000 19005KT 4SM -RA BR OVC015=
201912180538 TAF KCLM 180538Z 1806/1906 VRB03KT P6SM BKN100 OVC200
                      TEMPO 1806/1810 4SM BR FM181300 22004KT P6SM
                       VCSH OVC040
                      TEMPO 1813/1817 -RA OVC030 FM181700 10004KT
                       5SM -RA BR OVC020 FM190000 19005KT 6SM -RA
                       BR OVC015=
201912172320 TAF KCLM 172320Z 1800/1824 VRB03KT P6SM BKN100 OVC200 FM181300
                       22004KT P6SM VCSH OVC040
                      TEMPO 1813/1817 -RA OVC030 FM181700 10004KT
                       5SM -RA BR OVC020=
201912171726 KCLM 171726Z 1717/1818 VRB03KT P6SM SCT010 BKN050 OVC120 FM180000
                       21003KT P6SM BKN100 OVC200 FM181300 22004KT
                       P6SM VCSH OVC040
                      TEMPO 1814/1818 -RA OVC030=
201912171721 TAF KCLM 171721Z 1718/1818 23003KT P6SM OVC007 FM171900 VRB03KT
                       P6SM SCT010 BKN050 OVC120 FM180000 21003KT
                       P6SM BKN100 OVC200 FM181300 22004KT P6SM
                       VCSH OVC040
                      TEMPO 1814/1818 -RA OVC030=
201912171542 KCLM 171542Z 1716/1812 23003KT P6SM OVC007 FM171800 VRB03KT P6SM
                       SCT020 BKN050 OVC120 FM180000 21003KT P6SM
                       BKN100 OVC200=
201912171120 TAF KCLM 171120Z 1712/1812 22003KT P6SM OVC010 FM171500 VRB03KT
                       P6SM SCT020 BKN050 OVC120 FM180000 21003KT
                       P6SM BKN100 OVC200=
201912170534 TAF KCLM 170534Z 1706/1806 13003KT P6SM BKN100 FM170800 16003KT
                       P6SM SCT050 BKN120 FM171300 21003KT P6SM
                       SCT050 BKN120 FM171900 12002KT P6SM SCT050
                       OVC100 FM180000 12003KT P6SM OVC100=
201912162320 TAF KCLM 162320Z 1700/1724 VRB03KT P6SM BKN050 OVC100 FM170800
                       10006KT P6SM SCT050 BKN120=
201912161720 TAF KCLM 161720Z 1618/1718 22004KT P6SM BKN050 OVC090 FM162000
                       VRB03KT P6SM -RA SCT015 OVC040
                      TEMPO 1620/1624 3SM -RA BR BKN012 OVC030
                       FM170400 00000KT P6SM SCT010 BKN040 BKN080
                       TEMPO 1704/1708 4SM BR BKN010 OVC040 FM170800
                       10006KT P6SM SCT010 SCT040 BKN120 FM171500
                       10008KT P6SM BKN200=
201912161124 TAF KCLM 161124Z 1612/1712 00000KT P6SM SCT040 OVC080 FM161400
                       00000KT P6SM BKN040 OVC080 FM162000 VRB03KT
                       P6SM -RA BKN015 OVC040 FM170400 00000KT
                       P6SM BKN040 BKN080 FM170800 21003KT P6SM
                       SCT050 BKN100=
201912160538 TAF KCLM 160538Z 1606/1706 22005KT P6SM BKN040 BKN100 FM161400
                       VRB05KT P6SM VCSH BKN040 OVC100 FM170000
                       VRB04KT P6SM BKN050=
201912152320 TAF KCLM 152320Z 1600/1624 23006KT P6SM SCT040 FM160600 VRB03KT
                       P6SM BKN040 BKN120 FM161200 09005KT P6SM
                       OVC040=
201912151720 TAF KCLM 151720Z 1518/1618 23006KT P6SM SCT040 FM160600 VRB03KT
                       P6SM SCT010 BKN120 OVC200=
201912151121 TAF KCLM 151121Z 1512/1612 23005KT P6SM SCT035 BKN045 FM151800
                       VRB04KT P6SM BKN050=
201912150807 KCLM 150807Z 1508/1606 22005KT P6SM FEW017 OVC030 FM151000 23005KT
                       P6SM BKN012 OVC030 FM151800 VRB04KT P6SM
                       SCT015 BKN040 FM152200 VRB04KT P6SM BKN050=
201912150536 TAF KCLM 150536Z 1506/1606 22005KT P6SM VCSH SCT012 OVC035
                      TEMPO 1506/1509 6SM -SHRA BR BKN012 FM150900
                       23005KT P6SM BKN012 OVC050 FM151800 VRB04KT
                       P6SM SCT015 BKN040 FM152200 VRB04KT P6SM
                       BKN050=
201912142338 TAF KCLM 142338Z 1500/1524 VRB04KT P6SM SCT030
                      TEMPO 1503/1507 BKN020 FM150700 23005KT P6SM
                       OVC015 FM151900 VRB04KT P6SM SCT015 BKN040=
201912141732 TAF KCLM 141732Z 1418/1518 23005KT P6SM BKN070 FM142000 VRB04KT
                       P6SM BKN050 FM150400 23005KT P6SM OVC015=
201912141141 TAF KCLM 141141Z 1412/1512 23005KT P6SM BKN070 FM142000 VRB04KT
                       P6SM BKN050 FM150400 23005KT P6SM OVC015=
201912140529 TAF KCLM 140529Z 1406/1506 23005KT P6SM BKN070
                      TEMPO 1409/1413 BKN025 FM142000 VRB04KT P6SM
                       BKN050=
201912132326 TAF KCLM 132326Z 1400/1424 VRB04KT P6SM VCSH SCT025 BKN060
                      TEMPO 1400/1404 3SM -RA BR BKN020 FM140400
                       23003KT P6SM VCSH SCT030 OVC050 FM140900
                       23004KT P6SM OVC025 FM142000 VRB04KT P6SM
                       SCT030 BKN050=
201912131726 TAF KCLM 131726Z 1318/1418 VRB04KT P6SM VCSH SCT035 BKN060
                      TEMPO 1318/1322 -SHRA BKN030 FM140300 23003KT
                       P6SM VCSH SCT030 OVC050 FM140700 23004KT
                       P6SM OVC025=
201912131120 TAF KCLM 131120Z 1312/1412 VRB04KT P6SM VCSH SCT040 OVC060
                      TEMPO 1312/1316 5SM -SHRA BR OVC035 FM131700
                       VRB04KT P6SM BKN060 FM140300 23003KT P6SM
                       VCSH SCT030 OVC050 FM140700 23004KT P6SM
                       OVC025=
201912130528 TAF KCLM 130528Z 1306/1406 VRB04KT P6SM VCSH BKN060 OVC080
                      TEMPO 1306/1309 6SM -SHRA BR BKN040 FM130900
                       24005KT P6SM VCSH SCT040 OVC060 FM131700
                       VRB04KT P6SM BKN060 FM140300 VRB03KT P6SM
                       VCSH SCT030 OVC050=
201912130306 KCLM 130306Z 1303/1324 VRB04KT P6SM -RA FEW007 OVC040 FM130700
                       25005KT P6SM VCSH SCT020 BKN040 FM131700
                       VRB04KT P6SM BKN035=
201912122321 TAF KCLM 122321Z 1300/1324 VRB05KT P6SM -RA SCT015 BKN040
                      TEMPO 1300/1304 3SM -RA BR BKN015 OVC030
                       FM130400 25005KT P6SM VCSH SCT020 BKN040
                       FM131700 VRB04KT P6SM BKN035=
201912121731 TAF KCLM 121731Z 1218/1318 VRB04KT P6SM -RA SCT020 OVC040
                      TEMPO 1218/1222 4SM -RA BR OVC020 FM130000
                       27007KT P6SM -SHRA BKN040 FM130600 25005KT
                       P6SM VCSH OVC040=
201912121131 TAF KCLM 121131Z 1212/1312 VRB04KT P6SM VCSH BKN060 FM121600 VRB04KT
                       P6SM -RA BKN020 OVC040
                      TEMPO 1218/1222 4SM -RA BR OVC015 FM130000
                       25005KT P6SM -SHRA BKN040 FM130400 25005KT
                       P6SM OVC040=
201912120709 KCLM 120709Z 1207/1306 VRB04KT P6SM VCSH OVC060 FM121100 VRB04KT
                       P6SM SCT100 FM121600 VRB04KT P6SM -RA BKN020
                       OVC040 FM130000 25005KT P6SM -SHRA BKN040=
201912120541 TAF KCLM 120541Z 1206/1306 VRB04KT P6SM VCSH BKN005 OVC090 FM120800
                       VRB04KT P6SM VCSH BKN005 OVC080 FM121100
                       VRB04KT P6SM SCT100 FM121600 VRB04KT P6SM
                       -RA BKN020 OVC040 FM130000 25005KT P6SM
                       -SHRA BKN040=
201912120304 KCLM 120304Z 1203/1224 VRB03KT P6SM VCSH SCT005 OVC060
                      TEMPO 1203/1206 5SM -RA BR FM120600 VRB04KT
                       P6SM VCSH SCT005 OVC070 FM121800 VRB04KT
                       P6SM -RA BKN020 OVC040=
201912112320 TAF KCLM 112320Z 1200/1224 VRB04KT P6SM -RA BKN012 OVC030
                      TEMPO 1200/1204 5SM -RA BR OVC008 FM120600
                       VRB04KT P6SM -SHRA SCT008 BKN015 OVC030
                       FM121800 VRB04KT P6SM -RA BKN020 OVC040=
201912111720 TAF KCLM 111720Z 1118/1218 14006KT P6SM BKN010 OVC050
                      TEMPO 1118/1121 OVC008 FM112100 09008KT 5SM
                       -RA BR BKN015 OVC030 FM120600 24010KT P6SM
                       -SHRA SCT008 BKN015 OVC030=
201912111506 KCLM 111506Z 1115/1212 VRB03KT P6SM OVC008 FM111800 09006KT P6SM
                       BKN015 OVC050 FM112000 09008KT P6SM -RA
                       OVC050 FM120000 09008KT P6SM -RA OVC025
                       FM120400 26008KT P6SM SCT008 BKN015 OVC025=
201912111132 TAF KCLM 111132Z 1112/1212 00000KT P6SM OVC006 FM111500 00000KT
                       P6SM SCT006 BKN020 OVC040 FM111800 09008KT
                       P6SM SCT025 OVC050 FM112000 09008KT P6SM
                       -RA OVC050 FM120000 09008KT P6SM -RA OVC025
                       FM120400 26008KT P6SM SCT008 BKN015 OVC025=
201912110530 TAF KCLM 110530Z 1106/1206 VRB03KT P6SM OVC007 FM111200 09004KT
                       P6SM BKN015 BKN050 OVC120 FM111800 09008KT
                       P6SM SCT020 OVC050 FM112000 09008KT 5SM
                       -RA BR OVC025=
201912102320 TAF KCLM 102320Z 1100/1124 VRB03KT P6SM OVC010 FM111200 09004KT
                       P6SM BKN015 BKN050 OVC120 FM111800 09008KT
                       P6SM SCT020 OVC050 FM112000 09008KT 5SM
                       -RA BR OVC025=
201912101720 TAF KCLM 101720Z 1018/1118 00000KT P6SM OVC010 FM102100 09005KT
                       5SM -RA BKN015 OVC030 FM110200 VRB04KT P6SM
                       BKN020 BKN040 FM110800 00000KT P6SM OVC015
                       FM111500 09006KT P6SM BKN015 BKN050 OVC120=
201912101132 TAF KCLM 101132Z 1012/1112 VRB03KT P6SM OVC008 FM101700 VRB03KT
                       P6SM OVC012 FM102100 VRB03KT P6SM -RA OVC018
                       FM110300 25006KT P6SM OVC012=
201912100520 TAF KCLM 100520Z 1006/1106 09005KT 6SM BR OVC004 FM100700 12003KT
                       P6SM SCT025 FM100900 17003KT P6SM OVC010
                       FM101900 22003KT P6SM OVC020 FM102200 10003KT
                       2SM -RA OVC003=
201912100039 KCLM 100039Z 1001/1024 09005KT P6SM OVC004 FM100700 12003KT P6SM
                       SCT025 FM100900 17003KT P6SM OVC010 FM101900
                       22003KT P6SM OVC020 FM102200 10003KT 2SM
                       -RA OVC003=
201912092338 TAF KCLM 092338Z 1000/1024 09005KT P6SM OVC004 FM100200 12003KT
                       P6SM SCT025 FM101200 20003KT P6SM OVC010
                       FM101700 22003KT P6SM OVC015 FM102200 11003KT
                       2SM -RA OVC007=
201912091731 TAF KCLM 091731Z 0918/1018 VRB03KT P6SM OVC020 FM091900 07004KT
                       P6SM BKN020 FM092200 09004KT P6SM SCT025
                       FM100200 12003KT P6SM SCT025 FM100500 13004KT
                       P6SM OVC200 FM101200 22003KT P6SM OVC015=
201912091129 TAF KCLM 091129Z 0912/1012 VRB03KT P6SM OVC012 FM091900 09004KT
                       P6SM BKN020 FM092200 09004KT P6SM SCT025
                       FM100500 09004KT P6SM OVC200=
201912090520 TAF KCLM 090520Z 0906/1006 VRB03KT P6SM SCT005 OVC050
                      TEMPO 0906/0910 BKN005 OVC050 FM091000 VRB03KT
                       P6SM BKN010 OVC020 FM091900 09004KT P6SM
                       BKN020 FM092200 09004KT P6SM SCT025=
201912090359 KCLM 090359Z 0904/0924 00000KT P6SM OVC005 FM091000 VRB03KT 5SM
                       BR SCT005 OVC014 FM091900 09006KT P6SM BKN020
                       FM092200 09006KT P6SM SCT020=
201912082320 TAF KCLM 082320Z 0900/0924 09006KT P6SM OVC035 FM090600 09006KT
                       P6SM OVC025 FM091200 09006KT 5SM BR OVC015
                       TEMPO 0912/0916 2SM BR OVC008 FM091900 09006KT
                       P6SM BKN015 FM092200 09006KT P6SM SCT015=
201912081720 TAF KCLM 081720Z 0818/0918 00000KT P6SM SCT020 BKN040 FM090600
                       00000KT P6SM OVC015 FM091200 00000KT 5SM
                       BR OVC012
                      TEMPO 0912/0916 2SM BR OVC008=
201912081138 TAF KCLM 081138Z 0812/0912 00000KT 4SM BR OVC015 FM081800 VRB03KT
                       P6SM SCT015 BKN025 OVC050 FM090000 VRB03KT
                       P6SM SCT030 BKN050=
201912080529 TAF KCLM 080529Z 0806/0906 00000KT 1/4SM FG BKN001 OVC035 FM081000
                       00000KT 4SM BR OVC005 FM081800 VRB03KT P6SM
                       BKN007 OVC015 FM082100 30005KT P6SM SCT015
                       BKN030 FM090000 VRB03KT P6SM SCT030 BKN050=
201912080438 KCLM 080438Z 0805/0824 00000KT 1/2SM FG BKN007 OVC050
                      TEMPO 0805/0809 3SM BR SCT007 OVC050 FM080900
                       00000KT 4SM BR OVC007 FM081700 VRB03KT P6SM
                       BKN010 BKN030 FM082100 30005KT P6SM SCT015
                       BKN030=
201912072320 TAF KCLM 072320Z 0800/0824 VRB03KT 3SM BR SCT005 BKN012 OVC040
                       TEMPO 0800/0804 1/4SM -RA FG BKN005 OVC010
                       FM081000 00000KT 4SM BR OVC007 FM081700
                       VRB03KT P6SM BKN010 BKN030 FM082100 30005KT
                       P6SM SCT015 BKN030=
201912072107 KCLM 072107Z 0721/0818 00000KT 3SM -RA BR SCT005 OVC035
                      TEMPO 0721/0801 1/2SM -RA FG BKN005 OVC030
                       FM081200 00000KT P6SM SCT005 BKN015 OVC030
                       TEMPO 0812/0816 3SM BR BKN005 OVC015 FM081700
                       26006KT P6SM BKN015 BKN030=
201912071720 TAF KCLM 071720Z 0718/0818 00000KT 4SM -RA BR SCT015 OVC040
                      TEMPO 0718/0722 2SM -RA BR BKN015 OVC030
                       FM072200 VRB04KT P6SM VCSH OVC015 FM081200
                       00000KT P6SM SCT005 BKN015
                      TEMPO 0812/0816 3SM BR BKN005 OVC015 FM081700
                       26006KT P6SM BKN015 BKN030=
201912071434 KCLM 071434Z 0715/0812 VRB03KT 2SM -RA BR OVC050 FM071900 27004KT
                       P6SM SCT004 OVC025 FM080000 VRB03KT 5SM
                       BR SCT015 OVC020=
201912071131 TAF KCLM 071131Z 0712/0812 VRB03KT 3SM -RA BR OVC050 FM071500 VRB03KT
                       5SM -SHRA BR SCT004 OVC015 FM080000 VRB03KT
                       5SM BR SCT015 OVC020=
201912070927 KCLM 070927Z 0709/0806 17003KT 3SM BR SCT004 BKN040 OVC070 FM071200
                       VRB03KT 3SM -RA BR BKN007 OVC012 FM071500
                       VRB03KT 5SM -SHRA BR BKN007 OVC015 FM080000
                       VRB03KT 5SM BR BKN015 OVC025=
201912070521 TAF KCLM 070521Z 0706/0806 13003KT 3SM BR SCT005 BKN040 OVC070
                       TEMPO 0706/0710 1SM -RA BR BKN005 OVC040
                       FM071000 VRB03KT 3SM -RA BR BKN004 OVC012
                       FM071500 VRB03KT 5SM -SHRA BR BKN007 OVC015
                       FM080000 VRB03KT 5SM BR BKN015 OVC025=
201912062320 TAF KCLM 062320Z 0700/0724 VRB04KT 5SM -RA BR OVC005 FM070600 00000KT
                       2SM -RA BR OVC003 FM071200 VRB04KT 5SM -RA
                       BR BKN005 OVC012 FM071500 25005KT P6SM -SHRA
                       SCT005 BKN015 BKN030=
201912061720 TAF KCLM 061720Z 0618/0718 12003KT P6SM BKN005 BKN070
                      TEMPO 0618/0621 3SM BR OVC003 FM070200 VRB03KT
                       P6SM -RA BKN010 OVC040 FM070800 21003KT
                       5SM -RA BR OVC010 FM071600 VRB04KT P6SM
                       -SHRA BKN012 BKN030=
201912061126 TAF KCLM 061126Z 0612/0712 14004KT 5SM BR OVC008 FM061700 12003KT
                       P6SM SCT015 BKN070 FM062300 VRB03KT P6SM
                       -RA BKN010 OVC030 FM070800 21003KT 5SM -RA
                       BR OVC007=
201912060520 TAF KCLM 060520Z 0606/0706 VRB02KT P6SM OVC010 FM060800 14002KT
                       P6SM OVC010 FM062300 10002KT 5SM -RA OVC007=
201912052346 TAF KCLM 052346Z 0600/0624 09003KT P6SM OVC012 FM060200 11003KT
                       P6SM OVC030 FM060800 14002KT P6SM OVC010
                       FM061300 10002KT 5SM -RA OVC007=
201912051737 TAF KCLM 051737Z 0518/0618 VRB05KT P6SM BKN012 BKN040 FM052100
                       VRB05KT P6SM OVC020 FM052300 10003KT P6SM
                       OVC050=
201912051126 TAF KCLM 051126Z 0512/0612 11005KT P6SM OVC012 FM051700 VRB05KT
                       P6SM SCT015 BKN040 FM052100 VRB05KT P6SM
                       OVC050=
201912050900 KCLM 050900Z 0509/0606 09005KT 4SM BR OVC015 FM051400 VRB05KT P6SM
                       SCT015 BKN040 FM052100 05005KT P6SM BKN050=
201912050530 TAF KCLM 050530Z 0506/0606 09005KT P6SM SCT020 BKN035 FM051400
                       VRB05KT P6SM SCT015 BKN040 FM052100 05005KT
                       P6SM BKN050=
201912042337 TAF KCLM 042337Z 0500/0524 09005KT P6SM BKN017 OVC025
                      TEMPO 0500/0504 3SM BR BKN005 FM050400 VRB04KT
                       P6SM BKN010 BKN030 FM051400 VRB05KT P6SM
                       SCT015 BKN040 FM052100 05005KT P6SM BKN050=
201912042040 KCLM 042040Z 0421/0518 VRB03KT P6SM SCT005 OVC015
                      TEMPO 0421/0423 -SHRA BKN005 FM042300 VRB05KT
                       P6SM SCT015 OVC035 FM050500 24004KT P6SM
                       OVC050=
201912041843 KCLM 041843Z 0419/0518 VRB05KT P6SM VCSH BKN010 FM042200 VRB05KT
                       P6SM SCT015 OVC035 FM050500 24004KT P6SM
                       OVC050=
201912041731 TAF KCLM 041731Z 0418/0518 VRB03KT P6SM VCSH BKN005 FM042000 VRB05KT
                       P6SM SCT015 OVC035 FM050500 24004KT P6SM
                       OVC050=
201912041647 KCLM 041647Z 0417/0512 17003KT P6SM -RA BKN008 FM042000 34008KT
                       P6SM SCT015 OVC035 FM042300 VRB03KT P6SM
                       OVC050=
201912041328 KCLM 041328Z 0413/0512 17003KT P6SM -RA OVC060 FM041500 25005KT
                       P6SM -RA BKN020 OVC040 FM042000 34008KT
                       P6SM SCT015 OVC035 FM042300 VRB03KT P6SM
                       OVC050=
201912041126 TAF KCLM 041126Z 0412/0512 VRB03KT P6SM VCSH OVC030 FM041500 25005KT
                       P6SM -RA BKN010 BKN030 FM042000 34008KT
                       P6SM SCT015 OVC035 FM042300 VRB03KT P6SM
                       OVC050=
201912040521 TAF KCLM 040521Z 0406/0506 VRB03KT P6SM VCSH SCT040 OVC080 FM040900
                       VRB03KT P6SM VCSH OVC030 FM041500 25005KT
                       P6SM -SHRA BKN010 BKN030 FM042000 30008KT
                       P6SM SCT015 BKN030=
201912032320 TAF KCLM 032320Z 0400/0424 VRB03KT P6SM -RA OVC050 FM040500 VRB03KT
                       5SM -RA OVC025 FM040800 VRB03KT 3SM -RA
                       BR OVC005 FM041500 25005KT P6SM VCSH BKN010
                       BKN030 FM042000 30008KT P6SM SCT015 BKN030=
201912031720 TAF KCLM 031720Z 0318/0418 VRB03KT P6SM OVC050 FM040000 VRB03KT
                       P6SM -RA OVC025 FM041000 VRB03KT 3SM -RA
                       BR OVC005=
201912031401 KCLM 031401Z 0314/0412 18004KT P6SM OVC060
                      TEMPO 0314/0318 BKN015 FM031800 23003KT P6SM
                       OVC050 FM040400 VRB04KT P6SM -SHRA OVC025=
201912031122 TAF KCLM 031122Z 0312/0412 VRB05KT P6SM SCT004 OVC050
                      TEMPO 0312/0316 BKN004 FM031600 23003KT P6SM
                       OVC050 FM040400 VRB04KT P6SM -SHRA OVC025=
201912030533 TAF KCLM 030533Z 0306/0406 VRB05KT P6SM VCSH FEW050 BKN060 OVC100
                       FM031400 25003KT P6SM VCSH OVC030=
201912022320 TAF KCLM 022320Z 0300/0324 00000KT P6SM OVC060 FM030300 VRB03KT
                       P6SM VCSH BKN020 OVC040 FM030500 23004KT
                       P6SM SCT007 OVC015 FM031400 25003KT P6SM
                       BKN015 OVC025=
201912021720 TAF KCLM 021720Z 0218/0318 00000KT P6SM OVC060 FM022300 VRB03KT
                       P6SM VCSH BKN020 OVC040 FM030500 23004KT
                       P6SM SCT007 OVC015=
201912021131 TAF KCLM 021131Z 0212/0312 13004KT P6SM OVC020 FM022300 08004KT
                       P6SM VCSH BKN020 OVC040 FM030500 23004KT
                       P6SM SCT007 OVC015=
201912020527 TAF KCLM 020527Z 0206/0306 15004KT P6SM VCSH OVC020
                      TEMPO 0206/0210 -SHRA FM021100 13004KT P6SM
                       OVC020 FM021800 08004KT P6SM VCSH BKN020
                       OVC040=
201912012320 TAF KCLM 012320Z 0200/0224 11004KT P6SM VCSH OVC060 FM020300 15004KT
                       P6SM OVC025 FM022000 07006KT P6SM OVC015=
201912011720 TAF KCLM 011720Z 0118/0218 06006KT P6SM OVC050 FM020000 15004KT
                       P6SM OVC025=
201912011124 TAF KCLM 011124Z 0112/0212 VRB04KT P6SM OVC100 FM011700 10005KT
                       P6SM OVC050 FM020300 15002KT P6SM OVC025=
201912010524 TAF KCLM 010524Z 0106/0206 VRB03KT P6SM SCT200 FM011000 19005KT
                       P6SM BKN080 OVC200 FM011900 10005KT P6SM
                       BKN040 OVC080
                      PROB30 0119/0124 -RA OVC030 FM020100 14002KT
                       P6SM OVC025=