##########################################################
# Query made at 02/16/2025 03:53:52 UTC
# Time interval: from 08/01/2019 00:00  to 08/31/2019 23:59  UTC
##########################################################

##########################################################
# KCLM, Port Angeles, William R. Fairchild International Airport (United States)
# WMO index: -----. WIGOS ID: Unknown
# Latitude 48-07-20N. Longitude 123-30-19W. Altitude 87 m.
##########################################################

###################################
#  METAR/SPECI from KCLM
###################################
201908312353 METAR KCLM 312353Z AUTO 30007KT 10SM FEW045 SCT050 BKN080 19/13 A2997 RMK AO2 SLP149 T01940133 10211 20178 55005=
201908312253 METAR KCLM 312253Z AUTO 30007KT 10SM FEW075 21/14 A2997 RMK AO2 SLP149 T02060139=
201908312153 METAR KCLM 312153Z AUTO 31005KT 10SM FEW075 SCT090 19/13 A2998 RMK AO2 SLP152 T01890133=
201908312116 SPECI KCLM 312116Z AUTO 29008KT 10SM SCT029 20/13 A2999 RMK AO2 T02000133=
201908312104 SPECI KCLM 312104Z AUTO 32006KT 10SM BKN029 19/14 A2999 RMK AO2 T01940139=
201908312053 METAR KCLM 312053Z AUTO 34006KT 10SM SCT031 19/13 A2999 RMK AO2 SLP155 T01890133 51003=
201908311953 METAR KCLM 311953Z AUTO VRB06KT 10SM SCT080 BKN090 20/13 A2999 RMK AO2 SLP154 T02000128=
201908311853 METAR KCLM 311853Z AUTO 36005KT 10SM SCT100 19/14 A2999 RMK AO2 SLP154 T01890139=
201908311753 METAR KCLM 311753Z AUTO 02003KT 10SM OVC100 18/15 A2998 RMK AO2 SLP152 60003 T01830150 10183 20150 50004=
201908311706 SPECI KCLM 311706Z AUTO 01003KT 10SM SCT009 SCT080 BKN110 18/16 A2999 RMK AO2 T01830161=
201908311653 METAR KCLM 311653Z AUTO 11003KT 10SM SCT080 BKN110 17/16 A2999 RMK AO2 RAE16 SLP154 P0000 T01720156=
201908311553 METAR KCLM 311553Z AUTO 00000KT 8SM -RA OVC110 16/16 A2999 RMK AO2 RAB1454 SLP154 P0003 T01610156=
201908311453 METAR KCLM 311453Z AUTO 36003KT 10SM SCT095 BKN120 16/14 A2997 RMK AO2 PRESFR SLP149 60000 T01560144 56006=
201908311353 METAR KCLM 311353Z AUTO 00000KT 10SM BKN040 BKN049 16/14 A2998 RMK AO2 RAB01E21 SLP152 P0000 T01560144=
201908311253 METAR KCLM 311253Z AUTO 00000KT 10SM FEW039 SCT075 BKN100 16/14 A2998 RMK AO2 SLP150 T01560144=
201908311153 METAR KCLM 311153Z AUTO 00000KT 10SM SCT040 BKN050 16/15 A2999 RMK AO2 SLP154 T01610150 10167 20139 55003=
201908311053 METAR KCLM 311053Z AUTO 00000KT 10SM SCT036 BKN050 15/14 A2999 RMK AO2 SLP154 T01500144=
201908310953 METAR KCLM 310953Z AUTO 00000KT 10SM FEW033 14/13 A2998 RMK AO2 SLP152 T01440133=
201908310853 METAR KCLM 310853Z AUTO 00000KT 10SM OVC035 17/15 A3000 RMK AO2 SLP157 T01670150 55006=
201908310753 METAR KCLM 310753Z AUTO 22005KT 10SM OVC038 16/15 A3000 RMK AO2 SLP156 T01610150 402110150=
201908310653 METAR KCLM 310653Z AUTO 23003KT 10SM SCT040 15/14 A3001 RMK AO2 SLP160 T01500144=
201908310553 METAR KCLM 310553Z AUTO 27003KT 10SM FEW055 16/15 A3002 RMK AO2 SLP164 T01610150 10194 20161 58011=
201908310453 METAR KCLM 310453Z AUTO 27005KT 10SM OVC050 17/15 A3004 RMK AO2 SLP170 T01720150=
201908310353 METAR KCLM 310353Z AUTO 22003KT 10SM OVC055 17/15 A3004 RMK AO2 SLP170 T01720150=
201908310253 METAR KCLM 310253Z AUTO 30004KT 10SM OVC055 17/14 A3005 RMK AO2 SLP175 T01670144 58001=
201908310153 METAR KCLM 310153Z AUTO 25006KT 10SM OVC055 17/14 A3005 RMK AO2 SLP177 T01720144=
201908310053 METAR KCLM 310053Z AUTO 29007KT 10SM OVC055 17/14 A3006 RMK AO2 SLP178 T01670144=
201908302353 METAR KCLM 302353Z AUTO 00000KT 10SM OVC060 19/14 A3005 RMK AO2 SLP175 T01940144 10211 20178 56006=
201908302253 METAR KCLM 302253Z AUTO 36003KT 10SM OVC055 19/14 A3006 RMK AO2 SLP176 T01890144=
201908302153 METAR KCLM 302153Z AUTO VRB03KT 10SM OVC060 21/14 A3006 RMK AO2 SLP176 T02060144=
201908302053 METAR KCLM 302053Z AUTO VRB03KT 10SM OVC060 20/15 A3007 RMK AO2 SLP181 T02000150 51002=
201908301953 METAR KCLM 301953Z AUTO VRB04KT 10SM OVC060 19/15 A3007 RMK AO2 SLP181 T01890150=
201908301853 METAR KCLM 301853Z AUTO VRB03KT 10SM OVC060 20/16 A3007 RMK AO2 SLP182 T02000156=
201908301753 METAR KCLM 301753Z AUTO 05004KT 10SM OVC060 17/16 A3007 RMK AO2 SLP181 T01720156 10189 20156 53004=
201908301653 METAR KCLM 301653Z AUTO 00000KT 10SM SCT045 OVC060 18/16 A3006 RMK AO2 SLP178 T01830156=
201908301553 METAR KCLM 301553Z AUTO 00000KT 10SM OVC042 18/16 A3006 RMK AO2 SLP177 T01830156=
201908301508 SPECI KCLM 301508Z AUTO 00000KT 10SM SCT028 BKN043 17/17 A3005 RMK AO2 T01720167=
201908301501 SPECI KCLM 301501Z AUTO 00000KT 10SM BKN028 BKN041 17/17 A3005 RMK AO2 T01720167=
201908301453 METAR KCLM 301453Z AUTO 00000KT 10SM SCT028 OVC041 17/17 A3005 RMK AO2 SLP176 T01670167 53007=
201908301353 METAR KCLM 301353Z AUTO 00000KT 8SM BKN034 16/16 A3004 RMK AO2 SLP172 T01560156=
201908301253 METAR KCLM 301253Z AUTO 00000KT 9SM OVC032 16/16 A3003 RMK AO2 SLP168 T01610161=
201908301153 METAR KCLM 301153Z AUTO 00000KT 9SM OVC030 16/16 A3003 RMK AO2 SLP168 60003 70010 T01610161 10167 20161 51003=
201908301053 METAR KCLM 301053Z AUTO 24005KT 10SM OVC030 17/16 A3003 RMK AO2 SLP168 T01670161=
201908301040 SPECI KCLM 301040Z AUTO 00000KT 10SM OVC030 17/16 A3003 RMK AO2 T01670161=
201908300953 METAR KCLM 300953Z AUTO 00000KT 10SM OVC028 17/16 A3003 RMK AO2 SLP168 T01670161=
201908300853 METAR KCLM 300853Z AUTO 21004KT 10SM OVC027 17/16 A3002 RMK AO2 SLP165 60003 T01670161 51006=
201908300843 SPECI KCLM 300843Z AUTO 21004KT 10SM BKN027 OVC040 17/16 A3002 RMK AO2 T01670161=
201908300753 METAR KCLM 300753Z AUTO 24005KT 10SM SCT027 BKN040 OVC065 17/16 A3002 RMK AO2 RAE07 SLP165 P0000 T01670161 402220106=
201908300653 METAR KCLM 300653Z AUTO 22004KT 6SM -RA BR OVC024 17/16 A3002 RMK AO2 SLP163 P0003 T01670161=
201908300553 METAR KCLM 300553Z AUTO 23006KT 10SM -RA OVC019 17/16 A3000 RMK AO2 SLP160 P0003 60007 T01670161 10206 20167 53007=
201908300524 SPECI KCLM 300524Z AUTO 20003KT 7SM -RA BKN019 OVC090 17/16 A3000 RMK AO2 P0002 T01670161=
201908300453 METAR KCLM 300453Z AUTO 27007KT 5SM -RA BR FEW018 OVC090 17/16 A2999 RMK AO2 SLP156 P0004 T01670156=
201908300353 METAR KCLM 300353Z AUTO 24006KT 8SM -RA OVC120 17/16 A2999 RMK AO2 RAB13 SLP156 P0000 T01670156=
201908300253 METAR KCLM 300253Z AUTO 28009KT 10SM SCT100 BKN120 17/15 A2998 RMK AO2 SLP153 60000 T01720150 53003=
201908300153 METAR KCLM 300153Z AUTO 27009KT 10SM FEW110 18/14 A2997 RMK AO2 RAB02E14 SLP150 P0000 T01780144=
201908300053 METAR KCLM 300053Z AUTO 27009KT 10SM OVC090 19/14 A2997 RMK AO2 LTG DSNT W SLP149 T01890144=
201908292353 METAR KCLM 292353Z AUTO 28009KT 10SM OVC080 21/14 A2998 RMK AO2 LTG DSNT S SLP150 T02060144 10222 20161 55000=
201908292253 METAR KCLM 292253Z AUTO 29005KT 10SM SCT120 21/14 A2996 RMK AO2 SLP144 T02110144=
201908292153 METAR KCLM 292153Z AUTO 29010KT 10SM SCT120 22/14 A2997 RMK AO2 SLP146 T02170139=
201908292053 METAR KCLM 292053Z AUTO 29011KT 10SM CLR 21/14 A2998 RMK AO2 SLP149 T02060139 53001=
201908291953 METAR KCLM 291953Z AUTO 29007KT 10SM CLR 20/14 A2997 RMK AO2 SLP149 T02000139=
201908291853 METAR KCLM 291853Z AUTO 34007KT 10SM CLR 19/13 A2998 RMK AO2 SLP149 T01890133=
201908291753 METAR KCLM 291753Z AUTO 32006KT 10SM CLR 17/13 A2997 RMK AO2 SLP149 T01670133 10178 20106 50006=
201908291653 METAR KCLM 291653Z AUTO 36005KT 10SM CLR 17/13 A2998 RMK AO2 SLP151 T01670133=
201908291608 SPECI KCLM 291608Z AUTO 29007KT 10SM FEW005 16/14 A2996 RMK AO2 T01610139=
201908291553 METAR KCLM 291553Z AUTO 29005KT 10SM BKN005 16/14 A2996 RMK AO2 CIG 004V008 SLP146 T01560139=
201908291453 METAR KCLM 291453Z AUTO 27007KT 7SM OVC004 14/13 A2996 RMK AO2 SLP142 T01390133 51015=
201908291353 METAR KCLM 291353Z AUTO 28006KT 7SM OVC003 13/13 A2995 RMK AO2 SLP140 T01330128=
201908291333 SPECI KCLM 291333Z AUTO 28007KT 8SM BKN004 13/13 A2994 RMK AO2 T01280128=
201908291324 SPECI KCLM 291324Z AUTO 28005KT 10SM SCT004 13/12 A2994 RMK AO2 T01280122=
201908291253 METAR KCLM 291253Z AUTO 27005KT 10SM CLR 12/12 A2993 RMK AO2 SLP134 T01220117=
201908291153 METAR KCLM 291153Z AUTO 00000KT 10SM CLR 13/11 A2991 RMK AO2 SLP127 T01280111 10167 20117 51005=
201908291053 METAR KCLM 291053Z AUTO 21004KT 10SM CLR 13/11 A2990 RMK AO2 SLP125 T01280111=
201908290953 METAR KCLM 290953Z AUTO 24005KT 10SM CLR 14/12 A2990 RMK AO2 SLP124 T01390117=
201908290853 METAR KCLM 290853Z AUTO 26003KT 10SM CLR 16/11 A2990 RMK AO2 SLP122 T01610106 51008=
201908290753 METAR KCLM 290753Z AUTO 24005KT 10SM CLR 14/11 A2989 RMK AO2 SLP120 T01440106 402720128=
201908290653 METAR KCLM 290653Z AUTO 00000KT 10SM CLR 16/11 A2988 RMK AO2 SLP116 T01610111=
201908290553 METAR KCLM 290553Z AUTO 00000KT 10SM CLR 17/12 A2987 RMK AO2 SLP114 T01670122 10267 20161 51005=
201908290453 METAR KCLM 290453Z AUTO 00000KT 10SM CLR 17/13 A2987 RMK AO2 SLP113 T01720128=
201908290353 METAR KCLM 290353Z AUTO 21003KT 10SM CLR 18/13 A2987 RMK AO2 SLP112 T01830133=
201908290253 METAR KCLM 290253Z AUTO 11003KT 10SM CLR 23/12 A2986 RMK AO2 SLP108 T02330122 56007=
201908290153 METAR KCLM 290153Z AUTO 09005KT 10SM CLR 26/12 A2986 RMK AO2 SLP109 T02560117=
201908290053 METAR KCLM 290053Z AUTO 07005KT 10SM CLR 26/12 A2986 RMK AO2 SLP109 T02610122=
201908282353 METAR KCLM 282353Z AUTO 07007KT 10SM CLR 27/13 A2988 RMK AO2 SLP115 T02670128 10272 20239 57013=
201908282253 METAR KCLM 282253Z AUTO 07007KT 10SM CLR 27/13 A2989 RMK AO2 SLP119 T02670128=
201908282153 METAR KCLM 282153Z AUTO 06007KT 10SM CLR 26/13 A2990 RMK AO2 SLP124 T02610133=
201908282053 METAR KCLM 282053Z AUTO 09009KT 10SM CLR 26/14 A2991 RMK AO2 SLP128 T02610139 58002 $=
201908281953 METAR KCLM 281953Z AUTO 09009KT 10SM CLR 25/14 A2992 RMK AO2 SLP131 T02500139 $=
201908281853 METAR KCLM 281853Z AUTO 08013KT 10SM 24/13 A2992 RMK AO2 SLP130 T02440133 $=
201908281753 METAR KCLM 281753Z AUTO 08010KT 10SM CLR 24/14 A2992 RMK AO2 SLP130 T02390139 10244 20133 51004=
201908281653 METAR KCLM 281653Z AUTO 08010G17KT 10SM CLR 23/13 A2992 RMK AO2 SLP130 T02330133=
201908281553 METAR KCLM 281553Z AUTO 10010KT 10SM CLR 23/13 A2991 RMK AO2 SLP127 T02330128=
201908281453 METAR KCLM 281453Z AUTO VRB04KT 10SM CLR 19/12 A2991 RMK AO2 SLP126 T01940117 53005=
201908281353 METAR KCLM 281353Z AUTO 22004KT 10SM CLR 13/11 A2990 RMK AO2 SLP123 T01330106=
201908281253 METAR KCLM 281253Z AUTO 22005KT 10SM CLR 17/09 A2989 RMK AO2 SLP121 T01670094=
201908281153 METAR KCLM 281153Z AUTO 20004KT 10SM CLR 14/11 A2989 RMK AO2 SLP121 T01390106 10200 20128 57005=
201908281053 METAR KCLM 281053Z AUTO 00000KT 10SM CLR 14/11 A2990 RMK AO2 SLP122 T01390106=
201908280953 METAR KCLM 280953Z AUTO 23007KT 10SM CLR 18/08 A2990 RMK AO2 SLP124 T01830083=
201908280853 METAR KCLM 280853Z AUTO 23008KT 10SM CLR 19/09 A2991 RMK AO2 SLP126 T01890089 56005=
201908280753 METAR KCLM 280753Z AUTO 22007KT 10SM CLR 19/09 A2991 RMK AO2 SLP127 T01940089 402670100=
201908280653 METAR KCLM 280653Z AUTO 21006KT 10SM CLR 19/09 A2991 RMK AO2 SLP129 T01890089=
201908280553 METAR KCLM 280553Z AUTO 21005KT 10SM CLR 19/09 A2992 RMK AO2 SLP131 T01890089 10261 20172 58004=
201908280453 METAR KCLM 280453Z AUTO 23005KT 10SM CLR 18/11 A2993 RMK AO2 SLP134 T01780106=
201908280353 METAR KCLM 280353Z AUTO 20003KT 10SM CLR 18/11 A2993 RMK AO2 SLP133 T01830111=
201908280253 METAR KCLM 280253Z AUTO 00000KT 10SM CLR 23/11 A2993 RMK AO2 SLP135 T02280106 58015=
201908280153 METAR KCLM 280153Z AUTO 10008KT 10SM CLR 26/11 A2995 RMK AO2 SLP141 T02560111=
201908280053 METAR KCLM 280053Z AUTO 10007KT 10SM CLR 26/12 A2997 RMK AO2 SLP147 T02610117=
201908272353 METAR KCLM 272353Z AUTO 08008KT 10SM CLR 26/09 A2998 RMK AO2 SLP150 T02610094 10267 20217 58021=
201908272253 METAR KCLM 272253Z AUTO 08010KT 10SM CLR 26/09 A3000 RMK AO2 SLP158 T02610094=
201908272153 METAR KCLM 272153Z AUTO 08010KT 10SM CLR 24/10 A3002 RMK AO2 SLP166 T02440100=
201908272053 METAR KCLM 272053Z AUTO 09010KT 10SM CLR 24/10 A3004 RMK AO2 SLP172 T02440100 58022=
201908271953 METAR KCLM 271953Z AUTO 07009KT 10SM CLR 24/11 A3007 RMK AO2 SLP181 T02390106=
201908271853 METAR KCLM 271853Z AUTO 07011KT 10SM CLR 23/11 A3008 RMK AO2 SLP187 T02330106=
201908271753 METAR KCLM 271753Z AUTO 08009KT 10SM CLR 22/11 A3011 RMK AO2 SLP194 T02170106 10222 20117 56006=
201908271653 METAR KCLM 271653Z AUTO 08009KT 10SM CLR 21/10 A3011 RMK AO2 SLP197 T02110100=
201908271553 METAR KCLM 271553Z AUTO 10005KT 10SM CLR 20/10 A3012 RMK AO2 SLP198 T02000100=
201908271453 METAR KCLM 271453Z AUTO 21003KT 10SM CLR 16/08 A3012 RMK AO2 SLP200 T01610083 55001=
201908271353 METAR KCLM 271353Z AUTO VRB03KT 10SM CLR 12/08 A3012 RMK AO2 SLP200 T01220083=
201908271253 METAR KCLM 271253Z AUTO 12008KT 10SM CLR 13/08 A3012 RMK AO2 SLP199 T01280078=
201908271153 METAR KCLM 271153Z AUTO 12009KT 10SM CLR 13/08 A3013 RMK AO2 SLP201 T01280078 10144 20100 58003=
201908271053 METAR KCLM 271053Z AUTO 18003KT 10SM CLR 11/07 A3013 RMK AO2 SLP203 T01060072=
201908270953 METAR KCLM 270953Z AUTO 16003KT 10SM CLR 11/07 A3014 RMK AO2 SLP205 T01110072=
201908270853 METAR KCLM 270853Z AUTO 21004KT 10SM CLR 10/08 A3014 RMK AO2 SLP205 T01000078 58005=
201908270753 METAR KCLM 270753Z AUTO 15003KT 10SM CLR 10/07 A3015 RMK AO2 SLP209 T01000072 402330078=
201908270653 METAR KCLM 270653Z AUTO 18003KT 10SM CLR 11/08 A3015 RMK AO2 SLP210 T01110083=
201908270553 METAR KCLM 270553Z AUTO 20003KT 10SM CLR 11/09 A3015 RMK AO2 SLP210 T01110089 10233 20111 58005=
201908270453 METAR KCLM 270453Z AUTO 00000KT 10SM CLR 13/10 A3016 RMK AO2 SLP214 T01280100=
201908270353 METAR KCLM 270353Z AUTO 00000KT 10SM CLR 14/09 A3017 RMK AO2 SLP217 T01440089=
201908270253 METAR KCLM 270253Z AUTO 00000KT 10SM CLR 20/07 A3017 RMK AO2 SLP215 T02000067 56007=
201908270153 METAR KCLM 270153Z AUTO 10005KT 10SM CLR 22/08 A3017 RMK AO2 SLP216 T02220083=
201908270053 METAR KCLM 270053Z AUTO 09006KT 10SM CLR 23/09 A3018 RMK AO2 SLP220 T02280089=
201908262353 METAR KCLM 262353Z AUTO VRB05KT 10SM CLR 23/09 A3019 RMK AO2 SLP222 T02280089 10228 20189 56015=
201908262253 METAR KCLM 262253Z AUTO 08008KT 10SM CLR 22/09 A3020 RMK AO2 SLP228 T02220094=
201908262153 METAR KCLM 262153Z AUTO 08006KT 10SM CLR 22/11 A3021 RMK AO2 SLP230 T02170106=
201908262053 METAR KCLM 262053Z AUTO 06006KT 10SM CLR 21/11 A3023 RMK AO2 SLP237 T02110106 57014=
201908261953 METAR KCLM 261953Z AUTO 09006KT 10SM CLR 21/11 A3024 RMK AO2 SLP241 T02060111=
201908261853 METAR KCLM 261853Z AUTO 09008KT 10SM CLR 21/10 A3026 RMK AO2 SLP248 T02060100=
201908261753 METAR KCLM 261753Z AUTO 08007KT 10SM CLR 19/11 A3027 RMK AO2 SLP251 T01890106 10189 20078 53004=
201908261653 METAR KCLM 261653Z AUTO 09008KT 10SM CLR 18/11 A3027 RMK AO2 SLP250 T01830106=
201908261553 METAR KCLM 261553Z AUTO 06003KT 10SM CLR 17/11 A3026 RMK AO2 SLP248 T01720106=
201908261453 METAR KCLM 261453Z AUTO 22006KT 10SM CLR 13/11 A3026 RMK AO2 SLP247 T01330106 51009 $=
201908261353 METAR KCLM 261353Z AUTO 00000KT 10SM CLR 09/08 A3025 RMK AO2 SLP245 T00890083 $=
201908261253 METAR KCLM 261253Z AUTO 00000KT 10SM CLR 09/08 A3025 RMK AO2 SLP242 T00890083 $=
201908261153 METAR KCLM 261153Z AUTO 00000KT 8SM CLR 08/08 A3023 RMK AO2 SLP238 T00780078 10122 20078 58001 $=
201908261053 METAR KCLM 261053Z AUTO 14003KT 10SM CLR 08/08 A3024 RMK AO2 SLP240 T00830083 $=
201908260953 METAR KCLM 260953Z AUTO 00000KT 10SM CLR 08/08 A3024 RMK AO2 SLP240 T00830078 $=
201908260853 METAR KCLM 260853Z AUTO 27006KT 10SM CLR 12/10 A3024 RMK AO2 SLP239 T01170100 53001 $=
201908260753 METAR KCLM 260753Z AUTO 28006KT 10SM CLR 12/10 A3023 RMK AO2 SLP238 T01170100 402000106 $=
201908260653 METAR KCLM 260653Z AUTO 28005KT 10SM CLR 11/11 A3024 RMK AO2 SLP238 T01110106 $=
201908260553 METAR KCLM 260553Z AUTO 27005KT 9SM CLR 11/11 A3023 RMK AO2 SLP238 T01110106 10178 20111 50004 $=
201908260453 METAR KCLM 260453Z AUTO 28006KT 10SM CLR 12/10 A3024 RMK AO2 SLP239 T01220100 $=
201908260353 METAR KCLM 260353Z AUTO 26005KT 10SM CLR 13/10 A3023 RMK AO2 SLP236 T01330100 $=
201908260253 METAR KCLM 260253Z AUTO 28005KT 10SM CLR 14/09 A3022 RMK AO2 SLP234 T01440094 51004 $=
201908260153 METAR KCLM 260153Z AUTO 29006KT 10SM CLR 16/11 A3022 RMK AO2 SLP234 T01610111 $=
201908260053 METAR KCLM 260053Z AUTO 31009KT 10SM CLR 17/12 A3022 RMK AO2 SLP232 T01670117 $=
201908252353 METAR KCLM 252353Z AUTO 28010KT 10SM CLR 18/12 A3021 RMK AO2 SLP231 T01780117 10200 20167 51001 $=
201908252253 METAR KCLM 252253Z AUTO 34005KT 10SM CLR 19/12 A3021 RMK AO2 SLP230 T01940117 $=
201908252153 METAR KCLM 252153Z AUTO 34006KT 10SM CLR 19/12 A3021 RMK AO2 SLP231 T01940117 $=
201908252053 METAR KCLM 252053Z AUTO 33006KT 10SM CLR 18/12 A3021 RMK AO2 SLP229 T01830117 53009 $=
201908251953 METAR KCLM 251953Z AUTO 35007KT 10SM CLR 18/12 A3020 RMK AO2 SLP225 T01780117 $=
201908251853 METAR KCLM 251853Z AUTO VRB06KT 10SM CLR 18/12 A3019 RMK AO2 SLP224 T01780122 $=
201908251753 METAR KCLM 251753Z AUTO 32007KT 10SM CLR 17/12 A3018 RMK AO2 SLP221 T01720117 10172 20106 51014 $=
201908251653 METAR KCLM 251653Z AUTO 31007KT 10SM CLR 17/12 A3017 RMK AO2 SLP218 T01670122 $=
201908251553 METAR KCLM 251553Z AUTO 30008KT 10SM CLR 16/12 A3016 RMK AO2 SLP212 T01560122 $=
201908251453 METAR KCLM 251453Z AUTO 28007KT 10SM CLR 14/10 A3014 RMK AO2 SLP206 T01390100 51014 $=
201908251353 METAR KCLM 251353Z AUTO 26004KT 10SM CLR 12/10 A3013 RMK AO2 SLP202 T01170100 $=
201908251253 METAR KCLM 251253Z AUTO 27007KT 10SM BKN050 12/11 A3012 RMK AO2 SLP198 T01170111 $=
201908251153 METAR KCLM 251153Z AUTO 26008KT 10SM CLR 12/10 A3010 RMK AO2 SLP192 T01170100 10156 20111 53010 $=
201908251053 METAR KCLM 251053Z AUTO 24006KT 10SM CLR 13/09 A3008 RMK AO2 SLP186 T01280094 $=
201908250953 METAR KCLM 250953Z AUTO 27004KT 10SM CLR 13/09 A3008 RMK AO2 SLP185 T01280094 $=
201908250853 METAR KCLM 250853Z AUTO 25006KT 10SM CLR 14/09 A3007 RMK AO2 SLP182 T01440094 53005 $=
201908250753 METAR KCLM 250753Z AUTO 26009KT 10SM CLR 15/09 A3006 RMK AO2 SLP179 T01500094 401890133 $=
201908250653 METAR KCLM 250653Z AUTO 26011KT 10SM CLR 14/09 A3006 RMK AO2 SLP178 T01440094 $=
201908250553 METAR KCLM 250553Z AUTO 27011KT 10SM CLR 14/10 A3005 RMK AO2 SLP177 T01440100 10183 20139 53005 $=
201908250453 METAR KCLM 250453Z AUTO 28011KT 10SM CLR 14/11 A3005 RMK AO2 SLP175 T01440111 $=
201908250353 METAR KCLM 250353Z AUTO 27010KT 10SM CLR 14/12 A3004 RMK AO2 SLP172 T01440122 $=
201908250253 METAR KCLM 250253Z AUTO 28007KT 10SM FEW011 15/13 A3004 RMK AO2 SLP172 T01500128 50003 $=
201908250218 SPECI KCLM 250218Z AUTO 27011G20KT 10SM SCT008 15/13 A3004 RMK AO2 T01500133 $=
201908250153 METAR KCLM 250153Z AUTO 28015G18KT 10SM FEW011 FEW055 16/13 A3005 RMK AO2 SLP174 T01560128 $=
201908250053 METAR KCLM 250053Z AUTO 27009KT 10SM SCT060 17/13 A3004 RMK AO2 SLP171 T01720128 $=
201908242353 METAR KCLM 242353Z AUTO 29007KT 10SM FEW055 18/13 A3003 RMK AO2 SLP168 T01780133 10189 20150 51003 $=
201908242253 METAR KCLM 242253Z AUTO 34006KT 10SM FEW023 SCT055 18/13 A3003 RMK AO2 SLP168 T01830133 $=
201908242153 METAR KCLM 242153Z AUTO 29007KT 10SM FEW035 OVC047 18/13 A3003 RMK AO2 SLP168 T01780128 $=
201908242053 METAR KCLM 242053Z AUTO 00000KT 10SM OVC035 17/14 A3002 RMK AO2 SLP165 T01720139 50010 $=
201908242041 SPECI KCLM 242041Z AUTO 00000KT 10SM OVC033 17/14 A3002 RMK AO2 T01670139 $=
201908242010 SPECI KCLM 242010Z AUTO 29005KT 10SM FEW009 OVC027 16/13 A3002 RMK AO2 T01560133=
201908241953 METAR KCLM 241953Z AUTO 28006KT 10SM FEW009 SCT027 OVC032 16/13 A3002 RMK AO2 SLP165 T01560133=
201908241853 METAR KCLM 241853Z AUTO 35004KT 10SM OVC033 15/13 A3000 RMK AO2 SLP159 T01500133=
201908241753 METAR KCLM 241753Z AUTO 01004KT 10SM BKN037 OVC047 16/13 A2999 RMK AO2 SLP155 T01610133 10167 20133 51012=
201908241653 METAR KCLM 241653Z AUTO 27004KT 10SM BKN045 OVC050 16/13 A2999 RMK AO2 SLP154 T01560133=
201908241618 SPECI KCLM 241618Z AUTO 29009KT 10SM FEW009 OVC055 16/13 A2998 RMK AO2 T01560128=
201908241553 METAR KCLM 241553Z AUTO 31006KT 10SM OVC055 15/12 A2997 RMK AO2 SLP148 T01500122=
201908241453 METAR KCLM 241453Z AUTO 26004KT 10SM BKN060 OVC075 16/12 A2995 RMK AO2 SLP143 T01560117 53006=
201908241353 METAR KCLM 241353Z AUTO 22004KT 10SM OVC075 14/12 A2994 RMK AO2 SLP138 T01440117=
201908241253 METAR KCLM 241253Z AUTO 12003KT 10SM SCT042 BKN070 14/11 A2993 RMK AO2 SLP135 T01390111=
201908241153 METAR KCLM 241153Z AUTO 28004KT 10SM OVC050 14/10 A2994 RMK AO2 SLP137 70004 T01440100 10150 20133 55000=
201908241053 METAR KCLM 241053Z AUTO 00000KT 10SM OVC060 14/11 A2993 RMK AO2 SLP133 T01440111=
201908240953 METAR KCLM 240953Z AUTO 00000KT 10SM BKN065 OVC080 14/11 A2993 RMK AO2 SLP136 T01390106=
201908240853 METAR KCLM 240853Z AUTO 23003KT 10SM BKN070 OVC085 14/11 A2994 RMK AO2 SLP137 T01390106 58003=
201908240753 METAR KCLM 240753Z AUTO 25005KT 10SM OVC070 14/10 A2994 RMK AO2 SLP138 T01440100 401830106=
201908240653 METAR KCLM 240653Z AUTO 26005KT 10SM OVC080 15/08 A2994 RMK AO2 SLP139 T01500083=
201908240553 METAR KCLM 240553Z AUTO 25006KT 10SM OVC080 14/08 A2995 RMK AO2 SLP140 T01440078 10167 20139 50003=
201908240453 METAR KCLM 240453Z AUTO 27004KT 10SM OVC070 14/07 A2995 RMK AO2 SLP142 T01440072=
201908240353 METAR KCLM 240353Z AUTO 26005KT 10SM OVC075 15/07 A2995 RMK AO2 SLP142 T01500067=
201908240253 METAR KCLM 240253Z AUTO 27004KT 10SM SCT090 14/09 A2994 RMK AO2 SLP137 T01390094 58011=
201908240153 METAR KCLM 240153Z AUTO 29004KT 10SM FEW085 16/11 A2995 RMK AO2 SLP141 T01610106=
201908240053 METAR KCLM 240053Z AUTO 29006KT 10SM FEW045 OVC085 16/10 A2996 RMK AO2 SLP146 T01560100=
201908232353 METAR KCLM 232353Z AUTO 31006KT 10SM SCT090 15/11 A2997 RMK AO2 SLP148 60000 T01500111 10183 20144 50002=
201908232253 METAR KCLM 232253Z AUTO VRB03KT 10SM CLR 17/12 A2997 RMK AO2 SLP149 T01670117=
201908232153 METAR KCLM 232153Z AUTO 00000KT 10SM SCT100 16/11 A2999 RMK AO2 SLP155 T01560111=
201908232053 METAR KCLM 232053Z AUTO VRB04KT 10SM FEW120 16/11 A2996 RMK AO2 SLP147 60000 T01610111 56014=
201908231953 METAR KCLM 231953Z AUTO 00000KT 10SM OVC110 16/12 A2999 RMK AO2 SLP154 T01560117=
201908231853 METAR KCLM 231853Z AUTO 10005KT 10SM FEW033 SCT090 18/12 A2997 RMK AO2 RAB32E47 SLP148 P0000 T01780122=
201908231753 METAR KCLM 231753Z AUTO 12006KT 10SM OVC090 17/12 A3001 RMK AO2 RAE02 SLP161 P0000 60004 T01670117 10167 20111 58012=
201908231653 METAR KCLM 231653Z AUTO 19005KT 5SM -RA BR BKN037 BKN050 OVC100 13/12 A3003 RMK AO2 RAB37 SLP170 P0004 T01330117=
201908231649 SPECI KCLM 231649Z AUTO 22005KT 2 1/2SM -RA BR SCT040 BKN050 OVC100 13/12 A3004 RMK AO2 RAB37 P0004=
201908231553 METAR KCLM 231553Z AUTO 26004KT 10SM FEW042 SCT100 13/12 A3004 RMK AO2 RAB21E43 SLP173 P0000 T01280117=
201908231535 SPECI KCLM 231535Z AUTO 29010KT 10SM -RA FEW006 SCT044 BKN090 12/11 A3004 RMK AO2 RAB21 P0000 T01220111=
201908231453 METAR KCLM 231453Z AUTO 00000KT 10SM FEW100 BKN110 13/12 A3001 RMK AO2 SLP162 T01280117 50001=
201908231353 METAR KCLM 231353Z AUTO 28005KT 10SM CLR 12/11 A3002 RMK AO2 SLP165 T01220106=
201908231253 METAR KCLM 231253Z AUTO 26003KT 10SM CLR 12/11 A3001 RMK AO2 SLP161 T01170111=
201908231153 METAR KCLM 231153Z AUTO 26006KT 10SM CLR 12/11 A3001 RMK AO2 SLP161 T01170106 10128 20106 58004=
201908231053 METAR KCLM 231053Z AUTO 27008KT 10SM CLR 12/11 A3001 RMK AO2 SLP162 T01220111=
201908230953 METAR KCLM 230953Z AUTO 24004KT 10SM CLR 12/11 A3002 RMK AO2 SLP165 T01170111=
201908230853 METAR KCLM 230853Z AUTO 24004KT 10SM CLR 12/11 A3002 RMK AO2 SLP165 T01170111 58011=
201908230753 METAR KCLM 230753Z AUTO 28005KT 10SM CLR 13/11 A3003 RMK AO2 SLP170 T01280111 402060072=
201908230653 METAR KCLM 230653Z AUTO 26006KT 9SM CLR 12/11 A3004 RMK AO2 SLP173 T01220111=
201908230553 METAR KCLM 230553Z AUTO 24005KT 10SM CLR 13/12 A3005 RMK AO2 SLP176 T01280117 10206 20111 58002=
201908230453 METAR KCLM 230453Z AUTO 28007KT 10SM CLR 12/11 A3007 RMK AO2 SLP181 T01220106=
201908230353 METAR KCLM 230353Z AUTO 27004KT 10SM CLR 12/11 A3007 RMK AO2 SLP182 T01220106=
201908230253 METAR KCLM 230253Z AUTO 29004KT 10SM CLR 14/10 A3006 RMK AO2 SLP178 T01440100 56004=
201908230153 METAR KCLM 230153Z AUTO 00000KT 10SM CLR 19/09 A3006 RMK AO2 SLP179 T01890094=
201908230053 METAR KCLM 230053Z AUTO 11007KT 10SM CLR 20/09 A3006 RMK AO2 SLP178 T02000094=
201908222353 METAR KCLM 222353Z AUTO VRB05KT 10SM CLR 19/09 A3007 RMK AO2 SLP182 T01940089 10200 20161 56011=
201908222253 METAR KCLM 222253Z AUTO 07006KT 10SM CLR 19/09 A3008 RMK AO2 SLP187 T01940094=
201908222153 METAR KCLM 222153Z AUTO 08009KT 10SM CLR 19/09 A3008 RMK AO2 SLP187 T01890089=
201908222053 METAR KCLM 222053Z AUTO 08007KT 10SM CLR 19/09 A3010 RMK AO2 SLP193 T01890094 58003=
201908221953 METAR KCLM 221953Z AUTO 01005KT 10SM CLR 17/11 A3011 RMK AO2 SLP195 T01670111=
201908221853 METAR KCLM 221853Z AUTO 07004KT 10SM CLR 17/11 A3012 RMK AO2 SLP198 T01720111=
201908221753 METAR KCLM 221753Z AUTO 03004KT 10SM CLR 16/11 A3011 RMK AO2 SLP196 T01610111 10167 20072 51015=
201908221653 METAR KCLM 221653Z AUTO 34005KT 10SM CLR 15/11 A3010 RMK AO2 SLP192 T01500111=
201908221553 METAR KCLM 221553Z AUTO 00000KT 10SM CLR 16/11 A3009 RMK AO2 SLP189 T01560111=
201908221453 METAR KCLM 221453Z AUTO 00000KT 10SM CLR 12/11 A3007 RMK AO2 SLP182 T01220111 53009=
201908221353 METAR KCLM 221353Z AUTO 22005KT 10SM CLR 10/09 A3006 RMK AO2 SLP179 T01000094=
201908221253 METAR KCLM 221253Z AUTO 20003KT 10SM CLR 08/08 A3004 RMK AO2 SLP174 T00830083=
201908221153 METAR KCLM 221153Z AUTO 00000KT 10SM CLR 08/08 A3004 RMK AO2 SLP174 70021 T00830078 10122 20078 53006=
201908221053 METAR KCLM 221053Z AUTO 24003KT 10SM CLR 08/08 A3003 RMK AO2 SLP169 T00780078=
201908220953 METAR KCLM 220953Z AUTO 27011KT 10SM CLR 11/09 A3003 RMK AO2 SLP170 T01110094=
201908220853 METAR KCLM 220853Z AUTO 25004KT 10SM SCT040 10/09 A3002 RMK AO2 SLP166 T01000094 58002=
201908220753 METAR KCLM 220753Z AUTO 00000KT 10SM OVC037 11/11 A3003 RMK AO2 SLP168 T01060106 401720100=
201908220653 METAR KCLM 220653Z AUTO 26005KT 10SM CLR 11/11 A3003 RMK AO2 SLP168 T01110106=
201908220553 METAR KCLM 220553Z AUTO 26006KT 10SM CLR 12/11 A3003 RMK AO2 SLP168 T01170106 10150 20117 51006=
201908220453 METAR KCLM 220453Z AUTO 26007KT 10SM CLR 13/11 A3002 RMK AO2 SLP166 T01280106 TSNO=
201908220353 METAR KCLM 220353Z AUTO 27004KT 10SM CLR 12/11 A3002 RMK AO2 SLP166 T01220106=
201908220253 METAR KCLM 220253Z AUTO 28010KT 10SM SCT023 14/11 A3001 RMK AO2 SLP162 T01390106 51006=
201908220153 METAR KCLM 220153Z AUTO 26008KT 10SM OVC021 15/11 A3000 RMK AO2 SLP159 T01500106=
201908220053 METAR KCLM 220053Z AUTO 28011G18KT 10SM OVC020 14/11 A3000 RMK AO2 SLP160 T01440111=
201908212353 METAR KCLM 212353Z AUTO 26009KT 10SM OVC016 15/13 A2999 RMK AO2 SLP156 60010 T01500128 10172 20139 53002=
201908212307 SPECI KCLM 212307Z AUTO 28010KT 10SM SCT007 OVC015 16/14 A2998 RMK AO2 T01560144=
201908212253 METAR KCLM 212253Z AUTO 28010KT 9SM BKN007 OVC013 16/15 A2998 RMK AO2 RAE17 CIG 002V010 SLP151 P0002 T01560150=
201908212245 SPECI KCLM 212245Z AUTO 28009KT 8SM OVC005 16/15 A2998 RMK AO2 RAE17 CIG 002V009 P0002 T01560150=
201908212235 SPECI KCLM 212235Z AUTO 30009KT 7SM BKN003 OVC007 16/15 A2998 RMK AO2 RAE17 CIG 002V006 P0002 T01560150=
201908212211 SPECI KCLM 212211Z AUTO 29006KT 6SM -RA BR OVC007 16/16 A2998 RMK AO2 CIG 003V009 P0002 T01610156=
201908212204 SPECI KCLM 212204Z AUTO 31005KT 2 1/2SM -RA BR OVC007 17/16 A2998 RMK AO2 P0002 T01670156=
201908212153 METAR KCLM 212153Z AUTO 29005KT 4SM -RA BR BKN007 BKN013 OVC024 17/16 A2998 RMK AO2 RAB2057E10B30 SLP153 P0002 T01670156=
201908212053 METAR KCLM 212053Z AUTO 00000KT 4SM BR FEW005 OVC014 16/15 A2998 RMK AO2 RAE43 SLP153 P0002 60006 T01610150 51006=
201908212040 SPECI KCLM 212040Z AUTO 00000KT 3SM -RA BR FEW006 OVC016 16/15 A2998 RMK AO2 P0002 T01610150=
201908212033 SPECI KCLM 212033Z AUTO 00000KT 2SM -RA BR SCT006 BKN014 OVC018 16/15 A2998 RMK AO2 P0002 T01560150=
201908211953 METAR KCLM 211953Z AUTO 00000KT 2SM -RA BR OVC005 16/15 A2998 RMK AO2 CIG 003V009 SLP152 P0004 T01560150=
201908211935 SPECI KCLM 211935Z AUTO 00000KT 2 1/2SM -RA BR BKN005 OVC009 15/14 A2998 RMK AO2 CIG 002V007 P0002 T01500144=
201908211912 SPECI KCLM 211912Z AUTO 00000KT 3SM -RA BR BKN003 OVC008 14/14 A2998 RMK AO2 P0002 T01440144=
201908211902 SPECI KCLM 211902Z AUTO 00000KT 1 3/4SM -RA BR SCT003 BKN008 OVC016 14/14 A2998 RMK AO2 P0002 T01440139=
201908211853 METAR KCLM 211853Z AUTO 00000KT 3SM -RA BR FEW003 BKN008 OVC070 14/14 A2998 RMK AO2 RAB02 SLP152 P0000 T01440139=
201908211753 METAR KCLM 211753Z AUTO 35005KT 7SM SCT005 OVC080 14/14 A2996 RMK AO2 SLP147 60011 T01440139 10156 20128 53009=
201908211748 SPECI KCLM 211748Z AUTO 33005KT 8SM SCT005 OVC080 15/14 A2996 RMK AO2=
201908211735 SPECI KCLM 211735Z AUTO 30003KT 8SM BKN004 OVC090 16/14 A2996 RMK AO2 T01560144=
201908211707 SPECI KCLM 211707Z AUTO 00000KT 9SM SCT003 OVC090 15/14 A2995 RMK AO2 T01500139=
201908211653 METAR KCLM 211653Z AUTO 00000KT 6SM BR BKN002 OVC080 14/14 A2995 RMK AO2 RAE1559 SLP142 P0000 T01440139=
201908211623 SPECI KCLM 211623Z AUTO 33003KT 5SM BR BKN003 OVC085 14/13 A2995 RMK AO2 RAE1559 CIG 002V007 P0000 T01390133=
201908211602 SPECI KCLM 211602Z AUTO 32004KT 6SM BR FEW003 OVC095 14/13 A2994 RMK AO2 RAE1559 P0000 T01390133=
201908211553 METAR KCLM 211553Z AUTO 24003KT 5SM -RA BR FEW070 BKN100 OVC120 13/13 A2994 RMK AO2 SLP140 P0006 T01330133=
201908211507 SPECI KCLM 211507Z AUTO 00000KT 2SM -RA BR BKN100 OVC110 14/14 A2994 RMK AO2 P0002 T01390139=
201908211453 METAR KCLM 211453Z AUTO 00000KT 4SM -RA BR BKN100 OVC120 14/14 A2994 RMK AO2 RAE1357B19 SLP137 P0005 60005 T01390139 55005=
201908211445 SPECI KCLM 211445Z AUTO 00000KT 2 1/2SM -RA BR OVC100 14/14 A2994 RMK AO2 VIS 1 3/4V3 RAE1357B19 P0004 T01390139=
201908211353 METAR KCLM 211353Z AUTO 00000KT 6SM -RA BR FEW050 BKN100 OVC120 14/13 A2994 RMK AO2 RAB38 SLP139 P0000 T01390133 $=
201908211325 SPECI KCLM 211325Z AUTO 00000KT 8SM SCT004 BKN070 BKN100 13/13 A2995 RMK AO2 T01330128 $=
201908211253 METAR KCLM 211253Z AUTO 00000KT 4SM BR BKN003 BKN070 BKN090 13/13 A2995 RMK AO2 SLP142 T01330133 $=
201908211251 SPECI KCLM 211251Z AUTO 00000KT 3SM BR BKN003 BKN070 BKN090 13/13 A2995 RMK AO2 $=
201908211246 SPECI KCLM 211246Z AUTO 00000KT 2 1/2SM BR SCT003 BKN070 BKN090 13/13 A2995 RMK AO2 T01280128 $=
201908211153 METAR KCLM 211153Z AUTO 24003KT 10SM FEW055 BKN090 OVC120 14/13 A2995 RMK AO2 SLP141 60003 70003 T01390133 10156 20133 50002 $=
201908211053 METAR KCLM 211053Z AUTO 00000KT 10SM FEW055 OVC090 14/13 A2995 RMK AO2 RAB0955E20 SLP142 P0003 T01390133 $=
201908210953 METAR KCLM 210953Z AUTO 24005KT 10SM SCT060 OVC075 16/12 A2995 RMK AO2 SLP142 T01560122 $=
201908210853 METAR KCLM 210853Z AUTO 24004KT 10SM SCT080 SCT100 14/12 A2994 RMK AO2 SLP139 T01390122 50000 $=
201908210753 METAR KCLM 210753Z AUTO 18003KT 10SM FEW110 14/12 A2995 RMK AO2 SLP142 T01390117 402170083 $=
201908210653 METAR KCLM 210653Z AUTO 19003KT 10SM CLR 14/12 A2994 RMK AO2 SLP139 T01440122 $=
201908210553 METAR KCLM 210553Z AUTO 21004KT 10SM CLR 16/12 A2994 RMK AO2 SLP138 T01560117 10200 20156 51006 $=
201908210453 METAR KCLM 210453Z AUTO 23004KT 10SM CLR 16/12 A2993 RMK AO2 SLP137 T01610117 $=
201908210353 METAR KCLM 210353Z AUTO 25007KT 10SM CLR 17/12 A2994 RMK AO2 SLP137 T01670117 $=
201908210253 METAR KCLM 210253Z AUTO 27009KT 10SM CLR 17/11 A2992 RMK AO2 SLP133 T01720111 51005 $=
201908210153 METAR KCLM 210153Z AUTO 26009KT 10SM CLR 18/11 A2992 RMK AO2 SLP133 T01780111 $=
201908210053 METAR KCLM 210053Z AUTO 29006KT 10SM CLR 17/11 A2992 RMK AO2 SLP133 T01720106 $=
201908202353 METAR KCLM 202353Z AUTO 00000KT 10SM 20/11 A2991 RMK AO2 SLP128 T02000111 10217 20172 56007 $=
201908202253 METAR KCLM 202253Z AUTO 34003KT 10SM CLR 19/11 A2992 RMK AO2 SLP131 T01940106=
201908202153 METAR KCLM 202153Z AUTO VRB03KT 10SM CLR 21/11 A2992 RMK AO2 SLP131 T02110111=
201908202053 METAR KCLM 202053Z AUTO 06004KT 10SM CLR 21/11 A2993 RMK AO2 SLP135 T02060106 56006 $=
201908201953 METAR KCLM 201953Z AUTO 02004KT 10SM CLR 19/10 A2994 RMK AO2 SLP137 T01940100 $=
201908201853 METAR KCLM 201853Z AUTO 03004KT 10SM CLR 18/11 A2994 RMK AO2 SLP139 T01830106 $=
201908201753 METAR KCLM 201753Z AUTO 04004KT 10SM CLR 18/11 A2995 RMK AO2 SLP141 T01780106 10183 20083 55001 $=
201908201653 METAR KCLM 201653Z AUTO VRB04KT 10SM CLR 18/11 A2995 RMK AO2 SLP140 T01830106 $=
201908201553 METAR KCLM 201553Z AUTO 00000KT 10SM CLR 18/11 A2995 RMK AO2 SLP143 T01780111=
201908201453 METAR KCLM 201453Z AUTO 00000KT 10SM CLR 14/12 A2995 RMK AO2 SLP143 T01440122 55001=
201908201353 METAR KCLM 201353Z AUTO 20003KT 10SM CLR 09/09 A2995 RMK AO2 SLP141 T00940094=
201908201253 METAR KCLM 201253Z AUTO 00000KT 10SM CLR 09/08 A2994 RMK AO2 SLP140 T00890083=
201908201153 METAR KCLM 201153Z AUTO 00000KT 10SM CLR 09/09 A2996 RMK AO2 SLP144 T00940089 10133 20083 56007=
201908201053 METAR KCLM 201053Z AUTO 21003KT 10SM CLR 09/09 A2996 RMK AO2 SLP144 T00940089=
201908200953 METAR KCLM 200953Z AUTO 00000KT 10SM CLR 10/10 A2998 RMK AO2 SLP150 T01000100=
201908200853 METAR KCLM 200853Z AUTO 00000KT 10SM CLR 10/09 A2998 RMK AO2 SLP151 T01000094 56005=
201908200753 METAR KCLM 200753Z AUTO 00000KT 10SM CLR 11/10 A2998 RMK AO2 SLP152 T01110100 402110100=
201908200653 METAR KCLM 200653Z AUTO 21003KT 10SM CLR 11/10 A2999 RMK AO2 SLP154 T01060100=
201908200553 METAR KCLM 200553Z AUTO 00000KT 10SM CLR 13/11 A2999 RMK AO2 SLP156 T01330106 10200 20122 56006=
201908200453 METAR KCLM 200453Z AUTO 24003KT 10SM CLR 14/11 A3000 RMK AO2 SLP158 T01390106=
201908200353 METAR KCLM 200353Z AUTO 25005KT 10SM CLR 15/09 A3000 RMK AO2 SLP160 T01500094=
201908200253 METAR KCLM 200253Z AUTO 28004KT 10SM CLR 16/10 A3001 RMK AO2 SLP163 T01560100 56008=
201908200153 METAR KCLM 200153Z AUTO 00000KT 10SM CLR 18/11 A3001 RMK AO2 SLP162 T01830106=
201908200053 METAR KCLM 200053Z AUTO 33004KT 10SM CLR 19/11 A3002 RMK AO2 SLP167 T01890106=
201908192353 METAR KCLM 192353Z AUTO 33005KT 10SM CLR 20/11 A3004 RMK AO2 SLP170 T02000106 10211 20178 56005=
201908192253 METAR KCLM 192253Z AUTO 31008KT 10SM FEW039 21/10 A3003 RMK AO2 SLP170 T02060100=
201908192153 METAR KCLM 192153Z AUTO VRB05KT 10SM OVC038 21/10 A3004 RMK AO2 SLP171 T02060100=
201908192053 METAR KCLM 192053Z AUTO 30006KT 10SM OVC039 19/10 A3005 RMK AO2 SLP175 T01940100 53008=
201908191953 METAR KCLM 191953Z AUTO 28009KT 10SM OVC039 19/10 A3004 RMK AO2 SLP172 T01890100=
201908191853 METAR KCLM 191853Z AUTO VRB05KT 10SM OVC036 18/10 A3003 RMK AO2 SLP167 T01830100=
201908191753 METAR KCLM 191753Z AUTO VRB04KT 10SM OVC037 18/11 A3002 RMK AO2 SLP167 T01830106 10183 20128 53013=
201908191653 METAR KCLM 191653Z AUTO 29009KT 10SM OVC038 18/11 A3001 RMK AO2 SLP162 T01780106=
201908191553 METAR KCLM 191553Z AUTO 27007KT 10SM OVC039 17/12 A3000 RMK AO2 SLP158 T01720117=
201908191453 METAR KCLM 191453Z AUTO 24004KT 10SM OVC038 16/12 A2999 RMK AO2 SLP154 T01560122 51013=
201908191353 METAR KCLM 191353Z AUTO 00000KT 10SM FEW028 OVC038 13/12 A2998 RMK AO2 SLP153 T01330122=
201908191253 METAR KCLM 191253Z AUTO 00000KT 10SM OVC036 13/12 A2996 RMK AO2 SLP147 T01330117=
201908191153 METAR KCLM 191153Z AUTO 22003KT 10SM OVC034 13/12 A2995 RMK AO2 SLP141 T01330122 10139 20106 51010=
201908191053 METAR KCLM 191053Z AUTO 00000KT 10SM OVC031 13/12 A2994 RMK AO2 SLP139 T01330122=
201908190953 METAR KCLM 190953Z AUTO 00000KT 10SM OVC030 13/12 A2993 RMK AO2 SLP135 T01280117=
201908190914 SPECI KCLM 190914Z AUTO 00000KT 10SM OVC029 13/12 A2992 RMK AO2 T01280117=
201908190853 METAR KCLM 190853Z AUTO 27003KT 10SM OVC031 13/12 A2992 RMK AO2 SLP131 T01280117 53006=
201908190753 METAR KCLM 190753Z AUTO 00000KT 10SM SCT032 11/10 A2991 RMK AO2 SLP128 T01060100 401890106=
201908190653 METAR KCLM 190653Z AUTO 25007KT 10SM CLR 13/11 A2990 RMK AO2 SLP126 T01280111=
201908190553 METAR KCLM 190553Z AUTO 26007KT 10SM CLR 14/12 A2990 RMK AO2 SLP125 T01390117 10183 20139 51008=
201908190453 METAR KCLM 190453Z AUTO 26008KT 10SM CLR 14/12 A2990 RMK AO2 SLP123 T01390122=
201908190353 METAR KCLM 190353Z AUTO 26009KT 10SM CLR 14/12 A2989 RMK AO2 SLP120 T01440117=
201908190253 METAR KCLM 190253Z AUTO 27009KT 10SM CLR 16/12 A2988 RMK AO2 SLP116 T01560117 56005=
201908190153 METAR KCLM 190153Z AUTO 29009KT 10SM CLR 17/12 A2988 RMK AO2 SLP117 T01720117=
201908190053 METAR KCLM 190053Z AUTO 29010KT 10SM CLR 18/11 A2988 RMK AO2 SLP119 T01780106=
201908182353 METAR KCLM 182353Z AUTO 31008KT 10SM CLR 18/12 A2989 RMK AO2 SLP121 T01780117 10189 20161 56006=
201908182332 SPECI KCLM 182332Z AUTO 29009G18KT 10SM FEW024 18/11 A2989 RMK AO2 T01780111=
201908182253 METAR KCLM 182253Z AUTO 30010KT 10SM OVC026 18/11 A2990 RMK AO2 SLP123 T01780111=
201908182153 METAR KCLM 182153Z AUTO 29012KT 10SM OVC026 18/12 A2990 RMK AO2 SLP125 T01780117=
201908182053 METAR KCLM 182053Z AUTO 28009KT 10SM OVC028 18/12 A2991 RMK AO2 SLP127 T01780117 50002=
201908181953 METAR KCLM 181953Z AUTO 29010KT 10SM OVC025 17/12 A2991 RMK AO2 SLP129 T01720117=
201908181853 METAR KCLM 181853Z AUTO 30009KT 10SM OVC023 17/12 A2991 RMK AO2 SLP128 T01670117=
201908181753 METAR KCLM 181753Z AUTO 30006KT 10SM OVC023 16/12 A2990 RMK AO2 SLP125 T01610122 10167 20128 53004=
201908181653 METAR KCLM 181653Z AUTO 34004KT 10SM OVC022 16/12 A2990 RMK AO2 SLP124 T01610122=
201908181553 METAR KCLM 181553Z AUTO 29003KT 10SM OVC023 16/12 A2989 RMK AO2 SLP122 T01560122=
201908181453 METAR KCLM 181453Z AUTO 00000KT 10SM OVC023 14/12 A2989 RMK AO2 SLP121 T01440122 55004=
201908181353 METAR KCLM 181353Z AUTO 00000KT 10SM OVC022 13/12 A2989 RMK AO2 SLP120 T01330122=
201908181253 METAR KCLM 181253Z AUTO 00000KT 10SM OVC020 14/12 A2989 RMK AO2 SLP120 T01390122=
201908181153 METAR KCLM 181153Z AUTO 26006KT 10SM OVC015 15/12 A2990 RMK AO2 SLP124 T01500122 10150 20139 57005=
201908181145 SPECI KCLM 181145Z AUTO 26006KT 10SM OVC015 14/12 A2990 RMK AO2 T01440122=
201908181053 METAR KCLM 181053Z AUTO 26007KT 10SM OVC014 14/12 A2991 RMK AO2 SLP127 T01440122=
201908180953 METAR KCLM 180953Z AUTO 28006KT 10SM OVC012 14/12 A2991 RMK AO2 SLP129 T01440122=
201908180853 METAR KCLM 180853Z AUTO 27008KT 10SM OVC013 14/12 A2992 RMK AO2 SLP131 T01390122 56006=
201908180753 METAR KCLM 180753Z AUTO 27008KT 10SM OVC013 14/12 A2992 RMK AO2 SLP133 T01390122 402060122=
201908180653 METAR KCLM 180653Z AUTO 27007KT 10SM OVC013 14/13 A2993 RMK AO2 SLP134 T01390128=
201908180620 SPECI KCLM 180620Z AUTO 28008KT 10SM OVC014 14/13 A2994 RMK AO2 T01390128=
201908180553 METAR KCLM 180553Z AUTO 27010KT 10SM OVC015 14/13 A2994 RMK AO2 SLP137 T01390128 10200 20139 53001=
201908180542 SPECI KCLM 180542Z AUTO 27009KT 10SM BKN016 14/13 A2993 RMK AO2 T01390128=
201908180453 METAR KCLM 180453Z AUTO 27008KT 10SM CLR 14/13 A2993 RMK AO2 SLP136 T01440128=
201908180353 METAR KCLM 180353Z AUTO 26007KT 10SM CLR 15/13 A2992 RMK AO2 SLP132 T01500133=
201908180253 METAR KCLM 180253Z AUTO 29004KT 10SM CLR 17/13 A2993 RMK AO2 SLP135 T01670128 56010=
201908180153 METAR KCLM 180153Z AUTO 30006KT 10SM CLR 17/13 A2994 RMK AO2 SLP137 T01720128=
201908180053 METAR KCLM 180053Z AUTO 29009KT 10SM BKN047 18/13 A2995 RMK AO2 SLP141 T01830128=
201908172353 METAR KCLM 172353Z AUTO 30007KT 10SM BKN055 20/13 A2996 RMK AO2 SLP145 T02000128 10206 20172 56014=
201908172253 METAR KCLM 172253Z AUTO 33006KT 10SM OVC055 19/13 A2997 RMK AO2 SLP150 T01890128=
201908172153 METAR KCLM 172153Z AUTO 33006KT 10SM FEW060 19/13 A2998 RMK AO2 SLP153 T01890128=
201908172053 METAR KCLM 172053Z AUTO 31007KT 280V020 10SM CLR 19/13 A3000 RMK AO2 SLP159 T01890128 58003=
201908171953 METAR KCLM 171953Z AUTO VRB06KT 10SM OVC031 18/13 A3000 RMK AO2 SLP160 T01780128=
201908171853 METAR KCLM 171853Z AUTO VRB05KT 10SM CLR 18/13 A3002 RMK AO2 SLP164 T01830128=
201908171753 METAR KCLM 171753Z AUTO 35006KT 10SM CLR 17/13 A3001 RMK AO2 SLP162 T01720128 10178 20128 51002=
201908171653 METAR KCLM 171653Z AUTO 36004KT 10SM CLR 17/13 A3001 RMK AO2 SLP162 T01720128=
201908171553 METAR KCLM 171553Z AUTO 27004KT 10SM OVC060 16/13 A3001 RMK AO2 SLP163 T01560128=
201908171453 METAR KCLM 171453Z AUTO 29004KT 10SM OVC065 14/13 A3001 RMK AO2 SLP160 T01440128 55004=
201908171353 METAR KCLM 171353Z AUTO 22004KT 10SM OVC065 14/13 A3000 RMK AO2 SLP158 T01390128=
201908171253 METAR KCLM 171253Z AUTO 00000KT 10SM OVC065 13/12 A3000 RMK AO2 SLP158 T01330122=
201908171153 METAR KCLM 171153Z AUTO 00000KT 10SM OVC065 12/12 A3002 RMK AO2 SLP164 T01220117 10150 20122 55002=
201908171053 METAR KCLM 171053Z AUTO 21004KT 10SM SCT065 12/12 A3001 RMK AO2 SLP164 T01220117=
201908170953 METAR KCLM 170953Z AUTO 25003KT 10SM CLR 13/12 A3001 RMK AO2 SLP163 T01330122=
201908170853 METAR KCLM 170853Z AUTO 25004KT 10SM OVC065 14/13 A3002 RMK AO2 SLP166 T01440128 58007=
201908170753 METAR KCLM 170753Z AUTO 26004KT 10SM OVC065 14/13 A3004 RMK AO2 SLP173 T01440128 402000106=
201908170653 METAR KCLM 170653Z AUTO 25006KT 10SM FEW026 OVC070 15/13 A3003 RMK AO2 SLP170 T01500133=
201908170646 SPECI KCLM 170646Z AUTO 26007KT 10SM SCT026 OVC070 15/13 A3004 RMK AO2 T01500133=
201908170553 METAR KCLM 170553Z AUTO 26005KT 10SM OVC027 15/13 A3004 RMK AO2 SLP174 T01500133 10194 20139 55000=
201908170528 SPECI KCLM 170528Z AUTO 27005KT 10SM BKN027 14/13 A3005 RMK AO2 T01440128=
201908170453 METAR KCLM 170453Z AUTO 27004KT 10SM CLR 14/12 A3004 RMK AO2 SLP174 T01440122=
201908170434 SPECI KCLM 170434Z AUTO 26005KT 10SM SCT027 15/12 A3004 RMK AO2 T01500122=
201908170418 SPECI KCLM 170418Z AUTO 25005KT 10SM BKN027 15/12 A3004 RMK AO2 T01500122=
201908170353 METAR KCLM 170353Z AUTO 27006KT 10SM FEW027 FEW070 15/12 A3004 RMK AO2 SLP173 T01500122=
201908170253 METAR KCLM 170253Z AUTO 30004KT 10SM FEW030 BKN065 17/12 A3004 RMK AO2 SLP174 T01670122 58006=
201908170153 METAR KCLM 170153Z AUTO 28006KT 10SM SCT039 18/12 A3006 RMK AO2 SLP178 T01780122=
201908170053 METAR KCLM 170053Z AUTO 31006KT 10SM CLR 19/12 A3006 RMK AO2 SLP179 T01940117=
201908162353 METAR KCLM 162353Z AUTO 32005KT 10SM FEW070 20/12 A3006 RMK AO2 SLP180 T02000117 10200 20167 58018=
201908162253 METAR KCLM 162253Z AUTO 00000KT 10SM OVC036 19/12 A3008 RMK AO2 SLP187 T01890122=
201908162153 METAR KCLM 162153Z AUTO VRB03KT 10SM SCT026 OVC033 19/12 A3010 RMK AO2 SLP191 T01890122=
201908162053 METAR KCLM 162053Z AUTO VRB04KT 10SM OVC023 18/13 A3011 RMK AO2 SLP197 T01780128 58005=
201908161953 METAR KCLM 161953Z AUTO 35004KT 10SM OVC022 18/13 A3012 RMK AO2 SLP200 T01780128=
201908161853 METAR KCLM 161853Z AUTO 36005KT 10SM BKN021 OVC027 18/13 A3012 RMK AO2 SLP201 T01780128=
201908161815 SPECI KCLM 161815Z AUTO VRB05KT 10SM BKN022 18/13 A3013 RMK AO2 T01780133=
201908161753 METAR KCLM 161753Z AUTO 33005KT 10SM CLR 18/13 A3013 RMK AO2 SLP202 T01780133 10183 20106 53001=
201908161653 METAR KCLM 161653Z AUTO VRB06KT 10SM CLR 18/13 A3013 RMK AO2 SLP201 T01780128=
201908161553 METAR KCLM 161553Z AUTO 25003KT 10SM CLR 17/11 A3012 RMK AO2 SLP200 T01720111=
201908161453 METAR KCLM 161453Z AUTO 25004KT 10SM CLR 16/10 A3013 RMK AO2 SLP202 T01560100 53003=
201908161353 METAR KCLM 161353Z AUTO 21006KT 10SM CLR 12/10 A3012 RMK AO2 SLP199 T01170100=
201908161253 METAR KCLM 161253Z AUTO 21005KT 10SM CLR 11/09 A3011 RMK AO2 SLP198 T01060094=
201908161153 METAR KCLM 161153Z AUTO 24004KT 10SM CLR 11/09 A3012 RMK AO2 SLP198 T01110094 10133 20111 55006=
201908161053 METAR KCLM 161053Z AUTO 26006KT 10SM CLR 12/10 A3011 RMK AO2 SLP197 T01170100=
201908160953 METAR KCLM 160953Z AUTO 24005KT 10SM CLR 12/11 A3012 RMK AO2 SLP198 T01170106=
201908160853 METAR KCLM 160853Z AUTO 25007KT 10SM CLR 13/11 A3013 RMK AO2 SLP204 T01280111 58002=
201908160753 METAR KCLM 160753Z AUTO 27011KT 10SM CLR 13/12 A3014 RMK AO2 SLP206 T01280117 402060128=
201908160653 METAR KCLM 160653Z AUTO 27014KT 10SM CLR 13/12 A3014 RMK AO2 SLP208 T01330117=
201908160553 METAR KCLM 160553Z AUTO 27010KT 10SM CLR 13/12 A3014 RMK AO2 SLP206 T01330117 10206 20133 58004=
201908160453 METAR KCLM 160453Z AUTO 26007KT 10SM CLR 14/12 A3015 RMK AO2 SLP209 T01390117=
201908160353 METAR KCLM 160353Z AUTO 27009KT 10SM CLR 14/12 A3016 RMK AO2 SLP211 T01440122=
201908160253 METAR KCLM 160253Z AUTO 27007G15KT 10SM CLR 16/13 A3015 RMK AO2 SLP210 T01560128 55007=
201908160153 METAR KCLM 160153Z AUTO 29014KT 10SM CLR 17/13 A3015 RMK AO2 SLP210 T01670128=
201908160053 METAR KCLM 160053Z AUTO 28011KT 10SM CLR 19/14 A3016 RMK AO2 SLP212 T01890139=
201908152353 METAR KCLM 152353Z AUTO 30008KT 10SM CLR 19/14 A3017 RMK AO2 SLP217 T01890144 10206 20183 58013=
201908152253 METAR KCLM 152253Z AUTO 30010KT 10SM CLR 20/15 A3019 RMK AO2 SLP222 T02000150=
201908152153 METAR KCLM 152153Z AUTO 29010KT 270V330 10SM CLR 21/14 A3020 RMK AO2 SLP224 T02060144=
201908152053 METAR KCLM 152053Z AUTO 30008KT 10SM CLR 20/14 A3021 RMK AO2 SLP229 T02000144 58006=
201908151953 METAR KCLM 151953Z AUTO 28009KT 10SM CLR 19/14 A3022 RMK AO2 SLP233 T01940144 $=
201908151853 METAR KCLM 151853Z AUTO 30007KT 10SM 19/14 A3023 RMK AO2 SLP235 T01890144 $=
201908151753 METAR KCLM 151753Z AUTO 31007KT 10SM CLR 18/14 A3023 RMK AO2 SLP236 T01830144 10189 20139 53002 $=
201908151653 METAR KCLM 151653Z AUTO 29006KT 10SM CLR 18/14 A3022 RMK AO2 SLP234 T01780144=
201908151553 METAR KCLM 151553Z AUTO 30008KT 10SM CLR 17/14 A3023 RMK AO2 SLP235 T01670139=
201908151453 METAR KCLM 151453Z AUTO 28008KT 10SM CLR 16/14 A3022 RMK AO2 SLP234 T01560139 53005=
201908151353 METAR KCLM 151353Z AUTO 29005KT 10SM CLR 14/14 A3021 RMK AO2 SLP231 T01440139=
201908151253 METAR KCLM 151253Z AUTO 28009KT 10SM SCT004 14/14 A3021 RMK AO2 SLP229 T01390139=
201908151249 SPECI KCLM 151249Z AUTO 29008KT 10SM SCT004 14/14 A3021 RMK AO2=
201908151153 METAR KCLM 151153Z AUTO 27010KT 10SM OVC004 14/14 A3020 RMK AO2 SLP227 T01440139 10161 20139 53001=
201908151138 SPECI KCLM 151138Z AUTO 27009KT 10SM BKN004 14/14 A3020 RMK AO2 T01390139=
201908151128 SPECI KCLM 151128Z AUTO 28009KT 10SM SCT004 SCT065 14/14 A3020 RMK AO2 T01440139=
201908151053 METAR KCLM 151053Z AUTO 28009KT 10SM CLR 14/13 A3020 RMK AO2 SLP224 T01440133=
201908150953 METAR KCLM 150953Z AUTO 29008KT 10SM CLR 14/13 A3019 RMK AO2 SLP223 T01440133=
201908150853 METAR KCLM 150853Z AUTO 27008KT 10SM CLR 14/14 A3020 RMK AO2 SLP225 T01440139 53003=
201908150753 METAR KCLM 150753Z AUTO 26009KT 10SM CLR 15/14 A3020 RMK AO2 SLP224 T01500139 402330122=
201908150653 METAR KCLM 150653Z AUTO 27008KT 10SM CLR 16/14 A3019 RMK AO2 SLP222 T01560139=
201908150553 METAR KCLM 150553Z AUTO 28009KT 10SM CLR 16/14 A3019 RMK AO2 SLP222 T01560144 10222 20156 58001=
201908150453 METAR KCLM 150453Z AUTO 28010KT 10SM CLR 16/14 A3020 RMK AO2 SLP225 T01560144=
201908150353 METAR KCLM 150353Z AUTO 26008KT 10SM CLR 16/14 A3019 RMK AO2 SLP223 T01610144=
201908150253 METAR KCLM 150253Z AUTO 28010KT 10SM CLR 17/14 A3019 RMK AO2 SLP225 T01670144 53003=
201908150153 METAR KCLM 150153Z AUTO 26010KT 10SM CLR 19/14 A3018 RMK AO2 SLP219 T01940139=
201908150053 METAR KCLM 150053Z AUTO 30008KT 10SM CLR 20/13 A3018 RMK AO2 SLP221 T02000133=
201908142353 METAR KCLM 142353Z AUTO 29004KT 10SM CLR 22/13 A3019 RMK AO2 SLP221 T02170128 10233 20194 58005=
201908142253 METAR KCLM 142253Z AUTO 30007KT 10SM CLR 21/13 A3019 RMK AO2 SLP223 T02060133=
201908142153 METAR KCLM 142153Z AUTO 29008KT 10SM CLR 22/12 A3020 RMK AO2 SLP226 T02220122=
201908142053 METAR KCLM 142053Z AUTO VRB05KT 10SM CLR 23/13 A3020 RMK AO2 SLP225 T02280133 58001=
201908141953 METAR KCLM 141953Z AUTO 34004KT 10SM CLR 21/13 A3020 RMK AO2 SLP226 T02110128=
201908141853 METAR KCLM 141853Z AUTO 35004KT 10SM CLR 21/13 A3020 RMK AO2 SLP227 T02110128=
201908141753 METAR KCLM 141753Z AUTO VRB04KT 10SM CLR 19/14 A3020 RMK AO2 SLP226 T01940139 10217 20122 53005=
201908141653 METAR KCLM 141653Z AUTO VRB04KT 10SM CLR 21/13 A3019 RMK AO2 SLP222 T02110128=
201908141553 METAR KCLM 141553Z AUTO 00000KT 10SM CLR 18/14 A3019 RMK AO2 SLP222 T01830139=
201908141453 METAR KCLM 141453Z AUTO 30004KT 10SM CLR 16/14 A3019 RMK AO2 SLP221 T01610139 53013=
201908141353 METAR KCLM 141353Z AUTO 00000KT 10SM CLR 13/12 A3017 RMK AO2 SLP215 T01330122=
201908141253 METAR KCLM 141253Z AUTO 00000KT 10SM CLR 13/12 A3016 RMK AO2 SLP212 T01330117=
201908141153 METAR KCLM 141153Z AUTO 26003KT 10SM CLR 14/12 A3015 RMK AO2 SLP208 T01440122 10178 20139 51005=
201908141053 METAR KCLM 141053Z AUTO 30004KT 10SM CLR 15/12 A3014 RMK AO2 SLP207 T01500122=
201908140953 METAR KCLM 140953Z AUTO 00000KT 10SM CLR 15/12 A3014 RMK AO2 SLP206 T01500122=
201908140853 METAR KCLM 140853Z AUTO 27005KT 10SM CLR 16/12 A3013 RMK AO2 SLP203 T01610122 51002=
201908140753 METAR KCLM 140753Z AUTO 27007KT 10SM BKN060 17/13 A3013 RMK AO2 SLP203 T01670128 402560117=
201908140653 METAR KCLM 140653Z AUTO 26005KT 10SM SCT060 16/12 A3013 RMK AO2 SLP203 T01610122=
201908140553 METAR KCLM 140553Z AUTO 25006KT 10SM CLR 17/13 A3013 RMK AO2 SLP201 T01720133 10244 20161 51009=
201908140453 METAR KCLM 140453Z AUTO 22004KT 10SM SCT060 18/13 A3012 RMK AO2 SLP199 T01780133=
201908140353 METAR KCLM 140353Z AUTO 26004KT 10SM BKN060 19/13 A3011 RMK AO2 SLP196 T01890128=
201908140253 METAR KCLM 140253Z AUTO 00000KT 10SM FEW060 21/12 A3010 RMK AO2 SLP192 T02110122 56006=
201908140153 METAR KCLM 140153Z AUTO 34004KT 10SM CLR 23/11 A3010 RMK AO2 SLP193 T02280106=
201908140053 METAR KCLM 140053Z AUTO 36004KT 10SM CLR 23/09 A3011 RMK AO2 SLP196 T02330094=
201908132353 METAR KCLM 132353Z AUTO VRB04KT 10SM CLR 24/09 A3012 RMK AO2 SLP198 T02390094 10256 20200 58007=
201908132253 METAR KCLM 132253Z AUTO VRB04KT 10SM FEW065 24/09 A3013 RMK AO2 SLP201 T02440094=
201908132153 METAR KCLM 132153Z AUTO 02005KT 10SM CLR 24/09 A3014 RMK AO2 SLP204 T02440094=
201908132053 METAR KCLM 132053Z AUTO VRB05KT 10SM CLR 24/11 A3014 RMK AO2 SLP205 T02440106 57000=
201908131953 METAR KCLM 131953Z AUTO VRB05KT 10SM CLR 22/13 A3014 RMK AO2 SLP205 T02170128=
201908131853 METAR KCLM 131853Z AUTO VRB04KT 10SM CLR 22/14 A3014 RMK AO2 SLP205 T02170139=
201908131753 METAR KCLM 131753Z AUTO 10006KT 10SM FEW100 20/13 A3014 RMK AO2 SLP205 T02000133 10200 20117 51008=
201908131653 METAR KCLM 131653Z AUTO VRB03KT 10SM FEW100 19/13 A3013 RMK AO2 SLP203 T01940128=
201908131553 METAR KCLM 131553Z AUTO 36003KT 10SM CLR 18/13 A3012 RMK AO2 SLP199 T01830128=
201908131453 METAR KCLM 131453Z AUTO 00000KT 10SM CLR 16/14 A3012 RMK AO2 SLP198 T01610144 53005=
201908131353 METAR KCLM 131353Z AUTO 00000KT 10SM BKN120 13/12 A3011 RMK AO2 SLP196 T01280122=
201908131253 METAR KCLM 131253Z AUTO 00000KT 10SM OVC110 12/12 A3010 RMK AO2 SLP193 T01220117=
201908131153 METAR KCLM 131153Z AUTO 19003KT 10SM CLR 13/12 A3010 RMK AO2 SLP192 T01280122 10167 20122 56003=
201908131053 METAR KCLM 131053Z AUTO 00000KT 10SM CLR 13/12 A3010 RMK AO2 SLP193 T01330122=
201908130953 METAR KCLM 130953Z AUTO 00000KT 10SM CLR 14/13 A3010 RMK AO2 SLP193 T01440133=
201908130853 METAR KCLM 130853Z AUTO 00000KT 10SM CLR 15/13 A3011 RMK AO2 SLP194 T01500133 58002=
201908130753 METAR KCLM 130753Z AUTO 00000KT 10SM CLR 15/13 A3011 RMK AO2 SLP197 T01500133 402280122=
201908130653 METAR KCLM 130653Z AUTO 00000KT 10SM CLR 14/13 A3012 RMK AO2 SLP198 T01390128=
201908130553 METAR KCLM 130553Z AUTO 21004KT 10SM CLR 15/13 A3011 RMK AO2 SLP197 T01500128 10217 20144 50004=
201908130453 METAR KCLM 130453Z AUTO 23004KT 10SM CLR 16/13 A3011 RMK AO2 SLP197 T01560128=
201908130353 METAR KCLM 130353Z AUTO 24004KT 10SM BKN065 18/13 A3011 RMK AO2 SLP195 T01780128=
201908130253 METAR KCLM 130253Z AUTO 27005KT 10SM CLR 18/13 A3010 RMK AO2 SLP193 T01830133 56006=
201908130153 METAR KCLM 130153Z AUTO 28007KT 10SM CLR 19/13 A3010 RMK AO2 SLP194 T01940133=
201908130053 METAR KCLM 130053Z AUTO 32006KT 10SM CLR 19/13 A3011 RMK AO2 SLP197 T01940128=
201908122353 METAR KCLM 122353Z AUTO VRB05KT 10SM CLR 22/12 A3012 RMK AO2 SLP199 T02220122 10228 20183 58010=
201908122253 METAR KCLM 122253Z AUTO VRB04KT 10SM CLR 22/13 A3013 RMK AO2 SLP201 T02220133=
201908122153 METAR KCLM 122153Z AUTO VRB04KT 10SM CLR 22/14 A3014 RMK AO2 SLP207 T02170139=
201908122053 METAR KCLM 122053Z AUTO 01006KT 10SM CLR 21/14 A3015 RMK AO2 SLP209 T02110139 58003=
201908121953 METAR KCLM 121953Z AUTO VRB05KT 10SM CLR 19/14 A3015 RMK AO2 SLP211 T01940139=
201908121853 METAR KCLM 121853Z AUTO 36004KT 10SM CLR 19/14 A3016 RMK AO2 SLP213 T01940144=
201908121753 METAR KCLM 121753Z AUTO VRB03KT 10SM OVC070 19/15 A3016 RMK AO2 SLP213 T01890150 10189 20122 53001=
201908121653 METAR KCLM 121653Z AUTO 00000KT 10SM OVC070 18/16 A3015 RMK AO2 SLP211 T01830156=
201908121553 METAR KCLM 121553Z AUTO 00000KT 10SM OVC070 17/15 A3015 RMK AO2 SLP211 T01670150=
201908121453 METAR KCLM 121453Z AUTO 00000KT 10SM OVC070 16/14 A3016 RMK AO2 SLP211 T01560144 53006=
201908121353 METAR KCLM 121353Z AUTO 21004KT 10SM OVC070 14/13 A3015 RMK AO2 SLP209 T01440133=
201908121253 METAR KCLM 121253Z AUTO 00000KT 10SM OVC070 13/13 A3014 RMK AO2 SLP206 T01280128=
201908121153 METAR KCLM 121153Z AUTO 16004KT 10SM CLR 12/12 A3014 RMK AO2 SLP205 T01220122 10156 20122 53001=
201908121053 METAR KCLM 121053Z AUTO 25003KT 10SM SCT070 14/14 A3013 RMK AO2 SLP203 T01440139=
201908121045 SPECI KCLM 121045Z AUTO 24003KT 10SM BKN070 15/14 A3013 RMK AO2 T01500139=
201908121036 SPECI KCLM 121036Z AUTO 00000KT 2SM BR BKN070 14/14 A3013 RMK AO2 T01440139=
201908120953 METAR KCLM 120953Z AUTO 00000KT 10SM OVC065 15/14 A3013 RMK AO2 SLP201 T01500144=
201908120853 METAR KCLM 120853Z AUTO 25003KT 10SM OVC060 15/14 A3013 RMK AO2 SLP203 T01500144 53001=
201908120753 METAR KCLM 120753Z AUTO 00000KT 7SM BKN033 OVC075 14/14 A3014 RMK AO2 SLP204 T01440144 402110122=
201908120653 METAR KCLM 120653Z AUTO 00000KT 9SM BKN070 15/14 A3013 RMK AO2 SLP202 T01500144=
201908120553 METAR KCLM 120553Z AUTO 00000KT 10SM BKN075 16/15 A3013 RMK AO2 SLP203 60000 T01560150 10194 20156 52001=
201908120453 METAR KCLM 120453Z AUTO 11003KT 9SM OVC050 16/16 A3013 RMK AO2 SLP203 T01610156=
201908120353 METAR KCLM 120353Z AUTO 00000KT 9SM OVC050 16/16 A3013 RMK AO2 RAE09 SLP203 P0000 T01560156=
201908120253 METAR KCLM 120253Z AUTO 15003KT 5SM -RA BR BKN035 OVC050 16/16 A3013 RMK AO2 SLP203 P0000 60000 T01610156 50007=
201908120248 SPECI KCLM 120248Z AUTO 00000KT 3SM -RA BR BKN033 OVC045 16/16 A3013 RMK AO2 P0000=
201908120234 SPECI KCLM 120234Z AUTO 00000KT 1 1/4SM -RA BR OVC031 16/15 A3013 RMK AO2 P0000 T01610150=
201908120223 SPECI KCLM 120223Z AUTO 00000KT 1 3/4SM -RA BR BKN029 OVC039 16/15 A3013 RMK AO2 P0000 T01610150=
201908120159 SPECI KCLM 120159Z AUTO 00000KT 1 3/4SM -RA BR SCT024 OVC031 17/14 A3013 RMK AO2 P0000 T01670144=
201908120153 METAR KCLM 120153Z AUTO 00000KT 2 1/2SM -RA BR OVC031 17/16 A3013 RMK AO2 RAB26 SLP203 P0000 T01670156=
201908120147 SPECI KCLM 120147Z AUTO 00000KT 2 1/2SM -RA BR OVC031 17/16 A3013 RMK AO2 RAB26 P0000=
201908120143 SPECI KCLM 120143Z AUTO 00000KT 3SM -RA BR BKN028 OVC034 17/16 A3013 RMK AO2 RAB26 P0000 T01670156=
201908120130 SPECI KCLM 120130Z AUTO 00000KT 2 1/2SM -RA BKN029 OVC036 18/14 A3013 RMK AO2 RAB26 P0000 T01780144=
201908120053 METAR KCLM 120053Z AUTO 01004KT 10SM BKN035 OVC049 18/14 A3012 RMK AO2 RAB2354E33 SLP198 P0000 T01830139=
201908112353 METAR KCLM 112353Z AUTO 00000KT 7SM FEW030 OVC040 19/14 A3011 RMK AO2 RAE05 SLP196 P0000 60000 T01890139 10211 20172 53001=
201908112253 METAR KCLM 112253Z AUTO 00000KT 8SM -RA FEW034 OVC050 18/13 A3011 RMK AO2 RAB42 SLP197 P0000 T01830133=
201908112153 METAR KCLM 112153Z AUTO 08007KT 10SM BKN050 BKN065 OVC075 21/13 A3010 RMK AO2 SLP193 T02060128=
201908112053 METAR KCLM 112053Z AUTO 10SM SCT030 BKN050 OVC070 20/13 A3011 RMK AO2 SLP195 T02000128 51009=
201908111953 METAR KCLM 111953Z AUTO VRB05KT 10SM CLR 20/13 A3010 RMK AO2 SLP193 T02000133=
201908111853 METAR KCLM 111853Z AUTO VRB03KT 10SM OVC060 18/14 A3009 RMK AO2 SLP191 T01830139=
201908111753 METAR KCLM 111753Z AUTO 30004KT 10SM BKN070 18/13 A3008 RMK AO2 SLP186 T01830133 10183 20150 53013=
201908111653 METAR KCLM 111653Z AUTO 32003KT 10SM BKN070 18/13 A3006 RMK AO2 SLP180 T01780133=
201908111553 METAR KCLM 111553Z AUTO 29006KT 10SM BKN110 16/13 A3006 RMK AO2 SLP178 T01610133=
201908111453 METAR KCLM 111453Z AUTO 26008KT 10SM OVC100 17/13 A3004 RMK AO2 SLP173 T01670128 53008=
201908111353 METAR KCLM 111353Z AUTO 24007KT 10SM BKN065 OVC110 16/12 A3004 RMK AO2 SLP171 T01610122=
201908111253 METAR KCLM 111253Z AUTO 25010KT 10SM SCT110 16/12 A3002 RMK AO2 SLP166 T01560122=
201908111153 METAR KCLM 111153Z AUTO 24007KT 10SM SCT120 15/12 A3002 RMK AO2 SLP165 T01500122 10150 20122 53002=
201908111053 METAR KCLM 111053Z AUTO 25006KT 10SM CLR 14/12 A3001 RMK AO2 SLP162 T01440122=
201908110953 METAR KCLM 110953Z AUTO 25007KT 10SM SCT100 15/12 A3001 RMK AO2 SLP161 T01500122=
201908110853 METAR KCLM 110853Z AUTO 00000KT 10SM OVC110 13/12 A3001 RMK AO2 SLP163 T01330122 56000=
201908110753 METAR KCLM 110753Z AUTO 00000KT 10SM BKN110 13/12 A3002 RMK AO2 SLP164 T01330117 401780133=
201908110653 METAR KCLM 110653Z AUTO 27005KT 10SM BKN120 14/13 A3000 RMK AO2 SLP159 T01390128=
201908110553 METAR KCLM 110553Z AUTO 27005KT 10SM BKN120 14/13 A3001 RMK AO2 SLP163 T01440128 10172 20139 53008=
201908110453 METAR KCLM 110453Z AUTO 27010KT 10SM CLR 15/13 A3000 RMK AO2 SLP158 T01500128=
201908110353 METAR KCLM 110353Z AUTO 27006KT 10SM OVC060 16/13 A2999 RMK AO2 SLP157 T01560133=
201908110253 METAR KCLM 110253Z AUTO 25004KT 10SM SCT043 BKN050 BKN065 16/13 A2999 RMK AO2 SLP154 T01560133 53002=
201908110153 METAR KCLM 110153Z AUTO 28005KT 10SM OVC042 17/13 A2998 RMK AO2 SLP152 T01670133=
201908110053 METAR KCLM 110053Z AUTO 30007KT 10SM OVC042 17/12 A2998 RMK AO2 SLP151 T01670122=
201908102353 METAR KCLM 102353Z AUTO 30004KT 10SM OVC042 17/13 A2998 RMK AO2 SLP153 60000 T01670128 10178 20150 58006=
201908102253 METAR KCLM 102253Z AUTO 30009KT 10SM OVC042 17/13 A2999 RMK AO2 SLP155 T01720133=
201908102153 METAR KCLM 102153Z AUTO 27009KT 10SM SCT022 OVC042 16/14 A3000 RMK AO2 RAE2056 SLP158 P0000 T01610139=
201908102105 SPECI KCLM 102105Z AUTO VRB04KT 10SM FEW009 OVC016 16/14 A3000 RMK AO2 RAE2056 P0000 T01610144=
201908102053 METAR KCLM 102053Z AUTO 29005KT 10SM -RA BKN016 OVC031 16/14 A3000 RMK AO2 SLP159 P0000 60000 T01610144 53005=
201908102038 SPECI KCLM 102038Z AUTO 27003KT 8SM -RA BKN016 OVC031 16/14 A3000 RMK AO2 P0000 T01560139=
201908102031 SPECI KCLM 102031Z AUTO 00000KT 8SM -RA SCT016 OVC030 16/14 A3000 RMK AO2 P0000 T01560139=
201908102008 SPECI KCLM 102008Z AUTO 00000KT 3SM -RA BR BKN016 BKN060 OVC090 16/14 A3000 RMK AO2 P0000 T01560144=
201908101953 METAR KCLM 101953Z AUTO 00000KT 3SM -RA BR FEW015 BKN070 OVC090 16/14 A2999 RMK AO2 SLP155 P0000 T01560144=
201908101949 SPECI KCLM 101949Z AUTO 26003KT 2 1/2SM -RA BR FEW015 SCT037 OVC090 16/14 A2999 RMK AO2 P0000=
201908101853 METAR KCLM 101853Z AUTO 30003KT 7SM -RA OVC100 15/14 A2999 RMK AO2 SLP154 P0000 T01500139=
201908101753 METAR KCLM 101753Z AUTO 27004KT 8SM -RA OVC100 15/13 A2998 RMK AO2 SLP153 P0000 60000 T01500133 10167 20150 53004=
201908101653 METAR KCLM 101653Z AUTO 32004KT 10SM -RA BKN041 BKN070 OVC110 16/13 A2997 RMK AO2 RAB45 SLP150 P0000 T01610128=
201908101553 METAR KCLM 101553Z AUTO 28003KT 10SM FEW039 17/12 A2997 RMK AO2 SLP147 T01670122=
201908101453 METAR KCLM 101453Z AUTO 00000KT 10SM BKN045 17/12 A2997 RMK AO2 SLP149 T01670122 51005=
201908101353 METAR KCLM 101353Z AUTO 24003KT 10SM OVC039 16/12 A2997 RMK AO2 SLP148 T01610122=
201908101253 METAR KCLM 101253Z AUTO 00000KT 10SM OVC037 16/12 A2996 RMK AO2 SLP145 T01560117=
201908101153 METAR KCLM 101153Z AUTO 25004KT 10SM OVC035 15/12 A2996 RMK AO2 SLP144 T01500117 10161 20150 56004=
201908101053 METAR KCLM 101053Z AUTO 26003KT 10SM OVC037 16/12 A2996 RMK AO2 SLP145 T01560117=
201908100953 METAR KCLM 100953Z AUTO 28005KT 10SM OVC037 16/11 A2996 RMK AO2 SLP146 T01560111=
201908100853 METAR KCLM 100853Z AUTO 25005KT 10SM OVC038 16/11 A2997 RMK AO2 SLP147 T01610111 55000=
201908100753 METAR KCLM 100753Z AUTO 24005KT 10SM OVC038 16/11 A2996 RMK AO2 SLP147 T01610111 401890144=
201908100653 METAR KCLM 100653Z AUTO 28008KT 10SM OVC039 16/11 A2995 RMK AO2 SLP142 T01560106=
201908100553 METAR KCLM 100553Z AUTO 26007KT 10SM OVC038 16/11 A2997 RMK AO2 SLP147 T01610106 10178 20156 53005=
201908100453 METAR KCLM 100453Z AUTO 28005KT 10SM OVC038 16/11 A2995 RMK AO2 SLP142 T01560106=
201908100353 METAR KCLM 100353Z AUTO 27008KT 10SM OVC037 16/11 A2995 RMK AO2 SLP140 T01610111=
201908100253 METAR KCLM 100253Z AUTO 27008KT 10SM OVC036 16/11 A2995 RMK AO2 SLP142 T01610111 56006=
201908100153 METAR KCLM 100153Z AUTO 30005KT 10SM OVC037 17/11 A2996 RMK AO2 SLP144 T01670111=
201908100053 METAR KCLM 100053Z AUTO 30009KT 10SM OVC038 17/11 A2996 RMK AO2 SLP145 T01720111=
201908092353 METAR KCLM 092353Z AUTO 29008KT 10SM OVC039 18/11 A2997 RMK AO2 SLP148 T01780111 10189 20161 58003=
201908092253 METAR KCLM 092253Z AUTO 32008KT 10SM OVC038 18/12 A2997 RMK AO2 SLP150 T01780117=
201908092153 METAR KCLM 092153Z AUTO 30008KT 10SM OVC038 19/12 A2997 RMK AO2 SLP150 T01890117=
201908092053 METAR KCLM 092053Z AUTO 33008KT 10SM OVC035 18/12 A2998 RMK AO2 SLP151 T01830122 58003=
201908091953 METAR KCLM 091953Z AUTO 34005KT 10SM OVC035 17/13 A2998 RMK AO2 SLP153 T01720128=
201908091853 METAR KCLM 091853Z AUTO VRB04KT 10SM FEW030 OVC037 17/12 A2999 RMK AO2 SLP154 T01720122=
201908091849 SPECI KCLM 091849Z AUTO 33005KT 10SM SCT030 OVC038 17/12 A2999 RMK AO2=
201908091753 METAR KCLM 091753Z AUTO 32003KT 10SM OVC024 17/12 A2999 RMK AO2 SLP154 T01670117 10172 20144 51003=
201908091653 METAR KCLM 091653Z AUTO 28005KT 10SM OVC024 17/12 A2998 RMK AO2 SLP153 T01670117=
201908091553 METAR KCLM 091553Z AUTO 31003KT 10SM OVC025 16/12 A2999 RMK AO2 SLP154 T01610117=
201908091453 METAR KCLM 091453Z AUTO 25004KT 10SM OVC024 16/12 A2998 RMK AO2 SLP151 T01560117 51003=
201908091353 METAR KCLM 091353Z AUTO 27003KT 10SM OVC025 16/12 A2998 RMK AO2 SLP151 T01560117=
201908091253 METAR KCLM 091253Z AUTO 28005KT 10SM OVC025 16/12 A2998 RMK AO2 SLP150 T01560117=
201908091153 METAR KCLM 091153Z AUTO 27004KT 10SM OVC024 14/12 A2997 RMK AO2 SLP149 T01440117 10156 20144 55004=
201908091053 METAR KCLM 091053Z AUTO 00000KT 10SM OVC023 15/12 A2997 RMK AO2 SLP148 T01500122=
201908090953 METAR KCLM 090953Z AUTO 22003KT 10SM OVC021 15/13 A2998 RMK AO2 SLP152 T01500128=
201908090853 METAR KCLM 090853Z AUTO 26005KT 10SM OVC020 14/13 A2998 RMK AO2 SLP152 T01440128 58006=
201908090753 METAR KCLM 090753Z AUTO 30004KT 10SM OVC022 14/13 A2999 RMK AO2 SLP156 T01440128 401940133=
201908090653 METAR KCLM 090653Z AUTO 27003KT 10SM OVC018 15/12 A3000 RMK AO2 SLP157 T01500122=
201908090553 METAR KCLM 090553Z AUTO 25007KT 10SM OVC019 16/12 A3000 RMK AO2 SLP158 T01560122 10189 20150 51008=
201908090453 METAR KCLM 090453Z AUTO 28006KT 10SM OVC020 16/12 A2999 RMK AO2 SLP156 T01560122=
201908090353 METAR KCLM 090353Z AUTO 25007KT 10SM OVC021 16/12 A2998 RMK AO2 SLP153 T01560117=
201908090253 METAR KCLM 090253Z AUTO 28009KT 10SM OVC022 16/12 A2997 RMK AO2 SLP150 T01610117 55001=
201908090217 SPECI KCLM 090217Z AUTO 27009KT 10SM BKN022 17/12 A2997 RMK AO2 T01670117=
201908090153 METAR KCLM 090153Z AUTO 30007KT 10SM CLR 17/12 A2997 RMK AO2 SLP148 T01670117=
201908090053 METAR KCLM 090053Z AUTO 30009KT 10SM CLR 18/12 A2997 RMK AO2 SLP150 T01830122=
201908082353 METAR KCLM 082353Z AUTO 30010G15KT 10SM SCT025 18/13 A2998 RMK AO2 SLP151 T01830128 10194 20156 58006=
201908082253 METAR KCLM 082253Z AUTO 30009KT 10SM OVC022 18/13 A2999 RMK AO2 SLP154 T01830128=
201908082153 METAR KCLM 082153Z AUTO 30007KT 10SM OVC019 18/13 A2999 RMK AO2 SLP156 T01780128=
201908082053 METAR KCLM 082053Z AUTO 30006KT 10SM OVC017 18/13 A3000 RMK AO2 SLP157 T01830128 58004=
201908081953 METAR KCLM 081953Z AUTO VRB05KT 10SM OVC015 17/13 A3000 RMK AO2 SLP159 T01720128=
201908081923 SPECI KCLM 081923Z AUTO 30004KT 10SM OVC015 17/13 A3000 RMK AO2 T01720128=
201908081853 METAR KCLM 081853Z AUTO 29004KT 10SM OVC013 17/13 A3001 RMK AO2 SLP161 T01670128=
201908081753 METAR KCLM 081753Z AUTO 31005KT 10SM OVC010 16/13 A3001 RMK AO2 SLP161 T01560133 10156 20133 51002=
201908081745 SPECI KCLM 081745Z AUTO VRB04KT 9SM OVC010 16/13 A3000 RMK AO2 CIG 008V014 T01560133=
201908081653 METAR KCLM 081653Z AUTO 29003KT 4SM BR OVC009 14/13 A3001 RMK AO2 CIG 005V011 SLP161 T01440133=
201908081635 SPECI KCLM 081635Z AUTO 29003KT 4SM BR OVC009 14/13 A3001 RMK AO2 T01390133=
201908081627 SPECI KCLM 081627Z AUTO VRB03KT 2 1/2SM BR OVC008 14/13 A3001 RMK AO2 CIG 005V012 T01390133=
201908081553 METAR KCLM 081553Z AUTO 3SM BR OVC007 14/13 A3001 RMK AO2 CIG 005V012 SLP161 T01390133=
201908081453 METAR KCLM 081453Z AUTO 26005KT 4SM BR OVC007 13/13 A3000 RMK AO2 SLP159 T01330128 53005=
201908081353 METAR KCLM 081353Z AUTO 26004KT 4SM BR OVC008 13/13 A2999 RMK AO2 SLP156 T01330128=
201908081253 METAR KCLM 081253Z AUTO 25004KT 10SM OVC008 14/12 A2999 RMK AO2 SLP154 T01390122=
201908081153 METAR KCLM 081153Z AUTO 27006KT 10SM OVC008 14/13 A2999 RMK AO2 SLP154 T01390128 10139 20133 51005=
201908081053 METAR KCLM 081053Z AUTO 27006KT 10SM OVC008 14/13 A2998 RMK AO2 SLP153 T01390128=
201908081018 SPECI KCLM 081018Z AUTO 27006KT 10SM OVC009 14/13 A2998 RMK AO2 T01390128=
201908080953 METAR KCLM 080953Z AUTO 28006KT 10SM OVC010 14/12 A2998 RMK AO2 SLP151 T01390122=
201908080853 METAR KCLM 080853Z AUTO 28004KT 10SM OVC011 14/12 A2997 RMK AO2 SLP149 T01390122 52004=
201908080753 METAR KCLM 080753Z AUTO 27010KT 10SM OVC013 14/12 A2997 RMK AO2 SLP147 T01390122 401940128=
201908080701 SPECI KCLM 080701Z AUTO 27009KT 10SM BKN014 13/12 A2997 RMK AO2 T01330122=
201908080653 METAR KCLM 080653Z AUTO 27010KT 10SM SCT015 13/12 A2997 RMK AO2 SLP147 T01330122=
201908080553 METAR KCLM 080553Z AUTO 27010KT 10SM CLR 13/12 A2996 RMK AO2 SLP145 T01330122 10183 20133 53009=
201908080453 METAR KCLM 080453Z AUTO 28012KT 10SM CLR 13/12 A2995 RMK AO2 SLP141 T01330122=
201908080353 METAR KCLM 080353Z AUTO 28012KT 10SM CLR 14/12 A2993 RMK AO2 SLP135 T01390122=
201908080253 METAR KCLM 080253Z AUTO 27014G22KT 10SM FEW008 14/13 A2993 RMK AO2 SLP136 T01440128 55001=
201908080241 SPECI KCLM 080241Z AUTO 28012G19KT 10SM FEW008 15/13 A2993 RMK AO2 T01500128=
201908080153 METAR KCLM 080153Z AUTO 28012KT 10SM CLR 16/13 A2992 RMK AO2 SLP132 T01610128=
201908080053 METAR KCLM 080053Z AUTO 29011G19KT 10SM CLR 18/13 A2992 RMK AO2 SLP133 T01780133=
201908072353 METAR KCLM 072353Z AUTO 30011KT 10SM CLR 18/13 A2994 RMK AO2 SLP137 T01830133 10194 20150 58012=
201908072253 METAR KCLM 072253Z AUTO 31009KT 280V340 10SM CLR 19/13 A2995 RMK AO2 SLP141 T01890133=
201908072153 METAR KCLM 072153Z AUTO 31010KT 10SM CLR 18/13 A2996 RMK AO2 SLP146 T01830133=
201908072053 METAR KCLM 072053Z AUTO 28010KT 10SM CLR 19/13 A2997 RMK AO2 SLP149 T01890133 56007=
201908071953 METAR KCLM 071953Z AUTO 29009KT 10SM CLR 18/13 A2997 RMK AO2 SLP150 T01780133=
201908071913 SPECI KCLM 071913Z AUTO 32006KT 10SM SCT009 17/13 A2998 RMK AO2 T01670133=
201908071853 METAR KCLM 071853Z AUTO 33005KT 10SM OVC009 17/13 A2998 RMK AO2 SLP153 T01670133=
201908071753 METAR KCLM 071753Z AUTO 34005KT 10SM OVC006 15/13 A2999 RMK AO2 SLP156 T01500128 10150 20128 53003=
201908071653 METAR KCLM 071653Z AUTO VRB05KT 10SM OVC006 14/13 A2999 RMK AO2 SLP154 T01390128=
201908071625 SPECI KCLM 071625Z AUTO 27004KT 10SM OVC005 14/13 A2999 RMK AO2 T01440128=
201908071553 METAR KCLM 071553Z AUTO 30004KT 10SM OVC004 14/13 A2999 RMK AO2 SLP154 T01390128=
201908071507 SPECI KCLM 071507Z AUTO 28004KT 5SM BR OVC002 13/13 A2998 RMK AO2 T01280128=
201908071453 METAR KCLM 071453Z AUTO 28003KT 2 1/2SM BR OVC002 13/13 A2998 RMK AO2 SLP153 T01280128 51003=
201908071450 SPECI KCLM 071450Z AUTO 28005KT 2 1/2SM BR OVC002 13/13 A2998 RMK AO2 VIS 2V3=
201908071428 SPECI KCLM 071428Z AUTO 27004KT 1 1/2SM BR OVC002 13/13 A2998 RMK AO2 T01280128=
201908071410 SPECI KCLM 071410Z AUTO 29005KT 2 1/2SM BR OVC002 13/13 A2998 RMK AO2 T01280128=
201908071353 METAR KCLM 071353Z AUTO 27005KT 1 1/4SM BR OVC002 13/13 A2998 RMK AO2 SLP153 T01280128=
201908071302 SPECI KCLM 071302Z AUTO 25004KT 1SM BR OVC002 13/13 A2998 RMK AO2 T01280128=
201908071253 METAR KCLM 071253Z AUTO 27006KT 2 1/2SM BR OVC002 13/13 A2997 RMK AO2 SLP150 T01280128=
201908071231 SPECI KCLM 071231Z AUTO 27006KT 3SM BR OVC002 13/13 A2997 RMK AO2 T01280128=
201908071207 SPECI KCLM 071207Z AUTO 26007KT 1 3/4SM BR OVC002 13/13 A2997 RMK AO2 T01280128=
201908071153 METAR KCLM 071153Z AUTO 27007KT 4SM BR OVC002 13/13 A2997 RMK AO2 SLP148 T01280128 10133 20128 51004=
201908071129 SPECI KCLM 071129Z AUTO 28007KT 3SM BR OVC002 13/13 A2997 RMK AO2 T01280128=
201908071124 SPECI KCLM 071124Z AUTO 27005KT 1 3/4SM BR OVC002 13/13 A2997 RMK AO2 T01280128=
201908071053 METAR KCLM 071053Z AUTO 26007KT 1SM BR OVC001 13/13 A2996 RMK AO2 SLP146 T01280128=
201908071048 SPECI KCLM 071048Z AUTO 27006KT 1 1/4SM BR OVC001 13/13 A2996 RMK AO2=
201908071031 SPECI KCLM 071031Z AUTO 28006KT 2SM BR OVC001 13/13 A2996 RMK AO2 T01280128=
201908071006 SPECI KCLM 071006Z AUTO 27006KT 1 1/2SM BR OVC001 13/13 A2996 RMK AO2 T01280128=
201908070953 METAR KCLM 070953Z AUTO 28009KT 1 1/2SM BR OVC002 13/13 A2996 RMK AO2 SLP144 T01280128=
201908070940 SPECI KCLM 070940Z AUTO 27009KT 1 1/2SM BR OVC002 13/13 A2995 RMK AO2 T01280128=
201908070925 SPECI KCLM 070925Z AUTO 28008KT 2SM BR OVC002 13/13 A2995 RMK AO2 T01280128=
201908070903 SPECI KCLM 070903Z AUTO 28010KT 3SM BR OVC002 13/13 A2995 RMK AO2 T01280128=
201908070853 METAR KCLM 070853Z AUTO 27009KT 1 3/4SM BR OVC002 13/13 A2995 RMK AO2 SLP143 T01280128 55001=
201908070803 SPECI KCLM 070803Z AUTO 28010KT 1 1/2SM BR OVC002 13/13 A2995 RMK AO2 T01280128=
201908070753 METAR KCLM 070753Z AUTO 28010KT 2SM BR OVC002 13/13 A2995 RMK AO2 VIS 1 3/4V3 SLP142 T01280128 402000122=
201908070724 SPECI KCLM 070724Z AUTO 28011KT 2 1/2SM BR OVC002 13/13 A2995 RMK AO2 T01330128=
201908070653 METAR KCLM 070653Z AUTO 28007KT 4SM BR OVC002 13/13 A2995 RMK AO2 SLP142 T01330133=
201908070553 METAR KCLM 070553Z AUTO 28010G18KT 5SM BR OVC002 13/13 A2996 RMK AO2 SLP144 T01330133 10194 20133 51007=
201908070453 METAR KCLM 070453Z AUTO 28008KT 10SM OVC003 13/13 A2995 RMK AO2 SLP143 T01330128=
201908070353 METAR KCLM 070353Z AUTO 28009KT 10SM BKN004 13/13 A2994 RMK AO2 SLP140 T01330128=
201908070344 SPECI KCLM 070344Z AUTO 28010KT 10SM SCT004 13/13 A2994 RMK AO2 T01330128=
201908070253 METAR KCLM 070253Z AUTO 28008KT 10SM CLR 16/13 A2993 RMK AO2 SLP136 T01560133 56008=
201908070153 METAR KCLM 070153Z AUTO VRB06KT 10SM CLR 17/13 A2994 RMK AO2 SLP137 T01720133=
201908070053 METAR KCLM 070053Z AUTO 29007KT 10SM CLR 19/13 A2994 RMK AO2 SLP140 T01890128=
201908062353 METAR KCLM 062353Z AUTO 30008KT 10SM CLR 19/13 A2996 RMK AO2 SLP144 T01890128 10200 20161 58013=
201908062253 METAR KCLM 062253Z AUTO 28010KT 10SM CLR 18/13 A2998 RMK AO2 SLP150 T01830128=
201908062153 METAR KCLM 062153Z AUTO 31010KT 10SM CLR 19/13 A2998 RMK AO2 SLP153 T01890128=
201908062053 METAR KCLM 062053Z AUTO 30008KT 10SM CLR 18/13 A3000 RMK AO2 SLP157 T01830128 58012=
201908061953 METAR KCLM 061953Z AUTO 30005KT 10SM FEW002 18/13 A3001 RMK AO2 SLP161 T01780128=
201908061853 METAR KCLM 061853Z AUTO 31006KT 10SM CLR 18/13 A3002 RMK AO2 SLP166 T01780128=
201908061753 METAR KCLM 061753Z AUTO 31007KT 10SM CLR 17/13 A3003 RMK AO2 SLP169 T01670128 10172 20128 58002=
201908061653 METAR KCLM 061653Z AUTO 29006KT 10SM SCT007 16/13 A3003 RMK AO2 SLP170 T01560128=
201908061553 METAR KCLM 061553Z AUTO 27007KT 10SM OVC005 14/13 A3004 RMK AO2 SLP172 T01440128=
201908061541 SPECI KCLM 061541Z AUTO 29006KT 10SM OVC005 14/13 A3004 RMK AO2 T01440128=
201908061453 METAR KCLM 061453Z AUTO 27007KT 8SM OVC003 13/13 A3004 RMK AO2 SLP171 T01330128 51005=
201908061353 METAR KCLM 061353Z AUTO 27008KT 6SM BR OVC003 13/12 A3003 RMK AO2 SLP170 T01280122=
201908061253 METAR KCLM 061253Z AUTO 27007KT 8SM OVC004 13/12 A3003 RMK AO2 SLP167 T01280122=
201908061153 METAR KCLM 061153Z AUTO 28008KT 8SM OVC004 13/12 A3002 RMK AO2 SLP166 7//// T01280122 10128 20122 53007=
201908061053 METAR KCLM 061053Z AUTO 27008KT 6SM BR OVC002 13/12 A3001 RMK AO2 SLP162 T01280122=
201908060953 METAR KCLM 060953Z AUTO 28009KT 5SM BR OVC002 13/12 A3000 RMK AO2 SLP159 T01280122=
201908060853 METAR KCLM 060853Z AUTO 27008KT 5SM BR OVC002 13/13 A3000 RMK AO2 SLP159 T01280128 58001=
201908060753 METAR KCLM 060753Z AUTO 28007G15KT 6SM BR OVC003 13/13 A3001 RMK AO2 SLP161 T01280128 402060106=
201908060653 METAR KCLM 060653Z AUTO 28010KT 6SM BR OVC003 13/13 A3000 RMK AO2 SLP160 T01280128=
201908060553 METAR KCLM 060553Z AUTO 28007KT 7SM BKN003 13/13 A3000 RMK AO2 SLP160 T01280128 10194 20128 52003=
201908060536 SPECI KCLM 060536Z AUTO 29009KT 7SM SCT003 13/13 A3000 RMK AO2 T01330128=
201908060453 METAR KCLM 060453Z AUTO 28008KT 8SM CLR 13/13 A3000 RMK AO2 SLP159 T01330128=
201908060353 METAR KCLM 060353Z AUTO 28008KT 9SM CLR 14/13 A3000 RMK AO2 SLP158 T01390128=
201908060253 METAR KCLM 060253Z AUTO 28008KT 10SM CLR 16/13 A2999 RMK AO2 SLP157 T01610128 56010=
201908060153 METAR KCLM 060153Z AUTO 29008KT 10SM CLR 18/13 A3000 RMK AO2 SLP159 T01780128=
201908060053 METAR KCLM 060053Z AUTO 29006KT 10SM CLR 19/13 A3001 RMK AO2 SLP162 T01890128=
201908052353 METAR KCLM 052353Z AUTO 30008KT 10SM CLR 19/13 A3002 RMK AO2 SLP167 6//// T01940128 10206 20167 58013=
201908052253 METAR KCLM 052253Z AUTO 32006KT 10SM CLR 20/13 A3004 RMK AO2 SLP173 T02000133=
201908052153 METAR KCLM 052153Z AUTO 30007KT 10SM CLR 19/13 A3005 RMK AO2 SLP176 T01940128=
201908052053 METAR KCLM 052053Z AUTO 30007KT 10SM CLR 20/13 A3006 RMK AO2 SLP179 6//// T02000128 58004 PNO=
201908051953 METAR KCLM 051953Z AUTO 30008KT 10SM CLR 19/12 A3007 RMK AO2 SLP183 T01940122 PNO=
201908051853 METAR KCLM 051853Z AUTO 29006KT 10SM CLR 18/12 A3008 RMK AO2 SLP185 T01830122 PNO=
201908051753 METAR KCLM 051753Z AUTO 01004KT 10SM CLR 17/12 A3008 RMK AO2 SLP184 6//// T01720117 10178 20106 50002 PNO=
201908051653 METAR KCLM 051653Z AUTO 30004KT 10SM CLR 17/12 A3008 RMK AO2 SLP185 T01670122 PNO=
201908051553 METAR KCLM 051553Z AUTO 33004KT 10SM CLR 15/12 A3008 RMK AO2 SLP185 T01500117 PNO=
201908051453 METAR KCLM 051453Z AUTO 00000KT 10SM CLR 14/12 A3007 RMK AO2 SLP182 6//// T01390117 51015 PNO=
201908051353 METAR KCLM 051353Z AUTO 00000KT 10SM CLR 12/11 A3006 RMK AO2 SLP178 T01170106 PNO=
201908051322 SPECI KCLM 051322Z AUTO 00000KT 10SM CLR 12/11 A3005 RMK AO2 T01170111 PNO=
201908051312 SPECI KCLM 051312Z AUTO 00000KT 2SM BR CLR 11/11 A3005 RMK AO2 T01110106 PNO=
201908051253 METAR KCLM 051253Z AUTO 00000KT 3SM BR CLR 11/11 A3004 RMK AO2 SLP172 T01110106 PNO=
201908051153 METAR KCLM 051153Z AUTO 00000KT 10SM CLR 12/12 A3003 RMK AO2 SLP167 6//// 7//// T01170117 10206 20117 53007 PNO=
201908051053 METAR KCLM 051053Z AUTO 31004KT 10SM CLR 13/11 A3002 RMK AO2 SLP164 T01330111 PNO=
201908050953 METAR KCLM 050953Z AUTO 25007KT 10SM CLR 18/08 A3001 RMK AO2 SLP161 T01830078 PNO=
201908050853 METAR KCLM 050853Z AUTO 24011KT 10SM CLR 19/08 A3001 RMK AO2 SLP160 6//// T01940078 55001 PNO=
201908050753 METAR KCLM 050753Z AUTO 24012KT 10SM CLR 19/08 A3000 RMK AO2 SLP159 T01940078 402720100 PNO=
201908050653 METAR KCLM 050653Z AUTO 24010KT 10SM CLR 19/08 A3000 RMK AO2 SLP158 T01940078 PNO=
201908050553 METAR KCLM 050553Z AUTO 00000KT 10SM CLR 18/10 A3001 RMK AO2 SLP161 6//// T01830100 10272 20156 51002 PNO=
201908050453 METAR KCLM 050453Z AUTO 25005KT 10SM CLR 17/12 A3001 RMK AO2 SLP161 T01720122 PNO=
201908050353 METAR KCLM 050353Z AUTO 23004KT 10SM CLR 18/12 A3001 RMK AO2 SLP160 T01780122 PNO=
201908050253 METAR KCLM 050253Z AUTO 27004KT 10SM CLR 19/11 A3000 RMK AO2 SLP159 6//// T01890111 55002 PNO=
201908050153 METAR KCLM 050153Z AUTO 30004KT 10SM CLR 23/11 A3000 RMK AO2 SLP157 T02330106 PNO=
201908050053 METAR KCLM 050053Z AUTO 36004KT 10SM CLR 27/09 A3000 RMK AO2 SLP158 T02720094 PNO=
201908042353 METAR KCLM 042353Z AUTO 07005KT 10SM CLR 27/10 A3001 RMK AO2 SLP161 6//// T02670100 10267 20228 58016 PNO=
201908042253 METAR KCLM 042253Z AUTO 07005KT 10SM CLR 26/09 A3003 RMK AO2 SLP167 T02560094 PNO=
201908042153 METAR KCLM 042153Z AUTO 08007KT 030V110 10SM CLR 26/10 A3004 RMK AO2 SLP172 T02610100 PNO=
201908042053 METAR KCLM 042053Z AUTO 10007KT 10SM CLR 25/11 A3006 RMK AO2 SLP177 6//// T02500111 56009 PNO=
201908041953 METAR KCLM 041953Z AUTO 07006KT 10SM CLR 24/12 A3007 RMK AO2 SLP180 T02390117 PNO=
201908041853 METAR KCLM 041853Z AUTO 07005KT 10SM CLR 23/11 A3008 RMK AO2 SLP183 T02280111 PNO=
201908041753 METAR KCLM 041753Z AUTO 09006KT 10SM CLR 23/10 A3009 RMK AO2 SLP186 6//// T02280100 10239 20139 50001 PNO=
201908041653 METAR KCLM 041653Z AUTO 09009KT 10SM CLR 23/11 A3009 RMK AO2 SLP187 T02280106 PNO=
201908041553 METAR KCLM 041553Z AUTO 10009KT 10SM CLR 22/10 A3009 RMK AO2 SLP187 T02170100 PNO=
201908041453 METAR KCLM 041453Z AUTO 23005KT 10SM CLR 18/08 A3008 RMK AO2 SLP186 6//// T01830078 51006 PNO=
201908041353 METAR KCLM 041353Z AUTO 22006KT 10SM CLR 15/08 A3008 RMK AO2 SLP185 T01500078 PNO=
201908041253 METAR KCLM 041253Z AUTO 23008KT 10SM CLR 14/07 A3007 RMK AO2 SLP182 T01440067 PNO=
201908041153 METAR KCLM 041153Z AUTO 23009KT 10SM CLR 14/07 A3007 RMK AO2 SLP180 6//// 7//// T01440067 10150 20100 56001 PNO=
201908041053 METAR KCLM 041053Z AUTO 21007KT 10SM CLR 14/07 A3007 RMK AO2 SLP180 T01390072 PNO=
201908040953 METAR KCLM 040953Z AUTO VRB04KT 10SM CLR 12/07 A3007 RMK AO2 SLP180 T01220072 PNO=
201908040853 METAR KCLM 040853Z AUTO 22005KT 10SM CLR 11/08 A3007 RMK AO2 SLP182 6//// T01110078 56005 PNO=
201908040753 METAR KCLM 040753Z AUTO 23004KT 10SM CLR 12/08 A3007 RMK AO2 SLP182 T01220078 402500094 PNO=
201908040653 METAR KCLM 040653Z AUTO 25004KT 10SM CLR 14/08 A3008 RMK AO2 SLP185 T01440083 PNO=
201908040553 METAR KCLM 040553Z AUTO 25005KT 10SM CLR 14/11 A3008 RMK AO2 SLP187 6//// T01440106 10250 20133 50001 PNO=
201908040453 METAR KCLM 040453Z AUTO 22004KT 10SM CLR 14/12 A3009 RMK AO2 SLP188 T01440117 PNO=
201908040353 METAR KCLM 040353Z AUTO 24004KT 10SM CLR 16/12 A3009 RMK AO2 SLP187 T01560117 PNO=
201908040253 METAR KCLM 040253Z AUTO 00000KT 10SM CLR 17/11 A3008 RMK AO2 SLP186 6//// T01670111 56009 PNO=
201908040153 METAR KCLM 040153Z AUTO 30006KT 10SM CLR 18/12 A3009 RMK AO2 SLP189 T01780117 PNO=
201908040053 METAR KCLM 040053Z AUTO 00000KT 10SM CLR 24/10 A3010 RMK AO2 SLP191 T02440100 PNO=
201908032353 METAR KCLM 032353Z AUTO 08006KT 10SM CLR 24/09 A3011 RMK AO2 SLP195 6//// T02440089 10250 20194 56019 PNO=
201908032253 METAR KCLM 032253Z AUTO VRB03KT 10SM CLR 24/11 A3013 RMK AO2 SLP200 T02440106 PNO=
201908032153 METAR KCLM 032153Z AUTO 09007KT 10SM CLR 23/12 A3015 RMK AO2 SLP208 T02330122 PNO=
201908032053 METAR KCLM 032053Z AUTO 08007KT 10SM CLR 22/13 A3016 RMK AO2 SLP213 6//// T02220128 58009 PNO=
201908031953 METAR KCLM 031953Z AUTO 07008KT 10SM CLR 21/13 A3018 RMK AO2 SLP219 T02060133 PNO=
201908031853 METAR KCLM 031853Z AUTO 07009KT 10SM CLR 20/13 A3018 RMK AO2 SLP221 T02000128 PNO=
201908031753 METAR KCLM 031753Z AUTO 07008KT 10SM CLR 20/12 A3019 RMK AO2 SLP224 6//// T02000122 10206 20094 58001 PNO=
201908031653 METAR KCLM 031653Z AUTO 10006KT 10SM CLR 20/13 A3019 RMK AO2 SLP225 T02000128 PNO=
201908031553 METAR KCLM 031553Z AUTO VRB05KT 10SM CLR 19/13 A3020 RMK AO2 SLP226 T01940128 PNO=
201908031453 METAR KCLM 031453Z AUTO 00000KT 10SM FEW039 14/13 A3019 RMK AO2 SLP225 6//// T01440128 50004 PNO=
201908031353 METAR KCLM 031353Z AUTO 00000KT 8SM FEW037 11/11 A3020 RMK AO2 SLP225 T01060106 PNO=
201908031253 METAR KCLM 031253Z AUTO 00000KT 7SM CLR 09/09 A3018 RMK AO2 SLP221 T00940094 PNO=
201908031153 METAR KCLM 031153Z AUTO 23003KT 10SM CLR 12/11 A3018 RMK AO2 SLP220 6//// 7//// T01170111 10139 20106 51004 PNO=
201908031053 METAR KCLM 031053Z AUTO 00000KT 10SM CLR 12/11 A3018 RMK AO2 SLP219 T01170111 PNO=
201908030953 METAR KCLM 030953Z AUTO 28007KT 10SM CLR 13/11 A3017 RMK AO2 SLP217 T01280111 PNO=
201908030853 METAR KCLM 030853Z AUTO 27008KT 10SM CLR 13/11 A3017 RMK AO2 SLP216 6//// T01280111 52001 PNO=
201908030753 METAR KCLM 030753Z AUTO 30006KT 10SM CLR 13/11 A3017 RMK AO2 SLP217 T01330111 402170128 PNO=
201908030653 METAR KCLM 030653Z AUTO 29010KT 10SM CLR 13/12 A3017 RMK AO2 SLP215 T01330117 PNO=
201908030553 METAR KCLM 030553Z AUTO 28006KT 10SM CLR 13/12 A3017 RMK AO2 SLP215 6//// T01330117 10211 20133 51005 PNO=
201908030453 METAR KCLM 030453Z AUTO 27006KT 10SM CLR 14/12 A3017 RMK AO2 SLP215 T01390117 PNO=
201908030353 METAR KCLM 030353Z AUTO 27010KT 9SM CLR 15/12 A3016 RMK AO2 SLP213 T01500117 PNO=
201908030253 METAR KCLM 030253Z AUTO 27011KT 10SM FEW060 17/11 A3015 RMK AO2 SLP210 6//// T01670111 53004 PNO=
201908030153 METAR KCLM 030153Z AUTO 27009KT 10SM BKN065 19/12 A3014 RMK AO2 SLP208 T01890122 PNO=
201908030053 METAR KCLM 030053Z AUTO 28011KT 10SM BKN065 20/13 A3014 RMK AO2 SLP205 T02000133 PNO=
201908022353 METAR KCLM 022353Z AUTO 31006G15KT 10SM SCT065 21/13 A3014 RMK AO2 SLP204 6//// T02060133 10217 20167 58001 PNO=
201908022253 METAR KCLM 022253Z AUTO 33006KT 10SM CLR 21/13 A3013 RMK AO2 SLP203 T02110133 PNO=
201908022153 METAR KCLM 022153Z AUTO 31007KT 280V360 10SM CLR 21/13 A3015 RMK AO2 SLP207 T02060133 PNO=
201908022053 METAR KCLM 022053Z AUTO 29010KT 10SM CLR 20/14 A3014 RMK AO2 SLP205 6//// T02000139 51005 PNO=
201908021953 METAR KCLM 021953Z AUTO 30009KT 10SM CLR 19/14 A3014 RMK AO2 SLP205 T01940139 PNO=
201908021853 METAR KCLM 021853Z AUTO 29009KT 10SM BKN031 19/14 A3014 RMK AO2 SLP205 T01890144 PNO=
201908021753 METAR KCLM 021753Z AUTO 30006KT 10SM CLR 17/13 A3012 RMK AO2 SLP201 6//// T01720133 10183 20139 53019 PNO=
201908021653 METAR KCLM 021653Z AUTO VRB04KT 10SM SCT017 18/14 A3009 RMK AO2 SLP188 T01780144 PNO=
201908021613 SPECI KCLM 021613Z AUTO 32005KT 10SM SCT009 OVC015 16/13 A3008 RMK AO2 T01610133 PNO $=
201908021553 METAR KCLM 021553Z AUTO 29005KT 10SM BKN008 16/14 A3007 RMK AO2 CIG 007V012 SLP182 T01560139 PNO $=
201908021542 SPECI KCLM 021542Z AUTO 35004KT 10SM BKN008 15/14 A3006 RMK AO2 T01500139 PNO $=
201908021535 SPECI KCLM 021535Z AUTO VRB04KT 10SM SCT008 15/13 A3005 RMK AO2 T01500133 PNO $=
201908021455 SPECI KCLM 021455Z AUTO 02004KT 10SM BKN008 16/14 A3002 RMK AO2 CIG 005V012 T01560144 PNO $=
201908021453 METAR KCLM 021453Z AUTO VRB04KT 10SM SCT010 16/14 A3001 RMK AO2 SLP163 6//// T01560144 51026 PNO $=
201908021438 SPECI KCLM 021438Z AUTO 09003KT 10SM FEW014 SCT023 16/14 A3001 RMK AO2 T01560139 PNO $=
201908021430 SPECI KCLM 021430Z AUTO 08003KT 10SM SCT013 BKN024 16/14 A3001 RMK AO2 T01560144 PNO $=
201908021353 METAR KCLM 021353Z AUTO 15004KT 10SM OVC010 15/14 A3000 RMK AO2 SLP158 T01500144 PNO $=
201908021340 SPECI KCLM 021340Z AUTO 00000KT 10SM OVC010 14/14 A2999 RMK AO2 T01440139 PNO $=
201908021256 SPECI KCLM 021256Z AUTO 32003KT 8SM SCT002 OVC009 16/16 A2997 RMK AO2 T01560156 PNO $=
201908021253 METAR KCLM 021253Z AUTO 31003KT 2 1/2SM BR BKN002 OVC009 16/16 A2997 RMK AO2 SLP147 T01560156 PNO $=
201908021246 SPECI KCLM 021246Z AUTO 28003KT 1/2SM FG BKN003 OVC017 16/16 A2997 RMK AO2 T01560156 PNO $=
201908021239 SPECI KCLM 021239Z AUTO 31004KT 3/4SM BR FEW003 BKN007 OVC017 16/16 A2996 RMK AO2 T01560156 PNO $=
201908021237 SPECI KCLM 021237Z AUTO 32005KT 1 1/2SM BR SCT003 OVC015 16/16 A2996 RMK AO2 T01610161 PNO $=
201908021229 SPECI KCLM 021229Z AUTO 30005KT 10SM FEW006 BKN017 OVC070 16/16 A2996 RMK AO2 T01610156 PNO $=
201908021153 METAR KCLM 021153Z AUTO 00000KT 9SM BKN065 OVC080 16/16 A2994 RMK AO2 RAE39 SLP136 6//// 7//// T01610156 10172 20156 51017 PNO $=
201908021103 SPECI KCLM 021103Z AUTO 23003KT 5SM -RA BR FEW050 SCT070 OVC100 16/16 A2992 RMK AO2 T01610156 PNO $=
201908021055 SPECI KCLM 021055Z AUTO 00000KT 2 1/2SM -RA BR SCT050 BKN070 OVC090 16/16 A2992 RMK AO2 T01610161 PNO $=
201908021048 METAR KCLM 021048Z AUTO 00000KT 1 3/4SM RA BR BKN049 BKN070 OVC085 16/16 A2992 RMK AO2 SLP131 T01610161 PNO $=
201908021047 SPECI KCLM 021047Z AUTO 00000KT 1 3/4SM RA BR BKN049 BKN070 OVC085 16/16 A2992 RMK AO2 PNO $=
201908020953 METAR KCLM 020953Z AUTO 00000KT 3SM -RA BR SCT050 BKN075 OVC090 16/16 A2991 RMK AO2 SLP127 P0000 T01610161=
201908020853 METAR KCLM 020853Z AUTO 13005KT 10SM -RA BKN100 OVC110 17/16 A2989 RMK AO2 SLP119 P0000 60000 T01670161 56004=
201908020753 METAR KCLM 020753Z AUTO 00000KT 5SM -RA BR FEW005 BKN090 OVC110 16/16 A2990 RMK AO2 SLP122 P0000 T01560156 402280122=
201908020653 METAR KCLM 020653Z AUTO 13006KT 6SM -RA BR FEW060 BKN080 OVC110 16/16 A2988 RMK AO2 PRESFR SLP116 P0000 T01610156=
201908020553 METAR KCLM 020553Z AUTO 27007KT 10SM -RA BKN090 OVC110 17/14 A2990 RMK AO2 RAB52 PRESRR SLP123 P0000 60000 T01720139 10228 20172 53004=
201908020453 METAR KCLM 020453Z AUTO 00000KT 10SM OVC085 18/13 A2989 RMK AO2 SLP119 T01830133=
201908020353 METAR KCLM 020353Z AUTO 25004KT 10SM OVC085 17/12 A2989 RMK AO2 SLP120 T01720122=
201908020253 METAR KCLM 020253Z AUTO 31004KT 10SM BKN080 21/13 A2989 RMK AO2 SLP119 T02060128 55012=
201908020153 METAR KCLM 020153Z AUTO 34004KT 10SM FEW090 23/13 A2988 RMK AO2 SLP117 T02280128=
201908020053 METAR KCLM 020053Z AUTO 00000KT 10SM FEW090 21/13 A2990 RMK AO2 SLP124 T02110128=
201908012353 METAR KCLM 012353Z AUTO VRB03KT 10SM CLR 21/13 A2992 RMK AO2 SLP132 T02110128 10222 20178 58017=
201908012253 METAR KCLM 012253Z AUTO VRB03KT 10SM CLR 21/13 A2994 RMK AO2 SLP140 T02060128=
201908012153 METAR KCLM 012153Z AUTO 02005KT 10SM CLR 21/13 A2996 RMK AO2 SLP144 T02110128=
201908012053 METAR KCLM 012053Z AUTO 03006KT 10SM CLR 21/12 A2997 RMK AO2 SLP148 T02060122 58007=
201908011953 METAR KCLM 011953Z AUTO VRB04KT 10SM SCT025 20/13 A2998 RMK AO2 SLP151 T02000128=
201908011853 METAR KCLM 011853Z AUTO 01005KT 10SM OVC028 19/13 A2999 RMK AO2 SLP153 T01890128=
201908011753 METAR KCLM 011753Z AUTO 33005KT 10SM OVC027 19/13 A2999 RMK AO2 SLP155 T01890128 10189 20133 58001=
201908011653 METAR KCLM 011653Z AUTO VRB03KT 10SM OVC025 18/14 A2999 RMK AO2 SLP155 T01830139=
201908011553 METAR KCLM 011553Z AUTO 25003KT 10SM OVC024 17/14 A3000 RMK AO2 SLP157 T01720144=
201908011453 METAR KCLM 011453Z AUTO 22004KT 10SM OVC020 17/14 A2999 RMK AO2 SLP156 T01670144 51002=
201908011353 METAR KCLM 011353Z AUTO 23004KT 10SM BKN018 OVC032 16/14 A2999 RMK AO2 SLP155 T01560139=
201908011351 SPECI KCLM 011351Z AUTO 23004KT 10SM BKN018 OVC032 16/14 A2999 RMK AO2=
201908011253 METAR KCLM 011253Z AUTO 00000KT 10SM OVC033 14/13 A2999 RMK AO2 SLP154 T01440128=
201908011153 METAR KCLM 011153Z AUTO 24003KT 10SM BKN034 13/13 A2998 RMK AO2 SLP152 T01330128 10167 20122 56002=
201908011053 METAR KCLM 011053Z AUTO 22004KT 10SM CLR 13/13 A2998 RMK AO2 SLP152 T01330128=
201908010953 METAR KCLM 010953Z AUTO 24005KT 10SM CLR 14/13 A2999 RMK AO2 SLP154 T01440133=
201908010853 METAR KCLM 010853Z AUTO 24005KT 10SM CLR 15/14 A2999 RMK AO2 SLP153 T01500139 56004=
201908010753 METAR KCLM 010753Z AUTO 25006KT 10SM CLR 16/14 A2999 RMK AO2 SLP155 T01560139 402170133=
201908010653 METAR KCLM 010653Z AUTO 23004KT 10SM CLR 16/14 A2999 RMK AO2 SLP154 T01610144=
201908010553 METAR KCLM 010553Z AUTO 27006KT 10SM CLR 16/14 A3000 RMK AO2 SLP158 T01610144 10206 20161 50004=
201908010453 METAR KCLM 010453Z AUTO 29005KT 10SM SCT070 17/14 A3000 RMK AO2 SLP158 T01670144=
201908010353 METAR KCLM 010353Z AUTO 27004KT 10SM SCT070 17/14 A2999 RMK AO2 SLP155 T01720144=
201908010253 METAR KCLM 010253Z AUTO 27006KT 10SM FEW065 18/14 A2999 RMK AO2 SLP154 T01830144 56010=
201908010153 METAR KCLM 010153Z AUTO 30005KT 10SM CLR 19/15 A2999 RMK AO2 SLP156 T01940150=
201908010053 METAR KCLM 010053Z AUTO 29007KT 10SM CLR 19/14 A3001 RMK AO2 SLP162 T01940144=

# No short TAF reports from KCLM in databse.

###################################
#  large TAF from KCLM
###################################
201908312333 TAF KCLM 312333Z 0100/0124 30007KT P6SM BKN070 BKN100 FM010500
                       29005KT P6SM BKN060 BKN090 FM011000 25005KT
                       P6SM OVC035 FM011300 VRB04KT P6SM VCSH OVC025
                       FM011900 33006KT P6SM VCSH BKN035 BKN070=
201908311732 TAF KCLM 311732Z 3118/0118 VRB05KT P6SM VCSH FEW015 BKN050 OVC100
                       FM010100 29005KT P6SM OVC050 FM010800 28003KT
                       P6SM OVC035 FM011300 VRB04KT P6SM VCSH OVC027=
201908311129 TAF KCLM 311129Z 3112/0112 VRB04KT P6SM SCT035 BKN050 FM311800
                       35005KT P6SM VCSH OVC060 FM010100 31005KT
                       P6SM OVC050 FM010800 28003KT P6SM OVC050=
201908310535 TAF KCLM 310535Z 3106/0106 27005KT P6SM OVC050 FM311200 28004KT
                       P6SM SCT010 OVC060 FM311800 35005KT P6SM
                       VCSH OVC060 FM010100 30005KT P6SM OVC050=
201908302322 TAF KCLM 302322Z 3100/3124 32005KT P6SM BKN050 BKN200 FM310300
                       28005KT P6SM SCT060 BKN200 FM311200 VRB04KT
                       P6SM SCT010 BKN100 OVC200 FM311800 32005KT
                       P6SM VCSH BKN070 OVC120=
201908301728 TAF KCLM 301728Z 3018/3118 VRB05KT P6SM BKN050 FM302200 32005KT
                       P6SM SCT050 BKN120 FM310300 28005KT P6SM
                       SCT060 BKN200 FM311100 25005KT P6SM SCT010
                       BKN050 OVC120=
201908301136 TAF KCLM 301136Z 3012/3112 24005KT P6SM OVC030 FM301900 VRB05KT
                       P6SM BKN035 FM302300 32005KT P6SM BKN040
                       FM310300 28004KT P6SM BKN040=
201908300537 TAF KCLM 300537Z 3006/3106 28009KT 6SM -RA SCT020 BKN090 FM300900
                       26006KT P6SM OVC015 FM301900 33006KT P6SM
                       BKN030 FM302300 VRB05KT P6SM BKN040=
201908292331 TAF KCLM 292331Z 3000/3024 29008KT P6SM VCTS SCT050CB OVC100 FM300200
                       28007KT P6SM -SHRA BKN050 OVC080 FM300600
                       28006KT P6SM VCSH BKN080 OVC100 FM300900
                       25005KT P6SM OVC020 FM301900 33006KT P6SM
                       BKN030 FM302300 VRB05KT P6SM BKN040=
201908291803 TAF KCLM 291803Z 2918/3018 30003KT P6SM OVC100 FM291900 32008KT
                       P6SM SCT025 OVC080 FM292200 35005KT P6SM
                       VCSH OVC050 FM300600 28004KT P6SM BKN025
                       OVC035=
201908291610 KCLM 291610Z 2916/3012 29005KT P6SM BKN005 FM291800 30003KT P6SM
                       OVC100 FM291900 32008KT P6SM SCT025 OVC080
                       FM292200 35005KT P6SM OVC050=
201908291342 KCLM 291342Z 2914/3012 21004KT P6SM SCT250
                      TEMPO 2914/2916 BKN004 FM291600 30003KT P6SM
                       OVC100 FM291800 32008KT P6SM SCT025 OVC080
                       FM292200 35005KT P6SM OVC050=
201908291125 TAF KCLM 291125Z 2912/3012 21004KT P6SM SCT250 FM291600 30003KT
                       P6SM OVC100 FM291800 32008KT P6SM SCT025
                       OVC080 FM292200 35005KT P6SM OVC050=
201908290524 TAF KCLM 290524Z 2906/3006 VRB03KT P6SM FEW150 FM291200 28004KT
                       P6SM SCT015 OVC025 FM291800 32008KT P6SM
                       SCT025 OVC080=
201908282338 TAF KCLM 282338Z 2900/2924 07009KT P6SM SCT250 FM290300 29005KT
                       P6SM SCT250 FM291200 28004KT P6SM SCT015
                       OVC025 FM291800 35007KT P6SM SCT025 OVC080=
201908281734 TAF KCLM 281734Z 2818/2918 07009KT P6SM SCT250 FM290100 29005KT
                       P6SM SCT250 FM291500 28004KT P6SM OVC025=
201908281120 TAF KCLM 281120Z 2812/2912 VRB03KT P6SM SCT250 FM281800 07005KT
                       P6SM SCT250 FM290100 29004KT P6SM SCT250=
201908280520 TAF KCLM 280520Z 2806/2906 VRB03KT P6SM SKC FM281800 07005KT P6SM
                       SKC FM290100 29004KT P6SM SKC=
201908272337 TAF KCLM 272337Z 2800/2824 08009KT P6SM SKC FM280200 28003KT P6SM
                       SKC FM281800 08005KT P6SM SKC=
201908271732 TAF KCLM 271732Z 2718/2818 08009KT P6SM SKC FM280200 VRB03KT P6SM
                       SKC=
201908271120 TAF KCLM 271120Z 2712/2812 VRB03KT P6SM SKC FM271800 08009KT P6SM
                       SKC FM280200 VRB03KT P6SM SKC=
201908270520 TAF KCLM 270520Z 2706/2806 VRB03KT P6SM SKC FM271800 08009KT P6SM
                       SKC FM280200 VRB03KT P6SM SKC=
201908262340 TAF KCLM 262340Z 2700/2724 08007KT P6SM SKC FM270400 27004KT P6SM
                       SKC FM271800 08009KT P6SM SKC=
201908261720 TAF KCLM 261720Z 2618/2718 07006KT P6SM SKC FM270000 29003KT P6SM
                       SKC=
201908261120 TAF KCLM 261120Z 2612/2712 VRB03KT P6SM SKC FM261700 07006KT P6SM
                       SKC FM270000 VRB03KT P6SM SKC=
201908260520 TAF KCLM 260520Z 2606/2706 28006KT P6SM FEW250 FM261200 VRB03KT
                       P6SM SCT250 FM261700 07006KT P6SM SKC FM270000
                       VRB03KT P6SM SKC=
201908252336 TAF KCLM 252336Z 2600/2624 34008KT P6SM FEW250 FM261200 24003KT
                       P6SM SCT250=
201908251732 TAF KCLM 251732Z 2518/2618 32007KT P6SM SCT250 FM260000 29008KT
                       P6SM FEW250 FM261200 24003KT P6SM SCT250=
201908251121 TAF KCLM 251121Z 2512/2612 24006KT P6SM SCT025 OVC035 FM251300
                       27007KT P6SM OVC025 FM251900 34008KT P6SM
                       SCT040 SCT250 FM260000 29008KT P6SM FEW250=
201908250520 TAF KCLM 250520Z 2506/2606 29010KT P6SM SCT035 FM251000 29008KT
                       P6SM SCT025 OVC035 FM251300 27007KT P6SM
                       OVC025 FM251900 34008KT P6SM OVC035 FM252300
                       34009KT P6SM SCT040 SCT250=
201908242332 TAF KCLM 242332Z 2500/2524 29008KT P6SM SCT025 OVC035 FM250800
                       29008KT P6SM OVC025 FM251900 34008KT P6SM
                       OVC030 FM252300 34009KT P6SM SCT250=
201908241737 TAF KCLM 241737Z 2418/2518 28005KT P6SM BKN045 OVC050 FM242000
                       32010KT P6SM SCT025 BKN050 FM242300 29012G21KT
                       P6SM SCT025 OVC050 FM250600 29008KT P6SM
                       OVC025=
201908241120 TAF KCLM 241120Z 2412/2512 VRB03KT P6SM OVC060 FM241500 28005KT
                       P6SM FEW025 SCT060 FM242000 32010KT P6SM
                       BKN060 FM242300 29012G21KT P6SM SCT025 OVC050
                       FM250600 29008KT P6SM OVC025=
201908240520 TAF KCLM 240520Z 2406/2506 28005KT P6SM BKN060 BKN200 FM241500
                       28005KT P6SM FEW025 SCT060 FM242000 32010KT
                       P6SM SCT025 BKN060 FM242300 29012G21KT P6SM
                       SCT025 OVC050=
201908232325 TAF KCLM 232325Z 2400/2424 VRB03KT P6SM BKN100 BKN200 FM240700
                       28005KT P6SM BKN060 BKN200 FM241500 28005KT
                       P6SM FEW025 SCT060 FM242000 32010KT P6SM
                       BKN060=
201908232056 KCLM 232056Z 2321/2418 VRB05KT P6SM SCT100 BKN200 FM240700 29006KT
                       P6SM BKN060 BKN200 FM241400 28004KT P6SM
                       FEW030 SCT060=
201908231732 TAF KCLM 231732Z 2318/2418 20005KT P6SM VCSH SCT035 BKN050 BKN100
                       TEMPO 2318/2322 4SM -RA BR BKN035 FM232200
                       35006KT P6SM SCT100 BKN200 FM240700 29006KT
                       P6SM BKN060 BKN200 FM241400 28004KT P6SM
                       FEW030 SCT060=
201908231445 KCLM 231445Z 2315/2412 28005KT P6SM VCSH SCT030 BKN100
                      TEMPO 2315/2318 -SHRA FM231800 35006KT P6SM
                       SCT100 BKN200 FM240100 29006KT P6SM BKN060
                       BKN200=
201908231120 TAF KCLM 231120Z 2312/2412 27008KT P6SM SCT250 FM231500 26004KT
                       P6SM BKN100 OVC200 FM231800 35006KT P6SM
                       SCT100 BKN200 FM240100 29006KT P6SM BKN060
                       BKN200=
201908230520 TAF KCLM 230520Z 2306/2406 29007KT P6SM SCT250 FM231200 28005KT
                       P6SM BKN090 OVC200 FM232000 30008KT P6SM
                       SCT040 BKN070 OVC200=
201908222331 TAF KCLM 222331Z 2300/2324 08008KT P6SM FEW040 FEW250 FM230200
                       29009KT P6SM FEW180 FEW250 FM231300 28005KT
                       P6SM BKN090 OVC200=
201908221729 TAF KCLM 221729Z 2218/2318 VRB05KT P6SM FEW040 FM230200 29009KT
                       P6SM FEW180 SCT250 FM231000 28007KT P6SM
                       BKN090 OVC200=
201908221120 TAF KCLM 221120Z 2212/2312 24003KT P6SM SCT040 FM221800 01006KT
                       P6SM FEW050 FM230100 29006KT P6SM SCT250=
201908220541 TAF KCLM 220541Z 2206/2306 28010KT P6SM SCT040 FM220900 28007KT
                       P6SM OVC030 FM221700 VRB04KT P6SM SCT030
                       FM222200 VRB04KT P6SM SCT040 SCT250=
201908212331 TAF KCLM 212331Z 2200/2224 28010KT P6SM VCSH SCT007 OVC015
                      TEMPO 2200/2203 BKN007 FM220300 28011KT P6SM
                       VCSH BKN007 OVC012 FM220900 28010KT 2SM
                       BR OVC007 FM221700 33005KT P6SM OVC015 FM222200
                       36006KT P6SM SCT250=
201908212013 KCLM 212013Z 2120/2218 VRB03KT P6SM -RA BKN005 OVC018
                      TEMPO 2120/2122 3SM BR OVC005 FM212200 30006KT
                       P6SM -SHRA BKN030 OVC060 FM220100 28010KT
                       P6SM SCT030 BKN060 FM221500 30005KT P6SM
                       SCT250=
201908211733 TAF KCLM 211733Z 2118/2218 VRB03KT P6SM SCT003 OVC080
                      TEMPO 2118/2120 -SHRA BKN003 FM212100 30006KT
                       P6SM -SHRA BKN030 OVC060 FM220100 28010KT
                       P6SM SCT030 BKN060 FM221500 30005KT P6SM
                       SCT250=
201908211627 KCLM 211627Z 2116/2212 VRB04KT P6SM SCT003 OVC080
                      TEMPO 2116/2118 4SM -RA BR BKN003 OVC050
                       FM212100 30006KT P6SM -SHRA BKN030 OVC060
                       FM220200 28010KT P6SM SCT030 BKN060=
201908211302 KCLM 211302Z 2113/2212 00000KT P6SM SCT003 BKN050 OVC090
                      TEMPO 2113/2116 4SM -RA BR BKN003 OVC050
                       FM212100 30006KT P6SM -SHRA BKN030 OVC060
                       FM220200 28010KT P6SM SCT030 BKN060=
201908211123 TAF KCLM 211123Z 2112/2212 00000KT P6SM BKN050 OVC090 FM212100
                       30006KT P6SM -SHRA BKN030 OVC060 FM220200
                       28010KT P6SM SCT030 BKN060=
201908210521 TAF KCLM 210521Z 2106/2206 25005KT P6SM FEW060 BKN150 OVC250 FM211200
                       VRB03KT P6SM VCSH SCT030 OVC060 FM212100
                       30006KT P6SM BKN030 BKN060 FM220100 28010KT
                       P6SM BKN030=
201908202324 TAF KCLM 202324Z 2100/2124 28005KT P6SM SCT150 BKN250 FM210600
                       25005KT P6SM FEW060 BKN100 OVC150 FM211400
                       VRB02KT P6SM -RA SCT025 OVC060 FM212100
                       30006KT P6SM VCSH BKN030 BKN060=
201908201756 TAF KCLM 201756Z 2018/2118 21003KT P6SM FEW250 FM201900 34006KT
                       P6SM BKN250 FM210000 28005KT P6SM SCT250
                       FM210600 25003KT P6SM FEW060 BKN100 FM211200
                       VRB02KT P6SM -RA SCT025 OVC060=
201908201123 TAF KCLM 201123Z 2012/2112 21003KT P6SM FEW250 FM201900 34006KT
                       P6SM BKN250 FM210000 28005KT P6SM SCT250
                       FM210600 25003KT P6SM FEW060 BKN100 FM210900
                       VRB02KT P6SM -RA SCT025 OVC060=
201908200520 TAF KCLM 200520Z 2006/2106 27006KT P6SM SCT250 FM202100 30008KT
                       P6SM SCT120 SCT250=
201908192320 TAF KCLM 192320Z 2000/2024 31005KT P6SM FEW040 FM200400 30004KT
                       P6SM SCT250=
201908191736 KCLM 191736Z 1918/2018 VRB03KT P6SM OVC035 FM192100 31008KT P6SM
                       BKN035 FM192300 31005KT P6SM SKC FM200400
                       27003KT P6SM SCT050 BKN100 FM201400 VRB03KT
                       P6SM SCT040 BKN100=
201908191732 TAF KCLM 191732Z 1918/2018 VRB03KT P6SM OVC035 FM192100 31006KT
                       P6SM BKN035 FM192300 31008KT P6SM SKC=
201908191137 TAF KCLM 191137Z 1912/2012 VRB03KT P6SM OVC035 FM192100 31006KT
                       P6SM BKN035 FM192300 31008KT P6SM SKC=
201908190520 TAF KCLM 190520Z 1906/2006 26008KT P6SM FEW030 FM190800 29005KT
                       P6SM OVC015 FM192000 33010KT P6SM SCT020
                       BKN035 FM200000 30007KT P6SM FEW035=
201908182320 TAF KCLM 182320Z 1900/1924 29007KT P6SM SCT030 BKN050
                      TEMPO 1900/1902 OVC025 FM190200 29010KT P6SM
                       SCT050 FM190800 29005KT P6SM OVC015 FM192000
                       33010KT P6SM SCT020 BKN035=
201908181720 TAF KCLM 181720Z 1818/1918 VRB03KT P6SM OVC020 FM181900 29007KT
                       P6SM SCT030 BKN050 FM190200 29010KT P6SM
                       SCT050 FM190800 29005KT P6SM OVC015=
201908181135 TAF KCLM 181135Z 1812/1912 27008KT P6SM OVC012 FM181600 27008KT
                       P6SM SCT015 BKN025 FM181900 29010KT P6SM
                       SCT030 BKN050 FM190200 29010KT P6SM SCT050
                       FM190800 29008KT P6SM OVC015=
201908180815 KCLM 180815Z 1808/1906 27008KT P6SM OVC012 FM181600 27008KT P6SM
                       SCT015 BKN025 FM182000 31012KT P6SM SCT030
                       BKN050 FM190400 28009KT P6SM BKN050=
201908180520 TAF KCLM 180520Z 1806/1906 27008KT P6SM SCT060 FM180900 28005KT
                       P6SM BKN025 OVC050 FM182000 31012KT P6SM
                       SCT030 OVC050 FM190400 28009KT P6SM BKN050=
201908172320 TAF KCLM 172320Z 1800/1824 30006KT P6SM BKN060 FM180900 28005KT
                       P6SM BKN025 OVC050 FM182000 31012KT P6SM
                       SCT030 OVC050=
201908171720 TAF KCLM 171720Z 1718/1818 33006KT P6SM SCT035 BKN060 FM180000
                       28008KT P6SM BKN060 FM180900 28005KT P6SM
                       BKN025 OVC050=
201908171140 TAF KCLM 171140Z 1712/1812 22006KT P6SM SCT030 BKN060 FM171800
                       33006KT P6SM BKN035 BKN060 FM180000 28008KT
                       P6SM BKN060=
201908170520 TAF KCLM 170520Z 1706/1806 27004KT P6SM SCT050 FM171000 28005KT
                       P6SM BKN020 OVC050 FM172000 33006KT P6SM
                       SCT020 BKN050 FM180000 30009KT P6SM OVC050=
201908162320 TAF KCLM 162320Z 1700/1724 VRB04KT P6SM OVC035 FM170100 27012KT
                       P6SM OVC040 FM170600 27008KT P6SM SCT050
                       FM171000 28005KT P6SM BKN020 OVC050 FM172000
                       33006KT P6SM SCT020 BKN050=
201908161720 TAF KCLM 161720Z 1618/1718 27008KT P6SM SCT050 SCT250 FM170000
                       27012KT P6SM BKN050 FM170600 27008KT P6SM
                       SCT050 FM171000 28005KT P6SM BKN020 OVC050=
201908161136 TAF KCLM 161136Z 1612/1712 27008KT P6SM SCT050 SCT250 FM170000
                       27012KT P6SM BKN050 FM170600 27008KT P6SM
                       SCT050=
201908160702 KCLM 160702Z 1607/1706 27012KT P6SM SKC FM161100 28010KT P6SM OVC015
                       FM162000 29008KT P6SM SCT250 FM170200 29010KT
                       P6SM OVC050=
201908160521 TAF KCLM 160521Z 1606/1706 27008KT P6SM SKC FM160800 28010KT P6SM
                       OVC008 FM162000 29008KT P6SM SCT250 FM170200
                       29010KT P6SM OVC050=
201908152323 TAF KCLM 152323Z 1600/1624 30010KT P6SM SKC FM160800 28010KT P6SM
                       OVC008 FM162000 27005KT P6SM SCT250=
201908151727 TAF KCLM 151727Z 1518/1618 29006KT P6SM SKC FM152200 28012G18KT
                       P6SM SCT250 FM160500 28010KT P6SM SCT250
                       FM161000 28010KT P6SM OVC008=
201908151449 KCLM 151449Z 1515/1612 29005KT P6SM SKC FM152200 28012G18KT P6SM
                       SCT250 FM160500 28010KT P6SM SCT250 FM161000
                       28010KT P6SM OVC008=
201908151139 TAF KCLM 151139Z 1512/1612 28008KT P6SM OVC004 FM151600 28006KT
                       P6SM SCT250 FM152200 28012G18KT P6SM SCT250
                       FM160500 28010KT P6SM SCT250 FM161000 28010KT
                       P6SM OVC008=
201908150520 TAF KCLM 150520Z 1506/1606 28010KT P6SM SCT250 FM151000 28006KT
                       P6SM OVC010 FM151800 28003KT P6SM SCT250
                       FM152200 30010G17KT P6SM SCT250=
201908142331 TAF KCLM 142331Z 1500/1524 30007KT P6SM SCT250 FM150200 29010KT
                       P6SM SCT250 FM151000 28006KT P6SM OVC010
                       FM151800 28003KT P6SM SCT250=
201908141732 TAF KCLM 141732Z 1418/1518 VRB04KT P6SM SCT250 FM150200 29010KT
                       P6SM SKC FM151000 28006KT P6SM OVC010=
201908141120 TAF KCLM 141120Z 1412/1512 27003KT P6SM BKN250 FM141800 33006KT
                       P6SM FEW070 SCT250 FM150200 29010KT P6SM
                       SKC FM151000 28006KT P6SM SCT010=
201908140520 TAF KCLM 140520Z 1406/1506 29005KT P6SM SCT060 BKN250 FM141800
                       33006KT P6SM FEW070 SCT250=
201908132337 TAF KCLM 132337Z 1400/1424 VRB05KT P6SM FEW060 SCT120 SCT250 FM140300
                       29005KT P6SM FEW060 SCT250 FM141800 33006KT
                       P6SM SKC=
201908131727 TAF KCLM 131727Z 1318/1418 03005KT P6SM FEW100 SCT120 SCT250 FM132200
                       36005KT P6SM FEW060 SCT120 SCT250 FM140100
                       31006KT P6SM FEW060 SCT250 FM141000 28006KT
                       P6SM FEW060 SCT250=
201908131120 TAF KCLM 131120Z 1312/1412 00000KT P6SM BKN120 BKN250 FM131800
                       03005KT P6SM FEW060 SCT120 SCT250 FM140100
                       29008KT P6SM FEW060 SCT250=
201908130520 TAF KCLM 130520Z 1306/1406 25004KT P6SM FEW060 FEW100 SCT250 FM131200
                       VRB04KT P6SM FEW100 SCT250=
201908122320 TAF KCLM 122320Z 1300/1324 VRB04KT P6SM SCT250 FM131000 27003KT
                       P6SM OVC008 FM131700 27004KT P6SM SCT250=
201908121732 TAF KCLM 121732Z 1218/1318 00000KT P6SM OVC070 FM122100 34006KT
                       P6SM SCT070 FM130100 28005KT P6SM FEW070
                       SCT250 FM131000 27003KT P6SM OVC008=
201908121121 TAF KCLM 121121Z 1212/1312 25003KT P6SM VCFG FEW002 SCT070
                      TEMPO 1212/1216 3SM BR SCT002 BKN070 FM122100
                       34006KT P6SM SCT070 FM130100 28005KT P6SM
                       FEW070 SCT250=
201908121019 KCLM 121019Z 1210/1306 00000KT P6SM SCT020 BKN070
                      TEMPO 1212/1216 OVC020 FM122100 34006KT P6SM
                       SCT070 FM130100 28005KT P6SM FEW070=
201908120522 TAF KCLM 120522Z 1206/1306 27004KT P6SM VCSH BKN050 FM120800 26004KT
                       P6SM OVC030 FM121000 23004KT P6SM OVC020
                       FM121800 03005KT P6SM BKN050=
201908120135 KCLM 120135Z 1202/1224 27004KT P6SM VCSH BKN030
                      TEMPO 1202/1203 2SM -SHRA FM120400 27004KT
                       P6SM BKN050 FM120800 26004KT P6SM OVC030
                       FM121000 23004KT P6SM OVC020 FM121800 03005KT
                       P6SM BKN050=
201908112336 TAF KCLM 112336Z 1200/1224 32006KT P6SM BKN050
                      TEMPO 1200/1202 -RA FEW035 FM120400 27004KT
                       P6SM BKN050 FM120800 26004KT P6SM OVC030
                       FM121000 23004KT P6SM OVC020 FM121800 03005KT
                       P6SM BKN050=
201908111727 TAF KCLM 111727Z 1118/1218 32003KT P6SM SCT050 BKN070 FM112000
                       32006KT P6SM BKN050 FM120400 27004KT P6SM
                       BKN050 FM120800 26004KT P6SM OVC030 FM120900
                       25004KT P6SM OVC020=
201908111120 TAF KCLM 111120Z 1112/1212 25006KT P6SM SCT050
                      TEMPO 1112/1116 BKN050 FM112000 34006KT P6SM
                       SCT050 BKN100 FM120100 28005KT P6SM SCT050
                       BKN100 FM120900 25004KT P6SM BKN015 BKN050=
201908110520 TAF KCLM 110520Z 1106/1206 28012KT P6SM SCT040 FM111000 27007KT
                       P6SM BKN020 OVC040 FM112100 27007KT P6SM
                       SCT030 BKN050=
201908102321 TAF KCLM 102321Z 1100/1124 28012KT P6SM BKN045 FM110600 28012KT
                       P6SM SCT020 OVC040 FM111000 27007KT P6SM
                       BKN020 OVC040 FM112100 27007KT P6SM SCT030
                       BKN050=
201908101720 TAF KCLM 101720Z 1018/1118 VRB04KT P6SM -RA SCT025 OVC050
                      TEMPO 1018/1022 4SM RA BR OVC020 FM102200
                       33006KT P6SM BKN025 BKN050 BKN100 FM110200
                       29012KT P6SM SCT020 BKN050 BKN100 FM110900
                       28005KT P6SM BKN015 OVC050=
201908101121 TAF KCLM 101121Z 1012/1112 26003KT P6SM BKN035 BKN100
                      TEMPO 1017/1021 -SHRA BKN025 OVC035 FM102200
                       33006KT P6SM BKN050 BKN100 FM110200 29008KT
                       P6SM SCT050 BKN100 FM110900 28005KT P6SM
                       BKN015 OVC050=
201908100538 TAF KCLM 100538Z 1006/1106 28007KT P6SM OVC040 FM101500 VRB04KT
                       P6SM VCSH BKN025 OVC040 FM102300 29012KT
                       P6SM OVC050=
201908092320 TAF KCLM 092320Z 1000/1024 32007KT P6SM BKN040 BKN150 FM101500
                       VRB04KT P6SM VCSH BKN025 OVC040=
201908091938 KCLM 091938Z 0920/1018 VRB04KT P6SM OVC035 FM092200 28007KT P6SM
                       BKN040 BKN120 FM101500 VRB04KT 6SM -SHRA
                       BKN025 OVC040=
201908091720 TAF KCLM 091720Z 0918/1018 28007KT P6SM OVC025 FM092200 28007KT
                       P6SM BKN040 BKN120 FM101500 VRB04KT 6SM
                       -SHRA BKN025 OVC040=
201908091131 TAF KCLM 091131Z 0912/1012 VRB03KT P6SM OVC020 FM092000 33008KT
                       P6SM OVC025 FM092300 30010KT P6SM SCT035
                       BKN120 FM100900 28009KT P6SM VCSH OVC025=
201908090858 KCLM 090858Z 0909/1006 26005KT P6SM OVC020 FM092000 30010KT P6SM
                       BKN020 FM092300 30010KT P6SM SCT035=
201908090536 TAF KCLM 090536Z 0906/1006 28008KT P6SM OVC015 FM092000 30010KT
                       P6SM BKN020 FM092300 30010KT P6SM SCT035=
201908090140 KCLM 090140Z 0902/0924 30010KT P6SM SKC FM091000 28008KT P6SM OVC015
                       FM092000 30010KT P6SM BKN020=
201908082320 TAF KCLM 082320Z 0900/0924 30010KT P6SM OVC022 FM090800 28008KT
                       P6SM OVC015 FM092000 30010KT P6SM BKN020=
201908081726 TAF KCLM 081726Z 0818/0918 25005KT P6SM OVC015
                      TEMPO 0818/0820 4SM BR OVC009 FM082100 28008KT
                       P6SM OVC025 FM090800 28008KT P6SM OVC015=
201908081127 TAF KCLM 081127Z 0812/0912 27006KT P6SM OVC008 FM081700 29005KT
                       P6SM OVC018 FM082100 30011KT P6SM SCT030
                       FM090800 28007KT P6SM BKN015=
201908080801 KCLM 080801Z 0808/0906 27010KT P6SM OVC012 FM081000 29008KT P6SM
                       OVC009 FM081400 29008KT P6SM OVC012 FM082100
                       29008KT P6SM SKC=
201908080534 TAF KCLM 080534Z 0806/0906 29012KT P6SM SKC FM080800 29008KT P6SM
                       OVC009 FM081400 29008KT P6SM OVC012 FM082100
                       29008KT P6SM SKC=
201908072338 TAF KCLM 072338Z 0800/0824 29012KT P6SM SKC FM080600 29008KT 2SM
                       BR OVC002 FM081600 29008KT P6SM OVC006 FM082000
                       29008KT P6SM SKC=
201908071727 TAF KCLM 071727Z 0718/0818 32008KT P6SM BKN008 FM072000 31011KT
                       P6SM FEW010 FM072300 28012KT P6SM SKC FM080400
                       30008KT 2SM BR OVC002=
201908071153 TAF KCLM 071153Z 0712/0812 28008KT 3SM BR OVC003
                      TEMPO 0712/0715 1 1/2SM BR OVC001 FM071600
                       28008KT P6SM BKN006 FM071700 32008KT P6SM
                       SKC FM072300 28012KT P6SM SKC FM080600 30008KT
                       P6SM BKN008=
201908071012 KCLM 071012Z 0710/0806 28008KT 1 1/2SM BR OVC001 FM071600 28008KT
                       P6SM BKN006 FM071700 28008KT P6SM SKC FM072300
                       28012KT P6SM SKC=
201908070905 KCLM 070905Z 0709/0806 28008KT 1 1/2SM BR OVC002 FM071600 28008KT
                       P6SM BKN006 FM071700 28008KT P6SM SKC FM072300
                       28012KT P6SM SKC=
201908070526 TAF KCLM 070526Z 0706/0806 28008KT P6SM OVC003 FM071600 28008KT
                       P6SM BKN006 FM071700 28008KT P6SM SKC FM072300
                       28012KT P6SM SKC=
201908070315 KCLM 070315Z 0703/0724 28008KT P6SM SKC FM070600 28008KT 3SM BR
                       OVC002 FM071000 28008KT P6SM OVC004 FM071700
                       28008KT P6SM SKC=
201908062337 TAF KCLM 062337Z 0700/0724 28010KT P6SM SKC FM070300 29012KT P6SM
                       SCT200 FM070600 31010KT P6SM SCT120 FM071000
                       30008KT P6SM BKN010 FM071200 30007KT P6SM
                       OVC007=
201908061727 TAF KCLM 061727Z 0618/0718 29006KT P6SM SCT007 FM061900 32008KT
                       P6SM SCT200 FM070300 29012KT P6SM SCT200
                       FM070600 31010KT P6SM SKC FM071000 30005KT
                       P6SM BKN008 FM071200 30005KT P6SM OVC007=
201908061142 TAF KCLM 061142Z 0612/0712 28008KT 2SM BR OVC002 FM061400 29006KT
                       P6SM OVC005 FM061800 32006KT P6SM SCT200
                       FM070300 29012KT P6SM SCT200 FM070600 31010KT
                       P6SM SKC FM071000 30005KT P6SM BKN008=
201908060614 KCLM 060614Z 0606/0706 28007KT P6SM BKN003 FM060800 29006KT 2SM
                       BR OVC003 FM061400 29006KT P6SM OVC006 FM061800
                       29006KT P6SM SCT200 FM062300 29012KT P6SM
                       SCT200=
201908060536 TAF KCLM 060536Z 0606/0706 29010KT P6SM SKC FM060800 29006KT 1SM
                       BR OVC002 FM061100 29006KT 2SM BR OVC003
                       FM061400 29006KT P6SM OVC006 FM061800 29006KT
                       P6SM SCT200 FM062300 29012KT P6SM SCT200=
201908052335 TAF KCLM 052335Z 0600/0624 32006KT P6SM SKC FM060200 29010KT P6SM
                       SKC FM061100 29009KT 6SM BR BKN005 FM061800
                       32007KT P6SM SCT250=
201908051730 TAF KCLM 051730Z 0518/0618 31004KT P6SM SKC FM052000 34008KT P6SM
                       SKC FM060100 31010KT P6SM SKC FM061100 29008KT
                       6SM BR BKN005=
201908051127 TAF KCLM 051127Z 0512/0612 29005KT P6SM SCT003
                      TEMPO 0512/0516 3SM BR BKN003 FM051800 34004KT
                       P6SM SKC FM052000 03006KT P6SM SKC FM060100
                       29011KT P6SM SKC FM061000 29006KT 6SM BR
                       BKN005=
201908050532 TAF KCLM 050532Z 0506/0606 25005KT P6SM SKC FM051800 34004KT P6SM
                       SKC FM052000 03006KT P6SM SKC FM060300 29007KT
                       P6SM SKC=
201908042331 TAF KCLM 042331Z 0500/0524 07005KT P6SM SKC FM050100 VRB04KT P6SM
                       SKC FM050300 28004KT P6SM SKC FM051600 34004KT
                       P6SM SKC FM051900 03006KT P6SM SKC=
201908041730 TAF KCLM 041730Z 0418/0518 08009KT P6SM FEW200 FM050100 VRB04KT
                       P6SM SKC FM050300 28003KT P6SM SKC FM051600
                       33004KT P6SM SKC=
201908041129 TAF KCLM 041129Z 0412/0512 23005KT P6SM SCT200 FM041800 05005KT
                       P6SM FEW200 FM050100 29007KT P6SM SKC=
201908040531 TAF KCLM 040531Z 0406/0506 25005KT P6SM SCT200 FM041800 05005KT
                       P6SM FEW200 FM050100 29007KT P6SM SKC=
201908032320 TAF KCLM 032320Z 0400/0424 VRB05KT P6SM SCT200 FM040500 29005KT
                       P6SM SCT200 FM041800 07005KT P6SM FEW200=
201908031720 TAF KCLM 031720Z 0318/0418 VRB05KT P6SM SKC FM032000 03006KT P6SM
                       SKC FM040000 34006KT P6SM SKC FM040400 29005KT
                       P6SM SKC=
201908031130 TAF KCLM 031130Z 0312/0412 VRB05KT P6SM SCT200 FM031600 27005KT
                       P6SM SKC FM032000 02006KT P6SM SKC FM040300
                       29007KT P6SM SKC FM041100 28004KT P6SM SKC=
201908030541 TAF KCLM 030541Z 0306/0406 29006KT P6SM SCT200 FM031500 VRB04KT
                       P6SM SKC FM032000 04006KT P6SM SKC FM040300
                       29007KT P6SM SKC=
201908022327 TAF KCLM 022327Z 0300/0324 30010KT P6SM SCT060 BKN200 FM030600
                       29006KT P6SM SCT200 FM031500 VRB04KT P6SM
                       SKC FM032000 04006KT P6SM SKC=
201908021720 TAF KCLM 021720Z 0218/0318 27008KT P6SM SCT020 BKN150 FM022100
                       31011KT P6SM SCT050 FM030300 29009KT P6SM
                       SKC=
201908021242 KCLM 021242Z 0213/0312 30006KT 6SM -RA BR SCT020 OVC050
                      TEMPO 0213/0216 3SM -RA BR SCT008 OVC014
                       FM021800 29010KT P6SM VCSH SCT025 BKN050
                       FM022300 31011KT P6SM SCT050 FM030300 29009KT
                       P6SM SKC=
201908021122 TAF KCLM 021122Z 0212/0312 27006KT 6SM -RA BR SCT020 OVC050
                      TEMPO 0212/0216 3SM -RA BR FM021800 29010KT
                       P6SM VCSH SCT025 BKN050 FM022300 31011KT
                       P6SM SCT050 FM030300 29009KT P6SM SKC=
201908020544 TAF KCLM 020544Z 0206/0306 VRB04KT P6SM -RA BKN060 OVC100 FM020800
                       29006KT P6SM -RA OVC030 FM021200 27006KT
                       P6SM -RA BKN020 OVC050 FM021800 29010KT
                       P6SM VCSH SCT025 BKN050 FM022300 31010KT
                       P6SM SCT050=
201908012320 TAF KCLM 012320Z 0200/0224 VRB05KT P6SM FEW035 SCT200 FM020500
                       VRB04KT P6SM BKN060 OVC120 FM020800 22010KT
                       P6SM -RA OVC025 FM021200 25010KT P6SM BKN020
                       OVC050 FM021800 29010KT P6SM BKN050=
201908011739 TAF KCLM 011739Z 0118/0218 25005KT P6SM OVC025 FM012000 35006KT
                       P6SM BKN060 FM020500 VRB04KT P6SM BKN060
                       OVC120 FM020800 22010KT P6SM -RA OVC030
                       FM021000 16014G20KT P6SM BKN020 OVC070=
201908011140 TAF KCLM 011140Z 0112/0212 25005KT P6SM SCT015 SCT060
                      TEMPO 0112/0116 BKN012 FM012000 34006KT P6SM
                       SCT060 SCT200 FM020500 VRB04KT P6SM BKN060
                       OVC120 FM021000 VRB03KT P6SM -RA OVC012=
201908010543 TAF KCLM 010543Z 0106/0206 29005KT P6SM SCT070 SCT250 FM011000
                       28005KT P6SM SCT015
                      TEMPO 0110/0114 BKN015 FM012000 34006KT P6SM
                       SCT250 FM020500 25004KT P6SM BKN250=