##########################################################
# Query made at 02/16/2025 03:57:35 UTC
# Time interval: from 11/01/2019 00:00  to 11/30/2019 23:59  UTC
##########################################################

##########################################################
# KCLM, Port Angeles, William R. Fairchild International Airport (United States)
# WMO index: -----. WIGOS ID: Unknown
# Latitude 48-07-20N. Longitude 123-30-19W. Altitude 87 m.
##########################################################

###################################
#  METAR/SPECI from KCLM
###################################
201911302353 METAR KCLM 302353Z AUTO 12004KT 10SM CLR 02/M03 A3005 RMK AO2 SLP181 T00171028 10039 20000 58007=
201911302253 METAR KCLM 302253Z AUTO 10005KT 10SM CLR 03/M02 A3007 RMK AO2 SLP185 T00281022=
201911302153 METAR KCLM 302153Z AUTO 07007KT 10SM CLR 04/M03 A3007 RMK AO2 SLP186 T00391033=
201911302053 METAR KCLM 302053Z AUTO 07007KT 10SM CLR 04/M02 A3008 RMK AO2 SLP188 T00391017 58003=
201911301953 METAR KCLM 301953Z AUTO 07007KT 10SM CLR 03/M02 A3008 RMK AO2 SLP190 T00331017=
201911301853 METAR KCLM 301853Z AUTO 10005KT 10SM CLR 03/M01 A3009 RMK AO2 SLP192 T00281011=
201911301753 METAR KCLM 301753Z AUTO 00000KT 10SM FEW024 00/M02 A3008 RMK AO2 SLP191 I6000 T00001022 10000 21056 51011=
201911301731 SPECI KCLM 301731Z AUTO 20003KT 10SM SCT022 M01/M03 A3008 RMK AO2 T10061033=
201911301703 SPECI KCLM 301703Z AUTO 00000KT 10SM FEW016 BKN021 M02/M03 A3007 RMK AO2 T10171033=
201911301653 METAR KCLM 301653Z AUTO 22003KT 10SM SCT023 M04/M05 A3007 RMK AO2 SLP187 T10391050=
201911301553 METAR KCLM 301553Z AUTO 21003KT 10SM CLR M04/M06 A3006 RMK AO2 SLP185 T10441061=
201911301453 METAR KCLM 301453Z AUTO 22005KT 10SM CLR M04/M06 A3005 RMK AO2 SLP180 I3000 T10391056 51010=
201911301353 METAR KCLM 301353Z AUTO 22007KT 10SM CLR M04/M06 A3004 RMK AO2 SLP176 T10391056=
201911301253 METAR KCLM 301253Z AUTO 22005KT 10SM CLR M04/M06 A3003 RMK AO2 SLP174 I1000 T10441056=
201911301153 METAR KCLM 301153Z AUTO 21003KT 10SM CLR M05/M06 A3002 RMK AO2 SLP170 T10501061 11022 21056 53016=
201911301053 METAR KCLM 301053Z AUTO 22007KT 10SM CLR M02/M05 A3000 RMK AO2 SLP161 T10221050=
201911300953 METAR KCLM 300953Z AUTO 22006KT 10SM CLR M03/M06 A2999 RMK AO2 SLP157 T10281056=
201911300853 METAR KCLM 300853Z AUTO 21004KT 10SM CLR M03/M06 A2997 RMK AO2 SLP153 T10331061 53011=
201911300753 METAR KCLM 300753Z AUTO 21005KT 10SM CLR M04/M06 A2996 RMK AO2 SLP148 T10391061 400441050=
201911300653 METAR KCLM 300653Z AUTO 22005KT 10SM CLR M04/M06 A2995 RMK AO2 SLP145 T10391061=
201911300553 METAR KCLM 300553Z AUTO 21004KT 10SM CLR M03/M06 A2994 RMK AO2 SLP143 T10281056 10017 21050 51012=
201911300453 METAR KCLM 300453Z AUTO 21004KT 10SM CLR M04/M06 A2993 RMK AO2 SLP139 T10391061=
201911300353 METAR KCLM 300353Z AUTO 22005KT 10SM CLR M03/M06 A2992 RMK AO2 SLP136 T10331056=
201911300253 METAR KCLM 300253Z AUTO 00000KT 10SM CLR M03/M05 A2991 RMK AO2 SLP131 T10281050 53009=
201911300153 METAR KCLM 300153Z AUTO 00000KT 10SM CLR M03/M05 A2989 RMK AO2 SLP127 T10331050=
201911300053 METAR KCLM 300053Z AUTO 00000KT 10SM CLR M02/M05 A2989 RMK AO2 SLP124 T10221050=
201911292353 METAR KCLM 292353Z AUTO 09004KT 10SM CLR 02/M05 A2988 RMK AO2 SLP120 T00171050 10044 20006 53001=
201911292253 METAR KCLM 292253Z AUTO 07005KT 10SM CLR 03/M04 A2987 RMK AO2 SLP119 T00331044=
201911292153 METAR KCLM 292153Z AUTO 11005KT 10SM CLR 04/M04 A2987 RMK AO2 SLP116 T00391044=
201911292053 METAR KCLM 292053Z AUTO 07006KT 10SM CLR 04/M05 A2988 RMK AO2 SLP120 T00391050 58012=
201911291953 METAR KCLM 291953Z AUTO 04005KT 10SM CLR 04/M06 A2989 RMK AO2 SLP124 T00391056=
201911291853 METAR KCLM 291853Z AUTO 07004KT 10SM CLR 04/M06 A2991 RMK AO2 SLP130 T00391056=
201911291753 METAR KCLM 291753Z AUTO 22004KT 10SM CLR 01/M04 A2991 RMK AO2 SLP132 T00061044 10006 21050 53001=
201911291653 METAR KCLM 291653Z AUTO 23006KT 10SM CLR M02/M06 A2991 RMK AO2 SLP132 T10221056=
201911291553 METAR KCLM 291553Z AUTO 21004KT 10SM CLR M04/M07 A2990 RMK AO2 SLP130 T10441067=
201911291453 METAR KCLM 291453Z AUTO 22007KT 10SM CLR M03/M06 A2991 RMK AO2 SLP131 T10281061 56003=
201911291353 METAR KCLM 291353Z AUTO 21003KT 10SM CLR M03/M07 A2991 RMK AO2 SLP132 T10331067=
201911291253 METAR KCLM 291253Z AUTO 22007KT 10SM CLR M02/M06 A2991 RMK AO2 SLP132 T10221061=
201911291153 METAR KCLM 291153Z AUTO 23009KT 10SM CLR M02/M06 A2992 RMK AO2 SLP133 T10171056 11011 21033 56004=
201911291053 METAR KCLM 291053Z AUTO 24007KT 10SM CLR M02/M06 A2992 RMK AO2 SLP134 T10221056=
201911290953 METAR KCLM 290953Z AUTO 22007KT 10SM CLR M02/M06 A2992 RMK AO2 SLP136 T10221056=
201911290853 METAR KCLM 290853Z AUTO 22007KT 10SM CLR M02/M06 A2993 RMK AO2 SLP137 T10221056 58006=
201911290753 METAR KCLM 290753Z AUTO 23006KT 10SM CLR M01/M06 A2993 RMK AO2 SLP140 T10111056 400441033=
201911290653 METAR KCLM 290653Z AUTO 23007KT 10SM CLR M01/M05 A2994 RMK AO2 SLP143 T10111050=
201911290553 METAR KCLM 290553Z AUTO 23008KT 10SM CLR M02/M06 A2995 RMK AO2 SLP144 T10171056 10022 21033 50003=
201911290453 METAR KCLM 290453Z AUTO 21007KT 10SM CLR M02/M06 A2995 RMK AO2 SLP146 T10171056=
201911290353 METAR KCLM 290353Z AUTO 22007KT 10SM CLR M02/M06 A2995 RMK AO2 SLP146 T10171056=
201911290253 METAR KCLM 290253Z AUTO 22005KT 10SM CLR M02/M06 A2994 RMK AO2 SLP142 T10221056 53003=
201911290153 METAR KCLM 290153Z AUTO 21004KT 10SM CLR M03/M05 A2994 RMK AO2 SLP141 T10281050=
201911290053 METAR KCLM 290053Z AUTO 20003KT 10SM CLR M02/M05 A2993 RMK AO2 SLP140 T10221050=
201911282353 METAR KCLM 282353Z AUTO 00000KT 10SM CLR 03/M05 A2993 RMK AO2 SLP138 T00281050 10044 20017 55001=
201911282253 METAR KCLM 282253Z AUTO 03003KT 10SM CLR 04/M05 A2992 RMK AO2 SLP136 T00391050=
201911282153 METAR KCLM 282153Z AUTO VRB03KT 10SM CLR 04/M06 A2992 RMK AO2 SLP133 T00441056=
201911282053 METAR KCLM 282053Z AUTO VRB04KT 10SM CLR 04/M06 A2993 RMK AO2 SLP139 T00391061 50001=
201911281953 METAR KCLM 281953Z AUTO VRB04KT 10SM CLR 04/M06 A2995 RMK AO2 SLP144 T00441056=
201911281853 METAR KCLM 281853Z AUTO 24004KT 10SM CLR 03/M05 A2994 RMK AO2 SLP141 T00331050=
201911281753 METAR KCLM 281753Z AUTO 22004KT 10SM CLR 02/M04 A2993 RMK AO2 SLP138 T00171039 10017 21033 51011=
201911281653 METAR KCLM 281653Z AUTO 22005KT 10SM CLR M01/M05 A2993 RMK AO2 SLP136 T10111050=
201911281553 METAR KCLM 281553Z AUTO 24006KT 10SM CLR M03/M06 A2992 RMK AO2 SLP134 T10281061=
201911281453 METAR KCLM 281453Z AUTO 23005KT 10SM CLR M01/M06 A2990 RMK AO2 SLP127 T10111056 53009=
201911281353 METAR KCLM 281353Z AUTO 21006KT 10SM CLR M01/M06 A2987 RMK AO2 SLP119 T10111061=
201911281253 METAR KCLM 281253Z AUTO 22006KT 10SM CLR M02/M06 A2987 RMK AO2 SLP119 T10171061=
201911281153 METAR KCLM 281153Z AUTO 20006KT 10SM CLR M01/M06 A2987 RMK AO2 SLP117 T10061061 10033 21017 51006=
201911281053 METAR KCLM 281053Z AUTO 00000KT 10SM CLR M01/M07 A2987 RMK AO2 SLP116 T10061067=
201911280953 METAR KCLM 280953Z AUTO VRB04KT 10SM CLR M01/M07 A2986 RMK AO2 SLP113 T10061067=
201911280853 METAR KCLM 280853Z AUTO 00000KT 10SM SCT055 00/M07 A2985 RMK AO2 SLP111 T00001067 51007=
201911280753 METAR KCLM 280753Z AUTO 00000KT 10SM SCT055 01/M07 A2985 RMK AO2 SLP110 T00061067 400560000=
201911280653 METAR KCLM 280653Z AUTO VRB04KT 10SM CLR 02/M08 A2984 RMK AO2 SLP106 T00221078=
201911280553 METAR KCLM 280553Z AUTO VRB03KT 10SM FEW050 BKN060 03/M07 A2983 RMK AO2 SLP103 T00331072 10050 20028 51020=
201911280453 METAR KCLM 280453Z AUTO 09007KT 040V110 10SM SCT050 BKN075 03/M07 A2981 RMK AO2 SLP097 T00331072=
201911280353 METAR KCLM 280353Z AUTO 07009G17KT 10SM FEW055 OVC075 04/M07 A2980 RMK AO2 SLP093 T00391067=
201911280253 METAR KCLM 280253Z AUTO 07009G19KT 030V100 10SM OVC080 04/M08 A2977 RMK AO2 SLP083 T00391078 53020=
201911280153 METAR KCLM 280153Z AUTO 07006KT 10SM OVC080 04/M07 A2975 RMK AO2 SLP075 T00441072=
201911280053 METAR KCLM 280053Z AUTO 08009G15KT 10SM OVC080 04/M07 A2973 RMK AO2 SLP068 T00441072=
201911272353 METAR KCLM 272353Z AUTO VRB06KT 10SM OVC080 05/M07 A2971 RMK AO2 SLP062 T00501072 10056 20050 53011=
201911272253 METAR KCLM 272253Z AUTO VRB05KT 10SM OVC080 05/M07 A2969 RMK AO2 SLP057 T00501067=
201911272153 METAR KCLM 272153Z AUTO 06009G16KT 030V090 10SM OVC080 06/M07 A2968 RMK AO2 SLP053 T00561067=
201911272053 METAR KCLM 272053Z AUTO 05011G19KT 020V080 10SM OVC080 06/M07 A2968 RMK AO2 SLP051 T00561067 51007=
201911271953 METAR KCLM 271953Z AUTO 06010G19KT 10SM OVC080 06/M06 A2967 RMK AO2 SLP048 T00561056=
201911271853 METAR KCLM 271853Z AUTO 05008G19KT 10SM OVC080 06/M06 A2967 RMK AO2 SLP048 T00561061=
201911271753 METAR KCLM 271753Z AUTO 06008KT 10SM OVC080 06/M05 A2966 RMK AO2 SLP044 T00561050 10056 20044 53012=
201911271653 METAR KCLM 271653Z AUTO 07010G20KT 10SM OVC080 06/M06 A2964 RMK AO2 SLP039 T00561056=
201911271553 METAR KCLM 271553Z AUTO 09011KT 10SM OVC075 05/M05 A2963 RMK AO2 SLP036 T00501050=
201911271453 METAR KCLM 271453Z AUTO VRB05G15KT 10SM BKN070 OVC085 06/M04 A2962 RMK AO2 SLP032 T00561044 53005=
201911271353 METAR KCLM 271353Z AUTO VRB04KT 10SM OVC080 05/M05 A2961 RMK AO2 SLP030 T00501050=
201911271253 METAR KCLM 271253Z AUTO 10SM OVC080 05/M05 A2961 RMK AO2 SLP027 T00501050=
201911271153 METAR KCLM 271153Z AUTO VRB06KT 10SM FEW090 OVC100 04/M05 A2960 RMK AO2 SLP026 T00441050 10050 20044 56007=
201911271053 METAR KCLM 271053Z AUTO VRB06KT 10SM OVC085 04/M05 A2961 RMK AO2 SLP029 T00441050=
201911270953 METAR KCLM 270953Z AUTO 06008G15KT 10SM OVC080 05/M05 A2962 RMK AO2 SLP030 T00501050=
201911270853 METAR KCLM 270853Z AUTO 07007KT 10SM SCT100 04/M04 A2962 RMK AO2 SLP033 T00441044 58005=
201911270753 METAR KCLM 270753Z AUTO 07010G15KT 040V100 10SM OVC080 05/M04 A2964 RMK AO2 SLP038 T00501039 400561011=
201911270653 METAR KCLM 270653Z AUTO 07013G19KT 10SM OVC100 05/M04 A2964 RMK AO2 SLP040 T00501044=
201911270553 METAR KCLM 270553Z AUTO 07009G18KT 10SM BKN080 05/M04 A2964 RMK AO2 SLP039 T00501039 10056 20050 56007=
201911270453 METAR KCLM 270453Z AUTO 07013G20KT 10SM FEW042 OVC080 05/M03 A2965 RMK AO2 SLP041 T00501033=
201911270353 METAR KCLM 270353Z AUTO 06008G16KT 020V090 10SM FEW042 OVC075 05/M03 A2965 RMK AO2 SLP043 T00501028=
201911270253 METAR KCLM 270253Z AUTO 05007G20KT 340V100 10SM FEW020 SCT026 OVC050 05/02 A2966 RMK AO2 SLP047 T00500017 56008=
201911270246 SPECI KCLM 270246Z AUTO VRB06G20KT 10SM SCT020 SCT025 OVC050 05/02 A2966 RMK AO2 T00500017=
201911270232 SPECI KCLM 270232Z AUTO 02009G18KT 340V060 10SM SCT020 BKN025 OVC055 05/02 A2966 RMK AO2 T00500017=
201911270153 METAR KCLM 270153Z AUTO 05010G19KT 10SM OVC055 06/00 A2967 RMK AO2 SLP048 T00560000=
201911270053 METAR KCLM 270053Z AUTO 06011G18KT 10SM OVC075 05/M01 A2968 RMK AO2 SLP053 T00501011=
201911262353 METAR KCLM 262353Z AUTO 07011G14KT 10SM BKN034 BKN042 OVC070 05/M01 A2969 RMK AO2 SLP056 60000 T00501006 10056 20033 56017=
201911262316 SPECI KCLM 262316Z AUTO 07012KT 10SM FEW028 BKN034 OVC060 05/M01 A2969 RMK AO2 T00501006=
201911262253 METAR KCLM 262253Z AUTO 07010KT 10SM BKN028 BKN036 OVC043 05/00 A2970 RMK AO2 RAB01E19 SLP059 P0000 T00500000=
201911262153 METAR KCLM 262153Z AUTO 07007KT 10SM BKN022 BKN029 OVC041 04/01 A2972 RMK AO2 RAB28E42 SLP065 P0000 T00440011=
201911262053 METAR KCLM 262053Z AUTO 09011KT 10SM FEW015 BKN025 BKN032 05/01 A2974 RMK AO2 SLP071 T00500011 58021=
201911261953 METAR KCLM 261953Z AUTO 11006KT 10SM SCT018 SCT029 05/01 A2976 RMK AO2 SLP079 T00500011=
201911261853 METAR KCLM 261853Z AUTO 09003KT 10SM CLR 04/01 A2978 RMK AO2 SLP088 T00390011=
201911261753 METAR KCLM 261753Z AUTO 00000KT 10SM CLR 03/00 A2980 RMK AO2 SLP094 T00330000 10033 21011 58025=
201911261653 METAR KCLM 261653Z AUTO 22005KT 10SM CLR 02/M02 A2982 RMK AO2 SLP102 T00171017=
201911261614 SPECI KCLM 261614Z AUTO 24006KT 10SM SCT014 02/M02 A2984 RMK AO2 T00171017=
201911261553 METAR KCLM 261553Z AUTO 23006KT 10SM OVC013 02/M01 A2985 RMK AO2 SLP112 T00171011=
201911261509 SPECI KCLM 261509Z AUTO 23005KT 10SM BKN010 OVC014 02/M01 A2987 RMK AO2 CIG 008V012 T00171011=
201911261453 METAR KCLM 261453Z AUTO 22005KT 10SM OVC009 02/M01 A2987 RMK AO2 CIG 008V013 SLP119 T00171011 58014=
201911261433 SPECI KCLM 261433Z AUTO VRB03KT 10SM OVC009 02/00 A2988 RMK AO2 CIG 008V014 T00220000=
201911261353 METAR KCLM 261353Z AUTO VRB03KT 10SM BKN012 OVC019 01/M02 A2990 RMK AO2 SLP127 T00111017=
201911261351 SPECI KCLM 261351Z AUTO 22004KT 10SM BKN013 OVC019 02/M01 A2990 RMK AO2=
201911261337 SPECI KCLM 261337Z AUTO 00000KT 10SM FEW013 BKN019 OVC031 01/M02 A2990 RMK AO2 T00061017=
201911261253 METAR KCLM 261253Z AUTO 22004KT 10SM CLR M01/M03 A2991 RMK AO2 SLP132 T10111028=
201911261153 METAR KCLM 261153Z AUTO 21005KT 10SM FEW060 00/M02 A2994 RMK AO2 SLP142 T00001022 10028 21011 58023=
201911261053 METAR KCLM 261053Z AUTO 24006KT 10SM BKN060 02/M02 A2998 RMK AO2 SLP153 T00221022=
201911260953 METAR KCLM 260953Z AUTO 00000KT 10SM SCT049 OVC065 02/M02 A3000 RMK AO2 SLP160 T00171017=
201911260853 METAR KCLM 260853Z AUTO 22005KT 10SM BKN047 OVC060 02/M02 A3001 RMK AO2 SLP165 T00221017 58021=
201911260753 METAR KCLM 260753Z AUTO VRB03KT 10SM FEW045 BKN055 01/M02 A3004 RMK AO2 SLP173 T00111022 400940011=
201911260653 METAR KCLM 260653Z AUTO 22005KT 10SM CLR 03/M02 A3005 RMK AO2 SLP179 T00281017=
201911260553 METAR KCLM 260553Z AUTO 24006KT 10SM CLR 02/M02 A3007 RMK AO2 SLP186 T00221017 10067 20022 56010=
201911260453 METAR KCLM 260453Z AUTO 24007KT 10SM CLR 03/M02 A3009 RMK AO2 SLP191 T00281017=
201911260353 METAR KCLM 260353Z AUTO 25008KT 10SM CLR 03/M01 A3009 RMK AO2 SLP192 T00281011=
201911260253 METAR KCLM 260253Z AUTO 25008KT 10SM CLR 03/M01 A3011 RMK AO2 SLP198 T00331006 50002=
201911260153 METAR KCLM 260153Z AUTO 24007KT 10SM CLR 03/M01 A3011 RMK AO2 SLP200 T00331006=
201911260053 METAR KCLM 260053Z AUTO 23004KT 10SM CLR 05/M01 A3011 RMK AO2 SLP199 T00501006=
201911252353 METAR KCLM 252353Z AUTO 28007KT 10SM CLR 07/M01 A3010 RMK AO2 SLP195 T00671006 10094 20067 56006=
201911252253 METAR KCLM 252253Z AUTO 29010KT 10SM CLR 08/00 A3010 RMK AO2 SLP195 T00830000=
201911252153 METAR KCLM 252153Z AUTO 30009KT 10SM CLR 08/03 A3011 RMK AO2 SLP196 T00830028=
201911252053 METAR KCLM 252053Z AUTO 29011KT 10SM CLR 09/M01 A3012 RMK AO2 SLP201 T00891006 58015=
201911251953 METAR KCLM 251953Z AUTO 27012KT 10SM CLR 09/00 A3013 RMK AO2 SLP205 T00890000=
201911251853 METAR KCLM 251853Z AUTO 27011G19KT 10SM CLR 08/01 A3015 RMK AO2 SLP213 T00830006=
201911251753 METAR KCLM 251753Z AUTO 28004KT 10SM CLR 07/01 A3016 RMK AO2 SLP216 T00670011 10067 20033 53010=
201911251653 METAR KCLM 251653Z AUTO 24009KT 10SM CLR 05/01 A3015 RMK AO2 SLP210 T00500011=
201911251553 METAR KCLM 251553Z AUTO 24011KT 10SM CLR 04/01 A3014 RMK AO2 SLP207 T00390011=
201911251453 METAR KCLM 251453Z AUTO 25009KT 10SM CLR 03/01 A3013 RMK AO2 SLP206 T00330011 53003=
201911251353 METAR KCLM 251353Z AUTO 24008KT 10SM BKN034 05/02 A3013 RMK AO2 SLP205 T00500022=
201911251253 METAR KCLM 251253Z AUTO 24007KT 10SM BKN035 05/02 A3012 RMK AO2 SLP203 T00500022=
201911251229 SPECI KCLM 251229Z AUTO 24007KT 10SM OVC034 05/02 A3013 RMK AO2 T00500022=
201911251153 METAR KCLM 251153Z AUTO 25006KT 10SM BKN026 05/03 A3013 RMK AO2 SLP203 60000 T00500028 10067 20050 58002=
201911251053 METAR KCLM 251053Z AUTO 27009KT 10SM OVC033 06/03 A3014 RMK AO2 RAB08E52 SLP208 P0000 T00610033=
201911250953 METAR KCLM 250953Z AUTO 23007KT 10SM FEW038 BKN049 06/02 A3013 RMK AO2 SLP205 T00560022=
201911250853 METAR KCLM 250853Z AUTO 26011G16KT 10SM BKN036 BKN045 06/03 A3013 RMK AO2 SLP204 T00560028 56009=
201911250753 METAR KCLM 250753Z AUTO 23006KT 10SM FEW038 06/03 A3013 RMK AO2 SLP205 T00560028 401170056=
201911250653 METAR KCLM 250653Z AUTO 24009KT 10SM BKN048 07/03 A3014 RMK AO2 SLP209 T00670033=
201911250553 METAR KCLM 250553Z AUTO 27006KT 10SM FEW038 06/03 A3016 RMK AO2 SLP214 60000 T00560033 10083 20056 58007=
201911250453 METAR KCLM 250453Z AUTO 23007KT 10SM BKN035 OVC100 07/04 A3017 RMK AO2 RAE24 SLP219 P0000 T00670044=
201911250353 METAR KCLM 250353Z AUTO 25007KT 10SM -RA OVC046 07/04 A3018 RMK AO2 RAB33 SLP222 P0000 T00670039=
201911250253 METAR KCLM 250253Z AUTO 24009KT 10SM BKN100 BKN110 08/03 A3018 RMK AO2 SLP221 T00780033 56018=
201911250153 METAR KCLM 250153Z AUTO 24009KT 10SM CLR 07/04 A3019 RMK AO2 SLP225 T00720039=
201911250053 METAR KCLM 250053Z AUTO 24011KT 10SM CLR 08/03 A3022 RMK AO2 SLP234 T00780028=
201911242353 METAR KCLM 242353Z AUTO 26008KT 10SM CLR 08/02 A3023 RMK AO2 SLP238 T00830022 10117 20083 56009=
201911242253 METAR KCLM 242253Z AUTO 26011KT 10SM SCT039 BKN050 09/03 A3024 RMK AO2 SLP243 T00940028=
201911242153 METAR KCLM 242153Z AUTO 26014KT 10SM CLR 11/03 A3024 RMK AO2 SLP241 T01060028=
201911242053 METAR KCLM 242053Z AUTO 26011KT 10SM FEW044 11/03 A3026 RMK AO2 SLP247 T01060028 58004=
201911241953 METAR KCLM 241953Z AUTO 27009G19KT 10SM CLR 12/02 A3026 RMK AO2 SLP249 T01170022=
201911241853 METAR KCLM 241853Z AUTO 25011G18KT 10SM CLR 11/01 A3027 RMK AO2 SLP252 T01060011=
201911241753 METAR KCLM 241753Z AUTO 23012KT 10SM CLR 08/01 A3027 RMK AO2 SLP251 T00830011 10094 20061 51016=
201911241653 METAR KCLM 241653Z AUTO 24011KT 10SM CLR 07/02 A3027 RMK AO2 SLP251 T00670017=
201911241553 METAR KCLM 241553Z AUTO 24011KT 10SM CLR 07/01 A3024 RMK AO2 SLP243 T00670011=
201911241453 METAR KCLM 241453Z AUTO 26007KT 10SM CLR 07/02 A3022 RMK AO2 SLP236 T00670017 53016=
201911241353 METAR KCLM 241353Z AUTO 25010KT 10SM CLR 07/02 A3019 RMK AO2 SLP227 T00720017=
201911241253 METAR KCLM 241253Z AUTO 27007KT 10SM CLR 07/00 A3019 RMK AO2 SLP224 T00720000=
201911241153 METAR KCLM 241153Z AUTO 28007G17KT 10SM CLR 09/01 A3018 RMK AO2 SLP219 60003 70005 T00940011 10111 20089 51015=
201911241053 METAR KCLM 241053Z AUTO 25011KT 10SM CLR 09/03 A3017 RMK AO2 SLP216 T00940028=
201911240953 METAR KCLM 240953Z AUTO 26012KT 10SM BKN045 10/04 A3016 RMK AO2 SLP213 T01000039=
201911240853 METAR KCLM 240853Z AUTO 26009KT 10SM CLR 10/05 A3013 RMK AO2 PK WND 27029/0807 RAE01 SLP205 P0000 60003 T01000050 51041=
201911240753 METAR KCLM 240753Z AUTO 28019G29KT 8SM -RA FEW014 SCT026 OVC040 10/09 A3009 RMK AO2 PK WND 26029/0745 SLP191 P0003 T01000089 401280028=
201911240711 SPECI KCLM 240711Z AUTO 27007KT 5SM -RA BR BKN005 BKN011 OVC028 11/09 A3008 RMK AO2 P0000 T01060094=
201911240701 SPECI KCLM 240701Z AUTO 24007KT 7SM -RA BKN011 BKN027 OVC039 11/09 A3007 RMK AO2 P0000 T01060094=
201911240653 METAR KCLM 240653Z AUTO 26011KT 9SM -RA FEW013 BKN038 OVC045 11/09 A3007 RMK AO2 RAB43 SLP182 P0000 T01060089=
201911240553 METAR KCLM 240553Z AUTO 25016G23KT 10SM OVC070 13/07 A3001 RMK AO2 RAB0455E13 SLP163 P0001 60002 T01280072 10128 20061 58020=
201911240453 METAR KCLM 240453Z AUTO VRB04KT 10SM SCT070 OVC085 07/06 A3004 RMK AO2 SLP174 T00720056=
201911240353 METAR KCLM 240353Z AUTO VRB03KT 10SM FEW060 OVC090 07/05 A3006 RMK AO2 SLP180 T00670050=
201911240253 METAR KCLM 240253Z AUTO 21003KT 10SM FEW060 OVC090 06/06 A3007 RMK AO2 RAE43 SLP184 P0001 60001 T00610056 58027=
201911240153 METAR KCLM 240153Z AUTO 27005KT 9SM -RA OVC065 07/06 A3014 RMK AO2 RAB21 SLP207 P0000 T00670056=
201911240053 METAR KCLM 240053Z AUTO 00000KT 10SM OVC070 07/06 A3013 RMK AO2 SLP203 T00720056=
201911232353 METAR KCLM 232353Z AUTO 00000KT 10SM OVC065 08/05 A3015 RMK AO2 SLP212 T00780050 10100 20078 56021=
201911232253 METAR KCLM 232253Z AUTO 33004KT 10SM OVC065 08/06 A3017 RMK AO2 SLP217 T00830061=
201911232153 METAR KCLM 232153Z AUTO 15005KT 10SM FEW046 OVC060 09/06 A3019 RMK AO2 PRESFR SLP225 T00890056=
201911232053 METAR KCLM 232053Z AUTO 00000KT 10SM OVC060 09/06 A3021 RMK AO2 SLP233 T00890056 58019=
201911231953 METAR KCLM 231953Z AUTO 00000KT 9SM SCT048 OVC060 09/05 A3024 RMK AO2 SLP242 T00890050=
201911231853 METAR KCLM 231853Z AUTO 27003KT 10SM BKN060 08/04 A3026 RMK AO2 SLP250 T00830039=
201911231753 METAR KCLM 231753Z AUTO 00000KT 10SM BKN055 08/04 A3027 RMK AO2 SLP252 T00780039 10078 20050 56004=
201911231653 METAR KCLM 231653Z AUTO 23003KT 10SM FEW046 SCT060 06/04 A3027 RMK AO2 SLP252 T00560039=
201911231553 METAR KCLM 231553Z AUTO 00000KT 10SM SCT049 BKN060 06/04 A3027 RMK AO2 SLP251 T00560039=
201911231453 METAR KCLM 231453Z AUTO 21005KT 10SM OVC050 06/03 A3028 RMK AO2 SLP256 T00610033 55011=
201911231353 METAR KCLM 231353Z AUTO 00000KT 10SM OVC040 06/03 A3027 RMK AO2 SLP253 T00610028=
201911231253 METAR KCLM 231253Z AUTO 00000KT 10SM OVC041 05/04 A3028 RMK AO2 SLP256 T00500039=
201911231153 METAR KCLM 231153Z AUTO 21005KT 10SM OVC048 05/03 A3031 RMK AO2 SLP267 T00500028 10061 20028 53001=
201911231053 METAR KCLM 231053Z AUTO 23003KT 10SM OVC050 04/03 A3031 RMK AO2 SLP265 T00390028=
201911230953 METAR KCLM 230953Z AUTO 25003KT 10SM OVC060 06/02 A3030 RMK AO2 SLP264 T00610017=
201911230853 METAR KCLM 230853Z AUTO 22003KT 10SM OVC060 04/02 A3031 RMK AO2 SLP266 T00440022 50008=
201911230753 METAR KCLM 230753Z AUTO 24004KT 10SM FEW050 BKN070 04/02 A3033 RMK AO2 SLP272 T00440017 400831022=
201911230653 METAR KCLM 230653Z AUTO 24003KT 10SM FEW120 04/03 A3030 RMK AO2 SLP261 T00390028=
201911230553 METAR KCLM 230553Z AUTO 00000KT 10SM CLR 03/03 A3029 RMK AO2 SLP258 T00330033 10061 20011 58002=
201911230453 METAR KCLM 230453Z AUTO 26004KT 10SM CLR 04/03 A3030 RMK AO2 SLP265 T00390028=
201911230353 METAR KCLM 230353Z AUTO VRB03KT 10SM CLR 03/03 A3031 RMK AO2 SLP266 T00330028=
201911230253 METAR KCLM 230253Z AUTO 00000KT 7SM CLR 03/02 A3029 RMK AO2 SLP261 T00280022 58002=
201911230153 METAR KCLM 230153Z AUTO 14003KT 5SM BR CLR 03/02 A3030 RMK AO2 SLP265 T00280022=
201911230053 METAR KCLM 230053Z AUTO 19003KT 10SM CLR 04/04 A3030 RMK AO2 SLP264 T00440039=
201911222353 METAR KCLM 222353Z AUTO 00000KT 10SM CLR 06/04 A3030 RMK AO2 SLP264 T00610039 10083 20050 55003=
201911222253 METAR KCLM 222253Z AUTO 08006KT 10SM CLR 07/04 A3025 RMK AO2 SLP246 T00720044=
201911222153 METAR KCLM 222153Z AUTO 10003KT 10SM CLR 08/04 A3028 RMK AO2 SLP257 T00780044=
201911222101 SPECI KCLM 222101Z AUTO 00000KT 10SM SCT013 07/04 A3030 RMK AO2 T00720044=
201911222053 METAR KCLM 222053Z AUTO 00000KT 10SM BKN013 07/04 A3031 RMK AO2 SLP265 T00720044 53007=
201911221953 METAR KCLM 221953Z AUTO 06006KT 10SM CLR 08/04 A3028 RMK AO2 SLP255 T00780044=
201911221853 METAR KCLM 221853Z AUTO 11007KT 10SM CLR 08/04 A3027 RMK AO2 SLP251 T00780039=
201911221753 METAR KCLM 221753Z AUTO 21003KT 10SM CLR 05/02 A3029 RMK AO2 SLP258 T00500022 10050 21017 51024=
201911221729 SPECI KCLM 221729Z AUTO 00000KT 10SM SCT010 04/02 A3028 RMK AO2 T00440022=
201911221653 METAR KCLM 221653Z AUTO 22004KT 10SM OVC010 02/01 A3028 RMK AO2 SLP255 T00220011=
201911221630 SPECI KCLM 221630Z AUTO 19003KT 10SM OVC010 01/01 A3026 RMK AO2 T00110011=
201911221553 METAR KCLM 221553Z AUTO 00000KT 10SM OVC009 00/00 A3025 RMK AO2 SLP247 T00000000=
201911221528 SPECI KCLM 221528Z AUTO 00000KT 9SM BKN009 M01/M01 A3023 RMK AO2 T10061011=
201911221519 SPECI KCLM 221519Z AUTO 20003KT 5SM BR SCT009 M02/M02 A3023 RMK AO2 T10171017=
201911221453 METAR KCLM 221453Z AUTO 00000KT 8SM CLR M01/M01 A3022 RMK AO2 SLP235 T10061011 53011=
201911221425 SPECI KCLM 221425Z AUTO 21005KT 10SM SCT009 00/00 A3020 RMK AO2 T00000000=
201911221353 METAR KCLM 221353Z AUTO 22004KT 10SM CLR 00/M01 A3019 RMK AO2 SLP226 T00001006=
201911221336 SPECI KCLM 221336Z AUTO 00000KT 10SM SCT010 M01/M01 A3019 RMK AO2 T10061006=
201911221307 SPECI KCLM 221307Z AUTO 20006KT 10SM BKN010 01/00 A3020 RMK AO2 CIG 008V013 T00060000=
201911221253 METAR KCLM 221253Z AUTO 21003KT 10SM OVC008 01/00 A3020 RMK AO2 CIG 007V012 SLP230 T00060000=
201911221207 SPECI KCLM 221207Z AUTO 22005KT 10SM BKN007 M01/M01 A3019 RMK AO2 T10061011=
201911221153 METAR KCLM 221153Z AUTO 23005KT 10SM FEW007 M01/M02 A3018 RMK AO2 SLP223 T10111017 10044 21022 53016=
201911221053 METAR KCLM 221053Z AUTO 00000KT 10SM CLR 00/M02 A3016 RMK AO2 SLP216 T00001017=
201911220953 METAR KCLM 220953Z AUTO 00000KT 10SM CLR M01/M02 A3014 RMK AO2 SLP207 T10111017=
201911220853 METAR KCLM 220853Z AUTO 22005KT 10SM CLR 02/M02 A3014 RMK AO2 SLP206 T00171017 51021=
201911220753 METAR KCLM 220753Z AUTO 21005KT 10SM CLR 02/M01 A3011 RMK AO2 SLP199 T00171011 400891022=
201911220653 METAR KCLM 220653Z AUTO 23008G16KT 10SM CLR 04/M01 A3010 RMK AO2 SLP194 T00441006=
201911220553 METAR KCLM 220553Z AUTO 19004KT 10SM CLR 04/M01 A3007 RMK AO2 SLP185 T00391011 10067 21006 53016=
201911220453 METAR KCLM 220453Z AUTO 20004KT 10SM CLR 02/00 A3006 RMK AO2 SLP181 T00220000=
201911220353 METAR KCLM 220353Z AUTO 00000KT 9SM CLR 00/M01 A3004 RMK AO2 SLP174 T00001011=
201911220253 METAR KCLM 220253Z AUTO 24004KT 10SM CLR 03/01 A3002 RMK AO2 SLP170 T00280006 51015=
201911220153 METAR KCLM 220153Z AUTO 24006KT 10SM CLR 03/01 A3002 RMK AO2 SLP167 T00330011=
201911220053 METAR KCLM 220053Z AUTO 26003KT 10SM CLR 04/02 A3000 RMK AO2 SLP163 T00440022=
201911212353 METAR KCLM 212353Z AUTO 00000KT 10SM CLR 07/04 A2998 RMK AO2 SLP155 T00670039 10089 20039 55002=
201911212253 METAR KCLM 212253Z AUTO 00000KT 10SM CLR 08/04 A2997 RMK AO2 SLP150 T00830044=
201911212153 METAR KCLM 212153Z AUTO 08004KT 10SM CLR 08/04 A2997 RMK AO2 SLP150 T00830044=
201911212053 METAR KCLM 212053Z AUTO 04003KT 10SM CLR 08/04 A2999 RMK AO2 SLP156 T00830044 58008=
201911211953 METAR KCLM 211953Z AUTO 07004KT 10SM CLR 08/04 A3000 RMK AO2 SLP160 T00780039=
201911211853 METAR KCLM 211853Z AUTO 08004KT 10SM SCT012 07/04 A3001 RMK AO2 SLP165 T00720044=
201911211801 SPECI KCLM 211801Z AUTO 00000KT 8SM SCT010 06/04 A3001 RMK AO2 T00560039=
201911211753 METAR KCLM 211753Z AUTO 00000KT 10SM BKN010 04/03 A3001 RMK AO2 SLP165 I6000 T00390028 10039 21017 55004=
201911211732 SPECI KCLM 211732Z AUTO 00000KT 10SM BKN011 02/02 A3001 RMK AO2 T00220017=
201911211716 SPECI KCLM 211716Z AUTO 00000KT 10SM FEW011 02/01 A3001 RMK AO2 T00220011=
201911211653 METAR KCLM 211653Z AUTO 20004KT 10SM BKN010 02/00 A3001 RMK AO2 SLP165 T00220000=
201911211622 SPECI KCLM 211622Z AUTO 21003KT 10SM BKN010 01/M01 A3001 RMK AO2 T00061006=
201911211553 METAR KCLM 211553Z AUTO 22006KT 10SM CLR 01/M01 A3002 RMK AO2 SLP167 T00061011=
201911211528 SPECI KCLM 211528Z AUTO 00000KT 10SM SCT009 00/M01 A3002 RMK AO2 T00001011=
201911211517 SPECI KCLM 211517Z AUTO 22007KT 10SM BKN010 00/M01 A3002 RMK AO2 T00001011=
201911211509 SPECI KCLM 211509Z AUTO 22003KT 10SM SCT010 00/M01 A3002 RMK AO2 T00001011=
201911211453 METAR KCLM 211453Z AUTO 23005KT 10SM OVC010 M01/M01 A3002 RMK AO2 SLP169 I3000 T10061011 55002=
201911211353 METAR KCLM 211353Z AUTO 20003KT 10SM BKN010 M01/M01 A3002 RMK AO2 SLP168 I1000 T10061011=
201911211253 METAR KCLM 211253Z AUTO 20004KT 10SM SCT010 M01/M02 A3003 RMK AO2 SLP171 T10111017=
201911211153 METAR KCLM 211153Z AUTO 21004KT 10SM CLR M01/M02 A3003 RMK AO2 SLP171 T10111022 10017 21022 58009=
201911211053 METAR KCLM 211053Z AUTO 22005KT 10SM CLR M01/M02 A3005 RMK AO2 SLP177 T10061017=
201911210953 METAR KCLM 210953Z AUTO 23006KT 10SM CLR 00/M02 A3006 RMK AO2 SLP180 T00001017=
201911210853 METAR KCLM 210853Z AUTO 00000KT 10SM CLR M01/M02 A3006 RMK AO2 SLP180 T10061017 58009=
201911210753 METAR KCLM 210753Z AUTO 00000KT 10SM CLR 01/M01 A3007 RMK AO2 SLP184 T00061006 401001017=
201911210653 METAR KCLM 210653Z AUTO 21006KT 10SM CLR M01/M02 A3008 RMK AO2 SLP187 T10061017=
201911210553 METAR KCLM 210553Z AUTO 21003KT 10SM CLR 00/M01 A3008 RMK AO2 SLP189 T00001011 10072 21017 58009=
201911210453 METAR KCLM 210453Z AUTO 21003KT 10SM CLR 00/M01 A3010 RMK AO2 SLP194 T00001011=
201911210353 METAR KCLM 210353Z AUTO 20004KT 10SM CLR 01/M01 A3011 RMK AO2 SLP198 T00061011=
201911210253 METAR KCLM 210253Z AUTO 22005KT 10SM CLR 01/M01 A3011 RMK AO2 SLP199 T00061006 58008=
201911210153 METAR KCLM 210153Z AUTO 00000KT 10SM CLR 02/01 A3012 RMK AO2 SLP201 T00170006=
201911210053 METAR KCLM 210053Z AUTO 00000KT 10SM CLR 03/00 A3013 RMK AO2 SLP205 T00280000=
201911202353 METAR KCLM 202353Z AUTO 10007KT 10SM CLR 07/M01 A3013 RMK AO2 SLP206 T00721011 10100 20072 58018=
201911202253 METAR KCLM 202253Z AUTO 08004KT 10SM CLR 10/M01 A3015 RMK AO2 SLP213 T01001006=
201911202153 METAR KCLM 202153Z AUTO 07004KT 10SM CLR 10/01 A3017 RMK AO2 SLP218 T01000011=
201911202053 METAR KCLM 202053Z AUTO VRB03KT 10SM CLR 10/02 A3019 RMK AO2 SLP224 T01000022 58013=
201911201953 METAR KCLM 201953Z AUTO 07007KT 020V090 10SM CLR 10/M01 A3021 RMK AO2 SLP231 T01001006=
201911201853 METAR KCLM 201853Z AUTO VRB05KT 10SM CLR 09/01 A3022 RMK AO2 SLP236 T00940006=
201911201753 METAR KCLM 201753Z AUTO 09007KT 10SM CLR 09/M02 A3022 RMK AO2 SLP237 I6001 T00891022 10094 21017 53005=
201911201653 METAR KCLM 201653Z AUTO 08005KT 10SM CLR 07/M02 A3020 RMK AO2 SLP230 T00721017=
201911201553 METAR KCLM 201553Z AUTO 14005KT 10SM CLR 00/M01 A3022 RMK AO2 SLP236 I1000 T00001011=
201911201453 METAR KCLM 201453Z AUTO 00000KT 10SM CLR M01/M01 A3021 RMK AO2 SLP232 I3001 T10061011 50006=
201911201353 METAR KCLM 201353Z AUTO 20003KT 10SM CLR M01/M01 A3021 RMK AO2 SLP232 I1001 T10061011=
201911201253 METAR KCLM 201253Z AUTO 00000KT 10SM CLR 01/01 A3020 RMK AO2 SLP227 T00110006=
201911201153 METAR KCLM 201153Z AUTO 22004KT 10SM CLR 01/01 A3019 RMK AO2 SLP225 70003 T00060006 10033 20000 50006=
201911201053 METAR KCLM 201053Z AUTO 21006KT 10SM CLR 02/01 A3020 RMK AO2 SLP230 T00170011=
201911200953 METAR KCLM 200953Z AUTO 00000KT 10SM CLR 01/01 A3019 RMK AO2 SLP224 T00110006=
201911200853 METAR KCLM 200853Z AUTO 14005KT 10SM CLR 00/00 A3017 RMK AO2 SLP219 T00000000 53014=
201911200753 METAR KCLM 200753Z AUTO 14004KT 10SM CLR 02/01 A3015 RMK AO2 SLP213 T00170006 401110006=
201911200653 METAR KCLM 200653Z AUTO 21005KT 10SM CLR 03/03 A3014 RMK AO2 SLP209 T00330028=
201911200553 METAR KCLM 200553Z AUTO 00000KT 10SM CLR 02/02 A3013 RMK AO2 SLP204 T00220017 10094 20022 51029=
201911200453 METAR KCLM 200453Z AUTO 23004KT 10SM CLR 04/03 A3011 RMK AO2 SLP197 T00390028=
201911200353 METAR KCLM 200353Z AUTO 22005KT 10SM CLR 05/03 A3007 RMK AO2 SLP184 T00500033=
201911200253 METAR KCLM 200253Z AUTO VRB04KT 10SM CLR 04/03 A3004 RMK AO2 SLP175 T00390028 51024=
201911200153 METAR KCLM 200153Z AUTO 19004KT 10SM CLR 05/04 A3004 RMK AO2 SLP174 T00500039=
201911200053 METAR KCLM 200053Z AUTO 22007KT 10SM CLR 06/05 A3001 RMK AO2 SLP164 T00610050=
201911192353 METAR KCLM 192353Z AUTO 00000KT 10SM CLR 09/06 A2997 RMK AO2 SLP150 T00940056 10111 20089 51023=
201911192253 METAR KCLM 192253Z AUTO 14006KT 10SM CLR 11/04 A2995 RMK AO2 SLP143 T01060044=
201911192153 METAR KCLM 192153Z AUTO 07006KT 10SM CLR 11/05 A2994 RMK AO2 SLP138 T01110050=
201911192053 METAR KCLM 192053Z AUTO 09007KT 10SM CLR 11/07 A2990 RMK AO2 SLP126 T01060072 51021=
201911191953 METAR KCLM 191953Z AUTO 09008KT 10SM FEW009 SCT110 10/08 A2989 RMK AO2 SLP122 T01000078=
201911191932 SPECI KCLM 191932Z AUTO 09007KT 10SM FEW009 FEW055 BKN110 10/08 A2988 RMK AO2 T01000078=
201911191853 METAR KCLM 191853Z AUTO 08006KT 10SM SCT017 OVC100 09/08 A2988 RMK AO2 SLP117 T00890078=
201911191753 METAR KCLM 191753Z AUTO 00000KT 10SM FEW050 SCT080 OVC090 09/08 A2984 RMK AO2 SLP105 60003 T00890078 10089 20072 53029=
201911191653 METAR KCLM 191653Z AUTO 24005KT 10SM OVC070 08/07 A2980 RMK AO2 SLP092 T00780067=
201911191553 METAR KCLM 191553Z AUTO 24003KT 10SM OVC055 07/07 A2978 RMK AO2 SLP086 T00720067=
201911191453 METAR KCLM 191453Z AUTO 00000KT 10SM OVC055 07/07 A2975 RMK AO2 RAE35 SLP077 P0001 60003 T00720067 52004=
201911191353 METAR KCLM 191353Z AUTO 20005KT 9SM -RA OVC042 08/07 A2975 RMK AO2 SLP074 P0001 T00780067=
201911191253 METAR KCLM 191253Z AUTO 20005KT 10SM -RA FEW031 OVC039 08/07 A2975 RMK AO2 RAE10B19 SLP074 P0001 T00780072=
201911191211 SPECI KCLM 191211Z AUTO 17005KT 10SM OVC030 08/07 A2974 RMK AO2 RAE10 P0001 T00780072=
201911191153 METAR KCLM 191153Z AUTO 19005KT 9SM -RA FEW013 OVC027 08/07 A2974 RMK AO2 SLP072 P0001 60010 70031 T00780072 10083 20078 53009=
201911191102 SPECI KCLM 191102Z AUTO 19003KT 3SM -RA BR FEW005 BKN015 OVC021 08/08 A2973 RMK AO2 P0001 T00830078=
201911191100 SPECI KCLM 191100Z AUTO 18004KT 2 1/2SM -RA BR FEW005 BKN010 OVC021 08/08 A2973 RMK AO2 CIG 008V012 P0001 T00830078=
201911191053 METAR KCLM 191053Z AUTO VRB03KT 2SM -RA BR FEW005 BKN008 OVC013 08/08 A2974 RMK AO2 SLP070 P0006 T00830078=
201911191030 SPECI KCLM 191030Z AUTO 00000KT 1 3/4SM RA BR BKN006 OVC011 08/08 A2973 RMK AO2 CIG 004V008 P0003 T00830083=
201911191000 SPECI KCLM 191000Z AUTO VRB03KT 2SM -RA BR OVC006 08/08 A2972 RMK AO2 P0000 T00830078=
201911190953 METAR KCLM 190953Z AUTO 17005KT 1 3/4SM -RA BR OVC005 08/08 A2971 RMK AO2 RAB16 SLP062 P0003 T00830078=
201911190950 SPECI KCLM 190950Z AUTO 18005KT 1 3/4SM -RA BR OVC005 08/08 A2971 RMK AO2 RAB16 P0003=
201911190922 SPECI KCLM 190922Z AUTO 00000KT 2SM -RA BR OVC006 08/08 A2971 RMK AO2 RAB16 P0001 T00830083=
201911190853 METAR KCLM 190853Z AUTO 00000KT 7SM BKN005 OVC014 08/08 A2970 RMK AO2 RAE13 CIG 004V009 SLP058 P0000 60000 T00830083 53014=
201911190753 METAR KCLM 190753Z AUTO 00000KT 3SM -RA BR OVC002 08/08 A2969 RMK AO2 RAB49 SLP056 P0000 T00830083 400830039=
201911190724 SPECI KCLM 190724Z AUTO 00000KT 5SM BR OVC002 08/08 A2968 RMK AO2 T00830083=
201911190717 SPECI KCLM 190717Z AUTO VRB03KT 2 1/2SM BR OVC002 08/08 A2967 RMK AO2 T00830083=
201911190713 SPECI KCLM 190713Z AUTO 00000KT 3/4SM BR VV002 08/08 A2967 RMK AO2 T00830083=
201911190706 SPECI KCLM 190706Z AUTO 00000KT 1/2SM FG VV001 08/08 A2967 RMK AO2 T00830083=
201911190653 METAR KCLM 190653Z AUTO 00000KT 1/4SM FG VV001 08/08 A2966 RMK AO2 SLP046 T00830083=
201911190613 SPECI KCLM 190613Z AUTO 00000KT 1/4SM FG VV001 08/08 A2967 RMK AO2 T00830083=
201911190558 SPECI KCLM 190558Z AUTO 00000KT 3/4SM BR VV002 08/08 A2966 RMK AO2 T00830083=
201911190553 METAR KCLM 190553Z AUTO 00000KT 1SM BR OVC001 08/08 A2966 RMK AO2 RAE37 SLP044 P0003 60015 T00830083 10083 20078 53010=
201911190547 SPECI KCLM 190547Z AUTO 00000KT 1 3/4SM BR OVC001 08/08 A2966 RMK AO2 RAE37 P0003=
201911190538 SPECI KCLM 190538Z AUTO 18003KT 4SM BR OVC001 08/08 A2966 RMK AO2 RAE37 P0003 T00830083=
201911190527 SPECI KCLM 190527Z AUTO 00000KT 3SM -RA BR OVC003 08/08 A2966 RMK AO2 CIG 001V004 P0003 T00830083=
201911190509 SPECI KCLM 190509Z AUTO 00000KT 2 1/2SM RA BR OVC004 08/08 A2965 RMK AO2 P0002 T00830083=
201911190453 METAR KCLM 190453Z AUTO 27004KT 4SM -RA BR OVC006 08/08 A2965 RMK AO2 RAB30 SLP043 P0001 T00830078=
201911190439 SPECI KCLM 190439Z AUTO 00000KT 5SM -RA BR OVC005 08/08 A2964 RMK AO2 RAB30 P0001 T00830083=
201911190353 METAR KCLM 190353Z AUTO VRB03KT 5SM BR OVC003 08/08 A2963 RMK AO2 SLP036 T00830083=
201911190253 METAR KCLM 190253Z AUTO 10005KT 5SM BR OVC002 08/08 A2963 RMK AO2 RAE36 SLP035 P0003 60011 T00830083 56028=
201911190230 SPECI KCLM 190230Z AUTO 08003KT 6SM -RA BR BKN002 OVC006 08/08 A2963 RMK AO2 P0003 T00830083=
201911190222 SPECI KCLM 190222Z AUTO VRB03KT 2 1/2SM -RA BR OVC004 08/08 A2963 RMK AO2 P0003 T00830083=
201911190218 SPECI KCLM 190218Z AUTO 00000KT 1 1/2SM -RA BR OVC006 08/08 A2963 RMK AO2 P0003 T00830078=
201911190210 SPECI KCLM 190210Z AUTO 08005KT 2SM RA BR OVC007 08/08 A2964 RMK AO2 P0003 T00830078=
201911190153 METAR KCLM 190153Z AUTO 00000KT 5SM -RA BR OVC008 08/08 A2966 RMK AO2 CIG 003V009 SLP045 P0005 T00830083=
201911190133 SPECI KCLM 190133Z AUTO 00000KT 4SM -RA BR OVC009 08/08 A2966 RMK AO2 P0003 T00830078=
201911190106 SPECI KCLM 190106Z AUTO 00000KT 9SM -RA BKN010 BKN023 OVC055 08/08 A2966 RMK AO2 P0001 T00830078=
201911190053 METAR KCLM 190053Z AUTO 00000KT 9SM -RA FEW003 SCT010 OVC055 08/08 A2966 RMK AO2 SLP045 P0003 T00830083=
201911190046 SPECI KCLM 190046Z AUTO 00000KT 7SM -RA SCT003 OVC055 08/08 A2966 RMK AO2 P0003 T00830083=
201911190008 SPECI KCLM 190008Z AUTO 24004KT 3SM -RA BR OVC002 08/08 A2970 RMK AO2 PRESFR P0001 T00830083=
201911182353 METAR KCLM 182353Z AUTO 25004KT 1 1/4SM -RA BR OVC002 08/08 A2971 RMK AO2 SLP063 P0004 60006 T00830083 10083 20078 56036=
201911182337 SPECI KCLM 182337Z AUTO 29003KT 1 3/4SM -RA BR OVC002 08/08 A2972 RMK AO2 P0003 T00830083=
201911182311 SPECI KCLM 182311Z AUTO 00000KT 3SM -RA BR OVC002 08/08 A2972 RMK AO2 P0002 T00830083=
201911182306 SPECI KCLM 182306Z AUTO 00000KT 1 3/4SM -RA BR OVC002 08/08 A2972 RMK AO2 P0002 T00830083=
201911182253 METAR KCLM 182253Z AUTO 00000KT 2 1/2SM -RA BR OVC002 08/08 A2974 RMK AO2 RAB09 SLP071 P0002 T00830083=
201911182246 SPECI KCLM 182246Z AUTO 00000KT 1 3/4SM -RA BR OVC002 08/08 A2974 RMK AO2 RAB09 P0001 T00830083=
201911182239 SPECI KCLM 182239Z AUTO 00000KT 2SM -RA BR OVC002 08/08 A2974 RMK AO2 RAB09 P0001 T00830083=
201911182231 SPECI KCLM 182231Z AUTO 00000KT 3/4SM -RA BR VV002 08/08 A2975 RMK AO2 RAB09 P0001 T00830083=
201911182153 METAR KCLM 182153Z AUTO 00000KT M1/4SM FG VV002 08/08 A2978 RMK AO2 SLP085 T00830083=
201911182053 METAR KCLM 182053Z AUTO 08003KT 1/4SM FG VV002 08/08 A2982 RMK AO2 RAE00 SLP099 P0000 60000 T00830083 58044=
201911182030 SPECI KCLM 182030Z AUTO 07007KT 1/4SM FG VV002 08/08 A2983 RMK AO2 RAE00 PRESFR P0000 T00830078=
201911182016 SPECI KCLM 182016Z AUTO 08006KT 1/2SM FG VV002 08/08 A2985 RMK AO2 RAE00 P0000 T00830078=
201911181953 METAR KCLM 181953Z AUTO 08004KT 1/4SM -RA FG VV002 08/08 A2987 RMK AO2 RAB19 SLP115 P0000 T00830083=
201911181946 SPECI KCLM 181946Z AUTO 08004KT 1/2SM -RA FG VV002 08/08 A2987 RMK AO2 RAB19 P0000 T00830083=
201911181929 SPECI KCLM 181929Z AUTO 09004KT 1 3/4SM -RA BR OVC002 08/08 A2988 RMK AO2 RAB19 P0000 T00830078=
201911181925 SPECI KCLM 181925Z AUTO 09005KT 4SM -RA BR BKN002 OVC006 08/08 A2988 RMK AO2 RAB19 P0000 T00830078=
201911181853 METAR KCLM 181853Z AUTO 09005KT 9SM OVC005 08/07 A2991 RMK AO2 RAB44E53 CIG 004V007 SLP129 P0000 T00830072=
201911181835 SPECI KCLM 181835Z AUTO 09004KT 7SM BKN007 OVC011 08/07 A2992 RMK AO2 CIG 004V010 T00830072=
201911181753 METAR KCLM 181753Z AUTO 00000KT 10SM BKN010 OVC014 08/06 A2995 RMK AO2 SLP143 T00780061 10078 20044 55017=
201911181709 SPECI KCLM 181709Z AUTO 23003KT 10SM SCT006 BKN015 OVC022 07/06 A2998 RMK AO2 T00720061=
201911181653 METAR KCLM 181653Z AUTO 20005KT 10SM BKN006 BKN012 OVC021 07/06 A2998 RMK AO2 SLP154 T00720056=
201911181620 SPECI KCLM 181620Z AUTO 00000KT 10SM SCT005 OVC011 07/06 A2999 RMK AO2 T00720061=
201911181553 METAR KCLM 181553Z AUTO 00000KT 10SM OVC005 07/06 A3000 RMK AO2 SLP160 T00670061=
201911181453 METAR KCLM 181453Z AUTO 00000KT 10SM OVC006 07/06 A3003 RMK AO2 SLP170 T00670056 58020=
201911181412 SPECI KCLM 181412Z AUTO 00000KT 10SM BKN007 OVC012 07/05 A3004 RMK AO2 T00720050=
201911181353 METAR KCLM 181353Z AUTO 00000KT 10SM OVC012 07/05 A3005 RMK AO2 SLP177 T00670050=
201911181308 SPECI KCLM 181308Z AUTO 20004KT 10SM BKN013 OVC020 07/05 A3007 RMK AO2 T00670050=
201911181253 METAR KCLM 181253Z AUTO 22005KT 10SM OVC017 07/05 A3008 RMK AO2 SLP187 T00670050=
201911181235 SPECI KCLM 181235Z AUTO 23005KT 10SM BKN019 06/05 A3008 RMK AO2 T00610050=
201911181153 METAR KCLM 181153Z AUTO 22005KT 10SM CLR 04/04 A3009 RMK AO2 SLP191 70023 T00440039 10072 20039 58030=
201911181053 METAR KCLM 181053Z AUTO 22005KT 10SM CLR 05/04 A3012 RMK AO2 SLP202 T00500044=
201911180953 METAR KCLM 180953Z AUTO 24008KT 10SM CLR 06/04 A3015 RMK AO2 SLP212 T00610044=
201911180853 METAR KCLM 180853Z AUTO 23004KT 10SM CLR 06/05 A3018 RMK AO2 SLP221 T00610050 58006=
201911180623 SPECI KCLM 180623Z AUTO 00000KT 2 1/2SM BR FEW002 05/04 A3020 RMK AO2 T00500044=
201911180553 METAR KCLM 180553Z AUTO 00000KT 10SM CLR 07/06 A3020 RMK AO2 SLP227 T00670061 10111 20056 50004=
201911180453 METAR KCLM 180453Z AUTO 00000KT 10SM CLR 07/06 A3021 RMK AO2 SLP229 T00670056=
201911180353 METAR KCLM 180353Z AUTO 24007KT 10SM CLR 09/07 A3019 RMK AO2 SLP226 T00940067=
201911180253 METAR KCLM 180253Z AUTO 26013KT 10SM CLR 10/07 A3019 RMK AO2 SLP223 T01000072 51010=
201911180153 METAR KCLM 180153Z AUTO 24005KT 10SM CLR 09/07 A3018 RMK AO2 SLP222 T00940072=
201911180053 METAR KCLM 180053Z AUTO 27007KT 10SM CLR 10/08 A3017 RMK AO2 SLP216 T01000078=
201911172353 METAR KCLM 172353Z AUTO 26005KT 10SM CLR 11/08 A3016 RMK AO2 SLP212 60000 T01110078 10128 20094 53021=
201911172253 METAR KCLM 172253Z AUTO 27011G17KT 10SM CLR 12/08 A3013 RMK AO2 SLP204 T01220083=
201911172153 METAR KCLM 172153Z AUTO 28012G15KT 10SM SCT019 12/11 A3011 RMK AO2 SLP195 T01220106=
201911172112 SPECI KCLM 172112Z AUTO 28009KT 10SM FEW009 OVC017 12/11 A3010 RMK AO2 T01220111=
201911172101 SPECI KCLM 172101Z AUTO 27009KT 10SM FEW005 BKN009 OVC015 12/11 A3009 RMK AO2 T01170111=
201911172053 METAR KCLM 172053Z AUTO 27008KT 10SM BKN004 OVC009 12/11 A3009 RMK AO2 CIG 004V008 SLP191 60000 T01170111 50019=
201911172039 SPECI KCLM 172039Z AUTO 26006KT 8SM OVC004 11/11 A3009 RMK AO2 T01110111=
201911172028 SPECI KCLM 172028Z AUTO 24005KT 10SM OVC005 11/11 A3010 RMK AO2 T01110106=
201911171953 METAR KCLM 171953Z AUTO 25003KT 5SM BR BKN003 OVC009 10/10 A3010 RMK AO2 CIG 002V006 SLP192 T01000100=
201911171853 METAR KCLM 171853Z AUTO 00000KT 10SM BKN004 OVC045 10/10 A3007 RMK AO2 RAE00 SLP182 P0000 T01000100=
201911171822 SPECI KCLM 171822Z AUTO 00000KT 9SM OVC002 10/09 A3005 RMK AO2 RAE00 P0000 T01000094=
201911171805 SPECI KCLM 171805Z AUTO 00000KT 3SM BR BKN001 OVC009 09/09 A3004 RMK AO2 RAE00 P0000 T00940094=
201911171753 METAR KCLM 171753Z AUTO 00000KT 1SM -RA BR BKN001 BKN012 OVC049 09/09 A3004 RMK AO2 VIS 1/2V2 RAB1654E20B48 SLP172 P0002 60023 T00940094 10111 20089 53017=
201911171747 SPECI KCLM 171747Z AUTO VRB03KT 1SM BR SCT001 BKN027 OVC049 10/09 A3003 RMK AO2 RAB1654E20 P0002=
201911171732 SPECI KCLM 171732Z AUTO 36003KT 3/4SM BR FEW001 SCT038 OVC048 10/10 A3001 RMK AO2 RAB1654E20 P0002 T01000100=
201911171729 SPECI KCLM 171729Z AUTO VRB04KT 1 3/4SM BR OVC048 11/11 A3001 RMK AO2 RAB1654E20 P0002 T01060106=
201911171713 SPECI KCLM 171713Z AUTO 00000KT 6SM -RA BR OVC050 10/10 A3001 RMK AO2 RAB1654 P0002 T01000100=
201911171703 SPECI KCLM 171703Z AUTO 00000KT 2SM RA BR OVC050 10/10 A3000 RMK AO2 RAB1654 P0002 T01000100=
201911171653 METAR KCLM 171653Z AUTO 00000KT 5SM BR OVC050 09/09 A3001 RMK AO2 RAB1558E44 SLP162 P0001 T00940094=
201911171553 METAR KCLM 171553Z AUTO 00000KT 7SM OVC055 09/09 A2999 RMK AO2 RAE53 SLP155 P0005 T00940089=
201911171453 METAR KCLM 171453Z AUTO 00000KT 3SM -RA BR FEW002 BKN055 OVC070 09/09 A2999 RMK AO2 SLP155 P0011 60015 T00890089 51009=
201911171449 SPECI KCLM 171449Z AUTO 00000KT 3SM RA BR SCT002 BKN055 OVC070 09/09 A2998 RMK AO2 P0011=
201911171439 SPECI KCLM 171439Z AUTO 14003KT 4SM -RA BR BKN002 BKN028 OVC075 09/08 A2999 RMK AO2 P0008 T00890083=
201911171421 SPECI KCLM 171421Z AUTO 00000KT 2 1/2SM -RA BR OVC002 09/09 A3000 RMK AO2 P0004 T00890089=
201911171407 SPECI KCLM 171407Z AUTO 00000KT 1 3/4SM -RA BR BKN003 BKN070 OVC085 09/09 A2999 RMK AO2 P0002 T00890089=
201911171400 SPECI KCLM 171400Z AUTO 30003KT 2 1/2SM -RA BR SCT001 BKN009 OVC090 09/08 A3000 RMK AO2 P0001 T00890083=
201911171353 METAR KCLM 171353Z AUTO 33005KT 5SM -RA BR FEW005 BKN070 OVC090 09/08 A3000 RMK AO2 SLP159 P0003 T00890083=
201911171253 METAR KCLM 171253Z AUTO VRB04KT 9SM -RA OVC080 10/09 A2996 RMK AO2 SLP146 P0001 T01000094=
201911171153 METAR KCLM 171153Z AUTO 15003KT 6SM -RA BR OVC100 09/09 A3000 RMK AO2 SLP159 P0006 60013 70024 T00940094 10094 20078 56023=
201911171053 METAR KCLM 171053Z AUTO 15004KT 4SM RA BR FEW080 OVC095 09/09 A3000 RMK AO2 SLP161 P0006 T00940089=
201911170953 METAR KCLM 170953Z AUTO 20006KT 8SM -RA FEW026 BKN090 OVC110 09/09 A3005 RMK AO2 RAB0857E07B23 SLP176 P0000 T00940089=
201911170919 SPECI KCLM 170919Z AUTO 23006KT 7SM SCT003 BKN037 OVC060 09/09 A3006 RMK AO2 RAB0857E07 P0000 T00890089=
201911170853 METAR KCLM 170853Z AUTO 26004KT 7SM OVC003 09/09 A3007 RMK AO2 RAB0755E09 SLP183 P0000 60001 T00890089 58012=
201911170753 METAR KCLM 170753Z AUTO 24006KT 9SM OVC004 08/08 A3009 RMK AO2 RAE07 SLP190 P0000 T00830078 401060028=
201911170720 SPECI KCLM 170720Z AUTO 20004KT 3SM BR BKN004 BKN042 OVC060 08/08 A3008 RMK AO2 RAE07 P0000 T00830083=
201911170711 SPECI KCLM 170711Z AUTO 20005KT 1SM BR BKN003 BKN045 OVC060 08/08 A3008 RMK AO2 RAE07 P0000 T00830083=
201911170659 SPECI KCLM 170659Z AUTO 23004KT 1/2SM -RA FG SCT003 BKN036 OVC060 08/08 A3009 RMK AO2 P0000 T00830083=
201911170653 METAR KCLM 170653Z AUTO 24003KT 1/2SM -RA FG BKN004 BKN018 OVC055 08/08 A3009 RMK AO2 RAB20E36B49 SLP189 P0001 T00830083=
201911170640 SPECI KCLM 170640Z AUTO 28004KT 1 3/4SM BR OVC002 08/08 A3009 RMK AO2 VIS 1V3 RAB20E36 P0000 T00780078=
201911170608 SPECI KCLM 170608Z AUTO 00000KT 3/4SM BR BKN002 BKN006 OVC060 08/08 A3010 RMK AO2 T00830083=
201911170600 SPECI KCLM 170600Z AUTO 00000KT 3/4SM BR BKN001 BKN012 OVC060 08/08 A3009 RMK AO2 T00830083=
201911170553 METAR KCLM 170553Z AUTO 00000KT 1/2SM FG SCT001 BKN008 OVC060 08/08 A3010 RMK AO2 SLP194 60006 T00830078 10089 20083 58007=
201911170527 SPECI KCLM 170527Z AUTO 00000KT 1/2SM FG VV002 08/08 A3009 RMK AO2 T00830083=
201911170501 SPECI KCLM 170501Z AUTO 12003KT 1/4SM FG BKN003 OVC050 08/08 A3011 RMK AO2 T00830083=
201911170453 METAR KCLM 170453Z AUTO 00000KT 1/2SM FG FEW001 BKN008 OVC055 08/08 A3012 RMK AO2 SLP200 T00830083=
201911170449 SPECI KCLM 170449Z AUTO 00000KT 1/2SM FG SCT001 BKN013 OVC055 08/08 A3012 RMK AO2=
201911170440 SPECI KCLM 170440Z AUTO 00000KT 3/4SM BR BKN001 BKN030 OVC055 08/08 A3012 RMK AO2 T00830083=
201911170429 SPECI KCLM 170429Z AUTO 00000KT 3/4SM BR BKN002 OVC047 08/08 A3013 RMK AO2 T00830083=
201911170423 SPECI KCLM 170423Z AUTO 31003KT 1 1/2SM BR SCT002 OVC044 08/08 A3013 RMK AO2 T00830083=
201911170410 SPECI KCLM 170410Z AUTO 00000KT 1/2SM FG FEW002 OVC045 08/08 A3012 RMK AO2 T00830083=
201911170353 METAR KCLM 170353Z AUTO 00000KT 3/4SM BR BKN002 OVC045 08/08 A3012 RMK AO2 SLP202 T00830083=
201911170340 SPECI KCLM 170340Z AUTO 00000KT 1 1/2SM BR BKN002 OVC049 08/08 A3013 RMK AO2 T00830083=
201911170331 SPECI KCLM 170331Z AUTO 00000KT 2SM BR BKN002 OVC050 08/08 A3013 RMK AO2 T00830083=
201911170319 SPECI KCLM 170319Z AUTO 00000KT 1 3/4SM BR FEW003 OVC050 08/08 A3013 RMK AO2 T00830083=
201911170253 METAR KCLM 170253Z AUTO 00000KT 5SM BR OVC050 08/08 A3013 RMK AO2 RAE11 SLP206 P0000 60006 T00830083 58012=
201911170153 METAR KCLM 170153Z AUTO 00000KT 6SM -RA BR OVC055 08/08 A3016 RMK AO2 SLP215 P0005 T00830083=
201911170053 METAR KCLM 170053Z AUTO 25004KT 7SM -RA OVC055 08/08 A3018 RMK AO2 SLP222 P0001 T00830078=
201911162353 METAR KCLM 162353Z AUTO 21005KT 10SM -RA FEW047 OVC060 08/08 A3017 RMK AO2 SLP218 P0002 60003 T00830078 10106 20083 58008=
201911162253 METAR KCLM 162253Z AUTO 32007KT 7SM -RA BKN055 OVC070 08/08 A3020 RMK AO2 RAE33B50 PRESRR SLP230 P0001 T00830078=
201911162153 METAR KCLM 162153Z AUTO 32003KT 10SM -RA OVC065 09/08 A3018 RMK AO2 RAB51 SLP222 P0000 T00940078=
201911162053 METAR KCLM 162053Z AUTO 00000KT 10SM BKN085 09/08 A3019 RMK AO2 SLP226 60000 T00890078 58018=
201911161953 METAR KCLM 161953Z AUTO 00000KT 10SM BKN060 10/08 A3022 RMK AO2 RAE1859 SLP234 P0000 T01000078=
201911161853 METAR KCLM 161853Z AUTO 28003KT 10SM -RA OVC060 09/08 A3025 RMK AO2 RAB46 SLP246 P0000 T00890078=
201911161753 METAR KCLM 161753Z AUTO 00000KT 10SM BKN075 OVC090 08/07 A3025 RMK AO2 RAE36 SLP244 P0000 60002 T00830072 10083 20028 58007=
201911161653 METAR KCLM 161653Z AUTO 27004KT 6SM -RA BR FEW060 OVC075 08/07 A3026 RMK AO2 SLP248 P0002 T00780067=
201911161553 METAR KCLM 161553Z AUTO 00000KT 10SM -RA OVC085 07/06 A3026 RMK AO2 RAB46 SLP248 P0000 T00670061=
201911161453 METAR KCLM 161453Z AUTO 00000KT 10SM BKN070 OVC085 06/06 A3027 RMK AO2 SLP251 T00610056 55006=
201911161353 METAR KCLM 161353Z AUTO 00000KT 10SM OVC070 06/05 A3026 RMK AO2 SLP250 T00560050=
201911161253 METAR KCLM 161253Z AUTO 00000KT 10SM BKN120 04/04 A3026 RMK AO2 SLP250 T00440039=
201911161153 METAR KCLM 161153Z AUTO 23007KT 10SM CLR 06/04 A3028 RMK AO2 SLP256 70007 T00560044 10067 20028 50003=
201911161053 METAR KCLM 161053Z AUTO 23006KT 10SM FEW070 04/04 A3029 RMK AO2 SLP259 T00440039=
201911160953 METAR KCLM 160953Z AUTO 22007KT 10SM CLR 06/04 A3029 RMK AO2 SLP257 T00560044=
201911160853 METAR KCLM 160853Z AUTO 21004KT 10SM CLR 03/03 A3027 RMK AO2 SLP253 T00280028 50008=
201911160753 METAR KCLM 160753Z AUTO 22005KT 10SM CLR 04/03 A3028 RMK AO2 SLP254 T00390033 401440033=
201911160653 METAR KCLM 160653Z AUTO 00000KT 10SM CLR 04/04 A3025 RMK AO2 SLP245 T00440039=
201911160553 METAR KCLM 160553Z AUTO 00000KT 10SM CLR 07/06 A3025 RMK AO2 SLP245 T00670056 10111 20067 53021=
201911160453 METAR KCLM 160453Z AUTO 25012KT 10SM CLR 09/06 A3022 RMK AO2 SLP233 T00940061=
201911160353 METAR KCLM 160353Z AUTO 24013KT 10SM CLR 09/07 A3019 RMK AO2 SLP225 T00940067=
201911160253 METAR KCLM 160253Z AUTO 25008KT 10SM CLR 09/07 A3019 RMK AO2 SLP223 T00940067 51019=
201911160153 METAR KCLM 160153Z AUTO 24009KT 10SM SCT060 10/07 A3017 RMK AO2 SLP217 T01000072=
201911160053 METAR KCLM 160053Z AUTO 25006KT 10SM CLR 09/07 A3015 RMK AO2 SLP210 T00940072=
201911152353 METAR KCLM 152353Z AUTO 28004KT 10SM CLR 11/08 A3013 RMK AO2 SLP204 60000 T01110083 10144 20100 53022=
201911152253 METAR KCLM 152253Z AUTO 24004KT 10SM SCT049 12/08 A3010 RMK AO2 RAB00E10 SLP194 P0000 T01220083=
201911152153 METAR KCLM 152153Z AUTO 27005KT 10SM BKN045 OVC055 13/10 A3008 RMK AO2 SLP188 T01330100=
201911152053 METAR KCLM 152053Z AUTO 24007KT 9SM BKN055 BKN075 14/09 A3006 RMK AO2 SLP181 60000 T01390094 53019=
201911151953 METAR KCLM 151953Z AUTO 27008KT 10SM FEW070 14/10 A3004 RMK AO2 SLP174 T01390100=
201911151853 METAR KCLM 151853Z AUTO 28006KT 10SM OVC055 13/11 A3003 RMK AO2 RAE05 SLP169 P0000 T01280106=
201911151805 SPECI KCLM 151805Z AUTO 19004KT 10SM FEW021 BKN047 OVC060 10/10 A3001 RMK AO2 RAE05 P0000 T01000100=
201911151753 METAR KCLM 151753Z AUTO 20004KT 2 1/2SM -RA BR FEW021 BKN044 OVC060 10/09 A3001 RMK AO2 RAE03B27 SLP162 P0001 60007 T01000094 10100 20067 53017=
201911151653 METAR KCLM 151653Z AUTO 00000KT 5SM -RA BR SCT055 BKN070 OVC090 09/08 A2997 RMK AO2 RAE11B34 SLP150 P0002 T00890078=
201911151637 SPECI KCLM 151637Z AUTO 00000KT 3SM -RA BR FEW043 SCT050 BKN070 09/09 A2996 RMK AO2 RAE11B34 P0001 T00890089=
201911151631 SPECI KCLM 151631Z AUTO 00000KT 1 1/4SM BR FEW002 SCT032 BKN070 08/08 A2995 RMK AO2 RAE11 P0000 T00830083=
201911151624 SPECI KCLM 151624Z AUTO 00000KT 2 1/2SM BR SCT002 BKN030 BKN050 08/08 A2995 RMK AO2 RAE11 P0000 T00780078=
201911151605 SPECI KCLM 151605Z AUTO 00000KT 4SM -RA BR OVC002 08/07 A2996 RMK AO2 P0000 T00780072=
201911151553 METAR KCLM 151553Z AUTO 00000KT 2 1/2SM -RA BR BKN002 BKN047 OVC060 08/08 A2996 RMK AO2 RAB03 SLP146 P0001 T00780078=
201911151549 SPECI KCLM 151549Z AUTO 00000KT 2 1/2SM -RA BR BKN002 BKN047 OVC060 08/08 A2996 RMK AO2 RAB03 P0001=
201911151540 SPECI KCLM 151540Z AUTO 30004KT 4SM -RA BR SCT002 BKN047 OVC060 08/08 A2995 RMK AO2 RAB03 P0001 T00780078=
201911151453 METAR KCLM 151453Z AUTO 00000KT 4SM BR SCT070 BKN085 BKN110 07/07 A2991 RMK AO2 SLP130 60003 T00670067 55002=
201911151442 SPECI KCLM 151442Z AUTO 18003KT 2SM BR BKN065 07/06 A2991 RMK AO2 VIS 1 1/2V3 T00670061=
201911151425 SPECI KCLM 151425Z AUTO 00000KT 5SM BR FEW002 BKN065 07/07 A2991 RMK AO2 T00720072=
201911151408 SPECI KCLM 151408Z AUTO 02003KT 1 3/4SM BR FEW002 SCT055 OVC070 08/08 A2990 RMK AO2 T00780078=
201911151353 METAR KCLM 151353Z AUTO 00000KT 8SM BKN060 OVC100 08/08 A2990 RMK AO2 RAE26 SLP127 P0001 T00780078=
201911151253 METAR KCLM 151253Z AUTO 12006KT 5SM -RA BR FEW005 BKN070 OVC085 07/07 A2991 RMK AO2 SLP132 P0002 T00720067=
201911151240 SPECI KCLM 151240Z AUTO 00000KT 5SM -RA BR SCT003 BKN015 OVC070 07/07 A2992 RMK AO2 P0002 T00720067=
201911151226 SPECI KCLM 151226Z AUTO 22003KT 5SM -RA BR SCT004 BKN013 OVC065 07/07 A2992 RMK AO2 P0002 T00720072=
201911151215 SPECI KCLM 151215Z AUTO 24004KT 4SM -RA BR FEW004 SCT018 OVC065 07/07 A2992 RMK AO2 P0001 T00720072=
201911151153 METAR KCLM 151153Z AUTO 32005KT 4SM -RA BR OVC065 07/07 A2992 RMK AO2 SLP133 P0003 60003 70003 T00720072 10083 20056 55002=
201911151053 METAR KCLM 151053Z AUTO 00000KT 10SM -RA OVC085 07/07 A2991 RMK AO2 RAB39 SLP130 P0000 T00720067=
201911150953 METAR KCLM 150953Z AUTO 10006KT 10SM CLR 07/06 A2991 RMK AO2 SLP129 T00670061=
201911150853 METAR KCLM 150853Z AUTO 13003KT 10SM CLR 07/06 A2993 RMK AO2 SLP135 T00670061 58002=
201911150805 SPECI KCLM 150805Z AUTO 11006KT 9SM SCT020 07/06 A2993 RMK AO2 T00670061=
201911150753 METAR KCLM 150753Z AUTO VRB03KT 10SM BKN020 07/07 A2994 RMK AO2 SLP140 T00720067 400890056=
201911150702 SPECI KCLM 150702Z AUTO 00000KT 5SM BR BKN021 06/06 A2992 RMK AO2 T00610056=
201911150653 METAR KCLM 150653Z AUTO 14003KT 6SM BR SCT021 06/06 A2992 RMK AO2 SLP134 T00560056=
201911150553 METAR KCLM 150553Z AUTO 24003KT 5SM BR CLR 06/06 A2993 RMK AO2 SLP137 T00610056 10083 20056 58006=
201911150453 METAR KCLM 150453Z AUTO 00000KT 5SM BR CLR 06/06 A2994 RMK AO2 SLP139 T00610061=
201911150353 METAR KCLM 150353Z AUTO 00000KT 8SM FEW120 07/06 A2994 RMK AO2 SLP141 T00670061=
201911150253 METAR KCLM 150253Z AUTO 27004KT 8SM BKN110 07/06 A2995 RMK AO2 SLP143 T00720061 58006=
201911150153 METAR KCLM 150153Z AUTO 00000KT 6SM BR BKN120 07/07 A2996 RMK AO2 SLP146 T00720072=
201911150114 SPECI KCLM 150114Z AUTO 00000KT 7SM SCT006 08/07 A2997 RMK AO2 T00780072=
201911150053 METAR KCLM 150053Z AUTO 00000KT 7SM OVC007 08/08 A2997 RMK AO2 SLP149 T00780078=
201911142353 METAR KCLM 142353Z AUTO 00000KT 8SM OVC007 08/08 A2996 RMK AO2 SLP149 T00830078 10089 20078 55007=
201911142253 METAR KCLM 142253Z AUTO 00000KT 8SM OVC008 09/07 A2996 RMK AO2 SLP147 T00890072=
201911142153 METAR KCLM 142153Z AUTO 00000KT 9SM OVC009 09/07 A2997 RMK AO2 SLP150 T00890072=
201911142053 METAR KCLM 142053Z AUTO 36003KT 8SM OVC012 09/07 A2999 RMK AO2 SLP155 T00890072 58008=
201911141953 METAR KCLM 141953Z AUTO 00000KT 7SM OVC012 08/07 A3000 RMK AO2 SLP159 T00830072=
201911141853 METAR KCLM 141853Z AUTO 00000KT 5SM BR FEW007 OVC012 08/08 A3001 RMK AO2 SLP164 T00830078=
201911141843 SPECI KCLM 141843Z AUTO 00000KT 7SM FEW007 OVC012 09/07 A3002 RMK AO2 T00890072=
201911141753 METAR KCLM 141753Z AUTO 00000KT 10SM OVC013 08/07 A3001 RMK AO2 SLP163 T00780067 10078 20067 58001=
201911141653 METAR KCLM 141653Z AUTO 21004KT 10SM OVC013 07/06 A3002 RMK AO2 SLP167 T00720061=
201911141553 METAR KCLM 141553Z AUTO 23003KT 10SM FEW004 OVC011 07/06 A3002 RMK AO2 SLP168 T00670056=
201911141528 SPECI KCLM 141528Z AUTO 24003KT 10SM SCT004 OVC010 07/06 A3001 RMK AO2 CIG 008V012 T00670061=
201911141453 METAR KCLM 141453Z AUTO 25003KT 10SM BKN004 OVC009 07/06 A3001 RMK AO2 SLP165 T00670061 56004=
201911141427 SPECI KCLM 141427Z AUTO 23003KT 10SM BKN003 OVC009 07/06 A3001 RMK AO2 CIG 002V007 T00670061=
201911141353 METAR KCLM 141353Z AUTO 22003KT 10SM SCT003 OVC011 07/07 A3001 RMK AO2 SLP165 T00670067=
201911141253 METAR KCLM 141253Z AUTO 22003KT 10SM OVC003 07/07 A3002 RMK AO2 SLP167 T00670067=
201911141203 SPECI KCLM 141203Z AUTO 22003KT 6SM BR OVC004 07/07 A3002 RMK AO2 T00720072=
201911141153 METAR KCLM 141153Z AUTO 00000KT 6SM BR OVC005 07/07 A3002 RMK AO2 SLP168 T00720072 10083 20072 58006=
201911141131 SPECI KCLM 141131Z AUTO 00000KT 7SM OVC005 07/07 A3003 RMK AO2 CIG 003V007 T00720067=
201911141053 METAR KCLM 141053Z AUTO 00000KT 4SM BR OVC003 07/07 A3003 RMK AO2 SLP170 T00720067=
201911141008 SPECI KCLM 141008Z AUTO 23004KT 3SM BR OVC004 07/07 A3004 RMK AO2 CIG 002V006 T00720072=
201911141002 SPECI KCLM 141002Z AUTO 00000KT 2 1/2SM BR OVC005 08/07 A3004 RMK AO2 T00780072=
201911140953 METAR KCLM 140953Z AUTO 00000KT 3SM BR OVC005 08/08 A3004 RMK AO2 SLP172 T00780078=
201911140853 METAR KCLM 140853Z AUTO 00000KT 4SM BR OVC007 08/08 A3004 RMK AO2 SLP174 T00830078 56004=
201911140825 SPECI KCLM 140825Z AUTO 08003KT 6SM BR OVC009 08/08 A3004 RMK AO2 CIG 007V012 T00830078=
201911140753 METAR KCLM 140753Z AUTO 08005KT 6SM BR OVC010 08/07 A3004 RMK AO2 CIG 008V013 SLP174 T00830072 400940078=
201911140732 SPECI KCLM 140732Z AUTO 08004KT 5SM BR OVC009 08/07 A3005 RMK AO2 T00830072=
201911140653 METAR KCLM 140653Z AUTO 12004KT 6SM BR OVC010 08/08 A3005 RMK AO2 SLP177 T00830078=
201911140553 METAR KCLM 140553Z AUTO 12004KT 8SM OVC012 08/07 A3006 RMK AO2 SLP178 T00830072 10089 20078 55004=
201911140453 METAR KCLM 140453Z AUTO 13005KT 8SM BKN013 OVC018 08/07 A3005 RMK AO2 SLP178 T00780072=
201911140421 SPECI KCLM 140421Z AUTO 14005KT 8SM SCT011 OVC021 08/07 A3006 RMK AO2 T00780072=
201911140353 METAR KCLM 140353Z AUTO 12005KT 7SM OVC010 08/08 A3006 RMK AO2 CIG 010V013 SLP180 T00830078=
201911140253 METAR KCLM 140253Z AUTO 10005KT 5SM BR OVC014 08/08 A3007 RMK AO2 SLP183 T00830078 56011=
201911140153 METAR KCLM 140153Z AUTO 10006KT 5SM BR OVC011 09/08 A3007 RMK AO2 SLP185 T00890083=
201911140111 SPECI KCLM 140111Z AUTO 09007KT 6SM BR BKN013 OVC019 09/08 A3008 RMK AO2 T00890078=
201911140053 METAR KCLM 140053Z AUTO 10006KT 6SM BR OVC019 09/08 A3009 RMK AO2 SLP189 T00890078=
201911140034 SPECI KCLM 140034Z AUTO 09006KT 4SM BR OVC017 09/08 A3009 RMK AO2 T00890083=
201911140000 SPECI KCLM 140000Z AUTO 09005KT 4SM BR BKN011 OVC020 09/08 A3010 RMK AO2 T00890083=
201911132353 METAR KCLM 132353Z AUTO 09005KT 4SM BR SCT010 OVC020 09/08 A3010 RMK AO2 SLP194 T00890083 10094 20089 56009=
201911132315 SPECI KCLM 132315Z AUTO 09005KT 4SM BR FEW005 SCT009 OVC020 09/08 A3011 RMK AO2 T00890083=
201911132253 METAR KCLM 132253Z AUTO 07004KT 4SM BR FEW004 BKN008 OVC020 09/09 A3011 RMK AO2 SLP198 T00890089=
201911132249 SPECI KCLM 132249Z AUTO 07004KT 4SM BR SCT004 BKN008 OVC020 09/09 A3011 RMK AO2 CIG 006V010=
201911132238 SPECI KCLM 132238Z AUTO 08005KT 3SM BR BKN002 BKN008 OVC020 09/09 A3011 RMK AO2 T00890089=
201911132213 SPECI KCLM 132213Z AUTO 09005KT 2SM BR OVC002 09/09 A3012 RMK AO2 T00890089=
201911132153 METAR KCLM 132153Z AUTO 10005KT 1 3/4SM BR OVC002 09/09 A3013 RMK AO2 SLP202 T00890089=
201911132144 SPECI KCLM 132144Z AUTO 09006KT 1 1/2SM BR OVC002 09/09 A3013 RMK AO2 T00890089=
201911132135 SPECI KCLM 132135Z AUTO 08006KT 2SM BR OVC002 09/09 A3013 RMK AO2 T00890089=
201911132108 SPECI KCLM 132108Z AUTO 07006KT 3/4SM BR OVC002 09/09 A3014 RMK AO2 T00890089=
201911132053 METAR KCLM 132053Z AUTO 07006KT 1 1/4SM BR OVC001 09/09 A3015 RMK AO2 SLP210 T00890089 56009=
201911132050 SPECI KCLM 132050Z AUTO 07006KT 1SM BR OVC001 09/09 A3015 RMK AO2=
201911132025 SPECI KCLM 132025Z AUTO 07007KT 1 3/4SM BR OVC002 09/09 A3015 RMK AO2 T00890089=
201911132011 SPECI KCLM 132011Z AUTO 06006KT 2SM BR OVC002 09/09 A3015 RMK AO2 T00890089=
201911131953 METAR KCLM 131953Z AUTO 07004KT 3SM BR OVC002 09/09 A3016 RMK AO2 SLP214 T00890089=
201911131909 SPECI KCLM 131909Z AUTO 08007KT 3SM BR OVC004 09/09 A3017 RMK AO2 T00890089=
201911131853 METAR KCLM 131853Z AUTO 09007KT 2 1/2SM BR BKN004 OVC008 09/08 A3017 RMK AO2 SLP218 T00890083=
201911131832 SPECI KCLM 131832Z AUTO 08005KT 2SM BR BKN003 OVC007 09/09 A3018 RMK AO2 T00890089=
201911131753 METAR KCLM 131753Z AUTO 09003KT 1 1/2SM BR OVC004 09/09 A3017 RMK AO2 CIG 002V006 SLP219 T00890089 10089 20083 50001=
201911131721 SPECI KCLM 131721Z AUTO 14004KT 1SM BR OVC004 09/08 A3018 RMK AO2 CIG 004V007 T00890083=
201911131707 SPECI KCLM 131707Z AUTO 13003KT 2SM BR OVC008 09/08 A3019 RMK AO2 CIG 005V010 T00890083=
201911131653 METAR KCLM 131653Z AUTO 12005KT 3SM BR OVC009 08/08 A3019 RMK AO2 CIG 007V011 SLP225 T00830083=
201911131648 SPECI KCLM 131648Z AUTO 13004KT 3SM BR OVC009 08/08 A3019 RMK AO2 CIG 005V011=
201911131553 METAR KCLM 131553Z AUTO 00000KT 1SM BR OVC007 08/08 A3019 RMK AO2 SLP225 T00830083=
201911131538 SPECI KCLM 131538Z AUTO 00000KT 1 3/4SM BR OVC007 08/08 A3019 RMK AO2 CIG 005V009 T00830083=
201911131527 SPECI KCLM 131527Z AUTO 00000KT 3SM BR OVC007 08/08 A3018 RMK AO2 T00830083=
201911131501 SPECI KCLM 131501Z AUTO 14004KT 2 1/2SM BR OVC007 08/08 A3017 RMK AO2 T00830083=
201911131453 METAR KCLM 131453Z AUTO 13004KT 3SM BR OVC007 08/08 A3017 RMK AO2 CIG 006V011 SLP218 T00830083 58006=
201911131407 SPECI KCLM 131407Z AUTO 13006KT 4SM BR OVC009 08/08 A3018 RMK AO2 CIG 004V011 T00830083=
201911131353 METAR KCLM 131353Z AUTO 11005KT 2SM BR OVC008 08/08 A3018 RMK AO2 CIG 004V011 SLP219 T00830083=
201911131337 SPECI KCLM 131337Z AUTO 12005KT 2 1/2SM BR OVC008 08/08 A3018 RMK AO2 CIG 004V011 T00830083=
201911131305 SPECI KCLM 131305Z AUTO 12005KT 1 3/4SM BR OVC006 08/08 A3019 RMK AO2 T00830083=
201911131253 METAR KCLM 131253Z AUTO 12004KT 2 1/2SM BR OVC007 08/08 A3019 RMK AO2 SLP223 T00830083=
201911131153 METAR KCLM 131153Z AUTO 10003KT 5SM BR OVC005 08/08 A3019 RMK AO2 CIG 004V008 SLP224 60001 70017 T00830083 10089 20072 50002=
201911131053 METAR KCLM 131053Z AUTO 00000KT 4SM BR OVC004 08/08 A3020 RMK AO2 SLP227 T00830083=
201911131044 SPECI KCLM 131044Z AUTO 00000KT 2 1/2SM BR OVC002 08/08 A3020 RMK AO2 T00830083=
201911131031 SPECI KCLM 131031Z AUTO 00000KT 1SM BR VV002 09/08 A3020 RMK AO2 T00890083=
201911131016 SPECI KCLM 131016Z AUTO 00000KT 1/4SM FG VV002 08/08 A3020 RMK AO2 T00830083=
201911130953 METAR KCLM 130953Z AUTO 00000KT 1/2SM FG VV002 08/08 A3019 RMK AO2 RAE30 SLP225 P0001 T00830083=
201911130912 SPECI KCLM 130912Z AUTO 00000KT 3/4SM -RA BR BKN003 BKN010 OVC014 08/08 A3019 RMK AO2 P0001 T00830083=
201911130858 SPECI KCLM 130858Z AUTO 35003KT 1 3/4SM -RA BR FEW005 BKN014 OVC019 08/08 A3018 RMK AO2 P0001 T00830083=
201911130853 METAR KCLM 130853Z AUTO 00000KT 2SM -RA BR SCT012 OVC018 08/08 A3018 RMK AO2 RAB48 SLP222 P0000 60000 T00830083 52005=
201911130753 METAR KCLM 130753Z AUTO 00000KT 5SM BR SCT010 OVC017 08/08 A3018 RMK AO2 SLP220 T00830083 401000061=
201911130742 SPECI KCLM 130742Z AUTO 00000KT 3SM BR BKN010 OVC015 08/08 A3018 RMK AO2 T00830083=
201911130729 SPECI KCLM 130729Z AUTO 00000KT 1 3/4SM BR OVC010 08/08 A3018 RMK AO2 T00780078=
201911130710 SPECI KCLM 130710Z AUTO 00000KT 4SM BR OVC010 08/08 A3018 RMK AO2 T00830083=
201911130702 SPECI KCLM 130702Z AUTO 00000KT 2SM BR OVC010 08/08 A3018 RMK AO2 T00780078=
201911130653 METAR KCLM 130653Z AUTO 00000KT 1 1/2SM BR OVC010 08/08 A3017 RMK AO2 SLP219 T00780078=
201911130643 SPECI KCLM 130643Z AUTO 00000KT 1SM BR OVC010 08/08 A3017 RMK AO2 T00780078=
201911130635 SPECI KCLM 130635Z AUTO 18003KT 2SM BR OVC011 08/08 A3017 RMK AO2 T00780078=
201911130627 SPECI KCLM 130627Z AUTO 18004KT 1SM BR OVC009 07/07 A3017 RMK AO2 T00720072=
201911130614 SPECI KCLM 130614Z AUTO 00000KT 1/4SM FG FEW002 OVC006 08/08 A3017 RMK AO2 T00780078=
201911130558 SPECI KCLM 130558Z AUTO 32003KT 1/4SM FG BKN002 OVC016 08/08 A3017 RMK AO2 T00780078=
201911130553 METAR KCLM 130553Z AUTO 31003KT 1SM BR BKN002 BKN016 07/07 A3017 RMK AO2 SLP218 T00720072 10100 20061 53005=
201911130549 SPECI KCLM 130549Z AUTO 27003KT 2 1/2SM BR SCT002 BKN016 08/08 A3017 RMK AO2=
201911130502 SPECI KCLM 130502Z AUTO 23004KT 3SM BR FEW002 07/07 A3016 RMK AO2 T00720067=
201911130459 SPECI KCLM 130459Z AUTO 26004KT 1SM BR VV002 07/07 A3016 RMK AO2 T00720067=
201911130453 METAR KCLM 130453Z AUTO 29004KT 1/4SM FG VV002 06/06 A3016 RMK AO2 SLP214 T00610061=
201911130449 SPECI KCLM 130449Z AUTO 00000KT 1/4SM FG VV001 07/07 A3015 RMK AO2=
201911130422 SPECI KCLM 130422Z AUTO 00000KT 1/2SM FG FEW007 BKN055 07/07 A3015 RMK AO2 T00720072=
201911130411 SPECI KCLM 130411Z AUTO 00000KT 1 3/4SM BR BKN055 07/07 A3015 RMK AO2 T00670067=
201911130353 METAR KCLM 130353Z AUTO 17004KT 4SM BR FEW045 OVC055 07/07 A3015 RMK AO2 SLP213 T00720072=
201911130345 SPECI KCLM 130345Z AUTO 19003KT 2SM BR BKN055 08/08 A3016 RMK AO2 T00780078=
201911130338 SPECI KCLM 130338Z AUTO 00000KT 3/4SM BR FEW022 BKN055 07/07 A3016 RMK AO2 T00670067=
201911130327 SPECI KCLM 130327Z AUTO 00000KT 1 3/4SM BR BKN048 07/07 A3016 RMK AO2 T00720067=
201911130320 SPECI KCLM 130320Z AUTO 00000KT 3SM BR FEW042 BKN050 07/07 A3016 RMK AO2 T00720072=
201911130311 SPECI KCLM 130311Z AUTO 00000KT 2SM BR FEW042 OVC050 07/07 A3016 RMK AO2 T00720072=
201911130300 SPECI KCLM 130300Z AUTO 22003KT 7SM FEW001 SCT023 OVC050 08/08 A3016 RMK AO2 T00780078=
201911130253 METAR KCLM 130253Z AUTO 21005KT 2SM BR SCT001 BKN050 08/08 A3016 RMK AO2 SLP216 T00780078 53010=
201911130250 SPECI KCLM 130250Z AUTO 22005KT 3/4SM BR SCT001 BKN024 OVC050 08/07 A3016 RMK AO2=
201911130219 SPECI KCLM 130219Z AUTO 00000KT 1/4SM FG BKN001 OVC022 08/08 A3015 RMK AO2 T00780078=
201911130209 SPECI KCLM 130209Z AUTO 00000KT 3/4SM BR BKN001 OVC022 07/07 A3015 RMK AO2 T00720072=
201911130206 SPECI KCLM 130206Z AUTO 00000KT 2SM BR BKN001 OVC022 08/08 A3015 RMK AO2 T00780078=
201911130202 SPECI KCLM 130202Z AUTO 00000KT 3SM BR SCT002 BKN016 OVC022 08/08 A3015 RMK AO2 T00780078=
201911130153 METAR KCLM 130153Z AUTO 00000KT 4SM BR BKN002 BKN016 OVC021 08/08 A3015 RMK AO2 SLP210 T00830083=
201911130145 SPECI KCLM 130145Z AUTO 14003KT 4SM BR SCT002 BKN017 OVC023 08/08 A3015 RMK AO2 T00830078=
201911130135 SPECI KCLM 130135Z AUTO 00000KT 4SM BR BKN002 OVC012 08/08 A3015 RMK AO2 T00830083=
201911130114 SPECI KCLM 130114Z AUTO 00000KT 4SM BR FEW002 OVC014 08/08 A3014 RMK AO2 T00830083=
201911130053 METAR KCLM 130053Z AUTO 05004KT 4SM BR FEW001 OVC015 08/08 A3014 RMK AO2 SLP208 T00830083=
201911130046 SPECI KCLM 130046Z AUTO 00000KT 4SM BR OVC015 08/08 A3014 RMK AO2 T00830083=
201911122353 METAR KCLM 122353Z AUTO 00000KT 7SM OVC012 09/09 A3013 RMK AO2 SLP205 60001 T00940094 10094 20078 51007=
201911122314 SPECI KCLM 122314Z AUTO 17003KT 9SM SCT004 OVC013 09/08 A3013 RMK AO2 T00890083=
201911122253 METAR KCLM 122253Z AUTO 00000KT 3SM BR OVC004 09/08 A3013 RMK AO2 SLP205 T00890083=
201911122244 SPECI KCLM 122244Z AUTO 00000KT 2SM BR OVC004 08/08 A3013 RMK AO2 T00830083=
201911122153 METAR KCLM 122153Z AUTO 00000KT 7SM OVC003 08/08 A3012 RMK AO2 SLP202 T00830078=
201911122107 SPECI KCLM 122107Z AUTO 33003KT 3SM BR OVC004 08/08 A3011 RMK AO2 T00830078=
201911122053 METAR KCLM 122053Z AUTO 35004KT 5SM BR BKN005 BKN036 OVC060 08/08 A3011 RMK AO2 RAB10E37 SLP198 P0001 60001 T00830078 55000=
201911122049 SPECI KCLM 122049Z AUTO 34004KT 5SM BR BKN005 BKN036 OVC060 08/08 A3011 RMK AO2 RAB10E37 P0001=
201911122038 SPECI KCLM 122038Z AUTO 34003KT 3SM BR SCT007 BKN010 OVC038 08/08 A3011 RMK AO2 RAB10E37 P0001 T00830078=
201911122029 SPECI KCLM 122029Z AUTO 31003KT 2 1/2SM -RA BR BKN009 OVC040 08/08 A3011 RMK AO2 RAB10 P0001 T00830078=
201911122023 SPECI KCLM 122023Z AUTO 32003KT 5SM -RA BR SCT009 OVC042 08/07 A3011 RMK AO2 RAB10 P0000 T00830072=
201911122019 SPECI KCLM 122019Z AUTO 31003KT 2 1/2SM -RA BR FEW011 OVC042 09/08 A3011 RMK AO2 RAB10 P0000 T00890078=
201911121953 METAR KCLM 121953Z AUTO VRB03KT 10SM FEW005 BKN050 OVC065 09/08 A3011 RMK AO2 SLP195 T00890078=
201911121946 SPECI KCLM 121946Z AUTO 02003KT 10SM FEW005 BKN039 OVC080 09/08 A3011 RMK AO2 T00890078=
201911121853 METAR KCLM 121853Z AUTO 09004KT 10SM BKN045 BKN070 OVC080 08/07 A3011 RMK AO2 SLP198 T00830067=
201911121753 METAR KCLM 121753Z AUTO 00000KT 10SM FEW018 BKN075 OVC120 08/07 A3011 RMK AO2 SLP198 60015 T00830072 10083 20067 53013=
201911121653 METAR KCLM 121653Z AUTO 00000KT 10SM SCT055 OVC085 07/07 A3009 RMK AO2 RAB29E51 SLP190 P0000 T00720067=
201911121553 METAR KCLM 121553Z AUTO 00000KT 7SM OVC070 07/06 A3008 RMK AO2 RAE47 SLP187 P0001 T00670061=
201911121453 METAR KCLM 121453Z AUTO 08003KT 9SM -RA FEW041 FEW055 OVC085 07/06 A3007 RMK AO2 SLP186 P0004 60014 T00670061 50001=
201911121353 METAR KCLM 121353Z AUTO 19003KT 5SM -RA BR OVC039 07/07 A3009 RMK AO2 SLP190 P0005 T00670067=
201911121253 METAR KCLM 121253Z AUTO 00000KT 8SM -RA OVC046 07/07 A3007 RMK AO2 SLP184 P0005 T00670067=
201911121153 METAR KCLM 121153Z AUTO 23003KT 6SM -RA BR OVC065 07/06 A3007 RMK AO2 RAB1055 SLP184 P0004 60005 70005 T00670061 10083 20067 56020=
201911121053 METAR KCLM 121053Z AUTO 00000KT 10SM OVC085 07/06 A3008 RMK AO2 RAE46 SLP188 P0000 T00670061=
201911120953 METAR KCLM 120953Z AUTO 12005KT 10SM -RA BKN085 OVC100 07/06 A3008 RMK AO2 RAE0859B15 PRESFR SLP188 P0001 T00720056=
201911120853 METAR KCLM 120853Z AUTO 00000KT 10SM -RA BKN075 OVC090 08/06 A3013 RMK AO2 RAB14E24B48 SLP203 P0000 60000 T00780056 58011=
201911120753 METAR KCLM 120753Z AUTO 00000KT 10SM BKN075 OVC095 08/06 A3016 RMK AO2 SLP212 T00780056 400890072=
201911120653 METAR KCLM 120653Z AUTO 17006KT 10SM SCT070 OVC090 08/06 A3014 RMK AO2 SLP208 T00780061=
201911120553 METAR KCLM 120553Z AUTO 21005KT 10SM OVC085 08/07 A3016 RMK AO2 RAB20E53 SLP214 P0000 60000 T00780072 10089 20072 55001=
201911120453 METAR KCLM 120453Z AUTO 22003KT 10SM OVC095 07/07 A3014 RMK AO2 SLP210 T00720072=
201911120353 METAR KCLM 120353Z AUTO 00000KT 7SM OVC100 08/07 A3014 RMK AO2 SLP208 T00780067=
201911120253 METAR KCLM 120253Z AUTO 00000KT 7SM OVC120 08/07 A3016 RMK AO2 SLP216 T00780067 58020=
201911120153 METAR KCLM 120153Z AUTO 16003KT 7SM SCT120 07/07 A3019 RMK AO2 SLP226 T00720067=
201911120135 SPECI KCLM 120135Z AUTO 18004KT 10SM SCT006 SCT020 BKN120 07/06 A3020 RMK AO2 T00720061=
201911120053 METAR KCLM 120053Z AUTO 11003KT 10SM BKN008 BKN016 08/07 A3021 RMK AO2 SLP231 T00830072=
201911112353 METAR KCLM 112353Z AUTO 00000KT 10SM OVC009 09/07 A3022 RMK AO2 SLP235 T00890067 10089 20083 58008=
201911112253 METAR KCLM 112253Z AUTO 00000KT 10SM OVC009 09/07 A3023 RMK AO2 SLP239 T00890067=
201911112233 SPECI KCLM 112233Z AUTO 00000KT 10SM OVC009 09/07 A3024 RMK AO2 T00890067=
201911112217 SPECI KCLM 112217Z AUTO 07003KT 10SM OVC010 09/07 A3024 RMK AO2 T00890072=
201911112153 METAR KCLM 112153Z AUTO 00000KT 10SM OVC009 09/07 A3024 RMK AO2 SLP243 T00890067=
201911112053 METAR KCLM 112053Z AUTO 09007KT 10SM BKN007 OVC010 08/07 A3025 RMK AO2 SLP244 T00830072 55016=
201911112051 SPECI KCLM 112051Z AUTO 09007KT 10SM BKN007 OVC010 08/07 A3025 RMK AO2=
201911111953 METAR KCLM 111953Z AUTO 08006KT 10SM OVC013 08/06 A3028 RMK AO2 SLP253 T00830061=
201911111853 METAR KCLM 111853Z AUTO VRB03KT 10SM BKN010 OVC015 09/07 A3030 RMK AO2 CIG 007V013 SLP260 T00890067=
201911111845 SPECI KCLM 111845Z AUTO VRB03KT 10SM BKN010 OVC015 09/07 A3030 RMK AO2 CIG 007V013 T00890067=
201911111753 METAR KCLM 111753Z AUTO 00000KT 10SM OVC006 09/08 A3031 RMK AO2 CIG 003V009 SLP264 T00890078 10089 20072 51000=
201911111751 SPECI KCLM 111751Z AUTO 35003KT 9SM OVC006 09/08 A3031 RMK AO2 CIG 003V009=
201911111653 METAR KCLM 111653Z AUTO 00000KT 10SM OVC004 08/07 A3031 RMK AO2 CIG 003V007 SLP265 T00830072=
201911111643 SPECI KCLM 111643Z AUTO 00000KT 10SM OVC004 08/07 A3031 RMK AO2 T00780072=
201911111553 METAR KCLM 111553Z AUTO 25003KT 10SM OVC006 08/07 A3031 RMK AO2 SLP263 T00780067=
201911111548 SPECI KCLM 111548Z AUTO 00000KT 10SM OVC005 08/07 A3031 RMK AO2=
201911111522 SPECI KCLM 111522Z AUTO 00000KT 10SM OVC004 08/07 A3031 RMK AO2 T00780072=
201911111453 METAR KCLM 111453Z AUTO 00000KT 10SM OVC005 08/07 A3032 RMK AO2 SLP267 T00780072 58003=
201911111353 METAR KCLM 111353Z AUTO 22003KT 10SM OVC009 07/07 A3032 RMK AO2 SLP270 T00720067=
201911111342 SPECI KCLM 111342Z AUTO 21004KT 10SM OVC009 07/07 A3033 RMK AO2 T00720067=
201911111322 SPECI KCLM 111322Z AUTO 00000KT 10SM BKN010 OVC019 08/07 A3033 RMK AO2 T00780067=
201911111253 METAR KCLM 111253Z AUTO 00000KT 10SM FEW011 OVC019 08/07 A3033 RMK AO2 SLP273 T00780067=
201911111153 METAR KCLM 111153Z AUTO 00000KT 6SM BR OVC016 08/07 A3033 RMK AO2 SLP271 T00780072 10089 20078 56004=
201911111053 METAR KCLM 111053Z AUTO 00000KT 5SM BR OVC015 08/08 A3033 RMK AO2 SLP271 T00780078=
201911111011 SPECI KCLM 111011Z AUTO 00000KT 7SM BKN015 OVC020 08/08 A3034 RMK AO2 T00780078=
201911110953 METAR KCLM 110953Z AUTO 00000KT 8SM OVC014 08/08 A3034 RMK AO2 SLP274 T00830078=
201911110853 METAR KCLM 110853Z AUTO 12004KT 9SM OVC013 08/08 A3034 RMK AO2 SLP274 T00830078 58004=
201911110753 METAR KCLM 110753Z AUTO 00000KT 10SM OVC014 09/08 A3035 RMK AO2 SLP277 T00890078 401060078=
201911110653 METAR KCLM 110653Z AUTO 00000KT 10SM OVC013 09/08 A3035 RMK AO2 SLP277 T00890078=
201911110629 SPECI KCLM 110629Z AUTO 00000KT 10SM OVC014 09/08 A3036 RMK AO2 T00890083=
201911110553 METAR KCLM 110553Z AUTO 10003KT 9SM OVC015 09/08 A3035 RMK AO2 SLP278 T00890083 10100 20078 55000=
201911110453 METAR KCLM 110453Z AUTO 11005KT 9SM OVC017 08/08 A3035 RMK AO2 SLP277 T00830078=
201911110436 SPECI KCLM 110436Z AUTO 09005KT 9SM BKN017 08/08 A3034 RMK AO2 T00780078=
201911110414 SPECI KCLM 110414Z AUTO 09004KT 3SM BR FEW019 08/07 A3034 RMK AO2 T00780072=
201911110406 SPECI KCLM 110406Z AUTO 07003KT 2SM BR FEW019 08/07 A3034 RMK AO2 T00780072=
201911110353 METAR KCLM 110353Z AUTO 00000KT 1 3/4SM BR BKN018 08/08 A3034 RMK AO2 VIS 1V5 SLP275 T00830078=
201911110253 METAR KCLM 110253Z AUTO 09005KT 10SM OVC019 09/08 A3035 RMK AO2 SLP278 T00890083 51004=
201911110153 METAR KCLM 110153Z AUTO 08007KT 10SM OVC021 09/08 A3035 RMK AO2 SLP278 T00890083=
201911110053 METAR KCLM 110053Z AUTO 10005KT 10SM OVC021 09/09 A3035 RMK AO2 SLP277 T00940089=
201911110010 SPECI KCLM 110010Z AUTO 09004KT 10SM SCT014 OVC022 10/09 A3034 RMK AO2 T01000094=
201911102353 METAR KCLM 102353Z AUTO 10004KT 10SM BKN014 OVC024 10/09 A3034 RMK AO2 SLP275 T01000094 10106 20094 51003=
201911102307 SPECI KCLM 102307Z AUTO 12005KT 10SM FEW007 SCT018 OVC026 11/09 A3034 RMK AO2 T01060094=
201911102253 METAR KCLM 102253Z AUTO 12004KT 10SM FEW016 OVC027 11/09 A3034 RMK AO2 SLP274 T01060094=
201911102232 SPECI KCLM 102232Z AUTO 08005KT 10SM FEW011 BKN016 OVC028 11/09 A3034 RMK AO2 T01060094=
201911102153 METAR KCLM 102153Z AUTO 09005KT 10SM BKN013 BKN029 OVC035 11/09 A3035 RMK AO2 SLP278 T01060094=
201911102129 SPECI KCLM 102129Z AUTO 11007KT 10SM FEW005 FEW015 OVC031 11/10 A3034 RMK AO2 T01060100=
201911102111 SPECI KCLM 102111Z AUTO 11006KT 7SM SCT005 BKN016 OVC028 11/10 A3034 RMK AO2 T01060100=
201911102104 SPECI KCLM 102104Z AUTO 10006KT 8SM SCT005 BKN014 OVC026 11/10 A3033 RMK AO2 T01060100=
201911102053 METAR KCLM 102053Z AUTO 12005KT 9SM SCT006 OVC026 11/10 A3033 RMK AO2 SLP271 T01060100 56004=
201911102020 SPECI KCLM 102020Z AUTO 10005KT 7SM SCT004 OVC022 10/10 A3033 RMK AO2 T01000100=
201911102002 SPECI KCLM 102002Z AUTO 11004KT 6SM BR BKN004 OVC021 10/10 A3033 RMK AO2 CIG 003V007 T01000100=
201911101953 METAR KCLM 101953Z AUTO 11004KT 7SM BKN005 OVC021 10/10 A3033 RMK AO2 SLP272 T01000100=
201911101949 SPECI KCLM 101949Z AUTO 10005KT 8SM BKN005 OVC020 10/09 A3033 RMK AO2=
201911101921 SPECI KCLM 101921Z AUTO 12004KT 9SM SCT002 OVC020 10/10 A3034 RMK AO2 T01000100=
201911101911 SPECI KCLM 101911Z AUTO 13005KT 3SM BR BKN002 OVC020 10/10 A3034 RMK AO2 T01000100=
201911101853 METAR KCLM 101853Z AUTO 10004KT 1 1/4SM BR OVC002 09/09 A3034 RMK AO2 SLP276 T00940094=
201911101753 METAR KCLM 101753Z AUTO 08006KT 1 1/2SM BR OVC003 09/09 A3032 RMK AO2 SLP270 T00940094 10100 20089 51016=
201911101730 SPECI KCLM 101730Z AUTO 08005KT 1 3/4SM BR OVC003 09/09 A3032 RMK AO2 T00940094=
201911101715 SPECI KCLM 101715Z AUTO 08004KT 4SM BR OVC003 10/09 A3032 RMK AO2 T01000094=
201911101706 SPECI KCLM 101706Z AUTO 08003KT 2 1/2SM BR OVC003 09/09 A3032 RMK AO2 T00940094=
201911101653 METAR KCLM 101653Z AUTO 06004KT 1 1/2SM BR OVC003 09/09 A3031 RMK AO2 SLP266 T00940094=
201911101612 SPECI KCLM 101612Z AUTO 00000KT 1SM BR OVC004 09/09 A3030 RMK AO2 T00940094=
201911101553 METAR KCLM 101553Z AUTO 11003KT 1SM BR OVC005 09/09 A3030 RMK AO2 SLP260 T00940094=
201911101453 METAR KCLM 101453Z AUTO 00000KT 1 1/4SM BR OVC004 09/09 A3028 RMK AO2 SLP253 T00940094 53002=
201911101353 METAR KCLM 101353Z AUTO 11003KT 1 1/4SM BR OVC003 09/09 A3027 RMK AO2 SLP250 T00890089=
201911101349 SPECI KCLM 101349Z AUTO 12003KT 1 1/4SM BR OVC002 09/09 A3027 RMK AO2=
201911101340 SPECI KCLM 101340Z AUTO 11003KT 3/4SM BR OVC002 09/09 A3027 RMK AO2 T00940089=
201911101312 SPECI KCLM 101312Z AUTO 00000KT 1SM BR VV003 09/09 A3027 RMK AO2 T00890089=
201911101253 METAR KCLM 101253Z AUTO 00000KT 3/4SM BR VV003 09/09 A3027 RMK AO2 SLP251 T00890089=
201911101239 SPECI KCLM 101239Z AUTO 00000KT 3/4SM BR OVC002 09/09 A3027 RMK AO2 T00890089=
201911101228 SPECI KCLM 101228Z AUTO 00000KT 1SM BR OVC002 09/09 A3026 RMK AO2 T00890089=
201911101153 METAR KCLM 101153Z AUTO 00000KT 3/4SM BR VV002 09/09 A3026 RMK AO2 SLP247 70006 T00890089 10089 20083 53005=
201911101122 SPECI KCLM 101122Z AUTO 00000KT 1/2SM FG VV004 09/09 A3025 RMK AO2 T00890089=
201911101107 SPECI KCLM 101107Z AUTO 00000KT 1SM BR VV003 09/09 A3025 RMK AO2 T00890089=
201911101100 SPECI KCLM 101100Z AUTO 00000KT 1SM BR OVC001 09/09 A3025 RMK AO2 T00890089=
201911101053 METAR KCLM 101053Z AUTO 00000KT 2SM BR OVC001 09/09 A3025 RMK AO2 SLP243 T00890089=
201911101045 SPECI KCLM 101045Z AUTO 00000KT 2SM BR OVC001 09/09 A3024 RMK AO2 T00890089=
201911101022 SPECI KCLM 101022Z AUTO 00000KT 3SM BR BKN001 OVC018 09/09 A3024 RMK AO2 T00890089=
201911101015 SPECI KCLM 101015Z AUTO 00000KT 3SM BR SCT001 OVC018 09/09 A3024 RMK AO2 T00890089=
201911101007 SPECI KCLM 101007Z AUTO 00000KT 2 1/2SM BR FEW001 BKN018 OVC027 09/09 A3024 RMK AO2 T00890089=
201911100959 SPECI KCLM 100959Z AUTO 00000KT 3SM BR BKN018 BKN027 OVC060 09/09 A3024 RMK AO2 T00890089=
201911100953 METAR KCLM 100953Z AUTO VRB03KT 1SM BR SCT020 BKN028 OVC060 08/08 A3024 RMK AO2 SLP241 T00830083=
201911100938 SPECI KCLM 100938Z AUTO 00000KT 1 1/2SM BR FEW030 BKN048 OVC060 09/08 A3024 RMK AO2 T00890083=
201911100913 SPECI KCLM 100913Z AUTO 00000KT 3SM BR SCT024 OVC031 09/09 A3024 RMK AO2 T00890089=
201911100853 METAR KCLM 100853Z AUTO 22003KT 2SM BR FEW002 OVC018 09/09 A3024 RMK AO2 SLP242 T00890089 53006=
201911100850 SPECI KCLM 100850Z AUTO 00000KT 2SM BR FEW002 OVC016 09/09 A3025 RMK AO2=
201911100841 SPECI KCLM 100841Z AUTO 25003KT 1 1/4SM BR FEW002 OVC010 09/09 A3025 RMK AO2 T00890089=
201911100835 SPECI KCLM 100835Z AUTO 26003KT 1SM BR VV003 09/09 A3025 RMK AO2 T00890089=
201911100826 SPECI KCLM 100826Z AUTO 28003KT 3/4SM BR OVC002 09/09 A3025 RMK AO2 T00890089=
201911100813 SPECI KCLM 100813Z AUTO 00000KT 1 3/4SM BR BKN002 BKN008 OVC018 09/09 A3024 RMK AO2 T00890089=
201911100753 METAR KCLM 100753Z AUTO 00000KT 4SM BR OVC002 09/09 A3024 RMK AO2 SLP240 T00890089 401060083=
201911100725 SPECI KCLM 100725Z AUTO 00000KT 4SM BR BKN002 OVC026 09/09 A3023 RMK AO2 T00890089=
201911100716 SPECI KCLM 100716Z AUTO 00000KT 4SM BR SCT002 OVC028 09/09 A3023 RMK AO2 T00890089=
201911100703 SPECI KCLM 100703Z AUTO 00000KT 4SM BR OVC029 09/09 A3023 RMK AO2 T00890089=
201911100653 METAR KCLM 100653Z AUTO 00000KT 3SM BR BKN031 OVC038 09/09 A3022 RMK AO2 SLP235 T00890089=
201911100646 SPECI KCLM 100646Z AUTO 00000KT 3SM BR BKN031 OVC038 09/09 A3022 RMK AO2 T00890089=
201911100630 SPECI KCLM 100630Z AUTO 00000KT 3SM BR FEW002 BKN020 OVC049 09/09 A3022 RMK AO2 T00890089=
201911100622 SPECI KCLM 100622Z AUTO 23003KT 1 1/2SM BR FEW002 OVC015 09/09 A3023 RMK AO2 T00890089=
201911100617 SPECI KCLM 100617Z AUTO 23004KT 1SM BR FEW002 OVC006 09/09 A3023 RMK AO2 T00890089=
201911100553 METAR KCLM 100553Z AUTO 22003KT 3/4SM BR OVC002 09/09 A3022 RMK AO2 SLP236 T00890089 10094 20089 53006=
201911100509 SPECI KCLM 100509Z AUTO 25003KT 1 1/4SM BR OVC002 09/09 A3020 RMK AO2 T00890089=
201911100453 METAR KCLM 100453Z AUTO 22003KT 1/2SM FG VV002 09/09 A3020 RMK AO2 SLP228 T00890089=
201911100422 SPECI KCLM 100422Z AUTO 00000KT 1/4SM FG VV002 09/09 A3020 RMK AO2 T00890089=
201911100404 SPECI KCLM 100404Z AUTO 00000KT 3/4SM BR VV002 09/09 A3020 RMK AO2 T00890089=
201911100353 METAR KCLM 100353Z AUTO 00000KT 1/4SM FG VV002 09/09 A3019 RMK AO2 SLP225 T00890089=
201911100253 METAR KCLM 100253Z AUTO 00000KT 1/4SM FG VV002 09/09 A3021 RMK AO2 SLP230 T00890089 53004=
201911100235 SPECI KCLM 100235Z AUTO 00000KT 1/4SM FG VV002 09/09 A3020 RMK AO2 T00890089=
201911100153 METAR KCLM 100153Z AUTO 00000KT 1/2SM FG VV002 09/09 A3019 RMK AO2 SLP225 T00890089=
201911100116 SPECI KCLM 100116Z AUTO 00000KT 1/2SM FG VV002 09/09 A3020 RMK AO2 T00890089=
201911100053 METAR KCLM 100053Z AUTO 00000KT 1 1/4SM BR BKN001 OVC014 09/09 A3019 RMK AO2 SLP224 T00890089=
201911100046 SPECI KCLM 100046Z AUTO 00000KT 1 3/4SM BR OVC001 09/09 A3019 RMK AO2 T00890089=
201911100036 SPECI KCLM 100036Z AUTO 00000KT 4SM BR BKN001 OVC050 09/09 A3018 RMK AO2 T00890089=
201911100018 SPECI KCLM 100018Z AUTO 00000KT 2 1/2SM BR BKN001 OVC038 09/09 A3018 RMK AO2 T00940089=
201911100011 SPECI KCLM 100011Z AUTO 00000KT 4SM BR SCT001 OVC038 09/09 A3019 RMK AO2 T00940089=
201911092353 METAR KCLM 092353Z AUTO 00000KT 5SM BR OVC039 09/09 A3019 RMK AO2 SLP226 60001 T00940089 10106 20089 50005=
201911092337 SPECI KCLM 092337Z AUTO 00000KT 8SM SCT004 OVC039 09/09 A3020 RMK AO2 T00940089=
201911092253 METAR KCLM 092253Z AUTO 00000KT 4SM BR OVC002 09/09 A3020 RMK AO2 RAE15 SLP227 P0000 T00890089=
201911092246 SPECI KCLM 092246Z AUTO 00000KT 3SM BR OVC002 09/09 A3020 RMK AO2 RAE15 P0000 T00940094=
201911092226 SPECI KCLM 092226Z AUTO 00000KT 1 1/2SM BR OVC002 09/09 A3019 RMK AO2 RAE15 P0000 T00890089=
201911092158 SPECI KCLM 092158Z AUTO 00000KT 2SM -RA BR OVC002 09/09 A3019 RMK AO2 P0000 T00890089=
201911092153 METAR KCLM 092153Z AUTO 00000KT 1 3/4SM -RA BR OVC001 09/09 A3019 RMK AO2 RAB26 SLP225 P0001 T00890089=
201911092136 SPECI KCLM 092136Z AUTO 00000KT 1 3/4SM -RA BR OVC001 09/09 A3020 RMK AO2 RAB26 P0000 T00890089=
201911092128 SPECI KCLM 092128Z AUTO VRB03KT 3SM -RA BR OVC001 09/09 A3020 RMK AO2 RAB26 P0000 T00890089=
201911092112 SPECI KCLM 092112Z AUTO VRB03KT 2 1/2SM BR OVC002 09/09 A3019 RMK AO2 T00940089=
201911092053 METAR KCLM 092053Z AUTO VRB03KT 4SM BR OVC003 09/09 A3018 RMK AO2 SLP220 T00940089 58013=
201911092036 SPECI KCLM 092036Z AUTO 07004KT 6SM BR BKN003 BKN009 OVC048 09/09 A3018 RMK AO2 T00940089=
201911091953 METAR KCLM 091953Z AUTO 11004KT 10SM FEW005 FEW036 OVC047 10/09 A3019 RMK AO2 SLP223 T01000089=
201911091853 METAR KCLM 091853Z AUTO 09005KT 7SM FEW004 BKN039 OVC050 10/09 A3021 RMK AO2 SLP232 T01000089=
201911091812 SPECI KCLM 091812Z AUTO 00000KT 5SM BR SCT004 OVC035 09/09 A3022 RMK AO2 T00940089=
201911091804 SPECI KCLM 091804Z AUTO 00000KT 5SM BR BKN004 OVC037 09/09 A3022 RMK AO2 T00940089=
201911091753 METAR KCLM 091753Z AUTO 00000KT 5SM BR BKN005 OVC037 09/09 A3022 RMK AO2 SLP233 60005 T00940089 10094 20083 53009=
201911091719 SPECI KCLM 091719Z AUTO 00000KT 6SM BR FEW003 BKN037 OVC046 09/09 A3021 RMK AO2 T00940089=
201911091653 METAR KCLM 091653Z AUTO 00000KT 4SM BR OVC043 09/09 A3020 RMK AO2 RAE23 SLP227 P0000 T00940089=
201911091627 SPECI KCLM 091627Z AUTO 11003KT 3SM BR BKN046 OVC055 09/09 A3020 RMK AO2 RAE23 P0000 T00890089=
201911091553 METAR KCLM 091553Z AUTO 00000KT 2 1/2SM -RA BR BKN043 OVC070 08/08 A3021 RMK AO2 SLP230 P0003 T00830083=
201911091520 SPECI KCLM 091520Z AUTO 00000KT 2 1/2SM -RA BR FEW003 OVC044 08/08 A3020 RMK AO2 P0002 T00830083=
201911091512 SPECI KCLM 091512Z AUTO 00000KT 3SM -RA BR SCT003 SCT013 OVC042 08/08 A3020 RMK AO2 P0001 T00830083=
201911091453 METAR KCLM 091453Z AUTO 00000KT 4SM -RA BR BKN003 BKN008 OVC050 08/08 A3019 RMK AO2 RAB1358 SLP225 P0002 60002 T00830083 50005=
201911091451 SPECI KCLM 091451Z AUTO 00000KT 4SM -RA BR BKN003 BKN008 OVC050 08/08 A3019 RMK AO2 RAB1358 P0002=
201911091442 SPECI KCLM 091442Z AUTO 00000KT 4SM -RA BR SCT003 BKN043 OVC050 08/08 A3019 RMK AO2 RAB1358 P0002 T00830078=
201911091353 METAR KCLM 091353Z AUTO 00000KT 10SM FEW046 OVC070 08/08 A3018 RMK AO2 RAB02E27 SLP220 P0000 T00830078=
201911091253 METAR KCLM 091253Z AUTO 21004KT 10SM OVC047 08/08 A3018 RMK AO2 SLP220 T00830078=
201911091153 METAR KCLM 091153Z AUTO 23003KT 10SM OVC049 08/08 A3018 RMK AO2 SLP221 60001 70001 T00830078 10100 20083 58003=
201911091053 METAR KCLM 091053Z AUTO 00000KT 10SM OVC050 08/08 A3019 RMK AO2 SLP225 T00830078=
201911090953 METAR KCLM 090953Z AUTO 10004KT 7SM OVC060 08/08 A3019 RMK AO2 SLP224 T00830083=
201911090853 METAR KCLM 090853Z AUTO 11004KT 7SM OVC060 08/08 A3019 RMK AO2 RAB00E49 SLP224 P0001 60001 T00830083 53008=
201911090753 METAR KCLM 090753Z AUTO 21003KT 8SM BKN100 OVC120 08/08 A3018 RMK AO2 RAE44 SLP219 P0000 T00830078 401060000=
201911090653 METAR KCLM 090653Z AUTO 15007KT 10SM -RA FEW021 OVC095 09/07 A3016 RMK AO2 RAB47 SLP215 P0000 T00890072=
201911090627 SPECI KCLM 090627Z AUTO 00000KT 10SM SCT021 OVC100 10/08 A3017 RMK AO2 T01000078=
201911090553 METAR KCLM 090553Z AUTO 22003KT 10SM BKN021 OVC110 09/08 A3017 RMK AO2 SLP216 T00940078 10100 20067 50011=
201911090453 METAR KCLM 090453Z AUTO 27008KT 10SM OVC019 10/08 A3017 RMK AO2 SLP218 T01000078=
201911090353 METAR KCLM 090353Z AUTO 25007KT 10SM OVC020 09/07 A3015 RMK AO2 SLP210 T00940072=
201911090322 SPECI KCLM 090322Z AUTO 25006KT 10SM BKN020 09/07 A3014 RMK AO2 T00890067=
201911090253 METAR KCLM 090253Z AUTO 24006KT 10SM CLR 08/06 A3013 RMK AO2 SLP206 T00830061 55002=
201911090153 METAR KCLM 090153Z AUTO 23005KT 10SM CLR 08/06 A3012 RMK AO2 SLP203 T00780056=
201911090053 METAR KCLM 090053Z AUTO 24005KT 10SM CLR 08/06 A3014 RMK AO2 SLP207 T00780056=
201911082353 METAR KCLM 082353Z AUTO 00000KT 7SM CLR 08/07 A3014 RMK AO2 SLP208 T00830067 10106 20067 55003=
201911082253 METAR KCLM 082253Z AUTO 03003KT 10SM CLR 10/07 A3012 RMK AO2 SLP203 T01000072=
201911082153 METAR KCLM 082153Z AUTO 00000KT 10SM CLR 10/07 A3015 RMK AO2 SLP210 T01000072=
201911082053 METAR KCLM 082053Z AUTO 00000KT 10SM CLR 10/07 A3015 RMK AO2 SLP211 T01000067 51002=
201911081953 METAR KCLM 081953Z AUTO VRB03KT 10SM CLR 09/07 A3015 RMK AO2 SLP211 T00940072=
201911081853 METAR KCLM 081853Z AUTO 00000KT 10SM CLR 09/07 A3015 RMK AO2 SLP211 T00940072=
201911081753 METAR KCLM 081753Z AUTO 00000KT 10SM CLR 07/07 A3014 RMK AO2 SLP209 T00670067 10067 20000 50002=
201911081736 SPECI KCLM 081736Z AUTO 17003KT 10SM SCT005 06/05 A3014 RMK AO2 T00560050=
201911081653 METAR KCLM 081653Z AUTO 18003KT 10SM OVC005 05/04 A3016 RMK AO2 SLP214 T00500044=
201911081633 SPECI KCLM 081633Z AUTO 21003KT 10SM BKN005 04/04 A3016 RMK AO2 T00390039=
201911081617 SPECI KCLM 081617Z AUTO 00000KT 10SM SCT005 03/03 A3016 RMK AO2 T00280028=
201911081553 METAR KCLM 081553Z AUTO 19003KT 10SM CLR 02/02 A3016 RMK AO2 SLP215 T00220022=
201911081453 METAR KCLM 081453Z AUTO 18003KT 9SM CLR 01/01 A3014 RMK AO2 SLP208 T00110011 55005=
201911081353 METAR KCLM 081353Z AUTO 00000KT 10SM CLR 01/01 A3012 RMK AO2 SLP203 T00110006=
201911081253 METAR KCLM 081253Z AUTO 00000KT 10SM CLR 01/01 A3014 RMK AO2 SLP207 T00110011=
201911081153 METAR KCLM 081153Z AUTO 00000KT 10SM CLR 01/01 A3015 RMK AO2 SLP212 I1000 I6000 T00110011 10033 20006 58007=
201911081053 METAR KCLM 081053Z AUTO 00000KT 10SM CLR 01/01 A3016 RMK AO2 SLP215 T00110006=
201911080953 METAR KCLM 080953Z AUTO 20003KT 10SM CLR 02/02 A3017 RMK AO2 SLP218 T00170017=
201911080853 METAR KCLM 080853Z AUTO 00000KT 9SM CLR 02/02 A3017 RMK AO2 SLP218 T00170017 55007=
201911080753 METAR KCLM 080753Z AUTO 00000KT 9SM CLR 03/02 A3017 RMK AO2 SLP217 T00330022 401060000=
201911080653 METAR KCLM 080653Z AUTO 00000KT 10SM CLR 02/02 A3018 RMK AO2 SLP223 T00170017=
201911080553 METAR KCLM 080553Z AUTO 16003KT 7SM CLR 02/02 A3019 RMK AO2 SLP226 T00220022 10089 20017 53000=
201911080453 METAR KCLM 080453Z AUTO 00000KT 6SM BR CLR 03/03 A3018 RMK AO2 SLP221 T00330028=
201911080353 METAR KCLM 080353Z AUTO 00000KT 7SM CLR 03/02 A3019 RMK AO2 SLP225 T00280022=
201911080253 METAR KCLM 080253Z AUTO 00000KT 7SM CLR 04/03 A3019 RMK AO2 SLP227 T00390028 53002=
201911080153 METAR KCLM 080153Z AUTO 00000KT 10SM CLR 04/03 A3017 RMK AO2 SLP221 T00440033=
201911080053 METAR KCLM 080053Z AUTO 00000KT 10SM CLR 07/04 A3018 RMK AO2 SLP223 T00720044=
201911072353 METAR KCLM 072353Z AUTO 10004KT 10SM CLR 09/04 A3018 RMK AO2 SLP223 T00890044 10106 20083 56015=
201911072253 METAR KCLM 072253Z AUTO 07005KT 10SM CLR 10/06 A3019 RMK AO2 SLP225 T01000056=
201911072153 METAR KCLM 072153Z AUTO 06004KT 10SM CLR 11/06 A3020 RMK AO2 SLP230 T01060061=
201911072053 METAR KCLM 072053Z AUTO VRB03KT 10SM CLR 09/07 A3023 RMK AO2 SLP238 T00940067 58004=
201911071953 METAR KCLM 071953Z AUTO 08006KT 10SM CLR 09/06 A3023 RMK AO2 SLP240 T00940061=
201911071853 METAR KCLM 071853Z AUTO 08006KT 10SM CLR 09/07 A3023 RMK AO2 SLP240 T00890067=
201911071753 METAR KCLM 071753Z AUTO 10005KT 10SM FEW007 08/07 A3024 RMK AO2 SLP242 I6000 T00830072 10089 20000 58002=
201911071724 SPECI KCLM 071724Z AUTO 10006KT 10SM FEW006 08/07 A3024 RMK AO2 T00830072=
201911071653 METAR KCLM 071653Z AUTO 00000KT 7SM CLR 07/07 A3024 RMK AO2 SLP243 T00720067=
201911071642 SPECI KCLM 071642Z AUTO 10003KT 5SM BR SCT005 07/07 A3024 RMK AO2 T00670067=
201911071553 METAR KCLM 071553Z AUTO 15003KT 8SM OVC006 04/04 A3025 RMK AO2 SLP246 T00390039=
201911071536 SPECI KCLM 071536Z AUTO 00000KT 7SM BKN007 BKN011 03/03 A3025 RMK AO2 T00280028=
201911071524 SPECI KCLM 071524Z AUTO 00000KT 6SM BR FEW007 SCT011 03/02 A3025 RMK AO2 T00280022=
201911071453 METAR KCLM 071453Z AUTO 00000KT 10SM OVC010 02/02 A3024 RMK AO2 SLP244 I3000 T00220022 53001=
201911071450 SPECI KCLM 071450Z AUTO 00000KT 10SM OVC010 02/02 A3024 RMK AO2=
201911071413 SPECI KCLM 071413Z AUTO 18003KT 10SM OVC005 01/01 A3024 RMK AO2 CIG 004V007 T00110011=
201911071353 METAR KCLM 071353Z AUTO 00000KT 10SM BKN004 01/01 A3024 RMK AO2 SLP243 T00060006=
201911071344 SPECI KCLM 071344Z AUTO 00000KT 10SM SCT004 01/00 A3024 RMK AO2 T00060000=
201911071253 METAR KCLM 071253Z AUTO 20003KT 10SM CLR 01/01 A3025 RMK AO2 SLP244 I1000 T00110006=
201911071153 METAR KCLM 071153Z AUTO 00000KT 10SM CLR 02/01 A3024 RMK AO2 SLP244 T00170011 10039 20006 55011=
201911071053 METAR KCLM 071053Z AUTO 00000KT 10SM CLR 01/01 A3024 RMK AO2 SLP243 T00110006=
201911070953 METAR KCLM 070953Z AUTO 00000KT 10SM CLR 02/01 A3026 RMK AO2 SLP250 T00170011=
201911070853 METAR KCLM 070853Z AUTO 20003KT 10SM CLR 02/02 A3028 RMK AO2 SLP255 T00220017 53002=
201911070753 METAR KCLM 070753Z AUTO 00000KT 10SM CLR 02/02 A3026 RMK AO2 SLP249 T00220017 401060017=
201911070653 METAR KCLM 070653Z AUTO 00000KT 10SM CLR 03/02 A3026 RMK AO2 SLP250 T00330022=
201911070553 METAR KCLM 070553Z AUTO 00000KT 9SM CLR 03/03 A3027 RMK AO2 SLP253 T00280028 10094 20022 53001=
201911070453 METAR KCLM 070453Z AUTO 00000KT 10SM CLR 04/04 A3027 RMK AO2 SLP252 T00440039=
201911070353 METAR KCLM 070353Z AUTO 00000KT 9SM CLR 04/03 A3027 RMK AO2 SLP251 T00390028=
201911070253 METAR KCLM 070253Z AUTO 00000KT 9SM CLR 04/04 A3027 RMK AO2 SLP252 T00440039 58003=
201911070153 METAR KCLM 070153Z AUTO 00000KT 10SM CLR 06/04 A3027 RMK AO2 SLP254 T00560044=
201911070053 METAR KCLM 070053Z AUTO 14004KT 10SM CLR 07/05 A3027 RMK AO2 SLP253 T00720050=
201911062353 METAR KCLM 062353Z AUTO 08004KT 10SM CLR 10/06 A3028 RMK AO2 SLP255 T01000056 10106 20094 56007=
201911062253 METAR KCLM 062253Z AUTO 07004KT 10SM CLR 11/06 A3028 RMK AO2 SLP254 T01060061=
201911062153 METAR KCLM 062153Z AUTO 07004KT 10SM CLR 11/06 A3028 RMK AO2 SLP255 T01060061=
201911062053 METAR KCLM 062053Z AUTO VRB04KT 10SM CLR 10/07 A3030 RMK AO2 SLP261 T01000067 55006=
201911061953 METAR KCLM 061953Z AUTO 07005KT 10SM CLR 10/07 A3029 RMK AO2 SLP258 T01000067=
201911061853 METAR KCLM 061853Z AUTO 09007KT 10SM CLR 10/07 A3031 RMK AO2 SLP264 T01000067=
201911061753 METAR KCLM 061753Z AUTO 11006KT 10SM CLR 09/07 A3032 RMK AO2 SLP268 T00890072 10089 20017 50009=
201911061653 METAR KCLM 061653Z AUTO 15003KT 10SM CLR 06/05 A3032 RMK AO2 SLP268 T00560050=
201911061553 METAR KCLM 061553Z AUTO 00000KT 10SM CLR 04/04 A3031 RMK AO2 SLP264 T00390039=
201911061453 METAR KCLM 061453Z AUTO 00000KT 10SM CLR 02/02 A3029 RMK AO2 SLP258 T00220022 51010=
201911061353 METAR KCLM 061353Z AUTO 12005KT 10SM FEW018 06/05 A3028 RMK AO2 SLP256 T00560050=
201911061253 METAR KCLM 061253Z AUTO 11007KT 10SM FEW016 05/03 A3027 RMK AO2 SLP252 T00500033=
201911061153 METAR KCLM 061153Z AUTO 12005KT 10SM CLR 06/04 A3026 RMK AO2 SLP247 T00560044 10083 20039 51006=
201911061125 SPECI KCLM 061125Z AUTO 11005KT 10SM SCT025 07/04 A3025 RMK AO2 T00670044=
201911061053 METAR KCLM 061053Z AUTO 12005KT 10SM OVC024 08/05 A3025 RMK AO2 SLP246 T00780050=
201911060953 METAR KCLM 060953Z AUTO 10006KT 10SM OVC024 08/06 A3025 RMK AO2 SLP246 T00830061=
201911060853 METAR KCLM 060853Z AUTO 11007KT 10SM OVC024 08/06 A3024 RMK AO2 SLP241 T00780061 50000=
201911060753 METAR KCLM 060753Z AUTO 11006KT 10SM OVC027 08/06 A3025 RMK AO2 SLP243 T00830061 401280028=
201911060653 METAR KCLM 060653Z AUTO 13007KT 10SM OVC027 07/05 A3024 RMK AO2 SLP242 T00670050=
201911060553 METAR KCLM 060553Z AUTO 13004KT 8SM BKN027 04/03 A3024 RMK AO2 SLP242 T00390028 10100 20028 51010=
201911060548 SPECI KCLM 060548Z AUTO 00000KT 9SM BKN027 03/03 A3024 RMK AO2=
201911060453 METAR KCLM 060453Z AUTO 13005KT 6SM BR CLR 04/03 A3022 RMK AO2 SLP236 T00390033=
201911060353 METAR KCLM 060353Z AUTO 12005KT 10SM CLR 04/04 A3021 RMK AO2 SLP232 T00440039=
201911060253 METAR KCLM 060253Z AUTO 12004KT 10SM CLR 06/04 A3020 RMK AO2 SLP229 T00610044 55001=
201911060153 METAR KCLM 060153Z AUTO 13004KT 10SM CLR 05/04 A3020 RMK AO2 SLP228 T00500044=
201911060053 METAR KCLM 060053Z AUTO 09004KT 10SM CLR 08/05 A3019 RMK AO2 SLP225 T00830050=
201911052353 METAR KCLM 052353Z AUTO 08005KT 10SM CLR 11/06 A3020 RMK AO2 SLP228 T01060056 10128 20106 56004=
201911052318 SPECI KCLM 052318Z AUTO 06006KT 10SM FEW027 11/06 A3020 RMK AO2 T01110056=
201911052253 METAR KCLM 052253Z AUTO 09006KT 10SM BKN027 11/06 A3020 RMK AO2 SLP229 T01110056=
201911052153 METAR KCLM 052153Z AUTO 06005KT 10SM OVC028 12/06 A3021 RMK AO2 SLP231 T01170061=
201911052053 METAR KCLM 052053Z AUTO VRB06KT 10SM BKN027 12/06 A3022 RMK AO2 SLP233 T01220061 58003=
201911051953 METAR KCLM 051953Z AUTO VRB04KT 10SM OVC027 12/06 A3022 RMK AO2 SLP235 T01220061=
201911051853 METAR KCLM 051853Z AUTO 11004KT 10SM OVC025 11/06 A3023 RMK AO2 SLP237 T01110061=
201911051753 METAR KCLM 051753Z AUTO 00000KT 10SM OVC026 11/07 A3022 RMK AO2 SLP236 T01060067 10106 20072 51006=
201911051653 METAR KCLM 051653Z AUTO 22004KT 10SM OVC025 09/06 A3022 RMK AO2 SLP235 T00890056=
201911051553 METAR KCLM 051553Z AUTO 26003KT 10SM OVC026 08/05 A3022 RMK AO2 SLP234 T00780050=
201911051453 METAR KCLM 051453Z AUTO 17003KT 10SM OVC025 08/06 A3021 RMK AO2 SLP230 T00780056 58002=
201911051353 METAR KCLM 051353Z AUTO 21004KT 10SM OVC023 08/05 A3022 RMK AO2 SLP233 T00780050=
201911051253 METAR KCLM 051253Z AUTO 21004KT 10SM OVC022 08/06 A3021 RMK AO2 SLP232 T00780056=
201911051153 METAR KCLM 051153Z AUTO 12003KT 10SM OVC022 09/07 A3021 RMK AO2 SLP232 T00940067 10100 20089 58004=
201911051053 METAR KCLM 051053Z AUTO 16006KT 10SM OVC022 09/07 A3022 RMK AO2 SLP233 T00940067=
201911050953 METAR KCLM 050953Z AUTO 15004KT 10SM OVC015 09/07 A3023 RMK AO2 SLP236 T00890067=
201911050853 METAR KCLM 050853Z AUTO 00000KT 10SM OVC015 09/07 A3023 RMK AO2 SLP236 T00940067 57000=
201911050817 SPECI KCLM 050817Z AUTO 11003KT 10SM OVC015 09/07 A3023 RMK AO2 T00940067=
201911050753 METAR KCLM 050753Z AUTO 15004KT 10SM OVC014 09/07 A3023 RMK AO2 SLP236 T00890067 401060006=
201911050653 METAR KCLM 050653Z AUTO 11003KT 10SM OVC013 09/07 A3023 RMK AO2 SLP237 T00940067=
201911050553 METAR KCLM 050553Z AUTO 11007KT 10SM OVC014 09/07 A3023 RMK AO2 SLP237 T00940067 10106 20094 53004=
201911050453 METAR KCLM 050453Z AUTO 09003KT 10SM OVC016 10/07 A3022 RMK AO2 SLP234 T01000067=
201911050353 METAR KCLM 050353Z AUTO 07003KT 10SM OVC016 09/07 A3022 RMK AO2 SLP234 T00940072=
201911050253 METAR KCLM 050253Z AUTO 07004KT 10SM OVC018 10/07 A3021 RMK AO2 SLP233 T01000072 55000=
201911050153 METAR KCLM 050153Z AUTO 00000KT 10SM OVC019 10/07 A3021 RMK AO2 SLP232 T01000072=
201911050053 METAR KCLM 050053Z AUTO VRB04KT 10SM OVC019 10/07 A3021 RMK AO2 SLP230 T01000072=
201911042353 METAR KCLM 042353Z AUTO 09004KT 10SM OVC018 11/07 A3021 RMK AO2 SLP233 T01060072 10106 20094 55003=
201911042253 METAR KCLM 042253Z AUTO VRB03KT 10SM OVC020 11/08 A3021 RMK AO2 SLP231 T01060078=
201911042153 METAR KCLM 042153Z AUTO VRB03KT 10SM OVC021 11/08 A3022 RMK AO2 SLP235 T01060083=
201911042053 METAR KCLM 042053Z AUTO 04004KT 10SM OVC021 09/08 A3022 RMK AO2 SLP237 T00940083 58006=
201911041953 METAR KCLM 041953Z AUTO 00000KT 9SM OVC019 09/08 A3024 RMK AO2 SLP242 T00940083=
201911041853 METAR KCLM 041853Z AUTO VRB05KT 10SM OVC017 11/08 A3025 RMK AO2 SLP245 T01060083=
201911041753 METAR KCLM 041753Z AUTO 06003KT 10SM OVC017 09/08 A3024 RMK AO2 SLP243 T00940078 10100 20061 53006=
201911041653 METAR KCLM 041653Z AUTO 00000KT 10SM OVC018 09/07 A3023 RMK AO2 SLP240 T00890072=
201911041553 METAR KCLM 041553Z AUTO 00000KT 10SM OVC019 07/06 A3023 RMK AO2 SLP238 T00670056=
201911041453 METAR KCLM 041453Z AUTO 23003KT 10SM OVC020 06/06 A3022 RMK AO2 SLP237 T00610056 53001=
201911041353 METAR KCLM 041353Z AUTO 00000KT 10SM OVC022 06/06 A3022 RMK AO2 SLP236 T00610056=
201911041253 METAR KCLM 041253Z AUTO 21003KT 10SM OVC022 06/06 A3022 RMK AO2 SLP235 T00610056=
201911041153 METAR KCLM 041153Z AUTO 10003KT 10SM OVC025 09/07 A3022 RMK AO2 SLP234 T00890072 10089 20006 54000=
201911041053 METAR KCLM 041053Z AUTO 13007KT 10SM OVC024 09/07 A3022 RMK AO2 SLP234 T00890072=
201911041016 SPECI KCLM 041016Z AUTO 13007KT 10SM BKN022 04/03 A3022 RMK AO2 T00390033=
201911040953 METAR KCLM 040953Z AUTO 16003KT 10SM CLR 01/01 A3022 RMK AO2 SLP236 T00110011=
201911040917 SPECI KCLM 040917Z AUTO 00000KT 9SM CLR 02/02 A3022 RMK AO2 T00220017=
201911040853 METAR KCLM 040853Z AUTO 22003KT 2SM BR CLR 02/02 A3022 RMK AO2 SLP236 T00170017 56001=
201911040753 METAR KCLM 040753Z AUTO 00000KT 6SM BR CLR 03/02 A3023 RMK AO2 SLP238 T00280022 401220011=
201911040653 METAR KCLM 040653Z AUTO 21003KT 10SM CLR 03/03 A3021 RMK AO2 SLP233 T00280028=
201911040553 METAR KCLM 040553Z AUTO 20003KT 10SM CLR 03/03 A3022 RMK AO2 SLP236 T00280028 10100 20028 53007=
201911040453 METAR KCLM 040453Z AUTO 00000KT 8SM CLR 03/03 A3020 RMK AO2 SLP230 T00330033=
201911040353 METAR KCLM 040353Z AUTO 00000KT 10SM CLR 03/03 A3019 RMK AO2 SLP226 T00330028=
201911040253 METAR KCLM 040253Z AUTO 00000KT 8SM CLR 06/05 A3020 RMK AO2 SLP230 T00560050 55002=
201911040153 METAR KCLM 040153Z AUTO 00000KT 9SM CLR 06/05 A3019 RMK AO2 SLP227 T00560050=
201911040053 METAR KCLM 040053Z AUTO 13003KT 10SM CLR 08/06 A3020 RMK AO2 SLP230 T00830061=
201911032353 METAR KCLM 032353Z AUTO 10004KT 10SM CLR 10/07 A3021 RMK AO2 SLP231 T01000067 10122 20089 56008=
201911032336 SPECI KCLM 032336Z AUTO 08005KT 10SM SCT022 10/07 A3021 RMK AO2 T01000067=
201911032314 SPECI KCLM 032314Z AUTO 07006KT 10SM BKN022 11/07 A3022 RMK AO2 T01110067=
201911032253 METAR KCLM 032253Z AUTO 08008KT 10SM FEW022 12/07 A3021 RMK AO2 SLP233 T01170067=
201911032153 METAR KCLM 032153Z AUTO 07005KT 10SM CLR 12/07 A3022 RMK AO2 SLP234 T01170072=
201911032117 SPECI KCLM 032117Z AUTO 10007KT 10SM SCT019 11/07 A3022 RMK AO2 T01110072=
201911032053 METAR KCLM 032053Z AUTO 12007KT 10SM BKN020 12/07 A3023 RMK AO2 SLP240 T01170072 58003=
201911032033 SPECI KCLM 032033Z AUTO 11008KT 10SM SCT016 11/07 A3023 RMK AO2 T01110072=
201911031953 METAR KCLM 031953Z AUTO 09007KT 10SM OVC018 11/07 A3025 RMK AO2 SLP245 T01060072=
201911031853 METAR KCLM 031853Z AUTO 10007KT 10SM OVC017 10/08 A3026 RMK AO2 SLP249 T01000078=
201911031753 METAR KCLM 031753Z AUTO VRB04KT 10SM OVC018 09/08 A3024 RMK AO2 SLP243 T00940078 10094 20011 53001=
201911031653 METAR KCLM 031653Z AUTO 00000KT 6SM BR OVC018 07/07 A3024 RMK AO2 SLP244 T00720067=
201911031553 METAR KCLM 031553Z AUTO 21003KT 10SM OVC018 06/06 A3023 RMK AO2 SLP240 T00560056=
201911031453 METAR KCLM 031453Z AUTO 00000KT 9SM OVC018 04/04 A3024 RMK AO2 SLP242 T00390039 53003=
201911031420 SPECI KCLM 031420Z AUTO 18003KT 9SM BKN019 02/02 A3023 RMK AO2 T00220022=
201911031353 METAR KCLM 031353Z AUTO 00000KT 10SM CLR 02/02 A3022 RMK AO2 SLP235 T00220017=
201911031259 SPECI KCLM 031259Z AUTO 21004KT 6SM BR SCT001 03/03 A3022 RMK AO2 T00280028=
201911031253 METAR KCLM 031253Z AUTO 22004KT 2 1/2SM BR BKN001 03/03 A3022 RMK AO2 SLP236 T00280028=
201911031239 SPECI KCLM 031239Z AUTO 21003KT 1/2SM FG VV001 03/03 A3023 RMK AO2 T00330033=
201911031234 SPECI KCLM 031234Z AUTO 21003KT 1/4SM FG VV002 03/03 A3023 RMK AO2 T00330033=
201911031223 SPECI KCLM 031223Z AUTO 00000KT 1/2SM FG VV002 03/03 A3023 RMK AO2 T00330028=
201911031158 SPECI KCLM 031158Z AUTO 00000KT 1/4SM FG VV002 03/03 A3023 RMK AO2 T00330033=
201911031153 METAR KCLM 031153Z AUTO 00000KT 1 1/4SM BR OVC002 04/04 A3023 RMK AO2 VIS 1/4V5 SLP238 T00390039 10050 20011 55002=
201911031132 SPECI KCLM 031132Z AUTO 00000KT 9SM OVC001 04/04 A3023 RMK AO2 T00390039=
201911031116 SPECI KCLM 031116Z AUTO 22003KT 3SM BR OVC002 03/03 A3023 RMK AO2 T00330033=
201911031113 SPECI KCLM 031113Z AUTO 00000KT 1 1/4SM BR OVC002 03/03 A3023 RMK AO2 T00330033=
201911031055 SPECI KCLM 031055Z AUTO 00000KT 1/4SM FG VV002 03/03 A3022 RMK AO2 T00330028=
201911031053 METAR KCLM 031053Z AUTO 00000KT 1/2SM FG VV001 03/03 A3022 RMK AO2 SLP236 T00280028=
201911031050 SPECI KCLM 031050Z AUTO 00000KT 3/4SM BR VV001 03/03 A3022 RMK AO2=
201911031046 SPECI KCLM 031046Z AUTO 00000KT 3SM BR BKN001 03/03 A3022 RMK AO2 T00330033=
201911031038 SPECI KCLM 031038Z AUTO 00000KT 2SM BR BKN001 04/04 A3022 RMK AO2 T00390039=
201911031024 SPECI KCLM 031024Z AUTO 15004KT 3/4SM BR VV001 05/05 A3022 RMK AO2 T00500050=
201911031020 SPECI KCLM 031020Z AUTO 16004KT 1 1/2SM BR OVC002 05/05 A3023 RMK AO2 VIS 3/4V5 T00500050=
201911030953 METAR KCLM 030953Z AUTO 22003KT 8SM BKN002 03/03 A3024 RMK AO2 SLP241 T00330028=
201911030948 SPECI KCLM 030948Z AUTO 00000KT 8SM SCT002 03/02 A3023 RMK AO2=
201911030853 METAR KCLM 030853Z AUTO 16003KT 4SM BR CLR 02/02 A3024 RMK AO2 SLP241 T00220022 55003=
201911030847 SPECI KCLM 030847Z AUTO 00000KT 3SM BR CLR 03/03 A3024 RMK AO2=
201911030831 SPECI KCLM 030831Z AUTO 00000KT 1 3/4SM BR CLR 03/03 A3023 RMK AO2 VIS 1V4 T00280028=
201911030753 METAR KCLM 030753Z AUTO 00000KT 10SM CLR 02/02 A3023 RMK AO2 SLP240 T00220017 401221006=
201911030653 METAR KCLM 030653Z AUTO 22003KT 8SM CLR 04/03 A3024 RMK AO2 SLP244 T00390033=
201911030553 METAR KCLM 030553Z AUTO 00000KT 9SM CLR 03/03 A3024 RMK AO2 SLP243 T00280028 10106 20022 51004=
201911030453 METAR KCLM 030453Z AUTO 00000KT 8SM CLR 03/03 A3024 RMK AO2 SLP243 T00330033=
201911030353 METAR KCLM 030353Z AUTO 00000KT 10SM CLR 04/04 A3025 RMK AO2 SLP245 T00440039=
201911030253 METAR KCLM 030253Z AUTO 11003KT 10SM CLR 05/04 A3023 RMK AO2 SLP240 T00500039 56007=
201911030153 METAR KCLM 030153Z AUTO 19003KT 10SM CLR 06/05 A3023 RMK AO2 SLP241 T00610050=
201911030053 METAR KCLM 030053Z AUTO 00000KT 10SM CLR 08/06 A3024 RMK AO2 SLP241 T00830056=
201911022353 METAR KCLM 022353Z AUTO 00000KT 10SM CLR 11/06 A3025 RMK AO2 SLP247 T01060061 10122 20094 56015=
201911022253 METAR KCLM 022253Z AUTO VRB03KT 10SM CLR 12/06 A3026 RMK AO2 SLP249 T01170056=
201911022153 METAR KCLM 022153Z AUTO VRB03KT 10SM CLR 12/06 A3028 RMK AO2 SLP254 T01220056=
201911022053 METAR KCLM 022053Z AUTO 11005KT 10SM CLR 12/06 A3030 RMK AO2 SLP262 T01170061 58013=
201911021953 METAR KCLM 021953Z AUTO 05004KT 10SM CLR 11/07 A3031 RMK AO2 SLP265 T01110072=
201911021853 METAR KCLM 021853Z AUTO 11004KT 10SM CLR 11/07 A3033 RMK AO2 SLP274 T01060072=
201911021753 METAR KCLM 021753Z AUTO 08003KT 10SM CLR 09/07 A3034 RMK AO2 SLP275 T00940072 10094 20000 50000=
201911021728 SPECI KCLM 021728Z AUTO 10005KT 10SM FEW006 08/07 A3034 RMK AO2 T00830072=
201911021653 METAR KCLM 021653Z AUTO 12004KT 10SM BKN005 07/07 A3035 RMK AO2 SLP279 T00720067=
201911021642 SPECI KCLM 021642Z AUTO 13004KT 10SM FEW005 06/06 A3034 RMK AO2 T00610056=
201911021553 METAR KCLM 021553Z AUTO 14003KT 10SM CLR 01/01 A3033 RMK AO2 SLP275 T00110011=
201911021453 METAR KCLM 021453Z AUTO 00000KT 10SM CLR 01/01 A3033 RMK AO2 SLP275 T00110011 58009=
201911021353 METAR KCLM 021353Z AUTO 14003KT 10SM CLR 01/01 A3034 RMK AO2 SLP278 T00060006=
201911021253 METAR KCLM 021253Z AUTO 19003KT 10SM CLR 01/01 A3036 RMK AO2 SLP281 T00060006=
201911021153 METAR KCLM 021153Z AUTO 00000KT 10SM CLR 01/00 A3036 RMK AO2 SLP283 T00060000 10022 21006 56014=
201911021053 METAR KCLM 021053Z AUTO 19003KT 10SM CLR 01/00 A3037 RMK AO2 SLP288 T00110000=
201911020953 METAR KCLM 020953Z AUTO 00000KT 10SM CLR 00/M01 A3039 RMK AO2 SLP292 T00001006=
201911020853 METAR KCLM 020853Z AUTO 00000KT 10SM CLR 01/00 A3040 RMK AO2 SLP297 T00060000 56005=
201911020753 METAR KCLM 020753Z AUTO 00000KT 10SM CLR 01/01 A3040 RMK AO2 SLP298 T00060006 400941006=
201911020653 METAR KCLM 020653Z AUTO 00000KT 10SM CLR 02/01 A3041 RMK AO2 SLP300 T00170006=
201911020553 METAR KCLM 020553Z AUTO 15003KT 9SM CLR 02/01 A3042 RMK AO2 SLP302 T00170011 10083 20011 55002=
201911020453 METAR KCLM 020453Z AUTO 00000KT 7SM CLR 02/02 A3041 RMK AO2 SLP301 T00220017=
201911020353 METAR KCLM 020353Z AUTO 00000KT 10SM CLR 04/03 A3041 RMK AO2 SLP301 T00390028=
201911020253 METAR KCLM 020253Z AUTO 18004KT 10SM CLR 03/03 A3042 RMK AO2 SLP305 T00330028 56008=
201911020153 METAR KCLM 020153Z AUTO 17004KT 10SM CLR 04/04 A3043 RMK AO2 SLP308 T00440039=
201911020053 METAR KCLM 020053Z AUTO 15003KT 10SM CLR 07/04 A3044 RMK AO2 SLP310 T00670044=
201911012353 METAR KCLM 012353Z AUTO 07006KT 10SM CLR 08/05 A3045 RMK AO2 SLP312 T00830050 10094 20083 56012=
201911012253 METAR KCLM 012253Z AUTO 07004KT 10SM CLR 09/06 A3046 RMK AO2 SLP316 T00940056=
201911012153 METAR KCLM 012153Z AUTO VRB04KT 10SM CLR 09/05 A3047 RMK AO2 SLP320 T00890050=
201911012053 METAR KCLM 012053Z AUTO 08005KT 10SM CLR 09/06 A3048 RMK AO2 SLP324 T00890056 58004=
201911011953 METAR KCLM 011953Z AUTO 07008KT 10SM CLR 08/05 A3049 RMK AO2 SLP328 T00830050=
201911011853 METAR KCLM 011853Z AUTO 06006KT 10SM CLR 09/05 A3051 RMK AO2 SLP333 T00890050=
201911011753 METAR KCLM 011753Z AUTO 07007KT 10SM CLR 08/03 A3050 RMK AO2 SLP329 T00830033 10083 21006 51003=
201911011653 METAR KCLM 011653Z AUTO 00000KT 10SM CLR 05/04 A3050 RMK AO2 SLP330 T00500039=
201911011553 METAR KCLM 011553Z AUTO 21004KT 7SM CLR 01/01 A3050 RMK AO2 SLP330 T00110011=
201911011453 METAR KCLM 011453Z AUTO 00000KT 4SM BR CLR 00/M01 A3049 RMK AO2 SLP327 T00001006 53001 FZRANO $=
201911011353 METAR KCLM 011353Z AUTO 00000KT 7SM CLR 01/00 A3048 RMK AO2 SLP323 T00060000 FZRANO $=
201911011253 METAR KCLM 011253Z AUTO 22004KT 10SM CLR 00/M01 A3049 RMK AO2 SLP327 T00001006 FZRANO $=
201911011153 METAR KCLM 011153Z AUTO 00000KT 8SM CLR 00/00 A3048 RMK AO2 SLP325 T00000000 10017 21011 53002=
201911011053 METAR KCLM 011053Z AUTO 00000KT 10SM FEW022 01/01 A3047 RMK AO2 SLP321 T00110006=
201911011050 SPECI KCLM 011050Z AUTO 00000KT 10SM SCT022 01/01 A3047 RMK AO2=
201911010953 METAR KCLM 010953Z AUTO 20003KT 10SM BKN027 00/00 A3048 RMK AO2 SLP323 T00000000=
201911010853 METAR KCLM 010853Z AUTO 22005KT 9SM CLR 00/00 A3047 RMK AO2 SLP320 T00000000 51010=
201911010753 METAR KCLM 010753Z AUTO 00000KT 10SM CLR 01/01 A3047 RMK AO2 SLP319 T00060006 401001017=
201911010653 METAR KCLM 010653Z AUTO 00000KT 9SM CLR 01/00 A3045 RMK AO2 SLP313 T00060000=
201911010553 METAR KCLM 010553Z AUTO 00000KT 8SM CLR 01/01 A3044 RMK AO2 SLP309 T00110011 10089 20006 51015=
201911010453 METAR KCLM 010453Z AUTO 00000KT 9SM CLR 01/01 A3043 RMK AO2 SLP307 T00110006=
201911010353 METAR KCLM 010353Z AUTO 00000KT 10SM CLR 01/01 A3041 RMK AO2 SLP301 T00060006=
201911010253 METAR KCLM 010253Z AUTO 00000KT 9SM CLR 02/01 A3039 RMK AO2 SLP295 T00170006 51005=
201911010153 METAR KCLM 010153Z AUTO 21003KT 10SM CLR 04/03 A3039 RMK AO2 SLP294 T00390028=
201911010053 METAR KCLM 010053Z AUTO 00000KT 10SM CLR 07/04 A3039 RMK AO2 SLP292 T00670044=

# No short TAF reports from KCLM in databse.

###################################
#  large TAF from KCLM
###################################
201911302322 TAF KCLM 302322Z 0100/0124 10005KT P6SM FEW250 FM010400 23004KT
                       P6SM BKN200 FM011000 23004KT P6SM BKN080
                       OVC200 FM011900 08005KT P6SM BKN040 OVC080
                       PROB30 0119/0124 -RA OVC030=
201911301720 TAF KCLM 301720Z 3018/0118 09005KT P6SM SCT020
                      TEMPO 3018/3021 BKN020 FM010100 21004KT P6SM
                       SCT250 FM010600 23004KT P6SM BKN200 FM011000
                       23004KT P6SM BKN080 OVC200=
201911301120 TAF KCLM 301120Z 3012/0112 22005KT P6SM SKC FM302100 08005KT P6SM
                       SCT250 FM010100 14003KT P6SM SCT250 FM010600
                       22005KT P6SM SCT100 BKN250=
201911300521 TAF KCLM 300521Z 3006/0106 VRB04KT P6SM SKC FM302100 08005KT P6SM
                       SCT250 FM010100 14003KT P6SM SCT250=
201911292320 TAF KCLM 292320Z 3000/3024 VRB03KT P6SM SKC FM302100 VRB03KT P6SM
                       BKN200=
201911291720 TAF KCLM 291720Z 2918/3018 23006KT P6SM SKC FM292100 10005KT P6SM
                       SKC FM300300 22003KT P6SM SKC=
201911291120 TAF KCLM 291120Z 2912/3012 22008KT P6SM SKC FM291800 18007KT P6SM
                       SKC FM292100 10005KT P6SM SKC FM300300 22003KT
                       P6SM SKC=
201911290524 TAF KCLM 290524Z 2906/3006 VRB06KT P6SM SKC FM291000 22008KT P6SM
                       SKC FM291800 18007KT P6SM SKC FM292100 09005KT
                       P6SM SKC FM300300 22003KT P6SM SKC=
201911282320 TAF KCLM 282320Z 2900/2924 VRB05KT P6SM SKC=
201911281720 TAF KCLM 281720Z 2818/2918 VRB05KT P6SM FEW100 FM282200 09009KT
                       P6SM FEW100 FM290000 11007KT P6SM FEW250
                       FM290600 VRB04KT P6SM FEW250=
201911281120 TAF KCLM 281120Z 2812/2912 VRB03KT P6SM SCT200 FM281600 14008KT
                       P6SM SCT200 FM282200 09009KT P6SM SCT140
                       SCT200 FM290000 11007KT P6SM SCT250 FM290600
                       23006KT P6SM SKC=
201911280529 TAF KCLM 280529Z 2806/2906 09008KT P6SM SCT050 BKN070
                      TEMPO 2806/2810 07010G20KT FM281500 14008KT
                       P6SM SCT140 SCT200 FM282200 09009KT P6SM
                       SCT140 SCT200 FM290000 11007KT P6SM SCT250=
201911272330 TAF KCLM 272330Z 2800/2824 04010G18KT P6SM OVC080 FM280600 05010KT
                       P6SM SCT080 FM281500 05008KT P6SM SCT140
                       SCT200=
201911272112 KCLM 272112Z 2721/2818 05010G20KT P6SM OVC080 FM272300 04010G18KT
                       P6SM BKN080 FM280300 05010KT P6SM SCT080
                       FM280600 05008KT P6SM SCT140 BKN200=
201911271726 TAF KCLM 271726Z 2718/2818 05010G20KT P6SM VCSH SCT030 OVC080
                      TEMPO 2718/2722 BKN030 FM272200 04011G18KT
                       P6SM FEW030 BKN080 FM280300 05010KT P6SM
                       SCT080 FM280600 05008KT P6SM SCT140 BKN200=
201911271120 TAF KCLM 271120Z 2712/2812 03015G25KT P6SM OVC080 FM272200 12011G18KT
                       P6SM SKC FM280300 13010KT P6SM SKC FM280600
                       23010KT P6SM SKC=
201911270537 TAF KCLM 270537Z 2706/2806 03015G25KT P6SM SCT040 OVC080 FM272200
                       12011G18KT P6SM SKC FM280300 13010KT P6SM
                       SKC=
201911270308 KCLM 270308Z 2703/2724 05010G20KT P6SM FEW020 SCT025 OVC050
                      TEMPO 2703/2705 BKN025 OVC040 FM270600 03015G25KT
                       P6SM SCT040 BKN070 BKN150=
201911262323 KCLM 262323Z 2623/2724 07010KT P6SM SCT025 BKN040 OVC070
                      TEMPO 2700/2704 BKN025 OVC040 FM270600 03015G25KT
                       P6SM SCT040 BKN070 BKN150=
201911262320 TAF KCLM 262320Z 2700/2724 07010KT P6SM BKN025 OVC040 FM270600
                       03015G25KT P6SM SCT040 BKN070 BKN150=
201911262219 KCLM 262219Z 2622/2718 07007KT P6SM BKN020 BKN030 OVC040 FM270200
                       03015G25KT P6SM SCT040 BKN070 BKN150=
201911261727 TAF KCLM 261727Z 2618/2718 22005KT P6SM FEW015 BKN150 FM262000
                       09008KT P6SM BKN150 FM270200 03015G25KT
                       P6SM BKN150=
201911261513 KCLM 261513Z 2615/2712 23005KT P6SM BKN010 OVC015 FM261800 10007KT
                       P6SM SCT050 OVC100 FM270400 24012G22KT P6SM
                       OVC100=
201911261136 TAF KCLM 261136Z 2612/2712 24006KT P6SM VCSH BKN060 BKN100 FM261800
                       10007KT P6SM OVC100 FM270400 24012G22KT
                       P6SM OVC100=
201911260534 TAF KCLM 260534Z 2606/2706 24008KT P6SM SCT250 FM260800 24005KT
                       P6SM SCT040 SCT250 FM261800 09005KT P6SM
                       OVC150 FM270400 23009KT P6SM OVC150=
201911252320 TAF KCLM 252320Z 2600/2624 29008KT P6SM FEW035 FM260800 24005KT
                       P6SM SCT040 BKN200 FM261800 09005KT P6SM
                       FEW050 BKN150=
201911251723 TAF KCLM 251723Z 2518/2618 28008KT P6SM SCT040 FM260800 24005KT
                       P6SM SCT040 BKN200 FM261200 23004KT P6SM
                       BKN040 BKN200=
201911251125 TAF KCLM 251125Z 2512/2612 27010KT P6SM VCSH BKN030 BKN050 FM251600
                       26012KT P6SM SCT050 FM252100 30012G18KT
                       P6SM SCT050 FM260800 24006KT P6SM SCT050=
201911250540 TAF KCLM 250540Z 2506/2606 23007KT P6SM VCSH OVC040 FM250900 27010KT
                       P6SM SCT025 OVC045 FM251800 27007KT P6SM
                       BKN030 BKN050=
201911242321 TAF KCLM 242321Z 2500/2524 26012KT P6SM VCSH SCT040 BKN050 FM250900
                       27010KT P6SM BKN025 FM251800 27007KT P6SM
                       BKN030 BKN050=
201911241725 TAF KCLM 241725Z 2418/2518 26012KT P6SM FEW030 SCT040 FM242000
                       26010KT P6SM BKN050=
201911241142 TAF KCLM 241142Z 2412/2512 26012KT P6SM SCT050 FM242000 26010KT
                       P6SM BKN050=
201911240537 TAF KCLM 240537Z 2406/2506 27012KT P6SM -RA OVC050 FM241000 27015G22KT
                       P6SM OVC035 FM241800 28010G20KT P6SM BKN035
                       OVC060 FM242300 29014G22KT P6SM OVC100=
201911232320 TAF KCLM 232320Z 2400/2424 15005KT P6SM SCT040 OVC060 FM240400
                       27012KT P6SM -RA OVC015 FM241000 27015G22KT
                       P6SM OVC025 FM241800 28010G20KT P6SM BKN035
                       OVC060=
201911231748 TAF KCLM 231748Z 2318/2418 VRB05KT P6SM BKN050 OVC070 FM232200
                       27010KT P6SM OVC030 FM240400 27012KT P6SM
                       -RA OVC015 FM241000 27015G22KT P6SM OVC025=
201911231129 TAF KCLM 231129Z 2312/2412 24005KT P6SM OVC050 FM231800 VRB05KT
                       P6SM BKN050 OVC070 FM232200 27010KT P6SM
                       OVC030 FM240400 27012KT P6SM -RA OVC015
                       FM241000 27015G22KT P6SM OVC025=
201911230537 TAF KCLM 230537Z 2306/2406 22004KT P6SM SCT250 FM231000 24005KT
                       P6SM OVC025 FM231800 VRB03KT P6SM BKN050
                       OVC070 FM232100 VRB03KT P6SM VCSH OVC030
                       FM240400 27007KT P6SM OVC015=
201911222325 TAF KCLM 222325Z 2300/2324 VRB03KT P6SM SCT250 FM230600 22004KT
                       P6SM BKN015 FM231000 24005KT P6SM OVC012
                       FM231800 VRB03KT P6SM BKN030 OVC070 FM232100
                       VRB03KT P6SM VCSH OVC030=
201911221722 TAF KCLM 221722Z 2218/2318 VRB04KT P6SM SCT010
                      TEMPO 2218/2219 BKN010 FM230000 VRB03KT P6SM
                       SCT060 SCT250 FM230500 22004KT P6SM BKN060
                       FM231000 24005KT P6SM OVC040=
201911221125 TAF KCLM 221125Z 2212/2312 00000KT P6SM FEW015 SCT250
                      TEMPO 2212/2216 BKN012 FM221600 VRB04KT P6SM
                       SKC FM230000 VRB03KT P6SM SCT060 SCT250
                       FM230500 22004KT P6SM BKN060 FM231000 24005KT
                       P6SM OVC040=
201911220520 TAF KCLM 220520Z 2206/2306 24003KT P6SM SCT250 FM221400 24003KT
                       P6SM BKN015 FM221900 VRB04KT P6SM SCT250
                       FM230400 22004KT P6SM OVC050=
201911212320 TAF KCLM 212320Z 2200/2224 00000KT P6SM SKC FM220300 24003KT P6SM
                       SKC FM221400 24003KT P6SM BKN015 FM221900
                       VRB04KT P6SM SCT250=
201911211852 KCLM 211852Z 2119/2218 00000KT P6SM SCT010 FM212000 10005KT P6SM
                       SKC FM220300 24003KT P6SM SKC FM221400 24003KT
                       P6SM BKN015=
201911211720 KCLM 211720Z 2118/2218 20004KT P6SM SCT010
                      TEMPO 2118/2120 BKN010 FM212100 10005KT P6SM
                       SKC FM220300 24003KT P6SM SKC FM221400 24003KT
                       P6SM BKN015=
201911211503 KCLM 211503Z 2115/2212 22005KT P6SM SCT010
                      TEMPO 2115/2118 BKN010 FM211800 10004KT P6SM
                       SKC FM220300 24003KT P6SM SKC=
201911211129 TAF KCLM 211129Z 2112/2212 22005KT P6SM FEW250 FM211800 10004KT
                       P6SM SKC FM220300 24003KT P6SM SKC=
201911210539 TAF KCLM 210539Z 2106/2206 21004KT P6SM SKC FM211700 17003KT P6SM
                       SKC FM211800 13003KT P6SM SKC FM212000 09004KT
                       P6SM SKC FM220000 19004KT P6SM SKC=
201911202320 TAF KCLM 202320Z 2100/2124 VRB04KT P6SM SKC FM211900 08004KT P6SM
                       SKC=
201911201720 TAF KCLM 201720Z 2018/2118 VRB04KT P6SM SKC=
201911201130 TAF KCLM 201130Z 2012/2112 VRB04KT P6SM SKC=
201911200531 TAF KCLM 200531Z 2006/2106 23005KT P6SM SKC FM201700 17006KT P6SM
                       SKC FM210300 19003KT P6SM SKC=
201911192324 TAF KCLM 192324Z 2000/2024 12006KT P6SM SKC=
201911191720 TAF KCLM 191720Z 1918/2018 27007KT P6SM BKN060 FM200000 33008KT
                       P6SM SCT060 FM200800 00000KT P6SM SKC=
201911191134 TAF KCLM 191134Z 1912/2012 VRB04KT 5SM -RA BR SCT007 OVC022
                      TEMPO 1912/1916 2SM -RA BR BKN007 FM191600
                       26008KT P6SM VCSH BKN015 BKN040 FM192100
                       33008KT P6SM BKN030 BKN060 FM200000 VRB05KT
                       P6SM SCT050 SCT250 FM200700 25005KT P6SM
                       SKC=
201911190540 TAF KCLM 190540Z 1906/2006 VRB04KT 3SM -RA BR OVC003 FM191200 23005KT
                       3SM -RA BR OVC007 FM191500 32008KT P6SM
                       VCSH BKN010 BKN040 FM191800 26008KT P6SM
                       BKN015 BKN040 FM192100 33008KT P6SM BKN025=
201911182320 TAF KCLM 182320Z 1900/1924 VRB04KT 3SM -RA BR OVC007
                      TEMPO 1900/1904 2SM -RA BR OVC002 FM191500
                       32008KT P6SM VCSH BKN020 BKN040 FM191800
                       32010KT P6SM SCT025 BKN050=
201911182010 KCLM 182010Z 1820/1918 09005KT 3SM -RA BR BKN005 OVC050
                      TEMPO 1820/1823 1/4SM -RA FG VV002 FM182300
                       09006KT 3SM -RA BR OVC010 FM191700 32008KT
                       P6SM VCSH BKN020 BKN040=
201911181906 KCLM 181906Z 1819/1918 09005KT P6SM BKN005 OVC050 FM182100 09006KT
                       P6SM -RA SCT010 OVC050
                      TEMPO 1821/1901 5SM -RA BR BKN010 OVC050
                       FM190500 09006KT 5SM -RA BR OVC012 FM191700
                       32008KT P6SM VCSH BKN020 BKN040=
201911181730 TAF KCLM 181730Z 1818/1918 VRB04KT P6SM BKN015 BKN050 OVC090 FM182200
                       09006KT P6SM -RA SCT015 OVC050 FM190500
                       09006KT 5SM -RA BR OVC015 FM191700 32008KT
                       P6SM VCSH BKN020 BKN040=
201911181530 KCLM 181530Z 1816/1912 00000KT P6SM OVC006 FM181800 09006KT P6SM
                       BKN010 OVC050 FM190000 09006KT P6SM -RA
                       BKN012 OVC040 FM190300 09008KT 5SM -RA BR
                       OVC012=
201911181130 TAF KCLM 181130Z 1812/1912 24005KT P6SM OVC070 FM181800 VRB05KT
                       P6SM OVC050 FM190000 VRB02KT P6SM VCSH OVC035
                       FM190300 22002KT 5SM -RA BR OVC015=
201911180535 TAF KCLM 180535Z 1806/1906 24005KT P6SM BKN020 FM181500 23004KT
                       P6SM OVC035 FM181800 06003KT P6SM OVC020
                       FM190000 VRB02KT P6SM -RA OVC015 FM190300
                       22002KT 4SM -RA BR OVC007=
201911172324 TAF KCLM 172324Z 1800/1824 27010KT P6SM FEW020 FM180400 24005KT
                       P6SM BKN020 FM181800 12004KT P6SM BKN020
                       BKN100 OVC200=
201911171800 KCLM 171800Z 1718/1818 VRB05KT 6SM -RA BR BKN012 OVC050
                      TEMPO 1718/1720 1SM BR BKN001 FM172000 27007KT
                       P6SM SCT005 BKN018 OVC040 FM172200 29008KT
                       P6SM OVC020 FM180200 24003KT P6SM BKN020=
201911171726 TAF KCLM 171726Z 1718/1818 VRB05KT 6SM -RA BR OVC050 FM172000 27007KT
                       P6SM SCT005 BKN018 OVC040 FM172200 29008KT
                       P6SM OVC020 FM180200 24003KT P6SM BKN020=
201911171445 KCLM 171445Z 1715/1812 VRB05KT 5SM -RA BR BKN003 OVC025 FM171900
                       27007KT P6SM VCSH SCT005 BKN018 OVC040 FM172200
                       29008KT P6SM OVC020 FM180200 24003KT P6SM
                       BKN180=
201911171359 KCLM 171359Z 1714/1812 VRB05KT 5SM -RA BR OVC070 FM171900 27007KT
                       P6SM VCSH BKN018 OVC040 FM172200 29008KT
                       P6SM OVC020 FM180200 24003KT P6SM BKN180=
201911171209 KCLM 171209Z 1712/1812 VRB03KT 6SM -RA BR OVC090 FM172000 27007KT
                       5SM BR OVC015 FM172200 29008KT P6SM OVC020
                       FM180000 30006KT P6SM OVC035=
201911170754 KCLM 170754Z 1708/1806 VRB03KT 3SM BR BKN004 BKN040 OVC060
                      TEMPO 1708/1712 3/4SM -RA BR OVC004 FM172000
                       27007KT 5SM BR OVC015 FM172200 29008KT P6SM
                       OVC020 FM180000 30006KT P6SM OVC035=
201911170545 TAF KCLM 170545Z 1706/1806 VRB03KT 1/2SM FG VV002 FM170900 VRB04KT
                       3/4SM -RA BR OVC004 FM172000 27007KT P6SM
                       OVC020=
201911162330 TAF KCLM 162330Z 1700/1724 VRB04KT P6SM -RA BKN050 OVC070 FM170300
                       VRB03KT P6SM -RA BKN030 OVC050 FM170900
                       VRB04KT 4SM -RA BR OVC020 FM172000 27008KT
                       P6SM BKN030=
201911161729 TAF KCLM 161729Z 1618/1718 23005KT P6SM -RA SCT025 BKN060 OVC100
                       FM162100 VRB03KT P6SM -RA OVC025 FM170300
                       VRB03KT P6SM VCSH OVC025 FM170600 VRB04KT
                       6SM -RA BR OVC020=
201911161125 TAF KCLM 161125Z 1612/1712 23006KT P6SM SCT060 BKN200 FM161500
                       23005KT P6SM -RA OVC030 FM162100 VRB03KT
                       P6SM -RA OVC025 FM170300 VRB03KT P6SM VCSH
                       OVC025 FM170600 VRB04KT 6SM -RA BR OVC020=
201911160540 TAF KCLM 160540Z 1606/1706 25012KT P6SM SCT060 BKN200 FM161300
                       23005KT P6SM -RA OVC050 FM162100 VRB03KT
                       P6SM -RA OVC030 FM170300 VRB03KT P6SM VCSH
                       OVC025=
201911152325 TAF KCLM 152325Z 1600/1624 26007KT P6SM SCT050 FM160900 23005KT
                       P6SM OVC050 FM161800 VRB03KT P6SM VCSH BKN040
                       OVC070 FM162100 VRB03KT P6SM -RA OVC025=
201911151725 TAF KCLM 151725Z 1518/1618 26007KT P6SM VCSH SCT030 BKN070
                      TEMPO 1518/1521 5SM -SHRA BKN030 FM152200
                       27006KT P6SM SCT030 FM160900 23005KT P6SM
                       OVC050=
201911151120 TAF KCLM 151120Z 1512/1612 VRB05KT 4SM -RA BR SCT007 OVC012 FM151600
                       26007KT P6SM VCSH OVC015 FM152200 27006KT
                       P6SM SCT030 FM160900 23005KT P6SM OVC050=
201911150541 TAF KCLM 150541Z 1506/1606 VRB03KT P6SM OVC100 FM151000 23005KT
                       4SM -RA BKN007 OVC015 FM151600 26007KT P6SM
                       VCSH OVC015 FM152200 27006KT P6SM SCT030=
201911150302 KCLM 150302Z 1503/1524 VRB04KT P6SM OVC100 FM150600 23003KT P6SM
                       OVC050 FM151100 23005KT 4SM -RA BKN006 OVC015
                       FM151800 27007KT P6SM SCT025 BKN030=
201911142323 TAF KCLM 142323Z 1500/1524 24005KT P6SM BKN008 BKN120 OVC200 FM150600
                       23003KT P6SM BKN008 OVC050 FM151100 23005KT
                       4SM -RA BKN006 OVC015 FM151800 27007KT P6SM
                       SCT025 BKN030=
201911142107 KCLM 142107Z 1421/1518 24005KT P6SM BKN012 BKN150 OVC200 FM150400
                       23003KT P6SM OVC050 FM150800 23003KT P6SM
                       -RA OVC025=
201911141723 TAF KCLM 141723Z 1418/1518 24003KT P6SM BKN013 BKN200 FM142000
                       24005KT P6SM FEW015 BKN100 BKN200 FM150400
                       23003KT P6SM OVC050 FM150800 23003KT P6SM
                       -RA OVC025=
201911141557 KCLM 141557Z 1416/1512 23003KT P6SM FEW004 OVC011 FM141800 24003KT
                       P6SM FEW010 OVC100 FM150400 23003KT P6SM
                       OVC050 FM150800 23003KT P6SM -RA OVC025=
201911141128 TAF KCLM 141128Z 1412/1512 VRB02KT 4SM BR OVC003 FM141800 VRB03KT
                       P6SM OVC100 FM150400 23003KT P6SM OVC050
                       FM150800 23003KT P6SM -RA OVC025=
201911140902 KCLM 140902Z 1409/1506 VRB02KT 4SM BR OVC007 FM141800 12003KT P6SM
                       OVC100 FM150100 18003KT P6SM OVC070 FM150400
                       23003KT P6SM OVC050=
201911140535 TAF KCLM 140535Z 1406/1506 13005KT P6SM BKN010 OVC015
                      TEMPO 1406/1410 2SM BR OVC003 FM141800 12003KT
                       P6SM OVC100 FM150100 18003KT P6SM OVC070
                       FM150400 23003KT P6SM OVC050=
201911140037 KCLM 140037Z 1401/1424 07004KT P6SM FEW004 SCT008 OVC020
                      TEMPO 1401/1402 5SM BR SCT004 BKN015 OVC020
                       FM140200 VRB03KT P6SM SCT020 BKN250
                      TEMPO 1402/1405 BKN020 BKN250 FM141400 VRB03KT
                       P6SM BKN150 OVC250=
201911132320 KCLM 132320Z 1400/1424 07004KT P6SM FEW004 SCT008 OVC020
                      TEMPO 1400/1402 4SM BR SCT004 BKN008 OVC020
                       FM140200 VRB03KT P6SM SCT020 BKN250
                      TEMPO 1402/1405 BKN020 BKN250 FM141400 VRB03KT
                       P6SM BKN150 OVC250=
201911132002 KCLM 132002Z 1320/1418 10005KT 3SM BR OVC003 FM132200 08005KT P6SM
                       OVC007 FM140300 VRB03KT P6SM BKN250=
201911131720 TAF KCLM 131720Z 1318/1418 10005KT 3SM BR OVC009 FM132000 08005KT
                       P6SM OVC013 FM132300 08005KT P6SM SCT015
                       BKN200 FM140200 VRB03KT P6SM BKN250=
201911131359 KCLM 131359Z 1314/1412 VRB05KT 2SM BR OVC008 FM131900 08003KT P6SM
                       OVC015 FM132100 08005KT P6SM SCT040 BKN250
                       FM140400 VRB03KT 4SM BR BKN250=
201911131121 TAF KCLM 131121Z 1312/1412 23003KT 3SM BR OVC004
                      TEMPO 1312/1316 1/2SM FG VV002 FM131900 08003KT
                       P6SM OVC015 FM132100 08005KT P6SM SCT040
                       BKN250 FM140400 VRB03KT 4SM BR BKN250=
201911130731 KCLM 130731Z 1308/1406 00000KT 3SM BR FEW002 OVC010 FM131000 23003KT
                       1SM BR BKN004 FM131900 08003KT P6SM OVC015
                       FM132100 08005KT P6SM FEW015 SCT040 BKN250=
201911130520 TAF KCLM 130520Z 1306/1406 00000KT 3SM BR FEW002 OVC050
                      TEMPO 1306/1309 1/4SM FG VV002 FM131000 23003KT
                       1SM BR BKN004 FM131900 08003KT P6SM OVC015
                       FM132100 08005KT P6SM FEW015 SCT040 BKN250=
201911130259 KCLM 130259Z 1303/1324 00000KT 4SM BR SCT004 OVC050
                      TEMPO 1303/1304 2SM BR SCT001 OVC012 FM131900
                       08003KT P6SM OVC010 FM132100 08005KT P6SM
                       FEW015 SCT040 BKN250=
201911130005 KCLM 130005Z 1300/1324 00000KT 4SM BR OVC004
                      TEMPO 1300/1304 P6SM NSW SCT004 OVC012 FM131900
                       08003KT P6SM OVC010 FM132100 08005KT P6SM
                       FEW015 SCT040 BKN250=
201911122320 TAF KCLM 122320Z 1300/1324 00000KT 3SM BR OVC004 FM131900 08003KT
                       P6SM OVC010 FM132100 08005KT P6SM FEW015
                       SCT040 BKN250=
201911122102 KCLM 122102Z 1221/1318 35004KT P6SM SCT005 BKN035 OVC060
                      TEMPO 1221/1301 4SM -SHRA BR BKN005 OVC035
                       FM130200 27005KT 6SM BR OVC012=
201911121720 TAF KCLM 121720Z 1218/1318 00000KT P6SM SCT015 OVC070
                      TEMPO 1218/1220 4SM -RA BR OVC015 FM122000
                       28003KT 6SM BR VCSH OVC015 FM130200 27005KT
                       6SM BR OVC012=
201911121609 KCLM 121609Z 1216/1312 00000KT P6SM SCT015 OVC070
                      TEMPO 1216/1218 5SM -RA BR BKN015 OVC070
                       FM121800 VRB03KT 4SM -RA BR BKN015 OVC025
                       FM122000 28003KT 6SM BR VCSH OVC015 FM130200
                       27005KT 6SM BR OVC012=
201911121127 TAF KCLM 121127Z 1212/1312 VRB03KT P6SM -RA SCT025 OVC050
                      TEMPO 1213/1216 5SM -RA BR BKN020 OVC040
                       FM121600 VRB03KT 4SM -RA BR BKN015 OVC025
                       FM122000 28003KT 6SM BR VCSH OVC015 FM130200
                       27005KT 6SM BR OVC012=
201911120534 TAF KCLM 120534Z 1206/1306 VRB03KT P6SM OVC100 FM121000 VRB03KT
                       P6SM -RA OVC050 FM121500 VRB03KT 4SM -RA
                       BR BKN015 OVC025 FM121900 28003KT 6SM BR
                       VCSH OVC015 FM130100 VRB03KT 6SM BR OVC015=
201911112328 TAF KCLM 112328Z 1200/1224 00000KT P6SM OVC009 FM120200 VRB03KT
                       P6SM FEW010 SCT100 BKN200 FM120900 VRB03KT
                       P6SM OVC080 FM121100 VRB03KT P6SM -RA OVC050
                       FM121500 VRB03KT 4SM -RA BR OVC010 FM122000
                       VRB03KT P6SM BKN018 OVC030=
201911112101 KCLM 112101Z 1121/1218 09007KT P6SM SCT007 OVC013
                      TEMPO 1121/1123 BKN007 OVC013 FM112300 10005KT
                       P6SM FEW100 BKN200 FM120400 VRB03KT P6SM
                       FEW100 BKN200 FM120900 VRB03KT P6SM OVC080
                       FM121100 VRB03KT P6SM -RA OVC050 FM121500
                       VRB03KT 4SM -RA BR OVC010=
201911111720 TAF KCLM 111720Z 1118/1218 00000KT P6SM SCT004 OVC120
                      TEMPO 1118/1120 OVC004 FM112200 10005KT P6SM
                       FEW100 BKN200 FM120400 VRB03KT P6SM FEW100
                       BKN200 FM120900 VRB03KT P6SM OVC080 FM121100
                       VRB03KT P6SM -RA OVC050 FM121500 VRB03KT
                       4SM -RA BR OVC010=
201911111135 TAF KCLM 111135Z 1112/1212 10005KT 6SM BR OVC015 FM111900 VRB03KT
                       P6SM SCT020 BKN120 OVC200 FM112200 10005KT
                       P6SM SCT080 OVC120 FM120500 VRB03KT P6SM
                       OVC080 FM120900 VRB03KT P6SM VCSH OVC040=
201911110530 TAF KCLM 110530Z 1106/1206 10005KT P6SM OVC018
                      TEMPO 1106/1109 SCT018 FM111900 VRB03KT P6SM
                       SCT020 BKN250 FM112000 10005KT P6SM SCT080
                       BKN100 FM120500 VRB03KT P6SM OVC080=
201911102320 TAF KCLM 102320Z 1100/1124 VRB03KT P6SM SCT010 OVC025 FM110500
                       VRB03KT 4SM BR SCT025 BKN060
                      TEMPO 1112/1116 1SM BR OVC005 FM111800 10004KT
                       P6SM SCT030 BKN060=
201911101720 TAF KCLM 101720Z 1018/1118 VRB02KT 3SM BR OVC005 FM102000 06004KT
                       P6SM OVC010 FM102300 VRB03KT P6SM SCT250
                       FM110500 VRB03KT 4SM BR BKN060
                      TEMPO 1112/1116 1SM BR OVC005=
201911101125 TAF KCLM 101125Z 1012/1112 VRB02KT 1SM BR OVC001 FM102000 06004KT
                       P6SM OVC010 FM102300 VRB03KT P6SM SCT250=
201911100816 KCLM 100816Z 1008/1106 00000KT 4SM BR OVC002
                      TEMPO 1008/1010 1/4SM FG FM101000 25003KT
                       1/2SM FG OVC003 FM102000 06004KT P6SM OVC007
                       FM110300 VRB03KT P6SM SCT250=
201911100523 TAF KCLM 100523Z 1006/1106 VRB03KT 1/2SM FG OVC002
                      TEMPO 1006/1010 1/4SM -DZ FG FM101000 25003KT
                       1/2SM FG OVC003 FM102000 06004KT P6SM OVC007
                       FM110300 VRB03KT P6SM SCT250=
201911100221 KCLM 100221Z 1002/1024 00000KT 2SM BR OVC003
                      TEMPO 1002/1006 1/2SM FG OVC002 FM100800
                       VRB03KT 1/2SM FG OVC003 FM101600 VRB03KT
                       4SM BR OVC007 FM102000 06004KT P6SM OVC007=
201911092320 TAF KCLM 092320Z 1000/1024 VRB03KT 5SM BR OVC003 FM100100 VRB03KT
                       4SM BR OVC005
                      TEMPO 1004/1008 1SM BR OVC003 FM100800 VRB03KT
                       1/2SM FG OVC003 FM101600 VRB03KT 4SM BR
                       OVC007 FM102000 06004KT P6SM OVC007=
201911092202 KCLM 092202Z 0922/1018 12003KT 5SM BR VCSH BKN005 OVC040
                      TEMPO 0922/0924 2SM -RA BR OVC001 FM100100
                       VRB03KT 4SM BR OVC015
                      TEMPO 1004/1008 1SM BR OVC003 FM100800 VRB03KT
                       1/2SM FG OVC003 FM101600 VRB03KT 4SM BR
                       OVC007=
201911092043 KCLM 092043Z 0921/1018 12003KT 5SM BR VCSH BKN005 OVC040 FM100100
                       VRB03KT 4SM BR OVC015
                      TEMPO 1004/1008 1SM BR OVC003 FM100800 VRB03KT
                       1/2SM FG OVC003 FM101600 VRB03KT 4SM BR
                       OVC007=
201911091720 TAF KCLM 091720Z 0918/1018 12003KT 4SM BR VCSH OVC040
                      TEMPO 0918/0920 2SM -RA BR SCT005 OVC030
                       FM100100 VRB03KT 4SM BR OVC015
                      TEMPO 1004/1008 1SM BR OVC003 FM100800 VRB03KT
                       1/2SM FG OVC003 FM101600 VRB03KT 4SM BR
                       OVC007=
201911091128 TAF KCLM 091128Z 0912/1012 VRB04KT P6SM VCSH OVC050 FM091500 12003KT
                       6SM -RA OVC025 FM100100 VRB03KT 4SM BR OVC015=
201911090532 TAF KCLM 090532Z 0906/1006 25008KT P6SM VCSH OVC018 FM090800 23006KT
                       6SM -RA SCT007 OVC015 FM100100 32003KT 4SM
                       BR VCSH SCT007 OVC015=
201911090418 KCLM 090418Z 0904/0924 25007KT P6SM BKN020 OVC250 FM090700 22002KT
                       P6SM VCSH OVC050 FM090900 22002KT P6SM -RA
                       OVC015=
201911082333 TAF KCLM 082333Z 0900/0924 03003KT P6SM SCT150 BKN250 FM090500
                       23003KT P6SM OVC120 FM090700 22002KT P6SM
                       VCSH OVC050 FM090900 22002KT P6SM -RA OVC015=
201911081816 KCLM 081816Z 0818/0918 00000KT P6SM SCT120 BKN200 FM090900 VRB03KT
                       P6SM BKN040 FM091300 VRB03KT P6SM OVC030=
201911081731 TAF KCLM 081731Z 0818/0918 18003KT P6SM OVC005 FM081900 VRB03KT
                       P6SM SCT120 BKN200 FM090900 VRB03KT P6SM
                       BKN040 FM091300 VRB03KT P6SM OVC030=
201911081121 TAF KCLM 081121Z 0812/0912 VRB03KT P6SM SCT250
                      TEMPO 0812/0814 1SM BR SCT002 OVC120 FM081800
                       VRB03KT P6SM SCT120 BKN200 FM090700 VRB02KT
                       P6SM OVC050=
201911081035 KCLM 081035Z 0811/0906 VRB03KT P6SM SCT250
                      TEMPO 0812/0814 1SM BR SCT002 OVC120 FM081800
                       VRB03KT P6SM SCT120 BKN200 FM090000 30005KT
                       P6SM BKN180=
201911080524 TAF KCLM 080524Z 0806/0906 00000KT P6SM SCT250 FM080800 00000KT
                       2SM BR SCT250
                      TEMPO 0809/0813 1SM BR SCT002 OVC120 FM081800
                       VRB03KT P6SM SCT120 BKN200 FM090000 30005KT
                       P6SM BKN180=
201911072333 TAF KCLM 072333Z 0800/0824 07005KT P6SM BKN200 FM080600 VRB03KT
                       2SM BR SCT150 BKN200
                      TEMPO 0812/0816 1SM BR SCT002 OVC120=
201911071736 TAF KCLM 071736Z 0718/0818 10006KT P6SM FEW006 BKN200 FM072000
                       07005KT P6SM BKN200=
201911071522 KCLM 071522Z 0715/0812 00000KT P6SM OVC010 FM071800 VRB04KT P6SM
                       SCT150 BKN200=
201911071122 TAF KCLM 071122Z 0712/0812 00000KT P6SM BKN200 FM071800 VRB04KT
                       P6SM SCT150 BKN200=
201911070528 TAF KCLM 070528Z 0706/0806 00000KT P6SM BKN200 FM071800 VRB04KT
                       P6SM SCT150 BKN200=
201911062320 TAF KCLM 062320Z 0700/0724 07005KT P6SM BKN200 FM070400 VRB03KT
                       P6SM BKN200 FM071800 09004KT P6SM SCT150
                       BKN200=
201911061725 TAF KCLM 061725Z 0618/0718 10005KT P6SM SCT200 FM070200 VRB03KT
                       P6SM SCT200=
201911061126 TAF KCLM 061126Z 0612/0712 10006KT 5SM BR BKN020
                      TEMPO 0613/0617 SCT022 FM061700 10005KT P6SM
                       SCT025 SCT200 FM070200 VRB03KT P6SM SCT200=
201911060722 KCLM 060722Z 0607/0706 13005KT 6SM BR SCT025
                      TEMPO 0607/0609 BKN025 FM060900 VRB04KT 5SM
                       BR BKN020 FM062000 09005KT P6SM SCT025=
201911060520 TAF KCLM 060520Z 0606/0706 13005KT 4SM BR SCT020 FM060900 VRB04KT
                       2SM BR BKN020 FM062000 09005KT P6SM SCT025=
201911060230 KCLM 060230Z 0603/0624 VRB04KT P6SM SCT025 FM060400 VRB04KT 4SM
                       BR SCT020 FM061200 VRB04KT 4SM BR BKN020
                       FM062000 09005KT P6SM SCT025=
201911052321 TAF KCLM 052321Z 0600/0624 VRB04KT P6SM OVC025 FM060400 VRB04KT
                       P6SM OVC015 FM061800 VRB04KT P6SM OVC025
                       FM062000 09005KT P6SM BKN028=
201911051722 TAF KCLM 051722Z 0518/0618 VRB04KT P6SM OVC025 FM051900 09006KT
                       P6SM BKN025 FM060400 24005KT P6SM SCT025
                       SCT200 FM060900 VRB03KT P6SM OVC020=
201911051120 TAF KCLM 051120Z 0512/0612 VRB04KT P6SM OVC020 FM051900 09006KT
                       P6SM BKN025 FM060400 24005KT P6SM SCT025
                       SCT200=
201911050520 TAF KCLM 050520Z 0506/0606 09003KT P6SM OVC016 FM052100 VRB04KT
                       P6SM OVC020=
201911042352 TAF KCLM 042352Z 0500/0524 VRB04KT P6SM OVC020 FM050500 00000KT
                       P6SM OVC015 FM052100 VRB04KT P6SM OVC020=
201911042006 KCLM 042006Z 0420/0518 VRB03KT P6SM BKN019 FM042200 VRB04KT P6SM
                       SCT020 SCT250 FM050500 00000KT P6SM SCT010
                       SCT250 FM050900 00000KT 4SM BR BKN010=
201911041723 TAF KCLM 041723Z 0418/0518 13007KT P6SM OVC018 FM042000 VRB03KT
                       P6SM SCT020 SCT250 FM050500 00000KT P6SM
                       SCT010 SCT250 FM050900 00000KT 4SM BR BKN010=
201911041121 TAF KCLM 041121Z 0412/0512 13007KT P6SM OVC025 FM042000 VRB03KT
                       P6SM SCT050 BKN250 FM050500 00000KT P6SM
                       SCT010 BKN050 FM050900 00000KT 4SM BR BKN010
                       OVC050=
201911041008 KCLM 041008Z 0410/0506 16003KT P6SM SCT020 BKN250
                      TEMPO 0410/0412 3SM BR BKN020 BKN250 FM041200
                       00000KT P6SM OVC015 FM042000 VRB03KT P6SM
                       SCT050 BKN250 FM050500 00000KT 3SM BR OVC003=
201911040520 TAF KCLM 040520Z 0406/0506 00000KT 4SM BR SKC
                      TEMPO 0406/0409 2SM BR FM040900 00000KT 2SM
                       BR BKN002
                      TEMPO 0409/0412 1/2SM FG VV002 FM041200 00000KT
                       1/2SM FG VV002
                      TEMPO 0417/0420 3SM BR BKN005 FM042000 VRB03KT
                       5SM BR OVC005 FM050500 00000KT 3SM BR OVC003=
201911032321 TAF KCLM 032321Z 0400/0424 08005KT P6SM FEW020 SCT200 FM040100
                       23003KT P6SM SCT020 SCT200 FM040900 23003KT
                       4SM BR BKN007 FM041900 VRB03KT P6SM SCT020
                       SCT200=
201911031724 TAF KCLM 031724Z 0318/0418 00000KT P6SM OVC018 FM032000 08003KT
                       P6SM FEW020 SCT200 FM040100 23003KT P6SM
                       SCT200 FM040900 23003KT 4SM BR BKN007=
201911031404 KCLM 031404Z 0314/0412 00000KT P6SM SCT002 BKN250
                      TEMPO 0314/0317 2SM BR BKN002 BKN250 FM032000
                       08003KT P6SM FEW010 SCT250 FM040100 23003KT
                       P6SM SCT250 FM040900 23003KT 4SM BR BKN007
                       BKN250=
201911031120 TAF KCLM 031120Z 0312/0412 00000KT 2SM BR BKN002 BKN250
                      TEMPO 0312/0316 1/2SM FG VV001 FM031800 08003KT
                       4SM BR BKN005 BKN250 FM032000 08003KT P6SM
                       FEW010 SCT250 FM040100 23003KT P6SM SCT250
                       FM040900 23003KT 4SM BR BKN007 BKN250=
201911030902 KCLM 030902Z 0309/0406 16003KT P6SM SCT005 BKN250
                      TEMPO 0309/0312 3SM BR BKN005 BKN250 FM031200
                       22003KT 3SM BR BKN005 BKN250 FM032100 08003KT
                       P6SM SCT250=
201911030520 TAF KCLM 030520Z 0306/0406 VRB05KT P6SM BKN200 FM030900 22003KT
                       6SM BR BKN005 FM032100 08003KT P6SM SCT250=
201911022334 TAF KCLM 022334Z 0300/0324 VRB05KT P6SM SCT200 FM030900 22003KT
                       6SM BR BKN005 FM032100 08003KT P6SM SCT250=
201911021726 TAF KCLM 021726Z 0218/0318 12005KT P6SM SKC
                      TEMPO 0218/0220 BKN005 FM022000 08005KT P6SM
                       SCT250 FM030900 22003KT P6SM BKN001=
201911021123 TAF KCLM 021123Z 0212/0312 19003KT P6SM SCT250 FM030900 22003KT
                       P6SM BKN001=
201911021020 KCLM 021020Z 0210/0306 00000KT P6SM SCT200
                      TEMPO 0212/0215 1/2SM FG VV002 FM021600 VRB04KT
                       P6SM SCT250=
201911020520 TAF KCLM 020520Z 0206/0306 00000KT P6SM SCT200 FM021000 00000KT
                       3SM BR SCT002
                      TEMPO 0212/0215 1/2SM FG VV002 FM021600 VRB04KT
                       P6SM SCT250=
201911012324 TAF KCLM 012324Z 0200/0224 07004KT P6SM SCT250 FM020500 21004KT
                       P6SM SCT250 FM021400 15004KT P6SM SCT250=
201911011723 TAF KCLM 011723Z 0118/0218 VRB03KT P6SM SCT250=
201911011123 TAF KCLM 011123Z 0112/0212 00000KT P6SM FEW022
                      TEMPO 0112/0116 BKN022 FM011800 VRB03KT P6SM
                       SKC=
201911011018 KCLM 011018Z 0110/0206 VRB03KT P6SM BKN025 FM011800 VRB03KT P6SM
                       SCT250=
201911010521 TAF KCLM 010521Z 0106/0206 VRB03KT P6SM SCT250=