##########################################################
# Query made at 02/16/2025 04:40:46 UTC
# Time interval: from 10/01/2020 00:00  to 10/31/2020 23:59  UTC
##########################################################

##########################################################
# KCLM, Port Angeles, William R. Fairchild International Airport (United States)
# WMO index: -----. WIGOS ID: Unknown
# Latitude 48-07-20N. Longitude 123-30-19W. Altitude 87 m.
##########################################################

###################################
#  METAR/SPECI from KCLM
###################################
202010312353 METAR KCLM 312353Z AUTO 10003KT 10SM CLR 10/05 A3039 RMK AO2 SLP292 T01000050 10106 20094 58007=
202010312253 METAR KCLM 312253Z AUTO 12007KT 10SM CLR 09/05 A3039 RMK AO2 SLP295 T00940050=
202010312236 SPECI KCLM 312236Z AUTO 08005KT 10SM SCT024 09/05 A3040 RMK AO2 T00940050=
202010312221 SPECI KCLM 312221Z AUTO VRB04KT 10SM BKN024 09/05 A3041 RMK AO2 T00940050=
202010312153 METAR KCLM 312153Z AUTO VRB04KT 10SM CLR 10/06 A3040 RMK AO2 SLP297 T01000056=
202010312053 METAR KCLM 312053Z AUTO 07004KT 10SM CLR 11/06 A3041 RMK AO2 SLP299 T01060061 58008=
202010312030 SPECI KCLM 312030Z AUTO 03005KT 10SM SCT011 10/06 A3042 RMK AO2 T01000061=
202010311953 METAR KCLM 311953Z AUTO VRB05KT 9SM BKN010 10/06 A3043 RMK AO2 CIG 008V013 SLP306 T01000061=
202010311932 SPECI KCLM 311932Z AUTO VRB05KT 9SM FEW009 09/06 A3044 RMK AO2 T00940061=
202010311853 METAR KCLM 311853Z AUTO VRB03KT 10SM CLR 10/06 A3043 RMK AO2 SLP308 T01000056=
202010311753 METAR KCLM 311753Z AUTO VRB03KT 9SM CLR 09/05 A3043 RMK AO2 SLP307 T00940050 10094 20006 51007=
202010311653 METAR KCLM 311653Z AUTO 23003KT 10SM CLR 07/02 A3042 RMK AO2 SLP304 T00670022=
202010311553 METAR KCLM 311553Z AUTO 00000KT 9SM CLR 02/01 A3042 RMK AO2 SLP304 T00220006=
202010311453 METAR KCLM 311453Z AUTO 24005KT 10SM CLR 03/01 A3041 RMK AO2 SLP300 T00280006 53010=
202010311353 METAR KCLM 311353Z AUTO 00000KT 10SM CLR 01/M01 A3040 RMK AO2 SLP297 T00061006=
202010311253 METAR KCLM 311253Z AUTO 23005KT 10SM CLR 03/01 A3038 RMK AO2 SLP291 T00280006=
202010311153 METAR KCLM 311153Z AUTO 22004KT 10SM CLR 03/01 A3038 RMK AO2 SLP289 70002 T00280006 10056 20022 53014=
202010311053 METAR KCLM 311053Z AUTO 23008KT 10SM CLR 04/01 A3036 RMK AO2 SLP281 T00390006=
202010310953 METAR KCLM 310953Z AUTO 21003KT 10SM CLR 03/00 A3034 RMK AO2 SLP276 T00280000=
202010310853 METAR KCLM 310853Z AUTO 23008KT 10SM CLR 04/01 A3034 RMK AO2 SLP274 T00440011 51017=
202010310753 METAR KCLM 310753Z AUTO 21004KT 10SM CLR 04/01 A3032 RMK AO2 SLP269 T00390006 401390039=
202010310653 METAR KCLM 310653Z AUTO 22008KT 10SM CLR 05/02 A3031 RMK AO2 SLP264 T00500017=
202010310553 METAR KCLM 310553Z AUTO 23005KT 10SM CLR 06/02 A3029 RMK AO2 SLP258 T00560017 10122 20056 51016=
202010310453 METAR KCLM 310453Z AUTO 24008KT 10SM CLR 07/02 A3028 RMK AO2 SLP254 T00670022=
202010310353 METAR KCLM 310353Z AUTO 24006KT 7SM CLR 06/02 A3026 RMK AO2 SLP248 T00560022=
202010310253 METAR KCLM 310253Z AUTO 24007KT 9SM CLR 07/02 A3024 RMK AO2 SLP241 T00720022 52029=
202010310153 METAR KCLM 310153Z AUTO 29006KT 6SM HZ CLR 09/03 A3021 RMK AO2 SLP232 T00890028=
202010310053 METAR KCLM 310053Z AUTO 29012KT 5SM HZ CLR 10/03 A3018 RMK AO2 SLP220 T01000028=
202010302353 METAR KCLM 302353Z AUTO 30014KT 5SM HZ CLR 12/03 A3015 RMK AO2 SLP211 T01220028 10139 20122 51021=
202010302253 METAR KCLM 302253Z AUTO 29012G20KT 4SM HZ FEW050 13/02 A3013 RMK AO2 SLP204 T01330022=
202010302153 METAR KCLM 302153Z AUTO 29010G21KT 7SM FEW050 14/03 A3012 RMK AO2 SLP200 T01390028=
202010302053 METAR KCLM 302053Z AUTO 28018G23KT 7SM FEW050 13/03 A3009 RMK AO2 PK WND 27028/2012 SLP190 T01330028 51023=
202010301953 METAR KCLM 301953Z AUTO 25017G22KT 8SM CLR 13/03 A3008 RMK AO2 PK WND 25031/1856 SLP186 T01330028=
202010301853 METAR KCLM 301853Z AUTO 26020G26KT 7SM CLR 13/03 A3006 RMK AO2 PK WND 25028/1810 SLP179 T01280028=
202010301753 METAR KCLM 301753Z AUTO 28016G32KT 6SM HZ SCT050 12/04 A3002 RMK AO2 PK WND 25032/1745 SLP166 60002 T01220039 10122 20100 51030=
202010301653 METAR KCLM 301653Z AUTO 28013G22KT 6SM HZ FEW050 11/04 A2999 RMK AO2 RAE01 SLP157 P0000 T01110044=
202010301553 METAR KCLM 301553Z AUTO 27015G24KT 4SM -RA BKN045 OVC055 10/07 A2997 RMK AO2 PK WND 28032/1536 RAB30 SLP148 P0000 T01000067=
202010301453 METAR KCLM 301453Z AUTO 27012G21KT 8SM SCT046 SCT055 11/06 A2993 RMK AO2 PK WND 27028/1432 RAE1356B13E41 SLP136 P0000 60002 T01060056 51037=
202010301353 METAR KCLM 301353Z AUTO 25019G31KT 7SM -RA SCT050 BKN060 11/06 A2989 RMK AO2 PK WND 24031/1348 RAB1256E06B42 SLP122 P0001 T01110056=
202010301253 METAR KCLM 301253Z AUTO 29018G28KT 6SM HZ BKN045 OVC060 11/08 A2987 RMK AO2 PK WND 27028/1251 RAB1155E45 SLP115 P0001 T01110083=
202010301153 METAR KCLM 301153Z AUTO 25006KT 9SM BKN055 OVC070 11/09 A2982 RMK AO2 RAE53 SLP099 P0009 60014 70014 T01110094 10111 20083 50007=
202010301130 SPECI KCLM 301130Z AUTO 22007KT 6SM -RA BR FEW006 BKN041 OVC085 11/09 A2983 RMK AO2 P0009 T01060094=
202010301057 SPECI KCLM 301057Z AUTO VRB06G15KT 2 1/2SM RA BR FEW003 BKN055 OVC070 10/09 A2985 RMK AO2 PRESRR P0002 T01000089=
202010301053 METAR KCLM 301053Z AUTO 33009KT 4SM -RA BR FEW021 BKN060 OVC070 10/09 A2984 RMK AO2 RAB0959 PRESRR SLP106 P0005 T01000089=
202010300953 METAR KCLM 300953Z AUTO 00000KT 9SM OVC070 10/08 A2979 RMK AO2 RAE18 SLP088 P0000 T01000083=
202010300853 METAR KCLM 300853Z AUTO 05005KT 9SM -RA BKN090 OVC110 10/08 A2980 RMK AO2 RAB41 SLP091 P0000 60000 T01000078 58047=
202010300753 METAR KCLM 300753Z AUTO 21006KT 10SM OVC110 10/08 A2986 RMK AO2 SLP110 T01000078 401610078=
202010300653 METAR KCLM 300653Z AUTO 00000KT 9SM BKN110 09/07 A2990 RMK AO2 SLP126 T00890072=
202010300553 METAR KCLM 300553Z AUTO 20004KT 10SM BKN100 09/08 A2994 RMK AO2 SLP140 T00890078 10128 20078 58031=
202010300453 METAR KCLM 300453Z AUTO 00000KT 9SM SCT044 10/08 A2998 RMK AO2 SLP153 T01000083=
202010300353 METAR KCLM 300353Z AUTO 00000KT 10SM BKN044 11/09 A3001 RMK AO2 SLP162 T01060089=
202010300253 METAR KCLM 300253Z AUTO 00000KT 9SM OVC043 12/09 A3003 RMK AO2 SLP171 T01170094 58013=
202010300153 METAR KCLM 300153Z AUTO 00000KT 10SM OVC041 12/09 A3005 RMK AO2 SLP178 T01170094=
202010300053 METAR KCLM 300053Z AUTO 00000KT 10SM OVC040 12/09 A3006 RMK AO2 SLP179 T01220094=
202010292353 METAR KCLM 292353Z AUTO 00000KT 10SM OVC042 13/09 A3007 RMK AO2 SLP184 T01280094 10161 20122 58018=
202010292253 METAR KCLM 292253Z AUTO 00000KT 10SM OVC047 13/09 A3009 RMK AO2 SLP191 T01280094=
202010292153 METAR KCLM 292153Z AUTO 00000KT 10SM CLR 14/08 A3011 RMK AO2 SLP197 T01440083=
202010292053 METAR KCLM 292053Z AUTO 35004KT 10SM OVC050 15/08 A3013 RMK AO2 SLP201 T01500083 58015=
202010291953 METAR KCLM 291953Z AUTO VRB03KT 4SM HZ OVC046 15/07 A3015 RMK AO2 SLP209 T01500072=
202010291853 METAR KCLM 291853Z AUTO 26004KT 8SM OVC046 14/08 A3016 RMK AO2 SLP211 T01440078=
202010291753 METAR KCLM 291753Z AUTO 24006KT 7SM OVC050 13/07 A3017 RMK AO2 SLP217 T01330072 10139 20100 50000=
202010291653 METAR KCLM 291653Z AUTO 23007KT 10SM OVC050 13/08 A3018 RMK AO2 SLP220 T01280078=
202010291553 METAR KCLM 291553Z AUTO 22006KT 10SM OVC046 12/08 A3017 RMK AO2 SLP218 T01170078=
202010291453 METAR KCLM 291453Z AUTO 25004KT 10SM OVC046 11/08 A3017 RMK AO2 SLP217 T01060083 50000=
202010291353 METAR KCLM 291353Z AUTO 20004KT 10SM OVC044 11/08 A3017 RMK AO2 SLP219 T01110083=
202010291253 METAR KCLM 291253Z AUTO 00000KT 10SM OVC046 11/09 A3018 RMK AO2 SLP221 T01110089=
202010291153 METAR KCLM 291153Z AUTO 21003KT 10SM OVC044 11/09 A3017 RMK AO2 SLP217 T01110089 10122 20106 57005=
202010291053 METAR KCLM 291053Z AUTO 22005KT 10SM OVC041 11/09 A3018 RMK AO2 SLP219 T01110094=
202010290953 METAR KCLM 290953Z AUTO 22004KT 10SM OVC043 11/09 A3018 RMK AO2 SLP220 T01060094=
202010290853 METAR KCLM 290853Z AUTO 00000KT 10SM OVC043 11/10 A3018 RMK AO2 SLP221 T01110100 53002=
202010290753 METAR KCLM 290753Z AUTO 19003KT 10SM OVC038 12/10 A3018 RMK AO2 SLP220 T01170100 401500089=
202010290730 SPECI KCLM 290730Z AUTO 00000KT 10SM OVC032 12/10 A3018 RMK AO2 T01170100=
202010290653 METAR KCLM 290653Z AUTO 14004KT 10SM FEW029 OVC036 12/10 A3017 RMK AO2 SLP217 T01170100=
202010290642 SPECI KCLM 290642Z AUTO 15003KT 10SM FEW018 SCT027 OVC038 12/11 A3017 RMK AO2 T01220106=
202010290553 METAR KCLM 290553Z AUTO 17004KT 10SM OVC016 11/10 A3018 RMK AO2 SLP219 T01110100 10128 20089 51010=
202010290453 METAR KCLM 290453Z AUTO 16003KT 9SM OVC021 11/09 A3017 RMK AO2 SLP219 T01060094=
202010290414 SPECI KCLM 290414Z AUTO 00000KT 8SM OVC027 10/09 A3017 RMK AO2 T01000094=
202010290353 METAR KCLM 290353Z AUTO 29003KT 7SM SCT025 BKN030 10/09 A3017 RMK AO2 SLP217 T01000094=
202010290253 METAR KCLM 290253Z AUTO 00000KT 10SM CLR 11/09 A3015 RMK AO2 SLP210 T01060094 56008=
202010290153 METAR KCLM 290153Z AUTO 00000KT 10SM CLR 12/10 A3016 RMK AO2 SLP212 T01170100=
202010290053 METAR KCLM 290053Z AUTO 00000KT 10SM SCT012 13/11 A3016 RMK AO2 SLP215 T01280106=
202010282353 METAR KCLM 282353Z AUTO 00000KT 10SM OVC012 13/11 A3017 RMK AO2 SLP218 T01280106 10150 20128 56010=
202010282335 SPECI KCLM 282335Z AUTO 31003KT 10SM BKN012 13/11 A3017 RMK AO2 T01330106=
202010282253 METAR KCLM 282253Z AUTO 33004KT 10SM CLR 13/11 A3018 RMK AO2 SLP221 T01330106=
202010282153 METAR KCLM 282153Z AUTO 36003KT 10SM CLR 13/09 A3019 RMK AO2 SLP225 T01330094=
202010282053 METAR KCLM 282053Z AUTO VRB03KT 10SM CLR 14/09 A3020 RMK AO2 SLP228 T01440094 58006=
202010281953 METAR KCLM 281953Z AUTO 00000KT 10SM FEW055 13/09 A3022 RMK AO2 SLP235 T01330089=
202010281853 METAR KCLM 281853Z AUTO 02003KT 10SM CLR 14/09 A3023 RMK AO2 SLP237 T01440089=
202010281753 METAR KCLM 281753Z AUTO 00000KT 10SM SCT050 14/09 A3022 RMK AO2 SLP236 T01390094 10139 20100 58002=
202010281653 METAR KCLM 281653Z AUTO 20003KT 10SM BKN050 13/08 A3024 RMK AO2 SLP242 T01280083=
202010281553 METAR KCLM 281553Z AUTO 23003KT 10SM OVC050 11/08 A3023 RMK AO2 SLP239 T01110078=
202010281453 METAR KCLM 281453Z AUTO 22003KT 10SM OVC047 11/08 A3023 RMK AO2 SLP238 T01060083 55001=
202010281353 METAR KCLM 281353Z AUTO 00000KT 10SM OVC041 11/08 A3023 RMK AO2 SLP237 T01060078=
202010281253 METAR KCLM 281253Z AUTO 12004KT 10SM OVC044 11/08 A3023 RMK AO2 SLP237 T01060083=
202010281153 METAR KCLM 281153Z AUTO 00000KT 10SM OVC040 11/08 A3023 RMK AO2 SLP239 T01110083 10111 20100 56006=
202010281053 METAR KCLM 281053Z AUTO 11004KT 10SM OVC041 11/08 A3024 RMK AO2 SLP241 T01110083=
202010280953 METAR KCLM 280953Z AUTO 10004KT 10SM OVC041 11/08 A3022 RMK AO2 SLP236 T01110078=
202010280853 METAR KCLM 280853Z AUTO 15005KT 10SM OVC044 11/08 A3025 RMK AO2 SLP245 T01060078 55004=
202010280753 METAR KCLM 280753Z AUTO 15004KT 10SM OVC044 11/08 A3024 RMK AO2 SLP241 T01060083 401330033=
202010280653 METAR KCLM 280653Z AUTO 19003KT 10SM OVC043 11/08 A3025 RMK AO2 SLP246 T01060078=
202010280553 METAR KCLM 280553Z AUTO 12003KT 7SM OVC045 11/08 A3026 RMK AO2 SLP249 T01060083 10117 20094 55005=
202010280453 METAR KCLM 280453Z AUTO 00000KT 10SM OVC045 11/08 A3026 RMK AO2 SLP248 T01110078=
202010280353 METAR KCLM 280353Z AUTO VRB03KT 10SM OVC045 11/07 A3026 RMK AO2 SLP249 T01110072=
202010280253 METAR KCLM 280253Z AUTO 19003KT 10SM OVC044 10/07 A3028 RMK AO2 SLP255 T01000072 55008=
202010280153 METAR KCLM 280153Z AUTO 00000KT 10SM OVC041 10/07 A3027 RMK AO2 SLP254 T01000067=
202010280053 METAR KCLM 280053Z AUTO 02004KT 10SM FEW042 10/07 A3029 RMK AO2 SLP260 T01000067=
202010272353 METAR KCLM 272353Z AUTO 00000KT 10SM CLR 12/07 A3030 RMK AO2 SLP262 T01170067 10133 20094 56012=
202010272253 METAR KCLM 272253Z AUTO 00000KT 10SM SCT048 13/07 A3031 RMK AO2 SLP266 T01280072=
202010272153 METAR KCLM 272153Z AUTO 01004KT 10SM BKN050 13/07 A3032 RMK AO2 SLP267 T01280072=
202010272053 METAR KCLM 272053Z AUTO VRB03KT 10SM OVC045 11/06 A3034 RMK AO2 SLP275 T01060061 58013=
202010271953 METAR KCLM 271953Z AUTO 00000KT 10SM BKN055 12/07 A3036 RMK AO2 SLP280 T01170067=
202010271853 METAR KCLM 271853Z AUTO 32003KT 10SM SCT045 09/06 A3039 RMK AO2 SLP291 T00940061=
202010271753 METAR KCLM 271753Z AUTO 00000KT 10SM CLR 11/06 A3038 RMK AO2 SLP288 60000 T01060061 10106 20050 58003=
202010271653 METAR KCLM 271653Z AUTO 11005KT 6SM BR FEW006 OVC042 08/06 A3040 RMK AO2 SLP297 T00780056=
202010271626 SPECI KCLM 271626Z AUTO 00000KT 6SM BR FEW006 OVC042 07/06 A3041 RMK AO2 T00720056=
202010271553 METAR KCLM 271553Z AUTO 00000KT 5SM BR OVC042 07/06 A3040 RMK AO2 SLP296 T00720056=
202010271453 METAR KCLM 271453Z AUTO 18006KT 6SM BR FEW004 BKN035 05/04 A3039 RMK AO2 SLP292 60000 T00500039 58016=
202010271353 METAR KCLM 271353Z AUTO 00000KT 7SM OVC006 06/04 A3041 RMK AO2 SLP300 T00560044=
202010271333 SPECI KCLM 271333Z AUTO 00000KT 7SM BKN007 OVC037 06/04 A3041 RMK AO2 T00560044=
202010271253 METAR KCLM 271253Z AUTO 14003KT 8SM FEW008 BKN034 OVC044 05/04 A3041 RMK AO2 RAE00 SLP301 P0000 T00500039=
202010271243 SPECI KCLM 271243Z AUTO 00000KT 8SM SCT009 BKN036 OVC044 05/04 A3042 RMK AO2 RAE00 P0000 T00500039=
202010271218 SPECI KCLM 271218Z AUTO 00000KT 8SM BKN009 OVC034 04/03 A3042 RMK AO2 RAE00 P0000 T00440033=
202010271211 SPECI KCLM 271211Z AUTO 00000KT 6SM BR BKN010 BKN029 OVC035 04/03 A3043 RMK AO2 RAE00 P0000 T00440033=
202010271153 METAR KCLM 271153Z AUTO 00000KT 5SM -RA BR FEW012 OVC033 04/03 A3043 RMK AO2 RAB50 SLP308 P0000 60000 70001 T00440033 10067 20033 55007=
202010271053 METAR KCLM 271053Z AUTO 00000KT 8SM FEW044 04/03 A3043 RMK AO2 SLP308 T00440033=
202010270953 METAR KCLM 270953Z AUTO 00000KT 10SM BKN037 BKN046 06/04 A3045 RMK AO2 SLP313 T00560039=
202010270927 SPECI KCLM 270927Z AUTO 00000KT 8SM FEW020 SCT025 OVC034 06/04 A3045 RMK AO2 T00610044=
202010270853 METAR KCLM 270853Z AUTO 00000KT 8SM SCT020 BKN028 OVC040 06/04 A3046 RMK AO2 SLP315 T00610044 55005=
202010270753 METAR KCLM 270753Z AUTO 00000KT 9SM OVC031 07/03 A3045 RMK AO2 SLP312 T00670033 400830006=
202010270745 SPECI KCLM 270745Z AUTO 00000KT 9SM FEW023 OVC031 07/03 A3045 RMK AO2 T00670033=
202010270653 METAR KCLM 270653Z AUTO 00000KT 9SM BKN023 OVC031 07/04 A3045 RMK AO2 SLP314 T00670039=
202010270553 METAR KCLM 270553Z AUTO 00000KT 9SM OVC019 07/04 A3047 RMK AO2 SLP320 T00670044 10083 20050 55001=
202010270502 SPECI KCLM 270502Z AUTO 00000KT 9SM BKN020 OVC030 06/04 A3046 RMK AO2 T00610039=
202010270453 METAR KCLM 270453Z AUTO 00000KT 9SM SCT021 OVC030 07/04 A3046 RMK AO2 SLP318 T00670039=
202010270433 SPECI KCLM 270433Z AUTO 00000KT 9SM OVC031 07/03 A3046 RMK AO2 T00670033=
202010270353 METAR KCLM 270353Z AUTO 00000KT 9SM OVC029 06/03 A3047 RMK AO2 SLP319 T00610033=
202010270253 METAR KCLM 270253Z AUTO 00000KT 9SM OVC028 06/03 A3047 RMK AO2 SLP321 T00560033 53001=
202010270153 METAR KCLM 270153Z AUTO 16003KT 9SM OVC026 05/02 A3047 RMK AO2 SLP321 T00500022=
202010270053 METAR KCLM 270053Z AUTO 00000KT 10SM BKN025 06/02 A3047 RMK AO2 SLP321 T00610022=
202010270048 SPECI KCLM 270048Z AUTO 00000KT 10SM BKN025 07/02 A3047 RMK AO2=
202010270040 SPECI KCLM 270040Z AUTO 00000KT 10SM SCT023 07/02 A3047 RMK AO2 T00720017=
202010262353 METAR KCLM 262353Z AUTO 09005KT 10SM OVC023 08/02 A3048 RMK AO2 SLP323 T00780022 10078 20061 56008=
202010262338 SPECI KCLM 262338Z AUTO 07004KT 10SM BKN023 OVC050 08/02 A3048 RMK AO2 T00780017=
202010262253 METAR KCLM 262253Z AUTO 09004KT 10SM OVC050 08/02 A3048 RMK AO2 SLP324 T00780017=
202010262153 METAR KCLM 262153Z AUTO 08003KT 10SM OVC047 07/02 A3048 RMK AO2 SLP325 T00720017=
202010262053 METAR KCLM 262053Z AUTO VRB03KT 10SM OVC049 07/02 A3050 RMK AO2 SLP331 T00720017 58006=
202010261953 METAR KCLM 261953Z AUTO 00000KT 10SM OVC050 07/02 A3051 RMK AO2 SLP335 T00720017=
202010261853 METAR KCLM 261853Z AUTO 03004KT 10SM OVC050 07/01 A3052 RMK AO2 SLP337 T00670011=
202010261753 METAR KCLM 261753Z AUTO 07003KT 10SM OVC049 07/01 A3052 RMK AO2 SLP338 60001 T00670011 10067 20028 50005=
202010261653 METAR KCLM 261653Z AUTO 14004KT 10SM OVC050 06/01 A3053 RMK AO2 SLP341 T00610011=
202010261553 METAR KCLM 261553Z AUTO 19003KT 10SM OVC050 04/02 A3051 RMK AO2 SLP335 T00440022=
202010261453 METAR KCLM 261453Z AUTO 00000KT 10SM OVC055 03/02 A3050 RMK AO2 SLP333 60001 T00330022 56005=
202010261353 METAR KCLM 261353Z AUTO 00000KT 9SM OVC060 03/02 A3051 RMK AO2 RAE1255B26E35 SLP334 P0000 T00280017=
202010261253 METAR KCLM 261253Z AUTO 00000KT 10SM -RA FEW060 OVC110 03/02 A3050 RMK AO2 RAB1159E27B44 SLP331 P0001 T00280017=
202010261153 METAR KCLM 261153Z AUTO 21003KT 10SM BKN065 OVC120 03/01 A3052 RMK AO2 RAB14E22 SLP337 P0000 60000 T00280011 10033 21011 55005=
202010261053 METAR KCLM 261053Z AUTO 00000KT 10SM BKN070 BKN080 OVC110 03/01 A3051 RMK AO2 SLP335 T00280006=
202010260953 METAR KCLM 260953Z AUTO 00000KT 10SM SCT080 BKN110 02/00 A3053 RMK AO2 RAB13E22 SLP341 P0000 T00220000=
202010260853 METAR KCLM 260853Z AUTO 22003KT 10SM BKN080 OVC100 01/M01 A3053 RMK AO2 SLP342 T00111006 58003=
202010260753 METAR KCLM 260753Z AUTO 00000KT 10SM OVC080 00/M02 A3055 RMK AO2 SLP348 T00001017 400671028=
202010260653 METAR KCLM 260653Z AUTO 00000KT 10SM SCT095 M01/M02 A3054 RMK AO2 SLP347 T10061022=
202010260553 METAR KCLM 260553Z AUTO 00000KT 10SM CLR M01/M03 A3054 RMK AO2 SLP347 T10111028 10056 21011 58004=
202010260453 METAR KCLM 260453Z AUTO 00000KT 10SM CLR 01/M02 A3055 RMK AO2 SLP348 T00061022=
202010260353 METAR KCLM 260353Z AUTO 20003KT 10SM CLR 00/M02 A3056 RMK AO2 SLP352 T00001022=
202010260253 METAR KCLM 260253Z AUTO 00000KT 9SM CLR M01/M03 A3056 RMK AO2 SLP352 T10061028 55004=
202010260153 METAR KCLM 260153Z AUTO 17003KT 10SM CLR 01/M02 A3054 RMK AO2 SLP346 T00111022=
202010260053 METAR KCLM 260053Z AUTO 00000KT 10SM CLR 04/M03 A3057 RMK AO2 SLP354 T00391033=
202010252353 METAR KCLM 252353Z AUTO 03005KT 10SM CLR 06/M03 A3057 RMK AO2 SLP354 T00561033 10067 20050 56003=
202010252253 METAR KCLM 252253Z AUTO VRB05KT 10SM CLR 06/M03 A3057 RMK AO2 SLP354 T00611033=
202010252153 METAR KCLM 252153Z AUTO 08004KT 10SM CLR 06/M04 A3056 RMK AO2 SLP352 T00611039=
202010252053 METAR KCLM 252053Z AUTO 06007KT 10SM CLR 06/M03 A3058 RMK AO2 SLP357 T00611033 58007=
202010251953 METAR KCLM 251953Z AUTO VRB06KT 10SM CLR 06/M02 A3059 RMK AO2 SLP361 T00611022=
202010251853 METAR KCLM 251853Z AUTO 08007KT 10SM CLR 05/M03 A3060 RMK AO2 SLP364 T00501033=
202010251653 METAR KCLM 251653Z AUTO 00000KT 10SM CLR 03/M01 A3059 RMK AO2 SLP362 T00281011=
202010251553 METAR KCLM 251553Z AUTO 00000KT 10SM CLR 00/M02 A3058 RMK AO2 SLP359 T00001017=
202010251453 METAR KCLM 251453Z AUTO 00000KT 10SM CLR M02/M03 A3057 RMK AO2 SLP354 T10221033 53006=
202010251353 METAR KCLM 251353Z AUTO 00000KT 10SM CLR M02/M03 A3056 RMK AO2 SLP353 T10171033=
202010251153 METAR KCLM 251153Z AUTO 00000KT 10SM OVC038 02/M01 A3055 RMK AO2 SLP347 T00171011 10044 20017 51012=
202010251053 METAR KCLM 251053Z AUTO 00000KT 8SM OVC036 02/M02 A3054 RMK AO2 SLP344 T00171017=
202010250953 METAR KCLM 250953Z AUTO 14007KT 10SM BKN037 OVC060 03/M03 A3053 RMK AO2 SLP339 T00281028=
202010250853 METAR KCLM 250853Z AUTO 04003KT 10SM BKN036 04/M04 A3051 RMK AO2 SLP335 T00391039 51018=
202010250753 METAR KCLM 250753Z AUTO 00000KT 10SM OVC036 03/M02 A3050 RMK AO2 SLP332 T00281017 400780017=
202010250653 METAR KCLM 250653Z AUTO 12005KT 10SM OVC037 03/M02 A3048 RMK AO2 SLP325 T00281017=
202010250553 METAR KCLM 250553Z AUTO 21003KT 10SM OVC060 03/M02 A3046 RMK AO2 SLP317 T00331022 10072 20017 53019=
202010250453 METAR KCLM 250453Z AUTO 25005KT 10SM OVC060 02/M02 A3044 RMK AO2 SLP311 T00171017=
202010250353 METAR KCLM 250353Z AUTO 23007KT 10SM OVC070 03/M02 A3042 RMK AO2 SLP304 T00281022=
202010250253 METAR KCLM 250253Z AUTO 23004KT 10SM OVC065 04/M03 A3040 RMK AO2 SLP298 T00391028 52014=
202010250153 METAR KCLM 250153Z AUTO 00000KT 10SM OVC060 06/M04 A3039 RMK AO2 SLP293 T00611044=
202010250053 METAR KCLM 250053Z AUTO VRB04KT 10SM BKN060 06/M03 A3038 RMK AO2 SLP288 T00611028=
202010242353 METAR KCLM 242353Z AUTO 06005KT 10SM CLR 07/M04 A3036 RMK AO2 SLP284 T00721039 10078 20061 53009=
202010242253 METAR KCLM 242253Z AUTO VRB04KT 10SM CLR 07/M04 A3035 RMK AO2 SLP278 T00721039=
202010242153 METAR KCLM 242153Z AUTO VRB05KT 10SM CLR 07/M04 A3034 RMK AO2 SLP275 T00721039=
202010242053 METAR KCLM 242053Z AUTO 07005KT 10SM SCT049 07/M04 A3034 RMK AO2 SLP275 T00721039 51007=
202010241953 METAR KCLM 241953Z AUTO VRB05KT 10SM CLR 07/M04 A3033 RMK AO2 SLP273 T00721039=
202010241853 METAR KCLM 241853Z AUTO VRB05KT 10SM CLR 07/M04 A3033 RMK AO2 SLP271 T00721044=
202010241753 METAR KCLM 241753Z AUTO VRB06KT 10SM CLR 07/M04 A3032 RMK AO2 SLP268 T00721044 10072 20033 51021=
202010241653 METAR KCLM 241653Z AUTO 08007KT 10SM CLR 07/M04 A3030 RMK AO2 SLP262 T00671044=
202010241553 METAR KCLM 241553Z AUTO 07009KT 10SM CLR 06/M05 A3027 RMK AO2 SLP254 T00611050=
202010241453 METAR KCLM 241453Z AUTO 10010KT 10SM FEW055 05/M04 A3025 RMK AO2 SLP246 T00501044 51029=
202010241353 METAR KCLM 241353Z AUTO 11008KT 10SM SCT055 04/M02 A3022 RMK AO2 SLP236 T00391017=
202010241253 METAR KCLM 241253Z AUTO 00000KT 10SM SCT042 BKN050 03/00 A3020 RMK AO2 SLP228 T00330000=
202010241153 METAR KCLM 241153Z AUTO 12007KT 10SM FEW042 04/00 A3016 RMK AO2 SLP217 70033 T00390000 10072 20028 53026=
202010241053 METAR KCLM 241053Z AUTO 13005KT 10SM FEW037 03/01 A3014 RMK AO2 SLP207 T00330011=
202010240953 METAR KCLM 240953Z AUTO 15006KT 10SM SCT033 SCT045 04/02 A3011 RMK AO2 SLP198 T00390022=
202010240853 METAR KCLM 240853Z AUTO 10003KT 10SM SCT025 SCT033 BKN042 05/04 A3009 RMK AO2 SLP190 T00500039 53019=
202010240753 METAR KCLM 240753Z AUTO 13004KT 10SM SCT027 BKN039 OVC080 06/04 A3006 RMK AO2 SLP180 T00560044 400780039=
202010240749 SPECI KCLM 240749Z AUTO 12005KT 10SM FEW027 BKN040 OVC075 06/04 A3006 RMK AO2=
202010240725 SPECI KCLM 240725Z AUTO 12007KT 10SM SCT029 SCT034 OVC075 06/04 A3004 RMK AO2 T00610039=
202010240718 SPECI KCLM 240718Z AUTO 11006KT 10SM BKN029 BKN034 OVC070 06/04 A3004 RMK AO2 T00610044=
202010240653 METAR KCLM 240653Z AUTO 09004KT 10SM SCT029 BKN035 OVC070 06/04 A3003 RMK AO2 SLP171 T00610044=
202010240553 METAR KCLM 240553Z AUTO 13006KT 10SM OVC060 06/04 A3001 RMK AO2 RAE0458 SLP162 P0000 60015 T00610044 10072 20061 53017=
202010240453 METAR KCLM 240453Z AUTO 16009KT 7SM -RA BKN038 OVC050 06/04 A2997 RMK AO2 SLP151 P0002 T00610044=
202010240438 SPECI KCLM 240438Z AUTO 16007KT 4SM -RA BR FEW009 SCT017 OVC038 06/05 A2997 RMK AO2 P0002 T00610050=
202010240432 SPECI KCLM 240432Z AUTO 16008KT 2 1/2SM -RA BR SCT007 BKN016 OVC032 06/05 A2997 RMK AO2 P0002 T00610050=
202010240412 SPECI KCLM 240412Z AUTO 10004KT 2SM -RA BR OVC007 06/05 A2997 RMK AO2 CIG 005V010 P0001 T00610050=
202010240402 SPECI KCLM 240402Z AUTO 09004KT 3SM -RA BR BKN008 OVC012 06/05 A2996 RMK AO2 CIG 006V010 P0000 T00610050=
202010240353 METAR KCLM 240353Z AUTO 09006KT 2 1/2SM -RA BR OVC008 06/04 A2996 RMK AO2 CIG 006V011 SLP146 P0002 T00610044=
202010240309 SPECI KCLM 240309Z AUTO VRB05KT 3SM -RA BR OVC005 06/05 A2994 RMK AO2 CIG 003V007 P0000 T00610050=
202010240253 METAR KCLM 240253Z AUTO VRB05KT 3SM -RA BR OVC004 06/05 A2993 RMK AO2 CIG 003V007 SLP137 P0003 60011 T00610050 53026=
202010240228 SPECI KCLM 240228Z AUTO VRB03KT 3SM -RA BR OVC003 06/06 A2992 RMK AO2 P0002 T00610056=
202010240153 METAR KCLM 240153Z AUTO 07008KT 2 1/2SM -RA BR OVC002 06/06 A2991 RMK AO2 SLP129 P0003 T00610056=
202010240109 SPECI KCLM 240109Z AUTO 04009KT 2SM -RA BR OVC002 07/06 A2988 RMK AO2 P0001 T00670056=
202010240053 METAR KCLM 240053Z AUTO VRB06KT 1 1/4SM -RA BR OVC002 07/06 A2987 RMK AO2 SLP116 P0005 T00670056=
202010240037 SPECI KCLM 240037Z AUTO 05007KT 1SM -RA BR OVC002 07/06 A2985 RMK AO2 P0005 T00670056=
202010232353 METAR KCLM 232353Z AUTO 32003KT 3/4SM -RA BR BKN004 OVC007 07/06 A2985 RMK AO2 SLP111 P0006 60009 T00720061 10078 20067 53013=
202010232314 SPECI KCLM 232314Z AUTO 26005KT 1 1/4SM -RA BR OVC004 07/06 A2983 RMK AO2 P0002 T00720061=
202010232253 METAR KCLM 232253Z AUTO 24005KT 1 1/4SM -RA BR BKN006 OVC013 07/06 A2983 RMK AO2 RAB01 SLP104 P0003 T00720061=
202010232217 SPECI KCLM 232217Z AUTO 25004KT 1 3/4SM -RA BR OVC006 07/06 A2983 RMK AO2 RAB01 P0000 T00720056=
202010232153 METAR KCLM 232153Z AUTO 25005KT 7SM BKN007 OVC019 07/05 A2982 RMK AO2 CIG 005V009 SLP100 T00720050=
202010232144 SPECI KCLM 232144Z AUTO 29004KT 9SM BKN008 OVC018 07/05 A2982 RMK AO2 T00720050=
202010232112 SPECI KCLM 232112Z AUTO 31004KT 10SM FEW009 BKN020 OVC043 07/05 A2981 RMK AO2 T00720050=
202010232053 METAR KCLM 232053Z AUTO 00000KT 9SM BKN009 OVC020 07/05 A2981 RMK AO2 RAB38E50 CIG 007V011 SLP097 P0000 60000 T00720050 56017=
202010232051 SPECI KCLM 232051Z AUTO 00000KT 9SM OVC009 07/05 A2982 RMK AO2 RAB38E50 CIG 007V011 P0000=
202010232033 SPECI KCLM 232033Z AUTO 00000KT 10SM BKN011 BKN017 OVC022 07/04 A2982 RMK AO2 T00670044=
202010231953 METAR KCLM 231953Z AUTO 04003KT 10SM BKN023 OVC055 07/04 A2982 RMK AO2 SLP101 T00720044=
202010231853 METAR KCLM 231853Z AUTO 00000KT 10SM OVC022 07/04 A2986 RMK AO2 SLP114 T00670044=
202010231753 METAR KCLM 231753Z AUTO 00000KT 10SM OVC025 07/04 A2989 RMK AO2 SLP122 60009 T00670044 10067 20056 58030=
202010231653 METAR KCLM 231653Z AUTO 09003KT 9SM OVC027 06/04 A2993 RMK AO2 RAE1555 SLP136 P0000 T00610044=
202010231601 SPECI KCLM 231601Z AUTO 00000KT 3SM BR OVC018 06/04 A2997 RMK AO2 RAE1555 P0000 T00610044=
202010231553 METAR KCLM 231553Z AUTO 00000KT 2 1/2SM -RA BR OVC016 06/04 A2998 RMK AO2 RAB10 PRESFR SLP153 P0001 T00560044=
202010231525 SPECI KCLM 231525Z AUTO 00000KT 2 1/2SM -RA BR BKN014 OVC021 06/05 A3001 RMK AO2 RAB10 P0000 T00560050=
202010231453 METAR KCLM 231453Z AUTO 00000KT 8SM FEW020 BKN027 OVC032 06/04 A3002 RMK AO2 RAE1359 SLP168 P0000 60008 T00560044 58034=
202010231445 SPECI KCLM 231445Z AUTO 00000KT 6SM BR SCT020 BKN029 OVC038 06/05 A3002 RMK AO2 RAE1359 P0000 T00560050=
202010231434 SPECI KCLM 231434Z AUTO 19004KT 10SM SCT020 BKN032 OVC055 06/04 A3003 RMK AO2 RAE1359 P0000 T00560044=
202010231427 SPECI KCLM 231427Z AUTO 19003KT 10SM BKN020 BKN032 OVC055 06/04 A3003 RMK AO2 RAE1359 P0000 T00610044=
202010231353 METAR KCLM 231353Z AUTO 00000KT 8SM -RA OVC050 06/05 A3005 RMK AO2 SLP177 P0004 T00560050=
202010231253 METAR KCLM 231253Z AUTO 23004KT 4SM RA BR BKN036 OVC055 06/04 A3010 RMK AO2 RAB1156 SLP194 P0004 T00560039=
202010231238 SPECI KCLM 231238Z AUTO 22005KT 6SM -RA BR SCT009 BKN038 OVC060 06/04 A3011 RMK AO2 RAB1156 P0002 T00560039=
202010231207 SPECI KCLM 231207Z AUTO 28004KT 7SM -RA BKN009 OVC060 06/04 A3013 RMK AO2 RAB1156 P0000 T00560039=
202010231153 METAR KCLM 231153Z AUTO 24003KT 10SM FEW009 OVC060 06/04 A3012 RMK AO2 SLP203 T00560039 10056 20022 56040=
202010231053 METAR KCLM 231053Z AUTO 22003KT 10SM OVC065 06/04 A3015 RMK AO2 SLP212 T00560039=
202010230953 METAR KCLM 230953Z AUTO 00000KT 10SM BKN070 OVC090 05/04 A3021 RMK AO2 SLP231 T00500039=
202010230853 METAR KCLM 230853Z AUTO 00000KT 10SM OVC110 04/03 A3024 RMK AO2 SLP244 T00440033 58028=
202010230753 METAR KCLM 230753Z AUTO 22004KT 10SM OVC110 04/03 A3029 RMK AO2 SLP258 T00440033 401000011=
202010230653 METAR KCLM 230653Z AUTO 22005KT 10SM BKN120 05/03 A3032 RMK AO2 SLP270 T00500028=
202010230553 METAR KCLM 230553Z AUTO 00000KT 8SM CLR 02/01 A3033 RMK AO2 SLP272 T00220011 10094 20017 58012=
202010230453 METAR KCLM 230453Z AUTO 00000KT 9SM CLR 03/02 A3034 RMK AO2 SLP276 T00330022=
202010230353 METAR KCLM 230353Z AUTO 00000KT 7SM CLR 03/02 A3035 RMK AO2 SLP280 T00330022=
202010230253 METAR KCLM 230253Z AUTO 00000KT 7SM CLR 05/04 A3036 RMK AO2 SLP284 T00500039 58008=
202010230153 METAR KCLM 230153Z AUTO 00000KT 10SM BKN070 06/04 A3037 RMK AO2 SLP287 T00610044=
202010230053 METAR KCLM 230053Z AUTO 00000KT 10SM SCT060 07/04 A3038 RMK AO2 SLP290 T00720044=
202010222353 METAR KCLM 222353Z AUTO 07004KT 10SM BKN065 09/05 A3039 RMK AO2 SLP292 T00940050 10100 20083 56006=
202010222253 METAR KCLM 222253Z AUTO 02004KT 10SM SCT070 09/06 A3039 RMK AO2 SLP293 T00940056=
202010222211 SPECI KCLM 222211Z AUTO 00000KT 10SM SCT014 09/05 A3040 RMK AO2 T00890050=
202010222153 METAR KCLM 222153Z AUTO 00000KT 10SM BKN014 10/06 A3040 RMK AO2 SLP296 T01000056=
202010222053 METAR KCLM 222053Z AUTO 00000KT 10SM FEW016 08/04 A3041 RMK AO2 SLP298 T00830044 58004=
202010222031 SPECI KCLM 222031Z AUTO 03006KT 10SM SCT014 08/04 A3041 RMK AO2 T00830044=
202010222008 SPECI KCLM 222008Z AUTO VRB04KT 10SM BKN013 09/05 A3041 RMK AO2 T00890050=
202010221953 METAR KCLM 221953Z AUTO 08006KT 10SM FEW013 09/05 A3041 RMK AO2 SLP300 T00940050=
202010221853 METAR KCLM 221853Z AUTO 06005KT 10SM CLR 10/04 A3041 RMK AO2 SLP301 T01000044=
202010221753 METAR KCLM 221753Z AUTO 09003KT 10SM CLR 09/04 A3042 RMK AO2 SLP302 T00940044 10094 20011 51013=
202010221653 METAR KCLM 221653Z AUTO 23004KT 10SM CLR 07/02 A3041 RMK AO2 SLP301 T00670017=
202010221553 METAR KCLM 221553Z AUTO 22007KT 10SM FEW023 04/01 A3040 RMK AO2 SLP295 T00390011=
202010221453 METAR KCLM 221453Z AUTO 23007KT 10SM CLR 03/00 A3038 RMK AO2 SLP288 T00280000 53010=
202010221353 METAR KCLM 221353Z AUTO 22005KT 10SM CLR 02/00 A3036 RMK AO2 SLP285 T00170000=
202010221253 METAR KCLM 221253Z AUTO 21004KT 10SM CLR 01/00 A3035 RMK AO2 SLP281 T00110000=
202010221053 METAR KCLM 221053Z AUTO 22004KT 10SM CLR 02/00 A3034 RMK AO2 SLP276 T00170000=
202010220953 METAR KCLM 220953Z AUTO 22005KT 10SM CLR 04/01 A3033 RMK AO2 SLP272 T00390006=
202010220853 METAR KCLM 220853Z AUTO 23007KT 10SM CLR 04/01 A3031 RMK AO2 SLP265 T00440011 53006=
202010220753 METAR KCLM 220753Z AUTO 22006KT 10SM CLR 04/01 A3030 RMK AO2 SLP261 T00390011 401220033=
202010220653 METAR KCLM 220653Z AUTO 23008KT 10SM CLR 04/02 A3029 RMK AO2 SLP260 T00440017=
202010220553 METAR KCLM 220553Z AUTO 22007KT 10SM CLR 04/02 A3029 RMK AO2 SLP260 T00440017 10111 20033 51016=
202010220453 METAR KCLM 220453Z AUTO 22006KT 10SM CLR 05/02 A3028 RMK AO2 SLP255 T00500017=
202010220353 METAR KCLM 220353Z AUTO 00000KT 10SM CLR 04/02 A3027 RMK AO2 SLP251 T00390017=
202010220253 METAR KCLM 220253Z AUTO 00000KT 10SM CLR 05/03 A3025 RMK AO2 SLP244 T00500033 51011=
202010220153 METAR KCLM 220153Z AUTO 00000KT 10SM CLR 05/03 A3024 RMK AO2 SLP241 T00500028=
202010220053 METAR KCLM 220053Z AUTO 00000KT 10SM FEW070 09/03 A3023 RMK AO2 SLP237 T00890028=
202010212353 METAR KCLM 212353Z AUTO 12004KT 10SM BKN070 11/03 A3021 RMK AO2 SLP232 T01110028 10122 20094 51016=
202010212253 METAR KCLM 212253Z AUTO 06006KT 10SM BKN070 12/03 A3020 RMK AO2 SLP227 T01220033=
202010212153 METAR KCLM 212153Z AUTO 04006KT 10SM CLR 12/04 A3018 RMK AO2 SLP222 T01170044=
202010212053 METAR KCLM 212053Z AUTO VRB05KT 10SM CLR 12/04 A3017 RMK AO2 SLP216 T01170044 53007=
202010211953 METAR KCLM 211953Z AUTO 30010G15KT 10SM CLR 12/04 A3016 RMK AO2 SLP213 T01170044=
202010211853 METAR KCLM 211853Z AUTO 31006KT 10SM CLR 10/05 A3015 RMK AO2 SLP211 T01000050=
202010211753 METAR KCLM 211753Z AUTO 29009KT 10SM CLR 11/06 A3015 RMK AO2 RAE01B20E35 SLP210 P0000 60000 T01060056 10106 20067 51020=
202010211653 METAR KCLM 211653Z AUTO 29007KT 9SM -RA BKN047 09/04 A3012 RMK AO2 RAB48 SLP202 P0000 T00940039=
202010211553 METAR KCLM 211553Z AUTO 29007KT 10SM OVC045 10/03 A3011 RMK AO2 SLP197 T01000033=
202010211453 METAR KCLM 211453Z AUTO 23008KT 10SM CLR 08/03 A3009 RMK AO2 SLP190 T00780028 57001=
202010211353 METAR KCLM 211353Z AUTO 25007KT 10SM CLR 08/03 A3009 RMK AO2 SLP191 T00780033=
202010211253 METAR KCLM 211253Z AUTO 24008KT 10SM FEW055 08/04 A3008 RMK AO2 SLP188 T00780039=
202010211153 METAR KCLM 211153Z AUTO 27010KT 10SM FEW039 09/03 A3009 RMK AO2 SLP190 60000 T00890033 10100 20072 56007=
202010211053 METAR KCLM 211053Z AUTO 25008KT 10SM BKN039 07/04 A3009 RMK AO2 SLP191 T00720039=
202010210953 METAR KCLM 210953Z AUTO 24006KT 10SM CLR 07/05 A3010 RMK AO2 SLP195 T00720050=
202010210853 METAR KCLM 210853Z AUTO 26008KT 6SM HZ FEW038 09/04 A3011 RMK AO2 RAB05E36 SLP197 P0000 60000 T00890044 53000=
202010210753 METAR KCLM 210753Z AUTO 28009KT 10SM SCT065 09/04 A3011 RMK AO2 SLP197 T00940044 401390067=
202010210653 METAR KCLM 210653Z AUTO 24007KT 10SM SCT065 09/06 A3010 RMK AO2 RAB20E30 SLP194 P0000 T00890061=
202010210553 METAR KCLM 210553Z AUTO 25005KT 10SM SCT043 BKN070 08/06 A3011 RMK AO2 SLP196 T00830056 10117 20072 56007=
202010210453 METAR KCLM 210453Z AUTO 26007KT 10SM FEW039 BKN050 BKN060 09/06 A3011 RMK AO2 SLP198 T00940061=
202010210353 METAR KCLM 210353Z AUTO 24007KT 10SM FEW055 08/06 A3012 RMK AO2 SLP200 T00830061=
202010210253 METAR KCLM 210253Z AUTO 00000KT 8SM BKN060 08/06 A3013 RMK AO2 SLP205 T00780061 55004=
202010210153 METAR KCLM 210153Z AUTO 29004KT 7SM CLR 09/08 A3013 RMK AO2 SLP203 T00940078=
202010210123 SPECI KCLM 210123Z AUTO 27010KT 6SM BR SCT012 BKN075 10/08 A3013 RMK AO2 T01000078=
202010210053 METAR KCLM 210053Z AUTO 29006KT 6SM HZ BKN013 11/08 A3014 RMK AO2 SLP206 T01060078=
202010202353 METAR KCLM 202353Z AUTO 30006KT 6SM HZ CLR 12/08 A3014 RMK AO2 SLP208 T01170078 10139 20111 56009=
202010202253 METAR KCLM 202253Z AUTO VRB04KT 10SM CLR 13/07 A3015 RMK AO2 SLP209 T01280067=
202010202153 METAR KCLM 202153Z AUTO 31004KT 9SM CLR 14/06 A3016 RMK AO2 SLP215 T01390061=
202010202053 METAR KCLM 202053Z AUTO 31004KT 9SM CLR 13/06 A3017 RMK AO2 SLP217 T01330056 58016=
202010201953 METAR KCLM 201953Z AUTO 34005KT 10SM FEW080 13/04 A3020 RMK AO2 SLP228 T01280044=
202010201853 METAR KCLM 201853Z AUTO 36003KT 9SM CLR 12/04 A3022 RMK AO2 SLP234 T01220039=
202010201753 METAR KCLM 201753Z AUTO 23004KT 10SM CLR 12/03 A3022 RMK AO2 SLP234 T01170033 10122 20067 53004=
202010201653 METAR KCLM 201653Z AUTO 00000KT 10SM CLR 09/04 A3021 RMK AO2 SLP230 T00940039=
202010201553 METAR KCLM 201553Z AUTO 22003KT 10SM CLR 08/03 A3021 RMK AO2 SLP232 T00830033=
202010201453 METAR KCLM 201453Z AUTO 24005KT 10SM CLR 08/02 A3020 RMK AO2 SLP229 T00780022 56005=
202010201353 METAR KCLM 201353Z AUTO 23007KT 10SM CLR 07/03 A3021 RMK AO2 SLP230 T00720028=
202010201253 METAR KCLM 201253Z AUTO 23007KT 10SM CLR 08/03 A3021 RMK AO2 SLP230 T00780028=
202010201153 METAR KCLM 201153Z AUTO 23006KT 10SM BKN041 08/04 A3022 RMK AO2 SLP234 T00780039 10094 20078 50002=
202010201053 METAR KCLM 201053Z AUTO 25006KT 10SM OVC039 09/04 A3023 RMK AO2 SLP237 T00890039=
202010200953 METAR KCLM 200953Z AUTO 24007KT 10SM CLR 09/04 A3023 RMK AO2 SLP236 T00890039=
202010200853 METAR KCLM 200853Z AUTO 24007KT 10SM CLR 09/04 A3021 RMK AO2 SLP232 T00940039 58000=
202010200753 METAR KCLM 200753Z AUTO 25007KT 10SM CLR 09/04 A3022 RMK AO2 SLP233 T00890039 401500089=
202010200653 METAR KCLM 200653Z AUTO 24010KT 10SM CLR 09/04 A3022 RMK AO2 SLP233 T00940039=
202010200553 METAR KCLM 200553Z AUTO 25008KT 10SM CLR 09/04 A3021 RMK AO2 SLP233 T00890044 10139 20089 51006=
202010200453 METAR KCLM 200453Z AUTO 27011KT 10SM CLR 10/04 A3020 RMK AO2 SLP229 T01000044=
202010200353 METAR KCLM 200353Z AUTO 28006KT 10SM CLR 09/04 A3021 RMK AO2 SLP230 T00940044=
202010200253 METAR KCLM 200253Z AUTO 28008KT 10SM CLR 11/06 A3020 RMK AO2 SLP226 T01060056 53009=
202010200153 METAR KCLM 200153Z AUTO 29007KT 10SM CLR 11/06 A3019 RMK AO2 SLP225 T01110056=
202010200053 METAR KCLM 200053Z AUTO 28008KT 10SM BKN060 OVC100 13/06 A3017 RMK AO2 SLP218 T01280061=
202010192353 METAR KCLM 192353Z AUTO 26015G23KT 10SM OVC090 14/05 A3017 RMK AO2 SLP217 T01390050 10150 20139 52002=
202010192253 METAR KCLM 192253Z AUTO 27009G20KT 10SM OVC090 14/06 A3016 RMK AO2 SLP215 T01390056=
202010192153 METAR KCLM 192153Z AUTO 26011G18KT 10SM SCT046 OVC085 14/06 A3017 RMK AO2 SLP217 T01440056=
202010192053 METAR KCLM 192053Z AUTO 30014G21KT 10SM OVC085 14/06 A3016 RMK AO2 PK WND 29027/2013 SLP214 T01440061 53003=
202010191953 METAR KCLM 191953Z AUTO 30012G19KT 10SM OVC095 14/06 A3015 RMK AO2 PK WND 29027/1902 SLP210 T01440061=
202010191853 METAR KCLM 191853Z AUTO 28017G28KT 10SM OVC100 14/07 A3015 RMK AO2 PK WND 28028/1853 SLP208 T01440067=
202010191753 METAR KCLM 191753Z AUTO 27013G17KT 10SM FEW043 BKN110 14/06 A3016 RMK AO2 SLP212 T01440056 10150 20089 53013=
202010191653 METAR KCLM 191653Z AUTO 29012G22KT 10SM FEW120 14/06 A3013 RMK AO2 SLP203 T01440061=
202010191553 METAR KCLM 191553Z AUTO 28010G18KT 10SM CLR 13/07 A3013 RMK AO2 SLP205 T01280067=
202010191453 METAR KCLM 191453Z AUTO 24007KT 10SM CLR 11/08 A3012 RMK AO2 SLP199 T01060078 51006=
202010191353 METAR KCLM 191353Z AUTO 25006KT 10SM CLR 11/08 A3012 RMK AO2 SLP199 T01110083=
202010191320 SPECI KCLM 191320Z AUTO 24006KT 10SM SCT008 SCT029 12/09 A3011 RMK AO2 T01170094=
202010191253 METAR KCLM 191253Z AUTO 24006KT 10SM BKN008 OVC013 11/09 A3011 RMK AO2 SLP198 T01110094=
202010191232 SPECI KCLM 191232Z AUTO 00000KT 10SM BKN014 OVC045 09/08 A3011 RMK AO2 T00940083=
202010191153 METAR KCLM 191153Z AUTO 00000KT 10SM OVC050 09/08 A3010 RMK AO2 SLP194 70007 T00940078 10122 20089 51010=
202010191053 METAR KCLM 191053Z AUTO 23007KT 10SM FEW055 10/07 A3010 RMK AO2 SLP193 T01000072=
202010190753 METAR KCLM 190753Z AUTO 26007KT 10SM CLR 11/08 A3007 RMK AO2 SLP182 T01110083 401390089=
202010190653 METAR KCLM 190653Z AUTO 25007KT 10SM FEW100 11/09 A3006 RMK AO2 SLP179 T01110094=
202010190608 SPECI KCLM 190608Z AUTO 19003KT 6SM BR FEW001 09/08 A3005 RMK AO2 T00890083=
202010190559 SPECI KCLM 190559Z AUTO 19003KT 2SM BR FEW001 09/08 A3005 RMK AO2 VIS 1V5 T00890083=
202010190553 METAR KCLM 190553Z AUTO 00000KT 1SM BR VV001 10/09 A3005 RMK AO2 VIS 1/4V5 SLP177 T01000089 10133 20089 50007=
202010190549 SPECI KCLM 190549Z AUTO 00000KT 3/4SM BR VV001 09/08 A3006 RMK AO2 VIS 1/4V4=
202010190547 SPECI KCLM 190547Z AUTO 00000KT 1 1/2SM BR FEW001 09/08 A3006 RMK AO2 VIS 1/2V5=
202010190453 METAR KCLM 190453Z AUTO 21006KT 9SM FEW120 11/09 A3005 RMK AO2 SLP178 T01110094=
202010190353 METAR KCLM 190353Z AUTO 26005KT 10SM CLR 12/10 A3005 RMK AO2 SLP175 T01170100=
202010190253 METAR KCLM 190253Z AUTO 31003KT 8SM FEW010 12/11 A3003 RMK AO2 SLP170 T01220111 50004=
202010190239 SPECI KCLM 190239Z AUTO 32003KT 10SM SCT008 13/11 A3003 RMK AO2 T01280111=
202010190153 METAR KCLM 190153Z AUTO 26006KT 10SM OVC005 13/12 A3003 RMK AO2 SLP171 T01280117=
202010190053 METAR KCLM 190053Z AUTO 26004KT 10SM OVC005 13/12 A3002 RMK AO2 SLP167 T01330117=
202010190043 SPECI KCLM 190043Z AUTO 26005KT 10SM OVC005 13/12 A3002 RMK AO2 T01330117=
202010190008 SPECI KCLM 190008Z AUTO 00000KT 10SM OVC004 13/12 A3002 RMK AO2 CIG 003V007 T01330122=
202010182353 METAR KCLM 182353Z AUTO 00000KT 8SM OVC005 13/12 A3002 RMK AO2 SLP166 T01330122 10139 20100 51006=
202010182330 SPECI KCLM 182330Z AUTO 27006KT 10SM OVC005 13/12 A3001 RMK AO2 T01330122=
202010182253 METAR KCLM 182253Z AUTO VRB03KT 8SM OVC003 13/12 A3001 RMK AO2 SLP164 T01280117=
202010182211 SPECI KCLM 182211Z AUTO 29007KT 3SM BR OVC002 12/11 A3003 RMK AO2 T01170111=
202010182202 SPECI KCLM 182202Z AUTO 29007KT 2SM BR OVC002 12/11 A3003 RMK AO2 T01170111=
202010182153 METAR KCLM 182153Z AUTO 29007KT 1 3/4SM BR OVC002 12/11 A3002 RMK AO2 SLP166 T01170111=
202010182147 SPECI KCLM 182147Z AUTO 30005KT 1 3/4SM BR OVC002 12/11 A3002 RMK AO2=
202010182053 METAR KCLM 182053Z AUTO 00000KT 7SM OVC004 12/11 A3000 RMK AO2 SLP161 T01220106 50004=
202010182025 SPECI KCLM 182025Z AUTO 00000KT 3SM BR OVC004 12/11 A3002 RMK AO2 T01220106=
202010182007 SPECI KCLM 182007Z AUTO 25003KT 1 3/4SM BR OVC003 11/10 A3003 RMK AO2 T01110100=
202010181953 METAR KCLM 181953Z AUTO 00000KT 7SM OVC002 11/10 A3003 RMK AO2 SLP170 T01110100=
202010181911 SPECI KCLM 181911Z AUTO 00000KT 3SM BR OVC002 10/09 A3001 RMK AO2 T01000094=
202010181902 SPECI KCLM 181902Z AUTO 00000KT 2 1/2SM BR OVC002 10/09 A3001 RMK AO2 T01000094=
202010181853 METAR KCLM 181853Z AUTO 32003KT 3SM BR OVC002 10/09 A3002 RMK AO2 SLP165 T01000094=
202010181837 SPECI KCLM 181837Z AUTO 00000KT 3SM BR OVC002 10/09 A3002 RMK AO2 T01000089=
202010181820 SPECI KCLM 181820Z AUTO 00000KT 1 3/4SM BR OVC002 10/09 A3001 RMK AO2 T01000089=
202010181805 SPECI KCLM 181805Z AUTO VRB03KT 5SM BR OVC002 10/09 A3000 RMK AO2 T01000094=
202010181758 SPECI KCLM 181758Z AUTO 00000KT 2SM BR OVC002 10/09 A2999 RMK AO2 VIS 3/4V5 T01000094=
202010181753 METAR KCLM 181753Z AUTO 00000KT 1/2SM FG VV002 10/09 A2999 RMK AO2 SLP157 60007 T01000089 10100 20089 53004=
202010181719 SPECI KCLM 181719Z AUTO 00000KT 1/4SM FG OVC002 10/09 A2998 RMK AO2 T01000089=
202010181711 SPECI KCLM 181711Z AUTO 00000KT 1 3/4SM BR OVC002 10/09 A2998 RMK AO2 T01000089=
202010181653 METAR KCLM 181653Z AUTO 00000KT 6SM BR OVC002 10/09 A2997 RMK AO2 SLP150 T01000089=
202010181646 SPECI KCLM 181646Z AUTO 13003KT 3SM BR OVC002 10/09 A2997 RMK AO2 T01000089=
202010181620 SPECI KCLM 181620Z AUTO 00000KT 1 1/4SM BR OVC002 09/09 A2997 RMK AO2 VIS 3/4V2 1/2 T00940089=
202010181603 SPECI KCLM 181603Z AUTO 00000KT 1/2SM FG OVC002 09/09 A2997 RMK AO2 T00940089=
202010181553 METAR KCLM 181553Z AUTO 00000KT 1 1/2SM BR BKN002 BKN018 OVC046 09/08 A2996 RMK AO2 VIS 3/4V5 RAE21 SLP147 P0000 T00940083=
202010181551 SPECI KCLM 181551Z AUTO 00000KT 2 1/2SM BR BKN002 OVC046 09/08 A2997 RMK AO2 VIS 3/4V5 RAE21 P0000=
202010181528 SPECI KCLM 181528Z AUTO 00000KT 9SM SCT003 BKN038 OVC045 09/08 A2996 RMK AO2 RAE21 P0000 T00940083=
202010181502 SPECI KCLM 181502Z AUTO 00000KT 4SM -RA BR OVC003 09/08 A2998 RMK AO2 P0000 T00890083=
202010181453 METAR KCLM 181453Z AUTO 00000KT 2 1/2SM -RA BR OVC003 09/08 A2998 RMK AO2 RAB1359 SLP152 P0006 60007 T00890083 53007=
202010181431 SPECI KCLM 181431Z AUTO 00000KT 3SM -RA BR OVC003 09/08 A2997 RMK AO2 RAB1359 P0004 T00890083=
202010181403 SPECI KCLM 181403Z AUTO 00000KT 2 1/2SM -RA BR OVC002 09/08 A2996 RMK AO2 RAB1359 P0001 T00890078=
202010181353 METAR KCLM 181353Z AUTO 00000KT 1 1/4SM BR OVC002 09/08 A2996 RMK AO2 RAB28E45 SLP145 P0000 T00890078=
202010181326 SPECI KCLM 181326Z AUTO 00000KT 1/2SM FG VV002 09/08 A2996 RMK AO2 T00890083=
202010181316 SPECI KCLM 181316Z AUTO 00000KT 1 3/4SM BR OVC002 09/08 A2996 RMK AO2 T00890083=
202010181307 SPECI KCLM 181307Z AUTO 00000KT 3SM BR BKN002 BKN015 OVC045 09/08 A2996 RMK AO2 T00890083=
202010181300 SPECI KCLM 181300Z AUTO 00000KT 5SM BR SCT002 BKN015 OVC049 09/08 A2996 RMK AO2 T00890083=
202010181253 METAR KCLM 181253Z AUTO 33003KT 7SM SCT003 SCT015 OVC049 09/08 A2996 RMK AO2 RAE25 SLP146 P0001 T00890083=
202010181249 SPECI KCLM 181249Z AUTO 00000KT 8SM FEW003 SCT015 OVC049 09/08 A2996 RMK AO2 RAE25 P0001=
202010181242 SPECI KCLM 181242Z AUTO 00000KT 9SM SCT003 BKN015 OVC049 09/08 A2995 RMK AO2 RAE25 P0001 T00890083=
202010181153 METAR KCLM 181153Z AUTO 06004KT 6SM -RA BR BKN004 BKN009 OVC050 09/08 A2997 RMK AO2 SLP148 P0003 60017 70018 T00890083 10106 20089 58022=
202010181119 SPECI KCLM 181119Z AUTO 09007KT 3SM -RA BR OVC002 09/08 A3000 RMK AO2 P0002 T00890078=
202010181053 METAR KCLM 181053Z AUTO 08007KT 2 1/2SM -RA BR OVC002 09/08 A3002 RMK AO2 RAB01 SLP166 P0001 T00940083=
202010180953 METAR KCLM 180953Z AUTO 07004KT 7SM BKN003 OVC015 09/08 A3003 RMK AO2 RAE31 CIG 001V007 SLP170 P0003 T00890083=
202010180925 SPECI KCLM 180925Z AUTO 08006KT 5SM -RA BR BKN004 BKN013 OVC037 09/08 A3004 RMK AO2 P0003 T00940083=
202010180914 SPECI KCLM 180914Z AUTO 07004KT 4SM -RA BR BKN005 BKN009 OVC038 09/09 A3005 RMK AO2 P0003 T00940089=
202010180903 SPECI KCLM 180903Z AUTO 10005KT 2 1/2SM RA BR BKN005 BKN015 OVC036 09/08 A3006 RMK AO2 PRESFR P0002 T00940083=
202010180853 METAR KCLM 180853Z AUTO 08003KT 3SM -RA BR BKN003 BKN007 OVC015 10/09 A3008 RMK AO2 SLP187 P0009 60010 T01000089 58009=
202010180849 SPECI KCLM 180849Z AUTO 08004KT 3SM -RA BR BKN003 OVC013 10/09 A3008 RMK AO2 P0008=
202010180842 SPECI KCLM 180842Z AUTO 09003KT 2 1/2SM -RA BR BKN005 OVC019 10/09 A3009 RMK AO2 P0008 T01000089=
202010180826 SPECI KCLM 180826Z AUTO 08003KT 2 1/2SM -RA BR OVC004 10/09 A3010 RMK AO2 P0006 T01000089=
202010180809 SPECI KCLM 180809Z AUTO 07003KT 2 1/2SM -RA BR FEW003 BKN008 OVC023 10/09 A3010 RMK AO2 P0003 T01000089=
202010180753 METAR KCLM 180753Z AUTO 00000KT 2 1/2SM -RA BR FEW006 BKN022 OVC027 10/09 A3010 RMK AO2 RAB06E15B33 SLP194 P0001 T01000089 401280067=
202010180746 SPECI KCLM 180746Z AUTO 00000KT 2SM -RA BR SCT019 BKN029 OVC038 10/09 A3010 RMK AO2 RAB06E15B33 P0001 T01000089=
202010180735 SPECI KCLM 180735Z AUTO 04003KT 4SM -RA BR FEW020 BKN029 OVC047 10/09 A3009 RMK AO2 RAB06E15B33 P0000 T01000089=
202010180653 METAR KCLM 180653Z AUTO 00000KT 7SM OVC045 10/09 A3009 RMK AO2 SLP192 T01000089=
202010180553 METAR KCLM 180553Z AUTO 00000KT 7SM FEW047 BKN060 OVC075 10/09 A3011 RMK AO2 SLP197 60000 T01000089 10111 20100 58020=
202010180530 SPECI KCLM 180530Z AUTO 00000KT 7SM SCT015 SCT047 OVC065 10/09 A3011 RMK AO2 T01000089=
202010180453 METAR KCLM 180453Z AUTO 00000KT 7SM BKN017 OVC050 10/09 A3013 RMK AO2 SLP205 T01000089=
202010180353 METAR KCLM 180353Z AUTO 00000KT 7SM OVC055 10/09 A3015 RMK AO2 SLP212 T01000089=
202010180253 METAR KCLM 180253Z AUTO 00000KT 8SM OVC060 11/09 A3017 RMK AO2 RAE0157B35E47 SLP217 P0000 60000 T01060089 58007=
202010180215 SPECI KCLM 180215Z AUTO 21003KT 8SM SCT014 OVC060 11/09 A3018 RMK AO2 RAE0157 P0000 T01060089=
202010180208 SPECI KCLM 180208Z AUTO 24003KT 8SM BKN014 OVC060 11/09 A3018 RMK AO2 RAE0157 P0000 T01060089=
202010180153 METAR KCLM 180153Z AUTO 17004KT 7SM -RA BKN015 BKN021 OVC060 11/09 A3018 RMK AO2 RAB22 SLP221 P0000 T01060089=
202010180130 SPECI KCLM 180130Z AUTO 25004KT 8SM -RA SCT012 BKN017 OVC060 11/08 A3019 RMK AO2 RAB22 P0000 T01060083=
202010180108 SPECI KCLM 180108Z AUTO 00000KT 7SM BKN012 OVC085 11/09 A3019 RMK AO2 T01110089=
202010180053 METAR KCLM 180053Z AUTO 00000KT 7SM FEW012 OVC085 11/09 A3018 RMK AO2 RAE12 SLP221 P0000 T01110094=
202010172353 METAR KCLM 172353Z AUTO 31003KT 6SM -RA BR SCT070 OVC100 11/09 A3019 RMK AO2 RAB15 SLP224 P0001 60001 T01110089 10128 20111 55005=
202010172253 METAR KCLM 172253Z AUTO VRB04KT 7SM OVC090 12/09 A3018 RMK AO2 RAB22E46 SLP221 P0000 T01220089=
202010172153 METAR KCLM 172153Z AUTO 30004KT 7SM BKN090 OVC100 12/08 A3020 RMK AO2 RAB26E42 SLP227 P0000 T01220083=
202010172053 METAR KCLM 172053Z AUTO 31005KT 8SM OVC090 12/08 A3020 RMK AO2 RAB30E39 SLP229 P0000 60000 T01220078 53008=
202010171953 METAR KCLM 171953Z AUTO 34003KT 5SM HZ BKN110 13/08 A3019 RMK AO2 SLP223 T01280078=
202010171853 METAR KCLM 171853Z AUTO 00000KT 8SM OVC110 12/08 A3019 RMK AO2 SLP223 T01170078=
202010171753 METAR KCLM 171753Z AUTO 01003KT 10SM CLR 12/07 A3018 RMK AO2 SLP220 T01220072 10128 20067 51008=
202010171653 METAR KCLM 171653Z AUTO 26003KT 9SM CLR 12/06 A3017 RMK AO2 SLP218 T01170061=
202010171553 METAR KCLM 171553Z AUTO 23004KT 10SM CLR 10/07 A3017 RMK AO2 SLP216 T01000067=
202010171453 METAR KCLM 171453Z AUTO 22007KT 10SM CLR 08/06 A3015 RMK AO2 SLP212 T00830061 51008=
202010171353 METAR KCLM 171353Z AUTO 22004KT 9SM CLR 08/07 A3014 RMK AO2 SLP208 T00780067=
202010171336 SPECI KCLM 171336Z AUTO 23005KT 9SM FEW007 SCT018 08/07 A3014 RMK AO2 T00830072=
202010171329 SPECI KCLM 171329Z AUTO 22005KT 9SM SCT007 BKN019 09/08 A3014 RMK AO2 T00890078=
202010171253 METAR KCLM 171253Z AUTO 25005KT 10SM BKN006 09/08 A3015 RMK AO2 SLP209 T00940083=
202010171153 METAR KCLM 171153Z AUTO 32004KT 9SM BKN005 11/09 A3013 RMK AO2 SLP203 70005 T01060094 10117 20089 53001=
202010171150 SPECI KCLM 171150Z AUTO 30005KT 9SM BKN005 11/09 A3013 RMK AO2=
202010171139 SPECI KCLM 171139Z AUTO 31005KT 9SM SCT005 10/09 A3013 RMK AO2 T01000089=
202010171053 METAR KCLM 171053Z AUTO VRB03KT 7SM CLR 09/09 A3011 RMK AO2 SLP197 T00940089=
202010171000 SPECI KCLM 171000Z AUTO 29006KT 10SM SCT006 11/09 A3012 RMK AO2 T01060089=
202010170953 METAR KCLM 170953Z AUTO 28007KT 10SM BKN006 11/09 A3013 RMK AO2 SLP202 T01060094=
202010170853 METAR KCLM 170853Z AUTO 28006KT 9SM OVC007 11/10 A3012 RMK AO2 SLP199 T01110100 51013=
202010170753 METAR KCLM 170753Z AUTO 30006KT 8SM OVC005 11/10 A3011 RMK AO2 SLP195 T01110100 402110083=
202010170707 SPECI KCLM 170707Z AUTO 27007KT 9SM OVC005 11/10 A3011 RMK AO2 T01110100=
202010170653 METAR KCLM 170653Z AUTO 25006KT 9SM OVC004 11/10 A3011 RMK AO2 SLP195 T01110100=
202010170625 SPECI KCLM 170625Z AUTO 29006KT 8SM BKN004 BKN009 11/10 A3009 RMK AO2 T01110100=
202010170612 SPECI KCLM 170612Z AUTO 29008KT 10SM SCT006 BKN010 12/10 A3009 RMK AO2 T01170100=
202010170553 METAR KCLM 170553Z AUTO 31005KT 10SM CLR 12/10 A3008 RMK AO2 SLP185 T01170100 10172 20111 51004=
202010170505 SPECI KCLM 170505Z AUTO 28009KT 10SM SCT009 12/10 A3007 RMK AO2 T01170100=
202010170453 METAR KCLM 170453Z AUTO 27009KT 10SM BKN008 12/10 A3007 RMK AO2 CIG 007V013 SLP184 T01170100=
202010170353 METAR KCLM 170353Z AUTO 28011KT 9SM OVC005 12/11 A3007 RMK AO2 CIG 004V009 SLP184 T01220106=
202010170312 SPECI KCLM 170312Z AUTO 28010G21KT 8SM BKN005 OVC012 12/11 A3007 RMK AO2 T01220106=
202010170253 METAR KCLM 170253Z AUTO 29018G24KT 9SM FEW002 FEW007 OVC012 12/11 A3007 RMK AO2 SLP182 T01220111 51009=
202010170249 SPECI KCLM 170249Z AUTO 29015G22KT 9SM SCT002 OVC012 12/11 A3006 RMK AO2=
202010170205 SPECI KCLM 170205Z AUTO 29013G19KT 6SM BR BKN004 13/12 A3005 RMK AO2 T01280117=
202010170153 METAR KCLM 170153Z AUTO 29011G16KT 8SM FEW004 SCT050 14/13 A3004 RMK AO2 SLP175 T01390128=
202010170053 METAR KCLM 170053Z AUTO 29014G20KT 6SM BR SCT003 BKN060 14/13 A3004 RMK AO2 SLP173 T01390128=
202010162353 METAR KCLM 162353Z AUTO 30009KT 8SM FEW060 17/13 A3003 RMK AO2 SLP170 60005 T01720128 10211 20167 55012=
202010162253 METAR KCLM 162253Z AUTO 28008KT 10SM OVC046 18/14 A3003 RMK AO2 RAE2156 SLP169 P0000 T01830139=
202010162153 METAR KCLM 162153Z AUTO 28010KT 7SM -RA BKN045 OVC060 17/14 A3004 RMK AO2 SLP172 P0002 T01720144=
202010162113 SPECI KCLM 162113Z AUTO 28013KT 6SM -RA BKN037 OVC046 17/14 A3006 RMK AO2 P0001 T01720144=
202010162106 SPECI KCLM 162106Z AUTO 27014G21KT 2 1/2SM -RA BKN036 OVC044 17/14 A3006 RMK AO2 P0001 T01720144=
202010162053 METAR KCLM 162053Z AUTO 28012KT 4SM -RA BR BKN038 OVC050 17/14 A3007 RMK AO2 SLP182 P0003 60003 T01670144 56007=
202010162030 SPECI KCLM 162030Z AUTO 27012KT 7SM -RA BKN038 BKN045 OVC049 18/14 A3007 RMK AO2 P0002 T01780139=
202010161953 METAR KCLM 161953Z AUTO 30012G23KT 2 1/2SM -RA BKN047 OVC055 18/13 A3007 RMK AO2 PK WND 26027/1857 RAB42 SLP183 P0000 T01780133=
202010161853 METAR KCLM 161853Z AUTO 27017G28KT 6SM HZ OVC065 21/12 A3006 RMK AO2 PK WND 26028/1852 SLP181 T02060122=
202010161753 METAR KCLM 161753Z AUTO 29014G20KT 5SM HZ CLR 21/12 A3009 RMK AO2 SLP188 T02060122 10206 20083 56027=
202010161653 METAR KCLM 161653Z AUTO 31008KT 5SM HZ FEW047 FEW100 17/12 A3010 RMK AO2 SLP193 T01670117=
202010161553 METAR KCLM 161553Z AUTO 00000KT 7SM OVC042 11/09 A3015 RMK AO2 SLP209 T01110089=
202010161453 METAR KCLM 161453Z AUTO 00000KT 8SM BKN044 OVC055 09/08 A3017 RMK AO2 SLP217 T00940083 58030=
202010161353 METAR KCLM 161353Z AUTO 00000KT 7SM BKN070 08/07 A3020 RMK AO2 SLP228 T00830072=
202010161305 SPECI KCLM 161305Z AUTO 17003KT 9SM SCT003 BKN045 BKN060 09/08 A3022 RMK AO2 T00890078=
202010161253 METAR KCLM 161253Z AUTO 00000KT 9SM BKN003 BKN045 OVC055 09/08 A3024 RMK AO2 SLP240 T00940083=
202010161241 SPECI KCLM 161241Z AUTO 00000KT 8SM BKN004 BKN048 OVC070 09/08 A3025 RMK AO2 T00940078=
202010161219 SPECI KCLM 161219Z AUTO 00000KT 9SM FEW005 BKN045 OVC070 09/08 A3025 RMK AO2 T00940083=
202010161153 METAR KCLM 161153Z AUTO 00000KT 9SM BKN042 OVC049 09/08 A3026 RMK AO2 SLP247 T00940078 10106 20094 58035=
202010161053 METAR KCLM 161053Z AUTO 00000KT 9SM BKN041 OVC050 09/08 A3030 RMK AO2 SLP261 T00940078=
202010160953 METAR KCLM 160953Z AUTO 24004KT 7SM OVC041 10/08 A3033 RMK AO2 SLP271 T01000083=
202010160853 METAR KCLM 160853Z AUTO 00000KT 6SM BR FEW026 BKN036 OVC043 10/08 A3036 RMK AO2 SLP283 T01000083 58020=
202010160753 METAR KCLM 160753Z AUTO 00000KT 9SM FEW030 OVC042 10/08 A3039 RMK AO2 SLP290 T01000083 401280056=
202010160653 METAR KCLM 160653Z AUTO 00000KT 9SM FEW034 OVC043 10/08 A3041 RMK AO2 SLP298 T01000083=
202010160553 METAR KCLM 160553Z AUTO 00000KT 9SM OVC047 10/08 A3042 RMK AO2 SLP303 T01000083 10117 20100 56022=
202010160453 METAR KCLM 160453Z AUTO 00000KT 10SM OVC048 11/08 A3043 RMK AO2 SLP306 T01060078=
202010160353 METAR KCLM 160353Z AUTO 21003KT 10SM OVC050 11/08 A3047 RMK AO2 SLP318 T01060083=
202010160253 METAR KCLM 160253Z AUTO 00000KT 9SM OVC055 11/08 A3049 RMK AO2 SLP325 T01110078 56010=
202010160153 METAR KCLM 160153Z AUTO 16003KT 10SM BKN038 OVC065 11/07 A3049 RMK AO2 SLP326 T01110072 TSNO=
202010160053 METAR KCLM 160053Z AUTO 00000KT 9SM OVC060 11/07 A3050 RMK AO2 SLP329 T01110072=
202010152353 METAR KCLM 152353Z AUTO 34003KT 10SM OVC075 12/07 A3052 RMK AO2 SLP336 T01170067 10128 20106 58022=
202010152253 METAR KCLM 152253Z AUTO 02003KT 10SM OVC075 12/06 A3054 RMK AO2 SLP343 T01220056=
202010152153 METAR KCLM 152153Z AUTO VRB03KT 10SM BKN080 12/06 A3057 RMK AO2 SLP354 T01220061=
202010152053 METAR KCLM 152053Z AUTO 07005KT 10SM OVC080 12/06 A3058 RMK AO2 SLP358 T01220061 58011=
202010151953 METAR KCLM 151953Z AUTO VRB03KT 10SM OVC090 12/07 A3062 RMK AO2 SLP369 T01170067=
202010151853 METAR KCLM 151853Z AUTO 00000KT 10SM OVC110 12/06 A3062 RMK AO2 SLP370 T01170056=
202010151753 METAR KCLM 151753Z AUTO 02004KT 7SM BKN110 11/04 A3062 RMK AO2 SLP369 T01110039 10122 20056 53012=
202010151653 METAR KCLM 151653Z AUTO 23004KT 10SM CLR 11/04 A3060 RMK AO2 SLP363 T01060044=
202010151553 METAR KCLM 151553Z AUTO 23006KT 10SM CLR 08/03 A3059 RMK AO2 SLP361 T00780033=
202010151453 METAR KCLM 151453Z AUTO 23007KT 10SM CLR 06/03 A3058 RMK AO2 SLP358 T00610028 51003=
202010151353 METAR KCLM 151353Z AUTO 22009KT 10SM FEW120 07/03 A3058 RMK AO2 SLP357 T00670028=
202010151253 METAR KCLM 151253Z AUTO 23006KT 10SM CLR 07/03 A3058 RMK AO2 SLP355 T00670028=
202010151153 METAR KCLM 151153Z AUTO 24010KT 10SM CLR 08/03 A3057 RMK AO2 SLP353 70005 T00780028 10089 20078 50003=
202010151053 METAR KCLM 151053Z AUTO 24011KT 10SM CLR 08/03 A3057 RMK AO2 SLP354 T00780028=
202010150953 METAR KCLM 150953Z AUTO 24010KT 10SM CLR 08/03 A3057 RMK AO2 SLP354 T00780033=
202010150853 METAR KCLM 150853Z AUTO 25009KT 10SM CLR 08/03 A3056 RMK AO2 SLP351 T00830033 53011=
202010150753 METAR KCLM 150753Z AUTO 24011KT 10SM CLR 08/04 A3054 RMK AO2 SLP344 T00780039 401500078=
202010150653 METAR KCLM 150653Z AUTO 24010KT 10SM CLR 08/04 A3054 RMK AO2 SLP344 T00830039=
202010150553 METAR KCLM 150553Z AUTO 24012KT 10SM CLR 09/04 A3053 RMK AO2 SLP340 T00890044 10122 20078 51012=
202010150453 METAR KCLM 150453Z AUTO 25011KT 10SM CLR 09/04 A3053 RMK AO2 SLP338 T00890044=
202010150353 METAR KCLM 150353Z AUTO 25009KT 10SM CLR 09/05 A3051 RMK AO2 SLP332 T00940050=
202010150253 METAR KCLM 150253Z AUTO 25005KT 10SM CLR 09/05 A3050 RMK AO2 SLP328 T00890050 53011=
202010150153 METAR KCLM 150153Z AUTO 27006KT 10SM CLR 09/06 A3048 RMK AO2 SLP322 T00940056=
202010150053 METAR KCLM 150053Z AUTO 30005KT 10SM CLR 12/07 A3046 RMK AO2 SLP316 T01170067=
202010142353 METAR KCLM 142353Z AUTO 29012KT 5SM HZ CLR 12/07 A3046 RMK AO2 SLP316 T01220067 10150 20122 51011=
202010142253 METAR KCLM 142253Z AUTO 29011G19KT 6SM HZ CLR 13/07 A3045 RMK AO2 SLP314 T01280072=
202010142153 METAR KCLM 142153Z AUTO 30012G21KT 5SM HZ CLR 13/08 A3044 RMK AO2 SLP310 T01280078=
202010142053 METAR KCLM 142053Z AUTO 29011G16KT 7SM SCT046 13/08 A3043 RMK AO2 SLP305 T01280083 53015=
202010141953 METAR KCLM 141953Z AUTO 30011G18KT 7SM SCT046 14/08 A3042 RMK AO2 SLP300 T01390078=
202010141853 METAR KCLM 141853Z AUTO 30009KT 7SM SCT041 14/08 A3040 RMK AO2 SLP293 T01440078=
202010141753 METAR KCLM 141753Z AUTO 30006KT 8SM CLR 13/09 A3039 RMK AO2 SLP290 60005 T01280089 10133 20094 53024=
202010141653 METAR KCLM 141653Z AUTO 23009KT 10SM FEW043 12/07 A3035 RMK AO2 SLP280 T01220072=
202010141553 METAR KCLM 141553Z AUTO 25007KT 10SM FEW040 BKN050 11/07 A3034 RMK AO2 SLP275 T01060072=
202010141453 METAR KCLM 141453Z AUTO 26008KT 10SM FEW045 OVC060 10/07 A3031 RMK AO2 RAB1359E12 SLP266 P0000 60005 T01000067 53021=
202010141353 METAR KCLM 141353Z AUTO 26007KT 10SM BKN060 09/07 A3029 RMK AO2 RAE02 SLP258 P0000 T00940067=
202010141253 METAR KCLM 141253Z AUTO 21007KT 8SM -RA FEW045 OVC055 10/08 A3027 RMK AO2 RAB00 SLP252 P0005 T01000078=
202010141153 METAR KCLM 141153Z AUTO 32008KT 10SM OVC060 11/06 A3025 RMK AO2 SLP245 70026 T01110061 10117 20100 53019=
202010141053 METAR KCLM 141053Z AUTO 27008KT 10SM SCT065 BKN085 BKN110 11/06 A3022 RMK AO2 SLP234 T01110061=
202010140953 METAR KCLM 140953Z AUTO 24009KT 10SM FEW046 SCT060 11/07 A3021 RMK AO2 SLP229 T01060067=
202010140853 METAR KCLM 140853Z AUTO 24010KT 10SM BKN065 11/06 A3019 RMK AO2 SLP226 T01110061 53024=
202010140753 METAR KCLM 140753Z AUTO 24011KT 10SM CLR 11/07 A3017 RMK AO2 SLP217 T01110067 401560089=
202010140653 METAR KCLM 140653Z AUTO 24009KT 10SM SCT060 11/07 A3014 RMK AO2 SLP207 T01110072=
202010140553 METAR KCLM 140553Z AUTO 25010KT 10SM FEW050 SCT060 11/08 A3012 RMK AO2 RAE47 SLP201 P0000 60005 T01060078 10128 20100 51029=
202010140453 METAR KCLM 140453Z AUTO 24008KT 9SM -RA SCT046 OVC055 11/08 A3010 RMK AO2 RAB04 SLP193 P0001 T01060078=
202010140353 METAR KCLM 140353Z AUTO 28009KT 10SM FEW065 SCT085 10/08 A3007 RMK AO2 RAE31 SLP182 P0001 T01000078=
202010140253 METAR KCLM 140253Z AUTO 27011KT 9SM -RA FEW045 OVC060 11/08 A3004 RMK AO2 PK WND 27031/0213 RAB02 SLP172 P0003 60003 T01060078 53040=
202010140153 METAR KCLM 140153Z AUTO 25017G26KT 10SM FEW100 12/06 A2999 RMK AO2 PK WND 27028/0131 SLP157 T01220061=
202010140053 METAR KCLM 140053Z AUTO 26018G33KT 10SM FEW050 SCT065 OVC100 13/06 A2995 RMK AO2 PK WND 25034/0043 RAB09E22 SLP143 P0000 T01280056=
202010132353 METAR KCLM 132353Z AUTO 28011G19KT 10SM SCT046 BKN070 13/09 A2992 RMK AO2 PK WND 26034/2313 WSHFT 2306 RAB33E51 SLP132 P0001 60004 T01280094 10156 20117 53036=
202010132326 SPECI KCLM 132326Z AUTO 30016G21KT 10SM FEW041 BKN055 OVC070 13/08 A2989 RMK AO2 PK WND 26034/2313 WSHFT 2306 T01330083=
202010132253 METAR KCLM 132253Z AUTO 26015G21KT 10SM FEW046 BKN095 OVC120 15/07 A2984 RMK AO2 RAB14E38 SLP106 P0000 T01500072=
202010132153 METAR KCLM 132153Z AUTO 24009G17KT 210V270 10SM BKN044 BKN055 14/07 A2981 RMK AO2 RAE30 SLP094 P0001 T01440072=
202010132053 METAR KCLM 132053Z AUTO 24010G18KT 5SM -RA FEW046 BKN060 OVC100 12/07 A2981 RMK AO2 PK WND 26029/2010 RAB1957E29B45 SLP095 P0001 60002 T01220072 51032=
202010131953 METAR KCLM 131953Z AUTO 23009G20KT 10SM SCT045 BKN060 OVC075 14/08 A2978 RMK AO2 PK WND 26035/1901 RAB11E52 SLP087 P0000 T01390078=
202010131853 METAR KCLM 131853Z AUTO 25017G26KT 10SM FEW043 SCT060 14/07 A2976 RMK AO2 PK WND 24026/1848 RAB16E37 SLP077 P0001 T01440072=
202010131753 METAR KCLM 131753Z AUTO 22006KT 10SM BKN060 BKN070 14/09 A2971 RMK AO2 RAE13B33E52 SLP063 P0000 60017 T01390094 10156 20089 53020=
202010131653 METAR KCLM 131653Z AUTO 22006KT 3SM -RA SCT050 OVC065 13/11 A2968 RMK AO2 SLP052 P0003 T01330106=
202010131650 SPECI KCLM 131650Z AUTO 24006KT 2 1/2SM -RA SCT050 OVC065 13/11 A2968 RMK AO2 P0003=
202010131553 METAR KCLM 131553Z AUTO 00000KT 9SM -RA FEW047 OVC065 11/09 A2965 RMK AO2 SLP042 P0001 T01060089=
202010131453 METAR KCLM 131453Z AUTO 00000KT 4SM -RA BR OVC065 09/08 A2960 RMK AO2 RAB35 SLP023 P0003 60013 T00940083 56026=
202010131353 METAR KCLM 131353Z AUTO 00000KT 10SM FEW034 SCT070 SCT120 09/08 A2960 RMK AO2 RAE37 SLP025 P0005 T00890083=
202010131319 SPECI KCLM 131319Z AUTO 18004KT 6SM -RA BR BKN050 OVC070 09/08 A2962 RMK AO2 LTG DSNT S P0005 T00890078=
202010131310 SPECI KCLM 131310Z AUTO 20004KT 2 1/2SM -RA BR BKN047 OVC070 09/08 A2964 RMK AO2 LTG DSNT S P0004 T00890083=
202010131253 METAR KCLM 131253Z AUTO 00000KT 5SM -RA BR BKN055 OVC070 09/08 A2964 RMK AO2 LTG DSNT SW SLP036 P0005 T00890083=
202010131235 SPECI KCLM 131235Z AUTO VRB03KT 4SM RA BR SCT004 BKN050 OVC070 09/08 A2964 RMK AO2 P0004 T00940083=
202010131201 SPECI KCLM 131201Z AUTO 13003KT 6SM -RA BR OVC004 09/08 A2966 RMK AO2 PRESFR P0001 T00940083=
202010131153 METAR KCLM 131153Z AUTO 00000KT 5SM -RA BR OVC006 09/08 A2968 RMK AO2 CIG 003V008 SLP050 P0003 60026 70026 T00940083 10100 20089 56078=
202010131134 SPECI KCLM 131134Z AUTO 00000KT 6SM -RA BR OVC008 09/08 A2970 RMK AO2 P0002 T00890083=
202010131053 METAR KCLM 131053Z AUTO 09003KT 4SM -RA BR BKN013 BKN042 OVC049 09/08 A2973 RMK AO2 PRESFR SLP067 P0006 T00940083=
202010130953 METAR KCLM 130953Z AUTO 00000KT 3SM -RA BR FEW043 BKN050 OVC080 09/08 A2983 RMK AO2 RAE0856B15 SLP103 P0004 T00940083=
202010130927 SPECI KCLM 130927Z AUTO 21005KT 5SM -RA BR SCT006 OVC046 09/08 A2987 RMK AO2 RAE0856B15 P0001 T00940083=
202010130853 METAR KCLM 130853Z AUTO 23003KT 8SM -RA BKN006 OVC042 09/08 A2991 RMK AO2 PRESFR SLP128 P0005 60013 T00940083 58042=
202010130803 SPECI KCLM 130803Z AUTO 23005KT 6SM -RA BR BKN008 BKN050 OVC065 09/08 A2995 RMK AO2 P0000 T00940078=
202010130753 METAR KCLM 130753Z AUTO 00000KT 7SM -RA SCT008 BKN055 OVC075 09/08 A2995 RMK AO2 SLP144 P0006 T00890083 401440089=
202010130653 METAR KCLM 130653Z AUTO 28007KT 4SM -RA BR BKN050 OVC060 09/08 A3002 RMK AO2 RAB0556 SLP165 P0002 T00940078=
202010130553 METAR KCLM 130553Z AUTO 18006KT 10SM FEW026 BKN070 OVC090 09/07 A3003 RMK AO2 SLP170 T00940072 10133 20089 58036=
202010130453 METAR KCLM 130453Z AUTO 11004KT 10SM FEW044 OVC100 09/07 A3008 RMK AO2 SLP185 T00940072=
202010130353 METAR KCLM 130353Z AUTO 00000KT 10SM OVC100 10/07 A3011 RMK AO2 SLP199 T01000072=
202010130253 METAR KCLM 130253Z AUTO 00000KT 9SM BKN120 09/07 A3014 RMK AO2 SLP207 T00890072 58014=
202010130153 METAR KCLM 130153Z AUTO 00000KT 10SM FEW040 10/07 A3015 RMK AO2 SLP211 T01000067=
202010130053 METAR KCLM 130053Z AUTO VRB03KT 10SM CLR 13/06 A3017 RMK AO2 SLP218 T01280056=
202010122353 METAR KCLM 122353Z AUTO 08006KT 10SM CLR 13/05 A3018 RMK AO2 SLP220 T01330050 10144 20128 58006=
202010122253 METAR KCLM 122253Z AUTO 08004KT 10SM CLR 14/06 A3020 RMK AO2 SLP226 T01440056=
202010122153 METAR KCLM 122153Z AUTO 04004KT 10SM CLR 14/06 A3021 RMK AO2 SLP229 T01390061=
202010122053 METAR KCLM 122053Z AUTO VRB04KT 10SM CLR 13/06 A3020 RMK AO2 SLP226 T01330061 50012=
202010121953 METAR KCLM 121953Z AUTO VRB06KT 10SM CLR 14/07 A3021 RMK AO2 SLP229 T01390067=
202010121853 METAR KCLM 121853Z AUTO VRB05KT 6SM HZ CLR 14/05 A3019 RMK AO2 SLP224 T01390050=
202010121753 METAR KCLM 121753Z AUTO 34005KT 10SM CLR 14/06 A3016 RMK AO2 SLP214 T01390056 10144 20094 53027=
202010121653 METAR KCLM 121653Z AUTO 28005KT 8SM CLR 13/06 A3014 RMK AO2 SLP205 T01280056 $=
202010121553 METAR KCLM 121553Z AUTO 27009KT 10SM CLR 11/05 A3010 RMK AO2 SLP195 T01060050 $=
202010121453 METAR KCLM 121453Z AUTO 30003KT 10SM CLR 09/04 A3008 RMK AO2 SLP188 T00940044 51047 $=
202010121353 METAR KCLM 121353Z AUTO 31006KT 10SM CLR 10/04 A3005 RMK AO2 SLP177 T01000039 $=
202010121253 METAR KCLM 121253Z AUTO 29010KT 10SM CLR 11/04 A3001 RMK AO2 PRESRR SLP163 T01110039 $=
202010121153 METAR KCLM 121153Z AUTO 25018KT 10SM CLR 13/03 A2994 RMK AO2 PK WND 23029/1056 PRESRR SLP140 70035 T01330028 10150 20106 53044 $=
202010121053 METAR KCLM 121053Z AUTO 28014G24KT 10SM CLR 13/04 A2989 RMK AO2 SLP123 T01330044 $=
202010120953 METAR KCLM 120953Z AUTO 25014G23KT 10SM CLR 14/04 A2985 RMK AO2 SLP108 T01390044 $=
202010120853 METAR KCLM 120853Z AUTO 31008KT 10SM CLR 12/07 A2981 RMK AO2 SLP096 T01220072 51051 $=
202010120753 METAR KCLM 120753Z AUTO 30010G17KT 10SM CLR 13/09 A2976 RMK AO2 SLP079 T01330089 401500061 $=
202010120653 METAR KCLM 120653Z AUTO 25014KT 10SM OVC055 14/10 A2971 RMK AO2 SLP062 T01440100 $=
202010120553 METAR KCLM 120553Z AUTO 00000KT 10SM FEW060 11/09 A2966 RMK AO2 SLP045 60006 T01110094 10133 20089 53014 $=
202010120453 METAR KCLM 120453Z AUTO 32007G15KT 270V360 10SM FEW047 SCT060 13/10 A2961 RMK AO2 SLP028 T01280100 $=
202010120421 SPECI KCLM 120421Z AUTO 28007KT 4SM BR FEW011 BKN065 BKN095 09/09 A2960 RMK AO2 T00940089 $=
202010120353 METAR KCLM 120353Z AUTO 00000KT 1 1/2SM BR FEW001 SCT060 BKN100 09/09 A2960 RMK AO2 VIS 3/4V5 SLP025 T00940089 $=
202010120232 SPECI KCLM 120232Z AUTO 18004KT 8SM FEW003 BKN060 OVC070 11/09 A2963 RMK AO2 RAB21E30 P0000 T01060094 $=
202010120221 SPECI KCLM 120221Z AUTO 00000KT 2SM -RA BR FEW003 SCT019 BKN065 10/09 A2963 RMK AO2 VIS 1 1/4V4 RAB21 P0000 T01000089 $=
202010120212 SPECI KCLM 120212Z AUTO 27003KT 3SM BR FEW003 BKN019 BKN060 10/09 A2963 RMK AO2 T01000094 $=
202010120206 SPECI KCLM 120206Z AUTO 00000KT 1 3/4SM BR FEW003 BKN017 BKN060 10/09 A2963 RMK AO2 VIS 3/4V5 T01000089 $=
202010120153 METAR KCLM 120153Z AUTO 00000KT 8SM FEW002 OVC017 11/10 A2963 RMK AO2 RAE49 SLP033 P0001 T01060100 $=
202010120113 SPECI KCLM 120113Z AUTO 00000KT 3SM -RA BR FEW007 OVC018 11/09 A2962 RMK AO2 P0000 T01060094 $=
202010120053 METAR KCLM 120053Z AUTO 00000KT 2 1/2SM -RA BR BKN019 BKN036 OVC070 11/10 A2963 RMK AO2 SLP035 P0005 T01060100 $=
202010120043 SPECI KCLM 120043Z AUTO 00000KT 1 3/4SM RA BR SCT021 BKN035 OVC075 11/10 A2962 RMK AO2 P0004 T01060100 $=
202010120039 SPECI KCLM 120039Z AUTO 22003KT 4SM -RA BR SCT023 BKN039 OVC075 11/10 A2964 RMK AO2 P0002 T01060100 $=
202010120030 SPECI KCLM 120030Z AUTO 00000KT 2SM -RA BR BKN030 BKN049 OVC060 11/10 A2963 RMK AO2 P0002 T01060100 $=
202010120019 SPECI KCLM 120019Z AUTO 32003KT 6SM -RA BR SCT027 BKN039 OVC060 11/09 A2962 RMK AO2 P0002 T01060094 $=
202010120010 SPECI KCLM 120010Z AUTO 00000KT 2SM -RA BR SCT027 BKN033 OVC050 11/09 A2963 RMK AO2 VIS 1 1/4V3 P0002 T01060094 $=
202010112353 METAR KCLM 112353Z AUTO 00000KT 1SM -RA BR FEW002 OVC029 10/09 A2964 RMK AO2 RAE11B29 SLP036 P0009 60029 T01000094 10117 20094 56041 $=
202010112349 SPECI KCLM 112349Z AUTO 00000KT 3/4SM RA BR FEW002 OVC029 10/09 A2964 RMK AO2 RAE11B29 P0008 $=
202010112345 SPECI KCLM 112345Z AUTO 27003KT 1SM RA BR FEW002 OVC031 10/09 A2964 RMK AO2 RAE11B29 P0006 T01000094 $=
202010112343 SPECI KCLM 112343Z AUTO 29004KT 3/4SM RA BR FEW004 BKN028 OVC033 11/09 A2964 RMK AO2 RAE11B29 P0006 T01060094 $=
202010112335 SPECI KCLM 112335Z AUTO 00000KT 1 3/4SM RA BR FEW004 BKN030 OVC046 11/09 A2963 RMK AO2 RAE11B29 P0003 T01060094 $=
202010112319 SPECI KCLM 112319Z AUTO 00000KT 9SM FEW004 BKN050 OVC060 11/09 A2964 RMK AO2 RAE11 P0001 T01060094 $=
202010112310 SPECI KCLM 112310Z AUTO 00000KT 6SM -RA BR BKN050 OVC065 11/09 A2964 RMK AO2 P0001 T01060094 $=
202010112301 SPECI KCLM 112301Z AUTO 31003KT 2SM -RA BR BKN050 OVC070 11/09 A2965 RMK AO2 P0001 T01060094 $=
202010112253 METAR KCLM 112253Z AUTO 27005KT 3SM -RA BR BKN055 OVC070 11/09 A2965 RMK AO2 RAB10 SLP042 P0007 T01060089 $=
202010112246 SPECI KCLM 112246Z AUTO 28003KT 2 1/2SM -RA BR BKN060 OVC070 11/09 A2965 RMK AO2 RAB10 P0007 T01060089 $=
202010112232 SPECI KCLM 112232Z AUTO 33003KT 1 1/2SM RA BR BKN060 OVC080 10/09 A2966 RMK AO2 RAB10 P0005 T01000089 $=
202010112224 SPECI KCLM 112224Z AUTO 00000KT 2SM RA BR BKN065 OVC085 10/08 A2966 RMK AO2 RAB10 P0003 T01000083 $=
202010112153 METAR KCLM 112153Z AUTO 13006KT 10SM FEW046 BKN060 OVC090 11/08 A2968 RMK AO2 RAE52 PRESFR SLP050 P0001 T01110078 $=
202010112031 SPECI KCLM 112031Z AUTO 30004KT 3SM -RA BR OVC060 10/08 A2979 RMK AO2 P0008 T01000083 $=
202010112002 SPECI KCLM 112002Z AUTO 27003KT 1 3/4SM -RA BR OVC050 09/08 A2983 RMK AO2 PRESFR P0002 T00940083 $=
202010111953 METAR KCLM 111953Z AUTO 25005KT 4SM -RA BR OVC055 09/08 A2984 RMK AO2 PRESFR SLP106 P0001 T00940083 $=
202010111853 METAR KCLM 111853Z AUTO 09003KT 5SM -RA BR BKN055 OVC070 10/08 A2991 RMK AO2 PRESFR SLP129 P0002 T01000078 $=
202010111838 SPECI KCLM 111838Z AUTO 14003KT 7SM -RA FEW005 BKN060 OVC075 09/08 A2995 RMK AO2 P0001 T00940078 $=
202010111753 METAR KCLM 111753Z AUTO 36004KT 7SM -RA OVC060 09/07 A2995 RMK AO2 RAB33 SLP144 P0000 60000 T00940072 10106 20061 56013 $=
202010111653 METAR KCLM 111653Z AUTO 00000KT 9SM OVC070 10/08 A2995 RMK AO2 RAB25E38 SLP144 P0000 T01000083 $=
202010111553 METAR KCLM 111553Z AUTO 00000KT 10SM BKN100 OVC120 08/07 A2998 RMK AO2 SLP152 T00830067 $=
202010111453 METAR KCLM 111453Z AUTO 00000KT 9SM FEW120 07/06 A2999 RMK AO2 SLP157 T00720061 51008 $=
202010111353 METAR KCLM 111353Z AUTO 18003KT 10SM CLR 07/06 A2999 RMK AO2 SLP156 T00670056 $=
202010111253 METAR KCLM 111253Z AUTO 22003KT 10SM CLR 07/06 A2999 RMK AO2 SLP156 T00720061 $=
202010111153 METAR KCLM 111153Z AUTO 18003KT 10SM SCT055 08/07 A2997 RMK AO2 SLP148 70015 T00830067 10111 20078 50009 $=
202010111053 METAR KCLM 111053Z AUTO 29003KT 10SM BKN060 09/07 A2998 RMK AO2 SLP151 T00890072 $=
202010110953 METAR KCLM 110953Z AUTO 21005KT 10SM BKN060 BKN100 10/06 A2995 RMK AO2 SLP144 T01000056 $=
202010110853 METAR KCLM 110853Z AUTO 21005KT 10SM FEW055 OVC070 11/06 A2994 RMK AO2 SLP139 T01060056 53019 $=
202010110753 METAR KCLM 110753Z AUTO 29005KT 10SM BKN060 10/05 A2992 RMK AO2 SLP131 T01000050 401560100 $=
202010110653 METAR KCLM 110653Z AUTO 25007KT 10SM SCT055 11/05 A2990 RMK AO2 SLP125 T01110050 $=
202010110553 METAR KCLM 110553Z AUTO 22010KT 10SM CLR 11/05 A2988 RMK AO2 SLP120 60002 T01060050 10144 20100 53016 $=
202010110453 METAR KCLM 110453Z AUTO 25009KT 10SM BKN060 11/06 A2986 RMK AO2 SLP113 T01060056 $=
202010110353 METAR KCLM 110353Z AUTO 24010KT 10SM FEW065 10/06 A2984 RMK AO2 RAE09 SLP106 P0001 T01000061 $=
202010110253 METAR KCLM 110253Z AUTO 25007KT 9SM -RA BKN055 OVC070 11/06 A2984 RMK AO2 RAB38 SLP104 P0000 60001 T01060061 53020 $=
202010110153 METAR KCLM 110153Z AUTO 25008KT 10SM BKN060 OVC070 11/07 A2981 RMK AO2 RAB10E50 SLP095 P0001 T01060072 $=
202010110053 METAR KCLM 110053Z AUTO 24008KT 10SM FEW050 SCT070 12/05 A2980 RMK AO2 SLP091 T01220050 $=
202010102353 METAR KCLM 102353Z AUTO 27014G18KT 10SM FEW060 14/04 A2978 RMK AO2 SLP083 60003 T01440044 10156 20106 53028 $=
202010102253 METAR KCLM 102253Z AUTO 27015G24KT 10SM CLR 15/05 A2974 RMK AO2 PK WND 26029/2227 SLP071 T01500050 $=
202010102153 METAR KCLM 102153Z AUTO 22011KT 10SM CLR 14/07 A2972 RMK AO2 RAE2054 SLP063 P0000 T01390072 $=
202010102053 METAR KCLM 102053Z AUTO 24008KT 10SM -RA BKN047 BKN060 OVC075 11/06 A2969 RMK AO2 PK WND 27033/2031 RAB06 SLP056 P0003 60003 T01110061 53022 $=
202010101953 METAR KCLM 101953Z AUTO 26015G25KT 10SM CLR 16/06 A2966 RMK AO2 PK WND 27028/1939 SLP044 T01560056 $=
202010101853 METAR KCLM 101853Z AUTO 26016G25KT 10SM CLR 15/06 A2964 RMK AO2 PK WND 25027/1834 RAE1758 SLP035 P0000 T01500061 $=
202010101753 METAR KCLM 101753Z AUTO 25015KT 9SM -RA BKN055 OVC070 13/08 A2963 RMK AO2 RAB36 SLP033 P0000 60010 T01280078 10133 20111 $=
202010101653 METAR KCLM 101653Z AUTO 27010G19KT 10SM CLR 13/07 A2958 RMK AO2 SLP018 T01330072 $=
202010101553 METAR KCLM 101553Z AUTO 26013G16KT 9SM FEW046 SCT060 BKN080 12/09 A2957 RMK AO2 RAB06E43 SLP014 P0000 T01170094=
202010101453 METAR KCLM 101453Z AUTO 27008KT 8SM BKN036 BKN048 OVC055 12/10 A2955 RMK AO2 RAB22E51 SLP006 P0001 60010 T01170100 53008=
202010101439 SPECI KCLM 101439Z AUTO 28008KT 9SM -RA FEW011 BKN032 OVC041 12/10 A2953 RMK AO2 RAB22 P0000 T01170100=
202010101428 SPECI KCLM 101428Z AUTO 28010KT 7SM -RA SCT011 BKN021 OVC048 12/10 A2953 RMK AO2 RAB22 P0000 T01170100=
202010101353 METAR KCLM 101353Z AUTO 31004KT 10SM BKN060 BKN095 11/09 A2950 RMK AO2 RAE1259 SLP989 P0000 T01110094=
202010101253 METAR KCLM 101253Z AUTO 28003KT 10SM -RA SCT060 BKN080 OVC100 12/11 A2951 RMK AO2 SLP993 P0009 T01170106=
202010101217 SPECI KCLM 101217Z AUTO 28006KT 6SM -RA BR BKN050 OVC070 12/11 A2951 RMK AO2 P0007 T01170106=
202010101209 SPECI KCLM 101209Z AUTO 16006KT 2 1/2SM RA BR OVC050 12/11 A2950 RMK AO2 PRESFR P0006 T01220106=
202010101153 METAR KCLM 101153Z AUTO 27009KT 6SM -RA BR BKN055 OVC070 12/11 A2952 RMK AO2 RAB1056 SLP996 P0002 60011 70045 T01220106 10144 20111 55013=
202010101053 METAR KCLM 101053Z AUTO 17004KT 10SM SCT055 BKN070 BKN120 12/11 A2949 RMK AO2 RAE09 SLP987 P0000 T01170106=
202010100953 METAR KCLM 100953Z AUTO 16003KT 10SM -RA FEW055 BKN070 OVC100 12/11 A2953 RMK AO2 RAE25B45 SLP998 P0001 T01220106=
202010100901 SPECI KCLM 100901Z AUTO 13003KT 9SM -RA FEW003 BKN065 OVC090 12/12 A2955 RMK AO2 P0000 T01220117=
202010100853 METAR KCLM 100853Z AUTO 15005KT 10SM -RA SCT065 BKN080 OVC100 12/11 A2956 RMK AO2 SLP010 P0000 60008 T01220111 56017=
202010100753 METAR KCLM 100753Z AUTO 36003KT 7SM -RA OVC080 12/11 A2957 RMK AO2 SLP013 P0002 T01220111 401670106=
202010100653 METAR KCLM 100653Z AUTO VRB06KT 6SM -RA OVC080 14/11 A2959 RMK AO2 SLP019 P0006 T01390106=
202010100553 METAR KCLM 100553Z AUTO 00000KT 7SM -RA SCT055 OVC075 12/12 A2961 RMK AO2 SLP028 P0006 60033 T01220117 10167 20117 58015=
202010100453 METAR KCLM 100453Z AUTO 26003KT 4SM -RA BR SCT010 OVC037 13/12 A2964 RMK AO2 SLP037 P0007 T01280117=
202010100445 SPECI KCLM 100445Z AUTO 24003KT 4SM -RA BR SCT010 SCT032 OVC042 13/12 A2964 RMK AO2 P0006 T01280117=
202010100410 SPECI KCLM 100410Z AUTO 24005KT 5SM -RA BR BKN011 BKN016 OVC038 13/12 A2966 RMK AO2 P0001 T01280117=
202010100353 METAR KCLM 100353Z AUTO 25007KT 4SM -RA BR FEW011 BKN027 OVC042 13/12 A2966 RMK AO2 SLP042 P0011 T01280117=
202010100351 SPECI KCLM 100351Z AUTO 25007KT 4SM -RA BR SCT014 BKN030 OVC042 13/12 A2966 RMK AO2 P0010=
202010100322 SPECI KCLM 100322Z AUTO 26008KT 4SM -RA BR SCT007 BKN026 OVC050 13/12 A2966 RMK AO2 P0005 T01280117=
202010100312 SPECI KCLM 100312Z AUTO 27009KT 4SM -RA BR SCT004 BKN009 OVC060 13/12 A2966 RMK AO2 P0003 T01280117=
202010100253 METAR KCLM 100253Z AUTO 31008KT 3SM -RA BR BKN004 BKN010 OVC080 12/12 A2966 RMK AO2 SLP046 P0004 60009 T01220117 53003 $=
202010100248 SPECI KCLM 100248Z AUTO 29007KT 3SM -RA BR SCT004 SCT028 OVC085 12/12 A2967 RMK AO2 P0004 $=
202010100153 METAR KCLM 100153Z AUTO 00000KT 4SM -RA BR OVC095 12/11 A2964 RMK AO2 SLP037 P0004 T01220111 $=
202010100122 SPECI KCLM 100122Z AUTO 16006KT 3SM -RA BR SCT004 OVC075 12/12 A2964 RMK AO2 P0002 T01220117 $=
202010100116 SPECI KCLM 100116Z AUTO 22005KT 2 1/2SM -RA BR BKN004 OVC070 12/11 A2965 RMK AO2 P0001 T01220111 $=
202010100053 METAR KCLM 100053Z AUTO 24003KT 4SM -RA BR OVC002 12/11 A2966 RMK AO2 RAB40 SLP043 P0001 T01220111 $=
202010100036 SPECI KCLM 100036Z AUTO VRB04KT 4SM BR BKN002 BKN060 OVC075 12/11 A2965 RMK AO2 T01170106 $=
202010100026 SPECI KCLM 100026Z AUTO 32004KT 6SM BR SCT002 BKN075 OVC100 12/11 A2965 RMK AO2 T01170106 $=
202010092353 METAR KCLM 092353Z AUTO 00000KT 10SM FEW055 BKN080 OVC100 17/11 A2965 RMK AO2 SLP040 T01670111 10167 20122 56038 $=
202010092253 METAR KCLM 092253Z AUTO 12007KT 10SM CLR 17/11 A2969 RMK AO2 SLP052 T01670111 $=
202010092153 METAR KCLM 092153Z AUTO 11007KT 10SM CLR 16/11 A2972 RMK AO2 SLP064 T01610111 $=
202010092053 METAR KCLM 092053Z AUTO 17003KT 10SM CLR 16/11 A2976 RMK AO2 SLP079 T01560111 58010 $=
202010091953 METAR KCLM 091953Z AUTO 00000KT 10SM FEW006 14/12 A2978 RMK AO2 SLP085 T01440117 $=
202010091936 SPECI KCLM 091936Z AUTO 00000KT 10SM SCT005 14/12 A2979 RMK AO2 T01440122 $=
202010091927 SPECI KCLM 091927Z AUTO 00000KT 10SM BKN005 14/12 A2979 RMK AO2 T01390117 $=
202010091853 METAR KCLM 091853Z AUTO 27003KT 5SM BR OVC002 13/12 A2979 RMK AO2 SLP087 T01280117 $=
202010091837 SPECI KCLM 091837Z AUTO 00000KT 4SM BR OVC002 12/12 A2979 RMK AO2 T01220117 $=
202010091830 SPECI KCLM 091830Z AUTO 00000KT 2 1/2SM BR OVC002 12/12 A2979 RMK AO2 VIS 1 1/2V4 T01220117 $=
202010091815 SPECI KCLM 091815Z AUTO 29003KT 1SM BR OVC002 12/12 A2979 RMK AO2 VIS 1/2V2 1/2 T01220117 $=
202010091753 METAR KCLM 091753Z AUTO 28003KT 1/4SM FG VV002 12/12 A2979 RMK AO2 SLP090 60001 T01220117 10122 20106 $=
202010091748 SPECI KCLM 091748Z AUTO 27003KT 1/4SM FG OVC002 12/12 A2980 RMK AO2 $=
202010091741 SPECI KCLM 091741Z AUTO 28004KT 1SM BR OVC002 12/12 A2980 RMK AO2 T01220117 $=
202010091707 SPECI KCLM 091707Z AUTO 29004KT 3/4SM BR OVC002 12/11 A2981 RMK AO2 T01170106 $=
202010091702 SPECI KCLM 091702Z AUTO 30006KT 2 1/2SM BR OVC002 12/11 A2981 RMK AO2 T01170111 $=
202010091653 METAR KCLM 091653Z AUTO 30005KT 5SM BR OVC001 12/11 A2981 RMK AO2 SLP094 T01170111 $=
202010091638 SPECI KCLM 091638Z AUTO 33004KT 3SM BR BKN001 BKN095 BKN110 12/11 A2981 RMK AO2 T01170106 $=
202010091625 SPECI KCLM 091625Z AUTO 33003KT 4SM BR FEW001 SCT100 BKN110 12/11 A2981 RMK AO2 T01170106 $=
202010091553 METAR KCLM 091553Z AUTO 25003KT 10SM BKN100 12/11 A2981 RMK AO2 RAB13E28 SLP096 P0000 T01220111 $=
202010091453 METAR KCLM 091453Z AUTO 24003KT 7SM -RA FEW080 OVC100 11/11 A2983 RMK AO2 RAB40 SLP101 P0000 60001 T01110106 56014=
202010091353 METAR KCLM 091353Z AUTO 00000KT 7SM CLR 11/10 A2984 RMK AO2 SLP105 T01110100=
202010091253 METAR KCLM 091253Z AUTO 00000KT 9SM FEW090 11/11 A2985 RMK AO2 RAE35 SLP107 P0001 T01110106=
202010091153 METAR KCLM 091153Z AUTO 11003KT 10SM -RA BKN100 OVC110 12/11 A2987 RMK AO2 RAB50 SLP114 P0000 60000 T01170106 10133 20106 58005=
202010091053 METAR KCLM 091053Z AUTO 00000KT 10SM CLR 11/10 A2986 RMK AO2 SLP112 T01110100=
202010090953 METAR KCLM 090953Z AUTO 00000KT 10SM BKN120 12/10 A2989 RMK AO2 SLP122 T01170100=
202010090853 METAR KCLM 090853Z AUTO 00000KT 10SM CLR 12/10 A2988 RMK AO2 SLP119 T01170100 55004=
202010090753 METAR KCLM 090753Z AUTO 23006KT 10SM CLR 12/11 A2988 RMK AO2 SLP118 T01220106 401610117=
202010090653 METAR KCLM 090653Z AUTO 00000KT 10SM SCT046 13/11 A2988 RMK AO2 SLP118 T01280106=
202010090553 METAR KCLM 090553Z AUTO 00000KT 10SM OVC044 12/11 A2990 RMK AO2 SLP123 T01220111 10150 20122 58002=
202010090453 METAR KCLM 090453Z AUTO 00000KT 10SM FEW029 OVC037 13/11 A2990 RMK AO2 SLP126 T01330111=
202010090353 METAR KCLM 090353Z AUTO 00000KT 10SM BKN034 OVC050 12/11 A2991 RMK AO2 SLP129 T01220106=
202010090253 METAR KCLM 090253Z AUTO 14005KT 10SM SCT039 BKN055 13/11 A2990 RMK AO2 SLP125 T01330106 58003=
202010090153 METAR KCLM 090153Z AUTO 00000KT 10SM OVC050 14/11 A2991 RMK AO2 SLP128 T01390106=
202010090053 METAR KCLM 090053Z AUTO 31003KT 10SM OVC045 14/11 A2991 RMK AO2 SLP129 T01440106=
202010082353 METAR KCLM 082353Z AUTO 31004KT 10SM OVC044 15/11 A2991 RMK AO2 SLP129 T01500106 10161 20139 50000=
202010082253 METAR KCLM 082253Z AUTO 35006KT 10SM OVC046 16/11 A2991 RMK AO2 SLP127 T01560106=
202010082153 METAR KCLM 082153Z AUTO 30005KT 10SM FEW026 SCT035 OVC046 16/11 A2992 RMK AO2 SLP133 T01560106=
202010082145 SPECI KCLM 082145Z AUTO 29007KT 270V330 10SM FEW024 BKN035 OVC045 16/11 A2993 RMK AO2 T01560106=
202010082102 SPECI KCLM 082102Z AUTO 30007KT 10SM BKN018 OVC042 15/10 A2992 RMK AO2 T01500100=
202010082053 METAR KCLM 082053Z AUTO 30007KT 10SM SCT018 OVC042 15/10 A2991 RMK AO2 SLP129 T01500100 53001=
202010081953 METAR KCLM 081953Z AUTO VRB03KT 10SM FEW015 BKN041 16/11 A2991 RMK AO2 SLP128 T01610111=
202010081853 METAR KCLM 081853Z AUTO 30005KT 10SM FEW020 BKN036 15/11 A2990 RMK AO2 SLP126 T01500111=
202010081846 SPECI KCLM 081846Z AUTO 28003KT 10SM SCT019 BKN038 14/11 A2991 RMK AO2 T01440106=
202010081753 METAR KCLM 081753Z AUTO 22005KT 10SM OVC017 14/11 A2991 RMK AO2 SLP127 T01390111 10139 20117 53012=
202010081744 SPECI KCLM 081744Z AUTO 25005KT 10SM OVC015 14/11 A2991 RMK AO2 T01390111=
202010081653 METAR KCLM 081653Z AUTO 27005KT 10SM OVC013 13/11 A2989 RMK AO2 SLP124 T01330111=
202010081553 METAR KCLM 081553Z AUTO 26003KT 10SM BKN011 OVC044 12/11 A2988 RMK AO2 SLP117 T01220111=
202010081527 SPECI KCLM 081527Z AUTO 25004KT 10SM OVC010 12/11 A2987 RMK AO2 T01220111=
202010081453 METAR KCLM 081453Z AUTO 25004KT 10SM OVC007 12/11 A2987 RMK AO2 CIG 004V009 SLP116 T01170111 53009=
202010081409 SPECI KCLM 081409Z AUTO 27005KT 10SM OVC005 12/11 A2986 RMK AO2 CIG 002V008 T01170111=
202010081353 METAR KCLM 081353Z AUTO 27005KT 10SM OVC002 12/11 A2986 RMK AO2 SLP112 T01170111=
202010081316 SPECI KCLM 081316Z AUTO 30004KT 3SM BR OVC002 12/12 A2986 RMK AO2 T01220117 $=
202010081253 METAR KCLM 081253Z AUTO 32005KT 1 3/4SM BR OVC002 12/12 A2985 RMK AO2 SLP108 T01220117 $=
202010081241 SPECI KCLM 081241Z AUTO 31004KT 5SM BR OVC002 12/12 A2985 RMK AO2 T01220117 $=
202010081234 SPECI KCLM 081234Z AUTO 26003KT 2 1/2SM BR OVC002 12/12 A2985 RMK AO2 T01220117 $=
202010081153 METAR KCLM 081153Z AUTO 28004KT 1 3/4SM BR OVC002 12/12 A2985 RMK AO2 SLP106 T01220117 10122 20106 $=
202010081145 SPECI KCLM 081145Z AUTO 29006KT 2 1/2SM BR OVC002 12/12 A2985 RMK AO2 T01220117 $=
202010081053 METAR KCLM 081053Z AUTO 27004KT 1SM BR OVC002 12/12 A2985 RMK AO2 SLP109 T01170117 $=
202010081038 SPECI KCLM 081038Z AUTO 28005KT 1 1/4SM BR OVC002 12/12 A2986 RMK AO2 T01170117 $=
202010081016 SPECI KCLM 081016Z AUTO 29005KT 1/2SM FG VV002 12/11 A2986 RMK AO2 T01170111 $=
202010080959 SPECI KCLM 080959Z AUTO 28005KT 1/4SM FG 12/11 A2986 RMK AO2 T01170111 $=
202010080953 METAR KCLM 080953Z AUTO 28005KT 12/11 A2986 RMK AO2 SLP111 T01170111 $=
202010080914 SPECI KCLM 080914Z AUTO 28006KT 1/2SM FG VV002 12/11 A2986 RMK AO2 T01170111=
202010080907 SPECI KCLM 080907Z AUTO 27006KT 1/4SM FG VV002 12/11 A2986 RMK AO2 T01170111=
202010080853 METAR KCLM 080853Z AUTO 27005KT 1/2SM FG VV002 12/11 A2985 RMK AO2 SLP109 T01170111 50002=
202010080849 SPECI KCLM 080849Z AUTO 29005KT 1/2SM FG VV002 12/11 A2985 RMK AO2=
202010080837 SPECI KCLM 080837Z AUTO 28005KT 1/4SM FG VV002 12/12 A2985 RMK AO2 T01220117=
202010080812 SPECI KCLM 080812Z AUTO 29003KT 1/2SM FG VV002 12/12 A2985 RMK AO2 T01220117=
202010080753 METAR KCLM 080753Z AUTO 26003KT 1/4SM FG VV002 12/12 A2985 RMK AO2 SLP108 T01220117 401940094=
202010080734 SPECI KCLM 080734Z AUTO 24004KT 1/4SM FG VV002 12/12 A2985 RMK AO2 T01220117=
202010080709 SPECI KCLM 080709Z AUTO 27004KT 1/4SM FG VV001 12/11 A2985 RMK AO2 T01170111=
202010080653 METAR KCLM 080653Z AUTO 00000KT 1SM BR VV003 11/10 A2985 RMK AO2 SLP107 T01110100=
202010080645 SPECI KCLM 080645Z AUTO 00000KT 1 1/2SM BR CLR 11/11 A2985 RMK AO2 T01110106=
202010080553 METAR KCLM 080553Z AUTO 00000KT 5SM BR CLR 12/11 A2985 RMK AO2 SLP106 T01170106 10172 20100 51001=
202010080453 METAR KCLM 080453Z AUTO 00000KT 9SM CLR 11/09 A2984 RMK AO2 SLP106 T01060094=
202010080414 SPECI KCLM 080414Z AUTO 00000KT 4SM BR SCT001 11/10 A2984 RMK AO2 T01060100=
202010080411 SPECI KCLM 080411Z AUTO 20003KT 1 1/4SM BR SCT001 11/10 A2984 RMK AO2 T01060100=
202010080404 SPECI KCLM 080404Z AUTO 21004KT 1/2SM FG VV001 11/10 A2984 RMK AO2 T01060100=
202010080356 SPECI KCLM 080356Z AUTO 27003KT 1 3/4SM BR SCT002 11/10 A2985 RMK AO2 T01110100=
202010080353 METAR KCLM 080353Z AUTO 32004KT 3SM BR FEW002 11/10 A2985 RMK AO2 SLP108 T01110100=
202010080326 SPECI KCLM 080326Z AUTO 00000KT 9SM SCT001 11/11 A2984 RMK AO2 T01110106=
202010080318 SPECI KCLM 080318Z AUTO 27003KT 8SM BKN001 12/11 A2985 RMK AO2 T01170106=
202010080309 SPECI KCLM 080309Z AUTO 26005KT 3SM BR BKN002 11/11 A2985 RMK AO2 T01110106=
202010080301 SPECI KCLM 080301Z AUTO 28003KT 7SM SCT002 11/11 A2985 RMK AO2 T01110106=
202010080253 METAR KCLM 080253Z AUTO 29004KT 10SM CLR 11/10 A2984 RMK AO2 SLP105 T01110100 55000=
202010080224 SPECI KCLM 080224Z AUTO 00000KT 4SM BR FEW002 11/11 A2984 RMK AO2 T01110106=
202010080153 METAR KCLM 080153Z AUTO 00000KT 10SM CLR 13/11 A2983 RMK AO2 SLP102 T01280111=
202010080053 METAR KCLM 080053Z AUTO 00000KT 10SM CLR 15/12 A2983 RMK AO2 SLP103 T01500117=
202010072353 METAR KCLM 072353Z AUTO 01003KT 10SM CLR 18/12 A2984 RMK AO2 SLP105 T01780122 10194 20167 56017=
202010072253 METAR KCLM 072253Z AUTO 03003KT 10SM CLR 19/13 A2986 RMK AO2 SLP110 T01890128=
202010072153 METAR KCLM 072153Z AUTO VRB05KT 10SM CLR 19/13 A2987 RMK AO2 SLP116 T01890128=
202010072053 METAR KCLM 072053Z AUTO 07006KT 10SM CLR 19/13 A2989 RMK AO2 SLP122 T01890128 58015=
202010071953 METAR KCLM 071953Z AUTO 03003KT 10SM CLR 17/13 A2992 RMK AO2 SLP130 T01720128=
202010071853 METAR KCLM 071853Z AUTO 07007KT 10SM CLR 18/13 A2992 RMK AO2 SLP133 T01830128=
202010071753 METAR KCLM 071753Z AUTO 11007KT 10SM FEW017 17/14 A2994 RMK AO2 SLP137 T01720139 10172 20128 56008=
202010071749 SPECI KCLM 071749Z AUTO 11006KT 10SM SCT017 17/14 A2994 RMK AO2=
202010071653 METAR KCLM 071653Z AUTO 11005KT 10SM OVC018 16/14 A2995 RMK AO2 SLP143 T01560139=
202010071603 SPECI KCLM 071603Z AUTO 12004KT 10SM SCT018 BKN024 17/14 A2996 RMK AO2 T01670139=
202010071553 METAR KCLM 071553Z AUTO 12006KT 10SM FEW018 SCT023 16/14 A2996 RMK AO2 SLP144 T01610139=
202010071453 METAR KCLM 071453Z AUTO 10004KT 10SM CLR 14/13 A2996 RMK AO2 SLP145 T01390128 56002=
202010071353 METAR KCLM 071353Z AUTO 14006KT 10SM CLR 13/12 A2996 RMK AO2 SLP145 T01330117=
202010071253 METAR KCLM 071253Z AUTO 12007KT 10SM CLR 14/12 A2996 RMK AO2 SLP144 T01390117=
202010071153 METAR KCLM 071153Z AUTO 11005KT 10SM CLR 14/12 A2996 RMK AO2 SLP146 T01390122 10144 20094 56010=
202010071053 METAR KCLM 071053Z AUTO 11005KT 10SM CLR 10/09 A2997 RMK AO2 SLP149 T01000089=
202010070953 METAR KCLM 070953Z AUTO 00000KT 7SM CLR 11/09 A2998 RMK AO2 SLP153 T01060094=
202010070853 METAR KCLM 070853Z AUTO 00000KT 6SM BR CLR 10/09 A2999 RMK AO2 SLP157 T01000089 57011=
202010070753 METAR KCLM 070753Z AUTO 00000KT 5SM BR CLR 10/09 A3001 RMK AO2 SLP161 T01000089 401940078=
202010070653 METAR KCLM 070653Z AUTO 00000KT 6SM BR CLR 11/09 A3002 RMK AO2 SLP164 T01060094=
202010070553 METAR KCLM 070553Z AUTO 00000KT 7SM CLR 11/10 A3003 RMK AO2 SLP168 T01060100 10178 20100 58006=
202010070453 METAR KCLM 070453Z AUTO 00000KT 5SM BR CLR 11/10 A3004 RMK AO2 SLP173 T01060100=
202010070353 METAR KCLM 070353Z AUTO 00000KT 10SM CLR 12/11 A3004 RMK AO2 SLP174 T01220106=
202010070253 METAR KCLM 070253Z AUTO 00000KT 10SM CLR 12/11 A3005 RMK AO2 SLP175 T01220106 56009=
202010070153 METAR KCLM 070153Z AUTO 14005KT 10SM CLR 13/11 A3005 RMK AO2 SLP177 T01330111=
202010070053 METAR KCLM 070053Z AUTO 09005KT 10SM CLR 18/12 A3005 RMK AO2 SLP177 T01780117=
202010062353 METAR KCLM 062353Z AUTO 08006KT 10SM CLR 18/12 A3007 RMK AO2 SLP183 T01830117 10194 20117 56018=
202010062253 METAR KCLM 062253Z AUTO 08006KT 10SM CLR 18/12 A3009 RMK AO2 SLP189 T01830117=
202010062153 METAR KCLM 062153Z AUTO 09003KT 10SM CLR 19/12 A3010 RMK AO2 SLP191 T01890117=
202010062053 METAR KCLM 062053Z AUTO VRB04KT 10SM CLR 17/12 A3013 RMK AO2 SLP201 T01720117 58012=
202010061953 METAR KCLM 061953Z AUTO 02004KT 10SM CLR 16/12 A3015 RMK AO2 SLP208 T01610117=
202010061853 METAR KCLM 061853Z AUTO VRB04KT 10SM CLR 15/12 A3016 RMK AO2 SLP211 T01500117=
202010061753 METAR KCLM 061753Z AUTO 03004KT 10SM CLR 17/13 A3016 RMK AO2 SLP213 T01720128 10172 20078 58005=
202010061653 METAR KCLM 061653Z AUTO 00000KT 10SM CLR 14/13 A3017 RMK AO2 SLP215 T01390128=
202010061619 SPECI KCLM 061619Z AUTO 00000KT 10SM SCT001 12/12 A3017 RMK AO2 T01220117=
202010061608 SPECI KCLM 061608Z AUTO 00000KT 3SM BR BKN001 12/11 A3017 RMK AO2 T01170111=
202010061604 SPECI KCLM 061604Z AUTO 00000KT 1SM BR VV001 11/11 A3018 RMK AO2 T01110111=
202010061553 METAR KCLM 061553Z AUTO 00000KT 1/4SM FG VV001 11/10 A3018 RMK AO2 SLP221 T01060100=
202010061456 SPECI KCLM 061456Z AUTO 00000KT 1/4SM FG VV001 09/08 A3018 RMK AO2 VIS M1/4V5 T00890078=
202010061453 METAR KCLM 061453Z AUTO 00000KT 1 1/4SM BR BKN001 08/07 A3018 RMK AO2 VIS 1/2V5 SLP219 T00830072 55002=
202010061440 SPECI KCLM 061440Z AUTO 00000KT 1SM BR VV001 08/08 A3017 RMK AO2 VIS 1/2V5 T00830078=
202010061437 SPECI KCLM 061437Z AUTO 00000KT 1 1/2SM BR CLR 09/08 A3017 RMK AO2 T00890078=
202010061419 SPECI KCLM 061419Z AUTO 00000KT 3SM BR CLR 08/07 A3017 RMK AO2 T00830072=
202010061413 SPECI KCLM 061413Z AUTO 00000KT 1 1/4SM BR FEW001 09/08 A3017 RMK AO2 VIS 3/4V5 T00890078=
202010061408 SPECI KCLM 061408Z AUTO 00000KT 3/4SM BR VV001 09/08 A3017 RMK AO2 T00890078=
202010061353 METAR KCLM 061353Z AUTO 00000KT 1/4SM FG VV001 09/08 A3016 RMK AO2 SLP215 T00940083=
202010061340 SPECI KCLM 061340Z AUTO 00000KT 3/4SM BR VV001 09/08 A3016 RMK AO2 T00940083=
202010061337 SPECI KCLM 061337Z AUTO 00000KT 1 1/2SM BR FEW001 09/08 A3016 RMK AO2 T00940083=
202010061253 METAR KCLM 061253Z AUTO 20003KT 8SM CLR 09/09 A3018 RMK AO2 SLP221 T00940089=
202010061249 SPECI KCLM 061249Z AUTO 00000KT 4SM BR CLR 09/08 A3018 RMK AO2=
202010061228 SPECI KCLM 061228Z AUTO 00000KT 2SM BR CLR 09/08 A3018 RMK AO2 T00940083=
202010061204 SPECI KCLM 061204Z AUTO 00000KT 3SM BR CLR 09/08 A3018 RMK AO2 T00890083=
202010061153 METAR KCLM 061153Z AUTO 00000KT 1 3/4SM BR CLR 09/09 A3018 RMK AO2 SLP221 T00940089 10111 20089 55009=
202010061056 SPECI KCLM 061056Z AUTO 00000KT 4SM BR CLR 09/09 A3018 RMK AO2 T00890089=
202010061053 METAR KCLM 061053Z AUTO 21003KT 1 1/2SM BR CLR 09/09 A3018 RMK AO2 SLP219 T00940089=
202010061046 SPECI KCLM 061046Z AUTO 00000KT 1 1/2SM BR CLR 09/09 A3018 RMK AO2 T00940089=
202010061027 SPECI KCLM 061027Z AUTO 00000KT 8SM FEW001 09/09 A3018 RMK AO2 T00940089=
202010060953 METAR KCLM 060953Z AUTO 00000KT 7SM CLR 09/08 A3019 RMK AO2 SLP225 T00940083=
202010060853 METAR KCLM 060853Z AUTO 00000KT 7SM CLR 10/09 A3021 RMK AO2 SLP231 T01000094 56005=
202010060753 METAR KCLM 060753Z AUTO 00000KT 6SM BR CLR 10/09 A3021 RMK AO2 SLP231 T01000089 401610094=
202010060653 METAR KCLM 060653Z AUTO 20003KT 8SM CLR 11/10 A3022 RMK AO2 SLP235 T01110100=
202010060553 METAR KCLM 060553Z AUTO 22004KT 7SM CLR 11/09 A3022 RMK AO2 SLP236 T01060094 10156 20100 56006=
202010060453 METAR KCLM 060453Z AUTO 19003KT 9SM CLR 11/10 A3023 RMK AO2 SLP238 T01110100=
202010060353 METAR KCLM 060353Z AUTO 00000KT 8SM CLR 11/11 A3023 RMK AO2 SLP237 T01110106=
202010060253 METAR KCLM 060253Z AUTO 22003KT 9SM CLR 12/11 A3024 RMK AO2 SLP242 T01170111 55002=
202010060153 METAR KCLM 060153Z AUTO 00000KT 8SM CLR 13/11 A3023 RMK AO2 SLP237 T01280106=
202010060053 METAR KCLM 060053Z AUTO 00000KT 8SM CLR 13/11 A3024 RMK AO2 SLP242 T01280111=
202010052353 METAR KCLM 052353Z AUTO 03003KT 10SM CLR 16/12 A3025 RMK AO2 SLP243 T01560117 10161 20111 56016=
202010052253 METAR KCLM 052253Z AUTO 01004KT 10SM CLR 16/12 A3026 RMK AO2 SLP248 T01560117=
202010052210 SPECI KCLM 052210Z AUTO 02003KT 4SM HZ FEW001 14/11 A3027 RMK AO2 T01390111=
202010052153 METAR KCLM 052153Z AUTO 03006KT 10SM CLR 14/12 A3028 RMK AO2 SLP254 T01440117=
202010052053 METAR KCLM 052053Z AUTO 34004KT 9SM FEW004 14/12 A3030 RMK AO2 SLP259 T01440117 58004=
202010052000 SPECI KCLM 052000Z AUTO 34005KT 10SM SCT005 14/12 A3031 RMK AO2 T01440117=
202010051953 METAR KCLM 051953Z AUTO 01003KT 10SM BKN006 14/12 A3031 RMK AO2 SLP265 T01440117=
202010051853 METAR KCLM 051853Z AUTO 33004KT 10SM BKN008 12/11 A3032 RMK AO2 SLP266 T01220106=
202010051841 SPECI KCLM 051841Z AUTO VRB04KT 10SM SCT004 12/11 A3031 RMK AO2 T01220106=
202010051818 SPECI KCLM 051818Z AUTO 00000KT 3SM BR OVC002 13/11 A3031 RMK AO2 T01280111=
202010051815 SPECI KCLM 051815Z AUTO 00000KT 1SM BR VV002 12/11 A3031 RMK AO2 T01220111=
202010051801 SPECI KCLM 051801Z AUTO 00000KT 1/4SM FG VV002 12/11 A3031 RMK AO2 T01170106=
202010051753 METAR KCLM 051753Z AUTO 00000KT M1/4SM FG VV001 11/11 A3031 RMK AO2 SLP264 T01110106 10144 20094 51012=
202010051740 SPECI KCLM 051740Z AUTO 35006KT M1/4SM FG VV001 11/11 A3030 RMK AO2 T01110106=
202010051732 SPECI KCLM 051732Z AUTO VRB06KT 1/4SM FG SCT001 BKN006 12/11 A3030 RMK AO2 T01220106=
202010051729 SPECI KCLM 051729Z AUTO 35005KT 1 1/4SM BR SCT001 SCT006 13/11 A3030 RMK AO2 T01280111=
202010051653 METAR KCLM 051653Z AUTO 00000KT 8SM SCT006 13/11 A3029 RMK AO2 SLP259 T01330111=
202010051553 METAR KCLM 051553Z AUTO 00000KT 9SM CLR 13/11 A3028 RMK AO2 SLP252 T01280111=
202010051453 METAR KCLM 051453Z AUTO 00000KT 8SM CLR 11/10 A3027 RMK AO2 SLP252 T01060100 55000=
202010051436 SPECI KCLM 051436Z AUTO 22004KT 9SM CLR 10/09 A3027 RMK AO2 T01000094=
202010051429 SPECI KCLM 051429Z AUTO 24004KT 2SM BR CLR 10/09 A3027 RMK AO2 T01000089=
202010051414 SPECI KCLM 051414Z AUTO 00000KT 3/4SM BR CLR 10/09 A3027 RMK AO2 VIS 1/2V1 1/2 T01000094=
202010051404 SPECI KCLM 051404Z AUTO 00000KT 1 1/2SM BR CLR 10/09 A3027 RMK AO2 T01000089=
202010051400 SPECI KCLM 051400Z AUTO 00000KT 5SM BR FEW001 10/09 A3027 RMK AO2 T01000094=
202010051353 METAR KCLM 051353Z AUTO 24003KT 2SM BR FEW001 10/09 A3027 RMK AO2 VIS 1/2V5 SLP252 T01000094=
202010051340 SPECI KCLM 051340Z AUTO 00000KT 1/2SM FG VV001 11/09 A3027 RMK AO2 T01060094=
202010051332 SPECI KCLM 051332Z AUTO 00000KT 3/4SM BR VV002 11/10 A3026 RMK AO2 T01060100 $=
202010051330 SPECI KCLM 051330Z AUTO 00000KT 1 3/4SM BR CLR 11/10 A3026 RMK AO2 T01060100 $=
202010051253 METAR KCLM 051253Z AUTO 22003KT 6SM BR FEW011 12/11 A3027 RMK AO2 SLP251 T01170106 $=
202010051250 SPECI KCLM 051250Z AUTO 24004KT 6SM BR SCT011 12/11 A3027 RMK AO2 $=
202010051236 SPECI KCLM 051236Z AUTO 24003KT 5SM BR FEW001 BKN011 12/11 A3027 RMK AO2 T01170111 $=
202010051229 SPECI KCLM 051229Z AUTO 00000KT 4SM BR FEW001 OVC009 12/11 A3028 RMK AO2 CIG 007V012 T01170111 $=
202010051220 SPECI KCLM 051220Z AUTO 24003KT 2 1/2SM BR SCT001 OVC009 12/11 A3028 RMK AO2 CIG 007V012 T01170111 $=
202010051153 METAR KCLM 051153Z AUTO 00000KT 8SM OVC009 12/12 A3028 RMK AO2 SLP253 T01220117 10144 20117 50008 $=
202010051053 METAR KCLM 051053Z AUTO 00000KT 8SM OVC009 12/12 A3028 RMK AO2 SLP253 T01220117 $=
202010051026 SPECI KCLM 051026Z AUTO 00000KT 5SM BR OVC009 12/11 A3028 RMK AO2 T01220111 $=
202010051012 SPECI KCLM 051012Z AUTO 00000KT 2SM BR OVC007 12/11 A3028 RMK AO2 T01170111 $=
202010050956 SPECI KCLM 050956Z AUTO 00000KT 1/2SM FG VV005 12/11 A3028 RMK AO2 T01170111 $=
202010050953 METAR KCLM 050953Z AUTO 00000KT 1/4SM FG VV004 12/11 A3028 RMK AO2 SLP252 T01170111 $=
202010050853 METAR KCLM 050853Z AUTO 00000KT 1/4SM FG VV002 12/11 A3025 RMK AO2 SLP244 T01170111 52001 $=
202010050842 SPECI KCLM 050842Z AUTO 27003KT 1/4SM FG VV001 12/11 A3025 RMK AO2 T01170111 $=
202010050753 METAR KCLM 050753Z AUTO 00000KT 1/4SM FG VV002 12/11 A3025 RMK AO2 SLP244 T01170111 401670117 $=
202010050748 SPECI KCLM 050748Z AUTO 30003KT 1/4SM FG VV001 12/11 A3025 RMK AO2 $=
202010050734 SPECI KCLM 050734Z AUTO 32003KT 1/4SM FG BKN002 OVC014 12/11 A3025 RMK AO2 T01170111 $=
202010050727 SPECI KCLM 050727Z AUTO 00000KT 1 1/2SM BR SCT002 OVC014 12/11 A3024 RMK AO2 VIS 1/2V5 T01170111 $=
202010050722 SPECI KCLM 050722Z AUTO 00000KT 4SM BR FEW004 OVC014 12/11 A3024 RMK AO2 T01170111 $=
202010050653 METAR KCLM 050653Z AUTO 00000KT 10SM OVC014 14/12 A3024 RMK AO2 SLP240 T01390122 $=
202010050553 METAR KCLM 050553Z AUTO 24004KT 10SM OVC015 14/12 A3024 RMK AO2 SLP239 T01440122 10156 20133 53016 $=
202010050453 METAR KCLM 050453Z AUTO 00000KT 10SM OVC015 14/12 A3022 RMK AO2 SLP233 T01440122 $=
202010050353 METAR KCLM 050353Z AUTO 23003KT 9SM OVC015 14/12 A3020 RMK AO2 SLP228 T01390122 $=
202010050253 METAR KCLM 050253Z AUTO 22003KT 9SM OVC016 14/12 A3019 RMK AO2 SLP223 T01390122 53005 $=
202010050225 SPECI KCLM 050225Z AUTO 00000KT 9SM OVC014 14/12 A3019 RMK AO2 T01390122 $=
202010050153 METAR KCLM 050153Z AUTO 31004KT 8SM BKN016 OVC024 13/12 A3019 RMK AO2 SLP222 T01330117 $=
202010050134 SPECI KCLM 050134Z AUTO 32004KT 8SM BKN014 OVC026 14/12 A3018 RMK AO2 T01390117 $=
202010050053 METAR KCLM 050053Z AUTO 22006KT 10SM BKN017 OVC022 15/12 A3017 RMK AO2 SLP217 T01500122 $=
202010050009 SPECI KCLM 050009Z AUTO 20003KT 10SM OVC015 15/12 A3017 RMK AO2 T01500122 $=
202010042353 METAR KCLM 042353Z AUTO 28003KT 9SM OVC013 15/12 A3018 RMK AO2 SLP218 T01500122 10167 20144 51010 $=
202010042311 SPECI KCLM 042311Z AUTO 29007KT 8SM OVC010 15/12 A3018 RMK AO2 CIG 006V013 T01500122 $=
202010042301 SPECI KCLM 042301Z AUTO 29006KT 8SM OVC008 14/12 A3017 RMK AO2 CIG 006V011 T01440122 $=
202010042253 METAR KCLM 042253Z AUTO 30006KT 8SM OVC010 14/12 A3017 RMK AO2 CIG 006V013 SLP218 T01440122 $=
202010042234 SPECI KCLM 042234Z AUTO 30006KT 7SM BKN010 BKN015 OVC023 14/12 A3017 RMK AO2 CIG 007V011 T01440122 $=
202010042153 METAR KCLM 042153Z AUTO 29006KT 8SM BKN015 OVC021 15/12 A3016 RMK AO2 SLP212 T01500122 $=
202010042101 SPECI KCLM 042101Z AUTO 29008KT 9SM FEW009 OVC021 16/12 A3015 RMK AO2 T01560122 $=
202010042053 METAR KCLM 042053Z AUTO 28008KT 9SM OVC020 16/12 A3015 RMK AO2 SLP208 T01560122 50005 $=
202010041953 METAR KCLM 041953Z AUTO VRB03KT 8SM FEW011 OVC026 16/12 A3015 RMK AO2 SLP209 T01560117 $=
202010041853 METAR KCLM 041853Z AUTO 30006KT 8SM OVC024 15/11 A3014 RMK AO2 SLP207 T01500111 $=
202010041753 METAR KCLM 041753Z AUTO 30004KT 10SM OVC024 17/11 A3013 RMK AO2 SLP203 T01670111 10167 20122 51007 $=
202010041653 METAR KCLM 041653Z AUTO VRB03KT 5SM HZ OVC024 16/11 A3013 RMK AO2 SLP202 T01560111 $=
202010041553 METAR KCLM 041553Z AUTO 28004KT 9SM OVC026 14/11 A3011 RMK AO2 SLP197 T01440111 $=
202010041453 METAR KCLM 041453Z AUTO 00000KT 9SM OVC023 13/12 A3011 RMK AO2 SLP195 T01330117 $=
202010041353 METAR KCLM 041353Z AUTO 23003KT 9SM SCT018 OVC025 13/12 A3010 RMK AO2 SLP191 T01330117 $=
202010041153 METAR KCLM 041153Z AUTO 00000KT 8SM OVC026 13/11 A3008 RMK AO2 SLP187 T01280111 10144 20122 50001=
202010041053 METAR KCLM 041053Z AUTO 00000KT 9SM OVC025 13/11 A3009 RMK AO2 SLP188 T01280111=
202010040953 METAR KCLM 040953Z AUTO 00000KT 9SM OVC022 13/11 A3008 RMK AO2 SLP187 T01330111=
202010040853 METAR KCLM 040853Z AUTO 00000KT 9SM OVC020 13/11 A3008 RMK AO2 SLP186 T01330111 53000=
202010040753 METAR KCLM 040753Z AUTO 27005KT 10SM OVC021 14/11 A3008 RMK AO2 SLP187 T01390111 401440106=
202010040653 METAR KCLM 040653Z AUTO 27006KT 10SM BKN017 14/11 A3008 RMK AO2 SLP185 T01390111=
202010040553 METAR KCLM 040553Z AUTO 27005KT 10SM OVC015 14/12 A3008 RMK AO2 SLP186 T01440117 10144 20133 51005=
202010040453 METAR KCLM 040453Z AUTO 28006KT 10SM OVC013 14/12 A3008 RMK AO2 SLP185 T01390117=
202010040353 METAR KCLM 040353Z AUTO 27007KT 9SM OVC012 14/12 A3008 RMK AO2 SLP184 T01390122=
202010040329 SPECI KCLM 040329Z AUTO 27007KT 9SM OVC010 14/12 A3007 RMK AO2 T01390122=
202010040253 METAR KCLM 040253Z AUTO 28009KT 9SM OVC007 14/12 A3007 RMK AO2 CIG 004V010 SLP181 T01390122 55002=
202010040235 SPECI KCLM 040235Z AUTO 27007KT 8SM OVC005 14/12 A3006 RMK AO2 T01390122=
202010040153 METAR KCLM 040153Z AUTO 29007KT 6SM BR OVC004 14/12 A3006 RMK AO2 SLP179 T01390122=
202010040053 METAR KCLM 040053Z AUTO 28007KT 6SM BR OVC004 14/12 A3006 RMK AO2 SLP179 T01390122=
202010032353 METAR KCLM 032353Z AUTO 29006KT 5SM BR OVC004 14/13 A3007 RMK AO2 SLP183 T01390128 10144 20128 58010=
202010032253 METAR KCLM 032253Z AUTO 29005KT 7SM OVC004 14/13 A3009 RMK AO2 SLP188 T01440128=
202010032153 METAR KCLM 032153Z AUTO 28005KT 6SM BR OVC003 14/13 A3009 RMK AO2 SLP190 T01390128=
202010032107 SPECI KCLM 032107Z AUTO 31004KT 4SM BR OVC002 14/12 A3009 RMK AO2 T01390122=
202010032053 METAR KCLM 032053Z AUTO 30006KT 2 1/2SM BR OVC002 13/12 A3010 RMK AO2 SLP194 T01330122 56004=
202010032048 SPECI KCLM 032048Z AUTO 29007KT 4SM BR OVC002 13/12 A3010 RMK AO2=
202010032032 SPECI KCLM 032032Z AUTO 30006KT 2SM BR OVC002 13/12 A3010 RMK AO2 T01330122=
202010032018 SPECI KCLM 032018Z AUTO 30005KT 1 1/2SM BR OVC002 13/12 A3010 RMK AO2 T01330122=
202010031953 METAR KCLM 031953Z AUTO 29004KT 2SM BR OVC002 13/12 A3011 RMK AO2 VIS 3/4V4 SLP196 T01330122=
202010031922 SPECI KCLM 031922Z AUTO 32006KT 1 3/4SM BR OVC002 13/12 A3012 RMK AO2 VIS 1 1/4V4 T01280117=
202010031853 METAR KCLM 031853Z AUTO 00000KT 5SM BR OVC002 13/13 A3011 RMK AO2 SLP198 T01330128=
202010031847 SPECI KCLM 031847Z AUTO 00000KT 3SM BR OVC002 13/13 A3011 RMK AO2=
202010031837 SPECI KCLM 031837Z AUTO 29004KT 1 1/2SM BR OVC002 13/13 A3011 RMK AO2 T01330128=
202010031814 SPECI KCLM 031814Z AUTO 28004KT 1SM BR OVC001 13/12 A3011 RMK AO2 T01280122=
202010031753 METAR KCLM 031753Z AUTO 29006KT 1/2SM FG OVC002 13/12 A3012 RMK AO2 SLP201 T01280122 10128 20111 53002=
202010031658 SPECI KCLM 031658Z AUTO 33004KT 1 3/4SM BR OVC002 13/12 A3012 RMK AO2 T01280122=
202010031652 METAR KCLM 031652Z AUTO 27004KT 3SM BR OVC002 13/12 A3012 RMK AO2 SLP199 T01280122=
202010031651 SPECI KCLM 031651Z AUTO 26004KT 3SM BR OVC002 13/12 A3012 RMK AO2=
202010031642 SPECI KCLM 031642Z AUTO 29004KT 1 1/2SM BR OVC002 13/12 A3012 RMK AO2 T01280122=
202010031629 SPECI KCLM 031629Z AUTO 28004KT 2SM BR OVC002 13/12 A3012 RMK AO2 VIS 1 1/2V3 T01280122=
202010031612 SPECI KCLM 031612Z AUTO 29005KT 1SM BR OVC002 13/12 A3012 RMK AO2 T01280122=
202010031553 METAR KCLM 031553Z AUTO 30005KT 1/2SM FG OVC002 12/12 A3012 RMK AO2 SLP198 T01220117=
202010031453 METAR KCLM 031453Z AUTO 28006KT 1/4SM FG VV002 12/12 A3012 RMK AO2 SLP198 T01220117 52003=
202010031431 SPECI KCLM 031431Z AUTO 28005KT 1/4SM FG VV002 12/12 A3011 RMK AO2 T01170117=
202010031353 METAR KCLM 031353Z AUTO 26006KT 1/2SM FG VV002 12/11 A3011 RMK AO2 SLP196 T01170111=
202010031310 SPECI KCLM 031310Z AUTO 27005KT 1/2SM FG VV002 12/11 A3011 RMK AO2 T01170111=
202010031253 METAR KCLM 031253Z AUTO 27005KT 1/4SM FG VV002 12/11 A3011 RMK AO2 SLP197 T01170111=
202010031216 SPECI KCLM 031216Z AUTO 28006KT 1/4SM FG VV002 11/11 A3011 RMK AO2 T01110106=
202010031201 SPECI KCLM 031201Z AUTO 27004KT 1/2SM FG VV002 11/11 A3011 RMK AO2 T01110106=
202010031153 METAR KCLM 031153Z AUTO 28006KT 1/4SM FG VV002 11/11 A3011 RMK AO2 SLP195 T01110106 10111 20100 58001=
202010031145 SPECI KCLM 031145Z AUTO 26004KT 1/4SM FG VV002 11/11 A3011 RMK AO2 T01110106=
202010031053 METAR KCLM 031053Z AUTO 00000KT 1/4SM FG VV001 11/11 A3011 RMK AO2 SLP196 T01110106=
202010030953 METAR KCLM 030953Z AUTO 00000KT 1/4SM FG VV001 11/11 A3012 RMK AO2 SLP199 T01110106=
202010030853 METAR KCLM 030853Z AUTO 00000KT 1/4SM FG VV001 11/11 A3011 RMK AO2 SLP196 T01060106 51001=
202010030803 SPECI KCLM 030803Z AUTO 26003KT 1/4SM FG VV001 11/11 A3011 RMK AO2 T01110106=
202010030753 METAR KCLM 030753Z AUTO 00000KT 1/2SM FG VV001 11/11 A3011 RMK AO2 SLP196 T01110106 402280100=
202010030653 METAR KCLM 030653Z AUTO 00000KT M1/4SM FG VV001 11/10 A3011 RMK AO2 SLP196 T01060100=
202010030647 SPECI KCLM 030647Z AUTO 30003KT 1/4SM FG VV001 11/10 A3011 RMK AO2=
202010030630 SPECI KCLM 030630Z AUTO 00000KT 3/4SM BR VV003 11/10 A3011 RMK AO2 T01060100=
202010030627 SPECI KCLM 030627Z AUTO 00000KT 1 1/4SM BR FEW002 11/10 A3011 RMK AO2 T01060100=
202010030553 METAR KCLM 030553Z AUTO 00000KT 6SM BR CLR 11/10 A3011 RMK AO2 SLP195 T01110100 10222 20106 51005=
202010030457 SPECI KCLM 030457Z AUTO 00000KT 4SM BR CLR 12/11 A3011 RMK AO2 T01220111=
202010030453 METAR KCLM 030453Z AUTO 00000KT 1 1/4SM BR CLR 12/11 A3011 RMK AO2 SLP194 T01220111=
202010030444 SPECI KCLM 030444Z AUTO 00000KT 1 3/4SM BR CLR 11/11 A3010 RMK AO2 VIS 1/2V5 T01110106=
202010030353 METAR KCLM 030353Z AUTO 00000KT 5SM BR CLR 13/12 A3010 RMK AO2 SLP191 T01280117=
202010030253 METAR KCLM 030253Z AUTO 00000KT 7SM CLR 13/12 A3009 RMK AO2 SLP190 T01330117 56004=
202010030153 METAR KCLM 030153Z AUTO 00000KT 7SM CLR 15/12 A3010 RMK AO2 SLP191 T01500122=
202010030053 METAR KCLM 030053Z AUTO 00000KT 7SM CLR 18/13 A3010 RMK AO2 SLP192 T01780133=
202010022353 METAR KCLM 022353Z AUTO 03003KT 7SM CLR 22/12 A3011 RMK AO2 SLP194 T02220122 10228 20189 56012=
202010022253 METAR KCLM 022253Z AUTO 12003KT 7SM CLR 23/12 A3011 RMK AO2 SLP197 T02280122=
202010022153 METAR KCLM 022153Z AUTO VRB04KT 7SM CLR 22/12 A3012 RMK AO2 SLP200 T02220122=
202010022053 METAR KCLM 022053Z AUTO 36003KT 7SM CLR 21/13 A3014 RMK AO2 SLP207 T02110128 58008=
202010021953 METAR KCLM 021953Z AUTO 04004KT 7SM CLR 21/14 A3015 RMK AO2 SLP210 T02110139=
202010021853 METAR KCLM 021853Z AUTO 01005KT 8SM CLR 19/14 A3016 RMK AO2 SLP212 T01890139=
202010021753 METAR KCLM 021753Z AUTO 07006KT 8SM CLR 19/14 A3017 RMK AO2 SLP215 T01940139 10194 20100 53004=
202010021653 METAR KCLM 021653Z AUTO 10008KT 8SM CLR 18/14 A3016 RMK AO2 SLP214 T01830144=
202010021553 METAR KCLM 021553Z AUTO 13005KT 9SM CLR 17/14 A3016 RMK AO2 SLP212 T01720144=
202010021453 METAR KCLM 021453Z AUTO 14003KT 7SM CLR 12/11 A3015 RMK AO2 SLP211 T01170106 50001=
202010021353 METAR KCLM 021353Z AUTO 00000KT 7SM CLR 11/10 A3016 RMK AO2 SLP211 T01110100=
202010021253 METAR KCLM 021253Z AUTO 00000KT 8SM CLR 11/10 A3015 RMK AO2 SLP211 T01110100=
202010021153 METAR KCLM 021153Z AUTO 00000KT 7SM CLR 11/10 A3015 RMK AO2 SLP210 T01060100 10128 20100 53001=
202010021053 METAR KCLM 021053Z AUTO 00000KT 7SM CLR 11/10 A3015 RMK AO2 SLP210 T01110100=
202010020953 METAR KCLM 020953Z AUTO 00000KT 7SM CLR 12/11 A3015 RMK AO2 SLP209 T01170106=
202010020853 METAR KCLM 020853Z AUTO 16003KT 7SM CLR 11/11 A3015 RMK AO2 SLP209 T01110106 50000=
202010020753 METAR KCLM 020753Z AUTO 00000KT 8SM CLR 12/11 A3015 RMK AO2 SLP210 T01220106 402000106=
202010020653 METAR KCLM 020653Z AUTO 15003KT 8SM CLR 12/11 A3015 RMK AO2 SLP211 T01170111=
202010020553 METAR KCLM 020553Z AUTO 00000KT 7SM CLR 12/11 A3015 RMK AO2 SLP209 T01220111 10194 20117 50001=
202010020453 METAR KCLM 020453Z AUTO 00000KT 9SM CLR 13/12 A3015 RMK AO2 SLP210 T01330117=
202010020353 METAR KCLM 020353Z AUTO 00000KT 9SM CLR 12/11 A3015 RMK AO2 SLP211 T01220111=
202010020253 METAR KCLM 020253Z AUTO 00000KT 10SM CLR 14/12 A3014 RMK AO2 SLP207 T01390117 56004=
202010020153 METAR KCLM 020153Z AUTO 00000KT 10SM CLR 14/12 A3015 RMK AO2 SLP208 T01440122=
202010020053 METAR KCLM 020053Z AUTO 00000KT 10SM CLR 18/13 A3015 RMK AO2 SLP209 T01830128=
202010012353 METAR KCLM 012353Z AUTO 02003KT 10SM CLR 19/13 A3016 RMK AO2 SLP211 T01940133 10200 20139 58014=
202010012253 METAR KCLM 012253Z AUTO 03003KT 10SM CLR 19/13 A3017 RMK AO2 SLP217 T01940133=
202010012153 METAR KCLM 012153Z AUTO 04004KT 10SM CLR 19/13 A3018 RMK AO2 SLP220 T01890128=
202010012053 METAR KCLM 012053Z AUTO VRB04KT 10SM CLR 19/13 A3020 RMK AO2 SLP225 T01940128 58007=
202010011953 METAR KCLM 011953Z AUTO 00000KT 10SM CLR 18/13 A3021 RMK AO2 SLP231 T01830133=
202010011853 METAR KCLM 011853Z AUTO 00000KT 9SM CLR 17/13 A3022 RMK AO2 SLP233 T01670128=
202010011753 METAR KCLM 011753Z AUTO 04003KT 7SM CLR 14/13 A3022 RMK AO2 SLP232 T01440128 10156 20117 51001=
202010011653 METAR KCLM 011653Z AUTO 00000KT 4SM BR CLR 13/13 A3022 RMK AO2 SLP232 T01330128=
202010011639 SPECI KCLM 011639Z AUTO 00000KT 3SM BR FEW001 13/13 A3022 RMK AO2 T01330128=
202010011612 SPECI KCLM 011612Z AUTO 00000KT 1/2SM FG OVC001 12/12 A3022 RMK AO2 T01220122=
202010011603 SPECI KCLM 011603Z AUTO 00000KT 1/4SM FG VV001 12/12 A3022 RMK AO2 T01220117=
202010011553 METAR KCLM 011553Z AUTO 00000KT 1/2SM FG OVC001 12/12 A3022 RMK AO2 SLP232 T01220117=
202010011508 SPECI KCLM 011508Z AUTO 00000KT M1/4SM FG VV001 12/11 A3021 RMK AO2 T01170111=
202010011453 METAR KCLM 011453Z AUTO 17003KT M1/4SM FG VV002 12/11 A3021 RMK AO2 SLP231 T01170111 57001=
202010011438 SPECI KCLM 011438Z AUTO 00000KT 1/4SM FG VV002 12/11 A3021 RMK AO2 T01170111=
202010011353 METAR KCLM 011353Z AUTO 00000KT 3/4SM BR OVC002 12/12 A3022 RMK AO2 SLP232 T01220117=
202010011350 SPECI KCLM 011350Z AUTO 00000KT 1/2SM FG VV002 12/12 A3022 RMK AO2=
202010011339 SPECI KCLM 011339Z AUTO 28003KT 1/4SM FG OVC002 12/12 A3022 RMK AO2 T01220117=
202010011328 SPECI KCLM 011328Z AUTO 29003KT 3/4SM BR OVC002 12/12 A3022 RMK AO2 T01220117=
202010011313 SPECI KCLM 011313Z AUTO 24004KT 2SM BR OVC002 13/12 A3021 RMK AO2 T01280122=
202010011302 SPECI KCLM 011302Z AUTO 28003KT 1/2SM FG VV002 13/12 A3022 RMK AO2 T01280122=
202010011253 METAR KCLM 011253Z AUTO 28003KT 1/4SM FG VV002 13/12 A3022 RMK AO2 SLP233 T01280122=
202010011240 SPECI KCLM 011240Z AUTO 00000KT 1/4SM FG VV002 13/12 A3022 RMK AO2 T01280122=
202010011207 SPECI KCLM 011207Z AUTO 25004KT 1/4SM FG VV001 13/13 A3022 RMK AO2 T01330128=
202010011201 SPECI KCLM 011201Z AUTO 26004KT 3/4SM BR OVC002 13/13 A3022 RMK AO2 T01330128=
202010011153 METAR KCLM 011153Z AUTO 26005KT 2 1/2SM BR OVC002 13/13 A3022 RMK AO2 SLP232 T01330128 10144 20128 51004=
202010011144 SPECI KCLM 011144Z AUTO 24005KT 5SM BR OVC002 13/12 A3022 RMK AO2 T01330122=
202010011137 SPECI KCLM 011137Z AUTO 26006KT 2 1/2SM BR BKN002 13/12 A3022 RMK AO2 T01280122=
202010011114 SPECI KCLM 011114Z AUTO 26003KT 1/2SM FG OVC002 13/13 A3020 RMK AO2 T01330128=
202010011053 METAR KCLM 011053Z AUTO 00000KT 2 1/2SM BR OVC002 14/13 A3021 RMK AO2 SLP228 T01390133=
202010011035 SPECI KCLM 011035Z AUTO 26004KT 3SM BR OVC002 14/13 A3021 RMK AO2 T01390133=
202010011010 SPECI KCLM 011010Z AUTO 28005KT 1SM BR OVC002 14/13 A3022 RMK AO2 T01390133=
202010010953 METAR KCLM 010953Z AUTO 28006KT 3/4SM BR VV002 14/13 A3022 RMK AO2 SLP232 T01390133=
202010010941 SPECI KCLM 010941Z AUTO 28007KT 1/2SM FG VV002 14/13 A3022 RMK AO2 T01390133=
202010010853 METAR KCLM 010853Z AUTO 28003KT 1/4SM FG VV001 13/13 A3020 RMK AO2 SLP227 T01330128 55004=
202010010753 METAR KCLM 010753Z AUTO 22003KT 1/4SM FG VV001 13/13 A3020 RMK AO2 SLP228 T01330128 402220100=
202010010741 SPECI KCLM 010741Z AUTO 23003KT 1/4SM FG VV001 13/13 A3020 RMK AO2 T01330128=
202010010721 SPECI KCLM 010721Z AUTO 00000KT 1/4SM FG VV002 14/13 A3021 RMK AO2 T01390133=
202010010712 SPECI KCLM 010712Z AUTO 00000KT 1/4SM FG VV001 14/13 A3021 RMK AO2 T01390133=
202010010653 METAR KCLM 010653Z AUTO 00000KT 1/4SM FG VV002 14/13 A3021 RMK AO2 SLP228 T01390128=
202010010622 SPECI KCLM 010622Z AUTO 25005KT 1/4SM FG VV002 14/14 A3021 RMK AO2 T01440139=
202010010612 SPECI KCLM 010612Z AUTO 26005KT 1/2SM FG OVC002 14/13 A3021 RMK AO2 T01390133=
202010010553 METAR KCLM 010553Z AUTO 24004KT 1SM BR OVC002 14/13 A3022 RMK AO2 SLP232 T01390133 10206 20133 50005=
202010010532 SPECI KCLM 010532Z AUTO 27006KT 1 1/4SM BR OVC002 14/13 A3022 RMK AO2 T01440133=
202010010524 SPECI KCLM 010524Z AUTO 27004KT 3/4SM BR VV002 14/13 A3022 RMK AO2 T01440133=
202010010516 SPECI KCLM 010516Z AUTO 26008KT 1/4SM FG VV002 14/13 A3022 RMK AO2 T01440133=
202010010503 SPECI KCLM 010503Z AUTO 27006KT 1/2SM FG OVC002 14/13 A3022 RMK AO2 T01440133=
202010010453 METAR KCLM 010453Z AUTO 27007KT 1SM BR OVC002 14/13 A3022 RMK AO2 SLP234 T01440133=
202010010443 SPECI KCLM 010443Z AUTO 27008KT 1 3/4SM BR OVC003 14/13 A3023 RMK AO2 T01390133=
202010010407 SPECI KCLM 010407Z AUTO 27008KT 5SM BR BKN004 14/13 A3022 RMK AO2 T01390128=
202010010353 METAR KCLM 010353Z AUTO 28005KT 7SM FEW006 14/12 A3022 RMK AO2 SLP232 T01390122=
202010010253 METAR KCLM 010253Z AUTO 32006KT 10SM CLR 14/12 A3020 RMK AO2 SLP228 T01390122 53007=
202010010153 METAR KCLM 010153Z AUTO 26003KT 10SM CLR 16/13 A3019 RMK AO2 SLP222 T01560128=
202010010053 METAR KCLM 010053Z AUTO 00000KT 10SM CLR 17/13 A3019 RMK AO2 SLP222 T01720128=

# No short TAF reports from KCLM in databse.

###################################
#  large TAF from KCLM
###################################
202010312320 TAF KCLM 312320Z 0100/0124 09007KT P6SM FEW250 FM011000 VRB02KT
                       P6SM FEW200 FM011800 12003KT P6SM FEW250=
202010311732 TAF KCLM 311732Z 3118/0118 22005KT P6SM SCT250 FM011400 VRB02KT
                       P6SM FEW200=
202010311120 TAF KCLM 311120Z 3112/0112 22006KT P6SM SCT150=
202010310520 TAF KCLM 310520Z 3106/0106 24007KT P6SM SKC FM311200 22006KT P6SM
                       SCT150=
202010310302 KCLM 310302Z 3103/3124 25007KT P6SM SCT050 FM311200 22006KT P6SM
                       OVC050=
202010302321 TAF KCLM 302321Z 3100/3124 28015G25KT P6SM FEW050 FM310300 27007KT
                       P6SM SCT050 FM311200 22006KT P6SM OVC050=
202010301722 TAF KCLM 301722Z 3018/3118 28015G25KT P6SM FEW050 FM310300 27007KT
                       P6SM SCT050 FM311200 22006KT P6SM OVC250=
202010301141 TAF KCLM 301141Z 3012/3112 26012KT P6SM -RA SCT006 BKN035 OVC050
                       FM301300 28015G25KT P6SM SCT035 BKN050 FM302200
                       28012KT P6SM SCT050 FM310500 25006KT P6SM
                       SKC=
202010300539 TAF KCLM 300539Z 3006/3106 00000KT P6SM SCT045 BKN100 FM301000
                       26012KT P6SM -RA OVC035 FM301500 28015G25KT
                       P6SM SCT035 BKN050 FM302200 28012KT P6SM
                       SCT050=
202010300303 KCLM 300303Z 3003/3024 00000KT P6SM OVC045 FM301300 26015KT P6SM
                       -RA OVC015 FM301700 28020G30KT P6SM FEW250=
202010292325 TAF KCLM 292325Z 3000/3024 00000KT P6SM OVC045 FM300300 27003KT
                       P6SM OVC025 FM300700 27003KT P6SM OVC040
                       FM301300 26015KT P6SM -RA OVC015 FM301700
                       28020G30KT P6SM FEW250=
202010291732 TAF KCLM 291732Z 2918/3018 23007KT P6SM OVC050 FM292200 32005KT
                       P6SM OVC030 FM300500 24003KT P6SM -RA OVC040
                       FM301300 26015G20KT P6SM -RA OVC015 FM301700
                       28020G30KT P6SM FEW250=
202010291138 TAF KCLM 291138Z 2912/3012 00000KT P6SM OVC035 FM291700 00000KT
                       P6SM BKN045 FM292100 00000KT P6SM SCT040
                       BKN200 FM300500 00000KT P6SM SCT040 BKN070
                       OVC120 FM300800 VRB03KT P6SM -RA OVC040
                       FM301100 28012G20KT P6SM -RA OVC040=
202010290536 TAF KCLM 290536Z 2906/3006 00000KT P6SM OVC021 FM291700 00000KT
                       P6SM SCT025 BKN045 FM292100 00000KT P6SM
                       SCT040 BKN200 FM300500 00000KT P6SM SCT040
                       BKN070 OVC120=
202010282320 TAF KCLM 282320Z 2900/2924 36003KT P6SM FEW100 FM290800 28006KT
                       P6SM OVC035 FM291900 35005KT P6SM OVC050=
202010281722 TAF KCLM 281722Z 2818/2918 23003KT P6SM OVC050 FM282000 28006KT
                       P6SM SCT025 BKN040 FM290800 28006KT P6SM
                       OVC025=
202010281134 TAF KCLM 281134Z 2812/2912 VRB03KT P6SM OVC035 FM282000 28006KT
                       P6SM SCT025 BKN040 FM290800 28006KT P6SM
                       OVC025=
202010280534 TAF KCLM 280534Z 2806/2906 25004KT P6SM OVC035 FM281100 28008KT
                       4SM BR OVC004 FM281700 28004KT P6SM SCT008
                       BKN015 OVC030 FM282000 30006KT P6SM SCT020
                       BKN035=
202010272322 TAF KCLM 272322Z 2800/2824 VRB04KT P6SM BKN045 FM280400 25004KT
                       P6SM OVC030 FM280900 25005KT P6SM OVC022
                       FM281300 25004KT P6SM OVC017 FM282100 30006KT
                       P6SM BKN030=
202010271728 TAF KCLM 271728Z 2718/2818 11005KT P6SM SCT010 OVC035
                      TEMPO 2718/2720 6SM BR FM272000 VRB04KT P6SM
                       BKN040 FM280100 25004KT P6SM BKN040 FM280900
                       25005KT P6SM OVC020 FM281300 25004KT P6SM
                       OVC015=
202010271128 TAF KCLM 271128Z 2712/2812 VRB03KT P6SM OVC035 FM272000 28006KT
                       P6SM BKN045=
202010270538 TAF KCLM 270538Z 2706/2806 VRB03KT P6SM OVC015 FM271200 VRB03KT
                       P6SM OVC025 FM271900 VRB03KT P6SM BKN040
                       OVC080=
202010262355 KCLM 262355Z 2700/2724 09004KT P6SM BKN025 BKN050 FM270700 VRB03KT
                       P6SM OVC025 FM272000 VRB03KT P6SM BKN040
                       OVC080=
202010262325 TAF KCLM 262325Z 2700/2724 09004KT P6SM BKN050 BKN100 FM270500
                       24003KT P6SM SCT030 BKN050 FM270900 VRB03KT
                       P6SM OVC025 FM272000 VRB03KT P6SM BKN040
                       OVC080=
202010261731 TAF KCLM 261731Z 2618/2718 12003KT P6SM BKN050 FM262100 VRB03KT
                       P6SM SCT050 BKN100 FM270500 24003KT P6SM
                       BKN050=
202010261141 TAF KCLM 261141Z 2612/2712 21003KT P6SM BKN070 FM261800 VRB03KT
                       P6SM BKN100=
202010260536 TAF KCLM 260536Z 2606/2706 21003KT P6SM BKN100 FM261800 VRB03KT
                       P6SM SKC=
202010252322 TAF KCLM 252322Z 2600/2624 08005KT P6SM SKC FM260200 15005KT P6SM
                       SKC FM260400 21003KT P6SM SKC FM261800 VRB03KT
                       P6SM SKC=
202010251722 TAF KCLM 251722Z 2518/2618 VRB04KT P6SM SKC FM252000 08005KT P6SM
                       SKC FM260200 15005KT P6SM SKC FM260800 23008KT
                       P6SM SKC=
202010251124 TAF KCLM 251124Z 2512/2612 22006KT P6SM OVC035 FM252000 10005KT
                       P6SM SKC FM260200 22005KT P6SM SKC=
202010250527 TAF KCLM 250527Z 2506/2606 25008KT P6SM OVC060 FM251200 22006KT
                       P6SM SCT060 FM252000 10005KT P6SM SKC FM260200
                       22005KT P6SM SKC=
202010242320 TAF KCLM 242320Z 2500/2524 VRB04KT P6SM SKC FM250400 19009KT P6SM
                       SKC FM251200 22006KT P6SM SKC FM252000 10005KT
                       P6SM SKC=
202010241721 TAF KCLM 241721Z 2418/2518 08007KT P6SM SKC FM242000 11011KT P6SM
                       SKC FM242200 20008KT P6SM OVC250 FM251200
                       22006KT P6SM SKC=
202010241128 TAF KCLM 241128Z 2412/2512 13005KT P6SM SCT035 FM242000 11012G18KT
                       P6SM SKC FM242200 20008KT P6SM OVC250=
202010240528 TAF KCLM 240528Z 2406/2506 16010KT 6SM -RA BKN035 OVC050 FM241200
                       25009KT P6SM FEW250 FM242000 12007KT P6SM
                       SKC FM250400 21010KT P6SM SKC=
202010232321 TAF KCLM 232321Z 2400/2424 25004KT 2SM -RA BR OVC005 FM240200 VRB04KT
                       1 1/2SM BR OVC010 FM240800 25011KT P6SM
                       OVC050 FM241200 25009KT P6SM FEW250=
202010231725 TAF KCLM 231725Z 2318/2418 VRB03KT 5SM BR OVC025 FM232100 08003KT
                       2SM -RA BR OVC007 FM240000 07002KT 4SM BR
                       OVC010 FM240400 32003KT 4SM BR OVC010 FM240700
                       25011KT P6SM OVC050=
202010231133 TAF KCLM 231133Z 2312/2412 22004KT P6SM SCT250 FM231400 19003KT
                       4SM -RA BR OVC025 FM231800 18003KT 4SM -RA
                       BR OVC007 FM240600 25011KT P6SM OVC050=
202010230525 TAF KCLM 230525Z 2306/2406 22004KT P6SM SCT250 FM231400 19003KT
                       4SM -RA BR OVC025 FM231800 18003KT 4SM -RA
                       BR OVC007=
202010222326 TAF KCLM 222326Z 2300/2324 02004KT P6SM SCT250 FM230200 22004KT
                       P6SM SCT250 FM231400 19003KT 4SM -RA BR
                       OVC025 FM231800 18003KT 4SM -RA BR OVC007=
202010221729 TAF KCLM 221729Z 2218/2318 24004KT P6SM SCT250 FM221900 08004KT
                       P6SM SCT250 FM230200 22004KT P6SM SCT250
                       FM231400 19003KT 4SM -RA BR OVC025=
202010221126 TAF KCLM 221126Z 2212/2312 24004KT P6SM SCT250 FM221900 08004KT
                       P6SM SCT250=
202010220543 TAF KCLM 220543Z 2206/2306 24004KT P6SM SCT250 FM221900 08004KT
                       P6SM SCT250=
202010212337 TAF KCLM 212337Z 2200/2224 04006KT P6SM SCT070 SCT250 FM220200
                       24004KT P6SM SCT250 FM221900 08004KT P6SM
                       SCT250=
202010211737 TAF KCLM 211737Z 2118/2218 28008KT P6SM VCSH BKN050 FM212100 29012KT
                       P6SM SCT250 FM220400 24004KT P6SM SCT250=
202010211120 TAF KCLM 211120Z 2112/2212 25011KT P6SM BKN040 FM211700 28012KT
                       P6SM SCT050 SCT250 FM212100 26006KT P6SM
                       SCT250=
202010210523 TAF KCLM 210523Z 2106/2206 26007KT P6SM VCSH FEW040 BKN050 FM210900
                       26014G25KT P6SM SCT025 BKN120 FM212200 28012KT
                       P6SM SCT250=
202010202332 TAF KCLM 202332Z 2100/2124 31005KT P6SM SCT120 FM210600 26009KT
                       P6SM VCSH SCT025 BKN050 FM210900 26014G25KT
                       P6SM VCSH SCT025 BKN120 FM212200 28012KT
                       P6SM SCT250=
202010201732 TAF KCLM 201732Z 2018/2118 25005KT P6SM SCT050 SCT250 FM202200
                       32005KT P6SM BKN050 FM210600 26016G22KT
                       P6SM VCSH SCT025 BKN050=
202010201125 KCLM 201125Z 2012/2112 25005KT P6SM OVC040 FM202200 32005KT P6SM
                       BKN050 FM210600 26016G22KT P6SM VCSH SCT025
                       BKN050=
202010201121 TAF KCLM 201121Z 2012/2112 25005KT P6SM OVC040 FM202200 32005KT
                       P6SM BKN050 FM210600 26016G22KT P6SM BKN050=
202010200520 TAF KCLM 200520Z 2006/2106 27011KT P6SM SKC FM201400 24004KT P6SM
                       OVC050 FM202100 32005KT P6SM OVC050=
202010192340 TAF KCLM 192340Z 2000/2024 28012G24KT P6SM OVC090 FM200400 26010KT
                       P6SM BKN050 FM201400 24004KT P6SM OVC050
                       FM202100 32005KT P6SM OVC050=
202010191730 TAF KCLM 191730Z 1918/2018 29011G22KT P6SM FEW015 BKN050 FM191900
                       28012G24KT P6SM BKN050 FM200200 26010KT
                       P6SM BKN050 FM201400 24004KT P6SM OVC050=
202010190615 KCLM 190615Z 1906/2006 VRB03KT P6SM FEW001
                      TEMPO 1906/1910 1SM BR VV001 FM191400 28008KT
                       P6SM BKN015 FM192200 31007KT P6SM BKN025=
202010190600 KCLM 190600Z 1906/2006 VRB03KT 1SM BR VV001 FM191400 28008KT P6SM
                       BKN015 FM192200 31007KT P6SM BKN025=
202010190520 TAF KCLM 190520Z 1906/2006 25006KT P6SM FEW020 SCT100 FM191000
                       28008KT P6SM BKN015 FM192200 31007KT P6SM
                       BKN025=
202010182320 TAF KCLM 182320Z 1900/1924 VRB03KT 5SM BR BKN005 OVC010 FM190300
                       28008KT 5SM BR SCT005 BKN015 FM190600 28010KT
                       P6SM SCT005 OVC015 FM191700 28008KT P6SM
                       BKN015 FM192200 31007KT P6SM BKN025=
202010182017 KCLM 182017Z 1820/1918 VRB04KT 2SM BR OVC004 FM182200 28008KT 5SM
                       BR BKN005 OVC012 FM190000 27012KT P6SM VCSH
                       BKN015 BKN030 FM190400 28012G20KT P6SM VCSH
                       SCT015 BKN030=
202010181720 TAF KCLM 181720Z 1818/1918 VRB04KT 5SM BR BKN005 OVC012 FM182000
                       27012KT P6SM VCSH BKN015 BKN030 FM190000
                       28012G20KT P6SM VCSH SCT015 BKN030=
202010181505 KCLM 181505Z 1815/1912 00000KT 4SM -RA BR SCT005 OVC015
                      TEMPO 1815/1818 2SM -RA BR BKN003 OVC010
                       FM181800 27010KT P6SM SCT015 BKN050 FM190600
                       27010KT P6SM BKN015=
202010181126 TAF KCLM 181126Z 1812/1912 VRB04KT 4SM -RA BR OVC015
                      TEMPO 1812/1816 3SM -RA BR BKN002 FM181600
                       VRB04KT P6SM VCSH SCT010 OVC020 FM181900
                       25008KT P6SM SCT015 BKN050 FM190600 27010KT
                       P6SM BKN015=
202010180902 KCLM 180902Z 1809/1906 VRB04KT 4SM -RA OVC015
                      TEMPO 1809/1813 3SM -RA BR BKN003 FM181500
                       VRB04KT P6SM -RA SCT010 OVC020 FM181800
                       21005KT P6SM VCSH BKN025 BKN050=
202010180809 KCLM 180809Z 1808/1906 VRB04KT P6SM -RA BKN025 OVC030
                      TEMPO 1808/1809 2SM -RA FEW006 OVC020 FM180900
                       VRB04KT 4SM -RA OVC015 FM181800 21005KT
                       P6SM VCSH BKN025 BKN050=
202010180520 TAF KCLM 180520Z 1806/1906 VRB04KT P6SM VCSH BKN017 OVC050
                      TEMPO 1806/1809 -RA OVC015 FM180900 VRB04KT
                       4SM -RA OVC015 FM181800 21005KT P6SM VCSH
                       BKN025 BKN050=
202010172320 TAF KCLM 172320Z 1800/1824 VRB04KT P6SM SCT030 OVC060
                      TEMPO 1800/1804 -RA BKN020 OVC060 FM180400
                       09006KT 4SM -RA BR OVC010 FM181500 21005KT
                       P6SM VCSH BKN025 BKN050=
202010171728 TAF KCLM 171728Z 1718/1818 24004KT P6SM SCT010 BKN050 OVC100 FM180000
                       VRB04KT P6SM -RA BKN012 OVC040 FM180600
                       09006KT 4SM -RA BR OVC010 FM181500 21005KT
                       P6SM VCSH BKN025 BKN050=
202010171408 KCLM 171408Z 1714/1812 23005KT P6SM SCT005 BKN100
                      TEMPO 1714/1718 5SM BR BKN005 OVC100 FM171800
                       VRB04KT P6SM SCT020 BKN050 OVC100 FM180900
                       VRB04KT P6SM VCSH OVC020=
202010171236 KCLM 171236Z 1713/1812 29006KT P6SM BKN005 BKN100 FM171800 VRB04KT
                       P6SM SCT020 BKN050 OVC100 FM180900 VRB04KT
                       P6SM VCSH OVC020=
202010171120 TAF KCLM 171120Z 1712/1812 29006KT P6SM SCT010 BKN100 FM171800
                       VRB04KT P6SM SCT020 BKN050 OVC100 FM180900
                       VRB04KT P6SM VCSH OVC020=
202010170520 TAF KCLM 170520Z 1706/1806 29010KT P6SM SCT009
                      TEMPO 1706/1710 BKN009 FM171000 29008KT P6SM
                       OVC008 FM171800 VRB04KT P6SM SCT020 BKN050=
202010170217 KCLM 170217Z 1702/1724 29012G20KT P6SM BKN004 OVC008 FM171000 29008KT
                       P6SM SCT004 OVC008 FM171800 VRB04KT P6SM
                       SCT020 BKN050=
202010162320 TAF KCLM 162320Z 1700/1724 29012KT P6SM SCT020 BKN050 FM171000
                       28005KT P6SM BKN015 FM171800 VRB04KT P6SM
                       SCT020 OVC080=
202010161916 KCLM 161916Z 1619/1718 28015G28KT P6SM SCT020 BKN050
                      TEMPO 1619/1621 5SM -SHRA BR BKN020 OVC050
                       FM162100 29015G25KT P6SM VCSH BKN020 BKN050
                       FM170300 28012G20KT P6SM BKN020 BKN050 FM171000
                       28005KT P6SM BKN015=
202010161723 TAF KCLM 161723Z 1618/1718 30010KT P6SM SCT020 OVC040
                      TEMPO 1618/1622 5SM -RA BR BKN020 OVC040
                       FM162200 28012G22KT 5SM -SHRA BR BKN012
                       BKN030 FM170300 28012KT P6SM OVC015 FM171000
                       28005KT P6SM BKN015=
202010161120 TAF KCLM 161120Z 1612/1712 00000KT P6SM BKN040 OVC050 FM161800
                       25008KT 6SM -RA BR OVC020 FM162100 28012G22KT
                       2SM -SHRA BR OVC009 FM170300 27012KT P6SM
                       OVC015 FM171000 26005KT P6SM BKN050=
202010160520 TAF KCLM 160520Z 1606/1706 VRB03KT P6SM OVC050 FM161200 24004KT
                       P6SM OVC035 FM161800 25008KT P6SM -RA OVC020
                       FM162100 28012G22KT 2SM -SHRA BR BKN015
                       OVC025 FM170300 27012KT P6SM OVC015=
202010152320 TAF KCLM 152320Z 1600/1624 VRB03KT P6SM OVC070 FM160600 24003KT
                       P6SM OVC050 FM161200 24004KT P6SM OVC035
                       FM161500 25008KT P6SM -RA OVC020 FM162100
                       28012G22KT 6SM -SHRA BR BKN015 OVC025=
202010151751 TAF KCLM 151751Z 1518/1618 24011KT P6SM SKC FM152000 07005KT P6SM
                       SCT040 BKN120 BKN200 FM160300 VRB02KT P6SM
                       OVC050 FM161000 24004KT P6SM BKN050 FM161600
                       25008KT P6SM -RA OVC020=
202010151120 TAF KCLM 151120Z 1512/1612 24011KT P6SM SKC FM152000 07005KT P6SM
                       SCT040 BKN120 BKN200 FM160300 VRB02KT P6SM
                       OVC050 FM161000 24004KT P6SM BKN050=
202010150520 TAF KCLM 150520Z 1506/1606 25011KT P6SM SKC FM151000 24005KT P6SM
                       BKN040 FM152000 09003KT P6SM SCT040 BKN120
                       BKN200 FM160300 VRB02KT P6SM OVC050=
202010142322 TAF KCLM 142322Z 1500/1524 30012G18KT P6SM SCT040 BKN200 FM150500
                       26010KT P6SM BKN200 FM151000 24005KT P6SM
                       BKN040 FM152000 09003KT P6SM SCT040 BKN120
                       BKN200=
202010141734 TAF KCLM 141734Z 1418/1518 24009KT P6SM FEW045 SCT060 BKN200 FM142000
                       30010KT P6SM SCT040 BKN200 FM150500 25007KT
                       P6SM BKN200 FM151000 24005KT P6SM BKN040=
202010141120 TAF KCLM 141120Z 1412/1512 24009KT P6SM FEW045 SCT060 FM142000
                       30010KT P6SM SCT040 BKN200 FM150500 25007KT
                       P6SM BKN250 FM151000 24005KT P6SM BKN050=
202010140532 TAF KCLM 140532Z 1406/1506 24008KT P6SM -RA VCSH SCT045 OVC060
                       FM140900 26012KT P6SM VCSH BKN050 FM141300
                       26009KT P6SM BKN040 FM142000 30008KT P6SM
                       SCT040 BKN200 FM150300 25007KT P6SM BKN250=
202010132323 TAF KCLM 132323Z 1400/1424 26015G22KT P6SM VCSH SCT045 BKN060 FM140900
                       26012KT P6SM VCSH BKN050 FM141300 26009KT
                       P6SM BKN040 FM142000 30008KT P6SM SCT040
                       BKN200=
202010132103 KCLM 132103Z 1321/1418 26015G22KT P6SM -SHRA BKN040 BKN060 FM132300
                       28020G28KT P6SM VCSH BKN040 FM140200 27015G25KT
                       P6SM BKN050 FM140900 26013KT P6SM BKN050=
202010131720 TAF KCLM 131720Z 1318/1418 27011KT P6SM VCSH SCT040 OVC060 FM132000
                       27017G27KT 6SM -SHRA BR BKN030 BKN050 FM132300
                       28020G28KT 6SM BR VCSH BKN040 FM140200 27015G25KT
                       P6SM BKN050 FM140900 26013KT P6SM BKN050=
202010131122 TAF KCLM 131122Z 1312/1412 VRB05KT 4SM -RA BR OVC010 FM131500 28008G15KT
                       3SM -RA BR OVC010 FM132000 27017G27KT 6SM
                       -SHRA BR BKN030 BKN050 FM132300 28023G31KT
                       6SM BR BKN050 FM140200 27020G28KT P6SM BKN050
                       FM140900 26013KT P6SM BKN050=
202010130520 TAF KCLM 130520Z 1306/1406 VRB04KT P6SM BKN045 OVC090 FM130800
                       VRB03KT 6SM -RA BR OVC025 FM131500 28008G15KT
                       5SM -RA BR OVC015 FM132000 27017G27KT 6SM
                       -SHRA BR BKN030 BKN050 FM132300 28023G31KT
                       6SM BR BKN050 FM140200 27020G28KT P6SM BKN050=
202010122330 TAF KCLM 122330Z 1300/1324 08004KT P6SM SCT040 BKN200 FM130600
                       VRB03KT P6SM BKN040 OVC090 FM131000 VRB03KT
                       6SM -RA BR OVC025 FM131500 28008KT 5SM -RA
                       BR OVC015 FM132000 27017G27KT 6SM -SHRA
                       BR BKN030 BKN050=
202010121728 TAF KCLM 121728Z 1218/1318 27009KT P6SM SCT040 SCT200 FM122100
                       VRB04KT P6SM SCT050 BKN200 FM130600 VRB03KT
                       P6SM BKN040 OVC090 FM131000 VRB03KT 6SM
                       -RA BR OVC025 FM131400 28008KT 5SM -RA BR
                       OVC015=
202010121131 TAF KCLM 121131Z 1212/1312 28014G24KT P6SM SCT020 BKN040 FM121800
                       30009KT P6SM SCT050 BKN200 FM130000 VRB03KT
                       P6SM SCT050 BKN200 FM130700 VRB03KT 4SM
                       -RA BR OVC025=
202010120526 TAF KCLM 120526Z 1206/1306 32014G22KT P6SM SCT010 BKN020 FM121000
                       27012KT P6SM SCT020 BKN040 FM121700 VRB03KT
                       P6SM SCT050 BKN200=
202010112335 TAF KCLM 112335Z 1200/1224 VRB03KT P6SM SCT005 OVC040
                      TEMPO 1201/1204 BKN005 OVC040 FM120400 27004KT
                       P6SM BKN005 OVC010 FM120600 27014G22KT P6SM
                       SCT005 BKN010 OVC020 FM121000 27012KT P6SM
                       SCT020 BKN040 FM121700 VRB03KT P6SM SCT050
                       BKN200=
202010111739 TAF KCLM 111739Z 1118/1218 VRB03KT P6SM -RA OVC050 FM112200 VRB03KT
                       3SM -RA OVC012 FM120200 24004KT 4SM -SHRA
                       OVC015 FM120600 27012G18KT P6SM SCT020 BKN035
                       BKN050 FM121200 27010KT P6SM SCT035 BKN050=
202010111513 KCLM 111513Z 1115/1212 VRB03KT P6SM SCT050 BKN100 FM111800 VRB03KT
                       P6SM -RA OVC040 FM112100 VRB03KT 3SM -RA
                       OVC012 FM120200 24004KT 4SM -SHRA OVC015
                       FM120800 27010KT 6SM -SHRA OVC015=
202010111122 TAF KCLM 111122Z 1112/1212 24007KT P6SM OVC060 FM111500 VRB03KT
                       P6SM -RA OVC025 FM112100 VRB03KT 3SM -RA
                       OVC012 FM120200 24004KT 4SM -SHRA OVC015
                       FM120800 27010KT 6SM -SHRA OVC015=
202010110528 TAF KCLM 110528Z 1106/1206 25008KT P6SM BKN060 FM111200 24007KT
                       P6SM OVC060 FM111500 VRB03KT P6SM -RA OVC025
                       FM112100 VRB03KT 3SM -RA OVC012 FM120200
                       24004KT 4SM -SHRA OVC015=
202010110329 KCLM 110329Z 1103/1124 28007KT P6SM BKN050 OVC070
                      TEMPO 1103/1106 -RA FM110600 29008KT P6SM
                       SCT070 FM111200 VRB03KT P6SM BKN060 FM111500
                       VRB03KT P6SM -RA OVC025 FM112100 VRB03KT
                       3SM -RA OVC012=
202010102333 TAF KCLM 102333Z 1100/1124 28014G22KT P6SM SCT070 FM110600 29008KT
                       P6SM SCT070 FM111200 VRB03KT P6SM BKN060
                       FM111500 VRB03KT P6SM -RA OVC025 FM112100
                       VRB03KT 3SM -RA OVC012=
202010101740 TAF KCLM 101740Z 1018/1118 29014G22KT P6SM SCT030 BKN060 FM102200
                       29014G22KT P6SM SCT070 FM110600 29008KT
                       P6SM SCT070 FM111200 VRB03KT P6SM BKN060
                       FM111700 VRB03KT P6SM -RA OVC025=
202010101140 TAF KCLM 101140Z 1012/1112 19003KT P6SM -RA SCT050 BKN070 BKN120
                       FM101700 29014G22KT P6SM -SHRA SCT007 BKN050
                       OVC070 FM110100 27008KT P6SM SCT030 OVC070=
202010100520 TAF KCLM 100520Z 1006/1106 23006KT 4SM -RA BR SCT004 BKN015 OVC030
                       FM101000 VRB03KT 4SM -RA BKN007 OVC015 FM101600
                       27012G20KT P6SM -SHRA SCT007 BKN015=
202010100123 KCLM 100123Z 1001/1024 23006KT 4SM -RA BR SCT004 BKN020 OVC040
                       TEMPO 1001/1005 2SM -RA BR BKN004 OVC020
                       FM101000 VRB03KT 5SM -RA BKN020 OVC035 FM101600
                       27012G20KT P6SM -SHRA SCT035 BKN050=
202010092330 TAF KCLM 092330Z 1000/1024 12008KT P6SM SCT050 BKN120 OVC250 FM100400
                       12008KT P6SM -RA OVC050 FM101000 VRB03KT
                       5SM -RA BKN020 OVC035 FM101600 27012G20KT
                       P6SM -SHRA SCT035 BKN050=
202010092019 KCLM 092019Z 0920/1018 00000KT P6SM FEW006 FM092200 28005KT 4SM
                       -RA OVC020 FM101500 26010G20KT 6SM -RA BKN050=
202010091720 TAF KCLM 091720Z 0918/1018 29004KT 3/4SM BR OVC002 FM092200 28005KT
                       4SM -RA OVC020 FM101500 26010G20KT 6SM -RA
                       BKN050=
202010091137 TAF KCLM 091137Z 0912/1012 26003KT P6SM OVC050 FM092200 28005KT
                       4SM -RA OVC020=
202010090524 TAF KCLM 090524Z 0906/1006 26003KT P6SM OVC050 FM091600 VRB02KT
                       P6SM OVC025 FM092200 26005KT 6SM -RA OVC020=
202010082330 TAF KCLM 082330Z 0900/0924 35006KT P6SM OVC045 FM090500 26003KT
                       P6SM OVC050 FM091600 VRB02KT P6SM OVC025
                       FM092200 26005KT 6SM -RA OVC020=
202010081727 TAF KCLM 081727Z 0818/0918 27005KT P6SM OVC013 FM082200 34005KT
                       P6SM OVC050 FM090500 26003KT P6SM OVC050
                       FM091600 VRB02KT P6SM OVC025=
202010081614 KCLM 081614Z 0816/0912 27005KT P6SM OVC010 FM081900 34005KT P6SM
                       BKN015 OVC040 FM082200 34005KT P6SM OVC050=
202010081438 KCLM 081438Z 0815/0912 27005KT P6SM OVC005 FM081900 34005KT P6SM
                       OVC015 FM082200 34005KT P6SM OVC050=
202010081330 KCLM 081330Z 0814/0912 VRB03KT 3SM BR OVC002 FM081900 34005KT P6SM
                       OVC015 FM082200 34005KT P6SM OVC050=
202010081122 TAF KCLM 081122Z 0812/0912 VRB03KT 1/2SM FG OVC001 FM081900 34005KT
                       4SM BR OVC015 FM082200 34005KT P6SM OVC050=
202010080531 TAF KCLM 080531Z 0806/0906 26006KT 2SM BR BKN005 FM081200 VRB03KT
                       5SM BR OVC015 FM081900 34005KT P6SM OVC050=
202010080318 KCLM 080318Z 0803/0824 26006KT 4SM BR SCT002
                      TEMPO 0803/0806 2SM BR BKN002 FM080600 26006KT
                       2SM BR BKN005 FM081200 VRB03KT 5SM BR OVC015
                       FM081900 34005KT P6SM OVC050=
202010072322 TAF KCLM 072322Z 0800/0824 03003KT P6SM SKC FM080800 27003KT 2SM
                       BR BKN005 FM081300 26003KT P6SM OVC030 FM081900
                       34005KT P6SM OVC050=
202010071731 TAF KCLM 071731Z 0718/0818 11005KT P6SM OVC018 FM072200 05005KT
                       P6SM SCT120 BKN200 FM080800 27003KT P6SM
                       OVC020=
202010071137 TAF KCLM 071137Z 0712/0812 00000KT 6SM BR SKC
                      TEMPO 0714/0717 1SM BR OVC002 FM071900 34004KT
                       P6SM SCT007 SCT200 FM072200 29005KT P6SM
                       SCT120 BKN200 FM080800 27003KT P6SM OVC020=
202010070911 KCLM 070911Z 0709/0806 00000KT 6SM BR SCT005 FM071200 00000KT 4SM
                       BR SCT003
                      TEMPO 0713/0716 1SM BR OVC002 FM071800 VRB04KT
                       P6SM SCT007 SCT200 FM072200 29005KT P6SM
                       SCT120 BKN200=
202010070534 TAF KCLM 070534Z 0706/0806 00000KT P6SM SKC FM070800 00000KT 4SM
                       BR OVC005
                      TEMPO 0713/0716 1SM BR OVC002 FM071800 VRB04KT
                       P6SM SCT007 SCT200 FM072200 29005KT P6SM
                       SCT120 BKN200=
202010062335 TAF KCLM 062335Z 0700/0724 VRB04KT P6SM SKC FM070900 24003KT 5SM
                       BR OVC005 FM071800 VRB04KT P6SM SCT007 SCT200
                       FM072200 VRB05KT P6SM SCT120 BKN200=
202010061721 TAF KCLM 061721Z 0618/0718 VRB03KT P6SM SCT002 SCT200 FM062200
                       30007KT P6SM SCT200 FM070900 24003KT 4SM
                       BR OVC003=
202010061346 KCLM 061346Z 0614/0712 21003KT 4SM BR SCT001 SCT200
                      TEMPO 0614/0617 1/2SM FG VV001 FM061800 VRB05KT
                       P6SM SCT200 FM062300 28004KT P6SM SCT250
                       FM070900 24003KT 4SM BR OVC003=
202010061127 TAF KCLM 061127Z 0612/0712 21003KT 4SM BR SCT005 SCT200
                      TEMPO 0614/0617 3SM BR BKN005 FM061800 VRB05KT
                       P6SM SCT200 FM062300 28004KT P6SM SCT250
                       FM070900 24003KT 4SM BR OVC003=
202010060524 TAF KCLM 060524Z 0606/0706 21004KT P6SM SCT200 FM061000 21003KT
                       4SM BR SCT005 SCT200
                      TEMPO 0612/0616 3SM BR BKN005 FM061800 29005KT
                       P6SM SCT010 SCT200 FM062200 28004KT P6SM
                       SCT250=
202010052323 TAF KCLM 052323Z 0600/0624 VRB04KT P6SM SCT200 FM061000 09003KT
                       4SM BR SCT005 SCT200
                      TEMPO 0612/0616 3SM BR BKN005 FM061800 29005KT
                       P6SM SCT010 SCT200=
202010051725 TAF KCLM 051725Z 0518/0618 VRB04KT P6SM SCT005
                      TEMPO 0518/0520 3SM BR BKN005 FM052000 34004KT
                       P6SM FEW010 FM052300 29006KT P6SM SCT200
                       FM061000 09003KT 4SM BR SCT005 SCT200=
202010051643 KCLM 051643Z 0517/0612 VRB04KT P6SM SCT005
                      TEMPO 0517/0519 3SM BR BKN005 FM051900 34004KT
                       P6SM FEW010 FM052100 32006KT P6SM SCT250
                       FM060200 26003KT 4SM BR SCT250=
202010051134 TAF KCLM 051134Z 0512/0612 VRB04KT P6SM OVC009
                      TEMPO 0512/0516 1/4SM FG OVC004 FM051900
                       34004KT P6SM OVC025 FM052100 32006KT P6SM
                       SCT250 FM060200 26003KT 4SM BR SCT250=
202010050754 KCLM 050754Z 0508/0606 24004KT P6SM SCT002 OVC015
                      TEMPO 0508/0512 1/4SM FG VV001 FM051200 24003KT
                       1SM BR OVC003 FM051900 32004KT P6SM OVC025
                       FM052100 30006KT P6SM SCT020 FM060200 26003KT
                       P6SM SCT250=
202010050525 TAF KCLM 050525Z 0506/0606 24004KT P6SM OVC015 FM051200 24003KT
                       1SM BR OVC003 FM051900 32004KT P6SM OVC025
                       FM052100 30006KT P6SM SCT020 FM060200 26003KT
                       P6SM SCT250=
202010042320 TAF KCLM 042320Z 0500/0524 29007KT P6SM OVC010 FM050600 29004KT
                       4SM BR OVC007 FM051200 26003KT 1SM BR OVC003
                       FM051900 30004KT P6SM OVC015 FM052100 30006KT
                       P6SM SCT020=
202010041723 TAF KCLM 041723Z 0418/0518 32004KT 5SM BR OVC025 FM042200 30004KT
                       P6SM OVC025 FM050900 29004KT P6SM OVC007=
202010041126 TAF KCLM 041126Z 0412/0512 24004KT P6SM OVC025 FM041500 32004KT
                       4SM BR OVC015 FM042200 30004KT P6SM OVC025
                       FM050900 29004KT P6SM OVC007=
202010040527 TAF KCLM 040527Z 0406/0506 28004KT P6SM OVC010 FM040900 24004KT
                       2SM BR OVC010 FM041500 27004KT 4SM BR OVC010
                       FM042000 30004KT P6SM OVC015 FM050200 29004KT
                       P6SM OVC025=
202010032322 TAF KCLM 032322Z 0400/0424 29006KT P6SM OVC004 FM040600 28004KT
                       1/4SM FG OVC002 FM042000 30004KT P6SM OVC007=
202010032108 KCLM 032108Z 0321/0418 33006KT 2SM BR OVC002 FM040200 27004KT 1/2SM
                       FG OVC005 FM040400 28004KT 1/4SM FG OVC002=
202010031929 KCLM 031929Z 0319/0418 33006KT 2SM BR OVC002 FM032100 31005KT P6SM
                       SKC FM040200 27004KT 1/2SM FG OVC005 FM040400
                       28004KT 1/4SM FG OVC002=
202010031720 TAF KCLM 031720Z 0318/0418 VRB03KT 2SM BR OVC002 FM031900 VRB05KT
                       P6SM BKN004 FM032100 35005KT P6SM SKC FM040200
                       27004KT 1/2SM FG OVC050 FM040400 28004KT
                       1/4SM FG OVC002=
202010031136 TAF KCLM 031136Z 0312/0412 VRB03KT 1/4SM FG VV001 FM031900 VRB05KT
                       P6SM OVC004 FM032100 35005KT P6SM SKC FM040200
                       27004KT 1/2SM FG OVC050 FM040400 28004KT
                       1/4SM FG OVC002=
202010030521 TAF KCLM 030521Z 0306/0406 27005KT 2SM BR SKC FM030800 VRB03KT
                       1/2SM FG OVC002 FM031900 VRB05KT P6SM SKC
                       FM040200 27004KT P6SM OVC050=
202010022320 TAF KCLM 022320Z 0300/0324 VRB04KT P6SM SKC FM030200 27005KT P6SM
                       SKC FM030900 VRB03KT 1/2SM FG OVC002 FM031900
                       VRB05KT P6SM SKC=
202010021720 TAF KCLM 021720Z 0218/0318 07004KT P6SM SCT250 FM030000 29006KT
                       P6SM SCT250 FM030600 VRB03KT 1/2SM FG OVC003=
202010021127 TAF KCLM 021127Z 0212/0312 00000KT P6SM SCT004 SCT250
                      TEMPO 0212/0216 1/2SM FG OVC002 FM021800
                       07004KT P6SM SCT250 FM030000 29006KT P6SM
                       SCT250 FM030600 VRB03KT 1/2SM FG OVC003=
202010020523 TAF KCLM 020523Z 0206/0306 00000KT P6SM BKN250 FM020700 00000KT
                       1/2SM FG OVC003 FM021700 VRB03KT 2SM BR
                       SCT005 FM021800 07004KT P6SM SCT250=
202010012325 TAF KCLM 012325Z 0200/0224 VRB03KT P6SM BKN250 FM020700 00000KT
                       1/2SM FG OVC003 FM021700 VRB03KT 2SM BR
                       SCT005 FM021800 07004KT P6SM SCT250=
202010011720 TAF KCLM 011720Z 0118/0218 00000KT P6SM VCFG FEW003 BKN250 FM011900
                       08005KT P6SM BKN250 FM020100 VRB03KT P6SM
                       SCT250 FM020700 00000KT 1/2SM FG OVC003=
202010011125 TAF KCLM 011125Z 0112/0212 00000KT 2SM BR OVC002
                      TEMPO 0112/0116 1/4SM FG VV001 FM011600 VRB03KT
                       4SM BR SCT007 OVC015 FM012100 VRB04KT P6SM
                       SCT200 FM020700 00000KT 1/2SM FG OVC003=
202010010743 KCLM 010743Z 0108/0206 00000KT 1SM BR OVC002
                      TEMPO 0108/0112 1/4SM FG VV001 FM011600 VRB03KT
                       4SM BR SCT007 OVC015 FM012100 VRB04KT P6SM
                       SCT200=
202010010527 TAF KCLM 010527Z 0106/0206 27007KT 3SM BR BKN004
                      TEMPO 0106/0110 1/2SM FG OVC002 FM011600
                       VRB03KT 4SM BR SCT007 OVC015 FM012100 VRB04KT
                       P6SM SCT200=