##########################################################
# Query made at 02/16/2025 04:37:00 UTC
# Time interval: from 07/01/2020 00:00  to 07/31/2020 23:59  UTC
##########################################################

##########################################################
# KCLM, Port Angeles, William R. Fairchild International Airport (United States)
# WMO index: -----. WIGOS ID: Unknown
# Latitude 48-07-20N. Longitude 123-30-19W. Altitude 87 m.
##########################################################

###################################
#  METAR/SPECI from KCLM
###################################
202007312353 METAR KCLM 312353Z AUTO 28015G20KT 10SM SCT015 18/13 A3005 RMK AO2 SLP176 T01780133 10194 20161 51014=
202007312253 METAR KCLM 312253Z AUTO 29013G19KT 10SM CLR 19/13 A3005 RMK AO2 SLP174 T01890133=
202007312153 METAR KCLM 312153Z AUTO 29012G18KT 10SM CLR 19/13 A3003 RMK AO2 SLP169 T01940133=
202007312053 METAR KCLM 312053Z AUTO 30014KT 10SM CLR 19/13 A3001 RMK AO2 SLP163 T01890128 51016=
202007311953 METAR KCLM 311953Z AUTO 30009KT 10SM CLR 18/13 A3000 RMK AO2 SLP159 T01830128=
202007311853 METAR KCLM 311853Z AUTO 29009G17KT 280V340 10SM CLR 17/13 A2998 RMK AO2 SLP152 T01720128=
202007311753 METAR KCLM 311753Z AUTO 30009KT 10SM CLR 17/13 A2996 RMK AO2 SLP145 T01670128 10167 20122 51005=
202007311653 METAR KCLM 311653Z AUTO 30009KT 10SM CLR 16/13 A2996 RMK AO2 SLP143 T01610128=
202007311553 METAR KCLM 311553Z AUTO 28009KT 10SM CLR 16/12 A2997 RMK AO2 SLP146 T01560122=
202007311453 METAR KCLM 311453Z AUTO 28013G18KT 10SM CLR 14/12 A2995 RMK AO2 SLP140 T01390117 51011=
202007311353 METAR KCLM 311353Z AUTO 29007KT 10SM CLR 14/12 A2994 RMK AO2 SLP138 T01390117=
202007311253 METAR KCLM 311253Z AUTO 29005KT 10SM CLR 13/11 A2993 RMK AO2 SLP134 T01330111=
202007311153 METAR KCLM 311153Z AUTO 00000KT 10SM CLR 13/10 A2992 RMK AO2 SLP129 T01280100 10194 20128 55005=
202007311053 METAR KCLM 311053Z AUTO 27007KT 10SM CLR 14/10 A2991 RMK AO2 SLP128 T01440100=
202007310953 METAR KCLM 310953Z AUTO 27005KT 10SM CLR 15/10 A2992 RMK AO2 SLP130 T01500100=
202007310853 METAR KCLM 310853Z AUTO 27005KT 10SM CLR 14/10 A2993 RMK AO2 SLP134 T01440100 53010=
202007310753 METAR KCLM 310753Z AUTO 28004KT 10SM CLR 14/11 A2992 RMK AO2 SLP131 T01440106 402830083=
202007310653 METAR KCLM 310653Z AUTO 29006KT 10SM CLR 16/10 A2991 RMK AO2 SLP126 T01560100=
202007310553 METAR KCLM 310553Z AUTO 29007KT 10SM CLR 19/11 A2990 RMK AO2 SLP124 T01940106 10244 20194 58006=
202007310453 METAR KCLM 310453Z AUTO 28008KT 10SM CLR 19/10 A2992 RMK AO2 SLP129 T01940100=
202007310353 METAR KCLM 310353Z AUTO 28009KT 10SM CLR 20/09 A2992 RMK AO2 SLP130 T02000094=
202007310253 METAR KCLM 310253Z AUTO 28004KT 10SM CLR 21/11 A2992 RMK AO2 SLP131 T02110106 55005=
202007310153 METAR KCLM 310153Z AUTO 30004KT 10SM CLR 22/11 A2992 RMK AO2 SLP131 T02220106=
202007310053 METAR KCLM 310053Z AUTO 29005KT 10SM CLR 22/11 A2993 RMK AO2 SLP135 T02170106=
202007302353 METAR KCLM 302353Z AUTO 34005KT 10SM CLR 24/12 A2993 RMK AO2 SLP136 T02440117 10283 20244 58015=
202007302253 METAR KCLM 302253Z AUTO 33004KT 10SM CLR 27/12 A2995 RMK AO2 SLP141 T02720122=
202007302153 METAR KCLM 302153Z AUTO 02004KT 10SM CLR 27/11 A2996 RMK AO2 SLP146 T02670106=
202007302053 METAR KCLM 302053Z AUTO VRB04KT 10SM CLR 27/11 A2998 RMK AO2 SLP151 T02720106 58014=
202007301953 METAR KCLM 301953Z AUTO VRB05KT 10SM CLR 27/12 A3000 RMK AO2 SLP156 T02670117=
202007301853 METAR KCLM 301853Z AUTO VRB06KT 10SM CLR 26/11 A3001 RMK AO2 SLP162 T02560111=
202007301753 METAR KCLM 301753Z AUTO 07006KT 10SM CLR 25/11 A3002 RMK AO2 SLP164 T02500111 10250 20083 50000=
202007301653 METAR KCLM 301653Z AUTO 09007KT 10SM CLR 24/11 A3003 RMK AO2 SLP167 T02390111=
202007301553 METAR KCLM 301553Z AUTO 09006KT 10SM CLR 23/11 A3002 RMK AO2 SLP165 T02330106=
202007301453 METAR KCLM 301453Z AUTO 00000KT 10SM CLR 18/12 A3002 RMK AO2 SLP164 T01780122 51003=
202007301353 METAR KCLM 301353Z AUTO 00000KT 10SM CLR 11/10 A3002 RMK AO2 SLP164 T01110100=
202007301253 METAR KCLM 301253Z AUTO 00000KT 10SM CLR 09/08 A3002 RMK AO2 SLP165 T00940078=
202007301153 METAR KCLM 301153Z AUTO 00000KT 10SM CLR 10/08 A3001 RMK AO2 SLP162 T01000083 10150 20089 51003=
202007301053 METAR KCLM 301053Z AUTO 00000KT 10SM CLR 10/09 A3001 RMK AO2 SLP161 T01000089=
202007300953 METAR KCLM 300953Z AUTO 00000KT 10SM CLR 10/09 A3001 RMK AO2 SLP161 T01000089=
202007300853 METAR KCLM 300853Z AUTO 00000KT 10SM CLR 10/08 A3000 RMK AO2 SLP159 T01000078 51001=
202007300753 METAR KCLM 300753Z AUTO 00000KT 10SM CLR 13/08 A3000 RMK AO2 SLP158 T01330078 402170094=
202007300653 METAR KCLM 300653Z AUTO 28008KT 10SM CLR 14/07 A3000 RMK AO2 SLP159 T01440072=
202007300553 METAR KCLM 300553Z AUTO 28006KT 10SM CLR 15/06 A3000 RMK AO2 SLP158 T01500061 10200 20150 53007=
202007300453 METAR KCLM 300453Z AUTO 28007KT 10SM CLR 16/07 A2999 RMK AO2 SLP154 T01610072=
202007300353 METAR KCLM 300353Z AUTO 28008KT 10SM CLR 17/07 A2998 RMK AO2 SLP151 T01670072=
202007300253 METAR KCLM 300253Z AUTO VRB04KT 10SM CLR 18/09 A2998 RMK AO2 SLP150 T01780089 53004=
202007300153 METAR KCLM 300153Z AUTO 29008KT 10SM CLR 18/09 A2997 RMK AO2 SLP148 T01830094=
202007300053 METAR KCLM 300053Z AUTO 29008KT 10SM CLR 19/11 A2996 RMK AO2 SLP146 T01890106=
202007292353 METAR KCLM 292353Z AUTO 32007KT 10SM CLR 20/09 A2996 RMK AO2 SLP146 T02000094 10217 20156 56005=
202007292253 METAR KCLM 292253Z AUTO 34004KT 10SM CLR 20/11 A2997 RMK AO2 SLP148 T02000106=
202007292153 METAR KCLM 292153Z AUTO 34006KT 10SM CLR 21/11 A2997 RMK AO2 SLP148 T02060111=
202007292053 METAR KCLM 292053Z AUTO 34005KT 10SM CLR 19/11 A2998 RMK AO2 SLP152 T01940111 58001=
202007291953 METAR KCLM 291953Z AUTO 34005KT 10SM CLR 19/11 A2998 RMK AO2 SLP152 T01890111=
202007291853 METAR KCLM 291853Z AUTO 36004KT 10SM CLR 17/11 A2999 RMK AO2 SLP154 T01720111=
202007291753 METAR KCLM 291753Z AUTO VRB04KT 10SM CLR 16/11 A2998 RMK AO2 SLP153 T01560111 10167 20094 51009=
202007291653 METAR KCLM 291653Z AUTO VRB04KT 10SM CLR 14/11 A2997 RMK AO2 SLP150 T01440106=
202007291553 METAR KCLM 291553Z AUTO 30005KT 10SM CLR 13/11 A2997 RMK AO2 SLP149 T01330106=
202007291453 METAR KCLM 291453Z AUTO 29005KT 10SM CLR 13/11 A2996 RMK AO2 SLP144 T01330106 51008=
202007291353 METAR KCLM 291353Z AUTO 00000KT 10SM CLR 11/11 A2995 RMK AO2 SLP140 T01110106=
202007291253 METAR KCLM 291253Z AUTO 29005KT 8SM FEW004 10/09 A2995 RMK AO2 SLP140 T01000094=
202007291153 METAR KCLM 291153Z AUTO 10SM CLR 10/09 A2993 RMK AO2 SLP136 T01000089 10122 20094 52005=
202007291053 METAR KCLM 291053Z AUTO 26003KT 10SM CLR 11/09 A2993 RMK AO2 SLP135 T01060094=
202007290953 METAR KCLM 290953Z AUTO 26005KT 10SM CLR 11/09 A2992 RMK AO2 SLP133 T01060094=
202007290853 METAR KCLM 290853Z AUTO 28005KT 10SM CLR 11/10 A2992 RMK AO2 SLP131 T01110100 56003=
202007290753 METAR KCLM 290753Z AUTO 27006KT 10SM CLR 12/10 A2992 RMK AO2 SLP131 T01170100 402000117=
202007290653 METAR KCLM 290653Z AUTO 28010KT 10SM CLR 12/11 A2993 RMK AO2 SLP135 T01170106=
202007290553 METAR KCLM 290553Z AUTO 28011KT 10SM CLR 12/11 A2993 RMK AO2 SLP135 T01220106 10200 20122 50000=
202007290453 METAR KCLM 290453Z AUTO 27011KT 10SM CLR 13/11 A2993 RMK AO2 SLP136 T01280106=
202007290353 METAR KCLM 290353Z AUTO 28009KT 10SM CLR 13/11 A2993 RMK AO2 SLP135 T01330106=
202007290253 METAR KCLM 290253Z AUTO 28009G16KT 10SM CLR 16/11 A2993 RMK AO2 SLP134 T01560106 56006=
202007290153 METAR KCLM 290153Z AUTO 31007KT 10SM CLR 17/11 A2993 RMK AO2 SLP135 T01670111=
202007290053 METAR KCLM 290053Z AUTO 30007KT 10SM CLR 19/12 A2993 RMK AO2 SLP135 T01890117=
202007282353 METAR KCLM 282353Z AUTO 30008KT 10SM CLR 19/11 A2995 RMK AO2 SLP141 T01890111 10194 20161 58009=
202007282253 METAR KCLM 282253Z AUTO 30009KT 10SM CLR 19/11 A2996 RMK AO2 SLP145 T01890111=
202007282153 METAR KCLM 282153Z AUTO 29009KT 10SM CLR 19/12 A2997 RMK AO2 SLP147 T01890117=
202007282053 METAR KCLM 282053Z AUTO 28010G19KT 10SM CLR 18/11 A2997 RMK AO2 SLP150 T01780111 50001=
202007281953 METAR KCLM 281953Z AUTO 30010KT 270V330 10SM CLR 18/12 A2998 RMK AO2 SLP150 T01780117=
202007281853 METAR KCLM 281853Z AUTO 31009KT 10SM CLR 17/12 A2998 RMK AO2 SLP150 T01720117=
202007281753 METAR KCLM 281753Z AUTO 29010KT 10SM CLR 16/12 A2997 RMK AO2 SLP149 T01610117 10167 20117 51010=
202007281653 METAR KCLM 281653Z AUTO 32007KT 10SM CLR 16/12 A2996 RMK AO2 SLP146 T01610117=
202007281553 METAR KCLM 281553Z AUTO 29005KT 10SM CLR 16/12 A2995 RMK AO2 SLP143 T01610117=
202007281453 METAR KCLM 281453Z AUTO 29010KT 10SM CLR 13/11 A2994 RMK AO2 SLP139 T01330111 50009=
202007281418 SPECI KCLM 281418Z AUTO 29007KT 10SM SCT005 13/12 A2994 RMK AO2 T01280117=
202007281410 SPECI KCLM 281410Z AUTO 28007KT 10SM BKN005 12/11 A2994 RMK AO2 T01220111=
202007281353 METAR KCLM 281353Z AUTO 28007KT 10SM BKN004 12/11 A2994 RMK AO2 SLP140 T01170111=
202007281253 METAR KCLM 281253Z AUTO 26008KT 10SM OVC003 12/12 A2993 RMK AO2 SLP136 T01220117=
202007281153 METAR KCLM 281153Z AUTO 28012KT 10SM OVC003 12/12 A2991 RMK AO2 SLP129 T01220117 10156 20122 53012=
202007281129 SPECI KCLM 281129Z AUTO 28011G20KT 10SM BKN002 12/12 A2991 RMK AO2 T01220117=
202007281120 SPECI KCLM 281120Z AUTO 29013G19KT 9SM SCT002 12/12 A2991 RMK AO2 T01220117=
202007281053 METAR KCLM 281053Z AUTO 29015G22KT 10SM CLR 12/12 A2989 RMK AO2 SLP122 T01220117=
202007280953 METAR KCLM 280953Z AUTO 28011KT 10SM FEW003 12/11 A2988 RMK AO2 SLP116 T01220111=
202007280853 METAR KCLM 280853Z AUTO 28007KT 10SM CLR 12/11 A2988 RMK AO2 SLP116 T01220111 51007=
202007280753 METAR KCLM 280753Z AUTO 28009KT 10SM CLR 13/12 A2988 RMK AO2 SLP116 T01330117 402720117=
202007280653 METAR KCLM 280653Z AUTO 29012G19KT 10SM CLR 14/12 A2987 RMK AO2 SLP114 T01390122=
202007280553 METAR KCLM 280553Z AUTO 27010KT 10SM CLR 15/13 A2986 RMK AO2 SLP109 T01500128 10233 20144 50002=
202007280453 METAR KCLM 280453Z AUTO 28011G15KT 10SM CLR 15/12 A2986 RMK AO2 SLP110 T01500122=
202007280353 METAR KCLM 280353Z AUTO 28010G15KT 10SM CLR 16/13 A2985 RMK AO2 SLP107 T01610128=
202007280253 METAR KCLM 280253Z AUTO 29005KT 10SM CLR 19/13 A2985 RMK AO2 SLP107 T01940128 56011=
202007280153 METAR KCLM 280153Z AUTO 31005KT 10SM CLR 21/12 A2985 RMK AO2 SLP107 T02110122=
202007280053 METAR KCLM 280053Z AUTO 30005KT 10SM CLR 22/13 A2987 RMK AO2 SLP114 T02220128=
202007272353 METAR KCLM 272353Z AUTO 29010KT 10SM CLR 22/12 A2988 RMK AO2 SLP118 T02170122 10272 20217 58009=
202007272253 METAR KCLM 272253Z AUTO 29008KT 10SM CLR 23/13 A2989 RMK AO2 SLP121 T02280128=
202007272153 METAR KCLM 272153Z AUTO 34005KT 10SM CLR 24/13 A2990 RMK AO2 SLP124 T02390133=
202007272053 METAR KCLM 272053Z AUTO 03004KT 10SM CLR 25/13 A2991 RMK AO2 SLP127 T02500133 58013=
202007271953 METAR KCLM 271953Z AUTO 35005KT 10SM CLR 26/13 A2992 RMK AO2 SLP131 T02610133=
202007271853 METAR KCLM 271853Z AUTO 07005KT 10SM CLR 26/13 A2994 RMK AO2 SLP136 T02610128=
202007271753 METAR KCLM 271753Z AUTO 10006KT 10SM CLR 26/12 A2995 RMK AO2 SLP140 T02560122 10256 20117 58002=
202007271653 METAR KCLM 271653Z AUTO 08007KT 10SM CLR 25/12 A2995 RMK AO2 SLP141 T02500122=
202007271553 METAR KCLM 271553Z AUTO 08007KT 10SM CLR 24/11 A2996 RMK AO2 SLP143 T02440106=
202007271453 METAR KCLM 271453Z AUTO 13003KT 10SM CLR 21/12 A2995 RMK AO2 SLP141 T02110117 53004=
202007271353 METAR KCLM 271353Z AUTO 00000KT 10SM CLR 15/12 A2995 RMK AO2 SLP139 T01500122=
202007271253 METAR KCLM 271253Z AUTO 00000KT 10SM CLR 12/10 A2995 RMK AO2 SLP139 T01220100=
202007271153 METAR KCLM 271153Z AUTO 15003KT 10SM CLR 13/10 A2994 RMK AO2 SLP138 T01330100 10156 20128 55005=
202007271053 METAR KCLM 271053Z AUTO 00000KT 10SM CLR 13/10 A2994 RMK AO2 SLP137 T01330100=
202007270953 METAR KCLM 270953Z AUTO 00000KT 10SM CLR 13/10 A2995 RMK AO2 SLP141 T01330100=
202007270853 METAR KCLM 270853Z AUTO 00000KT 10SM CLR 13/11 A2996 RMK AO2 SLP143 T01330106 58006=
202007270753 METAR KCLM 270753Z AUTO 00000KT 10SM CLR 14/11 A2997 RMK AO2 SLP147 T01440111 402780089=
202007270653 METAR KCLM 270653Z AUTO 17003KT 10SM CLR 14/12 A2997 RMK AO2 SLP149 T01390117=
202007270553 METAR KCLM 270553Z AUTO 00000KT 10SM CLR 16/12 A2997 RMK AO2 SLP149 T01560122 10278 20150 56004=
202007270453 METAR KCLM 270453Z AUTO 00000KT 10SM CLR 16/12 A2997 RMK AO2 SLP149 T01610117=
202007270353 METAR KCLM 270353Z AUTO 29005KT 10SM CLR 19/13 A2998 RMK AO2 SLP152 T01940133=
202007270253 METAR KCLM 270253Z AUTO 00000KT 10SM CLR 27/12 A2999 RMK AO2 SLP153 T02670122 56017=
202007270153 METAR KCLM 270153Z AUTO 00000KT 10SM CLR 27/12 A3000 RMK AO2 SLP156 T02720122=
202007270053 METAR KCLM 270053Z AUTO VRB04KT 10SM CLR 27/11 A3001 RMK AO2 SLP161 T02670111=
202007262353 METAR KCLM 262353Z AUTO 06005KT 10SM CLR 26/11 A3004 RMK AO2 SLP170 T02610111 10267 20217 58023=
202007262253 METAR KCLM 262253Z AUTO 06008KT 10SM CLR 26/11 A3006 RMK AO2 SLP178 T02610111=
202007262153 METAR KCLM 262153Z AUTO 09007KT 10SM CLR 25/11 A3008 RMK AO2 SLP186 T02500106=
202007262053 METAR KCLM 262053Z AUTO 07007KT 10SM CLR 24/11 A3011 RMK AO2 SLP194 T02440106 58019=
202007261953 METAR KCLM 261953Z AUTO 07009KT 10SM CLR 24/11 A3013 RMK AO2 SLP201 T02440111=
202007261853 METAR KCLM 261853Z AUTO 06008KT 10SM CLR 23/11 A3014 RMK AO2 SLP207 T02280111=
202007261753 METAR KCLM 261753Z AUTO 07007KT 10SM CLR 22/12 A3016 RMK AO2 SLP213 T02170117 10217 20094 58001=
202007261653 METAR KCLM 261653Z AUTO 08008KT 10SM CLR 21/11 A3017 RMK AO2 SLP215 T02110111=
202007261553 METAR KCLM 261553Z AUTO 09006KT 10SM CLR 21/12 A3017 RMK AO2 SLP216 T02060117=
202007261453 METAR KCLM 261453Z AUTO 11007KT 10SM CLR 20/11 A3016 RMK AO2 SLP214 T02000106 53004=
202007261353 METAR KCLM 261353Z AUTO 00000KT 10SM CLR 13/10 A3015 RMK AO2 SLP211 T01330100=
202007261253 METAR KCLM 261253Z AUTO 20003KT 10SM CLR 09/08 A3015 RMK AO2 SLP211 T00940078=
202007261153 METAR KCLM 261153Z AUTO 00000KT 10SM CLR 10/07 A3015 RMK AO2 SLP211 T01000072 10156 20089 50001=
202007261053 METAR KCLM 261053Z AUTO 20004KT 10SM CLR 10/08 A3015 RMK AO2 SLP211 T01000078=
202007260953 METAR KCLM 260953Z AUTO 00000KT 10SM CLR 10/08 A3015 RMK AO2 SLP210 T01000078=
202007260853 METAR KCLM 260853Z AUTO 00000KT 10SM CLR 10/08 A3015 RMK AO2 SLP210 T01000083 51002=
202007260753 METAR KCLM 260753Z AUTO 23004KT 10SM CLR 14/09 A3015 RMK AO2 SLP209 T01390089 402110100=
202007260653 METAR KCLM 260653Z AUTO 28004KT 10SM CLR 13/09 A3015 RMK AO2 SLP209 T01280089=
202007260553 METAR KCLM 260553Z AUTO 27007KT 10SM CLR 14/09 A3015 RMK AO2 SLP208 T01390094 10183 20128 55003=
202007260453 METAR KCLM 260453Z AUTO 26007KT 10SM CLR 14/08 A3014 RMK AO2 SLP207 T01390083=
202007260353 METAR KCLM 260353Z AUTO 29004KT 10SM CLR 14/09 A3015 RMK AO2 SLP208 T01390094=
202007260253 METAR KCLM 260253Z AUTO 27005KT 10SM CLR 16/10 A3015 RMK AO2 SLP211 T01560100 58003=
202007260153 METAR KCLM 260153Z AUTO 30004KT 10SM CLR 16/11 A3016 RMK AO2 SLP212 T01610106=
202007260053 METAR KCLM 260053Z AUTO 29008KT 10SM CLR 15/10 A3016 RMK AO2 SLP213 T01500100=
202007252353 METAR KCLM 252353Z AUTO 34005KT 10SM CLR 18/11 A3016 RMK AO2 SLP214 T01830111 10211 20161 56010=
202007252253 METAR KCLM 252253Z AUTO 35005KT 10SM CLR 18/11 A3017 RMK AO2 SLP217 T01780106=
202007252153 METAR KCLM 252153Z AUTO 06004KT 10SM CLR 20/11 A3018 RMK AO2 SLP218 T02000106=
202007252053 METAR KCLM 252053Z AUTO 05004KT 10SM CLR 19/11 A3019 RMK AO2 SLP224 T01890106 57003=
202007251953 METAR KCLM 251953Z AUTO VRB04KT 10SM CLR 19/11 A3020 RMK AO2 SLP225 T01890111=
202007251853 METAR KCLM 251853Z AUTO VRB03KT 10SM CLR 18/11 A3020 RMK AO2 SLP225 T01830111=
202007251753 METAR KCLM 251753Z AUTO VRB04KT 10SM CLR 16/11 A3020 RMK AO2 SLP226 T01610106 10161 20100 51005=
202007251653 METAR KCLM 251653Z AUTO VRB03KT 10SM CLR 16/11 A3020 RMK AO2 SLP226 T01560106=
202007251553 METAR KCLM 251553Z AUTO 32004KT 10SM CLR 14/11 A3019 RMK AO2 SLP224 T01440106=
202007251453 METAR KCLM 251453Z AUTO VRB04KT 10SM CLR 13/10 A3018 RMK AO2 SLP221 T01330100 51010=
202007251353 METAR KCLM 251353Z AUTO 29005KT 10SM CLR 11/10 A3018 RMK AO2 SLP220 T01110100=
202007251253 METAR KCLM 251253Z AUTO 28007KT 9SM CLR 10/09 A3017 RMK AO2 SLP217 T01000094=
202007251153 METAR KCLM 251153Z AUTO 28006KT 10SM CLR 11/09 A3015 RMK AO2 SLP211 T01060094 10117 20106 50002=
202007251053 METAR KCLM 251053Z AUTO 27007KT 10SM CLR 11/09 A3016 RMK AO2 SLP211 T01060094=
202007250953 METAR KCLM 250953Z AUTO 28009KT 10SM CLR 11/09 A3015 RMK AO2 SLP209 T01110094=
202007250853 METAR KCLM 250853Z AUTO 26008KT 10SM CLR 11/09 A3015 RMK AO2 SLP209 T01060089 53001=
202007250753 METAR KCLM 250753Z AUTO 28008KT 10SM CLR 11/09 A3014 RMK AO2 SLP207 T01060094 401780089=
202007250653 METAR KCLM 250653Z AUTO 28007KT 10SM CLR 12/10 A3014 RMK AO2 SLP206 T01170100=
202007250553 METAR KCLM 250553Z AUTO 27006KT 10SM CLR 11/09 A3014 RMK AO2 SLP207 T01110094 10167 20111 53011=
202007250453 METAR KCLM 250453Z AUTO 26006KT 10SM CLR 12/09 A3013 RMK AO2 SLP202 T01220094=
202007250353 METAR KCLM 250353Z AUTO 27010KT 10SM CLR 13/10 A3011 RMK AO2 SLP197 T01280100=
202007250253 METAR KCLM 250253Z AUTO 30006KT 10SM CLR 14/10 A3011 RMK AO2 SLP196 T01440100 55001=
202007250153 METAR KCLM 250153Z AUTO 30010KT 10SM CLR 15/10 A3011 RMK AO2 SLP195 T01500100=
202007250053 METAR KCLM 250053Z AUTO 29011G16KT 10SM SCT060 16/09 A3011 RMK AO2 SLP195 T01610094=
202007242353 METAR KCLM 242353Z AUTO 30008KT 10SM OVC045 16/10 A3012 RMK AO2 SLP198 T01610100 10178 20150 51004=
202007242253 METAR KCLM 242253Z AUTO 30010G17KT 10SM OVC041 16/10 A3011 RMK AO2 SLP197 T01560100=
202007242153 METAR KCLM 242153Z AUTO 28012G20KT 10SM OVC041 16/10 A3011 RMK AO2 SLP196 T01610100=
202007242053 METAR KCLM 242053Z AUTO 29015G20KT 10SM SCT033 OVC044 16/09 A3010 RMK AO2 SLP194 T01610094 51011=
202007241953 METAR KCLM 241953Z AUTO 29012G19KT 10SM FEW022 SCT041 17/11 A3009 RMK AO2 SLP191 T01720111=
202007241853 METAR KCLM 241853Z AUTO 30009G19KT 10SM FEW042 16/11 A3009 RMK AO2 SLP188 T01610111=
202007241753 METAR KCLM 241753Z AUTO 29015G22KT 10SM CLR 17/10 A3007 RMK AO2 SLP182 T01670100 10172 20122 53006=
202007241653 METAR KCLM 241653Z AUTO 32008KT 10SM CLR 15/11 A3006 RMK AO2 SLP180 T01500111=
202007241553 METAR KCLM 241553Z AUTO 30008KT 10SM FEW055 15/11 A3006 RMK AO2 SLP178 T01500111=
202007241453 METAR KCLM 241453Z AUTO 29009KT 10SM CLR 15/10 A3005 RMK AO2 SLP176 T01500100 53008=
202007241353 METAR KCLM 241353Z AUTO 27012KT 10SM OVC050 14/11 A3004 RMK AO2 SLP171 T01390106=
202007241253 METAR KCLM 241253Z AUTO 27009KT 10SM OVC050 13/11 A3003 RMK AO2 SLP170 T01280111=
202007241153 METAR KCLM 241153Z AUTO 28005KT 10SM FEW039 OVC050 12/11 A3003 RMK AO2 SLP168 T01220106 10122 20089 51006=
202007241053 METAR KCLM 241053Z AUTO 28003KT 10SM OVC044 12/11 A3002 RMK AO2 SLP167 T01170106=
202007240953 METAR KCLM 240953Z AUTO 00000KT 10SM SCT040 09/08 A3002 RMK AO2 SLP166 T00890083=
202007240853 METAR KCLM 240853Z AUTO 00000KT 10SM SCT120 09/08 A3001 RMK AO2 SLP163 T00890083 58001=
202007240753 METAR KCLM 240753Z AUTO 25004KT 10SM CLR 11/10 A3002 RMK AO2 SLP165 T01060100 401720094=
202007240653 METAR KCLM 240653Z AUTO 33004KT 10SM CLR 10/08 A3001 RMK AO2 SLP163 T01000083=
202007240553 METAR KCLM 240553Z AUTO 27004KT 10SM BKN035 12/09 A3001 RMK AO2 SLP163 T01170089 10156 20106 53001=
202007240453 METAR KCLM 240453Z AUTO 00000KT 10SM CLR 12/09 A3001 RMK AO2 SLP161 T01170094=
202007240353 METAR KCLM 240353Z AUTO 26009KT 10SM FEW031 14/09 A3000 RMK AO2 SLP160 T01390094=
202007240253 METAR KCLM 240253Z AUTO 28006KT 10SM FEW030 14/10 A3001 RMK AO2 SLP161 T01440100 58006=
202007240153 METAR KCLM 240153Z AUTO 29013G23KT 10SM CLR 14/11 A3002 RMK AO2 SLP165 T01390111=
202007240107 SPECI KCLM 240107Z AUTO 29012G21KT 10SM BKN030 15/11 A3002 RMK AO2 T01500106=
202007240053 METAR KCLM 240053Z AUTO 29011G19KT 10SM BKN029 16/11 A3003 RMK AO2 SLP167 T01560106=
202007240044 SPECI KCLM 240044Z AUTO 29012G18KT 10SM BKN029 16/11 A3002 RMK AO2 T01560111=
202007240021 SPECI KCLM 240021Z AUTO 30013G23KT 10SM OVC030 14/11 A3003 RMK AO2 T01440106=
202007232353 METAR KCLM 232353Z AUTO 30014G21KT 10SM OVC029 15/11 A3003 RMK AO2 SLP168 T01500106 10172 20144 56002=
202007232327 SPECI KCLM 232327Z AUTO 29011G20KT 10SM OVC030 16/11 A3003 RMK AO2 T01560106=
202007232253 METAR KCLM 232253Z AUTO 30010KT 10SM OVC028 16/11 A3003 RMK AO2 SLP169 T01610111=
202007232153 METAR KCLM 232153Z AUTO 29012G19KT 10SM OVC025 16/11 A3003 RMK AO2 SLP170 T01560106=
202007232053 METAR KCLM 232053Z AUTO 32010KT 10SM OVC024 16/11 A3003 RMK AO2 SLP170 T01560106 50004=
202007232019 SPECI KCLM 232019Z AUTO 29013KT 10SM BKN027 16/11 A3004 RMK AO2 T01560106=
202007231953 METAR KCLM 231953Z AUTO 30013G18KT 10SM FEW029 17/11 A3004 RMK AO2 SLP171 T01670111=
202007231921 SPECI KCLM 231921Z AUTO 31014KT 10SM FEW024 16/11 A3003 RMK AO2 T01610111=
202007231853 METAR KCLM 231853Z AUTO 31008KT 10SM OVC022 16/11 A3002 RMK AO2 SLP165 T01560111=
202007231753 METAR KCLM 231753Z AUTO 30008KT 10SM OVC020 14/11 A3002 RMK AO2 SLP165 T01440106 10150 20117 51015=
202007231653 METAR KCLM 231653Z AUTO 30009KT 10SM BKN019 OVC026 14/11 A3001 RMK AO2 SLP161 T01440111=
202007231606 SPECI KCLM 231606Z AUTO 29006KT 10SM SCT012 OVC023 14/11 A3000 RMK AO2 T01390111=
202007231553 METAR KCLM 231553Z AUTO 33006KT 10SM BKN012 BKN023 OVC042 14/11 A2999 RMK AO2 SLP156 T01390111=
202007231524 SPECI KCLM 231524Z AUTO 26006KT 10SM SCT011 BKN023 OVC042 14/11 A2998 RMK AO2 T01390111=
202007231453 METAR KCLM 231453Z AUTO 25005KT 10SM OVC008 13/11 A2998 RMK AO2 SLP150 T01280111 53013=
202007231435 SPECI KCLM 231435Z AUTO 27007KT 10SM BKN009 OVC040 13/11 A2997 RMK AO2 T01280111=
202007231353 METAR KCLM 231353Z AUTO 27006KT 10SM SCT009 OVC042 12/11 A2996 RMK AO2 SLP145 T01220111=
202007231340 SPECI KCLM 231340Z AUTO 25005KT 10SM BKN010 OVC044 12/11 A2996 RMK AO2 T01220111=
202007231324 SPECI KCLM 231324Z AUTO 25005KT 10SM SCT009 BKN021 BKN043 12/11 A2996 RMK AO2 T01170106=
202007231253 METAR KCLM 231253Z AUTO 27006KT 10SM FEW016 12/11 A2995 RMK AO2 SLP142 T01170106=
202007231245 SPECI KCLM 231245Z AUTO 26007KT 10SM SCT016 12/11 A2995 RMK AO2 T01170106=
202007231235 SPECI KCLM 231235Z AUTO 27008KT 10SM BKN015 12/11 A2994 RMK AO2 T01170106=
202007231153 METAR KCLM 231153Z AUTO VRB03KT 10SM OVC014 12/11 A2994 RMK AO2 SLP138 T01220111 10122 20111 52006=
202007231119 SPECI KCLM 231119Z AUTO 26007KT 10SM SCT011 OVC016 12/11 A2993 RMK AO2 T01170106=
202007231053 METAR KCLM 231053Z AUTO 00000KT 10SM BKN011 11/11 A2993 RMK AO2 SLP135 T01110106=
202007231036 SPECI KCLM 231036Z AUTO 00000KT 10SM SCT006 12/11 A2993 RMK AO2 T01170106=
202007230953 METAR KCLM 230953Z AUTO 26004KT 10SM OVC005 12/11 A2993 RMK AO2 SLP135 T01220111=
202007230904 SPECI KCLM 230904Z AUTO 26006KT 10SM BKN007 12/11 A2992 RMK AO2 T01220111=
202007230853 METAR KCLM 230853Z AUTO 27005KT 10SM SCT007 12/11 A2992 RMK AO2 SLP132 T01170106 51007=
202007230753 METAR KCLM 230753Z AUTO 25006KT 10SM CLR 12/11 A2991 RMK AO2 SLP129 T01170106 401890111=
202007230726 SPECI KCLM 230726Z AUTO 00000KT 10SM SCT005 12/11 A2991 RMK AO2 T01170111=
202007230716 SPECI KCLM 230716Z AUTO VRB04KT 10SM BKN005 12/11 A2991 RMK AO2 CIG 002V007 T01220111=
202007230653 METAR KCLM 230653Z AUTO 28007KT 10SM OVC003 12/12 A2991 RMK AO2 SLP127 T01220117=
202007230644 SPECI KCLM 230644Z AUTO 28010KT 10SM OVC004 12/12 A2991 RMK AO2 T01220117=
202007230600 SPECI KCLM 230600Z AUTO 25003KT 10SM BKN006 12/11 A2990 RMK AO2 CIG 004V008 T01170111=
202007230553 METAR KCLM 230553Z AUTO 27005KT 10SM BKN004 12/11 A2990 RMK AO2 CIG 004V008 SLP124 T01170111 10178 20111 50008=
202007230548 SPECI KCLM 230548Z AUTO 26004KT 10SM SCT004 12/11 A2990 RMK AO2=
202007230453 METAR KCLM 230453Z AUTO 30004KT 10SM CLR 12/11 A2989 RMK AO2 SLP120 T01170106=
202007230353 METAR KCLM 230353Z AUTO 27007KT 10SM CLR 13/12 A2987 RMK AO2 SLP116 T01330117=
202007230253 METAR KCLM 230253Z AUTO 27009KT 10SM CLR 15/12 A2987 RMK AO2 SLP114 T01500117 55005=
202007230153 METAR KCLM 230153Z AUTO 29008KT 10SM CLR 16/12 A2987 RMK AO2 SLP114 T01610117=
202007230053 METAR KCLM 230053Z AUTO VRB06KT 10SM CLR 16/12 A2988 RMK AO2 SLP117 T01610117=
202007222353 METAR KCLM 222353Z AUTO 30009KT 10SM CLR 17/12 A2989 RMK AO2 SLP120 T01720122 10189 20156 58005=
202007222253 METAR KCLM 222253Z AUTO 32010KT 10SM CLR 18/13 A2989 RMK AO2 SLP122 T01780128=
202007222153 METAR KCLM 222153Z AUTO 29012G18KT 10SM FEW037 18/13 A2990 RMK AO2 SLP125 T01830128=
202007222053 METAR KCLM 222053Z AUTO 30009G14KT 10SM OVC033 18/13 A2990 RMK AO2 SLP125 T01780128 53005=
202007222017 SPECI KCLM 222017Z AUTO 30011KT 10SM SCT023 OVC034 18/13 A2990 RMK AO2 T01830128=
202007221953 METAR KCLM 221953Z AUTO 31008KT 290V350 10SM OVC024 18/13 A2990 RMK AO2 SLP123 T01780128=
202007221853 METAR KCLM 221853Z AUTO 30008KT 10SM OVC025 17/13 A2989 RMK AO2 SLP123 T01720128=
202007221810 SPECI KCLM 221810Z AUTO 28007KT 10SM SCT009 OVC025 16/13 A2989 RMK AO2 T01610128=
202007221753 METAR KCLM 221753Z AUTO 29007KT 10SM BKN009 OVC025 16/12 A2989 RMK AO2 SLP121 T01560122 10161 20133 51003=
202007221653 METAR KCLM 221653Z AUTO 29010KT 10SM BKN007 OVC027 16/13 A2989 RMK AO2 SLP120 T01560128=
202007221553 METAR KCLM 221553Z AUTO 29007KT 10SM OVC007 14/12 A2989 RMK AO2 SLP121 T01440122=
202007221453 METAR KCLM 221453Z AUTO 30004KT 10SM OVC006 14/13 A2988 RMK AO2 SLP118 T01440128 53003=
202007221353 METAR KCLM 221353Z AUTO 27008KT 10SM OVC005 13/13 A2988 RMK AO2 SLP117 T01330128=
202007221253 METAR KCLM 221253Z AUTO 27006KT 10SM OVC005 13/12 A2987 RMK AO2 SLP116 T01330122=
202007221153 METAR KCLM 221153Z AUTO 26006KT 10SM OVC006 13/12 A2987 RMK AO2 SLP115 T01330122 10144 20128 51003=
202007221125 SPECI KCLM 221125Z AUTO 28008KT 10SM OVC005 13/12 A2987 RMK AO2 T01330122=
202007221053 METAR KCLM 221053Z AUTO 27009KT 10SM OVC004 13/12 A2987 RMK AO2 SLP114 T01330122=
202007221014 SPECI KCLM 221014Z AUTO 28008KT 10SM OVC004 13/12 A2987 RMK AO2 T01330122=
202007220953 METAR KCLM 220953Z AUTO 28008KT 10SM OVC005 13/12 A2987 RMK AO2 SLP114 T01330122=
202007220910 SPECI KCLM 220910Z AUTO 26005KT 10SM BKN005 OVC018 13/13 A2986 RMK AO2 T01330128=
202007220853 METAR KCLM 220853Z AUTO 27004KT 10SM FEW005 OVC018 13/13 A2986 RMK AO2 SLP112 T01330128 55001=
202007220839 SPECI KCLM 220839Z AUTO VRB03KT 10SM SCT005 BKN018 13/13 A2986 RMK AO2 T01330128=
202007220831 SPECI KCLM 220831Z AUTO 28006KT 10SM BKN005 BKN018 13/13 A2986 RMK AO2 T01330128=
202007220818 SPECI KCLM 220818Z AUTO 28003KT 10SM FEW005 SCT013 13/13 A2986 RMK AO2 T01330128=
202007220810 SPECI KCLM 220810Z AUTO 27006KT 10SM SCT013 13/13 A2986 RMK AO2 T01330128=
202007220753 METAR KCLM 220753Z AUTO 30005KT 10SM OVC013 14/13 A2986 RMK AO2 SLP110 T01390128 402170122=
202007220731 SPECI KCLM 220731Z AUTO 29007KT 10SM BKN011 14/13 A2985 RMK AO2 T01440128=
202007220653 METAR KCLM 220653Z AUTO 27006KT 10SM SCT008 14/13 A2986 RMK AO2 SLP110 T01390128=
202007220645 SPECI KCLM 220645Z AUTO 28007KT 10SM BKN008 BKN013 14/13 A2986 RMK AO2 CIG 006V010 T01390128=
202007220638 SPECI KCLM 220638Z AUTO 27006KT 10SM SCT009 BKN013 14/13 A2986 RMK AO2 T01390128=
202007220553 METAR KCLM 220553Z AUTO 27010KT 10SM OVC009 14/13 A2987 RMK AO2 CIG 006V012 SLP113 T01440133 10194 20139 50001=
202007220514 SPECI KCLM 220514Z AUTO 27010G17KT 10SM OVC005 14/13 A2987 RMK AO2 CIG 004V008 T01390128=
202007220453 METAR KCLM 220453Z AUTO 27009KT 10SM OVC004 14/13 A2987 RMK AO2 SLP115 T01390128=
202007220430 SPECI KCLM 220430Z AUTO 28011G17KT 10SM OVC004 14/13 A2986 RMK AO2 T01390128=
202007220353 METAR KCLM 220353Z AUTO 27011G19KT 10SM OVC005 14/13 A2986 RMK AO2 SLP111 T01440128=
202007220253 METAR KCLM 220253Z AUTO 28011G19KT 10SM BKN008 15/13 A2986 RMK AO2 SLP111 T01500133 58009=
202007220242 SPECI KCLM 220242Z AUTO 29015G20KT 10SM SCT008 15/13 A2986 RMK AO2 T01500133=
202007220234 SPECI KCLM 220234Z AUTO 28013G21KT 10SM BKN008 16/13 A2987 RMK AO2 T01560133=
202007220209 SPECI KCLM 220209Z AUTO 27014G22KT 10SM FEW009 16/13 A2987 RMK AO2 T01560133=
202007220153 METAR KCLM 220153Z AUTO 27017G22KT 10SM CLR 17/13 A2987 RMK AO2 SLP116 T01720133=
202007220053 METAR KCLM 220053Z AUTO 29010G20KT 10SM CLR 19/14 A2988 RMK AO2 SLP119 T01890139=
202007212353 METAR KCLM 212353Z AUTO 29013G19KT 10SM CLR 19/14 A2989 RMK AO2 SLP120 T01940144 10217 20172 58008=
202007212253 METAR KCLM 212253Z AUTO 30010G17KT 10SM CLR 19/14 A2990 RMK AO2 SLP124 T01890139=
202007212153 METAR KCLM 212153Z AUTO 28012G18KT 10SM CLR 21/14 A2990 RMK AO2 SLP125 T02110144=
202007212053 METAR KCLM 212053Z AUTO 32006KT 10SM CLR 21/14 A2991 RMK AO2 SLP128 T02060139 58009=
202007211953 METAR KCLM 211953Z AUTO VRB06KT 10SM CLR 18/13 A2993 RMK AO2 SLP133 T01830133=
202007211853 METAR KCLM 211853Z AUTO 29010KT 10SM CLR 19/14 A2993 RMK AO2 SLP134 T01890139=
202007211753 METAR KCLM 211753Z AUTO 33007KT 10SM CLR 17/13 A2994 RMK AO2 SLP137 T01720133 10178 20122 58004=
202007211729 SPECI KCLM 211729Z AUTO 29005KT 10SM FEW007 17/13 A2994 RMK AO2 T01720133=
202007211653 METAR KCLM 211653Z AUTO VRB05KT 10SM OVC006 16/13 A2994 RMK AO2 SLP139 T01610133=
202007211634 SPECI KCLM 211634Z AUTO 32006KT 10SM OVC005 16/13 A2994 RMK AO2 T01560133=
202007211553 METAR KCLM 211553Z AUTO 26005KT 10SM OVC003 14/13 A2995 RMK AO2 SLP141 T01390128=
202007211500 SPECI KCLM 211500Z AUTO 26008KT 4SM BR OVC002 13/13 A2995 RMK AO2 T01330128=
202007211453 METAR KCLM 211453Z AUTO 26006KT 2 1/2SM BR OVC002 13/13 A2995 RMK AO2 SLP140 T01330128 53002=
202007211403 SPECI KCLM 211403Z AUTO 27008KT 1SM BR OVC002 13/12 A2994 RMK AO2 T01280122=
202007211353 METAR KCLM 211353Z AUTO 27006KT 3/4SM BR OVC002 13/12 A2994 RMK AO2 SLP138 T01280122=
202007211330 SPECI KCLM 211330Z AUTO 29004KT 3/4SM BR OVC002 12/12 A2995 RMK AO2 T01220122=
202007211318 SPECI KCLM 211318Z AUTO 31003KT 1SM BR OVC002 12/12 A2994 RMK AO2 T01220122=
202007211306 SPECI KCLM 211306Z AUTO 28004KT 3/4SM BR OVC002 12/12 A2994 RMK AO2 T01220122=
202007211253 METAR KCLM 211253Z AUTO 29004KT 1 1/4SM BR OVC002 12/12 A2994 RMK AO2 SLP138 T01220122=
202007211153 METAR KCLM 211153Z AUTO 28007KT 1 3/4SM BR OVC002 12/12 A2994 RMK AO2 SLP138 T01220122 10156 20122 51005=
202007211146 SPECI KCLM 211146Z AUTO 29008KT 1 3/4SM BR OVC002 12/12 A2994 RMK AO2 T01220117=
202007211139 SPECI KCLM 211139Z AUTO 29008KT 2SM BR OVC002 12/12 A2994 RMK AO2 T01220122=
202007211120 SPECI KCLM 211120Z AUTO 29007KT 3SM BR OVC002 12/12 A2994 RMK AO2 T01220117=
202007211107 SPECI KCLM 211107Z AUTO 29006KT 1 3/4SM BR OVC002 12/12 A2994 RMK AO2 T01220117=
202007211053 METAR KCLM 211053Z AUTO 28004KT 6SM BR OVC002 12/12 A2994 RMK AO2 SLP136 T01220122=
202007210953 METAR KCLM 210953Z AUTO 26007KT 7SM OVC002 12/12 A2994 RMK AO2 SLP137 T01220117=
202007210925 SPECI KCLM 210925Z AUTO 27005KT 4SM BR BKN002 12/12 A2994 RMK AO2 T01220117=
202007210916 SPECI KCLM 210916Z AUTO 31003KT 10SM SCT003 12/12 A2993 RMK AO2 T01220117=
202007210853 METAR KCLM 210853Z AUTO 28004KT 10SM CLR 12/12 A2993 RMK AO2 SLP133 T01220117 58002=
202007210753 METAR KCLM 210753Z AUTO 29007KT 10SM CLR 13/12 A2993 RMK AO2 SLP135 T01330122 402780117=
202007210653 METAR KCLM 210653Z AUTO 28007KT 10SM CLR 14/12 A2993 RMK AO2 SLP134 T01440122=
202007210553 METAR KCLM 210553Z AUTO 30006KT 10SM CLR 16/12 A2993 RMK AO2 SLP135 T01560122 10256 20156 56007=
202007210453 METAR KCLM 210453Z AUTO 27006KT 10SM CLR 17/13 A2994 RMK AO2 SLP138 T01720133 TSNO=
202007210353 METAR KCLM 210353Z AUTO 26004KT 10SM CLR 19/13 A2994 RMK AO2 SLP139 T01890133=
202007210253 METAR KCLM 210253Z AUTO 29005KT 10SM CLR 22/14 A2995 RMK AO2 SLP142 T02220139 56013=
202007210153 METAR KCLM 210153Z AUTO 32004KT 10SM CLR 23/15 A2997 RMK AO2 SLP146 T02330150=
202007210053 METAR KCLM 210053Z AUTO 29008KT 10SM CLR 22/14 A2998 RMK AO2 SLP151 T02170139=
202007202353 METAR KCLM 202353Z AUTO 28005KT 10SM CLR 23/14 A2999 RMK AO2 SLP155 T02330144 10278 20222 58013=
202007202253 METAR KCLM 202253Z AUTO 02003KT 10SM CLR 25/14 A3000 RMK AO2 SLP159 T02500139=
202007202153 METAR KCLM 202153Z AUTO 01006KT 10SM CLR 26/14 A3002 RMK AO2 SLP165 T02560139=
202007202053 METAR KCLM 202053Z AUTO VRB06KT 10SM CLR 27/13 A3003 RMK AO2 SLP168 T02670133 58014=
202007201953 METAR KCLM 201953Z AUTO VRB05KT 10SM CLR 27/14 A3004 RMK AO2 SLP172 T02670139=
202007201853 METAR KCLM 201853Z AUTO 11006KT 10SM CLR 26/14 A3006 RMK AO2 SLP178 T02610139=
202007201753 METAR KCLM 201753Z AUTO 11009KT 10SM CLR 24/14 A3007 RMK AO2 SLP181 T02440139 10244 20117 58001=
202007201653 METAR KCLM 201653Z AUTO 08008KT 10SM CLR 23/14 A3008 RMK AO2 SLP185 T02330139=
202007201553 METAR KCLM 201553Z AUTO 10008KT 10SM CLR 22/14 A3008 RMK AO2 SLP185 T02220139=
202007201453 METAR KCLM 201453Z AUTO 11005KT 10SM CLR 22/13 A3007 RMK AO2 SLP182 T02220133 52003=
202007201353 METAR KCLM 201353Z AUTO 00000KT 10SM CLR 16/14 A3007 RMK AO2 SLP181 T01560144=
202007201253 METAR KCLM 201253Z AUTO 00000KT 10SM CLR 12/11 A3007 RMK AO2 SLP181 T01220111=
202007201153 METAR KCLM 201153Z AUTO 00000KT 10SM CLR 12/12 A3006 RMK AO2 SLP179 T01220117 10150 20117 53004=
202007201053 METAR KCLM 201053Z AUTO 00000KT 10SM CLR 13/12 A3006 RMK AO2 SLP177 T01280117=
202007200953 METAR KCLM 200953Z AUTO 00000KT 10SM CLR 14/12 A3005 RMK AO2 SLP175 T01390122=
202007200853 METAR KCLM 200853Z AUTO 00000KT 10SM CLR 14/13 A3005 RMK AO2 SLP175 T01390128 58001=
202007200753 METAR KCLM 200753Z AUTO 09003KT 10SM CLR 14/12 A3006 RMK AO2 SLP176 T01390122 402440111=
202007200653 METAR KCLM 200653Z AUTO 00000KT 10SM CLR 14/13 A3005 RMK AO2 SLP176 T01440128=
202007200553 METAR KCLM 200553Z AUTO 00000KT 10SM CLR 14/13 A3005 RMK AO2 SLP176 T01390128 10244 20133 58000=
202007200453 METAR KCLM 200453Z AUTO 00000KT 10SM CLR 14/12 A3006 RMK AO2 SLP179 T01390122=
202007200353 METAR KCLM 200353Z AUTO 00000KT 10SM CLR 16/13 A3005 RMK AO2 SLP175 T01610128=
202007200253 METAR KCLM 200253Z AUTO 30004KT 10SM CLR 18/13 A3005 RMK AO2 SLP177 T01830128 56011=
202007200153 METAR KCLM 200153Z AUTO 00000KT 10SM CLR 22/13 A3006 RMK AO2 SLP177 T02220133=
202007200053 METAR KCLM 200053Z AUTO 08007KT 10SM CLR 24/13 A3007 RMK AO2 SLP181 T02390133=
202007192353 METAR KCLM 192353Z AUTO VRB06KT 10SM CLR 23/13 A3009 RMK AO2 SLP188 T02330133 10244 20217 58010=
202007192253 METAR KCLM 192253Z AUTO 09009KT 10SM CLR 24/13 A3010 RMK AO2 SLP193 T02440133=
202007192153 METAR KCLM 192153Z AUTO 03007KT 10SM CLR 24/13 A3010 RMK AO2 SLP193 T02390133=
202007192053 METAR KCLM 192053Z AUTO 07009KT 10SM CLR 23/13 A3012 RMK AO2 SLP198 T02330133 58005=
202007191953 METAR KCLM 191953Z AUTO 10010KT 10SM CLR 23/14 A3013 RMK AO2 SLP202 T02330139=
202007191853 METAR KCLM 191853Z AUTO 10009KT 10SM CLR 22/14 A3014 RMK AO2 SLP204 T02220139=
202007191753 METAR KCLM 191753Z AUTO 08011KT 10SM CLR 22/13 A3013 RMK AO2 SLP203 T02170133 10217 20111 58002=
202007191653 METAR KCLM 191653Z AUTO 06007KT 030V100 10SM CLR 21/14 A3014 RMK AO2 SLP207 T02060139=
202007191553 METAR KCLM 191553Z AUTO 06004KT 10SM CLR 19/14 A3013 RMK AO2 SLP204 T01890139=
202007191453 METAR KCLM 191453Z AUTO 35003KT 10SM CLR 15/13 A3014 RMK AO2 SLP206 T01500128 53003=
202007191353 METAR KCLM 191353Z AUTO 00000KT 10SM CLR 12/12 A3013 RMK AO2 SLP203 T01220122=
202007191312 SPECI KCLM 191312Z AUTO 00000KT 10SM SCT002 12/11 A3012 RMK AO2 T01170111=
202007191303 SPECI KCLM 191303Z AUTO 15004KT 3SM BR BKN002 11/11 A3012 RMK AO2 T01110106=
202007191300 SPECI KCLM 191300Z AUTO 15004KT 1SM BR VV002 11/11 A3012 RMK AO2 T01110111=
202007191253 METAR KCLM 191253Z AUTO 00000KT 1/4SM FG VV002 11/11 A3013 RMK AO2 SLP203 T01110111=
202007191248 SPECI KCLM 191248Z AUTO 23004KT 1/4SM FG VV002 11/11 A3013 RMK AO2=
202007191236 SPECI KCLM 191236Z AUTO 00000KT 1/4SM FG VV001 11/11 A3013 RMK AO2 T01110111=
202007191221 SPECI KCLM 191221Z AUTO 18003KT 1/2SM FG VV001 12/11 A3012 RMK AO2 T01170111=
202007191219 SPECI KCLM 191219Z AUTO 18003KT 1/4SM FG VV002 12/11 A3012 RMK AO2 T01170111=
202007191202 SPECI KCLM 191202Z AUTO 00000KT 1/2SM FG VV002 12/12 A3012 RMK AO2 T01170117=
202007191153 METAR KCLM 191153Z AUTO 25004KT 1/4SM FG VV001 12/12 A3011 RMK AO2 SLP196 T01170117 10133 20117 58006=
202007191053 METAR KCLM 191053Z AUTO 00000KT 1/4SM FG VV001 12/12 A3012 RMK AO2 SLP200 T01170117=
202007191027 SPECI KCLM 191027Z AUTO 00000KT 1/4SM FG VV001 12/12 A3012 RMK AO2 T01220117=
202007190953 METAR KCLM 190953Z AUTO 24003KT 1/4SM FG VV002 12/12 A3013 RMK AO2 SLP202 T01220122=
202007190950 SPECI KCLM 190950Z AUTO 23003KT 1/4SM FG VV002 12/12 A3013 RMK AO2=
202007190935 SPECI KCLM 190935Z AUTO 00000KT 3/4SM BR OVC002 12/12 A3013 RMK AO2 T01220122=
202007190914 SPECI KCLM 190914Z AUTO 00000KT 2 1/2SM BR OVC002 13/12 A3014 RMK AO2 T01280122=
202007190853 METAR KCLM 190853Z AUTO 27003KT 3SM BR OVC002 13/12 A3014 RMK AO2 SLP205 T01280122 51002=
202007190835 SPECI KCLM 190835Z AUTO 29003KT 2 1/2SM BR OVC002 13/12 A3014 RMK AO2 T01280122=
202007190823 SPECI KCLM 190823Z AUTO 27006KT 3SM BR OVC002 13/12 A3014 RMK AO2 T01280122=
202007190814 SPECI KCLM 190814Z AUTO 28007KT 2 1/2SM BR OVC002 13/12 A3014 RMK AO2 T01280122=
202007190753 METAR KCLM 190753Z AUTO 28007KT 1SM BR VV002 13/12 A3013 RMK AO2 SLP204 T01280122 402110100=
202007190743 SPECI KCLM 190743Z AUTO 28007KT 1/2SM FG VV002 13/12 A3013 RMK AO2 T01280122=
202007190719 SPECI KCLM 190719Z AUTO 30005KT 1/4SM FG VV002 13/12 A3013 RMK AO2 T01280122=
202007190653 METAR KCLM 190653Z AUTO 29003KT 1/2SM FG VV002 13/13 A3013 RMK AO2 SLP203 T01280128=
202007190638 SPECI KCLM 190638Z AUTO 30003KT 3/4SM BR OVC002 13/13 A3013 RMK AO2 T01280128=
202007190623 SPECI KCLM 190623Z AUTO 27004KT 2SM BR OVC002 13/13 A3014 RMK AO2 T01280128=
202007190553 METAR KCLM 190553Z AUTO 00000KT 8SM OVC002 13/13 A3014 RMK AO2 SLP206 T01330128 10206 20128 58008=
202007190509 SPECI KCLM 190509Z AUTO 28005KT 10SM BKN003 13/12 A3015 RMK AO2 T01330122=
202007190453 METAR KCLM 190453Z AUTO 28004KT 10SM FEW004 13/12 A3016 RMK AO2 SLP213 T01280122=
202007190416 SPECI KCLM 190416Z AUTO 29006KT 10SM FEW003 13/12 A3016 RMK AO2 T01280122=
202007190353 METAR KCLM 190353Z AUTO 30006KT 10SM CLR 14/12 A3016 RMK AO2 SLP214 T01390122=
202007190253 METAR KCLM 190253Z AUTO 28005KT 10SM CLR 17/12 A3016 RMK AO2 SLP213 T01670117 56015=
202007190153 METAR KCLM 190153Z AUTO 30006KT 10SM CLR 19/12 A3017 RMK AO2 SLP217 T01890117=
202007190053 METAR KCLM 190053Z AUTO 29006KT 10SM CLR 21/12 A3019 RMK AO2 SLP223 T02060122=
202007182353 METAR KCLM 182353Z AUTO 30007KT 10SM CLR 20/12 A3021 RMK AO2 SLP229 T02000122 10211 20172 58008=
202007182253 METAR KCLM 182253Z AUTO 31006KT 10SM CLR 20/12 A3022 RMK AO2 SLP234 T02000122=
202007182153 METAR KCLM 182153Z AUTO VRB04KT 10SM CLR 20/12 A3023 RMK AO2 SLP235 T02000117=
202007182053 METAR KCLM 182053Z AUTO VRB04KT 10SM CLR 20/12 A3023 RMK AO2 SLP237 T02000122 58005=
202007181953 METAR KCLM 181953Z AUTO VRB04KT 10SM CLR 19/12 A3024 RMK AO2 SLP241 T01890122=
202007181853 METAR KCLM 181853Z AUTO VRB05KT 10SM CLR 17/12 A3024 RMK AO2 SLP241 T01720117=
202007181753 METAR KCLM 181753Z AUTO 03004KT 10SM CLR 17/12 A3025 RMK AO2 SLP243 T01720117 10183 20100 51005=
202007181653 METAR KCLM 181653Z AUTO VRB03KT 10SM CLR 17/12 A3025 RMK AO2 SLP242 T01670117=
202007181553 METAR KCLM 181553Z AUTO 00000KT 10SM CLR 18/12 A3023 RMK AO2 SLP238 T01830117=
202007181453 METAR KCLM 181453Z AUTO 35004KT 10SM CLR 16/11 A3023 RMK AO2 SLP237 T01560111 53009=
202007181353 METAR KCLM 181353Z AUTO 31003KT 10SM CLR 13/11 A3022 RMK AO2 SLP234 T01330106=
202007181253 METAR KCLM 181253Z AUTO 21003KT 10SM CLR 10/09 A3021 RMK AO2 SLP228 T01000089=
202007181153 METAR KCLM 181153Z AUTO 10SM BKN060 14/09 A3021 RMK AO2 SLP228 T01390094 10144 20117 53004=
202007181053 METAR KCLM 181053Z AUTO 26010KT 10SM CLR 13/10 A3020 RMK AO2 SLP225 T01330100=
202007180953 METAR KCLM 180953Z AUTO 26007KT 10SM CLR 14/10 A3020 RMK AO2 SLP225 T01390100=
202007180853 METAR KCLM 180853Z AUTO 26008KT 10SM CLR 14/11 A3019 RMK AO2 SLP224 T01390106 51002=
202007180753 METAR KCLM 180753Z AUTO 25007KT 10SM CLR 13/11 A3019 RMK AO2 SLP224 T01330106 401890117=
202007180653 METAR KCLM 180653Z AUTO 29005KT 10SM CLR 12/10 A3019 RMK AO2 SLP222 T01170100=
202007180553 METAR KCLM 180553Z AUTO 26006KT 10SM CLR 13/11 A3019 RMK AO2 SLP222 T01280106 10189 20128 51010=
202007180453 METAR KCLM 180453Z AUTO 27006KT 10SM CLR 13/10 A3018 RMK AO2 SLP219 T01330100=
202007180353 METAR KCLM 180353Z AUTO 25007KT 10SM CLR 14/10 A3017 RMK AO2 SLP217 T01440100=
202007180253 METAR KCLM 180253Z AUTO 29006KT 10SM CLR 16/11 A3016 RMK AO2 SLP212 T01610106 53005=
202007180153 METAR KCLM 180153Z AUTO 29009KT 10SM CLR 17/11 A3015 RMK AO2 SLP209 T01670106=
202007180053 METAR KCLM 180053Z AUTO 33007KT 10SM CLR 18/11 A3015 RMK AO2 SLP208 T01780106=
202007172353 METAR KCLM 172353Z AUTO 33007KT 10SM CLR 18/11 A3014 RMK AO2 SLP207 T01830106 10189 20144 53002=
202007172253 METAR KCLM 172253Z AUTO 32009KT 10SM FEW038 18/11 A3014 RMK AO2 SLP205 T01830106=
202007172153 METAR KCLM 172153Z AUTO 30008G16KT 10SM OVC040 18/11 A3014 RMK AO2 SLP205 T01780111=
202007172053 METAR KCLM 172053Z AUTO 29008KT 260V330 10SM OVC040 17/11 A3014 RMK AO2 SLP205 T01670111 51013=
202007171953 METAR KCLM 171953Z AUTO 29011G15KT 10SM OVC039 17/11 A3012 RMK AO2 SLP201 T01670111=
202007171853 METAR KCLM 171853Z AUTO 32008KT 10SM OVC037 15/11 A3011 RMK AO2 SLP197 T01500111=
202007171753 METAR KCLM 171753Z AUTO 32010G16KT 10SM OVC032 16/10 A3010 RMK AO2 SLP191 T01560100 10167 20128 53005=
202007171653 METAR KCLM 171653Z AUTO 30009G19KT 10SM OVC030 16/09 A3009 RMK AO2 SLP190 T01560094=
202007171633 SPECI KCLM 171633Z AUTO 31010G20KT 10SM OVC030 16/10 A3009 RMK AO2 T01560100=
202007171553 METAR KCLM 171553Z AUTO 29011G18KT 10SM BKN029 16/09 A3008 RMK AO2 SLP186 T01560094=
202007171551 SPECI KCLM 171551Z AUTO 29011G18KT 10SM BKN029 16/09 A3008 RMK AO2=
202007171453 METAR KCLM 171453Z AUTO 29011G17KT 10SM CLR 16/09 A3007 RMK AO2 SLP183 T01560094 51012=
202007171353 METAR KCLM 171353Z AUTO 28010KT 10SM FEW028 14/09 A3006 RMK AO2 SLP179 T01390094=
202007171253 METAR KCLM 171253Z AUTO 26012G18KT 10SM CLR 13/09 A3005 RMK AO2 SLP176 T01280089=
202007171226 SPECI KCLM 171226Z AUTO 27008G19KT 10SM SCT022 13/09 A3005 RMK AO2 T01280089=
202007171153 METAR KCLM 171153Z AUTO 27014G20KT 10SM BKN022 13/09 A3003 RMK AO2 SLP170 T01330094 10144 20133 55002=
202007171105 SPECI KCLM 171105Z AUTO 29012G19KT 10SM OVC016 13/10 A3003 RMK AO2 T01330100=
202007171053 METAR KCLM 171053Z AUTO 29010KT 10SM OVC014 13/11 A3003 RMK AO2 SLP170 T01330106=
202007170953 METAR KCLM 170953Z AUTO 28009G15KT 10SM OVC013 13/11 A3004 RMK AO2 SLP171 T01330106=
202007170853 METAR KCLM 170853Z AUTO 29009KT 10SM OVC013 13/11 A3004 RMK AO2 SLP173 T01330106 53005=
202007170839 SPECI KCLM 170839Z AUTO 27014G22KT 10SM OVC011 13/11 A3004 RMK AO2 T01330111=
202007170753 METAR KCLM 170753Z AUTO 28012G18KT 10SM OVC006 13/12 A3003 RMK AO2 SLP170 T01330122 402060122=
202007170727 SPECI KCLM 170727Z AUTO 28012KT 10SM OVC005 13/12 A3003 RMK AO2 CIG 003V006 T01330122=
202007170653 METAR KCLM 170653Z AUTO 28014G21KT 10SM OVC003 14/13 A3003 RMK AO2 SLP168 T01390133=
202007170553 METAR KCLM 170553Z AUTO 27012KT 10SM OVC004 14/13 A3003 RMK AO2 SLP167 T01440133 10189 20144 53004=
202007170453 METAR KCLM 170453Z AUTO 26011KT 10SM OVC004 14/14 A3003 RMK AO2 SLP168 T01440139=
202007170424 SPECI KCLM 170424Z AUTO 27009KT 10SM OVC004 14/14 A3002 RMK AO2 T01440139=
202007170353 METAR KCLM 170353Z AUTO 28008KT 10SM OVC006 15/14 A3001 RMK AO2 SLP162 T01500139=
202007170253 METAR KCLM 170253Z AUTO 27013G20KT 10SM OVC008 16/14 A3001 RMK AO2 SLP163 T01610139 58002=
202007170225 SPECI KCLM 170225Z AUTO 27014G18KT 10SM OVC009 16/14 A3002 RMK AO2 T01610139=
202007170205 SPECI KCLM 170205Z AUTO 27011G17KT 10SM OVC010 17/14 A3002 RMK AO2 T01670139=
202007170153 METAR KCLM 170153Z AUTO 27008G16KT 10SM OVC009 17/14 A3002 RMK AO2 SLP166 T01670139=
202007170053 METAR KCLM 170053Z AUTO 30010KT 10SM OVC009 17/14 A3002 RMK AO2 SLP166 T01720139=
202007162353 METAR KCLM 162353Z AUTO 27009KT 10SM BKN013 OVC070 18/14 A3003 RMK AO2 SLP170 T01780144 10206 20172 58001=
202007162328 SPECI KCLM 162328Z AUTO 29008KT 10SM BKN013 OVC070 18/14 A3003 RMK AO2 T01830144=
202007162305 SPECI KCLM 162305Z AUTO 30007G16KT 10SM SCT015 OVC070 19/14 A3003 RMK AO2 T01890144=
202007162253 METAR KCLM 162253Z AUTO 27010G15KT 10SM BKN015 OVC075 19/14 A3003 RMK AO2 SLP170 T01890144=
202007162235 SPECI KCLM 162235Z AUTO 29008KT 10SM BKN016 OVC080 19/14 A3004 RMK AO2 T01940144=
202007162153 METAR KCLM 162153Z AUTO 10SM FEW090 19/14 A3004 RMK AO2 SLP172 T01890144=
202007162053 METAR KCLM 162053Z AUTO 31008KT 10SM FEW110 21/15 A3004 RMK AO2 SLP171 T02060150 50001=
202007161953 METAR KCLM 161953Z AUTO 30009KT 10SM BKN040 19/14 A3004 RMK AO2 SLP173 T01940144=
202007161853 METAR KCLM 161853Z AUTO 31006KT 10SM CLR 18/14 A3004 RMK AO2 SLP173 T01780139=
202007161753 METAR KCLM 161753Z AUTO 29007KT 10SM SCT110 18/14 A3003 RMK AO2 SLP170 T01780139 10178 20122 55001=
202007161653 METAR KCLM 161653Z AUTO 32006KT 10SM FEW120 16/13 A3003 RMK AO2 SLP170 T01610133=
202007161553 METAR KCLM 161553Z AUTO 30008KT 10SM CLR 17/14 A3003 RMK AO2 SLP168 T01720139=
202007161453 METAR KCLM 161453Z AUTO 28008KT 10SM FEW002 14/14 A3004 RMK AO2 SLP171 T01440139 50000=
202007161429 SPECI KCLM 161429Z AUTO 27009KT 4SM BR OVC002 13/13 A3004 RMK AO2 T01330133=
202007161416 SPECI KCLM 161416Z AUTO 26010KT 2 1/2SM BR OVC002 13/13 A3004 RMK AO2 VIS 1 1/2V4 T01330128=
202007161408 SPECI KCLM 161408Z AUTO 28010KT 1 1/2SM BR BKN002 13/13 A3005 RMK AO2 T01330128=
202007161401 SPECI KCLM 161401Z AUTO 28005KT 2SM BR BKN002 13/13 A3005 RMK AO2 T01330128=
202007161353 METAR KCLM 161353Z AUTO 30007KT 10SM FEW004 13/13 A3005 RMK AO2 SLP175 T01330128=
202007161326 SPECI KCLM 161326Z AUTO 28010KT 10SM SCT002 13/13 A3004 RMK AO2 T01280128=
202007161318 SPECI KCLM 161318Z AUTO 27012KT 10SM BKN002 13/12 A3003 RMK AO2 T01280122=
202007161310 SPECI KCLM 161310Z AUTO 27011G19KT 2SM BR BKN002 13/12 A3004 RMK AO2 T01280122=
202007161253 METAR KCLM 161253Z AUTO 27011KT 3/4SM BR OVC002 13/12 A3004 RMK AO2 SLP172 T01280122=
202007161238 SPECI KCLM 161238Z AUTO 28009KT 1/2SM FG VV002 13/12 A3004 RMK AO2 T01280122=
202007161153 METAR KCLM 161153Z AUTO 29009KT 1 3/4SM BR OVC002 13/12 A3004 RMK AO2 SLP171 T01280122 10139 20122 55002=
202007161149 SPECI KCLM 161149Z AUTO 30009KT 2SM BR OVC002 12/12 A3003 RMK AO2=
202007161139 SPECI KCLM 161139Z AUTO 29008KT 2SM BR OVC001 13/12 A3003 RMK AO2 T01280122=
202007161053 METAR KCLM 161053Z AUTO 28008KT 1SM BR OVC002 13/12 A3003 RMK AO2 SLP170 T01280122=
202007161043 SPECI KCLM 161043Z AUTO 30009KT 3/4SM BR VV002 13/13 A3004 RMK AO2 T01280128=
202007161026 SPECI KCLM 161026Z AUTO 28011KT 1SM BR OVC001 13/12 A3004 RMK AO2 T01280122=
202007161012 SPECI KCLM 161012Z AUTO 29013KT 1 1/2SM BR OVC002 13/12 A3004 RMK AO2 T01280122=
202007161001 SPECI KCLM 161001Z AUTO 29011KT 2SM BR OVC002 13/12 A3004 RMK AO2 T01280122=
202007160953 METAR KCLM 160953Z AUTO 28011KT 3/4SM BR VV002 13/12 A3004 RMK AO2 SLP173 T01280122=
202007160943 SPECI KCLM 160943Z AUTO 29011KT 1 3/4SM BR BKN002 13/12 A3004 RMK AO2 T01280122=
202007160920 SPECI KCLM 160920Z AUTO 29009KT 9SM BKN002 13/13 A3005 RMK AO2 T01330128=
202007160911 SPECI KCLM 160911Z AUTO 28009KT 10SM SCT003 13/13 A3005 RMK AO2 T01330128=
202007160853 METAR KCLM 160853Z AUTO 30007KT 10SM CLR 13/13 A3006 RMK AO2 SLP177 T01330128 58006=
202007160821 SPECI KCLM 160821Z AUTO 28008KT 10SM SCT001 13/13 A3006 RMK AO2 T01330128=
202007160753 METAR KCLM 160753Z AUTO 30009KT 9SM BKN001 13/13 A3007 RMK AO2 SLP181 T01330128 402000111=
202007160749 SPECI KCLM 160749Z AUTO 29009KT 10SM SCT001 13/13 A3007 RMK AO2=
202007160734 SPECI KCLM 160734Z AUTO 29006KT 4SM BR BKN001 13/13 A3007 RMK AO2 T01280128=
202007160723 SPECI KCLM 160723Z AUTO 31008KT 3SM BR SCT001 13/13 A3007 RMK AO2 T01330128=
202007160715 SPECI KCLM 160715Z AUTO 32007KT 1 3/4SM BR BKN002 13/13 A3007 RMK AO2 T01330128=
202007160653 METAR KCLM 160653Z AUTO 28005KT 10SM SCT004 13/13 A3007 RMK AO2 SLP184 T01330128=
202007160553 METAR KCLM 160553Z AUTO 28005KT 10SM SCT003 13/13 A3009 RMK AO2 SLP188 T01330128 10183 20133 56005=
202007160514 SPECI KCLM 160514Z AUTO 27007KT 10SM SCT005 13/13 A3009 RMK AO2 T01330128=
202007160453 METAR KCLM 160453Z AUTO 27008KT 10SM BKN005 14/13 A3010 RMK AO2 SLP191 T01390128=
202007160435 SPECI KCLM 160435Z AUTO 29007KT 10SM FEW005 13/13 A3010 RMK AO2 T01330128=
202007160353 METAR KCLM 160353Z AUTO 29006KT 10SM CLR 14/13 A3009 RMK AO2 SLP190 T01440128=
202007160253 METAR KCLM 160253Z AUTO 31005KT 10SM CLR 17/13 A3010 RMK AO2 SLP194 T01670133 58012=
202007160153 METAR KCLM 160153Z AUTO 29006KT 10SM CLR 17/13 A3012 RMK AO2 SLP198 T01720133=
202007160053 METAR KCLM 160053Z AUTO 31007KT 10SM CLR 18/13 A3013 RMK AO2 SLP202 T01830133=
202007152353 METAR KCLM 152353Z AUTO 28006KT 10SM CLR 18/13 A3014 RMK AO2 SLP205 T01780133 10200 20167 56007=
202007152253 METAR KCLM 152253Z AUTO 30008KT 10SM CLR 19/14 A3014 RMK AO2 SLP208 T01940139=
202007152153 METAR KCLM 152153Z AUTO 30009KT 10SM CLR 19/13 A3015 RMK AO2 SLP209 T01940133=
202007152053 METAR KCLM 152053Z AUTO 29008KT 10SM CLR 19/13 A3016 RMK AO2 SLP212 T01890133 58005=
202007151953 METAR KCLM 151953Z AUTO 29007KT 10SM CLR 18/13 A3017 RMK AO2 SLP216 T01830133=
202007151853 METAR KCLM 151853Z AUTO VRB06KT 10SM CLR 18/13 A3017 RMK AO2 SLP215 T01830133=
202007151753 METAR KCLM 151753Z AUTO VRB04KT 10SM CLR 17/12 A3017 RMK AO2 SLP217 T01670122 10167 20117 50005=
202007151653 METAR KCLM 151653Z AUTO 29006KT 10SM CLR 14/12 A3018 RMK AO2 SLP219 T01440117=
202007151553 METAR KCLM 151553Z AUTO 33005KT 10SM FEW004 14/12 A3017 RMK AO2 SLP217 T01390117=
202007151540 SPECI KCLM 151540Z AUTO 32005KT 10SM FEW004 14/12 A3017 RMK AO2 T01390117=
202007151453 METAR KCLM 151453Z AUTO 32003KT 10SM CLR 14/12 A3016 RMK AO2 SLP212 T01390117 53003=
202007151353 METAR KCLM 151353Z AUTO 29008KT 10SM CLR 13/12 A3015 RMK AO2 SLP209 T01280117=
202007151253 METAR KCLM 151253Z AUTO 28011KT 9SM SCT003 12/11 A3014 RMK AO2 SLP207 T01170111=
202007151216 SPECI KCLM 151216Z AUTO 28009KT 10SM SCT004 12/11 A3015 RMK AO2 T01170111=
202007151153 METAR KCLM 151153Z AUTO 29010G17KT 10SM BKN004 12/11 A3015 RMK AO2 SLP208 T01170111 10133 20111 55000=
202007151053 METAR KCLM 151053Z AUTO 29008KT 10SM OVC004 12/11 A3014 RMK AO2 SLP206 T01170111=
202007150953 METAR KCLM 150953Z AUTO 28009KT 10SM BKN004 12/11 A3014 RMK AO2 SLP207 T01170111=
202007150948 SPECI KCLM 150948Z AUTO 28009KT 10SM BKN004 12/11 A3015 RMK AO2=
202007150939 SPECI KCLM 150939Z AUTO 29010G16KT 10SM SCT004 12/11 A3015 RMK AO2 T01170106=
202007150853 METAR KCLM 150853Z AUTO 28007KT 10SM CLR 11/10 A3015 RMK AO2 SLP211 T01110100 58002=
202007150753 METAR KCLM 150753Z AUTO 28006KT 10SM CLR 12/10 A3016 RMK AO2 SLP212 T01170100 402000089=
202007150653 METAR KCLM 150653Z AUTO 27007KT 10SM CLR 12/10 A3016 RMK AO2 SLP213 T01220100=
202007150553 METAR KCLM 150553Z AUTO 27011KT 10SM CLR 13/09 A3016 RMK AO2 SLP212 T01330094 10200 20133 55002=
202007150453 METAR KCLM 150453Z AUTO 27007KT 10SM CLR 14/09 A3016 RMK AO2 SLP211 T01440094=
202007150353 METAR KCLM 150353Z AUTO 28008KT 10SM CLR 14/09 A3016 RMK AO2 SLP212 T01440094=
202007150253 METAR KCLM 150253Z AUTO 27012KT 10SM CLR 17/11 A3016 RMK AO2 SLP214 T01670106 55007=
202007150153 METAR KCLM 150153Z AUTO 28009KT 10SM CLR 18/11 A3016 RMK AO2 SLP214 T01830111=
202007150053 METAR KCLM 150053Z AUTO 28009KT 10SM CLR 19/11 A3017 RMK AO2 SLP217 T01940106=
202007142353 METAR KCLM 142353Z AUTO VRB06KT 10SM CLR 20/11 A3019 RMK AO2 SLP222 T02000106 10200 20161 56006=
202007142253 METAR KCLM 142253Z AUTO 30007KT 280V350 10SM CLR 19/11 A3019 RMK AO2 SLP222 T01940111=
202007142153 METAR KCLM 142153Z AUTO 36005KT 10SM CLR 19/12 A3019 RMK AO2 SLP224 T01940117=
202007142053 METAR KCLM 142053Z AUTO 35005KT 10SM CLR 18/11 A3020 RMK AO2 SLP228 T01830111 50004=
202007141953 METAR KCLM 141953Z AUTO VRB05KT 10SM CLR 19/11 A3021 RMK AO2 SLP229 T01890106=
202007141853 METAR KCLM 141853Z AUTO 33004KT 10SM CLR 18/11 A3021 RMK AO2 SLP229 T01780106=
202007141753 METAR KCLM 141753Z AUTO 36005KT 10SM CLR 18/11 A3019 RMK AO2 SLP224 T01830106 10183 20089 50004=
202007141653 METAR KCLM 141653Z AUTO 34004KT 10SM CLR 16/11 A3019 RMK AO2 SLP224 T01610111=
202007141553 METAR KCLM 141553Z AUTO 35003KT 10SM CLR 16/11 A3019 RMK AO2 SLP221 T01560111=
202007141453 METAR KCLM 141453Z AUTO 33004KT 10SM CLR 14/10 A3018 RMK AO2 SLP220 T01440100 53012=
202007141353 METAR KCLM 141353Z AUTO 00000KT 10SM CLR 13/09 A3017 RMK AO2 SLP216 T01280094=
202007141253 METAR KCLM 141253Z AUTO 27005KT 10SM CLR 11/08 A3015 RMK AO2 SLP210 T01110083=
202007141153 METAR KCLM 141153Z AUTO 00000KT 10SM CLR 09/08 A3015 RMK AO2 SLP208 T00940078 10139 20089 53003=
202007141053 METAR KCLM 141053Z AUTO 14003KT 10SM CLR 09/09 A3014 RMK AO2 SLP205 T00940089=
202007140953 METAR KCLM 140953Z AUTO 28007KT 10SM CLR 12/09 A3014 RMK AO2 SLP206 T01170094=
202007140853 METAR KCLM 140853Z AUTO 29008KT 10SM CLR 13/09 A3014 RMK AO2 SLP205 T01280094 56001=
202007140753 METAR KCLM 140753Z AUTO 26008KT 10SM CLR 13/10 A3014 RMK AO2 SLP206 T01330100 401830089=
202007140653 METAR KCLM 140653Z AUTO 27010KT 10SM CLR 13/11 A3013 RMK AO2 SLP204 T01330106=
202007140553 METAR KCLM 140553Z AUTO 27007KT 10SM CLR 13/09 A3014 RMK AO2 SLP206 T01280094 10172 20117 55000=
202007140453 METAR KCLM 140453Z AUTO 26006KT 10SM CLR 12/09 A3014 RMK AO2 SLP206 T01220089=
202007140353 METAR KCLM 140353Z AUTO 27008KT 10SM CLR 14/09 A3014 RMK AO2 SLP206 T01390094=
202007140253 METAR KCLM 140253Z AUTO 29007KT 10SM CLR 16/11 A3014 RMK AO2 SLP206 T01560106 55002=
202007140153 METAR KCLM 140153Z AUTO 31006KT 10SM CLR 16/11 A3014 RMK AO2 SLP205 T01610106=
202007140053 METAR KCLM 140053Z AUTO 29005KT 10SM CLR 17/11 A3014 RMK AO2 SLP205 T01670106=
202007132353 METAR KCLM 132353Z AUTO 29010KT 10SM BKN050 17/11 A3015 RMK AO2 SLP208 T01670106 10183 20156 58007=
202007132253 METAR KCLM 132253Z AUTO 29009KT 10SM SCT055 17/11 A3016 RMK AO2 SLP212 T01670106=
202007132153 METAR KCLM 132153Z AUTO 36005KT 10SM CLR 18/11 A3016 RMK AO2 SLP213 T01780106=
202007132053 METAR KCLM 132053Z AUTO 34004KT 10SM CLR 17/11 A3017 RMK AO2 SLP215 T01670106 58001=
202007131953 METAR KCLM 131953Z AUTO VRB04KT 10SM CLR 17/11 A3017 RMK AO2 SLP216 T01720106=
202007131853 METAR KCLM 131853Z AUTO 02005KT 10SM CLR 17/11 A3017 RMK AO2 SLP218 T01670106=
202007131753 METAR KCLM 131753Z AUTO VRB03KT 10SM CLR 16/11 A3017 RMK AO2 SLP216 T01560106 10167 20100 50000=
202007131653 METAR KCLM 131653Z AUTO 36005KT 10SM CLR 14/11 A3017 RMK AO2 SLP217 T01440106=
202007131553 METAR KCLM 131553Z AUTO 25003KT 10SM BKN049 14/09 A3017 RMK AO2 SLP217 T01390094=
202007131453 METAR KCLM 131453Z AUTO 24005KT 10SM OVC049 13/08 A3017 RMK AO2 SLP216 T01280083 52003=
202007131353 METAR KCLM 131353Z AUTO 24006KT 10SM BKN049 11/07 A3016 RMK AO2 SLP214 T01110072=
202007131253 METAR KCLM 131253Z AUTO 25008KT 10SM OVC045 11/08 A3017 RMK AO2 SLP215 T01060078=
202007131153 METAR KCLM 131153Z AUTO 24006KT 10SM OVC050 10/08 A3016 RMK AO2 SLP213 T01000078 10117 20089 53000=
202007131053 METAR KCLM 131053Z AUTO 25006KT 10SM CLR 09/07 A3016 RMK AO2 SLP212 T00940072=
202007130953 METAR KCLM 130953Z AUTO 26006KT 10SM CLR 09/07 A3016 RMK AO2 SLP212 T00940072=
202007130853 METAR KCLM 130853Z AUTO 26006KT 10SM CLR 10/08 A3016 RMK AO2 SLP213 T01000078 57003=
202007130753 METAR KCLM 130753Z AUTO 26007KT 10SM CLR 11/08 A3016 RMK AO2 SLP214 T01060083 401780100=
202007130653 METAR KCLM 130653Z AUTO 25006KT 10SM CLR 11/08 A3016 RMK AO2 SLP214 T01060083=
202007130553 METAR KCLM 130553Z AUTO 26007KT 10SM CLR 12/08 A3017 RMK AO2 SLP216 T01170083 10172 20111 51004=
202007130453 METAR KCLM 130453Z AUTO 26008KT 10SM CLR 12/09 A3017 RMK AO2 SLP215 T01170089=
202007130353 METAR KCLM 130353Z AUTO 26011KT 10SM CLR 13/09 A3016 RMK AO2 SLP212 T01280089=
202007130253 METAR KCLM 130253Z AUTO 29005KT 10SM CLR 14/09 A3016 RMK AO2 SLP211 T01440089 53001=
202007130153 METAR KCLM 130153Z AUTO 26010G18KT 10SM CLR 15/09 A3016 RMK AO2 SLP211 T01500089=
202007130053 METAR KCLM 130053Z AUTO 29009G16KT 10SM CLR 16/09 A3015 RMK AO2 SLP209 T01610094=
202007122353 METAR KCLM 122353Z AUTO 29013KT 10SM CLR 17/09 A3015 RMK AO2 SLP210 T01720094 10178 20144 58004=
202007122253 METAR KCLM 122253Z AUTO 30015G21KT 10SM CLR 17/09 A3016 RMK AO2 SLP215 T01670089=
202007122153 METAR KCLM 122153Z AUTO 30015G21KT 10SM CLR 16/09 A3017 RMK AO2 SLP215 T01610094=
202007122053 METAR KCLM 122053Z AUTO 28013G20KT 10SM CLR 17/09 A3016 RMK AO2 SLP214 T01670094 58001=
202007121953 METAR KCLM 121953Z AUTO 28013G21KT 10SM CLR 16/11 A3017 RMK AO2 SLP217 T01610106=
202007121853 METAR KCLM 121853Z AUTO 30015G20KT 10SM CLR 16/11 A3017 RMK AO2 SLP216 T01610111=
202007121753 METAR KCLM 121753Z AUTO 33007KT 10SM OVC043 16/11 A3017 RMK AO2 SLP215 T01560111 10156 20117 50005=
202007121653 METAR KCLM 121653Z AUTO 30008KT 270V340 10SM OVC041 13/11 A3017 RMK AO2 SLP215 T01330106=
202007121553 METAR KCLM 121553Z AUTO 32007KT 10SM CLR 15/10 A3015 RMK AO2 SLP210 T01500100=
202007121453 METAR KCLM 121453Z AUTO 27011KT 10SM SCT050 14/10 A3015 RMK AO2 SLP210 T01440100 50007=
202007121353 METAR KCLM 121353Z AUTO 29008KT 10SM SCT055 13/09 A3015 RMK AO2 SLP210 T01330094=
202007121253 METAR KCLM 121253Z AUTO 25009KT 10SM FEW060 12/09 A3014 RMK AO2 SLP205 T01220094=
202007121212 SPECI KCLM 121212Z AUTO 26009KT 10SM FEW027 12/09 A3013 RMK AO2 T01220094=
202007121153 METAR KCLM 121153Z AUTO 27009KT 10SM OVC026 13/10 A3013 RMK AO2 SLP203 70001 T01280100 10128 20106 55001=
202007121053 METAR KCLM 121053Z AUTO 27012KT 10SM BKN019 OVC024 12/11 A3013 RMK AO2 SLP202 T01220106=
202007121017 SPECI KCLM 121017Z AUTO 27008KT 10SM SCT013 OVC019 12/11 A3013 RMK AO2 T01220111=
202007120953 METAR KCLM 120953Z AUTO 26008KT 10SM BKN012 OVC019 12/11 A3013 RMK AO2 SLP204 T01220111=
202007120923 SPECI KCLM 120923Z AUTO 27008KT 10SM OVC010 12/11 A3013 RMK AO2 CIG 004V014 T01220111=
202007120904 SPECI KCLM 120904Z AUTO 26007KT 6SM BR OVC006 12/11 A3013 RMK AO2 CIG 004V009 T01170111=
202007120853 METAR KCLM 120853Z AUTO 27008KT 4SM BR OVC004 12/11 A3013 RMK AO2 CIG 003V009 SLP204 T01170111 53005=
202007120811 SPECI KCLM 120811Z AUTO 28008KT 4SM BR OVC002 12/12 A3013 RMK AO2 T01170117=
202007120753 METAR KCLM 120753Z AUTO 28007KT 2SM BR OVC002 12/12 A3013 RMK AO2 SLP201 T01220117 401670106=
202007120749 SPECI KCLM 120749Z AUTO 28009KT 2SM BR OVC002 12/12 A3012 RMK AO2=
202007120710 SPECI KCLM 120710Z AUTO 27003KT 10SM BKN004 11/11 A3012 RMK AO2 T01110106=
202007120702 SPECI KCLM 120702Z AUTO 28003KT 10SM SCT004 12/11 A3012 RMK AO2 T01170106=
202007120653 METAR KCLM 120653Z AUTO 26004KT 10SM CLR 12/11 A3012 RMK AO2 SLP199 T01170106=
202007120553 METAR KCLM 120553Z AUTO 26003KT 10SM BKN070 11/10 A3011 RMK AO2 SLP196 T01060100 10156 20106 50003=
202007120453 METAR KCLM 120453Z AUTO 00000KT 10SM BKN060 12/11 A3011 RMK AO2 SLP197 T01220111=
202007120353 METAR KCLM 120353Z AUTO 00000KT 10SM BKN060 BKN075 13/11 A3010 RMK AO2 SLP194 T01330111=
202007120253 METAR KCLM 120253Z AUTO 00000KT 10SM FEW039 OVC055 15/11 A3010 RMK AO2 SLP193 T01500106 58004=
202007120153 METAR KCLM 120153Z AUTO 02003KT 10SM OVC065 15/12 A3010 RMK AO2 SLP194 T01500117=
202007120053 METAR KCLM 120053Z AUTO 35003KT 10SM OVC070 15/11 A3011 RMK AO2 SLP197 T01500111=
202007112353 METAR KCLM 112353Z AUTO 00000KT 10SM BKN080 OVC095 15/11 A3012 RMK AO2 SLP198 60001 T01500111 10161 20144 58000=
202007112253 METAR KCLM 112253Z AUTO 34003KT 10SM BKN080 OVC095 14/11 A3012 RMK AO2 RAB12E45 SLP201 P0001 T01440111=
202007112153 METAR KCLM 112153Z AUTO 00000KT 10SM BKN043 OVC080 16/11 A3012 RMK AO2 RAB42E52 SLP200 P0000 T01560106=
202007112053 METAR KCLM 112053Z AUTO 30005KT 10SM BKN036 BKN090 OVC110 16/11 A3012 RMK AO2 SLP198 T01560106 51007=
202007111953 METAR KCLM 111953Z AUTO VRB03KT 10SM CLR 16/10 A3011 RMK AO2 SLP195 T01560100=
202007111914 SPECI KCLM 111914Z AUTO 31004KT 10SM SCT027 16/10 A3010 RMK AO2 T01610100=
202007111853 METAR KCLM 111853Z AUTO 28006KT 10SM BKN027 16/10 A3010 RMK AO2 SLP194 T01610100=
202007111753 METAR KCLM 111753Z AUTO 28006KT 10SM OVC029 16/10 A3010 RMK AO2 SLP191 T01610100 10167 20106 50002=
202007111704 SPECI KCLM 111704Z AUTO 27003KT 10SM OVC029 15/10 A3009 RMK AO2 T01500100=
202007111653 METAR KCLM 111653Z AUTO 28007KT 10SM OVC030 15/10 A3011 RMK AO2 SLP195 T01500100=
202007111615 SPECI KCLM 111615Z AUTO 27005KT 10SM OVC030 15/10 A3010 RMK AO2 T01500100=
202007111604 SPECI KCLM 111604Z AUTO 29004KT 10SM OVC029 15/10 A3010 RMK AO2 T01500100=
202007111553 METAR KCLM 111553Z AUTO 30004KT 10SM OVC030 14/10 A3009 RMK AO2 SLP190 T01440100=
202007111453 METAR KCLM 111453Z AUTO 27003KT 10SM OVC030 13/10 A3009 RMK AO2 SLP189 T01330100 55003=
202007111433 SPECI KCLM 111433Z AUTO 26005KT 10SM OVC030 13/10 A3009 RMK AO2 T01280100=
202007111353 METAR KCLM 111353Z AUTO 25003KT 10SM BKN028 12/10 A3009 RMK AO2 SLP188 T01220100=
202007111253 METAR KCLM 111253Z AUTO 25005KT 10SM CLR 11/09 A3009 RMK AO2 SLP190 T01110094=
202007111153 METAR KCLM 111153Z AUTO 22004KT 10SM SCT030 11/09 A3010 RMK AO2 SLP192 T01110094 10122 20106 56009=
202007111053 METAR KCLM 111053Z AUTO 26005KT 10SM CLR 11/09 A3010 RMK AO2 SLP193 T01110094=
202007110953 METAR KCLM 110953Z AUTO 23004KT 10SM CLR 11/09 A3011 RMK AO2 SLP196 T01110094=
202007110853 METAR KCLM 110853Z AUTO 22006KT 10SM CLR 11/09 A3013 RMK AO2 SLP201 T01110094 58008=
202007110753 METAR KCLM 110753Z AUTO 23006KT 10SM CLR 12/09 A3013 RMK AO2 SLP204 T01170094 401830111=
202007110653 METAR KCLM 110653Z AUTO 25006KT 10SM CLR 12/09 A3015 RMK AO2 SLP211 T01170089=
202007110553 METAR KCLM 110553Z AUTO 24006KT 10SM CLR 12/09 A3015 RMK AO2 SLP209 T01220094 10172 20122 58004=
202007110453 METAR KCLM 110453Z AUTO 25005KT 10SM CLR 13/09 A3015 RMK AO2 SLP211 T01280089=
202007110353 METAR KCLM 110353Z AUTO 27007KT 10SM CLR 13/09 A3016 RMK AO2 SLP213 T01330094=
202007110253 METAR KCLM 110253Z AUTO 28007KT 10SM CLR 16/09 A3016 RMK AO2 SLP214 T01560094 58014=
202007110153 METAR KCLM 110153Z AUTO 29010KT 10SM CLR 16/09 A3018 RMK AO2 SLP220 T01610094=
202007110053 METAR KCLM 110053Z AUTO 29010KT 270V340 10SM CLR 17/10 A3019 RMK AO2 SLP224 T01720100=
202007102353 METAR KCLM 102353Z AUTO 29010KT 10SM CLR 17/10 A3020 RMK AO2 SLP228 T01720100 10183 20144 58003=
202007102253 METAR KCLM 102253Z AUTO VRB06KT 10SM CLR 18/10 A3021 RMK AO2 SLP230 T01780100=
202007102153 METAR KCLM 102153Z AUTO VRB06KT 10SM CLR 18/10 A3021 RMK AO2 SLP230 T01780100=
202007102053 METAR KCLM 102053Z AUTO 36004KT 10SM OVC030 17/09 A3021 RMK AO2 SLP231 T01670094 51001=
202007102049 SPECI KCLM 102049Z AUTO VRB05KT 10SM OVC030 17/09 A3021 RMK AO2=
202007101953 METAR KCLM 101953Z AUTO 36006KT 10SM OVC029 16/09 A3022 RMK AO2 SLP232 T01560089=
202007101853 METAR KCLM 101853Z AUTO VRB06KT 10SM OVC024 15/09 A3021 RMK AO2 SLP230 T01500094=
202007101753 METAR KCLM 101753Z AUTO VRB05KT 10SM OVC023 14/09 A3020 RMK AO2 SLP228 T01440094 10144 20128 53012=
202007101653 METAR KCLM 101653Z AUTO 31006KT 10SM OVC023 14/09 A3019 RMK AO2 SLP222 T01440094=
202007101553 METAR KCLM 101553Z AUTO 29006KT 10SM OVC024 14/09 A3018 RMK AO2 SLP219 T01390094=
202007101453 METAR KCLM 101453Z AUTO 29006KT 10SM OVC026 13/09 A3017 RMK AO2 SLP216 T01330094 51015=
202007101353 METAR KCLM 101353Z AUTO 26003KT 10SM OVC025 13/09 A3016 RMK AO2 SLP212 T01330094=
202007101253 METAR KCLM 101253Z AUTO 25003KT 10SM OVC024 13/10 A3014 RMK AO2 SLP205 T01280100=
202007101153 METAR KCLM 101153Z AUTO 24004KT 10SM OVC022 13/09 A3012 RMK AO2 SLP201 70008 T01280094 10128 20122 53009=
202007101053 METAR KCLM 101053Z AUTO 28003KT 10SM OVC023 13/09 A3011 RMK AO2 SLP197 T01280094=
202007100953 METAR KCLM 100953Z AUTO 25006KT 10SM OVC023 13/09 A3010 RMK AO2 SLP194 T01280094=
202007100853 METAR KCLM 100853Z AUTO 27005KT 10SM OVC023 13/09 A3010 RMK AO2 SLP192 T01280094 53006=
202007100753 METAR KCLM 100753Z AUTO 27008KT 10SM OVC022 13/09 A3009 RMK AO2 SLP188 T01280094 401670122=
202007100653 METAR KCLM 100653Z AUTO 28008KT 10SM OVC022 13/10 A3008 RMK AO2 SLP186 T01280100=
202007100553 METAR KCLM 100553Z AUTO 24004KT 10SM OVC023 13/10 A3008 RMK AO2 SLP186 T01280100 10156 20128 51008=
202007100453 METAR KCLM 100453Z AUTO 29008KT 10SM OVC023 13/10 A3008 RMK AO2 SLP185 T01330100=
202007100353 METAR KCLM 100353Z AUTO 28007KT 10SM OVC022 13/10 A3006 RMK AO2 SLP178 T01330100=
202007100253 METAR KCLM 100253Z AUTO 28009KT 10SM OVC024 14/10 A3006 RMK AO2 SLP177 T01390100 50002=
202007100153 METAR KCLM 100153Z AUTO 27008KT 10SM OVC023 14/11 A3006 RMK AO2 SLP178 T01440106=
202007100053 METAR KCLM 100053Z AUTO 28009KT 10SM OVC022 15/11 A3005 RMK AO2 SLP177 T01500106=
202007092353 METAR KCLM 092353Z AUTO VRB04KT 10SM OVC022 16/10 A3005 RMK AO2 SLP175 60000 T01560100 10167 20122 53002=
202007092253 METAR KCLM 092253Z AUTO 28011KT 10SM SCT020 OVC025 16/11 A3005 RMK AO2 SLP174 T01610106=
202007092153 METAR KCLM 092153Z AUTO 29009KT 10SM OVC024 16/12 A3004 RMK AO2 SLP173 T01610117=
202007092129 SPECI KCLM 092129Z AUTO 27011KT 10SM FEW016 BKN024 OVC045 16/12 A3004 RMK AO2 T01560117=
202007092119 SPECI KCLM 092119Z AUTO 29008KT 10SM FEW015 BKN033 OVC045 16/11 A3004 RMK AO2 T01560111=
202007092053 METAR KCLM 092053Z AUTO 27009KT 10SM FEW013 OVC026 16/12 A3004 RMK AO2 SLP173 60000 T01560122 51007=
202007092044 SPECI KCLM 092044Z AUTO 29005KT 10SM SCT013 OVC024 16/13 A3004 RMK AO2 T01560128=
202007091953 METAR KCLM 091953Z AUTO 30007KT 10SM OVC010 14/12 A3004 RMK AO2 SLP172 T01440122=
202007091931 SPECI KCLM 091931Z AUTO 30008KT 10SM SCT006 BKN012 OVC030 14/12 A3004 RMK AO2 T01390122=
202007091853 METAR KCLM 091853Z AUTO 29008KT 10SM OVC003 13/12 A3003 RMK AO2 RAE04 SLP170 P0000 T01330122=
202007091753 METAR KCLM 091753Z AUTO 30008KT 3SM -RA BR BKN003 OVC009 13/13 A3002 RMK AO2 RAB29 SLP166 P0001 60008 T01330128 10144 20128 53008=
202007091728 SPECI KCLM 091728Z AUTO 30006KT 4SM BR BKN004 BKN010 OVC015 13/12 A3002 RMK AO2 T01330122=
202007091719 SPECI KCLM 091719Z AUTO 31005KT 5SM BR SCT004 OVC013 13/13 A3001 RMK AO2 T01330128=
202007091702 SPECI KCLM 091702Z AUTO 34003KT 10SM FEW003 OVC016 14/13 A3001 RMK AO2 T01390128=
202007091653 METAR KCLM 091653Z AUTO 34003KT 10SM FEW010 OVC018 14/13 A3001 RMK AO2 SLP161 T01390128=
202007091643 SPECI KCLM 091643Z AUTO 33004KT 10SM SCT009 OVC020 14/13 A3000 RMK AO2 T01390128=
202007091553 METAR KCLM 091553Z AUTO 02003KT 10SM OVC008 14/12 A3000 RMK AO2 RAE14 CIG 006V010 SLP159 P0000 T01390122=
202007091500 SPECI KCLM 091500Z AUTO 00000KT 9SM -RA BKN007 OVC027 13/13 A3000 RMK AO2 P0000 T01330128=
202007091453 METAR KCLM 091453Z AUTO 00000KT 8SM -RA SCT007 OVC027 13/12 A3000 RMK AO2 SLP157 P0002 60007 T01330122 56003=
202007091440 SPECI KCLM 091440Z AUTO 00000KT 6SM -RA BR FEW005 BKN028 OVC049 13/13 A3000 RMK AO2 P0002 T01330128=
202007091432 SPECI KCLM 091432Z AUTO 00000KT 6SM -RA BR SCT005 BKN012 OVC055 13/13 A3000 RMK AO2 P0002 T01330128=
202007091417 SPECI KCLM 091417Z AUTO 00000KT 5SM -RA BR BKN005 BKN011 OVC070 13/12 A3000 RMK AO2 P0001 T01330122=
202007091405 SPECI KCLM 091405Z AUTO 00000KT 6SM -RA BR SCT006 BKN031 OVC065 13/13 A3000 RMK AO2 P0001 T01330128=
202007091353 METAR KCLM 091353Z AUTO 00000KT 6SM -RA BR FEW030 OVC065 13/12 A3000 RMK AO2 SLP157 P0002 T01330122=
202007091253 METAR KCLM 091253Z AUTO 00000KT 8SM -RA BKN070 OVC085 13/12 A2999 RMK AO2 SLP157 P0003 T01280122=
202007091231 SPECI KCLM 091231Z AUTO 00000KT 7SM -RA SCT013 BKN065 OVC080 13/12 A3000 RMK AO2 P0002 T01280122=
202007091153 METAR KCLM 091153Z AUTO 00000KT 6SM -RA BR BKN014 OVC039 13/12 A3001 RMK AO2 SLP161 P0003 60004 70004 T01280122 10133 20122 55003=
202007091150 SPECI KCLM 091150Z AUTO 00000KT 7SM -RA BKN014 OVC039 13/12 A3001 RMK AO2 P0002=
202007091139 SPECI KCLM 091139Z AUTO 00000KT 7SM -RA SCT014 BKN039 OVC085 13/12 A3001 RMK AO2 P0002 T01280117=
202007091130 SPECI KCLM 091130Z AUTO 00000KT 8SM -RA BKN015 BKN039 OVC080 13/12 A3001 RMK AO2 P0001 T01280117=
202007091119 SPECI KCLM 091119Z AUTO 00000KT 9SM -RA SCT015 BKN044 OVC085 13/12 A3001 RMK AO2 P0001 T01280122=
202007091053 METAR KCLM 091053Z AUTO 21003KT 10SM -RA OVC014 13/12 A3001 RMK AO2 RAB00 SLP161 P0001 T01280122=
202007091023 SPECI KCLM 091023Z AUTO 00000KT 10SM -RA BKN014 BKN038 OVC095 13/12 A3001 RMK AO2 RAB00 P0000 T01280117=
202007090953 METAR KCLM 090953Z AUTO 00000KT 10SM BKN038 BKN050 OVC110 13/12 A3002 RMK AO2 RAB08E47 SLP164 P0000 T01280117=
202007090853 METAR KCLM 090853Z AUTO 23003KT 10SM FEW017 BKN100 OVC120 13/12 A3002 RMK AO2 SLP167 60000 T01280117 56008=
202007090753 METAR KCLM 090753Z AUTO 24004KT 10SM OVC050 13/12 A3003 RMK AO2 RAE04 SLP169 P0000 T01330117 401780094=
202007090653 METAR KCLM 090653Z AUTO 24005KT 10SM -RA OVC047 13/11 A3004 RMK AO2 RAB16E27B52 SLP171 P0000 T01330111=
202007090553 METAR KCLM 090553Z AUTO 27005KT 10SM OVC100 13/11 A3005 RMK AO2 RAE17 SLP175 P0000 60000 T01280111 10167 20128 56007=
202007090453 METAR KCLM 090453Z AUTO 26007KT 10SM -RA OVC100 13/11 A3005 RMK AO2 RAB37 SLP176 P0000 T01330111=
202007090353 METAR KCLM 090353Z AUTO 25008KT 10SM OVC055 14/11 A3005 RMK AO2 SLP177 T01440106=
202007090253 METAR KCLM 090253Z AUTO 27010KT 10SM OVC046 14/11 A3007 RMK AO2 SLP182 T01440106 56007=
202007090153 METAR KCLM 090153Z AUTO 28011KT 10SM OVC043 16/12 A3007 RMK AO2 SLP182 T01560117=
202007090053 METAR KCLM 090053Z AUTO 28007KT 10SM OVC042 16/12 A3008 RMK AO2 SLP185 T01610117=
202007082353 METAR KCLM 082353Z AUTO 31006KT 10SM OVC041 16/10 A3009 RMK AO2 SLP189 T01610100 10178 20156 56008=
202007082253 METAR KCLM 082253Z AUTO 33005KT 10SM OVC040 16/11 A3010 RMK AO2 SLP193 T01610106=
202007082153 METAR KCLM 082153Z AUTO VRB03KT 10SM OVC037 18/11 A3009 RMK AO2 SLP191 T01780111=
202007082053 METAR KCLM 082053Z AUTO 04003KT 10SM OVC037 17/12 A3011 RMK AO2 SLP197 T01720117 58004=
202007081953 METAR KCLM 081953Z AUTO 03003KT 10SM OVC036 17/11 A3012 RMK AO2 SLP200 T01670111=
202007081853 METAR KCLM 081853Z AUTO 33004KT 10SM OVC037 16/11 A3012 RMK AO2 SLP201 T01560111=
202007081753 METAR KCLM 081753Z AUTO 01004KT 10SM OVC041 16/11 A3012 RMK AO2 SLP201 T01560111 10156 20106 55000=
202007081653 METAR KCLM 081653Z AUTO VRB05KT 10SM OVC039 16/11 A3012 RMK AO2 SLP199 T01560111=
202007081553 METAR KCLM 081553Z AUTO 31004KT 10SM OVC038 14/11 A3012 RMK AO2 SLP199 T01440111=
202007081453 METAR KCLM 081453Z AUTO 26004KT 10SM OVC038 13/10 A3013 RMK AO2 SLP201 T01330100 53002=
202007081353 METAR KCLM 081353Z AUTO 24003KT 10SM OVC036 12/09 A3012 RMK AO2 SLP200 T01220094=
202007081253 METAR KCLM 081253Z AUTO 26005KT 10SM BKN032 11/09 A3011 RMK AO2 SLP197 T01110094=
202007081153 METAR KCLM 081153Z AUTO 00000KT 10SM OVC033 11/09 A3012 RMK AO2 SLP199 T01060094 10122 20094 55000=
202007081053 METAR KCLM 081053Z AUTO 23004KT 10SM CLR 10/09 A3011 RMK AO2 SLP197 T01000089=
202007080953 METAR KCLM 080953Z AUTO 24004KT 10SM FEW031 09/09 A3012 RMK AO2 SLP199 T00940089=
202007080853 METAR KCLM 080853Z AUTO 00000KT 10SM FEW085 11/09 A3012 RMK AO2 SLP200 T01060094 50000=
202007080753 METAR KCLM 080753Z AUTO 26004KT 10SM CLR 11/09 A3013 RMK AO2 SLP203 T01060094 401830100=
202007080653 METAR KCLM 080653Z AUTO 22003KT 10SM FEW017 12/11 A3013 RMK AO2 SLP202 T01170106=
202007080600 SPECI KCLM 080600Z AUTO 27006KT 10SM SCT028 12/11 A3012 RMK AO2 T01220106=
202007080553 METAR KCLM 080553Z AUTO 26006KT 10SM BKN028 12/11 A3012 RMK AO2 SLP200 T01220106 10172 20122 53005=
202007080453 METAR KCLM 080453Z AUTO 24005KT 10SM BKN029 13/11 A3012 RMK AO2 SLP198 T01280106=
202007080432 SPECI KCLM 080432Z AUTO 28005KT 10SM BKN029 13/11 A3011 RMK AO2 T01330106=
202007080353 METAR KCLM 080353Z AUTO 28008KT 10SM OVC031 14/11 A3011 RMK AO2 SLP194 T01390106=
202007080253 METAR KCLM 080253Z AUTO 30010KT 10SM OVC031 16/11 A3010 RMK AO2 SLP194 T01560106 55000=
202007080240 SPECI KCLM 080240Z AUTO 29008KT 10SM OVC030 16/11 A3011 RMK AO2 T01560106=
202007080212 SPECI KCLM 080212Z AUTO 27009KT 10SM OVC029 16/11 A3010 RMK AO2 T01610106=
202007080153 METAR KCLM 080153Z AUTO 28008KT 10SM OVC032 16/10 A3010 RMK AO2 SLP193 T01610100=
202007080053 METAR KCLM 080053Z AUTO 28009KT 10SM CLR 17/10 A3010 RMK AO2 SLP194 T01670100=
202007072353 METAR KCLM 072353Z AUTO 31010KT 10SM FEW055 17/10 A3011 RMK AO2 SLP195 T01670100 10183 20139 51003=
202007072253 METAR KCLM 072253Z AUTO 30011KT 10SM FEW029 17/09 A3011 RMK AO2 SLP194 T01670094=
202007072153 METAR KCLM 072153Z AUTO 29008G15KT 10SM BKN065 17/09 A3011 RMK AO2 SLP194 T01670094=
202007072053 METAR KCLM 072053Z AUTO 30008KT 10SM OVC065 17/11 A3010 RMK AO2 SLP192 T01670106 53009=
202007071953 METAR KCLM 071953Z AUTO VRB06KT 10SM BKN065 17/11 A3009 RMK AO2 SLP189 T01670106=
202007071853 METAR KCLM 071853Z AUTO 33005KT 10SM BKN049 OVC060 16/11 A3008 RMK AO2 SLP185 T01560106=
202007071753 METAR KCLM 071753Z AUTO 30005KT 10SM OVC050 14/10 A3007 RMK AO2 SLP183 T01390100 10156 20122 53008=
202007071653 METAR KCLM 071653Z AUTO 28005KT 10SM OVC060 16/09 A3006 RMK AO2 SLP179 T01560094=
202007071553 METAR KCLM 071553Z AUTO 30007KT 10SM OVC055 13/09 A3006 RMK AO2 SLP178 T01330094=
202007071453 METAR KCLM 071453Z AUTO 28006KT 10SM SCT047 OVC060 14/08 A3005 RMK AO2 SLP175 T01440083 51007=
202007071353 METAR KCLM 071353Z AUTO 22004KT 10SM OVC055 12/09 A3004 RMK AO2 SLP173 T01220094=
202007071253 METAR KCLM 071253Z AUTO 27009KT 10SM OVC060 12/09 A3004 RMK AO2 SLP172 T01220094=
202007071153 METAR KCLM 071153Z AUTO 26009KT 10SM OVC055 12/09 A3003 RMK AO2 SLP168 T01220094 10122 20117 55002=
202007071053 METAR KCLM 071053Z AUTO 24005KT 10SM BKN055 12/09 A3002 RMK AO2 SLP167 T01220089=
202007070953 METAR KCLM 070953Z AUTO 26007KT 10SM FEW013 12/09 A3003 RMK AO2 SLP167 T01170094=
202007070853 METAR KCLM 070853Z AUTO 26010KT 10SM OVC055 12/09 A3003 RMK AO2 SLP169 T01170094 51002=
202007070753 METAR KCLM 070753Z AUTO 26009KT 10SM OVC050 12/10 A3003 RMK AO2 SLP169 T01170100 401780089=
202007070653 METAR KCLM 070653Z AUTO 27008KT 10SM OVC050 12/10 A3003 RMK AO2 SLP169 T01220100=
202007070553 METAR KCLM 070553Z AUTO 27010KT 10SM OVC050 12/10 A3003 RMK AO2 SLP168 T01220100 10167 20122 55000=
202007070453 METAR KCLM 070453Z AUTO 27011KT 10SM OVC050 13/10 A3003 RMK AO2 SLP168 T01280100=
202007070353 METAR KCLM 070353Z AUTO 26011KT 10SM OVC050 13/10 A3002 RMK AO2 SLP166 T01330100=
202007070253 METAR KCLM 070253Z AUTO 28011KT 10SM FEW044 OVC055 14/10 A3003 RMK AO2 SLP168 T01390100 56003=
202007070153 METAR KCLM 070153Z AUTO 27011G17KT 10SM OVC055 16/11 A3003 RMK AO2 SLP167 T01560106=
202007070053 METAR KCLM 070053Z AUTO 29009G16KT 10SM BKN060 16/11 A3003 RMK AO2 SLP169 T01560106=
202007062353 METAR KCLM 062353Z AUTO 30012G18KT 10SM FEW055 16/11 A3004 RMK AO2 SLP171 T01610106 10178 20144 58010=
202007062253 METAR KCLM 062253Z AUTO 32008KT 10SM FEW060 17/11 A3005 RMK AO2 SLP175 T01720106=
202007062153 METAR KCLM 062153Z AUTO 33010KT 10SM CLR 17/11 A3006 RMK AO2 SLP179 T01720106=
202007062053 METAR KCLM 062053Z AUTO 30008KT 10SM OVC035 17/09 A3007 RMK AO2 SLP181 T01670094 58003=
202007061953 METAR KCLM 061953Z AUTO 31007KT 10SM OVC032 16/09 A3007 RMK AO2 SLP183 T01610089=
202007061853 METAR KCLM 061853Z AUTO 30009KT 10SM OVC032 16/09 A3007 RMK AO2 SLP184 T01610094=
202007061753 METAR KCLM 061753Z AUTO 30010KT 10SM FEW032 16/09 A3007 RMK AO2 SLP184 T01610094 10172 20089 50002=
202007061725 SPECI KCLM 061725Z AUTO 30007KT 10SM SCT027 16/09 A3007 RMK AO2 T01610094=
202007061653 METAR KCLM 061653Z AUTO 30006KT 10SM OVC028 15/09 A3008 RMK AO2 SLP185 T01500089=
202007061620 SPECI KCLM 061620Z AUTO 31007KT 280V350 10SM OVC029 16/09 A3007 RMK AO2 T01610089=
202007061553 METAR KCLM 061553Z AUTO VRB05KT 10SM SCT030 16/09 A3007 RMK AO2 SLP184 T01610094=
202007061520 SPECI KCLM 061520Z AUTO 30004KT 10SM SCT029 BKN040 14/09 A3007 RMK AO2 T01440089=
202007061501 SPECI KCLM 061501Z AUTO 26007KT 10SM BKN029 BKN040 14/09 A3007 RMK AO2 T01390089=
202007061453 METAR KCLM 061453Z AUTO 27006KT 10SM SCT029 BKN040 14/09 A3007 RMK AO2 SLP182 T01390089 55003=
202007061353 METAR KCLM 061353Z AUTO 24005KT 10SM CLR 11/09 A3007 RMK AO2 SLP182 T01110089=
202007061253 METAR KCLM 061253Z AUTO 21005KT 10SM CLR 09/08 A3007 RMK AO2 SLP183 T00940078=
202007061153 METAR KCLM 061153Z AUTO 25005KT 10SM CLR 09/08 A3008 RMK AO2 SLP185 T00940078 10122 20089 56002=
202007061053 METAR KCLM 061053Z AUTO 24003KT 10SM CLR 09/08 A3008 RMK AO2 SLP186 T00890078=
202007060953 METAR KCLM 060953Z AUTO 00000KT 10SM CLR 09/08 A3008 RMK AO2 SLP186 T00940078=
202007060853 METAR KCLM 060853Z AUTO 26006KT 10SM CLR 10/08 A3008 RMK AO2 SLP187 T01000078 56010=
202007060753 METAR KCLM 060753Z AUTO 27006KT 10SM CLR 10/07 A3009 RMK AO2 SLP190 T01000072 401890078=
202007060653 METAR KCLM 060653Z AUTO 24006KT 10SM CLR 12/08 A3010 RMK AO2 SLP193 T01170078=
202007060553 METAR KCLM 060553Z AUTO 25009KT 10SM CLR 12/07 A3011 RMK AO2 SLP197 T01220067 10172 20122 56004=
202007060453 METAR KCLM 060453Z AUTO 26008KT 10SM OVC065 13/07 A3012 RMK AO2 SLP199 T01280067=
202007060353 METAR KCLM 060353Z AUTO 26009KT 10SM OVC060 13/07 A3012 RMK AO2 SLP199 T01330072=
202007060253 METAR KCLM 060253Z AUTO 27009KT 10SM SCT060 14/08 A3013 RMK AO2 SLP202 T01390078 56010=
202007060153 METAR KCLM 060153Z AUTO 27010KT 10SM SCT070 16/08 A3013 RMK AO2 SLP204 T01610078=
202007060053 METAR KCLM 060053Z AUTO 29009KT 10SM BKN070 16/08 A3014 RMK AO2 SLP206 T01610078=
202007052353 METAR KCLM 052353Z AUTO 29008KT 10SM OVC065 17/08 A3016 RMK AO2 SLP212 T01670078 10189 20161 56009=
202007052253 METAR KCLM 052253Z AUTO 30008KT 10SM OVC070 17/08 A3016 RMK AO2 SLP214 T01720078=
202007052153 METAR KCLM 052153Z AUTO 30007KT 10SM CLR 19/08 A3017 RMK AO2 SLP218 T01890083=
202007052053 METAR KCLM 052053Z AUTO 31009KT 10SM CLR 18/09 A3018 RMK AO2 SLP221 T01830094 58004=
202007051953 METAR KCLM 051953Z AUTO 30009KT 10SM CLR 18/09 A3019 RMK AO2 SLP223 T01780094=
202007051853 METAR KCLM 051853Z AUTO 31008KT 10SM CLR 17/09 A3019 RMK AO2 SLP223 T01670089=
202007051753 METAR KCLM 051753Z AUTO VRB05KT 10SM CLR 17/09 A3019 RMK AO2 SLP224 T01670094 10167 20089 57001=
202007051653 METAR KCLM 051653Z AUTO 33006KT 10SM CLR 16/09 A3019 RMK AO2 SLP223 T01560089=
202007051553 METAR KCLM 051553Z AUTO 29005KT 10SM CLR 15/09 A3020 RMK AO2 SLP227 T01500094=
202007051453 METAR KCLM 051453Z AUTO 29005KT 10SM CLR 14/10 A3020 RMK AO2 SLP226 T01390100 56002=
202007051353 METAR KCLM 051353Z AUTO 24004KT 10SM CLR 12/10 A3020 RMK AO2 SLP226 T01170100=
202007051253 METAR KCLM 051253Z AUTO 25005KT 10SM CLR 09/08 A3020 RMK AO2 SLP227 T00940083=
202007051153 METAR KCLM 051153Z AUTO 26004KT 10SM CLR 09/08 A3021 RMK AO2 PK WND 21033/1125 SLP228 T00940083 10111 20078 53001=
202007051053 METAR KCLM 051053Z AUTO 25004KT 10SM CLR 09/08 A3020 RMK AO2 SLP228 T00890078=
202007050953 METAR KCLM 050953Z AUTO 00000KT 8SM CLR 08/08 A3020 RMK AO2 SLP228 T00830078=
202007050853 METAR KCLM 050853Z AUTO 00000KT 6SM BR CLR 08/08 A3020 RMK AO2 SLP228 T00830083 57006=
202007050753 METAR KCLM 050753Z AUTO 00000KT 5SM BR CLR 10/09 A3021 RMK AO2 SLP229 T01000089 401720100=
202007050653 METAR KCLM 050653Z AUTO 22004KT 6SM BR CLR 11/09 A3021 RMK AO2 SLP231 T01060094=
202007050553 METAR KCLM 050553Z AUTO 23005KT 10SM CLR 11/10 A3022 RMK AO2 SLP233 T01110100 10167 20111 56000=
202007050453 METAR KCLM 050453Z AUTO 24004KT 10SM FEW070 12/10 A3022 RMK AO2 SLP233 T01170100=
202007050353 METAR KCLM 050353Z AUTO 28004KT 10SM BKN070 13/10 A3022 RMK AO2 SLP232 T01280100=
202007050253 METAR KCLM 050253Z AUTO 30004KT 10SM OVC065 14/11 A3022 RMK AO2 SLP233 T01390106 56005=
202007050153 METAR KCLM 050153Z AUTO 28007KT 10SM OVC055 14/10 A3022 RMK AO2 SLP235 T01390100=
202007050053 METAR KCLM 050053Z AUTO 28006KT 10SM OVC050 16/10 A3022 RMK AO2 SLP235 T01560100=
202007042353 METAR KCLM 042353Z AUTO VRB05KT 10SM OVC050 16/10 A3023 RMK AO2 SLP238 T01610100 10172 20144 57003=
202007042253 METAR KCLM 042253Z AUTO 36005KT 10SM SCT032 OVC050 16/11 A3024 RMK AO2 SLP239 T01560106=
202007042153 METAR KCLM 042153Z AUTO 34003KT 10SM OVC032 16/09 A3024 RMK AO2 SLP240 T01610089=
202007042053 METAR KCLM 042053Z AUTO 00000KT 10SM OVC031 16/09 A3024 RMK AO2 SLP241 T01610094 51006=
202007041953 METAR KCLM 041953Z AUTO 00000KT 10SM OVC035 15/11 A3024 RMK AO2 SLP239 T01500111=
202007041853 METAR KCLM 041853Z AUTO 36003KT 10SM OVC036 14/11 A3023 RMK AO2 SLP238 T01440111=
202007041753 METAR KCLM 041753Z AUTO 36004KT 10SM OVC039 14/11 A3022 RMK AO2 SLP235 T01440106 10150 20111 51008=
202007041653 METAR KCLM 041653Z AUTO 33005KT 10SM OVC044 14/11 A3022 RMK AO2 SLP232 T01440106=
202007041553 METAR KCLM 041553Z AUTO 00000KT 10SM OVC034 13/11 A3021 RMK AO2 SLP230 T01330111=
202007041453 METAR KCLM 041453Z AUTO 00000KT 10SM OVC039 13/11 A3020 RMK AO2 SLP226 T01330106 53007=
202007041353 METAR KCLM 041353Z AUTO 00000KT 10SM OVC035 12/11 A3019 RMK AO2 SLP224 T01220111=
202007041253 METAR KCLM 041253Z AUTO 00000KT 9SM FEW031 OVC042 11/11 A3018 RMK AO2 SLP222 T01110106=
202007041153 METAR KCLM 041153Z AUTO 00000KT 10SM OVC033 11/11 A3018 RMK AO2 SLP220 60000 70004 T01110106 10117 20106 53004=
202007041053 METAR KCLM 041053Z AUTO 00000KT 10SM OVC031 12/11 A3017 RMK AO2 SLP217 T01170106=
202007041020 SPECI KCLM 041020Z AUTO 00000KT 10SM SCT022 OVC041 11/11 A3017 RMK AO2 T01110106=
202007040953 METAR KCLM 040953Z AUTO 00000KT 10SM BKN022 OVC031 12/11 A3016 RMK AO2 SLP215 T01170106=
202007040853 METAR KCLM 040853Z AUTO 00000KT 10SM OVC016 12/11 A3016 RMK AO2 SLP216 60000 T01170106 58001=
202007040753 METAR KCLM 040753Z AUTO 00000KT 10SM OVC023 12/11 A3017 RMK AO2 SLP218 T01170106 401330106=
202007040653 METAR KCLM 040653Z AUTO 00000KT 10SM BKN022 OVC029 11/10 A3017 RMK AO2 RAB0556E09 SLP216 P0000 T01110100=
202007040628 SPECI KCLM 040628Z AUTO 00000KT 10SM BKN021 OVC090 11/10 A3017 RMK AO2 RAB0556E09 P0000 T01110100=
202007040553 METAR KCLM 040553Z AUTO 00000KT 10SM FEW050 FEW070 OVC085 11/10 A3017 RMK AO2 SLP217 T01060100 10133 20106 50005=
202007040453 METAR KCLM 040453Z AUTO 00000KT 10SM FEW065 OVC080 12/10 A3017 RMK AO2 SLP218 T01170100=
202007040353 METAR KCLM 040353Z AUTO 00000KT 10SM BKN039 OVC070 12/10 A3016 RMK AO2 SLP215 T01170100=
202007040253 METAR KCLM 040253Z AUTO 00000KT 10SM BKN055 12/09 A3016 RMK AO2 SLP212 T01170094 53002=
202007040153 METAR KCLM 040153Z AUTO 03003KT 10SM CLR 13/09 A3015 RMK AO2 SLP211 T01280094=
202007040138 SPECI KCLM 040138Z AUTO 00000KT 10SM SCT016 13/09 A3015 RMK AO2 T01280094=
202007040053 METAR KCLM 040053Z AUTO 00000KT 10SM OVC016 13/09 A3015 RMK AO2 SLP210 T01280094=
202007032353 METAR KCLM 032353Z AUTO 00000KT 10SM BKN016 OVC070 13/09 A3015 RMK AO2 SLP211 60002 T01280094 10133 20117 50008=
202007032253 METAR KCLM 032253Z AUTO VRB03KT 10SM OVC017 13/10 A3015 RMK AO2 RAE09 SLP211 P0000 T01280100=
202007032153 METAR KCLM 032153Z AUTO 34003KT 10SM -RA OVC017 13/09 A3014 RMK AO2 RAB48 SLP208 P0000 T01280094=
202007032053 METAR KCLM 032053Z AUTO 07004KT 10SM OVC016 13/10 A3013 RMK AO2 RAE1954 SLP203 P0000 60002 T01280100 51015=
202007031953 METAR KCLM 031953Z AUTO 03003KT 10SM -RA BKN016 BKN055 OVC070 12/09 A3011 RMK AO2 SLP198 P0001 T01170094=
202007031853 METAR KCLM 031853Z AUTO 04004KT 10SM -RA BKN060 OVC080 12/09 A3010 RMK AO2 RAB38 SLP192 P0001 T01220094=
202007031753 METAR KCLM 031753Z AUTO 00000KT 10SM BKN060 OVC075 13/10 A3008 RMK AO2 SLP187 60002 T01280100 10128 20106 51012=
202007031737 SPECI KCLM 031737Z AUTO 02004KT 10SM FEW010 BKN060 OVC075 13/09 A3008 RMK AO2 T01280094=
202007031723 SPECI KCLM 031723Z AUTO VRB03KT 10SM SCT012 BKN025 OVC070 12/10 A3008 RMK AO2 T01220100=
202007031653 METAR KCLM 031653Z AUTO VRB03KT 10SM FEW008 SCT055 OVC070 12/10 A3007 RMK AO2 SLP184 T01220100=
202007031609 SPECI KCLM 031609Z AUTO 00000KT 10SM SCT018 SCT034 OVC055 11/10 A3007 RMK AO2 T01110100=
202007031553 METAR KCLM 031553Z AUTO 26003KT 10SM OVC019 11/10 A3007 RMK AO2 SLP182 T01110100=
202007031455 SPECI KCLM 031455Z AUTO 23004KT 10SM SCT007 SCT011 OVC020 11/10 A3005 RMK AO2 T01060100=
202007031453 METAR KCLM 031453Z AUTO 24004KT 10SM BKN009 OVC020 11/10 A3005 RMK AO2 RAB1359E17 CIG 005V012 SLP176 P0000 60002 T01060100 53013=
202007031353 METAR KCLM 031353Z AUTO 28005KT 8SM OVC007 11/09 A3003 RMK AO2 RAE42 SLP171 P0001 T01060094=
202007031253 METAR KCLM 031253Z AUTO 00000KT 7SM -RA OVC008 11/10 A3002 RMK AO2 CIG 004V011 SLP166 P0001 T01110100=
202007031243 SPECI KCLM 031243Z AUTO 00000KT 8SM -RA BKN008 OVC012 11/10 A3002 RMK AO2 CIG 005V010 P0000 T01110100=
202007031222 SPECI KCLM 031222Z AUTO 28003KT 8SM -RA BKN011 OVC016 11/10 A3002 RMK AO2 P0000 T01060100=
202007031153 METAR KCLM 031153Z AUTO 00000KT 9SM -RA BKN017 OVC023 11/10 A3001 RMK AO2 RAB41 SLP163 P0000 60000 T01110100 10111 20106 51004=
202007031053 METAR KCLM 031053Z AUTO 00000KT 10SM OVC017 11/10 A3001 RMK AO2 SLP162 T01110100=
202007030953 METAR KCLM 030953Z AUTO 00000KT 10SM OVC027 11/10 A3001 RMK AO2 SLP161 T01110100=
202007030938 SPECI KCLM 030938Z AUTO 00000KT 10SM BKN027 OVC034 11/09 A3000 RMK AO2 T01060094=
202007030853 METAR KCLM 030853Z AUTO 00000KT 10SM OVC032 11/09 A3000 RMK AO2 SLP159 T01060094 56004=
202007030753 METAR KCLM 030753Z AUTO 00000KT 10SM SCT023 OVC031 11/09 A3000 RMK AO2 SLP159 T01110094 401500083=
202007030714 SPECI KCLM 030714Z AUTO 21003KT 10SM BKN025 BKN030 BKN040 11/09 A3000 RMK AO2 T01060094=
202007030653 METAR KCLM 030653Z AUTO 23003KT 10SM FEW023 SCT040 11/09 A3000 RMK AO2 SLP161 T01060094=
202007030553 METAR KCLM 030553Z AUTO 00000KT 10SM OVC037 11/09 A3001 RMK AO2 SLP162 T01110094 10139 20111 58002=
202007030453 METAR KCLM 030453Z AUTO 00000KT 10SM OVC035 12/09 A3002 RMK AO2 SLP164 T01170094=
202007030353 METAR KCLM 030353Z AUTO 00000KT 10SM FEW024 BKN037 BKN050 12/09 A3001 RMK AO2 SLP164 T01220094=
202007030345 SPECI KCLM 030345Z AUTO 29003KT 10SM SCT024 SCT037 BKN055 12/09 A3001 RMK AO2 T01220094=
202007030253 METAR KCLM 030253Z AUTO 31005KT 10SM OVC026 12/09 A3002 RMK AO2 SLP164 T01220094 58005=
202007030153 METAR KCLM 030153Z AUTO 26004KT 10SM OVC023 13/09 A3002 RMK AO2 SLP166 T01330089=
202007030053 METAR KCLM 030053Z AUTO 30004KT 10SM OVC024 13/09 A3003 RMK AO2 SLP170 T01330089=
202007022353 METAR KCLM 022353Z AUTO 29009KT 10SM OVC025 13/09 A3003 RMK AO2 SLP170 T01330089 10150 20133 50004=
202007022253 METAR KCLM 022253Z AUTO 28008KT 10SM OVC023 14/09 A3003 RMK AO2 SLP171 T01440089=
202007022153 METAR KCLM 022153Z AUTO 28008KT 10SM OVC021 14/08 A3003 RMK AO2 SLP169 T01390083=
202007022053 METAR KCLM 022053Z AUTO 32008KT 270V350 10SM OVC022 14/08 A3002 RMK AO2 SLP166 T01390083 51009=
202007021953 METAR KCLM 021953Z AUTO VRB06KT 10SM OVC020 13/08 A3001 RMK AO2 SLP164 T01330083=
202007021853 METAR KCLM 021853Z AUTO 32008KT 10SM OVC024 14/09 A3001 RMK AO2 SLP160 T01390089=
202007021753 METAR KCLM 021753Z AUTO 31009KT 10SM OVC021 14/09 A2999 RMK AO2 SLP156 T01390089 10139 20083 53009=
202007021653 METAR KCLM 021653Z AUTO 29010KT 10SM OVC020 13/08 A2998 RMK AO2 SLP152 T01330083=
202007021636 SPECI KCLM 021636Z AUTO 32009G17KT 10SM BKN020 13/09 A2998 RMK AO2 T01280089=
202007021553 METAR KCLM 021553Z AUTO 29009KT 10SM SCT036 13/09 A2998 RMK AO2 SLP151 T01280089=
202007021453 METAR KCLM 021453Z AUTO 31005KT 10SM SCT033 13/09 A2997 RMK AO2 SLP147 T01280089 51009=
202007021353 METAR KCLM 021353Z AUTO 26004KT 10SM BKN031 11/09 A2996 RMK AO2 SLP146 T01110089=
202007021253 METAR KCLM 021253Z AUTO 25004KT 10SM SCT029 09/08 A2995 RMK AO2 SLP143 T00940078=
202007021153 METAR KCLM 021153Z AUTO 24003KT 10SM CLR 09/08 A2994 RMK AO2 SLP139 T00890078 10117 20089 51005=
202007021053 METAR KCLM 021053Z AUTO 25004KT 10SM SCT013 10/08 A2993 RMK AO2 SLP136 T01000083=
202007021024 SPECI KCLM 021024Z AUTO 24003KT 10SM BKN013 BKN024 10/08 A2993 RMK AO2 T01000083=
202007020953 METAR KCLM 020953Z AUTO 26003KT 10SM FEW014 FEW024 10/08 A2994 RMK AO2 SLP137 T01000083=
202007020900 SPECI KCLM 020900Z AUTO 22003KT 10SM FEW011 11/09 A2993 RMK AO2 T01110094=
202007020853 METAR KCLM 020853Z AUTO 24003KT 10SM SCT011 BKN023 11/09 A2992 RMK AO2 SLP133 T01060089 52002=
202007020839 SPECI KCLM 020839Z AUTO 00000KT 10SM OVC011 11/09 A2993 RMK AO2 T01110094=
202007020820 SPECI KCLM 020820Z AUTO 29005KT 10SM OVC009 11/09 A2993 RMK AO2 CIG 008V012 T01110094=
202007020753 METAR KCLM 020753Z AUTO 30003KT 10SM OVC011 11/09 A2993 RMK AO2 CIG 008V013 SLP133 T01110094 401610094=
202007020653 METAR KCLM 020653Z AUTO 29005KT 10SM OVC013 12/09 A2992 RMK AO2 SLP130 T01170094=
202007020625 SPECI KCLM 020625Z AUTO 28004KT 10SM BKN013 OVC085 11/09 A2991 RMK AO2 T01110094=
202007020617 SPECI KCLM 020617Z AUTO 26004KT 10SM SCT012 OVC085 12/09 A2991 RMK AO2 T01170094=
202007020553 METAR KCLM 020553Z AUTO 28003KT 10SM BKN011 OVC085 12/09 A2992 RMK AO2 SLP131 T01170094 10156 20117 51003=
202007020533 SPECI KCLM 020533Z AUTO 00000KT 10SM BKN011 OVC080 12/09 A2992 RMK AO2 T01170094=
202007020453 METAR KCLM 020453Z AUTO 29005KT 10SM FEW013 OVC080 12/09 A2992 RMK AO2 SLP130 T01170094=
202007020353 METAR KCLM 020353Z AUTO 29011G17KT 10SM SCT070 12/09 A2992 RMK AO2 SLP130 T01220094=
202007020253 METAR KCLM 020253Z AUTO 29008KT 10SM FEW019 13/10 A2991 RMK AO2 SLP128 T01280100 56003=
202007020153 METAR KCLM 020153Z AUTO 29012G21KT 10SM OVC020 14/10 A2991 RMK AO2 SLP129 T01390100=
202007012353 METAR KCLM 012353Z AUTO 34008KT 10SM BKN034 16/11 A2991 RMK AO2 SLP130 T01560106 10161 20139 58007=
202007012253 METAR KCLM 012253Z AUTO 32007KT 10SM BKN039 15/10 A2992 RMK AO2 SLP132 T01500100=
202007012207 SPECI KCLM 012207Z AUTO 31006KT 10SM SCT029 OVC039 15/09 A2993 RMK AO2 T01500094=
202007012153 METAR KCLM 012153Z AUTO VRB05KT 10SM BKN029 OVC039 15/10 A2993 RMK AO2 SLP136 T01500100=
202007012053 METAR KCLM 012053Z AUTO VRB03KT 10SM FEW025 OVC039 14/10 A2994 RMK AO2 SLP138 T01440100 53006=
202007011953 METAR KCLM 011953Z AUTO VRB05KT 10SM CLR 14/11 A2993 RMK AO2 SLP135 T01440106=
202007011853 METAR KCLM 011853Z AUTO VRB05KT 10SM CLR 16/11 A2992 RMK AO2 SLP133 T01560106=
202007011753 METAR KCLM 011753Z AUTO 36006KT 10SM CLR 15/11 A2992 RMK AO2 SLP131 T01500106 10161 20106 58005=
202007011717 SPECI KCLM 011717Z AUTO 34006KT 10SM SCT020 BKN065 14/10 A2992 RMK AO2 T01440100=
202007011710 SPECI KCLM 011710Z AUTO 10SM BKN020 BKN065 15/10 A2992 RMK AO2 T01500100=
202007011653 METAR KCLM 011653Z AUTO VRB04KT 10SM FEW021 OVC065 14/09 A2993 RMK AO2 SLP135 T01390094=
202007011645 SPECI KCLM 011645Z AUTO VRB03KT 10SM FEW019 SCT023 OVC065 14/09 A2993 RMK AO2 T01390094=
202007011553 METAR KCLM 011553Z AUTO VRB03KT 10SM OVC016 14/09 A2994 RMK AO2 SLP139 T01390094=
202007011453 METAR KCLM 011453Z AUTO 20003KT 10SM BKN017 BKN025 OVC065 12/09 A2993 RMK AO2 SLP137 T01220094 58006=
202007011353 METAR KCLM 011353Z AUTO 00000KT 10SM OVC016 12/09 A2994 RMK AO2 SLP139 T01170094=
202007011253 METAR KCLM 011253Z AUTO 00000KT 10SM OVC017 11/09 A2995 RMK AO2 SLP141 T01110094=
202007011220 SPECI KCLM 011220Z AUTO 23004KT 10SM BKN020 OVC095 11/09 A2995 RMK AO2 T01060094=
202007011153 METAR KCLM 011153Z AUTO VRB03KT 10SM FEW011 OVC090 11/09 A2995 RMK AO2 SLP143 T01060089 10111 20094 58004=
202007011143 SPECI KCLM 011143Z AUTO 21004KT 10SM SCT011 OVC090 11/09 A2996 RMK AO2 T01060089=
202007011053 METAR KCLM 011053Z AUTO 19003KT 10SM BKN010 OVC095 11/09 A2996 RMK AO2 SLP146 T01060089=
202007010953 METAR KCLM 010953Z AUTO 27004KT 10SM BKN011 OVC095 11/09 A2996 RMK AO2 SLP147 T01060094=
202007010937 SPECI KCLM 010937Z AUTO 24005KT 10SM BKN008 OVC095 11/09 A2997 RMK AO2 CIG 007V012 T01060094=
202007010930 SPECI KCLM 010930Z AUTO VRB03KT 10SM SCT008 OVC095 11/09 A2997 RMK AO2 T01060094=
202007010853 METAR KCLM 010853Z AUTO VRB03KT 10SM OVC095 10/09 A2997 RMK AO2 SLP147 T01000089 58003=
202007010753 METAR KCLM 010753Z AUTO 25003KT 10SM CLR 09/08 A2997 RMK AO2 SLP148 T00940078 401720094=
202007010653 METAR KCLM 010653Z AUTO 24005KT 10SM SCT100 11/09 A2999 RMK AO2 SLP154 T01060089=
202007010553 METAR KCLM 010553Z AUTO 30004KT 10SM BKN095 10/08 A2998 RMK AO2 SLP150 T01000083 10167 20100 58005=
202007010453 METAR KCLM 010453Z AUTO 28010KT 10SM CLR 11/09 A2998 RMK AO2 SLP151 T01110089=
202007010353 METAR KCLM 010353Z AUTO 26011G17KT 10SM FEW010 BKN085 12/09 A2999 RMK AO2 SLP155 T01170094=
202007010253 METAR KCLM 010253Z AUTO 29010G18KT 10SM SCT085 12/09 A2999 RMK AO2 SLP156 T01220094 53002=
202007010153 METAR KCLM 010153Z AUTO 29011G20KT 10SM FEW085 13/10 A2998 RMK AO2 SLP152 T01330100=
202007010053 METAR KCLM 010053Z AUTO 29008KT 10SM CLR 16/10 A2998 RMK AO2 SLP152 T01560100=

# No short TAF reports from KCLM in databse.

###################################
#  large TAF from KCLM
###################################
202007312325 TAF KCLM 312325Z 0100/0124 29014G22KT P6SM SKC FM011000 27007KT
                       P6SM BKN010 FM011300 VRB04KT P6SM OVC010
                       FM012000 32005KT P6SM SCT250=
202007311736 TAF KCLM 311736Z 3118/0118 29012G18KT P6SM BKN150 FM010100 28012G22KT
                       P6SM SCT250 FM011000 27007KT P6SM BKN010
                       FM011300 VRB04KT P6SM OVC010=
202007311509 KCLM 311509Z 3115/0112 29012G18KT P6SM SCT150 FM010100 28012G22KT
                       P6SM SCT250 FM011000 27007KT P6SM BKN010=
202007311120 TAF KCLM 311120Z 3112/0112 27007KT P6SM FEW080 BKN150 FM311400
                       29005KT P6SM FEW007 BKN150
                      TEMPO 3114/3117 BKN007 FM311800 28008KT P6SM
                       SCT150 FM010100 28012G22KT P6SM SCT250 FM011000
                       27007KT P6SM BKN010=
202007310520 TAF KCLM 310520Z 3106/0106 28008KT P6SM FEW120 FM311200 29006KT
                       P6SM FEW007
                      TEMPO 3114/3117 BKN007 FM311800 28008KT P6SM
                       SCT120 FM312200 28012G22KT P6SM SCT020 SCT120=
202007302320 TAF KCLM 302320Z 3100/3124 33007KT P6SM SKC FM311200 29006KT P6SM
                       FEW007 FM311800 28008KT P6SM SCT120 FM312200
                       28012G22KT P6SM SCT020 SCT120=
202007301720 TAF KCLM 301720Z 3018/3118 34006KT P6SM FEW060 FM310100 29012KT
                       P6SM SKC FM311200 29006KT P6SM FEW007=
202007301122 TAF KCLM 301122Z 3012/3112 00000KT P6SM SKC FM301800 34006KT P6SM
                       FEW060 FM310100 29012KT P6SM SKC FM311000
                       29006KT P6SM FEW007=
202007300523 TAF KCLM 300523Z 3006/3106 28005KT P6SM SKC FM301800 34006KT P6SM
                       FEW060 FM310100 29012KT P6SM SKC=
202007292320 TAF KCLM 292320Z 3000/3024 29006KT P6SM SKC FM300300 29012KT P6SM
                       SKC FM300800 29006KT P6SM SKC FM302300 29012KT
                       P6SM SKC=
202007291740 TAF KCLM 291740Z 2918/3018 29006KT P6SM SKC FM300100 29012KT P6SM
                       SKC FM300800 29006KT P6SM SKC=
202007291153 TAF KCLM 291153Z 2912/3012 26005KT P6SM SKC FM291600 34004KT P6SM
                       SKC FM300300 29007KT P6SM SKC=
202007290521 TAF KCLM 290521Z 2906/3006 27011KT P6SM SKC FM291600 34004KT P6SM
                       SKC FM292000 VRB04KT P6SM SKC=
202007282341 TAF KCLM 282341Z 2900/2924 30008KT P6SM SKC FM290800 29005KT P6SM
                       SKC FM292000 VRB04KT P6SM SKC=
202007281726 TAF KCLM 281726Z 2818/2918 32007KT P6SM SKC FM282300 30011G18KT
                       P6SM SKC FM290300 29005KT P6SM SKC=
202007281425 KCLM 281425Z 2814/2912 29007KT P6SM SCT005 FM281800 31013KT P6SM
                       FEW250 FM282300 30011G18KT P6SM SKC=
202007281150 TAF KCLM 281150Z 2812/2912 28013G20KT 4SM BR BKN003 FM281800 31013KT
                       4SM BR FEW250 FM282300 30011G18KT P6SM SKC=
202007280522 TAF KCLM 280522Z 2806/2906 29010G17KT P6SM SKC FM281200 28009KT
                       4SM BR OVC010 FM282300 30011G19KT P6SM SKC=
202007272327 TAF KCLM 272327Z 2800/2824 32007KT P6SM SKC FM280300 29010G17KT
                       P6SM SKC FM281200 30009KT 4SM BR BKN002
                       FM282000 30011G19KT P6SM SCT010=
202007271720 TAF KCLM 271720Z 2718/2818 06003KT P6SM SKC FM272300 33007KT P6SM
                       SKC FM280300 29010G17KT P6SM SKC FM281200
                       30009KT 4SM BR BKN002=
202007271152 TAF KCLM 271152Z 2712/2812 00000KT P6SM SKC FM271400 05003KT P6SM
                       SKC FM272300 33007KT P6SM SKC FM280300 29010G17KT
                       P6SM SKC=
202007270522 TAF KCLM 270522Z 2706/2806 VRB04KT P6SM SKC FM271400 27003KT P6SM
                       SKC FM272300 30010KT P6SM SKC=
202007262320 TAF KCLM 262320Z 2700/2724 10009KT P6SM SKC FM270200 33004KT P6SM
                       SKC FM271400 10008KT P6SM SKC FM272300 30010KT
                       P6SM SKC=
202007261725 TAF KCLM 261725Z 2618/2718 10009KT P6SM SKC FM270200 33004KT P6SM
                       SKC=
202007261150 TAF KCLM 261150Z 2612/2712 VRB03KT P6SM SKC FM261600 08003KT P6SM
                       SKC FM270200 33004KT P6SM SKC=
202007260521 TAF KCLM 260521Z 2606/2706 26007KT P6SM SKC FM261500 VRB03KT P6SM
                       SKC FM261800 08009KT P6SM SKC=
202007252320 TAF KCLM 252320Z 2600/2624 02006KT P6SM SKC FM260600 28007KT P6SM
                       SKC FM261200 VRB03KT P6SM SKC FM261600 08009KT
                       P6SM SKC=
202007251720 TAF KCLM 251720Z 2518/2618 26007KT P6SM SCT050 FM251900 02006KT
                       P6SM SKC FM260600 28007KT P6SM SKC=
202007251154 TAF KCLM 251154Z 2512/2612 27006KT P6SM SKC FM251400 26007KT P6SM
                       SCT050 FM251900 02006KT P6SM SKC FM260600
                       28007KT P6SM SKC=
202007250523 TAF KCLM 250523Z 2506/2606 27010KT P6SM SKC FM250900 27006KT P6SM
                       SCT050 FM251900 03006KT P6SM SKC=
202007242324 TAF KCLM 242324Z 2500/2524 32010G17KT P6SM OVC050 FM250200 29014G19KT
                       P6SM SCT050 SCT250 FM250900 27006KT P6SM
                       SCT050 FM251900 03006KT P6SM SKC=
202007241725 TAF KCLM 241725Z 2418/2518 29004KT P6SM SCT040 FM241900 32010G17KT
                       P6SM OVC050 FM250200 29014G19KT P6SM SCT050
                       SCT250 FM250900 27006KT P6SM SCT050=
202007241132 TAF KCLM 241132Z 2412/2512 29004KT P6SM OVC040
                      TEMPO 2414/2418 OVC015 FM241900 32010G17KT
                       P6SM OVC050 FM250200 29014G19KT P6SM SCT050
                       SCT250 FM250900 27006KT P6SM SCT050=
202007240533 TAF KCLM 240533Z 2406/2506 28008KT P6SM SCT030 FM240900 29009KT
                       P6SM OVC015 FM241900 32010G17KT P6SM OVC050
                       FM250200 29014G19KT P6SM SCT050 SCT250=
202007232327 TAF KCLM 232327Z 2400/2424 32011G17KT P6SM OVC030 FM240200 28012KT
                       P6SM OVC050 FM240800 29011KT P6SM OVC015
                       FM241900 32010G17KT P6SM OVC050=
202007231723 TAF KCLM 231723Z 2318/2418 30010KT P6SM SCT020 OVC025 FM232000
                       32011G17KT P6SM BKN050 FM240800 29011KT
                       P6SM OVC015=
202007231130 TAF KCLM 231130Z 2312/2412 27008KT P6SM SCT010 OVC015
                      TEMPO 2312/2316 P6SM OVC007 FM231800 32010G16KT
                       P6SM OVC025 FM232000 32011G17KT P6SM BKN050
                       FM240800 29011KT P6SM OVC015=
202007230702 KCLM 230702Z 2307/2406 29008KT P6SM OVC007
                      TEMPO 2307/2311 OVC003 FM231800 32010G16KT
                       P6SM OVC025 FM232000 32011G17KT P6SM BKN040=
202007230532 TAF KCLM 230532Z 2306/2406 29008KT P6SM SCT040 FM230800 29009KT
                       P6SM OVC015 FM231100 29008KT P6SM OVC007
                       FM231800 32010G16KT P6SM OVC025 FM232000
                       32011G17KT P6SM BKN040=
202007222323 TAF KCLM 222323Z 2300/2324 31010G18KT P6SM SCT040 FM230800 29009KT
                       P6SM OVC004 FM231500 29008KT P6SM OVC007
                       FM231800 32010G16KT P6SM OVC025 FM232000
                       32011G17KT P6SM BKN040=
202007221721 TAF KCLM 221721Z 2218/2318 29010KT P6SM SCT007 OVC025 FM222000
                       31010KT P6SM SCT010 OVC030 FM222300 31009G18KT
                       P6SM OVC050 FM230800 29009KT P6SM OVC004
                       FM231200 29008KT P6SM OVC007=
202007221505 KCLM 221505Z 2215/2312 30005KT P6SM OVC007 FM221800 32007KT P6SM
                       OVC015 FM222000 31010KT P6SM SCT010 OVC030
                       FM222300 31009G18KT P6SM OVC040 FM230800
                       29009KT P6SM OVC004=
202007221127 TAF KCLM 221127Z 2212/2312 28009KT P6SM OVC004 FM221800 32007KT
                       P6SM OVC015 FM222000 31010KT P6SM SCT010
                       OVC030 FM222300 31009G18KT P6SM OVC040 FM230800
                       29009KT P6SM OVC004=
202007220757 KCLM 220757Z 2208/2306 28009KT P6SM OVC010 FM222100 31010KT P6SM
                       SCT010 OVC040=
202007220534 TAF KCLM 220534Z 2206/2306 27012G18KT P6SM OVC005 FM220800 28009KT
                       P6SM OVC005 FM222100 31010KT P6SM SCT010
                       OVC040=
202007220322 KCLM 220322Z 2203/2224 30012G18KT P6SM BKN008
                      TEMPO 2203/2206 SCT008 FM220800 28009KT P6SM
                       OVC007 FM222100 31010KT P6SM SCT010 OVC020=
202007212324 TAF KCLM 212324Z 2200/2224 30012G18KT P6SM FEW250 FM220800 28009KT
                       P6SM OVC007 FM222100 31010KT P6SM SCT010
                       OVC020=
202007211728 TAF KCLM 211728Z 2118/2218 31012KT P6SM SCT250 FM220000 30012G18KT
                       P6SM SCT250 FM220800 28009KT P6SM OVC007=
202007211211 KCLM 211211Z 2112/2212 29008KT 2SM BR OVC002 FM211700 31012KT P6SM
                       SCT250 FM220900 28009KT P6SM OVC004=
202007211135 TAF KCLM 211135Z 2112/2212 29008KT P6SM OVC002 FM211700 31012KT
                       P6SM SCT250 FM220900 28009KT P6SM OVC004=
202007210943 KCLM 210943Z 2110/2206 29008KT P6SM SCT250
                      TEMPO 2110/2114 4SM BR BKN002 FM211800 31012KT
                       P6SM SCT250=
202007210525 TAF KCLM 210525Z 2106/2206 29008KT P6SM SCT250 FM211800 31012KT
                       P6SM SCT250=
202007202337 TAF KCLM 202337Z 2100/2124 02004KT P6SM SKC FM210200 30008KT P6SM
                       SKC FM210600 30012KT P6SM SCT250=
202007201735 TAF KCLM 201735Z 2018/2118 08008KT P6SM SKC FM202300 04006KT P6SM
                       SKC FM210400 30010KT P6SM SCT250=
202007201120 TAF KCLM 201120Z 2012/2112 VRB04KT P6SM SKC FM201600 04007KT P6SM
                       SKC FM202300 33007KT P6SM SKC FM210400 30010KT
                       P6SM SCT250=
202007200520 TAF KCLM 200520Z 2006/2106 VRB04KT P6SM SKC FM201600 04007KT P6SM
                       SKC FM202300 33007KT P6SM SKC=
202007192326 TAF KCLM 192326Z 2000/2024 03008KT P6SM SCT250 FM200200 32007KT
                       P6SM FEW250 FM200800 VRB04KT P6SM SKC FM201600
                       09008KT P6SM SKC=
202007191730 TAF KCLM 191730Z 1918/2018 04006KT P6SM FEW250 FM192300 30007KT
                       P6SM FEW250 FM201000 VRB04KT P6SM SKC=
202007191352 KCLM 191352Z 1914/2012 VRB03KT P6SM SCT002 FM191600 36007KT P6SM
                       SCT010 FM200100 29006KT P6SM SKC FM200800
                       28004KT 1SM BR BKN005=
202007191120 TAF KCLM 191120Z 1912/2012 VRB03KT 1/2SM FG VV002
                      TEMPO 1912/1916 1/4SM FG VV001 FM191600 36007KT
                       P6SM SCT010
                      TEMPO 1916/1918 1/2SM FG OVC005 FM200100
                       29006KT P6SM SKC FM200800 28004KT 1SM BR
                       BKN005=
202007191005 KCLM 191005Z 1910/2006 VRB03KT 1/2SM FG VV002 FM191200 VRB05KT
                       1SM BR OVC003
                      TEMPO 1912/1916 1/4SM FG VV001 FM191600 36007KT
                       P6SM SKC FM200100 29006KT P6SM SKC=
202007190528 KCLM 190528Z 1905/2006 29005KT P6SM OVC005 FM191200 VRB05KT 4SM
                       BR OVC003
                      TEMPO 1912/1916 1SM BR OVC001 FM191600 36007KT
                       P6SM SKC FM200100 29006KT P6SM SKC=
202007190520 TAF KCLM 190520Z 1906/2006 29005KT P6SM SCT005 FM191200 VRB05KT
                       P6SM SCT010
                      TEMPO 1912/1916 OVC005 FM191600 36007KT P6SM
                       SKC FM200100 29006KT P6SM SKC=
202007182320 TAF KCLM 182320Z 1900/1924 31008G15KT P6SM SKC FM190300 29007KT
                       P6SM SKC FM191200 VRB05KT P6SM SCT015=
202007181720 TAF KCLM 181720Z 1818/1918 VRB04KT P6SM SKC FM182100 31008G15KT
                       P6SM SKC FM190300 29007KT P6SM SKC FM191200
                       VRB03KT P6SM SCT015=
202007181347 KCLM 181347Z 1814/1912 23003KT P6SM SKC FM181800 VRB04KT P6SM SCT040
                       FM182100 33010KT P6SM FEW060 FM190300 30007KT
                       P6SM SKC=
202007181159 TAF KCLM 181159Z 1812/1912 26010KT P6SM SKC FM181300 25007KT P6SM
                       BKN010 FM181800 VRB04KT P6SM SCT040 FM182100
                       33010KT P6SM FEW060 FM190300 30007KT P6SM
                       SKC=
202007180555 TAF KCLM 180555Z 1806/1906 27006KT P6SM SKC FM181200 27005KT P6SM
                       BKN010 FM181800 VRB04KT P6SM SCT040 BKN120
                       FM182100 33010KT P6SM SCT120=
202007172320 TAF KCLM 172320Z 1800/1824 30010KT P6SM SCT040 FM181200 25005KT
                       P6SM BKN020 FM181900 VRB04KT P6SM SCT040
                       BKN120=
202007171720 TAF KCLM 171720Z 1718/1818 32010KT P6SM OVC030 FM172000 30010KT
                       P6SM BKN050 FM180100 29009KT P6SM SCT050
                       FM181200 25005KT P6SM BKN025=
202007171121 TAF KCLM 171121Z 1712/1812 27012KT P6SM OVC015
                      TEMPO 1712/1716 4SM -DZ OVC008 FM171800 32012KT
                       P6SM OVC020 FM172000 30010KT P6SM BKN050
                       FM180100 29009KT P6SM SCT050 SCT250=
202007170855 KCLM 170855Z 1709/1806 27012KT P6SM OVC010 FM171200 28010KT 4SM
                       -DZ OVC008 FM171800 32012KT P6SM OVC020
                       FM172000 30010KT P6SM BKN050=
202007170520 TAF KCLM 170520Z 1706/1806 27012KT P6SM OVC005 FM171200 28010KT
                       4SM -DZ OVC008 FM171800 32012KT P6SM OVC020
                       FM172000 30010KT P6SM BKN050=
202007170251 KCLM 170251Z 1703/1724 27014G18KT P6SM OVC009 FM170900 29010KT
                       P6SM OVC030 FM171200 28010KT 4SM -DZ OVC008
                       FM171800 32012KT P6SM OVC025 FM172000 32009G16KT
                       P6SM BKN050=
202007162338 TAF KCLM 162338Z 1700/1724 30008G16KT P6SM SCT015 OVC070 FM170900
                       29010KT P6SM OVC035 FM171200 28010KT 4SM
                       -DZ OVC008 FM171800 32012KT P6SM OVC025
                       FM172000 32012KT P6SM BKN050=
202007161738 TAF KCLM 161738Z 1618/1718 32008KT P6SM FEW120 FM162200 31010G20KT
                       P6SM OVC050 FM170900 29010KT P6SM OVC035
                       FM171200 28010KT 5SM -DZ OVC015=
202007161508 KCLM 161508Z 1615/1712 29008KT P6SM FEW002
                      TEMPO 1615/1617 4SM BR OVC002 FM161700 29008KT
                       P6SM BKN010 FM161800 31010KT P6SM BKN050
                       FM162200 31010G20KT P6SM OVC050 FM170900
                       29010KT P6SM OVC030=
202007161147 TAF KCLM 161147Z 1612/1712 29008KT 1SM BR OVC002 FM161700 29008KT
                       P6SM BKN010 FM161800 31010KT P6SM BKN050
                       FM162200 31010G20KT P6SM OVC050 FM170900
                       29010KT P6SM OVC030=
202007160919 KCLM 160919Z 1609/1706 29008KT P6SM SCT001
                      TEMPO 1609/1613 1SM BR BKN001 FM161500 29008KT
                       P6SM BKN010 FM161700 31012KT P6SM OVC050=
202007160830 KCLM 160830Z 1609/1706 29008KT 1SM BR BKN001 FM161500 29008KT P6SM
                       BKN010 FM161700 31012KT P6SM OVC050=
202007160558 TAF KCLM 160558Z 1606/1706 27008KT P6SM SCT005 FM160700 29008KT
                       P6SM BKN005 FM161700 31012KT P6SM OVC050=
202007152320 TAF KCLM 152320Z 1600/1624 31010KT P6SM FEW120 FM160800 29008KT
                       P6SM BKN015 FM161700 31012KT P6SM BKN050=
202007151723 TAF KCLM 151723Z 1518/1618 32008KT P6SM SKC FM152200 31010G21KT
                       P6SM FEW120 FM160800 29008KT P6SM BKN020=
202007151431 KCLM 151431Z 1515/1612 29010KT P6SM SKC FM151700 VRB04KT P6SM SKC
                       FM151800 32008KT P6SM SKC FM152200 31010G21KT
                       P6SM FEW120 FM160800 29008KT P6SM BKN020=
202007151318 KCLM 151318Z 1513/1612 29010KT P6SM SCT003
                      TEMPO 1513/1515 BKN004 FM151500 27007KT P6SM
                       SKC FM151700 VRB04KT P6SM SKC FM151800 32008KT
                       P6SM SKC FM152200 31010G21KT P6SM FEW120
                       FM160800 29008KT P6SM BKN020=
202007151144 TAF KCLM 151144Z 1512/1612 29008KT P6SM OVC004 FM151500 27007KT
                       P6SM OVC008 FM151700 VRB04KT P6SM BKN015
                       FM151800 32008KT P6SM SKC FM152200 31010G21KT
                       P6SM FEW120 FM160800 29008KT P6SM BKN020=
202007150557 TAF KCLM 150557Z 1506/1606 30007KT P6SM BKN150 FM152200 31010G21KT
                       P6SM FEW150=
202007142323 TAF KCLM 142323Z 1500/1524 30008KT P6SM SKC FM150500 30007KT P6SM
                       BKN150 FM152200 31010G21KT P6SM FEW150=
202007141723 TAF KCLM 141723Z 1418/1518 35007KT P6SM SKC FM150000 30008G14KT
                       P6SM SKC FM150500 30007KT P6SM OVC250=
202007141128 TAF KCLM 141128Z 1412/1512 VRB03KT P6SM SKC FM142200 27008KT P6SM
                       SKC=
202007140536 TAF KCLM 140536Z 1406/1506 28008KT P6SM SKC=
202007132335 TAF KCLM 132335Z 1400/1424 26008KT P6SM SKC FM140400 29009KT P6SM
                       SKC=
202007131721 TAF KCLM 131721Z 1318/1418 26008KT P6SM SKC FM140400 29009KT P6SM
                       SKC=
202007131120 TAF KCLM 131120Z 1312/1412 26008KT P6SM SKC=
202007130525 TAF KCLM 130525Z 1306/1406 26008KT P6SM SCT250=
202007122320 TAF KCLM 122320Z 1300/1324 30012G22KT P6SM SKC FM131200 21005KT
                       P6SM SKC=
202007121720 TAF KCLM 121720Z 1218/1318 30010KT P6SM BKN035 FM130000 28014KT
                       P6SM SCT050 FM131200 21005KT P6SM SKC=
202007121135 TAF KCLM 121135Z 1212/1312 26010KT P6SM SCT010 BKN020 OVC030 FM121500
                       26010KT P6SM SCT030 BKN050 FM122200 26010KT
                       P6SM SCT050=
202007120908 KCLM 120908Z 1209/1306 26006KT 4SM BR OVC004 FM121200 26006KT P6SM
                       SCT004 BKN008 FM121500 26010KT P6SM SCT030
                       BKN050 FM122200 26010KT P6SM SCT050=
202007120532 TAF KCLM 120532Z 1206/1306 26006KT P6SM SCT025 OVC040 FM121600
                       26010KT P6SM SCT030 BKN050 FM122200 26010KT
                       P6SM SCT050=
202007112320 TAF KCLM 112320Z 1200/1224 30007KT P6SM -SHRA BKN040 OVC090 FM120600
                       26012KT P6SM VCSH BKN030 FM121800 VRB04KT
                       P6SM SCT030 BKN060=
202007111720 TAF KCLM 111720Z 1118/1218 27007KT P6SM OVC030 FM112200 26008KT
                       5SM -RA BR OVC020 FM120600 26012KT P6SM
                       VCSH BKN030=
202007111422 KCLM 111422Z 1114/1212 24004KT P6SM SCT028 OVC150
                      TEMPO 1114/1118 BKN028 OVC150 FM111800 VRB03KT
                       P6SM BKN040 OVC090 FM112200 26008KT P6SM
                       -RA OVC040 FM120600 26012KT P6SM VCSH BKN030=
202007111133 TAF KCLM 111133Z 1112/1212 26006KT P6SM BKN250 FM111700 VRB03KT
                       P6SM BKN100 OVC200 FM112200 26008KT P6SM
                       -SHRA OVC040 FM120600 26012KT P6SM SCT030
                       BKN050=
202007110540 TAF KCLM 110540Z 1106/1206 26006KT P6SM SCT250 FM111700 VRB03KT
                       P6SM BKN100 OVC200 FM112200 26008KT P6SM
                       -SHRA OVC040=
202007102320 TAF KCLM 102320Z 1100/1124 27007KT P6SM SCT035 FM110600 29010KT
                       P6SM SKC FM111200 VRB03KT P6SM SCT010 FM111600
                       21005KT P6SM BKN120 BKN200 FM111900 28008KT
                       P6SM BKN050 BKN090 FM112200 28012KT P6SM
                       -SHRA SCT025 OVC050=
202007102102 KCLM 102102Z 1021/1118 31007KT P6SM OVC030 FM102300 31007KT P6SM
                       SCT035 FM110600 31007KT P6SM SKC FM111200
                       VRB03KT P6SM SCT010 FM111600 21005KT P6SM
                       SCT030=
202007101732 TAF KCLM 101732Z 1018/1118 31007KT P6SM OVC025 FM102100 31007KT
                       P6SM SCT035 FM110600 31007KT P6SM SKC FM111200
                       VRB03KT P6SM SCT010 FM111600 21005KT P6SM
                       SCT030=
202007101120 TAF KCLM 101120Z 1012/1112 26007KT P6SM OVC025 FM101800 31005KT
                       P6SM SCT030 SCT200 FM102100 33009KT P6SM
                       SCT200 FM110300 29006KT P6SM SKC=
202007100526 TAF KCLM 100526Z 1006/1106 29010KT P6SM BKN025 OVC045 FM101100
                       25007KT P6SM SCT025 SCT200 FM101800 31005KT
                       P6SM SCT200 FM102100 33009KT P6SM SCT200
                       FM110300 29009KT P6SM SKC=
202007092328 TAF KCLM 092328Z 1000/1024 29010KT P6SM BKN025 OVC045 FM100900
                       25007KT P6SM SCT025 SCT250 FM101800 31005KT
                       P6SM SCT250=
202007091728 TAF KCLM 091728Z 0918/1018 30005KT P6SM VCSH OVC015 FM092100 31007KT
                       P6SM VCSH SCT020 BKN050 FM100000 29010KT
                       P6SM SCT030 BKN060 FM100900 25007KT P6SM
                       SCT025 SCT250=
202007091120 TAF KCLM 091120Z 0912/1012 VRB03KT 6SM -SHRA BKN012 OVC025 FM092000
                       30008KT P6SM VCSH BKN025 FM100000 29010KT
                       P6SM SCT030 BKN060 FM100900 28007KT P6SM
                       BKN030=
202007090531 TAF KCLM 090531Z 0906/1006 29006KT P6SM VCSH OVC050 FM090800 25004KT
                       6SM -SHRA OVC035 FM091100 VRB03KT 6SM -SHRA
                       BKN012 OVC025 FM092200 30008KT P6SM VCSH
                       BKN025 FM100100 29010KT P6SM SCT030 BKN060=
202007082324 TAF KCLM 082324Z 0900/0924 33005KT P6SM BKN050 OVC200 FM090500
                       29006KT P6SM VCSH OVC040 FM090800 25004KT
                       6SM -SHRA OVC030 FM091300 VRB03KT 6SM -SHRA
                       BKN009 OVC015 FM092200 30008KT P6SM VCSH
                       BKN025=
202007081728 TAF KCLM 081728Z 0818/0918 30005KT P6SM BKN050 FM090500 29006KT
                       P6SM VCSH OVC040 FM090800 29005KT 6SM -SHRA
                       SCT007 OVC025=
202007081133 TAF KCLM 081133Z 0812/0912 26004KT P6SM SCT040 FM081600 26008KT
                       P6SM SCT040 BKN060=
202007080859 KCLM 080859Z 0809/0906 26004KT P6SM SCT040 FM081600 26008KT P6SM
                       SCT030 BKN050=
202007080534 TAF KCLM 080534Z 0806/0906 26008KT P6SM BKN030 FM081900 26008KT
                       P6SM SCT030 BKN050=
202007072324 TAF KCLM 072324Z 0800/0824 30012KT P6SM VCSH FEW030 BKN060 FM080800
                       25008KT P6SM OVC030 FM082000 30007KT P6SM
                       BKN050=
202007071736 TAF KCLM 071736Z 0718/0818 28007KT P6SM OVC050 FM072100 28012KT
                       P6SM BKN060 FM080600 25008KT P6SM OVC040=
202007071135 TAF KCLM 071135Z 0712/0812 25008KT P6SM OVC040 FM072100 28012KT
                       P6SM BKN040 BKN060 FM080600 25008KT P6SM
                       OVC040=
202007070535 TAF KCLM 070535Z 0706/0806 27008KT P6SM OVC040 FM072100 27012KT
                       P6SM BKN040 BKN060=
202007062323 TAF KCLM 062323Z 0700/0724 29012G18KT P6SM SCT060 SCT200 FM070800
                       28008KT P6SM VCSH OVC022 FM072100 31009KT
                       P6SM VCSH BKN030=
202007061727 TAF KCLM 061727Z 0618/0718 30007KT P6SM BKN028 FM062000 31009KT
                       P6SM SCT040 SCT200 FM070000 29012G18KT P6SM
                       SCT060 SCT200 FM070800 28008KT P6SM VCSH
                       OVC030=
202007061120 TAF KCLM 061120Z 0612/0712 23004KT P6SM SCT050 BKN250 FM061700
                       VRB04KT P6SM BKN040 BKN200 FM062200 28012KT
                       P6SM OVC040 FM070700 28012KT P6SM VCSH OVC025=
202007060524 TAF KCLM 060524Z 0606/0706 26008KT P6SM BKN060 FM061200 27006KT
                       P6SM BKN050 FM062100 32008KT P6SM BKN050
                       OVC250=
202007052324 TAF KCLM 052324Z 0600/0624 30008KT P6SM OVC070 FM060400 28008KT
                       P6SM BKN070 FM061100 27006KT P6SM BKN050
                       FM062100 32008KT P6SM BKN050 OVC250=
202007051723 TAF KCLM 051723Z 0518/0618 32007KT P6SM SKC FM052200 30008KT P6SM
                       SCT250 FM061100 29007KT P6SM BKN050=
202007051120 TAF KCLM 051120Z 0512/0612 25004KT P6SM SKC FM052200 30008KT P6SM
                       SCT050=
202007050520 TAF KCLM 050520Z 0506/0606 26006KT P6SM FEW060 FM051000 21005KT
                       P6SM BKN050 FM052200 30008KT P6SM SCT050=
202007042323 TAF KCLM 042323Z 0500/0524 30007KT P6SM SCT030 OVC050 FM050400
                       29005KT P6SM SCT050 SCT250 FM051000 28007KT
                       P6SM SCT010 BKN050 FM052200 32008KT P6SM
                       SCT050 BKN250=
202007041735 TAF KCLM 041735Z 0418/0518 34004KT P6SM OVC040 FM042200 30007KT
                       P6SM BKN050 FM050200 29005KT P6SM SCT050
                       SCT250=
202007041120 TAF KCLM 041120Z 0412/0512 VRB04KT P6SM BKN035 FM042200 30007KT
                       P6SM SCT050=
202007040814 KCLM 040814Z 0408/0506 00000KT P6SM BKN022 OVC050 FM041000 VRB04KT
                       P6SM SCT025 BKN050 FM042200 30007KT P6SM
                       SCT050=
202007040522 TAF KCLM 040522Z 0406/0506 00000KT P6SM BKN080 FM041000 VRB04KT
                       P6SM BKN050 FM042200 30007KT P6SM SCT050=
202007032322 TAF KCLM 032322Z 0400/0424 VRB05KT P6SM VCSH OVC017 FM040800 VRB03KT
                       P6SM SCT020 BKN040 FM041500 29007KT P6SM
                       SCT020 BKN040=
202007031720 TAF KCLM 031720Z 0318/0418 08006KT P6SM -SHRA SCT020 BKN030 OVC060
                       FM032200 27007KT P6SM VCSH SCT025 BKN035
                       FM040800 VRB03KT P6SM SCT020 BKN040=
202007031303 KCLM 031303Z 0313/0412 00000KT P6SM -RA SCT008 OVC015
                      TEMPO 0313/0317 5SM -RA BR BKN008 OVC015
                       FM031800 VRB04KT P6SM -SHRA BKN020 OVC040
                       FM032200 27007KT P6SM VCSH BKN025 BKN050
                       FM040800 VRB03KT P6SM SCT025 BKN050=
202007031120 TAF KCLM 031120Z 0312/0412 00000KT P6SM OVC017 FM031500 00000KT
                       5SM -RA OVC015 FM032200 27007KT P6SM VCSH
                       BKN025 BKN050 FM040800 VRB03KT P6SM SCT025
                       BKN050=
202007030520 TAF KCLM 030520Z 0306/0406 00000KT P6SM OVC035 FM031200 29003KT
                       5SM -RA OVC025 FM031800 34006KT 5SM -RA
                       OVC020=
202007022320 TAF KCLM 022320Z 0300/0324 28010KT P6SM OVC030 FM030500 27006KT
                       P6SM OVC050 FM031200 29003KT 5SM -RA OVC025
                       FM031800 34006KT 5SM -RA OVC020=
202007021721 TAF KCLM 021721Z 0218/0318 31010G17KT P6SM OVC020 FM030000 30010G20KT
                       P6SM OVC030 FM030500 27006KT P6SM OVC050
                       FM031200 29003KT P6SM OVC040
                      PROB30 0312/0316 5SM -RA OVC040=
202007021134 TAF KCLM 021134Z 0212/0312 28008KT P6SM SCT015 OVC030 FM021600
                       31008G16KT P6SM OVC020 FM030000 30008G16KT
                       P6SM OVC030 FM030800 27006KT P6SM OVC050=
202007020534 TAF KCLM 020534Z 0206/0306 29008KT P6SM FEW012 BKN040 OVC080 FM020700
                       28008KT P6SM OVC035 FM021300 28010KT P6SM
                       OVC020 FM030000 30010G16KT P6SM OVC050=
202007012324 TAF KCLM 012324Z 0200/0224 32009KT P6SM BKN040 FM020700 28008KT
                       P6SM OVC025 FM021200 28010KT P6SM OVC020
                       FM021800 31010KT P6SM OVC050=
202007011727 TAF KCLM 011727Z 0118/0218 32004KT P6SM SCT020 OVC050 FM020200
                       30010G19KT P6SM OVC050 FM020700 28008KT
                       P6SM OVC025 FM021000 28010KT P6SM OVC015=
202007011129 TAF KCLM 011129Z 0112/0212 VRB05KT P6SM BKN010 OVC090 FM011500
                       28006KT P6SM OVC025 FM012000 34006KT P6SM
                       OVC050 FM020200 30010G20KT P6SM OVC050 FM020700
                       28008KT P6SM OVC025 FM021000 28010KT P6SM
                       OVC015=
202007010524 TAF KCLM 010524Z 0106/0206 28010KT P6SM SCT015 BKN080 FM011200
                       27005KT P6SM OVC015 FM011900 34007KT P6SM
                       OVC050 FM020000 31010G18KT P6SM OVC050=