##########################################################
# Query made at 02/16/2025 04:34:31 UTC
# Time interval: from 05/01/2020 00:00  to 05/31/2020 23:59  UTC
##########################################################

##########################################################
# KCLM, Port Angeles, William R. Fairchild International Airport (United States)
# WMO index: -----. WIGOS ID: Unknown
# Latitude 48-07-20N. Longitude 123-30-19W. Altitude 87 m.
##########################################################

###################################
#  METAR/SPECI from KCLM
###################################
202005312353 METAR KCLM 312353Z AUTO 29009KT 10SM OVC046 12/07 A3014 RMK AO2 SLP207 T01220067 10144 20122 51008=
202005312253 METAR KCLM 312253Z AUTO 31011G19KT 10SM SCT050 BKN060 12/07 A3013 RMK AO2 SLP204 T01220067=
202005312153 METAR KCLM 312153Z AUTO 28012G16KT 10SM FEW060 14/07 A3013 RMK AO2 SLP203 T01390072=
202005312053 METAR KCLM 312053Z AUTO 28011G18KT 10SM FEW065 14/08 A3012 RMK AO2 SLP199 T01440078 53019=
202005311953 METAR KCLM 311953Z AUTO 31014G24KT 10SM CLR 13/07 A3010 RMK AO2 SLP193 T01330067=
202005311853 METAR KCLM 311853Z AUTO 30014G21KT 10SM CLR 13/08 A3007 RMK AO2 SLP184 T01330078=
202005311753 METAR KCLM 311753Z AUTO 32010G20KT 290V360 10SM CLR 13/07 A3006 RMK AO2 SLP180 T01330072 10139 20094 51013=
202005311653 METAR KCLM 311653Z AUTO 30012G20KT 10SM FEW055 13/06 A3006 RMK AO2 SLP179 T01280056=
202005311553 METAR KCLM 311553Z AUTO 30011G19KT 10SM OVC050 12/06 A3004 RMK AO2 SLP175 T01220061=
202005311453 METAR KCLM 311453Z AUTO 30012G19KT 10SM CLR 12/06 A3002 RMK AO2 SLP166 T01220056 51012=
202005311353 METAR KCLM 311353Z AUTO 27008KT 10SM FEW050 11/05 A3001 RMK AO2 SLP165 T01110050=
202005311253 METAR KCLM 311253Z AUTO 26009KT 10SM FEW047 10/04 A2999 RMK AO2 SLP157 T01000039=
202005311153 METAR KCLM 311153Z AUTO 27010KT 10SM CLR 10/04 A2998 RMK AO2 SLP154 70010 T01000044 10106 20100 53018=
202005311053 METAR KCLM 311053Z AUTO 28011KT 10SM CLR 10/06 A2996 RMK AO2 SLP147 T01000056=
202005310953 METAR KCLM 310953Z AUTO 27010KT 10SM CLR 10/06 A2994 RMK AO2 SLP140 T01000056=
202005310853 METAR KCLM 310853Z AUTO 28008KT 10SM CLR 10/06 A2993 RMK AO2 SLP136 T01000056 51008=
202005310753 METAR KCLM 310753Z AUTO 26007KT 10SM CLR 10/06 A2993 RMK AO2 SLP135 T01000056 401390094=
202005310653 METAR KCLM 310653Z AUTO 27010KT 10SM CLR 11/06 A2991 RMK AO2 SLP129 T01060056=
202005310553 METAR KCLM 310553Z AUTO 28009KT 10SM SCT110 11/07 A2991 RMK AO2 SLP128 60010 T01060067 10111 20100 53003=
202005310453 METAR KCLM 310453Z AUTO 27012KT 10SM FEW110 11/07 A2990 RMK AO2 SLP126 T01060072=
202005310353 METAR KCLM 310353Z AUTO 27011KT 10SM SCT035 11/08 A2989 RMK AO2 RAE0259 SLP121 P0000 T01060078=
202005310330 SPECI KCLM 310330Z AUTO 25009KT 10SM OVC031 11/08 A2988 RMK AO2 RAE0259 P0000 T01060083=
202005310253 METAR KCLM 310253Z AUTO 27009KT 10SM -RA OVC027 11/09 A2990 RMK AO2 RAB02 SLP124 P0001 60010 T01060089 50020=
202005310215 SPECI KCLM 310215Z AUTO 24005KT 8SM -RA BKN027 OVC085 11/09 A2991 RMK AO2 RAB02 P0000 T01060089=
202005310153 METAR KCLM 310153Z AUTO 26008KT 10SM OVC090 11/09 A2990 RMK AO2 RAE53 PRESRR SLP126 P0003 T01060089=
202005310053 METAR KCLM 310053Z AUTO 29013KT 5SM -RA BR OVC090 11/09 A2986 RMK AO2 SLP113 P0006 T01060094=
202005302353 METAR KCLM 302353Z AUTO 27013G20KT 10SM -RA OVC095 11/09 A2984 RMK AO2 RAE21B40 SLP104 P0000 60000 T01110089 10139 20111 55002=
202005302253 METAR KCLM 302253Z AUTO 28015G18KT 10SM -RA FEW075 BKN100 OVC110 12/10 A2982 RMK AO2 RAB39 SLP099 P0000 T01170100=
202005302153 METAR KCLM 302153Z AUTO 29013G18KT 10SM OVC095 12/09 A2984 RMK AO2 RAB09E48 SLP104 P0000 T01170094=
202005302053 METAR KCLM 302053Z AUTO 35003KT 10SM OVC100 13/10 A2984 RMK AO2 SLP106 T01330100 55004=
202005301953 METAR KCLM 301953Z AUTO 28006KT 10SM BKN090 BKN120 13/09 A2983 RMK AO2 SLP103 T01280094=
202005301900 SPECI KCLM 301900Z AUTO 29007KT 10SM SCT014 BKN085 12/09 A2984 RMK AO2 T01220094=
202005301853 METAR KCLM 301853Z AUTO 30009KT 10SM BKN014 12/09 A2984 RMK AO2 SLP106 T01220094=
202005301757 SPECI KCLM 301757Z AUTO 28008KT 10SM SCT015 13/09 A2985 RMK AO2 T01280094=
202005301753 METAR KCLM 301753Z AUTO 28007KT 10SM BKN014 13/09 A2985 RMK AO2 SLP110 T01280094 10128 20100 50014=
202005301740 SPECI KCLM 301740Z AUTO 31007KT 10SM SCT009 OVC014 12/09 A2986 RMK AO2 T01170094=
202005301653 METAR KCLM 301653Z AUTO 31005KT 10SM BKN007 BKN090 OVC110 11/09 A2987 RMK AO2 SLP116 T01060089=
202005301634 SPECI KCLM 301634Z AUTO 30004KT 10SM FEW007 SCT100 11/09 A2987 RMK AO2 PRESRR T01060089=
202005301553 METAR KCLM 301553Z AUTO 31006KT 10SM CLR 11/08 A2982 RMK AO2 SLP099 T01110083=
202005301453 METAR KCLM 301453Z AUTO 28006KT 10SM BKN095 12/08 A2981 RMK AO2 SLP096 T01170078 58009=
202005301353 METAR KCLM 301353Z AUTO 29005KT 10SM OVC095 11/07 A2983 RMK AO2 SLP101 T01110072=
202005301253 METAR KCLM 301253Z AUTO 28006KT 10SM OVC100 10/07 A2983 RMK AO2 SLP101 T01000072=
202005301153 METAR KCLM 301153Z AUTO 28010KT 10SM CLR 10/07 A2984 RMK AO2 SLP105 T01000072 10117 20094 58004=
202005301053 METAR KCLM 301053Z AUTO 29008KT 10SM CLR 10/07 A2984 RMK AO2 SLP103 T01000072=
202005300953 METAR KCLM 300953Z AUTO 30008KT 10SM CLR 10/07 A2986 RMK AO2 SLP111 T01000067=
202005300853 METAR KCLM 300853Z AUTO 28007KT 10SM CLR 11/06 A2985 RMK AO2 SLP108 T01060061 55011=
202005300753 METAR KCLM 300753Z AUTO 28006KT 10SM CLR 11/06 A2984 RMK AO2 SLP106 T01110061 401610106=
202005300653 METAR KCLM 300653Z AUTO 28009KT 10SM CLR 12/06 A2987 RMK AO2 SLP115 T01170061=
202005300553 METAR KCLM 300553Z AUTO 27010KT 10SM CLR 12/07 A2988 RMK AO2 SLP119 T01170067 10161 20111 56007=
202005300453 METAR KCLM 300453Z AUTO 28010KT 10SM CLR 12/07 A2988 RMK AO2 SLP120 T01170067=
202005300353 METAR KCLM 300353Z AUTO 27011KT 10SM CLR 12/07 A2989 RMK AO2 SLP121 T01170067=
202005300253 METAR KCLM 300253Z AUTO 28013G19KT 10SM CLR 13/07 A2991 RMK AO2 SLP127 T01280067 56011=
202005300153 METAR KCLM 300153Z AUTO 28009KT 10SM CLR 13/07 A2991 RMK AO2 SLP127 T01330072=
202005300053 METAR KCLM 300053Z AUTO 29010G16KT 10SM CLR 15/08 A2992 RMK AO2 SLP132 T01500083=
202005292353 METAR KCLM 292353Z AUTO 30010KT 10SM CLR 16/08 A2994 RMK AO2 SLP138 T01560083 10161 20128 56011=
202005292253 METAR KCLM 292253Z AUTO 30011G18KT 10SM CLR 16/09 A2995 RMK AO2 SLP141 T01560089=
202005292153 METAR KCLM 292153Z AUTO 30008G15KT 10SM CLR 16/09 A2996 RMK AO2 SLP144 T01610094=
202005292053 METAR KCLM 292053Z AUTO 30012KT 10SM CLR 14/09 A2997 RMK AO2 SLP149 T01440094 58005=
202005291953 METAR KCLM 291953Z AUTO 28012G17KT 10SM CLR 15/09 A2998 RMK AO2 SLP151 T01500094=
202005291853 METAR KCLM 291853Z AUTO 30009KT 10SM CLR 14/09 A2998 RMK AO2 SLP153 T01390094=
202005291753 METAR KCLM 291753Z AUTO 31007KT 10SM CLR 13/09 A2999 RMK AO2 SLP154 T01330094 10133 20111 58003=
202005291653 METAR KCLM 291653Z AUTO 30013G17KT 10SM CLR 13/09 A3000 RMK AO2 SLP158 T01280089=
202005291553 METAR KCLM 291553Z AUTO 29009KT 10SM CLR 13/09 A3000 RMK AO2 SLP158 T01280089=
202005291453 METAR KCLM 291453Z AUTO 30008KT 10SM CLR 13/09 A2999 RMK AO2 SLP157 T01280094 52008=
202005291353 METAR KCLM 291353Z AUTO 28012KT 10SM CLR 12/10 A2999 RMK AO2 SLP154 T01220100=
202005291253 METAR KCLM 291253Z AUTO 27013KT 10SM CLR 11/10 A2998 RMK AO2 SLP151 T01110100=
202005291153 METAR KCLM 291153Z AUTO 28011KT 10SM CLR 11/10 A2997 RMK AO2 SLP147 T01110100 10144 20106 50002=
202005291053 METAR KCLM 291053Z AUTO 27009KT 10SM CLR 11/09 A2997 RMK AO2 SLP148 T01060094=
202005290953 METAR KCLM 290953Z AUTO 29006KT 10SM CLR 11/09 A2997 RMK AO2 SLP148 T01110094=
202005290853 METAR KCLM 290853Z AUTO 28008KT 10SM CLR 12/09 A2996 RMK AO2 SLP146 T01170089 50001=
202005290753 METAR KCLM 290753Z AUTO 30007KT 10SM CLR 13/08 A2997 RMK AO2 SLP148 T01280083 402440083=
202005290653 METAR KCLM 290653Z AUTO 29006KT 10SM CLR 13/08 A2997 RMK AO2 SLP149 T01280083=
202005290553 METAR KCLM 290553Z AUTO 29004KT 10SM CLR 14/07 A2996 RMK AO2 SLP145 T01390072 10244 20133 56008=
202005290453 METAR KCLM 290453Z AUTO 30004KT 10SM CLR 15/06 A2997 RMK AO2 SLP146 T01500061=
202005290353 METAR KCLM 290353Z AUTO 27007KT 10SM CLR 16/07 A2997 RMK AO2 SLP147 T01560067=
202005290253 METAR KCLM 290253Z AUTO 27007KT 10SM CLR 15/08 A2998 RMK AO2 SLP153 T01500078 55005=
202005290153 METAR KCLM 290153Z AUTO 29006KT 10SM CLR 18/08 A2998 RMK AO2 SLP153 T01780083=
202005290053 METAR KCLM 290053Z AUTO 36003KT 10SM FEW100 23/06 A2999 RMK AO2 SLP155 T02330061=
202005282353 METAR KCLM 282353Z AUTO 00000KT 10SM CLR 24/07 A3000 RMK AO2 SLP158 T02440067 10244 20200 58019=
202005282253 METAR KCLM 282253Z AUTO VRB03KT 10SM CLR 23/05 A3002 RMK AO2 SLP166 T02280050=
202005282153 METAR KCLM 282153Z AUTO 07006KT 10SM CLR 22/07 A3004 RMK AO2 SLP172 T02170067=
202005282053 METAR KCLM 282053Z AUTO 07007KT 10SM CLR 21/08 A3005 RMK AO2 SLP177 T02110078 56008=
202005281953 METAR KCLM 281953Z AUTO 07008KT 10SM CLR 21/08 A3006 RMK AO2 SLP180 T02060083=
202005281853 METAR KCLM 281853Z AUTO 06008KT 10SM CLR 21/07 A3007 RMK AO2 SLP182 T02110067=
202005281753 METAR KCLM 281753Z AUTO VRB04KT 10SM CLR 20/07 A3008 RMK AO2 SLP185 T02000067 10200 20083 55001=
202005281653 METAR KCLM 281653Z AUTO 10007KT 10SM CLR 20/07 A3007 RMK AO2 SLP182 T02000072=
202005281553 METAR KCLM 281553Z AUTO 10004KT 10SM CLR 18/07 A3009 RMK AO2 SLP188 T01830067=
202005281453 METAR KCLM 281453Z AUTO 00000KT 10SM CLR 15/09 A3008 RMK AO2 SLP187 T01500089 52004=
202005281353 METAR KCLM 281353Z AUTO 22004KT 10SM CLR 13/07 A3008 RMK AO2 SLP187 T01280067=
202005281253 METAR KCLM 281253Z AUTO 22006KT 10SM CLR 10/04 A3007 RMK AO2 SLP182 T01000039=
202005281153 METAR KCLM 281153Z AUTO 00000KT 10SM CLR 09/02 A3007 RMK AO2 SLP182 T00940022 10117 20083 55005=
202005281053 METAR KCLM 281053Z AUTO 00000KT 10SM CLR 09/03 A3007 RMK AO2 SLP182 T00890033=
202005280953 METAR KCLM 280953Z AUTO 18003KT 10SM CLR 09/04 A3007 RMK AO2 SLP184 T00940039=
202005280853 METAR KCLM 280853Z AUTO 00000KT 10SM CLR 11/05 A3008 RMK AO2 SLP187 T01110050 56007=
202005280753 METAR KCLM 280753Z AUTO 00000KT 10SM CLR 11/05 A3009 RMK AO2 SLP191 T01060050 402110050=
202005280653 METAR KCLM 280653Z AUTO 00000KT 10SM CLR 11/05 A3009 RMK AO2 SLP190 T01060050=
202005280553 METAR KCLM 280553Z AUTO 20004KT 10SM CLR 11/04 A3011 RMK AO2 SLP195 T01060044 10211 20106 58008=
202005280453 METAR KCLM 280453Z AUTO 00000KT 10SM CLR 13/04 A3012 RMK AO2 SLP199 T01330044=
202005280353 METAR KCLM 280353Z AUTO 00000KT 10SM CLR 15/04 A3012 RMK AO2 SLP201 T01500044=
202005280253 METAR KCLM 280253Z AUTO 15003KT 10SM CLR 19/02 A3013 RMK AO2 SLP203 T01940022 56007=
202005280153 METAR KCLM 280153Z AUTO 09003KT 10SM CLR 20/01 A3013 RMK AO2 SLP203 T02000006=
202005280053 METAR KCLM 280053Z AUTO 07005KT 10SM CLR 21/M01 A3014 RMK AO2 SLP206 T02061006=
202005272353 METAR KCLM 272353Z AUTO 09005KT 10SM CLR 21/01 A3015 RMK AO2 SLP210 T02060006 10211 20156 58015=
202005272253 METAR KCLM 272253Z AUTO 09005KT 10SM CLR 19/04 A3017 RMK AO2 SLP215 T01940044=
202005272153 METAR KCLM 272153Z AUTO 07006KT 10SM CLR 18/07 A3019 RMK AO2 SLP222 T01830067=
202005272053 METAR KCLM 272053Z AUTO VRB06KT 10SM CLR 18/08 A3020 RMK AO2 SLP225 T01830083 58006=
202005271953 METAR KCLM 271953Z AUTO 08006KT 10SM CLR 17/09 A3021 RMK AO2 SLP228 T01720094=
202005271853 METAR KCLM 271853Z AUTO 06007KT 360V090 10SM CLR 17/09 A3022 RMK AO2 SLP232 T01670089=
202005271753 METAR KCLM 271753Z AUTO 07006KT 10SM CLR 17/09 A3021 RMK AO2 SLP231 T01670094 10167 20050 50002=
202005271653 METAR KCLM 271653Z AUTO VRB04KT 10SM CLR 15/08 A3022 RMK AO2 SLP232 T01500083=
202005271553 METAR KCLM 271553Z AUTO 09005KT 10SM CLR 15/08 A3022 RMK AO2 SLP232 T01500083=
202005271453 METAR KCLM 271453Z AUTO 09005KT 10SM CLR 14/08 A3021 RMK AO2 SLP229 T01390083 51010=
202005271353 METAR KCLM 271353Z AUTO 21004KT 10SM CLR 10/09 A3020 RMK AO2 SLP229 T01000089=
202005271253 METAR KCLM 271253Z AUTO 17005KT 10SM CLR 07/06 A3020 RMK AO2 SLP226 T00670056=
202005271153 METAR KCLM 271153Z AUTO 00000KT 10SM CLR 07/06 A3018 RMK AO2 SLP220 T00670056 10100 20061 50001=
202005271053 METAR KCLM 271053Z AUTO 00000KT 7SM CLR 07/06 A3018 RMK AO2 SLP221 T00670061=
202005270953 METAR KCLM 270953Z AUTO 00000KT 10SM CLR 07/07 A3018 RMK AO2 SLP221 T00670067=
202005270853 METAR KCLM 270853Z AUTO 00000KT 10SM CLR 07/07 A3017 RMK AO2 SLP219 T00720067 58004=
202005270753 METAR KCLM 270753Z AUTO 00000KT 10SM CLR 08/08 A3018 RMK AO2 SLP221 T00830078 401560078=
202005270653 METAR KCLM 270653Z AUTO 26004KT 10SM CLR 08/08 A3018 RMK AO2 SLP222 T00830078=
202005270553 METAR KCLM 270553Z AUTO 22003KT 10SM CLR 09/08 A3019 RMK AO2 SLP223 T00890078 10144 20083 53002=
202005270453 METAR KCLM 270453Z AUTO 00000KT 10SM CLR 10/07 A3019 RMK AO2 SLP223 T01000067=
202005270353 METAR KCLM 270353Z AUTO 25005KT 10SM CLR 11/08 A3018 RMK AO2 SLP221 T01060083=
202005270253 METAR KCLM 270253Z AUTO 29007KT 10SM CLR 12/09 A3018 RMK AO2 SLP221 T01220089 55003=
202005270153 METAR KCLM 270153Z AUTO 29006KT 10SM CLR 13/09 A3018 RMK AO2 SLP220 T01330089=
202005270053 METAR KCLM 270053Z AUTO VRB04KT 10SM CLR 14/09 A3019 RMK AO2 SLP222 T01390094=
202005262353 METAR KCLM 262353Z AUTO 36006KT 10SM CLR 15/09 A3019 RMK AO2 SLP224 T01500089 10156 20128 51001=
202005262253 METAR KCLM 262253Z AUTO VRB06KT 10SM CLR 14/09 A3019 RMK AO2 SLP223 T01440089=
202005262153 METAR KCLM 262153Z AUTO VRB06KT 10SM CLR 15/09 A3019 RMK AO2 SLP224 T01500089=
202005262053 METAR KCLM 262053Z AUTO 01006KT 10SM CLR 14/09 A3019 RMK AO2 SLP223 T01440089 51003=
202005261953 METAR KCLM 261953Z AUTO 35006KT 10SM CLR 14/09 A3019 RMK AO2 SLP223 T01390089=
202005261853 METAR KCLM 261853Z AUTO 33007KT 300V360 10SM CLR 14/09 A3018 RMK AO2 SLP221 T01390094=
202005261753 METAR KCLM 261753Z AUTO VRB05KT 10SM CLR 13/09 A3018 RMK AO2 SLP220 T01330094 10139 20094 53002=
202005261653 METAR KCLM 261653Z AUTO 32007KT 10SM OVC038 12/09 A3018 RMK AO2 SLP219 T01220089=
202005261553 METAR KCLM 261553Z AUTO VRB03KT 10SM OVC036 13/08 A3017 RMK AO2 SLP219 T01280078=
202005261453 METAR KCLM 261453Z AUTO 22007KT 10SM OVC032 12/08 A3017 RMK AO2 SLP218 T01170078 51010=
202005261420 SPECI KCLM 261420Z AUTO 23005KT 10SM OVC030 11/08 A3017 RMK AO2 T01110078=
202005261353 METAR KCLM 261353Z AUTO 25004KT 10SM OVC029 11/07 A3017 RMK AO2 SLP217 T01060072=
202005261253 METAR KCLM 261253Z AUTO 25005KT 10SM OVC021 10/07 A3015 RMK AO2 SLP210 T01000072=
202005261153 METAR KCLM 261153Z AUTO 27008KT 10SM OVC020 09/07 A3014 RMK AO2 SLP208 70017 T00940072 10106 20089 53003=
202005261053 METAR KCLM 261053Z AUTO 26009KT 10SM OVC020 09/08 A3014 RMK AO2 SLP206 T00940078=
202005261002 SPECI KCLM 261002Z AUTO 27006KT 10SM BKN019 09/08 A3013 RMK AO2 T00940078=
202005260953 METAR KCLM 260953Z AUTO 27007KT 10SM SCT019 09/07 A3013 RMK AO2 SLP205 T00890072=
202005260939 SPECI KCLM 260939Z AUTO 26008KT 10SM SCT021 09/08 A3013 RMK AO2 T00940078=
202005260853 METAR KCLM 260853Z AUTO 27010KT 10SM BKN021 10/08 A3013 RMK AO2 SLP204 T01000078 50005=
202005260753 METAR KCLM 260753Z AUTO 28009KT 10SM OVC021 10/08 A3014 RMK AO2 SLP206 T01000078 401280100=
202005260653 METAR KCLM 260653Z AUTO 28007G16KT 10SM OVC021 11/08 A3013 RMK AO2 SLP203 T01060078=
202005260553 METAR KCLM 260553Z AUTO 28010KT 10SM OVC019 11/08 A3012 RMK AO2 SLP199 T01060083 10122 20106 53004=
202005260453 METAR KCLM 260453Z AUTO 28008KT 10SM OVC017 11/09 A3012 RMK AO2 SLP200 T01110089=
202005260353 METAR KCLM 260353Z AUTO 27009KT 10SM OVC018 11/09 A3010 RMK AO2 SLP194 T01110089=
202005260253 METAR KCLM 260253Z AUTO 26005KT 10SM OVC017 11/09 A3011 RMK AO2 SLP196 T01110089 50003=
202005260153 METAR KCLM 260153Z AUTO 29009KT 10SM OVC016 11/09 A3011 RMK AO2 SLP198 T01110089=
202005260126 SPECI KCLM 260126Z AUTO 29008KT 10SM FEW010 OVC015 11/09 A3011 RMK AO2 T01110094=
202005260053 METAR KCLM 260053Z AUTO 28008KT 10SM OVC013 11/09 A3010 RMK AO2 SLP195 T01110094=
202005252353 METAR KCLM 252353Z AUTO 27008KT 10SM OVC012 12/10 A3010 RMK AO2 SLP193 60004 T01220100 10128 20111 53001=
202005252253 METAR KCLM 252253Z AUTO 28008KT 10SM OVC010 12/10 A3009 RMK AO2 SLP191 T01220100=
202005252153 METAR KCLM 252153Z AUTO 29008KT 10SM OVC010 13/10 A3009 RMK AO2 CIG 007V011 SLP189 T01280100=
202005252053 METAR KCLM 252053Z AUTO 29009KT 10SM OVC007 12/10 A3009 RMK AO2 RAE19 CIG 005V011 SLP192 P0000 60004 T01170100 53003=
202005251953 METAR KCLM 251953Z AUTO 29008KT 10SM -RA BKN009 OVC013 12/11 A3009 RMK AO2 CIG 005V010 SLP189 P0002 T01170106=
202005251950 SPECI KCLM 251950Z AUTO 28007KT 10SM -RA BKN009 BKN013 OVC018 12/11 A3009 RMK AO2 CIG 005V010 P0002=
202005251930 SPECI KCLM 251930Z AUTO 29008KT 8SM -RA BKN010 OVC017 12/11 A3009 RMK AO2 CIG 005V012 P0002 T01170106=
202005251853 METAR KCLM 251853Z AUTO 30006KT 6SM -RA BR OVC006 11/11 A3009 RMK AO2 RAE1756B25 CIG 004V009 SLP189 P0002 T01110106=
202005251844 SPECI KCLM 251844Z AUTO 28007KT 6SM -RA BR OVC006 11/11 A3008 RMK AO2 RAE1756B25 CIG 004V009 P0001 T01110106=
202005251753 METAR KCLM 251753Z AUTO 30006KT 4SM -RA BR OVC002 11/11 A3007 RMK AO2 RAB25E41B42 SLP185 P0001 60013 T01110106 10122 20111 53004=
202005251741 SPECI KCLM 251741Z AUTO 30006KT 3SM BR OVC002 11/11 A3007 RMK AO2 RAB25E41 P0001 T01110106=
202005251723 SPECI KCLM 251723Z AUTO 30006KT 1 3/4SM BR OVC002 11/11 A3007 RMK AO2 P0001 T01110106=
202005251701 SPECI KCLM 251701Z AUTO 31006KT 9SM OVC004 12/11 A3007 RMK AO2 CIG 002V009 P0001 T01170111=
202005251653 METAR KCLM 251653Z AUTO 30008KT 10SM BKN006 OVC011 12/11 A3007 RMK AO2 RAE23 CIG 003V009 SLP183 P0000 T01170111=
202005251553 METAR KCLM 251553Z AUTO 30003KT 9SM -RA FEW005 OVC013 12/11 A3006 RMK AO2 SLP181 P0001 T01220111=
202005251537 SPECI KCLM 251537Z AUTO 30003KT 8SM -RA FEW006 OVC012 12/11 A3006 RMK AO2 P0001 T01220111=
202005251453 METAR KCLM 251453Z AUTO 00000KT 6SM -RA BR OVC011 12/11 A3006 RMK AO2 SLP180 P0003 60011 T01170111 55000=
202005251405 SPECI KCLM 251405Z AUTO 00000KT 7SM -RA BKN012 BKN022 OVC055 11/11 A3006 RMK AO2 P0001 T01110106=
202005251353 METAR KCLM 251353Z AUTO 00000KT 5SM -RA BR FEW018 OVC055 11/11 A3006 RMK AO2 SLP180 P0004 T01110106=
202005251253 METAR KCLM 251253Z AUTO 00000KT 4SM -RA BR OVC060 11/11 A3006 RMK AO2 SLP180 P0004 T01110106=
202005251153 METAR KCLM 251153Z AUTO 25003KT 9SM -RA OVC060 11/10 A3006 RMK AO2 SLP180 P0002 60004 70009 T01110100 10117 20111 56011=
202005251053 METAR KCLM 251053Z AUTO 23003KT 9SM -RA OVC070 11/11 A3007 RMK AO2 SLP182 P0001 T01110106=
202005250953 METAR KCLM 250953Z AUTO 24003KT 9SM -RA BKN080 OVC095 11/11 A3008 RMK AO2 RAB0854 SLP185 P0001 T01110106=
202005250853 METAR KCLM 250853Z AUTO 22004KT 10SM OVC090 11/10 A3009 RMK AO2 SLP191 T01110100 58008=
202005250753 METAR KCLM 250753Z AUTO 00000KT 10SM OVC100 12/09 A3011 RMK AO2 SLP196 T01170094 401560067=
202005250653 METAR KCLM 250653Z AUTO 00000KT 10SM SCT060 BKN110 11/09 A3011 RMK AO2 SLP199 T01110094=
202005250553 METAR KCLM 250553Z AUTO 00000KT 10SM OVC060 12/10 A3012 RMK AO2 SLP200 T01170100 10144 20117 58007=
202005250453 METAR KCLM 250453Z AUTO 00000KT 10SM OVC060 12/09 A3013 RMK AO2 SLP203 T01220094=
202005250353 METAR KCLM 250353Z AUTO 00000KT 10SM OVC060 12/09 A3013 RMK AO2 SLP204 T01220089=
202005250253 METAR KCLM 250253Z AUTO 28004KT 10SM OVC065 12/09 A3014 RMK AO2 SLP207 T01170094 56013=
202005250153 METAR KCLM 250153Z AUTO 29005KT 10SM OVC049 12/09 A3015 RMK AO2 SLP210 T01220089=
202005250053 METAR KCLM 250053Z AUTO 34003KT 10SM OVC050 13/09 A3017 RMK AO2 SLP216 T01330094=
202005242353 METAR KCLM 242353Z AUTO 00000KT 10SM BKN049 OVC080 14/08 A3018 RMK AO2 SLP220 T01390078 10156 20111 56010=
202005242253 METAR KCLM 242253Z AUTO VRB03KT 10SM OVC060 14/07 A3019 RMK AO2 SLP223 T01440067=
202005242153 METAR KCLM 242153Z AUTO 02005KT 10SM OVC055 14/07 A3019 RMK AO2 SLP224 T01440067=
202005242053 METAR KCLM 242053Z AUTO VRB03KT 10SM OVC060 14/08 A3021 RMK AO2 SLP229 T01440078 58008=
202005241953 METAR KCLM 241953Z AUTO 03005KT 10SM OVC075 13/08 A3021 RMK AO2 SLP231 T01330083=
202005241853 METAR KCLM 241853Z AUTO VRB04KT 10SM OVC050 12/08 A3023 RMK AO2 SLP236 T01170083=
202005241753 METAR KCLM 241753Z AUTO 31004KT 10SM FEW009 OVC055 11/08 A3023 RMK AO2 RAE22 SLP237 P0001 60005 T01110083 10111 20078 51003=
202005241751 SPECI KCLM 241751Z AUTO 31005KT 10SM FEW009 OVC055 11/08 A3023 RMK AO2 RAE22 P0001=
202005241653 METAR KCLM 241653Z AUTO VRB03KT 10SM -RA BKN080 OVC090 10/08 A3022 RMK AO2 SLP236 P0001 T01000078=
202005241553 METAR KCLM 241553Z AUTO 30003KT 9SM -RA FEW070 OVC090 10/08 A3022 RMK AO2 SLP234 P0002 T01000083=
202005241453 METAR KCLM 241453Z AUTO 00000KT 8SM -RA OVC090 11/09 A3021 RMK AO2 SLP230 P0001 60001 T01060089 51003=
202005241353 METAR KCLM 241353Z AUTO 00000KT 10SM -RA OVC060 09/08 A3021 RMK AO2 RAB50 SLP230 P0000 T00940083=
202005241253 METAR KCLM 241253Z AUTO 25003KT 10SM SCT060 BKN090 BKN120 08/07 A3020 RMK AO2 SLP228 T00830072=
202005241153 METAR KCLM 241153Z AUTO 21004KT 10SM SCT090 BKN110 08/07 A3020 RMK AO2 SLP227 T00780067 10094 20067 56001=
202005241053 METAR KCLM 241053Z AUTO 00000KT 10SM CLR 07/06 A3020 RMK AO2 SLP229 T00720061=
202005240953 METAR KCLM 240953Z AUTO 00000KT 10SM SCT075 08/07 A3019 RMK AO2 SLP225 T00830067=
202005240853 METAR KCLM 240853Z AUTO 20003KT 10SM OVC080 09/07 A3020 RMK AO2 SLP228 T00890072 56005=
202005240753 METAR KCLM 240753Z AUTO 00000KT 10SM OVC060 09/07 A3021 RMK AO2 SLP229 T00940067 401440056=
202005240653 METAR KCLM 240653Z AUTO 25004KT 10SM OVC070 09/07 A3021 RMK AO2 SLP230 T00940067=
202005240553 METAR KCLM 240553Z AUTO 27005KT 10SM OVC100 09/07 A3022 RMK AO2 RAB07E45 SLP233 P0000 60000 T00940067 10133 20094 51006=
202005240453 METAR KCLM 240453Z AUTO 27008KT 10SM BKN055 BKN070 OVC095 10/06 A3021 RMK AO2 SLP231 T01000061=
202005240353 METAR KCLM 240353Z AUTO 27007KT 10SM OVC055 11/06 A3021 RMK AO2 SLP229 T01060061=
202005240253 METAR KCLM 240253Z AUTO 29008KT 10SM CLR 11/06 A3020 RMK AO2 SLP226 T01110061 56004=
202005240153 METAR KCLM 240153Z AUTO 29009KT 10SM BKN055 12/07 A3020 RMK AO2 SLP226 T01220067=
202005240053 METAR KCLM 240053Z AUTO 30004KT 10SM FEW055 13/06 A3021 RMK AO2 SLP229 T01280061=
202005232353 METAR KCLM 232353Z AUTO 30008KT 10SM CLR 13/07 A3021 RMK AO2 SLP230 T01330067 10144 20117 55002=
202005232253 METAR KCLM 232253Z AUTO 29009KT 10SM CLR 14/07 A3021 RMK AO2 SLP229 T01390067=
202005232153 METAR KCLM 232153Z AUTO 00000KT 10SM BKN034 14/06 A3021 RMK AO2 SLP230 T01390061=
202005232053 METAR KCLM 232053Z AUTO VRB04KT 10SM FEW029 OVC036 13/06 A3021 RMK AO2 SLP232 T01280061 50003=
202005231953 METAR KCLM 231953Z AUTO 33007KT 290V350 10SM OVC033 13/07 A3021 RMK AO2 SLP232 T01280067=
202005231853 METAR KCLM 231853Z AUTO 32008KT 10SM OVC035 12/06 A3021 RMK AO2 SLP230 T01220061=
202005231753 METAR KCLM 231753Z AUTO 30007G16KT 10SM OVC035 12/07 A3020 RMK AO2 SLP229 T01170072 10122 20067 53001=
202005231653 METAR KCLM 231653Z AUTO 30006KT 10SM OVC033 12/07 A3020 RMK AO2 SLP227 T01170067=
202005231553 METAR KCLM 231553Z AUTO 24004KT 10SM OVC037 11/07 A3021 RMK AO2 SLP230 T01060067=
202005231453 METAR KCLM 231453Z AUTO 21003KT 10SM OVC038 09/05 A3020 RMK AO2 SLP228 T00890050 53006=
202005231353 METAR KCLM 231353Z AUTO 23007KT 10SM FEW021 08/04 A3019 RMK AO2 SLP225 T00780039=
202005231253 METAR KCLM 231253Z AUTO 24006KT 10SM CLR 07/03 A3018 RMK AO2 SLP222 T00670033=
202005231153 METAR KCLM 231153Z AUTO 24006KT 10SM CLR 07/04 A3018 RMK AO2 SLP222 T00670039 10094 20056 55000=
202005231053 METAR KCLM 231053Z AUTO 23006KT 10SM CLR 06/04 A3018 RMK AO2 SLP222 T00610039=
202005230953 METAR KCLM 230953Z AUTO 24005KT 10SM CLR 08/04 A3018 RMK AO2 SLP220 T00780044=
202005230853 METAR KCLM 230853Z AUTO 24005KT 10SM CLR 08/04 A3018 RMK AO2 SLP222 T00780044 51004=
202005230753 METAR KCLM 230753Z AUTO 27007KT 10SM CLR 08/05 A3018 RMK AO2 SLP219 T00780050 401610078=
202005230653 METAR KCLM 230653Z AUTO 25007KT 10SM CLR 09/05 A3018 RMK AO2 SLP221 T00890050=
202005230553 METAR KCLM 230553Z AUTO 27006KT 10SM BKN060 09/06 A3017 RMK AO2 SLP217 T00940056 10133 20089 51014=
202005230453 METAR KCLM 230453Z AUTO 27005KT 10SM OVC060 10/06 A3017 RMK AO2 SLP215 T01000061=
202005230353 METAR KCLM 230353Z AUTO 29012KT 10SM FEW020 OVC060 11/07 A3014 RMK AO2 SLP208 T01060067=
202005230253 METAR KCLM 230253Z AUTO 30007KT 10SM BKN050 OVC060 11/07 A3013 RMK AO2 SLP204 T01110067 51012=
202005230153 METAR KCLM 230153Z AUTO 30010G19KT 10SM SCT060 11/08 A3013 RMK AO2 SLP202 T01110078=
202005230053 METAR KCLM 230053Z AUTO 30015G26KT 10SM SCT060 12/08 A3011 RMK AO2 PK WND 30027/0025 SLP197 T01170083=
202005222353 METAR KCLM 222353Z AUTO 30013G22KT 10SM OVC050 12/08 A3009 RMK AO2 SLP192 T01220078 10161 20117 51011=
202005222253 METAR KCLM 222253Z AUTO 32009G19KT 10SM OVC044 12/07 A3009 RMK AO2 SLP190 T01220072=
202005222153 METAR KCLM 222153Z AUTO 29009G16KT 10SM OVC046 12/08 A3008 RMK AO2 SLP188 T01170083=
202005222053 METAR KCLM 222053Z AUTO 31011G23KT 280V350 10SM OVC050 13/08 A3006 RMK AO2 SLP180 T01280078 53011=
202005221953 METAR KCLM 221953Z AUTO 32013G24KT 10SM BKN050 BKN060 13/07 A3005 RMK AO2 SLP176 T01280072=
202005221853 METAR KCLM 221853Z AUTO 31009G22KT 280V350 10SM CLR 16/07 A3003 RMK AO2 SLP170 T01560072=
202005221753 METAR KCLM 221753Z AUTO 30012KT 10SM CLR 16/05 A3003 RMK AO2 SLP168 T01560050 10156 20083 51006=
202005221653 METAR KCLM 221653Z AUTO 28008KT 250V310 10SM FEW045 SCT055 15/05 A3002 RMK AO2 SLP168 T01500050=
202005221553 METAR KCLM 221553Z AUTO 29008KT 10SM CLR 13/07 A3003 RMK AO2 SLP168 T01280067=
202005221453 METAR KCLM 221453Z AUTO 25009KT 10SM CLR 11/04 A3001 RMK AO2 SLP163 T01110039 53010=
202005221353 METAR KCLM 221353Z AUTO 24010KT 10SM CLR 10/04 A3000 RMK AO2 SLP160 T01000039=
202005221253 METAR KCLM 221253Z AUTO 24011KT 10SM CLR 09/03 A2999 RMK AO2 SLP156 T00890028=
202005221153 METAR KCLM 221153Z AUTO 24010KT 10SM CLR 08/03 A2998 RMK AO2 SLP153 70006 T00830033 10100 20083 51003=
202005221053 METAR KCLM 221053Z AUTO 24008KT 10SM CLR 08/04 A2998 RMK AO2 SLP152 T00830039=
202005220953 METAR KCLM 220953Z AUTO 28009KT 10SM OVC065 09/04 A2998 RMK AO2 SLP151 T00940044=
202005220853 METAR KCLM 220853Z AUTO 25010KT 10SM BKN065 09/04 A2997 RMK AO2 SLP150 T00940039 56003=
202005220753 METAR KCLM 220753Z AUTO 24010KT 10SM BKN060 09/04 A2997 RMK AO2 SLP150 T00940039 401390072=
202005220653 METAR KCLM 220653Z AUTO 24010KT 10SM CLR 09/04 A2997 RMK AO2 SLP150 T00940039=
202005220553 METAR KCLM 220553Z AUTO 25010KT 10SM SCT080 09/04 A2998 RMK AO2 SLP153 60000 T00940039 10122 20089 50001=
202005220453 METAR KCLM 220453Z AUTO 22008KT 10SM FEW085 SCT110 09/04 A2998 RMK AO2 SLP154 T00940044=
202005220353 METAR KCLM 220353Z AUTO 27008G17KT 10SM CLR 09/04 A2998 RMK AO2 SLP154 T00940044=
202005220253 METAR KCLM 220253Z AUTO 27009KT 10SM SCT047 BKN055 11/06 A2998 RMK AO2 RAB31E45 SLP151 P0000 60000 T01060056 55001=
202005220153 METAR KCLM 220153Z AUTO 29013G18KT 10SM CLR 12/06 A2997 RMK AO2 RAE03 SLP150 P0000 T01170056=
202005220053 METAR KCLM 220053Z AUTO 29013G19KT 9SM -RA FEW039 BKN050 BKN100 11/07 A2997 RMK AO2 RAB17E28B49 SLP150 P0000 T01060067=
202005212353 METAR KCLM 212353Z AUTO 27007KT 10SM FEW037 BKN047 OVC070 11/08 A2998 RMK AO2 RAB32E50 SLP152 P0002 60006 T01110078 10139 20094 58002=
202005212253 METAR KCLM 212253Z AUTO 31007KT 10SM FEW048 BKN080 OVC100 12/07 A2999 RMK AO2 RAB02E41 SLP156 P0001 T01220067=
202005212153 METAR KCLM 212153Z AUTO 30012G21KT 10SM FEW031 BKN038 OVC065 12/09 A2999 RMK AO2 RAB2056E10B33E48 SLP155 P0001 T01220089=
202005212053 METAR KCLM 212053Z AUTO 25016G21KT 10SM FEW030 SCT090 SCT110 13/07 A2998 RMK AO2 RAB10E30 SLP154 P0002 60002 T01330072 58002=
202005211953 METAR KCLM 211953Z AUTO 26012G21KT 10SM FEW036 SCT050 BKN080 12/04 A2998 RMK AO2 RAE03 SLP154 P0000 T01220044=
202005211853 METAR KCLM 211853Z AUTO 28014G17KT 7SM -RA BKN046 OVC055 11/07 A2999 RMK AO2 RAB43 SLP157 P0000 T01060067=
202005211753 METAR KCLM 211753Z AUTO 30012G19KT 10SM FEW042 SCT049 BKN060 12/04 A2999 RMK AO2 SLP156 T01220039 10128 20078 58005=
202005211653 METAR KCLM 211653Z AUTO 29014G18KT 10SM BKN055 BKN080 OVC090 12/04 A3000 RMK AO2 SLP158 T01220039=
202005211553 METAR KCLM 211553Z AUTO 26008G17KT 10SM SCT065 12/03 A3000 RMK AO2 SLP160 T01220033=
202005211453 METAR KCLM 211453Z AUTO 25006KT 10SM BKN048 OVC055 11/04 A3000 RMK AO2 SLP161 T01060044 58002=
202005211353 METAR KCLM 211353Z AUTO 24004KT 10SM BKN048 BKN060 10/04 A3001 RMK AO2 SLP163 T01000039=
202005211253 METAR KCLM 211253Z AUTO 24007KT 10SM SCT049 BKN075 08/04 A3001 RMK AO2 SLP161 T00780039=
202005211153 METAR KCLM 211153Z AUTO 23006KT 10SM SCT050 08/03 A3001 RMK AO2 SLP163 T00830033 10100 20072 58009=
202005211053 METAR KCLM 211053Z AUTO 25007KT 10SM SCT050 BKN060 08/04 A3002 RMK AO2 SLP168 T00830039=
202005210953 METAR KCLM 210953Z AUTO 23011KT 10SM OVC060 09/03 A3003 RMK AO2 SLP171 T00890033=
202005210853 METAR KCLM 210853Z AUTO 27007KT 10SM SCT060 08/03 A3004 RMK AO2 SLP172 T00830033 53001=
202005210753 METAR KCLM 210753Z AUTO 28013G22KT 10SM FEW110 09/05 A3004 RMK AO2 SLP172 T00890050 401500089=
202005210653 METAR KCLM 210653Z AUTO 29009G20KT 10SM FEW120 10/04 A3003 RMK AO2 PK WND 28026/0628 SLP170 T01000039=
202005210553 METAR KCLM 210553Z AUTO 26010G18KT 10SM CLR 10/04 A3004 RMK AO2 SLP171 T01000044 10122 20094 50002=
202005210453 METAR KCLM 210453Z AUTO 27009KT 10SM CLR 09/06 A3004 RMK AO2 SLP174 T00940056=
202005210353 METAR KCLM 210353Z AUTO 25009G17KT 10SM CLR 10/05 A3003 RMK AO2 SLP171 T01000050=
202005210253 METAR KCLM 210253Z AUTO 28016G22KT 10SM FEW030 SCT036 12/07 A3003 RMK AO2 SLP170 T01170067 56008=
202005210201 SPECI KCLM 210201Z AUTO 28014G22KT 10SM SCT020 OVC031 12/08 A3003 RMK AO2 T01220083=
202005210153 METAR KCLM 210153Z AUTO 29013G23KT 10SM SCT018 BKN026 OVC031 12/08 A3003 RMK AO2 SLP171 T01220083=
202005210137 SPECI KCLM 210137Z AUTO 29016G22KT 10SM BKN015 OVC023 12/08 A3003 RMK AO2 T01170083=
202005210053 METAR KCLM 210053Z AUTO 29015G20KT 10SM OVC014 12/09 A3004 RMK AO2 SLP173 T01170089=
202005210005 SPECI KCLM 210005Z AUTO 29012G21KT 3SM BR SCT007 OVC011 11/09 A3005 RMK AO2 T01060089=
202005202353 METAR KCLM 202353Z AUTO 29011G19KT 4SM BR BKN008 OVC016 11/09 A3005 RMK AO2 RAB18E25 CIG 005V012 SLP178 P0000 60000 T01110094 10150 20106 51005=
202005202253 METAR KCLM 202253Z AUTO 29014G23KT 10SM BKN008 OVC011 12/09 A3005 RMK AO2 SLP177 T01170094=
202005202222 SPECI KCLM 202222Z AUTO 29012G20KT 10SM SCT008 OVC011 12/09 A3005 RMK AO2 T01220094=
202005202153 METAR KCLM 202153Z AUTO 28011G21KT 10SM BKN006 OVC010 12/10 A3005 RMK AO2 SLP176 T01170100=
202005202125 SPECI KCLM 202125Z AUTO 28012G22KT 10SM BKN007 BKN013 OVC048 12/10 A3005 RMK AO2 CIG 006V011 T01220100=
202005202114 SPECI KCLM 202114Z AUTO 30013G25KT 10SM SCT009 OVC048 12/10 A3004 RMK AO2 T01220100=
202005202053 METAR KCLM 202053Z AUTO 29016G26KT 10SM FEW012 OVC048 13/10 A3004 RMK AO2 PK WND 30026/2047 SLP173 T01330100 55003=
202005201953 METAR KCLM 201953Z AUTO 31013G18KT 10SM OVC050 14/09 A3004 RMK AO2 SLP172 T01440094=
202005201853 METAR KCLM 201853Z AUTO 30009G16KT 10SM OVC045 13/08 A3005 RMK AO2 SLP176 T01280083=
202005201753 METAR KCLM 201753Z AUTO 30016G24KT 10SM SCT048 BKN085 15/09 A3005 RMK AO2 SLP175 T01500089 10150 20094 58003=
202005201653 METAR KCLM 201653Z AUTO 30009G21KT 270V350 10SM CLR 14/09 A3005 RMK AO2 SLP176 T01390089=
202005201553 METAR KCLM 201553Z AUTO 29007KT 10SM BKN075 13/09 A3006 RMK AO2 SLP179 T01280089=
202005201453 METAR KCLM 201453Z AUTO 28005KT 10SM FEW049 BKN065 BKN080 12/08 A3006 RMK AO2 SLP179 T01170078 53007=
202005201353 METAR KCLM 201353Z AUTO 25007KT 10SM BKN047 OVC075 11/08 A3004 RMK AO2 SLP174 T01110078=
202005201253 METAR KCLM 201253Z AUTO 24009KT 10SM FEW026 10/08 A3003 RMK AO2 SLP171 T01000078=
202005201243 SPECI KCLM 201243Z AUTO 26007KT 10SM SCT026 10/08 A3003 RMK AO2 T01000078=
202005201217 SPECI KCLM 201217Z AUTO 26006KT 10SM BKN025 10/08 A3003 RMK AO2 T01000078=
202005201153 METAR KCLM 201153Z AUTO 25010KT 10SM FEW070 SCT080 10/08 A3003 RMK AO2 SLP171 T01000078 10111 20094 56006=
202005201053 METAR KCLM 201053Z AUTO 28005KT 10SM SCT080 09/07 A3004 RMK AO2 SLP173 T00940072=
202005201029 SPECI KCLM 201029Z AUTO 26008KT 10SM FEW022 SCT080 10/07 A3004 RMK AO2 T01000072=
202005201004 SPECI KCLM 201004Z AUTO 26010KT 10SM BKN021 OVC080 11/08 A3004 RMK AO2 T01060078=
202005200953 METAR KCLM 200953Z AUTO 27008KT 10SM SCT021 OVC080 10/08 A3004 RMK AO2 SLP174 T01000078=
202005200914 SPECI KCLM 200914Z AUTO 27007KT 10SM FEW019 BKN085 10/08 A3005 RMK AO2 T01000078=
202005200853 METAR KCLM 200853Z AUTO 27008KT 10SM BKN017 10/08 A3005 RMK AO2 SLP176 T01000083 53003=
202005200810 SPECI KCLM 200810Z AUTO 28011KT 10SM OVC015 11/08 A3005 RMK AO2 T01060083=
202005200753 METAR KCLM 200753Z AUTO 28008KT 10SM OVC013 11/08 A3005 RMK AO2 SLP175 T01060083 401560078=
202005200653 METAR KCLM 200653Z AUTO 28008KT 10SM OVC011 11/09 A3004 RMK AO2 SLP173 T01060089=
202005200553 METAR KCLM 200553Z AUTO 29008KT 10SM OVC014 11/09 A3004 RMK AO2 SLP173 T01110089 10144 20111 56002=
202005200524 SPECI KCLM 200524Z AUTO 29009KT 10SM OVC015 11/09 A3004 RMK AO2 T01110089=
202005200453 METAR KCLM 200453Z AUTO 29007KT 10SM OVC012 11/09 A3005 RMK AO2 SLP175 T01110094=
202005200353 METAR KCLM 200353Z AUTO 29010KT 10SM OVC013 12/09 A3004 RMK AO2 SLP174 T01170094=
202005200253 METAR KCLM 200253Z AUTO 29010G16KT 10SM OVC011 12/09 A3005 RMK AO2 SLP176 T01170094 53010=
202005200153 METAR KCLM 200153Z AUTO 30009KT 10SM OVC012 12/09 A3003 RMK AO2 SLP171 T01170094=
202005200053 METAR KCLM 200053Z AUTO 30009G16KT 10SM OVC013 13/10 A3002 RMK AO2 SLP167 T01330100=
202005200024 SPECI KCLM 200024Z AUTO 29010G17KT 10SM BKN014 13/10 A3002 RMK AO2 T01330100=
202005192353 METAR KCLM 192353Z AUTO 29013G17KT 10SM CLR 14/10 A3002 RMK AO2 SLP166 T01440100 10156 20133 55001=
202005192253 METAR KCLM 192253Z AUTO 30009KT 280V360 10SM CLR 15/11 A3002 RMK AO2 SLP165 T01500106=
202005192153 METAR KCLM 192153Z AUTO 29009G15KT 10SM CLR 16/11 A3002 RMK AO2 SLP165 T01560106=
202005192053 METAR KCLM 192053Z AUTO 31009KT 10SM FEW033 15/11 A3002 RMK AO2 SLP166 T01500106 56003=
202005191953 METAR KCLM 191953Z AUTO 31009KT 10SM CLR 15/10 A3003 RMK AO2 SLP167 T01500100=
202005191853 METAR KCLM 191853Z AUTO 30008KT 10SM CLR 14/10 A3003 RMK AO2 SLP168 T01440100=
202005191753 METAR KCLM 191753Z AUTO VRB03KT 10SM CLR 14/10 A3003 RMK AO2 SLP170 T01390100 10139 20078 53007=
202005191653 METAR KCLM 191653Z AUTO VRB04KT 10SM CLR 13/09 A3002 RMK AO2 SLP168 T01330089=
202005191553 METAR KCLM 191553Z AUTO 29003KT 10SM FEW048 13/08 A3001 RMK AO2 SLP165 T01280083=
202005191453 METAR KCLM 191453Z AUTO 26008KT 10SM CLR 12/08 A3001 RMK AO2 SLP163 T01170078 51009=
202005191353 METAR KCLM 191353Z AUTO 24005KT 10SM CLR 10/07 A3001 RMK AO2 SLP161 T01000072=
202005191253 METAR KCLM 191253Z AUTO 24005KT 10SM FEW065 08/07 A2999 RMK AO2 SLP156 T00830067=
202005191153 METAR KCLM 191153Z AUTO 24007KT 10SM CLR 09/08 A2998 RMK AO2 SLP154 T00890078 10106 20089 53009=
202005191053 METAR KCLM 191053Z AUTO 26006KT 10SM FEW012 09/08 A2997 RMK AO2 SLP150 T00940083=
202005191041 SPECI KCLM 191041Z AUTO 25007KT 10SM SCT012 09/08 A2997 RMK AO2 T00940083=
202005191027 SPECI KCLM 191027Z AUTO 25007KT 10SM BKN012 BKN065 10/08 A2997 RMK AO2 T01000083=
202005190953 METAR KCLM 190953Z AUTO 26007KT 10SM FEW012 SCT090 10/08 A2997 RMK AO2 SLP147 T01000083=
202005190853 METAR KCLM 190853Z AUTO 26007KT 10SM OVC085 10/09 A2996 RMK AO2 SLP144 T01000089 51012=
202005190753 METAR KCLM 190753Z AUTO 26008KT 10SM CLR 10/08 A2995 RMK AO2 SLP141 T01000083 401670078=
202005190653 METAR KCLM 190653Z AUTO 27006KT 10SM CLR 10/09 A2994 RMK AO2 SLP138 T01000089=
202005190553 METAR KCLM 190553Z AUTO 27009KT 10SM CLR 11/09 A2992 RMK AO2 SLP132 T01060094 10161 20100 51016=
202005190453 METAR KCLM 190453Z AUTO 27010KT 10SM CLR 11/09 A2991 RMK AO2 SLP129 T01060094=
202005190415 SPECI KCLM 190415Z AUTO 28010KT 10SM SCT009 11/10 A2990 RMK AO2 T01110100=
202005190353 METAR KCLM 190353Z AUTO 28009KT 10SM OVC008 12/10 A2990 RMK AO2 SLP124 T01170100=
202005190331 SPECI KCLM 190331Z AUTO 29010KT 10SM BKN008 12/10 A2989 RMK AO2 T01170100=
202005190319 SPECI KCLM 190319Z AUTO 29007G15KT 10SM SCT008 12/10 A2988 RMK AO2 T01220100=
202005190253 METAR KCLM 190253Z AUTO 27011KT 10SM CLR 13/11 A2988 RMK AO2 SLP117 T01280106 53009=
202005190153 METAR KCLM 190153Z AUTO 31008KT 10SM CLR 15/11 A2986 RMK AO2 SLP111 T01500111=
202005190053 METAR KCLM 190053Z AUTO 30008KT 10SM CLR 16/11 A2985 RMK AO2 SLP109 T01560111=
202005182353 METAR KCLM 182353Z AUTO 30007KT 10SM FEW065 16/11 A2985 RMK AO2 SLP108 T01560111 10167 20144 53009=
202005182253 METAR KCLM 182253Z AUTO 32009KT 10SM CLR 16/11 A2984 RMK AO2 SLP104 T01560111=
202005182153 METAR KCLM 182153Z AUTO 34006KT 10SM CLR 15/11 A2983 RMK AO2 SLP102 T01500106=
202005182053 METAR KCLM 182053Z AUTO 35006KT 10SM CLR 15/11 A2982 RMK AO2 SLP099 T01500111 58003=
202005181953 METAR KCLM 181953Z AUTO 36004KT 10SM CLR 16/09 A2982 RMK AO2 SLP098 T01610089=
202005181853 METAR KCLM 181853Z AUTO 07006KT 10SM FEW022 16/09 A2983 RMK AO2 SLP102 T01560094=
202005181753 METAR KCLM 181753Z AUTO VRB03KT 10SM SCT016 14/10 A2983 RMK AO2 SLP102 T01440100 10150 20078 51007=
202005181745 SPECI KCLM 181745Z AUTO 09006KT 10SM BKN016 14/11 A2983 RMK AO2 T01440106=
202005181653 METAR KCLM 181653Z AUTO VRB05KT 10SM CLR 13/09 A2982 RMK AO2 SLP100 T01280089=
202005181553 METAR KCLM 181553Z AUTO 07003KT 10SM SCT034 13/08 A2981 RMK AO2 SLP095 T01280083=
202005181453 METAR KCLM 181453Z AUTO 21003KT 10SM OVC031 09/07 A2981 RMK AO2 SLP095 T00940067 51007=
202005181414 SPECI KCLM 181414Z AUTO 22005KT 10SM FEW022 OVC030 09/07 A2981 RMK AO2 T00890067=
202005181353 METAR KCLM 181353Z AUTO 23008KT 10SM OVC028 09/06 A2981 RMK AO2 SLP094 T00890061=
202005181314 SPECI KCLM 181314Z AUTO 25008KT 10SM BKN028 09/06 A2980 RMK AO2 T00890061=
202005181253 METAR KCLM 181253Z AUTO 25010KT 10SM FEW028 08/06 A2979 RMK AO2 SLP090 T00830056=
202005181153 METAR KCLM 181153Z AUTO 24011KT 10SM CLR 09/06 A2979 RMK AO2 SLP088 70013 T00890056 10100 20078 53005=
202005181053 METAR KCLM 181053Z AUTO 23004KT 10SM CLR 08/06 A2978 RMK AO2 SLP084 T00780061=
202005180953 METAR KCLM 180953Z AUTO 26008KT 10SM CLR 09/06 A2977 RMK AO2 SLP081 T00890061=
202005180853 METAR KCLM 180853Z AUTO 25007KT 10SM CLR 09/07 A2977 RMK AO2 SLP082 T00890067 55001=
202005180753 METAR KCLM 180753Z AUTO 24008KT 10SM CLR 09/07 A2977 RMK AO2 SLP080 T00940072 401500094=
202005180653 METAR KCLM 180653Z AUTO 26006KT 10SM CLR 09/08 A2977 RMK AO2 SLP080 T00940078=
202005180553 METAR KCLM 180553Z AUTO 25007KT 10SM CLR 10/08 A2977 RMK AO2 SLP083 60000 T01000083 10139 20100 50006=
202005180453 METAR KCLM 180453Z AUTO 26007KT 10SM CLR 10/09 A2978 RMK AO2 SLP084 T01000094=
202005180353 METAR KCLM 180353Z AUTO 25005KT 10SM FEW085 11/09 A2977 RMK AO2 SLP082 T01110094=
202005180253 METAR KCLM 180253Z AUTO 31005KT 9SM BKN095 13/09 A2976 RMK AO2 SLP077 60000 T01280094 53003=
202005180153 METAR KCLM 180153Z AUTO 29007KT 10SM SCT110 13/10 A2975 RMK AO2 RAB0054E08 SLP075 P0000 T01330100=
202005180053 METAR KCLM 180053Z AUTO 30006KT 9SM FEW080 OVC095 13/11 A2975 RMK AO2 SLP076 T01280106=
202005172353 METAR KCLM 172353Z AUTO 30005KT 10SM OVC095 13/11 A2975 RMK AO2 SLP074 60005 T01330106 10150 20117 57002=
202005172253 METAR KCLM 172253Z AUTO 31007KT 10SM SCT050 SCT080 OVC100 14/11 A2975 RMK AO2 RAE10 SLP074 P0001 T01390106=
202005172153 METAR KCLM 172153Z AUTO 18004KT 10SM -RA OVC060 13/10 A2975 RMK AO2 SLP075 P0001 T01330100=
202005172053 METAR KCLM 172053Z AUTO 16003KT 10SM -RA OVC045 14/11 A2975 RMK AO2 RAE1956B48 SLP075 P0000 60003 T01390106 50002=
202005171953 METAR KCLM 171953Z AUTO 16003KT 10SM -RA FEW045 BKN050 OVC070 14/10 A2976 RMK AO2 RAE08B46 SLP077 P0000 T01390100=
202005171853 METAR KCLM 171853Z AUTO 00000KT 9SM -RA OVC060 13/09 A2976 RMK AO2 SLP077 P0003 T01280089=
202005171753 METAR KCLM 171753Z AUTO 00000KT 9SM -RA SCT007 BKN048 OVC070 12/10 A2975 RMK AO2 SLP074 P0006 60008 T01170100 10128 20100 53006=
202005171732 SPECI KCLM 171732Z AUTO 00000KT 3SM -RA BR FEW006 OVC055 12/11 A2974 RMK AO2 P0004 T01220111=
202005171653 METAR KCLM 171653Z AUTO 35005KT 8SM -RA FEW011 BKN033 OVC060 12/10 A2974 RMK AO2 RAB04 SLP071 P0002 T01170100=
202005171600 SPECI KCLM 171600Z AUTO 32005KT 7SM SCT015 BKN021 OVC044 13/11 A2973 RMK AO2 T01280106=
202005171553 METAR KCLM 171553Z AUTO 35003KT 8SM BKN014 OVC020 13/11 A2973 RMK AO2 SLP067 T01280106=
202005171525 SPECI KCLM 171525Z AUTO 32003KT 9SM BKN016 OVC041 12/11 A2973 RMK AO2 T01220106=
202005171453 METAR KCLM 171453Z AUTO 21003KT 10SM OVC040 12/10 A2973 RMK AO2 SLP068 T01170100 51008=
202005171416 SPECI KCLM 171416Z AUTO 00000KT 10SM FEW016 OVC037 12/10 A2973 RMK AO2 T01170100=
202005171353 METAR KCLM 171353Z AUTO 22003KT 10SM BKN016 OVC035 11/10 A2972 RMK AO2 SLP066 T01110100=
202005171319 SPECI KCLM 171319Z AUTO 22004KT 10SM BKN012 BKN055 10/09 A2972 RMK AO2 T01000094=
202005171253 METAR KCLM 171253Z AUTO 00000KT 10SM FEW050 BKN065 10/09 A2971 RMK AO2 SLP062 T01000094=
202005171231 SPECI KCLM 171231Z AUTO 00000KT 10SM SCT016 BKN070 OVC090 11/09 A2970 RMK AO2 T01060094=
202005171214 SPECI KCLM 171214Z AUTO 21003KT 10SM BKN015 11/10 A2970 RMK AO2 T01060100=
202005171153 METAR KCLM 171153Z AUTO 19003KT 10SM OVC014 11/10 A2970 RMK AO2 SLP059 60000 70005 T01060100 10117 20106 53003=
202005171117 SPECI KCLM 171117Z AUTO 26007KT 10SM OVC011 11/10 A2970 RMK AO2 CIG 008V016 T01060100=
202005171053 METAR KCLM 171053Z AUTO 24005KT 10SM OVC009 11/10 A2970 RMK AO2 CIG 007V013 SLP056 T01110100=
202005171041 SPECI KCLM 171041Z AUTO 23003KT 10SM BKN009 OVC014 11/11 A2970 RMK AO2 CIG 007V012 T01110106=
202005171013 SPECI KCLM 171013Z AUTO 27005KT 10SM OVC014 11/10 A2969 RMK AO2 T01110100=
202005171005 SPECI KCLM 171005Z AUTO 24006KT 10SM SCT010 OVC016 11/10 A2970 RMK AO2 T01110100=
202005170953 METAR KCLM 170953Z AUTO 27005KT 10SM BKN010 OVC015 11/10 A2970 RMK AO2 RAB0858E21 CIG 009V013 SLP057 P0000 T01110100=
202005170853 METAR KCLM 170853Z AUTO 27003KT 10SM OVC013 11/10 A2970 RMK AO2 SLP057 60000 T01110100 53010=
202005170753 METAR KCLM 170753Z AUTO 27004KT 10SM BKN014 11/10 A2968 RMK AO2 SLP052 T01060100 401440078=
202005170751 SPECI KCLM 170751Z AUTO 26004KT 10SM BKN014 11/10 A2968 RMK AO2=
202005170653 METAR KCLM 170653Z AUTO 26006KT 8SM FEW015 SCT100 BKN120 11/11 A2968 RMK AO2 RAB01E11 SLP050 P0000 T01110106=
202005170648 SPECI KCLM 170648Z AUTO VRB04KT 7SM SCT015 SCT021 BKN110 11/11 A2967 RMK AO2 RAB01E11 P0000=
202005170635 SPECI KCLM 170635Z AUTO 27004KT 10SM BKN015 OVC110 12/11 A2968 RMK AO2 RAB01E11 P0000 T01170106=
202005170615 SPECI KCLM 170615Z AUTO 25004KT 10SM BKN013 OVC085 11/11 A2969 RMK AO2 RAB01E11 P0000 T01110106=
202005170553 METAR KCLM 170553Z AUTO 26003KT 10SM OVC085 11/11 A2969 RMK AO2 RAE42 SLP053 P0001 60004 T01110106 10139 20111 53001=
202005170453 METAR KCLM 170453Z AUTO 00000KT 10SM -RA FEW015 BKN075 OVC100 12/11 A2969 RMK AO2 SLP055 P0002 T01170106=
202005170353 METAR KCLM 170353Z AUTO 24005KT 10SM -RA SCT080 OVC095 12/11 A2968 RMK AO2 RAB0255 SLP051 P0001 T01220111=
202005170253 METAR KCLM 170253Z AUTO 27005KT 10SM FEW034 BKN075 OVC090 12/11 A2968 RMK AO2 RAB25E34 SLP052 P0000 60000 T01220106 56007=
202005170153 METAR KCLM 170153Z AUTO 29009KT 10SM FEW017 OVC065 12/10 A2969 RMK AO2 SLP053 T01220100=
202005170053 METAR KCLM 170053Z AUTO 31003KT 10SM OVC075 13/11 A2969 RMK AO2 RAE07 SLP055 P0000 T01330111=
202005162353 METAR KCLM 162353Z AUTO 30006KT 10SM -RA FEW060 OVC075 14/11 A2970 RMK AO2 RAE07B46 SLP059 P0001 60001 T01390106 10144 20111 58017=
202005162253 METAR KCLM 162253Z AUTO 25006KT 10SM -RA FEW055 SCT065 BKN090 13/10 A2972 RMK AO2 RAB48 SLP064 P0000 T01330100=
202005162153 METAR KCLM 162153Z AUTO 30005KT 10SM BKN065 BKN090 13/09 A2974 RMK AO2 SLP072 T01330094=
202005162053 METAR KCLM 162053Z AUTO 26007KT 10SM FEW055 BKN075 OVC090 13/09 A2975 RMK AO2 SLP076 T01280094 58015=
202005161953 METAR KCLM 161953Z AUTO 28004KT 9SM BKN070 12/09 A2977 RMK AO2 SLP081 T01220094=
202005161853 METAR KCLM 161853Z AUTO 28008KT 10SM OVC070 12/09 A2979 RMK AO2 SLP087 T01170094=
202005161813 SPECI KCLM 161813Z AUTO 29006KT 7SM SCT007 OVC070 11/09 A2979 RMK AO2 T01110094=
202005161753 METAR KCLM 161753Z AUTO 27004KT 9SM BKN006 OVC070 11/10 A2980 RMK AO2 SLP092 60000 T01110100 10111 20094 56011=
202005161734 SPECI KCLM 161734Z AUTO 32005KT 8SM BKN006 OVC070 11/09 A2981 RMK AO2 T01060094=
202005161653 METAR KCLM 161653Z AUTO 28004KT 10SM FEW005 BKN065 OVC110 11/09 A2981 RMK AO2 SLP095 T01060094=
202005161650 SPECI KCLM 161650Z AUTO VRB03KT 10SM FEW005 BKN070 OVC110 11/09 A2981 RMK AO2=
202005161611 SPECI KCLM 161611Z AUTO 00000KT 10SM OVC005 11/09 A2982 RMK AO2 T01060094=
202005161553 METAR KCLM 161553Z AUTO 03003KT 10SM OVC004 10/09 A2983 RMK AO2 SLP103 T01000094=
202005161525 SPECI KCLM 161525Z AUTO 06003KT 10SM OVC004 11/09 A2984 RMK AO2 T01060094=
202005161500 SPECI KCLM 161500Z AUTO 00000KT 10SM BKN005 OVC090 11/09 A2985 RMK AO2 T01060094=
202005161453 METAR KCLM 161453Z AUTO 00000KT 10SM SCT006 OVC090 11/09 A2986 RMK AO2 SLP111 60000 T01060094 56014=
202005161450 SPECI KCLM 161450Z AUTO 07004KT 10SM SCT006 OVC090 11/09 A2986 RMK AO2=
202005161353 METAR KCLM 161353Z AUTO 08004KT 10SM SCT095 BKN120 10/09 A2988 RMK AO2 RAE1257 SLP118 P0000 T01000094=
202005161253 METAR KCLM 161253Z AUTO 00000KT 10SM -RA SCT080 OVC110 10/09 A2990 RMK AO2 RAB1159 SLP125 P0000 T01000089=
202005161153 METAR KCLM 161153Z AUTO 00000KT 10SM OVC085 10/09 A2991 RMK AO2 RAB1056E05 SLP130 P0000 60000 T01000089 10100 20078 56018=
202005161053 METAR KCLM 161053Z AUTO 00000KT 10SM OVC085 09/08 A2992 RMK AO2 RAB27E38 SLP133 P0000 T00940083=
202005160953 METAR KCLM 160953Z AUTO 00000KT 10SM OVC090 10/08 A2994 RMK AO2 SLP139 T01000083=
202005160853 METAR KCLM 160853Z AUTO 00000KT 10SM SCT110 09/08 A2997 RMK AO2 SLP148 T00890078 56019=
202005160753 METAR KCLM 160753Z AUTO 00000KT 10SM CLR 08/07 A2998 RMK AO2 SLP152 T00830072 401610061=
202005160653 METAR KCLM 160653Z AUTO 13003KT 10SM CLR 08/07 A3000 RMK AO2 SLP161 T00780067=
202005160553 METAR KCLM 160553Z AUTO 00000KT 10SM CLR 08/07 A3002 RMK AO2 SLP168 T00830072 10150 20078 58012=
202005160453 METAR KCLM 160453Z AUTO 00000KT 10SM CLR 09/08 A3004 RMK AO2 SLP172 T00940078=
202005160353 METAR KCLM 160353Z AUTO 00000KT 10SM CLR 11/08 A3005 RMK AO2 SLP175 T01060083=
202005160253 METAR KCLM 160253Z AUTO 31003KT 10SM CLR 12/08 A3006 RMK AO2 SLP180 T01170083 56019=
202005160153 METAR KCLM 160153Z AUTO 34003KT 10SM CLR 13/08 A3006 RMK AO2 SLP182 T01330083=
202005160053 METAR KCLM 160053Z AUTO VRB03KT 10SM CLR 14/09 A3009 RMK AO2 SLP190 T01440089=
202005152353 METAR KCLM 152353Z AUTO VRB03KT 10SM BKN065 14/09 A3011 RMK AO2 SLP198 T01390089 10161 20122 56010=
202005152253 METAR KCLM 152253Z AUTO VRB05KT 10SM SCT060 16/08 A3012 RMK AO2 SLP201 T01610078=
202005152153 METAR KCLM 152153Z AUTO VRB04KT 10SM BKN060 16/09 A3013 RMK AO2 SLP203 T01560094=
202005152053 METAR KCLM 152053Z AUTO 07006KT 10SM FEW055 15/09 A3014 RMK AO2 SLP209 T01500089 58006=
202005151953 METAR KCLM 151953Z AUTO VRB04KT 10SM CLR 14/08 A3016 RMK AO2 SLP214 T01390083=
202005151853 METAR KCLM 151853Z AUTO VRB04KT 10SM CLR 13/07 A3016 RMK AO2 SLP215 T01330072=
202005151753 METAR KCLM 151753Z AUTO 34006KT 10SM FEW025 13/08 A3016 RMK AO2 SLP215 T01280078 10133 20061 51004=
202005151653 METAR KCLM 151653Z AUTO VRB05KT 10SM FEW024 13/08 A3016 RMK AO2 SLP215 T01330078=
202005151618 SPECI KCLM 151618Z AUTO 30006KT 10SM SCT025 13/08 A3016 RMK AO2 T01330078=
202005151605 SPECI KCLM 151605Z AUTO 30003KT 10SM BKN024 12/07 A3016 RMK AO2 T01220067=
202005151553 METAR KCLM 151553Z AUTO 27005KT 10SM SCT024 12/07 A3016 RMK AO2 SLP214 T01220067=
202005151453 METAR KCLM 151453Z AUTO 25005KT 10SM CLR 11/07 A3015 RMK AO2 SLP211 T01060072 53005=
202005151353 METAR KCLM 151353Z AUTO 22004KT 10SM CLR 08/07 A3014 RMK AO2 SLP207 T00830067=
202005151253 METAR KCLM 151253Z AUTO 21004KT 10SM CLR 07/06 A3014 RMK AO2 SLP208 T00720056=
202005151153 METAR KCLM 151153Z AUTO 22006KT 10SM CLR 08/06 A3014 RMK AO2 SLP206 T00780061 10094 20072 53009=
202005151053 METAR KCLM 151053Z AUTO 24006KT 10SM CLR 08/07 A3012 RMK AO2 SLP202 T00780067=
202005150953 METAR KCLM 150953Z AUTO 24006KT 10SM CLR 08/07 A3011 RMK AO2 SLP198 T00830072=
202005150853 METAR KCLM 150853Z AUTO 25006KT 10SM CLR 08/07 A3011 RMK AO2 SLP197 T00830072 53013=
202005150753 METAR KCLM 150753Z AUTO 25005KT 10SM CLR 09/08 A3009 RMK AO2 SLP191 T00890078 401440083=
202005150653 METAR KCLM 150653Z AUTO 28006KT 10SM CLR 09/08 A3008 RMK AO2 SLP188 T00890083=
202005150553 METAR KCLM 150553Z AUTO 29005KT 10SM CLR 09/08 A3007 RMK AO2 SLP184 T00940083 10144 20094 53015=
202005150453 METAR KCLM 150453Z AUTO 28006KT 10SM CLR 10/09 A3006 RMK AO2 SLP180 T01000089=
202005150353 METAR KCLM 150353Z AUTO 28007KT 10SM FEW075 11/09 A3004 RMK AO2 SLP174 T01060089=
202005150253 METAR KCLM 150253Z AUTO 27006KT 10SM CLR 12/08 A3003 RMK AO2 SLP169 T01170083 52007=
202005150153 METAR KCLM 150153Z AUTO 29009KT 10SM CLR 13/07 A3002 RMK AO2 SLP167 T01330072=
202005150053 METAR KCLM 150053Z AUTO 29011KT 10SM CLR 14/08 A3002 RMK AO2 SLP165 T01390078=
202005142353 METAR KCLM 142353Z AUTO 28007KT 10SM FEW110 14/08 A3001 RMK AO2 SLP162 60000 T01440083 10144 20122 52002=
202005142253 METAR KCLM 142253Z AUTO 35004KT 10SM CLR 13/09 A3001 RMK AO2 RAE03 SLP163 P0000 T01280089=
202005142153 METAR KCLM 142153Z AUTO VRB04KT 10SM -RA SCT055 BKN070 OVC085 13/09 A3000 RMK AO2 RAB14 SLP160 P0000 T01330094=
202005142053 METAR KCLM 142053Z AUTO 33005KT 10SM FEW070 12/08 A3000 RMK AO2 SLP160 T01220083 51004=
202005141953 METAR KCLM 141953Z AUTO 34005KT 10SM FEW060 BKN100 13/08 A3000 RMK AO2 SLP159 T01280083=
202005141853 METAR KCLM 141853Z AUTO VRB04KT 10SM OVC050 13/08 A2999 RMK AO2 SLP158 T01280078=
202005141840 SPECI KCLM 141840Z AUTO 35004KT 10SM SCT026 OVC050 13/08 A2999 RMK AO2 T01280083=
202005141812 SPECI KCLM 141812Z AUTO 29005KT 10SM BKN027 OVC055 13/08 A2999 RMK AO2 T01280083=
202005141753 METAR KCLM 141753Z AUTO VRB04KT 10SM SCT042 OVC055 12/09 A2999 RMK AO2 SLP156 T01220089 10122 20083 51005=
202005141740 SPECI KCLM 141740Z AUTO 02004KT 10SM SCT027 BKN042 OVC060 12/09 A2999 RMK AO2 T01220089=
202005141706 SPECI KCLM 141706Z AUTO VRB03KT 10SM BKN026 OVC065 12/09 A2999 RMK AO2 T01220089=
202005141653 METAR KCLM 141653Z AUTO VRB03KT 10SM FEW026 BKN050 OVC065 12/09 A2999 RMK AO2 SLP155 T01220089=
202005141553 METAR KCLM 141553Z AUTO 25004KT 10SM OVC041 12/08 A2998 RMK AO2 SLP153 T01170078=
202005141530 SPECI KCLM 141530Z AUTO 25005KT 10SM SCT028 OVC038 11/07 A2998 RMK AO2 T01110072=
202005141453 METAR KCLM 141453Z AUTO 24004KT 10SM BKN027 OVC035 10/07 A2997 RMK AO2 SLP151 T01000072 53010=
202005141441 SPECI KCLM 141441Z AUTO 24005KT 10SM BKN027 OVC035 10/07 A2997 RMK AO2 T01000072=
202005141353 METAR KCLM 141353Z AUTO 22004KT 10SM OVC032 09/07 A2996 RMK AO2 SLP146 T00890072=
202005141253 METAR KCLM 141253Z AUTO 23006KT 10SM BKN030 08/07 A2995 RMK AO2 SLP143 T00830067=
202005141153 METAR KCLM 141153Z AUTO 22005KT 10SM BKN100 OVC120 08/07 A2994 RMK AO2 SLP141 70014 T00830072 10094 20078 51002=
202005141053 METAR KCLM 141053Z AUTO 00000KT 10SM BKN039 BKN120 09/08 A2994 RMK AO2 SLP140 T00890078=
202005140953 METAR KCLM 140953Z AUTO 23007KT 10SM OVC037 09/07 A2994 RMK AO2 SLP140 T00940072=
202005140853 METAR KCLM 140853Z AUTO 24007KT 10SM BKN039 OVC046 09/08 A2994 RMK AO2 SLP139 T00940078 51004=
202005140753 METAR KCLM 140753Z AUTO 23005KT 10SM BKN043 09/08 A2994 RMK AO2 SLP138 T00890078 401500078=
202005140653 METAR KCLM 140653Z AUTO 23004KT 8SM CLR 08/08 A2993 RMK AO2 SLP137 T00830078=
202005140553 METAR KCLM 140553Z AUTO 24005KT 10SM BKN047 08/08 A2993 RMK AO2 SLP135 60014 T00830078 10144 20083 51011=
202005140453 METAR KCLM 140453Z AUTO 22003KT 10SM CLR 09/08 A2992 RMK AO2 SLP133 T00940083=
202005140353 METAR KCLM 140353Z AUTO 26005KT 10SM OVC085 10/09 A2991 RMK AO2 RAB0256E08 SLP129 P0000 T01000089=
202005140253 METAR KCLM 140253Z AUTO 29006KT 10SM BKN060 BKN075 OVC090 11/09 A2990 RMK AO2 RAE45 SLP124 P0004 60014 T01060094 51006=
202005140205 SPECI KCLM 140205Z AUTO 29004KT 4SM -RA BR FEW039 OVC050 11/09 A2990 RMK AO2 P0001 T01060094=
202005140153 METAR KCLM 140153Z AUTO 27004KT 2SM -RA BR SCT040 OVC055 11/09 A2990 RMK AO2 RAB0054 SLP124 P0010 T01060094=
202005140150 SPECI KCLM 140150Z AUTO 28005KT 2SM RA BR FEW040 OVC055 11/09 A2989 RMK AO2 RAB0054 P0009=
202005140053 METAR KCLM 140053Z AUTO 30006KT 10SM BKN038 OVC070 13/08 A2988 RMK AO2 SLP118 T01280078=
202005132353 METAR KCLM 132353Z AUTO 30007KT 10SM OVC070 14/08 A2988 RMK AO2 SLP117 60000 T01390083 10150 20122 51002=
202005132253 METAR KCLM 132253Z AUTO 34006KT 10SM SCT036 OVC060 14/08 A2987 RMK AO2 SLP117 T01390083=
202005132153 METAR KCLM 132153Z AUTO VRB05KT 10SM BKN035 BKN100 14/09 A2988 RMK AO2 SLP117 T01390089=
202005132053 METAR KCLM 132053Z AUTO VRB04KT 10SM FEW034 BKN065 14/09 A2987 RMK AO2 SLP116 60000 T01390089 51006=
202005131953 METAR KCLM 131953Z AUTO 01004KT 10SM FEW018 BKN039 OVC055 13/09 A2987 RMK AO2 SLP115 T01330089=
202005131853 METAR KCLM 131853Z AUTO VRB04KT 10SM FEW038 SCT047 13/09 A2986 RMK AO2 RAE14 SLP112 P0000 T01280089=
202005131753 METAR KCLM 131753Z AUTO 35004KT 10SM -RA FEW038 OVC060 12/09 A2985 RMK AO2 RAB39 SLP110 P0000 60000 T01220094 10128 20100 51013=
202005131653 METAR KCLM 131653Z AUTO 34004KT 10SM FEW042 BKN070 13/09 A2984 RMK AO2 SLP106 T01280089=
202005131553 METAR KCLM 131553Z AUTO 00000KT 10SM BKN085 12/09 A2983 RMK AO2 SLP102 T01220089=
202005131453 METAR KCLM 131453Z AUTO 24004KT 10SM FEW025 12/09 A2981 RMK AO2 SLP097 T01170089 53010=
202005131407 SPECI KCLM 131407Z AUTO 21004KT 10SM SCT024 BKN085 11/09 A2980 RMK AO2 T01110094=
202005131353 METAR KCLM 131353Z AUTO 22003KT 10SM BKN024 11/09 A2980 RMK AO2 SLP092 T01060094=
202005131253 METAR KCLM 131253Z AUTO 21004KT 10SM BKN024 OVC075 10/09 A2980 RMK AO2 SLP091 T01000094=
202005131244 SPECI KCLM 131244Z AUTO 22004KT 10SM SCT024 BKN032 OVC075 10/09 A2979 RMK AO2 T01000094=
202005131236 SPECI KCLM 131236Z AUTO 21005KT 10SM BKN025 OVC032 10/09 A2979 RMK AO2 T01000094=
202005131225 SPECI KCLM 131225Z AUTO 22005KT 10SM SCT027 BKN033 10/09 A2979 RMK AO2 T01000094=
202005131153 METAR KCLM 131153Z AUTO 00000KT 10SM OVC027 10/09 A2978 RMK AO2 SLP087 70005 T01000094 10111 20094 53007=
202005131119 SPECI KCLM 131119Z AUTO 00000KT 10SM BKN024 OVC070 09/09 A2978 RMK AO2 T00940089=
202005131053 METAR KCLM 131053Z AUTO 22004KT 10SM FEW024 SCT031 BKN120 09/09 A2978 RMK AO2 SLP084 T00940089=
202005131036 SPECI KCLM 131036Z AUTO 00000KT 10SM SCT024 SCT031 10/09 A2977 RMK AO2 T01000094=
202005131002 SPECI KCLM 131002Z AUTO 00000KT 10SM BKN024 OVC060 10/09 A2977 RMK AO2 T01000094=
202005130953 METAR KCLM 130953Z AUTO 00000KT 10SM SCT024 OVC060 10/09 A2977 RMK AO2 SLP081 T01000094=
202005130853 METAR KCLM 130853Z AUTO 16003KT 10SM FEW024 OVC070 10/09 A2976 RMK AO2 SLP080 T01000089 52004=
202005130753 METAR KCLM 130753Z AUTO 22003KT 10SM BKN022 BKN070 10/09 A2975 RMK AO2 SLP076 T01000094 401670094=
202005130723 SPECI KCLM 130723Z AUTO 00000KT 10SM SCT022 BKN070 10/09 A2975 RMK AO2 T01000094=
202005130653 METAR KCLM 130653Z AUTO 00000KT 10SM OVC022 11/10 A2974 RMK AO2 SLP073 T01060100=
202005130553 METAR KCLM 130553Z AUTO 28003KT 10SM BKN024 BKN030 BKN100 10/09 A2973 RMK AO2 SLP070 60002 T01000094 10128 20100 51012=
202005130532 SPECI KCLM 130532Z AUTO 00000KT 10SM BKN023 BKN110 11/10 A2973 RMK AO2 T01060100=
202005130453 METAR KCLM 130453Z AUTO 00000KT 10SM SCT100 11/10 A2972 RMK AO2 SLP066 T01060100=
202005130353 METAR KCLM 130353Z AUTO VRB03KT 10SM FEW022 OVC090 12/10 A2971 RMK AO2 SLP061 T01170100=
202005130340 SPECI KCLM 130340Z AUTO 28004KT 10SM SCT022 OVC090 12/11 A2971 RMK AO2 T01170106=
202005130253 METAR KCLM 130253Z AUTO 26005KT 10SM OVC019 12/11 A2970 RMK AO2 SLP057 60002 T01220106 53006=
202005130214 SPECI KCLM 130214Z AUTO 25004KT 10SM BKN016 OVC100 12/11 A2969 RMK AO2 T01220111=
202005130153 METAR KCLM 130153Z AUTO 27005KT 10SM OVC100 12/11 A2968 RMK AO2 RAE0059 SLP053 P0000 T01220111=
202005130109 SPECI KCLM 130109Z AUTO VRB03KT 10SM FEW004 OVC080 12/11 A2968 RMK AO2 RAE0059 P0000 T01220111=
202005130053 METAR KCLM 130053Z AUTO 32005KT 7SM -RA FEW045 BKN070 OVC080 12/12 A2968 RMK AO2 SLP050 P0002 T01220117=
202005122353 METAR KCLM 122353Z AUTO 30007KT 4SM -RA BR FEW033 SCT050 OVC065 12/11 A2968 RMK AO2 RAE05B30 SLP051 P0003 60003 T01220111 10167 20111 53001=
202005122253 METAR KCLM 122253Z AUTO 34005KT 10SM -RA BKN065 OVC080 15/12 A2966 RMK AO2 RAB53 SLP043 P0000 T01500117=
202005122153 METAR KCLM 122153Z AUTO 00000KT 8SM BKN075 OVC085 14/11 A2967 RMK AO2 SLP046 T01440111=
202005122106 SPECI KCLM 122106Z AUTO 00000KT 10SM SCT007 SCT070 OVC110 14/11 A2967 RMK AO2 T01390111=
202005122053 METAR KCLM 122053Z AUTO 00000KT 10SM BKN007 BKN075 OVC100 13/11 A2968 RMK AO2 SLP050 T01280106 50000=
202005121953 METAR KCLM 121953Z AUTO 36003KT 9SM OVC007 12/10 A2968 RMK AO2 SLP052 T01170100=
202005121853 METAR KCLM 121853Z AUTO 01004KT 8SM OVC005 12/10 A2968 RMK AO2 CIG 004V008 SLP051 T01170100=
202005121843 SPECI KCLM 121843Z AUTO VRB03KT 8SM OVC005 12/10 A2968 RMK AO2 T01170100=
202005121807 SPECI KCLM 121807Z AUTO 09003KT 8SM OVC004 11/10 A2968 RMK AO2 T01110100=
202005121753 METAR KCLM 121753Z AUTO VRB03KT 8SM OVC005 12/10 A2968 RMK AO2 SLP050 T01170100 10122 20094 56003=
202005121708 SPECI KCLM 121708Z AUTO VRB04KT 9SM BKN005 BKN090 12/11 A2968 RMK AO2 T01170106=
202005121653 METAR KCLM 121653Z AUTO 04004KT 10SM SCT005 BKN085 12/10 A2968 RMK AO2 SLP050 T01170100=
202005121618 SPECI KCLM 121618Z AUTO 07005KT 9SM SCT004 BKN070 OVC110 12/10 A2968 RMK AO2 T01170100=
202005121553 METAR KCLM 121553Z AUTO 07006KT 10SM OVC075 12/10 A2968 RMK AO2 SLP052 T01220100=
202005121514 SPECI KCLM 121514Z AUTO 09005KT 10SM FEW004 SCT080 11/11 A2969 RMK AO2 T01110106=
202005121453 METAR KCLM 121453Z AUTO 11006KT 7SM BKN002 11/11 A2969 RMK AO2 CIG 001V005 SLP054 T01060106 56004=
202005121437 SPECI KCLM 121437Z AUTO 10004KT 5SM BR OVC002 11/11 A2969 RMK AO2 T01060106=
202005121419 SPECI KCLM 121419Z AUTO 08003KT 3SM BR BKN001 OVC080 11/10 A2968 RMK AO2 T01060100=
202005121401 SPECI KCLM 121401Z AUTO 00000KT 1 3/4SM BR OVC001 11/10 A2969 RMK AO2 T01060100=
202005121353 METAR KCLM 121353Z AUTO 11003KT 1SM BR OVC002 11/10 A2969 RMK AO2 SLP054 T01060100=
202005121337 SPECI KCLM 121337Z AUTO 09003KT 1SM BR OVC003 11/10 A2969 RMK AO2 T01060100=
202005121253 METAR KCLM 121253Z AUTO 00000KT M1/4SM FG VV002 09/09 A2969 RMK AO2 SLP054 T00940089=
202005121249 SPECI KCLM 121249Z AUTO 00000KT 1/4SM FG VV002 09/09 A2969 RMK AO2=
202005121212 SPECI KCLM 121212Z AUTO 00000KT 1/2SM FG VV001 09/09 A2970 RMK AO2 T00940094=
202005121203 SPECI KCLM 121203Z AUTO 00000KT 3/4SM BR SCT001 SCT120 10/09 A2970 RMK AO2 T01000094=
202005121158 SPECI KCLM 121158Z AUTO 00000KT 2 1/2SM BR FEW001 FEW120 10/09 A2970 RMK AO2 T01000094=
202005121153 METAR KCLM 121153Z AUTO 00000KT 1 3/4SM BR FEW023 FEW120 10/09 A2970 RMK AO2 SLP058 60004 70020 T01000094 10106 20100 58008=
202005121150 SPECI KCLM 121150Z AUTO 00000KT 1 3/4SM BR FEW023 SCT120 10/09 A2970 RMK AO2=
202005121146 SPECI KCLM 121146Z AUTO 00000KT 3SM BR SCT024 SCT120 10/09 A2970 RMK AO2 T01000094=
202005121123 SPECI KCLM 121123Z AUTO 00000KT 10SM OVC024 11/10 A2971 RMK AO2 T01060100=
202005121115 SPECI KCLM 121115Z AUTO 00000KT 2 1/2SM BR BKN026 OVC110 11/10 A2971 RMK AO2 T01060100=
202005121053 METAR KCLM 121053Z AUTO 00000KT 10SM OVC028 11/10 A2971 RMK AO2 SLP062 T01060100=
202005120953 METAR KCLM 120953Z AUTO 09004KT 10SM FEW007 OVC025 11/10 A2973 RMK AO2 RAE30 SLP065 P0001 T01060100=
202005120853 METAR KCLM 120853Z AUTO 00000KT 6SM -RA BR OVC009 11/10 A2973 RMK AO2 SLP067 P0001 60003 T01060100 58006=
202005120753 METAR KCLM 120753Z AUTO 00000KT 7SM -RA OVC008 11/10 A2973 RMK AO2 CIG 008V011 SLP069 P0001 T01060100 401670100=
202005120732 SPECI KCLM 120732Z AUTO 00000KT 9SM -RA BKN010 OVC019 11/10 A2974 RMK AO2 CIG 009V015 P0000 T01060100=
202005120653 METAR KCLM 120653Z AUTO 00000KT 8SM -RA BKN027 OVC032 11/10 A2975 RMK AO2 SLP072 P0001 T01060100=
202005120553 METAR KCLM 120553Z AUTO 00000KT 7SM -RA OVC075 11/10 A2975 RMK AO2 SLP072 P0005 60016 T01060100 10139 20106 50005=
202005120506 SPECI KCLM 120506Z AUTO 28005KT 5SM -RA BR SCT008 OVC055 11/09 A2975 RMK AO2 P0001 T01060094=
202005120453 METAR KCLM 120453Z AUTO 26005KT 7SM -RA BKN008 BKN050 OVC075 11/09 A2975 RMK AO2 SLP074 P0003 T01060094=
202005120426 SPECI KCLM 120426Z AUTO 25006KT 6SM -RA BR BKN007 BKN047 OVC055 11/09 A2974 RMK AO2 CIG 005V010 P0001 T01060094=
202005120416 SPECI KCLM 120416Z AUTO 23006KT 7SM -RA SCT007 BKN047 OVC055 11/09 A2975 RMK AO2 P0000 T01060094=
202005120353 METAR KCLM 120353Z AUTO 26008KT 10SM -RA BKN048 OVC070 11/09 A2974 RMK AO2 SLP069 P0004 T01060094=
202005120253 METAR KCLM 120253Z AUTO 26008G16KT 5SM -RA BR BKN075 OVC085 11/09 A2973 RMK AO2 SLP068 P0004 60004 T01110094 53004=
202005120153 METAR KCLM 120153Z AUTO 28011KT 10SM -RA SCT070 OVC085 12/09 A2971 RMK AO2 RAB15 SLP063 P0000 T01170094=
202005120053 METAR KCLM 120053Z AUTO 29013G23KT 10SM SCT110 13/09 A2971 RMK AO2 SLP062 T01280094=
202005112353 METAR KCLM 112353Z AUTO 29009G22KT 10SM FEW012 BKN110 14/11 A2972 RMK AO2 SLP063 T01390106 10156 20139 56007=
202005112253 METAR KCLM 112253Z AUTO 30011G16KT 10SM FEW110 15/11 A2972 RMK AO2 SLP065 T01500111=
202005112153 METAR KCLM 112153Z AUTO 29013KT 10SM BKN110 16/12 A2973 RMK AO2 SLP066 T01560117=
202005112053 METAR KCLM 112053Z AUTO 28007KT 10SM OVC100 14/11 A2974 RMK AO2 SLP070 T01390111 58002=
202005111953 METAR KCLM 111953Z AUTO 29009KT 10SM OVC100 14/11 A2974 RMK AO2 SLP071 T01390106=
202005111853 METAR KCLM 111853Z AUTO 28009KT 10SM OVC100 14/11 A2974 RMK AO2 SLP071 T01440111=
202005111753 METAR KCLM 111753Z AUTO 32005KT 10SM FEW110 16/12 A2974 RMK AO2 SLP071 T01560117 10156 20117 56002=
202005111653 METAR KCLM 111653Z AUTO 31005KT 10SM CLR 14/11 A2975 RMK AO2 SLP072 T01440111=
202005111553 METAR KCLM 111553Z AUTO VRB03KT 10SM CLR 16/12 A2974 RMK AO2 SLP071 T01560117=
202005111453 METAR KCLM 111453Z AUTO 00000KT 10SM SCT120 13/11 A2975 RMK AO2 SLP073 T01330106 50000=
202005111353 METAR KCLM 111353Z AUTO 29005KT 10SM OVC110 13/10 A2975 RMK AO2 SLP074 T01280100=
202005111253 METAR KCLM 111253Z AUTO 31004KT 10SM CLR 12/09 A2975 RMK AO2 SLP073 T01170094=
202005111153 METAR KCLM 111153Z AUTO 26006KT 10SM CLR 12/08 A2975 RMK AO2 SLP072 T01220078 10172 20117 53002=
202005111053 METAR KCLM 111053Z AUTO 00000KT 10SM CLR 13/08 A2974 RMK AO2 SLP069 T01330078=
202005110953 METAR KCLM 110953Z AUTO 22008KT 10SM CLR 14/08 A2973 RMK AO2 SLP067 T01440078=
202005110853 METAR KCLM 110853Z AUTO 22005KT 10SM CLR 14/08 A2974 RMK AO2 SLP070 T01440078 58006=
202005110753 METAR KCLM 110753Z AUTO 23007KT 10SM CLR 17/08 A2975 RMK AO2 SLP073 T01670078 402500083=
202005110653 METAR KCLM 110653Z AUTO 00000KT 10SM CLR 14/09 A2975 RMK AO2 SLP075 T01390089=
202005110553 METAR KCLM 110553Z AUTO 18003KT 10SM CLR 14/09 A2976 RMK AO2 SLP077 T01440094 10250 20139 56002=
202005110453 METAR KCLM 110453Z AUTO 00000KT 10SM CLR 16/10 A2976 RMK AO2 SLP078 T01610100=
202005110353 METAR KCLM 110353Z AUTO 16003KT 10SM CLR 17/10 A2976 RMK AO2 SLP076 T01720100=
202005110253 METAR KCLM 110253Z AUTO 00000KT 10SM CLR 21/08 A2977 RMK AO2 SLP078 T02110078 56010=
202005110153 METAR KCLM 110153Z AUTO 08004KT 10SM CLR 23/07 A2977 RMK AO2 SLP081 T02280067=
202005110053 METAR KCLM 110053Z AUTO 08007KT 10SM CLR 24/07 A2977 RMK AO2 SLP081 T02440067=
202005102353 METAR KCLM 102353Z AUTO 08008KT 10SM CLR 23/07 A2979 RMK AO2 SLP089 T02280067 10239 20183 58023=
202005102253 METAR KCLM 102253Z AUTO 07007KT 10SM CLR 23/06 A2982 RMK AO2 SLP098 T02280061=
202005102153 METAR KCLM 102153Z AUTO 10010KT 10SM CLR 23/07 A2984 RMK AO2 SLP104 T02280067=
202005102053 METAR KCLM 102053Z AUTO 07008KT 10SM CLR 22/08 A2986 RMK AO2 SLP113 T02170078 58013=
202005101953 METAR KCLM 101953Z AUTO 08010KT 10SM CLR 20/08 A2988 RMK AO2 SLP117 T02000078=
202005101853 METAR KCLM 101853Z AUTO 10006KT 10SM CLR 19/08 A2989 RMK AO2 SLP122 T01940078=
202005101753 METAR KCLM 101753Z AUTO VRB06KT 10SM CLR 18/07 A2990 RMK AO2 SLP126 T01830072 10189 20083 58008=
202005101653 METAR KCLM 101653Z AUTO 08007KT 10SM CLR 18/07 A2992 RMK AO2 SLP130 T01780072=
202005101553 METAR KCLM 101553Z AUTO 08006KT 10SM CLR 18/07 A2992 RMK AO2 SLP132 T01780072=
202005101453 METAR KCLM 101453Z AUTO 10005KT 10SM CLR 17/08 A2993 RMK AO2 SLP133 T01670078 52002=
202005101353 METAR KCLM 101353Z AUTO 15003KT 10SM CLR 12/09 A2993 RMK AO2 SLP134 T01170089=
202005101253 METAR KCLM 101253Z AUTO 00000KT 10SM CLR 09/07 A2992 RMK AO2 SLP131 T00890067=
202005101153 METAR KCLM 101153Z AUTO 00000KT 10SM CLR 11/07 A2992 RMK AO2 SLP132 T01110067 10156 20106 58003=
202005101053 METAR KCLM 101053Z AUTO 00000KT 10SM CLR 12/07 A2993 RMK AO2 SLP134 T01170067=
202005100953 METAR KCLM 100953Z AUTO 22007KT 10SM CLR 13/07 A2993 RMK AO2 SLP132 T01330067=
202005100853 METAR KCLM 100853Z AUTO 00000KT 10SM CLR 13/07 A2993 RMK AO2 SLP135 T01280072 56004=
202005100753 METAR KCLM 100753Z AUTO 00000KT 10SM CLR 11/08 A2993 RMK AO2 SLP135 T01060078 402330050=
202005100653 METAR KCLM 100653Z AUTO 22005KT 10SM CLR 12/08 A2993 RMK AO2 SLP136 T01170078=
202005100553 METAR KCLM 100553Z AUTO 22008KT 10SM CLR 13/08 A2994 RMK AO2 SLP139 T01330083 10233 20122 50002=
202005100453 METAR KCLM 100453Z AUTO 00000KT 10SM CLR 14/09 A2994 RMK AO2 SLP140 T01390094=
202005100353 METAR KCLM 100353Z AUTO 00000KT 10SM CLR 17/09 A2994 RMK AO2 SLP140 T01670094=
202005100253 METAR KCLM 100253Z AUTO 11004KT 10SM CLR 21/07 A2994 RMK AO2 SLP136 T02110067 56012=
202005100153 METAR KCLM 100153Z AUTO 08004KT 10SM CLR 22/08 A2994 RMK AO2 SLP139 T02220078=
202005100053 METAR KCLM 100053Z AUTO 09006KT 10SM CLR 23/08 A2996 RMK AO2 SLP144 T02330078=
202005092353 METAR KCLM 092353Z AUTO 11006KT 10SM CLR 23/08 A2997 RMK AO2 SLP149 T02330083 10233 20178 57014=
202005092253 METAR KCLM 092253Z AUTO 09005KT 10SM CLR 22/08 A2999 RMK AO2 SLP154 T02220078=
202005092153 METAR KCLM 092153Z AUTO 09008KT 10SM CLR 23/08 A3000 RMK AO2 SLP158 T02280083=
202005092053 METAR KCLM 092053Z AUTO 08007KT 10SM CLR 22/08 A3001 RMK AO2 SLP164 T02170083 58015=
202005091953 METAR KCLM 091953Z AUTO 08009KT 10SM CLR 20/07 A3003 RMK AO2 SLP168 T02000072=
202005091853 METAR KCLM 091853Z AUTO 07008KT 10SM CLR 19/08 A3005 RMK AO2 SLP175 T01940078=
202005091753 METAR KCLM 091753Z AUTO 07006KT 10SM CLR 18/07 A3006 RMK AO2 SLP179 T01780072 10183 20050 50001=
202005091653 METAR KCLM 091653Z AUTO 10006KT 10SM CLR 17/07 A3006 RMK AO2 SLP179 T01720072=
202005091553 METAR KCLM 091553Z AUTO 10007KT 10SM CLR 16/07 A3006 RMK AO2 SLP179 T01610067=
202005091453 METAR KCLM 091453Z AUTO 11005KT 10SM CLR 15/08 A3006 RMK AO2 SLP177 T01500078 50000=
202005091353 METAR KCLM 091353Z AUTO 00000KT 10SM CLR 08/06 A3006 RMK AO2 SLP178 T00830061=
202005091253 METAR KCLM 091253Z AUTO 21004KT 10SM CLR 05/04 A3006 RMK AO2 SLP179 T00500039=
202005091153 METAR KCLM 091153Z AUTO 00000KT 10SM CLR 07/04 A3005 RMK AO2 SLP177 T00670044 10133 20061 56007=
202005091053 METAR KCLM 091053Z AUTO 00000KT 10SM CLR 08/04 A3006 RMK AO2 SLP177 T00780044=
202005090953 METAR KCLM 090953Z AUTO 00000KT 10SM CLR 09/04 A3007 RMK AO2 SLP181 T00890044=
202005090853 METAR KCLM 090853Z AUTO 22006KT 10SM CLR 09/05 A3007 RMK AO2 SLP184 T00890050 58001=
202005090753 METAR KCLM 090753Z AUTO 00000KT 10SM CLR 10/06 A3008 RMK AO2 SLP186 T01000056 402110044=
202005090653 METAR KCLM 090653Z AUTO 00000KT 10SM CLR 09/06 A3008 RMK AO2 SLP186 T00940056=
202005090553 METAR KCLM 090553Z AUTO 23006KT 10SM CLR 14/06 A3008 RMK AO2 SLP185 T01390061 10211 20117 51004=
202005090453 METAR KCLM 090453Z AUTO 22006KT 10SM CLR 13/06 A3008 RMK AO2 SLP185 T01330061=
202005090353 METAR KCLM 090353Z AUTO 15003KT 10SM CLR 15/06 A3007 RMK AO2 SLP181 T01500061=
202005090253 METAR KCLM 090253Z AUTO 10006KT 10SM CLR 19/04 A3007 RMK AO2 SLP181 T01890044 56015=
202005090153 METAR KCLM 090153Z AUTO 09008KT 10SM CLR 21/04 A3007 RMK AO2 SLP183 T02060039=
202005090053 METAR KCLM 090053Z AUTO 07008KT 10SM CLR 21/03 A3009 RMK AO2 SLP189 T02110033=
202005082353 METAR KCLM 082353Z AUTO 08006KT 10SM CLR 21/04 A3011 RMK AO2 SLP196 T02110039 10211 20156 58023=
202005082253 METAR KCLM 082253Z AUTO 08009KT 10SM CLR 21/03 A3013 RMK AO2 SLP204 T02110028=
202005082153 METAR KCLM 082153Z AUTO 07011KT 10SM CLR 20/03 A3016 RMK AO2 SLP212 T02000033=
202005082053 METAR KCLM 082053Z AUTO 08011KT 10SM CLR 19/05 A3018 RMK AO2 SLP219 T01890050 58013=
202005081953 METAR KCLM 081953Z AUTO 09009KT 10SM CLR 18/06 A3019 RMK AO2 SLP225 T01780056=
202005081853 METAR KCLM 081853Z AUTO 06007KT 10SM CLR 17/04 A3020 RMK AO2 SLP228 T01670044=
202005081753 METAR KCLM 081753Z AUTO VRB05KT 10SM CLR 15/06 A3022 RMK AO2 SLP233 T01500056 10150 20044 58005=
202005081653 METAR KCLM 081653Z AUTO 07006KT 10SM CLR 14/06 A3022 RMK AO2 SLP236 T01440056=
202005081553 METAR KCLM 081553Z AUTO 07005KT 10SM CLR 14/05 A3022 RMK AO2 SLP236 T01390050=
202005081453 METAR KCLM 081453Z AUTO 22004KT 10SM CLR 11/06 A3023 RMK AO2 SLP237 T01110056 53000=
202005081353 METAR KCLM 081353Z AUTO 20004KT 10SM CLR 08/04 A3023 RMK AO2 SLP237 T00830044=
202005081253 METAR KCLM 081253Z AUTO 21004KT 10SM CLR 06/03 A3023 RMK AO2 SLP237 T00560028=
202005081153 METAR KCLM 081153Z AUTO 20004KT 10SM CLR 07/03 A3023 RMK AO2 SLP237 T00670033 10117 20067 55006=
202005081053 METAR KCLM 081053Z AUTO 22005KT 10SM CLR 08/04 A3023 RMK AO2 SLP237 T00780039=
202005080953 METAR KCLM 080953Z AUTO 23006KT 10SM CLR 08/03 A3023 RMK AO2 SLP239 T00830033=
202005080853 METAR KCLM 080853Z AUTO 13006KT 10SM CLR 11/02 A3025 RMK AO2 SLP243 T01060017 56006=
202005080753 METAR KCLM 080753Z AUTO 13007KT 10SM CLR 11/03 A3025 RMK AO2 SLP245 T01060028 401560044=
202005080653 METAR KCLM 080653Z AUTO 13007KT 10SM CLR 11/03 A3026 RMK AO2 SLP247 T01060033=
202005080553 METAR KCLM 080553Z AUTO 14006KT 10SM CLR 08/04 A3027 RMK AO2 SLP250 T00780039 10156 20061 58006=
202005080453 METAR KCLM 080453Z AUTO 00000KT 10SM CLR 08/05 A3027 RMK AO2 SLP252 T00830050=
202005080353 METAR KCLM 080353Z AUTO 13006KT 10SM CLR 11/05 A3028 RMK AO2 SLP254 T01060050=
202005080253 METAR KCLM 080253Z AUTO 11005KT 10SM CLR 14/06 A3028 RMK AO2 SLP256 T01390056 56020=
202005080153 METAR KCLM 080153Z AUTO 09005KT 10SM CLR 16/04 A3030 RMK AO2 SLP260 T01560044=
202005080053 METAR KCLM 080053Z AUTO 09006KT 10SM CLR 16/06 A3032 RMK AO2 SLP267 T01560061=
202005072353 METAR KCLM 072353Z AUTO 09007KT 10SM CLR 15/07 A3034 RMK AO2 SLP276 T01500067 10150 20117 56022=
202005072253 METAR KCLM 072253Z AUTO 10008KT 10SM CLR 15/07 A3036 RMK AO2 SLP283 T01500067=
202005072153 METAR KCLM 072153Z AUTO 09008KT 10SM CLR 14/05 A3039 RMK AO2 SLP290 T01440050=
202005072053 METAR KCLM 072053Z AUTO 07007KT 10SM CLR 13/07 A3041 RMK AO2 SLP298 T01280072 56020=
202005071953 METAR KCLM 071953Z AUTO 08007KT 10SM CLR 12/07 A3043 RMK AO2 SLP305 T01220067=
202005071853 METAR KCLM 071853Z AUTO 07008KT 10SM CLR 12/07 A3045 RMK AO2 SLP311 T01220067=
202005071753 METAR KCLM 071753Z AUTO 07009KT 10SM CLR 12/06 A3047 RMK AO2 SLP319 T01170061 10122 20044 58009=
202005071653 METAR KCLM 071653Z AUTO 10006KT 10SM CLR 11/06 A3048 RMK AO2 SLP323 T01110056=
202005071553 METAR KCLM 071553Z AUTO 08007KT 10SM CLR 11/04 A3049 RMK AO2 SLP327 T01110039=
202005071453 METAR KCLM 071453Z AUTO 23004KT 10SM CLR 08/02 A3050 RMK AO2 SLP328 T00830022 58002=
202005071353 METAR KCLM 071353Z AUTO 22007KT 10SM CLR 06/01 A3050 RMK AO2 SLP329 T00610011=
202005071253 METAR KCLM 071253Z AUTO 23005KT 10SM OVC050 05/01 A3050 RMK AO2 SLP329 T00500011=
202005071153 METAR KCLM 071153Z AUTO 25007KT 10SM BKN050 05/01 A3050 RMK AO2 SLP330 70002 T00500011 10078 20050 56001=
202005071053 METAR KCLM 071053Z AUTO 24010KT 10SM CLR 06/01 A3050 RMK AO2 SLP330 T00560011=
202005070953 METAR KCLM 070953Z AUTO 25010KT 10SM CLR 06/01 A3050 RMK AO2 SLP330 T00610011=
202005070853 METAR KCLM 070853Z AUTO 24011KT 10SM CLR 07/02 A3050 RMK AO2 SLP331 T00670017 58001=
202005070753 METAR KCLM 070753Z AUTO 24009KT 10SM CLR 07/02 A3051 RMK AO2 SLP332 T00670022 401390067=
202005070653 METAR KCLM 070653Z AUTO 25010KT 10SM CLR 07/03 A3051 RMK AO2 SLP331 T00670028=
202005070553 METAR KCLM 070553Z AUTO 25008KT 10SM CLR 07/03 A3051 RMK AO2 SLP331 T00720033 10117 20072 51011=
202005070453 METAR KCLM 070453Z AUTO 25009KT 10SM CLR 08/07 A3050 RMK AO2 SLP329 T00830067=
202005070353 METAR KCLM 070353Z AUTO 28008KT 10SM CLR 08/06 A3049 RMK AO2 SLP327 T00830061=
202005070253 METAR KCLM 070253Z AUTO 30011KT 10SM CLR 10/07 A3047 RMK AO2 SLP321 T01000067 51001=
202005070153 METAR KCLM 070153Z AUTO 30012G21KT 10SM CLR 11/06 A3047 RMK AO2 SLP321 T01110061=
202005070053 METAR KCLM 070053Z AUTO 31010G18KT 10SM CLR 12/06 A3047 RMK AO2 SLP320 T01170061=
202005062353 METAR KCLM 062353Z AUTO 29017G23KT 10SM CLR 12/06 A3047 RMK AO2 PK WND 32027/2322 SLP319 60002 T01170061 10139 20094 53020=
202005062253 METAR KCLM 062253Z AUTO 31015G22KT 10SM SCT060 11/06 A3046 RMK AO2 PK WND 31027/2206 RAB34E44 SLP315 P0000 T01110061=
202005062153 METAR KCLM 062153Z AUTO 30014G24KT 10SM FEW046 12/07 A3042 RMK AO2 SLP303 T01220067=
202005062053 METAR KCLM 062053Z AUTO 27013G28KT 10SM CLR 13/06 A3041 RMK AO2 PK WND 27028/2046 RAE29 SLP299 P0001 60002 T01280056 51028=
202005061953 METAR KCLM 061953Z AUTO 28020G29KT 7SM -RA FEW023 BKN044 BKN055 11/06 A3040 RMK AO2 PK WND 28029/1952 RAB1855E35B51 SLP295 P0001 T01060061=
202005061853 METAR KCLM 061853Z AUTO 30021G30KT 10SM FEW048 BKN060 BKN080 12/05 A3036 RMK AO2 PK WND 32030/1853 SLP281 T01170050=
202005061753 METAR KCLM 061753Z AUTO 29011G22KT 10SM FEW050 13/04 A3033 RMK AO2 SLP271 60000 T01330044 10133 20078 51029=
202005061653 METAR KCLM 061653Z AUTO 28009G18KT 10SM CLR 13/03 A3030 RMK AO2 SLP263 T01280033=
202005061553 METAR KCLM 061553Z AUTO 27010G19KT 10SM BKN045 BKN060 11/04 A3028 RMK AO2 SLP255 T01060039=
202005061453 METAR KCLM 061453Z AUTO 24011KT 10SM FEW100 09/04 A3024 RMK AO2 SLP241 60000 T00940039 51031=
202005061353 METAR KCLM 061353Z AUTO 26009KT 10SM BKN060 BKN070 09/04 A3021 RMK AO2 SLP232 T00890039=
202005061253 METAR KCLM 061253Z AUTO 27005KT 10SM OVC050 08/04 A3018 RMK AO2 RAB29E39 SLP219 P0000 T00830044=
202005061153 METAR KCLM 061153Z AUTO 27009KT 10SM SCT060 BKN070 OVC110 09/04 A3015 RMK AO2 SLP208 T00890044 10111 20083 51031=
202005061053 METAR KCLM 061053Z AUTO 25007KT 10SM OVC095 09/04 A3011 RMK AO2 SLP196 T00940044=
202005060953 METAR KCLM 060953Z AUTO 28008KT 10SM OVC080 11/04 A3009 RMK AO2 SLP189 T01060039=
202005060853 METAR KCLM 060853Z AUTO 00000KT 10SM OVC110 09/06 A3005 RMK AO2 SLP177 T00940056 53012=
202005060753 METAR KCLM 060753Z AUTO 24005KT 10SM CLR 11/06 A3003 RMK AO2 SLP169 T01110056 401670056=
202005060653 METAR KCLM 060653Z AUTO 00000KT 10SM CLR 10/08 A3002 RMK AO2 SLP168 T01000083=
202005060553 METAR KCLM 060553Z AUTO 21003KT 10SM CLR 10/08 A3002 RMK AO2 SLP165 60000 T01000083 10167 20100 50008=
202005060453 METAR KCLM 060453Z AUTO 28009KT 10SM CLR 12/09 A3002 RMK AO2 SLP167 T01170094=
202005060353 METAR KCLM 060353Z AUTO 26006KT 10SM BKN085 13/08 A3000 RMK AO2 SLP160 T01330083=
202005060253 METAR KCLM 060253Z AUTO 25006KT 10SM FEW060 FEW080 BKN100 13/08 A2999 RMK AO2 RAB35E44 SLP157 P0000 60000 T01280078 56014=
202005060153 METAR KCLM 060153Z AUTO 00000KT 10SM FEW033 SCT070 BKN100 15/08 A3001 RMK AO2 SLP162 T01500083=
202005060053 METAR KCLM 060053Z AUTO 01003KT 10SM CLR 16/07 A3002 RMK AO2 SLP166 T01610067=
202005052353 METAR KCLM 052353Z AUTO 00000KT 10SM CLR 16/08 A3003 RMK AO2 SLP171 T01610078 10161 20117 56024=
202005052253 METAR KCLM 052253Z AUTO 05004KT 10SM CLR 16/08 A3006 RMK AO2 SLP179 T01560078=
202005052153 METAR KCLM 052153Z AUTO 09006KT 10SM FEW080 14/07 A3008 RMK AO2 SLP186 T01440072=
202005052053 METAR KCLM 052053Z AUTO 08008KT 10SM FEW085 13/07 A3011 RMK AO2 SLP195 T01330072 58020=
202005051953 METAR KCLM 051953Z AUTO VRB06KT 10SM CLR 13/08 A3012 RMK AO2 SLP201 T01280078=
202005051853 METAR KCLM 051853Z AUTO VRB03KT 10SM CLR 12/07 A3015 RMK AO2 SLP210 T01220067=
202005051753 METAR KCLM 051753Z AUTO VRB04KT 10SM CLR 12/07 A3016 RMK AO2 SLP215 T01220072 10122 20061 58014=
202005051653 METAR KCLM 051653Z AUTO 08006KT 10SM FEW035 11/07 A3018 RMK AO2 SLP222 T01110067=
202005051553 METAR KCLM 051553Z AUTO 03005KT 10SM CLR 11/07 A3020 RMK AO2 SLP227 T01110067=
202005051453 METAR KCLM 051453Z AUTO 00000KT 10SM CLR 09/07 A3021 RMK AO2 SLP229 T00890072 56006=
202005051353 METAR KCLM 051353Z AUTO 21004KT 10SM CLR 06/06 A3021 RMK AO2 SLP230 T00610056=
202005051153 METAR KCLM 051153Z AUTO 23003KT 10SM OVC024 08/06 A3022 RMK AO2 SLP235 T00780061 10078 20056 51003=
202005051053 METAR KCLM 051053Z AUTO 00000KT 10SM OVC020 08/07 A3022 RMK AO2 SLP236 T00780067=
202005050953 METAR KCLM 050953Z AUTO 20003KT 10SM BKN019 06/06 A3022 RMK AO2 SLP234 T00610056=
202005050933 SPECI KCLM 050933Z AUTO 16003KT 10SM SCT012 08/07 A3021 RMK AO2 T00780067=
202005050853 METAR KCLM 050853Z AUTO 00000KT 10SM OVC012 07/06 A3021 RMK AO2 SLP232 T00670056 51012=
202005050813 SPECI KCLM 050813Z AUTO 22003KT 10SM BKN011 06/06 A3021 RMK AO2 T00610056=
202005050753 METAR KCLM 050753Z AUTO 00000KT 10SM CLR 06/04 A3021 RMK AO2 SLP231 T00560044 401280022=
202005050653 METAR KCLM 050653Z AUTO 25006KT 10SM CLR 07/06 A3019 RMK AO2 SLP225 T00720061=
202005050553 METAR KCLM 050553Z AUTO 27003KT 10SM SCT085 07/06 A3018 RMK AO2 SLP221 T00720061 10122 20072 51016=
202005050453 METAR KCLM 050453Z AUTO 26005KT 10SM FEW065 08/06 A3017 RMK AO2 SLP218 T00780056=
202005050353 METAR KCLM 050353Z AUTO 25004KT 10SM CLR 09/06 A3015 RMK AO2 SLP211 T00940056=
202005050253 METAR KCLM 050253Z AUTO 24009KT 10SM FEW085 11/06 A3013 RMK AO2 SLP204 T01060056 55004=
202005050153 METAR KCLM 050153Z AUTO 33003KT 10SM BKN100 12/05 A3013 RMK AO2 SLP203 T01220050=
202005050053 METAR KCLM 050053Z AUTO 33003KT 10SM OVC085 11/04 A3013 RMK AO2 SLP205 T01110044=
202005042353 METAR KCLM 042353Z AUTO 10006KT 10SM SCT100 12/05 A3014 RMK AO2 SLP208 T01220050 10128 20083 56008=
202005042253 METAR KCLM 042253Z AUTO 08006KT 10SM CLR 12/05 A3014 RMK AO2 SLP209 T01170050=
202005042153 METAR KCLM 042153Z AUTO VRB05KT 10SM SCT100 11/05 A3016 RMK AO2 SLP214 T01110050=
202005042053 METAR KCLM 042053Z AUTO VRB04KT 10SM SCT090 BKN110 10/06 A3016 RMK AO2 SLP216 T01000061 56010=
202005041953 METAR KCLM 041953Z AUTO 09005KT 10SM FEW110 10/06 A3017 RMK AO2 SLP218 T01000061=
202005041853 METAR KCLM 041853Z AUTO 08008KT 10SM FEW011 SCT100 09/06 A3018 RMK AO2 SLP223 T00940061=
202005041753 METAR KCLM 041753Z AUTO VRB03KT 10SM BKN110 08/05 A3019 RMK AO2 SLP227 T00830050 10083 20022 58008=
202005041653 METAR KCLM 041653Z AUTO 00000KT 10SM FEW011 FEW120 08/05 A3021 RMK AO2 SLP231 T00780050=
202005041640 SPECI KCLM 041640Z AUTO 00000KT 10SM SCT009 08/05 A3021 RMK AO2 T00780050=
202005041553 METAR KCLM 041553Z AUTO 00000KT 10SM BKN008 08/06 A3022 RMK AO2 SLP234 T00780056=
202005041453 METAR KCLM 041453Z AUTO 00000KT 10SM OVC008 07/04 A3022 RMK AO2 SLP235 T00670044 58004=
202005041353 METAR KCLM 041353Z AUTO 00000KT 10SM OVC008 04/03 A3022 RMK AO2 SLP236 T00440028=
202005041335 SPECI KCLM 041335Z AUTO 21003KT 10SM BKN008 04/02 A3023 RMK AO2 T00390022=
202005041313 SPECI KCLM 041313Z AUTO 23003KT 10SM SCT012 02/01 A3023 RMK AO2 T00220011=
202005041253 METAR KCLM 041253Z AUTO 22004KT 10SM OVC012 03/02 A3023 RMK AO2 SLP240 T00330017=
202005041231 SPECI KCLM 041231Z AUTO 00000KT 10SM BKN011 BKN027 03/02 A3023 RMK AO2 T00280017=
202005041153 METAR KCLM 041153Z AUTO 00000KT 10SM CLR 03/02 A3023 RMK AO2 SLP238 70010 T00280017 10050 20022 57013=
202005041053 METAR KCLM 041053Z AUTO 22005KT 10SM CLR 03/02 A3024 RMK AO2 SLP244 T00280022=
202005040953 METAR KCLM 040953Z AUTO 00000KT 10SM CLR 03/02 A3025 RMK AO2 SLP246 T00280022=
202005040853 METAR KCLM 040853Z AUTO 22005KT 10SM CLR 03/02 A3027 RMK AO2 SLP252 T00330022 58005=
202005040753 METAR KCLM 040753Z AUTO 21004KT 10SM CLR 04/03 A3027 RMK AO2 SLP253 T00390028 401110039=
202005040653 METAR KCLM 040653Z AUTO 22006KT 10SM CLR 05/03 A3028 RMK AO2 SLP256 T00500033=
202005040553 METAR KCLM 040553Z AUTO 00000KT 10SM CLR 04/03 A3028 RMK AO2 SLP257 60000 T00390028 10111 20039 56000=
202005040453 METAR KCLM 040453Z AUTO 22006KT 10SM CLR 05/04 A3029 RMK AO2 SLP258 T00500039=
202005040353 METAR KCLM 040353Z AUTO 21003KT 10SM CLR 07/06 A3028 RMK AO2 SLP255 T00720056=
202005040253 METAR KCLM 040253Z AUTO 00000KT 10SM CLR 09/06 A3028 RMK AO2 RAE10 SLP256 P0000 60000 T00890061 51005=
202005040153 METAR KCLM 040153Z AUTO 00000KT 10SM -RA BKN045 OVC050 11/04 A3029 RMK AO2 RAB49 SLP257 P0000 T01060044=
202005040053 METAR KCLM 040053Z AUTO 33004KT 10SM SCT038 BKN060 09/04 A3029 RMK AO2 SLP258 T00940044=
202005032353 METAR KCLM 032353Z AUTO VRB04KT 10SM CLR 11/04 A3027 RMK AO2 SLP251 60010 T01060044 10111 20072 56002=
202005032253 METAR KCLM 032253Z AUTO 35006KT 10SM FEW065 11/04 A3027 RMK AO2 SLP252 T01060044=
202005032153 METAR KCLM 032153Z AUTO 00000KT 10SM FEW050 BKN070 BKN080 10/05 A3028 RMK AO2 RAB2056E20 SLP253 P0001 T01000050=
202005032053 METAR KCLM 032053Z AUTO VRB03KT 10SM FEW025 SCT046 BKN060 09/04 A3028 RMK AO2 SLP254 60009 T00940044 51017=
202005031953 METAR KCLM 031953Z AUTO VRB03KT 10SM FEW036 BKN047 OVC055 08/06 A3027 RMK AO2 RAB1857E45 SLP253 P0009 T00830061=
202005031931 SPECI KCLM 031931Z AUTO 33005KT 3SM -RA BR FEW030 SCT034 OVC044 07/05 A3027 RMK AO2 RAB1857 P0009 T00720050=
202005031920 SPECI KCLM 031920Z AUTO 29006KT 1 3/4SM -RA FEW018 BKN031 OVC048 08/05 A3027 RMK AO2 RAB1857 P0007 T00780050=
202005031853 METAR KCLM 031853Z AUTO VRB03KT 10SM SCT038 BKN045 OVC055 09/06 A3025 RMK AO2 SLP244 T00890056=
202005031753 METAR KCLM 031753Z AUTO VRB03KT 10SM SCT042 BKN049 OVC080 10/04 A3023 RMK AO2 SLP237 T01000044 10100 20039 51019=
202005031653 METAR KCLM 031653Z AUTO 08005KT 10SM SCT065 BKN110 09/05 A3021 RMK AO2 SLP230 T00940050=
202005031553 METAR KCLM 031553Z AUTO VRB04KT 10SM FEW065 SCT080 09/05 A3019 RMK AO2 SLP224 T00890050=
202005031453 METAR KCLM 031453Z AUTO 23007KT 10SM FEW017 BKN060 BKN085 08/03 A3017 RMK AO2 SLP218 T00780033 53020=
202005031353 METAR KCLM 031353Z AUTO 23004KT 10SM CLR 04/03 A3015 RMK AO2 SLP211 T00440028=
202005031253 METAR KCLM 031253Z AUTO VRB03KT 10SM SCT060 05/03 A3013 RMK AO2 SLP204 T00500028=
202005031153 METAR KCLM 031153Z AUTO 25009KT 10SM SCT070 BKN090 BKN120 06/03 A3011 RMK AO2 SLP198 60000 70012 T00560028 10072 20039 53019=
202005031053 METAR KCLM 031053Z AUTO 13004KT 10SM CLR 04/03 A3008 RMK AO2 SLP187 T00390028=
202005030953 METAR KCLM 030953Z AUTO 22004KT 10SM CLR 06/03 A3007 RMK AO2 RAB17E31 SLP184 P0000 T00610033=
202005030853 METAR KCLM 030853Z AUTO 23003KT 10SM BKN060 07/04 A3006 RMK AO2 SLP179 T00670039 53024=
202005030753 METAR KCLM 030753Z AUTO 26008KT 10SM OVC055 07/03 A3003 RMK AO2 SLP170 T00670033 401220050=
202005030653 METAR KCLM 030653Z AUTO 28005KT 10SM SCT060 07/03 A3000 RMK AO2 SLP161 T00670028=
202005030553 METAR KCLM 030553Z AUTO 23008KT 10SM CLR 07/03 A2998 RMK AO2 SLP154 60000 T00670028 10122 20050 51023=
202005030453 METAR KCLM 030453Z AUTO 27006KT 10SM CLR 07/03 A2997 RMK AO2 SLP149 T00720028=
202005030353 METAR KCLM 030353Z AUTO 23006KT 10SM CLR 08/04 A2995 RMK AO2 SLP141 T00830044=
202005030253 METAR KCLM 030253Z AUTO 28013G20KT 10SM FEW045 OVC055 09/06 A2992 RMK AO2 RAB0159E07 SLP131 P0000 60000 T00940056 51031=
202005030202 SPECI KCLM 030202Z AUTO 28010G21KT 10SM -RA FEW009 BKN044 BKN060 09/07 A2990 RMK AO2 RAB0159 P0000 T00940072=
202005030153 METAR KCLM 030153Z AUTO 27014G20KT 10SM BKN009 BKN045 BKN055 09/08 A2989 RMK AO2 RAE23 SLP124 P0000 T00940078=
202005030133 SPECI KCLM 030133Z AUTO 27012G19KT 10SM BKN009 BKN037 OVC047 09/08 A2989 RMK AO2 RAE23 P0000 T00940078=
202005030053 METAR KCLM 030053Z AUTO 27014G17KT 10SM -RA FEW047 BKN060 OVC095 11/07 A2987 RMK AO2 RAB07E16B43 SLP116 P0000 T01060072=
202005022353 METAR KCLM 022353Z AUTO 29012G21KT 10SM BKN042 BKN050 11/07 A2982 RMK AO2 SLP099 60010 T01060072 10122 20100 53036=
202005022253 METAR KCLM 022253Z AUTO 29011G15KT 10SM FEW007 BKN031 OVC048 12/09 A2979 RMK AO2 RAE39 SLP090 P0005 T01170094=
202005022239 SPECI KCLM 022239Z AUTO 31008KT 10SM FEW006 BKN029 OVC065 12/11 A2978 RMK AO2 RAE39 P0005 T01170106=
202005022234 SPECI KCLM 022234Z AUTO 30007KT 4SM -RA BR FEW026 BKN040 OVC065 11/11 A2978 RMK AO2 P0005 T01110106=
202005022230 SPECI KCLM 022230Z AUTO 31007KT 1 1/2SM -RA BR SCT028 BKN042 OVC060 11/10 A2978 RMK AO2 P0005 T01060100=
202005022223 SPECI KCLM 022223Z AUTO 28008KT 2SM -RA BR FEW006 BKN043 OVC060 11/09 A2978 RMK AO2 VIS 1/2V5 PRESRR P0004 T01060094=
202005022153 METAR KCLM 022153Z AUTO 30006KT 10SM -RA FEW050 BKN060 OVC075 11/09 A2973 RMK AO2 PRESFR SLP068 P0003 T01060094=
202005022053 METAR KCLM 022053Z AUTO 00000KT 10SM -RA BKN055 OVC070 10/08 A2971 RMK AO2 RAB25E34B51 SLP063 P0000 60002 T01000078 55014=
202005022011 SPECI KCLM 022011Z AUTO 31003KT 10SM FEW008 BKN060 BKN075 11/09 A2972 RMK AO2 T01110089=
202005021953 METAR KCLM 021953Z AUTO VRB03KT 10SM BKN055 BKN075 12/10 A2971 RMK AO2 RAE41 SLP060 P0001 T01170100=
202005021853 METAR KCLM 021853Z AUTO 00000KT 10SM -RA FEW012 BKN060 OVC075 11/09 A2974 RMK AO2 RAE17B35 SLP071 P0001 T01110094=
202005021835 SPECI KCLM 021835Z AUTO 00000KT 10SM -RA SCT010 OVC070 11/09 A2974 RMK AO2 RAE17B35 P0001 T01060089=
202005021826 SPECI KCLM 021826Z AUTO 00000KT 10SM BKN009 BKN055 OVC070 10/09 A2974 RMK AO2 RAE17 P0001 T01000089=
202005021818 SPECI KCLM 021818Z AUTO 00000KT 10SM SCT009 OVC070 10/09 A2975 RMK AO2 RAE17 P0001 T01000089=
202005021753 METAR KCLM 021753Z AUTO 00000KT 10SM -RA OVC070 10/09 A2976 RMK AO2 SLP077 P0000 60002 T01000089 10111 20061 56015=
202005021653 METAR KCLM 021653Z AUTO 27003KT 7SM -RA BKN060 OVC075 11/08 A2976 RMK AO2 RAB36 SLP078 P0001 T01060083=
202005021553 METAR KCLM 021553Z AUTO 00000KT 10SM SCT075 11/08 A2977 RMK AO2 RAE32 SLP083 P0001 T01060078=
202005021453 METAR KCLM 021453Z AUTO 28004KT 9SM -RA OVC075 09/07 A2980 RMK AO2 RAB15 SLP092 P0000 60000 T00890072 56012=
202005021353 METAR KCLM 021353Z AUTO 24004KT 10SM BKN070 OVC085 08/07 A2981 RMK AO2 SLP096 T00780067=
202005021253 METAR KCLM 021253Z AUTO 00000KT 10SM CLR 07/06 A2981 RMK AO2 SLP097 T00670056=
202005021153 METAR KCLM 021153Z AUTO 00000KT 10SM BKN070 08/06 A2984 RMK AO2 RAB1058E17 SLP104 P0001 60001 70001 T00780061 10089 20061 56017=
202005021053 METAR KCLM 021053Z AUTO 00000KT 10SM OVC070 08/07 A2985 RMK AO2 RAE03B28E47 SLP110 P0000 T00780067=
202005020953 METAR KCLM 020953Z AUTO 00000KT 10SM -RA SCT070 BKN090 OVC110 07/06 A2987 RMK AO2 RAB41 SLP114 P0000 T00720061=
202005020853 METAR KCLM 020853Z AUTO 00000KT 10SM CLR 07/06 A2989 RMK AO2 SLP121 T00720056 58023=
202005020753 METAR KCLM 020753Z AUTO 21003KT 10SM CLR 07/05 A2992 RMK AO2 SLP133 T00720050 401390061=
202005020653 METAR KCLM 020653Z AUTO 23006KT 10SM CLR 07/06 A2994 RMK AO2 SLP138 T00720056=
202005020553 METAR KCLM 020553Z AUTO 00000KT 10SM CLR 09/06 A2995 RMK AO2 SLP144 T00890061 10139 20078 58006=
202005020453 METAR KCLM 020453Z AUTO 00000KT 10SM SCT070 SCT110 09/06 A2998 RMK AO2 SLP152 T00940061=
202005020353 METAR KCLM 020353Z AUTO 00000KT 10SM BKN070 10/06 A2997 RMK AO2 SLP150 T01000061=
202005020253 METAR KCLM 020253Z AUTO 00000KT 10SM BKN070 OVC085 12/05 A2997 RMK AO2 SLP151 T01220050 56009=
202005020153 METAR KCLM 020153Z AUTO 26003KT 10SM BKN070 OVC100 13/06 A2998 RMK AO2 SLP153 T01280056=
202005020053 METAR KCLM 020053Z AUTO 00000KT 10SM BKN100 13/04 A2999 RMK AO2 SLP157 T01330039=
202005012353 METAR KCLM 012353Z AUTO 00000KT 10SM OVC090 13/04 A3000 RMK AO2 SLP161 T01330039 10133 20094 58009=
202005012253 METAR KCLM 012253Z AUTO 34004KT 10SM OVC085 11/06 A3002 RMK AO2 SLP165 T01110061=
202005012153 METAR KCLM 012153Z AUTO 35004KT 10SM BKN100 12/07 A3002 RMK AO2 SLP167 T01220072=
202005012053 METAR KCLM 012053Z AUTO 36006KT 10SM CLR 11/07 A3003 RMK AO2 SLP170 T01110072 58009=
202005011953 METAR KCLM 011953Z AUTO 36005KT 10SM CLR 10/07 A3004 RMK AO2 SLP173 T01000072=
202005011925 SPECI KCLM 011925Z AUTO 02004KT 10SM SCT021 11/07 A3004 RMK AO2 T01060072=
202005011853 METAR KCLM 011853Z AUTO 02004KT 10SM OVC021 11/08 A3005 RMK AO2 SLP177 T01060078=
202005011813 SPECI KCLM 011813Z AUTO 07005KT 10SM FEW008 SCT014 BKN020 10/07 A3006 RMK AO2 T01000072=
202005011803 SPECI KCLM 011803Z AUTO 07005KT 10SM SCT008 BKN014 OVC020 09/07 A3006 RMK AO2 T00940072=
202005011753 METAR KCLM 011753Z AUTO VRB03KT 10SM BKN008 BKN012 OVC019 09/07 A3006 RMK AO2 SLP179 T00940072 10100 20067 55004=
202005011741 SPECI KCLM 011741Z AUTO VRB05KT 10SM BKN009 OVC022 09/07 A3005 RMK AO2 CIG 006V012 T00940072=
202005011726 SPECI KCLM 011726Z AUTO 01004KT 10SM SCT009 OVC024 09/07 A3005 RMK AO2 T00940072=
202005011653 METAR KCLM 011653Z AUTO VRB04KT 10SM OVC023 09/06 A3006 RMK AO2 SLP179 T00940061=
202005011553 METAR KCLM 011553Z AUTO VRB03KT 10SM BKN016 OVC023 09/07 A3006 RMK AO2 SLP181 T00890067=
202005011453 METAR KCLM 011453Z AUTO 24004KT 10SM FEW019 OVC025 08/06 A3007 RMK AO2 SLP184 T00780056 56009=
202005011353 METAR KCLM 011353Z AUTO 00000KT 9SM OVC020 07/06 A3007 RMK AO2 SLP184 T00720056=
202005011253 METAR KCLM 011253Z AUTO 23005KT 10SM OVC022 07/05 A3008 RMK AO2 SLP188 T00670050=
202005011153 METAR KCLM 011153Z AUTO 23004KT 10SM OVC021 07/05 A3010 RMK AO2 SLP193 70002 T00720050 10089 20072 56006=
202005011053 METAR KCLM 011053Z AUTO 23005KT 10SM OVC021 07/05 A3010 RMK AO2 SLP195 T00720050=
202005010953 METAR KCLM 010953Z AUTO 23005KT 10SM OVC022 08/07 A3011 RMK AO2 SLP196 T00780067=
202005010853 METAR KCLM 010853Z AUTO 23005KT 10SM OVC019 08/07 A3012 RMK AO2 SLP199 T00830072 56006=
202005010753 METAR KCLM 010753Z AUTO 00000KT 10SM OVC017 09/07 A3012 RMK AO2 SLP201 T00890072 401280072=
202005010707 SPECI KCLM 010707Z AUTO 23003KT 10SM OVC015 08/08 A3013 RMK AO2 T00830078=
202005010653 METAR KCLM 010653Z AUTO 00000KT 10SM OVC014 08/08 A3012 RMK AO2 SLP202 T00830078=
202005010626 SPECI KCLM 010626Z AUTO 25003KT 10SM OVC014 08/07 A3013 RMK AO2 T00830072=
202005010553 METAR KCLM 010553Z AUTO 24004KT 10SM BKN015 BKN060 08/07 A3013 RMK AO2 SLP205 60001 T00830072 10106 20078 51003=
202005010551 SPECI KCLM 010551Z AUTO 23003KT 10SM BKN015 BKN060 08/07 A3013 RMK AO2=
202005010453 METAR KCLM 010453Z AUTO 24003KT 10SM OVC060 09/07 A3014 RMK AO2 RAE23 SLP206 P0001 T00890072=
202005010353 METAR KCLM 010353Z AUTO 25003KT 9SM -RA OVC050 09/08 A3012 RMK AO2 RAB29 SLP202 P0000 T00940078=
202005010253 METAR KCLM 010253Z AUTO 29003KT 10SM BKN048 OVC055 09/07 A3011 RMK AO2 SLP198 60000 T00940072 53003=
202005010153 METAR KCLM 010153Z AUTO VRB03KT 10SM BKN049 OVC060 10/08 A3011 RMK AO2 RAB0057E07 SLP196 P0000 T01000078=
202005010053 METAR KCLM 010053Z AUTO 29006KT 10SM OVC049 11/08 A3011 RMK AO2 RAE27 SLP196 P0000 T01060078=

# No short TAF reports from KCLM in databse.

###################################
#  large TAF from KCLM
###################################
202005312320 TAF KCLM 312320Z 0100/0124 31010KT P6SM SCT050 FM010100 29010KT
                       P6SM SCT050 BKN200 FM011300 28007KT P6SM
                       BKN050 BKN200 FM011800 32011KT P6SM BKN050
                       BKN200=
202005311720 TAF KCLM 311720Z 3118/0118 31010KT P6SM SCT050 FM010100 29010KT
                       P6SM SCT050 BKN200 FM011300 28007KT P6SM
                       BKN050 BKN200=
202005311127 TAF KCLM 311127Z 3112/0112 27008KT P6SM SCT040 SCT120 FM311800
                       31010KT P6SM BKN040 FM010100 29010KT P6SM
                       SCT050 BKN200=
202005310545 TAF KCLM 310545Z 3106/0106 27012KT P6SM FEW110 FM311000 27016G24KT
                       P6SM VCSH OVC030 FM311600 30013KT P6SM OVC035=
202005302320 TAF KCLM 302320Z 3100/3124 30012KT P6SM -RA SCT010 BKN050 OVC100
                       FM310300 29014G22KT P6SM -SHRA OVC040 FM311000
                       27016G24KT P6SM VCSH OVC030 FM311600 30013KT
                       P6SM OVC035=
202005301847 KCLM 301847Z 3019/3118 31008KT P6SM SCT015 BKN090 OVC110 FM302300
                       30012KT P6SM VCSH SCT010 BKN050 OVC100 FM310300
                       29014G22KT P6SM -SHRA OVC040 FM311000 27016G24KT
                       P6SM VCSH OVC030=
202005301726 TAF KCLM 301726Z 3018/3118 31008KT P6SM BKN007 BKN090 OVC110 FM302300
                       30012KT P6SM VCSH SCT010 BKN050 OVC100 FM310300
                       29014G22KT P6SM -SHRA OVC040 FM311000 27016G24KT
                       P6SM VCSH OVC030=
202005301121 TAF KCLM 301121Z 3012/3112 29008KT P6SM BKN150 OVC250 FM301700
                       31008KT P6SM BKN070 OVC150 FM302300 30012KT
                       P6SM VCSH BKN050 OVC100 FM310300 29014G22KT
                       P6SM -SHRA OVC040=
202005300520 TAF KCLM 300520Z 3006/3106 28010KT P6SM SCT150 BKN250 FM301700
                       31008KT P6SM BKN070 OVC150 FM302300 30012KT
                       P6SM VCSH BKN050 OVC100 FM310200 29014G22KT
                       P6SM -SHRA OVC040=
202005292321 TAF KCLM 292321Z 3000/3024 30012G20KT P6SM BKN150 BKN250 FM300600
                       30012KT P6SM BKN150 OVC250 FM301700 29011KT
                       P6SM VCSH BKN070 OVC100 FM302200 29013KT
                       6SM -RA OVC040=
202005291721 TAF KCLM 291721Z 2918/3018 29012KT P6SM SCT150 BKN250 FM292200
                       30015G25KT P6SM BKN150 BKN250 FM300600 30012KT
                       P6SM BKN150 OVC250 FM301700 29011KT P6SM
                       VCSH BKN060 OVC100=
202005291120 TAF KCLM 291120Z 2912/3012 28008KT P6SM SCT005 FM291700 32012KT
                       P6SM SCT020 BKN250 FM300000 30015G25KT P6SM
                       BKN250 FM300600 30012KT P6SM OVC250=
202005291000 KCLM 291000Z 2910/3006 28008KT P6SM SCT005 FM291700 32012KT P6SM
                       SCT020 BKN200 FM300000 30015G25KT P6SM BKN200=
202005290524 TAF KCLM 290524Z 2906/3006 28012KT P6SM BKN200 FM291000 28008KT
                       P6SM SCT005
                      TEMPO 2910/2914 3SM BR BKN005 FM291700 32012KT
                       P6SM SCT020 BKN200 FM300000 30015G25KT P6SM
                       BKN200=
202005282320 TAF KCLM 282320Z 2900/2924 VRB04KT P6SM BKN200 FM290400 28012KT
                       P6SM BKN200 FM291000 28008KT P6SM SCT005
                       TEMPO 2910/2914 3SM BR BKN005 FM291700 28008KT
                       P6SM SCT015=
202005281721 TAF KCLM 281721Z 2818/2918 09005KT P6SM BKN150 FM290000 28008KT
                       P6SM SCT200 FM290400 28012KT P6SM SKC FM290800
                       28008KT P6SM BKN010
                      TEMPO 2908/2912 2SM BR BKN005 FM291700 28008KT
                       P6SM SCT025=
202005281122 TAF KCLM 281122Z 2812/2912 VRB04KT P6SM BKN250 FM282200 30012KT
                       P6SM SCT250=
202005280520 TAF KCLM 280520Z 2806/2906 VRB04KT P6SM BKN250 FM282200 30012KT
                       P6SM SCT250=
202005272320 TAF KCLM 272320Z 2800/2824 VRB04KT P6SM BKN250 FM282200 30012KT
                       P6SM SCT250=
202005271720 TAF KCLM 271720Z 2718/2818 VRB04KT P6SM SCT250 FM280400 27005KT
                       P6SM SKC=
202005271120 TAF KCLM 271120Z 2712/2812 VRB03KT P6SM SCT250 FM271700 07007KT
                       P6SM SCT250 FM280400 27005KT P6SM FEW250=
202005270605 TAF KCLM 270605Z 2706/2806 VRB03KT P6SM SCT200 FM271700 07007KT
                       P6SM SCT200=
202005262320 TAF KCLM 262320Z 2700/2724 30006KT P6SM SCT040 SCT200 FM270600
                       VRB03KT P6SM SCT200 FM271700 33006KT P6SM
                       SCT200=
202005261720 TAF KCLM 261720Z 2618/2718 32008KT P6SM BKN040 FM262100 32008KT
                       P6SM SCT040 SCT200 FM270600 VRB03KT P6SM
                       SCT200 FM271700 33006KT P6SM SCT200=
202005261120 TAF KCLM 261120Z 2612/2712 27006KT P6SM BKN020 FM261800 33008KT
                       P6SM BKN050 BKN150 FM270400 27006KT P6SM
                       FEW250=
202005260608 TAF KCLM 260608Z 2606/2706 29007KT P6SM VCSH OVC019 FM260900 27006KT
                       P6SM OVC030 FM262000 35007KT P6SM OVC050=
202005252324 TAF KCLM 252324Z 2600/2624 29008KT P6SM OVC010 FM260300 29007KT
                       P6SM VCSH OVC019 FM260900 27006KT P6SM OVC030
                       FM262000 35007KT P6SM OVC050=
202005251720 TAF KCLM 251720Z 2518/2618 31006KT 6SM -RA BR OVC004 FM252100 33007KT
                       P6SM -SHRA BKN018 OVC025 FM260300 29010KT
                       P6SM VCSH BKN025 BKN040 FM260900 29005KT
                       P6SM BKN035 BKN050=
202005251125 TAF KCLM 251125Z 2512/2612 24004KT P6SM -RA SCT022 OVC040
                      TEMPO 2512/2515 6SM -RA BR BKN018 OVC025
                       FM251500 27005KT 6SM -RA BR OVC017 FM252100
                       30007KT P6SM -SHRA BKN018 OVC025 FM260300
                       29010KT P6SM VCSH BKN025 BKN040 FM260900
                       29005KT P6SM BKN035 BKN050=
202005250539 TAF KCLM 250539Z 2506/2606 VRB03KT P6SM OVC050 FM250900 32003KT
                       P6SM -RA OVC025 FM251200 31004KT 6SM -RA
                       BR OVC015 FM252100 29007KT 6SM -SHRA BKN014
                       OVC022 FM260300 29010KT P6SM VCSH BKN025
                       BKN040=
202005242328 TAF KCLM 242328Z 2500/2524 VRB03KT P6SM VCSH OVC050 FM250300 32005KT
                       P6SM OVC050 FM250900 32003KT P6SM -RA OVC025
                       FM251200 31004KT 4SM RA BR OVC015=
202005241720 TAF KCLM 241720Z 2418/2518 VRB04KT P6SM -SHRA BKN060 OVC090 FM242000
                       VRB03KT P6SM VCSH OVC050 FM250300 32005KT
                       P6SM OVC050 FM250900 32003KT P6SM -RA OVC025
                       FM251200 31004KT 4SM RA BR OVC015=
202005241120 TAF KCLM 241120Z 2412/2512 25003KT P6SM BKN070 BKN120 FM241700
                       VRB05KT P6SM BKN060 OVC100 FM250300 32005KT
                       P6SM OVC050 FM250900 VRB03KT P6SM -RA OVC025=
202005240550 TAF KCLM 240550Z 2406/2506 30009KT P6SM SCT035 BKN060 FM241000
                       28006KT P6SM SCT070 BKN120 FM241700 26003KT
                       P6SM SCT050 OVC100 FM242300 32005KT P6SM
                       OVC050=
202005232338 TAF KCLM 232338Z 2400/2424 30009KT P6SM SCT035 BKN060 FM240700
                       28006KT P6SM BKN070 OVC100 FM241000 26003KT
                       P6SM VCSH OVC050=
202005231744 TAF KCLM 231744Z 2318/2418 33009KT P6SM BKN060 FM240000 32007KT
                       P6SM BKN060 BKN100 FM240700 28006KT P6SM
                       BKN070 OVC100=
202005231121 TAF KCLM 231121Z 2312/2412 24007KT P6SM SCT050 FM231800 33009KT
                       P6SM BKN060 FM240000 32007KT P6SM BKN060
                       BKN100 FM240700 28006KT P6SM BKN070 OVC100=
202005230532 TAF KCLM 230532Z 2306/2406 27006KT P6SM SCT035 OVC050 FM231200
                       25009KT P6SM OVC050 FM231800 33009KT P6SM
                       OVC050 FM240000 32007KT P6SM BKN060 BKN100=
202005222327 TAF KCLM 222327Z 2300/2324 30013G19KT P6SM SCT035 OVC050 FM231200
                       25009KT P6SM OVC050 FM231800 33009KT P6SM
                       OVC050=
202005221738 TAF KCLM 221738Z 2218/2318 28009KT P6SM SCT035 BKN050 FM222100
                       31012KT P6SM SCT050 BKN120 FM230800 27008KT
                       P6SM BKN060=
202005221120 TAF KCLM 221120Z 2212/2312 25008KT P6SM BKN060 FM221600 28009KT
                       P6SM BKN050 FM222100 31012KT P6SM SCT050
                       BKN120 FM230800 27008KT P6SM BKN060=
202005220522 TAF KCLM 220522Z 2206/2306 27008KT P6SM BKN050 BKN100 FM220900
                       28010KT P6SM SCT020 BKN035 BKN050 FM221600
                       28008KT P6SM BKN050 FM222100 31010KT P6SM
                       SCT050 BKN120=
202005212334 TAF KCLM 212334Z 2200/2224 28012G18KT P6SM BKN050 FM220900 28010KT
                       P6SM SCT020 BKN035 BKN050 FM221600 28008KT
                       P6SM BKN050=
202005211733 TAF KCLM 211733Z 2118/2218 28014G22KT P6SM BKN050 FM220900 28012KT
                       P6SM SCT020 BKN035 BKN050=
202005211133 TAF KCLM 211133Z 2112/2212 26008KT P6SM VCSH BKN040 BKN060 FM211900
                       31012G18KT P6SM -SHRA OVC035 FM220200 29015G25KT
                       P6SM VCSH BKN040 BKN060 FM220900 27012G20KT
                       P6SM BKN030=
202005210524 TAF KCLM 210524Z 2106/2206 27010G18KT P6SM SCT025 BKN050 FM211200
                       28011KT P6SM -SHRA OVC040 FM211900 31012G18KT
                       P6SM -SHRA OVC035 FM220200 29013G20KT P6SM
                       VCSH BKN040 BKN060=
202005210238 KCLM 210238Z 2103/2124 28014G22KT P6SM SCT020 OVC035 FM210600 26014G20KT
                       P6SM OVC050 FM211000 28015KT P6SM -SHRA
                       OVC050 FM211900 31015G22KT P6SM -SHRA OVC025=
202005202324 TAF KCLM 202324Z 2100/2124 29015G25KT P6SM BKN008 OVC012 FM210600
                       26014G20KT P6SM OVC050 FM211000 28015KT
                       P6SM -SHRA OVC050 FM211900 31015G22KT P6SM
                       -SHRA OVC025=
202005201722 TAF KCLM 201722Z 2018/2118 31010G20KT P6SM OVC050 FM210000 27018G25KT
                       P6SM BKN050 FM211000 28015KT P6SM -SHRA
                       OVC050=
202005201521 KCLM 201521Z 2015/2112 28007KT P6SM FEW050 BKN060 FM201800 31011KT
                       P6SM OVC020 FM202100 28018G28KT P6SM BKN050=
202005201120 TAF KCLM 201120Z 2012/2112 30008KT P6SM SCT020 BKN050 FM201400
                       27007KT P6SM OVC015 FM201800 31011KT P6SM
                       OVC020 FM202100 28018G28KT P6SM BKN050=
202005200520 TAF KCLM 200520Z 2006/2106 30008KT P6SM OVC010 FM201200 27007KT
                       P6SM OVC015 FM201800 31011KT P6SM OVC020
                       FM202100 30018G28KT P6SM BKN050=
202005200257 KCLM 200257Z 2003/2024 30012KT P6SM OVC010 FM201200 27007KT P6SM
                       OVC015 FM201800 31011KT P6SM OVC030 FM202100
                       30018G28KT P6SM BKN050=
202005200212 KCLM 200212Z 2002/2024 30012KT P6SM OVC010 FM201200 27007KT P6SM
                       OVC015 FM201800 31011KT P6SM OVC030 FM202100
                       30018G28KT P6SM BKN050=
202005192320 TAF KCLM 192320Z 2000/2024 30012KT P6SM SKC FM200600 27012KT P6SM
                       BKN040 FM201200 27007KT P6SM OVC025=
202005191720 TAF KCLM 191720Z 1918/2018 VRB04KT P6SM SKC FM192100 27012KT P6SM
                       SCT040 FM200600 27012KT P6SM BKN030 FM201200
                       27007KT P6SM OVC020=
202005191506 KCLM 191506Z 1915/2012 27008KT P6SM SKC FM191700 27008KT P6SM SCT020
                       FM192100 27012KT P6SM BKN030 FM200600 27012KT
                       P6SM OVC025=
202005191120 TAF KCLM 191120Z 1912/2012 26006KT P6SM SCT010 FM191500 28008KT
                       P6SM BKN015 FM191700 23007KT P6SM OVC025
                       FM192100 28011KT P6SM OVC030=
202005190520 TAF KCLM 190520Z 1906/2006 27010KT P6SM FEW050 FM191000 28008KT
                       P6SM BKN015 FM191700 23007KT P6SM OVC025
                       FM192100 31011KT P6SM OVC030=
202005182320 TAF KCLM 182320Z 1900/1924 31012KT P6SM FEW050 FM191000 28008KT
                       P6SM BKN015 FM191700 23007KT P6SM OVC025=
202005181720 TAF KCLM 181720Z 1818/1918 33006KT P6SM SCT030 BKN200 FM182100
                       31008KT P6SM SCT040 BKN120 FM190300 28012G20KT
                       P6SM BKN040 BKN120 FM190900 28008KT P6SM
                       BKN015 OVC040 FM191700 23007KT P6SM BKN018
                       OVC030=
202005181427 KCLM 181427Z 1814/1912 22005KT P6SM BKN030 FM181900 32008KT P6SM
                       SCT040 SCT200 FM182200 29014G20KT P6SM SCT040
                       SCT200 FM190300 29012KT P6SM SCT200 FM190900
                       27010KT P6SM BKN050=
202005181120 TAF KCLM 181120Z 1812/1912 26004KT P6SM SCT250 FM181900 32008KT
                       P6SM FEW050 SCT250 FM182200 29014G20KT P6SM
                       SCT250 FM190300 29012KT P6SM SCT250 FM190900
                       27010KT P6SM BKN050=
202005180524 TAF KCLM 180524Z 1806/1906 26004KT P6SM SCT250 FM181900 32008KT
                       P6SM FEW050 SCT250 FM182200 29014G20KT P6SM
                       SCT250 FM190300 29012KT P6SM SCT250=
202005172322 TAF KCLM 172322Z 1800/1824 30007KT P6SM VCSH SCT050 BKN090 FM180300
                       28006KT P6SM SCT050 BKN150 FM180600 26004KT
                       P6SM SCT250 FM181900 32008KT P6SM FEW050
                       SCT250=
202005171720 TAF KCLM 171720Z 1718/1818 35005KT P6SM VCSH SCT025 BKN060
                      TEMPO 1718/1720 -SHRA BKN020 OVC060 FM172000
                       32004KT P6SM SCT030 BKN060 FM180100 28006KT
                       P6SM SCT050 BKN150=
202005171120 TAF KCLM 171120Z 1712/1812 22003KT P6SM VCSH OVC010 FM171600 32007KT
                       P6SM VCSH SCT015 BKN030 FM172000 32004KT
                       P6SM SCT030 BKN050 FM180100 28006KT P6SM
                       SCT050 BKN150=
202005170525 TAF KCLM 170525Z 1706/1806 25004KT P6SM -SHRA BKN060 BKN090 FM171000
                       22003KT P6SM -SHRA BKN035 OVC060
                      TEMPO 1712/1716 OVC010 FM171600 32007KT P6SM
                       VCSH SCT040 BKN100 FM180100 28006KT P6SM
                       SCT040 BKN150=
202005162323 TAF KCLM 162323Z 1700/1724 25004KT P6SM -SHRA BKN060 BKN090 FM171000
                       22003KT P6SM -SHRA BKN035 OVC060 FM172000
                       32006KT P6SM VCSH SCT040 BKN100=
202005161728 TAF KCLM 161728Z 1618/1718 28004KT P6SM FEW005 OVC070
                      TEMPO 1618/1620 -RA OVC005 FM162000 10003KT
                       P6SM -RA OVC035 FM170300 VRB03KT 6SM -RA
                       BR OVC015 FM171000 22003KT P6SM -SHRA OVC025=
202005161619 KCLM 161619Z 1616/1712 00000KT P6SM SCT005 OVC060
                      TEMPO 1616/1620 -RA OVC005 FM162000 10003KT
                       5SM -RA BR OVC015 FM170100 VRB03KT 6SM -RA
                       BR OVC030 FM170800 22003KT P6SM -SHRA OVC035=
202005161128 TAF KCLM 161128Z 1612/1712 VRB03KT P6SM SCT060 OVC100 FM161500
                       VRB03KT P6SM OVC050 FM161800 10003KT 5SM
                       -RA BR OVC025 FM170100 VRB03KT 6SM -RA BR
                       OVC030 FM170800 22003KT P6SM -SHRA OVC035=
202005160520 TAF KCLM 160520Z 1606/1706 VRB03KT P6SM SCT060 OVC200 FM161500
                       VRB03KT P6SM -RA OVC050 FM162100 10003KT
                       5SM -RA BR OVC025 FM170100 VRB03KT 6SM -RA
                       BR OVC030=
202005152323 TAF KCLM 152323Z 1600/1624 VRB03KT P6SM SCT060 BKN250 FM160900
                       VRB03KT P6SM BKN080 OVC200 FM161500 VRB03KT
                       P6SM -RA OVC050 FM162100 VRB03KT 5SM -RA
                       BR OVC025=
202005151728 TAF KCLM 151728Z 1518/1618 34006KT P6SM FEW025 SCT060 FM160100
                       VRB03KT P6SM BKN250 FM160900 VRB03KT P6SM
                       BKN080 OVC200 FM161500 VRB03KT P6SM -RA
                       OVC050=
202005151612 KCLM 151612Z 1516/1612 30003KT P6SM SCT025
                      TEMPO 1516/1518 BKN025 FM151800 35005KT P6SM
                       FEW250 FM160500 21003KT P6SM OVC100=
202005151143 TAF KCLM 151143Z 1512/1612 24005KT P6SM FEW070 FM151800 35005KT
                       P6SM FEW250 FM160500 21003KT P6SM OVC100=
202005150522 TAF KCLM 150522Z 1506/1606 28005KT P6SM FEW070 FM151800 35005KT
                       P6SM BKN050=
202005142332 TAF KCLM 142332Z 1500/1524 34005KT P6SM SCT050 SCT250 FM150900
                       27005KT P6SM OVC050 FM151800 25005KT P6SM
                       BKN050=
202005141723 TAF KCLM 141723Z 1418/1518 25005KT P6SM BKN025 OVC070 FM141900
                       34005KT P6SM SCT025 OVC070 FM142200 34005KT
                       P6SM SCT050 SCT250 FM150900 27005KT P6SM
                       OVC050 FM151500 25005KT P6SM SCT250=
202005141141 TAF KCLM 141141Z 1412/1512 22005KT P6SM BKN040 BKN120 FM141600
                       01005KT P6SM OVC050 FM142300 34005KT P6SM
                       SCT050 BKN150=
202005140521 TAF KCLM 140521Z 1406/1506 22005KT P6SM OVC080 FM141600 01005KT
                       P6SM OVC050 FM142300 34005KT P6SM SCT050
                       BKN150=
202005132322 TAF KCLM 132322Z 1400/1424 34005KT P6SM SCT035 OVC060 FM140200
                       27005KT P6SM OVC050 FM142100 34005KT P6SM
                       SCT050 BKN150=
202005131722 TAF KCLM 131722Z 1318/1418 34004KT P6SM SCT040 BKN070 FM131900
                       34005KT P6SM OVC050 FM140200 27005KT P6SM
                       OVC050=
202005131152 TAF KCLM 131152Z 1312/1412 24004KT P6SM FEW024 SCT030 BKN120 FM131900
                       34005KT P6SM OVC050 FM140200 27005KT P6SM
                       OVC050=
202005130534 TAF KCLM 130534Z 1306/1406 VRB03KT P6SM SCT100 FM131000 24004KT
                       P6SM -SHRA OVC015 FM131900 34005KT P6SM
                       OVC050=
202005122325 TAF KCLM 122325Z 1300/1324 VRB04KT P6SM -RA BKN060 OVC080 FM130300
                       24003KT P6SM OVC050 FM131000 VRB04KT P6SM
                       -SHRA OVC015 FM131900 34005KT P6SM OVC050=
202005121720 TAF KCLM 121720Z 1218/1318 VRB05KT P6SM OVC070
                      TEMPO 1218/1221 BKN005 FM122100 VRB04KT P6SM
                       -SHRA OVC050=
202005121611 KCLM 121611Z 1216/1312 07006KT P6SM OVC070 FM122100 VRB03KT P6SM
                       -RA SCT030 BKN050 OVC070=
202005121413 KCLM 121413Z 1214/1312 VRB03KT 2SM BR OVC002 FM122100 VRB03KT P6SM
                       -RA SCT030 BKN050 OVC070=
202005121159 TAF KCLM 121159Z 1212/1312 VRB04KT 1 1/2SM BR FEW023 FM121400 18003KT
                       4SM BR OVC005 FM122100 VRB03KT P6SM -RA
                       SCT030 BKN050 OVC070=
202005120526 TAF KCLM 120526Z 1206/1306 28008KT 5SM -RA SCT008 FM120900 26006KT
                       P6SM BKN020 FM121700 VRB03KT P6SM SCT040
                       BKN070 FM122100 VRB03KT P6SM -SHRA SCT030
                       BKN050 OVC070=
202005112332 TAF KCLM 112332Z 1200/1224 28012KT P6SM -SHRA BKN060 OVC100 FM120600
                       28008KT P6SM SCT070 BKN120 FM120900 26006KT
                       P6SM BKN020 FM121700 VRB03KT P6SM SCT040
                       BKN070 FM122100 VRB03KT P6SM -SHRA SCT030
                       BKN050 OVC070=
202005111740 TAF KCLM 111740Z 1118/1218 VRB03KT P6SM BKN250 FM112300 28006KT
                       P6SM BKN150 OVC250 FM120200 28012KT P6SM
                       -SHRA BKN060 OVC100 FM120900 26006KT P6SM
                       BKN020 FM121700 VRB03KT P6SM SCT025 BKN100=
202005111136 TAF KCLM 111136Z 1112/1212 VRB03KT P6SM BKN250 FM112000 32008KT
                       P6SM OVC100 FM112300 31010KT P6SM OVC060
                       FM120100 28012G18KT 5SM -RA BR OVC025=
202005110535 TAF KCLM 110535Z 1106/1206 VRB03KT P6SM BKN250 FM111700 33009KT
                       P6SM OVC100 FM112200 31008KT P6SM OVC060
                       FM120100 29012G18KT 5SM -RA BR OVC025=
202005102320 TAF KCLM 102320Z 1100/1124 09010KT P6SM SCT250 FM110400 VRB03KT
                       P6SM BKN250 FM111700 33009KT P6SM OVC100=
202005101720 TAF KCLM 101720Z 1018/1118 09008KT P6SM SCT250 FM110000 VRB05KT
                       P6SM SCT250 FM110600 25005KT P6SM BKN250=
202005101138 TAF KCLM 101138Z 1012/1112 VRB05KT P6SM FEW250 FM101500 11005KT
                       P6SM SCT250 FM101700 09005KT P6SM SCT250
                       FM110000 VRB05KT P6SM SCT250 FM110600 25005KT
                       P6SM BKN250=
202005100526 TAF KCLM 100526Z 1006/1106 VRB03KT P6SM FEW250 FM101600 10005KT
                       P6SM SKC FM101900 09006KT P6SM SKC=
202005092330 TAF KCLM 092330Z 1000/1024 09007KT P6SM FEW250 FM100200 VRB03KT
                       P6SM FEW250 FM101600 09005KT P6SM SKC=
202005091753 TAF KCLM 091753Z 0918/1018 09007KT P6SM FEW250 FM100200 VRB03KT
                       P6SM FEW250=
202005091136 TAF KCLM 091136Z 0912/1012 VRB03KT P6SM SKC FM091700 09007KT P6SM
                       FEW250 FM100200 VRB03KT P6SM FEW250=
202005090530 TAF KCLM 090530Z 0906/1006 VRB06KT P6SM SKC FM091700 09008KT P6SM
                       SKC FM100200 VRB02KT P6SM SKC=
202005082320 TAF KCLM 082320Z 0900/0924 09009KT P6SM SKC FM090300 12003KT P6SM
                       SKC=
202005081720 TAF KCLM 081720Z 0818/0918 07006KT P6SM SKC FM081900 09009KT P6SM
                       SKC FM090300 12003KT P6SM SKC=
202005081128 TAF KCLM 081128Z 0812/0912 22006KT P6SM SKC FM081900 09005KT P6SM
                       SKC FM090300 12003KT P6SM SKC=
202005080525 TAF KCLM 080525Z 0806/0906 VRB04KT P6SM SKC FM081900 09005KT P6SM
                       SKC=
202005072332 TAF KCLM 072332Z 0800/0824 09008KT P6SM SKC FM080400 VRB04KT P6SM
                       SKC FM081900 10009KT P6SM SKC=
202005071726 TAF KCLM 071726Z 0718/0818 08009KT P6SM SKC FM080200 VRB04KT P6SM
                       SKC=
202005071125 TAF KCLM 071125Z 0712/0812 24010KT P6SM SKC FM071600 07009KT P6SM
                       SKC FM080200 VRB04KT P6SM SKC FM080500 23004KT
                       P6SM SKC=
202005070520 TAF KCLM 070520Z 0706/0806 25010KT P6SM FEW050 FM071000 24007KT
                       P6SM SKC FM071600 08006KT P6SM SKC FM080300
                       23003KT P6SM SKC=
202005062320 TAF KCLM 062320Z 0700/0724 30014G22KT P6SM SCT060 FM070400 28010KT
                       P6SM FEW050 FM071000 23003KT P6SM SKC FM071700
                       08006KT P6SM SKC=
202005061721 TAF KCLM 061721Z 0618/0718 30013G22KT P6SM SCT050 FM070100 28010KT
                       P6SM FEW050 FM071000 23003KT P6SM SKC FM071700
                       08006KT P6SM SKC=
202005061120 TAF KCLM 061120Z 0612/0712 29015G22KT P6SM VCSH BKN040 FM061900
                       31015G25KT P6SM SCT040=
202005060520 TAF KCLM 060520Z 0606/0706 28012KT P6SM SCT050 FM061200 29015G22KT
                       P6SM VCSH BKN040 FM061900 31015G25KT P6SM
                       SCT040=
202005052328 TAF KCLM 052328Z 0600/0624 05006KT P6SM SCT070 FM060300 28010KT
                       P6SM VCSH SCT070 FM060700 27012KT P6SM -SHRA
                       SCT020 OVC040 FM061200 29015G22KT P6SM VCSH
                       BKN040 FM061900 31015G25KT P6SM FEW050=
202005051726 TAF KCLM 051726Z 0518/0618 06006KT P6SM SCT040 SCT200 FM052000
                       VRB05KT P6SM SCT050 SCT200 FM060000 26005KT
                       P6SM VCSH BKN050 BKN120 FM060700 27010KT
                       P6SM -SHRA SCT020 OVC040 FM061200 30015KT
                       P6SM VCSH BKN040=
202005051120 TAF KCLM 051120Z 0512/0612 00000KT P6SM OVC020 FM051600 VRB04KT
                       P6SM BKN050 BKN200 FM060000 VRB04KT P6SM
                       VCSH BKN050 BKN090 FM060700 27010KT P6SM
                       -SHRA SCT015 OVC040=
202005050908 KCLM 050908Z 0509/0606 00000KT P6SM BKN012 FM051500 VRB04KT P6SM
                       SCT015 SCT040 BKN200 FM060000 30007KT P6SM
                       VCSH SCT040 BKN070=
202005050520 TAF KCLM 050520Z 0506/0606 27007KT P6SM SCT050 SCT090 FM051200
                       VRB04KT P6SM BKN040 FM060000 30007KT P6SM
                       SCT040=
202005042325 TAF KCLM 042325Z 0500/0524 08006KT P6SM BKN080 FM050200 31010KT
                       P6SM -SHRA BKN040 OVC080 FM051200 VRB03KT
                       P6SM OVC040=
202005041728 TAF KCLM 041728Z 0418/0518 21005KT P6SM SCT015 BKN200 FM042000
                       04005KT P6SM BKN080 OVC150 FM050000 31010KT
                       P6SM -SHRA BKN040 OVC080 FM051200 VRB03KT
                       P6SM OVC040=
202005041618 KCLM 041618Z 0416/0512 21005KT P6SM SCT015 BKN200
                      TEMPO 0416/0417 BKN009 FM042000 VRB04KT P6SM
                       BKN080 OVC150 FM050000 09005KT P6SM -RA
                       BKN040 OVC080 FM050400 27007KT P6SM -SHRA
                       OVC040 FM050800 27007KT P6SM VCSH OVC040=
202005041419 KCLM 041419Z 0414/0512 21005KT P6SM SCT012
                      TEMPO 0414/0416 BKN010 FM041600 21005KT P6SM
                       SCT015 BKN200 FM042000 VRB04KT P6SM BKN080
                       OVC150 FM050000 09005KT P6SM -RA BKN040
                       OVC080 FM050400 27007KT P6SM -SHRA BKN020
                       OVC040 FM050800 27007KT P6SM VCSH BKN015
                       OVC030=
202005041301 KCLM 041301Z 0413/0512 21005KT P6SM SCT012
                      TEMPO 0413/0416 BKN012 FM041600 21005KT P6SM
                       SCT015 BKN200 FM042000 VRB04KT P6SM BKN080
                       OVC150 FM050000 09005KT P6SM -RA BKN040
                       OVC080 FM050400 27007KT P6SM -SHRA BKN020
                       OVC040 FM050800 27007KT P6SM VCSH BKN015
                       OVC030=
202005041120 TAF KCLM 041120Z 0412/0512 21005KT P6SM SCT250
                      TEMPO 0412/0416 2SM BR FM041600 21005KT P6SM
                       BKN200 FM042000 VRB04KT P6SM BKN080 OVC150
                       FM050000 09005KT P6SM -RA BKN040 OVC080
                       FM050400 27007KT P6SM -SHRA BKN020 OVC040
                       FM050800 27007KT P6SM VCSH BKN015 OVC030=
202005040520 TAF KCLM 040520Z 0406/0506 22005KT P6SM SKC FM041200 VRB04KT P6SM
                       SCT005 BKN200 FM041800 09005KT P6SM BKN080
                       OVC150 FM050300 09005KT P6SM -RA BKN040
                       OVC080=
202005032338 TAF KCLM 032338Z 0400/0424 VRB05KT P6SM VCSH FEW060 FM040400 26003KT
                       P6SM SKC FM041000 21003KT P6SM SKC FM041600
                       VRB03KT P6SM FEW250 FM042000 VRB05KT P6SM
                       OVC100=
202005031926 KCLM 031926Z 0319/0418 VRB06KT P6SM VCSH OVC045
                      TEMPO 0319/0320 2SM -RA BR FEW018 BKN030
                       FM040000 27007KT P6SM VCSH BKN040 FM040400
                       VRB03KT P6SM SCT040 FM041200 21003KT P6SM
                       SKC=
202005031739 TAF KCLM 031739Z 0318/0418 VRB05KT P6SM VCSH SCT060 BKN100 FM040000
                       27007KT P6SM VCSH BKN040 FM040400 VRB03KT
                       P6SM SCT040 FM041200 21003KT P6SM SKC=
202005031141 TAF KCLM 031141Z 0312/0412 VRB04KT P6SM SCT050
                      TEMPO 0314/0317 -SHRA BKN040 FM040000 27007KT
                       P6SM VCSH BKN040 FM040400 VRB03KT P6SM SCT040=
202005030520 TAF KCLM 030520Z 0306/0406 27006KT P6SM SCT040 FM030900 VRB04KT
                       P6SM VCSH BKN040 FM031600 34005KT P6SM VCSH
                       BKN040=
202005022325 TAF KCLM 022325Z 0300/0324 27012G22KT P6SM -SHRA FEW010 BKN035
                       BKN050 FM030300 27010KT P6SM VCSH BKN040
                       FM030900 VRB04KT P6SM VCSH BKN040 FM031600
                       34005KT P6SM VCSH BKN040=
202005021720 TAF KCLM 021720Z 0218/0318 09005KT P6SM -RA OVC050 FM021900 VRB05KT
                       5SM RA BR OVC030 FM022100 27012G22KT P6SM
                       -SHRA BKN025 BKN050 FM030200 27010KT P6SM
                       VCSH BKN040=
202005021120 TAF KCLM 021120Z 0212/0312 09005KT P6SM -RA OVC050 FM021900 VRB05KT
                       5SM RA BR OVC030 FM022100 27012G22KT P6SM
                       -SHRA BKN025 BKN050 FM030200 27010KT P6SM
                       VCSH BKN040=
202005020520 TAF KCLM 020520Z 0206/0306 VRB04KT P6SM VCSH BKN050 OVC100 FM021200
                       09005KT P6SM -RA OVC040 FM021900 VRB05KT
                       5SM RA BR OVC030 FM022100 27012G22KT P6SM
                       -SHRA BKN025 BKN050 FM030200 27010KT P6SM
                       VCSH BKN040=
202005012327 TAF KCLM 012327Z 0200/0224 VRB03KT P6SM BKN100 OVC200 FM021000
                       VRB03KT P6SM -SHRA OVC050 FM021700 VRB04KT
                       P6SM RA OVC040 FM022200 27012KT P6SM -SHRA
                       OVC030=
202005011735 TAF KCLM 011735Z 0118/0218 VRB03KT P6SM SCT050 BKN250 FM012200
                       VRB03KT P6SM BKN100 OVC200 FM021000 VRB03KT
                       P6SM -SHRA OVC050 FM021700 12012KT P6SM
                       RA OVC040=
202005011531 KCLM 011531Z 0116/0212 24006KT P6SM OVC020 FM011700 VRB03KT P6SM
                       SCT050 BKN250 FM012200 VRB03KT P6SM BKN100
                       OVC200 FM020800 VRB03KT P6SM OVC050=
202005011132 TAF KCLM 011132Z 0112/0212 24006KT P6SM OVC020 FM011600 VRB03KT
                       P6SM SCT050 BKN250 FM012200 VRB03KT P6SM
                       BKN100 OVC200 FM020800 VRB03KT P6SM OVC050=
202005010901 KCLM 010901Z 0109/0206 25006KT P6SM OVC020 FM011300 VRB03KT P6SM
                       SCT050 BKN250 FM012200 VRB03KT P6SM BKN100
                       OVC200=
202005010539 TAF KCLM 010539Z 0106/0206 25006KT P6SM OVC050 FM010900 VRB03KT
                       P6SM BKN050 FM011200 VRB03KT P6SM SCT050
                       BKN250 FM012200 VRB03KT P6SM BKN100 OVC200=