##########################################################
# Query made at 02/16/2025 04:43:47 UTC
# Time interval: from 12/01/2020 00:00  to 12/31/2020 23:59  UTC
##########################################################

##########################################################
# KCLM, Port Angeles, William R. Fairchild International Airport (United States)
# WMO index: -----. WIGOS ID: Unknown
# Latitude 48-07-20N. Longitude 123-30-19W. Altitude 87 m.
##########################################################

###################################
#  METAR/SPECI from KCLM
###################################
202012312353 METAR KCLM 312353Z AUTO 00000KT 5SM BR OVC004 08/07 A3008 RMK AO2 SLP187 T00780067 10078 20072 51005=
202012312253 METAR KCLM 312253Z AUTO 09003KT 9SM OVC004 08/07 A3007 RMK AO2 SLP185 T00780067=
202012312153 METAR KCLM 312153Z AUTO 00000KT 10SM OVC005 08/07 A3007 RMK AO2 CIG 004V008 SLP186 T00780067=
202012312127 SPECI KCLM 312127Z AUTO 09004KT 10SM OVC006 08/07 A3006 RMK AO2 CIG 004V009 T00780067=
202012312053 METAR KCLM 312053Z AUTO 08004KT 10SM OVC004 07/07 A3006 RMK AO2 SLP182 T00720067 51010=
202012311953 METAR KCLM 311953Z AUTO 05004KT 6SM BR OVC003 07/06 A3006 RMK AO2 SLP180 T00720061=
202012311940 SPECI KCLM 311940Z AUTO 08006KT 3SM BR OVC003 07/06 A3006 RMK AO2 T00720061=
202012311925 SPECI KCLM 311925Z AUTO 08004KT 1 3/4SM BR OVC003 07/06 A3006 RMK AO2 CIG 002V006 T00720061=
202012311905 SPECI KCLM 311905Z AUTO 09005KT 2SM BR OVC003 07/06 A3005 RMK AO2 T00720061=
202012311853 METAR KCLM 311853Z AUTO 08004KT 1 3/4SM BR OVC003 07/06 A3005 RMK AO2 SLP178 T00720061=
202012311839 SPECI KCLM 311839Z AUTO 09005KT 2 1/2SM BR OVC004 07/06 A3005 RMK AO2 CIG 003V007 T00720061=
202012311816 SPECI KCLM 311816Z AUTO 10006KT 6SM BR BKN005 OVC019 08/07 A3004 RMK AO2 T00780067=
202012311808 SPECI KCLM 311808Z AUTO 11006KT 4SM BR BKN004 OVC019 08/07 A3004 RMK AO2 T00780067=
202012311801 SPECI KCLM 311801Z AUTO 10006KT 2 1/2SM BR OVC004 07/07 A3004 RMK AO2 T00720067=
202012311753 METAR KCLM 311753Z AUTO 11006KT 1 3/4SM BR OVC004 08/07 A3003 RMK AO2 RAE04 SLP171 P0001 60010 T00780067 10078 20061 53040=
202012311742 SPECI KCLM 311742Z AUTO 11004KT 1SM BR OVC003 08/07 A3002 RMK AO2 RAE04 CIG 002V006 P0001 T00780067=
202012311709 SPECI KCLM 311709Z AUTO 08003KT 3/4SM BR OVC004 07/06 A3000 RMK AO2 RAE04 P0000 T00720061=
202012311653 METAR KCLM 311653Z AUTO 07004KT 1SM -RA BR FEW004 OVC008 07/06 A2999 RMK AO2 SLP158 P0004 T00720061=
202012311646 SPECI KCLM 311646Z AUTO 09003KT 1SM -RA BR VV008 07/06 A2999 RMK AO2 P0003 T00720061=
202012311640 SPECI KCLM 311640Z AUTO 00000KT 1SM -RA BR VV010 07/07 A2998 RMK AO2 P0003 T00720067=
202012311638 SPECI KCLM 311638Z AUTO 00000KT 3/4SM -RA BR FEW005 OVC009 07/07 A2998 RMK AO2 P0003 T00720067=
202012311612 SPECI KCLM 311612Z AUTO 23004KT 1 3/4SM -RA BR OVC008 07/06 A2997 RMK AO2 P0001 T00720061=
202012311553 METAR KCLM 311553Z AUTO 00000KT 1 1/2SM -RA BR FEW006 OVC012 07/06 A2995 RMK AO2 RAB1456 SLP144 P0004 T00720061=
202012311544 SPECI KCLM 311544Z AUTO 00000KT 1 1/2SM -RA BR FEW006 OVC014 07/06 A2995 RMK AO2 RAB1456 P0003 T00720061=
202012311537 SPECI KCLM 311537Z AUTO 00000KT 1 3/4SM -RA BR OVC016 07/06 A2994 RMK AO2 RAB1456 P0003 T00720061=
202012311528 SPECI KCLM 311528Z AUTO 23003KT 1 3/4SM -RA BR OVC014 07/06 A2994 RMK AO2 RAB1456 P0002 T00720061=
202012311511 SPECI KCLM 311511Z AUTO 23004KT 2SM -RA BR SCT004 BKN012 OVC019 07/06 A2993 RMK AO2 RAB1456 P0001 T00720061=
202012311502 SPECI KCLM 311502Z AUTO 23004KT 1 1/4SM -RA BR BKN004 OVC010 07/06 A2992 RMK AO2 RAB1456 P0001 T00670061=
202012311453 METAR KCLM 311453Z AUTO 23003KT 2 1/2SM BR OVC004 07/06 A2991 RMK AO2 RAE1357 SLP131 P0001 60001 T00670061 51043=
202012311438 SPECI KCLM 311438Z AUTO 22003KT 4SM BR OVC004 07/06 A2990 RMK AO2 RAE1357 P0001 T00670061=
202012311425 SPECI KCLM 311425Z AUTO 21003KT 2 1/2SM BR BKN004 OVC021 07/06 A2990 RMK AO2 RAE1357 P0000 T00670061=
202012311416 SPECI KCLM 311416Z AUTO 00000KT 5SM BR SCT004 OVC021 07/06 A2989 RMK AO2 RAE1357 P0000 T00670061=
202012311353 METAR KCLM 311353Z AUTO 25003KT 4SM -RA BR OVC027 07/06 A2988 RMK AO2 RAB39 SLP119 P0000 T00670056=
202012311335 SPECI KCLM 311335Z AUTO 00000KT 8SM SCT007 BKN026 OVC033 07/06 A2986 RMK AO2 T00670056=
202012311325 SPECI KCLM 311325Z AUTO 00000KT 9SM BKN007 BKN033 OVC045 07/06 A2985 RMK AO2 T00670056=
202012311313 SPECI KCLM 311313Z AUTO 00000KT 10SM SCT007 OVC047 06/06 A2984 RMK AO2 T00610056=
202012311253 METAR KCLM 311253Z AUTO 00000KT 10SM OVC043 06/06 A2982 RMK AO2 SLP101 T00610056=
202012311153 METAR KCLM 311153Z AUTO 21004KT 9SM OVC048 06/06 A2978 RMK AO2 SLP087 60002 70033 T00610056 10067 20061 51038=
202012311053 METAR KCLM 311053Z AUTO 00000KT 6SM BR OVC055 06/06 A2975 RMK AO2 RAE44 SLP075 P0000 T00610056=
202012310953 METAR KCLM 310953Z AUTO 00000KT 10SM -RA OVC055 07/06 A2971 RMK AO2 RAB51 SLP061 P0000 T00670056=
202012310853 METAR KCLM 310853Z AUTO 21003KT 10SM BKN065 OVC100 07/06 A2967 RMK AO2 RAE11 SLP048 P0000 60002 T00670056 53010=
202012310753 METAR KCLM 310753Z AUTO 16004KT 8SM -RA OVC055 06/06 A2966 RMK AO2 SLP047 P0002 T00610056 401000033=
202012310653 METAR KCLM 310653Z AUTO 09004KT 6SM -RA BR OVC060 06/05 A2965 RMK AO2 RAE12B39 SLP041 P0000 T00610050=
202012310553 METAR KCLM 310553Z AUTO 00000KT 7SM -RA BKN055 OVC085 06/06 A2964 RMK AO2 SLP039 P0001 60012 T00610056 10072 20061 50003=
202012310453 METAR KCLM 310453Z AUTO 00000KT 3SM -RA BR OVC048 06/06 A2964 RMK AO2 SLP040 P0003 T00610056=
202012310451 SPECI KCLM 310451Z AUTO 00000KT 3SM -RA BR OVC048 06/06 A2964 RMK AO2 P0003=
202012310441 SPECI KCLM 310441Z AUTO 00000KT 2SM -RA BR OVC050 07/06 A2964 RMK AO2 P0003 T00670061=
202012310353 METAR KCLM 310353Z AUTO 13003KT 5SM -RA BR BKN050 BKN070 OVC085 07/06 A2963 RMK AO2 SLP036 P0001 T00670056=
202012310311 SPECI KCLM 310311Z AUTO 13004KT 6SM -RA BR FEW004 FEW015 OVC050 07/06 A2962 RMK AO2 P0001 T00670056=
202012310253 METAR KCLM 310253Z AUTO 10004KT 10SM -RA OVC055 06/06 A2963 RMK AO2 SLP034 P0000 60007 T00610056 53003=
202012310153 METAR KCLM 310153Z AUTO 00000KT 9SM -RA OVC050 07/06 A2962 RMK AO2 SLP033 P0001 T00670056=
202012310053 METAR KCLM 310053Z AUTO 24008KT 8SM -RA OVC043 07/07 A2962 RMK AO2 SLP030 P0006 T00670067=
202012302353 METAR KCLM 302353Z AUTO 23006KT 3SM -RA BR OVC044 07/06 A2962 RMK AO2 SLP031 P0006 60010 T00720061 10100 20072 56018=
202012302253 METAR KCLM 302253Z AUTO 07004KT 8SM -RA BKN049 OVC060 08/07 A2963 RMK AO2 SLP036 P0003 T00830067=
202012302232 SPECI KCLM 302232Z AUTO 23003KT 7SM -RA BKN045 OVC055 09/07 A2964 RMK AO2 P0003 T00890067=
202012302225 SPECI KCLM 302225Z AUTO VRB03KT 2 1/2SM -RA BR OVC047 08/07 A2964 RMK AO2 P0003 T00830067=
202012302153 METAR KCLM 302153Z AUTO 35004KT 10SM -RA BKN060 BKN070 OVC090 09/07 A2964 RMK AO2 RAE11B51 SLP039 P0000 T00890067=
202012302053 METAR KCLM 302053Z AUTO 17003KT 10SM -RA BKN050 OVC060 09/06 A2967 RMK AO2 SLP049 P0001 60001 T00940061 58019=
202012301953 METAR KCLM 301953Z AUTO 11004KT 10SM -RA FEW046 BKN065 BKN085 09/06 A2970 RMK AO2 RAB47 SLP060 P0000 T00890061=
202012301853 METAR KCLM 301853Z AUTO 10005KT 10SM CLR 08/06 A2972 RMK AO2 SLP066 T00830056=
202012301753 METAR KCLM 301753Z AUTO 31008KT 10SM BKN038 BKN047 OVC075 07/05 A2973 RMK AO2 RAE50 SLP068 P0005 60009 T00720050 10072 20039 56028=
202012301717 SPECI KCLM 301717Z AUTO 00000KT 3SM -RA BR OVC046 06/05 A2974 RMK AO2 P0005 T00560050=
202012301702 SPECI KCLM 301702Z AUTO 28005KT 1 3/4SM RA BR BKN050 OVC070 06/04 A2976 RMK AO2 P0003 T00560044=
202012301653 METAR KCLM 301653Z AUTO 27004KT 8SM -RA BKN060 BKN080 OVC110 05/04 A2975 RMK AO2 RAB05E17B50 SLP076 P0000 T00500044=
202012301638 SPECI KCLM 301638Z AUTO 26007KT 10SM FEW005 BKN055 05/04 A2974 RMK AO2 RAB05E17 P0000 T00500039=
202012301553 METAR KCLM 301553Z AUTO 29003KT 10SM BKN060 04/04 A2976 RMK AO2 RAB05E36 SLP079 P0000 T00440039=
202012301453 METAR KCLM 301453Z AUTO 00000KT 10SM BKN060 OVC075 04/03 A2981 RMK AO2 SLP096 60004 T00440033 58039=
202012301353 METAR KCLM 301353Z AUTO 10003KT 10SM FEW005 04/03 A2985 RMK AO2 RAE25 SLP109 P0003 T00440033=
202012301321 SPECI KCLM 301321Z AUTO 13004KT 9SM -RA SCT005 BKN034 BKN090 05/04 A2987 RMK AO2 P0003 T00500039=
202012301304 SPECI KCLM 301304Z AUTO 13008KT 4SM -RA BR BKN005 BKN014 OVC050 04/03 A2989 RMK AO2 PRESFR P0001 T00440033=
202012301253 METAR KCLM 301253Z AUTO 15003KT 6SM -RA BR BKN004 OVC055 04/04 A2991 RMK AO2 SLP129 P0001 T00440039=
202012301231 SPECI KCLM 301231Z AUTO 00000KT 7SM -RA BKN004 OVC050 04/03 A2991 RMK AO2 P0000 T00440033=
202012301217 SPECI KCLM 301217Z AUTO 00000KT 9SM -RA BKN005 OVC055 04/03 A2992 RMK AO2 P0000 T00440033=
202012301208 SPECI KCLM 301208Z AUTO 16003KT 10SM -RA SCT006 BKN048 OVC055 04/03 A2991 RMK AO2 P0000 T00440033=
202012301153 METAR KCLM 301153Z AUTO 00000KT 7SM -RA OVC050 04/03 A2993 RMK AO2 RAB01 SLP135 P0002 60005 70027 T00440033 10044 20033 58017=
202012301053 METAR KCLM 301053Z AUTO 12004KT 8SM BKN060 04/03 A2996 RMK AO2 RAE51 SLP147 P0001 T00440033=
202012300953 METAR KCLM 300953Z AUTO 12003KT 5SM -RA BR SCT070 OVC080 04/03 A2997 RMK AO2 RAB0855E05B40 SLP151 P0000 T00390033=
202012300950 SPECI KCLM 300950Z AUTO 00000KT 5SM -RA BR BKN070 OVC085 04/03 A2998 RMK AO2 RAB0855E05B40 P0000=
202012300940 SPECI KCLM 300940Z AUTO 12004KT 2 1/2SM -RA BR SCT060 BKN075 OVC120 04/03 A2998 RMK AO2 RAB0855E05B40 P0000 T00390028=
202012300903 SPECI KCLM 300903Z AUTO 13004KT 5SM -RA BR BKN065 OVC090 04/03 A3000 RMK AO2 RAB0855 P0000 T00390028=
202012300853 METAR KCLM 300853Z AUTO 00000KT 2 1/2SM BR BKN060 OVC090 04/03 A3001 RMK AO2 RAE0757B18E30 SLP164 P0000 60002 T00440033 58017=
202012300826 SPECI KCLM 300826Z AUTO 17005KT 6SM -RA BR SCT007 OVC060 04/03 A3001 RMK AO2 RAE0757B18 P0000 T00440033=
202012300753 METAR KCLM 300753Z AUTO 29003KT 5SM -RA BR BKN007 04/03 A3003 RMK AO2 SLP170 P0001 T00440033 400670033=
202012300703 SPECI KCLM 300703Z AUTO 00000KT 6SM -RA BR OVC009 04/03 A3004 RMK AO2 P0000 T00440033=
202012300653 METAR KCLM 300653Z AUTO 00000KT 4SM -RA BR BKN010 OVC060 04/04 A3004 RMK AO2 SLP176 P0001 T00440039=
202012300641 SPECI KCLM 300641Z AUTO 26003KT 2 1/2SM -RA BR BKN010 OVC060 04/03 A3005 RMK AO2 P0001 T00440033=
202012300627 SPECI KCLM 300627Z AUTO 26003KT 4SM -RA BR OVC060 04/03 A3006 RMK AO2 P0001 T00440033=
202012300616 SPECI KCLM 300616Z AUTO 00000KT 2 1/2SM -RA BR OVC060 04/04 A3005 RMK AO2 P0001 T00440039=
202012300553 METAR KCLM 300553Z AUTO 00000KT 5SM -RA BR OVC060 04/04 A3006 RMK AO2 SLP181 P0001 60022 T00440039 10061 20044 56027=
202012300453 METAR KCLM 300453Z AUTO 00000KT 6SM -RA BR FEW011 OVC060 04/03 A3008 RMK AO2 SLP188 P0001 T00440033=
202012300406 SPECI KCLM 300406Z AUTO 24003KT 5SM -RA BR SCT004 OVC060 04/04 A3011 RMK AO2 P0000 T00440039=
202012300353 METAR KCLM 300353Z AUTO 25003KT 4SM -RA BR BKN004 OVC049 04/04 A3011 RMK AO2 SLP199 P0002 T00440039=
202012300342 SPECI KCLM 300342Z AUTO 25003KT 4SM -RA BR BKN005 BKN010 OVC042 04/04 A3012 RMK AO2 P0001 T00440039=
202012300331 SPECI KCLM 300331Z AUTO 00000KT 2 1/2SM -RA BR SCT005 BKN009 OVC044 04/04 A3012 RMK AO2 P0001 T00440039=
202012300317 SPECI KCLM 300317Z AUTO 00000KT 3SM -RA BR BKN007 BKN011 OVC041 04/04 A3013 RMK AO2 P0001 T00440039=
202012300253 METAR KCLM 300253Z AUTO 00000KT 3SM -RA BR BKN010 OVC040 04/04 A3014 RMK AO2 SLP208 P0005 60018 T00440039 58022=
202012300238 SPECI KCLM 300238Z AUTO 00000KT 4SM -RA BR SCT008 OVC039 04/04 A3015 RMK AO2 P0004 T00440039=
202012300201 SPECI KCLM 300201Z AUTO 00000KT 3SM -RA BR BKN008 OVC029 05/04 A3017 RMK AO2 P0001 T00500039=
202012300153 METAR KCLM 300153Z AUTO 00000KT 2 1/2SM -RA BR FEW008 OVC029 05/04 A3017 RMK AO2 SLP219 P0010 T00500039=
202012300139 SPECI KCLM 300139Z AUTO 00000KT 3SM RA BR OVC028 05/04 A3018 RMK AO2 P0008 T00500039=
202012300117 SPECI KCLM 300117Z AUTO 00000KT 2 1/2SM -RA BR OVC028 05/04 A3020 RMK AO2 P0004 T00500039=
202012300053 METAR KCLM 300053Z AUTO 00000KT 3SM -RA BR OVC032 05/04 A3021 RMK AO2 SLP232 P0003 T00500039=
202012292353 METAR KCLM 292353Z AUTO 09004KT 9SM -RA SCT050 OVC070 06/03 A3021 RMK AO2 RAB01 SLP231 P0000 60000 T00560033 10067 20044 56015=
202012292253 METAR KCLM 292253Z AUTO 00000KT 10SM OVC060 06/03 A3022 RMK AO2 SLP235 T00610028=
202012292229 SPECI KCLM 292229Z AUTO 00000KT 10SM SCT019 OVC070 07/03 A3022 RMK AO2 T00670028=
202012292153 METAR KCLM 292153Z AUTO 04003KT 10SM OVC016 07/03 A3023 RMK AO2 SLP238 T00670028=
202012292053 METAR KCLM 292053Z AUTO 00000KT 10SM OVC020 06/03 A3025 RMK AO2 SLP246 T00610028 58007=
202012291953 METAR KCLM 291953Z AUTO 23003KT 10SM BKN018 OVC023 06/02 A3027 RMK AO2 SLP251 T00560022=
202012291853 METAR KCLM 291853Z AUTO 00000KT 10SM OVC016 05/03 A3026 RMK AO2 SLP250 T00500028=
202012291753 METAR KCLM 291753Z AUTO 00000KT 10SM OVC016 04/02 A3027 RMK AO2 SLP253 T00440022 10056 20033 53005=
202012291653 METAR KCLM 291653Z AUTO 00000KT 10SM OVC016 04/03 A3026 RMK AO2 SLP249 T00440028=
202012291610 SPECI KCLM 291610Z AUTO 14003KT 10SM OVC015 05/03 A3024 RMK AO2 T00500028=
202012291553 METAR KCLM 291553Z AUTO 00000KT 10SM OVC014 04/02 A3024 RMK AO2 SLP242 T00390022=
202012291540 SPECI KCLM 291540Z AUTO 21003KT 10SM OVC014 04/02 A3025 RMK AO2 T00390017=
202012291453 METAR KCLM 291453Z AUTO 00000KT 10SM OVC016 04/02 A3026 RMK AO2 SLP247 T00390017 53006=
202012291353 METAR KCLM 291353Z AUTO 00000KT 10SM OVC015 04/02 A3023 RMK AO2 SLP239 T00390022=
202012291253 METAR KCLM 291253Z AUTO 00000KT 10SM OVC015 04/02 A3023 RMK AO2 SLP238 T00440017=
202012291153 METAR KCLM 291153Z AUTO 00000KT 10SM OVC015 06/03 A3024 RMK AO2 SLP242 T00560028 10061 20050 53006=
202012291114 SPECI KCLM 291114Z AUTO 08003KT 10SM OVC015 06/03 A3022 RMK AO2 T00560033=
202012291104 SPECI KCLM 291104Z AUTO 00000KT 10SM OVC014 06/03 A3022 RMK AO2 T00560028=
202012291053 METAR KCLM 291053Z AUTO 12004KT 10SM OVC015 06/03 A3022 RMK AO2 SLP236 T00560028=
202012291050 SPECI KCLM 291050Z AUTO 14006KT 10SM OVC015 06/03 A3022 RMK AO2=
202012290953 METAR KCLM 290953Z AUTO 11005KT 10SM OVC013 06/03 A3022 RMK AO2 SLP235 T00560033=
202012290853 METAR KCLM 290853Z AUTO 14005KT 10SM OVC014 06/03 A3022 RMK AO2 SLP234 T00560033 51010=
202012290753 METAR KCLM 290753Z AUTO 00000KT 10SM OVC015 06/03 A3020 RMK AO2 SLP230 T00560028 400720044=
202012290653 METAR KCLM 290653Z AUTO 18003KT 10SM OVC016 06/03 A3020 RMK AO2 SLP230 T00610028=
202012290553 METAR KCLM 290553Z AUTO 11003KT 10SM OVC016 06/03 A3019 RMK AO2 SLP224 T00610033 10067 20061 51006=
202012290453 METAR KCLM 290453Z AUTO 10004KT 10SM OVC016 06/03 A3018 RMK AO2 SLP221 T00610033=
202012290353 METAR KCLM 290353Z AUTO 11003KT 10SM OVC017 06/03 A3018 RMK AO2 SLP223 T00610033=
202012290253 METAR KCLM 290253Z AUTO 13004KT 10SM OVC019 06/04 A3017 RMK AO2 SLP218 T00610039 51007=
202012290153 METAR KCLM 290153Z AUTO 00000KT 10SM OVC019 07/03 A3017 RMK AO2 SLP217 T00670033=
202012290053 METAR KCLM 290053Z AUTO 09003KT 10SM OVC019 07/04 A3016 RMK AO2 SLP214 T00670039=
202012282353 METAR KCLM 282353Z AUTO 08005KT 10SM OVC018 07/04 A3015 RMK AO2 SLP211 T00670039 10072 20061 53003=
202012282253 METAR KCLM 282253Z AUTO 06004KT 10SM OVC019 07/04 A3015 RMK AO2 SLP210 T00670039=
202012282153 METAR KCLM 282153Z AUTO 07005KT 10SM OVC016 07/04 A3013 RMK AO2 SLP206 T00720039=
202012282142 SPECI KCLM 282142Z AUTO 07006KT 10SM OVC016 07/04 A3014 RMK AO2 T00720039=
202012282119 SPECI KCLM 282119Z AUTO 09005KT 10SM OVC014 07/04 A3014 RMK AO2 T00720039=
202012282109 SPECI KCLM 282109Z AUTO 09004KT 10SM OVC015 07/04 A3014 RMK AO2 T00670039=
202012282053 METAR KCLM 282053Z AUTO 11005KT 10SM OVC014 07/04 A3014 RMK AO2 SLP208 T00720039 50000=
202012281953 METAR KCLM 281953Z AUTO 09004KT 10SM OVC014 07/04 A3014 RMK AO2 SLP208 T00720044=
202012281853 METAR KCLM 281853Z AUTO 00000KT 10SM OVC012 07/05 A3014 RMK AO2 SLP209 T00670050=
202012281814 SPECI KCLM 281814Z AUTO 03003KT 10SM OVC014 07/04 A3014 RMK AO2 T00670044=
202012281753 METAR KCLM 281753Z AUTO 00000KT 10SM FEW008 OVC016 07/04 A3014 RMK AO2 SLP208 T00670044 10067 20044 53010=
202012281741 SPECI KCLM 281741Z AUTO 00000KT 10SM FEW008 OVC015 06/04 A3014 RMK AO2 T00610044=
202012281730 SPECI KCLM 281730Z AUTO 09004KT 10SM FEW008 OVC013 06/04 A3013 RMK AO2 T00610039=
202012281653 METAR KCLM 281653Z AUTO 00000KT 10SM OVC013 05/04 A3012 RMK AO2 SLP203 T00500039=
202012281553 METAR KCLM 281553Z AUTO 00000KT 10SM OVC014 06/04 A3011 RMK AO2 SLP197 T00610044=
202012281517 SPECI KCLM 281517Z AUTO 12006KT 10SM SCT009 OVC013 07/04 A3010 RMK AO2 T00670044=
202012281453 METAR KCLM 281453Z AUTO 11005KT 10SM BKN009 OVC013 07/04 A3011 RMK AO2 CIG 007V012 SLP198 T00670044 51002=
202012281444 SPECI KCLM 281444Z AUTO 11006KT 10SM BKN008 OVC013 07/04 A3011 RMK AO2 CIG 007V012 T00670044=
202012281353 METAR KCLM 281353Z AUTO 15003KT 10SM OVC010 05/04 A3011 RMK AO2 CIG 007V012 SLP197 T00500039=
202012281340 SPECI KCLM 281340Z AUTO 00000KT 10SM OVC010 05/04 A3011 RMK AO2 CIG 007V012 T00500039=
202012281328 SPECI KCLM 281328Z AUTO 18003KT 10SM BKN008 OVC012 05/04 A3011 RMK AO2 T00500039=
202012281253 METAR KCLM 281253Z AUTO 00000KT 10SM OVC011 06/04 A3011 RMK AO2 SLP197 T00560044=
202012281153 METAR KCLM 281153Z AUTO 00000KT 9SM SCT007 OVC011 07/04 A3010 RMK AO2 SLP196 70001 T00670044 10072 20056 50005=
202012281053 METAR KCLM 281053Z AUTO 19004KT 10SM OVC007 06/04 A3010 RMK AO2 SLP196 T00610044=
202012280953 METAR KCLM 280953Z AUTO 24003KT 10SM BKN006 OVC011 06/04 A3009 RMK AO2 SLP192 T00610044=
202012280853 METAR KCLM 280853Z AUTO 00000KT 10SM OVC008 07/05 A3009 RMK AO2 CIG 005V011 SLP190 T00670050 53002=
202012280753 METAR KCLM 280753Z AUTO VRB03KT 10SM OVC009 07/05 A3008 RMK AO2 CIG 005V012 SLP188 T00670050 400830022=
202012280653 METAR KCLM 280653Z AUTO VRB03KT 10SM OVC009 07/05 A3008 RMK AO2 CIG 005V010 SLP188 T00670050=
202012280649 SPECI KCLM 280649Z AUTO 04005KT 10SM OVC009 07/06 A3008 RMK AO2 CIG 005V011=
202012280608 SPECI KCLM 280608Z AUTO 06004KT 10SM FEW005 OVC010 07/05 A3007 RMK AO2 T00670050=
202012280553 METAR KCLM 280553Z AUTO 05004KT 10SM SCT005 OVC009 07/06 A3007 RMK AO2 SLP186 60000 T00670056 10072 20067 51007=
202012280453 METAR KCLM 280453Z AUTO VRB04KT 10SM OVC009 07/06 A3007 RMK AO2 SLP185 T00720056=
202012280353 METAR KCLM 280353Z AUTO VRB05KT 10SM OVC005 07/06 A3006 RMK AO2 SLP181 T00670056=
202012280253 METAR KCLM 280253Z AUTO 00000KT 10SM OVC006 07/06 A3005 RMK AO2 SLP179 60000 T00670056 50002=
202012280153 METAR KCLM 280153Z AUTO VRB04KT 10SM BKN007 OVC012 07/06 A3006 RMK AO2 CIG 004V010 SLP179 T00670056=
202012280108 SPECI KCLM 280108Z AUTO 00000KT 10SM BKN008 OVC013 07/06 A3006 RMK AO2 CIG 007V011 T00720056=
202012280053 METAR KCLM 280053Z AUTO VRB04KT 10SM OVC011 07/06 A3006 RMK AO2 RAB2359E52 SLP181 P0000 T00720056=
202012280012 SPECI KCLM 280012Z AUTO 00000KT 8SM -RA BKN008 OVC060 07/06 A3005 RMK AO2 RAB2359 P0000 T00670056=
202012272353 METAR KCLM 272353Z AUTO 29003KT 10SM FEW023 BKN060 OVC080 07/05 A3005 RMK AO2 SLP177 T00670050 10083 20044 53006=
202012272253 METAR KCLM 272253Z AUTO 00000KT 10SM BKN085 07/05 A3003 RMK AO2 SLP172 T00720050=
202012272222 SPECI KCLM 272222Z AUTO 00000KT 10SM SCT018 BKN095 08/05 A3003 RMK AO2 T00780050=
202012272206 SPECI KCLM 272206Z AUTO 00000KT 10SM BKN016 OVC090 08/05 A3003 RMK AO2 T00780050=
202012272153 METAR KCLM 272153Z AUTO 00000KT 10SM OVC014 08/05 A3003 RMK AO2 SLP170 T00830050=
202012272134 SPECI KCLM 272134Z AUTO 00000KT 10SM BKN011 BKN090 08/05 A3003 RMK AO2 T00780050=
202012272053 METAR KCLM 272053Z AUTO VRB03KT 10SM FEW006 BKN075 OVC100 07/05 A3003 RMK AO2 SLP171 T00720050 58007=
202012272018 SPECI KCLM 272018Z AUTO 26004KT 10SM FEW006 BKN080 BKN100 07/05 A3003 RMK AO2 T00720050=
202012271953 METAR KCLM 271953Z AUTO 23005KT 10SM BKN080 BKN100 07/05 A3003 RMK AO2 SLP171 T00670050=
202012271853 METAR KCLM 271853Z AUTO 00000KT 10SM SCT070 OVC085 06/04 A3005 RMK AO2 SLP179 T00560044=
202012271753 METAR KCLM 271753Z AUTO 24004KT 10SM FEW070 OVC095 04/04 A3005 RMK AO2 RAB10E42 SLP178 P0000 60001 T00440039 10056 20028 51003=
202012271653 METAR KCLM 271653Z AUTO 00000KT 9SM FEW006 OVC055 04/03 A3005 RMK AO2 RAE33 SLP177 P0001 T00390028=
202012271613 SPECI KCLM 271613Z AUTO 00000KT 7SM -RA BKN007 BKN011 OVC040 04/03 A3005 RMK AO2 P0001 T00390028=
202012271601 SPECI KCLM 271601Z AUTO 00000KT 9SM -RA SCT007 SCT011 OVC044 04/03 A3005 RMK AO2 P0000 T00440028=
202012271553 METAR KCLM 271553Z AUTO 00000KT 10SM -RA BKN007 BKN055 OVC070 04/03 A3005 RMK AO2 RAB52 SLP178 P0000 T00440028=
202012271524 SPECI KCLM 271524Z AUTO 23005KT 10SM FEW009 SCT100 BKN120 05/03 A3005 RMK AO2 T00500028=
202012271453 METAR KCLM 271453Z AUTO 27006KT 10SM FEW060 SCT110 04/02 A3004 RMK AO2 SLP176 T00390022 58002=
202012271353 METAR KCLM 271353Z AUTO 28005KT 10SM FEW060 BKN120 04/02 A3006 RMK AO2 SLP180 T00390022=
202012271346 SPECI KCLM 271346Z AUTO 28005KT 10SM FEW006 BKN110 03/02 A3006 RMK AO2 T00330022=
202012271253 METAR KCLM 271253Z AUTO 00000KT 10SM FEW060 BKN120 03/02 A3004 RMK AO2 SLP175 T00330022=
202012271153 METAR KCLM 271153Z AUTO 19004KT 10SM FEW060 03/02 A3005 RMK AO2 SLP177 60000 70003 T00330022 10061 20028 50006=
202012271053 METAR KCLM 271053Z AUTO 00000KT 10SM OVC065 03/02 A3006 RMK AO2 SLP180 T00330022=
202012270953 METAR KCLM 270953Z AUTO 25006KT 10SM FEW012 BKN060 03/02 A3004 RMK AO2 SLP175 T00330022=
202012270853 METAR KCLM 270853Z AUTO 24003KT 10SM CLR 06/03 A3003 RMK AO2 SLP171 60000 T00560028 55000=
202012270753 METAR KCLM 270753Z AUTO 27010KT 10SM SCT050 BKN075 06/03 A3003 RMK AO2 RAB26E39 SLP170 P0000 T00560028 400830017=
202012270653 METAR KCLM 270653Z AUTO 23006KT 10SM OVC065 05/03 A3002 RMK AO2 SLP168 T00500028=
202012270553 METAR KCLM 270553Z AUTO 22003KT 10SM OVC070 04/03 A3003 RMK AO2 SLP171 T00440028 10067 20017 56004=
202012270503 SPECI KCLM 270503Z AUTO 22004KT 9SM SCT015 BKN070 OVC090 04/03 A3004 RMK AO2 T00390028=
202012270453 METAR KCLM 270453Z AUTO 00000KT 9SM BKN014 OVC075 04/03 A3004 RMK AO2 SLP173 T00390033=
202012270359 SPECI KCLM 270359Z AUTO 22006KT 9SM BKN014 BKN120 04/03 A3003 RMK AO2 T00390028=
202012270353 METAR KCLM 270353Z AUTO 22007KT 8SM SCT016 SCT080 BKN110 03/02 A3003 RMK AO2 SLP172 T00330022=
202012270253 METAR KCLM 270253Z AUTO 00000KT 10SM FEW120 02/01 A3004 RMK AO2 SLP175 T00220011 53009=
202012270209 SPECI KCLM 270209Z AUTO 21004KT 10SM SCT015 BKN120 03/02 A3004 RMK AO2 T00330022=
202012270202 SPECI KCLM 270202Z AUTO 19003KT 10SM BKN015 BKN120 05/03 A3004 RMK AO2 T00500028=
202012270153 METAR KCLM 270153Z AUTO 21004KT 10SM SCT015 03/02 A3004 RMK AO2 SLP173 T00330017=
202012270053 METAR KCLM 270053Z AUTO 11004KT 10SM CLR 05/02 A3001 RMK AO2 SLP165 T00500022=
202012262353 METAR KCLM 262353Z AUTO 25006KT 10SM BKN060 07/03 A3001 RMK AO2 SLP165 60000 T00670028 10083 20067 53026=
202012262253 METAR KCLM 262253Z AUTO 24005KT 10SM CLR 07/03 A2998 RMK AO2 SLP154 T00670033=
202012262153 METAR KCLM 262153Z AUTO 25007KT 10SM CLR 07/03 A2995 RMK AO2 RAB2056E26 SLP143 P0000 T00720033=
202012262053 METAR KCLM 262053Z AUTO 24008KT 10SM SCT060 SCT090 08/04 A2994 RMK AO2 SLP139 60000 T00780039 51027=
202012261953 METAR KCLM 261953Z AUTO 25006KT 10SM SCT029 SCT037 07/04 A2991 RMK AO2 RAE00B22E41 SLP130 P0000 T00720044=
202012261853 METAR KCLM 261853Z AUTO 26004KT 10SM -RA OVC055 07/04 A2988 RMK AO2 RAB27 SLP122 P0000 T00720044=
202012261753 METAR KCLM 261753Z AUTO 17004KT 10SM FEW042 BKN055 OVC065 07/04 A2986 RMK AO2 RAE40 SLP112 P0000 60003 T00670044 10072 20050 53047=
202012261653 METAR KCLM 261653Z AUTO 23010KT 10SM -RA BKN045 OVC055 07/04 A2980 RMK AO2 RAE08B24 SLP093 P0001 T00670039=
202012261553 METAR KCLM 261553Z AUTO 24010KT 10SM -RA OVC046 07/04 A2975 RMK AO2 SLP075 P0001 T00670044=
202012261453 METAR KCLM 261453Z AUTO 26010KT 10SM -RA OVC048 07/05 A2972 RMK AO2 SLP064 P0001 60001 T00670050 53040=
202012261353 METAR KCLM 261353Z AUTO 23005KT 9SM -RA OVC050 06/04 A2967 RMK AO2 SLP050 P0000 T00560044=
202012261253 METAR KCLM 261253Z AUTO 00000KT 10SM -RA BKN050 OVC070 06/04 A2964 RMK AO2 RAE1155B26 SLP037 P0000 T00560044=
202012261153 METAR KCLM 261153Z AUTO 26003KT 10SM -RA OVC065 06/04 A2960 RMK AO2 RAB14 SLP024 P0001 60003 70004 T00560044 10061 20033 53018=
202012261053 METAR KCLM 261053Z AUTO 00000KT 10SM BKN060 BKN075 04/03 A2956 RMK AO2 RAE0954 SLP013 P0000 T00390028=
202012260953 METAR KCLM 260953Z AUTO 17006KT 10SM -RA OVC055 05/04 A2955 RMK AO2 SLP008 P0000 T00500039=
202012260853 METAR KCLM 260853Z AUTO 32003KT 9SM -RA BKN050 OVC075 06/04 A2954 RMK AO2 RAB0755 SLP005 P0002 60002 T00610044 53012=
202012260753 METAR KCLM 260753Z AUTO 00000KT 9SM OVC060 04/03 A2952 RMK AO2 RAB29E44 SLP999 P0000 T00440033 400670000=
202012260653 METAR KCLM 260653Z AUTO 04003KT 8SM BKN065 OVC085 04/03 A2950 RMK AO2 SLP991 T00390028=
202012260553 METAR KCLM 260553Z AUTO 23004KT 9SM SCT075 BKN100 03/03 A2951 RMK AO2 SLP994 60000 T00330028 10061 20033 56004=
202012260453 METAR KCLM 260453Z AUTO 00000KT 9SM OVC120 04/03 A2951 RMK AO2 SLP994 T00440033=
202012260353 METAR KCLM 260353Z AUTO 00000KT 10SM FEW060 BKN100 OVC120 04/03 A2951 RMK AO2 RAE00 SLP995 P0000 T00440033=
202012260253 METAR KCLM 260253Z AUTO 31007KT 10SM -RA FEW060 BKN070 OVC095 05/04 A2952 RMK AO2 RAE0156B51 SLP998 P0000 60000 T00500039 56023=
202012260153 METAR KCLM 260153Z AUTO 00000KT 7SM -RA OVC060 04/03 A2953 RMK AO2 RAB0059 SLP001 P0000 T00440033=
202012260053 METAR KCLM 260053Z AUTO 00000KT 7SM BKN070 OVC085 04/04 A2956 RMK AO2 RAB10E37 SLP010 P0000 T00440039=
202012252353 METAR KCLM 252353Z AUTO 00000KT 8SM SCT060 OVC080 06/04 A2959 RMK AO2 RAB17E50 SLP021 P0001 60001 T00560039 10067 20044 56022=
202012252253 METAR KCLM 252253Z AUTO 23004KT 10SM SCT008 OVC080 06/04 A2962 RMK AO2 SLP031 T00560044=
202012252248 SPECI KCLM 252248Z AUTO 00000KT 10SM BKN009 OVC085 06/04 A2962 RMK AO2=
202012252225 SPECI KCLM 252225Z AUTO 18003KT 10SM BKN010 OVC100 06/04 A2963 RMK AO2 CIG 008V013 T00560044=
202012252153 METAR KCLM 252153Z AUTO 00000KT 10SM OVC008 06/04 A2965 RMK AO2 SLP044 T00610044=
202012252134 SPECI KCLM 252134Z AUTO 00000KT 10SM OVC008 07/04 A2968 RMK AO2 T00670044=
202012252103 SPECI KCLM 252103Z AUTO 00000KT 10SM BKN011 OVC095 06/04 A2970 RMK AO2 T00610039=
202012252053 METAR KCLM 252053Z AUTO 21003KT 10SM SCT012 OVC090 06/04 A2971 RMK AO2 RAB08E17 SLP063 P0000 60000 T00610044 58029=
202012251953 METAR KCLM 251953Z AUTO 00000KT 10SM OVC065 06/04 A2975 RMK AO2 SLP077 T00560039=
202012251853 METAR KCLM 251853Z AUTO 23004KT 10SM BKN080 OVC095 04/03 A2979 RMK AO2 SLP090 T00440033=
202012251753 METAR KCLM 251753Z AUTO 00000KT 10SM OVC065 05/03 A2980 RMK AO2 SLP093 60000 T00500033 10050 20028 55003=
202012251653 METAR KCLM 251653Z AUTO 22007KT 10SM OVC070 04/03 A2979 RMK AO2 SLP090 T00440028=
202012251553 METAR KCLM 251553Z AUTO 00000KT 10SM OVC055 03/02 A2978 RMK AO2 SLP089 T00330022=
202012251453 METAR KCLM 251453Z AUTO 21006KT 10SM OVC060 03/02 A2981 RMK AO2 RAE35 SLP096 P0000 60000 T00330022 58002=
202012251353 METAR KCLM 251353Z AUTO 00000KT 10SM -RA OVC055 04/02 A2981 RMK AO2 RAB15 SLP096 P0000 T00390022=
202012251253 METAR KCLM 251253Z AUTO 23005KT 10SM BKN065 04/02 A2982 RMK AO2 SLP100 T00440022=
202012251153 METAR KCLM 251153Z AUTO 25009KT 10SM OVC075 03/01 A2981 RMK AO2 SLP098 T00330006 10033 21006 56023=
202012251053 METAR KCLM 251053Z AUTO 23004KT 10SM CLR 01/M01 A2982 RMK AO2 SLP100 T00061011=
202012250953 METAR KCLM 250953Z AUTO 10SM CLR 01/M01 A2985 RMK AO2 SLP112 T00061011=
202012250853 METAR KCLM 250853Z AUTO 00000KT 10SM CLR 01/M01 A2988 RMK AO2 SLP121 T00061006 58021=
202012250753 METAR KCLM 250753Z AUTO 15006KT 8SM CLR 00/M01 A2991 RMK AO2 SLP130 T00001006 400441017=
202012250653 METAR KCLM 250653Z AUTO 00000KT 9SM CLR 00/M01 A2993 RMK AO2 SLP138 T00001011=
202012250553 METAR KCLM 250553Z AUTO 16004KT 8SM CLR 00/M01 A2994 RMK AO2 SLP142 T00001011 10033 20000 58020=
202012250453 METAR KCLM 250453Z AUTO 20004KT 10SM FEW012 01/00 A2997 RMK AO2 SLP151 T00110000=
202012250353 METAR KCLM 250353Z AUTO 13005KT 10SM CLR 01/M01 A2999 RMK AO2 SLP158 T00111006=
202012250253 METAR KCLM 250253Z AUTO 15004KT 10SM CLR 01/M01 A3000 RMK AO2 SLP162 T00061006 58014=
202012250153 METAR KCLM 250153Z AUTO 21004KT 10SM CLR 01/M01 A3002 RMK AO2 SLP169 T00061006=
202012250053 METAR KCLM 250053Z AUTO 00000KT 10SM SCT013 03/01 A3003 RMK AO2 SLP173 T00280006=
202012250046 SPECI KCLM 250046Z AUTO 15003KT 10SM SCT013 02/00 A3003 RMK AO2 T00220000=
202012242353 METAR KCLM 242353Z AUTO 13003KT 10SM OVC012 03/01 A3004 RMK AO2 SLP176 T00330011 10044 20017 56024=
202012242253 METAR KCLM 242253Z AUTO 10003KT 10SM OVC012 04/01 A3005 RMK AO2 SLP180 T00390006=
202012242153 METAR KCLM 242153Z AUTO 00000KT 10SM OVC012 04/01 A3009 RMK AO2 SLP192 T00390011=
202012242053 METAR KCLM 242053Z AUTO 00000KT 10SM OVC012 04/01 A3011 RMK AO2 SLP201 T00390011 58015=
202012241953 METAR KCLM 241953Z AUTO VRB03KT 10SM OVC013 04/01 A3013 RMK AO2 SLP206 T00390011=
202012241926 SPECI KCLM 241926Z AUTO 09005KT 10SM OVC014 04/01 A3013 RMK AO2 T00390011=
202012241853 METAR KCLM 241853Z AUTO 11003KT 10SM OVC015 04/02 A3015 RMK AO2 SLP211 T00390017=
202012241844 SPECI KCLM 241844Z AUTO 11003KT 10SM OVC015 03/01 A3014 RMK AO2 T00330011=
202012241812 SPECI KCLM 241812Z AUTO 11003KT 10SM OVC014 03/01 A3016 RMK AO2 T00280006=
202012241753 METAR KCLM 241753Z AUTO 00000KT 10SM OVC015 01/00 A3016 RMK AO2 SLP216 T00110000 10022 21017 55000=
202012241653 METAR KCLM 241653Z AUTO 00000KT 10SM OVC016 00/M01 A3016 RMK AO2 SLP215 T00001011=
202012241553 METAR KCLM 241553Z AUTO 21003KT 9SM BKN015 M02/M02 A3016 RMK AO2 SLP217 T10171022=
202012241550 SPECI KCLM 241550Z AUTO 22003KT 10SM BKN015 M02/M02 A3016 RMK AO2=
202012241453 METAR KCLM 241453Z AUTO 12004KT 10SM CLR 00/M01 A3016 RMK AO2 SLP216 T00001011 58006=
202012241353 METAR KCLM 241353Z AUTO 00000KT 10SM FEW015 01/M01 A3018 RMK AO2 SLP223 T00111006=
202012241350 SPECI KCLM 241350Z AUTO 00000KT 10SM SCT015 01/M01 A3018 RMK AO2=
202012241323 SPECI KCLM 241323Z AUTO 17003KT 10SM OVC015 02/00 A3018 RMK AO2 T00220000=
202012241253 METAR KCLM 241253Z AUTO 14005KT 10SM OVC014 02/00 A3018 RMK AO2 SLP222 T00220000=
202012241233 SPECI KCLM 241233Z AUTO 13005KT 10SM OVC014 02/01 A3019 RMK AO2 T00220006=
202012241153 METAR KCLM 241153Z AUTO 09003KT 10SM OVC016 02/01 A3020 RMK AO2 SLP228 T00220006 10033 21022 58016=
202012241137 SPECI KCLM 241137Z AUTO 12003KT 10SM OVC015 02/00 A3020 RMK AO2 T00170000=
202012241123 SPECI KCLM 241123Z AUTO 14004KT 10SM OVC014 01/00 A3021 RMK AO2 T00110000=
202012241053 METAR KCLM 241053Z AUTO 15003KT 10SM OVC015 02/01 A3023 RMK AO2 SLP240 T00170006=
202012240953 METAR KCLM 240953Z AUTO 13003KT 10SM OVC011 03/01 A3024 RMK AO2 SLP243 T00280006=
202012240853 METAR KCLM 240853Z AUTO 00000KT 10SM OVC014 00/M01 A3025 RMK AO2 SLP247 T00001006 58001=
202012240835 SPECI KCLM 240835Z AUTO 00000KT 10SM OVC014 00/M01 A3025 RMK AO2 T00001011=
202012240753 METAR KCLM 240753Z AUTO 20003KT 10SM OVC015 M01/M02 A3026 RMK AO2 SLP251 T10061017 400501028=
202012240729 SPECI KCLM 240729Z AUTO 00000KT 10SM BKN014 M02/M03 A3027 RMK AO2 T10221028=
202012240653 METAR KCLM 240653Z AUTO 14003KT 10SM CLR 01/M01 A3025 RMK AO2 SLP248 T00061011=
202012240553 METAR KCLM 240553Z AUTO 12005KT 10SM CLR M01/M02 A3025 RMK AO2 SLP248 I6000 T10111022 10028 21028 58035=
202012240453 METAR KCLM 240453Z AUTO 13004KT 10SM CLR M01/M02 A3031 RMK AO2 SLP265 I1000 T10061017=
202012240353 METAR KCLM 240353Z AUTO 13004KT 8SM CLR M02/M03 A3033 RMK AO2 SLP276 I1000 T10221033=
202012240253 METAR KCLM 240253Z AUTO 11004KT 6SM BR CLR M02/M03 A3036 RMK AO2 SLP283 I1000 I3000 T10171028 58023=
202012240153 METAR KCLM 240153Z AUTO 12004KT 7SM CLR M02/M03 A3038 RMK AO2 SLP292 T10171028=
202012240053 METAR KCLM 240053Z AUTO 00000KT 10SM CLR 00/M01 A3041 RMK AO2 SLP301 T00001011=
202012232353 METAR KCLM 232353Z AUTO 11004KT 10SM CLR 03/00 A3043 RMK AO2 SLP307 T00330000 10050 20006 58017=
202012232253 METAR KCLM 232253Z AUTO 08006KT 10SM CLR 04/01 A3044 RMK AO2 SLP311 T00440006=
202012232153 METAR KCLM 232153Z AUTO VRB04KT 10SM CLR 04/01 A3047 RMK AO2 SLP320 T00440006=
202012232053 METAR KCLM 232053Z AUTO 09008KT 10SM CLR 04/01 A3048 RMK AO2 SLP324 T00440006 58024=
202012231953 METAR KCLM 231953Z AUTO 10006KT 10SM CLR 04/00 A3051 RMK AO2 SLP333 T00440000=
202012231853 METAR KCLM 231853Z AUTO 13004KT 10SM CLR 03/01 A3053 RMK AO2 SLP342 T00330006=
202012231753 METAR KCLM 231753Z AUTO 00000KT 10SM CLR 01/M01 A3055 RMK AO2 SLP348 T00061011 10011 21011 53006=
202012231653 METAR KCLM 231653Z AUTO 24005KT 10SM CLR 00/M02 A3053 RMK AO2 SLP342 T00001017=
202012231553 METAR KCLM 231553Z AUTO 21005KT 10SM CLR 00/M02 A3052 RMK AO2 SLP339 T00001017=
202012231507 SPECI KCLM 231507Z AUTO 21004KT 10SM SCT014 00/M01 A3053 RMK AO2 T00001011=
202012231453 METAR KCLM 231453Z AUTO 21004KT 10SM BKN014 01/M01 A3053 RMK AO2 SLP342 T00061006 56009=
202012231353 METAR KCLM 231353Z AUTO 21005KT 10SM BKN016 OVC022 01/M01 A3053 RMK AO2 SLP342 T00061011=
202012231331 SPECI KCLM 231331Z AUTO 22003KT 10SM BKN013 OVC020 01/M01 A3053 RMK AO2 T00061006=
202012231253 METAR KCLM 231253Z AUTO 21006KT 10SM SCT015 BKN020 BKN026 01/M01 A3054 RMK AO2 SLP344 T00111011=
202012231153 METAR KCLM 231153Z AUTO 22006KT 10SM BKN017 OVC029 01/M01 A3056 RMK AO2 SLP351 I6000 T00111011 10011 21022 50004=
202012231109 SPECI KCLM 231109Z AUTO 20004KT 10SM BKN016 OVC030 01/M01 A3055 RMK AO2 T00111011=
202012231102 SPECI KCLM 231102Z AUTO 22005KT 10SM SCT016 OVC030 01/M01 A3056 RMK AO2 T00111011=
202012231053 METAR KCLM 231053Z AUTO 22005KT 10SM FEW017 OVC028 01/M01 A3056 RMK AO2 SLP351 T00111011=
202012230953 METAR KCLM 230953Z AUTO 22005KT 10SM OVC026 01/M01 A3055 RMK AO2 SLP347 I1000 T00111011=
202012230853 METAR KCLM 230853Z AUTO 00000KT 8SM OVC026 M02/M02 A3055 RMK AO2 SLP347 T10171022 50004=
202012230832 SPECI KCLM 230832Z AUTO 00000KT 10SM BKN026 M02/M02 A3055 RMK AO2 T10171022=
202012230753 METAR KCLM 230753Z AUTO 21004KT 10SM CLR M01/M02 A3055 RMK AO2 SLP350 T10061017 400671022=
202012230653 METAR KCLM 230653Z AUTO 23007KT 10SM CLR M01/M02 A3056 RMK AO2 SLP352 T10061022=
202012230553 METAR KCLM 230553Z AUTO 22007KT 10SM CLR 01/M02 A3053 RMK AO2 SLP343 I6001 T00061022 10039 21022 53017=
202012230453 METAR KCLM 230453Z AUTO 22004KT 10SM CLR M01/M02 A3050 RMK AO2 SLP331 T10061017=
202012230353 METAR KCLM 230353Z AUTO 00000KT 10SM CLR M01/M02 A3050 RMK AO2 SLP330 I1001 T10111017=
202012230253 METAR KCLM 230253Z AUTO 23005KT 10SM CLR M01/M02 A3048 RMK AO2 PRESRR SLP326 T10061017 53026=
202012230153 METAR KCLM 230153Z AUTO 20003KT 10SM CLR 00/M01 A3045 RMK AO2 SLP315 T00001011=
202012230053 METAR KCLM 230053Z AUTO 00000KT 10SM CLR 02/00 A3043 RMK AO2 SLP307 T00170000=
202012222353 METAR KCLM 222353Z AUTO 15003KT 10SM CLR 03/00 A3041 RMK AO2 SLP300 T00330000 10067 20028 53019=
202012222253 METAR KCLM 222253Z AUTO 09005KT 10SM CLR 06/M01 A3038 RMK AO2 SLP289 T00561006=
202012222153 METAR KCLM 222153Z AUTO 09006KT 10SM CLR 06/00 A3036 RMK AO2 SLP282 T00610000=
202012222053 METAR KCLM 222053Z AUTO 25004KT 10SM CLR 06/01 A3035 RMK AO2 SLP280 T00560006=
202012221953 METAR KCLM 221953Z AUTO 23003KT 10SM CLR 05/00 A3031 RMK AO2 SLP267 T00500000=
202012221853 METAR KCLM 221853Z AUTO 24007KT 10SM CLR 04/M01 A3029 RMK AO2 SLP261 T00391006 $=
202012221753 METAR KCLM 221753Z AUTO 23004KT CLR 03/M01 A3025 RMK AO2 SLP247 T00281006 10039 20017 53039=
202012221653 METAR KCLM 221653Z AUTO 22007KT CLR 02/M01 A3021 RMK AO2 SLP234 T00171011 $=
202012221553 METAR KCLM 221553Z AUTO 24011KT 10SM CLR 03/M01 A3017 RMK AO2 SLP221 T00281011=
202012221453 METAR KCLM 221453Z AUTO 24012KT 10SM CLR 02/M01 A3014 RMK AO2 SLP208 T00221006 51036=
202012221353 METAR KCLM 221353Z AUTO 24009KT 10SM CLR 02/M01 A3011 RMK AO2 SLP198 T00221006=
202012221253 METAR KCLM 221253Z AUTO 23012KT 10SM CLR 03/M01 A3007 RMK AO2 SLP185 T00281006=
202012221153 METAR KCLM 221153Z AUTO 25011KT 10SM CLR 03/M01 A3003 RMK AO2 SLP172 70272 T00331006 10039 20028 51040=
202012221053 METAR KCLM 221053Z AUTO 25012KT 10SM CLR 03/00 A3000 RMK AO2 SLP162 T00330000=
202012220953 METAR KCLM 220953Z AUTO 24013KT 10SM CLR 04/00 A2996 RMK AO2 SLP147 T00390000=
202012220853 METAR KCLM 220853Z AUTO 25010KT 10SM CLR 03/00 A2991 RMK AO2 SLP131 T00330000 51047=
202012220753 METAR KCLM 220753Z AUTO 25010KT 10SM OVC070 04/00 A2987 RMK AO2 PRESRR SLP118 T00390000 400670006=
202012220653 METAR KCLM 220653Z AUTO 25012KT 10SM OVC075 03/00 A2981 RMK AO2 SLP099 T00330000=
202012220553 METAR KCLM 220553Z AUTO 25010KT 10SM SCT080 03/00 A2977 RMK AO2 SLP083 60017 T00330000 10039 20006 53031=
202012220453 METAR KCLM 220453Z AUTO 23012KT 10SM CLR 04/01 A2974 RMK AO2 SLP071 T00390006=
202012220353 METAR KCLM 220353Z AUTO 25012G20KT 10SM CLR 04/01 A2970 RMK AO2 SLP060 T00390006=
202012220253 METAR KCLM 220253Z AUTO 25009KT 10SM FEW095 03/00 A2967 RMK AO2 RAE02 SLP051 P0000 60017 T00280000 53015=
202012220210 SPECI KCLM 220210Z AUTO 24012KT 10SM SCT032 BKN049 OVC060 02/00 A2965 RMK AO2 RAE02 P0000 T00220000=
202012220153 METAR KCLM 220153Z AUTO 22008KT 9SM -RA BKN025 OVC033 02/01 A2965 RMK AO2 SNB17E27 SLP041 P0006 T00170006=
202012220053 METAR KCLM 220053Z AUTO 25008KT 3SM -RA BR OVC018 01/00 A2964 RMK AO2 SLP040 P0011 T00110000=
202012220044 SPECI KCLM 220044Z AUTO 29005KT 2SM RA BR OVC018 01/00 A2963 RMK AO2 P0010 T00110000=
202012220025 SPECI KCLM 220025Z AUTO 20003KT 3SM -RA BR OVC018 01/01 A2963 RMK AO2 P0007 T00110006=
202012220004 SPECI KCLM 220004Z AUTO 22005KT 2 1/2SM RA BR OVC015 01/00 A2963 RMK AO2 P0002 T00110000=
202012212353 METAR KCLM 212353Z AUTO 22004KT 1 1/2SM RA BR OVC013 01/00 A2963 RMK AO2 RAB51SNE51 SLP036 P0017 60134 T00060000 10033 20006 53001=
202012212310 SPECI KCLM 212310Z AUTO 17004KT 1SM -SN BR VV011 01/00 A2962 RMK AO2 P0004 T00110000=
202012212253 METAR KCLM 212253Z AUTO 14004KT 3/4SM -SN BR VV010 01/00 A2962 RMK AO2 SLP032 P0018 T00060000=
202012212248 SPECI KCLM 212248Z AUTO 13003KT 1/2SM SN FG VV010 01/00 A2962 RMK AO2 P0016=
202012212230 SPECI KCLM 212230Z AUTO 15005KT 1/2SM SN FG VV009 01/00 A2963 RMK AO2 P0012 T00060000=
202012212215 SPECI KCLM 212215Z AUTO 15005KT 1/4SM SN FG VV007 01/00 A2963 RMK AO2 P0008 T00060000=
202012212206 SPECI KCLM 212206Z AUTO 17004KT 1/2SM SN FG VV007 01/00 A2964 RMK AO2 P0004 T00060000=
202012212153 METAR KCLM 212153Z AUTO 15003KT 1SM -SN BR VV008 01/00 A2963 RMK AO2 RAE43SNB43 SLP034 P0020 T00110000=
202012212053 METAR KCLM 212053Z AUTO VRB05KT 1 3/4SM RA BR OVC005 02/01 A2962 RMK AO2 CIG 004V009 SLP033 P0027 60079 T00220011 58024 $=
202012212009 SPECI KCLM 212009Z AUTO 15005KT 1 1/2SM RA BR OVC007 02/01 A2965 RMK AO2 CIG 005V011 P0010 T00170006 $=
202012211953 METAR KCLM 211953Z AUTO 15005KT 2SM +RA BR OVC007 02/01 A2965 RMK AO2 CIG 004V010 SLP043 P0030 T00170006=
202012211940 SPECI KCLM 211940Z AUTO 00000KT 2SM RA BR OVC005 02/01 A2966 RMK AO2 P0022 T00170011=
202012211925 SPECI KCLM 211925Z AUTO 13004KT 1 3/4SM +RA BR OVC005 02/01 A2967 RMK AO2 P0015 T00170011=
202012211853 METAR KCLM 211853Z AUTO 16006KT 2SM RA BR OVC004 03/02 A2968 RMK AO2 SLP051 P0022 T00280017=
202012211836 SPECI KCLM 211836Z AUTO 08005KT 2 1/2SM RA BR OVC004 03/02 A2968 RMK AO2 P0016 T00280022=
202012211822 SPECI KCLM 211822Z AUTO VRB04KT 2SM RA BR OVC005 03/02 A2969 RMK AO2 P0011 T00280022=
202012211814 SPECI KCLM 211814Z AUTO 04007KT 2SM RA BR OVC003 03/02 A2970 RMK AO2 P0008 T00280022=
202012211753 METAR KCLM 211753Z AUTO VRB06KT 1 3/4SM RA BR BKN004 OVC009 03/02 A2969 RMK AO2 SLP057 P0027 60121 T00330022 10061 20022 56030=
202012211653 METAR KCLM 211653Z AUTO VRB04KT 2 1/2SM RA BR OVC004 03/02 A2971 RMK AO2 SLP061 P0023 T00330022=
202012211630 SPECI KCLM 211630Z AUTO 08006KT 2SM RA BR OVC006 03/02 A2973 RMK AO2 P0015 T00280017=
202012211614 SPECI KCLM 211614Z AUTO 07006KT 1 1/2SM RA BR BKN006 OVC010 03/02 A2974 RMK AO2 P0010 T00280017=
202012211553 METAR KCLM 211553Z AUTO 06008KT 030V090 2SM RA BR BKN006 OVC011 04/03 A2976 RMK AO2 SLP079 P0021 T00440028=
202012211515 SPECI KCLM 211515Z AUTO 00000KT 2 1/2SM RA BR BKN005 OVC011 04/03 A2977 RMK AO2 P0007 T00390033=
202012211453 METAR KCLM 211453Z AUTO 00000KT 1 3/4SM RA BR OVC008 03/03 A2978 RMK AO2 CIG 004V010 SLP087 P0022 60050 T00330028 56043=
202012211353 METAR KCLM 211353Z AUTO VRB06KT 2 1/2SM RA BR BKN007 BKN013 OVC019 06/04 A2983 RMK AO2 SLP102 P0017 T00560044=
202012211341 SPECI KCLM 211341Z AUTO 06008G15KT 2 1/2SM RA BR BKN008 BKN011 OVC019 06/04 A2983 RMK AO2 P0013 T00560044=
202012211334 SPECI KCLM 211334Z AUTO 07009G15KT 3SM RA BR BKN006 BKN010 OVC021 06/04 A2983 RMK AO2 P0011 T00560044=
202012211253 METAR KCLM 211253Z AUTO 07008KT 4SM -RA BR FEW005 BKN011 OVC016 06/05 A2986 RMK AO2 PRESFR SLP113 P0011 T00610050=
202012211239 SPECI KCLM 211239Z AUTO 08007KT 4SM -RA BR FEW007 BKN014 OVC020 06/04 A2988 RMK AO2 P0010 T00560044=
202012211203 SPECI KCLM 211203Z AUTO 07004KT 2 1/2SM -RA BR SCT005 BKN016 OVC021 06/06 A2992 RMK AO2 P0001 T00610056=
202012211153 METAR KCLM 211153Z AUTO 09008KT 3SM -RA BR SCT005 BKN016 OVC021 06/05 A2991 RMK AO2 SLP130 P0013 60022 70022 T00610050 10067 20056 58023=
202012211148 SPECI KCLM 211148Z AUTO 08005KT 3SM RA BR SCT005 BKN016 OVC021 06/05 A2991 RMK AO2 PRESFR P0012=
202012211111 SPECI KCLM 211111Z AUTO 06003KT 2 1/2SM RA BR BKN005 BKN009 OVC015 06/05 A2995 RMK AO2 P0003 T00610050=
202012211104 SPECI KCLM 211104Z AUTO 09005KT 3SM -RA BR BKN007 OVC031 06/05 A2995 RMK AO2 P0002 T00610050=
202012211053 METAR KCLM 211053Z AUTO 07003KT 4SM -RA BR SCT009 OVC031 06/05 A2997 RMK AO2 SLP149 P0005 T00610050=
202012211050 SPECI KCLM 211050Z AUTO 07004KT 4SM -RA BR SCT009 OVC031 06/05 A2997 RMK AO2 P0005=
202012210953 METAR KCLM 210953Z AUTO 00000KT 4SM -RA BR OVC036 06/05 A2998 RMK AO2 RAB03 SLP154 P0002 T00610050=
202012210853 METAR KCLM 210853Z AUTO 00000KT 7SM FEW038 OVC060 06/05 A3003 RMK AO2 RAE46 SLP170 P0002 60002 T00610050 58028=
202012210822 SPECI KCLM 210822Z AUTO 09003KT 6SM -RA BR FEW027 BKN034 OVC041 06/05 A3005 RMK AO2 P0001 T00610050=
202012210806 SPECI KCLM 210806Z AUTO 00000KT 7SM -RA BKN029 OVC039 07/05 A3007 RMK AO2 P0000 T00670050=
202012210753 METAR KCLM 210753Z AUTO 16003KT 6SM -RA BR SCT029 OVC048 06/05 A3007 RMK AO2 RAB42 SLP182 P0000 T00610050 401330044=
202012210745 SPECI KCLM 210745Z AUTO 15003KT 6SM -RA BR BKN029 BKN044 OVC050 06/04 A3007 RMK AO2 RAB42 P0000 T00610044=
202012210653 METAR KCLM 210653Z AUTO 15003KT 8SM FEW028 BKN036 OVC090 06/05 A3008 RMK AO2 SLP188 T00610050=
202012210553 METAR KCLM 210553Z AUTO 00000KT 7SM OVC100 06/04 A3012 RMK AO2 SLP200 T00610044 10089 20061 58010=
202012210453 METAR KCLM 210453Z AUTO 19004KT 8SM BKN120 07/04 A3013 RMK AO2 SLP204 T00670044=
202012210353 METAR KCLM 210353Z AUTO 25005KT 7SM OVC120 07/04 A3014 RMK AO2 SLP207 T00720039=
202012210320 SPECI KCLM 210320Z AUTO 23003KT 8SM SCT023 SCT120 07/04 A3014 RMK AO2 T00670044=
202012210307 SPECI KCLM 210307Z AUTO 18003KT 8SM BKN023 OVC120 07/04 A3014 RMK AO2 T00720044=
202012210253 METAR KCLM 210253Z AUTO 00000KT 8SM FEW023 SCT041 OVC120 08/04 A3015 RMK AO2 SLP210 T00780039 58003=
202012210153 METAR KCLM 210153Z AUTO 00000KT 8SM FEW021 BKN039 08/04 A3015 RMK AO2 SLP211 T00780044=
202012210105 SPECI KCLM 210105Z AUTO 26004KT 8SM SCT026 OVC032 08/04 A3016 RMK AO2 T00830039=
202012210053 METAR KCLM 210053Z AUTO 24004KT 8SM BKN026 OVC034 08/04 A3016 RMK AO2 SLP215 T00830044=
202012202353 METAR KCLM 202353Z AUTO 29005KT 7SM OVC025 09/05 A3015 RMK AO2 SLP212 T00890050 10111 20067 50002=
202012202253 METAR KCLM 202253Z AUTO 29007KT 8SM BKN019 BKN025 09/06 A3016 RMK AO2 SLP214 T00940061=
202012202225 SPECI KCLM 202225Z AUTO 31007KT 10SM FEW012 BKN019 09/07 A3016 RMK AO2 T00940067=
202012202153 METAR KCLM 202153Z AUTO VRB04KT 10SM BKN048 09/07 A3015 RMK AO2 SLP212 T00940072=
202012202053 METAR KCLM 202053Z AUTO 00000KT 10SM CLR 11/07 A3015 RMK AO2 SLP210 T01110067 58002=
202012201953 METAR KCLM 201953Z AUTO 00000KT 10SM FEW065 10/07 A3015 RMK AO2 SLP210 T01000067=
202012201904 SPECI KCLM 201904Z AUTO 00000KT 10SM SCT021 SCT050 09/06 A3016 RMK AO2 T00940056=
202012201853 METAR KCLM 201853Z AUTO 00000KT 10SM BKN021 09/06 A3015 RMK AO2 SLP211 T00940056=
202012201753 METAR KCLM 201753Z AUTO 22003KT 10SM CLR 07/06 A3011 RMK AO2 SLP199 T00670056 10100 20044 53025=
202012201653 METAR KCLM 201653Z AUTO 16003KT 9SM CLR 04/04 A3009 RMK AO2 SLP192 T00440039=
202012201553 METAR KCLM 201553Z AUTO 24003KT 10SM CLR 07/05 A3006 RMK AO2 SLP180 T00720050=
202012201453 METAR KCLM 201453Z AUTO 00000KT 10SM CLR 08/04 A3004 RMK AO2 SLP174 T00780044 53020=
202012201353 METAR KCLM 201353Z AUTO 00000KT 10SM CLR 09/05 A3000 RMK AO2 SLP160 T00940050=
202012201253 METAR KCLM 201253Z AUTO 27008KT 10SM CLR 09/05 A2999 RMK AO2 SLP156 T00940050=
202012201153 METAR KCLM 201153Z AUTO 28012G20KT 10SM CLR 10/06 A2998 RMK AO2 SLP153 70068 T01000061 10133 20100 51039=
202012201053 METAR KCLM 201053Z AUTO 26009KT 10SM CLR 11/07 A2997 RMK AO2 PRESRR SLP148 T01060072=
202012200953 METAR KCLM 200953Z AUTO 24010KT 10SM CLR 12/07 A2991 RMK AO2 SLP128 T01220067=
202012200853 METAR KCLM 200853Z AUTO 25009KT 10SM BKN110 13/07 A2987 RMK AO2 SLP114 T01280072 53029=
202012200753 METAR KCLM 200753Z AUTO 28013G20KT 10SM BKN120 12/08 A2984 RMK AO2 SLP105 T01170078 401280056=
202012200653 METAR KCLM 200653Z AUTO 25013G19KT 10SM SCT120 12/08 A2980 RMK AO2 SLP093 T01170078=
202012200553 METAR KCLM 200553Z AUTO 28013KT 10SM BKN120 11/08 A2978 RMK AO2 RAE12 SLP085 P0000 60045 T01110078 10111 20061 51003=
202012200453 METAR KCLM 200453Z AUTO 25011G16KT 10SM -RA BKN050 OVC070 10/07 A2977 RMK AO2 SLP081 P0007 T01000072=
202012200412 SPECI KCLM 200412Z AUTO 00000KT 3SM -RA BR OVC055 07/06 A2980 RMK AO2 P0005 T00720061=
202012200402 SPECI KCLM 200402Z AUTO 00000KT 2 1/2SM RA BR OVC055 07/06 A2979 RMK AO2 P0003 T00720061=
202012200353 METAR KCLM 200353Z AUTO 00000KT 3SM RA BR OVC060 07/06 A2979 RMK AO2 SLP090 P0012 T00720061=
202012200253 METAR KCLM 200253Z AUTO 13005KT 4SM RA BR OVC070 07/06 A2977 RMK AO2 SLP083 P0015 60026 T00670056 56035=
202012200223 SPECI KCLM 200223Z AUTO 15005KT 3SM -RA BR SCT004 BKN050 OVC070 07/06 A2979 RMK AO2 P0007 T00670056=
202012200215 SPECI KCLM 200215Z AUTO VRB03KT 2 1/2SM RA BR FEW004 BKN050 OVC070 07/06 A2979 RMK AO2 P0006 T00720056=
202012200208 SPECI KCLM 200208Z AUTO VRB05KT 2 1/2SM RA BR BKN050 OVC070 07/06 A2980 RMK AO2 P0004 T00670061=
202012200153 METAR KCLM 200153Z AUTO VRB03KT 3SM -RA BR BKN070 OVC080 07/06 A2980 RMK AO2 SLP094 P0007 T00670056=
202012200053 METAR KCLM 200053Z AUTO 23006KT 5SM -RA BR FEW006 BKN050 OVC080 06/05 A2983 RMK AO2 SLP104 P0004 T00610050=
202012200042 SPECI KCLM 200042Z AUTO 25006KT 6SM -RA BR SCT006 BKN037 OVC080 06/05 A2983 RMK AO2 P0003 T00610050=
202012200011 SPECI KCLM 200011Z AUTO 00000KT 3SM -RA BR BKN005 OVC046 06/05 A2984 RMK AO2 PRESFR P0002 T00610050=
202012200002 SPECI KCLM 200002Z AUTO 00000KT 2 1/2SM -RA BR BKN004 BKN047 OVC055 06/06 A2985 RMK AO2 PRESFR P0001 T00610056=
202012192353 METAR KCLM 192353Z AUTO 00000KT 4SM -RA BR BKN004 OVC045 06/05 A2987 RMK AO2 PRESFR SLP118 P0005 60023 T00610050 10067 20061 58071=
202012192330 SPECI KCLM 192330Z AUTO 22006KT 4SM -RA BR OVC003 06/06 A2991 RMK AO2 P0003 T00610056=
202012192300 SPECI KCLM 192300Z AUTO 26003KT 2SM -RA BR BKN003 BKN007 OVC011 06/05 A2994 RMK AO2 P0000 T00610050=
202012192253 METAR KCLM 192253Z AUTO 00000KT 2SM -RA BR BKN005 OVC011 07/06 A2995 RMK AO2 SLP143 P0005 T00670056=
202012192237 SPECI KCLM 192237Z AUTO 00000KT 2SM -RA BR BKN008 BKN014 OVC036 07/06 A2996 RMK AO2 PRESFR P0003 T00670056=
202012192230 SPECI KCLM 192230Z AUTO 00000KT 3SM -RA BR FEW007 BKN013 OVC036 07/06 A2997 RMK AO2 PRESFR P0003 T00670056=
202012192208 SPECI KCLM 192208Z AUTO 00000KT 3SM -RA BR FEW007 BKN020 OVC034 06/06 A3001 RMK AO2 PRESFR P0001 T00610056=
202012192204 SPECI KCLM 192204Z AUTO 17003KT 2 1/2SM -RA BR FEW007 BKN013 OVC034 06/06 A3001 RMK AO2 PRESFR P0000 T00610056=
202012192201 SPECI KCLM 192201Z AUTO 19003KT 2 1/2SM -RA BR SCT012 BKN021 OVC034 06/06 A3002 RMK AO2 PRESFR P0000 T00610056=
202012192153 METAR KCLM 192153Z AUTO 00000KT 2SM -RA BR BKN012 BKN021 OVC032 06/06 A3003 RMK AO2 PRESFR SLP171 P0007 T00610056=
202012192144 SPECI KCLM 192144Z AUTO 00000KT 2 1/2SM -RA BR BKN011 BKN024 OVC032 07/06 A3004 RMK AO2 PRESFR P0006 T00670056=
202012192135 SPECI KCLM 192135Z AUTO 00000KT 2 1/2SM -RA BR SCT011 BKN024 OVC032 07/06 A3005 RMK AO2 PRESFR P0005 T00670056=
202012192124 SPECI KCLM 192124Z AUTO 16003KT 3SM -RA BR BKN011 BKN026 OVC034 06/05 A3007 RMK AO2 P0003 T00610050=
202012192053 METAR KCLM 192053Z AUTO 00000KT 4SM -RA BR OVC034 06/05 A3009 RMK AO2 SLP190 P0005 60006 T00610050 58027=
202012191953 METAR KCLM 191953Z AUTO 00000KT 6SM -RA BR OVC040 07/04 A3014 RMK AO2 RAB24 SLP208 P0001 T00670044=
202012191853 METAR KCLM 191853Z AUTO 20003KT 10SM BKN075 OVC090 07/04 A3015 RMK AO2 SLP212 T00670039=
202012191818 SPECI KCLM 191818Z AUTO 28005KT 10SM SCT020 BKN090 OVC110 07/03 A3017 RMK AO2 T00670033=
202012191802 SPECI KCLM 191802Z AUTO 26005KT 10SM BKN020 BKN120 07/03 A3016 RMK AO2 T00670033=
202012191753 METAR KCLM 191753Z AUTO 25005KT 10SM FEW007 SCT015 BKN120 07/03 A3017 RMK AO2 SLP217 T00670033 10083 20056 56019=
202012191742 SPECI KCLM 191742Z AUTO 24006KT 10SM SCT007 BKN015 OVC120 07/04 A3017 RMK AO2 T00720044=
202012191730 SPECI KCLM 191730Z AUTO 24004KT 8SM BKN007 BKN014 OVC036 07/05 A3018 RMK AO2 T00720050=
202012191716 SPECI KCLM 191716Z AUTO 00000KT 5SM BR SCT007 BKN014 OVC036 07/06 A3018 RMK AO2 T00720061=
202012191653 METAR KCLM 191653Z AUTO 26003KT 4SM BR OVC008 07/06 A3017 RMK AO2 CIG 006V011 SLP217 T00720061=
202012191611 SPECI KCLM 191611Z AUTO 11005KT 7SM OVC009 08/06 A3017 RMK AO2 T00780056=
202012191553 METAR KCLM 191553Z AUTO 11003KT 9SM OVC012 08/05 A3018 RMK AO2 SLP221 T00780050=
202012191534 SPECI KCLM 191534Z AUTO 00000KT 10SM BKN014 OVC021 07/04 A3019 RMK AO2 T00720044=
202012191453 METAR KCLM 191453Z AUTO 00000KT 10SM FEW022 OVC029 07/04 A3022 RMK AO2 SLP236 T00670039 53014=
202012191353 METAR KCLM 191353Z AUTO 00000KT 10SM BKN026 OVC033 06/03 A3020 RMK AO2 SLP228 T00610028=
202012191350 SPECI KCLM 191350Z AUTO 00000KT 10SM BKN026 OVC033 06/03 A3020 RMK AO2=
202012191253 METAR KCLM 191253Z AUTO 23005KT 10SM FEW034 07/03 A3018 RMK AO2 SLP222 T00720028=
202012191153 METAR KCLM 191153Z AUTO 23004KT 10SM CLR 08/02 A3014 RMK AO2 SLP208 70015 T00830022 10089 20078 51032=
202012191053 METAR KCLM 191053Z AUTO 29010KT 10SM CLR 08/02 A3013 RMK AO2 SLP202 T00830022=
202012190953 METAR KCLM 190953Z AUTO 28015G23KT 10SM CLR 08/02 A3010 RMK AO2 SLP195 T00830022=
202012190853 METAR KCLM 190853Z AUTO 28014G23KT 10SM CLR 08/03 A3004 RMK AO2 SLP175 T00830033 51050=
202012190753 METAR KCLM 190753Z AUTO 28016KT 10SM CLR 08/05 A3001 RMK AO2 PK WND 29026/0724 SLP166 T00780050 401000050=
202012190653 METAR KCLM 190653Z AUTO 28013KT 10SM CLR 08/06 A2996 RMK AO2 PRESRR SLP146 T00780056=
202012190553 METAR KCLM 190553Z AUTO 23008KT 10SM OVC042 08/07 A2989 RMK AO2 RAB0457E35 SLP125 P0001 60013 T00830067 10100 20067 51037=
202012190530 SPECI KCLM 190530Z AUTO 25007KT 6SM -RA BR FEW008 SCT017 OVC030 09/08 A2989 RMK AO2 RAB0457 P0001 T00890078=
202012190511 SPECI KCLM 190511Z AUTO 27009G17KT 3SM -RA BR SCT008 BKN020 OVC032 09/07 A2988 RMK AO2 RAB0457 P0001 T00890072=
202012190501 SPECI KCLM 190501Z AUTO 28013G21KT 7SM -RA SCT010 BKN027 OVC050 09/06 A2989 RMK AO2 RAB0457 P0000 T00890061=
202012190453 METAR KCLM 190453Z AUTO 28008KT 10SM FEW026 FEW036 OVC049 09/06 A2988 RMK AO2 PRESRR SLP120 T00940056=
202012190353 METAR KCLM 190353Z AUTO VRB05KT 10SM BKN100 OVC120 08/06 A2981 RMK AO2 RAE51 SLP095 P0000 T00830061=
202012190253 METAR KCLM 190253Z AUTO 23006KT 10SM -RA SCT046 BKN055 OVC120 09/06 A2979 RMK AO2 SLP088 P0001 60012 T00890056 55001=
202012190153 METAR KCLM 190153Z AUTO 25015G23KT 10SM -RA SCT044 BKN075 OVC085 09/06 A2977 RMK AO2 SLP084 P0002 T00940056=
202012190053 METAR KCLM 190053Z AUTO 00000KT 7SM -RA FEW040 OVC048 07/06 A2979 RMK AO2 RAB10 SLP088 P0009 T00720056=
202012190038 SPECI KCLM 190038Z AUTO VRB05KT 3SM RA BR OVC048 07/06 A2979 RMK AO2 RAB10 P0008 T00720056=
202012190028 SPECI KCLM 190028Z AUTO 10003KT 2 1/2SM RA BR BKN050 OVC055 07/06 A2980 RMK AO2 RAB10 P0006 T00720056=
202012190010 SPECI KCLM 190010Z AUTO VRB03KT 10SM -RA FEW004 BKN060 OVC090 07/06 A2981 RMK AO2 RAB10 P0000 T00720056=
202012182353 METAR KCLM 182353Z AUTO 00000KT 10SM BKN060 07/06 A2979 RMK AO2 SLP089 60000 T00720061 10089 20067 56051=
202012182253 METAR KCLM 182253Z AUTO 00000KT 10SM OVC060 08/07 A2982 RMK AO2 PRESFR SLP100 T00780067=
202012182153 METAR KCLM 182153Z AUTO 00000KT 10SM OVC065 08/06 A2989 RMK AO2 SLP124 T00830061=
202012182053 METAR KCLM 182053Z AUTO 00000KT 10SM FEW006 BKN065 08/07 A2994 RMK AO2 SLP139 60000 T00830067 58033=
202012182021 SPECI KCLM 182021Z AUTO 00000KT 10SM FEW005 OVC060 08/06 A2995 RMK AO2 PRESFR T00830061=
202012181953 METAR KCLM 181953Z AUTO 00000KT 10SM BKN004 OVC060 08/06 A2997 RMK AO2 SLP151 T00780061=
202012181943 SPECI KCLM 181943Z AUTO 00000KT 10SM BKN004 OVC060 08/06 A2997 RMK AO2 PRESFR T00780061=
202012181908 SPECI KCLM 181908Z AUTO 02004KT 10SM FEW006 SCT050 OVC060 08/06 A2999 RMK AO2 T00780061=
202012181853 METAR KCLM 181853Z AUTO 00000KT 10SM OVC060 08/06 A3001 RMK AO2 RAE07 SLP165 P0000 T00780061=
202012181753 METAR KCLM 181753Z AUTO 00000KT 8SM -RA FEW014 OVC050 07/06 A3004 RMK AO2 SLP173 P0001 60002 T00670056 10067 20050 56016=
202012181653 METAR KCLM 181653Z AUTO 27003KT 6SM -RA BR OVC060 06/04 A3005 RMK AO2 RAB04 SLP177 P0000 T00560044=
202012181553 METAR KCLM 181553Z AUTO 00000KT 10SM FEW005 BKN080 OVC100 06/04 A3007 RMK AO2 SLP183 T00560044=
202012181525 SPECI KCLM 181525Z AUTO 15003KT 10SM SCT004 OVC095 05/04 A3007 RMK AO2 T00500044=
202012181453 METAR KCLM 181453Z AUTO 15004KT 10SM FEW055 OVC080 06/04 A3008 RMK AO2 RAB1354E07 SLP189 P0000 60001 T00560044 58010=
202012181440 SPECI KCLM 181440Z AUTO 08003KT 7SM FEW007 SCT060 OVC075 06/05 A3009 RMK AO2 RAB1354E07 P0000 T00560050=
202012181353 METAR KCLM 181353Z AUTO 00000KT 7SM OVC060 06/04 A3011 RMK AO2 RAB00E42 SLP199 P0001 T00560044=
202012181323 SPECI KCLM 181323Z AUTO 00000KT 10SM -RA SCT007 OVC050 06/05 A3012 RMK AO2 RAB00 P0000 T00560050=
202012181253 METAR KCLM 181253Z AUTO 21003KT 10SM BKN007 OVC090 06/04 A3012 RMK AO2 SLP200 T00560044=
202012181153 METAR KCLM 181153Z AUTO 00000KT 10SM BKN009 BKN038 OVC045 05/04 A3011 RMK AO2 SLP199 60001 70002 T00500039 10078 20050 58010=
202012181053 METAR KCLM 181053Z AUTO 25004KT 10SM FEW033 OVC080 06/04 A3013 RMK AO2 SLP204 T00560039=
202012180953 METAR KCLM 180953Z AUTO 28004KT 10SM BKN050 BKN070 OVC085 06/04 A3013 RMK AO2 RAE48 SLP206 P0000 T00560044=
202012180853 METAR KCLM 180853Z AUTO 23004KT 10SM -RA OVC045 08/03 A3014 RMK AO2 SLP209 P0001 60001 T00780028 50002=
202012180753 METAR KCLM 180753Z AUTO 23007KT 10SM -RA FEW042 OVC050 06/03 A3016 RMK AO2 RAB50 SLP214 P0000 T00610033 401110056=
202012180653 METAR KCLM 180653Z AUTO 30003KT 10SM OVC060 06/03 A3015 RMK AO2 SLP211 T00610028=
202012180553 METAR KCLM 180553Z AUTO 23003KT 10SM OVC075 07/03 A3014 RMK AO2 SLP207 T00670028 10083 20056 51020=
202012180453 METAR KCLM 180453Z AUTO 22004KT 10SM OVC100 07/03 A3013 RMK AO2 SLP204 T00670033=
202012180353 METAR KCLM 180353Z AUTO 27007KT 10SM BKN110 06/03 A3011 RMK AO2 SLP197 T00610033=
202012180253 METAR KCLM 180253Z AUTO 25007KT 10SM CLR 06/03 A3008 RMK AO2 SLP187 T00560028 53026=
202012180153 METAR KCLM 180153Z AUTO 21005KT 10SM CLR 06/03 A3005 RMK AO2 SLP176 T00610033=
202012180053 METAR KCLM 180053Z AUTO 26007KT 10SM CLR 07/04 A3003 RMK AO2 SLP170 T00720039=
202012172353 METAR KCLM 172353Z AUTO 28010KT 10SM FEW048 08/04 A3000 RMK AO2 SLP159 T00830039 10111 20083 53028=
202012172253 METAR KCLM 172253Z AUTO 29011KT 10SM SCT049 10/04 A2997 RMK AO2 SLP149 T01000039=
202012172153 METAR KCLM 172153Z AUTO 29012KT 10SM SCT050 09/04 A2994 RMK AO2 SLP140 T00890044=
202012172053 METAR KCLM 172053Z AUTO 30010KT 10SM BKN050 10/04 A2991 RMK AO2 SLP131 T01000039 51024=
202012171953 METAR KCLM 171953Z AUTO 31005KT 10SM CLR 11/04 A2990 RMK AO2 SLP124 T01060044=
202012171853 METAR KCLM 171853Z AUTO 24007KT 10SM SCT060 10/04 A2987 RMK AO2 SLP117 T01000044=
202012171753 METAR KCLM 171753Z AUTO 25007KT 10SM BKN045 OVC055 08/04 A2984 RMK AO2 RAB07E53 SLP106 P0001 60001 T00830044 10094 20072 52051=
202012171653 METAR KCLM 171653Z AUTO 27015KT 10SM OVC047 09/03 A2979 RMK AO2 SLP089 T00940033=
202012171553 METAR KCLM 171553Z AUTO 29013G19KT 10SM OVC048 09/04 A2974 RMK AO2 SLP073 T00890039=
202012171453 METAR KCLM 171453Z AUTO 28015G24KT 10SM OVC045 09/04 A2969 RMK AO2 SLP055 60000 T00890039 51047=
202012171353 METAR KCLM 171353Z AUTO 24010KT 10SM FEW045 BKN055 OVC075 08/04 A2964 RMK AO2 RAB13E25 SLP040 P0000 T00830039=
202012171253 METAR KCLM 171253Z AUTO 26011G18KT 10SM FEW030 OVC045 08/03 A2960 RMK AO2 RAB30E32 SLP025 P0000 T00780033=
202012171153 METAR KCLM 171153Z AUTO 20009G16KT 10SM OVC048 08/03 A2955 RMK AO2 PK WND 22026/1054 RAE1059 PRESRR SLP008 P0000 60009 70017 T00780033 10089 20067 53023=
202012171053 METAR KCLM 171053Z AUTO 21012G31KT 10SM -RA FEW022 BKN055 OVC070 09/03 A2949 RMK AO2 PK WND 21032/1025 SLP985 P0000 T00890028=
202012170953 METAR KCLM 170953Z AUTO 23015G23KT 10SM -RA SCT038 OVC075 08/03 A2948 RMK AO2 SLP983 P0002 T00780028=
202012170853 METAR KCLM 170853Z AUTO 24008KT 220V300 10SM -RA OVC041 08/03 A2948 RMK AO2 SLP985 P0002 60007 T00780033 51007=
202012170753 METAR KCLM 170753Z AUTO 24013G28KT 210V270 6SM -RA OVC034 08/03 A2948 RMK AO2 PK WND 24028/0746 SLP985 P0003 T00780033 400830050=
202012170653 METAR KCLM 170653Z AUTO 26005KT 10SM -RA OVC050 08/06 A2948 RMK AO2 SLP983 P0002 T00780056=
202012170553 METAR KCLM 170553Z AUTO 28006KT 10SM -RA FEW035 OVC060 08/07 A2946 RMK AO2 SLP978 P0002 60006 T00780067 10083 20061 53030=
202012170453 METAR KCLM 170453Z AUTO 24003KT 5SM -RA BR OVC050 07/06 A2941 RMK AO2 SLP961 P0002 T00670056=
202012170353 METAR KCLM 170353Z AUTO 00000KT 7SM -RA BKN055 OVC070 07/06 A2939 RMK AO2 RAB0255E07B31 SLP952 P0001 T00720056=
202012170253 METAR KCLM 170253Z AUTO 26007KT 10SM BKN055 BKN070 07/06 A2937 RMK AO2 RAB06E42 SLP948 P0000 60001 T00720056 55029=
202012170153 METAR KCLM 170153Z AUTO VRB03KT 9SM OVC050 07/06 A2937 RMK AO2 RAE40 SLP946 P0000 T00670056=
202012170053 METAR KCLM 170053Z AUTO 00000KT 6SM -RA BR OVC060 07/06 A2939 RMK AO2 RAB01 SLP954 P0001 T00670056=
202012162353 METAR KCLM 162353Z AUTO 17005KT 4SM BR SCT003 SCT008 OVC060 07/06 A2946 RMK AO2 RAE48 SLP977 P0001 60002 T00670056 10078 20067 58047=
202012162308 SPECI KCLM 162308Z AUTO VRB04KT 5SM -RA BR SCT006 OVC060 07/06 A2949 RMK AO2 P0000 T00670056=
202012162253 METAR KCLM 162253Z AUTO 36004KT 6SM -RA BR BKN006 OVC060 07/06 A2951 RMK AO2 RAE2155B49 SLP996 P0000 T00720056=
202012162226 SPECI KCLM 162226Z AUTO 00000KT 7SM BKN006 OVC070 07/06 A2954 RMK AO2 RAE2155 CIG 003V009 P0000 T00720056=
202012162216 SPECI KCLM 162216Z AUTO 00000KT 7SM SCT005 BKN010 OVC070 07/06 A2956 RMK AO2 RAE2155 P0000 T00670061=
202012162153 METAR KCLM 162153Z AUTO VRB04KT 8SM -RA BKN005 OVC011 07/06 A2959 RMK AO2 RAE04B26 PRESFR SLP021 P0001 T00720056=
202012162148 SPECI KCLM 162148Z AUTO 00000KT 8SM -RA BKN005 BKN012 OVC050 07/06 A2960 RMK AO2 RAE04B26 P0001=
202012162139 SPECI KCLM 162139Z AUTO 00000KT 6SM -RA BR BKN004 OVC060 07/06 A2961 RMK AO2 RAE04B26 P0001 T00720056=
202012162129 SPECI KCLM 162129Z AUTO 33003KT 7SM -RA SCT004 SCT008 OVC060 07/06 A2962 RMK AO2 RAE04B26 P0000 T00720061=
202012162053 METAR KCLM 162053Z AUTO 09005KT 10SM -RA OVC060 07/05 A2967 RMK AO2 RAB37 PRESFR SLP048 P0000 60000 T00720050 58069=
202012161953 METAR KCLM 161953Z AUTO 00000KT 10SM FEW065 07/05 A2975 RMK AO2 SLP076 T00720050=
202012161853 METAR KCLM 161853Z AUTO 23003KT 10SM CLR 07/05 A2982 RMK AO2 SLP100 T00720050=
202012161822 SPECI KCLM 161822Z AUTO 22005KT 10SM FEW007 FEW060 07/05 A2986 RMK AO2 T00720050=
202012161753 METAR KCLM 161753Z AUTO 18004KT 10SM BKN060 07/05 A2987 RMK AO2 SLP117 T00670050 10067 20050 58033=
202012161738 SPECI KCLM 161738Z AUTO 24005KT 10SM SCT006 OVC060 07/05 A2988 RMK AO2 T00670050=
202012161653 METAR KCLM 161653Z AUTO 23005KT 10SM OVC007 06/04 A2991 RMK AO2 SLP130 T00610044=
202012161638 SPECI KCLM 161638Z AUTO 23006KT 10SM BKN006 OVC060 06/04 A2991 RMK AO2 T00560044=
202012161553 METAR KCLM 161553Z AUTO 24003KT 10SM SCT005 OVC055 06/04 A2994 RMK AO2 SLP140 T00560044=
202012161544 SPECI KCLM 161544Z AUTO 22006KT 10SM FEW005 OVC060 06/04 A2995 RMK AO2 T00560044=
202012161453 METAR KCLM 161453Z AUTO 23005KT 10SM FEW065 BKN090 OVC110 05/04 A2997 RMK AO2 SLP150 T00500039 58027=
202012161353 METAR KCLM 161353Z AUTO 25003KT 10SM OVC060 06/04 A3000 RMK AO2 SLP161 T00610044=
202012161253 METAR KCLM 161253Z AUTO 00000KT 10SM OVC060 06/04 A3003 RMK AO2 SLP171 T00560039=
202012161153 METAR KCLM 161153Z AUTO 15003KT 10SM OVC060 06/04 A3005 RMK AO2 SLP178 60000 70008 T00560044 10072 20050 58013=
202012161053 METAR KCLM 161053Z AUTO 00000KT 10SM SCT048 OVC060 05/04 A3008 RMK AO2 RAB26E43 SLP189 P0000 T00500044=
202012160953 METAR KCLM 160953Z AUTO 00000KT 10SM BKN038 OVC048 06/04 A3009 RMK AO2 SLP191 T00560044=
202012160853 METAR KCLM 160853Z AUTO 16003KT 10SM OVC060 05/04 A3009 RMK AO2 SLP190 60000 T00500039 51005=
202012160753 METAR KCLM 160753Z AUTO 00000KT 10SM OVC060 05/04 A3009 RMK AO2 RAB13E28 SLP190 P0000 T00500044 400940033=
202012160653 METAR KCLM 160653Z AUTO 22006KT 10SM OVC060 07/04 A3009 RMK AO2 SLP192 T00670044=
202012160553 METAR KCLM 160553Z AUTO 15004KT 10SM OVC060 06/04 A3007 RMK AO2 SLP185 60000 T00610044 10083 20061 51012=
202012160453 METAR KCLM 160453Z AUTO 21004KT 10SM OVC060 07/04 A3007 RMK AO2 SLP185 T00670044=
202012160353 METAR KCLM 160353Z AUTO 24005KT 10SM BKN055 OVC120 08/04 A3006 RMK AO2 SLP180 T00780039=
202012160253 METAR KCLM 160253Z AUTO 25008KT 10SM BKN060 OVC080 07/04 A3004 RMK AO2 SLP174 60000 T00720044 51013=
202012160153 METAR KCLM 160153Z AUTO 17003KT 10SM SCT050 OVC060 07/05 A3003 RMK AO2 RAB19E28 SLP170 P0000 T00670050=
202012160053 METAR KCLM 160053Z AUTO 19004KT 10SM OVC060 07/06 A3003 RMK AO2 SLP169 T00720056=
202012152353 METAR KCLM 152353Z AUTO 16004KT 10SM FEW038 BKN050 BKN090 08/06 A3000 RMK AO2 RAB35E44 SLP160 P0000 60001 T00780056 10094 20072 52017=
202012152253 METAR KCLM 152253Z AUTO 26005KT 10SM FEW039 OVC070 09/06 A2998 RMK AO2 SLP154 T00890061=
202012152153 METAR KCLM 152153Z AUTO 00000KT 10SM OVC090 09/06 A2997 RMK AO2 RAE2057 SLP149 P0000 T00890061=
202012152053 METAR KCLM 152053Z AUTO 21005KT 9SM -RA BKN044 OVC055 08/06 A2995 RMK AO2 RAE08B32 SLP143 P0000 60001 T00830061 51015=
202012151953 METAR KCLM 151953Z AUTO 22003KT 10SM -RA FEW042 BKN050 OVC060 09/06 A2993 RMK AO2 RAB21 SLP138 P0001 T00890061=
202012151853 METAR KCLM 151853Z AUTO 23008KT 10SM SCT033 SCT070 BKN080 07/06 A2992 RMK AO2 RAE10 SLP135 P0000 T00720056=
202012151753 METAR KCLM 151753Z AUTO 23007KT 5SM -RA BR OVC044 07/06 A2990 RMK AO2 RAB1659 SLP128 P0005 60007 T00720056 10072 20033 51019=
202012151748 SPECI KCLM 151748Z AUTO 23006KT 5SM -RA BR OVC044 07/06 A2990 RMK AO2 RAB1659 P0005=
202012151739 SPECI KCLM 151739Z AUTO 23004KT 2SM -RA BR BKN044 OVC050 07/05 A2990 RMK AO2 RAB1659 P0004 T00670050=
202012151653 METAR KCLM 151653Z AUTO 00000KT 10SM SCT070 BKN100 05/04 A2987 RMK AO2 SLP118 T00500044=
202012151553 METAR KCLM 151553Z AUTO 29003KT 7SM CLR 04/03 A2985 RMK AO2 SLP109 T00390028=
202012151453 METAR KCLM 151453Z AUTO 17003KT 6SM BR FEW007 BKN050 OVC095 04/04 A2984 RMK AO2 SLP107 60002 T00440039 58001=
202012151445 SPECI KCLM 151445Z AUTO 21003KT 2 1/2SM BR SCT007 OVC060 04/03 A2985 RMK AO2 T00390033=
202012151429 SPECI KCLM 151429Z AUTO 00000KT 1 3/4SM BR BKN008 BKN060 OVC090 04/03 A2984 RMK AO2 T00390033=
202012151413 SPECI KCLM 151413Z AUTO 00000KT 3SM BR BKN009 BKN021 OVC055 04/04 A2984 RMK AO2 T00440039=
202012151353 METAR KCLM 151353Z AUTO 00000KT 9SM SCT007 BKN049 OVC065 06/04 A2985 RMK AO2 RAE42 SLP109 P0001 T00560044=
202012151319 SPECI KCLM 151319Z AUTO VRB03KT 6SM -RA BR FEW008 BKN023 OVC043 05/04 A2986 RMK AO2 P0001 T00500044=
202012151308 SPECI KCLM 151308Z AUTO 28004KT 5SM -RA BR FEW008 SCT023 OVC047 05/04 A2986 RMK AO2 P0001 T00500039=
202012151253 METAR KCLM 151253Z AUTO 00000KT 5SM -RA BR OVC047 05/04 A2985 RMK AO2 SLP109 P0001 T00500044=
202012151153 METAR KCLM 151153Z AUTO 00000KT 8SM -RA OVC046 05/04 A2987 RMK AO2 SLP116 P0000 60000 70001 T00500039 10056 20039 56032=
202012151122 SPECI KCLM 151122Z AUTO 24005KT 9SM -RA SCT008 OVC048 06/04 A2990 RMK AO2 P0000 T00560044=
202012151053 METAR KCLM 151053Z AUTO 29003KT 10SM -RA BKN007 OVC055 05/04 A2989 RMK AO2 RAB36 SLP124 P0000 T00500039=
202012151035 SPECI KCLM 151035Z AUTO 25003KT 10SM BKN009 BKN055 OVC075 04/03 A2989 RMK AO2 T00440033=
202012150953 METAR KCLM 150953Z AUTO 19003KT 10SM FEW009 BKN065 OVC090 04/03 A2992 RMK AO2 SLP132 T00390028=
202012150853 METAR KCLM 150853Z AUTO 00000KT 10SM FEW065 04/03 A2996 RMK AO2 PRESFR SLP148 T00440028 58049=
202012150753 METAR KCLM 150753Z AUTO 23003KT 10SM SCT070 OVC090 05/03 A3003 RMK AO2 SLP172 T00500033 400940022=
202012150653 METAR KCLM 150653Z AUTO 16003KT 10SM SCT060 OVC090 04/03 A3008 RMK AO2 SLP187 T00440033=
202012150553 METAR KCLM 150553Z AUTO 13003KT 8SM BKN070 OVC110 04/03 A3011 RMK AO2 SLP198 T00390028 10072 20022 58018=
202012150453 METAR KCLM 150453Z AUTO 11003KT 10SM SCT070 OVC100 04/02 A3013 RMK AO2 SLP204 T00440022=
202012150353 METAR KCLM 150353Z AUTO 23007KT 10SM SCT070 05/02 A3016 RMK AO2 SLP214 T00500022=
202012150253 METAR KCLM 150253Z AUTO 00000KT 9SM FEW120 04/03 A3016 RMK AO2 SLP216 T00390028 56017=
202012150153 METAR KCLM 150153Z AUTO 11003KT 8SM CLR 04/03 A3017 RMK AO2 SLP219 T00390033=
202012150053 METAR KCLM 150053Z AUTO 00000KT 10SM CLR 05/04 A3019 RMK AO2 SLP226 T00500039=
202012142353 METAR KCLM 142353Z AUTO 10004KT 10SM FEW030 SCT038 07/04 A3021 RMK AO2 SLP233 T00720039 10094 20067 56006=
202012142253 METAR KCLM 142253Z AUTO 11004KT 10SM FEW038 SCT080 BKN100 09/04 A3022 RMK AO2 SLP234 T00890044=
202012142153 METAR KCLM 142153Z AUTO 09004KT 10SM FEW041 09/04 A3022 RMK AO2 SLP235 T00890039=
202012142053 METAR KCLM 142053Z AUTO 00000KT 10SM FEW033 SCT042 08/04 A3023 RMK AO2 SLP239 T00830044 50003=
202012141953 METAR KCLM 141953Z AUTO 00000KT 10SM CLR 09/03 A3023 RMK AO2 SLP240 T00940033=
202012141853 METAR KCLM 141853Z AUTO 24008KT 10SM SCT065 07/03 A3023 RMK AO2 SLP240 T00720033=
202012141753 METAR KCLM 141753Z AUTO 26009KT 10SM SCT055 07/03 A3022 RMK AO2 SLP237 60001 T00670033 10072 20039 53018=
202012141653 METAR KCLM 141653Z AUTO 26005KT 10SM CLR 05/03 A3021 RMK AO2 SLP231 T00500028=
202012141553 METAR KCLM 141553Z AUTO 23008KT 10SM BKN050 07/04 A3019 RMK AO2 SLP224 T00670039=
202012141453 METAR KCLM 141453Z AUTO 24007KT 10SM SCT047 05/03 A3017 RMK AO2 SLP219 60001 T00500033 53012=
202012141353 METAR KCLM 141353Z AUTO 24006KT 10SM SCT043 05/03 A3016 RMK AO2 SLP214 T00500033=
202012141253 METAR KCLM 141253Z AUTO 21003KT 10SM SCT037 BKN046 BKN080 05/04 A3015 RMK AO2 RAE19 SLP210 P0001 T00500039=
202012141153 METAR KCLM 141153Z AUTO 22004KT 9SM -RA OVC044 04/04 A3014 RMK AO2 SLP207 P0000 60003 70010 T00440039 10050 20022 51017=
202012141053 METAR KCLM 141053Z AUTO 00000KT 10SM -RA OVC043 05/04 A3013 RMK AO2 SLP204 P0001 T00500039=
202012140953 METAR KCLM 140953Z AUTO 12003KT 5SM -RA BR OVC046 04/04 A3010 RMK AO2 RAE11B42 SLP195 P0001 T00440039=
202012140853 METAR KCLM 140853Z AUTO 00000KT 8SM -RA BKN050 OVC070 03/03 A3009 RMK AO2 RAB51 SLP190 P0001 60001 T00330028 51017=
202012140753 METAR KCLM 140753Z AUTO 00000KT 5SM BR BKN060 OVC075 03/02 A3007 RMK AO2 SLP184 T00280022 400610011=
202012140653 METAR KCLM 140653Z AUTO 21003KT 8SM BKN070 03/02 A3006 RMK AO2 SLP181 T00280022=
202012140647 SPECI KCLM 140647Z AUTO 20003KT 3SM BR BKN065 03/03 A3006 RMK AO2=
202012140639 SPECI KCLM 140639Z AUTO 00000KT 1SM BR BKN060 03/02 A3005 RMK AO2 T00330022=
202012140620 SPECI KCLM 140620Z AUTO 12003KT 2 1/2SM BR BKN055 03/02 A3004 RMK AO2 T00280022=
202012140553 METAR KCLM 140553Z AUTO 21004KT 8SM FEW011 OVC060 04/03 A3004 RMK AO2 SLP173 T00390033 10050 20028 52020=
202012140541 SPECI KCLM 140541Z AUTO 21004KT 3SM BR OVC060 03/03 A3003 RMK AO2 T00330028=
202012140528 SPECI KCLM 140528Z AUTO 00000KT 2 1/2SM BR FEW011 BKN055 OVC070 03/02 A3003 RMK AO2 T00330022=
202012140515 SPECI KCLM 140515Z AUTO 20004KT 3SM BR FEW010 BKN070 OVC090 03/03 A3003 RMK AO2 T00330028=
202012140453 METAR KCLM 140453Z AUTO 20003KT 1SM BR FEW075 SCT090 03/03 A3002 RMK AO2 SLP167 T00330028=
202012140439 SPECI KCLM 140439Z AUTO 00000KT 1SM BR SCT080 BKN100 03/03 A3001 RMK AO2 T00330028=
202012140430 SPECI KCLM 140430Z AUTO 00000KT 2 1/2SM BR BKN080 BKN100 04/03 A3001 RMK AO2 VIS 1 1/4V3 T00390033=
202012140412 SPECI KCLM 140412Z AUTO 18004KT 4SM BR SCT006 BKN070 OVC095 04/04 A3000 RMK AO2 T00440039=
202012140353 METAR KCLM 140353Z AUTO 00000KT 4SM BR OVC006 04/04 A3000 RMK AO2 SLP160 T00440039=
202012140253 METAR KCLM 140253Z AUTO 13003KT 5SM BR OVC006 05/04 A2998 RMK AO2 SLP152 T00500039 51015=
202012140229 SPECI KCLM 140229Z AUTO 00000KT 4SM BR OVC006 05/04 A2997 RMK AO2 T00500044=
202012140218 SPECI KCLM 140218Z AUTO 00000KT 2SM BR OVC006 05/04 A2997 RMK AO2 VIS 3/4V5 T00500039=
202012140153 METAR KCLM 140153Z AUTO 14003KT 4SM BR OVC007 05/04 A2997 RMK AO2 SLP149 T00500039=
202012140144 SPECI KCLM 140144Z AUTO 00000KT 3SM BR OVC007 04/04 A2996 RMK AO2 T00440039=
202012140127 SPECI KCLM 140127Z AUTO 00000KT 2 1/2SM BR OVC006 04/04 A2996 RMK AO2 T00440039=
202012140053 METAR KCLM 140053Z AUTO 00000KT 5SM BR BKN007 BKN055 04/04 A2995 RMK AO2 SLP146 T00440039=
202012140048 SPECI KCLM 140048Z AUTO 00000KT 3SM BR BKN007 BKN055 04/04 A2995 RMK AO2=
202012140043 SPECI KCLM 140043Z AUTO 23003KT 2 1/2SM BR FEW007 BKN055 04/04 A2995 RMK AO2 T00440039=
202012140016 SPECI KCLM 140016Z AUTO 00000KT 3SM BR BKN055 OVC075 06/04 A2994 RMK AO2 T00560044=
202012140004 SPECI KCLM 140004Z AUTO 00000KT 1 3/4SM BR SCT055 BKN075 BKN100 05/04 A2994 RMK AO2 VIS 1/2V5 T00500044=
202012132353 METAR KCLM 132353Z AUTO 10003KT 8SM FEW060 BKN080 BKN100 06/04 A2993 RMK AO2 SLP137 60004 T00560044 10061 20033 53010=
202012132253 METAR KCLM 132253Z AUTO 24004KT 10SM FEW006 BKN060 BKN090 06/05 A2991 RMK AO2 SLP132 T00610050=
202012132251 SPECI KCLM 132251Z AUTO 23004KT 10SM SCT006 BKN060 BKN090 06/05 A2991 RMK AO2=
202012132153 METAR KCLM 132153Z AUTO 20003KT 10SM OVC005 06/05 A2990 RMK AO2 RAE2055 SLP127 P0000 T00610050=
202012132053 METAR KCLM 132053Z AUTO 25003KT 10SM -RA OVC004 06/04 A2990 RMK AO2 RAB01E29B46 SLP126 P0000 60004 T00560044 51009=
202012131953 METAR KCLM 131953Z AUTO 25005KT 10SM OVC008 05/04 A2989 RMK AO2 RAE45 SLP124 P0002 T00500044=
202012131939 SPECI KCLM 131939Z AUTO 24006KT 9SM -RA BKN009 BKN047 OVC055 05/04 A2989 RMK AO2 P0002 T00500039=
202012131853 METAR KCLM 131853Z AUTO 24006KT 5SM -RA BR FEW016 BKN047 OVC060 04/03 A2989 RMK AO2 RAB11 SLP126 P0002 T00440033=
202012131815 SPECI KCLM 131815Z AUTO 23005KT 8SM -RA BKN015 BKN048 OVC080 04/03 A2988 RMK AO2 RAB11 P0000 T00390033=
202012131753 METAR KCLM 131753Z AUTO 22004KT 10SM SCT050 BKN065 OVC080 03/03 A2987 RMK AO2 UPB11E14RAB14E52 SLP117 P0001 60003 T00330028 10033 20011 53008=
202012131653 METAR KCLM 131653Z AUTO 00000KT 8SM BKN060 OVC070 02/02 A2986 RMK AO2 SLP113 T00220017=
202012131553 METAR KCLM 131553Z AUTO 00000KT 9SM FEW070 02/01 A2984 RMK AO2 SLP108 T00170006=
202012131453 METAR KCLM 131453Z AUTO 20004KT 10SM FEW046 BKN070 02/01 A2984 RMK AO2 UPE07B25E26RAB1355E41 SLP109 P0001 60002 T00220011 50003=
202012131353 METAR KCLM 131353Z AUTO 00000KT 9SM UP BKN055 BKN070 BKN090 02/02 A2985 RMK AO2 RAB10E20UPB49 SLP109 P0000 T00220017=
202012131253 METAR KCLM 131253Z AUTO 24006KT 10SM SCT075 SCT095 02/01 A2985 RMK AO2 RAB1158E16B38E51UPB35E38 SLP109 P0001 T00220011=
202012131153 METAR KCLM 131153Z AUTO 22004KT 10SM BKN044 03/02 A2984 RMK AO2 RAB40E51 SLP105 P0000 60000 T00280017 10039 20017 55007=
202012131053 METAR KCLM 131053Z AUTO 24007KT 10SM BKN065 BKN080 03/02 A2983 RMK AO2 RAE02B39E53 SLP103 P0000 T00330017=
202012130953 METAR KCLM 130953Z AUTO 23008KT 10SM -RA BKN065 OVC100 03/01 A2983 RMK AO2 RAB25 SLP105 P0000 T00330006=
202012130853 METAR KCLM 130853Z AUTO 24009KT 10SM FEW090 BKN110 03/00 A2986 RMK AO2 SLP112 T00330000 58017=
202012130753 METAR KCLM 130753Z AUTO 23003KT 10SM OVC110 03/00 A2988 RMK AO2 SLP119 T00280000 400670017=
202012130653 METAR KCLM 130653Z AUTO 23004KT 10SM CLR 02/00 A2990 RMK AO2 SLP127 T00170000=
202012130553 METAR KCLM 130553Z AUTO 22005KT 10SM CLR 02/M01 A2991 RMK AO2 SLP130 T00221006 10050 20017 58024=
202012130453 METAR KCLM 130453Z AUTO 23004KT 10SM CLR 02/M01 A2994 RMK AO2 SLP141 T00221006=
202012130409 SPECI KCLM 130409Z AUTO 25008KT 10SM SCT013 03/01 A2997 RMK AO2 T00330006=
202012130353 METAR KCLM 130353Z AUTO 00000KT 10SM BKN014 BKN018 04/02 A2998 RMK AO2 SLP154 T00440017=
202012130348 SPECI KCLM 130348Z AUTO 00000KT 10SM OVC014 04/02 A2998 RMK AO2=
202012130253 METAR KCLM 130253Z AUTO VRB03KT 10SM OVC017 04/02 A3002 RMK AO2 SLP169 T00440017 58025=
202012130153 METAR KCLM 130153Z AUTO 11005KT 10SM BKN016 OVC023 04/02 A3005 RMK AO2 SLP179 T00440017=
202012130053 METAR KCLM 130053Z AUTO 10005KT 10SM OVC014 05/02 A3008 RMK AO2 SLP188 T00500022=
202012122353 METAR KCLM 122353Z AUTO 07006KT 10SM OVC012 05/02 A3010 RMK AO2 SLP194 T00500022 10067 20039 56020=
202012122321 SPECI KCLM 122321Z AUTO VRB05KT 10SM OVC010 05/02 A3011 RMK AO2 CIG 008V012 T00500022=
202012122253 METAR KCLM 122253Z AUTO 07005KT 10SM OVC008 05/03 A3011 RMK AO2 SLP200 T00500028=
202012122202 SPECI KCLM 122202Z AUTO VRB06KT 10SM OVC009 06/03 A3013 RMK AO2 CIG 007V013 T00560028=
202012122153 METAR KCLM 122153Z AUTO 08006KT 10SM BKN011 OVC026 06/03 A3014 RMK AO2 CIG 008V013 SLP207 T00560028=
202012122104 SPECI KCLM 122104Z AUTO 06005KT 10SM BKN011 06/03 A3015 RMK AO2 T00560028=
202012122053 METAR KCLM 122053Z AUTO 06005KT 10SM SCT011 06/03 A3016 RMK AO2 SLP214 T00560028 57021=
202012122032 SPECI KCLM 122032Z AUTO 06005KT 10SM SCT024 06/02 A3016 RMK AO2 T00560017=
202012121953 METAR KCLM 121953Z AUTO 08008KT 10SM BKN021 06/02 A3018 RMK AO2 SLP220 T00560017=
202012121936 SPECI KCLM 121936Z AUTO 07009KT 10SM BKN019 07/02 A3018 RMK AO2 T00670022=
202012121853 METAR KCLM 121853Z AUTO 10008KT 10SM CLR 06/02 A3020 RMK AO2 SLP229 T00610017=
202012121834 SPECI KCLM 121834Z AUTO 10009KT 10SM SCT028 06/01 A3021 RMK AO2 T00610011=
202012121814 SPECI KCLM 121814Z AUTO 11006KT 10SM BKN029 06/01 A3022 RMK AO2 T00610011=
202012121753 METAR KCLM 121753Z AUTO 22003KT 10SM SCT029 04/00 A3022 RMK AO2 SLP236 60000 T00390000 10044 20017 55004=
202012121710 SPECI KCLM 121710Z AUTO 22005KT 10SM FEW014 SCT029 02/M01 A3022 RMK AO2 T00221006=
202012121653 METAR KCLM 121653Z AUTO 22005KT 10SM FEW013 BKN028 02/M01 A3022 RMK AO2 SLP236 T00221006=
202012121632 SPECI KCLM 121632Z AUTO 22006KT 10SM FEW013 OVC029 02/M01 A3022 RMK AO2 T00221006=
202012121604 SPECI KCLM 121604Z AUTO 22005KT 10SM SCT013 BKN031 02/M01 A3022 RMK AO2 T00171006=
202012121553 METAR KCLM 121553Z AUTO 22005KT 10SM SCT013 BKN029 02/00 A3022 RMK AO2 SLP236 T00220000=
202012121527 SPECI KCLM 121527Z AUTO 00000KT 10SM FEW015 OVC029 04/02 A3023 RMK AO2 T00440022=
202012121453 METAR KCLM 121453Z AUTO 12005KT 10SM FEW017 FEW022 OVC030 04/02 A3023 RMK AO2 SLP240 60000 T00440022 55001=
202012121434 SPECI KCLM 121434Z AUTO 12005KT 10SM SCT017 OVC030 04/02 A3023 RMK AO2 T00440022=
202012121417 SPECI KCLM 121417Z AUTO 11005KT 10SM SCT017 BKN026 OVC032 04/02 A3023 RMK AO2 T00390022=
202012121353 METAR KCLM 121353Z AUTO 14003KT 10SM FEW026 OVC034 02/01 A3023 RMK AO2 SLP239 T00170006=
202012121253 METAR KCLM 121253Z AUTO 22005KT 10SM OVC032 03/01 A3023 RMK AO2 RAB00E10 SLP240 P0000 T00280006=
202012121228 SPECI KCLM 121228Z AUTO 21004KT 10SM OVC032 03/01 A3022 RMK AO2 RAB00E10 P0000 T00280011=
202012121153 METAR KCLM 121153Z AUTO 22007KT 9SM BKN024 OVC029 03/00 A3023 RMK AO2 RAB09E18 SLP240 P0000 60000 70002 T00280000 10033 20022 53008=
202012121053 METAR KCLM 121053Z AUTO 22006KT 10SM OVC017 03/00 A3022 RMK AO2 SLP237 T00280000=
202012120953 METAR KCLM 120953Z AUTO 25006KT 10SM BKN018 OVC033 03/01 A3021 RMK AO2 SLP233 T00330006=
202012120951 SPECI KCLM 120951Z AUTO 25005KT 10SM BKN018 OVC034 03/01 A3021 RMK AO2=
202012120902 SPECI KCLM 120902Z AUTO 23005KT 10SM SCT011 SCT025 OVC034 03/01 A3020 RMK AO2 T00330006=
202012120853 METAR KCLM 120853Z AUTO 22005KT 10SM BKN011 BKN024 OVC038 03/01 A3020 RMK AO2 SLP227 T00330006 53016=
202012120753 METAR KCLM 120753Z AUTO 22004KT 10SM OVC010 03/01 A3018 RMK AO2 SLP221 T00330011 400781011=
202012120736 SPECI KCLM 120736Z AUTO 22005KT 10SM BKN011 OVC034 03/01 A3018 RMK AO2 T00330011=
202012120653 METAR KCLM 120653Z AUTO 22006KT 10SM FEW012 OVC037 03/01 A3016 RMK AO2 SLP216 T00280011=
202012120553 METAR KCLM 120553Z AUTO 00000KT 10SM OVC034 02/01 A3015 RMK AO2 SLP212 I6001 T00220011 10050 21011 50013=
202012120453 METAR KCLM 120453Z AUTO 00000KT 10SM OVC038 01/01 A3015 RMK AO2 SLP213 I1000 T00110006=
202012120353 METAR KCLM 120353Z AUTO 00000KT 6SM BR FEW038 00/M01 A3014 RMK AO2 SLP208 I1001 T00001011=
202012120253 METAR KCLM 120253Z AUTO 00000KT 8SM FEW031 00/M01 A3011 RMK AO2 SLP199 T00001011 51012=
202012120242 SPECI KCLM 120242Z AUTO 21003KT 3SM BR FEW031 00/M01 A3011 RMK AO2 T00001006=
202012120235 SPECI KCLM 120235Z AUTO 00000KT 1 3/4SM BR FEW031 01/M01 A3011 RMK AO2 VIS 1V5 T00061006=
202012120202 SPECI KCLM 120202Z AUTO 00000KT 3SM BR CLR 01/M01 A3010 RMK AO2 T00061006=
202012120153 METAR KCLM 120153Z AUTO 00000KT 1 1/4SM BR CLR 01/00 A3010 RMK AO2 VIS 3/4V2 1/2 SLP196 T00110000=
202012120150 SPECI KCLM 120150Z AUTO 00000KT 1 3/4SM BR CLR 01/00 A3010 RMK AO2 VIS 1V5=
202012120053 METAR KCLM 120053Z AUTO 20003KT 8SM SCT036 01/01 A3009 RMK AO2 SLP193 T00110006=
202012112353 METAR KCLM 112353Z AUTO 00000KT 10SM CLR 05/03 A3008 RMK AO2 SLP186 T00500028 10078 20050 53010=
202012112321 SPECI KCLM 112321Z AUTO 09003KT 10SM SCT027 06/03 A3007 RMK AO2 T00610028=
202012112253 METAR KCLM 112253Z AUTO 11003KT 10SM OVC028 07/03 A3006 RMK AO2 SLP181 T00670033=
202012112238 SPECI KCLM 112238Z AUTO 07003KT 10SM OVC030 06/03 A3006 RMK AO2 T00610028=
202012112153 METAR KCLM 112153Z AUTO 02004KT 10SM BKN026 07/03 A3005 RMK AO2 SLP178 T00670033=
202012112053 METAR KCLM 112053Z AUTO VRB03KT 10SM CLR 07/03 A3005 RMK AO2 SLP176 T00670028 58006=
202012111953 METAR KCLM 111953Z AUTO 08006KT 10SM BKN030 07/02 A3005 RMK AO2 SLP178 T00720022=
202012111853 METAR KCLM 111853Z AUTO 00000KT 10SM CLR 07/03 A3006 RMK AO2 SLP181 T00670028=
202012111753 METAR KCLM 111753Z AUTO 00000KT 10SM BKN070 04/02 A3006 RMK AO2 SLP183 60002 T00390017 10044 20000 53015=
202012111653 METAR KCLM 111653Z AUTO 24003KT 9SM CLR 01/00 A3004 RMK AO2 SLP175 T00060000=
202012111553 METAR KCLM 111553Z AUTO 23005KT 10SM CLR 02/01 A3002 RMK AO2 SLP170 T00220006=
202012111453 METAR KCLM 111453Z AUTO 15005KT 10SM SCT070 02/01 A3002 RMK AO2 SLP168 60002 T00170006 52003=
202012111353 METAR KCLM 111353Z AUTO 23007KT 10SM SCT060 BKN080 03/02 A3001 RMK AO2 RAE28 SLP165 P0001 T00330017=
202012111253 METAR KCLM 111253Z AUTO 19004KT 7SM -RA OVC033 04/03 A3002 RMK AO2 SLP166 P0001 T00390028=
202012111153 METAR KCLM 111153Z AUTO 20003KT 5SM -RA BR BKN037 OVC044 04/03 A3001 RMK AO2 RAB27 SLP164 P0002 60003 70003 I6000 T00390028 10044 20000 50004=
202012111053 METAR KCLM 111053Z AUTO 23003KT 10SM BKN055 OVC070 03/02 A3001 RMK AO2 RAE00B30E31UPB20E30 SLP165 P0000 I1000 T00330022=
202012110953 METAR KCLM 110953Z AUTO 00000KT 7SM -RA OVC037 03/02 A3000 RMK AO2 RAB35 SLP162 P0001 T00330022=
202012110853 METAR KCLM 110853Z AUTO 21003KT 10SM BKN065 OVC080 01/00 A3000 RMK AO2 SLP160 T00110000 51006=
202012110753 METAR KCLM 110753Z AUTO 00000KT 10SM SCT065 BKN090 01/00 A2999 RMK AO2 SLP160 T00110000 400670006=
202012110653 METAR KCLM 110653Z AUTO 21006KT 10SM SCT085 02/01 A2999 RMK AO2 SLP158 T00170006=
202012110553 METAR KCLM 110553Z AUTO 00000KT 9SM CLR 02/01 A2998 RMK AO2 SLP154 T00220011 10061 20022 50006=
202012110453 METAR KCLM 110453Z AUTO 25004KT 10SM FEW060 SCT080 04/02 A2998 RMK AO2 SLP154 T00390022=
202012110353 METAR KCLM 110353Z AUTO 14003KT 8SM OVC060 04/03 A2997 RMK AO2 SLP150 T00390028=
202012110253 METAR KCLM 110253Z AUTO 21003KT 10SM FEW013 BKN070 OVC080 04/03 A2996 RMK AO2 SLP147 T00440028 53008=
202012110203 SPECI KCLM 110203Z AUTO 00000KT 10SM SCT016 BKN055 OVC075 05/03 A2995 RMK AO2 T00500033=
202012110153 METAR KCLM 110153Z AUTO 00000KT 10SM BKN016 BKN065 OVC080 06/03 A2995 RMK AO2 SLP145 T00560028=
202012110139 SPECI KCLM 110139Z AUTO 23003KT 10SM BKN016 BKN022 BKN120 05/03 A2995 RMK AO2 T00500028=
202012110130 SPECI KCLM 110130Z AUTO 24004KT 10SM FEW016 SCT022 BKN120 05/03 A2995 RMK AO2 T00500028=
202012110053 METAR KCLM 110053Z AUTO 00000KT 10SM BKN020 06/03 A2994 RMK AO2 SLP140 T00560033=
202012110025 SPECI KCLM 110025Z AUTO 00000KT 10SM BKN015 06/03 A2994 RMK AO2 T00610033=
202012110018 SPECI KCLM 110018Z AUTO 00000KT 10SM OVC013 06/03 A2994 RMK AO2 T00610033=
202012102353 METAR KCLM 102353Z AUTO 00000KT 10SM OVC015 06/03 A2993 RMK AO2 SLP139 T00610033 10067 20044 55007=
202012100853 METAR KCLM 100853Z AUTO 22004KT 10SM OVC022 02/01 A3025 RMK AO2 SLP244 T00220011 58020 $=
202012100753 METAR KCLM 100753Z AUTO 17003KT 10SM BKN023 02/01 A3027 RMK AO2 SLP254 T00170006 400940000 $=
202012100453 METAR KCLM 100453Z AUTO 23007KT 10SM CLR 04/01 A3032 RMK AO2 SLP271 T00390011 $=
202012100253 METAR KCLM 100253Z AUTO 24008KT 10SM CLR 05/02 A3032 RMK AO2 SLP270 T00500022 58002 $=
202012091953 METAR KCLM 091953Z AUTO 26008KT 10SM OVC037 09/06 A3032 RMK AO2 SLP268 T00890056=
202012091853 METAR KCLM 091853Z AUTO 24007KT 10SM SCT039 BKN048 07/05 A3033 RMK AO2 RAE23 SLP273 P0001 T00720050=
202012091753 METAR KCLM 091753Z AUTO 20004KT 3SM -RA BR 07/05 A3031 RMK AO2 RAB23B30 SLP267 P0002 60002 T00720050 10072 20050 $=
202012091653 METAR KCLM 091653Z AUTO VRB03KT 9SM OVC050 06/05 A3029 RMK AO2 SLP258 T00610050=
202012091353 METAR KCLM 091353Z AUTO 26009KT 10SM CLR 06/04 A3023 RMK AO2 SLP240 T00610044 $=
202012091053 METAR KCLM 091053Z AUTO 26011KT 10SM CLR 07/05 A3021 RMK AO2 SLP230 T00670050 $=
202012090953 METAR KCLM 090953Z AUTO 27009KT 10SM CLR 07/05 A3019 RMK AO2 SLP223 T00670050 $=
202012090753 METAR KCLM 090753Z AUTO 26011KT 10SM BKN007 BKN011 OVC085 08/07 A3017 RMK AO2 CIG 004V010 SLP218 T00780067 401060072 TSNO $=
202012090722 SPECI KCLM 090722Z AUTO 29010KT 10SM BKN003 OVC080 08/07 A3016 RMK AO2 CIG 002V008 T00780067 $=
202012090706 SPECI KCLM 090706Z AUTO 29009KT 10SM FEW004 OVC080 08/07 A3015 RMK AO2 T00780067 $=
202012090553 METAR KCLM 090553Z AUTO 27006KT 10SM BKN075 OVC090 08/07 A3014 RMK AO2 RAE14 SLP207 P0000 60018 T00780067 10089 20078 50008 $=
202012090253 METAR KCLM 090253Z AUTO 25004KT 10SM OVC065 08/07 A3012 RMK AO2 RAB01E23 SLP199 P0001 60016 T00780067 $=
202012090153 METAR KCLM 090153Z AUTO 22008KT 6SM BR SCT015 BKN024 OVC034 08/07 A3013 RMK AO2 RAE36 SLP203 P0006 T00830072 $=
202012090142 SPECI KCLM 090142Z AUTO 25007KT 7SM OVC015 08/08 A3013 RMK AO2 RAE36 P0005 T00830078 $=
202012090131 SPECI KCLM 090131Z AUTO 28006KT 10SM -RA BKN013 BKN020 OVC029 08/08 A3012 RMK AO2 P0005 T00830078 $=
202012090113 SPECI KCLM 090113Z AUTO 31005KT 3SM -RA BR FEW013 BKN029 OVC055 09/08 A3013 RMK AO2 P0005 T00890078 $=
202012090100 SPECI KCLM 090100Z AUTO 33004KT 2SM RA BR FEW019 OVC060 08/08 A3012 RMK AO2 P0003 T00830078 $=
202012090053 METAR KCLM 090053Z AUTO 00000KT 3SM -RA BR FEW022 OVC060 09/08 A3011 RMK AO2 RAB05 SLP199 P0009 T00890078 $=
202012082353 METAR KCLM 082353Z AUTO 00000KT 3SM -RA BR FEW017 OVC040 09/08 A3014 RMK AO2 SLP209 P0006 60025 T00890078 10106 20089 $=
202012082328 SPECI KCLM 082328Z AUTO 00000KT 2SM -RA BR FEW013 BKN036 OVC065 09/08 A3014 RMK AO2 P0004 T00890083 $=
202012082302 SPECI KCLM 082302Z AUTO 24003KT 1 1/4SM -RA BR FEW008 BKN014 OVC035 09/08 A3015 RMK AO2 P0001 T00940083 $=
202012082236 SPECI KCLM 082236Z AUTO 19003KT 2SM -RA BR 09/08 A3015 RMK AO2 RAB22 P0003 T00940083 $=
202012082205 SPECI KCLM 082205Z AUTO 19003KT 2SM -RA BR FEW022 BKN037 OVC055 09/09 A3015 RMK AO2 P0001 T00940089=
202012082153 METAR KCLM 082153Z AUTO 19003KT 1 1/2SM -RA BR FEW023 BKN032 OVC043 09/09 A3015 RMK AO2 SLP210 P0005 T00940089=
202012082130 SPECI KCLM 082130Z AUTO 00000KT 1 3/4SM -RA BR FEW008 BKN032 OVC042 09/08 A3016 RMK AO2 P0004 T00940083=
202012082118 SPECI KCLM 082118Z AUTO 29003KT 1 1/4SM -RA BR FEW008 BKN026 OVC036 10/09 A3016 RMK AO2 P0003 T01000089=
202012082105 SPECI KCLM 082105Z AUTO 25003KT 1 3/4SM -RA BR FEW021 FEW026 OVC033 10/09 A3017 RMK AO2 P0001 T01000089=
202012082053 METAR KCLM 082053Z AUTO 26003KT 2 1/2SM -RA BR FEW021 OVC027 10/09 A3017 RMK AO2 SLP216 P0005 60009 T01000089 58009=
202012082042 SPECI KCLM 082042Z AUTO 26004KT 1 1/4SM -RA BR BKN024 OVC029 10/09 A3016 RMK AO2 P0005 T01000089=
202012082024 SPECI KCLM 082024Z AUTO 25005KT 2 1/2SM -RA BR SCT015 BKN022 OVC030 10/09 A3017 RMK AO2 P0003 T01000089=
202012081953 METAR KCLM 081953Z AUTO 00000KT 1 1/4SM -RA BR FEW019 BKN027 OVC044 09/09 A3018 RMK AO2 RAB07E14B33 SLP220 P0003 T00940089=
202012081939 SPECI KCLM 081939Z AUTO 24006KT 1 3/4SM -RA BR FEW019 BKN040 OVC048 10/09 A3019 RMK AO2 RAB07E14B33 P0001 T01000089=
202012081853 METAR KCLM 081853Z AUTO 00000KT 3SM BR OVC042 10/09 A3020 RMK AO2 SLP226 P0001 T01000089=
202012081821 SPECI KCLM 081821Z AUTO 14004KT 4SM BR FEW003 OVC040 09/08 A3020 RMK AO2 P0001 T00940083=
202012081807 SPECI KCLM 081807Z AUTO 00000KT 2 1/2SM BR SCT003 BKN032 OVC041 09/08 A3020 RMK AO2 T00890083=
202012081801 SPECI KCLM 081801Z AUTO 00000KT 3SM BR SCT003 BKN015 OVC037 09/08 A3019 RMK AO2 T00890083=
202012081753 METAR KCLM 081753Z AUTO 00000KT 2SM BR BKN002 OVC017 09/08 A3019 RMK AO2 RAB26E53 SLP226 P0001 60005 T00890083 10106 20083 50012=
202012081751 SPECI KCLM 081751Z AUTO 00000KT 2SM -RA BR BKN002 BKN006 OVC034 09/08 A3019 RMK AO2 RAB26 P0001=
202012081728 SPECI KCLM 081728Z AUTO 00000KT 1 1/4SM -RA BR OVC003 09/08 A3019 RMK AO2 RAB26 P0001 T00890078=
202012081721 SPECI KCLM 081721Z AUTO 00000KT 3/4SM BR VV003 09/08 A3018 RMK AO2 T00890083=
202012081712 SPECI KCLM 081712Z AUTO VRB04KT 1/4SM FG VV004 09/08 A3018 RMK AO2 T00890083=
202012081704 SPECI KCLM 081704Z AUTO 35005KT 1/4SM FG FEW006 BKN013 OVC075 09/08 A3017 RMK AO2 T00890083=
202012081653 METAR KCLM 081653Z AUTO 34004KT 1/4SM FG BKN025 OVC070 09/08 A3017 RMK AO2 RAE26 SLP217 P0002 T00890083=
202012081648 SPECI KCLM 081648Z AUTO VRB03KT 1/4SM FG BKN036 BKN043 OVC060 09/08 A3017 RMK AO2 RAE26 P0002=
202012081642 SPECI KCLM 081642Z AUTO 34005KT 1 3/4SM BR FEW043 BKN055 OVC070 10/09 A3017 RMK AO2 RAE26 P0002 T01000094=
202012081625 SPECI KCLM 081625Z AUTO 12006KT 5SM -RA BR BKN048 OVC060 10/09 A3016 RMK AO2 P0002 T01000094=
202012081614 SPECI KCLM 081614Z AUTO 11006KT 2 1/2SM -RA BR FEW030 BKN039 OVC047 10/09 A3016 RMK AO2 P0001 T01000089=
202012081553 METAR KCLM 081553Z AUTO 13004KT 5SM -RA BR BKN030 OVC047 09/08 A3016 RMK AO2 RAE1457B18 SLP213 P0001 T00940083=
202012081550 SPECI KCLM 081550Z AUTO 00000KT 5SM -RA BR OVC030 09/08 A3016 RMK AO2 RAE1457B18 P0001=
202012081501 SPECI KCLM 081501Z AUTO 00000KT 7SM BKN027 OVC045 09/08 A3016 RMK AO2 RAE1457 P0000 T00940083=
202012081453 METAR KCLM 081453Z AUTO 36003KT 10SM -RA SCT027 OVC048 09/09 A3016 RMK AO2 RAB34 SLP212 P0000 60001 T00940089 51010=
202012081353 METAR KCLM 081353Z AUTO 15003KT 5SM BR OVC018 08/07 A3015 RMK AO2 RAB14E21 SLP210 P0001 T00830072=
202012081334 SPECI KCLM 081334Z AUTO 00000KT 4SM BR SCT008 OVC016 08/08 A3015 RMK AO2 RAB14E21 P0000 T00830078=
202012081327 SPECI KCLM 081327Z AUTO 00000KT 5SM BR BKN009 OVC018 09/08 A3015 RMK AO2 RAB14E21 P0000 T00890078=
202012081309 SPECI KCLM 081309Z AUTO 00000KT 8SM SCT003 SCT009 OVC019 09/07 A3015 RMK AO2 T00890072=
202012081253 METAR KCLM 081253Z AUTO 21003KT 8SM BKN003 OVC020 08/07 A3016 RMK AO2 SLP213 T00830072=
202012081238 SPECI KCLM 081238Z AUTO 00000KT 9SM BKN004 BKN020 OVC050 09/07 A3014 RMK AO2 T00890072=
202012081235 SPECI KCLM 081235Z AUTO 00000KT 9SM SCT004 SCT020 OVC050 09/07 A3014 RMK AO2 T00890072=
202012081153 METAR KCLM 081153Z AUTO 00000KT 10SM FEW022 BKN055 OVC070 09/08 A3013 RMK AO2 RAB39E49 SLP202 P0000 60000 T00890078 10106 20067 53016=
202012081053 METAR KCLM 081053Z AUTO 26003KT 10SM OVC065 09/08 A3010 RMK AO2 SLP195 T00890078=
202012080953 METAR KCLM 080953Z AUTO 11005KT 10SM BKN055 BKN075 OVC085 09/07 A3010 RMK AO2 SLP193 T00890072=
202012080853 METAR KCLM 080853Z AUTO 13006KT 10SM SCT060 BKN070 10/07 A3008 RMK AO2 SLP186 60000 T01000072 58001=
202012080753 METAR KCLM 080753Z AUTO 02003KT 8SM FEW060 SCT080 07/06 A3008 RMK AO2 SLP187 T00720061 400890050=
202012080453 METAR KCLM 080453Z AUTO 22004KT 9SM SCT006 BKN060 07/06 A3007 RMK AO2 SLP185 T00670061=
202012080353 METAR KCLM 080353Z AUTO 24003KT 10SM BKN006 OVC060 07/06 A3006 RMK AO2 SLP179 T00670056=
202012080346 SPECI KCLM 080346Z AUTO 23004KT 10SM BKN006 OVC060 07/06 A3006 RMK AO2 T00720061=
202012080335 SPECI KCLM 080335Z AUTO 21004KT 10SM SCT007 OVC060 07/06 A3006 RMK AO2 T00720061=
202012080253 METAR KCLM 080253Z AUTO 00000KT 8SM OVC060 07/06 A3007 RMK AO2 SLP184 T00720061 58024=
202012080201 SPECI KCLM 080201Z AUTO 00000KT 10SM FEW007 BKN060 OVC075 08/07 A3009 RMK AO2 T00780067=
202012080120 SPECI KCLM 080120Z AUTO 00000KT 8SM SCT011 OVC060 08/07 A3011 RMK AO2 T00780072=
202012080053 METAR KCLM 080053Z AUTO 23003KT 9SM FEW006 OVC012 08/07 A3012 RMK AO2 SLP201 T00830072=
202012080002 SPECI KCLM 080002Z AUTO 00000KT 9SM BKN007 OVC014 08/07 A3014 RMK AO2 CIG 004V010 T00830072=
202012072353 METAR KCLM 072353Z AUTO 00000KT 10SM SCT005 OVC014 08/07 A3014 RMK AO2 SLP208 T00830072 10089 20083 58023=
202012072317 SPECI KCLM 072317Z AUTO 00000KT 10SM SCT004 OVC015 08/07 A3014 RMK AO2 T00830072=
202012072309 SPECI KCLM 072309Z AUTO 05003KT 9SM BKN004 OVC015 08/07 A3015 RMK AO2 T00830072=
202012072252 METAR KCLM 072252Z AUTO 01003KT 9SM SCT004 OVC015 09/07 A3016 RMK AO2 SLP216 T00890072=
202012072251 SPECI KCLM 072251Z AUTO 04003KT 9SM SCT004 OVC015 09/07 A3016 RMK AO2=
202012072153 METAR KCLM 072153Z AUTO 00000KT 10SM OVC005 08/07 A3019 RMK AO2 CIG 004V010 SLP225 T00830067=
202012072115 SPECI KCLM 072115Z AUTO 00000KT 10SM BKN005 OVC010 08/07 A3021 RMK AO2 CIG 004V009 T00830067=
202012072053 METAR KCLM 072053Z AUTO VRB05KT 10SM SCT006 OVC013 09/07 A3021 RMK AO2 SLP231 T00890067 58029=
202012072017 SPECI KCLM 072017Z AUTO 00000KT 10SM SCT006 OVC011 09/07 A3023 RMK AO2 T00890072=
202012071953 METAR KCLM 071953Z AUTO 07005KT 8SM BKN003 OVC009 08/07 A3024 RMK AO2 CIG 003V006 SLP241 T00830072=
202012071853 METAR KCLM 071853Z AUTO 00000KT 5SM BR OVC002 08/07 A3029 RMK AO2 SLP257 T00830072=
202012071805 SPECI KCLM 071805Z AUTO 00000KT 3SM BR BKN003 BKN014 OVC070 08/08 A3029 RMK AO2 T00830078=
202012071803 SPECI KCLM 071803Z AUTO 00000KT 2 1/2SM BR SCT003 BKN014 OVC070 08/08 A3029 RMK AO2 T00830078=
202012071756 SPECI KCLM 071756Z AUTO 00000KT 1 3/4SM BR SCT003 BKN015 OVC070 08/07 A3029 RMK AO2 T00830072=
202012071753 METAR KCLM 071753Z AUTO 00000KT 1 1/2SM BR BKN003 BKN013 OVC070 08/07 A3030 RMK AO2 SLP261 60000 T00830072 10083 20061 56007=
202012071748 SPECI KCLM 071748Z AUTO 00000KT 3/4SM BR OVC003 08/07 A3029 RMK AO2=
202012071740 SPECI KCLM 071740Z AUTO 00000KT 1/2SM FG BKN001 OVC010 08/07 A3030 RMK AO2 T00830072=
202012071730 SPECI KCLM 071730Z AUTO 00000KT 3/4SM BR SCT001 BKN025 OVC055 08/07 A3029 RMK AO2 T00830072=
202012071715 SPECI KCLM 071715Z AUTO 00000KT 1SM BR SCT001 OVC060 08/07 A3029 RMK AO2 T00830072=
202012071653 METAR KCLM 071653Z AUTO 00000KT 1/2SM FG OVC001 08/07 A3029 RMK AO2 SLP259 T00830072=
202012071639 SPECI KCLM 071639Z AUTO 00000KT 1 3/4SM BR BKN001 BKN041 OVC055 08/07 A3030 RMK AO2 T00780067=
202012071627 SPECI KCLM 071627Z AUTO 00000KT 2SM BR SCT001 BKN021 OVC055 08/07 A3030 RMK AO2 VIS 1 1/4V3 T00780067=
202012071621 SPECI KCLM 071621Z AUTO 12003KT 1SM BR BKN016 OVC055 08/07 A3031 RMK AO2 T00780067=
202012071617 SPECI KCLM 071617Z AUTO 14004KT 1SM BR FEW001 BKN008 OVC055 08/07 A3031 RMK AO2 T00780067=
202012071614 SPECI KCLM 071614Z AUTO 13004KT 3/4SM BR BKN003 OVC055 08/07 A3031 RMK AO2 T00780067=
202012071607 SPECI KCLM 071607Z AUTO 00000KT 1/4SM FG BKN003 OVC055 08/07 A3032 RMK AO2 T00780067=
202012071557 SPECI KCLM 071557Z AUTO 00000KT 1/2SM FG BKN004 OVC055 08/07 A3031 RMK AO2 T00780072=
202012071553 METAR KCLM 071553Z AUTO 00000KT 1SM BR SCT002 SCT007 OVC055 08/07 A3031 RMK AO2 SLP268 T00780072=
202012071550 SPECI KCLM 071550Z AUTO 00000KT 2SM BR SCT002 OVC055 08/07 A3032 RMK AO2=
202012071453 METAR KCLM 071453Z AUTO 00000KT 10SM BKN003 OVC065 07/06 A3031 RMK AO2 RAE51 SLP264 P0000 60000 T00670061 56006=
202012071450 SPECI KCLM 071450Z AUTO VRB04KT 10SM -RA BKN003 OVC065 07/06 A3031 RMK AO2 P0000=
202012071353 METAR KCLM 071353Z AUTO 23004KT 10SM -RA SCT007 OVC075 07/06 A3031 RMK AO2 RAB45 SLP268 P0000 T00670056=
202012071339 SPECI KCLM 071339Z AUTO 00000KT 10SM FEW007 OVC075 07/06 A3032 RMK AO2 T00720061=
202012071253 METAR KCLM 071253Z AUTO 24004KT 10SM OVC080 07/06 A3032 RMK AO2 SLP270 T00670056=
202012071153 METAR KCLM 071153Z AUTO 00000KT 10SM OVC090 07/06 A3032 RMK AO2 SLP267 T00670056 10072 20039 58016=
202012071053 METAR KCLM 071053Z AUTO 00000KT 10SM OVC090 07/06 A3033 RMK AO2 SLP271 T00670061=
202012070958 SPECI KCLM 070958Z AUTO 14003KT 10SM SCT007 OVC095 07/05 A3036 RMK AO2 T00670050=
202012070953 METAR KCLM 070953Z AUTO 00000KT 10SM BKN006 BKN015 OVC095 07/06 A3037 RMK AO2 SLP284 T00670056=
202012070942 SPECI KCLM 070942Z AUTO 00000KT 10SM FEW006 BKN015 OVC095 07/06 A3037 RMK AO2 T00720056=
202012070922 SPECI KCLM 070922Z AUTO 25004KT 10SM OVC014 07/06 A3037 RMK AO2 T00720056=
202012070853 METAR KCLM 070853Z AUTO 27004KT 10SM BKN015 OVC110 07/05 A3036 RMK AO2 SLP282 T00670050 56008=
202012070849 SPECI KCLM 070849Z AUTO 26005KT 10SM BKN015 OVC110 06/05 A3036 RMK AO2=
202012070753 METAR KCLM 070753Z AUTO 22003KT 8SM CLR 05/04 A3038 RMK AO2 SLP289 T00500044 401170028=
202012070653 METAR KCLM 070653Z AUTO 22006KT 10SM FEW007 06/05 A3039 RMK AO2 SLP291 T00560050=
202012070607 SPECI KCLM 070607Z AUTO 00000KT 4SM BR SCT007 04/04 A3039 RMK AO2 T00440039=
202012070553 METAR KCLM 070553Z AUTO 17003KT 4SM BR BKN008 06/04 A3039 RMK AO2 SLP292 T00560044 10100 20044 58008=
202012070453 METAR KCLM 070453Z AUTO 21004KT 8SM BKN007 06/05 A3042 RMK AO2 SLP302 T00610050=
202012070423 SPECI KCLM 070423Z AUTO 23004KT 10SM BKN007 06/06 A3042 RMK AO2 T00610056=
202012070414 SPECI KCLM 070414Z AUTO 25005KT 10SM SCT007 06/05 A3043 RMK AO2 T00610050=
202012070353 METAR KCLM 070353Z AUTO 26004KT 10SM CLR 07/06 A3042 RMK AO2 SLP302 T00670056=
202012070253 METAR KCLM 070253Z AUTO 00000KT 9SM CLR 07/06 A3041 RMK AO2 SLP301 T00720056 56014=
202012070153 METAR KCLM 070153Z AUTO 18003KT 10SM CLR 07/06 A3043 RMK AO2 SLP305 T00720061=
202012070053 METAR KCLM 070053Z AUTO 00000KT 10SM CLR 07/06 A3043 RMK AO2 SLP306 T00720061=
202012062353 METAR KCLM 062353Z AUTO 00000KT 10SM BKN042 10/07 A3045 RMK AO2 SLP314 T01000072 10117 20083 50006=
202012062253 METAR KCLM 062253Z AUTO 11003KT 10SM FEW019 09/07 A3046 RMK AO2 SLP315 T00940067=
202012062153 METAR KCLM 062153Z AUTO 00000KT 10SM CLR 11/07 A3046 RMK AO2 SLP315 T01110072=
202012062053 METAR KCLM 062053Z AUTO VRB04KT 10SM CLR 12/07 A3044 RMK AO2 SLP308 T01170072 53014=
202012061953 METAR KCLM 061953Z AUTO 10005KT 10SM CLR 11/04 A3042 RMK AO2 SLP303 T01060044=
202012061853 METAR KCLM 061853Z AUTO 11004KT 10SM CLR 11/05 A3040 RMK AO2 SLP294 T01110050=
202012061753 METAR KCLM 061753Z AUTO 28004KT 10SM CLR 08/06 A3039 RMK AO2 PRESRR SLP295 T00830056 10083 20028 53031=
202012061653 METAR KCLM 061653Z AUTO 25003KT 9SM CLR 04/03 A3036 RMK AO2 SLP284 T00390028=
202012061553 METAR KCLM 061553Z AUTO 10SM BKN065 05/03 A3033 RMK AO2 SLP271 T00500028=
202012061453 METAR KCLM 061453Z AUTO 14004KT 10SM FEW055 SCT075 04/03 A3030 RMK AO2 SLP263 T00440033 51041=
202012061353 METAR KCLM 061353Z AUTO 00000KT 10SM OVC060 04/03 A3028 RMK AO2 SLP256 T00440033=
202012061253 METAR KCLM 061253Z AUTO 00000KT 10SM OVC060 06/04 A3023 RMK AO2 SLP238 T00610039=
202012061153 METAR KCLM 061153Z AUTO 16003KT 10SM BKN065 03/02 A3018 RMK AO2 SLP221 T00330022 10078 20028 51025=
202012061053 METAR KCLM 061053Z AUTO 24004KT 10SM FEW070 03/02 A3016 RMK AO2 SLP215 T00330022=
202012060953 METAR KCLM 060953Z AUTO 23006KT 10SM CLR 03/02 A3013 RMK AO2 SLP204 T00280017=
202012060853 METAR KCLM 060853Z AUTO 00000KT 10SM CLR 04/03 A3010 RMK AO2 SLP196 T00440028 51012=
202012060753 METAR KCLM 060753Z AUTO 19003KT 10SM BKN085 BKN110 06/04 A3010 RMK AO2 SLP194 T00610039 401001017=
202012060653 METAR KCLM 060653Z AUTO 26007KT 10SM OVC090 07/04 A3008 RMK AO2 SLP188 T00670044=
202012060553 METAR KCLM 060553Z AUTO 24005KT 10SM BKN090 BKN120 06/04 A3007 RMK AO2 SLP184 T00560039 10067 20022 53019=
202012060514 SPECI KCLM 060514Z AUTO 22004KT 10SM FEW007 06/03 A3005 RMK AO2 T00560033=
202012060453 METAR KCLM 060453Z AUTO 00000KT 10SM CLR 04/03 A3004 RMK AO2 SLP177 T00440033=
202012060353 METAR KCLM 060353Z AUTO 00000KT 10SM FEW085 05/03 A3002 RMK AO2 SLP170 T00500033=
202012060253 METAR KCLM 060253Z AUTO 14003KT 10SM CLR 04/02 A3001 RMK AO2 SLP166 T00390022 51007=
202012060153 METAR KCLM 060153Z AUTO 00000KT 10SM CLR 03/02 A3000 RMK AO2 SLP162 T00330017=
202012060053 METAR KCLM 060053Z AUTO 21003KT 10SM CLR 05/03 A3001 RMK AO2 SLP164 T00500028=
202012052353 METAR KCLM 052353Z AUTO 22004KT 10SM CLR 07/03 A2999 RMK AO2 SLP158 T00670033 10100 20050 56005=
202012052253 METAR KCLM 052253Z AUTO 00000KT 10SM CLR 10/03 A2999 RMK AO2 SLP158 T01000028=
202012052153 METAR KCLM 052153Z AUTO 24005KT 10SM CLR 09/04 A2999 RMK AO2 SLP157 T00890044=
202012052100 SPECI KCLM 052100Z AUTO 26005KT 10SM SCT009 07/04 A3001 RMK AO2 T00720044=
202012052053 METAR KCLM 052053Z AUTO 28005KT 10SM BKN009 07/04 A3001 RMK AO2 SLP164 T00720044 56016=
202012051953 METAR KCLM 051953Z AUTO VRB03KT 10SM OVC009 07/05 A3002 RMK AO2 SLP168 T00720050=
202012051936 SPECI KCLM 051936Z AUTO VRB03KT 10SM OVC009 08/05 A3002 RMK AO2 T00830050=
202012051923 SPECI KCLM 051923Z AUTO 32003KT 10SM BKN010 07/05 A3003 RMK AO2 T00720050=
202012051853 METAR KCLM 051853Z AUTO 00000KT 10SM CLR 08/04 A3004 RMK AO2 SLP174 T00780044=
202012051753 METAR KCLM 051753Z AUTO 25004KT 10SM CLR 05/03 A3006 RMK AO2 SLP181 I6002 T00500033 10050 21011 55012=
202012051653 METAR KCLM 051653Z AUTO 11004KT 6SM BR CLR 02/01 A3006 RMK AO2 SLP181 T00170006=
202012051553 METAR KCLM 051553Z AUTO 00000KT 3SM BR CLR M01/M02 A3009 RMK AO2 SLP191 I1002 T10061017=
202012051545 SPECI KCLM 051545Z AUTO 17003KT 2 1/2SM BR CLR M01/M02 A3009 RMK AO2 VIS 1 3/4V4 I1001 T10061017=
202012051530 SPECI KCLM 051530Z AUTO 00000KT 1 3/4SM BR CLR 01/00 A3009 RMK AO2 I1000 T00060000=
202012051453 METAR KCLM 051453Z AUTO 21003KT 7SM CLR 01/01 A3009 RMK AO2 SLP193 T00110006 56015=
202012051311 SPECI KCLM 051311Z AUTO 21004KT 6SM BR SCT015 02/01 A3011 RMK AO2 T00170011=
202012051253 METAR KCLM 051253Z AUTO 21003KT 7SM OVC014 02/02 A3012 RMK AO2 SLP202 T00220017=
202012051153 METAR KCLM 051153Z AUTO 21006KT 10SM OVC010 01/01 A3014 RMK AO2 SLP207 I6002 T00110006 10011 21017 56025=
202012051136 SPECI KCLM 051136Z AUTO 21005KT 10SM OVC010 01/01 A3014 RMK AO2 CIG 008V013 T00110006=
202012051053 METAR KCLM 051053Z AUTO 21005KT 9SM BKN008 M01/M02 A3015 RMK AO2 CIG 004V011 SLP213 I1001 T10111017=
202012050953 METAR KCLM 050953Z AUTO 21004KT 9SM SCT010 M01/M01 A3018 RMK AO2 SLP222 I1000 T10061011=
202012050932 SPECI KCLM 050932Z AUTO 00000KT 4SM BR CLR M01/M01 A3019 RMK AO2 T10061011=
202012050922 SPECI KCLM 050922Z AUTO 00000KT 2SM BR CLR 00/M01 A3019 RMK AO2 T00001011=
202012050913 SPECI KCLM 050913Z AUTO 00000KT 3SM BR CLR M01/M02 A3020 RMK AO2 T10111017=
202012050901 SPECI KCLM 050901Z AUTO 00000KT 1 3/4SM BR CLR M01/M02 A3020 RMK AO2 T10111022=
202012050853 METAR KCLM 050853Z AUTO 20003KT 10SM CLR M01/M02 A3021 RMK AO2 SLP232 I1001 I3001 T10111017 58024=
202012050753 METAR KCLM 050753Z AUTO 00000KT 6SM BR CLR M01/M02 A3025 RMK AO2 SLP245 I1000 T10061017 400891017=
202012050750 SPECI KCLM 050750Z AUTO 00000KT 6SM BR CLR M01/M02 A3025 RMK AO2 I1000=
202012050741 SPECI KCLM 050741Z AUTO 15004KT 2 1/2SM BR CLR M02/M02 A3025 RMK AO2 I1000 T10171022=
202012050653 METAR KCLM 050653Z AUTO 15003KT 5SM BR CLR M01/M01 A3028 RMK AO2 SLP256 I1000 T10061011=
202012050553 METAR KCLM 050553Z AUTO 14003KT 7SM CLR 00/M01 A3029 RMK AO2 SLP261 I6002 T00001011 10067 21006 58017=
202012050512 SPECI KCLM 050512Z AUTO 15003KT 3SM BR CLR 00/M01 A3032 RMK AO2 T00001006=
202012050500 SPECI KCLM 050500Z AUTO 00000KT 1 1/2SM BR CLR 01/00 A3032 RMK AO2 T00110000=
202012050453 METAR KCLM 050453Z AUTO 00000KT 5SM BR CLR 01/M01 A3032 RMK AO2 SLP270 I1002 T00111006=
202012050353 METAR KCLM 050353Z AUTO 21004KT 5SM BR CLR 02/01 A3032 RMK AO2 SLP270 T00170011=
202012050253 METAR KCLM 050253Z AUTO 19003KT 7SM CLR 02/01 A3034 RMK AO2 SLP278 T00170011 58014=
202012050153 METAR KCLM 050153Z AUTO 17003KT 5SM BR CLR 01/00 A3037 RMK AO2 SLP286 T00060000=
202012050053 METAR KCLM 050053Z AUTO 00000KT 7SM CLR 03/02 A3038 RMK AO2 SLP292 T00330022=
202012042353 METAR KCLM 042353Z AUTO 00000KT 9SM CLR 06/04 A3038 RMK AO2 SLP292 T00610039 10089 20061 55017=
202012042253 METAR KCLM 042253Z AUTO 09003KT 10SM CLR 08/05 A3038 RMK AO2 SLP289 T00830050=
202012042153 METAR KCLM 042153Z AUTO 09007KT 10SM CLR 08/05 A3040 RMK AO2 SLP296 T00780050=
202012042113 SPECI KCLM 042113Z AUTO 09007KT 10SM SCT011 08/04 A3042 RMK AO2 T00830044=
202012042053 METAR KCLM 042053Z AUTO VRB04KT 10SM BKN010 09/05 A3044 RMK AO2 SLP309 T00890050 58016=
202012042030 SPECI KCLM 042030Z AUTO 09005KT 10SM BKN010 08/05 A3045 RMK AO2 T00780050=
202012042021 SPECI KCLM 042021Z AUTO 09004KT 10SM SCT009 08/05 A3046 RMK AO2 T00830050=
202012041953 METAR KCLM 041953Z AUTO VRB04KT 10SM FEW010 08/05 A3046 RMK AO2 SLP317 T00830050=
202012041853 METAR KCLM 041853Z AUTO 03004KT 7SM CLR 08/05 A3047 RMK AO2 SLP319 T00780050=
202012041753 METAR KCLM 041753Z AUTO 00000KT 6SM BR FEW003 06/05 A3048 RMK AO2 SLP325 T00610050 10061 20000 56001=
202012041751 SPECI KCLM 041751Z AUTO 00000KT 6SM BR SCT003 06/05 A3048 RMK AO2=
202012041726 SPECI KCLM 041726Z AUTO 11003KT 4SM BR OVC004 06/04 A3048 RMK AO2 T00560044=
202012041653 METAR KCLM 041653Z AUTO 00000KT 3SM BR OVC005 06/04 A3048 RMK AO2 SLP325 T00560044=
202012041553 METAR KCLM 041553Z AUTO 00000KT 4SM BR OVC006 04/03 A3049 RMK AO2 SLP326 T00390033=
202012041537 SPECI KCLM 041537Z AUTO 13003KT 5SM BR BKN006 03/03 A3048 RMK AO2 T00330028=
202012041515 SPECI KCLM 041515Z AUTO 12004KT 6SM BR SCT007 02/02 A3047 RMK AO2 T00220017=
202012041453 METAR KCLM 041453Z AUTO 13006KT 7SM OVC007 03/02 A3047 RMK AO2 CIG 006V010 SLP319 T00280022 50005=
202012041353 METAR KCLM 041353Z AUTO 18003KT 9SM OVC007 03/02 A3048 RMK AO2 SLP325 T00280022=
202012041253 METAR KCLM 041253Z AUTO 21005KT 8SM BKN008 02/01 A3048 RMK AO2 CIG 005V010 SLP322 T00170006=
202012041238 SPECI KCLM 041238Z AUTO 22005KT 8SM BKN007 01/00 A3047 RMK AO2 CIG 005V009 T00110000=
202012041229 SPECI KCLM 041229Z AUTO 22005KT 8SM SCT007 00/M01 A3046 RMK AO2 T00001006=
202012041153 METAR KCLM 041153Z AUTO 00000KT 9SM CLR 01/M01 A3045 RMK AO2 SLP314 T00061006 10039 21006 50002=
202012041129 SPECI KCLM 041129Z AUTO 22005KT 4SM BR CLR M01/M01 A3046 RMK AO2 T10061006=
202012041126 SPECI KCLM 041126Z AUTO 21005KT 1SM BR CLR 00/00 A3046 RMK AO2 T00000000=
202012041115 SPECI KCLM 041115Z AUTO 00000KT 3/4SM BR VV005 01/00 A3045 RMK AO2 VIS 1/4V5 T00110000=
202012041113 SPECI KCLM 041113Z AUTO 00000KT 1 3/4SM BR CLR 01/00 A3045 RMK AO2 VIS 1/2V5 T00110000=
202012041053 METAR KCLM 041053Z AUTO 20003KT 5SM BR CLR 01/00 A3046 RMK AO2 SLP317 T00060000=
202012040953 METAR KCLM 040953Z AUTO 00000KT 8SM CLR 01/00 A3045 RMK AO2 SLP314 T00060000=
202012040853 METAR KCLM 040853Z AUTO 21004KT 9SM CLR 02/01 A3044 RMK AO2 SLP312 T00170011 50003=
202012040753 METAR KCLM 040753Z AUTO 00000KT 8SM CLR 02/01 A3046 RMK AO2 SLP316 T00170006 400780011=
202012040656 SPECI KCLM 040656Z AUTO 00000KT 3SM BR CLR 03/02 A3044 RMK AO2 T00280022=
202012040653 METAR KCLM 040653Z AUTO 00000KT 1 1/4SM BR CLR 03/02 A3044 RMK AO2 SLP309 T00280022=
202012040637 SPECI KCLM 040637Z AUTO 00000KT 1 3/4SM BR CLR 03/02 A3043 RMK AO2 VIS 1/2V5 T00280017=
202012040553 METAR KCLM 040553Z AUTO 21005KT 10SM CLR 04/03 A3043 RMK AO2 SLP306 T00390028 10078 20039 52021=
202012040453 METAR KCLM 040453Z AUTO 00000KT 7SM FEW007 OVC055 05/04 A3040 RMK AO2 SLP298 T00500044=
202012040439 SPECI KCLM 040439Z AUTO 00000KT 7SM FEW008 OVC060 06/04 A3040 RMK AO2 T00560044=
202012040353 METAR KCLM 040353Z AUTO 00000KT 7SM OVC055 06/04 A3039 RMK AO2 SLP293 T00610044=
202012040253 METAR KCLM 040253Z AUTO 12003KT 9SM OVC055 06/05 A3037 RMK AO2 SLP285 T00610050 51019=
202012040053 METAR KCLM 040053Z AUTO 00000KT 10SM BKN065 OVC075 07/05 A3033 RMK AO2 SLP274 T00720050=
202012032353 METAR KCLM 032353Z AUTO 00000KT 10SM OVC060 08/06 A3031 RMK AO2 SLP266 T00780056 10078 20072 51015=
202012032253 METAR KCLM 032253Z AUTO 07003KT 9SM OVC075 08/06 A3031 RMK AO2 SLP266 T00780056=
202012032153 METAR KCLM 032153Z AUTO 00000KT 10SM FEW009 BKN085 OVC110 08/05 A3031 RMK AO2 SLP266 T00780050=
202012032113 SPECI KCLM 032113Z AUTO 00000KT 10SM BKN008 BKN090 OVC110 08/06 A3030 RMK AO2 PRESRR T00780056=
202012032101 SPECI KCLM 032101Z AUTO 08006KT 10SM SCT008 BKN095 OVC110 08/05 A3028 RMK AO2 T00780050=
202012032053 METAR KCLM 032053Z AUTO 07004KT 10SM BKN090 OVC110 08/05 A3027 RMK AO2 SLP251 T00780050 58008=
202012031953 METAR KCLM 031953Z AUTO 10006KT 10SM FEW120 08/05 A3028 RMK AO2 SLP256 T00780050=
202012031853 METAR KCLM 031853Z AUTO 10005KT 9SM CLR 08/05 A3029 RMK AO2 SLP261 T00780050=
202012031753 METAR KCLM 031753Z AUTO 00000KT 10SM FEW010 06/04 A3029 RMK AO2 SLP259 T00560039 10056 20039 53007=
202012031750 SPECI KCLM 031750Z AUTO 00000KT 10SM SCT010 06/04 A3029 RMK AO2=
202012031721 SPECI KCLM 031721Z AUTO 00000KT 10SM BKN010 06/04 A3028 RMK AO2 T00560039=
202012031653 METAR KCLM 031653Z AUTO 00000KT 10SM OVC009 05/03 A3027 RMK AO2 SLP253 T00500033=
202012031651 SPECI KCLM 031651Z AUTO 00000KT 10SM OVC009 04/03 A3027 RMK AO2=
202012031609 SPECI KCLM 031609Z AUTO 00000KT 10SM OVC010 04/04 A3026 RMK AO2 T00440039=
202012031553 METAR KCLM 031553Z AUTO 22004KT 10SM OVC008 04/03 A3026 RMK AO2 SLP248 T00440033=
202012031453 METAR KCLM 031453Z AUTO 00000KT 10SM OVC008 05/04 A3023 RMK AO2 SLP238 T00500039 53003=
202012031353 METAR KCLM 031353Z AUTO 00000KT 10SM OVC008 05/04 A3022 RMK AO2 SLP234 T00500039=
202012031305 SPECI KCLM 031305Z AUTO 00000KT 10SM OVC009 04/03 A3022 RMK AO2 T00440033=
202012031253 METAR KCLM 031253Z AUTO 00000KT 10SM OVC010 04/03 A3022 RMK AO2 CIG 007V012 SLP235 T00440033=
202012031213 SPECI KCLM 031213Z AUTO 22004KT 10SM OVC010 04/03 A3022 RMK AO2 T00390033=
202012031153 METAR KCLM 031153Z AUTO 22003KT 10SM OVC009 04/03 A3022 RMK AO2 SLP235 T00390028 10039 20017 55000=
202012031103 SPECI KCLM 031103Z AUTO 00000KT 10SM BKN008 03/02 A3022 RMK AO2 T00280022=
202012031053 METAR KCLM 031053Z AUTO 00000KT 10SM SCT008 03/02 A3022 RMK AO2 SLP235 T00280017=
202012031051 SPECI KCLM 031051Z AUTO 00000KT 9SM SCT008 03/02 A3022 RMK AO2=
202012030953 METAR KCLM 030953Z AUTO 00000KT 9SM CLR 03/02 A3022 RMK AO2 SLP236 T00280022=
202012030853 METAR KCLM 030853Z AUTO 00000KT 9SM CLR 02/01 A3022 RMK AO2 SLP235 T00220011 53006=
202012030753 METAR KCLM 030753Z AUTO 00000KT 9SM CLR 02/01 A3021 RMK AO2 SLP232 T00220011 400890011=
202012030653 METAR KCLM 030653Z AUTO 22004KT 10SM CLR 02/01 A3021 RMK AO2 SLP231 T00220011=
202012030553 METAR KCLM 030553Z AUTO 00000KT 10SM CLR 02/01 A3020 RMK AO2 SLP229 T00220011 10061 20011 51004=
202012030453 METAR KCLM 030453Z AUTO 00000KT 10SM CLR 02/01 A3020 RMK AO2 SLP229 T00170006=
202012030353 METAR KCLM 030353Z AUTO 00000KT 10SM CLR 02/01 A3020 RMK AO2 SLP229 T00220006=
202012030253 METAR KCLM 030253Z AUTO 22005KT 10SM CLR 02/01 A3019 RMK AO2 SLP227 T00220011 53000=
202012030153 METAR KCLM 030153Z AUTO 00000KT 9SM CLR 03/02 A3019 RMK AO2 SLP225 T00330022=
202012030053 METAR KCLM 030053Z AUTO 00000KT 10SM CLR 05/03 A3019 RMK AO2 SLP224 T00500028=
202012022353 METAR KCLM 022353Z AUTO 19003KT 10SM CLR 07/03 A3019 RMK AO2 SLP225 T00670033 10089 20067 56008=
202012022253 METAR KCLM 022253Z AUTO 11005KT 10SM CLR 08/03 A3019 RMK AO2 SLP227 T00830033=
202012022153 METAR KCLM 022153Z AUTO 00000KT 10SM SCT019 08/03 A3020 RMK AO2 SLP230 T00830033=
202012022053 METAR KCLM 022053Z AUTO 00000KT 10SM FEW015 08/03 A3021 RMK AO2 SLP233 T00780033 58008=
202012022026 SPECI KCLM 022026Z AUTO 10003KT 10SM SCT016 08/03 A3022 RMK AO2 T00830033=
202012021953 METAR KCLM 021953Z AUTO VRB03KT 10SM BKN016 08/03 A3023 RMK AO2 SLP238 T00780033=
202012021853 METAR KCLM 021853Z AUTO VRB03KT 10SM BKN015 08/03 A3023 RMK AO2 SLP240 T00780028=
202012021838 SPECI KCLM 021838Z AUTO 09004KT 10SM BKN016 07/03 A3024 RMK AO2 T00720028=
202012021829 SPECI KCLM 021829Z AUTO 10004KT 10SM SCT015 07/03 A3024 RMK AO2 T00720028=
202012021802 SPECI KCLM 021802Z AUTO 11003KT 10SM BKN015 07/03 A3024 RMK AO2 T00720033=
202012021753 METAR KCLM 021753Z AUTO 12003KT 10SM BKN014 07/03 A3024 RMK AO2 SLP242 T00720033 10072 20011 56003=
202012021716 SPECI KCLM 021716Z AUTO 00000KT 10SM OVC014 06/03 A3024 RMK AO2 T00560033=
202012021653 METAR KCLM 021653Z AUTO 12004KT 10SM OVC015 04/02 A3024 RMK AO2 SLP243 T00390022=
202012021613 SPECI KCLM 021613Z AUTO 13004KT 10SM BKN017 02/00 A3025 RMK AO2 T00170000=
202012021553 METAR KCLM 021553Z AUTO 10004KT 10SM FEW015 01/00 A3025 RMK AO2 SLP246 T00110000=
202012021453 METAR KCLM 021453Z AUTO 12005KT 10SM CLR 03/01 A3026 RMK AO2 SLP250 T00330011=
202012021418 SPECI KCLM 021418Z AUTO 11006KT 10SM FEW014 03/01 A3027 RMK AO2 T00280006=
202012021353 METAR KCLM 021353Z AUTO 12006KT 10SM BKN014 03/01 A3028 RMK AO2 SLP257 T00330011 $=
202012021343 SPECI KCLM 021343Z AUTO 13005KT 10SM BKN014 04/02 A3029 RMK AO2 T00390017 $=
202012021329 SPECI KCLM 021329Z AUTO 12007KT 10SM SCT015 03/01 A3029 RMK AO2 T00330011 $=
202012021253 METAR KCLM 021253Z AUTO 11007KT 10SM OVC015 04/02 A3030 RMK AO2 SLP264 T00440022 $=
202012021241 SPECI KCLM 021241Z AUTO 11006KT 10SM OVC016 05/02 A3031 RMK AO2 T00500022 $=
202012021153 METAR KCLM 021153Z AUTO 11005KT 10SM OVC016 05/02 A3032 RMK AO2 SLP270 T00500022 10056 20017 58026=
202012021053 METAR KCLM 021053Z AUTO 12006KT 10SM OVC016 05/02 A3035 RMK AO2 SLP280 T00500022=
202012020953 METAR KCLM 020953Z AUTO 12006KT 10SM OVC017 05/02 A3038 RMK AO2 SLP289 T00500022=
202012020853 METAR KCLM 020853Z AUTO 12007KT 10SM OVC016 05/03 A3040 RMK AO2 SLP297 T00500028 58014=
202012020753 METAR KCLM 020753Z AUTO 12008KT 10SM OVC018 05/03 A3043 RMK AO2 SLP305 T00500028 400781011=
202012020653 METAR KCLM 020653Z AUTO 11007KT 10SM FEW013 BKN020 03/02 A3044 RMK AO2 SLP311 T00280017=
202012020648 SPECI KCLM 020648Z AUTO 11006KT 10SM FEW013 BKN020 02/01 A3044 RMK AO2=
202012020614 SPECI KCLM 020614Z AUTO 13004KT 10SM SCT015 02/01 A3045 RMK AO2 T00220011=
202012020553 METAR KCLM 020553Z AUTO 10006KT 10SM OVC016 04/02 A3046 RMK AO2 SLP317 T00440022 10061 20022 58020=
202012020453 METAR KCLM 020453Z AUTO 10006KT 10SM BKN016 04/02 A3048 RMK AO2 SLP325 T00440022=
202012020446 SPECI KCLM 020446Z AUTO 11005KT 10SM BKN016 04/02 A3048 RMK AO2 T00390022=
202012020430 SPECI KCLM 020430Z AUTO 10006KT 10SM FEW018 03/02 A3049 RMK AO2 T00330017=
202012020353 METAR KCLM 020353Z AUTO 10005KT 10SM OVC017 05/03 A3050 RMK AO2 SLP331 T00500028=
202012020253 METAR KCLM 020253Z AUTO 12007KT 10SM BKN017 04/03 A3052 RMK AO2 SLP338 T00390028 56011=
202012020226 SPECI KCLM 020226Z AUTO 10004KT 10SM OVC015 04/03 A3052 RMK AO2 T00390028=
202012020203 SPECI KCLM 020203Z AUTO 10005KT 9SM BKN013 03/02 A3053 RMK AO2 T00280017=
202012020153 METAR KCLM 020153Z AUTO 10004KT 9SM SCT013 02/02 A3053 RMK AO2 SLP341 T00220017=
202012020122 SPECI KCLM 020122Z AUTO 15004KT 10SM SCT012 04/03 A3053 RMK AO2 T00390028=
202012020053 METAR KCLM 020053Z AUTO 12003KT 10SM BKN012 04/03 A3054 RMK AO2 SLP344 T00440028=
202012020042 SPECI KCLM 020042Z AUTO 11005KT 10SM BKN012 04/02 A3054 RMK AO2 T00390022=
202012020027 SPECI KCLM 020027Z AUTO 10004KT 10SM FEW012 04/03 A3054 RMK AO2 T00440028=
202012012353 METAR KCLM 012353Z AUTO 09005KT 10SM BKN012 BKN022 06/03 A3055 RMK AO2 SLP348 T00610033 10078 20044 56008=
202012012351 SPECI KCLM 012351Z AUTO 09006KT 10SM BKN012 BKN022 06/03 A3055 RMK AO2=
202012012328 SPECI KCLM 012328Z AUTO 08006KT 10SM SCT013 BKN022 06/03 A3055 RMK AO2 T00610033=
202012012253 METAR KCLM 012253Z AUTO 07007KT 10SM OVC012 07/03 A3056 RMK AO2 SLP351 T00670033=
202012012238 SPECI KCLM 012238Z AUTO 07007KT 10SM BKN010 OVC023 07/04 A3057 RMK AO2 T00670039=
202012012216 SPECI KCLM 012216Z AUTO 07007KT 10SM FEW008 SCT013 OVC023 07/04 A3058 RMK AO2 T00670039=
202012012153 METAR KCLM 012153Z AUTO 07006KT 10SM OVC022 07/04 A3058 RMK AO2 SLP356 T00670039=
202012012142 SPECI KCLM 012142Z AUTO 08005KT 10SM SCT012 OVC021 07/04 A3058 RMK AO2 T00670039=
202012012104 SPECI KCLM 012104Z AUTO 09006KT 10SM OVC010 07/04 A3059 RMK AO2 T00670039=
202012012053 METAR KCLM 012053Z AUTO 08008KT 10SM OVC009 07/04 A3059 RMK AO2 CIG 008V014 SLP362 T00670039 56015=
202012012048 SPECI KCLM 012048Z AUTO 08006KT 10SM BKN009 OVC013 07/04 A3059 RMK AO2 CIG 008V012=
202012012019 SPECI KCLM 012019Z AUTO 07005KT 10SM BKN010 07/04 A3061 RMK AO2 T00670039=
202012012011 SPECI KCLM 012011Z AUTO 07008KT 10SM FEW010 SCT016 07/03 A3061 RMK AO2 T00670033=
202012011953 METAR KCLM 011953Z AUTO 06005KT 10SM SCT012 OVC021 07/04 A3062 RMK AO2 SLP371 T00720039=
202012011921 SPECI KCLM 011921Z AUTO 09006KT 10SM OVC017 07/04 A3063 RMK AO2 T00720039=
202012011853 METAR KCLM 011853Z AUTO 07003KT 10SM BKN012 OVC020 07/03 A3064 RMK AO2 SLP377 T00670028=
202012011753 METAR KCLM 011753Z AUTO 00000KT 10SM OVC011 04/01 A3064 RMK AO2 SLP378 T00440011 10044 21011 51011=
202012011653 METAR KCLM 011653Z AUTO 20003KT 9SM BKN012 01/M01 A3063 RMK AO2 SLP374 T00061006=
202012011553 METAR KCLM 011553Z AUTO 22005KT 10SM CLR 01/M02 A3061 RMK AO2 SLP368 T00111017=
202012011453 METAR KCLM 011453Z AUTO 21004KT 10SM CLR M01/M03 A3059 RMK AO2 SLP363 T10061028 50004=
202012011353 METAR KCLM 011353Z AUTO 23007KT 10SM CLR 02/M01 A3060 RMK AO2 SLP365 T00221011=
202012011253 METAR KCLM 011253Z AUTO 21005KT 10SM SCT029 03/M01 A3061 RMK AO2 SLP367 T00281011=
202012011153 METAR KCLM 011153Z AUTO 23008KT 10SM CLR 03/M01 A3058 RMK AO2 SLP358 70016 T00281011 10050 20028 51021=
202012011053 METAR KCLM 011053Z AUTO 23009KT 10SM CLR 03/M01 A3057 RMK AO2 SLP352 T00331011=
202012010953 METAR KCLM 010953Z AUTO 23008KT 10SM CLR 03/M01 A3054 RMK AO2 SLP345 T00331011=
202012010853 METAR KCLM 010853Z AUTO 22007KT 10SM CLR 03/M01 A3052 RMK AO2 SLP336 T00331006 51020=
202012010753 METAR KCLM 010753Z AUTO 23007KT 10SM CLR 04/M01 A3051 RMK AO2 SLP332 T00391006 401000017=
202012010653 METAR KCLM 010653Z AUTO 23009KT 10SM CLR 04/00 A3049 RMK AO2 SLP327 T00440000=
202012010553 METAR KCLM 010553Z AUTO 24011KT 10SM CLR 05/00 A3046 RMK AO2 SLP316 60000 T00500000 10078 20050 51022=
202012010453 METAR KCLM 010453Z AUTO 24012KT 10SM CLR 05/00 A3044 RMK AO2 SLP310 T00500000=
202012010353 METAR KCLM 010353Z AUTO 25012KT 10SM CLR 05/01 A3041 RMK AO2 SLP301 T00500006=
202012010253 METAR KCLM 010253Z AUTO 24011KT 10SM CLR 06/01 A3039 RMK AO2 SLP294 60000 T00560006 53029=
202012010153 METAR KCLM 010153Z AUTO 24006KT 10SM CLR 06/01 A3036 RMK AO2 SLP284 T00610006=
202012010053 METAR KCLM 010053Z AUTO 24012KT 10SM CLR 06/02 A3033 RMK AO2 RAB2358E11 SLP272 P0000 T00610017=

# No short TAF reports from KCLM in databse.

###################################
#  large TAF from KCLM
###################################
202012312323 TAF KCLM 312323Z 0100/0124 VRB03KT 5SM BR OVC005 FM010600 18003KT
                       5SM -RA OVC009 FM011500 24003KT 4SM -RA
                       BR OVC015 FM012100 23004KT 4SM -RA BR OVC015=
202012311720 TAF KCLM 311720Z 3118/0118 VRB03KT 1SM -RA BR VV008 FM312000 26006KT
                       5SM BR OVC009 FM010000 28003KT 5SM BR OVC020
                       FM010600 21003KT 5SM -RA OVC009 FM011500
                       24003KT 4SM -RA BR OVC015=
202012311507 KCLM 311507Z 3115/0112 VRB03KT 3SM BR VCSH BKN007 OVC022 FM312000
                       26006KT P6SM BKN025 OVC060 FM010600 VRB03KT
                       P6SM -RA BKN022 OVC040=
202012311137 TAF KCLM 311137Z 3112/0112 VRB03KT P6SM VCSH SCT022 OVC040 FM312100
                       26006KT P6SM BKN035 OVC060 FM010600 VRB03KT
                       P6SM -RA BKN022 OVC040=
202012310901 KCLM 310901Z 3109/0106 26006KT P6SM VCSH SCT015 OVC045 FM311200
                       26006KT P6SM VCSH FEW010 BKN022 OVC035 FM311600
                       26006KT P6SM SCT008 BKN015 OVC025 FM312100
                       VRB03KT P6SM SCT015 BKN025 OVC040=
202012310520 TAF KCLM 310520Z 3106/0106 VRB03KT 3SM -RA SCT006 OVC040 FM310900
                       26006KT P6SM BKN006 OVC015 FM311100 26006KT
                       P6SM SCT004 BKN008 OVC015 FM311600 26006KT
                       P6SM SCT008 BKN015 OVC025 FM312100 VRB03KT
                       P6SM SCT015 BKN025 OVC040=
202012302320 TAF KCLM 302320Z 3100/3124 VRB05KT 6SM -RA BR FEW030 OVC045 FM310500
                       26007KT P6SM -SHRA BKN025 BKN040 FM311400
                       25007KT P6SM VCSH BKN015 FM312100 07005KT
                       P6SM BKN020=
202012301720 TAF KCLM 301720Z 3018/3118 VRB03KT 5SM -RA BR FEW005 OVC015 FM302200
                       25005KT 6SM -RA BR OVC025 FM310500 26007KT
                       P6SM -SHRA BKN025 BKN040 FM311400 25007KT
                       P6SM VCSH BKN015=
202012301132 TAF KCLM 301132Z 3012/3112 12004KT 6SM -RA SCT010 OVC035 FM301400
                       VRB03KT 5SM -RA BR OVC015 FM302200 25005KT
                       6SM -RA BR OVC025 FM310500 26007KT P6SM
                       -SHRA BKN025 BKN040=
202012300522 TAF KCLM 300522Z 3006/3106 VRB04KT 6SM -RA OVC030 FM301400 24003KT
                       4SM -RA BR OVC015=
202012292320 TAF KCLM 292320Z 3000/3024 VRB03KT P6SM OVC060 FM300500 VRB04KT
                       6SM -RA OVC020 FM301400 24003KT 4SM -RA
                       BR OVC015=
202012291726 TAF KCLM 291726Z 2918/3018 00000KT P6SM OVC016 FM292200 VRB03KT
                       P6SM OVC025 FM300500 15004KT 6SM -RA OVC010
                       FM301000 20003KT 4SM -RA BR OVC015=
202012291128 TAF KCLM 291128Z 2912/3012 08003KT P6SM OVC014 FM291700 10003KT
                       P6SM BKN020 OVC040 FM292200 VRB03KT P6SM
                       OVC025 FM300300 12004KT P6SM -RA OVC020=
202012290520 TAF KCLM 290520Z 2906/3006 11003KT P6SM OVC017 FM291200 VRB03KT
                       P6SM OVC010 FM291700 21003KT P6SM OVC040
                       FM292200 VRB03KT P6SM OVC025=
202012282325 TAF KCLM 282325Z 2900/2924 06004KT P6SM OVC020 FM290200 VRB03KT
                       P6SM OVC010 FM291700 21003KT P6SM OVC040
                       FM292200 VRB03KT P6SM OVC025=
202012282110 KCLM 282110Z 2821/2918 11005KT P6SM OVC014 FM290200 VRB03KT P6SM
                       SCT050 SCT250 FM290700 21003KT P6SM OVC010=
202012281724 TAF KCLM 281724Z 2818/2918 00000KT P6SM OVC015 FM282100 11005KT
                       P6SM SCT010 BKN050 FM290200 VRB03KT P6SM
                       SCT050 SCT250 FM290700 21003KT P6SM OVC010=
202012281125 TAF KCLM 281125Z 2812/2912 19004KT P6SM OVC007 FM282100 11004KT
                       P6SM SCT010 BKN050 FM290200 VRB03KT P6SM
                       SCT050 SCT250 FM290700 21003KT P6SM OVC010=
202012280523 TAF KCLM 280523Z 2806/2906 VRB03KT P6SM OVC005 FM281200 21004KT
                       P6SM BKN005 FM282100 11004KT P6SM SCT010
                       BKN050 FM290200 VRB03KT P6SM SCT050 SCT250=
202012280357 KCLM 280357Z 2804/2824 VRB03KT P6SM OVC005 FM281200 21004KT P6SM
                       BKN005 FM282100 09004KT P6SM SCT010 BKN050=
202012272330 TAF KCLM 272330Z 2800/2824 11003KT P6SM SCT015 BKN080 FM280200
                       14003KT P6SM SCT015 BKN250 FM281200 21004KT
                       P6SM BKN015 FM282100 09004KT P6SM SCT015
                       BKN050=
202012271726 TAF KCLM 271726Z 2718/2818 00000KT P6SM -RA SCT007 OVC060
                      TEMPO 2718/2720 OVC007 FM272200 08004KT P6SM
                       SCT015 OVC050 FM280200 14003KT P6SM SCT015
                       SCT050 BKN250 FM281200 22004KT P6SM SCT015
                       OVC050=
202012271404 KCLM 271404Z 2714/2812 25004KT P6SM SCT010 BKN060 BKN120
                      TEMPO 2714/2716 BKN010 OVC060 FM271600 21003KT
                       P6SM -RA BKN010 OVC060 FM272200 08004KT
                       P6SM SCT015 OVC050 FM280200 VRB03KT P6SM
                       SCT050 BKN250=
202012271124 TAF KCLM 271124Z 2712/2812 00000KT P6SM SCT010 OVC070
                      TEMPO 2712/2714 -RA BKN010 OVC070 FM271400
                       23003KT P6SM -RA BKN010 OVC050 FM272200
                       08004KT P6SM SCT015 OVC050 FM280200 VRB03KT
                       P6SM SCT050 BKN250=
202012270528 TAF KCLM 270528Z 2706/2806 22004KT P6SM -SHRA SCT015 OVC050
                      TEMPO 2706/2709 BKN015 OVC050 FM270900 22004KT
                       P6SM -SHRA OVC020 FM271800 VRB04KT P6SM
                       -SHRA OVC010 FM272200 08004KT P6SM SCT015
                       OVC050 FM280200 VRB03KT P6SM BKN050=
202012262328 TAF KCLM 262328Z 2700/2724 24005KT P6SM SCT050 BKN090 FM270600
                       22004KT P6SM -SHRA BKN025 OVC050 FM270900
                       22004KT P6SM SCT025 OVC050 FM271800 17004KT
                       P6SM -SHRA OVC025 FM272100 08004KT P6SM
                       OVC050=
202012261727 TAF KCLM 261727Z 2618/2718 24009KT P6SM -SHRA BKN040 OVC050 FM261900
                       29008KT P6SM SCT050 BKN090 FM270600 23004KT
                       P6SM -SHRA BKN025 OVC050 FM271200 22004KT
                       P6SM OVC050=
202012261125 TAF KCLM 261125Z 2612/2712 00000KT P6SM SCT060 BKN090
                      TEMPO 2612/2616 -SHRA BKN060 OVC090 FM261900
                       29008KT P6SM SCT050 BKN090 FM270600 23004KT
                       P6SM -SHRA BKN025 OVC050=
202012260520 TAF KCLM 260520Z 2606/2706 VRB04KT P6SM -RA SCT010 OVC060 FM260800
                       25005KT 5SM -RA BR OVC015 FM261200 26009G16KT
                       5SM -RA BR OVC015 FM262100 29009KT P6SM
                       OVC050 FM270100 26004KT P6SM OVC040=
202012252324 TAF KCLM 252324Z 2600/2624 VRB05KT P6SM -RA SCT010 OVC060
                      TEMPO 2600/2602 OVC008 FM260200 VRB03KT 5SM
                       -RA BR OVC015 FM261200 26007G15KT 5SM -RA
                       BR OVC015 FM262100 29009KT P6SM OVC050=
202012252216 KCLM 252216Z 2522/2618 VRB05KT P6SM -RA BKN010 OVC060
                      TEMPO 2522/2602 OVC008 FM260200 VRB03KT 5SM
                       -RA BR OVC015 FM261200 26007G15KT 5SM -RA
                       BR OVC015=
202012251720 TAF KCLM 251720Z 2518/2618 VRB05KT P6SM -RA OVC050 FM260200 VRB03KT
                       5SM -RA BR OVC015 FM261200 26007G15KT 5SM
                       -RA BR OVC015=
202012251120 TAF KCLM 251120Z 2512/2612 VRB03KT P6SM OVC100 FM251600 VRB03KT
                       P6SM -RA SCT025 OVC050 FM260200 VRB03KT
                       5SM -RA BR OVC015=
202012250520 TAF KCLM 250520Z 2506/2606 12003KT P6SM BKN200 FM251000 09008KT
                       P6SM OVC030 FM251600 13004KT P6SM -RA OVC020
                       FM260200 VRB03KT P6SM -SHRA OVC010=
202012250013 TAF KCLM 250013Z 2500/2524 12003KT P6SM OVC012 FM251000 09008KT
                       P6SM OVC030 FM251800 13004KT P6SM -RA OVC020=
202012241748 TAF KCLM 241748Z 2418/2518 VRB03KT P6SM OVC015 FM242000 10003KT
                       P6SM SCT015 SCT250 FM250000 09005KT P6SM
                       OVC250 FM251000 09008KT P6SM OVC090=
202012241432 KCLM 241432Z 2415/2512 VRB03KT P6SM SCT012 SCT250 FM250000 09005KT
                       P6SM OVC250 FM251000 09008KT P6SM OVC090=
202012241120 TAF KCLM 241120Z 2412/2512 VRB03KT P6SM OVC012 FM241700 09005KT
                       P6SM SCT012 SCT250 FM242100 09005KT P6SM
                       SCT250 FM250000 09005KT P6SM OVC250 FM251000
                       09008KT P6SM OVC090=
202012241040 KCLM 241040Z 2411/2506 VRB03KT P6SM OVC010 FM241700 09005KT P6SM
                       SCT010 FM242100 09005KT P6SM SCT250 FM250300
                       09005KT P6SM BKN250=
202012240520 TAF KCLM 240520Z 2406/2506 VRB03KT P6SM SKC FM240900 VRB02KT 5SM
                       BR SKC FM241500 14004KT P6SM FEW250 FM242100
                       11004KT P6SM SCT250 FM250300 17003KT P6SM
                       BKN250=
202012232330 TAF KCLM 232330Z 2400/2424 08006KT P6SM SKC FM240500 VRB03KT P6SM
                       SKC FM241500 VRB02KT 5SM BR SKC FM241800
                       VRB03KT P6SM FEW250=
202012231720 TAF KCLM 231720Z 2318/2418 24005KT P6SM FEW250 FM232000 09005KT
                       P6SM FEW250 FM240100 VRB03KT P6SM SKC=
202012231120 TAF KCLM 231120Z 2312/2412 21004KT P6SM BKN015 OVC030 FM231600
                       VRB03KT P6SM SCT015 BKN030 FM232000 09005KT
                       P6SM FEW250 FM240100 VRB03KT P6SM SKC=
202012230909 KCLM 230909Z 2309/2406 00000KT P6SM OVC026 FM231200 23003KT P6SM
                       SCT025 BKN250
                      TEMPO 2312/2315 OVC025 FM231500 VRB03KT P6SM
                       FEW250 FM232000 09005KT P6SM SKC=
202012230528 TAF KCLM 230528Z 2306/2406 22004KT P6SM FEW250 FM231500 VRB03KT
                       P6SM FEW250 FM232000 09005KT P6SM SKC=
202012222337 TAF KCLM 222337Z 2300/2324 09005KT P6SM FEW250 FM231000 VRB03KT
                       P6SM OVC050 FM232000 09005KT P6SM OVC250=
202012221724 TAF KCLM 221724Z 2218/2318 22010KT P6SM SKC FM222200 VRB04KT P6SM
                       SKC FM231000 VRB03KT P6SM OVC050=
202012221120 TAF KCLM 221120Z 2212/2312 25010KT P6SM SCT050 FM222200 VRB04KT
                       P6SM SKC=
202012220916 KCLM 220916Z 2209/2306 25010KT P6SM SCT060 FM222200 VRB04KT P6SM
                       SCT050=
202012220520 TAF KCLM 220520Z 2206/2306 25012G20KT P6SM SCT050 FM221500 24012KT
                       P6SM SCT020 BKN050 FM222200 07005KT P6SM
                       OVC050=
202012220150 KCLM 220150Z 2202/2224 25009KT 3SM -RASN OVC018 FM220600 27012G31KT
                       6SM BR VCSH OVC025 FM221500 24012KT P6SM
                       SCT020 BKN050 FM222200 07005KT P6SM OVC050=
202012212327 TAF KCLM 212327Z 2200/2224 14004KT 3/4SM -SN BR VV010 FM220100
                       27013G21KT 1/4SM -SN FG OVC015 FM220600
                       27012G31KT 6SM BR OVC015 FM221500 24012KT
                       P6SM BKN050 FM222200 07005KT P6SM OVC050=
202012212059 KCLM 212059Z 2121/2218 VRB05KT 1 1/2SM RA BR OVC005 FM220100 27013G21KT
                       P6SM OVC015 FM220600 27012G25KT P6SM BKN035
                       FM221500 24012KT P6SM OVC050=
202012211736 TAF KCLM 211736Z 2118/2218 VRB06KT 2SM RA BR OVC004 FM211900 28005KT
                       1 1/2SM -SHRA BR OVC007 FM212100 29007KT
                       4SM -SHRA BR OVC015 FM220100 27013G21KT
                       P6SM OVC015 FM220600 27012G25KT P6SM BKN035
                       FM221500 24012KT P6SM OVC050=
202012211422 KCLM 211422Z 2114/2212 VRB06KT 2SM RA BR BKN007 BKN013 OVC019 FM211900
                       28005KT 1 1/2SM -SHRA BR OVC007 FM212100
                       29007KT 4SM -SHRA BR OVC015 FM220100 27013G21KT
                       P6SM OVC015 FM220600 27012KT P6SM OVC015=
202012211319 KCLM 211319Z 2113/2212 07008KT 4SM -RA BR FEW005 BKN011 OVC016
                       FM211900 28005KT 1 1/2SM -SHRA BR OVC007
                       FM212100 29007KT 4SM -SHRA BR OVC015 FM220100
                       27013G21KT P6SM OVC015 FM220600 27012KT
                       P6SM OVC015=
202012211133 TAF KCLM 211133Z 2112/2212 07003KT 2SM -RA BR BKN005 OVC015 FM211900
                       28005KT 1 1/2SM -SHRA BR OVC007 FM212100
                       29007KT 4SM -SHRA BR OVC015 FM220100 27013G21KT
                       P6SM OVC015 FM220600 27012KT P6SM OVC015=
202012210523 TAF KCLM 210523Z 2106/2206 19004KT P6SM BKN120 FM210800 VRB03KT
                       6SM -RA BR OVC015 FM211200 24004KT 5SM RA
                       BR OVC012 FM212000 29014G22KT 5SM RA BR
                       OVC010=
202012202336 TAF KCLM 202336Z 2100/2124 VRB04KT P6SM SCT025 OVC050
                      TEMPO 2100/2104 BKN025 OVC040 FM210400 VRB03KT
                       P6SM -RA OVC025 FM210700 VRB03KT 6SM -RA
                       BR OVC015 FM211200 24004KT 5SM RA BR OVC012
                       FM212000 29014G22KT 5SM RA BR OVC010=
202012201740 TAF KCLM 201740Z 2018/2118 VRB04KT P6SM OVC050 FM210400 VRB03KT
                       P6SM -RA OVC025 FM210700 VRB03KT 6SM -RA
                       BR OVC015 FM211200 24004KT 5SM RA BR OVC012=
202012201126 TAF KCLM 201126Z 2012/2112 26009KT P6SM OVC100 FM201400 26009KT
                       P6SM BKN050 BKN100 FM201800 28005KT P6SM
                       OVC050 FM210500 20003KT P6SM -RA OVC025
                       FM210700 VRB03KT 6SM -RA BR OVC015=
202012200711 KCLM 200711Z 2007/2106 25013G19KT P6SM SCT120 FM201000 27010KT
                       P6SM SCT020 SCT120 FM201500 27009KT P6SM
                       BKN060 FM210300 VRB03KT 6SM -RA BR OVC007=
202012200520 TAF KCLM 200520Z 2006/2106 VRB05KT 3SM -RA BR OVC050 FM200800 VRB05KT
                       P6SM -SHRA BKN060 BKN100 FM201500 27009KT
                       P6SM BKN060 FM210300 VRB03KT 6SM -RA BR
                       OVC007=
202012200051 KCLM 200051Z 2001/2024 VRB04KT 6SM -RA BR SCT007 OVC030
                      TEMPO 2001/2005 3SM -RA BR BKN006 OVC012
                       FM200500 27009KT 4SM -RA OVC012 FM200900
                       27012KT P6SM VCSH BKN015 BKN040 FM201700
                       27009KT P6SM BKN035=
202012192320 TAF KCLM 192320Z 2000/2024 VRB04KT 3SM -RA BR OVC005 FM200500 27009KT
                       4SM -RA OVC012 FM200900 27012KT P6SM VCSH
                       BKN015 BKN040 FM201700 27009KT P6SM BKN035=
202012192203 KCLM 192203Z 1922/2018 VRB04KT 3SM -RA BR OVC012 FM200300 27012KT
                       3SM -RA OVC012 FM200900 22009KT P6SM VCSH
                       BKN015 BKN040=
202012191739 TAF KCLM 191739Z 1918/2018 VRB04KT P6SM BKN017 OVC040 FM192100
                       VRB04KT P6SM VCSH OVC035 FM192300 VRB05KT
                       4SM -RA BR OVC015 FM200300 27012KT 3SM -RA
                       OVC012 FM200900 22009KT P6SM VCSH BKN015
                       BKN040=
202012191124 TAF KCLM 191124Z 1912/2012 29010KT P6SM FEW020 BKN200 FM192100
                       VRB04KT P6SM VCSH OVC040 FM200000 VRB05KT
                       4SM -RA BR OVC015 FM200300 27012KT 3SM -RA
                       OVC012 FM200900 22009KT P6SM OVC012=
202012190520 TAF KCLM 190520Z 1906/2006 26010KT P6SM -SHRA BKN050 OVC100 FM190700
                       VRB05KT P6SM VCSH BKN030 OVC050 FM191200
                       VRB05KT P6SM OVC050 FM191900 VRB04KT 6SM
                       -RA BR OVC040 FM192300 VRB05KT 4SM -RA BR
                       OVC015=
202012182337 TAF KCLM 182337Z 1900/1924 VRB04KT P6SM -RA OVC030 FM190500 27014G24KT
                       6SM -SHRA SCT005 OVC015 FM191000 26012KT
                       P6SM VCSH BKN027 BKN050 FM191700 28006KT
                       P6SM OVC040 FM192100 VRB04KT 6SM -RA BR
                       OVC025=
202012181732 TAF KCLM 181732Z 1818/1918 VRB04KT P6SM -RA OVC040 FM182200 25005KT
                       P6SM -RA OVC015 FM190500 27015G25KT 6SM
                       -SHRA SCT005 OVC010 FM191000 26012KT P6SM
                       VCSH BKN027 BKN050=
202012181131 TAF KCLM 181131Z 1812/1912 25004KT P6SM VCSH FEW035 OVC080 FM181600
                       23004KT P6SM VCSH OVC040 FM182200 25005KT
                       P6SM -RA OVC015 FM190300 27015G25KT 6SM
                       -SHRA SCT005 OVC010 FM190900 26012KT P6SM
                       OVC015=
202012180805 KCLM 180805Z 1808/1906 23007KT P6SM -RA VCSH FEW040 OVC050 FM181000
                       VRB05KT P6SM -RA OVC025 FM181600 23004KT
                       P6SM VCSH OVC025 FM182000 25005KT P6SM -RA
                       OVC015 FM190300 27012G22KT 6SM -SHRA SCT005
                       OVC010=
202012180520 TAF KCLM 180520Z 1806/1906 25008KT P6SM VCSH SCT030 BKN100 FM181000
                       VRB05KT P6SM -RA OVC025 FM181600 23004KT
                       P6SM VCSH OVC025 FM182000 25005KT P6SM -RA
                       OVC015 FM190300 27012G22KT 6SM -SHRA SCT005
                       OVC010=
202012172320 TAF KCLM 172320Z 1800/1824 29011KT P6SM BKN050 FM180600 24008KT
                       P6SM OVC035 FM181200 22005KT P6SM -RA OVC020
                       FM182000 20004KT 4SM -RA BR OVC015=
202012171751 TAF KCLM 171751Z 1718/1818 26012G20KT P6SM OVC045 FM172300 29015G25KT
                       P6SM BKN050 FM180600 24008KT P6SM OVC025
                       FM181200 22005KT P6SM -RA OVC020=
202012171438 KCLM 171438Z 1715/1812 24010KT P6SM VCSH SCT020 BKN050 OVC080 FM171600
                       26012KT P6SM SCT020 BKN050 FM171900 26011KT
                       P6SM BKN050 FM180600 24008KT P6SM OVC025=
202012171123 TAF KCLM 171123Z 1712/1812 21012G31KT P6SM -SHRA SCT025 BKN060
                       OVC070 FM171600 26012KT P6SM SCT020 BKN050
                       FM171900 26011KT P6SM BKN050 FM180600 24008KT
                       P6SM OVC025=
202012170520 TAF KCLM 170520Z 1706/1806 VRB03KT 6SM -RA SCT030 OVC070 FM170800
                       25008KT 6SM -RA OVC025 FM171100 25012KT
                       5SM -RA BR OVC020 FM171600 26012KT 6SM BR
                       VCSH OVC015 FM171900 26011KT P6SM BKN040=
202012162321 TAF KCLM 162321Z 1700/1724 VRB03KT 5SM -RA BKN006 OVC070 FM170500
                       25008KT P6SM -SHRA OVC015 FM171200 25012KT
                       P6SM OVC025=
202012161724 TAF KCLM 161724Z 1618/1718 23003KT P6SM SCT010 OVC050 FM162200
                       14003KT P6SM -RA OVC030 FM170100 VRB03KT
                       5SM -RA BR OVC020 FM170500 25008G15KT P6SM
                       -SHRA OVC015 FM171200 25012G20KT P6SM OVC025=
202012161128 TAF KCLM 161128Z 1612/1712 23003KT P6SM SCT040 OVC060 FM162200
                       14003KT P6SM -RA OVC040 FM170100 VRB03KT
                       5SM -RA BR OVC020 FM170500 25008KT P6SM
                       -SHRA OVC015=
202012160528 TAF KCLM 160528Z 1606/1706 23005KT P6SM VCSH BKN050 OVC120 FM161400
                       23003KT P6SM OVC050 FM162200 14003KT P6SM
                       -RA OVC025=
202012152327 TAF KCLM 152327Z 1600/1624 26005KT P6SM FEW040 OVC070 FM161400
                       VRB03KT P6SM OVC050=
202012151721 TAF KCLM 151721Z 1518/1618 VRB03KT P6SM SCT070 BKN100 FM152000
                       27005KT P6SM OVC050 FM161400 VRB03KT P6SM
                       OVC050=
202012151125 TAF KCLM 151125Z 1512/1612 29003KT P6SM -RA BKN007 OVC060 FM152000
                       27005KT P6SM OVC050=
202012151010 KCLM 151010Z 1510/1606 20003KT P6SM SCT010 BKN060 OVC090
                      TEMPO 1510/1513 -RA BKN010 OVC060 FM151300
                       19003KT 5SM -RA OVC015 FM152000 27005KT
                       P6SM OVC050=
202012150522 TAF KCLM 150522Z 1506/1606 23007KT P6SM SCT070 OVC100 FM150900
                       21004KT P6SM -RA OVC030 FM151200 19003KT
                       5SM -RA OVC015 FM152000 27005KT P6SM OVC050=
202012142333 TAF KCLM 142333Z 1500/1524 11004KT P6SM FEW040 SCT080 BKN100 FM150200
                       20004KT P6SM OVC070 FM150900 23004KT P6SM
                       -RA OVC020 FM152000 27005KT P6SM OVC050=
202012141737 TAF KCLM 141737Z 1418/1518 26005KT P6SM SKC FM150200 20004KT P6SM
                       OVC070 FM150900 23004KT P6SM -RA OVC020=
202012141126 TAF KCLM 141126Z 1412/1512 00000KT P6SM -SHRA SCT015 OVC045
                      TEMPO 1412/1416 5SM -SHRA BR BKN015 OVC045
                       FM141800 VRB04KT P6SM BKN050 FM150900 23004KT
                       P6SM -RA OVC025=
202012140524 TAF KCLM 140524Z 1406/1506 21004KT P6SM VCSH SCT007 BKN080
                      TEMPO 1406/1410 1SM BR BKN007 OVC080 FM141000
                       22003KT 2SM BR VCSH BKN007 OVC010 FM141700
                       23004KT P6SM BKN020 FM142100 VRB04KT P6SM
                       FEW050 OVC060=
202012140307 KCLM 140307Z 1403/1424 VRB04KT 5SM BR VCSH BKN006 BKN060 FM140800
                       24003KT P6SM VCSH BKN007 OVC025 FM141700
                       23004KT P6SM BKN040 FM142100 VRB04KT P6SM
                       FEW050=
202012132330 TAF KCLM 132330Z 1400/1424 24004KT P6SM VCSH SCT006 BKN060 FM140800
                       24003KT P6SM VCSH BKN007 OVC025 FM141700
                       23004KT P6SM BKN040 FM142100 VRB04KT P6SM
                       FEW050=
202012131726 TAF KCLM 131726Z 1318/1418 VRB03KT P6SM -RA OVC030 FM132200 VRB03KT
                       5SM -SHRA BR OVC022 FM140400 24005KT P6SM
                       VCSH OVC020 FM141700 23004KT P6SM BKN030=
202012131450 KCLM 131450Z 1315/1412 23004KT P6SM -RA OVC060 FM131700 VRB03KT
                       P6SM -RA OVC020 FM131900 VRB03KT 5SM -RA
                       BR OVC009 FM140300 25003KT P6SM OVC020=
202012131122 TAF KCLM 131122Z 1312/1412 24005KT P6SM -RA OVC060 FM131400 VRB03KT
                       P6SM -RA OVC020 FM131800 VRB03KT 5SM -RA
                       BR OVC009 FM140300 25003KT P6SM OVC020=
202012130522 TAF KCLM 130522Z 1306/1406 VRB05KT P6SM SCT013 BKN100 OVC250 FM130900
                       VRB04KT P6SM -RA BKN040 OVC080 FM131400
                       VRB03KT 6SM -RA OVC020 FM131800 25004KT
                       5SM -RA OVC009=
202012122328 TAF KCLM 122328Z 1300/1324 VRB05KT P6SM BKN010 FM130300 04005KT
                       P6SM SCT010 BKN250 FM130600 VRB03KT P6SM
                       BKN100 OVC250 FM130900 VRB04KT P6SM -RA
                       BKN040 OVC080 FM131400 VRB03KT 6SM -RA OVC025=
202012121725 TAF KCLM 121725Z 1218/1318 08007KT P6SM SCT250 FM130300 04005KT
                       P6SM BKN250 FM130700 VRB03KT P6SM BKN100
                       OVC250 FM131000 VRB04KT P6SM -RA BKN040
                       OVC080=
202012121122 TAF KCLM 121122Z 1212/1312 22005KT P6SM OVC015 FM121700 10003KT
                       P6SM SCT025 FM121900 08005KT P6SM FEW250
                       FM130100 VRB03KT P6SM BKN250 FM130900 VRB03KT
                       P6SM BKN100 OVC250=
202012120907 KCLM 120907Z 1209/1306 23005KT P6SM SCT010 SCT025 OVC035
                      TEMPO 1212/1216 BKN010 OVC025 FM121800 05006KT
                       P6SM SCT035=
202012120520 TAF KCLM 120520Z 1206/1306 04006KT P6SM BKN035
                      TEMPO 1206/1209 4SM BR BKN003 FM120900 03004KT
                       2SM BR BKN003 FM121800 05006KT P6SM SCT030=
202012112328 TAF KCLM 112328Z 1200/1224 04006KT P6SM BKN030 FM120900 03004KT
                       P6SM BKN012 FM121800 05006KT P6SM SCT030=
202012111731 TAF KCLM 111731Z 1118/1218 VRB04KT P6SM SCT060 FM120200 05007KT
                       P6SM SCT070 FM120900 VRB04KT P6SM BKN012=
202012111128 TAF KCLM 111128Z 1112/1212 23003KT P6SM SCT015 OVC050 FM111900
                       VRB03KT P6SM SCT020 OVC030 FM112100 VRB04KT
                       P6SM SCT050 BKN100 FM121000 23005KT P6SM
                       BKN025=
202012110533 TAF KCLM 110533Z 1106/1206 14003KT P6SM OVC060 FM111000 23003KT
                       P6SM SCT010 OVC020 FM111900 VRB03KT P6SM
                       SCT020 OVC030 FM112100 VRB04KT P6SM SCT050
                       BKN100=
202012102326 TAF KCLM 102326Z 1100/1124 06003KT P6SM OVC010 FM110300 22005KT
                       P6SM SCT015 OVC030 FM110600 24006KT P6SM
                       -RA OVC015 FM111000 23003KT P6SM SCT010
                       OVC020 FM111900 07003KT P6SM SCT020 OVC030
                       TEMPO 1119/1123 -SHRA OVC015=
202012101735 TAF KCLM 101735Z 1018/1118 VRB03KT P6SM OVC010 FM102100 08003KT
                       P6SM SCT050 OVC100 FM110100 22005KT P6SM
                       SCT025 OVC050 FM110600 26006KT P6SM -RA
                       OVC025=
202012101138 TAF KCLM 101138Z 1012/1112 VRB03KT P6SM OVC012 FM101600 08003KT
                       P6SM SCT020 BKN040 FM102100 08003KT P6SM
                       SCT050 OVC100 FM110500 25005KT P6SM -RA
                       OVC025=
202012100541 TAF KCLM 100541Z 1006/1106 24008KT P6SM BKN200 FM101200 VRB03KT
                       P6SM OVC020 FM101600 08003KT P6SM SCT020
                       BKN040 FM102100 08003KT P6SM SCT050 OVC100=
202012092320 TAF KCLM 092320Z 1000/1024 29006KT P6SM SCT030 BKN040 FM100300
                       24003KT P6SM SCT025 OVC040 FM101200 VRB03KT
                       P6SM OVC020 FM101600 08003KT P6SM SCT020
                       BKN040=
202012091721 TAF KCLM 091721Z 0918/1018 28007KT P6SM SCT040 OVC080 FM092200
                       31006KT P6SM SCT030 BKN040 FM100300 24003KT
                       P6SM SCT025 OVC040 FM101200 VRB03KT P6SM
                       OVC020 FM101600 VRB03KT P6SM SCT020 BKN040=
202012091140 TAF KCLM 091140Z 0912/1012 26011KT P6SM SCT040 OVC080 FM092000
                       31006KT P6SM SCT030 BKN050=
202012090540 TAF KCLM 090540Z 0906/1006 23007KT P6SM OVC080 FM091000 25008KT
                       P6SM SCT025 OVC040 FM092000 31006KT P6SM
                       SCT030 BKN050=
202012090207 KCLM 090207Z 0902/0924 23006KT 6SM BR SCT015 BKN025 OVC035 FM090600
                       27009KT P6SM SCT015 OVC025 FM091000 25008KT
                       P6SM SCT025 OVC040 FM092000 31006KT P6SM
                       SCT030 BKN050=
202012082323 TAF KCLM 082323Z 0900/0924 23006KT 1 1/2SM -RA BR SCT007 OVC015
                       FM090600 27009KT 5SM BR SCT010 OVC025 FM091000
                       25008KT P6SM SCT025 OVC040 FM092000 31006KT
                       P6SM SCT030 BKN050=
202012082200 KCLM 082200Z 0822/0918 23006KT 2SM -RA BR SCT020 OVC030 FM090400
                       29010KT P6SM SCT010 OVC025 FM091000 25012KT
                       P6SM SCT025 OVC040=
202012081725 TAF KCLM 081725Z 0818/0918 28006KT 5SM -RA OVC005
                      TEMPO 0818/0821 1/4SM FG VV004 FM082100 23006KT
                       3SM -RA BR OVC007 FM090400 29010KT P6SM
                       SCT010 OVC025 FM091000 25012KT P6SM SCT025
                       OVC040=
202012081413 KCLM 081413Z 0814/0912 24003KT P6SM VCSH SCT006 OVC015 FM081600
                       28006KT 5SM -RA OVC005 FM082100 23006KT
                       P6SM OVC007=
202012081147 TAF KCLM 081147Z 0812/0912 24003KT P6SM VCSH SCT006 OVC060 FM081400
                       28006KT 5SM -RA OVC005 FM082100 23006KT
                       P6SM OVC007=
202012080533 TAF KCLM 080533Z 0806/0906 24003KT P6SM VCSH SCT006 OVC060 FM081100
                       28006KT 5SM -RA OVC005 FM082100 23006KT
                       P6SM OVC007=
202012072320 TAF KCLM 072320Z 0800/0824 VRB03KT P6SM OVC005 FM080600 12006KT
                       P6SM -RA OVC015 FM081100 28006KT 5SM -RA
                       OVC005=
202012072011 KCLM 072011Z 0720/0818 VRB03KT P6SM SCT005 OVC060
                      TEMPO 0720/0724 BKN003 FM080600 12006KT P6SM
                       -RA OVC050 FM081100 28006KT P6SM -RA OVC025=
202012071721 TAF KCLM 071721Z 0718/0818 VRB03KT P6SM SCT005 OVC060
                      TEMPO 0718/0720 1SM BR BKN003 FM080600 12006KT
                       P6SM -RA OVC050 FM081100 28006KT P6SM -RA
                       OVC025=
202012071601 KCLM 071601Z 0716/0812 VRB03KT P6SM OVC060
                      TEMPO 0716/0718 1SM BR BKN003 FM080600 12006KT
                       P6SM -RA OVC050 FM081100 28006KT P6SM -RA
                       OVC025=
202012071506 KCLM 071506Z 0715/0812 VRB03KT P6SM OVC060
                      TEMPO 0715/0718 BKN003 FM080600 12006KT P6SM
                       -RA OVC050 FM081100 28006KT P6SM -RA OVC025=
202012071134 TAF KCLM 071134Z 0712/0812 VRB03KT P6SM OVC100 FM080600 12006KT
                       P6SM -RA OVC050 FM081100 28006KT P6SM -RA
                       OVC025=
202012070535 TAF KCLM 070535Z 0706/0806 00000KT P6SM SCT007 BKN250
                      TEMPO 0706/0709 2SM BR BKN007 BKN250 FM070900
                       21003KT 3SM BR BKN005 FM071200 22004KT P6SM
                       BKN100 OVC150=
202012070043 KCLM 070043Z 0701/0724 VRB03KT P6SM BKN040 FM070900 21003KT 3SM
                       BR BKN009 FM071200 22004KT P6SM BKN100 FM071800
                       26001KT 4SM -RA OVC050=
202012062341 TAF KCLM 062341Z 0700/0724 11003KT P6SM FEW020 BKN050 FM070100
                       21003KT P6SM SCT100 BKN250 FM070900 21003KT
                       3SM BR BKN005 FM071200 22004KT P6SM BKN100=
202012061737 TAF KCLM 061737Z 0618/0718 VRB04KT P6SM OVC060 FM062100 VRB03KT
                       P6SM SCT030 BKN050 FM070300 VRB03KT P6SM
                       SCT100 BKN250 FM071400 23003KT P6SM OVC050=
202012061138 TAF KCLM 061138Z 0612/0712 VRB03KT P6SM OVC050 FM061600 VRB03KT
                       P6SM BKN011 OVC020 FM062100 VRB03KT P6SM
                       SCT030 BKN050 FM070300 VRB03KT P6SM SCT100
                       BKN250=
202012060531 TAF KCLM 060531Z 0606/0706 00000KT P6SM BKN080 OVC150 FM060900
                       VRB03KT P6SM -RA OVC050 FM061500 VRB03KT
                       P6SM OVC025 FM070100 VRB03KT P6SM BKN050=
202012052339 TAF KCLM 052339Z 0600/0624 24005KT P6SM SKC FM060200 22004KT P6SM
                       BKN100 OVC200 FM060700 12006KT P6SM -RA
                       BKN040 OVC060 FM061500 21004KT 6SM BR OVC025
                       FM062100 VRB04KT P6SM OVC050=
202012051720 TAF KCLM 051720Z 0518/0618 VRB03KT P6SM SKC FM052000 10006KT P6SM
                       SKC FM052200 12006KT P6SM BKN100 OVC200
                       FM060700 12006KT P6SM -RA BKN040 OVC060
                       FM061500 21004KT 6SM BR OVC025=
202012051535 KCLM 051535Z 0516/0612 VRB03KT P6SM OVC008
                      TEMPO 0516/0519 2SM BR FEW002 FM052000 12006KT
                       P6SM SKC FM052200 12006KT P6SM BKN100 OVC200
                       FM060700 12006KT P6SM -RA BKN040 OVC060=
202012051127 TAF KCLM 051127Z 0512/0612 VRB03KT P6SM OVC008 FM052000 12006KT
                       P6SM SKC FM052200 12006KT P6SM BKN100 OVC200
                       FM060700 12006KT P6SM -RA BKN040 OVC060=
202012050544 TAF KCLM 050544Z 0506/0606 VRB03KT 4SM BR SCT001
                      TEMPO 0509/0513 1SM BR OVC002 FM051300 VRB03KT
                       P6SM OVC008 FM051600 12006KT P6SM SKC FM052200
                       12006KT P6SM BKN100 OVC200=
202012042343 TAF KCLM 042343Z 0500/0524 09005KT P6SM SKC FM050100 14005KT P6SM
                       SKC FM051800 13002KT P6SM OVC250=
202012041853 KCLM 041853Z 0419/0518 VRB03KT P6SM SKC FM042000 09004KT P6SM SKC
                       FM050100 14005KT P6SM SKC=
202012041724 TAF KCLM 041724Z 0418/0518 VRB03KT 3SM BR OVC005 FM042000 09004KT
                       P6SM SKC FM050100 14005KT P6SM SKC=
202012041456 KCLM 041456Z 0415/0512 12006KT P6SM OVC008 FM041700 VRB03KT P6SM
                       SKC FM050100 09006KT P6SM SKC=
202012041133 TAF KCLM 041133Z 0412/0512 00000KT 4SM BR SCT002
                      TEMPO 0412/0414 1SM BR BKN002 FM041600 VRB03KT
                       P6SM SKC FM050100 09006KT P6SM SKC=
202012041013 KCLM 041013Z 0410/0506 00000KT P6SM SKC
                      TEMPO 0414/0417 3SM BR SCT002 FM041700 08004KT
                       P6SM SKC FM050100 14006KT P6SM SKC=
202012040537 TAF KCLM 040537Z 0406/0506 00000KT P6SM SCT008 BKN045 FM040900
                       00000KT P6SM OVC008 FM041700 08004KT P6SM
                       SKC FM050100 14006KT P6SM SKC=
202012032329 TAF KCLM 032329Z 0400/0424 07003KT P6SM OVC080 FM040300 VRB03KT
                       P6SM BKN060 BKN120 FM041200 21003KT P6SM
                       SCT250 FM041700 08004KT P6SM SKC=
202012031723 TAF KCLM 031723Z 0318/0418 00000KT P6SM OVC010 FM032000 10004KT
                       P6SM SCT013 BKN250
                      TEMPO 0320/0322 BKN013 BKN250 FM032200 VRB03KT
                       P6SM BKN120 OVC200 FM040300 VRB03KT P6SM
                       BKN060 BKN120 FM041300 21003KT P6SM SCT250=
202012031618 KCLM 031618Z 0316/0412 00000KT P6SM BKN010 BKN250 FM031800 00000KT
                       P6SM SCT013 BKN250
                      TEMPO 0318/0320 BKN013 BKN250 FM032000 VRB03KT
                       P6SM BKN120 OVC200 FM040700 VRB03KT P6SM
                       BKN250=
202012031131 TAF KCLM 031131Z 0312/0412 00000KT P6SM BKN008 BKN250 FM031600
                       00000KT P6SM BKN250 FM032000 VRB03KT P6SM
                       BKN120 OVC200 FM040700 VRB03KT P6SM BKN250=
202012030520 TAF KCLM 030520Z 0306/0406 VRB03KT P6SM SCT250 FM031200 VRB03KT
                       P6SM BKN120 BKN250 FM032100 11004KT P6SM
                       BKN060 BKN120 FM040300 VRB03KT P6SM OVC050=
202012022322 TAF KCLM 022322Z 0300/0324 VRB03KT P6SM BKN250 FM031200 VRB03KT
                       P6SM BKN120 BKN250 FM032100 11004KT P6SM
                       BKN060 BKN120=
202012021721 TAF KCLM 021721Z 0218/0318 11004KT P6SM SCT015
                      TEMPO 0218/0222 BKN015 FM030300 VRB03KT P6SM
                       BKN250 FM031200 VRB03KT P6SM OVC100=
202012021423 KCLM 021423Z 0214/0312 12006KT P6SM SCT015 FM021800 12005KT P6SM
                       SCT250 FM030300 VRB03KT P6SM BKN250=
202012021120 TAF KCLM 021120Z 0212/0312 12006KT P6SM OVC015 FM021800 12005KT
                       P6SM SCT250 FM030300 VRB03KT P6SM BKN250=
202012021042 KCLM 021042Z 0211/0306 12006KT P6SM OVC015 FM021800 12005KT P6SM
                       SCT250=
202012020604 TAF KCLM 020604Z 0206/0306 12004KT P6SM OVC010 FM020900 11004KT
                       P6SM SCT010 SCT250 FM021200 11002KT P6SM
                       SCT250=
202012012327 TAF KCLM 012327Z 0200/0224 09008KT P6SM OVC010 FM020300 12004KT
                       P6SM OVC010 FM020900 11004KT P6SM SCT010
                       SCT250 FM021200 11002KT P6SM SCT250=
202012012144 KCLM 012144Z 0122/0218 09008KT P6SM OVC010 FM020300 14004KT P6SM
                       SCT250 FM020900 18004KT P6SM SCT250=
202012011723 TAF KCLM 011723Z 0118/0218 21005KT P6SM BKN015 FM012000 09004KT
                       P6SM SCT250 FM020300 19004KT P6SM SCT250
                       FM020900 14004KT P6SM SCT250=
202012011120 TAF KCLM 011120Z 0112/0212 23010KT P6SM SCT200 FM011800 12005KT
                       P6SM SCT250 FM020300 19004KT P6SM SCT250=
202012010520 TAF KCLM 010520Z 0106/0206 25010KT P6SM SCT200 FM011400 22006KT
                       P6SM SCT050 FM011800 11004KT P6SM SCT250
                       FM012100 07006KT P6SM SCT250=