##########################################################
# Query made at 02/16/2025 04:48:11 UTC
# Time interval: from 03/01/2021 00:00  to 03/31/2021 23:59  UTC
##########################################################

##########################################################
# KCLM, Port Angeles, William R. Fairchild International Airport (United States)
# WMO index: -----. WIGOS ID: Unknown
# Latitude 48-07-20N. Longitude 123-30-19W. Altitude 87 m.
##########################################################

###################################
#  METAR/SPECI from KCLM
###################################
202103312353 METAR KCLM 312353Z AUTO 08007KT 10SM CLR 11/01 A3017 RMK AO2 SLP219 T01060006 10106 20078 58035=
202103312253 METAR KCLM 312253Z AUTO 09007KT 10SM CLR 10/00 A3022 RMK AO2 SLP235 T01000000=
202103312153 METAR KCLM 312153Z AUTO 08007KT 10SM CLR 11/02 A3025 RMK AO2 SLP244 T01060017=
202103312053 METAR KCLM 312053Z AUTO 07007KT 10SM CLR 09/03 A3028 RMK AO2 SLP254 T00940028 56027=
202103311953 METAR KCLM 311953Z AUTO 08007KT 10SM CLR 08/04 A3030 RMK AO2 SLP262 T00830039=
202103311853 METAR KCLM 311853Z AUTO 09009KT 10SM CLR 08/03 A3033 RMK AO2 SLP272 T00830033=
202103311753 METAR KCLM 311753Z AUTO 09009KT 10SM CLR 08/03 A3036 RMK AO2 SLP281 I6001 T00780028 10078 21017 58016=
202103311653 METAR KCLM 311653Z AUTO 07005KT 10SM CLR 07/03 A3038 RMK AO2 SLP290 T00720028=
202103311553 METAR KCLM 311553Z AUTO 00000KT 10SM CLR 07/03 A3039 RMK AO2 SLP293 T00670028=
202103311453 METAR KCLM 311453Z AUTO 00000KT 10SM CLR 01/00 A3040 RMK AO2 SLP298 I3001 T00060000 56009=
202103311353 METAR KCLM 311353Z AUTO 00000KT 10SM CLR M01/M02 A3041 RMK AO2 SLP300 I1001 T10061017=
202103311253 METAR KCLM 311253Z AUTO 00000KT 10SM CLR 01/M01 A3042 RMK AO2 SLP303 T00061011=
202103311153 METAR KCLM 311153Z AUTO 21003KT 10SM CLR M01/M02 A3043 RMK AO2 SLP307 T10061017 10022 21011 58014=
202103311053 METAR KCLM 311053Z AUTO 20003KT 10SM CLR 01/M01 A3045 RMK AO2 SLP314 T00061011=
202103310953 METAR KCLM 310953Z AUTO 22004KT 10SM CLR 01/M01 A3047 RMK AO2 SLP319 T00061011=
202103310853 METAR KCLM 310853Z AUTO 00000KT 10SM CLR 01/M01 A3047 RMK AO2 SLP322 T00111006 58003=
202103310753 METAR KCLM 310753Z AUTO 21003KT 10SM CLR 01/M01 A3048 RMK AO2 SLP325 T00111006=
202103310653 METAR KCLM 310653Z AUTO 00000KT 10SM CLR 01/M01 A3048 RMK AO2 SLP325 T00111006 401001006=
202103310553 METAR KCLM 310553Z AUTO 21003KT 10SM CLR 02/M01 A3048 RMK AO2 SLP324 T00171006 10100 20011 52004=
202103310453 METAR KCLM 310453Z AUTO 00000KT 10SM CLR 02/00 A3048 RMK AO2 SLP324 T00220000=
202103310353 METAR KCLM 310353Z AUTO 00000KT 10SM CLR 04/01 A3047 RMK AO2 SLP320 T00390006=
202103310253 METAR KCLM 310253Z AUTO 00000KT 10SM CLR 07/00 A3047 RMK AO2 SLP320 T00670000 58002=
202103310153 METAR KCLM 310153Z AUTO VRB04KT 10SM FEW050 08/00 A3047 RMK AO2 SLP321 T00830000=
202103310053 METAR KCLM 310053Z AUTO 08006KT 10SM CLR 09/M01 A3047 RMK AO2 SLP322 T00941006=
202103302353 METAR KCLM 302353Z AUTO VRB05KT 10SM CLR 10/00 A3047 RMK AO2 SLP322 T01000000 10100 20078 55002=
202103302253 METAR KCLM 302253Z AUTO 08008KT 10SM CLR 09/00 A3047 RMK AO2 SLP321 T00940000=
202103302153 METAR KCLM 302153Z AUTO 06008KT 10SM CLR 09/00 A3048 RMK AO2 SLP323 T00940000=
202103302053 METAR KCLM 302053Z AUTO 06008KT 10SM CLR 09/01 A3048 RMK AO2 SLP324 T00940006 53007 $=
202103301953 METAR KCLM 301953Z AUTO 07009G15KT 10SM CLR 09/00 A3048 RMK AO2 SLP322 T00890000 $=
202103301853 METAR KCLM 301853Z AUTO 06008G15KT 10SM CLR 08/M01 A3047 RMK AO2 SLP319 T00831006 $=
202103301753 METAR KCLM 301753Z AUTO 09011G16KT 10SM CLR 08/00 A3046 RMK AO2 SLP318 T00780000 10083 21006 51014 $=
202103301653 METAR KCLM 301653Z AUTO 07009KT 10SM SCT036 08/00 A3045 RMK AO2 SLP313 T00780000 $=
202103301553 METAR KCLM 301553Z AUTO 00000KT 10SM BKN031 05/M01 A3044 RMK AO2 SLP309 T00501006 $=
202103301453 METAR KCLM 301453Z AUTO 21004KT 10SM CLR 01/M02 A3042 RMK AO2 SLP303 T00111017 51009 $=
202103301353 METAR KCLM 301353Z AUTO 23005KT 10SM CLR 00/M02 A3041 RMK AO2 SLP301 T00001022 $=
202103301253 METAR KCLM 301253Z AUTO 22006KT 10SM CLR 01/M02 A3041 RMK AO2 SLP300 T00111022 $=
202103301153 METAR KCLM 301153Z AUTO 22006KT 10SM CLR 02/M02 A3039 RMK AO2 SLP294 T00171022 10050 20017 53007 $=
202103301053 METAR KCLM 301053Z AUTO 24007KT 10SM CLR 03/M02 A3038 RMK AO2 SLP290 T00331022 $=
202103300953 METAR KCLM 300953Z AUTO 24009KT 10SM CLR 04/M02 A3038 RMK AO2 SLP289 T00391022 $=
202103300853 METAR KCLM 300853Z AUTO 24010KT 10SM CLR 04/M02 A3037 RMK AO2 SLP287 T00391017 53003 $=
202103300753 METAR KCLM 300753Z AUTO 25010KT 10SM CLR 04/M01 A3037 RMK AO2 SLP286 T00441011 $=
202103300653 METAR KCLM 300653Z AUTO 23012KT 10SM CLR 04/M01 A3036 RMK AO2 SLP281 T00391011 401000022 $=
202103300553 METAR KCLM 300553Z AUTO 25010KT 10SM CLR 05/M01 A3036 RMK AO2 SLP284 T00501011 10089 20033 55001 $=
202103300453 METAR KCLM 300453Z AUTO 24011KT 10SM CLR 05/M01 A3036 RMK AO2 SLP283 T00501006 $=
202103300353 METAR KCLM 300353Z AUTO 22006KT 10SM CLR 03/00 A3037 RMK AO2 SLP286 T00330000 $=
202103300253 METAR KCLM 300253Z AUTO 24004KT 10SM CLR 06/01 A3037 RMK AO2 SLP285 T00610011 51008 $=
202103300153 METAR KCLM 300153Z AUTO 30006KT 10SM CLR 08/02 A3036 RMK AO2 SLP284 T00780017 $=
202103300053 METAR KCLM 300053Z AUTO 30008KT 10SM CLR 08/02 A3035 RMK AO2 SLP279 T00830017 $=
202103292353 METAR KCLM 292353Z AUTO 33009KT 290V360 10SM CLR 09/01 A3034 RMK AO2 SLP277 T00890011 10100 20072 56003 $=
202103292253 METAR KCLM 292253Z AUTO 32008KT 290V360 10SM CLR 09/M02 A3035 RMK AO2 SLP279 T00941017 $=
202103292153 METAR KCLM 292153Z AUTO 30010KT 270V340 10SM CLR 10/M04 A3034 RMK AO2 SLP276 T01001044 $=
202103292053 METAR KCLM 292053Z AUTO 29010KT 10SM CLR 09/01 A3035 RMK AO2 SLP280 T00940006 53004 $=
202103291953 METAR KCLM 291953Z AUTO 33008KT 10SM CLR 08/01 A3034 RMK AO2 SLP277 T00830011 $=
202103291853 METAR KCLM 291853Z AUTO 33009KT 10SM CLR 08/00 A3035 RMK AO2 SLP278 T00780000 $=
202103291753 METAR KCLM 291753Z AUTO VRB03KT 10SM FEW042 08/M01 A3034 RMK AO2 SLP276 T00831011 10083 20022 51017 $=
202103291653 METAR KCLM 291653Z AUTO 23008KT 10SM CLR 07/M01 A3033 RMK AO2 SLP274 T00721011 $=
202103291553 METAR KCLM 291553Z AUTO 24009KT 10SM CLR 03/M02 A3031 RMK AO2 SLP265 T00331022 $=
202103291453 METAR KCLM 291453Z AUTO 24008KT 10SM CLR 02/M02 A3029 RMK AO2 SLP259 T00221022 53023 $=
202103291353 METAR KCLM 291353Z AUTO 24008KT 10SM CLR 02/M02 A3026 RMK AO2 SLP247 T00221022 $=
202103291253 METAR KCLM 291253Z AUTO 27008KT 10SM CLR 03/M02 A3024 RMK AO2 SLP243 T00281022 $=
202103291153 METAR KCLM 291153Z AUTO 26010KT 10SM CLR 03/M02 A3022 RMK AO2 SLP236 70029 T00281022 10050 20028 51027 $=
202103291053 METAR KCLM 291053Z AUTO 24011KT 10SM CLR 03/M03 A3021 RMK AO2 SLP231 T00331028 $=
202103290953 METAR KCLM 290953Z AUTO 26014G26KT 10SM FEW034 05/M02 A3017 RMK AO2 PK WND 26026/0948 SLP220 T00501022 $=
202103290853 METAR KCLM 290853Z AUTO 26013G25KT 10SM CLR 05/M02 A3014 RMK AO2 SLP208 T00501022 51041 $=
202103290753 METAR KCLM 290753Z AUTO 27014G22KT 10SM FEW037 SCT085 04/M02 A3011 RMK AO2 SLP199 T00441022 400940044 $=
202103290653 METAR KCLM 290653Z AUTO 27009G20KT 10SM CLR 05/M02 A3007 RMK AO2 SLP183 T00501022 $=
202103290553 METAR KCLM 290553Z AUTO 26018G27KT 10SM FEW038 05/M02 A3002 RMK AO2 PK WND 26029/0455 SLP167 60002 T00501022 10061 20050 51028 $=
202103290453 METAR KCLM 290453Z AUTO 27018G30KT 10SM BKN039 06/M02 A3000 RMK AO2 PK WND 26030/0450 SLP160 T00561022 $=
202103290353 METAR KCLM 290353Z AUTO 27015G26KT 10SM SCT041 05/M01 A2996 RMK AO2 PK WND 25026/0308 RAB0257E07 SLP146 P0001 T00501011 $=
202103290253 METAR KCLM 290253Z AUTO 27016G28KT 10SM FEW060 BKN070 BKN085 06/M01 A2993 RMK AO2 PK WND 25030/0204 RAB00E09 SLP138 P0000 60001 T00561011 53018 $=
202103290153 METAR KCLM 290153Z AUTO 25017G26KT 10SM FEW032 BKN070 OVC090 06/M01 A2990 RMK AO2 PK WND 25026/0149 SLP126 T00561006=
202103290053 METAR KCLM 290053Z AUTO 26017KT 10SM FEW016 SCT041 BKN055 05/01 A2989 RMK AO2 PK WND 25036/0032 RAE44 SLP122 P0001 T00500006=
202103290049 SPECI KCLM 290049Z AUTO 25015KT 10SM FEW018 SCT036 BKN055 05/01 A2988 RMK AO2 PK WND 25036/0032 RAE44 P0001=
202103290017 SPECI KCLM 290017Z AUTO 26013G26KT 9SM -RA FEW016 BKN026 OVC045 05/02 A2986 RMK AO2 PK WND 25032/2356 P0001 T00500017=
202103282353 METAR KCLM 282353Z AUTO 27012G24KT 10SM -RA SCT030 BKN047 06/01 A2985 RMK AO2 PK WND 25027/2300 RAB47 SLP110 P0000 60025 T00610006 10089 20050 53009=
202103282253 METAR KCLM 282253Z AUTO 27013G21KT 10SM SCT036 07/03 A2983 RMK AO2 PK WND 26028/2202 RAE36 SLP102 P0001 T00670028=
202103282153 METAR KCLM 282153Z AUTO 29008G18KT 10SM -RA SCT024 BKN036 OVC060 07/03 A2982 RMK AO2 PK WND 25033/2116 SLP101 P0001 T00670028=
202103282114 SPECI KCLM 282114Z AUTO 25013G17KT 10SM -RA BKN033 OVC048 06/02 A2982 RMK AO2 P0000 T00560022=
202103282106 SPECI KCLM 282106Z AUTO 26009G17KT 10SM -RA BKN028 OVC038 05/02 A2983 RMK AO2 P0000 T00500022=
202103282053 METAR KCLM 282053Z AUTO 28009G22KT 10SM -RA BKN030 OVC038 06/02 A2982 RMK AO2 PK WND 29034/2006 SLP100 P0005 60023 T00560022 53005=
202103282036 SPECI KCLM 282036Z AUTO 29012G22KT 10SM -RA BKN033 BKN041 OVC050 05/03 A2981 RMK AO2 PK WND 29034/2006 P0004 T00500028=
202103282015 SPECI KCLM 282015Z AUTO 29019G34KT 4SM -RA BR SCT007 BKN016 OVC022 05/03 A2981 RMK AO2 PK WND 29034/2006 P0004 T00500028=
202103282001 SPECI KCLM 282001Z AUTO 28015G24KT 2 1/2SM RA BR BKN007 BKN014 OVC020 05/03 A2980 RMK AO2 P0002 T00500033=
202103281953 METAR KCLM 281953Z AUTO 30013G23KT 2 1/2SM -RA BR SCT007 BKN015 OVC025 05/03 A2980 RMK AO2 PK WND 28034/1938 WSHFT 1927 SLP094 P0013 T00500033=
202103281946 SPECI KCLM 281946Z AUTO 29015G34KT 2 1/2SM RA BR FEW007 SCT012 OVC029 05/03 A2981 RMK AO2 PK WND 28034/1938 WSHFT 1927 P0011 T00500033=
202103281941 SPECI KCLM 281941Z AUTO 29018G34KT 5SM -RA BR FEW009 BKN033 OVC046 06/04 A2981 RMK AO2 PK WND 28034/1938 WSHFT 1927 PRESRR P0010 T00610039=
202103281926 SPECI KCLM 281926Z AUTO 24014G19KT 3SM -RA BKN038 OVC048 07/04 A2975 RMK AO2 P0007 T00720044=
202103281917 SPECI KCLM 281917Z AUTO 26010KT 2 1/2SM RA BKN041 OVC048 08/04 A2974 RMK AO2 P0005 T00780044=
202103281853 METAR KCLM 281853Z AUTO 20012G27KT 160V220 4SM -RA BKN044 OVC055 08/04 A2975 RMK AO2 PK WND 20028/1833 SLP075 P0005 T00830039=
202103281753 METAR KCLM 281753Z AUTO VRB05KT 8SM -RA BKN045 OVC055 09/05 A2981 RMK AO2 SLP094 P0001 60002 T00890050 10094 20067 56038=
202103281653 METAR KCLM 281653Z AUTO 27012KT 10SM -RA OVC046 09/04 A2985 RMK AO2 RAB20 SLP107 P0001 T00890039=
202103281553 METAR KCLM 281553Z AUTO 00000KT 10SM BKN075 OVC100 08/05 A2988 RMK AO2 RAB18E27 SLP120 P0000 T00780050=
202103281453 METAR KCLM 281453Z AUTO 12009KT 10SM FEW050 BKN065 OVC080 07/05 A2992 RMK AO2 SLP134 T00670050 58040=
202103281421 SPECI KCLM 281421Z AUTO 12008KT 10SM SCT009 OVC065 07/05 A2994 RMK AO2 PRESFR T00670050=
202103281353 METAR KCLM 281353Z AUTO 12007KT 10SM BKN009 BKN013 OVC110 07/05 A2997 RMK AO2 SLP151 T00670050=
202103281332 SPECI KCLM 281332Z AUTO 11005KT 10SM BKN009 OVC110 07/05 A2997 RMK AO2 CIG 007V013 T00670050=
202103281253 METAR KCLM 281253Z AUTO 12007KT 10SM OVC012 07/05 A3000 RMK AO2 SLP161 T00670050=
202103281153 METAR KCLM 281153Z AUTO 12006KT 10SM OVC012 07/05 A3004 RMK AO2 SLP175 T00670050 10072 20061 56035=
202103281139 SPECI KCLM 281139Z AUTO 10003KT 10SM BKN012 BKN120 07/04 A3005 RMK AO2 T00670044=
202103281103 SPECI KCLM 281103Z AUTO 13007KT 10SM SCT011 06/04 A3007 RMK AO2 T00610044=
202103281053 METAR KCLM 281053Z AUTO 12005KT 10SM BKN012 07/04 A3008 RMK AO2 SLP187 T00670044=
202103281003 SPECI KCLM 281003Z AUTO 05003KT 10SM BKN011 BKN100 06/04 A3010 RMK AO2 T00610044=
202103280953 METAR KCLM 280953Z AUTO 07005KT 10SM SCT011 BKN100 06/04 A3010 RMK AO2 SLP195 T00610044=
202103280928 SPECI KCLM 280928Z AUTO 17003KT 10SM SCT012 SCT110 07/04 A3012 RMK AO2 T00670044=
202103280853 METAR KCLM 280853Z AUTO 00000KT 10SM OVC012 07/05 A3014 RMK AO2 SLP209 T00720050 58017=
202103280753 METAR KCLM 280753Z AUTO 22003KT 10SM OVC010 07/05 A3017 RMK AO2 SLP216 T00720050 400940039=
202103280718 SPECI KCLM 280718Z AUTO 27003KT 10SM OVC009 07/05 A3019 RMK AO2 T00670050=
202103280653 METAR KCLM 280653Z AUTO 26005KT 10SM OVC010 07/05 A3019 RMK AO2 SLP225 T00720050=
202103280651 SPECI KCLM 280651Z AUTO 27006KT 10SM OVC010 07/05 A3019 RMK AO2=
202103280553 METAR KCLM 280553Z AUTO 27005KT 10SM OVC009 07/05 A3023 RMK AO2 CIG 007V012 SLP237 T00720050 10083 20072 58016=
202103280453 METAR KCLM 280453Z AUTO 29006KT 10SM OVC008 07/05 A3025 RMK AO2 SLP245 T00720050=
202103280404 SPECI KCLM 280404Z AUTO 27004KT 10SM OVC009 07/05 A3026 RMK AO2 T00720050=
202103280353 METAR KCLM 280353Z AUTO 27006KT 10SM OVC010 07/05 A3027 RMK AO2 SLP251 T00720050=
202103280253 METAR KCLM 280253Z AUTO 29005KT 10SM OVC013 07/04 A3027 RMK AO2 SLP254 T00720044 56022=
202103280153 METAR KCLM 280153Z AUTO 30004KT 10SM OVC013 08/04 A3029 RMK AO2 SLP260 T00780044=
202103280053 METAR KCLM 280053Z AUTO 30003KT 10SM OVC013 08/04 A3031 RMK AO2 SLP267 T00830044=
202103272353 METAR KCLM 272353Z AUTO 30004KT 10SM OVC013 08/04 A3034 RMK AO2 SLP276 T00830044 10094 20078 56016=
202103272311 SPECI KCLM 272311Z AUTO 29005KT 10SM OVC013 08/05 A3035 RMK AO2 T00830050=
202103272253 METAR KCLM 272253Z AUTO 29008KT 10SM OVC015 08/05 A3036 RMK AO2 SLP283 T00830050=
202103272245 SPECI KCLM 272245Z AUTO 31007KT 10SM OVC016 08/04 A3036 RMK AO2 T00830044=
202103272153 METAR KCLM 272153Z AUTO VRB04KT 10SM OVC014 08/05 A3036 RMK AO2 SLP282 T00830050=
202103272053 METAR KCLM 272053Z AUTO VRB04KT 10SM OVC014 08/04 A3039 RMK AO2 SLP292 T00780044 56006=
202103271953 METAR KCLM 271953Z AUTO 33005KT 10SM OVC023 09/04 A3039 RMK AO2 SLP294 T00890039=
202103271924 SPECI KCLM 271924Z AUTO 36005KT 10SM BKN024 09/03 A3040 RMK AO2 T00890033=
202103271853 METAR KCLM 271853Z AUTO 03007KT 10SM FEW021 09/03 A3039 RMK AO2 SLP292 T00890033=
202103271829 SPECI KCLM 271829Z AUTO VRB04KT 10SM SCT023 09/03 A3038 RMK AO2 T00890033=
202103271808 SPECI KCLM 271808Z AUTO VRB04KT 10SM BKN024 09/03 A3040 RMK AO2 T00890033=
202103271753 METAR KCLM 271753Z AUTO 07004KT 10SM FEW023 09/03 A3041 RMK AO2 SLP298 T00890033 10089 20039 57001=
202103271725 SPECI KCLM 271725Z AUTO 00000KT 10SM SCT019 08/03 A3041 RMK AO2 T00780028=
202103271653 METAR KCLM 271653Z AUTO 00000KT 10SM BKN021 08/02 A3040 RMK AO2 SLP297 T00780022=
202103271553 METAR KCLM 271553Z AUTO 23004KT 10SM OVC021 07/03 A3041 RMK AO2 SLP301 T00670033=
202103271453 METAR KCLM 271453Z AUTO 23005KT 10SM OVC020 06/03 A3041 RMK AO2 SLP300 T00560028 53004=
202103271353 METAR KCLM 271353Z AUTO 21004KT 10SM OVC022 04/02 A3040 RMK AO2 SLP296 T00440022=
202103271316 SPECI KCLM 271316Z AUTO 22004KT 10SM FEW019 BKN024 05/02 A3039 RMK AO2 T00500022=
202103271253 METAR KCLM 271253Z AUTO 22004KT 10SM SCT022 05/02 A3039 RMK AO2 SLP292 T00500022=
202103271153 METAR KCLM 271153Z AUTO 22005KT 10SM BKN022 06/03 A3040 RMK AO2 SLP295 T00610028 10067 20056 50002=
202103271053 METAR KCLM 271053Z AUTO 25005KT 10SM OVC021 07/03 A3040 RMK AO2 SLP295 T00670028=
202103270953 METAR KCLM 270953Z AUTO 26005KT 10SM OVC021 06/02 A3040 RMK AO2 SLP294 T00610022=
202103270853 METAR KCLM 270853Z AUTO 25005KT 10SM OVC023 06/02 A3039 RMK AO2 SLP293 T00610022 51014=
202103270753 METAR KCLM 270753Z AUTO 25006KT 10SM BKN023 06/02 A3038 RMK AO2 SLP291 T00610022 401060022=
202103270653 METAR KCLM 270653Z AUTO 26007KT 10SM SCT023 06/03 A3037 RMK AO2 SLP286 T00610028=
202103270642 SPECI KCLM 270642Z AUTO 27009KT 10SM BKN023 06/03 A3037 RMK AO2 T00610028=
202103270620 SPECI KCLM 270620Z AUTO 27010KT 10SM SCT021 06/03 A3037 RMK AO2 T00610028=
202103270553 METAR KCLM 270553Z AUTO 27008KT 10SM OVC020 07/03 A3035 RMK AO2 SLP279 T00670033 10100 20067 51010=
202103270453 METAR KCLM 270453Z AUTO 28007KT 10SM OVC023 07/03 A3034 RMK AO2 SLP275 T00720033=
202103270353 METAR KCLM 270353Z AUTO 29007KT 10SM OVC026 08/04 A3035 RMK AO2 SLP278 T00830039=
202103270253 METAR KCLM 270253Z AUTO 30004KT 10SM BKN024 OVC030 08/04 A3032 RMK AO2 SLP269 T00780044 51012=
202103270153 METAR KCLM 270153Z AUTO 29006KT 10SM OVC023 08/04 A3031 RMK AO2 SLP267 T00830044=
202103270104 SPECI KCLM 270104Z AUTO VRB05KT 10SM BKN024 OVC033 09/04 A3030 RMK AO2 T00890044=
202103270053 METAR KCLM 270053Z AUTO 28008KT 10SM SCT027 OVC033 09/04 A3030 RMK AO2 SLP263 T00890044=
202103262353 METAR KCLM 262353Z AUTO 34006KT 10SM OVC033 10/04 A3028 RMK AO2 SLP257 T01000039 10106 20089 52009=
202103262253 METAR KCLM 262253Z AUTO 00000KT 10SM OVC032 10/04 A3027 RMK AO2 SLP253 T01000044=
202103262153 METAR KCLM 262153Z AUTO VRB04KT 10SM SCT035 10/04 A3027 RMK AO2 SLP251 T01000039=
202103262053 METAR KCLM 262053Z AUTO VRB03KT 10SM OVC090 09/04 A3026 RMK AO2 SLP247 T00940039 51006=
202103261953 METAR KCLM 261953Z AUTO 33005KT 10SM BKN090 09/04 A3025 RMK AO2 SLP246 T00940039=
202103261853 METAR KCLM 261853Z AUTO 35005KT 10SM OVC070 09/04 A3025 RMK AO2 SLP244 T00890039=
202103261753 METAR KCLM 261753Z AUTO 36004KT 10SM FEW018 09/04 A3024 RMK AO2 SLP241 T00890039 10094 20022 51020=
202103261713 SPECI KCLM 261713Z AUTO 34006KT 10SM FEW016 08/04 A3023 RMK AO2 T00830039=
202103261703 SPECI KCLM 261703Z AUTO 35005KT 10SM BKN016 08/04 A3023 RMK AO2 T00830039=
202103261653 METAR KCLM 261653Z AUTO VRB04KT 10SM SCT016 08/04 A3022 RMK AO2 SLP236 T00780039=
202103261553 METAR KCLM 261553Z AUTO 24004KT 10SM CLR 07/03 A3020 RMK AO2 SLP230 T00720028=
202103261453 METAR KCLM 261453Z AUTO 23008KT 10SM CLR 04/01 A3018 RMK AO2 SLP221 T00390011 51014=
202103261353 METAR KCLM 261353Z AUTO 23007KT 10SM CLR 03/01 A3016 RMK AO2 SLP214 T00330011=
202103261253 METAR KCLM 261253Z AUTO 22006KT 10SM CLR 04/01 A3016 RMK AO2 SLP215 T00390011=
202103261153 METAR KCLM 261153Z AUTO 23006KT 10SM CLR 04/01 A3014 RMK AO2 SLP207 70010 T00390011 10067 20033 53007=
202103261053 METAR KCLM 261053Z AUTO 23007KT 10SM CLR 04/01 A3013 RMK AO2 SLP204 T00390011=
202103260953 METAR KCLM 260953Z AUTO 23007KT 10SM CLR 06/02 A3012 RMK AO2 SLP201 T00560017=
202103260853 METAR KCLM 260853Z AUTO 26010KT 10SM CLR 06/02 A3012 RMK AO2 SLP200 T00560017 53008=
202103260753 METAR KCLM 260753Z AUTO 25012KT 10SM CLR 06/02 A3011 RMK AO2 SLP199 T00560022 401170044=
202103260653 METAR KCLM 260653Z AUTO 26009KT 10SM CLR 06/02 A3009 RMK AO2 SLP192 T00560022=
202103260553 METAR KCLM 260553Z AUTO 25009KT 10SM CLR 07/03 A3009 RMK AO2 SLP192 T00670028 10117 20044 53022=
202103260453 METAR KCLM 260453Z AUTO 24006KT 10SM CLR 07/03 A3007 RMK AO2 SLP184 T00670028=
202103260353 METAR KCLM 260353Z AUTO 23004KT 10SM CLR 05/02 A3004 RMK AO2 SLP175 T00500022=
202103260253 METAR KCLM 260253Z AUTO 00000KT 10SM CLR 07/02 A3003 RMK AO2 SLP170 T00670022 51012=
202103260153 METAR KCLM 260153Z AUTO 00000KT 10SM CLR 10/02 A3002 RMK AO2 SLP168 T01000017=
202103260053 METAR KCLM 260053Z AUTO 00000KT 10SM CLR 11/02 A3001 RMK AO2 SLP162 T01110017=
202103252353 METAR KCLM 252353Z AUTO 08004KT 10SM CLR 11/02 A2999 RMK AO2 SLP157 T01110017 10111 20083 53006=
202103252253 METAR KCLM 252253Z AUTO 00000KT 10SM CLR 11/02 A2997 RMK AO2 SLP151 T01060022=
202103252153 METAR KCLM 252153Z AUTO VRB04KT 10SM CLR 11/03 A2997 RMK AO2 SLP151 T01060028=
202103252053 METAR KCLM 252053Z AUTO 07007KT 10SM CLR 10/03 A2997 RMK AO2 SLP151 T01000028 53008=
202103251953 METAR KCLM 251953Z AUTO 08009KT 10SM FEW028 09/02 A2996 RMK AO2 SLP147 T00940022=
202103251917 SPECI KCLM 251917Z AUTO 10006KT 10SM SCT030 09/03 A2995 RMK AO2 T00940028=
202103251853 METAR KCLM 251853Z AUTO VRB03KT 10SM BKN027 BKN055 08/02 A2995 RMK AO2 SLP144 T00830022=
202103251850 SPECI KCLM 251850Z AUTO 02004KT 10SM BKN027 BKN055 09/02 A2995 RMK AO2=
202103251753 METAR KCLM 251753Z AUTO 10007KT 10SM FEW022 SCT031 09/03 A2992 RMK AO2 SLP134 60010 T00890028 10089 20050 51023=
202103251653 METAR KCLM 251653Z AUTO 09006KT 10SM OVC055 07/03 A2991 RMK AO2 SLP130 T00720028=
202103251606 SPECI KCLM 251606Z AUTO 15008KT 10SM BKN033 OVC060 06/04 A2988 RMK AO2 T00560039=
202103251553 METAR KCLM 251553Z AUTO 14008KT 10SM BKN029 BKN034 OVC055 06/04 A2987 RMK AO2 RAE37 SLP117 P0000 T00560039=
202103251522 SPECI KCLM 251522Z AUTO 10005KT 6SM -RA BR FEW007 BKN021 OVC040 06/04 A2986 RMK AO2 P0000 T00610044=
202103251453 METAR KCLM 251453Z AUTO 00000KT 3SM -RA BR BKN022 OVC032 06/04 A2985 RMK AO2 RAB44 SLP111 P0001 60010 T00560044 53024=
202103251432 SPECI KCLM 251432Z AUTO 26003KT 10SM BKN020 BKN037 OVC065 05/04 A2984 RMK AO2 T00500039=
202103251353 METAR KCLM 251353Z AUTO 00000KT 10SM OVC041 06/03 A2982 RMK AO2 RAE50 SLP099 P0005 T00560033=
202103251342 SPECI KCLM 251342Z AUTO 00000KT 10SM -RA OVC033 06/04 A2981 RMK AO2 P0005 T00560039=
202103251330 SPECI KCLM 251330Z AUTO VRB03KT 5SM -RA BR OVC029 06/04 A2980 RMK AO2 P0005 T00560039=
202103251253 METAR KCLM 251253Z AUTO 20004KT 6SM -RA BR OVC033 06/04 A2979 RMK AO2 SLP090 P0004 T00610039=
202103251219 SPECI KCLM 251219Z AUTO 20005KT 6SM -RA BR OVC031 06/05 A2978 RMK AO2 P0002 T00610050=
202103251153 METAR KCLM 251153Z AUTO 19003KT 8SM -RA FEW006 BKN024 OVC029 07/06 A2978 RMK AO2 SLP086 P0002 60004 70026 T00670056 10072 20056 53001=
202103251145 SPECI KCLM 251145Z AUTO 00000KT 5SM -RA BR FEW006 OVC021 07/06 A2978 RMK AO2 P0002 T00670056=
202103251053 METAR KCLM 251053Z AUTO 00000KT 8SM -RA BKN009 OVC021 06/06 A2978 RMK AO2 CIG 006V012 SLP085 P0002 T00610056=
202103251026 SPECI KCLM 251026Z AUTO 00000KT 8SM -RA BKN022 OVC036 06/06 A2977 RMK AO2 P0002 T00610056=
202103250953 METAR KCLM 250953Z AUTO 00000KT 9SM -RA OVC042 06/05 A2977 RMK AO2 RAB34 SLP081 P0000 T00610050=
202103250853 METAR KCLM 250853Z AUTO 00000KT 10SM OVC045 06/05 A2978 RMK AO2 RAE43 SLP085 P0000 60000 T00610050 55002=
202103250753 METAR KCLM 250753Z AUTO 00000KT 10SM -RA OVC045 06/06 A2978 RMK AO2 RAB0658 SLP085 P0000 T00610056 400940050=
202103250653 METAR KCLM 250653Z AUTO 25005KT 10SM SCT044 BKN050 OVC080 07/05 A2978 RMK AO2 SLP085 T00670050=
202103250553 METAR KCLM 250553Z AUTO 28004KT 10SM FEW012 OVC046 07/05 A2978 RMK AO2 SLP087 60003 T00670050 10089 20067 58003=
202103250453 METAR KCLM 250453Z AUTO 30003KT 10SM BKN055 BKN095 OVC110 07/06 A2979 RMK AO2 SLP088 T00670056=
202103250353 METAR KCLM 250353Z AUTO 25005KT 10SM BKN041 OVC049 07/06 A2980 RMK AO2 RAE20 SLP092 P0000 T00720056=
202103250253 METAR KCLM 250253Z AUTO 29009KT 10SM -RA OVC035 07/06 A2979 RMK AO2 RAE09B18 SLP090 P0002 60003 T00720061 55006=
202103250235 SPECI KCLM 250235Z AUTO 29008KT 9SM -RA SCT004 OVC037 07/06 A2979 RMK AO2 RAE09B18 P0001 T00720061=
202103250214 SPECI KCLM 250214Z AUTO 30011KT 7SM BKN004 OVC030 07/06 A2979 RMK AO2 RAE09 P0000 T00720061=
202103250153 METAR KCLM 250153Z AUTO 29011G18KT 5SM -RA BR SCT006 BKN012 OVC041 08/06 A2979 RMK AO2 RAB19 SLP088 P0001 T00780061=
202103250141 SPECI KCLM 250141Z AUTO 30012G16KT 10SM -RA FEW006 BKN012 OVC035 08/06 A2979 RMK AO2 RAB19 P0001 T00780061=
202103250053 METAR KCLM 250053Z AUTO 32009KT 10SM BKN007 BKN038 OVC090 08/06 A2979 RMK AO2 SLP090 T00830061=
202103250040 SPECI KCLM 250040Z AUTO 31008KT 10SM FEW007 SCT070 OVC090 08/07 A2979 RMK AO2 T00830067=
202103250013 SPECI KCLM 250013Z AUTO 31010G18KT 280V340 10SM FEW011 BKN040 OVC095 09/06 A2980 RMK AO2 T00890061=
202103242353 METAR KCLM 242353Z AUTO 29007KT 10SM SCT011 BKN018 OVC033 09/06 A2981 RMK AO2 SLP096 60005 T00890061 10094 20083 55009=
202103242308 SPECI KCLM 242308Z AUTO 30011KT 10SM BKN012 OVC085 08/06 A2981 RMK AO2 T00830061=
202103242301 SPECI KCLM 242301Z AUTO 31009KT 10SM SCT010 BKN015 OVC085 09/06 A2981 RMK AO2 T00890061=
202103242253 METAR KCLM 242253Z AUTO 30010KT 10SM FEW010 SCT015 BKN080 09/07 A2980 RMK AO2 SLP094 T00890067=
202103242153 METAR KCLM 242153Z AUTO 29013KT 10SM FEW009 SCT090 09/07 A2981 RMK AO2 RAE01 SLP095 P0000 T00890067=
202103242141 SPECI KCLM 242141Z AUTO 29012G19KT 10SM SCT009 SCT013 BKN090 09/07 A2981 RMK AO2 RAE01 P0000 T00940072=
202103242122 SPECI KCLM 242122Z AUTO 30010KT 10SM SCT007 BKN012 OVC095 09/07 A2981 RMK AO2 RAE01 P0000 T00890072=
202103242109 SPECI KCLM 242109Z AUTO 29010KT 10SM BKN008 BKN030 OVC038 09/07 A2982 RMK AO2 RAE01 P0000 T00890072=
202103242053 METAR KCLM 242053Z AUTO 29008KT 6SM -RA BR SCT008 BKN030 OVC037 09/07 A2984 RMK AO2 RAB1951E13B37 SLP105 P0003 60005 T00890072 56008=
202103242051 SPECI KCLM 242051Z AUTO 28009KT 5SM -RA BR SCT008 BKN030 OVC046 09/07 A2984 RMK AO2 RAB1951E13B37 P0003=
202103242029 SPECI KCLM 242029Z AUTO 30014KT 9SM BKN008 BKN027 OVC080 08/07 A2985 RMK AO2 RAB1951E13 P0002 T00830072=
202103241950 METAR KCLM 241950Z AUTO 30012G19KT 9SM FEW006 BKN030 OVC040 09/08 A2985 RMK AO2 RAE06B28E41 SLP108 P0001 T00940078=
202103241949 SPECI KCLM 241949Z AUTO 30012G19KT 10SM SCT006 BKN030 OVC037 09/07 A2985 RMK AO2 RAE06B28E41 P0001=
202103241853 METAR KCLM 241853Z AUTO 28009KT 9SM -RA BKN007 BKN014 OVC031 09/07 A2986 RMK AO2 RAB41 SLP114 P0001 T00890072=
202103241850 SPECI KCLM 241850Z AUTO VRB05KT 8SM -RA BKN007 BKN014 OVC041 09/07 A2986 RMK AO2 RAB41 P0001=
202103241843 SPECI KCLM 241843Z AUTO 32006KT 8SM -RA BKN011 BKN020 OVC042 09/07 A2986 RMK AO2 RAB41 P0000 T00890067=
202103241753 METAR KCLM 241753Z AUTO 19005KT 10SM OVC039 08/05 A2987 RMK AO2 RAE01 SLP116 P0000 60014 T00830050 10083 20050 55019=
202103241653 METAR KCLM 241653Z AUTO 24009KT 10SM -RA OVC042 07/04 A2986 RMK AO2 RAE19B49 SLP115 P0000 T00670044=
202103241553 METAR KCLM 241553Z AUTO 21004KT 7SM -RA OVC046 06/05 A2989 RMK AO2 SLP124 P0003 T00610050=
202103241453 METAR KCLM 241453Z AUTO VRB03KT 7SM -RA OVC042 06/04 A2992 RMK AO2 SLP135 P0006 60011 T00560044 56047=
202103241353 METAR KCLM 241353Z AUTO 15003KT 6SM -RA BR FEW005 SCT014 OVC045 06/04 A2996 RMK AO2 SLP147 P0005 T00560044=
202103241253 METAR KCLM 241253Z AUTO 12005KT 10SM -RA SCT008 BKN055 OVC070 06/04 A3001 RMK AO2 SLP165 P0000 T00560044=
202103241153 METAR KCLM 241153Z AUTO 13006KT 10SM -RA OVC070 06/04 A3006 RMK AO2 RAB46 SLP183 P0000 60003 70003 T00560044 10067 20050 58056=
202103241113 SPECI KCLM 241113Z AUTO 13006KT 10SM FEW004 SCT070 BKN100 05/04 A3009 RMK AO2 PRESFR T00500039=
202103241053 METAR KCLM 241053Z AUTO 08003KT 10SM FEW060 06/04 A3011 RMK AO2 RAE09 SLP199 P0000 T00560044=
202103241013 SPECI KCLM 241013Z AUTO 19004KT 10SM FEW024 BKN048 06/04 A3016 RMK AO2 RAE09 PRESFR P0000 T00560044=
202103240953 METAR KCLM 240953Z AUTO 20004KT 5SM -RA BR BKN017 OVC024 06/04 A3021 RMK AO2 RAB18 SLP232 P0002 T00560044=
202103240853 METAR KCLM 240853Z AUTO 18003KT 10SM BKN017 OVC025 06/04 A3023 RMK AO2 RAB0757E27 SLP239 P0001 60001 T00560044 58039=
202103240818 SPECI KCLM 240818Z AUTO 00000KT 10SM -RA BKN023 BKN028 OVC050 06/04 A3025 RMK AO2 RAB0757 P0001 T00560044=
202103240753 METAR KCLM 240753Z AUTO 00000KT 10SM FEW022 OVC049 06/04 A3028 RMK AO2 RAB06E40 SLP255 P0000 T00610044 401060006=
202103240723 SPECI KCLM 240723Z AUTO 18003KT 7SM -RA SCT025 BKN042 OVC048 06/04 A3030 RMK AO2 RAB06 P0000 T00610044=
202103240653 METAR KCLM 240653Z AUTO 00000KT 10SM SCT020 OVC026 07/04 A3032 RMK AO2 SLP268 T00670044=
202103240553 METAR KCLM 240553Z AUTO 25003KT 10SM OVC018 06/04 A3035 RMK AO2 RAB10E36 SLP278 P0000 60000 T00610044 10089 20061 58026=
202103240453 METAR KCLM 240453Z AUTO 30004KT 10SM OVC017 07/04 A3039 RMK AO2 SLP291 T00720039 TSNO=
202103240353 METAR KCLM 240353Z AUTO 00000KT 10SM OVC016 07/04 A3040 RMK AO2 SLP298 T00720039=
202103240253 METAR KCLM 240253Z AUTO 29007KT 10SM OVC016 07/04 A3043 RMK AO2 SLP305 T00720039 58011=
202103240153 METAR KCLM 240153Z AUTO 30007KT 10SM OVC015 08/04 A3044 RMK AO2 SLP311 T00780039=
202103240111 SPECI KCLM 240111Z AUTO 29009KT 10SM BKN019 OVC032 08/04 A3046 RMK AO2 T00830044=
202103240053 METAR KCLM 240053Z AUTO 29010KT 10SM OVC033 08/04 A3046 RMK AO2 SLP316 T00830044=
202103232353 METAR KCLM 232353Z AUTO 32004KT 10SM SCT033 BKN110 09/03 A3046 RMK AO2 SLP316 T00890033 10106 20072 56015=
202103232253 METAR KCLM 232253Z AUTO 00000KT 10SM FEW032 SCT120 10/03 A3047 RMK AO2 SLP319 T01000033=
202103232153 METAR KCLM 232153Z AUTO 00000KT 10SM CLR 10/03 A3048 RMK AO2 SLP323 T01000028=
202103232107 SPECI KCLM 232107Z AUTO VRB03KT 10SM SCT027 BKN090 BKN110 09/03 A3049 RMK AO2 T00940028=
202103232053 METAR KCLM 232053Z AUTO VRB04KT 10SM BKN027 OVC100 09/03 A3050 RMK AO2 SLP331 T00890033 56003=
202103232050 SPECI KCLM 232050Z AUTO VRB03KT 10SM BKN027 OVC110 09/03 A3050 RMK AO2=
202103232004 SPECI KCLM 232004Z AUTO 36006KT 10SM FEW023 BKN100 08/03 A3050 RMK AO2 T00830028=
202103231953 METAR KCLM 231953Z AUTO VRB05KT 10SM BKN023 09/03 A3050 RMK AO2 SLP331 T00890028=
202103231930 SPECI KCLM 231930Z AUTO VRB05KT 10SM BKN023 08/03 A3052 RMK AO2 T00830028=
202103231918 SPECI KCLM 231918Z AUTO VRB06KT 10SM SCT023 08/03 A3051 RMK AO2 T00830028=
202103231853 METAR KCLM 231853Z AUTO 32006KT 10SM BKN022 08/03 A3051 RMK AO2 SLP334 T00830028=
202103231819 SPECI KCLM 231819Z AUTO VRB06KT 10SM BKN020 08/03 A3050 RMK AO2 T00780028=
202103231753 METAR KCLM 231753Z AUTO VRB06KT 10SM CLR 08/03 A3050 RMK AO2 SLP331 T00830033 10083 20006 51012=
202103231653 METAR KCLM 231653Z AUTO 27004KT 10SM CLR 07/02 A3049 RMK AO2 SLP326 T00720017=
202103231553 METAR KCLM 231553Z AUTO 25009KT 10SM CLR 05/M01 A3049 RMK AO2 SLP325 T00501006=
202103231453 METAR KCLM 231453Z AUTO 22007KT 10SM CLR 03/M01 A3047 RMK AO2 SLP319 T00281011 52018=
202103231353 METAR KCLM 231353Z AUTO 24003KT 10SM CLR 01/M02 A3044 RMK AO2 SLP310 T00111017=
202103231253 METAR KCLM 231253Z AUTO 25011KT 10SM CLR 04/M01 A3044 RMK AO2 SLP309 T00391011=
202103231153 METAR KCLM 231153Z AUTO 25016G19KT 10SM CLR 04/M01 A3041 RMK AO2 SLP300 T00391011 10050 20033 51017=
202103231053 METAR KCLM 231053Z AUTO 24012KT 10SM CLR 04/M01 A3040 RMK AO2 SLP297 T00441011=
202103230953 METAR KCLM 230953Z AUTO 26015KT 10SM FEW055 04/M01 A3038 RMK AO2 SLP289 T00441006=
202103230853 METAR KCLM 230853Z AUTO 26014KT 10SM SCT055 05/M01 A3036 RMK AO2 SLP283 T00501006 51019=
202103230753 METAR KCLM 230753Z AUTO 24010KT 10SM BKN055 04/00 A3035 RMK AO2 SLP279 T00440000 401060039=
202103230653 METAR KCLM 230653Z AUTO 25008KT 10SM BKN055 05/00 A3033 RMK AO2 SLP271 T00500000=
202103230553 METAR KCLM 230553Z AUTO 25007KT 10SM CLR 04/01 A3030 RMK AO2 SLP264 T00440006 10089 20039 51024=
202103230453 METAR KCLM 230453Z AUTO 25008KT 10SM CLR 04/01 A3028 RMK AO2 SLP257 T00440011=
202103230353 METAR KCLM 230353Z AUTO 26007KT 10SM CLR 04/02 A3025 RMK AO2 SLP247 T00440017=
202103230253 METAR KCLM 230253Z AUTO 28009KT 10SM CLR 06/03 A3023 RMK AO2 SLP240 T00610028 53021=
202103230153 METAR KCLM 230153Z AUTO 30008KT 10SM SCT110 07/03 A3021 RMK AO2 SLP231 T00720028=
202103230053 METAR KCLM 230053Z AUTO 31010G17KT 10SM CLR 08/03 A3019 RMK AO2 SLP225 T00830028=
202103222353 METAR KCLM 222353Z AUTO 30012KT 10SM FEW038 08/03 A3017 RMK AO2 SLP218 T00830028 10106 20078 53012=
202103222253 METAR KCLM 222253Z AUTO 29013G20KT 10SM SCT024 BKN037 10/04 A3015 RMK AO2 SLP212 T01000039=
202103222153 METAR KCLM 222153Z AUTO 29014G17KT 10SM SCT027 08/03 A3014 RMK AO2 SLP208 T00780028=
202103221753 METAR KCLM 221753Z AUTO 28015G20KT 10SM BKN040 09/00 A3009 RMK AO2 SLP191 60000 T00940000 10094 20039 53017=
202103221653 METAR KCLM 221653Z AUTO 26013KT 10SM FEW034 08/01 A3007 RMK AO2 SLP185 T00780006=
202103221553 METAR KCLM 221553Z AUTO 25008KT 10SM CLR 06/02 A3005 RMK AO2 SLP177 T00610017=
202103221453 METAR KCLM 221453Z AUTO 26008KT 10SM CLR 04/01 A3004 RMK AO2 SLP174 60000 T00440011 51004=
202103221353 METAR KCLM 221353Z AUTO 24008KT 10SM CLR 04/01 A3004 RMK AO2 SLP173 T00390006=
202103221253 METAR KCLM 221253Z AUTO 22005KT 10SM FEW039 BKN060 04/01 A3003 RMK AO2 RAB30E43 SLP172 P0000 T00440006=
202103221153 METAR KCLM 221153Z AUTO 28010KT 10SM FEW043 05/M01 A3003 RMK AO2 SLP170 60001 70001 T00501006 10067 20050 53012=
202103221053 METAR KCLM 221053Z AUTO 29013KT 10SM CLR 06/01 A3001 RMK AO2 RAB0959E12 SLP164 P0000 T00560011=
202103220953 METAR KCLM 220953Z AUTO 29014G21KT 10SM CLR 06/02 A3000 RMK AO2 RAE0854 SLP159 P0000 T00560022=
202103220853 METAR KCLM 220853Z AUTO 28011G17KT 10SM -RA FEW009 SCT024 OVC055 06/04 A2999 RMK AO2 RAE10B43 SLP158 P0001 60001 T00610039 53005=
202103220842 SPECI KCLM 220842Z AUTO 27009KT 10SM SCT007 BKN025 OVC044 06/04 A2999 RMK AO2 RAE10 P0001 T00610044=
202103220723 SPECI KCLM 220723Z AUTO 00000KT 10SM -RA BKN012 BKN021 OVC045 06/04 A2999 RMK AO2 RAB0655 P0000 T00610044=
202103220653 METAR KCLM 220653Z AUTO 33004KT 10SM FEW037 BKN055 BKN065 06/04 A2998 RMK AO2 RAE14B39E48 SLP153 P0000 T00560039=
202103220553 METAR KCLM 220553Z AUTO 27006KT 10SM -RA BKN055 OVC070 06/03 A2998 RMK AO2 RAB15 SLP153 P0000 60000 T00560033 10072 20056 55019=
202103220453 METAR KCLM 220453Z AUTO 12007KT 10SM SCT060 BKN100 06/03 A2997 RMK AO2 SLP152 T00610028=
202103220353 METAR KCLM 220353Z AUTO 10003KT 10SM SCT055 BKN100 06/02 A3000 RMK AO2 SLP160 T00610022=
202103220253 METAR KCLM 220253Z AUTO 08006KT 10SM BKN065 OVC080 06/03 A3004 RMK AO2 SLP173 T00610028 58028=
202103220153 METAR KCLM 220153Z AUTO 08006KT 10SM OVC065 07/02 A3007 RMK AO2 SLP184 T00670022=
202103220053 METAR KCLM 220053Z AUTO 02004KT 10SM OVC070 07/02 A3010 RMK AO2 SLP196 T00670022=
202103212353 METAR KCLM 212353Z AUTO VRB04KT 10SM FEW060 BKN110 07/02 A3012 RMK AO2 SLP202 T00720022 10083 20067 58031=
202103212253 METAR KCLM 212253Z AUTO 02004KT 10SM FEW047 BKN060 OVC070 08/02 A3016 RMK AO2 SLP214 T00780022=
202103212153 METAR KCLM 212153Z AUTO 36004KT 10SM FEW042 SCT055 08/02 A3018 RMK AO2 SLP222 T00780022=
202103212053 METAR KCLM 212053Z AUTO 03003KT 10SM OVC095 08/01 A3021 RMK AO2 SLP233 T00830006 58021=
202103211953 METAR KCLM 211953Z AUTO 00000KT 10SM FEW040 BKN055 OVC065 08/02 A3024 RMK AO2 SLP243 T00780022=
202103211853 METAR KCLM 211853Z AUTO 34003KT 10SM FEW042 OVC065 07/01 A3025 RMK AO2 SLP247 T00720011=
202103211753 METAR KCLM 211753Z AUTO 09003KT 10SM OVC070 07/03 A3028 RMK AO2 SLP254 60000 T00670028 10067 20039 58003=
202103211653 METAR KCLM 211653Z AUTO VRB03KT 10SM BKN050 OVC065 07/02 A3029 RMK AO2 RAB10E23 SLP258 P0000 T00670017=
202103211553 METAR KCLM 211553Z AUTO 00000KT 10SM BKN050 OVC060 06/M01 A3028 RMK AO2 SLP257 T00611006=
202103211453 METAR KCLM 211453Z AUTO 24004KT 10SM OVC060 04/01 A3029 RMK AO2 SLP258 T00440006 58006=
202103211353 METAR KCLM 211353Z AUTO 00000KT 10SM OVC060 04/01 A3030 RMK AO2 SLP262 T00440006=
202103211253 METAR KCLM 211253Z AUTO 00000KT 10SM OVC050 05/00 A3031 RMK AO2 SLP266 T00500000=
202103211153 METAR KCLM 211153Z AUTO 00000KT 10SM OVC048 04/00 A3030 RMK AO2 SLP264 70002 T00440000 10056 20044 58006=
202103211053 METAR KCLM 211053Z AUTO VRB03KT 10SM OVC049 05/00 A3032 RMK AO2 SLP269 T00500000=
202103210953 METAR KCLM 210953Z AUTO 29004KT 10SM OVC048 05/M01 A3033 RMK AO2 SLP272 T00501006=
202103210853 METAR KCLM 210853Z AUTO 25007KT 10SM BKN055 OVC100 05/M01 A3032 RMK AO2 SLP270 T00501006 52009=
202103210753 METAR KCLM 210753Z AUTO 22005KT 10SM OVC110 05/00 A3032 RMK AO2 SLP269 T00500000 400940033=
202103210653 METAR KCLM 210653Z AUTO 26008KT 10SM OVC120 06/M01 A3030 RMK AO2 SLP263 T00561006=
202103210453 METAR KCLM 210453Z AUTO 27012G21KT 10SM BKN110 06/M02 A3028 RMK AO2 SLP256 T00611022=
202103210353 METAR KCLM 210353Z AUTO 28016G23KT 10SM CLR 06/M02 A3026 RMK AO2 SLP250 T00611017=
202103210253 METAR KCLM 210253Z AUTO 28013G23KT 10SM FEW120 06/M01 A3025 RMK AO2 PK WND 29029/0223 SLP245 T00561011 53018=
202103210153 METAR KCLM 210153Z AUTO 29015G25KT 10SM CLR 06/00 A3022 RMK AO2 SLP236 T00610000=
202103210053 METAR KCLM 210053Z AUTO 29015G22KT 10SM FEW120 07/01 A3021 RMK AO2 PK WND 27026/2354 SLP232 T00720006=
202103202353 METAR KCLM 202353Z AUTO 28015G22KT 10SM SCT040 08/01 A3020 RMK AO2 SLP227 60000 T00830011 10094 20078 53013=
202103202253 METAR KCLM 202253Z AUTO 28014G22KT 10SM OVC035 08/02 A3018 RMK AO2 SLP222 T00830017=
202103202153 METAR KCLM 202153Z AUTO 29016G22KT 10SM BKN038 08/02 A3017 RMK AO2 PK WND 28027/2054 SLP217 T00830022=
202103202053 METAR KCLM 202053Z AUTO 30012G26KT 10SM OVC050 08/04 A3016 RMK AO2 PK WND 28026/2043 SLP214 60000 T00830039 51021=
202103201953 METAR KCLM 201953Z AUTO 30015G25KT 10SM FEW015 SCT021 SCT031 08/05 A3014 RMK AO2 PK WND 30028/1928 RAB13E23B26E35 SLP208 P0000 T00830050=
202103201936 SPECI KCLM 201936Z AUTO 29015G28KT 10SM SCT007 SCT015 BKN030 08/05 A3014 RMK AO2 PK WND 30028/1928 RAB13E23B26E35 P0000 T00830050=
202103201925 SPECI KCLM 201925Z AUTO 30012G21KT 10SM BKN007 BKN012 OVC036 08/06 A3013 RMK AO2 RAB13E23 P0000 T00830061=
202103201853 METAR KCLM 201853Z AUTO 31014G22KT 10SM FEW008 FEW036 BKN065 09/06 A3012 RMK AO2 SLP200 T00890061=
202103201753 METAR KCLM 201753Z AUTO 30010KT 10SM OVC065 09/05 A3010 RMK AO2 SLP193 60002 T00940050 10094 20056 53025=
202103201653 METAR KCLM 201653Z AUTO 27010KT 10SM CLR 08/04 A3007 RMK AO2 SLP184 T00830044=
202103201553 METAR KCLM 201553Z AUTO 25008KT 10SM SCT046 BKN055 BKN080 07/04 A3004 RMK AO2 SLP175 T00670044=
202103201513 SPECI KCLM 201513Z AUTO 25005KT 10SM SCT027 BKN037 OVC050 06/04 A3003 RMK AO2 T00610039=
202103201453 METAR KCLM 201453Z AUTO 26006KT 10SM SCT016 BKN022 OVC028 06/04 A3002 RMK AO2 RAE51 SLP167 P0001 60002 T00560039 53026=
202103201434 SPECI KCLM 201434Z AUTO 26006KT 7SM -RA FEW009 BKN014 OVC040 06/04 A3001 RMK AO2 P0001 T00560039=
202103201425 SPECI KCLM 201425Z AUTO 26008KT 9SM -RA FEW007 BKN020 OVC040 06/04 A3001 RMK AO2 P0000 T00560039=
202103201353 METAR KCLM 201353Z AUTO 25006KT 10SM -RA OVC050 06/03 A2999 RMK AO2 SLP156 P0001 T00560033=
202103201253 METAR KCLM 201253Z AUTO 23007KT 10SM -RA OVC065 06/03 A2997 RMK AO2 RAB53 SLP149 P0000 T00560033=
202103201153 METAR KCLM 201153Z AUTO 22003KT 10SM SCT060 OVC090 04/03 A2994 RMK AO2 SLP141 60008 70020 T00390033 10083 20033 52015=
202103201053 METAR KCLM 201053Z AUTO 20003KT 10SM SCT060 OVC085 04/03 A2993 RMK AO2 SLP136 T00390033=
202103200953 METAR KCLM 200953Z AUTO 00000KT 10SM SCT055 BKN070 04/03 A2991 RMK AO2 SLP131 T00390033=
202103200853 METAR KCLM 200853Z AUTO 21005KT 10SM BKN044 05/03 A2990 RMK AO2 RAB0759E46 SLP126 P0003 60008 T00500033 53012=
202103200753 METAR KCLM 200753Z AUTO 22006KT 10SM SCT045 05/03 A2989 RMK AO2 RAE48 SLP124 P0003 T00500033 401060028=
202103200653 METAR KCLM 200653Z AUTO VRB05G15KT 6SM -RA BKN041 OVC050 07/03 A2987 RMK AO2 RAE0556B41 SLP115 P0002 T00720033=
202103200553 METAR KCLM 200553Z AUTO 20004KT 10SM -RA BKN050 OVC065 06/04 A2986 RMK AO2 RAB32 SLP114 P0000 60004 T00560039 10100 20056 51008=
202103200453 METAR KCLM 200453Z AUTO 25005KT 10SM BKN049 BKN065 06/03 A2985 RMK AO2 RAE35 SLP109 P0002 T00610028=
202103200353 METAR KCLM 200353Z AUTO 22005KT 10SM -RA OVC046 06/04 A2986 RMK AO2 PRESRR SLP113 P0001 T00610044=
202103200253 METAR KCLM 200253Z AUTO 25004KT 8SM -RA BKN038 OVC047 07/04 A2984 RMK AO2 SLP106 P0001 60001 T00670044 56016=
202103200153 METAR KCLM 200153Z AUTO 00000KT 10SM -RA FEW041 OVC047 07/04 A2985 RMK AO2 RAB24 SLP109 P0000 T00720044=
202103200053 METAR KCLM 200053Z AUTO 09007KT 10SM FEW019 BKN049 OVC055 08/04 A2986 RMK AO2 SLP113 T00830039=
202103192353 METAR KCLM 192353Z AUTO VRB03KT 10SM FEW037 BKN047 OVC055 10/06 A2988 RMK AO2 RAB13E26 SLP122 P0000 60001 T01000056 10106 20083 58003=
202103192253 METAR KCLM 192253Z AUTO 23014KT 10SM BKN050 OVC065 09/03 A2989 RMK AO2 RAE06 SLP125 P0000 T00890033=
202103192153 METAR KCLM 192153Z AUTO 24007G16KT 8SM -RA SCT044 BKN055 OVC070 09/04 A2989 RMK AO2 RAB48 SLP122 P0001 T00940039=
202103192053 METAR KCLM 192053Z AUTO 04004KT 10SM OVC070 09/04 A2989 RMK AO2 SLP125 T00940039 58000=
202103191953 METAR KCLM 191953Z AUTO VRB03KT 10SM BKN065 09/04 A2990 RMK AO2 SLP125 T00940044=
202103191853 METAR KCLM 191853Z AUTO VRB04KT 10SM SCT055 BKN070 09/05 A2990 RMK AO2 SLP125 T00890050=
202103191753 METAR KCLM 191753Z AUTO 34004KT 10SM BKN050 OVC065 09/04 A2989 RMK AO2 SLP124 60007 T00940039 10094 20028 51004=
202103191653 METAR KCLM 191653Z AUTO 00000KT 10SM FEW047 SCT060 SCT070 08/04 A2989 RMK AO2 RAE05 SLP124 P0000 T00830039=
202103191553 METAR KCLM 191553Z AUTO 11006KT 10SM -RA BKN039 BKN050 OVC060 07/04 A2989 RMK AO2 SLP124 P0002 T00670044=
202103191453 METAR KCLM 191453Z AUTO 11008KT 10SM -RA OVC045 06/04 A2988 RMK AO2 RAB1354 SLP121 P0003 60005 T00560039 50011=
202103191353 METAR KCLM 191353Z AUTO 25007KT 10SM FEW030 BKN047 06/03 A2989 RMK AO2 RAE1256 SLP125 P0000 T00610028=
202103191253 METAR KCLM 191253Z AUTO 31005KT 10SM -RA BKN036 05/03 A2986 RMK AO2 RAB06 SLP112 P0002 T00500033=
202103191153 METAR KCLM 191153Z AUTO 18004KT 10SM FEW049 04/02 A2985 RMK AO2 PRESRR SLP109 70001 T00390022 10078 20033 53004=
202103191053 METAR KCLM 191053Z AUTO 22005KT 10SM FEW049 FEW060 06/02 A2984 RMK AO2 PRESRR SLP104 T00560022=
202103190953 METAR KCLM 190953Z AUTO 11005KT 10SM FEW065 06/02 A2982 RMK AO2 SLP100 T00560022=
202103190853 METAR KCLM 190853Z AUTO 23003KT 10SM OVC065 06/02 A2984 RMK AO2 SLP104 T00560022 53005=
202103190753 METAR KCLM 190753Z AUTO 00000KT 10SM BKN060 BKN080 04/02 A2981 RMK AO2 SLP095 T00440022 401170022=
202103190653 METAR KCLM 190653Z AUTO 00000KT 10SM SCT060 BKN075 06/02 A2982 RMK AO2 SLP100 T00560022=
202103190553 METAR KCLM 190553Z AUTO VRB03KT 10SM BKN065 07/03 A2982 RMK AO2 SLP099 60000 T00670028 10089 20044 50005=
202103190453 METAR KCLM 190453Z AUTO 00000KT 10SM OVC060 04/03 A2982 RMK AO2 SLP101 T00440028=
202103190353 METAR KCLM 190353Z AUTO 24006KT 10SM FEW110 06/03 A2982 RMK AO2 SLP099 T00610028=
202103190253 METAR KCLM 190253Z AUTO 25013KT 10SM FEW050 BKN110 08/02 A2981 RMK AO2 SLP096 60000 T00780022 53003=
202103190153 METAR KCLM 190153Z AUTO 29006KT 10SM CLR 08/03 A2979 RMK AO2 SLP089 T00780033=
202103190053 METAR KCLM 190053Z AUTO 25006KT 10SM FEW090 BKN110 08/06 A2980 RMK AO2 RAE01 SLP092 P0000 T00830056=
202103182353 METAR KCLM 182353Z AUTO 23005KT 8SM -RA BKN043 OVC055 09/06 A2980 RMK AO2 RAB32 SLP093 P0001 60001 T00890056 10117 20083 53009=
202103182253 METAR KCLM 182253Z AUTO 23007KT 10SM FEW047 SCT060 OVC080 11/04 A2978 RMK AO2 RAB29E39 SLP085 P0000 T01060044=
202103182153 METAR KCLM 182153Z AUTO 30005KT 10SM BKN060 OVC080 12/05 A2977 RMK AO2 RAE17 SLP082 P0000 T01170050=
202103182053 METAR KCLM 182053Z AUTO 29007KT 10SM -RA BKN050 OVC060 11/05 A2977 RMK AO2 RAB04E28B51 SLP083 P0000 60000 T01060050 50002=
202103181953 METAR KCLM 181953Z AUTO 34006KT 10SM BKN055 OVC070 09/04 A2978 RMK AO2 SLP084 T00890039=
202103181853 METAR KCLM 181853Z AUTO 36004KT 10SM OVC055 09/04 A2976 RMK AO2 SLP080 T00890039=
202103181753 METAR KCLM 181753Z AUTO 00000KT 10SM BKN060 OVC070 10/04 A2977 RMK AO2 SLP081 T01000039 10100 20022 53002=
202103181653 METAR KCLM 181653Z AUTO 09005KT 10SM OVC070 08/03 A2976 RMK AO2 SLP079 T00830033=
202103181553 METAR KCLM 181553Z AUTO 00000KT 10SM BKN085 06/03 A2975 RMK AO2 SLP076 T00610033=
202103181453 METAR KCLM 181453Z AUTO 25003KT 10SM BKN085 05/02 A2976 RMK AO2 SLP079 T00500022 55006=
202103181353 METAR KCLM 181353Z AUTO 24006KT 10SM BKN085 04/02 A2976 RMK AO2 SLP078 T00440017=
202103181253 METAR KCLM 181253Z AUTO 22005KT 10SM FEW100 03/01 A2976 RMK AO2 SLP081 T00330011=
202103181153 METAR KCLM 181153Z AUTO 21005KT 10SM CLR 03/01 A2978 RMK AO2 SLP085 T00280006 10050 20017 58020=
202103181053 METAR KCLM 181053Z AUTO 00000KT 10SM CLR 04/01 A2980 RMK AO2 SLP094 T00440011=
202103180953 METAR KCLM 180953Z AUTO 07003KT 10SM CLR 04/01 A2981 RMK AO2 SLP097 T00390011=
202103180853 METAR KCLM 180853Z AUTO 00000KT 10SM CLR 02/01 A2983 RMK AO2 SLP105 T00220011 58017=
202103180753 METAR KCLM 180753Z AUTO 00000KT 10SM CLR 03/02 A2986 RMK AO2 SLP112 T00330017 401061011=
202103180653 METAR KCLM 180653Z AUTO 23003KT 10SM CLR 03/02 A2988 RMK AO2 SLP120 T00280017=
202103180553 METAR KCLM 180553Z AUTO 13003KT 10SM CLR 03/02 A2989 RMK AO2 SLP122 T00280017 10106 20022 58003=
202103180453 METAR KCLM 180453Z AUTO 23007KT 10SM CLR 03/02 A2990 RMK AO2 SLP125 T00330017=
202103180353 METAR KCLM 180353Z AUTO 00000KT 10SM CLR 04/02 A2990 RMK AO2 SLP128 T00390022=
202103180253 METAR KCLM 180253Z AUTO 00000KT 10SM CLR 06/03 A2990 RMK AO2 SLP126 T00610028 56015=
202103180153 METAR KCLM 180153Z AUTO 00000KT 10SM CLR 08/03 A2991 RMK AO2 SLP129 T00830028=
202103180053 METAR KCLM 180053Z AUTO 07003KT 10SM CLR 09/03 A2991 RMK AO2 SLP131 T00940033=
202103172353 METAR KCLM 172353Z AUTO 00000KT 10SM CLR 09/04 A2994 RMK AO2 SLP140 T00940039 10094 20072 58018=
202103172253 METAR KCLM 172253Z AUTO 00000KT 10SM CLR 08/03 A2997 RMK AO2 SLP149 T00830033=
202103172153 METAR KCLM 172153Z AUTO 02005KT 10SM CLR 08/03 A2997 RMK AO2 SLP152 T00780033=
202103172053 METAR KCLM 172053Z AUTO VRB05KT 10SM FEW013 08/03 A2999 RMK AO2 SLP158 T00780033 56020=
202103171953 METAR KCLM 171953Z AUTO 07007KT 10SM CLR 08/03 A3001 RMK AO2 SLP165 T00780033=
202103171853 METAR KCLM 171853Z AUTO 05005KT 10SM CLR 07/03 A3003 RMK AO2 SLP171 T00720028=
202103171753 METAR KCLM 171753Z AUTO 04004KT 10SM CLR 07/03 A3005 RMK AO2 SLP179 T00720028 10072 21011 58002=
202103171653 METAR KCLM 171653Z AUTO 00000KT 10SM CLR 06/02 A3006 RMK AO2 SLP182 T00560017=
202103171553 METAR KCLM 171553Z AUTO 21004KT 10SM CLR 03/01 A3006 RMK AO2 SLP181 T00280006=
202103171453 METAR KCLM 171453Z AUTO 21003KT 10SM CLR 00/M01 A3006 RMK AO2 SLP182 T00001011 58004=
202103171353 METAR KCLM 171353Z AUTO 00000KT 10SM CLR 00/M02 A3007 RMK AO2 SLP185 T00001017=
202103171253 METAR KCLM 171253Z AUTO 00000KT 10SM CLR 00/M02 A3007 RMK AO2 SLP185 T00001017=
202103171153 METAR KCLM 171153Z AUTO 00000KT 10SM CLR 00/M02 A3007 RMK AO2 SLP185 T00001017 10022 21006 55000=
202103171053 METAR KCLM 171053Z AUTO 00000KT 10SM CLR 01/M01 A3007 RMK AO2 SLP185 T00111011=
202103170953 METAR KCLM 170953Z AUTO 21004KT 10SM CLR 02/M01 A3007 RMK AO2 SLP185 T00221006=
202103170853 METAR KCLM 170853Z AUTO 00000KT 10SM CLR 01/M01 A3007 RMK AO2 SLP186 T00061011 56009=
202103170753 METAR KCLM 170753Z AUTO 19003KT 10SM CLR 00/M02 A3008 RMK AO2 SLP188 T00001017 400891006=
202103170653 METAR KCLM 170653Z AUTO 00000KT 10SM CLR 00/M02 A3009 RMK AO2 SLP191 T00001017=
202103170553 METAR KCLM 170553Z AUTO 23005KT 10SM CLR 02/M01 A3010 RMK AO2 SLP195 T00221011 10083 20006 52002=
202103170453 METAR KCLM 170453Z AUTO 21004KT 10SM CLR 02/M02 A3010 RMK AO2 SLP195 T00171017=
202103170353 METAR KCLM 170353Z AUTO 00000KT 10SM CLR 02/M02 A3009 RMK AO2 SLP194 T00221017=
202103170253 METAR KCLM 170253Z AUTO 00000KT 10SM CLR 03/M02 A3009 RMK AO2 SLP193 T00331022 56008=
202103170153 METAR KCLM 170153Z AUTO 11004KT 10SM CLR 07/M03 A3010 RMK AO2 SLP195 T00671033=
202103170053 METAR KCLM 170053Z AUTO 09006KT 10SM CLR 08/M03 A3011 RMK AO2 SLP196 T00781033=
202103162353 METAR KCLM 162353Z AUTO 07005KT 10SM CLR 08/M03 A3012 RMK AO2 SLP200 T00831028 10089 20061 56017=
202103162253 METAR KCLM 162253Z AUTO 09006KT 10SM CLR 08/M02 A3013 RMK AO2 SLP204 T00831017=
202103162153 METAR KCLM 162153Z AUTO VRB05KT 10SM CLR 09/M01 A3014 RMK AO2 SLP209 T00891006=
202103162053 METAR KCLM 162053Z AUTO VRB03KT 10SM CLR 07/01 A3017 RMK AO2 SLP217 T00720006 58012=
202103161953 METAR KCLM 161953Z AUTO VRB04KT 10SM CLR 07/01 A3019 RMK AO2 SLP224 T00720011=
202103161853 METAR KCLM 161853Z AUTO VRB03KT 10SM CLR 07/01 A3019 RMK AO2 SLP225 T00670006=
202103161753 METAR KCLM 161753Z AUTO VRB04KT 10SM CLR 07/M03 A3020 RMK AO2 SLP229 T00671028 10067 20006 56003=
202103161653 METAR KCLM 161653Z AUTO 00000KT 10SM CLR 05/M03 A3020 RMK AO2 SLP230 T00501028=
202103161553 METAR KCLM 161553Z AUTO 00000KT 10SM CLR 02/M03 A3021 RMK AO2 SLP232 T00221033=
202103161453 METAR KCLM 161453Z AUTO 23006KT 10SM CLR 01/M04 A3021 RMK AO2 SLP233 T00061039 55004=
202103161353 METAR KCLM 161353Z AUTO 23007KT 10SM CLR 01/M04 A3021 RMK AO2 SLP233 T00061044=
202103161253 METAR KCLM 161253Z AUTO 23006KT 10SM CLR 01/M04 A3022 RMK AO2 SLP235 T00061039=
202103161153 METAR KCLM 161153Z AUTO 22008KT 10SM CLR 01/M04 A3022 RMK AO2 SLP236 T00111039 10028 20006 58006=
202103161053 METAR KCLM 161053Z AUTO 23008KT 10SM CLR 02/M04 A3023 RMK AO2 SLP239 T00171039=
202103160953 METAR KCLM 160953Z AUTO 25010KT 10SM CLR 01/M04 A3024 RMK AO2 SLP242 T00111039=
202103160853 METAR KCLM 160853Z AUTO 23009KT 10SM CLR 01/M04 A3024 RMK AO2 SLP242 T00111039 58003=
202103160753 METAR KCLM 160753Z AUTO 25007KT 10SM CLR 01/M03 A3025 RMK AO2 SLP244 T00111033 400780000=
202103160653 METAR KCLM 160653Z AUTO 24009KT 10SM CLR 02/M03 A3025 RMK AO2 SLP246 T00171033=
202103160553 METAR KCLM 160553Z AUTO 24009KT 10SM CLR 02/M03 A3025 RMK AO2 SLP245 T00221028 10078 20000 51007=
202103160453 METAR KCLM 160453Z AUTO 24007KT 10SM CLR 02/M03 A3025 RMK AO2 SLP246 T00171028=
202103160353 METAR KCLM 160353Z AUTO 21004KT 10SM CLR 01/M03 A3024 RMK AO2 SLP244 T00061028=
202103160253 METAR KCLM 160253Z AUTO 21003KT 10SM CLR 02/M03 A3023 RMK AO2 SLP239 T00221028 53002=
202103160153 METAR KCLM 160153Z AUTO 00000KT 10SM CLR 06/M03 A3022 RMK AO2 SLP236 T00611033=
202103160053 METAR KCLM 160053Z AUTO 34003KT 10SM CLR 07/M04 A3022 RMK AO2 SLP236 T00671039=
202103152353 METAR KCLM 152353Z AUTO VRB03KT 10SM CLR 08/M04 A3022 RMK AO2 SLP235 T00781044 10078 20050 53000=
202103152253 METAR KCLM 152253Z AUTO VRB03KT 10SM CLR 07/M05 A3022 RMK AO2 SLP234 T00721050=
202103152153 METAR KCLM 152153Z AUTO 02004KT 10SM CLR 07/M04 A3022 RMK AO2 SLP234 T00671044=
202103152053 METAR KCLM 152053Z AUTO VRB03KT 10SM CLR 07/M04 A3022 RMK AO2 SLP235 T00671044 50004=
202103151953 METAR KCLM 151953Z AUTO 36006KT 10SM CLR 06/M04 A3022 RMK AO2 SLP236 T00611039=
202103151853 METAR KCLM 151853Z AUTO 07004KT 10SM OVC046 05/M04 A3022 RMK AO2 SLP235 T00501039=
202103151753 METAR KCLM 151753Z AUTO VRB04KT 10SM CLR 06/M05 A3021 RMK AO2 SLP231 T00561050 10061 20006 53015=
202103151653 METAR KCLM 151653Z AUTO 13004KT 10SM CLR 05/M03 A3019 RMK AO2 SLP225 T00501033=
202103151553 METAR KCLM 151553Z AUTO 13008KT 10SM CLR 02/M01 A3018 RMK AO2 SLP221 T00221011=
202103151521 SPECI KCLM 151521Z AUTO 12007KT 10SM FEW024 SCT065 01/M01 A3017 RMK AO2 T00061011=
202103151500 SPECI KCLM 151500Z AUTO 12007KT 10SM SCT010 SCT016 OVC024 01/M01 A3017 RMK AO2 T00111006=
202103151453 METAR KCLM 151453Z AUTO 10006KT 10SM BKN012 BKN019 OVC024 01/M01 A3016 RMK AO2 SLP218 T00111006 51015=
202103151451 SPECI KCLM 151451Z AUTO 11006KT 10SM BKN012 BKN019 OVC024 01/M01 A3016 RMK AO2=
202103151411 SPECI KCLM 151411Z AUTO 00000KT 10SM FEW009 BKN017 OVC060 02/M01 A3015 RMK AO2 T00171011=
202103151353 METAR KCLM 151353Z AUTO 23005KT 10SM FEW025 SCT037 OVC060 01/M02 A3014 RMK AO2 SLP209 T00111022=
202103151253 METAR KCLM 151253Z AUTO 27008KT 10SM FEW050 01/M04 A3012 RMK AO2 SLP202 T00111039=
202103151153 METAR KCLM 151153Z AUTO 23008KT 10SM BKN042 02/M04 A3010 RMK AO2 SLP194 70012 T00221044 10033 20006 51008=
202103151053 METAR KCLM 151053Z AUTO 25006KT 10SM BKN045 02/M05 A3009 RMK AO2 SLP192 T00221050=
202103150953 METAR KCLM 150953Z AUTO 26009KT 10SM CLR 01/M04 A3008 RMK AO2 SLP189 T00111044=
202103150853 METAR KCLM 150853Z AUTO 25006KT 10SM CLR 02/M04 A3008 RMK AO2 SLP187 T00171044 53003=
202103150753 METAR KCLM 150753Z AUTO 27007KT 10SM CLR 02/M05 A3007 RMK AO2 SLP187 T00171050 400830006=
202103150653 METAR KCLM 150653Z AUTO 22005KT 10SM CLR 02/M05 A3007 RMK AO2 SLP183 T00221050=
202103150553 METAR KCLM 150553Z AUTO 26006KT 10SM CLR 03/M04 A3007 RMK AO2 SLP183 T00281044 10078 20028 51026=
202103150453 METAR KCLM 150453Z AUTO 29005KT 10SM CLR 03/M04 A3005 RMK AO2 SLP178 T00331044=
202103150353 METAR KCLM 150353Z AUTO 29008KT 10SM FEW120 04/M02 A3002 RMK AO2 SLP167 T00391022=
202103150253 METAR KCLM 150253Z AUTO 29010G18KT 10SM SCT120 05/M01 A2999 RMK AO2 SLP156 T00501011 53021=
202103150153 METAR KCLM 150153Z AUTO 29012G20KT 10SM SCT055 06/M01 A2996 RMK AO2 SLP146 T00611006=
202103150053 METAR KCLM 150053Z AUTO 29013G22KT 10SM SCT120 06/01 A2994 RMK AO2 SLP139 T00610006=
202103142353 METAR KCLM 142353Z AUTO 30011G20KT 10SM OVC110 08/01 A2992 RMK AO2 SLP135 60011 T00780011 10083 20033 53005=
202103142253 METAR KCLM 142253Z AUTO 27015G20KT 10SM OVC085 07/01 A2991 RMK AO2 SLP131 T00720011=
202103142153 METAR KCLM 142153Z AUTO 24013G23KT 10SM SCT055 OVC070 07/01 A2990 RMK AO2 PK WND 26027/2117 RAE00 SLP128 P0001 T00670011=
202103142053 METAR KCLM 142053Z AUTO 26015G26KT 10SM -RA BKN030 OVC042 04/03 A2991 RMK AO2 PK WND 27027/2042 SLP130 P0002 60010 T00440033 51028=
202103141953 METAR KCLM 141953Z AUTO 28014G24KT 6SM -RA BR SCT010 BKN018 OVC030 03/02 A2990 RMK AO2 PK WND 30030/1922 SLP127 P0007 T00330017=
202103141951 SPECI KCLM 141951Z AUTO 28014G24KT 6SM -RA BR SCT010 BKN018 OVC030 03/02 A2990 RMK AO2 PK WND 30030/1922 P0007=
202103141916 SPECI KCLM 141916Z AUTO 30016G28KT 5SM -RA BR SCT005 BKN012 OVC040 05/03 A2986 RMK AO2 PK WND 29028/1908 PRESRR P0002 T00500033=
202103141911 SPECI KCLM 141911Z AUTO 30015G28KT 8SM -RA SCT006 SCT032 OVC040 06/04 A2986 RMK AO2 PK WND 29028/1908 PRESRR P0001 T00560039=
202103141853 METAR KCLM 141853Z AUTO 29006KT 9SM -RA OVC042 08/06 A2983 RMK AO2 SLP102 P0001 T00830061=
202103141753 METAR KCLM 141753Z AUTO 00000KT 10SM -RA OVC045 08/04 A2980 RMK AO2 SLP094 P0000 60001 T00830039 10083 20011 57005=
202103141653 METAR KCLM 141653Z AUTO 12004KT 10SM -RA OVC047 08/05 A2981 RMK AO2 RAE14B40 SLP095 P0000 T00780050=
202103141553 METAR KCLM 141553Z AUTO 14004KT 10SM -RA BKN050 OVC055 05/03 A2981 RMK AO2 RAB1455 SLP098 P0001 T00500033=
202103141453 METAR KCLM 141453Z AUTO 30005KT 10SM OVC060 04/02 A2982 RMK AO2 SLP099 T00390017 55015=
202103141353 METAR KCLM 141353Z AUTO 00000KT 10SM CLR 02/01 A2981 RMK AO2 SLP095 T00170006=
202103141253 METAR KCLM 141253Z AUTO 00000KT 10SM CLR 02/01 A2983 RMK AO2 SLP104 T00170006=
202103141153 METAR KCLM 141153Z AUTO VRB03KT 10SM CLR 03/01 A2986 RMK AO2 SLP114 T00280006 10050 20017 58027=
202103141053 METAR KCLM 141053Z AUTO 22007KT 10SM CLR 03/01 A2989 RMK AO2 SLP123 T00280011=
202103140953 METAR KCLM 140953Z AUTO 24004KT 10SM CLR 03/01 A2993 RMK AO2 SLP137 T00280006=
202103140853 METAR KCLM 140853Z AUTO 14003KT 10SM CLR 03/01 A2995 RMK AO2 SLP142 T00280006 58014=
202103140753 METAR KCLM 140753Z AUTO 00000KT 10SM CLR 02/01 A2997 RMK AO2 SLP150 T00220011 401111017=
202103140653 METAR KCLM 140653Z AUTO 23005KT 10SM CLR 04/01 A2998 RMK AO2 SLP155 T00390011=
202103140553 METAR KCLM 140553Z AUTO 18003KT 10SM CLR 05/02 A2999 RMK AO2 SLP156 T00500022 10111 20039 58020=
202103140453 METAR KCLM 140453Z AUTO VRB03KT 10SM CLR 05/02 A3001 RMK AO2 SLP165 T00500022=
202103140353 METAR KCLM 140353Z AUTO 24004KT 10SM CLR 04/02 A3003 RMK AO2 SLP173 T00440017=
202103140253 METAR KCLM 140253Z AUTO 21003KT 10SM CLR 07/01 A3005 RMK AO2 SLP176 T00670011 56021=
202103140153 METAR KCLM 140153Z AUTO 00000KT 10SM CLR 08/02 A3006 RMK AO2 SLP180 T00780017=
202103140053 METAR KCLM 140053Z AUTO 00000KT 10SM CLR 10/02 A3008 RMK AO2 SLP189 T01000017=
202103132353 METAR KCLM 132353Z AUTO 00000KT 10SM CLR 10/03 A3011 RMK AO2 SLP197 T01000028 10106 20067 56023=
202103132253 METAR KCLM 132253Z AUTO VRB03KT 10SM CLR 10/03 A3013 RMK AO2 SLP203 T01000033=
202103132153 METAR KCLM 132153Z AUTO VRB03KT 10SM CLR 08/04 A3015 RMK AO2 SLP210 T00830044=
202103132053 METAR KCLM 132053Z AUTO 02003KT 10SM CLR 08/04 A3018 RMK AO2 SLP221 T00780044 56004=
202103131953 METAR KCLM 131953Z AUTO 36005KT 10SM FEW008 07/04 A3018 RMK AO2 SLP221 T00720039=
202103131912 SPECI KCLM 131912Z AUTO VRB03KT 10SM FEW008 08/04 A3019 RMK AO2 T00780044=
202103131753 METAR KCLM 131753Z AUTO 04003KT 10SM CLR 08/03 A3019 RMK AO2 SLP225 T00780033 10078 21017 58002=
202103131653 METAR KCLM 131653Z AUTO 00000KT 10SM CLR 07/02 A3020 RMK AO2 SLP228 T00670017=
202103131553 METAR KCLM 131553Z AUTO 23003KT 10SM CLR 02/00 A3020 RMK AO2 SLP228 T00170000=
202103131453 METAR KCLM 131453Z AUTO 00000KT 10SM CLR 01/M01 A3020 RMK AO2 SLP228 T00061006 58003=
202103131353 METAR KCLM 131353Z AUTO VRB03KT 10SM CLR 00/M02 A3020 RMK AO2 SLP228 T00001017=
202103131253 METAR KCLM 131253Z AUTO 00000KT 10SM CLR 01/M01 A3021 RMK AO2 SLP230 T00111011=
202103131153 METAR KCLM 131153Z AUTO 21005KT 10SM CLR 02/M01 A3020 RMK AO2 SLP230 T00221006 10039 21006 58016=
202103131053 METAR KCLM 131053Z AUTO 20003KT 10SM CLR 01/M01 A3024 RMK AO2 SLP241 T00111011=
202103130953 METAR KCLM 130953Z AUTO 22005KT 10SM CLR 01/M01 A3025 RMK AO2 SLP247 T00061011=
202103130853 METAR KCLM 130853Z AUTO 22005KT 10SM CLR 03/M01 A3025 RMK AO2 SLP247 T00281006 56015=
202103130753 METAR KCLM 130753Z AUTO 21005KT 10SM CLR 02/M01 A3026 RMK AO2 SLP249 T00171006 401060011=
202103130653 METAR KCLM 130653Z AUTO 20003KT 10SM CLR 02/M01 A3028 RMK AO2 SLP257 T00221006=
202103130553 METAR KCLM 130553Z AUTO 23004KT 10SM CLR 02/M01 A3030 RMK AO2 SLP262 T00171006 10100 20017 53002=
202103130453 METAR KCLM 130453Z AUTO 22005KT 10SM BKN100 03/01 A3029 RMK AO2 SLP260 T00280006=
202103130353 METAR KCLM 130353Z AUTO 00000KT 10SM BKN110 03/01 A3029 RMK AO2 SLP258 T00330011=
202103130253 METAR KCLM 130253Z AUTO 25003KT 10SM CLR 06/02 A3029 RMK AO2 SLP260 T00610022 56004=
202103130153 METAR KCLM 130153Z AUTO 29003KT 10SM CLR 08/02 A3029 RMK AO2 SLP260 T00830017=
202103130053 METAR KCLM 130053Z AUTO 00000KT 10SM CLR 09/02 A3029 RMK AO2 SLP259 T00940017=
202103122353 METAR KCLM 122353Z AUTO 01003KT 10SM CLR 09/03 A3030 RMK AO2 SLP264 T00940028 10106 20078 58011=
202103122253 METAR KCLM 122253Z AUTO 08003KT 10SM FEW110 10/03 A3032 RMK AO2 SLP269 T01000033=
202103122153 METAR KCLM 122153Z AUTO 08005KT 10SM OVC100 09/03 A3033 RMK AO2 SLP272 T00890033=
202103122053 METAR KCLM 122053Z AUTO VRB04KT 10SM FEW100 09/03 A3034 RMK AO2 SLP275 T00890028 56006=
202103121953 METAR KCLM 121953Z AUTO 36005KT 10SM CLR 08/03 A3034 RMK AO2 SLP275 T00830028=
202103121853 METAR KCLM 121853Z AUTO 03004KT 10SM FEW075 09/02 A3035 RMK AO2 SLP280 T00890017=
202103121753 METAR KCLM 121753Z AUTO 02003KT 10SM OVC070 08/01 A3036 RMK AO2 SLP281 T00780006 10083 20022 51009=
202103121653 METAR KCLM 121653Z AUTO 00000KT 10SM OVC070 08/00 A3035 RMK AO2 SLP278 T00780000=
202103121553 METAR KCLM 121553Z AUTO 22005KT 10SM OVC075 04/M01 A3034 RMK AO2 SLP276 T00391006=
202103121453 METAR KCLM 121453Z AUTO 23004KT 10SM OVC080 03/M01 A3033 RMK AO2 SLP272 T00331011 51009=
202103121353 METAR KCLM 121353Z AUTO 25006KT 10SM BKN095 03/M01 A3033 RMK AO2 SLP271 T00281011=
202103121253 METAR KCLM 121253Z AUTO 26007KT 10SM CLR 03/M02 A3032 RMK AO2 SLP269 T00331017=
202103121153 METAR KCLM 121153Z AUTO 23005KT 10SM CLR 03/M01 A3030 RMK AO2 SLP264 T00281011 10044 20006 58004=
202103121053 METAR KCLM 121053Z AUTO 24004KT 10SM CLR 03/M01 A3032 RMK AO2 SLP268 T00281006=
202103120953 METAR KCLM 120953Z AUTO 23009KT 10SM CLR 04/M01 A3033 RMK AO2 SLP273 T00391006=
202103120853 METAR KCLM 120853Z AUTO 23008KT 10SM CLR 03/M01 A3032 RMK AO2 SLP268 T00331006 53004=
202103120753 METAR KCLM 120753Z AUTO 00000KT 10SM CLR 01/M01 A3030 RMK AO2 SLP262 T00111011 401001006=
202103120653 METAR KCLM 120653Z AUTO 26007KT 10SM CLR 04/00 A3032 RMK AO2 SLP268 T00390000=
202103120553 METAR KCLM 120553Z AUTO 25006KT 10SM CLR 03/00 A3030 RMK AO2 SLP263 T00330000 10100 20033 53004=
202103120453 METAR KCLM 120453Z AUTO 25006KT 10SM CLR 05/01 A3030 RMK AO2 SLP261 T00500006=
202103120353 METAR KCLM 120353Z AUTO 23005KT 10SM CLR 04/00 A3030 RMK AO2 SLP262 T00390000=
202103120253 METAR KCLM 120253Z AUTO 21004KT 10SM CLR 05/M01 A3029 RMK AO2 SLP260 T00501006 53002=
202103120153 METAR KCLM 120153Z AUTO 00000KT 10SM CLR 09/M02 A3028 RMK AO2 SLP255 T00891017=
202103120053 METAR KCLM 120053Z AUTO 00000KT 10SM CLR 10/M03 A3028 RMK AO2 SLP255 T01001033=
202103112353 METAR KCLM 112353Z AUTO 09005KT 10SM CLR 10/M02 A3029 RMK AO2 SLP257 T01001022 10100 20072 56006=
202103112253 METAR KCLM 112253Z AUTO 07004KT 10SM CLR 09/M01 A3030 RMK AO2 SLP262 T00941011=
202103112153 METAR KCLM 112153Z AUTO 06006KT 10SM CLR 09/M02 A3029 RMK AO2 SLP258 T00941017=
202103112053 METAR KCLM 112053Z AUTO 09006KT 10SM CLR 09/M01 A3030 RMK AO2 SLP263 T00891011 50005=
202103111953 METAR KCLM 111953Z AUTO 07006KT 10SM CLR 08/M01 A3031 RMK AO2 SLP267 T00831011=
202103111853 METAR KCLM 111853Z AUTO 05004KT 10SM CLR 08/01 A3031 RMK AO2 SLP265 T00780011=
202103111753 METAR KCLM 111753Z AUTO VRB03KT 10SM CLR 08/01 A3029 RMK AO2 SLP258 T00780011 10078 20000 51008=
202103111653 METAR KCLM 111653Z AUTO 00000KT 10SM CLR 06/00 A3028 RMK AO2 SLP255 T00560000=
202103111553 METAR KCLM 111553Z AUTO 22007KT 10SM CLR 03/M01 A3028 RMK AO2 SLP256 T00281011=
202103111453 METAR KCLM 111453Z AUTO 20005KT 10SM CLR 01/M03 A3026 RMK AO2 SLP251 T00111028 53022=
202103111353 METAR KCLM 111353Z AUTO 23006KT 10SM CLR 01/M03 A3023 RMK AO2 SLP239 T00111028=
202103111253 METAR KCLM 111253Z AUTO 22007KT 10SM CLR 01/M02 A3021 RMK AO2 SLP233 T00111022=
202103111153 METAR KCLM 111153Z AUTO 22005KT 10SM CLR 01/M02 A3020 RMK AO2 SLP228 T00111022 10028 21006 50004=
202103111053 METAR KCLM 111053Z AUTO 23008KT 10SM CLR 02/M02 A3020 RMK AO2 SLP228 T00171017=
202103110953 METAR KCLM 110953Z AUTO 22007KT 10SM CLR 01/M02 A3020 RMK AO2 SLP228 T00061017=
202103110853 METAR KCLM 110853Z AUTO 22005KT 10SM CLR M01/M02 A3019 RMK AO2 SLP225 T10061022 51025=
202103110753 METAR KCLM 110753Z AUTO 22006KT 10SM CLR 02/M01 A3016 RMK AO2 SLP216 T00171011 400890000=
202103110653 METAR KCLM 110653Z AUTO 00000KT 10SM CLR 01/M02 A3014 RMK AO2 SLP208 T00111017=
202103110553 METAR KCLM 110553Z AUTO 22009KT 10SM CLR 02/M01 A3011 RMK AO2 SLP199 T00171011 10078 20006 51015=
202103110453 METAR KCLM 110453Z AUTO 22005KT 10SM CLR 02/M01 A3010 RMK AO2 SLP196 T00171011=
202103110353 METAR KCLM 110353Z AUTO 21004KT 10SM CLR 02/M01 A3008 RMK AO2 SLP190 T00221006=
202103110253 METAR KCLM 110253Z AUTO 14003KT 10SM CLR 04/01 A3007 RMK AO2 SLP185 T00390006 53015=
202103110153 METAR KCLM 110153Z AUTO 00000KT 10SM CLR 06/02 A3005 RMK AO2 SLP177 T00610017=
202103110053 METAR KCLM 110053Z AUTO 13005KT 10SM FEW070 07/02 A3003 RMK AO2 SLP171 T00720022=
202103102353 METAR KCLM 102353Z AUTO 07003KT 10SM FEW016 OVC090 07/03 A3002 RMK AO2 SLP169 T00720028 10089 20067 52003=
202103102322 SPECI KCLM 102322Z AUTO 08003KT 10SM FEW017 BKN090 BKN120 07/03 A3002 RMK AO2 T00670028=
202103102253 METAR KCLM 102253Z AUTO VRB05KT 10SM BKN015 08/03 A3002 RMK AO2 SLP167 T00780028=
202103102249 SPECI KCLM 102249Z AUTO VRB05KT 10SM BKN015 BKN036 08/03 A3002 RMK AO2=
202103102153 METAR KCLM 102153Z AUTO VRB04KT 10SM SCT036 BKN049 OVC085 07/03 A3002 RMK AO2 SLP166 T00720028=
202103102053 METAR KCLM 102053Z AUTO 35005KT 10SM CLR 07/01 A3001 RMK AO2 SLP163 T00720011 51006=
202103101953 METAR KCLM 101953Z AUTO 34005KT 10SM CLR 08/03 A3000 RMK AO2 SLP162 T00780028=
202103101853 METAR KCLM 101853Z AUTO 35006KT 10SM CLR 07/02 A2999 RMK AO2 SLP158 T00670022=
202103101753 METAR KCLM 101753Z AUTO 25005KT 10SM CLR 07/M01 A2999 RMK AO2 SLP157 T00721011 10072 20000 53003=
202103101653 METAR KCLM 101653Z AUTO 24010KT 10SM BKN031 04/M01 A2998 RMK AO2 SLP156 T00441011=
202103101553 METAR KCLM 101553Z AUTO 24007KT 10SM CLR 03/M02 A2997 RMK AO2 SLP153 T00281022=
202103101453 METAR KCLM 101453Z AUTO 23009KT 10SM CLR 02/M03 A2998 RMK AO2 SLP155 T00221028 53004=
202103101353 METAR KCLM 101353Z AUTO 24007KT 10SM CLR 02/M02 A2997 RMK AO2 SLP152 T00171022=
202103101253 METAR KCLM 101253Z AUTO 22004KT 10SM CLR 01/M02 A2997 RMK AO2 SLP150 T00111022=
202103101153 METAR KCLM 101153Z AUTO 23009KT 10SM CLR 02/M02 A2997 RMK AO2 SLP150 70001 T00221017 10039 20017 58005=
202103101053 METAR KCLM 101053Z AUTO 22007KT 10SM CLR 02/M01 A2997 RMK AO2 SLP152 T00171011=
202103100953 METAR KCLM 100953Z AUTO 23007KT 10SM CLR 02/M01 A2998 RMK AO2 SLP155 T00221006=
202103100853 METAR KCLM 100853Z AUTO 23007KT 10SM OVC047 03/00 A2998 RMK AO2 SLP155 T00330000 50001=
202103100753 METAR KCLM 100753Z AUTO 23006KT 10SM OVC048 04/01 A2999 RMK AO2 SLP157 T00390011 401000000=
202103100653 METAR KCLM 100653Z AUTO 23006KT 10SM BKN040 03/01 A2999 RMK AO2 SLP157 T00280006=
202103100553 METAR KCLM 100553Z AUTO 22006KT 10SM CLR 03/01 A2998 RMK AO2 SLP154 60001 T00330011 10089 20017 58001=
202103100453 METAR KCLM 100453Z AUTO 23005KT 10SM CLR 02/01 A2998 RMK AO2 SLP154 T00220006=
202103100353 METAR KCLM 100353Z AUTO 22006KT 10SM CLR 03/02 A2998 RMK AO2 SLP156 T00280017=
202103100253 METAR KCLM 100253Z AUTO 22005KT 10SM CLR 04/02 A2998 RMK AO2 SLP156 60001 T00440022 53005=
202103100153 METAR KCLM 100153Z AUTO 30007KT 10SM CLR 07/03 A2997 RMK AO2 SLP152 T00670033=
202103100053 METAR KCLM 100053Z AUTO 19004KT 10SM SCT037 SCT048 BKN065 07/04 A2997 RMK AO2 RAB03E50 SLP150 P0001 T00720039=
202103092353 METAR KCLM 092353Z AUTO 11004KT 10SM BKN042 OVC050 09/03 A2997 RMK AO2 RAB30E44 SLP150 P0000 60000 T00890028 10100 20072 53007=
202103092253 METAR KCLM 092253Z AUTO 34004KT 10SM FEW060 SCT075 09/02 A2996 RMK AO2 RAB25E36 SLP147 P0000 T00890022=
202103092153 METAR KCLM 092153Z AUTO 33006KT 10SM BKN070 09/02 A2995 RMK AO2 SLP143 T00940022=
202103092053 METAR KCLM 092053Z AUTO 32008KT 10SM FEW024 SCT070 BKN085 08/02 A2995 RMK AO2 SLP143 T00830022 53005=
202103091953 METAR KCLM 091953Z AUTO 33005KT 10SM OVC090 08/04 A2994 RMK AO2 SLP140 T00780039=
202103091853 METAR KCLM 091853Z AUTO 31004KT 10SM OVC090 08/03 A2993 RMK AO2 SLP137 T00780028=
202103091753 METAR KCLM 091753Z AUTO 01003KT 10SM OVC080 07/03 A2993 RMK AO2 SLP137 T00720028 10072 20000 53001=
202103091653 METAR KCLM 091653Z AUTO 00000KT 10SM OVC080 06/02 A2993 RMK AO2 SLP137 T00610022=
202103091553 METAR KCLM 091553Z AUTO 22004KT 10SM OVC090 03/01 A2992 RMK AO2 SLP133 T00280011=
202103091453 METAR KCLM 091453Z AUTO 20003KT 10SM FEW120 02/00 A2993 RMK AO2 SLP136 T00170000 58002=
202103091353 METAR KCLM 091353Z AUTO 22003KT 10SM CLR 01/M01 A2993 RMK AO2 SLP136 T00061011=
202103091253 METAR KCLM 091253Z AUTO 20004KT 10SM CLR 01/M01 A2993 RMK AO2 SLP139 T00061011=
202103091153 METAR KCLM 091153Z AUTO 00000KT 10SM CLR 01/M01 A2993 RMK AO2 SLP138 T00111006 10072 20011 50002=
202103091053 METAR KCLM 091053Z AUTO 27005KT 10SM CLR 05/01 A2993 RMK AO2 SLP138 T00500006=
202103090953 METAR KCLM 090953Z AUTO 26009KT 10SM FEW070 06/01 A2994 RMK AO2 SLP140 T00560006=
202103090853 METAR KCLM 090853Z AUTO 27006KT 10SM CLR 04/00 A2993 RMK AO2 SLP135 T00390000 53008=
202103090753 METAR KCLM 090753Z AUTO VRB03G15KT 10SM CLR 07/01 A2992 RMK AO2 SLP133 T00670006 400941017=
202103090653 METAR KCLM 090653Z AUTO VRB04KT 10SM FEW120 07/01 A2990 RMK AO2 SLP128 T00720006=
202103090553 METAR KCLM 090553Z AUTO VRB03KT 10SM SCT120 04/01 A2990 RMK AO2 SLP127 T00440011 10089 20039 55001=
202103090453 METAR KCLM 090453Z AUTO 00000KT 10SM FEW110 05/02 A2990 RMK AO2 SLP127 T00500017=
202103090353 METAR KCLM 090353Z AUTO 14004KT 10SM CLR 05/02 A2990 RMK AO2 SLP127 T00500017=
202103090253 METAR KCLM 090253Z AUTO 23006KT 10SM BKN110 06/02 A2990 RMK AO2 SLP129 T00560017 55006=
202103090153 METAR KCLM 090153Z AUTO 08003KT 10SM SCT110 07/02 A2990 RMK AO2 SLP128 T00670017=
202103090053 METAR KCLM 090053Z AUTO 00000KT 10SM CLR 08/01 A2991 RMK AO2 SLP130 T00830006=
202103082353 METAR KCLM 082353Z AUTO 10003KT 10SM CLR 09/M01 A2992 RMK AO2 SLP133 T00891006 10094 20050 56012=
202103082253 METAR KCLM 082253Z AUTO 07007KT 10SM CLR 08/00 A2993 RMK AO2 SLP137 T00830000=
202103082153 METAR KCLM 082153Z AUTO VRB06KT 10SM CLR 08/02 A2994 RMK AO2 SLP140 T00830017=
202103082053 METAR KCLM 082053Z AUTO VRB04KT 10SM CLR 08/01 A2996 RMK AO2 SLP146 T00780011 58013=
202103081953 METAR KCLM 081953Z AUTO VRB05KT 10SM CLR 07/02 A2997 RMK AO2 SLP151 T00720017=
202103081853 METAR KCLM 081853Z AUTO VRB03KT 10SM CLR 06/01 A2998 RMK AO2 SLP155 T00610011=
202103081753 METAR KCLM 081753Z AUTO 08004KT 10SM CLR 06/01 A2999 RMK AO2 SLP158 I6001 T00560006 10056 21017 58010=
202103081653 METAR KCLM 081653Z AUTO 00000KT 10SM CLR 04/01 A3000 RMK AO2 SLP163 T00390011=
202103081553 METAR KCLM 081553Z AUTO 00000KT 10SM CLR 01/00 A3001 RMK AO2 SLP166 T00060000=
202103081453 METAR KCLM 081453Z AUTO 00000KT 6SM BR FEW013 M01/M02 A3002 RMK AO2 SLP169 I1001 I3001 T10061017 58010=
202103081353 METAR KCLM 081353Z AUTO 00000KT 10SM CLR M01/M02 A3003 RMK AO2 SLP172 T10061017=
202103081334 SPECI KCLM 081334Z AUTO 00000KT 10SM FEW014 00/M01 A3004 RMK AO2 T00001011=
202103081253 METAR KCLM 081253Z AUTO 21004KT 10SM BKN011 00/M01 A3005 RMK AO2 SLP179 I1000 T00001006=
202103081250 SPECI KCLM 081250Z AUTO 22004KT 10SM BKN011 00/M01 A3005 RMK AO2 I1000=
202103081153 METAR KCLM 081153Z AUTO 00000KT 10SM SCT011 M01/M02 A3006 RMK AO2 SLP182 70010 I6001 T10061017 10017 21011 58017=
202103081053 METAR KCLM 081053Z AUTO 21003KT 10SM CLR 01/M01 A3008 RMK AO2 SLP188 I1001 T00061006=
202103080953 METAR KCLM 080953Z AUTO 00000KT 10SM CLR 00/M01 A3010 RMK AO2 SLP195 T00001006=
202103080853 METAR KCLM 080853Z AUTO 00000KT 10SM CLR 01/00 A3011 RMK AO2 SLP199 T00060000 58011=
202103080753 METAR KCLM 080753Z AUTO 22006KT 10SM CLR 01/00 A3013 RMK AO2 SLP203 T00060000 400720006=
202103080704 SPECI KCLM 080704Z AUTO 00000KT 9SM SCT013 01/01 A3014 RMK AO2 T00110006=
202103080653 METAR KCLM 080653Z AUTO 00000KT 10SM BKN013 01/01 A3014 RMK AO2 SLP208 T00110006=
202103080553 METAR KCLM 080553Z AUTO 00000KT 10SM BKN110 02/01 A3014 RMK AO2 SLP209 60001 T00170011 10072 20017 55000=
202103080453 METAR KCLM 080453Z AUTO 14004KT 10SM CLR 02/01 A3014 RMK AO2 SLP208 T00170006=
202103080353 METAR KCLM 080353Z AUTO 25003KT 10SM SCT090 03/01 A3014 RMK AO2 RAE10 SLP207 P0000 T00280011=
202103080253 METAR KCLM 080253Z AUTO 22005KT 9SM -RA OVC031 05/03 A3014 RMK AO2 RAB17 SLP209 P0001 60001 T00500028 51016=
202103080153 METAR KCLM 080153Z AUTO 00000KT 10SM FEW030 BKN055 OVC075 06/03 A3013 RMK AO2 SLP205 T00560028=
202103080144 SPECI KCLM 080144Z AUTO 00000KT 10SM FEW016 SCT028 OVC055 06/03 A3013 RMK AO2 T00560028=
202103080130 SPECI KCLM 080130Z AUTO 08006KT 10SM SCT016 BKN027 BKN065 06/02 A3012 RMK AO2 T00610022=
202103080053 METAR KCLM 080053Z AUTO 06003KT 10SM BKN065 BKN090 06/02 A3012 RMK AO2 SLP201 T00610017=
202103072353 METAR KCLM 072353Z AUTO 00000KT 10SM FEW060 07/01 A3010 RMK AO2 SLP193 60007 T00720011 10072 20028 53006=
202103072253 METAR KCLM 072253Z AUTO 09004KT 10SM SCT060 06/03 A3009 RMK AO2 SLP191 T00610028=
202103072231 SPECI KCLM 072231Z AUTO VRB03KT 10SM SCT012 BKN060 06/03 A3009 RMK AO2 T00610028=
202103072210 SPECI KCLM 072210Z AUTO 05004KT 10SM FEW006 BKN013 05/02 A3008 RMK AO2 T00500022=
202103072201 SPECI KCLM 072201Z AUTO 03005KT 10SM SCT006 SCT010 06/03 A3007 RMK AO2 T00560028=
202103072153 METAR KCLM 072153Z AUTO 00000KT 10SM FEW120 06/03 A3007 RMK AO2 RAE23 SLP185 P0003 T00560028=
202103072133 SPECI KCLM 072133Z AUTO 00000KT 10SM FEW020 SCT031 BKN120 04/02 A3007 RMK AO2 RAE23 P0003 T00440022=
202103072053 METAR KCLM 072053Z AUTO 26006KT 8SM -RA FEW008 BKN024 OVC035 03/02 A3008 RMK AO2 RAB13 SLP187 P0003 60004 T00330017 51030=
202103072049 SPECI KCLM 072049Z AUTO 27007KT 6SM -RA BR FEW006 BKN022 03/02 A3007 RMK AO2 RAB13 P0003=
202103072017 SPECI KCLM 072017Z AUTO 28010KT 10SM -RA FEW018 BKN023 OVC070 05/01 A3005 RMK AO2 RAB13 PRESRR P0000 T00500011=
202103071953 METAR KCLM 071953Z AUTO VRB06KT 10SM FEW021 SCT070 BKN085 07/02 A3002 RMK AO2 RAB19E34 SLP167 P0000 T00670022=
202103071853 METAR KCLM 071853Z AUTO 27003KT 10SM FEW020 BKN035 OVC110 07/02 A2999 RMK AO2 RAE51 SLP156 P0001 T00670017=
202103071811 SPECI KCLM 071811Z AUTO 28004KT 5SM -RA SCT014 SCT024 OVC035 06/02 A2996 RMK AO2 P0000 T00610022=
202103071753 METAR KCLM 071753Z AUTO 31004KT 10SM -RA BKN013 OVC035 06/03 A2996 RMK AO2 RAB53 SLP148 P0000 60002 T00610033 10067 20017 51029=
202103071719 SPECI KCLM 071719Z AUTO 09003KT 10SM BKN013 OVC020 06/03 A2994 RMK AO2 T00610033=
202103071653 METAR KCLM 071653Z AUTO 12003KT 10SM OVC022 06/03 A2993 RMK AO2 RAB31E40 SLP138 P0000 T00560028=
202103071611 SPECI KCLM 071611Z AUTO VRB03KT 10SM SCT012 BKN026 OVC070 05/03 A2992 RMK AO2 T00500028=
202103071553 METAR KCLM 071553Z AUTO 00000KT 10SM SCT010 BKN049 OVC080 04/03 A2991 RMK AO2 SLP129 T00440033=
202103071519 SPECI KCLM 071519Z AUTO 24003KT 10SM SCT013 02/02 A2989 RMK AO2 T00220017=
202103071512 SPECI KCLM 071512Z AUTO 00000KT 10SM BKN013 BKN065 02/01 A2988 RMK AO2 T00170011=
202103071453 METAR KCLM 071453Z AUTO 00000KT 10SM FEW015 SCT065 02/01 A2988 RMK AO2 SLP119 60002 T00220011 51021=
202103071353 METAR KCLM 071353Z AUTO 00000KT 10SM SCT044 BKN065 OVC075 04/03 A2986 RMK AO2 RAE50 SLP114 P0001 T00390028=
202103071253 METAR KCLM 071253Z AUTO 31005KT 10SM -RA OVC048 04/03 A2984 RMK AO2 RAB06E28B44 SLP106 P0001 T00440028=
202103071153 METAR KCLM 071153Z AUTO 30007KT 260V330 10SM FEW012 BKN060 OVC080 06/03 A2981 RMK AO2 SLP097 70002 T00560028 10056 20022 55000=
202103071053 METAR KCLM 071053Z AUTO 22004KT 10SM BKN070 04/02 A2977 RMK AO2 SLP083 T00390022=
202103070953 METAR KCLM 070953Z AUTO VRB03KT 10SM BKN070 OVC090 04/02 A2980 RMK AO2 SLP092 T00390022=
202103070853 METAR KCLM 070853Z AUTO 12003KT 10SM OVC070 04/02 A2981 RMK AO2 SLP097 T00390017 58029=
202103070753 METAR KCLM 070753Z AUTO 00000KT 10SM BKN065 03/02 A2985 RMK AO2 SLP108 T00330017 401000011=
202103070653 METAR KCLM 070653Z AUTO 06003KT 10SM FEW075 04/02 A2987 RMK AO2 SLP118 T00390022=
202103070553 METAR KCLM 070553Z AUTO 10SM SCT070 BKN085 03/02 A2990 RMK AO2 SLP127 60000 T00330017 10078 20028 58014=
202103070453 METAR KCLM 070453Z AUTO 00000KT 10SM OVC075 03/03 A2992 RMK AO2 SLP132 T00330028=
202103070353 METAR KCLM 070353Z AUTO 00000KT 10SM CLR 05/04 A2993 RMK AO2 SLP138 T00500039=
202103070253 METAR KCLM 070253Z AUTO 15004KT 9SM CLR 06/04 A2994 RMK AO2 SLP141 60000 T00560044 57017=
202103070201 SPECI KCLM 070201Z AUTO 00000KT 10SM SCT027 06/04 A2995 RMK AO2 T00610044=
202103070153 METAR KCLM 070153Z AUTO 00000KT 10SM BKN027 07/04 A2995 RMK AO2 SLP145 T00720044=
202103070139 SPECI KCLM 070139Z AUTO 00000KT 10SM BKN026 BKN050 BKN060 07/04 A2996 RMK AO2 T00720044=
202103070053 METAR KCLM 070053Z AUTO 00000KT 10SM FEW032 BKN050 OVC070 08/04 A2998 RMK AO2 RAE17 SLP153 P0000 T00780044=
202103062353 METAR KCLM 062353Z AUTO 10004KT 9SM -RA FEW043 BKN050 OVC070 08/04 A2999 RMK AO2 RAB50 SLP158 P0000 60002 T00780039 10100 20072 50000=
202103062253 METAR KCLM 062253Z AUTO 12005KT 10SM FEW020 SCT050 SCT065 08/04 A3000 RMK AO2 RAE33 SLP160 P0002 T00780044=
202103062240 SPECI KCLM 062240Z AUTO 13006KT 10SM SCT029 SCT047 BKN055 08/04 A3000 RMK AO2 RAE33 P0002 T00830044=
202103062153 METAR KCLM 062153Z AUTO 11003KT 10SM -RA BKN026 OVC034 08/04 A3000 RMK AO2 RAB04 SLP160 P0000 T00780039=
202103062130 SPECI KCLM 062130Z AUTO 05003KT 10SM -RA BKN025 OVC034 08/04 A2999 RMK AO2 RAB04 P0000 T00830039=
202103062100 SPECI KCLM 062100Z AUTO VRB03KT 10SM SCT029 BKN038 OVC045 08/03 A2999 RMK AO2 T00830033=
202103062053 METAR KCLM 062053Z AUTO VRB03KT 10SM BKN027 OVC041 08/04 A2999 RMK AO2 SLP158 T00830039 51006=
202103061953 METAR KCLM 061953Z AUTO 36004KT 10SM BKN023 OVC032 09/04 A2999 RMK AO2 SLP157 T00890039=
202103061941 SPECI KCLM 061941Z AUTO 01005KT 10SM BKN023 BKN032 09/03 A2999 RMK AO2 T00890033=
202103061933 SPECI KCLM 061933Z AUTO 36005KT 10SM SCT023 BKN033 09/03 A2999 RMK AO2 T00890033=
202103061926 SPECI KCLM 061926Z AUTO VRB04KT 10SM BKN021 09/03 A2999 RMK AO2 T00890033=
202103061853 METAR KCLM 061853Z AUTO 34006KT 10SM FEW060 09/04 A2998 RMK AO2 SLP155 T00890039=
202103061753 METAR KCLM 061753Z AUTO 24007KT 10SM BKN060 07/03 A2997 RMK AO2 SLP151 60000 T00720033 10078 20011 51019=
202103061653 METAR KCLM 061653Z AUTO 25009KT 10SM FEW049 OVC070 06/03 A2996 RMK AO2 RAB06E28 SLP147 P0000 T00610028=
202103061553 METAR KCLM 061553Z AUTO 26008KT 10SM OVC070 06/03 A2994 RMK AO2 SLP140 T00560028=
202103061453 METAR KCLM 061453Z AUTO 21004KT 10SM OVC060 03/02 A2992 RMK AO2 SLP132 T00330017 53012=
202103061353 METAR KCLM 061353Z AUTO 00000KT 9SM BKN065 OVC080 02/01 A2990 RMK AO2 SLP127 T00220011=
202103061253 METAR KCLM 061253Z AUTO 23003KT 10SM SCT050 BKN070 02/01 A2989 RMK AO2 SLP122 T00220011=
202103061153 METAR KCLM 061153Z AUTO 20005KT 10SM BKN055 OVC070 03/01 A2988 RMK AO2 SLP120 70020 T00280011 10056 20017 53006=
202103061053 METAR KCLM 061053Z AUTO 00000KT 10SM BKN060 BKN075 03/02 A2985 RMK AO2 SLP110 T00330017=
202103060953 METAR KCLM 060953Z AUTO 19003KT 10SM CLR 03/01 A2985 RMK AO2 SLP110 T00280011=
202103060853 METAR KCLM 060853Z AUTO 23005KT 10SM FEW050 04/02 A2986 RMK AO2 SLP114 T00390017 56006=
202103060753 METAR KCLM 060753Z AUTO 20004KT 10SM CLR 03/01 A2987 RMK AO2 SLP116 T00280011 401000017=
202103060653 METAR KCLM 060653Z AUTO 00000KT 10SM CLR 02/01 A2987 RMK AO2 SLP117 T00220006=
202103060553 METAR KCLM 060553Z AUTO 21005KT 10SM CLR 04/02 A2988 RMK AO2 SLP120 60000 T00440017 10078 20039 55008=
202103060453 METAR KCLM 060453Z AUTO 25004KT 10SM FEW050 04/02 A2987 RMK AO2 SLP118 T00390017=
202103060353 METAR KCLM 060353Z AUTO 22006KT 10SM CLR 05/03 A2989 RMK AO2 SLP125 T00500028=
202103060253 METAR KCLM 060253Z AUTO 26009KT 10SM SCT075 BKN090 06/03 A2991 RMK AO2 SLP129 60000 T00610033 53000=
202103060153 METAR KCLM 060153Z AUTO 00000KT 10SM CLR 06/03 A2991 RMK AO2 SLP129 T00610033=
202103060053 METAR KCLM 060053Z AUTO 25003KT 10SM FEW070 08/04 A2990 RMK AO2 RAE2357 SLP127 P0000 T00780039=
202103060002 SPECI KCLM 060002Z AUTO 24005KT 10SM SCT035 BKN075 OVC100 07/03 A2990 RMK AO2 RAE2357 P0000 T00720033=
202103052353 METAR KCLM 052353Z AUTO 23007KT 10SM -RA BKN028 BKN038 OVC100 07/03 A2990 RMK AO2 RAB2257 SLP128 P0007 60012 T00720033 10100 20067 50007=
202103052253 METAR KCLM 052253Z AUTO 24008KT 10SM BKN060 OVC075 08/05 A2991 RMK AO2 RAE25 SLP129 P0001 T00780050=
202103052153 METAR KCLM 052153Z AUTO 23005KT 7SM -RA BKN046 BKN070 BKN120 08/06 A2989 RMK AO2 RAE27B48 SLP125 P0001 T00780056=
202103052053 METAR KCLM 052053Z AUTO 29007KT 8SM -RA SCT033 BKN040 OVC048 08/06 A2988 RMK AO2 RAE16B39 SLP121 P0001 60003 T00830061 52023=
202103051953 METAR KCLM 051953Z AUTO 00000KT 10SM -RA BKN049 OVC055 09/07 A2986 RMK AO2 SLP113 P0001 T00940072=
202103051853 METAR KCLM 051853Z AUTO 19003KT 10SM -RA BKN055 OVC065 08/07 A2984 RMK AO2 SLP105 P0001 T00830072=
202103051753 METAR KCLM 051753Z AUTO 28007KT 3SM -RA BR BKN042 OVC050 08/07 A2981 RMK AO2 SLP097 P0004 60008 T00830067 10089 20056 53031=
202103051653 METAR KCLM 051653Z AUTO 24008KT 10SM -RA OVC060 09/07 A2977 RMK AO2 SLP083 P0002 T00890067=
202103051553 METAR KCLM 051553Z AUTO 00000KT 10SM -RA BKN060 OVC080 08/07 A2974 RMK AO2 SLP074 P0000 T00780067=
202103051453 METAR KCLM 051453Z AUTO VRB05KT 10SM -RA OVC055 07/06 A2972 RMK AO2 SLP066 P0002 60002 T00720056 56024=
202103051353 METAR KCLM 051353Z AUTO 26007KT 10SM -RA OVC065 06/06 A2975 RMK AO2 SLP076 P0000 T00610056=
202103051253 METAR KCLM 051253Z AUTO VRB03KT 10SM -RA OVC070 06/06 A2976 RMK AO2 RAB51 SLP080 P0000 T00610056=
202103051153 METAR KCLM 051153Z AUTO VRB03KT 10SM OVC060 06/05 A2979 RMK AO2 SLP090 60002 70005 T00610050 10067 20061 56024=
202103051138 SPECI KCLM 051138Z AUTO 00000KT 10SM FEW008 BKN060 OVC070 06/05 A2980 RMK AO2 T00610050=
202103051053 METAR KCLM 051053Z AUTO 00000KT 10SM BKN060 OVC080 07/06 A2981 RMK AO2 RAB01E29 SLP096 P0000 T00670056=
202103050953 METAR KCLM 050953Z AUTO 17005KT 10SM OVC060 06/05 A2984 RMK AO2 RAB10E33 SLP108 P0000 T00610050=
202103050853 METAR KCLM 050853Z AUTO 10SM BKN050 OVC060 06/06 A2986 RMK AO2 RAE16 SLP115 P0000 60002 T00610056 58036=
202103050753 METAR KCLM 050753Z AUTO 24004KT 10SM -RA FEW047 OVC055 06/05 A2991 RMK AO2 RAE0658B26 SLP130 P0001 T00610050 400891006=
202103050653 METAR KCLM 050653Z AUTO 00000KT 10SM -RA OVC060 06/06 A2993 RMK AO2 SLP138 P0001 T00610056=
202103050553 METAR KCLM 050553Z AUTO 00000KT 10SM -RA SCT050 OVC060 07/06 A2997 RMK AO2 RAB00 SLP151 P0000 60003 T00670056 10078 20061 56019=
202103050453 METAR KCLM 050453Z AUTO 00000KT 10SM BKN055 OVC070 07/06 A2998 RMK AO2 RAE16 SLP155 P0000 T00670056=
202103050353 METAR KCLM 050353Z AUTO 00000KT 9SM -RA FEW049 OVC060 07/06 A3001 RMK AO2 RAB0258 SLP164 P0000 T00670056=
202103050253 METAR KCLM 050253Z AUTO 11004KT 9SM OVC065 07/06 A3003 RMK AO2 RAE38 SLP170 P0001 60003 T00670056 51017=
202103050153 METAR KCLM 050153Z AUTO 00000KT 6SM -RA BR OVC048 07/06 A3002 RMK AO2 RAB0055 SLP167 P0001 T00720061=
202103050053 METAR KCLM 050053Z AUTO 24005KT 10SM OVC060 08/05 A2999 RMK AO2 RAE46 SLP158 P0001 T00780050=
202103042353 METAR KCLM 042353Z AUTO 25004KT 9SM -RA OVC060 07/05 A2998 RMK AO2 RAB05 SLP153 P0000 60000 T00720050 10089 20072 53016=
202103042253 METAR KCLM 042253Z AUTO 00000KT 10SM OVC060 08/04 A2995 RMK AO2 SLP143 T00830039=
202103042153 METAR KCLM 042153Z AUTO 09005KT 10SM OVC060 08/03 A2992 RMK AO2 RAB06E23 SLP134 P0000 T00830033=
202103042053 METAR KCLM 042053Z AUTO 02003KT 10SM OVC065 08/03 A2993 RMK AO2 SLP137 T00780028 53010=
202103041953 METAR KCLM 041953Z AUTO 06004KT 10SM SCT070 SCT085 08/03 A2992 RMK AO2 SLP132 T00830033=
202103041853 METAR KCLM 041853Z AUTO 36004KT 10SM CLR 08/03 A2991 RMK AO2 SLP130 T00780033=
202103041800 SPECI KCLM 041800Z AUTO 00000KT 10SM SCT018 07/03 A2991 RMK AO2 T00720028=
202103041753 METAR KCLM 041753Z AUTO 00000KT 10SM BKN018 07/03 A2990 RMK AO2 SLP126 T00720028 10072 20006 51014=
202103041653 METAR KCLM 041653Z AUTO 00000KT 10SM BKN020 BKN026 04/03 A2989 RMK AO2 SLP124 T00440028=
202103041642 SPECI KCLM 041642Z AUTO 00000KT 10SM SCT018 BKN026 04/02 A2989 RMK AO2 T00390022=
202103041634 SPECI KCLM 041634Z AUTO 00000KT 10SM SCT015 SCT023 03/02 A2988 RMK AO2 T00330017=
202103041553 METAR KCLM 041553Z AUTO 22006KT 10SM BKN014 OVC021 02/00 A2987 RMK AO2 SLP117 T00170000=
202103041543 SPECI KCLM 041543Z AUTO 00000KT 10SM BKN014 BKN021 02/00 A2986 RMK AO2 T00170000=
202103041536 SPECI KCLM 041536Z AUTO 00000KT 10SM SCT014 BKN021 01/00 A2986 RMK AO2 T00110000=
202103041518 SPECI KCLM 041518Z AUTO 00000KT 10SM SCT016 SCT022 02/01 A2986 RMK AO2 T00170006=
202103041453 METAR KCLM 041453Z AUTO 24004KT 10SM SCT012 BKN019 02/01 A2986 RMK AO2 SLP113 T00220006 53005=
202103041353 METAR KCLM 041353Z AUTO 23005KT 10SM OVC015 02/01 A2985 RMK AO2 SLP111 T00220006 $=
202103041253 METAR KCLM 041253Z AUTO 22004KT 10SM BKN013 BKN027 01/M01 A2984 RMK AO2 SLP107 T00111006 $=
202103041250 SPECI KCLM 041250Z AUTO 22004KT 10SM BKN013 BKN027 01/M01 A2984 RMK AO2 $=
202103041232 SPECI KCLM 041232Z AUTO 20003KT 10SM FEW021 SCT027 01/M01 A2985 RMK AO2 T00061006 $=
202103041218 SPECI KCLM 041218Z AUTO 23004KT 10SM FEW014 BKN020 BKN027 01/M01 A2984 RMK AO2 T00111006 $=
202103041153 METAR KCLM 041153Z AUTO 24003KT 10SM FEW014 01/M01 A2984 RMK AO2 SLP107 T00061006 10022 21006 53003 $=
202103041053 METAR KCLM 041053Z AUTO 22007KT 10SM CLR 02/M01 A2984 RMK AO2 SLP106 T00171006 $=
202103040953 METAR KCLM 040953Z AUTO 00000KT 10SM CLR 00/M01 A2983 RMK AO2 SLP105 T00001006 $=
202103040853 METAR KCLM 040853Z AUTO 00000KT 10SM CLR 01/M01 A2983 RMK AO2 SLP104 T00061011 50000 $=
202103040753 METAR KCLM 040753Z AUTO 23005KT 10SM CLR 01/M01 A2983 RMK AO2 SLP104 T00111006 400890000 $=
202103040653 METAR KCLM 040653Z AUTO 21005KT 10SM CLR 02/00 A2983 RMK AO2 SLP104 T00220000 $=
202103040553 METAR KCLM 040553Z AUTO 24004KT 10SM CLR 01/M01 A2983 RMK AO2 SLP104 T00111006 10089 20000 53010 $=
202103040453 METAR KCLM 040453Z AUTO 22005KT 10SM CLR 03/01 A2982 RMK AO2 SLP098 T00280006 $=
202103040353 METAR KCLM 040353Z AUTO 22005KT 10SM CLR 04/01 A2981 RMK AO2 SLP096 T00390006 $=
202103040253 METAR KCLM 040253Z AUTO 00000KT 10SM CLR 04/01 A2980 RMK AO2 SLP093 T00440011 53002=
202103040153 METAR KCLM 040153Z AUTO 00000KT 10SM CLR 07/02 A2980 RMK AO2 SLP091 T00670017=
202103040053 METAR KCLM 040053Z AUTO 00000KT 10SM CLR 08/02 A2980 RMK AO2 SLP091 T00830017=
202103032353 METAR KCLM 032353Z AUTO 00000KT 10SM CLR 08/01 A2979 RMK AO2 SLP091 T00830011 10089 20067 58006=
202103032253 METAR KCLM 032253Z AUTO VRB03KT 10SM CLR 08/02 A2980 RMK AO2 SLP094 T00780017=
202103032153 METAR KCLM 032153Z AUTO 33005KT 10SM FEW024 07/03 A2981 RMK AO2 SLP095 T00670028=
202103032135 SPECI KCLM 032135Z AUTO 03005KT 10SM SCT023 08/03 A2981 RMK AO2 T00780028 $=
202103032101 SPECI KCLM 032101Z AUTO 33005KT 10SM BKN023 07/03 A2981 RMK AO2 T00720028 $=
202103032053 METAR KCLM 032053Z AUTO VRB05KT 10SM SCT023 08/03 A2981 RMK AO2 SLP097 T00780028 58008 $=
202103031953 METAR KCLM 031953Z AUTO 02003KT 10SM FEW017 SCT110 07/02 A2982 RMK AO2 SLP101 T00670022 $=
202103031853 METAR KCLM 031853Z AUTO 36004KT 10SM OVC100 07/03 A2984 RMK AO2 SLP105 T00670028 $=
202103031753 METAR KCLM 031753Z AUTO 00000KT 10SM OVC100 07/01 A2984 RMK AO2 SLP106 T00670011 10067 20022 50000 $=
202103031703 SPECI KCLM 031703Z AUTO 22003KT 10SM FEW025 OVC095 05/02 A2984 RMK AO2 T00500017 $=
202103031653 METAR KCLM 031653Z AUTO 23003KT 10SM BKN025 OVC095 05/02 A2984 RMK AO2 SLP106 T00500017 $=
202103031646 SPECI KCLM 031646Z AUTO 24003KT 10SM SCT025 OVC095 04/02 A2984 RMK AO2 T00440017 $=
202103031553 METAR KCLM 031553Z AUTO 23005KT 10SM BKN023 OVC090 04/01 A2984 RMK AO2 SLP106 T00390011 $=
202103031544 SPECI KCLM 031544Z AUTO 23003KT 10SM BKN023 OVC085 03/01 A2984 RMK AO2 T00330011 $=
202103031453 METAR KCLM 031453Z AUTO 22003KT 10SM SCT070 OVC090 03/01 A2984 RMK AO2 SLP105 T00280011 56012 $=
202103031353 METAR KCLM 031353Z AUTO 21003KT 10SM OVC095 03/01 A2984 RMK AO2 SLP107 T00280011 $=
202103031253 METAR KCLM 031253Z AUTO 00000KT 10SM OVC095 03/01 A2985 RMK AO2 SLP111 T00280011 $=
202103031153 METAR KCLM 031153Z AUTO 00000KT 10SM OVC095 03/01 A2987 RMK AO2 SLP117 T00280006 10039 20017 58013 $=
202103031053 METAR KCLM 031053Z AUTO 00000KT 10SM FEW028 OVC095 02/01 A2989 RMK AO2 SLP124 T00220006 $=
202103030953 METAR KCLM 030953Z AUTO 22004KT 10SM OVC100 03/01 A2990 RMK AO2 SLP127 T00280006 $=
202103030853 METAR KCLM 030853Z AUTO 21004KT 10SM OVC100 03/01 A2991 RMK AO2 SLP130 T00280006 58011 $=
202103030753 METAR KCLM 030753Z AUTO 21004KT 10SM BKN031 OVC110 03/01 A2993 RMK AO2 SLP135 T00330011 400780017 $=
202103030653 METAR KCLM 030653Z AUTO 22004KT 10SM SCT034 OVC100 03/01 A2994 RMK AO2 SLP139 T00330011 $=
202103030553 METAR KCLM 030553Z AUTO 23004KT 10SM SCT032 OVC110 03/01 A2994 RMK AO2 SLP141 T00330006 10067 20028 55011 $=
202103030453 METAR KCLM 030453Z AUTO 00000KT 10SM OVC110 03/01 A2994 RMK AO2 SLP141 T00280006 $=
202103030353 METAR KCLM 030353Z AUTO 00000KT 10SM BKN046 BKN110 04/01 A2995 RMK AO2 SLP145 T00440006 $=
202103030253 METAR KCLM 030253Z AUTO 25003KT 10SM BKN047 OVC070 05/00 A2997 RMK AO2 SLP153 T00500000 56009 $=
202103030153 METAR KCLM 030153Z AUTO 00000KT 10SM OVC041 06/M01 A2998 RMK AO2 SLP153 T00561006 $=
202103030053 METAR KCLM 030053Z AUTO 33003KT 10SM OVC046 06/00 A2999 RMK AO2 SLP156 T00610000 $=
202103022353 METAR KCLM 022353Z AUTO VRB03KT 10SM OVC046 07/M01 A3000 RMK AO2 SLP161 T00671006 10078 20061 56019 $=
202103022253 METAR KCLM 022253Z AUTO 29006KT 10SM FEW031 OVC044 07/M01 A3002 RMK AO2 SLP167 T00671011=
202103022153 METAR KCLM 022153Z AUTO VRB06KT 10SM BKN036 OVC046 07/01 A3003 RMK AO2 SLP171 T00670011=
202103022053 METAR KCLM 022053Z AUTO 32006KT 10SM OVC042 07/01 A3006 RMK AO2 SLP180 T00720006 58008=
202103021953 METAR KCLM 021953Z AUTO 32008KT 10SM BKN041 08/00 A3007 RMK AO2 SLP184 T00780000=
202103021853 METAR KCLM 021853Z AUTO VRB04KT 10SM BKN037 07/M01 A3007 RMK AO2 SLP186 T00721006=
202103021753 METAR KCLM 021753Z AUTO 21003KT 10SM CLR 07/M01 A3008 RMK AO2 SLP189 T00721006 10072 20017 53003=
202103021653 METAR KCLM 021653Z AUTO 26007KT 10SM CLR 06/00 A3008 RMK AO2 SLP188 T00610000=
202103021553 METAR KCLM 021553Z AUTO 23005KT 10SM CLR 03/00 A3007 RMK AO2 SLP185 T00330000=
202103021453 METAR KCLM 021453Z AUTO 22004KT 10SM CLR 02/M01 A3007 RMK AO2 SLP185 T00171006 58007=
202103021353 METAR KCLM 021353Z AUTO 23004KT 10SM CLR 04/M01 A3007 RMK AO2 SLP186 T00391011=
202103021253 METAR KCLM 021253Z AUTO 26008KT 10SM FEW038 04/M01 A3010 RMK AO2 SLP193 T00391011=
202103021153 METAR KCLM 021153Z AUTO 25004KT 10SM BKN039 04/M01 A3009 RMK AO2 SLP192 T00441006 10061 20044 56004=
202103021053 METAR KCLM 021053Z AUTO 25005KT 10SM OVC033 05/00 A3009 RMK AO2 SLP193 T00500000=
202103020953 METAR KCLM 020953Z AUTO 25007KT 10SM BKN031 05/01 A3010 RMK AO2 SLP194 T00500006=
202103020937 SPECI KCLM 020937Z AUTO 25010KT 10SM BKN029 05/01 A3010 RMK AO2 T00500011=
202103020853 METAR KCLM 020853Z AUTO 26008KT 10SM FEW031 04/02 A3011 RMK AO2 SLP197 T00440022 53001=
202103020849 SPECI KCLM 020849Z AUTO 26011KT 10SM SCT029 04/02 A3010 RMK AO2=
202103020823 SPECI KCLM 020823Z AUTO 26008KT 10SM BKN027 05/03 A3010 RMK AO2 T00500028=
202103020753 METAR KCLM 020753Z AUTO 25006KT 10SM CLR 04/02 A3009 RMK AO2 SLP192 T00440022 401110011=
202103020653 METAR KCLM 020653Z AUTO 25007KT 10SM CLR 05/03 A3010 RMK AO2 SLP195 T00500028=
202103020638 SPECI KCLM 020638Z AUTO 27009G20KT 10SM FEW026 05/03 A3011 RMK AO2 T00500028=
202103020553 METAR KCLM 020553Z AUTO 27013G18KT 10SM BKN023 BKN060 06/03 A3012 RMK AO2 SLP201 T00610028 10100 20056 53008=
202103020453 METAR KCLM 020453Z AUTO 28007KT 10SM OVC015 06/03 A3010 RMK AO2 SLP195 T00610033=
202103020450 SPECI KCLM 020450Z AUTO 28007KT 10SM OVC015 06/03 A3010 RMK AO2=
202103020420 SPECI KCLM 020420Z AUTO 28007KT 10SM OVC014 06/04 A3010 RMK AO2 T00610039=
202103020353 METAR KCLM 020353Z AUTO 27010KT 10SM FEW008 OVC015 06/04 A3010 RMK AO2 SLP194 T00610039=
202103020253 METAR KCLM 020253Z AUTO 29011KT 10SM BKN008 OVC016 07/05 A3010 RMK AO2 CIG 005V010 SLP193 T00670050 53011=
202103020221 SPECI KCLM 020221Z AUTO 29010KT 10SM BKN008 BKN012 08/06 A3008 RMK AO2 CIG 006V011 T00780056=
202103020212 SPECI KCLM 020212Z AUTO 28010KT 10SM SCT008 07/05 A3007 RMK AO2 T00720050=
202103020153 METAR KCLM 020153Z AUTO 27009KT 10SM FEW028 SCT034 08/05 A3007 RMK AO2 SLP185 T00780050=
202103020137 SPECI KCLM 020137Z AUTO 28011KT 10SM BKN028 BKN035 09/05 A3008 RMK AO2 T00890050=
202103020053 METAR KCLM 020053Z AUTO 30006KT 10SM FEW030 SCT035 10/04 A3007 RMK AO2 SLP185 T01000044=
202103012353 METAR KCLM 012353Z AUTO 25004KT 10SM FEW029 11/05 A3006 RMK AO2 SLP182 T01060050 10106 20067 58000=
202103012343 SPECI KCLM 012343Z AUTO 29005KT 10SM SCT027 11/05 A3006 RMK AO2 T01060050=
202103012253 METAR KCLM 012253Z AUTO 29008KT 10SM BKN025 09/04 A3008 RMK AO2 SLP186 T00940044=
202103012251 SPECI KCLM 012251Z AUTO 30008KT 10SM BKN025 09/04 A3008 RMK AO2=
202103012153 METAR KCLM 012153Z AUTO VRB03KT 10SM CLR 10/06 A3006 RMK AO2 SLP183 T01000056=
202103012053 METAR KCLM 012053Z AUTO VRB04KT 10SM CLR 09/05 A3006 RMK AO2 SLP182 T00940050 58001=
202103011953 METAR KCLM 011953Z AUTO 34004KT 10SM SCT011 09/06 A3007 RMK AO2 SLP185 T00890056=
202103011920 SPECI KCLM 011920Z AUTO 00000KT 10SM OVC011 08/06 A3008 RMK AO2 T00830056=
202103011853 METAR KCLM 011853Z AUTO VRB03KT 10SM BKN009 BKN090 07/06 A3008 RMK AO2 CIG 006V010 SLP188 T00720056=
202103011843 SPECI KCLM 011843Z AUTO 34004KT 10SM SCT009 BKN090 07/05 A3008 RMK AO2 T00720050=
202103011753 METAR KCLM 011753Z AUTO 00000KT 10SM BKN006 OVC009 07/06 A3007 RMK AO2 SLP183 T00670056 10072 20017 53008=
202103011653 METAR KCLM 011653Z AUTO 00000KT 10SM OVC007 07/05 A3005 RMK AO2 SLP178 T00670050=
202103011553 METAR KCLM 011553Z AUTO 18004KT 10SM OVC006 04/03 A3004 RMK AO2 SLP175 T00440033=
202103011513 SPECI KCLM 011513Z AUTO 00000KT 10SM BKN007 03/02 A3004 RMK AO2 T00280022=
202103011505 SPECI KCLM 011505Z AUTO 21003KT 10SM SCT009 03/02 A3004 RMK AO2 T00280022=
202103011453 METAR KCLM 011453Z AUTO 22003KT 10SM CLR 03/02 A3004 RMK AO2 SLP175 T00280022 53001=
202103011353 METAR KCLM 011353Z AUTO 23003KT 10SM CLR 03/02 A3004 RMK AO2 SLP175 T00280017=
202103011253 METAR KCLM 011253Z AUTO 00000KT 10SM CLR 03/02 A3003 RMK AO2 SLP172 T00330022=
202103011153 METAR KCLM 011153Z AUTO 21004KT 10SM CLR 02/01 A3004 RMK AO2 SLP174 T00220011 10039 20011 58016=
202103011053 METAR KCLM 011053Z AUTO 00000KT 10SM CLR 02/01 A3006 RMK AO2 SLP180 T00170006=
202103010953 METAR KCLM 010953Z AUTO 22004KT 10SM CLR 02/01 A3008 RMK AO2 SLP188 T00170006=
202103010853 METAR KCLM 010853Z AUTO 21004KT 10SM CLR 02/02 A3009 RMK AO2 SLP190 T00220017 58005=
202103010822 SPECI KCLM 010822Z AUTO 21005KT 10SM SCT011 03/02 A3010 RMK AO2 T00280022=
202103010809 SPECI KCLM 010809Z AUTO 23006KT 10SM BKN010 03/02 A3010 RMK AO2 T00280017=
202103010753 METAR KCLM 010753Z AUTO 22006KT 10SM FEW009 03/02 A3010 RMK AO2 SLP195 T00280017 400890017=
202103010653 METAR KCLM 010653Z AUTO 28004KT 10SM FEW007 03/02 A3010 RMK AO2 SLP194 T00280017=
202103010641 SPECI KCLM 010641Z AUTO 25004KT 10SM SCT007 02/01 A3010 RMK AO2 T00170006=
202103010615 SPECI KCLM 010615Z AUTO 16003KT 10SM BKN007 03/02 A3010 RMK AO2 T00280017=
202103010605 SPECI KCLM 010605Z AUTO 00000KT 10SM SCT009 03/02 A3010 RMK AO2 T00330017=
202103010553 METAR KCLM 010553Z AUTO 23005KT 10SM CLR 03/02 A3010 RMK AO2 SLP196 T00330022 10083 20028 56015=
202103010453 METAR KCLM 010453Z AUTO 21005KT 10SM CLR 06/03 A3011 RMK AO2 SLP198 T00560028=
202103010353 METAR KCLM 010353Z AUTO 23003KT 10SM CLR 04/03 A3013 RMK AO2 SLP205 T00440028=
202103010253 METAR KCLM 010253Z AUTO 23003KT 10SM SCT039 05/03 A3015 RMK AO2 SLP212 T00500033 56019=
202103010233 SPECI KCLM 010233Z AUTO 00000KT 10SM FEW025 OVC040 06/03 A3015 RMK AO2 T00610033=
202103010153 METAR KCLM 010153Z AUTO 00000KT 10SM OVC023 07/04 A3016 RMK AO2 SLP215 T00720039=
202103010120 SPECI KCLM 010120Z AUTO 29003KT 10SM BKN022 08/04 A3018 RMK AO2 T00780039=
202103010053 METAR KCLM 010053Z AUTO 28004KT 10SM CLR 08/04 A3019 RMK AO2 SLP226 T00830039=

# No short TAF reports from KCLM in databse.

###################################
#  large TAF from KCLM
###################################
202103312322 TAF KCLM 312322Z 0100/0124 09007KT P6SM SCT250 FM010300 24006KT
                       P6SM SCT250 FM012100 33007KT P6SM OVC050=
202103311724 TAF KCLM 311724Z 3118/0118 07004KT P6SM SCT250 FM010000 VRB03KT
                       P6SM SCT250 FM010800 24003KT P6SM BKN250=
202103311121 TAF KCLM 311121Z 3112/0112 22004KT P6SM SKC FM311700 08006KT P6SM
                       SCT250 FM010000 03006KT P6SM SCT250=
202103310527 TAF KCLM 310527Z 3106/0106 VRB04KT P6SM SKC FM311700 08006KT P6SM
                       SCT250=
202103310318 KCLM 310318Z 3103/3124 VRB04KT P6SM SKC FM311700 08006KT P6SM SKC=
202103302332 TAF KCLM 302332Z 3100/3124 07008KT P6SM SKC FM310300 24004KT P6SM
                       SKC FM311700 08006KT P6SM SKC=
202103301725 TAF KCLM 301725Z 3018/3118 07008KT P6SM SKC FM302000 07004KT P6SM
                       SKC FM310300 25004KT P6SM SKC=
202103301120 TAF KCLM 301120Z 3012/3112 24008KT P6SM SKC FM302000 07004KT P6SM
                       SKC FM310300 25006KT P6SM SKC=
202103300532 TAF KCLM 300532Z 3006/3106 24008KT P6SM SKC FM302000 07004KT P6SM
                       SKC FM310300 25006KT P6SM SKC=
202103300305 KCLM 300305Z 3003/3024 24006KT P6SM SKC FM302000 06005KT P6SM SKC=
202103292320 TAF KCLM 292320Z 3000/3024 32008KT P6SM SKC=
202103291720 TAF KCLM 291720Z 2918/3018 23006KT P6SM SKC=
202103291128 TAF KCLM 291128Z 2912/3012 26010KT P6SM SCT050 FM291800 32008KT
                       P6SM SCT050 FM300600 24006KT P6SM SKC=
202103290534 TAF KCLM 290534Z 2906/3006 28015G25KT P6SM BKN045 FM291800 32008KT
                       P6SM SCT050=
202103282320 TAF KCLM 282320Z 2900/2924 29015G25KT P6SM VCSH BKN040 BKN080 FM290800
                       30012G22KT P6SM BKN050 FM291800 32008KT
                       P6SM SCT050=
202103281720 TAF KCLM 281720Z 2818/2918 28012KT 5SM -RA BR SCT015 OVC030 FM282100
                       29020G30KT P6SM -SHRA BKN040 FM290000 29020G30KT
                       P6SM BKN050 FM290800 30012G22KT P6SM BKN050=
202103281329 KCLM 281329Z 2813/2912 12006KT P6SM BKN012 OVC070 FM281700 29012KT
                       5SM -RA BR SCT015 OVC030 FM282100 29020G30KT
                       P6SM -SHRA BKN040 FM290000 29020G30KT P6SM
                       SCT040 BKN070=
202103281128 TAF KCLM 281128Z 2812/2912 VRB03KT P6SM SCT015 OVC070 FM281700
                       29012KT 5SM -RA BR SCT015 OVC030 FM282100
                       29020G30KT P6SM -SHRA BKN040 FM290000 29020G30KT
                       P6SM SCT040 BKN070=
202103280536 TAF KCLM 280536Z 2806/2906 29006KT P6SM OVC008 FM281200 29006KT
                       P6SM SCT008 BKN015 OVC030 FM281600 29012KT
                       5SM -RA BR SCT015 OVC030 FM282200 29020G30KT
                       P6SM -SHRA BKN040 FM290300 29020G30KT P6SM
                       SCT040 BKN070=
202103280303 KCLM 280303Z 2803/2824 29005KT P6SM OVC013 FM281200 29005KT 5SM
                       -RA BR SCT015 OVC030 FM282200 29020G30KT
                       P6SM -SHRA BKN030=
202103272320 TAF KCLM 272320Z 2800/2824 VRB04KT P6SM BKN012 BKN120 OVC200
                      TEMPO 2800/2804 SCT015 BKN120 OVC200 FM280800
                       09005KT P6SM BKN050 OVC090 FM281400 VRB05KT
                       5SM -RA BR OVC030 FM282200 29020G30KT P6SM
                       -SHRA BKN030=
202103271720 TAF KCLM 271720Z 2718/2818 00000KT P6SM BKN022 FM272200 VRB04KT
                       P6SM SCT030 BKN120 OVC200 FM280800 09005KT
                       P6SM BKN050 OVC090 FM281200 21010KT 5SM
                       -RA BR OVC030=
202103271124 TAF KCLM 271124Z 2712/2812 25006KT P6SM OVC020 FM272200 30008KT
                       P6SM BKN035=
202103270538 TAF KCLM 270538Z 2706/2806 30008KT P6SM BKN035 FM271000 VRB03KT
                       P6SM OVC020 FM272200 27007KT P6SM BKN035=
202103262320 TAF KCLM 262320Z 2700/2724 30008KT P6SM BKN035 FM271000 VRB03KT
                       P6SM OVC020 FM272200 27007KT P6SM BKN035=
202103261720 TAF KCLM 261720Z 2618/2718 VRB04KT P6SM SCT015
                      TEMPO 2618/2621 BKN015 FM270000 30008KT P6SM
                       SCT040 FM271200 VRB03KT P6SM BKN025=
202103261126 TAF KCLM 261126Z 2612/2712 23005KT P6SM BKN050 FM261900 03005KT
                       P6SM SCT050 SCT250 FM270300 28005KT P6SM
                       BKN050=
202103260526 TAF KCLM 260526Z 2606/2706 26005KT P6SM SCT040 FM261200 23005KT
                       P6SM BKN050=
202103252320 TAF KCLM 252320Z 2600/2624 26005KT P6SM SCT040 FM261200 23005KT
                       P6SM BKN050=
202103251723 TAF KCLM 251723Z 2518/2618 09006KT P6SM OVC060 FM252000 05007KT
                       P6SM SCT050 FM261200 23005KT P6SM BKN050=
202103251138 TAF KCLM 251138Z 2512/2612 24007KT P6SM BKN010 OVC025 FM251500
                       25007KT P6SM BKN025 FM251900 05007KT P6SM
                       SCT050=
202103250524 TAF KCLM 250524Z 2506/2606 29004KT P6SM VCSH SCT020 OVC040 FM251200
                       24007KT P6SM BKN025 FM252000 05007KT P6SM
                       SCT050=
202103250305 KCLM 250305Z 2503/2524 29008KT P6SM VCSH SCT010 OVC030 FM251200
                       24007KT P6SM BKN025 FM252000 05007KT P6SM
                       SCT050=
202103242320 TAF KCLM 242320Z 2500/2524 30010KT P6SM VCSH SCT010 OVC015
                      TEMPO 2501/2504 6SM -RA BR BKN009 FM250400
                       29008KT P6SM VCSH OVC015 FM251200 24007KT
                       P6SM BKN025 FM252000 05007KT P6SM SCT050=
202103241731 TAF KCLM 241731Z 2418/2518 25010KT P6SM -SHRA SCT020 OVC040 FM242100
                       28012KT P6SM VCSH OVC030 FM250300 26008KT
                       P6SM -RA OVC028 FM251100 24007KT P6SM OVC025=
202103241130 TAF KCLM 241130Z 2412/2512 VRB05KT P6SM -RA OVC050 FM241600 29010KT
                       P6SM -RA OVC015 FM250000 28009KT P6SM OVC015
                       FM250600 25008KT P6SM OVC030=
202103240532 TAF KCLM 240532Z 2406/2506 VRB03KT P6SM -RA OVC015 FM241100 24007KT
                       P6SM -RA OVC015 FM241800 29010KT P6SM VCSH
                       OVC015 FM250000 28009KT P6SM OVC015=
202103240209 KCLM 240209Z 2402/2424 30006KT P6SM BKN015 OVC030 FM240600 VRB03KT
                       P6SM SCT015 OVC030 FM241100 24007KT P6SM
                       -RA OVC020 FM241800 29010KT P6SM VCSH OVC015=
202103232322 TAF KCLM 232322Z 2400/2424 VRB04KT P6SM SCT035 SCT150 FM240300
                       33006KT P6SM SCT035 OVC100 FM240600 VRB03KT
                       P6SM OVC030 FM241100 24007KT P6SM -RA OVC020
                       FM241800 29010KT P6SM VCSH OVC015=
202103231720 TAF KCLM 231720Z 2318/2418 VRB04KT P6SM SCT020 FM232000 05005KT
                       P6SM SCT040 FM240000 33006KT P6SM OVC100
                       FM240200 VRB03KT P6SM OVC050 FM241000 25005KT
                       P6SM OVC025 FM241200 24007KT P6SM -RA OVC020=
202103231124 TAF KCLM 231124Z 2312/2412 24006KT P6SM SKC FM231400 VRB04KT P6SM
                       SCT020 FM232000 05005KT P6SM SCT040 FM240000
                       33006KT P6SM OVC100 FM240200 VRB03KT P6SM
                       OVC050 FM241000 25005KT P6SM OVC025=
202103230520 TAF KCLM 230520Z 2306/2406 24006KT P6SM SKC FM231400 VRB04KT P6SM
                       SCT020 FM232000 05005KT P6SM SCT040 FM240000
                       33006KT P6SM OVC100 FM240200 VRB03KT P6SM
                       OVC050=
202103222331 TAF KCLM 222331Z 2300/2324 29013G20KT P6SM VCSH SCT025 BKN040
                      TEMPO 2300/2303 -SHRA BKN025 FM230300 29011KT
                       P6SM SCT050 FM230800 24006KT P6SM SKC FM231400
                       VRB04KT P6SM SCT020 FM232000 05005KT P6SM
                       SCT040=
202103221732 TAF KCLM 221732Z 2218/2318 28012KT P6SM SCT030 FM222000 30013G20KT
                       P6SM VCSH SCT050 FM230200 29010KT P6SM SCT060
                       FM231000 24004KT P6SM BKN030=
202103221137 TAF KCLM 221137Z 2212/2312 29012G20KT P6SM VCSH SCT025 BKN040 FM222300
                       31010KT P6SM VCSH SCT025 BKN045 FM230200
                       29010KT P6SM BKN050=
202103220537 TAF KCLM 220537Z 2206/2306 VRB06KT P6SM -RA SCT015 OVC030 FM220700
                       28010G20KT P6SM -SHRA BKN015 OVC030 FM221200
                       29012G20KT P6SM SCT025 BKN040 FM230000 30009KT
                       P6SM BKN050=
202103212337 TAF KCLM 212337Z 2200/2224 VRB03KT P6SM BKN040 OVC060 FM220400
                       28008KT P6SM -RA SCT015 OVC025 FM220700
                       28012G22KT P6SM -SHRA BKN015 OVC025 FM221200
                       28008KT P6SM SCT025 BKN040=
202103211741 TAF KCLM 211741Z 2118/2218 VRB03KT P6SM SCT030 OVC050 FM220000
                       28008KT P6SM -RA SCT015 OVC025 FM220600
                       28012G22KT P6SM -SHRA BKN015 OVC025=
202103211139 TAF KCLM 211139Z 2112/2212 VRB05KT P6SM OVC040 FM211600 25003KT
                       P6SM -RA SCT025 BKN050 OVC100 FM212000 31006KT
                       P6SM -RA SCT015 OVC030 FM220000 29008G18KT
                       5SM -RA BR OVC010 FM220600 28008KT 6SM BR
                       VCSH OVC015=
202103210530 TAF KCLM 210530Z 2106/2206 28012G20KT P6SM SCT030 BKN050 FM211000
                       26010KT P6SM OVC020 FM211600 VRB03KT P6SM
                       SCT025 BKN050 OVC100 FM212000 VRB03KT P6SM
                       -RA SCT015 OVC030 FM220000 30010G17KT 6SM
                       -RA BR OVC007=
202103210208 KCLM 210208Z 2102/2124 28014G24KT P6SM SCT025 BKN040 FM210500 28012KT
                       P6SM SCT030 BKN050 FM211000 28006KT P6SM
                       OVC020 FM211600 VRB03KT P6SM SCT025 BKN050
                       OVC100 FM212000 VRB03KT P6SM -RA OVC035=
202103202340 TAF KCLM 202340Z 2100/2124 28014G24KT P6SM SCT025 BKN040
                      TEMPO 2100/2103 -SHRA BKN025 OVC040 FM210500
                       28012KT P6SM SCT030 BKN050 FM211000 28006KT
                       P6SM OVC020 FM211600 VRB03KT P6SM SCT025
                       BKN050 OVC100 FM212000 VRB03KT P6SM -RA
                       OVC035=
202103201738 TAF KCLM 201738Z 2018/2118 27010KT P6SM BKN050 FM202100 27014G24KT
                       P6SM SCT025 BKN050
                      TEMPO 2021/2101 -SHRA BKN025 FM210100 29012G18KT
                       P6SM SCT030 BKN050 FM211000 29006KT P6SM
                       OVC020=
202103201135 TAF KCLM 201135Z 2012/2112 20006KT P6SM VCSH SCT060 OVC070 FM201300
                       24003KT P6SM VCSH OVC035 FM202200 30010G20KT
                       P6SM OVC035 FM210200 29012KT P6SM OVC050=
202103200537 TAF KCLM 200537Z 2006/2106 23004KT P6SM VCSH OVC025 FM201200 25006KT
                       P6SM OVC015 FM201500 16005KT P6SM OVC025
                       FM210000 20008KT P6SM OVC050=
202103192323 TAF KCLM 192323Z 2000/2024 VRB05KT P6SM VCSH BKN050 OVC070 FM200600
                       23004KT P6SM VCSH OVC025 FM201200 25006KT
                       P6SM OVC015 FM202000 29014G24KT P6SM SCT035
                       BKN050=
202103191724 TAF KCLM 191724Z 1918/2018 11005KT P6SM VCSH SCT045 BKN070 FM200000
                       27004KT P6SM VCSH OVC025 FM201500 25007KT
                       P6SM OVC025=
202103191135 TAF KCLM 191135Z 1912/2012 22005KT P6SM -SHRA FEW045 BKN060 FM191600
                       17002KT P6SM -SHRA OVC035 FM200000 27004KT
                       P6SM -SHRA OVC025 FM200500 26005KT P6SM
                       -RA OVC025=
202103190532 TAF KCLM 190532Z 1906/2006 VRB04KT P6SM -SHRA BKN045 OVC060 FM191600
                       VRB05KT P6SM -SHRA OVC035 FM200000 28006KT
                       P6SM -SHRA OVC025=
202103182328 TAF KCLM 182328Z 1900/1924 23007KT P6SM VCSH OVC060 FM190040 VRB04KT
                       P6SM -SHRA BKN045 OVC060 FM191600 VRB04KT
                       P6SM -SHRA OVC035=
202103181741 TAF KCLM 181741Z 1818/1918 09005KT P6SM VCSH OVC050 FM182000 VRB03KT
                       P6SM -SHRA OVC050 FM190500 VRB04KT P6SM
                       VCSH BKN045 FM191600 VRB04KT P6SM -SHRA
                       OVC035=
202103181136 TAF KCLM 181136Z 1812/1912 23004KT P6SM OVC100 FM181600 21003KT
                       P6SM OVC050 FM182000 VRB03KT 6SM -RA OVC050
                       FM190500 24002KT P6SM VCSH BKN050=
202103180534 TAF KCLM 180534Z 1806/1906 23007KT P6SM OVC250 FM181100 23004KT
                       P6SM OVC100 FM181600 21003KT P6SM OVC050
                       FM182000 VRB03KT 6SM -RA OVC050 FM190500
                       24002KT P6SM VCSH BKN050=
202103172324 TAF KCLM 172324Z 1800/1824 VRB05KT P6SM OVC250 FM181100 23004KT
                       P6SM OVC100 FM181600 21003KT P6SM OVC050
                       FM182000 VRB03KT 6SM -RA OVC050=
202103171720 TAF KCLM 171720Z 1718/1818 VRB03KT P6SM FEW250 FM181100 23004KT
                       P6SM OVC100 FM181600 21003KT P6SM OVC050=
202103171120 TAF KCLM 171120Z 1712/1812 VRB04KT P6SM BKN250 FM181100 23004KT
                       P6SM OVC100=
202103170520 TAF KCLM 170520Z 1706/1806 VRB04KT P6SM SCT250 FM180000 VRB03KT
                       P6SM BKN250=
202103162331 TAF KCLM 162331Z 1700/1724 VRB04KT P6SM SCT250 FM171200 00000KT
                       P6SM OVC250 FM171900 05004KT P6SM SCT250=
202103161723 TAF KCLM 161723Z 1618/1718 VRB04KT P6SM SCT250 FM171200 23003KT
                       P6SM FEW250=
202103161120 TAF KCLM 161120Z 1612/1712 VRB04KT P6SM FEW250=
202103160520 TAF KCLM 160520Z 1606/1706 VRB04KT P6SM FEW250=
202103152320 TAF KCLM 152320Z 1600/1624 VRB03KT P6SM SKC FM160600 24004KT P6SM
                       FEW250 FM161800 04004KT P6SM FEW250=
202103151720 TAF KCLM 151720Z 1518/1618 13004KT P6SM FEW050 FM152100 VRB05KT
                       P6SM SCT050 FM160200 24004KT P6SM FEW250=
202103151336 KCLM 151336Z 1514/1612 25007KT P6SM VCSH FEW030 BKN045
                      TEMPO 1514/1516 -SHRA FM151600 24006KT P6SM
                       FEW030 FEW060 FM152100 VRB05KT P6SM SKC
                       FM160400 24004KT P6SM SKC=
202103151124 TAF KCLM 151124Z 1512/1612 25006KT P6SM VCSH BKN040 BKN060
                      TEMPO 1512/1514 -SHRA FM151500 24006KT P6SM
                       FEW030 FEW060 FM152100 VRB05KT P6SM SKC
                       FM160400 24004KT P6SM SKC=
202103150524 TAF KCLM 150524Z 1506/1606 29009KT P6SM FEW030 SCT120 FM151400
                       24006KT P6SM SKC FM152100 VRB05KT P6SM SKC=
202103142323 TAF KCLM 142323Z 1500/1524 27015G20KT P6SM VCSH SCT025 OVC090 FM150700
                       27010KT P6SM SCT030 BKN100 FM151800 30009KT
                       P6SM SCT040=
202103142010 KCLM 142010Z 1420/1518 28014G24KT 6SM -RA SCT010 BKN018 OVC030
                       FM150000 29014G24KT P6SM VCSH OVC030 FM150700
                       27010KT P6SM SCT040 BKN100=
202103141720 TAF KCLM 141720Z 1418/1518 VRB05KT P6SM -RA OVC045 FM142000 32010KT
                       P6SM -RA OVC015 FM150000 29014G24KT P6SM
                       VCSH OVC030 FM150700 27010KT P6SM SCT040
                       BKN100=
202103141127 TAF KCLM 141127Z 1412/1512 23005KT P6SM OVC050 FM141400 24003KT
                       P6SM SCT060 OVC100 FM141600 VRB05KT P6SM
                       -RA OVC040 FM142000 32010KT P6SM -RA OVC015
                       FM150000 29014G24KT P6SM VCSH OVC030=
202103140520 TAF KCLM 140520Z 1406/1506 VRB04KT P6SM SCT120 OVC200 FM141000
                       23003KT P6SM OVC050 FM141500 28002KT P6SM
                       -RA OVC015 FM142100 32010KT P6SM -RA OVC015
                       FM150000 29014G24KT P6SM -SHRA OVC030=
202103132320 TAF KCLM 132320Z 1400/1424 VRB04KT P6SM SCT120 OVC200 FM141000
                       23003KT P6SM OVC050 FM141600 28002KT P6SM
                       -RA OVC015 FM142100 32007KT P6SM -SHRA SCT020
                       BKN030=
202103131733 TAF KCLM 131733Z 1318/1418 08003KT P6SM SCT120 BKN200 FM140200
                       22004KT P6SM SCT120 BKN200 FM141000 VRB03KT
                       P6SM BKN120 OVC200 FM141700 VRB04KT P6SM
                       -RA OVC050=
202103131127 TAF KCLM 131127Z 1312/1412 21004KT P6SM SCT150 SCT250 FM131800
                       VRB05KT P6SM SCT250 FM140400 22004KT P6SM
                       SCT120 BKN250 FM141000 VRB03KT P6SM BKN120
                       OVC200=
202103130520 TAF KCLM 130520Z 1306/1406 VRB03KT P6SM SCT250 FM131800 VRB04KT
                       P6SM SCT250=
202103122320 TAF KCLM 122320Z 1300/1324 08003KT P6SM FEW110 BKN250 FM130500
                       VRB03KT P6SM SCT250 FM131800 VRB04KT P6SM
                       SCT250=
202103121720 TAF KCLM 121720Z 1218/1318 00000KT P6SM OVC070 FM122000 05006KT
                       P6SM SCT070 BKN250 FM130500 VRB03KT P6SM
                       FEW250=
202103121130 TAF KCLM 121130Z 1212/1312 24005KT P6SM SCT120 BKN250 FM121900
                       05006KT P6SM BKN250 FM130500 VRB03KT P6SM
                       FEW250=
202103120520 TAF KCLM 120520Z 1206/1306 24005KT P6SM SCT250 FM121800 05004KT
                       P6SM BKN250=
202103112320 TAF KCLM 112320Z 1200/1224 07004KT P6SM SCT250 FM120400 24005KT
                       P6SM SCT250 FM121800 05004KT P6SM BKN250=
202103111720 TAF KCLM 111720Z 1118/1218 VRB04KT P6SM FEW250 FM120400 24005KT
                       P6SM SCT250=
202103111132 TAF KCLM 111132Z 1112/1212 22007KT P6SM SKC FM111800 06005KT P6SM
                       FEW250 FM120400 24005KT P6SM SCT250=
202103110520 TAF KCLM 110520Z 1106/1206 21005KT P6SM SCT050 FM110800 VRB03KT
                       P6SM SKC FM111800 06005KT P6SM SKC FM120400
                       24005KT P6SM SCT250=
202103102320 TAF KCLM 102320Z 1100/1124 VRB05KT P6SM SCT020 BKN050 FM110400
                       24005KT P6SM SCT050 FM110800 VRB03KT P6SM
                       SKC=
202103101720 TAF KCLM 101720Z 1018/1118 24010KT P6SM SCT040
                      TEMPO 1018/1022 BKN030 FM110300 24005KT P6SM
                       SCT250=
202103101127 TAF KCLM 101127Z 1012/1112 23006KT P6SM FEW200 FM101800 VRB05KT
                       P6SM FEW050 SCT250 FM110300 24005KT P6SM
                       SCT250=
202103100520 TAF KCLM 100520Z 1006/1106 23005KT P6SM SKC FM101800 34006KT P6SM
                       SCT250 FM110300 26005KT P6SM SKC=
202103092320 TAF KCLM 092320Z 1000/1024 32004KT P6SM VCSH FEW060 BKN120 FM100300
                       26004KT P6SM SCT120 BKN200 FM101800 34006KT
                       P6SM SCT250=
202103091721 TAF KCLM 091721Z 0918/1018 07005KT P6SM VCSH OVC080 FM100300 VRB04KT
                       P6SM SCT100=
202103091123 TAF KCLM 091123Z 0912/1012 27005KT P6SM SCT080 FM091700 22004KT
                       P6SM BKN100 FM092000 03005KT P6SM VCSH BKN100
                       FM100300 VRB04KT P6SM SCT100=
202103090520 TAF KCLM 090520Z 0906/1006 VRB03KT P6SM VCSH BKN080 OVC150=
202103082323 TAF KCLM 082323Z 0900/0924 07005KT P6SM SCT100 BKN250 FM090200
                       VRB03KT P6SM VCSH BKN080 OVC150=
202103081720 TAF KCLM 081720Z 0818/0918 08004KT P6SM BKN250 FM090200 21003KT
                       P6SM VCSH BKN080 OVC150=
202103081121 TAF KCLM 081121Z 0812/0912 21003KT P6SM SCT250 FM081500 17003KT
                       P6SM SCT250 FM082200 08004KT P6SM VCSH FEW070
                       SCT100 FM090400 VRB03KT P6SM -SHRA BKN060
                       FM090800 22003KT P6SM BKN100=
202103080520 TAF KCLM 080520Z 0806/0906 24003KT P6SM VCSH BKN060 FM080800 22004KT
                       P6SM SCT250 FM081500 VRB03KT P6SM SCT250
                       FM082200 08004KT P6SM VCSH FEW070 SCT100
                       FM090400 VRB03KT P6SM -SHRA BKN060=
202103072338 TAF KCLM 072338Z 0800/0824 VRB06KT P6SM VCSH BKN060
                      TEMPO 0800/0804 -RA BKN030 FM080400 22003KT
                       P6SM BKN060 FM080600 22004KT P6SM SCT250
                       FM081600 15003KT P6SM SCT250 FM081800 08004KT
                       P6SM SCT250=
202103071735 TAF KCLM 071735Z 0718/0818 26005KT P6SM VCSH BKN030
                      TEMPO 0718/0720 -SHRA BKN012 OVC020 FM072000
                       01007KT P6SM VCSH BKN040 FM080200 28004KT
                       P6SM BKN080 FM080600 23004KT P6SM SCT250
                       FM081600 17003KT P6SM BKN250=
202103071123 TAF KCLM 071123Z 0712/0812 VRB05KT P6SM VCSH BKN070 FM071400 VRB04KT
                       P6SM VCSH OVC030 FM071700 26005KT P6SM VCSH
                       BKN045 FM072000 01007KT P6SM VCSH BKN045
                       FM080200 28004KT P6SM BKN080 FM080600 23004KT
                       P6SM SCT250=
202103070520 TAF KCLM 070520Z 0706/0806 VRB04KT P6SM VCSH SCT025 BKN050 FM070900
                       VRB05KT P6SM -RA OVC030 FM071400 VRB04KT
                       P6SM VCSH OVC030 FM071700 26005KT P6SM VCSH
                       BKN045
                      PROB30 0719/0801 -SHRA FM080200 28004KT P6SM
                       BKN080=
202103062338 TAF KCLM 062338Z 0700/0724 12005KT P6SM VCSH FEW020 SCT050 BKN060
                       FM070100 07003KT P6SM VCSH OVC060 FM070500
                       19003KT P6SM -RA OVC050 FM070900 24005KT
                       5SM -RA OVC020 FM071700 26005KT P6SM VCSH
                       OVC035=
202103061730 TAF KCLM 061730Z 0618/0718 25009KT P6SM FEW050 BKN070 FM062300
                       VRB05KT P6SM VCSH BKN100 FM070500 19003KT
                       P6SM -RA OVC050 FM071100 25003KT P6SM -RA
                       OVC025=
202103061122 TAF KCLM 061122Z 0612/0712 VRB03KT P6SM VCSH BKN060 FM061800 30005KT
                       P6SM BKN070 FM062300 VRB05KT P6SM VCSH BKN100
                       FM070500 19003KT P6SM -RA OVC050=
202103060520 TAF KCLM 060520Z 0606/0706 25006KT P6SM VCSH SCT030 BKN070 OVC100
                       TEMPO 0606/0608 -SHRA BKN030 FM061000 25006KT
                       P6SM -RA OVC050 FM061200 24005KT P6SM VCSH
                       BKN050 FM061800 VRB05KT P6SM BKN070 FM062300
                       VRB05KT P6SM VCSH OVC080=
202103052339 TAF KCLM 052339Z 0600/0624 24008KT P6SM -RA BKN060 OVC070 FM060100
                       27007KT P6SM SCT030 OVC060 FM060900 26010KT
                       P6SM -RA BKN050 FM061300 24005KT P6SM BKN050
                       FM061800 VRB03KT P6SM BKN050=
202103051739 TAF KCLM 051739Z 0518/0618 24008KT P6SM -RA OVC060 FM051900 VRB05KT
                       6SM -RA BKN035 FM060100 27005KT P6SM SCT030
                       BKN200 FM060900 26009KT P6SM -RA BKN050
                       FM061300 24005KT P6SM BKN050=
202103051121 TAF KCLM 051121Z 0512/0612 17005KT P6SM -RA BKN060 OVC080 FM051800
                       28006KT 6SM -RA OVC030 FM060100 27005KT
                       P6SM SCT030 BKN200 FM060900 26009KT P6SM
                       -RA BKN050=
202103050520 TAF KCLM 050520Z 0506/0606 VRB03KT P6SM -RA SCT025 OVC050 FM050900
                       VRB03KT P6SM VCSH OVC030 FM051200 VRB03KT
                       P6SM -RA OVC050 FM051800 31006KT 6SM -RA
                       OVC030 FM060100 27005KT P6SM SCT030 BKN050
                       BKN200=
202103042339 TAF KCLM 042339Z 0500/0524 09006KT P6SM -RA OVC060 FM050300 20003KT
                       P6SM -RA OVC025 FM050900 20002KT P6SM OVC050
                       FM051200 05002KT P6SM -RA OVC050 FM051800
                       31004KT 6SM -RA OVC050=
202103041728 TAF KCLM 041728Z 0418/0518 VRB03KT P6SM BKN025 OVC100 FM042300
                       27006KT 5SM -RA OVC015 FM050300 VRB03KT
                       4SM -RA BR OVC015 FM050700 20002KT 6SM -RA
                       BR OVC050 FM051200 05002KT P6SM -RA OVC050=
202103041122 TAF KCLM 041122Z 0412/0512 22007KT P6SM SCT250 FM041700 VRB03KT
                       P6SM OVC100 FM042300 27006KT P6SM -RA BKN050
                       FM050300 VRB03KT 5SM -RA BR OVC040 FM050700
                       20002KT 6SM -RA BR OVC050=
202103040520 TAF KCLM 040520Z 0406/0506 VRB03KT P6SM SCT250 FM041700 VRB03KT
                       P6SM OVC100 FM042300 27006KT P6SM -RA BKN050
                       FM050300 VRB03KT 5SM -RA BR OVC040=
202103032320 TAF KCLM 032320Z 0400/0424 VRB03KT P6SM SKC FM041700 VRB03KT P6SM
                       OVC100 FM042300 34006KT P6SM -RA BKN050=
202103031726 TAF KCLM 031726Z 0318/0418 VRB03KT P6SM BKN100 OVC200=
202103031143 TAF KCLM 031143Z 0312/0412 VRB03KT P6SM BKN100 OVC200=
202103030520 TAF KCLM 030520Z 0306/0406 29007KT P6SM BKN040 OVC110 FM030900
                       VRB04KT P6SM BKN030 OVC100 FM031800 04005KT
                       P6SM BKN035 OVC150 FM032200 VRB03KT P6SM
                       SCT040 BKN200=
202103022320 TAF KCLM 022320Z 0300/0324 29007KT P6SM BKN040 OVC200 FM030900
                       VRB04KT P6SM BKN040 BKN150=
202103021720 TAF KCLM 021720Z 0218/0318 26006KT P6SM SCT040 SCT080 FM030000
                       30006KT P6SM SCT025 BKN040 BKN100 FM030900
                       VRB03KT P6SM BKN040 BKN080 FM031700 09005KT
                       P6SM BKN040 BKN080=
202103021129 TAF KCLM 021129Z 0212/0312 19004KT P6SM OVC060 FM022000 31006KT
                       P6SM BKN050 BKN120 FM030200 VRB04KT P6SM
                       BKN050 OVC110=
202103020520 TAF KCLM 020520Z 0206/0306 27010KT P6SM OVC015 FM021200 25007KT
                       P6SM BKN015 OVC025 FM022000 31006KT P6SM
                       BKN050 BKN120 FM030200 VRB04KT P6SM BKN050
                       OVC110=
202103012324 TAF KCLM 012324Z 0200/0224 29007KT P6SM SCT025 SCT070 BKN120 FM020200
                       27010KT P6SM BKN060 OVC100 FM021200 25007KT
                       P6SM BKN035 OVC060 FM022000 31006KT P6SM
                       BKN050 BKN120=
202103011737 TAF KCLM 011737Z 0118/0218 VRB03KT P6SM SCT007 SCT070 BKN120
                      TEMPO 0118/0120 BKN007 FM012000 31004KT P6SM
                       SCT070 BKN120 FM020200 27008KT P6SM BKN060
                       OVC100 FM021200 25007KT P6SM BKN035 OVC060=
202103011543 KCLM 011543Z 0116/0212 24003KT P6SM SCT007 BKN120 BKN200
                      TEMPO 0116/0118 BKN007 FM011800 24003KT P6SM
                       SCT070 BKN120 FM012000 31004KT P6SM SCT070
                       SCT120=
202103011133 TAF KCLM 011133Z 0112/0212 24003KT P6SM FEW040 BKN200 FM011400
                       24003KT P6SM SCT070 BKN120 FM012000 31004KT
                       P6SM SCT070 SCT120=
202103010520 TAF KCLM 010520Z 0106/0206 24003KT P6SM FEW040 BKN200 FM011400
                       24003KT P6SM SCT070 BKN120 FM012000 31004KT
                       P6SM SCT070 SCT120=