##########################################################
# Query made at 02/16/2025 04:54:23 UTC
# Time interval: from 08/01/2021 00:00  to 08/31/2021 23:59  UTC
##########################################################

##########################################################
# KCLM, Port Angeles, William R. Fairchild International Airport (United States)
# WMO index: -----. WIGOS ID: Unknown
# Latitude 48-07-20N. Longitude 123-30-19W. Altitude 87 m.
##########################################################

###################################
#  METAR/SPECI from KCLM
###################################
202108312353 METAR KCLM 312353Z AUTO 30011G18KT 10SM BKN070 16/08 A3001 RMK AO2 SLP162 T01610078 10189 20150 51004=
202108312253 METAR KCLM 312253Z AUTO 31009KT 10SM CLR 17/08 A3000 RMK AO2 SLP159 T01670078=
202108312153 METAR KCLM 312153Z AUTO 31010G20KT 10SM CLR 17/08 A3001 RMK AO2 SLP162 T01670083=
202108312053 METAR KCLM 312053Z AUTO 31007G16KT 10SM OVC070 16/07 A3000 RMK AO2 SLP157 T01610067 53005=
202108311953 METAR KCLM 311953Z AUTO 30009KT 10SM OVC060 17/07 A2999 RMK AO2 SLP154 T01670072=
202108311853 METAR KCLM 311853Z AUTO 27008KT 10SM OVC060 17/06 A2998 RMK AO2 SLP151 T01670056=
202108311753 METAR KCLM 311753Z AUTO 27013G22KT 10SM OVC050 16/04 A2998 RMK AO2 SLP152 T01610044 10172 20067 53006=
202108311653 METAR KCLM 311653Z AUTO 27011KT 10SM OVC055 16/04 A2996 RMK AO2 SLP144 T01610044=
202108311553 METAR KCLM 311553Z AUTO 31006KT 10SM FEW060 14/07 A2996 RMK AO2 SLP144 T01390067=
202108311453 METAR KCLM 311453Z AUTO 00000KT 10SM CLR 12/06 A2996 RMK AO2 SLP146 T01170061 53005=
202108311353 METAR KCLM 311353Z AUTO 26003KT 10SM CLR 07/04 A2995 RMK AO2 SLP144 T00670044=
202108311253 METAR KCLM 311253Z AUTO 26006KT 10SM CLR 09/05 A2995 RMK AO2 SLP142 T00890050=
202108311153 METAR KCLM 311153Z AUTO 27007KT 10SM CLR 10/06 A2995 RMK AO2 SLP140 T01000056 10139 20089 50002=
202108311053 METAR KCLM 311053Z AUTO 24006KT 10SM CLR 10/06 A2995 RMK AO2 SLP141 T01000056=
202108310953 METAR KCLM 310953Z AUTO 30007KT 10SM CLR 11/06 A2994 RMK AO2 SLP138 T01110061=
202108310853 METAR KCLM 310853Z AUTO 30007KT 10SM CLR 12/06 A2994 RMK AO2 SLP138 T01220061 58000=
202108310753 METAR KCLM 310753Z AUTO 28008KT 10SM BKN060 13/07 A2994 RMK AO2 SLP138 T01280072 401890117=
202108310653 METAR KCLM 310653Z AUTO 29014G22KT 10SM OVC055 13/07 A2994 RMK AO2 SLP139 T01280072=
202108310553 METAR KCLM 310553Z AUTO 30009G18KT 10SM FEW041 FEW048 OVC060 14/07 A2994 RMK AO2 SLP138 T01390067 10156 20133 58004=
202108310453 METAR KCLM 310453Z AUTO 30008KT 10SM OVC055 14/08 A2995 RMK AO2 SLP143 T01390078=
202108310353 METAR KCLM 310353Z AUTO 29007KT 10SM OVC060 14/07 A2996 RMK AO2 SLP145 T01390072=
202108310253 METAR KCLM 310253Z AUTO 31008KT 10SM OVC065 14/08 A2995 RMK AO2 SLP142 T01390078 58007=
202108310153 METAR KCLM 310153Z AUTO VRB06KT 10SM BKN070 14/08 A2996 RMK AO2 SLP145 T01440078=
202108310053 METAR KCLM 310053Z AUTO VRB05G15KT 10SM OVC060 14/08 A2997 RMK AO2 SLP148 T01440078=
202108302353 METAR KCLM 302353Z AUTO 30012G18KT 10SM FEW030 BKN049 OVC065 15/08 A2997 RMK AO2 SLP149 T01500078 10183 20144 51005=
202108302253 METAR KCLM 302253Z AUTO 30009G15KT 260V320 10SM BKN055 OVC070 15/08 A2997 RMK AO2 SLP149 T01500078=
202108302153 METAR KCLM 302153Z AUTO 30007G15KT 280V340 10SM FEW046 OVC060 15/08 A2997 RMK AO2 SLP148 T01500083=
202108302053 METAR KCLM 302053Z AUTO 33007G21KT 290V360 10SM OVC060 16/09 A2996 RMK AO2 SLP144 T01610089 53002=
202108301953 METAR KCLM 301953Z AUTO 31010G19KT 10SM OVC060 16/08 A2995 RMK AO2 SLP142 T01610083=
202108301853 METAR KCLM 301853Z AUTO 32010G23KT 10SM BKN060 16/08 A2995 RMK AO2 SLP141 T01610078=
202108301753 METAR KCLM 301753Z AUTO 32008KT 10SM SCT050 18/07 A2995 RMK AO2 SLP141 T01780067 10189 20128 56001=
202108301653 METAR KCLM 301653Z AUTO 30009G22KT 10SM CLR 18/04 A2995 RMK AO2 SLP142 T01780044=
202108301553 METAR KCLM 301553Z AUTO VRB04KT 10SM CLR 16/06 A2995 RMK AO2 SLP141 T01610056=
202108301453 METAR KCLM 301453Z AUTO 28006KT 10SM SCT036 BKN042 OVC050 14/06 A2995 RMK AO2 SLP142 T01390061 53007=
202108301353 METAR KCLM 301353Z AUTO 28010KT 10SM OVC031 13/07 A2994 RMK AO2 SLP138 T01330067=
202108301253 METAR KCLM 301253Z AUTO 26009KT 10SM OVC033 13/07 A2993 RMK AO2 SLP134 T01330072=
202108301153 METAR KCLM 301153Z AUTO 27008KT 10SM BKN032 OVC041 13/07 A2993 RMK AO2 SLP135 T01280072 10133 20117 53000=
202108301053 METAR KCLM 301053Z AUTO 27008KT 10SM OVC042 12/08 A2993 RMK AO2 SLP133 T01220078=
202108300953 METAR KCLM 300953Z AUTO 28011KT 10SM CLR 12/08 A2992 RMK AO2 SLP133 T01220078=
202108300853 METAR KCLM 300853Z AUTO 28011KT 10SM CLR 12/07 A2993 RMK AO2 SLP134 T01220072 56001=
202108300753 METAR KCLM 300753Z AUTO 29010G18KT 10SM CLR 13/07 A2993 RMK AO2 SLP134 T01280072 402000083=
202108300653 METAR KCLM 300653Z AUTO 29010KT 10SM CLR 13/08 A2992 RMK AO2 SLP132 T01280078=
202108300553 METAR KCLM 300553Z AUTO 29009KT 10SM CLR 13/09 A2993 RMK AO2 SLP135 T01330089 10194 20133 58002=
202108300453 METAR KCLM 300453Z AUTO 28009KT 10SM CLR 14/09 A2994 RMK AO2 SLP138 T01390094=
202108300353 METAR KCLM 300353Z AUTO 26011KT 10SM CLR 14/09 A2994 RMK AO2 SLP137 T01440094=
202108300253 METAR KCLM 300253Z AUTO 28011G20KT 10SM CLR 15/09 A2994 RMK AO2 SLP137 T01500094 56006=
202108300153 METAR KCLM 300153Z AUTO 29011G18KT 10SM CLR 17/11 A2994 RMK AO2 SLP138 T01670111=
202108300053 METAR KCLM 300053Z AUTO 31008KT 10SM CLR 18/12 A2994 RMK AO2 SLP138 T01780122=
202108292353 METAR KCLM 292353Z AUTO 31009KT 10SM CLR 18/13 A2995 RMK AO2 SLP142 T01830128 10200 20156 58011=
202108292253 METAR KCLM 292253Z AUTO 29009KT 10SM CLR 18/12 A2997 RMK AO2 SLP147 T01830122=
202108292153 METAR KCLM 292153Z AUTO 29007KT 10SM CLR 19/12 A2998 RMK AO2 SLP150 T01940122=
202108292053 METAR KCLM 292053Z AUTO VRB06KT 10SM CLR 20/12 A2998 RMK AO2 SLP153 T02000122 58010=
202108291953 METAR KCLM 291953Z AUTO VRB04KT 10SM CLR 19/12 A3000 RMK AO2 SLP158 T01890117=
202108291853 METAR KCLM 291853Z AUTO 33003KT 10SM CLR 18/12 A3001 RMK AO2 SLP161 T01780122=
202108291753 METAR KCLM 291753Z AUTO 36003KT 10SM CLR 17/12 A3002 RMK AO2 SLP164 T01670117 10167 20083 58004=
202108291653 METAR KCLM 291653Z AUTO 01004KT 10SM CLR 16/12 A3002 RMK AO2 SLP165 T01560122=
202108291605 SPECI KCLM 291605Z AUTO 32005KT 10SM SCT003 14/12 A3003 RMK AO2 T01440117=
202108291553 METAR KCLM 291553Z AUTO 30004KT 10SM BKN003 14/12 A3003 RMK AO2 SLP169 T01390122=
202108291537 SPECI KCLM 291537Z AUTO 31003KT 3SM BR BKN002 13/12 A3003 RMK AO2 T01280117=
202108291534 SPECI KCLM 291534Z AUTO 31004KT 1 3/4SM BR BKN002 13/12 A3003 RMK AO2 T01280117=
202108291526 SPECI KCLM 291526Z AUTO 30005KT 2 1/2SM BR SCT001 13/11 A3003 RMK AO2 T01280111=
202108291453 METAR KCLM 291453Z AUTO 00000KT 10SM CLR 12/10 A3003 RMK AO2 SLP168 T01170100 56004=
202108291353 METAR KCLM 291353Z AUTO 23003KT 7SM CLR 09/08 A3003 RMK AO2 SLP168 T00940083=
202108291253 METAR KCLM 291253Z AUTO 23004KT 10SM CLR 09/08 A3003 RMK AO2 SLP168 T00890078=
202108291207 SPECI KCLM 291207Z AUTO 25003KT 10SM SCT001 09/08 A3004 RMK AO2 T00940078=
202108291157 SPECI KCLM 291157Z AUTO 00000KT 4SM BR BKN001 10/09 A3004 RMK AO2 T01000089=
202108291153 METAR KCLM 291153Z AUTO 00000KT 1SM BR VV001 10/09 A3004 RMK AO2 SLP172 T01000089 10150 20100 55002=
202108291053 METAR KCLM 291053Z AUTO 25003KT 1/4SM FG VV001 11/10 A3004 RMK AO2 SLP171 T01110100=
202108291039 SPECI KCLM 291039Z AUTO 23003KT 1/4SM FG VV002 11/10 A3004 RMK AO2 T01110100=
202108291011 SPECI KCLM 291011Z AUTO VRB03KT 1/2SM FG VV002 11/11 A3004 RMK AO2 T01110106=
202108290953 METAR KCLM 290953Z AUTO 26003KT 1/4SM FG VV002 12/11 A3004 RMK AO2 SLP173 T01170111=
202108290945 SPECI KCLM 290945Z AUTO 28003KT 1/4SM FG VV002 12/11 A3004 RMK AO2 T01170106=
202108290939 SPECI KCLM 290939Z AUTO 29004KT 1 1/4SM BR BKN002 12/11 A3004 RMK AO2 T01170106=
202108290917 SPECI KCLM 290917Z AUTO 31003KT 8SM SCT001 11/11 A3004 RMK AO2 T01110106=
202108290902 SPECI KCLM 290902Z AUTO 29004KT 3SM BR BKN001 12/11 A3005 RMK AO2 T01170106=
202108290853 METAR KCLM 290853Z AUTO 30003KT 1 1/4SM BR OVC001 12/11 A3005 RMK AO2 SLP174 T01170106 56004=
202108290838 SPECI KCLM 290838Z AUTO 31005KT 1 3/4SM BR OVC002 12/11 A3005 RMK AO2 T01170111=
202108290817 SPECI KCLM 290817Z AUTO 31004KT 3/4SM BR VV002 12/11 A3005 RMK AO2 T01220111=
202108290815 SPECI KCLM 290815Z AUTO 31007KT 1SM BR VV001 12/11 A3005 RMK AO2 T01220111=
202108290812 SPECI KCLM 290812Z AUTO 31007KT 2SM BR BKN002 12/11 A3005 RMK AO2 T01220111=
202108290810 SPECI KCLM 290810Z AUTO 31006KT 3SM BR SCT002 12/11 A3005 RMK AO2 T01220106=
202108290753 METAR KCLM 290753Z AUTO 30007KT 10SM CLR 13/11 A3005 RMK AO2 SLP176 T01280106 402170078=
202108290653 METAR KCLM 290653Z AUTO 28005KT 10SM CLR 14/11 A3006 RMK AO2 SLP178 T01440106=
202108290553 METAR KCLM 290553Z AUTO 27006KT 10SM CLR 14/10 A3006 RMK AO2 SLP179 T01440100 10189 20139 58005=
202108290453 METAR KCLM 290453Z AUTO 29009KT 10SM CLR 15/10 A3007 RMK AO2 SLP181 T01500100=
202108290353 METAR KCLM 290353Z AUTO 28008KT 10SM CLR 15/11 A3007 RMK AO2 SLP184 T01500106=
202108290253 METAR KCLM 290253Z AUTO 28005KT 10SM CLR 16/11 A3007 RMK AO2 SLP184 T01610106 56013=
202108290153 METAR KCLM 290153Z AUTO 29006KT 10SM CLR 19/11 A3009 RMK AO2 SLP188 T01890106=
202108290053 METAR KCLM 290053Z AUTO VRB03KT 10SM CLR 18/11 A3010 RMK AO2 SLP192 T01830106=
202108282353 METAR KCLM 282353Z AUTO 30008KT 10SM CLR 17/10 A3011 RMK AO2 SLP197 T01720100 10217 20150 58009=
202108282253 METAR KCLM 282253Z AUTO 35005KT 10SM CLR 21/10 A3012 RMK AO2 SLP199 T02060100=
202108282153 METAR KCLM 282153Z AUTO 34006KT 10SM CLR 19/10 A3014 RMK AO2 SLP207 T01940100=
202108282053 METAR KCLM 282053Z AUTO 02006KT 10SM CLR 19/10 A3014 RMK AO2 SLP206 T01890100 57012=
202108281953 METAR KCLM 281953Z AUTO VRB04KT 10SM CLR 16/10 A3016 RMK AO2 SLP213 T01610100=
202108281853 METAR KCLM 281853Z AUTO VRB04KT 10SM CLR 19/11 A3016 RMK AO2 SLP212 T01940106=
202108281753 METAR KCLM 281753Z AUTO VRB04KT 10SM CLR 16/09 A3018 RMK AO2 SLP218 T01560094 10172 20078 53003=
202108281653 METAR KCLM 281653Z AUTO 03003KT 10SM CLR 17/10 A3016 RMK AO2 SLP213 T01670100=
202108281553 METAR KCLM 281553Z AUTO 00000KT 10SM CLR 14/11 A3017 RMK AO2 SLP216 T01440106=
202108281453 METAR KCLM 281453Z AUTO 00000KT 10SM CLR 10/09 A3017 RMK AO2 SLP216 T01000089 52003=
202108281402 SPECI KCLM 281402Z AUTO 00000KT 9SM SCT001 08/08 A3016 RMK AO2 T00830078=
202108281357 SPECI KCLM 281357Z AUTO 15003KT 2 1/2SM BR BKN001 08/08 A3016 RMK AO2 T00830078=
202108281353 METAR KCLM 281353Z AUTO 15003KT 1/2SM FG VV001 08/07 A3016 RMK AO2 SLP214 T00830072=
202108281253 METAR KCLM 281253Z AUTO 00000KT 1/4SM FG VV001 08/07 A3016 RMK AO2 SLP214 T00830072=
202108281249 SPECI KCLM 281249Z AUTO 00000KT 1/4SM FG VV001 08/07 A3016 RMK AO2=
202108281239 SPECI KCLM 281239Z AUTO 00000KT 1SM BR VV001 08/07 A3016 RMK AO2 T00780072=
202108281232 SPECI KCLM 281232Z AUTO 00000KT 1 1/2SM BR FEW001 08/07 A3016 RMK AO2 T00830072=
202108281153 METAR KCLM 281153Z AUTO 00000KT 9SM CLR 08/07 A3016 RMK AO2 SLP213 T00780067 10139 20078 58002=
202108281126 SPECI KCLM 281126Z AUTO 00000KT 4SM BR FEW001 08/08 A3016 RMK AO2 T00830078=
202108281123 SPECI KCLM 281123Z AUTO 00000KT 1 1/4SM BR SCT001 09/08 A3016 RMK AO2 T00890078=
202108281057 SPECI KCLM 281057Z AUTO 35003KT 3/4SM BR VV001 08/07 A3016 RMK AO2 T00830072=
202108281053 METAR KCLM 281053Z AUTO 35003KT 1 3/4SM BR SCT001 08/07 A3016 RMK AO2 VIS 3/4V5 SLP214 T00830067=
202108281048 SPECI KCLM 281048Z AUTO 00000KT 2 1/2SM BR FEW001 08/07 A3016 RMK AO2 VIS 1V5=
202108280953 METAR KCLM 280953Z AUTO 00000KT 10SM CLR 09/08 A3016 RMK AO2 SLP213 T00940078=
202108280853 METAR KCLM 280853Z AUTO 00000KT 10SM CLR 11/09 A3016 RMK AO2 SLP214 T01060089 55002=
202108280753 METAR KCLM 280753Z AUTO 30006KT 10SM CLR 13/09 A3016 RMK AO2 SLP214 T01280089 401890111=
202108280653 METAR KCLM 280653Z AUTO 26007KT 10SM CLR 13/10 A3016 RMK AO2 SLP214 T01330100=
202108280553 METAR KCLM 280553Z AUTO 26005KT 10SM CLR 12/10 A3017 RMK AO2 SLP217 T01170100 10172 20111 51003=
202108280453 METAR KCLM 280453Z AUTO 24004KT 10SM CLR 12/10 A3017 RMK AO2 SLP216 T01220100=
202108280353 METAR KCLM 280353Z AUTO 26004KT 10SM CLR 13/11 A3017 RMK AO2 SLP216 T01280106=
202108280253 METAR KCLM 280253Z AUTO 31004KT 10SM CLR 14/11 A3016 RMK AO2 SLP214 T01440111 55002=
202108280153 METAR KCLM 280153Z AUTO 30008KT 10SM CLR 16/11 A3016 RMK AO2 SLP213 T01610111=
202108280053 METAR KCLM 280053Z AUTO 30005KT 10SM FEW048 17/11 A3016 RMK AO2 SLP213 T01670111=
202108272353 METAR KCLM 272353Z AUTO 28005KT 10SM OVC047 17/11 A3017 RMK AO2 SLP215 T01670111 10189 20156 58000=
202108272253 METAR KCLM 272253Z AUTO 32005KT 10SM OVC050 18/11 A3017 RMK AO2 SLP215 T01830111=
202108272153 METAR KCLM 272153Z AUTO 31013G20KT 10SM OVC046 18/11 A3017 RMK AO2 SLP217 T01780111=
202108272053 METAR KCLM 272053Z AUTO 30008G18KT 280V340 10SM OVC050 18/10 A3017 RMK AO2 SLP216 T01830100 53001=
202108271953 METAR KCLM 271953Z AUTO 31007KT 280V340 10SM OVC055 17/12 A3017 RMK AO2 SLP215 T01720117=
202108271853 METAR KCLM 271853Z AUTO 32009G15KT 10SM BKN055 18/11 A3016 RMK AO2 SLP212 T01780111=
202108271753 METAR KCLM 271753Z AUTO 30007KT 10SM BKN038 OVC055 16/12 A3017 RMK AO2 SLP215 T01560117 10161 20111 51014=
202108271653 METAR KCLM 271653Z AUTO 30006KT 10SM FEW060 16/12 A3015 RMK AO2 SLP210 T01560122=
202108271641 SPECI KCLM 271641Z AUTO 32006KT 10SM SCT004 15/12 A3015 RMK AO2 T01500122=
202108271617 SPECI KCLM 271617Z AUTO 30010KT 8SM BKN004 14/12 A3015 RMK AO2 T01390117=
202108271605 SPECI KCLM 271605Z AUTO 30010KT 10SM SCT004 14/12 A3015 RMK AO2 T01390117=
202108271553 METAR KCLM 271553Z AUTO 30010KT 10SM CLR 14/11 A3015 RMK AO2 SLP208 T01390111=
202108271453 METAR KCLM 271453Z AUTO 28007KT 10SM CLR 14/09 A3013 RMK AO2 SLP201 T01390094 53009=
202108271353 METAR KCLM 271353Z AUTO 27007KT 10SM CLR 12/09 A3011 RMK AO2 SLP197 T01170089=
202108271253 METAR KCLM 271253Z AUTO 28006KT 10SM CLR 12/09 A3010 RMK AO2 SLP193 T01170094=
202108271153 METAR KCLM 271153Z AUTO 26008KT 10SM CLR 12/09 A3010 RMK AO2 SLP192 70003 T01170094 10144 20111 53004=
202108271053 METAR KCLM 271053Z AUTO 29007KT 10SM SCT055 SCT070 12/11 A3009 RMK AO2 SLP191 T01220106=
202108270953 METAR KCLM 270953Z AUTO 29008KT 10SM OVC060 14/11 A3009 RMK AO2 SLP190 T01390111=
202108270853 METAR KCLM 270853Z AUTO 33005KT 10SM FEW048 OVC060 14/12 A3009 RMK AO2 SLP188 T01390117 51005=
202108270753 METAR KCLM 270753Z AUTO 26008KT 10SM OVC050 14/12 A3008 RMK AO2 SLP186 T01440117 401830128=
202108270653 METAR KCLM 270653Z AUTO 30003KT 10SM OVC050 13/12 A3008 RMK AO2 SLP186 T01330117=
202108270623 SPECI KCLM 270623Z AUTO 00000KT 10SM FEW009 OVC049 13/12 A3008 RMK AO2 T01330117=
202108270553 METAR KCLM 270553Z AUTO 00000KT 10SM OVC050 14/12 A3007 RMK AO2 SLP183 60003 T01390122 10150 20133 53007=
202108270453 METAR KCLM 270453Z AUTO 29003KT 9SM FEW007 OVC050 13/12 A3006 RMK AO2 SLP179 T01330117=
202108270445 SPECI KCLM 270445Z AUTO 00000KT 9SM SCT007 OVC050 13/12 A3006 RMK AO2 T01330117=
202108270404 SPECI KCLM 270404Z AUTO 00000KT 10SM BKN006 OVC050 13/12 A3006 RMK AO2 T01330117=
202108270353 METAR KCLM 270353Z AUTO 26005KT 10SM SCT006 BKN050 13/12 A3006 RMK AO2 SLP178 T01330117=
202108270346 SPECI KCLM 270346Z AUTO 27004KT 10SM BKN006 BKN050 13/12 A3005 RMK AO2 CIG 004V009 T01330117=
202108270331 SPECI KCLM 270331Z AUTO 25006KT 10SM FEW009 13/12 A3005 RMK AO2 T01330117=
202108270319 SPECI KCLM 270319Z AUTO 31004KT 10SM BKN009 13/12 A3005 RMK AO2 CIG 007V012 T01330122=
202108270314 SPECI KCLM 270314Z AUTO 33003KT 10SM SCT009 SCT013 13/12 A3005 RMK AO2 T01330122=
202108270253 METAR KCLM 270253Z AUTO VRB06KT 10SM OVC011 15/13 A3005 RMK AO2 SLP176 60003 T01500128 58003=
202108270153 METAR KCLM 270153Z AUTO 00000KT 8SM OVC006 14/13 A3006 RMK AO2 RAE11 CIG 004V009 SLP180 P0000 T01440128=
202108270109 SPECI KCLM 270109Z AUTO 30008KT 7SM -RA OVC008 14/13 A3006 RMK AO2 CIG 006V012 P0000 T01440128=
202108270100 SPECI KCLM 270100Z AUTO 30004KT 2SM -RA BR OVC009 15/13 A3006 RMK AO2 CIG 006V010 P0000 T01500128=
202108270053 METAR KCLM 270053Z AUTO 30005KT 1 3/4SM -RA BR OVC010 15/13 A3006 RMK AO2 RAB31 CIG 007V012 SLP178 P0003 T01500128=
202108270037 SPECI KCLM 270037Z AUTO 31003KT 1 3/4SM -RA BR BKN010 OVC015 15/13 A3006 RMK AO2 RAB31 CIG 008V012 P0001 T01500128=
202108270030 SPECI KCLM 270030Z AUTO VRB03KT 5SM BR BKN013 OVC019 15/13 A3006 RMK AO2 T01500128=
202108262353 METAR KCLM 262353Z AUTO 29005KT 10SM OVC023 17/12 A3006 RMK AO2 RAB2259E13 SLP179 P0000 60000 T01670117 10183 20156 55002=
202108262336 SPECI KCLM 262336Z AUTO VRB03KT 10SM BKN025 OVC032 17/12 A3006 RMK AO2 RAB2259E13 P0000 T01670117=
202108262253 METAR KCLM 262253Z AUTO 35003KT 10SM FEW042 BKN060 OVC075 17/12 A3005 RMK AO2 RAB43E52 SLP177 P0000 T01720117=
202108262153 METAR KCLM 262153Z AUTO 05005KT 10SM BKN060 18/11 A3005 RMK AO2 SLP175 T01780111=
202108262053 METAR KCLM 262053Z AUTO VRB03KT 10SM OVC060 17/11 A3007 RMK AO2 SLP181 T01720106 58000=
202108261953 METAR KCLM 261953Z AUTO VRB03KT 10SM OVC060 16/11 A3007 RMK AO2 SLP181 T01610106=
202108261853 METAR KCLM 261853Z AUTO 06003KT 10SM OVC070 17/11 A3007 RMK AO2 SLP183 T01670111=
202108261753 METAR KCLM 261753Z AUTO VRB03KT 10SM OVC065 16/11 A3007 RMK AO2 SLP181 T01610111 10172 20128 53002=
202108261653 METAR KCLM 261653Z AUTO 01004KT 10SM OVC070 17/11 A3006 RMK AO2 SLP179 T01670111=
202108261553 METAR KCLM 261553Z AUTO 00000KT 10SM FEW065 BKN090 OVC110 16/12 A3005 RMK AO2 SLP177 T01610117=
202108261453 METAR KCLM 261453Z AUTO 00000KT 10SM FEW090 OVC110 14/11 A3006 RMK AO2 SLP179 T01390111 53001=
202108261353 METAR KCLM 261353Z AUTO 00000KT 10SM BKN085 OVC120 13/11 A3005 RMK AO2 SLP177 T01330111=
202108261253 METAR KCLM 261253Z AUTO 00000KT 10SM OVC090 13/11 A3005 RMK AO2 SLP176 T01330111=
202108261153 METAR KCLM 261153Z AUTO 00000KT 10SM OVC090 13/11 A3006 RMK AO2 SLP178 T01330106 10144 20133 58002=
202108261053 METAR KCLM 261053Z AUTO 00000KT 10SM OVC085 13/11 A3006 RMK AO2 SLP180 T01330106=
202108260953 METAR KCLM 260953Z AUTO 23003KT 10SM OVC090 14/11 A3006 RMK AO2 SLP180 T01390106=
202108260853 METAR KCLM 260853Z AUTO 22004KT 10SM OVC095 14/11 A3006 RMK AO2 SLP180 T01390111 53004=
202108260753 METAR KCLM 260753Z AUTO 24003KT 10SM OVC110 14/11 A3005 RMK AO2 SLP176 T01390111 401830089=
202108260653 METAR KCLM 260653Z AUTO 26006KT 10SM BKN110 14/11 A3005 RMK AO2 SLP176 T01390111=
202108260553 METAR KCLM 260553Z AUTO 28007KT 10SM FEW110 14/11 A3005 RMK AO2 SLP176 T01390111 10161 20139 51007=
202108260453 METAR KCLM 260453Z AUTO 27007KT 10SM FEW075 OVC100 14/11 A3005 RMK AO2 SLP176 T01390106=
202108260353 METAR KCLM 260353Z AUTO 28009KT 10SM FEW120 14/11 A3005 RMK AO2 SLP175 T01390106=
202108260253 METAR KCLM 260253Z AUTO 28013KT 10SM CLR 14/11 A3003 RMK AO2 SLP170 T01440106 52004=
202108260153 METAR KCLM 260153Z AUTO 28012G17KT 10SM CLR 15/10 A3003 RMK AO2 SLP169 T01500100=
202108260053 METAR KCLM 260053Z AUTO 28010KT 10SM CLR 16/10 A3002 RMK AO2 SLP167 T01560100=
202108252353 METAR KCLM 252353Z AUTO 30008KT 10SM CLR 16/10 A3002 RMK AO2 SLP166 T01560100 10183 20150 58001=
202108252253 METAR KCLM 252253Z AUTO 31006KT 10SM CLR 17/10 A3002 RMK AO2 SLP165 T01720100=
202108252153 METAR KCLM 252153Z AUTO VRB03KT 10SM CLR 16/10 A3003 RMK AO2 SLP168 T01560100=
202108252053 METAR KCLM 252053Z AUTO VRB04KT 10SM CLR 18/10 A3002 RMK AO2 SLP166 T01780100 58003=
202108251953 METAR KCLM 251953Z AUTO 30007KT 10SM CLR 17/09 A3003 RMK AO2 SLP167 T01670094=
202108251853 METAR KCLM 251853Z AUTO 01005KT 10SM CLR 17/09 A3003 RMK AO2 SLP169 T01670094=
202108251753 METAR KCLM 251753Z AUTO 36004KT 10SM CLR 17/09 A3003 RMK AO2 SLP169 T01670094 10167 20094 53006=
202108251653 METAR KCLM 251653Z AUTO 35004KT 10SM CLR 14/09 A3002 RMK AO2 SLP166 T01440094=
202108251553 METAR KCLM 251553Z AUTO 10SM CLR 14/09 A3002 RMK AO2 SLP165 T01390094=
202108251453 METAR KCLM 251453Z AUTO 30005KT 10SM CLR 13/10 A3001 RMK AO2 SLP163 T01280100 52008=
202108251353 METAR KCLM 251353Z AUTO 26004KT 10SM CLR 11/08 A3001 RMK AO2 SLP161 T01060083=
202108251253 METAR KCLM 251253Z AUTO 31004KT 10SM CLR 11/09 A2999 RMK AO2 SLP157 T01060089=
202108251153 METAR KCLM 251153Z AUTO 00000KT 10SM CLR 10/07 A2999 RMK AO2 SLP155 T01000067 10139 20089 53002=
202108251053 METAR KCLM 251053Z AUTO 00000KT 10SM CLR 13/07 A2998 RMK AO2 SLP152 T01330072=
202108250953 METAR KCLM 250953Z AUTO 00000KT 10SM CLR 11/07 A2998 RMK AO2 SLP152 T01110072=
202108250853 METAR KCLM 250853Z AUTO 31004KT 10SM CLR 11/07 A2998 RMK AO2 SLP153 T01060072 58002=
202108250753 METAR KCLM 250753Z AUTO 29003KT 10SM CLR 12/08 A2998 RMK AO2 SLP153 T01170078 402330067=
202108250653 METAR KCLM 250653Z AUTO 26005KT 10SM CLR 12/08 A2999 RMK AO2 SLP154 T01220078=
202108250553 METAR KCLM 250553Z AUTO 22003KT 10SM CLR 13/09 A2999 RMK AO2 SLP154 T01280089 10233 20117 50001=
202108250453 METAR KCLM 250453Z AUTO 00000KT 10SM CLR 13/09 A2999 RMK AO2 SLP157 T01330089=
202108250353 METAR KCLM 250353Z AUTO 28003KT 10SM CLR 12/09 A2999 RMK AO2 SLP155 T01220089=
202108250253 METAR KCLM 250253Z AUTO 32004KT 10SM CLR 16/09 A2998 RMK AO2 SLP153 T01610094 56002=
202108250153 METAR KCLM 250153Z AUTO 29007KT 10SM CLR 17/09 A2999 RMK AO2 SLP154 T01720089=
202108250053 METAR KCLM 250053Z AUTO VRB03KT 10SM CLR 23/06 A2998 RMK AO2 SLP152 T02280061=
202108242353 METAR KCLM 242353Z AUTO 08003KT 10SM CLR 23/08 A2999 RMK AO2 SLP155 T02280083 10233 20183 56016=
202108242253 METAR KCLM 242253Z AUTO 07005KT 10SM CLR 22/09 A3000 RMK AO2 SLP158 T02220089=
202108242153 METAR KCLM 242153Z AUTO VRB06KT 10SM CLR 22/08 A3002 RMK AO2 SLP166 T02220083=
202108242053 METAR KCLM 242053Z AUTO 04005KT 10SM CLR 22/09 A3004 RMK AO2 SLP171 T02220089 58015=
202108241953 METAR KCLM 241953Z AUTO 08006KT 10SM CLR 20/09 A3005 RMK AO2 SLP176 T02000089=
202108241853 METAR KCLM 241853Z AUTO 04005KT 10SM CLR 19/09 A3007 RMK AO2 SLP182 T01940094=
202108241753 METAR KCLM 241753Z AUTO 07006KT 10SM CLR 18/09 A3008 RMK AO2 SLP186 T01830094 10189 20067 53001=
202108241653 METAR KCLM 241653Z AUTO VRB04KT 10SM CLR 18/09 A3008 RMK AO2 SLP185 T01830089=
202108241553 METAR KCLM 241553Z AUTO 00000KT 10SM CLR 17/08 A3008 RMK AO2 SLP184 T01720078=
202108241453 METAR KCLM 241453Z AUTO 24005KT 10SM CLR 13/07 A3008 RMK AO2 SLP185 T01280067 53005=
202108241353 METAR KCLM 241353Z AUTO 21003KT 10SM CLR 08/06 A3007 RMK AO2 SLP183 T00830056=
202108241253 METAR KCLM 241253Z AUTO 00000KT 10SM CLR 08/06 A3006 RMK AO2 SLP179 T00780056=
202108241153 METAR KCLM 241153Z AUTO 00000KT 10SM CLR 08/06 A3006 RMK AO2 SLP180 T00780056 10117 20072 55000=
202108241053 METAR KCLM 241053Z AUTO 00000KT 10SM CLR 08/06 A3006 RMK AO2 SLP178 T00780056=
202108240953 METAR KCLM 240953Z AUTO 21003KT 10SM CLR 11/06 A3006 RMK AO2 SLP178 T01060061=
202108240853 METAR KCLM 240853Z AUTO 23005KT 10SM CLR 10/07 A3006 RMK AO2 SLP179 T01000067 58000=
202108240753 METAR KCLM 240753Z AUTO 24003KT 10SM CLR 10/07 A3006 RMK AO2 SLP180 T01000072 402000089=
202108240653 METAR KCLM 240653Z AUTO 24003KT 10SM CLR 09/07 A3006 RMK AO2 SLP180 T00940072=
202108240553 METAR KCLM 240553Z AUTO 24004KT 10SM CLR 11/08 A3006 RMK AO2 SLP180 T01110083 10200 20089 50005=
202108240453 METAR KCLM 240453Z AUTO 23003KT 10SM CLR 11/08 A3006 RMK AO2 SLP181 T01110083=
202108240353 METAR KCLM 240353Z AUTO 00000KT 10SM CLR 12/08 A3006 RMK AO2 SLP179 T01170083=
202108240253 METAR KCLM 240253Z AUTO 29005KT 10SM CLR 13/09 A3005 RMK AO2 SLP175 T01280089 55001=
202108240153 METAR KCLM 240153Z AUTO 00000KT 10SM CLR 20/07 A3004 RMK AO2 SLP171 T02000067=
202108240053 METAR KCLM 240053Z AUTO 05004KT 10SM CLR 19/07 A3004 RMK AO2 SLP174 T01940072=
202108232353 METAR KCLM 232353Z AUTO 07004KT 10SM BKN060 18/08 A3005 RMK AO2 SLP177 T01830078 10200 20161 51000=
202108232253 METAR KCLM 232253Z AUTO VRB05KT 10SM CLR 18/09 A3005 RMK AO2 SLP177 T01830089=
202108232153 METAR KCLM 232153Z AUTO 04005KT 10SM CLR 18/08 A3005 RMK AO2 SLP177 T01830083=
202108232053 METAR KCLM 232053Z AUTO 11005KT 10SM CLR 18/08 A3005 RMK AO2 SLP176 T01830078 51005=
202108231953 METAR KCLM 231953Z AUTO VRB04KT 10SM CLR 18/09 A3005 RMK AO2 SLP175 T01780089=
202108231853 METAR KCLM 231853Z AUTO VRB04KT 10SM CLR 18/08 A3004 RMK AO2 SLP173 T01780083=
202108231753 METAR KCLM 231753Z AUTO 34006KT 10SM CLR 16/08 A3004 RMK AO2 SLP171 T01610083 10161 20089 53014=
202108231653 METAR KCLM 231653Z AUTO 36005KT 10SM CLR 16/09 A3002 RMK AO2 SLP165 T01560089=
202108231553 METAR KCLM 231553Z AUTO 27004KT 10SM CLR 15/07 A3001 RMK AO2 SLP160 T01500072=
202108231453 METAR KCLM 231453Z AUTO 23004KT 10SM CLR 13/07 A3000 RMK AO2 SLP157 T01280067 53014=
202108231353 METAR KCLM 231353Z AUTO 22005KT 10SM FEW047 09/05 A2999 RMK AO2 SLP155 T00940050=
202108231253 METAR KCLM 231253Z AUTO 22005KT 10SM CLR 09/04 A2996 RMK AO2 SLP145 T00940044=
202108231153 METAR KCLM 231153Z AUTO 23007KT 10SM CLR 11/05 A2996 RMK AO2 SLP143 T01060050 10111 20094 50006=
202108231053 METAR KCLM 231053Z AUTO 25007KT 10SM BKN080 11/05 A2996 RMK AO2 SLP144 T01060050=
202108230953 METAR KCLM 230953Z AUTO 25005KT 10SM CLR 11/08 A2995 RMK AO2 SLP142 T01060078=
202108230853 METAR KCLM 230853Z AUTO 28008KT 10SM CLR 11/08 A2994 RMK AO2 SLP137 T01060078 53004=
202108230753 METAR KCLM 230753Z AUTO 28008KT 10SM CLR 10/08 A2993 RMK AO2 SLP136 T01000078 401940094=
202108230653 METAR KCLM 230653Z AUTO 28006KT 10SM FEW085 10/07 A2993 RMK AO2 SLP134 T01000072=
202108230553 METAR KCLM 230553Z AUTO 29006KT 10SM CLR 10/08 A2992 RMK AO2 SLP133 T01000078 10167 20094 51005=
202108230453 METAR KCLM 230453Z AUTO 00000KT 10SM CLR 11/08 A2992 RMK AO2 SLP132 T01110078=
202108230353 METAR KCLM 230353Z AUTO 26008KT 10SM CLR 12/08 A2992 RMK AO2 SLP131 T01220083=
202108230253 METAR KCLM 230253Z AUTO 27010KT 10SM CLR 13/08 A2991 RMK AO2 SLP128 T01330083 51009=
202108230153 METAR KCLM 230153Z AUTO 30010KT 10SM CLR 14/09 A2990 RMK AO2 SLP126 T01440089=
202108230053 METAR KCLM 230053Z AUTO 30010KT 10SM CLR 15/09 A2990 RMK AO2 SLP124 T01500094=
202108222353 METAR KCLM 222353Z AUTO 32012G23KT 10SM CLR 17/09 A2988 RMK AO2 SLP119 T01670094 10183 20144 50001=
202108222253 METAR KCLM 222253Z AUTO 31014G26KT 10SM CLR 16/09 A2989 RMK AO2 PK WND 29026/2252 SLP121 T01610094=
202108222153 METAR KCLM 222153Z AUTO 30012G18KT 10SM CLR 17/09 A2988 RMK AO2 SLP120 T01720089=
202108222053 METAR KCLM 222053Z AUTO 29011G20KT 270V330 10SM FEW060 18/10 A2988 RMK AO2 SLP118 T01780100 51010=
202108221953 METAR KCLM 221953Z AUTO 30007KT 10SM CLR 17/10 A2987 RMK AO2 SLP116 T01720100=
202108221853 METAR KCLM 221853Z AUTO 34008G20KT 10SM CLR 15/09 A2986 RMK AO2 SLP110 T01500094=
202108221753 METAR KCLM 221753Z AUTO 34008G20KT 10SM SCT055 16/08 A2985 RMK AO2 SLP108 T01560083 10194 20122 53003=
202108221653 METAR KCLM 221653Z AUTO 31008G17KT 10SM CLR 18/07 A2984 RMK AO2 SLP105 T01780067=
202108221553 METAR KCLM 221553Z AUTO 00000KT 10SM CLR 14/09 A2984 RMK AO2 SLP104 T01390089=
202108221453 METAR KCLM 221453Z AUTO 00000KT 10SM FEW033 12/09 A2984 RMK AO2 SLP105 T01220089 53002 TSNO=
202108221353 METAR KCLM 221353Z AUTO 28008KT 10SM SCT029 12/08 A2984 RMK AO2 SLP103 T01220083 TSNO=
202108221253 METAR KCLM 221253Z AUTO 26007KT 10SM SCT023 12/08 A2983 RMK AO2 SLP102 T01220083=
202108221245 SPECI KCLM 221245Z AUTO 27006KT 10SM SCT023 12/08 A2984 RMK AO2 T01220083=
202108221153 METAR KCLM 221153Z AUTO 28009KT 10SM OVC022 13/09 A2984 RMK AO2 SLP104 T01280094 10133 20122 57002=
202108221105 SPECI KCLM 221105Z AUTO VRB05KT 10SM SCT012 OVC019 13/10 A2984 RMK AO2 T01280100=
202108221053 METAR KCLM 221053Z AUTO 26004KT 10SM BKN011 OVC019 13/11 A2984 RMK AO2 SLP104 T01280106=
202108221023 SPECI KCLM 221023Z AUTO 28005KT 10SM OVC010 13/11 A2984 RMK AO2 T01330106=
202108220953 METAR KCLM 220953Z AUTO 00000KT 10SM OVC008 13/11 A2985 RMK AO2 CIG 006V011 SLP106 T01280106=
202108220853 METAR KCLM 220853Z AUTO 27006KT 10SM OVC006 13/11 A2985 RMK AO2 SLP106 T01280111 55003=
202108220753 METAR KCLM 220753Z AUTO 29006KT 9SM OVC006 13/11 A2984 RMK AO2 SLP104 T01280111 401940117=
202108220653 METAR KCLM 220653Z AUTO 27008KT 10SM BKN007 BKN012 OVC050 13/11 A2985 RMK AO2 CIG 004V010 SLP109 T01280111=
202108220646 SPECI KCLM 220646Z AUTO 28008KT 10SM FEW004 BKN010 OVC050 13/11 A2985 RMK AO2 CIG 008V012 T01280111=
202108220637 SPECI KCLM 220637Z AUTO 28010KT 10SM SCT004 BKN008 OVC050 13/11 A2986 RMK AO2 T01280111=
202108220627 SPECI KCLM 220627Z AUTO 28008KT 10SM SCT003 OVC050 13/11 A2986 RMK AO2 T01280111=
202108220553 METAR KCLM 220553Z AUTO 27007KT 10SM BKN003 12/11 A2985 RMK AO2 SLP109 T01220106 10172 20117 53002=
202108220546 SPECI KCLM 220546Z AUTO 28005KT 10SM BKN004 12/11 A2985 RMK AO2 T01170106=
202108220453 METAR KCLM 220453Z AUTO 28007KT 10SM FEW006 13/11 A2985 RMK AO2 SLP108 T01280106=
202108220450 SPECI KCLM 220450Z AUTO 27007KT 10SM FEW006 13/11 A2985 RMK AO2=
202108220353 METAR KCLM 220353Z AUTO 24004KT 10SM CLR 14/11 A2985 RMK AO2 SLP107 T01390111=
202108220253 METAR KCLM 220253Z AUTO 28006KT 10SM CLR 14/11 A2984 RMK AO2 SLP105 T01390111 55003=
202108220153 METAR KCLM 220153Z AUTO 34003KT 10SM FEW050 16/11 A2984 RMK AO2 SLP103 T01560111=
202108220053 METAR KCLM 220053Z AUTO 30007KT 10SM OVC050 16/11 A2985 RMK AO2 SLP107 T01560111=
202108212353 METAR KCLM 212353Z AUTO 34005KT 10SM OVC050 17/12 A2985 RMK AO2 SLP108 T01670117 10194 20133 58001=
202108212253 METAR KCLM 212253Z AUTO 30010KT 10SM OVC050 16/11 A2985 RMK AO2 SLP109 T01610111=
202108212153 METAR KCLM 212153Z AUTO VRB05KT 10SM BKN050 19/12 A2985 RMK AO2 SLP108 T01890117=
202108212053 METAR KCLM 212053Z AUTO 35006KT 10SM BKN049 18/12 A2985 RMK AO2 SLP109 T01780117 58003=
202108211953 METAR KCLM 211953Z AUTO VRB05KT 10SM OVC050 16/11 A2986 RMK AO2 SLP110 T01610111=
202108211853 METAR KCLM 211853Z AUTO VRB03KT 10SM BKN048 16/12 A2986 RMK AO2 SLP111 T01560117=
202108211753 METAR KCLM 211753Z AUTO 00000KT 10SM FEW003 OVC048 15/12 A2986 RMK AO2 SLP111 T01500122 10150 20117 56006=
202108211728 SPECI KCLM 211728Z AUTO 32003KT 10SM SCT003 OVC047 13/12 A2987 RMK AO2 T01330117=
202108211720 SPECI KCLM 211720Z AUTO 29004KT 9SM BKN003 OVC047 13/12 A2987 RMK AO2 T01280117=
202108211653 METAR KCLM 211653Z AUTO 33004KT 10SM FEW004 OVC044 14/12 A2986 RMK AO2 SLP112 T01390122=
202108211617 SPECI KCLM 211617Z AUTO 00000KT 9SM SCT002 OVC042 14/13 A2986 RMK AO2 T01440128=
202108211600 SPECI KCLM 211600Z AUTO 00000KT 6SM BR OVC002 14/12 A2986 RMK AO2 T01390122=
202108211553 METAR KCLM 211553Z AUTO 00000KT 2SM BR OVC002 13/12 A2986 RMK AO2 SLP112 T01330122=
202108211551 SPECI KCLM 211551Z AUTO 00000KT 1SM BR VV002 13/12 A2986 RMK AO2=
202108211517 SPECI KCLM 211517Z AUTO 00000KT 1/4SM FG VV002 12/12 A2987 RMK AO2 T01220117=
202108211500 SPECI KCLM 211500Z AUTO 27004KT M1/4SM FG VV002 12/11 A2988 RMK AO2 T01170111=
202108211453 METAR KCLM 211453Z AUTO 28003KT 1/4SM FG VV002 12/11 A2988 RMK AO2 SLP118 T01170111 53005=
202108211443 SPECI KCLM 211443Z AUTO 31005KT 1/4SM FG VV002 12/11 A2988 RMK AO2 T01170106=
202108211434 SPECI KCLM 211434Z AUTO 29004KT 1/2SM FG OVC002 12/11 A2988 RMK AO2 T01220111=
202108211426 SPECI KCLM 211426Z AUTO 31004KT 1SM BR OVC002 12/11 A2987 RMK AO2 T01220106=
202108211405 SPECI KCLM 211405Z AUTO 00000KT 2 1/2SM BR OVC002 12/11 A2987 RMK AO2 T01220111=
202108211353 METAR KCLM 211353Z AUTO 00000KT 4SM BR OVC002 12/11 A2987 RMK AO2 SLP113 T01220111=
202108211345 SPECI KCLM 211345Z AUTO 26003KT 4SM BR OVC001 12/11 A2986 RMK AO2 T01170111=
202108211324 SPECI KCLM 211324Z AUTO 29004KT 2 1/2SM BR OVC001 12/11 A2987 RMK AO2 T01170111=
202108211310 SPECI KCLM 211310Z AUTO 28004KT 2SM BR OVC002 12/11 A2987 RMK AO2 T01170111=
202108211253 METAR KCLM 211253Z AUTO 30004KT 4SM BR BKN003 OVC060 12/11 A2987 RMK AO2 SLP114 T01220106=
202108211245 SPECI KCLM 211245Z AUTO 31003KT 3SM BR SCT003 OVC060 12/11 A2987 RMK AO2 T01170106=
202108211241 SPECI KCLM 211241Z AUTO 32003KT 1 1/2SM BR FEW003 OVC060 12/11 A2987 RMK AO2 T01220111=
202108211210 SPECI KCLM 211210Z AUTO 00000KT 1 3/4SM BR FEW025 OVC060 12/11 A2986 RMK AO2 T01220111=
202108211203 SPECI KCLM 211203Z AUTO 00000KT 3SM BR SCT023 OVC060 12/11 A2986 RMK AO2 T01220111=
202108211153 METAR KCLM 211153Z AUTO 00000KT 6SM BR BKN023 OVC065 13/11 A2986 RMK AO2 SLP112 70012 T01280111 10144 20122 58002=
202108211053 METAR KCLM 211053Z AUTO 27005KT 6SM BR FEW002 OVC021 12/11 A2987 RMK AO2 SLP116 T01220111=
202108210953 METAR KCLM 210953Z AUTO 24005KT 7SM FEW003 OVC021 13/11 A2987 RMK AO2 SLP114 T01280111=
202108210926 SPECI KCLM 210926Z AUTO 29005KT 6SM BR SCT003 OVC021 13/11 A2987 RMK AO2 T01280111=
202108210853 METAR KCLM 210853Z AUTO 26003KT 7SM OVC022 13/12 A2987 RMK AO2 SLP115 T01280117 56006=
202108210753 METAR KCLM 210753Z AUTO 26004KT 8SM OVC023 13/11 A2988 RMK AO2 SLP118 T01280111 401610100=
202108210713 SPECI KCLM 210713Z AUTO 00000KT 7SM FEW002 OVC025 13/12 A2988 RMK AO2 T01330122=
202108210653 METAR KCLM 210653Z AUTO 00000KT 4SM BR OVC025 14/13 A2988 RMK AO2 SLP117 T01390128=
202108210553 METAR KCLM 210553Z AUTO 00000KT 8SM OVC024 14/13 A2989 RMK AO2 SLP121 60012 T01390128 10150 20133 50000=
202108210453 METAR KCLM 210453Z AUTO 00000KT 9SM OVC017 14/13 A2990 RMK AO2 SLP125 T01390128=
202108210426 SPECI KCLM 210426Z AUTO 00000KT 6SM BR BKN010 BKN015 OVC026 14/13 A2990 RMK AO2 CIG 009V014 T01390128=
202108210353 METAR KCLM 210353Z AUTO 12003KT 9SM FEW009 OVC026 14/13 A2989 RMK AO2 SLP121 T01440128=
202108210350 SPECI KCLM 210350Z AUTO 11003KT 9SM FEW009 OVC026 14/13 A2989 RMK AO2=
202108210315 SPECI KCLM 210315Z AUTO 00000KT 8SM FEW017 BKN028 OVC036 14/12 A2989 RMK AO2 T01390122=
202108210253 METAR KCLM 210253Z AUTO 00000KT 10SM FEW017 FEW027 OVC038 14/12 A2989 RMK AO2 RAE13 SLP121 P0000 60012 T01390122 58008=
202108210241 SPECI KCLM 210241Z AUTO 26003KT 9SM FEW004 FEW029 OVC039 14/12 A2989 RMK AO2 RAE13 P0000 T01390122=
202108210232 SPECI KCLM 210232Z AUTO 23003KT 8SM SCT028 OVC037 13/12 A2989 RMK AO2 RAE13 P0000 T01330122=
202108210206 SPECI KCLM 210206Z AUTO 00000KT 5SM -RA BR BKN029 OVC040 14/12 A2990 RMK AO2 P0000 T01390122=
202108210153 METAR KCLM 210153Z AUTO 00000KT 3SM -RA BR SCT030 OVC040 14/12 A2990 RMK AO2 RAB11 SLP125 P0012 T01390122=
202108210121 SPECI KCLM 210121Z AUTO 34003KT 1 3/4SM RA BR BKN041 OVC048 14/12 A2991 RMK AO2 RAB11 P0004 T01390117=
202108210053 METAR KCLM 210053Z AUTO 29004KT 10SM FEW020 BKN038 OVC048 15/12 A2991 RMK AO2 SLP129 T01500117=
202108210049 SPECI KCLM 210049Z AUTO 29004KT 10SM FEW020 OVC038 15/12 A2991 RMK AO2=
202108202353 METAR KCLM 202353Z AUTO 31005KT 10SM OVC019 15/12 A2992 RMK AO2 LTG DSNT SE SLP132 T01500117 10161 20133 58006=
202108202337 SPECI KCLM 202337Z AUTO 31006KT 10SM SCT008 OVC018 15/12 A2992 RMK AO2 LTG DSNT SE T01500117=
202108202321 SPECI KCLM 202321Z AUTO 30005KT 10SM BKN008 BKN020 OVC036 15/12 A2993 RMK AO2 T01500117=
202108202302 SPECI KCLM 202302Z AUTO 29006KT 10SM SCT008 BKN018 OVC035 15/12 A2993 RMK AO2 T01500117=
202108202253 METAR KCLM 202253Z AUTO 30008KT 10SM BKN018 OVC035 14/12 A2993 RMK AO2 SLP136 T01440117=
202108202244 SPECI KCLM 202244Z AUTO 30006KT 10SM BKN015 OVC021 15/12 A2993 RMK AO2 T01500117=
202108202153 METAR KCLM 202153Z AUTO 30006KT 10SM OVC013 15/12 A2994 RMK AO2 SLP138 T01500117=
202108202102 SPECI KCLM 202102Z AUTO 33005KT 10SM OVC011 16/12 A2994 RMK AO2 T01560117=
202108202053 METAR KCLM 202053Z AUTO 32005KT 10SM BKN007 OVC013 16/12 A2994 RMK AO2 CIG 006V011 SLP138 T01610117 57010=
202108201953 METAR KCLM 201953Z AUTO 31008KT 10SM OVC005 14/12 A2995 RMK AO2 CIG 004V009 SLP142 T01390117=
202108201919 SPECI KCLM 201919Z AUTO 10SM OVC005 14/12 A2996 RMK AO2 CIG 004V009 T01390117=
202108201853 METAR KCLM 201853Z AUTO 30007KT 10SM OVC004 14/12 A2996 RMK AO2 SLP145 T01440117=
202108201808 SPECI KCLM 201808Z AUTO 28005KT 3SM BR OVC002 13/12 A2997 RMK AO2 T01330117=
202108201753 METAR KCLM 201753Z AUTO 29005KT 1 3/4SM BR OVC003 13/12 A2997 RMK AO2 VIS 1V3 SLP149 T01280117 10139 20100 55003=
202108201739 SPECI KCLM 201739Z AUTO 29005KT 1 3/4SM BR OVC003 13/12 A2998 RMK AO2 VIS 3/4V4 T01330117=
202108201715 SPECI KCLM 201715Z AUTO 32004KT 4SM BR OVC003 13/12 A2997 RMK AO2 T01330117=
202108201706 SPECI KCLM 201706Z AUTO 32004KT 2 1/2SM BR OVC003 13/12 A2997 RMK AO2 VIS 1 1/4V4 T01330117=
202108201653 METAR KCLM 201653Z AUTO 36004KT 5SM BR OVC003 13/12 A2997 RMK AO2 SLP148 T01330117=
202108201553 METAR KCLM 201553Z AUTO 00000KT 7SM OVC004 13/12 A2998 RMK AO2 SLP151 T01330122=
202108201525 SPECI KCLM 201525Z AUTO 31004KT 9SM OVC004 14/12 A2999 RMK AO2 T01390117=
202108201453 METAR KCLM 201453Z AUTO 00000KT 9SM BKN007 BKN037 13/12 A2998 RMK AO2 SLP152 T01330117 50000=
202108201449 SPECI KCLM 201449Z AUTO 00000KT 9SM BKN007 BKN037 13/12 A2998 RMK AO2=
202108201440 SPECI KCLM 201440Z AUTO 00000KT 9SM SCT007 BKN037 13/12 A2998 RMK AO2 T01330117=
202108201353 METAR KCLM 201353Z AUTO 00000KT 9SM OVC037 12/11 A2998 RMK AO2 SLP152 T01220106=
202108201253 METAR KCLM 201253Z AUTO 00000KT 10SM OVC037 11/09 A2998 RMK AO2 SLP152 T01060094=
202108201153 METAR KCLM 201153Z AUTO 00000KT 10SM CLR 11/09 A2998 RMK AO2 SLP151 T01110094 10133 20100 56008=
202108201053 METAR KCLM 201053Z AUTO 00000KT 10SM CLR 11/10 A2999 RMK AO2 SLP154 T01110100=
202108200953 METAR KCLM 200953Z AUTO 00000KT 10SM CLR 12/10 A2999 RMK AO2 SLP155 T01170100=
202108200853 METAR KCLM 200853Z AUTO 00000KT 9SM CLR 12/11 A3000 RMK AO2 SLP159 T01170106 56005=
202108200753 METAR KCLM 200753Z AUTO 00000KT 9SM CLR 12/11 A3000 RMK AO2 SLP159 T01170106 402170100=
202108200653 METAR KCLM 200653Z AUTO 00000KT 10SM CLR 13/12 A3001 RMK AO2 SLP162 T01330117=
202108200553 METAR KCLM 200553Z AUTO 29004KT 10SM CLR 13/11 A3002 RMK AO2 SLP164 T01280111 10206 20122 55004=
202108200453 METAR KCLM 200453Z AUTO 25004KT 10SM CLR 14/11 A3001 RMK AO2 SLP163 T01390111=
202108200353 METAR KCLM 200353Z AUTO 00000KT 10SM CLR 14/12 A3002 RMK AO2 SLP165 T01390117=
202108200253 METAR KCLM 200253Z AUTO 29003KT 10SM CLR 16/12 A3003 RMK AO2 SLP168 T01560117 58005=
202108200153 METAR KCLM 200153Z AUTO 29004KT 10SM CLR 19/13 A3003 RMK AO2 SLP168 T01890128=
202108200053 METAR KCLM 200053Z AUTO 30007KT 10SM CLR 19/13 A3004 RMK AO2 SLP173 T01940128=
202108192353 METAR KCLM 192353Z AUTO VRB05KT 10SM CLR 21/13 A3004 RMK AO2 SLP173 T02060128 10217 20161 58009=
202108192253 METAR KCLM 192253Z AUTO VRB04KT 10SM CLR 22/13 A3005 RMK AO2 SLP176 T02170128=
202108192153 METAR KCLM 192153Z AUTO VRB05KT 10SM CLR 21/12 A3006 RMK AO2 SLP180 T02110122=
202108192053 METAR KCLM 192053Z AUTO 33005KT 10SM CLR 19/12 A3007 RMK AO2 SLP182 T01940122 55005=
202108191953 METAR KCLM 191953Z AUTO 35007KT 10SM CLR 19/12 A3007 RMK AO2 SLP181 T01940117=
202108191853 METAR KCLM 191853Z AUTO VRB04KT 10SM CLR 18/12 A3008 RMK AO2 SLP184 T01830117=
202108191753 METAR KCLM 191753Z AUTO 01007KT 10SM CLR 17/11 A3008 RMK AO2 SLP187 T01670111 10178 20100 50001=
202108191653 METAR KCLM 191653Z AUTO VRB03KT 10SM CLR 16/11 A3009 RMK AO2 SLP190 T01560111=
202108191553 METAR KCLM 191553Z AUTO 00000KT 10SM BKN065 13/12 A3009 RMK AO2 SLP188 T01330117=
202108191505 SPECI KCLM 191505Z AUTO 33003KT 8SM SCT001 BKN065 13/12 A3008 RMK AO2 T01280117=
202108191500 SPECI KCLM 191500Z AUTO 00000KT 2SM BR BKN001 OVC065 13/12 A3008 RMK AO2 T01280117=
202108191453 METAR KCLM 191453Z AUTO 00000KT 1/2SM FG VV001 12/11 A3008 RMK AO2 SLP187 T01170111 56001=
202108191437 SPECI KCLM 191437Z AUTO 30003KT M1/4SM FG VV001 12/11 A3008 RMK AO2 T01170106=
202108191427 SPECI KCLM 191427Z AUTO 00000KT 1/4SM FG VV002 12/11 A3008 RMK AO2 T01170111=
202108191418 SPECI KCLM 191418Z AUTO 28004KT M1/4SM FG VV001 12/11 A3009 RMK AO2 T01170106=
202108191412 SPECI KCLM 191412Z AUTO 28006KT 1/4SM FG VV002 12/11 A3009 RMK AO2 T01170106=
202108191410 SPECI KCLM 191410Z AUTO 28005KT 1SM BR VV002 12/11 A3009 RMK AO2 T01170106=
202108191408 SPECI KCLM 191408Z AUTO 29004KT 5SM BR SCT003 12/11 A3009 RMK AO2 T01170106=
202108191353 METAR KCLM 191353Z AUTO 33004KT 6SM BR CLR 11/09 A3008 RMK AO2 SLP187 T01110094=
202108191253 METAR KCLM 191253Z AUTO 00000KT 9SM CLR 10/09 A3008 RMK AO2 SLP187 T01000089=
202108191153 METAR KCLM 191153Z AUTO 00000KT 9SM CLR 11/09 A3009 RMK AO2 SLP188 T01060089 10122 20100 53004=
202108191053 METAR KCLM 191053Z AUTO 00000KT 10SM CLR 11/10 A3008 RMK AO2 SLP185 T01110100=
202108190953 METAR KCLM 190953Z AUTO 00000KT 10SM CLR 12/10 A3007 RMK AO2 SLP183 T01170100=
202108190853 METAR KCLM 190853Z AUTO 00000KT 8SM CLR 11/09 A3007 RMK AO2 SLP183 T01110094 58006=
202108190753 METAR KCLM 190753Z AUTO 00000KT 8SM CLR 12/10 A3008 RMK AO2 SLP186 T01170100 402000078=
202108190653 METAR KCLM 190653Z AUTO 24004KT 8SM CLR 12/11 A3009 RMK AO2 SLP189 T01220106=
202108190553 METAR KCLM 190553Z AUTO 25005KT 7SM CLR 12/11 A3009 RMK AO2 SLP189 T01220106 10189 20111 53004=
202108190453 METAR KCLM 190453Z AUTO 00000KT 7SM CLR 12/11 A3008 RMK AO2 SLP187 T01220106=
202108190353 METAR KCLM 190353Z AUTO 00000KT 9SM CLR 13/11 A3008 RMK AO2 SLP186 T01330111=
202108190253 METAR KCLM 190253Z AUTO 30005KT 9SM CLR 14/11 A3008 RMK AO2 SLP185 T01440111 55011=
202108190153 METAR KCLM 190153Z AUTO 28006KT 10SM CLR 17/12 A3008 RMK AO2 SLP184 T01720117=
202108190053 METAR KCLM 190053Z AUTO 32006KT 10SM CLR 18/12 A3009 RMK AO2 SLP191 T01780117=
202108182353 METAR KCLM 182353Z AUTO 30006G15KT 10SM CLR 17/11 A3011 RMK AO2 SLP196 T01670111 10200 20167 55003=
202108182253 METAR KCLM 182253Z AUTO 29005KT 10SM BKN100 17/11 A3010 RMK AO2 SLP192 T01720106=
202108182153 METAR KCLM 182153Z AUTO VRB05KT 10SM OVC110 18/11 A3012 RMK AO2 SLP200 T01830111=
202108182053 METAR KCLM 182053Z AUTO 03005KT 10SM CLR 19/11 A3012 RMK AO2 SLP199 T01890111 55009 $=
202108181953 METAR KCLM 181953Z AUTO 01004KT 10SM CLR 19/11 A3012 RMK AO2 SLP199 T01940111 $=
202108181853 METAR KCLM 181853Z AUTO 01005KT 10SM CLR 19/11 A3014 RMK AO2 SLP205 T01890111 $=
202108181753 METAR KCLM 181753Z AUTO 02004KT 10SM CLR 18/11 A3015 RMK AO2 SLP208 T01780111 10194 20078 53003 $=
202108181653 METAR KCLM 181653Z AUTO 09004KT 10SM CLR 19/11 A3014 RMK AO2 SLP205 T01940111 $=
202108181553 METAR KCLM 181553Z AUTO 11003KT 10SM CLR 16/11 A3014 RMK AO2 SLP206 T01560106 $=
202108181516 SPECI KCLM 181516Z AUTO 11004KT 10SM SCT002 12/11 A3014 RMK AO2 T01220111 $=
202108181501 SPECI KCLM 181501Z AUTO 00000KT 3SM BR BKN002 11/11 A3014 RMK AO2 T01110106 $=
202108181456 SPECI KCLM 181456Z AUTO 00000KT 1/2SM FG VV002 11/11 A3014 RMK AO2 T01110106 $=
202108181453 METAR KCLM 181453Z AUTO 00000KT 1/4SM FG VV001 11/10 A3014 RMK AO2 SLP205 T01110100 53009 $=
202108181436 SPECI KCLM 181436Z AUTO 11004KT 1/4SM FG VV001 11/10 A3013 RMK AO2 T01060100 $=
202108181419 SPECI KCLM 181419Z AUTO 08003KT M1/4SM FG VV001 10/09 A3013 RMK AO2 T01000094 $=
202108181412 SPECI KCLM 181412Z AUTO 09004KT 1/4SM FG VV001 10/09 A3012 RMK AO2 T01000089 $=
202108181404 SPECI KCLM 181404Z AUTO 00000KT 3/4SM BR VV001 10/08 A3013 RMK AO2 T01000083 $=
202108181353 METAR KCLM 181353Z AUTO 00000KT 9SM CLR 09/08 A3012 RMK AO2 SLP200 T00890078=
202108181253 METAR KCLM 181253Z AUTO 00000KT 10SM CLR 09/07 A3011 RMK AO2 SLP198 T00890072=
202108181153 METAR KCLM 181153Z AUTO 00000KT 10SM CLR 09/08 A3011 RMK AO2 SLP196 T00940078 10128 20089 53006=
202108181053 METAR KCLM 181053Z AUTO 00000KT 10SM CLR 09/08 A3010 RMK AO2 SLP193 T00940078=
202108180953 METAR KCLM 180953Z AUTO 00000KT 10SM CLR 09/08 A3009 RMK AO2 SLP189 T00940078=
202108180853 METAR KCLM 180853Z AUTO 00000KT 9SM CLR 10/09 A3009 RMK AO2 SLP189 T01000089 53010=
202108180753 METAR KCLM 180753Z AUTO 00000KT 8SM CLR 11/09 A3008 RMK AO2 SLP185 T01060094 402060106=
202108180653 METAR KCLM 180653Z AUTO 00000KT 10SM CLR 12/09 A3006 RMK AO2 SLP180 T01220094=
202108180553 METAR KCLM 180553Z AUTO 00000KT 10SM CLR 12/09 A3006 RMK AO2 SLP179 T01220094 10194 20122 51013=
202108180453 METAR KCLM 180453Z AUTO 00000KT 10SM CLR 14/10 A3005 RMK AO2 SLP177 T01440100=
202108180353 METAR KCLM 180353Z AUTO 27004KT 10SM CLR 14/11 A3004 RMK AO2 SLP171 T01440106=
202108180253 METAR KCLM 180253Z AUTO 32004KT 10SM CLR 16/11 A3002 RMK AO2 SLP165 T01610111 53002=
202108180153 METAR KCLM 180153Z AUTO 30006KT 10SM CLR 18/12 A3002 RMK AO2 SLP165 T01830117=
202108180053 METAR KCLM 180053Z AUTO 31006KT 10SM CLR 19/12 A3001 RMK AO2 SLP163 T01890117=
202108172353 METAR KCLM 172353Z AUTO 29005KT 10SM CLR 19/11 A3002 RMK AO2 SLP164 T01890111 10206 20156 53003=
202108172253 METAR KCLM 172253Z AUTO 30010KT 10SM CLR 18/11 A3002 RMK AO2 SLP164 T01830106=
202108172153 METAR KCLM 172153Z AUTO 30007KT 10SM CLR 21/11 A3000 RMK AO2 SLP160 T02060111=
202108172053 METAR KCLM 172053Z AUTO 34006KT 10SM CLR 18/11 A3001 RMK AO2 SLP161 T01830106 51004=
202108171953 METAR KCLM 171953Z AUTO VRB05KT 10SM CLR 19/11 A3000 RMK AO2 SLP159 T01890106=
202108171853 METAR KCLM 171853Z AUTO VRB04KT 10SM BKN044 BKN090 16/11 A3002 RMK AO2 SLP165 T01610106=
202108171753 METAR KCLM 171753Z AUTO VRB05KT 10SM BKN060 OVC075 16/11 A2999 RMK AO2 SLP157 T01610111 10167 20117 51013=
202108171653 METAR KCLM 171653Z AUTO 00000KT 10SM OVC050 16/11 A2999 RMK AO2 SLP155 T01560106=
202108171553 METAR KCLM 171553Z AUTO VRB03KT 10SM OVC050 14/11 A2998 RMK AO2 SLP150 T01440111=
202108171453 METAR KCLM 171453Z AUTO 26003KT 10SM BKN045 OVC065 14/11 A2996 RMK AO2 SLP144 T01390106 53017=
202108171353 METAR KCLM 171353Z AUTO 15003KT 10SM OVC050 13/10 A2993 RMK AO2 SLP136 T01330100=
202108171253 METAR KCLM 171253Z AUTO 25005KT 10SM BKN055 OVC070 12/08 A2991 RMK AO2 SLP128 T01220083=
202108171153 METAR KCLM 171153Z AUTO 22004KT 10SM OVC060 12/08 A2990 RMK AO2 SLP126 T01170083 10122 20100 53004=
202108171053 METAR KCLM 171053Z AUTO 29005KT 10SM BKN060 12/09 A2989 RMK AO2 SLP123 T01170094=
202108170953 METAR KCLM 170953Z AUTO 28003KT 10SM BKN044 OVC055 12/09 A2990 RMK AO2 SLP123 T01220089=
202108170853 METAR KCLM 170853Z AUTO 29009KT 10SM SCT050 12/08 A2989 RMK AO2 SLP122 T01170083 51012=
202108170753 METAR KCLM 170753Z AUTO 22004KT 10SM BKN038 11/09 A2989 RMK AO2 SLP122 T01110089 402060100=
202108170653 METAR KCLM 170653Z AUTO 28006KT 10SM CLR 12/09 A2988 RMK AO2 SLP118 T01170089=
202108170553 METAR KCLM 170553Z AUTO 24007KT 10SM CLR 11/08 A2986 RMK AO2 SLP110 T01110078 10161 20100 56003=
202108170453 METAR KCLM 170453Z AUTO 27007KT 10SM CLR 12/08 A2986 RMK AO2 SLP111 T01170083=
202108170353 METAR KCLM 170353Z AUTO 29005KT 10SM CLR 12/09 A2986 RMK AO2 SLP111 T01220089=
202108170253 METAR KCLM 170253Z AUTO 29014G25KT 10SM BKN032 14/10 A2987 RMK AO2 SLP113 T01390100 56009=
202108170153 METAR KCLM 170153Z AUTO 30012G24KT 10SM BKN032 16/11 A2987 RMK AO2 SLP114 T01560106=
202108170121 SPECI KCLM 170121Z AUTO 30010KT 10SM FEW025 16/11 A2987 RMK AO2 T01560106=
202108170053 METAR KCLM 170053Z AUTO 29010KT 10SM OVC025 16/11 A2988 RMK AO2 SLP117 T01560111=
202108162353 METAR KCLM 162353Z AUTO 29006KT 10SM OVC021 14/11 A2989 RMK AO2 RAB31E43 SLP122 P0000 60000 T01390111 10206 20139 58011=
202108162303 SPECI KCLM 162303Z AUTO 31005KT 7SM SCT011 OVC022 14/12 A2990 RMK AO2 T01440117=
202108162253 METAR KCLM 162253Z AUTO 29007KT 10SM BKN011 OVC022 15/12 A2990 RMK AO2 SLP126 T01500117=
202108162153 METAR KCLM 162153Z AUTO 28008KT 10SM OVC011 14/11 A2992 RMK AO2 SLP130 T01440111=
202108162053 METAR KCLM 162053Z AUTO 29008KT 10SM OVC007 16/13 A2992 RMK AO2 SLP133 T01610128 53002=
202108161953 METAR KCLM 161953Z AUTO 30007KT 10SM OVC006 17/14 A2992 RMK AO2 SLP131 T01670139=
202108161932 SPECI KCLM 161932Z AUTO 30006G15KT 10SM BKN007 OVC033 17/14 A2992 RMK AO2 CIG 005V010 T01720139=
202108161921 SPECI KCLM 161921Z AUTO 31009KT 10SM SCT008 OVC033 18/14 A2992 RMK AO2 T01780144=
202108161853 METAR KCLM 161853Z AUTO 31009KT 10SM SCT033 21/14 A2992 RMK AO2 SLP129 T02060144=
202108161753 METAR KCLM 161753Z AUTO 31007KT 10SM FEW100 18/14 A2992 RMK AO2 SLP131 T01830139 10194 20150 56005=
202108161653 METAR KCLM 161653Z AUTO 28005KT 10SM CLR 18/14 A2992 RMK AO2 SLP132 T01830139=
202108161553 METAR KCLM 161553Z AUTO 30006KT 10SM SCT100 17/13 A2993 RMK AO2 SLP134 T01670133=
202108161453 METAR KCLM 161453Z AUTO 27005KT 10SM OVC080 16/13 A2993 RMK AO2 SLP136 T01610133 56001=
202108161353 METAR KCLM 161353Z AUTO 27007KT 10SM BKN085 BKN120 16/13 A2994 RMK AO2 SLP138 T01560133=
202108161253 METAR KCLM 161253Z AUTO 28004KT 10SM OVC095 15/13 A2993 RMK AO2 SLP136 T01500128=
202108161153 METAR KCLM 161153Z AUTO 31005KT 10SM BKN100 16/13 A2994 RMK AO2 SLP137 T01610133 10161 20144 58008=
202108161053 METAR KCLM 161053Z AUTO 26007KT 10SM OVC110 15/13 A2995 RMK AO2 SLP142 T01500128=
202108160953 METAR KCLM 160953Z AUTO 31004KT 10SM OVC110 15/13 A2996 RMK AO2 SLP143 T01500128=
202108160853 METAR KCLM 160853Z AUTO 28007KT 10SM OVC110 15/13 A2996 RMK AO2 SLP145 T01500128 55002=
202108160753 METAR KCLM 160753Z AUTO 30004KT 10SM SCT120 14/13 A2995 RMK AO2 SLP143 T01440128 402280144=
202108160653 METAR KCLM 160653Z AUTO VRB03KT 10SM CLR 16/13 A2996 RMK AO2 SLP145 T01560128=
202108160553 METAR KCLM 160553Z AUTO 30007KT 10SM CLR 16/13 A2997 RMK AO2 SLP149 T01560133 10222 20150 58007=
202108160453 METAR KCLM 160453Z AUTO 29012G18KT 10SM FEW008 15/13 A2999 RMK AO2 SLP156 T01500128=
202108160407 SPECI KCLM 160407Z AUTO 28006KT 10SM FEW008 16/13 A2999 RMK AO2 T01560128=
202108160353 METAR KCLM 160353Z AUTO 26007G15KT 10SM BKN008 16/13 A2999 RMK AO2 SLP156 T01560128=
202108160326 SPECI KCLM 160326Z AUTO 26008KT 10SM BKN007 15/13 A2999 RMK AO2 T01500128=
202108160306 SPECI KCLM 160306Z AUTO 27011G20KT 10SM SCT008 15/13 A2999 RMK AO2 T01500128=
202108160253 METAR KCLM 160253Z AUTO 26007KT 10SM CLR 16/13 A2999 RMK AO2 SLP156 T01610128 55003=
202108160153 METAR KCLM 160153Z AUTO 30010KT 10SM CLR 18/13 A2999 RMK AO2 SLP156 T01830133=
202108160053 METAR KCLM 160053Z AUTO 29011G19KT 10SM CLR 18/13 A3000 RMK AO2 SLP158 T01830133=
202108152353 METAR KCLM 152353Z AUTO VRB06KT 10SM CLR 22/14 A3000 RMK AO2 SLP158 T02170139 10228 20167 58015=
202108152253 METAR KCLM 152253Z AUTO VRB06KT 10SM CLR 22/14 A3002 RMK AO2 SLP164 T02170144=
202108152153 METAR KCLM 152153Z AUTO 29008G15KT 10SM CLR 20/14 A3004 RMK AO2 SLP172 T02000139=
202108152053 METAR KCLM 152053Z AUTO 00000KT 10SM CLR 20/14 A3005 RMK AO2 SLP173 T02000144 58014=
202108151953 METAR KCLM 151953Z AUTO 36005KT 10SM CLR 18/14 A3007 RMK AO2 SLP181 T01830139=
202108151940 SPECI KCLM 151940Z AUTO 36005KT 10SM SCT009 19/14 A3007 RMK AO2 T01890139=
202108151853 METAR KCLM 151853Z AUTO 31005KT 10SM OVC007 17/14 A3009 RMK AO2 SLP190 T01720139=
202108151753 METAR KCLM 151753Z AUTO 34005KT 10SM OVC007 17/13 A3009 RMK AO2 SLP189 T01720133 10178 20150 55000=
202108151653 METAR KCLM 151653Z AUTO VRB04KT 10SM OVC009 17/13 A3008 RMK AO2 SLP186 T01720133=
202108151553 METAR KCLM 151553Z AUTO 30006KT 10SM OVC006 16/14 A3009 RMK AO2 SLP191 T01610139=
202108151529 SPECI KCLM 151529Z AUTO 27007KT 250V310 10SM OVC005 16/14 A3010 RMK AO2 T01610139=
202108151453 METAR KCLM 151453Z AUTO 30006KT 10SM OVC004 16/14 A3009 RMK AO2 SLP189 T01560139 50007=
202108151353 METAR KCLM 151353Z AUTO 30006KT 5SM BR OVC004 15/14 A3009 RMK AO2 SLP189 T01500139=
202108151253 METAR KCLM 151253Z AUTO 30008KT 6SM BR OVC003 15/14 A3008 RMK AO2 SLP184 T01500139=
202108151210 SPECI KCLM 151210Z AUTO 29009KT 4SM BR OVC002 16/14 A3007 RMK AO2 T01560144=
202108151200 SPECI KCLM 151200Z AUTO 29005KT 2 1/2SM BR OVC003 16/14 A3007 RMK AO2 T01560144=
202108151153 METAR KCLM 151153Z AUTO 28007KT 3SM BR OVC003 16/14 A3007 RMK AO2 SLP180 T01560144 10161 20156 53001=
202108151111 SPECI KCLM 151111Z AUTO 29009KT 3SM BR OVC002 16/14 A3007 RMK AO2 T01560144=
202108151059 SPECI KCLM 151059Z AUTO 28008KT 2SM BR OVC002 16/14 A3006 RMK AO2 T01560144=
202108151053 METAR KCLM 151053Z AUTO 29008KT 1 1/2SM BR OVC001 16/14 A3006 RMK AO2 SLP177 T01560144=
202108151021 SPECI KCLM 151021Z AUTO 30007KT 1 1/4SM BR OVC001 16/14 A3005 RMK AO2 T01560144=
202108151007 SPECI KCLM 151007Z AUTO 29007KT 1 1/2SM BR OVC002 16/14 A3005 RMK AO2 T01560144=
202108150953 METAR KCLM 150953Z AUTO 30006KT 2 1/2SM BR OVC002 16/15 A3005 RMK AO2 SLP175 T01560150=
202108150946 SPECI KCLM 150946Z AUTO 31004KT 2 1/2SM BR OVC002 16/15 A3005 RMK AO2 T01560150=
202108150905 SPECI KCLM 150905Z AUTO 30008KT 3SM BR OVC002 16/15 A3006 RMK AO2 T01560150=
202108150853 METAR KCLM 150853Z AUTO 29007KT 1 1/2SM BR OVC002 16/15 A3006 RMK AO2 SLP179 T01610150 50001=
202108150843 SPECI KCLM 150843Z AUTO 28006KT 1 3/4SM BR OVC002 16/15 A3007 RMK AO2 T01610150=
202108150753 METAR KCLM 150753Z AUTO 28008KT 3SM BR OVC002 16/15 A3007 RMK AO2 SLP183 T01610150 402280150=
202108150727 SPECI KCLM 150727Z AUTO 28011KT 1 3/4SM BR OVC002 16/15 A3007 RMK AO2 T01610150=
202108150653 METAR KCLM 150653Z AUTO 30011KT 5SM BR OVC002 16/15 A3007 RMK AO2 SLP182 T01610150=
202108150622 SPECI KCLM 150622Z AUTO 30008KT 5SM BR BKN002 16/14 A3007 RMK AO2 T01560144=
202108150611 SPECI KCLM 150611Z AUTO 31005KT 9SM SCT002 16/14 A3006 RMK AO2 T01560139=
202108150553 METAR KCLM 150553Z AUTO 00000KT 10SM CLR 16/14 A3006 RMK AO2 SLP179 T01560139 10222 20156 50001=
202108150453 METAR KCLM 150453Z AUTO 27004KT 10SM CLR 16/14 A3007 RMK AO2 SLP183 T01610144=
202108150353 METAR KCLM 150353Z AUTO 28007KT 10SM CLR 17/15 A3007 RMK AO2 SLP183 T01720150=
202108150253 METAR KCLM 150253Z AUTO 31005KT 10SM CLR 19/15 A3006 RMK AO2 SLP177 T01890150 56014=
202108150153 METAR KCLM 150153Z AUTO 29009KT 10SM CLR 19/15 A3007 RMK AO2 SLP181 T01940150=
202108150053 METAR KCLM 150053Z AUTO 31005KT 10SM CLR 22/16 A3007 RMK AO2 SLP182 T02170156=
202108142353 METAR KCLM 142353Z AUTO 30007G15KT 10SM CLR 21/15 A3010 RMK AO2 SLP192 T02060150 10228 20189 55004=
202108142253 METAR KCLM 142253Z AUTO 28006KT 10SM CLR 22/15 A3009 RMK AO2 SLP189 T02170150=
202108142153 METAR KCLM 142153Z AUTO 29006KT 10SM CLR 22/15 A3011 RMK AO2 SLP195 T02220150=
202108142053 METAR KCLM 142053Z AUTO 30011G15KT 10SM CLR 21/14 A3011 RMK AO2 SLP196 T02110144 55003=
202108141953 METAR KCLM 141953Z AUTO 01005KT 10SM CLR 22/14 A3011 RMK AO2 SLP194 T02220144=
202108141853 METAR KCLM 141853Z AUTO 29006KT 10SM CLR 20/14 A3012 RMK AO2 SLP198 T02000144=
202108141753 METAR KCLM 141753Z AUTO 32007KT 10SM CLR 20/14 A3012 RMK AO2 SLP199 T02000144 10200 20156 53008=
202108141653 METAR KCLM 141653Z AUTO 36004KT 10SM CLR 19/14 A3011 RMK AO2 SLP194 T01940139=
202108141553 METAR KCLM 141553Z AUTO 28005KT 10SM CLR 19/14 A3010 RMK AO2 SLP192 T01890144=
202108141453 METAR KCLM 141453Z AUTO 30004KT 10SM CLR 17/14 A3010 RMK AO2 SLP191 T01720144 53008=
202108141353 METAR KCLM 141353Z AUTO 28005KT 10SM CLR 16/14 A3009 RMK AO2 SLP188 T01610139=
202108141253 METAR KCLM 141253Z AUTO 23004KT 10SM CLR 17/14 A3008 RMK AO2 SLP184 T01720144=
202108141153 METAR KCLM 141153Z AUTO 00000KT 10SM CLR 16/13 A3007 RMK AO2 SLP183 T01610133 10200 20161 53009=
202108141053 METAR KCLM 141053Z AUTO 27005KT 10SM CLR 17/14 A3006 RMK AO2 SLP179 T01720139=
202108140953 METAR KCLM 140953Z AUTO 28005KT 10SM CLR 18/14 A3005 RMK AO2 SLP175 T01830139=
202108140853 METAR KCLM 140853Z AUTO 27004KT 10SM CLR 18/14 A3005 RMK AO2 SLP174 T01830144 51008=
202108140753 METAR KCLM 140753Z AUTO 26005KT 10SM CLR 18/14 A3005 RMK AO2 SLP172 T01830144 402940172=
202108140653 METAR KCLM 140653Z AUTO 28009KT 10SM CLR 19/14 A3004 RMK AO2 SLP169 T01940144=
202108140553 METAR KCLM 140553Z AUTO 29009KT 10SM CLR 20/14 A3002 RMK AO2 SLP165 T02000144 10267 20200 52012=
202108140453 METAR KCLM 140453Z AUTO 28007KT 10SM CLR 21/14 A3001 RMK AO2 SLP161 T02110144=
202108140353 METAR KCLM 140353Z AUTO 29006KT 10SM CLR 22/14 A3000 RMK AO2 SLP157 T02220139=
202108140253 METAR KCLM 140253Z AUTO 00000KT 10SM CLR 24/14 A2999 RMK AO2 SLP153 T02440144 56009=
202108140153 METAR KCLM 140153Z AUTO 32005KT 9SM CLR 26/13 A2999 RMK AO2 SLP156 T02560133=
202108140053 METAR KCLM 140053Z AUTO 31006KT 9SM CLR 25/13 A3000 RMK AO2 SLP158 T02500133=
202108132353 METAR KCLM 132353Z AUTO 30008KT 8SM CLR 27/13 A3001 RMK AO2 SLP161 T02670133 10294 20244 58006=
202108132253 METAR KCLM 132253Z AUTO 30009KT 9SM OVC032 26/14 A3002 RMK AO2 SLP165 T02560139=
202108132218 SPECI KCLM 132218Z AUTO 30009KT 9SM OVC031 25/13 A3003 RMK AO2 T02500133=
202108132153 METAR KCLM 132153Z AUTO 29006KT 9SM OVC029 26/13 A3003 RMK AO2 SLP168 T02610133=
202108132053 METAR KCLM 132053Z AUTO 34004KT 10SM CLR 27/14 A3003 RMK AO2 SLP168 T02720139 58003=
202108131953 METAR KCLM 131953Z AUTO 07004KT 10SM CLR 29/12 A3004 RMK AO2 SLP169 T02890122=
202108131853 METAR KCLM 131853Z AUTO 00000KT 10SM CLR 29/12 A3004 RMK AO2 SLP171 T02890122=
202108131753 METAR KCLM 131753Z AUTO 34003KT 6SM HZ CLR 27/13 A3004 RMK AO2 SLP171 T02670133 10267 20172 51005=
202108131653 METAR KCLM 131653Z AUTO 00000KT 5SM HZ FEW045 25/13 A3004 RMK AO2 SLP170 T02500133=
202108131553 METAR KCLM 131553Z AUTO 00000KT 5SM HZ FEW044 24/13 A3003 RMK AO2 SLP168 T02390128=
202108131453 METAR KCLM 131453Z AUTO 00000KT 5SM HZ BKN044 21/13 A3003 RMK AO2 SLP166 T02060133 51016=
202108131353 METAR KCLM 131353Z AUTO 00000KT 5SM HZ BKN046 18/12 A3002 RMK AO2 SLP163 T01830122=
202108131253 METAR KCLM 131253Z AUTO 00000KT 7SM OVC046 18/11 A3000 RMK AO2 SLP158 T01830111=
202108131153 METAR KCLM 131153Z AUTO 00000KT 6SM HZ OVC050 22/11 A2998 RMK AO2 SLP151 T02170111 10256 20189 53004=
202108131053 METAR KCLM 131053Z AUTO 23007KT 6SM HZ OVC050 23/12 A2998 RMK AO2 SLP148 T02330117=
202108130953 METAR KCLM 130953Z AUTO 00000KT 7SM CLR 21/12 A2997 RMK AO2 SLP148 T02060117=
202108130853 METAR KCLM 130853Z AUTO 00000KT 7SM CLR 21/12 A2997 RMK AO2 SLP147 T02060122 51003=
202108130753 METAR KCLM 130753Z AUTO 24009KT 6SM HZ CLR 26/12 A2997 RMK AO2 SLP146 T02560117 403390172=
202108130653 METAR KCLM 130653Z AUTO 23006KT 6SM HZ CLR 25/12 A2997 RMK AO2 SLP145 T02500117=
202108130553 METAR KCLM 130553Z AUTO 22004KT 6SM HZ CLR 23/12 A2996 RMK AO2 SLP144 T02280122 10333 20228 53003=
202108130453 METAR KCLM 130453Z AUTO 23007KT 6SM HZ CLR 24/12 A2996 RMK AO2 SLP143 T02390122=
202108130353 METAR KCLM 130353Z AUTO 20004KT 6SM HZ CLR 25/13 A2996 RMK AO2 SLP142 T02500128=
202108130253 METAR KCLM 130253Z AUTO 18004KT 6SM HZ CLR 29/12 A2995 RMK AO2 SLP141 T02940122 56009=
202108130153 METAR KCLM 130153Z AUTO 13004KT 6SM HZ CLR 31/11 A2996 RMK AO2 SLP143 T03110111=
202108130053 METAR KCLM 130053Z AUTO 08005KT 5SM HZ CLR 32/11 A2997 RMK AO2 SLP146 T03170106=
202108122353 METAR KCLM 122353Z AUTO VRB04KT 5SM HZ CLR 33/11 A2998 RMK AO2 SLP150 T03330106 10339 20294 56016=
202108122253 METAR KCLM 122253Z AUTO 08006KT 4SM HZ CLR 33/10 A3000 RMK AO2 SLP156 T03280100=
202108122153 METAR KCLM 122153Z AUTO VRB06KT 5SM HZ CLR 33/11 A3001 RMK AO2 SLP160 T03280111=
202108122053 METAR KCLM 122053Z AUTO 09007KT 4SM HZ CLR 32/11 A3003 RMK AO2 SLP166 T03220106 58012=
202108121953 METAR KCLM 121953Z AUTO 07003KT 5SM HZ CLR 31/11 A3005 RMK AO2 SLP174 T03060111=
202108121853 METAR KCLM 121853Z AUTO 04004KT 5SM HZ CLR 30/12 A3006 RMK AO2 SLP177 T03000122=
202108121753 METAR KCLM 121753Z AUTO 08005KT 5SM HZ CLR 29/13 A3006 RMK AO2 SLP178 T02940128 10294 20194 51008=
202108121653 METAR KCLM 121653Z AUTO 13006KT 10SM CLR 28/14 A3006 RMK AO2 SLP178 T02830144=
202108121553 METAR KCLM 121553Z AUTO 14007KT 10SM CLR 27/15 A3005 RMK AO2 SLP175 T02720150=
202108121453 METAR KCLM 121453Z AUTO 15005KT 10SM CLR 25/14 A3004 RMK AO2 SLP170 T02500144 52012=
202108121353 METAR KCLM 121353Z AUTO 14005KT 10SM FEW085 21/14 A3003 RMK AO2 SLP166 T02110139=
202108121253 METAR KCLM 121253Z AUTO 13005KT 10SM FEW080 21/13 A3002 RMK AO2 SLP163 T02110133=
202108121153 METAR KCLM 121153Z AUTO 13006KT 10SM CLR 19/13 A3000 RMK AO2 SLP158 T01940128 10233 20172 53007=
202108121053 METAR KCLM 121053Z AUTO 11007KT 10SM CLR 23/13 A3000 RMK AO2 SLP155 T02280128=
202108120953 METAR KCLM 120953Z AUTO 11008KT 10SM CLR 23/13 A2999 RMK AO2 SLP153 T02280128=
202108120853 METAR KCLM 120853Z AUTO 14005KT 10SM CLR 21/13 A2998 RMK AO2 SLP151 T02110133 53005=
202108120753 METAR KCLM 120753Z AUTO 00000KT 10SM CLR 19/14 A2998 RMK AO2 SLP149 T01890144 402940139=
202108120653 METAR KCLM 120653Z AUTO 00000KT 10SM CLR 18/14 A2997 RMK AO2 SLP147 T01780144=
202108120553 METAR KCLM 120553Z AUTO 00000KT 10SM CLR 19/15 A2997 RMK AO2 SLP147 T01890150 10294 20189 50002=
202108120453 METAR KCLM 120453Z AUTO 00000KT 10SM CLR 20/15 A2997 RMK AO2 SLP148 T02000150=
202108120353 METAR KCLM 120353Z AUTO 13003KT 10SM CLR 24/14 A2997 RMK AO2 SLP146 T02440139=
202108120253 METAR KCLM 120253Z AUTO 07004KT 10SM CLR 27/14 A2996 RMK AO2 SLP144 T02670144 58007=
202108120153 METAR KCLM 120153Z AUTO 09005KT 10SM CLR 27/15 A2997 RMK AO2 SLP148 T02720150=
202108120053 METAR KCLM 120053Z AUTO 08007KT 10SM CLR 28/15 A2998 RMK AO2 SLP152 T02830150=
202108112353 METAR KCLM 112353Z AUTO 07005KT 10SM CLR 29/15 A2999 RMK AO2 SLP153 T02890150 10294 20244 58021=
202108112253 METAR KCLM 112253Z AUTO 08006KT 10SM CLR 28/15 A3001 RMK AO2 SLP161 T02830150=
202108112153 METAR KCLM 112153Z AUTO 10008KT 10SM CLR 28/15 A3003 RMK AO2 SLP168 T02830150=
202108112053 METAR KCLM 112053Z AUTO 09009KT 10SM CLR 28/15 A3005 RMK AO2 SLP174 T02780150 58012=
202108111953 METAR KCLM 111953Z AUTO 10008KT 10SM CLR 27/15 A3007 RMK AO2 SLP180 T02670150=
202108111853 METAR KCLM 111853Z AUTO 10008KT 10SM CLR 27/16 A3007 RMK AO2 SLP182 T02670156=
202108111753 METAR KCLM 111753Z AUTO 08010KT 10SM CLR 25/16 A3008 RMK AO2 SLP185 T02500156 10256 20139 58001=
202108111653 METAR KCLM 111653Z AUTO 10010KT 10SM CLR 25/15 A3009 RMK AO2 SLP187 T02500150=
202108111553 METAR KCLM 111553Z AUTO 08008KT 10SM CLR 25/15 A3009 RMK AO2 SLP187 T02500150=
202108111453 METAR KCLM 111453Z AUTO 10010G18KT 10SM CLR 23/14 A3009 RMK AO2 SLP187 T02330144 53002=
202108111353 METAR KCLM 111353Z AUTO 00000KT 10SM CLR 16/14 A3008 RMK AO2 SLP184 T01610139=
202108111253 METAR KCLM 111253Z AUTO 00000KT 10SM CLR 14/12 A3007 RMK AO2 SLP183 T01390122=
202108111153 METAR KCLM 111153Z AUTO 00000KT 10SM CLR 14/13 A3008 RMK AO2 SLP185 T01440128 10167 20139 55002=
202108111053 METAR KCLM 111053Z AUTO 00000KT 10SM CLR 15/13 A3007 RMK AO2 SLP183 T01500128=
202108110953 METAR KCLM 110953Z AUTO 00000KT 10SM CLR 14/12 A3008 RMK AO2 SLP184 T01440122=
202108110853 METAR KCLM 110853Z AUTO 21004KT 10SM CLR 14/12 A3009 RMK AO2 SLP186 T01440122 56004=
202108110753 METAR KCLM 110753Z AUTO 00000KT 10SM CLR 16/13 A3009 RMK AO2 SLP188 T01560128 402610122=
202108110653 METAR KCLM 110653Z AUTO 00000KT 10SM CLR 15/12 A3009 RMK AO2 SLP187 T01500122=
202108110553 METAR KCLM 110553Z AUTO 00000KT 10SM CLR 16/12 A3010 RMK AO2 SLP191 T01610122 10233 20156 50002=
202108110453 METAR KCLM 110453Z AUTO 00000KT 10SM CLR 16/12 A3011 RMK AO2 SLP193 T01610122=
202108110353 METAR KCLM 110353Z AUTO 00000KT 10SM CLR 16/12 A3010 RMK AO2 SLP192 T01610122=
202108110253 METAR KCLM 110253Z AUTO 29003KT 10SM CLR 18/12 A3009 RMK AO2 SLP190 T01780122 58002=
202108110153 METAR KCLM 110153Z AUTO 34004KT 10SM CLR 21/13 A3009 RMK AO2 SLP191 T02110128=
202108110053 METAR KCLM 110053Z AUTO 34004KT 10SM CLR 22/13 A3010 RMK AO2 SLP192 T02170128=
202108102353 METAR KCLM 102353Z AUTO 35005KT 10SM CLR 21/13 A3010 RMK AO2 SLP192 T02110133 10261 20211 58008=
202108102253 METAR KCLM 102253Z AUTO VRB04KT 10SM CLR 26/13 A3012 RMK AO2 SLP197 T02560133=
202108102153 METAR KCLM 102153Z AUTO VRB06KT 10SM CLR 24/13 A3013 RMK AO2 SLP201 T02390133=
202108102053 METAR KCLM 102053Z AUTO VRB05KT 10SM CLR 23/14 A3012 RMK AO2 SLP199 T02280139 58007=
202108101953 METAR KCLM 101953Z AUTO 08007KT 020V110 10SM CLR 22/14 A3014 RMK AO2 SLP205 T02220139=
202108101853 METAR KCLM 101853Z AUTO VRB05KT 10SM CLR 22/13 A3014 RMK AO2 SLP206 T02170133=
202108101753 METAR KCLM 101753Z AUTO VRB05KT 10SM CLR 22/14 A3014 RMK AO2 SLP206 T02170139 10217 20122 50000=
202108101653 METAR KCLM 101653Z AUTO 35005KT 10SM CLR 19/13 A3014 RMK AO2 SLP206 T01940128=
202108101553 METAR KCLM 101553Z AUTO 00000KT 10SM CLR 18/13 A3015 RMK AO2 SLP210 T01780128=
202108101509 SPECI KCLM 101509Z AUTO 00000KT 10SM SCT001 14/13 A3014 RMK AO2 T01390133=
202108101456 SPECI KCLM 101456Z AUTO 00000KT 3SM BR BKN001 13/13 A3014 RMK AO2 T01330128=
202108101453 METAR KCLM 101453Z AUTO 00000KT 1 1/4SM BR BKN001 13/13 A3014 RMK AO2 SLP207 T01330128 53013=
202108101446 SPECI KCLM 101446Z AUTO 00000KT 1 3/4SM BR BKN001 13/12 A3014 RMK AO2 T01330122=
202108101438 SPECI KCLM 101438Z AUTO 00000KT 7SM SCT001 13/12 A3014 RMK AO2 T01330122=
202108101419 SPECI KCLM 101419Z AUTO 00000KT 4SM BR BKN001 13/12 A3013 RMK AO2 T01280122=
202108101415 SPECI KCLM 101415Z AUTO 00000KT 1SM BR VV001 13/12 A3013 RMK AO2 T01280117=
202108101407 SPECI KCLM 101407Z AUTO 20003KT 1/4SM FG VV001 13/12 A3013 RMK AO2 T01280117=
202108101353 METAR KCLM 101353Z AUTO 23004KT M1/4SM FG VV001 13/12 A3013 RMK AO2 SLP203 T01280122=
202108101345 SPECI KCLM 101345Z AUTO 00000KT M1/4SM FG VV002 13/12 A3013 RMK AO2 T01280122=
202108101314 SPECI KCLM 101314Z AUTO 25003KT 1/4SM FG VV002 12/12 A3011 RMK AO2 T01220117=
202108101306 SPECI KCLM 101306Z AUTO 24003KT 1/2SM FG VV002 13/12 A3011 RMK AO2 T01280117 $=
202108101253 METAR KCLM 101253Z AUTO 28003KT 1/4SM FG VV002 13/12 A3012 RMK AO2 SLP199 T01280117 $=
202108101238 SPECI KCLM 101238Z AUTO 28003KT 1/4SM FG VV002 13/12 A3012 RMK AO2 T01280122 $=
202108101230 SPECI KCLM 101230Z AUTO 29003KT 1SM BR VV002 13/12 A3012 RMK AO2 T01280117 $=
202108101222 SPECI KCLM 101222Z AUTO 33003KT 2 1/2SM BR BKN001 13/12 A3012 RMK AO2 T01280117 $=
202108101205 SPECI KCLM 101205Z AUTO 35003KT 8SM SCT001 13/12 A3011 RMK AO2 T01280117 $=
202108101153 METAR KCLM 101153Z AUTO 24004KT 6SM BR BKN002 13/12 A3011 RMK AO2 SLP195 T01280122 10150 20128 50004 $=
202108101123 SPECI KCLM 101123Z AUTO 26008KT 3SM BR OVC002 13/12 A3011 RMK AO2 T01280117 $=
202108101115 SPECI KCLM 101115Z AUTO 27006KT 1 3/4SM BR OVC002 13/12 A3012 RMK AO2 T01280122 $=
202108101057 SPECI KCLM 101057Z AUTO 29006KT 3/4SM BR VV002 13/12 A3012 RMK AO2 T01280122 $=
202108101053 METAR KCLM 101053Z AUTO 29006KT 1SM BR OVC001 13/12 A3012 RMK AO2 SLP199 T01280122 $=
202108101014 SPECI KCLM 101014Z AUTO 26005KT 1 1/2SM BR OVC001 13/12 A3010 RMK AO2 T01280122 $=
202108100959 SPECI KCLM 100959Z AUTO 30005KT 1 3/4SM BR OVC002 13/12 A3011 RMK AO2 T01280122 $=
202108100953 METAR KCLM 100953Z AUTO 30005KT 3SM BR OVC002 13/12 A3011 RMK AO2 SLP194 T01280122 $=
202108100949 SPECI KCLM 100949Z AUTO 29005KT 2 1/2SM BR OVC002 13/12 A3010 RMK AO2 $=
202108100941 SPECI KCLM 100941Z AUTO 28006KT 1/2SM FG VV002 13/12 A3010 RMK AO2 T01280117 $=
202108100932 SPECI KCLM 100932Z AUTO 29005KT 1 3/4SM BR BKN003 13/12 A3010 RMK AO2 T01330117 $=
202108100928 SPECI KCLM 100928Z AUTO 28006KT 6SM BR SCT003 13/12 A3010 RMK AO2 T01330117 $=
202108100853 METAR KCLM 100853Z AUTO 27005KT 10SM CLR 13/12 A3009 RMK AO2 SLP190 T01330117 58006 $=
202108100803 SPECI KCLM 100803Z AUTO 27004KT 10SM SCT004 13/12 A3011 RMK AO2 T01330117 $=
202108100753 METAR KCLM 100753Z AUTO 30005KT 10SM CLR 14/12 A3011 RMK AO2 SLP195 T01390117 402220100 $=
202108100653 METAR KCLM 100653Z AUTO 30003KT 10SM CLR 13/11 A3010 RMK AO2 SLP193 T01330111 $=
202108100553 METAR KCLM 100553Z AUTO 27003KT 10SM CLR 15/12 A3011 RMK AO2 SLP197 T01500117 10189 20144 55001 $=
202108100453 METAR KCLM 100453Z AUTO 25003KT 10SM CLR 15/12 A3011 RMK AO2 SLP195 T01500117 $=
202108100353 METAR KCLM 100353Z AUTO 26005KT 10SM SCT055 16/12 A3011 RMK AO2 SLP194 T01560117 $=
202108100253 METAR KCLM 100253Z AUTO 29006KT 10SM CLR 16/12 A3012 RMK AO2 SLP198 T01560117 55004 $=
202108100153 METAR KCLM 100153Z AUTO 28003KT 10SM CLR 18/12 A3011 RMK AO2 SLP195 T01830122 $=
202108100053 METAR KCLM 100053Z AUTO 30009KT 10SM CLR 17/11 A3013 RMK AO2 SLP203 T01670111 $=
202108092353 METAR KCLM 092353Z AUTO 30007KT 10SM CLR 18/11 A3013 RMK AO2 SLP203 T01780111 10222 20172 58001 $=
202108092253 METAR KCLM 092253Z AUTO 34006KT 10SM CLR 19/12 A3013 RMK AO2 SLP204 T01890122 $=
202108092153 METAR KCLM 092153Z AUTO 35005KT 10SM CLR 21/12 A3014 RMK AO2 SLP206 T02060122 $=
202108092053 METAR KCLM 092053Z AUTO VRB04KT 10SM CLR 22/13 A3013 RMK AO2 SLP204 T02170128 58007 $=
202108091953 METAR KCLM 091953Z AUTO 10SM CLR 20/13 A3015 RMK AO2 SLP210 T02000128 $=
202108091853 METAR KCLM 091853Z AUTO VRB05KT 10SM CLR 18/12 A3016 RMK AO2 SLP214 T01780117=
202108091753 METAR KCLM 091753Z AUTO VRB04KT 10SM CLR 19/12 A3015 RMK AO2 SLP211 T01940117 10200 20100 50003=
202108091653 METAR KCLM 091653Z AUTO 00000KT 10SM CLR 18/12 A3016 RMK AO2 SLP212 T01780117=
202108091553 METAR KCLM 091553Z AUTO VRB03KT 10SM CLR 16/12 A3015 RMK AO2 SLP210 T01610117=
202108091453 METAR KCLM 091453Z AUTO 24004KT 10SM CLR 14/11 A3015 RMK AO2 SLP208 T01440111 58001=
202108091353 METAR KCLM 091353Z AUTO 23004KT 10SM FEW055 11/10 A3015 RMK AO2 SLP210 T01110100=
202108091253 METAR KCLM 091253Z AUTO 24003KT 10SM CLR 11/09 A3015 RMK AO2 SLP209 T01060094=
202108091153 METAR KCLM 091153Z AUTO 23005KT 10SM CLR 11/09 A3015 RMK AO2 SLP209 T01060094 10139 20106 50003=
202108091053 METAR KCLM 091053Z AUTO 24004KT 10SM CLR 12/10 A3015 RMK AO2 SLP209 T01170100=
202108090953 METAR KCLM 090953Z AUTO 27007KT 10SM SCT006 13/11 A3014 RMK AO2 SLP207 T01280111=
202108090945 SPECI KCLM 090945Z AUTO 28006KT 10SM SCT006 13/11 A3014 RMK AO2 T01280111=
202108090853 METAR KCLM 090853Z AUTO 28006KT 10SM FEW012 13/11 A3014 RMK AO2 SLP205 T01280106 51003=
202108090753 METAR KCLM 090753Z AUTO 27006KT 10SM CLR 13/11 A3014 RMK AO2 SLP205 T01280111 402110128=
202108090733 SPECI KCLM 090733Z AUTO 27006KT 10SM SCT015 13/11 A3014 RMK AO2 T01330111=
202108090722 SPECI KCLM 090722Z AUTO 27005KT 10SM BKN015 13/11 A3014 RMK AO2 T01330111=
202108090653 METAR KCLM 090653Z AUTO 27007KT 10SM CLR 13/11 A3014 RMK AO2 SLP206 T01330111=
202108090553 METAR KCLM 090553Z AUTO 25005KT 10SM CLR 14/11 A3013 RMK AO2 SLP202 T01390111 10200 20139 51011=
202108090453 METAR KCLM 090453Z AUTO 25006KT 10SM CLR 14/11 A3012 RMK AO2 SLP200 T01440111=
202108090353 METAR KCLM 090353Z AUTO 26007KT 10SM BKN036 14/11 A3011 RMK AO2 SLP197 T01440111=
202108090253 METAR KCLM 090253Z AUTO 29009KT 10SM CLR 17/12 A3010 RMK AO2 SLP191 T01670117 53002=
202108090153 METAR KCLM 090153Z AUTO 30009KT 10SM BKN038 18/12 A3009 RMK AO2 SLP188 T01830117=
202108090053 METAR KCLM 090053Z AUTO 30009KT 10SM BKN038 19/12 A3009 RMK AO2 SLP188 T01890117=
202108082353 METAR KCLM 082353Z AUTO 31010G15KT 10SM CLR 19/12 A3009 RMK AO2 SLP189 T01940117 10211 20172 51006=
202108082253 METAR KCLM 082253Z AUTO 10SM SCT040 21/12 A3009 RMK AO2 SLP188 T02060117=
202108082153 METAR KCLM 082153Z AUTO 33005KT 10SM CLR 20/12 A3008 RMK AO2 SLP184 T02000117=
202108082053 METAR KCLM 082053Z AUTO VRB06KT 10SM CLR 19/12 A3007 RMK AO2 SLP183 T01940117 51010=
202108081953 METAR KCLM 081953Z AUTO 32008KT 290V360 10SM CLR 18/12 A3006 RMK AO2 SLP180 T01830117=
202108081853 METAR KCLM 081853Z AUTO 32007G16KT 10SM CLR 18/12 A3005 RMK AO2 SLP177 T01780117=
202108081753 METAR KCLM 081753Z AUTO 30008KT 10SM CLR 18/12 A3004 RMK AO2 SLP173 T01780122 10178 20128 53014=
202108081653 METAR KCLM 081653Z AUTO VRB05KT 10SM FEW013 17/12 A3003 RMK AO2 SLP168 T01670122=
202108081553 METAR KCLM 081553Z AUTO 30009KT 10SM CLR 16/12 A3001 RMK AO2 SLP163 T01560117=
202108081453 METAR KCLM 081453Z AUTO 28008KT 10SM CLR 16/11 A3000 RMK AO2 SLP158 T01560111 50013=
202108081353 METAR KCLM 081353Z AUTO 29007KT 10SM FEW036 OVC060 13/11 A3001 RMK AO2 SLP160 T01330111=
202108081253 METAR KCLM 081253Z AUTO 31003KT 10SM FEW035 OVC070 13/09 A2997 RMK AO2 SLP150 T01330094=
202108081153 METAR KCLM 081153Z AUTO 26007KT 10SM BKN037 OVC075 14/09 A2996 RMK AO2 SLP145 60000 70007 T01440089 10150 20133 51008=
202108081053 METAR KCLM 081053Z AUTO 30008KT 10SM OVC080 15/09 A2996 RMK AO2 RAB21E34 SLP144 P0000 T01500089=
202108080953 METAR KCLM 080953Z AUTO 28009KT 10SM FEW042 OVC065 15/09 A2995 RMK AO2 SLP141 T01500089=
202108080853 METAR KCLM 080853Z AUTO 29008KT 10SM FEW043 SCT065 14/09 A2994 RMK AO2 SLP137 T01390089 53005=
202108080753 METAR KCLM 080753Z AUTO 29009KT 10SM FEW070 14/09 A2993 RMK AO2 SLP134 T01390089 401890133=
202108080653 METAR KCLM 080653Z AUTO 30008KT 10SM CLR 14/09 A2992 RMK AO2 SLP132 T01390089=
202108080553 METAR KCLM 080553Z AUTO 27011G17KT 10SM CLR 15/09 A2992 RMK AO2 PK WND 28026/0503 SLP132 60000 T01500089 10167 20133 50014=
202108080453 METAR KCLM 080453Z AUTO 27015KT 10SM FEW043 OVC060 15/10 A2992 RMK AO2 RAB12E33 SLP132 P0000 T01500100=
202108080353 METAR KCLM 080353Z AUTO 31014G26KT 10SM FEW005 BKN060 13/12 A2991 RMK AO2 PK WND 30038/0326 SLP130 T01330117=
202108080253 METAR KCLM 080253Z AUTO 27012G19KT 10SM CLR 16/10 A2988 RMK AO2 SLP118 T01560100 55008=
202108080207 SPECI KCLM 080207Z AUTO 29014G23KT 10SM SCT021 15/11 A2989 RMK AO2 T01500111=
202108080153 METAR KCLM 080153Z AUTO 28012G25KT 260V330 10SM BKN021 16/12 A2988 RMK AO2 PK WND 31026/0057 SLP118 T01610117=
202108080132 SPECI KCLM 080132Z AUTO 31011G21KT 10SM OVC016 16/12 A2988 RMK AO2 PK WND 31026/0057 T01610122=
202108080113 SPECI KCLM 080113Z AUTO 30008G19KT 10SM OVC014 16/12 A2989 RMK AO2 PK WND 31026/0057 T01560122=
202108080053 METAR KCLM 080053Z AUTO 31013G22KT 10SM OVC015 16/12 A2989 RMK AO2 SLP123 T01560122=
202108080044 SPECI KCLM 080044Z AUTO 30012G25KT 10SM OVC015 16/12 A2990 RMK AO2 T01560122=
202108080011 SPECI KCLM 080011Z AUTO 31011G19KT 10SM OVC014 16/13 A2990 RMK AO2 T01610128=
202108072353 METAR KCLM 072353Z AUTO 30008G20KT 10SM OVC015 16/13 A2990 RMK AO2 SLP126 60005 T01560128 10189 20144 58008=
202108072339 SPECI KCLM 072339Z AUTO 30012G22KT 10SM OVC015 16/13 A2991 RMK AO2 T01610133=
202108072253 METAR KCLM 072253Z AUTO 30009KT 10SM OVC012 17/14 A2991 RMK AO2 RAB2155E06 SLP128 P0000 T01670144=
202108072231 SPECI KCLM 072231Z AUTO 28008KT 10SM SCT008 OVC013 16/14 A2992 RMK AO2 RAB2155E06 P0000 T01560139=
202108072153 METAR KCLM 072153Z AUTO 28010G18KT 5SM BR OVC005 16/14 A2993 RMK AO2 RAB2058E52 SLP134 P0004 T01560139=
202108072133 SPECI KCLM 072133Z AUTO 27010KT 3SM -RA BR OVC005 16/14 A2993 RMK AO2 RAB2058 CIG 004V009 P0003 T01560139=
202108072120 SPECI KCLM 072120Z AUTO 30006KT 1 3/4SM RA BR OVC006 16/14 A2993 RMK AO2 RAB2058 CIG 004V008 P0002 T01560139=
202108072108 SPECI KCLM 072108Z AUTO 29007KT 4SM -RA BR OVC006 16/14 A2993 RMK AO2 RAB2058 CIG 004V009 P0000 T01560139=
202108072101 SPECI KCLM 072101Z AUTO 30007KT 2 1/2SM -RA BR OVC007 16/14 A2993 RMK AO2 RAB2058 CIG 004V010 P0000 T01560139=
202108072053 METAR KCLM 072053Z AUTO 30007KT 3SM BR OVC007 16/14 A2993 RMK AO2 RAB06E35 CIG 005V010 SLP134 P0000 60001 T01560139 53002=
202108072027 SPECI KCLM 072027Z AUTO 30006KT 7SM -RA OVC008 16/14 A2992 RMK AO2 RAB06 CIG 006V011 P0000 T01610139=
202108072003 SPECI KCLM 072003Z AUTO 34003KT 10SM OVC012 17/14 A2991 RMK AO2 T01670139=
202108071953 METAR KCLM 071953Z AUTO 35003KT 10SM FEW008 OVC015 17/15 A2991 RMK AO2 SLP127 T01720150=
202108071936 SPECI KCLM 071936Z AUTO 00000KT 10SM SCT006 BKN019 OVC032 19/16 A2991 RMK AO2 T01890156=
202108071919 SPECI KCLM 071919Z AUTO 00000KT 10SM FEW004 OVC031 18/15 A2991 RMK AO2 T01780150=
202108071853 METAR KCLM 071853Z AUTO 00000KT 9SM FEW004 BKN029 OVC043 16/14 A2992 RMK AO2 RAE1759B20E42 SLP130 P0001 T01610144=
202108071837 SPECI KCLM 071837Z AUTO 00000KT 3SM -RA BR SCT002 BKN020 OVC055 15/14 A2992 RMK AO2 RAE1759B20 P0001 T01500139=
202108071803 SPECI KCLM 071803Z AUTO 00000KT 6SM BR BKN002 BKN036 OVC047 14/13 A2992 RMK AO2 RAE1759 P0001 T01440133=
202108071753 METAR KCLM 071753Z AUTO 00000KT 2 1/2SM -RA BR OVC002 14/13 A2992 RMK AO2 RAB33 SLP132 P0000 60002 T01440128 10144 20133 51002=
202108071750 SPECI KCLM 071750Z AUTO 00000KT 2SM -RA BR BKN002 OVC024 14/13 A2992 RMK AO2 RAB33 P0000=
202108071728 SPECI KCLM 071728Z AUTO 34003KT 5SM BR OVC002 13/12 A2992 RMK AO2 T01330122=
202108071715 SPECI KCLM 071715Z AUTO 00000KT 5SM BR OVC001 14/13 A2992 RMK AO2 T01390128=
202108071705 SPECI KCLM 071705Z AUTO 30003KT 2SM BR OVC001 14/13 A2992 RMK AO2 T01390128=
202108071653 METAR KCLM 071653Z AUTO 32003KT 1SM BR OVC002 13/12 A2992 RMK AO2 SLP132 T01330122=
202108071642 SPECI KCLM 071642Z AUTO VRB04KT 1/4SM FG VV002 13/12 A2992 RMK AO2 T01330122=
202108071635 SPECI KCLM 071635Z AUTO 36003KT 1SM BR OVC002 14/13 A2992 RMK AO2 T01390128=
202108071623 SPECI KCLM 071623Z AUTO 35004KT 1/4SM FG OVC002 13/12 A2992 RMK AO2 T01330122=
202108071615 SPECI KCLM 071615Z AUTO 01004KT 1 1/2SM BR OVC002 14/13 A2992 RMK AO2 T01390128=
202108071553 METAR KCLM 071553Z AUTO 00000KT 4SM BR OVC003 14/13 A2992 RMK AO2 SLP130 T01390128=
202108071453 METAR KCLM 071453Z AUTO 11003KT 6SM BR BKN004 OVC060 14/13 A2992 RMK AO2 RAB26E50 SLP131 P0000 60002 T01390128 56004=
202108071450 SPECI KCLM 071450Z AUTO 10003KT 5SM BR BKN004 BKN047 OVC060 14/13 A2992 RMK AO2 RAB26E50 P0000=
202108071414 SPECI KCLM 071414Z AUTO 00000KT 7SM BKN005 OVC065 14/13 A2992 RMK AO2 T01390128=
202108071407 SPECI KCLM 071407Z AUTO 07003KT 7SM BKN003 OVC065 14/13 A2992 RMK AO2 T01390128=
202108071353 METAR KCLM 071353Z AUTO 00000KT 7SM SCT004 SCT047 OVC065 14/13 A2992 RMK AO2 RAE1257B26E53 SLP132 P0001 T01390128=
202108071253 METAR KCLM 071253Z AUTO 09003KT 6SM -RA BR FEW004 OVC055 14/13 A2993 RMK AO2 SLP136 P0001 T01390128=
202108071238 SPECI KCLM 071238Z AUTO 09004KT 7SM -RA SCT004 BKN055 OVC070 14/12 A2994 RMK AO2 P0001 T01390122=
202108071203 SPECI KCLM 071203Z AUTO 00000KT 8SM -RA BKN004 BKN009 OVC050 14/13 A2994 RMK AO2 P0000 T01390128=
202108071153 METAR KCLM 071153Z AUTO 00000KT 9SM -RA SCT008 OVC050 14/13 A2995 RMK AO2 SLP141 P0002 60009 70009 T01390128 10156 20139 56017=
202108071141 SPECI KCLM 071141Z AUTO 00000KT 8SM -RA SCT008 OVC050 14/12 A2995 RMK AO2 P0002 T01390122=
202108071126 SPECI KCLM 071126Z AUTO 00000KT 7SM -RA BKN009 OVC050 14/13 A2995 RMK AO2 P0001 T01390128=
202108071101 SPECI KCLM 071101Z AUTO 00000KT 10SM -RA FEW009 OVC050 14/12 A2996 RMK AO2 P0001 T01390122=
202108071053 METAR KCLM 071053Z AUTO 00000KT 10SM -RA OVC055 14/12 A2996 RMK AO2 RAB0955 SLP145 P0002 T01390122=
202108070953 METAR KCLM 070953Z AUTO 00000KT 9SM OVC048 14/12 A2998 RMK AO2 RAE15 SLP151 P0001 T01390122=
202108070853 METAR KCLM 070853Z AUTO 00000KT 3SM -RA BR OVC047 14/12 A3000 RMK AO2 SLP158 P0003 60004 T01390122 58012=
202108070753 METAR KCLM 070753Z AUTO 00000KT 6SM -RA OVC050 14/12 A3001 RMK AO2 RAE04B28 SLP163 P0001 T01440117 402000144=
202108070653 METAR KCLM 070653Z AUTO 25004KT 6SM -RA OVC055 14/11 A3002 RMK AO2 RAB28 SLP167 P0000 T01440111=
202108070553 METAR KCLM 070553Z AUTO 26004KT 10SM OVC055 16/11 A3003 RMK AO2 SLP169 T01560106 10178 20156 58004=
202108070453 METAR KCLM 070453Z AUTO 27006KT 10SM OVC055 16/10 A3005 RMK AO2 SLP174 T01560100=
202108070353 METAR KCLM 070353Z AUTO 27007KT 10SM BKN060 OVC080 16/10 A3004 RMK AO2 SLP173 T01560100=
202108070253 METAR KCLM 070253Z AUTO 29009KT 10SM OVC060 16/10 A3004 RMK AO2 SLP174 T01610100 58006=
202108070153 METAR KCLM 070153Z AUTO 31009G15KT 10SM OVC065 17/10 A3005 RMK AO2 SLP175 T01670100=
202108070053 METAR KCLM 070053Z AUTO 31011G18KT 10SM OVC070 17/11 A3006 RMK AO2 SLP178 T01670106=
202108062353 METAR KCLM 062353Z AUTO 30010G19KT 10SM OVC080 18/11 A3006 RMK AO2 SLP180 T01780106 10200 20167 56003=
202108062253 METAR KCLM 062253Z AUTO 30015G21KT 10SM BKN100 18/11 A3006 RMK AO2 SLP180 T01780106=
202108062153 METAR KCLM 062153Z AUTO 30014G24KT 10SM FEW110 19/11 A3006 RMK AO2 SLP180 T01890106=
202108062109 SPECI KCLM 062109Z AUTO 31011G24KT 10SM SCT027 SCT110 19/11 A3007 RMK AO2 T01940106=
202108062053 METAR KCLM 062053Z AUTO 31012G24KT 10SM BKN028 OVC110 18/11 A3007 RMK AO2 PK WND 30028/2004 SLP183 T01830106 53004=
202108061953 METAR KCLM 061953Z AUTO 30013G23KT 10SM OVC027 18/10 A3007 RMK AO2 SLP182 T01830100=
202108061853 METAR KCLM 061853Z AUTO 30015G22KT 10SM OVC025 18/10 A3006 RMK AO2 PK WND 30027/1756 SLP179 T01780100=
202108061753 METAR KCLM 061753Z AUTO 30018G28KT 10SM OVC023 17/09 A3006 RMK AO2 PK WND 30028/1752 SLP179 T01670094 10178 20144 51003=
202108061653 METAR KCLM 061653Z AUTO 29010G17KT 10SM OVC018 17/10 A3006 RMK AO2 SLP178 T01670100=
202108061553 METAR KCLM 061553Z AUTO 29008KT 10SM OVC018 16/10 A3006 RMK AO2 SLP180 T01560100=
202108061502 SPECI KCLM 061502Z AUTO 30006KT 10SM OVC015 16/11 A3005 RMK AO2 T01560106=
202108061453 METAR KCLM 061453Z AUTO 30005KT 10SM OVC014 16/11 A3005 RMK AO2 SLP176 T01560106 53001=
202108061353 METAR KCLM 061353Z AUTO 29007KT 10SM OVC013 15/11 A3003 RMK AO2 SLP170 T01500111=
202108061336 SPECI KCLM 061336Z AUTO 28010KT 10SM OVC014 14/11 A3003 RMK AO2 T01440111=
202108061253 METAR KCLM 061253Z AUTO 28010G19KT 10SM OVC015 15/11 A3005 RMK AO2 SLP175 T01500111=
202108061215 SPECI KCLM 061215Z AUTO 29008KT 10SM OVC014 15/11 A3004 RMK AO2 T01500111=
202108061153 METAR KCLM 061153Z AUTO 29008KT 10SM OVC016 14/11 A3003 RMK AO2 RAB25E35 SLP167 P0000 60000 T01440111 10167 20144 56005=
202108061120 SPECI KCLM 061120Z AUTO 28010KT 10SM OVC015 15/11 A3004 RMK AO2 T01500111=
202108061053 METAR KCLM 061053Z AUTO 29009KT 10SM OVC014 15/11 A3004 RMK AO2 SLP170 T01500111=
202108060953 METAR KCLM 060953Z AUTO 28009KT 10SM OVC012 15/11 A3004 RMK AO2 SLP170 T01500111=
202108060853 METAR KCLM 060853Z AUTO 27011KT 8SM FEW005 OVC010 14/13 A3004 RMK AO2 SLP173 T01440128 53012=
202108060842 SPECI KCLM 060842Z AUTO 28013KT 5SM BR SCT004 OVC009 14/13 A3004 RMK AO2 T01440128=
202108060753 METAR KCLM 060753Z AUTO 25007G16KT 10SM OVC004 16/14 A3003 RMK AO2 SLP166 T01560139 402390133=
202108060653 METAR KCLM 060653Z AUTO 28009KT 10SM OVC004 17/15 A3001 RMK AO2 SLP162 T01670150=
202108060603 SPECI KCLM 060603Z AUTO 27011G21KT 10SM OVC004 17/15 A3001 RMK AO2 T01670150=
202108060553 METAR KCLM 060553Z AUTO 27013KT 10SM OVC005 17/15 A3001 RMK AO2 CIG 004V007 SLP161 T01670150 10222 20167 51006=
202108060453 METAR KCLM 060453Z AUTO 27015G24KT 10SM OVC006 17/15 A3001 RMK AO2 SLP160 T01720150=
202108060353 METAR KCLM 060353Z AUTO 26011KT 10SM OVC006 17/15 A3000 RMK AO2 SLP158 T01720150=
202108060253 METAR KCLM 060253Z AUTO 27014G19KT 10SM OVC007 18/15 A2999 RMK AO2 SLP156 T01780150 53008=
202108060153 METAR KCLM 060153Z AUTO 27013G24KT 10SM OVC009 18/15 A2997 RMK AO2 PK WND 26027/0128 SLP150 T01830150=
202108060149 SPECI KCLM 060149Z AUTO 27016G24KT 10SM OVC009 18/15 A2997 RMK AO2 PK WND 26027/0128=
202108060131 SPECI KCLM 060131Z AUTO 27013G27KT 10SM BKN010 19/15 A2997 RMK AO2 PK WND 26027/0128 T01890150=
202108060123 SPECI KCLM 060123Z AUTO 28013G24KT 10SM SCT010 19/15 A2997 RMK AO2 T01890150=
202108060053 METAR KCLM 060053Z AUTO 28013G25KT 10SM BKN011 19/15 A2997 RMK AO2 CIG 009V013 SLP147 T01890150=
202108060038 SPECI KCLM 060038Z AUTO 27016G23KT 10SM BKN012 20/15 A2997 RMK AO2 T02000150=
202108052353 METAR KCLM 052353Z AUTO 29012G25KT 10SM CLR 22/16 A2996 RMK AO2 SLP144 T02220156 10239 20200 51004=
202108052253 METAR KCLM 052253Z AUTO 29011G20KT 10SM CLR 23/16 A2996 RMK AO2 SLP143 T02330156=
202108052153 METAR KCLM 052153Z AUTO 34008KT 10SM CLR 22/15 A2995 RMK AO2 SLP141 T02170150=
202108052053 METAR KCLM 052053Z AUTO 30011G16KT 10SM CLR 23/16 A2995 RMK AO2 SLP140 T02330156 55004=
202108051953 METAR KCLM 051953Z AUTO 31010KT 290V350 10SM CLR 23/15 A2994 RMK AO2 SLP138 T02280150=
202108051853 METAR KCLM 051853Z AUTO 31012G20KT 10SM CLR 21/14 A2996 RMK AO2 SLP143 T02060144=
202108051753 METAR KCLM 051753Z AUTO 30009G18KT 10SM CLR 20/14 A2996 RMK AO2 SLP144 T02000144 10206 20133 51001=
202108051653 METAR KCLM 051653Z AUTO 31010KT 10SM CLR 19/14 A2996 RMK AO2 SLP144 T01890139=
202108051553 METAR KCLM 051553Z AUTO 33009KT 10SM CLR 18/13 A2996 RMK AO2 SLP144 T01780133=
202108051453 METAR KCLM 051453Z AUTO 29011G21KT 10SM CLR 17/13 A2996 RMK AO2 SLP143 T01670133 51007=
202108051353 METAR KCLM 051353Z AUTO 30011KT 10SM CLR 14/12 A2996 RMK AO2 SLP143 T01440122=
202108051253 METAR KCLM 051253Z AUTO 30011KT 10SM CLR 15/11 A2994 RMK AO2 SLP138 T01500111=
202108051153 METAR KCLM 051153Z AUTO 30008KT 10SM CLR 15/11 A2994 RMK AO2 SLP136 T01500111 10194 20144 53001=
202108051053 METAR KCLM 051053Z AUTO 29009KT 10SM CLR 17/11 A2993 RMK AO2 SLP134 T01720111=
202108050953 METAR KCLM 050953Z AUTO 30009KT 10SM CLR 14/12 A2993 RMK AO2 SLP134 T01440122=
202108050853 METAR KCLM 050853Z AUTO 29007KT 10SM CLR 14/12 A2993 RMK AO2 SLP135 T01440122 55004=
202108050753 METAR KCLM 050753Z AUTO 31007KT 10SM CLR 17/12 A2993 RMK AO2 SLP134 T01670122 402440133=
202108050653 METAR KCLM 050653Z AUTO 31007KT 10SM CLR 19/14 A2994 RMK AO2 SLP136 T01890139=
202108050553 METAR KCLM 050553Z AUTO 31006KT 10SM CLR 17/14 A2994 RMK AO2 SLP139 T01670139 10228 20167 58004=
202108050453 METAR KCLM 050453Z AUTO 28008KT 10SM CLR 19/15 A2995 RMK AO2 SLP140 T01940150=
202108050353 METAR KCLM 050353Z AUTO 29008KT 10SM CLR 19/14 A2995 RMK AO2 SLP143 T01940144=
202108050253 METAR KCLM 050253Z AUTO 27010G22KT 10SM CLR 21/15 A2996 RMK AO2 SLP144 T02110150 56008=
202108050153 METAR KCLM 050153Z AUTO 29008KT 10SM CLR 21/16 A2996 RMK AO2 SLP146 T02110156=
202108050053 METAR KCLM 050053Z AUTO 31008KT 10SM CLR 22/16 A2997 RMK AO2 SLP148 T02220156=
202108042353 METAR KCLM 042353Z AUTO 31011G20KT 10SM CLR 23/15 A2998 RMK AO2 SLP151 T02280150 10244 20200 58013=
202108042253 METAR KCLM 042253Z AUTO 30011KT 10SM CLR 22/14 A3000 RMK AO2 SLP156 T02170139=
202108042153 METAR KCLM 042153Z AUTO 30009KT 10SM CLR 21/13 A3001 RMK AO2 SLP160 T02110133=
202108042053 METAR KCLM 042053Z AUTO 29007KT 10SM CLR 21/13 A3002 RMK AO2 SLP164 T02110133 58007=
202108041953 METAR KCLM 041953Z AUTO VRB06KT 10SM CLR 24/14 A3003 RMK AO2 SLP167 T02390139=
202108041853 METAR KCLM 041853Z AUTO 01005KT 10SM CLR 23/14 A3003 RMK AO2 SLP169 T02330139=
202108041753 METAR KCLM 041753Z AUTO 30005KT 10SM CLR 23/14 A3004 RMK AO2 SLP171 T02280139 10228 20133 58004=
202108041653 METAR KCLM 041653Z AUTO VRB03KT 10SM CLR 19/13 A3005 RMK AO2 SLP174 T01940133=
202108041606 SPECI KCLM 041606Z AUTO 00000KT 10SM SCT003 15/13 A3005 RMK AO2 T01500133=
202108041553 METAR KCLM 041553Z AUTO 00000KT 10SM BKN003 14/13 A3005 RMK AO2 SLP177 T01440133=
202108041540 SPECI KCLM 041540Z AUTO 00000KT 10SM OVC002 14/13 A3005 RMK AO2 T01390133=
202108041532 SPECI KCLM 041532Z AUTO 28003KT 2 1/2SM BR OVC002 14/13 A3005 RMK AO2 T01440133=
202108041511 SPECI KCLM 041511Z AUTO 28003KT 1SM BR OVC002 14/13 A3005 RMK AO2 T01390128=
202108041453 METAR KCLM 041453Z AUTO 00000KT 1/4SM FG VV002 13/13 A3005 RMK AO2 SLP176 T01330128 53004=
202108041353 METAR KCLM 041353Z AUTO 27004KT 1/4SM FG VV002 13/13 A3004 RMK AO2 SLP173 T01330128=
202108041318 SPECI KCLM 041318Z AUTO 31003KT 1/4SM FG VV002 13/12 A3004 RMK AO2 T01330122=
202108041304 SPECI KCLM 041304Z AUTO 29005KT 1/2SM FG OVC002 13/12 A3004 RMK AO2 T01330122=
202108041253 METAR KCLM 041253Z AUTO 28005KT 1SM BR OVC002 13/12 A3004 RMK AO2 SLP172 T01330122=
202108041234 SPECI KCLM 041234Z AUTO 24003KT 1 1/4SM BR OVC002 13/13 A3005 RMK AO2 T01330128=
202108041226 SPECI KCLM 041226Z AUTO VRB03KT 3/4SM BR OVC002 13/13 A3005 RMK AO2 T01330128=
202108041200 SPECI KCLM 041200Z AUTO 30005KT 1 3/4SM BR BKN002 13/12 A3004 RMK AO2 T01330122=
202108041153 METAR KCLM 041153Z AUTO 30005KT 10SM BKN002 13/12 A3004 RMK AO2 SLP172 T01330122 10161 20133 58001=
202108041053 METAR KCLM 041053Z AUTO 30008KT 4SM BR OVC002 14/13 A3004 RMK AO2 SLP172 T01390128=
202108041048 SPECI KCLM 041048Z AUTO 30007KT 3SM BR OVC002 14/13 A3004 RMK AO2=
202108041008 SPECI KCLM 041008Z AUTO 31007G17KT 1 3/4SM BR BKN002 14/13 A3004 RMK AO2 T01440133=
202108041004 SPECI KCLM 041004Z AUTO 30011G17KT 3SM BR BKN002 14/13 A3004 RMK AO2 T01440133=
202108040953 METAR KCLM 040953Z AUTO 29008KT 10SM SCT001 14/13 A3004 RMK AO2 SLP172 T01440133=
202108040853 METAR KCLM 040853Z AUTO 31010KT 10SM FEW003 14/13 A3004 RMK AO2 SLP172 T01440133 58005=
202108040753 METAR KCLM 040753Z AUTO 30012KT 10SM CLR 15/13 A3005 RMK AO2 SLP175 T01500133 402220100=
202108040722 SPECI KCLM 040722Z AUTO 29013KT 10SM FEW003 15/13 A3005 RMK AO2 T01500133=
202108040653 METAR KCLM 040653Z AUTO 28011KT 10SM OVC002 14/13 A3006 RMK AO2 SLP177 T01440133=
202108040617 SPECI KCLM 040617Z AUTO 30005KT 10SM BKN003 14/13 A3006 RMK AO2 T01440133=
202108040607 SPECI KCLM 040607Z AUTO 10SM SCT003 14/13 A3006 RMK AO2 T01440133=
202108040553 METAR KCLM 040553Z AUTO 31005KT 10SM CLR 16/13 A3006 RMK AO2 SLP178 T01560133 10217 20156 53011=
202108040453 METAR KCLM 040453Z AUTO 30005KT 10SM CLR 16/13 A3004 RMK AO2 SLP173 T01610133=
202108040353 METAR KCLM 040353Z AUTO 27009KT 10SM CLR 17/14 A3003 RMK AO2 SLP169 T01720139=
202108040253 METAR KCLM 040253Z AUTO 28015G21KT 10SM CLR 19/14 A3003 RMK AO2 PK WND 27027/0209 SLP167 T01890139 56009=
202108040153 METAR KCLM 040153Z AUTO 29008G22KT 10SM CLR 21/14 A3003 RMK AO2 SLP168 T02110139=
202108040053 METAR KCLM 040053Z AUTO VRB06KT 10SM CLR 22/12 A3005 RMK AO2 SLP175 T02170122=
202108032353 METAR KCLM 032353Z AUTO 30012KT 10SM CLR 20/12 A3005 RMK AO2 SLP176 T02000117 10222 20172 56010=
202108032253 METAR KCLM 032253Z AUTO 30006KT 10SM CLR 22/12 A3006 RMK AO2 SLP179 T02220122=
202108032153 METAR KCLM 032153Z AUTO 32007KT 10SM CLR 22/12 A3007 RMK AO2 SLP181 T02220122=
202108032053 METAR KCLM 032053Z AUTO 30006KT 10SM CLR 21/12 A3008 RMK AO2 SLP186 T02060122 58009=
202108031953 METAR KCLM 031953Z AUTO 32006KT 10SM CLR 19/12 A3009 RMK AO2 SLP191 T01940117=
202108031853 METAR KCLM 031853Z AUTO 31010KT 10SM CLR 18/11 A3010 RMK AO2 SLP193 T01780106=
202108031753 METAR KCLM 031753Z AUTO 29009KT 10SM CLR 19/11 A3011 RMK AO2 SLP195 T01890111 10200 20100 56000=
202108031653 METAR KCLM 031653Z AUTO VRB03KT 10SM CLR 18/11 A3011 RMK AO2 SLP195 T01780111=
202108031553 METAR KCLM 031553Z AUTO 31003KT 10SM CLR 17/11 A3011 RMK AO2 SLP194 T01670111=
202108031453 METAR KCLM 031453Z AUTO 30003KT 10SM CLR 14/12 A3011 RMK AO2 SLP195 T01440117 50003=
202108031353 METAR KCLM 031353Z AUTO 00000KT 10SM CLR 12/10 A3011 RMK AO2 SLP197 T01170100=
202108031253 METAR KCLM 031253Z AUTO 27003KT 10SM CLR 11/09 A3011 RMK AO2 SLP194 T01110094 $=
202108031153 METAR KCLM 031153Z AUTO 25004KT 10SM CLR 11/09 A3010 RMK AO2 SLP192 T01110094 10156 20111 56002 $=
202108031053 METAR KCLM 031053Z AUTO 27007KT 10SM CLR 12/10 A3010 RMK AO2 SLP192 T01170100 $=
202108030953 METAR KCLM 030953Z AUTO 28006KT 10SM CLR 12/10 A3010 RMK AO2 SLP192 T01170100 $=
202108030853 METAR KCLM 030853Z AUTO 30006KT 10SM CLR 12/11 A3011 RMK AO2 SLP194 T01220106 53002 $=
202108030753 METAR KCLM 030753Z AUTO 32007KT 10SM CLR 13/11 A3010 RMK AO2 SLP193 T01330106 402110128 $=
202108030653 METAR KCLM 030653Z AUTO 29010KT 10SM CLR 14/11 A3009 RMK AO2 SLP190 T01440106 $=
202108030553 METAR KCLM 030553Z AUTO 30011KT 10SM CLR 15/11 A3010 RMK AO2 SLP192 T01500111 10206 20144 58004 $=
202108030453 METAR KCLM 030453Z AUTO 29011KT 10SM CLR 15/12 A3011 RMK AO2 SLP194 T01500117 $=
202108030353 METAR KCLM 030353Z AUTO 29008KT 10SM CLR 16/12 A3010 RMK AO2 SLP193 T01560117 $=
202108030253 METAR KCLM 030253Z AUTO 29006KT 10SM CLR 17/12 A3011 RMK AO2 SLP195 T01720122 56007 $=
202108030153 METAR KCLM 030153Z AUTO 29009KT 10SM CLR 19/13 A3011 RMK AO2 SLP196 T01940128 $=
202108030053 METAR KCLM 030053Z AUTO 29008KT 10SM CLR 19/13 A3012 RMK AO2 SLP201 T01940128 $=
202108022353 METAR KCLM 022353Z AUTO 30009KT 10SM CLR 19/13 A3013 RMK AO2 SLP203 T01890128 10211 20167 58013=
202108022253 METAR KCLM 022253Z AUTO 31006KT 10SM CLR 21/13 A3014 RMK AO2 SLP207 T02060128=
202108022153 METAR KCLM 022153Z AUTO 30007KT 280V340 10SM CLR 19/12 A3016 RMK AO2 SLP212 T01940122=
202108022053 METAR KCLM 022053Z AUTO VRB05KT 10SM CLR 20/12 A3017 RMK AO2 SLP215 T02000122 58006=
202108021953 METAR KCLM 021953Z AUTO 35004KT 10SM CLR 19/12 A3017 RMK AO2 SLP217 T01890122=
202108021853 METAR KCLM 021853Z AUTO 36005KT 10SM CLR 18/12 A3019 RMK AO2 SLP222 T01780122=
202108021753 METAR KCLM 021753Z AUTO VRB04KT 10SM CLR 18/12 A3018 RMK AO2 SLP221 T01780122 10178 20128 51001=
202108021707 SPECI KCLM 021707Z AUTO VRB03KT 10SM SCT005 16/12 A3018 RMK AO2 T01610117=
202108021700 SPECI KCLM 021700Z AUTO VRB04KT 10SM BKN005 16/12 A3018 RMK AO2 T01560117=
202108021653 METAR KCLM 021653Z AUTO 32003KT 10SM BKN004 15/12 A3018 RMK AO2 SLP220 T01500117=
202108021553 METAR KCLM 021553Z AUTO 32004KT 10SM OVC004 14/12 A3019 RMK AO2 SLP222 T01390117=
202108021453 METAR KCLM 021453Z AUTO 29004KT 10SM OVC003 13/12 A3018 RMK AO2 SLP220 T01330117 51009=
202108021353 METAR KCLM 021353Z AUTO 29005KT 7SM OVC002 13/12 A3018 RMK AO2 SLP219 T01280117=
202108021253 METAR KCLM 021253Z AUTO 28008KT 240V300 4SM BR OVC002 13/12 A3016 RMK AO2 SLP214 T01280117=
202108021153 METAR KCLM 021153Z AUTO 28005KT 10SM OVC003 13/12 A3016 RMK AO2 SLP211 T01280117 10139 20128 53006=
202108021053 METAR KCLM 021053Z AUTO 28006KT 10SM OVC004 13/12 A3015 RMK AO2 SLP209 T01280117=
202108020953 METAR KCLM 020953Z AUTO 28006KT 10SM OVC004 13/12 A3014 RMK AO2 SLP205 T01330117=
202108020940 SPECI KCLM 020940Z AUTO 29009KT 10SM OVC004 13/12 A3014 RMK AO2 T01330117=
202108020853 METAR KCLM 020853Z AUTO 28007KT 10SM OVC005 13/12 A3014 RMK AO2 SLP205 T01330117 53006=
202108020834 SPECI KCLM 020834Z AUTO 29009G18KT 10SM BKN005 13/12 A3014 RMK AO2 T01330117=
202108020819 SPECI KCLM 020819Z AUTO 29010KT 10SM FEW005 13/12 A3014 RMK AO2 T01330117=
202108020753 METAR KCLM 020753Z AUTO 28010KT 10SM CLR 13/12 A3013 RMK AO2 SLP203 T01330117 402110128=
202108020653 METAR KCLM 020653Z AUTO 29009KT 10SM CLR 14/12 A3012 RMK AO2 SLP200 T01390117=
202108020553 METAR KCLM 020553Z AUTO 30013G23KT 10SM CLR 14/12 A3012 RMK AO2 SLP199 T01390117 10194 20139 52012=
202108020453 METAR KCLM 020453Z AUTO 30010G21KT 10SM CLR 14/12 A3011 RMK AO2 SLP195 T01440117=
202108020353 METAR KCLM 020353Z AUTO 29010G19KT 10SM CLR 14/12 A3010 RMK AO2 SLP191 T01440117=
202108020253 METAR KCLM 020253Z AUTO 28011KT 10SM CLR 16/12 A3008 RMK AO2 SLP187 T01560122 55002=
202108020153 METAR KCLM 020153Z AUTO 31007KT 10SM CLR 17/12 A3008 RMK AO2 SLP186 T01720122=
202108020053 METAR KCLM 020053Z AUTO 29007KT 270V330 10SM CLR 18/13 A3009 RMK AO2 SLP188 T01830128=
202108012353 METAR KCLM 012353Z AUTO 31007KT 10SM CLR 19/13 A3009 RMK AO2 SLP189 T01940133 10211 20178 56002=
202108012253 METAR KCLM 012253Z AUTO 31010G15KT 10SM CLR 18/13 A3009 RMK AO2 SLP191 T01830128=
202108012153 METAR KCLM 012153Z AUTO 30008KT 10SM CLR 20/13 A3009 RMK AO2 SLP189 T02000133=
202108012053 METAR KCLM 012053Z AUTO 31007KT 10SM CLR 19/13 A3010 RMK AO2 SLP191 T01940128 50002=
202108011953 METAR KCLM 011953Z AUTO 31008KT 10SM CLR 18/13 A3010 RMK AO2 SLP194 T01830128=
202108011853 METAR KCLM 011853Z AUTO 33006KT 10SM CLR 18/13 A3010 RMK AO2 SLP191 T01780128=
202108011753 METAR KCLM 011753Z AUTO 32006KT 10SM CLR 18/13 A3009 RMK AO2 SLP190 60000 T01780128 10183 20128 58001=
202108011653 METAR KCLM 011653Z AUTO 31005KT 10SM FEW007 16/12 A3010 RMK AO2 SLP192 T01610122=
202108011648 SPECI KCLM 011648Z AUTO 30006KT 10SM SCT007 16/12 A3010 RMK AO2=
202108011553 METAR KCLM 011553Z AUTO 29008KT 10SM BKN006 14/12 A3009 RMK AO2 SLP190 T01440122=
202108011453 METAR KCLM 011453Z AUTO 32004KT 10SM BKN005 14/12 A3009 RMK AO2 SLP189 60000 T01390117 52008=
202108011353 METAR KCLM 011353Z AUTO 29006KT 10SM SCT005 13/12 A3009 RMK AO2 SLP188 T01330117=
202108011325 SPECI KCLM 011325Z AUTO 00000KT 10SM OVC005 13/12 A3008 RMK AO2 T01330117=
202108011253 METAR KCLM 011253Z AUTO 29005KT 10SM BKN004 BKN016 13/12 A3007 RMK AO2 RAB22E38 SLP182 P0000 T01280117=
202108011244 SPECI KCLM 011244Z AUTO 30005KT 10SM BKN004 BKN019 OVC070 13/12 A3006 RMK AO2 RAB22E38 P0000 T01280117=
202108011153 METAR KCLM 011153Z AUTO 29007KT 10SM SCT004 SCT009 13/12 A3007 RMK AO2 SLP181 T01330117 10150 20128 51009=
202108011118 SPECI KCLM 011118Z AUTO 33004KT 10SM SCT004 13/11 A3007 RMK AO2 T01280111=
202108011053 METAR KCLM 011053Z AUTO VRB03KT 10SM OVC006 13/12 A3006 RMK AO2 SLP179 T01330117=
202108011049 SPECI KCLM 011049Z AUTO 28003KT 10SM OVC006 13/12 A3006 RMK AO2=
202108010953 METAR KCLM 010953Z AUTO 30005KT 10SM OVC004 13/12 A3004 RMK AO2 SLP172 T01330117=
202108010853 METAR KCLM 010853Z AUTO 28008KT 10SM OVC004 13/12 A3004 RMK AO2 SLP171 T01330117 55000=
202108010834 SPECI KCLM 010834Z AUTO 28004KT 10SM BKN004 13/12 A3004 RMK AO2 T01330117=
202108010815 SPECI KCLM 010815Z AUTO VRB04KT 10SM SCT004 13/12 A3003 RMK AO2 T01330117=
202108010753 METAR KCLM 010753Z AUTO 30008KT 10SM CLR 14/12 A3002 RMK AO2 SLP166 T01390122 402000122=
202108010653 METAR KCLM 010653Z AUTO 29006KT 10SM CLR 15/12 A3003 RMK AO2 SLP168 T01500122=
202108010553 METAR KCLM 010553Z AUTO 29009KT 10SM CLR 14/12 A3004 RMK AO2 SLP171 T01440122 10189 20139 58001=
202108010453 METAR KCLM 010453Z AUTO 31005KT 10SM CLR 14/12 A3004 RMK AO2 SLP173 T01440122=
202108010353 METAR KCLM 010353Z AUTO 29006KT 10SM CLR 15/12 A3004 RMK AO2 SLP173 T01500122=
202108010253 METAR KCLM 010253Z AUTO 32003KT 10SM CLR 17/12 A3004 RMK AO2 SLP172 T01670122 57006=
202108010153 METAR KCLM 010153Z AUTO 29007KT 10SM SCT110 19/13 A3003 RMK AO2 SLP170 T01890128=
202108010053 METAR KCLM 010053Z AUTO 34003KT 10SM CLR 17/12 A3006 RMK AO2 SLP180 T01720122=

# No short TAF reports from KCLM in databse.

###################################
#  large TAF from KCLM
###################################
202108312342 TAF KCLM 312342Z 0100/0124 31010KT P6SM SKC FM010300 30005KT P6SM
                       BKN080 FM010900 27004KT P6SM SCT250 FM011600
                       VRB04KT P6SM SKC=
202108311737 TAF KCLM 311737Z 3118/0118 27011KT P6SM OVC060 FM010100 34006KT
                       P6SM BKN080 FM010300 30005KT P6SM BKN080
                       FM010900 27004KT P6SM SCT250=
202108311133 TAF KCLM 311133Z 3112/0112 27006KT P6SM BKN050 FM311800 34008KT
                       P6SM BKN050 FM010300 29004KT P6SM SCT070=
202108310526 TAF KCLM 310526Z 3106/0106 29008KT P6SM OVC060 FM311000 27006KT
                       P6SM BKN050 FM311800 34008KT P6SM BKN050
                       FM010300 29004KT P6SM SCT070=
202108302320 TAF KCLM 302320Z 3100/3124 30010KT P6SM BKN060 FM310300 29012G20KT
                       P6SM SCT060 FM311000 27006KT P6SM BKN050
                       FM311800 34008KT P6SM BKN050=
202108301720 TAF KCLM 301720Z 3018/3118 30010KT P6SM SCT040 FM310300 29012G20KT
                       P6SM SCT050 FM311000 27006KT P6SM BKN050=
202108301128 TAF KCLM 301128Z 3012/3112 27010KT P6SM OVC040 FM301500 28008KT
                       P6SM OVC022 FM301900 30012KT P6SM BKN030
                       FM302200 29015G20KT P6SM SCT060 FM310600
                       28009KT P6SM SCT070 FM311000 27007KT P6SM
                       OVC050=
202108300529 TAF KCLM 300529Z 3006/3106 27009KT P6SM SCT200 FM301000 29010KT
                       P6SM BKN050 FM301500 30008KT P6SM OVC022
                       FM301900 30015KT P6SM BKN035 FM302200 29015G20KT
                       P6SM SCT060=
202108292320 TAF KCLM 292320Z 3000/3024 29009KT P6SM SKC FM301000 29010KT 3SM
                       BR OVC007 FM301500 28015KT P6SM BKN020 FM302000
                       30015KT P6SM BKN050=
202108291734 TAF KCLM 291734Z 2918/3018 01004KT P6SM SKC FM292000 33012KT P6SM
                       SKC FM301000 29010KT 3SM BR OVC007 FM301500
                       28010KT P6SM BKN020=
202108291503 KCLM 291503Z 2915/3012 VRB04KT P6SM SKC
                      TEMPO 2915/2917 4SM BR BKN003 FM292000 33012KT
                       P6SM SKC FM301000 29010KT 3SM BR OVC007=
202108291341 KCLM 291341Z 2914/3012 VRB04KT P6SM BKN002 FM292000 33012KT P6SM
                       SKC FM301000 29010KT 3SM BR OVC007=
202108291124 TAF KCLM 291124Z 2912/3012 VRB03KT 1/4SM FG OVC002 FM291500 28004KT
                       2SM BR BKN015 FM292000 33012KT P6SM SKC
                       FM301000 29010KT 3SM BR OVC007=
202108290849 KCLM 290849Z 2909/3006 31005KT 1SM BR OVC002 FM291500 28004KT P6SM
                       BKN012 FM292000 33012KT P6SM SKC=
202108290522 TAF KCLM 290522Z 2906/3006 29009KT P6SM SKC FM291000 27005KT 2SM
                       BR OVC002 FM291500 28004KT P6SM BKN012 FM292000
                       33012KT P6SM SKC=
202108282320 TAF KCLM 282320Z 2900/2924 35005KT P6SM SKC FM291200 27003KT 4SM
                       BR OVC005 FM291500 30003KT P6SM FEW010 FM292000
                       33008KT P6SM SKC=
202108281740 TAF KCLM 281740Z 2818/2918 03003KT P6SM SKC FM282300 29007KT P6SM
                       SKC FM291200 27003KT 4SM BR OVC005 FM291500
                       30003KT P6SM FEW010=
202108281328 KCLM 281328Z 2813/2912 00000KT 1/4SM FG VV001 FM281500 04005KT
                       P6SM SKC FM282300 29007KT P6SM SKC=
202108281133 KCLM 281133Z 2812/2912 00000KT 5SM BR SCT002
                      TEMPO 2812/2815 2SM BR FM281500 04005KT P6SM
                       SKC FM282300 29007KT P6SM SKC=
202108281129 TAF KCLM 281129Z 2812/2912 35003KT 1SM BR SCT002 FM281500 04005KT
                       P6SM SKC FM282300 29007KT P6SM SKC=
202108281108 KCLM 281108Z 2811/2906 35003KT 1SM BR VV001 FM281700 04005KT P6SM
                       SKC FM282300 29007KT P6SM SKC=
202108280539 TAF KCLM 280539Z 2806/2906 30006KT P6SM SCT250=
202108272331 TAF KCLM 272331Z 2800/2824 34007KT P6SM BKN050 FM280300 30006KT
                       P6SM SCT250=
202108271739 TAF KCLM 271739Z 2718/2818 29010KT P6SM OVC025 FM271900 33006KT
                       P6SM OVC050 FM272200 34007KT P6SM BKN050
                       FM280100 30006KT P6SM SCT050 SCT150=
202108271622 KCLM 271622Z 2716/2812 29010KT P6SM BKN004 OVC025 FM271900 33006KT
                       P6SM OVC050 FM272200 34007KT P6SM BKN050
                       FM280100 30006KT P6SM SCT050 SCT150=
202108271127 TAF KCLM 271127Z 2712/2812 29005KT P6SM SCT025 SCT050 FM271800
                       33006KT P6SM OVC050 FM272200 34007KT P6SM
                       BKN050 FM280100 30006KT P6SM SCT050 SCT150=
202108270910 KCLM 270910Z 2709/2806 29003KT P6SM SCT010 OVC050 FM271200 29005KT
                       P6SM OVC009 FM271500 26003KT 6SM BR SCT009
                       OVC015 FM271800 33006KT P6SM OVC020 FM272200
                       34007KT P6SM BKN050=
202108270537 TAF KCLM 270537Z 2706/2806 29003KT P6SM SCT010 OVC050 FM270800
                       29005KT P6SM OVC009 FM271300 26003KT 6SM
                       BR SCT009 OVC015 FM271800 33006KT P6SM OVC020
                       FM272200 34007KT P6SM BKN050=
202108270044 KCLM 270044Z 2701/2724 32005KT P6SM VCSH BKN020 OVC050
                      TEMPO 2701/2703 2SM -SHRA BKN010 FM270300
                       30010KT P6SM BKN020 OVC040 FM270800 29007KT
                       P6SM OVC020=
202108262335 TAF KCLM 262335Z 2700/2724 32005KT P6SM VCSH SCT025 OVC050 FM270300
                       30010KT P6SM OVC040 FM270800 29007KT P6SM
                       OVC025=
202108261734 TAF KCLM 261734Z 2618/2718 VRB03KT P6SM OVC035 FM262100 32005KT
                       P6SM VCSH SCT025 OVC050 FM270300 30010KT
                       P6SM OVC040 FM270800 29007KT P6SM OVC025=
202108261120 TAF KCLM 261120Z 2612/2712 23005KT P6SM VCSH OVC080 FM261300 VRB03KT
                       P6SM OVC035
                      TEMPO 2614/2617 BKN025 FM262100 32005KT P6SM
                       VCSH SCT025 OVC050 FM270300 30010KT P6SM
                       OVC040 FM270800 29007KT P6SM OVC025=
202108260529 TAF KCLM 260529Z 2606/2706 27007KT P6SM VCSH OVC100 FM260900 28005KT
                       P6SM OVC035 FM261400 27005KT P6SM OVC020
                       FM262100 28005KT P6SM VCSH SCT025 OVC050
                       FM270300 30008KT P6SM OVC060=
202108260225 KCLM 260225Z 2602/2624 28012KT P6SM FEW150 BKN250 FM260900 28005KT
                       P6SM OVC035 FM261400 27005KT P6SM OVC020
                       FM262100 28005KT P6SM VCSH SCT025 OVC050=
202108252332 TAF KCLM 252332Z 2600/2624 30006KT P6SM FEW150 BKN250 FM260900
                       28005KT P6SM OVC035 FM261400 27005KT P6SM
                       OVC020 FM262100 28005KT P6SM VCSH SCT025
                       OVC050=
202108251736 TAF KCLM 251736Z 2518/2618 VRB03KT P6SM SCT250 FM251900 29008KT
                       P6SM BKN250 FM260900 VRB03KT P6SM OVC035
                       FM261400 VRB03KT P6SM OVC020=
202108251133 TAF KCLM 251133Z 2512/2612 VRB03KT P6SM SCT250 FM251900 29008KT
                       P6SM BKN250 FM261100 VRB03KT P6SM OVC011=
202108250532 TAF KCLM 250532Z 2506/2606 VRB03KT P6SM SCT250 FM251900 29008KT
                       P6SM BKN250=
202108242322 TAF KCLM 242322Z 2500/2524 06006KT P6SM SCT250 FM250100 28006KT
                       P6SM SCT250 FM252100 30012KT P6SM SCT250=
202108241720 TAF KCLM 241720Z 2418/2518 25004KT P6SM SKC FM241900 04006KT P6SM
                       SCT250 FM250100 28006KT P6SM SCT250=
202108241131 TAF KCLM 241131Z 2412/2512 25004KT P6SM SKC FM241900 04006KT P6SM
                       SCT250 FM250100 28006KT P6SM SCT250=
202108240530 TAF KCLM 240530Z 2406/2506 25004KT P6SM SKC FM241900 04006KT P6SM
                       SCT250 FM250100 28006KT P6SM SCT250=
202108232322 TAF KCLM 232322Z 2400/2424 01006KT P6SM SCT040 FM240200 29005KT
                       P6SM SKC FM240900 25004KT P6SM SKC FM241900
                       04006KT P6SM SCT250=
202108231726 TAF KCLM 231726Z 2318/2418 01006KT P6SM FEW040 SCT060 FM240200
                       29005KT P6SM SKC FM240900 25004KT P6SM SKC=
202108231139 TAF KCLM 231139Z 2312/2412 25007KT P6SM BKN080 FM231300 26006KT
                       P6SM SCT030 OVC060 FM231900 01006KT P6SM
                       FEW040 SCT250 FM240000 34005KT P6SM SKC
                       FM240900 26004KT P6SM SKC=
202108230536 TAF KCLM 230536Z 2306/2406 27010KT P6SM FEW070 FM231300 VRB04KT
                       P6SM SCT030 OVC060 FM231900 03006KT P6SM
                       FEW040 SCT250 FM240000 33006KT P6SM SKC=
202108230259 KCLM 230259Z 2303/2324 27010KT P6SM FEW070 FM231300 VRB04KT P6SM
                       SCT030 FM231900 03006KT P6SM FEW040 SCT250=
202108222327 TAF KCLM 222327Z 2300/2324 30012G18KT P6SM SCT060 FM230600 27008KT
                       P6SM FEW070 FM231300 VRB04KT P6SM SCT030
                       FM231900 03006KT P6SM FEW040 SCT250=
202108221731 TAF KCLM 221731Z 2218/2318 31010KT P6SM SCT030 BKN060 FM230000
                       29008KT P6SM SCT060 FM231300 VRB04KT P6SM
                       SCT030=
202108221138 TAF KCLM 221138Z 2212/2312 VRB05KT P6SM SCT012 OVC020 FM221300
                       27006KT P6SM OVC009 FM221700 30009KT P6SM
                       OVC020 FM222100 31008KT P6SM SCT020 OVC060
                       FM230000 30010G18KT P6SM BKN100=
202108220528 TAF KCLM 220528Z 2206/2306 28007KT P6SM FEW006 BKN050 FM221100
                       28007KT P6SM OVC015 FM221700 30009KT P6SM
                       SCT020 OVC060 FM230000 30010G18KT P6SM BKN100=
202108212332 TAF KCLM 212332Z 2200/2224 30008KT P6SM BKN050 FM220900 28007KT
                       P6SM OVC015 FM221700 30009KT P6SM SCT020=
202108211726 TAF KCLM 211726Z 2118/2218 VRB04KT P6SM SCT005 OVC040 FM212000
                       35005KT P6SM SCT015 BKN040 FM220200 29008KT
                       P6SM BKN050 FM220900 28007KT P6SM OVC025=
202108211511 KCLM 211511Z 2115/2212 27004KT 3SM BR SCT004 OVC020
                      TEMPO 2115/2117 1/4SM FG OVC002 FM211800
                       33007KT P6SM BKN025 BKN035 FM212000 31008KT
                       P6SM SCT025 BKN040 FM220200 29011KT P6SM
                       SCT030 BKN060 FM220900 28007KT P6SM BKN010=
202108211305 KCLM 211305Z 2113/2212 26005KT 6SM BR SCT004 BKN020 BKN040
                      TEMPO 2113/2116 3SM BR BKN003 FM211800 33007KT
                       P6SM BKN025 BKN035 FM212000 31008KT P6SM
                       SCT025 BKN040 FM220200 29011KT P6SM SCT030
                       BKN060 FM220900 28007KT P6SM BKN010=
202108211125 TAF KCLM 211125Z 2112/2212 26005KT 6SM BR SCT004 BKN020 BKN040
                       FM211800 33007KT P6SM BKN025 BKN035 FM212000
                       31008KT P6SM SCT025 BKN040 FM220200 29011KT
                       P6SM SCT030 BKN060 FM220900 28007KT P6SM
                       BKN010=
202108210528 TAF KCLM 210528Z 2106/2206 VRB03KT 6SM BR VCSH BKN017 OVC040 FM211000
                       25004KT P6SM BKN015 BKN040 FM212000 31008KT
                       P6SM SCT020 BKN040 FM220200 29012KT P6SM
                       SCT030 BKN060=
202108210126 KCLM 210126Z 2101/2124 34003KT 1 1/2SM RA BR BKN040 OVC050 FM210300
                       33003KT 6SM BR VCSH BKN040 OVC050 FM211000
                       26006KT P6SM BKN015 BKN040 FM212000 30008KT
                       P6SM SCT020 BKN040=
202108202320 TAF KCLM 202320Z 2100/2124 30008KT P6SM BKN018 OVC035 FM211000
                       26006KT P6SM BKN015 BKN040 FM212000 30008KT
                       P6SM SCT020 BKN040=
202108202032 KCLM 202032Z 2021/2118 31008KT P6SM OVC005 FM202200 31010KT P6SM
                       BKN010 OVC030 FM211000 26006KT P6SM BKN015
                       BKN040=
202108201720 TAF KCLM 201720Z 2018/2118 VRB04KT 4SM BR OVC004 FM202000 30004KT
                       P6SM BKN012 OVC040 FM210300 30008KT P6SM
                       SCT015 OVC030 FM211000 26006KT P6SM BKN015
                       BKN040=
202108201604 KCLM 201604Z 2016/2112 00000KT P6SM OVC004 FM202000 32007KT P6SM
                       BKN012 BKN050 FM210300 28006KT P6SM OVC035
                       FM211000 26006KT P6SM OVC015=
202108201121 TAF KCLM 201121Z 2012/2112 25005KT P6SM SCT012 OVC050 FM201500
                       30004KT P6SM BKN015 OVC050 FM202000 32007KT
                       P6SM BKN035 BKN050 FM210300 28006KT P6SM
                       OVC035 FM211000 26006KT P6SM OVC015=
202108200539 TAF KCLM 200539Z 2006/2106 25005KT P6SM SCT050 FM201000 25005KT
                       P6SM BKN012 OVC050 FM202000 32007KT P6SM
                       BKN020 BKN050 FM210300 28006KT P6SM OVC035=
202108192320 TAF KCLM 192320Z 2000/2024 VRB04KT P6SM SKC FM200400 25005KT P6SM
                       SCT050 FM201000 25005KT P6SM BKN015 OVC050
                       FM202000 25005KT P6SM BKN020 BKN050=
202108191720 TAF KCLM 191720Z 1918/2018 VRB04KT P6SM SKC FM200000 30007KT P6SM
                       SCT040 FM201200 29005KT P6SM BKN012 BKN040=
202108191600 KCLM 191600Z 1916/2012 30005KT P6SM SCT050 FM200900 29005KT 6SM
                       BR OVC010=
202108191423 KCLM 191423Z 1914/2012 25004KT P6SM SCT002
                      TEMPO 1914/1916 1/4SM FG VV001 FM191700 29005KT
                       P6SM SCT007 SCT050 FM192000 35005KT P6SM
                       BKN050 FM200300 30007KT P6SM SCT060 FM200900
                       29005KT 6SM BR OVC010=
202108191128 TAF KCLM 191128Z 1912/2012 25004KT P6SM SCT005
                      TEMPO 1913/1916 5SM BR BKN004 FM191700 29005KT
                       P6SM SCT007 SCT050 FM192000 35005KT P6SM
                       BKN050 FM200300 30007KT P6SM SCT060 FM200900
                       29005KT 6SM BR OVC010=
202108190520 TAF KCLM 190520Z 1906/2006 29004KT P6SM SCT007
                      TEMPO 1907/1910 6SM BR BKN005 FM191000 28005KT
                       6SM BR OVC005 FM191600 29005KT P6SM BKN012
                       FM191800 35005KT P6SM BKN050 FM200200 30006KT
                       P6SM SCT060=
202108182322 TAF KCLM 182322Z 1900/1924 29005KT P6SM BKN100 FM190600 32004KT
                       P6SM BKN004 FM191300 29003KT P6SM BKN015
                       FM191800 35005KT P6SM BKN050=
202108181723 TAF KCLM 181723Z 1818/1918 09003KT P6SM SKC FM182000 05005KT P6SM
                       FEW250 FM190000 35006KT P6SM SKC FM191300
                       29003KT P6SM BKN015=
202108181438 KCLM 181438Z 1815/1912 00000KT P6SM SKC
                      TEMPO 1815/1816 1/4SM FG VV001 FM181800 04006KT
                       P6SM SKC FM190000 28006KT P6SM SKC=
202108181415 KCLM 181415Z 1814/1912 00000KT P6SM SKC
                      TEMPO 1814/1816 SCT001 FM181800 04006KT P6SM
                       SKC FM190000 28006KT P6SM SKC=
202108181140 TAF KCLM 181140Z 1812/1912 00000KT P6SM SKC
                      TEMPO 1812/1816 SCT005 FM181800 04006KT P6SM
                       SKC FM190000 28006KT P6SM SKC=
202108180532 TAF KCLM 180532Z 1806/1906 30004KT P6SM SKC
                      TEMPO 1812/1816 SCT005 FM181800 04006KT P6SM
                       SKC FM190000 28006KT P6SM SKC=
202108180311 KCLM 180311Z 1803/1824 30004KT P6SM SKC
                      TEMPO 1812/1816 SCT005 FM181800 01006KT P6SM
                       SKC=
202108172323 TAF KCLM 172323Z 1800/1824 31010KT P6SM SKC FM180300 29006KT P6SM
                       SCT050 FM181800 01004KT P6SM SKC=
202108171955 KCLM 171955Z 1720/1818 29006KT P6SM SCT050=
202108171720 TAF KCLM 171720Z 1718/1818 00000KT P6SM SCT020 OVC040
                      TEMPO 1718/1722 -SHRA BKN020 OVC040 FM180300
                       29006KT P6SM SCT050=
202108171139 TAF KCLM 171139Z 1712/1812 29006KT P6SM BKN045 FM172000 29006KT
                       P6SM SCT050=
202108170538 TAF KCLM 170538Z 1706/1806 29010KT P6SM SCT050 SCT100 FM171100
                       29010KT P6SM BKN040 FM172000 32008KT P6SM
                       SCT050=
202108162320 TAF KCLM 162320Z 1700/1724 28012KT P6SM VCSH BKN010 OVC025 FM170600
                       29010KT P6SM SCT015 BKN040 FM171100 29010KT
                       P6SM BKN012 BKN040 FM172000 32008KT P6SM
                       SCT020 BKN050=
202108162109 KCLM 162109Z 1621/1718 28008KT P6SM OVC007 FM170100 29010G16KT
                       P6SM VCSH BKN015 OVC030 FM170600 29010KT
                       P6SM SCT015 BKN040 FM171100 29010KT P6SM
                       BKN012 BKN040=
202108161720 TAF KCLM 161720Z 1618/1718 28008KT P6SM SCT030 BKN080 FM162100
                       27008KT P6SM VCSH BKN025 OVC050 FM170100
                       29010G16KT P6SM SCT025 BKN040 FM170600 29010KT
                       P6SM SCT050 FM171100 29010KT P6SM OVC008=
202108161138 TAF KCLM 161138Z 1612/1712 27008KT P6SM SCT010 OVC100 FM162100
                       27008KT P6SM VCSH BKN025 OVC040 FM170100
                       29010G16KT P6SM SCT025 BKN040 FM170600 29010KT
                       P6SM SCT050 FM171100 29010KT P6SM OVC008=
202108160911 KCLM 160911Z 1609/1706 30010KT P6SM SCT010 OVC100 FM161900 28006KT
                       P6SM VCSH BKN025 OVC040 FM170100 28010G16KT
                       P6SM SCT025 BKN040=
202108160538 TAF KCLM 160538Z 1606/1706 30010G16KT P6SM OVC006 FM161400 28006KT
                       P6SM BKN012 OVC020 FM161900 28006KT P6SM
                       VCSH BKN025 OVC040 FM170100 28010G16KT P6SM
                       SCT025 BKN040=
202108152320 TAF KCLM 152320Z 1600/1624 31010KT P6SM SCT150 FM160600 31012KT
                       P6SM BKN012 BKN120 FM161200 28008KT P6SM
                       OVC008 FM161700 28006KT P6SM BKN012 OVC030
                       FM162000 21006KT P6SM VCSH BKN025 OVC040=
202108152035 KCLM 152035Z 1521/1618 31010KT P6SM SCT150 FM160600 31012KT P6SM
                       BKN012 BKN120 FM161200 28008KT P6SM OVC008
                       FM161700 28006KT P6SM BKN012=
202108151741 TAF KCLM 151741Z 1518/1618 27007KT P6SM OVC010 FM152100 30008KT
                       P6SM BKN012
                      TEMPO 1521/1601 SCT015 FM160600 29008KT P6SM
                       BKN012 FM161200 28008KT P6SM OVC008 FM161700
                       28006KT P6SM BKN012=
202108151134 TAF KCLM 151134Z 1512/1612 28006KT 2SM BR OVC002 FM151500 28006KT
                       P6SM OVC003 FM151600 32006KT P6SM BKN006
                       FM151800 32008KT P6SM SCT200 FM152200 29010G16KT
                       P6SM BKN150 FM160800 29010KT P6SM SCT060
                       OVC100=
202108150802 KCLM 150802Z 1508/1606 28006KT 2SM BR OVC002 FM151400 28006KT P6SM
                       OVC003 FM151600 32006KT P6SM BKN006 FM151800
                       32008KT P6SM BKN150=
202108150530 TAF KCLM 150530Z 1506/1606 28006KT P6SM SCT200 FM150900 28006KT
                       P6SM OVC003 FM151600 32006KT P6SM BKN006
                       FM151800 32008KT P6SM BKN150=
202108142320 TAF KCLM 142320Z 1500/1524 29008KT P6SM FEW120 SCT250 FM150700
                       30006KT P6SM OVC007 FM151800 33006KT P6SM
                       BKN010 FM152000 32008KT P6SM BKN120=
202108141720 TAF KCLM 141720Z 1418/1518 36008KT P6SM SCT250 FM150300 29008KT
                       P6SM SCT250 FM150700 30006KT P6SM OVC007=
202108141120 TAF KCLM 141120Z 1412/1512 29005KT P6SM SCT250 FM141700 35006KT
                       P6SM SKC FM150400 30010KT P6SM SCT250=
202108140531 TAF KCLM 140531Z 1406/1506 29010KT P6SM SCT250 FM141700 35006KT
                       P6SM SCT250 FM150200 30008KT P6SM SCT250=
202108140200 KCLM 140200Z 1402/1424 32005KT P6SM OVC250 FM140500 29010KT P6SM
                       SCT250 FM141700 35006KT P6SM SCT250=
202108132322 TAF KCLM 132322Z 1400/1424 29008KT P6SM SCT030 BKN250
                      TEMPO 1400/1404 OVC030 FM140500 29010KT P6SM
                       SCT250 FM141700 35006KT P6SM SCT250=
202108132201 KCLM 132201Z 1322/1418 29006KT P6SM SCT030 SCT250
                      TEMPO 1322/1402 5SM HZ FU BKN030 BKN250 FM140400
                       29008KT P6SM SCT250=
202108131816 TAF KCLM 131816Z 1318/1418 04005KT 6SM HZ FU SKC FM140400 29008KT
                       P6SM SCT250=
202108131140 TAF KCLM 131140Z 1312/1412 29010KT 6SM FU FEW250 FM131700 34005KT
                       6SM FU BKN250 FM140400 30012KT P6SM SKC=
202108130522 TAF KCLM 130522Z 1306/1406 09006KT 6SM FU SKC FM130900 29010KT
                       6SM FU FEW250 FM131700 34005KT 6SM FU BKN250=
202108130343 KCLM 130343Z 1304/1324 09006KT 6SM HZ SKC FM130900 29010KT 6SM
                       HZ FEW250 FM131700 34005KT 6SM FU BKN250=
202108122320 TAF KCLM 122320Z 1300/1324 09006KT 5SM HZ SKC FM130400 30012KT
                       4SM FU FEW250 FM130900 29010KT 6SM HZ FEW250
                       FM131700 34005KT 6SM FU BKN250=
202108122100 KCLM 122100Z 1221/1318 09007KT 4SM FU SKC FM130400 30012KT 4SM
                       FU FEW250 FM130900 29010KT P6SM FEW250 FM131700
                       34005KT P6SM BKN250=
202108121737 TAF KCLM 121737Z 1218/1318 13006KT P6SM SKC FM130400 30012KT P6SM
                       FEW250 FM130900 29010KT P6SM FEW250 FM131700
                       34005KT P6SM BKN250=
202108121120 TAF KCLM 121120Z 1212/1312 11007KT P6SM SKC FM121500 09003KT P6SM
                       SKC FM121800 08006KT P6SM SKC FM130400 30012KT
                       P6SM FEW250=
202108120522 TAF KCLM 120522Z 1206/1306 00000KT P6SM SKC FM121500 09003KT P6SM
                       SKC FM121800 08006KT P6SM SKC=
202108112320 TAF KCLM 112320Z 1200/1224 09009KT P6SM SCT250 FM120400 VRB03KT
                       P6SM SKC FM120900 29005KT P6SM SCT250 FM121500
                       VRB04KT P6SM SKC FM121800 08006KT P6SM SKC=
202108111751 TAF KCLM 111751Z 1118/1218 VRB04KT P6SM SKC FM111900 07005KT P6SM
                       SCT250 FM120100 VRB03KT P6SM SKC FM120600
                       29005KT P6SM SCT250=
202108111120 TAF KCLM 111120Z 1112/1212 VRB04KT P6SM SCT250 FM111500 VRB04KT
                       P6SM SCT200 FM111700 07005KT P6SM SCT250
                       FM120100 VRB03KT P6SM SKC FM120600 29005KT
                       P6SM SCT250=
202108110520 TAF KCLM 110520Z 1106/1206 VRB04KT P6SM SCT250 FM111500 VRB04KT
                       P6SM BKN200 FM111700 07005KT P6SM SCT250
                       FM120100 VRB03KT P6SM SKC=
202108102320 TAF KCLM 102320Z 1100/1124 VRB04KT P6SM SKC FM110100 29005KT P6SM
                       SCT250 FM111500 VRB04KT P6SM BKN200 FM112100
                       07005KT P6SM BKN250=
202108101720 TAF KCLM 101720Z 1018/1118 35005KT P6SM SKC FM110100 29005KT P6SM
                       SCT250 FM111500 VRB04KT P6SM BKN200=
202108101503 KCLM 101503Z 1015/1112 VRB05KT 3SM BR BKN001 FM101600 05006KT P6SM
                       BKN015 FM101800 07005KT P6SM SCT250 FM110100
                       29005KT P6SM SCT250=
202108101218 KCLM 101218Z 1012/1112 29006KT P6SM BKN002
                      TEMPO 1012/1016 1/2SM FG VV002 FM101600 05006KT
                       P6SM BKN015 FM101800 07005KT P6SM SCT250
                       FM110100 29005KT P6SM SCT250=
202108101120 TAF KCLM 101120Z 1012/1112 29006KT 1SM BR OVC001
                      TEMPO 1012/1016 1/2SM FG VV002 FM101600 05006KT
                       P6SM BKN015 FM101800 07005KT P6SM SCT250
                       FM110100 29005KT P6SM SCT250=
202108100940 KCLM 100940Z 1010/1106 29006KT 2SM BR BKN003 FM101600 05006KT P6SM
                       BKN015 FM101800 07005KT P6SM SCT250 FM110100
                       29005KT P6SM SCT250=
202108100901 KCLM 100901Z 1009/1106 29006KT P6SM SCT250
                      TEMPO 1012/1016 2SM BR BKN003 FM101600 05006KT
                       P6SM BKN015 FM101800 07005KT P6SM SCT250
                       FM110100 29005KT P6SM SCT250=
202108100530 TAF KCLM 100530Z 1006/1106 26005KT P6SM BKN250 FM100900 29006KT
                       2SM BR BKN003 FM101600 05006KT P6SM BKN015
                       FM101800 07005KT P6SM SCT250 FM110100 29005KT
                       P6SM SCT250=
202108092321 TAF KCLM 092321Z 1000/1024 32007KT P6SM SCT250 FM100300 29005KT
                       P6SM BKN250 FM100900 29006KT 2SM BR BKN003
                       FM101700 05006KT P6SM BKN015=
202108091723 TAF KCLM 091723Z 0918/1018 VRB04KT P6SM SKC FM100000 32007KT P6SM
                       SCT250 FM100300 29005KT P6SM BKN003 FM101700
                       05006KT P6SM BKN015=
202108091133 TAF KCLM 091133Z 0912/1012 24005KT P6SM SCT006 BKN035 FM091500
                       28003KT P6SM BKN019 BKN030 FM091800 34006KT
                       P6SM SCT040 FM100000 32007KT P6SM SCT250
                       FM100300 29005KT P6SM SCT250=
202108090533 TAF KCLM 090533Z 0906/1006 25006KT P6SM BKN040 FM091100 27005KT
                       P6SM BKN030 FM091800 35005KT P6SM SCT040
                       FM100000 33007KT P6SM SCT250=
202108082320 TAF KCLM 082320Z 0900/0924 27008KT P6SM SCT040 FM090300 27008KT
                       P6SM BKN040 FM091100 27005KT P6SM BKN030
                       FM091800 30004KT P6SM SCT040=
202108081730 TAF KCLM 081730Z 0818/0918 30005KT P6SM SCT015 FM081900 30005KT
                       P6SM SCT030 BKN050 FM090000 32005KT P6SM
                       BKN050 FM090300 27008KT P6SM BKN050=
202108081130 TAF KCLM 081130Z 0812/0912 30008KT P6SM VCSH FEW040 OVC080 FM081300
                       27009KT P6SM VCSH OVC035 FM081900 34005KT
                       P6SM SCT030 BKN050 FM090000 32005KT P6SM
                       BKN120 FM090300 29005KT P6SM FEW250=
202108080535 TAF KCLM 080535Z 0806/0906 27015KT P6SM FEW040 OVC060 FM081300
                       27011KT P6SM OVC010 FM081900 33007KT P6SM
                       SCT030 BKN050 FM090000 33006KT P6SM FEW250=
202108072320 TAF KCLM 072320Z 0800/0824 30009KT P6SM OVC012 FM080100 29010G20KT
                       P6SM OVC015 FM081000 25005KT P6SM OVC010
                       FM081800 27006KT P6SM SCT030 BKN050=
202108072221 KCLM 072221Z 0722/0818 30010G20KT 5SM -SHRA OVC005 FM080300 29010G20KT
                       P6SM SCT009 OVC050 FM081000 25005KT P6SM
                       OVC015=
202108072125 KCLM 072125Z 0721/0818 30006KT P6SM -SHRA OVC006
                      TEMPO 0721/0723 2SM BR FM080300 29008G16KT
                       P6SM SCT009 OVC050 FM081000 25005KT P6SM
                       OVC015=
202108071815 KCLM 071815Z 0718/0818 00000KT 6SM BR VCSH BKN002 BKN035 OVC045
                       FM072100 31006KT P6SM SCT015 BKN025 FM080300
                       29008G16KT P6SM OVC050 FM081000 25005KT
                       P6SM OVC015=
202108071720 TAF KCLM 071720Z 0718/0818 32003KT 1SM BR VCSH OVC002 FM072100
                       31006KT P6SM SCT015 BKN025 FM080300 29008G16KT
                       P6SM OVC050 FM081000 25005KT P6SM OVC015=
202108071627 KCLM 071627Z 0716/0812 33003KT 6SM -RA BR SCT004 OVC015
                      TEMPO 0716/0718 1/2SM FG OVC002 FM072200
                       31006KT P6SM OVC025 FM080300 29008G16KT
                       P6SM OVC050=
202108071222 KCLM 071222Z 0712/0812 29003KT P6SM -RA BKN004 BKN010 OVC050 FM071300
                       28001KT P6SM -RA FEW009 OVC025 FM071600
                       33003KT 6SM -RA BR OVC015 FM072200 31006KT
                       P6SM OVC025 FM080300 29008G16KT P6SM OVC050=
202108071126 TAF KCLM 071126Z 0712/0812 29003KT P6SM -RA FEW009 OVC050 FM071300
                       28001KT P6SM -RA FEW009 OVC025 FM071600
                       33003KT 6SM -RA BR OVC015 FM072200 31006KT
                       P6SM OVC025 FM080300 29008G16KT P6SM OVC050=
202108070535 TAF KCLM 070535Z 0706/0806 27008KT P6SM OVC050 FM071000 29003KT
                       P6SM VCSH OVC025 FM071600 33003KT 6SM -RA
                       BR OVC010 FM072100 31006KT P6SM OVC025 FM080300
                       29009G16KT P6SM OVC050=
202108062320 TAF KCLM 062320Z 0700/0724 30015G21KT P6SM BKN100 FM071000 29003KT
                       P6SM VCSH OVC025 FM071600 33003KT 6SM -RA
                       BR OVC010 FM072100 31006KT P6SM OVC025=
202108062101 KCLM 062101Z 0621/0718 31012G24KT P6SM BKN028 OVC110 FM070000 32008KT
                       P6SM OVC100 FM071000 29003KT P6SM OVC025
                       FM071600 33003KT 6SM -RA BR OVC015=
202108061720 TAF KCLM 061720Z 0618/0718 29010G17KT P6SM OVC018 FM070000 32008KT
                       P6SM OVC100 FM071000 29003KT P6SM OVC025
                       FM071600 33003KT 6SM -RA BR OVC015=
202108061122 TAF KCLM 061122Z 0612/0712 29009KT P6SM VCSH OVC014 FM061500 28008KT
                       P6SM VCSH BKN010 FM061800 32010KT P6SM SCT015
                       OVC030 FM070000 32008KT P6SM OVC100 FM071000
                       29003KT P6SM OVC025=
202108060534 TAF KCLM 060534Z 0606/0706 27015G24KT P6SM OVC006 FM060700 28009KT
                       P6SM VCSH OVC005 FM061500 28008KT P6SM BKN010
                       FM061800 32010KT P6SM SCT015 BKN100 FM070000
                       32008KT P6SM OVC100=
202108060309 KCLM 060309Z 0603/0624 27013G22KT P6SM OVC007 FM060700 28009KT
                       P6SM VCSH OVC005 FM061500 28008KT P6SM BKN015
                       FM061800 32010KT P6SM SCT015 BKN100=
202108060103 KCLM 060103Z 0601/0624 29013G25KT P6SM SCT012 BKN200
                      TEMPO 0601/0605 BKN012 FM060500 30012KT P6SM
                       BKN015 FM061200 27007KT P6SM VCSH OVC015
                       FM062000 30008KT P6SM BKN015 BKN040=
202108052320 TAF KCLM 052320Z 0600/0624 29012G22KT P6SM SCT015 BKN200
                      TEMPO 0603/0606 BKN015 FM060600 30012KT P6SM
                       BKN015 FM061200 27007KT P6SM VCSH OVC015
                       FM062000 30008KT P6SM BKN015 BKN040=
202108051720 TAF KCLM 051720Z 0518/0618 30012KT P6SM FEW010 SCT120 SCT200 FM060300
                       30012G22KT P6SM SCT020 BKN050 BKN120
                      TEMPO 0603/0606 BKN020 OVC050 FM060600 30012KT
                       P6SM OVC020 FM061200 27007KT P6SM VCSH OVC015=
202108051131 TAF KCLM 051131Z 0512/0612 29009KT P6SM SKC FM051300 29008KT P6SM
                       SCT007 FM051700 30007KT P6SM SKC FM060100
                       29010G18KT P6SM BKN100 FM060600 30010KT
                       P6SM OVC015=
202108050528 TAF KCLM 050528Z 0506/0606 28010KT P6SM FEW250 FM051200 29005KT
                       P6SM SCT007 FM051700 31008KT P6SM SKC FM060100
                       29010G18KT P6SM BKN100=
202108042328 TAF KCLM 042328Z 0500/0524 29011KT P6SM FEW250 FM051200 29005KT
                       P6SM SCT007 FM051700 31009KT P6SM SKC=
202108041722 TAF KCLM 041722Z 0418/0518 02007KT P6SM FEW250 FM042200 32007KT
                       P6SM FEW250 FM050300 31012KT P6SM SKC FM051200
                       29005KT P6SM OVC007=
202108041304 KCLM 041304Z 0413/0512 30008KT 4SM BR OVC002
                      TEMPO 0413/0417 1SM BR FM041700 31006KT P6SM
                       BKN007 FM041800 31009KT P6SM FEW250=
202108041140 TAF KCLM 041140Z 0412/0512 30008KT 4SM BR OVC002 FM041700 31006KT
                       P6SM BKN007 FM041800 31009KT P6SM FEW250=
202108040701 KCLM 040701Z 0407/0506 28011KT P6SM OVC002
                      TEMPO 0407/0411 2SM BR FM041500 27005KT 3SM
                       BR OVC005 FM041900 34006KT P6SM FEW250=
202108040525 TAF KCLM 040525Z 0406/0506 30009KT P6SM SCT010
                      TEMPO 0406/0410 BKN010 FM041000 28010KT 2SM
                       BR OVC010 FM041500 27005KT 1SM BR OVC005
                       FM041900 34006KT P6SM FEW250=
202108032320 TAF KCLM 032320Z 0400/0424 30006KT P6SM SKC FM040800 30010KT P6SM
                       SCT250 FM041200 28010KT 2SM BR OVC010 FM041500
                       27005KT 1SM BR OVC005 FM041900 34006KT P6SM
                       SKC=
202108031724 TAF KCLM 031724Z 0318/0418 VRB03KT P6SM SKC FM040000 30015G20KT
                       P6SM SCT250 FM040800 30010KT P6SM SCT250
                       FM041200 28010KT P6SM OVC010 FM041500 27005KT
                       P6SM OVC005=
202108031128 TAF KCLM 031128Z 0312/0412 27007KT P6SM SCT250 FM031800 30007KT
                       P6SM SCT250 FM040000 30013G19KT P6SM SCT250
                       FM040800 30010KT P6SM SCT250=
202108030904 KCLM 030904Z 0309/0406 29009KT P6SM SCT250 FM031400 30006KT P6SM
                       FEW010 FM031800 34007KT P6SM FEW250=
202108030520 TAF KCLM 030520Z 0306/0406 29011KT P6SM FEW030 SCT250 FM030900
                       29009KT P6SM BKN005 FM031500 30006KT P6SM
                       FEW010 FM031800 34007KT P6SM FEW250=
202108022347 TAF KCLM 022347Z 0300/0324 31008KT P6SM SKC FM030900 29009KT P6SM
                       BKN005 FM031500 30006KT P6SM FEW010 FM031800
                       34007KT P6SM FEW250=
202108021815 KCLM 021815Z 0218/0318 VRB04KT P6SM SKC FM030000 30012KT P6SM SKC
                       FM030900 29009KT P6SM BKN005=
202108021720 TAF KCLM 021720Z 0218/0318 32004KT P6SM OVC004 FM030000 30012KT
                       P6SM SKC FM030900 29009KT P6SM BKN005=
202108021121 TAF KCLM 021121Z 0212/0312 28006KT P6SM OVC004
                      TEMPO 0212/0216 1/2SM FG VV002 FM021800 30008KT
                       P6SM FEW250 FM030000 30012KT P6SM SKC FM030900
                       29009KT P6SM BKN005=
202108020902 KCLM 020902Z 0209/0306 25010KT P6SM OVC005
                      TEMPO 0210/0214 1/2SM FG VV002 FM021800 30008KT
                       P6SM SKC=
202108020532 TAF KCLM 020532Z 0206/0306 30010G21KT P6SM FEW250 FM020800 25010KT
                       P6SM BKN005
                      TEMPO 0210/0214 1/2SM FG VV002 FM021800 30008KT
                       P6SM SKC=
202108012320 TAF KCLM 012320Z 0200/0224 30012KT P6SM SCT120 SCT200 FM020800
                       25010KT P6SM BKN005
                      TEMPO 0210/0214 1/2SM FG VV002 FM021800 30008KT
                       P6SM SKC=
202108011720 TAF KCLM 011720Z 0118/0218 30007KT P6SM FEW007 BKN150 FM020000
                       30012KT P6SM SCT150 FM020800 25010KT P6SM
                       OVC004
                      TEMPO 0210/0214 1/2SM FG VV002 FM021700 30008KT
                       P6SM SCT005=
202108011617 KCLM 011617Z 0116/0212 28008KT P6SM BKN006 BKN120
                      TEMPO 0116/0118 SCT010 BKN120 FM011800 31010KT
                       P6SM BKN150 FM020000 29013KT P6SM SCT150
                       FM020600 25010KT P6SM BKN006=
202108011302 KCLM 011302Z 0113/0212 30005KT P6SM VCSH BKN004 BKN015 OVC140 FM011600
                       31010KT P6SM BKN150 FM020000 29013KT P6SM
                       SCT150 FM020600 25010KT P6SM BKN006=
202108011120 TAF KCLM 011120Z 0112/0212 30005KT P6SM OVC006 FM011800 31010KT
                       P6SM BKN150 FM020000 29013KT P6SM SCT150
                       FM020600 25010KT P6SM BKN006=
202108010844 KCLM 010844Z 0109/0206 31005KT P6SM BKN004 FM011800 31010KT P6SM
                       BKN150 FM020100 29013KT P6SM BKN150=
202108010520 TAF KCLM 010520Z 0106/0206 31005KT P6SM OVC120 FM020000 31010KT
                       P6SM BKN150 FM020100 29013KT P6SM BKN150=