##########################################################
# Query made at 02/16/2025 04:51:53 UTC
# Time interval: from 06/01/2021 00:00  to 06/30/2021 23:59  UTC
##########################################################

##########################################################
# KCLM, Port Angeles, William R. Fairchild International Airport (United States)
# WMO index: -----. WIGOS ID: Unknown
# Latitude 48-07-20N. Longitude 123-30-19W. Altitude 87 m.
##########################################################

###################################
#  METAR/SPECI from KCLM
###################################
202106302353 METAR KCLM 302353Z AUTO 28011KT 10SM OVC012 18/14 A2991 RMK AO2 SLP129 T01780139 10206 20178 50002=
202106302305 SPECI KCLM 302305Z AUTO 27012KT 10SM OVC014 18/14 A2992 RMK AO2 T01830139=
202106302253 METAR KCLM 302253Z AUTO 28011G16KT 10SM OVC015 19/14 A2992 RMK AO2 SLP130 T01890139=
202106302153 METAR KCLM 302153Z AUTO 31012G18KT 10SM OVC020 20/14 A2991 RMK AO2 SLP127 T02000139=
202106302053 METAR KCLM 302053Z AUTO 33008KT 290V350 10SM OVC018 20/14 A2991 RMK AO2 SLP127 T02000139 52003=
202106301953 METAR KCLM 301953Z AUTO 30008KT 10SM OVC015 19/14 A2990 RMK AO2 SLP126 T01890139=
202106301933 SPECI KCLM 301933Z AUTO 32007KT 10SM OVC015 19/14 A2990 RMK AO2 T01890139=
202106301908 SPECI KCLM 301908Z AUTO VRB05KT 10SM OVC014 18/13 A2991 RMK AO2 T01830133=
202106301853 METAR KCLM 301853Z AUTO 29005KT 10SM OVC015 18/14 A2990 RMK AO2 SLP126 T01830139=
202106301753 METAR KCLM 301753Z AUTO 29004KT 10SM OVC014 18/14 A2990 RMK AO2 SLP124 T01780139 10178 20150 51007=
202106301653 METAR KCLM 301653Z AUTO 26005KT 10SM OVC011 17/13 A2990 RMK AO2 SLP124 T01670133=
202106301553 METAR KCLM 301553Z AUTO 26006KT 10SM OVC011 17/13 A2989 RMK AO2 SLP122 T01670133=
202106301453 METAR KCLM 301453Z AUTO 26005KT 10SM OVC010 16/13 A2988 RMK AO2 SLP116 T01610133 53007=
202106301353 METAR KCLM 301353Z AUTO 28005KT 10SM OVC012 16/13 A2987 RMK AO2 SLP113 T01560133=
202106301303 SPECI KCLM 301303Z AUTO 27006KT 10SM OVC010 16/13 A2987 RMK AO2 T01560128=
202106301253 METAR KCLM 301253Z AUTO 27007KT 10SM OVC009 16/13 A2986 RMK AO2 CIG 007V012 SLP111 T01560128=
202106301153 METAR KCLM 301153Z AUTO 27007KT 10SM OVC007 15/13 A2986 RMK AO2 SLP109 T01500128 10156 20150 53007=
202106301053 METAR KCLM 301053Z AUTO 28008KT 10SM BKN009 OVC013 16/13 A2985 RMK AO2 SLP108 T01560133=
202106301002 SPECI KCLM 301002Z AUTO 27008KT 10SM BKN008 15/13 A2984 RMK AO2 T01500133=
202106300953 METAR KCLM 300953Z AUTO 27005KT 10SM SCT008 15/13 A2984 RMK AO2 SLP102 T01500128=
202106300949 SPECI KCLM 300949Z AUTO 27006KT 10SM FEW008 15/13 A2983 RMK AO2=
202106300853 METAR KCLM 300853Z AUTO 27006KT 10SM CLR 15/13 A2983 RMK AO2 SLP100 T01500128 51005=
202106300753 METAR KCLM 300753Z AUTO 28010KT 10SM FEW009 16/13 A2982 RMK AO2 SLP098 T01560128 402220150=
202106300717 SPECI KCLM 300717Z AUTO 28010KT 10SM FEW009 16/13 A2982 RMK AO2 T01560128=
202106300653 METAR KCLM 300653Z AUTO 28012G21KT 10SM CLR 16/13 A2982 RMK AO2 SLP098 T01560128=
202106300553 METAR KCLM 300553Z AUTO 28012KT 10SM CLR 16/13 A2982 RMK AO2 SLP095 T01560128 10217 20150 53021=
202106300453 METAR KCLM 300453Z AUTO 27012KT 10SM CLR 16/13 A2980 RMK AO2 SLP089 T01560128=
202106300353 METAR KCLM 300353Z AUTO 28016G22KT 10SM CLR 16/13 A2977 RMK AO2 SLP079 T01610128=
202106300253 METAR KCLM 300253Z AUTO 29016G22KT 10SM CLR 19/14 A2975 RMK AO2 SLP074 T01890139 55001=
202106300153 METAR KCLM 300153Z AUTO 28012G19KT 10SM CLR 21/14 A2974 RMK AO2 SLP070 T02060139=
202106300053 METAR KCLM 300053Z AUTO 28013G21KT 10SM CLR 21/14 A2974 RMK AO2 SLP071 T02060139=
202106292353 METAR KCLM 292353Z AUTO 29011G20KT 10SM CLR 22/14 A2976 RMK AO2 SLP075 T02170144 10222 20200 58008=
202106292253 METAR KCLM 292253Z AUTO 28015G21KT 10SM CLR 22/14 A2977 RMK AO2 SLP079 T02170144=
202106292153 METAR KCLM 292153Z AUTO 31012G23KT 10SM CLR 21/14 A2978 RMK AO2 SLP081 T02110144=
202106292053 METAR KCLM 292053Z AUTO 31011G17KT 10SM CLR 21/14 A2978 RMK AO2 SLP083 T02110144 58003=
202106291953 METAR KCLM 291953Z AUTO 30011KT 10SM CLR 21/14 A2979 RMK AO2 SLP086 T02110144=
202106291853 METAR KCLM 291853Z AUTO 31009KT 10SM CLR 21/15 A2979 RMK AO2 SLP086 T02060150=
202106291753 METAR KCLM 291753Z AUTO 31008KT 10SM CLR 21/15 A2979 RMK AO2 SLP086 T02060150 10206 20156 58006=
202106291653 METAR KCLM 291653Z AUTO 32006KT 10SM CLR 19/14 A2980 RMK AO2 SLP089 T01940144=
202106291553 METAR KCLM 291553Z AUTO VRB06KT 10SM CLR 19/15 A2981 RMK AO2 SLP090 T01890150=
202106291533 SPECI KCLM 291533Z AUTO 31008KT 10SM SCT006 18/15 A2981 RMK AO2 T01830150=
202106291453 METAR KCLM 291453Z AUTO 28009KT 10SM OVC005 17/15 A2981 RMK AO2 SLP091 T01720150 51013=
202106291436 SPECI KCLM 291436Z AUTO 30006KT 10SM OVC005 17/15 A2981 RMK AO2 T01720150=
202106291353 METAR KCLM 291353Z AUTO 29007KT 10SM OVC004 16/14 A2981 RMK AO2 SLP091 T01610144=
202106291306 SPECI KCLM 291306Z AUTO 28011KT 10SM OVC004 16/14 A2980 RMK AO2 T01610144=
202106291253 METAR KCLM 291253Z AUTO 28007KT 10SM OVC005 16/14 A2980 RMK AO2 SLP089 T01610144=
202106291241 SPECI KCLM 291241Z AUTO 28009KT 9SM BKN005 16/14 A2979 RMK AO2 T01560144=
202106291228 SPECI KCLM 291228Z AUTO 29012KT 10SM FEW005 16/14 A2979 RMK AO2 T01560144=
202106291153 METAR KCLM 291153Z AUTO 29008KT 10SM CLR 16/14 A2977 RMK AO2 SLP079 T01560139 10233 20156 51013=
202106291053 METAR KCLM 291053Z AUTO 29005KT 9SM CLR 16/14 A2976 RMK AO2 SLP075 T01610139=
202106290953 METAR KCLM 290953Z AUTO 29006KT 9SM CLR 16/13 A2975 RMK AO2 SLP071 T01560133=
202106290853 METAR KCLM 290853Z AUTO 30007KT 10SM CLR 17/13 A2973 RMK AO2 SLP065 T01670133 51007=
202106290753 METAR KCLM 290753Z AUTO 31005KT 10SM CLR 18/14 A2973 RMK AO2 SLP064 T01830139 403720183=
202106290653 METAR KCLM 290653Z AUTO 32003KT 10SM CLR 20/14 A2971 RMK AO2 SLP060 T02000139=
202106290553 METAR KCLM 290553Z AUTO 00000KT 10SM CLR 23/16 A2971 RMK AO2 SLP058 T02330156 10372 20233 52009=
202106290453 METAR KCLM 290453Z AUTO 28004KT 10SM CLR 23/14 A2970 RMK AO2 SLP056 T02330144=
202106290353 METAR KCLM 290353Z AUTO 31003KT 10SM CLR 29/19 A2969 RMK AO2 SLP050 T02890189=
202106290253 METAR KCLM 290253Z AUTO 00000KT 10SM CLR 34/16 A2968 RMK AO2 SLP048 T03440161 55009=
202106290153 METAR KCLM 290153Z AUTO 09004KT 10SM CLR 37/15 A2968 RMK AO2 SLP046 T03670150=
202106290053 METAR KCLM 290053Z AUTO 08004KT 10SM CLR 37/14 A2969 RMK AO2 SLP052 T03670144=
202106282353 METAR KCLM 282353Z AUTO 08007KT 10SM CLR 36/14 A2971 RMK AO2 SLP058 T03610144 10367 20322 58019=
202106282253 METAR KCLM 282253Z AUTO 07006KT 10SM CLR 36/13 A2973 RMK AO2 SLP066 T03610133=
202106282153 METAR KCLM 282153Z AUTO 10008KT 10SM CLR 35/14 A2975 RMK AO2 SLP072 T03500144=
202106282053 METAR KCLM 282053Z AUTO VRB05KT 10SM CLR 34/15 A2977 RMK AO2 SLP077 T03440150 58016=
202106281953 METAR KCLM 281953Z AUTO 05005KT 10SM CLR 34/14 A2978 RMK AO2 SLP083 T03440139=
202106281853 METAR KCLM 281853Z AUTO 09007KT 10SM CLR 34/14 A2980 RMK AO2 SLP090 T03390144=
202106281753 METAR KCLM 281753Z AUTO 08008KT 10SM CLR 33/15 A2981 RMK AO2 SLP093 T03280150 10328 20200 58005=
202106281653 METAR KCLM 281653Z AUTO 07007KT 10SM CLR 32/14 A2982 RMK AO2 SLP096 T03170144=
202106281553 METAR KCLM 281553Z AUTO 13007KT 9SM CLR 30/15 A2983 RMK AO2 SLP097 T03000150=
202106281453 METAR KCLM 281453Z AUTO 11004KT 10SM CLR 29/16 A2983 RMK AO2 SLP097 T02890161 50006=
202106281353 METAR KCLM 281353Z AUTO 10004KT 10SM CLR 28/16 A2983 RMK AO2 SLP098 T02830161=
202106281253 METAR KCLM 281253Z AUTO 19003KT 10SM CLR 21/16 A2982 RMK AO2 SLP096 T02110156=
202106281153 METAR KCLM 281153Z AUTO 22005KT 10SM CLR 21/16 A2981 RMK AO2 SLP092 T02110156 10278 20206 51004=
202106281053 METAR KCLM 281053Z AUTO 21003KT 10SM CLR 24/14 A2980 RMK AO2 SLP090 T02390144=
202106280953 METAR KCLM 280953Z AUTO 23008KT 10SM CLR 26/13 A2980 RMK AO2 SLP090 T02610133=
202106280853 METAR KCLM 280853Z AUTO 14004KT 10SM CLR 23/16 A2980 RMK AO2 SLP088 T02280156 58001=
202106280753 METAR KCLM 280753Z AUTO 23005KT 10SM CLR 25/16 A2980 RMK AO2 SLP089 T02500156 403610183=
202106280653 METAR KCLM 280653Z AUTO 22004KT 10SM CLR 26/16 A2980 RMK AO2 SLP089 T02610161=
202106280553 METAR KCLM 280553Z AUTO 23008KT 10SM CLR 28/16 A2980 RMK AO2 SLP089 T02780161 10356 20256 55002=
202106280453 METAR KCLM 280453Z AUTO VRB03KT 10SM CLR 26/18 A2980 RMK AO2 SLP089 T02610178=
202106280353 METAR KCLM 280353Z AUTO 19003KT 10SM CLR 29/17 A2980 RMK AO2 SLP088 T02940167=
202106280253 METAR KCLM 280253Z AUTO 00000KT 10SM CLR 34/14 A2981 RMK AO2 SLP090 T03390144 56012=
202106280153 METAR KCLM 280153Z AUTO 09006KT 10SM CLR 34/14 A2981 RMK AO2 SLP092 T03440139=
202106280053 METAR KCLM 280053Z AUTO 08006KT 10SM CLR 35/14 A2983 RMK AO2 SLP097 T03500139=
202106272353 METAR KCLM 272353Z AUTO 09010KT 10SM CLR 36/14 A2984 RMK AO2 SLP103 T03560139 10361 20306 56021=
202106272253 METAR KCLM 272253Z AUTO 08007KT 10SM CLR 36/14 A2986 RMK AO2 SLP109 T03560144=
202106272153 METAR KCLM 272153Z AUTO 04006KT 10SM CLR 35/14 A2988 RMK AO2 SLP116 T03500139=
202106272053 METAR KCLM 272053Z AUTO 07008KT 10SM CLR 34/14 A2991 RMK AO2 SLP124 T03390139 58021=
202106271953 METAR KCLM 271953Z AUTO 09007KT 10SM CLR 34/16 A2993 RMK AO2 SLP132 T03390156=
202106271853 METAR KCLM 271853Z AUTO 07008KT 10SM CLR 32/16 A2995 RMK AO2 SLP139 T03170161=
202106271753 METAR KCLM 271753Z AUTO 09006KT 10SM CLR 31/16 A2997 RMK AO2 SLP145 T03060161 10306 20183 58002=
202106271653 METAR KCLM 271653Z AUTO 06007KT 10SM CLR 29/16 A2997 RMK AO2 SLP148 T02940161=
202106271553 METAR KCLM 271553Z AUTO 07005KT 10SM CLR 30/16 A2998 RMK AO2 SLP148 T03000161=
202106271453 METAR KCLM 271453Z AUTO 13006KT 10SM CLR 30/16 A2997 RMK AO2 SLP147 T03000161 53006=
202106271353 METAR KCLM 271353Z AUTO 19003KT 9SM CLR 24/17 A2997 RMK AO2 SLP145 T02390167=
202106271253 METAR KCLM 271253Z AUTO 00000KT 10SM CLR 19/15 A2996 RMK AO2 SLP141 T01940150=
202106271153 METAR KCLM 271153Z AUTO 22004KT 10SM CLR 18/15 A2995 RMK AO2 SLP141 T01830150 10217 20183 51005=
202106271053 METAR KCLM 271053Z AUTO 14003KT 10SM CLR 19/14 A2995 RMK AO2 SLP140 T01890144=
202106270953 METAR KCLM 270953Z AUTO 00000KT 10SM CLR 20/15 A2995 RMK AO2 SLP139 T02000150=
202106270853 METAR KCLM 270853Z AUTO 13003KT 10SM CLR 21/16 A2994 RMK AO2 SLP136 T02060156 56001=
202106270753 METAR KCLM 270753Z AUTO 00000KT 10SM CLR 20/16 A2994 RMK AO2 SLP137 T02000161 403560172=
202106270653 METAR KCLM 270653Z AUTO 00000KT 10SM CLR 21/16 A2994 RMK AO2 SLP138 T02110161=
202106270553 METAR KCLM 270553Z AUTO 00000KT 10SM CLR 21/15 A2994 RMK AO2 SLP138 T02110150 10356 20200 55002=
202106270453 METAR KCLM 270453Z AUTO 00000KT 10SM CLR 22/14 A2994 RMK AO2 SLP137 T02170139=
202106270353 METAR KCLM 270353Z AUTO 31003KT 10SM CLR 24/15 A2994 RMK AO2 SLP136 T02390150=
202106270253 METAR KCLM 270253Z AUTO 33003KT 10SM CLR 30/16 A2995 RMK AO2 SLP140 T03000161 56010=
202106270153 METAR KCLM 270153Z AUTO 08003KT 10SM CLR 36/14 A2996 RMK AO2 SLP141 T03560139=
202106270053 METAR KCLM 270053Z AUTO VRB03KT 10SM CLR 35/15 A2997 RMK AO2 SLP145 T03500150=
202106262353 METAR KCLM 262353Z AUTO VRB03KT 10SM CLR 34/15 A2998 RMK AO2 SLP150 T03440150 10344 20267 56012=
202106262253 METAR KCLM 262253Z AUTO VRB04KT 10SM CLR 33/15 A2999 RMK AO2 SLP154 T03330150=
202106262153 METAR KCLM 262153Z AUTO VRB03KT 10SM CLR 33/15 A3000 RMK AO2 SLP157 T03280150=
202106262053 METAR KCLM 262053Z AUTO 04005KT 10SM CLR 31/14 A3002 RMK AO2 SLP163 T03060139 58006=
202106261953 METAR KCLM 261953Z AUTO VRB05KT 10SM CLR 29/14 A3003 RMK AO2 SLP165 T02940139=
202106261853 METAR KCLM 261853Z AUTO VRB03KT 10SM CLR 29/14 A3003 RMK AO2 SLP168 T02890144=
202106261753 METAR KCLM 261753Z AUTO 02005KT 10SM CLR 27/15 A3004 RMK AO2 SLP170 T02670150 10278 20172 58002=
202106261653 METAR KCLM 261653Z AUTO 02006KT 10SM CLR 27/14 A3004 RMK AO2 SLP170 T02720144=
202106261553 METAR KCLM 261553Z AUTO 09005KT 10SM CLR 28/14 A3004 RMK AO2 SLP171 T02780144=
202106261453 METAR KCLM 261453Z AUTO 00000KT 10SM CLR 27/15 A3004 RMK AO2 SLP171 T02670150 51010=
202106261353 METAR KCLM 261353Z AUTO 15004KT 10SM CLR 24/15 A3004 RMK AO2 SLP170 T02440150=
202106261253 METAR KCLM 261253Z AUTO 00000KT 10SM CLR 18/14 A3002 RMK AO2 SLP164 T01830144=
202106261153 METAR KCLM 261153Z AUTO 23005KT 10SM CLR 17/14 A3001 RMK AO2 SLP161 T01720139 10211 20172 51012=
202106261053 METAR KCLM 261053Z AUTO 00000KT 10SM CLR 18/14 A3000 RMK AO2 SLP158 T01830139=
202106260953 METAR KCLM 260953Z AUTO 14003KT 10SM CLR 18/14 A2999 RMK AO2 SLP153 T01780139=
202106260853 METAR KCLM 260853Z AUTO 12003KT 10SM CLR 19/14 A2998 RMK AO2 SLP148 T01890139 52001=
202106260753 METAR KCLM 260753Z AUTO 00000KT 10SM CLR 19/14 A2997 RMK AO2 SLP146 T01940144 403500128=
202106260653 METAR KCLM 260653Z AUTO 00000KT 10SM CLR 19/15 A2998 RMK AO2 SLP149 T01940150=
202106260553 METAR KCLM 260553Z AUTO 00000KT 10SM CLR 20/14 A2997 RMK AO2 SLP147 T02000144 10350 20194 50004=
202106260453 METAR KCLM 260453Z AUTO 00000KT 10SM CLR 21/14 A2997 RMK AO2 SLP148 T02110139=
202106260353 METAR KCLM 260353Z AUTO 00000KT 10SM CLR 22/13 A2996 RMK AO2 SLP144 T02220133=
202106260253 METAR KCLM 260253Z AUTO VRB03KT 10SM CLR 25/13 A2996 RMK AO2 SLP143 T02500128 57012=
202106260153 METAR KCLM 260153Z AUTO 07004KT 10SM CLR 34/12 A2997 RMK AO2 SLP145 T03390117=
202106260053 METAR KCLM 260053Z AUTO 11004KT 10SM CLR 35/11 A2999 RMK AO2 SLP152 T03500111=
202106252353 METAR KCLM 252353Z AUTO 15004KT 10SM CLR 34/11 A3000 RMK AO2 SLP155 T03390106 10344 20278 58018=
202106252253 METAR KCLM 252253Z AUTO VRB05KT 10SM CLR 33/11 A3002 RMK AO2 SLP164 T03330106=
202106252153 METAR KCLM 252153Z AUTO 36005KT 10SM CLR 32/12 A3004 RMK AO2 SLP171 T03170122=
202106252053 METAR KCLM 252053Z AUTO 03005KT 10SM CLR 30/12 A3005 RMK AO2 SLP174 T03000122 58011=
202106251953 METAR KCLM 251953Z AUTO VRB05KT 10SM CLR 30/13 A3006 RMK AO2 SLP179 T03000128=
202106251853 METAR KCLM 251853Z AUTO VRB05KT 10SM CLR 29/14 A3007 RMK AO2 SLP183 T02940139=
202106251753 METAR KCLM 251753Z AUTO 11009KT 10SM CLR 28/14 A3008 RMK AO2 SLP186 T02780139 10278 20144 50001=
202106251653 METAR KCLM 251653Z AUTO 10009KT 10SM CLR 26/14 A3009 RMK AO2 SLP188 T02610139=
202106251553 METAR KCLM 251553Z AUTO 09007KT 10SM CLR 24/14 A3009 RMK AO2 SLP187 T02440139=
202106251453 METAR KCLM 251453Z AUTO 13004KT 10SM CLR 23/14 A3008 RMK AO2 SLP184 T02280139 53004=
202106251353 METAR KCLM 251353Z AUTO 00000KT 10SM CLR 19/14 A3006 RMK AO2 SLP179 T01940144=
202106251253 METAR KCLM 251253Z AUTO 00000KT 10SM CLR 15/13 A3008 RMK AO2 SLP185 T01500128=
202106251153 METAR KCLM 251153Z AUTO 00000KT 10SM CLR 15/13 A3007 RMK AO2 SLP181 T01500128 10150 20128 53003=
202106251053 METAR KCLM 251053Z AUTO 12003KT 10SM CLR 14/12 A3006 RMK AO2 SLP179 T01390122=
202106250953 METAR KCLM 250953Z AUTO 00000KT 10SM CLR 14/12 A3006 RMK AO2 SLP178 T01390117=
202106250853 METAR KCLM 250853Z AUTO 00000KT 10SM CLR 13/11 A3006 RMK AO2 SLP178 T01330111 51001=
202106250753 METAR KCLM 250753Z AUTO 00000KT 10SM CLR 13/12 A3006 RMK AO2 SLP177 T01330117 402060106=
202106250653 METAR KCLM 250653Z AUTO 00000KT 10SM CLR 13/11 A3006 RMK AO2 SLP179 T01280111=
202106250553 METAR KCLM 250553Z AUTO 00000KT 10SM CLR 14/12 A3006 RMK AO2 SLP178 T01440122 10200 20133 50002=
202106250453 METAR KCLM 250453Z AUTO 00000KT 10SM CLR 15/11 A3006 RMK AO2 SLP179 T01500111=
202106250353 METAR KCLM 250353Z AUTO 30003KT 10SM CLR 16/12 A3005 RMK AO2 SLP175 T01610117=
202106250253 METAR KCLM 250253Z AUTO 31005KT 10SM CLR 18/12 A3005 RMK AO2 SLP175 T01830122 56007=
202106250153 METAR KCLM 250153Z AUTO 31006KT 10SM CLR 18/12 A3005 RMK AO2 SLP175 T01830122=
202106250053 METAR KCLM 250053Z AUTO 33004KT 10SM CLR 19/12 A3006 RMK AO2 SLP178 T01940122=
202106242353 METAR KCLM 242353Z AUTO 31010KT 10SM CLR 18/12 A3007 RMK AO2 SLP183 T01780117 10206 20161 56005=
202106242253 METAR KCLM 242253Z AUTO VRB06KT 10SM CLR 19/12 A3007 RMK AO2 SLP183 T01940117=
202106242153 METAR KCLM 242153Z AUTO 35005KT 10SM CLR 20/12 A3008 RMK AO2 SLP186 T02000117=
202106242053 METAR KCLM 242053Z AUTO 35004KT 10SM CLR 20/12 A3009 RMK AO2 SLP188 T02000117 55002=
202106241953 METAR KCLM 241953Z AUTO 35004KT 10SM CLR 18/11 A3009 RMK AO2 SLP187 T01830111=
202106241853 METAR KCLM 241853Z AUTO 36006KT 10SM CLR 18/11 A3009 RMK AO2 SLP188 T01780111=
202106241753 METAR KCLM 241753Z AUTO 35004KT 10SM CLR 16/11 A3009 RMK AO2 SLP190 T01610106 10172 20106 53005=
202106241653 METAR KCLM 241653Z AUTO 00000KT 10SM CLR 16/11 A3008 RMK AO2 SLP185 T01560111=
202106241553 METAR KCLM 241553Z AUTO 00000KT 10SM CLR 14/11 A3007 RMK AO2 SLP182 T01390106=
202106241517 SPECI KCLM 241517Z AUTO 00000KT 10SM SCT003 14/12 A3007 RMK AO2 T01390117=
202106241453 METAR KCLM 241453Z AUTO 00000KT 6SM BR OVC002 12/11 A3008 RMK AO2 SLP185 T01170111 51009=
202106241451 SPECI KCLM 241451Z AUTO 00000KT 3SM BR OVC002 12/11 A3008 RMK AO2=
202106241440 SPECI KCLM 241440Z AUTO 00000KT 1 1/2SM BR OVC002 12/11 A3008 RMK AO2 T01170111=
202106241437 SPECI KCLM 241437Z AUTO VRB03KT 3SM BR OVC002 12/11 A3008 RMK AO2 T01170111=
202106241426 SPECI KCLM 241426Z AUTO 30003KT 1 1/2SM BR OVC002 11/11 A3008 RMK AO2 VIS 3/4V3 T01110106=
202106241414 SPECI KCLM 241414Z AUTO 31003KT 1/2SM FG VV002 11/11 A3008 RMK AO2 T01110106=
202106241353 METAR KCLM 241353Z AUTO 29003KT 1/4SM FG VV002 11/11 A3007 RMK AO2 SLP183 T01110106=
202106241312 SPECI KCLM 241312Z AUTO 27003KT 1/4SM FG VV002 11/11 A3006 RMK AO2 T01110106=
202106241253 METAR KCLM 241253Z AUTO 28005KT M1/4SM FG VV002 11/10 A3006 RMK AO2 SLP179 T01110100=
202106241241 SPECI KCLM 241241Z AUTO 30006KT M1/4SM FG VV002 11/10 A3006 RMK AO2 T01110100=
202106241228 SPECI KCLM 241228Z AUTO 30005KT 1/4SM FG VV002 11/10 A3005 RMK AO2 T01110100=
202106241220 SPECI KCLM 241220Z AUTO 31003KT 1/4SM FG OVC001 11/10 A3005 RMK AO2 T01110100=
202106241212 SPECI KCLM 241212Z AUTO 32003KT 1 3/4SM BR OVC001 11/10 A3005 RMK AO2 T01060100=
202106241155 SPECI KCLM 241155Z AUTO 00000KT 3SM BR OVC001 11/10 A3005 RMK AO2 T01060100=
202106241153 METAR KCLM 241153Z AUTO 00000KT 2 1/2SM BR OVC002 11/10 A3005 RMK AO2 SLP175 T01060100 10117 20106 51009=
202106241145 SPECI KCLM 241145Z AUTO 26006KT 3SM BR OVC002 11/10 A3005 RMK AO2 T01110100=
202106241133 SPECI KCLM 241133Z AUTO 26005KT 1 3/4SM BR OVC002 11/10 A3005 RMK AO2 T01110100=
202106241104 SPECI KCLM 241104Z AUTO 26004KT 3SM BR OVC002 11/11 A3005 RMK AO2 T01110106=
202106241059 SPECI KCLM 241059Z AUTO 25004KT 1 3/4SM BR OVC002 11/11 A3005 RMK AO2 T01110106=
202106241053 METAR KCLM 241053Z AUTO 24005KT 2SM BR OVC001 11/11 A3005 RMK AO2 SLP175 T01110106=
202106241031 SPECI KCLM 241031Z AUTO 28004KT 1 1/2SM BR OVC001 11/11 A3005 RMK AO2 T01110106=
202106241007 SPECI KCLM 241007Z AUTO 29005KT 1 1/2SM BR OVC002 11/11 A3005 RMK AO2 T01110106=
202106240953 METAR KCLM 240953Z AUTO 30008KT 2 1/2SM BR OVC002 11/11 A3005 RMK AO2 SLP175 T01110106=
202106240938 SPECI KCLM 240938Z AUTO 30006KT 2 1/2SM BR OVC002 11/11 A3004 RMK AO2 T01110106=
202106240927 SPECI KCLM 240927Z AUTO 29005KT 3SM BR OVC002 11/11 A3004 RMK AO2 T01110106=
202106240911 SPECI KCLM 240911Z AUTO 30005KT 2SM BR OVC002 11/11 A3003 RMK AO2 T01110106=
202106240853 METAR KCLM 240853Z AUTO 29007KT 6SM BR OVC003 12/11 A3002 RMK AO2 SLP166 T01170106 53006=
202106240753 METAR KCLM 240753Z AUTO 30005KT 10SM OVC003 12/11 A3002 RMK AO2 SLP164 T01170106 401940111=
202106240723 SPECI KCLM 240723Z AUTO 26007KT 10SM BKN004 12/11 A3001 RMK AO2 T01170106=
202106240706 SPECI KCLM 240706Z AUTO 29007KT 10SM FEW004 12/11 A3001 RMK AO2 T01170106=
202106240653 METAR KCLM 240653Z AUTO 28005KT 10SM CLR 12/10 A3001 RMK AO2 SLP162 T01170100=
202106240553 METAR KCLM 240553Z AUTO 28005KT 10SM CLR 12/10 A3000 RMK AO2 SLP160 T01170100 10183 20117 51008=
202106240453 METAR KCLM 240453Z AUTO 29006KT 10SM CLR 13/11 A3000 RMK AO2 SLP158 T01280106=
202106240353 METAR KCLM 240353Z AUTO 30007KT 10SM CLR 14/11 A2999 RMK AO2 SLP154 T01390106=
202106240253 METAR KCLM 240253Z AUTO 31006KT 10SM CLR 16/11 A2998 RMK AO2 SLP152 T01610111 53001=
202106240153 METAR KCLM 240153Z AUTO 31007KT 10SM CLR 17/11 A2996 RMK AO2 SLP146 T01720111=
202106240053 METAR KCLM 240053Z AUTO 30007KT 10SM CLR 18/12 A2997 RMK AO2 SLP147 T01830117=
202106232353 METAR KCLM 232353Z AUTO 32007KT 10SM CLR 19/12 A2998 RMK AO2 SLP151 T01890117 10194 20144 50000=
202106232253 METAR KCLM 232253Z AUTO 30008KT 10SM CLR 18/12 A2998 RMK AO2 SLP152 T01830117=
202106232153 METAR KCLM 232153Z AUTO 31007KT 280V340 10SM CLR 18/11 A2998 RMK AO2 SLP152 T01780111=
202106232053 METAR KCLM 232053Z AUTO VRB04KT 10SM CLR 18/11 A2998 RMK AO2 SLP151 T01780111 50008=
202106231953 METAR KCLM 231953Z AUTO 31009KT 10SM CLR 17/11 A2998 RMK AO2 SLP153 T01670106=
202106231853 METAR KCLM 231853Z AUTO 33007KT 10SM CLR 16/11 A2997 RMK AO2 SLP148 T01610106=
202106231753 METAR KCLM 231753Z AUTO 36007KT 10SM CLR 14/10 A2995 RMK AO2 SLP142 T01440100 10161 20111 51005=
202106231713 SPECI KCLM 231713Z AUTO VRB03KT 10SM SCT010 16/11 A2995 RMK AO2 T01610111=
202106231653 METAR KCLM 231653Z AUTO VRB04KT 10SM OVC009 14/10 A2995 RMK AO2 SLP142 T01390100=
202106231553 METAR KCLM 231553Z AUTO 30003KT 10SM OVC007 13/10 A2995 RMK AO2 SLP140 T01280100=
202106231453 METAR KCLM 231453Z AUTO 31005KT 10SM OVC006 12/10 A2994 RMK AO2 SLP137 T01220100 51014=
202106231405 SPECI KCLM 231405Z AUTO 30007KT 10SM OVC005 12/10 A2993 RMK AO2 T01170100=
202106231353 METAR KCLM 231353Z AUTO 31005KT 10SM OVC004 12/10 A2993 RMK AO2 SLP133 T01170100=
202106231307 SPECI KCLM 231307Z AUTO 28005KT 8SM OVC004 12/10 A2991 RMK AO2 T01170100=
202106231253 METAR KCLM 231253Z AUTO 28005KT 10SM OVC005 11/10 A2991 RMK AO2 SLP127 T01110100=
202106231153 METAR KCLM 231153Z AUTO 29006KT 10SM OVC005 11/10 A2989 RMK AO2 SLP123 T01110100 10122 20111 51007=
202106231053 METAR KCLM 231053Z AUTO 29010KT 10SM OVC005 12/10 A2988 RMK AO2 SLP119 T01170100=
202106231051 SPECI KCLM 231051Z AUTO 28009KT 10SM OVC005 12/10 A2988 RMK AO2=
202106230953 METAR KCLM 230953Z AUTO 29007KT 10SM OVC004 12/10 A2987 RMK AO2 SLP116 T01170100=
202106230853 METAR KCLM 230853Z AUTO 29010KT 10SM OVC004 12/10 A2986 RMK AO2 SLP113 T01170100 53003=
202106230804 SPECI KCLM 230804Z AUTO 30010KT 10SM OVC004 12/10 A2986 RMK AO2 T01170100=
202106230753 METAR KCLM 230753Z AUTO 30009KT 10SM OVC005 12/10 A2985 RMK AO2 SLP109 T01170100 402060117=
202106230653 METAR KCLM 230653Z AUTO 29008G16KT 10SM OVC005 12/11 A2985 RMK AO2 SLP108 T01220106=
202106230553 METAR KCLM 230553Z AUTO 29008KT 10SM OVC005 12/11 A2985 RMK AO2 SLP109 T01220106 10200 20122 53007=
202106230517 SPECI KCLM 230517Z AUTO 29009KT 10SM OVC005 12/11 A2985 RMK AO2 T01220106=
202106230453 METAR KCLM 230453Z AUTO 28008G17KT 10SM OVC004 12/11 A2985 RMK AO2 SLP107 T01220106=
202106230445 SPECI KCLM 230445Z AUTO 29011KT 10SM OVC004 12/11 A2985 RMK AO2 T01220111=
202106230353 METAR KCLM 230353Z AUTO 30010KT 10SM BKN006 13/11 A2983 RMK AO2 SLP102 T01280111=
202106230322 SPECI KCLM 230322Z AUTO 29012G20KT 10SM BKN006 13/11 A2983 RMK AO2 T01330111=
202106230253 METAR KCLM 230253Z AUTO 28011G17KT 10SM FEW008 14/11 A2983 RMK AO2 SLP102 T01440111 55006=
202106230153 METAR KCLM 230153Z AUTO 29013KT 10SM CLR 17/12 A2983 RMK AO2 SLP101 T01670117=
202106230053 METAR KCLM 230053Z AUTO 29008KT 10SM CLR 18/12 A2984 RMK AO2 SLP103 T01780122=
202106222353 METAR KCLM 222353Z AUTO 31007KT 10SM CLR 19/12 A2985 RMK AO2 SLP108 T01940122 10206 20161 58008=
202106222253 METAR KCLM 222253Z AUTO 33007KT 10SM CLR 19/12 A2987 RMK AO2 SLP113 T01890122=
202106222153 METAR KCLM 222153Z AUTO 31008KT 280V340 10SM CLR 19/12 A2987 RMK AO2 SLP116 T01940122=
202106222053 METAR KCLM 222053Z AUTO 30008KT 10SM CLR 19/12 A2988 RMK AO2 SLP116 T01890122 58004=
202106221953 METAR KCLM 221953Z AUTO 29011G16KT 10SM CLR 19/12 A2988 RMK AO2 SLP119 T01890122=
202106221853 METAR KCLM 221853Z AUTO 30010KT 10SM CLR 17/12 A2989 RMK AO2 SLP123 T01720122=
202106221753 METAR KCLM 221753Z AUTO 30009KT 10SM CLR 16/12 A2989 RMK AO2 SLP121 T01610117 10161 20128 51007=
202106221653 METAR KCLM 221653Z AUTO 32006KT 10SM FEW007 16/12 A2988 RMK AO2 SLP118 T01560117=
202106221632 SPECI KCLM 221632Z AUTO 32008KT 10SM SCT007 16/12 A2988 RMK AO2 T01560117=
202106221553 METAR KCLM 221553Z AUTO 32006KT 10SM OVC006 15/12 A2988 RMK AO2 SLP117 T01500117=
202106221511 SPECI KCLM 221511Z AUTO 30007KT 10SM OVC005 14/12 A2987 RMK AO2 T01390117=
202106221453 METAR KCLM 221453Z AUTO 30009KT 7SM OVC004 14/12 A2987 RMK AO2 SLP113 T01390117 51004=
202106221353 METAR KCLM 221353Z AUTO 28010KT 4SM BR OVC003 13/12 A2987 RMK AO2 SLP113 T01330117=
202106221253 METAR KCLM 221253Z AUTO 29009KT 4SM BR OVC004 13/12 A2986 RMK AO2 SLP110 T01280117=
202106221243 SPECI KCLM 221243Z AUTO 28008KT 4SM BR OVC004 13/12 A2986 RMK AO2 T01280117=
202106221226 SPECI KCLM 221226Z AUTO 27005KT 5SM BR BKN005 13/12 A2986 RMK AO2 T01280117=
202106221153 METAR KCLM 221153Z AUTO 29004KT 8SM FEW005 13/12 A2986 RMK AO2 SLP109 T01330117 10172 20133 53011=
202106221053 METAR KCLM 221053Z AUTO 28005KT 10SM CLR 14/12 A2984 RMK AO2 SLP104 T01390117=
202106220953 METAR KCLM 220953Z AUTO 29005KT 10SM CLR 14/12 A2983 RMK AO2 SLP100 T01390117=
202106220853 METAR KCLM 220853Z AUTO 32005KT 10SM CLR 15/12 A2982 RMK AO2 SLP097 T01500117 57004=
202106220753 METAR KCLM 220753Z AUTO 30006KT 10SM CLR 16/12 A2983 RMK AO2 SLP099 T01560117 402830111=
202106220653 METAR KCLM 220653Z AUTO 31006KT 10SM CLR 16/11 A2983 RMK AO2 SLP100 T01610111=
202106220553 METAR KCLM 220553Z AUTO 30005KT 10SM CLR 17/11 A2983 RMK AO2 SLP102 T01670106 10278 20161 56003=
202106220453 METAR KCLM 220453Z AUTO 00000KT 10SM CLR 20/10 A2983 RMK AO2 SLP102 T02000100=
202106220353 METAR KCLM 220353Z AUTO 27007KT 10SM CLR 23/09 A2983 RMK AO2 SLP101 T02280089=
202106220253 METAR KCLM 220253Z AUTO 28005KT 10SM CLR 25/11 A2984 RMK AO2 SLP103 T02500106 58005=
202106220153 METAR KCLM 220153Z AUTO 30004KT 10SM CLR 23/12 A2985 RMK AO2 SLP106 T02330122=
202106220053 METAR KCLM 220053Z AUTO 32006KT 10SM CLR 24/12 A2986 RMK AO2 SLP109 T02440122=
202106212353 METAR KCLM 212353Z AUTO 02004KT 10SM CLR 28/11 A2986 RMK AO2 SLP109 T02780106 10283 20244 57012=
202106212253 METAR KCLM 212253Z AUTO VRB04KT 10SM CLR 28/11 A2987 RMK AO2 SLP113 T02780106=
202106212153 METAR KCLM 212153Z AUTO VRB05KT 10SM CLR 27/12 A2988 RMK AO2 SLP117 T02670117=
202106212053 METAR KCLM 212053Z AUTO VRB04KT 10SM CLR 27/12 A2989 RMK AO2 SLP121 T02670117 58011=
202106211953 METAR KCLM 211953Z AUTO 04006KT 10SM CLR 26/12 A2991 RMK AO2 SLP127 T02610117=
202106211853 METAR KCLM 211853Z AUTO 09007KT 10SM CLR 25/11 A2992 RMK AO2 SLP131 T02500111=
202106211753 METAR KCLM 211753Z AUTO 11008KT 10SM CLR 25/11 A2993 RMK AO2 SLP133 T02500111 10256 20111 58002=
202106211653 METAR KCLM 211653Z AUTO 11008KT 10SM CLR 24/11 A2993 RMK AO2 SLP134 T02440106=
202106211553 METAR KCLM 211553Z AUTO 09010KT 10SM CLR 23/11 A2993 RMK AO2 SLP135 T02280106=
202106211453 METAR KCLM 211453Z AUTO 00000KT 10SM CLR 22/12 A2993 RMK AO2 SLP134 T02220122 50001=
202106211353 METAR KCLM 211353Z AUTO 00000KT 10SM CLR 17/13 A2994 RMK AO2 SLP137 T01720128=
202106211253 METAR KCLM 211253Z AUTO 14003KT 10SM CLR 13/10 A2994 RMK AO2 SLP136 T01330100=
202106211153 METAR KCLM 211153Z AUTO 00000KT 10SM CLR 13/10 A2993 RMK AO2 SLP134 T01330100 10150 20117 55001=
202106211053 METAR KCLM 211053Z AUTO 00000KT 10SM CLR 13/10 A2992 RMK AO2 SLP132 T01330100=
202106210953 METAR KCLM 210953Z AUTO 00000KT 10SM CLR 14/10 A2993 RMK AO2 SLP133 T01390100=
202106210853 METAR KCLM 210853Z AUTO 00000KT 10SM CLR 13/10 A2993 RMK AO2 SLP135 T01330100 58006=
202106210753 METAR KCLM 210753Z AUTO 00000KT 10SM CLR 13/10 A2994 RMK AO2 SLP139 T01280100 402670094=
202106210653 METAR KCLM 210653Z AUTO 00000KT 10SM CLR 14/11 A2995 RMK AO2 SLP141 T01390106=
202106210553 METAR KCLM 210553Z AUTO 00000KT 10SM CLR 15/11 A2995 RMK AO2 SLP141 T01500106 10267 20144 56005=
202106210453 METAR KCLM 210453Z AUTO 00000KT 10SM CLR 15/11 A2996 RMK AO2 SLP142 T01500106=
202106210353 METAR KCLM 210353Z AUTO 00000KT 10SM CLR 18/10 A2996 RMK AO2 SLP143 T01830100=
202106210253 METAR KCLM 210253Z AUTO 29005KT 10SM CLR 20/10 A2997 RMK AO2 SLP146 T02000100 55010=
202106210153 METAR KCLM 210153Z AUTO 01004KT 10SM CLR 26/07 A2996 RMK AO2 SLP146 T02560072=
202106210053 METAR KCLM 210053Z AUTO 03003KT 10SM CLR 26/08 A2998 RMK AO2 SLP150 T02560078=
202106202353 METAR KCLM 202353Z AUTO 10006KT 10SM CLR 26/08 A2999 RMK AO2 SLP156 T02560083 10256 20222 58015=
202106202253 METAR KCLM 202253Z AUTO 10007KT 10SM CLR 25/09 A3001 RMK AO2 SLP161 T02500089=
202106202153 METAR KCLM 202153Z AUTO 05006KT 10SM CLR 24/10 A3003 RMK AO2 SLP167 T02390100=
202106202053 METAR KCLM 202053Z AUTO VRB05KT 10SM CLR 24/11 A3004 RMK AO2 SLP171 T02390106 58011=
202106201953 METAR KCLM 201953Z AUTO VRB04KT 10SM CLR 23/10 A3005 RMK AO2 SLP176 T02330100=
202106201853 METAR KCLM 201853Z AUTO VRB05KT 10SM CLR 23/11 A3007 RMK AO2 SLP181 T02330106=
202106201753 METAR KCLM 201753Z AUTO VRB06KT 10SM CLR 23/10 A3007 RMK AO2 SLP182 T02280100 10228 20094 58001=
202106201653 METAR KCLM 201653Z AUTO 07006KT 10SM CLR 21/12 A3008 RMK AO2 SLP185 T02060122=
202106201553 METAR KCLM 201553Z AUTO 08007KT 10SM CLR 20/12 A3008 RMK AO2 SLP185 T02000122=
202106201453 METAR KCLM 201453Z AUTO 10006KT 10SM CLR 19/12 A3007 RMK AO2 SLP183 T01940122 55001=
202106201353 METAR KCLM 201353Z AUTO 00000KT 10SM SCT045 14/13 A3007 RMK AO2 SLP184 T01440128=
202106201253 METAR KCLM 201253Z AUTO 00000KT 10SM SCT055 11/09 A3007 RMK AO2 SLP183 T01060094=
202106201153 METAR KCLM 201153Z AUTO 00000KT 10SM CLR 10/09 A3008 RMK AO2 SLP185 T01000089 10133 20094 53002=
202106201053 METAR KCLM 201053Z AUTO 22004KT 10SM FEW001 11/09 A3007 RMK AO2 SLP183 T01060094=
202106201046 SPECI KCLM 201046Z AUTO 22003KT 1 1/4SM BR SCT001 10/09 A3007 RMK AO2 T01000094=
202106201040 SPECI KCLM 201040Z AUTO 00000KT 3/4SM BR VV001 11/10 A3007 RMK AO2 VIS 1/4V1 3/4 T01060100=
202106200953 METAR KCLM 200953Z AUTO 00000KT 1/4SM FG VV001 11/10 A3007 RMK AO2 SLP182 T01110100=
202106200944 SPECI KCLM 200944Z AUTO 29003KT 1/4SM FG VV001 11/10 A3007 RMK AO2 T01110100=
202106200930 SPECI KCLM 200930Z AUTO 00000KT 1/2SM FG VV002 11/11 A3007 RMK AO2 T01110106=
202106200924 SPECI KCLM 200924Z AUTO 31003KT 1SM BR BKN001 OVC065 11/11 A3007 RMK AO2 T01110106=
202106200916 SPECI KCLM 200916Z AUTO 30004KT 2 1/2SM BR BKN001 OVC065 11/11 A3007 RMK AO2 T01110106=
202106200900 SPECI KCLM 200900Z AUTO 30004KT 10SM SCT001 OVC065 11/11 A3007 RMK AO2 T01110106=
202106200853 METAR KCLM 200853Z AUTO 29004KT 3SM BR BKN001 OVC065 12/11 A3007 RMK AO2 SLP182 T01170106 51002=
202106200851 SPECI KCLM 200851Z AUTO 28004KT 3SM BR BKN001 OVC065 12/11 A3007 RMK AO2=
202106200838 SPECI KCLM 200838Z AUTO 32004KT 8SM SCT001 OVC060 12/11 A3007 RMK AO2 T01170106=
202106200753 METAR KCLM 200753Z AUTO 30004KT 10SM SCT050 OVC060 13/11 A3007 RMK AO2 SLP182 T01280111 401940106=
202106200653 METAR KCLM 200653Z AUTO 27004KT 10SM BKN060 12/11 A3006 RMK AO2 SLP180 T01220106=
202106200553 METAR KCLM 200553Z AUTO 26004KT 10SM CLR 13/11 A3007 RMK AO2 SLP182 T01280111 10194 20122 50008=
202106200453 METAR KCLM 200453Z AUTO 25005KT 10SM CLR 13/11 A3007 RMK AO2 SLP182 T01330111=
202106200353 METAR KCLM 200353Z AUTO 28005KT 10SM CLR 14/11 A3006 RMK AO2 SLP177 T01440111=
202106200253 METAR KCLM 200253Z AUTO 32004KT 10SM CLR 16/11 A3005 RMK AO2 SLP174 T01560111 56007=
202106200153 METAR KCLM 200153Z AUTO 35005KT 10SM CLR 17/11 A3005 RMK AO2 SLP174 T01670111=
202106200053 METAR KCLM 200053Z AUTO 31008KT 10SM CLR 17/11 A3006 RMK AO2 SLP177 T01720111=
202106192353 METAR KCLM 192353Z AUTO 30012G18KT 10SM CLR 19/12 A3007 RMK AO2 SLP181 T01890117 10189 20156 56011=
202106192253 METAR KCLM 192253Z AUTO 31011G17KT 10SM BKN055 18/12 A3008 RMK AO2 SLP186 T01830117=
202106192153 METAR KCLM 192153Z AUTO 31011G17KT 10SM BKN055 18/11 A3009 RMK AO2 SLP188 T01830111=
202106192053 METAR KCLM 192053Z AUTO 31011G17KT 10SM OVC060 17/11 A3010 RMK AO2 SLP193 T01670106 58003=
202106191953 METAR KCLM 191953Z AUTO 31008KT 10SM BKN080 17/11 A3011 RMK AO2 SLP196 T01670106=
202106191853 METAR KCLM 191853Z AUTO VRB06KT 10SM BKN095 17/11 A3010 RMK AO2 SLP193 T01670106=
202106191753 METAR KCLM 191753Z AUTO 31007G15KT 10SM BKN041 OVC120 16/11 A3011 RMK AO2 SLP195 T01560106 10156 20111 58001=
202106191653 METAR KCLM 191653Z AUTO 31009KT 10SM OVC050 14/09 A3011 RMK AO2 SLP197 T01390094=
202106191553 METAR KCLM 191553Z AUTO 31006KT 10SM OVC060 13/09 A3012 RMK AO2 SLP200 T01330089=
202106191453 METAR KCLM 191453Z AUTO 28012KT 10SM OVC065 14/08 A3011 RMK AO2 SLP197 T01390083 50003=
202106191353 METAR KCLM 191353Z AUTO 27013KT 10SM CLR 13/09 A3012 RMK AO2 SLP200 T01280089=
202106191253 METAR KCLM 191253Z AUTO 28010KT 10SM CLR 12/08 A3012 RMK AO2 SLP198 T01170083=
202106191153 METAR KCLM 191153Z AUTO 26009KT 10SM CLR 12/08 A3010 RMK AO2 SLP193 T01170078 10117 20106 55002=
202106191053 METAR KCLM 191053Z AUTO 28009KT 10SM CLR 12/08 A3010 RMK AO2 SLP193 T01170078=
202106190953 METAR KCLM 190953Z AUTO 29007KT 10SM CLR 11/08 A3011 RMK AO2 SLP195 T01110078=
202106190853 METAR KCLM 190853Z AUTO 28008KT 10SM CLR 11/08 A3011 RMK AO2 SLP195 T01110078 56005=
202106190753 METAR KCLM 190753Z AUTO 27008KT 10SM CLR 11/08 A3011 RMK AO2 SLP196 T01110078 401720111=
202106190653 METAR KCLM 190653Z AUTO 29007KT 10SM CLR 11/08 A3011 RMK AO2 SLP197 T01110078=
202106190553 METAR KCLM 190553Z AUTO 27008KT 10SM CLR 12/08 A3012 RMK AO2 SLP201 T01170083 10161 20117 53003=
202106190453 METAR KCLM 190453Z AUTO 28008KT 10SM CLR 12/08 A3012 RMK AO2 SLP201 T01220083=
202106190353 METAR KCLM 190353Z AUTO 28010KT 10SM CLR 13/09 A3011 RMK AO2 SLP196 T01280089=
202106190253 METAR KCLM 190253Z AUTO 29009G16KT 10SM CLR 14/09 A3011 RMK AO2 SLP197 T01390089 55002=
202106190153 METAR KCLM 190153Z AUTO 29012G16KT 10SM CLR 15/09 A3011 RMK AO2 SLP196 T01500089=
202106190053 METAR KCLM 190053Z AUTO 28013G19KT 10SM CLR 16/09 A3011 RMK AO2 SLP197 T01560089=
202106182353 METAR KCLM 182353Z AUTO 32011G19KT 10SM CLR 16/09 A3012 RMK AO2 SLP199 T01560094 10172 20150 58006=
202106182253 METAR KCLM 182253Z AUTO 30011G22KT 10SM CLR 16/10 A3013 RMK AO2 SLP202 T01610100=
202106182153 METAR KCLM 182153Z AUTO 31011G17KT 10SM CLR 16/11 A3013 RMK AO2 SLP204 T01610106=
202106182053 METAR KCLM 182053Z AUTO 31013G19KT 10SM CLR 17/11 A3014 RMK AO2 SLP205 T01670106 58005=
202106181953 METAR KCLM 181953Z AUTO 30015G21KT 10SM CLR 16/10 A3015 RMK AO2 SLP209 T01560100=
202106181853 METAR KCLM 181853Z AUTO 31013G21KT 10SM CLR 16/09 A3015 RMK AO2 SLP210 T01560094=
202106181753 METAR KCLM 181753Z AUTO 30011G17KT 10SM CLR 16/10 A3015 RMK AO2 SLP211 T01560100 10156 20111 56001=
202106181653 METAR KCLM 181653Z AUTO 30012G19KT 10SM CLR 15/10 A3016 RMK AO2 SLP211 T01500100=
202106181553 METAR KCLM 181553Z AUTO 31010G21KT 10SM CLR 15/08 A3015 RMK AO2 SLP211 T01500083=
202106181453 METAR KCLM 181453Z AUTO 29010KT 10SM CLR 14/08 A3016 RMK AO2 SLP212 T01440083 51010=
202106181353 METAR KCLM 181353Z AUTO 29012G17KT 10SM CLR 13/08 A3015 RMK AO2 SLP210 T01330078=
202106181253 METAR KCLM 181253Z AUTO 28005KT 10SM CLR 12/07 A3014 RMK AO2 SLP206 T01170067=
202106181153 METAR KCLM 181153Z AUTO 27008KT 10SM CLR 12/06 A3013 RMK AO2 SLP202 T01170061 10144 20117 55001=
202106181053 METAR KCLM 181053Z AUTO 27011G18KT 10SM CLR 13/06 A3013 RMK AO2 SLP202 T01280061=
202106180953 METAR KCLM 180953Z AUTO 28011KT 10SM CLR 13/06 A3013 RMK AO2 SLP202 T01280061=
202106180853 METAR KCLM 180853Z AUTO 28008KT 10SM CLR 13/07 A3013 RMK AO2 SLP203 T01330067 58006=
202106180753 METAR KCLM 180753Z AUTO 28011KT 10SM CLR 14/07 A3014 RMK AO2 SLP207 T01390072 402060078=
202106180653 METAR KCLM 180653Z AUTO 28009KT 10SM CLR 14/07 A3015 RMK AO2 SLP208 T01390072=
202106180553 METAR KCLM 180553Z AUTO 27008KT 10SM CLR 14/09 A3015 RMK AO2 SLP209 T01440089 10189 20139 53002=
202106180453 METAR KCLM 180453Z AUTO 27011KT 10SM CLR 14/09 A3015 RMK AO2 SLP209 T01440089=
202106180353 METAR KCLM 180353Z AUTO 27010KT 10SM CLR 16/08 A3014 RMK AO2 SLP207 T01560083=
202106180253 METAR KCLM 180253Z AUTO 29013G17KT 10SM CLR 16/08 A3014 RMK AO2 SLP207 T01610078 58012=
202106180153 METAR KCLM 180153Z AUTO 28008KT 260V320 10SM CLR 18/09 A3016 RMK AO2 SLP211 T01830089=
202106180053 METAR KCLM 180053Z AUTO 31007KT 10SM CLR 18/07 A3017 RMK AO2 SLP217 T01830072=
202106172353 METAR KCLM 172353Z AUTO 31009G15KT 10SM CLR 19/07 A3018 RMK AO2 SLP219 T01890072 10206 20161 57008=
202106172253 METAR KCLM 172253Z AUTO 30011KT 10SM CLR 19/08 A3019 RMK AO2 SLP222 T01940078=
202106172153 METAR KCLM 172153Z AUTO 30009KT 10SM CLR 19/08 A3019 RMK AO2 SLP225 T01940078=
202106172053 METAR KCLM 172053Z AUTO 30010KT 10SM CLR 19/10 A3020 RMK AO2 SLP227 T01890100 58005=
202106171953 METAR KCLM 171953Z AUTO 32007KT 10SM CLR 18/11 A3022 RMK AO2 SLP233 T01830106=
202106171853 METAR KCLM 171853Z AUTO 33007KT 10SM CLR 18/11 A3022 RMK AO2 SLP234 T01780106=
202106171753 METAR KCLM 171753Z AUTO 35006KT 10SM CLR 16/11 A3022 RMK AO2 SLP232 T01610106 10178 20078 55000=
202106171653 METAR KCLM 171653Z AUTO VRB04KT 10SM CLR 17/10 A3021 RMK AO2 SLP231 T01670100=
202106171553 METAR KCLM 171553Z AUTO 36004KT 10SM CLR 15/09 A3021 RMK AO2 SLP231 T01500089=
202106171453 METAR KCLM 171453Z AUTO 31006KT 10SM CLR 15/08 A3022 RMK AO2 SLP232 T01500083 53007=
202106171353 METAR KCLM 171353Z AUTO 24010KT 10SM CLR 14/08 A3021 RMK AO2 SLP229 T01390078=
202106171253 METAR KCLM 171253Z AUTO 25004KT 10SM CLR 11/08 A3020 RMK AO2 SLP227 T01110078=
202106171153 METAR KCLM 171153Z AUTO 26005KT 10SM CLR 10/07 A3020 RMK AO2 SLP225 T01000067 10139 20083 58005=
202106171053 METAR KCLM 171053Z AUTO 25006KT 10SM CLR 11/07 A3020 RMK AO2 SLP228 T01060072=
202106170953 METAR KCLM 170953Z AUTO 26010KT 10SM CLR 13/07 A3021 RMK AO2 SLP228 T01330072=
202106170853 METAR KCLM 170853Z AUTO 27009KT 10SM CLR 13/08 A3021 RMK AO2 SLP230 T01330078 56007=
202106170753 METAR KCLM 170753Z AUTO 26009KT 10SM CLR 13/08 A3021 RMK AO2 SLP231 T01330078 402060089=
202106170653 METAR KCLM 170653Z AUTO 26007KT 10SM CLR 13/08 A3023 RMK AO2 SLP236 T01280083=
202106170553 METAR KCLM 170553Z AUTO 28006KT 10SM CLR 12/08 A3023 RMK AO2 SLP237 T01220083 10206 20122 58009=
202106170453 METAR KCLM 170453Z AUTO 27007KT 10SM CLR 13/08 A3025 RMK AO2 SLP243 T01280083=
202106170353 METAR KCLM 170353Z AUTO 29005KT 10SM CLR 14/09 A3025 RMK AO2 SLP244 T01390094=
202106170253 METAR KCLM 170253Z AUTO 30005KT 10SM CLR 15/10 A3026 RMK AO2 SLP247 T01500100 56011=
202106170153 METAR KCLM 170153Z AUTO 29006KT 10SM CLR 17/10 A3027 RMK AO2 SLP249 T01670100=
202106170053 METAR KCLM 170053Z AUTO 33005KT 10SM CLR 18/10 A3028 RMK AO2 SLP255 T01780100=
202106162353 METAR KCLM 162353Z AUTO VRB05KT 10SM CLR 20/09 A3029 RMK AO2 SLP258 T02000089 10206 20156 58017=
202106162253 METAR KCLM 162253Z AUTO 03006KT 10SM CLR 20/09 A3031 RMK AO2 SLP264 T02000089=
202106162153 METAR KCLM 162153Z AUTO 09008KT 10SM CLR 19/10 A3033 RMK AO2 SLP270 T01890100=
202106162053 METAR KCLM 162053Z AUTO VRB04KT 10SM CLR 18/10 A3034 RMK AO2 SLP275 T01780100 58009=
202106161953 METAR KCLM 161953Z AUTO 12006KT 10SM FEW028 BKN037 18/11 A3035 RMK AO2 SLP278 T01830106=
202106161853 METAR KCLM 161853Z AUTO 04006KT 10SM CLR 17/09 A3036 RMK AO2 SLP282 T01720094=
202106161753 METAR KCLM 161753Z AUTO VRB04KT 10SM FEW029 16/10 A3037 RMK AO2 SLP284 T01560100 10161 20100 58002=
202106161653 METAR KCLM 161653Z AUTO 01004KT 10SM CLR 16/10 A3038 RMK AO2 SLP287 T01560100=
202106161640 SPECI KCLM 161640Z AUTO 00000KT 10SM FEW027 16/11 A3038 RMK AO2 T01610106=
202106161553 METAR KCLM 161553Z AUTO VRB03KT 10SM OVC024 14/09 A3038 RMK AO2 SLP288 T01440094=
202106161453 METAR KCLM 161453Z AUTO 26004KT 10SM BKN024 13/09 A3038 RMK AO2 SLP287 T01330089 50004=
202106161353 METAR KCLM 161353Z AUTO 25006KT 10SM BKN046 OVC060 12/08 A3038 RMK AO2 SLP287 T01170078=
202106161253 METAR KCLM 161253Z AUTO 24008KT 10SM OVC049 11/08 A3037 RMK AO2 SLP284 T01060078=
202106161153 METAR KCLM 161153Z AUTO 23005KT 10SM OVC046 10/08 A3036 RMK AO2 SLP282 70001 T01000078 10117 20089 53005=
202106161053 METAR KCLM 161053Z AUTO 23004KT 10SM CLR 09/08 A3036 RMK AO2 SLP280 T00940078=
202106160953 METAR KCLM 160953Z AUTO 23006KT 10SM CLR 10/08 A3035 RMK AO2 SLP277 T01000083=
202106160853 METAR KCLM 160853Z AUTO 00000KT 10SM CLR 09/08 A3035 RMK AO2 SLP277 T00940078 51009=
202106160753 METAR KCLM 160753Z AUTO 00000KT 10SM CLR 10/08 A3034 RMK AO2 SLP275 T01000083 401830094=
202106160653 METAR KCLM 160653Z AUTO 21004KT 10SM FEW030 11/09 A3034 RMK AO2 SLP273 T01110094=
202106160553 METAR KCLM 160553Z AUTO 27003KT 10SM CLR 11/09 A3032 RMK AO2 SLP268 60000 T01060089 10167 20106 53015=
202106160453 METAR KCLM 160453Z AUTO 00000KT 10SM CLR 13/10 A3031 RMK AO2 SLP263 T01280100=
202106160353 METAR KCLM 160353Z AUTO 25005KT 10SM BKN075 14/11 A3029 RMK AO2 RAB0257E12 SLP256 P0000 T01390106=
202106160253 METAR KCLM 160253Z AUTO 31007KT 10SM BKN045 OVC070 14/11 A3028 RMK AO2 SLP253 60000 T01440106 51016=
202106160153 METAR KCLM 160153Z AUTO 30005KT 10SM BKN041 OVC050 15/11 A3026 RMK AO2 RAB04E16 SLP248 P0000 T01500106=
202106160053 METAR KCLM 160053Z AUTO VRB05KT 10SM BKN039 BKN046 OVC075 15/11 A3025 RMK AO2 RAE2356 SLP243 P0000 T01500106=
202106152353 METAR KCLM 152353Z AUTO 31006KT 10SM -RA SCT060 OVC070 16/11 A3023 RMK AO2 RAB40 SLP237 P0001 60001 T01560111 10183 20150 53016=
202106152253 METAR KCLM 152253Z AUTO 33005KT 10SM FEW047 BKN065 BKN110 17/10 A3022 RMK AO2 RAB14E25 SLP232 P0000 T01720100=
202106152153 METAR KCLM 152153Z AUTO 33006KT 10SM FEW032 SCT075 BKN090 17/10 A3020 RMK AO2 SLP225 T01670100=
202106152053 METAR KCLM 152053Z AUTO 01003KT 10SM FEW041 BKN060 OVC080 16/09 A3018 RMK AO2 SLP221 60000 T01610094 53015=
202106151953 METAR KCLM 151953Z AUTO 35004KT 10SM FEW060 SCT080 17/10 A3016 RMK AO2 SLP214 T01670100=
202106151853 METAR KCLM 151853Z AUTO 36003KT 10SM SCT065 16/10 A3015 RMK AO2 RAE26 SLP210 P0000 T01560100=
202106151753 METAR KCLM 151753Z AUTO VRB03KT 10SM -RA BKN060 OVC075 15/10 A3014 RMK AO2 RAB40 SLP206 P0000 60000 T01500100 10156 20106 53014=
202106151653 METAR KCLM 151653Z AUTO 34003KT 10SM OVC075 14/09 A3012 RMK AO2 SLP201 T01440094=
202106151553 METAR KCLM 151553Z AUTO 34004KT 10SM OVC075 16/10 A3010 RMK AO2 SLP193 T01560100=
202106151453 METAR KCLM 151453Z AUTO 00000KT 10SM OVC080 14/11 A3010 RMK AO2 SLP192 T01440106 53007=
202106151353 METAR KCLM 151353Z AUTO 00000KT 10SM FEW023 SCT080 12/10 A3009 RMK AO2 SLP190 T01170100=
202106151253 METAR KCLM 151253Z AUTO 00000KT 10SM OVC075 11/09 A3008 RMK AO2 SLP186 T01060094=
202106151236 SPECI KCLM 151236Z AUTO 00000KT 10SM SCT020 OVC080 11/09 A3008 RMK AO2 T01060094=
202106151153 METAR KCLM 151153Z AUTO 21003KT 10SM OVC020 12/10 A3008 RMK AO2 SLP184 T01170100 10122 20094 53007=
202106151104 SPECI KCLM 151104Z AUTO 22003KT 10SM BKN020 11/09 A3007 RMK AO2 T01060089=
202106151053 METAR KCLM 151053Z AUTO 22004KT 10SM SCT021 09/08 A3006 RMK AO2 SLP180 T00940083=
202106150953 METAR KCLM 150953Z AUTO 25005KT 10SM CLR 11/09 A3005 RMK AO2 SLP177 T01060089=
202106150853 METAR KCLM 150853Z AUTO 25005KT 10SM FEW015 11/09 A3005 RMK AO2 SLP177 T01110094 56002=
202106150840 SPECI KCLM 150840Z AUTO 24004KT 10SM SCT015 11/09 A3006 RMK AO2 T01110094=
202106150822 SPECI KCLM 150822Z AUTO 23004KT 10SM BKN015 12/10 A3006 RMK AO2 T01170100=
202106150753 METAR KCLM 150753Z AUTO 27005KT 10SM OVC013 12/10 A3006 RMK AO2 SLP178 T01220100 401890106=
202106150722 SPECI KCLM 150722Z AUTO 25003KT 10SM BKN013 12/10 A3005 RMK AO2 T01220100=
202106150653 METAR KCLM 150653Z AUTO 27004KT 10SM SCT013 12/10 A3006 RMK AO2 SLP178 T01220100=
202106150553 METAR KCLM 150553Z AUTO 25004KT 10SM CLR 12/10 A3006 RMK AO2 SLP179 60000 T01170100 10183 20117 50002=
202106150453 METAR KCLM 150453Z AUTO 28004KT 10SM CLR 12/11 A3006 RMK AO2 RAE00 SLP180 P0000 T01220106=
202106150353 METAR KCLM 150353Z AUTO 29006KT 10SM -RA BKN070 OVC090 13/11 A3006 RMK AO2 RAB45 SLP178 P0000 T01330111=
202106150253 METAR KCLM 150253Z AUTO 27003KT 10SM BKN060 OVC080 16/12 A3006 RMK AO2 SLP177 60000 T01560117 53001=
202106150153 METAR KCLM 150153Z AUTO 30004KT 10SM FEW055 BKN070 BKN090 14/11 A3005 RMK AO2 SLP176 T01440111=
202106150053 METAR KCLM 150053Z AUTO 01004KT 10SM SCT035 BKN065 BKN080 15/11 A3005 RMK AO2 RAB39E53 SLP174 P0000 T01500111=
202106142353 METAR KCLM 142353Z AUTO VRB03KT 10SM BKN060 OVC070 17/11 A3005 RMK AO2 SLP176 T01670106 10189 20150 53009=
202106142253 METAR KCLM 142253Z AUTO 01005KT 10SM BKN070 17/11 A3004 RMK AO2 SLP173 T01720106=
202106142153 METAR KCLM 142153Z AUTO VRB05KT 10SM FEW026 18/11 A3003 RMK AO2 SLP169 T01780106=
202106142053 METAR KCLM 142053Z AUTO VRB06KT 10SM BKN033 BKN085 17/11 A3002 RMK AO2 SLP167 T01720111 52007=
202106141953 METAR KCLM 141953Z AUTO VRB05KT 10SM OVC037 17/11 A3002 RMK AO2 SLP164 T01670111=
202106141920 SPECI KCLM 141920Z AUTO 36006KT 10SM SCT029 OVC035 16/11 A3001 RMK AO2 T01610111=
202106141853 METAR KCLM 141853Z AUTO VRB03KT 10SM BKN027 OVC036 17/12 A3001 RMK AO2 SLP163 T01670117=
202106141753 METAR KCLM 141753Z AUTO 31007KT 10SM SCT014 OVC020 15/11 A3000 RMK AO2 SLP160 T01500106 10156 20128 52003=
202106141745 SPECI KCLM 141745Z AUTO 34005KT 10SM BKN014 OVC022 15/11 A3000 RMK AO2 T01500106=
202106141706 SPECI KCLM 141706Z AUTO 29007KT 10SM SCT013 OVC022 15/11 A3001 RMK AO2 T01500111=
202106141653 METAR KCLM 141653Z AUTO 30005KT 10SM BKN013 OVC024 14/11 A3000 RMK AO2 SLP160 T01440106=
202106141633 SPECI KCLM 141633Z AUTO 30008KT 10SM OVC013 14/11 A3000 RMK AO2 T01440106=
202106141605 SPECI KCLM 141605Z AUTO 31004KT 10SM OVC015 14/11 A3000 RMK AO2 T01390106=
202106141553 METAR KCLM 141553Z AUTO 30005KT 10SM FEW008 OVC014 14/11 A3000 RMK AO2 SLP157 T01390106=
202106141541 SPECI KCLM 141541Z AUTO 00000KT 10SM FEW008 OVC013 14/12 A3000 RMK AO2 T01390117=
202106141512 SPECI KCLM 141512Z AUTO 26004KT 10SM OVC011 13/12 A3000 RMK AO2 T01330117=
202106141453 METAR KCLM 141453Z AUTO 26005KT 4SM BR OVC007 13/12 A2999 RMK AO2 CIG 004V011 SLP157 T01280117 51016=
202106141353 METAR KCLM 141353Z AUTO 29006KT 8SM OVC005 13/12 A2998 RMK AO2 SLP153 T01280117=
202106141312 SPECI KCLM 141312Z AUTO 32004KT 10SM BKN006 OVC011 13/12 A2996 RMK AO2 CIG 005V010 T01330117=
202106141253 METAR KCLM 141253Z AUTO 28004KT 10SM OVC010 13/12 A2996 RMK AO2 SLP146 T01330117=
202106141230 SPECI KCLM 141230Z AUTO 29005KT 10SM OVC010 13/12 A2996 RMK AO2 T01330117=
202106141210 SPECI KCLM 141210Z AUTO 29004KT 10SM OVC009 13/12 A2995 RMK AO2 T01330117=
202106141153 METAR KCLM 141153Z AUTO 28003KT 10SM BKN010 OVC030 13/12 A2995 RMK AO2 CIG 008V012 SLP140 70005 T01330117 10144 20133 51006=
202106141053 METAR KCLM 141053Z AUTO 28003KT 10SM OVC014 14/12 A2994 RMK AO2 SLP140 T01390122=
202106141039 SPECI KCLM 141039Z AUTO 24005KT 10SM BKN014 OVC022 14/12 A2994 RMK AO2 T01390122=
202106140953 METAR KCLM 140953Z AUTO 27005KT 10SM BKN018 OVC032 14/12 A2994 RMK AO2 SLP138 T01390122=
202106140924 SPECI KCLM 140924Z AUTO 28004KT 10SM OVC014 14/12 A2993 RMK AO2 T01390122=
202106140853 METAR KCLM 140853Z AUTO 28004KT 10SM OVC018 14/12 A2993 RMK AO2 SLP135 T01390122 50004=
202106140753 METAR KCLM 140753Z AUTO 25005KT 10SM OVC015 14/12 A2994 RMK AO2 SLP137 T01440122 401780117=
202106140739 SPECI KCLM 140739Z AUTO 22004KT 10SM OVC015 14/13 A2993 RMK AO2 T01390128=
202106140730 SPECI KCLM 140730Z AUTO 24005KT 10SM BKN012 OVC017 14/12 A2993 RMK AO2 T01390122=
202106140653 METAR KCLM 140653Z AUTO 25003KT 10SM SCT010 OVC016 14/12 A2993 RMK AO2 SLP136 T01390122=
202106140610 SPECI KCLM 140610Z AUTO 00000KT 10SM BKN016 BKN023 BKN030 14/12 A2993 RMK AO2 T01390122=
202106140553 METAR KCLM 140553Z AUTO 00000KT 10SM BKN014 BKN022 14/12 A2992 RMK AO2 PRESFR SLP130 60001 T01390122 10150 20133 50000=
202106140523 SPECI KCLM 140523Z AUTO 18003KT 10SM BKN014 BKN022 14/12 A2994 RMK AO2 PRESRR T01390122=
202106140453 METAR KCLM 140453Z AUTO 00000KT 10SM OVC022 14/12 A2992 RMK AO2 SLP132 T01390122=
202106140431 SPECI KCLM 140431Z AUTO 28003KT 10SM FEW007 SCT010 OVC020 14/12 A2992 RMK AO2 T01390122=
202106140421 SPECI KCLM 140421Z AUTO 23003KT 10SM OVC012 14/12 A2993 RMK AO2 T01390122=
202106140353 METAR KCLM 140353Z AUTO 23004KT 10SM OVC009 14/12 A2993 RMK AO2 CIG 006V011 SLP135 T01390122=
202106140335 SPECI KCLM 140335Z AUTO 26003KT 10SM OVC010 14/12 A2992 RMK AO2 CIG 007V011 T01390122=
202106140253 METAR KCLM 140253Z AUTO 00000KT 10SM OVC008 14/12 A2992 RMK AO2 RAB23E34 SLP130 P0000 60001 T01390122 53004=
202106140203 SPECI KCLM 140203Z AUTO 28006KT 10SM BKN007 OVC020 13/12 A2993 RMK AO2 CIG 003V009 PRESRR T01330117=
202106140153 METAR KCLM 140153Z AUTO VRB03KT 10SM SCT007 OVC020 13/12 A2991 RMK AO2 SLP127 T01330117=
202106140139 SPECI KCLM 140139Z AUTO 31004KT 10SM FEW005 OVC018 14/12 A2991 RMK AO2 T01390122=
202106140109 SPECI KCLM 140109Z AUTO 32003KT 10SM BKN020 OVC090 14/13 A2991 RMK AO2 T01440128=
202106140053 METAR KCLM 140053Z AUTO 00000KT 10SM FEW022 FEW038 BKN090 15/13 A2991 RMK AO2 RAE30 SLP127 P0001 T01500128=
202106132353 METAR KCLM 132353Z AUTO VRB03KT 10SM -RA FEW030 SCT055 OVC090 15/12 A2990 RMK AO2 RAB00 SLP126 P0000 60003 T01500122 10178 20144 53005=
202106132253 METAR KCLM 132253Z AUTO 00000KT 10SM SCT080 16/13 A2989 RMK AO2 SLP122 T01610133=
202106132206 SPECI KCLM 132206Z AUTO 01003KT 10SM BKN030 BKN060 OVC080 16/13 A2989 RMK AO2 T01560128=
202106132153 METAR KCLM 132153Z AUTO 22003KT 10SM BKN029 BKN060 OVC085 17/12 A2989 RMK AO2 RAE03B20E30 SLP122 P0000 T01670122=
202106132133 SPECI KCLM 132133Z AUTO 29003KT 10SM BKN029 BKN055 OVC080 16/13 A2989 RMK AO2 RAE03B20E30 P0000 T01610133=
202106132053 METAR KCLM 132053Z AUTO 09003KT 9SM -RA SCT037 BKN048 OVC080 16/13 A2989 RMK AO2 RAB02 SLP121 P0003 60003 T01560128 58001=
202106131953 METAR KCLM 131953Z AUTO 34005KT 10SM OVC032 16/11 A2989 RMK AO2 SLP123 T01610106=
202106131853 METAR KCLM 131853Z AUTO VRB03KT 10SM OVC032 17/11 A2989 RMK AO2 SLP121 T01720106=
202106131819 SPECI KCLM 131819Z AUTO VRB03KT 10SM FEW021 BKN032 OVC065 17/12 A2989 RMK AO2 T01720117=
202106131753 METAR KCLM 131753Z AUTO VRB03KT 10SM FEW015 OVC021 17/12 A2989 RMK AO2 RAE03 SLP122 P0000 60001 T01670117 10167 20128 51010=
202106131653 METAR KCLM 131653Z AUTO 00000KT 10SM -RA OVC022 16/13 A2989 RMK AO2 RAB52 SLP121 P0000 T01610128=
202106131641 SPECI KCLM 131641Z AUTO 00000KT 10SM BKN023 OVC070 16/12 A2989 RMK AO2 T01560122=
202106131553 METAR KCLM 131553Z AUTO 00000KT 10SM FEW029 SCT050 OVC070 16/13 A2987 RMK AO2 SLP116 T01560133=
202106131453 METAR KCLM 131453Z AUTO 00000KT 10SM BKN050 OVC060 15/13 A2986 RMK AO2 RAB16E48 SLP112 P0001 60001 T01500128 53018=
202106131422 SPECI KCLM 131422Z AUTO 00000KT 10SM -RA FEW010 BKN050 OVC080 15/13 A2985 RMK AO2 RAB16 P0000 T01500128=
202106131407 SPECI KCLM 131407Z AUTO 27003KT 10SM SCT010 BKN027 OVC075 14/13 A2985 RMK AO2 T01440128=
202106131353 METAR KCLM 131353Z AUTO 21003KT 10SM BKN009 OVC060 14/13 A2983 RMK AO2 SLP102 T01440128=
202106131253 METAR KCLM 131253Z AUTO 20003KT 10SM OVC006 13/12 A2982 RMK AO2 RAE00 SLP098 P0000 T01330122=
202106131153 METAR KCLM 131153Z AUTO 28004KT 10SM -RA BKN005 OVC055 13/12 A2981 RMK AO2 SLP094 P0001 60002 70002 T01280117 10150 20117 53013=
202106131145 SPECI KCLM 131145Z AUTO 27009KT 10SM -RA BKN005 OVC060 13/11 A2980 RMK AO2 P0001 T01280111=
202106131137 SPECI KCLM 131137Z AUTO 27008KT 10SM -RA SCT005 OVC060 13/11 A2980 RMK AO2 P0001 T01280111=
202106131053 METAR KCLM 131053Z AUTO 27012KT 10SM -RA BKN055 OVC075 13/11 A2979 RMK AO2 RAB29 SLP086 P0001 T01280111=
202106130953 METAR KCLM 130953Z AUTO 29006KT 10SM BKN060 OVC075 12/10 A2976 RMK AO2 RAE41 SLP078 P0000 T01220100=
202106130853 METAR KCLM 130853Z AUTO 26003KT 10SM -RA BKN075 OVC095 12/09 A2977 RMK AO2 RAB14 SLP081 P0000 60000 T01170094 58014=
202106130753 METAR KCLM 130753Z AUTO 00000KT 10SM SCT060 OVC080 13/09 A2979 RMK AO2 SLP089 T01330094 401890056=
202106130653 METAR KCLM 130653Z AUTO 16003KT 10SM BKN060 OVC080 14/10 A2980 RMK AO2 RAE00 SLP091 P0000 T01440100=
202106130553 METAR KCLM 130553Z AUTO 11006KT 10SM -RA BKN070 OVC095 15/09 A2981 RMK AO2 RAB44 SLP094 P0000 60000 T01500094 10189 20144 55011=
202106130453 METAR KCLM 130453Z AUTO 13003KT 10SM FEW055 BKN100 OVC110 16/09 A2980 RMK AO2 SLP092 T01560094=
202106130353 METAR KCLM 130353Z AUTO 23004KT 10SM OVC085 16/10 A2983 RMK AO2 SLP101 T01610100=
202106130253 METAR KCLM 130253Z AUTO 10004KT 10SM FEW120 17/08 A2984 RMK AO2 SLP105 T01720078 58024=
202106130153 METAR KCLM 130153Z AUTO 10004KT 10SM CLR 18/08 A2987 RMK AO2 SLP113 T01780083=
202106130053 METAR KCLM 130053Z AUTO 09004KT 10SM CLR 18/08 A2989 RMK AO2 SLP122 T01830078=
202106122353 METAR KCLM 122353Z AUTO 00000KT 10SM CLR 18/08 A2991 RMK AO2 SLP131 T01780083 10189 20128 58022=
202106122253 METAR KCLM 122253Z AUTO VRB03KT 10SM CLR 18/08 A2994 RMK AO2 SLP140 T01780083=
202106122153 METAR KCLM 122153Z AUTO VRB05KT 10SM CLR 18/10 A2996 RMK AO2 SLP146 T01830100=
202106122053 METAR KCLM 122053Z AUTO VRB04KT 10SM CLR 18/09 A2998 RMK AO2 SLP152 T01780089 56014=
202106121953 METAR KCLM 121953Z AUTO 34006KT 10SM FEW070 15/09 A3000 RMK AO2 SLP159 T01500094=
202106121853 METAR KCLM 121853Z AUTO VRB03KT 10SM CLR 15/10 A3000 RMK AO2 SLP160 T01500100=
202106121753 METAR KCLM 121753Z AUTO 34005KT 10SM FEW075 13/10 A3002 RMK AO2 SLP167 T01330100 10139 20056 50007=
202106121653 METAR KCLM 121653Z AUTO VRB03KT 10SM BKN070 14/09 A3003 RMK AO2 SLP168 T01390094=
202106121553 METAR KCLM 121553Z AUTO VRB04KT 10SM CLR 13/08 A3002 RMK AO2 SLP166 T01330083=
202106121453 METAR KCLM 121453Z AUTO 35003KT 10SM FEW080 13/09 A3000 RMK AO2 SLP159 T01280089 53009=
202106121353 METAR KCLM 121353Z AUTO 00000KT 9SM OVC080 11/09 A2999 RMK AO2 SLP157 T01110094=
202106121253 METAR KCLM 121253Z AUTO 00000KT 10SM OVC090 08/07 A2998 RMK AO2 SLP153 T00780067=
202106121153 METAR KCLM 121153Z AUTO 00000KT 10SM CLR 06/05 A2998 RMK AO2 SLP151 70002 T00610050 10111 20061 53009=
202106121053 METAR KCLM 121053Z AUTO 00000KT 10SM CLR 07/06 A2996 RMK AO2 SLP148 T00720056=
202106120953 METAR KCLM 120953Z AUTO 00000KT 10SM CLR 08/06 A2995 RMK AO2 SLP144 T00780061=
202106120853 METAR KCLM 120853Z AUTO 00000KT 10SM OVC070 09/07 A2995 RMK AO2 SLP142 T00890072 51006=
202106120753 METAR KCLM 120753Z AUTO 00000KT 10SM BKN075 09/08 A2994 RMK AO2 SLP141 T00940078 401500067=
202106120653 METAR KCLM 120653Z AUTO 14003KT 10SM SCT070 09/08 A2994 RMK AO2 SLP140 T00940078=
202106120553 METAR KCLM 120553Z AUTO 00000KT 10SM FEW041 BKN070 11/09 A2993 RMK AO2 SLP136 T01060089 10150 20106 51014=
202106120453 METAR KCLM 120453Z AUTO 23004KT 10SM FEW030 BKN070 12/09 A2992 RMK AO2 SLP133 T01170089=
202106120353 METAR KCLM 120353Z AUTO 33003KT 10SM FEW070 SCT085 12/09 A2990 RMK AO2 SLP127 T01220089=
202106120253 METAR KCLM 120253Z AUTO 32003KT 10SM OVC085 14/09 A2989 RMK AO2 SLP123 T01440094 51009=
202106120153 METAR KCLM 120153Z AUTO 27005KT 10SM OVC080 14/09 A2989 RMK AO2 SLP121 T01390094=
202106120053 METAR KCLM 120053Z AUTO 29007KT 10SM BKN070 BKN090 14/09 A2988 RMK AO2 SLP119 T01440089=
202106112353 METAR KCLM 112353Z AUTO 33006KT 10SM BKN070 15/08 A2986 RMK AO2 SLP114 60002 T01500083 10150 20111 50002=
202106112253 METAR KCLM 112253Z AUTO 30006KT 10SM OVC065 14/09 A2987 RMK AO2 SLP116 T01390089=
202106112153 METAR KCLM 112153Z AUTO VRB04KT 10SM SCT080 BKN090 BKN110 14/09 A2986 RMK AO2 RAE16 SLP112 P0001 T01390089=
202106112146 SPECI KCLM 112146Z AUTO 29004KT 10SM FEW009 BKN080 BKN090 14/10 A2985 RMK AO2 RAE16 P0001 T01390100=
202106112053 METAR KCLM 112053Z AUTO 29006KT 8SM -RA OVC075 11/08 A2986 RMK AO2 RAB34 SLP112 P0001 60001 T01110083 53002=
202106111953 METAR KCLM 111953Z AUTO 36003KT 10SM OVC100 13/08 A2984 RMK AO2 SLP106 T01280078=
202106111853 METAR KCLM 111853Z AUTO 33003KT 10SM OVC100 13/08 A2984 RMK AO2 SLP107 T01330078=
202106111753 METAR KCLM 111753Z AUTO 30006KT 10SM BKN080 13/08 A2985 RMK AO2 SLP110 T01330078 10139 20072 58018=
202106111653 METAR KCLM 111653Z AUTO 30004KT 10SM SCT075 OVC110 13/08 A2987 RMK AO2 SLP116 T01280078=
202106111553 METAR KCLM 111553Z AUTO 27005KT 10SM SCT080 OVC090 12/08 A2989 RMK AO2 SLP122 T01170078=
202106111453 METAR KCLM 111453Z AUTO 28003KT 10SM OVC075 10/07 A2991 RMK AO2 SLP128 T01000072 56010=
202106111353 METAR KCLM 111353Z AUTO 23004KT 10SM BKN075 OVC100 09/06 A2991 RMK AO2 SLP130 T00940061=
202106111253 METAR KCLM 111253Z AUTO 00000KT 10SM BKN110 08/06 A2992 RMK AO2 SLP132 T00780061=
202106111153 METAR KCLM 111153Z AUTO 00000KT 10SM SCT080 OVC095 08/06 A2993 RMK AO2 SLP138 T00780061 10100 20067 56023=
202106111053 METAR KCLM 111053Z AUTO 00000KT 10SM SCT120 07/06 A2995 RMK AO2 SLP143 T00720056=
202106110953 METAR KCLM 110953Z AUTO 00000KT 10SM CLR 08/06 A2999 RMK AO2 SLP155 T00780061=
202106110853 METAR KCLM 110853Z AUTO 00000KT 10SM SCT110 09/07 A3000 RMK AO2 SLP161 T00940067 58024=
202106110753 METAR KCLM 110753Z AUTO 25004KT 10SM CLR 09/07 A3003 RMK AO2 SLP170 T00890067 401560072=
202106110653 METAR KCLM 110653Z AUTO 00000KT 10SM CLR 10/07 A3005 RMK AO2 SLP177 T01000067=
202106110553 METAR KCLM 110553Z AUTO 00000KT 10SM CLR 09/07 A3007 RMK AO2 SLP185 T00940067 10156 20094 58012=
202106110453 METAR KCLM 110453Z AUTO 00000KT 10SM CLR 11/07 A3009 RMK AO2 SLP190 T01060072=
202106110353 METAR KCLM 110353Z AUTO 23003KT 10SM CLR 12/07 A3010 RMK AO2 SLP195 T01170072=
202106110253 METAR KCLM 110253Z AUTO 00000KT 10SM CLR 12/07 A3011 RMK AO2 SLP197 T01170067 56013=
202106110153 METAR KCLM 110153Z AUTO 29003KT 10SM CLR 13/07 A3013 RMK AO2 SLP202 T01280067=
202106110053 METAR KCLM 110053Z AUTO 36004KT 10SM FEW070 14/06 A3013 RMK AO2 SLP205 T01390061=
202106102353 METAR KCLM 102353Z AUTO 00000KT 10SM SCT047 OVC055 13/07 A3015 RMK AO2 RAB34E51 SLP210 P0000 60000 T01330072 10156 20122 58002=
202106102253 METAR KCLM 102253Z AUTO 34004KT 10SM FEW040 BKN060 OVC075 13/06 A3016 RMK AO2 RAB18E31 SLP213 P0000 T01280061=
202106102153 METAR KCLM 102153Z AUTO 01006KT 10SM BKN055 14/07 A3016 RMK AO2 SLP214 T01390072=
202106102053 METAR KCLM 102053Z AUTO VRB06KT 10SM CLR 14/07 A3015 RMK AO2 SLP212 T01440067 50001=
202106101953 METAR KCLM 101953Z AUTO 08007KT 10SM SCT055 BKN070 14/07 A3016 RMK AO2 SLP213 T01440067=
202106101853 METAR KCLM 101853Z AUTO VRB05KT 10SM BKN048 14/06 A3016 RMK AO2 SLP213 T01390061=
202106101753 METAR KCLM 101753Z AUTO 34006KT 10SM BKN060 13/06 A3015 RMK AO2 SLP211 T01280061 10139 20083 50003=
202106101653 METAR KCLM 101653Z AUTO 36003KT 10SM BKN060 12/07 A3015 RMK AO2 SLP212 T01220072=
202106101553 METAR KCLM 101553Z AUTO 28004KT 10SM BKN055 12/07 A3015 RMK AO2 SLP209 T01170067=
202106101453 METAR KCLM 101453Z AUTO 26004KT 10SM OVC055 11/06 A3014 RMK AO2 SLP208 T01060056 53003=
202106101353 METAR KCLM 101353Z AUTO 26004KT 10SM BKN055 08/05 A3014 RMK AO2 SLP206 T00830050=
202106101253 METAR KCLM 101253Z AUTO 25009KT 10SM OVC045 08/05 A3013 RMK AO2 SLP205 T00830050=
202106101153 METAR KCLM 101153Z AUTO 24008KT 10SM OVC048 09/05 A3013 RMK AO2 SLP205 70010 T00890050 10094 20072 53004=
202106101053 METAR KCLM 101053Z AUTO 26007KT 10SM BKN047 08/06 A3013 RMK AO2 SLP203 T00780056=
202106100953 METAR KCLM 100953Z AUTO 25008KT 10SM SCT050 BKN065 08/06 A3012 RMK AO2 SLP201 T00780056=
202106100853 METAR KCLM 100853Z AUTO 27006KT 10SM SCT075 08/06 A3012 RMK AO2 SLP201 T00780061 55000=
202106100753 METAR KCLM 100753Z AUTO 24007KT 10SM CLR 09/07 A3011 RMK AO2 SLP198 T00890072 401610067=
202106100653 METAR KCLM 100653Z AUTO 26008KT 10SM CLR 09/07 A3011 RMK AO2 SLP196 T00890072=
202106100553 METAR KCLM 100553Z AUTO 27008KT 10SM BKN100 09/08 A3012 RMK AO2 SLP201 60010 T00940078 10128 20094 58003=
202106100453 METAR KCLM 100453Z AUTO 26010KT 10SM CLR 09/08 A3013 RMK AO2 SLP203 T00940078=
202106100353 METAR KCLM 100353Z AUTO 26007KT 10SM SCT060 11/09 A3013 RMK AO2 SLP205 T01110094=
202106100253 METAR KCLM 100253Z AUTO 28005KT 10SM OVC065 12/10 A3013 RMK AO2 RAE35 SLP204 P0002 60010 T01170100 58004=
202106100153 METAR KCLM 100153Z AUTO 28004KT 4SM -RA BR BKN060 OVC070 12/10 A3014 RMK AO2 SLP207 P0005 T01220100=
202106100143 SPECI KCLM 100143Z AUTO 25004KT 7SM -RA OVC060 12/10 A3014 RMK AO2 P0004 T01220100=
202106100134 SPECI KCLM 100134Z AUTO 25004KT 2SM -RA OVC060 12/09 A3014 RMK AO2 P0003 T01220094=
202106100053 METAR KCLM 100053Z AUTO 31003KT 5SM -RA OVC060 12/09 A3014 RMK AO2 RAE08B35 SLP207 P0003 T01220094=
202106092353 METAR KCLM 092353Z AUTO 27006KT 10SM -RA SCT047 OVC065 12/08 A3014 RMK AO2 RAB18 SLP208 P0000 60000 T01220083 10161 20117 53000=
202106092253 METAR KCLM 092253Z AUTO 35006KT 10SM BKN046 OVC065 12/07 A3014 RMK AO2 SLP206 T01220072=
202106092153 METAR KCLM 092153Z AUTO 32006KT 10SM OVC046 14/06 A3014 RMK AO2 SLP206 T01390061=
202106092053 METAR KCLM 092053Z AUTO 34006KT 10SM BKN040 14/07 A3014 RMK AO2 SLP208 T01390072 53000=
202106091953 METAR KCLM 091953Z AUTO 35007KT 10SM FEW050 13/07 A3014 RMK AO2 SLP206 T01280067=
202106091853 METAR KCLM 091853Z AUTO 01006KT 10SM FEW075 14/07 A3014 RMK AO2 SLP207 T01390067=
202106091753 METAR KCLM 091753Z AUTO 08009KT 10SM BKN075 14/06 A3014 RMK AO2 SLP207 T01440061 10150 20072 53003=
202106091653 METAR KCLM 091653Z AUTO VRB05KT 10SM BKN065 13/07 A3014 RMK AO2 SLP207 T01280067=
202106091553 METAR KCLM 091553Z AUTO 34003KT 10SM SCT060 13/06 A3013 RMK AO2 SLP205 T01280056=
202106091453 METAR KCLM 091453Z AUTO 28005KT 10SM CLR 12/04 A3013 RMK AO2 SLP204 T01170044 51009=
202106091353 METAR KCLM 091353Z AUTO 27008KT 10SM CLR 09/04 A3012 RMK AO2 SLP202 T00890044=
202106091253 METAR KCLM 091253Z AUTO 24006KT 10SM CLR 07/04 A3011 RMK AO2 SLP198 T00720044=
202106091153 METAR KCLM 091153Z AUTO VRB03KT 10SM CLR 07/05 A3011 RMK AO2 SLP195 T00720050 10106 20067 51005=
202106091053 METAR KCLM 091053Z AUTO 24006KT 10SM FEW041 08/06 A3010 RMK AO2 SLP194 T00830056=
202106090953 METAR KCLM 090953Z AUTO 25005KT 10SM BKN033 OVC041 09/07 A3010 RMK AO2 SLP193 T00940067=
202106090915 SPECI KCLM 090915Z AUTO 00000KT 10SM OVC030 09/07 A3009 RMK AO2 T00940067=
202106090853 METAR KCLM 090853Z AUTO 00000KT 10SM OVC026 10/07 A3009 RMK AO2 SLP190 T01000067 53002=
202106090753 METAR KCLM 090753Z AUTO 31004KT 10SM OVC025 10/07 A3008 RMK AO2 SLP187 T01000067 401610061=
202106090735 SPECI KCLM 090735Z AUTO 29003KT 10SM BKN025 BKN120 09/07 A3008 RMK AO2 T00890067=
202106090653 METAR KCLM 090653Z AUTO 25003KT 10SM BKN120 10/07 A3009 RMK AO2 SLP189 T01000072=
202106090553 METAR KCLM 090553Z AUTO 27006KT 10SM FEW120 10/07 A3009 RMK AO2 SLP189 T01000072 10161 20100 51013=
202106090503 SPECI KCLM 090503Z AUTO 27010KT 10SM FEW029 OVC042 11/08 A3009 RMK AO2 T01110078=
202106090453 METAR KCLM 090453Z AUTO 28011KT 10SM BKN029 OVC040 11/08 A3008 RMK AO2 SLP188 T01110078=
202106090423 SPECI KCLM 090423Z AUTO 26008KT 10SM BKN028 BKN041 12/08 A3007 RMK AO2 T01170078=
202106090353 METAR KCLM 090353Z AUTO 28008KT 10SM FEW026 11/07 A3006 RMK AO2 SLP182 T01110072=
202106090253 METAR KCLM 090253Z AUTO 28010KT 10SM OVC095 13/08 A3005 RMK AO2 SLP175 T01330078 53011=
202106090153 METAR KCLM 090153Z AUTO 30009KT 10SM BKN065 BKN110 13/08 A3003 RMK AO2 SLP169 T01330078=
202106090053 METAR KCLM 090053Z AUTO 26007KT 10SM FEW070 16/07 A3001 RMK AO2 SLP162 T01610072=
202106082353 METAR KCLM 082353Z AUTO 26010KT 10SM FEW060 BKN075 BKN085 13/08 A3001 RMK AO2 RAB05E30 SLP164 P0000 60000 T01330078 10161 20117 51006=
202106082253 METAR KCLM 082253Z AUTO 30008KT 10SM OVC070 13/08 A3001 RMK AO2 SLP163 T01280078=
202106082153 METAR KCLM 082153Z AUTO VRB03KT 10SM OVC060 14/07 A3001 RMK AO2 SLP162 T01440067=
202106082053 METAR KCLM 082053Z AUTO VRB04KT 10SM FEW100 15/08 A3000 RMK AO2 SLP159 T01500078 53003=
202106081953 METAR KCLM 081953Z AUTO 34005KT 10SM BKN100 15/07 A2999 RMK AO2 SLP157 T01500072=
202106081853 METAR KCLM 081853Z AUTO 00000KT 10SM BKN095 13/08 A2999 RMK AO2 SLP157 T01330078=
202106081753 METAR KCLM 081753Z AUTO 36005KT 10SM CLR 13/07 A2999 RMK AO2 SLP155 T01280067 10133 20061 51004=
202106081653 METAR KCLM 081653Z AUTO 35004KT 10SM BKN070 13/07 A2998 RMK AO2 SLP154 T01330072=
202106081553 METAR KCLM 081553Z AUTO 36004KT 10SM CLR 12/07 A2998 RMK AO2 SLP153 T01220072=
202106081453 METAR KCLM 081453Z AUTO 27004KT 10SM CLR 11/06 A2997 RMK AO2 SLP151 T01110056 51004=
202106081353 METAR KCLM 081353Z AUTO 25004KT 10SM CLR 09/06 A2997 RMK AO2 SLP150 T00890056=
202106081253 METAR KCLM 081253Z AUTO 25004KT 10SM CLR 07/04 A2997 RMK AO2 SLP148 T00670044=
202106081153 METAR KCLM 081153Z AUTO 24005KT 10SM SCT043 06/04 A2996 RMK AO2 SLP146 T00610039 10089 20061 53002=
202106081053 METAR KCLM 081053Z AUTO 27008KT 10SM CLR 07/05 A2995 RMK AO2 SLP143 T00720050=
202106080953 METAR KCLM 080953Z AUTO 24005KT 10SM BKN070 08/06 A2995 RMK AO2 SLP144 T00830056=
202106080853 METAR KCLM 080853Z AUTO 25006KT 10SM CLR 09/06 A2995 RMK AO2 SLP144 T00890061 58001=
202106080753 METAR KCLM 080753Z AUTO 25005KT 10SM CLR 07/05 A2996 RMK AO2 SLP145 T00720050 401610061=
202106080653 METAR KCLM 080653Z AUTO 24004KT 10SM CLR 07/06 A2996 RMK AO2 SLP147 T00720056=
202106080553 METAR KCLM 080553Z AUTO 23004KT 10SM CLR 08/06 A2996 RMK AO2 SLP145 T00830056 10150 20083 51003=
202106080453 METAR KCLM 080453Z AUTO 25005KT 10SM CLR 09/06 A2996 RMK AO2 SLP145 T00940061=
202106080353 METAR KCLM 080353Z AUTO 29003KT 10SM CLR 11/06 A2995 RMK AO2 SLP143 T01060061=
202106080253 METAR KCLM 080253Z AUTO 30006KT 10SM OVC100 12/06 A2995 RMK AO2 SLP142 T01220061 55002=
202106080153 METAR KCLM 080153Z AUTO 32009KT 10SM FEW065 OVC085 13/07 A2995 RMK AO2 SLP142 T01330067=
202106080053 METAR KCLM 080053Z AUTO VRB04KT 10SM FEW070 OVC085 13/05 A2995 RMK AO2 SLP142 T01330050=
202106072353 METAR KCLM 072353Z AUTO VRB04KT 10SM OVC080 14/06 A2996 RMK AO2 SLP145 T01440056 10161 20117 58003=
202106072253 METAR KCLM 072253Z AUTO VRB05KT 10SM FEW060 15/06 A2996 RMK AO2 SLP146 T01500056=
202106072153 METAR KCLM 072153Z AUTO 08007KT 030V100 10SM FEW049 SCT080 15/06 A2996 RMK AO2 SLP147 T01500056=
202106072053 METAR KCLM 072053Z AUTO VRB04KT 10SM OVC055 13/03 A2997 RMK AO2 SLP148 T01330033 50001=
202106071953 METAR KCLM 071953Z AUTO 09005KT 10SM BKN046 OVC055 13/05 A2997 RMK AO2 SLP150 T01330050=
202106071853 METAR KCLM 071853Z AUTO VRB05KT 10SM SCT042 BKN055 12/05 A2997 RMK AO2 SLP150 T01170050=
202106071753 METAR KCLM 071753Z AUTO VRB05KT 10SM BKN060 12/05 A2996 RMK AO2 SLP147 T01170050 10122 20061 51010=
202106071653 METAR KCLM 071653Z AUTO 01005KT 10SM CLR 11/06 A2996 RMK AO2 SLP145 T01110056=
202106071553 METAR KCLM 071553Z AUTO VRB03KT 10SM CLR 11/06 A2995 RMK AO2 SLP141 T01060061=
202106071453 METAR KCLM 071453Z AUTO 34005KT 10SM CLR 10/06 A2993 RMK AO2 SLP137 T01000061 51012=
202106071353 METAR KCLM 071353Z AUTO 30004KT 10SM CLR 09/06 A2992 RMK AO2 SLP133 T00890056=
202106071253 METAR KCLM 071253Z AUTO 24006KT 10SM SCT050 07/05 A2992 RMK AO2 SLP131 T00720050=
202106071153 METAR KCLM 071153Z AUTO 27005KT 10SM SCT028 BKN050 07/04 A2990 RMK AO2 SLP125 60000 70007 T00670044 10083 20061 51016=
202106071053 METAR KCLM 071053Z AUTO 26007KT 10SM FEW045 SCT070 07/05 A2989 RMK AO2 SLP122 T00720050=
202106070953 METAR KCLM 070953Z AUTO 25004KT 10SM BKN041 BKN060 OVC075 08/06 A2987 RMK AO2 RAE11 SLP116 P0000 T00780056=
202106070853 METAR KCLM 070853Z AUTO 27005KT 10SM -RA OVC055 08/06 A2985 RMK AO2 RAB25 SLP110 P0000 60000 T00830056 53009=
202106070753 METAR KCLM 070753Z AUTO 25007KT 10SM BKN042 OVC055 08/06 A2983 RMK AO2 SLP103 T00830056 401220061=
202106070653 METAR KCLM 070653Z AUTO 24004KT 10SM BKN037 OVC090 08/06 A2983 RMK AO2 SLP101 T00780061=
202106070553 METAR KCLM 070553Z AUTO 20003KT 10SM FEW100 07/06 A2983 RMK AO2 SLP100 60004 T00720061 10111 20072 51005=
202106070453 METAR KCLM 070453Z AUTO 30003KT 10SM FEW005 BKN095 BKN110 08/07 A2982 RMK AO2 SLP099 T00830067=
202106070428 SPECI KCLM 070428Z AUTO 27004KT 10SM FEW006 BKN110 09/07 A2983 RMK AO2 T00890072=
202106070353 METAR KCLM 070353Z AUTO 34003KT 10SM FEW050 FEW070 OVC090 09/08 A2982 RMK AO2 RAE42 SLP098 P0001 T00940078=
202106070253 METAR KCLM 070253Z AUTO 31003KT 10SM -RA OVC055 11/08 A2981 RMK AO2 RAB37 SLP096 P0000 60003 T01110078 58005=
202106070153 METAR KCLM 070153Z AUTO 00000KT 10SM FEW110 11/07 A2982 RMK AO2 SLP098 T01060072=
202106070053 METAR KCLM 070053Z AUTO 00000KT 10SM SCT033 BKN090 BKN110 10/08 A2983 RMK AO2 RAB06E49 SLP101 P0003 T01000083=
202106070048 SPECI KCLM 070048Z AUTO 00000KT 10SM -RA SCT031 BKN055 OVC110 10/08 A2983 RMK AO2 RAB06 P0003=
202106070040 SPECI KCLM 070040Z AUTO 00000KT 2SM -RA BR BKN033 BKN050 OVC090 10/08 A2982 RMK AO2 RAB06 P0003 T01000078=
202106062353 METAR KCLM 062353Z AUTO VRB05KT 10SM SCT085 SCT120 11/07 A2983 RMK AO2 SLP103 60003 T01110067 10122 20100 56016=
202106062253 METAR KCLM 062253Z AUTO VRB03KT 10SM CLR 12/07 A2984 RMK AO2 RAE27 SLP105 P0001 T01170072=
202106062153 METAR KCLM 062153Z AUTO 29005KT 7SM -RA FEW006 BKN050 OVC060 11/08 A2987 RMK AO2 SLP115 P0002 T01060078=
202106062128 SPECI KCLM 062128Z AUTO 33003KT 5SM -RA BR FEW006 OVC049 11/08 A2987 RMK AO2 P0001 T01060083=
202106062053 METAR KCLM 062053Z AUTO 33004KT 8SM -RA OVC048 10/08 A2988 RMK AO2 RAB06 SLP119 P0000 60000 T01000078 56010=
202106061953 METAR KCLM 061953Z AUTO 35004KT 10SM OVC050 11/07 A2988 RMK AO2 RAB38E49 SLP119 P0000 T01060067=
202106061853 METAR KCLM 061853Z AUTO VRB04KT 10SM SCT070 11/07 A2989 RMK AO2 SLP124 T01110067=
202106061753 METAR KCLM 061753Z AUTO VRB03KT 10SM OVC065 11/06 A2991 RMK AO2 SLP129 60000 T01110061 10111 20078 58021=
202106061653 METAR KCLM 061653Z AUTO 00000KT 10SM SCT055 OVC080 10/06 A2993 RMK AO2 RAB12E24 SLP136 P0000 T01000061=
202106061553 METAR KCLM 061553Z AUTO 00000KT 10SM SCT055 BKN075 OVC100 10/06 A2996 RMK AO2 SLP148 T01000061=
202106061453 METAR KCLM 061453Z AUTO 00000KT 10SM FEW120 09/06 A2997 RMK AO2 SLP151 T00940061 58017=
202106061353 METAR KCLM 061353Z AUTO 00000KT 10SM CLR 08/06 A3000 RMK AO2 SLP159 T00830056=
202106061253 METAR KCLM 061253Z AUTO 12004KT 10SM BKN065 08/05 A3001 RMK AO2 SLP164 T00830050=
202106061153 METAR KCLM 061153Z AUTO 00000KT 10SM FEW036 OVC060 08/05 A3002 RMK AO2 SLP168 70005 T00780050 10100 20072 56014=
202106061053 METAR KCLM 061053Z AUTO 16003KT 10SM OVC060 08/05 A3003 RMK AO2 SLP171 T00830050=
202106060953 METAR KCLM 060953Z AUTO 00000KT 10SM OVC060 09/04 A3005 RMK AO2 SLP177 T00940044=
202106060853 METAR KCLM 060853Z AUTO 00000KT 10SM OVC055 08/04 A3006 RMK AO2 SLP181 T00830039 58004=
202106060753 METAR KCLM 060753Z AUTO 29006KT 10SM OVC060 09/04 A3007 RMK AO2 SLP185 T00940039 401440089=
202106060653 METAR KCLM 060653Z AUTO 25007KT 10SM SCT055 09/03 A3008 RMK AO2 SLP187 T00940033=
202106060553 METAR KCLM 060553Z AUTO 22005KT 10SM CLR 09/04 A3008 RMK AO2 SLP185 T00890039 10144 20089 53004=
202106060453 METAR KCLM 060453Z AUTO 31009KT 10SM BKN060 11/04 A3007 RMK AO2 SLP183 T01060044=
202106060353 METAR KCLM 060353Z AUTO 31010KT 10SM BKN050 11/06 A3007 RMK AO2 SLP182 T01060056=
202106060253 METAR KCLM 060253Z AUTO 28012G19KT 10SM SCT060 12/04 A3006 RMK AO2 SLP182 T01170039 51009=
202106060153 METAR KCLM 060153Z AUTO 29016G24KT 10SM OVC055 13/04 A3006 RMK AO2 PK WND 30027/0109 SLP179 T01280044=
202106060053 METAR KCLM 060053Z AUTO 31011G21KT 10SM BKN050 12/07 A3005 RMK AO2 SLP176 T01220067=
202106052353 METAR KCLM 052353Z AUTO 31012G22KT 10SM BKN060 13/07 A3004 RMK AO2 PK WND 33027/2306 SLP172 T01280067 10144 20117 53010=
202106052253 METAR KCLM 052253Z AUTO 32013G23KT 10SM BKN060 13/07 A3003 RMK AO2 PK WND 30027/2203 SLP169 T01280067=
202106052153 METAR KCLM 052153Z AUTO 32017G24KT 10SM SCT050 BKN060 14/07 A3001 RMK AO2 PK WND 30028/2106 SLP164 T01390067=
202106052053 METAR KCLM 052053Z AUTO 31015G25KT 10SM FEW040 OVC060 13/07 A3001 RMK AO2 PK WND 28027/2018 SLP162 T01280072 51011=
202106051953 METAR KCLM 051953Z AUTO 31013G24KT 10SM SCT050 BKN060 14/07 A3000 RMK AO2 SLP160 T01390072=
202106051853 METAR KCLM 051853Z AUTO 32010G20KT 10SM FEW027 SCT040 BKN055 12/08 A3000 RMK AO2 SLP159 T01170078=
202106051753 METAR KCLM 051753Z AUTO 32011G20KT 10SM BKN055 BKN080 14/09 A2997 RMK AO2 SLP150 60005 T01440089 10144 20094 50002=
202106051721 SPECI KCLM 051721Z AUTO 29012G19KT 10SM FEW023 BKN060 OVC070 13/09 A2998 RMK AO2 T01280094=
202106051653 METAR KCLM 051653Z AUTO 31010KT 10SM FEW009 BKN024 OVC049 12/09 A2998 RMK AO2 SLP151 T01170089=
202106051650 SPECI KCLM 051650Z AUTO 30010G16KT 10SM FEW009 BKN024 OVC049 12/09 A2997 RMK AO2=
202106051611 SPECI KCLM 051611Z AUTO 31007KT 10SM SCT012 BKN018 OVC044 11/09 A2997 RMK AO2 T01060089=
202106051553 METAR KCLM 051553Z AUTO 31009KT 10SM BKN013 OVC050 11/09 A2997 RMK AO2 RAB37E53 SLP149 P0001 T01060089=
202106051536 SPECI KCLM 051536Z AUTO 31006KT 10SM FEW009 BKN015 OVC046 11/09 A2996 RMK AO2 T01060089=
202106051527 SPECI KCLM 051527Z AUTO 34005KT 10SM FEW005 BKN014 OVC055 11/09 A2996 RMK AO2 T01110094=
202106051453 METAR KCLM 051453Z AUTO 30004KT 10SM FEW006 SCT017 OVC050 11/09 A2995 RMK AO2 RAB24E39 SLP143 P0000 60004 T01060089 51011=
202106051417 SPECI KCLM 051417Z AUTO 27005KT 10SM SCT026 BKN031 OVC060 11/09 A2995 RMK AO2 T01110089=
202106051353 METAR KCLM 051353Z AUTO 00000KT 10SM FEW016 OVC022 11/09 A2994 RMK AO2 RAE41 SLP140 P0002 T01060089=
202106051253 METAR KCLM 051253Z AUTO 23004KT 3SM -RA BR BKN017 OVC024 10/08 A2994 RMK AO2 RAB29 SLP137 P0002 T01000083=
202106051203 SPECI KCLM 051203Z AUTO 34003KT 10SM BKN024 BKN030 OVC048 10/08 A2992 RMK AO2 T01000083=
202106051153 METAR KCLM 051153Z AUTO 35004KT 10SM SCT023 BKN030 OVC049 09/08 A2992 RMK AO2 RAE32 SLP132 P0002 60003 70003 T00940083 10122 20094 58005=
202106051145 SPECI KCLM 051145Z AUTO 00000KT 10SM SCT021 BKN030 OVC049 10/08 A2992 RMK AO2 RAE32 P0002 T01000083=
202106051053 METAR KCLM 051053Z AUTO 18003KT 10SM -RA BKN023 OVC030 10/08 A2994 RMK AO2 RAE07B36 SLP137 P0000 T01000078=
202106051041 SPECI KCLM 051041Z AUTO 00000KT 10SM -RA OVC029 10/08 A2993 RMK AO2 RAE07B36 P0000 T01000083=
202106050953 METAR KCLM 050953Z AUTO 00000KT 10SM -RA BKN050 OVC070 10/07 A2993 RMK AO2 RAE01B20 SLP135 P0001 T01000072=
202106050853 METAR KCLM 050853Z AUTO 00000KT 9SM -RA SCT043 BKN060 OVC080 11/07 A2994 RMK AO2 RAB30 SLP137 P0000 60000 T01060067 55009=
202106050753 METAR KCLM 050753Z AUTO 13003KT 10SM BKN065 OVC080 11/06 A2993 RMK AO2 SLP136 T01060061 401780094=
202106050653 METAR KCLM 050653Z AUTO VRB03KT 10SM CLR 11/06 A2994 RMK AO2 SLP140 T01110061=
202106050553 METAR KCLM 050553Z AUTO 27005KT 10SM BKN060 BKN075 12/05 A2996 RMK AO2 SLP146 T01220050 10167 20122 56015=
202106050453 METAR KCLM 050453Z AUTO 31004KT 10SM BKN065 13/06 A2997 RMK AO2 SLP149 T01280056=
202106050353 METAR KCLM 050353Z AUTO 29003KT 10SM OVC060 13/06 A2999 RMK AO2 SLP155 T01330061=
202106050253 METAR KCLM 050253Z AUTO 00000KT 10SM BKN060 14/07 A3001 RMK AO2 SLP161 T01440067 58013=
202106050153 METAR KCLM 050153Z AUTO 29003KT 10SM SCT075 16/07 A3001 RMK AO2 SLP164 T01560067=
202106050053 METAR KCLM 050053Z AUTO 33003KT 10SM SCT070 SCT095 16/06 A3004 RMK AO2 SLP172 T01560061=
202106042353 METAR KCLM 042353Z AUTO 35006KT 10SM BKN090 17/07 A3005 RMK AO2 SLP174 60000 T01670067 10178 20133 58015=
202106042253 METAR KCLM 042253Z AUTO 33007KT 300V360 10SM BKN070 BKN110 17/08 A3007 RMK AO2 SLP183 T01720083=
202106042153 METAR KCLM 042153Z AUTO 31006KT 10SM FEW035 BKN090 BKN100 16/08 A3007 RMK AO2 RAB26E39 SLP184 P0000 T01560078=
202106042053 METAR KCLM 042053Z AUTO 30009KT 10SM OVC080 15/08 A3009 RMK AO2 SLP190 T01500078 50003=
202106041953 METAR KCLM 041953Z AUTO 35003KT 10SM BKN060 15/08 A3010 RMK AO2 SLP192 T01500078=
202106041853 METAR KCLM 041853Z AUTO 30008KT 10SM FEW070 OVC090 14/08 A3010 RMK AO2 SLP194 T01440083=
202106041753 METAR KCLM 041753Z AUTO 29008KT 10SM CLR 14/08 A3008 RMK AO2 SLP187 T01440078 10144 20100 50005=
202106041653 METAR KCLM 041653Z AUTO 30008KT 10SM CLR 13/07 A3009 RMK AO2 SLP189 T01330072 TSNO=
202106041553 METAR KCLM 041553Z AUTO 31008KT 10SM CLR 13/07 A3008 RMK AO2 SLP187 T01330067=
202106041453 METAR KCLM 041453Z AUTO 29008KT 10SM CLR 12/06 A3007 RMK AO2 SLP183 T01220061 53007=
202106041353 METAR KCLM 041353Z AUTO 29009KT 10SM CLR 12/06 A3006 RMK AO2 SLP178 T01220056=
202106041253 METAR KCLM 041253Z AUTO 28009KT 10SM CLR 11/05 A3005 RMK AO2 SLP177 T01060050=
202106041153 METAR KCLM 041153Z AUTO 20004KT 10SM CLR 11/04 A3005 RMK AO2 SLP174 T01060044 10117 20094 53006=
202106041053 METAR KCLM 041053Z AUTO 28006KT 10SM CLR 10/05 A3003 RMK AO2 SLP170 T01000050=
202106040953 METAR KCLM 040953Z AUTO 27010KT 10SM CLR 11/03 A3002 RMK AO2 SLP166 T01110033=
202106040853 METAR KCLM 040853Z AUTO 26005KT 10SM CLR 09/04 A3003 RMK AO2 SLP168 T00940044 53006=
202106040753 METAR KCLM 040753Z AUTO 27009KT 10SM CLR 11/03 A3002 RMK AO2 SLP165 T01110033 401830100=
202106040653 METAR KCLM 040653Z AUTO 27008KT 10SM CLR 11/04 A3001 RMK AO2 SLP161 T01110044=
202106040553 METAR KCLM 040553Z AUTO 28014KT 10SM CLR 10/07 A3001 RMK AO2 SLP161 T01000072 10150 20100 53008=
202106040453 METAR KCLM 040453Z AUTO 28012KT 10SM CLR 10/08 A3000 RMK AO2 SLP159 T01000078=
202106040411 SPECI KCLM 040411Z AUTO 29011KT 10SM SCT008 11/08 A2999 RMK AO2 T01060083=
202106040353 METAR KCLM 040353Z AUTO 28009KT 10SM BKN008 11/08 A2998 RMK AO2 SLP153 T01060083=
202106040350 SPECI KCLM 040350Z AUTO 28010KT 10SM BKN009 11/08 A2998 RMK AO2=
202106040306 SPECI KCLM 040306Z AUTO 28010G19KT 10SM SCT008 12/09 A2998 RMK AO2 T01170089=
202106040253 METAR KCLM 040253Z AUTO 29014G21KT 10SM BKN008 12/09 A2998 RMK AO2 SLP152 T01170089 58007=
202106040214 SPECI KCLM 040214Z AUTO 29015G22KT 10SM BKN009 12/09 A2998 RMK AO2 T01170089=
202106040153 METAR KCLM 040153Z AUTO 28014KT 10SM BKN010 13/09 A2999 RMK AO2 SLP155 T01280089=
202106040128 SPECI KCLM 040128Z AUTO 28009KT 10SM BKN011 13/09 A2999 RMK AO2 T01330089=
202106040053 METAR KCLM 040053Z AUTO 30012G21KT 10SM CLR 14/09 A3000 RMK AO2 SLP159 T01390094=
202106032353 METAR KCLM 032353Z AUTO 31014G20KT 10SM CLR 15/10 A3000 RMK AO2 SLP159 T01500100 10183 20144 55002=
202106032253 METAR KCLM 032253Z AUTO 31008G16KT 10SM CLR 16/11 A3000 RMK AO2 SLP158 T01610106=
202106032153 METAR KCLM 032153Z AUTO 29007KT 10SM BKN044 17/11 A3001 RMK AO2 SLP160 T01670111=
202106032053 METAR KCLM 032053Z AUTO 31011KT 10SM CLR 17/11 A3001 RMK AO2 SLP161 T01720111 50000=
202106031953 METAR KCLM 031953Z AUTO 31009KT 10SM CLR 17/12 A3001 RMK AO2 SLP162 T01720117=
202106031853 METAR KCLM 031853Z AUTO 32008G16KT 10SM CLR 17/12 A3002 RMK AO2 SLP165 T01670117=
202106031753 METAR KCLM 031753Z AUTO 31011G18KT 10SM CLR 15/12 A3001 RMK AO2 SLP161 T01500117 10178 20128 53003=
202106031653 METAR KCLM 031653Z AUTO 31010KT 10SM CLR 16/12 A3000 RMK AO2 SLP158 T01610122=
202106031553 METAR KCLM 031553Z AUTO 31007KT 10SM CLR 17/13 A2999 RMK AO2 SLP156 T01670128=
202106031453 METAR KCLM 031453Z AUTO 27010KT 10SM FEW007 SCT120 15/12 A3000 RMK AO2 SLP158 T01500122 53013=
202106031435 SPECI KCLM 031435Z AUTO 27008KT 10SM FEW007 SCT110 14/12 A2999 RMK AO2 T01440117=
202106031353 METAR KCLM 031353Z AUTO 29009KT 10SM CLR 14/11 A2998 RMK AO2 SLP153 T01440111=
202106031253 METAR KCLM 031253Z AUTO 28006KT 10SM BKN100 14/12 A2996 RMK AO2 SLP146 T01440117=
202106031153 METAR KCLM 031153Z AUTO 27004KT 10SM FEW095 13/11 A2996 RMK AO2 SLP145 T01330106 10161 20122 53000=
202106031053 METAR KCLM 031053Z AUTO 29009KT 10SM CLR 13/10 A2996 RMK AO2 SLP146 T01280100=
202106030953 METAR KCLM 030953Z AUTO 27010KT 10SM CLR 15/11 A2995 RMK AO2 SLP141 T01500111=
202106030853 METAR KCLM 030853Z AUTO 29007KT 10SM CLR 16/11 A2996 RMK AO2 SLP144 T01560111 51005=
202106030753 METAR KCLM 030753Z AUTO 26009KT 10SM CLR 16/11 A2996 RMK AO2 SLP144 T01610111 402220122=
202106030653 METAR KCLM 030653Z AUTO 28010KT 10SM CLR 16/11 A2995 RMK AO2 SLP141 T01560111=
202106030553 METAR KCLM 030553Z AUTO 28007KT 10SM CLR 15/12 A2994 RMK AO2 SLP139 T01500117 10211 20150 55003=
202106030453 METAR KCLM 030453Z AUTO 28006KT 10SM CLR 16/12 A2994 RMK AO2 SLP139 T01560117=
202106030353 METAR KCLM 030353Z AUTO 28007KT 10SM CLR 16/12 A2994 RMK AO2 SLP139 T01610117=
202106030253 METAR KCLM 030253Z AUTO 29011KT 10SM CLR 18/12 A2995 RMK AO2 SLP142 T01780122 50000=
202106030153 METAR KCLM 030153Z AUTO 29015G23KT 10SM CLR 18/12 A2995 RMK AO2 SLP143 T01830117=
202106030053 METAR KCLM 030053Z AUTO 28018G26KT 10SM CLR 19/12 A2995 RMK AO2 PK WND 30026/0051 SLP142 T01940122=
202106022353 METAR KCLM 022353Z AUTO 28016G20KT 10SM CLR 21/13 A2995 RMK AO2 SLP141 T02110128 10222 20178 58007=
202106022253 METAR KCLM 022253Z AUTO 30010G21KT 10SM CLR 22/13 A2996 RMK AO2 SLP145 T02170133=
202106022153 METAR KCLM 022153Z AUTO 31014G21KT 10SM CLR 21/13 A2997 RMK AO2 SLP148 T02110128=
202106022053 METAR KCLM 022053Z AUTO 30012KT 10SM CLR 22/13 A2997 RMK AO2 SLP149 T02170133 50001=
202106021953 METAR KCLM 021953Z AUTO 28015G19KT 10SM CLR 21/14 A2998 RMK AO2 SLP150 T02060139=
202106021853 METAR KCLM 021853Z AUTO 31013G17KT 10SM CLR 18/13 A2997 RMK AO2 SLP149 T01780133=
202106021753 METAR KCLM 021753Z AUTO 35007KT 10SM CLR 18/13 A2997 RMK AO2 SLP149 T01780133 10183 20128 51012=
202106021653 METAR KCLM 021653Z AUTO 31009KT 10SM CLR 18/12 A2997 RMK AO2 SLP146 T01780122=
202106021553 METAR KCLM 021553Z AUTO 30008KT 10SM CLR 17/12 A2995 RMK AO2 SLP140 T01670117=
202106021453 METAR KCLM 021453Z AUTO 32003KT 10SM CLR 17/12 A2994 RMK AO2 SLP136 T01670122 53012=
202106021353 METAR KCLM 021353Z AUTO 00000KT 10SM CLR 16/12 A2992 RMK AO2 SLP129 T01560117=
202106021253 METAR KCLM 021253Z AUTO 00000KT 10SM CLR 13/11 A2991 RMK AO2 SLP127 T01280106=
202106021153 METAR KCLM 021153Z AUTO 28003KT 10SM CLR 14/11 A2990 RMK AO2 SLP124 T01390106 10194 20122 53007=
202106021053 METAR KCLM 021053Z AUTO 14003KT 10SM CLR 14/11 A2988 RMK AO2 SLP118 T01390106=
202106020953 METAR KCLM 020953Z AUTO 07003KT 10SM CLR 13/10 A2988 RMK AO2 SLP117 T01280100=
202106020853 METAR KCLM 020853Z AUTO 27008KT 10SM CLR 19/11 A2988 RMK AO2 SLP117 T01890106 58006=
202106020753 METAR KCLM 020753Z AUTO 30006KT 10SM CLR 15/12 A2990 RMK AO2 SLP123 T01500117 402940111=
202106020653 METAR KCLM 020653Z AUTO 30006KT 10SM CLR 19/11 A2989 RMK AO2 SLP121 T01890106=
202106020553 METAR KCLM 020553Z AUTO 29003KT 10SM CLR 16/12 A2990 RMK AO2 SLP123 T01560122 10294 20150 56012=
202106020453 METAR KCLM 020453Z AUTO 00000KT 10SM CLR 17/12 A2991 RMK AO2 SLP126 T01720122=
202106020353 METAR KCLM 020353Z AUTO 28004KT 10SM CLR 19/12 A2991 RMK AO2 SLP128 T01940122=
202106020253 METAR KCLM 020253Z AUTO 28007KT 10SM CLR 20/12 A2993 RMK AO2 SLP135 T02000122 56012=
202106020153 METAR KCLM 020153Z AUTO 29008KT 10SM CLR 20/12 A2994 RMK AO2 SLP136 T02000117=
202106020053 METAR KCLM 020053Z AUTO 10004KT 10SM CLR 29/09 A2994 RMK AO2 SLP138 T02940094=
202106012353 METAR KCLM 012353Z AUTO 08006KT 10SM CLR 28/11 A2997 RMK AO2 SLP146 T02830106 10283 20222 56023=
202106012253 METAR KCLM 012253Z AUTO VRB06KT 10SM CLR 28/12 A2999 RMK AO2 SLP153 T02830117=
202106012153 METAR KCLM 012153Z AUTO 09006KT 10SM CLR 26/13 A3001 RMK AO2 SLP162 T02610128=
202106012053 METAR KCLM 012053Z AUTO 09007KT 10SM CLR 25/12 A3004 RMK AO2 SLP170 T02500117 58021=
202106011953 METAR KCLM 011953Z AUTO 11007KT 10SM CLR 24/12 A3006 RMK AO2 SLP178 T02440122=
202106011853 METAR KCLM 011853Z AUTO 08006KT 10SM CLR 23/12 A3008 RMK AO2 SLP186 T02280122=
202106011753 METAR KCLM 011753Z AUTO 11006KT 10SM CLR 23/13 A3010 RMK AO2 SLP191 T02280133 10228 20117 58010=
202106011653 METAR KCLM 011653Z AUTO 05006KT 10SM CLR 22/12 A3011 RMK AO2 SLP196 T02170122=
202106011553 METAR KCLM 011553Z AUTO VRB03KT 10SM CLR 22/13 A3012 RMK AO2 SLP199 T02220128=
202106011453 METAR KCLM 011453Z AUTO 24003KT 10SM CLR 20/13 A3013 RMK AO2 SLP202 T02000133 58001=
202106011353 METAR KCLM 011353Z AUTO 23006KT 10SM CLR 17/13 A3013 RMK AO2 SLP202 T01670128=
202106011253 METAR KCLM 011253Z AUTO 00000KT 10SM CLR 12/10 A3013 RMK AO2 SLP204 T01170100=
202106011153 METAR KCLM 011153Z AUTO 20003KT 10SM CLR 12/11 A3013 RMK AO2 SLP203 T01220111 10150 20111 56010=
202106011053 METAR KCLM 011053Z AUTO 00000KT 10SM CLR 12/10 A3015 RMK AO2 SLP208 T01170100=
202106010953 METAR KCLM 010953Z AUTO 00000KT 10SM CLR 12/11 A3015 RMK AO2 SLP208 T01170106=
202106010853 METAR KCLM 010853Z AUTO 16003KT 10SM CLR 13/11 A3016 RMK AO2 SLP213 T01280111 56011=
202106010753 METAR KCLM 010753Z AUTO 00000KT 10SM CLR 13/12 A3017 RMK AO2 SLP216 T01330117 402280094=
202106010653 METAR KCLM 010653Z AUTO 00000KT 10SM CLR 13/12 A3018 RMK AO2 SLP220 T01330117=
202106010553 METAR KCLM 010553Z AUTO 27003KT 10SM CLR 14/12 A3020 RMK AO2 SLP225 T01440122 10222 20139 50003=
202106010453 METAR KCLM 010453Z AUTO 28003KT 10SM CLR 14/12 A3020 RMK AO2 SLP225 T01440122=
202106010353 METAR KCLM 010353Z AUTO 22003KT 10SM CLR 17/13 A3019 RMK AO2 SLP223 T01720128=
202106010253 METAR KCLM 010253Z AUTO 31004KT 10SM CLR 19/12 A3019 RMK AO2 SLP221 T01940122 56006=
202106010153 METAR KCLM 010153Z AUTO 30005KT 10SM CLR 19/12 A3019 RMK AO2 SLP224 T01890117=
202106010053 METAR KCLM 010053Z AUTO 31006KT 10SM CLR 20/11 A3020 RMK AO2 SLP225 T02000111=

# No short TAF reports from KCLM in databse.

###################################
#  large TAF from KCLM
###################################
202106302339 TAF KCLM 302339Z 0100/0124 27012KT P6SM OVC014 FM011100 29010KT
                       P6SM OVC009 FM012200 32007KT P6SM SCT025=
202106301724 TAF KCLM 301724Z 3018/0118 26005KT P6SM OVC011 FM302200 30013G25KT
                       P6SM SKC FM010600 29010KT P6SM SKC FM011100
                       28007KT P6SM OVC015=
202106301137 TAF KCLM 301137Z 3012/0112 28008KT P6SM BKN009 OVC012 FM301700
                       31009KT P6SM BKN015 FM302100 30013G25KT
                       P6SM SKC FM010600 29010KT P6SM SKC FM011100
                       28007KT P6SM OVC015=
202106300541 TAF KCLM 300541Z 3006/0106 28012KT P6SM SKC FM301000 29010KT P6SM
                       OVC012 FM301700 31009KT P6SM BKN015 FM302100
                       30013G25KT P6SM SKC=
202106292326 TAF KCLM 292326Z 3000/3024 29015G23KT P6SM SKC FM300700 30007KT
                       P6SM OVC010 FM301700 31009KT P6SM BKN015
                       FM302100 30013G25KT P6SM SCT030=
202106291735 TAF KCLM 291735Z 2918/3018 31008KT P6SM SKC FM300600 29007KT P6SM
                       OVC007 FM301500 30007KT P6SM OVC010 FM301700
                       31009KT P6SM OVC015=
202106291132 TAF KCLM 291132Z 2912/3012 29005KT P6SM SKC
                      TEMPO 2912/2916 BKN005 FM291800 31008KT P6SM
                       SKC=
202106290535 TAF KCLM 290535Z 2906/3006 30004KT P6SM SKC FM291300 32005KT P6SM
                       SCT004 FM291800 31012KT P6SM SKC=
202106282355 TAF KCLM 282355Z 2900/2924 08005KT P6SM SKC FM290600 29007KT P6SM
                       SKC=
202106281728 TAF KCLM 281728Z 2818/2918 08005KT P6SM SKC FM290600 29007KT P6SM
                       SKC=
202106281120 TAF KCLM 281120Z 2812/2912 VRB03KT P6SM SKC FM281600 08005KT P6SM
                       SKC FM290600 29007KT P6SM SKC=
202106280543 TAF KCLM 280543Z 2806/2906 08007KT P6SM SKC FM280700 VRB03KT P6SM
                       SKC FM281600 08003KT P6SM SKC=
202106272320 TAF KCLM 272320Z 2800/2824 08007KT P6SM SKC FM280700 VRB03KT P6SM
                       SKC FM281600 08003KT P6SM SKC=
202106271720 TAF KCLM 271720Z 2718/2818 08007KT P6SM SKC FM280300 30005KT P6SM
                       SKC FM280700 VRB03KT P6SM SKC FM281600 06005KT
                       P6SM SKC=
202106271120 TAF KCLM 271120Z 2712/2812 00000KT P6SM SKC FM271700 09003KT P6SM
                       SKC FM280300 30007KT P6SM SKC=
202106270551 TAF KCLM 270551Z 2706/2806 32005KT P6SM SKC FM271700 09003KT P6SM
                       SKC=
202106262329 TAF KCLM 262329Z 2700/2724 VRB05KT P6SM SKC FM270300 32005KT P6SM
                       SKC FM271700 09003KT P6SM SKC=
202106261731 TAF KCLM 261731Z 2618/2718 02006KT P6SM SKC FM270300 30008KT P6SM
                       SKC=
202106261123 TAF KCLM 261123Z 2612/2712 30005KT P6SM SKC FM261700 07005KT P6SM
                       SKC FM270300 30008KT P6SM SKC=
202106260522 TAF KCLM 260522Z 2606/2706 30005KT P6SM SKC FM261700 07005KT P6SM
                       SKC=
202106252328 TAF KCLM 252328Z 2600/2624 35006KT P6SM SCT250 FM260300 30005KT
                       P6SM SKC FM261700 07005KT P6SM SKC=
202106251731 TAF KCLM 251731Z 2518/2618 07006KT P6SM SCT250 FM260300 30005KT
                       P6SM SKC=
202106251125 TAF KCLM 251125Z 2512/2612 29003KT 6SM BR SCT250 FM251600 05006KT
                       P6SM SCT250 FM260300 30006KT P6SM SKC=
202106250520 TAF KCLM 250520Z 2506/2606 29003KT P6SM SCT250 FM251200 29003KT
                       6SM BR SCT250 FM251600 05006KT P6SM SCT250=
202106242328 TAF KCLM 242328Z 2500/2524 31007KT P6SM SCT250 FM251200 25003KT
                       5SM BR SCT250 FM251700 03005KT P6SM SCT250=
202106241736 TAF KCLM 241736Z 2418/2518 35003KT P6SM SCT250 FM242300 29007KT
                       P6SM BKN250 FM251200 25003KT 5SM BR SCT250=
202106241555 KCLM 241555Z 2416/2512 35003KT P6SM SCT003 FM241900 35005KT P6SM
                       SCT015 FM242300 31006KT P6SM BKN250=
202106241346 KCLM 241346Z 2414/2512 30005KT 1SM BR OVC002 FM241700 30005KT P6SM
                       OVC007 FM241900 32005KT P6SM SCT015 FM242100
                       35006KT P6SM BKN250=
202106241133 TAF KCLM 241133Z 2412/2512 30005KT 3SM BR OVC002 FM241400 30005KT
                       P6SM OVC007 FM241700 32005KT P6SM SCT015
                       FM242000 35006KT P6SM BKN250=
202106240951 KCLM 240951Z 2410/2506 30005KT 3SM BR OVC002 FM241400 30005KT P6SM
                       OVC007 FM241700 32005KT P6SM SCT015 FM242000
                       35006KT P6SM BKN250=
202106240805 KCLM 240805Z 2408/2506 30005KT P6SM OVC003 FM241400 30005KT P6SM
                       OVC007 FM241700 32005KT P6SM SCT015 FM242000
                       35006KT P6SM BKN250=
202106240520 TAF KCLM 240520Z 2406/2506 29010G18KT P6SM SCT250 FM240800 26005KT
                       P6SM SCT007 FM241200 30005KT P6SM OVC007
                       FM241700 32005KT P6SM OVC030 FM242000 35006KT
                       P6SM BKN250=
202106232320 TAF KCLM 232320Z 2400/2424 30008KT P6SM SKC FM240100 29010G18KT
                       P6SM SCT250 FM240800 26005KT P6SM SCT007
                       FM241200 30005KT P6SM OVC015 FM241700 32005KT
                       P6SM OVC030 FM242000 35006KT P6SM BKN250=
202106231727 TAF KCLM 231727Z 2318/2418 31006KT P6SM SCT010 FM231900 35010KT
                       P6SM SCT250 FM240100 29010G18KT P6SM SCT250
                       FM240800 26005KT P6SM SCT007 FM241200 30005KT
                       P6SM OVC015=
202106231122 TAF KCLM 231122Z 2312/2412 29007KT P6SM OVC005 FM231700 31006KT
                       P6SM BKN010 FM231900 35008KT P6SM SCT250
                       FM240100 29008KT P6SM SCT250 FM240800 26005KT
                       P6SM SCT007
                      TEMPO 2408/2412 BKN007=
202106230520 TAF KCLM 230520Z 2306/2406 28010G16KT P6SM OVC005 FM231200 29006KT
                       P6SM OVC007 FM231700 31006KT P6SM BKN010
                       FM231900 35008KT P6SM SCT250=
202106230358 KCLM 230358Z 2304/2324 29010G16KT P6SM SCT006
                      TEMPO 2304/2308 BKN006 FM230800 28008KT P6SM
                       BKN010
                      TEMPO 2318/2320 SCT015 FM232000 28006KT P6SM
                       SKC=
202106222320 TAF KCLM 222320Z 2300/2324 32010KT P6SM SKC FM230900 28008KT P6SM
                       SCT010
                      TEMPO 2309/2312 BKN010 FM231400 28010KT P6SM
                       BKN010
                      TEMPO 2318/2320 SCT015 FM232000 28006KT P6SM
                       SKC=
202106221734 TAF KCLM 221734Z 2218/2318 30010KT P6SM FEW010 FM230800 30010KT
                       P6SM OVC010 FM231700 27007KT P6SM BKN012=
202106221255 KCLM 221255Z 2213/2312 29007KT 6SM BR OVC004 FM221800 32010KT P6SM
                       SCT250 FM231000 29007KT P6SM OVC005=
202106221125 TAF KCLM 221125Z 2212/2312 29007KT P6SM SKC
                      TEMPO 2215/2218 BKN009 FM221800 32010KT P6SM
                       SCT250 FM231000 29007KT P6SM OVC005=
202106220523 TAF KCLM 220523Z 2206/2306 29007KT P6SM SKC FM221300 29008KT P6SM
                       BKN010 FM221800 32010KT P6SM SCT250=
202106212320 TAF KCLM 212320Z 2200/2224 30007KT P6SM SKC FM220200 30010KT P6SM
                       SKC FM221100 29008KT P6SM BKN010 FM221800
                       32010KT P6SM SCT250=
202106211720 TAF KCLM 211720Z 2118/2218 07007KT P6SM SKC FM220200 30010KT P6SM
                       SKC FM221100 29008KT P6SM BKN010=
202106211121 TAF KCLM 211121Z 2112/2212 29004KT P6SM FEW250 FM211600 05007KT
                       P6SM SKC FM220200 30010KT P6SM SKC FM221100
                       29008KT P6SM BKN005=
202106210522 TAF KCLM 210522Z 2106/2206 29004KT P6SM FEW250 FM211600 03007KT
                       P6SM SKC FM220200 30010KT P6SM SKC=
202106202320 TAF KCLM 202320Z 2100/2124 07008KT P6SM SKC FM210200 32006KT P6SM
                       SKC FM211200 28005KT P6SM SKC FM211600 03007KT
                       P6SM SKC=
202106201720 TAF KCLM 201720Z 2018/2118 06008KT P6SM SKC FM210200 32006KT P6SM
                       SKC FM211200 28005KT P6SM SKC=
202106201339 KCLM 201339Z 2014/2112 VRB04KT P6SM SCT050 FM201700 05008KT P6SM
                       SKC FM210200 32008KT P6SM SKC=
202106201128 TAF KCLM 201128Z 2012/2112 VRB04KT 2SM BR SCT001 SCT050
                      TEMPO 2012/2015 1/4SM FG OVC001 FM201700
                       06006KT P6SM SCT005 BKN010 FM201900 05008KT
                       P6SM SKC FM210200 32008KT P6SM SKC=
202106200841 KCLM 200841Z 2009/2106 29005KT P6SM OVC050 FM201000 VRB03KT 6SM
                       BR BKN005 OVC010 FM201700 03006KT P6SM SCT012
                       FM201900 05008KT P6SM SKC=
202106200521 TAF KCLM 200521Z 2006/2106 28005KT P6SM OVC010 FM200900 VRB03KT
                       6SM BR OVC005 FM201700 03006KT P6SM SCT012
                       FM201900 05008KT P6SM SKC=
202106192320 TAF KCLM 192320Z 2000/2024 32010KT P6SM BKN060 FM200200 30007KT
                       P6SM BKN100 FM200600 29007KT P6SM OVC010
                       FM201200 VRB03KT 6SM BR OVC005 FM201600
                       03006KT P6SM SCT250=
202106191720 TAF KCLM 191720Z 1918/2018 31008KT P6SM OVC050 FM192200 32010KT
                       P6SM BKN060 FM200200 30007KT P6SM BKN100
                       FM200600 29007KT P6SM OVC010=
202106191123 TAF KCLM 191123Z 1912/2012 28009KT P6SM SKC FM191400 27008KT P6SM
                       OVC120 FM192000 31008KT P6SM OVC050 FM192200
                       32010KT P6SM BKN060 FM200200 30007KT P6SM
                       BKN250=
202106190522 TAF KCLM 190522Z 1906/2006 28010KT P6SM SKC FM190900 28011KT P6SM
                       BKN250 FM191400 27008KT P6SM OVC120 FM192000
                       31008KT P6SM OVC050 FM192200 32010G18KT
                       P6SM BKN100=
202106182339 TAF KCLM 182339Z 1900/1924 30010G20KT P6SM SCT200 FM190900 28011KT
                       P6SM BKN250 FM191400 27008KT P6SM OVC120
                       FM192000 31008KT P6SM OVC050=
202106181729 TAF KCLM 181729Z 1818/1918 28011KT P6SM SCT200 FM190200 31014G20KT
                       P6SM BKN250=
202106181120 TAF KCLM 181120Z 1812/1912 28011KT P6SM SCT200
                      TEMPO 1814/1816 SCT017 FM182200 31014G20KT
                       P6SM BKN250=
202106180537 TAF KCLM 180537Z 1806/1906 27011KT P6SM SCT200 FM181600 32010KT
                       P6SM SCT250 FM182300 31014G20KT P6SM BKN250=
202106172327 TAF KCLM 172327Z 1800/1824 30012KT P6SM SCT200 FM180600 29012KT
                       P6SM SCT200 FM181600 30010KT P6SM SCT250=
202106171727 TAF KCLM 171727Z 1718/1818 34006KT P6SM SKC FM180000 31012KT P6SM
                       SCT200 FM180600 29012KT P6SM SCT200 FM181600
                       31010KT P6SM SCT250=
202106171120 TAF KCLM 171120Z 1712/1812 25006KT P6SM SCT200 FM171600 34008KT
                       P6SM SKC FM180000 31013KT P6SM SCT200 FM181000
                       28009KT P6SM SCT200=
202106170532 TAF KCLM 170532Z 1706/1806 29008KT P6SM SKC FM171200 VRB03KT P6SM
                       SKC FM171600 34008KT P6SM SKC FM180000 31013KT
                       P6SM SKC=
202106162327 TAF KCLM 162327Z 1700/1724 29008KT P6SM SKC FM171200 VRB03KT P6SM
                       SKC FM171600 34008KT P6SM SKC=
202106161721 TAF KCLM 161721Z 1618/1718 24005KT P6SM SCT015 BKN050 FM162100
                       29008KT P6SM SKC=
202106161429 KCLM 161429Z 1614/1712 24005KT P6SM SCT015 BKN050 FM162100 29008KT
                       P6SM SKC=
202106161126 TAF KCLM 161126Z 1612/1712 24004KT P6SM SCT011
                      TEMPO 1613/1616 BKN011 FM162100 29008KT P6SM
                       SKC=
202106160537 TAF KCLM 160537Z 1606/1706 VRB03KT P6SM SCT050 FM162100 29008KT
                       P6SM SKC=
202106152320 TAF KCLM 152320Z 1600/1624 31008KT P6SM VCSH BKN050 FM160600 29006KT
                       P6SM SCT050=
202106151720 TAF KCLM 151720Z 1518/1618 32006KT P6SM BKN060 FM160000 29010KT
                       P6SM VCSH BKN050 FM160600 29006KT P6SM SCT050=
202106151133 TAF KCLM 151133Z 1512/1612 VRB03KT P6SM SCT025
                      TEMPO 1512/1515 BKN025 FM151700 32006KT P6SM
                       BKN050 FM160000 29010KT P6SM BKN050 FM160600
                       29006KT P6SM SCT050=
202106150533 TAF KCLM 150533Z 1506/1606 27006KT P6SM SCT060 FM151700 32006KT
                       P6SM BKN050 FM160000 29010KT P6SM BKN050=
202106142326 TAF KCLM 142326Z 1500/1524 32006KT P6SM SCT025 BKN070 FM150300
                       27005KT P6SM BKN100 FM151200 26003KT P6SM
                       SCT030 OVC035 FM151700 32005KT P6SM BKN050=
202106141734 TAF KCLM 141734Z 1418/1518 29005KT P6SM VCSH SCT007 OVC015 FM142000
                       30006KT P6SM SCT025 BKN050 FM150300 27005KT
                       P6SM BKN100 FM151200 26003KT P6SM SCT030
                       OVC050=
202106141451 KCLM 141451Z 1415/1512 29006KT P6SM VCSH OVC005 FM141700 29005KT
                       P6SM VCSH SCT007 OVC015 FM142100 30006KT
                       P6SM SCT025 BKN050 FM150300 27005KT P6SM
                       BKN100 FM151000 26003KT P6SM OVC050=
202106141120 TAF KCLM 141120Z 1412/1512 25004KT P6SM VCSH OVC015 FM141700 29005KT
                       P6SM VCSH SCT007 OVC015 FM142100 30006KT
                       P6SM SCT025 BKN050 FM150300 27005KT P6SM
                       BKN100 FM151000 26003KT P6SM OVC050=
202106140835 KCLM 140835Z 1409/1506 25005KT P6SM VCSH OVC015 FM141700 29005KT
                       P6SM VCSH SCT007 OVC015 FM142100 32006KT
                       P6SM -SHRA SCT025 BKN050 FM150300 27005KT
                       P6SM BKN100=
202106140543 TAF KCLM 140543Z 1406/1506 VRB03KT P6SM VCSH OVC022 FM141700 29005KT
                       P6SM VCSH SCT007 OVC015 FM142100 32006KT
                       P6SM -SHRA SCT025 BKN050 FM150300 27005KT
                       P6SM BKN100=
202106140339 KCLM 140339Z 1404/1424 VRB03KT P6SM VCSH OVC007 FM141700 29005KT
                       P6SM VCSH SCT007 OVC015 FM142100 32006KT
                       P6SM -SHRA SCT025 BKN050=
202106140311 KCLM 140311Z 1403/1424 VRB03KT P6SM VCSH OVC005 FM141700 29005KT
                       P6SM VCSH SCT007 OVC015 FM142100 32006KT
                       P6SM -SHRA SCT025 BKN050=
202106132324 TAF KCLM 132324Z 1400/1424 VRB03KT P6SM -RA SCT025 OVC060 FM140600
                       VRB03KT P6SM -SHRA OVC005 FM141700 29005KT
                       P6SM VCSH SCT007 OVC015 FM142100 32006KT
                       P6SM -SHRA SCT025 BKN050=
202106131733 TAF KCLM 131733Z 1318/1418 VRB03KT P6SM -SHRA OVC022 FM140600 VRB03KT
                       P6SM -SHRA OVC005 FM141600 29005KT P6SM
                       -SHRA SCT007 OVC015=
202106131318 KCLM 131318Z 1313/1412 VRB03KT P6SM OVC006 FM131600 VRB03KT P6SM
                       -RA SCT006 BKN020 OVC040 FM140000 VRB03KT
                       4SM -RA BR OVC015 FM140800 VRB03KT P6SM
                       -SHRA SCT015 BKN025 OVC040=
202106131140 TAF KCLM 131140Z 1312/1412 27008KT P6SM -RA OVC040 FM140000 VRB03KT
                       4SM -RA BR OVC015 FM140800 VRB03KT P6SM
                       -SHRA SCT015 BKN025 OVC040=
202106130529 TAF KCLM 130529Z 1306/1406 00000KT P6SM OVC080 FM130900 VRB03KT
                       P6SM -RA OVC040 FM131600 VRB03KT 4SM -RA
                       BR OVC015=
202106122334 TAF KCLM 122334Z 1300/1324 VRB04KT P6SM SCT040 BKN120 OVC200 FM130600
                       00000KT P6SM -RA BKN040 OVC070 FM131200
                       VRB03KT 5SM -RA OVC025 FM131600 VRB03KT
                       4SM -RA BR OVC015=
202106121724 TAF KCLM 121724Z 1218/1318 VRB03KT P6SM SCT070 BKN200 FM130000
                       VRB04KT P6SM BKN120 OVC200 FM130600 00000KT
                       P6SM -RA BKN040 OVC070 FM131100 VRB03KT
                       5SM -RA OVC025 FM131500 VRB03KT 4SM -RA
                       BR OVC015=
202106121139 TAF KCLM 121139Z 1212/1312 VRB03KT P6SM SCT050 BKN200 FM130100
                       VRB03KT P6SM BKN100 OVC200 FM130600 VRB03KT
                       P6SM -RA OVC040=
202106120532 TAF KCLM 120532Z 1206/1306 25006KT P6SM SCT030 BKN060 FM121200
                       VRB03KT P6SM VCSH SCT060 BKN200=
202106112337 TAF KCLM 112337Z 1200/1224 29004KT P6SM -SHRA OVC050 FM120300 VRB03KT
                       P6SM VCSH BKN040 FM120900 VRB03KT P6SM VCSH
                       BKN035 FM121800 08004KT P6SM SCT040 BKN200=
202106111720 TAF KCLM 111720Z 1118/1218 VRB04KT P6SM VCSH BKN060 OVC100 FM112000
                       VRB03KT P6SM -SHRA OVC040 FM120300 VRB03KT
                       P6SM VCSH BKN040 FM120900 VRB03KT P6SM VCSH
                       BKN035=
202106111120 TAF KCLM 111120Z 1112/1212 VRB03KT P6SM SCT120 FM111600 09002KT
                       P6SM VCSH BKN050 OVC100 FM112000 VRB03KT
                       P6SM OVC040 FM120000 00000KT P6SM OVC050
                       FM120600 20001KT P6SM OVC050=
202106110525 TAF KCLM 110525Z 1106/1206 23003KT P6SM SKC FM110800 VRB03KT P6SM
                       OVC100 FM111600 09002KT P6SM VCSH BKN050
                       OVC100 FM112000 VRB03KT P6SM -SHRA OVC040
                       FM120000 00000KT P6SM -DZ OVC050=
202106102327 TAF KCLM 102327Z 1100/1124 33006KT P6SM BKN060 BKN120 FM110400
                       27005KT P6SM SCT060 OVC200 FM110800 VRB03KT
                       P6SM OVC100 FM111600 VRB02KT P6SM VCSH BKN050
                       OVC100 FM112000 VRB03KT P6SM -SHRA OVC040=
202106101734 TAF KCLM 101734Z 1018/1118 VRB04KT P6SM BKN050 FM102000 33006KT
                       P6SM BKN060 BKN120 FM110100 27005KT P6SM
                       BKN060 BKN120 FM110800 VRB03KT P6SM OVC100
                       FM111600 VRB02KT P6SM VCSH BKN070 OVC100=
202106101121 TAF KCLM 101121Z 1012/1112 26005KT P6SM BKN050 FM101700 33006KT
                       P6SM BKN035 FM102000 34006KT P6SM BKN060
                       BKN120 FM110100 27005KT P6SM BKN060 BKN120
                       FM110800 18002KT P6SM OVC100=
202106100522 TAF KCLM 100522Z 1006/1106 26010KT P6SM SCT060 FM101100 25005KT
                       P6SM SCT035 BKN200 FM101700 33006KT P6SM
                       BKN035 FM102000 34006KT P6SM BKN060 BKN120=
202106100144 KCLM 100144Z 1002/1024 32006KT P6SM VCSH BKN050 BKN100
                      TEMPO 1002/1003 -SHRA SCT040 OVC060 FM100300
                       28007KT P6SM SCT050 SCT100 FM101100 25005KT
                       P6SM SCT035 BKN200 FM102000 33006KT P6SM
                       BKN060 BKN120=
202106092322 TAF KCLM 092322Z 1000/1024 32006KT P6SM VCSH BKN050 BKN100 FM100300
                       28007KT P6SM SCT050 SCT100 FM101100 25005KT
                       P6SM SCT035 BKN200 FM102000 33006KT P6SM
                       BKN060 BKN120=
202106091724 TAF KCLM 091724Z 0918/1018 VRB04KT P6SM BKN050 BKN080 FM100000
                       28008KT P6SM BKN050 BKN100 FM100300 28008KT
                       P6SM SCT050 SCT100 FM101100 VRB03KT P6SM
                       SCT020 BKN200=
202106091120 TAF KCLM 091120Z 0912/1012 24006KT P6SM SCT040 SCT080
                      TEMPO 0914/0918 BKN040 BKN080 FM091800 26006KT
                       P6SM VCSH BKN040 BKN080 FM100000 28008KT
                       P6SM BKN050 BKN100 FM100300 28008KT P6SM
                       SCT050 SCT100 FM101100 VRB03KT P6SM SCT020
                       BKN200=
202106090520 TAF KCLM 090520Z 0906/1006 28011KT P6SM BKN030 FM091000 27006KT
                       P6SM BKN040 FM091900 31009KT P6SM SCT100=
202106082320 TAF KCLM 082320Z 0900/0924 29008KT P6SM BKN080 FM091000 27006KT
                       P6SM BKN060 FM091900 31009KT P6SM SCT100=
202106081721 TAF KCLM 081721Z 0818/0918 VRB04KT P6SM BKN100 FM090000 29009KT
                       P6SM BKN080 FM091000 27006KT P6SM BKN060=
202106081120 TAF KCLM 081120Z 0812/0912 VRB03KT P6SM BKN120=
202106080538 TAF KCLM 080538Z 0806/0906 26006KT P6SM BKN150 FM081300 VRB03KT
                       P6SM BKN150 FM082300 29006KT P6SM BKN150=
202106072338 TAF KCLM 072338Z 0800/0824 VRB05KT P6SM FEW060 BKN100 FM080300
                       28004KT P6SM SCT050 BKN100 FM081300 25005KT
                       P6SM BKN100 FM081700 03006KT P6SM BKN100=
202106071734 TAF KCLM 071734Z 0718/0818 VRB05KT P6SM SCT035 BKN050 FM071900
                       29006KT P6SM SCT050 BKN060 FM080000 32006KT
                       P6SM SCT050 BKN100 FM081200 27005KT P6SM
                       BKN100=
202106071137 TAF KCLM 071137Z 0712/0812 26006KT P6SM SCT030 BKN060 FM071900
                       29006KT P6SM SCT050 BKN100=
202106070540 TAF KCLM 070540Z 0706/0806 28006KT P6SM SCT010 OVC080 FM071200
                       24006KT P6SM SCT025 BKN045 FM071900 29006KT
                       P6SM SCT050 BKN100=
202106062339 TAF KCLM 062339Z 0700/0724 VRB05KT P6SM -RA BKN050 OVC060 FM070200
                       27005KT P6SM -SHRA SCT030 BKN050 FM070700
                       22005KT P6SM SCT030 BKN050 FM071200 26005KT
                       P6SM OVC050 FM071700 01004KT P6SM OVC050=
202106061728 TAF KCLM 061728Z 0618/0718 VRB03KT P6SM SCT050 OVC080 FM062200
                       VRB05KT P6SM -RA OVC040 FM070200 27010KT
                       P6SM -SHRA SCT030 BKN050 FM071200 26004KT
                       P6SM OVC050=
202106061132 TAF KCLM 061132Z 0612/0712 VRB03KT P6SM BKN060 OVC100 FM062200
                       VRB03KT P6SM -RA OVC040 FM070200 27010KT
                       P6SM SCT030 BKN050=
202106060541 TAF KCLM 060541Z 0606/0706 29008KT P6SM BKN050 FM061100 VRB03KT
                       P6SM SCT050 BKN100 FM061800 VRB03KT P6SM
                       OVC050 FM062300 VRB03KT P6SM -RA OVC040
                       FM070200 27010KT P6SM SCT030 BKN050=
202106052339 TAF KCLM 052339Z 0600/0624 32012G25KT P6SM VCSH OVC050 FM060800
                       27007KT P6SM OVC050 FM061600 06003KT P6SM
                       OVC050 FM061800 07004KT 6SM -RA BR OVC040=
202106051724 TAF KCLM 051724Z 0518/0618 30010KT P6SM -SHRA FEW009 BKN025 OVC050
                       FM052000 29017G27KT P6SM VCSH OVC050 FM060600
                       28010KT P6SM OVC050 FM061200 25004KT P6SM
                       OVC050=
202106051121 TAF KCLM 051121Z 0512/0612 28005KT P6SM -SHRA BKN020 OVC030 FM051600
                       29011KT P6SM -SHRA OVC035 FM052000 29017G27KT
                       P6SM VCSH OVC050 FM060600 27005KT P6SM OVC050=
202106050522 TAF KCLM 050522Z 0506/0606 29005KT P6SM VCSH BKN070 FM050700 28005KT
                       P6SM -SHRA OVC050 FM051300 27011KT P6SM
                       VCSH OVC050 FM052000 29017G27KT P6SM VCSH
                       OVC050=
202106042338 TAF KCLM 042338Z 0500/0524 33008KT P6SM BKN070 BKN110 FM050200
                       29005KT P6SM VCSH BKN070 FM050700 28005KT
                       P6SM -SHRA OVC050 FM051300 27011KT P6SM
                       VCSH OVC050 FM051700 29010G20KT P6SM VCSH
                       OVC050=
202106041738 TAF KCLM 041738Z 0418/0518 31008KT P6SM SCT120 FM042000 32008KT
                       P6SM BKN120 FM050700 28005KT P6SM VCSH OVC050
                       FM051300 27011KT P6SM VCSH OVC050=
202106041128 TAF KCLM 041128Z 0412/0512 29010KT P6SM SCT120 FM042000 32008KT
                       P6SM BKN120 FM050700 28005KT P6SM VCSH OVC050=
202106040524 TAF KCLM 040524Z 0406/0506 30010KT P6SM SKC FM041000 29010KT P6SM
                       BKN020 FM042000 32008KT P6SM BKN120=
202106032340 TAF KCLM 032340Z 0400/0424 31010G20KT P6SM SKC FM040500 30010KT
                       P6SM SKC FM041000 29010KT P6SM BKN020 FM042000
                       32008KT P6SM BKN120=
202106031738 TAF KCLM 031738Z 0318/0418 31010KT P6SM SKC FM032200 31014G22KT
                       P6SM SKC FM040500 30010KT P6SM SKC FM041000
                       29010KT P6SM BKN020=
202106031135 TAF KCLM 031135Z 0312/0412 29010KT P6SM SKC FM032200 29014G22KT
                       P6SM SKC FM040500 29010KT P6SM SKC FM041000
                       29010KT P6SM BKN020=
202106030534 TAF KCLM 030534Z 0306/0406 29010KT P6SM SKC FM031200 29010KT P6SM
                       OVC006 FM031800 29010KT P6SM SCT040 FM040000
                       29014G22KT P6SM SKC=
202106022320 TAF KCLM 022320Z 0300/0324 30010G21KT P6SM SKC FM031200 30010KT
                       P6SM OVC006 FM031800 31010KT P6SM SCT020
                       SCT040 FM031900 31010KT P6SM SCT040=
202106022053 KCLM 022053Z 0221/0318 28015G19KT P6SM SKC FM031000 30010KT P6SM
                       OVC006=
202106021720 TAF KCLM 021720Z 0218/0318 30006KT P6SM FEW015 FM022100 30010G18KT
                       P6SM SKC FM031000 30010KT P6SM OVC006=
202106021126 TAF KCLM 021126Z 0212/0312 VRB03KT P6SM SKC FM021600 30006KT P6SM
                       SKC FM022100 30010G18KT P6SM SCT250 FM031000
                       30010KT P6SM OVC006=
202106020539 TAF KCLM 020539Z 0206/0306 VRB03KT P6SM SKC FM021600 30006KT P6SM
                       SKC FM022100 30010G18KT P6SM SCT250=
202106012324 TAF KCLM 012324Z 0200/0224 VRB05KT P6SM SKC FM020100 31008KT P6SM
                       SKC FM020600 30010KT P6SM SKC FM021200 29007KT
                       P6SM SKC FM022100 30010G18KT P6SM SCT250=
202106011725 TAF KCLM 011725Z 0118/0218 04006KT P6SM SKC FM020100 31008KT P6SM
                       SKC FM020600 30010KT P6SM SKC=
202106011124 TAF KCLM 011124Z 0112/0212 VRB03KT P6SM SCT250 FM012300 29006KT
                       P6SM SCT250=
202106010522 TAF KCLM 010522Z 0106/0206 VRB03KT P6SM SCT250 FM012300 29006KT
                       P6SM SCT250=