##########################################################
# Query made at 02/16/2025 04:59:32 UTC
# Time interval: from 12/01/2021 00:00  to 12/31/2021 23:59  UTC
##########################################################

##########################################################
# KCLM, Port Angeles, William R. Fairchild International Airport (United States)
# WMO index: -----. WIGOS ID: Unknown
# Latitude 48-07-20N. Longitude 123-30-19W. Altitude 87 m.
##########################################################

###################################
#  METAR/SPECI from KCLM
###################################
202112312353 METAR KCLM 312353Z AUTO 15003KT 10SM CLR M03/M09 A3014 RMK AO2 SLP209 T10331089 10011 21033 53014=
202112312253 METAR KCLM 312253Z AUTO 07004KT 10SM CLR 01/M12 A3012 RMK AO2 SLP203 T00061122=
202112312153 METAR KCLM 312153Z AUTO 08007KT 10SM CLR 01/M13 A3010 RMK AO2 SLP197 T00061128=
202112312053 METAR KCLM 312053Z AUTO VRB05KT 10SM CLR 00/M13 A3009 RMK AO2 SLP193 T00001133 51013=
202112311953 METAR KCLM 311953Z AUTO 10SM CLR 00/M12 A3009 RMK AO2 SLP191 T00001117=
202112311853 METAR KCLM 311853Z AUTO 08006KT 10SM BKN055 00/M11 A3008 RMK AO2 SLP188 T00001106=
202112311753 METAR KCLM 311753Z AUTO 14004KT 10SM FEW055 M02/M09 A3005 RMK AO2 SLP180 T10171094 10006 21028 51029=
202112311653 METAR KCLM 311653Z AUTO VRB05KT 10SM BKN060 OVC070 00/M11 A3004 RMK AO2 SLP174 T00001106=
202112311553 METAR KCLM 311553Z AUTO 05006KT 10SM OVC055 01/M10 A3000 RMK AO2 SLP160 T00061100=
202112311453 METAR KCLM 311453Z AUTO VRB04KT 10SM FEW026 SCT040 OVC048 00/M06 A2997 RMK AO2 SLP151 T00001061 53030=
202112311353 METAR KCLM 311353Z AUTO VRB06KT 10SM OVC036 01/M06 A2992 RMK AO2 SLP136 T00061061=
202112311253 METAR KCLM 311253Z AUTO 00000KT 10SM FEW033 OVC045 M01/M04 A2990 RMK AO2 SLP126 T10061039=
202112311153 METAR KCLM 311153Z AUTO 11004KT 10SM FEW029 OVC042 00/M04 A2988 RMK AO2 SLP120 60001 70003 T00001044 10017 20000 51016=
202112311145 SPECI KCLM 311145Z AUTO 11004KT 10SM SCT029 OVC042 00/M04 A2988 RMK AO2 T00001044=
202112311053 METAR KCLM 311053Z AUTO 10004KT 9SM OVC026 00/M04 A2986 RMK AO2 UPB32E33SNB0958E32B33E49 SLP116 P0001 T00001039=
202112310953 METAR KCLM 310953Z AUTO 12007KT 10SM OVC019 01/M03 A2985 RMK AO2 SLP111 T00061033=
202112310937 SPECI KCLM 310937Z AUTO 16007KT 10SM BKN019 OVC028 01/M03 A2984 RMK AO2 T00111033=
202112310926 SPECI KCLM 310926Z AUTO 07004KT 10SM SCT018 OVC030 01/M03 A2984 RMK AO2 T00111033=
202112310853 METAR KCLM 310853Z AUTO VRB04KT 10SM BKN020 OVC032 02/M03 A2983 RMK AO2 SLP104 T00171033 53016=
202112310816 SPECI KCLM 310816Z AUTO VRB05KT 10SM FEW019 OVC030 01/M03 A2981 RMK AO2 T00111033=
202112310753 METAR KCLM 310753Z AUTO VRB04KT 10SM OVC024 02/M03 A2981 RMK AO2 SLP097 T00171033 400171028=
202112310653 METAR KCLM 310653Z AUTO VRB03KT 10SM OVC026 02/M03 A2980 RMK AO2 SLP092 T00171033=
202112310553 METAR KCLM 310553Z AUTO 00000KT 10SM OVC025 02/M04 A2978 RMK AO2 SLP088 T00171039 10017 21006 53013=
202112310453 METAR KCLM 310453Z AUTO 00000KT 10SM OVC022 00/M02 A2976 RMK AO2 SLP081 T00001022=
202112310421 SPECI KCLM 310421Z AUTO 23004KT 10SM BKN023 OVC034 00/M02 A2975 RMK AO2 T00001022=
202112310353 METAR KCLM 310353Z AUTO 00000KT 10SM FEW023 OVC034 00/M02 A2975 RMK AO2 SLP077 T00001022=
202112310253 METAR KCLM 310253Z AUTO 23006KT 10SM OVC023 00/M03 A2974 RMK AO2 SLP074 T00001028 51014=
202112310153 METAR KCLM 310153Z AUTO 26003KT 10SM OVC021 00/M02 A2973 RMK AO2 SLP070 T00001022=
202112310053 METAR KCLM 310053Z AUTO 25004KT 10SM OVC022 00/M03 A2972 RMK AO2 SLP066 T00001028=
202112302353 METAR KCLM 302353Z AUTO 00000KT 10SM OVC021 01/M03 A2970 RMK AO2 SLP060 T00111028 10011 20000 51010=
202112302253 METAR KCLM 302253Z AUTO 23003KT 10SM OVC021 01/M03 A2970 RMK AO2 SLP059 T00061028=
202112302153 METAR KCLM 302153Z AUTO 19003KT 10SM OVC023 01/M03 A2968 RMK AO2 SLP053 T00061028=
202112302053 METAR KCLM 302053Z AUTO VRB03KT 10SM OVC019 01/M03 A2967 RMK AO2 SLP050 T00061033 50000=
202112301953 METAR KCLM 301953Z AUTO 00000KT 10SM OVC017 00/M03 A2966 RMK AO2 SLP048 T00001033=
202112301907 SPECI KCLM 301907Z AUTO 09004KT 10SM OVC015 01/M04 A2968 RMK AO2 T00061039=
202112301853 METAR KCLM 301853Z AUTO 09003KT 10SM OVC013 00/M04 A2968 RMK AO2 SLP055 T00001039=
202112301753 METAR KCLM 301753Z AUTO VRB03KT 10SM OVC012 00/M03 A2967 RMK AO2 SLP051 60002 T00001033 10011 21017 51027=
202112301653 METAR KCLM 301653Z AUTO VRB03KT 10SM OVC011 00/M03 A2965 RMK AO2 SLP042 T00001028=
202112301614 SPECI KCLM 301614Z AUTO 00000KT 10SM OVC011 00/M03 A2963 RMK AO2 T00001033=
202112301553 METAR KCLM 301553Z AUTO 6SM HZ BKN009 OVC013 00/M03 A2963 RMK AO2 SLP036 T00001028=
202112301540 SPECI KCLM 301540Z AUTO VRB03KT 8SM OVC009 00/M03 A2962 RMK AO2 CIG 008V013 T00001028=
202112301525 SPECI KCLM 301525Z AUTO VRB05KT 10SM OVC010 00/M03 A2961 RMK AO2 CIG 008V014 T00001033=
202112301453 METAR KCLM 301453Z AUTO VRB06KT 7SM OVC006 00/M02 A2959 RMK AO2 SNE07B22E50 CIG 005V009 PRESRR SLP024 P0000 60002 T00001022 53033=
202112301409 SPECI KCLM 301409Z AUTO VRB06G16KT 9SM OVC006 01/M01 A2954 RMK AO2 SNE07 CIG 003V010 PRESRR P0000 T00111011=
202112301400 SPECI KCLM 301400Z AUTO 29010G17KT 3SM -SN BR OVC004 01/M01 A2953 RMK AO2 CIG 003V007 PRESRR P0000 T00111011=
202112301353 METAR KCLM 301353Z AUTO 28008KT 250V310 1 1/2SM -SN BR OVC004 00/M02 A2952 RMK AO2 SLP000 P0002 T00001017=
202112301339 SPECI KCLM 301339Z AUTO 26009KT 1 1/4SM -SN BR OVC004 00/M02 A2951 RMK AO2 P0001 T00001022=
202112301316 SPECI KCLM 301316Z AUTO 26008KT 2 1/2SM -SN BR BKN004 BKN017 OVC037 M01/M03 A2949 RMK AO2 P0000 T10061028=
202112301310 SPECI KCLM 301310Z AUTO 27008KT 4SM -SN BR FEW004 BKN017 OVC037 M01/M03 A2948 RMK AO2 P0000 T10061028=
202112301253 METAR KCLM 301253Z AUTO 26006KT 4SM -SN BR FEW019 OVC037 M01/M03 A2947 RMK AO2 SNB1155 SLP983 P0000 T10111028=
202112301243 SPECI KCLM 301243Z AUTO 27008KT 5SM -SN BR FEW026 OVC033 M01/M03 A2948 RMK AO2 SNB1155 P0000 T10111033=
202112301232 SPECI KCLM 301232Z AUTO 28006KT 3SM -SN BR OVC027 M01/M03 A2947 RMK AO2 SNB1155 P0000 T10111033=
202112301206 SPECI KCLM 301206Z AUTO 24006KT 1SM -SN BR VV019 M02/M04 A2948 RMK AO2 SNB1155 P0000 T10171039=
202112301158 SPECI KCLM 301158Z AUTO 28005KT 2 1/2SM -SN BR OVC024 M02/M04 A2949 RMK AO2 SNB55 P0000 T10171039=
202112301153 METAR KCLM 301153Z AUTO 28006KT 9SM OVC031 M01/M04 A2949 RMK AO2 SNE29 SLP991 P0001 60001 70001 T10111039 11011 21033 58044=
202112301128 SPECI KCLM 301128Z AUTO 00000KT 8SM -SN OVC037 M02/M04 A2949 RMK AO2 P0001 T10221039=
202112301108 SPECI KCLM 301108Z AUTO 17004KT 3SM -SN OVC027 M02/M05 A2953 RMK AO2 PRESFR P0001 T10221050=
202112301053 METAR KCLM 301053Z AUTO 00000KT 5SM -SN OVC037 M02/M05 A2956 RMK AO2 SNB00 SLP014 P0000 T10221050=
202112300953 METAR KCLM 300953Z AUTO 09006KT 10SM OVC055 M02/M06 A2960 RMK AO2 SLP029 T10171061=
202112300853 METAR KCLM 300853Z AUTO 09003KT 10SM OVC060 M02/M06 A2962 RMK AO2 SLP035 60000 T10221056 58056=
202112300753 METAR KCLM 300753Z AUTO 22003KT 10SM OVC075 M03/M07 A2972 RMK AO2 SLP067 T10281067 410111094=
202112300653 METAR KCLM 300653Z AUTO 13007KT 10SM OVC075 M03/M07 A2977 RMK AO2 SNE0558 SLP085 P0000 T10331072=
202112300553 METAR KCLM 300553Z AUTO 12008KT 6SM -SN FEW040 OVC090 M03/M07 A2979 RMK AO2 SNB22 SLP093 P0000 60000 T10331072 11028 21044 58028=
202112300453 METAR KCLM 300453Z AUTO 13004KT 10SM BKN060 OVC090 M03/M09 A2983 RMK AO2 SLP107 T10281089=
202112300353 METAR KCLM 300353Z AUTO 00000KT 10SM BKN055 OVC070 M03/M08 A2986 RMK AO2 SLP116 T10331078=
202112300253 METAR KCLM 300253Z AUTO 16004KT 10SM FEW048 BKN055 OVC095 M04/M07 A2987 RMK AO2 SLP120 T10391072 56027=
202112300153 METAR KCLM 300153Z AUTO 20003KT 10SM SCT085 BKN110 M04/M08 A2990 RMK AO2 SLP128 T10441078=
202112300053 METAR KCLM 300053Z AUTO 00000KT 10SM OVC100 M03/M08 A2993 RMK AO2 SLP138 T10331078=
202112292353 METAR KCLM 292353Z AUTO 00000KT 10SM CLR M03/M09 A2995 RMK AO2 SLP147 T10281089 11017 21067 55011=
202112292253 METAR KCLM 292253Z AUTO 13003KT 10SM CLR M03/M11 A2995 RMK AO2 SLP146 T10281111=
202112292153 METAR KCLM 292153Z AUTO 16004KT 10SM CLR M03/M12 A2996 RMK AO2 SLP150 T10281117=
202112292053 METAR KCLM 292053Z AUTO VRB05KT 10SM CLR M02/M13 A2999 RMK AO2 SLP158 T10171128 58003=
202112291953 METAR KCLM 291953Z AUTO 13005KT 10SM CLR M03/M09 A3001 RMK AO2 SLP165 T10331094=
202112291853 METAR KCLM 291853Z AUTO 11009KT 10SM CLR M03/M11 A3000 RMK AO2 SLP161 T10331106=
202112291753 METAR KCLM 291753Z AUTO 00000KT 10SM CLR M07/M09 A3000 RMK AO2 SLP161 T10671089 11011 21094 51014=
202112291653 METAR KCLM 291653Z AUTO 00000KT 10SM CLR M08/M11 A2999 RMK AO2 SLP162 T10781106=
202112291553 METAR KCLM 291553Z AUTO 00000KT 10SM CLR M08/M11 A2997 RMK AO2 SLP153 T10831111=
202112291453 METAR KCLM 291453Z AUTO 13005KT 10SM CLR M06/M10 A2996 RMK AO2 SLP148 T10561100 51018=
202112291353 METAR KCLM 291353Z AUTO 14006KT 10SM CLR M04/M11 A2994 RMK AO2 SLP142 T10391111=
202112291253 METAR KCLM 291253Z AUTO 12007KT 10SM FEW028 SCT037 BKN044 M02/M07 A2992 RMK AO2 SLP136 T10171072=
202112291233 SPECI KCLM 291233Z AUTO 11006KT 10SM SCT024 BKN037 BKN046 M01/M07 A2992 RMK AO2 T10111067=
202112291153 METAR KCLM 291153Z AUTO 05004KT 10SM BKN026 OVC036 M01/M06 A2990 RMK AO2 SLP129 T10111061 11011 21017 51020=
202112291053 METAR KCLM 291053Z AUTO 13009KT 10SM SCT027 OVC033 M02/M06 A2988 RMK AO2 SLP124 T10171056=
202112290953 METAR KCLM 290953Z AUTO 07003KT 10SM OVC024 M02/M06 A2986 RMK AO2 SLP115 T10171056=
202112290853 METAR KCLM 290853Z AUTO 16006KT 10SM OVC022 M02/M06 A2984 RMK AO2 SLP109 T10171056 51013=
202112290753 METAR KCLM 290753Z AUTO 07003KT 10SM OVC021 M01/M06 A2983 RMK AO2 SLP105 T10111061 410111039=
202112290653 METAR KCLM 290653Z AUTO 06004KT 10SM OVC019 M02/M06 A2982 RMK AO2 SLP103 T10171061=
202112290553 METAR KCLM 290553Z AUTO 05003KT 10SM OVC017 M02/M05 A2980 RMK AO2 SLP096 T10221050 11022 21028 53008=
202112290453 METAR KCLM 290453Z AUTO 15004KT 10SM OVC019 M02/M06 A2979 RMK AO2 SLP090 T10221056=
202112290353 METAR KCLM 290353Z AUTO 12003KT 10SM OVC018 M02/M06 A2978 RMK AO2 SLP089 T10221056=
202112290253 METAR KCLM 290253Z AUTO 00000KT 10SM OVC019 M02/M06 A2978 RMK AO2 SLP087 T10221056 51002=
202112290153 METAR KCLM 290153Z AUTO 15003KT 10SM OVC018 M02/M06 A2978 RMK AO2 SLP087 T10221061=
202112290053 METAR KCLM 290053Z AUTO 14006KT 10SM OVC021 M02/M06 A2978 RMK AO2 SLP087 T10221061=
202112282353 METAR KCLM 282353Z AUTO 15003KT 10SM OVC020 M02/M06 A2977 RMK AO2 SLP086 T10221056 11022 21028 56014=
202112282253 METAR KCLM 282253Z AUTO VRB03KT 10SM OVC018 M02/M06 A2979 RMK AO2 SLP091 T10221061=
202112282153 METAR KCLM 282153Z AUTO 10005KT 10SM OVC016 M02/M07 A2980 RMK AO2 SLP094 T10221067=
202112282053 METAR KCLM 282053Z AUTO 10003KT 10SM OVC017 M02/M07 A2981 RMK AO2 SLP100 T10221067 58013=
202112281953 METAR KCLM 281953Z AUTO 11003KT 10SM OVC017 M03/M07 A2984 RMK AO2 SLP110 T10281067=
202112281853 METAR KCLM 281853Z AUTO 10003KT 10SM OVC018 M03/M07 A2985 RMK AO2 SLP113 T10281067=
202112281753 METAR KCLM 281753Z AUTO 09007KT 10SM OVC016 M03/M07 A2985 RMK AO2 SLP113 60000 I6003 T10281072 11028 21033 56004=
202112281653 METAR KCLM 281653Z AUTO 11005KT 10SM OVC017 M03/M07 A2985 RMK AO2 SLP113 T10331067=
202112281631 SPECI KCLM 281631Z AUTO 12005KT 10SM OVC016 M03/M07 A2985 RMK AO2 T10331067=
202112281553 METAR KCLM 281553Z AUTO 08006KT 10SM OVC014 M03/M07 A2986 RMK AO2 SLP115 T10331067=
202112281453 METAR KCLM 281453Z AUTO 07005KT 5SM HZ OVC010 M03/M06 A2987 RMK AO2 FZRAE39 SLP117 P0000 60000 I1002 I3003 T10281056 53007=
202112281444 SPECI KCLM 281444Z AUTO VRB06KT 5SM OVC010 M03/M06 A2987 RMK AO2 FZRAE39 CIG 007V014 P0000 I1002 T10281056=
202112281428 SPECI KCLM 281428Z AUTO 11004KT 4SM -FZRA BR BKN008 OVC011 M03/M05 A2986 RMK AO2 CIG 006V010 P0000 I1001 T10281050=
202112281426 SPECI KCLM 281426Z AUTO 10004KT 5SM BR OVC011 M03/M05 A2986 RMK AO2 FZRAE20 P0000 I1001 T10281050=
202112281353 METAR KCLM 281353Z AUTO 10004KT 4SM -FZRA OVC010 M03/M06 A2983 RMK AO2 UPB27E30FZRAB30 CIG 007V012 SLP106 P0000 I1001 T10281056=
202112281336 SPECI KCLM 281336Z AUTO 11004KT 4SM -FZRA OVC010 M03/M06 A2983 RMK AO2 UPB27E30FZRAB30 CIG 008V012 P0000 I1001 T10281056=
202112281253 METAR KCLM 281253Z AUTO 11005KT 8SM OVC011 M03/M06 A2985 RMK AO2 SLP111 T10281056=
202112281153 METAR KCLM 281153Z AUTO 00000KT 6SM BR OVC014 M03/M06 A2984 RMK AO2 SLP110 60003 70004 I1000 I6000 T10331056 11028 21044 50002=
202112281135 SPECI KCLM 281135Z AUTO 10004KT 6SM HZ OVC014 M03/M06 A2984 RMK AO2 T10281061=
202112281121 SPECI KCLM 281121Z AUTO 12005KT 7SM OVC015 M03/M06 A2984 RMK AO2 T10281061=
202112281053 METAR KCLM 281053Z AUTO 12004KT 10SM OVC014 M03/M06 A2986 RMK AO2 SNE15B31E41 SLP115 P0000 T10331061=
202112281041 SPECI KCLM 281041Z AUTO 12004KT 9SM OVC014 M03/M06 A2986 RMK AO2 SNE15B31E41 P0000 T10331061=
202112280953 METAR KCLM 280953Z AUTO 13004KT 7SM -SN OVC015 M04/M06 A2985 RMK AO2 SLP111 P0002 T10391061=
202112280946 SPECI KCLM 280946Z AUTO 14004KT 4SM -SN BR OVC015 M04/M06 A2985 RMK AO2 P0002 T10391061=
202112280939 SPECI KCLM 280939Z AUTO 14004KT 2 1/2SM -SN BR OVC015 M04/M06 A2985 RMK AO2 P0002 T10391061=
202112280853 METAR KCLM 280853Z AUTO 16003KT 1 1/2SM -SN BKN019 OVC024 M04/M07 A2984 RMK AO2 SLP108 P0000 60001 T10391067 51012=
202112280849 SPECI KCLM 280849Z AUTO 16003KT 1 3/4SM -SN BKN019 OVC024 M04/M07 A2984 RMK AO2 P0000=
202112280825 SPECI KCLM 280825Z AUTO 18004KT 3SM -SN SCT017 BKN024 OVC046 M04/M07 A2984 RMK AO2 P0000 T10391067=
202112280804 SPECI KCLM 280804Z AUTO 18003KT 1 3/4SM -SN OVC029 M04/M07 A2983 RMK AO2 P0000 T10391067=
202112280753 METAR KCLM 280753Z AUTO 16003KT 4SM -SN OVC044 M04/M07 A2983 RMK AO2 SLP105 P0000 T10391067 410391094=
202112280726 SPECI KCLM 280726Z AUTO 15005KT 4SM -SN FEW013 OVC046 M04/M07 A2983 RMK AO2 P0000 T10391067=
202112280717 SPECI KCLM 280717Z AUTO 13005KT 3SM -SN SCT014 BKN020 OVC042 M04/M07 A2983 RMK AO2 P0000 T10391067=
202112280714 SPECI KCLM 280714Z AUTO 13005KT 2 1/2SM -SN BKN014 BKN019 OVC038 M04/M07 A2983 RMK AO2 P0000 T10391067=
202112280653 METAR KCLM 280653Z AUTO 14004KT 2SM -SN OVC017 M04/M07 A2983 RMK AO2 SLP105 P0001 T10391067=
202112280606 SPECI KCLM 280606Z AUTO 00000KT 2SM -SN BR BKN020 OVC025 M04/M07 A2981 RMK AO2 P0000 T10441067=
202112280553 METAR KCLM 280553Z AUTO 00000KT 1 1/2SM -SN BR OVC021 M04/M07 A2980 RMK AO2 SLP097 P0001 60001 T10441067 11044 21061 53007=
202112280542 SPECI KCLM 280542Z AUTO 22004KT 1 1/2SM -SN BR SCT018 OVC023 M04/M07 A2981 RMK AO2 P0001 T10441067=
202112280530 SPECI KCLM 280530Z AUTO 23004KT 2SM -SN BR OVC023 M04/M07 A2980 RMK AO2 P0001 T10441067=
202112280453 METAR KCLM 280453Z AUTO 20004KT 1 3/4SM -SN OVC018 M04/M07 A2980 RMK AO2 SLP095 P0000 T10441072=
202112280445 SPECI KCLM 280445Z AUTO 20005KT 1 3/4SM -SN OVC024 M04/M07 A2980 RMK AO2 P0000 T10441072=
202112280434 SPECI KCLM 280434Z AUTO 20004KT 2 1/2SM -SN OVC028 M04/M08 A2980 RMK AO2 P0000 T10441078=
202112280410 SPECI KCLM 280410Z AUTO 19004KT 5SM -SN OVC030 M05/M08 A2979 RMK AO2 P0000 T10501078=
202112280353 METAR KCLM 280353Z AUTO 17004KT 2SM -SN OVC026 M05/M08 A2978 RMK AO2 SNB23 SLP091 P0000 T10501078=
202112280340 SPECI KCLM 280340Z AUTO 18005KT 2SM -SN OVC032 M05/M08 A2978 RMK AO2 SNB23 P0000 T10501078=
202112280253 METAR KCLM 280253Z AUTO 00000KT 10SM SCT032 OVC046 M06/M08 A2978 RMK AO2 SNE18 SLP088 P0000 60000 T10561083 56007=
202112280156 SPECI KCLM 280156Z AUTO 00000KT 3SM -SN OVC031 M06/M08 A2978 RMK AO2 P0000 T10561083=
202112280153 METAR KCLM 280153Z AUTO 15003KT 2 1/2SM -SN OVC029 M06/M08 A2978 RMK AO2 SLP089 P0000 T10561083=
202112280131 SPECI KCLM 280131Z AUTO 13006KT 2 1/2SM -SN OVC032 M06/M09 A2978 RMK AO2 P0000 T10561089=
202112280053 METAR KCLM 280053Z AUTO 13006KT 4SM -SN OVC044 M06/M09 A2979 RMK AO2 SLP092 P0000 T10561089=
202112280035 SPECI KCLM 280035Z AUTO 13005KT 5SM -SN OVC038 M06/M09 A2979 RMK AO2 P0000 T10611089=
202112280020 SPECI KCLM 280020Z AUTO 13006KT 2SM -SN OVC030 M06/M09 A2980 RMK AO2 P0000 T10611089=
202112272353 METAR KCLM 272353Z AUTO 12007KT 1 1/2SM -SN OVC028 M06/M09 A2980 RMK AO2 SLP095 P0000 60000 T10561094 11056 21067 56005=
202112272343 SPECI KCLM 272343Z AUTO 11006KT 1 3/4SM -SN OVC036 M06/M09 A2980 RMK AO2 P0000 T10561094=
202112272330 SPECI KCLM 272330Z AUTO 12008KT 3SM -SN BKN034 OVC044 M06/M10 A2980 RMK AO2 P0000 T10561100=
202112272319 SPECI KCLM 272319Z AUTO 12006KT 1 1/2SM -SN OVC030 M06/M10 A2980 RMK AO2 P0000 T10561100=
202112272310 SPECI KCLM 272310Z AUTO 12006KT 2 1/2SM -SN BKN026 OVC043 M06/M10 A2980 RMK AO2 P0000 T10561100=
202112272253 METAR KCLM 272253Z AUTO 11005KT 6SM -SN BKN040 OVC048 M06/M10 A2980 RMK AO2 SNB47 SLP096 P0000 T10561100=
202112272153 METAR KCLM 272153Z AUTO 11006KT 10SM OVC044 M06/M11 A2981 RMK AO2 SLP098 T10561106=
202112272053 METAR KCLM 272053Z AUTO 12006KT 10SM FEW043 M06/M11 A2981 RMK AO2 SLP100 T10561106 58019=
202112271953 METAR KCLM 271953Z AUTO 13004KT 10SM SCT022 BKN042 M06/M11 A2984 RMK AO2 SLP109 T10611111=
202112271853 METAR KCLM 271853Z AUTO 00000KT 10SM OVC023 M06/M11 A2987 RMK AO2 SLP120 T10611111=
202112271753 METAR KCLM 271753Z AUTO 00000KT 9SM OVC021 M07/M11 A2987 RMK AO2 SNB03E48 SLP120 P0000 60000 T10671106 11061 21094 50001=
202112271653 METAR KCLM 271653Z AUTO 00000KT 9SM OVC025 M08/M12 A2989 RMK AO2 SLP125 T10781117=
202112271633 SPECI KCLM 271633Z AUTO 25005KT 10SM OVC027 M08/M12 A2988 RMK AO2 T10781117=
202112271553 METAR KCLM 271553Z AUTO 17003KT 10SM OVC033 M09/M11 A2987 RMK AO2 SLP119 T10891111=
202112271453 METAR KCLM 271453Z AUTO 00000KT 10SM OVC035 M09/M12 A2987 RMK AO2 SLP118 T10891117 58002=
202112271353 METAR KCLM 271353Z AUTO 17004KT 10SM OVC038 M07/M13 A2986 RMK AO2 SLP117 T10721133=
202112271253 METAR KCLM 271253Z AUTO VRB04KT 10SM OVC037 M07/M14 A2989 RMK AO2 SLP127 T10671144=
202112271153 METAR KCLM 271153Z AUTO VRB03KT 10SM OVC039 M06/M13 A2987 RMK AO2 SLP120 70014 T10611133 11061 21078 53012=
202112271053 METAR KCLM 271053Z AUTO 09007KT 10SM OVC044 M07/M13 A2985 RMK AO2 SLP113 T10671133=
202112270953 METAR KCLM 270953Z AUTO 14007KT 10SM OVC046 M07/M13 A2985 RMK AO2 SLP114 T10721128=
202112270853 METAR KCLM 270853Z AUTO 15006KT 10SM BKN031 OVC050 M08/M13 A2984 RMK AO2 SLP108 T10781128 51024=
202112270753 METAR KCLM 270753Z AUTO 14006KT 10SM BKN033 OVC060 M07/M13 A2981 RMK AO2 SLP100 T10721128 410221072=
202112270653 METAR KCLM 270653Z AUTO 12007KT 10SM BKN030 OVC037 M07/M13 A2979 RMK AO2 SLP093 T10671133=
202112270553 METAR KCLM 270553Z AUTO VRB04KT 10SM BKN030 OVC060 M07/M14 A2976 RMK AO2 SLP084 T10671139 11056 21067 51025=
202112270453 METAR KCLM 270453Z AUTO 06007G18KT 030V110 10SM BKN032 OVC060 M07/M13 A2974 RMK AO2 SLP075 T10671133=
202112270406 SPECI KCLM 270406Z AUTO 10012G21KT 10SM BKN031 BKN035 OVC060 M07/M13 A2973 RMK AO2 T10671133=
202112270353 METAR KCLM 270353Z AUTO 10SM FEW025 BKN029 OVC035 M07/M13 A2972 RMK AO2 SLP069 T10671128=
202112270335 SPECI KCLM 270335Z AUTO 08010G19KT 030V100 10SM BKN029 BKN049 OVC060 M07/M13 A2971 RMK AO2 T10671128=
202112270253 METAR KCLM 270253Z AUTO 07007G19KT 020V090 10SM SCT047 OVC060 M07/M13 A2969 RMK AO2 SLP058 T10671128 53034=
202112270153 METAR KCLM 270153Z AUTO 06010G21KT 10SM OVC047 M06/M12 A2965 RMK AO2 SLP044 T10611117=
202112270053 METAR KCLM 270053Z AUTO 06009G20KT 020V080 10SM FEW031 OVC045 M06/M11 A2962 RMK AO2 SLP036 T10611106=
202112270033 SPECI KCLM 270033Z AUTO 07009G21KT 10SM BKN031 OVC043 M06/M10 A2961 RMK AO2 T10561100=
202112270023 SPECI KCLM 270023Z AUTO 07009G16KT 10SM FEW024 OVC029 M06/M10 A2960 RMK AO2 T10561100=
202112270016 SPECI KCLM 270016Z AUTO 07007G18KT 10SM FEW019 SCT025 OVC031 M06/M10 A2960 RMK AO2 T10561100=
202112262353 METAR KCLM 262353Z AUTO 08012G19KT 10SM SCT019 BKN027 OVC035 M06/M10 A2959 RMK AO2 SLP022 60000 T10561100 11044 21056 53018=
202112262253 METAR KCLM 262253Z AUTO 07007G16KT 010V090 10SM BKN020 BKN028 OVC034 M05/M09 A2956 RMK AO2 SNB07E10 SLP014 P0000 T10501094=
202112262214 SPECI KCLM 262214Z AUTO 06007G16KT 9SM FEW020 SCT028 OVC040 M05/M09 A2955 RMK AO2 SNB07E10 P0000 T10501094=
202112262153 METAR KCLM 262153Z AUTO VRB06KT 9SM SCT019 OVC026 M05/M09 A2954 RMK AO2 SNB36E49 SLP007 P0000 T10501094=
202112262053 METAR KCLM 262053Z AUTO 08008KT 10SM OVC020 M05/M09 A2953 RMK AO2 SNE30 SLP005 P0000 60000 T10501094 51006=
202112262011 SPECI KCLM 262011Z AUTO 07006G16KT 4SM -SN OVC017 M05/M09 A2953 RMK AO2 P0000 T10501089 $=
202112261953 METAR KCLM 261953Z AUTO 09009KT 2SM -SN OVC016 M05/M09 A2953 RMK AO2 SNB20 SLP002 P0000 T10501089 $=
202112261942 SPECI KCLM 261942Z AUTO 09005KT 2 1/2SM -SN OVC015 M05/M09 A2953 RMK AO2 VIS 1 3/4V3 SNB20 P0000 T10501089 $=
202112261929 SPECI KCLM 261929Z AUTO 08007KT 050V110 4SM -SN BKN013 OVC018 M05/M08 A2953 RMK AO2 SNB20 P0000 T10501083 $=
202112261853 METAR KCLM 261853Z AUTO 08007KT 9SM BKN016 BKN025 OVC055 M05/M08 A2953 RMK AO2 SNE50 SLP002 P0000 T10501083 $=
202112261807 SPECI KCLM 261807Z AUTO 09006KT 3SM -SN SCT012 BKN019 OVC055 M05/M08 A2952 RMK AO2 P0000 T10501078 $=
202112261758 SPECI KCLM 261758Z AUTO 09008KT 2 1/2SM -SN BKN013 BKN020 OVC043 M05/M08 A2952 RMK AO2 P0000 T10501078 $=
202112261753 METAR KCLM 261753Z AUTO 07006KT 1 1/2SM -SN SCT009 BKN015 OVC027 M05/M08 A2952 RMK AO2 SLP999 P0000 60014 T10501078 11033 21050 53016 $=
202112261738 SPECI KCLM 261738Z AUTO 09006KT 1SM -SN FEW009 BKN015 OVC020 M05/M08 A2951 RMK AO2 P0000 T10501078 $=
202112261717 SPECI KCLM 261717Z AUTO 09009KT 3/4SM -SN FEW005 BKN014 OVC020 M05/M08 A2950 RMK AO2 P0000 T10501078 $=
202112261709 SPECI KCLM 261709Z AUTO 09006KT 3/4SM -SN FEW006 BKN009 OVC018 M05/M08 A2950 RMK AO2 P0000 T10501078 $=
202112261701 SPECI KCLM 261701Z AUTO 08008KT 040V100 1SM -SN BR SCT006 OVC011 M05/M07 A2950 RMK AO2 VIS 1/2V1 1/2 P0000 T10501072 $=
202112261653 METAR KCLM 261653Z AUTO 08008KT 1/2SM SN FZFG FEW006 SCT009 OVC012 M05/M07 A2949 RMK AO2 SLP991 P0003 T10501072 $=
202112261650 SPECI KCLM 261650Z AUTO 07006KT 1/2SM SN FZFG SCT006 OVC012 M05/M07 A2949 RMK AO2 P0003 $=
202112261640 SPECI KCLM 261640Z AUTO 3/4SM -SN BR SCT006 OVC016 M05/M07 A2949 RMK AO2 P0002 T10501072 $=
202112261633 SPECI KCLM 261633Z AUTO VRB04KT 1SM -SN FEW007 SCT011 OVC016 M05/M08 A2948 RMK AO2 P0002 T10501078 $=
202112261553 METAR KCLM 261553Z AUTO 03007KT 360V080 1/2SM SN VV008 M04/M07 A2947 RMK AO2 SLP983 P0002 T10441072 $=
202112261453 METAR KCLM 261453Z AUTO VRB06G16KT 1/2SM SN VV007 M04/M07 A2945 RMK AO2 SLP976 P0003 60009 T10441072 53015 $=
202112261353 METAR KCLM 261353Z AUTO 09006KT 1/2SM SN FZFG VV007 M04/M06 A2943 RMK AO2 SLP969 P0003 T10391061 $=
202112261317 SPECI KCLM 261317Z AUTO 10007KT 3/4SM -SN BR VV009 M04/M06 A2942 RMK AO2 P0001 T10391061 $=
202112261253 METAR KCLM 261253Z AUTO 10009KT 3/4SM -SN VV010 M04/M07 A2942 RMK AO2 SLP964 P0003 T10391067 $=
202112261221 SPECI KCLM 261221Z AUTO 09008KT 3/4SM -SN VV010 M03/M06 A2941 RMK AO2 P0002 T10331061 $=
202112261205 SPECI KCLM 261205Z AUTO 09008G17KT 3/4SM -SN BKN009 OVC014 M03/M06 A2941 RMK AO2 P0001 T10331061 $=
202112261153 METAR KCLM 261153Z AUTO 09009KT 1SM -SN BR BKN009 OVC012 M03/M06 A2941 RMK AO2 SLP961 P0003 60013 70029 T10331056 11006 21033 51013 $=
202112261126 SPECI KCLM 261126Z AUTO 08007KT 030V110 1SM -SN FEW004 BKN008 OVC013 M03/M06 A2941 RMK AO2 P0002 T10281056 $=
202112261114 SPECI KCLM 261114Z AUTO VRB06G16KT 1 1/4SM -SN FEW004 OVC010 M03/M06 A2940 RMK AO2 P0001 T10281056 $=
202112261105 SPECI KCLM 261105Z AUTO VRB06G16KT 3/4SM -SN FEW004 BKN010 OVC016 M03/M06 A2940 RMK AO2 P0001 T10281056 $=
202112261056 SPECI KCLM 261056Z AUTO 05009G16KT 010V090 1 1/4SM -SN FEW004 BKN010 OVC015 M03/M06 A2940 RMK AO2 P0000 T10281061 $=
202112261053 METAR KCLM 261053Z AUTO 05007G16KT 360V140 1 3/4SM -SN OVC013 M03/M06 A2940 RMK AO2 SLP958 P0000 T10281061 $=
202112261009 SPECI KCLM 261009Z AUTO 07006G16KT 1 3/4SM -SN BKN010 OVC014 M03/M06 A2938 RMK AO2 CIG 006V011 P0000 T10281056 $=
202112261002 SPECI KCLM 261002Z AUTO 05007G22KT 360V080 3SM -SN BKN010 OVC014 M03/M06 A2938 RMK AO2 CIG 006V012 P0000 T10281056 $=
202112260953 METAR KCLM 260953Z AUTO VRB06G16KT 2SM -SN BKN008 OVC013 M02/M05 A2938 RMK AO2 CIG 006V012 SLP950 P0001 T10221050 $=
202112260905 SPECI KCLM 260905Z AUTO VRB06G19KT 1SM -SN BR BKN008 OVC013 M02/M04 A2936 RMK AO2 P0000 T10221044 $=
202112260856 SPECI KCLM 260856Z AUTO 03009G19KT 360V070 1 3/4SM -SN OVC010 M02/M05 A2936 RMK AO2 P0000 T10221050 $=
202112260853 METAR KCLM 260853Z AUTO VRB05G18KT 2 1/2SM -SN BKN007 OVC012 M02/M05 A2937 RMK AO2 SLP947 P0001 60009 T10221050 50002 $=
202112260835 SPECI KCLM 260835Z AUTO VRB05KT 3SM -SN BR BKN007 OVC012 M02/M04 A2937 RMK AO2 P0001 T10221044 $=
202112260827 SPECI KCLM 260827Z AUTO VRB06KT 2 1/2SM -SN BR BKN007 OVC012 M02/M04 A2937 RMK AO2 P0001 T10221044 $=
202112260814 SPECI KCLM 260814Z AUTO VRB05G16KT 1 1/4SM -SN BR BKN006 OVC012 M02/M04 A2937 RMK AO2 P0001 T10221044 $=
202112260753 METAR KCLM 260753Z AUTO VRB06G16KT 1/2SM SN FZFG OVC006 M02/M04 A2937 RMK AO2 SLP949 P0002 T10221044 400171022 $=
202112260721 SPECI KCLM 260721Z AUTO 02009G15KT 350V060 1SM -SN BR BKN005 OVC010 M02/M04 A2937 RMK AO2 P0001 T10171039 $=
202112260653 METAR KCLM 260653Z AUTO 03008KT 360V070 3/4SM -SN BR OVC005 M02/M03 A2937 RMK AO2 SLP949 P0006 T10171033 $=
202112260553 METAR KCLM 260553Z AUTO VRB06KT 1/2SM SN FZFG OVC005 M01/M02 A2936 RMK AO2 SLP945 P0007 60011 T10061022 10006 21006 56003 $=
202112260515 SPECI KCLM 260515Z AUTO 07008KT 1/2SM SN OVC007 00/M03 A2936 RMK AO2 P0003 T00001028 $=
202112260501 SPECI KCLM 260501Z AUTO 08007KT 1 3/4SM -SN BR OVC009 00/M02 A2937 RMK AO2 CIG 006V013 P0001 T00001022 $=
202112260453 METAR KCLM 260453Z AUTO 11005KT 4SM -SN OVC009 01/M02 A2936 RMK AO2 UPB17E21B40E42SNB21E40B43 CIG 007V013 SLP946 P0001 T00061022 $=
202112260431 SPECI KCLM 260431Z AUTO VRB04KT 4SM -SN BR BKN009 BKN014 OVC018 01/M02 A2936 RMK AO2 UPB17E21SNB21 P0001 T00061017 $=
202112260353 METAR KCLM 260353Z AUTO 15003KT 10SM FEW008 OVC017 00/M02 A2936 RMK AO2 SNE06 SLP946 P0000 T00001017 $=
202112260335 SPECI KCLM 260335Z AUTO 13003KT 10SM FEW008 BKN025 OVC036 00/M02 A2936 RMK AO2 SNE06 P0000 T00001022 $=
202112260327 SPECI KCLM 260327Z AUTO 00000KT 10SM SCT019 BKN026 OVC035 00/M02 A2936 RMK AO2 SNE06 P0000 T00001022 $=
202112260257 SPECI KCLM 260257Z AUTO 00000KT 3SM -SN BR SCT015 OVC035 00/M02 A2937 RMK AO2 P0000 T00001017 $=
202112260253 METAR KCLM 260253Z AUTO 00000KT 2SM -SN BR FEW008 BKN015 OVC033 01/M02 A2937 RMK AO2 SLP948 P0002 60003 T00061017 56009 $=
202112260247 SPECI KCLM 260247Z AUTO 00000KT 1 1/4SM -SN BR FEW008 BKN015 OVC035 01/M02 A2937 RMK AO2 P0002 $=
202112260239 SPECI KCLM 260239Z AUTO 04003KT 3/4SM -SN BR OVC013 01/M02 A2937 RMK AO2 P0002 T00061017 $=
202112260232 SPECI KCLM 260232Z AUTO 15003KT 1 3/4SM -SN BR FEW010 OVC017 00/M01 A2937 RMK AO2 P0001 T00001011 $=
202112260220 SPECI KCLM 260220Z AUTO 13003KT 4SM -SN BR BKN015 OVC021 01/M02 A2937 RMK AO2 P0001 T00061017 $=
202112260212 SPECI KCLM 260212Z AUTO 12004KT 2 1/2SM -SN BR FEW015 OVC021 01/M02 A2937 RMK AO2 P0001 T00061017 $=
202112260205 SPECI KCLM 260205Z AUTO 12003KT 3SM -SN BR OVC019 01/M02 A2938 RMK AO2 P0001 T00061017 $=
202112260153 METAR KCLM 260153Z AUTO 00000KT 2 1/2SM -SN BR OVC017 01/M01 A2938 RMK AO2 VIS 1 1/2V5 SNB0058 SLP951 P0001 T00061011 $=
202112260146 SPECI KCLM 260146Z AUTO 00000KT 7SM -SN FEW010 OVC017 01/M01 A2938 RMK AO2 SNB0058 P0001 T00061011 $=
202112260138 SPECI KCLM 260138Z AUTO 29003KT 2SM -SN BR OVC015 01/M01 A2938 RMK AO2 SNB0058 P0001 T00061011 $=
202112260131 SPECI KCLM 260131Z AUTO 19003KT 1SM -SN BR VV014 01/M01 A2938 RMK AO2 SNB0058 P0001 T00061011 $=
202112260116 SPECI KCLM 260116Z AUTO 22004KT 1 1/2SM -SN BR BKN021 OVC031 01/M01 A2938 RMK AO2 SNB0058 P0001 T00061011 $=
202112260109 SPECI KCLM 260109Z AUTO 21003KT 1 3/4SM -SN BR OVC031 01/M01 A2938 RMK AO2 VIS 1V5 SNB0058 P0001 T00061011 $=
202112260053 METAR KCLM 260053Z AUTO 00000KT 9SM SCT036 BKN049 OVC055 01/M02 A2938 RMK AO2 SLP952 T00061017 $=
202112252353 METAR KCLM 252353Z AUTO 24004KT 10SM SCT027 BKN065 OVC080 01/M02 A2940 RMK AO2 SNE12 SLP957 P0000 60000 T00061017 10017 20006 56003 $=
202112252339 SPECI KCLM 252339Z AUTO 28004KT 10SM SCT013 OVC028 01/M02 A2940 RMK AO2 SNE12 P0000 T00061017 $=
202112252316 SPECI KCLM 252316Z AUTO 23004KT 9SM OVC013 01/M01 A2940 RMK AO2 SNE12 P0000 T00111011 $=
202112252253 METAR KCLM 252253Z AUTO 24006KT 4SM -SN BKN025 OVC036 01/M02 A2940 RMK AO2 SNB35 SLP957 P0000 T00111017 $=
202112252248 SPECI KCLM 252248Z AUTO 27006KT 2 1/2SM -SN BKN031 BKN038 OVC050 01/M02 A2940 RMK AO2 SNB35 P0000 $=
202112252153 METAR KCLM 252153Z AUTO 26008KT 10SM BKN037 OVC050 01/M03 A2941 RMK AO2 SLP960 T00111028 $=
202112252053 METAR KCLM 252053Z AUTO 28010KT 10SM FEW060 OVC090 01/M02 A2941 RMK AO2 SLP963 60000 T00111022 58005 $=
202112251953 METAR KCLM 251953Z AUTO 26009KT 10SM OVC070 02/M02 A2942 RMK AO2 SLP964 T00171017 $=
202112251853 METAR KCLM 251853Z AUTO 26008KT 9SM BKN038 BKN055 OVC070 02/M01 A2943 RMK AO2 SNE27B44E53 SLP968 P0000 T00171011 $=
202112251841 SPECI KCLM 251841Z AUTO 26009KT 10SM BKN031 OVC055 02/M01 A2943 RMK AO2 SNE27 P0000 T00171011 $=
202112251825 SPECI KCLM 251825Z AUTO 26010KT 5SM -SN BR OVC029 01/M01 A2943 RMK AO2 P0000 T00111011 $=
202112251813 SPECI KCLM 251813Z AUTO 28009KT 4SM -SN OVC033 02/M01 A2943 RMK AO2 P0000 T00171011 $=
202112251753 METAR KCLM 251753Z AUTO 27007KT 2 1/2SM -SN BR BKN033 OVC048 01/M01 A2943 RMK AO2 SNE07B20 SLP968 P0000 60005 I6000 T00111011 10017 20000 53011 $=
202112251736 SPECI KCLM 251736Z AUTO 27007KT 3SM -SN BR OVC029 01/M01 A2943 RMK AO2 SNE07B20 P0000 T00111011 $=
202112251729 SPECI KCLM 251729Z AUTO 27008KT 2 1/2SM -SN BR BKN031 OVC040 01/M01 A2942 RMK AO2 SNE07B20 P0000 T00111011 $=
202112251715 SPECI KCLM 251715Z AUTO 28012G18KT 10SM OVC034 02/M01 A2942 RMK AO2 SNE07 P0000 T00171011 $=
202112251653 METAR KCLM 251653Z AUTO 27006KT 6SM -SN BR OVC023 01/M01 A2941 RMK AO2 SLP962 P0000 T00111006 $=
202112251625 SPECI KCLM 251625Z AUTO 27005KT 6SM -SN BR OVC019 01/M01 A2941 RMK AO2 P0000 T00111006 $=
202112251610 SPECI KCLM 251610Z AUTO 29009KT 2 1/2SM -SN BR OVC019 01/M01 A2941 RMK AO2 P0000 T00111006 $=
202112251553 METAR KCLM 251553Z AUTO 30008KT 9SM -SN FEW013 OVC025 02/M01 A2941 RMK AO2 UPB40E51SNB51 SLP960 P0000 I1000 T00171006 $=
202112251453 METAR KCLM 251453Z AUTO 00000KT 9SM SCT015 SCT020 OVC034 01/00 A2940 RMK AO2 SNE14B26E50 SLP957 P0000 60005 I3000 T00110000 50002 $=
202112251421 SPECI KCLM 251421Z AUTO 00000KT 10SM BKN020 OVC070 01/M01 A2940 RMK AO2 SNE14 P0000 T00061006 $=
202112251412 SPECI KCLM 251412Z AUTO 17003KT 7SM -SN SCT018 BKN032 OVC070 01/M01 A2940 RMK AO2 P0000 T00061006 $=
202112251404 SPECI KCLM 251404Z AUTO 20003KT 2SM -SN BR BKN016 OVC070 01/00 A2940 RMK AO2 P0000 T00110000 $=
202112251353 METAR KCLM 251353Z AUTO 18004KT 1SM -SN BR VV011 01/M01 A2940 RMK AO2 SNB06 SLP959 P0005 T00111006 $=
202112251342 SPECI KCLM 251342Z AUTO 21003KT 1SM -SN BR VV010 01/00 A2941 RMK AO2 SNB06 P0004 T00110000 $=
202112251339 SPECI KCLM 251339Z AUTO 00000KT 3/4SM -SN BR VV009 01/M01 A2941 RMK AO2 SNB06 P0004 T00111006 $=
202112251329 SPECI KCLM 251329Z AUTO 00000KT 1/2SM SN FG VV011 01/M01 A2941 RMK AO2 SNB06 P0003 T00111006 $=
202112251319 SPECI KCLM 251319Z AUTO 24003KT 3/4SM -SN BR VV017 01/M01 A2941 RMK AO2 SNB06 P0001 T00111006 $=
202112251313 SPECI KCLM 251313Z AUTO 25003KT 2 1/2SM -SN BR OVC023 01/M01 A2940 RMK AO2 SNB06 P0000 T00111006 $=
202112251253 METAR KCLM 251253Z AUTO 27004KT 10SM OVC042 01/M01 A2940 RMK AO2 SLP958 I1000 T00061006 $=
202112251213 SPECI KCLM 251213Z AUTO 23004KT 8SM SCT028 BKN060 01/M01 A2940 RMK AO2 I1000 T00061011 $=
202112251201 SPECI KCLM 251201Z AUTO 00000KT 8SM BKN027 01/M01 A2939 RMK AO2 T00061011 $=
202112251153 METAR KCLM 251153Z AUTO VRB03KT 10SM OVC031 01/M01 A2939 RMK AO2 SLP956 60011 70014 I1000 I6000 T00061011 10028 21006 58008 $=
202112251053 METAR KCLM 251053Z AUTO 16004KT 10SM SCT028 00/M01 A2941 RMK AO2 SLP963 T00001011 $=
202112251035 SPECI KCLM 251035Z AUTO 14004KT 8SM BKN029 00/M01 A2941 RMK AO2 T00001011 $=
202112250953 METAR KCLM 250953Z AUTO 14003KT 10SM SCT015 OVC031 01/M01 A2942 RMK AO2 SLP963 T00111006 $=
202112250951 SPECI KCLM 250951Z AUTO 14003KT 10SM SCT015 OVC032 01/M01 A2941 RMK AO2 $=
202112250933 SPECI KCLM 250933Z AUTO 14004KT 10SM FEW008 OVC014 01/M01 A2941 RMK AO2 T00111006 $=
202112250853 METAR KCLM 250853Z AUTO 18003KT 10SM OVC010 01/M01 A2942 RMK AO2 SNE07 CIG 008V013 SLP964 P0000 60011 T00111006 51016 $=
202112250821 SPECI KCLM 250821Z AUTO 00000KT 9SM BKN010 OVC015 01/M01 A2941 RMK AO2 SNE07 CIG 006V013 P0000 T00111006 $=
202112250807 SPECI KCLM 250807Z AUTO 00000KT 7SM BKN008 OVC013 02/00 A2942 RMK AO2 SNE07 CIG 004V011 P0000 T00170000 $=
202112250753 METAR KCLM 250753Z AUTO 00000KT 4SM -SN BR FEW005 OVC010 02/00 A2942 RMK AO2 CIG 007V015 SLP962 P0002 T00170000 400610000 $=
202112250729 SPECI KCLM 250729Z AUTO 33003KT 3SM -SN BR BKN006 OVC012 01/M01 A2941 RMK AO2 CIG 004V009 P0002 T00111006 $=
202112250704 SPECI KCLM 250704Z AUTO 30004KT 2SM -SN BR OVC004 01/00 A2940 RMK AO2 P0001 T00110000 $=
202112250653 METAR KCLM 250653Z AUTO 26003KT 1 1/2SM -SN BR OVC006 01/M01 A2940 RMK AO2 RAB0555E0556UPB0559E05SNB0556E0559B05 SLP956 P0009 T00111006 $=
202112250646 SPECI KCLM 250646Z AUTO 30004KT 2SM -SN BR OVC006 01/M01 A2940 RMK AO2 RAB0555E0556UPB0559E05SNB0556E0559B05 P0009 T00111006 $=
202112250624 SPECI KCLM 250624Z AUTO 26005KT 1 3/4SM -SN BR OVC008 02/M01 A2939 RMK AO2 RAB0555E0556UPB0559E05SNB0556E0559B05 P0003 T00171006 $=
202112250553 METAR KCLM 250553Z AUTO 27010G15KT 10SM OVC008 03/00 A2937 RMK AO2 SLP947 60001 T00280000 10050 20028 53027 $=
202112250453 METAR KCLM 250453Z AUTO 01008G20KT 10SM BKN009 OVC015 03/01 A2933 RMK AO2 RAE45UPB45E50 SLP935 P0000 T00280006 $=
202112250353 METAR KCLM 250353Z AUTO VRB06G20KT 10SM -RA BKN007 OVC014 03/01 A2931 RMK AO2 RAE0258B16 SLP929 P0000 T00330011 $=
202112250307 SPECI KCLM 250307Z AUTO VRB06G16KT 10SM BKN006 BKN013 OVC019 04/02 A2929 RMK AO2 RAE0258 CIG 005V011 P0000 T00440022 $=
202112250253 METAR KCLM 250253Z AUTO VRB05KT 10SM -RA SCT006 BKN012 OVC024 04/02 A2929 RMK AO2 SLP919 P0001 60001 T00440022 51011 $=
202112250241 SPECI KCLM 250241Z AUTO VRB05KT 9SM -RA FEW008 BKN012 OVC025 04/02 A2929 RMK AO2 P0001 T00440022 $=
202112250153 METAR KCLM 250153Z AUTO 27003KT 10SM -RA SCT016 BKN025 OVC032 04/01 A2928 RMK AO2 RAB53 SLP917 P0000 T00440011 $=
202112250053 METAR KCLM 250053Z AUTO 23005KT 10SM OVC023 04/01 A2927 RMK AO2 SLP912 T00440011 $=
202112242353 METAR KCLM 242353Z AUTO 28003KT 10SM OVC019 05/02 A2925 RMK AO2 SLP907 T00500017 10061 20033 53010 $=
202112242253 METAR KCLM 242253Z AUTO 00000KT 10SM OVC016 05/01 A2924 RMK AO2 SLP901 T00500011 $=
202112242234 SPECI KCLM 242234Z AUTO 00000KT 10SM BKN015 05/01 A2924 RMK AO2 T00500011 $=
202112242153 METAR KCLM 242153Z AUTO 33004KT 10SM CLR 06/01 A2923 RMK AO2 SLP898 T00560011 $=
202112242053 METAR KCLM 242053Z AUTO 00000KT 10SM SCT023 05/02 A2922 RMK AO2 SLP897 T00500017 51004 $=
202112241953 METAR KCLM 241953Z AUTO 03004KT 10SM SCT013 BKN019 06/02 A2922 RMK AO2 SLP897 T00560017 $=
202112241853 METAR KCLM 241853Z AUTO 00000KT 10SM OVC017 06/02 A2923 RMK AO2 SLP898 T00610017 $=
202112241810 SPECI KCLM 241810Z AUTO 00000KT 10SM BKN019 06/03 A2922 RMK AO2 T00560028 $=
202112241753 METAR KCLM 241753Z AUTO 00000KT 10SM FEW110 03/01 A2921 RMK AO2 SLP894 60002 I6000 T00330011 10033 20000 53008 $=
202112241653 METAR KCLM 241653Z AUTO 16003KT 8SM CLR 01/M01 A2919 RMK AO2 SLP888 T00061011 $=
202112241553 METAR KCLM 241553Z AUTO 20003KT 10SM BKN065 BKN110 01/M01 A2919 RMK AO2 SLP887 I1000 T00061011 $=
202112241453 METAR KCLM 241453Z AUTO 00000KT 10SM CLR 01/M01 A2919 RMK AO2 SLP886 60002 T00061011 55000 $=
202112241353 METAR KCLM 241353Z AUTO 00000KT 10SM FEW100 02/00 A2918 RMK AO2 RAE16 SLP882 P0001 T00170000 $=
202112241322 SPECI KCLM 241322Z AUTO 24005KT 10SM BKN038 02/00 A2918 RMK AO2 RAE16 P0001 T00220000 $=
202112241253 METAR KCLM 241253Z AUTO 23005KT 9SM -RA OVC029 03/01 A2919 RMK AO2 UPB06E09 SLP885 P0001 T00280011 $=
202112241153 METAR KCLM 241153Z AUTO 00000KT 7SM -RA BKN033 OVC070 02/01 A2919 RMK AO2 RAE31B46 SLP886 P0002 60003 70006 T00220006 10028 20011 56007 $=
202112241140 SPECI KCLM 241140Z AUTO 22004KT 10SM BKN046 OVC065 02/01 A2919 RMK AO2 RAE31 P0001 T00220006 $=
202112241115 SPECI KCLM 241115Z AUTO 27005KT 8SM -RA OVC026 03/01 A2920 RMK AO2 P0001 T00280006 $=
202112241053 METAR KCLM 241053Z AUTO 26006KT 10SM -RA BKN040 OVC065 03/01 A2920 RMK AO2 RAB51 SLP890 P0000 T00280006 $=
202112240953 METAR KCLM 240953Z AUTO 15004KT 10SM BKN040 OVC110 02/01 A2919 RMK AO2 RAE21B44E45UPB21E44 SLP886 P0001 T00220006 $=
202112240923 SPECI KCLM 240923Z AUTO 28006KT 10SM UP OVC036 03/01 A2920 RMK AO2 RAE21UPB21 P0001 T00280006 $=
202112240853 METAR KCLM 240853Z AUTO 27007KT 9SM -RA OVC026 03/00 A2921 RMK AO2 RAB31 SLP892 P0000 60000 T00280000 55024 $=
202112240753 METAR KCLM 240753Z AUTO 15005KT 10SM SCT110 02/M01 A2924 RMK AO2 SLP904 T00171006 400610017 $=
202112240653 METAR KCLM 240653Z AUTO 13003KT 10SM FEW060 BKN090 OVC100 02/00 A2928 RMK AO2 SLP917 T00220000 $=
202112240553 METAR KCLM 240553Z AUTO 00000KT 10SM BKN090 BKN120 02/01 A2932 RMK AO2 SLP931 60000 T00220006 10050 20022 58023 $=
202112240453 METAR KCLM 240453Z AUTO 00000KT 10SM SCT070 OVC085 02/00 A2935 RMK AO2 SLP940 T00220000 $=
202112240353 METAR KCLM 240353Z AUTO 22004KT 10SM SCT080 BKN100 OVC120 04/01 A2937 RMK AO2 SLP947 T00390006=
202112240253 METAR KCLM 240253Z AUTO 25006KT 10SM FEW100 SCT110 03/00 A2939 RMK AO2 RAE15 SLP954 P0000 60000 T00330000 58010=
202112240153 METAR KCLM 240153Z AUTO 27010G17KT 10SM -RA OVC036 04/00 A2942 RMK AO2 RAB31 SLP964 P0000 T00440000=
202112240053 METAR KCLM 240053Z AUTO 24007KT 10SM BKN049 OVC070 04/00 A2942 RMK AO2 PK WND 26027/0023 RAB24E39 SLP963 P0000 T00440000=
202112232353 METAR KCLM 232353Z AUTO 28008KT 10SM FEW049 OVC060 04/01 A2942 RMK AO2 SLP963 60000 T00440006 10061 20044 55004=
202112232253 METAR KCLM 232253Z AUTO 25004KT 10SM SCT050 SCT060 BKN120 06/01 A2941 RMK AO2 RAB10E27 SLP960 P0000 T00560006=
202112232153 METAR KCLM 232153Z AUTO 25012G18KT 10SM FEW047 BKN055 BKN070 05/00 A2941 RMK AO2 RAB08E24 SLP962 P0000 T00500000=
202112232053 METAR KCLM 232053Z AUTO 25007KT 10SM FEW049 BKN060 06/01 A2943 RMK AO2 RAB1955E25 SLP967 P0000 60000 T00560011 50004=
202112231953 METAR KCLM 231953Z AUTO 29011G18KT 10SM BKN042 BKN049 OVC070 05/01 A2944 RMK AO2 RAB29E44 SLP969 P0000 T00500006=
202112231853 METAR KCLM 231853Z AUTO 29010G19KT 10SM SCT050 BKN080 OVC090 06/01 A2943 RMK AO2 RAB22E31 SLP967 P0000 T00560006=
202112231753 METAR KCLM 231753Z AUTO 24009KT 10SM FEW085 04/01 A2942 RMK AO2 SLP963 60003 T00440011 10044 20022 53005=
202112231653 METAR KCLM 231653Z AUTO 25007KT 10SM BKN041 BKN047 OVC055 03/01 A2941 RMK AO2 RAB32E46 SLP961 P0002 T00330011=
202112231553 METAR KCLM 231553Z AUTO 25008KT 10SM FEW050 03/01 A2940 RMK AO2 RAE12 SLP957 P0000 T00280006=
202112231453 METAR KCLM 231453Z AUTO 23007KT 10SM -RA FEW008 OVC043 03/02 A2940 RMK AO2 RAB11 SLP958 P0000 60001 T00330017 55000=
202112231446 SPECI KCLM 231446Z AUTO 24008KT 10SM -RA SCT008 SCT012 OVC034 03/02 A2941 RMK AO2 RAB11 P0000 T00330017=
202112231430 SPECI KCLM 231430Z AUTO 27008KT 10SM -RA SCT007 BKN012 OVC029 04/01 A2941 RMK AO2 RAB11 P0000 T00390011=
202112231422 SPECI KCLM 231422Z AUTO 26010KT 10SM -RA SCT012 BKN019 OVC055 04/01 A2941 RMK AO2 RAB11 P0000 T00390011=
202112231353 METAR KCLM 231353Z AUTO 27008KT 10SM SCT050 03/01 A2940 RMK AO2 SLP956 T00280006=
202112231253 METAR KCLM 231253Z AUTO 24006KT 10SM BKN050 OVC095 04/02 A2939 RMK AO2 RAE52 SLP955 P0001 T00440017=
202112231153 METAR KCLM 231153Z AUTO 29011KT 7SM -RA BKN034 BKN070 04/02 A2940 RMK AO2 RAB38 SLP958 P0001 60005 70068 T00440017 10044 20028 53007=
202112231053 METAR KCLM 231053Z AUTO 26009KT 10SM SCT010 BKN055 04/01 A2939 RMK AO2 RAB36E48 SLP955 P0000 T00390011=
202112230953 METAR KCLM 230953Z AUTO 26007KT 10SM SCT095 03/01 A2939 RMK AO2 RAE09 SLP952 P0000 T00330011=
202112230853 METAR KCLM 230853Z AUTO 25008KT 10SM -RA OVC040 04/02 A2938 RMK AO2 SLP951 P0000 60004 T00440017 58004=
202112230753 METAR KCLM 230753Z AUTO 25006KT 10SM -RA OVC031 04/02 A2939 RMK AO2 SLP954 P0001 T00390017 400890022=
202112230653 METAR KCLM 230653Z AUTO 27008KT 9SM -RA OVC038 03/02 A2939 RMK AO2 SLP953 P0003 T00330017=
202112230619 SPECI KCLM 230619Z AUTO 27006KT 10SM -RA OVC034 03/01 A2939 RMK AO2 P0002 T00280011=
202112230553 METAR KCLM 230553Z AUTO 27010KT 7SM -RA FEW009 OVC018 03/01 A2939 RMK AO2 SLP954 P0013 60017 T00280011 10072 20028 53014=
202112230526 SPECI KCLM 230526Z AUTO 28012G23KT 5SM RA BR FEW008 OVC026 04/02 A2939 RMK AO2 P0009 T00390017=
202112230516 SPECI KCLM 230516Z AUTO 29013G24KT 4SM RA BR SCT008 OVC030 04/02 A2938 RMK AO2 P0006 T00440022=
202112230453 METAR KCLM 230453Z AUTO 29014G20KT 8SM -RA BKN007 OVC042 06/03 A2936 RMK AO2 RAE0355B12 SLP944 P0003 T00560033=
202112230450 SPECI KCLM 230450Z AUTO 29011G18KT 7SM -RA BKN007 OVC042 06/04 A2936 RMK AO2 RAE0355B12 P0003=
202112230436 SPECI KCLM 230436Z AUTO 31010G20KT 10SM -RA SCT005 OVC042 06/04 A2935 RMK AO2 RAE0355B12 P0002 T00610039=
202112230353 METAR KCLM 230353Z AUTO 35003KT 10SM -RA SCT055 BKN080 07/04 A2935 RMK AO2 RAB0257E24B41 SLP941 P0000 T00670044=
202112230253 METAR KCLM 230253Z AUTO 00000KT 10SM BKN050 BKN065 06/04 A2937 RMK AO2 RAB34E48 SLP945 P0000 60001 T00560039 58011=
202112230214 SPECI KCLM 230214Z AUTO 16004KT 7SM FEW095 SCT120 04/03 A2939 RMK AO2 T00440033=
202112230207 SPECI KCLM 230207Z AUTO 17004KT 2 1/2SM BR CLR 04/03 A2938 RMK AO2 T00440028=
202112230153 METAR KCLM 230153Z AUTO 18004KT 1 3/4SM BR SCT060 04/03 A2938 RMK AO2 RAE0058 SLP950 P0000 T00440033=
202112230053 METAR KCLM 230053Z AUTO 23005KT 8SM -RA BKN044 06/05 A2940 RMK AO2 SLP956 P0001 T00610050=
202112222353 METAR KCLM 222353Z AUTO 24004KT 8SM -RA SCT048 BKN060 07/05 A2940 RMK AO2 RAB51 SLP957 P0000 60026 T00720050 10089 20072 56031=
202112222253 METAR KCLM 222253Z AUTO 22004KT 10SM FEW042 OVC055 08/06 A2942 RMK AO2 RAE41 SLP964 P0002 T00780056=
202112222153 METAR KCLM 222153Z AUTO 24004KT 10SM -RA BKN048 OVC060 08/06 A2945 RMK AO2 SLP976 P0003 T00780061=
202112222053 METAR KCLM 222053Z AUTO 24005KT 9SM -RA BKN044 OVC055 08/06 A2949 RMK AO2 SLP988 P0008 60021 T00780056 56022=
202112221953 METAR KCLM 221953Z AUTO 20004KT 4SM -RA BR BKN039 OVC047 08/06 A2951 RMK AO2 RAB1859 SLP995 P0012 T00780056=
202112221941 SPECI KCLM 221941Z AUTO 20006KT 2 1/2SM RA OVC039 09/05 A2952 RMK AO2 RAB1859 P0009 T00890050=
202112221853 METAR KCLM 221853Z AUTO 00000KT 10SM BKN049 OVC060 08/06 A2956 RMK AO2 RAE48 SLP011 P0001 T00830061=
202112221753 METAR KCLM 221753Z AUTO 00000KT 8SM -RA BKN048 OVC055 07/06 A2957 RMK AO2 RAB13 SLP014 P0000 60020 T00720056 10072 20039 56016=
202112221653 METAR KCLM 221653Z AUTO 25003KT 10SM SCT042 BKN049 BKN075 07/06 A2958 RMK AO2 RAE53 SLP018 P0002 T00670056=
202112221553 METAR KCLM 221553Z AUTO 30003KT 5SM -RA BR OVC044 06/04 A2959 RMK AO2 SLP020 P0003 T00610044=
202112221453 METAR KCLM 221453Z AUTO 00000KT 3SM -RA BR OVC043 06/04 A2961 RMK AO2 SLP029 P0005 60015 T00560044 58017=
202112221353 METAR KCLM 221353Z AUTO 17005KT 5SM -RA BR OVC047 06/04 A2963 RMK AO2 SLP036 P0009 T00560039=
202112221253 METAR KCLM 221253Z AUTO 23005KT 7SM -RA BKN050 OVC060 05/03 A2965 RMK AO2 RAB19 SLP043 P0001 T00500033=
202112221153 METAR KCLM 221153Z AUTO 00000KT 7SM SCT060 04/03 A2966 RMK AO2 RAE37 SLP047 P0000 60015 70015 T00390028 10050 20022 58001=
202112221053 METAR KCLM 221053Z AUTO 15008KT 10SM -RA BKN055 04/03 A2968 RMK AO2 RAB20 SLP051 P0000 T00440028=
202112220953 METAR KCLM 220953Z AUTO 16005KT 5SM BR SCT060 03/01 A2967 RMK AO2 RAE46UPB36E37 SLP050 P0000 T00280011=
202112220853 METAR KCLM 220853Z AUTO 33004KT 4SM -RA BR FEW037 OVC046 03/02 A2967 RMK AO2 SLP047 P0011 60015 T00330017 56025=
202112220818 SPECI KCLM 220818Z AUTO 00000KT 3SM -RA BR FEW005 OVC046 03/02 A2967 RMK AO2 P0007 T00280017=
202112220753 METAR KCLM 220753Z AUTO 27003KT 2 1/2SM RA BR OVC048 03/01 A2968 RMK AO2 SLP053 P0004 T00280011 400391022=
202112220653 METAR KCLM 220653Z AUTO 18003KT 8SM -RA OVC060 02/01 A2970 RMK AO2 SLP060 P0000 T00220006=
202112220553 METAR KCLM 220553Z AUTO 23004KT 10SM -RA SCT007 BKN065 BKN080 02/01 A2974 RMK AO2 RAB50 SLP074 P0000 60000 T00220006 10033 20022 58041=
202112220546 SPECI KCLM 220546Z AUTO 23004KT 10SM SCT007 BKN060 BKN120 02/01 A2975 RMK AO2 T00220006=
202112220453 METAR KCLM 220453Z AUTO 00000KT 10SM OVC008 03/01 A2978 RMK AO2 SLP089 T00280006=
202112220353 METAR KCLM 220353Z AUTO 00000KT 10SM OVC009 03/01 A2983 RMK AO2 SLP103 T00280006=
202112220334 SPECI KCLM 220334Z AUTO 00000KT 10SM OVC009 03/01 A2984 RMK AO2 T00280006=
202112220253 METAR KCLM 220253Z AUTO 19003KT 10SM OVC012 03/M01 A2986 RMK AO2 SLP116 T00281006 58027=
202112220153 METAR KCLM 220153Z AUTO 00000KT 10SM BKN013 BKN060 OVC110 03/M01 A2989 RMK AO2 SLP126 T00281006=
202112220053 METAR KCLM 220053Z AUTO 00000KT 10SM OVC049 03/M01 A2992 RMK AO2 SLP135 T00331006=
202112212353 METAR KCLM 212353Z AUTO 11008KT 10SM SCT055 BKN070 OVC110 03/M01 A2995 RMK AO2 SLP143 T00331006 10039 20017 56041=
202112212253 METAR KCLM 212253Z AUTO 10004KT 10SM OVC055 04/M01 A2999 RMK AO2 SLP158 T00391006=
202112212153 METAR KCLM 212153Z AUTO 09005KT 10SM OVC060 04/M01 A3002 RMK AO2 SLP168 T00391006=
202112212053 METAR KCLM 212053Z AUTO 11007KT 10SM OVC060 04/00 A3007 RMK AO2 SLP184 T00390000 58018=
202112211953 METAR KCLM 211953Z AUTO 12006KT 10SM SCT017 OVC075 03/M01 A3009 RMK AO2 SLP193 T00331011=
202112211939 SPECI KCLM 211939Z AUTO 12006KT 10SM BKN017 BKN075 03/M01 A3010 RMK AO2 T00331011=
202112211853 METAR KCLM 211853Z AUTO 13004KT 10SM OVC110 03/M02 A3012 RMK AO2 SLP201 T00331017=
202112211753 METAR KCLM 211753Z AUTO 15003KT 10SM CLR 02/M02 A3012 RMK AO2 SLP203 T00221017 10022 21022 56012=
202112211653 METAR KCLM 211653Z AUTO 00000KT 10SM FEW020 M02/M04 A3013 RMK AO2 SLP207 T10171039=
202112211553 METAR KCLM 211553Z AUTO 00000KT 10SM CLR M02/M03 A3013 RMK AO2 SLP207 T10171033=
202112211453 METAR KCLM 211453Z AUTO 13005KT 10SM SCT021 M01/M04 A3016 RMK AO2 SLP216 T10111039 56009=
202112211450 SPECI KCLM 211450Z AUTO 14005KT 10SM SCT021 M02/M04 A3016 RMK AO2=
202112211418 SPECI KCLM 211418Z AUTO 13004KT 10SM SCT021 BKN027 M01/M03 A3017 RMK AO2 T10111033=
202112211353 METAR KCLM 211353Z AUTO 13004KT 10SM FEW022 M01/M03 A3017 RMK AO2 SLP221 T10061033=
202112211253 METAR KCLM 211253Z AUTO 13005KT 10SM FEW070 M01/M03 A3018 RMK AO2 SLP224 T10061033=
202112211153 METAR KCLM 211153Z AUTO 11003KT 10SM BKN060 OVC075 00/M02 A3020 RMK AO2 SLP229 T00001022 10022 21022 58002=
202112211053 METAR KCLM 211053Z AUTO 00000KT 10SM OVC070 M01/M03 A3020 RMK AO2 SLP230 T10061028=
202112210953 METAR KCLM 210953Z AUTO 21004KT 10SM CLR M01/M04 A3021 RMK AO2 SLP232 T10111044=
202112210853 METAR KCLM 210853Z AUTO 15004KT 10SM BKN050 M01/M03 A3021 RMK AO2 SLP232 T10061033 50002=
202112210753 METAR KCLM 210753Z AUTO 11003KT 10SM FEW050 M02/M04 A3021 RMK AO2 SLP232 T10171039 400391028=
202112210653 METAR KCLM 210653Z AUTO 09005KT 10SM BKN050 02/M04 A3021 RMK AO2 SLP233 T00221039=
202112210553 METAR KCLM 210553Z AUTO 00000KT 10SM OVC050 M01/M03 A3020 RMK AO2 SLP230 I6000 T10061028 10028 21028 53008=
202112210453 METAR KCLM 210453Z AUTO 12006KT 10SM BKN055 00/M03 A3018 RMK AO2 SLP222 T00001033=
202112210353 METAR KCLM 210353Z AUTO 15004KT 10SM BKN060 OVC075 M01/M03 A3019 RMK AO2 SLP225 I1000 T10061033=
202112210253 METAR KCLM 210253Z AUTO 13003KT 10SM CLR M02/M04 A3018 RMK AO2 SLP222 T10221044 51013=
202112210153 METAR KCLM 210153Z AUTO 00000KT 10SM CLR M02/M04 A3017 RMK AO2 SLP218 T10221039=
202112210053 METAR KCLM 210053Z AUTO 14004KT 10SM CLR M01/M04 A3016 RMK AO2 SLP217 T10061039=
202112202353 METAR KCLM 202353Z AUTO 08006KT 10SM CLR 03/M04 A3014 RMK AO2 SLP208 T00281044 10039 20028 53015=
202112202253 METAR KCLM 202253Z AUTO 08005KT 10SM FEW032 03/M04 A3012 RMK AO2 SLP204 T00331039=
202112202153 METAR KCLM 202153Z AUTO 09005KT 10SM CLR 03/M04 A3010 RMK AO2 SLP196 T00331039=
202112202053 METAR KCLM 202053Z AUTO 08008KT 10SM CLR 04/M04 A3009 RMK AO2 SLP193 T00391044 50006=
202112201953 METAR KCLM 201953Z AUTO 09010G15KT 10SM SCT031 03/M04 A3009 RMK AO2 SLP193 T00331044=
202112201853 METAR KCLM 201853Z AUTO 07006G14KT 10SM FEW032 03/M04 A3009 RMK AO2 SLP191 T00331039=
202112201753 METAR KCLM 201753Z AUTO VRB04KT 10SM CLR 03/M04 A3007 RMK AO2 SLP187 T00281044 10033 20000 53012=
202112201653 METAR KCLM 201653Z AUTO 00000KT 10SM FEW031 00/M03 A3006 RMK AO2 SLP182 T00001028=
202112201553 METAR KCLM 201553Z AUTO 07006KT 10SM FEW030 03/M04 A3004 RMK AO2 SLP175 T00281039=
202112201453 METAR KCLM 201453Z AUTO 08006KT 10SM CLR 03/M04 A3004 RMK AO2 SLP174 T00331039 53004=
202112201353 METAR KCLM 201353Z AUTO 11005KT 10SM BKN038 03/M04 A3003 RMK AO2 SLP172 T00281044=
202112201337 SPECI KCLM 201337Z AUTO 09004KT 10SM SCT030 BKN038 03/M04 A3003 RMK AO2 T00281039=
202112201253 METAR KCLM 201253Z AUTO VRB03KT 10SM OVC027 02/M02 A3003 RMK AO2 SLP171 T00171017=
202112201153 METAR KCLM 201153Z AUTO 00000KT 10SM OVC028 03/M03 A3003 RMK AO2 SLP169 70023 T00331028 10039 21006 58000=
202112201053 METAR KCLM 201053Z AUTO 10SM BKN027 03/M02 A3003 RMK AO2 SLP171 T00331022=
202112201002 SPECI KCLM 201002Z AUTO 26004KT 10SM BKN027 02/M02 A3002 RMK AO2 T00171017=
202112200953 METAR KCLM 200953Z AUTO 26005KT 10SM SCT026 01/M02 A3003 RMK AO2 SLP170 T00061017=
202112200853 METAR KCLM 200853Z AUTO 22004KT 10SM CLR 00/M02 A3003 RMK AO2 SLP171 T00001017 58003=
202112200753 METAR KCLM 200753Z AUTO 00000KT 10SM CLR 00/M02 A3003 RMK AO2 SLP173 T00001022 400671006=
202112200653 METAR KCLM 200653Z AUTO 00000KT 10SM CLR 02/M03 A3003 RMK AO2 SLP173 T00171028=
202112200553 METAR KCLM 200553Z AUTO 00000KT 10SM CLR 04/M03 A3004 RMK AO2 SLP173 60000 T00391033 10056 20039 50005=
202112200453 METAR KCLM 200453Z AUTO 08009KT 10SM CLR 04/M03 A3004 RMK AO2 SLP176 T00441033=
202112200353 METAR KCLM 200353Z AUTO 08006KT 10SM FEW013 SCT019 OVC036 05/01 A3003 RMK AO2 SLP172 T00500011=
202112200253 METAR KCLM 200253Z AUTO 08006KT 10SM OVC015 05/02 A3002 RMK AO2 SLP168 60000 T00500017 50002=
202112200217 SPECI KCLM 200217Z AUTO 08007KT 10SM SCT018 BKN022 OVC030 06/01 A3002 RMK AO2 T00560011=
202112200153 METAR KCLM 200153Z AUTO 08010KT 10SM SCT021 OVC030 06/01 A3002 RMK AO2 SLP169 T00560006=
202112200149 SPECI KCLM 200149Z AUTO 08009G17KT 10SM SCT021 OVC030 06/01 A3002 RMK AO2=
202112200053 METAR KCLM 200053Z AUTO 06007KT 10SM FEW016 SCT020 OVC028 06/01 A3001 RMK AO2 RAE2357B35E45 SLP166 P0000 T00560011=
202112192353 METAR KCLM 192353Z AUTO VRB06KT 10SM -RA FEW020 BKN028 OVC032 06/02 A3000 RMK AO2 RAB25 SLP162 P0000 60007 T00610017 10067 20033 53005=
202112192253 METAR KCLM 192253Z AUTO 07007KT 030V100 10SM FEW017 SCT023 OVC027 06/02 A2999 RMK AO2 SLP158 T00610017=
202112192153 METAR KCLM 192153Z AUTO 06007KT 020V090 10SM BKN016 OVC022 06/03 A2999 RMK AO2 SLP157 T00610028=
202112192053 METAR KCLM 192053Z AUTO VRB06KT 10SM BKN015 OVC019 06/03 A2999 RMK AO2 SLP157 60007 T00610033 58006=
202112191953 METAR KCLM 191953Z AUTO 20003KT 10SM SCT009 BKN013 OVC024 06/04 A2999 RMK AO2 RAB04E31 SLP159 P0001 T00560039=
202112191853 METAR KCLM 191853Z AUTO 00000KT 8SM OVC009 03/02 A3000 RMK AO2 RAE47 SLP163 P0006 T00330017=
202112191846 SPECI KCLM 191846Z AUTO 00000KT 10SM -RA BKN009 OVC015 03/02 A3000 RMK AO2 P0006 T00330017=
202112191827 SPECI KCLM 191827Z AUTO 23005KT 4SM -RA BR BKN013 OVC020 03/01 A3001 RMK AO2 P0006 T00280011=
202112191812 SPECI KCLM 191812Z AUTO 00000KT 2 1/2SM -RA BR OVC018 03/02 A3001 RMK AO2 P0005 T00280017=
202112191802 SPECI KCLM 191802Z AUTO 23004KT 1 1/2SM RA BR OVC017 03/02 A3001 RMK AO2 P0003 T00280017=
202112191753 METAR KCLM 191753Z AUTO 23005KT 2SM -RA BR FEW012 BKN017 OVC024 03/02 A3001 RMK AO2 VIS 1 3/4V3 SLP164 P0012 60016 T00330017 10033 21006 53013=
202112191720 SPECI KCLM 191720Z AUTO 17003KT 2SM -RA BR FEW006 BKN022 OVC031 03/02 A3000 RMK AO2 P0007 T00330017=
202112191711 SPECI KCLM 191711Z AUTO 00000KT 1 3/4SM RA BR SCT006 BKN010 OVC021 03/02 A2999 RMK AO2 CIG 008V012 P0005 T00330017=
202112191703 SPECI KCLM 191703Z AUTO 00000KT 2SM RA BR BKN006 OVC012 03/02 A2999 RMK AO2 CIG 005V010 P0003 T00330017=
202112191653 METAR KCLM 191653Z AUTO 18005KT 3SM -RA BR OVC006 03/02 A2999 RMK AO2 SLP157 P0004 T00330017=
202112191643 SPECI KCLM 191643Z AUTO 20006KT 3SM -RA BR OVC007 03/01 A2998 RMK AO2 P0003 T00280011=
202112191619 SPECI KCLM 191619Z AUTO 20004KT 2 1/2SM -RA BR BKN009 OVC014 02/01 A2998 RMK AO2 CIG 005V011 P0001 T00220006=
202112191553 METAR KCLM 191553Z AUTO 22003KT 9SM -RA BKN012 OVC019 02/01 A2997 RMK AO2 RAB16 SLP151 P0000 T00220006=
202112191519 SPECI KCLM 191519Z AUTO 28003KT 9SM -RA BKN021 OVC032 02/01 A2996 RMK AO2 RAB16 P0000 T00220006=
202112191453 METAR KCLM 191453Z AUTO 21003KT 10SM OVC033 01/00 A2996 RMK AO2 SLP147 T00110000 53009=
202112191353 METAR KCLM 191353Z AUTO 00000KT 10SM FEW032 M01/M02 A2995 RMK AO2 SLP145 T10061017=
202112191253 METAR KCLM 191253Z AUTO 00000KT 5SM BR FEW060 01/M01 A2994 RMK AO2 SLP140 T00061011=
202112191153 METAR KCLM 191153Z AUTO 00000KT 10SM CLR 01/01 A2993 RMK AO2 SLP138 70092 T00110006 10033 20000 53007=
202112191053 METAR KCLM 191053Z AUTO 24004KT 10SM OVC080 02/01 A2992 RMK AO2 SLP135 T00220006=
202112190953 METAR KCLM 190953Z AUTO 22005KT 10SM OVC080 03/01 A2991 RMK AO2 SLP132 T00280006=
202112190853 METAR KCLM 190853Z AUTO 22005KT 10SM OVC085 03/01 A2991 RMK AO2 SLP130 T00280006 51014=
202112190753 METAR KCLM 190753Z AUTO 23006KT 10SM BKN080 02/00 A2990 RMK AO2 SLP128 T00170000 400830000=
202112190653 METAR KCLM 190653Z AUTO 23004KT 10SM FEW032 FEW043 SCT055 02/00 A2988 RMK AO2 SLP121 T00170000=
202112190553 METAR KCLM 190553Z AUTO 21003KT 10SM BKN050 02/M01 A2987 RMK AO2 SLP115 T00171006 10061 20017 51014=
202112190453 METAR KCLM 190453Z AUTO 00000KT 10SM BKN045 04/01 A2986 RMK AO2 SLP112 T00390006=
202112190353 METAR KCLM 190353Z AUTO 00000KT 10SM BKN055 OVC070 05/01 A2984 RMK AO2 SLP107 T00500006=
202112190253 METAR KCLM 190253Z AUTO 27009KT 10SM BKN055 BKN070 OVC085 06/00 A2983 RMK AO2 SLP101 T00560000 53015=
202112190153 METAR KCLM 190153Z AUTO 26011G17KT 10SM CLR 06/M01 A2980 RMK AO2 SLP092 T00561006=
202112190053 METAR KCLM 190053Z AUTO 28008KT 10SM CLR 05/00 A2978 RMK AO2 SLP086 T00500000=
202112182353 METAR KCLM 182353Z AUTO 26007KT 10SM CLR 06/01 A2978 RMK AO2 SLP086 60050 T00560006 10083 20050 53013=
202112182253 METAR KCLM 182253Z AUTO 27011KT 10SM FEW035 BKN055 BKN070 07/03 A2977 RMK AO2 RAB07E26 SLP081 P0000 T00670028=
202112182153 METAR KCLM 182153Z AUTO 29005KT 10SM OVC055 07/04 A2975 RMK AO2 RAE39 SLP075 P0002 T00720044=
202112182053 METAR KCLM 182053Z AUTO 24004KT 6SM -RA BR OVC035 07/05 A2974 RMK AO2 SLP073 P0006 60048 T00720050 51028=
202112182001 SPECI KCLM 182001Z AUTO 30013G21KT 3SM -RA BR OVC033 08/06 A2974 RMK AO2 P0001 T00780056=
202112181953 METAR KCLM 181953Z AUTO 30013G21KT 2 1/2SM RA BR OVC033 08/06 A2973 RMK AO2 PK WND 30031/1914 SLP070 P0020 T00780056=
202112181937 SPECI KCLM 181937Z AUTO 30011G25KT 2 1/2SM RA BR SCT004 OVC033 08/06 A2972 RMK AO2 PK WND 30031/1914 P0017 T00830061=
202112181920 SPECI KCLM 181920Z AUTO 30013G31KT 2SM RA BR BKN004 OVC011 08/07 A2971 RMK AO2 PK WND 30031/1914 P0012 T00830067=
202112181907 SPECI KCLM 181907Z AUTO 29011G20KT 1 1/2SM RA BR BKN004 BKN007 OVC021 08/07 A2970 RMK AO2 P0007 T00830067=
202112181853 METAR KCLM 181853Z AUTO 31009KT 1 1/4SM RA BR FEW007 OVC025 08/07 A2969 RMK AO2 SLP055 P0022 T00830067=
202112181850 SPECI KCLM 181850Z AUTO 31009G16KT 1 1/4SM RA BR FEW007 BKN027 OVC032 08/07 A2969 RMK AO2 P0020=
202112181813 SPECI KCLM 181813Z AUTO 29003KT 1 1/2SM RA BR BKN045 OVC055 07/06 A2966 RMK AO2 P0004 T00670056=
202112181753 METAR KCLM 181753Z AUTO 20004KT 2 1/2SM RA BR OVC050 07/05 A2966 RMK AO2 SLP044 P0008 60042 T00670050 10067 20033 56010=
202112181750 SPECI KCLM 181750Z AUTO 19006KT 2 1/2SM RA BR BKN050 OVC060 06/05 A2966 RMK AO2 P0007=
202112181653 METAR KCLM 181653Z AUTO VRB03KT 4SM -RA BR OVC060 06/04 A2965 RMK AO2 SLP043 P0006 T00610044=
202112181553 METAR KCLM 181553Z AUTO 6SM -RA BR BKN055 OVC070 05/03 A2969 RMK AO2 SLP055 P0006 T00500033=
202112181453 METAR KCLM 181453Z AUTO 00000KT 5SM -RA BR OVC060 04/03 A2972 RMK AO2 SLP066 P0008 60022 T00390028 56037=
202112181353 METAR KCLM 181353Z AUTO 34004KT 5SM -RA BR BKN060 OVC075 04/02 A2974 RMK AO2 SLP074 P0009 T00390022=
202112181253 METAR KCLM 181253Z AUTO 00000KT 10SM -RA FEW047 BKN070 OVC090 04/02 A2978 RMK AO2 SLP087 P0005 T00390022=
202112181153 METAR KCLM 181153Z AUTO 00000KT 7SM -RA OVC080 04/02 A2983 RMK AO2 SLP103 P0005 60018 70018 T00390022 10039 20028 58044=
202112181104 SPECI KCLM 181104Z AUTO 00000KT 4SM -RA BR SCT006 OVC070 03/02 A2987 RMK AO2 P0001 T00330022=
202112181053 METAR KCLM 181053Z AUTO 32003KT 6SM -RA BR FEW055 OVC070 03/02 A2989 RMK AO2 SLP123 P0006 T00330022=
202112180953 METAR KCLM 180953Z AUTO VRB03KT 8SM -RA OVC070 03/02 A2993 RMK AO2 SLP136 P0002 T00330017=
202112180853 METAR KCLM 180853Z AUTO 00000KT 8SM -RA OVC050 03/02 A2996 RMK AO2 SLP147 P0001 60005 T00280017 58050=
202112180753 METAR KCLM 180753Z AUTO 00000KT 10SM -RA BKN035 OVC041 03/02 A3001 RMK AO2 SLP165 P0002 T00280017 400610017=
202112180653 METAR KCLM 180653Z AUTO 00000KT 8SM -RA OVC035 03/02 A3006 RMK AO2 PRESFR SLP182 P0002 T00280017=
202112180553 METAR KCLM 180553Z AUTO 24003KT 9SM -RA OVC037 03/01 A3011 RMK AO2 RAB25 SLP199 P0000 60000 T00330006 10050 20033 56028=
202112180453 METAR KCLM 180453Z AUTO 00000KT 10SM FEW017 BKN060 OVC070 04/01 A3013 RMK AO2 SLP206 T00390006=
202112180353 METAR KCLM 180353Z AUTO 12005KT 10SM OVC050 04/01 A3016 RMK AO2 SLP217 T00390006=
202112180253 METAR KCLM 180253Z AUTO 14005KT 10SM SCT032 OVC085 04/01 A3019 RMK AO2 RAB36E50 SLP227 P0000 60000 T00440006 58017=
202112180153 METAR KCLM 180153Z AUTO 00000KT 10SM FEW016 BKN060 OVC075 04/02 A3022 RMK AO2 SLP236 T00390017=
202112180145 SPECI KCLM 180145Z AUTO 00000KT 10SM SCT016 OVC060 04/02 A3022 RMK AO2 T00390017=
202112180053 METAR KCLM 180053Z AUTO 23003KT 10SM BKN016 OVC085 04/02 A3024 RMK AO2 SLP242 T00440017=
202112172353 METAR KCLM 172353Z AUTO 00000KT 10SM BKN070 OVC085 05/02 A3024 RMK AO2 SLP243 T00500017 10061 20028 58011=
202112172253 METAR KCLM 172253Z AUTO 00000KT 10SM OVC100 06/01 A3025 RMK AO2 SLP245 T00560011=
202112172153 METAR KCLM 172153Z AUTO 00000KT 10SM BKN120 06/02 A3027 RMK AO2 SLP254 T00560017=
202112172053 METAR KCLM 172053Z AUTO 08003KT 10SM FEW015 06/01 A3028 RMK AO2 SLP254 T00610011 58009=
202112171953 METAR KCLM 171953Z AUTO 00000KT 10SM CLR 06/00 A3028 RMK AO2 SLP257 T00560000=
202112171918 SPECI KCLM 171918Z AUTO 27004KT 10SM SCT019 05/M01 A3030 RMK AO2 T00501011=
202112171853 METAR KCLM 171853Z AUTO 25005KT 10SM BKN021 04/M02 A3030 RMK AO2 SLP264 T00391017=
202112171824 SPECI KCLM 171824Z AUTO 24007KT 10SM BKN021 03/M02 A3030 RMK AO2 T00331017=
202112171753 METAR KCLM 171753Z AUTO 24006KT 10SM CLR 03/M01 A3030 RMK AO2 SLP264 T00281011 10028 20017 51005=
202112171719 SPECI KCLM 171719Z AUTO 23006KT 10SM FEW022 02/M02 A3030 RMK AO2 T00221022=
202112171653 METAR KCLM 171653Z AUTO 23007KT 10SM BKN020 BKN026 02/M02 A3030 RMK AO2 SLP264 T00221022=
202112171553 METAR KCLM 171553Z AUTO 24006KT 10SM BKN019 OVC026 02/M03 A3030 RMK AO2 SLP263 T00221028=
202112171453 METAR KCLM 171453Z AUTO 23004KT 10SM OVC020 02/M02 A3029 RMK AO2 SLP259 T00221022 51005=
202112171353 METAR KCLM 171353Z AUTO 23006KT 10SM OVC020 02/M02 A3029 RMK AO2 SLP259 T00171022=
202112171253 METAR KCLM 171253Z AUTO 24008KT 10SM OVC022 02/M02 A3028 RMK AO2 SLP257 T00221022=
202112171153 METAR KCLM 171153Z AUTO 24005KT 10SM OVC018 02/M01 A3027 RMK AO2 SLP253 60000 T00221011 10033 20022 51016=
202112171053 METAR KCLM 171053Z AUTO 23004KT 10SM OVC016 03/M01 A3026 RMK AO2 SLP247 T00281006=
202112171036 SPECI KCLM 171036Z AUTO 23005KT 10SM OVC015 03/M01 A3026 RMK AO2 T00281011=
202112171000 SPECI KCLM 171000Z AUTO 23006KT 10SM BKN014 BKN022 OVC035 03/M01 A3024 RMK AO2 T00281011=
202112170953 METAR KCLM 170953Z AUTO 23006KT 10SM SCT014 OVC035 03/M02 A3024 RMK AO2 SLP242 T00281017=
202112170937 SPECI KCLM 170937Z AUTO 22005KT 10SM FEW018 OVC034 02/M02 A3024 RMK AO2 T00221017=
202112170853 METAR KCLM 170853Z AUTO 25005KT 10SM BKN016 BKN028 OVC037 03/M01 A3022 RMK AO2 RAB0758E27 SLP236 P0000 60000 T00281006 51017=
202112170753 METAR KCLM 170753Z AUTO 22005KT 10SM OVC022 03/M01 A3021 RMK AO2 RAB23E37 SLP231 P0000 T00281006 400890000=
202112170653 METAR KCLM 170653Z AUTO 24006KT 10SM OVC021 03/M01 A3019 RMK AO2 SLP225 T00281011=
202112170553 METAR KCLM 170553Z AUTO 23005KT 10SM OVC024 03/M01 A3017 RMK AO2 RAE34 SLP219 P0000 60000 T00281006 10061 20000 51025=
202112170541 SPECI KCLM 170541Z AUTO 24005KT 10SM FEW024 BKN029 OVC046 02/M01 A3017 RMK AO2 RAE34 P0000 T00221006=
202112170453 METAR KCLM 170453Z AUTO 00000KT 10SM -RA SCT030 OVC037 02/M01 A3015 RMK AO2 RAB39 SLP213 P0000 T00221011=
202112170353 METAR KCLM 170353Z AUTO 23006KT 10SM FEW027 BKN034 02/M01 A3013 RMK AO2 SLP204 T00221006=
202112170253 METAR KCLM 170253Z AUTO 23005KT 10SM CLR 02/M01 A3010 RMK AO2 SLP195 T00171006 53027=
202112170153 METAR KCLM 170153Z AUTO 22005KT 10SM CLR 02/M01 A3007 RMK AO2 SLP186 T00171011=
202112170053 METAR KCLM 170053Z AUTO 22003KT 10SM CLR 03/00 A3003 RMK AO2 SLP172 T00330000=
202112162353 METAR KCLM 162353Z AUTO 24005KT 10SM CLR 07/02 A3002 RMK AO2 SLP167 60000 T00670017 10089 20056 53020=
202112162253 METAR KCLM 162253Z AUTO 29011G16KT 10SM SCT070 08/01 A2999 RMK AO2 SLP158 T00830006=
202112162153 METAR KCLM 162153Z AUTO 29009KT 10SM FEW055 08/01 A2997 RMK AO2 SLP149 T00830011=
202112162053 METAR KCLM 162053Z AUTO 28003KT 10SM FEW041 07/02 A2996 RMK AO2 RAE08 SLP146 P0000 60000 T00670022 51010=
202112161953 METAR KCLM 161953Z AUTO 24006KT 10SM -RA OVC040 07/03 A2995 RMK AO2 RAB46 SLP144 P0000 T00720028=
202112161853 METAR KCLM 161853Z AUTO 26008KT 10SM SCT039 BKN050 OVC075 07/02 A2994 RMK AO2 SLP141 T00670017=
202112161753 METAR KCLM 161753Z AUTO 26009KT 10SM SCT085 06/01 A2993 RMK AO2 SLP136 T00560006 10061 20044 53017=
202112161653 METAR KCLM 161653Z AUTO 27006KT 10SM FEW060 BKN080 OVC095 06/01 A2991 RMK AO2 SLP131 T00560011=
202112161553 METAR KCLM 161553Z AUTO 26009KT 10SM OVC075 05/01 A2989 RMK AO2 SLP124 T00500006=
202112161453 METAR KCLM 161453Z AUTO 25010KT 10SM BKN070 OVC085 05/01 A2988 RMK AO2 SLP120 T00500006 51010=
202112161353 METAR KCLM 161353Z AUTO 25007KT 10SM BKN055 OVC080 04/01 A2987 RMK AO2 SLP117 T00440011=
202112161341 SPECI KCLM 161341Z AUTO 25005KT 10SM FEW023 OVC055 04/01 A2988 RMK AO2 T00440011=
202112161253 METAR KCLM 161253Z AUTO 25006KT 10SM SCT020 BKN025 OVC043 04/02 A2987 RMK AO2 SLP115 T00440017=
202112161153 METAR KCLM 161153Z AUTO 25006KT 10SM BKN018 OVC031 04/02 A2985 RMK AO2 SLP110 T00440017 10056 20044 53017=
202112161133 SPECI KCLM 161133Z AUTO 27005KT 10SM OVC016 04/02 A2984 RMK AO2 T00440017=
202112161112 SPECI KCLM 161112Z AUTO 27006KT 10SM OVC013 04/02 A2984 RMK AO2 T00440017=
202112161053 METAR KCLM 161053Z AUTO 27006KT 10SM BKN015 OVC020 04/02 A2983 RMK AO2 SLP105 T00440017=
202112160953 METAR KCLM 160953Z AUTO 25008KT 10SM OVC018 05/02 A2981 RMK AO2 SLP097 T00500017=
202112160853 METAR KCLM 160853Z AUTO 27010KT 10SM BKN019 OVC055 06/02 A2980 RMK AO2 SLP093 T00560017 51028=
202112160805 SPECI KCLM 160805Z AUTO 26010KT 10SM BKN019 OVC050 06/02 A2979 RMK AO2 T00560017=
202112160753 METAR KCLM 160753Z AUTO 26010KT 10SM FEW019 OVC055 05/02 A2978 RMK AO2 SLP087 T00500017 400890006=
202112160653 METAR KCLM 160653Z AUTO 25007KT 10SM FEW018 SCT065 OVC090 06/02 A2976 RMK AO2 SLP078 T00560017=
202112160553 METAR KCLM 160553Z AUTO 24005KT 10SM OVC070 06/02 A2972 RMK AO2 SLP065 T00560017 10067 20039 51023=
202112160453 METAR KCLM 160453Z AUTO 24004KT 10SM OVC090 05/02 A2970 RMK AO2 SLP058 T00500017=
202112160353 METAR KCLM 160353Z AUTO 25005KT 10SM SCT075 SCT100 04/01 A2967 RMK AO2 SLP051 T00440011=
202112160253 METAR KCLM 160253Z AUTO 25006KT 10SM OVC100 06/01 A2965 RMK AO2 SLP041 T00560011 53008=
202112160153 METAR KCLM 160153Z AUTO 26004KT 10SM OVC100 04/01 A2963 RMK AO2 SLP038 T00390011=
202112160053 METAR KCLM 160053Z AUTO 07003KT 10SM BKN095 OVC120 05/02 A2963 RMK AO2 SLP036 T00500017=
202112152353 METAR KCLM 152353Z AUTO 25003KT 10SM BKN080 OVC100 07/02 A2962 RMK AO2 SLP033 T00670022 10089 20039 53006=
202112152253 METAR KCLM 152253Z AUTO 32005KT 10SM OVC080 08/02 A2961 RMK AO2 SLP028 T00780017=
202112152153 METAR KCLM 152153Z AUTO 24003KT 10SM FEW070 SCT090 BKN120 07/00 A2959 RMK AO2 SLP022 T00720000=
202112152053 METAR KCLM 152053Z AUTO 00000KT 10SM BKN090 OVC110 07/02 A2960 RMK AO2 SLP027 T00670017 56009=
202112151953 METAR KCLM 151953Z AUTO 00000KT 10SM BKN100 OVC110 07/01 A2961 RMK AO2 SLP029 T00720006=
202112151853 METAR KCLM 151853Z AUTO 08010KT 10SM OVC100 07/M01 A2962 RMK AO2 SLP032 T00671006=
202112151753 METAR KCLM 151753Z AUTO 19005KT 10SM CLR 03/00 A2963 RMK AO2 SLP037 T00330000 10033 20011 57005=
202112151653 METAR KCLM 151653Z AUTO 00000KT 10SM BKN075 02/00 A2964 RMK AO2 SLP039 T00220000=
202112151553 METAR KCLM 151553Z AUTO 00000KT 10SM BKN075 02/M01 A2965 RMK AO2 SLP041 T00221006=
202112151453 METAR KCLM 151453Z AUTO 00000KT 10SM SCT070 03/00 A2965 RMK AO2 SLP043 T00280000 58013=
202112151353 METAR KCLM 151353Z AUTO 21006KT 10SM OVC075 02/M01 A2967 RMK AO2 SLP049 T00171006=
202112151253 METAR KCLM 151253Z AUTO 00000KT 10SM FEW120 02/M01 A2967 RMK AO2 SLP051 T00171006=
202112151153 METAR KCLM 151153Z AUTO 00000KT 10SM CLR 02/00 A2969 RMK AO2 SLP055 T00220000 10028 20000 56011=
202112151053 METAR KCLM 151053Z AUTO 23003KT 10SM FEW120 02/00 A2970 RMK AO2 SLP059 T00170000=
202112150953 METAR KCLM 150953Z AUTO 23004KT 10SM CLR 01/M01 A2971 RMK AO2 SLP061 T00111006=
202112150853 METAR KCLM 150853Z AUTO 22003KT 10SM SCT120 01/M01 A2972 RMK AO2 SLP066 T00111006 58011=
202112150753 METAR KCLM 150753Z AUTO 00000KT 10SM FEW065 FEW120 01/M01 A2973 RMK AO2 SLP070 T00061011 400721011=
202112150653 METAR KCLM 150653Z AUTO 21004KT 10SM BKN070 01/M01 A2975 RMK AO2 SLP075 T00111006=
202112150553 METAR KCLM 150553Z AUTO 00000KT 10SM CLR 00/M01 A2975 RMK AO2 SLP078 T00001011 10056 21006 58002=
202112150453 METAR KCLM 150453Z AUTO 00000KT 10SM CLR 01/M01 A2976 RMK AO2 SLP079 T00061011=
202112150353 METAR KCLM 150353Z AUTO 00000KT 10SM CLR 01/M01 A2976 RMK AO2 SLP079 T00061006=
202112150253 METAR KCLM 150253Z AUTO 15004KT 10SM OVC065 03/00 A2976 RMK AO2 SLP079 T00280000 50002=
202112150153 METAR KCLM 150153Z AUTO 21004KT 10SM OVC060 03/00 A2976 RMK AO2 SLP080 T00330000=
202112150053 METAR KCLM 150053Z AUTO 25004KT 10SM FEW055 03/M01 A2976 RMK AO2 SLP080 T00331006=
202112142353 METAR KCLM 142353Z AUTO 00000KT 10SM FEW016 BKN060 BKN075 06/00 A2975 RMK AO2 SLP076 T00560000 10072 20017 53007=
202112142253 METAR KCLM 142253Z AUTO 00000KT 10SM BKN060 OVC080 06/01 A2974 RMK AO2 SLP071 T00610011=
202112142153 METAR KCLM 142153Z AUTO 05003KT 10SM BKN075 07/01 A2973 RMK AO2 SLP068 T00670006=
202112142053 METAR KCLM 142053Z AUTO 04003KT 10SM OVC065 06/01 A2973 RMK AO2 SLP069 T00610006 51003=
202112141953 METAR KCLM 141953Z AUTO 00000KT 10SM BKN095 07/01 A2973 RMK AO2 SLP067 T00670011=
202112141853 METAR KCLM 141853Z AUTO 00000KT 10SM OVC065 03/01 A2973 RMK AO2 SLP069 T00280011=
202112141753 METAR KCLM 141753Z AUTO 23005KT 10SM SCT090 SCT110 02/00 A2972 RMK AO2 SLP067 I6000 T00170000 10028 21011 53019=
202112141653 METAR KCLM 141653Z AUTO 22004KT 10SM BKN120 01/M01 A2970 RMK AO2 SLP059 T00111006=
202112141623 SPECI KCLM 141623Z AUTO 00000KT 10SM FEW016 01/M01 A2969 RMK AO2 T00061011=
202112141553 METAR KCLM 141553Z AUTO 22004KT 10SM BKN016 01/M02 A2968 RMK AO2 SLP054 T00111017=
202112141453 METAR KCLM 141453Z AUTO 00000KT 10SM CLR M01/M02 A2966 RMK AO2 SLP047 I1000 I3000 T10061022 53021=
202112141353 METAR KCLM 141353Z AUTO 22004KT 10SM CLR 01/M02 A2964 RMK AO2 SLP040 T00061017=
202112141253 METAR KCLM 141253Z AUTO 15003KT 10SM SCT013 01/M02 A2962 RMK AO2 SLP033 T00061017=
202112141240 SPECI KCLM 141240Z AUTO 24004KT 10SM BKN014 03/00 A2962 RMK AO2 T00280000=
202112141212 SPECI KCLM 141212Z AUTO 19003KT 9SM FEW014 SCT022 BKN039 01/00 A2961 RMK AO2 T00110000=
202112141153 METAR KCLM 141153Z AUTO 00000KT 10SM BKN014 BKN025 02/00 A2960 RMK AO2 SLP026 70002 T00170000 10033 21006 51012=
202112141144 SPECI KCLM 141144Z AUTO 23003KT 10SM SCT014 BKN023 BKN047 02/00 A2960 RMK AO2 T00170000=
202112141118 SPECI KCLM 141118Z AUTO 15004KT 10SM SCT023 BKN034 BKN049 01/M01 A2960 RMK AO2 T00111006=
202112141053 METAR KCLM 141053Z AUTO 23005KT 10SM BKN019 02/01 A2959 RMK AO2 SLP023 T00220006=
202112141051 SPECI KCLM 141051Z AUTO 22005KT 10SM BKN019 02/00 A2959 RMK AO2=
202112140953 METAR KCLM 140953Z AUTO 21003KT 10SM CLR 01/M01 A2957 RMK AO2 SLP014 T00111006=
202112140853 METAR KCLM 140853Z AUTO 14004KT 10SM CLR 00/M02 A2953 RMK AO2 SLP003 T00001017 51030=
202112140753 METAR KCLM 140753Z AUTO 00000KT 10SM CLR 02/00 A2952 RMK AO2 SLP998 T00220000 400610006=
202112140653 METAR KCLM 140653Z AUTO 30006KT 10SM CLR 02/00 A2948 RMK AO2 SLP984 T00170000=
202112140553 METAR KCLM 140553Z AUTO 23005KT 10SM SCT011 02/00 A2944 RMK AO2 SLP973 60001 T00170000 10050 20017 53026=
202112140529 SPECI KCLM 140529Z AUTO 22004KT 10SM SCT026 02/01 A2943 RMK AO2 T00220006=
202112140503 SPECI KCLM 140503Z AUTO 23003KT 10SM FEW017 BKN029 03/01 A2942 RMK AO2 T00330011=
202112140453 METAR KCLM 140453Z AUTO 23004KT 10SM FEW017 SCT027 BKN031 03/01 A2941 RMK AO2 RAB14E35 SLP963 P0000 T00330011=
202112140443 SPECI KCLM 140443Z AUTO 24004KT 10SM FEW017 BKN030 OVC110 04/02 A2941 RMK AO2 RAB14E35 P0000 T00390017=
202112140428 SPECI KCLM 140428Z AUTO 23006KT 8SM -RA SCT013 BKN017 OVC037 04/02 A2940 RMK AO2 RAB14 P0000 T00390022=
202112140420 SPECI KCLM 140420Z AUTO 26003KT 7SM -RA BKN014 OVC019 04/02 A2939 RMK AO2 RAB14 P0000 T00390022=
202112140404 SPECI KCLM 140404Z AUTO 23005KT 10SM OVC017 04/02 A2939 RMK AO2 T00390022=
202112140353 METAR KCLM 140353Z AUTO 25005KT 10SM BKN013 OVC021 04/02 A2938 RMK AO2 RAB00E27 SLP952 P0000 T00390022=
202112140318 SPECI KCLM 140318Z AUTO 26003KT 10SM -RA OVC014 04/02 A2936 RMK AO2 RAB00 P0000 T00390022=
202112140253 METAR KCLM 140253Z AUTO 00000KT 10SM OVC018 04/02 A2937 RMK AO2 SLP946 60001 T00390022 53005=
202112140153 METAR KCLM 140153Z AUTO 19004KT 10SM BKN029 OVC037 04/02 A2936 RMK AO2 RAE17 SLP943 P0001 T00390022=
202112140149 SPECI KCLM 140149Z AUTO 19004KT 10SM BKN029 OVC037 04/02 A2936 RMK AO2 RAE17 P0001=
202112140053 METAR KCLM 140053Z AUTO 00000KT 10SM -RA OVC035 04/02 A2935 RMK AO2 SLP941 P0000 T00440022=
202112140012 SPECI KCLM 140012Z AUTO 17004KT 8SM -RA SCT020 OVC032 04/02 A2935 RMK AO2 P0000 T00440022=
202112132353 METAR KCLM 132353Z AUTO 12003KT 6SM -RA BR BKN021 OVC027 05/03 A2934 RMK AO2 SLP939 P0001 60001 T00500028 10061 20033 55004=
202112132253 METAR KCLM 132253Z AUTO 10003KT 9SM -RA BKN015 BKN024 OVC041 06/03 A2934 RMK AO2 RAB53 SLP939 P0000 T00560028=
202112132153 METAR KCLM 132153Z AUTO 00000KT 10SM OVC024 06/03 A2934 RMK AO2 SLP937 T00560028=
202112132053 METAR KCLM 132053Z AUTO 25005KT 10SM OVC019 05/02 A2936 RMK AO2 PRESFR SLP943 T00500022 58025=
202112132027 SPECI KCLM 132027Z AUTO 29003KT 10SM BKN021 05/02 A2939 RMK AO2 T00500022=
202112131953 METAR KCLM 131953Z AUTO 25005KT 10SM CLR 05/02 A2940 RMK AO2 SLP957 T00500022=
202112131853 METAR KCLM 131853Z AUTO 25004KT 10SM SCT034 04/02 A2943 RMK AO2 SLP968 T00390022=
202112131753 METAR KCLM 131753Z AUTO 00000KT 10SM CLR 03/02 A2943 RMK AO2 SLP968 60000 T00330017 10039 20006 50003=
202112131715 SPECI KCLM 131715Z AUTO 22003KT 10SM FEW015 BKN030 02/01 A2944 RMK AO2 T00220011=
202112131706 SPECI KCLM 131706Z AUTO 20003KT 10SM SCT015 OVC028 02/01 A2944 RMK AO2 T00220006=
202112131653 METAR KCLM 131653Z AUTO 00000KT 10SM BKN014 02/01 A2944 RMK AO2 SLP971 T00220006=
202112131553 METAR KCLM 131553Z AUTO 19006KT 10SM OVC012 02/00 A2944 RMK AO2 SLP972 T00170000=
202112131536 SPECI KCLM 131536Z AUTO VRB03KT 10SM BKN013 02/00 A2944 RMK AO2 T00220000=
202112131453 METAR KCLM 131453Z AUTO 19003KT 10SM CLR 02/00 A2942 RMK AO2 SLP965 60000 T00220000 51015=
202112131353 METAR KCLM 131353Z AUTO 29008KT 10SM FEW019 SCT049 03/01 A2940 RMK AO2 RAB1258E41UPB28E31 SLP959 P0000 T00280006=
202112131253 METAR KCLM 131253Z AUTO 29009KT 10SM SCT055 BKN070 BKN100 02/00 A2939 RMK AO2 SLP956 T00220000=
202112131153 METAR KCLM 131153Z AUTO 25006KT 10SM FEW060 FEW120 01/M01 A2938 RMK AO2 SLP950 70008 T00111006 10028 20006 56022=
202112131053 METAR KCLM 131053Z AUTO 00000KT 10SM BKN120 01/M01 A2940 RMK AO2 SLP959 T00111006=
202112130953 METAR KCLM 130953Z AUTO 00000KT 10SM CLR 01/M01 A2940 RMK AO2 SLP959 T00111006=
202112130853 METAR KCLM 130853Z AUTO 19005KT 10SM CLR 02/01 A2944 RMK AO2 SLP972 T00170006 58024=
202112130753 METAR KCLM 130753Z AUTO 00000KT 10SM BKN090 OVC110 02/00 A2948 RMK AO2 SLP985 T00170000 400500006=
202112130653 METAR KCLM 130653Z AUTO 19005KT 10SM BKN120 02/00 A2950 RMK AO2 SLP993 T00170000=
202112130553 METAR KCLM 130553Z AUTO VRB04KT 8SM FEW070 01/M01 A2951 RMK AO2 SLP997 60002 T00111006 10039 20011 58016=
202112130453 METAR KCLM 130453Z AUTO 00000KT 10SM FEW021 SCT120 03/01 A2953 RMK AO2 SLP001 T00280006=
202112130417 SPECI KCLM 130417Z AUTO 00000KT 10SM SCT020 02/01 A2955 RMK AO2 T00220006=
202112130353 METAR KCLM 130353Z AUTO 00000KT 10SM BKN020 03/01 A2955 RMK AO2 RAE0256UPB0254E0255 SLP008 P0000 T00280006=
202112130253 METAR KCLM 130253Z AUTO 00000KT 10SM -RA BKN016 OVC026 03/01 A2956 RMK AO2 RAB01 SLP012 P0001 60002 T00280011 58001=
202112130226 SPECI KCLM 130226Z AUTO 00000KT 5SM -RA BR OVC026 03/02 A2956 RMK AO2 RAB01 P0001 T00280017=
202112130153 METAR KCLM 130153Z AUTO 24003KT 10SM FEW016 BKN055 OVC070 03/02 A2957 RMK AO2 SLP015 T00330017=
202112130053 METAR KCLM 130053Z AUTO 00000KT 10SM BKN038 BKN070 BKN090 03/02 A2956 RMK AO2 RAB09E45 SLP011 P0001 T00330017=
202112130040 SPECI KCLM 130040Z AUTO 00000KT 10SM -RA FEW012 OVC036 04/02 A2956 RMK AO2 RAB09 P0001 T00390017=
202112122353 METAR KCLM 122353Z AUTO 25004KT 10SM OVC021 04/02 A2956 RMK AO2 SLP013 60002 T00390022 10050 20033 53004=
202112122253 METAR KCLM 122253Z AUTO 24003KT 10SM OVC019 04/02 A2955 RMK AO2 SLP008 T00440017=
202112122153 METAR KCLM 122153Z AUTO 00000KT 10SM BKN017 BKN065 04/02 A2955 RMK AO2 RAE02 SLP009 P0000 T00440017=
202112122114 SPECI KCLM 122114Z AUTO 12004KT 10SM SCT023 04/02 A2955 RMK AO2 RAE02 P0000 T00440017=
202112122103 SPECI KCLM 122103Z AUTO 10004KT 10SM FEW020 BKN027 04/01 A2955 RMK AO2 RAE02 P0000 T00390011=
202112122053 METAR KCLM 122053Z AUTO 14003KT 10SM -RA FEW019 BKN031 OVC050 04/02 A2955 RMK AO2 RAE08B45 SLP009 P0000 60002 T00390017 50001=
202112121953 METAR KCLM 121953Z AUTO 26005KT 10SM -RA OVC030 03/01 A2956 RMK AO2 RAB06 SLP013 P0002 T00330011=
202112121926 SPECI KCLM 121926Z AUTO VRB03KT 8SM -RA OVC026 04/01 A2956 RMK AO2 RAB06 P0001 T00390006=
202112121853 METAR KCLM 121853Z AUTO 22003KT 10SM SCT060 SCT075 OVC100 03/01 A2957 RMK AO2 SLP014 T00330006=
202112121753 METAR KCLM 121753Z AUTO 22003KT 10SM FEW039 BKN047 OVC070 03/01 A2955 RMK AO2 SLP008 60004 T00330011 10033 20006 53010=
202112121653 METAR KCLM 121653Z AUTO 00000KT 10SM FEW055 SCT090 BKN110 01/00 A2953 RMK AO2 SLP002 T00110000=
202112121553 METAR KCLM 121553Z AUTO 24003KT 10SM BKN110 01/M01 A2952 RMK AO2 UPE02RAB1454E03 SLP999 P0000 T00061006=
202112121505 SPECI KCLM 121505Z AUTO 00000KT 10SM BKN036 02/00 A2951 RMK AO2 UPE02RAB1454E03 P0000 T00170000=
202112121453 METAR KCLM 121453Z AUTO 17003KT 9SM UP OVC025 02/00 A2952 RMK AO2 RAB09E16UPB10E11B51SNB16E51 SLP998 P0003 60004 T00170000 50008=
202112121449 SPECI KCLM 121449Z AUTO 18004KT 8SM -SN OVC021 02/00 A2952 RMK AO2 RAB09E16UPB10E11SNB16 P0003=
202112121442 SPECI KCLM 121442Z AUTO 17003KT 5SM -SN BR OVC014 02/00 A2952 RMK AO2 RAB09E16UPB10E11SNB16 P0003 T00170000=
202112121426 SPECI KCLM 121426Z AUTO 22006KT 3SM -SN BR OVC022 02/00 A2953 RMK AO2 RAB09E16UPB10E11SNB16 P0002 T00220000=
202112121353 METAR KCLM 121353Z AUTO 26005KT 10SM OVC042 02/01 A2950 RMK AO2 RAB08E46UPB09E11B46E53 SLP993 P0001 T00220006=
202112121253 METAR KCLM 121253Z AUTO 17004KT 10SM OVC046 02/01 A2949 RMK AO2 RAE13UPB03E12 SLP990 P0000 T00220006=
202112121215 SPECI KCLM 121215Z AUTO 00000KT 10SM BKN038 BKN090 02/00 A2949 RMK AO2 RAE13UPB03E12 P0000 T00170000=
202112121153 METAR KCLM 121153Z AUTO 18003KT 10SM -RA OVC026 02/01 A2948 RMK AO2 RAE11B25 SLP984 P0002 60015 70064 T00220006 10044 20011 51015=
202112121138 SPECI KCLM 121138Z AUTO 00000KT 6SM -RA BR OVC023 02/01 A2949 RMK AO2 RAE11B25 P0002 T00220006=
202112121112 SPECI KCLM 121112Z AUTO 22005KT 10SM OVC038 02/00 A2947 RMK AO2 RAE11 P0000 T00170000=
202112121053 METAR KCLM 121053Z AUTO VRB03KT 5SM -RA BR OVC017 02/00 A2947 RMK AO2 RAB07E30B46UPB09E10SNB30E46 SLP981 P0005 T00170000=
202112121019 SPECI KCLM 121019Z AUTO 00000KT 8SM -RA BKN027 OVC075 02/01 A2946 RMK AO2 RAB07UPB09E10 P0001 T00220006=
202112120953 METAR KCLM 120953Z AUTO 22003KT 10SM SCT065 BKN080 BKN110 02/00 A2945 RMK AO2 RAB22E32 SLP973 P0000 T00170000=
202112120853 METAR KCLM 120853Z AUTO 16004KT 8SM SCT029 SCT043 BKN070 01/00 A2944 RMK AO2 RAE47 SLP969 P0000 60008 T00110000 58003=
202112120845 SPECI KCLM 120845Z AUTO 00000KT 10SM -RA BKN029 BKN040 BKN070 02/00 A2944 RMK AO2 P0000 T00170000=
202112120809 SPECI KCLM 120809Z AUTO 00000KT 10SM -RA BKN037 OVC060 02/01 A2946 RMK AO2 P0000 T00170006=
202112120753 METAR KCLM 120753Z AUTO 00000KT 7SM -RA OVC022 02/01 A2945 RMK AO2 SNB15E27 SLP974 P0007 T00170006 401060017=
202112120653 METAR KCLM 120653Z AUTO 27005KT 8SM -RA OVC020 03/01 A2946 RMK AO2 RAB12 SLP978 P0001 T00280006=
202112120638 SPECI KCLM 120638Z AUTO 30007KT 10SM -RA OVC026 03/01 A2945 RMK AO2 RAB12 P0000 T00330006=
202112120553 METAR KCLM 120553Z AUTO 24006KT 10SM BKN050 OVC070 03/01 A2945 RMK AO2 SLP973 60002 T00330006 10067 20017 56011=
202112120453 METAR KCLM 120453Z AUTO 00000KT 10SM FEW120 02/M01 A2945 RMK AO2 SLP973 T00221006=
202112120353 METAR KCLM 120353Z AUTO 10SM CLR 02/M01 A2947 RMK AO2 SLP981 T00221011=
202112120253 METAR KCLM 120253Z AUTO 25006KT 10SM BKN036 BKN050 BKN060 04/M01 A2948 RMK AO2 RAB18E50 SLP984 P0000 60002 T00441011 51007=
202112120153 METAR KCLM 120153Z AUTO 36004KT 10SM FEW065 03/02 A2947 RMK AO2 RAB0057E26 SLP982 P0002 T00330017=
202112120131 SPECI KCLM 120131Z AUTO 35006KT 10SM SCT020 SCT024 SCT120 03/01 A2947 RMK AO2 RAB0057E26 P0002 T00330011=
202112120105 SPECI KCLM 120105Z AUTO 22008KT 200V260 5SM -RA FEW008 OVC029 04/02 A2946 RMK AO2 RAB0057 P0001 T00440017=
202112120053 METAR KCLM 120053Z AUTO 29006KT 10SM FEW022 OVC033 04/02 A2948 RMK AO2 RAB29E50 SLP985 P0000 T00440017=
202112112353 METAR KCLM 112353Z AUTO 19006KT 10SM SCT037 SCT065 BKN080 05/02 A2946 RMK AO2 RAE46 SLP976 P0006 60018 T00500017 10106 20050 50008=
202112112342 SPECI KCLM 112342Z AUTO 17007KT 10SM -RA BKN033 OVC075 05/02 A2946 RMK AO2 P0006 T00500022=
202112112332 SPECI KCLM 112332Z AUTO 20003KT 5SM -RA FEW019 OVC023 05/02 A2947 RMK AO2 P0006 T00500022=
202112112312 SPECI KCLM 112312Z AUTO 27005KT 2SM -RA OVC022 06/02 A2946 RMK AO2 P0003 T00560022=
202112112302 SPECI KCLM 112302Z AUTO 21003KT 4SM -RA OVC026 06/03 A2946 RMK AO2 P0001 T00560028=
202112112253 METAR KCLM 112253Z AUTO 28005KT 2 1/2SM RA BR OVC024 06/03 A2946 RMK AO2 SLP977 P0008 T00560033=
202112112215 SPECI KCLM 112215Z AUTO 00000KT 4SM -RA BR BKN026 OVC036 06/04 A2945 RMK AO2 P0003 T00610039=
202112112201 SPECI KCLM 112201Z AUTO 00000KT 2 1/2SM -RA BR OVC024 06/04 A2944 RMK AO2 P0001 T00610039=
202112112153 METAR KCLM 112153Z AUTO 29004KT 3SM -RA OVC024 06/03 A2945 RMK AO2 SLP975 P0004 T00610033=
202112112145 SPECI KCLM 112145Z AUTO 30007KT 7SM -RA BKN026 OVC034 07/03 A2945 RMK AO2 P0002 T00670033=
202112112053 METAR KCLM 112053Z AUTO 25008G15KT 8SM -RA FEW034 BKN045 OVC060 08/02 A2943 RMK AO2 RAB49 SLP966 P0000 60000 T00830017 58009=
202112111953 METAR KCLM 111953Z AUTO 00000KT 10SM SCT075 OVC095 10/02 A2944 RMK AO2 SLP971 T01000017=
202112111853 METAR KCLM 111853Z AUTO VRB03KT 10SM FEW070 09/03 A2947 RMK AO2 RAB14E25 SLP979 P0000 T00890033=
202112111753 METAR KCLM 111753Z AUTO 27007KT 220V300 10SM BKN065 OVC090 08/03 A2946 RMK AO2 RAE09 SLP977 P0001 60029 T00830033 10083 20067 53016=
202112111653 METAR KCLM 111653Z AUTO 29006KT 6SM -RA OVC037 07/04 A2945 RMK AO2 SLP974 P0002 T00720044=
202112111553 METAR KCLM 111553Z AUTO 31008KT 10SM -RA SCT033 BKN047 OVC055 07/05 A2942 RMK AO2 SLP964 P0001 T00720050=
202112111524 SPECI KCLM 111524Z AUTO 28008KT 10SM -RA SCT015 BKN034 OVC048 08/06 A2942 RMK AO2 P0001 T00780056=
202112111516 SPECI KCLM 111516Z AUTO 29007KT 10SM -RA SCT012 BKN019 OVC037 08/06 A2942 RMK AO2 P0001 T00780056=
202112111501 SPECI KCLM 111501Z AUTO 26011KT 5SM -RA BR FEW009 OVC014 08/06 A2942 RMK AO2 P0001 T00780056=
202112111453 METAR KCLM 111453Z AUTO 29013G20KT 5SM -RA BR OVC014 08/06 A2941 RMK AO2 SLP961 P0011 60025 T00780056 56001=
202112111435 SPECI KCLM 111435Z AUTO 27010G15KT 6SM -RA BR SCT009 OVC014 08/06 A2941 RMK AO2 P0009 T00780061=
202112111353 METAR KCLM 111353Z AUTO 5SM -RA BR BKN009 BKN013 OVC019 08/06 A2941 RMK AO2 SLP961 P0005 T00780061=
202112111346 SPECI KCLM 111346Z AUTO VRB03KT 4SM -RA BR BKN011 OVC021 08/06 A2941 RMK AO2 P0005 T00780061=
202112111338 SPECI KCLM 111338Z AUTO 29009KT 6SM -RA BR SCT009 BKN019 OVC025 08/06 A2941 RMK AO2 P0004 T00830061=
202112111327 SPECI KCLM 111327Z AUTO 00000KT 4SM -RA BR SCT019 OVC027 08/06 A2940 RMK AO2 P0003 T00780061=
202112111253 METAR KCLM 111253Z AUTO 16004KT 4SM -RA BR OVC036 08/06 A2940 RMK AO2 SLP957 P0009 T00780061=
202112111153 METAR KCLM 111153Z AUTO VRB06KT 4SM RA OVC044 08/05 A2942 RMK AO2 SLP962 P0012 60086 70123 T00780050 10100 20056 58007=
202112111053 METAR KCLM 111053Z AUTO 27005KT 7SM -RA OVC049 07/05 A2944 RMK AO2 SLP970 P0014 T00720050=
202112110953 METAR KCLM 110953Z AUTO 24013G22KT 4SM RA OVC043 08/04 A2944 RMK AO2 PK WND 23030/0856 WSHFT 0930 SLP970 P0013 T00780044=
202112110950 SPECI KCLM 110950Z AUTO 25013KT 3SM RA OVC043 08/04 A2944 RMK AO2 PK WND 23030/0856 WSHFT 0930 P0012=
202112110853 METAR KCLM 110853Z AUTO 17013G24KT 3SM RA OVC037 09/04 A2945 RMK AO2 PRESFR SLP973 P0014 60047 T00890044 58063=
202112110753 METAR KCLM 110753Z AUTO 16007KT 4SM -RA FEW016 OVC032 07/04 A2957 RMK AO2 SLP015 P0016 T00720044 400720033=
202112110653 METAR KCLM 110653Z AUTO 15005KT 4SM RA BR OVC030 06/04 A2962 RMK AO2 SLP031 P0017 T00560039=
202112110643 SPECI KCLM 110643Z AUTO 14006KT 4SM RA BR FEW018 OVC031 06/04 A2962 RMK AO2 P0015 T00560039=
202112110629 SPECI KCLM 110629Z AUTO 00000KT 2SM RA BR OVC032 06/04 A2964 RMK AO2 P0011 T00560044=
202112110553 METAR KCLM 110553Z AUTO 00000KT 5SM RA BR OVC035 06/04 A2964 RMK AO2 SLP037 P0015 60037 T00560039 10067 20050 56036=
202112110453 METAR KCLM 110453Z AUTO 14004KT 5SM -RA BR OVC038 06/04 A2966 RMK AO2 SLP046 P0010 T00560039=
202112110353 METAR KCLM 110353Z AUTO 16005KT 5SM -RA BR OVC039 05/03 A2970 RMK AO2 SLP060 P0006 T00500033=
202112110253 METAR KCLM 110253Z AUTO VRB04KT 7SM -RA OVC036 05/03 A2974 RMK AO2 SLP073 P0003 60006 T00500033 58041=
202112110153 METAR KCLM 110153Z AUTO 25005KT 8SM -RA OVC039 05/03 A2978 RMK AO2 SLP085 P0003 T00500028=
202112110053 METAR KCLM 110053Z AUTO 23004KT 10SM -RA OVC042 06/02 A2983 RMK AO2 RAB13 SLP104 P0000 T00560022=
202112102353 METAR KCLM 102353Z AUTO 00000KT 10SM BKN050 OVC070 06/02 A2986 RMK AO2 RAB12E42 SLP115 P0000 60000 T00610017 10072 20050 56034=
202112102253 METAR KCLM 102253Z AUTO 12005KT 10SM FEW033 SCT055 BKN090 07/02 A2988 RMK AO2 RAE2157B23E47 PRESFR SLP121 P0000 T00670017=
202112102153 METAR KCLM 102153Z AUTO 21005KT 10SM -RA FEW041 BKN048 OVC070 07/02 A2993 RMK AO2 RAB15E31B47 PRESFR SLP136 P0000 T00720022=
202112102053 METAR KCLM 102053Z AUTO 00000KT 10SM FEW065 OVC100 07/00 A2996 RMK AO2 SLP149 60000 T00670000 58022=
202112101953 METAR KCLM 101953Z AUTO 00000KT 10SM OVC085 06/00 A3000 RMK AO2 SLP160 T00610000=
202112101853 METAR KCLM 101853Z AUTO 00000KT 10SM FEW039 BKN046 OVC060 06/00 A3002 RMK AO2 RAB30E43 SLP167 P0000 T00610000=
202112101753 METAR KCLM 101753Z AUTO 00000KT 10SM OVC060 05/01 A3003 RMK AO2 SLP171 T00500006 10056 20033 55002=
202112101653 METAR KCLM 101653Z AUTO 00000KT 10SM OVC095 04/00 A3003 RMK AO2 SLP171 T00390000=
202112101553 METAR KCLM 101553Z AUTO VRB03KT 10SM BKN060 BKN095 05/M01 A3003 RMK AO2 SLP172 T00501006=
202112101453 METAR KCLM 101453Z AUTO 24006KT 10SM OVC060 06/M01 A3004 RMK AO2 SLP173 T00561006 51008=
202112101353 METAR KCLM 101353Z AUTO 26006KT 10SM FEW044 OVC060 05/M01 A3003 RMK AO2 SLP171 T00501006=
202112101253 METAR KCLM 101253Z AUTO 29005KT 10SM OVC050 05/00 A3003 RMK AO2 SLP170 T00500000=
202112101153 METAR KCLM 101153Z AUTO 26008KT 10SM CLR 04/M01 A3001 RMK AO2 SLP165 60000 70007 T00391006 10056 20033 53003=
202112101053 METAR KCLM 101053Z AUTO 26006KT 10SM CLR 04/M01 A3000 RMK AO2 SLP161 T00391011=
202112100953 METAR KCLM 100953Z AUTO 24006KT 10SM CLR 04/M01 A2999 RMK AO2 SLP158 T00391011=
202112100853 METAR KCLM 100853Z AUTO 26007KT 10SM CLR 04/M01 A3000 RMK AO2 SLP162 60000 T00391006 51013=
202112100753 METAR KCLM 100753Z AUTO 25008KT 10SM FEW039 BKN047 OVC090 04/00 A2999 RMK AO2 RAE07 SLP157 P0000 T00440000 400720033=
202112100653 METAR KCLM 100653Z AUTO 22008KT 10SM -RA OVC045 05/01 A2998 RMK AO2 RAB0555E08B38 SLP153 P0000 T00500006=
202112100553 METAR KCLM 100553Z AUTO 25012KT 10SM OVC043 05/00 A2996 RMK AO2 SLP148 T00500000 10056 20044 51010=
202112100453 METAR KCLM 100453Z AUTO 26006KT 10SM FEW039 BKN050 05/00 A2996 RMK AO2 SLP146 T00500000=
202112100353 METAR KCLM 100353Z AUTO 24009KT 10SM BKN046 OVC060 05/M01 A2995 RMK AO2 SLP143 T00501006=
202112100253 METAR KCLM 100253Z AUTO 26009KT 10SM BKN085 OVC110 05/M01 A2993 RMK AO2 SLP138 T00501011 53005=
202112100153 METAR KCLM 100153Z AUTO 25010KT 10SM SCT110 04/00 A2993 RMK AO2 SLP135 T00440000=
202112100053 METAR KCLM 100053Z AUTO 25008KT 10SM CLR 04/M01 A2992 RMK AO2 SLP133 T00441011=
202112092353 METAR KCLM 092353Z AUTO 27007KT 10SM CLR 05/M01 A2992 RMK AO2 SLP132 T00501011 10072 20044 53012=
202112092253 METAR KCLM 092253Z AUTO 27014KT 10SM CLR 07/M01 A2990 RMK AO2 SLP126 T00671006=
202112092153 METAR KCLM 092153Z AUTO 26014G20KT 10SM FEW045 07/01 A2988 RMK AO2 SLP120 T00720006=
202112092053 METAR KCLM 092053Z AUTO 27015G23KT 10SM FEW040 FEW047 06/00 A2988 RMK AO2 SLP121 T00610000 53004=
202112091953 METAR KCLM 091953Z AUTO 26014G24KT 10SM FEW100 SCT120 07/00 A2988 RMK AO2 PK WND 29026/1937 SLP119 T00720000=
202112091853 METAR KCLM 091853Z AUTO 23009KT 10SM SCT047 06/02 A2987 RMK AO2 SLP118 T00560017=
202112091753 METAR KCLM 091753Z AUTO 24012G16KT 10SM BKN039 04/01 A2987 RMK AO2 RAE36 SLP117 P0002 60007 T00440011 10050 20033 56003=
202112091742 SPECI KCLM 091742Z AUTO 26008KT 10SM SCT028 BKN038 04/01 A2987 RMK AO2 RAE36 P0002 T00390011=
202112091716 SPECI KCLM 091716Z AUTO 24010KT 5SM -RA BR BKN026 OVC047 04/02 A2987 RMK AO2 P0001 T00390017=
202112091653 METAR KCLM 091653Z AUTO 23006KT 9SM -RA OVC034 04/02 A2987 RMK AO2 RAB12 SLP118 P0001 T00390017=
202112091628 SPECI KCLM 091628Z AUTO 28006KT 7SM -RA BKN027 BKN035 OVC050 04/01 A2988 RMK AO2 RAB12 P0001 T00390011=
202112091553 METAR KCLM 091553Z AUTO 24008KT 10SM SCT035 BKN050 BKN120 03/01 A2987 RMK AO2 RAE47 SLP115 P0001 T00330006=
202112091530 SPECI KCLM 091530Z AUTO 18003KT 10SM -RA BKN033 OVC048 03/01 A2987 RMK AO2 P0001 T00330011=
202112091453 METAR KCLM 091453Z AUTO 00000KT 10SM -RA OVC026 04/02 A2988 RMK AO2 RAB1359 SLP121 P0002 60003 T00390017 55006=
202112091436 SPECI KCLM 091436Z AUTO 13003KT 8SM -RA OVC028 04/01 A2987 RMK AO2 RAB1359 P0001 T00390011=
202112091428 SPECI KCLM 091428Z AUTO 00000KT 10SM -RA FEW024 OVC030 04/01 A2988 RMK AO2 RAB1359 P0001 T00390011=
202112091419 SPECI KCLM 091419Z AUTO 00000KT 7SM -RA OVC028 04/01 A2988 RMK AO2 RAB1359 P0001 T00440011=
202112091353 METAR KCLM 091353Z AUTO 26008KT 10SM OVC050 04/00 A2988 RMK AO2 RAE09 SLP119 P0000 T00440000=
202112091253 METAR KCLM 091253Z AUTO 17005KT 10SM -RA OVC041 04/00 A2988 RMK AO2 RAB1157 SLP119 P0001 T00440000=
202112091153 METAR KCLM 091153Z AUTO 25003KT 10SM FEW047 OVC055 04/00 A2990 RMK AO2 SLP127 60000 70008 T00440000 10050 20039 58010=
202112091053 METAR KCLM 091053Z AUTO 24009KT 10SM OVC050 04/00 A2991 RMK AO2 SLP130 T00440000=
202112090953 METAR KCLM 090953Z AUTO 25009KT 10SM BKN050 OVC070 04/00 A2992 RMK AO2 SLP135 T00440000=
202112090853 METAR KCLM 090853Z AUTO 25007KT 10SM BKN050 BKN075 04/00 A2993 RMK AO2 SLP138 60000 T00390000 58007=
202112090753 METAR KCLM 090753Z AUTO 25006KT 10SM OVC044 04/01 A2995 RMK AO2 RAB30E47 SLP145 P0000 T00440006 400890033=
202112090653 METAR KCLM 090653Z AUTO 25005KT 10SM OVC050 04/00 A2997 RMK AO2 SLP149 T00440000=
202112090553 METAR KCLM 090553Z AUTO 25007KT 10SM OVC060 04/00 A2995 RMK AO2 SLP144 60001 T00440000 10050 20033 53001=
202112090453 METAR KCLM 090453Z AUTO 28006KT 10SM SCT049 BKN065 BKN075 03/00 A2995 RMK AO2 SLP143 T00330000=
202112090353 METAR KCLM 090353Z AUTO 27006KT 10SM SCT047 BKN055 04/00 A2995 RMK AO2 SLP144 T00440000=
202112090253 METAR KCLM 090253Z AUTO 25009KT 10SM CLR 04/01 A2995 RMK AO2 SLP144 60001 T00390006 58004=
202112090153 METAR KCLM 090153Z AUTO 24010KT 10SM SCT090 04/01 A2997 RMK AO2 RAE21 SLP151 P0001 T00440011=
202112090053 METAR KCLM 090053Z AUTO 29009KT 10SM -RA FEW023 BKN046 OVC090 04/02 A2998 RMK AO2 RAE2354B52 SLP155 P0000 T00440017=
202112082353 METAR KCLM 082353Z AUTO 23005KT 10SM -RA SCT037 BKN046 04/01 A2996 RMK AO2 RAB2256E14B44 SLP147 P0000 60004 T00440011 10078 20044 50001=
202112082253 METAR KCLM 082253Z AUTO 26008KT 10SM SCT037 BKN055 OVC095 05/02 A2996 RMK AO2 RAE2159B29E42 SLP148 P0000 T00500017=
202112082205 SPECI KCLM 082205Z AUTO 24007KT 10SM SCT021 SCT075 OVC095 06/02 A2996 RMK AO2 RAE2159 P0000 T00560017=
202112082153 METAR KCLM 082153Z AUTO 25013G25KT 10SM -RA BKN023 BKN030 OVC075 04/01 A2996 RMK AO2 RAB17 SLP148 P0004 T00440011=
202112082138 SPECI KCLM 082138Z AUTO 30017G23KT 2 1/2SM RA BKN024 BKN033 OVC049 04/01 A2997 RMK AO2 RAB17 P0003 T00440006=
202112082053 METAR KCLM 082053Z AUTO 26011G20KT 10SM BKN095 08/M01 A2996 RMK AO2 SLP145 T00781006 51010=
202112081953 METAR KCLM 081953Z AUTO 26010KT 10SM SCT050 BKN085 07/M01 A2995 RMK AO2 SLP145 T00721006=
202112081853 METAR KCLM 081853Z AUTO 26012G22KT 10SM BKN080 07/00 A2995 RMK AO2 SLP144 T00720000=
202112081753 METAR KCLM 081753Z AUTO 26015G24KT 10SM CLR 06/00 A2993 RMK AO2 SLP136 60003 T00610000 10067 20044 53014=
202112081653 METAR KCLM 081653Z AUTO 25013G19KT 10SM FEW033 SCT060 SCT080 05/01 A2991 RMK AO2 PK WND 25031/1632 RAB28E44 SLP130 P0000 T00500006=
202112081553 METAR KCLM 081553Z AUTO 27011KT 10SM CLR 06/00 A2989 RMK AO2 PK WND 26038/1506 RAB14E23 SLP123 P0000 T00560000=
202112081453 METAR KCLM 081453Z AUTO 26011KT 10SM CLR 06/00 A2989 RMK AO2 PK WND 28027/1357 SLP122 60003 T00610000 53022=
202112081353 METAR KCLM 081353Z AUTO 26018G29KT 10SM FEW027 06/01 A2985 RMK AO2 PK WND 29029/1353 SLP111 T00610006=
202112081253 METAR KCLM 081253Z AUTO 28016G24KT 10SM OVC044 07/03 A2984 RMK AO2 PK WND 30036/1215 RAE33B42E52 SLP107 P0003 T00670028=
202112081233 SPECI KCLM 081233Z AUTO 27017G28KT 10SM FEW029 OVC034 07/03 A2983 RMK AO2 PK WND 30036/1215 RAE33 P0003 T00670028=
202112081153 METAR KCLM 081153Z AUTO 30014G22KT 6SM -RA BR SCT018 OVC029 07/04 A2982 RMK AO2 PK WND 28033/1126 RAB17 SLP100 P0006 60010 7//// T00670044 10089 20044 53020=
202112081053 METAR KCLM 081053Z AUTO 28008KT 10SM OVC055 08/04 A2979 RMK AO2 SLP091 T00780044=
202112080953 METAR KCLM 080953Z AUTO 30007KT 10SM SCT055 BKN070 OVC100 08/04 A2977 RMK AO2 SLP083 T00780044=
202112080853 METAR KCLM 080853Z AUTO 27010KT 10SM SCT050 BKN060 OVC100 08/05 A2976 RMK AO2 RAE33 SLP079 P0000 60004 T00830050 55007=
202112080753 METAR KCLM 080753Z AUTO 27011G15KT 10SM -RA BKN040 OVC047 08/06 A2976 RMK AO2 SLP078 P0003 T00830061 400890033=
202112080741 SPECI KCLM 080741Z AUTO 24006KT 7SM -RA SCT008 OVC040 08/06 A2977 RMK AO2 P0003 T00830061=
202112080653 METAR KCLM 080653Z AUTO 00000KT 5SM -RA BR BKN009 OVC012 07/06 A2978 RMK AO2 RAB0555 CIG 006V010 SLP086 P0001 T00670056=
202112080648 SPECI KCLM 080648Z AUTO 00000KT 6SM -RA BR BKN009 OVC012 07/05 A2978 RMK AO2 RAB0555 CIG 006V012 P0001=
202112080620 SPECI KCLM 080620Z AUTO 00000KT 7SM -RA BKN014 BKN022 OVC050 06/05 A2978 RMK AO2 RAB0555 P0000 T00610050=
202112080553 METAR KCLM 080553Z AUTO 29005KT 6SM BR BKN060 04/02 A2979 RMK AO2 SLP090 T00440022 10072 20033 56020=
202112080453 METAR KCLM 080453Z AUTO 00000KT 5SM BR FEW060 FEW080 04/03 A2980 RMK AO2 SLP094 T00390028=
202112080353 METAR KCLM 080353Z AUTO 24004KT 8SM FEW060 SCT080 OVC090 06/04 A2983 RMK AO2 SLP103 T00560039=
202112080253 METAR KCLM 080253Z AUTO 23003KT 10SM FEW007 SCT060 OVC095 06/04 A2985 RMK AO2 SLP110 T00610039 58026=
202112080153 METAR KCLM 080153Z AUTO 30003KT 10SM OVC070 06/04 A2988 RMK AO2 SLP121 T00560039=
202112080112 SPECI KCLM 080112Z AUTO 00000KT 10SM SCT006 OVC070 07/04 A2989 RMK AO2 T00670044=
202112080053 METAR KCLM 080053Z AUTO 00000KT 10SM OVC006 07/04 A2990 RMK AO2 SLP128 T00670044=
202112072353 METAR KCLM 072353Z AUTO 00000KT 10SM OVC007 07/04 A2993 RMK AO2 SLP137 T00720044 10089 20067 56022=
202112072310 SPECI KCLM 072310Z AUTO 10005KT 10SM OVC009 08/04 A2995 RMK AO2 T00780044=
202112072253 METAR KCLM 072253Z AUTO 09005KT 10SM OVC010 08/04 A2995 RMK AO2 SLP142 T00780044=
202112072153 METAR KCLM 072153Z AUTO 05003KT 10SM OVC012 08/04 A2998 RMK AO2 SLP152 T00780039=
202112072053 METAR KCLM 072053Z AUTO 09006KT 10SM OVC013 08/04 A3000 RMK AO2 SLP159 T00780039 58007=
202112072009 SPECI KCLM 072009Z AUTO 08006KT 10SM BKN012 OVC060 09/04 A3001 RMK AO2 T00890039=
202112071953 METAR KCLM 071953Z AUTO VRB05KT 10SM FEW010 OVC060 08/04 A3001 RMK AO2 SLP164 T00830039=
202112071940 SPECI KCLM 071940Z AUTO 08005KT 10SM SCT010 OVC060 08/04 A3001 RMK AO2 T00780039=
202112071906 SPECI KCLM 071906Z AUTO 11004KT 10SM OVC010 07/04 A3002 RMK AO2 T00720039=
202112071853 METAR KCLM 071853Z AUTO VRB04KT 10SM OVC009 07/04 A3002 RMK AO2 SLP169 T00720039=
202112071844 SPECI KCLM 071844Z AUTO VRB03KT 10SM OVC009 07/04 A3003 RMK AO2 T00720039=
202112071812 SPECI KCLM 071812Z AUTO 12004KT 10SM OVC010 07/03 A3002 RMK AO2 T00670033=
202112071753 METAR KCLM 071753Z AUTO 12004KT 10SM OVC009 06/03 A3002 RMK AO2 SLP166 6//// T00610033 10072 20044 58001=
202112071653 METAR KCLM 071653Z AUTO OVC007 06/03 A3002 RMK AO2 SLP168 T00560033 $=
202112071651 SPECI KCLM 071651Z AUTO OVC007 06/03 A3002 RMK AO2 $=
202112071553 METAR KCLM 071553Z AUTO 00000KT 10SM 05/03 A3002 RMK AO2 SLP167 T00500028 PWINO PNO $=
202112071453 METAR KCLM 071453Z AUTO 13005KT 10SM OVC008 05/03 A3002 RMK AO2 SLP168 T00500028 55001 $=
202112071353 METAR KCLM 071353Z AUTO 12006KT 10SM OVC008 06/03 A3000 RMK AO2 SLP160 T00560033=
202112071307 SPECI KCLM 071307Z AUTO 14003KT 10SM OVC009 05/03 A3003 RMK AO2 T00500033=
202112071253 METAR KCLM 071253Z AUTO 00000KT 10SM OVC010 05/03 A3003 RMK AO2 SLP172 T00500033=
202112071153 METAR KCLM 071153Z AUTO 00000KT 10SM OVC010 04/03 A3002 RMK AO2 SLP169 70001 T00440033 10050 20033 50023=
202112071053 METAR KCLM 071053Z AUTO 00000KT 7SM OVC011 04/03 A3004 RMK AO2 SLP173 T00440033=
202112071033 SPECI KCLM 071033Z AUTO 00000KT 8SM OVC010 04/03 A3004 RMK AO2 CIG 008V011 T00440033=
202112071015 SPECI KCLM 071015Z AUTO 16003KT 10SM OVC008 04/03 A3004 RMK AO2 CIG 007V012 T00440028=
202112070953 METAR KCLM 070953Z AUTO 00000KT 8SM OVC012 04/03 A3002 RMK AO2 PRESRR SLP166 T00390033=
202112070916 SPECI KCLM 070916Z AUTO 00000KT 10SM BKN013 04/03 A2998 RMK AO2 PRESRR T00390033=
202112070852 METAR KCLM 070852Z AUTO 06003KT 7SM FEW004 SCT014 04/03 A2996 RMK AO2 SLP146 T00440033 58019=
202112070851 SPECI KCLM 070851Z AUTO 06003KT 7SM FEW004 SCT014 04/03 A2995 RMK AO2=
202112070833 SPECI KCLM 070833Z AUTO 16006KT 9SM OVC014 04/03 A2997 RMK AO2 PRESFR T00440033=
202112070804 SPECI KCLM 070804Z AUTO 09004KT 10SM FEW004 FEW010 OVC017 05/04 A3001 RMK AO2 T00500039=
202112070753 METAR KCLM 070753Z AUTO 00000KT 10SM SCT004 BKN010 OVC017 05/04 A3001 RMK AO2 SLP165 T00500039 400500011=
202112070703 SPECI KCLM 070703Z AUTO 10004KT 9SM OVC004 05/03 A3003 RMK AO2 T00500033=
202112070653 METAR KCLM 070653Z AUTO VRB04KT 10SM OVC005 05/03 A3004 RMK AO2 SLP173 T00500033=
202112070553 METAR KCLM 070553Z AUTO 00000KT 10SM BKN008 BKN014 OVC020 04/03 A3001 RMK AO2 SLP165 T00440028 10050 20039 53010=
202112070541 SPECI KCLM 070541Z AUTO 00000KT 10SM SCT007 BKN015 OVC020 04/03 A3001 RMK AO2 T00440028=
202112070534 SPECI KCLM 070534Z AUTO 00000KT 10SM BKN007 OVC020 04/03 A3001 RMK AO2 T00440028=
202112070525 SPECI KCLM 070525Z AUTO 00000KT 10SM SCT007 OVC020 04/03 A3000 RMK AO2 T00390028=
202112070453 METAR KCLM 070453Z AUTO 22003KT 10SM OVC020 04/03 A2999 RMK AO2 SLP157 T00390028 TSNO=
202112070353 METAR KCLM 070353Z AUTO 00000KT 10SM OVC019 04/03 A2998 RMK AO2 SLP155 T00440033=
202112070327 SPECI KCLM 070327Z AUTO 20003KT 10SM FEW006 OVC018 04/03 A2998 RMK AO2 T00440028=
202112070253 METAR KCLM 070253Z AUTO 00000KT 10SM OVC017 04/03 A2998 RMK AO2 SLP156 T00440033 50001=
202112070153 METAR KCLM 070153Z AUTO 00000KT 9SM OVC017 04/03 A2998 RMK AO2 SLP156 T00390033=
202112070125 SPECI KCLM 070125Z AUTO 00000KT 9SM OVC015 04/03 A2998 RMK AO2 T00440028=
202112070053 METAR KCLM 070053Z AUTO 00000KT 10SM OVC014 04/03 A2998 RMK AO2 SLP156 T00440028=
202112070040 SPECI KCLM 070040Z AUTO 00000KT 10SM OVC014 04/02 A2997 RMK AO2 T00440022=
202112062353 METAR KCLM 062353Z AUTO 00000KT 10SM BKN016 BKN041 OVC060 05/02 A2998 RMK AO2 SLP154 T00500022 10050 20033 51006=
202112062349 SPECI KCLM 062349Z AUTO 00000KT 10SM FEW013 BKN039 OVC060 05/02 A2998 RMK AO2=
202112062305 SPECI KCLM 062305Z AUTO 00000KT 10SM OVC013 05/02 A2997 RMK AO2 T00500022=
202112062253 METAR KCLM 062253Z AUTO 00000KT 10SM OVC015 05/02 A2997 RMK AO2 SLP152 T00500022=
202112062153 METAR KCLM 062153Z AUTO 13005KT 10SM BKN019 OVC028 04/02 A2996 RMK AO2 SLP148 T00440022=
202112062124 SPECI KCLM 062124Z AUTO 09004KT 10SM SCT009 OVC017 04/02 A2997 RMK AO2 T00440022=
202112062053 METAR KCLM 062053Z AUTO 08004KT 10SM BKN011 OVC016 04/02 A2998 RMK AO2 SLP153 T00440022 58019=
202112062007 SPECI KCLM 062007Z AUTO 12003KT 10SM BKN012 OVC017 04/02 A2999 RMK AO2 T00440017=
202112061953 METAR KCLM 061953Z AUTO 10003KT 10SM OVC017 04/02 A3000 RMK AO2 SLP160 T00440017=
202112061912 SPECI KCLM 061912Z AUTO 09003KT 10SM SCT010 BKN017 OVC038 04/02 A3000 RMK AO2 T00390017=
202112061853 METAR KCLM 061853Z AUTO 11003KT 10SM OVC010 04/02 A3001 RMK AO2 SLP167 T00390017=
202112061833 SPECI KCLM 061833Z AUTO 12003KT 10SM BKN011 OVC036 04/02 A3002 RMK AO2 T00390017=
202112061753 METAR KCLM 061753Z AUTO 14004KT 10SM OVC007 03/02 A3003 RMK AO2 SLP173 60001 T00330017 10033 20011 58002=
202112061653 METAR KCLM 061653Z AUTO 18004KT 9SM OVC006 02/01 A3004 RMK AO2 SLP174 T00220011=
202112061610 SPECI KCLM 061610Z AUTO 21004KT 10SM BKN005 OVC013 02/01 A3004 RMK AO2 T00170006=
202112061553 METAR KCLM 061553Z AUTO 22005KT 10SM SCT004 BKN013 OVC050 02/01 A3004 RMK AO2 SLP174 T00170006=
202112061548 SPECI KCLM 061548Z AUTO 22004KT 10SM SCT004 BKN035 OVC050 01/01 A3004 RMK AO2=
202112061453 METAR KCLM 061453Z AUTO 00000KT 8SM OVC035 01/01 A3006 RMK AO2 UPB1356E01SNE1356 SLP181 P0000 60001 T00110006 58015=
202112061402 SPECI KCLM 061402Z AUTO 23004KT 3SM BR OVC032 01/00 A3009 RMK AO2 UPB1356E01SNE1356 P0000 T00110000=
202112061353 METAR KCLM 061353Z AUTO 22003KT 2 1/2SM -SN BR OVC032 01/00 A3010 RMK AO2 RAE1259B29E43SNB1259 SLP194 P0001 T00110000=
202112061344 SPECI KCLM 061344Z AUTO 24003KT 3SM -SN BR OVC030 01/00 A3010 RMK AO2 RAE1259B29E43SNB1259 P0001 T00110000=
202112061253 METAR KCLM 061253Z AUTO 23003KT 5SM -RA BR OVC028 01/01 A3010 RMK AO2 RAB42 SLP197 P0000 T00110006=
202112061153 METAR KCLM 061153Z AUTO 00000KT 10SM OVC032 02/01 A3012 RMK AO2 RAE1055 SLP201 P0000 60003 70003 I6000 T00170006 10022 20011 58035=
202112061120 SPECI KCLM 061120Z AUTO 00000KT 10SM FEW009 BKN033 OVC055 01/00 A3014 RMK AO2 RAE1055 PRESFR P0000 T00110000=
202112061113 SPECI KCLM 061113Z AUTO 00000KT 10SM SCT009 BKN021 OVC050 01/00 A3015 RMK AO2 RAE1055 PRESFR P0000 T00110000=
202112061053 METAR KCLM 061053Z AUTO 00000KT 10SM -RA OVC009 01/00 A3018 RMK AO2 RAE06B13UPB11E13SNB36E45 SLP222 P0002 T00110000=
202112061051 SPECI KCLM 061051Z AUTO 00000KT 8SM -RA OVC009 01/00 A3018 RMK AO2 RAE06B13UPB11E13SNB36E45 P0002=
202112061032 SPECI KCLM 061032Z AUTO 21003KT 7SM -RA BKN011 OVC034 02/01 A3019 RMK AO2 RAE06B13UPB11E13 P0001 T00170006=
202112061007 SPECI KCLM 061007Z AUTO 00000KT 5SM BR OVC034 02/01 A3020 RMK AO2 RAE06 P0001 T00170006=
202112060953 METAR KCLM 060953Z AUTO 18003KT 3SM -RA BR OVC025 02/00 A3022 RMK AO2 SLP237 P0001 I1000 T00170000=
202112060948 SPECI KCLM 060948Z AUTO 17003KT 3SM -RA BR OVC027 02/00 A3022 RMK AO2 PRESFR P0001 I1000=
202112060853 METAR KCLM 060853Z AUTO 24003KT 10SM -RA OVC055 02/00 A3027 RMK AO2 RAB42 SLP252 P0000 60000 T00220000 58028=
202112060753 METAR KCLM 060753Z AUTO 00000KT 10SM OVC055 02/00 A3030 RMK AO2 SLP261 T00220000 400561011=
202112060653 METAR KCLM 060653Z AUTO 00000KT 10SM OVC060 02/00 A3033 RMK AO2 SLP275 T00220000=
202112060553 METAR KCLM 060553Z AUTO 00000KT 10SM OVC080 02/00 A3035 RMK AO2 SLP281 T00220000 10033 20022 56034=
202112060453 METAR KCLM 060453Z AUTO 00000KT 10SM OVC085 02/00 A3039 RMK AO2 SLP293 T00220000=
202112060353 METAR KCLM 060353Z AUTO 00000KT 10SM OVC090 03/M01 A3040 RMK AO2 SLP296 T00281006=
202112060253 METAR KCLM 060253Z AUTO 00000KT 10SM OVC090 02/00 A3045 RMK AO2 SLP316 T00220000 58014=
202112060153 METAR KCLM 060153Z AUTO 12003KT 10SM OVC100 02/00 A3046 RMK AO2 SLP318 T00220000=
202112060053 METAR KCLM 060053Z AUTO 22004KT 10SM OVC110 02/01 A3050 RMK AO2 SLP330 T00220006=
202112052353 METAR KCLM 052353Z AUTO 00000KT 10SM FEW100 04/M01 A3050 RMK AO2 SLP330 T00391006 10056 20028 58019=
202112052253 METAR KCLM 052253Z AUTO 00000KT 10SM FEW120 04/M01 A3052 RMK AO2 SLP337 T00441011=
202112052153 METAR KCLM 052153Z AUTO 09004KT 10SM CLR 04/M02 A3054 RMK AO2 SLP345 T00391017=
202112052053 METAR KCLM 052053Z AUTO 06006KT 10SM CLR 05/M01 A3055 RMK AO2 SLP349 T00501011 50001=
202112051953 METAR KCLM 051953Z AUTO 07006KT 10SM CLR 05/M02 A3057 RMK AO2 SLP353 T00501017=
202112051853 METAR KCLM 051853Z AUTO 13005KT 10SM CLR 04/M02 A3057 RMK AO2 SLP356 T00441017=
202112051753 METAR KCLM 051753Z AUTO 13006KT 10SM CLR 03/M02 A3055 RMK AO2 SLP349 T00281022 10028 21011 51016=
202112051653 METAR KCLM 051653Z AUTO 22004KT 10SM CLR 01/M01 A3055 RMK AO2 SLP348 T00061011=
202112051553 METAR KCLM 051553Z AUTO 22003KT 10SM CLR 00/M02 A3052 RMK AO2 SLP338 T00001017=
202112051453 METAR KCLM 051453Z AUTO 23006KT 10SM CLR 00/M02 A3050 RMK AO2 SLP333 T00001017 50008=
202112051353 METAR KCLM 051353Z AUTO 25004KT 10SM FEW027 SCT033 BKN040 00/M01 A3051 RMK AO2 SLP333 T00001011=
202112051332 SPECI KCLM 051332Z AUTO 00000KT 10SM SCT025 BKN033 OVC040 00/M02 A3050 RMK AO2 T00001017=
202112051325 SPECI KCLM 051325Z AUTO 00000KT 10SM BKN026 OVC040 M01/M02 A3050 RMK AO2 T10061017=
202112051253 METAR KCLM 051253Z AUTO 22004KT 10SM FEW023 SCT040 01/M02 A3049 RMK AO2 SLP328 T00061017=
202112051153 METAR KCLM 051153Z AUTO 23005KT 10SM CLR 01/M02 A3048 RMK AO2 SLP325 70017 T00061022 10028 20006 51028=
202112051053 METAR KCLM 051053Z AUTO 24007KT 10SM CLR 01/M01 A3046 RMK AO2 SLP317 T00111011=
202112050953 METAR KCLM 050953Z AUTO 26011KT 10SM CLR 02/M01 A3043 RMK AO2 SLP306 T00171011=
202112050853 METAR KCLM 050853Z AUTO 26010KT 10SM CLR 02/M01 A3040 RMK AO2 SLP297 T00171006 51019=
202112050753 METAR KCLM 050753Z AUTO 25011KT 10SM CLR 02/M01 A3038 RMK AO2 SLP292 T00221006 400440017=
202112050653 METAR KCLM 050653Z AUTO 24009KT 10SM CLR 03/M01 A3036 RMK AO2 SLP285 T00281006=
202112050553 METAR KCLM 050553Z AUTO 25007KT 10SM CLR 02/00 A3034 RMK AO2 SLP278 T00220000 10044 20017 51030=
202112050453 METAR KCLM 050453Z AUTO 25008KT 10SM CLR 03/01 A3031 RMK AO2 SLP269 T00280006=
202112050353 METAR KCLM 050353Z AUTO 26009KT 10SM CLR 03/01 A3028 RMK AO2 SLP258 T00280006=
202112050253 METAR KCLM 050253Z AUTO 24008KT 10SM CLR 02/01 A3025 RMK AO2 SLP247 T00220006 51021=
202112050153 METAR KCLM 050153Z AUTO 23005KT 10SM BKN036 BKN045 02/02 A3023 RMK AO2 SLP240 T00220017=
202112050141 SPECI KCLM 050141Z AUTO 25004KT 3SM BR FEW001 FEW044 02/01 A3023 RMK AO2 T00220011=
202112050135 SPECI KCLM 050135Z AUTO VRB03KT 1SM BR FEW001 SCT044 02/01 A3023 RMK AO2 T00220011=
202112050132 SPECI KCLM 050132Z AUTO 00000KT 3/4SM BR SCT044 03/01 A3022 RMK AO2 T00280011=
202112050120 SPECI KCLM 050120Z AUTO 00000KT 1 3/4SM BR FEW039 03/02 A3022 RMK AO2 T00280017=
202112050053 METAR KCLM 050053Z AUTO 20004KT 10SM OVC035 04/03 A3021 RMK AO2 SLP233 T00390028=
202112050032 SPECI KCLM 050032Z AUTO 21003KT 10SM SCT011 BKN030 OVC037 04/03 A3021 RMK AO2 T00390028=
202112050009 SPECI KCLM 050009Z AUTO 28003KT 10SM BKN011 OVC026 04/03 A3020 RMK AO2 T00440028=
202112042353 METAR KCLM 042353Z AUTO 00000KT 10SM SCT013 OVC024 04/03 A3019 RMK AO2 SLP224 60001 T00440028 10044 20033 51024=
202112042351 SPECI KCLM 042351Z AUTO 25003KT 10SM SCT013 BKN019 OVC026 04/03 A3019 RMK AO2=
202112042325 SPECI KCLM 042325Z AUTO 25003KT 10SM BKN013 OVC019 04/03 A3017 RMK AO2 T00440028=
202112042253 METAR KCLM 042253Z AUTO 00000KT 10SM OVC023 04/03 A3015 RMK AO2 SLP212 T00440028=
202112042153 METAR KCLM 042153Z AUTO 11004KT 10SM BKN024 OVC042 04/02 A3012 RMK AO2 RAE2058 SLP200 P0000 T00440022=
202112042103 SPECI KCLM 042103Z AUTO 09004KT 10SM SCT009 BKN025 OVC040 04/02 A3011 RMK AO2 RAE2058 P0000 T00390017=
202112042053 METAR KCLM 042053Z AUTO 13003KT 8SM -RA FEW009 BKN039 OVC049 04/02 A3011 RMK AO2 SLP198 P0001 60001 T00440017 51007=
202112042041 SPECI KCLM 042041Z AUTO 12004KT 10SM -RA SCT009 BKN039 OVC049 04/02 A3011 RMK AO2 P0001 T00390017=
202112042032 SPECI KCLM 042032Z AUTO 13003KT 8SM -RA BKN008 BKN034 OVC045 04/02 A3011 RMK AO2 P0001 T00390017=
202112042021 SPECI KCLM 042021Z AUTO 00000KT 10SM -RA SCT008 OVC036 04/02 A3011 RMK AO2 P0001 T00390017=
202112041953 METAR KCLM 041953Z AUTO 00000KT 10SM -RA BKN043 OVC050 04/02 A3011 RMK AO2 SLP198 P0000 T00390017=
202112041853 METAR KCLM 041853Z AUTO 14003KT 10SM -RA SCT011 OVC042 04/02 A3010 RMK AO2 SLP193 P0000 T00390022=
202112041800 SPECI KCLM 041800Z AUTO 00000KT 10SM -RA OVC010 03/02 A3009 RMK AO2 P0000 T00330017=
202112041753 METAR KCLM 041753Z AUTO 17003KT 10SM -RA OVC009 03/02 A3009 RMK AO2 RAE22B53 CIG 009V013 SLP191 P0001 60016 T00330017 10044 20028 53013=
202112041736 SPECI KCLM 041736Z AUTO 15003KT 10SM OVC009 03/02 A3008 RMK AO2 RAE22 CIG 009V012 P0001 T00330017=
202112041724 SPECI KCLM 041724Z AUTO 00000KT 10SM OVC011 03/02 A3008 RMK AO2 RAE22 P0001 T00330017=
202112041707 SPECI KCLM 041707Z AUTO 00000KT 7SM -RA OVC009 03/02 A3008 RMK AO2 CIG 008V013 P0001 T00330017=
202112041653 METAR KCLM 041653Z AUTO 15004KT 9SM -RA OVC010 03/02 A3007 RMK AO2 SLP187 P0002 T00280017=
202112041613 SPECI KCLM 041613Z AUTO 15005KT 9SM -RA BKN010 OVC014 03/02 A3006 RMK AO2 P0001 T00280017=
202112041553 METAR KCLM 041553Z AUTO 14003KT 10SM -RA OVC009 03/02 A3006 RMK AO2 CIG 006V012 SLP182 P0001 T00330017=
202112041453 METAR KCLM 041453Z AUTO VRB04KT 5SM -RA BR OVC007 03/02 A3005 RMK AO2 SLP179 P0001 60012 T00330017 53002=
202112041353 METAR KCLM 041353Z AUTO 00000KT 8SM -RA OVC007 03/02 A3004 RMK AO2 CIG 005V011 SLP174 P0005 T00330017=
202112041253 METAR KCLM 041253Z AUTO 01005KT 5SM -RA BR OVC009 04/02 A3005 RMK AO2 CIG 006V011 SLP178 P0006 T00390022=
202112041240 SPECI KCLM 041240Z AUTO 00000KT 6SM -RA BR OVC009 04/02 A3005 RMK AO2 CIG 007V013 P0005 T00390022=
202112041220 SPECI KCLM 041220Z AUTO 00000KT 7SM -RA OVC013 04/02 A3005 RMK AO2 P0002 T00390017=
202112041153 METAR KCLM 041153Z AUTO 00000KT 10SM -RA BKN017 OVC026 04/02 A3004 RMK AO2 RAE00B32 SLP176 P0000 60000 T00440017 10044 20033 58002=
202112041137 SPECI KCLM 041137Z AUTO 00000KT 10SM -RA SCT019 BKN024 OVC050 04/01 A3004 RMK AO2 RAE00B32 P0000 T00440011=
202112041102 SPECI KCLM 041102Z AUTO 10003KT 10SM FEW017 SCT022 OVC070 03/01 A3005 RMK AO2 RAE00 P0000 T00330011=
202112041053 METAR KCLM 041053Z AUTO 11003KT 10SM -RA BKN017 BKN050 OVC070 03/01 A3006 RMK AO2 RAB49 SLP179 P0000 T00330011=
202112041050 SPECI KCLM 041050Z AUTO 11003KT 10SM -RA BKN017 BKN050 OVC070 03/01 A3006 RMK AO2 RAB49 P0000=
202112040953 METAR KCLM 040953Z AUTO 00000KT 10SM SCT019 OVC085 04/01 A3005 RMK AO2 SLP178 T00390006=
202112040927 SPECI KCLM 040927Z AUTO 15003KT 10SM BKN018 OVC070 04/01 A3006 RMK AO2 T00440006=
202112040853 METAR KCLM 040853Z AUTO 13003KT 10SM SCT019 BKN060 OVC075 04/01 A3007 RMK AO2 SLP185 T00440006 58021=
202112040753 METAR KCLM 040753Z AUTO 12004KT 10SM FEW019 BKN055 OVC070 04/01 A3011 RMK AO2 SLP199 T00390006 400561011=
202112040653 METAR KCLM 040653Z AUTO 13006KT 10SM BKN080 OVC100 04/01 A3011 RMK AO2 SLP199 T00390006=
202112040553 METAR KCLM 040553Z AUTO 11006KT 10SM OVC100 04/01 A3013 RMK AO2 SLP206 T00390006 10050 20033 58015=
202112040453 METAR KCLM 040453Z AUTO 12004KT 10SM FEW024 OVC100 03/01 A3018 RMK AO2 SLP222 T00330006=
202112040408 SPECI KCLM 040408Z AUTO 14003KT 10SM SCT026 OVC110 03/00 A3017 RMK AO2 T00330000=
202112040353 METAR KCLM 040353Z AUTO 12004KT 10SM BKN026 BKN120 04/00 A3018 RMK AO2 SLP222 T00390000=
202112040349 SPECI KCLM 040349Z AUTO 11003KT 10SM BKN026 BKN120 03/00 A3018 RMK AO2=
202112040342 SPECI KCLM 040342Z AUTO 11003KT 10SM SCT026 BKN120 04/00 A3018 RMK AO2 T00390000=
202112040308 SPECI KCLM 040308Z AUTO 15004KT 10SM OVC029 03/01 A3019 RMK AO2 T00330006=
202112040253 METAR KCLM 040253Z AUTO 12003KT 10SM BKN030 03/01 A3020 RMK AO2 SLP228 T00330006 58007=
202112040206 SPECI KCLM 040206Z AUTO 14004KT 10SM SCT027 04/00 A3021 RMK AO2 T00390000=
202112040153 METAR KCLM 040153Z AUTO 13004KT 10SM BKN027 04/01 A3021 RMK AO2 SLP231 T00390006=
202112040053 METAR KCLM 040053Z AUTO 11005KT 10SM BKN029 04/01 A3022 RMK AO2 SLP236 T00390006=
202112040049 SPECI KCLM 040049Z AUTO 11005KT 10SM BKN029 04/01 A3022 RMK AO2=
202112040006 SPECI KCLM 040006Z AUTO 11006KT 10SM FEW025 SCT030 05/00 A3024 RMK AO2 T00500000=
202112032353 METAR KCLM 032353Z AUTO 10005KT 10SM BKN025 OVC031 05/01 A3025 RMK AO2 SLP246 T00500006 10056 20044 56018=
202112032253 METAR KCLM 032253Z AUTO 10005KT 10SM OVC026 06/01 A3026 RMK AO2 SLP249 T00560011=
202112032153 METAR KCLM 032153Z AUTO 12006KT 10SM BKN022 OVC027 06/01 A3028 RMK AO2 SLP256 T00560011=
202112032053 METAR KCLM 032053Z AUTO 10003KT 10SM OVC022 05/01 A3030 RMK AO2 SLP265 T00500011 58020=
202112031953 METAR KCLM 031953Z AUTO 15003KT 10SM OVC016 04/02 A3032 RMK AO2 SLP272 T00440017=
202112031853 METAR KCLM 031853Z AUTO 13003KT 10SM OVC017 04/01 A3035 RMK AO2 SLP281 T00440011=
202112031753 METAR KCLM 031753Z AUTO 13003KT 10SM BKN018 OVC024 04/01 A3036 RMK AO2 SLP285 T00440006 10044 20000 55003=
202112031653 METAR KCLM 031653Z AUTO VRB03KT 10SM OVC026 02/01 A3036 RMK AO2 SLP284 T00220006=
202112031627 SPECI KCLM 031627Z AUTO 00000KT 10SM BKN024 02/M01 A3036 RMK AO2 T00221006=
202112031553 METAR KCLM 031553Z AUTO 16003KT 10SM FEW025 02/M01 A3037 RMK AO2 SLP288 T00171011=
202112031453 METAR KCLM 031453Z AUTO 13003KT 10SM CLR 01/M02 A3037 RMK AO2 SLP288 T00061017 58006=
202112031353 METAR KCLM 031353Z AUTO 10005KT 10SM SCT039 03/M02 A3038 RMK AO2 SLP290 T00331017=
202112031253 METAR KCLM 031253Z AUTO 10006KT 10SM CLR 03/M01 A3039 RMK AO2 SLP293 T00281011=
202112031153 METAR KCLM 031153Z AUTO 14006KT 10SM FEW036 01/M01 A3039 RMK AO2 SLP294 T00061011 10017 21011 50000=
202112031053 METAR KCLM 031053Z AUTO 13005KT 10SM BKN033 01/M02 A3039 RMK AO2 SLP294 T00061017=
202112030953 METAR KCLM 030953Z AUTO 17003KT 10SM CLR 00/M01 A3039 RMK AO2 SLP293 T00001011=
202112030853 METAR KCLM 030853Z AUTO 22004KT 10SM BKN049 01/M01 A3039 RMK AO2 SLP292 T00061011 50002=
202112030753 METAR KCLM 030753Z AUTO 22005KT 10SM CLR 01/M01 A3040 RMK AO2 SLP295 T00061011 401001006=
202112030653 METAR KCLM 030653Z AUTO 22005KT 10SM SCT050 01/M01 A3039 RMK AO2 SLP294 T00061011=
202112030553 METAR KCLM 030553Z AUTO 22003KT 10SM FEW050 01/M01 A3038 RMK AO2 SLP291 T00061006 10061 20000 50002=
202112030453 METAR KCLM 030453Z AUTO 22005KT 10SM CLR 00/M01 A3039 RMK AO2 SLP293 T00001011=
202112030353 METAR KCLM 030353Z AUTO VRB03KT 10SM CLR 00/M01 A3038 RMK AO2 SLP290 T00001011=
202112030253 METAR KCLM 030253Z AUTO 22006KT 10SM CLR 02/M01 A3038 RMK AO2 SLP288 T00171006 51010=
202112030153 METAR KCLM 030153Z AUTO 00000KT 10SM CLR 02/00 A3037 RMK AO2 SLP285 T00170000=
202112030053 METAR KCLM 030053Z AUTO 20003KT 10SM CLR 03/01 A3036 RMK AO2 SLP284 T00330006=
202112022353 METAR KCLM 022353Z AUTO 26003KT 10SM BKN055 06/M01 A3034 RMK AO2 SLP277 T00611006 10083 20061 53008=
202112022253 METAR KCLM 022253Z AUTO 30006KT 10SM FEW043 07/M01 A3033 RMK AO2 SLP272 T00721006=
202112022153 METAR KCLM 022153Z AUTO 29008KT 10SM FEW042 08/M01 A3033 RMK AO2 SLP272 T00781006=
202112022053 METAR KCLM 022053Z AUTO 30010G18KT 10SM CLR 08/00 A3032 RMK AO2 SLP269 T00830000 50009=
202112021953 METAR KCLM 021953Z AUTO 29013G23KT 10SM BKN043 08/M01 A3033 RMK AO2 SLP272 T00781006=
202112021853 METAR KCLM 021853Z AUTO 29014G23KT 10SM SCT046 08/02 A3032 RMK AO2 SLP268 T00780017=
202112021753 METAR KCLM 021753Z AUTO 28015G25KT 10SM CLR 08/02 A3030 RMK AO2 SLP260 T00780022 10083 20072 53018=
202112021653 METAR KCLM 021653Z AUTO 30016G22KT 10SM CLR 07/03 A3027 RMK AO2 SLP251 T00720028=
202112021553 METAR KCLM 021553Z AUTO 29015KT 10SM CLR 07/02 A3024 RMK AO2 SLP242 T00720022=
202112021453 METAR KCLM 021453Z AUTO 26006KT 10SM CLR 07/03 A3024 RMK AO2 SLP241 T00720028 53013=
202112021353 METAR KCLM 021353Z AUTO 26009KT 10SM BKN045 08/03 A3022 RMK AO2 SLP233 T00780033=
202112021253 METAR KCLM 021253Z AUTO 27007KT 10SM BKN043 08/04 A3022 RMK AO2 SLP233 T00830039=
202112021153 METAR KCLM 021153Z AUTO 28010G19KT 10SM CLR 08/04 A3020 RMK AO2 SLP228 T00830044 10100 20083 53016=
202112021053 METAR KCLM 021053Z AUTO 30013G20KT 10SM CLR 08/06 A3019 RMK AO2 PK WND 29028/1033 SLP223 T00830061=
202112021007 SPECI KCLM 021007Z AUTO 29011G24KT 10SM FEW009 SCT016 09/05 A3017 RMK AO2 T00890050=
202112020953 METAR KCLM 020953Z AUTO 30012G28KT 10SM SCT010 BKN016 09/06 A3017 RMK AO2 PK WND 30028/0947 SLP217 T00890056=
202112020942 SPECI KCLM 020942Z AUTO 29012G21KT 10SM BKN010 09/07 A3015 RMK AO2 CIG 008V012 T00890067=
202112020853 METAR KCLM 020853Z AUTO 28008KT 10SM CLR 09/06 A3016 RMK AO2 SLP212 T00940061 51004=
202112020753 METAR KCLM 020753Z AUTO 26009KT 10SM CLR 10/07 A3016 RMK AO2 SLP212 T01000072 401330094=
202112020653 METAR KCLM 020653Z AUTO 28007KT 10SM FEW014 SCT022 BKN120 10/08 A3015 RMK AO2 SLP209 T01000078=
202112020650 SPECI KCLM 020650Z AUTO 28008KT 10SM FEW014 SCT022 SCT120 10/08 A3014 RMK AO2=
202112020633 SPECI KCLM 020633Z AUTO 29007KT 10SM FEW009 BKN015 BKN020 10/08 A3014 RMK AO2 T01000083=
202112020553 METAR KCLM 020553Z AUTO 31005KT 10SM FEW007 BKN110 10/09 A3013 RMK AO2 SLP203 60000 T01000089 10122 20100 51013=
202112020527 SPECI KCLM 020527Z AUTO 33006KT 10SM FEW006 SCT010 OVC070 11/09 A3012 RMK AO2 T01060089=
202112020519 SPECI KCLM 020519Z AUTO 34004KT 10SM BKN011 OVC070 11/09 A3012 RMK AO2 T01060089=
202112020457 SPECI KCLM 020457Z AUTO 28005KT 10SM FEW008 BKN050 OVC065 11/09 A3012 RMK AO2 T01060094=
202112020453 METAR KCLM 020453Z AUTO 30006KT 10SM BKN010 BKN050 OVC060 11/09 A3012 RMK AO2 RAE04 SLP201 P0000 T01060094=
202112020446 SPECI KCLM 020446Z AUTO 33005KT 10SM SCT009 BKN050 OVC060 11/09 A3012 RMK AO2 RAE04 P0000 T01060094=
202112020413 SPECI KCLM 020413Z AUTO 28004KT 9SM OVC007 11/09 A3012 RMK AO2 RAE04 CIG 004V010 P0000 T01060094=
202112020353 METAR KCLM 020353Z AUTO 31006G17KT 9SM -RA OVC003 11/09 A3011 RMK AO2 RAB50 CIG 002V007 SLP196 P0000 T01060094=
202112020344 SPECI KCLM 020344Z AUTO 30010G17KT 5SM BR BKN003 OVC008 11/09 A3011 RMK AO2 CIG 002V005 T01060094=
202112020326 SPECI KCLM 020326Z AUTO 33004KT 8SM BKN009 OVC014 11/09 A3010 RMK AO2 CIG 005V011 T01110094=
202112020311 SPECI KCLM 020311Z AUTO 28008KT 8SM BKN010 BKN017 OVC024 11/09 A3008 RMK AO2 T01110094=
202112020253 METAR KCLM 020253Z AUTO 00000KT 10SM SCT022 BKN027 OVC044 11/09 A3009 RMK AO2 SLP190 T01060094 53008=
202112020210 SPECI KCLM 020210Z AUTO VRB05KT 10SM SCT019 BKN055 OVC070 12/09 A3008 RMK AO2 T01170094=
202112020153 METAR KCLM 020153Z AUTO VRB04KT 10SM BKN019 OVC060 11/09 A3008 RMK AO2 SLP187 T01110094=
202112020149 SPECI KCLM 020149Z AUTO VRB03KT 10SM BKN021 OVC060 11/09 A3007 RMK AO2=
202112020053 METAR KCLM 020053Z AUTO 00000KT 10SM SCT035 11/09 A3007 RMK AO2 SLP182 T01110089=
202112012353 METAR KCLM 012353Z AUTO 16005KT 10SM SCT031 12/09 A3005 RMK AO2 SLP178 T01170094 10122 20117 56007=
202112012253 METAR KCLM 012253Z AUTO 13009KT 10SM CLR 12/09 A3006 RMK AO2 SLP181 T01220094=
202112012153 METAR KCLM 012153Z AUTO 12008KT 10SM CLR 12/09 A3006 RMK AO2 SLP180 T01220094=
202112012053 METAR KCLM 012053Z AUTO 11010KT 10SM FEW012 12/09 A3007 RMK AO2 SLP184 T01220094 58007=
202112012043 SPECI KCLM 012043Z AUTO 14013KT 10SM SCT012 12/09 A3007 RMK AO2 PRESFR T01220094=
202112012001 SPECI KCLM 012001Z AUTO 12008KT 10SM BKN012 12/09 A3007 RMK AO2 T01220094=
202112011953 METAR KCLM 011953Z AUTO 12008KT 10SM SCT011 12/09 A3009 RMK AO2 SLP189 T01220094=
202112011853 METAR KCLM 011853Z AUTO 11007KT 10SM FEW008 12/09 A3010 RMK AO2 SLP194 T01170094=
202112011753 METAR KCLM 011753Z AUTO 00000KT 10SM CLR 12/09 A3009 RMK AO2 SLP191 T01170094 10133 20100 55012=
202112011653 METAR KCLM 011653Z AUTO 25006KT 10SM CLR 12/09 A3008 RMK AO2 SLP187 T01220089=
202112011553 METAR KCLM 011553Z AUTO 16006KT 10SM CLR 11/09 A3009 RMK AO2 SLP191 T01110089=
202112011453 METAR KCLM 011453Z AUTO 17007KT 10SM OVC110 11/09 A3013 RMK AO2 SLP203 T01110094 53001=
202112011353 METAR KCLM 011353Z AUTO 11009KT 10SM BKN100 BKN120 12/09 A3010 RMK AO2 SLP195 T01170094=
202112011316 SPECI KCLM 011316Z AUTO 12007KT 10SM FEW010 SCT030 OVC110 11/10 A3013 RMK AO2 T01110100=
202112011309 SPECI KCLM 011309Z AUTO 12007KT 10SM SCT010 BKN029 OVC110 11/10 A3013 RMK AO2 T01110100=
202112011253 METAR KCLM 011253Z AUTO 13006KT 10SM OVC009 11/10 A3012 RMK AO2 SLP202 T01110100=
202112011251 SPECI KCLM 011251Z AUTO 14005KT 10SM OVC009 11/10 A3012 RMK AO2=
202112011153 METAR KCLM 011153Z AUTO 09003KT 10SM OVC010 11/10 A3010 RMK AO2 SLP194 70073 T01060100 10111 20094 55001=
202112011102 SPECI KCLM 011102Z AUTO 08003KT 5SM BR BKN012 10/09 A3010 RMK AO2 T01000094=
202112011053 METAR KCLM 011053Z AUTO 08004KT 6SM BR SCT013 SCT100 10/09 A3009 RMK AO2 SLP190 T01000089=
202112011019 SPECI KCLM 011019Z AUTO 15005KT 10SM SCT007 OVC012 11/09 A3009 RMK AO2 T01060094=
202112010953 METAR KCLM 010953Z AUTO 09005KT 10SM OVC008 11/10 A3010 RMK AO2 SLP192 T01110100=
202112010910 SPECI KCLM 010910Z AUTO 10005KT 10SM OVC009 11/10 A3011 RMK AO2 T01110100=
202112010853 METAR KCLM 010853Z AUTO 10005KT 10SM BKN010 10/09 A3010 RMK AO2 CIG 008V013 SLP195 T01000089 57016=
202112010830 SPECI KCLM 010830Z AUTO 11006KT 10SM BKN010 11/09 A3011 RMK AO2 T01060094=
202112010820 SPECI KCLM 010820Z AUTO 10005KT 10SM BKN009 BKN034 11/09 A3011 RMK AO2 T01060094=
202112010753 METAR KCLM 010753Z AUTO 12007KT 10SM FEW009 BKN017 BKN036 10/09 A3011 RMK AO2 SLP195 T01000089 401110089=
202112010653 METAR KCLM 010653Z AUTO 00000KT 4SM BR FEW012 OVC020 10/09 A3015 RMK AO2 SLP211 T01000094=
202112010605 SPECI KCLM 010605Z AUTO 00000KT 3SM BR FEW001 OVC022 11/10 A3014 RMK AO2 T01060100=
202112010553 METAR KCLM 010553Z AUTO 22003KT 1 1/4SM BR SCT002 OVC022 10/10 A3015 RMK AO2 SLP211 60008 T01000100 10111 20100 55002=
202112010538 SPECI KCLM 010538Z AUTO 26003KT 1SM BR BKN002 BKN011 OVC050 10/09 A3015 RMK AO2 T01000094=
202112010528 SPECI KCLM 010528Z AUTO 00000KT 2 1/2SM BR BKN003 OVC050 11/09 A3015 RMK AO2 T01060094=
202112010516 SPECI KCLM 010516Z AUTO 30003KT 5SM BR SCT003 OVC050 11/09 A3014 RMK AO2 T01060094=
202112010453 METAR KCLM 010453Z AUTO 00000KT 7SM OVC050 11/10 A3013 RMK AO2 SLP203 T01060100=
202112010353 METAR KCLM 010353Z AUTO 00000KT 10SM OVC070 11/09 A3014 RMK AO2 RAE29 SLP207 P0002 T01060094=
202112010253 METAR KCLM 010253Z AUTO 23003KT 6SM -RA BR OVC044 11/09 A3016 RMK AO2 SLP214 P0001 60006 T01060094 53019=
202112010153 METAR KCLM 010153Z AUTO 00000KT 5SM -RA BR OVC044 10/09 A3013 RMK AO2 SLP205 P0002 T01000094=
202112010053 METAR KCLM 010053Z AUTO 00000KT 6SM -RA BR BKN049 OVC060 11/09 A3013 RMK AO2 RAB06 SLP202 P0003 T01060094=

# No short TAF reports from KCLM in databse.

###################################
#  large TAF from KCLM
###################################
202112312325 TAF KCLM 312325Z 0100/0124 09005KT P6SM BKN200 FM010300 VRB03KT
                       P6SM BKN200 FM011100 VRB04KT P6SM BKN100
                       OVC200 FM011700 VRB03KT P6SM BKN070 OVC100=
202112311737 TAF KCLM 311737Z 3118/0118 09007KT P6SM SCT040 BKN070 FM312100
                       09005KT P6SM SCT060 FM010300 VRB03KT P6SM
                       BKN200 FM011100 VRB04KT P6SM BKN100 OVC200
                       FM011700 VRB03KT P6SM BKN050 OVC090=
202112311136 TAF KCLM 311136Z 3112/0112 10004KT P6SM BKN025 FM311800 13007KT
                       P6SM SCT040 FM010300 VRB03KT P6SM BKN250=
202112310520 TAF KCLM 310520Z 3106/0106 23004KT P6SM SCT025 OVC035 FM311000
                       23007KT P6SM BKN040 FM311800 13007KT P6SM
                       SCT040=
202112302332 TAF KCLM 302332Z 3100/3124 23004KT P6SM BKN022 BKN035 FM311000
                       23004KT P6SM BKN040 FM311800 10007KT P6SM
                       SCT040=
202112301738 TAF KCLM 301738Z 3018/3118 VRB04KT P6SM BKN015 FM302100 09006KT
                       P6SM SCT020 BKN035 FM310300 23004KT P6SM
                       BKN040=
202112301448 KCLM 301448Z 3015/3112 29010G18KT 5SM -SN OVC007 FM301600 28010KT
                       P6SM OVC025 FM302100 VRB04KT P6SM OVC050=
202112301140 TAF KCLM 301140Z 3012/3112 00000KT 5SM -SN OVC025 FM301600 28010KT
                       P6SM OVC025 FM302100 VRB04KT P6SM OVC050=
202112300520 TAF KCLM 300520Z 3006/3106 VRB05KT P6SM OVC080 FM300800 23011KT
                       P6SM VCSH OVC035 FM301200 24012G18KT 5SM
                       -SN OVC025 FM301900 25005KT P6SM OVC050=
202112292333 TAF KCLM 292333Z 3000/3024 11006KT P6SM SKC FM300200 VRB05KT P6SM
                       OVC080 FM300800 23011KT P6SM VCSH OVC035
                       FM301200 24012G18KT 5SM -SN OVC025 FM301900
                       25005KT P6SM OVC050=
202112291731 TAF KCLM 291731Z 2918/3018 11006KT P6SM SKC FM292300 09005KT P6SM
                       SCT120 BKN200 FM300200 VRB05KT P6SM OVC080
                       FM300800 23011KT P6SM VCSH OVC035 FM301200
                       24012G18KT 5SM -SN OVC025=
202112291139 TAF KCLM 291139Z 2912/3012 13009KT P6SM SCT025 OVC030 FM291500
                       14010KT P6SM FEW030 FM300600 26002KT P6SM
                       OVC025 FM301000 23011KT P6SM -SN OVC025=
202112290520 TAF KCLM 290520Z 2906/3006 09006KT P6SM OVC020 FM290700 22007KT
                       P6SM -SN OVC018 FM291200 25008KT P6SM SCT008
                       OVC015=
202112282324 TAF KCLM 282324Z 2900/2924 09006KT P6SM OVC020 FM290100 22007KT
                       P6SM -SN OVC018 FM291200 25008KT P6SM SCT008
                       OVC015=
202112281729 TAF KCLM 281729Z 2818/2918 12006KT P6SM BKN015 FM282100 09006KT
                       P6SM BKN030 FM290100 22007KT P6SM -SN OVC020
                       FM291200 25008KT P6SM SCT008 OVC015=
202112281139 TAF KCLM 281139Z 2812/2912 12006KT P6SM OVC015 FM281300 17006KT
                       5SM BR OVC020 FM282100 08006KT P6SM OVC030
                       FM290100 14003KT P6SM OVC050 FM290800 13010KT
                       P6SM OVC050=
202112280908 KCLM 280908Z 2809/2906 23006KT 1 1/2SM -SN BKN019 OVC025 FM281300
                       24006KT 5SM BR OVC030 FM281700 VRB03KT P6SM
                       OVC050 FM290000 09004KT P6SM OVC050=
202112280520 TAF KCLM 280520Z 2806/2906 19004KT 2SM -SN OVC025 FM280700 23006KT
                       5SM -SN OVC030 FM281700 VRB03KT P6SM OVC050
                       FM290000 09004KT P6SM OVC050=
202112272336 TAF KCLM 272336Z 2800/2824 12007KT 2SM -SN OVC030 FM280700 23006KT
                       5SM -SN OVC030 FM281700 17003KT P6SM OVC050=
202112271731 TAF KCLM 271731Z 2718/2818 09005KT P6SM OVC025 FM272100 09005KT
                       P6SM OVC050 FM280000 VRB03KT P6SM OVC050
                       FM280900 23006KT P6SM OVC120=
202112271139 TAF KCLM 271139Z 2712/2812 09007KT P6SM OVC040 FM271500 24008KT
                       P6SM BKN050 FM280000 VRB03KT P6SM OVC050
                       FM280700 23006KT P6SM OVC050=
202112270520 TAF KCLM 270520Z 2706/2806 09015G20KT P6SM BKN030 BKN035 OVC060
                       TEMPO 2706/2709 6SM -SN FM270900 23010KT
                       P6SM OVC035 FM280000 VRB03KT P6SM OVC050=
202112262333 TAF KCLM 262333Z 2700/2724 07008G15KT P6SM -SHSN OVC030 FM270300
                       17007G15KT P6SM OVC035 FM270900 23010KT
                       P6SM OVC035=
202112261742 TAF KCLM 261742Z 2618/2718 09010KT 3/4SM -SN OVC007 FM262000 11008G18KT
                       1 1/2SM -SHSN BR OVC015 FM262300 11008G15KT
                       P6SM OVC030 FM270300 17012G20KT P6SM OVC035
                       FM270900 23010KT P6SM OVC035=
202112261458 KCLM 261458Z 2615/2712 08008G16KT 1/2SM SN OVC007 FM262000 11008G15KT
                       1 1/2SM -SHSN BR OVC015 FM262300 13005KT
                       P6SM OVC030 FM270300 23013G20KT P6SM OVC035=
202112261141 TAF KCLM 261141Z 2612/2712 08008KT 1SM -SN FEW004 BKN008 OVC015
                       FM261400 08008G16KT 2SM -SHSN BR OVC019
                       FM262300 13005KT P6SM OVC030=
202112260538 TAF KCLM 260538Z 2606/2706 07008KT 1/2SM SHSN OVC007
                      TEMPO 2608/2612 1 1/2SM -SN OVC010 FM261200
                       20008KT P6SM OVC020 FM262100 12008KT P6SM
                       OVC030=
202112252329 TAF KCLM 252329Z 2600/2624 24005KT 4SM -SN OVC020 FM260300 25007KT
                       5SM -SHSN OVC015
                      TEMPO 2608/2612 1 1/2SM -SN OVC010 FM261200
                       20010KT P6SM OVC020=
202112251722 TAF KCLM 251722Z 2518/2618 24005KT 4SM -SN OVC020 FM260000 27006KT
                       5SM -SHSN OVC015 FM260300 25010KT 5SM -SHSN
                       OVC015 FM261000 20010KT P6SM OVC020=
202112251138 TAF KCLM 251138Z 2512/2612 VRB05KT P6SM BKN025 FM251500 24005KT
                       4SM -SN OVC020 FM260000 09006KT 5SM -SHSN
                       OVC015 FM260300 25006KT 5SM -SHSN OVC015=
202112250520 TAF KCLM 250520Z 2506/2606 VRB05KT P6SM -RA OVC015 FM251500 04007KT
                       4SM -SN OVC015 FM251800 03010G20KT 3SM -SN
                       OVC010 FM260000 06010KT 5SM -SHSN OVC015=
202112242339 TAF KCLM 242339Z 2500/2524 00000KT P6SM VCSH OVC016 FM250300 VRB05KT
                       5SM -SHRASN OVC010 FM250900 04007KT 3SM
                       -SHSN OVC010 FM251800 35010KT 4SM -SN OVC015=
202112241911 KCLM 241911Z 2419/2518 00000KT P6SM VCSH BKN020 FM250300 04012G22KT
                       5SM -SHRASN OVC010 FM250900 04015G25KT 3SM
                       -SHSN OVC010=
202112241738 TAF KCLM 241738Z 2418/2518 16003KT P6SM VCSH SKC FM250300 04012G22KT
                       5SM -SHRASN OVC010 FM250900 04015G25KT 3SM
                       -SHSN OVC010=
202112241120 TAF KCLM 241120Z 2412/2512 VRB04KT P6SM -SHRA OVC040 FM241800 07010KT
                       P6SM VCSH BKN025 FM250300 04012G22KT 5SM
                       -SHRASN OVC010 FM250900 04015G25KT 3SM -SHSN
                       OVC010=
202112240520 TAF KCLM 240520Z 2406/2506 22004KT P6SM SCT050 SCT060 BKN120 FM240800
                       24004KT P6SM -RA OVC020 FM241500 24005KT
                       P6SM -RA OVC040 FM241800 VRB03KT P6SM -RA
                       OVC050 FM242100 08004KT P6SM -RA OVC030=
202112232322 TAF KCLM 232322Z 2400/2424 25004KT P6SM SCT050 SCT060 BKN120 FM240600
                       24004KT P6SM -RA OVC020 FM241500 24005KT
                       P6SM -RA OVC040 FM242000 VRB03KT P6SM -RA
                       OVC050=
202112231740 TAF KCLM 231740Z 2318/2418 25007KT P6SM BKN040 BKN045 OVC060 FM240000
                       27015G20KT P6SM SCT015 BKN050 FM240600 24004KT
                       P6SM -RA OVC020=
202112231120 TAF KCLM 231120Z 2312/2412 26010KT P6SM SCT015 BKN050 FM240900
                       VRB04KT P6SM -RA BKN015 OVC040=
202112230917 KCLM 230917Z 2309/2406 26010KT P6SM SCT022 OVC040
                      TEMPO 2309/2312 -SHRA BKN022 OVC040 FM232100
                       26006KT P6SM SCT025 BKN050=
202112230520 TAF KCLM 230520Z 2306/2406 28012G20KT P6SM -SHRA BKN007 OVC030
                       FM231100 26010KT P6SM VCSH BKN022 OVC040
                       FM232100 26006KT P6SM SCT025 BKN050=
202112222345 TAF KCLM 222345Z 2300/2324 26008KT P6SM SCT030 BKN050 FM231400
                       26008KT P6SM BKN022 OVC040 FM232100 26006KT
                       P6SM SCT025 BKN050=
202112222047 KCLM 222047Z 2221/2318 20004KT 4SM -RA BR BKN040 OVC045 FM231000
                       28008KT P6SM VCSH BKN015 FM231500 26005KT
                       P6SM SCT015 BKN050=
202112221720 TAF KCLM 221720Z 2218/2318 25003KT P6SM VCSH SCT040 BKN050 BKN080
                       FM222000 VRB04KT P6SM -SHRA BKN020 OVC040
                       FM231000 28008KT P6SM VCSH BKN015 FM231500
                       26005KT P6SM SCT015 BKN050=
202112221120 TAF KCLM 221120Z 2212/2312 15008KT P6SM -SHRA SCT025 OVC050 FM222000
                       VRB04KT P6SM -SHRA BKN020 OVC040 FM231000
                       28008KT P6SM VCSH BKN020 BKN040=
202112220520 TAF KCLM 220520Z 2206/2306 00000KT P6SM -SHRA OVC009 FM220800 27004KT
                       6SM -RA BR OVC015 FM221100 26006KT P6SM
                       -RA OVC050 FM221800 29006KT P6SM -SHRA OVC050
                       FM230000 VRB04KT P6SM -SHRA OVC040=
202112212331 TAF KCLM 212331Z 2200/2224 02005KT P6SM OVC060 FM220100 13002KT
                       P6SM BKN015 OVC050 FM220200 00000KT 5SM
                       -RA BR OVC025 FM220600 27004KT 6SM -RA BR
                       OVC015 FM221100 26006KT P6SM -RA OVC050
                       FM221800 29006KT P6SM -SHRA OVC050=
202112212125 KCLM 212125Z 2121/2218 11007KT P6SM OVC060 FM220100 13002KT P6SM
                       BKN015 OVC050 FM220200 00000KT 5SM -RA BR
                       OVC025 FM220600 27004KT 6SM -RA BR OVC015
                       FM221100 26006KT P6SM -RA OVC050=
202112211735 TAF KCLM 211735Z 2118/2218 00000KT P6SM FEW020 FM212100 VRB03KT
                       P6SM OVC050 FM220100 13002KT P6SM BKN015
                       OVC050 FM220200 00000KT 5SM -RA BR OVC025
                       FM220600 27004KT 6SM -RA BR OVC015 FM221100
                       26006KT P6SM -RA OVC050=
202112211120 TAF KCLM 211120Z 2112/2212 00000KT P6SM OVC070 FM212100 VRB03KT
                       P6SM OVC050 FM220100 13002KT P6SM BKN015
                       OVC050 FM220200 00000KT 5SM -RA BR OVC025
                       FM220600 24004KT 6SM -RA BR OVC015 FM221100
                       26006KT P6SM -RA OVC050=
202112210520 TAF KCLM 210520Z 2106/2206 15004KT P6SM OVC060 FM210800 06005KT
                       P6SM BKN050 FM212100 VRB03KT P6SM BKN015
                       OVC050 FM220200 VRB04KT 5SM -SHRA BR OVC025=
202112202320 TAF KCLM 202320Z 2100/2124 09005KT P6SM FEW035 BKN250 FM210600
                       VRB03KT P6SM BKN050 FM212100 VRB03KT P6SM
                       BKN015 OVC050=
202112201726 TAF KCLM 201726Z 2018/2118 11005KT P6SM OVC120 FM210500 12003KT
                       P6SM OVC030 FM210600 VRB03KT P6SM OVC025=
202112201120 TAF KCLM 201120Z 2012/2112 26004KT P6SM BKN027 FM201900 11005KT
                       P6SM OVC120 FM210500 12003KT P6SM OVC030
                       FM210600 VRB03KT P6SM OVC025=
202112200520 TAF KCLM 200520Z 2006/2106 08009KT P6SM SCT030 FM201900 07008KT
                       P6SM BKN100 OVC200=
202112192321 TAF KCLM 192321Z 2000/2024 07007KT P6SM OVC025 FM200500 21004KT
                       P6SM SCT030 BKN250 FM201900 07008KT P6SM
                       BKN100 OVC200=
202112191720 TAF KCLM 191720Z 1918/2018 VRB04KT 3SM -RA BR BKN010 OVC020 FM192200
                       06008KT P6SM BKN025 FM200400 22004KT P6SM
                       SCT030 BKN250=
202112191628 KCLM 191628Z 1916/2012 20004KT P6SM SCT009 OVC030
                      TEMPO 1916/1920 2SM -RA BR BKN009 OVC014
                       FM192000 06008KT P6SM BKN030 FM192300 04007KT
                       P6SM SCT050=
202112191417 KCLM 191417Z 1914/2012 VRB04KT P6SM BKN030
                      TEMPO 1914/1918 -SHRA FM191800 06008KT P6SM
                       BKN025 FM192300 04007KT P6SM SCT050=
202112191123 TAF KCLM 191123Z 1912/2012 24004KT P6SM OVC080 FM191800 06008KT
                       P6SM BKN025 FM192300 04007KT P6SM SCT050=
202112190520 TAF KCLM 190520Z 1906/2006 27010KT P6SM FEW035 BKN060 FM190800
                       22004KT P6SM BKN050 FM191900 06008KT P6SM
                       SCT050=
202112182320 TAF KCLM 182320Z 1900/1924 27010KT P6SM FEW035 BKN060 FM190800
                       22004KT P6SM BKN050 FM191900 06008KT P6SM
                       SCT050=
202112181721 TAF KCLM 181721Z 1818/1918 VRB03KT 4SM -RA BR OVC050 FM182200 29012G18KT
                       5SM -SHRA BKN020 OVC040 FM190400 27008KT
                       P6SM VCSH BKN050=
202112181138 TAF KCLM 181138Z 1812/1912 VRB03KT 4SM -RA BR SCT005 OVC070 FM181400
                       27004KT 4SM -RA OVC012 WS020/20040KT FM181800
                       29012G20KT 5SM -RA BR BKN050 FM190400 27012KT
                       P6SM VCSH BKN040 OVC050=
202112180520 TAF KCLM 180520Z 1806/1906 12005KT P6SM OVC050 FM180800 12003KT
                       P6SM -RA OVC025 FM181500 27004KT 4SM -RA
                       OVC015 FM182000 29012G20KT 5SM -RA BR OVC015=
202112172320 TAF KCLM 172320Z 1800/1824 VRB03KT P6SM BKN040 OVC100 FM180200
                       VRB03KT P6SM -RA OVC035 FM180400 22005KT
                       6SM -RA BR OVC018 FM182000 29012G20KT 5SM
                       -SHRA BR OVC015=
202112171721 TAF KCLM 171721Z 1718/1818 23005KT P6SM BKN025 OVC040 FM172100
                       08005KT P6SM BKN040 OVC080 FM180400 VRB03KT
                       P6SM -RA OVC035 FM181000 22005KT 6SM -RA
                       BR OVC018=
202112171125 TAF KCLM 171125Z 1712/1812 23005KT P6SM BKN015 BKN040 FM172100
                       08005KT P6SM BKN040 OVC080 FM180400 VRB03KT
                       P6SM -RA OVC035 FM181000 22005KT 6SM -RA
                       BR OVC018=
202112170520 TAF KCLM 170520Z 1706/1806 23006KT P6SM -RA SCT030 OVC040 FM170900
                       23005KT P6SM BKN030 FM172100 08005KT P6SM
                       BKN040 OVC080 FM180200 VRB03KT P6SM OVC050=
202112162325 TAF KCLM 162325Z 1700/1724 29010KT P6SM BKN050 FM170300 26005KT
                       P6SM SCT040 BKN060 FM170900 23005KT P6SM
                       BKN030 FM172100 08005KT P6SM BKN040 OVC080=
202112161734 TAF KCLM 161734Z 1618/1718 27006KT P6SM VCSH SCT030 BKN050 FM162000
                       VRB04KT P6SM BKN040 FM170300 26005KT P6SM
                       SCT040 BKN060 FM170900 23005KT P6SM BKN030=
202112161128 TAF KCLM 161128Z 1612/1712 27006KT P6SM VCSH OVC015 FM162000 VRB04KT
                       P6SM OVC025 FM170300 24003KT P6SM BKN030=
202112160520 TAF KCLM 160520Z 1606/1706 25005KT P6SM OVC060 FM161000 22004KT
                       P6SM OVC030 FM161800 VRB04KT P6SM OVC025
                       FM170300 24003KT P6SM OVC020=
202112152320 TAF KCLM 152320Z 1600/1624 32003KT P6SM FEW070 BKN120 FM160300
                       21005KT P6SM OVC050 FM161000 22004KT P6SM
                       OVC030 FM161800 VRB04KT P6SM OVC015=
202112151720 TAF KCLM 151720Z 1518/1618 VRB03KT P6SM -RA BKN070 FM152200 10003KT
                       P6SM -RA OVC050 FM160300 21005KT P6SM OVC050
                       FM161000 22004KT P6SM OVC030=
202112151129 TAF KCLM 151129Z 1512/1612 23003KT P6SM VCSH BKN050 FM151600 VRB03KT
                       P6SM -RA OVC050 FM160300 21005KT P6SM OVC050=
202112150520 TAF KCLM 150520Z 1506/1606 00000KT P6SM OVC050 FM151200 12006KT
                       P6SM VCSH OVC050 FM151800 VRB03KT P6SM -RA
                       OVC050 FM160300 21005KT P6SM OVC050=
202112142320 TAF KCLM 142320Z 1500/1524 05003KT P6SM BKN070 FM150400 22003KT
                       P6SM OVC050 FM151000 23006KT P6SM VCSH OVC050
                       FM151800 12003KT P6SM -RA OVC050=
202112141720 TAF KCLM 141720Z 1418/1518 22004KT P6SM BKN015 FM142000 07003KT
                       P6SM BKN050 FM150400 22003KT P6SM OVC050
                       FM151000 23006KT P6SM VCSH OVC050=
202112141134 TAF KCLM 141134Z 1412/1512 VRB03KT P6SM SCT025 BKN035 FM142000
                       07003KT P6SM BKN050 FM150400 22003KT P6SM
                       OVC050 FM151000 23006KT P6SM VCSH OVC050=
202112140520 TAF KCLM 140520Z 1406/1506 27006KT 6SM -SHRA BR OVC025 FM141000
                       26008KT P6SM BKN030 FM141900 VRB03KT P6SM
                       BKN030=
202112132322 TAF KCLM 132322Z 1400/1424 10003KT P6SM -RA BKN015 BKN024 OVC040
                       FM140300 27006KT 6SM -SHRA BR OVC025 FM141000
                       26008KT P6SM BKN030 FM141900 VRB03KT P6SM
                       BKN030=
202112131721 TAF KCLM 131721Z 1318/1418 VRB04KT P6SM FEW015 BKN030 FM132000
                       VRB04KT P6SM BKN050 FM140300 27006KT 6SM
                       -SHRA BR OVC025 FM141000 26008KT P6SM VCSH
                       BKN030=
202112131133 TAF KCLM 131133Z 1312/1412 VRB03KT P6SM -SHRA BKN035 OVC060 FM131800
                       VRB04KT P6SM VCSH BKN040 FM140300 27006KT
                       6SM -SHRA BR OVC025 FM141000 26008KT P6SM
                       VCSH BKN030=
202112130520 TAF KCLM 130520Z 1306/1406 00000KT P6SM SCT025 BKN100 FM131200
                       22003KT P6SM -SHRA BKN030 OVC060 FM131700
                       34004KT P6SM VCSH BKN040 FM140100 27004KT
                       6SM -SHRA BR OVC025=
202112122334 TAF KCLM 122334Z 1300/1324 VRB04KT 4SM -RA BKN018 BKN060 FM130200
                       VRB03KT P6SM VCSH BKN020 BKN060 FM131200
                       22003KT P6SM -RA OVC030 FM131700 24004KT
                       P6SM VCSH BKN040 FM132200 05003KT 6SM -RA
                       OVC025=
202112121730 TAF KCLM 121730Z 1218/1318 26004KT P6SM VCSH SCT020 BKN050
                      TEMPO 1218/1222 4SM -SHRA BKN015 FM130000
                       29005KT 6SM BR VCSH BKN020 BKN040 FM130600
                       VRB03KT P6SM VCSH SCT030 BKN050 FM131200
                       VRB04KT P6SM -RA OVC030=
202112121135 TAF KCLM 121135Z 1212/1312 25005KT P6SM VCSH SCT020 BKN040
                      TEMPO 1212/1216 -SHRA BKN020 FM121600 25008KT
                       P6SM VCSH BKN035 FM121900 VRB05KT 5SM -SHRA
                       OVC025 FM130300 VRB03KT P6SM VCSH SCT030
                       BKN050=
202112120520 TAF KCLM 120520Z 1206/1306 25005KT P6SM SCT025 BKN090 BKN250
                      TEMPO 1206/1209 -SHRA BKN025 OVC060 FM120900
                       26008KT 6SM -SHRA BR OVC020 FM121400 25008KT
                       P6SM VCSH BKN040 FM121900 VRB05KT 4SM -SHRA
                       OVC025 FM130300 VRB03KT P6SM SCT030 BKN050=
202112112334 TAF KCLM 112334Z 1200/1224 26005KT 6SM -SHRA SCT030 BKN045 FM120300
                       27011KT P6SM VCSH BKN050 FM120900 26008KT
                       6SM -SHRA BR OVC020 FM121400 25008KT P6SM
                       VCSH BKN040 FM121900 VRB05KT 4SM -SHRA OVC025=
202112111725 TAF KCLM 111725Z 1118/1218 30008KT 6SM -SHRA SCT030 BKN045 FM120300
                       27011KT P6SM VCSH BKN050 FM120900 27010G18KT
                       6SM -SHRA BR BKN025 FM121700 28008KT P6SM
                       -SHRA BKN040=
202112111137 TAF KCLM 111137Z 1112/1212 27012G22KT P6SM -SHRA BKN035 OVC050
                       FM112000 27012G22KT P6SM VCSH BKN025 BKN050
                       FM120300 27011KT P6SM VCSH BKN050 FM120900
                       27010G18KT 6SM -SHRA BR BKN025=
202112110520 TAF KCLM 110520Z 1106/1206 VRB04KT 5SM -RA BR OVC040 FM111200 27012G22KT
                       P6SM -SHRA BKN015 OVC030 FM112000 27012G22KT
                       P6SM VCSH BKN025 BKN050=
202112102320 TAF KCLM 102320Z 1100/1124 VRB04KT P6SM -RA SCT025 OVC050
                      TEMPO 1100/1104 5SM -RA BR BKN020 OVC040
                       FM110400 VRB04KT 5SM -RA BR OVC015 FM111200
                       27012G22KT P6SM -SHRA BKN015 OVC030 FM112000
                       27012G22KT P6SM VCSH BKN025 BKN050=
202112101721 TAF KCLM 101721Z 1018/1118 VRB04KT P6SM SCT030 OVC050
                      TEMPO 1018/1022 BKN030 OVC050 FM102200 VRB04KT
                       P6SM -RA OVC025 FM110600 20012KT 6SM -RA
                       BR OVC015 FM111200 27012G22KT P6SM -SHRA
                       BKN015 OVC030=
202112101127 TAF KCLM 101127Z 1012/1112 25007KT P6SM BKN035 OVC060 FM101800
                       30004KT P6SM -RA OVC025 FM110000 27005KT
                       6SM -RA BR OVC017 FM110900 27012G20KT 5SM
                       -RA BR OVC015=
202112100520 TAF KCLM 100520Z 1006/1106 24009KT P6SM VCSH SCT040 BKN050
                      TEMPO 1006/1009 -SHRA BKN035 FM100900 25006KT
                       P6SM BKN025 OVC060 FM101800 30004KT P6SM
                       -RA OVC025=
202112092320 TAF KCLM 092320Z 1000/1024 27012G18KT P6SM FEW025 SCT080 FM100400
                       26007KT P6SM SCT025 BKN080 FM100800 25006KT
                       P6SM BKN025 OVC060 FM101800 30004KT P6SM
                       -RA OVC025=
202112092201 KCLM 092201Z 0922/1018 26012G20KT P6SM SCT045 BKN100 FM100400 26007KT
                       P6SM BKN035 FM100900 25006KT P6SM OVC025=
202112091723 TAF KCLM 091723Z 0918/1018 23006KT P6SM SCT030 OVC050
                      TEMPO 0918/0922 -SHRA OVC030 FM092200 29010KT
                       P6SM VCSH BKN030 FM100400 26007KT P6SM BKN035
                       FM100900 25006KT P6SM OVC025=
202112091132 TAF KCLM 091132Z 0912/1012 26010KT P6SM VCSH SCT012 OVC035 FM091800
                       29008KT P6SM -SHRA OVC025 FM092200 29010KT
                       P6SM VCSH BKN030 FM100400 26007KT P6SM BKN035
                       FM100900 25006KT P6SM OVC030=
202112090520 TAF KCLM 090520Z 0906/1006 27006KT P6SM VCSH SCT045 BKN060 FM091000
                       26010KT P6SM VCSH SCT012 OVC035 FM091400
                       25010KT P6SM VCSH BKN012 FM091800 29008KT
                       P6SM OVC025=
202112082334 TAF KCLM 082334Z 0900/0924 26008KT P6SM VCSH SCT035 BKN060 OVC100
                       FM090600 26010KT P6SM VCSH SCT012 OVC020
                       FM091800 29009KT P6SM OVC025=
202112081827 KCLM 081827Z 0818/0918 26015G25KT P6SM FEW040 FM082200 28015G25KT
                       P6SM SCT050 FM090300 27012KT P6SM BKN050
                       FM090700 26010KT P6SM VCSH SCT012 OVC020=
202112081800 TAF KCLM 081800Z 0818/0918 28014G20KT P6SM BKN040 FM082200 28010KT
                       P6SM BKN050 FM090700 28010KT P6SM VCSH SCT012
                       OVC020=
202112081139 TAF KCLM 081139Z 0812/0912 28014G20KT P6SM BKN040 FM082200 28010KT
                       P6SM BKN050 FM090700 28010KT P6SM VCSH SCT012
                       OVC020=
202112080520 TAF KCLM 080520Z 0806/0906 24004KT P6SM FEW060 SCT080 OVC090 FM080800
                       26018G25KT 6SM -RA OVC025 FM081500 27015G25KT
                       P6SM VCSH OVC030 FM081800 27024G31KT P6SM
                       VCSH OVC050=
202112072320 TAF KCLM 072320Z 0800/0824 31002KT P6SM OVC012 FM080300 26003KT
                       P6SM OVC012 FM080800 26018G25KT 6SM -RA
                       OVC025=
202112071720 TAF KCLM 071720Z 0718/0818 15003KT P6SM OVC007 FM072000 31002KT
                       P6SM OVC012 FM080300 26003KT P6SM OVC020
                       FM080800 26018G25KT P6SM OVC025=
202112071140 TAF KCLM 071140Z 0712/0812 00000KT 6SM BR OVC010 FM071400 15003KT
                       P6SM OVC007 FM072000 31002KT P6SM OVC015
                       FM080300 26003KT P6SM OVC020 FM080800 26018G25KT
                       P6SM OVC025=
202112070520 TAF KCLM 070520Z 0706/0806 00000KT P6SM OVC015
                      TEMPO 0712/0716 3SM BR OVC007 FM071800 21005KT
                       P6SM BKN015=
202112062320 TAF KCLM 062320Z 0700/0724 00000KT P6SM OVC015
                      TEMPO 0700/0704 5SM BR OVC010 FM070400 VRB04KT
                       4SM BR OVC010 FM071800 21005KT P6SM BKN015=
202112062219 KCLM 062219Z 0622/0718 13005KT P6SM BKN015 OVC030 FM070600 VRB04KT
                       4SM BR OVC010=
202112061720 TAF KCLM 061720Z 0618/0718 VRB04KT P6SM BKN007 OVC015
                      TEMPO 0618/0621 SCT007 OVC020 FM070300 VRB04KT
                       4SM BR VCSH OVC010=
202112061635 KCLM 061635Z 0617/0712 VRB04KT P6SM BKN005 OVC015
                      TEMPO 0617/0621 SCT005 OVC020 FM062100 VRB04KT
                       4SM BR VCSH OVC010=
202112061134 TAF KCLM 061134Z 0612/0712 VRB03KT P6SM -RA BKN035 OVC090 FM061300
                       00000KT 5SM -RASN BR OVC010 FM061900 17003KT
                       4SM BR VCSH OVC007 FM062200 12004KT 4SM
                       BR VCSH OVC010=
202112060520 TAF KCLM 060520Z 0606/0706 VRB03KT P6SM -RA BKN030 OVC090 FM061100
                       16003KT 5SM -RASN BR OVC010 FM061900 17003KT
                       4SM BR VCSH OVC007 FM062200 12004KT 4SM
                       BR VCSH OVC010=
202112052320 TAF KCLM 052320Z 0600/0624 VRB04KT P6SM BKN150 FM060600 20003KT
                       P6SM -RA OVC020 FM061600 16003KT 5SM -RA
                       BR OVC010 FM061800 13003KT 4SM BR VCSH OVC015=
202112051720 TAF KCLM 051720Z 0518/0618 VRB04KT P6SM SCT030 FM052200 07004KT
                       P6SM BKN150 FM060600 19003KT P6SM -RA OVC025
                       FM061600 16003KT 5SM -RA BR OVC010=
202112051136 TAF KCLM 051136Z 0512/0612 25008KT P6SM SCT025 FM051700 VRB04KT
                       P6SM SCT030 FM052200 07004KT P6SM BKN150
                       FM060600 19003KT P6SM -RA OVC025=
202112050520 TAF KCLM 050520Z 0506/0606 25008KT P6SM SCT025 FM051000 VRB03KT
                       P6SM SCT005 SCT030
                      TEMPO 0512/0516 3SM BR BKN005 BKN030 FM051700
                       VRB04KT P6SM SCT030 FM052200 07004KT P6SM
                       BKN150=
202112042320 TAF KCLM 042320Z 0500/0524 VRB04KT P6SM BKN022 FM050400 29010KT
                       P6SM BKN030 FM051000 VRB03KT P6SM SCT005
                       SCT030
                      TEMPO 0512/0516 3SM BR BKN005 BKN030=
202112041720 TAF KCLM 041720Z 0418/0518 VRB03KT 5SM -RA BR OVC010 FM042100 29008KT
                       P6SM SCT006 OVC012 FM050100 29008KT P6SM
                       SCT015 BKN030 FM051000 VRB03KT P6SM SCT005
                       SCT030
                      TEMPO 0512/0516 3SM BR BKN005 BKN030=
202112041409 KCLM 041409Z 0414/0512 VRB03KT 5SM -RA OVC006 FM041800 VRB03KT
                       P6SM -RA SCT006 OVC012 FM042100 29008KT
                       P6SM SCT006 OVC012 FM050100 29008KT P6SM
                       SCT040=
202112041138 TAF KCLM 041138Z 0412/0512 VRB03KT P6SM SCT025 OVC050
                      TEMPO 0412/0416 -RA BKN025 OVC050 FM041600
                       VRB03KT P6SM -RA SCT006 OVC012 FM042100
                       29008KT P6SM SCT006 OVC012 FM050100 29008KT
                       P6SM SCT040=
202112040520 TAF KCLM 040520Z 0406/0506 14003KT P6SM SCT025 OVC100 FM040900
                       VRB03KT P6SM -RA OVC040 FM041300 10005KT
                       4SM -RA BR BKN007 OVC012 FM042100 33010KT
                       P6SM -SHRA OVC007 FM042300 29013KT P6SM
                       SCT015=
202112032320 TAF KCLM 032320Z 0400/0424 10005KT P6SM BKN025 BKN150
                      TEMPO 0400/0404 SCT025 BKN150 FM040400 10005KT
                       P6SM SCT025 OVC080 FM041000 10005KT P6SM
                       -RA OVC040 FM041300 10005KT 4SM -RA BR OVC015
                       FM042000 33010KT P6SM -SHRA BKN020 BKN040=
202112032205 KCLM 032205Z 0322/0418 VRB03KT P6SM BKN022
                      TEMPO 0323/0402 SCT025 OVC150 FM040200 VRB03KT
                       P6SM SCT025 SCT120 FM040400 00000KT P6SM
                       BKN100 FM041000 09005KT P6SM OVC040 FM041100
                       VRB04KT P6SM -RA OVC020=
202112031720 TAF KCLM 031720Z 0318/0418 VRB03KT P6SM BKN025 OVC150
                      TEMPO 0320/0322 SCT025 OVC150 FM032200 VRB03KT
                       P6SM OVC100 FM040400 25005KT P6SM OVC070
                       FM041100 VRB04KT P6SM -RA OVC020=
202112031632 KCLM 031632Z 0317/0412 00000KT P6SM BKN025 OVC150 FM031800 VRB03KT
                       P6SM SCT030 OVC150 FM040400 25005KT P6SM
                       OVC070 FM041100 VRB04KT P6SM -RA OVC030=
202112031120 TAF KCLM 031120Z 0312/0412 12005KT P6SM BKN045 BKN200 FM031700
                       09007KT P6SM BKN100 OVC180 FM040400 25005KT
                       P6SM OVC070 FM041100 VRB04KT P6SM -RA OVC030=
202112031004 KCLM 031004Z 0310/0406 VRB04KT P6SM SCT002 BKN200
                      TEMPO 0311/0315 1SM BR BKN002 FM031700 06008KT
                       P6SM BKN100 OVC180 FM040300 22005KT P6SM
                       OVC070=
202112030520 TAF KCLM 030520Z 0306/0406 VRB04KT P6SM SCT050 FM030900 VRB03KT
                       3SM BR SCT002 BKN200
                      TEMPO 0311/0315 1SM BR BKN002 FM031700 06008KT
                       P6SM BKN100 OVC180 FM040300 22005KT P6SM
                       OVC070=
202112022320 TAF KCLM 022320Z 0300/0324 30008KT P6SM SCT040 BKN200 FM030600
                       21004KT P6SM BKN200 FM031000 00000KT 3SM
                       BR SCT002
                      TEMPO 0312/0316 1SM BR BKN002 FM031700 VRB03KT
                       P6SM OVC200=
202112021720 TAF KCLM 021720Z 0218/0318 30014KT P6SM SCT040 BKN200 FM030600
                       21004KT P6SM BKN200 FM031000 00000KT 3SM
                       BR SCT002
                      TEMPO 0312/0316 1SM BR BKN002 FM031700 VRB03KT
                       P6SM SCT200=
202112021448 KCLM 021448Z 0215/0312 28011KT P6SM BKN050 FM030100 29008KT P6SM
                       SCT200 FM030600 25005KT P6SM SCT200=
202112021130 TAF KCLM 021130Z 0212/0312 20012G20KT P6SM SCT020 BKN060 FM021500
                       28014G22KT P6SM BKN050 FM030100 29008KT
                       P6SM SCT200 FM030600 25005KT P6SM SCT200=
202112020520 TAF KCLM 020520Z 0206/0306 28010G15KT P6SM VCSH SCT007 OVC015 FM020900
                       26012KT P6SM SCT030 OVC050 FM021500 28015G22KT
                       P6SM BKN050 FM030100 30008KT P6SM SCT250=
202112012329 TAF KCLM 012329Z 0200/0224 13009KT P6SM VCSH FEW015 SCT050 OVC110
                       TEMPO 0200/0202 BKN015 FM020200 28012KT
                       P6SM -SHRA OVC015 FM020600 28012G20KT P6SM
                       VCSH BKN025 BKN040 FM021200 28012G20KT P6SM
                       SCT030 OVC050=
202112011734 TAF KCLM 011734Z 0118/0218 25006KT P6SM BKN100 FM012100 28008KT
                       P6SM VCSH BKN020 OVC050 FM020300 28012KT
                       6SM -SHRA BR OVC015 FM020600 28012G20KT
                       P6SM VCSH BKN025 BKN040 FM021200 28012G20KT
                       P6SM SCT030 OVC050=
202112011126 TAF KCLM 011126Z 0112/0212 VRB04KT 6SM BR VCSH OVC015 FM011400
                       26005KT P6SM VCSH BKN020 FM012100 28008KT
                       P6SM VCSH BKN020 OVC050 FM020600 28012KT
                       6SM -SHRA BR OVC015 FM021000 28012G20KT
                       P6SM VCSH BKN025 BKN040=
202112010520 TAF KCLM 010520Z 0106/0206 VRB04KT P6SM OVC070 FM010900 25004KT
                       6SM BR VCSH OVC015 FM011400 29006KT P6SM
                       VCSH BKN020 FM012100 28008KT P6SM VCSH BKN020
                       OVC050=