##########################################################
# Query made at 02/16/2025 04:53:13 UTC
# Time interval: from 07/01/2021 00:00  to 07/31/2021 23:59  UTC
##########################################################

##########################################################
# KCLM, Port Angeles, William R. Fairchild International Airport (United States)
# WMO index: -----. WIGOS ID: Unknown
# Latitude 48-07-20N. Longitude 123-30-19W. Altitude 87 m.
##########################################################

###################################
#  METAR/SPECI from KCLM
###################################
202107312353 METAR KCLM 312353Z AUTO 30007KT 10SM CLR 17/12 A3006 RMK AO2 SLP177 T01720122 10200 20144 56012=
202107312253 METAR KCLM 312253Z AUTO 30006KT 10SM FEW100 17/12 A3007 RMK AO2 SLP181 T01670117=
202107312153 METAR KCLM 312153Z AUTO 29005KT 10SM CLR 19/13 A3007 RMK AO2 SLP183 T01890128=
202107312053 METAR KCLM 312053Z AUTO 23005KT 10SM CLR 17/12 A3009 RMK AO2 SLP189 T01670122 50008=
202107311953 METAR KCLM 311953Z AUTO 33004KT 10SM CLR 15/12 A3010 RMK AO2 SLP193 T01500117=
202107311853 METAR KCLM 311853Z AUTO 02005KT 10SM CLR 16/12 A3008 RMK AO2 SLP184 T01610117=
202107311753 METAR KCLM 311753Z AUTO 00000KT 10SM CLR 16/12 A3007 RMK AO2 SLP181 60000 T01560117 10156 20128 50004=
202107311653 METAR KCLM 311653Z AUTO 30007KT 10SM CLR 14/12 A3009 RMK AO2 SLP189 T01390117=
202107311644 SPECI KCLM 311644Z AUTO 29004KT 10SM FEW005 FEW060 FEW110 14/12 A3009 RMK AO2 T01390117=
202107311553 METAR KCLM 311553Z AUTO 32003KT 10SM FEW070 BKN100 14/12 A3007 RMK AO2 RAB14E45 SLP183 P0000 T01440117=
202107311453 METAR KCLM 311453Z AUTO 29005KT 10SM BKN110 14/11 A3005 RMK AO2 SLP175 T01390111 53015=
202107311353 METAR KCLM 311353Z AUTO 29005KT 10SM CLR 14/11 A3003 RMK AO2 SLP168 T01390111=
202107311253 METAR KCLM 311253Z AUTO VRB06KT 10SM CLR 13/11 A3002 RMK AO2 SLP165 T01330111=
202107311153 METAR KCLM 311153Z AUTO 29006KT 10SM CLR 13/11 A3001 RMK AO2 SLP161 7//// T01280106 10156 20122 53008=
202107311053 METAR KCLM 311053Z AUTO 29006KT 10SM CLR 13/11 A2999 RMK AO2 SLP155 T01330106=
202107310953 METAR KCLM 310953Z AUTO 28004KT 10SM CLR 13/11 A2999 RMK AO2 SLP153 T01280106=
202107310853 METAR KCLM 310853Z AUTO 29003KT 10SM CLR 12/11 A2998 RMK AO2 SLP152 T01220106 55001=
202107310753 METAR KCLM 310753Z AUTO 30006KT 10SM CLR 13/11 A2998 RMK AO2 SLP152 T01330106 402500100=
202107310653 METAR KCLM 310653Z AUTO 29006KT 10SM CLR 15/11 A2998 RMK AO2 SLP151 T01500111=
202107310553 METAR KCLM 310553Z AUTO 29005KT 10SM CLR 15/11 A2999 RMK AO2 SLP154 T01500111 10250 20150 50003=
202107310453 METAR KCLM 310453Z AUTO 30004KT 10SM CLR 16/11 A2999 RMK AO2 SLP153 T01610111=
202107310353 METAR KCLM 310353Z AUTO 29006KT 10SM CLR 20/12 A2998 RMK AO2 SLP152 T02000122=
202107310253 METAR KCLM 310253Z AUTO 29007KT 10SM CLR 23/13 A2998 RMK AO2 SLP150 T02330128 56006=
202107310153 METAR KCLM 310153Z AUTO 31007KT 10SM CLR 23/13 A2998 RMK AO2 SLP151 T02330128=
202107310053 METAR KCLM 310053Z AUTO 30008KT 10SM CLR 24/13 A2999 RMK AO2 SLP154 T02390128=
202107302353 METAR KCLM 302353Z AUTO 29006KT 10SM CLR 23/13 A3000 RMK AO2 SLP157 6//// T02330133 10250 20194 57008=
202107302253 METAR KCLM 302253Z AUTO 29009KT 10SM CLR 22/13 A3000 RMK AO2 SLP159 T02220133=
202107302153 METAR KCLM 302153Z AUTO 30007KT 10SM CLR 23/13 A3001 RMK AO2 SLP162 T02330128=
202107302053 METAR KCLM 302053Z AUTO 10SM CLR 24/13 A3002 RMK AO2 SLP164 6//// T02390128 58009 $=
202107301953 METAR KCLM 301953Z AUTO 10SM 23/13 A3003 RMK AO2 SLP168 T02280128 $=
202107301853 METAR KCLM 301853Z AUTO 10SM CLR 22/13 A3004 RMK AO2 SLP173 T02220128 $=
202107301753 METAR KCLM 301753Z AUTO 10SM CLR 19/12 A3005 RMK AO2 SLP175 6//// T01940122 10222 20100 50001 PNO $=
202107301653 METAR KCLM 301653Z AUTO CLR 19/12 A3005 RMK AO2 SLP174 T01940117 $=
202107301553 METAR KCLM 301553Z AUTO 10SM CLR 17/12 A3005 RMK AO2 SLP176 T01720117 $=
202107301453 METAR KCLM 301453Z AUTO 10SM CLR 16/12 A3005 RMK AO2 SLP173 T01560122 53003 $=
202107301353 METAR KCLM 301353Z AUTO 25005KT 10SM CLR 13/11 A3004 RMK AO2 SLP172 T01280111=
202107301324 SPECI KCLM 301324Z AUTO 25004KT 10SM SCT003 12/10 A3004 RMK AO2 T01170100=
202107301301 SPECI KCLM 301301Z AUTO 00000KT 10SM BKN003 11/10 A3004 RMK AO2 T01110100=
202107301253 METAR KCLM 301253Z AUTO 00000KT 10SM SCT004 11/09 A3004 RMK AO2 SLP171 T01060094=
202107301153 METAR KCLM 301153Z AUTO 00000KT 10SM CLR 11/10 A3002 RMK AO2 SLP164 T01110100 10150 20106 50000=
202107301053 METAR KCLM 301053Z AUTO 28003KT 10SM CLR 12/11 A3002 RMK AO2 SLP164 T01170106=
202107300953 METAR KCLM 300953Z AUTO 30006KT 10SM CLR 12/11 A3002 RMK AO2 SLP163 T01220111=
202107300853 METAR KCLM 300853Z AUTO 29004KT 10SM CLR 13/11 A3001 RMK AO2 SLP164 T01280111 56001=
202107300753 METAR KCLM 300753Z AUTO 28006KT 10SM CLR 13/12 A3001 RMK AO2 SLP163 T01330117 402330106=
202107300653 METAR KCLM 300653Z AUTO 29005KT 10SM CLR 14/12 A3001 RMK AO2 SLP162 T01390122=
202107300553 METAR KCLM 300553Z AUTO 30005KT 10SM CLR 15/13 A3002 RMK AO2 SLP163 T01500128 10228 20150 56001=
202107300453 METAR KCLM 300453Z AUTO 29004KT 10SM CLR 16/13 A3002 RMK AO2 SLP164 T01560128=
202107300353 METAR KCLM 300353Z AUTO 30004KT 10SM CLR 17/13 A3002 RMK AO2 SLP163 T01670133=
202107300253 METAR KCLM 300253Z AUTO 29005KT 10SM CLR 21/14 A3002 RMK AO2 SLP164 T02060144 56010=
202107300153 METAR KCLM 300153Z AUTO VRB05KT 10SM CLR 22/14 A3002 RMK AO2 SLP167 T02170144=
202107300053 METAR KCLM 300053Z AUTO 29008KT 10SM CLR 22/14 A3004 RMK AO2 SLP172 T02170144=
202107292353 METAR KCLM 292353Z AUTO 30008KT 10SM CLR 23/14 A3005 RMK AO2 SLP175 T02280144 10233 20211 56010=
202107292253 METAR KCLM 292253Z AUTO 31008KT 10SM CLR 21/14 A3006 RMK AO2 SLP178 T02110139=
202107292153 METAR KCLM 292153Z AUTO 31006KT 10SM CLR 23/14 A3006 RMK AO2 SLP179 T02280139=
202107292053 METAR KCLM 292053Z AUTO 30006KT 10SM CLR 22/14 A3008 RMK AO2 SLP185 T02170139 56009=
202107291953 METAR KCLM 291953Z AUTO 33006KT 10SM CLR 23/14 A3009 RMK AO2 SLP187 T02330139=
202107291853 METAR KCLM 291853Z AUTO 35004KT 10SM CLR 22/13 A3010 RMK AO2 SLP192 T02220133=
202107291753 METAR KCLM 291753Z AUTO 30006KT 10SM CLR 23/14 A3011 RMK AO2 SLP194 T02280139 10228 20106 58003=
202107291653 METAR KCLM 291653Z AUTO VRB03KT 10SM CLR 19/13 A3011 RMK AO2 SLP196 T01940128=
202107291553 METAR KCLM 291553Z AUTO 00000KT 10SM CLR 18/13 A3011 RMK AO2 SLP196 T01830128=
202107291453 METAR KCLM 291453Z AUTO 00000KT 10SM CLR 16/13 A3012 RMK AO2 SLP197 T01560128 51006=
202107291422 SPECI KCLM 291422Z AUTO 24004KT 10SM SCT002 13/12 A3012 RMK AO2 T01330122=
202107291405 SPECI KCLM 291405Z AUTO 29004KT 10SM OVC002 13/12 A3011 RMK AO2 T01330122=
202107291353 METAR KCLM 291353Z AUTO 27004KT 10SM OVC001 13/12 A3011 RMK AO2 SLP197 T01280117=
202107291344 SPECI KCLM 291344Z AUTO 00000KT 1 1/4SM BR OVC001 13/12 A3011 RMK AO2 T01280117=
202107291341 SPECI KCLM 291341Z AUTO 23003KT 1/4SM FG VV001 12/12 A3011 RMK AO2 T01220117=
202107291328 SPECI KCLM 291328Z AUTO 22003KT M1/4SM FG VV001 12/12 A3011 RMK AO2 T01220117=
202107291321 SPECI KCLM 291321Z AUTO 24003KT 1/4SM FG VV001 12/12 A3010 RMK AO2 T01220117=
202107291304 SPECI KCLM 291304Z AUTO 23003KT 1/2SM FG OVC001 12/11 A3010 RMK AO2 T01170106=
202107291249 METAR KCLM 291249Z AUTO 00000KT 1 1/4SM BR BKN001 11/10 A3010 RMK AO2 SLP192 T01060100=
202107291248 SPECI KCLM 291248Z AUTO 00000KT 1SM BR VV001 11/10 A3010 RMK AO2=
202107291227 SPECI KCLM 291227Z AUTO 00000KT 1/4SM FG VV001 12/10 A3009 RMK AO2 T01170100=
202107291219 SPECI KCLM 291219Z AUTO 00000KT 1/2SM FG VV001 11/10 A3009 RMK AO2 T01110100=
202107291211 SPECI KCLM 291211Z AUTO 00000KT 1/4SM FG VV001 12/11 A3009 RMK AO2 T01170106=
202107291201 SPECI KCLM 291201Z AUTO 00000KT 1/2SM FG VV001 12/12 A3009 RMK AO2 T01220117=
202107291153 METAR KCLM 291153Z AUTO 00000KT 3/4SM BR VV002 12/11 A3009 RMK AO2 SLP188 T01220111 10172 20117 50005=
202107291143 SPECI KCLM 291143Z AUTO 00000KT 2SM BR OVC002 12/11 A3009 RMK AO2 T01170106=
202107291115 SPECI KCLM 291115Z AUTO 00000KT 1/2SM FG VV002 13/12 A3009 RMK AO2 T01280117=
202107291104 SPECI KCLM 291104Z AUTO 00000KT 1/4SM FG VV001 13/12 A3009 RMK AO2 T01280117=
202107291056 SPECI KCLM 291056Z AUTO 31004KT 1 1/2SM BR OVC002 13/12 A3009 RMK AO2 T01280117=
202107291053 METAR KCLM 291053Z AUTO 29003KT 5SM BR BKN002 13/12 A3008 RMK AO2 SLP186 T01280122=
202107291045 SPECI KCLM 291045Z AUTO 00000KT 6SM BR BKN002 13/12 A3008 RMK AO2 T01280117=
202107291036 SPECI KCLM 291036Z AUTO 00000KT 10SM SCT003 13/12 A3008 RMK AO2 T01280117=
202107290953 METAR KCLM 290953Z AUTO VRB03KT 10SM CLR 13/12 A3007 RMK AO2 SLP183 T01330122=
202107290907 SPECI KCLM 290907Z AUTO 31005KT 9SM FEW001 13/12 A3007 RMK AO2 T01330122=
202107290853 METAR KCLM 290853Z AUTO 31009KT 10SM CLR 14/12 A3007 RMK AO2 SLP182 T01390122 58005=
202107290753 METAR KCLM 290753Z AUTO 31008KT 10SM CLR 14/13 A3008 RMK AO2 SLP184 T01440128 402390094=
202107290653 METAR KCLM 290653Z AUTO 31009KT 10SM CLR 16/13 A3008 RMK AO2 SLP185 T01610133=
202107290553 METAR KCLM 290553Z AUTO 31008KT 10SM CLR 17/14 A3009 RMK AO2 SLP186 T01720139 10233 20167 58001=
202107290453 METAR KCLM 290453Z AUTO 29009KT 10SM CLR 18/14 A3009 RMK AO2 SLP188 T01780139=
202107290353 METAR KCLM 290353Z AUTO 29012KT 10SM CLR 18/14 A3008 RMK AO2 SLP186 T01830139=
202107290253 METAR KCLM 290253Z AUTO 28010G18KT 10SM CLR 20/14 A3009 RMK AO2 SLP188 T02000139 56006=
202107290153 METAR KCLM 290153Z AUTO 29014G20KT 10SM CLR 21/14 A3009 RMK AO2 SLP190 T02110139=
202107290053 METAR KCLM 290053Z AUTO 30012G18KT 10SM CLR 23/13 A3010 RMK AO2 SLP193 T02280128=
202107282353 METAR KCLM 282353Z AUTO 30011KT 10SM CLR 22/11 A3011 RMK AO2 SLP195 T02220106 10239 20194 58010=
202107282253 METAR KCLM 282253Z AUTO 31007KT 10SM CLR 22/11 A3012 RMK AO2 SLP200 T02220106=
202107282153 METAR KCLM 282153Z AUTO 30008KT 10SM CLR 22/11 A3013 RMK AO2 SLP201 T02220111=
202107282053 METAR KCLM 282053Z AUTO 30008KT 10SM CLR 23/11 A3014 RMK AO2 SLP204 T02280106 58004=
202107281953 METAR KCLM 281953Z AUTO VRB04KT 10SM CLR 22/11 A3014 RMK AO2 SLP206 T02170111=
202107281853 METAR KCLM 281853Z AUTO 36006KT 10SM CLR 20/11 A3015 RMK AO2 SLP208 T02000111=
202107281753 METAR KCLM 281753Z AUTO 01005KT 10SM CLR 19/11 A3015 RMK AO2 SLP209 T01940111 10194 20094 58001=
202107281653 METAR KCLM 281653Z AUTO 34005KT 10SM CLR 18/11 A3015 RMK AO2 SLP211 T01780111=
202107281553 METAR KCLM 281553Z AUTO 30004KT 10SM CLR 17/11 A3015 RMK AO2 SLP211 T01670106=
202107281453 METAR KCLM 281453Z AUTO 32003KT 10SM CLR 15/11 A3015 RMK AO2 SLP210 T01500106 53006=
202107281353 METAR KCLM 281353Z AUTO 00000KT 10SM CLR 12/10 A3014 RMK AO2 SLP208 T01220100=
202107281253 METAR KCLM 281253Z AUTO 00000KT 10SM CLR 10/08 A3014 RMK AO2 SLP206 T01000078=
202107281153 METAR KCLM 281153Z AUTO 00000KT 10SM CLR 11/08 A3013 RMK AO2 SLP204 T01060083 10150 20100 51006=
202107281053 METAR KCLM 281053Z AUTO 29005KT 10SM CLR 12/09 A3013 RMK AO2 SLP204 T01170094=
202107280953 METAR KCLM 280953Z AUTO 28004KT 10SM CLR 12/09 A3012 RMK AO2 SLP201 T01170094=
202107280853 METAR KCLM 280853Z AUTO 29005KT 10SM CLR 12/09 A3012 RMK AO2 SLP198 T01220094 53005=
202107280753 METAR KCLM 280753Z AUTO 30009KT 10SM CLR 14/09 A3011 RMK AO2 SLP197 T01390094 402280111=
202107280653 METAR KCLM 280653Z AUTO 30006KT 10SM CLR 14/09 A3011 RMK AO2 SLP194 T01390094=
202107280553 METAR KCLM 280553Z AUTO 27006KT 10SM CLR 14/10 A3010 RMK AO2 SLP193 T01440100 10217 20144 51009=
202107280453 METAR KCLM 280453Z AUTO 29012KT 10SM CLR 16/10 A3010 RMK AO2 SLP192 T01560100=
202107280353 METAR KCLM 280353Z AUTO 28007KT 10SM CLR 16/11 A3008 RMK AO2 SLP187 T01610106=
202107280253 METAR KCLM 280253Z AUTO 29011KT 10SM CLR 18/12 A3007 RMK AO2 SLP184 T01830117 55001=
202107280153 METAR KCLM 280153Z AUTO 28008KT 10SM CLR 20/13 A3007 RMK AO2 SLP182 T02000128=
202107280053 METAR KCLM 280053Z AUTO 30011KT 10SM CLR 21/13 A3007 RMK AO2 SLP184 T02110133=
202107272353 METAR KCLM 272353Z AUTO 31008KT 10SM CLR 21/13 A3008 RMK AO2 SLP185 T02060128 10228 20183 57003=
202107272253 METAR KCLM 272253Z AUTO 30007KT 10SM CLR 22/13 A3008 RMK AO2 SLP185 T02220133=
202107272153 METAR KCLM 272153Z AUTO 31006KT 10SM CLR 21/13 A3008 RMK AO2 SLP187 T02060133=
202107272053 METAR KCLM 272053Z AUTO 30008KT 10SM CLR 21/13 A3009 RMK AO2 SLP187 T02110133 50004=
202107271953 METAR KCLM 271953Z AUTO 33007KT 10SM CLR 20/13 A3009 RMK AO2 SLP188 T02000128=
202107271853 METAR KCLM 271853Z AUTO 32009KT 10SM CLR 19/12 A3008 RMK AO2 SLP187 T01940122=
202107271753 METAR KCLM 271753Z AUTO VRB04KT 10SM CLR 18/12 A3007 RMK AO2 SLP184 T01830122 10183 20111 51005=
202107271653 METAR KCLM 271653Z AUTO VRB03KT 10SM CLR 17/12 A3007 RMK AO2 SLP183 T01720122=
202107271627 SPECI KCLM 271627Z AUTO 30003KT 10SM SCT002 14/12 A3007 RMK AO2 T01390122=
202107271601 SPECI KCLM 271601Z AUTO VRB04KT 3SM BR OVC002 13/12 A3007 RMK AO2 T01280122=
202107271553 METAR KCLM 271553Z AUTO 28004KT 1 1/2SM BR OVC002 13/12 A3007 RMK AO2 VIS 3/4V3 SLP182 T01280122=
202107271544 SPECI KCLM 271544Z AUTO 31004KT 1/2SM FG VV002 13/12 A3007 RMK AO2 T01280122=
202107271453 METAR KCLM 271453Z AUTO 28006KT 1/4SM FG VV002 13/12 A3006 RMK AO2 SLP179 T01280117 51009=
202107271430 SPECI KCLM 271430Z AUTO 30003KT 1/4SM FG VV002 12/12 A3005 RMK AO2 T01220117=
202107271418 SPECI KCLM 271418Z AUTO 30004KT M1/4SM FG VV002 12/12 A3005 RMK AO2 T01220117=
202107271353 METAR KCLM 271353Z AUTO 29004KT 1/4SM FG OVC002 12/11 A3005 RMK AO2 SLP174 T01220111=
202107271349 SPECI KCLM 271349Z AUTO 29004KT 1/4SM FG VV002 12/11 A3005 RMK AO2=
202107271340 SPECI KCLM 271340Z AUTO 29004KT 3/4SM BR BKN001 12/11 A3004 RMK AO2 T01170111=
202107271337 SPECI KCLM 271337Z AUTO 31003KT 2SM BR BKN001 12/11 A3004 RMK AO2 T01170111=
202107271253 METAR KCLM 271253Z AUTO 30004KT 8SM FEW001 11/11 A3003 RMK AO2 SLP169 T01110106=
202107271222 SPECI KCLM 271222Z AUTO 29004KT 10SM FEW001 11/10 A3003 RMK AO2 T01110100=
202107271213 SPECI KCLM 271213Z AUTO 30004KT 7SM BKN001 11/11 A3002 RMK AO2 T01110106=
202107271206 SPECI KCLM 271206Z AUTO 28004KT 2SM BR BKN001 11/11 A3002 RMK AO2 T01110106=
202107271201 SPECI KCLM 271201Z AUTO 25005KT 3/4SM BR VV001 12/11 A3002 RMK AO2 T01170106=
202107271153 METAR KCLM 271153Z AUTO 24006KT 1/4SM FG VV001 12/11 A3003 RMK AO2 SLP167 T01170111 10167 20117 50005=
202107271134 SPECI KCLM 271134Z AUTO 23007KT 1/4SM FG VV002 12/11 A3003 RMK AO2 T01170106=
202107271113 SPECI KCLM 271113Z AUTO 27004KT 1/2SM FG VV002 12/11 A3004 RMK AO2 T01170111=
202107271106 SPECI KCLM 271106Z AUTO 28004KT 1/4SM FG VV002 12/11 A3004 RMK AO2 T01170106=
202107271053 METAR KCLM 271053Z AUTO 29004KT 1/2SM FG VV002 12/11 A3003 RMK AO2 SLP170 T01170111=
202107271036 SPECI KCLM 271036Z AUTO 33007KT 3/4SM BR VV002 12/11 A3003 RMK AO2 T01220111=
202107271028 SPECI KCLM 271028Z AUTO 34004KT 1SM BR VV002 12/11 A3002 RMK AO2 T01220111=
202107271025 SPECI KCLM 271025Z AUTO 36003KT 2 1/2SM BR SCT001 13/11 A3002 RMK AO2 T01280111=
202107270953 METAR KCLM 270953Z AUTO 28005KT 10SM CLR 13/12 A3001 RMK AO2 SLP163 T01330117=
202107270853 METAR KCLM 270853Z AUTO 28006KT 10SM CLR 14/12 A3001 RMK AO2 SLP162 T01390122 51003=
202107270753 METAR KCLM 270753Z AUTO 29009KT 10SM CLR 14/13 A3001 RMK AO2 SLP161 T01440128 402170128=
202107270653 METAR KCLM 270653Z AUTO 32005KT 10SM CLR 14/12 A3000 RMK AO2 SLP160 T01440122=
202107270553 METAR KCLM 270553Z AUTO 28008KT 10SM CLR 16/13 A3000 RMK AO2 SLP159 T01610133 10211 20161 51005=
202107270453 METAR KCLM 270453Z AUTO 28011KT 10SM CLR 17/13 A3000 RMK AO2 SLP159 T01670133=
202107270353 METAR KCLM 270353Z AUTO 27010KT 10SM CLR 18/13 A2999 RMK AO2 SLP156 T01780133=
202107270253 METAR KCLM 270253Z AUTO 27015G21KT 10SM CLR 19/14 A2999 RMK AO2 SLP154 T01890139 56005=
202107270153 METAR KCLM 270153Z AUTO 29012G20KT 10SM CLR 20/14 A2999 RMK AO2 SLP155 T02000139=
202107270053 METAR KCLM 270053Z AUTO 30015G22KT 10SM CLR 20/13 A2999 RMK AO2 SLP157 T02000133=
202107262353 METAR KCLM 262353Z AUTO 30013KT 10SM CLR 21/13 A3000 RMK AO2 SLP159 T02110133 10217 20167 58009=
202107262253 METAR KCLM 262253Z AUTO 30013G18KT 10SM CLR 21/13 A3001 RMK AO2 SLP162 T02060133=
202107262153 METAR KCLM 262153Z AUTO 31008G16KT 10SM CLR 21/13 A3002 RMK AO2 SLP165 T02110133=
202107262053 METAR KCLM 262053Z AUTO 31011KT 10SM CLR 21/13 A3003 RMK AO2 SLP169 T02060128 56005=
202107261953 METAR KCLM 261953Z AUTO VRB06KT 10SM CLR 20/13 A3003 RMK AO2 SLP170 T02000128=
202107261853 METAR KCLM 261853Z AUTO VRB06KT 10SM CLR 18/13 A3004 RMK AO2 SLP171 T01830128=
202107261753 METAR KCLM 261753Z AUTO 30008KT 10SM CLR 17/12 A3004 RMK AO2 SLP173 T01670122 10172 20128 50003=
202107261653 METAR KCLM 261653Z AUTO 33007KT 10SM CLR 16/12 A3004 RMK AO2 SLP174 T01610117=
202107261553 METAR KCLM 261553Z AUTO 30007KT 10SM SCT005 14/12 A3004 RMK AO2 SLP173 T01440117=
202107261453 METAR KCLM 261453Z AUTO 31006KT 10SM SCT003 14/12 A3003 RMK AO2 SLP170 T01440122 53004=
202107261441 SPECI KCLM 261441Z AUTO 30004KT 10SM SCT003 14/12 A3003 RMK AO2 T01390122=
202107261403 SPECI KCLM 261403Z AUTO 30008KT 5SM BR OVC002 13/12 A3003 RMK AO2 T01280117=
202107261353 METAR KCLM 261353Z AUTO 30009KT 2 1/2SM BR OVC002 13/12 A3003 RMK AO2 SLP168 T01280117=
202107261253 METAR KCLM 261253Z AUTO 30008KT 10SM OVC002 13/12 A3002 RMK AO2 SLP166 T01280117=
202107261221 SPECI KCLM 261221Z AUTO 31009KT 7SM BKN002 13/12 A3002 RMK AO2 T01280117=
202107261205 SPECI KCLM 261205Z AUTO 30010KT 9SM FEW002 13/12 A3002 RMK AO2 T01280117=
202107261153 METAR KCLM 261153Z AUTO 29012KT 10SM CLR 13/12 A3002 RMK AO2 SLP166 T01280117 10150 20128 56004=
202107261053 METAR KCLM 261053Z AUTO 29010KT 10SM CLR 13/11 A3002 RMK AO2 SLP167 T01330111=
202107260953 METAR KCLM 260953Z AUTO 29010KT 10SM CLR 14/11 A3002 RMK AO2 SLP166 T01390111=
202107260853 METAR KCLM 260853Z AUTO 30008KT 10SM CLR 14/11 A3003 RMK AO2 SLP170 T01390111 56005=
202107260753 METAR KCLM 260753Z AUTO 28008KT 10SM CLR 14/11 A3004 RMK AO2 SLP171 T01390111 402110128=
202107260653 METAR KCLM 260653Z AUTO 26009KT 10SM CLR 14/12 A3004 RMK AO2 SLP173 T01440117=
202107260553 METAR KCLM 260553Z AUTO 31008KT 10SM CLR 14/12 A3005 RMK AO2 SLP175 T01440117 10200 20139 53001=
202107260453 METAR KCLM 260453Z AUTO 29011KT 10SM CLR 14/12 A3004 RMK AO2 SLP174 T01440117=
202107260353 METAR KCLM 260353Z AUTO 28011KT 10SM CLR 14/12 A3004 RMK AO2 SLP173 T01440117=
202107260253 METAR KCLM 260253Z AUTO 28012KT 10SM CLR 17/12 A3004 RMK AO2 SLP174 T01670122 56006=
202107260153 METAR KCLM 260153Z AUTO 29009KT 10SM CLR 18/13 A3005 RMK AO2 SLP174 T01830128=
202107260053 METAR KCLM 260053Z AUTO 28014G22KT 10SM CLR 18/13 A3006 RMK AO2 SLP178 T01830128=
202107252353 METAR KCLM 252353Z AUTO 29013G20KT 10SM CLR 19/13 A3006 RMK AO2 SLP180 T01940128 10211 20178 58009=
202107252253 METAR KCLM 252253Z AUTO 30017G23KT 10SM CLR 20/13 A3007 RMK AO2 SLP184 T02000128=
202107252153 METAR KCLM 252153Z AUTO 31010G20KT 10SM CLR 21/13 A3009 RMK AO2 SLP187 T02060128=
202107252053 METAR KCLM 252053Z AUTO 33009KT 10SM CLR 21/12 A3009 RMK AO2 SLP190 T02060122 56007=
202107251953 METAR KCLM 251953Z AUTO 31015G20KT 10SM CLR 20/12 A3010 RMK AO2 SLP191 T02000122=
202107251853 METAR KCLM 251853Z AUTO 30010KT 10SM CLR 18/12 A3010 RMK AO2 SLP194 T01830122=
202107251753 METAR KCLM 251753Z AUTO 33007KT 290V360 10SM CLR 18/12 A3011 RMK AO2 SLP197 T01780117 10183 20133 58002=
202107251653 METAR KCLM 251653Z AUTO 30011G17KT 10SM CLR 17/12 A3012 RMK AO2 SLP198 T01720117=
202107251553 METAR KCLM 251553Z AUTO 31010KT 10SM CLR 17/11 A3012 RMK AO2 SLP199 T01670111=
202107251453 METAR KCLM 251453Z AUTO 27011KT 10SM CLR 17/11 A3012 RMK AO2 SLP197 T01670106 51009=
202107251353 METAR KCLM 251353Z AUTO 30007KT 10SM CLR 14/11 A3011 RMK AO2 SLP196 T01440106=
202107251253 METAR KCLM 251253Z AUTO 30007KT 10SM CLR 13/10 A3010 RMK AO2 SLP193 T01330100=
202107251153 METAR KCLM 251153Z AUTO 30008KT 10SM CLR 14/10 A3009 RMK AO2 SLP189 T01390100 10167 20128 55000=
202107251053 METAR KCLM 251053Z AUTO 30008KT 10SM CLR 13/11 A3009 RMK AO2 SLP188 T01330106=
202107250953 METAR KCLM 250953Z AUTO 30008KT 10SM CLR 14/11 A3008 RMK AO2 SLP185 T01440111=
202107250853 METAR KCLM 250853Z AUTO 28006KT 10SM CLR 13/11 A3009 RMK AO2 SLP189 T01330106 56004=
202107250753 METAR KCLM 250753Z AUTO 29008KT 10SM CLR 16/12 A3009 RMK AO2 SLP189 T01610117 402110106=
202107250653 METAR KCLM 250653Z AUTO 27014KT 10SM CLR 16/12 A3009 RMK AO2 SLP188 T01610117=
202107250553 METAR KCLM 250553Z AUTO 30006KT 10SM CLR 16/12 A3010 RMK AO2 SLP193 T01610122 10206 20161 57001=
202107250453 METAR KCLM 250453Z AUTO 28008KT 10SM CLR 16/12 A3010 RMK AO2 SLP194 T01610117=
202107250353 METAR KCLM 250353Z AUTO 29012KT 10SM CLR 17/12 A3010 RMK AO2 SLP192 T01720122=
202107250253 METAR KCLM 250253Z AUTO 29012KT 10SM CLR 18/12 A3010 RMK AO2 SLP194 T01830122 56012=
202107250153 METAR KCLM 250153Z AUTO 30011KT 10SM CLR 19/13 A3011 RMK AO2 SLP195 T01940128=
202107250053 METAR KCLM 250053Z AUTO 29007KT 10SM CLR 20/13 A3012 RMK AO2 SLP200 T02000128=
202107242353 METAR KCLM 242353Z AUTO 31009KT 10SM CLR 21/13 A3014 RMK AO2 SLP205 T02060128 10211 20183 58016=
202107242253 METAR KCLM 242253Z AUTO 30012KT 10SM CLR 21/13 A3016 RMK AO2 SLP213 T02060133=
202107242153 METAR KCLM 242153Z AUTO 30010KT 10SM CLR 21/13 A3017 RMK AO2 SLP216 T02110133=
202107242053 METAR KCLM 242053Z AUTO 30013G17KT 10SM CLR 21/13 A3019 RMK AO2 SLP221 T02110133 58007=
202107241953 METAR KCLM 241953Z AUTO 30010G16KT 10SM CLR 21/13 A3020 RMK AO2 SLP225 T02060133=
202107241853 METAR KCLM 241853Z AUTO 32008KT 10SM CLR 21/13 A3020 RMK AO2 SLP226 T02060133=
202107241753 METAR KCLM 241753Z AUTO 34005KT 10SM CLR 18/13 A3021 RMK AO2 SLP229 T01830128 10189 20106 58003=
202107241653 METAR KCLM 241653Z AUTO 31007KT 10SM CLR 17/12 A3022 RMK AO2 SLP234 T01670122=
202107241553 METAR KCLM 241553Z AUTO 33003KT 10SM CLR 16/12 A3022 RMK AO2 SLP233 T01610122=
202107241453 METAR KCLM 241453Z AUTO 31005KT 6SM BR SCT001 12/11 A3022 RMK AO2 SLP233 T01220111 53006=
202107241427 SPECI KCLM 241427Z AUTO 00000KT 10SM SCT001 12/12 A3021 RMK AO2 T01220117=
202107241420 SPECI KCLM 241420Z AUTO 00000KT 2SM BR BKN001 12/11 A3021 RMK AO2 T01170111=
202107241353 METAR KCLM 241353Z AUTO 00000KT 1/2SM FG VV001 11/11 A3021 RMK AO2 SLP229 T01110111=
202107241350 SPECI KCLM 241350Z AUTO 00000KT 3/4SM BR VV001 11/11 A3021 RMK AO2=
202107241347 SPECI KCLM 241347Z AUTO 00000KT 1 1/4SM BR SCT001 11/11 A3021 RMK AO2=
202107241328 SPECI KCLM 241328Z AUTO 00000KT 10SM SCT001 11/11 A3020 RMK AO2 T01110111=
202107241320 SPECI KCLM 241320Z AUTO 00000KT 4SM BR BKN001 11/11 A3020 RMK AO2 T01110111=
202107241317 SPECI KCLM 241317Z AUTO 00000KT 1SM BR VV001 11/11 A3020 RMK AO2 T01110111=
202107241304 SPECI KCLM 241304Z AUTO 27005KT 1/4SM FG VV001 11/11 A3020 RMK AO2 T01060106=
202107241253 METAR KCLM 241253Z AUTO 31005KT 3/4SM BR VV001 11/10 A3020 RMK AO2 SLP227 T01110100=
202107241249 SPECI KCLM 241249Z AUTO 31005KT 1SM BR VV001 11/11 A3020 RMK AO2=
202107241244 SPECI KCLM 241244Z AUTO 31005KT 2 1/2SM BR SCT001 11/11 A3020 RMK AO2 VIS 3/4V5 T01110106=
202107241153 METAR KCLM 241153Z AUTO 28007KT 10SM CLR 15/13 A3020 RMK AO2 SLP225 T01500133 10161 20133 58006=
202107241053 METAR KCLM 241053Z AUTO 28007KT 10SM CLR 14/13 A3021 RMK AO2 SLP228 T01390128=
202107240953 METAR KCLM 240953Z AUTO 29010KT 10SM CLR 14/13 A3022 RMK AO2 SLP231 T01390128=
202107240853 METAR KCLM 240853Z AUTO 29007KT 10SM CLR 14/13 A3022 RMK AO2 SLP231 T01390128 58004=
202107240753 METAR KCLM 240753Z AUTO 29007KT 10SM CLR 14/13 A3023 RMK AO2 SLP234 T01440133 402330128=
202107240653 METAR KCLM 240653Z AUTO 29004KT 10SM CLR 15/13 A3022 RMK AO2 SLP233 T01500133=
202107240553 METAR KCLM 240553Z AUTO 28009KT 10SM CLR 16/14 A3023 RMK AO2 SLP235 T01610139 10217 20156 56001=
202107240453 METAR KCLM 240453Z AUTO 29009KT 10SM CLR 16/13 A3023 RMK AO2 SLP237 T01610133=
202107240353 METAR KCLM 240353Z AUTO 30004KT 10SM CLR 18/14 A3022 RMK AO2 SLP233 T01830139=
202107240253 METAR KCLM 240253Z AUTO 29008KT 10SM CLR 19/14 A3023 RMK AO2 SLP236 T01940139 56012=
202107240153 METAR KCLM 240153Z AUTO 30007KT 10SM CLR 21/14 A3024 RMK AO2 SLP240 T02060139=
202107240053 METAR KCLM 240053Z AUTO 31009KT 10SM CLR 21/13 A3025 RMK AO2 SLP244 T02110133=
202107232353 METAR KCLM 232353Z AUTO 30009G14KT 10SM CLR 22/13 A3027 RMK AO2 SLP249 T02170133 10233 20189 58005=
202107232253 METAR KCLM 232253Z AUTO 30011G16KT 10SM CLR 22/12 A3028 RMK AO2 SLP253 T02170122=
202107232153 METAR KCLM 232153Z AUTO 32009KT 290V350 10SM CLR 22/12 A3028 RMK AO2 SLP253 T02170117=
202107232053 METAR KCLM 232053Z AUTO VRB06KT 10SM CLR 22/11 A3028 RMK AO2 SLP254 T02170106 51002=
202107231953 METAR KCLM 231953Z AUTO VRB06KT 10SM BKN070 21/09 A3028 RMK AO2 SLP254 T02110094=
202107231853 METAR KCLM 231853Z AUTO 35004KT 10SM CLR 20/09 A3028 RMK AO2 SLP254 T02000094=
202107231753 METAR KCLM 231753Z AUTO 03005KT 10SM FEW070 19/09 A3028 RMK AO2 SLP252 T01940094 10200 20128 50005=
202107231653 METAR KCLM 231653Z AUTO 30004KT 10SM CLR 18/10 A3028 RMK AO2 SLP253 T01830100=
202107231553 METAR KCLM 231553Z AUTO 36005KT 10SM OVC055 16/09 A3026 RMK AO2 SLP248 T01610094=
202107231453 METAR KCLM 231453Z AUTO 29005KT 10SM OVC060 16/09 A3026 RMK AO2 SLP247 T01610089 53014=
202107231353 METAR KCLM 231353Z AUTO 28003KT 10SM OVC070 15/09 A3025 RMK AO2 SLP242 T01500089=
202107231253 METAR KCLM 231253Z AUTO 26004KT 10SM OVC085 14/09 A3023 RMK AO2 SLP236 T01390089=
202107231153 METAR KCLM 231153Z AUTO 26004KT 10SM SCT120 14/08 A3022 RMK AO2 SLP232 T01390083 10144 20133 52006=
202107231053 METAR KCLM 231053Z AUTO 26007KT 10SM OVC110 14/08 A3021 RMK AO2 SLP230 T01440078=
202107230953 METAR KCLM 230953Z AUTO 27007KT 10SM BKN120 13/08 A3021 RMK AO2 SLP229 T01330078=
202107230853 METAR KCLM 230853Z AUTO 27007KT 10SM CLR 14/07 A3020 RMK AO2 SLP227 T01390072 53001=
202107230753 METAR KCLM 230753Z AUTO 27011KT 10SM CLR 14/08 A3020 RMK AO2 SLP227 T01440078 402060106=
202107230653 METAR KCLM 230653Z AUTO 27009KT 10SM CLR 14/09 A3019 RMK AO2 SLP224 T01390089=
202107230553 METAR KCLM 230553Z AUTO 25009KT 10SM CLR 14/09 A3020 RMK AO2 SLP226 T01390094 10189 20133 53009=
202107230453 METAR KCLM 230453Z AUTO 27010KT 10SM CLR 14/09 A3019 RMK AO2 SLP223 T01390089=
202107230353 METAR KCLM 230353Z AUTO 28014KT 10SM CLR 15/09 A3017 RMK AO2 SLP218 T01500089=
202107230253 METAR KCLM 230253Z AUTO 29009KT 10SM CLR 16/08 A3017 RMK AO2 SLP216 T01610083 55003=
202107230153 METAR KCLM 230153Z AUTO 29008KT 10SM CLR 17/08 A3017 RMK AO2 SLP216 T01720083=
202107230053 METAR KCLM 230053Z AUTO 31009KT 10SM CLR 19/08 A3017 RMK AO2 SLP217 T01890083=
202107222353 METAR KCLM 222353Z AUTO 30012KT 10SM CLR 19/09 A3018 RMK AO2 SLP219 T01890089 10206 20167 58007=
202107222253 METAR KCLM 222253Z AUTO 30010KT 10SM CLR 19/09 A3019 RMK AO2 SLP222 T01940094=
202107222153 METAR KCLM 222153Z AUTO 32010KT 10SM CLR 19/10 A3020 RMK AO2 SLP225 T01940100=
202107222053 METAR KCLM 222053Z AUTO 34010KT 10SM CLR 19/10 A3020 RMK AO2 SLP227 T01890100 58001=
202107221953 METAR KCLM 221953Z AUTO 29010KT 10SM CLR 19/10 A3021 RMK AO2 SLP230 T01890100=
202107221853 METAR KCLM 221853Z AUTO 31009KT 10SM CLR 17/10 A3021 RMK AO2 SLP229 T01720100=
202107221753 METAR KCLM 221753Z AUTO 29008KT 10SM CLR 17/11 A3020 RMK AO2 SLP228 T01670106 10172 20111 51005=
202107221653 METAR KCLM 221653Z AUTO 32008KT 10SM CLR 16/11 A3020 RMK AO2 SLP227 T01610106=
202107221553 METAR KCLM 221553Z AUTO 30006KT 10SM CLR 15/10 A3019 RMK AO2 SLP225 T01500100=
202107221453 METAR KCLM 221453Z AUTO 26008KT 10SM CLR 14/07 A3019 RMK AO2 SLP223 T01390072 53007=
202107221353 METAR KCLM 221353Z AUTO 28007KT 10SM CLR 12/07 A3018 RMK AO2 SLP221 T01220072=
202107221253 METAR KCLM 221253Z AUTO 25011KT 10SM CLR 12/07 A3017 RMK AO2 SLP218 T01170067=
202107221153 METAR KCLM 221153Z AUTO 25010KT 10SM CLR 11/07 A3017 RMK AO2 SLP216 T01110072 10128 20106 50001=
202107221053 METAR KCLM 221053Z AUTO 25009KT 10SM CLR 11/08 A3017 RMK AO2 SLP217 T01060078=
202107220953 METAR KCLM 220953Z AUTO 26009KT 10SM CLR 12/08 A3017 RMK AO2 SLP217 T01170078=
202107220853 METAR KCLM 220853Z AUTO 26009KT 10SM CLR 12/08 A3017 RMK AO2 SLP215 T01220083 58001=
202107220753 METAR KCLM 220753Z AUTO 25008KT 10SM CLR 12/08 A3017 RMK AO2 SLP218 T01220083 401890106=
202107220653 METAR KCLM 220653Z AUTO 27008KT 10SM CLR 12/09 A3017 RMK AO2 SLP216 T01220089=
202107220553 METAR KCLM 220553Z AUTO 28008KT 10SM CLR 13/09 A3017 RMK AO2 SLP217 T01280094 10172 20128 53005=
202107220453 METAR KCLM 220453Z AUTO 25008KT 10SM CLR 14/09 A3017 RMK AO2 SLP215 T01390094=
202107220353 METAR KCLM 220353Z AUTO 25008KT 10SM CLR 14/09 A3016 RMK AO2 SLP213 T01440089=
202107220253 METAR KCLM 220253Z AUTO 29010KT 10SM CLR 16/09 A3016 RMK AO2 SLP212 T01610089 56003=
202107220153 METAR KCLM 220153Z AUTO 29009KT 10SM CLR 17/09 A3016 RMK AO2 SLP213 T01670089=
202107220053 METAR KCLM 220053Z AUTO 31007KT 10SM BKN045 17/09 A3016 RMK AO2 SLP213 T01720089=
202107212353 METAR KCLM 212353Z AUTO 31008KT 10SM SCT047 OVC060 17/09 A3017 RMK AO2 SLP215 T01720089 10189 20167 50001=
202107212253 METAR KCLM 212253Z AUTO 30006KT 10SM OVC050 17/09 A3018 RMK AO2 SLP219 T01720094=
202107212153 METAR KCLM 212153Z AUTO 30011G16KT 10SM OVC055 17/09 A3017 RMK AO2 SLP217 T01720089=
202107212053 METAR KCLM 212053Z AUTO 31009G17KT 10SM FEW050 19/08 A3016 RMK AO2 SLP214 T01890083 51002=
202107211953 METAR KCLM 211953Z AUTO 31013G20KT 10SM FEW050 18/09 A3016 RMK AO2 SLP213 T01830089=
202107211853 METAR KCLM 211853Z AUTO 31013G17KT 10SM CLR 17/09 A3016 RMK AO2 SLP213 T01720094=
202107211753 METAR KCLM 211753Z AUTO 30009KT 10SM BKN050 17/09 A3016 RMK AO2 SLP212 T01670089 10172 20128 52007=
202107211653 METAR KCLM 211653Z AUTO 29012G18KT 10SM FEW060 16/09 A3015 RMK AO2 SLP210 T01610089=
202107211553 METAR KCLM 211553Z AUTO 29008KT 10SM OVC060 17/08 A3014 RMK AO2 SLP206 T01670083=
202107211453 METAR KCLM 211453Z AUTO 26006KT 10SM OVC060 14/08 A3014 RMK AO2 SLP205 T01390083 52005=
202107211353 METAR KCLM 211353Z AUTO 24004KT 10SM OVC049 13/09 A3013 RMK AO2 SLP204 T01280089=
202107211253 METAR KCLM 211253Z AUTO 26005KT 10SM OVC048 13/09 A3012 RMK AO2 SLP200 T01280089=
202107211153 METAR KCLM 211153Z AUTO 25004KT 10SM OVC048 13/08 A3012 RMK AO2 SLP200 T01280083 10144 20106 53006=
202107211053 METAR KCLM 211053Z AUTO 29005KT 10SM OVC041 12/08 A3011 RMK AO2 SLP197 T01220078=
202107210953 METAR KCLM 210953Z AUTO 28005KT 10SM SCT040 11/07 A3010 RMK AO2 SLP194 T01110072=
202107210853 METAR KCLM 210853Z AUTO 26005KT 10SM CLR 12/08 A3010 RMK AO2 SLP194 T01170078 53001=
202107210753 METAR KCLM 210753Z AUTO 26006KT 10SM CLR 13/08 A3010 RMK AO2 SLP191 T01280083 402000128=
202107210653 METAR KCLM 210653Z AUTO 26009KT 10SM OVC060 14/08 A3010 RMK AO2 SLP191 T01390078=
202107210553 METAR KCLM 210553Z AUTO 27013KT 10SM CLR 14/08 A3010 RMK AO2 SLP193 T01390083 10183 20133 56005=
202107210453 METAR KCLM 210453Z AUTO 28010KT 10SM CLR 13/09 A3011 RMK AO2 SLP195 T01330089=
202107210353 METAR KCLM 210353Z AUTO 27014KT 10SM CLR 14/10 A3011 RMK AO2 SLP195 T01390100=
202107210253 METAR KCLM 210253Z AUTO 28008G17KT 10SM CLR 15/10 A3012 RMK AO2 SLP198 T01500100 58011=
202107210153 METAR KCLM 210153Z AUTO 29013G20KT 10SM CLR 17/10 A3013 RMK AO2 SLP202 T01670100=
202107210053 METAR KCLM 210053Z AUTO 30009G19KT 10SM CLR 17/09 A3014 RMK AO2 SLP207 T01720094=
202107202353 METAR KCLM 202353Z AUTO 30015G22KT 10SM CLR 18/09 A3015 RMK AO2 SLP209 T01830094 10200 20178 57010=
202107202253 METAR KCLM 202253Z AUTO 30013G26KT 10SM CLR 19/08 A3016 RMK AO2 PK WND 30026/2251 SLP213 T01890078=
202107202153 METAR KCLM 202153Z AUTO 31014G23KT 10SM CLR 19/08 A3017 RMK AO2 SLP215 T01940083=
202107202053 METAR KCLM 202053Z AUTO 31014G20KT 10SM CLR 19/11 A3018 RMK AO2 SLP219 T01890106 58002=
202107201953 METAR KCLM 201953Z AUTO 30014G21KT 10SM CLR 19/11 A3018 RMK AO2 SLP221 T01890111=
202107201853 METAR KCLM 201853Z AUTO 31010G17KT 260V330 10SM CLR 18/11 A3018 RMK AO2 SLP221 T01830106=
202107201803 SPECI KCLM 201803Z AUTO 30011KT 10SM BKN030 18/11 A3018 RMK AO2 T01830106=
202107201753 METAR KCLM 201753Z AUTO 30008KT 260V340 10SM OVC029 18/11 A3018 RMK AO2 SLP221 T01830106 10183 20144 50002=
202107201734 SPECI KCLM 201734Z AUTO 30009KT 10SM BKN029 18/11 A3018 RMK AO2 T01780111=
202107201723 SPECI KCLM 201723Z AUTO 30010G15KT 270V340 10SM SCT029 18/11 A3018 RMK AO2 T01830106=
202107201653 METAR KCLM 201653Z AUTO 30008KT 10SM OVC027 18/11 A3019 RMK AO2 SLP222 T01780106=
202107201553 METAR KCLM 201553Z AUTO 28006KT 10SM OVC023 17/10 A3018 RMK AO2 SLP220 T01670100=
202107201453 METAR KCLM 201453Z AUTO 28009KT 10SM OVC023 16/10 A3018 RMK AO2 SLP219 T01560100 51008=
202107201353 METAR KCLM 201353Z AUTO 29006KT 10SM OVC020 15/10 A3017 RMK AO2 SLP218 T01500100=
202107201253 METAR KCLM 201253Z AUTO 29008KT 10SM OVC016 14/11 A3016 RMK AO2 SLP212 T01440106=
202107201231 SPECI KCLM 201231Z AUTO 30008KT 10SM OVC015 14/11 A3016 RMK AO2 T01440111=
202107201153 METAR KCLM 201153Z AUTO 29007KT 10SM OVC014 14/12 A3016 RMK AO2 SLP210 T01440117 10150 20144 53007=
202107201120 SPECI KCLM 201120Z AUTO 29009KT 10SM OVC011 14/12 A3015 RMK AO2 T01440117=
202107201053 METAR KCLM 201053Z AUTO 29008KT 10SM OVC007 14/12 A3015 RMK AO2 SLP208 T01440122=
202107200953 METAR KCLM 200953Z AUTO 29008KT 10SM OVC006 14/13 A3014 RMK AO2 SLP205 T01440128=
202107200853 METAR KCLM 200853Z AUTO 29007G19KT 270V330 10SM OVC006 14/13 A3013 RMK AO2 SLP203 T01440128 53003=
202107200753 METAR KCLM 200753Z AUTO 28012KT 10SM OVC006 15/13 A3013 RMK AO2 SLP201 T01500128 402220117=
202107200712 SPECI KCLM 200712Z AUTO 29012KT 10SM OVC008 15/13 A3013 RMK AO2 CIG 006V011 T01500128=
202107200703 SPECI KCLM 200703Z AUTO 29011KT 10SM BKN010 15/13 A3012 RMK AO2 CIG 007V012 T01500128=
202107200653 METAR KCLM 200653Z AUTO 28011KT 10SM SCT010 15/12 A3012 RMK AO2 SLP200 T01500122=
202107200553 METAR KCLM 200553Z AUTO 28009KT 10SM CLR 14/12 A3013 RMK AO2 SLP201 T01440122 10217 20144 50003=
202107200527 SPECI KCLM 200527Z AUTO 28011KT 10SM SCT010 14/12 A3013 RMK AO2 T01440122=
202107200453 METAR KCLM 200453Z AUTO 28008KT 10SM BKN010 15/12 A3013 RMK AO2 CIG 009V013 SLP202 T01500122=
202107200353 METAR KCLM 200353Z AUTO 28009KT 10SM CLR 16/12 A3012 RMK AO2 SLP199 T01560117=
202107200253 METAR KCLM 200253Z AUTO 27014G19KT 10SM CLR 17/12 A3012 RMK AO2 SLP198 T01720117 53001=
202107200153 METAR KCLM 200153Z AUTO 29014G18KT 10SM CLR 19/09 A3011 RMK AO2 SLP197 T01890089=
202107200053 METAR KCLM 200053Z AUTO 30013KT 10SM CLR 21/09 A3011 RMK AO2 SLP197 T02060089=
202107192353 METAR KCLM 192353Z AUTO 30013G21KT 10SM CLR 22/08 A3011 RMK AO2 SLP197 T02170078 10222 20172 58003=
202107192253 METAR KCLM 192253Z AUTO 30013G18KT 10SM CLR 22/07 A3012 RMK AO2 SLP199 T02170067=
202107192153 METAR KCLM 192153Z AUTO 31009KT 10SM CLR 22/07 A3012 RMK AO2 SLP199 T02170067=
202107192053 METAR KCLM 192053Z AUTO 30010KT 10SM CLR 21/07 A3012 RMK AO2 SLP200 T02110072 56005=
202107191953 METAR KCLM 191953Z AUTO 31005KT 10SM CLR 22/07 A3013 RMK AO2 SLP201 T02170072=
202107191853 METAR KCLM 191853Z AUTO 33008KT 300V360 10SM CLR 19/09 A3013 RMK AO2 SLP203 T01940089=
202107191753 METAR KCLM 191753Z AUTO 34007KT 290V360 10SM CLR 17/09 A3014 RMK AO2 SLP205 T01720089 10183 20117 50001=
202107191653 METAR KCLM 191653Z AUTO VRB04KT 10SM CLR 17/10 A3014 RMK AO2 SLP207 T01670100=
202107191553 METAR KCLM 191553Z AUTO 31004KT 10SM CLR 16/11 A3014 RMK AO2 SLP205 T01610106=
202107191453 METAR KCLM 191453Z AUTO 31005KT 10SM CLR 14/10 A3013 RMK AO2 SLP204 T01440100 51005=
202107191353 METAR KCLM 191353Z AUTO 33003KT 10SM CLR 13/09 A3013 RMK AO2 SLP204 T01330094=
202107191253 METAR KCLM 191253Z AUTO 30005KT 10SM CLR 12/08 A3013 RMK AO2 SLP202 T01220083=
202107191153 METAR KCLM 191153Z AUTO 27007KT 10SM CLR 13/08 A3012 RMK AO2 SLP199 T01280078 10150 20122 53002=
202107191053 METAR KCLM 191053Z AUTO 29008KT 10SM CLR 13/08 A3011 RMK AO2 SLP197 T01280083=
202107190953 METAR KCLM 190953Z AUTO 29006KT 10SM CLR 12/09 A3011 RMK AO2 SLP197 T01220089=
202107190853 METAR KCLM 190853Z AUTO 30007KT 10SM CLR 13/09 A3011 RMK AO2 SLP197 T01330089 56005=
202107190753 METAR KCLM 190753Z AUTO 28007KT 10SM CLR 13/09 A3011 RMK AO2 SLP197 T01330094 402110100=
202107190653 METAR KCLM 190653Z AUTO 27007KT 10SM CLR 14/09 A3012 RMK AO2 SLP200 T01390094=
202107190553 METAR KCLM 190553Z AUTO 28009KT 10SM CLR 14/09 A3013 RMK AO2 SLP203 T01440089 10194 20144 53000=
202107190453 METAR KCLM 190453Z AUTO 29011KT 10SM CLR 14/09 A3013 RMK AO2 SLP202 T01440089=
202107190353 METAR KCLM 190353Z AUTO 29009KT 10SM CLR 16/08 A3012 RMK AO2 SLP201 T01560083=
202107190253 METAR KCLM 190253Z AUTO 28007KT 10SM CLR 17/09 A3013 RMK AO2 SLP202 T01720089 55006=
202107190153 METAR KCLM 190153Z AUTO 31008KT 10SM CLR 18/09 A3013 RMK AO2 SLP202 T01780089=
202107190053 METAR KCLM 190053Z AUTO 31010KT 10SM CLR 18/09 A3014 RMK AO2 SLP205 T01830089=
202107182353 METAR KCLM 182353Z AUTO 32009KT 10SM CLR 18/09 A3015 RMK AO2 SLP208 T01830089 10211 20172 56009=
202107182253 METAR KCLM 182253Z AUTO 34006KT 10SM CLR 21/10 A3015 RMK AO2 SLP211 T02110100=
202107182153 METAR KCLM 182153Z AUTO 33009KT 10SM CLR 20/10 A3016 RMK AO2 SLP214 T02000100=
202107182053 METAR KCLM 182053Z AUTO 29011KT 10SM CLR 20/11 A3017 RMK AO2 SLP217 T02000106 58001=
202107181953 METAR KCLM 181953Z AUTO 29009KT 10SM CLR 19/11 A3018 RMK AO2 SLP221 T01940106=
202107181853 METAR KCLM 181853Z AUTO 31008KT 10SM CLR 18/11 A3019 RMK AO2 SLP222 T01830106=
202107181753 METAR KCLM 181753Z AUTO VRB05KT 10SM CLR 17/11 A3018 RMK AO2 SLP219 T01720106 10178 20100 50003=
202107181653 METAR KCLM 181653Z AUTO 30004KT 10SM CLR 16/10 A3018 RMK AO2 SLP221 T01560100=
202107181553 METAR KCLM 181553Z AUTO 32005KT 10SM CLR 16/10 A3018 RMK AO2 SLP219 T01610100=
202107181453 METAR KCLM 181453Z AUTO 32003KT 10SM CLR 15/10 A3017 RMK AO2 SLP216 T01500100 53009=
202107181353 METAR KCLM 181353Z AUTO 00000KT 10SM CLR 13/10 A3016 RMK AO2 SLP212 T01280100=
202107181253 METAR KCLM 181253Z AUTO 27005KT 10SM CLR 11/09 A3015 RMK AO2 SLP210 T01110094=
202107181153 METAR KCLM 181153Z AUTO 22003KT 10SM CLR 10/08 A3014 RMK AO2 SLP207 T01000083 10133 20100 50003=
202107181053 METAR KCLM 181053Z AUTO 23003KT 10SM CLR 11/08 A3014 RMK AO2 SLP207 T01060083=
202107180953 METAR KCLM 180953Z AUTO 27005KT 10SM CLR 12/09 A3014 RMK AO2 SLP207 T01170089=
202107180853 METAR KCLM 180853Z AUTO 27005KT 10SM CLR 12/09 A3013 RMK AO2 SLP204 T01170089 53004=
202107180753 METAR KCLM 180753Z AUTO 25006KT 10SM CLR 13/09 A3013 RMK AO2 SLP202 T01280089 402000122=
202107180653 METAR KCLM 180653Z AUTO 26008KT 10SM CLR 13/09 A3012 RMK AO2 SLP200 T01330094=
202107180553 METAR KCLM 180553Z AUTO 27007KT 10SM CLR 14/10 A3012 RMK AO2 SLP200 T01390100 10200 20133 53005=
202107180453 METAR KCLM 180453Z AUTO 27007KT 10SM CLR 14/09 A3012 RMK AO2 SLP199 T01390094=
202107180353 METAR KCLM 180353Z AUTO 27008KT 10SM CLR 15/09 A3011 RMK AO2 SLP195 T01500094=
202107180253 METAR KCLM 180253Z AUTO 28010KT 10SM CLR 17/09 A3011 RMK AO2 SLP195 T01670094 55002=
202107180153 METAR KCLM 180153Z AUTO 29011G18KT 10SM CLR 17/08 A3011 RMK AO2 SLP194 T01720083=
202107180053 METAR KCLM 180053Z AUTO 30009G16KT 10SM CLR 18/08 A3010 RMK AO2 SLP194 T01830078=
202107172353 METAR KCLM 172353Z AUTO 31011G16KT 10SM SCT060 19/08 A3011 RMK AO2 SLP197 T01940083 10200 20156 58007=
202107172253 METAR KCLM 172253Z AUTO 31012G17KT 10SM BKN060 19/08 A3013 RMK AO2 SLP201 T01890078=
202107172153 METAR KCLM 172153Z AUTO 29010KT 10SM FEW065 19/08 A3013 RMK AO2 SLP202 T01940083=
202107172053 METAR KCLM 172053Z AUTO 29010KT 10SM OVC034 18/09 A3013 RMK AO2 SLP204 T01780089 53002=
202107171953 METAR KCLM 171953Z AUTO 32006KT 10SM SCT022 OVC045 18/11 A3013 RMK AO2 SLP202 T01780106=
202107171950 SPECI KCLM 171950Z AUTO VRB06KT 10SM SCT022 OVC045 18/11 A3013 RMK AO2=
202107171922 SPECI KCLM 171922Z AUTO 33008KT 10SM BKN021 OVC042 17/10 A3013 RMK AO2 T01670100=
202107171905 SPECI KCLM 171905Z AUTO 31007KT 280V350 10SM SCT023 OVC042 17/11 A3013 RMK AO2 T01720106=
202107171853 METAR KCLM 171853Z AUTO 30007KT 10SM BKN023 OVC041 17/11 A3013 RMK AO2 SLP202 T01670106=
202107171753 METAR KCLM 171753Z AUTO 30008KT 10SM OVC021 16/11 A3012 RMK AO2 SLP199 T01560106 10161 20139 51008=
202107171653 METAR KCLM 171653Z AUTO 31005KT 10SM OVC018 16/11 A3011 RMK AO2 SLP197 T01560111=
202107171553 METAR KCLM 171553Z AUTO 29006KT 10SM OVC016 14/11 A3011 RMK AO2 SLP195 T01440106=
202107171453 METAR KCLM 171453Z AUTO 33005KT 10SM BKN026 OVC033 14/11 A3009 RMK AO2 SLP191 T01440111 53012=
202107171353 METAR KCLM 171353Z AUTO 30004KT 10SM FEW017 OVC034 15/11 A3008 RMK AO2 SLP187 T01500111=
202107171338 SPECI KCLM 171338Z AUTO 28004KT 10SM SCT019 OVC034 15/11 A3008 RMK AO2 T01500111=
202107171253 METAR KCLM 171253Z AUTO 26005KT 10SM OVC018 14/11 A3007 RMK AO2 SLP182 T01440106=
202107171153 METAR KCLM 171153Z AUTO 24003KT 10SM OVC018 14/11 A3006 RMK AO2 SLP178 T01440106 10150 20139 53005=
202107171053 METAR KCLM 171053Z AUTO 23003KT 10SM OVC018 14/11 A3005 RMK AO2 SLP176 T01390106=
202107170953 METAR KCLM 170953Z AUTO 25003KT 10SM OVC019 14/11 A3005 RMK AO2 SLP175 T01440106=
202107170853 METAR KCLM 170853Z AUTO 26003KT 10SM OVC021 14/11 A3004 RMK AO2 SLP174 T01440106 56001=
202107170753 METAR KCLM 170753Z AUTO 26005KT 10SM OVC024 15/11 A3004 RMK AO2 SLP174 T01500106 401940089=
202107170653 METAR KCLM 170653Z AUTO 24004KT 10SM OVC026 15/11 A3005 RMK AO2 SLP174 T01500106=
202107170553 METAR KCLM 170553Z AUTO 25004KT 10SM OVC023 15/11 A3005 RMK AO2 SLP175 T01500106 10167 20150 53001=
202107170453 METAR KCLM 170453Z AUTO 27006KT 10SM OVC021 15/11 A3005 RMK AO2 SLP175 T01500106=
202107170353 METAR KCLM 170353Z AUTO 25006KT 10SM OVC021 16/11 A3005 RMK AO2 SLP174 T01560106=
202107170253 METAR KCLM 170253Z AUTO 29003KT 10SM OVC021 16/11 A3005 RMK AO2 SLP174 T01560111 56003=
202107170153 METAR KCLM 170153Z AUTO 26008KT 10SM OVC023 16/11 A3005 RMK AO2 SLP175 T01560111=
202107170053 METAR KCLM 170053Z AUTO 30008KT 10SM OVC022 16/11 A3005 RMK AO2 SLP177 T01610111=
202107162353 METAR KCLM 162353Z AUTO 31007KT 10SM OVC023 16/12 A3006 RMK AO2 SLP178 T01610117 10194 20161 58002=
202107162253 METAR KCLM 162253Z AUTO 30010KT 10SM OVC022 16/12 A3006 RMK AO2 SLP180 T01610117=
202107162153 METAR KCLM 162153Z AUTO 31007KT 10SM OVC022 17/12 A3006 RMK AO2 SLP181 T01670122=
202107162053 METAR KCLM 162053Z AUTO 30009KT 10SM OVC023 17/12 A3006 RMK AO2 SLP180 T01720117 52006=
202107162016 SPECI KCLM 162016Z AUTO 36006KT 10SM BKN024 OVC046 18/12 A3006 RMK AO2 T01780117=
202107161953 METAR KCLM 161953Z AUTO VRB05KT 10SM OVC047 18/12 A3006 RMK AO2 SLP178 T01780117=
202107161853 METAR KCLM 161853Z AUTO VRB05KT 10SM SCT042 OVC060 18/12 A3005 RMK AO2 SLP177 T01780117=
202107161753 METAR KCLM 161753Z AUTO 03005KT 10SM FEW045 SCT055 SCT065 16/11 A3005 RMK AO2 SLP174 T01610111 10178 20089 50002=
202107161653 METAR KCLM 161653Z AUTO VRB03KT 10SM FEW043 16/11 A3005 RMK AO2 SLP176 T01610111=
202107161553 METAR KCLM 161553Z AUTO VRB03KT 10SM SCT049 13/11 A3004 RMK AO2 SLP174 T01330106=
202107161453 METAR KCLM 161453Z AUTO 23003KT 10SM OVC044 12/11 A3004 RMK AO2 SLP172 T01220106 53004=
202107161353 METAR KCLM 161353Z AUTO 23003KT 10SM BKN044 11/09 A3003 RMK AO2 SLP169 T01060094=
202107161253 METAR KCLM 161253Z AUTO 23003KT 10SM CLR 10/08 A3003 RMK AO2 SLP169 T01000083=
202107161238 SPECI KCLM 161238Z AUTO 00000KT 3SM BR CLR 11/09 A3003 RMK AO2 T01060089=
202107161231 SPECI KCLM 161231Z AUTO 00000KT 1 3/4SM BR CLR 10/09 A3003 RMK AO2 VIS 3/4V5 T01000089=
202107161204 SPECI KCLM 161204Z AUTO 00000KT 10SM FEW006 11/09 A3003 RMK AO2 T01110094=
202107161153 METAR KCLM 161153Z AUTO 00000KT 9SM CLR 11/09 A3003 RMK AO2 SLP168 T01110094 10128 20106 55001=
202107161131 SPECI KCLM 161131Z AUTO 00000KT 10SM FEW006 SCT011 11/09 A3002 RMK AO2 T01060089=
202107161124 SPECI KCLM 161124Z AUTO 00000KT 10SM SCT006 BKN011 12/09 A3002 RMK AO2 T01170094=
202107161053 METAR KCLM 161053Z AUTO 00000KT 10SM OVC006 12/10 A3002 RMK AO2 SLP166 T01170100=
202107160953 METAR KCLM 160953Z AUTO 29003KT 10SM OVC006 12/11 A3003 RMK AO2 SLP168 T01220106=
202107160853 METAR KCLM 160853Z AUTO 29008KT 10SM BKN006 12/11 A3003 RMK AO2 SLP168 T01220106 52001=
202107160851 SPECI KCLM 160851Z AUTO 29010KT 10SM BKN006 12/11 A3003 RMK AO2=
202107160826 SPECI KCLM 160826Z AUTO 29005KT 10SM SCT006 12/11 A3003 RMK AO2 T01220106=
202107160753 METAR KCLM 160753Z AUTO 29009KT 10SM BKN006 12/11 A3003 RMK AO2 SLP168 T01220106 401780111=
202107160653 METAR KCLM 160653Z AUTO 29009KT 10SM OVC007 13/11 A3003 RMK AO2 SLP168 T01280106=
202107160553 METAR KCLM 160553Z AUTO 28009KT 10SM OVC007 13/11 A3003 RMK AO2 SLP170 T01280106 10178 20128 50000=
202107160453 METAR KCLM 160453Z AUTO 29010KT 10SM OVC008 13/11 A3003 RMK AO2 SLP170 T01280106=
202107160404 SPECI KCLM 160404Z AUTO 28010KT 10SM BKN009 13/11 A3003 RMK AO2 T01330106=
202107160353 METAR KCLM 160353Z AUTO 29012KT 10SM BKN010 13/11 A3003 RMK AO2 SLP170 T01330106=
202107160253 METAR KCLM 160253Z AUTO 30010KT 10SM SCT013 14/11 A3004 RMK AO2 SLP171 T01440106 56002=
202107160250 SPECI KCLM 160250Z AUTO 30010KT 10SM SCT013 14/11 A3004 RMK AO2=
202107160200 SPECI KCLM 160200Z AUTO 29009G15KT 10SM BKN014 15/11 A3004 RMK AO2 T01500106=
202107160153 METAR KCLM 160153Z AUTO 28010G21KT 10SM SCT015 15/11 A3004 RMK AO2 SLP172 T01500106=
202107160053 METAR KCLM 160053Z AUTO 30013G18KT 10SM CLR 17/11 A3004 RMK AO2 SLP173 T01670106=
202107152353 METAR KCLM 152353Z AUTO 30010G16KT 10SM CLR 17/10 A3005 RMK AO2 SLP176 T01670100 10178 20144 58004=
202107152253 METAR KCLM 152253Z AUTO 30012G18KT 10SM CLR 17/10 A3006 RMK AO2 SLP178 T01720100=
202107152153 METAR KCLM 152153Z AUTO 31010G18KT 300V360 10SM CLR 17/10 A3006 RMK AO2 SLP181 T01670100=
202107152053 METAR KCLM 152053Z AUTO 31012G20KT 10SM CLR 17/09 A3006 RMK AO2 SLP180 T01670094 58001=
202107152027 SPECI KCLM 152027Z AUTO 31010G18KT 10SM SCT021 17/10 A3006 RMK AO2 T01720100=
202107151953 METAR KCLM 151953Z AUTO 32010G18KT 10SM OVC020 16/10 A3007 RMK AO2 SLP182 T01610100=
202107151853 METAR KCLM 151853Z AUTO 32008KT 10SM OVC019 15/09 A3007 RMK AO2 SLP183 T01500094=
202107151753 METAR KCLM 151753Z AUTO 30009KT 10SM OVC016 14/10 A3007 RMK AO2 SLP181 T01440100 10144 20111 51005=
202107151704 SPECI KCLM 151704Z AUTO 31005KT 10SM OVC015 14/10 A3006 RMK AO2 T01390100=
202107151653 METAR KCLM 151653Z AUTO 31006KT 10SM OVC014 14/10 A3006 RMK AO2 SLP180 T01390100=
202107151553 METAR KCLM 151553Z AUTO 31006KT 10SM OVC013 13/10 A3006 RMK AO2 SLP178 T01330100=
202107151535 SPECI KCLM 151535Z AUTO 28004KT 10SM OVC011 13/11 A3006 RMK AO2 T01330106=
202107151453 METAR KCLM 151453Z AUTO 00000KT 10SM OVC009 13/11 A3005 RMK AO2 SLP177 T01330106 51014=
202107151353 METAR KCLM 151353Z AUTO 27005KT 10SM OVC009 12/10 A3004 RMK AO2 CIG 006V011 SLP173 T01220100=
202107151253 METAR KCLM 151253Z AUTO 26007KT 10SM OVC009 12/10 A3003 RMK AO2 CIG 006V011 SLP169 T01170100=
202107151232 SPECI KCLM 151232Z AUTO 27008KT 10SM BKN009 12/10 A3002 RMK AO2 CIG 006V010 T01170100=
202107151222 SPECI KCLM 151222Z AUTO 28008KT 10SM SCT009 11/09 A3002 RMK AO2 T01110094=
202107151153 METAR KCLM 151153Z AUTO 29010KT 10SM CLR 11/09 A3001 RMK AO2 SLP163 T01110094 10122 20111 51004=
202107151053 METAR KCLM 151053Z AUTO 29010KT 10SM CLR 11/09 A3001 RMK AO2 SLP161 T01110094=
202107150953 METAR KCLM 150953Z AUTO 29010KT 10SM CLR 11/09 A3001 RMK AO2 SLP161 T01110094=
202107150853 METAR KCLM 150853Z AUTO 28010KT 10SM CLR 11/09 A3000 RMK AO2 SLP159 T01110094 52002=
202107150753 METAR KCLM 150753Z AUTO 28012KT 10SM CLR 12/09 A3000 RMK AO2 SLP159 T01170094 401780117=
202107150653 METAR KCLM 150653Z AUTO 28011KT 10SM CLR 12/09 A3000 RMK AO2 SLP158 T01170094=
202107150553 METAR KCLM 150553Z AUTO 28014KT 10SM CLR 12/10 A3000 RMK AO2 SLP157 T01220100 10172 20122 50001=
202107150504 SPECI KCLM 150504Z AUTO 28013KT 10SM SCT007 12/10 A3000 RMK AO2 T01220100=
202107150453 METAR KCLM 150453Z AUTO 28010KT 10SM BKN007 12/10 A3000 RMK AO2 SLP158 T01220100=
202107150415 SPECI KCLM 150415Z AUTO 27010G20KT 10SM BKN007 12/10 A2999 RMK AO2 T01220100=
202107150353 METAR KCLM 150353Z AUTO 28014G22KT 10SM FEW008 12/10 A2999 RMK AO2 SLP156 T01220100=
202107150326 SPECI KCLM 150326Z AUTO 29012G19KT 10SM FEW008 13/10 A2999 RMK AO2 T01280100=
202107150253 METAR KCLM 150253Z AUTO 29009G16KT 10SM CLR 14/11 A2999 RMK AO2 SLP156 T01390106 56007=
202107150153 METAR KCLM 150153Z AUTO 30008KT 10SM CLR 15/11 A2999 RMK AO2 SLP156 T01500106=
202107150053 METAR KCLM 150053Z AUTO 31010KT 10SM CLR 16/11 A3000 RMK AO2 SLP160 T01560106=
202107142353 METAR KCLM 142353Z AUTO 30009KT 10SM CLR 17/11 A3001 RMK AO2 SLP163 T01670106 10178 20150 58009=
202107142253 METAR KCLM 142253Z AUTO 30012KT 10SM CLR 17/11 A3002 RMK AO2 SLP167 T01670106=
202107142153 METAR KCLM 142153Z AUTO 30011G17KT 10SM CLR 18/11 A3003 RMK AO2 SLP170 T01780111=
202107142053 METAR KCLM 142053Z AUTO 31009KT 10SM CLR 18/11 A3004 RMK AO2 SLP172 T01780111 58006=
202107141953 METAR KCLM 141953Z AUTO 32009KT 10SM CLR 17/11 A3005 RMK AO2 SLP174 T01670106=
202107141853 METAR KCLM 141853Z AUTO 30010G17KT 10SM FEW012 16/11 A3005 RMK AO2 SLP176 T01610106=
202107141846 SPECI KCLM 141846Z AUTO 32010KT 10SM FEW012 16/11 A3005 RMK AO2 T01610106=
202107141753 METAR KCLM 141753Z AUTO 31011G17KT 10SM OVC011 15/11 A3006 RMK AO2 SLP178 T01500106 10150 20122 50000=
202107141732 SPECI KCLM 141732Z AUTO 30008KT 10SM OVC010 14/11 A3006 RMK AO2 T01440106=
202107141653 METAR KCLM 141653Z AUTO 31007KT 10SM OVC009 14/11 A3006 RMK AO2 SLP180 T01440106=
202107141553 METAR KCLM 141553Z AUTO 30010KT 10SM OVC009 14/11 A3006 RMK AO2 SLP179 T01390106=
202107141453 METAR KCLM 141453Z AUTO 29010KT 10SM OVC008 13/11 A3006 RMK AO2 SLP178 T01330106 51006=
202107141353 METAR KCLM 141353Z AUTO 28011KT 10SM OVC006 12/11 A3005 RMK AO2 SLP176 T01220106=
202107141253 METAR KCLM 141253Z AUTO 28012KT 10SM OVC005 12/11 A3005 RMK AO2 SLP174 T01220106=
202107141153 METAR KCLM 141153Z AUTO 30010KT 10SM OVC005 12/11 A3004 RMK AO2 SLP172 T01220106 10133 20117 50000=
202107141053 METAR KCLM 141053Z AUTO 28011KT 10SM OVC005 12/11 A3004 RMK AO2 SLP172 T01220106=
202107141000 SPECI KCLM 141000Z AUTO 29009KT 10SM BKN006 12/11 A3004 RMK AO2 T01220106=
202107140953 METAR KCLM 140953Z AUTO 29010KT 10SM SCT006 12/11 A3004 RMK AO2 SLP172 T01220106=
202107140951 SPECI KCLM 140951Z AUTO 28009KT 10SM SCT006 12/11 A3004 RMK AO2=
202107140853 METAR KCLM 140853Z AUTO 28013KT 10SM CLR 12/10 A3004 RMK AO2 SLP171 T01170100 50002=
202107140753 METAR KCLM 140753Z AUTO 28012KT 10SM CLR 12/10 A3004 RMK AO2 SLP171 T01170100 402000117=
202107140653 METAR KCLM 140653Z AUTO 29013KT 10SM CLR 13/10 A3003 RMK AO2 SLP170 T01280100=
202107140553 METAR KCLM 140553Z AUTO 30012KT 10SM CLR 12/11 A3003 RMK AO2 SLP169 T01220106 10189 20122 50003=
202107140453 METAR KCLM 140453Z AUTO 28011KT 10SM FEW007 12/11 A3003 RMK AO2 SLP170 T01220106=
202107140353 METAR KCLM 140353Z AUTO 28010G18KT 10SM CLR 13/11 A3002 RMK AO2 SLP167 T01280106=
202107140253 METAR KCLM 140253Z AUTO 28013G20KT 10SM CLR 14/11 A3002 RMK AO2 SLP167 T01440106 55007=
202107140153 METAR KCLM 140153Z AUTO 29014KT 10SM CLR 16/11 A3002 RMK AO2 SLP166 T01610106=
202107140053 METAR KCLM 140053Z AUTO 31009KT 10SM CLR 18/11 A3003 RMK AO2 SLP169 T01780111=
202107132353 METAR KCLM 132353Z AUTO 31008KT 10SM CLR 19/12 A3004 RMK AO2 SLP174 T01890117 10200 20161 58012=
202107132253 METAR KCLM 132253Z AUTO 33007KT 10SM CLR 19/12 A3006 RMK AO2 SLP179 T01890117=
202107132153 METAR KCLM 132153Z AUTO 30008KT 10SM CLR 19/12 A3007 RMK AO2 SLP183 T01890117=
202107132053 METAR KCLM 132053Z AUTO VRB05KT 10SM CLR 19/12 A3008 RMK AO2 SLP186 T01940117 58004=
202107131953 METAR KCLM 131953Z AUTO 33007KT 10SM CLR 17/12 A3009 RMK AO2 SLP189 T01720117=
202107131853 METAR KCLM 131853Z AUTO 30007KT 10SM CLR 17/11 A3009 RMK AO2 SLP190 T01720111=
202107131753 METAR KCLM 131753Z AUTO VRB06KT 10SM CLR 17/11 A3009 RMK AO2 SLP190 T01670111 10167 20117 58002=
202107131653 METAR KCLM 131653Z AUTO 32007KT 10SM CLR 16/11 A3010 RMK AO2 SLP192 T01560111=
202107131614 SPECI KCLM 131614Z AUTO 33005KT 10SM FEW007 14/11 A3010 RMK AO2 T01440106=
202107131553 METAR KCLM 131553Z AUTO VRB06KT 9SM OVC007 14/11 A3010 RMK AO2 SLP193 T01440111=
202107131453 METAR KCLM 131453Z AUTO 28007KT 9SM OVC005 13/11 A3010 RMK AO2 SLP192 T01280106 51004=
202107131442 SPECI KCLM 131442Z AUTO 27007KT 9SM OVC005 13/11 A3010 RMK AO2 T01280106=
202107131353 METAR KCLM 131353Z AUTO 30007KT 7SM OVC004 12/11 A3009 RMK AO2 SLP191 T01220106=
202107131253 METAR KCLM 131253Z AUTO 28007KT 6SM BR OVC004 12/10 A3009 RMK AO2 SLP189 T01170100=
202107131153 METAR KCLM 131153Z AUTO 28007KT 8SM OVC004 12/10 A3008 RMK AO2 SLP187 T01170100 10133 20117 53005=
202107131136 SPECI KCLM 131136Z AUTO 29005KT 8SM OVC004 12/10 A3008 RMK AO2 T01170100=
202107131053 METAR KCLM 131053Z AUTO 30010KT 8SM BKN005 12/10 A3007 RMK AO2 SLP183 T01170100=
202107131043 SPECI KCLM 131043Z AUTO 28008KT 8SM FEW005 12/10 A3007 RMK AO2 T01170100=
202107130953 METAR KCLM 130953Z AUTO 29012KT 10SM CLR 12/10 A3007 RMK AO2 SLP181 T01170100=
202107130853 METAR KCLM 130853Z AUTO 29009G15KT 10SM CLR 12/10 A3007 RMK AO2 SLP181 T01220100 52003=
202107130753 METAR KCLM 130753Z AUTO 30012KT 10SM CLR 13/10 A3006 RMK AO2 SLP180 T01280100 402060111=
202107130653 METAR KCLM 130653Z AUTO 30010KT 10SM CLR 13/10 A3006 RMK AO2 SLP179 T01280100=
202107130553 METAR KCLM 130553Z AUTO 30008G16KT 10SM CLR 13/11 A3006 RMK AO2 SLP178 T01330106 10200 20133 52005=
202107130453 METAR KCLM 130453Z AUTO 29012G17KT 10SM CLR 14/11 A3006 RMK AO2 SLP178 T01390106=
202107130353 METAR KCLM 130353Z AUTO 29009KT 10SM CLR 14/11 A3004 RMK AO2 SLP172 T01440111=
202107130253 METAR KCLM 130253Z AUTO 28011KT 10SM CLR 17/12 A3004 RMK AO2 SLP172 T01670117 56005=
202107130153 METAR KCLM 130153Z AUTO 28010KT 10SM CLR 18/12 A3004 RMK AO2 SLP172 T01830117=
202107130053 METAR KCLM 130053Z AUTO 32007KT 10SM CLR 19/12 A3004 RMK AO2 SLP173 T01890122=
202107122353 METAR KCLM 122353Z AUTO 30009KT 10SM CLR 19/12 A3006 RMK AO2 SLP177 T01940122 10206 20167 58012=
202107122253 METAR KCLM 122253Z AUTO 31009KT 10SM CLR 19/12 A3007 RMK AO2 SLP182 T01940122=
202107122153 METAR KCLM 122153Z AUTO 29009KT 10SM CLR 20/12 A3008 RMK AO2 SLP185 T02000122=
202107122053 METAR KCLM 122053Z AUTO VRB04KT 10SM CLR 19/12 A3009 RMK AO2 SLP189 T01940117 58005=
202107121953 METAR KCLM 121953Z AUTO 32005KT 10SM CLR 19/11 A3010 RMK AO2 SLP191 T01890111=
202107121853 METAR KCLM 121853Z AUTO VRB05KT 10SM CLR 18/11 A3010 RMK AO2 SLP194 T01830106=
202107121753 METAR KCLM 121753Z AUTO VRB05KT 10SM CLR 17/11 A3010 RMK AO2 SLP194 T01720111 10178 20111 51003=
202107121653 METAR KCLM 121653Z AUTO 30005KT 10SM CLR 16/11 A3010 RMK AO2 SLP192 T01560111=
202107121553 METAR KCLM 121553Z AUTO VRB03KT 10SM CLR 14/11 A3010 RMK AO2 SLP194 T01440111=
202107121543 SPECI KCLM 121543Z AUTO 32003KT 10SM SCT004 14/11 A3010 RMK AO2 T01390111=
202107121453 METAR KCLM 121453Z AUTO 31005KT 3SM BR OVC002 12/11 A3010 RMK AO2 SLP191 T01170111 53004=
202107121443 SPECI KCLM 121443Z AUTO 30006KT 3SM BR OVC002 12/11 A3010 RMK AO2 T01170111=
202107121430 SPECI KCLM 121430Z AUTO 30005KT 1 1/2SM BR OVC002 12/11 A3009 RMK AO2 T01170106=
202107121353 METAR KCLM 121353Z AUTO 30006KT 1/2SM FG VV002 11/11 A3009 RMK AO2 SLP190 T01110106=
202107121327 SPECI KCLM 121327Z AUTO 28003KT 1/2SM FG VV002 11/11 A3009 RMK AO2 T01110106=
202107121319 SPECI KCLM 121319Z AUTO 29006KT 1/4SM FG VV002 11/11 A3009 RMK AO2 T01110106=
202107121300 SPECI KCLM 121300Z AUTO 29007KT 1/2SM FG VV002 11/11 A3008 RMK AO2 T01110106=
202107121253 METAR KCLM 121253Z AUTO 29008KT 1/4SM FG VV002 11/11 A3008 RMK AO2 SLP187 T01110106=
202107121235 SPECI KCLM 121235Z AUTO 29006KT 3/4SM BR VV002 11/11 A3008 RMK AO2 T01110106=
202107121153 METAR KCLM 121153Z AUTO 28006KT 1 3/4SM BR OVC002 11/11 A3008 RMK AO2 SLP187 T01110106 10122 20111 53004=
202107121136 SPECI KCLM 121136Z AUTO 29006KT 1 1/2SM BR OVC002 11/11 A3008 RMK AO2 T01110106=
202107121124 SPECI KCLM 121124Z AUTO 29006KT 2 1/2SM BR OVC002 11/11 A3008 RMK AO2 T01110106=
202107121053 METAR KCLM 121053Z AUTO 29009KT 3SM BR OVC002 11/11 A3007 RMK AO2 SLP184 T01110106=
202107120953 METAR KCLM 120953Z AUTO 29007KT 10SM OVC002 12/11 A3008 RMK AO2 SLP184 T01170106=
202107120853 METAR KCLM 120853Z AUTO 30007KT 10SM OVC002 12/11 A3007 RMK AO2 SLP182 T01170106 58005=
202107120753 METAR KCLM 120753Z AUTO 30010G16KT 10SM BKN003 12/11 A3008 RMK AO2 SLP184 T01170106 401890111=
202107120727 SPECI KCLM 120727Z AUTO 30010KT 10SM BKN003 12/11 A3008 RMK AO2 T01170106=
202107120653 METAR KCLM 120653Z AUTO 30011KT 10SM FEW003 12/11 A3008 RMK AO2 SLP185 T01170106=
202107120553 METAR KCLM 120553Z AUTO 30010KT 10SM CLR 12/11 A3008 RMK AO2 SLP187 T01170106 10183 20117 56003=
202107120453 METAR KCLM 120453Z AUTO 29008KT 10SM FEW005 12/11 A3009 RMK AO2 SLP188 T01220106=
202107120441 SPECI KCLM 120441Z AUTO 29008KT 10SM FEW005 12/11 A3009 RMK AO2 T01220106=
202107120353 METAR KCLM 120353Z AUTO 28008KT 10SM CLR 13/11 A3009 RMK AO2 SLP188 T01280106=
202107120253 METAR KCLM 120253Z AUTO 31008KT 10SM CLR 14/11 A3009 RMK AO2 SLP190 T01440106 56009=
202107120153 METAR KCLM 120153Z AUTO 31008KT 10SM CLR 16/11 A3009 RMK AO2 SLP191 T01610111=
202107120053 METAR KCLM 120053Z AUTO 31007KT 10SM CLR 18/12 A3010 RMK AO2 SLP193 T01780117=
202107112353 METAR KCLM 112353Z AUTO 30010KT 10SM CLR 17/12 A3012 RMK AO2 SLP200 T01720117 10189 20156 56013=
202107112253 METAR KCLM 112253Z AUTO 32009KT 10SM CLR 18/12 A3013 RMK AO2 SLP204 T01780117=
202107112153 METAR KCLM 112153Z AUTO 30010KT 10SM CLR 18/12 A3015 RMK AO2 SLP209 T01780117=
202107112053 METAR KCLM 112053Z AUTO 29010KT 10SM CLR 18/12 A3016 RMK AO2 SLP213 T01830117 58011=
202107111953 METAR KCLM 111953Z AUTO 32009KT 10SM CLR 17/12 A3018 RMK AO2 SLP219 T01720117=
202107111853 METAR KCLM 111853Z AUTO 31008KT 10SM CLR 17/11 A3019 RMK AO2 SLP223 T01670111=
202107111753 METAR KCLM 111753Z AUTO 30011KT 10SM CLR 16/11 A3019 RMK AO2 SLP224 T01610106 10161 20111 51002=
202107111653 METAR KCLM 111653Z AUTO 31008KT 280V360 10SM SCT010 16/11 A3019 RMK AO2 SLP222 T01560106=
202107111641 SPECI KCLM 111641Z AUTO 31010KT 10SM BKN010 15/11 A3019 RMK AO2 T01500106=
202107111553 METAR KCLM 111553Z AUTO 31007KT 10SM OVC008 14/11 A3019 RMK AO2 SLP224 T01390106=
202107111453 METAR KCLM 111453Z AUTO 28007KT 10SM BKN005 13/11 A3019 RMK AO2 CIG 005V008 SLP222 T01280106 53008=
202107111421 SPECI KCLM 111421Z AUTO 28010KT 10SM BKN005 12/11 A3018 RMK AO2 T01220106=
202107111353 METAR KCLM 111353Z AUTO 29009KT 10SM BKN004 12/11 A3018 RMK AO2 SLP218 T01170106=
202107111332 SPECI KCLM 111332Z AUTO 30011KT 10SM BKN004 12/10 A3017 RMK AO2 T01170100=
202107111309 SPECI KCLM 111309Z AUTO 30010KT 10SM FEW003 12/10 A3017 RMK AO2 T01170100=
202107111253 METAR KCLM 111253Z AUTO 29012KT 10SM CLR 11/10 A3017 RMK AO2 SLP215 T01110100=
202107111153 METAR KCLM 111153Z AUTO 30010KT 10SM CLR 12/10 A3016 RMK AO2 SLP213 T01170100 10139 20117 50002=
202107111053 METAR KCLM 111053Z AUTO 29012KT 10SM CLR 12/10 A3017 RMK AO2 SLP216 T01170100=
202107110953 METAR KCLM 110953Z AUTO 29011KT 10SM CLR 12/09 A3017 RMK AO2 SLP215 T01170094=
202107110853 METAR KCLM 110853Z AUTO 31009KT 10SM CLR 13/09 A3015 RMK AO2 SLP211 T01280089 58002=
202107110753 METAR KCLM 110753Z AUTO 30011KT 10SM CLR 13/09 A3016 RMK AO2 SLP212 T01330089 401780111=
202107110653 METAR KCLM 110653Z AUTO 29014KT 10SM CLR 13/09 A3016 RMK AO2 SLP213 T01330094=
202107110553 METAR KCLM 110553Z AUTO 27012KT 10SM CLR 13/09 A3016 RMK AO2 SLP212 T01280094 10167 20128 53001=
202107110453 METAR KCLM 110453Z AUTO 28012KT 10SM CLR 13/11 A3016 RMK AO2 SLP213 T01330106=
202107110353 METAR KCLM 110353Z AUTO 28013KT 10SM CLR 14/11 A3015 RMK AO2 SLP210 T01390106=
202107110253 METAR KCLM 110253Z AUTO 28011G17KT 10SM CLR 15/11 A3015 RMK AO2 SLP211 T01500106 56008=
202107110153 METAR KCLM 110153Z AUTO 29012G21KT 10SM CLR 16/11 A3016 RMK AO2 SLP213 T01560106=
202107110053 METAR KCLM 110053Z AUTO 31010KT 10SM CLR 16/11 A3017 RMK AO2 SLP215 T01560111=
202107102353 METAR KCLM 102353Z AUTO 30013G18KT 10SM CLR 16/11 A3018 RMK AO2 SLP220 T01610111 10178 20144 58009=
202107102253 METAR KCLM 102253Z AUTO 31010KT 10SM CLR 17/11 A3019 RMK AO2 SLP224 T01720111=
202107102153 METAR KCLM 102153Z AUTO 29011KT 10SM CLR 17/11 A3020 RMK AO2 SLP226 T01670111=
202107102053 METAR KCLM 102053Z AUTO 31009G17KT 10SM CLR 17/11 A3021 RMK AO2 SLP229 T01720111 58001=
202107101953 METAR KCLM 101953Z AUTO 31010G16KT 10SM CLR 17/11 A3021 RMK AO2 SLP230 T01670106=
202107101853 METAR KCLM 101853Z AUTO 30014G19KT 10SM CLR 16/11 A3021 RMK AO2 SLP231 T01610106=
202107101753 METAR KCLM 101753Z AUTO 32011KT 10SM CLR 15/11 A3021 RMK AO2 SLP229 T01500106 10156 20111 53006=
202107101653 METAR KCLM 101653Z AUTO 32007KT 10SM FEW009 15/11 A3020 RMK AO2 SLP226 T01500106=
202107101646 SPECI KCLM 101646Z AUTO 30008KT 10SM FEW008 15/11 A3020 RMK AO2 T01500106=
202107101553 METAR KCLM 101553Z AUTO 30009KT 10SM OVC007 14/11 A3020 RMK AO2 SLP226 T01390106=
202107101453 METAR KCLM 101453Z AUTO 29009KT 10SM OVC007 13/10 A3019 RMK AO2 SLP223 T01280100 51014=
202107101353 METAR KCLM 101353Z AUTO 29009KT 10SM OVC006 12/10 A3018 RMK AO2 SLP220 T01170100=
202107101253 METAR KCLM 101253Z AUTO 29012KT 10SM BKN005 11/09 A3016 RMK AO2 SLP215 T01110094=
202107101210 SPECI KCLM 101210Z AUTO 30011KT 10SM BKN005 11/09 A3015 RMK AO2 T01110094=
202107101153 METAR KCLM 101153Z AUTO 29010KT 10SM BKN004 11/09 A3015 RMK AO2 SLP209 T01110094 10117 20111 51011=
202107101053 METAR KCLM 101053Z AUTO 29008KT 10SM OVC003 12/11 A3014 RMK AO2 SLP207 T01170106=
202107100953 METAR KCLM 100953Z AUTO 29011G18KT 5SM BR OVC002 12/11 A3013 RMK AO2 SLP204 T01170106=
202107100933 SPECI KCLM 100933Z AUTO 29009KT 3SM BR OVC002 11/11 A3013 RMK AO2 T01110106=
202107100909 SPECI KCLM 100909Z AUTO 29011G18KT 1SM BR VV002 11/11 A3012 RMK AO2 T01110106=
202107100853 METAR KCLM 100853Z AUTO 29009KT 3/4SM BR VV002 11/11 A3012 RMK AO2 SLP198 T01110106 53004=
202107100824 SPECI KCLM 100824Z AUTO 29011KT 1 1/2SM BR OVC002 11/10 A3011 RMK AO2 T01110100=
202107100809 SPECI KCLM 100809Z AUTO 28009KT 2SM BR OVC002 12/11 A3011 RMK AO2 T01170106=
202107100753 METAR KCLM 100753Z AUTO 29006KT 4SM BR OVC002 12/11 A3010 RMK AO2 SLP194 T01170106 402060111=
202107100653 METAR KCLM 100653Z AUTO 29006KT 10SM OVC002 12/11 A3010 RMK AO2 SLP192 T01170106=
202107100553 METAR KCLM 100553Z AUTO 30006KT 7SM OVC002 12/11 A3010 RMK AO2 SLP194 T01170106 10189 20117 53009=
202107100541 SPECI KCLM 100541Z AUTO 30007KT 10SM BKN003 12/11 A3010 RMK AO2 T01170106=
202107100517 SPECI KCLM 100517Z AUTO 28007KT 10SM FEW003 12/11 A3009 RMK AO2 T01170106=
202107100453 METAR KCLM 100453Z AUTO 29006KT 10SM CLR 12/11 A3008 RMK AO2 SLP187 T01220106=
202107100353 METAR KCLM 100353Z AUTO 27004KT 10SM CLR 13/11 A3007 RMK AO2 SLP184 T01330106=
202107100253 METAR KCLM 100253Z AUTO 31005KT 10SM CLR 15/11 A3007 RMK AO2 SLP184 T01500111 55005=
202107100153 METAR KCLM 100153Z AUTO 30006KT 10SM CLR 17/11 A3007 RMK AO2 SLP183 T01670111=
202107100053 METAR KCLM 100053Z AUTO 30010KT 10SM CLR 18/12 A3008 RMK AO2 SLP186 T01780117=
202107092353 METAR KCLM 092353Z AUTO 31007KT 10SM CLR 18/12 A3009 RMK AO2 SLP189 T01830117 10206 20139 58016=
202107092253 METAR KCLM 092253Z AUTO 32006KT 10SM CLR 18/11 A3011 RMK AO2 SLP197 T01780111 TSNO=
202107092153 METAR KCLM 092153Z AUTO 29007KT 10SM CLR 19/12 A3013 RMK AO2 SLP202 T01940117=
202107092053 METAR KCLM 092053Z AUTO 31006KT 10SM CLR 17/11 A3014 RMK AO2 SLP205 T01720111 58007=
202107091953 METAR KCLM 091953Z AUTO 01006KT 10SM CLR 17/11 A3015 RMK AO2 SLP209 T01670111=
202107091853 METAR KCLM 091853Z AUTO 28006KT 10SM CLR 16/11 A3016 RMK AO2 SLP212 T01560111=
202107091753 METAR KCLM 091753Z AUTO 01006KT 10SM CLR 14/11 A3016 RMK AO2 SLP212 T01440106 10150 20111 50003=
202107091735 SPECI KCLM 091735Z AUTO 35005KT 10SM SCT005 14/11 A3016 RMK AO2 T01440111=
202107091653 METAR KCLM 091653Z AUTO 00000KT 10SM OVC003 13/11 A3016 RMK AO2 SLP212 T01280106=
202107091553 METAR KCLM 091553Z AUTO VRB05KT 4SM BR OVC002 12/11 A3016 RMK AO2 SLP213 T01170106=
202107091546 SPECI KCLM 091546Z AUTO 30006KT 3SM BR OVC002 12/11 A3016 RMK AO2 T01170111=
202107091538 SPECI KCLM 091538Z AUTO 33004KT 1 1/2SM BR OVC002 12/11 A3016 RMK AO2 T01170111=
202107091508 SPECI KCLM 091508Z AUTO 31003KT 2 1/2SM BR OVC002 12/11 A3015 RMK AO2 VIS 1 3/4V4 T01170111=
202107091453 METAR KCLM 091453Z AUTO 31004KT 1 1/2SM BR OVC002 12/11 A3015 RMK AO2 VIS 1V2 SLP209 T01170111 51004=
202107091425 SPECI KCLM 091425Z AUTO 31003KT 1SM BR OVC002 12/11 A3015 RMK AO2 T01170111=
202107091353 METAR KCLM 091353Z AUTO 30003KT 3/4SM BR OVC002 12/11 A3014 RMK AO2 SLP208 T01170106=
202107091351 SPECI KCLM 091351Z AUTO 31003KT 3/4SM BR OVC002 12/11 A3014 RMK AO2=
202107091340 SPECI KCLM 091340Z AUTO 00000KT 1SM BR OVC002 12/11 A3014 RMK AO2 T01170111=
202107091319 SPECI KCLM 091319Z AUTO 00000KT 3/4SM BR OVC001 12/11 A3014 RMK AO2 T01170111=
202107091253 METAR KCLM 091253Z AUTO 29005KT 1SM BR OVC001 12/11 A3014 RMK AO2 SLP205 T01170111=
202107091153 METAR KCLM 091153Z AUTO 30007KT 1 1/2SM BR OVC001 12/11 A3012 RMK AO2 SLP199 T01170106 10122 20117 51005=
202107091132 SPECI KCLM 091132Z AUTO 30005KT 2SM BR OVC001 12/11 A3011 RMK AO2 T01170106=
202107091111 SPECI KCLM 091111Z AUTO 29008KT 1 1/2SM BR OVC001 12/11 A3012 RMK AO2 T01170106=
202107091053 METAR KCLM 091053Z AUTO 29008KT 1 1/4SM BR OVC002 12/11 A3011 RMK AO2 SLP197 T01170106=
202107091045 SPECI KCLM 091045Z AUTO 30006KT 2SM BR OVC002 12/11 A3011 RMK AO2 T01170106=
202107090953 METAR KCLM 090953Z AUTO 30007KT 8SM OVC002 12/11 A3010 RMK AO2 SLP194 T01170106=
202107090853 METAR KCLM 090853Z AUTO 30006KT 10SM OVC003 12/11 A3009 RMK AO2 SLP190 T01170106 51006=
202107090753 METAR KCLM 090753Z AUTO 29005KT 10SM OVC003 12/11 A3009 RMK AO2 SLP187 T01220106 401830117=
202107090653 METAR KCLM 090653Z AUTO 30008KT 10SM BKN004 12/11 A3008 RMK AO2 SLP186 T01220106=
202107090634 SPECI KCLM 090634Z AUTO 30008KT 10SM BKN004 12/11 A3008 RMK AO2 T01220106=
202107090615 SPECI KCLM 090615Z AUTO 30008KT 10SM SCT004 12/11 A3008 RMK AO2 T01220106=
202107090553 METAR KCLM 090553Z AUTO 29008KT 10SM CLR 12/11 A3007 RMK AO2 SLP184 T01220106 10172 20122 51011=
202107090453 METAR KCLM 090453Z AUTO 28008KT 10SM CLR 13/10 A3007 RMK AO2 SLP184 T01280100=
202107090353 METAR KCLM 090353Z AUTO 29007KT 10SM CLR 14/11 A3005 RMK AO2 SLP176 T01390106=
202107090253 METAR KCLM 090253Z AUTO 30007KT 10SM CLR 16/11 A3004 RMK AO2 SLP173 T01610106 55002=
202107090153 METAR KCLM 090153Z AUTO 30009KT 10SM CLR 17/11 A3003 RMK AO2 SLP169 T01670106=
202107090053 METAR KCLM 090053Z AUTO 30010KT 10SM CLR 17/11 A3004 RMK AO2 SLP173 T01720106=
202107082353 METAR KCLM 082353Z AUTO 31013G17KT 10SM CLR 18/11 A3005 RMK AO2 SLP175 T01780111 10183 20144 58003=
202107082253 METAR KCLM 082253Z AUTO 30012KT 10SM CLR 18/11 A3005 RMK AO2 SLP177 T01780106=
202107082153 METAR KCLM 082153Z AUTO 33007KT 10SM CLR 17/11 A3006 RMK AO2 SLP178 T01720106=
202107082053 METAR KCLM 082053Z AUTO 29009KT 10SM CLR 18/11 A3006 RMK AO2 SLP179 T01780111 51006=
202107081953 METAR KCLM 081953Z AUTO 33008KT 10SM CLR 16/11 A3006 RMK AO2 SLP179 T01610106=
202107081853 METAR KCLM 081853Z AUTO 01006KT 10SM CLR 15/10 A3005 RMK AO2 SLP177 T01500100=
202107081753 METAR KCLM 081753Z AUTO 02004KT 10SM CLR 16/11 A3004 RMK AO2 SLP173 T01560106 10156 20122 51004=
202107081728 SPECI KCLM 081728Z AUTO VRB05KT 10SM SCT013 15/10 A3004 RMK AO2 T01500100=
202107081653 METAR KCLM 081653Z AUTO VRB03KT 10SM OVC011 14/10 A3004 RMK AO2 SLP172 T01440100=
202107081553 METAR KCLM 081553Z AUTO 29004KT 10SM OVC011 13/10 A3004 RMK AO2 SLP173 T01330100=
202107081453 METAR KCLM 081453Z AUTO 33003KT 10SM OVC011 13/11 A3003 RMK AO2 SLP169 T01330106 55002=
202107081353 METAR KCLM 081353Z AUTO 00000KT 10SM OVC012 13/11 A3003 RMK AO2 SLP168 T01280106=
202107081253 METAR KCLM 081253Z AUTO 00000KT 10SM OVC013 12/11 A3003 RMK AO2 SLP168 T01220106=
202107081153 METAR KCLM 081153Z AUTO 00000KT 10SM OVC012 12/11 A3004 RMK AO2 SLP171 T01220111 10133 20122 55001=
202107081053 METAR KCLM 081053Z AUTO 27003KT 10SM OVC010 12/11 A3003 RMK AO2 CIG 006V013 SLP170 T01220106=
202107081050 SPECI KCLM 081050Z AUTO 28003KT 10SM OVC010 12/11 A3003 RMK AO2 CIG 006V013=
202107081028 SPECI KCLM 081028Z AUTO 26003KT 7SM OVC009 12/11 A3003 RMK AO2 CIG 006V013 T01220111=
202107081009 SPECI KCLM 081009Z AUTO 22003KT 5SM BR OVC010 12/11 A3004 RMK AO2 CIG 007V013 T01220111=
202107080953 METAR KCLM 080953Z AUTO 00000KT 5SM BR OVC008 12/11 A3004 RMK AO2 CIG 007V013 SLP171 T01220111=
202107080917 SPECI KCLM 080917Z AUTO 25003KT 8SM OVC009 13/11 A3004 RMK AO2 T01280106=
202107080853 METAR KCLM 080853Z AUTO 30004KT 10SM OVC010 13/11 A3004 RMK AO2 SLP171 T01280106 55002=
202107080753 METAR KCLM 080753Z AUTO 27005KT 10SM OVC012 13/11 A3003 RMK AO2 SLP169 T01330106 401670117=
202107080653 METAR KCLM 080653Z AUTO 30006KT 10SM OVC012 13/11 A3003 RMK AO2 SLP169 T01330106=
202107080553 METAR KCLM 080553Z AUTO 28008KT 10SM OVC013 13/11 A3004 RMK AO2 SLP173 T01330106 10161 20133 50003=
202107080453 METAR KCLM 080453Z AUTO 29007KT 10SM OVC014 13/11 A3004 RMK AO2 SLP174 T01330106=
202107080429 SPECI KCLM 080429Z AUTO 28010KT 10SM OVC014 14/11 A3004 RMK AO2 T01390106=
202107080353 METAR KCLM 080353Z AUTO 27008KT 10SM OVC015 14/11 A3003 RMK AO2 SLP170 T01390106=
202107080331 SPECI KCLM 080331Z AUTO 27007KT 10SM OVC015 14/11 A3003 RMK AO2 T01390106=
202107080253 METAR KCLM 080253Z AUTO 30004KT 10SM OVC013 14/11 A3003 RMK AO2 SLP170 T01390106 55002=
202107080240 SPECI KCLM 080240Z AUTO 31007KT 10SM OVC013 14/11 A3003 RMK AO2 T01440106=
202107080153 METAR KCLM 080153Z AUTO 31008KT 10SM OVC015 15/11 A3003 RMK AO2 SLP167 T01500106=
202107080053 METAR KCLM 080053Z AUTO 31007KT 10SM OVC016 16/11 A3003 RMK AO2 SLP168 T01560111=
202107072353 METAR KCLM 072353Z AUTO 30008G16KT 10SM OVC016 16/11 A3004 RMK AO2 SLP171 T01610106 10167 20133 58002=
202107072253 METAR KCLM 072253Z AUTO 31007KT 10SM OVC015 16/11 A3006 RMK AO2 SLP178 T01610106=
202107072224 SPECI KCLM 072224Z AUTO 30007KT 10SM OVC015 16/11 A3006 RMK AO2 T01610106=
202107072153 METAR KCLM 072153Z AUTO 31008KT 10SM OVC013 16/11 A3006 RMK AO2 SLP180 T01560106=
202107072053 METAR KCLM 072053Z AUTO 32009KT 10SM OVC012 15/11 A3004 RMK AO2 SLP174 T01500106 53003=
202107071953 METAR KCLM 071953Z AUTO 30012KT 10SM OVC012 16/11 A3003 RMK AO2 SLP168 T01560111=
202107071853 METAR KCLM 071853Z AUTO 31006KT 10SM OVC010 14/11 A3004 RMK AO2 SLP171 T01440106=
202107071851 SPECI KCLM 071851Z AUTO VRB05KT 10SM OVC010 15/11 A3004 RMK AO2=
202107071753 METAR KCLM 071753Z AUTO 30007KT 10SM OVC008 14/11 A3003 RMK AO2 SLP169 T01390106 10144 20117 51012=
202107071653 METAR KCLM 071653Z AUTO VRB05KT 10SM OVC007 14/11 A3002 RMK AO2 SLP165 T01390111=
202107071553 METAR KCLM 071553Z AUTO 27005KT 10SM OVC006 13/11 A3001 RMK AO2 SLP162 T01280106=
202107071507 SPECI KCLM 071507Z AUTO 29007KT 10SM OVC005 13/11 A3000 RMK AO2 T01280111=
202107071453 METAR KCLM 071453Z AUTO 30006KT 10SM OVC004 13/11 A2999 RMK AO2 SLP157 T01280111 51012=
202107071353 METAR KCLM 071353Z AUTO 29010KT 10SM OVC003 12/11 A2998 RMK AO2 SLP153 T01220111=
202107071253 METAR KCLM 071253Z AUTO 29008KT 7SM OVC002 12/11 A2998 RMK AO2 SLP151 T01170111=
202107071221 SPECI KCLM 071221Z AUTO 28011KT 4SM BR OVC002 12/11 A2996 RMK AO2 T01170111=
202107071153 METAR KCLM 071153Z AUTO 29011G17KT 2 1/2SM BR OVC002 12/11 A2996 RMK AO2 VIS 2 1/2V3 SLP145 T01170111 10122 20117 51006=
202107071150 SPECI KCLM 071150Z AUTO 30008G17KT 2 1/2SM BR OVC002 12/11 A2996 RMK AO2=
202107071130 SPECI KCLM 071130Z AUTO 29012G18KT 2SM BR OVC001 12/11 A2995 RMK AO2 T01170111=
202107071123 SPECI KCLM 071123Z AUTO 29013G17KT 2SM BR OVC002 12/11 A2995 RMK AO2 T01170111=
202107071102 SPECI KCLM 071102Z AUTO 29010G17KT 1SM BR VV002 12/11 A2995 RMK AO2 T01170111=
202107071053 METAR KCLM 071053Z AUTO 28009KT 3/4SM BR VV002 12/11 A2995 RMK AO2 SLP141 T01170111=
202107070953 METAR KCLM 070953Z AUTO 29012G17KT 3/4SM BR VV002 12/11 A2994 RMK AO2 SLP139 T01170111=
202107070940 SPECI KCLM 070940Z AUTO 28009KT 3/4SM BR VV002 12/11 A2994 RMK AO2 T01220111=
202107070934 SPECI KCLM 070934Z AUTO 29011KT 1SM BR OVC001 12/11 A2994 RMK AO2 T01220111=
202107070907 SPECI KCLM 070907Z AUTO 30009KT 1SM BR VV002 12/11 A2993 RMK AO2 T01220111=
202107070853 METAR KCLM 070853Z AUTO 30008KT 3/4SM BR VV002 12/11 A2993 RMK AO2 SLP136 T01220111 55000=
202107070753 METAR KCLM 070753Z AUTO 29009KT 1SM BR OVC001 12/11 A2993 RMK AO2 SLP135 T01220111 402060111=
202107070720 SPECI KCLM 070720Z AUTO 29008KT 1 1/4SM BR OVC001 12/11 A2993 RMK AO2 T01220111=
202107070653 METAR KCLM 070653Z AUTO 28008KT 1 3/4SM BR OVC002 12/11 A2993 RMK AO2 SLP136 T01220111=
202107070650 SPECI KCLM 070650Z AUTO 29006KT 2SM BR OVC002 12/11 A2993 RMK AO2=
202107070621 SPECI KCLM 070621Z AUTO 28009KT 5SM BR BKN003 12/11 A2993 RMK AO2 T01220111=
202107070609 SPECI KCLM 070609Z AUTO 29007KT 10SM SCT003 12/11 A2993 RMK AO2 T01220111=
202107070553 METAR KCLM 070553Z AUTO 28008KT 10SM CLR 12/11 A2993 RMK AO2 SLP136 T01220111 10200 20122 56001=
202107070453 METAR KCLM 070453Z AUTO 31005KT 10SM CLR 13/11 A2993 RMK AO2 SLP136 T01280111=
202107070353 METAR KCLM 070353Z AUTO 28004KT 10SM CLR 16/12 A2993 RMK AO2 SLP133 T01610122=
202107070253 METAR KCLM 070253Z AUTO 32003KT 10SM CLR 16/12 A2994 RMK AO2 SLP137 T01560117 56014=
202107070153 METAR KCLM 070153Z AUTO 29006KT 10SM CLR 18/12 A2995 RMK AO2 SLP141 T01780122=
202107070053 METAR KCLM 070053Z AUTO 29005KT 10SM CLR 19/13 A2995 RMK AO2 SLP142 T01940128=
202107062353 METAR KCLM 062353Z AUTO 29009KT 10SM CLR 19/12 A2998 RMK AO2 SLP151 T01890122 10206 20156 58017=
202107062253 METAR KCLM 062253Z AUTO 31006KT 10SM CLR 19/12 A2999 RMK AO2 SLP157 T01890122=
202107062153 METAR KCLM 062153Z AUTO 30007KT 10SM CLR 19/12 A3002 RMK AO2 SLP164 T01940122=
202107062053 METAR KCLM 062053Z AUTO 34006KT 10SM CLR 19/12 A3003 RMK AO2 SLP168 T01890122 58011=
202107061953 METAR KCLM 061953Z AUTO 35004KT 10SM CLR 18/12 A3004 RMK AO2 SLP173 T01780117=
202107061853 METAR KCLM 061853Z AUTO VRB04KT 10SM CLR 17/12 A3006 RMK AO2 SLP178 T01720117=
202107061753 METAR KCLM 061753Z AUTO VRB05KT 10SM CLR 16/12 A3006 RMK AO2 SLP179 T01610117 10172 20111 58007=
202107061708 SPECI KCLM 061708Z AUTO 32004KT 10SM SCT005 15/12 A3007 RMK AO2 T01500117=
202107061653 METAR KCLM 061653Z AUTO 31005KT 10SM OVC004 14/11 A3007 RMK AO2 SLP183 T01390111=
202107061600 SPECI KCLM 061600Z AUTO 31004KT 7SM OVC002 12/11 A3008 RMK AO2 T01220111=
202107061553 METAR KCLM 061553Z AUTO 32004KT 2 1/2SM BR OVC002 12/11 A3008 RMK AO2 VIS 1 1/4V5 SLP188 T01170111=
202107061537 SPECI KCLM 061537Z AUTO 32004KT 1 3/4SM BR OVC002 12/11 A3008 RMK AO2 T01170111=
202107061522 SPECI KCLM 061522Z AUTO 25004KT 3SM BR OVC002 12/11 A3008 RMK AO2 T01170111=
202107061510 SPECI KCLM 061510Z AUTO 28004KT 1 1/4SM BR OVC002 12/11 A3008 RMK AO2 VIS 3/4V2 1/2 T01170111=
202107061453 METAR KCLM 061453Z AUTO 27003KT 1/2SM FG VV002 12/11 A3008 RMK AO2 SLP187 T01170111 53005=
202107061438 SPECI KCLM 061438Z AUTO 27003KT 1/2SM FG VV002 12/11 A3009 RMK AO2 T01170111=
202107061353 METAR KCLM 061353Z AUTO 28004KT 1/4SM FG VV002 11/11 A3008 RMK AO2 SLP185 T01110106=
202107061316 SPECI KCLM 061316Z AUTO 28004KT 1/4SM FG VV002 11/11 A3007 RMK AO2 T01110106=
202107061253 METAR KCLM 061253Z AUTO 28004KT 1/2SM FG VV002 11/11 A3007 RMK AO2 SLP182 T01110106=
202107061250 SPECI KCLM 061250Z AUTO 28004KT 1/4SM FG VV002 11/11 A3007 RMK AO2=
202107061242 SPECI KCLM 061242Z AUTO 28005KT 1/2SM FG VV002 11/11 A3007 RMK AO2 T01110106=
202107061232 SPECI KCLM 061232Z AUTO 28005KT 1/4SM FG VV002 11/11 A3007 RMK AO2 T01110106=
202107061153 METAR KCLM 061153Z AUTO 28007KT 3/4SM BR VV002 12/11 A3007 RMK AO2 SLP183 T01170106 10122 20111 53001=
202107061137 SPECI KCLM 061137Z AUTO 30005KT 1SM BR VV002 12/11 A3007 RMK AO2 T01170106=
202107061108 SPECI KCLM 061108Z AUTO 29008KT 1 1/4SM BR OVC001 12/11 A3007 RMK AO2 T01170106=
202107061052 METAR KCLM 061052Z AUTO 29005KT 2SM BR OVC001 12/11 A3007 RMK AO2 SLP181 T01170111=
202107061051 SPECI KCLM 061051Z AUTO 29005KT 2SM BR OVC001 12/11 A3007 RMK AO2=
202107061045 SPECI KCLM 061045Z AUTO 29004KT 1 3/4SM BR OVC002 12/11 A3007 RMK AO2 T01170111=
202107061006 SPECI KCLM 061006Z AUTO 30005KT 2SM BR OVC002 12/11 A3007 RMK AO2 T01170111=
202107060953 METAR KCLM 060953Z AUTO 30006KT 1 3/4SM BR OVC002 12/11 A3006 RMK AO2 SLP180 T01170111=
202107060930 SPECI KCLM 060930Z AUTO 29006KT 2 1/2SM BR OVC002 12/11 A3007 RMK AO2 T01170111=
202107060853 METAR KCLM 060853Z AUTO 29008KT 4SM BR OVC002 12/11 A3007 RMK AO2 SLP182 T01220111 51001=
202107060753 METAR KCLM 060753Z AUTO 29006KT 8SM OVC003 12/11 A3007 RMK AO2 SLP181 T01220111 401940117=
202107060653 METAR KCLM 060653Z AUTO 29007KT 9SM OVC003 12/11 A3007 RMK AO2 SLP182 T01220111=
202107060553 METAR KCLM 060553Z AUTO 29006KT 8SM OVC003 12/11 A3006 RMK AO2 SLP180 T01220111 10178 20122 56000=
202107060506 SPECI KCLM 060506Z AUTO 29007KT 10SM OVC004 12/11 A3007 RMK AO2 T01220111=
202107060453 METAR KCLM 060453Z AUTO 28006KT 10SM BKN005 12/11 A3007 RMK AO2 SLP182 T01220111=
202107060438 SPECI KCLM 060438Z AUTO 28005KT 10SM BKN005 12/11 A3007 RMK AO2 T01220111=
202107060412 SPECI KCLM 060412Z AUTO 29009KT 10SM FEW005 13/11 A3006 RMK AO2 T01280111=
202107060353 METAR KCLM 060353Z AUTO 29007KT 10SM CLR 13/11 A3006 RMK AO2 SLP179 T01280111=
202107060253 METAR KCLM 060253Z AUTO 28010KT 10SM CLR 15/11 A3007 RMK AO2 SLP181 T01500111 56004=
202107060153 METAR KCLM 060153Z AUTO 32007KT 280V350 10SM CLR 16/11 A3007 RMK AO2 SLP181 T01610111=
202107060053 METAR KCLM 060053Z AUTO 31009KT 10SM CLR 17/12 A3007 RMK AO2 SLP183 T01670117=
202107052353 METAR KCLM 052353Z AUTO 31010G16KT 10SM CLR 18/12 A3008 RMK AO2 SLP185 T01780117 10194 20156 55004=
202107052253 METAR KCLM 052253Z AUTO 31008KT 10SM CLR 18/12 A3008 RMK AO2 SLP185 T01830117=
202107052153 METAR KCLM 052153Z AUTO 30009KT 10SM CLR 18/11 A3009 RMK AO2 SLP189 T01780111=
202107052053 METAR KCLM 052053Z AUTO 32008KT 10SM CLR 18/12 A3009 RMK AO2 SLP189 T01780117 51003=
202107051953 METAR KCLM 051953Z AUTO 33007KT 10SM CLR 17/11 A3009 RMK AO2 SLP188 T01670111=
202107051853 METAR KCLM 051853Z AUTO 33010KT 10SM CLR 17/11 A3008 RMK AO2 SLP187 T01670111=
202107051753 METAR KCLM 051753Z AUTO 33008KT 10SM CLR 16/11 A3008 RMK AO2 SLP186 T01610111 10167 20117 51004=
202107051733 SPECI KCLM 051733Z AUTO 30007KT 280V340 10SM SCT011 16/12 A3008 RMK AO2 T01610117=
202107051653 METAR KCLM 051653Z AUTO 29007KT 10SM OVC010 15/11 A3008 RMK AO2 SLP185 T01500111=
202107051617 SPECI KCLM 051617Z AUTO 31005KT 10SM OVC010 14/11 A3008 RMK AO2 T01440111=
202107051553 METAR KCLM 051553Z AUTO 33006KT 10SM OVC009 14/11 A3008 RMK AO2 SLP186 T01390111=
202107051513 SPECI KCLM 051513Z AUTO 31007KT 10SM OVC009 14/11 A3007 RMK AO2 T01390111=
202107051453 METAR KCLM 051453Z AUTO 29007KT 10SM OVC010 13/11 A3007 RMK AO2 CIG 009V012 SLP181 T01330106 51015=
202107051411 SPECI KCLM 051411Z AUTO 29005KT 10SM FEW006 BKN012 13/11 A3006 RMK AO2 T01280111=
202107051353 METAR KCLM 051353Z AUTO 28006KT 10SM SCT013 13/11 A3005 RMK AO2 SLP177 T01280111=
202107051253 METAR KCLM 051253Z AUTO 29008KT 10SM CLR 12/11 A3004 RMK AO2 SLP173 T01170106=
202107051243 SPECI KCLM 051243Z AUTO 29007KT 10SM FEW007 12/11 A3004 RMK AO2 T01170106=
202107051153 METAR KCLM 051153Z AUTO 28008KT 10SM CLR 12/11 A3002 RMK AO2 SLP166 T01220106 10128 20122 53005=
202107051053 METAR KCLM 051053Z AUTO 28009KT 10SM CLR 12/11 A3001 RMK AO2 SLP163 T01220106=
202107051026 SPECI KCLM 051026Z AUTO 29009KT 10SM SCT007 12/11 A3001 RMK AO2 T01220106=
202107051017 SPECI KCLM 051017Z AUTO 28011G16KT 10SM BKN007 12/11 A3001 RMK AO2 T01220106=
202107050953 METAR KCLM 050953Z AUTO 28011KT 10SM FEW007 12/11 A3001 RMK AO2 SLP162 T01220106=
202107050910 SPECI KCLM 050910Z AUTO 29010KT 10SM FEW006 12/11 A3001 RMK AO2 T01220106=
202107050853 METAR KCLM 050853Z AUTO 29010KT 10SM CLR 12/11 A3001 RMK AO2 SLP161 T01220106 53001=
202107050753 METAR KCLM 050753Z AUTO 29010KT 10SM CLR 12/11 A3001 RMK AO2 SLP161 T01220106 402110117=
202107050701 SPECI KCLM 050701Z AUTO 30009KT 10SM FEW005 12/11 A3000 RMK AO2 T01220111=
202107050653 METAR KCLM 050653Z AUTO 29009KT 10SM CLR 12/11 A3000 RMK AO2 SLP160 T01220111=
202107050553 METAR KCLM 050553Z AUTO 29011G19KT 10SM CLR 12/11 A3000 RMK AO2 SLP160 T01220111 10200 20122 55000=
202107050453 METAR KCLM 050453Z AUTO 29010KT 10SM CLR 13/11 A3000 RMK AO2 SLP160 T01280106=
202107050353 METAR KCLM 050353Z AUTO 29010KT 10SM CLR 14/11 A3000 RMK AO2 SLP160 T01390106=
202107050253 METAR KCLM 050253Z AUTO 30006KT 10SM CLR 16/12 A3000 RMK AO2 SLP160 T01610117 55000=
202107050153 METAR KCLM 050153Z AUTO 31008KT 10SM CLR 17/12 A3000 RMK AO2 SLP159 T01720122=
202107050053 METAR KCLM 050053Z AUTO 31010KT 10SM CLR 19/13 A3000 RMK AO2 SLP159 T01890128=
202107042353 METAR KCLM 042353Z AUTO 31008KT 10SM CLR 19/13 A3000 RMK AO2 SLP160 T01940128 10211 20161 56002=
202107042253 METAR KCLM 042253Z AUTO 31011KT 10SM CLR 20/13 A3001 RMK AO2 SLP160 T02000128=
202107042153 METAR KCLM 042153Z AUTO 30008KT 10SM CLR 21/12 A3001 RMK AO2 SLP160 T02060122=
202107042053 METAR KCLM 042053Z AUTO 31008KT 10SM CLR 21/12 A3001 RMK AO2 SLP162 T02110122 50000=
202107041953 METAR KCLM 041953Z AUTO 35005KT 10SM CLR 19/12 A3001 RMK AO2 SLP163 T01940122=
202107041853 METAR KCLM 041853Z AUTO 29005KT 10SM CLR 17/12 A3001 RMK AO2 SLP163 T01720117=
202107041753 METAR KCLM 041753Z AUTO 01005KT 10SM CLR 17/12 A3001 RMK AO2 SLP162 T01670117 10178 20117 51005=
202107041653 METAR KCLM 041653Z AUTO VRB03KT 10SM CLR 17/12 A3001 RMK AO2 SLP161 T01670122=
202107041553 METAR KCLM 041553Z AUTO 29004KT 10SM SCT002 14/12 A3000 RMK AO2 SLP159 T01440122=
202107041459 SPECI KCLM 041459Z AUTO 32003KT 3SM BR OVC002 12/12 A3000 RMK AO2 T01220122=
202107041453 METAR KCLM 041453Z AUTO 00000KT 1 1/4SM BR OVC002 12/12 A3000 RMK AO2 VIS 3/4V3 SLP157 T01220117 51005=
202107041450 SPECI KCLM 041450Z AUTO 27003KT 1 1/4SM BR OVC002 12/12 A2999 RMK AO2=
202107041443 SPECI KCLM 041443Z AUTO 27003KT 2SM BR OVC002 12/12 A2999 RMK AO2 T01220117=
202107041434 SPECI KCLM 041434Z AUTO 00000KT 1/2SM FG VV002 12/12 A2999 RMK AO2 T01220117=
202107041353 METAR KCLM 041353Z AUTO 28003KT 1/4SM FG VV002 12/12 A2999 RMK AO2 SLP154 T01170117=
202107041334 SPECI KCLM 041334Z AUTO 26005KT 1/4SM FG VV002 12/11 A2999 RMK AO2 T01170111=
202107041312 SPECI KCLM 041312Z AUTO 27003KT 1/2SM FG VV002 12/11 A2998 RMK AO2 T01170111=
202107041253 METAR KCLM 041253Z AUTO 24003KT 1/4SM FG VV002 12/11 A2998 RMK AO2 SLP152 T01170111=
202107041243 SPECI KCLM 041243Z AUTO 25003KT 1/4SM FG VV002 12/11 A2998 RMK AO2 T01170111=
202107041206 SPECI KCLM 041206Z AUTO 27005KT 1/2SM FG VV002 12/11 A2997 RMK AO2 T01170111=
202107041153 METAR KCLM 041153Z AUTO 27006KT 1/4SM FG VV002 12/11 A2997 RMK AO2 SLP150 T01170111 10128 20117 53002=
202107041053 METAR KCLM 041053Z AUTO 27003KT 1/4SM FG VV001 12/11 A2997 RMK AO2 SLP150 T01170111=
202107041042 SPECI KCLM 041042Z AUTO 31003KT 1/4SM FG VV002 12/12 A2998 RMK AO2 T01170117=
202107040953 METAR KCLM 040953Z AUTO 29005KT 1/2SM FG VV002 12/12 A2997 RMK AO2 SLP147 T01170117=
202107040853 METAR KCLM 040853Z AUTO 29004KT 3/4SM BR VV002 12/12 A2997 RMK AO2 SLP148 T01220117 53004=
202107040845 SPECI KCLM 040845Z AUTO 28004KT 3/4SM BR VV002 12/12 A2996 RMK AO2 T01220117=
202107040837 SPECI KCLM 040837Z AUTO 29005KT 1SM BR VV002 12/12 A2996 RMK AO2 T01220117=
202107040801 SPECI KCLM 040801Z AUTO 29005KT 3/4SM BR VV002 12/12 A2996 RMK AO2 T01220117=
202107040753 METAR KCLM 040753Z AUTO 29005KT 1 1/4SM BR OVC001 12/12 A2996 RMK AO2 SLP145 T01220117 402110117=
202107040743 SPECI KCLM 040743Z AUTO 29004KT 1 3/4SM BR OVC002 12/12 A2996 RMK AO2 T01220117=
202107040730 SPECI KCLM 040730Z AUTO 29004KT 2 1/2SM BR OVC002 12/12 A2996 RMK AO2 VIS 2V3 T01220117=
202107040653 METAR KCLM 040653Z AUTO 28006KT 6SM BR OVC002 13/12 A2996 RMK AO2 SLP145 T01280117=
202107040553 METAR KCLM 040553Z AUTO 29005KT 6SM BR OVC003 13/12 A2996 RMK AO2 SLP144 T01280117 10211 20128 53003=
202107040540 SPECI KCLM 040540Z AUTO 30008KT 6SM BR BKN003 13/12 A2996 RMK AO2 T01280117=
202107040528 SPECI KCLM 040528Z AUTO 30005KT 7SM FEW003 13/12 A2996 RMK AO2 T01280117=
202107040453 METAR KCLM 040453Z AUTO 28006KT 10SM CLR 14/12 A2995 RMK AO2 SLP142 T01390117=
202107040353 METAR KCLM 040353Z AUTO 30008KT 10SM CLR 16/12 A2995 RMK AO2 SLP141 T01560122=
202107040253 METAR KCLM 040253Z AUTO 31006KT 10SM CLR 18/13 A2995 RMK AO2 SLP141 T01780128 56009=
202107040153 METAR KCLM 040153Z AUTO 29008KT 10SM CLR 19/13 A2995 RMK AO2 SLP143 T01890128=
202107040053 METAR KCLM 040053Z AUTO 29007KT 10SM CLR 18/13 A2996 RMK AO2 SLP146 T01830128=
202107032353 METAR KCLM 032353Z AUTO 34005KT 10SM CLR 21/13 A2998 RMK AO2 SLP151 T02060133 10211 20156 56008=
202107032253 METAR KCLM 032253Z AUTO 29009KT 10SM CLR 19/13 A2998 RMK AO2 SLP153 T01890133=
202107032153 METAR KCLM 032153Z AUTO 30006KT 10SM CLR 19/13 A2999 RMK AO2 SLP155 T01940128=
202107032053 METAR KCLM 032053Z AUTO 35005KT 10SM CLR 20/12 A3000 RMK AO2 SLP159 T02000122 58007=
202107031953 METAR KCLM 031953Z AUTO 36005KT 10SM CLR 19/12 A3001 RMK AO2 SLP161 T01890122=
202107031853 METAR KCLM 031853Z AUTO 36005KT 10SM CLR 19/12 A3001 RMK AO2 SLP163 T01890122=
202107031753 METAR KCLM 031753Z AUTO 35003KT 10SM CLR 16/11 A3002 RMK AO2 SLP166 T01560111 10183 20117 53005=
202107031653 METAR KCLM 031653Z AUTO 36005KT 10SM CLR 18/13 A3001 RMK AO2 SLP162 T01780128=
202107031553 METAR KCLM 031553Z AUTO 35003KT 10SM CLR 15/12 A3000 RMK AO2 SLP160 T01500122=
202107031512 SPECI KCLM 031512Z AUTO 00000KT 10SM SCT002 14/13 A3000 RMK AO2 T01440133=
202107031501 SPECI KCLM 031501Z AUTO 00000KT 4SM BR BKN002 14/13 A3000 RMK AO2 T01390128=
202107031459 SPECI KCLM 031459Z AUTO 17003KT 1SM BR VV002 14/13 A3000 RMK AO2 T01390133=
202107031453 METAR KCLM 031453Z AUTO 22003KT 1/4SM FG VV002 13/13 A3000 RMK AO2 SLP160 T01330128 58001=
202107031441 SPECI KCLM 031441Z AUTO 27003KT 1/4SM FG VV002 13/13 A3001 RMK AO2 T01330128=
202107031353 METAR KCLM 031353Z AUTO 25003KT M1/4SM FG VV001 13/12 A3001 RMK AO2 SLP163 T01280117=
202107031253 METAR KCLM 031253Z AUTO 00000KT M1/4SM FG VV001 12/12 A3001 RMK AO2 SLP161 T01220117=
202107031232 SPECI KCLM 031232Z AUTO 26004KT M1/4SM FG VV001 12/11 A3001 RMK AO2 T01170111=
202107031205 SPECI KCLM 031205Z AUTO 28005KT 1/4SM FG VV001 12/11 A3001 RMK AO2 T01220111=
202107031153 METAR KCLM 031153Z AUTO 29003KT 1/4SM FG VV002 12/11 A3001 RMK AO2 SLP161 T01220111 10133 20117 51004=
202107031145 SPECI KCLM 031145Z AUTO 27004KT 1/4SM FG VV002 12/11 A3000 RMK AO2 T01220111=
202107031101 SPECI KCLM 031101Z AUTO 00000KT 3/4SM BR VV002 12/12 A3001 RMK AO2 T01220117=
202107031053 METAR KCLM 031053Z AUTO 27003KT 1SM BR OVC001 12/12 A3000 RMK AO2 SLP159 T01220117=
202107031022 SPECI KCLM 031022Z AUTO 27003KT 1SM BR VV002 12/12 A3000 RMK AO2 T01220117=
202107030953 METAR KCLM 030953Z AUTO 24003KT 1/2SM FG VV002 12/12 A3000 RMK AO2 SLP157 T01220117=
202107030933 SPECI KCLM 030933Z AUTO 26004KT 1/4SM FG VV001 13/12 A3000 RMK AO2 T01280117=
202107030915 SPECI KCLM 030915Z AUTO 28004KT 1/4SM FG VV002 12/12 A3000 RMK AO2 T01220117=
202107030853 METAR KCLM 030853Z AUTO 00000KT 1/2SM FG VV002 12/12 A3000 RMK AO2 SLP158 T01220117 56003=
202107030843 SPECI KCLM 030843Z AUTO 00000KT 1 3/4SM BR OVC002 12/12 A3000 RMK AO2 VIS 1V4 T01220117=
202107030821 SPECI KCLM 030821Z AUTO 00000KT 3SM BR OVC002 12/12 A3000 RMK AO2 T01220117=
202107030813 SPECI KCLM 030813Z AUTO 26003KT 1 1/4SM BR OVC002 12/12 A3000 RMK AO2 T01220117=
202107030804 SPECI KCLM 030804Z AUTO 30004KT 2 1/2SM BR OVC002 12/12 A3000 RMK AO2 T01220117=
202107030756 SPECI KCLM 030756Z AUTO 28004KT 3SM BR OVC001 12/12 A3000 RMK AO2 T01220117=
202107030753 METAR KCLM 030753Z AUTO 29005KT 1 3/4SM BR OVC001 12/12 A3000 RMK AO2 SLP159 T01220117 402000122=
202107030739 SPECI KCLM 030739Z AUTO 32004KT 1 1/2SM BR BKN001 12/11 A3000 RMK AO2 T01220111=
202107030730 SPECI KCLM 030730Z AUTO 31007KT 2 1/2SM BR BKN001 12/12 A3000 RMK AO2 T01220117=
202107030725 SPECI KCLM 030725Z AUTO 32004KT 5SM BR SCT001 13/12 A2999 RMK AO2 T01280117=
202107030653 METAR KCLM 030653Z AUTO 30003KT 8SM CLR 13/12 A2999 RMK AO2 SLP155 T01280117=
202107030553 METAR KCLM 030553Z AUTO 28003KT 10SM CLR 13/12 A3001 RMK AO2 SLP161 T01330117 10200 20133 50002=
202107030453 METAR KCLM 030453Z AUTO 24004KT 10SM CLR 14/12 A3002 RMK AO2 SLP165 T01440117=
202107030353 METAR KCLM 030353Z AUTO 31004KT 10SM CLR 15/12 A3000 RMK AO2 SLP158 T01500122=
202107030253 METAR KCLM 030253Z AUTO 29006KT 10SM CLR 16/13 A3000 RMK AO2 SLP159 T01610128 56007=
202107030153 METAR KCLM 030153Z AUTO 34004KT 10SM CLR 18/13 A3001 RMK AO2 SLP161 T01830133=
202107030053 METAR KCLM 030053Z AUTO 29009KT 10SM CLR 19/13 A3001 RMK AO2 SLP163 T01890133=
202107022353 METAR KCLM 022353Z AUTO 30007KT 10SM CLR 19/13 A3002 RMK AO2 SLP166 T01940133 10200 20167 58010=
202107022253 METAR KCLM 022253Z AUTO 33005KT 10SM CLR 19/13 A3004 RMK AO2 SLP171 T01940133=
202107022153 METAR KCLM 022153Z AUTO VRB04KT 10SM CLR 19/13 A3005 RMK AO2 SLP174 T01890128=
202107022053 METAR KCLM 022053Z AUTO 33006KT 10SM CLR 19/13 A3005 RMK AO2 SLP176 T01940128 51002=
202107021953 METAR KCLM 021953Z AUTO 01006KT 10SM CLR 19/13 A3005 RMK AO2 SLP175 T01890128=
202107021853 METAR KCLM 021853Z AUTO VRB05KT 10SM CLR 17/13 A3005 RMK AO2 SLP176 T01720128=
202107021803 SPECI KCLM 021803Z AUTO VRB03KT 10SM FEW028 18/13 A3004 RMK AO2 T01830128=
202107021753 METAR KCLM 021753Z AUTO 36004KT 10SM BKN028 17/13 A3004 RMK AO2 SLP173 T01720128 10178 20128 50004=
202107021653 METAR KCLM 021653Z AUTO 30003KT 10SM OVC028 17/13 A3004 RMK AO2 SLP174 T01720128=
202107021600 SPECI KCLM 021600Z AUTO VRB03KT 10SM BKN026 16/13 A3005 RMK AO2 T01560128=
202107021553 METAR KCLM 021553Z AUTO VRB03KT 10SM SCT026 15/12 A3004 RMK AO2 SLP174 T01500122=
202107021525 SPECI KCLM 021525Z AUTO VRB03KT 10SM FEW004 SCT026 SCT055 16/13 A3003 RMK AO2 T01560128=
202107021517 SPECI KCLM 021517Z AUTO 32003KT 10SM FEW004 BKN026 BKN055 15/13 A3003 RMK AO2 T01500128=
202107021453 METAR KCLM 021453Z AUTO 28004KT 10SM BKN003 OVC026 14/13 A3003 RMK AO2 SLP169 T01390128 50001=
202107021353 METAR KCLM 021353Z AUTO 00000KT 3SM BR OVC002 13/12 A3004 RMK AO2 SLP171 T01280122=
202107021306 SPECI KCLM 021306Z AUTO 29003KT 1 3/4SM BR OVC002 13/12 A3003 RMK AO2 VIS 1 1/4V3 T01280122=
202107021253 METAR KCLM 021253Z AUTO 00000KT 3SM BR OVC002 13/12 A3003 RMK AO2 SLP168 T01280122=
202107021249 SPECI KCLM 021249Z AUTO 30003KT 3SM BR OVC002 13/12 A3003 RMK AO2=
202107021227 SPECI KCLM 021227Z AUTO 28005KT 2SM BR OVC002 13/12 A3002 RMK AO2 T01280117=
202107021153 METAR KCLM 021153Z AUTO 27007KT 1 1/4SM BR OVC002 13/12 A3002 RMK AO2 SLP165 T01280117 10139 20122 53002=
202107021151 SPECI KCLM 021151Z AUTO 26007KT 1 1/4SM BR OVC002 13/12 A3002 RMK AO2=
202107021111 SPECI KCLM 021111Z AUTO 29005KT 3/4SM BR VV002 13/12 A3002 RMK AO2 T01280117=
202107021100 SPECI KCLM 021100Z AUTO 30006KT 1 3/4SM BR OVC002 13/12 A3001 RMK AO2 T01280117=
202107021053 METAR KCLM 021053Z AUTO 30008KT 7SM OVC002 13/12 A3001 RMK AO2 SLP163 T01280117=
202107021011 SPECI KCLM 021011Z AUTO 28006KT 10SM OVC002 13/12 A3001 RMK AO2 T01280117=
202107020959 SPECI KCLM 020959Z AUTO 26007KT 3SM BR OVC001 13/12 A3001 RMK AO2 T01280117=
202107020953 METAR KCLM 020953Z AUTO 26005KT 1 3/4SM BR OVC001 13/12 A3001 RMK AO2 SLP164 T01280122=
202107020948 SPECI KCLM 020948Z AUTO 27005KT 1 3/4SM BR OVC001 13/12 A3002 RMK AO2=
202107020934 SPECI KCLM 020934Z AUTO 29004KT 1 1/4SM BR OVC002 13/12 A3002 RMK AO2 T01280122=
202107020859 SPECI KCLM 020859Z AUTO 31004KT 3/4SM BR VV002 13/12 A3001 RMK AO2 T01280122=
202107020853 METAR KCLM 020853Z AUTO 27007KT 1SM BR OVC001 13/12 A3000 RMK AO2 SLP159 T01280122 51003=
202107020837 SPECI KCLM 020837Z AUTO 28006KT 1 1/4SM BR OVC001 13/12 A3000 RMK AO2 T01330122=
202107020824 SPECI KCLM 020824Z AUTO 29006KT 1 1/4SM BR OVC002 13/12 A3000 RMK AO2 T01330122=
202107020813 SPECI KCLM 020813Z AUTO 30005KT 2 1/2SM BR OVC002 13/12 A3000 RMK AO2 T01330122=
202107020800 SPECI KCLM 020800Z AUTO 25004KT 1SM BR VV002 13/12 A3000 RMK AO2 T01330122=
202107020753 METAR KCLM 020753Z AUTO 28005KT 3/4SM BR OVC001 13/12 A3000 RMK AO2 SLP159 T01330122 402170133=
202107020750 SPECI KCLM 020750Z AUTO 30008KT 1SM BR OVC001 13/12 A3000 RMK AO2=
202107020740 SPECI KCLM 020740Z AUTO 32008KT 1 3/4SM BR OVC002 13/12 A3000 RMK AO2 T01330122=
202107020718 SPECI KCLM 020718Z AUTO 28006KT 2SM BR OVC002 13/12 A2999 RMK AO2 T01330122=
202107020653 METAR KCLM 020653Z AUTO 28007KT 4SM BR OVC002 13/12 A2999 RMK AO2 SLP156 T01330122=
202107020634 SPECI KCLM 020634Z AUTO 29005KT 2SM BR OVC002 13/12 A2999 RMK AO2 T01330122=
202107020623 SPECI KCLM 020623Z AUTO 31006KT 4SM BR BKN002 BKN070 13/12 A3000 RMK AO2 T01330122=
202107020615 SPECI KCLM 020615Z AUTO 31006KT 8SM SCT003 BKN070 13/12 A3000 RMK AO2 T01330122=
202107020553 METAR KCLM 020553Z AUTO 29005KT 8SM BKN070 14/13 A2999 RMK AO2 SLP157 T01390128 10211 20139 50002=
202107020453 METAR KCLM 020453Z AUTO 28004KT 10SM CLR 14/12 A3000 RMK AO2 SLP158 T01440122=
202107020353 METAR KCLM 020353Z AUTO 27007KT 10SM CLR 17/13 A2999 RMK AO2 SLP155 T01670128=
202107020253 METAR KCLM 020253Z AUTO 30005KT 10SM CLR 18/13 A2999 RMK AO2 SLP154 T01780133 56005=
202107020153 METAR KCLM 020153Z AUTO 30007KT 10SM CLR 19/13 A2999 RMK AO2 SLP155 T01940133=
202107020053 METAR KCLM 020053Z AUTO 31005KT 10SM CLR 21/14 A2999 RMK AO2 SLP156 T02060139=
202107012353 METAR KCLM 012353Z AUTO 30009KT 10SM CLR 21/13 A3000 RMK AO2 SLP159 T02110133 10217 20172 58001=
202107012253 METAR KCLM 012253Z AUTO 32005KT 10SM CLR 20/14 A3001 RMK AO2 SLP162 T02000139=
202107012153 METAR KCLM 012153Z AUTO 31010KT 10SM CLR 19/13 A3002 RMK AO2 SLP163 T01890133=
202107012053 METAR KCLM 012053Z AUTO 36006KT 10SM CLR 21/13 A3001 RMK AO2 SLP160 T02060133 51002=
202107011953 METAR KCLM 011953Z AUTO VRB04KT 10SM OVC047 20/13 A3001 RMK AO2 SLP159 T02000133=
202107011853 METAR KCLM 011853Z AUTO VRB04KT 10SM OVC044 19/13 A3001 RMK AO2 SLP161 T01890133=
202107011809 SPECI KCLM 011809Z AUTO VRB03KT 10SM SCT025 OVC041 18/13 A3000 RMK AO2 T01780133=
202107011753 METAR KCLM 011753Z AUTO 35007KT 10SM BKN025 OVC041 18/13 A3000 RMK AO2 SLP159 T01780128 10183 20144 51007=
202107011731 SPECI KCLM 011731Z AUTO 32006KT 10SM BKN025 18/13 A3000 RMK AO2 T01830133=
202107011653 METAR KCLM 011653Z AUTO 02004KT 10SM SCT029 OVC065 17/13 A3000 RMK AO2 SLP158 T01720128=
202107011553 METAR KCLM 011553Z AUTO 30005KT 10SM SCT007 OVC065 17/13 A2999 RMK AO2 SLP154 T01670133=
202107011520 SPECI KCLM 011520Z AUTO 31006KT 10SM BKN007 OVC060 16/13 A2998 RMK AO2 T01560128=
202107011507 SPECI KCLM 011507Z AUTO 29007KT 10SM SCT007 OVC060 16/13 A2998 RMK AO2 T01560133=
202107011453 METAR KCLM 011453Z AUTO 28006KT 10SM BKN007 OVC060 16/13 A2998 RMK AO2 SLP151 T01560133 50004=
202107011437 SPECI KCLM 011437Z AUTO 29005KT 10SM BKN007 OVC032 15/13 A2998 RMK AO2 T01500128=
202107011414 SPECI KCLM 011414Z AUTO 30004KT 10SM SCT005 OVC031 15/13 A2998 RMK AO2 T01500128=
202107011353 METAR KCLM 011353Z AUTO 00000KT 10SM BKN005 OVC030 15/13 A2999 RMK AO2 SLP154 T01500133=
202107011341 SPECI KCLM 011341Z AUTO 00000KT 10SM BKN004 OVC032 15/13 A2999 RMK AO2 T01500133=
202107011329 SPECI KCLM 011329Z AUTO 00000KT 10SM SCT004 OVC032 14/13 A2998 RMK AO2 T01440133=
202107011321 SPECI KCLM 011321Z AUTO 29004KT 10SM BKN005 OVC032 14/13 A2998 RMK AO2 T01440128=
202107011253 METAR KCLM 011253Z AUTO 28005KT 10SM SCT005 OVC030 14/13 A2997 RMK AO2 SLP148 T01440128=
202107011153 METAR KCLM 011153Z AUTO 28006KT 10SM FEW007 FEW012 OVC028 14/13 A2997 RMK AO2 SLP147 T01440128 10161 20144 55001=
202107011126 SPECI KCLM 011126Z AUTO 31006KT 10SM FEW009 SCT013 OVC028 15/13 A2997 RMK AO2 T01500128=
202107011053 METAR KCLM 011053Z AUTO 00000KT 10SM OVC028 16/13 A2996 RMK AO2 SLP143 T01610133=
202107010953 METAR KCLM 010953Z AUTO 26007KT 10SM OVC024 16/13 A2996 RMK AO2 SLP145 T01610133=
202107010853 METAR KCLM 010853Z AUTO 26008KT 10SM FEW007 OVC021 16/13 A2997 RMK AO2 SLP147 T01560133 53004=
202107010804 SPECI KCLM 010804Z AUTO 28008KT 10SM FEW009 OVC019 16/13 A2997 RMK AO2 T01560133=
202107010753 METAR KCLM 010753Z AUTO 28008KT 10SM FEW010 OVC018 16/13 A2996 RMK AO2 SLP147 T01560133 402060150=
202107010653 METAR KCLM 010653Z AUTO 28007KT 10SM OVC016 16/13 A2996 RMK AO2 SLP144 T01610133=
202107010625 SPECI KCLM 010625Z AUTO 28010KT 10SM BKN011 OVC016 16/13 A2995 RMK AO2 T01560133=
202107010553 METAR KCLM 010553Z AUTO 28008KT 10SM BKN009 OVC016 16/13 A2994 RMK AO2 SLP140 T01610133 10183 20161 51008=
202107010550 SPECI KCLM 010550Z AUTO 28007KT 10SM BKN009 OVC016 16/13 A2994 RMK AO2=
202107010453 METAR KCLM 010453Z AUTO 27009KT 10SM OVC016 17/13 A2994 RMK AO2 SLP139 T01670133=
202107010353 METAR KCLM 010353Z AUTO 27007KT 10SM OVC017 17/14 A2992 RMK AO2 SLP131 T01720139=
202107010253 METAR KCLM 010253Z AUTO 26010KT 10SM OVC015 17/13 A2992 RMK AO2 SLP130 T01720133 51001=
202107010213 SPECI KCLM 010213Z AUTO 27010G16KT 10SM OVC015 17/14 A2992 RMK AO2 T01720139=
202107010153 METAR KCLM 010153Z AUTO 27011G17KT 10SM OVC014 18/14 A2992 RMK AO2 SLP130 T01780139=
202107010053 METAR KCLM 010053Z AUTO 27011KT 10SM OVC012 18/14 A2992 RMK AO2 SLP131 T01780139=

# No short TAF reports from KCLM in databse.

###################################
#  large TAF from KCLM
###################################
202107312320 TAF KCLM 312320Z 0100/0124 30007KT P6SM OVC150=
202107311720 TAF KCLM 311720Z 3118/0118 30007KT P6SM BKN120=
202107311120 TAF KCLM 311120Z 3112/0112 29008KT P6SM BKN150 BKN250 FM010200
                       29014KT P6SM BKN150 BKN250 FM010800 29008KT
                       P6SM BKN150 BKN250=
202107310533 TAF KCLM 310533Z 3106/0106 28008KT P6SM BKN250 FM010200 29014KT
                       P6SM BKN250=
202107302320 TAF KCLM 302320Z 3100/3124 29012KT P6SM SKC FM310800 30008KT P6SM
                       SCT150=
202107301720 TAF KCLM 301720Z 3018/3118 30007KT P6SM SKC FM310300 30012KT P6SM
                       SCT150=
202107301341 KCLM 301341Z 3014/3112 VRB03KT P6SM SCT003 FM301800 35007KT P6SM
                       FEW150 FM310300 30012KT P6SM BKN200=
202107301125 TAF KCLM 301125Z 3012/3112 VRB03KT P6SM SCT005
                      TEMPO 3012/3015 2SM BR OVC004 FM301800 35007KT
                       P6SM FEW150 FM310300 30012KT P6SM BKN200=
202107300526 TAF KCLM 300526Z 3006/3106 30005KT P6SM SCT005 FM301000 VRB04KT
                       2SM BR OVC003 FM301800 35007KT P6SM FEW150
                       FM310300 30012KT P6SM BKN200=
202107292320 TAF KCLM 292320Z 3000/3024 30012KT P6SM SKC FM301200 21004KT P6SM
                       SKC
                      TEMPO 3012/3015 2SM BR SCT002=
202107291720 TAF KCLM 291720Z 2918/3018 33007KT P6SM SKC FM300200 30012KT P6SM
                       SKC FM301200 21004KT P6SM SKC
                      TEMPO 3012/3015 2SM BR SCT002=
202107291446 KCLM 291446Z 2915/3012 24004KT P6SM SCT002 FM291800 33007KT P6SM
                       SCT250 FM300200 30012KT P6SM SCT250=
202107291121 TAF KCLM 291121Z 2912/3012 VRB04KT 3SM BR OVC002
                      TEMPO 2912/2915 1/4SM FG FM291600 33007KT
                       P6SM SCT250 FM300200 30012KT P6SM SCT250=
202107290540 TAF KCLM 290540Z 2906/3006 29010KT P6SM SCT250
                      TEMPO 2913/2916 SCT005 FM291600 33007KT P6SM
                       SCT250 FM300200 30012KT P6SM SCT250=
202107282330 TAF KCLM 282330Z 2900/2924 31008KT P6SM SCT250 FM290200 29009KT
                       P6SM SCT250 FM291500 32007KT P6SM SCT250=
202107281733 TAF KCLM 281733Z 2818/2918 35008KT P6SM SCT250 FM290200 29009KT
                       P6SM SCT250=
202107281130 TAF KCLM 281130Z 2812/2912 29008KT P6SM SCT250=
202107280539 TAF KCLM 280539Z 2806/2906 29008KT P6SM SCT250=
202107272329 TAF KCLM 272329Z 2800/2824 31009KT P6SM SKC FM281200 29006KT 5SM
                       BR SCT002 FM281700 35005KT P6SM SCT250=
202107271722 TAF KCLM 271722Z 2718/2818 32005KT P6SM SCT250 FM272200 31012KT
                       P6SM SCT250 FM281200 29006KT 5SM BR SCT002=
202107271446 KCLM 271446Z 2715/2812 29003KT 1/2SM FG VV002 FM271600 32009KT
                       P6SM SCT250 FM272200 29012KT P6SM SCT250
                       FM280600 29006KT P6SM SCT250=
202107271133 TAF KCLM 271133Z 2712/2812 26006KT 1/2SM FG OVC002 FM271400 26006KT
                       3SM BR BKN002 FM271500 26006KT P6SM SKC
                       FM272200 29012KT P6SM SCT250 FM280600 29006KT
                       P6SM SCT250=
202107270537 TAF KCLM 270537Z 2706/2806 28010KT P6SM SKC FM271300 26008KT 3SM
                       BR BKN001 FM271500 26008KT P6SM SKC FM272200
                       29012KT P6SM SCT250=
202107262325 TAF KCLM 262325Z 2700/2724 30013G18KT P6SM SKC FM270700 29010KT
                       P6SM SKC FM271500 28010KT P6SM OVC005 FM271800
                       32007KT P6SM SCT025 FM272000 33007KT P6SM
                       SKC=
202107261733 TAF KCLM 261733Z 2618/2718 33007KT P6SM SKC FM270000 29012G20KT
                       P6SM SKC FM270700 29010KT P6SM SKC FM271500
                       28010KT P6SM OVC005=
202107261314 KCLM 261314Z 2613/2712 29012KT P6SM SKC
                      TEMPO 2613/2615 OVC002 FM261500 30010KT P6SM
                       SKC FM270000 29012G20KT P6SM SKC FM270700
                       29010KT P6SM SKC=
202107261120 TAF KCLM 261120Z 2612/2712 29012KT P6SM SKC
                      TEMPO 2612/2615 SCT007 FM261500 30010KT P6SM
                       SKC FM270000 29012G20KT P6SM SKC FM270700
                       29010KT P6SM SKC=
202107260520 TAF KCLM 260520Z 2606/2706 29012KT P6SM SKC
                      TEMPO 2610/2614 SCT007 FM261500 30010KT P6SM
                       SKC FM270000 29012G20KT P6SM SKC=
202107260149 KCLM 260149Z 2602/2624 29015G25KT P6SM SKC FM260600 29012KT P6SM
                       SKC
                      TEMPO 2610/2614 SCT007 FM261500 30010KT P6SM
                       SKC=
202107252320 TAF KCLM 252320Z 2600/2624 30015G25KT P6SM SKC FM260600 30012KT
                       P6SM SKC=
202107251720 TAF KCLM 251720Z 2518/2618 30014G22KT P6SM SKC FM260600 30012KT
                       P6SM SKC=
202107251455 KCLM 251455Z 2515/2612 30008KT P6SM SKC FM252000 30012KT P6SM SKC=
202107251120 TAF KCLM 251120Z 2512/2612 30010KT P6SM SKC
                      TEMPO 2512/2516 1SM BR BKN001 FM252000 30012KT
                       P6SM SKC=
202107250520 TAF KCLM 250520Z 2506/2606 30010KT P6SM SKC FM251200 30006KT P6SM
                       VCFG SCT002
                      TEMPO 2512/2516 1SM BR BKN001 FM252000 30012KT
                       P6SM SKC=
202107250309 KCLM 250309Z 2503/2524 30012KT P6SM SKC FM251200 30006KT P6SM VCFG
                       SCT002
                      TEMPO 2512/2516 1SM BR BKN001 FM252000 30012KT
                       P6SM SKC=
202107242320 TAF KCLM 242320Z 2500/2524 30014KT P6SM SKC FM250400 30012KT P6SM
                       VCFG SCT002
                      TEMPO 2511/2515 1SM BR BKN001 FM252000 30012KT
                       P6SM SKC=
202107242111 KCLM 242111Z 2421/2518 30014KT P6SM SKC FM250400 30012KT P6SM VCFG
                       SCT002
                      TEMPO 2511/2515 1SM BR BKN001=
202107241724 TAF KCLM 241724Z 2418/2518 30007KT P6SM FEW002 FM242200 30010KT
                       P6SM SKC FM251000 30007KT P6SM VCFG SCT002
                       TEMPO 2512/2515 1SM BR BKN001=
202107241303 KCLM 241303Z 2413/2512 28008KT 1/2SM FG VV001 FM241500 28008KT
                       3SM BR SCT001 FM241600 28008KT P6SM SKC=
202107241127 TAF KCLM 241127Z 2412/2512 28008KT P6SM SKC
                      TEMPO 2413/2415 3SM BR SCT001=
202107240526 TAF KCLM 240526Z 2406/2506 30008KT P6SM SKC FM241000 27004KT P6SM
                       BKN003 FM241600 30008KT P6SM SKC=
202107232320 TAF KCLM 232320Z 2400/2424 30010G16KT P6SM SKC FM240300 29008KT
                       P6SM SKC FM241000 27004KT P6SM SCT003
                      TEMPO 2412/2416 BKN003 FM241800 33008KT P6SM
                       SKC=
202107231720 TAF KCLM 231720Z 2318/2418 33008KT P6SM SCT120 FM240300 29008KT
                       P6SM SKC FM241000 27004KT P6SM SCT003
                      TEMPO 2412/2416 BKN003=
202107231141 TAF KCLM 231141Z 2312/2412 27008KT P6SM BKN100 FM231800 30008KT
                       P6SM SKC=
202107230523 TAF KCLM 230523Z 2306/2406 29010KT P6SM BKN250 FM231000 27004KT
                       P6SM BKN070 FM231800 34006KT P6SM SKC=
202107222320 TAF KCLM 222320Z 2300/2324 29010KT P6SM BKN250 FM231000 27004KT
                       P6SM BKN070 FM231800 34006KT P6SM SKC=
202107221722 TAF KCLM 221722Z 2218/2318 33008KT P6SM SCT250 FM230200 29008KT
                       P6SM BKN250 FM231000 27004KT P6SM BKN080=
202107221128 TAF KCLM 221128Z 2212/2312 28008KT P6SM SKC=
202107220533 TAF KCLM 220533Z 2206/2306 26008KT P6SM SCT050 FM221800 32008KT
                       P6SM SCT250=
202107212322 TAF KCLM 212322Z 2200/2224 30008KT P6SM OVC050 FM220200 29012G18KT
                       P6SM SCT050 FM221000 28008KT P6SM SCT050
                       FM221800 34008KT P6SM SCT250=
202107211721 TAF KCLM 211721Z 2118/2218 29012G18KT P6SM BKN060 FM212000 33010KT
                       P6SM SCT060 FM220200 29012G18KT P6SM SKC
                       FM221000 28008KT P6SM SCT050=
202107211126 TAF KCLM 211126Z 2112/2212 28007KT P6SM OVC040 FM211900 33008KT
                       P6SM SCT050 FM212200 29012G17KT P6SM SKC
                       FM220700 28009KT P6SM SCT050=
202107210524 TAF KCLM 210524Z 2106/2206 29012KT P6SM SCT040 FM211200 28010KT
                       P6SM OVC015 FM211700 31008KT P6SM SCT030
                       FM212000 29012G22KT P6SM SKC=
202107202323 TAF KCLM 202323Z 2100/2124 31012G20KT P6SM SCT040 FM210700 28011KT
                       P6SM SKC FM211000 28010KT P6SM OVC017 FM211900
                       31008KT P6SM SCT030=
202107201728 TAF KCLM 201728Z 2018/2118 30008KT P6SM OVC025 FM202000 30010KT
                       P6SM SCT035 FM202200 31010G15KT P6SM SCT040
                       FM210100 30012G18KT P6SM SCT040 FM210800
                       28010KT P6SM OVC015=
202107201138 TAF KCLM 201138Z 2012/2112 29009KT P6SM OVC011 FM201800 32008KT
                       P6SM OVC020 FM202200 31010G15KT P6SM SCT040
                       FM210100 30016KT P6SM SCT040 FM210600 28010KT
                       P6SM OVC015=
202107200538 TAF KCLM 200538Z 2006/2106 30014KT P6SM SKC FM201000 28010KT P6SM
                       OVC012 FM201800 32008KT P6SM OVC022 FM202200
                       32010G15KT P6SM SCT040=
202107200246 KCLM 200246Z 2003/2024 30014KT P6SM SKC FM201000 28010KT P6SM OVC012
                       FM201800 32008KT P6SM OVC022 FM202200 32010G15KT
                       P6SM SCT040=
202107192320 TAF KCLM 192320Z 2000/2024 31009KT P6SM SKC FM200300 30014KT P6SM
                       SKC FM201000 28010KT P6SM BKN015 FM201800
                       32008KT P6SM OVC030 FM202200 32010KT P6SM
                       SCT040=
202107191738 TAF KCLM 191738Z 1918/2018 33007KT P6SM SKC FM200300 30014KT P6SM
                       SKC FM201000 28010KT P6SM BKN015=
202107191120 TAF KCLM 191120Z 1912/2012 29008KT P6SM SKC FM191800 33007KT P6SM
                       SKC FM200300 30014KT P6SM SKC FM201000 28010KT
                       P6SM BKN015=
202107190539 TAF KCLM 190539Z 1906/2006 29011KT P6SM SKC FM191000 27004KT P6SM
                       SKC FM191800 33007KT P6SM SKC FM200300 30014KT
                       P6SM SKC=
202107190305 KCLM 190305Z 1903/1924 29008KT P6SM SCT250 FM191000 27004KT P6SM
                       SKC FM191800 33007KT P6SM SKC=
202107182322 TAF KCLM 182322Z 1900/1924 33006KT P6SM SCT250 FM190200 29008KT
                       P6SM SCT250 FM191000 27004KT P6SM SKC FM191800
                       33007KT P6SM SKC=
202107181721 TAF KCLM 181721Z 1818/1918 33008KT P6SM BKN250 FM190100 29008KT
                       P6SM SCT250 FM191000 27004KT P6SM SKC=
202107181129 TAF KCLM 181129Z 1812/1912 25004KT P6SM SCT200
                      TEMPO 1813/1816 SCT010 FM181800 33006KT P6SM
                       BKN200 FM190300 29015KT P6SM SCT200 FM190900
                       29006KT P6SM SCT020 SCT200=
202107180527 TAF KCLM 180527Z 1806/1906 27007KT P6SM SKC FM181100 27005KT P6SM
                       BKN250 FM181800 32008KT P6SM BKN250=
202107180307 KCLM 180307Z 1803/1824 30010KT P6SM SCT060 SCT250 FM180600 29008KT
                       P6SM SCT250 FM181100 27005KT P6SM BKN250
                       FM181800 32008KT P6SM BKN250=
202107172321 TAF KCLM 172321Z 1800/1824 30012KT P6SM BKN060 FM180200 29012KT
                       P6SM SCT060 FM181000 27005KT P6SM BKN250
                       FM181800 32008KT P6SM BKN250=
202107171720 TAF KCLM 171720Z 1718/1818 31006KT P6SM SCT020 BKN035
                      TEMPO 1718/1720 OVC020 FM172100 32010KT P6SM
                       SCT040 FM180100 29012KT P6SM SKC FM181000
                       27005KT P6SM SCT250=
202107171408 KCLM 171408Z 1714/1812 30004KT P6SM SCT020 BKN035
                      TEMPO 1714/1718 BKN020 OVC035 FM171900 32007KT
                       P6SM SCT025 BKN040 FM172200 29012KT P6SM
                       SKC=
202107171127 TAF KCLM 171127Z 1712/1812 23003KT P6SM OVC016 FM171800 31006KT
                       P6SM OVC025 FM171900 32007KT P6SM SCT025
                       BKN040 FM172200 29012KT P6SM SKC=
202107170537 TAF KCLM 170537Z 1706/1806 29005KT P6SM OVC022 FM171200 29006KT
                       P6SM OVC015 FM171800 31006KT P6SM OVC025
                       FM172000 32007KT P6SM SCT025 BKN030 FM172100
                       32009KT P6SM SCT030=
202107170306 KCLM 170306Z 1703/1724 29005KT P6SM OVC022 FM171200 29006KT P6SM
                       OVC015 FM171800 31006KT P6SM OVC025 FM172000
                       32007KT P6SM SCT025 BKN030 FM172100 32009KT
                       P6SM SCT030=
202107162327 TAF KCLM 162327Z 1700/1724 30010KT P6SM OVC022 FM171200 29006KT
                       P6SM OVC015 FM171800 31006KT P6SM OVC025
                       FM172000 32007KT P6SM SCT025 BKN030 FM172100
                       32009KT P6SM SCT030=
202107161720 TAF KCLM 161720Z 1618/1718 VRB03KT P6SM SCT010 BKN045
                      TEMPO 1618/1620 BKN010 FM162000 29008KT P6SM
                       SCT015 SCT045 FM162200 29008KT P6SM SCT025
                       BKN040 FM171000 29008KT P6SM OVC010=
202107161507 KCLM 161507Z 1615/1712 29006KT P6SM SCT010 OVC045
                      TEMPO 1615/1619 BKN010 FM162000 29008KT P6SM
                       SCT015 SCT045 FM162200 29008KT P6SM SCT025
                       BKN040 FM171000 29008KT P6SM OVC010=
202107161127 TAF KCLM 161127Z 1612/1712 29004KT P6SM OVC006 FM161800 29008KT
                       P6SM OVC012 FM162000 29008KT P6SM BKN015
                       FM162200 29008KT P6SM SCT025 BKN040 FM171000
                       29008KT P6SM OVC010=
202107160537 TAF KCLM 160537Z 1606/1706 29008KT P6SM OVC006 FM161800 29008KT
                       P6SM OVC012 FM162000 29008KT P6SM BKN015
                       FM162200 29008KT P6SM SCT025 BKN040=
202107160317 KCLM 160317Z 1603/1624 30012KT P6SM SCT012
                      TEMPO 1603/1607 BKN012 FM160700 30012KT P6SM
                       OVC011 FM162000 32006KT P6SM BKN025=
202107152321 TAF KCLM 152321Z 1600/1624 29014G22KT P6SM SKC FM161000 29012KT
                       P6SM OVC011 FM162000 32006KT P6SM BKN025=
202107151720 TAF KCLM 151720Z 1518/1618 29008KT P6SM OVC012 FM152000 29008KT
                       P6SM BKN015 FM152100 29012KT P6SM SKC FM161000
                       29012KT P6SM OVC011=
202107151124 TAF KCLM 151124Z 1512/1612 29008KT P6SM SCT010 FM151500 29008KT
                       P6SM OVC012 FM152000 29008KT P6SM BKN015
                       FM152100 29012KT P6SM SKC FM161000 29012KT
                       P6SM OVC011=
202107150539 TAF KCLM 150539Z 1506/1606 29008KT P6SM OVC006 FM151800 28008KT
                       P6SM OVC012 FM152000 29008KT P6SM BKN015
                       FM152100 29008KT P6SM SKC=
202107150500 KCLM 150500Z 1505/1524 29008KT P6SM OVC006 FM151800 28008KT P6SM
                       OVC012 FM151900 29008KT P6SM BKN015 FM152000
                       29008KT P6SM SKC=
202107142320 TAF KCLM 142320Z 1500/1524 30012KT P6SM SKC FM150900 29008KT P6SM
                       OVC006 FM151800 28008KT P6SM OVC012 FM151900
                       29008KT P6SM BKN015 FM152000 29008KT P6SM
                       SKC=
202107141928 KCLM 141928Z 1419/1518 30010G17KT P6SM FEW012 FM142000 27010G17KT
                       P6SM SKC FM150900 29008KT P6SM OVC006=
202107141722 TAF KCLM 141722Z 1418/1518 31007KT P6SM OVC009 FM141900 31012KT
                       P6SM SCT250 FM150900 29008KT P6SM OVC006=
202107141132 TAF KCLM 141132Z 1412/1512 29012KT P6SM OVC004 FM141600 29008KT
                       P6SM OVC006 FM141900 31012KT P6SM SCT250
                       FM150900 29008KT P6SM OVC006=
202107140539 TAF KCLM 140539Z 1406/1506 29012KT P6SM SCT006 FM140700 29012KT
                       P6SM OVC004 FM141600 29008KT P6SM OVC006
                       FM141900 31012KT P6SM SCT250=
202107132320 TAF KCLM 132320Z 1400/1424 31008KT P6SM SKC FM140200 29012G18KT
                       P6SM SKC FM140800 29012KT P6SM SKC FM141100
                       29008KT P6SM OVC006 FM141900 31012KT P6SM
                       SCT250=
202107131720 TAF KCLM 131720Z 1318/1418 31008KT P6SM SKC FM140100 29012G18KT
                       P6SM SKC FM140800 29012KT P6SM SKC FM141100
                       29008KT P6SM OVC006=
202107131421 KCLM 131421Z 1314/1412 29008KT 5SM BR OVC004
                      TEMPO 1314/1316 1SM BR OVC002 FM131600 29008KT
                       P6SM SKC FM140100 29012G18KT P6SM SKC FM140600
                       29012KT P6SM SKC FM141000 29008KT P6SM OVC006=
202107131140 TAF KCLM 131140Z 1312/1412 29008KT 5SM BR OVC004 FM131300 29008KT
                       1SM BR OVC002 FM131600 29008KT P6SM SKC
                       FM140100 29012G18KT P6SM SKC FM140600 29012KT
                       P6SM SKC FM141000 29008KT P6SM OVC006=
202107130536 TAF KCLM 130536Z 1306/1406 29012KT P6SM SKC FM131000 29008KT 5SM
                       BR OVC002 FM131300 29008KT 1SM BR OVC002
                       FM131600 29008KT P6SM SKC=
202107122320 TAF KCLM 122320Z 1300/1324 29009KT P6SM SKC FM130600 29012G18KT
                       P6SM SKC FM131200 29010KT 1SM BR BKN005
                       FM131700 29009KT P6SM SKC=
202107121720 TAF KCLM 121720Z 1218/1318 32005KT P6SM SKC FM122000 34009KT P6SM
                       SKC FM130600 29012G18KT P6SM SKC FM130900
                       29010KT 1SM BR BKN003 FM131700 19003KT P6SM
                       SCT015=
202107121245 KCLM 121245Z 1213/1312 28007KT 1SM BR OVC002
                      TEMPO 1213/1214 VV002 FM121500 29006KT 3SM
                       BR OVC003 FM121700 32005KT P6SM SCT010 FM122000
                       34006KT P6SM SKC FM130600 29012G18KT P6SM
                       SKC FM130900 29010KT P6SM BKN003=
202107121122 TAF KCLM 121122Z 1212/1312 28007KT 3SM BR OVC002 FM121700 32005KT
                       P6SM SCT010 FM122000 34006KT P6SM SKC FM130600
                       29012G18KT P6SM SKC FM130900 29010KT P6SM
                       BKN003=
202107120848 KCLM 120848Z 1209/1306 30010G16KT P6SM BKN003 FM121200 28007KT
                       P6SM OVC004 FM121600 32005KT P6SM SCT010
                       FM122000 34006KT P6SM SKC FM130200 29012G18KT
                       P6SM SKC=
202107120525 TAF KCLM 120525Z 1206/1306 29008KT P6SM FEW005 FM120900 29009KT
                       P6SM FEW250 FM121200 28007KT P6SM OVC010
                       FM121600 32005KT P6SM SCT010 FM122000 34006KT
                       P6SM SKC FM130200 29012G18KT P6SM SKC=
202107112326 TAF KCLM 112326Z 1200/1224 32009KT P6SM SKC FM120200 30015G21KT
                       P6SM SKC FM120800 30012KT P6SM FEW250 FM121200
                       28007KT P6SM OVC010 FM121600 32005KT P6SM
                       SCT010 FM122000 34006KT P6SM SKC=
202107111720 TAF KCLM 111720Z 1118/1218 31008KT P6SM SKC FM120200 30015G21KT
                       P6SM SKC FM120800 30012KT P6SM FEW250 FM121200
                       28007KT P6SM OVC010 FM121600 32005KT P6SM
                       SCT010=
202107111454 KCLM 111454Z 1115/1212 29012KT P6SM BKN005 FM111700 32006KT P6SM
                       SKC FM120200 30015G21KT P6SM SKC FM120800
                       30012KT P6SM FEW250=
202107111120 TAF KCLM 111120Z 1112/1212 29012KT P6SM FEW050 FM111700 32006KT
                       P6SM SKC FM120200 30015G21KT P6SM SKC FM120800
                       30012KT P6SM FEW250=
202107110855 KCLM 110855Z 1109/1206 30011KT P6SM SKC FM111200 27010KT P6SM FEW050
                       FM111700 32006KT P6SM SKC FM120200 30015G21KT
                       P6SM SKC=
202107110520 TAF KCLM 110520Z 1106/1206 28012KT P6SM SKC FM110900 29013KT P6SM
                       BKN003 FM111200 27010KT P6SM OVC003 FM111700
                       32006KT P6SM SKC FM120200 30015G21KT P6SM
                       SKC=
202107102320 TAF KCLM 102320Z 1100/1124 31010G15KT P6SM SKC FM110900 29013KT
                       P6SM BKN003 FM111200 27010KT P6SM OVC003
                       FM111500 32006KT P6SM SKC=
202107101725 TAF KCLM 101725Z 1018/1118 32007KT P6SM SKC FM102200 31012G21KT
                       P6SM SKC FM110900 29013KT P6SM BKN003 FM111200
                       27010KT P6SM OVC003=
202107101431 KCLM 101431Z 1015/1112 29009KT P6SM OVC006 FM101800 31010KT P6SM
                       SKC FM102200 31012G21KT P6SM SKC FM110900
                       29013KT P6SM BKN003=
202107101123 TAF KCLM 101123Z 1012/1112 29008KT 5SM BR OVC003
                      TEMPO 1013/1015 1SM BR FM101800 31010KT P6SM
                       SKC FM102200 31012G21KT P6SM SKC FM110900
                       29013KT P6SM BKN003=
202107100854 KCLM 100854Z 1009/1106 29011KT 1 1/2SM BR OVC002 FM101100 30006KT
                       1SM BR OVC001 FM101600 30006KT P6SM BKN020
                       FM101800 31010KT P6SM SKC FM102200 31012G21KT
                       P6SM SKC=
202107100549 KCLM 100549Z 1006/1106 29006KT P6SM BKN003 FM101100 30006KT 1SM
                       BR OVC001 FM101600 30006KT P6SM BKN020 FM101800
                       31010KT P6SM SKC FM102200 31012G21KT P6SM
                       SKC=
202107100522 TAF KCLM 100522Z 1006/1106 29006KT P6SM SKC FM101100 30006KT 1SM
                       BR OVC001 FM101600 30006KT P6SM BKN020 FM101800
                       31010KT P6SM SKC FM102200 31012G21KT P6SM
                       SKC=
202107092326 TAF KCLM 092326Z 1000/1024 30006KT P6SM SKC FM101100 30006KT 1SM
                       BR OVC001 FM101600 30006KT P6SM SKC=
202107091740 TAF KCLM 091740Z 0918/1018 30006KT P6SM SCT005 FM091900 30006KT
                       P6SM SKC FM100900 30006KT 1SM BR OVC001
                       FM101600 30006KT P6SM SKC=
202107091121 TAF KCLM 091121Z 0912/1012 30006KT 1 1/2SM BR OVC002
                      TEMPO 0912/0913 OVC004 FM091900 34006KT P6SM
                       SCT250 FM092300 33008KT P6SM FEW250 FM100200
                       30012G18KT P6SM BKN250 FM100800 30012KT
                       P6SM OVC005=
202107090643 KCLM 090643Z 0907/1006 30008KT P6SM BKN004 FM091100 29006KT P6SM
                       OVC011
                      TEMPO 0912/0913 BKN004 FM091600 VRB03KT P6SM
                       SKC FM092300 33008KT P6SM SKC FM100200 30012G18KT
                       P6SM BKN250=
202107090522 TAF KCLM 090522Z 0906/1006 29008KT P6SM SKC FM091100 29006KT P6SM
                       OVC011
                      TEMPO 0912/0913 BKN004 FM091600 VRB03KT P6SM
                       SKC FM092300 33008KT P6SM SKC FM100200 30012G18KT
                       P6SM BKN250=
202107082340 TAF KCLM 082340Z 0900/0924 29010KT P6SM SKC FM091100 29006KT P6SM
                       OVC011 FM091600 VRB03KT P6SM SKC FM092300
                       29008KT P6SM SKC=
202107081721 TAF KCLM 081721Z 0818/0918 29006KT P6SM OVC011 FM082000 29010KT
                       P6SM SCT020 FM091000 29006KT P6SM OVC011=
202107081121 TAF KCLM 081121Z 0812/0912 26003KT P6SM OVC010 FM081600 31005KT
                       P6SM OVC020 FM082100 32011G17KT P6SM SCT250
                       FM090700 29012KT 6SM BR BKN015=
202107080521 TAF KCLM 080521Z 0806/0906 29007KT P6SM OVC015 FM080900 29010KT
                       6SM BR OVC007 FM081600 31005KT P6SM OVC020
                       FM082100 32011G17KT P6SM SCT250=
202107072339 TAF KCLM 072339Z 0800/0824 32009KT P6SM OVC015 FM080200 29011KT
                       P6SM BKN018 FM080900 29010KT 6SM BR OVC007
                       FM081600 31005KT P6SM BKN020 FM082100 32011KT
                       P6SM SCT250=
202107071736 TAF KCLM 071736Z 0718/0818 28009KT P6SM OVC007 FM072100 32011KT
                       P6SM BKN010 FM080800 29010KT 6SM BR OVC005=
202107071547 KCLM 071547Z 0716/0812 28009KT P6SM OVC005 FM072000 31010KT P6SM
                       SCT010 FM072200 32010KT P6SM SKC FM080000
                       31012G17KT P6SM SCT250 FM080800 29010KT
                       6SM BR OVC005=
202107071124 TAF KCLM 071124Z 0712/0812 28009KT 3/4SM BR VV002 FM071800 32008KT
                       3/4SM BR OVC005 FM072000 31010KT P6SM SCT010
                       FM072200 32010KT P6SM SKC FM080000 31012G17KT
                       P6SM SCT250 FM080800 29010KT 6SM BR OVC005=
202107070524 TAF KCLM 070524Z 0706/0806 31005KT P6SM SKC FM070700 30010KT P6SM
                       OVC015 FM070800 31010G20KT 3/4SM BR OVC003
                       TEMPO 0712/0715 1/4SM FG OVC001 FM071800
                       32008KT 3/4SM BR OVC005 FM072000 31010KT
                       P6SM SCT010 FM072200 32010KT P6SM SKC FM080000
                       31012G17KT P6SM SCT250=
202107062320 TAF KCLM 062320Z 0700/0724 30007KT P6SM SKC FM070300 29010KT P6SM
                       SKC FM070700 30010KT P6SM OVC015 FM070800
                       31010G20KT 3/4SM BR OVC003
                      TEMPO 0712/0715 1/4SM FG OVC001 FM071800
                       32008KT 3/4SM BR OVC005 FM072000 31010KT
                       P6SM SCT010 FM072200 32010KT P6SM SKC=
202107061756 TAF KCLM 061756Z 0618/0718 32004KT P6SM SCT005 FM070300 29010G15KT
                       P6SM SKC FM070700 30013G18KT P6SM OVC015
                       FM070800 21008KT 3/4SM BR OVC003
                      TEMPO 0712/0715 1/4SM FG OVC001=
202107061439 KCLM 061439Z 0615/0712 28004KT 1/4SM FG VV002 FM061600 29005KT
                       3SM BR OVC005 FM061800 34006KT P6SM BKN030
                       FM070300 29010G15KT P6SM SKC FM070700 30013G18KT
                       P6SM OVC015=
202107061221 KCLM 061221Z 0612/0712 28007KT 1/2SM FG VV002 FM061500 30005KT
                       4SM BR OVC005 FM061800 34006KT P6SM BKN030
                       FM070300 29010G15KT P6SM SKC FM070700 30013G18KT
                       P6SM OVC015=
202107061125 TAF KCLM 061125Z 0612/0712 28007KT 1SM BR OVC001 FM061500 30005KT
                       4SM BR OVC005 FM061800 34006KT P6SM BKN030
                       FM070300 29010G15KT P6SM SKC FM070700 30013G18KT
                       P6SM OVC015=
202107061040 KCLM 061040Z 0611/0706 30005KT 2SM BR OVC002 FM061200 28007KT 1SM
                       BR OVC003 FM061500 30005KT 4SM BR OVC020
                       FM061800 34006KT P6SM SKC FM070300 29010G15KT
                       P6SM SKC=
202107060520 TAF KCLM 060520Z 0606/0706 28006KT P6SM OVC004 FM060700 29006KT
                       4SM BR OVC004 FM061200 28010KT 2SM BR OVC003
                       FM061500 30005KT 4SM BR OVC020 FM061800
                       34006KT P6SM SKC FM070300 29010G15KT P6SM
                       SKC=
202107060444 KCLM 060444Z 0605/0624 28005KT P6SM BKN005 FM060700 29006KT 4SM
                       BR BKN005 FM061800 34006KT P6SM SKC=
202107052323 TAF KCLM 052323Z 0600/0624 29011KT P6SM SKC FM060300 29010G18KT
                       P6SM SKC FM061100 29006KT 4SM BR BKN005
                       FM061800 34006KT P6SM SKC=
202107051726 TAF KCLM 051726Z 0518/0618 30008KT P6SM OVC010
                      TEMPO 0518/0520 SCT015 FM052000 33007KT P6SM
                       SCT015 FM060000 29011KT P6SM SKC FM060300
                       29010G18KT P6SM SKC FM061100 29006KT 4SM
                       BR BKN005=
202107051521 KCLM 051521Z 0515/0612 30008KT P6SM OVC009 FM051900 33007KT P6SM
                       SCT014 FM060000 31010KT P6SM SKC FM060300
                       29010G18KT P6SM SKC=
202107051120 TAF KCLM 051120Z 0512/0612 28009KT P6SM FEW007 FM052000 33007KT
                       P6SM SCT014 FM060000 31010KT P6SM SKC FM060300
                       29010G18KT P6SM SKC=
202107050520 TAF KCLM 050520Z 0506/0606 29010KT P6SM SKC FM050800 29010KT 6SM
                       BR OVC010 FM051200 29009KT 5SM BR OVC008
                       FM052000 33007KT P6SM SCT014 FM060000 31010KT
                       P6SM SKC=
202107042325 TAF KCLM 042325Z 0500/0524 30012KT P6SM SCT200 FM050400 29010G18KT
                       P6SM SCT200 FM050800 29010KT 6SM BR OVC010
                       FM051200 29009KT 5SM BR OVC008 FM052000
                       33007KT P6SM SCT014=
202107041721 TAF KCLM 041721Z 0418/0518 27005KT P6SM SCT005 FM042100 33008KT
                       P6SM SCT200 FM050200 20010G16KT P6SM SCT200
                       FM050900 29009KT 6SM BR OVC010 FM051200
                       29010KT 3SM BR OVC006=
202107041636 KCLM 041636Z 0417/0512 27003KT P6SM SCT005
                      TEMPO 0417/0418 BKN004 FM042100 33006KT P6SM
                       SCT010 FM050000 30010G20KT P6SM BKN250 FM050600
                       29015KT 6SM BR OVC010 FM051000 29010KT 2SM
                       BR OVC005=
202107041125 TAF KCLM 041125Z 0412/0512 27003KT 1/4SM FG VV001 FM041900 33006KT
                       P6SM SCT002 OVC010 FM050000 30010G20KT P6SM
                       BKN250 FM050600 29015KT 6SM BR OVC010 FM051000
                       29010KT 2SM BR OVC005=
202107040901 KCLM 040901Z 0409/0506 29004KT 3/4SM BR VV002 FM041900 33006KT
                       P6SM FEW010 SCT200 FM050000 30010G20KT P6SM
                       BKN250=
202107040756 KCLM 040756Z 0408/0506 29005KT 1SM BR OVC001 FM041900 33006KT P6SM
                       FEW010 SCT200 FM050000 30010G20KT P6SM BKN250=
202107040520 TAF KCLM 040520Z 0406/0506 30008KT P6SM SKC FM040700 30010KT P6SM
                       BKN010 FM041100 29008KT 2SM BR OVC003 FM041900
                       33006KT P6SM FEW010 SCT200 FM050000 30010G20KT
                       P6SM BKN250=
202107032322 TAF KCLM 032322Z 0400/0424 30011KT P6SM SKC FM040800 30010KT P6SM
                       BKN010 FM041100 29008KT 3SM BR OVC005 FM041900
                       33006KT P6SM FEW010 SCT200=
202107031730 TAF KCLM 031730Z 0318/0418 33006KT P6SM FEW005 FM032100 30011KT
                       P6SM SKC FM040800 30010KT P6SM BKN010 FM041100
                       29008KT 3SM BR OVC005=
202107031503 KCLM 031503Z 0315/0412 VRB03KT P6SM SCT005
                      TEMPO 0315/0317 1SM BR BKN002 FM031700 33006KT
                       P6SM SCT020 FM032100 30011KT P6SM SKC FM040700
                       30010KT P6SM BKN015 FM040900 29008KT P6SM
                       OVC007=
202107031307 KCLM 031307Z 0313/0412 26003KT 1/4SM FG VV001 FM031500 28007KT
                       P6SM BKN012 FM031700 33006KT P6SM SCT020
                       FM032100 30011KT P6SM SKC FM040700 30010KT
                       P6SM BKN015 FM040900 29008KT P6SM OVC007=
202107031123 TAF KCLM 031123Z 0312/0412 26003KT 1SM BR OVC002 FM031500 28007KT
                       P6SM BKN012 FM031700 33006KT P6SM SCT020
                       FM032100 30011KT P6SM SKC FM040700 30010KT
                       P6SM BKN015 FM040900 29008KT P6SM OVC007=
202107030818 KCLM 030818Z 0308/0406 26003KT 1SM BR OVC002 FM031500 28007KT P6SM
                       BKN012 FM031700 33006KT P6SM SCT020 FM032300
                       30011KT P6SM SKC=
202107030520 TAF KCLM 030520Z 0306/0406 24004KT P6SM FEW012
                      TEMPO 0307/0311 SCT012 FM031100 28007KT P6SM
                       BKN012 FM031700 33006KT P6SM SCT020 FM032300
                       30011KT P6SM SKC=
202107022324 TAF KCLM 022324Z 0300/0324 30009KT P6SM SCT020 FM031100 28007KT
                       P6SM BKN012 FM031700 33006KT P6SM SCT020
                       FM032300 30011KT P6SM SKC=
202107021720 TAF KCLM 021720Z 0218/0318 29005KT P6SM BKN030
                      TEMPO 0218/0220 SCT035 FM022000 33007KT P6SM
                       SCT040 FM030300 30010KT P6SM SCT050 FM030900
                       29006KT 3SM BR BKN005=
202107021510 KCLM 021510Z 0215/0312 29006KT 5SM BR BKN003 OVC025
                      TEMPO 0215/0218 P6SM NSW SCT005 BKN025 FM021800
                       29005KT P6SM SCT007 BKN027 FM022100 33007KT
                       P6SM SCT040=
202107021124 TAF KCLM 021124Z 0212/0312 30006KT 1SM BR OVC002 FM021700 29005KT
                       P6SM OVC015 FM022100 33007KT P6SM SCT040=
202107020820 KCLM 020820Z 0208/0306 30005KT 2SM BR OVC002 FM021300 29005KT P6SM
                       OVC015 FM022100 33007KT P6SM SCT035=
202107020700 KCLM 020700Z 0207/0306 28004KT P6SM SCT002 OVC040
                      TEMPO 0207/0209 4SM BR OVC002 FM020900 29007KT
                       P6SM OVC025 FM021300 29005KT P6SM OVC015
                       FM022100 33007KT P6SM SCT035=
202107020520 TAF KCLM 020520Z 0206/0306 28004KT P6SM OVC050 FM020900 29007KT
                       P6SM OVC025 FM021300 29005KT P6SM OVC015
                       FM022100 33007KT P6SM SCT035=
202107012320 TAF KCLM 012320Z 0200/0224 32008KT P6SM FEW040 FM020900 29007KT
                       P6SM OVC025 FM021300 29005KT P6SM OVC015
                       FM022100 33007KT P6SM SCT035=
202107011732 TAF KCLM 011732Z 0118/0218 VRB04KT P6SM BKN035 BKN060 FM012200
                       32008KT P6SM SCT025 BKN060 FM020300 29010KT
                       P6SM SCT050 FM020900 29007KT P6SM OVC020=
202107011416 KCLM 011416Z 0114/0212 28006KT P6SM SCT005 OVC028
                      TEMPO 0114/0118 BKN005 OVC022 FM012200 32007KT
                       P6SM SCT025 FM020300 29007KT P6SM OVC025=
202107011332 KCLM 011332Z 0114/0212 28006KT P6SM SCT005 OVC028 FM012200 32007KT
                       P6SM SCT025 FM020300 29007KT P6SM OVC025=
202107011120 TAF KCLM 011120Z 0112/0212 28006KT P6SM OVC028 FM012200 32007KT
                       P6SM SCT025 FM020300 29007KT P6SM OVC025=
202107010520 TAF KCLM 010520Z 0106/0206 27009KT P6SM OVC016 FM011100 29010KT
                       P6SM OVC009 FM012200 32007KT P6SM SCT025=