##########################################################
# Query made at 02/16/2025 05:31:25 UTC
# Time interval: from 06/01/2022 00:00  to 06/30/2022 23:59  UTC
##########################################################

##########################################################
# KCLM, Port Angeles, William R. Fairchild International Airport (United States)
# WMO index: -----. WIGOS ID: Unknown
# Latitude 48-07-20N. Longitude 123-30-19W. Altitude 87 m.
##########################################################

###################################
#  METAR/SPECI from KCLM
###################################
202206302353 METAR KCLM 302353Z AUTO 31007KT 10SM BKN060 18/12 A3012 RMK AO2 SLP201 T01830117 10194 20172 58008=
202206302253 METAR KCLM 302253Z AUTO 29009KT 10SM CLR 19/12 A3013 RMK AO2 SLP203 T01890117=
202206302153 METAR KCLM 302153Z AUTO 31006KT 10SM OVC080 18/12 A3014 RMK AO2 SLP207 T01830117=
202206302053 METAR KCLM 302053Z AUTO 02004KT 10SM CLR 19/12 A3015 RMK AO2 SLP209 T01890117 57006=
202206301953 METAR KCLM 301953Z AUTO 34005KT 10SM CLR 18/12 A3016 RMK AO2 SLP211 T01780117=
202206301853 METAR KCLM 301853Z AUTO 34004KT 10SM CLR 18/11 A3016 RMK AO2 SLP213 T01780111=
202206301753 METAR KCLM 301753Z AUTO 03004KT 10SM CLR 17/12 A3017 RMK AO2 SLP215 T01720117 10172 20106 58002=
202206301653 METAR KCLM 301653Z AUTO VRB04KT 10SM CLR 17/12 A3017 RMK AO2 SLP215 T01720117=
202206301553 METAR KCLM 301553Z AUTO 35003KT 10SM CLR 15/11 A3017 RMK AO2 SLP218 T01500111=
202206301453 METAR KCLM 301453Z AUTO 00000KT 10SM CLR 16/12 A3017 RMK AO2 SLP218 T01560117 53001=
202206301353 METAR KCLM 301353Z AUTO 29003KT 10SM CLR 13/11 A3017 RMK AO2 SLP217 T01280111=
202206301253 METAR KCLM 301253Z AUTO 00000KT 10SM FEW025 11/09 A3017 RMK AO2 SLP216 T01110089=
202206301250 SPECI KCLM 301250Z AUTO 00000KT 10SM SCT025 11/09 A3017 RMK AO2=
202206301153 METAR KCLM 301153Z AUTO 00000KT 10SM OVC025 11/09 A3017 RMK AO2 SLP216 T01060089 10128 20094 58004=
202206301125 SPECI KCLM 301125Z AUTO 00000KT 10SM BKN024 11/09 A3017 RMK AO2 T01060094=
202206301053 METAR KCLM 301053Z AUTO 23003KT 10SM CLR 11/09 A3018 RMK AO2 SLP219 T01060094=
202206300953 METAR KCLM 300953Z AUTO 29006KT 10SM CLR 12/10 A3018 RMK AO2 SLP220 T01170100=
202206300853 METAR KCLM 300853Z AUTO 27003KT 10SM CLR 11/09 A3018 RMK AO2 SLP220 T01060094 56004=
202206300753 METAR KCLM 300753Z AUTO 24003KT 10SM CLR 12/10 A3018 RMK AO2 SLP221 T01170100 401720111=
202206300653 METAR KCLM 300653Z AUTO 25003KT 10SM CLR 12/10 A3018 RMK AO2 SLP221 T01170100=
202206300553 METAR KCLM 300553Z AUTO 23003KT 10SM CLR 13/11 A3019 RMK AO2 SLP223 T01280111 10167 20122 53002=
202206300453 METAR KCLM 300453Z AUTO 23004KT 10SM BKN060 13/11 A3019 RMK AO2 SLP221 T01330111=
202206300353 METAR KCLM 300353Z AUTO 31004KT 10SM OVC060 14/12 A3018 RMK AO2 SLP219 T01440117=
202206300253 METAR KCLM 300253Z AUTO 00000KT 10SM OVC060 16/12 A3019 RMK AO2 SLP222 T01610117 57004=
202206300153 METAR KCLM 300153Z AUTO 00000KT 10SM OVC048 17/11 A3019 RMK AO2 SLP223 T01670111=
202206300053 METAR KCLM 300053Z AUTO 00000KT 10SM OVC043 16/11 A3019 RMK AO2 SLP224 T01610111=
202206292353 METAR KCLM 292353Z AUTO 00000KT 10SM OVC044 16/12 A3020 RMK AO2 SLP226 T01610117 10172 20156 51003=
202206292253 METAR KCLM 292253Z AUTO 34005KT 10SM OVC044 16/11 A3019 RMK AO2 SLP224 T01610111=
202206292153 METAR KCLM 292153Z AUTO 34005KT 10SM OVC043 17/11 A3019 RMK AO2 SLP224 T01670111=
202206292053 METAR KCLM 292053Z AUTO 34005KT 10SM OVC044 16/11 A3019 RMK AO2 SLP223 T01610106 51007=
202206291953 METAR KCLM 291953Z AUTO 01004KT 10SM OVC041 17/11 A3018 RMK AO2 SLP220 T01720106=
202206291853 METAR KCLM 291853Z AUTO 00000KT 10SM OVC039 16/11 A3018 RMK AO2 SLP219 T01610106=
202206291753 METAR KCLM 291753Z AUTO 36005KT 10SM FEW016 OVC032 16/11 A3017 RMK AO2 SLP215 T01610111 10161 20122 51011=
202206291740 SPECI KCLM 291740Z AUTO 36004KT 10SM SCT016 OVC032 16/11 A3016 RMK AO2 T01560106=
202206291653 METAR KCLM 291653Z AUTO 29006KT 10SM BKN016 BKN028 OVC050 16/11 A3016 RMK AO2 SLP213 T01560111=
202206291553 METAR KCLM 291553Z AUTO 30007KT 10SM OVC016 14/11 A3015 RMK AO2 SLP211 T01440106=
202206291453 METAR KCLM 291453Z AUTO 31004KT 10SM OVC015 14/11 A3013 RMK AO2 SLP204 T01390106 53008=
202206291353 METAR KCLM 291353Z AUTO 29004KT 10SM OVC015 14/11 A3011 RMK AO2 SLP197 T01390111=
202206291315 SPECI KCLM 291315Z AUTO 22003KT 10SM BKN018 13/11 A3011 RMK AO2 T01280106=
202206291253 METAR KCLM 291253Z AUTO 25004KT 10SM FEW040 12/10 A3011 RMK AO2 SLP197 T01220100=
202206291153 METAR KCLM 291153Z AUTO 24004KT 10SM OVC040 13/11 A3011 RMK AO2 SLP196 70003 T01330106 10139 20122 51005=
202206291136 SPECI KCLM 291136Z AUTO 24003KT 10SM SCT019 OVC039 13/11 A3011 RMK AO2 T01330106=
202206291053 METAR KCLM 291053Z AUTO 26003KT 10SM OVC018 13/11 A3011 RMK AO2 SLP196 T01330111=
202206290953 METAR KCLM 290953Z AUTO 24003KT 10SM OVC016 13/11 A3010 RMK AO2 SLP192 T01330111=
202206290912 SPECI KCLM 290912Z AUTO 00000KT 10SM BKN017 OVC065 14/12 A3010 RMK AO2 T01390117=
202206290853 METAR KCLM 290853Z AUTO 26003KT 10SM FEW017 OVC065 13/11 A3010 RMK AO2 SLP191 T01330111 53002=
202206290812 SPECI KCLM 290812Z AUTO 27003KT 10SM BKN017 OVC070 14/11 A3009 RMK AO2 T01390111=
202206290753 METAR KCLM 290753Z AUTO 27004KT 10SM FEW017 SCT041 OVC070 14/11 A3009 RMK AO2 SLP189 T01390111 402060128=
202206290653 METAR KCLM 290653Z AUTO 00000KT 10SM FEW044 OVC060 14/11 A3009 RMK AO2 SLP190 T01390111=
202206290553 METAR KCLM 290553Z AUTO 00000KT 10SM OVC047 14/11 A3009 RMK AO2 SLP190 60000 T01390111 10150 20139 51006=
202206290453 METAR KCLM 290453Z AUTO 00000KT 10SM BKN055 OVC070 14/12 A3008 RMK AO2 SLP187 T01390117=
202206290353 METAR KCLM 290353Z AUTO 25004KT 10SM OVC048 14/12 A3009 RMK AO2 SLP189 T01440117=
202206290253 METAR KCLM 290253Z AUTO 28004KT 10SM FEW046 OVC055 15/12 A3007 RMK AO2 SLP184 60000 T01500117 53001=
202206290153 METAR KCLM 290153Z AUTO 29005KT 10SM OVC065 15/12 A3007 RMK AO2 SLP181 T01500117=
202206290053 METAR KCLM 290053Z AUTO 26005KT 10SM FEW060 OVC070 14/12 A3007 RMK AO2 RAB15E34 SLP182 P0000 T01440122=
202206282353 METAR KCLM 282353Z AUTO 28003KT 10SM BKN080 OVC095 14/12 A3007 RMK AO2 RAE23 SLP183 P0002 60003 T01390117 10206 20139 51009=
202206282253 METAR KCLM 282253Z AUTO 31006KT 7SM -RA FEW041 BKN065 OVC090 16/12 A3007 RMK AO2 RAE20B47 SLP181 P0001 T01560117=
202206282153 METAR KCLM 282153Z AUTO 00000KT 9SM -RA SCT070 OVC080 16/12 A3005 RMK AO2 RAB23 SLP176 P0000 T01560117=
202206282053 METAR KCLM 282053Z AUTO 01003KT 10SM FEW080 17/09 A3004 RMK AO2 SLP174 T01720094 51004=
202206281953 METAR KCLM 281953Z AUTO VRB03KT 10SM FEW065 18/09 A3004 RMK AO2 SLP172 T01780094=
202206281853 METAR KCLM 281853Z AUTO VRB03KT 10SM FEW036 BKN070 18/09 A3004 RMK AO2 SLP171 T01830094=
202206281753 METAR KCLM 281753Z AUTO 35005KT 10SM OVC030 17/10 A3003 RMK AO2 SLP170 T01720100 10172 20128 51015=
202206281717 SPECI KCLM 281717Z AUTO 34003KT 10SM OVC029 17/11 A3003 RMK AO2 T01670106=
202206281653 METAR KCLM 281653Z AUTO 36004KT 10SM OVC030 16/11 A3002 RMK AO2 SLP166 T01610106=
202206281553 METAR KCLM 281553Z AUTO VRB04KT 10SM CLR 16/10 A3001 RMK AO2 SLP163 T01610100=
202206281453 METAR KCLM 281453Z AUTO 08004KT 10SM CLR 16/11 A2999 RMK AO2 SLP154 T01610106 53009=
202206281421 SPECI KCLM 281421Z AUTO 00000KT 10SM SCT025 14/10 A2998 RMK AO2 T01440100=
202206281353 METAR KCLM 281353Z AUTO 30003KT 10SM OVC025 14/10 A2998 RMK AO2 SLP150 T01440100=
202206281253 METAR KCLM 281253Z AUTO 00000KT 10SM OVC026 13/10 A2996 RMK AO2 SLP145 T01330100=
202206281201 SPECI KCLM 281201Z AUTO 27004KT 10SM BKN029 13/11 A2996 RMK AO2 T01330106=
202206281153 METAR KCLM 281153Z AUTO 25005KT 10SM SCT029 13/10 A2996 RMK AO2 SLP144 T01280100 10144 20128 53001=
202206281053 METAR KCLM 281053Z AUTO 24006KT 10SM CLR 13/10 A2995 RMK AO2 SLP143 T01280100=
202206280953 METAR KCLM 280953Z AUTO 26006KT 10SM CLR 13/10 A2995 RMK AO2 SLP143 T01330100=
202206280853 METAR KCLM 280853Z AUTO 27008KT 10SM CLR 13/11 A2996 RMK AO2 SLP144 T01330106 51008=
202206280753 METAR KCLM 280753Z AUTO 26008G18KT 10SM CLR 13/11 A2995 RMK AO2 SLP142 T01330106 402670133=
202206280653 METAR KCLM 280653Z AUTO 28006KT 10SM CLR 13/11 A2995 RMK AO2 SLP141 T01330111=
202206280553 METAR KCLM 280553Z AUTO 27013G22KT 10SM CLR 14/11 A2994 RMK AO2 SLP136 T01440111 10222 20139 50012=
202206280453 METAR KCLM 280453Z AUTO 27014G19KT 10SM CLR 14/11 A2994 RMK AO2 SLP136 T01390111=
202206280353 METAR KCLM 280353Z AUTO 28014G23KT 10SM CLR 15/11 A2992 RMK AO2 SLP132 T01500111=
202206280253 METAR KCLM 280253Z AUTO 27010G16KT 10SM CLR 18/12 A2990 RMK AO2 SLP124 T01830117 55003=
202206280153 METAR KCLM 280153Z AUTO 29010KT 10SM CLR 21/12 A2990 RMK AO2 SLP122 T02060117=
202206280053 METAR KCLM 280053Z AUTO VRB04KT 10SM CLR 22/13 A2990 RMK AO2 SLP124 T02170128=
202206272353 METAR KCLM 272353Z AUTO 30009KT 10SM CLR 22/13 A2991 RMK AO2 SLP128 T02220128 10267 20183 58005=
202206272253 METAR KCLM 272253Z AUTO 30007KT 270V330 10SM CLR 20/12 A2992 RMK AO2 SLP132 T02000117=
202206272153 METAR KCLM 272153Z AUTO 30011G14KT 10SM CLR 21/12 A2993 RMK AO2 SLP133 T02110117=
202206272053 METAR KCLM 272053Z AUTO VRB04KT 10SM CLR 23/12 A2993 RMK AO2 SLP133 T02330122 56009=
202206271953 METAR KCLM 271953Z AUTO 04005KT 10SM CLR 26/11 A2994 RMK AO2 SLP136 T02560106=
202206271853 METAR KCLM 271853Z AUTO 04004KT 10SM CLR 24/12 A2995 RMK AO2 SLP139 T02440117=
202206271753 METAR KCLM 271753Z AUTO 10005KT 10SM CLR 24/12 A2996 RMK AO2 SLP143 T02390117 10244 20144 58012=
202206271653 METAR KCLM 271653Z AUTO 09005KT 10SM CLR 24/12 A2997 RMK AO2 SLP146 T02390117=
202206271553 METAR KCLM 271553Z AUTO 13005KT 10SM CLR 23/11 A2998 RMK AO2 SLP151 T02330111=
202206271453 METAR KCLM 271453Z AUTO 09003KT 10SM CLR 23/11 A2999 RMK AO2 SLP153 T02280106 51004=
202206271353 METAR KCLM 271353Z AUTO 00000KT 10SM CLR 18/12 A2999 RMK AO2 SLP154 T01830117=
202206271253 METAR KCLM 271253Z AUTO VRB03KT 10SM CLR 14/09 A2998 RMK AO2 SLP152 T01440094=
202206271153 METAR KCLM 271153Z AUTO 22005KT 10SM CLR 18/09 A2998 RMK AO2 SLP150 T01780089 10200 20161 52000=
202206271053 METAR KCLM 271053Z AUTO 23008KT 10SM CLR 19/09 A2998 RMK AO2 SLP150 T01890089=
202206270953 METAR KCLM 270953Z AUTO 22005KT 10SM CLR 18/09 A2998 RMK AO2 SLP149 T01780094=
202206270853 METAR KCLM 270853Z AUTO 23008KT 10SM CLR 19/09 A2998 RMK AO2 SLP149 T01940094 55004=
202206270753 METAR KCLM 270753Z AUTO 23008KT 10SM CLR 20/09 A2997 RMK AO2 SLP149 T02000094 402890150=
202206270653 METAR KCLM 270653Z AUTO 22008KT 10SM CLR 18/09 A2998 RMK AO2 SLP151 T01780094=
202206270553 METAR KCLM 270553Z AUTO 00000KT 10SM CLR 17/11 A2999 RMK AO2 SLP153 T01720106 10289 20172 53000=
202206270453 METAR KCLM 270453Z AUTO 00000KT 10SM CLR 18/12 A2999 RMK AO2 SLP153 T01830122=
202206270353 METAR KCLM 270353Z AUTO 00000KT 10SM CLR 23/12 A2998 RMK AO2 SLP151 T02330117=
202206270253 METAR KCLM 270253Z AUTO 00000KT 10SM CLR 27/10 A2999 RMK AO2 SLP152 T02720100 56013=
202206270153 METAR KCLM 270153Z AUTO 00000KT 10SM CLR 28/09 A3000 RMK AO2 SLP156 T02830094=
202206270053 METAR KCLM 270053Z AUTO 08003KT 10SM CLR 29/09 A3001 RMK AO2 SLP160 T02890089=
202206262353 METAR KCLM 262353Z AUTO VRB06KT 10SM CLR 28/11 A3002 RMK AO2 SLP166 T02830106 10283 20233 58016=
202206262253 METAR KCLM 262253Z AUTO 09006KT 10SM CLR 28/11 A3004 RMK AO2 SLP171 T02780106=
202206262153 METAR KCLM 262153Z AUTO 08008KT 10SM CLR 27/10 A3005 RMK AO2 SLP176 T02670100=
202206262053 METAR KCLM 262053Z AUTO 07007KT 050V120 10SM CLR 26/10 A3007 RMK AO2 SLP181 T02610100 58016=
202206261953 METAR KCLM 261953Z AUTO 09008KT 10SM CLR 25/10 A3009 RMK AO2 SLP188 T02500100=
202206261853 METAR KCLM 261853Z AUTO VRB06KT 10SM CLR 24/10 A3011 RMK AO2 SLP194 T02440100=
202206261753 METAR KCLM 261753Z AUTO 08005KT 10SM CLR 24/11 A3012 RMK AO2 SLP198 T02390106 10239 20150 58006=
202206261653 METAR KCLM 261653Z AUTO 09007KT 10SM CLR 23/11 A3013 RMK AO2 SLP200 T02280106=
202206261553 METAR KCLM 261553Z AUTO 10006KT 10SM CLR 22/11 A3014 RMK AO2 SLP203 T02220106=
202206261453 METAR KCLM 261453Z AUTO 07005KT 10SM CLR 22/10 A3014 RMK AO2 SLP203 T02170100 53006=
202206261353 METAR KCLM 261353Z AUTO 00000KT 10SM CLR 18/09 A3013 RMK AO2 SLP201 T01830094=
202206261253 METAR KCLM 261253Z AUTO VRB04KT 10SM CLR 16/09 A3012 RMK AO2 SLP198 T01560089=
202206261153 METAR KCLM 261153Z AUTO 23007KT 10SM CLR 17/08 A3012 RMK AO2 SLP197 T01670083 10194 20156 53002=
202206261053 METAR KCLM 261053Z AUTO 23006KT 10SM CLR 17/08 A3011 RMK AO2 SLP195 T01720083=
202206260953 METAR KCLM 260953Z AUTO 22005KT 10SM CLR 16/09 A3011 RMK AO2 SLP195 T01610089=
202206260853 METAR KCLM 260853Z AUTO 23007KT 10SM CLR 18/09 A3011 RMK AO2 SLP196 T01830089 50000=
202206260753 METAR KCLM 260753Z AUTO 23007KT 10SM CLR 18/09 A3011 RMK AO2 SLP196 T01780094 402780094=
202206260653 METAR KCLM 260653Z AUTO 23007KT 10SM CLR 19/09 A3011 RMK AO2 SLP196 T01890094=
202206260553 METAR KCLM 260553Z AUTO 23006KT 10SM CLR 19/10 A3011 RMK AO2 SLP195 T01890100 10278 20167 53001=
202206260453 METAR KCLM 260453Z AUTO 00000KT 10SM CLR 17/12 A3011 RMK AO2 SLP194 T01720117=
202206260353 METAR KCLM 260353Z AUTO 00000KT 10SM CLR 24/12 A3011 RMK AO2 SLP194 T02390117=
202206260253 METAR KCLM 260253Z AUTO 12006KT 10SM CLR 26/09 A3011 RMK AO2 SLP195 T02560094 56009=
202206260153 METAR KCLM 260153Z AUTO 09007KT 10SM CLR 27/08 A3011 RMK AO2 SLP196 T02720083=
202206260053 METAR KCLM 260053Z AUTO 11005KT 10SM CLR 27/11 A3012 RMK AO2 SLP199 T02670111=
202206252353 METAR KCLM 252353Z AUTO 10006KT 10SM CLR 27/11 A3014 RMK AO2 SLP204 T02670111 10267 20211 56016=
202206252253 METAR KCLM 252253Z AUTO 08007KT 10SM CLR 26/11 A3015 RMK AO2 SLP209 T02560106=
202206252153 METAR KCLM 252153Z AUTO 09006KT 10SM CLR 25/11 A3016 RMK AO2 SLP213 T02500111=
202206252053 METAR KCLM 252053Z AUTO 05006KT 10SM CLR 24/09 A3018 RMK AO2 SLP220 T02390094 58013=
202206251953 METAR KCLM 251953Z AUTO 08007KT 10SM CLR 23/09 A3020 RMK AO2 SLP226 T02280094=
202206251853 METAR KCLM 251853Z AUTO 10007KT 10SM CLR 22/11 A3022 RMK AO2 SLP233 T02220106=
202206251753 METAR KCLM 251753Z AUTO 07008KT 10SM CLR 22/10 A3022 RMK AO2 SLP232 T02170100 10217 20094 58002=
202206251653 METAR KCLM 251653Z AUTO 08008KT 10SM CLR 21/09 A3023 RMK AO2 SLP236 T02110094=
202206251553 METAR KCLM 251553Z AUTO 09008KT 10SM CLR 20/08 A3023 RMK AO2 SLP236 T02000083=
202206251453 METAR KCLM 251453Z AUTO 00000KT 10SM CLR 19/08 A3023 RMK AO2 SLP235 T01940083 51012=
202206251353 METAR KCLM 251353Z AUTO 20005KT 10SM CLR 16/08 A3022 RMK AO2 SLP231 T01560083=
202206251253 METAR KCLM 251253Z AUTO 22005KT 10SM CLR 10/06 A3021 RMK AO2 SLP229 T01000061=
202206251153 METAR KCLM 251153Z AUTO 00000KT 10SM CLR 10/06 A3019 RMK AO2 SLP224 T01000056 10139 20100 51003=
202206251053 METAR KCLM 251053Z AUTO 00000KT 10SM CLR 12/06 A3019 RMK AO2 SLP223 T01170056=
202206250953 METAR KCLM 250953Z AUTO 00000KT 10SM CLR 11/06 A3019 RMK AO2 SLP223 T01060056=
202206250853 METAR KCLM 250853Z AUTO 22005KT 10SM CLR 12/06 A3018 RMK AO2 SLP221 T01220056 58001=
202206250753 METAR KCLM 250753Z AUTO 00000KT 10SM CLR 11/06 A3019 RMK AO2 SLP222 T01110061 402500072=
202206250653 METAR KCLM 250653Z AUTO 00000KT 10SM CLR 11/07 A3019 RMK AO2 SLP223 T01110072=
202206250553 METAR KCLM 250553Z AUTO 23005KT 10SM CLR 14/08 A3019 RMK AO2 SLP222 T01390083 10250 20128 58002=
202206250453 METAR KCLM 250453Z AUTO 00000KT 10SM CLR 13/08 A3019 RMK AO2 SLP224 T01330083=
202206250353 METAR KCLM 250353Z AUTO 26004KT 10SM CLR 16/08 A3019 RMK AO2 SLP224 T01560083=
202206250253 METAR KCLM 250253Z AUTO 30005KT 10SM CLR 19/07 A3019 RMK AO2 SLP224 T01890067 55005=
202206250153 METAR KCLM 250153Z AUTO 00000KT 10SM CLR 22/08 A3019 RMK AO2 SLP224 T02170078=
202206250053 METAR KCLM 250053Z AUTO 00000KT 10SM CLR 24/03 A3020 RMK AO2 SLP226 T02390033=
202206242353 METAR KCLM 242353Z AUTO 10006KT 10SM CLR 24/04 A3021 RMK AO2 SLP229 T02390039 10244 20189 56011=
202206242253 METAR KCLM 242253Z AUTO 10005KT 10SM CLR 24/04 A3022 RMK AO2 SLP232 T02390044=
202206242153 METAR KCLM 242153Z AUTO VRB06KT 10SM CLR 23/06 A3023 RMK AO2 SLP237 T02280056=
202206242053 METAR KCLM 242053Z AUTO 09007KT 10SM CLR 22/08 A3024 RMK AO2 SLP240 T02220078 58002=
202206241953 METAR KCLM 241953Z AUTO 11007KT 10SM CLR 21/07 A3024 RMK AO2 SLP241 T02110072=
202206241853 METAR KCLM 241853Z AUTO 07006KT 10SM CLR 21/07 A3024 RMK AO2 SLP241 T02060067=
202206241753 METAR KCLM 241753Z AUTO 11006KT 10SM CLR 18/07 A3024 RMK AO2 SLP242 T01830067 10189 20072 51004=
202206241653 METAR KCLM 241653Z AUTO 05004KT 10SM CLR 17/08 A3024 RMK AO2 SLP241 T01670083=
202206241553 METAR KCLM 241553Z AUTO 00000KT 10SM CLR 16/09 A3024 RMK AO2 SLP240 T01610089=
202206241453 METAR KCLM 241453Z AUTO 34004KT 10SM CLR 15/06 A3023 RMK AO2 SLP237 T01500061 53010=
202206241353 METAR KCLM 241353Z AUTO 00000KT 10SM CLR 13/07 A3022 RMK AO2 SLP233 T01280067=
202206241253 METAR KCLM 241253Z AUTO 22003KT 10SM CLR 08/05 A3021 RMK AO2 SLP230 T00830050=
202206241153 METAR KCLM 241153Z AUTO 22004KT 10SM CLR 09/05 A3020 RMK AO2 SLP227 T00890050 10111 20083 53004=
202206241053 METAR KCLM 241053Z AUTO 24007KT 10SM CLR 10/05 A3019 RMK AO2 SLP223 T01000050=
202206240953 METAR KCLM 240953Z AUTO 23007KT 10SM CLR 10/06 A3019 RMK AO2 SLP225 T01000056=
202206240853 METAR KCLM 240853Z AUTO 23006KT 10SM CLR 11/06 A3019 RMK AO2 SLP223 T01060061 50002=
202206240753 METAR KCLM 240753Z AUTO 26005KT 10SM CLR 10/06 A3020 RMK AO2 SLP226 T01000061 401940061=
202206240653 METAR KCLM 240653Z AUTO 29006KT 10SM CLR 09/06 A3020 RMK AO2 SLP226 T00940056=
202206240553 METAR KCLM 240553Z AUTO 27004KT 10SM CLR 11/06 A3018 RMK AO2 SLP221 T01060056 10194 20100 53003=
202206240453 METAR KCLM 240453Z AUTO 25004KT 10SM CLR 11/06 A3018 RMK AO2 SLP219 T01110056=
202206240353 METAR KCLM 240353Z AUTO 25004KT 10SM CLR 13/07 A3016 RMK AO2 SLP212 T01280067=
202206240253 METAR KCLM 240253Z AUTO 30005KT 10SM CLR 14/07 A3017 RMK AO2 SLP218 T01440072 53001=
202206240153 METAR KCLM 240153Z AUTO 29007KT 10SM CLR 16/08 A3017 RMK AO2 SLP217 T01560083=
202206240053 METAR KCLM 240053Z AUTO 36004KT 10SM CLR 19/06 A3016 RMK AO2 SLP213 T01940056=
202206232353 METAR KCLM 232353Z AUTO 02005KT 10SM CLR 17/07 A3017 RMK AO2 SLP218 T01720072 10183 20144 55005=
202206232253 METAR KCLM 232253Z AUTO 08007KT 10SM CLR 17/08 A3016 RMK AO2 SLP214 T01720078=
202206232153 METAR KCLM 232153Z AUTO 08007KT 10SM CLR 18/08 A3017 RMK AO2 SLP217 T01780083=
202206232053 METAR KCLM 232053Z AUTO 10006KT 10SM CLR 17/08 A3019 RMK AO2 SLP222 T01670083 50006=
202206231953 METAR KCLM 231953Z AUTO VRB04KT 10SM CLR 16/08 A3019 RMK AO2 SLP224 T01610078=
202206231853 METAR KCLM 231853Z AUTO VRB04KT 10SM CLR 15/08 A3018 RMK AO2 SLP220 T01500083=
202206231753 METAR KCLM 231753Z AUTO 08007KT 10SM CLR 16/08 A3017 RMK AO2 SLP216 T01560078 10156 20061 50002=
202206231653 METAR KCLM 231653Z AUTO 34006KT 10SM CLR 14/08 A3018 RMK AO2 SLP219 T01390083=
202206231553 METAR KCLM 231553Z AUTO VRB04KT 10SM CLR 13/08 A3017 RMK AO2 SLP217 T01330083=
202206231453 METAR KCLM 231453Z AUTO 33003KT 10SM CLR 13/07 A3016 RMK AO2 SLP214 T01330067 53007=
202206231353 METAR KCLM 231353Z AUTO 24005KT 10SM CLR 11/07 A3015 RMK AO2 SLP209 T01060067=
202206231253 METAR KCLM 231253Z AUTO 21004KT 10SM CLR 08/05 A3015 RMK AO2 SLP210 T00780050=
202206231153 METAR KCLM 231153Z AUTO 23004KT 10SM CLR 07/05 A3014 RMK AO2 SLP208 T00720050 10117 20072 50001=
202206231053 METAR KCLM 231053Z AUTO 25004KT 10SM CLR 08/06 A3014 RMK AO2 SLP209 T00780056=
202206230953 METAR KCLM 230953Z AUTO 26007KT 10SM CLR 09/06 A3014 RMK AO2 SLP206 T00940061=
202206230853 METAR KCLM 230853Z AUTO 28004KT 10SM CLR 09/06 A3014 RMK AO2 SLP206 T00940056 58001=
202206230753 METAR KCLM 230753Z AUTO 27007KT 10SM CLR 11/05 A3014 RMK AO2 SLP208 T01060050 401670100=
202206230653 METAR KCLM 230653Z AUTO 29010KT 10SM CLR 11/05 A3014 RMK AO2 SLP205 T01110050=
202206230553 METAR KCLM 230553Z AUTO 30008G17KT 10SM CLR 12/05 A3014 RMK AO2 SLP206 T01170050 10156 20117 53004=
202206230453 METAR KCLM 230453Z AUTO 28010G20KT 10SM CLR 12/07 A3014 RMK AO2 SLP205 T01170067=
202206230353 METAR KCLM 230353Z AUTO 30010G18KT 10SM CLR 12/07 A3013 RMK AO2 SLP201 T01220072=
202206230253 METAR KCLM 230253Z AUTO 28011G21KT 10SM CLR 13/08 A3013 RMK AO2 SLP202 T01330078 56010=
202206230153 METAR KCLM 230153Z AUTO 30007G20KT 280V340 10SM CLR 15/07 A3013 RMK AO2 SLP204 T01500072=
202206230053 METAR KCLM 230053Z AUTO 30014G25KT 10SM CLR 15/08 A3014 RMK AO2 SLP208 T01500078=
202206222353 METAR KCLM 222353Z AUTO 30014G22KT 10SM CLR 16/09 A3016 RMK AO2 SLP213 T01560089 10167 20139 56009=
202206222253 METAR KCLM 222253Z AUTO 31014G22KT 10SM CLR 16/09 A3016 RMK AO2 SLP214 T01610089=
202206222153 METAR KCLM 222153Z AUTO 32012G22KT 10SM CLR 17/09 A3018 RMK AO2 SLP218 T01670089=
202206222106 SPECI KCLM 222106Z AUTO 30012G19KT 10SM SCT026 16/09 A3018 RMK AO2 T01610089=
202206222053 METAR KCLM 222053Z AUTO 30015G21KT 10SM BKN026 16/08 A3019 RMK AO2 SLP222 T01560083 58003=
202206221953 METAR KCLM 221953Z AUTO 30010G17KT 10SM OVC019 15/09 A3020 RMK AO2 SLP225 T01500089=
202206221853 METAR KCLM 221853Z AUTO 31007G16KT 10SM OVC018 14/09 A3020 RMK AO2 SLP226 T01440094=
202206221753 METAR KCLM 221753Z AUTO 31011G18KT 10SM OVC015 14/09 A3020 RMK AO2 SLP225 T01390094 10161 20122 53001=
202206221653 METAR KCLM 221653Z AUTO 30010KT 10SM OVC010 14/11 A3019 RMK AO2 SLP224 T01390106=
202206221649 SPECI KCLM 221649Z AUTO 30010G17KT 10SM OVC010 14/11 A3019 RMK AO2 CIG 007V013=
202206221632 SPECI KCLM 221632Z AUTO 31010KT 10SM BKN008 OVC022 13/11 A3019 RMK AO2 CIG 004V012 T01330106=
202206221620 SPECI KCLM 221620Z AUTO 30011KT 10SM FEW005 OVC022 14/11 A3019 RMK AO2 T01390111=
202206221553 METAR KCLM 221553Z AUTO 30008KT 10SM OVC021 16/10 A3019 RMK AO2 SLP224 T01560100=
202206221541 SPECI KCLM 221541Z AUTO 30009G19KT 260V330 10SM BKN021 16/10 A3019 RMK AO2 T01560100=
202206221518 SPECI KCLM 221518Z AUTO 29014KT 10SM SCT021 16/11 A3019 RMK AO2 T01560106=
202206221453 METAR KCLM 221453Z AUTO 28012KT 10SM BKN018 15/11 A3019 RMK AO2 SLP223 T01500111 57002=
202206221445 SPECI KCLM 221445Z AUTO 30011KT 10SM BKN018 15/11 A3019 RMK AO2 T01500111=
202206221401 SPECI KCLM 221401Z AUTO 26008KT 10SM FEW010 SCT023 13/11 A3019 RMK AO2 T01330111=
202206221353 METAR KCLM 221353Z AUTO 26010KT 10SM FEW010 BKN023 BKN070 13/11 A3019 RMK AO2 SLP223 T01330111=
202206221337 SPECI KCLM 221337Z AUTO 26008KT 10SM SCT010 BKN017 OVC023 13/11 A3019 RMK AO2 T01280111=
202206221323 SPECI KCLM 221323Z AUTO 27009KT 10SM BKN010 OVC016 13/11 A3019 RMK AO2 CIG 007V013 T01280111=
202206221253 METAR KCLM 221253Z AUTO 29008KT 10SM OVC007 12/11 A3019 RMK AO2 SLP224 T01220111=
202206221153 METAR KCLM 221153Z AUTO 28008KT 4SM BR OVC006 12/11 A3019 RMK AO2 CIG 003V007 SLP225 T01220111 10139 20122 55002=
202206221119 SPECI KCLM 221119Z AUTO 29008KT 3SM BR OVC004 12/11 A3019 RMK AO2 T01220111=
202206221053 METAR KCLM 221053Z AUTO 28008KT 2 1/2SM BR OVC004 13/11 A3019 RMK AO2 SLP224 T01280111=
202206220953 METAR KCLM 220953Z AUTO 29006KT 5SM BR OVC003 13/12 A3019 RMK AO2 SLP225 T01280117=
202206220853 METAR KCLM 220853Z AUTO 27008KT 4SM BR OVC003 13/12 A3020 RMK AO2 SLP227 T01280117 58005=
202206220753 METAR KCLM 220753Z AUTO 29008KT 9SM OVC003 13/12 A3021 RMK AO2 SLP228 T01330117 401940106=
202206220653 METAR KCLM 220653Z AUTO 29007KT 10SM OVC003 13/12 A3021 RMK AO2 SLP230 T01330117=
202206220609 SPECI KCLM 220609Z AUTO 29005KT 10SM OVC004 14/12 A3022 RMK AO2 T01390122=
202206220553 METAR KCLM 220553Z AUTO 29006KT 10SM OVC005 14/12 A3021 RMK AO2 SLP231 T01390122 10183 20139 56006=
202206220511 SPECI KCLM 220511Z AUTO 29007KT 10SM BKN006 OVC050 14/12 A3022 RMK AO2 T01390117=
202206220453 METAR KCLM 220453Z AUTO 29006KT 10SM SCT007 OVC050 14/12 A3022 RMK AO2 SLP232 T01440122=
202206220441 SPECI KCLM 220441Z AUTO 28006KT 10SM FEW007 OVC050 14/12 A3022 RMK AO2 T01440122=
202206220353 METAR KCLM 220353Z AUTO 29005KT 10SM FEW011 OVC055 15/12 A3022 RMK AO2 SLP235 T01500122=
202206220053 METAR KCLM 220053Z AUTO 30008KT 10SM FEW070 BKN085 18/13 A3026 RMK AO2 SLP245 T01780133=
202206212353 METAR KCLM 212353Z AUTO 30008KT 10SM SCT060 OVC075 18/13 A3028 RMK AO2 SLP252 T01780133 10194 20144 58010=
202206212253 METAR KCLM 212253Z AUTO 31007KT 10SM OVC070 18/13 A3029 RMK AO2 SLP257 T01830128=
202206212153 METAR KCLM 212153Z AUTO 31006KT 10SM OVC060 18/12 A3030 RMK AO2 SLP261 T01780122=
202206212053 METAR KCLM 212053Z AUTO 34005KT 10SM BKN070 19/13 A3030 RMK AO2 SLP262 T01890128 58009=
202206211953 METAR KCLM 211953Z AUTO VRB03KT 10SM BKN060 BKN100 18/12 A3032 RMK AO2 SLP269 T01830122=
202206211853 METAR KCLM 211853Z AUTO 35005KT 10SM BKN055 15/11 A3034 RMK AO2 SLP273 T01500106=
202206211753 METAR KCLM 211753Z AUTO 35007KT 10SM FEW045 BKN055 14/11 A3033 RMK AO2 SLP271 T01440106 10167 20111 58007=
202206211653 METAR KCLM 211653Z AUTO VRB03KT 10SM OVC050 14/11 A3035 RMK AO2 SLP278 T01440111=
202206211553 METAR KCLM 211553Z AUTO VRB03KT 10SM FEW007 14/11 A3035 RMK AO2 SLP278 T01390111=
202206211551 SPECI KCLM 211551Z AUTO 00000KT 10SM SCT007 14/11 A3035 RMK AO2=
202206211509 SPECI KCLM 211509Z AUTO 00000KT 10SM OVC006 13/11 A3036 RMK AO2 CIG 004V008 T01330106=
202206211453 METAR KCLM 211453Z AUTO 00000KT 10SM OVC004 13/11 A3036 RMK AO2 SLP281 T01280106 53001=
202206211353 METAR KCLM 211353Z AUTO 00000KT 10SM OVC003 12/10 A3035 RMK AO2 SLP279 T01170100=
202206211253 METAR KCLM 211253Z AUTO VRB03KT 7SM OVC002 12/10 A3035 RMK AO2 SLP279 T01170100=
202206211153 METAR KCLM 211153Z AUTO 28005KT 8SM OVC002 12/10 A3036 RMK AO2 SLP280 T01170100 10122 20106 50002=
202206211053 METAR KCLM 211053Z AUTO 29004KT 9SM OVC003 12/10 A3036 RMK AO2 SLP281 T01170100=
202206210953 METAR KCLM 210953Z AUTO 00000KT 10SM BKN003 11/09 A3035 RMK AO2 SLP279 T01110094=
202206210923 SPECI KCLM 210923Z AUTO 25003KT 10SM BKN004 12/10 A3035 RMK AO2 T01170100=
202206210902 SPECI KCLM 210902Z AUTO 00000KT 10SM SCT004 11/09 A3035 RMK AO2 T01110094=
202206210853 METAR KCLM 210853Z AUTO 00000KT 10SM BKN004 11/09 A3035 RMK AO2 SLP278 T01110094 53002=
202206210835 SPECI KCLM 210835Z AUTO 20004KT 10SM BKN004 12/10 A3035 RMK AO2 T01170100=
202206210753 METAR KCLM 210753Z AUTO 29004KT 10SM OVC005 12/11 A3034 RMK AO2 SLP275 T01170106 401830089=
202206210653 METAR KCLM 210653Z AUTO 29009KT 10SM OVC005 12/11 A3035 RMK AO2 SLP278 T01220106=
202206210624 SPECI KCLM 210624Z AUTO 28008KT 10SM BKN006 12/11 A3035 RMK AO2 T01220106=
202206210553 METAR KCLM 210553Z AUTO 34004KT 10SM FEW007 BKN070 12/10 A3035 RMK AO2 SLP276 T01220100 10178 20122 51003=
202206210549 SPECI KCLM 210549Z AUTO 31004KT 10SM SCT007 BKN070 12/10 A3034 RMK AO2=
202206210453 METAR KCLM 210453Z AUTO 29007KT 10SM OVC007 13/11 A3036 RMK AO2 SLP279 T01280106=
202206210353 METAR KCLM 210353Z AUTO 30005KT 10SM BKN008 13/10 A3034 RMK AO2 SLP273 T01280100=
202206210338 SPECI KCLM 210338Z AUTO 29006KT 10SM FEW009 13/10 A3033 RMK AO2 T01280100=
202206210253 METAR KCLM 210253Z AUTO 31009G18KT 10SM CLR 14/10 A3033 RMK AO2 SLP271 T01440100 55002=
202206210153 METAR KCLM 210153Z AUTO 30010KT 10SM FEW085 16/11 A3033 RMK AO2 SLP270 T01560106=
202206210053 METAR KCLM 210053Z AUTO 32008KT 10SM SCT070 17/11 A3033 RMK AO2 SLP272 T01720111=
202206202353 METAR KCLM 202353Z AUTO VRB06KT 10SM SCT080 17/11 A3034 RMK AO2 SLP273 T01720106 10183 20150 58001=
202206202253 METAR KCLM 202253Z AUTO 32007G15KT 10SM CLR 17/11 A3034 RMK AO2 SLP274 T01720106=
202206202153 METAR KCLM 202153Z AUTO 30009KT 10SM CLR 18/11 A3034 RMK AO2 SLP273 T01780111=
202206202053 METAR KCLM 202053Z AUTO 33005KT 10SM CLR 17/11 A3034 RMK AO2 SLP274 T01670106 51008=
202206201953 METAR KCLM 201953Z AUTO 29008KT 10SM FEW100 17/11 A3034 RMK AO2 SLP273 T01670106=
202206201853 METAR KCLM 201853Z AUTO 29009G16KT 10SM BKN033 16/11 A3033 RMK AO2 SLP271 T01560106=
202206201753 METAR KCLM 201753Z AUTO 30009G18KT 10SM OVC033 15/10 A3032 RMK AO2 SLP266 T01500100 10156 20089 51005=
202206201653 METAR KCLM 201653Z AUTO 30008KT 10SM OVC031 14/09 A3031 RMK AO2 SLP264 T01440094=
202206201553 METAR KCLM 201553Z AUTO 29008KT 10SM BKN032 OVC070 15/09 A3031 RMK AO2 SLP264 T01500094=
202206201453 METAR KCLM 201453Z AUTO 30009KT 10SM CLR 14/08 A3030 RMK AO2 SLP261 T01390083 51007=
202206201353 METAR KCLM 201353Z AUTO 25007KT 10SM CLR 11/07 A3030 RMK AO2 SLP260 T01110072=
202206201253 METAR KCLM 201253Z AUTO 24006KT 10SM FEW022 09/07 A3029 RMK AO2 SLP257 T00940067=
202206201153 METAR KCLM 201153Z AUTO 25005KT 10SM CLR 09/07 A3028 RMK AO2 SLP255 T00940067 10117 20089 53004=
202206201053 METAR KCLM 201053Z AUTO 21004KT 10SM CLR 10/07 A3027 RMK AO2 SLP252 T01000067=
202206200953 METAR KCLM 200953Z AUTO 27006KT 10SM FEW021 10/07 A3027 RMK AO2 SLP250 T01000067=
202206200948 SPECI KCLM 200948Z AUTO 28006KT 10SM SCT021 10/07 A3027 RMK AO2=
202206200853 METAR KCLM 200853Z AUTO 29007KT 10SM OVC020 11/08 A3026 RMK AO2 SLP248 T01110078 51001=
202206200753 METAR KCLM 200753Z AUTO 28008KT 10SM OVC020 12/08 A3026 RMK AO2 SLP247 T01170083 401720094=
202206200653 METAR KCLM 200653Z AUTO 29007KT 10SM OVC021 12/08 A3027 RMK AO2 SLP249 T01170083=
202206200553 METAR KCLM 200553Z AUTO 29007KT 10SM OVC023 12/08 A3026 RMK AO2 SLP247 T01170083 10161 20117 51011=
202206200453 METAR KCLM 200453Z AUTO 28009KT 10SM FEW015 BKN021 12/08 A3025 RMK AO2 SLP245 T01170083=
202206200353 METAR KCLM 200353Z AUTO 29014G23KT 10SM FEW016 12/08 A3023 RMK AO2 SLP236 T01220083=
202206200253 METAR KCLM 200253Z AUTO 29010KT 10SM FEW017 SCT025 14/09 A3022 RMK AO2 SLP235 T01390089 55002=
202206200239 SPECI KCLM 200239Z AUTO 30011G17KT 10SM FEW017 SCT026 13/09 A3022 RMK AO2 T01330089=
202206200218 SPECI KCLM 200218Z AUTO 31011G17KT 10SM SCT017 BKN025 14/09 A3022 RMK AO2 T01390089=
202206200153 METAR KCLM 200153Z AUTO 30009G18KT 10SM FEW025 14/09 A3022 RMK AO2 SLP233 T01440089=
202206200122 SPECI KCLM 200122Z AUTO 32011KT 10SM SCT023 15/09 A3022 RMK AO2 T01500089=
202206200053 METAR KCLM 200053Z AUTO 32010G18KT 10SM BKN023 15/09 A3022 RMK AO2 SLP233 T01500094=
202206192353 METAR KCLM 192353Z AUTO 31011G17KT 10SM OVC027 15/09 A3023 RMK AO2 SLP236 T01500094 10172 20150 51005=
202206192325 SPECI KCLM 192325Z AUTO 31010G18KT 10SM OVC029 16/10 A3023 RMK AO2 T01560100=
202206192253 METAR KCLM 192253Z AUTO 29009KT 10SM OVC031 17/11 A3023 RMK AO2 SLP235 T01670106=
202206192153 METAR KCLM 192153Z AUTO 30014G21KT 10SM OVC032 15/09 A3023 RMK AO2 SLP235 T01500094=
202206192053 METAR KCLM 192053Z AUTO 30012G18KT 10SM CLR 17/09 A3021 RMK AO2 SLP231 T01670094 53007=
202206191953 METAR KCLM 191953Z AUTO 32009G19KT 10SM BKN070 BKN085 17/09 A3020 RMK AO2 SLP227 T01670089=
202206191853 METAR KCLM 191853Z AUTO 30012G20KT 10SM BKN080 16/09 A3020 RMK AO2 SLP225 T01610089=
202206191753 METAR KCLM 191753Z AUTO 32010KT 10SM OVC075 15/09 A3019 RMK AO2 SLP223 T01500089 10161 20094 53005=
202206191653 METAR KCLM 191653Z AUTO 10SM BKN090 16/09 A3019 RMK AO2 SLP222 T01560094=
202206191553 METAR KCLM 191553Z AUTO 00000KT 10SM OVC095 14/08 A3018 RMK AO2 SLP219 T01390083=
202206191453 METAR KCLM 191453Z AUTO 26003KT 10SM OVC095 13/08 A3018 RMK AO2 SLP219 T01280078 53012=
202206191353 METAR KCLM 191353Z AUTO 25004KT 10SM OVC090 12/08 A3016 RMK AO2 SLP214 T01170078=
202206191253 METAR KCLM 191253Z AUTO 24005KT 10SM OVC090 11/08 A3015 RMK AO2 SLP210 T01060078=
202206191153 METAR KCLM 191153Z AUTO 00000KT 10SM FEW090 10/07 A3014 RMK AO2 SLP207 T01000072 10122 20100 53010=
202206191141 SPECI KCLM 191141Z AUTO 23004KT 10SM FEW021 10/08 A3014 RMK AO2 T01000078=
202206191053 METAR KCLM 191053Z AUTO 26006KT 10SM OVC020 12/08 A3013 RMK AO2 SLP201 T01170083=
202206191002 SPECI KCLM 191002Z AUTO 25004KT 10SM BKN020 11/08 A3012 RMK AO2 T01110083=
202206190953 METAR KCLM 190953Z AUTO 25005KT 10SM SCT022 11/08 A3012 RMK AO2 SLP199 T01110083=
202206190941 SPECI KCLM 190941Z AUTO 27006KT 10SM SCT022 11/08 A3012 RMK AO2 T01060083=
202206190853 METAR KCLM 190853Z AUTO 24006KT 10SM OVC024 12/09 A3011 RMK AO2 SLP197 T01170089 53005=
202206190818 SPECI KCLM 190818Z AUTO 26005KT 10SM BKN025 11/09 A3011 RMK AO2 T01110089=
202206190753 METAR KCLM 190753Z AUTO 26006KT 10SM CLR 11/08 A3011 RMK AO2 SLP196 T01110083 401670111=
202206190653 METAR KCLM 190653Z AUTO 27009KT 10SM FEW010 12/09 A3010 RMK AO2 SLP193 T01170089=
202206190553 METAR KCLM 190553Z AUTO 28010KT 10SM FEW015 OVC041 12/09 A3010 RMK AO2 SLP192 T01220089 10144 20122 51014=
202206190453 METAR KCLM 190453Z AUTO 29008KT 10SM OVC043 12/09 A3009 RMK AO2 SLP189 T01220089=
202206190353 METAR KCLM 190353Z AUTO 29008KT 10SM OVC045 13/09 A3007 RMK AO2 SLP183 T01280089=
202206190253 METAR KCLM 190253Z AUTO 27007KT 10SM OVC032 14/09 A3006 RMK AO2 SLP179 T01390094 51006=
202206190227 SPECI KCLM 190227Z AUTO 27008KT 10SM SCT026 OVC033 13/09 A3006 RMK AO2 T01330094=
202206190216 SPECI KCLM 190216Z AUTO 29008KT 10SM BKN026 OVC033 14/09 A3006 RMK AO2 T01390089=
202206190153 METAR KCLM 190153Z AUTO 29009KT 10SM OVC031 14/09 A3005 RMK AO2 SLP177 T01390089=
202206190053 METAR KCLM 190053Z AUTO 31007KT 10SM OVC026 14/09 A3005 RMK AO2 SLP177 T01440089=
202206190020 SPECI KCLM 190020Z AUTO 29009KT 10SM BKN027 OVC034 15/09 A3005 RMK AO2 T01500089=
202206182353 METAR KCLM 182353Z AUTO 30008KT 10SM SCT028 OVC034 15/09 A3004 RMK AO2 SLP173 T01500089 10167 20139 53010=
202206182253 METAR KCLM 182253Z AUTO 31008KT 10SM FEW025 OVC042 16/09 A3003 RMK AO2 SLP167 T01610094=
202206182153 METAR KCLM 182153Z AUTO 33009KT 10SM OVC036 16/09 A3002 RMK AO2 SLP167 T01560094=
202206182053 METAR KCLM 182053Z AUTO 31007KT 10SM SCT038 16/10 A3001 RMK AO2 SLP163 T01560100 51008=
202206181953 METAR KCLM 181953Z AUTO 31009G16KT 10SM BKN060 16/10 A3001 RMK AO2 SLP160 T01560100=
202206181853 METAR KCLM 181853Z AUTO 32007G16KT 10SM SCT042 BKN055 15/10 A3000 RMK AO2 SLP158 T01500100=
202206181753 METAR KCLM 181753Z AUTO 31008KT 10SM SCT044 OVC095 14/09 A2999 RMK AO2 SLP155 T01440094 10156 20111 51008=
202206181653 METAR KCLM 181653Z AUTO 31007KT 10SM SCT095 13/09 A2998 RMK AO2 SLP151 T01330094=
202206181553 METAR KCLM 181553Z AUTO 30006KT 10SM SCT080 13/09 A2998 RMK AO2 SLP151 T01330089=
202206181453 METAR KCLM 181453Z AUTO 30005KT 10SM SCT080 13/09 A2996 RMK AO2 SLP146 T01330089 53008=
202206181353 METAR KCLM 181353Z AUTO 00000KT 10SM CLR 12/08 A2995 RMK AO2 SLP141 T01220083=
202206181306 SPECI KCLM 181306Z AUTO 28004KT 10SM FEW025 SCT085 11/08 A2994 RMK AO2 T01110083=
202206181253 METAR KCLM 181253Z AUTO 27006KT 10SM BKN024 12/08 A2994 RMK AO2 SLP139 T01170083=
202206181153 METAR KCLM 181153Z AUTO 26005KT 10SM OVC026 12/08 A2994 RMK AO2 SLP138 T01170083 10117 20111 53011=
202206181119 SPECI KCLM 181119Z AUTO 25003KT 10SM FEW014 BKN028 BKN100 12/08 A2994 RMK AO2 T01170083=
202206181053 METAR KCLM 181053Z AUTO 24004KT 10SM SCT026 SCT100 11/08 A2993 RMK AO2 SLP135 T01110083=
202206181042 SPECI KCLM 181042Z AUTO 26005KT 10SM BKN025 OVC100 11/08 A2992 RMK AO2 T01110083=
202206180953 METAR KCLM 180953Z AUTO 27007KT 10SM OVC120 11/08 A2991 RMK AO2 SLP126 T01110083=
202206180853 METAR KCLM 180853Z AUTO 26005KT 10SM SCT080 OVC120 11/08 A2991 RMK AO2 SLP128 T01110083 50006=
202206180753 METAR KCLM 180753Z AUTO 27005KT 10SM SCT080 OVC110 12/08 A2991 RMK AO2 SLP130 T01170083 401670094=
202206180653 METAR KCLM 180653Z AUTO 26006KT 10SM OVC080 12/08 A2990 RMK AO2 SLP126 T01170083=
202206180553 METAR KCLM 180553Z AUTO 26005KT 10SM SCT085 12/09 A2989 RMK AO2 SLP122 T01170089 10144 20117 53008=
202206180453 METAR KCLM 180453Z AUTO 30010KT 10SM BKN080 BKN110 12/08 A2988 RMK AO2 SLP117 T01220083=
202206180353 METAR KCLM 180353Z AUTO 00000KT 10SM BKN080 BKN100 13/09 A2987 RMK AO2 SLP115 T01280089=
202206180253 METAR KCLM 180253Z AUTO 00000KT 10SM CLR 14/09 A2987 RMK AO2 SLP114 T01440094 53010=
202206180153 METAR KCLM 180153Z AUTO 31006KT 10SM FEW043 BKN100 14/09 A2985 RMK AO2 SLP107 T01440094=
202206180053 METAR KCLM 180053Z AUTO 29009KT 10SM FEW046 14/10 A2984 RMK AO2 SLP106 T01390100=
202206172353 METAR KCLM 172353Z AUTO 31007KT 10SM CLR 14/09 A2984 RMK AO2 SLP104 T01440094 10167 20144 52009=
202206172253 METAR KCLM 172253Z AUTO 28004KT 10SM CLR 16/09 A2983 RMK AO2 SLP101 T01610094=
202206172153 METAR KCLM 172153Z AUTO 30008KT 10SM BKN100 15/09 A2982 RMK AO2 SLP096 T01500094=
202206172053 METAR KCLM 172053Z AUTO 28007KT 10SM CLR 16/09 A2981 RMK AO2 SLP094 T01560094 51006=
202206171953 METAR KCLM 171953Z AUTO 33004KT 10SM SCT090 15/09 A2980 RMK AO2 SLP090 T01500094=
202206171853 METAR KCLM 171853Z AUTO 01004KT 10SM CLR 16/10 A2980 RMK AO2 SLP092 T01560100=
202206171753 METAR KCLM 171753Z AUTO VRB04KT 10SM CLR 16/11 A2979 RMK AO2 SLP088 T01560106 10161 20094 56012=
202206171653 METAR KCLM 171653Z AUTO 32005KT 10SM BKN041 14/10 A2980 RMK AO2 SLP089 T01390100=
202206171553 METAR KCLM 171553Z AUTO 29007KT 10SM OVC040 12/09 A2982 RMK AO2 SLP098 T01220089=
202206171453 METAR KCLM 171453Z AUTO 32003KT 10SM OVC039 12/09 A2983 RMK AO2 SLP100 T01220094 56009=
202206171353 METAR KCLM 171353Z AUTO 32005KT 10SM OVC036 11/09 A2983 RMK AO2 SLP100 T01110089=
202206171253 METAR KCLM 171253Z AUTO 30004KT 10SM BKN037 OVC046 09/08 A2984 RMK AO2 SLP106 T00940083=
202206171153 METAR KCLM 171153Z AUTO 23003KT 10SM BKN045 10/08 A2985 RMK AO2 SLP110 70002 T01000083 10128 20094 58009=
202206171053 METAR KCLM 171053Z AUTO 00000KT 10SM FEW040 10/08 A2986 RMK AO2 SLP114 T01000083=
202206170953 METAR KCLM 170953Z AUTO 29004KT 10SM SCT040 10/08 A2988 RMK AO2 SLP117 T01000083=
202206170853 METAR KCLM 170853Z AUTO 00000KT 10SM BKN050 11/09 A2988 RMK AO2 SLP118 T01060089 58017=
202206170753 METAR KCLM 170753Z AUTO 00000KT 10SM SCT055 11/09 A2990 RMK AO2 SLP124 T01110094 401670100=
202206170653 METAR KCLM 170653Z AUTO 23004KT 10SM CLR 11/09 A2991 RMK AO2 SLP130 T01110089=
202206170553 METAR KCLM 170553Z AUTO 26004KT 10SM OVC055 13/09 A2993 RMK AO2 SLP135 60000 T01330094 10156 20128 58005=
202206170453 METAR KCLM 170453Z AUTO 24005KT 10SM OVC050 13/10 A2994 RMK AO2 SLP138 T01330100=
202206170353 METAR KCLM 170353Z AUTO 25004KT 10SM FEW021 SCT050 SCT070 13/10 A2994 RMK AO2 SLP137 T01330100=
202206170253 METAR KCLM 170253Z AUTO 27004KT 10SM FEW070 14/10 A2995 RMK AO2 SLP140 60000 T01440100 55000=
202206170153 METAR KCLM 170153Z AUTO 30005KT 10SM OVC070 15/11 A2994 RMK AO2 SLP138 T01500106=
202206170053 METAR KCLM 170053Z AUTO 29005KT 10SM FEW041 BKN065 OVC080 15/12 A2995 RMK AO2 RAE2355B17E40 SLP141 P0000 T01500117=
202206162353 METAR KCLM 162353Z AUTO 00000KT 10SM -RA OVC065 14/12 A2995 RMK AO2 RAB03E13B36 SLP141 P0001 60002 T01440117 10167 20133 53004=
202206162253 METAR KCLM 162253Z AUTO 30004KT 10SM BKN060 BKN070 OVC085 14/10 A2994 RMK AO2 SLP139 T01390100=
202206162153 METAR KCLM 162153Z AUTO VRB04KT 10SM FEW085 16/09 A2993 RMK AO2 RAE11 SLP133 P0001 T01610094=
202206162053 METAR KCLM 162053Z AUTO 00000KT 8SM -RA FEW026 OVC050 15/10 A2993 RMK AO2 RAB02E19B50 SLP136 P0000 60000 T01500100 51005=
202206161953 METAR KCLM 161953Z AUTO 00000KT 10SM FEW043 OVC060 15/08 A2993 RMK AO2 SLP134 T01500083=
202206161853 METAR KCLM 161853Z AUTO VRB03KT 10SM FEW028 BKN055 OVC070 14/11 A2993 RMK AO2 SLP134 T01440106=
202206161753 METAR KCLM 161753Z AUTO 00000KT 10SM FEW008 SCT070 BKN110 14/11 A2992 RMK AO2 SLP130 60000 T01440106 10144 20100 53003=
202206161653 METAR KCLM 161653Z AUTO 03004KT 10SM FEW008 FEW120 14/10 A2991 RMK AO2 SLP128 T01390100=
202206161630 SPECI KCLM 161630Z AUTO 07003KT 10SM FEW008 14/11 A2991 RMK AO2 T01390106=
202206161553 METAR KCLM 161553Z AUTO 00000KT 10SM SCT070 13/10 A2991 RMK AO2 SLP129 T01280100=
202206161503 SPECI KCLM 161503Z AUTO 00000KT 10SM FEW004 SCT095 BKN110 12/11 A2991 RMK AO2 T01220106=
202206161453 METAR KCLM 161453Z AUTO 00000KT 10SM FEW023 BKN100 BKN120 12/10 A2991 RMK AO2 SLP128 60000 T01220100 50003=
202206161353 METAR KCLM 161353Z AUTO 00000KT 8SM FEW065 FEW085 BKN110 11/09 A2991 RMK AO2 RAB05E16 SLP129 P0000 T01110094=
202206161253 METAR KCLM 161253Z AUTO 00000KT 5SM BR BKN030 OVC090 11/09 A2990 RMK AO2 SLP125 T01060094=
202206161153 METAR KCLM 161153Z AUTO 00000KT 8SM BKN031 OVC065 10/09 A2990 RMK AO2 SLP125 60002 70008 T01000089 10111 20100 56002=
202206161053 METAR KCLM 161053Z AUTO 00000KT 7SM FEW034 SCT070 OVC090 11/09 A2990 RMK AO2 SLP125 T01060094=
202206161025 SPECI KCLM 161025Z AUTO 00000KT 5SM BR SCT029 OVC070 11/09 A2990 RMK AO2 T01060094=
202206161014 SPECI KCLM 161014Z AUTO 00000KT 5SM BR BKN029 OVC070 11/09 A2990 RMK AO2 T01060094=
202206161006 SPECI KCLM 161006Z AUTO 00000KT 2SM BR OVC029 11/09 A2990 RMK AO2 T01060094=
202206160953 METAR KCLM 160953Z AUTO 00000KT 3/4SM BR OVC029 11/09 A2990 RMK AO2 SLP127 T01060094=
202206160949 SPECI KCLM 160949Z AUTO 00000KT 1SM BR OVC029 11/09 A2990 RMK AO2=
202206160942 SPECI KCLM 160942Z AUTO 00000KT 2SM BR BKN029 OVC060 11/09 A2991 RMK AO2 T01060094=
202206160932 SPECI KCLM 160932Z AUTO 00000KT 4SM BR FEW006 BKN029 OVC060 11/09 A2991 RMK AO2 T01060094=
202206160923 SPECI KCLM 160923Z AUTO 00000KT 2SM BR SCT004 BKN029 OVC060 11/09 A2991 RMK AO2 T01060094=
202206160901 SPECI KCLM 160901Z AUTO 22003KT 1/2SM FG VV002 11/09 A2991 RMK AO2 T01060094=
202206160853 METAR KCLM 160853Z AUTO 00000KT 1SM BR OVC002 11/09 A2992 RMK AO2 SLP132 60002 T01060094 56006=
202206160850 SPECI KCLM 160850Z AUTO 19003KT 1 3/4SM BR OVC003 11/09 A2992 RMK AO2=
202206160843 SPECI KCLM 160843Z AUTO 00000KT 5SM BR OVC003 11/09 A2992 RMK AO2 T01060094=
202206160826 SPECI KCLM 160826Z AUTO 00000KT 2SM BR BKN002 OVC075 11/09 A2992 RMK AO2 T01060094=
202206160815 SPECI KCLM 160815Z AUTO 28003KT 1SM BR BKN002 BKN034 OVC070 11/09 A2992 RMK AO2 T01060089=
202206160810 SPECI KCLM 160810Z AUTO 29003KT 3/4SM BR SCT002 BKN034 OVC070 11/09 A2992 RMK AO2 T01060089=
202206160802 SPECI KCLM 160802Z AUTO 31003KT 2 1/2SM BR FEW002 SCT034 OVC070 11/09 A2992 RMK AO2 T01060089=
202206160753 METAR KCLM 160753Z AUTO 00000KT 4SM BR BKN034 BKN055 OVC070 11/09 A2992 RMK AO2 RAB14E49 SLP134 P0000 T01060094 401500089=
202206160705 SPECI KCLM 160705Z AUTO 08004KT 3SM BR FEW002 OVC080 11/09 A2992 RMK AO2 T01110094=
202206160653 METAR KCLM 160653Z AUTO 00000KT 2 1/2SM BR OVC085 11/09 A2992 RMK AO2 RAB02E42 SLP131 P0002 T01060094=
202206160553 METAR KCLM 160553Z AUTO 11003KT 8SM FEW003 BKN070 OVC110 11/09 A2993 RMK AO2 RAB38E51 SLP138 P0000 60006 T01110094 10139 20111 55002=
202206160531 SPECI KCLM 160531Z AUTO 11007KT 7SM FEW003 BKN070 BKN100 11/09 A2993 RMK AO2 T01110094=
202206160453 METAR KCLM 160453Z AUTO 00000KT 10SM SCT100 11/10 A2992 RMK AO2 RAE31 SLP133 P0000 T01110100=
202206160353 METAR KCLM 160353Z AUTO 32004KT 7SM -RA OVC060 12/10 A2993 RMK AO2 SLP135 P0004 T01170100=
202206160253 METAR KCLM 160253Z AUTO 00000KT 6SM -RA BR SCT046 BKN060 OVC075 11/09 A2994 RMK AO2 RAB35 SLP140 P0001 60002 T01110089 55007=
202206160153 METAR KCLM 160153Z AUTO 00000KT 10SM OVC060 12/09 A2994 RMK AO2 RAE49 SLP138 P0001 T01170089=
202206160053 METAR KCLM 160053Z AUTO 31003KT 8SM -RA BKN046 OVC080 13/09 A2995 RMK AO2 RAB49 SLP143 P0000 T01280094=
202206152353 METAR KCLM 152353Z AUTO 11003KT 10SM BKN039 BKN055 OVC075 13/09 A2996 RMK AO2 RAB07E50 SLP147 P0000 60000 T01330089 10150 20128 58003=
202206152253 METAR KCLM 152253Z AUTO 09003KT 10SM BKN044 OVC100 14/07 A2997 RMK AO2 SLP149 T01390072=
202206152153 METAR KCLM 152153Z AUTO 02004KT 10SM OVC041 13/08 A2997 RMK AO2 SLP149 T01330078=
202206152053 METAR KCLM 152053Z AUTO 07003KT 10SM CLR 14/08 A2997 RMK AO2 SLP149 T01390078 56009=
202206151953 METAR KCLM 151953Z AUTO VRB04KT 10SM CLR 14/07 A2999 RMK AO2 SLP154 T01390067=
202206151853 METAR KCLM 151853Z AUTO 08006KT 10SM CLR 14/07 A2998 RMK AO2 SLP152 T01440072=
202206151753 METAR KCLM 151753Z AUTO 00000KT 10SM CLR 12/07 A3000 RMK AO2 SLP160 T01220067 10133 20089 56016=
202206151653 METAR KCLM 151653Z AUTO VRB03KT 10SM FEW019 12/08 A3001 RMK AO2 SLP162 T01220078=
202206151553 METAR KCLM 151553Z AUTO 00000KT 10SM FEW022 13/07 A3003 RMK AO2 SLP169 T01280067=
202206151453 METAR KCLM 151453Z AUTO 00000KT 10SM FEW021 12/07 A3005 RMK AO2 SLP175 T01220072 58017=
202206151353 METAR KCLM 151353Z AUTO 00000KT 10SM CLR 10/08 A3007 RMK AO2 SLP183 T01000078=
202206151253 METAR KCLM 151253Z AUTO 00000KT 10SM CLR 09/07 A3008 RMK AO2 SLP188 T00940072=
202206151153 METAR KCLM 151153Z AUTO 24004KT 10SM SCT024 10/07 A3010 RMK AO2 SLP193 T01000072 10111 20100 58020=
202206151053 METAR KCLM 151053Z AUTO 31003KT 10SM OVC025 10/07 A3012 RMK AO2 SLP199 T01000067=
202206150953 METAR KCLM 150953Z AUTO 29003KT 10SM OVC027 11/07 A3014 RMK AO2 SLP206 T01060067=
202206150853 METAR KCLM 150853Z AUTO 27003KT 10SM OVC028 11/07 A3016 RMK AO2 SLP212 T01110067 56014=
202206150753 METAR KCLM 150753Z AUTO 28006KT 10SM OVC029 11/07 A3018 RMK AO2 SLP219 T01110067 401500089=
202206150653 METAR KCLM 150653Z AUTO 28006KT 10SM BKN029 11/07 A3018 RMK AO2 SLP218 T01060067=
202206150553 METAR KCLM 150553Z AUTO 27008KT 10SM OVC035 11/08 A3020 RMK AO2 SLP227 T01110078 10150 20106 56010=
202206150453 METAR KCLM 150453Z AUTO 28007KT 10SM BKN030 OVC037 11/08 A3021 RMK AO2 SLP231 T01110078=
202206150424 SPECI KCLM 150424Z AUTO 27008KT 10SM OVC030 12/08 A3021 RMK AO2 T01170078=
202206150353 METAR KCLM 150353Z AUTO 30005KT 10SM SCT017 OVC029 12/08 A3022 RMK AO2 SLP232 T01170078=
202206150253 METAR KCLM 150253Z AUTO 29011G22KT 10SM BKN020 OVC028 12/07 A3023 RMK AO2 SLP238 T01170072 50000=
202206150153 METAR KCLM 150153Z AUTO 30012G20KT 10SM BKN024 OVC031 12/07 A3023 RMK AO2 SLP237 T01220072=
202206150144 SPECI KCLM 150144Z AUTO 31011G19KT 10SM BKN024 OVC033 12/07 A3023 RMK AO2 T01220067=
202206150053 METAR KCLM 150053Z AUTO 30014G24KT 10SM OVC037 13/07 A3023 RMK AO2 SLP239 T01330072=
202206142353 METAR KCLM 142353Z AUTO 30009G20KT 10SM BKN039 14/08 A3023 RMK AO2 SLP238 T01440083 10150 20128 53003=
202206142253 METAR KCLM 142253Z AUTO 30014G22KT 10SM CLR 14/08 A3023 RMK AO2 SLP237 T01440078=
202206142153 METAR KCLM 142153Z AUTO 31012G21KT 10SM CLR 14/08 A3022 RMK AO2 PK WND 30027/2119 SLP236 T01440083=
202206142053 METAR KCLM 142053Z AUTO 30012G22KT 10SM CLR 14/08 A3022 RMK AO2 PK WND 30026/2041 SLP234 T01440083 51009=
202206141953 METAR KCLM 141953Z AUTO 29015G25KT 10SM SCT011 14/09 A3022 RMK AO2 PK WND 31028/1925 SLP234 T01440089=
202206141928 SPECI KCLM 141928Z AUTO 30015G28KT 10SM BKN010 13/09 A3022 RMK AO2 PK WND 31028/1925 CIG 008V013 T01280089=
202206141853 METAR KCLM 141853Z AUTO 33012G23KT 300V010 10SM CLR 15/08 A3020 RMK AO2 SLP227 T01500083=
202206141753 METAR KCLM 141753Z AUTO 29013G23KT 10SM SCT038 13/08 A3019 RMK AO2 SLP225 T01330078 10144 20089 53002=
202206141653 METAR KCLM 141653Z AUTO 31013G19KT 10SM CLR 14/07 A3018 RMK AO2 SLP221 T01390072=
202206141553 METAR KCLM 141553Z AUTO 30011G15KT 10SM CLR 13/07 A3018 RMK AO2 SLP222 T01330067=
202206141453 METAR KCLM 141453Z AUTO 28007KT 10SM SCT032 12/06 A3019 RMK AO2 SLP224 T01170061 53008=
202206141353 METAR KCLM 141353Z AUTO 26006KT 10SM FEW029 FEW060 10/06 A3018 RMK AO2 SLP220 T01000056=
202206141253 METAR KCLM 141253Z AUTO 26007KT 10SM CLR 09/05 A3017 RMK AO2 SLP219 T00940050=
202206141153 METAR KCLM 141153Z AUTO 29009KT 10SM FEW029 SCT045 09/04 A3017 RMK AO2 SLP216 60000 T00940044 10106 20089 53003=
202206141053 METAR KCLM 141053Z AUTO 27007KT 10SM SCT050 09/05 A3016 RMK AO2 SLP213 T00940050=
202206140953 METAR KCLM 140953Z AUTO 28010G15KT 10SM SCT035 10/05 A3015 RMK AO2 SLP212 T01000050=
202206140853 METAR KCLM 140853Z AUTO 29007KT 10SM SCT042 BKN055 11/05 A3015 RMK AO2 SLP212 60000 T01060050 51004=
202206140753 METAR KCLM 140753Z AUTO 25007KT 10SM SCT049 OVC060 10/06 A3015 RMK AO2 RAB0654E10 SLP212 P0000 T01000061 401560094=
202206140653 METAR KCLM 140653Z AUTO 29005KT 10SM BKN041 OVC050 11/07 A3015 RMK AO2 RAB34E48 SLP210 P0000 T01060067 TSNO=
202206140553 METAR KCLM 140553Z AUTO 00000KT 10SM SCT055 11/07 A3014 RMK AO2 SLP207 T01060067 10139 20100 53004=
202206140453 METAR KCLM 140453Z AUTO 31010KT 10SM BKN065 OVC080 11/07 A3013 RMK AO2 SLP203 T01110072=
202206140353 METAR KCLM 140353Z AUTO 33007KT 10SM BKN060 11/07 A3012 RMK AO2 SLP200 T01110072=
202206140253 METAR KCLM 140253Z AUTO 31009KT 10SM FEW060 12/08 A3013 RMK AO2 SLP202 T01170078 53008=
202206140153 METAR KCLM 140153Z AUTO 31011G21KT 10SM SCT065 SCT100 12/08 A3012 RMK AO2 PK WND 30026/0128 SLP201 T01220078=
202206140053 METAR KCLM 140053Z AUTO 30014G27KT 10SM FEW060 13/07 A3011 RMK AO2 PK WND 33029/2357 SLP195 T01330072=
202206132353 METAR KCLM 132353Z AUTO 31018G29KT 10SM BKN060 13/09 A3011 RMK AO2 PK WND 31029/2352 SLP195 T01330089 10156 20122 53013=
202206132253 METAR KCLM 132253Z AUTO 30018G29KT 10SM CLR 14/08 A3009 RMK AO2 PK WND 31030/2225 SLP189 T01390083=
202206132153 METAR KCLM 132153Z AUTO 31016G31KT 10SM CLR 14/08 A3008 RMK AO2 PK WND 29032/2054 SLP185 T01440083=
202206132053 METAR KCLM 132053Z AUTO 32016G31KT 10SM CLR 14/08 A3007 RMK AO2 PK WND 30031/2023 SLP182 T01390078 51011=
202206131953 METAR KCLM 131953Z AUTO 30017G30KT 10SM CLR 14/08 A3005 RMK AO2 PK WND 29030/1953 SLP177 T01390083=
202206131853 METAR KCLM 131853Z AUTO 31013G23KT 10SM OVC050 14/07 A3005 RMK AO2 SLP176 T01440067=
202206131753 METAR KCLM 131753Z AUTO 32011G25KT 10SM BKN055 15/07 A3004 RMK AO2 SLP171 T01500072 10156 20111 51013=
202206131653 METAR KCLM 131653Z AUTO 31010G19KT 270V340 10SM BKN055 14/07 A3003 RMK AO2 SLP168 T01440067=
202206131553 METAR KCLM 131553Z AUTO 28014G24KT 10SM CLR 15/04 A3001 RMK AO2 SLP163 T01500044=
202206131453 METAR KCLM 131453Z AUTO 28014G22KT 10SM OVC055 13/05 A3000 RMK AO2 SLP158 T01330050 53013=
202206131353 METAR KCLM 131353Z AUTO 29012KT 10SM BKN050 13/05 A2998 RMK AO2 SLP152 T01330050=
202206131253 METAR KCLM 131253Z AUTO 29011KT 10SM OVC048 12/05 A2997 RMK AO2 SLP148 T01170050=
202206131153 METAR KCLM 131153Z AUTO 29008KT 10SM OVC049 11/06 A2996 RMK AO2 SLP145 T01110056 10117 20100 53014=
202206131053 METAR KCLM 131053Z AUTO 28008KT 10SM BKN050 11/06 A2994 RMK AO2 SLP139 T01060056=
202206130953 METAR KCLM 130953Z AUTO 26010KT 10SM CLR 11/04 A2993 RMK AO2 SLP133 T01060044=
202206130853 METAR KCLM 130853Z AUTO 29011G18KT 10SM FEW080 11/05 A2992 RMK AO2 SLP131 T01110050 51007=
202206130753 METAR KCLM 130753Z AUTO 29008KT 10SM BKN080 11/04 A2991 RMK AO2 SLP128 T01110044 401560106=
202206130653 METAR KCLM 130653Z AUTO 29009KT 10SM FEW080 11/04 A2991 RMK AO2 SLP127 T01110039=
202206130553 METAR KCLM 130553Z AUTO 27011G20KT 10SM CLR 12/04 A2990 RMK AO2 PK WND 27027/0531 SLP124 T01170044 10144 20106 53012=
202206130453 METAR KCLM 130453Z AUTO 28010KT 10SM CLR 11/05 A2988 RMK AO2 SLP120 T01110050=
202206130353 METAR KCLM 130353Z AUTO 29009G18KT 10SM CLR 12/06 A2987 RMK AO2 SLP115 T01170056=
202206130253 METAR KCLM 130253Z AUTO 30012G23KT 10SM FEW048 12/06 A2986 RMK AO2 PK WND 27026/0221 SLP112 T01220056 53006=
202206130153 METAR KCLM 130153Z AUTO 30011KT 10SM BKN049 13/08 A2985 RMK AO2 SLP110 T01330078=
202206130053 METAR KCLM 130053Z AUTO 30012G23KT 10SM OVC047 14/08 A2984 RMK AO2 SLP105 T01390078=
202206122353 METAR KCLM 122353Z AUTO 31010G18KT 10SM FEW035 OVC047 14/08 A2984 RMK AO2 PK WND 30027/2309 SLP105 T01390083 10156 20133 53006=
202206122253 METAR KCLM 122253Z AUTO 30015G26KT 10SM BKN045 BKN070 14/08 A2984 RMK AO2 PK WND 30027/2240 SLP103 T01390083=
202206122153 METAR KCLM 122153Z AUTO 29013G20KT 10SM SCT041 OVC050 15/09 A2983 RMK AO2 SLP101 T01500089=
202206122053 METAR KCLM 122053Z AUTO 31011G19KT 10SM OVC046 14/08 A2982 RMK AO2 SLP099 T01440078 56004=
202206121953 METAR KCLM 121953Z AUTO 30008G18KT 10SM OVC046 15/07 A2982 RMK AO2 SLP099 T01500067=
202206121853 METAR KCLM 121853Z AUTO 31011G19KT 10SM FEW035 OVC045 14/06 A2983 RMK AO2 SLP101 T01440056=
202206121753 METAR KCLM 121753Z AUTO 32010G16KT 10SM OVC047 14/06 A2983 RMK AO2 SLP102 T01390061 10144 20111 58008=
202206121653 METAR KCLM 121653Z AUTO 30010G15KT 10SM BKN042 OVC065 14/07 A2984 RMK AO2 SLP105 T01440067=
202206121553 METAR KCLM 121553Z AUTO 29007KT 10SM OVC039 12/05 A2986 RMK AO2 SLP112 T01220050=
202206121453 METAR KCLM 121453Z AUTO 26007KT 10SM OVC041 12/06 A2986 RMK AO2 SLP110 T01170056 58004=
202206121353 METAR KCLM 121353Z AUTO 31004KT 10SM OVC032 11/06 A2986 RMK AO2 SLP112 T01110061=
202206121253 METAR KCLM 121253Z AUTO 28007KT 10SM SCT030 OVC037 11/06 A2987 RMK AO2 SLP114 T01110061=
202206121153 METAR KCLM 121153Z AUTO 29007KT 10SM OVC027 11/07 A2987 RMK AO2 SLP115 T01110067 10122 20111 57010=
202206121053 METAR KCLM 121053Z AUTO 27008KT 10SM OVC025 11/07 A2988 RMK AO2 SLP118 T01110072=
202206120953 METAR KCLM 120953Z AUTO 26007KT 10SM OVC027 11/07 A2989 RMK AO2 SLP122 T01110072=
202206120902 SPECI KCLM 120902Z AUTO 26006KT 10SM BKN029 OVC037 12/08 A2990 RMK AO2 T01170078=
202206120853 METAR KCLM 120853Z AUTO 26007KT 10SM BKN030 OVC036 11/08 A2990 RMK AO2 SLP125 T01110083 56006=
202206120836 SPECI KCLM 120836Z AUTO 27008KT 10SM BKN030 OVC038 11/08 A2990 RMK AO2 T01110083=
202206120753 METAR KCLM 120753Z AUTO 28008KT 10SM FEW012 BKN028 OVC040 12/09 A2991 RMK AO2 SLP127 T01170089 401670111=
202206120738 SPECI KCLM 120738Z AUTO 29009KT 10SM FEW011 OVC028 12/09 A2991 RMK AO2 T01170089=
202206120653 METAR KCLM 120653Z AUTO 29006KT 10SM OVC010 12/09 A2991 RMK AO2 SLP129 T01170094=
202206120609 SPECI KCLM 120609Z AUTO 30010G19KT 10SM FEW007 BKN014 OVC024 12/09 A2992 RMK AO2 T01220094=
202206120553 METAR KCLM 120553Z AUTO 28012G21KT 10SM FEW007 BKN016 OVC026 12/09 A2992 RMK AO2 SLP132 T01220094 10150 20122 55004=
202206120537 SPECI KCLM 120537Z AUTO 29012G20KT 10SM SCT009 SCT014 OVC026 12/09 A2992 RMK AO2 T01220094=
202206120453 METAR KCLM 120453Z AUTO 29013G20KT 10SM BKN018 OVC025 12/09 A2992 RMK AO2 SLP131 T01220094=
202206120353 METAR KCLM 120353Z AUTO 30008G18KT 10SM OVC016 13/09 A2993 RMK AO2 SLP135 T01280089=
202206120253 METAR KCLM 120253Z AUTO 26011KT 10SM OVC017 13/09 A2993 RMK AO2 SLP135 T01330094 56007=
202206120153 METAR KCLM 120153Z AUTO 28010KT 10SM BKN017 BKN060 OVC075 14/09 A2993 RMK AO2 SLP136 T01390094=
202206120123 SPECI KCLM 120123Z AUTO 28010KT 10SM SCT019 BKN060 OVC080 15/11 A2993 RMK AO2 T01500106=
202206120053 METAR KCLM 120053Z AUTO 28012KT 10SM OVC018 14/10 A2994 RMK AO2 SLP138 T01440100=
202206120029 SPECI KCLM 120029Z AUTO 28010KT 10SM OVC015 14/10 A2994 RMK AO2 T01390100=
202206112353 METAR KCLM 112353Z AUTO 29011G19KT 10SM BKN013 OVC046 14/10 A2995 RMK AO2 SLP142 T01440100 10167 20144 58001=
202206112301 SPECI KCLM 112301Z AUTO 30010KT 10SM BKN011 OVC020 14/11 A2996 RMK AO2 T01440106=
202206112253 METAR KCLM 112253Z AUTO 28010KT 10SM SCT010 OVC020 14/11 A2996 RMK AO2 SLP144 T01440106=
202206112153 METAR KCLM 112153Z AUTO 30012KT 10SM BKN019 OVC049 16/11 A2996 RMK AO2 SLP143 T01560111=
202206112142 SPECI KCLM 112142Z AUTO 30010KT 10SM BKN019 OVC049 16/11 A2996 RMK AO2 T01610111=
202206112053 METAR KCLM 112053Z AUTO VRB05KT 10SM FEW019 OVC049 15/11 A2996 RMK AO2 SLP143 T01500106 53001=
202206111953 METAR KCLM 111953Z AUTO VRB05KT 10SM BKN049 BKN060 OVC085 16/11 A2995 RMK AO2 SLP141 T01560106=
202206111853 METAR KCLM 111853Z AUTO 00000KT 10SM SCT015 SCT050 BKN090 16/11 A2996 RMK AO2 SLP144 T01560106=
202206111803 SPECI KCLM 111803Z AUTO 07004KT 10SM OVC015 16/11 A2995 RMK AO2 T01560106=
202206111753 METAR KCLM 111753Z AUTO VRB04KT 10SM OVC013 16/11 A2995 RMK AO2 SLP143 T01610111 10161 20111 53004=
202206111653 METAR KCLM 111653Z AUTO 35005KT 10SM OVC013 14/11 A2995 RMK AO2 SLP142 T01390106=
202206111553 METAR KCLM 111553Z AUTO 30003KT 10SM OVC011 14/11 A2994 RMK AO2 SLP139 T01390106=
202206111453 METAR KCLM 111453Z AUTO 31005KT 10SM OVC012 13/11 A2994 RMK AO2 SLP139 T01330111 52006=
202206111437 SPECI KCLM 111437Z AUTO 30003KT 10SM BKN014 13/11 A2994 RMK AO2 T01330106=
202206111353 METAR KCLM 111353Z AUTO 29005KT 10SM FEW013 13/11 A2993 RMK AO2 SLP136 T01280106=
202206111346 SPECI KCLM 111346Z AUTO 31003KT 10SM SCT013 13/11 A2993 RMK AO2 T01280111=
202206111253 METAR KCLM 111253Z AUTO 25003KT 10SM OVC013 12/10 A2993 RMK AO2 SLP135 T01170100=
202206111226 SPECI KCLM 111226Z AUTO 25003KT 10SM BKN012 11/10 A2993 RMK AO2 T01110100=
202206111214 SPECI KCLM 111214Z AUTO 27006KT 10SM SCT014 SCT020 11/10 A2993 RMK AO2 T01110100=
202206111153 METAR KCLM 111153Z AUTO 25006KT 10SM BKN018 12/10 A2992 RMK AO2 SLP133 70006 T01170100 10133 20117 50004=
202206111144 SPECI KCLM 111144Z AUTO 25005KT 10SM SCT015 OVC021 12/10 A2992 RMK AO2 T01170100=
202206111111 SPECI KCLM 111111Z AUTO 27005KT 10SM SCT005 OVC012 12/10 A2992 RMK AO2 T01170100=
202206111053 METAR KCLM 111053Z AUTO 27003KT 10SM OVC006 12/10 A2992 RMK AO2 SLP133 T01170100=
202206110953 METAR KCLM 110953Z AUTO 00000KT 10SM BKN007 OVC022 12/10 A2991 RMK AO2 CIG 005V009 SLP129 T01220100=
202206110943 SPECI KCLM 110943Z AUTO 00000KT 10SM BKN007 OVC022 12/11 A2991 RMK AO2 T01220106=
202206110920 SPECI KCLM 110920Z AUTO 29006KT 10SM FEW005 BKN021 OVC075 12/11 A2991 RMK AO2 T01220106=
202206110908 SPECI KCLM 110908Z AUTO 30004KT 10SM SCT010 BKN022 BKN075 12/11 A2991 RMK AO2 T01220106=
202206110853 METAR KCLM 110853Z AUTO 30008KT 10SM BKN010 OVC075 12/11 A2991 RMK AO2 CIG 005V014 SLP127 T01220106 58003=
202206110753 METAR KCLM 110753Z AUTO 29004KT 10SM OVC008 13/11 A2991 RMK AO2 CIG 005V011 SLP128 T01280111 401610094=
202206110721 SPECI KCLM 110721Z AUTO 28007KT 10SM OVC005 13/11 A2991 RMK AO2 T01280111=
202206110653 METAR KCLM 110653Z AUTO 29005KT 10SM OVC004 13/11 A2991 RMK AO2 SLP129 T01280111=
202206110553 METAR KCLM 110553Z AUTO 29004KT 10SM OVC004 13/12 A2991 RMK AO2 CIG 003V007 SLP130 60005 T01330117 10150 20133 53001=
202206110513 SPECI KCLM 110513Z AUTO 30003KT 10SM OVC008 13/12 A2992 RMK AO2 T01330122=
202206110453 METAR KCLM 110453Z AUTO 28005KT 10SM OVC010 13/12 A2991 RMK AO2 RAE38 CIG 008V014 SLP130 P0001 T01330117=
202206110443 SPECI KCLM 110443Z AUTO 29005KT 10SM FEW006 OVC010 13/12 A2991 RMK AO2 RAE38 P0001 T01330117=
202206110353 METAR KCLM 110353Z AUTO 31003KT 10SM -RA BKN006 OVC010 13/12 A2990 RMK AO2 RAB48 SLP126 P0000 T01330117=
202206110300 SPECI KCLM 110300Z AUTO 29008KT 10SM BKN005 BKN070 OVC085 13/12 A2992 RMK AO2 CIG 004V009 T01330117=
202206110253 METAR KCLM 110253Z AUTO 28005KT 10SM SCT005 BKN065 OVC085 13/12 A2991 RMK AO2 RAE30 SLP129 P0001 60004 T01330122 58002=
202206110153 METAR KCLM 110153Z AUTO 31005KT 3SM -RA BR FEW004 BKN049 OVC055 13/12 A2992 RMK AO2 RAB15 SLP131 P0002 T01330117=
202206110053 METAR KCLM 110053Z AUTO 29005KT 10SM FEW048 SCT060 OVC080 14/12 A2992 RMK AO2 RAB25E49 SLP130 P0001 T01390117=
202206102353 METAR KCLM 102353Z AUTO 29004KT 10SM FEW034 SCT055 BKN070 15/12 A2992 RMK AO2 RAB30E49 SLP131 P0001 60001 T01500122 10161 20144 56011=
202206102253 METAR KCLM 102253Z AUTO 27004KT 10SM SCT015 BKN090 BKN110 15/12 A2992 RMK AO2 SLP132 T01500117=
202206102153 METAR KCLM 102153Z AUTO 29005KT 10SM BKN014 BKN034 16/12 A2994 RMK AO2 SLP139 T01560117=
202206102146 SPECI KCLM 102146Z AUTO 30005KT 10SM BKN014 BKN034 16/12 A2994 RMK AO2 T01560117=
202206102119 SPECI KCLM 102119Z AUTO 30006KT 10SM SCT014 OVC035 16/11 A2995 RMK AO2 T01560111=
202206102053 METAR KCLM 102053Z AUTO 30007KT 10SM OVC014 15/11 A2995 RMK AO2 SLP142 T01500111 53002=
202206101953 METAR KCLM 101953Z AUTO 30007KT 10SM OVC012 15/11 A2995 RMK AO2 SLP143 T01500111=
202206101853 METAR KCLM 101853Z AUTO 35005KT 10SM BKN012 OVC030 16/12 A2994 RMK AO2 SLP139 T01560117=
202206101824 SPECI KCLM 101824Z AUTO 31005KT 10SM SCT007 OVC013 15/12 A2995 RMK AO2 T01500117=
202206101753 METAR KCLM 101753Z AUTO VRB04KT 10SM OVC006 14/12 A2995 RMK AO2 SLP142 T01440117 10144 20117 50003=
202206101702 SPECI KCLM 101702Z AUTO VRB05KT 9SM OVC005 14/12 A2996 RMK AO2 CIG 003V009 T01390117=
202206101653 METAR KCLM 101653Z AUTO 32005KT 8SM OVC004 14/12 A2996 RMK AO2 CIG 003V008 SLP146 T01390117=
202206101645 SPECI KCLM 101645Z AUTO 33005KT 8SM OVC004 13/11 A2996 RMK AO2 CIG 003V007 T01330111=
202206101553 METAR KCLM 101553Z AUTO 32004KT 9SM OVC006 13/12 A2995 RMK AO2 CIG 004V008 SLP142 T01330117=
202206101525 SPECI KCLM 101525Z AUTO 00000KT 10SM BKN006 OVC009 13/12 A2994 RMK AO2 CIG 004V009 T01330117 TSNO=
202206101518 SPECI KCLM 101518Z AUTO 00000KT 10SM BKN004 OVC009 13/12 A2994 RMK AO2 T01330122=
202206101505 SPECI KCLM 101505Z AUTO 30003KT 10SM BKN006 OVC009 13/12 A2994 RMK AO2 CIG 004V009 T01280117=
202206101453 METAR KCLM 101453Z AUTO 00000KT 10SM BKN004 OVC008 13/11 A2994 RMK AO2 CIG 004V007 SLP138 T01280111 51007=
202206101353 METAR KCLM 101353Z AUTO 00000KT 10SM OVC008 13/12 A2993 RMK AO2 SLP136 T01280117=
202206101307 SPECI KCLM 101307Z AUTO 27004KT 10SM OVC009 12/11 A2992 RMK AO2 CIG 007V012 T01220111=
202206101253 METAR KCLM 101253Z AUTO 28004KT 10SM OVC011 12/11 A2992 RMK AO2 SLP133 T01220106=
202206101153 METAR KCLM 101153Z AUTO 00000KT 10SM OVC012 12/11 A2991 RMK AO2 SLP131 70054 T01220111 10122 20094 51025=
202206101119 SPECI KCLM 101119Z AUTO 00000KT 10SM SCT006 OVC013 11/10 A2990 RMK AO2 T01110100=
202206101053 METAR KCLM 101053Z AUTO 00000KT 8SM OVC006 11/09 A2990 RMK AO2 SLP126 T01060094=
202206101028 SPECI KCLM 101028Z AUTO 00000KT 6SM BR BKN006 BKN060 10/09 A2989 RMK AO2 T01000089=
202206100953 METAR KCLM 100953Z AUTO 00000KT 4SM BR SCT009 BKN060 10/09 A2987 RMK AO2 SLP116 T01000089=
202206100934 SPECI KCLM 100934Z AUTO 00000KT 5SM BR SCT007 OVC060 10/09 A2986 RMK AO2 T01000089=
202206100927 SPECI KCLM 100927Z AUTO 16003KT 2 1/2SM BR BKN007 OVC060 11/09 A2986 RMK AO2 T01060094=
202206100909 SPECI KCLM 100909Z AUTO 17003KT 4SM BR SCT002 OVC008 11/10 A2986 RMK AO2 T01060100=
202206100900 SPECI KCLM 100900Z AUTO 00000KT 2SM BR BKN002 OVC008 11/10 A2985 RMK AO2 T01060100=
202206100853 METAR KCLM 100853Z AUTO 00000KT 1 3/4SM BR OVC002 11/09 A2984 RMK AO2 SLP105 T01110094 53015=
202206100822 SPECI KCLM 100822Z AUTO 00000KT 3/4SM BR OVC002 11/11 A2983 RMK AO2 T01110106=
202206100809 SPECI KCLM 100809Z AUTO VRB03KT 1 3/4SM BR OVC002 11/10 A2982 RMK AO2 T01110100=
202206100753 METAR KCLM 100753Z AUTO 21003KT 5SM BR OVC003 11/10 A2981 RMK AO2 SLP097 T01110100 401280094=
202206100711 SPECI KCLM 100711Z AUTO 22004KT 7SM BKN003 BKN009 11/09 A2980 RMK AO2 T01060094=
202206100704 SPECI KCLM 100704Z AUTO 00000KT 4SM BR SCT003 BKN009 10/09 A2981 RMK AO2 T01000089=
202206100700 SPECI KCLM 100700Z AUTO 00000KT 1 3/4SM BR SCT003 BKN009 10/09 A2980 RMK AO2 T01000089=
202206100653 METAR KCLM 100653Z AUTO VRB03KT 1 1/4SM BR SCT003 SCT010 09/09 A2980 RMK AO2 VIS 3/4V2 SLP092 T00940089=
202206100642 SPECI KCLM 100642Z AUTO 31004KT 1 1/4SM BR FEW001 BKN010 09/08 A2979 RMK AO2 T00940078=
202206100635 SPECI KCLM 100635Z AUTO 29005KT 2SM BR BKN011 09/08 A2979 RMK AO2 VIS 1V4 T00940083=
202206100616 SPECI KCLM 100616Z AUTO 20004KT 4SM BR BKN011 10/09 A2979 RMK AO2 T01000089=
202206100606 SPECI KCLM 100606Z AUTO 27004KT 2SM BR FEW013 SCT070 09/08 A2978 RMK AO2 VIS 1V5 T00940083=
202206100553 METAR KCLM 100553Z AUTO 00000KT 3/4SM BR FEW070 10/09 A2978 RMK AO2 SLP084 60015 T01000089 10128 20100 51012=
202206100546 SPECI KCLM 100546Z AUTO 00000KT 1 3/4SM BR FEW065 10/09 A2978 RMK AO2 VIS 3/4V5 T01000089=
202206100523 SPECI KCLM 100523Z AUTO 16004KT 3SM BR FEW009 11/09 A2978 RMK AO2 T01060089=
202206100511 SPECI KCLM 100511Z AUTO 10003KT 1 1/2SM BR FEW003 SCT009 SCT065 11/09 A2978 RMK AO2 VIS 1/2V5 T01060094=
202206100506 SPECI KCLM 100506Z AUTO 00000KT 4SM BR FEW003 SCT009 SCT065 11/09 A2978 RMK AO2 T01060094=
202206100453 METAR KCLM 100453Z AUTO 00000KT 2 1/2SM BR SCT003 SCT070 11/09 A2977 RMK AO2 RAE17 SLP082 P0000 T01060094=
202206100422 SPECI KCLM 100422Z AUTO 00000KT 9SM SCT009 SCT037 BKN065 11/10 A2977 RMK AO2 RAE17 P0000 T01110100=
202206100353 METAR KCLM 100353Z AUTO 27004KT 8SM -RA SCT001 OVC009 11/10 A2978 RMK AO2 RAB41 SLP085 P0000 T01110100=
202206100343 SPECI KCLM 100343Z AUTO 28004KT 4SM -RA BR BKN001 OVC010 11/10 A2978 RMK AO2 RAB41 P0000 T01110100=
202206100341 SPECI KCLM 100341Z AUTO 27003KT 1 1/4SM -RA BR BKN001 OVC010 11/10 A2977 RMK AO2 RAB41 P0000 T01110100=
202206100335 SPECI KCLM 100335Z AUTO 25004KT 1/4SM FG VV001 11/10 A2978 RMK AO2 PRESRR T01110100=
202206100309 SPECI KCLM 100309Z AUTO VRB03KT M1/4SM FG VV001 11/10 A2975 RMK AO2 T01110100=
202206100301 SPECI KCLM 100301Z AUTO 00000KT 1/4SM FG OVC002 11/10 A2975 RMK AO2 T01110100=
202206100258 SPECI KCLM 100258Z AUTO VRB04KT 1SM BR OVC002 11/10 A2975 RMK AO2 VIS M1/4V5 T01110100=
202206100253 METAR KCLM 100253Z AUTO VRB03KT 5SM BR OVC002 12/10 A2974 RMK AO2 RAE39 SLP072 P0002 60015 T01170100 58018=
202206100232 SPECI KCLM 100232Z AUTO VRB04KT 5SM -RA BR BKN003 OVC095 12/11 A2973 RMK AO2 P0002 T01170106=
202206100153 METAR KCLM 100153Z AUTO 08007KT 5SM -RA BR FEW002 OVC090 12/11 A2975 RMK AO2 SLP076 P0008 T01220106=
202206100053 METAR KCLM 100053Z AUTO 00000KT 4SM -RA BR OVC070 12/10 A2979 RMK AO2 SLP090 P0005 T01220100=
202206100021 SPECI KCLM 100021Z AUTO 30003KT 3SM -RA BR SCT003 BKN065 OVC080 12/11 A2979 RMK AO2 P0002 T01220106=
202206100010 SPECI KCLM 100010Z AUTO 00000KT 5SM -RA BR BKN003 BKN060 OVC080 12/11 A2979 RMK AO2 P0001 T01220106=
202206092353 METAR KCLM 092353Z AUTO 00000KT 4SM -RA BR SCT003 BKN060 OVC080 12/11 A2980 RMK AO2 SLP089 P0004 60026 T01220106 10122 20117 56020=
202206092342 SPECI KCLM 092342Z AUTO 00000KT 4SM -RA BR SCT005 OVC060 12/11 A2980 RMK AO2 P0003 T01170106=
202206092321 SPECI KCLM 092321Z AUTO 33003KT 6SM -RA BR BKN005 OVC060 12/11 A2980 RMK AO2 P0001 T01170106=
202206092253 METAR KCLM 092253Z AUTO 04003KT 7SM -RA OVC004 12/11 A2981 RMK AO2 SLP094 P0003 T01220106=
202206092153 METAR KCLM 092153Z AUTO 34003KT 3SM -RA BR OVC003 12/10 A2984 RMK AO2 SLP106 P0009 T01170100=
202206092146 SPECI KCLM 092146Z AUTO 33004KT 3SM -RA BR OVC003 12/11 A2984 RMK AO2 P0008 T01170106=
202206092131 SPECI KCLM 092131Z AUTO 00000KT 2 1/2SM -RA BR OVC004 12/11 A2984 RMK AO2 P0006 T01170106=
202206092053 METAR KCLM 092053Z AUTO 30004KT 4SM -RA BR BKN004 OVC008 12/11 A2985 RMK AO2 SLP110 P0004 60010 T01220106 56014=
202206091953 METAR KCLM 091953Z AUTO 35003KT 3SM -RA BR BKN004 OVC010 12/11 A2986 RMK AO2 CIG 001V005 SLP113 P0004 T01170106=
202206091942 SPECI KCLM 091942Z AUTO 00000KT 4SM -RA BR BKN004 OVC010 12/11 A2986 RMK AO2 CIG 001V008 P0003 T01220106=
202206091935 SPECI KCLM 091935Z AUTO 31003KT 5SM -RA BR SCT004 BKN009 OVC065 12/11 A2987 RMK AO2 P0003 T01220106=
202206091853 METAR KCLM 091853Z AUTO 29004KT 4SM -RA BR OVC003 12/11 A2987 RMK AO2 SLP116 P0002 T01220106=
202206091753 METAR KCLM 091753Z AUTO 29004KT 3SM -RA BR OVC002 12/11 A2990 RMK AO2 SLP124 P0004 60013 T01170106 10128 20117 58004=
202206091749 SPECI KCLM 091749Z AUTO 33003KT 3SM -RA BR OVC002 12/11 A2990 RMK AO2 P0004=
202206091740 SPECI KCLM 091740Z AUTO 33004KT 1 1/2SM -RA BR OVC003 12/11 A2990 RMK AO2 P0004 T01170106=
202206091733 SPECI KCLM 091733Z AUTO 34005KT 3/4SM -RA BR OVC002 12/10 A2990 RMK AO2 P0003 T01170100=
202206091719 SPECI KCLM 091719Z AUTO 33005KT 1 3/4SM -RA BR BKN004 OVC014 12/11 A2991 RMK AO2 P0002 T01170106=
202206091653 METAR KCLM 091653Z AUTO 32003KT 4SM -RA BR BKN004 BKN014 OVC044 12/10 A2991 RMK AO2 SLP127 P0001 T01220100=
202206091651 SPECI KCLM 091651Z AUTO 34003KT 4SM -RA BR SCT004 BKN014 OVC044 12/10 A2991 RMK AO2 P0001=
202206091642 SPECI KCLM 091642Z AUTO 34003KT 4SM -RA BR BKN004 BKN014 OVC050 12/11 A2991 RMK AO2 P0001 T01220106=
202206091628 SPECI KCLM 091628Z AUTO 33003KT 4SM -RA BR BKN005 OVC014 12/11 A2991 RMK AO2 P0000 T01220106=
202206091621 SPECI KCLM 091621Z AUTO 34003KT 5SM -RA BR SCT005 BKN014 OVC070 13/11 A2991 RMK AO2 P0000 T01280106=
202206091609 SPECI KCLM 091609Z AUTO 00000KT 5SM -RA BR FEW004 SCT014 OVC070 13/11 A2991 RMK AO2 P0000 T01280106=
202206091553 METAR KCLM 091553Z AUTO 00000KT 5SM -RA BR OVC065 13/11 A2991 RMK AO2 SLP129 P0003 T01280106=
202206091453 METAR KCLM 091453Z AUTO 00000KT 3SM -RA BR BKN070 OVC090 12/11 A2992 RMK AO2 SLP133 P0005 60005 T01220111 56014=
202206091353 METAR KCLM 091353Z AUTO 00000KT 9SM -RA OVC080 12/11 A2994 RMK AO2 SLP139 P0000 T01220106=
202206091253 METAR KCLM 091253Z AUTO 00000KT 9SM -RA OVC100 12/10 A2995 RMK AO2 RAB08 SLP140 P0000 T01170100=
202206091153 METAR KCLM 091153Z AUTO 26006KT 10SM OVC100 13/09 A2997 RMK AO2 SLP147 T01280094 10128 20117 53003=
202206091053 METAR KCLM 091053Z AUTO 24003KT 10SM SCT100 12/09 A2996 RMK AO2 SLP143 T01220094=
202206090953 METAR KCLM 090953Z AUTO 00000KT 10SM OVC100 12/09 A2995 RMK AO2 SLP143 T01170094=
202206090853 METAR KCLM 090853Z AUTO 00000KT 10SM BKN110 12/09 A2996 RMK AO2 SLP144 T01220094 58015=
202206090753 METAR KCLM 090753Z AUTO 25003KT 10SM CLR 13/09 A2999 RMK AO2 SLP155 T01280094 401830100=
202206090653 METAR KCLM 090653Z AUTO 28006KT 10SM CLR 13/09 A2999 RMK AO2 SLP157 T01280089=
202206090553 METAR KCLM 090553Z AUTO 28007KT 10SM CLR 13/09 A3000 RMK AO2 SLP159 T01280089 10172 20128 58005=
202206090453 METAR KCLM 090453Z AUTO 27006KT 10SM CLR 13/09 A3001 RMK AO2 SLP161 T01280089=
202206090353 METAR KCLM 090353Z AUTO 27008KT 10SM CLR 14/09 A3001 RMK AO2 SLP163 T01390089=
202206090253 METAR KCLM 090253Z AUTO 28007KT 10SM CLR 16/09 A3002 RMK AO2 SLP164 T01560094 56007=
202206090153 METAR KCLM 090153Z AUTO 31009KT 10SM CLR 16/08 A3002 RMK AO2 SLP166 T01560083=
202206090053 METAR KCLM 090053Z AUTO 31007KT 10SM CLR 16/08 A3002 RMK AO2 SLP167 T01610078=
202206082353 METAR KCLM 082353Z AUTO 30009KT 10SM FEW075 17/08 A3004 RMK AO2 SLP171 T01720083 10183 20150 58004=
202206082253 METAR KCLM 082253Z AUTO 30010KT 10SM CLR 18/08 A3005 RMK AO2 SLP175 T01780083=
202206082153 METAR KCLM 082153Z AUTO 30010KT 10SM CLR 18/08 A3005 RMK AO2 SLP176 T01830083=
202206082053 METAR KCLM 082053Z AUTO 31012KT 10SM BKN048 16/08 A3005 RMK AO2 SLP175 T01610083 51008=
202206081953 METAR KCLM 081953Z AUTO 29009G16KT 10SM CLR 17/09 A3004 RMK AO2 SLP174 T01670089=
202206081853 METAR KCLM 081853Z AUTO 31008KT 10SM SCT041 16/09 A3004 RMK AO2 SLP174 T01560089=
202206081753 METAR KCLM 081753Z AUTO 32008KT 10SM CLR 15/09 A3003 RMK AO2 SLP167 T01500094 10161 20100 51015=
202206081653 METAR KCLM 081653Z AUTO 31007KT 10SM CLR 16/10 A3001 RMK AO2 SLP163 T01560100=
202206081553 METAR KCLM 081553Z AUTO 33006KT 10SM CLR 15/10 A3000 RMK AO2 SLP157 T01500100=
202206081453 METAR KCLM 081453Z AUTO 00000KT 10SM CLR 16/09 A2998 RMK AO2 SLP152 T01560094 53011=
202206081353 METAR KCLM 081353Z AUTO 00000KT 10SM SCT070 14/10 A2997 RMK AO2 SLP147 T01440100=
202206081253 METAR KCLM 081253Z AUTO 23003KT 10SM OVC065 11/08 A2995 RMK AO2 SLP142 T01060083=
202206081153 METAR KCLM 081153Z AUTO 00000KT 10SM CLR 10/08 A2995 RMK AO2 SLP141 60000 T01000078 10144 20100 53001=
202206081053 METAR KCLM 081053Z AUTO 23005KT 10SM FEW070 BKN085 12/09 A2994 RMK AO2 SLP139 T01220089=
202206080953 METAR KCLM 080953Z AUTO 24006KT 10SM OVC070 13/09 A2995 RMK AO2 RAB32E46 SLP140 P0000 T01330089=
202206080853 METAR KCLM 080853Z AUTO 24006KT 10SM SCT085 BKN110 12/08 A2994 RMK AO2 SLP140 T01220083 51006=
202206080753 METAR KCLM 080753Z AUTO 22004KT 10SM SCT100 12/08 A2994 RMK AO2 SLP139 T01220083 401670061=
202206080653 METAR KCLM 080653Z AUTO 00000KT 10SM FEW070 SCT100 SCT120 13/08 A2994 RMK AO2 SLP137 T01280083=
202206080553 METAR KCLM 080553Z AUTO 17005KT 10SM FEW120 13/09 A2993 RMK AO2 SLP134 60000 T01330089 10167 20133 50008=
202206080453 METAR KCLM 080453Z AUTO 26006KT 10SM FEW070 SCT120 14/08 A2993 RMK AO2 RAB0354E08 SLP136 P0000 T01440083=
202206080353 METAR KCLM 080353Z AUTO VRB03KT 10SM SCT070 BKN090 BKN110 16/09 A2991 RMK AO2 SLP129 T01560089=
202206080253 METAR KCLM 080253Z AUTO 28005KT 10SM OVC110 16/11 A2990 RMK AO2 SLP126 T01560106 55000=
202206080153 METAR KCLM 080153Z AUTO 00000KT 10SM FEW120 17/11 A2988 RMK AO2 SLP119 T01670106=
202206080053 METAR KCLM 080053Z AUTO 00000KT 10SM FEW120 16/10 A2991 RMK AO2 SLP128 T01560100=
202206072353 METAR KCLM 072353Z AUTO 00000KT 10SM CLR 15/08 A2990 RMK AO2 SLP126 T01500083 10167 20139 56011=
202206072253 METAR KCLM 072253Z AUTO 00000KT 10SM CLR 16/09 A2991 RMK AO2 SLP128 T01610089=
202206072153 METAR KCLM 072153Z AUTO 00000KT 10SM CLR 16/08 A2992 RMK AO2 SLP131 T01560078=
202206072053 METAR KCLM 072053Z AUTO VRB04KT 10SM CLR 15/08 A2994 RMK AO2 SLP138 T01500078 58022=
202206071953 METAR KCLM 071953Z AUTO 09008KT 10SM CLR 16/09 A2995 RMK AO2 SLP143 T01610089 $=
202206071853 METAR KCLM 071853Z AUTO 09008KT CLR 16/08 A2998 RMK AO2 SLP153 T01560083 $=
202206071814 SPECI KCLM 071814Z AUTO 08009KT CLR 14/09 A3000 RMK AO2 T01440089 PWINO $=
202206071807 SPECI KCLM 071807Z AUTO 08007KT 1 3/4SM HZ CLR 14/09 A3001 RMK AO2 T01440089 PWINO $=
202206071802 SPECI KCLM 071802Z AUTO 08009KT 1/4SM HZ CLR 14/08 A3000 RMK AO2 T01440083 PWINO $=
202206071755 SPECI KCLM 071755Z AUTO 09010KT 1/2SM HZ CLR 14/08 A3000 RMK AO2 T01440083 PWINO $=
202206071753 METAR KCLM 071753Z AUTO 08011KT 10SM CLR 15/09 A3000 RMK AO2 SLP159 T01500089 10150 20061 58022 PWINO $=
202206071653 METAR KCLM 071653Z AUTO 10008KT 10SM CLR 14/09 A3003 RMK AO2 SLP168 T01440089=
202206071553 METAR KCLM 071553Z AUTO VRB05KT 10SM CLR 13/09 A3005 RMK AO2 SLP176 T01330089=
202206071453 METAR KCLM 071453Z AUTO 09005KT 10SM CLR 13/09 A3007 RMK AO2 SLP182 T01330089 58013=
202206071353 METAR KCLM 071353Z AUTO 00000KT 10SM CLR 11/09 A3008 RMK AO2 SLP187 T01110089=
202206071253 METAR KCLM 071253Z AUTO 00000KT 10SM CLR 07/06 A3010 RMK AO2 SLP194 T00720061=
202206071153 METAR KCLM 071153Z AUTO 00000KT 10SM CLR 07/05 A3010 RMK AO2 SLP195 T00670050 10111 20061 56019=
202206071053 METAR KCLM 071053Z AUTO 20003KT 10SM CLR 08/06 A3012 RMK AO2 SLP201 T00780061=
202206070953 METAR KCLM 070953Z AUTO 27006KT 10SM CLR 10/08 A3014 RMK AO2 SLP206 T01000078=
202206070853 METAR KCLM 070853Z AUTO 00000KT 10SM CLR 09/07 A3016 RMK AO2 SLP214 T00890072 56006=
202206070753 METAR KCLM 070753Z AUTO 00000KT 10SM CLR 09/08 A3016 RMK AO2 SLP215 T00940078 401610078=
202206070653 METAR KCLM 070653Z AUTO 28004KT 10SM CLR 11/08 A3017 RMK AO2 SLP217 T01060083=
202206070553 METAR KCLM 070553Z AUTO 28003KT 10SM BKN055 11/08 A3018 RMK AO2 SLP220 T01060083 10161 20106 55003=
202206070453 METAR KCLM 070453Z AUTO 00000KT 10SM OVC055 12/09 A3018 RMK AO2 SLP218 T01170089=
202206070353 METAR KCLM 070353Z AUTO 00000KT 10SM BKN050 BKN065 12/09 A3018 RMK AO2 SLP218 T01220089=
202206070253 METAR KCLM 070253Z AUTO 31004KT 10SM OVC041 13/09 A3019 RMK AO2 SLP222 T01330089 58003=
202206070153 METAR KCLM 070153Z AUTO 31005KT 10SM BKN041 OVC050 14/08 A3019 RMK AO2 SLP224 T01390083=
202206070053 METAR KCLM 070053Z AUTO VRB03KT 10SM OVC042 15/07 A3019 RMK AO2 SLP225 T01500072=
202206062353 METAR KCLM 062353Z AUTO VRB06KT 10SM FEW045 BKN075 16/07 A3019 RMK AO2 SLP225 T01560072 10161 20139 50003=
202206062253 METAR KCLM 062253Z AUTO 01006KT 10SM OVC075 16/08 A3020 RMK AO2 SLP226 T01560083=
202206062153 METAR KCLM 062153Z AUTO 32004KT 10SM BKN055 OVC070 14/07 A3019 RMK AO2 SLP225 T01440072=
202206062053 METAR KCLM 062053Z AUTO 36004KT 10SM BKN055 OVC070 14/06 A3019 RMK AO2 SLP223 T01440061 51014=
202206061953 METAR KCLM 061953Z AUTO 36004KT 10SM OVC065 14/07 A3017 RMK AO2 SLP218 T01440067=
202206061853 METAR KCLM 061853Z AUTO 01004KT 10SM FEW075 14/07 A3016 RMK AO2 SLP213 T01440067=
202206061753 METAR KCLM 061753Z AUTO VRB04KT 10SM FEW065 14/07 A3014 RMK AO2 SLP208 T01390072 10139 20078 51014=
202206061653 METAR KCLM 061653Z AUTO 35003KT 10SM OVC060 13/07 A3014 RMK AO2 SLP206 T01330072=
202206061553 METAR KCLM 061553Z AUTO 00000KT 10SM OVC065 13/07 A3012 RMK AO2 SLP202 T01280072=
202206061453 METAR KCLM 061453Z AUTO 24003KT 10SM OVC060 12/08 A3010 RMK AO2 SLP194 T01170078 51015=
202206061353 METAR KCLM 061353Z AUTO 00000KT 10SM BKN060 11/08 A3009 RMK AO2 SLP189 T01110078=
202206061253 METAR KCLM 061253Z AUTO 00000KT 10SM OVC065 09/07 A3007 RMK AO2 SLP185 T00890072=
202206061153 METAR KCLM 061153Z AUTO 00000KT 10SM OVC065 09/07 A3006 RMK AO2 SLP179 70003 T00890072 10111 20083 51017=
202206061110 SPECI KCLM 061110Z AUTO 00000KT 10SM FEW009 BKN065 08/07 A3005 RMK AO2 T00830067=
202206061053 METAR KCLM 061053Z AUTO 00000KT 10SM BKN065 09/07 A3004 RMK AO2 SLP175 T00940072=
202206060953 METAR KCLM 060953Z AUTO 00000KT 10SM OVC060 10/08 A3003 RMK AO2 SLP169 T01000083=
202206060853 METAR KCLM 060853Z AUTO 14004KT 10SM BKN060 10/08 A3001 RMK AO2 SLP162 T01000078 51022=
202206060753 METAR KCLM 060753Z AUTO 16004KT 10SM OVC055 11/08 A2999 RMK AO2 SLP157 T01060083 401610106=
202206060653 METAR KCLM 060653Z AUTO 00000KT 10SM OVC050 11/08 A2997 RMK AO2 SLP147 T01060083=
202206060553 METAR KCLM 060553Z AUTO 30006KT 10SM OVC065 11/08 A2994 RMK AO2 SLP138 T01060083 10128 20106 51025=
202206060453 METAR KCLM 060453Z AUTO 29008KT 10SM BKN065 11/08 A2992 RMK AO2 SLP132 T01060083=
202206060353 METAR KCLM 060353Z AUTO 27010KT 10SM OVC055 11/08 A2989 RMK AO2 SLP122 T01110083=
202206060253 METAR KCLM 060253Z AUTO 28008G20KT 10SM OVC060 12/08 A2987 RMK AO2 SLP115 T01170083 53020=
202206060153 METAR KCLM 060153Z AUTO 29010G19KT 10SM OVC060 13/09 A2984 RMK AO2 SLP104 T01280094=
202206060053 METAR KCLM 060053Z AUTO 30012G21KT 10SM BKN036 BKN044 12/09 A2982 RMK AO2 SLP100 T01220089=
202206060002 SPECI KCLM 060002Z AUTO 29011KT 10SM SCT015 BKN037 OVC065 12/09 A2981 RMK AO2 T01220094=
202206052353 METAR KCLM 052353Z AUTO 31011G20KT 10SM BKN015 BKN037 OVC060 12/09 A2981 RMK AO2 SLP094 60003 T01220089 10156 20111 51019=
202206052346 SPECI KCLM 052346Z AUTO 30014G23KT 10SM BKN014 BKN024 OVC060 13/09 A2981 RMK AO2 T01280094=
202206052317 SPECI KCLM 052317Z AUTO 29011G17KT 10SM SCT014 BKN034 OVC055 13/10 A2980 RMK AO2 T01280100=
202206052253 METAR KCLM 052253Z AUTO 29012G22KT 10SM OVC013 12/09 A2980 RMK AO2 RAE45 SLP091 P0003 T01170094=
202206052153 METAR KCLM 052153Z AUTO 29013G22KT 9SM -RA OVC010 12/09 A2979 RMK AO2 RAB47 CIG 006V013 SLP087 P0000 T01170094=
202206052053 METAR KCLM 052053Z AUTO 30012G28KT 9SM OVC005 12/09 A2975 RMK AO2 PK WND 30028/2045 RAB1958E25 SLP075 P0000 60000 T01220094 51023=
202206052002 SPECI KCLM 052002Z AUTO 29011G21KT 9SM -RA BKN006 OVC012 12/09 A2973 RMK AO2 RAB1958 P0000 T01170094=
202206051953 METAR KCLM 051953Z AUTO 30011G24KT 10SM SCT006 BKN012 OVC044 12/10 A2972 RMK AO2 SLP065 T01220100=
202206051949 SPECI KCLM 051949Z AUTO 29015G24KT 10SM SCT006 BKN012 OVC044 12/10 A2972 RMK AO2=
202206051939 SPECI KCLM 051939Z AUTO 30013G24KT 10SM FEW006 BKN019 OVC060 12/10 A2971 RMK AO2 T01220100=
202206051853 METAR KCLM 051853Z AUTO 30011KT 10SM FEW070 15/11 A2968 RMK AO2 SLP051 T01500111=
202206051823 SPECI KCLM 051823Z AUTO 30007KT 10SM SCT005 SCT038 15/12 A2967 RMK AO2 T01500117=
202206051805 SPECI KCLM 051805Z AUTO 30008KT 10SM BKN005 14/12 A2966 RMK AO2 CIG 002V008 T01440122=
202206051757 SPECI KCLM 051757Z AUTO 31007KT 10SM BKN003 BKN010 14/12 A2966 RMK AO2 CIG 002V008 T01440122=
202206051753 METAR KCLM 051753Z AUTO 31007KT 10SM FEW003 SCT008 14/12 A2965 RMK AO2 SLP040 60000 T01440122 10161 20117 53023=
202206051744 SPECI KCLM 051744Z AUTO 31007KT 10SM SCT010 SCT039 15/12 A2965 RMK AO2 T01500122=
202206051731 SPECI KCLM 051731Z AUTO 30007KT 10SM BKN010 BKN017 15/12 A2964 RMK AO2 CIG 008V013 T01500122=
202206051708 SPECI KCLM 051708Z AUTO 29007KT 10SM SCT010 BKN017 16/13 A2962 RMK AO2 T01610128=
202206051653 METAR KCLM 051653Z AUTO 30004KT 10SM SCT007 BKN013 OVC017 15/13 A2962 RMK AO2 SLP031 T01500128=
202206051619 SPECI KCLM 051619Z AUTO 30005KT 10SM OVC005 13/12 A2961 RMK AO2 CIG 002V008 T01330122=
202206051609 SPECI KCLM 051609Z AUTO 28007KT 10SM BKN002 BKN008 13/12 A2961 RMK AO2 T01330122=
202206051553 METAR KCLM 051553Z AUTO 31006KT 10SM SCT002 BKN009 13/12 A2960 RMK AO2 SLP022 T01330117=
202206051548 SPECI KCLM 051548Z AUTO 31005KT 5SM BR BKN002 BKN009 13/12 A2960 RMK AO2=
202206051546 SPECI KCLM 051546Z AUTO 30005KT 1 1/4SM BR BKN002 BKN009 13/12 A2960 RMK AO2 T01330117=
202206051528 SPECI KCLM 051528Z AUTO 34004KT 1/4SM FG VV002 12/11 A2959 RMK AO2 T01220111=
202206051521 SPECI KCLM 051521Z AUTO 31005KT M1/4SM FG VV002 12/11 A2959 RMK AO2 T01220111=
202206051501 SPECI KCLM 051501Z AUTO 30005KT 1/4SM FG VV002 12/11 A2959 RMK AO2 T01220111=
202206051453 METAR KCLM 051453Z AUTO 30007KT 1/2SM FG OVC002 12/11 A2958 RMK AO2 RAE1359 SLP017 P0000 60000 T01220111 51006=
202206051448 SPECI KCLM 051448Z AUTO 30005KT 1/2SM FG OVC002 13/11 A2958 RMK AO2 RAE1359 P0000=
202206051437 SPECI KCLM 051437Z AUTO 34003KT 1 3/4SM BR OVC002 13/11 A2958 RMK AO2 RAE1359 P0000 T01280111=
202206051359 SPECI KCLM 051359Z AUTO 31003KT 9SM BKN003 BKN090 OVC110 13/11 A2957 RMK AO2 RAE59 P0000 T01280111=
202206051353 METAR KCLM 051353Z AUTO 29003KT 8SM -RA FEW005 SCT090 BKN110 12/11 A2958 RMK AO2 RAB50 SLP015 P0000 T01220111=
202206051253 METAR KCLM 051253Z AUTO 16005KT 10SM CLR 12/11 A2956 RMK AO2 SLP011 T01220106=
202206051203 SPECI KCLM 051203Z AUTO 11005KT 10SM SCT005 BKN080 12/11 A2957 RMK AO2 T01220106=
202206051153 METAR KCLM 051153Z AUTO 00000KT 10SM BKN005 OVC080 13/11 A2957 RMK AO2 SLP012 T01280111 10133 20122 58001=
202206051146 SPECI KCLM 051146Z AUTO 00000KT 10SM SCT005 OVC085 13/11 A2957 RMK AO2 T01280106=
202206051053 METAR KCLM 051053Z AUTO 00000KT 10SM FEW055 SCT065 BKN080 12/11 A2957 RMK AO2 SLP014 T01220106=
202206050953 METAR KCLM 050953Z AUTO 00000KT 10SM FEW010 SCT075 12/11 A2958 RMK AO2 SLP015 T01220106=
202206050900 SPECI KCLM 050900Z AUTO 00000KT 10SM SCT006 12/11 A2957 RMK AO2 T01220106=
202206050853 METAR KCLM 050853Z AUTO 00000KT 10SM BKN006 13/11 A2957 RMK AO2 SLP012 T01280106 58009=
202206050842 SPECI KCLM 050842Z AUTO 25004KT 10SM BKN006 13/11 A2957 RMK AO2 T01280106=
202206050827 SPECI KCLM 050827Z AUTO 22004KT 10SM FEW007 12/10 A2957 RMK AO2 T01220100=
202206050753 METAR KCLM 050753Z AUTO 29005KT 10SM OVC080 13/11 A2958 RMK AO2 SLP017 T01330106 401720094=
202206050653 METAR KCLM 050653Z AUTO 29006KT 10SM BKN070 OVC090 13/11 A2959 RMK AO2 SLP019 T01280106=
202206050553 METAR KCLM 050553Z AUTO 26003KT 10SM SCT070 BKN085 13/11 A2960 RMK AO2 SLP022 60000 T01280111 10172 20117 56008=
202206050453 METAR KCLM 050453Z AUTO 00000KT 10SM SCT060 BKN095 BKN120 12/10 A2960 RMK AO2 RAB30E40 SLP023 P0000 T01220100=
202206050353 METAR KCLM 050353Z AUTO 00000KT 10SM FEW060 12/10 A2961 RMK AO2 RAB10E21 SLP027 P0000 T01220100=
202206050253 METAR KCLM 050253Z AUTO 00000KT 10SM BKN080 15/11 A2962 RMK AO2 SLP030 T01500106 56015=
202206050153 METAR KCLM 050153Z AUTO 05004KT 10SM OVC070 16/11 A2963 RMK AO2 SLP034 T01610106=
202206050053 METAR KCLM 050053Z AUTO 00000KT 10SM BKN070 16/11 A2965 RMK AO2 SLP040 T01610111=
202206042353 METAR KCLM 042353Z AUTO 00000KT 10SM FEW041 BKN100 14/11 A2966 RMK AO2 SLP046 T01440106 10161 20133 58006=
202206042253 METAR KCLM 042253Z AUTO 29006KT 10SM FEW023 BKN070 BKN100 15/10 A2967 RMK AO2 SLP048 T01500100=
202206042153 METAR KCLM 042153Z AUTO 29004KT 10SM BKN070 16/09 A2968 RMK AO2 SLP049 T01560094=
202206042053 METAR KCLM 042053Z AUTO 30005KT 10SM BKN075 15/09 A2968 RMK AO2 SLP051 T01500094 56014=
202206041953 METAR KCLM 041953Z AUTO 06004KT 10SM FEW120 15/11 A2969 RMK AO2 SLP055 T01500106=
202206041853 METAR KCLM 041853Z AUTO 36003KT 10SM FEW065 14/10 A2971 RMK AO2 SLP060 T01440100=
202206041753 METAR KCLM 041753Z AUTO VRB03KT 10SM OVC070 14/10 A2972 RMK AO2 SLP066 60000 T01390100 10139 20100 58010=
202206041653 METAR KCLM 041653Z AUTO 06003KT 10SM FEW028 SCT070 13/09 A2974 RMK AO2 SLP070 T01280094=
202206041553 METAR KCLM 041553Z AUTO 00000KT 10SM SCT008 BKN070 13/10 A2974 RMK AO2 SLP072 T01280100=
202206041521 SPECI KCLM 041521Z AUTO 00000KT 10SM SCT006 BKN070 12/10 A2975 RMK AO2 T01220100=
202206041501 SPECI KCLM 041501Z AUTO 00000KT 10SM SCT002 OVC006 12/10 A2975 RMK AO2 T01170100=
202206041453 METAR KCLM 041453Z AUTO 00000KT 8SM BKN002 OVC006 11/09 A2975 RMK AO2 RAB1357E07 SLP075 P0000 60000 T01110094 56002=
202206041437 SPECI KCLM 041437Z AUTO 36003KT 5SM BR BKN002 BKN065 OVC110 11/09 A2975 RMK AO2 RAB1357E07 P0000 T01110094=
202206041428 SPECI KCLM 041428Z AUTO 00000KT 7SM SCT002 BKN080 OVC120 11/09 A2975 RMK AO2 RAB1357E07 P0000 T01110094=
202206041353 METAR KCLM 041353Z AUTO 00000KT 10SM FEW070 BKN090 BKN110 12/10 A2975 RMK AO2 RAB37E46 SLP075 P0000 T01170100=
202206041253 METAR KCLM 041253Z AUTO 00000KT 10SM BKN110 11/09 A2976 RMK AO2 SLP076 T01110094=
202206041153 METAR KCLM 041153Z AUTO 00000KT 10SM OVC100 10/09 A2976 RMK AO2 SLP077 60000 70018 T01000089 10111 20094 58003=
202206041053 METAR KCLM 041053Z AUTO 00000KT 10SM BKN110 10/08 A2977 RMK AO2 SLP080 T01000083=
202206040953 METAR KCLM 040953Z AUTO 00000KT 10SM FEW055 SCT070 BKN095 10/08 A2977 RMK AO2 SLP082 T01000083=
202206040853 METAR KCLM 040853Z AUTO 23004KT 10SM FEW023 SCT110 10/08 A2977 RMK AO2 RAB17E29 SLP082 P0000 60000 T01000083 56005=
202206040842 SPECI KCLM 040842Z AUTO 23003KT 10SM SCT023 SCT055 SCT110 11/09 A2977 RMK AO2 RAB17E29 P0000 T01060089=
202206040804 SPECI KCLM 040804Z AUTO 00000KT 10SM BKN023 BKN080 09/08 A2978 RMK AO2 T00940083=
202206040753 METAR KCLM 040753Z AUTO 00000KT 10SM SCT025 SCT060 BKN080 11/09 A2978 RMK AO2 RAB01E11 SLP083 P0000 T01060089 401780100=
202206040653 METAR KCLM 040653Z AUTO 00000KT 10SM OVC095 11/09 A2978 RMK AO2 SLP083 T01110094=
202206040553 METAR KCLM 040553Z AUTO 00000KT 10SM FEW110 11/09 A2979 RMK AO2 SLP086 60000 T01060089 10178 20106 51003=
202206040453 METAR KCLM 040453Z AUTO 23003KT 10SM BKN110 12/09 A2979 RMK AO2 RAB18E28 SLP087 P0000 T01170094=
202206040353 METAR KCLM 040353Z AUTO 29003KT 10SM FEW024 13/08 A2978 RMK AO2 SLP084 T01280083=
202206040253 METAR KCLM 040253Z AUTO 00000KT 10SM SCT034 BKN041 BKN070 14/11 A2978 RMK AO2 RAB26E41 SLP083 P0000 60000 T01440106 55001=
202206040153 METAR KCLM 040153Z AUTO 00000KT 10SM BKN036 BKN075 OVC110 15/08 A2977 RMK AO2 SLP082 T01500083=
202206040053 METAR KCLM 040053Z AUTO 00000KT 10SM BKN075 BKN095 17/09 A2977 RMK AO2 SLP082 T01670089=
202206032353 METAR KCLM 032353Z AUTO 31006KT 10SM FEW042 BKN075 17/10 A2978 RMK AO2 SLP085 60008 T01670100 10178 20139 50002=
202206032253 METAR KCLM 032253Z AUTO VRB04KT 10SM FEW050 BKN065 BKN075 17/11 A2979 RMK AO2 RAB05E46 SLP086 P0000 T01670106=
202206032153 METAR KCLM 032153Z AUTO 30005KT 10SM FEW014 FEW045 OVC065 16/12 A2978 RMK AO2 SLP085 T01560117=
202206032109 SPECI KCLM 032109Z AUTO 33004KT 10SM SCT012 BKN046 OVC060 15/12 A2978 RMK AO2 T01500122=
202206032053 METAR KCLM 032053Z AUTO 31004KT 10SM BKN010 OVC045 14/12 A2978 RMK AO2 RAE51 SLP082 P0006 60008 T01440122 51017=
202206032023 SPECI KCLM 032023Z AUTO 34003KT 4SM -RA BR BKN008 BKN047 OVC060 14/12 A2977 RMK AO2 P0005 T01390117=
202206032009 SPECI KCLM 032009Z AUTO 35004KT 3SM -RA BR FEW008 BKN048 OVC060 14/12 A2977 RMK AO2 P0004 T01390117=
202206031958 SPECI KCLM 031958Z AUTO 34004KT 2SM RA FEW009 BKN024 OVC055 14/11 A2977 RMK AO2 P0002 T01390111=
202206031953 METAR KCLM 031953Z AUTO VRB04KT 3SM -RA BKN022 OVC055 14/11 A2976 RMK AO2 RAB03E15B42 SLP079 P0002 T01390111=
202206031920 SPECI KCLM 031920Z AUTO 00000KT 10SM BKN015 OVC065 15/12 A2975 RMK AO2 RAB03E15 P0000 T01500122=
202206031911 SPECI KCLM 031911Z AUTO 01003KT 10SM -RA BKN013 OVC065 15/12 A2975 RMK AO2 RAB03 P0000 T01500117=
202206031853 METAR KCLM 031853Z AUTO 00000KT 10SM FEW009 OVC065 16/13 A2975 RMK AO2 SLP072 T01610128=
202206031811 SPECI KCLM 031811Z AUTO 00000KT 10SM OVC005 15/12 A2973 RMK AO2 CIG 004V009 T01500122=
202206031753 METAR KCLM 031753Z AUTO 00000KT 10SM OVC004 15/12 A2973 RMK AO2 CIG 003V007 SLP065 60010 T01500122 10150 20117 56000=
202206031653 METAR KCLM 031653Z AUTO 28004KT 8SM OVC002 13/12 A2973 RMK AO2 SLP067 T01280117=
202206031641 SPECI KCLM 031641Z AUTO 31004KT 6SM BR BKN002 OVC012 13/11 A2973 RMK AO2 T01280111=
202206031633 SPECI KCLM 031633Z AUTO 30006KT 2SM BR BKN002 OVC012 13/11 A2973 RMK AO2 T01280111=
202206031629 SPECI KCLM 031629Z AUTO VRB05KT 1 3/4SM BR SCT002 OVC011 13/12 A2973 RMK AO2 T01280117=
202206031553 METAR KCLM 031553Z AUTO 00000KT 10SM FEW004 OVC011 13/11 A2972 RMK AO2 RAB00E42 SLP062 P0001 T01280111=
202206031546 SPECI KCLM 031546Z AUTO 21003KT 10SM SCT004 OVC011 13/11 A2972 RMK AO2 RAB00E42 P0001 T01280111=
202206031521 SPECI KCLM 031521Z AUTO 31004KT 7SM -RA BKN004 OVC008 12/11 A2971 RMK AO2 RAB00 CIG 002V007 P0001 T01220106=
202206031504 SPECI KCLM 031504Z AUTO VRB04KT 7SM -RA OVC005 12/10 A2972 RMK AO2 RAB00 CIG 003V008 P0001 T01170100=
202206031453 METAR KCLM 031453Z AUTO 29009KT 9SM OVC003 12/10 A2973 RMK AO2 RAE51 CIG 001V006 SLP066 P0002 60009 T01170100 55007=
202206031432 SPECI KCLM 031432Z AUTO VRB05KT 3SM -RA BR BKN002 OVC090 12/11 A2971 RMK AO2 P0002 T01170106=
202206031418 SPECI KCLM 031418Z AUTO 00000KT 3SM -RA BR FEW003 FEW009 OVC085 13/12 A2971 RMK AO2 P0002 T01280117=
202206031353 METAR KCLM 031353Z AUTO 00000KT 6SM -RA BR FEW026 OVC080 13/12 A2971 RMK AO2 RAE06B23 SLP062 P0000 T01280117=
202206031253 METAR KCLM 031253Z AUTO 00000KT 6SM -RA BR FEW020 BKN080 OVC090 13/12 A2971 RMK AO2 RAB1155 SLP061 P0007 T01280117=
202206031215 SPECI KCLM 031215Z AUTO 00000KT 5SM -RA BR SCT025 BKN060 OVC075 13/12 A2973 RMK AO2 LTG DSNT SE RAB1155 P0005 T01330117=
202206031153 METAR KCLM 031153Z AUTO 17006KT 9SM OVC025 13/11 A2975 RMK AO2 SLP073 T01330111 10133 20117 55006=
202206031110 SPECI KCLM 031110Z AUTO 25003KT 10SM BKN027 BKN110 13/11 A2974 RMK AO2 T01280111=
202206031053 METAR KCLM 031053Z AUTO 28003KT 9SM SCT027 12/11 A2974 RMK AO2 SLP071 T01220106=
202206031006 SPECI KCLM 031006Z AUTO 00000KT 10SM SCT029 13/11 A2975 RMK AO2 T01280111=
202206030953 METAR KCLM 030953Z AUTO 25004KT 10SM BKN027 13/11 A2976 RMK AO2 SLP076 T01280111=
202206030911 SPECI KCLM 030911Z AUTO 00000KT 10SM BKN025 BKN100 13/11 A2976 RMK AO2 T01280111=
202206030853 METAR KCLM 030853Z AUTO 00000KT 10SM SCT028 BKN110 13/11 A2977 RMK AO2 SLP079 T01280111 55007=
202206030753 METAR KCLM 030753Z AUTO 00000KT 8SM FEW080 OVC100 12/11 A2976 RMK AO2 SLP079 T01220111 402170094=
202206030653 METAR KCLM 030653Z AUTO 00000KT 10SM CLR 12/11 A2977 RMK AO2 SLP081 T01220106=
202206030553 METAR KCLM 030553Z AUTO 00000KT 10SM SCT100 13/11 A2979 RMK AO2 SLP086 T01280111 10206 20122 56010=
202206030453 METAR KCLM 030453Z AUTO 32003KT 10SM CLR 13/11 A2979 RMK AO2 SLP089 T01280111=
202206030353 METAR KCLM 030353Z AUTO 33003KT 10SM CLR 14/12 A2980 RMK AO2 SLP092 T01440117=
202206030253 METAR KCLM 030253Z AUTO 00000KT 10SM BKN095 OVC110 16/12 A2982 RMK AO2 SLP096 T01560117 51000=
202206030153 METAR KCLM 030153Z AUTO 00000KT 10SM BKN100 BKN110 18/12 A2981 RMK AO2 SLP094 T01780122=
202206030053 METAR KCLM 030053Z AUTO 31004KT 10SM BKN110 19/12 A2982 RMK AO2 SLP099 T01890122=
202206022353 METAR KCLM 022353Z AUTO 33003KT 10SM SCT085 20/11 A2981 RMK AO2 SLP095 60000 T02000111 10217 20172 57018=
202206022253 METAR KCLM 022253Z AUTO VRB03KT 10SM SCT120 19/12 A2982 RMK AO2 RAB06E23 SLP099 P0000 T01940117=
202206022153 METAR KCLM 022153Z AUTO 00000KT 10SM FEW034 FEW070 BKN090 18/13 A2986 RMK AO2 RAB19E37 SLP110 P0000 T01830128=
202206022053 METAR KCLM 022053Z AUTO 08003KT 10SM CLR 18/12 A2987 RMK AO2 SLP114 T01830122 56013=
202206021953 METAR KCLM 021953Z AUTO VRB03KT 10SM CLR 18/12 A2987 RMK AO2 SLP115 T01830122=
202206021853 METAR KCLM 021853Z AUTO 02004KT 10SM CLR 18/12 A2989 RMK AO2 SLP120 T01780117=
202206021753 METAR KCLM 021753Z AUTO 08004KT 10SM CLR 17/12 A2990 RMK AO2 SLP126 T01720122 10172 20094 56011=
202206021653 METAR KCLM 021653Z AUTO 07006KT 10SM CLR 17/12 A2991 RMK AO2 SLP130 T01670122=
202206021553 METAR KCLM 021553Z AUTO 00000KT 10SM CLR 16/13 A2993 RMK AO2 SLP133 T01560128=
202206021503 SPECI KCLM 021503Z AUTO 00000KT 10SM SCT001 13/12 A2993 RMK AO2 T01330117=
202206021453 METAR KCLM 021453Z AUTO 00000KT 6SM BR BKN001 12/12 A2994 RMK AO2 SLP137 T01220117 58005=
202206021447 SPECI KCLM 021447Z AUTO 00000KT 3SM BR BKN001 12/12 A2994 RMK AO2=
202206021444 SPECI KCLM 021444Z AUTO 00000KT 1SM BR OVC001 12/12 A2994 RMK AO2 T01220117=
202206021409 SPECI KCLM 021409Z AUTO 00000KT 1/4SM FG VV001 11/11 A2994 RMK AO2 T01110106=
202206021353 METAR KCLM 021353Z AUTO 00000KT M1/4SM FG VV001 11/10 A2995 RMK AO2 SLP143 T01060100=
202206021327 SPECI KCLM 021327Z AUTO 00000KT M1/4SM FG VV001 11/09 A2995 RMK AO2 T01060094=
202206021320 SPECI KCLM 021320Z AUTO 00000KT 1/4SM FG VV001 10/09 A2995 RMK AO2 T01000089=
202206021307 SPECI KCLM 021307Z AUTO 00000KT 1/2SM FG VV001 09/08 A2995 RMK AO2 T00940083=
202206021258 SPECI KCLM 021258Z AUTO 00000KT 1/4SM FG FEW002 FEW080 09/08 A2995 RMK AO2 T00940083=
202206021253 METAR KCLM 021253Z AUTO 00000KT 1/2SM FG FEW080 09/08 A2995 RMK AO2 SLP141 T00940083=
202206021246 SPECI KCLM 021246Z AUTO 00000KT 1/4SM FG FEW080 09/08 A2995 RMK AO2 T00940083=
202206021235 SPECI KCLM 021235Z AUTO 30003KT 3/4SM BR FEW001 SCT080 10/09 A2995 RMK AO2 T01000089=
202206021227 SPECI KCLM 021227Z AUTO 30003KT 1/2SM FG VV001 09/08 A2995 RMK AO2 T00940083=
202206021211 SPECI KCLM 021211Z AUTO 00000KT 1/4SM FG FEW001 FEW085 09/08 A2995 RMK AO2 T00940078=
202206021205 SPECI KCLM 021205Z AUTO 00000KT 1 1/2SM BR FEW085 09/08 A2995 RMK AO2 VIS 1/4V5 T00940083=
202206021153 METAR KCLM 021153Z AUTO 00000KT 6SM BR SCT085 10/08 A2995 RMK AO2 SLP143 70004 T01000083 10139 20094 58008=
202206021150 SPECI KCLM 021150Z AUTO 00000KT 3SM BR FEW085 10/08 A2995 RMK AO2=
202206021146 SPECI KCLM 021146Z AUTO 00000KT 1SM BR CLR 11/09 A2995 RMK AO2 T01060089=
202206021135 SPECI KCLM 021135Z AUTO 00000KT 3/4SM BR VV002 10/09 A2996 RMK AO2 T01000094=
202206021128 SPECI KCLM 021128Z AUTO 00000KT 1SM BR VV001 11/10 A2996 RMK AO2 T01110100=
202206021112 SPECI KCLM 021112Z AUTO 29003KT 1/4SM FG VV001 09/08 A2996 RMK AO2 T00940083=
202206021100 SPECI KCLM 021100Z AUTO 00000KT 1SM BR VV001 11/09 A2996 RMK AO2 VIS 1/2V2 1/2 T01060089=
202206021053 METAR KCLM 021053Z AUTO 00000KT 1/2SM FG CLR 10/09 A2996 RMK AO2 SLP146 T01000089=
202206021034 SPECI KCLM 021034Z AUTO 24003KT 1 1/4SM BR CLR 11/09 A2997 RMK AO2 VIS 1/2V4 T01060094=
202206021022 SPECI KCLM 021022Z AUTO 00000KT 1/2SM FG CLR 11/09 A2997 RMK AO2 T01060089=
202206021013 SPECI KCLM 021013Z AUTO 00000KT 1 3/4SM BR CLR 11/09 A2997 RMK AO2 VIS 3/4V4 T01060094=
202206021006 SPECI KCLM 021006Z AUTO 25003KT 3SM BR FEW003 11/10 A2996 RMK AO2 T01110100=
202206021003 SPECI KCLM 021003Z AUTO 25003KT 1 1/4SM BR FEW003 12/11 A2997 RMK AO2 T01170106=
202206020953 METAR KCLM 020953Z AUTO 00000KT 1/4SM FG VV003 11/09 A2997 RMK AO2 SLP148 T01060094=
202206020943 SPECI KCLM 020943Z AUTO 00000KT 1/4SM FG VV003 11/09 A2997 RMK AO2 T01060094=
202206020936 SPECI KCLM 020936Z AUTO 00000KT 1/2SM FG VV002 11/09 A2997 RMK AO2 T01060094=
202206020931 SPECI KCLM 020931Z AUTO 00000KT 1 3/4SM BR FEW100 11/10 A2997 RMK AO2 T01060100=
202206020853 METAR KCLM 020853Z AUTO 25003KT 9SM FEW013 BKN110 13/11 A2998 RMK AO2 SLP151 T01280111 58004=
202206020753 METAR KCLM 020753Z AUTO 00000KT 8SM OVC090 13/12 A2998 RMK AO2 SLP153 T01330117 401890089=
202206020715 SPECI KCLM 020715Z AUTO 00000KT 8SM SCT006 OVC090 13/12 A2999 RMK AO2 T01330117=
202206020653 METAR KCLM 020653Z AUTO 00000KT 10SM OVC006 13/12 A2999 RMK AO2 SLP156 T01330117=
202206020553 METAR KCLM 020553Z AUTO 00000KT 7SM OVC005 13/12 A2999 RMK AO2 SLP154 60003 T01330117 10167 20133 56007=
202206020540 SPECI KCLM 020540Z AUTO 00000KT 8SM BKN005 OVC090 13/12 A2999 RMK AO2 T01330117=
202206020531 SPECI KCLM 020531Z AUTO 00000KT 8SM SCT006 BKN095 OVC120 13/12 A2999 RMK AO2 T01330117=
202206020453 METAR KCLM 020453Z AUTO 00000KT 7SM BKN080 OVC120 13/12 A2999 RMK AO2 SLP157 T01330122=
202206020353 METAR KCLM 020353Z AUTO 00000KT 8SM OVC075 14/13 A3000 RMK AO2 RAE08B31E34 SLP158 P0000 T01440128=
202206020253 METAR KCLM 020253Z AUTO 00000KT 8SM -RA BKN070 OVC085 14/13 A3001 RMK AO2 SLP161 P0001 60003 T01440128 52001=
202206020153 METAR KCLM 020153Z AUTO 29003KT 6SM -RA BR OVC075 14/12 A3001 RMK AO2 RAB25 SLP161 P0002 T01390117=
202206020053 METAR KCLM 020053Z AUTO 00000KT 10SM FEW055 SCT070 OVC095 16/13 A3001 RMK AO2 RAE32 SLP161 P0000 T01610128=
202206012353 METAR KCLM 012353Z AUTO 00000KT 10SM -RA OVC080 16/12 A3000 RMK AO2 RAB51 SLP160 P0000 60001 T01560122 10189 20150 58004=
202206012253 METAR KCLM 012253Z AUTO 33007KT 10SM FEW055 BKN070 OVC090 16/12 A3001 RMK AO2 RAE21 SLP162 P0001 T01610122=
202206012153 METAR KCLM 012153Z AUTO 23005KT 5SM -RA OVC080 17/12 A3002 RMK AO2 RAE03B48 SLP164 P0000 T01720122=
202206012053 METAR KCLM 012053Z AUTO 00000KT 10SM -RA SCT070 OVC085 18/11 A3002 RMK AO2 RAB49 SLP164 P0000 60000 T01780111 55008=
202206011953 METAR KCLM 011953Z AUTO 00000KT 10SM FEW120 18/11 A3001 RMK AO2 SLP164 T01830106=
202206011853 METAR KCLM 011853Z AUTO VRB03KT 10SM CLR 18/10 A3003 RMK AO2 SLP168 T01780100=
202206011753 METAR KCLM 011753Z AUTO 08005KT 10SM CLR 17/11 A3004 RMK AO2 SLP172 T01670106 10167 20100 55003=
202206011653 METAR KCLM 011653Z AUTO 11004KT 10SM CLR 16/11 A3004 RMK AO2 SLP172 T01610106=
202206011553 METAR KCLM 011553Z AUTO 07004KT 10SM CLR 16/11 A3004 RMK AO2 SLP174 T01610106=
202206011453 METAR KCLM 011453Z AUTO 12004KT 10SM FEW120 16/11 A3005 RMK AO2 SLP176 T01560106 50001=
202206011353 METAR KCLM 011353Z AUTO 00000KT 10SM OVC120 13/11 A3005 RMK AO2 SLP177 T01330111=
202206011253 METAR KCLM 011253Z AUTO 00000KT 10SM BKN110 11/09 A3005 RMK AO2 SLP176 T01110094=
202206011153 METAR KCLM 011153Z AUTO 00000KT 10SM BKN120 10/08 A3005 RMK AO2 SLP175 T01000083 10117 20089 56009=
202206011053 METAR KCLM 011053Z AUTO 00000KT 10SM CLR 10/08 A3006 RMK AO2 SLP178 T01000078=
202206010953 METAR KCLM 010953Z AUTO 00000KT 10SM CLR 09/08 A3006 RMK AO2 SLP181 T00940078=
202206010853 METAR KCLM 010853Z AUTO 00000KT 10SM CLR 09/07 A3008 RMK AO2 SLP186 T00890072 58004=
202206010753 METAR KCLM 010753Z AUTO 00000KT 10SM CLR 10/08 A3009 RMK AO2 SLP189 T01000083 401890089=
202206010653 METAR KCLM 010653Z AUTO 00000KT 10SM CLR 11/08 A3009 RMK AO2 SLP190 T01060083=
202206010553 METAR KCLM 010553Z AUTO 00000KT 10SM CLR 12/09 A3009 RMK AO2 SLP189 T01170089 10189 20111 56007=
202206010453 METAR KCLM 010453Z AUTO 21003KT 10SM CLR 13/09 A3010 RMK AO2 SLP193 T01280089=
202206010353 METAR KCLM 010353Z AUTO 00000KT 10SM CLR 14/09 A3010 RMK AO2 SLP191 T01440089=
202206010253 METAR KCLM 010253Z AUTO 00000KT 10SM CLR 17/09 A3011 RMK AO2 SLP195 T01670089 56012=
202206010153 METAR KCLM 010153Z AUTO 08006KT 10SM CLR 18/08 A3011 RMK AO2 SLP195 T01830083=
202206010053 METAR KCLM 010053Z AUTO VRB04KT 10SM CLR 18/09 A3012 RMK AO2 SLP201 T01830089=

# No short TAF reports from KCLM in databse.

###################################
#  large TAF from KCLM
###################################
202206302320 TAF KCLM 302320Z 0100/0124 29009KT P6SM FEW250 FM010600 30010KT
                       P6SM SCT200 FM011000 30007KT P6SM BKN009
                       FM011600 30008KT P6SM BKN015=
202206301730 TAF KCLM 301730Z 3018/0118 VRB04KT P6SM SCT250 FM302200 33006KT
                       P6SM SCT200 FM010200 30009G15KT P6SM SCT200
                       FM010700 30010KT P6SM SCT200=
202206301131 KCLM 301131Z 3012/0112 24004KT P6SM SCT025
                      TEMPO 3012/3016 BKN022 FM301800 33006KT P6SM
                       SCT040 SCT200 FM302300 29010KT P6SM SCT200=
202206301126 TAF KCLM 301126Z 3012/0112 24004KT P6SM SCT025
                      TEMPO 3013/3016 BKN022 FM301800 33006KT P6SM
                       SCT040 SCT200 FM302300 29010KT P6SM SCT200=
202206300520 TAF KCLM 300520Z 3006/0106 24004KT P6SM BKN050 FM301100 28004KT
                       P6SM OVC027 FM301800 33006KT P6SM SCT040
                       SCT200 FM302200 29010KT P6SM SCT200=
202206292321 TAF KCLM 292321Z 3000/3024 34006KT P6SM OVC050 FM300400 28004KT
                       P6SM BKN050 FM301100 28005KT P6SM OVC007
                       FM301500 29003KT P6SM OVC050=
202206291726 TAF KCLM 291726Z 2918/3018 30006KT P6SM BKN020 BKN030 OVC050 FM292200
                       33006KT P6SM SCT035 BKN050 FM300400 28004KT
                       P6SM BKN050 FM300800 28005KT P6SM OVC007=
202206291120 TAF KCLM 291120Z 2912/3012 24003KT P6SM BKN015 OVC030
                      TEMPO 2913/2917 SCT017 BKN035 FM291700 30006KT
                       P6SM BKN035 OVC050 FM292200 33006KT P6SM
                       SCT035 BKN050 FM300400 28004KT P6SM BKN050=
202206290521 TAF KCLM 290521Z 2906/3006 VRB04KT P6SM VCSH SCT025 OVC040 FM290800
                       VRB04KT P6SM VCSH SCT015 OVC030 FM291700
                       27007KT P6SM BKN030 OVC050 FM292200 30010KT
                       P6SM SCT030 BKN050=
202206282320 TAF KCLM 282320Z 2900/2924 31008KT P6SM -RA SCT025 OVC050
                      TEMPO 2900/2904 4SM -RA BR BKN025 OVC040
                       FM290400 31008KT P6SM -SHRA BKN025 OVC040
                       FM290800 VRB04KT P6SM -SHRA BKN015 OVC030
                       FM291700 27007KT P6SM BKN020 OVC040 FM292200
                       30010KT P6SM SCT020 BKN040=
202206281926 KCLM 281926Z 2819/2918 VRB04KT P6SM SCT035 BKN060 FM290200 28007KT
                       P6SM -SHRA BKN025 OVC050=
202206281720 TAF KCLM 281720Z 2818/2918 VRB04KT P6SM BKN030 FM290400 28007KT
                       P6SM -SHRA OVC025=
202206281120 TAF KCLM 281120Z 2812/2912 24006KT P6SM SCT025 SCT050
                      TEMPO 2817/2821 BKN030 FM282100 28008KT P6SM
                       VCSH BKN040 FM290400 28007KT P6SM -SHRA
                       OVC025=
202206280530 TAF KCLM 280530Z 2806/2906 27013G18KT P6SM FEW060 SCT120 FM281200
                       28011KT P6SM BKN035 FM282200 28008KT P6SM
                       VCSH BKN040 FM290300 28007KT P6SM -SHRA
                       OVC025=
202206272320 TAF KCLM 272320Z 2800/2824 30012KT P6SM FEW060 SCT120 FM281200
                       28012KT P6SM BKN030 FM282100 28008KT P6SM
                       VCSH BKN040=
202206271720 TAF KCLM 271720Z 2718/2818 VRB04KT P6SM BKN250 FM280000 28008KT
                       P6SM BKN120 BKN200 FM281000 28012KT P6SM
                       SCT015 BKN050
                      TEMPO 2812/2816 BKN015 BKN050 FM281600 28012KT
                       P6SM BKN017 BKN040=
202206271136 TAF KCLM 271136Z 2712/2812 24006KT P6SM SKC FM271700 VRB05KT P6SM
                       SCT200 FM280000 27010KT P6SM FEW120 BKN200=
202206270537 TAF KCLM 270537Z 2706/2806 27005KT P6SM SKC FM271100 29004KT P6SM
                       SKC FM280000 27010KT P6SM SKC=
202206262326 TAF KCLM 262326Z 2700/2724 09007KT P6SM SKC FM270200 27005KT P6SM
                       SKC FM271100 29004KT P6SM SKC=
202206261730 TAF KCLM 261730Z 2618/2718 09007KT P6SM SKC FM270200 27005KT P6SM
                       SKC FM271100 29004KT P6SM SKC=
202206261120 TAF KCLM 261120Z 2612/2712 23006KT P6SM SKC FM261700 10008KT P6SM
                       SKC FM270200 27005KT P6SM SKC=
202206260520 TAF KCLM 260520Z 2606/2706 24005KT P6SM SKC FM261600 10008KT P6SM
                       SKC=
202206252328 TAF KCLM 252328Z 2600/2624 08008KT P6SM SKC FM261200 22003KT P6SM
                       SKC FM261600 10008KT P6SM SKC=
202206251739 TAF KCLM 251739Z 2518/2618 08008KT P6SM SKC FM261200 22003KT P6SM
                       SKC FM261600 10008KT P6SM SKC=
202206251120 TAF KCLM 251120Z 2512/2612 26004KT P6SM FEW250 FM251800 09004KT
                       P6SM SKC FM260000 30005KT P6SM SKC=
202206250520 TAF KCLM 250520Z 2506/2606 26004KT P6SM FEW250 FM251800 09004KT
                       P6SM SKC FM260000 30005KT P6SM SKC=
202206242320 TAF KCLM 242320Z 2500/2524 34005KT P6SM SKC FM250300 28005KT P6SM
                       SKC FM251400 09003KT P6SM SKC=
202206241720 TAF KCLM 241720Z 2418/2518 04006KT P6SM SKC FM250000 34005KT P6SM
                       SKC FM250600 28005KT P6SM SKC FM251600 VRB03KT
                       P6SM SKC=
202206241120 TAF KCLM 241120Z 2412/2512 24007KT P6SM SKC FM241700 07007KT P6SM
                       SKC FM250000 30005KT P6SM SKC=
202206240520 TAF KCLM 240520Z 2406/2506 25004KT P6SM SKC FM241700 07007KT P6SM
                       SKC FM250000 30005KT P6SM SKC=
202206232320 TAF KCLM 232320Z 2400/2424 08008KT P6SM SKC FM240400 30006KT P6SM
                       SKC FM241200 25004KT P6SM SKC FM241700 07007KT
                       P6SM SKC=
202206231720 TAF KCLM 231720Z 2318/2418 VRB05KT P6SM FEW050 FM240000 30010KT
                       P6SM SKC FM240400 30006KT P6SM SKC FM241200
                       25004KT P6SM SKC=
202206231130 TAF KCLM 231130Z 2312/2412 25004KT P6SM SKC FM231800 VRB05KT P6SM
                       FEW050 FM240000 30010KT P6SM SKC=
202206230533 TAF KCLM 230533Z 2306/2406 28010G20KT P6SM SKC FM231000 27007KT
                       P6SM SCT025 FM231800 24007KT P6SM FEW050=
202206222328 TAF KCLM 222328Z 2300/2324 31015G22KT P6SM SKC FM230500 28015G23KT
                       P6SM BKN250 FM231000 27007KT P6SM SCT250
                       FM231700 02009KT P6SM BKN250=
202206221738 TAF KCLM 221738Z 2218/2318 30011KT P6SM OVC010 FM222000 31015G22KT
                       P6SM BKN035 FM230500 28014G22KT P6SM BKN250
                       FM231000 27012KT P6SM SCT250=
202206221625 KCLM 221625Z 2216/2312 32011KT P6SM FEW005 OVC020 FM222000 31015G22KT
                       P6SM BKN035 FM230500 28015G23KT P6SM BKN050=
202206221120 TAF KCLM 221120Z 2212/2312 28008KT 2SM BR OVC004 FM221500 32011KT
                       5SM BR OVC004 FM222000 31015G22KT P6SM BKN035
                       FM230500 28015G23KT P6SM BKN050=
202206220520 TAF KCLM 220520Z 2206/2306 30007KT P6SM SCT007 OVC050 FM220900
                       29007KT P6SM OVC004 FM221200 28010KT P6SM
                       OVC010 FM221500 32011KT P6SM OVC015 FM222000
                       31015G22KT P6SM BKN035=
202206212320 TAF KCLM 212320Z 2200/2224 31008KT P6SM OVC070 FM220500 30007KT
                       P6SM OVC010 FM221500 32011KT P6SM OVC015
                       FM222000 31015G22KT P6SM BKN035=
202206211725 TAF KCLM 211725Z 2118/2218 32005KT P6SM BKN050 FM212200 28008KT
                       P6SM OVC050 FM220600 30007KT P6SM OVC010
                       FM221500 32011KT P6SM OVC015=
202206211148 TAF KCLM 211148Z 2112/2212 28005KT P6SM OVC003 FM211600 30008KT
                       P6SM BKN008 OVC010 FM211800 32005KT P6SM
                       BKN050 FM212200 28008KT P6SM OVC050 FM220600
                       30007KT P6SM OVC030=
202206210924 KCLM 210924Z 2109/2206 29008KT P6SM BKN004
                      TEMPO 2109/2112 SCT004 FM211200 28005KT P6SM
                       OVC004 FM211600 30008KT P6SM BKN010 OVC020
                       FM211800 32005KT P6SM BKN050=
202206210714 KCLM 210714Z 2107/2206 29008KT P6SM OVC005 FM211000 28005KT P6SM
                       BKN010 OVC015 FM211800 32005KT P6SM BKN050=
202206210552 TAF KCLM 210552Z 2106/2206 29008KT P6SM OVC007 FM211000 28005KT
                       P6SM BKN010 OVC015 FM211800 32005KT P6SM
                       BKN050=
202206210430 KCLM 210430Z 2105/2124 30005KT P6SM BKN008 FM210600 27008KT P6SM
                       BKN008 BKN050 FM211000 28005KT P6SM BKN010
                       OVC015 FM211800 32005KT P6SM BKN050=
202206202320 TAF KCLM 202320Z 2100/2124 32010G18KT P6SM SCT050 FM210600 27008KT
                       P6SM BKN010 BKN050 FM211000 28005KT P6SM
                       BKN010 OVC015 FM211800 32005KT P6SM BKN050=
202206201722 TAF KCLM 201722Z 2018/2118 31007KT P6SM BKN050 FM210000 30010G18KT
                       P6SM BKN050 FM210600 27007KT P6SM SCT050
                       FM211000 27005KT P6SM SCT025 OVC050=
202206201121 TAF KCLM 201121Z 2012/2112 21004KT P6SM SCT020 FM201800 34007KT
                       P6SM SCT020 OVC050 FM210000 30010G18KT P6SM
                       BKN050 FM210600 27007KT P6SM SCT050 FM211000
                       25005KT P6SM SCT020=
202206200854 KCLM 200854Z 2009/2106 28008KT P6SM OVC020 FM201800 34007KT P6SM
                       SCT020 OVC050 FM210000 30010G18KT P6SM BKN050=
202206200520 TAF KCLM 200520Z 2006/2106 30012G18KT P6SM OVC035 FM201000 27010KT
                       P6SM OVC030 FM201200 30006KT P6SM OVC020
                       FM201800 34007KT P6SM SCT020 OVC050 FM210000
                       30010G18KT P6SM BKN050=
202206192320 TAF KCLM 192320Z 2000/2024 30012G18KT P6SM OVC035 FM201000 27010KT
                       P6SM OVC030 FM201200 30006KT P6SM OVC020
                       FM201800 34007KT P6SM SCT020 OVC050=
202206191720 TAF KCLM 191720Z 1918/2018 33008KT P6SM SCT020 OVC060 FM200100
                       30012G18KT P6SM OVC040 FM201000 27010KT
                       P6SM OVC030 FM201200 30006KT P6SM OVC020=
202206191120 TAF KCLM 191120Z 1912/2012 26006KT P6SM OVC020 FM191700 33008KT
                       P6SM SCT015 OVC025 FM200300 30012G18KT P6SM
                       OVC050 FM201000 27010KT P6SM OVC030=
202206190524 TAF KCLM 190524Z 1906/2006 29008KT P6SM OVC045 FM190700 28005KT
                       P6SM OVC025 FM191200 29006KT P6SM OVC015
                       FM191700 33008KT P6SM SCT015 OVC025 FM200300
                       30012G18KT P6SM OVC050=
202206182320 TAF KCLM 182320Z 1900/1924 31007KT P6SM SCT025 OVC040 FM190700
                       28005KT P6SM OVC025 FM191200 29006KT P6SM
                       OVC015 FM191700 33008KT P6SM SCT015 OVC025=
202206181720 TAF KCLM 181720Z 1818/1918 30006KT P6SM VCSH SCT030 BKN080 FM182100
                       32008KT P6SM VCSH SCT020 OVC030 FM190000
                       31007KT P6SM SCT030 OVC050 FM190700 28005KT
                       P6SM OVC025 FM191200 29006KT P6SM OVC015=
202206181121 TAF KCLM 181121Z 1812/1912 24004KT P6SM SCT026 SCT100 FM181900
                       30006KT P6SM VCSH BKN030 BKN050 FM190000
                       31007KT P6SM OVC050 FM190700 28005KT P6SM
                       OVC015=
202206180524 TAF KCLM 180524Z 1806/1906 30010KT P6SM VCSH BKN080 BKN110 FM181000
                       28007KT P6SM -SHRA OVC025 FM181900 30006KT
                       P6SM VCSH BKN030 BKN050 FM190000 31007KT
                       P6SM OVC050=
202206172324 TAF KCLM 172324Z 1800/1824 29005KT P6SM VCSH SCT030 OVC080 FM180300
                       30009KT P6SM VCSH SCT030 OVC080 FM181000
                       28007KT P6SM -SHRA OVC025 FM181900 30006KT
                       P6SM VCSH BKN030 BKN050=
202206171744 TAF KCLM 171744Z 1718/1818 32007KT P6SM BKN040 FM172200 31010KT
                       P6SM VCSH OVC040 FM180000 30010G15KT P6SM
                       BKN030 FM180500 28010KT P6SM OVC050 FM181000
                       28007KT P6SM OVC025=
202206171120 TAF KCLM 171120Z 1712/1812 00000KT P6SM FEW040 FM171800 32007KT
                       P6SM OVC030 FM180000 30010G15KT P6SM BKN030
                       FM180500 28010KT P6SM OVC050 FM181000 28007KT
                       P6SM OVC025=
202206170525 TAF KCLM 170525Z 1706/1806 24005KT P6SM VCSH OVC050 FM171200 30010KT
                       P6SM OVC030 FM171800 32007KT P6SM OVC030
                       FM180000 30010G20KT P6SM BKN030 FM180500
                       28010KT P6SM OVC050=
202206162320 TAF KCLM 162320Z 1700/1724 30006KT P6SM VCSH SCT035 BKN060 FM170200
                       28006KT P6SM VCSH OVC040 FM171200 30010KT
                       P6SM OVC030 FM171800 32007KT P6SM OVC030=
202206161720 TAF KCLM 161720Z 1618/1718 VRB03KT P6SM VCSH FEW010 OVC030 FM162100
                       30006KT P6SM VCSH OVC035 FM170200 28006KT
                       P6SM VCSH OVC070 FM171200 30010KT P6SM OVC050=
202206161139 TAF KCLM 161139Z 1612/1712 00000KT P6SM -SHRA FEW030 OVC070
                      TEMPO 1612/1616 1/4SM FG OVC004 FM161800
                       36004KT P6SM VCSH OVC030 FM162100 32006KT
                       P6SM -SHRA OVC035 FM170200 31006KT P6SM
                       VCSH OVC070=
202206160858 KCLM 160858Z 1609/1706 28003KT 3SM -SHRA OVC002 FM161400 25002KT
                       1/4SM FG OVC004 FM161800 36004KT P6SM VCSH
                       OVC030 FM162100 32006KT P6SM -SHRA OVC035=
202206160533 TAF KCLM 160533Z 1606/1706 VRB04KT P6SM -SHRA SCT045 OVC100 FM160700
                       28003KT P6SM -SHRA OVC050 FM161400 VRB03KT
                       P6SM OVC035 FM162100 32006KT P6SM -SHRA
                       OVC035=
202206152337 TAF KCLM 152337Z 1600/1624 VRB02KT P6SM OVC070 FM160700 28003KT
                       P6SM -SHRA OVC050 FM161400 VRB03KT P6SM
                       OVC025=
202206151740 TAF KCLM 151740Z 1518/1618 01005KT P6SM FEW020 OVC150 FM152200
                       VRB02KT P6SM OVC070 FM160700 28003KT P6SM
                       -SHRA OVC050 FM161400 VRB03KT P6SM OVC025=
202206151135 TAF KCLM 151135Z 1512/1612 31003KT P6SM OVC025 FM151800 01005KT
                       P6SM OVC060 FM160700 28003KT P6SM -SHRA
                       OVC050=
202206150531 TAF KCLM 150531Z 1506/1606 28008KT P6SM BKN030 OVC040 FM151200
                       27008KT P6SM OVC050 FM152000 01005KT P6SM
                       OVC060=
202206150150 KCLM 150150Z 1502/1524 31011G19KT P6SM BKN024 OVC035 FM150800 28007KT
                       P6SM BKN250 FM151200 27008KT P6SM OVC050
                       FM151500 28003KT P6SM OVC100=
202206142323 TAF KCLM 142323Z 1500/1524 31013G20KT P6SM BKN100 FM150800 28007KT
                       P6SM BKN250 FM151200 27008KT P6SM OVC050
                       FM151500 28003KT P6SM OVC100=
202206141731 TAF KCLM 141731Z 1418/1518 32011G18KT P6SM BKN050 FM150000 31010KT
                       P6SM BKN100 FM150700 28007KT P6SM BKN250
                       FM151200 27008KT P6SM OVC050 FM151500 28003KT
                       P6SM OVC100=
202206141132 TAF KCLM 141132Z 1412/1512 27007KT P6SM VCSH SCT050 FM141700 32011KT
                       P6SM BKN050 FM150000 31010KT P6SM BKN100
                       FM150700 28007KT P6SM BKN250=
202206140537 TAF KCLM 140537Z 1406/1506 31010KT P6SM BKN060 OVC080 FM140900
                       28010KT P6SM VCSH BKN050 FM141700 32011KT
                       P6SM BKN050 FM150000 31009KT P6SM BKN100=
202206132327 TAF KCLM 132327Z 1400/1424 30015G27KT P6SM BKN050 FM140900 28011KT
                       P6SM VCSH BKN050 FM141700 32011KT P6SM BKN050=
202206131736 TAF KCLM 131736Z 1318/1418 29015G25KT P6SM BKN050 FM140800 28011KT
                       P6SM VCSH BKN050 FM141700 32011KT P6SM OVC050=
202206131122 TAF KCLM 131122Z 1312/1412 27012G18KT P6SM BKN050 FM132000 31014G22KT
                       P6SM BKN050 FM140600 27011KT P6SM BKN050=
202206130520 TAF KCLM 130520Z 1306/1406 28014G17KT P6SM BKN050 FM130900 27015G18KT
                       P6SM BKN050 FM132000 32014G22KT P6SM BKN050=
202206122332 TAF KCLM 122332Z 1300/1324 30014G24KT P6SM BKN050 FM130900 27015G25KT
                       P6SM OVC050 FM132000 32014G22KT P6SM BKN050=
202206121723 TAF KCLM 121723Z 1218/1318 30010G16KT P6SM BKN040 FM122200 29014G22KT
                       P6SM BKN050 FM130900 27015G26KT P6SM OVC050=
202206121120 TAF KCLM 121120Z 1212/1312 28007KT P6SM OVC025 FM122000 29012G21KT
                       P6SM BKN050 FM130900 27015G26KT P6SM OVC050=
202206120520 TAF KCLM 120520Z 1206/1306 29011KT P6SM BKN020 OVC025 FM120700
                       28007KT P6SM OVC020 FM122000 31012G21KT
                       P6SM BKN045=
202206112322 TAF KCLM 112322Z 1200/1224 29011KT P6SM SCT014 BKN050
                      TEMPO 1200/1204 BKN012 FM120700 28007KT P6SM
                       OVC030 FM122000 31012G18KT P6SM BKN045=
202206111720 TAF KCLM 111720Z 1118/1218 32008KT P6SM SCT015 BKN035 BKN050
                      TEMPO 1118/1120 BKN014 FM112100 30010KT P6SM
                       BKN050 FM120700 28007KT P6SM OVC025=
202206111134 TAF KCLM 111134Z 1112/1212 28006KT P6SM OVC015 FM111800 32008KT
                       P6SM BKN035 BKN050 FM112100 32007KT P6SM
                       BKN050 FM120700 28007KT P6SM OVC025=
202206110520 TAF KCLM 110520Z 1106/1206 28006KT P6SM BKN010 FM111000 32006KT
                       P6SM BKN015 BKN040 FM111800 29008KT P6SM
                       BKN050=
202206110313 KCLM 110313Z 1103/1124 28008KT P6SM SCT005 BKN070
                      TEMPO 1103/1107 BKN005 OVC070 FM111200 32006KT
                       P6SM BKN025 BKN040 FM112100 32007KT P6SM
                       BKN050=
202206102323 TAF KCLM 102323Z 1100/1124 27006KT P6SM SCT020 BKN060
                      TEMPO 1100/1104 BKN020 FM110400 28004KT 6SM
                       BR VCSH BKN020 OVC040 FM111000 27004KT P6SM
                       BKN012 FM111800 32006KT P6SM BKN025 BKN040
                       FM112100 32007KT P6SM BKN050=
202206101721 TAF KCLM 101721Z 1018/1118 32006KT P6SM BKN005 BKN040
                      TEMPO 1019/1021 SCT007 BKN040 FM102100 32007KT
                       P6SM BKN040 FM110400 28004KT 6SM BR VCSH
                       OVC040 FM111000 27004KT P6SM BKN010=
202206101459 KCLM 101459Z 1015/1112 00000KT 6SM BR SCT005 OVC015
                      TEMPO 1015/1017 BKN005 FM101700 32006KT P6SM
                       OVC025 FM102100 32007KT P6SM BKN040 FM110400
                       28004KT 6SM BR VCSH OVC040=
202206101139 TAF KCLM 101139Z 1012/1112 00000KT 6SM BR SCT005 OVC015 FM101400
                       32005KT 6SM BR OVC015 FM101700 32006KT P6SM
                       OVC025 FM102100 32007KT P6SM BKN040 FM110400
                       28004KT 6SM BR VCSH OVC040=
202206100539 TAF KCLM 100539Z 1006/1106 VRB03KT 3SM -RA BR SCT005 BKN050 FM101000
                       28003KT 2SM BR OVC006 FM101400 32005KT 6SM
                       BR SCT006 OVC015 FM101700 32006KT P6SM OVC025
                       FM102100 32007KT P6SM BKN040 FM110400 28004KT
                       6SM BR VCSH OVC040=
202206092320 TAF KCLM 092320Z 1000/1024 VRB03KT 4SM -RA BR BKN005 OVC022 FM101000
                       26004KT 6SM BR VCSH BKN010 BKN025 FM102100
                       32007KT P6SM BKN035=
202206092201 KCLM 092201Z 0922/1018 VRB03KT 4SM -RA BR BKN005 OVC022 FM101000
                       26004KT 6SM BR VCSH BKN017 BKN030=
202206091730 TAF KCLM 091730Z 0918/1018 VRB04KT 4SM -RA BR SCT006 OVC020
                      TEMPO 0918/0922 2SM -RA BR BKN005 OVC015
                       FM092200 VRB03KT 4SM -RA BR BKN010 OVC022
                       FM101000 26004KT 6SM BR VCSH BKN017 BKN030=
202206091638 KCLM 091638Z 0917/1012 VRB04KT 6SM -RA BR SCT006 OVC020
                      TEMPO 0917/0921 4SM -RA BR BKN005 OVC015
                       FM092100 VRB03KT 4SM -RA BR BKN011 OVC022=
202206091139 TAF KCLM 091139Z 0912/1012 24003KT P6SM BKN060 OVC100 FM091400
                       20002KT P6SM -RA OVC050 FM091800 08003KT
                       4SM -RA BR OVC020=
202206090520 TAF KCLM 090520Z 0906/1006 30010KT P6SM BKN250 FM091000 24003KT
                       P6SM BKN060 OVC100 FM091400 20002KT P6SM
                       -RA OVC050 FM091800 08003KT 4SM -RA BR OVC020=
202206082340 TAF KCLM 082340Z 0900/0924 30010KT P6SM BKN250 FM091000 24003KT
                       P6SM BKN060 OVC100 FM091400 20002KT P6SM
                       -RA OVC050 FM091800 08003KT 4SM -RA BR OVC020=
202206081758 TAF KCLM 081758Z 0818/0918 31007KT P6SM BKN150 FM082200 30005KT
                       P6SM OVC150 FM091000 25003KT P6SM BKN060
                       OVC100=
202206081131 TAF KCLM 081131Z 0812/0912 25003KT P6SM OVC060 FM081800 32007KT
                       P6SM BKN050 FM082200 30005KT P6SM BKN100
                       FM091000 25003KT P6SM OVC100=
202206080521 TAF KCLM 080521Z 0806/0906 27004KT P6SM -SHRA OVC120 FM081100 25003KT
                       P6SM OVC060 FM081800 32007KT P6SM BKN050
                       FM082200 30005KT P6SM BKN100=
202206072327 TAF KCLM 072327Z 0800/0824 29003KT P6SM BKN150 OVC200 FM080300
                       27004KT P6SM -SHRA OVC120 FM081100 25003KT
                       P6SM OVC060 FM081800 32007KT P6SM BKN050=
202206071725 TAF KCLM 071725Z 0718/0818 08008KT P6SM FEW250 FM072100 07005KT
                       P6SM FEW250 FM080300 30004KT P6SM OVC120
                       FM081100 25003KT P6SM OVC060=
202206071139 TAF KCLM 071139Z 0712/0812 VRB03KT P6SM FEW120 FM071500 20003KT
                       P6SM BKN250 FM071900 07005KT P6SM FEW250=
202206070533 TAF KCLM 070533Z 0706/0806 31008KT P6SM SCT100 FM070800 27004KT
                       P6SM FEW120 FM071500 20003KT P6SM BKN250=
202206062321 TAF KCLM 062321Z 0700/0724 33006KT P6SM BKN060 FM070200 31008KT
                       P6SM SCT100 FM070800 27004KT P6SM FEW120
                       FM071500 20003KT P6SM BKN250=
202206061745 TAF KCLM 061745Z 0618/0718 35003KT P6SM OVC060 FM062000 33006KT
                       P6SM BKN060 FM070200 31008KT P6SM SCT100
                       FM070800 27004KT P6SM FEW120 FM071400 20003KT
                       P6SM BKN250=
202206061121 TAF KCLM 061121Z 0612/0712 23003KT P6SM FEW010 BKN060 FM062000
                       33006KT P6SM BKN060 FM070200 29008KT P6SM
                       SCT100 FM070800 25004KT P6SM FEW120=
202206060521 TAF KCLM 060521Z 0606/0706 29008KT P6SM BKN070 FM061200 26004KT
                       P6SM BKN015 FM062000 33006KT P6SM SCT025
                       BKN060 FM070300 29008KT P6SM FEW080 SCT200=
202206052337 TAF KCLM 052337Z 0600/0624 29012G18KT P6SM VCSH SCT012 BKN025 BKN040
                       TEMPO 0600/0604 6SM -SHRA BR BKN012 FM060400
                       29008KT P6SM VCSH SCT022 BKN035 FM060900
                       26006KT P6SM BKN015 FM062000 33006KT P6SM
                       SCT025 BKN060=
202206052127 KCLM 052127Z 0521/0618 31012G22KT P6SM VCSH SCT007 BKN025 BKN040
                       TEMPO 0521/0601 6SM -SHRA BR BKN005 FM060100
                       29007KT P6SM SCT022 BKN035 FM060900 26006KT
                       P6SM BKN030=
202206051732 TAF KCLM 051732Z 0518/0618 VRB03KT P6SM VCSH SCT012 BKN030 BKN070
                       TEMPO 0518/0521 BKN017 FM052100 31010KT
                       P6SM VCSH BKN025 BKN040 FM060000 29007KT
                       P6SM SCT025 BKN040 FM060900 26006KT P6SM
                       BKN030=
202206051444 KCLM 051444Z 0515/0612 VRB03KT P6SM VCSH SCT005 BKN027 BKN070
                      TEMPO 0515/0519 2SM BR BKN004 FM051900 31010KT
                       6SM -SHRA BR BKN022 BKN040 FM060000 29007KT
                       P6SM SCT025 BKN040=
202206051133 TAF KCLM 051133Z 0512/0612 00000KT P6SM SCT050 BKN080 FM051400
                       29005KT P6SM -SHRA BKN020 BKN035 FM051900
                       31010KT 6SM -SHRA BR BKN022 BKN040 FM060000
                       29007KT P6SM SCT025 BKN040=
202206050527 TAF KCLM 050527Z 0506/0606 00000KT P6SM SCT060 BKN100 FM051400
                       29005KT P6SM -SHRA BKN020 BKN035 FM051900
                       31010KT 6SM -SHRA BR BKN022 BKN040 FM060000
                       29007KT P6SM SCT025 BKN040=
202206042323 TAF KCLM 042323Z 0500/0524 VRB03KT P6SM -RA OVC050 FM050400 VRB03KT
                       6SM -RA BR SCT010 OVC022 FM051400 29005KT
                       P6SM -SHRA BKN020 BKN035 FM051900 31010KT
                       6SM -SHRA BR BKN022 BKN040=
202206041723 TAF KCLM 041723Z 0418/0518 08005KT P6SM BKN060 OVC100 FM042300
                       VRB03KT P6SM -RA OVC050 FM050400 VRB03KT
                       6SM -RA BR SCT010 OVC022 FM051400 29005KT
                       P6SM -SHRA BKN020 BKN035=
202206041121 TAF KCLM 041121Z 0412/0512 00000KT P6SM SCT060 BKN110 FM041800
                       08005KT P6SM BKN060 OVC100 FM042300 VRB03KT
                       P6SM -RA OVC050=
202206040520 TAF KCLM 040520Z 0406/0506 23004KT P6SM VCSH BKN060 BKN120 FM041800
                       08005KT P6SM VCSH BKN060 OVC100 FM050300
                       VRB03KT P6SM OVC050=
202206032330 TAF KCLM 032330Z 0400/0424 VRB04KT P6SM VCSH FEW050 BKN070 BKN080
                       FM040600 VRB04KT P6SM VCSH OVC020 FM041800
                       08005KT P6SM VCSH OVC050=
202206031728 TAF KCLM 031728Z 0318/0418 28004KT P6SM VCSH SCT002 OVC012
                      TEMPO 0318/0320 OVC002 FM032000 31004KT P6SM
                       SCT020 BKN050 FM040000 24003KT P6SM OVC050
                       FM040600 00000KT P6SM VCSH OVC015=
202206031502 KCLM 031502Z 0315/0412 29009KT P6SM -SHRA SCT005 SCT030 OVC090
                       TEMPO 0315/0318 3SM SHRA OVC003 FM031800
                       31005KT P6SM VCSH OVC030 FM040000 05003KT
                       P6SM -SHRA OVC050 FM040600 26003KT P6SM
                       -SHRA OVC050=
202206031120 TAF KCLM 031120Z 0312/0412 28004KT P6SM SCT025 FM031500 34003KT
                       6SM -RA BR OVC045 FM031800 31005KT P6SM
                       VCSH OVC030 FM040000 05003KT P6SM -SHRA
                       OVC050 FM040600 26003KT P6SM -SHRA OVC050=
202206030520 TAF KCLM 030520Z 0306/0406 32003KT P6SM OVC100 FM030900 28004KT
                       5SM BR OVC035 FM031200 28004KT 4SM -SHRA
                       OVC025 FM031800 31005KT P6SM VCSH OVC030
                       FM040000 05003KT P6SM -SHRA OVC050=
202206022340 TAF KCLM 022340Z 0300/0324 VRB04KT P6SM VCSH OVC120 FM030600 28005KT
                       5SM BR OVC070 FM030900 28004KT 5SM BR OVC035
                       FM031200 28004KT 4SM -SHRA OVC025 FM031800
                       31005KT P6SM VCSH OVC050=
202206021720 TAF KCLM 021720Z 0218/0318 VRB06KT P6SM SCT100 BKN200 FM022200
                       35004KT P6SM OVC100 FM030600 28005KT 5SM
                       BR OVC070 FM030900 27003KT 5SM BR OVC020
                       FM031200 28004KT 4SM -SHRA OVC015=
202206021120 TAF KCLM 021120Z 0212/0312 00000KT 1SM BR VV001
                      TEMPO 0212/0215 1SM BR FM021600 28003KT P6SM
                       OVC020 FM021800 VRB05KT P6SM OVC100 FM030600
                       28005KT 5SM BR OVC050=
202206020520 TAF KCLM 020520Z 0206/0306 00000KT P6SM BKN080 OVC120 FM021000
                       VRB03KT 1 1/2SM BR OVC004 FM021400 28003KT
                       P6SM OVC015 FM021800 VRB05KT P6SM OVC100=
202206020018 KCLM 020018Z 0200/0224 07004KT P6SM -RA BKN080 OVC100 FM020400
                       28004KT P6SM OVC100 FM021300 28003KT P6SM
                       OVC015 FM021800 VRB05KT P6SM OVC100=
202206012339 TAF KCLM 012339Z 0200/0224 07004KT P6SM FEW050 BKN070 OVC100 FM020400
                       28004KT P6SM OVC100 FM021300 28003KT P6SM
                       OVC015 FM021800 VRB05KT P6SM OVC100=
202206011733 TAF KCLM 011733Z 0118/0218 07004KT P6SM BKN150 OVC200 FM020300
                       27004KT P6SM OVC100 FM021600 33004KT P6SM
                       OVC100=
202206011120 TAF KCLM 011120Z 0112/0212 00000KT P6SM SKC FM011400 VRB03KT P6SM
                       OVC100 FM011800 03004KT P6SM OVC100 FM020500
                       27004KT P6SM OVC100=
202206010520 TAF KCLM 010520Z 0106/0206 21003KT P6SM SKC FM011100 30004KT P6SM
                       OVC150 FM011800 03004KT P6SM OVC100 FM020500
                       27004KT P6SM OVC100=