##########################################################
# Query made at 02/16/2025 05:33:33 UTC
# Time interval: from 07/01/2022 00:00  to 07/31/2022 23:59  UTC
##########################################################

##########################################################
# KCLM, Port Angeles, William R. Fairchild International Airport (United States)
# WMO index: -----. WIGOS ID: Unknown
# Latitude 48-07-20N. Longitude 123-30-19W. Altitude 87 m.
##########################################################

###################################
#  METAR/SPECI from KCLM
###################################
202207312353 METAR KCLM 312353Z AUTO 30006KT 10SM CLR 22/14 A2992 RMK AO2 SLP132 T02170139 10256 20211 58007=
202207312253 METAR KCLM 312253Z AUTO 29010KT 10SM CLR 22/14 A2994 RMK AO2 SLP136 T02220139=
202207312153 METAR KCLM 312153Z AUTO 34005KT 10SM CLR 25/15 A2994 RMK AO2 SLP137 T02500150=
202207312053 SPECI KCLM 312053Z AUTO VRB04KT 10SM CLR 24/14 A2995 RMK AO2 SLP140 T02390144 58005=
202207312053 METAR KCLM 312053Z AUTO VRB04KT 10SM CLR 24/14 A2995 RMK AO2 SLP140 T02390144 58005=
202207311953 METAR KCLM 311953Z AUTO VRB04KT 10SM CLR 25/14 A2995 RMK AO2 SLP142 T02500144=
202207311853 METAR KCLM 311853Z AUTO VRB04KT 10SM CLR 24/14 A2996 RMK AO2 SLP145 T02440144=
202207311753 METAR KCLM 311753Z AUTO VRB03KT 10SM CLR 24/14 A2996 RMK AO2 SLP144 T02390139 10244 20128 50002=
202207311653 METAR KCLM 311653Z AUTO VRB04KT 10SM CLR 22/14 A2996 RMK AO2 SLP145 T02220139=
202207311553 METAR KCLM 311553Z AUTO 34003KT 10SM CLR 22/14 A2996 RMK AO2 SLP143 T02170144=
202207311453 METAR KCLM 311453Z AUTO 00000KT 10SM CLR 19/14 A2995 RMK AO2 SLP142 T01940139 51007=
202207311353 METAR KCLM 311353Z AUTO 00000KT 10SM CLR 15/13 A2995 RMK AO2 SLP140 T01500128=
202207311253 METAR KCLM 311253Z AUTO 00000KT 10SM CLR 13/11 A2995 RMK AO2 SLP140 T01280106=
202207311153 METAR KCLM 311153Z AUTO 00000KT 10SM CLR 14/11 A2993 RMK AO2 SLP135 T01390111 10172 20128 51007=
202207311053 METAR KCLM 311053Z AUTO 00000KT 10SM CLR 15/12 A2993 RMK AO2 SLP134 T01500122=
202207310953 METAR KCLM 310953Z AUTO 00000KT 10SM CLR 16/12 A2992 RMK AO2 SLP130 T01610122=
202207310853 METAR KCLM 310853Z AUTO 21003KT 10SM CLR 14/12 A2991 RMK AO2 SLP128 T01440122 50001=
202207310753 METAR KCLM 310753Z AUTO 16003KT 10SM CLR 15/12 A2992 RMK AO2 SLP129 T01500122 402830111=
202207310653 METAR KCLM 310653Z AUTO 00000KT 10SM CLR 16/13 A2991 RMK AO2 SLP127 T01560128=
202207310553 METAR KCLM 310553Z AUTO 00000KT 10SM CLR 17/13 A2991 RMK AO2 SLP127 T01670133 10261 20161 50004=
202207310453 METAR KCLM 310453Z AUTO 00000KT 10SM CLR 17/13 A2991 RMK AO2 SLP128 T01670133=
202207310353 METAR KCLM 310353Z AUTO 24003KT 10SM CLR 19/13 A2990 RMK AO2 SLP124 T01890128=
202207310253 METAR KCLM 310253Z AUTO 31004KT 10SM CLR 21/13 A2990 RMK AO2 SLP123 T02060133 55006=
202207310153 METAR KCLM 310153Z AUTO 30003KT 10SM CLR 23/13 A2989 RMK AO2 SLP121 T02330133=
202207310053 METAR KCLM 310053Z AUTO 35004KT 10SM CLR 24/14 A2991 RMK AO2 SLP126 T02440139=
202207302353 METAR KCLM 302353Z AUTO 35003KT 10SM CLR 25/13 A2992 RMK AO2 SLP129 T02500133 10283 20217 58008=
202207302253 METAR KCLM 302253Z AUTO 10SM CLR 27/13 A2992 RMK AO2 SLP132 T02720133=
202207302153 METAR KCLM 302153Z AUTO VRB05KT 10SM CLR 28/14 A2993 RMK AO2 SLP134 T02780139=
202207302053 METAR KCLM 302053Z AUTO 04005KT 10SM CLR 27/14 A2994 RMK AO2 SLP137 T02670139 57002=
202207301953 METAR KCLM 301953Z AUTO VRB04KT 10SM CLR 27/14 A2994 RMK AO2 SLP138 T02670139=
202207301853 METAR KCLM 301853Z AUTO 03005KT 10SM CLR 24/13 A2994 RMK AO2 SLP138 T02440133=
202207301753 METAR KCLM 301753Z AUTO 36005KT 10SM CLR 23/13 A2994 RMK AO2 SLP139 T02280133 10244 20111 51003=
202207301653 METAR KCLM 301653Z AUTO 00000KT 10SM CLR 21/13 A2994 RMK AO2 SLP139 T02110128=
202207301553 METAR KCLM 301553Z AUTO 00000KT 10SM CLR 21/13 A2994 RMK AO2 SLP138 T02060133=
202207301453 METAR KCLM 301453Z AUTO 00000KT 10SM CLR 18/14 A2994 RMK AO2 SLP136 T01830139 53010=
202207301353 METAR KCLM 301353Z AUTO 00000KT 10SM CLR 14/12 A2993 RMK AO2 SLP133 T01440122=
202207301253 METAR KCLM 301253Z AUTO 00000KT 10SM CLR 12/11 A2991 RMK AO2 SLP129 T01220106=
202207301153 METAR KCLM 301153Z AUTO 00000KT 10SM CLR 12/11 A2991 RMK AO2 SLP126 T01220106 10156 20117 50007=
202207301053 METAR KCLM 301053Z AUTO 22005KT 10SM CLR 12/10 A2991 RMK AO2 SLP126 T01220100=
202207300953 METAR KCLM 300953Z AUTO 00000KT 10SM CLR 13/11 A2991 RMK AO2 SLP126 T01280111=
202207300853 METAR KCLM 300853Z AUTO VRB03KT 10SM CLR 12/11 A2989 RMK AO2 SLP119 T01220106 53004=
202207300753 METAR KCLM 300753Z AUTO 00000KT 10SM CLR 14/11 A2987 RMK AO2 SLP114 T01390111 402440117=
202207300653 METAR KCLM 300653Z AUTO 00000KT 10SM CLR 14/12 A2987 RMK AO2 SLP114 T01390117=
202207300553 METAR KCLM 300553Z AUTO 00000KT 10SM CLR 15/12 A2987 RMK AO2 SLP115 T01500122 10244 20144 53003=
202207300453 METAR KCLM 300453Z AUTO 29006KT 10SM CLR 16/13 A2987 RMK AO2 SLP115 T01610128=
202207300353 METAR KCLM 300353Z AUTO 25003KT 10SM CLR 17/13 A2986 RMK AO2 SLP112 T01720128=
202207300253 METAR KCLM 300253Z AUTO 31003KT 10SM CLR 19/13 A2987 RMK AO2 SLP112 T01890133 56013=
202207300153 METAR KCLM 300153Z AUTO 30005KT 10SM CLR 22/14 A2987 RMK AO2 SLP114 T02220144=
202207300053 METAR KCLM 300053Z AUTO 31005KT 10SM CLR 22/14 A2989 RMK AO2 SLP121 T02220144=
202207292353 METAR KCLM 292353Z AUTO 30007KT 10SM CLR 23/14 A2990 RMK AO2 SLP125 T02280144 10244 20217 58010=
202207292253 METAR KCLM 292253Z AUTO 29006KT 10SM CLR 23/14 A2992 RMK AO2 SLP129 T02330144=
202207292153 METAR KCLM 292153Z AUTO 29007KT 10SM CLR 23/14 A2993 RMK AO2 SLP134 T02280144=
202207292053 METAR KCLM 292053Z AUTO 30006KT 10SM CLR 24/14 A2994 RMK AO2 SLP136 T02390139 58005=
202207291953 METAR KCLM 291953Z AUTO VRB04KT 10SM CLR 24/14 A2994 RMK AO2 SLP138 T02390139=
202207291853 METAR KCLM 291853Z AUTO 34004KT 10SM CLR 22/13 A2995 RMK AO2 SLP142 T02170133=
202207291753 METAR KCLM 291753Z AUTO 36004KT 10SM CLR 22/13 A2995 RMK AO2 SLP141 T02170133 10217 20122 50001=
202207291653 METAR KCLM 291653Z AUTO 30004KT 10SM CLR 20/13 A2996 RMK AO2 SLP143 T02000133=
202207291553 METAR KCLM 291553Z AUTO 36004KT 10SM CLR 18/13 A2995 RMK AO2 SLP141 T01830128=
202207291453 METAR KCLM 291453Z AUTO 31003KT 10SM CLR 16/13 A2995 RMK AO2 SLP141 T01610128 53005=
202207291353 METAR KCLM 291353Z AUTO 28004KT 10SM CLR 14/12 A2994 RMK AO2 SLP138 T01390122=
202207291253 METAR KCLM 291253Z AUTO 27003KT 10SM CLR 12/11 A2994 RMK AO2 SLP137 T01220106=
202207291153 METAR KCLM 291153Z AUTO 23004KT 10SM CLR 13/11 A2994 RMK AO2 SLP137 T01280111 10139 20117 53004=
202207291053 METAR KCLM 291053Z AUTO 27004KT 10SM CLR 12/11 A2993 RMK AO2 SLP135 T01220106=
202207290953 METAR KCLM 290953Z AUTO 28005KT 10SM CLR 13/11 A2993 RMK AO2 SLP132 T01280111=
202207290853 METAR KCLM 290853Z AUTO 28004KT 10SM CLR 13/11 A2992 RMK AO2 SLP133 T01280111 53002=
202207290753 METAR KCLM 290753Z AUTO 28005KT 10SM CLR 13/11 A2992 RMK AO2 SLP131 T01280111 402330128=
202207290653 METAR KCLM 290653Z AUTO 28005KT 10SM CLR 13/12 A2992 RMK AO2 SLP131 T01280117=
202207290553 METAR KCLM 290553Z AUTO 29005KT 10SM CLR 14/12 A2992 RMK AO2 SLP131 T01390122 10228 20139 55002=
202207290453 METAR KCLM 290453Z AUTO 30004KT 10SM CLR 16/13 A2992 RMK AO2 SLP130 T01560128=
202207290353 METAR KCLM 290353Z AUTO 29005KT 10SM CLR 15/12 A2992 RMK AO2 SLP131 T01500122=
202207290253 METAR KCLM 290253Z AUTO 31004KT 10SM CLR 18/13 A2992 RMK AO2 SLP133 T01780133 58012=
202207290153 METAR KCLM 290153Z AUTO 30006KT 10SM CLR 22/14 A2994 RMK AO2 SLP137 T02170144=
202207290053 METAR KCLM 290053Z AUTO 29006KT 10SM CLR 22/14 A2995 RMK AO2 SLP141 T02220144=
202207282353 METAR KCLM 282353Z AUTO 29006KT 10SM CLR 22/14 A2996 RMK AO2 SLP144 T02170139 10233 20194 56010=
202207282253 METAR KCLM 282253Z AUTO 31007KT 10SM CLR 22/14 A2997 RMK AO2 SLP146 T02170139=
202207282153 METAR KCLM 282153Z AUTO 31006KT 10SM CLR 22/14 A2998 RMK AO2 SLP151 T02220139=
202207282053 METAR KCLM 282053Z AUTO 29006KT 10SM CLR 22/14 A2999 RMK AO2 SLP154 T02170139 58004=
202207281953 METAR KCLM 281953Z AUTO 33007KT 10SM CLR 21/13 A3000 RMK AO2 SLP158 T02110133=
202207281853 METAR KCLM 281853Z AUTO 35005KT 10SM CLR 22/14 A3000 RMK AO2 SLP157 T02220139=
202207281753 METAR KCLM 281753Z AUTO 35004KT 10SM CLR 20/13 A3000 RMK AO2 SLP159 T02000133 10200 20133 58001=
202207281653 METAR KCLM 281653Z AUTO 35004KT 10SM CLR 18/13 A3001 RMK AO2 SLP162 T01830133=
202207281553 METAR KCLM 281553Z AUTO 31005KT 10SM CLR 17/13 A3001 RMK AO2 SLP162 T01720133=
202207281453 METAR KCLM 281453Z AUTO 33003KT 10SM CLR 16/13 A3001 RMK AO2 SLP160 T01610133 50001=
202207281429 SPECI KCLM 281429Z AUTO 30004KT 10SM SCT003 15/13 A3001 RMK AO2 T01500128=
202207281353 METAR KCLM 281353Z AUTO 26004KT 10SM OVC003 14/12 A3001 RMK AO2 SLP162 T01390122=
202207281253 METAR KCLM 281253Z AUTO 27005KT 3SM BR OVC002 13/12 A3001 RMK AO2 SLP160 T01330122=
202207281233 SPECI KCLM 281233Z AUTO 28006KT 3SM BR OVC002 13/12 A3000 RMK AO2 T01330122=
202207281224 SPECI KCLM 281224Z AUTO 28006KT 2 1/2SM BR OVC002 13/12 A3001 RMK AO2 T01330122=
202207281153 METAR KCLM 281153Z AUTO 28006KT 1 3/4SM BR OVC002 14/13 A3000 RMK AO2 SLP159 T01390128 10150 20139 51005=
202207281144 SPECI KCLM 281144Z AUTO 29006KT 1 1/2SM BR OVC002 14/13 A3000 RMK AO2 T01390128=
202207281133 SPECI KCLM 281133Z AUTO 30006KT 2 1/2SM BR OVC002 14/13 A3000 RMK AO2 T01390128=
202207281120 SPECI KCLM 281120Z AUTO 27004KT 1 3/4SM BR OVC002 14/13 A3000 RMK AO2 T01390128=
202207281053 METAR KCLM 281053Z AUTO 28005KT 3SM BR OVC002 14/13 A3000 RMK AO2 SLP158 T01390128=
202207280953 METAR KCLM 280953Z AUTO 28005KT 10SM OVC002 14/13 A2999 RMK AO2 SLP156 T01390128=
202207280853 METAR KCLM 280853Z AUTO 30005KT 10SM OVC002 14/13 A2999 RMK AO2 SLP154 T01440133 55001=
202207280801 SPECI KCLM 280801Z AUTO 29006KT 10SM BKN002 14/13 A2999 RMK AO2 T01440133=
202207280753 METAR KCLM 280753Z AUTO 28007KT 10SM SCT002 14/13 A2999 RMK AO2 SLP153 T01440133 402440144=
202207280653 METAR KCLM 280653Z AUTO 29007KT 10SM OVC003 15/13 A2999 RMK AO2 SLP155 T01500133=
202207280618 SPECI KCLM 280618Z AUTO 28008KT 10SM BKN003 15/14 A2999 RMK AO2 T01500139=
202207280553 METAR KCLM 280553Z AUTO 29007KT 10SM FEW004 15/14 A2999 RMK AO2 SLP155 T01500139 10239 20150 51004=
202207280453 METAR KCLM 280453Z AUTO 29008KT 10SM CLR 16/14 A2999 RMK AO2 SLP155 T01560139=
202207280353 METAR KCLM 280353Z AUTO 30005KT 10SM CLR 17/14 A2998 RMK AO2 SLP151 T01670139=
202207280253 METAR KCLM 280253Z AUTO 30005KT 10SM CLR 19/14 A2998 RMK AO2 SLP149 T01940144 58008=
202207280153 METAR KCLM 280153Z AUTO 30006KT 10SM CLR 20/14 A2999 RMK AO2 SLP153 T02000144=
202207280053 METAR KCLM 280053Z AUTO 30006KT 10SM CLR 23/16 A2999 RMK AO2 SLP155 T02280156=
202207272353 METAR KCLM 272353Z AUTO 30006KT 10SM CLR 24/16 A3000 RMK AO2 SLP158 T02390156 10244 20206 58008=
202207272253 METAR KCLM 272253Z AUTO 30008KT 10SM CLR 23/16 A3001 RMK AO2 SLP162 T02280156=
202207272153 METAR KCLM 272153Z AUTO 32008KT 10SM CLR 23/16 A3002 RMK AO2 SLP164 T02280156=
202207272053 METAR KCLM 272053Z AUTO 29010KT 10SM CLR 23/16 A3002 RMK AO2 SLP166 T02280156 58000=
202207271953 METAR KCLM 271953Z AUTO 31009KT 10SM CLR 22/15 A3003 RMK AO2 SLP168 T02220150=
202207271853 METAR KCLM 271853Z AUTO 31010KT 10SM CLR 21/15 A3003 RMK AO2 SLP169 T02110150=
202207271753 METAR KCLM 271753Z AUTO 29008KT 10SM CLR 21/15 A3003 RMK AO2 SLP166 T02060150 10211 20167 52006=
202207271653 METAR KCLM 271653Z AUTO 31006KT 10SM CLR 21/15 A3002 RMK AO2 SLP165 T02060150=
202207271553 METAR KCLM 271553Z AUTO 34006KT 10SM CLR 19/14 A3001 RMK AO2 SLP161 T01940144=
202207271453 METAR KCLM 271453Z AUTO 30003KT 10SM CLR 19/15 A3001 RMK AO2 SLP160 T01940150 51013=
202207271353 METAR KCLM 271353Z AUTO 27005KT 10SM CLR 18/14 A3000 RMK AO2 SLP158 T01780144=
202207271253 METAR KCLM 271253Z AUTO 27005KT 10SM CLR 17/14 A2999 RMK AO2 SLP153 T01670139=
202207271153 METAR KCLM 271153Z AUTO 28006KT 10SM CLR 17/14 A2997 RMK AO2 SLP147 T01720139 10206 20172 53013=
202207271053 METAR KCLM 271053Z AUTO 28008KT 10SM CLR 18/14 A2995 RMK AO2 SLP140 T01780139=
202207270953 METAR KCLM 270953Z AUTO 31005KT 10SM CLR 18/14 A2994 RMK AO2 SLP137 T01780139=
202207270853 METAR KCLM 270853Z AUTO 28004KT 10SM CLR 17/14 A2993 RMK AO2 SLP133 T01720139 52008=
202207270753 METAR KCLM 270753Z AUTO 31006KT 10SM CLR 18/14 A2992 RMK AO2 SLP130 T01830139 403280150=
202207270653 METAR KCLM 270653Z AUTO 30005KT 10SM CLR 20/14 A2991 RMK AO2 SLP128 T02000144=
202207270553 METAR KCLM 270553Z AUTO 31005KT 10SM CLR 19/13 A2991 RMK AO2 SLP125 T01940133 10289 20194 52007=
202207270453 METAR KCLM 270453Z AUTO 33003KT 10SM CLR 21/14 A2990 RMK AO2 SLP123 T02060139=
202207270353 METAR KCLM 270353Z AUTO 28005KT 10SM CLR 26/13 A2989 RMK AO2 SLP120 T02560128=
202207270253 METAR KCLM 270253Z AUTO 29009KT 10SM CLR 27/13 A2989 RMK AO2 SLP118 T02720133 58003=
202207270153 METAR KCLM 270153Z AUTO 31006KT 10SM CLR 27/15 A2989 RMK AO2 SLP118 T02720150=
202207270053 METAR KCLM 270053Z AUTO 29008KT 10SM CLR 27/16 A2990 RMK AO2 SLP122 T02670156=
202207262353 METAR KCLM 262353Z AUTO 35005KT 10SM CLR 29/14 A2990 RMK AO2 SLP122 T02890144 10328 20278 56006=
202207262253 METAR KCLM 262253Z AUTO VRB05KT 10SM CLR 32/14 A2990 RMK AO2 SLP123 T03170144=
202207262153 METAR KCLM 262153Z AUTO VRB06KT 10SM CLR 31/14 A2990 RMK AO2 SLP123 T03110144=
202207262053 METAR KCLM 262053Z AUTO VRB04KT 10SM CLR 31/15 A2991 RMK AO2 SLP127 T03110150 58005=
202207261953 METAR KCLM 261953Z AUTO VRB04KT 10SM CLR 30/16 A2992 RMK AO2 SLP130 T03000156=
202207261853 METAR KCLM 261853Z AUTO 10006KT 10SM CLR 29/16 A2993 RMK AO2 SLP132 T02890156=
202207261753 METAR KCLM 261753Z AUTO 07005KT 10SM CLR 28/16 A2993 RMK AO2 SLP132 T02830156 10283 20156 51002=
202207261653 METAR KCLM 261653Z AUTO 10006KT 10SM CLR 27/16 A2993 RMK AO2 SLP133 T02720156=
202207261553 METAR KCLM 261553Z AUTO 08008KT 10SM CLR 27/16 A2993 RMK AO2 SLP132 T02720156=
202207261453 METAR KCLM 261453Z AUTO 00000KT 10SM CLR 24/12 A2992 RMK AO2 SLP130 T02440117 53011 TSNO=
202207261353 METAR KCLM 261353Z AUTO 22005KT 10SM CLR 21/12 A2991 RMK AO2 SLP125 T02060122 TSNO=
202207261253 METAR KCLM 261253Z AUTO 00000KT 10SM CLR 16/12 A2990 RMK AO2 SLP124 T01610122=
202207261153 METAR KCLM 261153Z AUTO 16003KT 10SM CLR 16/12 A2989 RMK AO2 SLP120 T01560117 10189 20150 51004=
202207261053 METAR KCLM 261053Z AUTO 24003KT 10SM CLR 16/12 A2989 RMK AO2 SLP120 T01610117=
202207260953 METAR KCLM 260953Z AUTO 00000KT 10SM CLR 17/12 A2988 RMK AO2 SLP118 T01720117=
202207260853 METAR KCLM 260853Z AUTO 00000KT 10SM CLR 17/12 A2988 RMK AO2 SLP116 T01670122 55002=
202207260753 METAR KCLM 260753Z AUTO 11003KT 10SM CLR 17/13 A2988 RMK AO2 SLP115 T01670128 403060117=
202207260653 METAR KCLM 260653Z AUTO 00000KT 10SM CLR 17/13 A2988 RMK AO2 SLP117 T01720133=
202207260553 METAR KCLM 260553Z AUTO 00000KT 10SM CLR 19/15 A2988 RMK AO2 SLP118 T01890150 10306 20178 50001=
202207260453 METAR KCLM 260453Z AUTO 00000KT 10SM CLR 18/14 A2989 RMK AO2 SLP120 T01830144=
202207260353 METAR KCLM 260353Z AUTO 00000KT 10SM CLR 22/14 A2988 RMK AO2 SLP116 T02220139=
202207260253 METAR KCLM 260253Z AUTO 00000KT 10SM CLR 24/14 A2988 RMK AO2 SLP116 T02440144 56014=
202207260153 METAR KCLM 260153Z AUTO 11005KT 10SM CLR 30/13 A2988 RMK AO2 SLP118 T03000133=
202207260053 METAR KCLM 260053Z AUTO 09005KT 10SM CLR 31/14 A2990 RMK AO2 SLP124 T03060139=
202207252353 METAR KCLM 252353Z AUTO 10006KT 10SM CLR 29/14 A2992 RMK AO2 SLP131 T02940139 10294 20250 57019=
202207252253 METAR KCLM 252253Z AUTO 07005KT 10SM CLR 28/14 A2994 RMK AO2 SLP136 T02780139=
202207252153 METAR KCLM 252153Z AUTO 07006KT 10SM CLR 28/14 A2996 RMK AO2 SLP144 T02780144=
202207252053 METAR KCLM 252053Z AUTO 09009KT 10SM CLR 27/14 A2998 RMK AO2 SLP150 T02720144 56016=
202207251953 METAR KCLM 251953Z AUTO 09008KT 10SM CLR 27/14 A2998 RMK AO2 SLP152 T02720144=
202207251853 METAR KCLM 251853Z AUTO 10009KT 10SM CLR 26/14 A3001 RMK AO2 SLP161 T02560139=
202207251753 METAR KCLM 251753Z AUTO 10008KT 10SM CLR 25/14 A3002 RMK AO2 SLP165 T02500144 10256 20117 58002=
202207251653 METAR KCLM 251653Z AUTO 11013KT 10SM CLR 24/14 A3003 RMK AO2 SLP168 T02440139=
202207251553 METAR KCLM 251553Z AUTO 10008KT 10SM CLR 25/14 A3003 RMK AO2 SLP169 T02500139=
202207251453 METAR KCLM 251453Z AUTO 12005KT 10SM CLR 23/13 A3003 RMK AO2 SLP167 T02280133 53001=
202207251353 METAR KCLM 251353Z AUTO 19003KT 10SM CLR 16/13 A3002 RMK AO2 SLP165 T01560133=
202207251253 METAR KCLM 251253Z AUTO 00000KT 10SM CLR 13/11 A3002 RMK AO2 SLP165 T01280111=
202207251153 METAR KCLM 251153Z AUTO 00000KT 10SM CLR 13/11 A3002 RMK AO2 SLP166 T01280106 10144 20122 50000=
202207251053 METAR KCLM 251053Z AUTO 00000KT 10SM CLR 12/11 A3003 RMK AO2 SLP168 T01220106=
202207250953 METAR KCLM 250953Z AUTO 00000KT 10SM CLR 13/12 A3003 RMK AO2 SLP168 T01330117=
202207250853 METAR KCLM 250853Z AUTO 21003KT 10SM CLR 13/11 A3002 RMK AO2 SLP166 T01280111 58009=
202207250753 METAR KCLM 250753Z AUTO 00000KT 10SM CLR 13/12 A3003 RMK AO2 SLP169 T01330117 402440111=
202207250653 METAR KCLM 250653Z AUTO 00000KT 10SM CLR 13/11 A3005 RMK AO2 SLP173 T01280111=
202207250553 METAR KCLM 250553Z AUTO 00000KT 10SM CLR 14/12 A3005 RMK AO2 SLP175 T01390117 10239 20133 58006=
202207250453 METAR KCLM 250453Z AUTO 00000KT 10SM CLR 14/12 A3006 RMK AO2 SLP180 T01440117=
202207250353 METAR KCLM 250353Z AUTO 27003KT 10SM CLR 14/12 A3007 RMK AO2 SLP182 T01440117=
202207250253 METAR KCLM 250253Z AUTO 00000KT 10SM CLR 18/13 A3007 RMK AO2 SLP182 T01830128 57011=
202207250153 METAR KCLM 250153Z AUTO 29006KT 10SM CLR 18/12 A3008 RMK AO2 SLP186 T01780122=
202207250053 METAR KCLM 250053Z AUTO 35005KT 10SM CLR 19/12 A3009 RMK AO2 SLP188 T01940122=
202207242353 METAR KCLM 242353Z AUTO 07004KT 10SM CLR 23/13 A3010 RMK AO2 SLP193 T02280133 10244 20211 57010=
202207242253 METAR KCLM 242253Z AUTO 06004KT 10SM CLR 24/14 A3011 RMK AO2 SLP194 T02440139=
202207242153 METAR KCLM 242153Z AUTO 07007KT 10SM CLR 23/13 A3012 RMK AO2 SLP199 T02330133=
202207242053 METAR KCLM 242053Z AUTO 08008KT 10SM CLR 23/13 A3013 RMK AO2 SLP201 T02330133 58008=
202207241953 METAR KCLM 241953Z AUTO VRB06KT 10SM CLR 24/14 A3014 RMK AO2 SLP206 T02390139=
202207241853 METAR KCLM 241853Z AUTO 08008G16KT 10SM CLR 23/14 A3015 RMK AO2 SLP208 T02280139=
202207241753 METAR KCLM 241753Z AUTO 08008KT 10SM CLR 22/13 A3015 RMK AO2 SLP210 T02170133 10217 20111 57002=
202207241653 METAR KCLM 241653Z AUTO 07005KT 10SM CLR 21/13 A3015 RMK AO2 SLP211 T02060133=
202207241553 METAR KCLM 241553Z AUTO 00000KT 10SM CLR 19/13 A3016 RMK AO2 SLP212 T01890133=
202207241453 METAR KCLM 241453Z AUTO 10SM CLR 13/12 A3016 RMK AO2 SLP212 T01330117 53005=
202207241442 SPECI KCLM 241442Z AUTO 00000KT 10SM SCT001 13/11 A3016 RMK AO2 T01280111=
202207241431 SPECI KCLM 241431Z AUTO 00000KT 3SM BR BKN001 12/11 A3016 RMK AO2 T01220111=
202207241427 SPECI KCLM 241427Z AUTO 00000KT 1SM BR VV001 12/11 A3016 RMK AO2 T01170111=
202207241353 METAR KCLM 241353Z AUTO 00000KT 1/4SM FG VV001 11/10 A3016 RMK AO2 SLP212 T01110100=
202207241253 METAR KCLM 241253Z AUTO 00000KT M1/4SM FG VV001 11/11 A3014 RMK AO2 SLP207 T01110106=
202207241153 METAR KCLM 241153Z AUTO 00000KT 1/4SM FG VV001 11/11 A3014 RMK AO2 SLP207 T01110106 10128 20111 58001=
202207241110 SPECI KCLM 241110Z AUTO 27003KT 1/4SM FG VV001 12/11 A3015 RMK AO2 T01170106=
202207241053 METAR KCLM 241053Z AUTO 28004KT 1/4SM FG VV002 12/11 A3015 RMK AO2 SLP208 T01170106=
202207241048 SPECI KCLM 241048Z AUTO 30003KT 1/4SM FG VV002 12/11 A3015 RMK AO2=
202207241040 SPECI KCLM 241040Z AUTO 27004KT 1/2SM FG VV002 12/11 A3014 RMK AO2 T01170106=
202207241019 SPECI KCLM 241019Z AUTO 30004KT 1/4SM FG VV002 12/11 A3015 RMK AO2 T01170111=
202207240953 METAR KCLM 240953Z AUTO 29005KT 1/2SM FG VV002 12/11 A3015 RMK AO2 SLP208 T01170111=
202207240913 SPECI KCLM 240913Z AUTO 28004KT 3/4SM BR VV002 12/11 A3014 RMK AO2 T01220111=
202207240853 METAR KCLM 240853Z AUTO 30004KT 1 1/4SM BR OVC001 12/11 A3014 RMK AO2 SLP207 T01220111 53001=
202207240848 SPECI KCLM 240848Z AUTO 29004KT 1 1/4SM BR OVC001 12/11 A3014 RMK AO2=
202207240838 SPECI KCLM 240838Z AUTO 29004KT 1 1/4SM BR OVC002 12/11 A3014 RMK AO2 T01220111=
202207240829 SPECI KCLM 240829Z AUTO 29004KT 2SM BR OVC002 12/11 A3014 RMK AO2 T01220111=
202207240753 METAR KCLM 240753Z AUTO 29005KT 6SM BR OVC003 12/11 A3014 RMK AO2 SLP206 T01220111 402000111=
202207240720 SPECI KCLM 240720Z AUTO 29004KT 9SM BKN004 12/10 A3014 RMK AO2 T01170100=
202207240704 SPECI KCLM 240704Z AUTO 00000KT 10SM FEW004 12/11 A3014 RMK AO2 T01220106=
202207240653 METAR KCLM 240653Z AUTO 00000KT 10SM CLR 12/11 A3014 RMK AO2 SLP207 T01220106=
202207240553 METAR KCLM 240553Z AUTO 27003KT 10SM CLR 13/11 A3013 RMK AO2 SLP204 T01280111 10189 20128 53002=
202207240453 METAR KCLM 240453Z AUTO 27006KT 10SM CLR 13/11 A3013 RMK AO2 SLP203 T01330111=
202207240353 METAR KCLM 240353Z AUTO 29007KT 10SM CLR 14/12 A3012 RMK AO2 SLP201 T01440117=
202207240253 METAR KCLM 240253Z AUTO 31007KT 10SM CLR 16/12 A3013 RMK AO2 SLP202 T01560117 55005=
202207240153 METAR KCLM 240153Z AUTO 30006KT 10SM CLR 18/12 A3013 RMK AO2 SLP201 T01780122=
202207240053 METAR KCLM 240053Z AUTO 30008KT 10SM CLR 18/12 A3014 RMK AO2 SLP205 T01830122=
202207232353 METAR KCLM 232353Z AUTO 30012KT 10SM CLR 18/12 A3014 RMK AO2 SLP207 T01830122 10200 20172 58002=
202207232253 METAR KCLM 232253Z AUTO 34006KT 10SM CLR 18/12 A3015 RMK AO2 SLP208 T01830122=
202207232153 METAR KCLM 232153Z AUTO 36007KT 10SM CLR 19/12 A3015 RMK AO2 SLP209 T01940122=
202207232053 METAR KCLM 232053Z AUTO 35007KT 10SM CLR 19/12 A3015 RMK AO2 SLP210 T01890122 58002=
202207231953 METAR KCLM 231953Z AUTO 35006KT 10SM CLR 18/12 A3015 RMK AO2 SLP210 T01830117=
202207231853 METAR KCLM 231853Z AUTO VRB03KT 10SM CLR 18/12 A3016 RMK AO2 SLP213 T01830117=
202207231753 METAR KCLM 231753Z AUTO 36004KT 10SM OVC031 17/12 A3016 RMK AO2 SLP212 T01720117 10178 20111 58001=
202207231728 SPECI KCLM 231728Z AUTO VRB03KT 10SM OVC030 16/11 A3016 RMK AO2 T01610111=
202207231653 METAR KCLM 231653Z AUTO 28004KT 10SM FEW022 OVC028 16/11 A3016 RMK AO2 SLP214 T01560111=
202207231553 METAR KCLM 231553Z AUTO VRB03KT 10SM BKN022 15/11 A3016 RMK AO2 SLP214 T01500106=
202207231551 SPECI KCLM 231551Z AUTO 33004KT 10SM BKN022 15/11 A3016 RMK AO2=
202207231508 SPECI KCLM 231508Z AUTO 27005KT 10SM SCT026 16/10 A3015 RMK AO2 T01560100=
202207231453 METAR KCLM 231453Z AUTO 25007KT 10SM BKN026 14/10 A3015 RMK AO2 SLP208 T01440100 52004=
202207231426 SPECI KCLM 231426Z AUTO 25006KT 10SM OVC028 14/10 A3014 RMK AO2 T01440100=
202207231353 METAR KCLM 231353Z AUTO 26005KT 10SM OVC032 14/11 A3014 RMK AO2 SLP207 T01390106=
202207231253 METAR KCLM 231253Z AUTO 26005KT 10SM CLR 11/09 A3014 RMK AO2 SLP205 T01110089=
202207231153 METAR KCLM 231153Z AUTO 28006KT 10SM CLR 12/09 A3013 RMK AO2 SLP204 T01170089 10133 20111 53000=
202207231053 METAR KCLM 231053Z AUTO 26007KT 10SM CLR 12/09 A3013 RMK AO2 SLP203 T01170089=
202207230953 METAR KCLM 230953Z AUTO 28007KT 10SM FEW016 12/09 A3013 RMK AO2 SLP203 T01170089=
202207230940 SPECI KCLM 230940Z AUTO 27008KT 10SM SCT016 12/09 A3013 RMK AO2 T01220094=
202207230929 SPECI KCLM 230929Z AUTO 28008KT 10SM BKN016 12/09 A3013 RMK AO2 T01220094=
202207230853 METAR KCLM 230853Z AUTO 27006KT 10SM CLR 12/09 A3013 RMK AO2 SLP203 T01220089 51002=
202207230753 METAR KCLM 230753Z AUTO 27009KT 10SM CLR 12/09 A3013 RMK AO2 SLP203 T01220089 401830122=
202207230653 METAR KCLM 230653Z AUTO 28008KT 10SM CLR 12/09 A3013 RMK AO2 SLP203 T01220089=
202207230553 METAR KCLM 230553Z AUTO 28007G17KT 10SM CLR 13/09 A3013 RMK AO2 SLP201 T01330094 10178 20128 53004=
202207230453 METAR KCLM 230453Z AUTO 28011KT 10SM CLR 13/09 A3012 RMK AO2 SLP199 T01330094=
202207230353 METAR KCLM 230353Z AUTO 29010KT 10SM CLR 14/10 A3012 RMK AO2 SLP198 T01390100=
202207230253 METAR KCLM 230253Z AUTO 30006KT 10SM SCT014 14/11 A3011 RMK AO2 SLP198 T01440106 55001=
202207230153 METAR KCLM 230153Z AUTO 30015G21KT 10SM FEW016 16/11 A3011 RMK AO2 SLP197 T01560111=
202207230053 METAR KCLM 230053Z AUTO 30009G18KT 10SM FEW015 16/12 A3012 RMK AO2 SLP198 T01610117=
202207222353 METAR KCLM 222353Z AUTO 31009G17KT 10SM CLR 18/12 A3012 RMK AO2 SLP198 T01780122 10183 20150 58005=
202207222312 SPECI KCLM 222312Z AUTO 33007KT 10SM SCT013 18/12 A3012 RMK AO2 T01780122=
202207222253 METAR KCLM 222253Z AUTO 34008KT 10SM OVC014 18/12 A3013 RMK AO2 SLP202 T01780117=
202207222237 SPECI KCLM 222237Z AUTO 31007KT 10SM OVC014 17/12 A3013 RMK AO2 T01720122=
202207222153 METAR KCLM 222153Z AUTO 31009KT 10SM OVC015 17/12 A3013 RMK AO2 SLP203 T01720122=
202207222130 SPECI KCLM 222130Z AUTO 30009KT 10SM OVC015 18/12 A3013 RMK AO2 T01780122=
202207222053 METAR KCLM 222053Z AUTO VRB06KT 10SM OVC014 18/12 A3013 RMK AO2 SLP203 T01780122 51006=
202207221953 METAR KCLM 221953Z AUTO 34005KT 10SM OVC013 17/12 A3013 RMK AO2 SLP202 T01670117=
202207221853 METAR KCLM 221853Z AUTO VRB04KT 10SM OVC012 16/12 A3012 RMK AO2 SLP200 T01560117=
202207221753 METAR KCLM 221753Z AUTO 06004KT 10SM OVC010 16/12 A3011 RMK AO2 SLP197 T01560117 10156 20133 53008=
202207221737 SPECI KCLM 221737Z AUTO VRB05KT 10SM OVC010 15/12 A3011 RMK AO2 T01500117=
202207221653 METAR KCLM 221653Z AUTO 36003KT 10SM OVC009 14/11 A3011 RMK AO2 SLP194 T01440111=
202207221553 METAR KCLM 221553Z AUTO 10SM OVC007 14/12 A3009 RMK AO2 SLP190 T01390117=
202207221453 METAR KCLM 221453Z AUTO 30004KT 10SM OVC007 14/11 A3009 RMK AO2 SLP188 T01390111 51013=
202207221353 METAR KCLM 221353Z AUTO 28007KT 10SM OVC006 13/11 A3008 RMK AO2 SLP185 T01330111=
202207221253 METAR KCLM 221253Z AUTO 26006KT 10SM OVC006 13/11 A3006 RMK AO2 SLP180 T01330111=
202207221153 METAR KCLM 221153Z AUTO 26005KT 10SM OVC006 13/11 A3005 RMK AO2 SLP175 T01330111 10133 20128 53012=
202207221106 SPECI KCLM 221106Z AUTO 29008KT 280V340 10SM OVC008 13/11 A3004 RMK AO2 CIG 006V013 T01280111=
202207221053 METAR KCLM 221053Z AUTO 28006KT 10SM OVC010 13/11 A3003 RMK AO2 CIG 006V013 SLP170 T01280111=
202207221040 SPECI KCLM 221040Z AUTO 28009KT 10SM FEW007 BKN013 13/11 A3003 RMK AO2 T01280111=
202207221032 SPECI KCLM 221032Z AUTO 29010KT 10SM BKN013 13/11 A3003 RMK AO2 T01280111=
202207220953 METAR KCLM 220953Z AUTO 29012G19KT 10SM FEW012 13/11 A3002 RMK AO2 SLP166 T01280111=
202207220853 METAR KCLM 220853Z AUTO 29012KT 10SM CLR 13/11 A3001 RMK AO2 SLP163 T01280111 53003=
202207220753 METAR KCLM 220753Z AUTO 29014G19KT 10SM CLR 13/11 A3001 RMK AO2 SLP162 T01330111 402000111=
202207220653 METAR KCLM 220653Z AUTO 29012G19KT 10SM CLR 13/11 A3000 RMK AO2 SLP160 T01330111=
202207220553 METAR KCLM 220553Z AUTO 29012KT 10SM CLR 13/11 A3000 RMK AO2 SLP160 T01330111 10189 20133 50001=
202207220453 METAR KCLM 220453Z AUTO 30014G20KT 10SM CLR 14/11 A3001 RMK AO2 SLP162 T01390111=
202207220353 METAR KCLM 220353Z AUTO 29011G22KT 10SM CLR 14/11 A3000 RMK AO2 SLP159 T01440111=
202207220253 METAR KCLM 220253Z AUTO 30010KT 10SM CLR 16/12 A3000 RMK AO2 SLP159 T01610117 56009=
202207220153 METAR KCLM 220153Z AUTO 28011G18KT 10SM CLR 18/12 A3000 RMK AO2 SLP160 T01780122=
202207220053 METAR KCLM 220053Z AUTO 31010G16KT 10SM CLR 18/12 A3002 RMK AO2 SLP165 T01830122=
202207212353 METAR KCLM 212353Z AUTO 31008G17KT 10SM CLR 19/12 A3003 RMK AO2 SLP169 T01890122 10200 20161 58010=
202207212253 METAR KCLM 212253Z AUTO 31007KT 10SM CLR 19/13 A3004 RMK AO2 SLP174 T01890128=
202207212153 METAR KCLM 212153Z AUTO 33008KT 290V350 10SM CLR 19/13 A3005 RMK AO2 SLP177 T01940133=
202207212053 METAR KCLM 212053Z AUTO 30010KT 10SM CLR 17/13 A3006 RMK AO2 SLP179 T01720128 58007=
202207211953 METAR KCLM 211953Z AUTO 30008KT 10SM CLR 18/13 A3006 RMK AO2 SLP180 T01780128=
202207211853 METAR KCLM 211853Z AUTO 32007KT 10SM CLR 17/13 A3008 RMK AO2 SLP186 T01720128=
202207211753 METAR KCLM 211753Z AUTO 31008KT 280V350 10SM CLR 17/12 A3008 RMK AO2 SLP187 T01670122 10167 20111 51002=
202207211707 SPECI KCLM 211707Z AUTO 32006KT 10SM SCT005 16/12 A3008 RMK AO2 T01560122=
202207211653 METAR KCLM 211653Z AUTO 31007KT 10SM BKN005 16/12 A3008 RMK AO2 SLP186 T01560117=
202207211553 METAR KCLM 211553Z AUTO 28006KT 5SM BR OVC002 13/12 A3008 RMK AO2 SLP186 T01280117=
202207211544 SPECI KCLM 211544Z AUTO 31006KT 3SM BR OVC002 13/12 A3008 RMK AO2 T01280117=
202207211525 SPECI KCLM 211525Z AUTO 28005KT 2SM BR OVC002 13/12 A3008 RMK AO2 VIS 1V3 T01280117=
202207211453 METAR KCLM 211453Z AUTO 29004KT 3/4SM BR OVC002 12/11 A3008 RMK AO2 SLP185 T01220111 53006=
202207211436 SPECI KCLM 211436Z AUTO 29005KT 1/2SM FG VV002 12/11 A3007 RMK AO2 T01220111=
202207211353 METAR KCLM 211353Z AUTO 26004KT 1/4SM FG VV002 12/11 A3007 RMK AO2 SLP182 T01170106=
202207211324 SPECI KCLM 211324Z AUTO 30004KT 1/4SM FG VV002 11/11 A3006 RMK AO2 T01110106=
202207211310 SPECI KCLM 211310Z AUTO 28004KT 3/4SM BR OVC002 11/10 A3006 RMK AO2 T01110100=
202207211253 METAR KCLM 211253Z AUTO 29003KT 2 1/2SM BR OVC002 11/10 A3006 RMK AO2 SLP179 T01110100=
202207211249 SPECI KCLM 211249Z AUTO 28004KT 4SM BR OVC002 11/10 A3006 RMK AO2=
202207211242 SPECI KCLM 211242Z AUTO 28004KT 2 1/2SM BR OVC002 11/10 A3006 RMK AO2 T01110100=
202207211153 METAR KCLM 211153Z AUTO 30003KT 1/2SM FG VV002 12/11 A3006 RMK AO2 SLP178 T01170106 10144 20111 51003=
202207211142 SPECI KCLM 211142Z AUTO 29004KT 1/4SM FG VV002 12/11 A3006 RMK AO2 T01170106=
202207211053 METAR KCLM 211053Z AUTO 30004KT 1/4SM FG VV001 12/11 A3006 RMK AO2 SLP178 T01170106=
202207211024 SPECI KCLM 211024Z AUTO 30004KT 1/4SM FG VV001 12/11 A3005 RMK AO2 T01170106=
202207211015 SPECI KCLM 211015Z AUTO 30005KT 1/4SM FG VV002 12/11 A3005 RMK AO2 T01170106=
202207211005 SPECI KCLM 211005Z AUTO 32003KT 1 3/4SM BR BKN002 11/10 A3005 RMK AO2 VIS 1V2 1/2 T01110100=
202207210958 SPECI KCLM 210958Z AUTO 29003KT 2 1/2SM BR SCT002 12/10 A3005 RMK AO2 T01170100=
202207210953 METAR KCLM 210953Z AUTO 29003KT 5SM BR CLR 11/10 A3005 RMK AO2 SLP175 T01110100=
202207210853 METAR KCLM 210853Z AUTO 28003KT 10SM CLR 13/11 A3005 RMK AO2 SLP174 T01280111 56006=
202207210753 METAR KCLM 210753Z AUTO 25004KT 10SM CLR 14/12 A3005 RMK AO2 SLP176 T01390117 402170111=
202207210653 METAR KCLM 210653Z AUTO 29006KT 10SM CLR 14/12 A3006 RMK AO2 SLP178 T01440117=
202207210553 METAR KCLM 210553Z AUTO 27003KT 10SM CLR 14/12 A3006 RMK AO2 SLP180 T01390117 10206 20133 56002=
202207210453 METAR KCLM 210453Z AUTO 28003KT 10SM CLR 14/12 A3006 RMK AO2 SLP180 T01390117=
202207210353 METAR KCLM 210353Z AUTO 28004KT 10SM CLR 15/12 A3007 RMK AO2 SLP181 T01500117=
202207210253 METAR KCLM 210253Z AUTO 30007KT 10SM CLR 17/12 A3007 RMK AO2 SLP183 T01670122 56008=
202207210153 METAR KCLM 210153Z AUTO 31006KT 10SM CLR 18/13 A3008 RMK AO2 SLP185 T01780128=
202207210053 METAR KCLM 210053Z AUTO 30006KT 10SM CLR 19/13 A3009 RMK AO2 SLP188 T01890128=
202207202353 METAR KCLM 202353Z AUTO VRB05KT 10SM CLR 20/13 A3009 RMK AO2 SLP191 T02000128 10217 20183 58010=
202207202253 METAR KCLM 202253Z AUTO 36004KT 10SM CLR 21/13 A3011 RMK AO2 SLP195 T02060128=
202207202153 METAR KCLM 202153Z AUTO 35004KT 10SM CLR 21/13 A3012 RMK AO2 SLP199 T02060128=
202207202053 METAR KCLM 202053Z AUTO 31005KT 10SM CLR 21/13 A3013 RMK AO2 SLP201 T02060128 58003=
202207201953 METAR KCLM 201953Z AUTO 36004KT 10SM CLR 20/13 A3013 RMK AO2 SLP202 T02000128=
202207201853 METAR KCLM 201853Z AUTO 35005KT 10SM CLR 19/12 A3013 RMK AO2 SLP204 T01940122=
202207201753 METAR KCLM 201753Z AUTO 33004KT 10SM CLR 19/12 A3013 RMK AO2 SLP203 T01890122 10189 20111 51007=
202207201653 METAR KCLM 201653Z AUTO VRB04KT 10SM CLR 17/12 A3013 RMK AO2 SLP203 T01670117=
202207201553 METAR KCLM 201553Z AUTO 00000KT 10SM CLR 17/12 A3012 RMK AO2 SLP200 T01670122=
202207201539 SPECI KCLM 201539Z AUTO 00000KT 10SM FEW001 16/12 A3012 RMK AO2 T01560117=
202207201453 METAR KCLM 201453Z AUTO 34004KT 10SM CLR 13/12 A3011 RMK AO2 SLP196 T01330117 53007=
202207201435 SPECI KCLM 201435Z AUTO 00000KT 10SM FEW001 13/12 A3011 RMK AO2 T01280117=
202207201353 METAR KCLM 201353Z AUTO 27004KT 3SM BR BKN001 12/11 A3010 RMK AO2 SLP191 T01170111=
202207201349 SPECI KCLM 201349Z AUTO 1SM BR VV002 12/11 A3010 RMK AO2=
202207201301 SPECI KCLM 201301Z AUTO 24005KT 1/4SM FG VV002 11/11 A3009 RMK AO2 T01110106=
202207201253 METAR KCLM 201253Z AUTO 24003KT M1/4SM FG VV002 12/11 A3009 RMK AO2 SLP189 T01170106=
202207201250 SPECI KCLM 201250Z AUTO 26004KT M1/4SM FG VV002 12/11 A3009 RMK AO2=
202207201232 SPECI KCLM 201232Z AUTO 28004KT M1/4SM FG VV001 11/10 A3009 RMK AO2 T01110100=
202207201153 METAR KCLM 201153Z AUTO 00000KT 1/4SM FG VV001 12/11 A3008 RMK AO2 SLP186 T01170106 10161 20111 51007=
202207201053 METAR KCLM 201053Z AUTO 00000KT 1/4SM FG VV001 12/11 A3007 RMK AO2 SLP184 T01170106=
202207201023 SPECI KCLM 201023Z AUTO 00000KT 1/4SM FG VV002 12/11 A3007 RMK AO2 T01170106=
202207201009 SPECI KCLM 201009Z AUTO 00000KT 3/4SM BR VV002 12/11 A3006 RMK AO2 T01170106=
202207201003 SPECI KCLM 201003Z AUTO 00000KT 1 1/2SM BR BKN001 11/10 A3006 RMK AO2 T01110100=
202207200953 METAR KCLM 200953Z AUTO 30004KT 9SM FEW001 12/11 A3006 RMK AO2 SLP179 T01170106=
202207200853 METAR KCLM 200853Z AUTO 29006KT 10SM CLR 13/11 A3006 RMK AO2 SLP177 T01280111 57001=
202207200753 METAR KCLM 200753Z AUTO 27007KT 10SM CLR 13/11 A3006 RMK AO2 SLP177 T01330111 402280083=
202207200653 METAR KCLM 200653Z AUTO 31006KT 10SM CLR 14/12 A3006 RMK AO2 SLP179 T01440117=
202207200553 METAR KCLM 200553Z AUTO 31006KT 10SM CLR 16/12 A3006 RMK AO2 SLP178 T01610122 10206 20156 50003=
202207200453 METAR KCLM 200453Z AUTO 29009KT 10SM CLR 16/12 A3006 RMK AO2 SLP180 T01560117=
202207200353 METAR KCLM 200353Z AUTO 29009KT 10SM CLR 17/12 A3005 RMK AO2 SLP177 T01670122=
202207200253 METAR KCLM 200253Z AUTO 30006KT 10SM CLR 18/13 A3005 RMK AO2 SLP176 T01830128 56007=
202207200153 METAR KCLM 200153Z AUTO 29008KT 10SM CLR 18/12 A3005 RMK AO2 SLP176 T01830122=
202207200053 METAR KCLM 200053Z AUTO 31006KT 10SM CLR 19/12 A3006 RMK AO2 SLP179 T01890122=
202207192353 METAR KCLM 192353Z AUTO VRB06KT 10SM CLR 20/12 A3007 RMK AO2 SLP183 T02000122 10228 20189 57004=
202207192253 METAR KCLM 192253Z AUTO 36006KT 10SM CLR 20/12 A3008 RMK AO2 SLP185 T02000122=
202207192153 METAR KCLM 192153Z AUTO 06004KT 10SM CLR 22/12 A3008 RMK AO2 SLP185 T02170122=
202207192053 METAR KCLM 192053Z AUTO VRB05KT 10SM CLR 22/12 A3008 RMK AO2 SLP186 T02220122 58011=
202207191953 METAR KCLM 191953Z AUTO 04004KT 10SM CLR 22/12 A3010 RMK AO2 SLP191 T02170117=
202207191853 METAR KCLM 191853Z AUTO VRB04KT 10SM CLR 20/12 A3011 RMK AO2 SLP196 T02000122=
202207191753 METAR KCLM 191753Z AUTO VRB05KT 10SM CLR 19/12 A3011 RMK AO2 SLP198 T01890117 10194 20083 58005=
202207191653 METAR KCLM 191653Z AUTO VRB04KT 10SM CLR 18/12 A3012 RMK AO2 SLP201 T01780117=
202207191553 METAR KCLM 191553Z AUTO 02003KT 10SM CLR 17/12 A3013 RMK AO2 SLP202 T01670117=
202207191453 METAR KCLM 191453Z AUTO 00000KT 10SM CLR 16/12 A3013 RMK AO2 SLP202 T01560117 53001=
202207191353 METAR KCLM 191353Z AUTO 00000KT 10SM CLR 12/11 A3012 RMK AO2 SLP201 T01220106=
202207191253 METAR KCLM 191253Z AUTO 00000KT 8SM CLR 09/08 A3012 RMK AO2 SLP199 T00940083=
202207191153 METAR KCLM 191153Z AUTO 00000KT 10SM CLR 09/08 A3013 RMK AO2 SLP202 T00940083 10128 20094 56010=
202207191053 METAR KCLM 191053Z AUTO 00000KT 10SM CLR 09/08 A3013 RMK AO2 SLP204 T00940083=
202207190953 METAR KCLM 190953Z AUTO 25004KT 10SM CLR 11/09 A3014 RMK AO2 SLP207 T01060089=
202207190853 METAR KCLM 190853Z AUTO 00000KT 10SM CLR 11/09 A3016 RMK AO2 SLP212 T01110089 50000=
202207190753 METAR KCLM 190753Z AUTO 25005KT 10SM CLR 11/09 A3016 RMK AO2 SLP213 T01110094 401940111=
202207190653 METAR KCLM 190653Z AUTO 26007KT 10SM CLR 13/11 A3015 RMK AO2 SLP211 T01280106=
202207190553 METAR KCLM 190553Z AUTO 27007KT 10SM CLR 13/11 A3016 RMK AO2 SLP211 T01280106 10194 20117 56006=
202207190453 METAR KCLM 190453Z AUTO 28003KT 10SM CLR 12/09 A3016 RMK AO2 SLP213 T01220094=
202207190353 METAR KCLM 190353Z AUTO 28004KT 10SM CLR 14/10 A3016 RMK AO2 SLP212 T01390100=
202207190253 METAR KCLM 190253Z AUTO 00000KT 10SM CLR 16/10 A3018 RMK AO2 SLP218 T01610100 56012=
202207190153 METAR KCLM 190153Z AUTO VRB03KT 10SM CLR 18/11 A3018 RMK AO2 SLP219 T01780111=
202207190053 METAR KCLM 190053Z AUTO VRB06KT 10SM CLR 18/11 A3019 RMK AO2 SLP224 T01830111=
202207190019 SPECI KCLM 190019Z AUTO VRB03KT 10SM FEW025 19/12 A3020 RMK AO2 T01890117=
202207182353 METAR KCLM 182353Z AUTO VRB05KT 10SM OVC025 18/11 A3021 RMK AO2 SLP230 T01780111 10178 20150 58005=
202207182253 METAR KCLM 182253Z AUTO VRB06KT 10SM OVC022 17/11 A3022 RMK AO2 SLP235 T01720111=
202207182153 METAR KCLM 182153Z AUTO 29011KT 10SM BKN021 OVC027 17/11 A3023 RMK AO2 SLP236 T01720111=
202207182053 METAR KCLM 182053Z AUTO 29008KT 10SM OVC022 16/11 A3022 RMK AO2 SLP235 T01610111 51010=
202207181953 METAR KCLM 181953Z AUTO 29008KT 10SM OVC021 16/12 A3021 RMK AO2 SLP231 T01610117=
202207181853 METAR KCLM 181853Z AUTO VRB06G14KT 10SM OVC019 16/12 A3021 RMK AO2 SLP230 T01560117=
202207181753 METAR KCLM 181753Z AUTO VRB06KT 10SM OVC019 16/12 A3019 RMK AO2 SLP224 T01560117 10167 20128 51021=
202207181653 METAR KCLM 181653Z AUTO 31009KT 10SM OVC020 16/11 A3018 RMK AO2 SLP219 T01560111=
202207181638 SPECI KCLM 181638Z AUTO 30008KT 10SM BKN021 16/11 A3017 RMK AO2 T01560111=
202207181553 METAR KCLM 181553Z AUTO 29008KT 10SM CLR 16/12 A3016 RMK AO2 SLP212 T01610117=
202207181453 METAR KCLM 181453Z AUTO 30006KT 10SM SCT047 16/11 A3013 RMK AO2 SLP204 T01560111 51014=
202207181353 METAR KCLM 181353Z AUTO 27006KT 10SM FEW043 14/11 A3012 RMK AO2 SLP199 T01390106=
202207181253 METAR KCLM 181253Z AUTO 26009KT 10SM FEW049 OVC070 13/10 A3011 RMK AO2 SLP195 T01330100=
202207181153 METAR KCLM 181153Z AUTO 26009KT 10SM FEW043 OVC070 13/11 A3009 RMK AO2 SLP190 60001 70003 T01280106 10133 20122 53011=
202207181053 METAR KCLM 181053Z AUTO 28009KT 10SM BKN070 12/10 A3008 RMK AO2 SLP185 T01220100=
202207180953 METAR KCLM 180953Z AUTO 28008KT 10SM SCT055 OVC070 13/11 A3007 RMK AO2 SLP181 T01280106=
202207180853 METAR KCLM 180853Z AUTO 30009KT 10SM OVC060 13/11 A3006 RMK AO2 SLP178 60001 T01280106 50002=
202207180753 METAR KCLM 180753Z AUTO 29006KT 10SM BKN050 OVC065 13/11 A3007 RMK AO2 SLP182 T01280106 401780122=
202207180653 METAR KCLM 180653Z AUTO 28004KT 10SM FEW038 BKN070 OVC095 13/11 A3006 RMK AO2 RAB21E47 SLP178 P0001 T01280111=
202207180553 METAR KCLM 180553Z AUTO 31007KT 10SM FEW060 OVC075 13/11 A3005 RMK AO2 RAB07E51 SLP176 P0002 60002 T01330111 10178 20133 58001=
202207180453 METAR KCLM 180453Z AUTO 28011KT 10SM FEW013 BKN095 OVC110 13/11 A3007 RMK AO2 RAB35E49 SLP182 P0000 T01330106=
202207180353 METAR KCLM 180353Z AUTO 29007KT 10SM SCT090 14/11 A3006 RMK AO2 SLP178 T01390106=
202207180253 METAR KCLM 180253Z AUTO 27011KT 10SM OVC085 16/11 A3006 RMK AO2 SLP178 T01560106 58006=
202207180153 METAR KCLM 180153Z AUTO 30006KT 10SM BKN075 OVC090 16/11 A3006 RMK AO2 SLP180 T01610106=
202207180053 METAR KCLM 180053Z AUTO 31006KT 10SM OVC060 16/11 A3007 RMK AO2 SLP182 T01610106=
202207172353 METAR KCLM 172353Z AUTO 32005KT 10SM FEW055 OVC080 17/11 A3007 RMK AO2 SLP183 T01720111 10178 20156 58007=
202207172253 METAR KCLM 172253Z AUTO 30009KT 10SM FEW020 BKN070 OVC090 16/11 A3009 RMK AO2 SLP188 T01610111=
202207172153 METAR KCLM 172153Z AUTO 30008KT 10SM SCT022 SCT065 OVC080 17/12 A3009 RMK AO2 SLP189 T01670117=
202207172124 SPECI KCLM 172124Z AUTO 30009KT 10SM BKN020 OVC080 17/12 A3009 RMK AO2 T01670117=
202207172053 METAR KCLM 172053Z AUTO 32008KT 10SM BKN070 OVC085 17/11 A3009 RMK AO2 SLP190 T01670111 51004=
202207171953 METAR KCLM 171953Z AUTO 30007KT 10SM OVC075 16/11 A3009 RMK AO2 SLP190 T01560111=
202207171853 METAR KCLM 171853Z AUTO 30007KT 10SM OVC075 16/11 A3009 RMK AO2 SLP189 T01610111=
202207171753 METAR KCLM 171753Z AUTO 31009G14KT 10SM OVC075 16/11 A3008 RMK AO2 SLP187 T01560111 10161 20122 53004=
202207171653 METAR KCLM 171653Z AUTO 00000KT 10SM OVC070 15/10 A3008 RMK AO2 SLP186 T01500100=
202207171553 METAR KCLM 171553Z AUTO 29004KT 10SM OVC070 16/10 A3007 RMK AO2 SLP183 T01610100=
202207171453 METAR KCLM 171453Z AUTO 30004KT 10SM OVC070 15/10 A3007 RMK AO2 SLP182 T01500100 53001=
202207171353 METAR KCLM 171353Z AUTO 27007KT 10SM OVC065 14/08 A3006 RMK AO2 SLP181 T01440083=
202207171253 METAR KCLM 171253Z AUTO 27006KT 10SM BKN065 13/08 A3006 RMK AO2 SLP180 T01280083=
202207171153 METAR KCLM 171153Z AUTO 27004KT 10SM OVC060 13/09 A3007 RMK AO2 SLP181 T01330089 10139 20128 58001=
202207171053 METAR KCLM 171053Z AUTO 27007KT 10SM OVC060 13/09 A3007 RMK AO2 SLP183 T01280094=
202207170953 METAR KCLM 170953Z AUTO 28007KT 10SM OVC060 13/09 A3007 RMK AO2 SLP181 T01330089=
202207170853 METAR KCLM 170853Z AUTO 26010KT 10SM CLR 13/09 A3007 RMK AO2 SLP182 T01330089 57009=
202207170753 METAR KCLM 170753Z AUTO 27009KT 10SM CLR 13/09 A3008 RMK AO2 SLP184 T01330089 401720128=
202207170653 METAR KCLM 170653Z AUTO 25009KT 10SM BKN060 13/09 A3009 RMK AO2 SLP190 T01330094=
202207170553 METAR KCLM 170553Z AUTO 26008KT 10SM FEW055 13/09 A3010 RMK AO2 SLP192 T01330094 10156 20128 58001=
202207170453 METAR KCLM 170453Z AUTO 27007KT 10SM SCT060 13/09 A3010 RMK AO2 SLP194 T01280089=
202207170353 METAR KCLM 170353Z AUTO 26009KT 10SM OVC065 14/09 A3010 RMK AO2 SLP192 T01440089=
202207170253 METAR KCLM 170253Z AUTO 28009KT 10SM FEW048 OVC060 16/09 A3010 RMK AO2 SLP193 T01560094 57005=
202207170153 METAR KCLM 170153Z AUTO 31006KT 10SM OVC043 15/10 A3010 RMK AO2 SLP194 T01500100=
202207170053 METAR KCLM 170053Z AUTO 29010KT 10SM OVC041 16/10 A3011 RMK AO2 SLP197 T01560100=
202207162353 METAR KCLM 162353Z AUTO 29009KT 10SM OVC038 16/12 A3012 RMK AO2 SLP198 T01560117 10172 20156 58003=
202207162253 METAR KCLM 162253Z AUTO 29009KT 10SM OVC038 17/11 A3013 RMK AO2 SLP201 T01670111=
202207162153 METAR KCLM 162153Z AUTO 31006KT 10SM OVC037 17/11 A3013 RMK AO2 SLP202 T01720111=
202207162053 METAR KCLM 162053Z AUTO 28007KT 10SM OVC033 17/11 A3013 RMK AO2 SLP202 T01670111 51005=
202207161953 METAR KCLM 161953Z AUTO 29008KT 10SM OVC033 17/12 A3012 RMK AO2 SLP200 T01670117=
202207161853 METAR KCLM 161853Z AUTO 30008KT 10SM OVC036 17/12 A3012 RMK AO2 SLP200 T01670117=
202207161753 METAR KCLM 161753Z AUTO 32005KT 10SM OVC033 17/13 A3011 RMK AO2 SLP197 T01670128 10172 20139 53001=
202207161653 METAR KCLM 161653Z AUTO 30005KT 10SM OVC034 16/12 A3011 RMK AO2 SLP197 T01610122=
202207161553 METAR KCLM 161553Z AUTO 28006KT 10SM OVC032 17/13 A3011 RMK AO2 SLP195 T01670128=
202207161453 METAR KCLM 161453Z AUTO 26007KT 10SM FEW006 OVC031 14/13 A3011 RMK AO2 SLP196 T01440128 53006=
202207161428 SPECI KCLM 161428Z AUTO 27006KT 10SM SCT005 OVC030 14/13 A3011 RMK AO2 T01440128=
202207161419 SPECI KCLM 161419Z AUTO 26006KT 10SM SCT005 OVC029 14/13 A3011 RMK AO2 T01440128=
202207161353 METAR KCLM 161353Z AUTO 29005KT 5SM BR OVC004 14/13 A3010 RMK AO2 CIG 003V006 SLP194 T01390128=
202207161253 METAR KCLM 161253Z AUTO 30005KT 9SM OVC003 14/13 A3009 RMK AO2 SLP191 T01440128=
202207161249 SPECI KCLM 161249Z AUTO 29005KT 9SM OVC003 14/13 A3009 RMK AO2=
202207161227 SPECI KCLM 161227Z AUTO 31004KT 10SM BKN005 OVC020 15/13 A3009 RMK AO2 CIG 004V008 T01500128=
202207161215 SPECI KCLM 161215Z AUTO 28006KT 10SM SCT007 OVC020 15/13 A3008 RMK AO2 T01500128=
202207161153 METAR KCLM 161153Z AUTO 27006KT 10SM OVC019 15/13 A3009 RMK AO2 SLP188 70001 T01500128 10156 20150 58001=
202207161053 METAR KCLM 161053Z AUTO 27004KT 10SM FEW005 BKN017 OVC032 15/13 A3009 RMK AO2 SLP189 T01500133=
202207161039 SPECI KCLM 161039Z AUTO 26004KT 10SM SCT005 OVC032 15/13 A3009 RMK AO2 T01500133=
202207160953 METAR KCLM 160953Z AUTO 30003KT 10SM OVC003 15/13 A3009 RMK AO2 SLP189 T01500133=
202207160853 METAR KCLM 160853Z AUTO 30004KT 10SM OVC004 15/13 A3009 RMK AO2 SLP188 T01500133 53000=
202207160753 METAR KCLM 160753Z AUTO 27004KT 10SM BKN008 OVC033 16/13 A3009 RMK AO2 SLP188 T01560133 402110106=
202207160746 SPECI KCLM 160746Z AUTO 00000KT 10SM BKN008 OVC033 16/13 A3009 RMK AO2 CIG 004V009 T01560133=
202207160714 SPECI KCLM 160714Z AUTO VRB03KT 10SM FEW007 OVC032 15/13 A3009 RMK AO2 T01500133=
202207160653 METAR KCLM 160653Z AUTO 30004KT 10SM OVC033 15/13 A3009 RMK AO2 SLP187 T01500128=
202207160553 METAR KCLM 160553Z AUTO 00000KT 10SM OVC035 16/13 A3009 RMK AO2 SLP188 T01560133 10189 20156 51004=
202207160453 METAR KCLM 160453Z AUTO 00000KT 10SM SCT036 OVC050 16/14 A3008 RMK AO2 SLP187 T01610139=
202207160353 METAR KCLM 160353Z AUTO 28003KT 10SM BKN039 BKN055 OVC065 17/14 A3008 RMK AO2 SLP185 T01670139=
202207160253 METAR KCLM 160253Z AUTO 00000KT 10SM FEW041 BKN085 17/13 A3007 RMK AO2 SLP183 T01720133 56005=
202207160153 METAR KCLM 160153Z AUTO 33003KT 10SM OVC090 18/13 A3007 RMK AO2 SLP184 T01830133=
202207160053 METAR KCLM 160053Z AUTO 36003KT 10SM FEW055 BKN080 BKN120 18/13 A3008 RMK AO2 SLP187 T01780133=
202207152353 METAR KCLM 152353Z AUTO 35004KT 10SM OVC065 18/13 A3009 RMK AO2 SLP188 60001 T01830128 10211 20167 55003=
202207152253 METAR KCLM 152253Z AUTO 35006KT 10SM OVC065 18/13 A3009 RMK AO2 RAE2156 SLP188 P0000 T01780128=
202207152153 METAR KCLM 152153Z AUTO 00000KT 10SM -RA BKN070 OVC085 18/13 A3009 RMK AO2 RAE08B47 SLP190 P0000 T01830133=
202207152053 METAR KCLM 152053Z AUTO 00000KT 5SM -RA FEW044 SCT050 OVC090 17/12 A3010 RMK AO2 RAB14 SLP191 P0001 60001 T01720122 53008=
202207151953 METAR KCLM 151953Z AUTO VRB05KT 10SM OVC085 18/11 A3007 RMK AO2 SLP184 T01780111=
202207151853 METAR KCLM 151853Z AUTO VRB04KT 10SM FEW090 21/12 A3007 RMK AO2 SLP184 T02060117=
202207151753 METAR KCLM 151753Z AUTO VRB03KT 10SM CLR 18/11 A3007 RMK AO2 SLP183 T01780111 10183 20106 53004=
202207151653 METAR KCLM 151653Z AUTO 09007KT 10SM BKN120 18/11 A3005 RMK AO2 SLP176 T01780106=
202207151553 METAR KCLM 151553Z AUTO 01005KT 10SM CLR 16/11 A3007 RMK AO2 SLP181 T01610106=
202207151353 METAR KCLM 151353Z AUTO 00000KT 10SM CLR 12/10 A3005 RMK AO2 SLP174 T01170100=
202207151253 METAR KCLM 151253Z AUTO 00000KT 10SM CLR 11/08 A3004 RMK AO2 SLP174 T01060083=
202207151153 METAR KCLM 151153Z AUTO 24004KT 10SM CLR 12/09 A3004 RMK AO2 SLP172 T01220089 10144 20122 53004=
202207151053 METAR KCLM 151053Z AUTO 26005KT 10SM CLR 13/09 A3003 RMK AO2 SLP170 T01330094=
202207150953 METAR KCLM 150953Z AUTO 28005KT 10SM CLR 13/09 A3003 RMK AO2 SLP169 T01330094=
202207150853 METAR KCLM 150853Z AUTO 28009KT 10SM CLR 14/09 A3003 RMK AO2 SLP168 T01390094 53003=
202207150753 METAR KCLM 150753Z AUTO 28008KT 10SM CLR 14/09 A3002 RMK AO2 SLP166 T01390094 402000117=
202207150653 METAR KCLM 150653Z AUTO 28007KT 10SM CLR 14/09 A3002 RMK AO2 SLP165 T01390089=
202207150553 METAR KCLM 150553Z AUTO 28009KT 10SM CLR 14/09 A3002 RMK AO2 SLP164 T01390094 10194 20139 53003=
202207150453 METAR KCLM 150453Z AUTO 29008G17KT 10SM CLR 14/09 A3001 RMK AO2 SLP163 T01440094=
202207150353 METAR KCLM 150353Z AUTO 29008G17KT 10SM CLR 15/09 A3001 RMK AO2 SLP162 T01500094=
202207150253 METAR KCLM 150253Z AUTO 30009KT 10SM CLR 16/09 A3001 RMK AO2 SLP161 T01610094 56007=
202207150153 METAR KCLM 150153Z AUTO 30010G19KT 10SM CLR 17/10 A3001 RMK AO2 SLP161 T01720100=
202207150053 METAR KCLM 150053Z AUTO 31011KT 10SM CLR 18/10 A3001 RMK AO2 SLP164 T01830100=
202207142353 METAR KCLM 142353Z AUTO 31009G16KT 10SM CLR 19/11 A3003 RMK AO2 SLP168 T01890106 10200 20167 58012=
202207142253 METAR KCLM 142253Z AUTO 30010KT 10SM CLR 19/11 A3004 RMK AO2 SLP174 T01890106=
202207142153 METAR KCLM 142153Z AUTO 30013G19KT 10SM CLR 19/10 A3005 RMK AO2 SLP177 T01890100=
202207142053 METAR KCLM 142053Z AUTO 31008KT 10SM CLR 19/11 A3006 RMK AO2 SLP180 T01890106 58010=
202207141953 METAR KCLM 141953Z AUTO 33008G15KT 10SM CLR 18/11 A3007 RMK AO2 SLP184 T01830106=
202207141853 METAR KCLM 141853Z AUTO 30009KT 10SM CLR 18/11 A3008 RMK AO2 SLP187 T01830106=
202207141753 METAR KCLM 141753Z AUTO 31008KT 10SM CLR 17/11 A3009 RMK AO2 SLP190 T01720106 10172 20117 58000=
202207141729 SPECI KCLM 141729Z AUTO 31009KT 10SM SCT020 17/11 A3009 RMK AO2 T01720106=
202207141653 METAR KCLM 141653Z AUTO 32006KT 10SM OVC019 17/10 A3010 RMK AO2 SLP192 T01670100=
202207141553 METAR KCLM 141553Z AUTO 28006KT 10SM BKN018 16/11 A3009 RMK AO2 SLP191 T01610106=
202207141545 SPECI KCLM 141545Z AUTO 27007KT 10SM BKN017 16/10 A3009 RMK AO2 T01560100=
202207141503 SPECI KCLM 141503Z AUTO 27008KT 10SM SCT019 15/10 A3010 RMK AO2 T01500100=
202207141453 METAR KCLM 141453Z AUTO 27008G16KT 10SM BKN019 15/10 A3009 RMK AO2 SLP190 T01500100 53003=
202207141413 SPECI KCLM 141413Z AUTO 27008KT 10SM BKN017 14/09 A3009 RMK AO2 T01390094=
202207141353 METAR KCLM 141353Z AUTO 28006KT 10SM CLR 13/10 A3009 RMK AO2 SLP188 T01330100=
202207141253 METAR KCLM 141253Z AUTO 25006KT 10SM CLR 12/09 A3008 RMK AO2 SLP187 T01220094=
202207141153 METAR KCLM 141153Z AUTO 27008KT 10SM CLR 12/09 A3009 RMK AO2 SLP188 T01220094 10133 20117 52004=
202207141053 METAR KCLM 141053Z AUTO 27007KT 10SM CLR 12/09 A3008 RMK AO2 SLP187 T01220089=
202207140953 METAR KCLM 140953Z AUTO 27007KT 10SM CLR 12/09 A3008 RMK AO2 SLP185 T01220094=
202207140853 METAR KCLM 140853Z AUTO 28006KT 10SM CLR 12/09 A3007 RMK AO2 SLP184 T01220094 56007=
202207140753 METAR KCLM 140753Z AUTO 28005KT 10SM CLR 12/10 A3008 RMK AO2 SLP187 T01220100 402000111=
202207140653 METAR KCLM 140653Z AUTO 27006KT 10SM CLR 13/10 A3008 RMK AO2 SLP187 T01280100=
202207140553 METAR KCLM 140553Z AUTO 28007KT 10SM CLR 13/10 A3009 RMK AO2 SLP191 T01280100 10178 20128 51004=
202207140453 METAR KCLM 140453Z AUTO 29008KT 10SM CLR 13/10 A3009 RMK AO2 SLP190 T01330100=
202207140353 METAR KCLM 140353Z AUTO 29011KT 10SM CLR 14/11 A3009 RMK AO2 SLP189 T01390106=
202207140253 METAR KCLM 140253Z AUTO 30010KT 10SM CLR 16/11 A3008 RMK AO2 SLP187 T01560106 58005=
202207140153 METAR KCLM 140153Z AUTO 30015G23KT 10SM CLR 17/11 A3009 RMK AO2 SLP190 T01670106=
202207140053 METAR KCLM 140053Z AUTO 31011G19KT 10SM CLR 17/11 A3009 RMK AO2 SLP190 T01720111=
202207132353 METAR KCLM 132353Z AUTO 30014G19KT 10SM CLR 17/11 A3010 RMK AO2 SLP192 T01720111 10200 20167 58000=
202207132253 METAR KCLM 132253Z AUTO 30010G18KT 10SM CLR 19/11 A3010 RMK AO2 SLP194 T01890111=
202207132153 METAR KCLM 132153Z AUTO 30008KT 10SM CLR 18/11 A3010 RMK AO2 SLP192 T01830111=
202207132053 METAR KCLM 132053Z AUTO VRB05KT 10SM CLR 19/12 A3010 RMK AO2 SLP193 T01940117 50005=
202207131953 METAR KCLM 131953Z AUTO 33005KT 10SM CLR 19/12 A3011 RMK AO2 SLP194 T01890117=
202207131853 METAR KCLM 131853Z AUTO 35007KT 10SM CLR 17/11 A3010 RMK AO2 SLP194 T01720111=
202207131753 METAR KCLM 131753Z AUTO 31005KT 10SM CLR 18/12 A3009 RMK AO2 SLP188 T01780117 10178 20111 51009=
202207131653 METAR KCLM 131653Z AUTO 30004KT 10SM CLR 16/11 A3008 RMK AO2 SLP185 T01610111=
202207131553 METAR KCLM 131553Z AUTO 30009KT 10SM CLR 15/11 A3007 RMK AO2 SLP183 T01500106=
202207131453 METAR KCLM 131453Z AUTO 30010KT 10SM CLR 14/11 A3006 RMK AO2 SLP179 T01440106 51010=
202207131353 METAR KCLM 131353Z AUTO 30004KT 10SM CLR 13/09 A3005 RMK AO2 SLP176 T01330089=
202207131253 METAR KCLM 131253Z AUTO 25008KT 10SM CLR 12/08 A3004 RMK AO2 SLP174 T01220083=
202207131153 METAR KCLM 131153Z AUTO 26008KT 10SM CLR 12/08 A3003 RMK AO2 SLP168 T01170083 10139 20111 52004=
202207131053 METAR KCLM 131053Z AUTO 26009KT 10SM CLR 12/08 A3002 RMK AO2 SLP166 T01170078=
202207130953 METAR KCLM 130953Z AUTO 27008KT 10SM CLR 12/08 A3002 RMK AO2 SLP166 T01170083=
202207130853 METAR KCLM 130853Z AUTO 28010KT 10SM CLR 12/08 A3002 RMK AO2 SLP164 T01220078 51008=
202207130753 METAR KCLM 130753Z AUTO 28010KT 10SM CLR 13/08 A3001 RMK AO2 SLP163 T01280078 402000122=
202207130653 METAR KCLM 130653Z AUTO 27009G16KT 10SM CLR 13/08 A3000 RMK AO2 SLP159 T01330083=
202207130553 METAR KCLM 130553Z AUTO 29008KT 10SM CLR 14/08 A2999 RMK AO2 SLP156 T01390083 10178 20139 53012=
202207130453 METAR KCLM 130453Z AUTO 29010G21KT 10SM CLR 14/09 A2998 RMK AO2 SLP153 T01440089=
202207130353 METAR KCLM 130353Z AUTO 29010KT 10SM CLR 14/09 A2996 RMK AO2 SLP146 T01440094=
202207130253 METAR KCLM 130253Z AUTO 30012G21KT 10SM CLR 16/10 A2996 RMK AO2 SLP144 T01560100 55003=
202207130153 METAR KCLM 130153Z AUTO 30013G21KT 10SM CLR 16/10 A2996 RMK AO2 PK WND 27026/0100 SLP144 T01610100=
202207130053 METAR KCLM 130053Z AUTO 30013G28KT 10SM CLR 17/11 A2996 RMK AO2 PK WND 30028/0044 SLP145 T01670106=
202207122353 METAR KCLM 122353Z AUTO 31016G25KT 10SM CLR 18/11 A2997 RMK AO2 PK WND 29027/2312 SLP147 T01780106 10200 20172 56001=
202207122253 METAR KCLM 122253Z AUTO 30013G23KT 10SM CLR 19/12 A2997 RMK AO2 SLP148 T01940117=
202207122153 METAR KCLM 122153Z AUTO 30012G24KT 10SM CLR 19/12 A2997 RMK AO2 SLP147 T01890117=
202207122053 METAR KCLM 122053Z AUTO 30012G24KT 10SM CLR 19/12 A2997 RMK AO2 SLP148 T01940122 58005=
202207121953 METAR KCLM 121953Z AUTO 31014G22KT 10SM CLR 19/12 A2997 RMK AO2 SLP149 T01890122=
202207121913 SPECI KCLM 121913Z AUTO 31012G22KT 10SM SCT015 18/12 A2998 RMK AO2 T01830122=
202207121853 METAR KCLM 121853Z AUTO 31014G21KT 10SM OVC014 18/12 A2999 RMK AO2 SLP154 T01780122=
202207121753 METAR KCLM 121753Z AUTO 31013KT 10SM OVC012 17/13 A2998 RMK AO2 SLP153 T01720128 10178 20144 53001=
202207121653 METAR KCLM 121653Z AUTO 31008G18KT 10SM OVC011 17/13 A2998 RMK AO2 SLP153 T01670128=
202207121609 SPECI KCLM 121609Z AUTO 30012KT 10SM BKN011 17/13 A2998 RMK AO2 T01670128=
202207121553 METAR KCLM 121553Z AUTO 29009G19KT 10SM FEW012 17/13 A2998 RMK AO2 SLP151 T01720128=
202207121453 METAR KCLM 121453Z AUTO 29009G17KT 10SM CLR 16/12 A2998 RMK AO2 SLP152 T01610122 53001=
202207121353 METAR KCLM 121353Z AUTO 30007G16KT 10SM CLR 16/12 A2997 RMK AO2 SLP149 T01610122=
202207121253 METAR KCLM 121253Z AUTO 28009KT 10SM CLR 15/12 A2998 RMK AO2 SLP150 T01500122=
202207121153 METAR KCLM 121153Z AUTO 29008KT 10SM CLR 14/12 A2998 RMK AO2 SLP151 T01440122 10161 20122 57005=
202207121053 METAR KCLM 121053Z AUTO 30008KT 10SM CLR 13/12 A2998 RMK AO2 SLP152 T01330117=
202207120953 METAR KCLM 120953Z AUTO 32006KT 10SM FEW002 12/11 A2999 RMK AO2 SLP155 T01220111=
202207120941 SPECI KCLM 120941Z AUTO 32006KT 10SM FEW002 12/11 A2999 RMK AO2 T01220111=
202207120853 METAR KCLM 120853Z AUTO 30006KT 10SM CLR 14/12 A2999 RMK AO2 SLP156 T01390117 56013=
202207120753 METAR KCLM 120753Z AUTO 29010KT 10SM CLR 14/12 A3000 RMK AO2 SLP159 T01440117 402670111=
202207120653 METAR KCLM 120653Z AUTO 29007KT 10SM CLR 14/12 A3001 RMK AO2 SLP162 T01440117=
202207120553 METAR KCLM 120553Z AUTO 29007KT 10SM CLR 16/12 A3003 RMK AO2 SLP168 T01610122 10250 20156 56005=
202207120453 METAR KCLM 120453Z AUTO 00000KT 10SM CLR 17/12 A3003 RMK AO2 SLP169 T01670117=
202207120353 METAR KCLM 120353Z AUTO 28006KT 10SM CLR 19/12 A3004 RMK AO2 SLP171 T01890117=
202207120253 METAR KCLM 120253Z AUTO 29006KT 10SM CLR 21/12 A3005 RMK AO2 SLP174 T02060122 58015=
202207120153 METAR KCLM 120153Z AUTO 31004KT 10SM CLR 22/13 A3006 RMK AO2 SLP177 T02170128=
202207120053 METAR KCLM 120053Z AUTO 30006KT 10SM CLR 21/12 A3008 RMK AO2 SLP186 T02110122=
202207112353 METAR KCLM 112353Z AUTO 34004KT 10SM CLR 24/11 A3009 RMK AO2 SLP188 T02440106 10267 20200 56023=
202207112253 METAR KCLM 112253Z AUTO 05003KT 10SM CLR 26/12 A3010 RMK AO2 SLP192 T02610117=
202207112153 METAR KCLM 112153Z AUTO 01006KT 10SM CLR 26/12 A3013 RMK AO2 SLP202 T02560117=
202207112053 METAR KCLM 112053Z AUTO 07007KT 020V090 10SM CLR 24/12 A3016 RMK AO2 SLP211 T02390117 58022=
202207111953 METAR KCLM 111953Z AUTO 03006KT 10SM CLR 22/12 A3018 RMK AO2 SLP220 T02220122=
202207111853 METAR KCLM 111853Z AUTO 10006KT 10SM CLR 21/14 A3021 RMK AO2 SLP228 T02110139=
202207111753 METAR KCLM 111753Z AUTO 09005KT 10SM CLR 20/13 A3022 RMK AO2 SLP234 T02000133 10206 20111 58013=
202207111653 METAR KCLM 111653Z AUTO 10008KT 10SM CLR 19/14 A3024 RMK AO2 SLP239 T01940139=
202207111553 METAR KCLM 111553Z AUTO 08005KT 10SM CLR 19/13 A3025 RMK AO2 SLP243 T01940133=
202207111453 METAR KCLM 111453Z AUTO 00000KT 10SM CLR 18/13 A3026 RMK AO2 SLP247 T01830133 58011=
202207111353 METAR KCLM 111353Z AUTO 00000KT 10SM CLR 15/13 A3027 RMK AO2 SLP251 T01500128=
202207111253 METAR KCLM 111253Z AUTO 00000KT 10SM CLR 12/10 A3029 RMK AO2 SLP256 T01170100=
202207111153 METAR KCLM 111153Z AUTO 00000KT 10SM CLR 12/11 A3030 RMK AO2 SLP259 T01170106 10150 20117 58009=
202207111053 METAR KCLM 111053Z AUTO 22004KT 10SM CLR 14/12 A3031 RMK AO2 SLP263 T01440117=
202207110953 METAR KCLM 110953Z AUTO 25004KT 10SM CLR 14/12 A3032 RMK AO2 SLP266 T01390117=
202207110853 METAR KCLM 110853Z AUTO 25003KT 10SM CLR 13/11 A3032 RMK AO2 SLP268 T01330111 56007=
202207110753 METAR KCLM 110753Z AUTO 28003KT 10SM CLR 14/12 A3033 RMK AO2 SLP270 T01440122 402220122=
202207110653 METAR KCLM 110653Z AUTO 28005KT 10SM CLR 15/13 A3033 RMK AO2 SLP272 T01500128=
202207110553 METAR KCLM 110553Z AUTO 00000KT 10SM CLR 14/13 A3035 RMK AO2 SLP276 T01440128 10206 20144 58001=
202207110453 METAR KCLM 110453Z AUTO 00000KT 10SM CLR 14/13 A3035 RMK AO2 SLP277 T01440128=
202207110353 METAR KCLM 110353Z AUTO 00000KT 10SM CLR 17/13 A3035 RMK AO2 SLP276 T01670133=
202207110253 METAR KCLM 110253Z AUTO 30006KT 10SM CLR 19/14 A3035 RMK AO2 SLP276 T01890139 56010=
202207110153 METAR KCLM 110153Z AUTO 31004KT 10SM OVC043 19/14 A3036 RMK AO2 SLP280 T01890139=
202207110053 METAR KCLM 110053Z AUTO 29009KT 10SM OVC044 19/13 A3037 RMK AO2 SLP283 T01940133=
202207102353 METAR KCLM 102353Z AUTO 31007KT 10SM SCT049 19/13 A3038 RMK AO2 SLP287 T01890128 10222 20172 53001=
202207102253 METAR KCLM 102253Z AUTO 34005KT 10SM CLR 21/12 A3037 RMK AO2 SLP284 T02060122=
202207102153 METAR KCLM 102153Z AUTO VRB04KT 10SM CLR 22/12 A3037 RMK AO2 SLP285 T02170117=
202207102053 METAR KCLM 102053Z AUTO VRB06KT 10SM CLR 21/12 A3038 RMK AO2 SLP285 T02110122 50007=
202207101953 METAR KCLM 101953Z AUTO VRB04KT 10SM BKN046 BKN080 19/13 A3038 RMK AO2 SLP287 T01940128=
202207101853 METAR KCLM 101853Z AUTO 35006KT 10SM OVC060 18/12 A3037 RMK AO2 SLP283 T01780122=
202207101753 METAR KCLM 101753Z AUTO 36004KT 10SM OVC060 18/12 A3035 RMK AO2 SLP279 T01830122 10194 20128 51010=
202207101653 METAR KCLM 101653Z AUTO 36004KT 10SM BKN055 18/13 A3035 RMK AO2 SLP277 T01780128=
202207101553 METAR KCLM 101553Z AUTO VRB04KT 10SM OVC050 18/12 A3034 RMK AO2 SLP273 T01780122=
202207101453 METAR KCLM 101453Z AUTO 00000KT 10SM SCT050 BKN110 17/12 A3032 RMK AO2 SLP269 T01720122 51009=
202207101353 METAR KCLM 101353Z AUTO 23003KT 10SM FEW110 14/12 A3032 RMK AO2 SLP267 T01440122=
202207101253 METAR KCLM 101253Z AUTO 26004KT 10SM OVC034 14/12 A3031 RMK AO2 SLP263 T01390117=
202207101153 METAR KCLM 101153Z AUTO 25003KT 10SM OVC035 14/12 A3030 RMK AO2 SLP260 T01390117 10150 20122 52009=
202207101053 METAR KCLM 101053Z AUTO 00000KT 10SM OVC033 14/12 A3029 RMK AO2 SLP257 T01390117=
202207100953 METAR KCLM 100953Z AUTO 24004KT 10SM SCT034 12/11 A3028 RMK AO2 SLP253 T01220106=
202207100853 METAR KCLM 100853Z AUTO 25003KT 10SM BKN095 14/12 A3027 RMK AO2 SLP251 T01390117 53003=
202207100753 METAR KCLM 100753Z AUTO 00000KT 10SM CLR 13/11 A3027 RMK AO2 SLP249 T01280111 402000122=
202207100653 METAR KCLM 100653Z AUTO 29005KT 10SM BKN100 14/12 A3026 RMK AO2 SLP245 T01440117=
202207100553 METAR KCLM 100553Z AUTO 28008KT 10SM FEW100 15/12 A3026 RMK AO2 SLP247 T01500117 10194 20150 51009=
202207100453 METAR KCLM 100453Z AUTO 27010G18KT 10SM CLR 16/12 A3026 RMK AO2 SLP245 T01560122=
202207100353 METAR KCLM 100353Z AUTO 28009KT 10SM CLR 16/12 A3024 RMK AO2 SLP240 T01610122=
202207100253 METAR KCLM 100253Z AUTO 28010KT 10SM FEW120 17/12 A3023 RMK AO2 SLP238 T01720117 58000=
202207100153 METAR KCLM 100153Z AUTO 29010KT 10SM BKN110 17/12 A3023 RMK AO2 SLP238 T01720117=
202207100121 SPECI KCLM 100121Z AUTO 31007KT 10SM SCT027 OVC110 18/11 A3024 RMK AO2 T01780111=
202207100053 METAR KCLM 100053Z AUTO 30011KT 10SM BKN028 18/11 A3024 RMK AO2 SLP240 T01780111=
202207092353 METAR KCLM 092353Z AUTO 31011G18KT 10SM BKN037 19/11 A3023 RMK AO2 SLP238 T01940111 10200 20172 53010=
202207092253 METAR KCLM 092253Z AUTO 30011G18KT 10SM CLR 19/12 A3023 RMK AO2 SLP235 T01940117=
202207092153 METAR KCLM 092153Z AUTO 31009G19KT 10SM CLR 19/12 A3021 RMK AO2 SLP230 T01890117=
202207092053 METAR KCLM 092053Z AUTO 30011KT 10SM CLR 19/12 A3020 RMK AO2 SLP228 T01890122 51002=
202207091953 METAR KCLM 091953Z AUTO 30007KT 280V350 10SM CLR 19/12 A3020 RMK AO2 SLP226 T01940122=
202207091853 METAR KCLM 091853Z AUTO 30005KT 10SM FEW060 19/12 A3020 RMK AO2 SLP228 T01940122=
202207091753 METAR KCLM 091753Z AUTO 29010KT 10SM CLR 18/11 A3020 RMK AO2 SLP226 T01780111 10183 20122 51007=
202207091653 METAR KCLM 091653Z AUTO 31008KT 10SM CLR 17/12 A3019 RMK AO2 SLP224 T01720117=
202207091553 METAR KCLM 091553Z AUTO 30004G14KT 10SM FEW055 15/11 A3019 RMK AO2 SLP224 T01500111=
202207091453 METAR KCLM 091453Z AUTO 27004KT 10SM CLR 16/12 A3018 RMK AO2 SLP218 T01610117 53009=
202207091353 METAR KCLM 091353Z AUTO 27004KT 10SM CLR 15/12 A3016 RMK AO2 SLP214 T01500117=
202207091253 METAR KCLM 091253Z AUTO 23003KT 10SM CLR 13/11 A3015 RMK AO2 SLP209 T01280106=
202207091153 METAR KCLM 091153Z AUTO 27003KT 10SM CLR 12/11 A3015 RMK AO2 SLP209 T01220106 10144 20122 56002=
202207091053 METAR KCLM 091053Z AUTO 27005KT 10SM CLR 13/11 A3015 RMK AO2 SLP210 T01280106=
202207090953 METAR KCLM 090953Z AUTO 28005KT 10SM CLR 12/11 A3015 RMK AO2 SLP209 T01220106=
202207090853 METAR KCLM 090853Z AUTO 00000KT 10SM CLR 12/11 A3015 RMK AO2 SLP211 T01220106 58006=
202207090753 METAR KCLM 090753Z AUTO 25005KT 10SM CLR 13/11 A3016 RMK AO2 SLP214 T01280106 402110128=
202207090653 METAR KCLM 090653Z AUTO 24006KT 10SM CLR 14/10 A3017 RMK AO2 SLP216 T01390100=
202207090553 METAR KCLM 090553Z AUTO 27007KT 10SM SCT070 14/09 A3017 RMK AO2 SLP218 T01440094 10194 20144 53006=
202207090453 METAR KCLM 090453Z AUTO 26011KT 10SM OVC065 16/09 A3017 RMK AO2 SLP217 T01610094=
202207090353 METAR KCLM 090353Z AUTO 27007KT 10SM BKN065 16/10 A3016 RMK AO2 SLP213 T01610100=
202207090253 METAR KCLM 090253Z AUTO 29009KT 10SM BKN070 17/10 A3016 RMK AO2 SLP212 T01720100 53000=
202207090153 METAR KCLM 090153Z AUTO 30005KT 10SM OVC065 18/11 A3015 RMK AO2 SLP210 T01830106=
202207090053 METAR KCLM 090053Z AUTO 31009KT 10SM OVC060 18/11 A3015 RMK AO2 SLP210 T01780106=
202207082353 METAR KCLM 082353Z AUTO 29006KT 10SM OVC060 19/12 A3016 RMK AO2 SLP211 T01940122 10211 20178 58002=
202207082253 METAR KCLM 082253Z AUTO VRB06KT 10SM BKN060 19/12 A3017 RMK AO2 SLP215 T01890122=
202207082153 METAR KCLM 082153Z AUTO 31009KT 10SM FEW042 FEW065 19/13 A3017 RMK AO2 SLP215 T01940128=
202207082053 METAR KCLM 082053Z AUTO 30009KT 10SM BKN043 OVC090 20/13 A3016 RMK AO2 SLP212 T02000128 53005=
202207081953 METAR KCLM 081953Z AUTO 35005KT 10SM BKN043 OVC085 18/12 A3015 RMK AO2 SLP209 T01830122=
202207081853 METAR KCLM 081853Z AUTO 33005KT 10SM BKN080 18/12 A3014 RMK AO2 SLP208 T01830122=
202207081753 METAR KCLM 081753Z AUTO 30007KT 10SM OVC080 18/13 A3014 RMK AO2 SLP208 T01830128 10183 20133 51005=
202207081653 METAR KCLM 081653Z AUTO 30006KT 10SM FEW011 OVC085 17/13 A3014 RMK AO2 SLP206 T01670128=
202207081640 SPECI KCLM 081640Z AUTO 29003KT 10SM FEW011 SCT037 OVC085 17/13 A3014 RMK AO2 T01670128=
202207081553 METAR KCLM 081553Z AUTO 31004KT 10SM OVC013 16/13 A3014 RMK AO2 SLP205 T01610128=
202207081540 SPECI KCLM 081540Z AUTO 31003KT 10SM BKN013 OVC040 16/13 A3014 RMK AO2 T01560128=
202207081453 METAR KCLM 081453Z AUTO 29004KT 10SM SCT042 OVC085 15/13 A3013 RMK AO2 SLP202 T01500128 51008=
202207081353 METAR KCLM 081353Z AUTO 27004KT 10SM FEW011 BKN048 OVC090 14/12 A3012 RMK AO2 SLP200 T01440122=
202207081253 METAR KCLM 081253Z AUTO 26004KT 10SM OVC047 14/12 A3012 RMK AO2 SLP198 T01390122=
202207081153 METAR KCLM 081153Z AUTO 29007KT 10SM OVC080 14/12 A3010 RMK AO2 SLP194 70005 T01390117 10150 20139 53003=
202207081053 METAR KCLM 081053Z AUTO 30007KT 10SM SCT050 OVC060 14/12 A3010 RMK AO2 SLP191 T01390117=
202207080953 METAR KCLM 080953Z AUTO 29004KT 10SM BKN050 OVC060 14/12 A3009 RMK AO2 SLP190 T01440122=
202207080853 METAR KCLM 080853Z AUTO 27005KT 10SM OVC055 15/12 A3010 RMK AO2 SLP191 T01500122 53000=
202207080753 METAR KCLM 080753Z AUTO 26004KT 10SM SCT060 BKN075 14/12 A3009 RMK AO2 SLP191 T01440117 402060139=
202207080653 METAR KCLM 080653Z AUTO 26006KT 10SM FEW055 BKN080 15/12 A3009 RMK AO2 SLP190 T01500117=
202207080553 METAR KCLM 080553Z AUTO 26007KT 10SM FEW060 BKN075 14/12 A3009 RMK AO2 SLP190 60005 T01440122 10172 20144 53006=
202207080453 METAR KCLM 080453Z AUTO 28005KT 10SM OVC080 15/13 A3009 RMK AO2 SLP188 T01500128=
202207080353 METAR KCLM 080353Z AUTO 30007KT 10SM OVC075 16/13 A3008 RMK AO2 SLP185 T01560133=
202207080253 METAR KCLM 080253Z AUTO 31005KT 10SM SCT070 SCT090 SCT110 16/14 A3008 RMK AO2 RAE14 SLP184 P0000 60005 T01610139 55002=
202207080153 METAR KCLM 080153Z AUTO 30007KT 8SM -RA BKN070 OVC090 17/15 A3007 RMK AO2 SLP184 P0003 T01670150=
202207080053 METAR KCLM 080053Z AUTO 29005KT 5SM -RA BR OVC070 17/14 A3008 RMK AO2 RAE00B21 SLP185 P0002 T01670144=
202207072353 METAR KCLM 072353Z AUTO 31006KT 10SM -RA OVC070 18/14 A3008 RMK AO2 RAB52 SLP186 P0000 60000 T01780139 10206 20172 50001=
202207072253 METAR KCLM 072253Z AUTO 30006KT 10SM OVC065 18/12 A3008 RMK AO2 RAB04E19 SLP187 P0000 T01830122=
202207072153 METAR KCLM 072153Z AUTO 36005KT 10SM BKN065 OVC075 18/12 A3008 RMK AO2 SLP186 T01830122=
202207072053 METAR KCLM 072053Z AUTO 02005KT 10SM BKN070 19/12 A3008 RMK AO2 SLP185 T01890117 50001=
202207071953 METAR KCLM 071953Z AUTO 33004KT 10SM FEW023 OVC075 18/12 A3008 RMK AO2 SLP187 T01830122=
202207071902 SPECI KCLM 071902Z AUTO VRB05KT 10SM SCT024 SCT070 19/12 A3008 RMK AO2 T01890122=
202207071853 METAR KCLM 071853Z AUTO 35005KT 10SM BKN024 BKN075 19/12 A3007 RMK AO2 SLP184 T01890117=
202207071813 SPECI KCLM 071813Z AUTO VRB03KT 10SM SCT027 18/12 A3007 RMK AO2 T01780117=
202207071753 METAR KCLM 071753Z AUTO VRB03KT 10SM BKN027 18/12 A3007 RMK AO2 SLP181 T01780117 10183 20139 53006=
202207071653 METAR KCLM 071653Z AUTO 36005KT 10SM OVC029 17/12 A3005 RMK AO2 SLP177 T01720122=
202207071650 SPECI KCLM 071650Z AUTO 36004KT 10SM OVC029 17/12 A3005 RMK AO2=
202207071626 SPECI KCLM 071626Z AUTO 02004KT 10SM SCT025 OVC030 17/12 A3005 RMK AO2 T01670117=
202207071553 METAR KCLM 071553Z AUTO 29005KT 10SM OVC022 17/12 A3005 RMK AO2 SLP175 T01670117=
202207071453 METAR KCLM 071453Z AUTO 27005KT 10SM OVC019 16/12 A3003 RMK AO2 SLP170 T01560117 53007=
202207071353 METAR KCLM 071353Z AUTO 26005KT 10SM OVC017 15/12 A3002 RMK AO2 SLP167 T01500117=
202207071253 METAR KCLM 071253Z AUTO 25005KT 10SM OVC016 14/12 A3002 RMK AO2 SLP164 T01440117=
202207071153 METAR KCLM 071153Z AUTO 26008KT 10SM OVC015 14/12 A3001 RMK AO2 SLP163 70004 T01440117 10150 20139 52006=
202207071130 SPECI KCLM 071130Z AUTO 27006KT 10SM OVC014 14/12 A3001 RMK AO2 T01390117=
202207071053 METAR KCLM 071053Z AUTO 27007KT 10SM OVC017 14/12 A3000 RMK AO2 SLP159 T01390117=
202207070953 METAR KCLM 070953Z AUTO 27008KT 10SM OVC016 14/12 A3000 RMK AO2 SLP159 T01390122=
202207070931 SPECI KCLM 070931Z AUTO 26006KT 10SM OVC015 14/12 A3000 RMK AO2 T01440122=
202207070853 METAR KCLM 070853Z AUTO 27006KT 10SM OVC013 14/12 A2999 RMK AO2 SLP156 T01440122 53002=
202207070753 METAR KCLM 070753Z AUTO 27006KT 10SM OVC013 14/12 A2999 RMK AO2 SLP155 T01440122 402000122=
202207070710 SPECI KCLM 070710Z AUTO 27007KT 10SM OVC014 15/12 A2999 RMK AO2 T01500122=
202207070653 METAR KCLM 070653Z AUTO 27007KT 10SM OVC017 14/12 A2998 RMK AO2 SLP153 T01440122=
202207070553 METAR KCLM 070553Z AUTO 27006KT 10SM OVC017 15/13 A2999 RMK AO2 SLP154 60002 T01500128 10183 20144 50006=
202207070503 SPECI KCLM 070503Z AUTO 00000KT 10SM FEW004 BKN018 BKN100 14/13 A2999 RMK AO2 T01440133=
202207070453 METAR KCLM 070453Z AUTO 29003KT 10SM FEW020 SCT060 SCT100 14/13 A2999 RMK AO2 SLP155 T01440133=
202207070353 METAR KCLM 070353Z AUTO 29004KT 10SM FEW004 SCT032 BKN055 16/14 A2998 RMK AO2 SLP151 T01610144=
202207070319 SPECI KCLM 070319Z AUTO 29004KT 10SM SCT004 BKN060 BKN070 17/15 A2997 RMK AO2 T01670150=
202207070253 METAR KCLM 070253Z AUTO 31003KT 10SM OVC055 17/15 A2997 RMK AO2 RAB12E34 SLP148 P0001 60002 T01720150 50002=
202207070232 SPECI KCLM 070232Z AUTO 28003KT 8SM -RA FEW049 OVC055 17/15 A2997 RMK AO2 RAB12 P0001 T01720150=
202207070224 SPECI KCLM 070224Z AUTO 28003KT 2SM -RA BR FEW021 SCT045 OVC060 17/15 A2997 RMK AO2 RAB12 P0001 T01720150=
202207070153 METAR KCLM 070153Z AUTO 28004KT 10SM FEW023 OVC060 17/14 A2997 RMK AO2 RAB13E39 SLP148 P0001 T01720144=
202207070053 METAR KCLM 070053Z AUTO 30006KT 10SM SCT049 OVC060 17/14 A2997 RMK AO2 SLP148 T01670139=
202207062353 METAR KCLM 062353Z AUTO 31006KT 10SM BKN060 BKN110 18/14 A2996 RMK AO2 SLP146 60002 T01830139 10200 20161 51001=
202207062253 METAR KCLM 062253Z AUTO 32006KT 10SM FEW044 SCT055 OVC090 18/13 A2996 RMK AO2 SLP145 T01830133=
202207062153 METAR KCLM 062153Z AUTO 31007KT 10SM BKN038 OVC050 18/13 A2996 RMK AO2 SLP146 T01780133=
202207062053 METAR KCLM 062053Z AUTO 31007KT 10SM BKN042 18/13 A2996 RMK AO2 SLP145 60002 T01780128 51002=
202207061953 METAR KCLM 061953Z AUTO 35006KT 10SM SCT065 SCT075 SCT100 18/13 A2996 RMK AO2 SLP144 T01780128=
202207061853 METAR KCLM 061853Z AUTO 34003KT 10SM FEW021 SCT048 BKN100 17/14 A2996 RMK AO2 RAB05E43 SLP144 P0002 T01720139=
202207061753 METAR KCLM 061753Z AUTO 31004KT 10SM FEW055 BKN075 BKN085 17/13 A2995 RMK AO2 SLP143 T01720133 10178 20122 51003=
202207061653 METAR KCLM 061653Z AUTO 01003KT 10SM FEW070 SCT085 OVC100 17/13 A2995 RMK AO2 SLP143 T01720128=
202207061553 METAR KCLM 061553Z AUTO 33004KT 10SM FEW035 BKN080 BKN090 16/13 A2995 RMK AO2 SLP141 T01610128=
202207061453 METAR KCLM 061453Z AUTO 00000KT 10SM OVC033 16/13 A2994 RMK AO2 SLP140 T01610133 53004=
202207061353 METAR KCLM 061353Z AUTO 00000KT 10SM OVC034 14/13 A2994 RMK AO2 SLP138 T01440128=
202207061253 METAR KCLM 061253Z AUTO 00000KT 10SM SCT034 SCT060 BKN090 13/11 A2993 RMK AO2 SLP135 T01280111=
202207061153 METAR KCLM 061153Z AUTO 00000KT 10SM BKN070 OVC095 12/11 A2993 RMK AO2 SLP135 T01220106 10144 20122 50001=
202207061053 METAR KCLM 061053Z AUTO 00000KT 10SM SCT070 13/11 A2993 RMK AO2 SLP136 T01280111=
202207060953 METAR KCLM 060953Z AUTO 24003KT 10SM FEW120 13/11 A2993 RMK AO2 SLP134 T01280111=
202207060853 METAR KCLM 060853Z AUTO 21003KT 10SM FEW080 BKN100 13/12 A2993 RMK AO2 SLP134 T01330117 50001=
202207060753 METAR KCLM 060753Z AUTO 00000KT 10SM FEW070 OVC100 13/11 A2994 RMK AO2 SLP138 T01330111 402110089=
202207060653 METAR KCLM 060653Z AUTO 28005KT 10SM FEW065 OVC095 14/12 A2994 RMK AO2 SLP138 T01390117=
202207060553 METAR KCLM 060553Z AUTO 32005KT 10SM OVC080 14/12 A2993 RMK AO2 SLP133 60000 T01440122 10206 20144 58000=
202207060453 METAR KCLM 060453Z AUTO 30003KT 10SM OVC080 15/13 A2994 RMK AO2 SLP137 T01500128=
202207060353 METAR KCLM 060353Z AUTO 00000KT 10SM BKN090 OVC110 15/12 A2993 RMK AO2 SLP134 T01500122=
202207060253 METAR KCLM 060253Z AUTO 28004KT 10SM BKN100 BKN120 16/12 A2993 RMK AO2 SLP134 60000 T01560117 55005=
202207060153 METAR KCLM 060153Z AUTO 02003KT 10SM FEW070 FEW090 BKN120 18/13 A2992 RMK AO2 RAE36 SLP133 P0000 T01830133=
202207060053 METAR KCLM 060053Z AUTO 00000KT 10SM -RA FEW080 OVC100 18/12 A2993 RMK AO2 RAB49 SLP136 P0000 T01830117=
202207052353 METAR KCLM 052353Z AUTO 00000KT 10SM CLR 21/11 A2994 RMK AO2 SLP139 T02060111 10211 20161 56010=
202207052253 METAR KCLM 052253Z AUTO 03005KT 10SM CLR 21/11 A2995 RMK AO2 SLP140 T02110106=
202207052153 METAR KCLM 052153Z AUTO 02004KT 10SM CLR 21/11 A2996 RMK AO2 SLP145 T02060111=
202207052053 METAR KCLM 052053Z AUTO 34004KT 10SM CLR 18/11 A2997 RMK AO2 SLP149 T01830111 58005=
202207051953 METAR KCLM 051953Z AUTO 03005KT 10SM CLR 19/12 A2998 RMK AO2 SLP150 T01890117=
202207051853 METAR KCLM 051853Z AUTO VRB05KT 10SM CLR 18/12 A2998 RMK AO2 SLP153 T01830122=
202207051753 METAR KCLM 051753Z AUTO 08006KT 10SM FEW007 17/12 A2999 RMK AO2 SLP154 T01670122 10167 20089 56002=
202207051748 SPECI KCLM 051748Z AUTO 08006KT 10SM FEW007 17/12 A2999 RMK AO2=
202207051653 METAR KCLM 051653Z AUTO VRB04KT 10SM CLR 16/11 A2999 RMK AO2 SLP154 T01610111=
202207051553 METAR KCLM 051553Z AUTO 33004KT 10SM CLR 16/12 A2999 RMK AO2 SLP156 T01560117=
202207051453 METAR KCLM 051453Z AUTO 00000KT 10SM CLR 14/12 A2999 RMK AO2 SLP155 T01440117 58000=
202207051353 METAR KCLM 051353Z AUTO 00000KT 10SM CLR 12/11 A2999 RMK AO2 SLP156 T01170106=
202207051300 SPECI KCLM 051300Z AUTO 00000KT 10SM CLR 09/08 A2999 RMK AO2 T00940083=
202207051253 METAR KCLM 051253Z AUTO 00000KT 1 3/4SM BR CLR 09/08 A2999 RMK AO2 SLP156 T00890078=
202207051244 SPECI KCLM 051244Z AUTO 00000KT 1/2SM FG CLR 09/08 A2999 RMK AO2 T00940083=
202207051236 SPECI KCLM 051236Z AUTO 00000KT 1 1/4SM BR CLR 09/08 A2999 RMK AO2 VIS 1/4V5 T00940078=
202207051225 SPECI KCLM 051225Z AUTO 00000KT 3SM BR CLR 09/08 A2999 RMK AO2 T00940078=
202207051220 SPECI KCLM 051220Z AUTO 23003KT 1 3/4SM BR CLR 09/08 A2999 RMK AO2 VIS 3/4V5 T00940083=
202207051213 SPECI KCLM 051213Z AUTO 00000KT 3/4SM BR CLR 09/08 A2999 RMK AO2 T00940083=
202207051203 SPECI KCLM 051203Z AUTO 00000KT 1 1/2SM BR CLR 09/08 A2999 RMK AO2 T00940083=
202207051153 METAR KCLM 051153Z AUTO 22005KT 10SM CLR 10/09 A2999 RMK AO2 SLP156 70003 T01000089 10133 20094 58001=
202207051131 SPECI KCLM 051131Z AUTO 23004KT 3SM BR FEW001 10/08 A2999 RMK AO2 T01000083=
202207051124 SPECI KCLM 051124Z AUTO 23004KT 1 3/4SM BR FEW001 09/08 A2999 RMK AO2 VIS 1V5 T00940078=
202207051116 SPECI KCLM 051116Z AUTO 22003KT 3SM BR CLR 09/08 A2999 RMK AO2 T00940083=
202207051103 SPECI KCLM 051103Z AUTO 00000KT 1 1/2SM BR CLR 11/09 A2999 RMK AO2 VIS 1/2V5 T01060094=
202207051100 SPECI KCLM 051100Z AUTO 00000KT 3SM BR CLR 11/09 A2999 RMK AO2 T01060094=
202207051053 METAR KCLM 051053Z AUTO 00000KT 2 1/2SM BR CLR 11/09 A2999 RMK AO2 SLP156 T01110094=
202207051051 SPECI KCLM 051051Z AUTO 23003KT 2 1/2SM BR CLR 11/09 A2999 RMK AO2=
202207050953 METAR KCLM 050953Z AUTO 00000KT 10SM CLR 12/11 A2999 RMK AO2 SLP156 T01220111=
202207050853 METAR KCLM 050853Z AUTO 00000KT 7SM CLR 13/11 A2999 RMK AO2 SLP157 T01280111 56005=
202207050753 METAR KCLM 050753Z AUTO 23004KT 7SM CLR 13/12 A3000 RMK AO2 SLP157 T01280117 401610122=
202207050708 SPECI KCLM 050708Z AUTO 23003KT 4SM BR SCT002 13/12 A3000 RMK AO2 T01330117=
202207050653 METAR KCLM 050653Z AUTO 26003KT 2SM BR OVC002 13/12 A3000 RMK AO2 SLP159 T01330117=
202207050631 SPECI KCLM 050631Z AUTO 26003KT 1 3/4SM BR OVC002 13/12 A3001 RMK AO2 T01330117=
202207050611 SPECI KCLM 050611Z AUTO 28003KT 2 1/2SM BR OVC002 13/12 A3001 RMK AO2 T01280117=
202207050553 METAR KCLM 050553Z AUTO 27004KT 4SM BR BKN003 BKN110 13/11 A3001 RMK AO2 SLP162 60000 T01280111 10156 20128 51001=
202207050549 SPECI KCLM 050549Z AUTO 27005KT 5SM BR SCT003 BKN110 13/11 A3001 RMK AO2=
202207050453 METAR KCLM 050453Z AUTO 27003KT 10SM FEW010 OVC043 13/12 A3001 RMK AO2 SLP162 T01330117=
202207050417 SPECI KCLM 050417Z AUTO 30003KT 10SM FEW009 OVC095 13/12 A3001 RMK AO2 T01330122=
202207050353 METAR KCLM 050353Z AUTO 00000KT 10SM FEW075 BKN090 13/12 A3001 RMK AO2 RAB24E42 SLP161 P0000 T01330117=
202207050253 METAR KCLM 050253Z AUTO 31004KT 10SM FEW039 SCT055 OVC070 14/12 A3001 RMK AO2 SLP162 T01440122 50000=
202207050153 METAR KCLM 050153Z AUTO 29004KT 10SM FEW009 OVC041 14/12 A3001 RMK AO2 SLP163 T01440122=
202207050144 SPECI KCLM 050144Z AUTO 29003KT 10SM FEW009 OVC041 14/12 A3001 RMK AO2 T01440122=
202207050053 METAR KCLM 050053Z AUTO 32003KT 10SM OVC031 14/12 A3001 RMK AO2 SLP164 T01440122=
202207042353 METAR KCLM 042353Z AUTO 30004KT 10SM SCT042 BKN080 16/12 A3001 RMK AO2 SLP162 60000 T01560117 10161 20139 53002=
202207042253 METAR KCLM 042253Z AUTO VRB03KT 10SM BKN039 OVC080 16/12 A3000 RMK AO2 SLP160 T01560117=
202207042153 METAR KCLM 042153Z AUTO 33003KT 10SM FEW037 SCT046 OVC055 15/12 A3000 RMK AO2 RAE05 SLP159 P0000 T01500117=
202207042106 SPECI KCLM 042106Z AUTO 36003KT 10SM SCT028 SCT035 OVC070 14/12 A3000 RMK AO2 RAE05 P0000 T01440117=
202207042053 METAR KCLM 042053Z AUTO 00000KT 8SM -RA BKN028 OVC065 14/12 A3000 RMK AO2 RAB38 SLP159 P0000 60000 T01440122 52009=
202207041953 METAR KCLM 041953Z AUTO 03004KT 10SM OVC026 14/12 A2999 RMK AO2 SLP156 T01390117=
202207041905 SPECI KCLM 041905Z AUTO 03003KT 10SM SCT005 OVC025 14/12 A2998 RMK AO2 T01440117=
202207041853 METAR KCLM 041853Z AUTO VRB03KT 10SM BKN004 BKN025 14/12 A2998 RMK AO2 SLP153 T01440122=
202207041753 METAR KCLM 041753Z AUTO VRB03KT 9SM BKN002 OVC011 14/12 A2997 RMK AO2 SLP150 60003 T01390122 10144 20122 51005=
202207041724 SPECI KCLM 041724Z AUTO 34004KT 7SM BKN003 OVC011 13/12 A2997 RMK AO2 T01330117=
202207041709 SPECI KCLM 041709Z AUTO 00000KT 8SM SCT003 OVC011 14/12 A2997 RMK AO2 T01440122=
202207041653 METAR KCLM 041653Z AUTO 35003KT 8SM BKN003 OVC011 14/12 A2997 RMK AO2 SLP148 T01390122=
202207041624 SPECI KCLM 041624Z AUTO 35003KT 6SM BR BKN002 OVC010 14/12 A2997 RMK AO2 T01390122=
202207041553 METAR KCLM 041553Z AUTO 00000KT 7SM SCT005 OVC008 13/12 A2997 RMK AO2 RAB13E46 CIG 007V017 SLP147 P0001 T01330122=
202207041545 SPECI KCLM 041545Z AUTO VRB03KT 6SM -RA BR BKN005 OVC080 13/12 A2997 RMK AO2 RAB13 CIG 002V009 P0001 T01330117=
202207041531 SPECI KCLM 041531Z AUTO 00000KT 9SM -RA FEW004 SCT065 OVC080 14/12 A2996 RMK AO2 RAB13 P0001 T01390122=
202207041453 METAR KCLM 041453Z AUTO 00000KT 9SM OVC080 13/12 A2996 RMK AO2 RAE31 SLP145 P0000 60002 T01330122 53004=
202207041353 METAR KCLM 041353Z AUTO 00000KT 4SM -RA BR FEW065 BKN080 OVC100 13/12 A2995 RMK AO2 SLP143 P0001 T01280117=
202207041253 METAR KCLM 041253Z AUTO 00000KT 3SM -RA BR FEW014 OVC075 13/12 A2995 RMK AO2 SLP142 P0001 T01280117=
202207041246 SPECI KCLM 041246Z AUTO 00000KT 4SM -RA BR SCT014 OVC080 13/11 A2995 RMK AO2 P0001 T01280111=
202207041225 SPECI KCLM 041225Z AUTO 00000KT 5SM -RA BR FEW005 BKN014 OVC080 12/11 A2995 RMK AO2 P0001 T01220111=
202207041217 SPECI KCLM 041217Z AUTO 00000KT 3SM -RA BR FEW005 SCT014 OVC080 12/11 A2995 RMK AO2 P0001 T01220111=
202207041208 SPECI KCLM 041208Z AUTO 00000KT 1 3/4SM -RA BR FEW005 FEW014 OVC080 12/11 A2995 RMK AO2 P0000 T01220111=
202207041153 METAR KCLM 041153Z AUTO 00000KT 5SM -RA BR OVC080 13/11 A2995 RMK AO2 SLP141 P0001 60003 70004 T01280111 10133 20128 53000=
202207041113 SPECI KCLM 041113Z AUTO 00000KT 8SM -RA FEW015 SCT027 OVC080 13/11 A2995 RMK AO2 P0000 T01280111=
202207041053 METAR KCLM 041053Z AUTO 00000KT 8SM -RA SCT015 OVC027 13/12 A2995 RMK AO2 RAB0954 SLP140 P0001 T01280117=
202207041013 SPECI KCLM 041013Z AUTO 00000KT 8SM -RA OVC029 13/12 A2995 RMK AO2 RAB0954 P0000 T01280117=
202207040953 METAR KCLM 040953Z AUTO 00000KT 10SM OVC030 13/12 A2995 RMK AO2 RAB25E52 SLP140 P0001 T01330117=
202207040932 SPECI KCLM 040932Z AUTO 00000KT 10SM -RA SCT014 OVC030 13/12 A2994 RMK AO2 RAB25 P0001 T01330117=
202207040853 METAR KCLM 040853Z AUTO 23003KT 10SM OVC015 13/12 A2995 RMK AO2 SLP140 T01330117 58003=
202207040753 METAR KCLM 040753Z AUTO 17003KT 10SM OVC013 13/11 A2996 RMK AO2 SLP144 T01330111 401610128=
202207040653 METAR KCLM 040653Z AUTO 00000KT 10SM OVC011 13/11 A2996 RMK AO2 SLP144 T01330111=
202207040553 METAR KCLM 040553Z AUTO 00000KT 10SM OVC011 13/11 A2996 RMK AO2 RAE25 SLP143 P0000 60001 T01330111 10144 20128 50001=
202207040453 METAR KCLM 040453Z AUTO 00000KT 10SM -RA OVC011 13/11 A2997 RMK AO2 RAB40 SLP148 P0000 T01330111=
202207040353 METAR KCLM 040353Z AUTO 00000KT 10SM OVC012 13/11 A2996 RMK AO2 RAE31 SLP146 P0000 T01330111=
202207040313 SPECI KCLM 040313Z AUTO 00000KT 9SM -RA OVC010 13/12 A2996 RMK AO2 P0000 T01330117=
202207040253 METAR KCLM 040253Z AUTO 00000KT 10SM -RA OVC009 13/11 A2995 RMK AO2 RAB39 SLP142 P0000 60001 T01330111 53002=
202207040205 SPECI KCLM 040205Z AUTO 00000KT 10SM BKN008 OVC030 13/11 A2995 RMK AO2 T01330111=
202207040153 METAR KCLM 040153Z AUTO 00000KT 10SM FEW008 OVC029 13/11 A2995 RMK AO2 RAB07E43 SLP141 P0001 T01330111=
202207040138 SPECI KCLM 040138Z AUTO 35003KT 9SM -RA FEW008 OVC029 13/11 A2995 RMK AO2 RAB07 P0001 T01330111=
202207040117 SPECI KCLM 040117Z AUTO 00000KT 6SM -RA BR SCT010 OVC029 14/12 A2995 RMK AO2 RAB07 P0000 T01390117=
202207040053 METAR KCLM 040053Z AUTO 31004KT 10SM BKN010 OVC028 13/11 A2995 RMK AO2 RAB23E42 SLP140 P0000 T01330111=
202207040028 SPECI KCLM 040028Z AUTO 33003KT 10SM -RA BKN009 OVC027 14/11 A2995 RMK AO2 RAB23 P0000 T01390111=
202207040000 SPECI KCLM 040000Z AUTO 30006KT 10SM SCT010 BKN026 OVC033 14/11 A2994 RMK AO2 T01440111=
202207032353 METAR KCLM 032353Z AUTO 29004KT 10SM SCT010 BKN014 OVC032 14/11 A2995 RMK AO2 SLP140 T01440111 10150 20139 50003=
202207032253 METAR KCLM 032253Z AUTO 30004KT 10SM OVC011 14/11 A2995 RMK AO2 SLP143 T01390111=
202207032153 METAR KCLM 032153Z AUTO 30006KT 10SM OVC012 14/11 A2995 RMK AO2 SLP142 T01390111=
202207032142 SPECI KCLM 032142Z AUTO 29006KT 10SM FEW007 BKN012 OVC026 14/11 A2995 RMK AO2 T01390111=
202207032134 SPECI KCLM 032134Z AUTO 31006KT 10SM BKN009 BKN012 OVC026 14/11 A2995 RMK AO2 CIG 007V012 T01390111=
202207032121 SPECI KCLM 032121Z AUTO 31007KT 280V360 10SM FEW007 FEW014 OVC026 14/11 A2994 RMK AO2 T01390111=
202207032053 METAR KCLM 032053Z AUTO 31006KT 10SM OVC026 14/11 A2994 RMK AO2 SLP137 T01440111 51004=
202207031953 METAR KCLM 031953Z AUTO 30006KT 10SM OVC028 14/12 A2993 RMK AO2 SLP135 T01440117=
202207031853 METAR KCLM 031853Z AUTO 32006KT 10SM OVC027 14/11 A2994 RMK AO2 SLP138 T01390106=
202207031753 METAR KCLM 031753Z AUTO VRB05KT 10SM OVC024 14/10 A2993 RMK AO2 SLP134 T01440100 10161 20133 53003=
202207031653 METAR KCLM 031653Z AUTO 30005KT 10SM OVC028 16/10 A2992 RMK AO2 SLP132 T01610100=
202207031553 METAR KCLM 031553Z AUTO 29006KT 10SM OVC026 16/10 A2992 RMK AO2 SLP131 T01560100=
202207031453 METAR KCLM 031453Z AUTO 29008KT 10SM OVC026 14/09 A2992 RMK AO2 SLP131 T01440094 52000=
202207031353 METAR KCLM 031353Z AUTO 29008KT 10SM OVC025 14/10 A2992 RMK AO2 SLP131 T01390100=
202207031253 METAR KCLM 031253Z AUTO 26006KT 10SM BKN025 BKN100 13/10 A2992 RMK AO2 SLP130 T01330100=
202207031153 METAR KCLM 031153Z AUTO 28007KT 10SM BKN024 OVC075 14/09 A2992 RMK AO2 LTG DSNT NE SLP131 T01390094 10139 20133 53001=
202207031145 SPECI KCLM 031145Z AUTO 27004KT 10SM BKN024 OVC075 13/09 A2992 RMK AO2 LTG DSNT NE T01330094=
202207031123 SPECI KCLM 031123Z AUTO 27008KT 10SM SCT021 OVC070 14/09 A2991 RMK AO2 T01390094=
202207031053 METAR KCLM 031053Z AUTO 28008G15KT 10SM OVC020 14/09 A2991 RMK AO2 SLP128 T01390094=
202207030953 METAR KCLM 030953Z AUTO 29006KT 10SM OVC018 14/10 A2992 RMK AO2 SLP131 T01390100=
202207030853 METAR KCLM 030853Z AUTO 28008KT 10SM OVC020 14/10 A2991 RMK AO2 SLP130 T01390100 56003=
202207030753 METAR KCLM 030753Z AUTO 28011G20KT 10SM OVC020 14/10 A2992 RMK AO2 SLP130 T01390100 401830111=
202207030653 METAR KCLM 030653Z AUTO 28009KT 10SM OVC020 14/11 A2992 RMK AO2 SLP131 T01390106=
202207030553 METAR KCLM 030553Z AUTO 28010KT 10SM OVC020 14/11 A2992 RMK AO2 SLP133 T01390106 10172 20139 50004=
202207030522 SPECI KCLM 030522Z AUTO 28009KT 10SM SCT013 OVC021 14/11 A2993 RMK AO2 T01390106=
202207030453 METAR KCLM 030453Z AUTO 27006KT 10SM BKN013 OVC020 14/11 A2994 RMK AO2 SLP138 T01390106=
202207030437 SPECI KCLM 030437Z AUTO 28008KT 10SM SCT013 OVC018 14/11 A2993 RMK AO2 T01390106=
202207030418 SPECI KCLM 030418Z AUTO 28009KT 10SM BKN013 OVC018 14/11 A2992 RMK AO2 T01390106=
202207030353 METAR KCLM 030353Z AUTO 27013G20KT 10SM OVC017 14/11 A2992 RMK AO2 SLP131 T01390106=
202207030338 SPECI KCLM 030338Z AUTO 28010KT 10SM BKN017 14/11 A2992 RMK AO2 T01390106=
202207030253 METAR KCLM 030253Z AUTO 29010KT 10SM CLR 14/11 A2991 RMK AO2 SLP129 T01440106 55004=
202207030153 METAR KCLM 030153Z AUTO 30013G22KT 10SM FEW014 16/11 A2991 RMK AO2 SLP128 T01560111=
202207030053 METAR KCLM 030053Z AUTO 31013G18KT 10SM CLR 16/11 A2991 RMK AO2 SLP130 T01560106=
202207022353 METAR KCLM 022353Z AUTO 30010G16KT 10SM CLR 17/11 A2992 RMK AO2 SLP133 T01670106 10183 20161 56012=
202207022253 METAR KCLM 022253Z AUTO 30008KT 10SM CLR 17/11 A2994 RMK AO2 SLP137 T01720106=
202207022153 METAR KCLM 022153Z AUTO 31009G15KT 10SM CLR 17/11 A2995 RMK AO2 SLP141 T01720106=
202207022053 METAR KCLM 022053Z AUTO 30010G16KT 10SM CLR 17/11 A2996 RMK AO2 SLP145 T01720111 58010=
202207021953 METAR KCLM 021953Z AUTO 29011KT 10SM CLR 17/11 A2998 RMK AO2 SLP150 T01670106=
202207021853 METAR KCLM 021853Z AUTO 29010KT 10SM CLR 17/11 A2998 RMK AO2 SLP153 T01720106=
202207021753 METAR KCLM 021753Z AUTO 30010KT 10SM CLR 16/10 A2999 RMK AO2 SLP156 T01610100 10161 20111 58007=
202207021653 METAR KCLM 021653Z AUTO 31007KT 10SM CLR 14/10 A3000 RMK AO2 SLP159 T01440100=
202207021627 SPECI KCLM 021627Z AUTO 30010KT 10SM FEW016 14/09 A3001 RMK AO2 T01440094=
202207021553 METAR KCLM 021553Z AUTO 30009KT 10SM OVC015 14/09 A3001 RMK AO2 SLP163 T01390094=
202207021540 SPECI KCLM 021540Z AUTO 31009KT 10SM BKN015 14/09 A3001 RMK AO2 T01390094=
202207021453 METAR KCLM 021453Z AUTO 28007G16KT 10SM CLR 13/09 A3001 RMK AO2 SLP163 T01330094 56003=
202207021353 METAR KCLM 021353Z AUTO 28007KT 10SM CLR 12/09 A3001 RMK AO2 SLP163 T01220094=
202207021253 METAR KCLM 021253Z AUTO 27007KT 10SM CLR 12/09 A3001 RMK AO2 SLP164 T01170089=
202207021153 METAR KCLM 021153Z AUTO 27007KT 10SM CLR 11/09 A3002 RMK AO2 SLP166 T01110089 10128 20111 55003=
202207021053 METAR KCLM 021053Z AUTO 29007KT 10SM CLR 12/09 A3002 RMK AO2 SLP165 T01170094=
202207020953 METAR KCLM 020953Z AUTO 28007KT 10SM CLR 12/09 A3002 RMK AO2 SLP166 T01170094=
202207020853 METAR KCLM 020853Z AUTO 28009KT 10SM CLR 12/10 A3003 RMK AO2 SLP169 T01220100 56008=
202207020753 METAR KCLM 020753Z AUTO 28011KT 10SM CLR 12/10 A3003 RMK AO2 SLP169 T01220100 401890122=
202207020653 METAR KCLM 020653Z AUTO 28010KT 10SM CLR 12/10 A3004 RMK AO2 SLP173 T01220100=
202207020553 METAR KCLM 020553Z AUTO 27013G19KT 10SM CLR 13/10 A3005 RMK AO2 SLP177 T01280100 10183 20128 58003=
202207020453 METAR KCLM 020453Z AUTO 28012KT 10SM FEW011 13/11 A3006 RMK AO2 SLP179 T01280106=
202207020443 SPECI KCLM 020443Z AUTO 27010G21KT 10SM SCT011 13/11 A3006 RMK AO2 T01330106=
202207020353 METAR KCLM 020353Z AUTO 28013KT 10SM OVC010 14/11 A3006 RMK AO2 SLP179 T01390106=
202207020317 SPECI KCLM 020317Z AUTO 29013G21KT 10SM BKN010 14/11 A3006 RMK AO2 T01440111=
202207020253 METAR KCLM 020253Z AUTO 28013G24KT 10SM FEW011 14/11 A3006 RMK AO2 SLP180 T01440111 55006=
202207020153 METAR KCLM 020153Z AUTO 31008G17KT 10SM CLR 17/11 A3006 RMK AO2 SLP180 T01720106=
202207020053 METAR KCLM 020053Z AUTO 30012G18KT 10SM CLR 17/11 A3007 RMK AO2 SLP183 T01720106=
202207012353 METAR KCLM 012353Z AUTO 30011G19KT 10SM CLR 18/11 A3008 RMK AO2 SLP187 T01830106 10189 20161 56010=
202207012253 METAR KCLM 012253Z AUTO 30010G17KT 10SM CLR 18/11 A3009 RMK AO2 SLP190 T01780111=
202207012153 METAR KCLM 012153Z AUTO 31008G19KT 290V350 10SM CLR 18/11 A3010 RMK AO2 SLP193 T01780111=
202207012053 METAR KCLM 012053Z AUTO 30010G20KT 10SM CLR 18/12 A3011 RMK AO2 SLP197 T01780117 57001=
202207011953 METAR KCLM 011953Z AUTO 30011G19KT 10SM CLR 17/12 A3011 RMK AO2 SLP197 T01720117=
202207011853 METAR KCLM 011853Z AUTO 29011G17KT 10SM CLR 17/12 A3012 RMK AO2 SLP198 T01720117=
202207011753 METAR KCLM 011753Z AUTO 30010KT 10SM SCT012 16/11 A3012 RMK AO2 SLP198 T01610111 10161 20122 50003=
202207011653 METAR KCLM 011653Z AUTO 31008G16KT 10SM OVC010 14/11 A3012 RMK AO2 SLP199 T01440111=
202207011553 METAR KCLM 011553Z AUTO 31007KT 10SM OVC009 14/11 A3011 RMK AO2 SLP197 T01440111=
202207011453 METAR KCLM 011453Z AUTO 31008G16KT 10SM OVC007 14/11 A3011 RMK AO2 SLP195 T01390111 51005=
202207011404 SPECI KCLM 011404Z AUTO 29010KT 10SM BKN007 13/11 A3011 RMK AO2 T01330106=
202207011353 METAR KCLM 011353Z AUTO 30009KT 10SM SCT007 13/11 A3010 RMK AO2 SLP194 T01280106=
202207011326 SPECI KCLM 011326Z AUTO 29009G17KT 10SM FEW008 12/11 A3010 RMK AO2 T01220106=
202207011253 METAR KCLM 011253Z AUTO 29011KT 10SM CLR 12/10 A3010 RMK AO2 SLP192 T01220100=
202207011153 METAR KCLM 011153Z AUTO 29010KT 10SM CLR 12/10 A3009 RMK AO2 SLP190 T01220100 10139 20122 54000=
202207011053 METAR KCLM 011053Z AUTO 29010KT 10SM CLR 12/10 A3009 RMK AO2 SLP190 T01220100=
202207010953 METAR KCLM 010953Z AUTO 29009KT 10SM CLR 12/10 A3009 RMK AO2 SLP190 T01220100=
202207010853 METAR KCLM 010853Z AUTO 30005KT 10SM CLR 12/10 A3009 RMK AO2 SLP190 T01220100 56003=
202207010753 METAR KCLM 010753Z AUTO 28007KT 10SM CLR 13/10 A3010 RMK AO2 SLP191 T01330100 402000094=
202207010653 METAR KCLM 010653Z AUTO 28006KT 10SM CLR 13/11 A3010 RMK AO2 SLP192 T01280106=
202207010553 METAR KCLM 010553Z AUTO 28008KT 10SM CLR 14/11 A3010 RMK AO2 SLP194 T01390106 10200 20139 53001=
202207010453 METAR KCLM 010453Z AUTO 27012KT 10SM CLR 14/10 A3010 RMK AO2 SLP194 T01440100=
202207010353 METAR KCLM 010353Z AUTO 28009G18KT 10SM OVC065 16/11 A3010 RMK AO2 SLP191 T01610106=
202207010253 METAR KCLM 010253Z AUTO 30007KT 10SM OVC060 18/11 A3010 RMK AO2 SLP192 T01780111 56008=
202207010153 METAR KCLM 010153Z AUTO 28009G15KT 10SM OVC060 19/12 A3010 RMK AO2 SLP192 T01890122=
202207010053 METAR KCLM 010053Z AUTO 30007KT 10SM OVC060 19/12 A3011 RMK AO2 SLP196 T01940122=

# No short TAF reports from KCLM in databse.

###################################
#  large TAF from KCLM
###################################
202207312330 TAF KCLM 312330Z 0100/0124 29010KT P6SM SKC FM011200 29006KT P6SM
                       BKN005=
202207311734 TAF KCLM 311734Z 3118/0118 01005KT P6SM SKC FM312300 29013KT P6SM
                       SKC FM011200 29006KT P6SM BKN005=
202207311126 TAF KCLM 311126Z 3112/0112 29006KT P6SM SKC FM311700 01005KT P6SM
                       SKC FM312300 29010KT P6SM SKC FM010900 29006KT
                       P6SM BKN005=
202207310538 TAF KCLM 310538Z 3106/0106 29006KT P6SM SKC FM311700 01005KT P6SM
                       SKC FM312300 30007KT P6SM SKC=
202207302325 TAF KCLM 302325Z 3100/3124 29006KT P6SM SKC FM311700 01005KT P6SM
                       SKC FM312300 30007KT P6SM SKC=
202207301733 TAF KCLM 301733Z 3018/3118 24006KT P6SM SKC FM302100 29006KT P6SM
                       SKC=
202207301125 TAF KCLM 301125Z 3012/3112 24006KT P6SM SKC FM301800 29006KT P6SM
                       SKC=
202207300539 TAF KCLM 300539Z 3006/3106 29006KT P6SM SKC=
202207292331 TAF KCLM 292331Z 3000/3024 29006KT P6SM SKC FM300700 31010KT P6SM
                       SKC FM301700 33005KT P6SM SKC=
202207291737 TAF KCLM 291737Z 2918/3018 29006KT P6SM SKC FM300700 31010KT P6SM
                       SKC=
202207291126 TAF KCLM 291126Z 2912/3012 29006KT P6SM SKC=
202207290538 TAF KCLM 290538Z 2906/3006 29006KT P6SM SKC FM290900 29006KT 5SM
                       BR BKN003 FM291600 29006KT P6SM SKC=
202207282320 TAF KCLM 282320Z 2900/2924 31010KT P6SM SKC FM290900 31007KT 5SM
                       BR BKN003
                      TEMPO 2910/2914 1SM BR OVC002 FM291600 29007KT
                       P6SM SKC=
202207281720 TAF KCLM 281720Z 2818/2918 30007KT P6SM SKC FM291100 29007KT 2SM
                       BR BKN002 FM291400 29007KT P6SM SKC=
202207281121 TAF KCLM 281121Z 2812/2912 29006KT 3SM BR OVC002 FM281500 29008KT
                       P6SM SCT005 FM281700 29008KT P6SM SKC=
202207281029 KCLM 281029Z 2810/2906 29006KT P6SM OVC002 FM281500 29008KT P6SM
                       SCT005 FM281700 29008KT P6SM SKC=
202207280534 TAF KCLM 280534Z 2806/2906 29008KT P6SM SKC
                      TEMPO 2812/2814 SCT003=
202207272322 TAF KCLM 272322Z 2800/2824 30008KT P6SM SCT250 FM281200 26006KT
                       P6SM SCT003 FM281600 26006KT P6SM SKC=
202207271743 TAF KCLM 271743Z 2718/2818 31006KT P6SM SKC FM271900 33010KT P6SM
                       FEW150 FM280000 31007KT P6SM FEW150=
202207271120 TAF KCLM 271120Z 2712/2812 28008KT P6SM SKC FM271900 33010KT P6SM
                       FEW150 FM280000 31007KT P6SM FEW150=
202207270520 TAF KCLM 270520Z 2706/2806 33003KT P6SM SKC FM271900 30010KT P6SM
                       FEW150=
202207262348 TAF KCLM 262348Z 2700/2724 VRB04KT P6SM SKC FM270300 29008KT P6SM
                       SKC FM271900 30010KT P6SM FEW150=
202207261720 TAF KCLM 261720Z 2618/2718 08005KT P6SM SKC FM262300 04004KT P6SM
                       SKC FM270700 31008KT P6SM FEW250=
202207261120 TAF KCLM 261120Z 2612/2712 24003KT P6SM SKC FM261600 07005KT P6SM
                       SKC FM262100 04004KT P6SM SKC FM270700 31008KT
                       P6SM FEW250=
202207260520 TAF KCLM 260520Z 2606/2706 00000KT P6SM SKC FM261600 07005KT P6SM
                       SKC FM262100 04004KT P6SM SKC=
202207252320 TAF KCLM 252320Z 2600/2624 09006KT P6SM SKC FM260500 31005KT P6SM
                       BKN250 FM261600 07005KT P6SM SKC=
202207251720 TAF KCLM 251720Z 2518/2618 09009KT P6SM SKC FM260500 31005KT P6SM
                       BKN250 FM261600 07005KT P6SM SKC=
202207251120 TAF KCLM 251120Z 2512/2612 00000KT P6SM SKC FM251600 07004KT P6SM
                       SKC FM260600 30008KT P6SM BKN250=
202207250520 TAF KCLM 250520Z 2506/2606 VRB03KT P6SM SKC FM250900 29004KT P6SM
                       SCT250 FM251600 07004KT P6SM SKC=
202207250303 KCLM 250303Z 2503/2524 30003KT P6SM SCT200 FM251600 07004KT P6SM
                       SKC=
202207242320 TAF KCLM 242320Z 2500/2524 05006KT P6SM SKC FM250300 29006KT 2SM
                       BR FEW005 FM251400 07006KT P6SM SKC=
202207241720 TAF KCLM 241720Z 2418/2518 05004KT 6SM BR FEW002 FM242300 33005KT
                       P6SM SKC FM250500 29008KT 1 1/2SM BR FEW005
                       FM251400 05006KT P6SM SKC=
202207241436 KCLM 241436Z 2415/2512 30004KT 3SM BR BKN002 FM241600 34004KT 6SM
                       BR FEW002 FM242000 05005KT P6SM SKC FM250500
                       29008KT 1 1/2SM BR BKN004=
202207241253 KCLM 241253Z 2413/2512 30004KT 1/2SM FG VV001 FM241600 34004KT
                       1/2SM FG OVC003 FM242000 05005KT P6SM SKC
                       FM250500 29008KT 1 1/2SM BR BKN004=
202207241120 TAF KCLM 241120Z 2412/2512 30004KT 1/2SM FG VV002 FM241600 34004KT
                       1/2SM FG OVC003 FM242000 05005KT P6SM SKC
                       FM250500 29008KT 1 1/2SM BR BKN004=
202207240847 KCLM 240847Z 2409/2506 29004KT 1SM BR OVC002 FM241100 28005KT 1SM
                       BR OVC004 FM241700 05005KT P6SM SKC=
202207240725 KCLM 240725Z 2407/2506 29004KT P6SM BKN004 FM241100 28005KT P6SM
                       OVC004 FM241700 05005KT P6SM SKC=
202207240520 TAF KCLM 240520Z 2406/2506 27006KT P6SM SKC FM241100 28005KT P6SM
                       SCT012 FM241700 05005KT P6SM SKC=
202207232320 TAF KCLM 232320Z 2400/2424 32008KT P6SM SKC FM241100 28005KT P6SM
                       SCT012 FM241700 05005KT P6SM SKC=
202207231720 TAF KCLM 231720Z 2318/2418 29007KT P6SM OVC030 FM232000 34007KT
                       P6SM SCT030 FM232200 30008KT P6SM SKC FM241100
                       28005KT P6SM SCT012=
202207231120 TAF KCLM 231120Z 2312/2412 27007KT P6SM BKN015 FM231900 33008KT
                       P6SM BKN020 FM232100 34007KT P6SM SCT030
                       FM232300 30008KT P6SM SKC FM241100 28005KT
                       P6SM SCT012=
202207230520 TAF KCLM 230520Z 2306/2406 29011KT P6SM SCT250 FM231000 27008KT
                       P6SM OVC010
                      TEMPO 2314/2316 4SM BR OVC005 FM231800 33008KT
                       P6SM BKN020 FM232000 34007KT P6SM SCT030
                       FM232300 30008KT P6SM SKC=
202207230220 KCLM 230220Z 2302/2324 30012G20KT P6SM FEW015 FM230600 29009KT
                       P6SM SCT050 FM231000 27008KT P6SM OVC010
                       FM231800 33008KT P6SM BKN020 FM232000 34007KT
                       P6SM SCT030=
202207230017 KCLM 230017Z 2300/2324 32010KT P6SM FEW015 FM230200 30012KT P6SM
                       BKN020 FM230600 29009KT P6SM SCT050 FM231000
                       27008KT P6SM OVC010 FM231800 33008KT P6SM
                       BKN020 FM232000 34007KT P6SM SCT030=
202207222320 TAF KCLM 222320Z 2300/2324 32010KT P6SM OVC015 FM230200 30012KT
                       P6SM BKN020 FM230600 29009KT P6SM SCT050
                       FM231000 27008KT P6SM OVC010 FM231800 33008KT
                       P6SM BKN020 FM232000 34007KT P6SM SCT030=
202207221720 TAF KCLM 221720Z 2218/2318 31008KT P6SM OVC010 FM221900 32011KT
                       P6SM OVC015 FM222200 32012G20KT P6SM BKN050
                       FM230600 29009KT P6SM SCT050 FM231000 27008KT
                       P6SM OVC010=
202207221120 TAF KCLM 221120Z 2212/2312 28008KT 6SM BR SCT007 OVC010
                      TEMPO 2212/2216 2SM BR BKN007 FM221600 31008KT
                       P6SM OVC012 FM221900 32011KT P6SM OVC020
                       FM222200 32012G20KT P6SM BKN050 FM230600
                       29009KT P6SM SCT050 FM231000 27008KT P6SM
                       OVC025=
202207220803 KCLM 220803Z 2208/2306 29013G20KT P6SM SCT250 FM221000 29012KT
                       2SM BR OVC004 FM221500 31008KT P6SM OVC008
                       FM221800 32008KT P6SM OVC020 FM222000 32012G20KT
                       P6SM BKN050=
202207220520 TAF KCLM 220520Z 2206/2306 29013G20KT P6SM SCT250 FM220800 29012KT
                       2SM BR OVC004 FM221500 31008KT P6SM OVC008
                       FM221800 32008KT P6SM OVC020 FM222000 32012G20KT
                       P6SM BKN050=
202207212321 TAF KCLM 212321Z 2200/2224 31007KT P6SM SCT250 FM220300 29013G20KT
                       P6SM SCT250 FM220800 29012KT 2SM BR OVC004
                       FM221500 31008KT P6SM OVC008 FM221800 32008KT
                       P6SM OVC020 FM222000 32012KT P6SM BKN050=
202207211728 TAF KCLM 211728Z 2118/2218 32007KT P6SM SCT005
                      TEMPO 2118/2119 BKN005 FM211900 33009KT P6SM
                       FEW120 SCT250 FM220100 29012G18KT P6SM SCT250
                       FM220800 30012KT 2SM BR OVC004=
202207211123 TAF KCLM 211123Z 2112/2212 29004KT 2SM BR OVC002
                      TEMPO 2112/2115 1/4SM FG FM211600 32006KT
                       6SM BR BKN005 FM211800 33008KT P6SM SCT250
                       FM220100 29012G18KT P6SM SCT250 FM220800
                       30012KT 2SM BR OVC004=
202207210520 TAF KCLM 210520Z 2106/2206 28004KT P6SM SCT250 FM211100 29004KT
                       6SM BR OVC003 FM211600 32006KT P6SM BKN005
                       FM211800 33008KT P6SM SCT250=
202207202320 TAF KCLM 202320Z 2100/2124 36005KT P6SM SKC FM210300 30006KT P6SM
                       SKC FM211000 29004KT 6SM BR OVC003 FM211600
                       32006KT P6SM BKN005 FM211800 33008KT P6SM
                       SCT250=
202207201720 TAF KCLM 201720Z 2018/2118 36006KT P6SM SKC FM210300 30006KT P6SM
                       SKC FM210800 29004KT 6SM BR OVC003=
202207201605 KCLM 201605Z 2016/2112 VRB03KT P6SM SKC FM201800 34006KT P6SM SKC
                       FM202000 32007KT P6SM SKC FM210800 29006KT
                       6SM BR OVC003=
202207201120 TAF KCLM 201120Z 2012/2112 VRB03KT 2SM BR OVC002
                      TEMPO 2012/2014 1/2SM FG FM201800 34006KT
                       P6SM FEW011 FM202000 32007KT P6SM SKC FM210800
                       29006KT 6SM BR OVC003=
202207200520 TAF KCLM 200520Z 2006/2106 29008KT P6SM FEW250 FM201000 29005KT
                       P6SM OVC006 FM201900 34006KT P6SM FEW011
                       FM202300 32007KT P6SM SKC=
202207192328 TAF KCLM 192328Z 2000/2024 35008KT P6SM SKC FM200100 29008KT P6SM
                       SKC FM201000 29005KT P6SM OVC010 FM201900
                       34006KT P6SM FEW011 FM202300 32007KT P6SM
                       SKC=
202207191720 TAF KCLM 191720Z 1918/2018 35008KT P6SM SKC FM200100 29008KT P6SM
                       SKC FM201000 29005KT P6SM OVC010=
202207191120 TAF KCLM 191120Z 1912/2012 VRB04KT P6SM SCT008
                      TEMPO 1912/1916 BKN008 FM191900 32010KT P6SM
                       SKC=
202207190520 TAF KCLM 190520Z 1906/2006 28004KT P6SM SKC FM191000 25004KT P6SM
                       BKN010 FM191800 32008KT P6SM FEW020 FM191900
                       32010KT P6SM SKC=
202207182320 TAF KCLM 182320Z 1900/1924 31006KT P6SM OVC022 FM190200 29008KT
                       P6SM SCT025 FM191000 25004KT P6SM BKN010
                       FM191800 32008KT P6SM FEW020=
202207182107 KCLM 182107Z 1821/1918 31008KT P6SM OVC022 FM190000 29008KT P6SM
                       SCT030 SCT250 FM190900 25004KT P6SM FEW250=
202207181720 TAF KCLM 181720Z 1818/1918 31008KT P6SM OVC020 FM182100 34008KT
                       P6SM SCT025 FM190100 29008KT P6SM FEW250
                       FM190900 25004KT P6SM FEW250=
202207181417 KCLM 181417Z 1814/1912 27006KT P6SM SCT025 SCT050
                      TEMPO 1814/1818 BKN025 BKN045 FM182100 34005KT
                       P6SM FEW250 FM190100 30008KT P6SM FEW250=
202207181120 TAF KCLM 181120Z 1812/1912 28009KT P6SM BKN070 FM181300 26007KT
                       P6SM OVC020 FM181800 03006KT P6SM FEW020
                       FM182100 04005KT P6SM FEW250 FM190100 30008KT
                       P6SM FEW250=
202207180521 TAF KCLM 180521Z 1806/1906 28011KT P6SM VCSH FEW013 BKN100 OVC110
                       FM180800 27008KT P6SM BKN100 FM181300 26007KT
                       P6SM OVC020 FM181800 03006KT P6SM FEW020
                       FM182100 04005KT P6SM FEW150=
202207180428 KCLM 180428Z 1804/1824 32008KT P6SM VCSH OVC090 FM180800 32008KT
                       P6SM BKN090 FM181300 25007KT P6SM OVC015
                       FM181700 33006KT P6SM OVC035=
202207172339 TAF KCLM 172339Z 1800/1824 32008KT P6SM BKN060 FM181300 25007KT
                       P6SM OVC015 FM181700 33006KT P6SM OVC035=
202207171727 TAF KCLM 171727Z 1718/1818 27007KT P6SM OVC070 FM172100 32008KT
                       P6SM BKN060 FM181300 25007KT P6SM OVC015=
202207171120 TAF KCLM 171120Z 1712/1812 27007KT P6SM OVC060 FM172100 32008KT
                       P6SM BKN060 FM180900 28009KT P6SM OVC015=
202207170520 TAF KCLM 170520Z 1706/1806 27007KT P6SM OVC050 FM171200 32008KT
                       P6SM OVC040 FM172100 32008KT P6SM BKN050=
202207162324 TAF KCLM 162324Z 1700/1724 30008G15KT P6SM OVC040 FM170600 28008KT
                       P6SM BKN070=
202207161732 TAF KCLM 161732Z 1618/1718 30006KT P6SM OVC035 FM162300 31008G14KT
                       P6SM OVC050 FM170600 28008KT P6SM BKN070=
202207161435 KCLM 161435Z 1615/1712 28006KT P6SM BKN030
                      TEMPO 1615/1618 BKN008 FM161800 30010KT P6SM
                       BKN070 FM170800 29007KT P6SM BKN015=
202207161318 KCLM 161318Z 1613/1712 28005KT P6SM OVC005 FM161500 31006KT P6SM
                       BKN025 FM161800 30010KT P6SM BKN070 FM170800
                       29007KT P6SM BKN015=
202207161122 TAF KCLM 161122Z 1612/1712 28005KT P6SM BKN010 OVC030 FM161600
                       31006KT P6SM BKN030 FM162000 30010KT P6SM
                       BKN070 FM170800 29007KT P6SM BKN015=
202207161000 KCLM 161000Z 1610/1706 28005KT P6SM OVC005 FM161300 29003KT P6SM
                       OVC007 FM161600 31006KT P6SM OVC035 FM162200
                       19010KT P6SM BKN070=
202207160520 TAF KCLM 160520Z 1606/1706 28004KT P6SM BKN035 FM160800 28005KT
                       P6SM BKN007 OVC015 FM161300 29003KT P6SM
                       OVC015 FM161600 31006KT P6SM OVC035 FM162200
                       19010KT P6SM BKN070=
202207152321 TAF KCLM 152321Z 1600/1624 35006KT P6SM OVC070 FM160600 28004KT
                       P6SM OVC020 FM161000 28005KT P6SM BKN007
                       OVC015 FM161300 29007KT P6SM OVC015 FM161600
                       30006KT P6SM OVC035 FM162200 31010KT P6SM
                       BKN050=
202207151731 TAF KCLM 151731Z 1518/1618 09007KT P6SM BKN120 FM152000 28008KT
                       P6SM BKN050 FM160000 31006KT P6SM OVC040
                       FM160600 28004KT P6SM OVC020 FM161000 28005KT
                       P6SM BKN007 OVC015 FM161500 29007KT P6SM
                       OVC015=
202207151120 TAF KCLM 151120Z 1512/1612 28006KT P6SM BKN200 FM151400 27003KT
                       P6SM OVC015 FM151800 35004KT P6SM OVC100
                       FM160000 31006KT P6SM OVC040 FM160600 28004KT
                       P6SM OVC020=
202207150520 TAF KCLM 150520Z 1506/1606 28006KT P6SM BKN200 FM151400 27003KT
                       P6SM OVC015 FM151800 35004KT P6SM OVC100
                       FM160000 31006KT P6SM OVC040=
202207142321 KCLM 142321Z 1423/1524 31007KT P6SM SKC FM150600 28005KT P6SM BKN200
                       FM151400 27003KT P6SM OVC015 FM151800 35004KT
                       P6SM OVC100=
202207142320 TAF KCLM 142320Z 1500/1524 31007KT P6SM SKC FM150600 28005KT P6SM
                       BKN200 FM151400 27003KT P6SM OVC015=
202207141732 TAF KCLM 141732Z 1418/1518 33007KT P6SM SCT250 FM150100 29009KT
                       P6SM SCT200 FM150600 28005KT P6SM BKN200
                       FM151400 27003KT P6SM OVC015=
202207141120 TAF KCLM 141120Z 1412/1512 28007KT P6SM SCT008 SCT200
                      TEMPO 1412/1416 BKN008 FM141700 33007KT P6SM
                       SCT200 FM150100 28009KT P6SM SCT200 FM150600
                       28005KT P6SM BKN200=
202207140520 TAF KCLM 140520Z 1406/1506 29010KT P6SM SCT200 FM141100 28007KT
                       P6SM SCT008 SCT200
                      TEMPO 1412/1416 BKN008 FM141700 33007KT P6SM
                       SCT200 FM150100 28009KT P6SM SCT200=
202207132320 TAF KCLM 132320Z 1400/1424 30013G21KT P6SM SCT200 FM140800 29010KT
                       P6SM SCT200 FM141100 28007KT P6SM SCT008
                       SCT200
                      TEMPO 1412/1416 BKN008 FM141800 33007KT P6SM
                       SCT200=
202207131721 TAF KCLM 131721Z 1318/1418 30010KT P6SM SCT200 FM132300 30013G21KT
                       P6SM SCT200 FM140800 29010KT P6SM SCT200
                       FM141200 28007KT P6SM SCT008 SCT200=
202207131120 TAF KCLM 131120Z 1312/1412 29010KT P6SM BKN250 FM131800 29012G21KT
                       P6SM SCT250 FM140700 28009KT P6SM SCT250=
202207130523 TAF KCLM 130523Z 1306/1406 29012G21KT P6SM SKC FM130800 29010KT
                       P6SM SKC FM131200 29010KT P6SM SCT011 FM131800
                       29012G21KT P6SM SKC=
202207122333 TAF KCLM 122333Z 1300/1324 29014G20KT P6SM SKC FM130800 29010KT
                       P6SM SKC FM131200 29010KT P6SM SCT011 FM131800
                       29010KT P6SM SKC=
202207121720 TAF KCLM 121720Z 1218/1318 29010KT P6SM BKN011 FM121900 29010KT
                       P6SM SCT015 FM130200 29014G20KT P6SM SKC
                       FM130800 29010KT P6SM SKC FM131200 29010KT
                       P6SM OVC010 FM131700 29010KT P6SM SCT011=
202207121120 TAF KCLM 121120Z 1212/1312 29006KT P6SM SKC
                      TEMPO 1212/1216 BKN003 FM121600 32010KT P6SM
                       SCT250 FM122000 31013G22KT P6SM SCT250 FM130000
                       29016G25KT P6SM SCT250 FM130800 28012KT
                       P6SM BKN250=
202207120520 TAF KCLM 120520Z 1206/1306 29006KT P6SM SKC FM121600 32010KT P6SM
                       SKC FM122000 31013G22KT P6SM SKC FM130000
                       29016G25KT P6SM SCT250=
202207112329 TAF KCLM 112329Z 1200/1224 34007KT P6SM SKC FM120200 30009G15KT
                       P6SM SKC FM122000 31011G17KT P6SM SKC=
202207111723 TAF KCLM 111723Z 1118/1218 VRB05KT P6SM SKC FM112300 34007KT P6SM
                       SKC FM120200 30009G15KT P6SM SKC=
202207111450 KCLM 111450Z 1115/1212 00000KT P6SM FEW002 FM111800 34008KT P6SM
                       SKC FM120100 29008KT P6SM SKC=
202207111121 TAF KCLM 111121Z 1112/1212 22004KT P6SM FEW002
                      TEMPO 1112/1116 1SM BR BKN002 FM111800 34008KT
                       P6SM SKC FM120100 29008KT P6SM SKC=
202207100523 TAF KCLM 100523Z 1006/1106 27010G18KT P6SM SCT120 FM100800 28007KT
                       P6SM BKN070 FM101000 27005KT P6SM OVC004
                       FM101700 32006KT P6SM BKN015 BKN080 FM101900
                       34006KT P6SM SCT040 BKN080 FM110000 29007KT
                       P6SM SCT080=
202207100301 KCLM 100301Z 1003/1024 29010KT P6SM BKN120 FM100700 28007KT P6SM
                       BKN070 FM101000 27005KT P6SM OVC004 FM101700
                       32006KT P6SM BKN015 BKN080 FM102100 34006KT
                       P6SM SCT040 BKN080=
202207092322 TAF KCLM 092322Z 1000/1024 31008G17KT P6SM SCT060 BKN200 FM100600
                       28008KT P6SM BKN070 FM101100 27005KT P6SM
                       OVC019 FM101700 32006KT P6SM OVC035=
202207091739 TAF KCLM 091739Z 0918/1018 31007KT P6SM SCT060 FM091900 31008G17KT
                       P6SM SCT060 BKN250 FM100600 28008KT P6SM
                       BKN070 FM101600 31007KT P6SM OVC020=
202207091120 TAF KCLM 091120Z 0912/1012 27005KT P6SM BKN060 FM091900 32010KT
                       P6SM SCT060 FM100200 29012G18KT P6SM BKN070
                       FM100600 28008KT P6SM BKN070=
202207090523 TAF KCLM 090523Z 0906/1006 26010KT P6SM BKN070 FM091100 28006KT
                       P6SM BKN005 BKN060 FM091700 31008KT P6SM
                       BKN010 BKN060 FM091900 32010KT P6SM SCT060
                       FM100200 29010G16KT P6SM BKN080=
202207082320 TAF KCLM 082320Z 0900/0924 VRB04KT P6SM BKN060 FM090200 29009KT
                       P6SM SCT120 SCT200 FM091100 28007KT P6SM
                       OVC004 FM091700 31008KT P6SM OVC020=
202207081722 TAF KCLM 081722Z 0818/0918 30006KT P6SM SCT060 BKN100 FM082300
                       31009KT P6SM BKN100 BKN200 FM090200 29009KT
                       P6SM SCT120 SCT200 FM091100 28007KT P6SM
                       BKN070=
202207081120 TAF KCLM 081120Z 0812/0912 29006KT P6SM OVC060 FM081800 33006KT
                       P6SM SCT060 BKN120 FM082300 31009KT P6SM
                       SCT120 BKN200 FM090200 29009KT P6SM SCT200=
202207080522 TAF KCLM 080522Z 0806/0906 28005KT P6SM FEW040 BKN080 FM080900
                       27005KT P6SM BKN050 FM081800 33006KT P6SM
                       SCT060 BKN120 FM082300 31009KT P6SM SCT120
                       BKN200=
202207080145 KCLM 080145Z 0802/0824 29008KT P6SM VCSH SCT070
                      TEMPO 0802/0803 -SHRA BKN060 FM080900 27005KT
                       P6SM BKN050 FM081800 33006KT P6SM SCT060
                       BKN120 FM082300 31009KT P6SM SCT120 BKN200=
202207072321 TAF KCLM 072321Z 0800/0824 30007KT P6SM BKN060 BKN100 FM080200
                       29008KT P6SM SCT050 BKN100 FM080900 27005KT
                       P6SM BKN050 FM081800 33006KT P6SM SCT060
                       BKN120 FM082300 31009KT P6SM SCT120 BKN200=
202207071725 TAF KCLM 071725Z 0718/0818 33005KT P6SM BKN030 BKN100
                      TEMPO 0719/0722 SCT035 BKN100 FM072200 32007KT
                       P6SM BKN050 BKN100 FM080200 29008KT P6SM
                       SCT050 BKN100 FM080900 29005KT P6SM BKN050=
202207071127 TAF KCLM 071127Z 0712/0812 27007KT P6SM OVC015 FM071800 30005KT
                       P6SM OVC025 FM072000 32007KT P6SM BKN050
                       BKN100 FM080100 29006KT P6SM SCT050 BKN100=
202207070901 KCLM 070901Z 0709/0806 25004KT P6SM OVC010 FM071800 30005KT P6SM
                       OVC020 FM072000 32007KT P6SM BKN050 BKN100
                       FM080100 29006KT P6SM SCT050 BKN100=
202207070522 TAF KCLM 070522Z 0706/0806 29003KT P6SM SCT015 SCT100
                      TEMPO 0706/0709 BKN015 BKN100 FM070900 29004KT
                       6SM BR OVC005 FM071800 30005KT P6SM OVC020
                       FM072000 32007KT P6SM BKN050 BKN100 FM080100
                       29006KT P6SM SCT050 BKN100=
202207062322 TAF KCLM 062322Z 0700/0724 32005KT P6SM FEW050 OVC080 FM070300
                       29005KT P6SM OVC060 FM070900 29004KT 6SM
                       BR OVC005 FM071700 30005KT P6SM OVC020=
202207061727 TAF KCLM 061727Z 0618/0718 33004KT P6SM VCSH SCT080 OVC100 FM062000
                       VRB04KT P6SM OVC050 FM070200 29005KT P6SM
                       OVC100 FM070500 29004KT P6SM OVC050=
202207061139 TAF KCLM 061139Z 0612/0712 33004KT P6SM VCSH SCT050 SCT100 FM062100
                       VRB04KT P6SM OVC050 FM070200 29005KT P6SM
                       OVC100 FM070500 29004KT P6SM OVC050=
202207060535 TAF KCLM 060535Z 0606/0706 30004KT P6SM OVC080 FM061200 33004KT
                       P6SM -RA OVC015 FM062100 VRB04KT P6SM OVC050=
202207052321 TAF KCLM 052321Z 0600/0624 35003KT P6SM VCSH OVC100 FM060700 30004KT
                       P6SM OVC070 FM061200 30004KT P6SM OVC050=
202207051720 TAF KCLM 051720Z 0518/0618 VRB04KT P6SM FEW250 FM060000 35003KT
                       P6SM OVC100 FM060700 30003KT P6SM OVC070
                       FM061100 30004KT P6SM OVC050=
202207051138 TAF KCLM 051138Z 0512/0612 23004KT 3SM BR SCT003 FM051700 02004KT
                       6SM BR OVC050 FM060000 35003KT P6SM OVC100
                       FM060700 30003KT P6SM OVC050=
202207050520 TAF KCLM 050520Z 0506/0606 31004KT P6SM VCSH FEW040 SCT060 OVC070
                       FM050700 28005KT P6SM OVC060 FM051000 28004KT
                       P6SM OVC004 FM051700 02004KT 6SM BR OVC050=
202207050305 KCLM 050305Z 0503/0524 31004KT P6SM VCSH FEW040 SCT060 OVC070 FM050700
                       28005KT P6SM OVC060 FM051000 28004KT P6SM
                       OVC004 FM051700 02004KT 6SM BR OVC050=
202207050111 KCLM 050111Z 0501/0524 30003KT P6SM VCSH OVC030 FM050400 28004KT
                       P6SM BKN025 OVC040 FM050700 28005KT P6SM
                       OVC060 FM051000 28004KT P6SM OVC004 FM051700
                       02004KT 6SM BR OVC050=
202207042329 TAF KCLM 042329Z 0500/0524 33003KT P6SM BKN040 OVC080 FM050300
                       28004KT P6SM BKN025 OVC040 FM050700 28005KT
                       P6SM OVC060 FM051000 28004KT P6SM OVC004
                       FM051700 02004KT 6SM BR OVC050=
202207041928 KCLM 041928Z 0419/0518 VRB03KT P6SM VCSH SCT005 OVC025 FM042300
                       31008KT P6SM BKN025 OVC040 FM050500 28005KT
                       P6SM OVC100 FM051100 26004KT 6SM BR OVC050=
202207041740 TAF KCLM 041740Z 0418/0518 34004KT P6SM VCSH BKN003 OVC011 FM042300
                       31008KT P6SM BKN025 OVC040 FM050500 28005KT
                       P6SM OVC100 FM051100 26004KT 6SM BR OVC050=
202207041305 KCLM 041305Z 0413/0512 00000KT 3SM -RA BR SCT010 OVC045 FM042300
                       31008KT P6SM BKN025 OVC040 FM050500 28005KT
                       P6SM OVC100 FM051100 26004KT 6SM BR OVC050=
202207041137 TAF KCLM 041137Z 0412/0512 VRB04KT P6SM VCSH BKN025 FM041300 VRB03KT
                       6SM -RA BR SCT010 OVC025 FM042300 31008KT
                       P6SM BKN025 OVC040=
202207040901 TAF AMD KCLM 040901Z 0409/0506 VRB04KT P6SM VCSH OVC015 FM041300
                       VRB03KT 6SM -RA BR OVC007 FM042000 32006KT
                       4SM -RA BR BKN007 OVC012 FM042300 31008KT
                       P6SM BKN025 OVC040=
202207040535 TAF KCLM 040535Z 0406/0506 00000KT P6SM -SHRA OVC010 FM040900 VRB04KT
                       4SM -SHRA BR OVC007 FM041300 VRB03KT 6SM
                       -RA BR OVC007 FM042000 32006KT 4SM -RA BR
                       BKN007 OVC012 FM042300 31008KT P6SM BKN025
                       OVC040=
202207040305 KCLM 040305Z 0403/0424 VRB03KT P6SM VCSH BKN009 OVC025
                      TEMPO 0403/0407 -SHRA OVC009 FM040700 VRB04KT
                       4SM -SHRA BR OVC007 FM041300 VRB03KT 6SM
                       -RA BR OVC007 FM042000 32006KT 4SM -RA BR
                       BKN007 OVC012=
202207032320 TAF KCLM 032320Z 0400/0424 31007KT P6SM OVC010 FM040400 28005KT
                       P6SM -RA OVC015 FM041600 32004KT P6SM OVC015
                       FM042000 32006KT P6SM SCT015 OVC030=
202207031720 TAF KCLM 031720Z 0318/0418 31007KT P6SM OVC025 FM040400 28005KT
                       P6SM -RA OVC015 FM041600 32004KT P6SM OVC015=
202207031139 TAF KCLM 031139Z 0312/0412 27008KT P6SM SCT020 OVC050 FM031800
                       31007KT P6SM OVC025 FM040400 28005KT P6SM
                       -RA OVC015=
202207030540 TAF KCLM 030540Z 0306/0406 29009KT P6SM BKN200 FM030900 27008KT
                       P6SM OVC015 FM031800 31007KT P6SM OVC020=
202207022320 TAF KCLM 022320Z 0300/0324 29009KT P6SM BKN200 FM030900 27008KT
                       P6SM OVC015 FM031800 31007KT P6SM OVC020=
202207021722 TAF KCLM 021722Z 0218/0318 32007KT P6SM SCT025 SCT200 FM022100
                       29009KT P6SM BKN200 FM030900 27008KT P6SM
                       OVC015=
202207021120 TAF KCLM 021120Z 0212/0312 28008KT P6SM FEW010 FM021500 31006KT
                       P6SM BKN035 FM021800 32007KT P6SM SCT035
                       SCT200 FM022100 29009KT P6SM BKN200 FM030900
                       27012KT P6SM OVC015=
202207020900 KCLM 020900Z 0209/0306 28008KT P6SM FEW010 FM021100 28008KT P6SM
                       OVC010 FM021800 32007KT P6SM SCT007 OVC015
                       FM022100 29009KT P6SM SCT015 BKN200=
202207020520 TAF KCLM 020520Z 0206/0306 28011KT P6SM FEW010 FM020800 28008KT
                       P6SM OVC005 FM021800 32007KT P6SM SCT007
                       OVC015 FM022100 29009KT P6SM SCT015 BKN200=
202207020257 TAF AMD KCLM 020257Z 0203/0224 30012G20KT P6SM SCT010 SCT200 FM020500
                       30011KT P6SM BKN008 FM021100 28008KT P6SM
                       OVC004 FM021800 32007KT P6SM SCT007 OVC015
                       FM022100 32008KT P6SM SCT015 BKN200=
202207012320 TAF KCLM 012320Z 0200/0224 30012G20KT P6SM SCT200 FM020500 30011KT
                       P6SM BKN008 FM021100 28008KT P6SM OVC005
                       FM021800 32007KT P6SM SCT007 OVC015 FM022100
                       32008KT P6SM SCT015 BKN200=
202207011731 TAF KCLM 011731Z 0118/0218 29010KT P6SM SCT015
                      TEMPO 0118/0122 OVC010 FM012200 30012G20KT
                       P6SM SCT200 FM020500 30011KT P6SM BKN008
                       FM021100 28008KT P6SM OVC005=
202207011141 TAF KCLM 011141Z 0112/0212 29010KT P6SM SCT015
                      TEMPO 0113/0117 BKN011 FM012200 30012G20KT
                       P6SM SCT200 FM020500 30011KT P6SM SCT008
                       FM021100 28008KT P6SM OVC005=
202207010541 TAF KCLM 010541Z 0106/0206 29008KT P6SM FEW060 FM011200 30008KT
                       P6SM SCT015
                      TEMPO 0113/0117 BKN015 FM012200 30010G18KT
                       P6SM SCT200=
202207010257 KCLM 010257Z 0103/0124 29009KT P6SM BKN060 FM010600 30010KT P6SM
                       FEW060 FM011000 30007KT P6SM BKN009 FM011600
                       30008KT P6SM BKN015=