##########################################################
# Query made at 02/16/2025 05:21:44 UTC
# Time interval: from 01/01/2022 00:00  to 01/31/2022 23:59  UTC
##########################################################

##########################################################
# KCLM, Port Angeles, William R. Fairchild International Airport (United States)
# WMO index: -----. WIGOS ID: Unknown
# Latitude 48-07-20N. Longitude 123-30-19W. Altitude 87 m.
##########################################################

###################################
#  METAR/SPECI from KCLM
###################################
202201312353 METAR KCLM 312353Z AUTO 31007KT 10SM CLR 07/02 A3028 RMK AO2 SLP254 60000 T00670022 10089 20050 52007=
202201312253 METAR KCLM 312253Z AUTO 31011G19KT 10SM SCT032 BKN039 BKN048 07/02 A3027 RMK AO2 SLP253 T00720017=
202201312153 METAR KCLM 312153Z AUTO 28007KT 10SM BKN038 08/01 A3026 RMK AO2 SLP249 T00830006=
202201312053 METAR KCLM 312053Z AUTO 28010G17KT 10SM FEW036 09/01 A3026 RMK AO2 PK WND 27027/2003 SLP247 60000 T00890006 51014=
202201311953 METAR KCLM 311953Z AUTO 28017G29KT 10SM CLR 08/01 A3025 RMK AO2 PK WND 28029/1951 SLP244 T00780006=
202201311853 METAR KCLM 311853Z AUTO 28010KT 10SM FEW029 07/02 A3024 RMK AO2 RAB03E26 SLP242 P0000 T00670022=
202201311753 METAR KCLM 311753Z AUTO 25010KT 10SM SCT028 SCT041 BKN075 06/01 A3022 RMK AO2 RAE00B34E43 SLP234 P0000 60000 T00560006 10061 20044 53017=
202201311653 METAR KCLM 311653Z AUTO 27014G24KT 10SM -RA FEW046 BKN060 OVC100 06/00 A3020 RMK AO2 RAB48 SLP228 P0000 T00560000=
202201311553 METAR KCLM 311553Z AUTO 28009KT 10SM CLR 06/M01 A3017 RMK AO2 SLP220 T00561011=
202201311453 METAR KCLM 311453Z AUTO 26010KT 10SM FEW042 06/M01 A3016 RMK AO2 SLP216 60000 T00561006 51014=
202201311353 METAR KCLM 311353Z AUTO 28011KT 10SM BKN039 BKN065 05/00 A3016 RMK AO2 RAB39E51 SLP215 P0000 T00500000=
202201311253 METAR KCLM 311253Z AUTO 29012KT 10SM FEW039 BKN049 BKN060 05/00 A3014 RMK AO2 SLP209 T00500000=
202201311153 METAR KCLM 311153Z AUTO 29013G22KT 10SM FEW041 BKN048 OVC055 06/00 A3012 RMK AO2 RAB32E42 SLP203 P0000 60000 70031 T00560000 10056 20044 51022=
202201311053 METAR KCLM 311053Z AUTO 27016G22KT 10SM FEW038 BKN055 BKN070 06/00 A3011 RMK AO2 SLP198 T00560000=
202201310953 METAR KCLM 310953Z AUTO 25016G20KT 10SM SCT030 BKN055 06/00 A3008 RMK AO2 PK WND 26029/0938 RAB35E47 SLP189 P0000 T00560000=
202201310853 METAR KCLM 310853Z AUTO 27017G31KT 10SM CLR 05/00 A3006 RMK AO2 PK WND 24031/0849 RAB03E13 SLP181 P0000 60000 T00500000 53027=
202201310753 METAR KCLM 310753Z AUTO 27014G22KT 10SM SCT036 SCT046 BKN060 05/M01 A3003 RMK AO2 PK WND 25041/0732 RAB34E44 SLP171 P0000 T00501006 400720033=
202201310653 METAR KCLM 310653Z AUTO 26016G25KT 10SM SCT045 SCT055 04/M01 A3000 RMK AO2 PK WND 26026/0616 RAE01 SLP161 P0000 T00441006=
202201310607 SPECI KCLM 310607Z AUTO 26013G22KT 10SM SCT026 SCT070 BKN090 04/00 A2999 RMK AO2 RAE01 P0000 T00440000=
202201310553 METAR KCLM 310553Z AUTO 28016G27KT 10SM -RA BKN026 BKN048 BKN065 04/00 A2998 RMK AO2 PK WND 29027/0548 RAB41 SLP153 P0001 60005 T00440000 10067 20044 51036=
202201310453 METAR KCLM 310453Z AUTO 30008KT 10SM SCT049 BKN070 05/M01 A2996 RMK AO2 PK WND 26026/0404 SLP146 T00501006=
202201310353 METAR KCLM 310353Z AUTO 28012G21KT 10SM CLR 05/00 A2992 RMK AO2 PK WND 29035/0308 PRESRR SLP132 T00500000=
202201310253 METAR KCLM 310253Z AUTO 29016G27KT 10SM CLR 04/01 A2987 RMK AO2 PK WND 30029/0236 SLP117 60004 T00440011 53014=
202201310153 METAR KCLM 310153Z AUTO 28017G27KT 10SM SCT050 06/02 A2984 RMK AO2 PK WND 29029/0138 RAE03 SLP107 P0000 T00560022=
202201310053 METAR KCLM 310053Z AUTO 29014G23KT 10SM -RA BKN060 OVC075 06/03 A2984 RMK AO2 PK WND 29034/2359 SLP106 P0004 T00610028=
202201302353 METAR KCLM 302353Z AUTO 29019G31KT 4SM RA BR SCT005 SCT012 OVC034 07/04 A2983 RMK AO2 PK WND 29031/2351 PRESRR SLP103 P0014 60026 T00670044 10072 20061 53001=
202201302347 SPECI KCLM 302347Z AUTO 29018G26KT 3SM RA BR SCT005 BKN010 OVC032 07/05 A2982 RMK AO2 PK WND 29026/2346 P0013=
202201302341 SPECI KCLM 302341Z AUTO 29013G23KT 2 1/2SM RA BR BKN005 BKN010 OVC033 07/05 A2982 RMK AO2 P0012 T00720050=
202201302322 SPECI KCLM 302322Z AUTO 32011G21KT 2SM RA BR BKN004 BKN015 OVC032 07/05 A2981 RMK AO2 P0007 T00670050=
202201302312 SPECI KCLM 302312Z AUTO 31010G18KT 1 3/4SM -RA BR SCT002 BKN015 OVC035 07/06 A2980 RMK AO2 PRESRR P0003 T00720056=
202201302304 SPECI KCLM 302304Z AUTO 28007KT 2 1/2SM -RA BR BKN002 OVC037 07/06 A2978 RMK AO2 P0001 T00720056=
202201302253 METAR KCLM 302253Z AUTO 29004KT 1 1/2SM -RA BR BKN002 BKN015 OVC050 07/06 A2977 RMK AO2 SLP084 P0006 T00720061=
202201302244 SPECI KCLM 302244Z AUTO 29003KT 1 3/4SM -RA BR SCT002 OVC045 07/06 A2977 RMK AO2 P0004 T00720061=
202201302231 SPECI KCLM 302231Z AUTO 00000KT 2 1/2SM -RA BR FEW003 OVC050 07/06 A2977 RMK AO2 P0002 T00720061=
202201302153 METAR KCLM 302153Z AUTO 00000KT 4SM -RA BR FEW004 OVC055 07/06 A2977 RMK AO2 SLP083 P0003 T00720056=
202201302053 METAR KCLM 302053Z AUTO 00000KT 5SM -RA BR SCT004 BKN055 OVC070 07/05 A2983 RMK AO2 SLP102 P0002 60003 T00720050 56026=
202201301953 METAR KCLM 301953Z AUTO 00000KT 8SM -RA OVC065 07/04 A2986 RMK AO2 RAB1854 SLP115 P0001 T00720044=
202201301853 METAR KCLM 301853Z AUTO 00000KT 8SM OVC065 07/04 A2991 RMK AO2 RAE17 SLP128 P0000 T00670044=
202201301753 METAR KCLM 301753Z AUTO 26003KT 5SM -RA BR OVC060 06/04 A2995 RMK AO2 RAB33 SLP143 P0000 60000 T00610044 10067 20033 56026=
202201301653 METAR KCLM 301653Z AUTO 00000KT 5SM BR SCT050 OVC070 06/04 A2996 RMK AO2 PRESFR SLP147 T00560039=
202201301553 METAR KCLM 301553Z AUTO 00000KT 5SM BR OVC060 04/03 A3000 RMK AO2 SLP160 T00390028=
202201301453 METAR KCLM 301453Z AUTO 00000KT 4SM BR BKN065 04/02 A3002 RMK AO2 SLP169 T00390022 56015=
202201301353 METAR KCLM 301353Z AUTO 24004KT 5SM BR BKN060 04/02 A3004 RMK AO2 SLP174 T00390022=
202201301253 METAR KCLM 301253Z AUTO 00000KT 5SM BR BKN060 04/02 A3005 RMK AO2 SLP178 T00390022=
202201301201 SPECI KCLM 301201Z AUTO 12003KT 5SM BR FEW120 04/03 A3005 RMK AO2 PRESFR T00390028=
202201301153 METAR KCLM 301153Z AUTO 16004KT 2 1/2SM BR CLR 04/02 A3007 RMK AO2 SLP184 60002 70004 T00390022 10061 20033 58021=
202201301142 SPECI KCLM 301142Z AUTO 13003KT 2 1/2SM BR CLR 04/03 A3007 RMK AO2 T00390028=
202201301114 SPECI KCLM 301114Z AUTO 00000KT 3SM BR FEW060 04/03 A3009 RMK AO2 T00440028=
202201301100 SPECI KCLM 301100Z AUTO 00000KT 1 3/4SM BR SCT060 04/03 A3010 RMK AO2 T00390033=
202201301053 METAR KCLM 301053Z AUTO 00000KT 4SM BR FEW060 04/03 A3011 RMK AO2 SLP198 T00440028=
202201300953 METAR KCLM 300953Z AUTO 24003KT 4SM BR CLR 04/03 A3013 RMK AO2 SLP205 T00440033=
202201300853 METAR KCLM 300853Z AUTO 00000KT 10SM OVC110 06/03 A3013 RMK AO2 SLP205 60002 T00560033 55016=
202201300753 METAR KCLM 300753Z AUTO 08006KT 8SM BKN070 OVC095 06/04 A3013 RMK AO2 RAE46 SLP203 P0001 T00560039 400781006=
202201300653 METAR KCLM 300653Z AUTO 13004KT 5SM -RA BR OVC055 06/04 A3016 RMK AO2 SLP215 P0001 T00560039=
202201300553 METAR KCLM 300553Z AUTO 10005KT 7SM -RA OVC055 06/04 A3018 RMK AO2 SLP221 P0002 60002 T00560039 10072 20056 50000=
202201300453 METAR KCLM 300453Z AUTO 13003KT 5SM -RA BR OVC050 06/03 A3018 RMK AO2 RAB32 SLP223 P0000 T00560033=
202201300421 SPECI KCLM 300421Z AUTO 16003KT 8SM SCT008 OVC055 06/03 A3019 RMK AO2 T00560033=
202201300353 METAR KCLM 300353Z AUTO 00000KT 9SM OVC008 06/04 A3018 RMK AO2 SLP223 T00560039=
202201300343 SPECI KCLM 300343Z AUTO 16003KT 10SM BKN008 OVC080 06/03 A3018 RMK AO2 T00560033=
202201300335 SPECI KCLM 300335Z AUTO 00000KT 10SM SCT007 BKN080 OVC090 06/03 A3018 RMK AO2 T00560033=
202201300253 METAR KCLM 300253Z AUTO 03003KT 9SM BKN080 OVC095 06/03 A3018 RMK AO2 SLP222 T00560033 58006=
202201300153 METAR KCLM 300153Z AUTO 00000KT 10SM BKN070 OVC090 06/04 A3019 RMK AO2 SLP227 T00610039=
202201300053 METAR KCLM 300053Z AUTO 01003KT 10SM OVC095 07/04 A3018 RMK AO2 SLP224 T00670039=
202201292353 METAR KCLM 292353Z AUTO 00000KT 10SM OVC100 07/03 A3019 RMK AO2 SLP227 T00720033 10078 20044 58004=
202201292253 METAR KCLM 292253Z AUTO 00000KT 10SM BKN110 07/04 A3020 RMK AO2 SLP229 T00720039=
202201292153 METAR KCLM 292153Z AUTO 00000KT 10SM FEW120 07/04 A3020 RMK AO2 SLP230 T00720039=
202201292053 METAR KCLM 292053Z AUTO 00000KT 10SM SCT010 08/04 A3021 RMK AO2 SLP231 T00780039 58010=
202201292041 SPECI KCLM 292041Z AUTO 35003KT 10SM BKN010 07/04 A3021 RMK AO2 T00720039=
202201292013 SPECI KCLM 292013Z AUTO 00000KT 10SM OVC009 07/03 A3022 RMK AO2 T00670033=
202201292001 SPECI KCLM 292001Z AUTO 36003KT 10SM BKN010 07/04 A3022 RMK AO2 T00720039=
202201291953 METAR KCLM 291953Z AUTO VRB03KT 10SM SCT009 07/04 A3022 RMK AO2 SLP237 T00720039=
202201291942 SPECI KCLM 291942Z AUTO 00000KT 10SM FEW009 07/04 A3022 RMK AO2 T00720039=
202201291853 METAR KCLM 291853Z AUTO 00000KT 10SM CLR 06/03 A3023 RMK AO2 SLP239 T00610033=
202201291753 METAR KCLM 291753Z AUTO 00000KT 7SM CLR 04/03 A3024 RMK AO2 SLP242 T00440028 10044 20000 51005=
202201291729 SPECI KCLM 291729Z AUTO 00000KT 8SM SCT006 03/02 A3024 RMK AO2 T00330022=
202201291708 SPECI KCLM 291708Z AUTO 22005KT 10SM BKN006 02/01 A3024 RMK AO2 T00220011=
202201291653 METAR KCLM 291653Z AUTO 23003KT 9SM SCT005 02/01 A3023 RMK AO2 SLP240 T00220006=
202201291650 SPECI KCLM 291650Z AUTO 23003KT 9SM SCT005 02/01 A3023 RMK AO2=
202201291553 METAR KCLM 291553Z AUTO 22004KT 9SM CLR 02/01 A3022 RMK AO2 SLP237 T00170006=
202201291530 SPECI KCLM 291530Z AUTO 00000KT 8SM FEW005 01/00 A3022 RMK AO2 T00110000=
202201291453 METAR KCLM 291453Z AUTO 00000KT 9SM BKN005 01/00 A3022 RMK AO2 SLP236 T00110000 58005=
202201291425 SPECI KCLM 291425Z AUTO 21003KT 9SM FEW005 01/00 A3022 RMK AO2 T00110000=
202201291403 SPECI KCLM 291403Z AUTO 23003KT 8SM BKN005 01/M01 A3022 RMK AO2 T00061006=
202201291353 METAR KCLM 291353Z AUTO 00000KT 8SM BKN004 01/M01 A3023 RMK AO2 SLP238 T00061006=
202201291335 SPECI KCLM 291335Z AUTO 00000KT 9SM FEW004 01/M01 A3023 RMK AO2 T00061006=
202201291253 METAR KCLM 291253Z AUTO 26003KT 9SM CLR 00/M01 A3023 RMK AO2 SLP241 T00001011=
202201291153 METAR KCLM 291153Z AUTO 21004KT 10SM CLR 01/M01 A3023 RMK AO2 SLP240 I6001 T00111006 10022 21011 58003=
202201291114 SPECI KCLM 291114Z AUTO 22003KT 10SM FEW017 01/M01 A3024 RMK AO2 T00061006=
202201291053 METAR KCLM 291053Z AUTO 00000KT 10SM BKN018 BKN024 01/M01 A3024 RMK AO2 SLP244 T00111006=
202201291008 SPECI KCLM 291008Z AUTO 21003KT 10SM BKN022 01/M01 A3023 RMK AO2 T00111006=
202201290953 METAR KCLM 290953Z AUTO 22006KT 10SM SCT020 01/M01 A3024 RMK AO2 SLP241 I1000 T00111011=
202201290907 SPECI KCLM 290907Z AUTO 21006KT 10SM FEW013 BKN018 01/M01 A3024 RMK AO2 I1000 T00111006=
202201290853 METAR KCLM 290853Z AUTO 24005KT 6SM BR FEW013 SCT020 00/M02 A3024 RMK AO2 SLP244 I3001 T00001017 58002=
202201290753 METAR KCLM 290753Z AUTO 22006KT 10SM CLR 01/M01 A3025 RMK AO2 SLP248 I1001 T00061011 400831028=
202201290653 METAR KCLM 290653Z AUTO 22005KT 8SM CLR M01/M02 A3025 RMK AO2 SLP246 I1000 T10061022=
202201290614 SPECI KCLM 290614Z AUTO 21003KT 9SM CLR 00/M01 A3025 RMK AO2 I1000 T00001011=
202201290607 SPECI KCLM 290607Z AUTO 22006KT 2 1/2SM BR CLR 01/M01 A3025 RMK AO2 T00061011=
202201290553 METAR KCLM 290553Z AUTO 00000KT 6SM BR CLR 00/M01 A3025 RMK AO2 SLP248 I1000 I6000 T00001011 10067 20000 58004=
202201290453 METAR KCLM 290453Z AUTO 22004KT 9SM CLR 01/M01 A3027 RMK AO2 SLP254 T00061011=
202201290353 METAR KCLM 290353Z AUTO 24004KT 10SM CLR 01/M01 A3028 RMK AO2 SLP257 T00111006=
202201290253 METAR KCLM 290253Z AUTO 22003KT 8SM CLR 01/M01 A3027 RMK AO2 SLP252 T00111006 58001=
202201290153 METAR KCLM 290153Z AUTO 00000KT 6SM BR CLR 03/01 A3027 RMK AO2 SLP255 T00280006=
202201290053 METAR KCLM 290053Z AUTO 00000KT 7SM CLR 04/02 A3027 RMK AO2 SLP254 T00440017=
202201282353 METAR KCLM 282353Z AUTO 02003KT 8SM CLR 07/03 A3027 RMK AO2 SLP253 T00670028 10083 20039 58010=
202201282253 METAR KCLM 282253Z AUTO 00000KT 9SM CLR 07/03 A3028 RMK AO2 SLP256 T00720033=
202201282153 METAR KCLM 282153Z AUTO 00000KT 10SM CLR 07/03 A3029 RMK AO2 SLP261 T00670028=
202201282053 METAR KCLM 282053Z AUTO 00000KT 10SM FEW008 06/03 A3030 RMK AO2 SLP263 T00610028 58004=
202201282051 SPECI KCLM 282051Z AUTO 00000KT 10SM SCT008 06/03 A3030 RMK AO2=
202201281953 METAR KCLM 281953Z AUTO 31005KT 8SM OVC007 05/02 A3031 RMK AO2 SLP268 T00500022=
202201281937 SPECI KCLM 281937Z AUTO 34003KT 8SM BKN008 05/02 A3031 RMK AO2 T00500022=
202201281921 SPECI KCLM 281921Z AUTO VRB03KT 10SM FEW009 06/02 A3031 RMK AO2 T00560022=
202201281853 METAR KCLM 281853Z AUTO 27003KT 10SM CLR 05/01 A3031 RMK AO2 SLP267 T00500011=
202201281806 SPECI KCLM 281806Z AUTO 28003KT 8SM SCT007 04/02 A3032 RMK AO2 T00390022=
202201281753 METAR KCLM 281753Z AUTO 23003KT 7SM BKN007 04/02 A3032 RMK AO2 SLP269 I6001 T00390022 10039 21028 53001=
202201281653 METAR KCLM 281653Z AUTO 24005KT 5SM BR OVC005 02/00 A3032 RMK AO2 SLP270 T00170000=
202201281553 METAR KCLM 281553Z AUTO 12003KT 5SM BR OVC008 01/M01 A3031 RMK AO2 SLP266 I1001 T00111006=
202201281453 METAR KCLM 281453Z AUTO 00000KT 8SM OVC007 00/M02 A3032 RMK AO2 SLP269 I3000 T00001017 55006=
202201281427 SPECI KCLM 281427Z AUTO 00000KT 10SM BKN007 M02/M03 A3032 RMK AO2 CIG 006V010 T10171028=
202201281418 SPECI KCLM 281418Z AUTO 00000KT 10SM SCT007 M02/M03 A3032 RMK AO2 T10171033=
202201281353 METAR KCLM 281353Z AUTO 22004KT 10SM CLR M01/M03 A3031 RMK AO2 SLP268 I1000 T10111028=
202201281253 METAR KCLM 281253Z AUTO 00000KT 10SM CLR M02/M03 A3033 RMK AO2 SLP274 I1000 T10171033=
202201281153 METAR KCLM 281153Z AUTO 00000KT 10SM FEW006 M01/M03 A3033 RMK AO2 SLP275 I1000 I6001 T10111028 11006 21028 57005=
202201281053 METAR KCLM 281053Z AUTO 22005KT 10SM CLR M02/M03 A3034 RMK AO2 SLP278 I1000 T10171033=
202201280953 METAR KCLM 280953Z AUTO 00000KT 10SM CLR M01/M03 A3034 RMK AO2 SLP277 I1000 T10111028=
202201280853 METAR KCLM 280853Z AUTO 23004KT 10SM CLR M01/M03 A3035 RMK AO2 SLP280 I1000 I3001 T10111028 58002=
202201280753 METAR KCLM 280753Z AUTO 00000KT 9SM CLR M01/M03 A3036 RMK AO2 SLP284 T10061028 400611022=
202201280653 METAR KCLM 280653Z AUTO 21003KT 9SM CLR M02/M03 A3036 RMK AO2 SLP284 I1001 T10171033=
202201280553 METAR KCLM 280553Z AUTO 22004KT 8SM CLR M01/M03 A3036 RMK AO2 SLP282 I1000 I6001 T10111028 10061 21017 53003=
202201280453 METAR KCLM 280453Z AUTO 00000KT 7SM CLR M01/M03 A3035 RMK AO2 SLP280 I1001 T10111028=
202201280353 METAR KCLM 280353Z AUTO 00000KT 8SM CLR 00/M02 A3035 RMK AO2 SLP280 T00001017=
202201280253 METAR KCLM 280253Z AUTO 23006KT 10SM CLR M01/M02 A3035 RMK AO2 SLP280 T10061022 57005=
202201280153 METAR KCLM 280153Z AUTO 00000KT 10SM CLR 01/M02 A3035 RMK AO2 SLP282 T00061017=
202201280053 METAR KCLM 280053Z AUTO 21003KT 10SM CLR 03/00 A3036 RMK AO2 SLP282 T00330000=
202201272353 METAR KCLM 272353Z AUTO 00000KT 10SM CLR 06/01 A3036 RMK AO2 SLP284 T00560006 10061 20033 56009=
202201272253 METAR KCLM 272253Z AUTO 13003KT 10SM CLR 06/01 A3037 RMK AO2 SLP287 T00560006=
202201272218 SPECI KCLM 272218Z AUTO 14005KT 10SM SCT011 05/01 A3037 RMK AO2 T00500006=
202201272153 METAR KCLM 272153Z AUTO 12007KT 9SM OVC011 04/01 A3037 RMK AO2 SLP289 T00440006=
202201272053 METAR KCLM 272053Z AUTO 11006KT 8SM OVC010 04/01 A3039 RMK AO2 SLP293 T00440006 58005=
202201271953 METAR KCLM 271953Z AUTO 11006KT 9SM OVC011 04/01 A3040 RMK AO2 SLP297 T00390006=
202201271853 METAR KCLM 271853Z AUTO 14006KT 8SM OVC010 04/01 A3041 RMK AO2 SLP301 T00390006=
202201271845 SPECI KCLM 271845Z AUTO 12006KT 8SM OVC010 04/01 A3041 RMK AO2 T00390006=
202201271753 METAR KCLM 271753Z AUTO 12006KT 6SM BR OVC008 03/01 A3040 RMK AO2 SLP299 T00330011 10033 20022 53004=
202201271653 METAR KCLM 271653Z AUTO 13007KT 5SM BR OVC009 03/01 A3039 RMK AO2 SLP295 T00330011=
202201271638 SPECI KCLM 271638Z AUTO 13007KT 5SM BR OVC009 03/01 A3039 RMK AO2 T00330011=
202201271628 SPECI KCLM 271628Z AUTO 14007KT 6SM BR OVC010 03/01 A3039 RMK AO2 T00330011=
202201271553 METAR KCLM 271553Z AUTO 13005KT 6SM BR OVC008 03/01 A3039 RMK AO2 SLP296 T00330011=
202201271453 METAR KCLM 271453Z AUTO 13005KT 6SM BR OVC006 03/01 A3039 RMK AO2 SLP294 T00280011 53004=
202201271419 SPECI KCLM 271419Z AUTO 13005KT 6SM BR OVC005 03/01 A3039 RMK AO2 T00280011=
202201271353 METAR KCLM 271353Z AUTO 12005KT 5SM BR OVC004 03/01 A3038 RMK AO2 SLP292 T00280011=
202201271253 METAR KCLM 271253Z AUTO 13005KT 5SM BR OVC004 03/01 A3038 RMK AO2 SLP291 T00280011=
202201271153 METAR KCLM 271153Z AUTO 15006KT 5SM BR OVC003 02/01 A3038 RMK AO2 SLP289 T00220006 10039 20022 50002=
202201271053 METAR KCLM 271053Z AUTO 13006KT 4SM BR OVC003 03/01 A3039 RMK AO2 SLP292 T00280011=
202201270953 METAR KCLM 270953Z AUTO 13007KT 5SM BR OVC002 02/01 A3038 RMK AO2 SLP288 T00220011=
202201270932 SPECI KCLM 270932Z AUTO 13005KT 3SM BR OVC002 02/01 A3037 RMK AO2 T00220006=
202201270918 SPECI KCLM 270918Z AUTO 14007KT 1 3/4SM BR OVC003 02/01 A3037 RMK AO2 T00220006=
202201270853 METAR KCLM 270853Z AUTO 12005KT 10SM OVC004 03/01 A3037 RMK AO2 SLP287 T00280011 50003=
202201270753 METAR KCLM 270753Z AUTO 13006KT 10SM OVC006 03/02 A3038 RMK AO2 SLP290 T00330017 400720000=
202201270653 METAR KCLM 270653Z AUTO 12004KT 10SM OVC006 04/02 A3037 RMK AO2 SLP286 T00390022=
202201270553 METAR KCLM 270553Z AUTO 10005KT 9SM OVC005 02/01 A3036 RMK AO2 SLP285 I1000 I6001 T00220006 10061 20000 53005=
202201270501 SPECI KCLM 270501Z AUTO 00000KT 4SM BR BKN006 02/01 A3035 RMK AO2 T00170006=
202201270453 METAR KCLM 270453Z AUTO 00000KT 4SM BR SCT006 02/01 A3035 RMK AO2 SLP281 I1001 T00170006=
202201270353 METAR KCLM 270353Z AUTO 12004KT 9SM CLR 02/00 A3035 RMK AO2 SLP280 T00170000=
202201270320 SPECI KCLM 270320Z AUTO 15003KT 10SM FEW008 02/00 A3034 RMK AO2 T00170000=
202201270253 METAR KCLM 270253Z AUTO 14003KT 10SM BKN007 03/01 A3033 RMK AO2 SLP275 T00280011 53015=
202201270246 SPECI KCLM 270246Z AUTO 00000KT 10SM BKN007 03/01 A3033 RMK AO2 T00280011=
202201270224 SPECI KCLM 270224Z AUTO 00000KT 10SM FEW006 03/01 A3032 RMK AO2 T00330011=
202201270153 METAR KCLM 270153Z AUTO 12004KT 10SM CLR 03/01 A3032 RMK AO2 SLP269 T00280011=
202201270053 METAR KCLM 270053Z AUTO 10005KT 10SM CLR 04/02 A3030 RMK AO2 SLP263 T00390017=
202201262353 METAR KCLM 262353Z AUTO 09005KT 10SM CLR 06/02 A3029 RMK AO2 SLP259 T00610022 10072 20039 58010=
202201262253 METAR KCLM 262253Z AUTO 09006KT 10SM CLR 06/02 A3030 RMK AO2 SLP263 T00610022=
202201262153 METAR KCLM 262153Z AUTO 08007KT 10SM CLR 06/02 A3032 RMK AO2 SLP268 T00610022=
202201262053 METAR KCLM 262053Z AUTO 09007KT 10SM CLR 07/02 A3032 RMK AO2 SLP269 T00670022 58001=
202201261953 METAR KCLM 261953Z AUTO 09006KT 10SM CLR 06/02 A3032 RMK AO2 SLP270 T00610022=
202201261935 SPECI KCLM 261935Z AUTO 09006KT 10SM SCT009 06/02 A3032 RMK AO2 T00610017=
202201261918 SPECI KCLM 261918Z AUTO 12005KT 10SM BKN008 06/02 A3033 RMK AO2 T00560022=
202201261906 SPECI KCLM 261906Z AUTO VRB04KT 10SM SCT008 06/02 A3032 RMK AO2 T00560022=
202201261853 METAR KCLM 261853Z AUTO 14004KT 10SM BKN008 05/02 A3032 RMK AO2 SLP270 T00500022=
202201261753 METAR KCLM 261753Z AUTO 15005KT 10SM OVC006 04/02 A3032 RMK AO2 SLP270 T00390017 10039 20017 53011=
202201261653 METAR KCLM 261653Z AUTO 13007KT 10SM OVC007 03/01 A3030 RMK AO2 SLP263 T00330011=
202201261553 METAR KCLM 261553Z AUTO 13005KT 7SM OVC006 02/00 A3028 RMK AO2 SLP256 T00170000=
202201261453 METAR KCLM 261453Z AUTO 16007KT 10SM OVC007 03/01 A3029 RMK AO2 SLP259 T00280006 51013=
202201261353 METAR KCLM 261353Z AUTO 11004KT 10SM OVC008 03/01 A3029 RMK AO2 SLP259 T00330011=
202201261253 METAR KCLM 261253Z AUTO 16006KT 10SM OVC007 03/01 A3027 RMK AO2 SLP252 T00330011=
202201261153 METAR KCLM 261153Z AUTO 11003KT 8SM OVC006 02/01 A3025 RMK AO2 SLP246 T00220006 10044 20022 58007=
202201261053 METAR KCLM 261053Z AUTO 10004KT 8SM OVC006 03/01 A3025 RMK AO2 SLP246 T00330011=
202201260953 METAR KCLM 260953Z AUTO 05003KT 9SM OVC008 03/01 A3027 RMK AO2 SLP252 T00330011=
202201260853 METAR KCLM 260853Z AUTO 14006KT 8SM OVC008 04/02 A3027 RMK AO2 SLP252 T00390017 53006=
202201260753 METAR KCLM 260753Z AUTO 02005KT 8SM BKN007 03/01 A3023 RMK AO2 SLP239 T00330011 400610028=
202201260653 METAR KCLM 260653Z AUTO 00000KT 8SM OVC008 04/02 A3025 RMK AO2 SLP244 T00390017=
202201260553 METAR KCLM 260553Z AUTO 12004KT 8SM OVC008 04/02 A3025 RMK AO2 SLP246 T00390017 10044 20028 56003=
202201260453 METAR KCLM 260453Z AUTO 14006KT 9SM OVC009 04/02 A3025 RMK AO2 SLP247 T00390017=
202201260421 SPECI KCLM 260421Z AUTO 17007KT 8SM OVC009 04/02 A3025 RMK AO2 T00390017=
202201260411 SPECI KCLM 260411Z AUTO 18004KT 7SM OVC010 03/01 A3026 RMK AO2 T00330011=
202201260401 SPECI KCLM 260401Z AUTO 14003KT 7SM BKN009 03/01 A3026 RMK AO2 T00330011=
202201260353 METAR KCLM 260353Z AUTO 00000KT 6SM BR SCT009 03/01 A3025 RMK AO2 SLP247 T00330011=
202201260332 SPECI KCLM 260332Z AUTO 11004KT 7SM SCT008 03/01 A3024 RMK AO2 T00330011=
202201260253 METAR KCLM 260253Z AUTO 14005KT 6SM BR OVC008 03/01 A3026 RMK AO2 SLP250 T00330011 55008=
202201260225 SPECI KCLM 260225Z AUTO 14003KT 6SM BR BKN008 03/01 A3026 RMK AO2 T00280011=
202201260217 SPECI KCLM 260217Z AUTO 11004KT 7SM SCT008 03/01 A3026 RMK AO2 T00280011=
202201260153 METAR KCLM 260153Z AUTO 10005KT 7SM CLR 03/01 A3025 RMK AO2 SLP248 T00280006=
202201260104 SPECI KCLM 260104Z AUTO 00000KT 7SM SCT008 04/01 A3026 RMK AO2 T00390011=
202201260053 METAR KCLM 260053Z AUTO 11005KT 8SM BKN008 04/01 A3026 RMK AO2 SLP248 T00390011=
202201260002 SPECI KCLM 260002Z AUTO 09004KT 10SM OVC009 04/01 A3029 RMK AO2 T00440011=
202201252353 METAR KCLM 252353Z AUTO 08006KT 10SM OVC010 04/01 A3029 RMK AO2 SLP258 T00440011 10061 20044 55012=
202201252323 SPECI KCLM 252323Z AUTO 08006KT 10SM BKN010 05/01 A3028 RMK AO2 T00500011=
202201252253 METAR KCLM 252253Z AUTO VRB05KT 10SM CLR 06/02 A3028 RMK AO2 SLP254 T00560017=
202201252226 SPECI KCLM 252226Z AUTO VRB04KT 10SM SCT012 06/02 A3028 RMK AO2 T00560017=
202201252153 METAR KCLM 252153Z AUTO VRB03KT 10SM OVC013 05/01 A3029 RMK AO2 SLP260 T00500011=
202201252053 METAR KCLM 252053Z AUTO 08005KT 10SM OVC012 06/01 A3032 RMK AO2 SLP270 T00560011 58014=
202201251953 METAR KCLM 251953Z AUTO 10005KT 10SM BKN011 05/01 A3033 RMK AO2 SLP274 T00500011=
202201251853 METAR KCLM 251853Z AUTO 13006KT 10SM OVC011 05/01 A3035 RMK AO2 SLP281 T00500011=
202201251753 METAR KCLM 251753Z AUTO 13004KT 10SM OVC010 04/02 A3036 RMK AO2 SLP284 T00440017 10044 20028 53006=
202201251730 SPECI KCLM 251730Z AUTO 16005KT 10SM OVC010 04/01 A3035 RMK AO2 T00390011=
202201251653 METAR KCLM 251653Z AUTO 16007KT 10SM OVC008 04/01 A3036 RMK AO2 SLP282 T00390011=
202201251553 METAR KCLM 251553Z AUTO 14005KT 10SM OVC007 03/01 A3034 RMK AO2 SLP275 T00330006=
202201251453 METAR KCLM 251453Z AUTO 15004KT 10SM OVC007 03/01 A3035 RMK AO2 SLP278 T00280006 55004=
202201251353 METAR KCLM 251353Z AUTO 14003KT 10SM OVC006 03/01 A3034 RMK AO2 SLP277 T00330011=
202201251253 METAR KCLM 251253Z AUTO 15005KT 10SM OVC007 03/01 A3035 RMK AO2 SLP279 T00330011=
202201251153 METAR KCLM 251153Z AUTO 15005KT 10SM OVC008 03/01 A3036 RMK AO2 SLP283 T00330006 10039 20028 50003=
202201251053 METAR KCLM 251053Z AUTO 15004KT 10SM OVC007 03/01 A3036 RMK AO2 SLP284 T00330011=
202201250953 METAR KCLM 250953Z AUTO 15004KT 10SM OVC007 03/01 A3036 RMK AO2 SLP282 T00330011=
202201250853 METAR KCLM 250853Z AUTO 14004KT 10SM OVC006 03/01 A3035 RMK AO2 SLP280 T00330011 51003=
202201250753 METAR KCLM 250753Z AUTO 14006KT 9SM OVC005 03/01 A3035 RMK AO2 SLP279 T00330011 400720033=
202201250700 SPECI KCLM 250700Z AUTO 15005KT 8SM OVC004 03/02 A3035 RMK AO2 T00330017=
202201250653 METAR KCLM 250653Z AUTO 14005KT 8SM OVC005 03/02 A3035 RMK AO2 SLP280 T00330017=
202201250553 METAR KCLM 250553Z AUTO 13005KT 9SM OVC006 04/02 A3034 RMK AO2 SLP276 T00390017 10056 20039 51005=
202201250453 METAR KCLM 250453Z AUTO 12007KT 8SM OVC005 04/02 A3034 RMK AO2 SLP276 T00390017=
202201250353 METAR KCLM 250353Z AUTO 09005KT 9SM OVC005 04/02 A3034 RMK AO2 SLP274 T00390022=
202201250253 METAR KCLM 250253Z AUTO 10007KT 9SM OVC005 04/02 A3033 RMK AO2 SLP272 T00440022 51006=
202201250153 METAR KCLM 250153Z AUTO 10007KT 10SM OVC006 05/02 A3032 RMK AO2 SLP270 T00500022=
202201250053 METAR KCLM 250053Z AUTO 10004KT 10SM OVC008 05/02 A3032 RMK AO2 SLP269 T00500022=
202201242353 METAR KCLM 242353Z AUTO 08006KT 10SM OVC009 06/02 A3031 RMK AO2 SLP266 T00560022 10072 20044 53002=
202201242253 METAR KCLM 242253Z AUTO 08007KT 10SM OVC008 06/02 A3032 RMK AO2 SLP268 T00560022=
202201242236 SPECI KCLM 242236Z AUTO VRB05KT 10SM OVC009 06/02 A3031 RMK AO2 T00560022=
202201242202 SPECI KCLM 242202Z AUTO 07006KT 10SM BKN010 06/02 A3030 RMK AO2 T00610022=
202201242153 METAR KCLM 242153Z AUTO 08005KT 10SM SCT009 07/03 A3030 RMK AO2 SLP261 T00720028=
202201242142 SPECI KCLM 242142Z AUTO 07006KT 10SM FEW009 07/03 A3030 RMK AO2 T00670028=
202201242053 METAR KCLM 242053Z AUTO 11005KT 10SM CLR 07/03 A3031 RMK AO2 SLP264 T00720028 58007=
202201242024 SPECI KCLM 242024Z AUTO 11005KT 10SM SCT009 06/03 A3031 RMK AO2 T00610028=
202201241953 METAR KCLM 241953Z AUTO 13009KT 10SM OVC009 06/02 A3032 RMK AO2 SLP268 T00560022=
202201241853 METAR KCLM 241853Z AUTO 11007KT 10SM OVC007 05/03 A3033 RMK AO2 SLP273 T00500028=
202201241753 METAR KCLM 241753Z AUTO 10005KT 10SM OVC007 05/02 A3033 RMK AO2 SLP271 T00500022 10050 20033 53023=
202201241653 METAR KCLM 241653Z AUTO 15005KT 10SM OVC006 04/02 A3029 RMK AO2 SLP260 T00440022=
202201241614 SPECI KCLM 241614Z AUTO 13006KT 10SM OVC005 04/02 A3028 RMK AO2 T00390022=
202201241553 METAR KCLM 241553Z AUTO 13006KT 10SM OVC004 04/02 A3028 RMK AO2 SLP256 T00390022=
202201241453 METAR KCLM 241453Z AUTO 00000KT 8SM OVC003 03/02 A3026 RMK AO2 SLP248 T00330022 56011=
202201241353 METAR KCLM 241353Z AUTO 12005KT 9SM OVC003 03/02 A3028 RMK AO2 SLP254 T00330022=
202201241327 SPECI KCLM 241327Z AUTO 16007KT 3SM BR OVC002 03/02 A3026 RMK AO2 T00330017=
202201241253 METAR KCLM 241253Z AUTO 13003KT 1SM BR OVC002 03/02 A3026 RMK AO2 SLP249 T00330022=
202201241153 METAR KCLM 241153Z AUTO 11004KT 1 3/4SM BR OVC002 04/02 A3029 RMK AO2 SLP259 T00390022 10039 20028 55007=
202201241126 SPECI KCLM 241126Z AUTO 11005KT 1 3/4SM BR OVC002 04/02 A3029 RMK AO2 T00390022=
202201241053 METAR KCLM 241053Z AUTO 14004KT 6SM BR OVC002 04/02 A3028 RMK AO2 SLP257 T00390022=
202201240953 METAR KCLM 240953Z AUTO 00000KT 5SM BR OVC002 04/03 A3029 RMK AO2 SLP261 T00390028=
202201240853 METAR KCLM 240853Z AUTO 14005KT 9SM OVC004 04/02 A3031 RMK AO2 SLP266 T00390022 56001=
202201240753 METAR KCLM 240753Z AUTO 13005KT 9SM OVC003 03/02 A3031 RMK AO2 SLP267 T00330017 400610011=
202201240742 SPECI KCLM 240742Z AUTO 10005KT 7SM OVC002 03/02 A3030 RMK AO2 T00330017=
202201240733 SPECI KCLM 240733Z AUTO 10004KT 2SM BR OVC002 03/02 A3030 RMK AO2 T00330017=
202201240653 METAR KCLM 240653Z AUTO 15003KT 3/4SM BR OVC002 03/02 A3030 RMK AO2 SLP261 T00280017=
202201240640 SPECI KCLM 240640Z AUTO 15004KT 1 3/4SM BR OVC002 03/02 A3030 RMK AO2 T00280017=
202201240629 SPECI KCLM 240629Z AUTO 15003KT 3SM BR OVC002 03/02 A3031 RMK AO2 T00330017=
202201240611 SPECI KCLM 240611Z AUTO 00000KT 1 1/4SM BR OVC002 03/02 A3031 RMK AO2 T00330017=
202201240553 METAR KCLM 240553Z AUTO 00000KT 2SM BR OVC002 03/02 A3031 RMK AO2 VIS 1 1/2V4 SLP267 T00280022 10050 20028 58007=
202201240542 SPECI KCLM 240542Z AUTO 00000KT 1 1/4SM BR OVC002 03/02 A3032 RMK AO2 T00330022=
202201240535 SPECI KCLM 240535Z AUTO 00000KT 2SM BR OVC002 03/02 A3032 RMK AO2 VIS 1 3/4V3 T00330022=
202201240453 METAR KCLM 240453Z AUTO 16005KT 6SM BR OVC003 04/02 A3033 RMK AO2 SLP273 T00390022=
202201240353 METAR KCLM 240353Z AUTO 12006KT 5SM BR OVC003 04/03 A3034 RMK AO2 SLP275 T00440028=
202201240253 METAR KCLM 240253Z AUTO 11005KT 4SM BR OVC002 04/03 A3034 RMK AO2 SLP274 T00440028 56007=
202201240239 SPECI KCLM 240239Z AUTO 13004KT 3SM BR OVC002 04/02 A3033 RMK AO2 T00390022=
202201240229 SPECI KCLM 240229Z AUTO 12005KT 2 1/2SM BR OVC002 04/03 A3033 RMK AO2 T00390028=
202201240219 SPECI KCLM 240219Z AUTO 08004KT 1 3/4SM BR OVC002 04/02 A3033 RMK AO2 T00390022=
202201240205 SPECI KCLM 240205Z AUTO 12003KT 2 1/2SM BR OVC002 04/03 A3033 RMK AO2 T00390028=
202201240153 METAR KCLM 240153Z AUTO 12003KT 3SM BR OVC003 04/03 A3034 RMK AO2 SLP275 T00390028=
202201240053 METAR KCLM 240053Z AUTO 14005KT 6SM BR OVC004 05/03 A3035 RMK AO2 SLP281 T00500028=
202201232353 METAR KCLM 232353Z AUTO 07005KT 10SM OVC004 05/03 A3036 RMK AO2 SLP281 T00500028 10061 20044 53000=
202201232253 METAR KCLM 232253Z AUTO 09007KT 8SM OVC004 05/03 A3036 RMK AO2 SLP281 T00500028=
202201232220 SPECI KCLM 232220Z AUTO 07004KT 7SM OVC004 05/03 A3035 RMK AO2 T00500028=
202201232153 METAR KCLM 232153Z AUTO 08005KT 7SM OVC005 06/03 A3035 RMK AO2 SLP278 T00560028=
202201232107 SPECI KCLM 232107Z AUTO VRB03KT 9SM OVC005 06/03 A3035 RMK AO2 T00560033=
202201232053 METAR KCLM 232053Z AUTO 11004KT 8SM OVC004 06/03 A3035 RMK AO2 SLP281 T00560033 58020=
202201231953 METAR KCLM 231953Z AUTO 12005KT 7SM OVC004 05/03 A3040 RMK AO2 SLP296 T00500033=
202201231853 METAR KCLM 231853Z AUTO 13006KT 6SM BR OVC003 04/03 A3042 RMK AO2 SLP305 T00440028=
202201231753 METAR KCLM 231753Z AUTO 11005KT 4SM BR OVC003 04/03 A3041 RMK AO2 SLP302 T00440028 10044 20033 50000=
202201231653 METAR KCLM 231653Z AUTO 13004KT 7SM OVC004 04/03 A3042 RMK AO2 SLP303 T00440028=
202201231553 METAR KCLM 231553Z AUTO 15005KT 8SM OVC003 04/02 A3042 RMK AO2 SLP305 T00390022=
202201231453 METAR KCLM 231453Z AUTO 15007KT 6SM BR OVC003 03/02 A3041 RMK AO2 SLP302 T00330022 55005=
202201231353 METAR KCLM 231353Z AUTO 13005KT 6SM BR OVC003 03/02 A3041 RMK AO2 SLP299 T00330022=
202201231253 METAR KCLM 231253Z AUTO 13005KT 5SM BR OVC003 04/02 A3042 RMK AO2 SLP303 T00390022=
202201231200 SPECI KCLM 231200Z AUTO 14007KT 8SM OVC004 04/02 A3043 RMK AO2 T00390022=
202201231153 METAR KCLM 231153Z AUTO 15007KT 8SM OVC005 04/02 A3043 RMK AO2 SLP306 I6000 T00390022 10039 20000 56011=
202201231053 METAR KCLM 231053Z AUTO 13007KT 9SM OVC006 04/02 A3044 RMK AO2 SLP310 T00390022=
202201230953 METAR KCLM 230953Z AUTO 12004KT 10SM OVC007 04/02 A3044 RMK AO2 SLP311 T00390022=
202201230853 METAR KCLM 230853Z AUTO 11007KT 10SM OVC008 03/02 A3046 RMK AO2 SLP317 I3000 T00330017 58003=
202201230807 SPECI KCLM 230807Z AUTO 12006KT 10SM BKN009 02/00 A3047 RMK AO2 T00170000=
202201230753 METAR KCLM 230753Z AUTO 10004KT 10SM FEW009 01/M01 A3047 RMK AO2 SLP320 I1000 T00061006 400781006=
202201230653 METAR KCLM 230653Z AUTO 15004KT 9SM SCT009 01/M01 A3047 RMK AO2 SLP321 T00061011=
202201230553 METAR KCLM 230553Z AUTO 13005KT 6SM BR CLR 02/01 A3047 RMK AO2 SLP321 T00170006 10067 20017 56008=
202201230453 METAR KCLM 230453Z AUTO 11004KT 9SM CLR 02/01 A3047 RMK AO2 SLP322 T00220011=
202201230353 METAR KCLM 230353Z AUTO 12005KT 8SM CLR 03/01 A3048 RMK AO2 SLP325 T00280011=
202201230253 METAR KCLM 230253Z AUTO 13006KT 8SM CLR 03/01 A3050 RMK AO2 SLP329 T00280011 58006=
202201230153 METAR KCLM 230153Z AUTO 12004KT 10SM CLR 04/03 A3050 RMK AO2 SLP330 T00440028=
202201230053 METAR KCLM 230053Z AUTO 10005KT 10SM CLR 06/03 A3051 RMK AO2 SLP335 T00560028=
202201222353 METAR KCLM 222353Z AUTO 11008KT 10SM FEW011 07/03 A3052 RMK AO2 SLP335 T00670033 10078 20061 58013=
202201222320 SPECI KCLM 222320Z AUTO 09009KT 10SM SCT012 07/03 A3053 RMK AO2 T00720033=
202201222253 METAR KCLM 222253Z AUTO 09008KT 10SM OVC012 07/03 A3053 RMK AO2 SLP341 T00720033=
202201222153 METAR KCLM 222153Z AUTO 07007KT 10SM OVC012 07/03 A3054 RMK AO2 SLP344 T00720033=
202201222053 METAR KCLM 222053Z AUTO 09009KT 10SM OVC013 07/03 A3055 RMK AO2 SLP349 T00720033 58007=
202201222029 SPECI KCLM 222029Z AUTO 07007KT 10SM BKN013 07/03 A3056 RMK AO2 T00720033=
202201221953 METAR KCLM 221953Z AUTO 08005KT 10SM CLR 07/03 A3057 RMK AO2 SLP353 T00670028=
202201221912 SPECI KCLM 221912Z AUTO 08006KT 10SM SCT014 07/03 A3057 RMK AO2 T00720028=
202201221853 METAR KCLM 221853Z AUTO 11009KT 10SM OVC014 07/03 A3058 RMK AO2 SLP356 T00720033=
202201221753 METAR KCLM 221753Z AUTO 11006KT 10SM OVC013 06/03 A3057 RMK AO2 SLP355 T00610028 10061 20044 50000=
202201221653 METAR KCLM 221653Z AUTO 11005KT 10SM OVC014 06/03 A3058 RMK AO2 SLP356 T00610028=
202201221553 METAR KCLM 221553Z AUTO 09005KT 10SM OVC012 06/03 A3057 RMK AO2 SLP355 T00560028=
202201221453 METAR KCLM 221453Z AUTO 13006KT 10SM OVC012 06/03 A3057 RMK AO2 SLP355 T00560028 58010=
202201221353 METAR KCLM 221353Z AUTO 11003KT 10SM OVC011 05/03 A3059 RMK AO2 SLP359 T00500033=
202201221253 METAR KCLM 221253Z AUTO 11003KT 10SM OVC011 05/03 A3061 RMK AO2 SLP367 T00500028=
202201221153 METAR KCLM 221153Z AUTO 15004KT 10SM OVC012 05/03 A3060 RMK AO2 SLP365 I6002 T00500028 10050 21006 58004=
202201221053 METAR KCLM 221053Z AUTO 00000KT 10SM OVC013 03/01 A3062 RMK AO2 SLP369 T00280011=
202201221025 SPECI KCLM 221025Z AUTO 00000KT 10SM OVC014 02/01 A3062 RMK AO2 T00220011=
202201220953 METAR KCLM 220953Z AUTO 22003KT 10SM OVC015 01/00 A3062 RMK AO2 SLP370 I1001 T00110000=
202201220933 SPECI KCLM 220933Z AUTO 00000KT 10SM BKN015 02/00 A3062 RMK AO2 I1001 T00170000=
202201220853 METAR KCLM 220853Z AUTO 00000KT 8SM FEW015 01/M01 A3062 RMK AO2 SLP369 I1001 I3001 T00061011 58005=
202201220753 METAR KCLM 220753Z AUTO 00000KT 10SM CLR 02/01 A3063 RMK AO2 SLP373 T00220006 400890017=
202201220653 METAR KCLM 220653Z AUTO 23003KT 9SM FEW016 03/01 A3063 RMK AO2 SLP373 T00280011=
202201220608 SPECI KCLM 220608Z AUTO 22003KT 10SM SCT015 04/03 A3063 RMK AO2 T00440028=
202201220553 METAR KCLM 220553Z AUTO 21003KT 10SM BKN015 OVC021 04/03 A3063 RMK AO2 SLP374 T00440028 10083 20022 55004=
202201220453 METAR KCLM 220453Z AUTO 00000KT 9SM OVC018 03/02 A3062 RMK AO2 SLP370 T00330017=
202201220409 SPECI KCLM 220409Z AUTO 00000KT 10SM BKN021 03/02 A3063 RMK AO2 T00330022=
202201220402 SPECI KCLM 220402Z AUTO 00000KT 9SM SCT021 02/01 A3063 RMK AO2 T00220011=
202201220353 METAR KCLM 220353Z AUTO 00000KT 2SM BR FEW021 03/01 A3063 RMK AO2 SLP375 T00280011=
202201220253 METAR KCLM 220253Z AUTO 15003KT 6SM BR CLR 03/02 A3064 RMK AO2 SLP378 T00330017 56005=
202201220210 SPECI KCLM 220210Z AUTO 13003KT 10SM FEW018 06/04 A3065 RMK AO2 T00560039=
202201220153 METAR KCLM 220153Z AUTO 00000KT 10SM BKN018 07/04 A3064 RMK AO2 SLP379 T00670039=
202201220053 METAR KCLM 220053Z AUTO 00000KT 10SM OVC021 08/04 A3065 RMK AO2 SLP382 T00780044=
202201212353 METAR KCLM 212353Z AUTO 00000KT 10SM OVC019 08/04 A3066 RMK AO2 SLP383 T00830044 10089 20067 53004=
202201212253 METAR KCLM 212253Z AUTO 00000KT 10SM OVC022 08/04 A3065 RMK AO2 SLP381 T00780044=
202201212153 METAR KCLM 212153Z AUTO 36003KT 10SM OVC022 08/04 A3064 RMK AO2 SLP380 T00830044=
202201212053 METAR KCLM 212053Z AUTO VRB04KT 10SM FEW017 OVC026 08/04 A3064 RMK AO2 SLP379 T00830039 58003=
202201211953 METAR KCLM 211953Z AUTO VRB03KT 10SM BKN017 BKN024 08/04 A3066 RMK AO2 SLP384 T00830044=
202201211918 SPECI KCLM 211918Z AUTO 01004KT 10SM BKN015 08/04 A3066 RMK AO2 T00830044=
202201211853 METAR KCLM 211853Z AUTO 00000KT 10SM CLR 08/04 A3067 RMK AO2 SLP388 T00780039=
202201211753 METAR KCLM 211753Z AUTO 24003KT 10SM CLR 07/03 A3065 RMK AO2 SLP383 T00670028 10067 20022 53017=
202201211700 SPECI KCLM 211700Z AUTO 20003KT 10SM SCT012 04/01 A3063 RMK AO2 T00390011=
202201211653 METAR KCLM 211653Z AUTO 00000KT 10SM BKN012 04/02 A3063 RMK AO2 SLP376 T00440017=
202201211630 SPECI KCLM 211630Z AUTO 21004KT 10SM BKN012 03/01 A3064 RMK AO2 T00330011=
202201211553 METAR KCLM 211553Z AUTO 23005KT 10SM CLR 03/01 A3062 RMK AO2 SLP370 T00330011=
202201211453 METAR KCLM 211453Z AUTO 22003KT 10SM CLR 04/01 A3060 RMK AO2 SLP365 T00440011 53006=
202201211411 SPECI KCLM 211411Z AUTO 22007KT 10SM FEW013 04/01 A3061 RMK AO2 T00390011=
202201211353 METAR KCLM 211353Z AUTO 29005KT 10SM CLR 03/00 A3058 RMK AO2 PRESRR SLP358 T00280000=
202201211307 SPECI KCLM 211307Z AUTO 00000KT 10SM SCT015 03/01 A3056 RMK AO2 PRESFR T00330006=
202201211253 METAR KCLM 211253Z AUTO 22004KT 10SM BKN015 04/01 A3058 RMK AO2 SLP358 T00440006=
202201211250 SPECI KCLM 211250Z AUTO 22005KT 10SM BKN015 04/01 A3058 RMK AO2=
202201211153 METAR KCLM 211153Z AUTO 24009KT 10SM CLR 05/01 A3058 RMK AO2 SLP356 70011 T00500006 10061 20033 51022=
202201211053 METAR KCLM 211053Z AUTO 26006KT 10SM CLR 04/01 A3056 RMK AO2 SLP352 T00390006=
202201210953 METAR KCLM 210953Z AUTO 25006KT 10SM CLR 04/01 A3057 RMK AO2 SLP353 T00440011=
202201210853 METAR KCLM 210853Z AUTO 27007KT 10SM CLR 04/01 A3051 RMK AO2 SLP334 T00440011 51022=
202201210753 METAR KCLM 210753Z AUTO 26008KT 10SM CLR 06/02 A3050 RMK AO2 SLP329 T00560022 401170050=
202201210653 METAR KCLM 210653Z AUTO 25010KT 10SM CLR 06/02 A3047 RMK AO2 SLP318 T00560022=
202201210553 METAR KCLM 210553Z AUTO 29008KT 10SM CLR 06/02 A3045 RMK AO2 SLP311 T00560022 10094 20050 51031=
202201210453 METAR KCLM 210453Z AUTO 28009KT 10SM CLR 06/02 A3042 RMK AO2 SLP304 T00610022=
202201210353 METAR KCLM 210353Z AUTO 30007KT 10SM CLR 08/03 A3040 RMK AO2 PRESRR SLP294 T00830028=
202201210253 METAR KCLM 210253Z AUTO 27014KT 10SM CLR 08/02 A3035 RMK AO2 SLP280 T00830022 53014=
202201210153 METAR KCLM 210153Z AUTO 28011KT 10SM SCT060 08/03 A3034 RMK AO2 SLP274 T00830028=
202201210053 METAR KCLM 210053Z AUTO 29014G21KT 10SM FEW050 09/03 A3031 RMK AO2 PK WND 28031/0029 SLP265 T00890028=
202201202353 METAR KCLM 202353Z AUTO 30010G20KT 10SM FEW040 OVC050 09/03 A3031 RMK AO2 SLP266 T00890033 10117 20083 53028=
202201202253 METAR KCLM 202253Z AUTO 29013G25KT 10SM BKN050 BKN110 09/04 A3028 RMK AO2 PK WND 31030/2210 PRESRR SLP255 T00940039=
202201202153 METAR KCLM 202153Z AUTO 31014G25KT 10SM CLR 09/04 A3024 RMK AO2 PK WND 31027/2059 SLP241 T00890044=
202201202053 METAR KCLM 202053Z AUTO 30013G24KT 10SM FEW007 09/06 A3023 RMK AO2 PK WND 29035/2016 SLP238 T00890061 50017=
202201202041 SPECI KCLM 202041Z AUTO 31015G32KT 10SM SCT007 09/06 A3023 RMK AO2 PK WND 29035/2016 T00890061=
202201202011 SPECI KCLM 202011Z AUTO 31016G29KT 10SM BKN007 09/07 A3023 RMK AO2 PK WND 30029/2009 CIG 004V009 T00940067=
202201201953 METAR KCLM 201953Z AUTO 31013G24KT 10SM FEW008 10/07 A3024 RMK AO2 PK WND 30026/1936 SLP240 T01000067=
202201201853 METAR KCLM 201853Z AUTO 30018G27KT 10SM CLR 11/07 A3019 RMK AO2 PK WND 30027/1845 SLP225 T01060067=
202201201753 METAR KCLM 201753Z AUTO 26008KT 10SM CLR 11/08 A3018 RMK AO2 SLP221 60011 T01110078 10111 20078 53017=
202201201653 METAR KCLM 201653Z AUTO 27006KT 10SM BKN050 10/08 A3015 RMK AO2 SLP212 T01000078=
202201201553 METAR KCLM 201553Z AUTO 00000KT 10SM OVC050 08/07 A3013 RMK AO2 RAE07 SLP204 P0000 T00830072=
202201201453 METAR KCLM 201453Z AUTO 34004KT 7SM -RA OVC055 08/07 A3013 RMK AO2 RAB07 SLP204 P0001 60011 T00830067 55000=
202201201417 SPECI KCLM 201417Z AUTO 20005KT 4SM -RA BR FEW001 BKN046 OVC065 08/07 A3011 RMK AO2 RAB07 P0001 T00780067=
202201201410 SPECI KCLM 201410Z AUTO 24004KT 4SM -RA BR FEW001 BKN025 BKN037 08/07 A3012 RMK AO2 RAB07 P0000 T00780067=
202201201408 SPECI KCLM 201408Z AUTO 28004KT 2 1/2SM -RA BR SCT001 SCT007 BKN037 08/07 A3012 RMK AO2 RAB07 PRESRR P0000 T00780067=
202201201403 SPECI KCLM 201403Z AUTO VRB04KT 1 3/4SM BR BKN003 BKN048 BKN065 08/07 A3011 RMK AO2 T00780067=
202201201400 SPECI KCLM 201400Z AUTO 36006KT 1 3/4SM BR SCT001 BKN017 08/07 A3011 RMK AO2 PRESRR T00780067=
202201201353 METAR KCLM 201353Z AUTO 00000KT 6SM BR SCT001 BKN042 BKN065 08/07 A3009 RMK AO2 RAE48 SLP190 P0002 T00780067=
202201201253 METAR KCLM 201253Z AUTO 33004KT 10SM -RA OVC070 08/07 A3010 RMK AO2 SLP194 P0008 T00780067=
202201201220 SPECI KCLM 201220Z AUTO 18005KT 3SM RA BR SCT002 OVC032 08/07 A3013 RMK AO2 P0005 T00780067=
202201201215 SPECI KCLM 201215Z AUTO 17003KT 2 1/2SM RA BR SCT003 OVC015 08/07 A3013 RMK AO2 P0002 T00780067=
202201201210 SPECI KCLM 201210Z AUTO 00000KT 2 1/2SM -RA BR SCT003 OVC006 08/07 A3013 RMK AO2 P0001 T00780067=
202201201158 SPECI KCLM 201158Z AUTO 22003KT 1SM -RA BR VV003 08/07 A3013 RMK AO2 P0000 T00780067=
202201201153 METAR KCLM 201153Z AUTO 20003KT 3/4SM -RA BR FEW002 BKN008 OVC050 08/06 A3013 RMK AO2 RAE10B24 SLP204 P0001 60004 70004 T00780061 10083 20078 55007=
202201201146 SPECI KCLM 201146Z AUTO 32004KT 1 3/4SM -RA BR SCT002 BKN014 OVC050 08/06 A3012 RMK AO2 RAE10B24 P0000 T00780061=
202201201143 SPECI KCLM 201143Z AUTO 31004KT 2SM -RA BR SCT002 BKN023 OVC055 08/07 A3012 RMK AO2 RAE10B24 P0000 T00780067=
202201201132 SPECI KCLM 201132Z AUTO 00000KT 1SM -RA BR FEW002 BKN040 OVC055 08/07 A3011 RMK AO2 RAE10B24 P0000 T00780067=
202201201125 SPECI KCLM 201125Z AUTO 30003KT 1 1/4SM -RA BR FEW002 BKN028 OVC055 08/06 A3012 RMK AO2 RAE10B24 P0000 T00780061=
202201201115 SPECI KCLM 201115Z AUTO 00000KT 1SM BR BKN022 BKN055 OVC070 08/06 A3011 RMK AO2 RAE10 P0000 T00780061=
202201201110 SPECI KCLM 201110Z AUTO 11003KT 3/4SM BR BKN011 OVC065 08/06 A3010 RMK AO2 RAE10 P0000 T00780061=
202201201053 METAR KCLM 201053Z AUTO 00000KT 1/2SM -RA FG VV003 08/06 A3012 RMK AO2 SLP200 P0002 T00780061=
202201201006 SPECI KCLM 201006Z AUTO 00000KT 3/4SM -RA BR VV003 08/07 A3014 RMK AO2 P0001 T00780067=
202201200953 METAR KCLM 200953Z AUTO 00000KT 1 1/4SM -RA BR OVC002 08/07 A3013 RMK AO2 SLP206 P0001 T00780067=
202201200950 SPECI KCLM 200950Z AUTO 00000KT 1 3/4SM -RA BR OVC002 08/07 A3013 RMK AO2 P0001=
202201200853 METAR KCLM 200853Z AUTO 00000KT 5SM -RA BR OVC003 08/07 A3015 RMK AO2 RAB0757 SLP211 P0000 60000 T00830067 58017=
202201200753 METAR KCLM 200753Z AUTO 00000KT 6SM BR OVC003 08/07 A3017 RMK AO2 RAE03 SLP217 P0000 T00780067 400830044=
202201200453 METAR KCLM 200453Z AUTO 24006KT 10SM OVC007 07/06 A3020 RMK AO2 RAB0354E08 SLP230 P0000 T00720056=
202201200442 SPECI KCLM 200442Z AUTO 25005KT 9SM BKN008 BKN012 OVC060 07/06 A3020 RMK AO2 RAB0354E08 P0000 T00720056=
202201200432 SPECI KCLM 200432Z AUTO 23004KT 7SM SCT008 BKN012 OVC060 07/06 A3020 RMK AO2 RAB0354E08 P0000 T00720061=
202201200353 METAR KCLM 200353Z AUTO 24003KT 6SM BR OVC055 07/06 A3020 RMK AO2 SLP228 T00720056=
202201200300 SPECI KCLM 200300Z AUTO 16003KT 7SM SCT010 OVC060 07/06 A3020 RMK AO2 T00720056=
202201200253 METAR KCLM 200253Z AUTO 15004KT 8SM FEW007 BKN010 OVC055 07/06 A3020 RMK AO2 SLP230 60000 T00720056 58010=
202201200153 METAR KCLM 200153Z AUTO 14005KT 10SM OVC007 07/05 A3022 RMK AO2 PRESFR SLP235 T00720050=
202201200136 SPECI KCLM 200136Z AUTO 00000KT 10SM OVC006 07/06 A3024 RMK AO2 CIG 004V009 T00720056=
202201200053 METAR KCLM 200053Z AUTO 00000KT 10SM BKN004 OVC008 07/06 A3024 RMK AO2 RAB06E31 SLP242 P0000 T00720056=
202201192353 METAR KCLM 192353Z AUTO 00000KT 10SM OVC005 08/06 A3023 RMK AO2 SLP240 T00780056 10083 20072 58010=
202201192253 METAR KCLM 192253Z AUTO 00000KT 10SM OVC005 08/06 A3025 RMK AO2 SLP245 T00780056=
202201192153 METAR KCLM 192153Z AUTO 01003KT 10SM OVC006 08/06 A3026 RMK AO2 SLP248 T00780056=
202201192053 METAR KCLM 192053Z AUTO VRB03KT 10SM OVC008 08/06 A3026 RMK AO2 CIG 005V009 SLP250 T00780056 58007=
202201191953 METAR KCLM 191953Z AUTO 00000KT 10SM OVC009 08/06 A3027 RMK AO2 CIG 007V013 SLP252 T00830061=
202201191853 METAR KCLM 191853Z AUTO 00000KT 10SM OVC007 08/06 A3029 RMK AO2 SLP257 T00780056=
202201191753 METAR KCLM 191753Z AUTO 23003KT 10SM OVC008 07/06 A3028 RMK AO2 SLP257 T00720056 10072 20050 51006=
202201191653 METAR KCLM 191653Z AUTO 00000KT 8SM OVC006 07/06 A3028 RMK AO2 SLP254 T00720056=
202201191643 SPECI KCLM 191643Z AUTO 00000KT 10SM OVC005 07/05 A3027 RMK AO2 CIG 003V007 T00670050=
202201191553 METAR KCLM 191553Z AUTO 25003KT 10SM OVC004 06/04 A3028 RMK AO2 SLP255 T00610044=
202201191453 METAR KCLM 191453Z AUTO 24004KT 10SM OVC004 07/04 A3027 RMK AO2 SLP251 T00670039 53004=
202201191416 SPECI KCLM 191416Z AUTO 00000KT 10SM BKN004 OVC100 06/04 A3026 RMK AO2 T00560039=
202201191353 METAR KCLM 191353Z AUTO 00000KT 10SM SCT003 OVC100 05/04 A3026 RMK AO2 SLP249 T00500039=
202201191314 SPECI KCLM 191314Z AUTO 00000KT 10SM OVC003 06/04 A3026 RMK AO2 T00560044=
202201191253 METAR KCLM 191253Z AUTO 00000KT 10SM OVC006 06/04 A3026 RMK AO2 CIG 003V007 SLP248 T00560039=
202201191244 SPECI KCLM 191244Z AUTO 00000KT 10SM BKN006 OVC065 06/04 A3026 RMK AO2 T00560039=
202201191235 SPECI KCLM 191235Z AUTO 00000KT 10SM SCT006 OVC065 05/04 A3026 RMK AO2 T00500039=
202201191153 METAR KCLM 191153Z AUTO 23004KT 10SM OVC065 06/04 A3025 RMK AO2 SLP247 70003 T00610039 10067 20044 51010=
202201191117 SPECI KCLM 191117Z AUTO 21003KT 10SM SCT003 OVC065 05/04 A3025 RMK AO2 T00500039=
202201191053 METAR KCLM 191053Z AUTO 00000KT 10SM BKN003 OVC065 05/04 A3025 RMK AO2 SLP246 T00500039=
202201191045 SPECI KCLM 191045Z AUTO 23004KT 10SM BKN004 OVC065 06/04 A3025 RMK AO2 T00560044=
202201190953 METAR KCLM 190953Z AUTO 00000KT 4SM BR FEW001 FEW070 04/03 A3024 RMK AO2 SLP242 T00440033=
202201190946 SPECI KCLM 190946Z AUTO 00000KT 8SM SCT001 05/04 A3024 RMK AO2 T00500039=
202201190925 SPECI KCLM 190925Z AUTO 24004KT 1/2SM FG VV001 05/04 A3023 RMK AO2 T00500039=
202201190918 SPECI KCLM 190918Z AUTO 25003KT 1 1/2SM BR OVC002 06/05 A3023 RMK AO2 T00610050=
202201190853 METAR KCLM 190853Z AUTO 24004KT 10SM BKN003 OVC065 06/04 A3023 RMK AO2 SLP237 T00560044 53003=
202201190848 SPECI KCLM 190848Z AUTO 23004KT 10SM SCT003 OVC065 06/04 A3022 RMK AO2=
202201182053 METAR KCLM 182053Z AUTO 00000KT 10SM BKN017 OVC023 09/06 A3012 RMK AO2 SLP200 T00940056 51003=
202201182048 SPECI KCLM 182048Z AUTO 02003KT 10SM BKN015 OVC023 09/06 A3012 RMK AO2=
202201181953 METAR KCLM 181953Z AUTO 00000KT 10SM OVC013 09/06 A3012 RMK AO2 SLP199 T00890061=
202201181928 SPECI KCLM 181928Z AUTO 36003KT 10SM BKN011 OVC075 09/06 A3011 RMK AO2 T00940061=
202201181902 SPECI KCLM 181902Z AUTO 00000KT 10SM SCT013 OVC075 09/06 A3011 RMK AO2 T00890061=
202201181853 METAR KCLM 181853Z AUTO 25004KT 10SM BKN013 OVC075 09/06 A3011 RMK AO2 SLP199 T00890061=
202201181753 METAR KCLM 181753Z AUTO 22003KT 5SM BR OVC012 08/06 A3010 RMK AO2 SLP193 60003 T00780061 10078 20067 53016=
202201181653 METAR KCLM 181653Z AUTO 00000KT 4SM BR OVC011 07/06 A3008 RMK AO2 SLP187 T00720056=
202201181629 SPECI KCLM 181629Z AUTO 00000KT 4SM BR SCT002 OVC012 07/06 A3007 RMK AO2 T00720056=
202201181553 METAR KCLM 181553Z AUTO 00000KT 4SM BR OVC003 07/06 A3006 RMK AO2 SLP182 T00670056=
202201181510 SPECI KCLM 181510Z AUTO 00000KT 5SM BR BKN004 OVC009 07/06 A3005 RMK AO2 T00670056=
202201181457 SPECI KCLM 181457Z AUTO 00000KT 3SM BR FEW003 BKN010 OVC016 07/06 A3005 RMK AO2 T00670056=
202201181450 METAR KCLM 181450Z AUTO 00000KT 2 1/2SM BR FEW003 BKN010 OVC015 07/06 A3005 RMK AO2 SLP177 60003 T00670056 53009=
202201181449 SPECI KCLM 181449Z AUTO 00000KT 2SM BR FEW003 BKN010 OVC015 07/06 A3005 RMK AO2=
202201181440 SPECI KCLM 181440Z AUTO 00000KT 1 3/4SM BR BKN010 OVC015 07/06 A3004 RMK AO2 CIG 009V012 T00670056=
202201181353 METAR KCLM 181353Z AUTO 00000KT 3SM BR FEW005 BKN011 OVC021 07/06 A3003 RMK AO2 RAE13 SLP171 P0000 T00720056=
202201181340 SPECI KCLM 181340Z AUTO 00000KT 4SM BR FEW005 OVC011 07/06 A3003 RMK AO2 RAE13 P0000 T00720056=
202201181319 SPECI KCLM 181319Z AUTO 00000KT 3SM BR BKN004 OVC013 07/06 A3003 RMK AO2 RAE13 P0000 T00670056=
202201181306 SPECI KCLM 181306Z AUTO 00000KT 2SM -RA BR BKN004 OVC014 07/06 A3003 RMK AO2 P0000 T00670056=
202201181253 METAR KCLM 181253Z AUTO 00000KT 1 1/2SM -RA BR BKN004 OVC014 07/06 A3002 RMK AO2 SLP168 P0003 T00670056=
202201181249 SPECI KCLM 181249Z AUTO 00000KT 1 1/2SM -RA BR BKN004 OVC012 07/06 A3002 RMK AO2 P0003=
202201181233 SPECI KCLM 181233Z AUTO 00000KT 2 1/2SM -RA BR OVC004 07/06 A3002 RMK AO2 P0001 T00720056=
202201181225 SPECI KCLM 181225Z AUTO 00000KT 3SM -RA BR OVC003 07/06 A3001 RMK AO2 P0001 T00720056=
202201181153 METAR KCLM 181153Z AUTO 00000KT 2 1/2SM -RA BR OVC002 07/06 A3000 RMK AO2 RAB43 SLP161 P0000 60002 70012 T00720056 10072 20067 51005=
202201181145 SPECI KCLM 181145Z AUTO 00000KT 3SM -RA BR OVC002 07/06 A3000 RMK AO2 RAB43 P0000 T00720056=
202201181135 SPECI KCLM 181135Z AUTO 00000KT 2SM BR OVC003 07/06 A3000 RMK AO2 VIS 1 1/2V4 T00670056=
202201181053 METAR KCLM 181053Z AUTO 00000KT 5SM BR OVC003 07/06 A3000 RMK AO2 RAE18 SLP160 P0001 T00670056=
202201181005 SPECI KCLM 181005Z AUTO 00000KT 5SM -RA BR OVC004 07/06 A2999 RMK AO2 CIG 002V007 P0001 T00670056=
202201180953 METAR KCLM 180953Z AUTO 00000KT 6SM -RA BR OVC005 07/06 A2999 RMK AO2 RAB09 CIG 003V007 SLP158 P0001 T00670056=
202201180942 SPECI KCLM 180942Z AUTO 00000KT 4SM -RA BR OVC005 07/06 A2999 RMK AO2 RAB09 P0001 T00720056=
202201180853 METAR KCLM 180853Z AUTO 00000KT 7SM OVC003 07/06 A2999 RMK AO2 RAB17E33 SLP155 P0000 60000 T00720056 53007=
202201180837 SPECI KCLM 180837Z AUTO 00000KT 7SM OVC004 07/06 A2998 RMK AO2 RAB17E33 P0000 T00720056=
202201180813 SPECI KCLM 180813Z AUTO 00000KT 10SM OVC005 07/06 A2998 RMK AO2 T00720056=
202201180753 METAR KCLM 180753Z AUTO 07003KT 7SM OVC004 07/06 A2998 RMK AO2 SLP152 T00720056 401000022=
202201180738 SPECI KCLM 180738Z AUTO 00000KT 5SM BR BKN003 BKN019 OVC048 07/06 A2998 RMK AO2 T00720056=
202201180729 SPECI KCLM 180729Z AUTO 00000KT 3SM BR SCT002 BKN019 OVC048 07/06 A2997 RMK AO2 T00720056=
202201180726 SPECI KCLM 180726Z AUTO 00000KT 2 1/2SM BR FEW002 SCT019 OVC048 07/06 A2997 RMK AO2 T00720056=
202201180653 METAR KCLM 180653Z AUTO 00000KT 1 1/4SM BR FEW002 BKN035 OVC045 07/06 A2997 RMK AO2 SLP150 T00670056=
202201180646 SPECI KCLM 180646Z AUTO 00000KT 1 1/4SM BR FEW002 BKN017 OVC047 07/06 A2997 RMK AO2 T00720056=
202201180626 SPECI KCLM 180626Z AUTO 00000KT 2SM BR FEW002 FEW017 OVC048 07/06 A2997 RMK AO2 T00720056=
202201180617 SPECI KCLM 180617Z AUTO 00000KT 3SM BR SCT002 OVC048 07/06 A2997 RMK AO2 T00670056=
202201180553 METAR KCLM 180553Z AUTO 00000KT 4SM BR OVC002 07/06 A2996 RMK AO2 RAB13E29 SLP149 P0000 60010 T00720056 10083 20072 57002=
202201180511 SPECI KCLM 180511Z AUTO 00000KT 4SM BR BKN003 OVC018 07/06 A2997 RMK AO2 T00720056=
202201180502 SPECI KCLM 180502Z AUTO 29003KT 4SM BR SCT003 BKN018 OVC050 07/06 A2997 RMK AO2 T00720056=
202201180453 METAR KCLM 180453Z AUTO 00000KT 4SM BR BKN018 OVC050 07/06 A2997 RMK AO2 RAE51 SLP149 P0004 T00720056=
202201180443 SPECI KCLM 180443Z AUTO 00000KT 3SM -RA BR SCT017 OVC049 07/06 A2996 RMK AO2 P0004 T00720056=
202201180430 SPECI KCLM 180430Z AUTO 00000KT 1 1/4SM -RA BR FEW017 OVC047 07/06 A2996 RMK AO2 P0003 T00720056=
202201180415 SPECI KCLM 180415Z AUTO 00000KT 2 1/2SM -RA BR FEW017 OVC040 07/06 A2997 RMK AO2 P0002 T00720061=
202201180402 SPECI KCLM 180402Z AUTO 00000KT 3SM -RA BR FEW018 OVC046 07/06 A2997 RMK AO2 P0001 T00720056=
202201180353 METAR KCLM 180353Z AUTO 00000KT 1 1/2SM -RA BR OVC050 07/06 A2997 RMK AO2 SLP151 P0001 T00720056=
202201180349 SPECI KCLM 180349Z AUTO 00000KT 1 3/4SM -RA BR OVC050 07/06 A2997 RMK AO2 P0001=
202201180324 SPECI KCLM 180324Z AUTO 00000KT 4SM -RA BR FEW017 SCT023 OVC060 07/06 A2997 RMK AO2 P0000 T00720061=
202201180253 METAR KCLM 180253Z AUTO 00000KT 5SM -RA BR BKN021 OVC050 07/06 A2997 RMK AO2 SLP151 P0001 60005 T00720056 58005=
202201180153 METAR KCLM 180153Z AUTO 00000KT 7SM -RA BKN022 OVC060 07/06 A2998 RMK AO2 SLP154 P0004 T00720061=
202201180110 SPECI KCLM 180110Z AUTO 13005KT 3SM RA BR SCT027 BKN045 OVC050 07/05 A2999 RMK AO2 P0003 T00720050=
202201180053 METAR KCLM 180053Z AUTO 12003KT 6SM -RA BR BKN029 BKN045 OVC050 08/06 A2999 RMK AO2 RAB23 SLP157 P0000 T00780056=
202201180051 SPECI KCLM 180051Z AUTO 11003KT 6SM -RA BR BKN029 OVC048 08/06 A2999 RMK AO2 RAB23 P0000=
202201172353 METAR KCLM 172353Z AUTO 00000KT 10SM OVC055 08/04 A2999 RMK AO2 SLP156 T00830044 10100 20072 56004=
202201172253 METAR KCLM 172253Z AUTO 00000KT 10SM OVC075 08/04 A2999 RMK AO2 SLP157 T00780044=
202201172153 METAR KCLM 172153Z AUTO 00000KT 10SM BKN060 OVC070 08/05 A2998 RMK AO2 SLP154 T00830050=
202201172053 METAR KCLM 172053Z AUTO 28004KT 10SM OVC050 09/04 A3000 RMK AO2 SLP160 T00940044 58006=
202201171953 METAR KCLM 171953Z AUTO 00000KT 10SM BKN050 BKN080 09/05 A3001 RMK AO2 SLP164 T00890050=
202201171853 METAR KCLM 171853Z AUTO 11004KT 10SM OVC060 09/05 A3002 RMK AO2 SLP169 T00890050=
202201171753 METAR KCLM 171753Z AUTO 23005KT 10SM OVC050 07/04 A3002 RMK AO2 SLP166 T00670044 10067 20022 50002=
202201171653 METAR KCLM 171653Z AUTO 00000KT 7SM BKN070 03/02 A3002 RMK AO2 SLP169 T00280017=
202201171553 METAR KCLM 171553Z AUTO 16004KT 8SM CLR 02/01 A3000 RMK AO2 SLP162 T00220011=
202201171453 METAR KCLM 171453Z AUTO 17004KT 10SM CLR 03/02 A3001 RMK AO2 SLP164 T00280017 57014=
202201171353 METAR KCLM 171353Z AUTO 25003KT 5SM BR CLR 03/02 A3003 RMK AO2 SLP170 T00280017=
202201171253 METAR KCLM 171253Z AUTO 00000KT 4SM BR CLR 03/02 A3003 RMK AO2 SLP172 T00330022=
202201171213 SPECI KCLM 171213Z AUTO 00000KT 6SM BR SCT002 04/03 A3005 RMK AO2 T00390028=
202201171153 METAR KCLM 171153Z AUTO 21003KT 6SM BR OVC002 04/03 A3005 RMK AO2 SLP178 T00390028 10044 20039 56004=
202201171151 SPECI KCLM 171151Z AUTO 20004KT 6SM BR OVC002 04/03 A3005 RMK AO2=
202201171143 SPECI KCLM 171143Z AUTO 24004KT 2SM BR OVC002 04/03 A3006 RMK AO2 T00440028=
202201171128 SPECI KCLM 171128Z AUTO 28003KT 1/2SM FG VV002 04/03 A3005 RMK AO2 T00390028=
202201171119 SPECI KCLM 171119Z AUTO 00000KT 3/4SM BR VV001 04/03 A3004 RMK AO2 T00440033=
202201171110 SPECI KCLM 171110Z AUTO 20003KT 1 3/4SM BR OVC002 04/03 A3005 RMK AO2 T00390028=
202201171053 METAR KCLM 171053Z AUTO 13004KT 4SM BR OVC003 04/03 A3005 RMK AO2 SLP177 T00390028=
202201171024 SPECI KCLM 171024Z AUTO 00000KT 3SM BR OVC002 04/03 A3005 RMK AO2 T00390028=
202201171014 SPECI KCLM 171014Z AUTO 00000KT 2SM BR BKN002 04/03 A3006 RMK AO2 T00390028=
202201170953 METAR KCLM 170953Z AUTO 00000KT 1/2SM FG VV002 04/03 A3006 RMK AO2 SLP182 T00440028=
202201170945 SPECI KCLM 170945Z AUTO 00000KT 1/2SM FG VV002 04/03 A3006 RMK AO2 T00440033=
202201170934 SPECI KCLM 170934Z AUTO 00000KT 1 1/4SM BR OVC002 04/04 A3007 RMK AO2 T00440039=
202201170924 SPECI KCLM 170924Z AUTO 00000KT 2SM BR OVC002 04/04 A3008 RMK AO2 T00440039=
202201170916 SPECI KCLM 170916Z AUTO 00000KT 1 3/4SM BR OVC002 04/03 A3007 RMK AO2 T00440033=
202201170906 SPECI KCLM 170906Z AUTO 16005KT 3/4SM BR OVC002 04/03 A3008 RMK AO2 T00440033=
202201170853 METAR KCLM 170853Z AUTO 16004KT 1SM BR OVC002 04/03 A3008 RMK AO2 SLP189 T00440033 58004=
202201170844 SPECI KCLM 170844Z AUTO 15003KT 1 3/4SM BR OVC002 04/03 A3009 RMK AO2 T00440033=
202201170753 METAR KCLM 170753Z AUTO 18003KT 4SM BR OVC002 04/03 A3009 RMK AO2 SLP192 T00440028 400720039=
202201170705 SPECI KCLM 170705Z AUTO 00000KT 4SM BR BKN002 04/03 A3010 RMK AO2 T00440028=
202201170653 METAR KCLM 170653Z AUTO 00000KT 3SM BR FEW002 04/03 A3010 RMK AO2 SLP193 T00390028=
202201170650 SPECI KCLM 170650Z AUTO 00000KT 2 1/2SM BR FEW002 04/03 A3010 RMK AO2=
202201170553 METAR KCLM 170553Z AUTO 00000KT 6SM BR SCT002 04/03 A3008 RMK AO2 SLP188 T00390033 10061 20039 58017=
202201170540 SPECI KCLM 170540Z AUTO 12005KT 2 1/2SM BR BKN003 04/03 A3009 RMK AO2 CIG 001V004 PRESFR T00440033=
202201170522 SPECI KCLM 170522Z AUTO 17007KT 3SM BR OVC003 05/03 A3012 RMK AO2 T00500033=
202201170509 SPECI KCLM 170509Z AUTO 18004KT 2 1/2SM BR OVC002 05/04 A3014 RMK AO2 T00500039=
202201170453 METAR KCLM 170453Z AUTO 19003KT 1 1/2SM BR OVC002 05/03 A3014 RMK AO2 SLP209 T00500033=
202201170353 METAR KCLM 170353Z AUTO 00000KT 1 1/4SM BR OVC002 05/04 A3013 RMK AO2 SLP204 T00500039=
202201170342 SPECI KCLM 170342Z AUTO 00000KT 1 1/4SM BR OVC002 05/04 A3013 RMK AO2 T00500039=
202201170253 METAR KCLM 170253Z AUTO 00000KT 3/4SM BR OVC002 06/04 A3015 RMK AO2 SLP211 T00560039 55007=
202201170239 SPECI KCLM 170239Z AUTO 00000KT 1 1/2SM BR OVC001 06/04 A3015 RMK AO2 T00560039=
202201170216 SPECI KCLM 170216Z AUTO 00000KT 1 3/4SM BR OVC002 06/04 A3014 RMK AO2 T00560039=
202201170157 SPECI KCLM 170157Z AUTO 00000KT 3SM BR OVC002 06/04 A3014 RMK AO2 T00560039=
202201170153 METAR KCLM 170153Z AUTO 00000KT 1 3/4SM BR OVC002 06/04 A3014 RMK AO2 PRESFR SLP209 T00560039=
202201170144 SPECI KCLM 170144Z AUTO 00000KT 1 3/4SM BR OVC002 06/04 A3015 RMK AO2 T00560039=
202201170053 METAR KCLM 170053Z AUTO 00000KT 3SM BR OVC003 06/04 A3017 RMK AO2 SLP217 T00610044=
202201162353 METAR KCLM 162353Z AUTO 00000KT 9SM OVC004 07/04 A3017 RMK AO2 SLP218 T00670044 10072 20056 58010=
202201162253 METAR KCLM 162253Z AUTO 00000KT 10SM OVC004 07/04 A3018 RMK AO2 SLP223 T00670044=
202201162153 METAR KCLM 162153Z AUTO 00000KT 9SM OVC004 07/04 A3019 RMK AO2 SLP225 T00670044=
202201162129 SPECI KCLM 162129Z AUTO 35003KT 9SM OVC004 07/04 A3019 RMK AO2 T00670044=
202201162053 METAR KCLM 162053Z AUTO VRB03KT 10SM OVC005 07/04 A3020 RMK AO2 SLP228 T00720044 58020=
202201162011 SPECI KCLM 162011Z AUTO 00000KT 10SM OVC005 07/04 A3022 RMK AO2 T00670039=
202201161953 METAR KCLM 161953Z AUTO 00000KT 10SM OVC004 07/04 A3022 RMK AO2 SLP236 T00670044=
202201161853 METAR KCLM 161853Z AUTO 00000KT 9SM OVC003 06/04 A3025 RMK AO2 SLP247 T00610044=
202201161753 METAR KCLM 161753Z AUTO 16004KT 7SM OVC003 06/04 A3026 RMK AO2 SLP249 T00560039 10056 20050 55000=
202201161726 SPECI KCLM 161726Z AUTO 19003KT 4SM BR OVC002 06/04 A3025 RMK AO2 T00560039=
202201161717 SPECI KCLM 161717Z AUTO 17004KT 2SM BR OVC002 06/04 A3026 RMK AO2 T00560039=
202201161701 SPECI KCLM 161701Z AUTO 10003KT 7SM OVC004 06/04 A3025 RMK AO2 T00560039 $=
202201161653 METAR KCLM 161653Z AUTO VRB03KT 10SM OVC005 06/04 A3025 RMK AO2 CIG 003V007 SLP244 T00560039 $=
202201161632 SPECI KCLM 161632Z AUTO 12006KT 10SM BKN005 OVC070 06/03 A3024 RMK AO2 CIG 002V008 T00560033 $=
202201161553 METAR KCLM 161553Z AUTO 13006KT 10SM OVC003 06/03 A3026 RMK AO2 SLP249 T00560033 $=
202201161453 METAR KCLM 161453Z AUTO 11005KT 10SM OVC003 06/03 A3026 RMK AO2 SLP249 T00560033 58013 $=
202201161425 SPECI KCLM 161425Z AUTO 16005KT 10SM OVC004 05/03 A3028 RMK AO2 T00500033 $=
202201161353 METAR KCLM 161353Z AUTO 13004KT 10SM OVC005 05/03 A3027 RMK AO2 SLP253 T00500033 $=
202201161323 SPECI KCLM 161323Z AUTO 15003KT 10SM OVC005 05/03 A3028 RMK AO2 T00500033 $=
202201161253 METAR KCLM 161253Z AUTO 17004KT 10SM OVC004 06/03 A3030 RMK AO2 SLP262 T00560033 $=
202201161251 SPECI KCLM 161251Z AUTO 17004KT 10SM OVC004 06/03 A3030 RMK AO2 $=
202201161209 SPECI KCLM 161209Z AUTO 13003KT 10SM OVC005 06/04 A3029 RMK AO2 T00560039 $=
202201161153 METAR KCLM 161153Z AUTO 14006KT 7SM OVC004 06/04 A3029 RMK AO2 SLP258 T00560039 10061 20050 58013 $=
202201161053 METAR KCLM 161053Z AUTO 11004KT 7SM OVC003 06/04 A3033 RMK AO2 CIG 002V006 SLP272 T00560039 $=
202201161027 SPECI KCLM 161027Z AUTO 11004KT 4SM BR OVC002 06/04 A3033 RMK AO2 T00560044 $=
202201160953 METAR KCLM 160953Z AUTO 15003KT 2SM BR OVC002 06/04 A3034 RMK AO2 SLP276 T00560044 $=
202201160941 SPECI KCLM 160941Z AUTO 16003KT 1 1/2SM BR OVC002 06/04 A3034 RMK AO2 T00560044 $=
202201160934 SPECI KCLM 160934Z AUTO 15003KT 2SM BR OVC002 06/04 A3033 RMK AO2 T00560044 $=
202201160853 METAR KCLM 160853Z AUTO 12003KT 9SM OVC003 06/04 A3033 RMK AO2 SLP271 T00560039 56008 $=
202201160753 METAR KCLM 160753Z AUTO 15004KT 9SM OVC004 06/04 A3033 RMK AO2 SLP273 T00560039 400720033 $=
202201160653 METAR KCLM 160653Z AUTO 12006KT 7SM OVC004 06/04 A3033 RMK AO2 SLP271 T00560044 $=
202201160553 METAR KCLM 160553Z AUTO 14005KT 8SM OVC003 06/04 A3035 RMK AO2 SLP279 T00610044 10067 20061 58002 $=
202201160505 SPECI KCLM 160505Z AUTO 11003KT 3SM BR OVC003 06/05 A3036 RMK AO2 T00610050 $=
202201160453 METAR KCLM 160453Z AUTO 12003KT 2 1/2SM BR OVC002 06/05 A3036 RMK AO2 SLP284 T00610050 $=
202201160433 SPECI KCLM 160433Z AUTO 14005KT 2SM BR OVC002 06/05 A3037 RMK AO2 T00610050 $=
202201160408 SPECI KCLM 160408Z AUTO 00000KT 3SM BR OVC002 06/05 A3038 RMK AO2 T00610050 $=
202201160353 METAR KCLM 160353Z AUTO 00000KT 2SM BR OVC002 06/05 A3037 RMK AO2 SLP287 T00610050 $=
202201160337 SPECI KCLM 160337Z AUTO 10003KT 1 1/2SM BR OVC002 06/05 A3036 RMK AO2 T00610050 $=
202201160315 SPECI KCLM 160315Z AUTO 12003KT 1/2SM FG VV002 07/05 A3036 RMK AO2 T00670050 $=
202201160253 METAR KCLM 160253Z AUTO 11003KT 1/4SM FG VV001 07/05 A3036 RMK AO2 SLP281 T00670050 56001 $=
202201160217 SPECI KCLM 160217Z AUTO 00000KT 1/4SM FG VV001 07/05 A3036 RMK AO2 T00670050 $=
202201160153 METAR KCLM 160153Z AUTO 00000KT 1/4SM FG VV002 07/05 A3036 RMK AO2 SLP282 T00670050 $=
202201160145 SPECI KCLM 160145Z AUTO 00000KT 1/4SM FG VV002 07/05 A3035 RMK AO2 T00670050 $=
202201160136 SPECI KCLM 160136Z AUTO 00000KT 1/2SM FG VV002 07/05 A3035 RMK AO2 T00670050 $=
202201160121 SPECI KCLM 160121Z AUTO 00000KT 1/4SM FG VV002 07/06 A3035 RMK AO2 T00670056 $=
202201160053 METAR KCLM 160053Z AUTO 00000KT 1/2SM FG OVC002 07/06 A3034 RMK AO2 SLP277 T00670056 $=
202201152353 METAR KCLM 152353Z AUTO 00000KT 1/2SM FG VV003 07/06 A3036 RMK AO2 SLP283 T00670056 10072 20061 55002 $=
202201152328 SPECI KCLM 152328Z AUTO 00000KT 3/4SM BR OVC002 07/06 A3036 RMK AO2 T00720056 $=
202201152321 SPECI KCLM 152321Z AUTO 00000KT 1SM BR OVC002 07/06 A3036 RMK AO2 T00670056 $=
202201152313 SPECI KCLM 152313Z AUTO 00000KT 2SM BR OVC002 07/06 A3036 RMK AO2 VIS 1 1/2V3 T00670056 $=
202201152301 SPECI KCLM 152301Z AUTO 00000KT 1 1/4SM BR OVC002 07/06 A3036 RMK AO2 T00720061 $=
202201152253 METAR KCLM 152253Z AUTO 00000KT 2 1/2SM BR OVC002 07/06 A3035 RMK AO2 VIS 1V5 SLP281 T00720056 $=
202201152243 SPECI KCLM 152243Z AUTO 00000KT 3SM BR OVC002 07/06 A3035 RMK AO2 T00720056 $=
202201152231 SPECI KCLM 152231Z AUTO 15003KT 1SM BR VV002 07/06 A3035 RMK AO2 T00720061 $=
202201152153 METAR KCLM 152153Z AUTO 03004KT 1/4SM FG VV002 07/06 A3035 RMK AO2 SLP280 T00720056 $=
202201152139 SPECI KCLM 152139Z AUTO 35003KT 1/4SM FG VV002 07/06 A3035 RMK AO2 T00670056 $=
202201152117 SPECI KCLM 152117Z AUTO 00000KT M1/4SM FG VV002 07/06 A3035 RMK AO2 T00670056 $=
202201152103 SPECI KCLM 152103Z AUTO 00000KT 1/4SM FG OVC002 07/06 A3036 RMK AO2 T00720056 $=
202201152053 METAR KCLM 152053Z AUTO 00000KT 1 1/2SM BR OVC002 07/06 A3037 RMK AO2 SLP285 T00720056 50003 $=
202201152032 SPECI KCLM 152032Z AUTO 00000KT 1SM BR OVC002 07/06 A3038 RMK AO2 T00720056 $=
202201152015 SPECI KCLM 152015Z AUTO 00000KT 1/4SM FG OVC002 07/06 A3038 RMK AO2 T00670056 $=
202201151953 METAR KCLM 151953Z AUTO 00000KT 1SM BR OVC002 07/06 A3037 RMK AO2 VIS 1/2V5 SLP288 T00720061 $=
202201151937 SPECI KCLM 151937Z AUTO 00000KT 1SM BR VV002 07/06 A3037 RMK AO2 T00670056 $=
202201151853 METAR KCLM 151853Z AUTO 00000KT 1/4SM FG VV002 07/05 A3038 RMK AO2 SLP289 T00670050 $=
202201151822 SPECI KCLM 151822Z AUTO 00000KT 1/4SM FG VV002 07/05 A3037 RMK AO2 T00670050 $=
202201151811 SPECI KCLM 151811Z AUTO 08003KT M1/4SM FG VV002 06/05 A3036 RMK AO2 T00610050 $=
202201151758 SPECI KCLM 151758Z AUTO 07003KT 1/4SM FG VV001 07/05 A3036 RMK AO2 T00670050 $=
202201151753 METAR KCLM 151753Z AUTO VRB03KT 8SM FEW001 07/05 A3036 RMK AO2 SLP282 T00670050 10067 20033 53001=
202201151653 METAR KCLM 151653Z AUTO 22006KT 10SM CLR 05/04 A3036 RMK AO2 SLP282 T00500039=
202201151636 SPECI KCLM 151636Z AUTO 22003KT 10SM CLR 04/03 A3036 RMK AO2 T00390033=
202201151626 SPECI KCLM 151626Z AUTO 00000KT 2SM BR FEW001 04/03 A3035 RMK AO2 VIS 3/4V5 T00440033=
202201151613 SPECI KCLM 151613Z AUTO 15004KT 1SM BR VV001 03/03 A3035 RMK AO2 VIS 1/2V2 T00330028=
202201151605 SPECI KCLM 151605Z AUTO 00000KT 3/4SM BR VV001 05/04 A3036 RMK AO2 T00500039=
202201151553 METAR KCLM 151553Z AUTO 00000KT 1/4SM FG VV001 05/04 A3035 RMK AO2 SLP281 T00500039=
202201151535 SPECI KCLM 151535Z AUTO 00000KT 1/4SM FG VV001 06/04 A3035 RMK AO2 T00560044=
202201151519 SPECI KCLM 151519Z AUTO 00000KT 1/4SM FG VV002 06/05 A3036 RMK AO2 T00610050=
202201151511 SPECI KCLM 151511Z AUTO 00000KT 1 3/4SM BR OVC002 06/05 A3036 RMK AO2 T00610050=
202201151453 METAR KCLM 151453Z AUTO 20003KT 10SM OVC003 06/04 A3036 RMK AO2 SLP282 T00610044 55000=
202201151431 SPECI KCLM 151431Z AUTO 00000KT 10SM OVC004 06/05 A3035 RMK AO2 T00610050=
202201151413 SPECI KCLM 151413Z AUTO 26003KT 10SM BKN005 06/05 A3034 RMK AO2 T00610050=
202201151404 SPECI KCLM 151404Z AUTO 31003KT 10SM SCT004 06/04 A3034 RMK AO2 T00610044=
202201151353 METAR KCLM 151353Z AUTO 32003KT 10SM CLR 05/04 A3034 RMK AO2 SLP275 T00500039=
202201151326 SPECI KCLM 151326Z AUTO 02003KT 4SM BR CLR 06/04 A3033 RMK AO2 T00560039=
202201151322 SPECI KCLM 151322Z AUTO 32004KT 1 1/4SM BR FEW001 05/03 A3033 RMK AO2 T00500033=
202201151315 SPECI KCLM 151315Z AUTO 30003KT 3/4SM BR VV001 04/03 A3033 RMK AO2 T00440028=
202201151253 METAR KCLM 151253Z AUTO 12003KT 1 3/4SM BR CLR 05/04 A3031 RMK AO2 PRESFR SLP267 T00500039=
202201151230 SPECI KCLM 151230Z AUTO 15004KT 6SM BR CLR 06/04 A3038 RMK AO2 PRESRR T00560039=
202201151221 SPECI KCLM 151221Z AUTO 00000KT 2 1/2SM BR CLR 06/05 A3036 RMK AO2 VIS 1V5 T00610050=
202201151153 METAR KCLM 151153Z AUTO 15003KT 9SM FEW050 06/04 A3036 RMK AO2 SLP282 60001 70001 T00610044 10072 20056 58005=
202201151053 METAR KCLM 151053Z AUTO 00000KT 7SM BKN085 06/04 A3037 RMK AO2 SLP285 T00610044=
202201150953 METAR KCLM 150953Z AUTO 00000KT 8SM FEW007 OVC075 07/05 A3037 RMK AO2 RAB0857E43 SLP287 P0001 T00670050=
202201150945 SPECI KCLM 150945Z AUTO 00000KT 10SM FEW007 OVC075 07/05 A3038 RMK AO2 RAB0857E43 P0001 T00670050=
202201150853 METAR KCLM 150853Z AUTO 00000KT 10SM OVC070 07/04 A3037 RMK AO2 SLP287 60000 T00670044 51008=
202201150753 METAR KCLM 150753Z AUTO 00000KT 10SM OVC070 07/06 A3037 RMK AO2 RAB04E18 SLP285 P0000 T00720056 400890050=
202201150653 METAR KCLM 150653Z AUTO 09004KT 10SM FEW005 OVC090 07/06 A3035 RMK AO2 SLP279 T00720056=
202201150649 SPECI KCLM 150649Z AUTO 11005KT 10SM SCT005 OVC090 07/06 A3035 RMK AO2=
202201150553 METAR KCLM 150553Z AUTO 00000KT 8SM OVC005 07/06 A3039 RMK AO2 SLP293 T00720061 10083 20050 51013=
202201150510 SPECI KCLM 150510Z AUTO 28003KT 4SM BR OVC005 07/05 A3038 RMK AO2 CIG 003V007 T00670050=
202201150453 METAR KCLM 150453Z AUTO 00000KT 3SM BR OVC003 07/06 A3038 RMK AO2 CIG 002V006 SLP289 T00670056=
202201150432 SPECI KCLM 150432Z AUTO 27003KT 3SM BR OVC003 07/06 A3038 RMK AO2 T00670056=
202201150418 SPECI KCLM 150418Z AUTO 30004KT 2 1/2SM BR OVC002 06/05 A3038 RMK AO2 T00610050=
202201150353 METAR KCLM 150353Z AUTO 31004KT 7SM BKN002 06/04 A3037 RMK AO2 SLP287 T00610044=
202201150253 METAR KCLM 150253Z AUTO 15006KT 3SM BR FEW001 05/03 A3035 RMK AO2 SLP280 T00500033 58025=
202201150248 SPECI KCLM 150248Z AUTO 14005KT 1 1/4SM BR FEW001 05/03 A3036 RMK AO2=
202201150244 SPECI KCLM 150244Z AUTO 14005KT 3/4SM BR VV001 05/03 A3036 RMK AO2 T00500033=
202201150236 SPECI KCLM 150236Z AUTO 00000KT 1SM BR VV001 05/04 A3037 RMK AO2 T00500044=
202201150222 SPECI KCLM 150222Z AUTO 17004KT 2 1/2SM BR CLR 06/04 A3038 RMK AO2 PRESFR T00560039=
202201150212 SPECI KCLM 150212Z AUTO 15003KT 3SM BR CLR 06/05 A3039 RMK AO2 T00610050=
202201150155 SPECI KCLM 150155Z AUTO 00000KT 1 1/2SM BR CLR 06/05 A3040 RMK AO2 VIS 1/2V5 T00560050=
202201150153 METAR KCLM 150153Z AUTO 00000KT 3SM BR CLR 06/05 A3040 RMK AO2 SLP295 T00610050=
202201150137 SPECI KCLM 150137Z AUTO 00000KT 8SM SCT029 07/05 A3040 RMK AO2 T00670050=
202201150127 SPECI KCLM 150127Z AUTO 00000KT 9SM BKN029 07/05 A3041 RMK AO2 T00720050=
202201150053 METAR KCLM 150053Z AUTO 00000KT 10SM SCT031 07/05 A3042 RMK AO2 SLP304 T00720050=
202201150039 SPECI KCLM 150039Z AUTO 00000KT 10SM SCT009 BKN031 08/06 A3042 RMK AO2 T00780056=
202201142353 METAR KCLM 142353Z AUTO 12004KT 10SM OVC009 08/06 A3043 RMK AO2 SLP305 T00780056 10089 20072 58007=
202201142253 METAR KCLM 142253Z AUTO 25003KT 10SM OVC008 08/06 A3045 RMK AO2 SLP312 T00830056=
202201142225 SPECI KCLM 142225Z AUTO 00000KT 10SM OVC006 08/06 A3044 RMK AO2 CIG 004V009 T00830056=
202201142204 SPECI KCLM 142204Z AUTO 00000KT 10SM OVC004 08/06 A3044 RMK AO2 T00780061=
202201142153 METAR KCLM 142153Z AUTO 00000KT 10SM OVC005 08/06 A3044 RMK AO2 SLP311 T00780061=
202201142053 METAR KCLM 142053Z AUTO 00000KT 10SM OVC006 08/06 A3045 RMK AO2 SLP312 T00830061 55008=
202201142027 SPECI KCLM 142027Z AUTO 00000KT 10SM BKN007 08/06 A3044 RMK AO2 T00830061=
202201141953 METAR KCLM 141953Z AUTO 00000KT 10SM FEW007 SCT025 09/06 A3045 RMK AO2 SLP311 T00890061=
202201141949 SPECI KCLM 141949Z AUTO VRB03KT 10SM SCT007 BKN025 09/06 A3044 RMK AO2=
202201141853 METAR KCLM 141853Z AUTO 00000KT 10SM OVC005 08/06 A3047 RMK AO2 SLP320 T00780061=
202201141753 METAR KCLM 141753Z AUTO 00000KT 10SM BKN005 OVC009 07/05 A3048 RMK AO2 SLP325 T00720050 10072 20050 50007=
202201141653 METAR KCLM 141653Z AUTO 27007KT 10SM OVC005 06/04 A3049 RMK AO2 PRESRR SLP326 T00610044=
202201141651 SPECI KCLM 141651Z AUTO 27006KT 10SM OVC005 06/04 A3048 RMK AO2=
202201141605 SPECI KCLM 141605Z AUTO 22003KT 10SM BKN003 05/03 A3046 RMK AO2 T00500033=
202201141553 METAR KCLM 141553Z AUTO 00000KT 10SM FEW003 05/03 A3046 RMK AO2 SLP317 T00500033=
202201141529 SPECI KCLM 141529Z AUTO 12004KT 10SM SCT028 06/03 A3046 RMK AO2 T00610033=
202201141453 METAR KCLM 141453Z AUTO 00000KT 10SM SCT002 BKN029 07/05 A3046 RMK AO2 SLP318 T00720050 55005=
202201141353 METAR KCLM 141353Z AUTO 13005KT 5SM BR BKN003 OVC031 07/06 A3046 RMK AO2 SLP316 T00670056=
202201141253 METAR KCLM 141253Z AUTO 00000KT 7SM SCT005 OVC032 07/06 A3048 RMK AO2 SLP322 T00720056=
202201141232 SPECI KCLM 141232Z AUTO 11004KT 9SM OVC030 07/05 A3047 RMK AO2 T00670050=
202201141153 METAR KCLM 141153Z AUTO 00000KT 10SM SCT004 OVC029 07/06 A3047 RMK AO2 SLP319 70001 T00720061 10083 20067 51008=
202201141135 SPECI KCLM 141135Z AUTO 27004KT 10SM BKN004 OVC031 07/06 A3046 RMK AO2 T00720056=
202201141122 SPECI KCLM 141122Z AUTO 00000KT 10SM SCT004 OVC031 07/06 A3046 RMK AO2 T00670056=
202201141053 METAR KCLM 141053Z AUTO 00000KT 10SM OVC031 07/06 A3047 RMK AO2 SLP318 T00720056=
202201141036 SPECI KCLM 141036Z AUTO 13004KT 8SM SCT026 OVC031 07/06 A3047 RMK AO2 T00720056=
202201140953 METAR KCLM 140953Z AUTO 27003KT 10SM BKN019 OVC026 07/06 A3046 RMK AO2 SLP317 T00720056=
202201140931 SPECI KCLM 140931Z AUTO 27003KT 10SM BKN020 OVC030 08/06 A3046 RMK AO2 T00780056=
202201140903 SPECI KCLM 140903Z AUTO 31003KT 10SM SCT026 OVC031 07/06 A3045 RMK AO2 T00720061=
202201140853 METAR KCLM 140853Z AUTO 27003KT 10SM BKN026 OVC031 07/06 A3045 RMK AO2 SLP311 T00720061 53015=
202201140822 SPECI KCLM 140822Z AUTO 00000KT 3SM BR SCT002 OVC028 08/07 A3044 RMK AO2 T00780067=
202201140818 SPECI KCLM 140818Z AUTO 00000KT 1SM BR SCT002 BKN026 OVC032 08/07 A3044 RMK AO2 T00780067=
202201140816 SPECI KCLM 140816Z AUTO VRB03KT 3/4SM BR BKN002 OVC026 08/07 A3044 RMK AO2 T00780067=
202201140807 SPECI KCLM 140807Z AUTO 00000KT 1/4SM FG VV002 08/07 A3043 RMK AO2 T00780067=
202201140753 METAR KCLM 140753Z AUTO 00000KT 1/2SM FG VV002 08/07 A3042 RMK AO2 SLP304 T00780067 401000061=
202201140716 SPECI KCLM 140716Z AUTO 00000KT 3/4SM BR BKN002 BKN013 OVC029 08/07 A3041 RMK AO2 T00830067=
202201140713 SPECI KCLM 140713Z AUTO 10003KT 1 1/2SM BR SCT002 BKN011 OVC029 08/07 A3041 RMK AO2 T00830067=
202201140705 SPECI KCLM 140705Z AUTO 00000KT 5SM BR FEW002 BKN011 OVC029 08/07 A3041 RMK AO2 T00830067=
202201140653 METAR KCLM 140653Z AUTO 08003KT 10SM BKN011 OVC014 08/06 A3041 RMK AO2 CIG 008V012 SLP299 T00830061=
202201140553 METAR KCLM 140553Z AUTO 23004KT 5SM BR OVC005 08/07 A3040 RMK AO2 SLP296 T00830067 10094 20061 51027=
202201140533 SPECI KCLM 140533Z AUTO 22005KT 5SM BR OVC005 08/07 A3040 RMK AO2 CIG 002V009 T00780067=
202201140453 METAR KCLM 140453Z AUTO 23003KT 6SM BR OVC002 08/07 A3038 RMK AO2 SLP290 T00780067=
202201140429 SPECI KCLM 140429Z AUTO 22003KT 6SM BR OVC002 08/07 A3038 RMK AO2 T00830072=
202201140419 SPECI KCLM 140419Z AUTO VRB03KT 4SM BR OVC001 08/07 A3038 RMK AO2 T00830072=
202201140406 SPECI KCLM 140406Z AUTO 34003KT 3SM BR BKN002 OVC008 08/07 A3037 RMK AO2 PRESRR T00830072=
202201140353 METAR KCLM 140353Z AUTO 05005KT 3SM BR FEW002 BKN008 08/07 A3034 RMK AO2 SLP275 T00780067=
202201140351 SPECI KCLM 140351Z AUTO 07004KT 2 1/2SM BR FEW002 BKN008 08/07 A3034 RMK AO2 VIS 1 3/4V4=
202201140337 SPECI KCLM 140337Z AUTO VRB03KT 1 1/2SM BR FEW008 SCT025 07/06 A3032 RMK AO2 T00720056=
202201140333 SPECI KCLM 140333Z AUTO 07003KT 6SM BR FEW008 FEW014 SCT025 07/06 A3032 RMK AO2 T00720061=
202201140328 SPECI KCLM 140328Z AUTO 10004KT 8SM FEW010 SCT014 BKN025 07/06 A3032 RMK AO2 T00720061=
202201140316 SPECI KCLM 140316Z AUTO 10004KT 10SM BKN010 BKN014 OVC026 08/07 A3032 RMK AO2 T00780067=
202201140253 METAR KCLM 140253Z AUTO 10003KT 9SM OVC009 08/06 A3032 RMK AO2 CIG 007V011 SLP268 T00780061 51004=
202201140243 SPECI KCLM 140243Z AUTO 10003KT 3SM BR OVC009 08/06 A3032 RMK AO2 CIG 007V011 T00780061=
202201140232 SPECI KCLM 140232Z AUTO 10003KT 3SM BR OVC010 08/06 A3031 RMK AO2 CIG 007V010 T00780061=
202201140224 SPECI KCLM 140224Z AUTO 10003KT 1SM BR BKN010 06/06 A3031 RMK AO2 T00610056=
202201140217 SPECI KCLM 140217Z AUTO 13003KT 2SM BR BKN009 07/06 A3031 RMK AO2 T00720061=
202201140214 SPECI KCLM 140214Z AUTO 13003KT 4SM BR SCT009 07/06 A3031 RMK AO2 T00720061=
202201140153 METAR KCLM 140153Z AUTO 11004KT 9SM FEW026 08/06 A3030 RMK AO2 SLP263 T00780061=
202201140146 SPECI KCLM 140146Z AUTO 11004KT 10SM SCT026 07/06 A3030 RMK AO2 T00720061=
202201140053 METAR KCLM 140053Z AUTO 16003KT 9SM SCT015 OVC026 09/08 A3033 RMK AO2 SLP271 T00890078=
202201140046 SPECI KCLM 140046Z AUTO 16003KT 9SM SCT013 OVC026 09/08 A3032 RMK AO2 T00940078=
202201140005 SPECI KCLM 140005Z AUTO 20003KT 3SM BR SCT006 BKN011 OVC026 09/08 A3031 RMK AO2 T00940083=
202201132353 METAR KCLM 132353Z AUTO 23004KT 3SM BR SCT003 OVC009 09/08 A3031 RMK AO2 CIG 006V010 SLP264 T00940083 10100 20089 53033=
202201132253 METAR KCLM 132253Z AUTO 00000KT 9SM OVC005 10/08 A3025 RMK AO2 SLP244 T01000078=
202201132208 SPECI KCLM 132208Z AUTO 00000KT 3SM BR OVC007 09/08 A3022 RMK AO2 CIG 005V011 T00940078=
202201132153 METAR KCLM 132153Z AUTO 00000KT 1 1/4SM BR OVC006 09/08 A3022 RMK AO2 CIG 005V009 SLP236 T00940078=
202201132105 SPECI KCLM 132105Z AUTO 24005KT 1 1/2SM BR OVC007 09/08 A3021 RMK AO2 T00940078=
202201132053 METAR KCLM 132053Z AUTO 22005KT 2 1/2SM BR OVC007 09/08 A3021 RMK AO2 SLP231 T00940078 51034=
202201132042 SPECI KCLM 132042Z AUTO 22005KT 2SM BR OVC007 09/08 A3021 RMK AO2 T00940078=
202201131953 METAR KCLM 131953Z AUTO 30004KT 10SM OVC007 09/07 A3018 RMK AO2 SLP221 T00940072=
202201131853 METAR KCLM 131853Z AUTO 26004KT 9SM OVC005 09/08 A3014 RMK AO2 CIG 003V010 SLP209 T00940078=
202201131805 SPECI KCLM 131805Z AUTO 30004KT 8SM OVC005 09/07 A3012 RMK AO2 CIG 004V009 T00890072=
202201131753 METAR KCLM 131753Z AUTO 29003KT 7SM OVC004 09/07 A3011 RMK AO2 SLP198 60001 T00890072 10089 20072 51019=
202201131721 SPECI KCLM 131721Z AUTO 26004KT 10SM OVC004 09/07 A3010 RMK AO2 CIG 003V007 T00890072=
202201131653 METAR KCLM 131653Z AUTO 30004KT 10SM OVC006 09/07 A3009 RMK AO2 SLP192 T00890072=
202201131606 SPECI KCLM 131606Z AUTO 00000KT 10SM OVC004 08/08 A3006 RMK AO2 T00830078=
202201131553 METAR KCLM 131553Z AUTO 27006KT 10SM OVC005 09/07 A3005 RMK AO2 CIG 003V007 SLP178 T00890072=
202201131453 METAR KCLM 131453Z AUTO 24007KT 10SM OVC006 08/07 A3003 RMK AO2 RAB22E48 SLP172 P0000 60001 T00830067 53013=
202201131414 SPECI KCLM 131414Z AUTO 24004KT 10SM OVC005 08/07 A3003 RMK AO2 T00830067=
202201131353 METAR KCLM 131353Z AUTO 22005KT 10SM OVC004 08/07 A3002 RMK AO2 SLP165 T00830072=
202201131253 METAR KCLM 131253Z AUTO 26004KT 8SM OVC003 08/07 A3000 RMK AO2 RAE1159B22E44 SLP158 P0001 T00780067=
202201131250 SPECI KCLM 131250Z AUTO 25004KT 7SM OVC003 08/07 A3000 RMK AO2 RAE1159B22E44 P0001=
202201131241 SPECI KCLM 131241Z AUTO 26006KT 2SM -RA BR OVC003 08/07 A3000 RMK AO2 RAE1159B22 P0001 T00780067=
202201131228 SPECI KCLM 131228Z AUTO 29004KT 1/2SM -RA FG VV003 08/06 A3000 RMK AO2 RAE1159B22 P0001 T00780061=
202201131153 METAR KCLM 131153Z AUTO 00000KT 1/4SM -RA FG VV002 07/07 A2999 RMK AO2 RAB41 SLP156 P0000 60005 70018 T00720067 10094 20044 58005=
202201131145 SPECI KCLM 131145Z AUTO 00000KT 1/4SM -RA FG VV002 08/07 A2999 RMK AO2 RAB41 P0000 T00780067=
202201131053 METAR KCLM 131053Z AUTO 01003KT 1/4SM FG VV001 08/07 A3000 RMK AO2 RAB09E21B36E50 SLP160 P0000 T00780067=
202201131036 SPECI KCLM 131036Z AUTO 34005KT 1/4SM -RA FG VV003 08/06 A3000 RMK AO2 RAB09E21B36 P0000 T00780061=
202201131022 SPECI KCLM 131022Z AUTO 00000KT 1/4SM FG VV005 07/06 A3000 RMK AO2 RAB09E21 P0000 T00720056=
202201130953 METAR KCLM 130953Z AUTO 00000KT 1/4SM FG VV001 07/06 A3001 RMK AO2 SLP162 T00670056=
202201130937 SPECI KCLM 130937Z AUTO 00000KT 1/4SM FG BKN001 BKN060 07/07 A3000 RMK AO2 T00720067=
202201130931 SPECI KCLM 130931Z AUTO 00000KT 3/4SM BR SCT001 BKN060 08/06 A3000 RMK AO2 VIS 1/2V1 3/4 T00780061=
202201130924 SPECI KCLM 130924Z AUTO 03003KT 2SM BR FEW001 FEW060 07/06 A3001 RMK AO2 T00670056=
202201130853 METAR KCLM 130853Z AUTO 00000KT 10SM FEW065 FEW080 08/07 A3000 RMK AO2 RAE15 SLP161 P0001 60005 T00830067 55004=
202201130803 SPECI KCLM 130803Z AUTO 18004KT 8SM -RA FEW005 BKN055 OVC070 09/08 A3000 RMK AO2 P0001 T00890078=
202201130753 METAR KCLM 130753Z AUTO 11010KT 5SM -RA BR BKN060 OVC090 08/07 A3000 RMK AO2 RAB33 SLP159 P0004 T00830067 401110039=
202201130653 METAR KCLM 130653Z AUTO 13003KT 7SM CLR 06/04 A3001 RMK AO2 SLP165 T00560039=
202201130553 METAR KCLM 130553Z AUTO 29007KT 10SM CLR 06/04 A3002 RMK AO2 SLP166 T00560044 10100 20039 55000=
202201130542 SPECI KCLM 130542Z AUTO 24008KT 3SM BR FEW001 05/04 A3001 RMK AO2 T00500039=
202201130528 SPECI KCLM 130528Z AUTO 18004KT 1 1/4SM BR FEW001 04/03 A2999 RMK AO2 VIS 3/4V2 1/2 T00440033=
202201130521 SPECI KCLM 130521Z AUTO 00000KT 2 1/2SM BR FEW001 05/04 A2999 RMK AO2 VIS 3/4V5 T00500039=
202201130453 METAR KCLM 130453Z AUTO 28003KT 5SM BR CLR 05/03 A3001 RMK AO2 SLP163 T00500033=
202201130448 SPECI KCLM 130448Z AUTO 25005KT 3SM BR CLR 05/04 A3000 RMK AO2=
202201130444 SPECI KCLM 130444Z AUTO VRB03KT 1 1/4SM BR CLR 06/04 A3000 RMK AO2 VIS 1/2V3 T00560044=
202201130437 SPECI KCLM 130437Z AUTO 00000KT 1SM BR VV001 05/04 A3000 RMK AO2 VIS 1/2V5 T00500039=
202201130433 SPECI KCLM 130433Z AUTO VRB03KT 2 1/2SM BR FEW001 06/05 A3000 RMK AO2 VIS 1 1/4V5 T00560050=
202201130423 SPECI KCLM 130423Z AUTO 00000KT 3SM BR CLR 07/05 A3000 RMK AO2 T00670050=
202201130418 SPECI KCLM 130418Z AUTO 12003KT 1 3/4SM BR CLR 06/05 A3000 RMK AO2 VIS 3/4V5 T00610050=
202201130409 SPECI KCLM 130409Z AUTO 00000KT 2 1/2SM BR FEW001 06/04 A3000 RMK AO2 T00610044=
202201130353 METAR KCLM 130353Z AUTO 00000KT 9SM CLR 07/06 A3000 RMK AO2 SLP161 T00720056=
202201130303 SPECI KCLM 130303Z AUTO 00000KT 3SM BR FEW001 08/06 A3002 RMK AO2 T00780061=
202201130301 SPECI KCLM 130301Z AUTO 00000KT 1 1/2SM BR FEW001 08/06 A3002 RMK AO2 VIS 1/2V5 T00780061=
202201130253 METAR KCLM 130253Z AUTO 00000KT 3/4SM BR VV001 06/05 A3002 RMK AO2 SLP166 T00610050 51003=
202201130248 SPECI KCLM 130248Z AUTO 12004KT 1SM BR VV001 07/06 A3002 RMK AO2 VIS 1/2V5=
202201130240 SPECI KCLM 130240Z AUTO 00000KT 1 1/4SM BR CLR 08/06 A3002 RMK AO2 T00780061=
202201130225 SPECI KCLM 130225Z AUTO 00000KT 2 1/2SM BR CLR 07/06 A3001 RMK AO2 VIS 1 1/4V5 T00670056=
202201130211 SPECI KCLM 130211Z AUTO 00000KT 3SM BR CLR 08/07 A3002 RMK AO2 T00780067=
202201130204 SPECI KCLM 130204Z AUTO 00000KT 1 3/4SM BR CLR 08/06 A3002 RMK AO2 VIS 1V5 T00780061=
202201130153 METAR KCLM 130153Z AUTO 00000KT 7SM FEW001 08/07 A3001 RMK AO2 SLP164 T00830072=
202201130145 SPECI KCLM 130145Z AUTO 00000KT 2 1/2SM BR SCT001 08/07 A3001 RMK AO2 T00830072=
202201130140 SPECI KCLM 130140Z AUTO 00000KT 1 1/2SM BR BKN001 08/07 A3001 RMK AO2 VIS 1 1/4V2 1/2 T00830072=
202201130132 SPECI KCLM 130132Z AUTO 21004KT 3/4SM BR VV001 09/08 A3001 RMK AO2 T00890078=
202201130104 SPECI KCLM 130104Z AUTO 26006KT 1/4SM FG VV001 09/08 A3001 RMK AO2 T00940078=
202201130053 METAR KCLM 130053Z AUTO 27006KT M1/4SM FG VV001 09/08 A3001 RMK AO2 SLP162 T00940078=
202201130044 SPECI KCLM 130044Z AUTO 00000KT M1/4SM FG VV001 09/08 A3000 RMK AO2 T00940083=
202201130027 SPECI KCLM 130027Z AUTO 21005KT M1/4SM FG VV002 09/08 A3001 RMK AO2 T00940083=
202201122353 METAR KCLM 122353Z AUTO 00000KT 1/4SM FG VV002 09/08 A3001 RMK AO2 SLP164 60000 T00940083 10111 20089 53004=
202201122343 SPECI KCLM 122343Z AUTO 00000KT 1/4SM FG VV002 09/08 A3001 RMK AO2 T00940083=
202201122333 SPECI KCLM 122333Z AUTO 00000KT 3/4SM BR VV002 10/08 A3000 RMK AO2 T01000083=
202201122328 SPECI KCLM 122328Z AUTO 00000KT 2 1/2SM BR OVC002 10/08 A3000 RMK AO2 T01000083=
202201122316 SPECI KCLM 122316Z AUTO 00000KT 1SM BR BKN002 OVC055 10/09 A3000 RMK AO2 T01000089=
202201122308 SPECI KCLM 122308Z AUTO 00000KT 2 1/2SM BR BKN002 OVC055 10/09 A3000 RMK AO2 T01000089=
202201122253 METAR KCLM 122253Z AUTO 00000KT 6SM BR SCT002 OVC050 11/09 A3000 RMK AO2 SLP160 T01060089=
202201122230 SPECI KCLM 122230Z AUTO 00000KT 3SM BR SCT002 OVC050 10/09 A3000 RMK AO2 T01000089=
202201122226 SPECI KCLM 122226Z AUTO 00000KT 1 1/4SM BR BKN002 OVC055 10/09 A3000 RMK AO2 T01000089=
202201122208 SPECI KCLM 122208Z AUTO 01005KT 1/4SM FG BKN002 BKN010 OVC065 11/09 A3000 RMK AO2 T01060089=
202201122206 SPECI KCLM 122206Z AUTO 03004KT 3/4SM BR BKN001 BKN016 OVC065 11/09 A3000 RMK AO2 T01060094=
202201122153 METAR KCLM 122153Z AUTO 00000KT 4SM BR BKN001 OVC060 11/10 A2999 RMK AO2 SLP155 T01110100=
202201122149 SPECI KCLM 122149Z AUTO 00000KT 3SM BR BKN001 OVC060 11/09 A2998 RMK AO2=
202201122141 SPECI KCLM 122141Z AUTO 14004KT 1 1/4SM BR OVC001 11/09 A2999 RMK AO2 T01060089=
202201122128 SPECI KCLM 122128Z AUTO 16003KT 3/4SM BR OVC002 10/09 A2999 RMK AO2 T01000089=
202201122056 SPECI KCLM 122056Z AUTO 34004KT 1/4SM FG OVC002 10/08 A3001 RMK AO2 T01000083=
202201122053 METAR KCLM 122053Z AUTO 34005KT 1SM BR OVC002 11/09 A3000 RMK AO2 SLP160 60000 T01060089 57015=
202201122034 SPECI KCLM 122034Z AUTO 00000KT 3SM BR OVC002 11/09 A3001 RMK AO2 T01060094=
202201122026 SPECI KCLM 122026Z AUTO 00000KT 1SM BR OVC002 10/09 A3001 RMK AO2 T01000089=
202201122021 SPECI KCLM 122021Z AUTO 00000KT 1/4SM FG OVC002 10/09 A3002 RMK AO2 T01000089=
202201122012 SPECI KCLM 122012Z AUTO 02003KT 1/4SM FG BKN006 OVC070 10/08 A3002 RMK AO2 T01000083=
202201122003 SPECI KCLM 122003Z AUTO VRB04KT 3/4SM BR BKN003 BKN025 OVC070 11/09 A3001 RMK AO2 T01060089=
202201122001 SPECI KCLM 122001Z AUTO VRB03KT 2 1/2SM BR BKN003 BKN044 OVC065 11/09 A3001 RMK AO2 T01110094=
202201121953 METAR KCLM 121953Z AUTO 00000KT 10SM FEW003 OVC065 11/09 A3001 RMK AO2 RAE1854 SLP163 P0000 T01110094=
202201121928 SPECI KCLM 121928Z AUTO 10003KT 10SM FEW003 OVC070 11/09 A3001 RMK AO2 RAE1854 P0000 T01110094=
202201121853 METAR KCLM 121853Z AUTO 12003KT 8SM -RA FEW049 OVC070 11/09 A3003 RMK AO2 SLP171 P0000 T01060089=
202201121812 SPECI KCLM 121812Z AUTO 00000KT 8SM -RA SCT002 BKN065 OVC090 09/08 A3004 RMK AO2 P0000 T00940083=
202201121753 METAR KCLM 121753Z AUTO 00000KT 7SM -RA FEW045 BKN070 OVC090 09/08 A3004 RMK AO2 RAE26B52 SLP174 P0001 60013 T00890078 10089 20072 53002=
202201121732 SPECI KCLM 121732Z AUTO 00000KT 10SM SCT003 OVC065 08/07 A3004 RMK AO2 RAE26 P0001 T00830072=
202201121724 SPECI KCLM 121724Z AUTO 20004KT 10SM -RA BKN003 BKN065 OVC080 08/07 A3004 RMK AO2 P0001 T00830072=
202201121653 METAR KCLM 121653Z AUTO 00000KT 3SM -RA BR SCT002 BKN065 OVC100 08/07 A3004 RMK AO2 RAE27B48 SLP173 P0000 T00780067=
202201121645 SPECI KCLM 121645Z AUTO 00000KT 1 1/2SM BR SCT002 BKN070 OVC110 08/07 A3004 RMK AO2 RAE27 P0000 T00780067=
202201121641 SPECI KCLM 121641Z AUTO 00000KT 1 1/4SM BR BKN002 BKN065 OVC100 07/06 A3004 RMK AO2 RAE27 P0000 T00720061=
202201121611 SPECI KCLM 121611Z AUTO 00000KT 1/2SM -RA FG OVC002 07/06 A3003 RMK AO2 P0000 T00720061=
202201121604 SPECI KCLM 121604Z AUTO 12003KT 3/4SM -RA BR BKN001 OVC018 08/06 A3002 RMK AO2 P0000 T00780061=
202201121553 METAR KCLM 121553Z AUTO 00000KT 3/4SM -RA BR SCT001 OVC039 08/07 A3004 RMK AO2 SLP173 P0004 T00780067=
202201121550 SPECI KCLM 121550Z AUTO 00000KT 3/4SM -RA BR SCT001 OVC037 08/06 A3004 RMK AO2 P0004=
202201121540 SPECI KCLM 121540Z AUTO 00000KT 3/4SM -RA BR BKN050 OVC070 08/07 A3004 RMK AO2 P0003 T00780067=
202201121531 SPECI KCLM 121531Z AUTO 00000KT 1SM -RA BR FEW001 BKN044 OVC070 08/06 A3004 RMK AO2 P0003 T00780061=
202201121517 SPECI KCLM 121517Z AUTO 00000KT 1/2SM -RA FG SCT032 BKN070 OVC095 08/07 A3005 RMK AO2 P0002 T00780067=
202201121506 SPECI KCLM 121506Z AUTO 00000KT 1 1/2SM -RA BR SCT022 BKN070 OVC085 08/06 A3005 RMK AO2 P0001 T00830061=
202201121453 METAR KCLM 121453Z AUTO 00000KT 5SM -RA BR FEW050 SCT070 OVC085 08/07 A3005 RMK AO2 SLP177 P0002 60008 T00780067 56010=
202201121433 SPECI KCLM 121433Z AUTO 00000KT 3SM -RA BR FEW007 BKN060 OVC075 08/06 A3006 RMK AO2 P0002 T00780061=
202201121353 METAR KCLM 121353Z AUTO 00000KT 8SM -RA FEW017 OVC060 08/06 A3006 RMK AO2 SLP180 P0001 T00780061=
202201121333 SPECI KCLM 121333Z AUTO 00000KT 3SM -RA BR SCT017 BKN060 OVC085 07/06 A3006 RMK AO2 P0000 T00720061=
202201121323 SPECI KCLM 121323Z AUTO 00000KT 1 3/4SM -RA BR SCT017 SCT055 OVC085 07/06 A3006 RMK AO2 P0000 T00720056=
202201121253 METAR KCLM 121253Z AUTO 00000KT 7SM -RA OVC060 08/07 A3006 RMK AO2 SLP182 P0005 T00780067=
202201121228 SPECI KCLM 121228Z AUTO 14004KT 3SM -RA BR BKN060 OVC075 08/06 A3007 RMK AO2 P0004 T00780061=
202201121215 SPECI KCLM 121215Z AUTO 00000KT 2 1/2SM RA BR BKN060 OVC080 08/06 A3007 RMK AO2 P0002 T00780061=
202201121153 METAR KCLM 121153Z AUTO 13004KT 5SM -RA BR BKN060 OVC080 07/06 A3008 RMK AO2 SLP188 P0001 60002 70039 T00720056 10078 20067 58001=
202201121053 METAR KCLM 121053Z AUTO 00000KT 5SM -RA BR OVC065 07/06 A3010 RMK AO2 RAB29 SLP193 P0001 T00720061=
202201120953 METAR KCLM 120953Z AUTO 00000KT 10SM OVC055 07/06 A3009 RMK AO2 SLP191 T00720061=
202201120853 METAR KCLM 120853Z AUTO 00000KT 9SM OVC055 07/06 A3008 RMK AO2 SLP188 60000 T00670056 51010=
202201120753 METAR KCLM 120753Z AUTO 15004KT 6SM BR FEW012 OVC060 07/05 A3008 RMK AO2 SLP186 T00670050 401170061=
202201120742 SPECI KCLM 120742Z AUTO 00000KT 4SM BR SCT012 SCT018 OVC060 07/06 A3007 RMK AO2 T00720056=
202201120653 METAR KCLM 120653Z AUTO 00000KT 4SM BR OVC010 07/06 A3007 RMK AO2 RAE0554 SLP183 P0000 T00720056=
202201120646 SPECI KCLM 120646Z AUTO 17003KT 3SM BR OVC010 07/06 A3007 RMK AO2 RAE0554 P0000 T00720061=
202201120639 SPECI KCLM 120639Z AUTO 00000KT 1 3/4SM BR FEW004 OVC010 07/06 A3007 RMK AO2 RAE0554 P0000 T00720061=
202201120629 SPECI KCLM 120629Z AUTO 24003KT 4SM BR SCT003 OVC010 07/06 A3007 RMK AO2 RAE0554 P0000 T00720061=
202201120606 SPECI KCLM 120606Z AUTO 00000KT 3SM BR OVC002 08/06 A3006 RMK AO2 RAE0554 P0000 T00780061=
202201120553 METAR KCLM 120553Z AUTO 00000KT 1 1/4SM -RA BR OVC002 08/07 A3006 RMK AO2 RAE27B41 SLP179 P0000 60021 T00780067 10089 20067 53016=
202201120533 SPECI KCLM 120533Z AUTO 22003KT 1 3/4SM BR OVC002 08/07 A3005 RMK AO2 RAE27 P0000 T00830067=
202201120453 METAR KCLM 120453Z AUTO 00000KT 6SM -RA BR BKN002 OVC085 08/07 A3002 RMK AO2 RAE0354B09 SLP169 P0001 T00830072=
202201120406 SPECI KCLM 120406Z AUTO 31004KT 6SM BR FEW004 SCT060 BKN090 08/06 A3002 RMK AO2 RAE0354 P0000 T00780061=
202201120353 METAR KCLM 120353Z AUTO 19003KT 6SM -RA BR BKN090 BKN110 07/06 A3000 RMK AO2 SLP161 P0001 T00670056=
202201120324 SPECI KCLM 120324Z AUTO 23003KT 8SM -RA SCT005 SCT025 OVC080 08/07 A3001 RMK AO2 P0001 T00780067=
202201120253 METAR KCLM 120253Z AUTO 00000KT 4SM -RA BR OVC080 07/06 A3001 RMK AO2 SLP162 P0006 60019 T00720061 56006=
202201120220 SPECI KCLM 120220Z AUTO 26004KT 7SM -RA SCT003 OVC080 08/07 A3001 RMK AO2 P0003 T00780067=
202201120153 METAR KCLM 120153Z AUTO 23004KT 3SM RA BR BKN002 BKN011 OVC032 08/06 A3002 RMK AO2 SLP167 P0008 T00780061=
202201120145 SPECI KCLM 120145Z AUTO 26003KT 2 1/2SM RA BR SCT002 BKN011 OVC026 07/06 A3002 RMK AO2 P0007 T00720061=
202201120137 SPECI KCLM 120137Z AUTO 00000KT 3SM -RA BR FEW002 BKN011 OVC065 07/06 A3002 RMK AO2 P0004 T00720061=
202201120104 SPECI KCLM 120104Z AUTO 00000KT 4SM -RA BR OVC002 08/07 A3000 RMK AO2 P0001 T00780067=
202201120053 METAR KCLM 120053Z AUTO 00000KT 2SM -RA BR OVC002 07/06 A3001 RMK AO2 SLP162 P0005 T00720061=
202201120043 SPECI KCLM 120043Z AUTO VRB04KT 3SM -RA BR OVC002 08/06 A3001 RMK AO2 P0003 T00780061=
202201120010 SPECI KCLM 120010Z AUTO 00000KT 1SM -RA BR BKN002 OVC006 08/07 A3002 RMK AO2 P0001 T00780067=
202201120002 SPECI KCLM 120002Z AUTO 00000KT 3/4SM -RA BR SCT002 OVC008 08/07 A3002 RMK AO2 P0000 T00780067=
202201112353 METAR KCLM 112353Z AUTO 00000KT 1SM -RA BR SCT002 OVC008 08/07 A3003 RMK AO2 SLP168 P0006 60016 T00830067 10094 20078 56031=
202201112346 SPECI KCLM 112346Z AUTO 29003KT 1SM -RA BR SCT002 OVC010 08/07 A3003 RMK AO2 P0006 T00830072=
202201112338 SPECI KCLM 112338Z AUTO 33003KT 3/4SM -RA BR VV003 08/07 A3004 RMK AO2 P0005 T00830067=
202201112315 SPECI KCLM 112315Z AUTO 31003KT 1/4SM -RA FG BKN004 OVC014 08/07 A3005 RMK AO2 P0002 T00780067=
202201112307 SPECI KCLM 112307Z AUTO VRB03KT 1/4SM -RA FG BKN014 OVC065 08/07 A3006 RMK AO2 P0002 T00830067=
202201112259 SPECI KCLM 112259Z AUTO 36004KT 1 1/4SM -RA BR BKN014 BKN036 OVC070 08/07 A3006 RMK AO2 P0001 T00830067=
202201112253 METAR KCLM 112253Z AUTO 34003KT 1 1/4SM -RA BR SCT015 BKN050 OVC070 09/07 A3006 RMK AO2 SLP181 P0005 T00890072=
202201112246 SPECI KCLM 112246Z AUTO 35005KT 2 1/2SM -RA BR FEW015 SCT055 OVC070 09/08 A3007 RMK AO2 P0005 T00890078=
202201112238 SPECI KCLM 112238Z AUTO 30004KT 1 3/4SM -RA BR FEW017 BKN070 OVC080 09/07 A3007 RMK AO2 P0004 T00940072=
202201112220 SPECI KCLM 112220Z AUTO 18003KT 3SM -RA BR FEW017 BKN070 OVC080 09/08 A3006 RMK AO2 P0002 T00890078=
202201112210 SPECI KCLM 112210Z AUTO 00000KT 2 1/2SM -RA BR FEW017 OVC070 09/07 A3007 RMK AO2 VIS 1 1/4V3 P0001 T00890072=
202201112153 METAR KCLM 112153Z AUTO 00000KT 4SM -RA BR OVC070 09/07 A3008 RMK AO2 SLP186 P0004 T00890072=
202201112053 METAR KCLM 112053Z AUTO 10003KT 7SM -RA BKN075 OVC085 09/08 A3012 RMK AO2 RAE14B37 SLP200 P0000 60001 T00940078 58025=
202201112007 SPECI KCLM 112007Z AUTO 00000KT 10SM -RA FEW003 BKN070 OVC080 09/08 A3014 RMK AO2 P0000 T00940078=
202201111953 METAR KCLM 111953Z AUTO 11003KT 10SM -RA BKN065 OVC085 09/08 A3015 RMK AO2 SLP211 P0001 T00940078=
202201111853 METAR KCLM 111853Z AUTO 20004KT 10SM -RA OVC075 08/07 A3018 RMK AO2 RAB10 SLP222 P0000 T00830067=
202201111753 METAR KCLM 111753Z AUTO 26003KT 10SM FEW018 FEW070 BKN110 08/06 A3019 RMK AO2 SLP227 T00780061 10094 20061 53017=
202201111653 METAR KCLM 111653Z AUTO 10003KT 10SM CLR 06/04 A3017 RMK AO2 SLP219 T00610044=
202201111637 SPECI KCLM 111637Z AUTO 23003KT 10SM SCT015 SCT065 07/06 A3018 RMK AO2 T00670056=
202201111625 SPECI KCLM 111625Z AUTO 00000KT 10SM BKN015 BKN065 08/06 A3017 RMK AO2 T00780061=
202201111600 SPECI KCLM 111600Z AUTO 07003KT 10SM BKN013 08/06 A3016 RMK AO2 T00780061=
202201111553 METAR KCLM 111553Z AUTO 11004KT 10SM SCT012 08/06 A3015 RMK AO2 SLP212 T00780056=
202201111453 METAR KCLM 111453Z AUTO 10007KT 10SM OVC013 09/07 A3015 RMK AO2 SLP210 T00890067 53009=
202201111353 METAR KCLM 111353Z AUTO 14007KT 10SM OVC010 07/06 A3013 RMK AO2 CIG 007V012 SLP206 T00720056=
202201111342 SPECI KCLM 111342Z AUTO 13008KT 10SM BKN008 07/06 A3012 RMK AO2 T00720056=
202201111333 SPECI KCLM 111333Z AUTO 11006KT 10SM SCT008 07/05 A3012 RMK AO2 T00720050=
202201111253 METAR KCLM 111253Z AUTO 00000KT 10SM FEW060 08/05 A3011 RMK AO2 SLP200 T00780050=
202201111153 METAR KCLM 111153Z AUTO 33008G17KT 10SM CLR 08/06 A3012 RMK AO2 SLP200 60040 70043 T00830056 10117 20056 53005=
202201111053 METAR KCLM 111053Z AUTO 23016G26KT 10SM CLR 12/06 A3010 RMK AO2 PK WND 22029/1029 SLP193 T01170061=
202201110953 METAR KCLM 110953Z AUTO 23013G21KT 10SM FEW042 09/06 A3010 RMK AO2 RAE0859 SLP195 P0000 T00940061=
202201110853 METAR KCLM 110853Z AUTO 06006KT 10SM -RA BKN040 BKN065 OVC090 09/07 A3010 RMK AO2 SLP195 P0021 60040 T00890067 58014=
202201110845 SPECI KCLM 110845Z AUTO 08008KT 5SM -RA BR BKN042 OVC090 08/07 A3011 RMK AO2 P0021 T00830067=
202201110753 METAR KCLM 110753Z AUTO 12003KT 2 1/2SM RA BR OVC050 06/04 A3015 RMK AO2 SLP210 P0016 T00610044 401001006=
202201110653 METAR KCLM 110653Z AUTO 21004KT 4SM -RA BR OVC060 06/04 A3016 RMK AO2 SLP216 P0003 T00560039=
202201110553 METAR KCLM 110553Z AUTO 23004KT 10SM -RA OVC065 06/05 A3015 RMK AO2 RAB0458 SLP210 P0001 60001 T00610050 10083 20039 55021=
202201110453 METAR KCLM 110453Z AUTO 27005KT 10SM BKN065 BKN080 OVC095 06/03 A3013 RMK AO2 SLP205 T00560033=
202201110353 METAR KCLM 110353Z AUTO 16006KT 10SM CLR 04/03 A3016 RMK AO2 SLP216 T00440028=
202201110253 METAR KCLM 110253Z AUTO 16003KT 10SM CLR 04/03 A3021 RMK AO2 SLP231 T00440028 58022=
202201110226 SPECI KCLM 110226Z AUTO 23005KT 10SM FEW004 FEW075 05/03 A3023 RMK AO2 T00500033=
202201110153 METAR KCLM 110153Z AUTO 23004KT 10SM SCT070 05/03 A3024 RMK AO2 SLP243 T00500028=
202201110053 METAR KCLM 110053Z AUTO 00000KT 10SM SCT060 06/04 A3026 RMK AO2 SLP250 T00610039=
202201102353 METAR KCLM 102353Z AUTO 33004KT 10SM SCT065 08/05 A3027 RMK AO2 SLP253 T00830050 10100 20056 51013=
202201102253 METAR KCLM 102253Z AUTO 00000KT 10SM BKN060 10/06 A3026 RMK AO2 SLP248 T01000056=
202201102153 METAR KCLM 102153Z AUTO 00000KT 10SM BKN065 09/05 A3026 RMK AO2 SLP248 T00890050=
202201102053 METAR KCLM 102053Z AUTO 00000KT 10SM BKN060 08/05 A3023 RMK AO2 SLP240 T00830050 58009=
202201101953 METAR KCLM 101953Z AUTO 00000KT 10SM OVC065 08/04 A3024 RMK AO2 SLP243 T00830044=
202201101853 METAR KCLM 101853Z AUTO 34005KT 10SM OVC060 08/04 A3026 RMK AO2 SLP248 T00780044=
202201101753 METAR KCLM 101753Z AUTO 00000KT 10SM SCT065 BKN090 06/03 A3026 RMK AO2 SLP250 60002 I6000 T00560033 10056 21006 53012=
202201101653 METAR KCLM 101653Z AUTO 12008KT 10SM SCT060 BKN110 06/03 A3025 RMK AO2 SLP248 T00560028=
202201101553 METAR KCLM 101553Z AUTO 34004KT 10SM SCT050 SCT110 04/02 A3021 RMK AO2 RAE50 SLP234 P0002 T00440022=
202201101453 METAR KCLM 101453Z AUTO 27011KT 10SM -RA OVC060 05/02 A3022 RMK AO2 RAB42 PRESRR SLP238 P0000 60000 I3000 T00500022 53002=
202201101353 METAR KCLM 101353Z AUTO 22004KT 10SM OVC100 02/00 A3017 RMK AO2 SLP219 I1000 T00220000=
202201101253 METAR KCLM 101253Z AUTO VRB03KT 8SM FEW085 M01/M02 A3018 RMK AO2 SLP224 I1000 T10061017=
202201101153 METAR KCLM 101153Z AUTO 22004KT 10SM CLR 00/M02 A3022 RMK AO2 SLP235 I1000 I6000 T00001017 10017 21006 58013=
202201101053 METAR KCLM 101053Z AUTO 00000KT 9SM CLR 01/M01 A3023 RMK AO2 SLP240 I1000 T00061011=
202201101038 SPECI KCLM 101038Z AUTO 21003KT 9SM SCT008 01/M01 A3024 RMK AO2 I1000 T00111006=
202201101006 SPECI KCLM 101006Z AUTO 00000KT 9SM BKN008 01/M01 A3025 RMK AO2 T00061006=
202201100953 METAR KCLM 100953Z AUTO 00000KT 9SM FEW008 01/M01 A3025 RMK AO2 SLP245 T00061006=
202201100943 SPECI KCLM 100943Z AUTO 00000KT 9SM SCT008 01/M01 A3025 RMK AO2 T00061011=
202201100853 METAR KCLM 100853Z AUTO 00000KT 7SM OVC006 01/00 A3026 RMK AO2 SLP248 I3000 T00110000 58006=
202201100753 METAR KCLM 100753Z AUTO 20003KT 10SM OVC007 01/M01 A3027 RMK AO2 SLP252 I1000 T00061011 400671022=
202201100728 SPECI KCLM 100728Z AUTO 00000KT 10SM BKN007 M01/M02 A3027 RMK AO2 T10061017=
202201100653 METAR KCLM 100653Z AUTO 00000KT 9SM FEW009 M01/M01 A3027 RMK AO2 SLP253 I1000 T10061011=
202201100625 SPECI KCLM 100625Z AUTO 00000KT 10SM OVC009 01/M01 A3027 RMK AO2 I1000 T00061006=
202201100553 METAR KCLM 100553Z AUTO 22003KT 9SM OVC010 00/M01 A3027 RMK AO2 SLP255 I1000 I6000 T00001011 10056 21011 53003=
202201100540 SPECI KCLM 100540Z AUTO 21003KT 9SM BKN010 00/M02 A3027 RMK AO2 I1000 T00001017=
202201100453 METAR KCLM 100453Z AUTO 00000KT 9SM CLR 00/M02 A3027 RMK AO2 SLP252 I1000 T00001017=
202201100353 METAR KCLM 100353Z AUTO 00000KT 10SM CLR 01/M02 A3026 RMK AO2 SLP251 T00061017=
202201100253 METAR KCLM 100253Z AUTO 23005KT 10SM CLR 01/M01 A3026 RMK AO2 SLP252 T00061011 51001=
202201100153 METAR KCLM 100153Z AUTO 19003KT 10SM CLR 00/M02 A3026 RMK AO2 SLP251 T00001017=
202201100053 METAR KCLM 100053Z AUTO 21003KT 10SM CLR 01/M01 A3027 RMK AO2 SLP253 T00111006=
202201092353 METAR KCLM 092353Z AUTO 13004KT 10SM CLR 06/02 A3026 RMK AO2 SLP251 T00560017 10067 20028 55006=
202201092253 METAR KCLM 092253Z AUTO 08004KT 10SM CLR 07/02 A3026 RMK AO2 SLP249 T00670022=
202201092153 METAR KCLM 092153Z AUTO 14003KT 10SM FEW014 07/02 A3027 RMK AO2 SLP255 T00670017=
202201092120 SPECI KCLM 092120Z AUTO 13003KT 10SM FEW013 06/02 A3029 RMK AO2 T00610022=
202201092053 METAR KCLM 092053Z AUTO 11004KT 10SM OVC013 06/02 A3028 RMK AO2 SLP257 T00610022 58009=
202201092041 SPECI KCLM 092041Z AUTO 11005KT 10SM OVC013 06/02 A3028 RMK AO2 T00560022=
202201092001 SPECI KCLM 092001Z AUTO 10006KT 10SM BKN015 06/02 A3030 RMK AO2 T00560022=
202201091953 METAR KCLM 091953Z AUTO 11005KT 10SM BKN013 06/02 A3030 RMK AO2 SLP264 T00560022=
202201091946 SPECI KCLM 091946Z AUTO 11005KT 10SM BKN013 06/02 A3030 RMK AO2 T00560022=
202201091853 METAR KCLM 091853Z AUTO 12006KT 10SM FEW010 05/02 A3031 RMK AO2 SLP267 T00500022=
202201091824 SPECI KCLM 091824Z AUTO 13004KT 10SM FEW011 04/02 A3031 RMK AO2 T00440022=
202201091815 SPECI KCLM 091815Z AUTO 00000KT 10SM BKN010 04/02 A3031 RMK AO2 T00390017=
202201091753 METAR KCLM 091753Z AUTO 14003KT 10SM FEW013 03/01 A3031 RMK AO2 SLP266 I6000 T00280011 10033 21022 51006=
202201091706 SPECI KCLM 091706Z AUTO 14005KT 10SM FEW009 00/M02 A3030 RMK AO2 T00001017=
202201091653 METAR KCLM 091653Z AUTO 00000KT 10SM SCT010 M01/M02 A3030 RMK AO2 SLP264 I1000 T10061017=
202201091650 SPECI KCLM 091650Z AUTO 00000KT 10SM SCT010 00/M02 A3030 RMK AO2 I1000=
202201091611 SPECI KCLM 091611Z AUTO 00000KT 10SM BKN010 M02/M03 A3029 RMK AO2 T10171028=
202201091553 METAR KCLM 091553Z AUTO 19003KT 10SM SCT010 M02/M03 A3029 RMK AO2 SLP260 I1000 T10171033=
202201091453 METAR KCLM 091453Z AUTO 20003KT 10SM CLR M02/M03 A3029 RMK AO2 SLP261 I3000 T10221033 52004=
202201091353 METAR KCLM 091353Z AUTO 21003KT 10SM CLR M01/M02 A3029 RMK AO2 SLP259 I1000 T10061022=
202201091253 METAR KCLM 091253Z AUTO 00000KT 10SM FEW008 M01/M02 A3029 RMK AO2 SLP260 I1000 T10061022=
202201091233 SPECI KCLM 091233Z AUTO 00000KT 10SM FEW007 M01/M03 A3029 RMK AO2 I1000 T10111028=
202201091153 METAR KCLM 091153Z AUTO 00000KT 10SM CLR M01/M03 A3028 RMK AO2 SLP257 I1000 I6000 T10111028 10006 21017 58002=
202201091053 METAR KCLM 091053Z AUTO 00000KT 10SM CLR M01/M02 A3029 RMK AO2 SLP260 I1000 T10061022=
202201090953 METAR KCLM 090953Z AUTO 00000KT 10SM CLR M01/M03 A3029 RMK AO2 SLP260 I1000 T10111028=
202201090853 METAR KCLM 090853Z AUTO 00000KT 10SM FEW010 00/M02 A3029 RMK AO2 SLP260 T00001022 51008=
202201090834 SPECI KCLM 090834Z AUTO 00000KT 10SM FEW009 M01/M02 A3029 RMK AO2 T10061022=
202201090753 METAR KCLM 090753Z AUTO 00000KT 10SM FEW080 00/M02 A3028 RMK AO2 SLP257 T00001022 400611006=
202201090653 METAR KCLM 090653Z AUTO 22004KT 10SM CLR 00/M02 A3027 RMK AO2 SLP254 T00001017=
202201090553 METAR KCLM 090553Z AUTO 00000KT 10SM CLR 00/M02 A3026 RMK AO2 SLP251 T00001017 10050 20000 51012=
202201090453 METAR KCLM 090453Z AUTO 23003KT 10SM OVC070 01/M01 A3026 RMK AO2 SLP249 T00111011=
202201090353 METAR KCLM 090353Z AUTO 00000KT 10SM BKN065 02/M01 A3024 RMK AO2 SLP244 T00171006=
202201090253 METAR KCLM 090253Z AUTO 26003KT 10SM OVC060 03/00 A3023 RMK AO2 SLP239 T00280000 51010=
202201090153 METAR KCLM 090153Z AUTO 26003KT 10SM BKN060 OVC075 03/01 A3022 RMK AO2 SLP237 T00280006=
202201090053 METAR KCLM 090053Z AUTO 00000KT 10SM OVC080 03/00 A3021 RMK AO2 SLP233 T00280000=
202201082353 METAR KCLM 082353Z AUTO 00000KT 10SM BKN080 05/01 A3020 RMK AO2 SLP228 T00500011 10061 20022 53008=
202201082253 METAR KCLM 082253Z AUTO 30003KT 10SM OVC075 06/02 A3019 RMK AO2 SLP225 T00560017=
202201082153 METAR KCLM 082153Z AUTO 00000KT 10SM OVC080 06/00 A3018 RMK AO2 SLP222 T00560000=
202201082053 METAR KCLM 082053Z AUTO 36003KT 10SM OVC080 06/M01 A3018 RMK AO2 SLP220 T00561006 53003=
202201081953 METAR KCLM 081953Z AUTO 00000KT 10SM OVC080 06/01 A3016 RMK AO2 SLP216 T00560006=
202201081853 METAR KCLM 081853Z AUTO 00000KT 10SM OVC075 04/01 A3017 RMK AO2 SLP220 T00390006=
202201081753 METAR KCLM 081753Z AUTO 00000KT 10SM OVC080 02/00 A3017 RMK AO2 SLP218 T00220000 10028 20000 51017=
202201081653 METAR KCLM 081653Z AUTO 22003KT 10SM FEW060 OVC080 01/M01 A3016 RMK AO2 SLP216 T00111006=
202201081553 METAR KCLM 081553Z AUTO 00000KT 10SM BKN060 OVC080 01/M01 A3013 RMK AO2 SLP204 T00061011=
202201081453 METAR KCLM 081453Z AUTO 23004KT 10SM BKN065 OVC085 01/M01 A3012 RMK AO2 SLP201 T00061011 53023=
202201081353 METAR KCLM 081353Z AUTO 14004KT 10SM OVC055 01/M01 A3008 RMK AO2 SLP190 T00111011=
202201081253 METAR KCLM 081253Z AUTO 00000KT 10SM OVC055 02/M01 A3006 RMK AO2 SLP181 T00171011=
202201081153 METAR KCLM 081153Z AUTO 23004KT 10SM OVC050 02/M01 A3005 RMK AO2 SLP177 70001 T00221011 10039 20022 51025=
202201081053 METAR KCLM 081053Z AUTO 23005KT 10SM OVC048 02/M01 A3004 RMK AO2 SLP173 T00221011=
202201080953 METAR KCLM 080953Z AUTO 29004KT 10SM OVC060 03/M01 A3000 RMK AO2 SLP161 T00281011=
202201080853 METAR KCLM 080853Z AUTO 25006KT 10SM OVC055 03/M01 A2997 RMK AO2 SLP151 T00331011 51029=
202201080753 METAR KCLM 080753Z AUTO 24008KT 10SM BKN065 03/M01 A2995 RMK AO2 SLP142 T00331011 400780028=
202201080653 METAR KCLM 080653Z AUTO 24005KT 10SM BKN055 OVC070 03/M01 A2992 RMK AO2 SLP133 T00281011=
202201080553 METAR KCLM 080553Z AUTO 25004KT 10SM OVC055 03/M01 A2988 RMK AO2 SLP121 60000 T00331011 10050 20028 51029=
202201080453 METAR KCLM 080453Z AUTO 25007KT 10SM OVC055 03/M01 A2986 RMK AO2 RAB19E53 SLP113 P0000 T00331006=
202201080353 METAR KCLM 080353Z AUTO 28011KT 10SM BKN046 OVC065 04/M02 A2983 RMK AO2 RAB20E30 SLP103 P0000 T00441017=
202201080253 METAR KCLM 080253Z AUTO 28012KT 10SM BKN047 OVC065 04/M01 A2980 RMK AO2 SLP092 T00391011 52035=
202201080153 METAR KCLM 080153Z AUTO 29012KT 10SM BKN050 OVC065 04/M02 A2977 RMK AO2 SLP081 T00441017=
202201080053 METAR KCLM 080053Z AUTO 29010KT 10SM OVC070 04/M02 A2973 RMK AO2 SLP068 T00441017=
202201072353 METAR KCLM 072353Z AUTO 29019G27KT 10SM SCT065 04/M02 A2970 RMK AO2 PK WND 29034/2334 SLP057 T00441022 10067 20044 51046=
202201072253 METAR KCLM 072253Z AUTO 29015G27KT 10SM BKN060 06/M02 A2966 RMK AO2 PK WND 27033/2236 SLP044 T00561022=
202201072153 METAR KCLM 072153Z AUTO 28023G36KT 10SM CLR 05/M03 A2961 RMK AO2 PK WND 29043/2131 SLP027 T00501028=
202201072053 METAR KCLM 072053Z AUTO 29019G41KT 10SM CLR 05/M03 A2956 RMK AO2 PK WND 31041/2044 SLP011 T00501028 53058=
202201071953 METAR KCLM 071953Z AUTO 30019G29KT 10SM CLR 07/M02 A2950 RMK AO2 PK WND 29030/1933 PRESRR SLP992 T00671022=
202201071853 METAR KCLM 071853Z AUTO 31013G25KT 10SM CLR 07/00 A2944 RMK AO2 PK WND 29032/1754 SLP971 T00670000=
202201071753 METAR KCLM 071753Z AUTO 30018G28KT 10SM CLR 07/03 A2939 RMK AO2 PK WND 30028/1753 PRESRR SLP952 60001 T00670028 10067 20044 53041=
202201071653 METAR KCLM 071653Z AUTO 26010KT 10SM CLR 06/03 A2933 RMK AO2 SLP933 T00560033=
202201071553 METAR KCLM 071553Z AUTO 26008KT 10SM FEW037 FEW050 05/03 A2929 RMK AO2 SLP919 T00500033=
202201071453 METAR KCLM 071453Z AUTO 23007KT 10SM FEW026 FEW034 OVC060 05/04 A2926 RMK AO2 SLP910 60001 T00500039 53001=
202201071353 METAR KCLM 071353Z AUTO 24004KT 8SM BKN016 OVC028 06/04 A2926 RMK AO2 RAE00B34E49 SLP909 P0000 T00560044=
202201071346 SPECI KCLM 071346Z AUTO 27003KT 9SM -RA BKN014 OVC030 07/05 A2926 RMK AO2 RAE00B34 P0000 T00670050=
202201071340 SPECI KCLM 071340Z AUTO 30005KT 2SM -RA BR SCT014 BKN030 OVC035 06/04 A2926 RMK AO2 RAE00B34 P0000 T00610044=
202201071334 SPECI KCLM 071334Z AUTO 30003KT 3/4SM -RA BR FEW018 BKN030 OVC035 05/04 A2926 RMK AO2 RAE00B34 P0000 T00500039=
202201071322 SPECI KCLM 071322Z AUTO 29004KT 1 3/4SM BR FEW005 SCT018 OVC032 04/03 A2925 RMK AO2 RAE00 P0000 T00440033=
202201071320 SPECI KCLM 071320Z AUTO 24004KT 3SM BR FEW007 SCT018 OVC032 05/04 A2925 RMK AO2 RAE00 P0000 T00500039=
202201071317 SPECI KCLM 071317Z AUTO 22006KT 2 1/2SM BR SCT007 BKN017 OVC032 05/04 A2925 RMK AO2 VIS 2V4 RAE00 P0000 T00500039=
202201071308 SPECI KCLM 071308Z AUTO 22006KT 1 1/4SM BR SCT007 OVC017 05/04 A2926 RMK AO2 RAE00 P0000 T00500039=
202201071253 METAR KCLM 071253Z AUTO 00000KT 1 1/4SM -RA BR BKN007 OVC011 07/05 A2926 RMK AO2 RAE1158B10 SLP909 P0001 T00670050=
202201071230 SPECI KCLM 071230Z AUTO 00000KT 1 3/4SM -RA BR OVC007 06/04 A2926 RMK AO2 RAE1158B10 CIG 004V010 P0000 T00560044=
202201071227 SPECI KCLM 071227Z AUTO 00000KT 5SM BR OVC005 07/06 A2926 RMK AO2 RAE1158B10E23 CIG 004V010 P0000 T00670056=
202201071203 SPECI KCLM 071203Z AUTO 07003KT 3SM BR OVC004 07/06 A2926 RMK AO2 RAE1158 P0000 T00670056=
202201071158 SPECI KCLM 071158Z AUTO 10003KT 1SM BR OVC004 06/04 A2926 RMK AO2 RAE58 P0000 T00610044=
202201071153 METAR KCLM 071153Z AUTO 00000KT 1/2SM -RA FG OVC005 06/04 A2926 RMK AO2 RAB48 SLP909 P0000 60015 70047 T00560039 10078 20039 53007=
202201071145 SPECI KCLM 071145Z AUTO 00000KT 1/2SM FG OVC005 05/04 A2926 RMK AO2 T00500039=
202201071124 SPECI KCLM 071124Z AUTO 00000KT 3/4SM BR OVC004 06/05 A2925 RMK AO2 T00610050=
202201071058 SPECI KCLM 071058Z AUTO 15004KT 1 3/4SM BR OVC004 06/05 A2924 RMK AO2 T00610050=
202201071053 METAR KCLM 071053Z AUTO 20003KT 7SM OVC004 07/06 A2925 RMK AO2 RAE0959 SLP905 P0000 T00670056=
202201071050 SPECI KCLM 071050Z AUTO 20003KT 8SM OVC004 07/06 A2924 RMK AO2 RAE0959 P0000=
202201071015 SPECI KCLM 071015Z AUTO 29006KT 10SM BKN008 OVC055 08/06 A2924 RMK AO2 RAE0959 P0000 T00780061=
202201070953 METAR KCLM 070953Z AUTO 32008KT 10SM -RA FEW037 BKN045 BKN055 07/06 A2924 RMK AO2 RAB43 SLP901 P0000 T00720056=
202201070853 METAR KCLM 070853Z AUTO 23006KT 10SM BKN049 OVC055 07/04 A2923 RMK AO2 RAE43 SLP898 P0002 60015 T00670044 58022=
202201070753 METAR KCLM 070753Z AUTO 25010KT 5SM -RA BR OVC044 07/05 A2926 RMK AO2 SLP909 P0006 T00670050 400670011=
202201070744 SPECI KCLM 070744Z AUTO 24008KT 3SM -RA BR OVC048 06/05 A2925 RMK AO2 P0005 T00610050=
202201070724 SPECI KCLM 070724Z AUTO 22003KT 1SM -RA BR FEW002 OVC048 06/04 A2925 RMK AO2 VIS 3/4V2 P0003 T00610044=
202201070714 SPECI KCLM 070714Z AUTO 00000KT 1 1/4SM -RA BR OVC050 05/04 A2926 RMK AO2 P0002 T00500039=
202201070653 METAR KCLM 070653Z AUTO VRB03KT 1/2SM -RA FG OVC050 04/03 A2926 RMK AO2 SLP909 P0007 T00440033=
202201070553 METAR KCLM 070553Z AUTO 23003KT 1/2SM -RA FG OVC043 04/03 A2929 RMK AO2 SLP921 P0016 60031 T00440033 10056 20022 56008=
202201070548 SPECI KCLM 070548Z AUTO 00000KT 1/2SM RA FG OVC045 04/03 A2929 RMK AO2 P0015=
202201070535 SPECI KCLM 070535Z AUTO 11004KT 1 3/4SM RA BR OVC047 06/04 A2930 RMK AO2 VIS 1V4 P0012 T00560039=
202201070521 SPECI KCLM 070521Z AUTO 00000KT 3/4SM RA BR OVC048 04/03 A2931 RMK AO2 P0007 T00390028=
202201070509 SPECI KCLM 070509Z AUTO 00000KT 1 1/4SM RA BR OVC050 03/03 A2931 RMK AO2 P0003 T00330028=
202201070453 METAR KCLM 070453Z AUTO 00000KT 3/4SM -RA BR OVC050 03/02 A2931 RMK AO2 SLP929 P0008 T00280022=
202201070442 SPECI KCLM 070442Z AUTO 12004KT 3/4SM -RA BR OVC050 04/03 A2932 RMK AO2 P0006 T00390028=
202201070432 SPECI KCLM 070432Z AUTO 22004KT 1 1/4SM -RA BR OVC050 04/03 A2933 RMK AO2 P0005 T00390028=
202201070409 SPECI KCLM 070409Z AUTO 09003KT 3/4SM -RA BR OVC050 03/02 A2935 RMK AO2 PRESFR P0001 T00280017=
202201070353 METAR KCLM 070353Z AUTO VRB03KT 1 3/4SM -RA BR OVC055 03/02 A2937 RMK AO2 VIS 1 1/4V3 SLP949 P0003 T00330022=
202201070343 SPECI KCLM 070343Z AUTO VRB03KT 4SM -RA BR OVC055 04/03 A2938 RMK AO2 P0002 T00440033=
202201070336 SPECI KCLM 070336Z AUTO 21003KT 2 1/2SM -RA BR OVC055 05/03 A2938 RMK AO2 VIS 1V5 P0002 T00500033=
202201070314 SPECI KCLM 070314Z AUTO 00000KT 1 1/4SM -RA BR OVC047 03/02 A2939 RMK AO2 P0002 T00330022=
202201070253 METAR KCLM 070253Z AUTO VRB03KT 3/4SM -RA BR OVC047 04/02 A2941 RMK AO2 SLP960 P0002 60004 T00390022 56023=
202201070248 SPECI KCLM 070248Z AUTO 03003KT 1SM -RA BR OVC048 03/02 A2941 RMK AO2 P0002=
202201070239 SPECI KCLM 070239Z AUTO 00000KT 2 1/2SM -RA BR OVC048 04/03 A2941 RMK AO2 P0001 T00440033=
202201070209 SPECI KCLM 070209Z AUTO 00000KT 1 1/4SM -RA BR OVC055 03/02 A2943 RMK AO2 P0000 T00330022=
202201070153 METAR KCLM 070153Z AUTO 00000KT 2 1/2SM -RA BR OVC060 03/02 A2944 RMK AO2 SLP973 P0001 T00280017=
202201070132 SPECI KCLM 070132Z AUTO 14003KT 1 1/4SM -RA BR OVC065 03/02 A2945 RMK AO2 VIS 1V2 1/2 P0001 T00280017=
202201070110 SPECI KCLM 070110Z AUTO 16004KT 2 1/2SM -RA BR OVC065 03/02 A2947 RMK AO2 VIS 1 1/4V5 P0001 T00330022=
202201070053 METAR KCLM 070053Z AUTO 20003KT 3SM -RA BR OVC065 03/02 A2948 RMK AO2 SLP984 P0001 T00330017=
202201070048 SPECI KCLM 070048Z AUTO 00000KT 2 1/2SM -RA BR OVC060 03/02 A2948 RMK AO2 VIS 1 3/4V4 P0001=
202201070032 SPECI KCLM 070032Z AUTO 00000KT 4SM -RA BR OVC060 03/02 A2949 RMK AO2 P0001 T00330022=
202201070023 SPECI KCLM 070023Z AUTO 00000KT 2SM -RA BR OVC055 03/02 A2949 RMK AO2 P0001 T00330022=
202201062353 METAR KCLM 062353Z AUTO 16003KT 3SM -RA BR BKN055 OVC070 04/02 A2950 RMK AO2 SLP993 P0001 60001 T00390022 10044 20017 58006=
202201062334 SPECI KCLM 062334Z AUTO VRB03KT 3SM -RA BR OVC060 04/02 A2951 RMK AO2 P0001 T00390022=
202201062324 SPECI KCLM 062324Z AUTO 03004KT 1 3/4SM -RA BR BKN060 OVC070 03/02 A2952 RMK AO2 VIS 3/4V4 P0001 T00330022=
202201062302 SPECI KCLM 062302Z AUTO 21004KT 4SM -RA BR BKN060 OVC070 04/02 A2952 RMK AO2 P0000 T00390022=
202201062253 METAR KCLM 062253Z AUTO 00000KT 1 1/2SM -RA BR SCT060 OVC070 03/02 A2953 RMK AO2 VIS 1/2V5 RAB42 SLP001 P0000 T00330022=
202201062226 SPECI KCLM 062226Z AUTO 00000KT 5SM BR SCT003 OVC100 03/02 A2952 RMK AO2 T00330022=
202201062153 METAR KCLM 062153Z AUTO 00000KT 7SM BKN003 BKN120 03/02 A2952 RMK AO2 SLP999 T00280017=
202201062142 SPECI KCLM 062142Z AUTO VRB04KT 7SM SCT003 SCT120 03/02 A2951 RMK AO2 T00330022=
202201062123 SPECI KCLM 062123Z AUTO 19003KT 9SM BKN003 BKN120 03/02 A2953 RMK AO2 T00280022=
202201062053 METAR KCLM 062053Z AUTO 00000KT 9SM FEW004 03/02 A2954 RMK AO2 SLP005 T00330017 56032=
202201062044 SPECI KCLM 062044Z AUTO 32003KT 8SM SCT004 03/02 A2954 RMK AO2 T00330022=
202201062010 SPECI KCLM 062010Z AUTO VRB04KT 10SM BKN004 03/02 A2957 RMK AO2 T00280017=
202201061953 METAR KCLM 061953Z AUTO 00000KT 10SM SCT004 03/01 A2956 RMK AO2 PRESFR SLP013 T00280011=
202201061946 SPECI KCLM 061946Z AUTO 00000KT 10SM FEW004 03/02 A2957 RMK AO2 T00280017=
202201061853 METAR KCLM 061853Z AUTO 14005KT 10SM BKN060 03/01 A2960 RMK AO2 SLP026 T00280011=
202201061802 SPECI KCLM 061802Z AUTO 17005KT 4SM BR SCT008 SCT025 BKN065 03/01 A2962 RMK AO2 T00280011=
202201061759 SPECI KCLM 061759Z AUTO 17004KT 2SM BR BKN008 BKN025 BKN060 02/01 A2962 RMK AO2 T00220011=
202201061753 METAR KCLM 061753Z AUTO 16006KT 1/2SM FG BKN007 BKN013 BKN060 02/01 A2963 RMK AO2 SLP037 60000 T00170006 10028 20017 53003=
202201061749 SPECI KCLM 061749Z AUTO 17004KT 1/2SM FG FEW002 BKN007 02/01 A2963 RMK AO2=
202201061731 SPECI KCLM 061731Z AUTO VRB03KT 1/2SM FG BKN001 BKN007 02/01 A2963 RMK AO2 T00220006=
202201061653 METAR KCLM 061653Z AUTO 22006KT 1/4SM FG VV003 02/01 A2962 RMK AO2 SLP031 T00220011=
202201061636 SPECI KCLM 061636Z AUTO 22005KT 1/4SM FG VV003 02/01 A2962 RMK AO2 T00170011=
202201061606 SPECI KCLM 061606Z AUTO 22003KT 3/4SM BR VV003 02/01 A2962 RMK AO2 T00220006=
202201061553 METAR KCLM 061553Z AUTO VRB03KT 1 1/4SM BR OVC002 02/01 A2962 RMK AO2 SLP034 T00220006=
202201061453 METAR KCLM 061453Z AUTO 24005KT 1 3/4SM BR OVC002 02/01 A2964 RMK AO2 SLP039 60000 T00170006 56017=
202201061451 SPECI KCLM 061451Z AUTO 23006KT 2SM BR OVC002 02/01 A2964 RMK AO2=
202201061353 METAR KCLM 061353Z AUTO 28003KT 3SM BR OVC003 02/01 A2967 RMK AO2 SLP049 T00170006=
202201061253 METAR KCLM 061253Z AUTO 00000KT 10SM OVC003 02/01 A2969 RMK AO2 RAE22 SLP057 P0000 T00220011=
202201061153 METAR KCLM 061153Z AUTO 00000KT 10SM -RA OVC004 02/01 A2970 RMK AO2 CIG 004V009 SLP059 P0007 60061 70087 I6001 T00220011 10022 20011 58020=
202201061053 METAR KCLM 061053Z AUTO VRB04KT 3SM RA BR OVC004 02/00 A2977 RMK AO2 SLP083 P0012 T00220000=
202201060953 METAR KCLM 060953Z AUTO VRB04KT 4SM RA BR OVC003 02/01 A2975 RMK AO2 SLP076 P0010 T00220006=
202201060914 SPECI KCLM 060914Z AUTO 06010G17KT 3SM -RA BR OVC002 02/00 A2974 RMK AO2 P0003 T00170000=
202201060853 METAR KCLM 060853Z AUTO 04008G17KT 2 1/2SM -RA BR OVC002 02/00 A2976 RMK AO2 SLP079 P0012 60032 I1000 I3001 T00170000 58020=
202201060830 SPECI KCLM 060830Z AUTO 04008KT 2 1/2SM -RA BR BKN003 OVC011 02/M01 A2978 RMK AO2 P0009 I1000 T00171006=
202201060811 SPECI KCLM 060811Z AUTO 00000KT 2 1/2SM RA BR FEW005 OVC011 01/00 A2980 RMK AO2 P0004 T00110000=
202201060753 METAR KCLM 060753Z AUTO 20005KT 2 1/2SM RA BR OVC007 01/00 A2981 RMK AO2 RAB01SNE01 SLP098 P0015 T00110000 400280000=
202201060741 SPECI KCLM 060741Z AUTO 26007KT 3SM RA BR OVC008 01/M01 A2983 RMK AO2 RAB01SNE01 P0011 T00111006=
202201060722 SPECI KCLM 060722Z AUTO 31004KT 2SM RA BR OVC008 01/M01 A2981 RMK AO2 RAB01SNE01 P0006 T00111006=
202201060704 SPECI KCLM 060704Z AUTO 00000KT 1 3/4SM -RA BR OVC006 01/00 A2980 RMK AO2 RAB01SNE01 P0002 T00110000=
202201060701 SPECI KCLM 060701Z AUTO 00000KT 2SM -RA BR OVC004 01/01 A2981 RMK AO2 RAB01SNE01 P0001 T00110006=
202201060653 METAR KCLM 060653Z AUTO 00000KT 1 3/4SM -SN BR OVC004 01/00 A2982 RMK AO2 RAB22E43FZRAB43E53SNE22B53 CIG 004V007 SLP099 P0005 I1001 T00110000=
202201060644 SPECI KCLM 060644Z AUTO 13005KT 2SM FZRA BR OVC004 01/M01 A2983 RMK AO2 RAB22E43FZRAB43SNE22 PRESFR P0004 I1001 T00111006=
202201060641 SPECI KCLM 060641Z AUTO 13006KT 2SM -RA BR OVC004 01/M01 A2983 RMK AO2 RAB22SNE22 PRESFR P0003 I1000 T00111006=
202201060553 METAR KCLM 060553Z AUTO 11007KT 3SM -SN BR OVC004 01/00 A2989 RMK AO2 SLP124 P0003 60020 T00110000 10028 20011 58053=
202201060542 SPECI KCLM 060542Z AUTO 11007KT 4SM -SN BR OVC004 01/M01 A2990 RMK AO2 P0003 T00111006=
202201060509 SPECI KCLM 060509Z AUTO 11009KT 2SM -SN BR OVC004 01/00 A2994 RMK AO2 P0002 T00110000=
202201060453 METAR KCLM 060453Z AUTO 11009KT 1 1/2SM -SN BR OVC004 01/M01 A2996 RMK AO2 PRESFR SLP147 P0007 T00111006=
202201060432 SPECI KCLM 060432Z AUTO 11008KT 1 1/2SM -SN BR OVC004 01/M01 A2999 RMK AO2 P0005 T00111006=
202201060417 SPECI KCLM 060417Z AUTO 12007KT 1 1/2SM -SN BR OVC005 01/00 A3000 RMK AO2 P0003 T00110000=
202201060401 SPECI KCLM 060401Z AUTO 11008KT 2 1/2SM -SN BR OVC005 02/00 A3001 RMK AO2 P0000 T00170000=
202201060353 METAR KCLM 060353Z AUTO 12007KT 2 1/2SM -SN BR OVC004 01/M01 A3001 RMK AO2 SLP165 P0001 T00111006=
202201060344 SPECI KCLM 060344Z AUTO 11008KT 2 1/2SM -SN BR OVC004 02/M01 A3002 RMK AO2 P0001 T00171006=
202201060318 SPECI KCLM 060318Z AUTO 11009KT 4SM -SN BR OVC004 02/M01 A3002 RMK AO2 P0000 T00171006=
202201060253 METAR KCLM 060253Z AUTO 11009KT 4SM -SN BR BKN006 OVC015 02/00 A3005 RMK AO2 SLP177 P0002 60009 T00170000 58029=
202201060243 SPECI KCLM 060243Z AUTO 10008KT 4SM -SN BR BKN006 OVC014 02/00 A3005 RMK AO2 P0001 T00170000=
202201060206 SPECI KCLM 060206Z AUTO 10012KT 2 1/2SM -SN BR BKN006 BKN013 OVC018 02/M01 A3007 RMK AO2 P0000 T00171006=
202201060153 METAR KCLM 060153Z AUTO 11009KT 3SM -SN BR BKN006 BKN011 OVC016 02/00 A3008 RMK AO2 RAE10SNB10 SLP188 P0004 T00170000=
202201060123 SPECI KCLM 060123Z AUTO 10010KT 2SM -SN BR BKN006 OVC013 02/M01 A3009 RMK AO2 RAE10SNB10 P0002 T00171006=
202201060101 SPECI KCLM 060101Z AUTO 11011KT 6SM -RA BR BKN008 OVC020 02/00 A3011 RMK AO2 P0000 T00220000=
202201060053 METAR KCLM 060053Z AUTO 10009KT 7SM -RA SCT010 OVC020 02/00 A3011 RMK AO2 UPB2357E00 SLP200 P0003 T00220000=
202201060046 SPECI KCLM 060046Z AUTO 10010G18KT 7SM -RA SCT010 OVC019 02/00 A3012 RMK AO2 UPB2357E00 P0002 T00220000=
202201060035 SPECI KCLM 060035Z AUTO 09009KT 7SM -RA FEW008 BKN013 OVC021 03/00 A3012 RMK AO2 UPB2357E00 P0002 T00280000=
202201052353 METAR KCLM 052353Z AUTO 11006KT 7SM -RA FEW011 OVC023 03/01 A3013 RMK AO2 UPB2254E2258 SLP207 P0001 60006 T00280006 10028 20017 56017=
202201052304 SPECI KCLM 052304Z AUTO VRB04KT 7SM -RA SCT005 BKN015 OVC026 03/01 A3014 RMK AO2 UPB2254E2258 P0000 T00280011=
202201052253 METAR KCLM 052253Z AUTO 10005KT 10SM -RA BKN005 OVC028 03/01 A3014 RMK AO2 SLP209 P0001 T00280006=
202201052153 METAR KCLM 052153Z AUTO 08008KT 5SM -RA BR OVC005 02/01 A3015 RMK AO2 UPB20E35 SLP214 P0002 T00220006=
202201052053 METAR KCLM 052053Z AUTO 09007KT 3SM -RA BR OVC007 02/01 A3018 RMK AO2 UPE11B32E35RAB07 SLP224 P0001 60002 T00220006 58011=
202201051953 METAR KCLM 051953Z AUTO 08004KT 4SM UP BR OVC006 03/01 A3021 RMK AO2 RAE53UPB35 CIG 005V009 SLP232 P0001 T00280006=
202201051853 METAR KCLM 051853Z AUTO 08004KT 10SM -RA OVC009 03/01 A3024 RMK AO2 RAB36 CIG 006V011 SLP244 P0000 T00280006=
202201051842 SPECI KCLM 051842Z AUTO 09004KT 10SM -RA BKN009 OVC013 03/01 A3024 RMK AO2 RAB36 CIG 007V011 P0000 T00280006=
202201051828 SPECI KCLM 051828Z AUTO 00000KT 10SM BKN011 BKN018 OVC034 02/00 A3023 RMK AO2 T00220000=
202201051821 SPECI KCLM 051821Z AUTO 00000KT 10SM SCT013 BKN018 OVC070 02/00 A3023 RMK AO2 T00220000=
202201051800 SPECI KCLM 051800Z AUTO 22003KT 10SM FEW028 SCT035 OVC070 02/00 A3022 RMK AO2 T00170000=
202201051753 METAR KCLM 051753Z AUTO 00000KT 10SM BKN028 BKN037 OVC070 02/00 A3022 RMK AO2 SLP235 T00170000 10022 20000 53022=
202201051653 METAR KCLM 051653Z AUTO 00000KT 10SM SCT015 BKN025 OVC031 01/00 A3019 RMK AO2 SLP227 T00110000=
202201051607 SPECI KCLM 051607Z AUTO 00000KT 10SM BKN016 OVC110 01/M01 A3018 RMK AO2 T00111006=
202201051553 METAR KCLM 051553Z AUTO 00000KT 10SM SCT016 OVC110 01/M01 A3017 RMK AO2 SLP221 T00111006=
202201051519 SPECI KCLM 051519Z AUTO 00000KT 10SM FEW014 SCT019 OVC120 01/M01 A3016 RMK AO2 T00061011=
202201051453 METAR KCLM 051453Z AUTO 00000KT 10SM SCT013 BKN019 BKN041 01/M01 A3015 RMK AO2 SLP213 T00061011 51006=
202201051451 SPECI KCLM 051451Z AUTO 00000KT 10SM SCT013 BKN019 BKN041 01/M01 A3015 RMK AO2=
202201051403 SPECI KCLM 051403Z AUTO 00000KT 10SM SCT029 BKN120 01/M01 A3014 RMK AO2 T00061011=
202201051353 METAR KCLM 051353Z AUTO 00000KT 10SM BKN027 BKN120 00/M01 A3014 RMK AO2 SLP209 T00001011=
202201051253 METAR KCLM 051253Z AUTO 21003KT 10SM FEW021 01/M01 A3013 RMK AO2 SLP207 T00111006=
202201051153 METAR KCLM 051153Z AUTO 00000KT 10SM FEW014 BKN040 01/M01 A3012 RMK AO2 SLP204 70009 T00111006 10028 20006 51014=
202201051137 SPECI KCLM 051137Z AUTO 00000KT 10SM FEW014 BKN040 01/M01 A3012 RMK AO2 T00111006=
202201051119 SPECI KCLM 051119Z AUTO 00000KT 10SM SCT014 BKN021 BKN040 01/M01 A3012 RMK AO2 T00111006=
202201051053 METAR KCLM 051053Z AUTO 23004KT 10SM FEW015 BKN038 02/M01 A3011 RMK AO2 SLP198 T00171006=
202201051048 SPECI KCLM 051048Z AUTO 23004KT 10SM FEW013 SCT024 OVC038 02/M01 A3010 RMK AO2=
202201051011 SPECI KCLM 051011Z AUTO 23006KT 10SM FEW012 BKN017 BKN022 02/00 A3009 RMK AO2 T00220000=
202201050953 METAR KCLM 050953Z AUTO 23007KT 10SM CLR 02/M01 A3008 RMK AO2 SLP190 T00171006=
202201050853 METAR KCLM 050853Z AUTO 25005KT 10SM FEW008 01/M01 A3006 RMK AO2 SLP182 T00111006 51030=
202201050753 METAR KCLM 050753Z AUTO 26006KT 10SM CLR 02/00 A3004 RMK AO2 SLP174 T00220000 400561006=
202201050653 METAR KCLM 050653Z AUTO 24007KT 10SM FEW009 SCT100 02/00 A3000 RMK AO2 SLP161 T00220000=
202201050553 METAR KCLM 050553Z AUTO 26009KT 10SM BKN095 03/00 A2997 RMK AO2 RAE22UPB20E21 SLP152 P0000 60004 T00280000 10033 20017 51009=
202201050515 SPECI KCLM 050515Z AUTO 27004KT 10SM -RA BKN035 OVC070 03/01 A2997 RMK AO2 P0000 T00280006=
202201050502 SPECI KCLM 050502Z AUTO 24005KT 10SM -RA OVC026 03/01 A2997 RMK AO2 P0000 T00330006=
202201050453 METAR KCLM 050453Z AUTO 25007KT 9SM -RA OVC030 03/01 A2997 RMK AO2 RAB08 SLP152 P0002 T00330006=
202201050451 SPECI KCLM 050451Z AUTO 25008KT 8SM -RA OVC028 03/01 A2997 RMK AO2 RAB08 P0002=
202201050433 SPECI KCLM 050433Z AUTO 24006KT 9SM -RA FEW023 OVC034 02/01 A2996 RMK AO2 RAB08 P0001 T00220006=
202201050353 METAR KCLM 050353Z AUTO 25004KT 10SM BKN026 BKN049 OVC060 02/00 A2994 RMK AO2 RAE20B43E44UPB0256E43 SLP143 P0000 T00220000=
202201050253 METAR KCLM 050253Z AUTO 18005KT 10SM -RA BKN035 OVC060 02/01 A2993 RMK AO2 UPB0159E00B22E40 SLP140 P0000 60002 T00220006 58003=
202201050153 METAR KCLM 050153Z AUTO 13004KT 10SM -RA OVC033 02/00 A2994 RMK AO2 SLP143 P0001 T00220000=
202201050118 SPECI KCLM 050118Z AUTO 00000KT 10SM -RA OVC029 02/01 A2995 RMK AO2 P0000 T00220006=
202201050104 SPECI KCLM 050104Z AUTO 00000KT 10SM -RA OVC031 02/01 A2995 RMK AO2 P0000 T00220006=
202201050053 METAR KCLM 050053Z AUTO 23003KT 10SM -RA OVC027 03/01 A2996 RMK AO2 RAE04B24UPB04E24 SLP147 P0001 T00280006=
202201050044 SPECI KCLM 050044Z AUTO 24003KT 9SM -RA OVC025 03/01 A2996 RMK AO2 RAE04B24UPB04E24 P0001 T00280006=
202201042353 METAR KCLM 042353Z AUTO 27005KT 10SM -RA OVC035 03/00 A2995 RMK AO2 RAB23 SLP143 P0000 60000 T00330000 10056 20028 55002=
202201042253 METAR KCLM 042253Z AUTO 25008KT 10SM FEW050 BKN075 OVC090 04/M01 A2993 RMK AO2 SLP139 T00391006=
202201042153 METAR KCLM 042153Z AUTO 27006KT 10SM SCT055 OVC110 04/M01 A2993 RMK AO2 SLP138 T00391006=
202201042053 METAR KCLM 042053Z AUTO 30005KT 10SM SCT055 BKN070 05/M02 A2995 RMK AO2 SLP145 T00501017 58002=
202201041953 METAR KCLM 041953Z AUTO 26003KT 10SM FEW065 SCT085 BKN110 05/M03 A2996 RMK AO2 SLP149 T00501033=
202201041853 METAR KCLM 041853Z AUTO 29004KT 10SM SCT120 03/M02 A2997 RMK AO2 SLP150 T00331022=
202201041753 METAR KCLM 041753Z AUTO 13004KT 10SM FEW120 03/M03 A2996 RMK AO2 SLP147 60005 I6000 T00331028 10033 20011 51026=
202201041653 METAR KCLM 041653Z AUTO 25009KT 10SM FEW110 02/M03 A2994 RMK AO2 SLP140 T00221028=
202201041553 METAR KCLM 041553Z AUTO 22008KT 10SM CLR 02/M02 A2991 RMK AO2 SLP131 T00221022=
202201041453 METAR KCLM 041453Z AUTO 24007KT 10SM CLR 02/M01 A2988 RMK AO2 UPE00 SLP121 P0000 60005 I3000 T00221011 53030=
202201041407 SPECI KCLM 041407Z AUTO 27007KT 10SM SCT024 SCT090 BKN110 02/M01 A2985 RMK AO2 UPE00 P0000 T00221006=
202201041353 METAR KCLM 041353Z AUTO 23006KT 10SM UP BKN027 OVC090 02/00 A2984 RMK AO2 RAE11B33E52UPB09E10B34E35B52 SLP109 P0001 T00220000=
202201041345 SPECI KCLM 041345Z AUTO 23008KT 9SM -RA BKN027 03/00 A2985 RMK AO2 RAE11B33UPB09E10B34E35 P0001 T00280000=
202201041317 SPECI KCLM 041317Z AUTO 25006KT 10SM FEW025 BKN033 BKN110 02/M01 A2982 RMK AO2 RAE11UPB09E10 P0000 T00171006=
202201041253 METAR KCLM 041253Z AUTO 21003KT 7SM -RA OVC021 02/00 A2982 RMK AO2 SLP099 P0004 I1000 T00220000=
202201041153 METAR KCLM 041153Z AUTO 27005KT 7SM -RA OVC028 02/M01 A2979 RMK AO2 UPB45E49RAB49 SLP091 P0001 60002 70015 T00171006 10039 21017 51026=
202201041053 METAR KCLM 041053Z AUTO 00000KT 10SM SCT034 01/M01 A2976 RMK AO2 RAB07E24UPB12E34SNE07 SLP081 P0000 T00111006=
202201041042 SPECI KCLM 041042Z AUTO 00000KT 10SM OVC032 02/M01 A2976 RMK AO2 RAB07E24UPB12E34SNE07 P0000 T00171006=
202201041002 SPECI KCLM 041002Z AUTO 19003KT 7SM -SN OVC028 03/M01 A2976 RMK AO2 P0000 T00281011=
202201040953 METAR KCLM 040953Z AUTO 00000KT 6SM -SN FEW027 OVC032 03/M01 A2975 RMK AO2 UPB27E40SNB52 SLP076 P0001 T00331011=
202201040853 METAR KCLM 040853Z AUTO 00000KT 10SM SCT050 BKN070 BKN110 00/M02 A2971 RMK AO2 SLP065 T00001022 51019=
202201040753 METAR KCLM 040753Z AUTO 00000KT 10SM BKN095 BKN120 00/M02 A2970 RMK AO2 SLP061 T00001022 400441017=
202201040653 METAR KCLM 040653Z AUTO 15004KT 10SM CLR M02/M03 A2968 RMK AO2 SLP054 T10171033=
202201040553 METAR KCLM 040553Z AUTO 17004KT 10SM CLR M02/M04 A2966 RMK AO2 SLP046 60000 T10171039 10039 21017 51025=
202201040453 METAR KCLM 040453Z AUTO 22004KT 10SM FEW120 01/M02 A2963 RMK AO2 SLP038 T00111017=
202201040353 METAR KCLM 040353Z AUTO 17003KT 10SM BKN050 BKN070 03/M02 A2961 RMK AO2 SLP031 T00281022=
202201040253 METAR KCLM 040253Z AUTO 22005KT 10SM BKN080 BKN110 03/M02 A2958 RMK AO2 SLP021 60000 T00281022 51019=
202201040153 METAR KCLM 040153Z AUTO 18004KT 10SM FEW065 SCT090 SCT110 03/M03 A2957 RMK AO2 SLP014 T00281028=
202201040053 METAR KCLM 040053Z AUTO 18005KT 10SM FEW023 SCT090 BKN110 02/M02 A2955 RMK AO2 SNB33E44 SLP009 P0000 T00171017=
202201032353 METAR KCLM 032353Z AUTO 16006KT 10SM FEW075 01/M02 A2953 RMK AO2 SLP002 60011 T00111017 10044 20011 53033=
202201032253 METAR KCLM 032253Z AUTO 24005KT 10SM FEW044 03/M02 A2949 RMK AO2 SLP990 T00331022=
202201032153 METAR KCLM 032153Z AUTO 23007KT 10SM SCT041 BKN048 BKN070 03/M02 A2946 RMK AO2 SNB22E33 SLP980 P0000 T00281017=
202201032053 METAR KCLM 032053Z AUTO 29004KT 10SM SCT021 03/00 A2943 RMK AO2 RAB02E13UPB13E30B41E45SNE02B30E41 SLP969 P0001 60011 T00280000 51033=
202201032037 SPECI KCLM 032037Z AUTO 24008KT 4SM -SN BKN023 BKN035 OVC055 03/00 A2944 RMK AO2 RAB02E13UPB13E30SNE02B30 P0001 T00280000=
202201032027 SPECI KCLM 032027Z AUTO 25006KT 10SM UP BKN032 BKN047 BKN055 02/01 A2944 RMK AO2 RAB02E13UPB13SNE02 P0001 T00220006=
202201031953 METAR KCLM 031953Z AUTO 28006KT 4SM -SN BR OVC016 02/00 A2943 RMK AO2 RAE23B37E52SNB23E37B52 SLP969 P0009 T00170000=
202201031946 SPECI KCLM 031946Z AUTO 28005KT 3SM -RA BR OVC014 02/00 A2942 RMK AO2 RAE23B37SNB23E37 P0008 T00170000=
202201031925 SPECI KCLM 031925Z AUTO 27006KT 2SM -SN OVC014 03/00 A2941 RMK AO2 RAE23SNB23 P0005 T00280000=
202201031911 SPECI KCLM 031911Z AUTO 26008KT 5SM -RA OVC024 03/00 A2941 RMK AO2 PRESRR P0001 T00330000=
202201031853 METAR KCLM 031853Z AUTO 28008KT 10SM -RA BKN036 BKN045 OVC055 03/00 A2938 RMK AO2 RAB24 SLP950 P0001 T00330000=
202201031840 SPECI KCLM 031840Z AUTO 28007KT 10SM -RA BKN032 OVC048 04/M01 A2937 RMK AO2 RAB24 P0001 T00391006=
202201031832 SPECI KCLM 031832Z AUTO 28007KT 7SM -RA BKN028 BKN050 04/00 A2937 RMK AO2 RAB24 P0001 T00390000=
202201031753 METAR KCLM 031753Z AUTO 10004KT 10SM SCT042 SCT055 SCT110 02/01 A2934 RMK AO2 RAB01E28 PRESFR SLP936 P0000 60002 T00220006 10033 20011 50001=
202201031653 METAR KCLM 031653Z AUTO 21003KT 10SM FEW065 BKN100 BKN120 02/01 A2935 RMK AO2 UPB13E23RAB23E24 SLP941 P0000 T00170006=
202201031636 SPECI KCLM 031636Z AUTO 22003KT 7SM FEW009 SCT019 BKN120 02/00 A2934 RMK AO2 UPB13E23RAB23E24 P0000 T00170000=
202201031601 SPECI KCLM 031601Z AUTO 22004KT 10SM FEW010 BKN022 BKN065 02/00 A2934 RMK AO2 T00170000=
202201031553 METAR KCLM 031553Z AUTO 21004KT 10SM SCT009 BKN070 02/01 A2933 RMK AO2 SLP936 T00170006=
202201031513 SPECI KCLM 031513Z AUTO 24004KT 10SM SCT024 BKN070 02/01 A2932 RMK AO2 T00170006=
202201031503 SPECI KCLM 031503Z AUTO 00000KT 10SM BKN025 03/01 A2932 RMK AO2 T00280006=
202201031453 METAR KCLM 031453Z AUTO 00000KT 6SM BR SCT025 02/01 A2932 RMK AO2 RAB00E34 SLP929 P0000 60002 T00220011 58006=
202201031353 METAR KCLM 031353Z AUTO 22005KT 10SM FEW041 BKN050 BKN070 03/01 A2933 RMK AO2 SLP935 T00330011=
202201031253 METAR KCLM 031253Z AUTO 24004KT 10SM SCT042 03/01 A2932 RMK AO2 RAE37 SLP930 P0002 T00280011=
202201031225 SPECI KCLM 031225Z AUTO 00000KT 7SM -RA OVC030 03/01 A2933 RMK AO2 P0002 T00330011=
202201031210 SPECI KCLM 031210Z AUTO 21004KT 8SM -RA OVC029 03/01 A2934 RMK AO2 P0001 T00330011=
202201031153 METAR KCLM 031153Z AUTO 25004KT 8SM -RA OVC033 03/01 A2933 RMK AO2 SLP935 P0002 60014 70031 T00280011 10044 20022 56003=
202201031053 METAR KCLM 031053Z AUTO 19004KT 10SM -RA SCT036 BKN048 OVC070 03/02 A2933 RMK AO2 RAB46 SLP934 P0000 T00330017=
202201030953 METAR KCLM 030953Z AUTO 22004KT 10SM SCT042 BKN090 OVC110 03/01 A2932 RMK AO2 RAE15B48E49UPB37E48 SLP929 P0000 T00280011=
202201030853 METAR KCLM 030853Z AUTO 13007KT 7SM -RA FEW010 OVC037 02/01 A2934 RMK AO2 SLP938 P0007 60012 T00220006 58005=
202201030845 SPECI KCLM 030845Z AUTO 18005KT 3SM -RA BR SCT010 OVC031 03/02 A2936 RMK AO2 P0007 T00280017=
202201030839 SPECI KCLM 030839Z AUTO 20004KT 1 1/2SM -RA BR SCT010 OVC029 02/01 A2936 RMK AO2 P0007 T00220011=
202201030831 SPECI KCLM 030831Z AUTO 20003KT 2 1/2SM -RA BR OVC028 02/01 A2935 RMK AO2 P0006 T00220011=
202201030806 SPECI KCLM 030806Z AUTO VRB03KT 1 3/4SM -RA BR OVC028 02/01 A2936 RMK AO2 P0002 T00220011=
202201030753 METAR KCLM 030753Z AUTO 22003KT 3SM -RA BR OVC032 02/02 A2936 RMK AO2 SLP944 P0002 T00220017 400940000=
202201030740 SPECI KCLM 030740Z AUTO 20004KT 3SM -RA BR FEW006 OVC033 03/02 A2936 RMK AO2 P0001 T00280017=
202201030729 SPECI KCLM 030729Z AUTO 00000KT 1 3/4SM -RA BR SCT006 OVC034 03/02 A2934 RMK AO2 P0001 T00280022=
202201030723 SPECI KCLM 030723Z AUTO 00000KT 2SM -RA BR BKN006 BKN010 OVC034 03/02 A2934 RMK AO2 VIS 1V5 P0000 T00280022=
202201030704 SPECI KCLM 030704Z AUTO 00000KT 9SM -RA BKN007 BKN020 OVC030 04/03 A2936 RMK AO2 P0000 T00440028=
202201030653 METAR KCLM 030653Z AUTO 00000KT 6SM -RA BR FEW007 FEW018 OVC031 04/03 A2935 RMK AO2 RAB19 SLP941 P0003 T00440028=
202201030648 SPECI KCLM 030648Z AUTO 00000KT 6SM -RA BR FEW009 FEW018 OVC031 04/02 A2936 RMK AO2 RAB19 P0002=
202201030553 METAR KCLM 030553Z AUTO 32004KT 10SM FEW060 SCT090 SCT110 03/01 A2935 RMK AO2 SLP941 60016 T00280011 10067 20022 58019=
202201030453 METAR KCLM 030453Z AUTO 00000KT 10SM OVC070 04/03 A2936 RMK AO2 RAB0357E25 SLP946 P0000 T00440028=
202201030353 METAR KCLM 030353Z AUTO 19006KT 10SM SCT055 BKN070 OVC080 03/02 A2941 RMK AO2 PRESRR SLP961 T00330022=
202201030253 METAR KCLM 030253Z AUTO 00000KT 6SM BR BKN055 BKN065 03/01 A2941 RMK AO2 RAE03 SLP960 P0000 60016 T00280006 58029=
202201030207 SPECI KCLM 030207Z AUTO 00000KT 4SM BR SCT029 04/02 A2943 RMK AO2 RAE03 P0000 T00390022=
202201030201 SPECI KCLM 030201Z AUTO 00000KT 2 1/2SM -RA BR BKN029 03/02 A2943 RMK AO2 VIS 1 1/2V5 P0000 T00280017=
202201030153 METAR KCLM 030153Z AUTO 00000KT 1 1/2SM -RA BR OVC031 03/02 A2944 RMK AO2 VIS 1V4 PRESFR SLP970 P0005 T00280022=
202201030120 SPECI KCLM 030120Z AUTO 13003KT 1 1/2SM -RA BR OVC031 03/02 A2947 RMK AO2 P0003 T00330022=
202201030053 METAR KCLM 030053Z AUTO 23006KT 4SM -RA BR OVC030 04/03 A2948 RMK AO2 SLP986 P0011 T00440028=
202201030035 SPECI KCLM 030035Z AUTO 26006KT 4SM -RA BR OVC031 04/02 A2950 RMK AO2 P0008 T00440022=
202201030027 SPECI KCLM 030027Z AUTO VRB04KT 2 1/2SM RA BR OVC031 05/03 A2950 RMK AO2 P0007 T00500028=
202201022353 METAR KCLM 022353Z AUTO 15008KT 6SM -RA BR OVC039 03/02 A2950 RMK AO2 RAE2257B13 SLP990 P0001 60001 T00330017 10078 20033 56028=
202201022253 METAR KCLM 022253Z AUTO 32006KT 10SM -RA BKN047 BKN055 OVC110 04/02 A2952 RMK AO2 RAB2155E08B32 SLP996 P0000 T00440017=
202201022153 METAR KCLM 022153Z AUTO 19005KT 10SM BKN043 05/02 A2955 RMK AO2 RAB2057E06 SLP008 P0000 T00500017=
202201022053 METAR KCLM 022053Z AUTO 28006KT 10SM SCT047 SCT055 07/02 A2958 RMK AO2 SLP018 60000 T00670017 58032=
202201021953 METAR KCLM 021953Z AUTO 26011G17KT 10SM BKN048 BKN055 OVC070 07/02 A2962 RMK AO2 RAB30E42 SLP032 P0000 T00670022=
202201021853 METAR KCLM 021853Z AUTO VRB03KT 10SM BKN055 06/01 A2966 RMK AO2 SLP046 T00610011=
202201021753 METAR KCLM 021753Z AUTO 26007KT 10SM BKN060 BKN075 05/01 A2967 RMK AO2 SLP051 T00500011 10089 20022 56018=
202201021653 METAR KCLM 021653Z AUTO VRB03KT 10SM BKN060 02/M01 A2969 RMK AO2 SLP056 T00221011=
202201021553 METAR KCLM 021553Z AUTO 00000KT 10SM SCT060 04/M01 A2970 RMK AO2 SLP060 T00391006=
202201021453 METAR KCLM 021453Z AUTO 02003KT 10SM SCT060 07/M01 A2973 RMK AO2 SLP069 T00671006 58022=
202201021353 METAR KCLM 021353Z AUTO 24007KT 10SM FEW060 BKN110 04/M01 A2977 RMK AO2 SLP083 T00391006=
202201021253 METAR KCLM 021253Z AUTO VRB03KT 10SM CLR 04/M01 A2977 RMK AO2 SLP085 T00391006=
202201021153 METAR KCLM 021153Z AUTO VRB05G20KT 10SM CLR 08/M01 A2979 RMK AO2 PK WND 26026/1055 SLP091 T00831006 10094 21017 58008=
202201021053 METAR KCLM 021053Z AUTO 27011G19KT 230V300 10SM CLR 09/M01 A2982 RMK AO2 SLP099 T00891006=
202201020953 METAR KCLM 020953Z AUTO VRB03KT 10SM CLR 03/M03 A2981 RMK AO2 SLP096 T00281028=
202201020853 METAR KCLM 020853Z AUTO VRB03KT 10SM CLR 03/M04 A2982 RMK AO2 SLP100 T00281039 58026=
202201020753 METAR KCLM 020753Z AUTO 12004KT 10SM CLR 01/M05 A2986 RMK AO2 SLP114 T00061050 400221078=
202201020653 METAR KCLM 020653Z AUTO 14004KT 10SM CLR M01/M05 A2988 RMK AO2 SLP122 T10111050=
202201020553 METAR KCLM 020553Z AUTO 34003KT 10SM FEW120 M01/M05 A2990 RMK AO2 SLP127 T10111050 10000 21033 55023=
202201020453 METAR KCLM 020453Z AUTO 10004KT 10SM CLR M02/M05 A2989 RMK AO2 SLP125 T10221050=
202201020353 METAR KCLM 020353Z AUTO 00000KT 10SM CLR M02/M04 A2993 RMK AO2 SLP139 T10171044=
202201020253 METAR KCLM 020253Z AUTO VRB03KT 10SM CLR M03/M04 A2996 RMK AO2 SLP150 T10281044 58037=
202201020153 METAR KCLM 020153Z AUTO 19003KT 10SM CLR M03/M06 A3000 RMK AO2 SLP164 T10331056=
202201020053 METAR KCLM 020053Z AUTO 00000KT 10SM CLR M03/M05 A3004 RMK AO2 SLP176 T10281050=
202201012353 METAR KCLM 012353Z AUTO 00000KT 10SM CLR 01/M04 A3007 RMK AO2 SLP188 T00061044 10022 21017 56022=
202201012253 METAR KCLM 012253Z AUTO 08004KT 10SM CLR 01/M04 A3009 RMK AO2 SLP195 T00111044=
202201012153 METAR KCLM 012153Z AUTO 00000KT 10SM CLR 02/M04 A3011 RMK AO2 SLP200 T00171044=
202201012053 METAR KCLM 012053Z AUTO 14003KT 10SM BKN060 02/M04 A3014 RMK AO2 SLP210 T00171044 58019=
202201011953 METAR KCLM 011953Z AUTO 00000KT 10SM OVC060 01/M06 A3016 RMK AO2 SLP217 T00111056=
202201011853 METAR KCLM 011853Z AUTO 23003KT 10SM OVC060 01/M05 A3019 RMK AO2 SLP227 T00061050=
202201011753 METAR KCLM 011753Z AUTO 00000KT 10SM OVC065 M02/M04 A3019 RMK AO2 SLP228 T10171044 11017 21039 50001=
202201011653 METAR KCLM 011653Z AUTO 00000KT 10SM OVC070 M03/M06 A3020 RMK AO2 SLP230 T10331056=
202201011553 METAR KCLM 011553Z AUTO 23005KT 10SM OVC070 M02/M06 A3020 RMK AO2 SLP233 T10221061=
202201011453 METAR KCLM 011453Z AUTO 20003KT 10SM OVC075 M04/M07 A3019 RMK AO2 SLP228 T10391067 58006=
202201011353 METAR KCLM 011353Z AUTO 00000KT 10SM OVC075 M03/M06 A3020 RMK AO2 SLP231 T10281061=
202201011253 METAR KCLM 011253Z AUTO 24004KT 10SM OVC080 M03/M06 A3020 RMK AO2 SLP232 T10331061=
202201011153 METAR KCLM 011153Z AUTO 22004KT 10SM OVC080 M03/M07 A3021 RMK AO2 SLP233 I6000 T10331072 11033 21089 50002=
202201011053 METAR KCLM 011053Z AUTO 20003KT 10SM BKN095 M05/M08 A3021 RMK AO2 SLP235 T10501078=
202201010953 METAR KCLM 010953Z AUTO 22004KT 10SM BKN085 M04/M08 A3021 RMK AO2 SLP234 T10441083=
202201010853 METAR KCLM 010853Z AUTO 23003KT 10SM CLR M07/M10 A3020 RMK AO2 SLP231 I1000 I3000 T10671100 51008=
202201010753 METAR KCLM 010753Z AUTO 22003KT 10SM CLR M08/M10 A3019 RMK AO2 SLP227 T10781100 400171089=
202201010653 METAR KCLM 010653Z AUTO 00000KT 10SM CLR M08/M11 A3020 RMK AO2 SLP229 T10781106=
202201010553 METAR KCLM 010553Z AUTO 23006KT 10SM CLR M06/M09 A3018 RMK AO2 SLP223 I6000 T10561094 11028 21089 50002=
202201010453 METAR KCLM 010453Z AUTO 23006KT 10SM CLR M07/M10 A3018 RMK AO2 SLP224 I1000 T10721100=
202201010353 METAR KCLM 010353Z AUTO 00000KT 10SM CLR M08/M11 A3017 RMK AO2 SLP222 I1000 T10831106=
202201010253 METAR KCLM 010253Z AUTO 21004KT 10SM CLR M07/M10 A3017 RMK AO2 SLP221 I1000 I3000 T10671100 53012=
202201010153 METAR KCLM 010153Z AUTO 00000KT 10SM CLR M06/M09 A3016 RMK AO2 SLP216 I1000 T10611089=
202201010053 METAR KCLM 010053Z AUTO 00000KT 10SM CLR M05/M07 A3014 RMK AO2 SLP211 T10501072=

# No short TAF reports from KCLM in databse.

###################################
#  large TAF from KCLM
###################################
202201312320 TAF KCLM 312320Z 0100/0124 31011G20KT P6SM SCT030 BKN040 FM010300
                       26009KT P6SM SCT070 FM010900 24010KT P6SM
                       OVC060=
202201311720 TAF KCLM 311720Z 3118/0118 27010KT P6SM FEW040 FM311900 29012G20KT
                       P6SM SCT070 FM010000 28008KT P6SM SCT070=
202201311120 TAF KCLM 311120Z 3112/0112 27015G24KT P6SM BKN060 FM311900 29012G20KT
                       P6SM SCT070 FM010000 28008KT P6SM SCT070=
202201310521 TAF KCLM 310521Z 3106/0106 29012KT P6SM BKN050=
202201310232 KCLM 310232Z 3103/3124 29015G25KT P6SM -SHRA BKN040 FM312300 30010KT
                       P6SM BKN050=
202201310047 KCLM 310047Z 3101/3124 29008KT 4SM -RA BR SCT005 BKN015 OVC030
                       FM310200 29012G25KT 5SM -RA BR OVC004 FM310500
                       28017G27KT 6SM -RA BR OVC020 FM310700 27017G25KT
                       P6SM -SHRA BKN050 FM312300 30010KT P6SM
                       BKN050=
202201302339 TAF KCLM 302339Z 3100/3124 29008KT 2SM -RA BR BKN004 BKN015 OVC030
                       FM310200 29012G25KT 5SM -RA BR OVC004 FM310500
                       28017G27KT 6SM -RA BR OVC020 FM310700 27017G25KT
                       P6SM -SHRA BKN050 FM312300 30010KT P6SM
                       BKN050=
202201301738 TAF KCLM 301738Z 3018/3118 VRB03KT 5SM -SHRA BR SCT050 OVC060 FM302100
                       29008KT 5SM -RA SCT010 OVC020 FM310100 29012G20KT
                       P6SM SCT020 BKN040 FM310500 28017G27KT P6SM
                       BKN060=
202201301120 TAF KCLM 301120Z 3012/3112 00000KT 2SM BR SCT060 OVC120 FM301500
                       VRB03KT P6SM BKN060 OVC120 FM301800 VRB03KT
                       P6SM OVC040 FM302100 29008KT 5SM -RA SCT010
                       OVC020 FM310100 29012G20KT P6SM SCT020 BKN040
                       FM310500 28017G27KT P6SM BKN060=
202201300520 TAF KCLM 300520Z 3006/3106 VRB03KT 6SM -RA SCT010 OVC040 FM301100
                       VRB03KT P6SM SCT020 OVC040 FM301800 VRB03KT
                       P6SM -RA OVC040 FM302100 29008KT 5SM -RA
                       SCT010 OVC020 FM310100 29012G20KT P6SM SCT020
                       BKN040=
202201292338 TAF KCLM 292338Z 3000/3024 VRB03KT P6SM OVC110 FM300300 23003KT
                       P6SM OVC050 FM300600 VRB03KT 6SM -RA BR
                       OVC020 FM301200 23003KT 4SM -RA BR OVC015
                       FM302300 29008KT 5SM -SHRA OVC025=
202201291736 TAF KCLM 291736Z 2918/3018 VRB03KT P6SM BKN006 OVC120 FM292200
                       VRB03KT P6SM OVC100 FM300300 VRB03KT P6SM
                       OVC050 FM300600 VRB03KT 6SM -RA BR OVC020
                       FM301200 23003KT 4SM -RA BR OVC015=
202201291420 KCLM 291420Z 2914/3012 23003KT P6SM SCT005 BKN250
                      TEMPO 2914/2917 BKN005 BKN250 FM291700 VRB03KT
                       P6SM BKN200 FM292200 VRB03KT P6SM OVC100
                       FM300300 VRB03KT P6SM OVC050 FM300600 VRB03KT
                       6SM -RA BR OVC020=
202201291131 TAF KCLM 291131Z 2912/3012 00000KT P6SM BKN020
                      TEMPO 2914/2917 SCT020 BKN250 FM291700 VRB03KT
                       P6SM BKN200 FM292200 VRB03KT P6SM OVC100
                       FM300300 VRB03KT P6SM OVC050 FM300600 VRB03KT
                       6SM -RA BR OVC020=
202201290922 KCLM 290922Z 2909/3006 21004KT P6SM SCT015 SCT250
                      TEMPO 2909/2913 BKN015 BKN250 FM291300 VRB03KT
                       P6SM BKN008 FM291700 VRB03KT P6SM BKN200
                       FM292200 VRB03KT P6SM OVC100 FM300500 VRB03KT
                       P6SM OVC050=
202201290520 TAF KCLM 290520Z 2906/3006 VRB03KT P6SM SCT200 FM291400 VRB03KT
                       P6SM BKN008 FM291700 VRB03KT P6SM BKN200
                       FM292200 VRB03KT P6SM OVC100 FM300500 VRB03KT
                       P6SM OVC050=
202201282339 TAF KCLM 282339Z 2900/2924 08004KT P6SM SCT010 FM290300 23003KT
                       P6SM SCT100 FM292100 09003KT P6SM OVC015=
202201281738 TAF KCLM 281738Z 2818/2918 24005KT 5SM BR OVC005 FM282100 08004KT
                       P6SM SCT010 FM290300 23003KT P6SM SKC=
202201281120 TAF KCLM 281120Z 2812/2912 22005KT P6SM SKC FM281500 20003KT P6SM
                       SCT250 FM282100 08004KT P6SM SCT250 FM290300
                       23003KT P6SM SKC=
202201280520 TAF KCLM 280520Z 2806/2906 VRB03KT 6SM BR SCT006
                      TEMPO 2810/2814 5SM BR BKN005 FM282100 VRB04KT
                       P6SM SKC=
202201272338 TAF KCLM 272338Z 2800/2824 VRB03KT P6SM SKC FM280600 VRB03KT 5SM
                       BR OVC006 FM282100 VRB03KT P6SM SKC=
202201272112 KCLM 272112Z 2721/2818 11006KT 6SM BR OVC010 FM272230 09005KT P6SM
                       SCT004 FM280400 15003KT P6SM FEW250=
202201271903 KCLM 271903Z 2719/2818 14006KT 6SM BR OVC010 FM272100 09005KT P6SM
                       SCT004 FM280400 15003KT P6SM FEW250=
202201271741 TAF KCLM 271741Z 2718/2818 14003KT 5SM BR OVC009 FM272100 09005KT
                       P6SM SCT004 FM280400 15003KT P6SM FEW250=
202201271120 TAF KCLM 271120Z 2712/2812 13006KT 4SM BR OVC003 FM271400 14003KT
                       1/2SM FG OVC002 FM272100 09005KT P6SM SCT004
                       FM280400 15003KT P6SM FEW250=
202201270520 TAF KCLM 270520Z 2706/2806 00000KT 4SM BR BKN006 FM271000 00000KT
                       1SM BR OVC002 FM271700 09005KT P6SM SCT004=
202201262327 TAF KCLM 262327Z 2700/2724 09006KT P6SM SKC FM271000 VRB02KT 1SM
                       BR OVC002 FM271700 09005KT P6SM SCT004=
202201261733 TAF KCLM 261733Z 2618/2718 09006KT 6SM BR OVC007 FM262000 09005KT
                       6SM BR BKN250 FM270600 15003KT P6SM BKN250=
202201261120 TAF KCLM 261120Z 2612/2712 VRB03KT P6SM OVC006 FM261400 13004KT
                       1/2SM FG OVC003 FM261700 09006KT 3SM BR
                       OVC003 FM262000 09005KT 3SM BR BKN250 FM270600
                       15003KT P6SM BKN250=
202201260520 TAF KCLM 260520Z 2606/2706 VRB03KT P6SM OVC009 FM261200 VRB03KT
                       1/2SM FG OVC003 FM261700 09006KT 3SM BR
                       OVC003=
202201260410 KCLM 260410Z 2604/2624 VRB03KT P6SM BKN008 FM260500 VRB03KT 1SM
                       BR OVC004 FM261200 VRB03KT 1/2SM FG OVC003
                       FM261700 09006KT 3SM BR OVC003=
202201252333 TAF KCLM 252333Z 2600/2624 VRB03KT P6SM BKN010 FM260500 VRB03KT
                       1SM BR OVC004 FM261200 VRB03KT 1/2SM FG
                       OVC003 FM261700 09006KT 3SM BR OVC003=
202201251952 KCLM 251952Z 2520/2618 13006KT P6SM BKN011 FM260000 VRB03KT P6SM
                       SCT007 BKN012 FM260500 VRB03KT 1SM BR OVC004
                       FM261200 VRB03KT 1/2SM FG OVC003 FM261700
                       09006KT 3SM BR OVC005=
202201251740 TAF KCLM 251740Z 2518/2618 16006KT P6SM OVC008 FM252000 14004KT
                       P6SM BKN012 FM260000 VRB03KT P6SM SCT007
                       BKN012 FM260500 VRB03KT 1SM BR OVC004 FM261200
                       VRB03KT 1/2SM FG OVC003 FM261700 09006KT
                       3SM BR OVC005=
202201251120 TAF KCLM 251120Z 2512/2612 15004KT P6SM OVC007
                      TEMPO 2514/2518 1SM BR OVC004 FM252000 04007KT
                       2SM BR OVC005 FM260000 VRB03KT 6SM BR BKN007
                       FM260600 19003KT 1/2SM FG OVC004=
202201250520 TAF KCLM 250520Z 2506/2606 08007KT P6SM OVC004
                      TEMPO 2510/2514 2SM BR FM252000 04007KT 5SM
                       BR OVC005 FM260000 VRB03KT 6SM BR BKN007=
202201242329 TAF KCLM 242329Z 2500/2524 08007KT P6SM OVC007 FM250500 08007KT
                       4SM BR OVC004
                      TEMPO 2510/2514 2SM BR FM252000 04007KT 5SM
                       BR OVC005=
202201242037 KCLM 242037Z 2421/2518 10006KT P6SM SCT010
                      TEMPO 2422/2502 5SM BR BKN010 FM250200 10006KT
                       5SM BR BKN010 FM250400 10006KT 3SM BR OVC005=
202201241720 TAF KCLM 241720Z 2418/2518 15005KT P6SM OVC006
                      TEMPO 2418/2421 3SM BR FM250400 00000KT 3SM
                       BR OVC003=
202201241527 KCLM 241527Z 2415/2512 00000KT P6SM OVC003
                      TEMPO 2415/2419 3SM BR FM250400 00000KT 3SM
                       BR OVC003=
202201241126 TAF KCLM 241126Z 2412/2512 14004KT 6SM BR OVC002 FM241500 19003KT
                       3/4SM BR OVC003 FM250400 10005KT 6SM BR
                       OVC005 FM250900 15003KT 4SM BR OVC003=
202201240520 TAF KCLM 240520Z 2406/2506 12006KT 5SM BR OVC003 FM241800 18003KT
                       P6SM SCT015 SCT250 FM242100 10005KT P6SM
                       SCT250=
202201240216 KCLM 240216Z 2402/2424 12003KT 2SM BR OVC002 FM241800 18003KT P6SM
                       SCT015 SCT250 FM242100 10005KT P6SM SCT250=
202201232320 TAF KCLM 232320Z 2400/2424 12004KT P6SM OVC004 FM240600 19005KT
                       P6SM OVC010
                      TEMPO 2410/2414 3SM BR OVC005 FM241800 18003KT
                       P6SM SCT015 SCT250 FM242100 10005KT P6SM
                       SCT250=
202201232202 KCLM 232202Z 2322/2418 14004KT P6SM OVC004 FM240600 19005KT P6SM
                       OVC010 FM241500 18003KT P6SM SCT015 SCT250=
202201231720 TAF KCLM 231720Z 2318/2418 14007KT P6SM OVC004 FM232000 12005KT
                       P6SM OVC010 FM240000 11005KT P6SM SCT250
                       FM240600 19005KT P6SM OVC010=
202201231253 KCLM 231253Z 2313/2412 14007KT P6SM OVC004
                      TEMPO 2313/2315 4SM BR FM231800 12005KT P6SM
                       OVC010 FM240000 11005KT P6SM SCT250 FM240600
                       12005KT P6SM OVC010=
202201231131 TAF KCLM 231131Z 2312/2412 13007KT P6SM OVC006 FM231800 12005KT
                       P6SM OVC010 FM240000 11005KT P6SM SCT250
                       FM240600 12005KT P6SM OVC010=
202201230520 TAF KCLM 230520Z 2306/2406 12005KT P6SM SKC FM231000 14003KT 1/4SM
                       FG OVC003 FM231800 12003KT P6SM OVC010=
202201222320 TAF KCLM 222320Z 2300/2324 08008KT P6SM OVC015 FM230600 14003KT
                       6SM BR OVC010 FM231000 14003KT 1/4SM FG
                       OVC003 FM231800 12003KT P6SM OVC010=
202201221720 TAF KCLM 221720Z 2218/2318 VRB04KT P6SM OVC013 FM222000 11004KT
                       P6SM SCT200 FM230600 14003KT 6SM BR OVC015=
202201221134 TAF KCLM 221134Z 2212/2312 00000KT P6SM OVC013 FM222000 11004KT
                       P6SM SCT200 FM230600 14003KT 6SM BR OVC015=
202201220520 TAF KCLM 220520Z 2206/2306 VRB03KT P6SM BKN020 FM221100 VRB03KT
                       P6SM BKN007 FM222000 11004KT P6SM SCT200=
202201212320 TAF KCLM 212320Z 2200/2224 00000KT P6SM OVC022 FM220600 VRB03KT
                       1/4SM FG BKN002 FM221800 16003KT P6SM BKN007
                       FM222000 11004KT P6SM SKC=
202201212018 KCLM 212018Z 2120/2218 VRB03KT P6SM BKN017 BKN024 FM212200 08003KT
                       P6SM SCT030 FM221400 11002KT 5SM BR BKN003=
202201211720 TAF KCLM 211720Z 2118/2218 20003KT P6SM SCT012 FM211900 VRB04KT
                       P6SM SCT025 FM212200 08003KT P6SM SCT030
                       FM221400 11002KT 5SM BR BKN003=
202201211120 TAF KCLM 211120Z 2112/2212 26006KT P6SM SCT025 SCT200 FM211400
                       VRB03KT P6SM OVC020 FM211900 VRB04KT P6SM
                       BKN025 FM212200 08003KT P6SM SCT030 SCT200=
202201210520 TAF KCLM 210520Z 2106/2206 30008KT P6SM SCT025 SCT200
                      TEMPO 2106/2109 BKN020 FM210900 27007KT P6SM
                       OVC020 FM211300 VRB03KT P6SM OVC015 FM211900
                       VRB04KT P6SM BKN025 FM212200 08003KT P6SM
                       SCT030 SCT200=
202201202320 TAF KCLM 202320Z 2100/2124 31013G22KT P6SM FEW007 BKN050 FM210300
                       26010KT P6SM BKN025 FM210900 25008KT 2SM
                       BR BKN007 FM211500 20003KT P6SM OVC015=
202201201720 TAF KCLM 201720Z 2018/2118 27013G22KT P6SM BKN050 FM210300 26010KT
                       P6SM BKN025 FM210900 25008KT 2SM BR BKN007=
202201201134 TAF KCLM 201134Z 2012/2112 VRB03KT 1SM -RA BR SCT002 OVC025 FM201700
                       27013G22KT P6SM -RA OVC010 FM202000 29016G25KT
                       P6SM SCT010 OVC025 FM210300 27012KT P6SM
                       BKN025 FM210900 25008KT 2SM BR BKN007=
202201200520 TAF KCLM 200520Z 2006/2106 VRB04KT P6SM SCT008 BKN012 OVC050
                      TEMPO 2006/2010 5SM -RA BR OVC004 FM201100
                       25002KT 5SM -RA BR OVC010 FM201700 27013G22KT
                       P6SM -RA OVC010 FM202000 29016G25KT P6SM
                       SCT010 OVC025=
202201192322 TAF KCLM 192322Z 2000/2024 VRB03KT P6SM OVC005
                      TEMPO 2000/2003 5SM -RA BR FM200300 VRB04KT
                       5SM -RA BR OVC007 FM201300 27013G22KT P6SM
                       -RA OVC010 FM201900 29016G25KT P6SM SCT010
                       OVC025=
202201191731 TAF KCLM 191731Z 1918/2018 VRB04KT P6SM SCT005 BKN050 OVC120
                      TEMPO 1918/1922 OVC005 FM192200 10005KT P6SM
                       BKN015 OVC030
                      TEMPO 1922/2002 5SM -RA BR OVC010 FM200300
                       VRB04KT 5SM -RA BR OVC010 FM201300 27013G22KT
                       P6SM -RA OVC010=
202201191603 KCLM 191603Z 1916/2012 VRB04KT P6SM SCT005 BKN050 OVC120
                      TEMPO 1916/1919 OVC004 FM192000 09005KT P6SM
                       BKN025 OVC050 FM200300 09005KT P6SM -RA
                       BKN025 OVC040=
202201191120 TAF KCLM 191120Z 1912/2012 00000KT P6SM SCT003 OVC050
                      TEMPO 1912/1916 5SM BR BKN003 OVC050 FM191600
                       09005KT P6SM SCT005 BKN050 OVC120 FM192000
                       09005KT P6SM BKN025 OVC050 FM200300 09005KT
                       P6SM -RA BKN025 OVC040=
202201190520 TAF KCLM 190520Z 1906/2006 24002KT 6SM BR BKN015 FM190800 22003KT
                       1 1/2SM BR OVC004 FM191100 00000KT 1SM BR
                       SCT005 OVC009 FM191700 19002KT 5SM BR SCT005
                       OVC010=
202201190239 KCLM 190239Z 1903/1924 00000KT P6SM BKN017 OVC020 FM190500 24002KT
                       6SM BR BKN015 FM190800 22003KT 1 1/2SM BR
                       OVC004 FM191100 00000KT 1SM BR SCT005 OVC009
                       FM191700 19002KT 5SM BR SCT005 OVC010=
202201182320 TAF KCLM 182320Z 1900/1924 00000KT P6SM BKN017 OVC020 FM190500
                       24002KT 6SM BR BKN015 FM190800 22003KT 1
                       1/2SM BR OVC004 FM191100 00000KT 1SM BR
                       SCT005 OVC009 FM191700 19002KT 5SM BR SCT005
                       OVC010=
202201181743 TAF KCLM 181743Z 1818/1918 00000KT 4SM BR SCT006 OVC011 FM190000
                       00000KT P6SM SCT015 BKN025 OVC040 FM191100
                       00000KT P6SM SCT005 OVC009=
202201181720 TAF KCLM 181720Z 1818/1918 00000KT 4SM BR SCT002 OVC010 FM190000
                       34003KT 5SM BR BKN015 OVC030 FM190600 VRB03KT
                       5SM BR OVC009=
202201181304 KCLM 181304Z 1813/1912 VRB03KT 3SM BR SCT004 OVC015
                      TEMPO 1813/1816 1SM -DZ BR BKN004 OVC015
                       FM181800 26006KT P6SM VCSH BKN015 OVC030
                       FM190600 VRB03KT P6SM BKN010 OVC030=
202201181120 TAF KCLM 181120Z 1812/1912 VRB03KT P6SM SCT003 OVC015
                      TEMPO 1812/1816 4SM -SHRA BR BKN003 OVC015
                       FM181800 26006KT P6SM VCSH BKN015 OVC030
                       FM190600 VRB03KT P6SM BKN010 OVC030=
202201180602 KCLM 180602Z 1806/1906 00000KT 4SM BR SCT002 OVC018
                      TEMPO 1806/1810 2SM -RA BR BKN002 OVC015
                       FM181700 35002KT 5SM BR OVC015=
202201180520 TAF KCLM 180520Z 1806/1906 00000KT 3SM -RA BR OVC025 FM180700 24005KT
                       5SM -RA BR OVC015 FM181700 35002KT 5SM BR
                       OVC010=
202201172320 TAF KCLM 172320Z 1800/1824 VRB03KT P6SM OVC050 FM180200 25002KT
                       5SM -RA BR OVC025 FM180700 24005KT 5SM -RA
                       BR OVC015 FM181700 35002KT 5SM BR OVC010=
202201171724 TAF KCLM 171724Z 1718/1818 VRB04KT P6SM SCT015 BKN070 FM172300
                       VRB03KT P6SM BKN025 OVC040 FM180700 24005KT
                       5SM -RA BR OVC015=
202201171403 KCLM 171403Z 1714/1812 VRB03KT 5SM BR SCT005 BKN200
                      TEMPO 1714/1716 2SM BR FM171800 VRB04KT P6SM
                       SCT015 BKN040 FM172300 VRB03KT 6SM -RA BR
                       BKN015 OVC040=
202201171120 TAF KCLM 171120Z 1712/1812 12004KT 5SM BR OVC005
                      TEMPO 1712/1716 2SM BR OVC002 FM171800 VRB04KT
                       P6SM BKN005 BKN040 FM172300 VRB03KT 6SM
                       -RA BR OVC015=
202201170603 KCLM 170603Z 1706/1806 00000KT 5SM BR SCT002 BKN100
                      TEMPO 1707/1710 2SM BR BKN002 FM171000 00000KT
                       1/2SM FG VV002 FM171600 00000KT 2SM BR OVC002
                       FM171800 VRB04KT P6SM BKN005 BKN040 FM172300
                       VRB03KT 6SM -RA BR OVC014=
202201170520 TAF KCLM 170520Z 1706/1806 00000KT 1SM BR OVC002 FM171700 VRB04KT
                       P6SM BKN010 BKN040 FM172300 VRB03KT 6SM
                       -RA BR OVC014=
202201170301 KCLM 170301Z 1703/1724 00000KT 3/4SM BR OVC002 FM171700 VRB04KT
                       P6SM BKN010 BKN040 FM172300 VRB03KT 6SM
                       -RA BR OVC014=
202201170203 KCLM 170203Z 1702/1724 00000KT 3SM BR OVC002 FM171700 VRB04KT P6SM
                       BKN010 BKN040 FM172300 VRB03KT 6SM -RA BR
                       OVC014=
202201162323 TAF KCLM 162323Z 1700/1724 11004KT 6SM BR OVC005 FM171700 VRB04KT
                       P6SM BKN010 BKN040 FM172300 VRB03KT 6SM
                       -RA BR OVC014=
202201161739 TAF KCLM 161739Z 1618/1718 11004KT 5SM BR OVC005 FM171700 VRB04KT
                       P6SM BKN015 BKN040=
202201161120 TAF KCLM 161120Z 1612/1712 11004KT 5SM BR OVC005
                      TEMPO 1612/1616 2SM BR OVC002=
202201160520 TAF KCLM 160520Z 1606/1706 00000KT 2SM BR OVC002
                      TEMPO 1606/1610 1/2SM FG VV002 FM161000 00000KT
                       1/2SM FG OVC002 FM161800 10002KT P6SM OVC004=
202201152329 TAF KCLM 152329Z 1600/1624 03004KT 1SM BR OVC002 FM160200 18002KT
                       1/4SM FG OVC001 FM160600 19003KT 1/4SM FG
                       OVC001=
202201152150 KCLM 152150Z 1522/1618 03004KT 1/4SM FG VV002 FM160100 16003KT
                       1SM BR OVC005 FM160600 19003KT 1/4SM FG
                       OVC001=
202201151850 KCLM 151850Z 1519/1618 20003KT 1/4SM FG VV002 FM152100 03004KT
                       5SM BR OVC010 FM160100 16003KT 3SM BR BKN050
                       BKN090 FM160600 19003KT 1/4SM FG OVC001=
202201151737 TAF KCLM 151737Z 1518/1618 22006KT P6SM FEW001 BKN090 FM152100
                       03004KT 5SM BR OVC020 FM160100 16003KT 3SM
                       BR BKN050 BKN090 FM160600 19003KT 1/4SM
                       FG OVC001=
202201151611 KCLM 151611Z 1516/1612 VRB03KT 1SM BR SCT003 SCT080
                      TEMPO 1516/1517 1/4SM FG VV001 FM151800 VRB03KT
                       5SM BR BKN050 BKN090 FM160800 00000KT 3SM
                       BR BKN010=
202201151304 KCLM 151304Z 1513/1612 VRB03KT 3SM BR SCT003 SCT080
                      TEMPO 1513/1517 1SM BR VV003 FM151800 VRB03KT
                       5SM BR BKN050 BKN090 FM160800 00000KT 3SM
                       BR BKN010=
202201151120 TAF KCLM 151120Z 1512/1612 VRB03KT 5SM BR SCT050 BKN080 FM151800
                       VRB03KT 5SM BR BKN050 BKN090 FM160800 00000KT
                       3SM BR BKN010=
202201150707 KCLM 150707Z 1507/1606 09004KT P6SM SCT005 BKN090 FM151500 VRB03KT
                       2SM BR BKN005 BKN050 FM152100 VRB03KT 6SM
                       BR OVC010=
202201150520 TAF KCLM 150520Z 1506/1606 VRB03KT 4SM BR VCSH OVC003 FM151500
                       23003KT 2SM BR OVC005 FM152100 02004KT 6SM
                       BR OVC010 FM160200 23003KT 5SM BR OVC010=
202201150202 KCLM 150202Z 1502/1524 25003KT P6SM OVC008
                      TEMPO 1502/1506 2SM BR FM150700 21002KT 4SM
                       BR VCSH OVC003 FM151600 23003KT 2SM BR OVC005
                       FM152100 02004KT 6SM BR OVC010=
202201142338 TAF KCLM 142338Z 1500/1524 25003KT P6SM OVC008 FM150700 21002KT
                       4SM BR VCSH OVC003 FM151600 23003KT 2SM
                       BR OVC005 FM152100 02004KT 6SM BR OVC010=
202201142048 KCLM 142048Z 1421/1518 01003KT P6SM BKN007 FM150000 24003KT P6SM
                       SCT010 OVC035 FM150600 22003KT 5SM BR OVC020
                       FM151400 23003KT 4SM BR OVC015 FM151600
                       23003KT 2SM BR OVC007=
202201141729 TAF KCLM 141729Z 1418/1518 VRB03KT P6SM OVC005 FM142100 01003KT
                       P6SM BKN010 FM150000 24003KT P6SM SCT010
                       OVC035 FM150600 22003KT 5SM BR OVC020 FM151400
                       23003KT 4SM BR OVC015 FM151600 23003KT 2SM
                       BR OVC007=
202201141130 TAF KCLM 141130Z 1412/1512 VRB03KT 5SM BR SCT001 OVC015 FM141900
                       01003KT P6SM OVC025 FM142100 VRB03KT P6SM
                       SCT010 OVC035 FM150600 VRB03KT 5SM BR OVC015=
202201140520 TAF KCLM 140520Z 1406/1506 VRB03KT P6SM OVC002
                      TEMPO 1406/1410 2SM BR OVC001 FM141000 VRB03KT
                       1SM BR OVC001 FM141900 01003KT P6SM OVC007
                       FM142100 VRB03KT P6SM SCT010 OVC020 FM150300
                       VRB03KT 5SM BR OVC005=
202201140229 KCLM 140229Z 1402/1424 13002KT 2SM BR OVC009 FM140700 21003KT 2SM
                       BR OVC007 FM141500 21002KT 1 1/2SM BR OVC004
                       FM141900 17003KT P6SM OVC007=
202201140051 KCLM 140051Z 1401/1424 VRB03KT P6SM SCT010 OVC025 FM140200 16002KT
                       6SM BR OVC009 FM140700 21003KT 2SM BR OVC007
                       FM141500 21002KT 1 1/2SM BR OVC004 FM141900
                       17003KT P6SM OVC007=
202201132327 TAF KCLM 132327Z 1400/1424 VRB03KT P6SM OVC005
                      TEMPO 1400/1402 2SM BR FM140200 16002KT 6SM
                       BR OVC009 FM140700 21003KT 2SM BR OVC007
                       FM141500 21002KT 1 1/2SM BR OVC004 FM141900
                       17003KT P6SM OVC007=
202201132056 KCLM 132056Z 1321/1418 22005KT P6SM OVC007
                      TEMPO 1321/1322 2SM BR FM132200 VRB03KT P6SM
                       OVC015 FM140200 18003KT P6SM SCT035 FM140700
                       21003KT 2SM BR OVC007=
202201131917 KCLM 131917Z 1319/1418 VRB04KT P6SM OVC005 FM132200 VRB03KT P6SM
                       OVC015 FM140200 18003KT P6SM SCT035 FM140700
                       21003KT 2SM BR OVC007=
202201131737 TAF KCLM 131737Z 1318/1418 26004KT P6SM OVC004 FM131900 VRB03KT
                       P6SM OVC007 FM132200 VRB03KT P6SM OVC015
                       FM140200 18003KT P6SM SCT035 FM140700 21003KT
                       2SM BR OVC007=
202201131401 KCLM 131401Z 1314/1412 17005KT P6SM OVC005 FM131800 VRB03KT P6SM
                       OVC007 FM132200 VRB03KT P6SM OVC015 FM140200
                       18003KT P6SM SCT035 FM140600 22003KT 2SM
                       BR OVC007=
202201131126 TAF KCLM 131126Z 1312/1412 00000KT 1/4SM FG OVC005 FM131800 VRB03KT
                       5SM BR OVC007 FM132200 VRB03KT P6SM OVC010
                       FM140200 VRB03KT P6SM SCT035 FM140600 22003KT
                       2SM BR OVC007=
202201130956 KCLM 130956Z 1310/1406 00000KT 1/4SM FG OVC005 FM131800 VRB03KT
                       5SM -SHRA OVC015 FM132000 VRB03KT 6SM BR
                       OVC007=
202201130903 KCLM 130903Z 1309/1406 00000KT 5SM -RA OVC030 FM131300 VRB03KT
                       5SM -SHRA OVC015 FM132000 VRB03KT 6SM BR
                       OVC007=
202201130520 TAF KCLM 130520Z 1306/1406 00000KT 5SM BR SCT001 SCT250
                      TEMPO 1306/1309 1/2SM FG OVC001 FM130900
                       00000KT 1/2SM FG OVC004 FM131300 VRB03KT
                       5SM -SHRA OVC035 FM132000 VRB03KT 6SM BR
                       OVC007=
202201130414 KCLM 130414Z 1304/1324 VRB03KT 1SM BR OVC002
                      TEMPO 1305/1309 1/2SM FG OVC001 FM130900
                       17002KT 1/2SM FG OVC004 FM131300 21003KT
                       5SM -RA OVC035 FM131700 13003KT 1/2SM FG
                       OVC007=
202201130055 KCLM 130055Z 1301/1324 VRB03KT 1/4SM FG OVC002 FM130900 17002KT
                       1/2SM FG OVC004 FM131300 21003KT 5SM -RA
                       OVC035 FM131700 13003KT 1/2SM FG OVC007=
202201122320 TAF KCLM 122320Z 1300/1324 00000KT 3SM BR SCT002 OVC050 FM130200
                       VRB03KT 1/2SM FG OVC004 FM130900 17002KT
                       1/2SM FG OVC004 FM131300 21003KT 5SM -RA
                       OVC035 FM131700 13003KT 1/2SM FG OVC007=
202201121720 TAF KCLM 121720Z 1218/1318 00000KT 3SM -RA BR SCT002 BKN060
                      TEMPO 1219/1221 1/2SM -RA FG FM122100 27005KT
                       2SM BR VCSH OVC007 FM130200 VRB03KT P6SM
                       OVC035 FM130900 17002KT 5SM -RA OVC035=
202201121133 TAF KCLM 121133Z 1212/1312 17002KT 5SM -RA BR OVC035 FM121500 25002KT
                       5SM -RA BR OVC007 FM122100 27005KT 5SM BR
                       VCSH OVC007 FM130200 VRB03KT P6SM OVC035
                       FM130900 17002KT 5SM -RA OVC035=
202201121028 KCLM 121028Z 1210/1306 VRB03KT 2SM -RA BR OVC030 FM121200 17002KT
                       3SM -RA BR OVC015 FM122100 27005KT 6SM BR
                       VCSH OVC007 FM130200 VRB03KT P6SM OVC007=
202201120520 TAF KCLM 120520Z 1206/1306 VRB05KT 6SM -RA BR SCT004 OVC060
                      TEMPO 1206/1210 3SM BR BKN004 FM121000 VRB03KT
                       2SM -RA BR OVC003 FM122100 27005KT 6SM BR
                       VCSH OVC007 FM130200 VRB03KT P6SM OVC007=
202201120215 KCLM 120215Z 1202/1224 VRB05KT 3SM -RA BR BKN002 OVC028 FM120900
                       00000KT 2SM -RA BR OVC007 FM122000 27005KT
                       6SM BR OVC010=
202201112329 TAF KCLM 112329Z 1200/1224 VRB05KT 1/4SM -RA FG BKN004 OVC015 FM120900
                       00000KT 2SM -RA BR OVC007 FM122000 27005KT
                       6SM BR OVC010=
202201111743 TAF KCLM 111743Z 1118/1218 24005KT P6SM VCSH OVC035 FM112000 VRB03KT
                       5SM -RA BR OVC015 FM112200 25007KT 5SM -RA
                       BR OVC007=
202201111129 TAF KCLM 111129Z 1112/1212 24005KT 5SM -RA BR OVC035 FM111900 VRB03KT
                       5SM -RA BR OVC015 FM112200 25007KT 5SM -RA
                       BR OVC007=
202201110520 TAF KCLM 110520Z 1106/1206 17002KT 6SM BR VCSH OVC035 FM110700
                       19002KT 5SM -RA BR OVC025 FM111200 24005KT
                       3SM -RA BR OVC015 FM112200 27007KT 5SM -RA
                       BR OVC015=
202201102328 TAF KCLM 102328Z 1100/1124 VRB04KT P6SM BKN060 FM110200 17002KT
                       P6SM OVC035 FM110700 19002KT 5SM -RA BR
                       OVC025 FM111200 24005KT 3SM -RA BR OVC015
                       FM112200 27007KT 5SM -RA BR OVC015=
202201101726 TAF KCLM 101726Z 1018/1118 12008KT P6SM SCT060 BKN110 FM102000
                       21005KT P6SM VCSH OVC015 FM110200 17002KT
                       P6SM OVC025 FM110800 19002KT 5SM -RA BR
                       OVC025 FM111200 24005KT 3SM -RA BR OVC015=
202201101132 TAF KCLM 101132Z 1012/1112 20004KT P6SM BKN050 OVC080 FM101400
                       00000KT P6SM -RA OVC035 FM102000 21005KT
                       P6SM VCSH OVC015 FM110200 17002KT P6SM OVC025
                       FM110800 19002KT 5SM -RA BR OVC025=
202201100644 KCLM 100644Z 1007/1106 VRB03KT P6SM OVC009 FM101200 20004KT P6SM
                       BKN050 OVC080 FM101400 00000KT P6SM -RA
                       OVC050 FM102000 21005KT 6SM -SHRA BR OVC020
                       FM110000 20003KT P6SM OVC025 FM110300 17002KT
                       P6SM OVC050=
202201100520 TAF KCLM 100520Z 1006/1106 VRB03KT P6SM FEW250 FM101500 20004KT
                       P6SM -RA BKN050 OVC080 FM102000 21005KT
                       6SM -SHRA BR OVC020 FM110000 20003KT P6SM
                       OVC025 FM110300 17002KT P6SM OVC050=
202201092326 TAF KCLM 092326Z 1000/1024 13004KT P6SM SCT250
                      TEMPO 1005/1009 2SM BR BKN002 FM101400 VRB04KT
                       P6SM -RA BKN050 OVC080 FM101900 26005KT
                       6SM -SHRA BR OVC020=
202201092102 KCLM 092102Z 0921/1018 12006KT P6SM SCT012 SCT250 FM092300 11005KT
                       P6SM SCT250 FM101400 VRB04KT P6SM -RA BKN050
                       OVC080=
202201091726 TAF KCLM 091726Z 0918/1018 12006KT P6SM SCT250 FM101400 VRB04KT
                       P6SM -RA BKN050 OVC080=
202201091120 TAF KCLM 091120Z 0912/1012 00000KT P6SM SCT250
                      TEMPO 0914/0918 2SM BR BKN003 FM092000 11006KT
                       P6SM SCT250 FM100300 VRB03KT P6SM SCT250=
202201090520 TAF KCLM 090520Z 0906/1006 VRB03KT P6SM BKN060 FM091200 VRB03KT
                       6SM BR BKN015 FM091600 12004KT 2SM BR BKN003
                       FM092000 11006KT P6SM SCT250=
202201082329 TAF KCLM 082329Z 0900/0924 VRB03KT P6SM VCSH SCT040 OVC080 FM090600
                       VRB03KT P6SM VCSH BKN080 FM091200 VRB03KT
                       6SM BR BKN015 FM091600 12004KT 2SM BR BKN003
                       FM092000 11006KT P6SM SCT250=
202201081727 TAF KCLM 081727Z 0818/0918 VRB03KT P6SM BKN070 FM082100 VRB03KT
                       P6SM VCSH BKN015 OVC025 FM090600 VRB03KT
                       P6SM VCSH SCT020 BKN050 FM090800 22003KT
                       P6SM SCT050 FM091200 VRB03KT P6SM BKN015=
202201081120 TAF KCLM 081120Z 0812/0912 23005KT P6SM OVC050 FM081600 25005KT
                       P6SM BKN020 OVC050 FM082100 VRB03KT P6SM
                       VCSH BKN015 OVC025 FM090300 VRB03KT P6SM
                       SCT020 BKN050 FM090800 22003KT P6SM SCT050=
202201080520 TAF KCLM 080520Z 0806/0906 26011KT P6SM BKN035 FM081300 25005KT
                       P6SM BKN025 FM081800 VRB04KT P6SM BKN015
                       FM082100 VRB03KT P6SM VCSH BKN012 OVC025=
202201072339 TAF KCLM 072339Z 0800/0824 29018G28KT P6SM VCSH BKN040 FM080500
                       26011KT P6SM BKN035 FM081300 25005KT P6SM
                       BKN025 FM081800 VRB04KT P6SM BKN022=
202201071826 KCLM 071826Z 0718/0818 29018G28KT P6SM VCSH BKN040 FM080300 26012KT
                       P6SM BKN035 FM080800 26012KT P6SM BKN025=
202201071727 TAF KCLM 071727Z 0718/0818 28010G18KT P6SM VCSH BKN035 BKN050 FM072100
                       28015G25KT P6SM VCSH BKN040 FM080300 26012KT
                       P6SM BKN035 FM080800 26012KT P6SM BKN025=
202201071401 KCLM 071401Z 0714/0812 25004KT 6SM -RA BR OVC015 FM071700 28022G30KT
                       6SM -SHRA BR BKN030 BKN050 FM080600 26012KT
                       P6SM BKN015=
202201071139 KCLM 071139Z 0712/0812 25004KT 1SM RA BR OVC005 FM071500 27012G20KT
                       5SM -SHRA BR BKN022 OVC035 FM071900 28017G27KT
                       6SM -SHRA BR BKN030 BKN050 FM080600 26012KT
                       P6SM BKN015=
202201071135 TAF KCLM 071135Z 0712/0812 25004KT 1SM RA BR OVC030 FM071500 27012G20KT
                       5SM -SHRA BR BKN022 OVC035 FM071900 28017G27KT
                       6SM -SHRA BR BKN030 BKN050=
202201070704 KCLM 070704Z 0707/0806 25004KT 1SM RA BR OVC030 FM071500 27012G20KT
                       5SM -SHRA BR BKN022 OVC035 FM071900 28017G27KT
                       6SM -SHRA BR BKN030 BKN050=
202201070520 TAF KCLM 070520Z 0706/0806 25004KT 5SM RA BR OVC010 FM071500 27012G20KT
                       5SM -SHRA BR BKN022 OVC035 FM071900 28017G27KT
                       6SM -SHRA BR BKN030 BKN050=
202201062339 TAF KCLM 062339Z 0700/0724 VRB04KT 5SM RA BR SCT005 OVC030
                      TEMPO 0700/0704 2SM RA BR BKN005 OVC020 FM070400
                       25004KT 5SM RA BR OVC010 FM071500 27012G20KT
                       5SM -SHRA BR BKN022 OVC035 FM071900 28017G27KT
                       6SM -SHRA BR BKN030 BKN050=
202201061739 TAF KCLM 061739Z 0618/0718 22006KT 3SM RA BR SCT005 OVC010
                      TEMPO 0618/0622 1/4SM FG VV003 FM071500 27012G20KT
                       5SM -SHRA BR BKN022 OVC035=
202201061128 TAF KCLM 061128Z 0612/0712 09005KT 3SM RA BR OVC004 FM061800 24005KT
                       3SM RA BR SCT005 OVC010=
202201060520 TAF KCLM 060520Z 0606/0706 11006KT 2SM -SN BR OVC005 FM060900 09005KT
                       2SM -RASN BR OVC005 FM061500 22005KT 5SM
                       -RA BR SCT005 OVC010=
202201060203 KCLM 060203Z 0602/0624 12009KT 2SM -SN BR OVC005 FM060600 11006KT
                       6SM -RASN BR OVC007 FM061500 09004KT 5SM
                       -RA BR OVC007=
202201052334 TAF KCLM 052334Z 0600/0624 12003KT 5SM -RASN BR OVC010 FM060600
                       VRB03KT 6SM -RASN BR OVC007 FM061200 09004KT
                       5SM -RA BR OVC007=
202201052023 KCLM 052023Z 0520/0618 09005KT 5SM -RASN BR OVC009 FM060000 15003KT
                       5SM -SN BR OVC010 FM060600 VRB03KT 6SM -RASN
                       BR OVC007 FM061200 09004KT 5SM -RA BR OVC007=
202201051734 TAF KCLM 051734Z 0518/0618 24006KT P6SM OVC025
                      TEMPO 0518/0521 -RASN BKN017 FM052100 09005KT
                       5SM -RASN BR OVC019 FM060000 15003KT 5SM
                       -SN BR OVC015 FM060600 VRB03KT 6SM -RASN
                       BR OVC007 FM061200 09004KT 5SM -RA BR OVC007=
202201051120 TAF KCLM 051120Z 0512/0612 24006KT P6SM OVC035 FM052100 09005KT
                       5SM -RASN BR OVC025 FM060000 15003KT 5SM
                       -SN BR OVC015 FM060600 VRB03KT 6SM -RA BR
                       OVC007=
202201050520 TAF KCLM 050520Z 0506/0606 20003KT P6SM VCSH OVC025 FM050900 24006KT
                       P6SM OVC035 FM052100 09005KT 5SM -RASN BR
                       OVC025 FM060200 15003KT 5SM -SN BR OVC015=
202201042320 TAF KCLM 042320Z 0500/0524 27006KT P6SM SCT050 OVC100 FM050200
                       20003KT 6SM -RA OVC020 FM050900 24006KT
                       P6SM OVC030=
202201041720 TAF KCLM 041720Z 0418/0518 25007KT P6SM FEW110 FM042300 VRB03KT
                       P6SM OVC015 FM050200 20003KT 6SM -RA OVC020
                       FM050900 24006KT P6SM OVC050=
202201041124 TAF KCLM 041124Z 0412/0512 24005KT P6SM -SHRA OVC050 FM041600 25007KT
                       P6SM OVC050 FM042300 VRB03KT P6SM OVC015=
202201040520 TAF KCLM 040520Z 0406/0506 24005KT P6SM -SHRA OVC050 FM041600 25007KT
                       P6SM OVC050 FM042300 VRB03KT P6SM OVC015=
202201032320 TAF KCLM 032320Z 0400/0424 24005KT P6SM FEW045 FM040300 26004KT
                       P6SM OVC060 FM040600 24005KT P6SM -SHRA
                       OVC050 FM041600 25007KT P6SM OVC050=
202201031728 TAF KCLM 031728Z 0318/0418 21007KT P6SM FEW060 FM032100 27008KT
                       P6SM OVC050 FM040300 26004KT P6SM OVC060
                       FM040600 24005KT P6SM -SHRA OVC050=
202201031154 TAF KCLM 031154Z 0312/0412 VRB04KT P6SM -SHRA SCT035 OVC040 FM031800
                       28007KT P6SM VCSH BKN050 FM040300 26004KT
                       P6SM OVC060=
202201030527 TAF KCLM 030527Z 0306/0406 VRB03KT P6SM -SHRA BKN025 FM031000 24004KT
                       P6SM VCSH OVC040 FM032000 30007KT P6SM BKN050=
202201022326 TAF KCLM 022326Z 0300/0324 VRB06KT P6SM -RA BKN045 BKN060 OVC110
                       FM030200 12007G15KT P6SM -SHRA BKN025 FM031000
                       24004KT P6SM VCSH OVC040 FM032000 30007KT
                       P6SM BKN050=
202201021736 TAF KCLM 021736Z 0218/0318 VRB03KT P6SM BKN060 FM021900 03010KT
                       P6SM -SHRA SCT025 BKN150 FM030000 03010KT
                       4SM -RA BR OVC025 FM030200 18007G15KT P6SM
                       -SHRA BKN025 FM031000 24004KT P6SM VCSH
                       OVC040=
202201021120 TAF KCLM 021120Z 0212/0312 03010KT P6SM BKN150 FM021900 03010KT
                       P6SM -SHRA SCT025 BKN150 FM030000 03010KT
                       4SM -RA BR OVC025 FM030200 18013G20KT P6SM
                       -SHRA BKN025=
202201020525 TAF KCLM 020525Z 0206/0306 24006KT P6SM OVC050 FM021500 25007KT
                       6SM -RA OVC045 FM022000 VRB05KT 4SM -RA
                       BR OVC025=
202201012323 TAF KCLM 012323Z 0200/0224 08004KT P6SM OVC100 FM020500 24006KT
                       P6SM OVC050 FM021500 25007KT 6SM -RA OVC045
                       FM022000 VRB05KT 4SM -RA BR OVC025=
202201011738 TAF KCLM 011738Z 0118/0218 VRB04KT P6SM OVC070 FM020500 24006KT
                       P6SM OVC050 FM021500 25007KT 6SM -RA OVC045=
202201011133 TAF KCLM 011133Z 0112/0212 21004KT P6SM BKN100 OVC200 FM011700
                       VRB03KT P6SM BKN050 OVC100 FM020500 24006KT
                       P6SM OVC050=
202201010520 TAF KCLM 010520Z 0106/0206 21003KT P6SM SCT200 FM011100 21004KT
                       P6SM BKN100 OVC200 FM011700 VRB03KT P6SM
                       BKN050 OVC100=