##########################################################
# Query made at 02/16/2025 05:29:25 UTC
# Time interval: from 05/01/2022 00:00  to 05/31/2022 23:59  UTC
##########################################################

##########################################################
# KCLM, Port Angeles, William R. Fairchild International Airport (United States)
# WMO index: -----. WIGOS ID: Unknown
# Latitude 48-07-20N. Longitude 123-30-19W. Altitude 87 m.
##########################################################

###################################
#  METAR/SPECI from KCLM
###################################
202205312353 METAR KCLM 312353Z AUTO 00000KT 10SM FEW110 18/08 A3014 RMK AO2 SLP208 T01830083 10189 20128 58015=
202205312253 METAR KCLM 312253Z AUTO 05004KT 10SM FEW110 18/08 A3016 RMK AO2 SLP212 T01780083=
202205312153 METAR KCLM 312153Z AUTO 00000KT 10SM FEW120 17/07 A3018 RMK AO2 SLP218 T01720072=
202205312053 METAR KCLM 312053Z AUTO 33004KT 10SM FEW120 15/09 A3019 RMK AO2 SLP222 T01500089 58010=
202205311953 METAR KCLM 311953Z AUTO 01004KT 10SM CLR 14/08 A3020 RMK AO2 SLP228 T01390078=
202205311853 METAR KCLM 311853Z AUTO 35004KT 10SM SCT120 13/09 A3021 RMK AO2 SLP231 T01330089=
202205311753 METAR KCLM 311753Z AUTO 34004KT 10SM SCT100 13/09 A3022 RMK AO2 SLP233 T01330089 10133 20089 58002=
202205311653 METAR KCLM 311653Z AUTO 33006KT 10SM BKN110 12/09 A3023 RMK AO2 SLP236 T01220089=
202205311553 METAR KCLM 311553Z AUTO 36006KT 10SM CLR 13/09 A3022 RMK AO2 SLP236 T01280089=
202205311453 METAR KCLM 311453Z AUTO 33003KT 10SM OVC100 12/08 A3022 RMK AO2 SLP236 T01170083 53003=
202205311353 METAR KCLM 311353Z AUTO 00000KT 10SM SCT110 10/08 A3022 RMK AO2 SLP233 T01000078=
202205311253 METAR KCLM 311253Z AUTO 26004KT 10SM OVC110 09/07 A3021 RMK AO2 SLP233 T00940067=
202205311153 METAR KCLM 311153Z AUTO 27004KT 10SM SCT110 10/07 A3022 RMK AO2 SLP233 T01000072 10106 20089 58004=
202205311053 METAR KCLM 311053Z AUTO 26004KT 10SM CLR 09/07 A3022 RMK AO2 SLP236 T00940072=
202205310953 METAR KCLM 310953Z AUTO 23003KT 10SM CLR 09/07 A3023 RMK AO2 SLP237 T00940072=
202205310853 METAR KCLM 310853Z AUTO 28005KT 10SM CLR 10/07 A3023 RMK AO2 SLP237 T01000072 56002=
202205310753 METAR KCLM 310753Z AUTO 27004KT 10SM CLR 09/07 A3023 RMK AO2 SLP237 T00940072 401440072=
202205310653 METAR KCLM 310653Z AUTO 00000KT 10SM CLR 09/07 A3023 RMK AO2 SLP239 T00940067=
202205310553 METAR KCLM 310553Z AUTO 25003KT 10SM CLR 10/07 A3024 RMK AO2 SLP239 T01000072 10139 20100 51007=
202205310453 METAR KCLM 310453Z AUTO 27003KT 10SM CLR 11/07 A3024 RMK AO2 SLP239 T01110067=
202205310353 METAR KCLM 310353Z AUTO 25003KT 10SM CLR 11/07 A3022 RMK AO2 SLP233 T01110067=
202205310253 METAR KCLM 310253Z AUTO 30005KT 10SM CLR 12/07 A3021 RMK AO2 SLP232 T01170067 56002=
202205310153 METAR KCLM 310153Z AUTO 31005KT 10SM CLR 13/07 A3021 RMK AO2 SLP232 T01330072=
202205310053 METAR KCLM 310053Z AUTO 32005KT 10SM CLR 13/07 A3021 RMK AO2 SLP232 T01330072=
202205302353 METAR KCLM 302353Z AUTO 33005KT 10SM FEW050 OVC060 13/08 A3022 RMK AO2 SLP234 T01330078 10144 20122 53005=
202205302253 METAR KCLM 302253Z AUTO 33005KT 10SM OVC065 14/08 A3021 RMK AO2 SLP231 T01390078=
202205302153 METAR KCLM 302153Z AUTO 36005KT 10SM OVC060 13/07 A3021 RMK AO2 SLP230 T01280072=
202205302053 METAR KCLM 302053Z AUTO VRB05KT 10SM OVC065 14/08 A3021 RMK AO2 SLP230 T01390083 53009=
202205301953 METAR KCLM 301953Z AUTO VRB05KT 10SM OVC060 13/07 A3020 RMK AO2 SLP226 T01280072=
202205301853 METAR KCLM 301853Z AUTO VRB04KT 10SM OVC070 13/08 A3018 RMK AO2 SLP222 T01280078=
202205301753 METAR KCLM 301753Z AUTO VRB05KT 10SM SCT070 13/08 A3018 RMK AO2 SLP221 T01280078 10128 20078 51009=
202205301653 METAR KCLM 301653Z AUTO 30005KT 10SM SCT070 12/06 A3017 RMK AO2 SLP219 T01170061=
202205301553 METAR KCLM 301553Z AUTO 25003KT 10SM OVC075 11/04 A3017 RMK AO2 SLP217 T01110044=
202205301453 METAR KCLM 301453Z AUTO 24006KT 10SM FEW085 SCT110 10/04 A3015 RMK AO2 SLP211 T01000044 53012=
202205301353 METAR KCLM 301353Z AUTO 25008KT 10SM OVC085 09/03 A3014 RMK AO2 SLP208 T00890033=
202205301253 METAR KCLM 301253Z AUTO 24008KT 10SM CLR 08/03 A3012 RMK AO2 SLP202 T00780033=
202205301153 METAR KCLM 301153Z AUTO 25006KT 10SM FEW120 08/03 A3012 RMK AO2 SLP199 T00780028 10089 20072 51005=
202205301053 METAR KCLM 301053Z AUTO 25006KT 10SM CLR 08/03 A3011 RMK AO2 SLP197 T00780028=
202205300953 METAR KCLM 300953Z AUTO 25008KT 10SM CLR 08/03 A3011 RMK AO2 SLP197 T00780033=
202205300853 METAR KCLM 300853Z AUTO 24008KT 10SM CLR 08/03 A3010 RMK AO2 SLP194 T00830033 51004=
202205300753 METAR KCLM 300753Z AUTO 27007KT 10SM SCT080 08/03 A3010 RMK AO2 SLP192 T00830033 401440072=
202205300653 METAR KCLM 300653Z AUTO 25007KT 10SM FEW080 07/03 A3010 RMK AO2 SLP192 T00720033=
202205300553 METAR KCLM 300553Z AUTO 25006KT 10SM CLR 08/03 A3009 RMK AO2 SLP190 T00830033 10122 20072 51016=
202205300453 METAR KCLM 300453Z AUTO 28005KT 10SM CLR 08/04 A3008 RMK AO2 SLP187 T00780044=
202205300353 METAR KCLM 300353Z AUTO 29009KT 10SM CLR 10/06 A3006 RMK AO2 SLP181 T01000061=
202205300253 METAR KCLM 300253Z AUTO 30010G19KT 10SM CLR 11/07 A3004 RMK AO2 SLP174 T01060067 53016=
202205300153 METAR KCLM 300153Z AUTO 31011G22KT 10SM CLR 12/05 A3002 RMK AO2 PK WND 31027/0126 SLP166 T01220050=
202205300053 METAR KCLM 300053Z AUTO 30016G26KT 10SM CLR 12/07 A3001 RMK AO2 PK WND 31032/0027 SLP163 T01170072=
202205292353 METAR KCLM 292353Z AUTO 30017G28KT 10SM CLR 12/07 A3000 RMK AO2 PK WND 30028/2352 SLP158 T01220072 10144 20122 51009=
202205292253 METAR KCLM 292253Z AUTO 31010G20KT 10SM FEW049 13/08 A2999 RMK AO2 PK WND 29030/2229 SLP156 T01280078=
202205292153 METAR KCLM 292153Z AUTO 30010G29KT 10SM CLR 13/08 A2999 RMK AO2 PK WND 29029/2054 SLP155 T01280083=
202205292053 METAR KCLM 292053Z AUTO 31017G32KT 10SM CLR 13/07 A2997 RMK AO2 PK WND 32032/2045 SLP149 T01280072 53017=
202205291953 METAR KCLM 291953Z AUTO 30016G33KT 10SM CLR 13/07 A2995 RMK AO2 PK WND 29033/1946 SLP141 T01330067=
202205291853 METAR KCLM 291853Z AUTO 32013G23KT 10SM CLR 14/07 A2993 RMK AO2 PK WND 33026/1809 SLP133 T01440067=
202205291753 METAR KCLM 291753Z AUTO 31011G23KT 10SM CLR 14/06 A2992 RMK AO2 PK WND 30026/1741 SLP132 T01390056 10144 20083 51011=
202205291653 METAR KCLM 291653Z AUTO 31012G23KT 10SM CLR 13/06 A2991 RMK AO2 SLP129 T01280061=
202205291553 METAR KCLM 291553Z AUTO 30011G20KT 10SM CLR 12/06 A2990 RMK AO2 SLP125 T01220061=
202205291453 METAR KCLM 291453Z AUTO 30007KT 10SM CLR 12/07 A2989 RMK AO2 SLP121 T01170072 51017=
202205291353 METAR KCLM 291353Z AUTO 26010KT 10SM FEW041 11/07 A2987 RMK AO2 SLP115 T01110072=
202205291253 METAR KCLM 291253Z AUTO 28007KT 10SM CLR 09/07 A2985 RMK AO2 SLP109 T00940067=
202205291153 METAR KCLM 291153Z AUTO 27007KT 10SM CLR 09/07 A2983 RMK AO2 SLP103 60000 70011 T00940067 10111 20094 53013=
202205291053 METAR KCLM 291053Z AUTO 26008KT 10SM CLR 10/07 A2982 RMK AO2 SLP099 T01000067=
202205290953 METAR KCLM 290953Z AUTO 28008KT 10SM OVC110 11/07 A2981 RMK AO2 SLP095 T01060072=
202205290853 METAR KCLM 290853Z AUTO 26009KT 10SM SCT100 SCT120 11/07 A2980 RMK AO2 SLP091 60000 T01060072 53006=
202205290753 METAR KCLM 290753Z AUTO 28010KT 10SM SCT065 OVC090 11/08 A2979 RMK AO2 RAB00E29 SLP087 P0000 T01060078 401280094=
202205290653 METAR KCLM 290653Z AUTO 26008KT 10SM OVC060 11/08 A2978 RMK AO2 RAE02 SLP086 P0000 T01060078=
202205290553 METAR KCLM 290553Z AUTO 26006KT 10SM -RA OVC055 11/08 A2978 RMK AO2 RAB52 SLP084 P0000 60001 T01060078 10128 20106 53005=
202205290453 METAR KCLM 290453Z AUTO 25007KT 10SM OVC055 11/08 A2977 RMK AO2 SLP081 T01060078=
202205290353 METAR KCLM 290353Z AUTO 26007KT 10SM BKN055 OVC070 11/07 A2976 RMK AO2 SLP079 T01060072=
202205290253 METAR KCLM 290253Z AUTO 29007KT 10SM BKN045 OVC055 11/08 A2976 RMK AO2 RAE40 SLP079 P0001 60001 T01060083 53005=
202205290153 METAR KCLM 290153Z AUTO 31007KT 8SM -RA FEW006 OVC065 11/08 A2976 RMK AO2 RAB43 SLP077 P0000 T01060083=
202205290053 METAR KCLM 290053Z AUTO 23005KT 10SM OVC055 12/08 A2974 RMK AO2 SLP073 T01220083=
202205282353 METAR KCLM 282353Z AUTO 00000KT 10SM BKN046 OVC060 12/08 A2975 RMK AO2 RAE2257 SLP074 P0000 60006 T01220083 10122 20094 57007=
202205282253 METAR KCLM 282253Z AUTO 10003KT 10SM -RA FEW010 BKN049 OVC065 12/08 A2976 RMK AO2 RAE2158B44 SLP078 P0000 T01170083=
202205282226 SPECI KCLM 282226Z AUTO 10004KT 10SM OVC010 11/08 A2976 RMK AO2 RAE2158 P0000 T01110083=
202205282211 SPECI KCLM 282211Z AUTO 06003KT 9SM BKN006 OVC011 11/08 A2977 RMK AO2 RAE2158 P0000 T01110083=
202205282204 SPECI KCLM 282204Z AUTO 05004KT 10SM SCT005 BKN010 OVC055 11/08 A2977 RMK AO2 RAE2158 P0000 T01060083=
202205282153 METAR KCLM 282153Z AUTO VRB03KT 9SM -RA BKN005 BKN012 OVC049 11/09 A2977 RMK AO2 RAE02B23 SLP081 P0000 T01110089=
202205282132 SPECI KCLM 282132Z AUTO 07003KT 8SM -RA BKN005 BKN014 OVC046 11/08 A2977 RMK AO2 RAE02B23 P0000 T01060083=
202205282118 SPECI KCLM 282118Z AUTO 00000KT 8SM BKN004 OVC014 11/09 A2977 RMK AO2 RAE02 CIG 003V009 P0000 T01060089=
202205282102 SPECI KCLM 282102Z AUTO 05005KT 8SM OVC006 11/08 A2978 RMK AO2 RAE02 P0000 T01060083=
202205282053 METAR KCLM 282053Z AUTO VRB04KT 8SM -RA BKN004 BKN009 OVC021 11/09 A2978 RMK AO2 SLP085 P0002 60006 T01110089 58010=
202205281953 METAR KCLM 281953Z AUTO VRB03KT 7SM -RA BKN005 OVC010 10/08 A2979 RMK AO2 CIG 003V009 SLP087 P0002 T01000078=
202205281853 METAR KCLM 281853Z AUTO VRB03KT 6SM -RA BR FEW005 OVC012 10/08 A2980 RMK AO2 SLP093 P0002 T01000078=
202205281753 METAR KCLM 281753Z AUTO 06004KT 6SM -RA BR OVC010 10/08 A2981 RMK AO2 CIG 006V015 SLP095 P0002 60004 T01000078 10100 20094 58007=
202205281742 SPECI KCLM 281742Z AUTO VRB03KT 6SM -RA BR BKN009 OVC026 10/08 A2981 RMK AO2 P0001 T01000078=
202205281653 METAR KCLM 281653Z AUTO 07004KT 10SM -RA SCT007 OVC012 10/08 A2982 RMK AO2 RAE21B53 SLP099 P0001 T01000078=
202205281651 SPECI KCLM 281651Z AUTO 07004KT 10SM SCT007 BKN012 OVC033 10/08 A2982 RMK AO2 RAE21 P0001=
202205281620 SPECI KCLM 281620Z AUTO 08004KT 10SM -RA BKN007 BKN013 OVC048 10/08 A2983 RMK AO2 P0000 T01000078=
202205281606 SPECI KCLM 281606Z AUTO VRB04KT 10SM -RA FEW007 BKN032 OVC048 10/08 A2983 RMK AO2 P0000 T01000078=
202205281553 METAR KCLM 281553Z AUTO 08005KT 9SM -RA SCT026 OVC031 10/07 A2983 RMK AO2 RAE08B42 SLP102 P0001 T01000072=
202205281546 SPECI KCLM 281546Z AUTO 09004KT 9SM -RA SCT026 OVC031 10/08 A2983 RMK AO2 RAE08B42 P0001 T01000078=
202205281453 METAR KCLM 281453Z AUTO 00000KT 9SM -RA BKN029 BKN050 OVC060 10/08 A2983 RMK AO2 SLP104 P0000 60000 T01000078 56012=
202205281353 METAR KCLM 281353Z AUTO 00000KT 10SM -RA FEW027 SCT035 OVC060 10/07 A2984 RMK AO2 RAB44 SLP107 P0000 T01000072=
202205281314 SPECI KCLM 281314Z AUTO 00000KT 10SM SCT027 OVC034 09/08 A2985 RMK AO2 T00940078=
202205281253 METAR KCLM 281253Z AUTO 00000KT 10SM OVC025 09/07 A2986 RMK AO2 SLP111 T00940072=
202205281153 METAR KCLM 281153Z AUTO 00000KT 10SM OVC023 09/07 A2987 RMK AO2 SLP116 T00940072 10100 20083 56018=
202205281053 METAR KCLM 281053Z AUTO 00000KT 10SM OVC022 09/07 A2988 RMK AO2 SLP121 T00940072=
202205280953 METAR KCLM 280953Z AUTO 00000KT 10SM OVC023 10/07 A2990 RMK AO2 SLP126 T01000072=
202205280853 METAR KCLM 280853Z AUTO 00000KT 10SM OVC021 10/07 A2992 RMK AO2 SLP133 T01000072 58009=
202205280753 METAR KCLM 280753Z AUTO 00000KT 10SM OVC021 09/07 A2994 RMK AO2 SLP138 T00940072 401440078=
202205280653 METAR KCLM 280653Z AUTO 00000KT 10SM OVC022 10/07 A2995 RMK AO2 SLP142 T01000072=
202205280601 SPECI KCLM 280601Z AUTO 21003KT 10SM BKN021 08/07 A2995 RMK AO2 T00830067=
202205280553 METAR KCLM 280553Z AUTO 21003KT 10SM SCT021 BKN055 08/07 A2995 RMK AO2 SLP143 T00830067 10144 20078 50001=
202205280453 METAR KCLM 280453Z AUTO 00000KT 10SM FEW021 08/06 A2995 RMK AO2 SLP144 T00830061=
202205280353 METAR KCLM 280353Z AUTO 13003KT 10SM CLR 09/06 A2995 RMK AO2 SLP142 T00940061=
202205280253 METAR KCLM 280253Z AUTO 30007G17KT 270V340 10SM FEW017 11/07 A2995 RMK AO2 SLP142 T01110067 56006=
202205280217 SPECI KCLM 280217Z AUTO 30008KT 10SM SCT027 12/07 A2995 RMK AO2 T01170067=
202205280153 METAR KCLM 280153Z AUTO 30008KT 10SM BKN027 OVC035 12/07 A2995 RMK AO2 SLP144 T01170067=
202205280144 SPECI KCLM 280144Z AUTO 31009G18KT 10SM BKN029 OVC034 12/07 A2995 RMK AO2 T01170067=
202205280134 SPECI KCLM 280134Z AUTO 31010KT 10SM BKN030 12/07 A2995 RMK AO2 T01170067=
202205280126 SPECI KCLM 280126Z AUTO 31011G16KT 10SM BKN029 12/07 A2995 RMK AO2 T01170067=
202205280110 SPECI KCLM 280110Z AUTO 31007G17KT 10SM SCT028 12/07 A2995 RMK AO2 T01170067=
202205280053 METAR KCLM 280053Z AUTO 32009G15KT 10SM BKN028 12/07 A2996 RMK AO2 SLP145 T01220067=
202205280017 SPECI KCLM 280017Z AUTO 33007KT 300V360 10SM BKN026 13/07 A2996 RMK AO2 T01330072=
202205272353 METAR KCLM 272353Z AUTO 31010G20KT 10SM CLR 12/07 A2997 RMK AO2 SLP148 60000 T01220072 10133 20111 50002=
202205272333 SPECI KCLM 272333Z AUTO 34011G18KT 310V010 10SM SCT024 13/08 A2997 RMK AO2 T01330078=
202205272253 METAR KCLM 272253Z AUTO 29010G16KT 10SM BKN021 13/08 A2997 RMK AO2 SLP151 T01280083=
202205272222 SPECI KCLM 272222Z AUTO 31008G17KT 10SM BKN020 BKN075 BKN090 12/08 A2998 RMK AO2 T01170078=
202205272153 METAR KCLM 272153Z AUTO 32009G19KT 10SM FEW019 OVC080 12/07 A2997 RMK AO2 SLP148 T01220072=
202205272053 METAR KCLM 272053Z AUTO 29009KT 10SM SCT026 BKN070 BKN085 12/07 A2996 RMK AO2 SLP146 60000 T01220072 51010=
202205271953 METAR KCLM 271953Z AUTO VRB05KT 10SM FEW013 OVC024 12/08 A2996 RMK AO2 SLP146 T01170078=
202205271853 METAR KCLM 271853Z AUTO 30007KT 10SM FEW014 OVC020 11/08 A2996 RMK AO2 RAB18E27 SLP145 P0000 T01110078=
202205271753 METAR KCLM 271753Z AUTO 34005KT 10SM OVC018 11/08 A2993 RMK AO2 SLP136 T01110078 10122 20089 51018=
202205271723 SPECI KCLM 271723Z AUTO VRB06KT 10SM OVC015 11/08 A2993 RMK AO2 T01110078=
202205271653 METAR KCLM 271653Z AUTO VRB06KT 10SM BKN014 OVC027 11/08 A2991 RMK AO2 SLP130 T01110078=
202205271641 SPECI KCLM 271641Z AUTO VRB05KT 10SM BKN012 OVC065 11/08 A2991 RMK AO2 T01110078=
202205271553 METAR KCLM 271553Z AUTO 00000KT 10SM BKN046 BKN060 11/08 A2990 RMK AO2 SLP125 T01060083=
202205271453 METAR KCLM 271453Z AUTO 33005KT 10SM CLR 10/08 A2988 RMK AO2 SLP118 T01000078 53013=
202205271353 METAR KCLM 271353Z AUTO 01003KT 10SM FEW012 10/07 A2986 RMK AO2 SLP112 T01000072=
202205271253 METAR KCLM 271253Z AUTO 04004KT 10SM SCT015 BKN065 09/08 A2984 RMK AO2 SLP105 T00940078=
202205271251 SPECI KCLM 271251Z AUTO 06003KT 10SM SCT015 BKN065 09/08 A2984 RMK AO2=
202205271234 SPECI KCLM 271234Z AUTO 04003KT 10SM BKN015 BKN065 09/08 A2983 RMK AO2 T00940078=
202205271153 METAR KCLM 271153Z AUTO VRB06KT 10SM BKN060 10/08 A2980 RMK AO2 SLP090 60013 70015 T01000078 10111 20094 53007=
202205271102 SPECI KCLM 271102Z AUTO 30016G24KT 10SM SCT009 BKN055 BKN070 10/08 A2978 RMK AO2 T01000083=
202205271053 METAR KCLM 271053Z AUTO 30014G28KT 10SM FEW005 BKN009 OVC050 10/08 A2978 RMK AO2 PK WND 29028/1046 SLP086 T01000083=
202205271025 SPECI KCLM 271025Z AUTO 30011G18KT 10SM BKN005 OVC009 11/09 A2978 RMK AO2 CIG 004V008 T01060089=
202205270953 METAR KCLM 270953Z AUTO 20003KT 9SM SCT003 BKN011 OVC060 11/10 A2978 RMK AO2 RAE02 SLP084 P0000 T01110100=
202205270951 SPECI KCLM 270951Z AUTO 21003KT 9SM SCT003 BKN011 OVC060 11/10 A2978 RMK AO2 RAE02 P0000=
202205270914 SPECI KCLM 270914Z AUTO 26004KT 3SM BR OVC002 11/09 A2978 RMK AO2 RAE02 P0000 T01110094=
202205270853 METAR KCLM 270853Z AUTO 28005KT 1 3/4SM -RA BR BKN003 OVC014 11/09 A2979 RMK AO2 RAE27B39 SLP087 P0009 60013 T01060094 50009=
202205270847 SPECI KCLM 270847Z AUTO 32006KT 9SM -RA BKN003 BKN013 OVC100 11/09 A2978 RMK AO2 RAE27B39 CIG 002V006 P0009=
202205270838 SPECI KCLM 270838Z AUTO 30006KT 10SM FEW005 BKN013 BKN065 11/09 A2979 RMK AO2 RAE27 P0008 T01110094=
202205270813 SPECI KCLM 270813Z AUTO 09004KT 3SM RA BR SCT017 BKN055 OVC070 11/10 A2976 RMK AO2 PRESFR P0008 T01110100=
202205270804 SPECI KCLM 270804Z AUTO 29004KT 2SM -RA BR SCT017 BKN048 OVC065 11/10 A2978 RMK AO2 P0006 T01110100=
202205270753 METAR KCLM 270753Z AUTO 27013KT 7SM -RA BKN019 OVC065 11/09 A2980 RMK AO2 PRESRR SLP092 P0003 T01110094 401560072=
202205270733 SPECI KCLM 270733Z AUTO 29006KT 5SM -RA BR FEW003 BKN020 OVC060 11/09 A2977 RMK AO2 P0001 T01060094=
202205270700 SPECI KCLM 270700Z AUTO 00000KT 5SM -RA BR FEW001 OVC065 11/09 A2977 RMK AO2 P0000 T01060089=
202205270653 METAR KCLM 270653Z AUTO 32004KT 5SM -RA BR BKN060 OVC075 11/09 A2976 RMK AO2 RAB38 SLP080 P0001 T01060089=
202205270553 METAR KCLM 270553Z AUTO 00000KT 8SM SCT070 11/09 A2976 RMK AO2 SLP079 60002 T01060089 10150 20100 58012=
202205270453 METAR KCLM 270453Z AUTO 10003KT 10SM SCT070 BKN090 OVC120 11/09 A2978 RMK AO2 RAE26 SLP085 P0000 T01110089=
202205270353 METAR KCLM 270353Z AUTO 00000KT 9SM -RA OVC070 12/09 A2980 RMK AO2 SLP091 P0001 T01170094=
202205270253 METAR KCLM 270253Z AUTO 00000KT 10SM -RA OVC090 13/10 A2980 RMK AO2 RAB26 SLP091 P0001 60001 T01280100 56014=
202205270153 METAR KCLM 270153Z AUTO 00000KT 10SM FEW055 BKN075 OVC090 13/09 A2981 RMK AO2 RAE26 SLP095 P0000 T01330094=
202205270053 METAR KCLM 270053Z AUTO 04003KT 10SM -RA FEW060 BKN080 OVC090 14/09 A2982 RMK AO2 RAB40 SLP099 P0000 T01390094=
202205262353 METAR KCLM 262353Z AUTO 00000KT 10SM OVC070 15/09 A2984 RMK AO2 SLP105 T01500094 10156 20122 56013=
202205262253 METAR KCLM 262253Z AUTO 00000KT 10SM BKN075 OVC085 14/09 A2985 RMK AO2 SLP108 T01440089=
202205262153 METAR KCLM 262153Z AUTO 04003KT 10SM OVC090 15/09 A2986 RMK AO2 SLP114 T01500094=
202205262053 METAR KCLM 262053Z AUTO 33003KT 10SM SCT050 BKN065 OVC080 14/09 A2988 RMK AO2 SLP118 T01440094 58005=
202205261953 METAR KCLM 261953Z AUTO 28003KT 10SM OVC065 13/08 A2989 RMK AO2 SLP123 T01330083=
202205261853 METAR KCLM 261853Z AUTO VRB03KT 10SM OVC085 13/09 A2989 RMK AO2 SLP123 T01330089=
202205261753 METAR KCLM 261753Z AUTO 36004KT 10SM OVC080 12/08 A2989 RMK AO2 SLP123 T01220078 10128 20072 58006=
202205261653 METAR KCLM 261653Z AUTO 00000KT 10SM OVC075 12/08 A2991 RMK AO2 SLP128 T01170083=
202205261553 METAR KCLM 261553Z AUTO 00000KT 10SM OVC090 11/08 A2991 RMK AO2 SLP129 T01060083=
202205261453 METAR KCLM 261453Z AUTO 10004KT 10SM BKN110 12/09 A2991 RMK AO2 SLP129 T01170089 58006=
202205261353 METAR KCLM 261353Z AUTO 00000KT 10SM OVC100 10/08 A2992 RMK AO2 SLP131 T01000083=
202205261253 METAR KCLM 261253Z AUTO 00000KT 10SM BKN100 08/06 A2992 RMK AO2 SLP134 T00780061=
202205261153 METAR KCLM 261153Z AUTO 00000KT 10SM OVC100 09/07 A2993 RMK AO2 SLP135 T00890072 10100 20078 58015=
202205261053 METAR KCLM 261053Z AUTO 28003KT 10SM OVC110 09/07 A2995 RMK AO2 SLP142 T00890072=
202205260953 METAR KCLM 260953Z AUTO 32003KT 10SM FEW025 09/07 A2995 RMK AO2 SLP144 T00940072=
202205260926 SPECI KCLM 260926Z AUTO 00000KT 10SM FEW025 09/07 A2996 RMK AO2 T00890072=
202205260853 METAR KCLM 260853Z AUTO 27003KT 10SM OVC026 09/07 A2997 RMK AO2 SLP150 T00890072 56009=
202205260826 SPECI KCLM 260826Z AUTO 23004KT 10SM BKN026 08/07 A2997 RMK AO2 T00830067=
202205260753 METAR KCLM 260753Z AUTO 22003KT 10SM FEW013 08/07 A2998 RMK AO2 SLP152 T00830067 401440083=
202205260653 METAR KCLM 260653Z AUTO 28006KT 10SM FEW013 09/07 A2999 RMK AO2 SLP157 T00940072=
202205260553 METAR KCLM 260553Z AUTO 26006KT 10SM CLR 10/07 A3000 RMK AO2 SLP160 T01000067 10139 20094 55000=
202205260453 METAR KCLM 260453Z AUTO 28006KT 10SM CLR 10/08 A3000 RMK AO2 SLP158 T01000078=
202205260353 METAR KCLM 260353Z AUTO 29005KT 10SM CLR 11/08 A2999 RMK AO2 SLP158 T01060078=
202205260253 METAR KCLM 260253Z AUTO 30006KT 10SM CLR 12/08 A3000 RMK AO2 SLP160 T01220078 58015=
202205260153 METAR KCLM 260153Z AUTO 29007KT 10SM CLR 13/08 A3001 RMK AO2 SLP165 T01280083=
202205260053 METAR KCLM 260053Z AUTO 31008KT 10SM SCT018 13/08 A3003 RMK AO2 SLP171 T01330083=
202205252353 METAR KCLM 252353Z AUTO 29010KT 10SM SCT017 OVC030 14/09 A3005 RMK AO2 SLP175 T01390089 10144 20117 58001=
202205252253 METAR KCLM 252253Z AUTO 31011G17KT 10SM OVC017 14/09 A3005 RMK AO2 SLP177 T01390089=
202205252210 SPECI KCLM 252210Z AUTO 30011KT 10SM OVC015 14/09 A3006 RMK AO2 T01390094=
202205252153 METAR KCLM 252153Z AUTO 29010KT 10SM OVC012 13/09 A3006 RMK AO2 SLP179 T01330094=
202205252053 METAR KCLM 252053Z AUTO 30008KT 10SM OVC012 12/09 A3005 RMK AO2 SLP176 T01220089 51011=
202205251953 METAR KCLM 251953Z AUTO 30008KT 10SM OVC010 12/09 A3005 RMK AO2 SLP176 T01220089=
202205251939 SPECI KCLM 251939Z AUTO 32006KT 10SM OVC010 12/09 A3004 RMK AO2 T01220089=
202205251925 SPECI KCLM 251925Z AUTO VRB05KT 10SM OVC009 12/09 A3004 RMK AO2 CIG 008V014 T01220094=
202205251916 SPECI KCLM 251916Z AUTO VRB03KT 10SM BKN011 OVC017 12/09 A3004 RMK AO2 CIG 008V014 T01220089=
202205251853 METAR KCLM 251853Z AUTO 34005KT 10SM OVC019 12/09 A3003 RMK AO2 SLP169 T01220094=
202205251753 METAR KCLM 251753Z AUTO 36004KT 10SM OVC019 13/09 A3002 RMK AO2 SLP165 T01280089 10133 20083 51015=
202205251732 SPECI KCLM 251732Z AUTO VRB04KT 10SM BKN018 13/10 A3001 RMK AO2 T01330100=
202205251653 METAR KCLM 251653Z AUTO 34004KT 10SM FEW009 12/08 A3001 RMK AO2 SLP161 T01170083=
202205251636 SPECI KCLM 251636Z AUTO 35004KT 10SM SCT009 12/09 A3000 RMK AO2 T01170089=
202205251553 METAR KCLM 251553Z AUTO 00000KT 10SM CLR 12/09 A2999 RMK AO2 SLP157 T01170089=
202205251453 METAR KCLM 251453Z AUTO 00000KT 10SM CLR 11/09 A2997 RMK AO2 SLP151 T01110094 52006=
202205251353 METAR KCLM 251353Z AUTO 00000KT 10SM CLR 09/08 A2997 RMK AO2 SLP149 T00890078=
202205251253 METAR KCLM 251253Z AUTO 20003KT 10SM CLR 09/08 A2996 RMK AO2 SLP146 T00940078=
202205251227 SPECI KCLM 251227Z AUTO 23003KT 7SM SCT023 09/08 A2996 RMK AO2 T00940078=
202205251153 METAR KCLM 251153Z AUTO 00000KT 10SM BKN022 BKN090 10/09 A2996 RMK AO2 SLP145 60001 70001 T01000089 10106 20100 50000=
202205251146 SPECI KCLM 251146Z AUTO 00000KT 10SM BKN021 BKN090 10/09 A2996 RMK AO2 T01000089=
202205251135 SPECI KCLM 251135Z AUTO 23003KT 10SM SCT023 BKN090 BKN120 10/08 A2995 RMK AO2 T01000083=
202205251053 METAR KCLM 251053Z AUTO 00000KT 10SM BKN025 OVC100 10/09 A2995 RMK AO2 SLP144 T01000089=
202205251025 SPECI KCLM 251025Z AUTO 15003KT 10SM SCT025 OVC100 11/09 A2995 RMK AO2 T01060089=
202205250953 METAR KCLM 250953Z AUTO 23004KT 10SM BKN027 BKN075 OVC110 11/09 A2996 RMK AO2 RAE0859B36E50 SLP145 P0000 T01060089=
202205250853 METAR KCLM 250853Z AUTO 00000KT 8SM -RA FEW028 OVC055 10/09 A2996 RMK AO2 RAB03 SLP145 P0001 60001 T01000089 58006=
202205250753 METAR KCLM 250753Z AUTO 00000KT 10SM OVC028 10/09 A2997 RMK AO2 SLP151 T01000089 401280083=
202205250653 METAR KCLM 250653Z AUTO 30003KT 10SM OVC024 10/08 A2998 RMK AO2 SLP153 T01000083=
202205250639 SPECI KCLM 250639Z AUTO 17003KT 10SM BKN025 BKN110 10/08 A2997 RMK AO2 T01000083=
202205250553 METAR KCLM 250553Z AUTO 02003KT 10SM FEW090 OVC110 10/08 A2997 RMK AO2 SLP151 T01000083 10117 20100 56012=
202205250453 METAR KCLM 250453Z AUTO 00000KT 10SM OVC100 11/08 A2997 RMK AO2 SLP151 T01110083=
202205250353 METAR KCLM 250353Z AUTO 00000KT 10SM OVC055 11/09 A2999 RMK AO2 SLP157 T01110089=
202205250253 METAR KCLM 250253Z AUTO 25003KT 10SM OVC055 11/08 A3001 RMK AO2 SLP163 T01110083 56009=
202205250153 METAR KCLM 250153Z AUTO 30003KT 10SM OVC055 12/09 A3001 RMK AO2 SLP164 T01170089=
202205250053 METAR KCLM 250053Z AUTO 30007KT 10SM OVC060 12/08 A3003 RMK AO2 SLP168 T01170083=
202205242353 METAR KCLM 242353Z AUTO 29004KT 10SM OVC060 11/08 A3004 RMK AO2 RAE32 SLP172 P0000 60000 T01110078 10128 20111 58012=
202205242253 METAR KCLM 242253Z AUTO 33004KT 10SM -RA OVC060 12/08 A3005 RMK AO2 RAB10E32B50 SLP178 P0000 T01170078=
202205242153 METAR KCLM 242153Z AUTO 33007KT 10SM FEW021 SCT050 BKN075 12/07 A3007 RMK AO2 SLP182 T01220072=
202205242053 METAR KCLM 242053Z AUTO 01005KT 10SM OVC090 12/07 A3007 RMK AO2 SLP184 T01170072 55015=
202205241953 METAR KCLM 241953Z AUTO 00000KT 10SM BKN100 12/07 A3007 RMK AO2 SLP183 T01170072=
202205241853 METAR KCLM 241853Z AUTO VRB04KT 10SM FEW110 12/07 A3009 RMK AO2 SLP189 T01170072=
202205241753 METAR KCLM 241753Z AUTO VRB05KT 10SM CLR 12/07 A3012 RMK AO2 SLP199 T01170072 10117 20083 51006=
202205241653 METAR KCLM 241653Z AUTO 00000KT 10SM CLR 11/08 A3011 RMK AO2 SLP197 T01110078=
202205241615 SPECI KCLM 241615Z AUTO 30005KT 10SM SCT013 11/07 A3012 RMK AO2 T01060072=
202205241553 METAR KCLM 241553Z AUTO 30005KT 10SM OVC013 11/07 A3011 RMK AO2 SLP198 T01060072=
202205241453 METAR KCLM 241453Z AUTO 00000KT 10SM OVC011 11/07 A3010 RMK AO2 SLP193 T01060067 56016=
202205241353 METAR KCLM 241353Z AUTO 27005KT 10SM OVC013 10/07 A3011 RMK AO2 SLP198 T01000067=
202205241319 SPECI KCLM 241319Z AUTO 00000KT 10SM BKN014 09/07 A3012 RMK AO2 T00890067=
202205241253 METAR KCLM 241253Z AUTO 00000KT 10SM CLR 08/06 A3013 RMK AO2 SLP203 T00830061=
202205241153 METAR KCLM 241153Z AUTO 26004KT 10SM CLR 08/06 A3015 RMK AO2 SLP209 T00830061 10106 20083 55002=
202205241053 METAR KCLM 241053Z AUTO 24003KT 10SM CLR 09/06 A3014 RMK AO2 SLP206 T00890061=
202205240953 METAR KCLM 240953Z AUTO 27005KT 10SM CLR 08/06 A3015 RMK AO2 SLP211 T00830061=
202205240853 METAR KCLM 240853Z AUTO 29009KT 10SM CLR 09/07 A3015 RMK AO2 SLP211 T00940067 58009=
202205240753 METAR KCLM 240753Z AUTO 29008KT 10SM CLR 09/07 A3016 RMK AO2 SLP214 T00940067 401560094=
202205240718 SPECI KCLM 240718Z AUTO 29010KT 10SM SCT017 09/07 A3017 RMK AO2 T00940067=
202205240653 METAR KCLM 240653Z AUTO 29009KT 10SM OVC018 10/07 A3017 RMK AO2 SLP218 T01000067=
202205240553 METAR KCLM 240553Z AUTO 29009KT 10SM OVC016 11/07 A3018 RMK AO2 SLP220 T01060072 10150 20106 58003=
202205240539 SPECI KCLM 240539Z AUTO 28010KT 10SM OVC015 11/07 A3019 RMK AO2 T01060072=
202205240453 METAR KCLM 240453Z AUTO 28008KT 10SM OVC011 11/08 A3020 RMK AO2 SLP226 T01110078=
202205240353 METAR KCLM 240353Z AUTO 28008KT 10SM OVC013 11/08 A3020 RMK AO2 SLP227 T01110078=
202205240302 SPECI KCLM 240302Z AUTO 29009G19KT 10SM BKN011 11/08 A3019 RMK AO2 T01110078=
202205240253 METAR KCLM 240253Z AUTO 29011G17KT 10SM SCT011 11/08 A3019 RMK AO2 SLP223 T01110083 55005=
202205240153 METAR KCLM 240153Z AUTO 32009KT 10SM CLR 13/08 A3018 RMK AO2 SLP222 T01280083=
202205240053 METAR KCLM 240053Z AUTO 31008KT 10SM CLR 14/09 A3019 RMK AO2 SLP223 T01440094=
202205232353 METAR KCLM 232353Z AUTO 29010G15KT 10SM FEW019 14/09 A3020 RMK AO2 SLP228 T01440094 10156 20117 56004=
202205232253 METAR KCLM 232253Z AUTO 31010G18KT 10SM CLR 15/09 A3021 RMK AO2 SLP229 T01500089=
202205232153 METAR KCLM 232153Z AUTO 31012G22KT 10SM CLR 14/09 A3021 RMK AO2 SLP229 T01390094=
202205232053 METAR KCLM 232053Z AUTO 30011G20KT 10SM SCT075 15/09 A3021 RMK AO2 SLP231 T01500089 58001=
202205232017 SPECI KCLM 232017Z AUTO 30011KT 10SM SCT024 SCT060 14/09 A3022 RMK AO2 T01440089=
202205231953 METAR KCLM 231953Z AUTO 29011G18KT 10SM BKN022 13/08 A3022 RMK AO2 SLP234 T01330083=
202205231853 METAR KCLM 231853Z AUTO 30009KT 10SM OVC016 12/08 A3023 RMK AO2 SLP238 T01170078=
202205231832 SPECI KCLM 231832Z AUTO 32007KT 10SM BKN014 OVC055 12/08 A3022 RMK AO2 T01170078=
202205231753 METAR KCLM 231753Z AUTO 29006KT 10SM FEW013 SCT017 OVC060 12/08 A3022 RMK AO2 SLP233 T01170078 10117 20100 58000=
202205231653 METAR KCLM 231653Z AUTO 30007KT 10SM FEW015 OVC060 11/07 A3022 RMK AO2 SLP235 T01110072=
202205231553 METAR KCLM 231553Z AUTO 30005KT 10SM OVC070 11/08 A3022 RMK AO2 SLP234 T01110078=
202205231453 METAR KCLM 231453Z AUTO 27008KT 10SM OVC070 11/07 A3022 RMK AO2 SLP234 T01060072 53006=
202205231353 METAR KCLM 231353Z AUTO 28007KT 10SM OVC070 10/07 A3020 RMK AO2 SLP229 T01000067=
202205231253 METAR KCLM 231253Z AUTO 28007KT 10SM OVC075 10/07 A3020 RMK AO2 SLP225 T01000072=
202205231153 METAR KCLM 231153Z AUTO 29006KT 10SM OVC075 10/07 A3020 RMK AO2 SLP226 60000 T01000072 10106 20100 53001=
202205231053 METAR KCLM 231053Z AUTO 29006KT 10SM OVC075 10/08 A3019 RMK AO2 SLP225 T01000078=
202205230953 METAR KCLM 230953Z AUTO 30005KT 10SM OVC085 10/08 A3020 RMK AO2 SLP225 T01000078=
202205230912 SPECI KCLM 230912Z AUTO 28007KT 10SM FEW006 OVC095 10/08 A3020 RMK AO2 T01000078=
202205230853 METAR KCLM 230853Z AUTO 29006KT 10SM OVC090 10/08 A3020 RMK AO2 RAE0756 SLP227 P0000 60000 T01000078 53003=
202205230753 METAR KCLM 230753Z AUTO 30007KT 10SM -RA FEW007 FEW070 OVC095 10/08 A3019 RMK AO2 RAB45 SLP224 P0000 T01000078 401670056=
202205230751 SPECI KCLM 230751Z AUTO 29007KT 10SM -RA FEW007 SCT070 OVC090 10/08 A3019 RMK AO2 RAB45 P0000=
202205230653 METAR KCLM 230653Z AUTO 27007KT 10SM FEW070 OVC090 10/08 A3019 RMK AO2 SLP224 T01000083=
202205230623 SPECI KCLM 230623Z AUTO 29007G15KT 10SM SCT006 OVC100 10/08 A3019 RMK AO2 T01000078=
202205230614 SPECI KCLM 230614Z AUTO 29008KT 10SM BKN006 OVC110 10/08 A3019 RMK AO2 T01000083=
202205230553 METAR KCLM 230553Z AUTO 28005KT 10SM SCT006 BKN120 11/08 A3019 RMK AO2 SLP224 T01060083 10156 20106 55000=
202205230453 METAR KCLM 230453Z AUTO 30003KT 10SM FEW120 11/08 A3018 RMK AO2 SLP222 T01060083=
202205230353 METAR KCLM 230353Z AUTO 31003KT 9SM CLR 12/08 A3018 RMK AO2 SLP222 T01170083=
202205230253 METAR KCLM 230253Z AUTO 27005KT 10SM CLR 12/09 A3019 RMK AO2 SLP224 T01220089 55009=
202205230153 METAR KCLM 230153Z AUTO 32003KT 10SM CLR 14/09 A3019 RMK AO2 SLP224 T01390094=
202205230053 METAR KCLM 230053Z AUTO 30005KT 10SM SCT090 15/09 A3020 RMK AO2 SLP228 T01500089=
202205222353 METAR KCLM 222353Z AUTO VRB04KT 10SM SCT095 15/09 A3022 RMK AO2 SLP234 T01500094 10167 20117 58010=
202205222253 METAR KCLM 222253Z AUTO 30006KT 10SM FEW100 14/09 A3023 RMK AO2 SLP239 T01440089=
202205222153 METAR KCLM 222153Z AUTO VRB05KT 10SM CLR 16/08 A3024 RMK AO2 SLP240 T01610083=
202205222053 METAR KCLM 222053Z AUTO 36006KT 10SM CLR 14/09 A3025 RMK AO2 SLP243 T01440089 58007=
202205221953 METAR KCLM 221953Z AUTO 02004KT 10SM CLR 14/09 A3025 RMK AO2 SLP246 T01390089=
202205221853 METAR KCLM 221853Z AUTO VRB04KT 10SM CLR 13/08 A3027 RMK AO2 SLP250 T01280083=
202205221753 METAR KCLM 221753Z AUTO 02005KT 10SM CLR 12/08 A3027 RMK AO2 SLP251 T01220078 10122 20056 57000=
202205221653 METAR KCLM 221653Z AUTO 35005KT 10SM CLR 11/07 A3027 RMK AO2 SLP251 T01110072=
202205221553 METAR KCLM 221553Z AUTO VRB04KT 10SM CLR 11/07 A3027 RMK AO2 SLP251 T01060072=
202205221453 METAR KCLM 221453Z AUTO 29005KT 10SM FEW007 10/07 A3027 RMK AO2 SLP251 T01000072 51005=
202205221353 METAR KCLM 221353Z AUTO 00000KT 10SM CLR 09/05 A3026 RMK AO2 SLP247 T00890050=
202205221253 METAR KCLM 221253Z AUTO 23003KT 10SM CLR 06/03 A3025 RMK AO2 SLP246 T00560028=
202205221153 METAR KCLM 221153Z AUTO VRB05KT 10SM CLR 09/02 A3025 RMK AO2 SLP245 T00890022 10117 20061 51003=
202205221053 METAR KCLM 221053Z AUTO 29008KT 10SM CLR 08/05 A3025 RMK AO2 SLP244 T00780050=
202205220953 METAR KCLM 220953Z AUTO 29007KT 10SM CLR 08/03 A3025 RMK AO2 SLP244 T00780028=
202205220853 METAR KCLM 220853Z AUTO 25007KT 10SM CLR 10/03 A3024 RMK AO2 SLP241 T01000028 58000=
202205220753 METAR KCLM 220753Z AUTO 28007KT 10SM CLR 10/03 A3025 RMK AO2 SLP242 T01000033 401720067=
202205220653 METAR KCLM 220653Z AUTO 26010KT 10SM CLR 11/04 A3025 RMK AO2 SLP242 T01110039=
202205220553 METAR KCLM 220553Z AUTO 28007KT 10SM CLR 09/06 A3025 RMK AO2 SLP243 T00940061 10156 20094 50009=
202205220453 METAR KCLM 220453Z AUTO 27005KT 10SM CLR 10/07 A3025 RMK AO2 SLP243 T01000072=
202205220353 METAR KCLM 220353Z AUTO 29005KT 10SM CLR 11/08 A3023 RMK AO2 SLP237 T01060078=
202205220253 METAR KCLM 220253Z AUTO 32007KT 10SM CLR 14/06 A3022 RMK AO2 SLP232 T01390056 55000=
202205220153 METAR KCLM 220153Z AUTO 30004KT 10SM CLR 16/08 A3021 RMK AO2 SLP229 T01560078=
202205220053 METAR KCLM 220053Z AUTO 31006KT 10SM CLR 15/08 A3021 RMK AO2 SLP232 T01500078=
202205212353 METAR KCLM 212353Z AUTO 32004KT 10SM CLR 16/09 A3022 RMK AO2 SLP234 T01560089 10172 20133 56006=
202205212253 METAR KCLM 212253Z AUTO 35004KT 10SM CLR 16/09 A3022 RMK AO2 SLP234 T01560094=
202205212153 METAR KCLM 212153Z AUTO 34003KT 10SM CLR 15/09 A3023 RMK AO2 SLP238 T01500089=
202205212053 METAR KCLM 212053Z AUTO 08005KT 10SM CLR 17/06 A3023 RMK AO2 SLP238 T01670061 58005=
202205211953 METAR KCLM 211953Z AUTO VRB04KT 10SM CLR 16/07 A3024 RMK AO2 SLP242 T01560067=
202205211853 METAR KCLM 211853Z AUTO VRB03KT 10SM CLR 14/07 A3025 RMK AO2 SLP244 T01440072=
202205211753 METAR KCLM 211753Z AUTO VRB03KT 10SM CLR 13/08 A3025 RMK AO2 SLP244 T01330078 10133 20067 52002=
202205211653 METAR KCLM 211653Z AUTO VRB05KT 10SM CLR 12/07 A3025 RMK AO2 SLP244 T01170072=
202205211553 METAR KCLM 211553Z AUTO 02004KT 10SM CLR 12/07 A3024 RMK AO2 SLP242 T01170072=
202205211453 METAR KCLM 211453Z AUTO 30005KT 10SM CLR 11/07 A3024 RMK AO2 SLP242 T01110072 53009=
202205211353 METAR KCLM 211353Z AUTO 26006KT 10SM CLR 09/05 A3023 RMK AO2 SLP239 T00940050=
202205211253 METAR KCLM 211253Z AUTO 25008KT 10SM CLR 08/04 A3022 RMK AO2 SLP235 T00780039=
202205211153 METAR KCLM 211153Z AUTO 26006KT 10SM CLR 07/03 A3021 RMK AO2 SLP233 T00670033 10094 20067 55000=
202205211053 METAR KCLM 211053Z AUTO 26007KT 10SM CLR 08/04 A3021 RMK AO2 SLP232 T00780044=
202205210953 METAR KCLM 210953Z AUTO 26007KT 10SM FEW095 08/05 A3021 RMK AO2 SLP231 T00830050=
202205210853 METAR KCLM 210853Z AUTO 27007KT 10SM CLR 09/06 A3022 RMK AO2 SLP233 T00890056 58002=
202205210753 METAR KCLM 210753Z AUTO 26008KT 10SM CLR 09/07 A3023 RMK AO2 SLP236 T00890067 401440072=
202205210653 METAR KCLM 210653Z AUTO 30006KT 10SM CLR 09/07 A3022 RMK AO2 SLP234 T00940072=
202205210553 METAR KCLM 210553Z AUTO 29005KT 10SM CLR 08/06 A3022 RMK AO2 SLP235 T00830061 10144 20083 53007=
202205210453 METAR KCLM 210453Z AUTO 28007KT 10SM CLR 10/07 A3021 RMK AO2 SLP232 T01000067=
202205210353 METAR KCLM 210353Z AUTO 28007KT 10SM CLR 11/07 A3020 RMK AO2 SLP227 T01060067=
202205210253 METAR KCLM 210253Z AUTO 29006KT 10SM CLR 13/08 A3020 RMK AO2 SLP227 T01280078 56007=
202205210153 METAR KCLM 210153Z AUTO 30009KT 10SM CLR 13/07 A3020 RMK AO2 SLP228 T01330072=
202205210053 METAR KCLM 210053Z AUTO 31010G17KT 10SM CLR 14/08 A3021 RMK AO2 SLP230 T01390078=
202205202353 METAR KCLM 202353Z AUTO 30008KT 10SM CLR 14/08 A3022 RMK AO2 SLP234 T01390078 10144 20117 58011=
202205202253 METAR KCLM 202253Z AUTO VRB03KT 10SM CLR 14/07 A3024 RMK AO2 SLP240 T01390067=
202205202153 METAR KCLM 202153Z AUTO VRB03KT 10SM CLR 14/07 A3024 RMK AO2 SLP243 T01390072=
202205202053 METAR KCLM 202053Z AUTO 04005KT 10SM CLR 13/06 A3025 RMK AO2 SLP246 T01280061 56009=
202205201953 METAR KCLM 201953Z AUTO 06004KT 10SM CLR 13/06 A3026 RMK AO2 SLP249 T01330061=
202205201853 METAR KCLM 201853Z AUTO 35005KT 10SM CLR 12/06 A3027 RMK AO2 SLP252 T01220061=
202205201753 METAR KCLM 201753Z AUTO 34007KT 10SM CLR 12/07 A3028 RMK AO2 SLP255 T01170067 10122 20072 58006=
202205201653 METAR KCLM 201653Z AUTO VRB06KT 10SM CLR 12/07 A3029 RMK AO2 SLP258 T01170067=
202205201553 METAR KCLM 201553Z AUTO 29003KT 10SM CLR 12/05 A3029 RMK AO2 SLP259 T01170050=
202205201453 METAR KCLM 201453Z AUTO 25006KT 10SM FEW044 10/04 A3030 RMK AO2 SLP261 T01000039 53008=
202205201353 METAR KCLM 201353Z AUTO 25008KT 10SM CLR 08/03 A3029 RMK AO2 SLP258 T00830028=
202205201253 METAR KCLM 201253Z AUTO 24010KT 10SM CLR 07/02 A3028 RMK AO2 SLP255 T00720022=
202205201153 METAR KCLM 201153Z AUTO 25011KT 10SM FEW055 07/02 A3028 RMK AO2 SLP254 T00720022 10083 20072 58002=
202205201053 METAR KCLM 201053Z AUTO 24010KT 10SM BKN055 08/03 A3028 RMK AO2 SLP253 T00780028=
202205200953 METAR KCLM 200953Z AUTO 25009KT 10SM OVC060 08/03 A3029 RMK AO2 SLP257 T00830028=
202205200853 METAR KCLM 200853Z AUTO 26008KT 10SM OVC060 08/03 A3028 RMK AO2 SLP256 T00830033 53001=
202205200753 METAR KCLM 200753Z AUTO 25008KT 10SM FEW055 07/03 A3028 RMK AO2 SLP256 T00720033 401440061=
202205200653 METAR KCLM 200653Z AUTO 25007KT 10SM CLR 07/04 A3028 RMK AO2 SLP255 T00720039=
202205200553 METAR KCLM 200553Z AUTO 25008KT 10SM CLR 08/04 A3028 RMK AO2 SLP255 T00780044 10122 20072 51008=
202205200453 METAR KCLM 200453Z AUTO 26007KT 10SM CLR 08/05 A3027 RMK AO2 SLP252 T00830050=
202205200353 METAR KCLM 200353Z AUTO 27007KT 10SM CLR 08/04 A3027 RMK AO2 SLP250 T00830044=
202205200253 METAR KCLM 200253Z AUTO 29007KT 10SM CLR 10/05 A3026 RMK AO2 SLP247 T01000050 50007=
202205200153 METAR KCLM 200153Z AUTO 30011G19KT 10SM BKN065 11/05 A3026 RMK AO2 SLP247 T01060050=
202205200053 METAR KCLM 200053Z AUTO 31011G23KT 10SM CLR 11/06 A3025 RMK AO2 PK WND 31031/0026 SLP246 T01110056=
202205192353 METAR KCLM 192353Z AUTO 30015G23KT 10SM CLR 12/06 A3024 RMK AO2 SLP240 T01170061 10144 20106 51009=
202205192253 METAR KCLM 192253Z AUTO 31012G24KT 10SM CLR 12/06 A3024 RMK AO2 PK WND 29027/2236 SLP239 T01170056=
202205192153 METAR KCLM 192153Z AUTO 32009G24KT 290V360 10SM CLR 13/07 A3022 RMK AO2 SLP235 T01280067=
202205192053 METAR KCLM 192053Z AUTO 33010G19KT 300V360 10SM CLR 13/06 A3021 RMK AO2 SLP231 T01330056 50001=
202205191953 METAR KCLM 191953Z AUTO 29012G21KT 10SM CLR 13/05 A3022 RMK AO2 SLP233 T01280050=
202205191853 METAR KCLM 191853Z AUTO 29015G21KT 10SM FEW038 12/05 A3021 RMK AO2 SLP231 T01170050=
202205191753 METAR KCLM 191753Z AUTO 30013G20KT 10SM FEW040 11/04 A3021 RMK AO2 SLP230 T01110039 10117 20061 53011=
202205191653 METAR KCLM 191653Z AUTO 30010G17KT 10SM BKN034 11/03 A3019 RMK AO2 SLP224 T01060033=
202205191553 METAR KCLM 191553Z AUTO 28012KT 10SM OVC085 09/03 A3019 RMK AO2 SLP223 T00940028=
202205191453 METAR KCLM 191453Z AUTO 28009KT 10SM CLR 08/03 A3017 RMK AO2 SLP219 T00780028 53009=
202205191353 METAR KCLM 191353Z AUTO 27006KT 10SM FEW037 BKN100 07/03 A3016 RMK AO2 SLP213 T00670028=
202205191253 METAR KCLM 191253Z AUTO 25006KT 10SM FEW070 BKN100 06/03 A3015 RMK AO2 SLP210 T00610028=
202205191153 METAR KCLM 191153Z AUTO 25011KT 10SM BKN043 BKN120 07/03 A3015 RMK AO2 SLP209 60001 70007 T00670028 10089 20061 56002=
202205191053 METAR KCLM 191053Z AUTO 25011KT 10SM SCT045 BKN110 07/03 A3015 RMK AO2 SLP210 T00670028=
202205190953 METAR KCLM 190953Z AUTO 23008KT 10SM BKN041 OVC050 07/03 A3015 RMK AO2 RAE03 SLP210 P0000 T00670033=
202205190853 METAR KCLM 190853Z AUTO 25011G18KT 7SM -RA BKN037 OVC049 07/03 A3015 RMK AO2 RAB16 SLP211 P0001 60001 T00720033 53005=
202205190753 METAR KCLM 190753Z AUTO 29012KT 10SM FEW049 08/02 A3014 RMK AO2 SLP206 T00780017 401610078=
202205190653 METAR KCLM 190653Z AUTO 29012KT 10SM FEW050 SCT090 08/01 A3014 RMK AO2 SLP206 T00830011=
202205190553 METAR KCLM 190553Z AUTO 28010KT 10SM FEW050 FEW070 08/01 A3014 RMK AO2 SLP206 T00830011 10144 20083 53017=
202205190453 METAR KCLM 190453Z AUTO 30013G19KT 10SM BKN065 09/01 A3011 RMK AO2 PK WND 28036/0358 SLP195 T00890006=
202205190353 METAR KCLM 190353Z AUTO 26017G29KT 10SM CLR 10/00 A3005 RMK AO2 PK WND 24029/0350 SLP178 T01000000=
202205190253 METAR KCLM 190253Z AUTO 27015G22KT 10SM CLR 10/02 A3009 RMK AO2 SLP189 T01000022 50001=
202205190153 METAR KCLM 190153Z AUTO 29012KT 10SM CLR 12/03 A3010 RMK AO2 PK WND 28028/0125 SLP193 T01220028=
202205190053 METAR KCLM 190053Z AUTO 28018G31KT 10SM FEW050 13/03 A3008 RMK AO2 PK WND 29031/0052 SLP188 T01330028=
202205182353 METAR KCLM 182353Z AUTO 30018G25KT 10SM BKN048 BKN055 14/03 A3008 RMK AO2 PK WND 31029/2335 SLP188 T01390033 10161 20128 51016=
202205182253 METAR KCLM 182253Z AUTO 29012G26KT 10SM BKN055 16/04 A3007 RMK AO2 PK WND 28027/2205 SLP184 T01560039=
202205182153 METAR KCLM 182153Z AUTO 29013G24KT 10SM BKN050 OVC065 14/03 A3006 RMK AO2 PK WND 27030/2107 SLP181 T01390033=
202205182053 METAR KCLM 182053Z AUTO 26011G23KT 10SM BKN050 BKN065 14/04 A3004 RMK AO2 PK WND 30029/2002 SLP172 T01390039 53026=
202205181953 METAR KCLM 181953Z AUTO 28017G25KT 10SM BKN050 OVC060 13/04 A3001 RMK AO2 SLP164 T01330044=
202205181853 METAR KCLM 181853Z AUTO 23013G22KT 10SM SCT065 BKN100 16/04 A2998 RMK AO2 SLP151 T01560044=
202205181753 METAR KCLM 181753Z AUTO 31004G26KT 10SM FEW060 SCT070 14/04 A2996 RMK AO2 PK WND 25026/1745 SLP146 60006 T01440044 10150 20078 53029=
202205181653 METAR KCLM 181653Z AUTO 26010G18KT 220V300 10SM SCT046 BKN055 14/07 A2991 RMK AO2 SLP130 T01390072=
202205181553 METAR KCLM 181553Z AUTO 29009KT 10SM BKN032 BKN048 12/08 A2989 RMK AO2 RAB01E48 SLP121 P0002 T01220083=
202205181453 METAR KCLM 181453Z AUTO 24007KT 10SM SCT044 BKN060 OVC070 11/08 A2987 RMK AO2 RAE52 SLP116 P0002 60004 T01110078 53004=
202205181353 METAR KCLM 181353Z AUTO 23005KT 8SM -RA OVC055 08/07 A2985 RMK AO2 SLP107 P0001 T00830067=
202205181253 METAR KCLM 181253Z AUTO 00000KT 5SM -RA BR OVC055 08/06 A2984 RMK AO2 SLP105 P0001 T00780061=
202205181218 SPECI KCLM 181218Z AUTO 00000KT 7SM -RA FEW013 SCT027 OVC060 08/06 A2985 RMK AO2 P0000 T00780061=
202205181205 SPECI KCLM 181205Z AUTO 00000KT 8SM -RA SCT012 BKN027 OVC065 08/07 A2986 RMK AO2 P0000 T00780067=
202205181153 METAR KCLM 181153Z AUTO 00000KT 10SM -RA FEW010 OVC065 08/06 A2986 RMK AO2 SLP113 P0001 60009 70009 T00780061 10089 20078 58055=
202205181137 SPECI KCLM 181137Z AUTO 13004KT 10SM -RA SCT009 BKN050 OVC080 08/06 A2987 RMK AO2 P0001 T00780061=
202205181105 SPECI KCLM 181105Z AUTO 00000KT 8SM -RA SCT013 BKN055 OVC070 08/06 A2990 RMK AO2 P0001 T00780061=
202205181053 METAR KCLM 181053Z AUTO 00000KT 5SM -RA BR SCT007 BKN013 OVC055 08/06 A2992 RMK AO2 RAB09 SLP132 P0002 T00780061=
202205181002 SPECI KCLM 181002Z AUTO 28003KT 10SM BKN009 BKN021 08/06 A2997 RMK AO2 CIG 008V012 T00780061=
202205180953 METAR KCLM 180953Z AUTO 29003KT 10SM SCT009 BKN020 BKN050 08/06 A2997 RMK AO2 RAE37 CIG 013V031 SLP150 P0002 T00780061=
202205180951 SPECI KCLM 180951Z AUTO 28003KT 10SM SCT009 BKN020 BKN050 08/06 A2997 RMK AO2 RAE37 CIG 013V031 P0002=
202205180853 METAR KCLM 180853Z AUTO 26004KT 4SM -RA BR OVC042 08/06 A3002 RMK AO2 RAB09 SLP168 P0004 60004 T00830061 56040=
202205180753 METAR KCLM 180753Z AUTO 00000KT 10SM BKN070 OVC090 08/06 A3005 RMK AO2 SLP176 T00780056 401330039=
202205180653 METAR KCLM 180653Z AUTO 00000KT 10SM OVC110 09/06 A3009 RMK AO2 SLP192 T00890056=
202205180553 METAR KCLM 180553Z AUTO 00000KT 10SM SCT120 09/06 A3014 RMK AO2 SLP208 T00890056 10133 20089 58026=
202205180453 METAR KCLM 180453Z AUTO 25003KT 10SM CLR 09/05 A3018 RMK AO2 SLP220 T00940050=
202205180353 METAR KCLM 180353Z AUTO 29003KT 10SM FEW035 BKN060 09/05 A3019 RMK AO2 SLP225 T00940050=
202205180253 METAR KCLM 180253Z AUTO 30004KT 10SM FEW041 SCT055 BKN070 10/06 A3022 RMK AO2 SLP234 T01000056 58019=
202205180153 METAR KCLM 180153Z AUTO 30005KT 10SM BKN048 BKN070 12/05 A3024 RMK AO2 SLP242 T01170050=
202205180053 METAR KCLM 180053Z AUTO 33003KT 10SM FEW049 11/06 A3025 RMK AO2 SLP246 T01110056=
202205172353 METAR KCLM 172353Z AUTO 01004KT 10SM SCT042 BKN075 13/06 A3028 RMK AO2 SLP253 T01280056 10133 20106 58007=
202205172253 METAR KCLM 172253Z AUTO 33005KT 10SM OVC041 11/05 A3029 RMK AO2 SLP259 T01110050=
202205172153 METAR KCLM 172153Z AUTO 32005KT 10SM OVC042 11/05 A3030 RMK AO2 SLP260 T01110050=
202205172053 METAR KCLM 172053Z AUTO 34005KT 10SM BKN044 11/06 A3030 RMK AO2 SLP261 T01110056 50006=
202205171953 METAR KCLM 171953Z AUTO 33005KT 10SM OVC047 11/06 A3030 RMK AO2 SLP262 T01110056=
202205171853 METAR KCLM 171853Z AUTO VRB05KT 10SM FEW055 SCT070 11/06 A3029 RMK AO2 SLP259 T01110056=
202205171753 METAR KCLM 171753Z AUTO VRB04KT 10SM CLR 12/06 A3028 RMK AO2 SLP255 T01170056 10122 20061 51013=
202205171653 METAR KCLM 171653Z AUTO 03004KT 10SM CLR 12/05 A3027 RMK AO2 SLP251 T01170050=
202205171553 METAR KCLM 171553Z AUTO 00000KT 10SM FEW022 11/05 A3026 RMK AO2 SLP248 T01060050=
202205171453 METAR KCLM 171453Z AUTO 00000KT 10SM CLR 09/05 A3024 RMK AO2 SLP242 T00890050 53001=
202205171353 METAR KCLM 171353Z AUTO 00000KT 10SM FEW032 07/04 A3024 RMK AO2 SLP241 T00670044=
202205171253 METAR KCLM 171253Z AUTO 21003KT 10SM CLR 06/03 A3023 RMK AO2 SLP239 T00610033=
202205171153 METAR KCLM 171153Z AUTO 24007KT 10SM CLR 06/03 A3024 RMK AO2 SLP242 70002 T00610033 10072 20039 52001=
202205171053 METAR KCLM 171053Z AUTO 00000KT 10SM CLR 06/03 A3024 RMK AO2 SLP241 T00610033=
202205170953 METAR KCLM 170953Z AUTO 00000KT 10SM CLR 06/03 A3024 RMK AO2 SLP242 T00610033=
202205170853 METAR KCLM 170853Z AUTO 00000KT 10SM CLR 06/03 A3024 RMK AO2 SLP241 T00560033 53007=
202205170753 METAR KCLM 170753Z AUTO 24004KT 10SM CLR 04/02 A3023 RMK AO2 SLP238 T00440022 401330044=
202205170653 METAR KCLM 170653Z AUTO 00000KT 10SM CLR 05/02 A3022 RMK AO2 SLP236 T00500022=
202205170553 METAR KCLM 170553Z AUTO 25005KT 10SM CLR 07/03 A3022 RMK AO2 SLP234 T00720033 10122 20061 53007=
202205170453 METAR KCLM 170453Z AUTO 23004KT 10SM CLR 08/04 A3021 RMK AO2 SLP232 T00830044=
202205170353 METAR KCLM 170353Z AUTO 29009KT 10SM CLR 09/05 A3020 RMK AO2 SLP228 T00940050=
202205170253 METAR KCLM 170253Z AUTO 29012G20KT 10SM SCT029 10/05 A3020 RMK AO2 SLP227 T01000050 51003=
202205170250 SPECI KCLM 170250Z AUTO 29013G19KT 10SM SCT029 10/05 A3020 RMK AO2=
202205170243 SPECI KCLM 170243Z AUTO 30010G19KT 10SM BKN029 11/05 A3020 RMK AO2 T01060050=
202205170153 METAR KCLM 170153Z AUTO 28009G20KT 10SM CLR 11/06 A3019 RMK AO2 PK WND 28027/0119 SLP225 T01060056=
202205170053 METAR KCLM 170053Z AUTO 28015G25KT 10SM SCT070 11/06 A3019 RMK AO2 PK WND 29026/0030 SLP224 T01060056=
202205162353 METAR KCLM 162353Z AUTO 29013G22KT 10SM FEW070 12/04 A3018 RMK AO2 SLP221 60000 T01220044 10133 20106 51008=
202205162253 METAR KCLM 162253Z AUTO 30011G24KT 10SM CLR 13/05 A3017 RMK AO2 PK WND 31026/2214 SLP219 T01280050=
202205162153 METAR KCLM 162153Z AUTO 31015G31KT 280V340 10SM CLR 12/06 A3017 RMK AO2 PK WND 31031/2151 RAE11 SLP217 P0000 T01170061=
202205162120 SPECI KCLM 162120Z AUTO 30014G22KT 10SM FEW027 SCT034 12/06 A3015 RMK AO2 RAE11 P0000 T01170061=
202205162104 SPECI KCLM 162104Z AUTO 30013G22KT 10SM -RA BKN027 BKN034 12/07 A3016 RMK AO2 P0000 T01170067=
202205162053 METAR KCLM 162053Z AUTO 29010G22KT 10SM -RA SCT027 12/07 A3016 RMK AO2 PK WND 31028/2002 RAE15B48 SLP213 P0000 60000 T01170067 51019=
202205161953 METAR KCLM 161953Z AUTO 30014G24KT 10SM -RA BKN037 OVC045 11/06 A3015 RMK AO2 PK WND 30028/1933 RAB50 SLP209 P0000 T01110056=
202205161853 METAR KCLM 161853Z AUTO 31014G25KT 10SM FEW030 SCT070 12/06 A3012 RMK AO2 PK WND 29030/1816 SLP200 T01170061=
202205161753 METAR KCLM 161753Z AUTO 32014G26KT 10SM SCT070 12/06 A3010 RMK AO2 PK WND 32027/1739 SLP193 60002 T01170061 10128 20089 53026=
202205161653 METAR KCLM 161653Z AUTO 30014G23KT 10SM FEW018 FEW060 12/07 A3006 RMK AO2 SLP179 T01170067=
202205161553 METAR KCLM 161553Z AUTO 28014G22KT 10SM SCT012 11/08 A3004 RMK AO2 SLP172 T01110078=
202205161528 SPECI KCLM 161528Z AUTO 29017G24KT 10SM BKN014 10/07 A3003 RMK AO2 T01000072=
202205161453 METAR KCLM 161453Z AUTO 27011KT 10SM FEW070 11/07 A3002 RMK AO2 RAE00 SLP167 P0000 60002 T01060072 51015=
202205161353 METAR KCLM 161353Z AUTO 29008KT 10SM -RA BKN034 OVC050 09/07 A3001 RMK AO2 SLP163 P0001 T00890067=
202205161323 SPECI KCLM 161323Z AUTO 28010KT 10SM -RA SCT030 BKN043 OVC065 09/07 A3000 RMK AO2 P0001 T00890067=
202205161253 METAR KCLM 161253Z AUTO 29010G18KT 10SM -RA FEW012 OVC027 09/07 A2999 RMK AO2 SLP156 P0001 T00940072=
202205161240 SPECI KCLM 161240Z AUTO 29012G20KT 7SM -RA SCT004 SCT011 OVC027 09/08 A2999 RMK AO2 P0001 T00940078=
202205161153 METAR KCLM 161153Z AUTO 31012G23KT 5SM -RA BR OVC003 10/08 A2998 RMK AO2 RAB1054 SLP151 P0003 60003 70018 T01000083 10128 20100 53016=
202205161137 SPECI KCLM 161137Z AUTO 31015G24KT 7SM -RA BKN003 OVC018 10/08 A2997 RMK AO2 RAB1054 P0002 T01000083=
202205161129 SPECI KCLM 161129Z AUTO 31012G20KT 7SM -RA SCT002 BKN018 OVC065 10/08 A2997 RMK AO2 RAB1054 P0002 T01000083=
202205161053 METAR KCLM 161053Z AUTO 26004KT 9SM BKN015 OVC023 12/10 A2995 RMK AO2 RAB18E30 SLP141 P0000 T01170100=
202205160953 METAR KCLM 160953Z AUTO 00000KT 9SM OVC012 12/10 A2993 RMK AO2 SLP136 T01170100=
202205160853 METAR KCLM 160853Z AUTO 00000KT 6SM BR BKN012 OVC090 12/10 A2992 RMK AO2 SLP131 T01170100 53008=
202205160830 SPECI KCLM 160830Z AUTO 00000KT 8SM BKN013 OVC021 11/10 A2992 RMK AO2 T01110100=
202205160809 SPECI KCLM 160809Z AUTO 21003KT 7SM SCT012 BKN022 BKN080 11/09 A2991 RMK AO2 T01110094=
202205160753 METAR KCLM 160753Z AUTO 00000KT 10SM OVC013 12/11 A2991 RMK AO2 SLP129 T01170106 401390089=
202205160731 SPECI KCLM 160731Z AUTO 00000KT 9SM FEW009 BKN012 OVC025 12/11 A2991 RMK AO2 T01170106=
202205160724 SPECI KCLM 160724Z AUTO 00000KT 8SM SCT010 OVC025 12/10 A2990 RMK AO2 T01170100=
202205160712 SPECI KCLM 160712Z AUTO 24004KT 9SM BKN010 OVC025 12/11 A2990 RMK AO2 T01170106=
202205160653 METAR KCLM 160653Z AUTO 00000KT 9SM BKN009 BKN049 OVC055 12/10 A2990 RMK AO2 SLP124 T01170100=
202205160625 SPECI KCLM 160625Z AUTO 00000KT 9SM SCT010 BKN060 12/11 A2989 RMK AO2 T01170106=
202205160616 SPECI KCLM 160616Z AUTO 00000KT 10SM BKN010 BKN060 12/11 A2989 RMK AO2 T01220106=
202205160603 SPECI KCLM 160603Z AUTO 00000KT 10SM OVC009 13/11 A2989 RMK AO2 T01280111=
202205160553 METAR KCLM 160553Z AUTO 00000KT 10SM OVC011 13/11 A2989 RMK AO2 CIG 009V012 SLP123 60003 T01280111 10139 20122 51008=
202205160507 SPECI KCLM 160507Z AUTO 00000KT 8SM BKN011 OVC018 12/11 A2989 RMK AO2 T01220106=
202205160453 METAR KCLM 160453Z AUTO 00000KT 8SM FEW011 BKN018 OVC080 12/11 A2989 RMK AO2 RAE18 SLP121 P0001 T01220106=
202205160451 SPECI KCLM 160451Z AUTO 27003KT 9SM FEW011 BKN018 OVC080 12/11 A2988 RMK AO2 RAE18 P0001=
202205160444 SPECI KCLM 160444Z AUTO 24003KT 9SM FEW011 BKN048 OVC060 12/11 A2988 RMK AO2 RAE18 P0001 T01220106=
202205160431 SPECI KCLM 160431Z AUTO 00000KT 7SM SCT008 BKN018 OVC060 12/11 A2988 RMK AO2 RAE18 P0001 T01220111=
202205160411 SPECI KCLM 160411Z AUTO 00000KT 6SM -RA BR OVC006 12/11 A2987 RMK AO2 CIG 002V010 P0001 T01220111=
202205160353 METAR KCLM 160353Z AUTO 03003KT 8SM -RA OVC004 13/11 A2987 RMK AO2 RAB0258 CIG 002V007 SLP115 P0000 T01280111=
202205160300 SPECI KCLM 160300Z AUTO 00000KT 10SM -RA BKN005 BKN009 OVC070 13/12 A2985 RMK AO2 RAB0258 P0000 T01330117=
202205160253 METAR KCLM 160253Z AUTO 00000KT 10SM BKN004 OVC075 13/11 A2985 RMK AO2 SLP107 60002 T01330111 53002=
202205160215 SPECI KCLM 160215Z AUTO 00000KT 10SM BKN004 13/11 A2984 RMK AO2 T01280111=
202205160153 METAR KCLM 160153Z AUTO 32003KT 10SM SCT004 BKN065 BKN085 13/11 A2983 RMK AO2 SLP102 T01330111=
202205160134 SPECI KCLM 160134Z AUTO 30004KT 10SM SCT005 BKN065 OVC085 14/12 A2983 RMK AO2 T01390117=
202205160101 SPECI KCLM 160101Z AUTO 31004KT 10SM BKN006 OVC050 13/11 A2983 RMK AO2 T01330111=
202205160053 METAR KCLM 160053Z AUTO 28004KT 10SM SCT006 OVC050 13/11 A2983 RMK AO2 RAE45 SLP103 P0002 T01330111=
202205152353 METAR KCLM 152353Z AUTO 30004KT 8SM -RA FEW003 BKN050 OVC070 12/11 A2984 RMK AO2 RAB03 SLP105 P0001 60007 T01220106 10133 20106 55001=
202205152348 SPECI KCLM 152348Z AUTO 27003KT 7SM -RA SCT003 BKN014 OVC070 12/11 A2984 RMK AO2 RAB03 P0001=
202205152328 SPECI KCLM 152328Z AUTO 00000KT 4SM -RA BR BKN003 OVC015 12/10 A2983 RMK AO2 RAB03 CIG 002V006 P0001 T01170100=
202205152309 SPECI KCLM 152309Z AUTO 34004KT 8SM -RA FEW006 OVC015 12/09 A2984 RMK AO2 LTG DSNT W RAB03 P0000 T01170094=
202205152302 SPECI KCLM 152302Z AUTO 35003KT 10SM SCT006 OVC014 12/10 A2984 RMK AO2 T01220100=
202205152253 METAR KCLM 152253Z AUTO 00000KT 10SM BKN006 OVC014 12/10 A2984 RMK AO2 RAB06E27 SLP106 P0001 T01220100=
202205152205 SPECI KCLM 152205Z AUTO 02003KT 10SM FEW007 OVC013 12/09 A2985 RMK AO2 T01220094=
202205152153 METAR KCLM 152153Z AUTO VRB05KT 10SM OVC010 12/09 A2985 RMK AO2 SLP110 T01220089=
202205152053 METAR KCLM 152053Z AUTO 03004KT 10SM OVC010 13/10 A2987 RMK AO2 CIG 006V014 SLP115 60005 T01280100 58021=
202205152036 SPECI KCLM 152036Z AUTO VRB03KT 10SM SCT006 BKN011 13/10 A2988 RMK AO2 T01280100=
202205152020 SPECI KCLM 152020Z AUTO 03005KT 10SM BKN005 BKN070 13/10 A2988 RMK AO2 T01280100=
202205152010 SPECI KCLM 152010Z AUTO VRB03KT 10SM SCT003 BKN070 12/09 A2989 RMK AO2 T01220094=
202205151953 METAR KCLM 151953Z AUTO 03004KT 10SM BKN002 BKN060 OVC075 11/09 A2990 RMK AO2 RAE49 SLP126 P0002 T01110094=
202205151936 SPECI KCLM 151936Z AUTO VRB03KT 5SM -RA BR BKN002 OVC055 12/10 A2991 RMK AO2 P0002 T01170100=
202205151911 SPECI KCLM 151911Z AUTO VRB03KT 5SM -RA BR SCT002 BKN008 OVC070 11/09 A2992 RMK AO2 P0001 T01060089=
202205151853 METAR KCLM 151853Z AUTO 01003KT 7SM -RA FEW007 OVC070 12/09 A2991 RMK AO2 SLP131 P0003 T01170094=
202205151813 SPECI KCLM 151813Z AUTO 00000KT 6SM -RA BR FEW005 SCT012 OVC060 11/09 A2993 RMK AO2 P0002 T01110094=
202205151801 SPECI KCLM 151801Z AUTO 00000KT 5SM -RA BR SCT003 BKN007 OVC060 11/09 A2993 RMK AO2 P0001 T01110094=
202205151753 METAR KCLM 151753Z AUTO 30003KT 7SM -RA BKN003 BKN007 OVC055 11/09 A2993 RMK AO2 SLP137 P0002 60005 T01060089 10111 20089 56012=
202205151653 METAR KCLM 151653Z AUTO 32003KT 5SM -RA BR OVC002 10/09 A2994 RMK AO2 SLP138 P0001 T01000089=
202205151649 SPECI KCLM 151649Z AUTO 00000KT 2 1/2SM -RA BR OVC002 10/09 A2994 RMK AO2 P0001=
202205151630 SPECI KCLM 151630Z AUTO 00000KT 3/4SM -RA BR VV002 10/09 A2994 RMK AO2 P0001 T01000089=
202205151623 SPECI KCLM 151623Z AUTO 03003KT 1 3/4SM -RA BR BKN001 OVC011 10/09 A2994 RMK AO2 P0001 T01000089=
202205151553 METAR KCLM 151553Z AUTO 34003KT 4SM -RA BR BKN002 OVC070 10/09 A2995 RMK AO2 RAB12 SLP144 P0001 T01000089=
202205151501 SPECI KCLM 151501Z AUTO 00000KT 10SM FEW005 SCT050 OVC070 11/09 A2997 RMK AO2 T01060089=
202205151453 METAR KCLM 151453Z AUTO 00000KT 10SM OVC070 11/09 A2997 RMK AO2 RAB1356E41 SLP149 P0000 60001 T01060089 56015=
202205151353 METAR KCLM 151353Z AUTO 00000KT 10SM BKN070 OVC085 10/08 A2999 RMK AO2 RAB26E53 SLP155 P0001 T01000083=
202205151253 METAR KCLM 151253Z AUTO 23003KT 10SM BKN070 OVC090 09/08 A3000 RMK AO2 RAB08E47 SLP158 P0000 T00940078=
202205151153 METAR KCLM 151153Z AUTO 00000KT 10SM OVC070 09/08 A3001 RMK AO2 SLP164 T00940078 10106 20094 56021=
202205151053 METAR KCLM 151053Z AUTO 00000KT 10SM OVC080 09/08 A3003 RMK AO2 SLP170 T00940078=
202205150953 METAR KCLM 150953Z AUTO 22003KT 10SM FEW060 BKN080 OVC095 10/08 A3005 RMK AO2 SLP176 T01000078=
202205150853 METAR KCLM 150853Z AUTO 22003KT 10SM OVC075 10/08 A3008 RMK AO2 SLP186 T01000078 58005=
202205150753 METAR KCLM 150753Z AUTO 00000KT 10SM OVC100 11/08 A3009 RMK AO2 SLP190 T01060078 401440050=
202205150653 METAR KCLM 150653Z AUTO 26006KT 10SM BKN120 11/08 A3009 RMK AO2 SLP191 T01060078=
202205150553 METAR KCLM 150553Z AUTO 24005KT 10SM CLR 10/07 A3009 RMK AO2 SLP191 T01000072 10144 20083 50008=
202205150453 METAR KCLM 150453Z AUTO 23003KT 10SM CLR 08/06 A3010 RMK AO2 SLP192 T00830061=
202205150353 METAR KCLM 150353Z AUTO 00000KT 10SM CLR 11/07 A3008 RMK AO2 SLP186 T01060072=
202205150253 METAR KCLM 150253Z AUTO 27003KT 10SM CLR 12/07 A3007 RMK AO2 SLP183 T01170072 53009=
202205150153 METAR KCLM 150153Z AUTO VRB03KT 10SM FEW070 13/06 A3006 RMK AO2 SLP179 T01330061=
202205150053 METAR KCLM 150053Z AUTO 00000KT 10SM BKN065 14/07 A3005 RMK AO2 SLP177 T01440072=
202205142353 METAR KCLM 142353Z AUTO 33004KT 10SM OVC070 13/08 A3004 RMK AO2 SLP174 T01330078 10144 20094 51007=
202205142253 METAR KCLM 142253Z AUTO 00000KT 10SM OVC075 12/07 A3004 RMK AO2 SLP173 T01220072=
202205142153 METAR KCLM 142153Z AUTO VRB04KT 10SM BKN075 11/07 A3003 RMK AO2 SLP170 T01110067=
202205142116 SPECI KCLM 142116Z AUTO 00000KT 10SM FEW013 SCT075 12/07 A3002 RMK AO2 T01220072=
202205142053 METAR KCLM 142053Z AUTO 34004KT 10SM BKN013 12/08 A3002 RMK AO2 SLP167 T01170078 51012=
202205141953 METAR KCLM 141953Z AUTO 03005KT 10SM OVC012 11/07 A3002 RMK AO2 SLP167 T01110072=
202205141853 METAR KCLM 141853Z AUTO VRB04KT 10SM OVC010 09/07 A3001 RMK AO2 SLP161 T00940067=
202205141822 SPECI KCLM 141822Z AUTO VRB04KT 10SM OVC010 09/07 A2999 RMK AO2 T00940067=
202205141753 METAR KCLM 141753Z AUTO 03006KT 10SM OVC008 09/07 A2999 RMK AO2 SLP155 60000 T00940067 10100 20050 53014=
202205141711 SPECI KCLM 141711Z AUTO 03006KT 10SM BKN006 OVC019 09/07 A2998 RMK AO2 CIG 005V011 T00890067=
202205141653 METAR KCLM 141653Z AUTO VRB05KT 10SM FEW006 OVC019 09/06 A2997 RMK AO2 SLP151 T00940061=
202205141614 SPECI KCLM 141614Z AUTO VRB04KT 10SM BKN016 OVC021 09/06 A2996 RMK AO2 T00940061=
202205141553 METAR KCLM 141553Z AUTO 30003KT 10SM OVC014 09/06 A2995 RMK AO2 SLP144 T00940061=
202205141534 SPECI KCLM 141534Z AUTO 34005KT 10SM BKN014 OVC070 10/06 A2995 RMK AO2 T01000061=
202205141453 METAR KCLM 141453Z AUTO 25004KT 10SM SCT011 BKN065 09/06 A2994 RMK AO2 SLP140 60000 T00940061 53002=
202205141353 METAR KCLM 141353Z AUTO 20003KT 10SM SCT060 BKN075 07/06 A2993 RMK AO2 SLP136 T00720056=
202205141253 METAR KCLM 141253Z AUTO 00000KT 10SM OVC060 07/05 A2993 RMK AO2 RAB07E32 SLP136 P0000 T00670050=
202205141153 METAR KCLM 141153Z AUTO 00000KT 10SM BKN070 06/04 A2994 RMK AO2 SLP139 60000 T00610044 10083 20056 56010=
202205141053 METAR KCLM 141053Z AUTO 14004KT 10SM FEW120 07/04 A2994 RMK AO2 RAB0954E10 SLP140 P0000 T00670044=
202205140953 METAR KCLM 140953Z AUTO 24005KT 10SM OVC060 08/05 A2996 RMK AO2 SLP146 T00780050=
202205140853 METAR KCLM 140853Z AUTO 00000KT 10SM BKN060 OVC075 08/06 A2997 RMK AO2 SLP149 T00780056 56012=
202205140753 METAR KCLM 140753Z AUTO 00000KT 10SM OVC070 08/06 A2998 RMK AO2 SLP151 T00780056 401220006=
202205140653 METAR KCLM 140653Z AUTO 00000KT 10SM BKN070 OVC095 08/06 A2999 RMK AO2 SLP155 T00830056=
202205140553 METAR KCLM 140553Z AUTO 27005KT 10SM BKN070 BKN085 OVC100 08/05 A3001 RMK AO2 SLP161 60000 T00830050 10122 20078 58021=
202205140453 METAR KCLM 140453Z AUTO 27007KT 10SM BKN049 BKN095 08/05 A3004 RMK AO2 SLP172 T00830050=
202205140353 METAR KCLM 140353Z AUTO 26005KT 10SM CLR 09/05 A3005 RMK AO2 SLP176 T00890050=
202205140253 METAR KCLM 140253Z AUTO 27004KT 10SM FEW110 10/06 A3007 RMK AO2 RAE02 SLP183 P0000 60000 T01000056 58024=
202205140153 METAR KCLM 140153Z AUTO 26003KT 10SM -RA OVC060 11/06 A3009 RMK AO2 RAE14B47 SLP192 P0000 T01060056=
202205140053 METAR KCLM 140053Z AUTO 00000KT 7SM -RA FEW035 BKN047 OVC055 11/04 A3012 RMK AO2 RAB48 SLP200 P0000 T01110039=
202205132353 METAR KCLM 132353Z AUTO 12005KT 10SM SCT044 BKN055 BKN085 12/04 A3014 RMK AO2 SLP209 T01220044 10122 20094 58019=
202205132253 METAR KCLM 132253Z AUTO 07005KT 10SM FEW050 12/04 A3016 RMK AO2 SLP215 T01170044=
202205132153 METAR KCLM 132153Z AUTO 09008KT 10SM SCT046 BKN080 12/05 A3018 RMK AO2 SLP220 T01220050=
202205132053 METAR KCLM 132053Z AUTO VRB05KT 10SM OVC075 11/05 A3020 RMK AO2 SLP228 T01110050 56009=
202205131953 METAR KCLM 131953Z AUTO VRB06KT 10SM SCT070 11/04 A3020 RMK AO2 SLP229 T01110044=
202205131853 METAR KCLM 131853Z AUTO 07006KT 10SM CLR 10/04 A3022 RMK AO2 SLP234 T01000039=
202205131753 METAR KCLM 131753Z AUTO 08008KT 10SM CLR 09/03 A3023 RMK AO2 SLP237 T00940033 10106 20006 58001=
202205131653 METAR KCLM 131653Z AUTO 04004KT 10SM CLR 10/03 A3023 RMK AO2 SLP239 T01000028=
202205131553 METAR KCLM 131553Z AUTO VRB04KT 10SM CLR 10/01 A3023 RMK AO2 SLP239 T01000011=
202205131453 METAR KCLM 131453Z AUTO 23004KT 10SM OVC075 08/02 A3023 RMK AO2 SLP239 T00780017 53012=
202205131353 METAR KCLM 131353Z AUTO 00000KT 10SM CLR 02/01 A3022 RMK AO2 SLP235 T00220006=
202205131253 METAR KCLM 131253Z AUTO 00000KT 10SM CLR 02/M01 A3020 RMK AO2 SLP229 T00171011=
202205131153 METAR KCLM 131153Z AUTO 25005KT 10SM CLR 03/00 A3019 RMK AO2 SLP227 70012 T00280000 10056 20028 51015=
202205131053 METAR KCLM 131053Z AUTO 21007KT 10SM CLR 05/M01 A3018 RMK AO2 SLP221 T00501006=
202205130953 METAR KCLM 130953Z AUTO 25009KT 10SM CLR 04/01 A3017 RMK AO2 SLP217 T00440006=
202205130853 METAR KCLM 130853Z AUTO 24010KT 10SM CLR 04/01 A3015 RMK AO2 SLP212 T00440006 53014=
202205130753 METAR KCLM 130753Z AUTO 24009KT 10SM CLR 05/01 A3013 RMK AO2 SLP206 T00500006 401000039=
202205130653 METAR KCLM 130653Z AUTO 23011KT 10SM CLR 06/01 A3012 RMK AO2 SLP201 T00560006=
202205130553 METAR KCLM 130553Z AUTO 25009KT 10SM CLR 05/01 A3011 RMK AO2 SLP197 60004 T00500011 10100 20044 51016=
202205130453 METAR KCLM 130453Z AUTO 27007KT 10SM CLR 05/01 A3010 RMK AO2 SLP195 T00500011=
202205130353 METAR KCLM 130353Z AUTO 25008KT 10SM BKN050 06/02 A3008 RMK AO2 RAE07 SLP187 P0000 T00610017=
202205130312 SPECI KCLM 130312Z AUTO 25007KT 10SM SCT029 SCT049 BKN120 06/02 A3006 RMK AO2 RAE07 P0000 T00610022=
202205130253 METAR KCLM 130253Z AUTO 25008KT 8SM -RA BKN029 OVC038 07/03 A3006 RMK AO2 PK WND 28030/0231 RAB31 SLP182 P0004 60004 T00670028 51028=
202205130243 SPECI KCLM 130243Z AUTO 27012G22KT 4SM -RA BKN025 OVC049 06/02 A3006 RMK AO2 PK WND 28030/0231 RAB31 P0003 T00610022=
202205130153 METAR KCLM 130153Z AUTO 29009KT 10SM SCT050 09/02 A3003 RMK AO2 SLP170 T00890017=
202205130053 METAR KCLM 130053Z AUTO 30011G20KT 10SM FEW029 BKN070 OVC090 08/03 A3002 RMK AO2 PK WND 27027/0019 RAB24E40 SLP166 P0000 T00830033=
202205130001 SPECI KCLM 130001Z AUTO 10SM SCT014 BKN043 OVC070 10/04 A2998 RMK AO2 T01000044=
202205122353 METAR KCLM 122353Z AUTO 00000KT 10SM SCT014 BKN022 OVC050 09/06 A2998 RMK AO2 RAE08 SLP153 P0000 60008 T00940056 10094 20061 51020=
202205122339 SPECI KCLM 122339Z AUTO 00000KT 10SM BKN014 BKN032 OVC060 08/05 A2997 RMK AO2 RAE08 P0000 T00830050=
202205122253 METAR KCLM 122253Z AUTO 29004KT 4SM -RA BR OVC032 07/05 A2996 RMK AO2 RAE14B30 SLP148 P0005 T00720050=
202205122251 SPECI KCLM 122251Z AUTO 30004KT 3SM -RA BR BKN030 OVC035 07/05 A2996 RMK AO2 RAE14B30 P0005=
202205122242 SPECI KCLM 122242Z AUTO 30006KT 2SM RA BR FEW011 BKN030 OVC036 07/05 A2996 RMK AO2 RAE14B30 P0003 T00720050=
202205122225 SPECI KCLM 122225Z AUTO 31007KT 10SM SCT011 OVC030 08/04 A2996 RMK AO2 RAE14 P0000 T00780044=
202205122214 SPECI KCLM 122214Z AUTO 28008KT 10SM FEW011 BKN029 OVC046 08/04 A2995 RMK AO2 RAE14 P0000 T00780044=
202205122153 METAR KCLM 122153Z AUTO 31005KT 7SM -RA FEW012 SCT024 OVC046 07/04 A2995 RMK AO2 SLP142 P0001 T00720044=
202205122145 SPECI KCLM 122145Z AUTO 33008KT 8SM -RA SCT012 BKN035 OVC046 07/04 A2994 RMK AO2 P0001 T00720044=
202205122110 SPECI KCLM 122110Z AUTO VRB05KT 10SM -RA OVC010 07/04 A2993 RMK AO2 CIG 007V013 P0000 T00720044=
202205122053 METAR KCLM 122053Z AUTO 32006KT 10SM -RA BKN009 BKN025 OVC055 07/04 A2992 RMK AO2 SLP133 P0000 60002 T00720044 57001=
202205122037 SPECI KCLM 122037Z AUTO 30006KT 10SM -RA SCT008 BKN023 OVC060 07/04 A2992 RMK AO2 P0000 T00670044=
202205122004 SPECI KCLM 122004Z AUTO 28007KT 10SM -RA BKN008 BKN022 OVC048 07/04 A2991 RMK AO2 P0000 T00670044=
202205121953 METAR KCLM 121953Z AUTO 30007KT 8SM -RA SCT008 BKN024 OVC048 07/04 A2991 RMK AO2 SLP132 P0001 T00670044=
202205121931 SPECI KCLM 121931Z AUTO 29008G19KT 10SM -RA FEW009 SCT012 OVC024 07/04 A2992 RMK AO2 P0000 T00670039=
202205121924 SPECI KCLM 121924Z AUTO 29010KT 10SM -RA FEW007 BKN012 OVC025 07/04 A2992 RMK AO2 P0000 T00670044=
202205121853 METAR KCLM 121853Z AUTO 30010G19KT 8SM -RA OVC007 07/05 A2993 RMK AO2 RAB14 SLP136 P0001 T00670050=
202205121817 SPECI KCLM 121817Z AUTO 31009KT 10SM -RA BKN009 OVC014 08/05 A2993 RMK AO2 RAB14 CIG 007V012 P0000 T00780050=
202205121753 METAR KCLM 121753Z AUTO 32009KT 10SM OVC010 08/05 A2992 RMK AO2 CIG 007V013 SLP134 T00780050 10100 20050 50000=
202205121734 SPECI KCLM 121734Z AUTO 30009KT 10SM BKN008 OVC013 08/06 A2992 RMK AO2 CIG 007V012 T00830056=
202205121719 SPECI KCLM 121719Z AUTO 31009G15KT 10SM FEW009 BKN013 OVC055 09/06 A2992 RMK AO2 T00940056=
202205121653 METAR KCLM 121653Z AUTO 28008KT 10SM FEW012 BKN065 09/06 A2993 RMK AO2 SLP135 T00940061=
202205121602 SPECI KCLM 121602Z AUTO 23006KT 10SM SCT010 08/06 A2993 RMK AO2 T00830056=
202205121553 METAR KCLM 121553Z AUTO 00000KT 10SM BKN010 08/06 A2992 RMK AO2 SLP133 T00830056=
202205121453 METAR KCLM 121453Z AUTO 25003KT 10SM FEW011 07/05 A2994 RMK AO2 SLP139 T00720050 56012=
202205121353 METAR KCLM 121353Z AUTO 00000KT 10SM CLR 06/04 A2994 RMK AO2 SLP140 T00610039=
202205121253 METAR KCLM 121253Z AUTO 00000KT 10SM FEW070 05/03 A2996 RMK AO2 SLP145 T00500028=
202205121153 METAR KCLM 121153Z AUTO 00000KT 10SM CLR 05/03 A2998 RMK AO2 SLP152 T00500028 10083 20039 58020=
202205121053 METAR KCLM 121053Z AUTO 00000KT 10SM CLR 04/03 A3000 RMK AO2 SLP158 T00440028=
202205120953 METAR KCLM 120953Z AUTO 00000KT 10SM CLR 05/03 A3002 RMK AO2 SLP166 T00500033=
202205120853 METAR KCLM 120853Z AUTO 00000KT 10SM CLR 06/03 A3003 RMK AO2 SLP172 T00560033 58016=
202205120753 METAR KCLM 120753Z AUTO 00000KT 10SM CLR 07/04 A3006 RMK AO2 SLP179 T00670044 401220033=
202205120653 METAR KCLM 120653Z AUTO 00000KT 10SM CLR 07/05 A3007 RMK AO2 SLP183 T00720050=
202205120553 METAR KCLM 120553Z AUTO 19003KT 10SM CLR 08/05 A3008 RMK AO2 SLP187 T00780050 10111 20072 58008=
202205120453 METAR KCLM 120453Z AUTO 08003KT 10SM CLR 08/05 A3009 RMK AO2 SLP190 T00780050=
202205120353 METAR KCLM 120353Z AUTO 33006KT 10SM FEW019 FEW050 09/05 A3011 RMK AO2 SLP198 T00890050=
202205120253 METAR KCLM 120253Z AUTO 30005KT 10SM FEW055 FEW070 09/06 A3010 RMK AO2 SLP195 T00940056 56005=
202205120153 METAR KCLM 120153Z AUTO 31011KT 10SM BKN070 10/06 A3010 RMK AO2 SLP196 T01000056=
202205120053 METAR KCLM 120053Z AUTO 31009KT 10SM FEW075 FEW090 11/06 A3011 RMK AO2 SLP199 T01110061=
202205112353 METAR KCLM 112353Z AUTO 28008KT 10SM SCT049 OVC070 11/06 A3012 RMK AO2 SLP200 T01060056 10122 20094 56009=
202205112253 METAR KCLM 112253Z AUTO 31007KT 10SM CLR 12/02 A3012 RMK AO2 SLP201 T01220022=
202205112153 METAR KCLM 112153Z AUTO VRB04KT 10SM FEW070 BKN085 12/03 A3013 RMK AO2 SLP204 T01220028=
202205112053 METAR KCLM 112053Z AUTO 36004KT 10SM FEW050 SCT060 BKN085 11/06 A3015 RMK AO2 SLP210 T01110056 58014=
202205111953 METAR KCLM 111953Z AUTO 03003KT 10SM FEW044 BKN070 OVC085 11/06 A3017 RMK AO2 SLP218 T01060056=
202205111853 METAR KCLM 111853Z AUTO VRB03KT 10SM OVC065 10/06 A3018 RMK AO2 SLP221 T01000056=
202205111753 METAR KCLM 111753Z AUTO 08006KT 10SM SCT065 11/06 A3019 RMK AO2 SLP223 T01110061 10117 20033 58009=
202205111653 METAR KCLM 111653Z AUTO VRB05KT 10SM CLR 11/06 A3020 RMK AO2 SLP226 T01060056=
202205111553 METAR KCLM 111553Z AUTO 01003KT 10SM CLR 10/05 A3021 RMK AO2 SLP232 T01000050=
202205111453 METAR KCLM 111453Z AUTO 25003KT 10SM CLR 08/04 A3022 RMK AO2 SLP233 T00830044 56004=
202205111353 METAR KCLM 111353Z AUTO 26003KT 10SM CLR 06/03 A3022 RMK AO2 SLP235 T00560028=
202205111253 METAR KCLM 111253Z AUTO 00000KT 10SM FEW048 04/02 A3022 RMK AO2 SLP234 T00440022=
202205111153 METAR KCLM 111153Z AUTO 24005KT 10SM OVC031 06/03 A3023 RMK AO2 SLP237 T00560033 10072 20033 55004=
202205111053 METAR KCLM 111053Z AUTO 22004KT 10SM CLR 03/02 A3022 RMK AO2 SLP236 T00330017=
202205110953 METAR KCLM 110953Z AUTO 00000KT 10SM OVC037 06/04 A3024 RMK AO2 SLP240 T00610039=
202205110853 METAR KCLM 110853Z AUTO 00000KT 10SM CLR 04/02 A3024 RMK AO2 SLP242 T00390022 58003=
202205110753 METAR KCLM 110753Z AUTO 23003KT 10SM CLR 05/03 A3025 RMK AO2 SLP244 T00500033 401220022=
202205110653 METAR KCLM 110653Z AUTO 23003KT 10SM CLR 06/04 A3024 RMK AO2 SLP242 T00610044=
202205110553 METAR KCLM 110553Z AUTO 00000KT 10SM FEW060 07/04 A3025 RMK AO2 SLP244 60000 T00720044 10111 20067 50001=
202205110453 METAR KCLM 110453Z AUTO 26006KT 10SM BKN046 OVC060 08/06 A3026 RMK AO2 SLP247 T00830056=
202205110353 METAR KCLM 110353Z AUTO 27005KT 10SM BKN038 OVC045 09/06 A3025 RMK AO2 RAE0255B23E41 SLP244 P0000 T00940061=
202205110331 SPECI KCLM 110331Z AUTO 27005KT 10SM -RA SCT024 OVC040 09/06 A3025 RMK AO2 RAE0255B23 P0000 T00940061=
202205110302 SPECI KCLM 110302Z AUTO 00000KT 10SM BKN021 BKN044 OVC055 10/06 A3024 RMK AO2 RAE0255 P0000 T01000061=
202205110253 METAR KCLM 110253Z AUTO 00000KT 10SM -RA SCT023 BKN045 OVC060 09/06 A3024 RMK AO2 RAB42 SLP242 P0000 60000 T00940056 52003=
202205110153 METAR KCLM 110153Z AUTO 27004KT 10SM BKN036 OVC045 09/06 A3024 RMK AO2 RAB16E26 SLP241 P0000 T00940056=
202205110053 METAR KCLM 110053Z AUTO 31005KT 10SM OVC039 10/04 A3024 RMK AO2 SLP241 T01000044=
202205102353 METAR KCLM 102353Z AUTO 31006KT 10SM BKN042 11/05 A3023 RMK AO2 SLP240 T01110050 10122 20100 51007=
202205102253 METAR KCLM 102253Z AUTO 31008KT 10SM SCT040 BKN050 OVC060 11/04 A3023 RMK AO2 SLP239 T01110039=
202205102153 METAR KCLM 102153Z AUTO 08004KT 10SM BKN055 12/04 A3022 RMK AO2 SLP237 T01170039=
202205102053 METAR KCLM 102053Z AUTO VRB04KT 10SM SCT047 11/04 A3021 RMK AO2 SLP232 T01110039 51008=
202205101953 METAR KCLM 101953Z AUTO 34005KT 10SM CLR 11/04 A3021 RMK AO2 SLP232 T01110039=
202205101853 METAR KCLM 101853Z AUTO 00000KT 10SM SCT049 11/04 A3020 RMK AO2 SLP228 T01110039=
202205101753 METAR KCLM 101753Z AUTO VRB06KT 10SM SCT060 10/04 A3019 RMK AO2 SLP225 T01000039 10111 20022 53011=
202205101653 METAR KCLM 101653Z AUTO 09006KT 10SM CLR 11/04 A3017 RMK AO2 SLP218 T01060044=
202205101553 METAR KCLM 101553Z AUTO 00000KT 10SM CLR 09/02 A3017 RMK AO2 SLP216 T00940022=
202205101453 METAR KCLM 101453Z AUTO 24005KT 10SM CLR 08/02 A3016 RMK AO2 SLP213 T00830017 53020=
202205101353 METAR KCLM 101353Z AUTO 24008KT 10SM SCT050 06/01 A3013 RMK AO2 SLP203 T00610011=
202205101253 METAR KCLM 101253Z AUTO 23006KT 10SM SCT038 SCT050 04/01 A3010 RMK AO2 SLP196 T00390006=
202205101153 METAR KCLM 101153Z AUTO 24004KT 10SM FEW055 04/01 A3010 RMK AO2 SLP194 T00390006 10061 20039 51010=
202205101053 METAR KCLM 101053Z AUTO 25005KT 10SM CLR 04/01 A3009 RMK AO2 SLP192 T00440006=
202205100953 METAR KCLM 100953Z AUTO 24006KT 10SM CLR 04/01 A3007 RMK AO2 SLP186 T00390006=
202205100853 METAR KCLM 100853Z AUTO 25007KT 10SM CLR 06/01 A3007 RMK AO2 SLP183 T00560011 52011=
202205100753 METAR KCLM 100753Z AUTO 24003KT 10SM CLR 04/02 A3006 RMK AO2 SLP180 T00440017 401280044=
202205100653 METAR KCLM 100653Z AUTO 27006KT 10SM CLR 05/02 A3005 RMK AO2 SLP175 T00500017=
202205100553 METAR KCLM 100553Z AUTO 25006KT 10SM CLR 06/02 A3003 RMK AO2 SLP172 T00560017 10117 20056 52014=
202205100453 METAR KCLM 100453Z AUTO 25006KT 10SM FEW055 07/02 A3002 RMK AO2 SLP168 T00720022=
202205100353 METAR KCLM 100353Z AUTO 25006KT 10SM BKN055 09/03 A3000 RMK AO2 SLP160 T00890028=
202205100253 METAR KCLM 100253Z AUTO 28005KT 10SM FEW060 10/03 A2999 RMK AO2 SLP157 T01000028 53010=
202205100153 METAR KCLM 100153Z AUTO 30005KT 10SM FEW024 SCT055 11/04 A2998 RMK AO2 SLP153 T01110044=
202205100053 METAR KCLM 100053Z AUTO 31004KT 10SM BKN049 OVC060 11/04 A2997 RMK AO2 SLP150 T01060039=
202205092353 METAR KCLM 092353Z AUTO 29009G16KT 10SM OVC050 11/05 A2996 RMK AO2 SLP146 60000 T01110050 10128 20094 53011=
202205092253 METAR KCLM 092253Z AUTO 32010G21KT 290V360 10SM FEW045 BKN060 11/05 A2994 RMK AO2 RAE01 SLP140 P0000 T01110050=
202205092153 METAR KCLM 092153Z AUTO 33011G20KT 290V360 10SM -RA BKN039 OVC055 10/05 A2993 RMK AO2 RAB35 SLP138 P0000 T01000050=
202205092053 METAR KCLM 092053Z AUTO 32008G17KT 280V020 10SM CLR 12/06 A2993 RMK AO2 PK WND 30026/1959 SLP135 T01220056 50006=
202205091953 METAR KCLM 091953Z AUTO 32014G23KT 10SM FEW016 11/05 A2993 RMK AO2 SLP135 T01060050=
202205091853 METAR KCLM 091853Z AUTO 36007KT 330V040 10SM CLR 12/05 A2991 RMK AO2 SLP131 T01170050=
202205091753 METAR KCLM 091753Z AUTO VRB05KT 10SM BKN050 10/04 A2991 RMK AO2 SLP130 T01000039 10111 20044 53012=
202205091653 METAR KCLM 091653Z AUTO 36003KT 10SM CLR 11/02 A2989 RMK AO2 SLP123 T01110022=
202205091553 METAR KCLM 091553Z AUTO 26008KT 10SM BKN065 08/01 A2988 RMK AO2 SLP121 T00830006=
202205091453 METAR KCLM 091453Z AUTO 24010KT 10SM OVC060 06/00 A2987 RMK AO2 SLP118 T00610000 53015=
202205091353 METAR KCLM 091353Z AUTO 27010KT 10SM SCT060 04/00 A2986 RMK AO2 SLP113 T00440000=
202205091253 METAR KCLM 091253Z AUTO 29010KT 10SM OVC050 04/00 A2984 RMK AO2 SLP106 T00440000=
202205091153 METAR KCLM 091153Z AUTO 24010KT 10SM OVC048 05/01 A2983 RMK AO2 SLP103 T00500006 10061 20044 52009=
202205091053 METAR KCLM 091053Z AUTO 24010KT 10SM SCT047 05/01 A2982 RMK AO2 SLP101 T00500006=
202205090953 METAR KCLM 090953Z AUTO 24011KT 10SM CLR 06/01 A2981 RMK AO2 SLP096 T00560006=
202205090853 METAR KCLM 090853Z AUTO 25012KT 10SM CLR 05/01 A2980 RMK AO2 SLP094 T00500011 53005=
202205090753 METAR KCLM 090753Z AUTO 24013G20KT 10SM CLR 06/02 A2979 RMK AO2 SLP088 T00560017 401170028=
202205090653 METAR KCLM 090653Z AUTO 25011KT 10SM CLR 06/02 A2979 RMK AO2 SLP088 T00610017=
202205090553 METAR KCLM 090553Z AUTO 24009KT 10SM CLR 06/02 A2979 RMK AO2 SLP089 60000 T00560022 10111 20056 53008=
202205090453 METAR KCLM 090453Z AUTO 25008KT 10SM FEW040 07/03 A2978 RMK AO2 SLP086 T00670033=
202205090353 METAR KCLM 090353Z AUTO 25005KT 10SM CLR 06/03 A2977 RMK AO2 RAE05 SLP083 P0000 T00610028=
202205090311 SPECI KCLM 090311Z AUTO 28006KT 10SM FEW025 SCT029 BKN034 07/04 A2976 RMK AO2 RAE05 P0000 T00720039=
202205090253 METAR KCLM 090253Z AUTO 29008G17KT 5SM -RA BKN028 BKN037 OVC043 08/03 A2977 RMK AO2 RAB48 SLP081 P0000 60000 T00830033 55001=
202205090153 METAR KCLM 090153Z AUTO 26007KT 10SM FEW034 09/03 A2976 RMK AO2 SLP080 T00940033=
202205090053 METAR KCLM 090053Z AUTO 28010G19KT 10SM SCT031 BKN044 10/03 A2977 RMK AO2 SLP082 T01000028=
202205090014 SPECI KCLM 090014Z AUTO 29009KT 10SM BKN027 BKN036 11/04 A2977 RMK AO2 T01060039=
202205082353 METAR KCLM 082353Z AUTO 30011G19KT 10SM SCT033 09/03 A2977 RMK AO2 SLP082 T00940028 10117 20094 53002=
202205082253 METAR KCLM 082253Z AUTO 32011G21KT 10SM FEW031 11/04 A2977 RMK AO2 SLP081 T01060039=
202205082153 METAR KCLM 082153Z AUTO 33010G17KT 10SM CLR 11/03 A2976 RMK AO2 SLP079 T01060033=
202205082053 METAR KCLM 082053Z AUTO 33007G17KT 10SM CLR 09/03 A2976 RMK AO2 SLP081 T00940033 55002=
202205081953 METAR KCLM 081953Z AUTO 31010KT 10SM CLR 11/02 A2976 RMK AO2 SLP077 T01110022=
202205081853 METAR KCLM 081853Z AUTO 31010G15KT 10SM CLR 10/02 A2976 RMK AO2 SLP080 T01000017=
202205081753 METAR KCLM 081753Z AUTO 31008KT 10SM CLR 10/03 A2977 RMK AO2 SLP081 T01000028 10100 20028 56003=
202205081653 METAR KCLM 081653Z AUTO 33006KT 10SM CLR 09/03 A2977 RMK AO2 SLP082 T00890033=
202205081628 SPECI KCLM 081628Z AUTO 34008KT 10SM SCT025 08/03 A2977 RMK AO2 T00830033=
202205081618 SPECI KCLM 081618Z AUTO 36006KT 10SM BKN025 09/03 A2977 RMK AO2 T00890028=
202205081553 METAR KCLM 081553Z AUTO VRB03KT 10SM FEW023 09/03 A2977 RMK AO2 SLP082 T00890028=
202205081453 METAR KCLM 081453Z AUTO 26004KT 10SM CLR 07/02 A2978 RMK AO2 SLP084 T00720022 56005=
202205081353 METAR KCLM 081353Z AUTO 23003KT 10SM BKN036 05/02 A2979 RMK AO2 SLP088 T00500022=
202205081253 METAR KCLM 081253Z AUTO 24003KT 10SM FEW038 BKN050 03/02 A2979 RMK AO2 SLP088 T00330017=
202205081153 METAR KCLM 081153Z AUTO 24003KT 10SM SCT037 05/02 A2979 RMK AO2 SLP090 60001 70001 T00500017 10072 20044 58006=
202205081053 METAR KCLM 081053Z AUTO 00000KT 10SM OVC036 04/03 A2980 RMK AO2 SLP093 T00440028=
202205080953 METAR KCLM 080953Z AUTO 00000KT 10SM BKN033 OVC060 06/03 A2981 RMK AO2 SLP094 T00560033=
202205080921 SPECI KCLM 080921Z AUTO 00000KT 10SM SCT020 SCT025 BKN037 06/03 A2981 RMK AO2 T00560028=
202205080853 METAR KCLM 080853Z AUTO 30003KT 10SM BKN027 BKN033 OVC055 05/03 A2981 RMK AO2 RAB0758E23 SLP096 P0001 60001 T00500033 58006=
202205080753 METAR KCLM 080753Z AUTO 23003KT 10SM BKN023 BKN033 OVC050 07/03 A2982 RMK AO2 SLP099 T00670028 401280067=
202205080751 SPECI KCLM 080751Z AUTO 22003KT 10SM BKN023 BKN033 OVC050 07/03 A2982 RMK AO2=
202205080731 SPECI KCLM 080731Z AUTO 23003KT 10SM SCT023 BKN035 OVC049 07/03 A2982 RMK AO2 T00670028=
202205080653 METAR KCLM 080653Z AUTO 00000KT 10SM BKN024 BKN031 OVC038 07/03 A2983 RMK AO2 SLP102 T00670028=
202205080553 METAR KCLM 080553Z AUTO 18003KT 10SM SCT030 BKN075 07/02 A2984 RMK AO2 SLP106 T00670022 10117 20067 58003=
202205080453 METAR KCLM 080453Z AUTO 23004KT 10SM OVC060 07/02 A2985 RMK AO2 SLP108 T00670022=
202205080353 METAR KCLM 080353Z AUTO 29007KT 10SM FEW060 BKN080 08/02 A2985 RMK AO2 SLP107 T00780017=
202205080253 METAR KCLM 080253Z AUTO 31007KT 10SM FEW085 09/02 A2985 RMK AO2 SLP108 T00890022 56007=
202205080153 METAR KCLM 080153Z AUTO 29013G21KT 10SM SCT075 11/02 A2985 RMK AO2 SLP110 T01060017=
202205080053 METAR KCLM 080053Z AUTO 27008KT 10SM FEW040 11/02 A2986 RMK AO2 SLP113 T01060022=
202205072353 METAR KCLM 072353Z AUTO 28015G21KT 10SM SCT042 BKN100 11/02 A2987 RMK AO2 WSHFT 2330 SLP116 T01110022 10128 20100 56001=
202205072350 SPECI KCLM 072350Z AUTO 27010G20KT 10SM SCT042 SCT050 BKN100 11/02 A2987 RMK AO2 WSHFT 2330=
202205072253 METAR KCLM 072253Z AUTO 31011G20KT 10SM BKN044 11/03 A2987 RMK AO2 SLP116 T01060028=
202205072153 METAR KCLM 072153Z AUTO 31009G22KT 10SM SCT055 SCT070 11/04 A2987 RMK AO2 PK WND 28027/2128 SLP117 T01060039=
202205072053 METAR KCLM 072053Z AUTO 29014G23KT 10SM BKN065 12/02 A2987 RMK AO2 PK WND 29028/1956 SLP114 T01170017 51010=
202205071953 METAR KCLM 071953Z AUTO 31015G27KT 10SM FEW055 11/03 A2986 RMK AO2 PK WND 28028/1920 SLP112 T01110033=
202205071853 METAR KCLM 071853Z AUTO 32015G25KT 10SM FEW070 12/02 A2985 RMK AO2 PK WND 31027/1842 SLP108 T01170022=
202205071753 METAR KCLM 071753Z AUTO 32012G23KT 10SM FEW060 12/03 A2984 RMK AO2 SLP104 T01170028 10128 20067 51012=
202205071653 METAR KCLM 071653Z AUTO 30010G19KT 10SM BKN047 BKN055 11/03 A2983 RMK AO2 SLP102 T01110028=
202205071553 METAR KCLM 071553Z AUTO 30011G21KT 10SM BKN040 10/03 A2982 RMK AO2 SLP098 T01000028=
202205071453 METAR KCLM 071453Z AUTO 28011KT 10SM CLR 11/03 A2980 RMK AO2 SLP093 T01060033 53022=
202205071353 METAR KCLM 071353Z AUTO 24009KT 10SM CLR 08/03 A2978 RMK AO2 SLP084 T00780033=
202205071253 METAR KCLM 071253Z AUTO 25009KT 10SM CLR 08/04 A2976 RMK AO2 SLP078 T00780039=
202205071153 METAR KCLM 071153Z AUTO 26011KT 10SM OVC065 08/04 A2974 RMK AO2 SLP070 60000 70004 T00780039 10083 20072 53014=
202205071053 METAR KCLM 071053Z AUTO 27010KT 10SM CLR 07/04 A2972 RMK AO2 SLP066 T00720039=
202205070953 METAR KCLM 070953Z AUTO 25012G18KT 10SM FEW075 08/05 A2970 RMK AO2 SLP059 T00830050=
202205070853 METAR KCLM 070853Z AUTO 25008KT 10SM BKN070 08/06 A2969 RMK AO2 SLP056 60000 T00830056 53010=
202205070753 METAR KCLM 070753Z AUTO 27006KT 10SM OVC060 08/06 A2968 RMK AO2 SLP052 T00830061 401060044=
202205070653 METAR KCLM 070653Z AUTO 29005KT 10SM OVC049 08/06 A2967 RMK AO2 RAE33 SLP048 P0000 T00830061=
202205070553 METAR KCLM 070553Z AUTO 23003KT 10SM -RA BKN040 OVC050 08/07 A2966 RMK AO2 RAB51 SLP046 P0000 60000 T00830067 10100 20083 52009=
202205070453 METAR KCLM 070453Z AUTO 00000KT 10SM BKN050 BKN065 OVC085 08/06 A2966 RMK AO2 SLP043 T00830061=
202205070353 METAR KCLM 070353Z AUTO 00000KT 10SM OVC075 08/06 A2964 RMK AO2 SLP039 T00830061=
202205070253 METAR KCLM 070253Z AUTO 00000KT 10SM FEW031 OVC085 09/06 A2964 RMK AO2 SLP036 60000 T00940056 58009=
202205070153 METAR KCLM 070153Z AUTO 11004KT 10SM BKN032 BKN041 OVC060 09/06 A2965 RMK AO2 RAB24E48 SLP041 P0000 T00940056=
202205070053 METAR KCLM 070053Z AUTO 11003KT 10SM BKN031 BKN040 OVC065 10/06 A2966 RMK AO2 SLP043 T01000056=
202205062353 METAR KCLM 062353Z AUTO VRB03KT 10SM OVC030 10/06 A2966 RMK AO2 SLP046 60003 T01000056 10106 20089 58008=
202205062341 SPECI KCLM 062341Z AUTO VRB03KT 10SM FEW014 OVC030 10/06 A2967 RMK AO2 T01000056=
202205062306 SPECI KCLM 062306Z AUTO VRB05KT 10SM BKN015 OVC029 11/06 A2967 RMK AO2 T01060061=
202205062259 SPECI KCLM 062259Z AUTO 07005KT 10SM BKN013 BKN029 OVC055 11/06 A2968 RMK AO2 T01060056=
202205062253 METAR KCLM 062253Z AUTO 11006KT 10SM SCT013 BKN030 OVC055 11/06 A2968 RMK AO2 SLP050 T01060061=
202205062153 METAR KCLM 062153Z AUTO VRB03KT 10SM FEW009 FEW028 OVC060 10/07 A2969 RMK AO2 RAE10 SLP055 P0001 T01000067=
202205062151 SPECI KCLM 062151Z AUTO VRB03KT 10SM FEW009 FEW028 OVC060 10/07 A2969 RMK AO2 RAE10 P0001=
202205062134 SPECI KCLM 062134Z AUTO 07004KT 10SM SCT012 BKN040 OVC055 11/07 A2969 RMK AO2 RAE10 P0001 T01060072=
202205062053 METAR KCLM 062053Z AUTO VRB03KT 10SM -RA FEW008 BKN018 OVC044 09/07 A2970 RMK AO2 SLP057 P0001 60002 T00940067 56004=
202205062034 SPECI KCLM 062034Z AUTO 00000KT 10SM -RA FEW009 BKN016 OVC045 09/06 A2970 RMK AO2 P0001 T00890061=
202205062009 SPECI KCLM 062009Z AUTO 04003KT 7SM -RA SCT015 BKN022 OVC043 09/07 A2970 RMK AO2 P0001 T00940067=
202205062002 SPECI KCLM 062002Z AUTO 08003KT 7SM -RA BKN014 OVC043 09/07 A2970 RMK AO2 P0001 T00940067=
202205061953 METAR KCLM 061953Z AUTO 00000KT 7SM -RA FEW010 SCT016 OVC045 09/07 A2970 RMK AO2 SLP059 P0001 T00940067=
202205061853 METAR KCLM 061853Z AUTO 07003KT 10SM -RA OVC045 09/06 A2970 RMK AO2 RAB51 SLP060 P0000 T00940056=
202205061753 METAR KCLM 061753Z AUTO 08005KT 10SM FEW009 OVC037 09/07 A2971 RMK AO2 SLP061 60001 T00940067 10094 20061 56011=
202205061704 SPECI KCLM 061704Z AUTO VRB04KT 10SM FEW018 BKN030 OVC036 09/06 A2972 RMK AO2 T00940056=
202205061653 METAR KCLM 061653Z AUTO 07005KT 10SM FEW018 OVC028 09/06 A2972 RMK AO2 SLP066 T00940056=
202205061553 METAR KCLM 061553Z AUTO 12007KT 7SM OVC019 09/06 A2974 RMK AO2 SLP072 T00890061=
202205061453 METAR KCLM 061453Z AUTO 00000KT 6SM BR OVC020 07/06 A2976 RMK AO2 SLP078 60001 T00720056 57017=
202205061353 METAR KCLM 061353Z AUTO 00000KT 10SM OVC018 07/06 A2978 RMK AO2 SLP083 T00720056=
202205061341 SPECI KCLM 061341Z AUTO 00000KT 10SM OVC016 07/06 A2978 RMK AO2 T00720056=
202205061321 SPECI KCLM 061321Z AUTO 18003KT 10SM OVC014 07/05 A2978 RMK AO2 T00670050=
202205061305 SPECI KCLM 061305Z AUTO 00000KT 10SM SCT004 OVC015 07/05 A2979 RMK AO2 T00670050=
202205061253 METAR KCLM 061253Z AUTO 00000KT 4SM BR BKN003 OVC014 06/04 A2979 RMK AO2 RAE19 SLP090 P0001 T00610044=
202205061218 SPECI KCLM 061218Z AUTO 00000KT 4SM -RA BR BKN004 BKN009 OVC012 06/04 A2979 RMK AO2 P0001 T00610044=
202205061207 SPECI KCLM 061207Z AUTO 00000KT 2 1/2SM -RA BR BKN006 OVC012 06/04 A2980 RMK AO2 P0001 T00610044=
202205061153 METAR KCLM 061153Z AUTO 00000KT 3SM -RA SCT006 BKN012 OVC045 07/04 A2981 RMK AO2 RAB47 SLP095 P0000 60000 70015 T00670039 10067 20044 58001=
202205061146 SPECI KCLM 061146Z AUTO 00000KT 6SM HZ SCT008 BKN012 OVC045 07/04 A2981 RMK AO2 T00670039=
202205061053 METAR KCLM 061053Z AUTO 23004KT 10SM FEW030 OVC044 06/04 A2982 RMK AO2 SLP097 T00610039=
202205061012 SPECI KCLM 061012Z AUTO 00000KT 10SM BKN023 OVC033 06/03 A2982 RMK AO2 T00560033=
202205060953 METAR KCLM 060953Z AUTO 00000KT 10SM BKN034 06/03 A2981 RMK AO2 SLP096 T00560033=
202205060853 METAR KCLM 060853Z AUTO 22007KT 10SM CLR 07/03 A2981 RMK AO2 SLP096 T00670033 51016=
202205060753 METAR KCLM 060753Z AUTO 00000KT 10SM CLR 06/03 A2980 RMK AO2 SLP094 T00610028 401220044=
202205060653 METAR KCLM 060653Z AUTO 24008KT 10SM CLR 06/03 A2979 RMK AO2 SLP089 T00610028=
202205060553 METAR KCLM 060553Z AUTO 29008KT 10SM CLR 07/03 A2977 RMK AO2 SLP080 60001 T00670033 10106 20067 51026=
202205060453 METAR KCLM 060453Z AUTO 32008KT 10SM CLR 08/04 A2975 RMK AO2 SLP075 T00830044=
202205060353 METAR KCLM 060353Z AUTO 30011KT 10SM FEW024 BKN030 08/06 A2972 RMK AO2 SLP063 T00830056=
202205060335 SPECI KCLM 060335Z AUTO 29008KT 10SM FEW017 BKN031 OVC041 09/06 A2971 RMK AO2 T00890061=
202205060315 SPECI KCLM 060315Z AUTO 29008KT 10SM SCT007 BKN017 OVC030 09/07 A2970 RMK AO2 T00940072=
202205060253 METAR KCLM 060253Z AUTO 30009G16KT 10SM BKN006 OVC012 09/07 A2969 RMK AO2 CIG 004V009 SLP054 60001 T00890072 53022=
202205060224 SPECI KCLM 060224Z AUTO 30006KT 8SM BKN008 BKN019 OVC039 09/07 A2968 RMK AO2 T00940072=
202205060153 METAR KCLM 060153Z AUTO 29007KT 10SM SCT006 BKN045 OVC060 09/07 A2965 RMK AO2 SLP042 T00940072=
202205060113 SPECI KCLM 060113Z AUTO 32005KT 10SM BKN007 BKN010 OVC065 09/07 A2964 RMK AO2 T00940072=
202205060053 METAR KCLM 060053Z AUTO 32004KT 10SM SCT007 OVC060 10/07 A2963 RMK AO2 RAE33 SLP035 P0001 T01000072=
202205052353 METAR KCLM 052353Z AUTO 04004KT 8SM -RA SCT007 BKN048 OVC055 11/08 A2962 RMK AO2 SLP032 P0001 60006 T01060083 10122 20083 56003=
202205052351 SPECI KCLM 052351Z AUTO VRB04KT 8SM -RA SCT007 BKN048 OVC055 11/08 A2962 RMK AO2 P0001=
202205052253 METAR KCLM 052253Z AUTO 07005KT 10SM -RA FEW011 OVC055 12/08 A2962 RMK AO2 RAB37 SLP032 P0000 T01170078=
202205052153 METAR KCLM 052153Z AUTO 09007KT 10SM FEW014 BKN041 OVC055 11/07 A2963 RMK AO2 SLP035 T01110072=
202205052145 SPECI KCLM 052145Z AUTO 08006KT 10SM SCT014 BKN043 BKN055 11/08 A2964 RMK AO2 T01060078=
202205052053 METAR KCLM 052053Z AUTO 10007KT 10SM OVC014 10/07 A2964 RMK AO2 RAE1958 SLP038 P0000 60005 T01000072 57005=
202205052007 SPECI KCLM 052007Z AUTO 09005KT 10SM FEW005 OVC013 09/08 A2965 RMK AO2 RAE1958 P0000 T00940078=
202205051953 METAR KCLM 051953Z AUTO 09006KT 7SM -RA BKN006 BKN009 OVC012 09/07 A2965 RMK AO2 CIG 003V007 SLP041 P0001 T00890072=
202205051930 SPECI KCLM 051930Z AUTO 07003KT 7SM -RA OVC006 09/07 A2965 RMK AO2 P0001 T00890072=
202205051853 METAR KCLM 051853Z AUTO 07005KT 5SM -RA BR BKN003 BKN006 OVC012 09/07 A2965 RMK AO2 SLP041 P0004 T00890072=
202205051807 SPECI KCLM 051807Z AUTO 00000KT 6SM -RA BR BKN006 OVC049 09/07 A2965 RMK AO2 P0001 T00940072=
202205051753 METAR KCLM 051753Z AUTO 00000KT 7SM -RA BKN004 BKN013 OVC055 09/07 A2966 RMK AO2 SLP044 P0002 60008 T00940072 10094 20072 58011=
202205051726 SPECI KCLM 051726Z AUTO 00000KT 5SM -RA BR BKN003 OVC048 09/08 A2966 RMK AO2 P0001 T00940078=
202205051700 SPECI KCLM 051700Z AUTO 00000KT 4SM -RA BR FEW005 OVC055 09/07 A2967 RMK AO2 P0000 T00890072=
202205051653 METAR KCLM 051653Z AUTO 31003KT 4SM -RA BR OVC055 09/07 A2967 RMK AO2 SLP048 P0004 T00890072=
202205051641 SPECI KCLM 051641Z AUTO 29003KT 5SM -RA BR FEW005 OVC055 09/07 A2968 RMK AO2 P0003 T00890072=
202205051553 METAR KCLM 051553Z AUTO 27005KT 4SM -RA BR OVC004 08/07 A2968 RMK AO2 RAB1457 SLP051 P0002 T00830067=
202205051518 SPECI KCLM 051518Z AUTO 28005KT 5SM -RA BR OVC004 08/07 A2969 RMK AO2 RAB1457 P0001 T00830067=
202205051453 METAR KCLM 051453Z AUTO 29004KT 10SM OVC005 08/06 A2969 RMK AO2 SLP055 T00830061 56019=
202205051353 METAR KCLM 051353Z AUTO 00000KT 10SM OVC007 08/06 A2970 RMK AO2 SLP059 T00830061=
202205051253 METAR KCLM 051253Z AUTO 00000KT 10SM OVC008 08/06 A2972 RMK AO2 SLP065 T00830056=
202205051230 SPECI KCLM 051230Z AUTO 08003KT 10SM OVC009 08/05 A2973 RMK AO2 CIG 007V012 T00830050=
202205051153 METAR KCLM 051153Z AUTO 10003KT 10SM BKN012 08/05 A2975 RMK AO2 SLP074 70001 T00780050 10089 20078 56026=
202205051142 SPECI KCLM 051142Z AUTO 00000KT 10SM BKN014 08/05 A2975 RMK AO2 T00780050=
202205051053 METAR KCLM 051053Z AUTO 09004KT 10SM OVC100 08/06 A2977 RMK AO2 SLP080 T00780056=
202205050953 METAR KCLM 050953Z AUTO 00000KT 10SM OVC100 08/06 A2979 RMK AO2 SLP089 T00830056=
202205050853 METAR KCLM 050853Z AUTO 00000KT 10SM OVC095 08/06 A2982 RMK AO2 SLP100 T00830056 56016=
202205050753 METAR KCLM 050753Z AUTO 24005KT 10SM OVC110 08/06 A2984 RMK AO2 SLP106 T00830061 401330072=
202205050653 METAR KCLM 050653Z AUTO 36003KT 10SM OVC100 08/07 A2985 RMK AO2 SLP108 T00830067=
202205050553 METAR KCLM 050553Z AUTO 00000KT 10SM FEW027 OVC100 09/07 A2987 RMK AO2 SLP116 T00890072 10111 20089 58011=
202205050530 SPECI KCLM 050530Z AUTO 27004KT 10SM FEW007 SCT029 OVC100 09/07 A2989 RMK AO2 T00890067=
202205050504 SPECI KCLM 050504Z AUTO 28003KT 10SM FEW007 BKN029 OVC110 09/07 A2990 RMK AO2 T00890067=
202205050453 METAR KCLM 050453Z AUTO 28004KT 10SM FEW007 OVC030 09/07 A2990 RMK AO2 SLP127 T00890067=
202205050451 SPECI KCLM 050451Z AUTO 28003KT 10SM FEW007 OVC030 09/07 A2990 RMK AO2=
202205050442 SPECI KCLM 050442Z AUTO 29003KT 10SM BKN029 OVC110 09/07 A2990 RMK AO2 T00890067=
202205050353 METAR KCLM 050353Z AUTO 31003KT 10SM SCT120 09/07 A2991 RMK AO2 SLP128 T00890067=
202205050253 METAR KCLM 050253Z AUTO 00000KT 10SM CLR 10/06 A2991 RMK AO2 SLP128 T01000061 56016=
202205050153 METAR KCLM 050153Z AUTO 00000KT 10SM FEW120 11/06 A2992 RMK AO2 SLP131 T01060061=
202205050053 METAR KCLM 050053Z AUTO 00000KT 10SM CLR 11/06 A2993 RMK AO2 SLP137 T01110056=
202205042353 METAR KCLM 042353Z AUTO 04003KT 10SM CLR 11/06 A2995 RMK AO2 SLP144 T01110061 10133 20089 58022=
202205042253 METAR KCLM 042253Z AUTO VRB04KT 10SM SCT100 13/07 A2997 RMK AO2 SLP151 T01280072=
202205042214 SPECI KCLM 042214Z AUTO 00000KT 10SM FEW013 BKN100 11/07 A3000 RMK AO2 T01110072=
202205042153 METAR KCLM 042153Z AUTO 00000KT 10SM OVC013 11/07 A3001 RMK AO2 SLP161 T01060067=
202205042053 METAR KCLM 042053Z AUTO VRB03KT 10SM OVC011 09/06 A3002 RMK AO2 SLP166 T00940061 56015=
202205041953 METAR KCLM 041953Z AUTO 07004KT 10SM OVC010 09/06 A3003 RMK AO2 SLP170 T00940061=
202205041853 METAR KCLM 041853Z AUTO 07005KT 10SM OVC009 09/06 A3004 RMK AO2 SLP174 T00940061=
202205041833 SPECI KCLM 041833Z AUTO 08006KT 10SM OVC009 09/06 A3005 RMK AO2 CIG 008V012 T00940061=
202205041821 SPECI KCLM 041821Z AUTO 08006KT 10SM OVC010 09/06 A3005 RMK AO2 CIG 008V013 T00890061=
202205041804 SPECI KCLM 041804Z AUTO 07005KT 10SM BKN009 OVC013 09/06 A3006 RMK AO2 CIG 008V012 T00940061=
202205041753 METAR KCLM 041753Z AUTO 09005KT 10SM OVC011 09/06 A3006 RMK AO2 SLP181 60001 T00940061 10094 20072 56016=
202205041733 SPECI KCLM 041733Z AUTO 07007KT 10SM BKN010 BKN034 09/06 A3007 RMK AO2 T00940061=
202205041653 METAR KCLM 041653Z AUTO 09005KT 10SM FEW012 BKN049 OVC070 09/06 A3008 RMK AO2 RAE1558B40E53 SLP187 P0000 T00890061=
202205041553 METAR KCLM 041553Z AUTO 11006KT 9SM -RA BKN065 OVC090 08/06 A3009 RMK AO2 SLP190 P0001 T00830056=
202205041453 METAR KCLM 041453Z AUTO 13003KT 9SM -RA OVC055 08/05 A3011 RMK AO2 RAB00 SLP197 P0000 60000 T00780050 58016=
202205041423 SPECI KCLM 041423Z AUTO 16003KT 8SM -RA SCT025 OVC060 07/05 A3012 RMK AO2 RAB00 P0000 T00720050=
202205041353 METAR KCLM 041353Z AUTO 00000KT 10SM OVC019 07/06 A3013 RMK AO2 RAB1257E08 SLP205 P0000 T00720056=
202205041253 METAR KCLM 041253Z AUTO 00000KT 10SM OVC017 07/05 A3014 RMK AO2 RAE49 SLP208 P0000 T00720050=
202205041153 METAR KCLM 041153Z AUTO 27003KT 10SM -RA OVC016 07/05 A3016 RMK AO2 SLP213 P0001 60001 70001 T00720050 10078 20067 56015=
202205041104 SPECI KCLM 041104Z AUTO 00000KT 10SM -RA OVC015 07/06 A3016 RMK AO2 P0000 T00720056=
202205041053 METAR KCLM 041053Z AUTO 00000KT 10SM -RA OVC014 07/06 A3017 RMK AO2 RAB32 SLP217 P0000 T00720056=
202205041008 SPECI KCLM 041008Z AUTO 00000KT 10SM OVC014 07/05 A3017 RMK AO2 T00720050=
202205040953 METAR KCLM 040953Z AUTO 00000KT 10SM OVC015 07/05 A3018 RMK AO2 SLP219 T00720050=
202205040853 METAR KCLM 040853Z AUTO 24003KT 10SM OVC015 07/04 A3020 RMK AO2 SLP227 T00720044 56014=
202205040753 METAR KCLM 040753Z AUTO 24003KT 10SM BKN015 OVC055 07/04 A3022 RMK AO2 SLP233 T00670044 401220056=
202205040746 SPECI KCLM 040746Z AUTO 24003KT 10SM BKN015 OVC055 07/04 A3022 RMK AO2 T00670044=
202205040653 METAR KCLM 040653Z AUTO 00000KT 10SM OVC055 07/05 A3022 RMK AO2 SLP235 T00720050=
202205040553 METAR KCLM 040553Z AUTO 00000KT 10SM BKN045 OVC060 07/04 A3024 RMK AO2 SLP242 60000 T00720044 10089 20072 58007=
202205040453 METAR KCLM 040453Z AUTO 24004KT 10SM SCT017 OVC070 07/04 A3025 RMK AO2 SLP245 T00720044=
202205040353 METAR KCLM 040353Z AUTO 26004KT 10SM BKN019 BKN031 OVC080 07/04 A3026 RMK AO2 RAE17 SLP248 P0000 T00720044=
202205040338 SPECI KCLM 040338Z AUTO 28003KT 10SM BKN019 BKN038 OVC080 07/04 A3026 RMK AO2 RAE17 P0000 T00720044=
202205040253 METAR KCLM 040253Z AUTO 29003KT 10SM -RA BKN045 BKN055 OVC080 08/04 A3026 RMK AO2 RAB36 SLP249 P0000 60000 T00830044 58012=
202205040218 SPECI KCLM 040218Z AUTO 30005KT 10SM FEW021 OVC050 08/04 A3027 RMK AO2 T00830044=
202205040153 METAR KCLM 040153Z AUTO 29006KT 10SM BKN022 OVC026 08/04 A3028 RMK AO2 SLP255 T00830044=
202205040053 METAR KCLM 040053Z AUTO 30009KT 10SM BKN022 BKN027 OVC050 09/04 A3029 RMK AO2 SLP259 T00890044=
202205040018 SPECI KCLM 040018Z AUTO 29011G23KT 270V330 10SM BKN016 BKN027 OVC031 09/04 A3030 RMK AO2 T00890044=
202205040008 SPECI KCLM 040008Z AUTO 30013G21KT 10SM BKN014 OVC032 09/05 A3030 RMK AO2 T00890050=
202205040001 SPECI KCLM 040001Z AUTO 30009G21KT 10SM SCT014 BKN027 OVC032 09/06 A3030 RMK AO2 T00890056=
202205032353 METAR KCLM 032353Z AUTO 30013G21KT 10SM BKN013 OVC029 09/06 A3030 RMK AO2 SLP263 T00890056 10122 20089 53001=
202205032320 SPECI KCLM 032320Z AUTO 31008G22KT 10SM SCT013 BKN019 OVC030 09/06 A3030 RMK AO2 T00940061=
202205032253 METAR KCLM 032253Z AUTO 30012G19KT 10SM FEW015 BKN030 OVC050 10/06 A3030 RMK AO2 SLP262 T01000061=
202205032212 SPECI KCLM 032212Z AUTO 30011G18KT 10SM FEW014 OVC030 10/06 A3030 RMK AO2 T01000061=
202205032153 METAR KCLM 032153Z AUTO 29011G17KT 10SM OVC029 10/06 A3030 RMK AO2 SLP261 T01000061=
202205032053 METAR KCLM 032053Z AUTO 31011KT 10SM OVC026 10/06 A3030 RMK AO2 SLP261 T01000056 51008=
202205031953 METAR KCLM 031953Z AUTO 31009G16KT 10SM OVC022 11/06 A3029 RMK AO2 SLP259 T01060056=
202205031853 METAR KCLM 031853Z AUTO 30014G20KT 10SM BKN018 OVC023 11/06 A3029 RMK AO2 SLP257 T01060056=
202205031805 SPECI KCLM 031805Z AUTO 30013G20KT 10SM BKN020 11/06 A3028 RMK AO2 T01110061=
202205031753 METAR KCLM 031753Z AUTO 30012G23KT 10SM SCT018 SCT070 SCT090 12/07 A3027 RMK AO2 SLP253 T01170067 10117 20061 53005=
202205031739 SPECI KCLM 031739Z AUTO 33008KT 10SM SCT016 BKN070 BKN110 12/06 A3027 RMK AO2 T01170061=
202205031722 SPECI KCLM 031722Z AUTO 31007KT 10SM BKN015 OVC110 11/06 A3027 RMK AO2 T01110061=
202205031653 METAR KCLM 031653Z AUTO 30009G16KT 10SM OVC014 11/07 A3026 RMK AO2 SLP249 T01060067=
202205031553 METAR KCLM 031553Z AUTO VRB03KT 10SM OVC013 09/06 A3027 RMK AO2 SLP251 T00940061=
202205031537 SPECI KCLM 031537Z AUTO 25004KT 10SM BKN013 OVC120 09/06 A3027 RMK AO2 T00940061=
202205031453 METAR KCLM 031453Z AUTO 26006KT 10SM SCT120 08/05 A3026 RMK AO2 SLP248 T00830050 53012=
202205031353 METAR KCLM 031353Z AUTO 26006KT 10SM CLR 07/04 A3024 RMK AO2 SLP241 T00720044=
202205031253 METAR KCLM 031253Z AUTO 25009KT 10SM CLR 07/04 A3024 RMK AO2 SLP240 T00670039=
202205031153 METAR KCLM 031153Z AUTO 25007KT 10SM CLR 06/04 A3022 RMK AO2 SLP235 T00610039 10083 20056 51020=
202205031053 METAR KCLM 031053Z AUTO 24006KT 10SM CLR 06/04 A3021 RMK AO2 SLP230 T00560039=
202205030953 METAR KCLM 030953Z AUTO 23006KT 10SM CLR 07/04 A3019 RMK AO2 SLP226 T00720044=
202205030853 METAR KCLM 030853Z AUTO 26007KT 10SM CLR 07/04 A3017 RMK AO2 SLP216 T00720044 51013=
202205030753 METAR KCLM 030753Z AUTO 25007KT 10SM CLR 08/05 A3015 RMK AO2 SLP211 T00780050 401440067=
202205030653 METAR KCLM 030653Z AUTO 26003KT 10SM CLR 08/05 A3014 RMK AO2 SLP208 T00780050=
202205030553 METAR KCLM 030553Z AUTO 25007KT 10SM CLR 08/06 A3013 RMK AO2 SLP202 T00830056 10133 20083 51019=
202205030453 METAR KCLM 030453Z AUTO 26007KT 10SM CLR 08/05 A3012 RMK AO2 SLP201 T00830050=
202205030353 METAR KCLM 030353Z AUTO 27006KT 10SM CLR 09/06 A3008 RMK AO2 SLP188 T00890061=
202205030253 METAR KCLM 030253Z AUTO 29007KT 10SM CLR 10/07 A3007 RMK AO2 SLP183 T01000067 53028=
202205030153 METAR KCLM 030153Z AUTO 30010KT 10SM CLR 12/07 A3003 RMK AO2 SLP170 T01170067=
202205030053 METAR KCLM 030053Z AUTO 30012G19KT 10SM CLR 12/07 A3001 RMK AO2 SLP162 T01220067=
202205022353 METAR KCLM 022353Z AUTO 29010KT 10SM BKN060 13/07 A2999 RMK AO2 SLP155 60000 T01280072 10144 20106 51025=
202205022253 METAR KCLM 022253Z AUTO 31010G19KT 10SM BKN065 12/06 A2998 RMK AO2 SLP152 T01170061=
202205022153 METAR KCLM 022153Z AUTO 31014G24KT 10SM OVC048 12/07 A2995 RMK AO2 SLP141 T01170067=
202205022053 METAR KCLM 022053Z AUTO 32008KT 10SM FEW025 BKN050 BKN065 13/06 A2991 RMK AO2 SLP130 60000 T01330056 51017=
202205022038 SPECI KCLM 022038Z AUTO 35007KT 10SM SCT024 SCT050 14/07 A2991 RMK AO2 T01390067=
202205021953 METAR KCLM 021953Z AUTO 31007KT 10SM OVC022 12/07 A2990 RMK AO2 SLP125 T01220067=
202205021853 METAR KCLM 021853Z AUTO 30009KT 10SM BKN017 OVC050 12/07 A2988 RMK AO2 RAE02 SLP119 P0000 T01170067=
202205021753 METAR KCLM 021753Z AUTO 32007KT 10SM -RA OVC017 11/06 A2986 RMK AO2 RAB22 SLP112 P0000 60000 T01060061 10106 20089 53028=
202205021730 SPECI KCLM 021730Z AUTO 30007KT 10SM -RA OVC015 10/06 A2985 RMK AO2 RAB22 P0000 T01000061=
202205021653 METAR KCLM 021653Z AUTO 32008KT 10SM BKN013 OVC020 11/07 A2983 RMK AO2 SLP102 T01060067=
202205021553 METAR KCLM 021553Z AUTO 28007KT 10SM OVC015 10/07 A2980 RMK AO2 SLP093 T01000072=
202205021540 SPECI KCLM 021540Z AUTO 29010KT 10SM FEW009 OVC013 09/07 A2980 RMK AO2 T00940067=
202205021515 SPECI KCLM 021515Z AUTO 31008KT 10SM OVC011 09/07 A2978 RMK AO2 T00940072=
202205021504 SPECI KCLM 021504Z AUTO 29009KT 10SM BKN009 OVC013 09/07 A2978 RMK AO2 T00940072=
202205021453 METAR KCLM 021453Z AUTO 29008KT 10SM SCT008 OVC013 09/07 A2978 RMK AO2 SLP084 60000 T00940072 51014=
202205021451 SPECI KCLM 021451Z AUTO 29008KT 10SM BKN008 OVC013 09/07 A2978 RMK AO2=
202205021436 SPECI KCLM 021436Z AUTO 29006KT 10SM SCT008 BKN012 OVC020 09/07 A2978 RMK AO2 T00890072=
202205021420 SPECI KCLM 021420Z AUTO 30008KT 10SM FEW008 BKN017 OVC022 09/07 A2977 RMK AO2 T00890072=
202205021409 SPECI KCLM 021409Z AUTO 28007KT 10SM OVC016 09/07 A2977 RMK AO2 T00890072=
202205021353 METAR KCLM 021353Z AUTO 27007KT 10SM OVC014 09/07 A2976 RMK AO2 RAB00E45 SLP078 P0000 T00890072=
202205021325 SPECI KCLM 021325Z AUTO 27007KT 10SM -RA SCT004 OVC010 09/07 A2975 RMK AO2 RAB00 CIG 008V012 P0000 T00890072=
202205021253 METAR KCLM 021253Z AUTO 29006KT 10SM OVC004 09/07 A2974 RMK AO2 SLP071 T00890072 $=
202205021242 SPECI KCLM 021242Z AUTO 29006KT 10SM OVC004 09/07 A2973 RMK AO2 T00890072 $=
202205021153 METAR KCLM 021153Z AUTO 28006KT 10SM OVC005 09/07 A2972 RMK AO2 SLP066 T00940072 10094 20078 56008 $=
202205021053 METAR KCLM 021053Z AUTO 27007KT 10SM OVC005 09/08 A2973 RMK AO2 SLP067 T00940078 $=
202205020953 METAR KCLM 020953Z AUTO 28007KT 10SM BKN007 OVC027 09/07 A2973 RMK AO2 SLP067 T00940072 $=
202205020941 SPECI KCLM 020941Z AUTO 28005KT 10SM FEW008 OVC027 09/07 A2973 RMK AO2 T00890072 $=
202205020853 METAR KCLM 020853Z AUTO 24003KT 10SM BKN029 BKN090 09/07 A2975 RMK AO2 SLP074 T00890067 56011 $=
202205020850 SPECI KCLM 020850Z AUTO 25003KT 10SM BKN029 BKN090 OVC110 09/07 A2975 RMK AO2 $=
202205020753 METAR KCLM 020753Z AUTO 00000KT 10SM FEW080 09/07 A2976 RMK AO2 SLP077 T00890067 401330039 $=
202205020653 METAR KCLM 020653Z AUTO 00000KT 10SM FEW030 SCT120 09/07 A2978 RMK AO2 SLP085 T00890067 $=
202205020553 METAR KCLM 020553Z AUTO 00000KT 10SM FEW031 FEW120 09/07 A2981 RMK AO2 SLP094 T00890072 10122 20089 58025=
202205020453 METAR KCLM 020453Z AUTO 00000KT 10SM CLR 09/07 A2984 RMK AO2 SLP104 T00890067=
202205020353 METAR KCLM 020353Z AUTO 00000KT 10SM SCT110 09/07 A2986 RMK AO2 SLP111 T00940067=
202205020253 METAR KCLM 020253Z AUTO 29004KT 10SM FEW120 10/07 A2988 RMK AO2 SLP119 T01000067 56033=
202205020153 METAR KCLM 020153Z AUTO 29005KT 10SM BKN032 11/07 A2991 RMK AO2 SLP128 T01060072=
202205020053 METAR KCLM 020053Z AUTO 34003KT 10SM OVC032 12/07 A2994 RMK AO2 SLP140 T01170067=
202205012353 METAR KCLM 012353Z AUTO 01004KT 10SM OVC031 12/06 A2998 RMK AO2 SLP153 T01220061 10133 20111 58025=
202205012253 METAR KCLM 012253Z AUTO 04004KT 10SM OVC036 12/07 A3001 RMK AO2 SLP164 T01170072=
202205012153 METAR KCLM 012153Z AUTO 35004KT 10SM OVC043 12/07 A3003 RMK AO2 SLP171 T01220067=
202205012053 METAR KCLM 012053Z AUTO 35005KT 10SM BKN045 OVC060 12/07 A3005 RMK AO2 SLP178 T01170067 58016=
202205011953 METAR KCLM 011953Z AUTO VRB03KT 10SM BKN045 OVC065 12/07 A3008 RMK AO2 SLP186 T01170067=
202205011853 METAR KCLM 011853Z AUTO VRB05KT 10SM OVC047 11/07 A3009 RMK AO2 SLP191 T01110067=
202205011753 METAR KCLM 011753Z AUTO VRB06KT 10SM BKN042 12/07 A3010 RMK AO2 SLP194 T01170067 10117 20039 58006=
202205011653 METAR KCLM 011653Z AUTO 01005KT 10SM FEW043 11/07 A3011 RMK AO2 SLP197 T01060072=
202205011553 METAR KCLM 011553Z AUTO VRB05KT 10SM BKN045 11/07 A3012 RMK AO2 SLP200 T01060067=
202205011453 METAR KCLM 011453Z AUTO 27006KT 10SM CLR 09/05 A3012 RMK AO2 SLP200 T00940050 53006=
202205011353 METAR KCLM 011353Z AUTO 24006KT 10SM CLR 07/04 A3011 RMK AO2 SLP196 T00720044=
202205011253 METAR KCLM 011253Z AUTO 23004KT 10SM CLR 06/03 A3010 RMK AO2 SLP194 T00560033=
202205011153 METAR KCLM 011153Z AUTO 22004KT 10SM CLR 04/03 A3010 RMK AO2 SLP194 T00440028 10094 20044 56004=
202205011053 METAR KCLM 011053Z AUTO 24003KT 10SM CLR 07/03 A3010 RMK AO2 SLP195 T00670033=
202205010953 METAR KCLM 010953Z AUTO 24005KT 10SM CLR 07/04 A3010 RMK AO2 SLP194 T00670039=
202205010853 METAR KCLM 010853Z AUTO 26009KT 10SM CLR 08/05 A3011 RMK AO2 SLP197 T00780050 50000=
202205010805 SPECI KCLM 010805Z AUTO 26003KT 10SM SCT020 08/06 A3012 RMK AO2 T00830056=
202205010753 METAR KCLM 010753Z AUTO 23003KT 10SM BKN019 09/07 A3012 RMK AO2 SLP199 T00890067 401280056=
202205010653 METAR KCLM 010653Z AUTO 28007KT 10SM BKN018 09/07 A3011 RMK AO2 SLP197 T00890072=
202205010617 SPECI KCLM 010617Z AUTO 29004KT 10SM FEW007 08/06 A3010 RMK AO2 T00830061=
202205010553 METAR KCLM 010553Z AUTO 31003KT 6SM BR CLR 07/05 A3009 RMK AO2 SLP189 T00670050 10128 20056 51007=
202205010453 METAR KCLM 010453Z AUTO 17003KT 10SM CLR 08/06 A3008 RMK AO2 SLP187 T00780061=
202205010353 METAR KCLM 010353Z AUTO 25004KT 10SM BKN050 09/07 A3008 RMK AO2 SLP187 T00940067=
202205010253 METAR KCLM 010253Z AUTO 36003KT 10SM BKN055 11/07 A3007 RMK AO2 SLP182 T01060072 51010=
202205010153 METAR KCLM 010153Z AUTO 35003KT 10SM OVC050 12/08 A3005 RMK AO2 SLP178 T01220078=
202205010053 METAR KCLM 010053Z AUTO 00000KT 10SM FEW038 SCT050 OVC060 12/08 A3005 RMK AO2 SLP176 T01220078=

# No short TAF reports from KCLM in databse.

###################################
#  large TAF from KCLM
###################################
202205312327 TAF KCLM 312327Z 0100/0124 05004KT P6SM FEW100 FM010500 29007KT
                       P6SM BKN250 FM011100 30004KT P6SM OVC150
                       FM011800 03004KT P6SM OVC100=
202205311721 TAF KCLM 311721Z 3118/0118 33005KT P6SM BKN100 FM312300 33006KT
                       P6SM BKN250 FM010500 29007KT P6SM OVC100
                       FM011100 30004KT P6SM OVC250=
202205311207 TAF KCLM 311207Z 3112/0112 28004KT P6SM SCT110 FM311800 01005KT
                       P6SM OVC100=
202205310520 TAF KCLM 310520Z 3106/0106 28004KT P6SM OVC150 FM311800 01005KT
                       P6SM OVC100=
202205302320 TAF KCLM 302320Z 3100/3124 33005KT P6SM OVC070 FM310600 28004KT
                       P6SM OVC150 FM311800 VRB05KT P6SM OVC100=
202205301724 TAF KCLM 301724Z 3018/3118 30005KT P6SM SCT070 FM302100 VRB05KT
                       P6SM OVC050 FM310300 28005KT P6SM OVC100=
202205301122 TAF KCLM 301122Z 3012/3112 25006KT P6SM SKC FM301500 28004KT P6SM
                       SCT015 OVC050 FM302100 VRB05KT P6SM OVC050
                       FM310300 28005KT P6SM BKN050=
202205300526 TAF KCLM 300526Z 3006/3106 28005KT P6SM SKC FM301500 28004KT P6SM
                       SCT015 FM302100 VRB05KT P6SM OVC050 FM310300
                       28005KT P6SM BKN050=
202205292326 TAF KCLM 292326Z 3000/3024 31010G20KT P6SM FEW050 FM300600 28007KT
                       P6SM OVC050 FM301500 28004KT P6SM OVC015
                       FM302100 VRB05KT P6SM OVC050=
202205291726 TAF KCLM 291726Z 2918/3018 31012G23KT P6SM FEW030 SCT070 FM292200
                       30015G20KT P6SM BKN050 FM300300 29010KT
                       P6SM BKN050 FM301400 28005KT P6SM OVC015=
202205291128 TAF KCLM 291128Z 2912/3012 26008KT P6SM VCSH OVC100 FM291900 31012G19KT
                       P6SM BKN025 FM292200 30015G20KT P6SM BKN045
                       FM300300 29010KT P6SM BKN050=
202205290531 TAF KCLM 290531Z 2906/3006 25007KT P6SM VCSH OVC060 FM290900 27010KT
                       P6SM VCSH OVC015 FM291500 28012KT P6SM OVC015
                       FM291900 31012G19KT P6SM OVC025 FM292200
                       30015G20KT P6SM BKN045 FM300300 29010KT
                       P6SM BKN050=
202205290341 KCLM 290341Z 2904/2924 29007KT P6SM VCSH BKN045 OVC060 FM290600
                       30008KT P6SM VCSH OVC025 FM290900 27010KT
                       P6SM VCSH OVC015 FM291500 28012KT P6SM OVC015
                       FM291900 31012G19KT P6SM OVC025=
202205282322 TAF KCLM 282322Z 2900/2924 10003KT P6SM -RA FEW010 BKN050 OVC070
                       FM290300 30008KT P6SM -RA OVC025 FM290600
                       27010KT P6SM VCSH OVC015 FM291500 28012KT
                       P6SM OVC015 FM291900 31012G19KT P6SM OVC025=
202205282001 KCLM 282001Z 2820/2918 VRB03KT P6SM -RA BKN005 OVC010 FM282300
                       05005KT P6SM -RA BKN015 OVC050 FM290200
                       32007G14KT P6SM OVC050 FM291100 28011KT
                       P6SM OVC015=
202205281731 TAF KCLM 281731Z 2818/2918 07004KT P6SM -RA SCT007 OVC012 FM282300
                       05005KT P6SM -RA OVC050 FM290200 32007G14KT
                       P6SM OVC050 FM291100 28011KT P6SM OVC015=
202205281425 KCLM 281425Z 2814/2912 00000KT P6SM -RA FEW027 SCT035 OVC060 FM281800
                       VRB05KT P6SM OVC025 FM290000 30010KT P6SM
                       OVC030 FM290900 27015KT P6SM OVC025=
202205281121 TAF KCLM 281121Z 2812/2912 00000KT P6SM OVC022 FM281500 VRB05KT
                       P6SM OVC025 FM290000 30010KT P6SM OVC030
                       FM290900 27015KT P6SM OVC025=
202205280522 TAF KCLM 280522Z 2806/2906 00000KT P6SM FEW021 FM281500 23005KT
                       P6SM OVC025 FM282000 07004KT P6SM OVC020=
202205280311 KCLM 280311Z 2803/2824 29010G16KT P6SM SCT020 FM280600 25005KT
                       P6SM OVC050 FM281500 23005KT P6SM OVC025=
202205272332 TAF KCLM 272332Z 2800/2824 29010G16KT P6SM BKN020 FM280600 25005KT
                       P6SM OVC050 FM281500 23005KT P6SM OVC025=
202205272034 KCLM 272034Z 2721/2818 30005KT P6SM FEW013 OVC024 FM280600 25005KT
                       P6SM OVC050=
202205271735 TAF KCLM 271735Z 2718/2818 30006KT P6SM OVC015 FM272100 28006KT
                       P6SM OVC040 FM280600 25005KT P6SM OVC050=
202205271120 TAF KCLM 271120Z 2712/2812 26015G24KT P6SM SCT010 OVC035 FM271800
                       31011KT P6SM OVC040 FM280100 28006KT P6SM
                       OVC040 FM280600 VRB03KT P6SM OVC050=
202205270528 TAF KCLM 270528Z 2706/2806 VRB03KT P6SM BKN070 OVC090 FM270800
                       27004KT P6SM -RA OVC025 FM271100 26006KT
                       P6SM OVC035 FM271800 31011KT P6SM OVC040
                       FM280100 28006KT P6SM OVC040=
202205262321 TAF KCLM 262321Z 2700/2724 VRB03KT P6SM BKN070 OVC080 FM270200
                       25003KT 5SM -RA BR OVC035 FM270800 27004KT
                       P6SM OVC025 FM271100 26006KT P6SM OVC035=
202205261725 TAF KCLM 261725Z 2618/2718 VRB03KT P6SM OVC070 FM262200 04003KT
                       P6SM OVC040 FM270200 VRB03KT 5SM -RA BR
                       OVC025 FM270800 27004KT P6SM OVC020=
202205261120 TAF KCLM 261120Z 2612/2712 26005KT P6SM SCT050 BKN100 FM261800
                       03004KT P6SM OVC050 FM262200 VRB03KT P6SM
                       -RA OVC040 FM270200 VRB03KT 5SM -RA BR OVC025
                       FM270800 27004KT P6SM OVC020=
202205260523 TAF KCLM 260523Z 2606/2706 29007KT P6SM SCT100 OVC200 FM261200
                       26005KT P6SM SCT050 BKN100 FM261800 06004KT
                       P6SM OVC050 FM262200 VRB03KT P6SM -RA OVC040
                       FM270200 VRB03KT 5SM -RA BR OVC025=
202205260256 KCLM 260256Z 2603/2624 30007KT P6SM FEW020 BKN250 FM260600 29007KT
                       P6SM BKN100 OVC200 FM261200 31005KT P6SM
                       SCT050 BKN100=
202205252320 TAF KCLM 252320Z 2600/2624 31015KT P6SM OVC020 FM260500 29007KT
                       P6SM SCT050 BKN100 FM261200 31005KT P6SM
                       SCT050 BKN100=
202205251720 TAF KCLM 251720Z 2518/2618 34004KT P6SM FEW009 OVC020 FM251900
                       33006KT P6SM SCT015 OVC030 FM252200 30006KT
                       P6SM SCT030 OVC050 FM260300 VRB04KT P6SM
                       SCT050 BKN100 FM260600 28005KT P6SM SCT050
                       BKN100=
202205251120 TAF KCLM 251120Z 2512/2612 VRB03KT P6SM BKN025 OVC100 FM251600
                       33006KT P6SM OVC015 FM251900 33006KT P6SM
                       SCT015 OVC030 FM252200 30006KT P6SM SCT030
                       OVC050 FM260300 VRB04KT P6SM SCT050 BKN100=
202205250526 TAF KCLM 250526Z 2506/2606 VRB03KT P6SM BKN050 OVC100 FM251600
                       33006KT P6SM OVC015 FM251900 33006KT P6SM
                       SCT015 OVC030 FM252200 30006KT P6SM SCT030
                       OVC050 FM260300 VRB04KT P6SM SCT050 BKN100=
202205242328 TAF KCLM 242328Z 2500/2524 33006KT P6SM OVC060 FM250500 22004KT
                       P6SM BKN050 OVC200 FM251100 25005KT P6SM
                       BKN050 OVC200 FM251900 33006KT P6SM OVC030=
202205241720 TAF KCLM 241720Z 2418/2518 VRB03KT P6SM OVC050 FM242200 30006KT
                       P6SM BKN050 OVC200 FM250500 19004KT P6SM
                       BKN050 OVC200=
202205241134 TAF KCLM 241134Z 2412/2512 VRB03KT P6SM SCT015 OVC200
                      TEMPO 2414/2416 BKN015 OVC200 FM241900 29006KT
                       P6SM BKN050 OVC200=
202205240540 TAF KCLM 240540Z 2406/2506 29008KT P6SM OVC011 FM241500 29006KT
                       P6SM SCT015 OVC200 FM242000 29006KT P6SM
                       BKN050 OVC100=
202205240309 KCLM 240309Z 2403/2424 29010G18KT P6SM SCT012 SCT250
                      TEMPO 2403/2407 BKN012 FM240800 29007KT P6SM
                       FEW010 BKN250 FM241100 27005KT P6SM BKN030
                       OVC200 FM242000 35004KT P6SM BKN050 OVC100=
202205232339 TAF KCLM 232339Z 2400/2424 31013G20KT P6SM SCT050 FM240800 29010KT
                       P6SM SCT040 BKN250 FM241100 27009KT P6SM
                       OVC040 FM242000 35004KT P6SM OVC100=
202205231740 TAF KCLM 231740Z 2318/2418 29006KT P6SM BKN035 OVC060 FM232000
                       31013G20KT P6SM VCSH BKN035 OVC060 FM240600
                       29010KT P6SM SCT040 BKN060 FM240900 28006KT
                       P6SM OVC015 FM241600 31004KT P6SM OVC050=
202205231134 TAF KCLM 231134Z 2312/2412 29006KT P6SM OVC050 FM231700 29006KT
                       P6SM VCSH BKN035 OVC050 FM240100 29010KT
                       P6SM SCT040 BKN060 FM240900 29006KT P6SM
                       OVC015=
202205230541 TAF KCLM 230541Z 2306/2406 29006KT P6SM BKN200 FM230700 27006KT
                       P6SM BKN100 OVC200 FM231200 27006KT P6SM
                       OVC050 FM231600 30008KT P6SM VCSH OVC035=
202205222325 TAF KCLM 222325Z 2300/2324 32006KT P6SM BKN200 FM230100 29010KT
                       P6SM BKN200 FM230700 27008KT P6SM BKN100
                       OVC200 FM231200 27005KT P6SM OVC050 FM231700
                       32005KT P6SM OVC030=
202205221732 TAF KCLM 221732Z 2218/2318 35006KT P6SM BKN200 FM230100 29012KT
                       P6SM BKN200 FM230700 29008KT P6SM BKN100
                       OVC200 FM231200 27005KT P6SM OVC050=
202205221123 TAF KCLM 221123Z 2212/2312 VRB03KT P6SM SKC FM221800 33006KT P6SM
                       BKN200 FM230100 29012KT P6SM BKN200 FM230700
                       29006KT P6SM BKN100 OVC200=
202205220535 TAF KCLM 220535Z 2206/2306 28006KT P6SM SKC FM221200 VRB03KT P6SM
                       SKC FM221800 33006KT P6SM BKN200 FM230100
                       29010KT P6SM BKN200=
202205220254 KCLM 220254Z 2203/2224 29006KT P6SM SKC FM221200 26008KT P6SM SCT030
                       FM221800 01006KT P6SM BKN250=
202205212320 TAF KCLM 212320Z 2200/2224 35005KT P6SM SKC FM220200 29007KT P6SM
                       SKC FM221200 26008KT P6SM SCT030 FM221800
                       01006KT P6SM BKN250=
202205211727 TAF KCLM 211727Z 2118/2218 VRB05KT P6SM SKC FM212300 35007KT P6SM
                       SKC FM220200 30007KT P6SM SKC FM221200 26007KT
                       P6SM SCT030=
202205211139 TAF KCLM 211139Z 2112/2212 26007KT P6SM SCT040 FM211800 04006KT
                       P6SM SKC FM212300 34007KT P6SM SKC FM220200
                       30007KT P6SM SKC=
202205210539 TAF KCLM 210539Z 2106/2206 28007KT P6SM SKC FM211200 27003KT P6SM
                       BKN040 FM211800 04006KT P6SM SKC FM212300
                       34007KT P6SM SKC=
202205202330 TAF KCLM 202330Z 2100/2124 VRB03KT P6SM SKC FM211200 27005KT P6SM
                       BKN040 FM211800 VRB05KT P6SM FEW045=
202205201735 TAF KCLM 201735Z 2018/2118 VRB06KT P6SM SKC FM202000 35006KT P6SM
                       SCT250 FM211200 27004KT P6SM BKN080=
202205201139 TAF KCLM 201139Z 2012/2112 28007KT P6SM SCT060 FM201600 32005KT
                       P6SM BKN100=
202205200528 TAF KCLM 200528Z 2006/2106 06007KT P6SM SCT040 FM200800 28007KT
                       P6SM SCT060 FM201600 32005KT P6SM BKN100=
202205192332 TAF KCLM 192332Z 2000/2024 29012G20KT P6SM SCT040 FM200800 28007KT
                       P6SM SCT060 FM201600 32005KT P6SM BKN100=
202205191739 TAF KCLM 191739Z 1918/2018 31012G20KT P6SM BKN045 FM200500 28007KT
                       P6SM SCT060 FM201000 26005KT P6SM BKN050
                       FM201600 32005KT P6SM BKN100=
202205191139 TAF KCLM 191139Z 1912/2012 25012KT P6SM VCSH OVC050 FM191900 33015KT
                       P6SM BKN060 FM200300 29007KT P6SM SCT060
                       FM201000 26005KT P6SM BKN050=
202205190539 TAF KCLM 190539Z 1906/2006 29013G21KT P6SM BKN050 FM191000 26013G20KT
                       P6SM VCSH OVC050 FM191700 33012KT P6SM BKN050=
202205182321 TAF KCLM 182321Z 1900/1924 29013G21KT P6SM BKN050 FM191000 26013G20KT
                       P6SM VCSH OVC050 FM191700 33012KT P6SM BKN050=
202205181742 TAF KCLM 181742Z 1818/1918 26010G18KT P6SM SCT045 BKN060 FM181900
                       30015G23KT P6SM BKN050 FM190300 28015G23KT
                       P6SM OVC050 FM191400 26013KT P6SM VCSH BKN050=
202205181137 TAF KCLM 181137Z 1812/1912 00000KT 6SM -RA BR SCT015 OVC050 FM181500
                       27015KT P6SM -RA OVC020 FM181800 29020G30KT
                       P6SM OVC040 FM190300 28015G23KT P6SM OVC050=
202205181101 KCLM 181101Z 1811/1906 00000KT 5SM -RA BR SCT006 BKN012 OVC020
                       FM181500 27015KT P6SM -RA OVC020 FM181800
                       29020G30KT P6SM OVC040 FM190300 28015G23KT
                       P6SM OVC050=
202205180530 TAF KCLM 180530Z 1806/1906 25003KT P6SM OVC080 FM181000 00000KT
                       P6SM -RA OVC050 FM181500 27015KT P6SM -RA
                       OVC035 FM181800 29020G30KT P6SM OVC040=
202205172322 TAF KCLM 172322Z 1800/1824 33005KT P6SM OVC040 FM180600 00000KT
                       P6SM OVC100 FM181000 00000KT P6SM -RA OVC050
                       FM181500 27015KT P6SM -RA OVC035 FM181800
                       29020G30KT P6SM OVC040=
202205171720 TAF KCLM 171720Z 1718/1818 03004KT P6SM OVC200 FM172200 36005KT
                       P6SM OVC100 FM180600 00000KT P6SM OVC100
                       FM181000 00000KT P6SM -RA OVC050 FM181500
                       27015KT P6SM -RA OVC050=
202205171136 TAF KCLM 171136Z 1712/1812 VRB02KT P6SM OVC100 FM171700 33008KT
                       P6SM OVC100 FM172200 36005KT P6SM OVC100
                       FM180600 00000KT P6SM OVC100 FM181000 00000KT
                       P6SM -RA OVC050=
202205170532 TAF KCLM 170532Z 1706/1806 23005KT P6SM FEW050 BKN250 FM170800
                       26008KT P6SM FEW050 OVC120 FM171200 25005KT
                       P6SM OVC100 FM171700 33008KT P6SM OVC100=
202205162320 TAF KCLM 162320Z 1700/1724 30010G22KT P6SM FEW050 FM170300 27010G18KT
                       P6SM FEW050 BKN250 FM170800 26008KT P6SM
                       FEW050 OVC120 FM171200 25005KT P6SM OVC100
                       FM171700 33008KT P6SM OVC100=
202205161737 TAF KCLM 161737Z 1618/1718 30013G22KT P6SM VCSH FEW020 FEW050 FM162000
                       27010G19KT P6SM FEW020 FEW050 FM170300 27010G18KT
                       P6SM FEW050 BKN250 FM170800 26008KT P6SM
                       FEW050 OVC120 FM171200 25005KT P6SM OVC100=
202205161204 KCLM 161204Z 1612/1712 29013G22KT P6SM SCT005 BKN015 OVC025
                      TEMPO 1612/1615 5SM -SHRA BR BKN003 OVC015
                       FM161500 29012KT P6SM SCT020 BKN050 FM161800
                       31013G20KT P6SM SCT050 BKN250 FM170300 27007KT
                       P6SM FEW050 BKN250=
202205161120 TAF KCLM 161120Z 1612/1712 26004KT P6SM BKN015 OVC025 FM161500
                       29010KT P6SM SCT020 BKN050 FM161800 31013G20KT
                       P6SM SCT050 BKN250 FM170300 27007KT P6SM
                       FEW050 BKN250=
202205160523 TAF KCLM 160523Z 1606/1706 00000KT P6SM SCT012 BKN080
                      TEMPO 1606/1610 BKN012 OVC080 FM161000 29008KT
                       P6SM OVC010 FM161500 29010KT P6SM SCT020
                       BKN050 FM161800 31013G20KT P6SM SCT050 BKN250
                       FM170300 27007KT P6SM FEW050 BKN250=
202205160311 KCLM 160311Z 1603/1624 VRB03KT P6SM SCT007 BKN050
                      TEMPO 1603/1606 -SHRA BKN005 OVC040 FM160800
                       29004KT P6SM VCSH OVC015 FM161200 29011KT
                       P6SM BKN035 FM161800 31016G22KT P6SM BKN050=
202205152320 TAF KCLM 152320Z 1600/1624 VRB03KT P6SM -SHRA SCT006 OVC015 FM160800
                       29004KT P6SM VCSH OVC015 FM161200 29011KT
                       P6SM BKN035 FM161800 31016G22KT P6SM BKN050=
202205151817 KCLM 151817Z 1518/1618 VRB03KT 6SM -RA BR FEW005 SCT012 OVC060
                       FM152300 30007KT 4SM -RA BR OVC015 FM161200
                       28011KT P6SM OVC015=
202205151727 TAF KCLM 151727Z 1518/1618 VRB03KT 5SM -RA BR OVC002 FM152300 30007KT
                       4SM -RA BR OVC015 FM161200 28011KT P6SM
                       OVC015=
202205151612 KCLM 151612Z 1516/1612 VRB03KT 4SM -RA BR BKN002 OVC070 FM151700
                       08005KT 5SM -RA BR BKN010 OVC020 FM160000
                       VRB04KT P6SM VCSH BKN035 BKN050 FM160600
                       27008KT P6SM SCT035 BKN050=
202205151123 TAF KCLM 151123Z 1512/1612 00000KT P6SM SCT050 OVC080 FM151400
                       VRB03KT P6SM -RA BKN020 OVC035 FM151700
                       08005KT 5SM -RA BR BKN010 OVC020 FM160000
                       VRB04KT P6SM VCSH BKN035 BKN050 FM160600
                       27008KT P6SM SCT035 BKN050=
202205150528 TAF KCLM 150528Z 1506/1606 23004KT P6SM SCT050 BKN250 FM150900
                       23004KT P6SM BKN050 OVC100 FM151400 VRB03KT
                       P6SM -RA BKN020 OVC035 FM151700 08005KT
                       5SM -RA BR BKN010 OVC020 FM160000 VRB04KT
                       P6SM VCSH BKN030 BKN050=
202205142320 TAF KCLM 142320Z 1500/1524 VRB04KT P6SM OVC080 FM150400 29007KT
                       P6SM OVC040 FM151600 VRB04KT P6SM -RA BKN020
                       OVC030=
202205141754 TAF KCLM 141754Z 1418/1518 03006KT P6SM BKN006 OVC020 FM142000
                       VRB04KT P6SM SCT040 BKN090 FM142300 VRB03KT
                       P6SM BKN050 FM150400 29007KT P6SM OVC040
                       FM151600 VRB04KT P6SM -RA BKN020 OVC030=
202205141121 TAF KCLM 141121Z 1412/1512 VRB03KT P6SM SCT040 BKN090
                      TEMPO 1412/1416 -SHRA BKN020 OVC040 FM142100
                       VRB03KT P6SM BKN050=
202205140520 TAF KCLM 140520Z 1406/1506 25004KT P6SM BKN050 OVC100 FM141000
                       VRB03KT P6SM VCSH OVC040 FM141300 VRB03KT
                       P6SM OVC015 FM142100 VRB03KT P6SM BKN050=
202205132320 TAF KCLM 132320Z 1400/1424 07005KT P6SM FEW050 FM140500 VRB05KT
                       P6SM -RA OVC050 FM141000 VRB03KT P6SM VCSH
                       OVC040 FM141600 10005KT P6SM OVC015=
202205131720 TAF KCLM 131720Z 1318/1418 04004KT P6SM BKN100 FM132200 04006KT
                       P6SM BKN050 OVC100 FM140500 VRB05KT P6SM
                       -RA OVC050 FM141000 VRB03KT P6SM VCSH OVC040
                       FM141600 10004KT P6SM OVC015=
202205131124 TAF KCLM 131124Z 1312/1412 24007KT P6SM VCSH FEW040 FEW150 FM131600
                       VRB05KT P6SM SCT050 SCT150 FM132200 04006KT
                       P6SM BKN050 OVC100 FM140500 VRB05KT P6SM
                       -RA OVC050 FM141000 VRB03KT P6SM VCSH OVC040=
202205130526 TAF KCLM 130526Z 1306/1406 26007KT P6SM VCSH SCT050 FM131700 VRB05KT
                       P6SM SCT050 SCT150 FM132200 04006KT P6SM
                       BKN050 OVC100 FM140400 VRB05KT P6SM -RA
                       OVC060=
202205122337 TAF KCLM 122337Z 1300/1324 30010G18KT 4SM -RA BR OVC030 FM130400
                       29012KT P6SM VCSH OVC030 FM131000 27008KT
                       P6SM BKN040 FM131700 VRB05KT P6SM OVC050
                       FM132300 09003KT P6SM OVC050=
202205121739 TAF KCLM 121739Z 1218/1318 31009G15KT 6SM -RA SCT007 OVC030 FM122300
                       30010G18KT 4SM -RA SCT007 OVC035 FM130400
                       29012G16KT P6SM VCSH BKN020 OVC030 FM131000
                       27008KT P6SM BKN040 FM131500 25005KT P6SM
                       BKN050=
202205121128 TAF KCLM 121128Z 1212/1312 VRB03KT P6SM -RA OVC050 FM121700 VRB05KT
                       4SM -RA SCT007 OVC018 FM130100 29012G20KT
                       P6SM VCSH BKN020 OVC030 FM130900 27008KT
                       P6SM BKN040=
202205120524 TAF KCLM 120524Z 1206/1306 VRB05KT P6SM VCSH OVC080 FM121200 23006KT
                       P6SM -RA OVC050 FM121700 VRB05KT 4SM -RA
                       SCT007 OVC018 FM130100 29012G20KT P6SM VCSH
                       BKN020 OVC030=
202205112335 TAF KCLM 112335Z 1200/1224 VRB04KT P6SM BKN080 FM120600 22003KT
                       P6SM VCSH BKN040 OVC060 FM121200 23003KT
                       P6SM -RA OVC050 FM121700 06002KT P6SM -RA
                       OVC030=
202205111735 TAF KCLM 111735Z 1118/1218 VRB05KT P6SM SCT030 BKN250 FM112200
                       30011KT P6SM BKN060 FM120600 VRB04KT P6SM
                       VCSH BKN040 OVC060 FM121200 23003KT P6SM
                       -RA OVC050=
202205111121 TAF KCLM 111121Z 1112/1212 VRB05KT P6SM BKN060 FM112300 30011KT
                       P6SM OVC080 FM120600 VRB04KT P6SM VCSH BKN040
                       OVC060=
202205110525 TAF KCLM 110525Z 1106/1206 27006KT P6SM OVC050 FM111200 25005KT
                       P6SM BKN060 BKN150 FM112300 32011KT P6SM
                       OVC100=
202205102333 TAF KCLM 102333Z 1100/1124 31008KT P6SM SCT030 BKN060 FM110600
                       27006KT P6SM BKN060 FM111700 36005KT P6SM
                       BKN060=
202205101733 TAF KCLM 101733Z 1018/1118 09006KT P6SM FEW030 BKN050 FM102100
                       34008KT P6SM FEW030 BKN050 FM110100 31010KT
                       P6SM SCT060 FM110600 27007KT P6SM BKN060=
202205101124 TAF KCLM 101124Z 1012/1112 24005KT P6SM SCT020 FM101800 33005KT
                       P6SM FEW030 SCT050 FM102300 30010KT P6SM
                       SCT060=
202205100522 TAF KCLM 100522Z 1006/1106 25006KT P6SM SCT050 FM100900 24005KT
                       P6SM SCT020 FM101800 33005KT P6SM SCT050=
202205092320 TAF KCLM 092320Z 1000/1024 32008G18KT P6SM FEW045 BKN060 FM100900
                       26010KT P6SM BKN050 FM101800 33005KT P6SM
                       BKN050=
202205091720 TAF KCLM 091720Z 0918/1018 36003KT P6SM BKN060 FM092000 28008G18KT
                       P6SM BKN050 FM100500 28012KT P6SM BKN050=
202205091120 TAF KCLM 091120Z 0912/1012 24010KT P6SM SCT045 FM091500 30007KT
                       P6SM BKN050 FM092000 30008G18KT P6SM BKN050
                       FM100500 28010KT P6SM BKN050=
202205090520 TAF KCLM 090520Z 0906/1006 25008KT P6SM FEW040 FM091500 30007KT
                       P6SM BKN050 FM092000 30008G18KT P6SM BKN050
                       FM100500 28010KT P6SM BKN050=
202205090340 KCLM 090340Z 0904/0924 28008G18KT P6SM FEW025 SCT030 BKN035 FM090500
                       29007KT P6SM BKN050 FM091500 30007KT P6SM
                       BKN050 FM092000 30008G18KT P6SM BKN050=
202205082320 TAF KCLM 082320Z 0900/0924 33010G18KT P6SM FEW030 FM090500 29007KT
                       P6SM BKN050 FM091500 30005KT P6SM BKN050=
202205081720 TAF KCLM 081720Z 0818/0918 34008KT P6SM SCT025 FM090000 31010G18KT
                       P6SM BKN100 FM090500 29007KT P6SM BKN050=
202205081120 TAF KCLM 081120Z 0812/0912 00000KT P6SM OVC035 FM081700 33005KT
                       P6SM BKN050 FM090000 31015KT P6SM BKN100
                       FM090500 29007KT P6SM BKN050=
202205080520 TAF KCLM 080520Z 0806/0906 23004KT P6SM OVC060 FM081000 27005KT
                       P6SM OVC050 FM081700 33005KT P6SM BKN050
                       FM090000 31015KT P6SM BKN100 FM090500 29007KT
                       P6SM BKN050=
202205072320 TAF KCLM 072320Z 0800/0824 30011G20KT P6SM BKN045 FM080300 27015KT
                       P6SM OVC050 FM080800 26007KT P6SM OVC050
                       FM081000 27005KT P6SM OVC050 FM081700 33005KT
                       P6SM BKN050=
202205071720 TAF KCLM 071720Z 0718/0818 30011G22KT P6SM BKN045 FM072100 30020G25KT
                       P6SM VCSH BKN030 FM080300 27015KT P6SM OVC050
                       FM081000 27005KT P6SM OVC050=
202205071122 TAF KCLM 071122Z 0712/0812 27013KT P6SM FEW050 FM071300 27015G25KT
                       P6SM BKN030 FM080300 27015KT P6SM OVC050
                       FM081000 27005KT P6SM OVC050=
202205070520 TAF KCLM 070520Z 0706/0806 VRB02KT P6SM VCSH OVC020 FM070800 27007KT
                       6SM -RA BR OVC020 FM071300 27015G22KT P6SM
                       OVC030 FM080300 27015KT P6SM OVC040=
202205062320 TAF KCLM 062320Z 0700/0724 VRB03KT P6SM SCT010 BKN020 OVC040 FM070200
                       00000KT 6SM -RA BR OVC025 FM070500 VRB02KT
                       P6SM VCSH OVC020 FM070800 27007KT 6SM -RA
                       BR OVC020 FM071300 27015G22KT P6SM OVC030=
202205061720 TAF KCLM 061720Z 0618/0718 07005KT P6SM FEW020 OVC030 FM062000
                       VRB03KT P6SM BKN020 FM070200 00000KT 6SM
                       -RA BR OVC025 FM070500 VRB02KT P6SM VCSH
                       OVC020 FM070800 27007KT 6SM -RA BR OVC020
                       FM071300 27015G22KT P6SM OVC030=
202205061120 TAF KCLM 061120Z 0612/0712 23004KT P6SM FEW030 OVC045 FM061500
                       12004KT P6SM SCT020 OVC050 FM062000 VRB03KT
                       P6SM BKN020 FM070500 VRB02KT P6SM VCSH OVC020
                       FM070800 27007KT 6SM -RA BR OVC020=
202205060522 TAF KCLM 060522Z 0606/0706 32008KT P6SM FEW020 BKN030 FM060900
                       25005KT P6SM SCT020 OVC050 FM061500 12004KT
                       P6SM SCT020 OVC050 FM062000 VRB03KT P6SM
                       BKN020 FM070500 VRB02KT P6SM VCSH OVC020=
202205052335 TAF KCLM 052335Z 0600/0624 07005KT P6SM -RA FEW011 OVC050 FM060300
                       30005KT 6SM -RA OVC020 FM060900 25005KT
                       P6SM SCT020 OVC050 FM061500 12004KT P6SM
                       SCT020 OVC050=
202205051752 KCLM 051752Z 0518/0618 30003KT 4SM -RA BKN003 OVC050 FM060300 30010KT
                       6SM -RA OVC030 FM060900 25005KT P6SM SCT020
                       OVC050=
202205051720 TAF KCLM 051720Z 0518/0618 30003KT 4SM -RA OVC050 FM060300 30010KT
                       6SM -RA OVC030 FM060900 25005KT P6SM SCT020
                       OVC050=
202205051511 KCLM 051511Z 0515/0612 VRB03KT P6SM OVC005
                      TEMPO 0515/0517 OVC005 FM051800 03003KT 4SM
                       -RA OVC015 FM060100 32004KT 6SM -RA OVC050
                       FM060900 30010KT P6SM SCT020 OVC050=
202205051123 TAF KCLM 051123Z 0512/0612 VRB03KT P6SM VCSH OVC100 FM051500 VRB03KT
                       4SM -RA OVC015 FM060100 32004KT 6SM -RA
                       OVC050 FM060900 30010KT P6SM SCT020 OVC050=
202205050520 TAF KCLM 050520Z 0506/0606 VRB03KT P6SM VCSH FEW007 BKN030 OVC080
                       FM051000 VRB03KT P6SM -RA OVC040 FM051400
                       VRB03KT 4SM -RA OVC015 FM060100 32004KT
                       6SM -RA OVC050=
202205042329 TAF KCLM 042329Z 0500/0524 VRB03KT P6SM FEW012 OVC100 FM050400
                       VRB03KT P6SM VCSH BKN050 OVC080 FM051000
                       VRB03KT P6SM -RA OVC040 FM051400 VRB03KT
                       4SM -RA OVC015=
202205041914 KCLM 041914Z 0419/0518 07005KT P6SM OVC009 FM042200 08006KT P6SM
                       SCT010 BKN050 OVC100 FM050400 VRB03KT P6SM
                       VCSH BKN050 OVC080 FM051000 VRB03KT P6SM
                       -RA OVC040 FM051400 VRB03KT 4SM -RA OVC015=
202205041731 TAF KCLM 041731Z 0418/0518 VRB03KT P6SM BKN050 OVC100 FM050400
                       VRB03KT P6SM VCSH BKN050 OVC080 FM051000
                       VRB03KT P6SM -RA OVC040 FM051400 VRB03KT
                       4SM -RA OVC015=
202205041135 TAF KCLM 041135Z 0412/0512 VRB03KT P6SM -RA OVC015 FM041800 VRB03KT
                       P6SM SCT020 BKN030 OVC050 FM042100 VRB03KT
                       P6SM SCT035 OVC050 FM050000 VRB03KT P6SM
                       SCT050 OVC100 FM051000 VRB03KT P6SM -RA
                       OVC040=
202205040535 TAF KCLM 040535Z 0406/0506 25006KT P6SM SCT025 OVC050
                      TEMPO 0406/0410 BKN025 OVC050 FM041800 VRB03KT
                       P6SM SCT050 OVC100=
202205040307 KCLM 040307Z 0403/0424 29003KT P6SM -RA BKN045 BKN060 OVC080 FM041200
                       27003KT P6SM OVC020 FM041800 35005KT P6SM
                       OVC050=
202205032338 TAF KCLM 032338Z 0400/0424 30012G19KT P6SM VCSH FEW015 BKN030 OVC050
                       FM040900 27003KT P6SM OVC020 FM041800 35005KT
                       P6SM OVC050=
202205031743 TAF KCLM 031743Z 0318/0418 31009G16KT P6SM BKN014 FM032300 31006KT
                       P6SM VCSH BKN030 BKN150 FM040900 27003KT
                       P6SM OVC020=
202205031143 TAF KCLM 031143Z 0312/0412 27006KT P6SM SCT020 FM031400 27006KT
                       P6SM BKN020 FM031700 27006KT P6SM BKN040
                       FM032300 31006KT P6SM SCT050 BKN150=
202205030532 TAF KCLM 030532Z 0306/0406 27006KT P6SM SCT045 FM030900 27006KT
                       P6SM BKN015 OVC025 FM031900 31008KT P6SM
                       BKN050=
202205022343 TAF KCLM 022343Z 0300/0324 30012G18KT P6SM SCT050 FM030900 28007KT
                       P6SM BKN025 FM031900 33011G18KT P6SM BKN050=
202205021741 TAF KCLM 021741Z 0218/0318 32008KT P6SM -SHRA BKN013 OVC020 FM022100
                       30012G18KT P6SM VCSH SCT030 BKN040 FM030900
                       28007KT P6SM BKN025=
202205021505 KCLM 021505Z 0215/0312 29008KT P6SM SCT008 OVC013 FM021800 28008KT
                       P6SM BKN015 OVC050 FM022100 28012KT P6SM
                       SCT030 BKN060 FM030900 28007KT P6SM BKN030=
202205021120 TAF KCLM 021120Z 0212/0312 27007KT P6SM -RA SCT005 OVC020
                      TEMPO 0212/0216 5SM -RA BR BKN005 OVC020
                       FM021800 28008KT P6SM BKN015 OVC050 FM022100
                       28012KT P6SM SCT030 BKN060 FM030900 28007KT
                       P6SM BKN030=
202205020520 TAF KCLM 020520Z 0206/0306 00000KT P6SM SCT050 OVC100 FM020800
                       25003KT P6SM -RA OVC040 FM021000 26004KT
                       P6SM -RA OVC025 FM021200 26004KT P6SM -RA
                       OVC007 FM021900 32009KT P6SM OVC025=
202205012325 TAF KCLM 012325Z 0200/0224 VRB04KT P6SM OVC035 FM020800 25003KT
                       P6SM -RA OVC040 FM021000 26004KT P6SM -RA
                       OVC025 FM021200 26004KT P6SM -RA OVC007
                       FM021900 32009KT P6SM OVC025=
202205012101 KCLM 012101Z 0121/0218 33005KT P6SM BKN045 OVC060 FM012300 30005KT
                       P6SM OVC100 FM021000 26004KT P6SM -RA OVC050
                       FM021400 27004KT P6SM -RA OVC025=
202205011726 TAF KCLM 011726Z 0118/0218 33005KT P6SM FEW045 BKN200 FM012300
                       30005KT P6SM OVC100 FM021000 26004KT P6SM
                       -RA OVC050 FM021400 27004KT P6SM -RA OVC025=
202205011120 TAF KCLM 011120Z 0112/0212 VRB03KT P6SM SCT015 FM011800 VRB03KT
                       P6SM SCT040 SCT200 FM012200 25005KT P6SM
                       OVC200 FM020300 27007KT P6SM BKN050 OVC090
                       FM020800 VRB03KT P6SM -RA SCT025 OVC040=
202205010700 KCLM 010700Z 0107/0206 VRB03KT P6SM SCT015
                      TEMPO 0107/0110 BKN015 FM011100 00000KT P6SM
                       BKN015
                      TEMPO 0112/0116 3SM BR OVC010 FM011800 09005KT
                       P6SM SCT040 BKN200 FM012200 09007KT P6SM
                       SCT050 OVC120 FM020200 VRB04KT P6SM BKN040
                       OVC090=
202205010524 TAF KCLM 010524Z 0106/0206 VRB03KT P6SM SKC FM011100 00000KT P6SM
                       SCT010
                      TEMPO 0112/0116 3SM BR BKN010 FM011800 09005KT
                       P6SM SCT040 BKN200 FM012200 09007KT P6SM
                       SCT050 OVC120 FM020200 VRB04KT P6SM BKN040
                       OVC090=