##########################################################
# Query made at 02/16/2025 05:35:35 UTC
# Time interval: from 08/01/2022 00:00  to 08/31/2022 23:59  UTC
##########################################################

##########################################################
# KCLM, Port Angeles, William R. Fairchild International Airport (United States)
# WMO index: -----. WIGOS ID: Unknown
# Latitude 48-07-20N. Longitude 123-30-19W. Altitude 87 m.
##########################################################

###################################
#  METAR/SPECI from KCLM
###################################
202208312353 METAR KCLM 312353Z AUTO 30010G17KT 10SM CLR 23/14 A2995 RMK AO2 SLP140 T02280144 10244 20206 55002=
202208312253 METAR KCLM 312253Z AUTO 29008KT 10SM CLR 23/14 A2995 RMK AO2 SLP140 T02330144=
202208312053 METAR KCLM 312053Z AUTO 30006KT 10SM CLR 22/14 A2995 RMK AO2 SLP142 T02170139 53003=
202208311953 METAR KCLM 311953Z AUTO VRB05KT 10SM CLR 24/14 A2994 RMK AO2 SLP137 T02390139=
202208311853 METAR KCLM 311853Z AUTO 35005KT 10SM CLR 22/14 A2995 RMK AO2 SLP141 T02220139=
202208311753 METAR KCLM 311753Z AUTO 35005KT 10SM CLR 22/14 A2995 RMK AO2 SLP139 T02220139 10228 20144 53000=
202208311653 METAR KCLM 311653Z AUTO 32003KT 10SM CLR 21/14 A2994 RMK AO2 SLP137 T02110144=
202208311553 METAR KCLM 311553Z AUTO 33004KT 10SM CLR 19/13 A2995 RMK AO2 SLP140 T01890133=
202208311453 METAR KCLM 311453Z AUTO 30003KT 10SM CLR 17/13 A2995 RMK AO2 SLP139 T01720133 53007=
202208311353 METAR KCLM 311353Z AUTO 22003KT 10SM CLR 16/12 A2993 RMK AO2 SLP132 T01560122=
202208311253 METAR KCLM 311253Z AUTO 00000KT 10SM CLR 16/12 A2992 RMK AO2 SLP130 T01560117=
202208311153 METAR KCLM 311153Z AUTO 00000KT 10SM CLR 16/12 A2992 RMK AO2 SLP131 T01610122 10183 20156 56003=
202208311053 METAR KCLM 311053Z AUTO 23003KT 10SM CLR 17/12 A2993 RMK AO2 SLP133 T01670122=
202208310853 METAR KCLM 310853Z AUTO 00000KT 10SM CLR 18/13 A2993 RMK AO2 SLP134 T01780128 58005=
202208310753 METAR KCLM 310753Z AUTO 22003KT 10SM CLR 16/13 A2994 RMK AO2 SLP137 T01610128 403000144=
202208310653 METAR KCLM 310653Z AUTO 22004KT 10SM CLR 18/14 A2994 RMK AO2 SLP138 T01780139=
202208310553 METAR KCLM 310553Z AUTO 22003KT 10SM CLR 17/14 A2995 RMK AO2 SLP139 T01720139 10294 20167 51005=
202208310253 METAR KCLM 310253Z AUTO 29003KT 10SM CLR 22/13 A2993 RMK AO2 SLP134 T02170133 56011=
202208310153 METAR KCLM 310153Z AUTO 12003KT 10SM CLR 29/13 A2994 RMK AO2 SLP136 T02940133=
202208310053 METAR KCLM 310053Z AUTO 09003KT 10SM CLR 29/14 A2995 RMK AO2 SLP142 T02940139=
202208302353 METAR KCLM 302353Z AUTO 08006KT 10SM CLR 29/14 A2996 RMK AO2 SLP145 T02940139 10300 20250 57016=
202208302253 METAR KCLM 302253Z AUTO 08005KT 10SM CLR 29/14 A2998 RMK AO2 SLP151 T02940139=
202208302053 METAR KCLM 302053Z AUTO VRB04KT 10SM CLR 28/14 A3001 RMK AO2 SLP162 T02830144 58008=
202208301953 METAR KCLM 301953Z AUTO VRB06KT 10SM CLR 28/14 A3002 RMK AO2 SLP166 T02780144=
202208301853 METAR KCLM 301853Z AUTO 10008KT 10SM CLR 26/15 A3004 RMK AO2 SLP170 T02610150=
202208301753 METAR KCLM 301753Z AUTO 09008KT 10SM CLR 26/14 A3004 RMK AO2 SLP170 T02610144 10261 20144 53004=
202208301653 METAR KCLM 301653Z AUTO 10010KT 10SM CLR 26/14 A3003 RMK AO2 SLP169 T02560144=
202208301553 METAR KCLM 301553Z AUTO 11010KT 10SM CLR 26/15 A3003 RMK AO2 SLP167 T02560150=
202208301453 METAR KCLM 301453Z AUTO 00000KT 10SM CLR 20/15 A3003 RMK AO2 SLP166 T02000150 53006=
202208301353 METAR KCLM 301353Z AUTO 23003KT 10SM CLR 15/13 A3002 RMK AO2 SLP164 T01500128=
202208301253 METAR KCLM 301253Z AUTO 00000KT 10SM CLR 14/12 A3001 RMK AO2 SLP161 T01440122=
202208301153 METAR KCLM 301153Z AUTO 00000KT 10SM CLR 16/13 A3001 RMK AO2 SLP160 T01560128 10167 20144 53003=
202208301053 METAR KCLM 301053Z AUTO 00000KT 10SM CLR 14/12 A3000 RMK AO2 SLP158 T01440122=
202208300953 METAR KCLM 300953Z AUTO 00000KT 10SM CLR 16/13 A3000 RMK AO2 SLP158 T01560128=
202208300853 METAR KCLM 300853Z AUTO 00000KT 10SM CLR 16/13 A3000 RMK AO2 SLP158 T01560128 50001=
202208300753 METAR KCLM 300753Z AUTO 00000KT 10SM CLR 16/12 A3000 RMK AO2 SLP158 T01560122 402500106=
202208300653 METAR KCLM 300653Z AUTO 00000KT 10SM CLR 16/12 A3000 RMK AO2 SLP158 T01560117=
202208300553 METAR KCLM 300553Z AUTO 00000KT 10SM CLR 17/12 A3000 RMK AO2 SLP156 T01670122 10250 20156 51000=
202208300453 METAR KCLM 300453Z AUTO 00000KT 10SM CLR 17/11 A3000 RMK AO2 SLP157 T01670111=
202208300353 METAR KCLM 300353Z AUTO 23003KT 10SM CLR 17/10 A3000 RMK AO2 SLP158 T01720100=
202208300253 METAR KCLM 300253Z AUTO 30006KT 10SM CLR 19/09 A3000 RMK AO2 SLP156 T01890094 55003=
202208300153 METAR KCLM 300153Z AUTO 30003KT 10SM CLR 22/09 A2999 RMK AO2 SLP157 T02170094=
202208300053 METAR KCLM 300053Z AUTO 34003KT 10SM CLR 23/11 A3000 RMK AO2 SLP160 T02280106=
202208292353 METAR KCLM 292353Z AUTO 03004KT 10SM CLR 25/10 A3000 RMK AO2 SLP159 T02500100 10250 20194 58016=
202208292253 METAR KCLM 292253Z AUTO 35003KT 10SM CLR 24/09 A3003 RMK AO2 SLP167 T02390094=
202208292153 METAR KCLM 292153Z AUTO VRB04KT 10SM CLR 25/09 A3004 RMK AO2 SLP171 T02500089=
202208292053 METAR KCLM 292053Z AUTO 33006KT 10SM CLR 22/10 A3005 RMK AO2 SLP175 T02220100 58008=
202208291953 METAR KCLM 291953Z AUTO 34004KT 10SM CLR 22/10 A3007 RMK AO2 SLP181 T02170100=
202208291853 METAR KCLM 291853Z AUTO 34004KT 10SM CLR 21/12 A3008 RMK AO2 SLP185 T02060117=
202208291753 METAR KCLM 291753Z AUTO 36004KT 10SM CLR 20/12 A3008 RMK AO2 SLP183 T02000122 10200 20106 53011=
202208291653 METAR KCLM 291653Z AUTO 32004KT 10SM CLR 18/12 A3006 RMK AO2 SLP179 T01780117=
202208291553 METAR KCLM 291553Z AUTO 35004KT 10SM CLR 17/12 A3005 RMK AO2 SLP175 T01670117=
202208291453 METAR KCLM 291453Z AUTO 00000KT 10SM CLR 16/12 A3004 RMK AO2 SLP173 T01610122 53006=
202208291353 METAR KCLM 291353Z AUTO 15003KT 10SM CLR 11/10 A3003 RMK AO2 SLP169 T01110100=
202208291253 METAR KCLM 291253Z AUTO 00000KT 10SM CLR 11/09 A3002 RMK AO2 SLP167 T01060094=
202208291153 METAR KCLM 291153Z AUTO 22003KT 9SM CLR 11/10 A3002 RMK AO2 SLP167 T01060100 10161 20106 51005=
202208291053 METAR KCLM 291053Z AUTO 00000KT 10SM CLR 12/10 A3002 RMK AO2 SLP164 T01170100=
202208290953 METAR KCLM 290953Z AUTO 00000KT 10SM CLR 13/11 A3002 RMK AO2 SLP165 T01330106=
202208290853 METAR KCLM 290853Z AUTO 29005KT 10SM CLR 14/11 A3001 RMK AO2 SLP162 T01440111 53006=
202208290753 METAR KCLM 290753Z AUTO 29007KT 10SM CLR 15/12 A3000 RMK AO2 SLP157 T01500117 402060100=
202208290653 METAR KCLM 290653Z AUTO 27008KT 10SM CLR 16/11 A3000 RMK AO2 SLP158 T01560111=
202208290553 METAR KCLM 290553Z AUTO 27004KT 10SM CLR 15/11 A2999 RMK AO2 SLP156 T01500111 10183 20144 58002=
202208290453 METAR KCLM 290453Z AUTO 29007KT 10SM CLR 15/11 A3000 RMK AO2 SLP160 T01500111=
202208290253 METAR KCLM 290253Z AUTO 27007KT 10SM CLR 16/12 A3000 RMK AO2 SLP158 T01610117 55001=
202208290153 METAR KCLM 290153Z AUTO 30006KT 10SM CLR 17/12 A3000 RMK AO2 SLP157 T01670117=
202208290053 METAR KCLM 290053Z AUTO 29008KT 10SM CLR 17/12 A2999 RMK AO2 SLP156 T01720117=
202208282353 METAR KCLM 282353Z AUTO 30005KT 10SM CLR 18/12 A3000 RMK AO2 SLP159 T01830117 10206 20161 58006=
202208282253 METAR KCLM 282253Z AUTO 34007KT 10SM CLR 19/12 A3002 RMK AO2 SLP164 T01890117=
202208282153 METAR KCLM 282153Z AUTO 33005KT 10SM CLR 18/11 A3003 RMK AO2 SLP167 T01830111=
202208282053 METAR KCLM 282053Z AUTO 03006KT 10SM CLR 19/11 A3002 RMK AO2 SLP165 T01890106 58008=
202208281953 METAR KCLM 281953Z AUTO VRB04KT 10SM CLR 18/11 A3004 RMK AO2 SLP172 T01830111=
202208281853 METAR KCLM 281853Z AUTO VRB05KT 10SM CLR 17/11 A3005 RMK AO2 SLP174 T01670111=
202208281753 METAR KCLM 281753Z AUTO VRB04KT 10SM CLR 17/11 A3004 RMK AO2 SLP173 T01670111 10167 20100 51005=
202208281653 METAR KCLM 281653Z AUTO VRB05KT 10SM CLR 16/11 A3004 RMK AO2 SLP173 T01610111=
202208281553 METAR KCLM 281553Z AUTO 34004KT 10SM CLR 16/11 A3004 RMK AO2 SLP171 T01610106=
202208281453 METAR KCLM 281453Z AUTO 00000KT 10SM CLR 13/11 A3003 RMK AO2 SLP168 T01330106 53004=
202208281353 METAR KCLM 281353Z AUTO 23006KT 10SM CLR 11/09 A3003 RMK AO2 SLP168 T01060089=
202208281253 METAR KCLM 281253Z AUTO 23003KT 10SM SCT070 11/10 A3001 RMK AO2 SLP163 T01110100=
202208281153 METAR KCLM 281153Z AUTO 24004KT 10SM FEW070 12/10 A3002 RMK AO2 SLP164 T01170100 10128 20111 53002=
202208281053 METAR KCLM 281053Z AUTO 26004KT 10SM SCT070 12/10 A3001 RMK AO2 SLP162 T01170100=
202208280953 METAR KCLM 280953Z AUTO 24003KT 10SM BKN070 12/10 A3001 RMK AO2 SLP163 T01170100=
202208280853 METAR KCLM 280853Z AUTO 00000KT 10SM SCT075 12/10 A3001 RMK AO2 SLP162 T01170100 50001=
202208280753 METAR KCLM 280753Z AUTO 23003KT 10SM CLR 12/10 A3001 RMK AO2 SLP163 T01220100 402000106=
202208280653 METAR KCLM 280653Z AUTO 24004KT 10SM BKN110 13/11 A3001 RMK AO2 SLP162 T01280106=
202208280553 METAR KCLM 280553Z AUTO 29003KT 9SM CLR 12/10 A3001 RMK AO2 SLP161 T01220100 10189 20122 50003=
202208280453 METAR KCLM 280453Z AUTO 30004KT 10SM CLR 13/11 A3001 RMK AO2 SLP162 T01280106=
202208280253 METAR KCLM 280253Z AUTO 29005KT 10SM BKN038 14/11 A3000 RMK AO2 SLP158 T01440111 50001=
202208280153 METAR KCLM 280153Z AUTO 30006KT 10SM OVC041 16/11 A3000 RMK AO2 SLP158 T01560111=
202208280053 METAR KCLM 280053Z AUTO 30008KT 10SM BKN041 17/11 A3000 RMK AO2 SLP157 T01720111=
202208272353 METAR KCLM 272353Z AUTO 35005KT 10SM CLR 18/11 A2999 RMK AO2 SLP157 T01830106 10200 20172 55001=
202208272253 METAR KCLM 272253Z AUTO 01005KT 10SM CLR 19/10 A2999 RMK AO2 SLP155 T01890100=
202208272153 METAR KCLM 272153Z AUTO 35005KT 10SM CLR 18/11 A2999 RMK AO2 SLP156 T01830106=
202208272053 METAR KCLM 272053Z AUTO VRB05KT 10SM CLR 20/11 A3000 RMK AO2 SLP158 T02000111 53003=
202208271953 METAR KCLM 271953Z AUTO 32008KT 10SM CLR 18/11 A2999 RMK AO2 SLP155 T01830111=
202208271853 METAR KCLM 271853Z AUTO 32005KT 10SM CLR 18/11 A2998 RMK AO2 SLP152 T01830111=
202208271753 METAR KCLM 271753Z AUTO VRB04KT 10SM CLR 17/11 A2999 RMK AO2 SLP155 T01720111 10172 20106 51012=
202208271653 METAR KCLM 271653Z AUTO 33005KT 10SM CLR 17/12 A2998 RMK AO2 SLP151 T01720117=
202208271553 METAR KCLM 271553Z AUTO VRB04KT 10SM FEW050 16/11 A2997 RMK AO2 SLP148 T01610111=
202208271453 METAR KCLM 271453Z AUTO 00000KT 10SM BKN046 BKN055 14/12 A2996 RMK AO2 SLP143 T01440117 52004=
202208271353 METAR KCLM 271353Z AUTO 22003KT 10SM SCT010 OVC043 13/11 A2995 RMK AO2 SLP143 T01330111=
202208271337 SPECI KCLM 271337Z AUTO 22003KT 10SM BKN010 OVC045 13/11 A2995 RMK AO2 T01280106=
202208271253 METAR KCLM 271253Z AUTO 21004KT 10SM BKN043 12/11 A2995 RMK AO2 SLP140 T01220106=
202208271153 METAR KCLM 271153Z AUTO 21003KT 10SM CLR 12/10 A2994 RMK AO2 SLP140 T01170100 10139 20117 56003=
202208271053 METAR KCLM 271053Z AUTO 24006KT 10SM CLR 12/11 A2995 RMK AO2 SLP140 T01220106=
202208271008 SPECI KCLM 271008Z AUTO 26008KT 10SM SCT009 13/11 A2995 RMK AO2 T01280106=
202208270953 METAR KCLM 270953Z AUTO 26008KT 10SM BKN009 13/11 A2995 RMK AO2 SLP142 T01280111=
202208270853 METAR KCLM 270853Z AUTO 28007KT 10SM BKN008 13/11 A2995 RMK AO2 SLP143 T01280111 56005=
202208270753 METAR KCLM 270753Z AUTO 27009KT 10SM BKN007 13/12 A2996 RMK AO2 SLP143 T01330117 401940133=
202208270653 METAR KCLM 270653Z AUTO 27011KT 10SM BKN005 OVC009 14/12 A2996 RMK AO2 SLP145 T01390117=
202208270618 SPECI KCLM 270618Z AUTO 29005KT 10SM OVC005 14/12 A2997 RMK AO2 CIG 004V008 T01390122=
202208270553 METAR KCLM 270553Z AUTO 29009KT 10SM OVC004 14/12 A2997 RMK AO2 SLP148 T01390122 10178 20139 50000=
202208270453 METAR KCLM 270453Z AUTO 28009KT 10SM OVC006 14/12 A2999 RMK AO2 CIG 004V010 SLP154 T01440122=
202208270353 METAR KCLM 270353Z AUTO 27010KT 10SM OVC006 14/12 A2998 RMK AO2 CIG 005V009 SLP150 T01440122=
202208270311 SPECI KCLM 270311Z AUTO 30005KT 10SM BKN008 14/12 A2997 RMK AO2 T01440122=
202208270303 SPECI KCLM 270303Z AUTO 28006KT 10SM SCT008 14/12 A2997 RMK AO2 T01440122=
202208270251 METAR KCLM 270251Z AUTO 25005KT 10SM BKN009 15/12 A2997 RMK AO2 SLP148 T01500122 58008=
202208270250 SPECI KCLM 270250Z AUTO 26006KT 10SM BKN009 15/12 A2997 RMK AO2=
202208270153 METAR KCLM 270153Z AUTO 30007KT 10SM FEW012 17/13 A2998 RMK AO2 SLP151 T01670128=
202208270118 SPECI KCLM 270118Z AUTO 28008G15KT 10SM SCT012 17/13 A2998 RMK AO2 T01720128=
202208270053 METAR KCLM 270053Z AUTO 31004KT 10SM BKN013 17/13 A2999 RMK AO2 SLP156 T01720128=
202208262353 METAR KCLM 262353Z AUTO 30008KT 10SM BKN012 BKN020 18/13 A2999 RMK AO2 SLP156 T01780133 10194 20161 56006=
202208262346 SPECI KCLM 262346Z AUTO 10SM SCT012 BKN020 18/13 A2999 RMK AO2 T01780133=
202208262253 METAR KCLM 262253Z AUTO 31008KT 10SM CLR 18/13 A2999 RMK AO2 SLP156 T01780133=
202208262153 METAR KCLM 262153Z AUTO 32007KT 10SM CLR 18/13 A3000 RMK AO2 SLP160 T01830133=
202208262121 SPECI KCLM 262121Z AUTO VRB03KT 10SM FEW012 BKN070 OVC100 18/13 A3000 RMK AO2 T01830133=
202208262053 METAR KCLM 262053Z AUTO VRB03KT 10SM OVC011 18/13 A3001 RMK AO2 SLP163 T01830133 50000=
202208262021 SPECI KCLM 262021Z AUTO 32005KT 10SM OVC012 17/13 A3001 RMK AO2 T01670128=
202208262008 SPECI KCLM 262008Z AUTO 33006KT 10SM OVC009 18/13 A3002 RMK AO2 CIG 008V013 T01780133=
202208261953 METAR KCLM 261953Z AUTO 31005KT 10SM OVC010 17/13 A3002 RMK AO2 CIG 008V012 SLP165 T01720133=
202208261853 METAR KCLM 261853Z AUTO 32004KT 10SM OVC010 17/13 A3002 RMK AO2 CIG 007V012 SLP165 T01670128=
202208261753 METAR KCLM 261753Z AUTO 00000KT 10SM OVC010 17/13 A3001 RMK AO2 SLP162 T01670128 10167 20139 50001=
202208261717 SPECI KCLM 261717Z AUTO 06003KT 10SM OVC010 16/12 A3002 RMK AO2 T01610122=
202208261653 METAR KCLM 261653Z AUTO 00000KT 10SM BKN007 OVC013 16/13 A3001 RMK AO2 CIG 007V010 SLP163 T01610128=
202208261553 METAR KCLM 261553Z AUTO 33003KT 6SM BR OVC006 15/13 A3002 RMK AO2 SLP165 T01500128=
202208261524 SPECI KCLM 261524Z AUTO 29003KT 6SM BR OVC005 14/13 A3001 RMK AO2 T01440128=
202208261453 METAR KCLM 261453Z AUTO 30004KT 3SM BR OVC004 14/12 A3001 RMK AO2 SLP162 T01390122 53003=
202208261445 SPECI KCLM 261445Z AUTO 28005KT 5SM BR OVC004 14/12 A3001 RMK AO2 T01390122=
202208261353 METAR KCLM 261353Z AUTO 28004KT 10SM OVC005 14/12 A2999 RMK AO2 SLP157 T01390122=
202208261349 SPECI KCLM 261349Z AUTO 27004KT 10SM OVC005 14/12 A2999 RMK AO2=
202208261253 METAR KCLM 261253Z AUTO 29005KT 10SM OVC004 14/12 A3000 RMK AO2 SLP158 T01390122=
202208261153 METAR KCLM 261153Z AUTO 28006KT 10SM OVC004 14/12 A3000 RMK AO2 SLP157 T01390122 10139 20139 53004=
202208261136 SPECI KCLM 261136Z AUTO 29006KT 10SM OVC005 14/12 A2999 RMK AO2 T01390122=
202208261105 SPECI KCLM 261105Z AUTO VRB06KT 10SM OVC004 14/12 A2999 RMK AO2 T01390122=
202208261053 METAR KCLM 261053Z AUTO 28007KT 10SM OVC005 14/12 A2999 RMK AO2 SLP154 T01390122=
202208260953 METAR KCLM 260953Z AUTO 28008G16KT 10SM OVC005 14/12 A2999 RMK AO2 SLP153 T01390122=
202208260945 SPECI KCLM 260945Z AUTO 28008KT 10SM OVC005 14/12 A2999 RMK AO2 T01390122=
202208260853 METAR KCLM 260853Z AUTO 28011G21KT 10SM OVC004 14/12 A2999 RMK AO2 SLP153 T01390122 52005=
202208260753 METAR KCLM 260753Z AUTO 28011G18KT 10SM OVC003 14/13 A2998 RMK AO2 SLP152 T01390128 402280122=
202208260653 METAR KCLM 260653Z AUTO 29010G19KT 8SM OVC002 14/12 A2997 RMK AO2 SLP148 T01390122=
202208260553 METAR KCLM 260553Z AUTO 29012G18KT 6SM BR OVC003 14/13 A2997 RMK AO2 SLP148 T01390128 10217 20139 50003=
202208260453 METAR KCLM 260453Z AUTO 29009G19KT 10SM BKN004 14/13 A2998 RMK AO2 SLP152 T01390128=
202208260428 SPECI KCLM 260428Z AUTO 29010KT 10SM BKN004 14/13 A2997 RMK AO2 T01440128=
202208260411 SPECI KCLM 260411Z AUTO 30012G18KT 10SM BKN005 14/12 A2997 RMK AO2 T01440122=
202208260353 METAR KCLM 260353Z AUTO 29007KT 10SM FEW005 14/13 A2997 RMK AO2 SLP148 T01440128=
202208260253 METAR KCLM 260253Z AUTO 27009KT 10SM CLR 16/13 A2996 RMK AO2 SLP145 T01610128 56004=
202208260153 METAR KCLM 260153Z AUTO 28008KT 10SM CLR 19/14 A2996 RMK AO2 SLP145 T01940139=
202208260053 METAR KCLM 260053Z AUTO 31005KT 10SM CLR 21/14 A2996 RMK AO2 SLP145 T02110144=
202208252353 METAR KCLM 252353Z AUTO 30008KT 10SM CLR 22/14 A2997 RMK AO2 SLP149 T02170144 10228 20194 56009=
202208252253 METAR KCLM 252253Z AUTO 30009KT 10SM CLR 21/14 A2998 RMK AO2 SLP153 T02060139=
202208252153 METAR KCLM 252153Z AUTO 29005KT 10SM CLR 22/14 A2998 RMK AO2 SLP152 T02220139=
202208252053 METAR KCLM 252053Z AUTO 31007KT 10SM CLR 22/13 A3000 RMK AO2 SLP157 T02170133 58003=
202208251953 METAR KCLM 251953Z AUTO 34006KT 10SM CLR 21/13 A3001 RMK AO2 SLP160 T02110133=
202208251853 METAR KCLM 251853Z AUTO VRB04KT 10SM CLR 22/13 A3001 RMK AO2 SLP160 T02220133=
202208251753 METAR KCLM 251753Z AUTO 35004KT 10SM CLR 20/13 A3001 RMK AO2 SLP161 T02000128 10200 20122 51004=
202208251653 METAR KCLM 251653Z AUTO 32004KT 10SM CLR 19/13 A3001 RMK AO2 SLP161 T01890133=
202208251553 METAR KCLM 251553Z AUTO 27004KT 10SM CLR 18/13 A3000 RMK AO2 SLP159 T01780133=
202208251453 METAR KCLM 251453Z AUTO 26003KT 10SM CLR 16/13 A3000 RMK AO2 SLP157 T01560133 53013=
202208251353 METAR KCLM 251353Z AUTO 00000KT 10SM CLR 13/12 A2998 RMK AO2 SLP153 T01280117=
202208251253 METAR KCLM 251253Z AUTO 26003KT 10SM CLR 13/12 A2996 RMK AO2 SLP145 T01280117=
202208251153 METAR KCLM 251153Z AUTO 00000KT 10SM CLR 12/11 A2996 RMK AO2 SLP143 T01220111 10189 20122 53008=
202208251053 METAR KCLM 251053Z AUTO 00000KT 10SM CLR 13/12 A2994 RMK AO2 SLP138 T01330122=
202208250953 METAR KCLM 250953Z AUTO 29004KT 10SM CLR 14/12 A2993 RMK AO2 SLP134 T01390122=
202208250853 METAR KCLM 250853Z AUTO 31004KT 10SM CLR 15/13 A2993 RMK AO2 SLP135 T01500133 53005=
202208250753 METAR KCLM 250753Z AUTO 00000KT 10SM CLR 16/13 A2992 RMK AO2 SLP132 T01560133 402890111=
202208250653 METAR KCLM 250653Z AUTO 31003KT 10SM CLR 17/13 A2992 RMK AO2 SLP129 T01670133=
202208250553 METAR KCLM 250553Z AUTO 29004KT 10SM CLR 18/14 A2992 RMK AO2 SLP130 T01830139 10250 20178 50007=
202208250453 METAR KCLM 250453Z AUTO 32005KT 10SM CLR 18/13 A2992 RMK AO2 SLP131 T01780133=
202208250353 METAR KCLM 250353Z AUTO 27004KT 10SM CLR 20/14 A2991 RMK AO2 SLP128 T02000139=
202208250253 METAR KCLM 250253Z AUTO 32005KT 10SM CLR 19/13 A2990 RMK AO2 SLP123 T01890133 55001=
202208250153 METAR KCLM 250153Z AUTO 32003KT 10SM CLR 21/14 A2990 RMK AO2 SLP123 T02110139=
202208250053 METAR KCLM 250053Z AUTO VRB03KT 10SM CLR 24/14 A2990 RMK AO2 SLP122 T02440144=
202208242353 METAR KCLM 242353Z AUTO 36003KT 10SM CLR 24/14 A2990 RMK AO2 SLP124 T02390139 10289 20233 56012=
202208242253 METAR KCLM 242253Z AUTO 00000KT 10SM CLR 26/15 A2991 RMK AO2 SLP126 T02610150=
202208242153 METAR KCLM 242153Z AUTO 06005KT 10SM CLR 27/15 A2992 RMK AO2 SLP131 T02670150=
202208242053 METAR KCLM 242053Z AUTO VRB04KT 10SM CLR 28/16 A2994 RMK AO2 SLP136 T02830156 58011=
202208241953 METAR KCLM 241953Z AUTO 09006KT 10SM CLR 27/16 A2995 RMK AO2 SLP141 T02720156=
202208241853 METAR KCLM 241853Z AUTO 10009KT 10SM CLR 26/15 A2996 RMK AO2 SLP143 T02610150=
202208241753 METAR KCLM 241753Z AUTO 08009KT 10SM CLR 24/16 A2997 RMK AO2 SLP147 T02440156 10250 20111 56005=
202208241653 METAR KCLM 241653Z AUTO 09006KT CLR 23/15 A2997 RMK AO2 SLP148 T02330150 $=
202208241638 SPECI KCLM 241638Z AUTO VRB03KT CLR 23/14 A2998 RMK AO2 T02280144 $=
202208241631 SPECI KCLM 241631Z AUTO 06003KT 1 1/2SM HZ CLR 23/15 A2998 RMK AO2 T02280150 PWINO $=
202208241620 SPECI KCLM 241620Z AUTO 10004KT 1/4SM HZ CLR 23/15 A2998 RMK AO2 T02280150 PWINO $=
202208241553 METAR KCLM 241553Z AUTO 00000KT 10SM CLR 19/14 A2998 RMK AO2 SLP151 T01940144=
202208241453 METAR KCLM 241453Z AUTO 35004KT 10SM CLR 16/14 A2998 RMK AO2 SLP153 T01610144 53002=
202208241353 METAR KCLM 241353Z AUTO 00000KT 10SM CLR 13/12 A2998 RMK AO2 SLP153 T01280117=
202208241253 METAR KCLM 241253Z AUTO 00000KT 10SM CLR 12/10 A2998 RMK AO2 SLP151 T01170100=
202208241153 METAR KCLM 241153Z AUTO 00000KT 10SM CLR 12/11 A2998 RMK AO2 SLP152 T01220106 10139 20117 50000=
202208241053 METAR KCLM 241053Z AUTO 00000KT 10SM CLR 12/11 A2999 RMK AO2 SLP154 T01170111=
202208241039 SPECI KCLM 241039Z AUTO 00000KT 3SM BR SCT001 12/11 A2999 RMK AO2 T01220106=
202208241032 SPECI KCLM 241032Z AUTO 00000KT 6SM BR BKN001 12/11 A2999 RMK AO2 T01220111=
202208241025 SPECI KCLM 241025Z AUTO 00000KT 2 1/2SM BR BKN001 12/12 A2999 RMK AO2 T01220117=
202208241016 SPECI KCLM 241016Z AUTO 22004KT 1/2SM FG VV001 12/12 A2999 RMK AO2 T01220117=
202208241013 SPECI KCLM 241013Z AUTO 00000KT 1/4SM FG VV002 12/12 A2999 RMK AO2 T01220117=
202208240953 METAR KCLM 240953Z AUTO 30003KT 1/2SM FG VV002 12/12 A3000 RMK AO2 SLP157 T01220117=
202208240950 SPECI KCLM 240950Z AUTO 30004KT 3/4SM BR VV002 12/12 A3000 RMK AO2=
202208240946 SPECI KCLM 240946Z AUTO 31003KT 2 1/2SM BR BKN002 12/11 A2999 RMK AO2 T01220111=
202208240920 SPECI KCLM 240920Z AUTO 00000KT 10SM SCT001 12/12 A2999 RMK AO2 T01220117=
202208240912 SPECI KCLM 240912Z AUTO 32003KT 8SM BKN001 13/12 A2998 RMK AO2 T01280117=
202208240904 SPECI KCLM 240904Z AUTO 00000KT 2SM BR BKN001 13/12 A2998 RMK AO2 T01280122=
202208240853 METAR KCLM 240853Z AUTO 27004KT 3/4SM BR VV001 13/12 A2998 RMK AO2 SLP151 T01280117 58003=
202208240851 SPECI KCLM 240851Z AUTO 24006KT 3/4SM BR VV001 13/12 A2998 RMK AO2=
202208240844 SPECI KCLM 240844Z AUTO 26004KT 1/4SM FG VV002 13/12 A2998 RMK AO2 T01280117=
202208240837 SPECI KCLM 240837Z AUTO 29004KT 1/4SM FG VV001 13/12 A2998 RMK AO2 T01280122=
202208240753 METAR KCLM 240753Z AUTO 27004KT 1/4SM FG VV002 13/12 A2999 RMK AO2 SLP156 T01330122 402110133=
202208240721 SPECI KCLM 240721Z AUTO 00000KT 1/4SM FG VV002 13/12 A2999 RMK AO2 T01330122=
202208240712 SPECI KCLM 240712Z AUTO 31005KT 1/2SM FG VV002 13/12 A2999 RMK AO2 T01330122=
202208240704 SPECI KCLM 240704Z AUTO 30005KT 1 1/4SM BR OVC002 13/12 A2999 RMK AO2 T01330122=
202208240653 METAR KCLM 240653Z AUTO 29005KT 10SM OVC002 13/12 A2999 RMK AO2 SLP154 T01330122=
202208240553 METAR KCLM 240553Z AUTO 27005KT 7SM OVC002 14/13 A3000 RMK AO2 SLP160 T01390128 10211 20139 50000=
202208240453 METAR KCLM 240453Z AUTO 29005KT 10SM OVC003 14/13 A3001 RMK AO2 SLP163 T01390128=
202208240426 SPECI KCLM 240426Z AUTO 28007KT 10SM BKN003 14/13 A3002 RMK AO2 T01390128=
202208240417 SPECI KCLM 240417Z AUTO 30006KT 10SM SCT003 14/13 A3002 RMK AO2 T01440128=
202208240353 METAR KCLM 240353Z AUTO 31004KT 10SM CLR 14/13 A3002 RMK AO2 SLP164 T01440128=
202208240253 METAR KCLM 240253Z AUTO 30006KT 10SM CLR 17/13 A3000 RMK AO2 SLP160 T01720133 55002=
202208240153 METAR KCLM 240153Z AUTO 32004KT 10SM CLR 19/13 A3000 RMK AO2 SLP159 T01890133=
202208240053 METAR KCLM 240053Z AUTO 30007KT 10SM CLR 19/13 A3000 RMK AO2 SLP158 T01940133=
202208232353 METAR KCLM 232353Z AUTO 30006KT 10SM CLR 21/14 A3001 RMK AO2 SLP162 T02060139 10211 20167 58017=
202208232253 METAR KCLM 232253Z AUTO 31007KT 10SM CLR 19/13 A3003 RMK AO2 SLP169 T01940133=
202208232153 METAR KCLM 232153Z AUTO 31007KT 10SM CLR 20/13 A3005 RMK AO2 SLP174 T02000133=
202208232053 METAR KCLM 232053Z AUTO 29009KT 10SM CLR 21/13 A3006 RMK AO2 SLP179 T02060133 58012=
202208231953 METAR KCLM 231953Z AUTO 30006KT 10SM CLR 19/13 A3008 RMK AO2 SLP186 T01940128=
202208231853 METAR KCLM 231853Z AUTO VRB05KT 10SM CLR 19/13 A3009 RMK AO2 SLP188 T01890133=
202208231753 METAR KCLM 231753Z AUTO 33007KT 10SM CLR 17/13 A3010 RMK AO2 SLP191 T01670128 10178 20133 55003=
202208231653 METAR KCLM 231653Z AUTO 29005KT 10SM CLR 17/13 A3009 RMK AO2 SLP190 T01670128=
202208231626 SPECI KCLM 231626Z AUTO VRB04KT 10SM SCT004 16/13 A3009 RMK AO2 T01610133=
202208231553 METAR KCLM 231553Z AUTO 27005KT 10SM OVC002 14/13 A3010 RMK AO2 SLP192 T01390133=
202208231536 SPECI KCLM 231536Z AUTO 29005KT 3SM BR OVC002 14/13 A3010 RMK AO2 T01390128=
202208231528 SPECI KCLM 231528Z AUTO 26005KT 1 1/4SM BR OVC002 14/13 A3010 RMK AO2 T01390128=
202208231453 METAR KCLM 231453Z AUTO 28005KT 1/2SM FG OVC002 13/12 A3010 RMK AO2 SLP194 T01330122 50004=
202208231353 METAR KCLM 231353Z AUTO 27004KT 1/2SM FG VV002 13/12 A3011 RMK AO2 SLP195 T01330122=
202208231351 SPECI KCLM 231351Z AUTO 27004KT 1/2SM FG VV002 13/13 A3011 RMK AO2=
202208231341 SPECI KCLM 231341Z AUTO 00000KT 1/4SM FG VV002 13/12 A3011 RMK AO2 T01330122=
202208231317 SPECI KCLM 231317Z AUTO 00000KT 3/4SM BR OVC002 13/13 A3010 RMK AO2 T01330128=
202208231307 SPECI KCLM 231307Z AUTO 27005KT 2 1/2SM BR OVC002 13/12 A3010 RMK AO2 T01330122=
202208231300 SPECI KCLM 231300Z AUTO 30006KT 4SM BR OVC001 13/12 A3010 RMK AO2 T01330122=
202208231253 METAR KCLM 231253Z AUTO 30004KT 2 1/2SM BR OVC001 13/12 A3009 RMK AO2 SLP190 T01330122=
202208231233 SPECI KCLM 231233Z AUTO 30007KT 1 1/2SM BR OVC002 13/12 A3009 RMK AO2 T01330122=
202208231218 SPECI KCLM 231218Z AUTO 30005KT 2 1/2SM BR OVC002 13/12 A3009 RMK AO2 T01330122=
202208231210 SPECI KCLM 231210Z AUTO 29004KT 2 1/2SM BR OVC001 13/12 A3009 RMK AO2 T01330122=
202208231153 METAR KCLM 231153Z AUTO 28007KT 1 1/4SM BR OVC001 13/12 A3009 RMK AO2 SLP190 T01330122 10144 20133 58002=
202208231103 SPECI KCLM 231103Z AUTO 28008KT 1 1/2SM BR OVC002 13/12 A3009 RMK AO2 T01330122=
202208231053 METAR KCLM 231053Z AUTO 28010KT 2SM BR OVC002 13/12 A3010 RMK AO2 SLP192 T01330122=
202208231044 SPECI KCLM 231044Z AUTO 30009KT 2SM BR OVC002 14/12 A3010 RMK AO2 T01390122=
202208230953 METAR KCLM 230953Z AUTO 30008KT 5SM BR OVC003 14/12 A3009 RMK AO2 SLP189 T01390122=
202208230853 METAR KCLM 230853Z AUTO 30008KT 10SM OVC003 14/12 A3010 RMK AO2 SLP192 T01390122 58004=
202208230753 METAR KCLM 230753Z AUTO 29009KT 10SM OVC003 14/13 A3011 RMK AO2 SLP195 T01390128 402170133=
202208230653 METAR KCLM 230653Z AUTO 30009KT 10SM OVC004 14/13 A3011 RMK AO2 SLP197 T01390128=
202208230604 SPECI KCLM 230604Z AUTO 30008G17KT 10SM BKN004 14/13 A3011 RMK AO2 T01440128=
202208230553 METAR KCLM 230553Z AUTO 30008KT 10SM SCT004 14/13 A3011 RMK AO2 SLP196 T01440128 10211 20144 50003=
202208230516 SPECI KCLM 230516Z AUTO 30009KT 10SM SCT004 14/13 A3011 RMK AO2 T01440128=
202208230453 METAR KCLM 230453Z AUTO 30007KT 10SM CLR 14/13 A3011 RMK AO2 SLP196 T01440128=
202208230353 METAR KCLM 230353Z AUTO 27008KT 10SM SCT120 15/13 A3011 RMK AO2 SLP196 T01500128=
202208230253 METAR KCLM 230253Z AUTO 29014G19KT 10SM BKN120 17/13 A3010 RMK AO2 SLP193 T01720133 53002=
202208230153 METAR KCLM 230153Z AUTO 30011KT 10SM FEW120 18/13 A3010 RMK AO2 SLP192 T01830133=
202208230053 METAR KCLM 230053Z AUTO 31010KT 10SM CLR 19/14 A3009 RMK AO2 SLP190 T01940139=
202208222353 METAR KCLM 222353Z AUTO 31006KT 10SM CLR 21/14 A3009 RMK AO2 SLP190 T02060139 10217 20183 58013=
202208222253 METAR KCLM 222253Z AUTO 31009KT 10SM CLR 21/14 A3011 RMK AO2 SLP195 T02110139=
202208222153 METAR KCLM 222153Z AUTO 30009KT 10SM CLR 21/14 A3013 RMK AO2 SLP200 T02110139=
202208222053 METAR KCLM 222053Z AUTO 31009KT 10SM CLR 21/14 A3013 RMK AO2 SLP203 T02060139 50001=
202208221953 METAR KCLM 221953Z AUTO 35006KT 10SM CLR 21/14 A3013 RMK AO2 SLP203 T02060139=
202208221853 METAR KCLM 221853Z AUTO 36006KT 10SM CLR 20/14 A3013 RMK AO2 SLP201 T02000139=
202208221753 METAR KCLM 221753Z AUTO 10SM CLR 19/14 A3013 RMK AO2 SLP202 T01890139 10189 20150 53009=
202208221653 METAR KCLM 221653Z AUTO VRB04KT 10SM CLR 18/13 A3012 RMK AO2 SLP198 T01830133=
202208221553 METAR KCLM 221553Z AUTO 34003KT 10SM FEW120 17/14 A3010 RMK AO2 SLP194 T01670139=
202208221453 METAR KCLM 221453Z AUTO 30004KT 10SM FEW120 16/14 A3010 RMK AO2 SLP193 T01610139 51015=
202208221353 METAR KCLM 221353Z AUTO 31003KT 10SM CLR 16/13 A3009 RMK AO2 SLP189 T01560133=
202208221253 METAR KCLM 221253Z AUTO 28006KT 10SM CLR 15/13 A3008 RMK AO2 SLP183 T01500133=
202208221153 METAR KCLM 221153Z AUTO 30007KT 10SM CLR 16/13 A3006 RMK AO2 SLP176 T01560133 10156 20133 53004=
202208221053 METAR KCLM 221053Z AUTO 30004KT 10SM CLR 14/13 A3005 RMK AO2 SLP175 T01440128=
202208220953 METAR KCLM 220953Z AUTO 27005KT 10SM CLR 14/13 A3004 RMK AO2 SLP173 T01440128=
202208220853 METAR KCLM 220853Z AUTO 00000KT 10SM CLR 13/12 A3004 RMK AO2 SLP173 T01330122 58001=
202208220753 METAR KCLM 220753Z AUTO 00000KT 10SM CLR 14/13 A3005 RMK AO2 SLP176 T01440128 402110139=
202208220653 METAR KCLM 220653Z AUTO 00000KT 10SM CLR 15/13 A3005 RMK AO2 SLP175 T01500133=
202208220553 METAR KCLM 220553Z AUTO 27003KT 10SM CLR 16/13 A3005 RMK AO2 SLP175 T01560133 10211 20156 50002=
202208220453 METAR KCLM 220453Z AUTO 29009KT 10SM CLR 16/13 A3006 RMK AO2 SLP179 T01610133=
202208220353 METAR KCLM 220353Z AUTO 28008KT 10SM CLR 17/13 A3005 RMK AO2 SLP177 T01720133=
202208220253 METAR KCLM 220253Z AUTO 28008KT 10SM CLR 18/14 A3004 RMK AO2 SLP172 T01830139 53002=
202208220153 METAR KCLM 220153Z AUTO 29008KT 10SM CLR 19/14 A3003 RMK AO2 SLP168 T01940139=
202208220053 METAR KCLM 220053Z AUTO 32005KT 10SM CLR 20/14 A3004 RMK AO2 SLP170 T02000144=
202208212353 METAR KCLM 212353Z AUTO 32005KT 10SM CLR 21/15 A3004 RMK AO2 SLP170 T02110150 10211 20178 56009=
202208212253 METAR KCLM 212253Z AUTO 29008KT 10SM CLR 21/15 A3004 RMK AO2 SLP171 T02110150=
202208212153 METAR KCLM 212153Z AUTO 01006KT 10SM CLR 21/14 A3005 RMK AO2 SLP175 T02060144=
202208212135 SPECI KCLM 212135Z AUTO VRB04KT 10SM SCT014 21/15 A3006 RMK AO2 T02060150=
202208212053 METAR KCLM 212053Z AUTO 36005KT 10SM OVC012 19/14 A3006 RMK AO2 SLP179 T01940144 51002=
202208211953 METAR KCLM 211953Z AUTO VRB05KT 10SM OVC011 19/14 A3006 RMK AO2 SLP179 T01890144=
202208211853 METAR KCLM 211853Z AUTO 35004KT 10SM OVC010 18/14 A3006 RMK AO2 SLP179 T01830144=
202208211833 SPECI KCLM 211833Z AUTO 35004KT 10SM OVC010 18/14 A3006 RMK AO2 T01780144=
202208211753 METAR KCLM 211753Z AUTO 35003KT 10SM OVC009 18/14 A3006 RMK AO2 SLP179 T01830144 10183 20167 53006=
202208211653 METAR KCLM 211653Z AUTO 29005KT 10SM OVC008 18/16 A3005 RMK AO2 CIG 006V012 SLP176 T01780156=
202208211553 METAR KCLM 211553Z AUTO 31004KT 10SM BKN007 OVC013 17/16 A3004 RMK AO2 CIG 004V009 SLP172 T01720156=
202208211520 SPECI KCLM 211520Z AUTO 29003KT 3SM BR OVC006 17/16 A3004 RMK AO2 T01670156=
202208211509 SPECI KCLM 211509Z AUTO 27003KT 2SM BR BKN006 OVC012 17/15 A3004 RMK AO2 T01670150=
202208211453 METAR KCLM 211453Z AUTO 00000KT 4SM BR BKN008 OVC012 17/15 A3004 RMK AO2 SLP172 T01670150 51010=
202208211449 SPECI KCLM 211449Z AUTO 00000KT 3SM BR BKN006 OVC012 17/16 A3004 RMK AO2 CIG 005V010=
202208211416 SPECI KCLM 211416Z AUTO 24003KT 2SM BR OVC005 17/15 A3004 RMK AO2 T01670150=
202208211401 SPECI KCLM 211401Z AUTO 00000KT 1 1/2SM BR OVC005 17/15 A3003 RMK AO2 T01670150=
202208211353 METAR KCLM 211353Z AUTO 00000KT 2SM BR OVC005 17/15 A3003 RMK AO2 SLP168 T01670150=
202208211346 SPECI KCLM 211346Z AUTO 00000KT 2SM BR OVC005 17/15 A3003 RMK AO2 T01670150=
202208211253 METAR KCLM 211253Z AUTO 00000KT 7SM OVC008 17/15 A3001 RMK AO2 CIG 005V010 SLP162 T01670150=
202208211153 METAR KCLM 211153Z AUTO 28004KT 10SM OVC009 17/14 A3001 RMK AO2 SLP161 T01670144 10172 20161 53008=
202208211137 SPECI KCLM 211137Z AUTO 28005KT 10SM OVC009 17/14 A3001 RMK AO2 T01670144=
202208211112 SPECI KCLM 211112Z AUTO 28006KT 10SM OVC010 17/14 A3000 RMK AO2 T01720144=
202208211053 METAR KCLM 211053Z AUTO 26005KT 10SM OVC009 17/14 A3000 RMK AO2 SLP158 T01720144=
202208211045 SPECI KCLM 211045Z AUTO 28007KT 10SM OVC009 17/14 A3000 RMK AO2 T01720144=
202208210953 METAR KCLM 210953Z AUTO 28006KT 10SM OVC010 17/14 A2999 RMK AO2 SLP155 T01720144=
202208210901 SPECI KCLM 210901Z AUTO 28006KT 10SM OVC010 17/14 A2999 RMK AO2 T01670144=
202208210853 METAR KCLM 210853Z AUTO 28008KT 10SM OVC009 17/14 A2999 RMK AO2 SLP153 T01670144 53003=
202208210805 SPECI KCLM 210805Z AUTO 29008KT 10SM OVC009 17/14 A2998 RMK AO2 T01670144=
202208210753 METAR KCLM 210753Z AUTO 29009KT 10SM OVC010 17/14 A2998 RMK AO2 SLP152 T01670144 402220161=
202208210653 METAR KCLM 210653Z AUTO 30006KT 10SM OVC011 17/14 A2998 RMK AO2 SLP151 T01670144=
202208210629 SPECI KCLM 210629Z AUTO 29009KT 10SM BKN010 17/14 A2998 RMK AO2 T01670144=
202208210553 METAR KCLM 210553Z AUTO 29009KT 10SM CLR 16/14 A2998 RMK AO2 SLP151 T01610139 10217 20161 51009=
202208210453 METAR KCLM 210453Z AUTO 29007KT 10SM CLR 17/14 A2998 RMK AO2 SLP150 T01670144=
202208210353 METAR KCLM 210353Z AUTO 29009KT 10SM CLR 17/14 A2996 RMK AO2 SLP145 T01670144=
202208210253 METAR KCLM 210253Z AUTO 27012G17KT 10SM CLR 18/14 A2995 RMK AO2 SLP142 T01780144 55002=
202208210153 METAR KCLM 210153Z AUTO 30008KT 10SM CLR 19/14 A2994 RMK AO2 SLP138 T01940144=
202208210053 METAR KCLM 210053Z AUTO 32008KT 10SM CLR 21/15 A2996 RMK AO2 SLP143 T02060150=
202208202353 METAR KCLM 202353Z AUTO 29007KT 10SM CLR 22/15 A2996 RMK AO2 SLP143 T02170150 10222 20172 57006=
202208202253 METAR KCLM 202253Z AUTO 32007KT 10SM CLR 21/15 A2996 RMK AO2 SLP145 T02060150=
202208202153 METAR KCLM 202153Z AUTO VRB05KT 10SM CLR 21/15 A2997 RMK AO2 SLP148 T02060150=
202208202053 METAR KCLM 202053Z AUTO 34007KT 10SM CLR 19/15 A2998 RMK AO2 SLP150 T01940150 58003=
202208201953 METAR KCLM 201953Z AUTO 34008KT 10SM FEW011 19/14 A2998 RMK AO2 SLP151 T01890144=
202208201941 SPECI KCLM 201941Z AUTO 34006KT 10SM SCT010 19/15 A2998 RMK AO2 T01940150=
202208201853 METAR KCLM 201853Z AUTO 32005KT 10SM OVC007 18/14 A2999 RMK AO2 SLP153 T01830144=
202208201753 METAR KCLM 201753Z AUTO 31006KT 9SM OVC006 17/15 A2999 RMK AO2 SLP154 T01720150 10178 20167 51006=
202208201721 SPECI KCLM 201721Z AUTO 34005KT 6SM BR OVC005 17/15 A2999 RMK AO2 T01720150=
202208201653 METAR KCLM 201653Z AUTO 32005KT 4SM BR OVC004 17/15 A2998 RMK AO2 SLP151 T01720150=
202208201640 SPECI KCLM 201640Z AUTO 32005KT 4SM BR OVC005 17/15 A2998 RMK AO2 CIG 004V009 T01720150=
202208201632 SPECI KCLM 201632Z AUTO 32005KT 2 1/2SM BR OVC005 17/15 A2998 RMK AO2 CIG 003V009 T01670150=
202208201553 METAR KCLM 201553Z AUTO 32004KT 4SM BR OVC005 17/15 A2998 RMK AO2 CIG 004V008 SLP153 T01670150=
202208201524 SPECI KCLM 201524Z AUTO 32003KT 3SM BR OVC004 17/15 A2998 RMK AO2 T01670150=
202208201504 SPECI KCLM 201504Z AUTO 00000KT 2SM BR OVC004 17/15 A2997 RMK AO2 T01670150=
202208201453 METAR KCLM 201453Z AUTO 00000KT 3SM BR OVC004 17/15 A2997 RMK AO2 SLP147 T01670150 53004=
202208201450 SPECI KCLM 201450Z AUTO VRB03KT 3SM BR OVC004 17/15 A2997 RMK AO2=
202208201419 SPECI KCLM 201419Z AUTO 00000KT 2 1/2SM BR OVC005 17/15 A2997 RMK AO2 T01670150=
202208201353 METAR KCLM 201353Z AUTO 30003KT 7SM OVC006 17/15 A2996 RMK AO2 SLP145 T01670150=
202208201253 METAR KCLM 201253Z AUTO 00000KT 10SM OVC006 17/15 A2995 RMK AO2 SLP141 T01720150=
202208201153 METAR KCLM 201153Z AUTO 32003KT 10SM OVC005 17/15 A2996 RMK AO2 SLP143 T01670150 10172 20167 52004=
202208201053 METAR KCLM 201053Z AUTO 00000KT 10SM OVC006 17/15 A2996 RMK AO2 SLP143 T01720150=
202208200953 METAR KCLM 200953Z AUTO 30004KT 10SM OVC006 17/15 A2994 RMK AO2 SLP138 T01720150=
202208200853 METAR KCLM 200853Z AUTO 30008KT 10SM OVC006 17/15 A2994 RMK AO2 SLP138 T01720150 50002=
202208200753 METAR KCLM 200753Z AUTO 29008KT 10SM OVC006 17/15 A2995 RMK AO2 CIG 006V009 SLP140 T01720150 402440167=
202208200653 METAR KCLM 200653Z AUTO 29011KT 10SM OVC006 17/15 A2994 RMK AO2 SLP137 T01720150=
202208200553 METAR KCLM 200553Z AUTO 29011KT 10SM OVC005 17/15 A2994 RMK AO2 SLP137 T01670150 10244 20167 51008=
202208200453 METAR KCLM 200453Z AUTO 28011KT 10SM OVC006 18/15 A2994 RMK AO2 SLP136 T01780150=
202208200435 SPECI KCLM 200435Z AUTO 28010KT 10SM BKN006 17/15 A2994 RMK AO2 T01670150=
202208200421 SPECI KCLM 200421Z AUTO 29009G19KT 10SM SCT007 17/14 A2994 RMK AO2 T01720144=
202208200353 METAR KCLM 200353Z AUTO 29009KT 10SM CLR 17/14 A2993 RMK AO2 SLP134 T01720144=
202208200253 METAR KCLM 200253Z AUTO 28007KT 10SM CLR 19/15 A2992 RMK AO2 SLP129 T01890150 55001=
202208200153 METAR KCLM 200153Z AUTO 31006KT 10SM CLR 22/16 A2991 RMK AO2 SLP125 T02170156=
202208200053 METAR KCLM 200053Z AUTO 34007KT 10SM CLR 24/16 A2991 RMK AO2 SLP127 T02390161=
202208192353 METAR KCLM 192353Z AUTO 30007KT 260V340 10SM CLR 24/16 A2992 RMK AO2 SLP130 60000 T02390161 10244 20211 58008=
202208192253 METAR KCLM 192253Z AUTO 30010G17KT 10SM CLR 22/16 A2994 RMK AO2 SLP136 T02220161=
202208192153 METAR KCLM 192153Z AUTO 31009G16KT 290V350 10SM CLR 23/16 A2993 RMK AO2 SLP134 T02330156=
202208192053 METAR KCLM 192053Z AUTO 31009KT 10SM CLR 22/16 A2994 RMK AO2 SLP138 60000 T02170156 55002=
202208191953 METAR KCLM 191953Z AUTO 29010KT 10SM CLR 23/15 A2994 RMK AO2 SLP137 T02280150=
202208191853 METAR KCLM 191853Z AUTO VRB06KT 10SM CLR 24/15 A2994 RMK AO2 RAE1755 SLP137 P0000 T02390150=
202208191753 METAR KCLM 191753Z AUTO 31009G15KT 10SM -RA CLR 21/16 A2995 RMK AO2 RAB46 SLP139 P0000 60000 T02110156 10233 20167 50006=
202208191653 METAR KCLM 191653Z AUTO 33006KT 10SM CLR 20/15 A2996 RMK AO2 SLP145 T02000150=
202208191553 METAR KCLM 191553Z AUTO 12007KT 10SM CLR 20/15 A2993 RMK AO2 SLP136 T02000150=
202208191453 METAR KCLM 191453Z AUTO 30005KT 10SM CLR 18/14 A2993 RMK AO2 LTG DSNT W SLP133 T01830144 53002=
202208191353 METAR KCLM 191353Z AUTO 33008G17KT 10SM CLR 20/14 A2992 RMK AO2 LTG DSNT W PRESRR SLP129 T02000144=
202208191253 METAR KCLM 191253Z AUTO 24007KT 10SM CLR 18/14 A2991 RMK AO2 SLP125 T01830144=
202208191153 METAR KCLM 191153Z AUTO 32010G17KT 10SM CLR 18/14 A2992 RMK AO2 RAB19E30 SLP130 P0000 60000 T01780144 10200 20172 53013=
202208191053 METAR KCLM 191053Z AUTO 23005KT 10SM CLR 19/15 A2991 RMK AO2 SLP125 T01940150=
202208190953 METAR KCLM 190953Z AUTO 30003KT 10SM CLR 18/14 A2989 RMK AO2 SLP121 T01780139=
202208190853 METAR KCLM 190853Z AUTO 00000KT 10SM CLR 17/14 A2988 RMK AO2 SLP117 T01720144 56003=
202208190753 METAR KCLM 190753Z AUTO 00000KT 10SM CLR 18/16 A2988 RMK AO2 SLP117 T01830156 403110167=
202208190653 METAR KCLM 190653Z AUTO 00000KT 10SM CLR 19/16 A2989 RMK AO2 SLP118 T01890156=
202208190553 METAR KCLM 190553Z AUTO 00000KT 10SM CLR 21/15 A2989 RMK AO2 SLP120 T02060150 10306 20194 58001=
202208190453 METAR KCLM 190453Z AUTO 15003KT 10SM CLR 21/14 A2990 RMK AO2 SLP122 T02110144=
202208190353 METAR KCLM 190353Z AUTO 00000KT 10SM CLR 21/14 A2990 RMK AO2 SLP124 T02060139=
202208190253 METAR KCLM 190253Z AUTO 30005KT 10SM CLR 23/14 A2989 RMK AO2 SLP121 T02330144 58003=
202208190153 METAR KCLM 190153Z AUTO 00000KT 10SM CLR 28/15 A2990 RMK AO2 SLP122 T02780150=
202208190053 METAR KCLM 190053Z AUTO 03003KT 10SM CLR 30/14 A2990 RMK AO2 SLP123 T03000144=
202208182353 METAR KCLM 182353Z AUTO 09005KT 10SM CLR 30/14 A2990 RMK AO2 SLP124 T03000144 10311 20272 56007=
202208182253 METAR KCLM 182253Z AUTO VRB03KT 10SM CLR 30/15 A2991 RMK AO2 SLP125 T03000150=
202208182153 METAR KCLM 182153Z AUTO 08004KT 10SM CLR 28/15 A2992 RMK AO2 SLP130 T02830150=
202208182053 METAR KCLM 182053Z AUTO 00000KT 10SM CLR 30/14 A2992 RMK AO2 SLP131 T03000144 58010=
202208181953 METAR KCLM 181953Z AUTO 09005KT 10SM CLR 29/14 A2994 RMK AO2 SLP136 T02890144=
202208181853 METAR KCLM 181853Z AUTO 11011KT 10SM CLR 28/14 A2995 RMK AO2 SLP139 T02830139=
202208181753 METAR KCLM 181753Z AUTO 10010KT 10SM CLR 27/14 A2995 RMK AO2 SLP142 T02720139 10283 20178 52001=
202208181653 METAR KCLM 181653Z AUTO 09007KT 10SM CLR 27/14 A2995 RMK AO2 SLP140 T02720144=
202208181553 METAR KCLM 181553Z AUTO 00000KT 10SM CLR 22/15 A2995 RMK AO2 SLP142 T02220150=
202208181453 METAR KCLM 181453Z AUTO 00000KT 10SM CLR 21/16 A2995 RMK AO2 SLP140 T02110156 51005=
202208181353 METAR KCLM 181353Z AUTO 00000KT 10SM CLR 19/14 A2995 RMK AO2 SLP140 T01940139=
202208181253 METAR KCLM 181253Z AUTO 00000KT 10SM CLR 19/14 A2994 RMK AO2 SLP136 T01890139=
202208181153 METAR KCLM 181153Z AUTO 00000KT 10SM CLR 18/13 A2993 RMK AO2 SLP135 T01780133 10206 20167 53001=
202208181053 METAR KCLM 181053Z AUTO 00000KT 10SM CLR 18/13 A2993 RMK AO2 SLP133 T01830133=
202208180953 METAR KCLM 180953Z AUTO 00000KT 10SM CLR 17/13 A2993 RMK AO2 SLP134 T01720128=
202208180853 METAR KCLM 180853Z AUTO 00000KT 10SM CLR 18/13 A2993 RMK AO2 SLP134 T01780128 53002=
202208180753 METAR KCLM 180753Z AUTO 15003KT 10SM CLR 17/13 A2993 RMK AO2 SLP133 T01670128 403170122=
202208180653 METAR KCLM 180653Z AUTO 00000KT 10SM CLR 17/13 A2992 RMK AO2 SLP131 T01720133=
202208180553 METAR KCLM 180553Z AUTO 00000KT 10SM CLR 18/14 A2992 RMK AO2 SLP132 T01830139 10317 20183 58004=
202208180453 METAR KCLM 180453Z AUTO 23004KT 10SM CLR 20/14 A2994 RMK AO2 SLP136 T02000139=
202208180353 METAR KCLM 180353Z AUTO 24003KT 10SM CLR 21/14 A2994 RMK AO2 SLP137 T02060139=
202208180253 METAR KCLM 180253Z AUTO 30003KT 10SM CLR 21/13 A2994 RMK AO2 SLP137 T02110133 55006=
202208180153 METAR KCLM 180153Z AUTO 31004KT 10SM CLR 23/13 A2994 RMK AO2 SLP136 T02330133=
202208180053 METAR KCLM 180053Z AUTO VRB03KT 10SM CLR 31/13 A2994 RMK AO2 SLP138 T03060133=
202208172353 METAR KCLM 172353Z AUTO 12006KT 10SM CLR 31/12 A2996 RMK AO2 SLP143 T03110122 10311 20267 58020=
202208172253 METAR KCLM 172253Z AUTO 12006KT 10SM CLR 31/13 A2998 RMK AO2 SLP150 T03060128=
202208172153 METAR KCLM 172153Z AUTO 08007KT 10SM CLR 29/13 A3000 RMK AO2 SLP157 T02940133=
202208172053 METAR KCLM 172053Z AUTO 10009KT 10SM CLR 29/14 A3002 RMK AO2 SLP163 T02890139 58012=
202208171953 METAR KCLM 171953Z AUTO 10009KT 10SM CLR 28/14 A3003 RMK AO2 SLP168 T02830139=
202208171853 METAR KCLM 171853Z AUTO 10011KT 10SM CLR 28/14 A3004 RMK AO2 SLP172 T02780144=
202208171753 METAR KCLM 171753Z AUTO 10010KT 10SM CLR 27/14 A3005 RMK AO2 SLP175 T02670144 10272 20122 58002=
202208171653 METAR KCLM 171653Z AUTO 09010KT 10SM CLR 26/14 A3006 RMK AO2 SLP177 T02560139=
202208171553 METAR KCLM 171553Z AUTO 10SM CLR 24/14 A3006 RMK AO2 SLP177 T02440144=
202208171453 METAR KCLM 171453Z AUTO 00000KT 10SM CLR 20/14 A3006 RMK AO2 SLP178 T02000144 53002=
202208171353 METAR KCLM 171353Z AUTO 16003KT 10SM CLR 15/12 A3006 RMK AO2 SLP177 T01500122=
202208171253 METAR KCLM 171253Z AUTO 16003KT 10SM CLR 13/11 A3005 RMK AO2 SLP175 T01330111=
202208171153 METAR KCLM 171153Z AUTO 00000KT 10SM CLR 13/12 A3005 RMK AO2 SLP176 T01330117 10161 20128 52001=
202208171053 METAR KCLM 171053Z AUTO 00000KT 10SM CLR 13/12 A3005 RMK AO2 SLP175 T01330117=
202208170953 METAR KCLM 170953Z AUTO 00000KT 10SM CLR 14/12 A3005 RMK AO2 SLP175 T01390122=
202208170853 METAR KCLM 170853Z AUTO 00000KT 10SM CLR 14/12 A3005 RMK AO2 SLP174 T01390122 50001=
202208170753 METAR KCLM 170753Z AUTO 00000KT 10SM CLR 14/13 A3006 RMK AO2 SLP176 T01440128 402280144=
202208170653 METAR KCLM 170653Z AUTO 00000KT 10SM CLR 16/13 A3004 RMK AO2 SLP172 T01560133=
202208170553 METAR KCLM 170553Z AUTO 30003KT 10SM CLR 16/14 A3005 RMK AO2 SLP174 T01610139 10222 20161 55001=
202208170453 METAR KCLM 170453Z AUTO 28006KT 10SM CLR 17/14 A3005 RMK AO2 SLP173 T01720139=
202208170353 METAR KCLM 170353Z AUTO 29004KT 10SM CLR 18/14 A3005 RMK AO2 SLP174 T01830144=
202208170253 METAR KCLM 170253Z AUTO 28008KT 10SM CLR 20/14 A3005 RMK AO2 SLP175 T02000144 57009=
202208170153 METAR KCLM 170153Z AUTO 30007KT 10SM CLR 22/14 A3006 RMK AO2 SLP178 T02170139=
202208170053 METAR KCLM 170053Z AUTO 31008KT 10SM CLR 22/13 A3007 RMK AO2 SLP181 T02170128=
202208162353 METAR KCLM 162353Z AUTO 30009KT 10SM CLR 22/13 A3008 RMK AO2 SLP184 T02170128 10228 20194 58008=
202208162253 METAR KCLM 162253Z AUTO 30009KT 10SM CLR 23/13 A3009 RMK AO2 SLP187 T02280128=
202208162153 METAR KCLM 162153Z AUTO 30009KT 10SM CLR 22/13 A3010 RMK AO2 SLP191 T02170128=
202208162053 METAR KCLM 162053Z AUTO 29009KT 10SM CLR 22/13 A3010 RMK AO2 SLP192 T02170128 58002=
202208161953 METAR KCLM 161953Z AUTO VRB05KT 10SM CLR 22/13 A3010 RMK AO2 SLP193 T02170133=
202208161853 METAR KCLM 161853Z AUTO 33008KT 10SM CLR 20/13 A3011 RMK AO2 SLP195 T02000133=
202208161753 METAR KCLM 161753Z AUTO 36004KT 10SM CLR 21/13 A3011 RMK AO2 SLP194 T02060133 10206 20144 51005=
202208161653 METAR KCLM 161653Z AUTO 31005KT 10SM CLR 18/13 A3011 RMK AO2 SLP195 T01830128=
202208161553 METAR KCLM 161553Z AUTO 30008KT 10SM CLR 18/13 A3011 RMK AO2 SLP194 T01830133=
202208161453 METAR KCLM 161453Z AUTO 28005KT 10SM CLR 18/13 A3009 RMK AO2 SLP189 T01780133 50004=
202208161353 METAR KCLM 161353Z AUTO 27003KT 10SM CLR 16/14 A3009 RMK AO2 SLP190 T01560139=
202208161253 METAR KCLM 161253Z AUTO 27006KT 10SM CLR 14/12 A3008 RMK AO2 SLP185 T01440122=
202208161153 METAR KCLM 161153Z AUTO 26005KT 10SM CLR 16/13 A3008 RMK AO2 SLP185 T01560133 10167 20150 53006=
202208161053 METAR KCLM 161053Z AUTO 29004KT 10SM CLR 16/13 A3007 RMK AO2 SLP181 T01560133=
202208160953 METAR KCLM 160953Z AUTO 28006KT 10SM CLR 16/13 A3006 RMK AO2 SLP179 T01610133=
202208160853 METAR KCLM 160853Z AUTO 27007KT 10SM CLR 17/14 A3006 RMK AO2 SLP178 T01670139 52002=
202208160753 METAR KCLM 160753Z AUTO 28009KT 10SM CLR 17/14 A3006 RMK AO2 SLP177 T01670139 402330117=
202208160653 METAR KCLM 160653Z AUTO 27010KT 10SM CLR 17/14 A3006 RMK AO2 SLP177 T01670139=
202208160553 METAR KCLM 160553Z AUTO 28009KT 10SM SCT006 16/14 A3005 RMK AO2 SLP176 T01610139 10228 20161 58001=
202208160453 METAR KCLM 160453Z AUTO 29009KT 10SM OVC006 16/14 A3006 RMK AO2 SLP177 T01610139=
202208160421 SPECI KCLM 160421Z AUTO 28011KT 10SM BKN007 16/14 A3006 RMK AO2 T01610139=
202208160402 SPECI KCLM 160402Z AUTO 28012KT 10SM FEW007 16/14 A3006 RMK AO2 T01610139=
202208160353 METAR KCLM 160353Z AUTO 28010KT 10SM CLR 16/14 A3006 RMK AO2 SLP177 T01610139=
202208160253 METAR KCLM 160253Z AUTO 29010KT 10SM CLR 18/14 A3004 RMK AO2 SLP172 T01780139 55003=
202208160153 METAR KCLM 160153Z AUTO 29009G16KT 10SM CLR 21/14 A3003 RMK AO2 SLP170 T02110144=
202208160053 METAR KCLM 160053Z AUTO 30008KT 10SM CLR 22/14 A3004 RMK AO2 SLP172 T02220144=
202208152353 METAR KCLM 152353Z AUTO 29008KT 10SM CLR 22/14 A3005 RMK AO2 SLP175 T02220144 10233 20183 58008=
202208152253 METAR KCLM 152253Z AUTO 30009KT 10SM CLR 22/14 A3006 RMK AO2 SLP177 T02220139=
202208152153 METAR KCLM 152153Z AUTO 30010KT 10SM CLR 23/13 A3007 RMK AO2 SLP181 T02280133=
202208152053 METAR KCLM 152053Z AUTO 32007KT 10SM CLR 22/13 A3007 RMK AO2 SLP183 T02220128 58007=
202208151953 METAR KCLM 151953Z AUTO 34007KT 290V010 10SM CLR 22/13 A3008 RMK AO2 SLP185 T02170128=
202208151853 METAR KCLM 151853Z AUTO 28006KT 10SM CLR 19/12 A3009 RMK AO2 SLP188 T01940122=
202208151753 METAR KCLM 151753Z AUTO VRB06KT 10SM CLR 19/13 A3010 RMK AO2 SLP190 T01940128 10194 20117 53004=
202208151653 METAR KCLM 151653Z AUTO 35004KT 10SM CLR 19/13 A3009 RMK AO2 SLP188 T01890128=
202208151553 METAR KCLM 151553Z AUTO 34003KT 10SM CLR 17/12 A3009 RMK AO2 SLP187 T01670122=
202208151453 METAR KCLM 151453Z AUTO 00000KT 10SM CLR 15/12 A3008 RMK AO2 SLP187 T01500117 53001=
202208151353 METAR KCLM 151353Z AUTO 00000KT 10SM CLR 12/11 A3008 RMK AO2 SLP185 T01220106=
202208151253 METAR KCLM 151253Z AUTO 32003KT 10SM CLR 12/10 A3008 RMK AO2 SLP185 T01170100=
202208151153 METAR KCLM 151153Z AUTO 23005KT 10SM CLR 13/11 A3008 RMK AO2 SLP185 T01330111 10167 20122 58000=
202208151053 METAR KCLM 151053Z AUTO 25004KT 10SM CLR 14/12 A3009 RMK AO2 SLP188 T01440117=
202208150953 METAR KCLM 150953Z AUTO 00000KT 10SM CLR 14/11 A3008 RMK AO2 SLP186 T01390111=
202208150853 METAR KCLM 150853Z AUTO 00000KT 10SM CLR 14/12 A3008 RMK AO2 SLP186 T01440117 58006=
202208150753 METAR KCLM 150753Z AUTO 31004KT 10SM CLR 16/12 A3010 RMK AO2 SLP192 T01610117 402280111=
202208150653 METAR KCLM 150653Z AUTO 28004KT 10SM CLR 16/12 A3010 RMK AO2 SLP193 T01560117=
202208150553 METAR KCLM 150553Z AUTO 27006KT 10SM CLR 17/11 A3010 RMK AO2 SLP192 T01670111 10222 20161 58003=
202208150453 METAR KCLM 150453Z AUTO 29009KT 10SM CLR 17/11 A3011 RMK AO2 SLP197 T01670111=
202208150353 METAR KCLM 150353Z AUTO 29010KT 10SM CLR 17/11 A3012 RMK AO2 SLP199 T01720106=
202208150253 METAR KCLM 150253Z AUTO 28008KT 10SM CLR 18/11 A3011 RMK AO2 SLP197 T01830111 56009=
202208150153 METAR KCLM 150153Z AUTO 29008KT 10SM CLR 19/10 A3012 RMK AO2 SLP199 T01940100=
202208150053 METAR KCLM 150053Z AUTO 30009KT 10SM CLR 21/11 A3013 RMK AO2 SLP203 T02060106=
202208142353 METAR KCLM 142353Z AUTO 30008KT 10SM CLR 22/12 A3014 RMK AO2 SLP205 T02170117 10228 20189 58010=
202208142253 METAR KCLM 142253Z AUTO VRB06KT 10SM CLR 22/12 A3015 RMK AO2 SLP210 T02220117=
202208142153 METAR KCLM 142153Z AUTO VRB04KT 10SM CLR 22/12 A3016 RMK AO2 SLP214 T02170117=
202208142053 METAR KCLM 142053Z AUTO 32007KT 280V340 10SM CLR 22/12 A3017 RMK AO2 SLP215 T02170117 58002=
202208141953 METAR KCLM 141953Z AUTO 36007KT 10SM CLR 21/12 A3017 RMK AO2 SLP217 T02110122=
202208141853 METAR KCLM 141853Z AUTO 34007G15KT 10SM CLR 19/12 A3019 RMK AO2 SLP223 T01940122=
202208141753 METAR KCLM 141753Z AUTO 36007KT 10SM CLR 19/13 A3018 RMK AO2 SLP218 T01940128 10194 20111 58001=
202208141653 METAR KCLM 141653Z AUTO VRB04KT 10SM CLR 19/13 A3018 RMK AO2 SLP219 T01890128=
202208141553 METAR KCLM 141553Z AUTO 35004KT 10SM CLR 17/12 A3018 RMK AO2 SLP221 T01720122=
202208141453 METAR KCLM 141453Z AUTO 24004KT 10SM CLR 16/12 A3018 RMK AO2 SLP220 T01560122 51006=
202208141353 METAR KCLM 141353Z AUTO 00000KT 10SM CLR 12/11 A3018 RMK AO2 SLP219 T01220106=
202208141253 METAR KCLM 141253Z AUTO 00000KT 10SM CLR 12/10 A3017 RMK AO2 SLP217 T01170100=
202208141153 METAR KCLM 141153Z AUTO 27003KT 10SM CLR 13/11 A3016 RMK AO2 SLP214 T01330111 10161 20128 57002=
202208141053 METAR KCLM 141053Z AUTO 30003KT 10SM CLR 13/11 A3017 RMK AO2 SLP215 T01280111=
202208140953 METAR KCLM 140953Z AUTO 00000KT 10SM CLR 13/11 A3017 RMK AO2 SLP216 T01280106=
202208140853 METAR KCLM 140853Z AUTO 26004KT 10SM CLR 14/12 A3017 RMK AO2 SLP217 T01440122 56004=
202208140753 METAR KCLM 140753Z AUTO 24005KT 10SM CLR 14/12 A3018 RMK AO2 SLP219 T01440122 402110133=
202208140653 METAR KCLM 140653Z AUTO 27003KT 10SM CLR 15/13 A3018 RMK AO2 SLP219 T01500128=
202208140553 METAR KCLM 140553Z AUTO 24006KT 10SM CLR 16/13 A3019 RMK AO2 SLP221 T01610133 10206 20161 58003=
202208140453 METAR KCLM 140453Z AUTO 25004KT 10SM CLR 16/13 A3019 RMK AO2 SLP224 T01610133=
202208140353 METAR KCLM 140353Z AUTO 26005KT 10SM CLR 16/13 A3020 RMK AO2 SLP225 T01610133=
202208140253 METAR KCLM 140253Z AUTO 30004KT 10SM OVC060 17/13 A3019 RMK AO2 SLP225 T01720133 55004=
202208140153 METAR KCLM 140153Z AUTO 30005KT 10SM OVC060 18/13 A3019 RMK AO2 SLP224 T01830133=
202208140053 METAR KCLM 140053Z AUTO 32007KT 10SM OVC060 19/13 A3020 RMK AO2 SLP228 T01890128=
202208132353 METAR KCLM 132353Z AUTO 31005KT 10SM OVC060 21/13 A3021 RMK AO2 SLP228 T02060128 10211 20178 58001=
202208132253 METAR KCLM 132253Z AUTO 36006KT 10SM FEW070 21/12 A3021 RMK AO2 SLP229 T02060122=
202208132153 METAR KCLM 132153Z AUTO 34007KT 10SM OVC060 19/12 A3022 RMK AO2 SLP232 T01940117=
202208132053 METAR KCLM 132053Z AUTO VRB04KT 10SM OVC055 20/11 A3021 RMK AO2 SLP230 T02000111 53006=
202208131953 METAR KCLM 131953Z AUTO VRB03KT 10SM BKN055 OVC075 19/11 A3020 RMK AO2 SLP226 T01940111=
202208131853 METAR KCLM 131853Z AUTO 10SM OVC070 19/12 A3020 RMK AO2 SLP225 T01890117=
202208131753 METAR KCLM 131753Z AUTO 01004KT 10SM SCT065 18/12 A3019 RMK AO2 SLP224 T01780117 10194 20144 53013=
202208131653 METAR KCLM 131653Z AUTO VRB05KT 10SM SCT060 18/12 A3017 RMK AO2 SLP216 T01830117=
202208131553 METAR KCLM 131553Z AUTO VRB03KT 10SM OVC060 18/12 A3016 RMK AO2 SLP213 T01830122=
202208131453 METAR KCLM 131453Z AUTO 00000KT 10SM OVC060 17/12 A3015 RMK AO2 SLP211 T01720122 53012=
202208131353 METAR KCLM 131353Z AUTO 22004KT 10SM OVC060 16/12 A3014 RMK AO2 SLP206 T01560122=
202208131253 METAR KCLM 131253Z AUTO 00000KT 10SM OVC060 15/12 A3013 RMK AO2 SLP201 T01500117=
202208131153 METAR KCLM 131153Z AUTO 00000KT 10SM OVC065 14/12 A3012 RMK AO2 SLP198 T01440117 10161 20133 51007=
202208131118 SPECI KCLM 131118Z AUTO 00000KT 10SM SCT025 OVC065 14/12 A3012 RMK AO2 T01440117=
202208131053 METAR KCLM 131053Z AUTO 00000KT 10SM BKN025 OVC065 14/12 A3011 RMK AO2 SLP196 T01440117=
202208130953 METAR KCLM 130953Z AUTO 00000KT 10SM SCT027 OVC070 14/12 A3011 RMK AO2 SLP195 T01390117=
202208130853 METAR KCLM 130853Z AUTO 00000KT 10SM FEW070 14/11 A3010 RMK AO2 SLP191 T01440106 51010=
202208130753 METAR KCLM 130753Z AUTO 26004KT 10SM OVC033 16/11 A3009 RMK AO2 SLP189 T01610111 402280111=
202208130731 SPECI KCLM 130731Z AUTO 28004KT 10SM SCT027 OVC034 16/11 A3009 RMK AO2 T01610111=
202208130653 METAR KCLM 130653Z AUTO 26006KT 10SM OVC027 16/12 A3008 RMK AO2 SLP184 T01610117=
202208130553 METAR KCLM 130553Z AUTO 25008KT 10SM OVC026 16/12 A3007 RMK AO2 SLP181 T01610122 10206 20156 51011=
202208130453 METAR KCLM 130453Z AUTO 26007KT 10SM OVC025 16/12 A3007 RMK AO2 SLP181 T01560122=
202208130353 METAR KCLM 130353Z AUTO 28007KT 10SM OVC025 17/12 A3005 RMK AO2 SLP176 T01670122=
202208130253 METAR KCLM 130253Z AUTO 28007KT 250V320 10SM SCT019 BKN025 17/13 A3004 RMK AO2 SLP171 T01720128 53004=
202208130153 METAR KCLM 130153Z AUTO 30012G19KT 10SM FEW019 18/13 A3003 RMK AO2 SLP169 T01830128=
202208130053 METAR KCLM 130053Z AUTO 31011G20KT 10SM CLR 20/13 A3002 RMK AO2 SLP167 T02000128=
202208122353 METAR KCLM 122353Z AUTO 31010KT 10SM CLR 21/12 A3003 RMK AO2 SLP167 T02060122 10228 20178 58002=
202208122253 METAR KCLM 122253Z AUTO 31011KT 10SM SCT120 22/12 A3003 RMK AO2 SLP167 T02220117=
202208122153 METAR KCLM 122153Z AUTO 31010G18KT 10SM CLR 22/11 A3003 RMK AO2 SLP169 T02220111=
202208122053 METAR KCLM 122053Z AUTO 32010G17KT 10SM CLR 22/12 A3003 RMK AO2 SLP168 T02220117 58002=
202208121953 METAR KCLM 121953Z AUTO 32009G15KT 10SM CLR 22/12 A3003 RMK AO2 SLP169 T02170117=
202208121853 METAR KCLM 121853Z AUTO 31007KT 10SM CLR 20/12 A3004 RMK AO2 SLP171 T02000117=
202208121753 METAR KCLM 121753Z AUTO 33007KT 10SM CLR 19/12 A3004 RMK AO2 SLP172 T01890122 10200 20111 50002=
202208121653 METAR KCLM 121653Z AUTO VRB04KT 10SM CLR 18/13 A3004 RMK AO2 SLP172 T01830133=
202208121553 METAR KCLM 121553Z AUTO 32003KT 10SM CLR 18/13 A3004 RMK AO2 SLP172 T01780128=
202208121453 METAR KCLM 121453Z AUTO 31004KT 10SM CLR 17/12 A3003 RMK AO2 SLP168 T01670122 50001=
202208121353 METAR KCLM 121353Z AUTO 25006KT 10SM CLR 14/12 A3004 RMK AO2 SLP172 T01440117=
202208121253 METAR KCLM 121253Z AUTO 00000KT 10SM CLR 12/11 A3004 RMK AO2 SLP171 T01220106=
202208121153 METAR KCLM 121153Z AUTO 00000KT 10SM CLR 12/10 A3003 RMK AO2 SLP168 T01220100 10172 20117 56002=
202208121053 METAR KCLM 121053Z AUTO 00000KT 10SM CLR 14/11 A3003 RMK AO2 SLP168 T01390106=
202208120953 METAR KCLM 120953Z AUTO 25006KT 10SM CLR 16/12 A3003 RMK AO2 SLP167 T01610117=
202208120853 METAR KCLM 120853Z AUTO 24004KT 10SM CLR 13/11 A3003 RMK AO2 SLP169 T01330106 56004=
202208120753 METAR KCLM 120753Z AUTO 26003KT 10SM CLR 16/12 A3004 RMK AO2 SLP170 T01610117 402330144=
202208120653 METAR KCLM 120653Z AUTO 31004KT 10SM CLR 16/12 A3003 RMK AO2 SLP169 T01610117=
202208120553 METAR KCLM 120553Z AUTO 28004KT 10SM CLR 15/11 A3004 RMK AO2 SLP174 T01500111 10222 20144 58003=
202208120453 METAR KCLM 120453Z AUTO 25005KT 10SM CLR 17/12 A3006 RMK AO2 SLP177 T01720117=
202208120353 METAR KCLM 120353Z AUTO 27006KT 10SM CLR 17/11 A3006 RMK AO2 SLP178 T01670111=
202208120253 METAR KCLM 120253Z AUTO 31005KT 10SM CLR 19/11 A3005 RMK AO2 SLP176 T01890111 56003=
202208120153 METAR KCLM 120153Z AUTO 32005KT 10SM CLR 20/12 A3005 RMK AO2 SLP176 T02000117=
202208120053 METAR KCLM 120053Z AUTO 29008KT 10SM CLR 20/11 A3005 RMK AO2 SLP175 T02000111=
202208112353 METAR KCLM 112353Z AUTO 32007KT 10SM CLR 22/12 A3006 RMK AO2 SLP179 T02220117 10233 20183 56014=
202208112253 METAR KCLM 112253Z AUTO 33005KT 10SM CLR 22/13 A3007 RMK AO2 SLP183 T02220128=
202208112153 METAR KCLM 112153Z AUTO 34004KT 10SM CLR 22/13 A3009 RMK AO2 SLP188 T02170128=
202208112053 METAR KCLM 112053Z AUTO 03004KT 10SM CLR 22/13 A3010 RMK AO2 SLP193 T02220128 58010=
202208111953 METAR KCLM 111953Z AUTO VRB05KT 10SM CLR 20/13 A3012 RMK AO2 SLP197 T02000133=
202208111853 METAR KCLM 111853Z AUTO 35004KT 10SM CLR 20/13 A3012 RMK AO2 SLP200 T02000133=
202208111753 METAR KCLM 111753Z AUTO 35005KT 10SM CLR 19/13 A3013 RMK AO2 SLP202 T01940133 10200 20144 56003=
202208111653 METAR KCLM 111653Z AUTO VRB04KT 10SM CLR 19/13 A3013 RMK AO2 SLP202 T01890133=
202208111553 METAR KCLM 111553Z AUTO VRB03KT 10SM CLR 19/14 A3014 RMK AO2 SLP204 T01890139=
202208111453 METAR KCLM 111453Z AUTO 00000KT 10SM OVC037 16/14 A3014 RMK AO2 SLP207 T01610139 53001=
202208111353 METAR KCLM 111353Z AUTO 00000KT 10SM BKN038 16/13 A3014 RMK AO2 SLP207 T01560133=
202208111253 METAR KCLM 111253Z AUTO 26003KT 10SM OVC035 16/13 A3014 RMK AO2 SLP206 T01610133=
202208111153 METAR KCLM 111153Z AUTO 23003KT 10SM SCT025 OVC035 16/14 A3014 RMK AO2 SLP206 T01610139 10172 20161 55003=
202208111111 SPECI KCLM 111111Z AUTO 23005KT 10SM SCT023 OVC035 16/14 A3014 RMK AO2 T01610139 TSNO=
202208111053 METAR KCLM 111053Z AUTO 23005KT 10SM OVC023 16/14 A3014 RMK AO2 SLP205 T01610139 TSNO=
202208111026 SPECI KCLM 111026Z AUTO 24005KT 10SM BKN023 OVC037 16/14 A3014 RMK AO2 T01610139 TSNO=
202208110953 METAR KCLM 110953Z AUTO 24004KT 10SM SCT022 OVC035 17/14 A3015 RMK AO2 SLP207 T01670139=
202208110853 METAR KCLM 110853Z AUTO 23004KT 10SM BKN021 OVC036 17/14 A3015 RMK AO2 SLP208 T01720139 50000=
202208110753 METAR KCLM 110753Z AUTO 25005KT 10SM OVC020 17/14 A3015 RMK AO2 SLP211 T01670139 402000128=
202208110653 METAR KCLM 110653Z AUTO 25006KT 10SM OVC023 17/14 A3015 RMK AO2 SLP211 T01670139=
202208110553 METAR KCLM 110553Z AUTO 21004KT 10SM BKN020 OVC025 17/14 A3015 RMK AO2 SLP209 T01670139 10183 20167 53010=
202208110453 METAR KCLM 110453Z AUTO 24005KT 8SM OVC021 17/14 A3014 RMK AO2 SLP205 T01720139=
202208110353 METAR KCLM 110353Z AUTO 24005KT 10SM OVC020 17/14 A3013 RMK AO2 SLP202 T01720139=
202208110253 METAR KCLM 110253Z AUTO 24005KT 10SM OVC016 17/14 A3012 RMK AO2 SLP199 T01720139 51012=
202208110242 SPECI KCLM 110242Z AUTO 26006KT 10SM OVC016 17/14 A3011 RMK AO2 T01720139=
202208110202 SPECI KCLM 110202Z AUTO 27006KT 10SM OVC014 18/14 A3011 RMK AO2 T01780139=
202208110153 METAR KCLM 110153Z AUTO 27006KT 10SM OVC015 18/14 A3011 RMK AO2 SLP196 T01780139=
202208110053 METAR KCLM 110053Z AUTO 28008KT 10SM OVC019 18/14 A3010 RMK AO2 SLP193 T01830139=
202208110029 SPECI KCLM 110029Z AUTO 28009KT 10SM BKN019 OVC032 18/14 A3010 RMK AO2 T01830139=
202208102353 METAR KCLM 102353Z AUTO 28008KT 10SM FEW016 OVC030 18/14 A3008 RMK AO2 SLP187 60000 T01830139 10200 20161 53011=
202208102328 SPECI KCLM 102328Z AUTO 29007G16KT 10SM SCT017 OVC032 19/14 A3008 RMK AO2 T01890144=
202208102253 METAR KCLM 102253Z AUTO 28008KT 10SM BKN016 OVC033 19/14 A3007 RMK AO2 SLP183 T01890144=
202208102153 METAR KCLM 102153Z AUTO 26008KT 10SM OVC013 19/14 A3006 RMK AO2 SLP179 T01940144=
202208102053 METAR KCLM 102053Z AUTO 31006KT 10SM OVC013 19/14 A3005 RMK AO2 SLP176 60000 T01890144 53007=
202208101953 METAR KCLM 101953Z AUTO 28004KT 10SM OVC010 18/14 A3004 RMK AO2 SLP172 T01780139=
202208101853 METAR KCLM 101853Z AUTO VRB03KT 10SM OVC011 18/14 A3003 RMK AO2 LTG DSNT NW RAB03E24 SLP170 P0000 T01780139=
202208101836 SPECI KCLM 101836Z AUTO 33003KT 10SM BKN010 BKN030 BKN080 18/14 A3003 RMK AO2 LTG DSNT E AND NW RAB03E24 P0000 T01780139=
202208101753 METAR KCLM 101753Z AUTO 07004KT 10SM OVC050 17/13 A3003 RMK AO2 LTG DSNT SW SLP169 T01670128 10183 20139 53015=
202208101653 METAR KCLM 101653Z AUTO 00000KT 10SM BKN048 18/13 A3000 RMK AO2 SLP159 T01780133=
202208101625 SPECI KCLM 101625Z AUTO 28005KT 10SM FEW007 OVC046 17/13 A3000 RMK AO2 T01670128=
202208101553 METAR KCLM 101553Z AUTO 27008KT 10SM OVC007 16/13 A2999 RMK AO2 SLP157 T01610133=
202208101507 SPECI KCLM 101507Z AUTO 30008KT 10SM BKN005 16/13 A2999 RMK AO2 T01560133=
202208101453 METAR KCLM 101453Z AUTO 29008KT 10SM OVC004 15/13 A2998 RMK AO2 SLP153 T01500128 51017=
202208101353 METAR KCLM 101353Z AUTO 29008KT 8SM OVC003 14/12 A2997 RMK AO2 SLP148 T01390122=
202208101253 METAR KCLM 101253Z AUTO 29008KT 9SM OVC003 14/12 A2995 RMK AO2 SLP142 T01390122=
202208101153 METAR KCLM 101153Z AUTO 28007KT 9SM OVC003 14/12 A2993 RMK AO2 SLP136 T01390122 10139 20128 51001=
202208101053 METAR KCLM 101053Z AUTO 28005KT 9SM OVC003 13/12 A2993 RMK AO2 SLP135 T01330122=
202208101042 SPECI KCLM 101042Z AUTO 28003KT 10SM BKN003 13/12 A2993 RMK AO2 T01330122=
202208100953 METAR KCLM 100953Z AUTO 28004KT 10SM FEW003 13/12 A2994 RMK AO2 SLP137 T01330117=
202208100915 SPECI KCLM 100915Z AUTO 30003KT 10SM FEW003 13/12 A2993 RMK AO2 T01330122=
202208100853 METAR KCLM 100853Z AUTO 25003KT 10SM CLR 14/12 A2993 RMK AO2 SLP136 T01390122 51002=
202208100753 METAR KCLM 100753Z AUTO 25003KT 10SM CLR 13/12 A2993 RMK AO2 SLP136 T01330117 402170122=
202208100653 METAR KCLM 100653Z AUTO 00000KT 10SM CLR 13/12 A2993 RMK AO2 SLP135 T01330122=
202208100644 SPECI KCLM 100644Z AUTO 00000KT 10SM FEW002 13/12 A2993 RMK AO2 T01330117=
202208100606 SPECI KCLM 100606Z AUTO 29004KT 6SM BR BKN002 13/12 A2993 RMK AO2 T01280117=
202208100553 METAR KCLM 100553Z AUTO 31004KT 9SM FEW002 13/11 A2993 RMK AO2 SLP134 T01280111 10183 20128 53005=
202208100453 METAR KCLM 100453Z AUTO 00000KT 10SM CLR 14/12 A2992 RMK AO2 SLP130 T01390122=
202208100353 METAR KCLM 100353Z AUTO 30003KT 10SM CLR 14/12 A2991 RMK AO2 SLP127 T01440122=
202208100253 METAR KCLM 100253Z AUTO 33004KT 10SM CLR 17/13 A2991 RMK AO2 SLP128 T01670128 57007=
202208100153 METAR KCLM 100153Z AUTO 30004KT 10SM CLR 17/13 A2992 RMK AO2 SLP131 T01720128=
202208100053 METAR KCLM 100053Z AUTO 30006KT 10SM CLR 17/12 A2993 RMK AO2 SLP133 T01670122=
202208092353 METAR KCLM 092353Z AUTO 32006KT 10SM CLR 17/12 A2993 RMK AO2 SLP136 T01720122 10217 20156 55006=
202208092253 METAR KCLM 092253Z AUTO 35004KT 10SM CLR 21/13 A2993 RMK AO2 SLP136 T02110133=
202208092153 METAR KCLM 092153Z AUTO 36003KT 10SM CLR 19/13 A2994 RMK AO2 SLP138 T01890128=
202208092053 METAR KCLM 092053Z AUTO 01004KT 10SM CLR 19/13 A2995 RMK AO2 SLP142 T01940128 56012=
202208091953 METAR KCLM 091953Z AUTO 36006KT 10SM FEW120 16/12 A2996 RMK AO2 SLP145 T01560122=
202208091853 METAR KCLM 091853Z AUTO 00000KT 10SM CLR 16/12 A2997 RMK AO2 SLP148 T01610122=
202208091753 METAR KCLM 091753Z AUTO 34003KT 10SM CLR 16/13 A2999 RMK AO2 SLP154 T01610128 10172 20128 58001=
202208091711 SPECI KCLM 091711Z AUTO 29004KT 10SM SCT004 16/13 A2999 RMK AO2 T01610128=
202208091653 METAR KCLM 091653Z AUTO 30003KT 10SM OVC003 14/13 A2999 RMK AO2 SLP155 T01440128=
202208091609 SPECI KCLM 091609Z AUTO 29003KT 3SM BR OVC002 14/13 A2999 RMK AO2 T01390128=
202208091603 SPECI KCLM 091603Z AUTO 00000KT 1 3/4SM BR OVC002 14/13 A2999 RMK AO2 VIS 3/4V3 T01390128=
202208091553 METAR KCLM 091553Z AUTO 31005KT 3/4SM BR OVC002 13/13 A2999 RMK AO2 SLP155 T01330128=
202208091544 SPECI KCLM 091544Z AUTO 30005KT 1/4SM FG OVC002 13/12 A2999 RMK AO2 T01330122=
202208091535 SPECI KCLM 091535Z AUTO 30006KT 1 3/4SM BR OVC002 13/12 A2999 RMK AO2 VIS 1V3 T01330122=
202208091528 SPECI KCLM 091528Z AUTO 31005KT 3SM BR OVC002 13/12 A2999 RMK AO2 T01330122=
202208091519 SPECI KCLM 091519Z AUTO 29003KT 2 1/2SM BR OVC002 13/13 A2999 RMK AO2 T01330128=
202208091507 SPECI KCLM 091507Z AUTO 31003KT 3/4SM BR VV002 13/13 A2999 RMK AO2 T01330128=
202208091453 METAR KCLM 091453Z AUTO 27004KT 1/4SM FG VV002 13/12 A2999 RMK AO2 SLP155 T01330122 50005=
202208091431 SPECI KCLM 091431Z AUTO 29003KT 1/4SM FG VV002 13/12 A2999 RMK AO2 T01280122=
202208091411 SPECI KCLM 091411Z AUTO 00000KT M1/4SM FG VV002 13/12 A2999 RMK AO2 T01330122=
202208091353 METAR KCLM 091353Z AUTO 00000KT 1/4SM FG VV002 13/12 A2999 RMK AO2 SLP155 T01280117=
202208091317 SPECI KCLM 091317Z AUTO 27003KT 1/4SM FG VV002 13/12 A2999 RMK AO2 T01280117=
202208091301 SPECI KCLM 091301Z AUTO 00000KT 3/4SM BR VV002 13/12 A2998 RMK AO2 T01280117 $=
202208091253 METAR KCLM 091253Z AUTO 00000KT 1SM BR VV002 13/12 A2998 RMK AO2 SLP152 T01280117 $=
202208091245 SPECI KCLM 091245Z AUTO 00000KT 1 1/4SM BR OVC001 13/12 A2998 RMK AO2 T01280122 $=
202208091219 SPECI KCLM 091219Z AUTO 27003KT 1 1/4SM BR OVC002 13/12 A2998 RMK AO2 T01280122 $=
202208091204 SPECI KCLM 091204Z AUTO 28005KT 3/4SM BR VV002 13/12 A2997 RMK AO2 T01280117 $=
202208091202 SPECI KCLM 091202Z AUTO 28005KT 1SM BR OVC001 13/12 A2997 RMK AO2 T01280117 $=
202208091153 METAR KCLM 091153Z AUTO 29004KT 3/4SM BR OVC001 13/12 A2997 RMK AO2 SLP149 T01280117 10161 20122 58001 $=
202208091150 SPECI KCLM 091150Z AUTO 28005KT 3/4SM BR OVC001 13/12 A2998 RMK AO2 $=
202208091127 SPECI KCLM 091127Z AUTO 27006KT 1 1/2SM BR OVC001 13/12 A2998 RMK AO2 T01280117 $=
202208091113 SPECI KCLM 091113Z AUTO 29005KT 1SM BR VV002 13/12 A2998 RMK AO2 T01280117 $=
202208091100 SPECI KCLM 091100Z AUTO 27005KT 3/4SM BR OVC002 13/12 A2998 RMK AO2 T01280117 $=
202208091053 METAR KCLM 091053Z AUTO 28005KT 2SM BR OVC002 13/12 A2998 RMK AO2 SLP151 T01280117 $=
202208090953 METAR KCLM 090953Z AUTO 31003KT 6SM BR OVC002 12/11 A2998 RMK AO2 SLP150 T01220111 $=
202208090901 SPECI KCLM 090901Z AUTO 31003KT 7SM BKN003 13/11 A2997 RMK AO2 T01280111 $=
202208090853 METAR KCLM 090853Z AUTO 28004KT 8SM SCT003 13/11 A2998 RMK AO2 SLP149 T01280111 50009 $=
202208090850 SPECI KCLM 090850Z AUTO 29004KT 8SM SCT003 13/12 A2998 RMK AO2 $=
202208090753 METAR KCLM 090753Z AUTO 28003KT 10SM CLR 14/12 A2996 RMK AO2 SLP143 T01440122 402720122 $=
202208090653 METAR KCLM 090653Z AUTO 28005KT 10SM CLR 16/13 A2995 RMK AO2 SLP140 T01560128 $=
202208090553 METAR KCLM 090553Z AUTO 29004KT 10SM CLR 16/12 A2995 RMK AO2 SLP139 T01560122 10239 20150 51008 $=
202208090453 METAR KCLM 090453Z AUTO 28005KT 10SM CLR 16/12 A2994 RMK AO2 SLP137 T01560122 $=
202208090353 METAR KCLM 090353Z AUTO 00000KT 10SM CLR 17/12 A2993 RMK AO2 SLP133 T01670122 $=
202208090253 METAR KCLM 090253Z AUTO 30003KT 10SM CLR 19/13 A2992 RMK AO2 SLP131 T01940128 56009=
202208090153 METAR KCLM 090153Z AUTO 31006KT 10SM CLR 20/13 A2993 RMK AO2 SLP133 T02000128=
202208090053 METAR KCLM 090053Z AUTO 30003KT 10SM CLR 23/13 A2994 RMK AO2 SLP136 T02280133=
202208082353 METAR KCLM 082353Z AUTO 35004KT 10SM CLR 23/13 A2995 RMK AO2 SLP140 T02280133 10272 20228 56016=
202208082253 METAR KCLM 082253Z AUTO 35004KT 10SM CLR 24/14 A2996 RMK AO2 SLP144 T02440139=
202208082153 METAR KCLM 082153Z AUTO VRB05KT 10SM CLR 26/14 A2998 RMK AO2 SLP150 T02610139=
202208082053 METAR KCLM 082053Z AUTO 08006KT 10SM CLR 26/14 A2999 RMK AO2 SLP156 T02610139 56003=
202208081953 METAR KCLM 081953Z AUTO VRB05KT 10SM CLR 26/14 A2999 RMK AO2 SLP156 T02610139=
202208081853 METAR KCLM 081853Z AUTO 08007KT 10SM CLR 24/14 A3000 RMK AO2 SLP158 T02440139=
202208081753 METAR KCLM 081753Z AUTO 08008KT 10SM CLR 24/13 A3000 RMK AO2 SLP159 T02390133 10244 20122 51001=
202208081653 METAR KCLM 081653Z AUTO VRB06KT 10SM CLR 24/12 A3000 RMK AO2 SLP159 T02440122=
202208081553 METAR KCLM 081553Z AUTO 06005KT 10SM CLR 24/12 A3000 RMK AO2 SLP158 T02390122=
202208081453 METAR KCLM 081453Z AUTO 00000KT 10SM CLR 21/12 A3000 RMK AO2 SLP156 T02060122 53006=
202208081353 METAR KCLM 081353Z AUTO 00000KT 10SM CLR 15/11 A3000 RMK AO2 SLP156 T01500106=
202208081253 METAR KCLM 081253Z AUTO 00000KT 10SM CLR 13/09 A2998 RMK AO2 SLP152 T01330089=
202208081153 METAR KCLM 081153Z AUTO 00000KT 10SM CLR 14/08 A2998 RMK AO2 SLP151 T01390083 10183 20128 53000=
202208081053 METAR KCLM 081053Z AUTO 00000KT 10SM CLR 14/09 A2998 RMK AO2 SLP151 T01440089=
202208080953 METAR KCLM 080953Z AUTO 15003KT 10SM CLR 14/08 A2998 RMK AO2 SLP149 T01390083=
202208080853 METAR KCLM 080853Z AUTO 00000KT 10SM CLR 15/09 A2998 RMK AO2 SLP151 T01500089 56004=
202208080753 METAR KCLM 080753Z AUTO 00000KT 10SM CLR 14/09 A2998 RMK AO2 SLP151 T01390089 402940111=
202208080653 METAR KCLM 080653Z AUTO 23003KT 10SM CLR 17/10 A2998 RMK AO2 SLP151 T01670100=
202208080553 METAR KCLM 080553Z AUTO 00000KT 10SM CLR 17/12 A2999 RMK AO2 SLP155 T01720122 10294 20161 50001=
202208080453 METAR KCLM 080453Z AUTO 30003KT 10SM CLR 18/13 A2999 RMK AO2 SLP156 T01830128=
202208080353 METAR KCLM 080353Z AUTO 21003KT 10SM CLR 21/13 A2999 RMK AO2 SLP155 T02060128=
202208080253 METAR KCLM 080253Z AUTO 00000KT 10SM CLR 27/11 A2999 RMK AO2 SLP153 T02670106 56010=
202208080153 METAR KCLM 080153Z AUTO VRB04KT 10SM CLR 28/11 A2999 RMK AO2 SLP155 T02830106=
202208080053 METAR KCLM 080053Z AUTO 08006KT 10SM CLR 29/09 A3001 RMK AO2 SLP160 T02940094=
202208072353 METAR KCLM 072353Z AUTO 11006KT 10SM CLR 29/10 A3002 RMK AO2 SLP164 T02890100 10289 20244 58017=
202208072253 METAR KCLM 072253Z AUTO 08006KT 10SM CLR 28/11 A3004 RMK AO2 SLP170 T02780106=
202208072153 METAR KCLM 072153Z AUTO VRB05KT 10SM CLR 28/11 A3005 RMK AO2 SLP175 T02830111=
202208072053 METAR KCLM 072053Z AUTO 07006KT 10SM CLR 27/11 A3007 RMK AO2 SLP181 T02720111 57010=
202208071953 METAR KCLM 071953Z AUTO 09007KT 10SM CLR 26/12 A3008 RMK AO2 SLP185 T02610122=
202208071853 METAR KCLM 071853Z AUTO 10007KT 10SM CLR 26/12 A3009 RMK AO2 SLP187 T02560122=
202208071753 METAR KCLM 071753Z AUTO 07004KT 10SM CLR 24/12 A3010 RMK AO2 SLP191 T02440122 10250 20111 50001=
202208071653 METAR KCLM 071653Z AUTO 10004KT 10SM CLR 24/12 A3010 RMK AO2 SLP192 T02390122=
202208071553 METAR KCLM 071553Z AUTO 09007KT 10SM CLR 24/11 A3010 RMK AO2 SLP192 T02390111=
202208071453 METAR KCLM 071453Z AUTO 00000KT 10SM CLR 21/11 A3010 RMK AO2 SLP191 T02060106 53008=
202208071353 METAR KCLM 071353Z AUTO 23003KT 10SM CLR 16/09 A3008 RMK AO2 SLP186 T01610094=
202208071253 METAR KCLM 071253Z AUTO 18004KT 10SM CLR 12/07 A3007 RMK AO2 SLP183 T01170072=
202208071153 METAR KCLM 071153Z AUTO 15004KT 10SM CLR 12/08 A3007 RMK AO2 SLP182 T01220078 10183 20117 53005=
202208071053 METAR KCLM 071053Z AUTO 23006KT 10SM CLR 13/08 A3006 RMK AO2 SLP178 T01330078=
202208070953 METAR KCLM 070953Z AUTO 00000KT 10SM CLR 15/08 A3006 RMK AO2 SLP179 T01500078=
202208070853 METAR KCLM 070853Z AUTO VRB03KT 10SM CLR 13/08 A3006 RMK AO2 SLP177 T01280078 56003=
202208070753 METAR KCLM 070753Z AUTO 00000KT 10SM CLR 14/08 A3006 RMK AO2 SLP179 T01440083 402940117=
202208070653 METAR KCLM 070653Z AUTO 24003KT 10SM CLR 16/09 A3006 RMK AO2 SLP179 T01610089=
202208070553 METAR KCLM 070553Z AUTO 25004KT 10SM CLR 17/09 A3007 RMK AO2 SLP181 T01670094 10294 20161 50003=
202208070453 METAR KCLM 070453Z AUTO 24005KT 10SM CLR 17/11 A3007 RMK AO2 SLP181 T01670111=
202208070353 METAR KCLM 070353Z AUTO 24003KT 10SM CLR 19/11 A3006 RMK AO2 SLP179 T01890106=
202208070253 METAR KCLM 070253Z AUTO 30004KT 10SM CLR 22/10 A3006 RMK AO2 SLP178 T02170100 55003=
202208070153 METAR KCLM 070153Z AUTO 35003KT 10SM CLR 23/12 A3005 RMK AO2 SLP175 T02330117=
202208070053 METAR KCLM 070053Z AUTO VRB03KT 10SM CLR 28/08 A3006 RMK AO2 SLP177 T02780078=
202208062353 METAR KCLM 062353Z AUTO 07003KT 10SM CLR 29/05 A3007 RMK AO2 SLP180 T02940050 10294 20233 58012=
202208062253 METAR KCLM 062253Z AUTO 12007KT 10SM CLR 28/07 A3009 RMK AO2 SLP187 T02830072=
202208062153 METAR KCLM 062153Z AUTO 07005KT 10SM CLR 27/09 A3010 RMK AO2 SLP192 T02670094=
202208062053 METAR KCLM 062053Z AUTO 08006KT 10SM CLR 26/09 A3010 RMK AO2 SLP193 T02610094 58008=
202208061953 METAR KCLM 061953Z AUTO 08007KT 10SM CLR 25/11 A3011 RMK AO2 SLP195 T02500106=
202208061853 METAR KCLM 061853Z AUTO 10009KT 10SM CLR 24/11 A3012 RMK AO2 SLP199 T02440111=
202208061753 METAR KCLM 061753Z AUTO 09009KT 10SM CLR 23/11 A3013 RMK AO2 SLP201 T02330111 10233 20133 51007=
202208061653 METAR KCLM 061653Z AUTO 10009KT 10SM CLR 22/11 A3012 RMK AO2 SLP199 T02220111=
202208061553 METAR KCLM 061553Z AUTO 10008KT 10SM CLR 22/11 A3012 RMK AO2 SLP197 T02170106=
202208061453 METAR KCLM 061453Z AUTO 23004KT 10SM CLR 19/09 A3010 RMK AO2 SLP193 T01890094 53008=
202208061353 METAR KCLM 061353Z AUTO 14003KT 10SM CLR 14/09 A3010 RMK AO2 SLP191 T01390094=
202208061253 METAR KCLM 061253Z AUTO 23008KT 10SM CLR 15/08 A3009 RMK AO2 SLP187 T01500078=
202208061153 METAR KCLM 061153Z AUTO 22007KT 10SM CLR 14/08 A3008 RMK AO2 SLP184 T01440078 10167 20117 53003=
202208061053 METAR KCLM 061053Z AUTO 22007KT 10SM CLR 14/08 A3008 RMK AO2 SLP183 T01440078=
202208060953 METAR KCLM 060953Z AUTO 23009KT 10SM CLR 15/08 A3007 RMK AO2 SLP181 T01500083=
202208060853 METAR KCLM 060853Z AUTO 22004KT 10SM CLR 13/08 A3007 RMK AO2 SLP182 T01280083 53002=
202208060753 METAR KCLM 060753Z AUTO 19003KT 10SM CLR 12/08 A3006 RMK AO2 SLP180 T01170083 402440100=
202208060653 METAR KCLM 060653Z AUTO 00000KT 10SM CLR 16/09 A3006 RMK AO2 SLP177 T01610089=
202208060553 METAR KCLM 060553Z AUTO 24003KT 10SM CLR 15/09 A3006 RMK AO2 SLP179 T01500094 10244 20144 50006=
202208060453 METAR KCLM 060453Z AUTO 26004KT 10SM CLR 16/10 A3007 RMK AO2 SLP181 T01560100=
202208060353 METAR KCLM 060353Z AUTO 27004KT 10SM CLR 17/10 A3005 RMK AO2 SLP175 T01670100=
202208060253 METAR KCLM 060253Z AUTO 29006KT 10SM CLR 18/11 A3004 RMK AO2 SLP174 T01780111 56007=
202208060153 METAR KCLM 060153Z AUTO 30006KT 10SM CLR 20/12 A3005 RMK AO2 SLP175 T02000117=
202208060053 METAR KCLM 060053Z AUTO VRB03KT 10SM CLR 24/09 A3005 RMK AO2 SLP176 T02390094=
202208052353 METAR KCLM 052353Z AUTO VRB04KT 10SM CLR 23/09 A3006 RMK AO2 SLP181 T02330094 10244 20194 58009=
202208052253 METAR KCLM 052253Z AUTO VRB04KT 10SM CLR 24/09 A3008 RMK AO2 SLP185 T02390089=
202208052153 METAR KCLM 052153Z AUTO 09006KT 10SM CLR 23/08 A3008 RMK AO2 SLP186 T02330083=
202208052053 METAR KCLM 052053Z AUTO 00000KT 10SM CLR 23/11 A3009 RMK AO2 SLP189 T02330106 58010=
202208051953 METAR KCLM 051953Z AUTO 12004KT 10SM CLR 21/11 A3011 RMK AO2 SLP196 T02110111=
202208051853 METAR KCLM 051853Z AUTO 05007KT 010V090 10SM CLR 21/12 A3012 RMK AO2 SLP200 T02060117=
202208051753 METAR KCLM 051753Z AUTO 07007KT 020V090 10SM FEW025 20/12 A3012 RMK AO2 SLP200 T02000117 10200 20100 50000=
202208051730 SPECI KCLM 051730Z AUTO 09007KT 10SM SCT025 19/12 A3012 RMK AO2 T01940117=
202208051653 METAR KCLM 051653Z AUTO VRB04KT 10SM BKN025 19/12 A3012 RMK AO2 SLP200 T01890117=
202208051553 METAR KCLM 051553Z AUTO 07004KT 10SM FEW026 18/11 A3012 RMK AO2 SLP201 T01830111=
202208051453 METAR KCLM 051453Z AUTO 00000KT 10SM CLR 16/11 A3012 RMK AO2 SLP200 T01610106 51006=
202208051353 METAR KCLM 051353Z AUTO 00000KT 10SM CLR 11/08 A3012 RMK AO2 SLP198 T01060078=
202208051253 METAR KCLM 051253Z AUTO 00000KT 10SM BKN055 10/07 A3011 RMK AO2 SLP196 T01000072=
202208051153 METAR KCLM 051153Z AUTO 33003KT 10SM CLR 11/09 A3010 RMK AO2 SLP194 T01110089 10133 20111 55000=
202208051053 METAR KCLM 051053Z AUTO 29004KT 10SM CLR 12/09 A3010 RMK AO2 SLP192 T01170089=
202208050953 METAR KCLM 050953Z AUTO 29007KT 10SM CLR 12/09 A3010 RMK AO2 SLP193 T01220089=
202208050853 METAR KCLM 050853Z AUTO 28005KT 10SM CLR 12/09 A3010 RMK AO2 SLP194 T01170089 58001=
202208050753 METAR KCLM 050753Z AUTO 27007KT 10SM CLR 12/09 A3011 RMK AO2 SLP196 T01170094 401940117=
202208050653 METAR KCLM 050653Z AUTO 29007KT 10SM FEW070 13/10 A3011 RMK AO2 SLP196 T01280100=
202208050553 METAR KCLM 050553Z AUTO 27006KT 10SM CLR 13/10 A3011 RMK AO2 SLP195 T01280100 10189 20128 51009=
202208050453 METAR KCLM 050453Z AUTO 27006KT 10SM CLR 13/09 A3011 RMK AO2 SLP195 T01330094=
202208050353 METAR KCLM 050353Z AUTO 26009KT 10SM CLR 14/10 A3009 RMK AO2 SLP190 T01390100=
202208050253 METAR KCLM 050253Z AUTO 27009KT 10SM CLR 16/10 A3008 RMK AO2 SLP185 T01560100 53001=
202208050153 METAR KCLM 050153Z AUTO 31011G20KT 10SM CLR 17/10 A3007 RMK AO2 SLP183 T01670100=
202208050053 METAR KCLM 050053Z AUTO 30009KT 10SM CLR 18/09 A3008 RMK AO2 SLP184 T01780094=
202208042353 METAR KCLM 042353Z AUTO 30014G20KT 10SM CLR 19/11 A3008 RMK AO2 SLP184 T01890106 10194 20161 56004=
202208042253 METAR KCLM 042253Z AUTO 31013G21KT 10SM CLR 18/11 A3008 RMK AO2 SLP184 T01830111=
202208042153 METAR KCLM 042153Z AUTO 31013G22KT 10SM FEW060 18/12 A3008 RMK AO2 SLP186 T01830117=
202208042053 METAR KCLM 042053Z AUTO 30011KT 10SM OVC060 18/12 A3009 RMK AO2 SLP188 T01780117 51017=
202208041953 METAR KCLM 041953Z AUTO 31010G18KT 10SM BKN060 18/12 A3008 RMK AO2 SLP185 T01780117=
202208041853 METAR KCLM 041853Z AUTO 30012G22KT 10SM OVC060 16/11 A3006 RMK AO2 SLP179 T01610111=
202208041753 METAR KCLM 041753Z AUTO 31009G19KT 10SM OVC060 17/11 A3004 RMK AO2 SLP171 T01670111 10183 20128 51017=
202208041653 METAR KCLM 041653Z AUTO 29006KT 10SM OVC060 16/11 A3003 RMK AO2 SLP167 T01610111=
202208041553 METAR KCLM 041553Z AUTO 33005KT 10SM OVC055 15/12 A3000 RMK AO2 SLP159 T01500117=
202208041504 SPECI KCLM 041504Z AUTO 29005KT 10SM SCT011 OVC060 15/12 A2999 RMK AO2 T01500117=
202208041453 METAR KCLM 041453Z AUTO 00000KT 10SM BKN012 OVC060 14/12 A2999 RMK AO2 SLP154 T01440117 51010=
202208041450 SPECI KCLM 041450Z AUTO 24005KT 10SM BKN012 OVC060 14/12 A2999 RMK AO2=
202208041353 METAR KCLM 041353Z AUTO 27011KT 10SM OVC060 14/12 A2997 RMK AO2 SLP148 T01390117=
202208041310 SPECI KCLM 041310Z AUTO 31006KT 10SM FEW009 BKN060 13/11 A2996 RMK AO2 T01280111=
202208041253 METAR KCLM 041253Z AUTO 30004KT 10SM FEW010 FEW014 SCT060 13/11 A2996 RMK AO2 SLP144 T01280111=
202208041221 SPECI KCLM 041221Z AUTO 30007KT 10SM FEW008 SCT024 BKN050 13/11 A2995 RMK AO2 T01330111=
202208041153 METAR KCLM 041153Z AUTO 29005KT 10SM BKN005 OVC009 13/12 A2995 RMK AO2 RAB00E20 SLP141 P0000 60000 T01330117 10150 20133 51002=
202208041145 SPECI KCLM 041145Z AUTO 30006KT 10SM OVC005 13/12 A2994 RMK AO2 RAB00E20 P0000 T01330117=
202208041053 METAR KCLM 041053Z AUTO 00000KT 10SM OVC003 13/12 A2995 RMK AO2 RAE04 SLP141 P0000 T01330117=
202208040953 METAR KCLM 040953Z AUTO 28007KT 8SM -RA OVC004 13/12 A2995 RMK AO2 RAB51 SLP141 P0000 T01330117=
202208040905 SPECI KCLM 040905Z AUTO 30004KT 10SM OVC004 13/12 A2995 RMK AO2 T01330117=
202208040853 METAR KCLM 040853Z AUTO 30005KT 10SM OVC005 13/12 A2994 RMK AO2 CIG 003V007 SLP139 60000 T01330117 53007=
202208040824 SPECI KCLM 040824Z AUTO 32003KT 10SM BKN008 BKN027 OVC070 14/12 A2994 RMK AO2 T01390117=
202208040802 SPECI KCLM 040802Z AUTO 27005KT 10SM FEW009 BKN041 OVC055 14/12 A2993 RMK AO2 T01390117=
202208040753 METAR KCLM 040753Z AUTO 26005KT 10SM FEW011 BKN041 OVC055 14/12 A2993 RMK AO2 SLP135 T01390117 402060122=
202208040653 METAR KCLM 040653Z AUTO 00000KT 10SM FEW047 OVC110 14/12 A2991 RMK AO2 RAB0559E41 SLP128 P0000 T01390117=
202208040553 METAR KCLM 040553Z AUTO 32005KT 10SM BKN042 OVC060 15/11 A2992 RMK AO2 SLP132 T01500111 10189 20150 53005=
202208040453 METAR KCLM 040453Z AUTO 25004KT 10SM OVC031 15/11 A2992 RMK AO2 SLP131 T01500111=
202208040353 METAR KCLM 040353Z AUTO 29004KT 10SM FEW034 OVC075 16/11 A2990 RMK AO2 SLP125 T01560111=
202208040253 METAR KCLM 040253Z AUTO 00000KT 10SM OVC085 16/12 A2991 RMK AO2 SLP127 T01610117 58011=
202208040153 METAR KCLM 040153Z AUTO VRB03KT 10SM OVC085 17/12 A2992 RMK AO2 SLP131 T01670122=
202208040053 METAR KCLM 040053Z AUTO 30006KT 10SM FEW033 BKN095 17/12 A2993 RMK AO2 SLP134 T01670122=
202208032353 METAR KCLM 032353Z AUTO 31009G17KT 10SM CLR 18/12 A2994 RMK AO2 SLP138 T01780122 10206 20172 56001=
202208032253 METAR KCLM 032253Z AUTO 30014G20KT 10SM BKN033 19/13 A2994 RMK AO2 SLP138 T01890128=
202208032153 METAR KCLM 032153Z AUTO 32010G16KT 10SM CLR 19/13 A2994 RMK AO2 SLP137 T01940128=
202208032053 METAR KCLM 032053Z AUTO 30009KT 10SM CLR 20/12 A2994 RMK AO2 SLP138 T02000122 58009=
202208032035 SPECI KCLM 032035Z AUTO 31007KT 10SM SCT026 20/12 A2994 RMK AO2 T02000122=
202208031953 METAR KCLM 031953Z AUTO 36005KT 10SM BKN024 18/12 A2996 RMK AO2 SLP143 T01830122=
202208031853 METAR KCLM 031853Z AUTO 36005KT 10SM CLR 18/12 A2996 RMK AO2 SLP145 T01780117=
202208031753 METAR KCLM 031753Z AUTO 32004KT 10SM SCT020 18/12 A2997 RMK AO2 SLP147 T01780117 10183 20128 56005=
202208031744 SPECI KCLM 031744Z AUTO VRB05KT 10SM SCT019 18/11 A2997 RMK AO2 T01780111=
202208031735 SPECI KCLM 031735Z AUTO VRB05KT 10SM BKN019 18/12 A2997 RMK AO2 T01780117=
202208031653 METAR KCLM 031653Z AUTO 00000KT 10SM SCT015 17/11 A2997 RMK AO2 SLP147 T01720111=
202208031650 SPECI KCLM 031650Z AUTO 00000KT 10SM SCT014 17/11 A2997 RMK AO2=
202208031553 METAR KCLM 031553Z AUTO 28008KT 10SM OVC014 15/11 A2998 RMK AO2 SLP153 T01500106=
202208031453 METAR KCLM 031453Z AUTO 29008KT 10SM OVC011 14/11 A2998 RMK AO2 SLP153 T01390106 55003=
202208031416 SPECI KCLM 031416Z AUTO 29004KT 10SM OVC010 14/11 A2997 RMK AO2 CIG 007V012 T01390111=
202208031353 METAR KCLM 031353Z AUTO 28008KT 10SM OVC008 13/11 A2997 RMK AO2 SLP149 T01330111=
202208031253 METAR KCLM 031253Z AUTO 28006KT 10SM OVC007 13/11 A2999 RMK AO2 SLP154 T01280111=
202208031153 METAR KCLM 031153Z AUTO 31005KT 9SM OVC005 13/11 A2999 RMK AO2 SLP156 T01280111 10128 20122 58006=
202208031124 SPECI KCLM 031124Z AUTO 26007KT 9SM OVC005 13/11 A3000 RMK AO2 T01280111=
202208031053 METAR KCLM 031053Z AUTO 27007KT 7SM OVC004 12/11 A3000 RMK AO2 SLP160 T01220111=
202208031035 SPECI KCLM 031035Z AUTO 28008KT 6SM BR OVC004 12/11 A3000 RMK AO2 T01220106=
202208030953 METAR KCLM 030953Z AUTO 29008KT 8SM OVC005 12/11 A3000 RMK AO2 SLP159 T01220106=
202208030853 METAR KCLM 030853Z AUTO 29008KT 9SM OVC005 12/11 A3001 RMK AO2 SLP162 T01220106 53002=
202208030825 SPECI KCLM 030825Z AUTO 29008G14KT 9SM OVC005 12/11 A3001 RMK AO2 T01220106=
202208030753 METAR KCLM 030753Z AUTO 28008KT 8SM BKN004 12/11 A3001 RMK AO2 SLP162 T01220111 402000122=
202208030745 SPECI KCLM 030745Z AUTO 28009KT 7SM BKN004 12/11 A3001 RMK AO2 T01220111=
202208030726 SPECI KCLM 030726Z AUTO 29011KT 7SM FEW004 12/11 A3001 RMK AO2 T01220106=
202208030653 METAR KCLM 030653Z AUTO 27006KT 9SM CLR 12/11 A3000 RMK AO2 SLP159 T01220106=
202208030553 METAR KCLM 030553Z AUTO 28008KT 10SM CLR 13/11 A3000 RMK AO2 SLP160 T01280106 10200 20128 58005=
202208030453 METAR KCLM 030453Z AUTO 29008KT 10SM CLR 13/11 A3001 RMK AO2 SLP164 T01330106=
202208030353 METAR KCLM 030353Z AUTO 29007KT 10SM CLR 14/11 A3002 RMK AO2 SLP164 T01440106=
202208030253 METAR KCLM 030253Z AUTO 31005KT 10SM CLR 16/11 A3002 RMK AO2 SLP165 T01610111 56010=
202208030153 METAR KCLM 030153Z AUTO 29007KT 10SM CLR 17/11 A3003 RMK AO2 SLP168 T01720111=
202208030053 METAR KCLM 030053Z AUTO 30006KT 10SM CLR 19/12 A3004 RMK AO2 SLP173 T01890117=
202208022353 METAR KCLM 022353Z AUTO 34005KT 10SM CLR 19/12 A3005 RMK AO2 SLP176 T01890117 10200 20167 58009=
202208022253 METAR KCLM 022253Z AUTO 35005KT 10SM CLR 20/12 A3006 RMK AO2 SLP179 T02000117=
202208022153 METAR KCLM 022153Z AUTO 36006KT 10SM CLR 19/12 A3008 RMK AO2 SLP185 T01940117=
202208022053 METAR KCLM 022053Z AUTO 36009KT 10SM CLR 18/11 A3008 RMK AO2 SLP186 T01780111 58001=
202208021953 METAR KCLM 021953Z AUTO 36006KT 10SM CLR 18/11 A3009 RMK AO2 SLP188 T01780111=
202208021853 METAR KCLM 021853Z AUTO 36007KT 330V030 10SM CLR 18/11 A3008 RMK AO2 SLP187 T01780111=
202208021816 SPECI KCLM 021816Z AUTO 02007KT 10SM SCT014 17/11 A3008 RMK AO2 T01720111=
202208021753 METAR KCLM 021753Z AUTO 36006KT 10SM BKN014 17/11 A3008 RMK AO2 SLP187 T01670111 10167 20139 51007=
202208021653 METAR KCLM 021653Z AUTO 33004KT 10SM OVC013 16/11 A3008 RMK AO2 SLP187 T01610111=
202208021602 SPECI KCLM 021602Z AUTO 27003KT 10SM OVC010 15/11 A3007 RMK AO2 T01500111=
202208021553 METAR KCLM 021553Z AUTO 31003KT 10SM OVC009 15/11 A3007 RMK AO2 SLP183 T01500111=
202208021453 METAR KCLM 021453Z AUTO 30005KT 10SM OVC009 14/12 A3006 RMK AO2 SLP180 T01440117 51013=
202208021437 SPECI KCLM 021437Z AUTO 30005KT 10SM OVC009 14/12 A3005 RMK AO2 T01440117=
202208021423 SPECI KCLM 021423Z AUTO 28005KT 10SM OVC010 14/12 A3006 RMK AO2 T01440117=
202208021353 METAR KCLM 021353Z AUTO 26005KT 10SM OVC009 14/12 A3005 RMK AO2 SLP176 T01390117=
202208021253 METAR KCLM 021253Z AUTO 30004KT 10SM OVC008 14/12 A3004 RMK AO2 SLP172 T01390117=
202208021153 METAR KCLM 021153Z AUTO 30006KT 10SM OVC009 14/12 A3003 RMK AO2 SLP167 T01390117 10144 20139 53004=
202208021053 METAR KCLM 021053Z AUTO 29009KT 10SM OVC009 14/12 A3002 RMK AO2 SLP165 T01390117=
202208020953 METAR KCLM 020953Z AUTO 29009KT 10SM OVC007 14/12 A3001 RMK AO2 SLP160 T01390117=
202208020853 METAR KCLM 020853Z AUTO 28011KT 10SM OVC006 14/12 A3001 RMK AO2 SLP163 T01390117 51010=
202208020753 METAR KCLM 020753Z AUTO 28006KT 10SM OVC005 14/12 A3001 RMK AO2 SLP162 T01390122 402220122=
202208020653 METAR KCLM 020653Z AUTO 28007KT 10SM OVC005 14/13 A3000 RMK AO2 SLP158 T01440128=
202208020553 METAR KCLM 020553Z AUTO 29012KT 10SM OVC005 14/13 A2998 RMK AO2 SLP153 T01440128 10211 20144 53011=
202208020453 METAR KCLM 020453Z AUTO 29012KT 10SM OVC006 15/13 A2997 RMK AO2 SLP149 T01500128=
202208020353 METAR KCLM 020353Z AUTO 28009KT 8SM BKN006 15/13 A2996 RMK AO2 SLP144 T01500128=
202208020345 SPECI KCLM 020345Z AUTO 29008KT 8SM BKN006 15/13 A2996 RMK AO2 T01500128=
202208020320 SPECI KCLM 020320Z AUTO 27009KT 9SM FEW008 16/13 A2996 RMK AO2 T01560128=
202208020253 METAR KCLM 020253Z AUTO 28009KT 10SM CLR 16/13 A2995 RMK AO2 SLP142 T01610128 53000=
202208020153 METAR KCLM 020153Z AUTO 31007G16KT 10SM CLR 18/13 A2994 RMK AO2 SLP140 T01830133=
202208020053 METAR KCLM 020053Z AUTO 31009KT 10SM CLR 21/14 A2995 RMK AO2 SLP140 T02060139=
202208012353 METAR KCLM 012353Z AUTO 32008KT 10SM CLR 21/14 A2995 RMK AO2 SLP142 T02110139 10222 20183 56006=
202208012253 METAR KCLM 012253Z AUTO 31008KT 10SM CLR 21/14 A2996 RMK AO2 SLP144 T02110139=
202208012153 METAR KCLM 012153Z AUTO 33008KT 10SM CLR 21/14 A2996 RMK AO2 SLP145 T02110139=
202208012053 METAR KCLM 012053Z AUTO VRB06KT 10SM CLR 22/14 A2997 RMK AO2 SLP148 T02170139 58001=
202208011953 METAR KCLM 011953Z AUTO 31008KT 10SM CLR 20/13 A2997 RMK AO2 SLP149 T02000133=
202208011853 METAR KCLM 011853Z AUTO 30010KT 10SM CLR 18/13 A2998 RMK AO2 SLP151 T01830133=
202208011753 METAR KCLM 011753Z AUTO VRB05KT 10SM CLR 19/13 A2997 RMK AO2 SLP148 T01890133 10189 20128 50004=
202208011653 METAR KCLM 011653Z AUTO 29006KT 10SM CLR 17/13 A2997 RMK AO2 SLP148 T01670133=
202208011621 SPECI KCLM 011621Z AUTO 31004KT 10SM SCT006 16/13 A2997 RMK AO2 T01610133=
202208011605 SPECI KCLM 011605Z AUTO VRB04KT 10SM BKN005 16/14 A2996 RMK AO2 T01610139=
202208011553 METAR KCLM 011553Z AUTO 29004KT 10SM BKN004 16/13 A2996 RMK AO2 SLP146 T01560133=
202208011453 METAR KCLM 011453Z AUTO 29008G15KT 5SM BR OVC002 14/13 A2996 RMK AO2 SLP144 T01390128 51005=
202208011444 SPECI KCLM 011444Z AUTO 29008KT 2 1/2SM BR OVC002 14/13 A2996 RMK AO2 VIS 2V4 T01390128=
202208011403 SPECI KCLM 011403Z AUTO 27009KT 1 1/4SM BR OVC002 14/12 A2995 RMK AO2 T01390122=
202208011353 METAR KCLM 011353Z AUTO 27008KT 3/4SM BR OVC002 13/12 A2995 RMK AO2 SLP140 T01330122=
202208011305 SPECI KCLM 011305Z AUTO 28007KT 3/4SM BR OVC002 13/12 A2995 RMK AO2 T01330122=
202208011253 METAR KCLM 011253Z AUTO 30007KT 1 1/2SM BR OVC002 13/12 A2994 RMK AO2 SLP138 T01330117=
202208011234 SPECI KCLM 011234Z AUTO 27007KT 2SM BR OVC002 13/12 A2993 RMK AO2 T01280117=
202208011208 SPECI KCLM 011208Z AUTO 25005KT 9SM OVC002 13/12 A2993 RMK AO2 T01280117=
202208011200 SPECI KCLM 011200Z AUTO 24003KT 2SM BR OVC002 12/12 A2993 RMK AO2 T01220117=
202208011149 METAR KCLM 011149Z AUTO 28005KT 3/4SM BR OVC002 13/11 A2993 RMK AO2 SLP135 T01280111 10133 20122 51007=
202208011148 SPECI KCLM 011148Z AUTO 28004KT 3/4SM BR OVC002 13/11 A2993 RMK AO2=
202208011135 SPECI KCLM 011135Z AUTO 30003KT 2 1/2SM BR OVC002 13/12 A2993 RMK AO2 T01280117=
202208011123 SPECI KCLM 011123Z AUTO 00000KT 10SM BKN003 12/11 A2993 RMK AO2 T01220111=
202208011107 SPECI KCLM 011107Z AUTO 00000KT 10SM FEW003 12/11 A2992 RMK AO2 T01220111=
202208011053 METAR KCLM 011053Z AUTO 00000KT 10SM CLR 13/12 A2992 RMK AO2 SLP132 T01280117=
202208010953 METAR KCLM 010953Z AUTO 27006KT 10SM FEW004 13/12 A2991 RMK AO2 SLP129 T01330117=
202208010946 SPECI KCLM 010946Z AUTO 28008KT 10SM SCT004 13/12 A2992 RMK AO2 T01330117=
202208010933 SPECI KCLM 010933Z AUTO 28009KT 10SM BKN004 13/12 A2991 RMK AO2 T01330117=
202208010907 SPECI KCLM 010907Z AUTO 28008KT 10SM FEW003 13/12 A2991 RMK AO2 T01330117=
202208010853 METAR KCLM 010853Z AUTO 28007KT 10SM CLR 13/11 A2991 RMK AO2 SLP126 T01280111 53000=
202208010753 METAR KCLM 010753Z AUTO 28006KT 10SM CLR 13/11 A2990 RMK AO2 SLP125 T01280111 402560122=
202208010653 METAR KCLM 010653Z AUTO 27006KT 10SM CLR 13/11 A2990 RMK AO2 SLP124 T01330111=
202208010553 METAR KCLM 010553Z AUTO 30006KT 10SM CLR 13/11 A2991 RMK AO2 SLP126 T01280111 10228 20122 50001=
202208010453 METAR KCLM 010453Z AUTO 32003KT 10SM CLR 14/12 A2991 RMK AO2 SLP127 T01390117=
202208010353 METAR KCLM 010353Z AUTO 29003KT 10SM CLR 16/12 A2990 RMK AO2 SLP125 T01560122=
202208010253 METAR KCLM 010253Z AUTO 32005KT 10SM CLR 18/13 A2990 RMK AO2 SLP125 T01780128 55007=
202208010153 METAR KCLM 010153Z AUTO 30005KT 10SM CLR 22/14 A2990 RMK AO2 SLP124 T02170139=
202208010053 METAR KCLM 010053Z AUTO 32006KT 10SM CLR 23/14 A2991 RMK AO2 SLP128 T02280139=

# No short TAF reports from KCLM in databse.

###################################
#  large TAF from KCLM
###################################
202208312340 TAF KCLM 312340Z 0100/0124 29008KT P6SM FEW150 FM011100 29006KT
                       P6SM BKN015
                      TEMPO 0112/0116 OVC008 FM011800 34005KT P6SM
                       SKC=
202208311737 TAF KCLM 311737Z 3118/0118 32005KT P6SM FEW150 FM312300 31010G18KT
                       P6SM FEW150 FM011100 29006KT P6SM BKN015=
202208311121 TAF KCLM 311121Z 3112/0112 23003KT P6SM FEW150 FM311700 35005KT
                       P6SM FEW150 FM010100 29010KT P6SM FEW150
                       FM011100 28005KT P6SM BKN010=
202208310528 TAF KCLM 310528Z 3106/0106 23003KT P6SM SKC FM311700 35005KT P6SM
                       FEW200 FM010100 29010KT P6SM FEW200=
202208302320 TAF KCLM 302320Z 3100/3124 04007KT P6SM SKC FM310500 29008KT P6SM
                       SKC FM311100 31004KT P6SM FEW250=
202208301723 TAF KCLM 301723Z 3018/3118 04009KT P6SM SKC FM310100 VRB04KT P6SM
                       SKC FM310500 30008KT P6SM FEW250 FM311100
                       31004KT P6SM FEW250=
202208301133 TAF KCLM 301133Z 3012/3112 00000KT P6SM SCT250 FM301700 04005KT
                       P6SM FEW250 FM310100 29005KT P6SM FEW250=
202208300529 TAF KCLM 300529Z 3006/3106 23003KT P6SM FEW250 FM301200 23003KT
                       P6SM VCFG FEW002 SCT250 FM301700 04005KT
                       P6SM FEW250 FM310100 29005KT P6SM FEW250=
202208292320 TAF KCLM 292320Z 3000/3024 35005KT P6SM SKC FM300300 33006KT P6SM
                       SKC FM301000 30009KT P6SM FEW250=
202208291722 TAF KCLM 291722Z 2918/3018 36005KT P6SM SKC FM292000 02006KT P6SM
                       SKC FM300100 33006KT P6SM SKC FM300700 30009KT
                       P6SM SKC=
202208291123 TAF KCLM 291123Z 2912/3012 00000KT P6SM VCFG SCT001 SCT250
                      TEMPO 2912/2916 1SM BR BKN001 FM291700 36005KT
                       P6SM SKC FM300100 30006KT P6SM SKC=
202208290520 TAF KCLM 290520Z 2906/3006 29005KT P6SM FEW250 FM291800 01005KT
                       P6SM FEW250 FM300100 30006KT P6SM SKC=
202208282331 TAF KCLM 282331Z 2900/2924 33007KT P6SM SKC FM290200 31006KT P6SM
                       FEW070 SCT250 FM291200 28003KT P6SM SCT250
                       FM291800 02004KT P6SM SKC=
202208281736 TAF KCLM 281736Z 2818/2918 VRB05KT P6SM SCT250 FM290200 31006KT
                       P6SM FEW070 SCT250 FM291200 30003KT P6SM
                       BKN250=
202208281123 TAF KCLM 281123Z 2812/2912 26004KT P6SM BKN070 FM281900 35008KT
                       P6SM BKN070 FM290200 29008KT P6SM FEW070
                       SCT250=
202208280524 TAF KCLM 280524Z 2806/2906 28005KT P6SM SCT090 BKN250
                      TEMPO 2812/2816 BKN020 FM281900 35008KT P6SM
                       BKN070 FM290200 29008KT P6SM SCT250=
202208272332 TAF KCLM 272332Z 2800/2824 VRB05KT P6SM FEW050 FM280200 30008KT
                       P6SM SCT050 BKN070 FM281100 28007KT P6SM
                       BKN045 FM281200 34005KT P6SM OVC025 FM281900
                       35006KT P6SM BKN050=
202208271728 TAF KCLM 271728Z 2718/2818 32006KT P6SM FEW050 FM280200 29008KT
                       P6SM SCT050 BKN060 FM281000 28007KT P6SM
                       BKN045 FM281200 34005KT P6SM OVC025=
202208271125 TAF KCLM 271125Z 2712/2812 24006KT P6SM SCT010
                      TEMPO 2712/2715 BKN010 FM271500 29006KT P6SM
                       BKN015 FM280200 29008KT P6SM SCT050 BKN100=
202208270526 TAF KCLM 270526Z 2706/2806 28008KT P6SM OVC005 FM271800 33008KT
                       P6SM SCT010 OVC030 FM272000 33008KT P6SM
                       SCT030 BKN050 FM280200 29008KT P6SM SCT050
                       BKN100=
202208270340 KCLM 270340Z 2704/2724 31010KT P6SM BKN008 FM270800 27010KT P6SM
                       OVC005 FM271800 33008KT P6SM SCT010 OVC030=
202208262320 TAF KCLM 262320Z 2700/2724 31010KT P6SM SCT040 FM270400 29013G21KT
                       P6SM BKN025 FM270800 27010KT P6SM OVC010
                       FM271800 33008KT P6SM SCT015 OVC030=
202208261720 TAF KCLM 261720Z 2618/2718 30005KT P6SM BKN006 FM261900 28007KT
                       P6SM OVC030 FM262200 31010KT P6SM BKN040
                       FM270400 29013G21KT P6SM OVC005 FM270800
                       27010KT P6SM OVC003=
202208261139 TAF KCLM 261139Z 2612/2712 30010KT P6SM BKN004 FM261700 28007KT
                       P6SM OVC030 FM262200 31010KT P6SM BKN040
                       FM270400 29013G21KT P6SM OVC003=
202208260552 KCLM 260552Z 2606/2706 30012G22KT P6SM BKN004 FM261700 28007KT
                       P6SM OVC030 FM262200 31010KT P6SM BKN040
                       FM270400 29013G21KT P6SM OVC003=
202208260539 TAF KCLM 260539Z 2606/2706 29010G16KT P6SM FEW250 FM260900 30012G22KT
                       P6SM BKN020 FM261500 28007KT P6SM OVC030
                       FM261800 31010KT P6SM BKN040=
202208252320 TAF KCLM 252320Z 2600/2624 29005KT P6SM SKC FM260400 29010G16KT
                       P6SM FEW250 FM260900 30012G22KT P6SM BKN020
                       FM261500 28007KT P6SM OVC030 FM261800 31010KT
                       P6SM BKN040=
202208251733 TAF KCLM 251733Z 2518/2618 32005KT P6SM SKC FM260400 29010G16KT
                       P6SM FEW250 FM260900 30012G22KT P6SM BKN020
                       FM261500 28007KT P6SM OVC030=
202208251136 TAF KCLM 251136Z 2512/2612 00000KT P6SM SKC FM251800 33006KT P6SM
                       SCT250 FM260400 29010G16KT P6SM FEW250 FM260900
                       30012G22KT P6SM BKN020=
202208250528 TAF KCLM 250528Z 2506/2606 29007KT P6SM SKC FM251000 32005KT 1/2SM
                       FG OVC003 FM251800 33006KT P6SM SCT250=
202208242320 TAF KCLM 242320Z 2500/2524 04004KT P6SM SKC FM250100 33005KT P6SM
                       SKC FM250400 29007KT P6SM SKC FM251000 32005KT
                       1/2SM FG OVC003 FM251800 33006KT P6SM SCT250=
202208241720 TAF KCLM 241720Z 2418/2518 04004KT P6SM SKC FM250000 33005KT P6SM
                       SKC FM250400 29007KT P6SM SKC FM250900 32005KT
                       1/2SM FG OVC003=
202208241123 TAF KCLM 241123Z 2412/2512 00000KT P6SM SKC
                      TEMPO 2412/2415 1SM BR OVC001 FM241800 VRB04KT
                       P6SM SKC FM250400 29007KT 1/2SM FG OVC003=
202208240908 KCLM 240908Z 2409/2506 27004KT 1SM BR OVC001 FM241800 VRB04KT P6SM
                       SKC FM250400 29007KT 1/2SM FG OVC003=
202208240541 KCLM 240541Z 2406/2506 29005KT P6SM OVC003 FM241800 VRB04KT P6SM
                       SKC=
202208240540 TAF KCLM 240540Z 2406/2506 31008KT P6SM SKC FM240900 30006KT P6SM
                       BKN003 FM241800 VRB04KT P6SM SKC=
202208232338 TAF KCLM 232338Z 2400/2424 31008KT P6SM SKC FM240900 30006KT P6SM
                       BKN003 FM241800 VRB04KT P6SM SKC=
202208231735 TAF KCLM 231735Z 2318/2418 30005KT P6SM SCT010 FM232300 32008KT
                       P6SM SKC FM240900 30006KT P6SM BKN002 FM241700
                       VRB04KT P6SM SKC=
202208231122 TAF KCLM 231122Z 2312/2412 28009KT 1SM BR OVC002 FM231800 31005KT
                       P6SM BKN009 FM231900 33006KT P6SM SCT010
                       FM232300 32010KT P6SM SKC FM240900 30006KT
                       P6SM BKN002=
202208230539 TAF KCLM 230539Z 2306/2406 30012KT P6SM SCT200 FM230900 29009KT
                       6SM BR BKN007 FM231400 28006KT P6SM SCT250=
202208222320 TAF KCLM 222320Z 2300/2324 34009KT P6SM FEW250 FM230300 30012KT
                       P6SM SCT200 FM230900 29009KT 6SM BR BKN007
                       FM231400 28006KT P6SM SCT250=
202208221722 TAF KCLM 221722Z 2218/2318 35005KT P6SM SCT250 FM222200 34008KT
                       P6SM SCT200 FM230300 31010G16KT P6SM SCT200
                       FM230900 29010KT 6SM BR BKN007=
202208221122 TAF KCLM 221122Z 2212/2312 29005KT P6SM FEW010 BKN200 FM221900
                       34006KT P6SM SCT200 FM230200 31010G16KT
                       P6SM SCT200 FM230900 29006KT 6SM BR BKN007=
202208220533 TAF KCLM 220533Z 2206/2306 29009KT P6SM SCT200 FM221100 29005KT
                       P6SM BKN010 FM221500 30003KT 6SM BR OVC007
                       FM221900 34006KT P6SM SCT015 SCT200 FM230200
                       31010G16KT P6SM SCT200=
202208212333 TAF KCLM 212333Z 2200/2224 29007KT P6SM SCT200 FM221100 29005KT
                       6SM BR BKN020 FM221500 30003KT 4SM BR OVC007
                       FM221900 34006KT P6SM SCT250=
202208211728 TAF KCLM 211728Z 2118/2218 29006KT P6SM BKN008 OVC020 FM212100
                       33005KT P6SM FEW030 SCT200 FM221100 29005KT
                       6SM BR BKN020 FM221500 30003KT 4SM BR OVC007=
202208211353 KCLM 211353Z 2114/2212 29005KT 6SM BR OVC006
                      TEMPO 2114/2116 3SM BR FM211700 33006KT P6SM
                       BKN015 BKN200 FM212000 32007KT P6SM FEW030
                       SCT200 FM220800 29005KT P6SM BKN008=
202208211120 TAF KCLM 211120Z 2112/2212 29005KT P6SM OVC010 FM211700 33006KT
                       P6SM BKN015 BKN200 FM212000 32007KT P6SM
                       FEW030 SCT200 FM220800 29005KT P6SM BKN008=
202208210658 KCLM 210658Z 2107/2206 29005KT P6SM OVC011 FM211700 33006KT P6SM
                       BKN015 BKN200 FM212000 32007KT P6SM FEW030
                       SCT200=
202208210533 TAF KCLM 210533Z 2106/2206 27008KT P6SM SCT020 SCT200 FM210900
                       29004KT P6SM BKN015 FM211400 29005KT P6SM
                       OVC011 FM211700 33006KT P6SM BKN015 BKN200
                       FM212000 32007KT P6SM FEW030 SCT200=
202208210307 KCLM 210307Z 2103/2124 27012G17KT P6SM FEW250 FM210900 29004KT
                       6SM BR BKN005 FM211400 31002KT 3SM BR OVC003
                       FM211700 31004KT 5SM BR OVC010=
202208202323 TAF KCLM 202323Z 2100/2124 32008KT P6SM SCT020 SCT200 FM210900
                       29004KT 6SM BR BKN005 FM211400 31002KT 3SM
                       BR OVC003 FM211700 31004KT 5SM BR OVC010=
202208201839 KCLM 201839Z 2019/2118 35005KT P6SM OVC006
                      TEMPO 2019/2021 6SM BR FM202100 30008KT P6SM
                       SCT020 SCT200 FM210900 29004KT 6SM BR BKN005
                       FM211400 31002KT 3SM BR OVC003=
202208201724 TAF KCLM 201724Z 2018/2118 31006KT 4SM BR OVC004 FM201900 35005KT
                       P6SM BKN012 FM202100 30008KT P6SM SCT020
                       SCT200 FM210900 29004KT 6SM BR BKN005 FM211400
                       31002KT 3SM BR OVC003=
202208201438 KCLM 201438Z 2015/2112 25005KT 2SM BR OVC005 FM201700 31006KT P6SM
                       BKN012 FM202100 30008KT P6SM SCT020 SCT200
                       FM210900 29004KT P6SM BKN007=
202208201121 TAF KCLM 201121Z 2012/2112 25005KT P6SM OVC006 FM201700 31006KT
                       P6SM BKN012 FM202100 30008KT P6SM SCT020
                       SCT200 FM210900 29004KT P6SM BKN007=
202208200522 TAF KCLM 200522Z 2006/2106 28010KT P6SM OVC006 FM201700 31006KT
                       P6SM OVC005 FM201800 31006KT P6SM OVC015
                       FM202000 34006KT P6SM SCT020 SCT200=
202208200438 KCLM 200438Z 2005/2024 28006KT P6SM OVC005 FM201700 31006KT P6SM
                       OVC005 FM201800 31006KT P6SM OVC015=
202208192326 TAF KCLM 192326Z 2000/2024 30010KT P6SM BKN150 FM200600 28005KT
                       P6SM OVC005 FM201700 31006KT P6SM OVC005
                       FM201800 31006KT P6SM OVC015=
202208191721 TAF KCLM 191721Z 1918/2018 30008KT P6SM VCSH BKN050 BKN090 FM200600
                       28005KT P6SM OVC005=
202208191120 TAF KCLM 191120Z 1912/2012 27007KT P6SM OVC120 FM191800 30010KT
                       P6SM VCSH BKN050 BKN090=
202208190520 TAF KCLM 190520Z 1906/2006 VRB04KT P6SM BKN150 FM191000 27007KT
                       P6SM BKN090 FM191800 30010KT P6SM VCSH BKN050
                       BKN090=
202208182327 TAF KCLM 182327Z 1900/1924 30004KT P6SM BKN250 FM190500 28008KT
                       P6SM BKN150 BKN250 FM190900 31004KT P6SM
                       OVC015 FM192100 30005KT P6SM BKN100=
202208181740 TAF KCLM 181740Z 1818/1918 VRB04KT P6SM BKN200 FM190500 28008KT
                       P6SM BKN150 FM191300 31004KT P6SM OVC015=
202208181120 TAF KCLM 181120Z 1812/1912 00000KT P6SM BKN200 FM181800 VRB04KT
                       P6SM BKN200 FM190500 28008KT P6SM BKN150
                       FM191100 28010KT P6SM SCT010 BKN090=
202208180520 TAF KCLM 180520Z 1806/1906 23004KT P6SM SCT200 FM181800 VRB04KT
                       P6SM BKN200 FM190500 28008KT P6SM BKN150=
202208172338 TAF KCLM 172338Z 1800/1824 30006KT P6SM SKC FM180800 VRB03KT P6SM
                       SKC FM181800 08006KT P6SM SKC=
202208171735 TAF KCLM 171735Z 1718/1818 09006KT P6SM SKC FM172300 30006KT P6SM
                       SKC FM180800 VRB03KT P6SM SKC=
202208171120 TAF KCLM 171120Z 1712/1812 00000KT P6SM SKC FM172200 33007KT P6SM
                       SCT150=
202208170521 TAF KCLM 170521Z 1706/1806 28006KT P6SM SKC=
202208162336 TAF KCLM 162336Z 1700/1724 32006KT P6SM SKC=
202208161720 TAF KCLM 161720Z 1618/1718 31005KT P6SM SKC FM162000 32006KT P6SM
                       FEW020 SCT250 FM170100 30009KT P6SM FEW250=
202208161121 TAF KCLM 161121Z 1612/1712 29005KT P6SM SCT005
                      TEMPO 1612/1616 BKN005 FM161700 34005KT P6SM
                       SCT010 FM162000 32006KT P6SM FEW020 SCT250
                       FM170100 30009KT P6SM FEW250=
202208160521 TAF KCLM 160521Z 1606/1706 29009KT P6SM BKN007 FM160800 29008KT
                       P6SM OVC005 FM161700 34005KT P6SM BKN010
                       FM162000 32006KT P6SM SCT020 SCT250 FM170100
                       30009KT P6SM FEW250=
202208152320 TAF KCLM 152320Z 1600/1624 31008KT P6SM SCT250 FM160800 29008KT
                       P6SM BKN009 FM161700 34005KT P6SM BKN015=
202208151729 TAF KCLM 151729Z 1518/1618 34005KT P6SM SCT250 FM160200 29010KT
                       P6SM BKN250 FM160700 29008KT P6SM BKN009
                       FM161700 34005KT P6SM BKN015=
202208151345 KCLM 151345Z 1514/1612 VRB03KT P6SM VCFG SCT003
                      TEMPO 1514/1517 1SM BR BKN003 FM151800 33005KT
                       P6SM SCT250 FM160200 29010KT P6SM BKN250
                       FM161000 28005KT P6SM BKN007 BKN150=
202208151121 TAF KCLM 151121Z 1512/1612 VRB03KT P6SM VCFG SCT003
                      TEMPO 1512/1516 1SM BR BKN003 FM151800 33005KT
                       P6SM SCT250 FM160200 29010KT P6SM BKN250
                       FM161000 28005KT P6SM BKN007 BKN150=
202208150520 TAF KCLM 150520Z 1506/1606 29009KT P6SM BKN250 FM151200 VRB03KT
                       P6SM VCFG SCT003
                      TEMPO 1512/1516 1SM BR BKN003 FM151800 33005KT
                       P6SM SCT250 FM160200 29010KT P6SM BKN250=
202208142320 TAF KCLM 142320Z 1500/1524 31006KT P6SM FEW090 FM150300 29007KT
                       P6SM SCT250 FM151200 VRB03KT P6SM VCFG SCT003
                       TEMPO 1512/1516 1SM BR BKN003 FM151800 33005KT
                       P6SM FEW250=
202208141720 TAF KCLM 141720Z 1418/1518 35007KT P6SM FEW050 SCT250 FM150200
                       29007KT P6SM SCT250 FM151200 VRB03KT P6SM
                       VCFG SCT003
                      TEMPO 1512/1516 1SM BR BKN003=
202208141128 TAF KCLM 141128Z 1412/1512 VRB04KT P6SM SCT250 FM141400 VRB03KT
                       P6SM VCFG FEW004 SCT150
                      TEMPO 1414/1417 2SM BR BKN004 FM141900 35006KT
                       P6SM FEW050 FM150200 29009KT P6SM SCT250
                       FM151100 VRB03KT P6SM BKN015=
202208140520 TAF KCLM 140520Z 1406/1506 25004KT P6SM SCT060 FM141400 27004KT
                       P6SM VCFG FEW004 SCT150
                      TEMPO 1414/1417 2SM BR BKN004 FM141900 35006KT
                       P6SM FEW050 FM150200 29009KT P6SM SCT250=
202208140207 KCLM 140207Z 1402/1424 30005KT P6SM OVC060 FM141400 27004KT P6SM
                       VCFG FEW004 SCT150
                      TEMPO 1414/1417 2SM BR BKN004 FM141900 35006KT
                       P6SM FEW050=
202208132320 TAF KCLM 132320Z 1400/1424 36006KT P6SM FEW070 FM140300 29007KT
                       P6SM BKN050 FM141400 27004KT P6SM VCFG FEW004
                       SCT150
                      TEMPO 1414/1417 2SM BR BKN004 FM141900 35006KT
                       P6SM FEW050=
202208131723 TAF KCLM 131723Z 1318/1418 35005KT P6SM BKN060 FM140000 30006KT
                       P6SM SCT050 BKN250 FM141400 27004KT P6SM
                       VCFG FEW004 SCT150
                      TEMPO 1414/1417 2SM BR BKN004=
202208131331 KCLM 131331Z 1314/1412 VRB03KT P6SM OVC060 FM131900 02005KT P6SM
                       SCT025 BKN050 FM140000 32006KT P6SM BKN050
                       FM140300 29005KT P6SM BKN250=
202208131135 TAF KCLM 131135Z 1312/1412 VRB03KT P6SM BKN025 OVC060 FM131900
                       02005KT P6SM SCT025 BKN050 FM140000 32006KT
                       P6SM BKN050 FM140300 29005KT P6SM BKN250=
202208130535 TAF KCLM 130535Z 1306/1406 26009KT P6SM SCT020 OVC025 FM131000
                       VRB03KT P6SM BKN020 OVC050 FM131900 34006KT
                       P6SM SCT025 BKN050 FM140000 32006KT P6SM
                       BKN050=
202208130303 KCLM 130303Z 1303/1324 28010KT P6SM SCT020 BKN025 FM131300 VRB03KT
                       P6SM BKN020 OVC050 FM131900 34006KT P6SM
                       SCT025 BKN050=
202208122321 TAF KCLM 122321Z 1300/1324 29010KT P6SM FEW050 SCT120 FM130900
                       28005KT P6SM BKN050 BKN100 FM131300 VRB03KT
                       P6SM BKN020 OVC050 FM131900 34006KT P6SM
                       SCT025 BKN050=
202208121727 TAF KCLM 121727Z 1218/1318 35006KT P6SM FEW050 SCT120 FM130000
                       29010KT P6SM SCT050 FM130800 28005KT P6SM
                       SCT050 BKN100 FM131300 VRB03KT P6SM BKN020
                       OVC050=
202208121120 TAF KCLM 121120Z 1212/1312 26006KT P6SM FEW050 FM121400 29005KT
                       P6SM FEW005 BKN150
                      TEMPO 1214/1217 OVC005 FM121900 33006KT P6SM
                       FEW050 SCT150 FM130000 29010KT P6SM SCT050
                       FM130600 26004KT P6SM OVC050=
202208120520 TAF KCLM 120520Z 1206/1306 29006KT P6SM FEW050 FM121400 29005KT
                       P6SM FEW005 BKN150
                      TEMPO 1214/1217 OVC005 FM121900 33006KT P6SM
                       FEW050 SCT150 FM130000 29010KT P6SM SCT050=
202208112320 TAF KCLM 112320Z 1200/1224 29006KT P6SM FEW050 FM121400 29005KT
                       P6SM FEW005 BKN150 FM121900 33006KT P6SM
                       FEW050 SCT150=
202208111723 TAF KCLM 111723Z 1118/1218 34006KT P6SM FEW040 FM120200 29006KT
                       P6SM FEW040 FM121400 29005KT P6SM FEW005
                       BKN120=
202208111530 KCLM 111530Z 1116/1212 00000KT P6SM BKN040 FM111900 34006KT P6SM
                       FEW040 SCT250 FM120200 29006KT P6SM SCT250=
202208111120 TAF KCLM 111120Z 1112/1212 26005KT P6SM OVC020
                      TEMPO 1112/1116 OVC005 FM111900 34006KT P6SM
                       SCT250 FM120200 29006KT P6SM SCT250=
202208110520 TAF KCLM 110520Z 1106/1206 26005KT P6SM OVC019 FM111200 25005KT
                       P6SM OVC005 FM111900 34006KT P6SM SCT250
                       FM120200 29006KT P6SM SCT250=
202208102324 TAF KCLM 102324Z 1100/1124 30009KT P6SM OVC035 FM110200 28009KT
                       P6SM OVC030 FM110800 26005KT P6SM OVC019
                       FM111200 25005KT P6SM OVC008 FM111900 33006KT
                       P6SM SCT250=
202208101727 TAF KCLM 101727Z 1018/1118 31006KT P6SM VCSH OVC025 FM102200 30010KT
                       P6SM OVC035 FM110200 28010KT P6SM OVC030
                       FM110800 26004KT P6SM OVC019=
202208101120 TAF KCLM 101120Z 1012/1112 30005KT 6SM BR OVC005
                      TEMPO 1012/1016 2SM BR OVC003 FM101800 31006KT
                       6SM BR OVC015 FM110100 28010KT P6SM OVC030
                       FM110600 26004KT P6SM SCT030 BKN250=
202208101057 KCLM 101057Z 1011/1106 30005KT 6SM BR OVC005
                      TEMPO 1012/1016 2SM BR OVC003 FM101800 31006KT
                       6SM BR OVC015 FM110100 28010KT P6SM OVC030=
202208100524 TAF KCLM 100524Z 1006/1106 VRB03KT P6SM OVC250 FM101100 30005KT
                       6SM BR OVC010
                      TEMPO 1012/1016 2SM BR OVC007 FM101800 31006KT
                       6SM BR OVC015 FM110100 28010KT P6SM OVC030=
202208092326 TAF KCLM 092326Z 1000/1024 35005KT P6SM BKN250 FM100300 30008KT
                       P6SM OVC250 FM101100 30005KT 6SM BR OVC010
                       FM101800 29006KT 6SM BR OVC015=
202208091731 TAF KCLM 091731Z 0918/1018 33006KT P6SM SCT005 BKN150 FM092100
                       35005KT P6SM BKN250 FM100200 28005KT P6SM
                       OVC250 FM101000 30005KT 6SM BR OVC005=
202208091503 KCLM 091503Z 0915/1012 29003KT P6SM OVC005
                      TEMPO 0915/0916 1/2SM FG VV002 FM091800 33006KT
                       P6SM OVC250 FM100200 28005KT P6SM OVC250
                       FM100800 30005KT 4SM BR OVC005=
202208091120 TAF KCLM 091120Z 0912/1012 29003KT P6SM OVC005
                      TEMPO 0912/0916 1/2SM FG OVC002 FM091800
                       33006KT P6SM OVC250 FM100200 28005KT P6SM
                       OVC250 FM100800 30005KT 4SM BR OVC005=
202208090907 KCLM 090907Z 0909/1006 29003KT P6SM OVC005 FM091800 33006KT P6SM
                       OVC250 FM100200 28005KT P6SM OVC250=
202208090523 TAF KCLM 090523Z 0906/1006 30007KT P6SM SKC FM091300 29003KT P6SM
                       OVC015 FM091800 33006KT P6SM OVC250 FM100200
                       28005KT P6SM OVC250=
202208082320 TAF KCLM 082320Z 0900/0924 31005KT P6SM FEW250 FM090500 30007KT
                       P6SM SKC FM091300 29003KT P6SM OVC015=
202208081724 TAF KCLM 081724Z 0818/0918 05005KT P6SM SKC FM090000 31007KT P6SM
                       SKC FM090500 30010KT P6SM SKC FM091400 29004KT
                       P6SM OVC015=
202208081135 TAF KCLM 081135Z 0812/0912 VRB03KT P6SM SKC FM081500 05004KT P6SM
                       SKC FM090000 31005KT P6SM SKC=
202208080526 TAF KCLM 080526Z 0806/0906 VRB03KT P6SM SKC FM081500 05004KT P6SM
                       SKC FM082100 33006KT P6SM SKC=
202208072320 TAF KCLM 072320Z 0800/0824 08006KT P6SM SKC FM080300 29004KT P6SM
                       SKC FM081500 05004KT P6SM SKC=
202208071720 TAF KCLM 071720Z 0718/0818 10004KT P6SM SKC FM080300 29004KT P6SM
                       SKC=
202208071120 TAF KCLM 071120Z 0712/0812 25005KT P6SM SKC FM071700 08005KT P6SM
                       SKC FM080300 29004KT P6SM SKC=
202208070535 TAF KCLM 070535Z 0706/0806 25005KT P6SM SKC FM071700 08005KT P6SM
                       SKC FM080300 29004KT P6SM SKC=
202208062320 TAF KCLM 062320Z 0700/0724 11007KT P6SM SKC FM070100 30004KT P6SM
                       SKC FM070600 28005KT P6SM SKC FM071700 08005KT
                       P6SM SKC=
202208061720 TAF KCLM 061720Z 0618/0718 10009KT P6SM SKC FM062100 07005KT P6SM
                       SKC FM070100 30004KT P6SM SKC FM070600 28005KT
                       P6SM SKC=
202208061121 TAF KCLM 061121Z 0612/0712 22007KT P6SM SKC FM061700 07007KT P6SM
                       SKC FM070100 30004KT P6SM SKC=
202208060536 TAF KCLM 060536Z 0606/0706 26006KT P6SM SKC FM061600 08004KT P6SM
                       SKC FM070200 31005KT P6SM SKC=
202208060256 KCLM 060256Z 0603/0624 29006KT P6SM SKC FM060900 28004KT P6SM SKC
                       FM061800 07006KT P6SM SKC=
202208052322 TAF KCLM 052322Z 0600/0624 09006KT P6SM SKC FM060500 29008KT P6SM
                       SKC FM061500 18003KT P6SM SKC=
202208051723 TAF KCLM 051723Z 0518/0618 VRB04KT P6SM BKN025 FM052100 05006KT
                       P6SM SKC FM060500 29008KT P6SM SKC FM061500
                       18003KT P6SM SKC=
202208051132 TAF KCLM 051132Z 0512/0612 29008KT P6SM SKC=
202208050527 TAF KCLM 050527Z 0506/0606 29008KT P6SM SKC=
202208042325 TAF KCLM 042325Z 0500/0524 31013G21KT P6SM SCT050 FM050500 29008KT
                       P6SM SCT050=
202208041735 TAF KCLM 041735Z 0418/0518 29006KT P6SM SCT015 BKN060 FM042000
                       28008KT P6SM BKN060 FM050000 28008KT P6SM
                       SCT050=
202208041403 KCLM 041403Z 0414/0512 28008KT P6SM SCT015 BKN060
                      TEMPO 0415/0418 BKN015 OVC060 FM042000 28008KT
                       P6SM BKN060 FM050000 28008KT P6SM SCT050=
202208041132 TAF KCLM 041132Z 0412/0512 26006KT P6SM OVC003 FM041600 26006KT
                       P6SM SCT004 BKN008 OVC015 FM041800 28008KT
                       P6SM SCT015 BKN025 OVC040 FM042000 28008KT
                       P6SM BKN045 FM050000 28008KT P6SM SCT050=
202208040539 TAF KCLM 040539Z 0406/0506 26006KT P6SM -RA OVC030 FM040900 26006KT
                       P6SM BKN015 OVC025 FM041600 28008KT P6SM
                       SCT015 BKN025 OVC040 FM041900 28008KT P6SM
                       BKN045 FM050000 28008KT P6SM SCT050=
202208040258 KCLM 040258Z 0403/0424 31006KT P6SM FEW040 BKN100 FM040600 28007KT
                       P6SM -SHRA BKN007 OVC015 FM041100 27005KT
                       P6SM OVC025=
202208032327 TAF KCLM 032327Z 0400/0424 31014G20KT P6SM VCSH BKN035 FM040400
                       28010KT P6SM -RA OVC040 FM040600 28007KT
                       P6SM VCSH OVC007 FM041100 27005KT P6SM OVC025=
202208031732 TAF KCLM 031732Z 0318/0418 34005KT P6SM SCT015 BKN070 FM032100
                       31011G17KT P6SM VCSH OVC060 FM040000 31010G20KT
                       P6SM VCSH OVC050 FM040600 28010KT P6SM BKN015
                       OVC025=
202208031325 KCLM 031325Z 0313/0412 28006KT P6SM OVC007 FM031700 34005KT P6SM
                       SCT015 BKN070 FM032100 31008KT P6SM VCSH
                       OVC060 FM040000 31010G20KT P6SM VCSH OVC050
                       FM040600 28010KT P6SM BKN015 OVC030=
202208031150 TAF KCLM 031150Z 0312/0412 26007KT P6SM OVC005 FM031700 34005KT
                       P6SM SCT015 BKN070 FM032100 31008KT P6SM
                       VCSH OVC060 FM040000 31010G20KT P6SM VCSH
                       OVC050 FM040600 28010KT P6SM BKN015 OVC030=
202208030840 KCLM 030840Z 0309/0406 29008KT P6SM OVC005 FM031700 34005KT P6SM
                       SCT015 BKN070 FM032100 31008KT P6SM VCSH
                       OVC060 FM040000 31010G20KT P6SM VCSH OVC050=
202208030554 TAF KCLM 030554Z 0306/0406 29008KT P6SM SKC FM031100 28006KT P6SM
                       BKN010
                      TEMPO 0312/0315 OVC007 FM031700 34005KT P6SM
                       SCT015 BKN070 FM032100 31008KT P6SM VCSH
                       OVC060 FM040000 31010G20KT P6SM VCSH OVC050=
202208022321 TAF KCLM 022321Z 0300/0324 33008KT P6SM SKC FM031100 28006KT P6SM
                       BKN007 FM031900 33008KT P6SM FEW050=
202208021720 TAF KCLM 021720Z 0218/0318 33006KT P6SM BKN020 FM021900 32008KT
                       P6SM FEW020 FM022100 30008KT P6SM SKC FM031100
                       28006KT P6SM BKN007=
202208021150 TAF KCLM 021150Z 0212/0312 28009KT P6SM OVC007
                      TEMPO 0212/0213 OVC005 FM021600 29007KT P6SM
                       BKN010 FM021800 33006KT P6SM SCT020 FM022100
                       30008KT P6SM SKC=
202208021056 KCLM 021056Z 0211/0306 28006KT P6SM OVC007
                      TEMPO 0211/0213 OVC005 FM021600 29007KT P6SM
                       BKN008 FM021800 33006KT P6SM SKC FM022100
                       30008KT P6SM SKC=
202208020803 KCLM 020803Z 0208/0306 28006KT P6SM OVC005 FM021600 29007KT P6SM
                       BKN008 FM021800 33006KT P6SM SKC FM022100
                       30008KT P6SM SKC=
202208020550 TAF KCLM 020550Z 0206/0306 29012KT P6SM OVC006 FM021200 29010KT
                       P6SM OVC005 FM021600 29007KT P6SM BKN008
                       FM021800 33006KT P6SM SKC FM022100 30008KT
                       P6SM SKC=
202208020438 KCLM 020438Z 0205/0224 28009KT P6SM BKN006 FM021200 29004KT P6SM
                       OVC005 FM021800 33006KT P6SM BKN050=
202208012320 TAF KCLM 012320Z 0200/0224 31010KT P6SM SCT250 FM020500 29012KT
                       P6SM BKN250 FM021200 29004KT P6SM OVC020
                       FM021800 33006KT P6SM BKN050=
202208011728 TAF KCLM 011728Z 0118/0218 29006KT P6SM SCT150 FM012100 31014G20KT
                       P6SM SCT150 FM020900 29008KT P6SM OVC008
                       FM021400 29004KT P6SM BKN015=
202208011137 TAF KCLM 011137Z 0112/0212 VRB03KT P6SM OVC003
                      TEMPO 0112/0115 3SM BR FM011600 VRB03KT P6SM
                       BKN005 FM011700 29006KT P6SM SCT150 FM020200
                       29012KT P6SM SCT150 FM020900 29008KT P6SM
                       OVC008=
202208010539 TAF KCLM 010539Z 0106/0206 29006KT P6SM SKC FM010800 29006KT P6SM
                       BKN004 FM011100 VRB03KT 2SM BR OVC002 FM011400
                       VRB03KT P6SM OVC004 FM011600 29006KT P6SM
                       SCT150 FM020200 29012KT P6SM SCT150=