##########################################################
# Query made at 02/16/2025 05:57:28 UTC
# Time interval: from 08/01/2023 00:00  to 08/31/2023 23:59  UTC
##########################################################

##########################################################
# KCLM, Port Angeles, William R. Fairchild International Airport (United States)
# WMO index: -----. WIGOS ID: Unknown
# Latitude 48-07-20N. Longitude 123-30-19W. Altitude 87 m.
##########################################################

###################################
#  METAR/SPECI from KCLM
###################################
202308312353 METAR KCLM 312353Z AUTO VRB03KT 10SM BKN110 19/13 A2988 RMK AO2 SLP117 T01940128 10206 20156 56008=
202308312253 METAR KCLM 312253Z AUTO 08004KT 10SM OVC060 19/13 A2989 RMK AO2 SLP120 T01890128=
202308312153 METAR KCLM 312153Z AUTO 10SM FEW015 SCT021 BKN047 19/14 A2989 RMK AO2 SLP120 T01940139=
202308312136 SPECI KCLM 312136Z AUTO VRB05KT 10SM FEW014 SCT020 OVC047 19/13 A2990 RMK AO2 T01890133=
202308312053 METAR KCLM 312053Z AUTO 12003KT 10SM OVC012 18/14 A2990 RMK AO2 SLP126 T01780139 56007=
202308312051 SPECI KCLM 312051Z AUTO 14005KT 10SM OVC012 18/14 A2991 RMK AO2=
202308312032 SPECI KCLM 312032Z AUTO 15005KT 10SM BKN009 OVC014 17/14 A2991 RMK AO2 CIG 009V013 T01720139=
202308311953 METAR KCLM 311953Z AUTO 13005KT 10SM OVC012 17/13 A2992 RMK AO2 SLP130 T01670133=
202308311853 METAR KCLM 311853Z AUTO 12005KT 10SM OVC014 16/13 A2993 RMK AO2 SLP133 T01610133=
202308311848 SPECI KCLM 311848Z AUTO 10004KT 10SM OVC014 16/13 A2993 RMK AO2=
202308311818 SPECI KCLM 311818Z AUTO 09004KT 10SM SCT008 OVC015 16/13 A2993 RMK AO2 T01610133=
202308311753 METAR KCLM 311753Z AUTO 08004KT 10SM OVC007 16/13 A2993 RMK AO2 CIG 004V009 SLP135 60007 T01560133 10161 20139 53002=
202308311729 SPECI KCLM 311729Z AUTO 08003KT 10SM OVC006 16/14 A2993 RMK AO2 CIG 003V009 T01560139=
202308311653 METAR KCLM 311653Z AUTO 00000KT 10SM OVC004 16/13 A2993 RMK AO2 RAE05 CIG 002V007 SLP133 P0000 T01560133=
202308311618 SPECI KCLM 311618Z AUTO 00000KT 8SM BKN003 OVC020 15/13 A2993 RMK AO2 RAE05 P0000 T01500133=
202308311553 METAR KCLM 311553Z AUTO 00000KT 6SM -RA BR SCT009 OVC019 15/13 A2993 RMK AO2 SLP134 P0005 T01500133=
202308311549 SPECI KCLM 311549Z AUTO 00000KT 6SM -RA BR FEW004 BKN009 OVC019 15/13 A2993 RMK AO2 P0005=
202308311541 SPECI KCLM 311541Z AUTO 00000KT 3SM -RA BR BKN004 OVC012 14/13 A2992 RMK AO2 P0004 T01440128=
202308311528 SPECI KCLM 311528Z AUTO 03003KT 1SM -RA BR OVC004 14/13 A2992 RMK AO2 P0003 T01440128=
202308311512 SPECI KCLM 311512Z AUTO 00000KT 2 1/2SM -RA BR BKN004 OVC013 14/13 A2992 RMK AO2 P0001 T01440133=
202308311504 SPECI KCLM 311504Z AUTO 00000KT 1 3/4SM -RA BR BKN004 BKN013 OVC018 14/13 A2992 RMK AO2 P0001 T01440128=
202308311453 METAR KCLM 311453Z AUTO 00000KT 3/4SM -RA BR VV003 14/13 A2992 RMK AO2 RAB10 SLP131 P0002 60002 T01440128 55003=
202308311432 SPECI KCLM 311432Z AUTO 00000KT 3/4SM -RA BR OVC002 14/13 A2992 RMK AO2 RAB10 P0001 T01440133=
202308311424 SPECI KCLM 311424Z AUTO 00000KT 2SM -RA BR OVC003 15/13 A2992 RMK AO2 RAB10 P0001 T01500133=
202308311414 SPECI KCLM 311414Z AUTO 00000KT 1 1/2SM -RA BR OVC004 15/13 A2992 RMK AO2 RAB10 P0000 T01500133=
202308311353 METAR KCLM 311353Z AUTO 00000KT 1/2SM FG BKN004 OVC013 15/13 A2992 RMK AO2 SLP131 T01500133=
202308311343 SPECI KCLM 311343Z AUTO 00000KT 1 3/4SM BR BKN002 OVC012 15/13 A2992 RMK AO2 T01500133=
202308311319 SPECI KCLM 311319Z AUTO 00000KT 6SM BR BKN002 BKN016 OVC029 15/13 A2992 RMK AO2 T01500133=
202308311310 SPECI KCLM 311310Z AUTO 00000KT 7SM SCT003 BKN016 OVC029 15/13 A2992 RMK AO2 T01500133=
202308311253 METAR KCLM 311253Z AUTO 00000KT 7SM OVC028 15/13 A2992 RMK AO2 SLP131 T01500133=
202308311223 SPECI KCLM 311223Z AUTO 00000KT 5SM BR FEW009 BKN032 OVC080 15/13 A2992 RMK AO2 T01500133=
202308311153 METAR KCLM 311153Z AUTO 00000KT 10SM SCT024 OVC032 16/14 A2993 RMK AO2 SLP134 60000 7//// T01560139 10167 20156 56010=
202308311053 METAR KCLM 311053Z AUTO 00000KT 10SM OVC024 16/14 A2994 RMK AO2 SLP137 T01560139=
202308311016 SPECI KCLM 311016Z AUTO 11003KT 10SM FEW004 OVC025 16/14 A2995 RMK AO2 T01610139=
202308310953 METAR KCLM 310953Z AUTO 00000KT 8SM OVC026 16/14 A2996 RMK AO2 SLP144 T01560139=
202308310853 METAR KCLM 310853Z AUTO 00000KT 9SM OVC025 16/14 A2998 RMK AO2 SLP151 60000 T01560139 56012=
202308310833 SPECI KCLM 310833Z AUTO 00000KT 10SM BKN024 OVC055 16/14 A2998 RMK AO2 T01610139=
202308310822 SPECI KCLM 310822Z AUTO 00000KT 10SM FEW024 BKN055 OVC080 16/14 A2998 RMK AO2 T01610144=
202308310753 METAR KCLM 310753Z AUTO 00000KT 10SM BKN024 OVC075 16/14 A2999 RMK AO2 RAE12 SLP155 P0000 T01610139 402170139=
202308310710 SPECI KCLM 310710Z AUTO 23004KT 10SM -RA BKN021 OVC090 16/14 A3000 RMK AO2 P0000 T01610144=
202308310653 METAR KCLM 310653Z AUTO 23004KT 10SM -RA FEW021 OVC090 16/14 A3000 RMK AO2 RAB52 SLP158 P0000 T01610144=
202308310645 SPECI KCLM 310645Z AUTO 23003KT 10SM SCT021 OVC090 16/14 A3000 RMK AO2 T01610139=
202308310553 METAR KCLM 310553Z AUTO 24004KT 10SM OVC019 16/14 A3001 RMK AO2 RAE44 SLP163 P0001 60005 T01610139 10206 20161 56017=
202308310511 SPECI KCLM 310511Z AUTO 26003KT 10SM -RA BKN018 OVC100 16/14 A3002 RMK AO2 P0000 T01610139=
202308310453 METAR KCLM 310453Z AUTO 00000KT 10SM -RA FEW019 OVC095 16/14 A3002 RMK AO2 SLP165 P0004 T01610139=
202308310353 METAR KCLM 310353Z AUTO 26005KT 10SM -RA FEW025 OVC033 17/14 A3005 RMK AO2 RAB37 SLP177 P0000 T01720139=
202308310253 METAR KCLM 310253Z AUTO 26007KT 10SM OVC024 18/13 A3006 RMK AO2 SLP180 T01780133 58007=
202308310153 METAR KCLM 310153Z AUTO 27008KT 10SM OVC027 18/13 A3008 RMK AO2 SLP184 T01830133=
202308310053 METAR KCLM 310053Z AUTO 28009KT 10SM BKN026 OVC039 19/13 A3008 RMK AO2 SLP187 T01890133=
202308310017 SPECI KCLM 310017Z AUTO 30007KT 10SM BKN026 BKN033 OVC041 20/13 A3009 RMK AO2 T02000128=
202308302353 METAR KCLM 302353Z AUTO 30007KT 10SM SCT027 BKN034 OVC044 21/13 A3009 RMK AO2 SLP187 6//// T02060133 10217 20194 58010=
202308302322 SPECI KCLM 302322Z AUTO 29007KT 10SM BKN027 OVC044 20/13 A3010 RMK AO2 T02000133=
202308302253 METAR KCLM 302253Z AUTO 34004KT 10SM OVC043 20/13 A3010 RMK AO2 SLP192 T02000133=
202308302153 METAR KCLM 302153Z AUTO 29007KT 10SM BKN047 OVC060 19/13 A3011 RMK AO2 SLP197 T01940133=
202308302053 METAR KCLM 302053Z AUTO 31009KT 270V360 10SM BKN060 21/14 A3012 RMK AO2 SLP197 6//// T02060139 58000=
202308301953 METAR KCLM 301953Z AUTO 31007KT 10SM BKN060 21/14 A3012 RMK AO2 SLP198 T02060139=
202308301853 METAR KCLM 301853Z AUTO 31011G17KT 10SM CLR 21/14 A3012 RMK AO2 SLP198 T02110139=
202308301753 METAR KCLM 301753Z AUTO 30010KT 10SM OVC055 21/13 A3012 RMK AO2 SLP197 6//// T02060133 10206 20139 58002 PWINO PNO $=
202308301653 METAR KCLM 301653Z AUTO 31007KT 10SM BKN055 19/14 A3013 RMK AO2 SLP201 T01940139 PWINO $=
202308301617 SPECI KCLM 301617Z AUTO 30007KT 10SM SCT009 OVC055 17/13 A3013 RMK AO2 T01670133 $=
202308301609 SPECI KCLM 301609Z AUTO 28007KT 10SM BKN010 OVC050 17/13 A3013 RMK AO2 CIG 008V011 T01670133=
202308301553 METAR KCLM 301553Z AUTO 31005KT 10SM SCT009 OVC050 17/13 A3013 RMK AO2 SLP203 T01670128=
202308301542 SPECI KCLM 301542Z AUTO 30005KT 10SM FEW009 OVC050 17/13 A3013 RMK AO2 T01720133=
202308301453 METAR KCLM 301453Z AUTO 26004KT 10SM OVC047 16/11 A3012 RMK AO2 SLP201 T01610111 53004=
202308301353 METAR KCLM 301353Z AUTO 23005KT 10SM OVC046 14/11 A3012 RMK AO2 SLP199 T01440111=
202308301306 SPECI KCLM 301306Z AUTO 25006KT 10SM SCT010 BKN043 14/11 A3011 RMK AO2 T01390106=
202308301253 METAR KCLM 301253Z AUTO 23006KT 10SM BKN010 BKN042 OVC050 14/11 A3011 RMK AO2 SLP195 T01440111=
202308301229 SPECI KCLM 301229Z AUTO 27005KT 10SM BKN012 OVC048 15/13 A3011 RMK AO2 T01500128=
202308301153 METAR KCLM 301153Z AUTO 28005KT 10SM FEW012 OVC048 15/12 A3011 RMK AO2 SLP195 70001 T01500122 10156 20139 56002=
202308301053 METAR KCLM 301053Z AUTO 27008KT 10SM SCT006 15/13 A3011 RMK AO2 SLP196 T01500128=
202308300953 METAR KCLM 300953Z AUTO 24008KT 10SM OVC007 15/13 A3011 RMK AO2 CIG 003V010 SLP196 T01500133=
202308300946 SPECI KCLM 300946Z AUTO 24007KT 10SM BKN005 OVC010 15/13 A3012 RMK AO2 CIG 003V008 T01500133=
202308300926 SPECI KCLM 300926Z AUTO 25006KT 10SM OVC003 15/13 A3011 RMK AO2 CIG 003V006 T01500133=
202308300907 SPECI KCLM 300907Z AUTO 25010KT 9SM OVC005 14/13 A3012 RMK AO2 CIG 003V007 T01440128=
202308300853 METAR KCLM 300853Z AUTO 21004KT 10SM OVC003 14/13 A3012 RMK AO2 CIG 003V007 SLP199 T01440128 53002=
202308300825 SPECI KCLM 300825Z AUTO 27005KT 10SM BKN003 14/13 A3011 RMK AO2 T01440128=
202308300805 SPECI KCLM 300805Z AUTO 29006KT 10SM FEW002 14/13 A3011 RMK AO2 T01440128=
202308300753 METAR KCLM 300753Z AUTO 28005KT 10SM CLR 14/13 A3011 RMK AO2 SLP195 T01440128 402170139=
202308300653 METAR KCLM 300653Z AUTO 31003KT 10SM CLR 14/12 A3011 RMK AO2 SLP194 T01390122=
202308300553 METAR KCLM 300553Z AUTO 29007KT 10SM CLR 16/13 A3011 RMK AO2 SLP196 T01560128 10206 20156 50002=
202308300453 METAR KCLM 300453Z AUTO 26007KT 10SM CLR 16/13 A3012 RMK AO2 SLP198 T01610133=
202308300353 METAR KCLM 300353Z AUTO 25006KT 10SM CLR 17/13 A3012 RMK AO2 SLP199 T01670133=
202308300253 METAR KCLM 300253Z AUTO 25007KT 10SM CLR 18/13 A3010 RMK AO2 SLP194 T01780128 58000=
202308300153 METAR KCLM 300153Z AUTO 28007KT 10SM CLR 19/13 A3010 RMK AO2 SLP193 T01940128=
202308300053 METAR KCLM 300053Z AUTO 30008KT 10SM CLR 21/12 A3011 RMK AO2 SLP196 T02060122=
202308292353 METAR KCLM 292353Z AUTO 30013G18KT 10SM CLR 21/13 A3011 RMK AO2 SLP194 T02060128 10217 20183 53002=
202308292253 METAR KCLM 292253Z AUTO 30009G21KT 10SM CLR 21/13 A3010 RMK AO2 LTG DSNT E SLP191 T02060128=
202308292153 METAR KCLM 292153Z AUTO 27012G19KT 10SM CLR 21/13 A3010 RMK AO2 LTG DSNT NE-SE SLP191 T02110128=
202308292053 METAR KCLM 292053Z AUTO 30011G22KT 10SM SCT110 20/13 A3010 RMK AO2 LTG DSNT E SLP191 T02000128 53002=
202308291953 METAR KCLM 291953Z AUTO 29014G24KT 10SM CLR 19/12 A3009 RMK AO2 LTG DSNT NE AND E SLP191 T01940122=
202308291853 METAR KCLM 291853Z AUTO 29008G18KT 10SM CLR 18/13 A3009 RMK AO2 LTG DSNT NE AND E SLP188 T01830128=
202308291753 METAR KCLM 291753Z AUTO 29010KT 10SM CLR 19/13 A3009 RMK AO2 SLP191 60001 T01890128 10194 20144 51008=
202308291653 METAR KCLM 291653Z AUTO 29007KT 10SM CLR 18/12 A3008 RMK AO2 SLP187 T01780122=
202308291553 METAR KCLM 291553Z AUTO 30005KT 10SM FEW038 17/13 A3009 RMK AO2 SLP188 T01720128=
202308291453 METAR KCLM 291453Z AUTO 26008KT 10SM FEW040 16/12 A3007 RMK AO2 SLP183 60001 T01610122 52000=
202308291353 METAR KCLM 291353Z AUTO 26007KT 10SM CLR 16/12 A3007 RMK AO2 RAE06 SLP184 P0000 T01610117=
202308291253 METAR KCLM 291253Z AUTO 28008KT 10SM -RA SCT037 BKN055 OVC120 16/12 A3007 RMK AO2 LTG DSNT SE SLP181 P0001 T01560122=
202308291153 METAR KCLM 291153Z AUTO 30003KT 10SM -RA FEW065 FEW085 BKN110 15/13 A3007 RMK AO2 SLP182 P0001 60004 70005 T01500128 10167 20139 55008=
202308291053 METAR KCLM 291053Z AUTO 28006KT 10SM -RA SCT070 BKN100 BKN110 16/12 A3006 RMK AO2 LTG DSNT NE AND S RAB25 TSB22E43 SLP179 P0002 T01560122=
202308291046 SPECI KCLM 291046Z AUTO 16006KT 10SM -RA FEW060 BKN070 OVC120 15/12 A3008 RMK AO2 LTG DSNT N AND NE AND S RAB25 TSB22E43 P0002 T01500122=
202308291028 SPECI KCLM 291028Z AUTO 26007KT 8SM -TSRA FEW060 SCT075 BKN100 16/12 A3008 RMK AO2 LTG DSNT NE AND S RAB25 TSB22 P0001 T01610117=
202308291012 SPECI KCLM 291012Z AUTO VRB03KT 10SM FEW110 16/12 A3008 RMK AO2 LTG DSNT ALQDS T01610117=
202308290953 METAR KCLM 290953Z AUTO 23005KT 10SM VCTS FEW065 FEW095 15/12 A3008 RMK AO2 LTG DSNT ALQDS RAB29E45 TSB35E53 SLP187 P0001 T01500117=
202308290941 SPECI KCLM 290941Z AUTO 26004G14KT 10SM -TSRA SCT070 BKN095 BKN120 16/12 A3007 RMK AO2 LTG DSNT ALQDS RAB29 TSB35 P0001 T01560117=
202308290923 SPECI KCLM 290923Z AUTO VRB03KT 10SM VCTS SCT070 17/11 A3012 RMK AO2 LTG DSNT ALQDS T01670111=
202308290853 METAR KCLM 290853Z AUTO 25004KT 10SM CLR 16/11 A3009 RMK AO2 LTG DSNT E SLP190 T01560106 55001=
202308290808 SPECI KCLM 290808Z AUTO 23004KT 10SM CLR 15/13 A3009 RMK AO2 LTG DSNT N T01500128=
202308290753 METAR KCLM 290753Z AUTO 00000KT 10SM VCTS CLR 15/12 A3009 RMK AO2 SLP190 T01500122 401940139=
202308290748 SPECI KCLM 290748Z AUTO 21005KT 9SM VCTS CLR 14/12 A3009 RMK AO2=
202308290653 METAR KCLM 290653Z AUTO 00000KT 10SM CLR 14/12 A3010 RMK AO2 SLP191 T01440117=
202308290632 SPECI KCLM 290632Z AUTO 00000KT 10SM FEW028 16/12 A3010 RMK AO2 T01560122=
202308290553 METAR KCLM 290553Z AUTO 28003KT 10SM OVC028 16/12 A3010 RMK AO2 SLP192 T01560122 10178 20156 50002=
202308290453 METAR KCLM 290453Z AUTO 27005KT 10SM SCT018 OVC024 16/13 A3010 RMK AO2 SLP192 T01610128=
202308290353 METAR KCLM 290353Z AUTO 28005KT 10SM OVC022 17/13 A3010 RMK AO2 SLP192 T01670128=
202308290253 METAR KCLM 290253Z AUTO 00000KT 10SM FEW015 OVC022 17/13 A3009 RMK AO2 SLP190 T01670133 53004=
202308290153 METAR KCLM 290153Z AUTO 30004KT 10SM OVC023 17/13 A3009 RMK AO2 LTG DSNT N SLP188 T01720133=
202308290053 METAR KCLM 290053Z AUTO 30003KT 10SM OVC021 17/14 A3008 RMK AO2 LTG DSNT NW SLP186 T01670139=
202308290025 SPECI KCLM 290025Z AUTO 25005KT 10SM OVC020 17/14 A3008 RMK AO2 LTG DSNT NW T01720139=
202308290010 SPECI KCLM 290010Z AUTO 29004KT 10SM VCTS OVC020 17/14 A3008 RMK AO2 LTG DSNT W-N T01720139=
202308282353 METAR KCLM 282353Z AUTO 30006KT 10SM OVC023 17/14 A3008 RMK AO2 LTG DSNT NE AND NW RAB06E24 TSB2258E13 SLP185 P0001 60001 T01720139 10194 20172 56004=
202308282319 SPECI KCLM 282319Z AUTO 31005KT 8SM VCTS -RA FEW015 OVC021 18/14 A3007 RMK AO2 LTG DSNT NW-E RAB06 TSB2258E13 P0001 T01780139=
202308282304 SPECI KCLM 282304Z AUTO 29009KT 10SM TS OVC020 19/14 A3007 RMK AO2 LTG DSNT ALQDS TSB2258 T01940139=
202308282253 METAR KCLM 282253Z AUTO 27006KT 10SM VCTS OVC018 19/14 A3008 RMK AO2 LTG DSNT ALQDS RAB43E52 SLP185 P0000 T01890139=
202308282153 METAR KCLM 282153Z AUTO 30008KT 10SM OVC016 19/13 A3009 RMK AO2 LTG DSNT NE AND E SLP190 T01890133=
202308282141 SPECI KCLM 282141Z AUTO 30008KT 10SM OVC015 19/13 A3009 RMK AO2 LTG DSNT NE T01890133=
202308282053 METAR KCLM 282053Z AUTO 31008KT 10SM OVC013 19/13 A3010 RMK AO2 LTG DSNT NE AND SE SLP193 60000 T01890133 55004=
202308281953 METAR KCLM 281953Z AUTO 28006KT 10SM OVC011 18/13 A3010 RMK AO2 RAB1855E05 SLP192 P0000 T01830133=
202308281853 METAR KCLM 281853Z AUTO 28006KT 10SM OVC010 17/13 A3011 RMK AO2 SLP195 T01720133=
202308281753 METAR KCLM 281753Z AUTO 29004KT 10SM OVC010 17/13 A3011 RMK AO2 LTG DSNT S SLP197 T01720133 10178 20161 53003=
202308281653 METAR KCLM 281653Z AUTO 29004KT 7SM OVC012 17/13 A3011 RMK AO2 LTG DSNT S SLP196 T01720133=
202308281553 METAR KCLM 281553Z AUTO 29004KT 7SM OVC012 17/13 A3011 RMK AO2 SLP195 T01720133=
202308281529 SPECI KCLM 281529Z AUTO 27003KT 7SM OVC011 17/14 A3011 RMK AO2 T01670139=
202308281519 SPECI KCLM 281519Z AUTO 00000KT 7SM OVC009 17/14 A3011 RMK AO2 CIG 008V012 T01670139=
202308281453 METAR KCLM 281453Z AUTO 29004KT 7SM OVC012 17/13 A3010 RMK AO2 SLP194 T01670133 53005=
202308281353 METAR KCLM 281353Z AUTO 25004KT 7SM OVC013 17/13 A3009 RMK AO2 SLP189 T01670133=
202308281253 METAR KCLM 281253Z AUTO 27008KT 8SM OVC012 16/13 A3009 RMK AO2 SLP187 T01610133=
202308281153 METAR KCLM 281153Z AUTO 25005KT 8SM OVC013 16/13 A3009 RMK AO2 SLP188 T01610133 10161 20150 50000=
202308281053 METAR KCLM 281053Z AUTO 27007KT 7SM BKN013 16/13 A3009 RMK AO2 SLP188 T01560133=
202308280953 METAR KCLM 280953Z AUTO 25009KT 7SM BKN012 16/13 A3009 RMK AO2 SLP188 T01560133=
202308280853 METAR KCLM 280853Z AUTO 27010KT 7SM CLR 16/13 A3009 RMK AO2 SLP188 T01560128 51007=
202308280812 SPECI KCLM 280812Z AUTO 27011KT 7SM FEW008 16/13 A3009 RMK AO2 T01560128=
202308280753 METAR KCLM 280753Z AUTO 28011G17KT 7SM CLR 16/13 A3008 RMK AO2 SLP185 T01560128 402280128=
202308280653 METAR KCLM 280653Z AUTO 29011KT 7SM CLR 16/13 A3008 RMK AO2 SLP185 T01560128=
202308280603 SPECI KCLM 280603Z AUTO 28013G21KT 7SM SCT006 15/13 A3007 RMK AO2 T01500128=
202308280553 METAR KCLM 280553Z AUTO 28011G23KT 7SM BKN006 15/13 A3007 RMK AO2 SLP181 T01500128 10222 20150 51010=
202308280532 SPECI KCLM 280532Z AUTO 28013G21KT 7SM BKN006 15/13 A3007 RMK AO2 T01500128=
202308280453 METAR KCLM 280453Z AUTO 29010G23KT 7SM FEW006 15/13 A3006 RMK AO2 SLP179 T01500128=
202308280353 METAR KCLM 280353Z AUTO 28013G20KT 7SM CLR 16/13 A3006 RMK AO2 SLP178 T01560128=
202308280253 METAR KCLM 280253Z AUTO 29010G16KT 8SM CLR 17/13 A3004 RMK AO2 SLP171 T01670128 53002=
202308280153 METAR KCLM 280153Z AUTO 31006KT 10SM CLR 19/13 A3002 RMK AO2 SLP166 T01890128=
202308280053 METAR KCLM 280053Z AUTO 30006KT 10SM CLR 21/13 A3003 RMK AO2 SLP168 T02060128=
202308272353 METAR KCLM 272353Z AUTO 29009KT 10SM CLR 22/13 A3003 RMK AO2 SLP168 T02220128 10228 20183 56011=
202308272253 METAR KCLM 272253Z AUTO 30008KT 10SM CLR 21/12 A3004 RMK AO2 SLP170 T02110122=
202308272153 METAR KCLM 272153Z AUTO 28009KT 10SM CLR 21/13 A3006 RMK AO2 SLP176 T02060128=
202308272053 METAR KCLM 272053Z AUTO 29007KT 10SM CLR 20/12 A3006 RMK AO2 SLP180 T02000122 58005=
202308271953 METAR KCLM 271953Z AUTO 29007KT 270V340 10SM CLR 20/12 A3007 RMK AO2 SLP183 T02000122=
202308271853 METAR KCLM 271853Z AUTO 31006KT 10SM CLR 19/12 A3008 RMK AO2 SLP184 T01890117=
202308271753 METAR KCLM 271753Z AUTO 00000KT 10SM CLR 19/12 A3008 RMK AO2 SLP185 T01940122 10194 20128 50001=
202308271653 METAR KCLM 271653Z AUTO 00000KT 10SM CLR 18/12 A3008 RMK AO2 SLP185 T01780117=
202308271553 METAR KCLM 271553Z AUTO 00000KT 10SM CLR 18/12 A3008 RMK AO2 SLP184 T01780122=
202308271453 METAR KCLM 271453Z AUTO 00000KT 7SM CLR 16/11 A3008 RMK AO2 SLP184 T01610111 51012=
202308271353 METAR KCLM 271353Z AUTO 24003KT 9SM CLR 13/09 A3007 RMK AO2 SLP182 T01280089=
202308271253 METAR KCLM 271253Z AUTO 00000KT 10SM CLR 13/09 A3006 RMK AO2 SLP178 T01330089=
202308271153 METAR KCLM 271153Z AUTO 00000KT 10SM CLR 15/09 A3004 RMK AO2 SLP172 T01500094 10183 20144 53008=
202308271053 METAR KCLM 271053Z AUTO 00000KT 10SM CLR 16/09 A3003 RMK AO2 SLP167 T01560094=
202308270953 METAR KCLM 270953Z AUTO 00000KT 10SM CLR 16/09 A3002 RMK AO2 SLP165 T01610094=
202308270853 METAR KCLM 270853Z AUTO 00000KT 10SM CLR 17/09 A3002 RMK AO2 SLP164 T01720094 51005=
202308270753 METAR KCLM 270753Z AUTO 00000KT 10SM FEW110 17/11 A3002 RMK AO2 SLP163 T01670106 403060122=
202308270653 METAR KCLM 270653Z AUTO 20003KT 10SM BKN110 17/11 A3002 RMK AO2 SLP163 T01670106=
202308270553 METAR KCLM 270553Z AUTO 00000KT 9SM CLR 17/11 A3001 RMK AO2 SLP160 T01720111 10306 20167 51008=
202308270453 METAR KCLM 270453Z AUTO 00000KT 9SM FEW100 18/11 A3000 RMK AO2 SLP158 T01830106=
202308270353 METAR KCLM 270353Z AUTO 00000KT 9SM CLR 20/11 A3000 RMK AO2 SLP156 T02000106=
202308270253 METAR KCLM 270253Z AUTO 30004KT 8SM CLR 23/09 A2998 RMK AO2 SLP151 T02330094 55004=
202308270153 METAR KCLM 270153Z AUTO 00000KT 10SM CLR 30/09 A2997 RMK AO2 SLP149 T03000089=
202308270053 METAR KCLM 270053Z AUTO 10004KT 8SM CLR 29/09 A2999 RMK AO2 SLP153 T02940094=
202308262353 METAR KCLM 262353Z AUTO 07006KT 8SM CLR 29/09 A2999 RMK AO2 SLP155 T02940089 10294 20244 58013=
202308262253 METAR KCLM 262253Z AUTO VRB04KT 7SM CLR 29/09 A3001 RMK AO2 SLP159 T02890094=
202308262153 METAR KCLM 262153Z AUTO 07007KT 7SM CLR 28/09 A3002 RMK AO2 SLP165 T02780089=
202308262053 METAR KCLM 262053Z AUTO 08006KT 7SM CLR 27/09 A3003 RMK AO2 SLP168 T02670094 58013=
202308261953 METAR KCLM 261953Z AUTO VRB05KT 6SM HZ CLR 26/11 A3004 RMK AO2 SLP172 T02560106=
202308261853 METAR KCLM 261853Z AUTO 08006KT 5SM HZ CLR 25/11 A3006 RMK AO2 SLP178 T02500106=
202308261753 METAR KCLM 261753Z AUTO 08005KT 5SM HZ CLR 24/12 A3007 RMK AO2 SLP181 T02440117 10244 20122 58001=
202308261653 METAR KCLM 261653Z AUTO VRB03KT 5SM HZ CLR 23/11 A3007 RMK AO2 SLP183 T02330111=
202308261553 METAR KCLM 261553Z AUTO 09003KT 7SM CLR 23/11 A3007 RMK AO2 SLP181 T02280111=
202308261453 METAR KCLM 261453Z AUTO 00000KT 10SM CLR 17/12 A3007 RMK AO2 SLP182 T01670122 53006=
202308261353 METAR KCLM 261353Z AUTO 00000KT 10SM CLR 13/10 A3007 RMK AO2 SLP180 T01330100=
202308261253 METAR KCLM 261253Z AUTO 00000KT 10SM CLR 12/09 A3006 RMK AO2 SLP177 T01220094=
202308261153 METAR KCLM 261153Z AUTO 00000KT 10SM CLR 13/09 A3006 RMK AO2 SLP176 T01280094 10161 20122 53002=
202308261053 METAR KCLM 261053Z AUTO 00000KT 10SM CLR 14/10 A3005 RMK AO2 SLP174 T01440100=
202308260953 METAR KCLM 260953Z AUTO 00000KT 10SM CLR 13/10 A3005 RMK AO2 SLP175 T01330100=
202308260853 METAR KCLM 260853Z AUTO 00000KT 10SM CLR 13/10 A3005 RMK AO2 SLP175 T01330100 51009=
202308260753 METAR KCLM 260753Z AUTO 00000KT 10SM CLR 14/10 A3004 RMK AO2 SLP174 T01390100 402500128=
202308260653 METAR KCLM 260653Z AUTO 00000KT 10SM CLR 14/10 A3003 RMK AO2 SLP168 T01390100=
202308260553 METAR KCLM 260553Z AUTO 00000KT 10SM CLR 16/11 A3002 RMK AO2 SLP166 T01560106 10250 20150 58002=
202308260453 METAR KCLM 260453Z AUTO 22003KT 9SM CLR 16/11 A3003 RMK AO2 SLP166 T01560106=
202308260353 METAR KCLM 260353Z AUTO 00000KT 8SM CLR 17/10 A3003 RMK AO2 SLP167 T01720100=
202308260253 METAR KCLM 260253Z AUTO 11003KT 7SM CLR 22/09 A3003 RMK AO2 SLP168 T02170094 58003=
202308260153 METAR KCLM 260153Z AUTO 00000KT 7SM CLR 23/09 A3003 RMK AO2 SLP169 T02330094=
202308260053 METAR KCLM 260053Z AUTO 05004KT 7SM CLR 24/10 A3004 RMK AO2 SLP170 T02440100=
202308252353 METAR KCLM 252353Z AUTO 7SM CLR 25/10 A3004 RMK AO2 SLP170 60000 T02500100 10250 20183 50000=
202308252253 METAR KCLM 252253Z AUTO 9SM CLR 23/11 A3004 RMK AO2 SLP172 T02330106=
202308252153 METAR KCLM 252153Z AUTO 01003KT 10SM OVC110 19/11 A3004 RMK AO2 SLP173 T01890111=
202308252053 METAR KCLM 252053Z AUTO 30004KT 9SM SCT075 BKN095 19/11 A3004 RMK AO2 SLP170 60000 T01940111 53006=
202308251953 METAR KCLM 251953Z AUTO 00000KT 9SM FEW070 SCT090 BKN110 19/12 A3002 RMK AO2 RAB1855E40 SLP165 P0000 T01940117=
202308251853 METAR KCLM 251853Z AUTO 03003KT 9SM FEW080 SCT090 OVC110 21/10 A3002 RMK AO2 SLP165 T02110100=
202308251753 METAR KCLM 251753Z AUTO 09005KT 9SM FEW120 22/10 A3002 RMK AO2 SLP164 T02220100 10222 20128 53009=
202308251653 METAR KCLM 251653Z AUTO 11007KT 9SM FEW120 22/10 A3001 RMK AO2 SLP160 T02220100=
202308251553 METAR KCLM 251553Z AUTO 23003KT 10SM CLR 19/12 A2999 RMK AO2 SLP157 T01890117=
202308251453 METAR KCLM 251453Z AUTO 00000KT 10SM CLR 16/11 A2999 RMK AO2 SLP154 T01610106 50002=
202308251353 METAR KCLM 251353Z AUTO 00000KT 7SM CLR 13/09 A2999 RMK AO2 SLP156 T01280089=
202308251253 METAR KCLM 251253Z AUTO 21004KT 10SM CLR 15/09 A2999 RMK AO2 SLP154 T01500089=
202308251153 METAR KCLM 251153Z AUTO 22004KT 10SM CLR 14/09 A2999 RMK AO2 SLP153 T01390089 10167 20133 55001=
202308251053 METAR KCLM 251053Z AUTO 22005KT 10SM CLR 14/09 A2998 RMK AO2 SLP152 T01440089=
202308250953 METAR KCLM 250953Z AUTO 22007KT 10SM CLR 16/09 A2998 RMK AO2 SLP149 T01560089=
202308250853 METAR KCLM 250853Z AUTO 21005KT 10SM CLR 16/09 A2999 RMK AO2 SLP154 T01610094 52001=
202308250753 METAR KCLM 250753Z AUTO 22005KT 10SM CLR 16/09 A2999 RMK AO2 SLP154 T01560094 402220094=
202308250653 METAR KCLM 250653Z AUTO 21003KT 10SM CLR 16/09 A2999 RMK AO2 SLP154 T01560094=
202308250553 METAR KCLM 250553Z AUTO 22006KT 10SM CLR 15/09 A2999 RMK AO2 SLP154 T01500094 10222 20139 58001=
202308250453 METAR KCLM 250453Z AUTO 16003KT 10SM CLR 15/09 A2999 RMK AO2 SLP156 T01500094=
202308250353 METAR KCLM 250353Z AUTO 00000KT 10SM CLR 16/09 A2999 RMK AO2 SLP156 T01560094=
202308250253 METAR KCLM 250253Z AUTO 12005KT 10SM CLR 19/09 A2999 RMK AO2 SLP155 T01940089 56012=
202308250153 METAR KCLM 250153Z AUTO 07003KT 10SM CLR 21/09 A3000 RMK AO2 SLP157 T02110094=
202308250053 METAR KCLM 250053Z AUTO 09004KT 10SM CLR 22/09 A3001 RMK AO2 SLP163 T02170094=
202308242353 METAR KCLM 242353Z AUTO VRB05KT 10SM CLR 22/10 A3002 RMK AO2 SLP167 T02170100 10222 20183 56020=
202308242253 METAR KCLM 242253Z AUTO VRB06KT 10SM CLR 22/10 A3004 RMK AO2 SLP172 T02170100=
202308242153 METAR KCLM 242153Z AUTO 07007KT 10SM CLR 21/09 A3007 RMK AO2 SLP181 T02110094=
202308242053 METAR KCLM 242053Z AUTO 09008G15KT 10SM CLR 21/11 A3009 RMK AO2 SLP188 T02060106 58013=
202308241953 METAR KCLM 241953Z AUTO 08009KT 10SM CLR 19/11 A3010 RMK AO2 SLP193 T01940111=
202308241853 METAR KCLM 241853Z AUTO 08011KT 10SM CLR 19/11 A3011 RMK AO2 SLP197 T01890111=
202308241753 METAR KCLM 241753Z AUTO 08008KT 10SM CLR 18/12 A3013 RMK AO2 SLP201 T01830117 10183 20094 58004=
202308241723 SPECI KCLM 241723Z AUTO 07007KT 10SM SCT016 18/12 A3013 RMK AO2 T01830117=
202308241653 METAR KCLM 241653Z AUTO 07006KT 10SM OVC016 17/12 A3014 RMK AO2 SLP205 T01720117=
202308241604 SPECI KCLM 241604Z AUTO 08005KT 10SM BKN018 17/12 A3014 RMK AO2 T01670117=
202308241553 METAR KCLM 241553Z AUTO 09007KT 10SM SCT017 16/11 A3014 RMK AO2 SLP207 T01610111=
202308241453 METAR KCLM 241453Z AUTO 13004KT 9SM CLR 13/11 A3014 RMK AO2 SLP205 T01330111 52003=
202308241353 METAR KCLM 241353Z AUTO 00000KT 10SM CLR 10/08 A3014 RMK AO2 SLP205 T01000078=
202308241253 METAR KCLM 241253Z AUTO 00000KT 10SM CLR 10/08 A3013 RMK AO2 SLP202 T01000083=
202308241153 METAR KCLM 241153Z AUTO 00000KT 10SM CLR 11/08 A3013 RMK AO2 SLP202 T01060083 10139 20094 58003=
202308241053 METAR KCLM 241053Z AUTO 20003KT 10SM CLR 10/08 A3013 RMK AO2 SLP203 T01000078=
202308240953 METAR KCLM 240953Z AUTO 00000KT 10SM CLR 11/08 A3013 RMK AO2 SLP204 T01060083=
202308240853 METAR KCLM 240853Z AUTO 00000KT 10SM CLR 11/09 A3014 RMK AO2 SLP205 T01060089 56000=
202308240753 METAR KCLM 240753Z AUTO 25003KT 10SM CLR 12/10 A3014 RMK AO2 SLP205 T01220100 402000122=
202308240653 METAR KCLM 240653Z AUTO 27004KT 10SM CLR 13/10 A3013 RMK AO2 SLP204 T01280100=
202308240553 METAR KCLM 240553Z AUTO 00000KT 10SM CLR 13/11 A3014 RMK AO2 SLP205 T01330106 10183 20128 58003=
202308240453 METAR KCLM 240453Z AUTO 25004KT 10SM CLR 13/11 A3014 RMK AO2 SLP208 T01330106=
202308240353 METAR KCLM 240353Z AUTO 22003KT 10SM CLR 14/11 A3015 RMK AO2 SLP209 T01440111=
202308240253 METAR KCLM 240253Z AUTO 29004KT 10SM OVC060 16/12 A3015 RMK AO2 SLP208 T01610117 58002=
202308240153 METAR KCLM 240153Z AUTO 31004KT 10SM SCT060 17/11 A3015 RMK AO2 SLP208 T01720111=
202308240053 METAR KCLM 240053Z AUTO 29006KT 10SM OVC060 18/11 A3015 RMK AO2 SLP210 T01780106=
202308232353 METAR KCLM 232353Z AUTO 30007KT 10SM BKN065 18/11 A3015 RMK AO2 SLP210 T01780111 10200 20161 58001=
202308232253 METAR KCLM 232253Z AUTO 30006KT 10SM OVC060 18/11 A3015 RMK AO2 SLP211 T01830111=
202308232153 METAR KCLM 232153Z AUTO 30006KT 10SM BKN047 20/12 A3016 RMK AO2 SLP212 T02000117=
202308232053 METAR KCLM 232053Z AUTO 29009KT 10SM OVC044 18/11 A3015 RMK AO2 SLP211 T01780111 51005=
202308231953 METAR KCLM 231953Z AUTO 36005KT 10SM SCT080 19/12 A3015 RMK AO2 SLP209 T01890117=
202308231853 METAR KCLM 231853Z AUTO VRB03KT 10SM BKN080 17/12 A3015 RMK AO2 SLP211 T01720117=
202308231753 METAR KCLM 231753Z AUTO 00000KT 10SM OVC090 16/11 A3014 RMK AO2 SLP206 T01610111 10172 20133 51006=
202308231653 METAR KCLM 231653Z AUTO 30007KT 10SM OVC095 14/11 A3014 RMK AO2 SLP205 T01390106=
202308231553 METAR KCLM 231553Z AUTO 26004KT 10SM SCT100 17/11 A3013 RMK AO2 SLP201 T01670106=
202308231453 METAR KCLM 231453Z AUTO 28006KT 10SM CLR 15/11 A3012 RMK AO2 SLP199 T01500106 51012=
202308231353 METAR KCLM 231353Z AUTO 24010KT 10SM CLR 14/10 A3011 RMK AO2 SLP195 T01390100=
202308231253 METAR KCLM 231253Z AUTO 25007KT 10SM BKN080 14/11 A3010 RMK AO2 SLP192 T01390106=
202308231153 METAR KCLM 231153Z AUTO 25006KT 10SM OVC080 15/11 A3008 RMK AO2 SLP187 70003 T01500111 10150 20133 53006=
202308231053 METAR KCLM 231053Z AUTO 25008KT 10SM OVC080 15/11 A3007 RMK AO2 SLP183 T01500111=
202308230953 METAR KCLM 230953Z AUTO 28008KT 10SM OVC080 15/11 A3007 RMK AO2 SLP183 T01500111=
202308230853 METAR KCLM 230853Z AUTO 24006KT 10SM OVC075 15/12 A3007 RMK AO2 SLP181 T01500117 53004=
202308230753 METAR KCLM 230753Z AUTO 26007KT 10SM OVC075 15/12 A3006 RMK AO2 SLP180 T01500117 402060083=
202308230653 METAR KCLM 230653Z AUTO 00000KT 10SM FEW070 FEW100 14/12 A3005 RMK AO2 SLP176 T01390117=
202308230553 METAR KCLM 230553Z AUTO 28006KT 10SM OVC070 14/12 A3005 RMK AO2 RAE14 SLP177 P0001 60003 T01390117 10194 20139 51007=
202308230453 METAR KCLM 230453Z AUTO 28007KT 10SM -RA OVC070 14/12 A3005 RMK AO2 RAB31 SLP177 P0000 T01440122=
202308230353 METAR KCLM 230353Z AUTO 29004KT 10SM OVC075 15/12 A3004 RMK AO2 RAB08E19 SLP171 P0000 T01500122=
202308230253 METAR KCLM 230253Z AUTO 26003KT 10SM OVC070 16/13 A3003 RMK AO2 RAE24 SLP170 P0001 60002 T01560128 51002=
202308230153 METAR KCLM 230153Z AUTO 29005KT 5SM -RA OVC070 15/12 A3003 RMK AO2 RAB35 SLP170 P0001 T01500117=
202308230053 METAR KCLM 230053Z AUTO 32004KT 10SM OVC085 18/09 A3003 RMK AO2 RAB21E36 SLP169 P0000 T01780089=
202308222353 METAR KCLM 222353Z AUTO 01004KT 10SM SCT070 19/08 A3003 RMK AO2 SLP168 T01940078 10206 20167 58002=
202308222253 METAR KCLM 222253Z AUTO VRB06KT 10SM BKN090 20/08 A3003 RMK AO2 SLP169 T02000083=
202308222153 METAR KCLM 222153Z AUTO VRB04KT 10SM BKN100 19/09 A3003 RMK AO2 SLP170 T01940089=
202308222053 METAR KCLM 222053Z AUTO 09008KT 060V130 10SM SCT095 19/08 A3003 RMK AO2 SLP170 T01940083 51003=
202308221953 METAR KCLM 221953Z AUTO 08007KT 10SM CLR 19/09 A3003 RMK AO2 SLP170 T01890089=
202308221853 METAR KCLM 221853Z AUTO 03006KT 10SM CLR 17/08 A3003 RMK AO2 SLP169 T01670083=
202308221753 METAR KCLM 221753Z AUTO VRB04KT 10SM CLR 17/10 A3002 RMK AO2 SLP167 T01670100 10172 20083 53004=
202308221653 METAR KCLM 221653Z AUTO VRB04KT 10SM CLR 17/10 A3002 RMK AO2 SLP165 T01670100=
202308221553 METAR KCLM 221553Z AUTO VRB04KT 10SM CLR 16/09 A3001 RMK AO2 SLP163 T01610094=
202308221453 METAR KCLM 221453Z AUTO 00000KT 9SM CLR 13/11 A3001 RMK AO2 SLP163 T01280106 51007=
202308221353 METAR KCLM 221353Z AUTO 00000KT 10SM CLR 09/07 A3001 RMK AO2 SLP162 T00890072=
202308221253 METAR KCLM 221253Z AUTO 00000KT 10SM CLR 09/07 A3000 RMK AO2 SLP159 T00890067=
202308221153 METAR KCLM 221153Z AUTO 00000KT 10SM FEW045 09/07 A2999 RMK AO2 SLP156 T00890067 10122 20089 53007=
202308221053 METAR KCLM 221053Z AUTO 24003KT 10SM FEW048 11/08 A2998 RMK AO2 SLP153 T01060078=
202308220953 METAR KCLM 220953Z AUTO 23003KT 10SM SCT045 11/08 A2997 RMK AO2 SLP150 T01110078=
202308220853 METAR KCLM 220853Z AUTO 00000KT 10SM OVC044 11/08 A2997 RMK AO2 SLP149 T01110083 51008=
202308220753 METAR KCLM 220753Z AUTO 24005KT 10SM CLR 12/09 A2997 RMK AO2 SLP147 T01220089 402000100=
202308220653 METAR KCLM 220653Z AUTO 26003KT 10SM CLR 12/09 A2996 RMK AO2 SLP145 T01170089=
202308220553 METAR KCLM 220553Z AUTO 25004KT 10SM CLR 12/09 A2995 RMK AO2 SLP141 T01220089 10189 20122 51012=
202308220453 METAR KCLM 220453Z AUTO 26005KT 10SM CLR 12/09 A2994 RMK AO2 SLP138 T01220094=
202308220353 METAR KCLM 220353Z AUTO 26006KT 10SM CLR 13/09 A2993 RMK AO2 SLP134 T01280094=
202308220253 METAR KCLM 220253Z AUTO 27006KT 10SM CLR 14/09 A2991 RMK AO2 SLP129 T01440089 53010=
202308220153 METAR KCLM 220153Z AUTO 27010KT 10SM CLR 17/09 A2990 RMK AO2 SLP124 T01670089=
202308220053 METAR KCLM 220053Z AUTO 27014G22KT 10SM CLR 18/08 A2989 RMK AO2 SLP122 T01780083=
202308212353 METAR KCLM 212353Z AUTO 29011G20KT 10SM CLR 18/08 A2988 RMK AO2 SLP118 T01830083 10200 20156 51008=
202308212253 METAR KCLM 212253Z AUTO 30011G20KT 10SM CLR 19/08 A2988 RMK AO2 SLP116 T01940078=
202308212153 METAR KCLM 212153Z AUTO 30013G24KT 10SM CLR 19/08 A2987 RMK AO2 SLP114 T01940078=
202308212053 METAR KCLM 212053Z AUTO 31008KT 10SM CLR 19/09 A2986 RMK AO2 SLP110 T01890089 51002=
202308211953 METAR KCLM 211953Z AUTO 29009KT 10SM CLR 18/10 A2986 RMK AO2 SLP110 T01780100=
202308211853 METAR KCLM 211853Z AUTO 31009KT 10SM CLR 17/10 A2986 RMK AO2 SLP110 T01670100=
202308211753 METAR KCLM 211753Z AUTO 31007KT 270V340 10SM CLR 16/09 A2985 RMK AO2 SLP109 T01560094 10161 20100 50000=
202308211653 METAR KCLM 211653Z AUTO 30009KT 10SM CLR 15/09 A2986 RMK AO2 SLP110 T01500094=
202308211553 METAR KCLM 211553Z AUTO 31007KT 10SM CLR 14/09 A2986 RMK AO2 SLP111 T01390094=
202308211453 METAR KCLM 211453Z AUTO 30006KT 10SM CLR 13/09 A2985 RMK AO2 SLP109 T01280094 55001=
202308211353 METAR KCLM 211353Z AUTO 00000KT 9SM CLR 11/08 A2984 RMK AO2 SLP106 T01060083=
202308211253 METAR KCLM 211253Z AUTO 29006KT 10SM CLR 11/09 A2985 RMK AO2 SLP106 T01110089=
202308211153 METAR KCLM 211153Z AUTO 29007KT 10SM CLR 11/09 A2986 RMK AO2 SLP109 T01110089 10139 20111 53002=
202308211053 METAR KCLM 211053Z AUTO 28007KT 10SM CLR 12/09 A2985 RMK AO2 SLP107 T01170094=
202308210953 METAR KCLM 210953Z AUTO 28005KT 10SM CLR 12/09 A2984 RMK AO2 SLP105 T01170094=
202308210853 METAR KCLM 210853Z AUTO 28007KT 10SM CLR 12/09 A2985 RMK AO2 SLP106 T01220094 55001=
202308210753 METAR KCLM 210753Z AUTO 29007KT 10SM CLR 13/09 A2984 RMK AO2 SLP104 T01280094 402560100=
202308210653 METAR KCLM 210653Z AUTO 30004KT 10SM CLR 12/09 A2984 RMK AO2 SLP103 T01220089=
202308210553 METAR KCLM 210553Z AUTO 28007KT 10SM FEW055 14/09 A2985 RMK AO2 SLP107 T01390094 10256 20139 50001=
202308210453 METAR KCLM 210453Z AUTO 27006KT 10SM CLR 14/09 A2985 RMK AO2 SLP108 T01440089=
202308210353 METAR KCLM 210353Z AUTO 27005KT 9SM BKN049 14/09 A2986 RMK AO2 SLP110 T01440089=
202308210253 METAR KCLM 210253Z AUTO 29003KT 7SM CLR 16/08 A2985 RMK AO2 SLP106 T01610083 58004=
202308210153 METAR KCLM 210153Z AUTO 28003KT 8SM CLR 18/09 A2986 RMK AO2 SLP110 T01830089=
202308210053 METAR KCLM 210053Z AUTO 29004KT 10SM CLR 20/09 A2986 RMK AO2 SLP112 T02000094=
202308202353 METAR KCLM 202353Z AUTO VRB03KT 8SM FEW042 25/09 A2986 RMK AO2 SLP110 T02500089 10250 20233 56015=
202308202253 METAR KCLM 202253Z AUTO 07004KT 10SM CLR 25/09 A2987 RMK AO2 SLP114 T02500089=
202308202153 METAR KCLM 202153Z AUTO 08007KT 10SM CLR 24/09 A2988 RMK AO2 SLP118 T02440089=
202308202053 METAR KCLM 202053Z AUTO 08008KT 10SM CLR 24/09 A2990 RMK AO2 SLP124 T02440094 58014=
202308201953 METAR KCLM 201953Z AUTO 09008KT 10SM CLR 25/08 A2992 RMK AO2 SLP131 T02500083=
202308201853 METAR KCLM 201853Z AUTO 08006KT 10SM CLR 24/08 A2994 RMK AO2 SLP137 T02440083=
202308201753 METAR KCLM 201753Z AUTO 09005KT 9SM CLR 24/08 A2994 RMK AO2 SLP139 T02390083 10244 20100 56006=
202308201653 METAR KCLM 201653Z AUTO 12006KT 6SM HZ CLR 23/07 A2994 RMK AO2 SLP139 T02280072=
202308201553 METAR KCLM 201553Z AUTO 23003KT 5SM HZ CLR 19/06 A2996 RMK AO2 SLP144 T01940061=
202308201453 METAR KCLM 201453Z AUTO 22004KT 5SM HZ CLR 16/05 A2996 RMK AO2 SLP146 T01610050 53005=
202308201353 METAR KCLM 201353Z AUTO 19003KT 5SM HZ CLR 12/06 A2995 RMK AO2 SLP142 T01170056=
202308201253 METAR KCLM 201253Z AUTO 00000KT 6SM HZ CLR 11/06 A2995 RMK AO2 SLP140 T01060056=
202308201153 METAR KCLM 201153Z AUTO 22004KT 6SM HZ CLR 11/05 A2995 RMK AO2 SLP140 T01110050 10178 20106 53001=
202308201053 METAR KCLM 201053Z AUTO 14003KT 6SM HZ CLR 12/06 A2995 RMK AO2 SLP140 T01220056=
202308200953 METAR KCLM 200953Z AUTO 00000KT 7SM CLR 16/03 A2994 RMK AO2 SLP138 T01610033=
202308200853 METAR KCLM 200853Z AUTO 23007KT 7SM SCT060 17/03 A2994 RMK AO2 SLP139 T01720033 58001=
202308200753 METAR KCLM 200753Z AUTO 23007KT 7SM BKN055 17/03 A2995 RMK AO2 SLP140 T01720033 402500089=
202308200653 METAR KCLM 200653Z AUTO 22005KT 8SM CLR 14/06 A2995 RMK AO2 SLP141 T01440056=
202308200553 METAR KCLM 200553Z AUTO 00000KT 10SM CLR 14/07 A2995 RMK AO2 SLP141 T01390067 10250 20128 57002=
202308200453 METAR KCLM 200453Z AUTO 00000KT 10SM CLR 16/07 A2995 RMK AO2 SLP140 T01560072=
202308200353 METAR KCLM 200353Z AUTO 23004KT 10SM CLR 16/08 A2995 RMK AO2 SLP142 T01610078=
202308200253 METAR KCLM 200253Z AUTO 27006KT 10SM CLR 17/08 A2995 RMK AO2 SLP143 T01720083 55003=
202308200153 METAR KCLM 200153Z AUTO 30005KT 10SM CLR 19/08 A2995 RMK AO2 SLP141 T01940083=
202308200053 METAR KCLM 200053Z AUTO 00000KT 8SM CLR 24/04 A2995 RMK AO2 SLP143 T02440044=
202308192353 METAR KCLM 192353Z AUTO 03004KT 9SM CLR 25/04 A2996 RMK AO2 SLP145 T02500044 10250 20200 58016=
202308192253 METAR KCLM 192253Z AUTO 00000KT 10SM CLR 24/05 A2998 RMK AO2 SLP151 T02440050=
202308192153 METAR KCLM 192153Z AUTO 15005KT 10SM CLR 23/06 A3000 RMK AO2 SLP158 T02330056=
202308192053 METAR KCLM 192053Z AUTO 08006KT 10SM CLR 22/07 A3001 RMK AO2 SLP162 T02220072 58013=
202308191953 METAR KCLM 191953Z AUTO VRB06KT 10SM CLR 22/08 A3003 RMK AO2 SLP167 T02170078=
202308191853 METAR KCLM 191853Z AUTO 08007KT 10SM CLR 21/08 A3004 RMK AO2 SLP173 T02110083=
202308191753 METAR KCLM 191753Z AUTO 09007KT 10SM CLR 20/08 A3005 RMK AO2 SLP176 T02000078 10206 20089 58005=
202308191653 METAR KCLM 191653Z AUTO 08006KT 10SM CLR 20/08 A3006 RMK AO2 SLP178 T02000083=
202308191553 METAR KCLM 191553Z AUTO 12007KT 10SM CLR 19/09 A3006 RMK AO2 SLP180 T01890089=
202308191453 METAR KCLM 191453Z AUTO 10SM CLR 17/11 A3007 RMK AO2 SLP181 T01670106 51008=
202308191353 METAR KCLM 191353Z AUTO 14003KT 10SM CLR 10/07 A3006 RMK AO2 SLP179 T01000072=
202308191253 METAR KCLM 191253Z AUTO 00000KT 10SM CLR 09/07 A3005 RMK AO2 SLP176 T00940067=
202308191153 METAR KCLM 191153Z AUTO 00000KT 10SM CLR 10/07 A3004 RMK AO2 SLP172 T01000072 10122 20089 53003=
202308191053 METAR KCLM 191053Z AUTO 00000KT 10SM CLR 10/07 A3003 RMK AO2 SLP169 T01000072=
202308190953 METAR KCLM 190953Z AUTO 21003KT 10SM CLR 09/07 A3003 RMK AO2 SLP169 T00890067=
202308190853 METAR KCLM 190853Z AUTO 00000KT 10SM CLR 10/07 A3003 RMK AO2 SLP169 T01000072 53004=
202308190753 METAR KCLM 190753Z AUTO 13003KT 10SM CLR 11/07 A3002 RMK AO2 SLP167 T01060072 402170100=
202308190653 METAR KCLM 190653Z AUTO 27007KT 10SM CLR 12/09 A3001 RMK AO2 SLP163 T01220089=
202308190553 METAR KCLM 190553Z AUTO 24005KT 10SM CLR 12/08 A3002 RMK AO2 SLP164 T01170083 10200 20111 51007=
202308190453 METAR KCLM 190453Z AUTO 00000KT 10SM CLR 11/08 A3002 RMK AO2 SLP164 T01110083=
202308190353 METAR KCLM 190353Z AUTO 26004KT 10SM CLR 14/09 A3001 RMK AO2 SLP161 T01390089=
202308190253 METAR KCLM 190253Z AUTO 29004KT 10SM CLR 16/09 A3000 RMK AO2 SLP157 T01560089 51005=
202308190153 METAR KCLM 190153Z AUTO 10SM CLR 17/09 A2999 RMK AO2 SLP156 T01720094=
202308190053 METAR KCLM 190053Z AUTO 32006KT 10SM CLR 18/09 A2999 RMK AO2 SLP155 T01780094=
202308182353 METAR KCLM 182353Z AUTO VRB04KT 10SM CLR 20/09 A2998 RMK AO2 SLP152 T02000094 10217 20167 50001=
202308182253 METAR KCLM 182253Z AUTO VRB04KT 10SM CLR 21/09 A2998 RMK AO2 SLP153 T02110094=
202308182153 METAR KCLM 182153Z AUTO VRB04KT 10SM CLR 21/10 A2998 RMK AO2 SLP152 T02060100=
202308182053 METAR KCLM 182053Z AUTO VRB04KT 10SM CLR 19/09 A2998 RMK AO2 SLP151 T01890094 51011=
202308181953 METAR KCLM 181953Z AUTO VRB04KT 10SM CLR 18/09 A2997 RMK AO2 SLP148 T01830089=
202308181853 METAR KCLM 181853Z AUTO VRB03KT 10SM CLR 18/08 A2996 RMK AO2 SLP145 T01780083=
202308181753 METAR KCLM 181753Z AUTO 35005KT 10SM CLR 17/09 A2994 RMK AO2 SLP139 T01670089 10167 20100 53013=
202308181653 METAR KCLM 181653Z AUTO 33006KT 10SM FEW013 16/08 A2993 RMK AO2 SLP133 T01610083=
202308181646 SPECI KCLM 181646Z AUTO 33005KT 10SM SCT014 16/08 A2992 RMK AO2 T01610083=
202308181624 SPECI KCLM 181624Z AUTO VRB04KT 10SM OVC014 15/08 A2992 RMK AO2 T01500083=
202308181610 SPECI KCLM 181610Z AUTO VRB05KT 10SM OVC015 15/08 A2992 RMK AO2 T01500083=
202308181553 METAR KCLM 181553Z AUTO 36006KT 10SM OVC014 16/09 A2991 RMK AO2 SLP129 T01560089=
202308181518 SPECI KCLM 181518Z AUTO 00000KT 10SM BKN013 14/09 A2990 RMK AO2 T01440089=
202308181453 METAR KCLM 181453Z AUTO 10003KT 10SM CLR 13/09 A2990 RMK AO2 SLP126 T01330089 53018=
202308181353 METAR KCLM 181353Z AUTO 00000KT 8SM CLR 11/08 A2988 RMK AO2 SLP118 T01060078=
202308181253 METAR KCLM 181253Z AUTO 22004KT 10SM CLR 12/08 A2987 RMK AO2 SLP113 T01170083=
202308181153 METAR KCLM 181153Z AUTO 26006KT 10SM CLR 12/08 A2985 RMK AO2 SLP108 T01220083 10144 20117 51017=
202308181053 METAR KCLM 181053Z AUTO 23006KT 10SM CLR 12/09 A2984 RMK AO2 SLP102 T01220089=
202308180953 METAR KCLM 180953Z AUTO 21003KT 10SM CLR 13/09 A2982 RMK AO2 SLP098 T01280089=
202308180853 METAR KCLM 180853Z AUTO 26008KT 10SM CLR 14/09 A2980 RMK AO2 SLP090 T01390094 53005=
202308180753 METAR KCLM 180753Z AUTO 24004KT 10SM CLR 13/09 A2979 RMK AO2 SLP087 T01330094 402500133=
202308180653 METAR KCLM 180653Z AUTO 27009KT 10SM CLR 14/11 A2978 RMK AO2 SLP083 T01390106=
202308180553 METAR KCLM 180553Z AUTO 28010G18KT 10SM CLR 14/11 A2978 RMK AO2 SLP085 T01390111 10228 20139 50003=
202308180453 METAR KCLM 180453Z AUTO 27008KT 10SM FEW009 14/12 A2979 RMK AO2 SLP088 T01440117=
202308180353 METAR KCLM 180353Z AUTO 26006G15KT 10SM CLR 15/12 A2978 RMK AO2 SLP083 T01500122=
202308180253 METAR KCLM 180253Z AUTO 29007KT 10SM CLR 16/12 A2978 RMK AO2 SLP081 T01610122 56007=
202308180153 METAR KCLM 180153Z AUTO 30008G19KT 10SM CLR 18/13 A2978 RMK AO2 SLP084 T01830128=
202308180053 METAR KCLM 180053Z AUTO 32008KT 280V350 10SM CLR 21/13 A2979 RMK AO2 SLP085 T02110128=
202308172353 METAR KCLM 172353Z AUTO 29007KT 10SM CLR 22/13 A2980 RMK AO2 SLP089 T02170128 10250 20211 56008=
202308172253 METAR KCLM 172253Z AUTO 33006KT 10SM CLR 24/13 A2980 RMK AO2 SLP090 T02440133=
202308172153 METAR KCLM 172153Z AUTO VRB06KT 10SM CLR 23/13 A2982 RMK AO2 SLP096 T02330133=
202308172053 METAR KCLM 172053Z AUTO 28007KT 10SM CLR 24/14 A2982 RMK AO2 SLP098 T02390144 58010=
202308171953 METAR KCLM 171953Z AUTO VRB04KT 10SM CLR 23/14 A2984 RMK AO2 SLP103 T02330139=
202308171853 METAR KCLM 171853Z AUTO 35005KT 10SM CLR 22/14 A2985 RMK AO2 SLP106 T02220139=
202308171753 METAR KCLM 171753Z AUTO 34005KT 10SM CLR 22/14 A2985 RMK AO2 SLP108 T02170139 10239 20150 56001=
202308171653 METAR KCLM 171653Z AUTO 34003KT 10SM CLR 23/14 A2985 RMK AO2 SLP108 T02330139=
202308171553 METAR KCLM 171553Z AUTO 35003KT 10SM CLR 22/14 A2986 RMK AO2 SLP109 T02170139=
202308171453 METAR KCLM 171453Z AUTO 00000KT 10SM CLR 21/14 A2986 RMK AO2 SLP109 T02060144 58001=
202308171353 METAR KCLM 171353Z AUTO 00000KT 10SM CLR 16/13 A2986 RMK AO2 SLP111 T01610133=
202308171253 METAR KCLM 171253Z AUTO 00000KT 10SM CLR 16/13 A2986 RMK AO2 SLP110 T01610128=
202308171153 METAR KCLM 171153Z AUTO 23003KT 10SM CLR 16/13 A2986 RMK AO2 SLP110 T01560128 10194 20156 56011=
202308171053 METAR KCLM 171053Z AUTO 00000KT 10SM CLR 16/13 A2987 RMK AO2 SLP113 T01610128=
202308170953 METAR KCLM 170953Z AUTO 00000KT 10SM CLR 17/13 A2988 RMK AO2 SLP117 T01670128=
202308170853 METAR KCLM 170853Z AUTO 00000KT 10SM CLR 17/13 A2989 RMK AO2 SLP122 T01670133 56006=
202308170753 METAR KCLM 170753Z AUTO 00000KT 10SM CLR 18/13 A2990 RMK AO2 SLP123 T01780133 402940139=
202308170653 METAR KCLM 170653Z AUTO 00000KT 10SM CLR 18/13 A2991 RMK AO2 SLP127 T01830133=
202308170553 METAR KCLM 170553Z AUTO 00000KT 10SM CLR 19/14 A2991 RMK AO2 SLP128 T01940139 10294 20183 57004=
202308170453 METAR KCLM 170453Z AUTO 00000KT 10SM CLR 20/14 A2992 RMK AO2 SLP130 T02000139=
202308170353 METAR KCLM 170353Z AUTO 28003KT 10SM CLR 21/13 A2992 RMK AO2 SLP131 T02110133=
202308170253 METAR KCLM 170253Z AUTO 29003KT 10SM CLR 22/13 A2993 RMK AO2 SLP133 T02170133 56010=
202308170153 METAR KCLM 170153Z AUTO 34003KT 10SM CLR 24/14 A2993 RMK AO2 SLP133 T02390139=
202308170053 METAR KCLM 170053Z AUTO VRB03KT 10SM CLR 27/14 A2994 RMK AO2 SLP139 T02670144=
202308162353 METAR KCLM 162353Z AUTO 07005KT 10SM CLR 29/14 A2996 RMK AO2 SLP143 T02890139 10294 20250 56017=
202308162253 METAR KCLM 162253Z AUTO 07007KT 10SM CLR 28/14 A2997 RMK AO2 SLP147 T02830139=
202308162153 METAR KCLM 162153Z AUTO 06006KT 10SM CLR 28/14 A2999 RMK AO2 SLP155 T02830139=
202308162053 METAR KCLM 162053Z AUTO 05007KT 10SM CLR 28/13 A3001 RMK AO2 SLP160 T02780133 58012=
202308161953 METAR KCLM 161953Z AUTO 07007KT 10SM CLR 27/14 A3002 RMK AO2 SLP163 T02720139=
202308161853 METAR KCLM 161853Z AUTO 08009KT 10SM CLR 27/14 A3004 RMK AO2 SLP170 T02670144=
202308161753 METAR KCLM 161753Z AUTO 08011KT 10SM CLR 26/14 A3004 RMK AO2 SLP172 T02560139 10261 20139 53003=
202308161653 METAR KCLM 161653Z AUTO 09011KT 10SM CLR 25/14 A3003 RMK AO2 SLP169 T02500139=
202308161553 METAR KCLM 161553Z AUTO 08010KT 10SM CLR 26/14 A3003 RMK AO2 SLP168 T02560139=
202308161453 METAR KCLM 161453Z AUTO 08010KT 10SM CLR 22/14 A3003 RMK AO2 SLP168 T02220144 51010=
202308161353 METAR KCLM 161353Z AUTO 00000KT 10SM CLR 16/13 A3003 RMK AO2 SLP166 T01560133=
202308161253 METAR KCLM 161253Z AUTO 00000KT 10SM CLR 14/12 A3001 RMK AO2 SLP162 T01440122=
202308161153 METAR KCLM 161153Z AUTO 00000KT 10SM CLR 16/13 A3000 RMK AO2 SLP159 T01560128 10183 20150 53001=
202308161053 METAR KCLM 161053Z AUTO 00000KT 10SM CLR 16/13 A2999 RMK AO2 SLP153 T01610128=
202308160953 METAR KCLM 160953Z AUTO 21003KT 10SM CLR 16/13 A3001 RMK AO2 SLP160 T01610133=
202308160853 METAR KCLM 160853Z AUTO 00000KT 10SM CLR 17/13 A3000 RMK AO2 SLP157 T01670133 53003=
202308160753 METAR KCLM 160753Z AUTO 00000KT 10SM CLR 17/13 A2999 RMK AO2 SLP156 T01720133 403170156=
202308160653 METAR KCLM 160653Z AUTO 00000KT 10SM CLR 17/13 A2997 RMK AO2 SLP148 T01670128=
202308160553 METAR KCLM 160553Z AUTO 00000KT 10SM CLR 18/13 A2999 RMK AO2 SLP155 T01780128 10306 20178 50003=
202308160453 METAR KCLM 160453Z AUTO 00000KT 10SM CLR 19/13 A3000 RMK AO2 SLP156 T01940133=
202308160353 METAR KCLM 160353Z AUTO 00000KT 10SM CLR 21/13 A2999 RMK AO2 SLP154 T02060128=
202308160253 METAR KCLM 160253Z AUTO 31003KT 10SM CLR 25/13 A2998 RMK AO2 SLP151 T02500133 56003=
202308160153 METAR KCLM 160153Z AUTO 29004KT 10SM CLR 28/13 A2998 RMK AO2 SLP151 T02780133=
202308160053 METAR KCLM 160053Z AUTO 00000KT 10SM CLR 28/13 A2999 RMK AO2 SLP153 T02830128=
202308152353 METAR KCLM 152353Z AUTO 03006KT 10SM CLR 31/13 A2999 RMK AO2 SLP154 T03060128 10317 20267 58010=
202308152253 METAR KCLM 152253Z AUTO 08006KT 10SM CLR 31/13 A3000 RMK AO2 SLP156 T03110133=
202308152153 METAR KCLM 152153Z AUTO 08009KT 10SM CLR 29/13 A3002 RMK AO2 SLP163 T02940128=
202308152053 METAR KCLM 152053Z AUTO 09008KT 10SM CLR 31/13 A3002 RMK AO2 SLP164 T03060128 57005=
202308151953 METAR KCLM 151953Z AUTO 06008KT 10SM CLR 29/13 A3002 RMK AO2 SLP164 T02940128=
202308151853 METAR KCLM 151853Z AUTO 06009G16KT 10SM CLR 29/13 A3003 RMK AO2 SLP168 T02940128=
202308151753 METAR KCLM 151753Z AUTO 07009KT 10SM CLR 27/13 A3004 RMK AO2 SLP170 T02720128 10272 20156 51008=
202308151653 METAR KCLM 151653Z AUTO 07010KT 10SM CLR 26/13 A3003 RMK AO2 SLP166 T02610128=
202308151553 METAR KCLM 151553Z AUTO 09010KT 10SM CLR 27/13 A3002 RMK AO2 SLP164 T02670128=
202308151453 METAR KCLM 151453Z AUTO 09007KT 10SM CLR 26/13 A3001 RMK AO2 SLP161 T02560128 53009=
202308151353 METAR KCLM 151353Z AUTO 11005KT 10SM CLR 21/13 A3000 RMK AO2 SLP157 T02060128=
202308151253 METAR KCLM 151253Z AUTO 00000KT 10SM CLR 17/12 A2999 RMK AO2 SLP152 T01670117=
202308151153 METAR KCLM 151153Z AUTO 00000KT 10SM CLR 17/12 A2998 RMK AO2 SLP152 T01720117 10200 20161 53002=
202308151053 METAR KCLM 151053Z AUTO 00000KT 10SM CLR 17/12 A2998 RMK AO2 SLP151 T01720117=
202308150953 METAR KCLM 150953Z AUTO 00000KT 10SM CLR 17/12 A2998 RMK AO2 SLP150 T01670117=
202308150853 METAR KCLM 150853Z AUTO 00000KT 10SM CLR 17/12 A2998 RMK AO2 SLP150 T01670117 53004=
202308150753 METAR KCLM 150753Z AUTO 00000KT 10SM CLR 18/13 A2997 RMK AO2 SLP147 T01780128 403330156=
202308150653 METAR KCLM 150653Z AUTO 00000KT 10SM CLR 18/13 A2997 RMK AO2 SLP145 T01830133=
202308150553 METAR KCLM 150553Z AUTO 00000KT 10SM CLR 19/13 A2997 RMK AO2 SLP145 T01940133 10333 20194 51006=
202308150453 METAR KCLM 150453Z AUTO 00000KT 10SM CLR 21/12 A2997 RMK AO2 SLP145 T02110122=
202308150353 METAR KCLM 150353Z AUTO 00000KT 10SM CLR 23/12 A2996 RMK AO2 SLP142 T02330122=
202308150253 METAR KCLM 150253Z AUTO 09005KT 10SM CLR 30/12 A2995 RMK AO2 SLP139 T03000122 56015=
202308150153 METAR KCLM 150153Z AUTO 09004KT 10SM CLR 32/12 A2995 RMK AO2 SLP140 T03220122=
202308150053 METAR KCLM 150053Z AUTO 07008KT 10SM CLR 32/12 A2997 RMK AO2 SLP147 T03220122=
202308142353 METAR KCLM 142353Z AUTO 08010KT 10SM CLR 33/13 A2999 RMK AO2 SLP154 T03280128 10328 20283 56017=
202308142253 METAR KCLM 142253Z AUTO 08008KT 10SM CLR 33/13 A3000 RMK AO2 SLP158 T03280133=
202308142153 METAR KCLM 142153Z AUTO 11009KT 10SM CLR 32/13 A3003 RMK AO2 SLP165 T03220128=
202308142053 METAR KCLM 142053Z AUTO 09008KT 10SM CLR 31/13 A3004 RMK AO2 SLP171 T03060133 56013=
202308141953 METAR KCLM 141953Z AUTO 08007KT 10SM CLR 31/13 A3005 RMK AO2 SLP173 T03110133=
202308141853 METAR KCLM 141853Z AUTO 09007KT 10SM CLR 30/13 A3006 RMK AO2 SLP178 T03000133=
202308141753 METAR KCLM 141753Z AUTO 09008KT 10SM CLR 28/14 A3008 RMK AO2 SLP184 T02830139 10283 20156 50003=
202308141653 METAR KCLM 141653Z AUTO 10012KT 10SM CLR 27/13 A3009 RMK AO2 SLP187 T02720133=
202308141553 METAR KCLM 141553Z AUTO 09010KT 10SM CLR 27/14 A3008 RMK AO2 SLP185 T02670139=
202308141453 METAR KCLM 141453Z AUTO 10007KT 9SM CLR 25/13 A3007 RMK AO2 SLP181 T02500128 51008=
202308141353 METAR KCLM 141353Z AUTO 16003KT 10SM CLR 19/12 A3007 RMK AO2 SLP180 T01890122=
202308141253 METAR KCLM 141253Z AUTO 00000KT 10SM CLR 16/12 A3006 RMK AO2 SLP176 T01610117=
202308141153 METAR KCLM 141153Z AUTO 00000KT 10SM CLR 17/12 A3005 RMK AO2 SLP173 T01670117 10189 20156 50001=
202308141053 METAR KCLM 141053Z AUTO 00000KT 10SM CLR 16/12 A3005 RMK AO2 SLP173 T01610117=
202308140953 METAR KCLM 140953Z AUTO 00000KT 10SM CLR 18/12 A3005 RMK AO2 SLP172 T01780122=
202308140853 METAR KCLM 140853Z AUTO 00000KT 10SM CLR 19/12 A3004 RMK AO2 SLP172 T01890117 56004=
202308140753 METAR KCLM 140753Z AUTO 00000KT 10SM CLR 18/12 A3005 RMK AO2 SLP174 T01780122 403390139=
202308140653 METAR KCLM 140653Z AUTO 00000KT 10SM CLR 18/13 A3005 RMK AO2 SLP175 T01830133=
202308140553 METAR KCLM 140553Z AUTO 00000KT 10SM CLR 19/13 A3006 RMK AO2 SLP176 T01890133 10339 20189 56004=
202308140453 METAR KCLM 140453Z AUTO 22004KT 10SM CLR 19/13 A3006 RMK AO2 SLP178 T01890133=
202308140353 METAR KCLM 140353Z AUTO 00000KT 10SM CLR 20/14 A3006 RMK AO2 SLP178 T02000139=
202308140253 METAR KCLM 140253Z AUTO 29003KT 10SM CLR 23/13 A3007 RMK AO2 SLP180 T02280133 56009=
202308140153 METAR KCLM 140153Z AUTO 29009KT 10SM CLR 23/13 A3007 RMK AO2 SLP182 T02330128=
202308140053 METAR KCLM 140053Z AUTO 08004KT 10SM CLR 34/10 A3007 RMK AO2 SLP182 T03390100=
202308132353 METAR KCLM 132353Z AUTO VRB05KT 10SM CLR 33/12 A3010 RMK AO2 SLP189 T03330117 10333 20267 58021=
202308132253 METAR KCLM 132253Z AUTO VRB06KT 10SM CLR 33/11 A3012 RMK AO2 SLP197 T03280111=
202308132153 METAR KCLM 132153Z AUTO 10006KT 10SM CLR 31/12 A3014 RMK AO2 SLP206 T03060122=
202308132053 METAR KCLM 132053Z AUTO 10007KT 10SM CLR 30/13 A3016 RMK AO2 SLP211 T03000128 58013=
202308131953 METAR KCLM 131953Z AUTO 08007KT 10SM CLR 28/14 A3017 RMK AO2 SLP216 T02830139=
202308131853 METAR KCLM 131853Z AUTO 11007KT 10SM CLR 28/14 A3019 RMK AO2 SLP221 T02780144=
202308131753 METAR KCLM 131753Z AUTO 08007KT 10SM CLR 27/14 A3020 RMK AO2 SLP224 T02670139 10272 20139 58004=
202308131653 METAR KCLM 131653Z AUTO 10009KT 10SM CLR 26/14 A3020 RMK AO2 SLP226 T02610139=
202308131553 METAR KCLM 131553Z AUTO 10010KT 10SM CLR 24/14 A3021 RMK AO2 SLP229 T02440139=
202308131453 METAR KCLM 131453Z AUTO 12005KT 10SM CLR 24/14 A3021 RMK AO2 SLP228 T02390139 53005=
202308131353 METAR KCLM 131353Z AUTO 11009KT 10SM CLR 21/13 A3020 RMK AO2 SLP225 T02110128=
202308131253 METAR KCLM 131253Z AUTO 00000KT 10SM CLR 16/11 A3019 RMK AO2 SLP223 T01560106=
202308131153 METAR KCLM 131153Z AUTO 00000KT 10SM CLR 14/11 A3019 RMK AO2 SLP223 T01440106 10161 20139 58001=
202308131053 METAR KCLM 131053Z AUTO 00000KT 10SM CLR 16/11 A3020 RMK AO2 SLP226 T01560111=
202308130953 METAR KCLM 130953Z AUTO 00000KT 10SM CLR 14/11 A3020 RMK AO2 SLP226 T01390106=
202308130853 METAR KCLM 130853Z AUTO 00000KT 10SM CLR 14/11 A3020 RMK AO2 SLP224 T01440111 58001=
202308130753 METAR KCLM 130753Z AUTO 21003KT 10SM CLR 14/12 A3020 RMK AO2 SLP225 T01440117 402390139=
202308130653 METAR KCLM 130653Z AUTO 00000KT 10SM CLR 14/12 A3020 RMK AO2 SLP227 T01440117=
202308130553 METAR KCLM 130553Z AUTO 26005KT 10SM CLR 16/12 A3020 RMK AO2 SLP226 T01610122 10228 20156 53001=
202308130453 METAR KCLM 130453Z AUTO 29005KT 10SM CLR 17/12 A3019 RMK AO2 SLP224 T01720122=
202308130353 METAR KCLM 130353Z AUTO 27006KT 10SM CLR 18/12 A3020 RMK AO2 SLP224 T01830122=
202308130253 METAR KCLM 130253Z AUTO 29004KT 10SM CLR 21/13 A3020 RMK AO2 SLP225 T02060128 56012=
202308130153 METAR KCLM 130153Z AUTO 28006KT 10SM CLR 22/13 A3021 RMK AO2 SLP227 T02220133=
202308130053 METAR KCLM 130053Z AUTO 30007KT 10SM CLR 22/14 A3022 RMK AO2 SLP231 T02170139=
202308122353 METAR KCLM 122353Z AUTO 29008KT 10SM CLR 21/13 A3023 RMK AO2 SLP236 T02110133 10239 20200 53001=
202308122253 METAR KCLM 122253Z AUTO 28008KT 10SM CLR 22/13 A3023 RMK AO2 SLP235 T02170133=
202308122153 METAR KCLM 122153Z AUTO 32005KT 10SM CLR 23/13 A3023 RMK AO2 SLP234 T02330133=
202308122053 METAR KCLM 122053Z AUTO 04004KT 10SM CLR 23/13 A3023 RMK AO2 SLP235 T02330128 51003=
202308121953 METAR KCLM 121953Z AUTO 35006KT 10SM CLR 22/13 A3023 RMK AO2 SLP234 T02220128=
202308121853 METAR KCLM 121853Z AUTO 30006KT 10SM CLR 22/13 A3022 RMK AO2 SLP233 T02170128=
202308121753 METAR KCLM 121753Z AUTO 01004KT 10SM CLR 22/13 A3022 RMK AO2 SLP232 T02170128 10217 20144 51008=
202308121653 METAR KCLM 121653Z AUTO VRB04KT 10SM CLR 21/13 A3021 RMK AO2 SLP230 T02060128=
202308121553 METAR KCLM 121553Z AUTO 28006KT 10SM CLR 20/12 A3020 RMK AO2 SLP227 T02000117=
202308121453 METAR KCLM 121453Z AUTO 24006KT 10SM CLR 18/11 A3019 RMK AO2 SLP223 T01780111 51009=
202308121353 METAR KCLM 121353Z AUTO 26005KT 10SM CLR 15/11 A3018 RMK AO2 SLP220 T01500111=
202308121253 METAR KCLM 121253Z AUTO 26004KT 10SM CLR 15/11 A3018 RMK AO2 SLP218 T01500111=
202308121153 METAR KCLM 121153Z AUTO 24006KT 10SM CLR 16/11 A3017 RMK AO2 SLP214 T01610111 10178 20156 50005=
202308121053 METAR KCLM 121053Z AUTO 25006KT 10SM CLR 16/11 A3017 RMK AO2 SLP215 T01560111=
202308120953 METAR KCLM 120953Z AUTO 27007KT 10SM CLR 16/12 A3016 RMK AO2 SLP212 T01610117=
202308120853 METAR KCLM 120853Z AUTO 25008KT 10SM CLR 17/12 A3015 RMK AO2 SLP209 T01720117 53006=
202308120753 METAR KCLM 120753Z AUTO 27009KT 10SM CLR 17/12 A3016 RMK AO2 SLP211 T01670117 402280128=
202308120653 METAR KCLM 120653Z AUTO 26008KT 10SM CLR 18/12 A3013 RMK AO2 SLP201 T01780122=
202308120553 METAR KCLM 120553Z AUTO 26005KT 10SM CLR 17/13 A3014 RMK AO2 SLP204 T01670128 10222 20161 51008=
202308120453 METAR KCLM 120453Z AUTO 26008KT 10SM CLR 17/13 A3013 RMK AO2 SLP201 T01720128=
202308120353 METAR KCLM 120353Z AUTO 28009KT 10SM CLR 18/13 A3012 RMK AO2 SLP199 T01830128=
202308120253 METAR KCLM 120253Z AUTO 27010G15KT 10SM CLR 19/12 A3011 RMK AO2 SLP196 T01940122 53005=
202308120153 METAR KCLM 120153Z AUTO 28011G16KT 10SM CLR 20/12 A3010 RMK AO2 SLP193 T02000122=
202308120053 METAR KCLM 120053Z AUTO 29007G16KT 10SM CLR 22/12 A3010 RMK AO2 SLP190 T02170117=
202308112353 METAR KCLM 112353Z AUTO 30009KT 10SM CLR 22/12 A3010 RMK AO2 SLP190 T02220122 10228 20194 56002=
202308112253 METAR KCLM 112253Z AUTO 29010KT 10SM CLR 22/12 A3010 RMK AO2 SLP191 T02220122=
202308112153 METAR KCLM 112153Z AUTO 29010KT 10SM FEW041 23/12 A3010 RMK AO2 SLP191 T02280117=
202308112053 METAR KCLM 112053Z AUTO 30009KT 280V340 10SM SCT042 22/12 A3010 RMK AO2 SLP193 T02170122 53006=
202308111953 METAR KCLM 111953Z AUTO VRB06G15KT 10SM CLR 22/13 A3009 RMK AO2 SLP189 T02170128=
202308111853 METAR KCLM 111853Z AUTO 30007KT 270V350 10SM CLR 21/13 A3009 RMK AO2 SLP187 T02110128=
202308111753 METAR KCLM 111753Z AUTO 32009KT 10SM CLR 20/13 A3008 RMK AO2 SLP186 T02000128 10200 20139 53009=
202308111653 METAR KCLM 111653Z AUTO 30007KT 10SM CLR 18/12 A3007 RMK AO2 SLP182 T01830122=
202308111553 METAR KCLM 111553Z AUTO 00000KT 9SM SCT045 18/12 A3006 RMK AO2 SLP179 T01830117=
202308111453 METAR KCLM 111453Z AUTO 24004KT 10SM FEW043 17/12 A3006 RMK AO2 SLP177 T01670117 53007=
202308111353 METAR KCLM 111353Z AUTO 24004KT 10SM CLR 15/11 A3005 RMK AO2 SLP175 T01500111=
202308111253 METAR KCLM 111253Z AUTO 24005KT 10SM CLR 14/11 A3003 RMK AO2 SLP170 T01440111=
202308111153 METAR KCLM 111153Z AUTO 24006KT 10SM CLR 14/12 A3004 RMK AO2 SLP171 T01440117 10161 20128 53002=
202308111053 METAR KCLM 111053Z AUTO 26004KT 10SM CLR 14/11 A3003 RMK AO2 SLP170 T01440111=
202308110953 METAR KCLM 110953Z AUTO 23003KT 10SM CLR 13/11 A3003 RMK AO2 SLP168 T01330111=
202308110853 METAR KCLM 110853Z AUTO 26003KT 10SM CLR 13/11 A3003 RMK AO2 SLP169 T01330111 58001=
202308110753 METAR KCLM 110753Z AUTO 25005KT 10SM CLR 14/11 A3003 RMK AO2 SLP168 T01390111 402220128=
202308110653 METAR KCLM 110653Z AUTO 25005KT 10SM CLR 15/12 A3003 RMK AO2 SLP170 T01500117=
202308110553 METAR KCLM 110553Z AUTO 25006KT 10SM CLR 16/12 A3003 RMK AO2 SLP168 T01610117 10200 20161 56001=
202308110453 METAR KCLM 110453Z AUTO 26008KT 10SM CLR 17/12 A3003 RMK AO2 SLP168 T01670117=
202308110353 METAR KCLM 110353Z AUTO 28006KT 10SM SCT055 17/12 A3004 RMK AO2 SLP170 T01720117=
202308110253 METAR KCLM 110253Z AUTO 30006KT 10SM OVC055 19/12 A3004 RMK AO2 SLP170 T01940122 58002=
202308110153 METAR KCLM 110153Z AUTO 29005KT 10SM BKN034 OVC060 19/13 A3004 RMK AO2 SLP171 T01940128=
202308110053 METAR KCLM 110053Z AUTO 33007KT 10SM OVC038 20/13 A3004 RMK AO2 SLP172 T02000128=
202308102353 METAR KCLM 102353Z AUTO 30007KT 10SM SCT033 OVC055 20/13 A3004 RMK AO2 SLP172 T02000128 10222 20189 58001=
202308102253 METAR KCLM 102253Z AUTO 31004KT 10SM OVC042 19/13 A3005 RMK AO2 SLP174 T01940128=
202308102153 METAR KCLM 102153Z AUTO 29006KT 10SM BKN043 OVC050 19/13 A3005 RMK AO2 SLP174 T01940128=
202308102053 METAR KCLM 102053Z AUTO 30010KT 10SM OVC048 19/13 A3004 RMK AO2 SLP174 T01940128 51010=
202308101953 METAR KCLM 101953Z AUTO 30010G18KT 280V340 10SM SCT050 21/13 A3003 RMK AO2 SLP168 T02110133=
202308101853 METAR KCLM 101853Z AUTO 29011KT 10SM BKN049 19/13 A3003 RMK AO2 SLP169 T01890133=
202308101753 METAR KCLM 101753Z AUTO 31010G16KT 10SM CLR 20/12 A3001 RMK AO2 SLP163 T02000122 10211 20161 50004=
202308101653 METAR KCLM 101653Z AUTO 30008KT 10SM CLR 20/13 A3002 RMK AO2 SLP163 T02000128=
202308101553 METAR KCLM 101553Z AUTO 29006KT 10SM CLR 19/12 A3001 RMK AO2 SLP161 T01890122=
202308101453 METAR KCLM 101453Z AUTO 30007KT 10SM BKN050 16/12 A3000 RMK AO2 SLP159 T01610122 53011=
202308101353 METAR KCLM 101353Z AUTO 24006KT 10SM OVC050 17/12 A2998 RMK AO2 SLP152 T01720117=
202308101253 METAR KCLM 101253Z AUTO 23007KT 10SM SCT050 16/11 A2998 RMK AO2 SLP151 T01610111=
202308101153 METAR KCLM 101153Z AUTO 25006KT 10SM OVC050 17/11 A2997 RMK AO2 SLP147 70005 T01720111 10172 20128 50003=
202308101053 METAR KCLM 101053Z AUTO 26009KT 10SM OVC055 17/11 A2998 RMK AO2 SLP151 T01670111=
202308100953 METAR KCLM 100953Z AUTO 26006KT 10SM OVC055 16/11 A2997 RMK AO2 SLP148 T01610111=
202308100853 METAR KCLM 100853Z AUTO 27005KT 10SM FEW046 14/11 A2996 RMK AO2 SLP145 T01390106 51005=
202308100753 METAR KCLM 100753Z AUTO 25006KT 10SM BKN045 14/11 A2996 RMK AO2 SLP145 T01440111 402060133=
202308100653 METAR KCLM 100653Z AUTO VRB03KT 10SM CLR 13/11 A2995 RMK AO2 SLP142 T01330106=
202308100553 METAR KCLM 100553Z AUTO 00000KT 10SM OVC047 16/11 A2994 RMK AO2 SLP140 T01560111 10194 20156 52005=
202308100453 METAR KCLM 100453Z AUTO 26004KT 10SM CLR 16/12 A2994 RMK AO2 SLP137 T01560117=
202308100353 METAR KCLM 100353Z AUTO 26005KT 10SM FEW044 16/12 A2994 RMK AO2 SLP137 T01610117=
202308100253 METAR KCLM 100253Z AUTO 28009G18KT 10SM OVC041 18/12 A2993 RMK AO2 SLP135 T01780117 50000=
202308100153 METAR KCLM 100153Z AUTO 29011G18KT 10SM OVC036 19/13 A2993 RMK AO2 SLP134 T01890128=
202308100119 SPECI KCLM 100119Z AUTO 30007KT 270V340 10SM OVC031 18/13 A2993 RMK AO2 T01780128=
202308100053 METAR KCLM 100053Z AUTO 10SM OVC027 18/12 A2994 RMK AO2 SLP137 T01780122=
202308092353 METAR KCLM 092353Z AUTO 30007KT 260V330 10SM OVC024 18/13 A2993 RMK AO2 SLP134 60000 T01780128 10206 20161 58001=
202308092253 METAR KCLM 092253Z AUTO 29008KT 10SM OVC020 18/13 A2993 RMK AO2 SLP135 T01780128=
202308092153 METAR KCLM 092153Z AUTO 26008KT 10SM OVC022 18/13 A2994 RMK AO2 SLP137 T01830128=
202308092137 SPECI KCLM 092137Z AUTO 28004KT 10SM FEW010 SCT015 OVC022 18/14 A2994 RMK AO2 T01830139=
202308092124 SPECI KCLM 092124Z AUTO 28004KT 10SM BKN010 OVC022 18/14 A2994 RMK AO2 CIG 007V014 T01780144=
202308092053 METAR KCLM 092053Z AUTO 29005KT 10SM OVC006 17/14 A2993 RMK AO2 SLP136 60000 T01720144 53013=
202308092030 SPECI KCLM 092030Z AUTO 29006KT 10SM BKN006 OVC012 17/14 A2993 RMK AO2 T01720144=
202308092002 SPECI KCLM 092002Z AUTO VRB05KT 10SM BKN013 BKN018 OVC036 18/15 A2992 RMK AO2 T01780150=
202308091953 METAR KCLM 091953Z AUTO 35005KT 10SM FEW013 BKN018 OVC034 19/16 A2991 RMK AO2 RAB01E12 SLP127 P0000 T01940156=
202308091853 METAR KCLM 091853Z AUTO 32003KT 8SM FEW006 SCT029 OVC039 19/16 A2990 RMK AO2 RAB1754E29 SLP125 P0000 T01940161=
202308091831 SPECI KCLM 091831Z AUTO 35003KT 5SM HZ FEW007 BKN041 OVC050 19/16 A2990 RMK AO2 RAB1754E29 P0000 T01890161=
202308091753 METAR KCLM 091753Z AUTO 01004KT 8SM OVC040 18/15 A2989 RMK AO2 SLP123 60005 T01780150 10194 20161 55000=
202308091653 METAR KCLM 091653Z AUTO 06003KT 10SM OVC070 19/15 A2988 RMK AO2 SLP117 T01890150=
202308091553 METAR KCLM 091553Z AUTO 11006KT 10SM FEW041 OVC065 18/15 A2989 RMK AO2 RAE28 SLP119 P0001 T01780150=
202308091507 SPECI KCLM 091507Z AUTO 12005KT 3SM -RA BR OVC035 17/15 A2989 RMK AO2 P0001 T01720150=
202308091453 METAR KCLM 091453Z AUTO 13004KT 1 3/4SM -RA BR OVC035 17/15 A2990 RMK AO2 RAB05 SLP122 P0004 60004 T01670150 53007=
202308091442 SPECI KCLM 091442Z AUTO 16003KT 2SM -RA BR BKN037 OVC045 17/15 A2990 RMK AO2 RAB05 P0002 T01670150=
202308091353 METAR KCLM 091353Z AUTO 00000KT 8SM OVC048 16/14 A2989 RMK AO2 RAE1257B16E43 SLP119 P0000 T01610144=
202308091253 METAR KCLM 091253Z AUTO 00000KT 8SM -RA BKN055 OVC070 16/14 A2987 RMK AO2 SLP115 P0000 T01610144 $=
202308091153 METAR KCLM 091153Z AUTO 13003KT 10SM -RA OVC060 16/14 A2988 RMK AO2 RAB00 SLP115 P0001 60001 70001 T01610144 10178 20156 58008 $=
202308091053 METAR KCLM 091053Z AUTO 00000KT 10SM OVC070 16/14 A2989 RMK AO2 SLP119 T01560139 $=
202308090953 METAR KCLM 090953Z AUTO 21003KT 10SM FEW080 BKN100 16/14 A2989 RMK AO2 SLP121 T01610139 $=
202308090853 METAR KCLM 090853Z AUTO 00000KT 10SM BKN110 16/14 A2990 RMK AO2 RAB23E51 SLP123 P0000 60000 T01610139 56011 $=
202308090753 METAR KCLM 090753Z AUTO 23003KT 10SM OVC100 17/14 A2991 RMK AO2 RAE32 SLP127 P0000 T01670139 402330144=
202308090653 METAR KCLM 090653Z AUTO 24003KT 10SM -RA SCT090 BKN110 17/13 A2992 RMK AO2 RAB51 SLP130 P0000 T01670133=
202308090553 METAR KCLM 090553Z AUTO 23004KT 10SM CLR 17/13 A2993 RMK AO2 SLP135 T01670133 10211 20167 58010=
202308090453 METAR KCLM 090453Z AUTO 26004KT 10SM BKN080 17/13 A2994 RMK AO2 SLP139 T01720133=
202308090353 METAR KCLM 090353Z AUTO 26007KT 10SM SCT065 OVC080 18/13 A2996 RMK AO2 SLP143 T01830133=
202308090253 METAR KCLM 090253Z AUTO 27011KT 10SM FEW060 FEW085 19/13 A2996 RMK AO2 SLP144 T01890133 56007=
202308090153 METAR KCLM 090153Z AUTO 27010KT 10SM CLR 19/13 A2996 RMK AO2 SLP145 T01940128=
202308090053 METAR KCLM 090053Z AUTO 27012KT 10SM BKN065 BKN120 20/13 A2997 RMK AO2 SLP149 T02000128=
202308082353 METAR KCLM 082353Z AUTO 29008G15KT 10SM BKN070 OVC085 21/12 A2998 RMK AO2 SLP151 T02110122 10233 20194 58012=
202308082253 METAR KCLM 082253Z AUTO 29007KT 260V340 10SM CLR 23/13 A3000 RMK AO2 SLP156 T02280133=
202308082153 METAR KCLM 082153Z AUTO 29009KT 10SM CLR 21/13 A3001 RMK AO2 SLP161 T02110128=
202308082053 METAR KCLM 082053Z AUTO 30006KT 10SM CLR 22/13 A3002 RMK AO2 SLP164 T02220133 58008=
202308081953 METAR KCLM 081953Z AUTO 30009G16KT 10SM CLR 22/14 A3003 RMK AO2 SLP168 T02170139=
202308081853 METAR KCLM 081853Z AUTO VRB06KT 10SM CLR 21/14 A3004 RMK AO2 SLP170 T02110139=
202308081753 METAR KCLM 081753Z AUTO VRB04KT 10SM CLR 21/14 A3004 RMK AO2 SLP172 T02060139 10211 20144 58006=
202308081653 METAR KCLM 081653Z AUTO 34004KT 10SM BKN110 19/14 A3004 RMK AO2 SLP172 T01940139=
202308081624 SPECI KCLM 081624Z AUTO 26004KT 10SM FEW022 BKN120 19/14 A3005 RMK AO2 T01940139=
202308081604 SPECI KCLM 081604Z AUTO 30006KT 10SM FEW017 BKN022 BKN090 19/14 A3006 RMK AO2 T01940139=
202308081553 METAR KCLM 081553Z AUTO VRB04KT 10SM SCT022 BKN090 19/14 A3006 RMK AO2 SLP178 T01890139=
202308081453 METAR KCLM 081453Z AUTO 22003KT 9SM CLR 17/13 A3006 RMK AO2 SLP178 T01720133 55001=
202308081353 METAR KCLM 081353Z AUTO 23004KT 10SM CLR 16/13 A3006 RMK AO2 SLP177 T01560128=
202308081253 METAR KCLM 081253Z AUTO 23005KT 10SM CLR 16/13 A3006 RMK AO2 SLP177 T01560128=
202308081153 METAR KCLM 081153Z AUTO 24004KT 10SM CLR 15/13 A3006 RMK AO2 SLP179 T01500128 10172 20150 58005=
202308081053 METAR KCLM 081053Z AUTO 26005KT 10SM CLR 16/13 A3007 RMK AO2 SLP181 T01560128=
202308080953 METAR KCLM 080953Z AUTO 25007KT 10SM CLR 16/13 A3007 RMK AO2 SLP182 T01610133=
202308080853 METAR KCLM 080853Z AUTO 27008KT 10SM CLR 17/13 A3008 RMK AO2 SLP183 T01670133 58004=
202308080753 METAR KCLM 080753Z AUTO 28007KT 10SM CLR 17/13 A3008 RMK AO2 SLP185 T01720133 402280161=
202308080653 METAR KCLM 080653Z AUTO 27008KT 10SM CLR 17/13 A3009 RMK AO2 SLP187 T01670133=
202308080553 METAR KCLM 080553Z AUTO 26008KT 10SM CLR 17/13 A3009 RMK AO2 SLP188 T01670133 10217 20161 58003=
202308080453 METAR KCLM 080453Z AUTO 27004KT 10SM CLR 16/13 A3010 RMK AO2 SLP190 T01610133=
202308080353 METAR KCLM 080353Z AUTO 26006KT 10SM CLR 17/13 A3010 RMK AO2 SLP191 T01720133=
202308080253 METAR KCLM 080253Z AUTO 28009KT 10SM CLR 18/13 A3010 RMK AO2 SLP191 T01780133 55004=
202308080153 METAR KCLM 080153Z AUTO 30009KT 10SM CLR 19/13 A3010 RMK AO2 SLP190 T01940133=
202308080053 METAR KCLM 080053Z AUTO 31009KT 10SM CLR 21/14 A3011 RMK AO2 SLP193 T02060139=
202308072353 METAR KCLM 072353Z AUTO 31008G17KT 10SM CLR 22/14 A3011 RMK AO2 SLP195 T02170139 10228 20200 56013=
202308072253 METAR KCLM 072253Z AUTO 30009KT 10SM CLR 22/14 A3012 RMK AO2 SLP198 T02170139=
202308072153 METAR KCLM 072153Z AUTO 29009KT 10SM CLR 22/14 A3014 RMK AO2 SLP205 T02220139=
202308072053 METAR KCLM 072053Z AUTO 31009G17KT 10SM CLR 21/14 A3015 RMK AO2 SLP209 T02060139 51001=
202308071953 METAR KCLM 071953Z AUTO 29009G16KT 10SM CLR 22/14 A3015 RMK AO2 SLP208 T02220144=
202308071853 METAR KCLM 071853Z AUTO 31008G17KT 10SM CLR 21/14 A3015 RMK AO2 SLP210 T02110139=
202308071753 METAR KCLM 071753Z AUTO 29012KT 10SM FEW016 21/14 A3015 RMK AO2 SLP208 T02060139 10206 20172 55001=
202308071745 SPECI KCLM 071745Z AUTO 30011KT 10SM SCT016 20/14 A3015 RMK AO2 T02000139=
202308071653 METAR KCLM 071653Z AUTO 29010KT 10SM OVC016 20/14 A3014 RMK AO2 SLP207 T02000139=
202308071553 METAR KCLM 071553Z AUTO 31007KT 10SM OVC017 19/14 A3015 RMK AO2 SLP207 T01890139=
202308071520 SPECI KCLM 071520Z AUTO 28005KT 10SM BKN017 19/14 A3015 RMK AO2 T01890139=
202308071453 METAR KCLM 071453Z AUTO 31005KT 10SM FEW017 18/14 A3015 RMK AO2 SLP208 T01830144 53003=
202308071417 SPECI KCLM 071417Z AUTO 26004KT 10SM SCT014 17/14 A3015 RMK AO2 T01720139=
202308071353 METAR KCLM 071353Z AUTO 28006KT 10SM OVC014 18/14 A3015 RMK AO2 SLP207 T01780144=
202308071253 METAR KCLM 071253Z AUTO 29005KT 10SM OVC012 17/14 A3014 RMK AO2 SLP205 T01720139=
202308071216 SPECI KCLM 071216Z AUTO 29007KT 10SM OVC014 18/14 A3014 RMK AO2 T01780144=
202308071153 METAR KCLM 071153Z AUTO 28006KT 10SM OVC015 18/14 A3014 RMK AO2 SLP205 T01780144 10183 20172 58007=
202308071111 SPECI KCLM 071111Z AUTO 27005KT 10SM OVC015 18/15 A3015 RMK AO2 T01780150=
202308071053 METAR KCLM 071053Z AUTO 28006KT 10SM OVC014 18/15 A3016 RMK AO2 SLP210 T01780150=
202308071037 SPECI KCLM 071037Z AUTO 28004KT 10SM OVC015 18/15 A3016 RMK AO2 T01780150=
202308070953 METAR KCLM 070953Z AUTO 27008KT 10SM OVC010 18/15 A3016 RMK AO2 SLP212 T01780150=
202308070853 METAR KCLM 070853Z AUTO 28007KT 10SM OVC013 18/16 A3016 RMK AO2 SLP213 T01830156 58002=
202308070753 METAR KCLM 070753Z AUTO 28006KT 10SM OVC007 18/16 A3016 RMK AO2 SLP213 T01830161 402280156=
202308070708 SPECI KCLM 070708Z AUTO 26007KT 10SM BKN008 18/16 A3017 RMK AO2 CIG 006V010 T01780156=
202308070653 METAR KCLM 070653Z AUTO 27009KT 10SM FEW008 18/16 A3017 RMK AO2 SLP215 T01780156=
202308070553 METAR KCLM 070553Z AUTO 00000KT 10SM CLR 18/16 A3017 RMK AO2 SLP215 T01830156 10217 20183 58001=
202308070453 METAR KCLM 070453Z AUTO 26007KT 10SM FEW008 18/16 A3018 RMK AO2 SLP218 T01830156=
202308070441 SPECI KCLM 070441Z AUTO 25009KT 10SM SCT009 18/16 A3018 RMK AO2 T01830156=
202308070427 SPECI KCLM 070427Z AUTO 27009KT 10SM BKN008 18/16 A3018 RMK AO2 T01830156=
202308070419 SPECI KCLM 070419Z AUTO 27006KT 10SM BKN010 18/16 A3018 RMK AO2 CIG 008V011 T01830156=
202308070353 METAR KCLM 070353Z AUTO 25009KT 10SM FEW010 18/16 A3018 RMK AO2 SLP217 T01830156=
202308070253 METAR KCLM 070253Z AUTO 28011KT 10SM CLR 19/15 A3017 RMK AO2 SLP216 T01890150 55005=
202308070153 METAR KCLM 070153Z AUTO 30007KT 10SM CLR 21/15 A3017 RMK AO2 SLP216 T02060150=
202308070053 METAR KCLM 070053Z AUTO 28012KT 10SM CLR 21/15 A3017 RMK AO2 SLP217 T02060150=
202308062353 METAR KCLM 062353Z AUTO 27013KT 10SM CLR 19/15 A3019 RMK AO2 SLP221 T01940150 10228 20189 58007=
202308062253 METAR KCLM 062253Z AUTO 28010G17KT 10SM CLR 22/16 A3020 RMK AO2 SLP226 T02170156=
202308062153 METAR KCLM 062153Z AUTO 29008KT 10SM SCT016 22/16 A3021 RMK AO2 SLP227 T02220156=
202308062053 METAR KCLM 062053Z AUTO 33008G14KT 10SM CLR 21/15 A3021 RMK AO2 SLP229 T02110150 50001=
202308061953 METAR KCLM 061953Z AUTO 32008KT 10SM CLR 21/15 A3021 RMK AO2 SLP230 T02060150=
202308061853 METAR KCLM 061853Z AUTO 29010KT 10SM CLR 19/14 A3021 RMK AO2 SLP229 T01890144=
202308061813 SPECI KCLM 061813Z AUTO 29005KT 10SM SCT012 19/14 A3021 RMK AO2 T01940144=
202308061753 METAR KCLM 061753Z AUTO VRB06KT 10SM OVC012 19/14 A3021 RMK AO2 SLP228 T01890144 10189 20161 51008=
202308061707 SPECI KCLM 061707Z AUTO 31004KT 10SM BKN010 18/14 A3020 RMK AO2 T01780144=
202308061653 METAR KCLM 061653Z AUTO 29004KT 10SM FEW008 18/14 A3020 RMK AO2 SLP225 T01830144=
202308061639 SPECI KCLM 061639Z AUTO 28006KT 10SM SCT006 18/14 A3020 RMK AO2 T01780144=
202308061553 METAR KCLM 061553Z AUTO 26005KT 10SM OVC006 17/14 A3019 RMK AO2 SLP224 T01720144=
202308061453 METAR KCLM 061453Z AUTO 27006KT 10SM OVC006 17/14 A3018 RMK AO2 SLP220 T01670144 53011=
202308061423 SPECI KCLM 061423Z AUTO 30003KT 10SM BKN006 16/14 A3017 RMK AO2 CIG 005V010 T01610139=
202308061353 METAR KCLM 061353Z AUTO 29004KT 10SM FEW006 17/14 A3017 RMK AO2 SLP215 T01670139=
202308061328 SPECI KCLM 061328Z AUTO 00000KT 10SM FEW007 17/14 A3016 RMK AO2 T01670139=
202308061253 METAR KCLM 061253Z AUTO VRB04KT 10SM CLR 17/14 A3016 RMK AO2 SLP211 T01670144=
202308061153 METAR KCLM 061153Z AUTO 29008KT 10SM CLR 17/14 A3015 RMK AO2 SLP208 T01670139 10183 20156 52002=
202308061122 SPECI KCLM 061122Z AUTO 28005KT 10SM FEW007 17/14 A3015 RMK AO2 T01670139=
202308061053 METAR KCLM 061053Z AUTO 30004G15KT 10SM CLR 17/14 A3015 RMK AO2 SLP207 T01670139=
202308060953 METAR KCLM 060953Z AUTO 26006KT 10SM CLR 17/14 A3015 RMK AO2 SLP207 T01670139=
202308060853 METAR KCLM 060853Z AUTO VRB03KT 10SM CLR 16/13 A3014 RMK AO2 SLP206 T01560133 50002=
202308060809 SPECI KCLM 060809Z AUTO 28004KT 10SM FEW005 SCT080 SCT120 16/14 A3015 RMK AO2 T01610139=
202308060753 METAR KCLM 060753Z AUTO 29007KT 10SM SCT080 BKN120 16/14 A3015 RMK AO2 SLP208 T01610139 402220144=
202308060653 METAR KCLM 060653Z AUTO 32007KT 10SM FEW095 BKN120 18/14 A3014 RMK AO2 SLP204 T01780144=
202308060553 METAR KCLM 060553Z AUTO 29007KT 10SM CLR 18/14 A3014 RMK AO2 SLP204 T01780144 10206 20167 50002=
202308060453 METAR KCLM 060453Z AUTO 27011KT 10SM FEW006 17/14 A3014 RMK AO2 SLP206 T01720144=
202308060353 METAR KCLM 060353Z AUTO 29004KT 10SM FEW007 17/14 A3015 RMK AO2 SLP209 T01720144=
202308060253 METAR KCLM 060253Z AUTO 27014G19KT 10SM FEW110 18/14 A3013 RMK AO2 SLP202 T01830144 55004=
202308060153 METAR KCLM 060153Z AUTO 28014G21KT 10SM FEW080 OVC100 19/14 A3012 RMK AO2 SLP198 T01890144=
202308060053 METAR KCLM 060053Z AUTO 11004KT 10SM FEW100 20/14 A3015 RMK AO2 SLP210 T02000139=
202308052353 METAR KCLM 052353Z AUTO 35004KT 10SM FEW110 19/14 A3014 RMK AO2 SLP207 T01940139 10222 20189 57007=
202308052253 METAR KCLM 052253Z AUTO 27004KT 10SM CLR 20/14 A3015 RMK AO2 SLP208 T02000139=
202308052153 METAR KCLM 052153Z AUTO 34004KT 10SM CLR 19/14 A3016 RMK AO2 SLP211 T01940139=
202308052053 METAR KCLM 052053Z AUTO VRB03KT 10SM CLR 19/14 A3016 RMK AO2 SLP213 T01940139 55002=
202308051953 METAR KCLM 051953Z AUTO 34003KT 10SM CLR 20/14 A3016 RMK AO2 SLP213 T02000144=
202308051853 METAR KCLM 051853Z AUTO 00000KT 10SM CLR 20/14 A3017 RMK AO2 SLP215 T02000144=
202308051753 METAR KCLM 051753Z AUTO 00000KT 10SM CLR 19/14 A3017 RMK AO2 SLP215 T01890144 10189 20144 51005=
202308051653 METAR KCLM 051653Z AUTO 00000KT 10SM CLR 18/14 A3017 RMK AO2 SLP215 T01830139=
202308051553 METAR KCLM 051553Z AUTO 31003KT 10SM CLR 17/14 A3016 RMK AO2 SLP211 T01670139=
202308051453 METAR KCLM 051453Z AUTO 30003KT 10SM SCT001 15/13 A3015 RMK AO2 SLP211 T01500133 51003=
202308051445 SPECI KCLM 051445Z AUTO 30003KT 2SM BR BKN001 14/13 A3015 RMK AO2 T01440133=
202308051438 SPECI KCLM 051438Z AUTO 00000KT 1/2SM FG VV001 15/13 A3015 RMK AO2 T01500133=
202308051401 SPECI KCLM 051401Z AUTO 23003KT 1/4SM FG OVC001 14/13 A3015 RMK AO2 T01440133=
202308051353 METAR KCLM 051353Z AUTO 00000KT 3/4SM BR OVC002 14/13 A3015 RMK AO2 SLP209 T01440133=
202308051350 SPECI KCLM 051350Z AUTO 00000KT 1 1/2SM BR OVC002 14/13 A3015 RMK AO2 VIS 1/2V5=
202308051343 SPECI KCLM 051343Z AUTO 00000KT 3SM BR OVC002 14/13 A3015 RMK AO2 T01440133=
202308051337 SPECI KCLM 051337Z AUTO 00000KT 1SM BR VV002 14/13 A3015 RMK AO2 T01440133=
202308051316 SPECI KCLM 051316Z AUTO 29003KT 1/4SM FG VV002 14/13 A3015 RMK AO2 T01440133=
202308051253 METAR KCLM 051253Z AUTO 27003KT 1/2SM FG VV002 14/13 A3015 RMK AO2 SLP207 T01440128=
202308051235 SPECI KCLM 051235Z AUTO 30004KT 1 3/4SM BR OVC002 14/13 A3015 RMK AO2 T01440128=
202308051153 METAR KCLM 051153Z AUTO 00000KT 10SM OVC003 15/13 A3015 RMK AO2 SLP210 T01500133 10172 20150 53003=
202308051053 METAR KCLM 051053Z AUTO 28006KT 10SM OVC002 15/13 A3014 RMK AO2 SLP204 T01500133=
202308051035 SPECI KCLM 051035Z AUTO 29007KT 5SM BR OVC002 15/14 A3014 RMK AO2 T01500139=
202308051024 SPECI KCLM 051024Z AUTO 29007KT 2SM BR OVC002 15/14 A3014 RMK AO2 T01500139=
202308050953 METAR KCLM 050953Z AUTO 30008KT 10SM BKN003 16/14 A3014 RMK AO2 SLP205 T01560139=
202308050914 SPECI KCLM 050914Z AUTO 29009KT 10SM BKN003 16/14 A3014 RMK AO2 T01560139=
202308050853 METAR KCLM 050853Z AUTO 30009KT 10SM FEW004 16/14 A3014 RMK AO2 SLP206 T01610139 58002=
202308050753 METAR KCLM 050753Z AUTO 28006KT 10SM FEW004 16/14 A3015 RMK AO2 SLP209 T01560139 402390133=
202308050653 METAR KCLM 050653Z AUTO 29008KT 10SM CLR 17/14 A3015 RMK AO2 SLP207 T01670144=
202308050553 METAR KCLM 050553Z AUTO 30008G17KT 10SM CLR 17/14 A3015 RMK AO2 SLP209 T01720144 10233 20167 51004=
202308050453 METAR KCLM 050453Z AUTO 30007KT 10SM CLR 17/14 A3015 RMK AO2 SLP210 T01670144=
202308050353 METAR KCLM 050353Z AUTO 27006KT 10SM CLR 18/14 A3015 RMK AO2 SLP208 T01830144=
202308050253 METAR KCLM 050253Z AUTO 28010KT 10SM CLR 19/15 A3014 RMK AO2 SLP206 T01940150 55004=
202308050153 METAR KCLM 050153Z AUTO 28011KT 10SM CLR 22/15 A3014 RMK AO2 SLP203 T02170150=
202308050053 METAR KCLM 050053Z AUTO 29012G20KT 10SM CLR 22/15 A3015 RMK AO2 SLP207 T02220150=
202308042353 METAR KCLM 042353Z AUTO 29012G19KT 10SM CLR 23/14 A3015 RMK AO2 SLP208 T02280139 10239 20194 57008=
202308042253 METAR KCLM 042253Z AUTO 31010G18KT 280V350 10SM CLR 22/12 A3016 RMK AO2 SLP210 T02220122=
202308042153 METAR KCLM 042153Z AUTO 31008KT 10SM CLR 24/11 A3017 RMK AO2 SLP214 T02390111=
202308042053 METAR KCLM 042053Z AUTO 29009KT 10SM CLR 23/12 A3017 RMK AO2 SLP216 T02280117 56004=
202308041953 METAR KCLM 041953Z AUTO 31008KT 10SM CLR 22/13 A3017 RMK AO2 SLP216 T02220128=
202308041853 METAR KCLM 041853Z AUTO 31005KT 10SM CLR 21/12 A3018 RMK AO2 SLP218 T02110122=
202308041753 METAR KCLM 041753Z AUTO 33005KT 10SM CLR 19/12 A3018 RMK AO2 SLP220 T01940117 10194 20133 50004=
202308041653 METAR KCLM 041653Z AUTO 28006KT 10SM CLR 18/12 A3019 RMK AO2 SLP220 T01780122=
202308041553 METAR KCLM 041553Z AUTO 34003KT 10SM CLR 16/12 A3018 RMK AO2 SLP220 T01610122=
202308041453 METAR KCLM 041453Z AUTO 30006KT 10SM CLR 15/12 A3017 RMK AO2 SLP217 T01500117 53010=
202308041353 METAR KCLM 041353Z AUTO 31004KT 10SM CLR 14/11 A3016 RMK AO2 SLP212 T01390106=
202308041253 METAR KCLM 041253Z AUTO 29005KT 10SM CLR 15/10 A3014 RMK AO2 SLP206 T01500100=
202308041153 METAR KCLM 041153Z AUTO 26010KT 10SM CLR 16/11 A3014 RMK AO2 SLP206 T01610106 10172 20144 50002=
202308041053 METAR KCLM 041053Z AUTO 27006KT 10SM CLR 16/11 A3014 RMK AO2 SLP206 T01560106=
202308040953 METAR KCLM 040953Z AUTO 28006KT 10SM CLR 16/11 A3014 RMK AO2 SLP205 T01560111=
202308040853 METAR KCLM 040853Z AUTO 27006KT 10SM CLR 16/11 A3014 RMK AO2 SLP204 T01560111 50002=
202308040753 METAR KCLM 040753Z AUTO 28006KT 10SM CLR 16/12 A3014 RMK AO2 SLP205 T01560117 402330111=
202308040653 METAR KCLM 040653Z AUTO 28007KT 10SM CLR 16/12 A3013 RMK AO2 SLP202 T01610122=
202308040553 METAR KCLM 040553Z AUTO 26008KT 10SM CLR 17/12 A3013 RMK AO2 SLP202 T01670122 10222 20156 50004=
202308040453 METAR KCLM 040453Z AUTO 28006KT 10SM CLR 17/12 A3014 RMK AO2 SLP204 T01720122=
202308040353 METAR KCLM 040353Z AUTO 26009KT 10SM CLR 18/12 A3013 RMK AO2 SLP201 T01780117=
202308040253 METAR KCLM 040253Z AUTO 27011G17KT 10SM CLR 19/12 A3012 RMK AO2 SLP200 T01940117 56000=
202308040153 METAR KCLM 040153Z AUTO 27011KT 10SM CLR 21/12 A3012 RMK AO2 SLP200 T02060117=
202308040053 METAR KCLM 040053Z AUTO 30007KT 10SM CLR 22/13 A3012 RMK AO2 SLP199 T02170128=
202308032353 METAR KCLM 032353Z AUTO 29009G15KT 10SM CLR 22/13 A3012 RMK AO2 SLP200 T02170128 10233 20183 58004=
202308032253 METAR KCLM 032253Z AUTO 30009KT 10SM CLR 21/13 A3013 RMK AO2 SLP201 T02110128=
202308032153 METAR KCLM 032153Z AUTO 29006KT 10SM CLR 22/13 A3013 RMK AO2 SLP203 T02220128=
202308032053 METAR KCLM 032053Z AUTO 29007KT 10SM CLR 23/13 A3014 RMK AO2 SLP203 T02280128 58001=
202308031953 METAR KCLM 031953Z AUTO 30007KT 290V350 10SM CLR 22/13 A3014 RMK AO2 SLP205 T02220128=
202308031853 METAR KCLM 031853Z AUTO VRB05KT 10SM CLR 21/13 A3014 RMK AO2 SLP206 T02060128=
202308031753 METAR KCLM 031753Z AUTO VRB04KT 10SM CLR 18/12 A3014 RMK AO2 SLP205 T01830122 10189 20111 51004=
202308031653 METAR KCLM 031653Z AUTO 33005KT 10SM CLR 18/13 A3014 RMK AO2 SLP203 T01830128=
202308031553 METAR KCLM 031553Z AUTO 35003KT 10SM CLR 18/13 A3013 RMK AO2 SLP202 T01780133=
202308031453 METAR KCLM 031453Z AUTO 00000KT 10SM CLR 15/13 A3012 RMK AO2 SLP200 T01500133 51009=
202308031426 SPECI KCLM 031426Z AUTO 00000KT 10SM SCT001 14/13 A3012 RMK AO2 T01390128=
202308031421 SPECI KCLM 031421Z AUTO 00000KT 1 1/4SM BR BKN001 13/12 A3012 RMK AO2 T01330122=
202308031406 SPECI KCLM 031406Z AUTO 00000KT 1/4SM FG VV001 13/12 A3012 RMK AO2 T01280117=
202308031353 METAR KCLM 031353Z AUTO 29003KT M1/4SM FG VV001 12/11 A3012 RMK AO2 SLP199 T01220111=
202308031339 SPECI KCLM 031339Z AUTO 28005KT 1/4SM FG VV001 12/10 A3012 RMK AO2 T01170100=
202308031322 SPECI KCLM 031322Z AUTO 00000KT 1/2SM FG VV001 11/10 A3011 RMK AO2 T01110100=
202308031300 SPECI KCLM 031300Z AUTO 00000KT 1/4SM FG VV001 11/11 A3011 RMK AO2 T01110106=
202308031253 METAR KCLM 031253Z AUTO 00000KT 1/2SM FG VV001 12/11 A3011 RMK AO2 SLP195 T01220106=
202308031237 SPECI KCLM 031237Z AUTO 00000KT 1/2SM FG VV001 12/11 A3011 RMK AO2 T01170106=
202308031227 SPECI KCLM 031227Z AUTO 00000KT 1 1/4SM BR BKN001 12/10 A3010 RMK AO2 T01170100=
202308031224 SPECI KCLM 031224Z AUTO 00000KT 2 1/2SM BR SCT001 12/11 A3010 RMK AO2 VIS 3/4V5 T01170106=
202308031153 METAR KCLM 031153Z AUTO 00000KT 10SM CLR 12/10 A3010 RMK AO2 SLP191 T01170100 10161 20117 52001=
202308031053 METAR KCLM 031053Z AUTO 00000KT 8SM SCT001 13/12 A3010 RMK AO2 SLP190 T01280117=
202308031048 SPECI KCLM 031048Z AUTO 00000KT 2SM BR BKN001 13/11 A3010 RMK AO2=
202308031027 SPECI KCLM 031027Z AUTO 26005KT 1/2SM FG VV001 13/12 A3010 RMK AO2 T01280117=
202308031018 SPECI KCLM 031018Z AUTO 26005KT 1/4SM FG VV001 13/12 A3010 RMK AO2 T01280117=
202308031002 SPECI KCLM 031002Z AUTO 29004KT 1/2SM FG VV001 13/12 A3009 RMK AO2 T01330117=
202308030953 METAR KCLM 030953Z AUTO 30004KT 1 3/4SM BR BKN001 13/12 A3009 RMK AO2 SLP189 T01330117=
202308030950 SPECI KCLM 030950Z AUTO 31004KT 4SM BR SCT001 13/12 A3009 RMK AO2=
202308030853 METAR KCLM 030853Z AUTO 27006KT 10SM CLR 16/13 A3009 RMK AO2 SLP188 T01610133 55002=
202308030753 METAR KCLM 030753Z AUTO 27005KT 10SM CLR 16/13 A3009 RMK AO2 SLP187 T01560133 402390111=
202308030653 METAR KCLM 030653Z AUTO 29007KT 10SM CLR 16/14 A3009 RMK AO2 SLP187 T01610139=
202308030553 METAR KCLM 030553Z AUTO 27009KT 10SM CLR 16/13 A3010 RMK AO2 SLP190 T01610133 10228 20161 52005=
202308030453 METAR KCLM 030453Z AUTO 28006KT 10SM SCT070 17/13 A3009 RMK AO2 SLP190 T01670133=
202308030353 METAR KCLM 030353Z AUTO 00000KT 10SM CLR 18/13 A3008 RMK AO2 SLP185 T01780133=
202308030253 METAR KCLM 030253Z AUTO 36004KT 10SM CLR 20/13 A3008 RMK AO2 SLP185 T02000128 58002=
202308030153 METAR KCLM 030153Z AUTO 31006KT 10SM CLR 22/13 A3008 RMK AO2 SLP185 T02220128=
202308030053 METAR KCLM 030053Z AUTO VRB04KT 10SM CLR 22/12 A3009 RMK AO2 SLP187 T02220122=
202308022353 METAR KCLM 022353Z AUTO 29009KT 10SM FEW090 22/12 A3009 RMK AO2 SLP188 T02170122 10239 20189 58001=
202308022253 METAR KCLM 022253Z AUTO 31010KT 10SM CLR 23/13 A3009 RMK AO2 SLP187 T02330133=
202308022153 METAR KCLM 022153Z AUTO 29013G20KT 10SM CLR 23/13 A3009 RMK AO2 SLP189 T02330128=
202308022053 METAR KCLM 022053Z AUTO 29011G18KT 10SM CLR 23/11 A3009 RMK AO2 SLP188 T02330106 53004=
202308021953 METAR KCLM 021953Z AUTO 29011G15KT 10SM CLR 23/11 A3008 RMK AO2 SLP185 T02280111=
202308021853 METAR KCLM 021853Z AUTO 29008G16KT 10SM CLR 21/12 A3008 RMK AO2 SLP186 T02110122=
202308021753 METAR KCLM 021753Z AUTO VRB03KT 10SM CLR 21/12 A3008 RMK AO2 SLP184 T02060117 10206 20111 58000=
202308021653 METAR KCLM 021653Z AUTO 34005KT 10SM CLR 18/11 A3008 RMK AO2 SLP185 T01780111=
202308021553 METAR KCLM 021553Z AUTO VRB03KT 10SM CLR 18/11 A3008 RMK AO2 SLP186 T01780106=
202308021453 METAR KCLM 021453Z AUTO 00000KT 10SM CLR 16/11 A3008 RMK AO2 SLP184 T01560106 53012=
202308021353 METAR KCLM 021353Z AUTO 26009KT 10SM CLR 17/09 A3006 RMK AO2 SLP176 T01720094=
202308021253 METAR KCLM 021253Z AUTO 26007KT 10SM CLR 14/09 A3005 RMK AO2 SLP175 T01390094=
202308021153 METAR KCLM 021153Z AUTO 00000KT 10SM CLR 12/09 A3004 RMK AO2 SLP174 T01220094 10172 20122 55003=
202308021053 METAR KCLM 021053Z AUTO 26006KT 10SM CLR 16/09 A3004 RMK AO2 SLP172 T01610094=
202308020953 METAR KCLM 020953Z AUTO 25007KT 10SM CLR 16/09 A3005 RMK AO2 SLP174 T01610094=
202308020853 METAR KCLM 020853Z AUTO 26008KT 10SM CLR 16/09 A3005 RMK AO2 SLP176 T01560094 58009=
202308020753 METAR KCLM 020753Z AUTO 26008KT 10SM CLR 16/09 A3007 RMK AO2 SLP181 T01560094 402330122=
202308020653 METAR KCLM 020653Z AUTO 27007KT 10SM CLR 16/10 A3007 RMK AO2 SLP182 T01610100=
202308020553 METAR KCLM 020553Z AUTO 26004KT 10SM CLR 16/10 A3008 RMK AO2 SLP186 T01610100 10222 20156 50000=
202308020453 METAR KCLM 020453Z AUTO 27010G15KT 10SM CLR 17/10 A3009 RMK AO2 SLP189 T01720100=
202308020353 METAR KCLM 020353Z AUTO 25011KT 10SM CLR 18/10 A3008 RMK AO2 SLP186 T01780100=
202308020253 METAR KCLM 020253Z AUTO 28007KT 10SM CLR 19/10 A3008 RMK AO2 SLP185 T01940100 55007=
202308020153 METAR KCLM 020153Z AUTO 29010G19KT 10SM CLR 21/10 A3008 RMK AO2 SLP185 T02060100=
202308020053 METAR KCLM 020053Z AUTO 28008KT 10SM CLR 22/10 A3009 RMK AO2 SLP188 T02170100=
202308012353 METAR KCLM 012353Z AUTO 30008G17KT 10SM CLR 22/09 A3010 RMK AO2 SLP191 T02220094 10233 20183 58009=
202308012253 METAR KCLM 012253Z AUTO 31009KT 10SM CLR 23/09 A3011 RMK AO2 SLP195 T02280094=
202308012153 METAR KCLM 012153Z AUTO 30007KT 10SM CLR 23/11 A3012 RMK AO2 SLP198 T02280106=
202308012053 METAR KCLM 012053Z AUTO 32008KT 10SM CLR 22/11 A3013 RMK AO2 SLP200 T02220111 55004=
202308011953 METAR KCLM 011953Z AUTO VRB06KT 10SM CLR 22/11 A3012 RMK AO2 SLP200 T02220111=
202308011853 METAR KCLM 011853Z AUTO 33006KT 10SM CLR 20/11 A3013 RMK AO2 SLP203 T02000111=
202308011753 METAR KCLM 011753Z AUTO VRB03KT 10SM CLR 18/12 A3014 RMK AO2 SLP205 T01830117 10189 20122 50002=
202308011653 METAR KCLM 011653Z AUTO VRB03KT 10SM CLR 17/11 A3014 RMK AO2 SLP207 T01670111=
202308011553 METAR KCLM 011553Z AUTO 35004KT 10SM CLR 17/12 A3014 RMK AO2 SLP207 T01670117=
202308011453 METAR KCLM 011453Z AUTO 28006KT 10SM CLR 18/11 A3013 RMK AO2 SLP202 T01780106 53001=
202308011353 METAR KCLM 011353Z AUTO 30004KT 10SM CLR 14/10 A3013 RMK AO2 SLP202 T01390100=
202308011253 METAR KCLM 011253Z AUTO 29007KT 10SM CLR 12/10 A3013 RMK AO2 SLP202 T01220100=
202308011153 METAR KCLM 011153Z AUTO 28006KT 10SM CLR 13/11 A3013 RMK AO2 SLP202 T01280106 10167 20122 53003=
202308011053 METAR KCLM 011053Z AUTO 31005KT 10SM CLR 12/11 A3012 RMK AO2 SLP200 T01220106=
202308010953 METAR KCLM 010953Z AUTO 29008KT 10SM CLR 14/11 A3012 RMK AO2 SLP197 T01440106=
202308010853 METAR KCLM 010853Z AUTO 26009KT 10SM CLR 16/11 A3012 RMK AO2 SLP198 T01560111 56004=
202308010753 METAR KCLM 010753Z AUTO 27007KT 10SM CLR 15/11 A3012 RMK AO2 SLP200 T01500111 402110111=
202308010653 METAR KCLM 010653Z AUTO 25008KT 10SM CLR 16/12 A3013 RMK AO2 SLP202 T01610117=
202308010553 METAR KCLM 010553Z AUTO 25009KT 10SM CLR 16/12 A3013 RMK AO2 SLP202 T01610122 10206 20161 58002=
202308010453 METAR KCLM 010453Z AUTO 28009KT 10SM CLR 16/12 A3013 RMK AO2 SLP204 T01610122=
202308010353 METAR KCLM 010353Z AUTO 27009G17KT 10SM CLR 17/12 A3014 RMK AO2 SLP205 T01720122=
202308010253 METAR KCLM 010253Z AUTO 27010KT 10SM CLR 18/12 A3014 RMK AO2 SLP205 T01830117 56002=
202308010153 METAR KCLM 010153Z AUTO 28010G22KT 10SM CLR 19/11 A3014 RMK AO2 SLP206 T01940111=
202308010053 METAR KCLM 010053Z AUTO 30008G16KT 10SM CLR 20/11 A3014 RMK AO2 SLP206 T02000111=

# No short TAF reports from KCLM in databse.

###################################
#  large TAF from KCLM
###################################
202308312335 TAF KCLM 312335Z 0100/0124 VRB05KT P6SM BKN050 FM010500 25003KT
                       P6SM SCT025 BKN050 FM010800 25003KT P6SM
                       SCT005 OVC040 FM011700 07007KT P6SM BKN100=
202308311901 KCLM 311901Z 3119/0118 01005KT P6SM BKN020 OVC030 FM010100 30006KT
                       P6SM SCT025 BKN050 FM010800 25003KT P6SM
                       BKN005 OVC020 FM011500 07006KT P6SM BKN020
                       BKN040=
202308311737 TAF KCLM 311737Z 3118/0118 VRB05KT P6SM -SHRA BKN008 OVC020 FM312000
                       01005KT P6SM BKN020 OVC030 FM010100 30006KT
                       P6SM SCT025 BKN050 FM010800 25003KT P6SM
                       BKN005 OVC020 FM011500 07006KT P6SM BKN020
                       BKN040=
202308311459 KCLM 311459Z 3115/0112 VRB03KT 1SM -RADZ BR OVC003 FM311800 07005KT
                       P6SM -SHRA SCT005 BKN010 OVC020 FM010100
                       VRB03KT P6SM SCT020 OVC040=
202308311137 TAF KCLM 311137Z 3112/0112 VRB03KT P6SM OVC022 FM311800 07005KT
                       P6SM -SHRA BKN010 OVC020 FM010100 VRB03KT
                       P6SM SCT020 OVC040=
202308310526 TAF KCLM 310526Z 3106/0106 23003KT P6SM -SHRA SCT020 OVC100 FM310800
                       VRB03KT P6SM -SHRA OVC010 FM311100 VRB03KT
                       P6SM -SHRA OVC008
                      TEMPO 3112/3116 1SM BR OVC005 FM311800 07005KT
                       P6SM -SHRA SCT010 OVC020 FM010100 VRB03KT
                       P6SM SCT020 OVC040=
202308302338 TAF KCLM 302338Z 3100/3124 30007KT P6SM BKN025 OVC040 FM310700
                       VRB02KT P6SM -SHRA BKN012 OVC020 FM311100
                       VRB02KT P6SM -SHRA BKN008 OVC015 FM312200
                       VRB04KT P6SM -SHRA BKN020 OVC035=
202308301720 TAF KCLM 301720Z 3018/3118 30007KT P6SM SCT010 BKN050 FM310300
                       VRB05KT P6SM SCT025 BKN040 FM310700 VRB02KT
                       P6SM -SHRA BKN012 OVC020 FM311400 VRB04KT
                       P6SM -SHRA BKN008 OVC015=
202308301141 TAF KCLM 301141Z 3012/3112 26006KT P6SM SCT008 BKN025 FM302000
                       31006KT P6SM SCT025 BKN040 FM310700 31006KT
                       P6SM BKN012 OVC020=
202308301032 KCLM 301032Z 3011/3106 25007KT P6SM OVC008 FM301500 30008KT P6SM
                       SCT008 OVC025 FM302000 31006KT P6SM OVC035=
202308300527 TAF KCLM 300527Z 3006/3106 25005KT P6SM SCT035 SCT110 FM300800
                       27007KT P6SM BKN035 FM301200 30008KT P6SM
                       OVC025 FM301800 31006KT P6SM OVC030=
202308292331 TAF KCLM 292331Z 3000/3024 29010G20KT P6SM VCSH FEW040 SCT110 FM300800
                       27007KT P6SM OVC025 FM301800 30008KT P6SM
                       OVC035=
202308292109 KCLM 292109Z 2921/3018 29010G20KT P6SM VCSH SCT040 BKN060 FM300800
                       28007KT P6SM OVC025=
202308291737 TAF KCLM 291737Z 2918/3018 29008KT P6SM VCSH SCT040 BKN060 FM300800
                       28007KT P6SM OVC025=
202308291501 KCLM 291501Z 2915/3012 30006KT P6SM SCT040 BKN060 FM292100 29009KT
                       P6SM OVC035 FM300800 28007KT P6SM OVC025=
202308291144 TAF KCLM 291144Z 2912/3012 26007KT P6SM SCT070 BKN100 FM291500
                       30006KT P6SM OVC015 FM292100 29009KT P6SM
                       OVC035 FM300800 28007KT P6SM OVC025=
202308290534 TAF KCLM 290534Z 2906/3006 28006KT P6SM OVC025 FM291000 28005KT
                       P6SM SHRA OVC010 FM291500 30006KT P6SM OVC015
                       FM292200 20009KT P6SM OVC035=
202308282325 TAF KCLM 282325Z 2900/2924 27009KT P6SM VCTS BKN020CB FM290200
                       29008KT P6SM VCSH BKN030 FM290500 28006KT
                       P6SM VCSH OVC015 FM290800 28005KT P6SM SHRA
                       OVC008 FM291500 30006KT P6SM SHRA OVC015=
202308282055 KCLM 282055Z 2821/2918 27009KT P6SM VCTS BKN012CB FM282300 30010KT
                       P6SM VCSH BKN040 FM290500 28006KT P6SM VCSH
                       OVC015 FM290900 28005KT P6SM VCSH OVC010=
202308281958 KCLM 281958Z 2820/2918 27009KT P6SM VCTS BKN012CB FM282100 30010KT
                       P6SM VCSH BKN040 FM290500 28006KT P6SM VCSH
                       OVC015 FM290900 28005KT P6SM VCSH OVC010=
202308281906 KCLM 281906Z 2819/2918 27009KT P6SM VCSH BKN012
                      TEMPO 2819/2820 3SM TSRA OVC010CB FM282100
                       30010KT P6SM VCSH BKN040 FM290500 28006KT
                       P6SM VCSH OVC015 FM290900 28005KT P6SM VCSH
                       OVC010=
202308281729 TAF KCLM 281729Z 2818/2918 27009KT P6SM VCSH BKN012 FM282100 30010KT
                       P6SM VCSH BKN040 FM290500 28006KT P6SM VCSH
                       OVC015 FM290900 28005KT P6SM VCSH OVC010=
202308281510 KCLM 281510Z 2815/2912 27009KT P6SM BKN012 FM281900 29009KT P6SM
                       SCT050 FM282100 31010KT P6SM VCSH SCT025
                       FM290500 28006KT P6SM VCSH OVC015=
202308281123 TAF KCLM 281123Z 2812/2912 27009KT P6SM BKN012
                      TEMPO 2815/2818 OVC006 FM281900 29009KT P6SM
                       SCT050 FM282100 31010KT P6SM VCSH SCT025
                       FM290500 28006KT P6SM VCSH OVC015=
202308280800 KCLM 280800Z 2808/2906 28010G17KT P6SM FEW006 FM281000 29009KT
                       6SM BR BKN007 FM281200 28006KT 4SM BR OVC004
                       FM282100 31010KT P6SM VCSH BKN025=
202308280533 TAF KCLM 280533Z 2806/2906 28010G20KT 6SM BR FEW006 FM280800 29009KT
                       6SM BR BKN007 FM281200 28006KT 4SM BR OVC004
                       FM282100 31010KT P6SM VCSH BKN025=
202308272323 TAF KCLM 272323Z 2800/2824 31007KT P6SM SKC FM280300 28010G16KT
                       P6SM SKC FM280600 28007KT 6SM BR BKN007
                       FM282100 31010KT P6SM VCSH BKN025=
202308271734 TAF KCLM 271734Z 2718/2818 VRB04KT P6SM SKC FM272200 31007KT P6SM
                       SKC FM280300 28010G16KT P6SM SKC FM280600
                       28007KT 6SM BR BKN007=
202308271128 TAF KCLM 271128Z 2712/2812 VRB03KT P6SM FEW100 FM271700 VRB04KT
                       P6SM SKC FM272200 31007KT P6SM SKC FM280300
                       28010G16KT P6SM SKC FM281000 28007KT 6SM
                       BR BKN007=
202308270535 TAF KCLM 270535Z 2706/2806 23004KT P6SM FEW100 FM271100 25005KT
                       P6SM SCT005 FM271600 VRB03KT P6SM SKC FM272100
                       33007KT P6SM SKC=
202308262320 TAF KCLM 262320Z 2700/2724 07006KT P6SM SKC FM270400 23006KT P6SM
                       SKC FM271100 25005KT P6SM SCT005 FM271600
                       VRB03KT P6SM SKC FM271900 33007KT P6SM SKC=
202308261751 TAF KCLM 261751Z 2618/2718 07006KT P6SM SKC FM270100 27006KT P6SM
                       SKC FM271100 25005KT P6SM SCT005=
202308261125 TAF KCLM 261125Z 2612/2712 VRB03KT P6SM SKC FM261600 07006KT P6SM
                       SKC FM270100 27006KT P6SM SKC FM271100 25005KT
                       P6SM SCT005=
202308260525 TAF KCLM 260525Z 2606/2706 21005KT P6SM SKC FM261200 VRB03KT P6SM
                       SKC FM261700 07004KT P6SM SKC FM262200 08007KT
                       P6SM SKC=
202308252339 TAF KCLM 252339Z 2600/2624 11006KT P6SM SCT120 BKN200 FM260500
                       28005KT P6SM SCT200 FM261700 07004KT 6SM
                       HZ BKN200=
202308251738 TAF KCLM 251738Z 2518/2618 09008KT P6SM SCT120 BKN200 FM260500
                       28005KT P6SM SCT200 FM261700 07005KT 6SM
                       HZ BKN200=
202308251135 TAF KCLM 251135Z 2512/2612 23005KT P6SM SCT120 BKN200 FM251700
                       08005KT P6SM SCT120 BKN200 FM260100 27005KT
                       P6SM SCT200 FM260700 VRB03KT P6SM SKC=
202308250520 TAF KCLM 250520Z 2506/2606 VRB04KT P6SM FEW200 FM251700 08005KT
                       P6SM SCT200=
202308242337 TAF KCLM 242337Z 2500/2524 07008KT P6SM FEW200 FM250300 14005KT
                       P6SM FEW200 FM251700 08005KT P6SM FEW200=
202308241727 TAF KCLM 241727Z 2418/2518 07008KT P6SM FEW200 FM250200 14005KT
                       P6SM FEW200=
202308241129 TAF KCLM 241129Z 2412/2512 VRB03KT P6SM FEW003 FM241700 07008KT
                       P6SM FEW200 FM250200 26005KT P6SM FEW200=
202308240521 TAF KCLM 240521Z 2406/2506 VRB04KT P6SM SCT250 FM241000 VRB03KT
                       P6SM SCT020 SCT250 FM241600 06008KT P6SM
                       SCT250 FM250200 26005KT P6SM SCT250=
202308232326 TAF KCLM 232326Z 2400/2424 29008KT P6SM SCT250 FM240800 VRB03KT
                       P6SM FEW020 SCT250 FM241700 06008KT P6SM
                       SCT250=
202308231720 TAF KCLM 231720Z 2318/2418 30006KT P6SM OVC090 FM232100 31008KT
                       P6SM SCT250 FM240000 28006KT P6SM SCT250=
202308231137 TAF KCLM 231137Z 2312/2412 25006KT P6SM OVC060 FM231800 33006KT
                       P6SM BKN060 FM240000 28006KT P6SM SCT250=
202308230520 TAF KCLM 230520Z 2306/2406 27005KT P6SM VCSH SCT040 OVC070 FM231000
                       25003KT P6SM OVC040 FM231800 33006KT P6SM
                       BKN050 FM232100 30005KT P6SM SCT050 BKN100
                       FM240000 28005KT P6SM SCT100 SCT250=
202308222328 TAF KCLM 222328Z 2300/2324 VRB05KT P6SM VCSH SCT050 BKN100 FM230300
                       27005KT P6SM VCSH SCT040 OVC100 FM231000
                       24003KT P6SM OVC040 FM231800 33006KT P6SM
                       BKN050 FM232300 30009KT P6SM SCT080=
202308221733 TAF KCLM 221733Z 2218/2318 VRB05KT P6SM FEW040 FM222300 30005KT
                       P6SM VCSH SCT050 BKN100 FM230300 27005KT
                       P6SM VCSH SCT040 OVC100 FM231000 24003KT
                       P6SM OVC050=
202308221455 KCLM 221455Z 2215/2312 VRB03KT P6SM FEW040 FM221800 05005KT P6SM
                       SCT020 BKN050 FM222300 30005KT P6SM VCSH
                       SCT050 BKN100 FM230300 27005KT P6SM VCSH
                       SCT040 OVC100 FM231000 24003KT P6SM OVC050=
202308221135 TAF KCLM 221135Z 2212/2312 VRB03KT P6SM FEW040
                      TEMPO 2212/2216 5SM BR OVC015 FM221800 05005KT
                       P6SM SCT020 BKN050 FM222300 30005KT P6SM
                       VCSH SCT050 BKN100 FM230300 27005KT P6SM
                       VCSH SCT040 OVC100 FM231000 24003KT P6SM
                       OVC050=
202308220523 TAF KCLM 220523Z 2206/2306 27005KT P6SM SCT250 FM221100 VRB03KT
                       P6SM BKN025
                      TEMPO 2212/2216 5SM BR OVC015 FM221800 05005KT
                       P6SM SCT020 BKN050 FM222300 30005KT P6SM
                       SCT050 BKN100 FM230300 27005KT P6SM SCT040
                       OVC100=
202308212325 TAF KCLM 212325Z 2200/2224 30012G22KT P6SM SCT250 FM220800 VRB05KT
                       P6SM SCT250 FM221100 VRB03KT P6SM BKN025
                       FM221800 33005KT P6SM BKN050=
202308212055 KCLM 212055Z 2121/2218 30012G22KT P6SM SCT250 FM220800 27008KT
                       P6SM SCT250 FM221100 VRB03KT 6SM BR BKN025=
202308211732 TAF KCLM 211732Z 2118/2218 30010KT P6SM SCT250 FM212000 30012G22KT
                       P6SM SCT250 FM220800 27008KT P6SM SCT250
                       FM221100 VRB03KT 6SM BR BKN025=
202308211140 TAF KCLM 211140Z 2112/2212 28007KT P6SM SKC FM211600 31008KT P6SM
                       SKC FM212000 30012G22KT P6SM SKC FM220400
                       27008KT P6SM SCT250 FM221100 25003KT 6SM
                       BR BKN025=
202308210529 TAF KCLM 210529Z 2106/2206 27006KT P6SM SKC FM211200 28005KT P6SM
                       SKC FM211600 31008KT P6SM SKC FM212000 30012G21KT
                       P6SM SKC FM220400 27008KT P6SM SCT250=
202308202331 TAF KCLM 202331Z 2100/2124 30006KT P6SM SKC FM210300 27009KT P6SM
                       SKC FM211200 28005KT P6SM SKC FM211800 31008G17KT
                       P6SM SKC=
202308201720 TAF KCLM 201720Z 2018/2118 VRB05KT 6SM FU SKC FM202000 09006KT
                       5SM FU SKC FM210000 30006KT P6SM SKC FM210300
                       27007KT P6SM SKC=
202308201139 TAF KCLM 201139Z 2012/2112 14003KT 6SM HZ SKC FM201700 08007KT
                       6SM HZ OVC050 FM210000 30006KT P6SM SKC
                       FM210300 27007KT P6SM SKC=
202308200520 TAF KCLM 200520Z 2006/2106 VRB03KT 6SM HZ SKC FM201700 08007KT
                       6SM HZ SKC FM210000 30006KT P6SM SKC FM210300
                       27007KT P6SM SKC=
202308192320 TAF KCLM 192320Z 2000/2024 VRB05KT P6SM SKC FM200600 24005KT 6SM
                       HZ SKC FM201100 20003KT 6SM HZ SKC FM201800
                       08005KT 6SM HZ SKC=
202308191723 TAF KCLM 191723Z 1918/2018 09008KT P6SM SKC FM192300 30008KT P6SM
                       SKC FM200600 24005KT 6SM HZ SKC FM201100
                       20003KT 6SM HZ SKC=
202308191134 TAF KCLM 191134Z 1912/2012 VRB03KT P6SM SKC FM191700 09008KT P6SM
                       SKC FM192300 30008KT P6SM SKC=
202308190523 TAF KCLM 190523Z 1906/2006 VRB03KT P6SM SKC FM191200 12005KT P6SM
                       SKC FM191700 09008KT P6SM SKC FM192000 08006KT
                       5SM HZ SKC FM200100 30008KT 5SM HZ SKC=
202308182320 TAF KCLM 182320Z 1900/1924 29006KT P6SM SKC FM190300 VRB05KT P6SM
                       SKC FM191200 12005KT P6SM SKC FM191800 09008KT
                       P6SM SKC=
202308181720 TAF KCLM 181720Z 1818/1918 32008KT P6SM SKC FM190300 25005KT P6SM
                       SKC FM191200 12005KT P6SM SKC=
202308181138 TAF KCLM 181138Z 1812/1912 24006KT P6SM SKC FM181800 33008KT P6SM
                       SKC FM190300 28006KT P6SM SKC=
202308180533 TAF KCLM 180533Z 1806/1906 29012G18KT P6SM SCT250 FM181000 VRB04KT
                       P6SM SCT010 FM181700 31007KT P6SM SKC FM190300
                       28006KT P6SM SKC=
202308172320 TAF KCLM 172320Z 1800/1824 32005KT P6SM SCT250 FM180100 29012G18KT
                       P6SM SCT250 FM181000 29007KT P6SM SCT010
                       FM181800 31007KT P6SM SKC=
202308171721 TAF KCLM 171721Z 1718/1818 32005KT P6SM SCT250 FM180100 29012G18KT
                       P6SM SCT250 FM181000 29007KT P6SM BKN006=
202308171128 TAF KCLM 171128Z 1712/1812 VRB03KT P6SM SCT250 FM171900 31006KT
                       P6SM SCT250 FM180100 29012G18KT P6SM SCT250
                       FM181000 29008KT P6SM OVC006=
202308170532 TAF KCLM 170532Z 1706/1806 VRB02KT P6SM SKC FM171900 31006KT P6SM
                       SKC FM180100 29011G18KT P6SM FEW250=
202308162320 TAF KCLM 162320Z 1700/1724 07008KT P6SM SKC FM170100 29005KT P6SM
                       SKC FM170600 26002KT P6SM SKC FM171900 31006KT
                       P6SM SKC=
202308161720 TAF KCLM 161720Z 1618/1718 09008KT P6SM SKC FM170100 29005KT P6SM
                       SKC FM170600 26002KT P6SM SKC=
202308161129 TAF KCLM 161129Z 1612/1712 VRB02KT P6SM SKC FM161700 08007KT P6SM
                       SKC FM170100 29005KT P6SM SKC FM170600 VRB02KT
                       P6SM SKC=
202308160520 TAF KCLM 160520Z 1606/1706 VRB03KT P6SM SKC FM161700 08005KT P6SM
                       SKC FM170100 30004KT P6SM SKC=
202308152328 TAF KCLM 152328Z 1600/1624 08006KT P6SM SKC FM160200 31004KT P6SM
                       SKC FM160900 VRB02KT P6SM SKC FM161700 07005KT
                       P6SM SKC=
202308151732 TAF KCLM 151732Z 1518/1618 08007KT P6SM SKC FM160000 29005KT P6SM
                       SKC FM161000 VRB03KT P6SM SCT010 FM161700
                       07005KT P6SM SKC=
202308151120 TAF KCLM 151120Z 1512/1612 00000KT P6SM SKC FM151500 13005KT P6SM
                       SKC FM151700 08007KT P6SM SKC FM160200 29004KT
                       P6SM SKC FM161000 VRB04KT P6SM SCT010=
202308150520 TAF KCLM 150520Z 1506/1606 VRB03KT P6SM FEW250 FM151700 08006KT
                       P6SM FEW250 FM160200 30004KT P6SM FEW250=
202308142320 TAF KCLM 142320Z 1500/1524 09010KT P6SM FEW250 FM150200 VRB03KT
                       P6SM FEW250 FM150500 VRB05KT P6SM FEW250
                       FM151700 06007KT P6SM FEW250 FM152300 30005KT
                       P6SM FEW250=
202308141734 TAF KCLM 141734Z 1418/1518 09010KT P6SM FEW250 FM150200 VRB03KT
                       P6SM FEW250 FM150500 VRB06KT P6SM FEW250
                       FM151700 06007KT P6SM FEW250=
202308141135 TAF KCLM 141135Z 1412/1512 00000KT P6SM SKC FM141600 09010KT P6SM
                       SKC FM150200 VRB03KT P6SM SKC=
202308140520 TAF KCLM 140520Z 1406/1506 VRB03KT P6SM SKC FM141600 09007KT P6SM
                       SKC FM150200 VRB03KT P6SM SKC=
202308132320 TAF KCLM 132320Z 1400/1424 09008KT P6SM SKC FM140300 VRB03KT P6SM
                       SKC FM141600 09007KT P6SM SKC=
202308131720 TAF KCLM 131720Z 1318/1418 09008KT P6SM SKC FM140300 VRB03KT P6SM
                       SKC FM141000 20003KT P6SM SKC=
202308131142 TAF KCLM 131142Z 1312/1412 00000KT P6SM SKC FM131700 09008KT P6SM
                       SKC FM140300 VRB03KT P6SM SKC=
202308130520 TAF KCLM 130520Z 1306/1406 28004KT P6SM FEW250 FM130900 VRB03KT
                       P6SM SKC FM131700 09008KT P6SM SKC FM140300
                       VRB03KT P6SM SKC=
202308122324 TAF KCLM 122324Z 1300/1324 30008KT P6SM SCT250 FM130300 26004KT
                       P6SM FEW250 FM130900 VRB03KT P6SM SKC FM131700
                       09008KT P6SM SKC=
202308121735 TAF KCLM 121735Z 1218/1318 VRB05KT P6SM SCT250 FM130000 31008KT
                       P6SM SCT250=
202308121120 TAF KCLM 121120Z 1212/1312 25006KT P6SM SKC FM121800 32008KT P6SM
                       SCT250 FM130000 29006KT P6SM SCT250=
202308120535 TAF KCLM 120535Z 1206/1306 28008KT P6SM BKN150 FM121800 32008KT
                       P6SM SCT250=
202308112332 TAF KCLM 112332Z 1200/1224 29010G18KT P6SM SCT250 FM120600 28008KT
                       P6SM BKN150 FM121200 26005KT P6SM OVC050
                       FM122100 32008KT P6SM BKN250=
202308111735 TAF KCLM 111735Z 1118/1218 30007KT P6SM FEW050 FM112100 30010G18KT
                       P6SM SCT050 FM120600 28008KT P6SM BKN150
                       FM121200 26005KT P6SM OVC050=
202308111139 TAF KCLM 111139Z 1112/1212 28006KT P6SM FEW050 FM112100 30010G18KT
                       P6SM SCT050 FM120600 28008KT P6SM BKN150=
202308110539 TAF KCLM 110539Z 1106/1206 28006KT P6SM SCT050=
202308102339 TAF KCLM 102339Z 1100/1124 31005KT P6SM OVC040 FM110300 28006KT
                       P6SM SCT040 BKN060 FM110800 26004KT P6SM
                       BKN040 FM111700 32005KT P6SM BKN050=
202308101732 TAF KCLM 101732Z 1018/1118 30008KT P6SM SCT050 FM110300 28006KT
                       P6SM SCT040 BKN120 FM111000 26004KT P6SM
                       BKN040=
202308101125 TAF KCLM 101125Z 1012/1112 27006KT P6SM BKN050 FM101700 31006KT
                       P6SM BKN035 FM110300 28006KT P6SM SCT040
                       BKN120=
202308100541 TAF KCLM 100541Z 1006/1106 27006KT P6SM SCT045 FM101200 27006KT
                       P6SM BKN035 FM102200 27006KT P6SM SCT040=
202308092351 TAF KCLM 092351Z 1000/1024 29010G18KT P6SM OVC035
                      TEMPO 1000/1001 OVC020 FM100400 27006KT P6SM
                       OVC050 FM101000 26005KT P6SM OVC025=
202308092058 KCLM 092058Z 0921/1018 VRB05KT P6SM VCSH OVC050
                      TEMPO 0921/0922 OVC006 FM092200 31006KT P6SM
                       BKN050 FM100000 29010G18KT P6SM BKN050 FM100600
                       27006KT P6SM OVC050=
202308092024 KCLM 092024Z 0920/1018 VRB05KT P6SM VCSH OVC050
                      TEMPO 0920/0921 BKN015 FM092100 31006KT P6SM
                       BKN050 FM100000 29010G18KT P6SM BKN050 FM100600
                       27006KT P6SM OVC050=
202308091729 TAF KCLM 091729Z 0918/1018 VRB05KT P6SM VCSH OVC050 FM092100 31006KT
                       P6SM BKN050 FM100000 29010G18KT P6SM BKN050
                       FM100600 27006KT P6SM OVC050=
202308091504 KCLM 091504Z 0915/1012 26007KT P6SM VCSH OVC050
                      TEMPO 0915/0916 2SM -RA BR OVC030 FM092100
                       31006KT P6SM BKN050 FM100000 29010G18KT
                       P6SM BKN050 FM100600 27006KT P6SM OVC100=
202308091140 TAF KCLM 091140Z 0912/1012 28006KT P6SM -SHRA OVC070 FM091500 26007KT
                       P6SM VCSH OVC015 FM092100 31006KT P6SM BKN050
                       FM100000 29010G18KT P6SM BKN050 FM100600
                       27006KT P6SM OVC100=
202308090535 TAF KCLM 090535Z 0906/1006 26004KT P6SM BKN080 FM091200 28006KT
                       P6SM -RA SCT012 OVC035 FM091500 26007KT
                       6SM -RA OVC007 FM091900 28012KT P6SM BKN045
                       FM100000 29010G18KT P6SM BKN050=
202308082341 TAF KCLM 082341Z 0900/0924 30006KT P6SM BKN100 FM091200 28006KT
                       P6SM -RA SCT012 BKN020 OVC035 FM092100 28012KT
                       P6SM BKN045=
202308081725 TAF KCLM 081725Z 0818/0918 30006KT P6SM BKN100 FM091200 28006KT
                       P6SM -RA SCT012 BKN020 OVC035=
202308081523 KCLM 081523Z 0815/0912 23006KT P6SM BKN200 FM082100 28008KT P6SM
                       SCT050=
202308081138 TAF KCLM 081138Z 0812/0912 27008KT P6SM BKN200 FM081300 26006KT
                       P6SM OVC019 FM081700 32005KT P6SM OVC100
                       FM090000 28008KT P6SM SCT050=
202308080542 TAF KCLM 080542Z 0806/0906 27009KT P6SM OVC200 FM080900 27008KT
                       P6SM BKN025 OVC100 FM081700 32005KT P6SM
                       OVC100 FM090000 28008KT P6SM SCT050=
202308072329 TAF KCLM 072329Z 0800/0824 28015KT P6SM BKN050 FM080900 27007KT
                       P6SM OVC025 FM081700 32005KT P6SM OVC100=
202308071732 TAF KCLM 071732Z 0718/0818 29010KT P6SM OVC015 FM071900 28015KT
                       P6SM BKN050 FM080900 27007KT P6SM OVC025=
202308071132 TAF KCLM 071132Z 0712/0812 28006KT P6SM OVC015 FM071900 28008KT
                       P6SM BKN050=
202308070520 TAF KCLM 070520Z 0706/0806 26007KT P6SM VCSH FEW008 BKN100 OVC150
                       FM070700 27008KT 3SM BR VCSH OVC005 FM071300
                       27007KT 3SM BR OVC004 FM071800 30008KT P6SM
                       OVC020 FM072100 31010G20KT P6SM BKN050=
202308062330 TAF KCLM 062330Z 0700/0724 29011G18KT P6SM SCT150 FM070500 29012KT
                       P6SM VCSH SCT010 OVC025 FM070700 27008KT
                       3SM BR VCSH OVC005 FM071300 27007KT 3SM
                       BR OVC004 FM071800 30008KT P6SM OVC020 FM072200
                       31010G20KT P6SM BKN050=
202308061733 TAF KCLM 061733Z 0618/0718 31004KT P6SM BKN010 FM061900 29009KT
                       P6SM OVC060 FM062200 29012G18KT P6SM SCT040
                       BKN100 FM070600 29012KT P6SM VCSH SCT010
                       OVC025 FM071200 27007KT 3SM BR OVC005=
202308061502 KCLM 061502Z 0615/0712 26006KT P6SM FEW006 BKN120
                      TEMPO 0615/0617 OVC006 FM061900 29010KT P6SM
                       OVC060 FM062200 29018KT P6SM SCT040 BKN100
                       FM070900 29012KT P6SM VCSH SCT010 OVC025=
202308061138 TAF KCLM 061138Z 0612/0712 26006KT P6SM FEW006 BKN120 FM061900
                       29010KT P6SM OVC060 FM062200 29018KT P6SM
                       SCT040 BKN100 FM070900 29012KT P6SM VCSH
                       SCT010 OVC025=
202308060527 TAF KCLM 060527Z 0606/0706 27011KT P6SM FEW006 BKN120
                      TEMPO 0606/0609 BKN006 FM060900 27009KT P6SM
                       OVC006 FM061800 30010KT P6SM OVC100=
202308060317 KCLM 060317Z 0603/0624 27014G19KT P6SM FEW110 FM060900 27009KT
                       P6SM BKN150 FM061300 30008KT 3SM BR OVC010
                       FM061700 30010KT P6SM OVC080=
202308052344 TAF KCLM 052344Z 0600/0624 34004KT P6SM SCT150 FM060400 27009KT
                       P6SM BKN150 FM061300 30008KT 3SM BR OVC010
                       FM061700 30010KT P6SM OVC080=
202308051739 TAF KCLM 051739Z 0518/0618 VRB03KT P6SM OVC150 FM052100 32010KT
                       P6SM BKN150 FM060400 27009KT P6SM BKN150
                       FM061300 30008KT 3SM BR OVC010 FM061600
                       29008KT P6SM OVC080=
202308051258 KCLM 051258Z 0513/0612 27004KT 1SM BR BKN002 FM051600 32004KT P6SM
                       OVC010 FM052100 29010KT P6SM BKN150=
202308051139 TAF KCLM 051139Z 0512/0612 29009KT P6SM BKN003 FM051600 32004KT
                       P6SM OVC010 FM052100 29010KT P6SM BKN150=
202308050926 KCLM 050926Z 0509/0606 29009KT P6SM BKN004 FM051600 32004KT P6SM
                       OVC010 FM052100 29010KT P6SM BKN150=
202308050520 TAF KCLM 050520Z 0506/0606 30007KT P6SM BKN250 FM051000 26005KT
                       P6SM OVC007 FM051600 VRB04KT P6SM OVC010
                       FM051900 32007KT P6SM SCT150 BKN250=
202308042320 TAF KCLM 042320Z 0500/0524 30010G15KT P6SM SKC FM050600 29008KT
                       P6SM SCT010 SCT250 FM051000 VRB03KT P6SM
                       OVC007 FM051600 01004KT P6SM OVC010 FM052000
                       34005KT P6SM SCT020 BKN250=
202308041720 TAF KCLM 041720Z 0418/0518 28005KT P6SM SKC FM042100 30010G15KT
                       P6SM SKC FM050600 29008KT P6SM SCT010 FM051100
                       VRB03KT P6SM OVC007 FM051600 33004KT P6SM
                       OVC010=
202308041136 TAF KCLM 041136Z 0412/0512 27006KT P6SM SCT004 FM041600 28005KT
                       P6SM SKC FM042100 30010G15KT P6SM SKC FM050600
                       29008KT P6SM SCT010=
202308040520 TAF KCLM 040520Z 0406/0506 28006KT P6SM SKC FM041200 27007KT 2SM
                       BR BKN010 FM041700 30008KT P6SM FEW250 FM042300
                       30012KT P6SM FEW250=
202308032324 TAF KCLM 032324Z 0400/0424 30009KT P6SM SKC FM040300 28009KT P6SM
                       SKC FM041200 27007KT 2SM BR BKN010 FM041700
                       30008KT P6SM SCT250=
202308031734 TAF KCLM 031734Z 0318/0418 34005KT P6SM SKC FM032100 28011G20KT
                       P6SM SKC FM040300 28009KT P6SM SKC FM041200
                       27007KT 2SM BR BKN010=
202308031506 KCLM 031506Z 0315/0412 VRB03KT P6SM SKC FM032100 28011G20KT P6SM
                       SKC FM040300 29009KT P6SM SKC=
202308031359 KCLM 031359Z 0314/0412 00000KT 1/4SM FG VV001 FM031600 30007KT
                       P6SM SKC FM032100 28011G20KT P6SM SKC FM040300
                       29009KT P6SM SKC=
202308031244 KCLM 031244Z 0313/0412 00000KT 1/2SM FG BKN001 FM031600 30007KT
                       P6SM SKC FM032100 28011G20KT P6SM SKC FM040300
                       29009KT P6SM SKC=
202308031139 TAF KCLM 031139Z 0312/0412 00000KT P6SM SCT002 FM031600 30007KT
                       P6SM SKC FM032100 28011G20KT P6SM SKC FM040300
                       29009KT P6SM SKC=
202308031056 KCLM 031056Z 0311/0406 26005KT 2SM BR OVC001 FM031600 30007KT P6SM
                       SKC FM032300 28011KT P6SM SKC=
202308030522 TAF KCLM 030522Z 0306/0406 27006KT P6SM FEW070 FM030800 27005KT
                       5SM BR BKN007 FM031600 30007KT P6SM SKC
                       FM032300 28011KT P6SM SKC=
202308022322 TAF KCLM 022322Z 0300/0324 30010G19KT P6SM SKC FM030900 26006KT
                       P6SM SKC FM031600 30007KT P6SM SKC=
202308022102 KCLM 022102Z 0221/0318 29010G20KT P6SM SKC FM030900 26006KT P6SM
                       SKC=
202308021742 TAF KCLM 021742Z 0218/0318 34005KT P6SM SKC FM022100 29007KT P6SM
                       SKC FM030900 26006KT P6SM SKC=
202308021138 TAF KCLM 021138Z 0212/0312 26006KT P6SM SKC
                      TEMPO 0213/0216 SCT002 FM021800 30010KT P6SM
                       SKC FM030900 26006KT P6SM SKC=
202308020521 TAF KCLM 020521Z 0206/0306 27009KT P6SM SKC FM021200 26006KT P6SM
                       SKC FM021800 30009KT P6SM BKN250=
202308012336 TAF KCLM 012336Z 0200/0224 31012KT P6SM SKC FM020500 27009KT P6SM
                       SKC FM021600 31008KT P6SM BKN250=
202308011750 TAF KCLM 011750Z 0118/0218 34007KT P6SM SKC FM012100 29011KT P6SM
                       SKC FM020700 27010KT P6SM SKC FM021600 30006KT
                       P6SM BKN250=
202308011458 KCLM 011458Z 0115/0212 32007KT P6SM SKC FM012100 29011KT P6SM SKC
                       FM020700 26008KT P6SM SKC=
202308011122 TAF KCLM 011122Z 0112/0212 30005KT 3SM BR BKN004 FM011700 31006KT
                       P6SM SKC FM012100 29011KT P6SM SKC FM020700
                       26008KT P6SM SKC=
202308010521 TAF KCLM 010521Z 0106/0206 28009KT P6SM SKC FM011000 27006KT P6SM
                       SKC FM012100 29011KT P6SM SKC=