##########################################################
# Query made at 02/16/2025 06:02:27 UTC
# Time interval: from 11/01/2023 00:00  to 11/30/2023 23:59  UTC
##########################################################

##########################################################
# KCLM, Port Angeles, William R. Fairchild International Airport (United States)
# WMO index: -----. WIGOS ID: Unknown
# Latitude 48-07-20N. Longitude 123-30-19W. Altitude 87 m.
##########################################################

###################################
#  METAR/SPECI from KCLM
###################################
202311302353 METAR KCLM 302353Z AUTO 00000KT 6SM -RA BR BKN019 BKN041 OVC050 06/03 A2977 RMK AO2 SLP084 P0002 60002 T00560033 10067 20056 56011=
202311302253 METAR KCLM 302253Z AUTO 23004KT 9SM -RA OVC017 06/03 A2978 RMK AO2 RAB2154E22B50 SLP086 P0000 T00560028=
202311302153 METAR KCLM 302153Z AUTO 24005KT 10SM OVC021 06/03 A2979 RMK AO2 RAE52 SLP090 P0000 T00560028=
202311302053 METAR KCLM 302053Z AUTO 00000KT 10SM -RA OVC020 06/02 A2980 RMK AO2 RAB06 SLP094 P0000 60000 T00610017 56009=
202311302038 SPECI KCLM 302038Z AUTO 00000KT 10SM -RA OVC016 06/02 A2981 RMK AO2 RAB06 P0000 T00610022=
202311301953 METAR KCLM 301953Z AUTO 00000KT 10SM OVC012 06/02 A2981 RMK AO2 SLP096 T00610022=
202311301853 METAR KCLM 301853Z AUTO 25004KT 10SM OVC012 06/03 A2982 RMK AO2 SLP100 T00610028=
202311301753 METAR KCLM 301753Z AUTO 24005KT 10SM OVC012 06/02 A2983 RMK AO2 SLP103 T00560022 10056 20028 58017=
202311301653 METAR KCLM 301653Z AUTO 00000KT 10SM OVC010 04/02 A2985 RMK AO2 CIG 009V014 SLP109 T00440017=
202311301553 METAR KCLM 301553Z AUTO 00000KT 10SM OVC011 04/02 A2987 RMK AO2 SLP115 T00390017=
202311301504 SPECI KCLM 301504Z AUTO 23005KT 10SM BKN013 OVC085 03/02 A2988 RMK AO2 T00330017=
202311301453 METAR KCLM 301453Z AUTO 23004KT 10SM SCT011 OVC080 03/02 A2988 RMK AO2 SLP120 T00330017 56019=
202311301445 SPECI KCLM 301445Z AUTO 23003KT 10SM SCT011 OVC080 04/02 A2988 RMK AO2 T00390017=
202311301353 METAR KCLM 301353Z AUTO 25003KT 9SM OVC013 04/02 A2990 RMK AO2 SLP125 T00440017=
202311301308 SPECI KCLM 301308Z AUTO 00000KT 10SM BKN014 OVC070 04/02 A2991 RMK AO2 T00390017=
202311301253 METAR KCLM 301253Z AUTO 12003KT 10SM SCT012 OVC070 04/02 A2992 RMK AO2 SLP134 T00390017=
202311301241 SPECI KCLM 301241Z AUTO 13003KT 10SM SCT012 OVC070 04/02 A2992 RMK AO2 T00390017=
202311301208 SPECI KCLM 301208Z AUTO 14003KT 10SM BKN012 OVC100 03/01 A2993 RMK AO2 T00280011=
202311301153 METAR KCLM 301153Z AUTO 00000KT 8SM SCT010 OVC100 03/01 A2994 RMK AO2 SLP139 T00280011 10050 20028 56013=
202311301053 METAR KCLM 301053Z AUTO 00000KT 9SM SCT070 OVC100 03/01 A2995 RMK AO2 SLP143 T00280011=
202311300953 METAR KCLM 300953Z AUTO 00000KT 10SM FEW075 OVC095 03/01 A2996 RMK AO2 SLP148 T00330011=
202311300853 METAR KCLM 300853Z AUTO 00000KT 10SM OVC095 03/01 A2998 RMK AO2 SLP153 T00330011 58015=
202311300834 SPECI KCLM 300834Z AUTO 23003KT 10SM SCT023 SCT065 OVC100 03/01 A2998 RMK AO2 T00330011=
202311300753 METAR KCLM 300753Z AUTO 22003KT 8SM OVC025 04/02 A3000 RMK AO2 SLP161 T00390017 400720022=
202311300653 METAR KCLM 300653Z AUTO 13003KT 10SM OVC025 04/02 A3002 RMK AO2 SLP166 T00440017=
202311300553 METAR KCLM 300553Z AUTO 12003KT 9SM OVC025 05/02 A3002 RMK AO2 SLP168 60000 T00500017 10067 20044 58009=
202311300533 SPECI KCLM 300533Z AUTO 11004KT 9SM BKN025 BKN048 OVC090 05/02 A3002 RMK AO2 T00500017=
202311300503 SPECI KCLM 300503Z AUTO 00000KT 8SM SCT025 OVC090 04/02 A3003 RMK AO2 T00440022=
202311300453 METAR KCLM 300453Z AUTO 13003KT 7SM BKN025 OVC090 04/02 A3003 RMK AO2 SLP172 T00440022=
202311300353 METAR KCLM 300353Z AUTO 14003KT 10SM OVC025 05/02 A3005 RMK AO2 SLP176 T00500017=
202311300343 SPECI KCLM 300343Z AUTO 10004KT 10SM BKN025 BKN041 OVC048 06/02 A3005 RMK AO2 T00560017=
202311300253 METAR KCLM 300253Z AUTO 10003KT 10SM OVC042 06/02 A3005 RMK AO2 SLP177 60000 T00560022 58007=
202311300153 METAR KCLM 300153Z AUTO 13004KT 8SM FEW026 OVC040 06/03 A3006 RMK AO2 SLP182 T00560028=
202311300149 SPECI KCLM 300149Z AUTO 13004KT 9SM SCT026 OVC040 06/02 A3006 RMK AO2=
202311300053 METAR KCLM 300053Z AUTO 10003KT 9SM BKN017 OVC025 06/02 A3007 RMK AO2 RAB11E24 SLP184 P0000 T00560022=
202311292353 METAR KCLM 292353Z AUTO 08005KT 10SM FEW018 BKN027 OVC065 07/02 A3008 RMK AO2 SLP187 60000 T00670022 10072 20044 56010=
202311292253 METAR KCLM 292253Z AUTO 00000KT 10SM BKN022 OVC029 07/02 A3008 RMK AO2 SLP189 T00720022=
202311292153 METAR KCLM 292153Z AUTO 00000KT 10SM OVC020 07/02 A3009 RMK AO2 SLP192 T00720017=
202311292053 METAR KCLM 292053Z AUTO 00000KT 10SM OVC018 07/02 A3011 RMK AO2 RAE03 SLP198 P0000 60000 T00720022 58013=
202311291953 METAR KCLM 291953Z AUTO 00000KT 10SM -RA OVC019 06/02 A3013 RMK AO2 RAB51 SLP205 P0000 T00610017=
202311291853 METAR KCLM 291853Z AUTO 00000KT 10SM OVC019 05/01 A3015 RMK AO2 SLP211 T00500011=
202311291753 METAR KCLM 291753Z AUTO 22003KT 10SM OVC019 04/01 A3015 RMK AO2 SLP212 T00440006 10044 20028 53001=
202311291653 METAR KCLM 291653Z AUTO 22003KT 10SM OVC018 04/00 A3014 RMK AO2 SLP210 T00390000=
202311291553 METAR KCLM 291553Z AUTO 22004KT 10SM OVC018 03/00 A3014 RMK AO2 SLP209 T00330000=
202311291453 METAR KCLM 291453Z AUTO 21004KT 10SM OVC019 03/M01 A3014 RMK AO2 SLP210 T00331006 55001=
202311291353 METAR KCLM 291353Z AUTO 23004KT 10SM OVC015 03/00 A3014 RMK AO2 SLP209 T00280000=
202311291253 METAR KCLM 291253Z AUTO 22005KT 10SM OVC015 03/00 A3015 RMK AO2 SLP210 T00280000=
202311291249 SPECI KCLM 291249Z AUTO 22005KT 10SM OVC015 03/00 A3015 RMK AO2=
202311291153 METAR KCLM 291153Z AUTO 23006KT 10SM OVC014 03/00 A3015 RMK AO2 SLP210 T00280000 10028 20011 58005=
202311291130 SPECI KCLM 291130Z AUTO 23005KT 10SM OVC013 02/M01 A3015 RMK AO2 T00221006=
202311291116 SPECI KCLM 291116Z AUTO 23006KT 10SM OVC017 02/M01 A3015 RMK AO2 T00221006=
202311291053 METAR KCLM 291053Z AUTO 23006KT 10SM OVC013 02/M01 A3015 RMK AO2 SLP213 T00221006=
202311291032 SPECI KCLM 291032Z AUTO 23005KT 10SM BKN013 OVC019 02/M01 A3015 RMK AO2 T00221006=
202311290953 METAR KCLM 290953Z AUTO 23004KT 10SM OVC019 02/M01 A3016 RMK AO2 SLP213 T00221006=
202311290853 METAR KCLM 290853Z AUTO 24004KT 10SM OVC016 03/01 A3016 RMK AO2 SLP215 T00280006 50002=
202311290839 SPECI KCLM 290839Z AUTO 21003KT 10SM OVC015 03/01 A3016 RMK AO2 T00280006=
202311290826 SPECI KCLM 290826Z AUTO 22005KT 10SM OVC014 03/00 A3016 RMK AO2 T00280000=
202311290815 SPECI KCLM 290815Z AUTO 23006KT 10SM OVC015 03/00 A3017 RMK AO2 T00280000=
202311290753 METAR KCLM 290753Z AUTO 23005KT 10SM OVC013 03/01 A3017 RMK AO2 SLP218 T00280006 400830000=
202311290653 METAR KCLM 290653Z AUTO 23004KT 10SM BKN012 OVC017 02/01 A3016 RMK AO2 SLP216 T00220006=
202311290553 METAR KCLM 290553Z AUTO 00000KT 7SM BKN016 01/M01 A3015 RMK AO2 SLP214 T00111006 10061 20000 50003=
202311290539 SPECI KCLM 290539Z AUTO 13003KT 9SM BKN015 01/M02 A3015 RMK AO2 T00061017=
202311290511 SPECI KCLM 290511Z AUTO 21005KT 10SM BKN013 02/M01 A3016 RMK AO2 T00171006=
202311290453 METAR KCLM 290453Z AUTO 00000KT 8SM CLR 01/M01 A3016 RMK AO2 SLP215 T00111011=
202311290353 METAR KCLM 290353Z AUTO 00000KT 9SM CLR 02/00 A3015 RMK AO2 SLP212 T00220000=
202311290253 METAR KCLM 290253Z AUTO 00000KT 10SM CLR 03/01 A3015 RMK AO2 SLP212 T00330011 58007=
202311290153 METAR KCLM 290153Z AUTO 14005KT 10SM CLR 04/02 A3016 RMK AO2 SLP215 T00390017=
202311290117 SPECI KCLM 290117Z AUTO 00000KT 10SM FEW012 04/02 A3016 RMK AO2 T00440017=
202311290053 METAR KCLM 290053Z AUTO 00000KT 10SM OVC012 05/02 A3016 RMK AO2 SLP216 T00500017=
202311282353 METAR KCLM 282353Z AUTO 00000KT 10SM OVC014 06/02 A3017 RMK AO2 SLP218 T00610022 10083 20044 55003=
202311282332 SPECI KCLM 282332Z AUTO 08003KT 10SM BKN014 07/02 A3017 RMK AO2 T00670022=
202311282307 SPECI KCLM 282307Z AUTO 00000KT 10SM SCT014 07/02 A3017 RMK AO2 T00670022=
202311282253 METAR KCLM 282253Z AUTO 09003KT 10SM BKN014 07/02 A3016 RMK AO2 SLP216 T00670022=
202311282238 SPECI KCLM 282238Z AUTO 00000KT 10SM OVC014 07/02 A3017 RMK AO2 T00670022=
202311282153 METAR KCLM 282153Z AUTO 00000KT 10SM OVC015 07/02 A3018 RMK AO2 SLP220 T00670017=
202311282136 SPECI KCLM 282136Z AUTO 00000KT 10SM OVC014 07/02 A3018 RMK AO2 T00670017=
202311282053 METAR KCLM 282053Z AUTO 00000KT 10SM OVC016 07/02 A3019 RMK AO2 SLP224 T00720017 58010=
202311281953 METAR KCLM 281953Z AUTO 11004KT 10SM OVC015 07/02 A3020 RMK AO2 SLP228 T00670017=
202311281934 SPECI KCLM 281934Z AUTO VRB04KT 10SM OVC015 07/02 A3020 RMK AO2 T00720022=
202311281853 METAR KCLM 281853Z AUTO 11005KT 10SM OVC014 07/02 A3021 RMK AO2 SLP233 T00670017=
202311281805 SPECI KCLM 281805Z AUTO 14004KT 10SM BKN014 06/02 A3022 RMK AO2 T00610017=
202311281753 METAR KCLM 281753Z AUTO 00000KT 10SM OVC015 04/01 A3022 RMK AO2 SLP235 T00440011 10044 20011 53003=
202311281738 SPECI KCLM 281738Z AUTO 22003KT 10SM BKN015 04/01 A3021 RMK AO2 T00440011=
202311281653 METAR KCLM 281653Z AUTO 00000KT 10SM FEW015 02/00 A3020 RMK AO2 SLP230 T00220000=
202311281648 SPECI KCLM 281648Z AUTO 19003KT 10SM SCT015 02/00 A3020 RMK AO2=
202311281553 METAR KCLM 281553Z AUTO 23007KT 10SM OVC016 02/M01 A3021 RMK AO2 SLP232 T00171011=
202311281506 SPECI KCLM 281506Z AUTO 21005KT 10SM OVC015 02/M01 A3020 RMK AO2 T00221006=
202311281453 METAR KCLM 281453Z AUTO 22004KT 10SM OVC014 02/00 A3020 RMK AO2 SLP231 T00220000 53000=
202311281353 METAR KCLM 281353Z AUTO 00000KT 10SM OVC014 03/01 A3019 RMK AO2 SLP226 T00280006=
202311281253 METAR KCLM 281253Z AUTO 00000KT 10SM OVC014 02/00 A3020 RMK AO2 SLP227 T00220000=
202311281226 SPECI KCLM 281226Z AUTO 13003KT 10SM OVC014 03/01 A3020 RMK AO2 T00280006=
202311281153 METAR KCLM 281153Z AUTO 23003KT 10SM OVC015 02/00 A3020 RMK AO2 SLP229 T00220000 10033 20011 58002=
202311281134 SPECI KCLM 281134Z AUTO 00000KT 10SM OVC015 02/00 A3020 RMK AO2 T00220000=
202311281053 METAR KCLM 281053Z AUTO 21004KT 10SM OVC014 02/00 A3021 RMK AO2 SLP234 T00220000=
202311280953 METAR KCLM 280953Z AUTO 00000KT 10SM OVC014 02/M01 A3021 RMK AO2 SLP232 T00171006=
202311280930 SPECI KCLM 280930Z AUTO 20004KT 10SM OVC014 02/M01 A3021 RMK AO2 T00171006=
202311280853 METAR KCLM 280853Z AUTO 19003KT 10SM OVC015 02/00 A3021 RMK AO2 SLP232 T00170000 58001=
202311280806 SPECI KCLM 280806Z AUTO 00000KT 10SM OVC014 03/01 A3021 RMK AO2 T00280011=
202311280753 METAR KCLM 280753Z AUTO 00000KT 10SM OVC015 03/01 A3021 RMK AO2 SLP232 T00280006 400830006=
202311280653 METAR KCLM 280653Z AUTO 00000KT 9SM OVC015 02/00 A3021 RMK AO2 SLP233 T00220000=
202311280553 METAR KCLM 280553Z AUTO 00000KT 8SM OVC016 02/00 A3021 RMK AO2 SLP233 I1000 I6000 T00170000 10072 20006 53006=
202311280514 SPECI KCLM 280514Z AUTO 00000KT 8SM BKN015 02/M01 A3021 RMK AO2 I1000 T00171006=
202311280505 SPECI KCLM 280505Z AUTO 00000KT 7SM BKN014 01/M01 A3021 RMK AO2 T00061011=
202311280453 METAR KCLM 280453Z AUTO 00000KT 8SM SCT015 01/M01 A3021 RMK AO2 SLP233 T00111006=
202311280353 METAR KCLM 280353Z AUTO 00000KT 9SM CLR 02/01 A3019 RMK AO2 SLP227 T00220006=
202311280253 METAR KCLM 280253Z AUTO 13004KT 10SM FEW011 04/02 A3019 RMK AO2 SLP227 T00390017 58005=
202311280241 SPECI KCLM 280241Z AUTO 13003KT 10SM SCT011 04/02 A3020 RMK AO2 T00440017=
202311280153 METAR KCLM 280153Z AUTO 14003KT 10SM OVC012 06/03 A3020 RMK AO2 SLP230 T00560028=
202311280053 METAR KCLM 280053Z AUTO 00000KT 10SM OVC013 07/03 A3021 RMK AO2 SLP231 T00670028=
202311272353 METAR KCLM 272353Z AUTO 11004KT 10SM OVC013 07/03 A3021 RMK AO2 SLP231 T00720028 10083 20067 53002=
202311272253 METAR KCLM 272253Z AUTO 06003KT 10SM OVC014 08/03 A3020 RMK AO2 SLP230 T00780033=
202311272235 SPECI KCLM 272235Z AUTO 07004KT 10SM OVC014 08/03 A3020 RMK AO2 T00780028=
202311272153 METAR KCLM 272153Z AUTO 08005KT 10SM BKN015 08/03 A3020 RMK AO2 SLP229 T00780028=
202311272149 SPECI KCLM 272149Z AUTO 08005KT 10SM BKN015 08/03 A3020 RMK AO2=
202311272053 METAR KCLM 272053Z AUTO VRB04KT 10SM CLR 08/03 A3021 RMK AO2 SLP231 T00830028 58009=
202311271953 METAR KCLM 271953Z AUTO VRB04KT 10SM CLR 08/02 A3022 RMK AO2 SLP235 T00830022=
202311271922 SPECI KCLM 271922Z AUTO VRB05KT 10SM FEW014 08/02 A3023 RMK AO2 T00780022=
202311271853 METAR KCLM 271853Z AUTO 13007KT 10SM OVC014 08/03 A3023 RMK AO2 SLP240 T00780028=
202311271753 METAR KCLM 271753Z AUTO 11005KT 10SM OVC014 07/02 A3024 RMK AO2 SLP240 T00720022 10072 20044 51007=
202311271701 SPECI KCLM 271701Z AUTO 00000KT 10SM OVC015 05/02 A3024 RMK AO2 T00500017=
202311271653 METAR KCLM 271653Z AUTO 21003KT 10SM OVC014 04/02 A3023 RMK AO2 SLP241 T00440017=
202311271553 METAR KCLM 271553Z AUTO 00000KT 10SM OVC014 06/02 A3022 RMK AO2 SLP235 T00610022=
202311271511 SPECI KCLM 271511Z AUTO 17003KT 10SM OVC016 06/02 A3021 RMK AO2 T00560022=
202311271453 METAR KCLM 271453Z AUTO 13003KT 10SM OVC014 06/02 A3021 RMK AO2 SLP233 T00610022 51005=
202311271353 METAR KCLM 271353Z AUTO 12003KT 10SM OVC012 06/02 A3021 RMK AO2 SLP231 T00610022=
202311271253 METAR KCLM 271253Z AUTO 00000KT 10SM OVC013 06/03 A3021 RMK AO2 SLP230 T00610028=
202311271153 METAR KCLM 271153Z AUTO 13004KT 10SM OVC013 06/03 A3020 RMK AO2 SLP228 T00610028 10061 20033 56005=
202311271053 METAR KCLM 271053Z AUTO 14004KT 10SM OVC013 06/03 A3021 RMK AO2 SLP231 T00610028=
202311270953 METAR KCLM 270953Z AUTO 12003KT 10SM OVC013 06/03 A3020 RMK AO2 SLP230 T00610028=
202311270853 METAR KCLM 270853Z AUTO 13005KT 10SM OVC013 06/03 A3021 RMK AO2 SLP233 T00560028 58003=
202311270753 METAR KCLM 270753Z AUTO 15005KT 10SM OVC012 06/03 A3022 RMK AO2 SLP235 T00560028 400830017=
202311270653 METAR KCLM 270653Z AUTO 12004KT 10SM OVC011 06/03 A3022 RMK AO2 SLP235 T00560028=
202311270553 METAR KCLM 270553Z AUTO 00000KT 10SM OVC011 03/02 A3022 RMK AO2 SLP236 T00330017 10072 20017 53004=
202311270515 SPECI KCLM 270515Z AUTO 00000KT 8SM BKN011 03/01 A3022 RMK AO2 T00280011=
202311270453 METAR KCLM 270453Z AUTO 13003KT 7SM FEW011 02/01 A3021 RMK AO2 SLP233 T00170006=
202311270434 SPECI KCLM 270434Z AUTO 00000KT 10SM FEW010 04/02 A3021 RMK AO2 T00390017=
202311270353 METAR KCLM 270353Z AUTO 13003KT 10SM OVC011 05/02 A3022 RMK AO2 SLP234 T00500022=
202311270253 METAR KCLM 270253Z AUTO 13003KT 10SM OVC012 05/02 A3021 RMK AO2 SLP232 T00500022 58002=
202311270153 METAR KCLM 270153Z AUTO 15003KT 10SM BKN013 06/03 A3022 RMK AO2 SLP235 T00610028=
202311270053 METAR KCLM 270053Z AUTO 14003KT 10SM OVC012 07/03 A3022 RMK AO2 SLP235 T00670028=
202311262353 METAR KCLM 262353Z AUTO VRB03KT 10SM OVC014 07/03 A3022 RMK AO2 SLP234 T00720028 10083 20067 56007=
202311262344 SPECI KCLM 262344Z AUTO 08004KT 10SM OVC014 07/03 A3022 RMK AO2 T00720028=
202311262253 METAR KCLM 262253Z AUTO 07004KT 10SM OVC016 08/03 A3022 RMK AO2 SLP235 T00780028=
202311262153 METAR KCLM 262153Z AUTO 09006KT 10SM OVC015 08/03 A3024 RMK AO2 SLP240 T00780028=
202311262148 SPECI KCLM 262148Z AUTO 10SM OVC015 08/03 A3024 RMK AO2=
202311262136 SPECI KCLM 262136Z AUTO 09005KT 10SM OVC014 08/03 A3024 RMK AO2 T00780028=
202311262053 METAR KCLM 262053Z AUTO 08005KT 10SM OVC015 08/03 A3026 RMK AO2 SLP248 T00780028 58014=
202311262014 SPECI KCLM 262014Z AUTO 11007KT 10SM OVC015 08/03 A3027 RMK AO2 T00780028=
202311261953 METAR KCLM 261953Z AUTO 11007KT 10SM OVC014 08/03 A3028 RMK AO2 SLP255 T00780028=
202311261853 METAR KCLM 261853Z AUTO 12006KT 10SM OVC014 07/03 A3029 RMK AO2 SLP260 T00720028=
202311261753 METAR KCLM 261753Z AUTO 11004KT 10SM OVC012 07/03 A3030 RMK AO2 SLP262 T00670033 10067 20056 55000=
202311261653 METAR KCLM 261653Z AUTO 11003KT 10SM OVC012 07/03 A3030 RMK AO2 SLP263 T00670033=
202311261553 METAR KCLM 261553Z AUTO 14006KT 10SM OVC012 06/03 A3030 RMK AO2 SLP261 T00610028=
202311261453 METAR KCLM 261453Z AUTO 13005KT 10SM OVC012 06/03 A3030 RMK AO2 SLP262 T00560028 57004=
202311261353 METAR KCLM 261353Z AUTO 13005KT 10SM OVC011 06/03 A3030 RMK AO2 SLP263 T00560028=
202311261253 METAR KCLM 261253Z AUTO 11003KT 10SM OVC012 06/03 A3031 RMK AO2 SLP265 T00560028=
202311261153 METAR KCLM 261153Z AUTO 14004KT 10SM OVC013 06/03 A3031 RMK AO2 SLP266 I6000 T00560028 10056 20006 58006=
202311261053 METAR KCLM 261053Z AUTO 14005KT 10SM OVC012 06/03 A3032 RMK AO2 SLP271 T00560028=
202311260953 METAR KCLM 260953Z AUTO 12005KT 10SM OVC011 04/02 A3032 RMK AO2 SLP270 T00440022=
202311260853 METAR KCLM 260853Z AUTO 14005KT 10SM OVC011 05/03 A3033 RMK AO2 SLP272 I3000 T00500028 58003=
202311260753 METAR KCLM 260753Z AUTO 13004KT 10SM OVC010 06/03 A3034 RMK AO2 SLP277 T00560033 400891006=
202311260733 SPECI KCLM 260733Z AUTO 11005KT 10SM OVC010 05/03 A3034 RMK AO2 T00500028=
202311260702 SPECI KCLM 260702Z AUTO 13003KT 7SM OVC009 03/02 A3033 RMK AO2 T00330017=
202311260653 METAR KCLM 260653Z AUTO 12004KT 6SM BR OVC011 03/01 A3033 RMK AO2 SLP273 I1000 T00330011=
202311260621 SPECI KCLM 260621Z AUTO 14004KT 8SM OVC010 02/00 A3034 RMK AO2 I1000 T00170000=
202311260553 METAR KCLM 260553Z AUTO 00000KT 8SM BKN009 01/M01 A3034 RMK AO2 SLP275 I6001 T00111006 10067 20000 56006=
202311260550 SPECI KCLM 260550Z AUTO 00000KT 7SM BKN009 01/M01 A3034 RMK AO2=
202311260532 SPECI KCLM 260532Z AUTO 00000KT 8SM SCT009 02/00 A3034 RMK AO2 T00170000=
202311260522 SPECI KCLM 260522Z AUTO 13004KT 8SM BKN009 02/00 A3034 RMK AO2 T00170000=
202311260503 SPECI KCLM 260503Z AUTO 11003KT 9SM BKN010 02/00 A3035 RMK AO2 T00170000=
202311260453 METAR KCLM 260453Z AUTO 00000KT 8SM SCT010 01/M01 A3035 RMK AO2 SLP281 T00061011=
202311260353 METAR KCLM 260353Z AUTO 11003KT 8SM CLR 01/M01 A3036 RMK AO2 SLP283 I1001 T00111011=
202311260253 METAR KCLM 260253Z AUTO 00000KT 10SM CLR 02/M01 A3036 RMK AO2 SLP285 T00171011 53007=
202311260153 METAR KCLM 260153Z AUTO 12004KT 10SM CLR 02/M01 A3036 RMK AO2 SLP283 T00171006=
202311260053 METAR KCLM 260053Z AUTO 15004KT 10SM CLR 05/02 A3035 RMK AO2 SLP280 T00500022=
202311252353 METAR KCLM 252353Z AUTO 09005KT 10SM FEW010 07/03 A3034 RMK AO2 SLP277 T00670033 10089 20067 56011=
202311252253 METAR KCLM 252253Z AUTO 08007KT 10SM CLR 08/03 A3035 RMK AO2 SLP279 T00780033=
202311252153 METAR KCLM 252153Z AUTO 10005KT 10SM CLR 08/03 A3036 RMK AO2 SLP282 T00830033=
202311252053 METAR KCLM 252053Z AUTO 08005KT 10SM FEW014 08/03 A3038 RMK AO2 SLP288 T00830028 58010=
202311252024 SPECI KCLM 252024Z AUTO 09006KT 10SM SCT015 08/03 A3038 RMK AO2 T00830028=
202311252016 SPECI KCLM 252016Z AUTO 12005KT 10SM BKN015 08/03 A3038 RMK AO2 T00830028=
202311251953 METAR KCLM 251953Z AUTO 11005KT 10SM BKN014 08/03 A3040 RMK AO2 SLP295 T00780028=
202311251853 METAR KCLM 251853Z AUTO 12007KT 10SM OVC013 07/03 A3041 RMK AO2 SLP300 T00720033=
202311251753 METAR KCLM 251753Z AUTO 11004KT 10SM OVC013 07/03 A3041 RMK AO2 SLP299 I6000 T00670028 10067 20006 51010=
202311251653 METAR KCLM 251653Z AUTO 14004KT 10SM OVC013 06/02 A3039 RMK AO2 SLP294 T00610022=
202311251553 METAR KCLM 251553Z AUTO 14003KT 10SM OVC014 03/01 A3039 RMK AO2 SLP295 T00330006=
202311251505 SPECI KCLM 251505Z AUTO 00000KT 10SM BKN014 01/M01 A3038 RMK AO2 T00111006=
202311251453 METAR KCLM 251453Z AUTO 00000KT 10SM BKN015 01/M01 A3038 RMK AO2 SLP290 I3000 T00111011 50000=
202311251353 METAR KCLM 251353Z AUTO 00000KT 10SM OVC016 02/00 A3038 RMK AO2 SLP292 T00220000=
202311251253 METAR KCLM 251253Z AUTO 00000KT 10SM OVC016 02/00 A3039 RMK AO2 SLP293 I1000 T00170000=
202311251214 SPECI KCLM 251214Z AUTO 00000KT 10SM OVC015 01/M01 A3038 RMK AO2 I1000 T00111006=
202311251153 METAR KCLM 251153Z AUTO 00000KT 10SM BKN013 01/M01 A3038 RMK AO2 SLP288 T00111011 10017 21006 55000=
202311251117 SPECI KCLM 251117Z AUTO 00000KT 10SM BKN013 00/M02 A3038 RMK AO2 T00001017=
202311251053 METAR KCLM 251053Z AUTO 00000KT 10SM FEW013 M01/M02 A3038 RMK AO2 SLP289 T10061022=
202311250953 METAR KCLM 250953Z AUTO 00000KT 10SM CLR M01/M03 A3037 RMK AO2 SLP286 T10061028=
202311250853 METAR KCLM 250853Z AUTO 00000KT 10SM CLR 00/M02 A3038 RMK AO2 SLP288 T00001022 58001=
202311250753 METAR KCLM 250753Z AUTO 21004KT 10SM CLR 00/M02 A3038 RMK AO2 SLP289 T00001022 400891017=
202311250653 METAR KCLM 250653Z AUTO 13003KT 10SM CLR 00/M02 A3038 RMK AO2 SLP290 T00001022=
202311250553 METAR KCLM 250553Z AUTO 00000KT 10SM CLR 01/M02 A3038 RMK AO2 SLP290 T00111017 10067 20000 53004=
202311250453 METAR KCLM 250453Z AUTO 22004KT 10SM CLR 02/M02 A3037 RMK AO2 SLP286 T00171017=
202311250353 METAR KCLM 250353Z AUTO 22004KT 10SM CLR 02/M02 A3036 RMK AO2 SLP286 T00171017=
202311250253 METAR KCLM 250253Z AUTO 00000KT 10SM CLR 02/M01 A3037 RMK AO2 SLP286 T00171011 51004=
202311250153 METAR KCLM 250153Z AUTO 00000KT 10SM CLR 02/M01 A3036 RMK AO2 SLP285 T00221011=
202311250053 METAR KCLM 250053Z AUTO 00000KT 10SM CLR 03/01 A3036 RMK AO2 SLP285 T00280006=
202311242353 METAR KCLM 242353Z AUTO 10005KT 10SM CLR 07/02 A3036 RMK AO2 SLP282 T00670022 10089 20050 56012=
202311242253 METAR KCLM 242253Z AUTO 10004KT 10SM CLR 08/03 A3036 RMK AO2 SLP284 T00830028=
202311242153 METAR KCLM 242153Z AUTO 09005KT 10SM CLR 09/02 A3038 RMK AO2 SLP288 T00890022=
202311242053 METAR KCLM 242053Z AUTO 09005KT 10SM CLR 08/03 A3039 RMK AO2 SLP294 T00830028 57014=
202311241953 METAR KCLM 241953Z AUTO 08005KT 10SM CLR 08/03 A3040 RMK AO2 SLP297 T00830028=
202311241853 METAR KCLM 241853Z AUTO 07004KT 10SM CLR 08/03 A3042 RMK AO2 SLP304 T00830028=
202311241753 METAR KCLM 241753Z AUTO 24003KT 10SM CLR 05/M01 A3043 RMK AO2 SLP309 T00501006 10050 21017 50003=
202311241653 METAR KCLM 241653Z AUTO 21005KT 10SM CLR 02/M02 A3044 RMK AO2 SLP312 T00221022=
202311241553 METAR KCLM 241553Z AUTO 22007KT 10SM CLR 00/M03 A3044 RMK AO2 SLP309 T00001033=
202311241453 METAR KCLM 241453Z AUTO 20004KT 10SM CLR 00/M03 A3042 RMK AO2 SLP305 T00001033 58006=
202311241353 METAR KCLM 241353Z AUTO 21004KT 10SM CLR M01/M03 A3044 RMK AO2 SLP310 T10111033=
202311241253 METAR KCLM 241253Z AUTO 22005KT 10SM CLR 00/M03 A3043 RMK AO2 SLP308 T00001028=
202311241153 METAR KCLM 241153Z AUTO 21003KT 10SM CLR 00/M03 A3044 RMK AO2 SLP311 T00001028 10028 21011 58003=
202311241053 METAR KCLM 241053Z AUTO 23006KT 10SM CLR M01/M03 A3046 RMK AO2 SLP316 T10061033=
202311240953 METAR KCLM 240953Z AUTO 22003KT 10SM CLR 01/M03 A3046 RMK AO2 SLP316 T00061033=
202311240853 METAR KCLM 240853Z AUTO 22003KT 10SM CLR 01/M03 A3045 RMK AO2 SLP314 T00061033 56002=
202311240753 METAR KCLM 240753Z AUTO VRB03KT 10SM CLR 02/M03 A3045 RMK AO2 SLP314 T00171028 401060000=
202311240653 METAR KCLM 240653Z AUTO 23006KT 10SM CLR 02/M02 A3045 RMK AO2 SLP314 T00171022=
202311240553 METAR KCLM 240553Z AUTO VRB03KT 10SM CLR 00/M03 A3046 RMK AO2 SLP316 T00001033 10078 20000 53006=
202311240453 METAR KCLM 240453Z AUTO 25003KT 10SM CLR 02/M02 A3045 RMK AO2 SLP315 T00221022=
202311240353 METAR KCLM 240353Z AUTO 14004KT 10SM CLR 04/M03 A3044 RMK AO2 SLP312 T00391028=
202311240253 METAR KCLM 240253Z AUTO 21005KT 10SM CLR 02/M02 A3044 RMK AO2 SLP311 T00221022 58001=
202311240153 METAR KCLM 240153Z AUTO 21006KT 10SM CLR 04/M01 A3045 RMK AO2 SLP312 T00391011=
202311240053 METAR KCLM 240053Z AUTO 18003KT 10SM CLR 04/M01 A3045 RMK AO2 SLP312 T00441006=
202311232353 METAR KCLM 232353Z AUTO 11003KT 10SM CLR 08/M01 A3044 RMK AO2 SLP311 T00831006 10106 20078 55006=
202311232253 METAR KCLM 232253Z AUTO 07005KT 10SM CLR 10/M01 A3044 RMK AO2 SLP310 T01001011=
202311232153 METAR KCLM 232153Z AUTO 10004KT 10SM CLR 10/M01 A3045 RMK AO2 SLP312 T01001011=
202311232053 METAR KCLM 232053Z AUTO 11007KT 10SM CLR 11/M01 A3046 RMK AO2 SLP317 T01061006 58013=
202311231953 METAR KCLM 231953Z AUTO VRB03KT 10SM CLR 10/01 A3047 RMK AO2 SLP321 T01000006=
202311231853 METAR KCLM 231853Z AUTO 09005KT 10SM CLR 09/02 A3049 RMK AO2 SLP325 T00940017=
202311231753 METAR KCLM 231753Z AUTO 08006KT 10SM CLR 08/02 A3050 RMK AO2 SLP330 T00830022 10083 20017 51010=
202311231653 METAR KCLM 231653Z AUTO 13003KT 10SM CLR 04/01 A3050 RMK AO2 SLP330 T00390011=
202311231553 METAR KCLM 231553Z AUTO 14004KT 10SM CLR 02/00 A3048 RMK AO2 SLP325 T00220000=
202311231453 METAR KCLM 231453Z AUTO 11005KT 10SM FEW039 03/01 A3047 RMK AO2 SLP321 T00330011 53004=
202311231353 METAR KCLM 231353Z AUTO 13004KT 10SM CLR 05/02 A3045 RMK AO2 SLP315 T00500017=
202311231302 SPECI KCLM 231302Z AUTO 09005KT 10SM OVC031 06/03 A3045 RMK AO2 T00610028=
202311231253 METAR KCLM 231253Z AUTO 09004KT 10SM BKN029 OVC036 06/03 A3045 RMK AO2 SLP314 T00560028=
202311231153 METAR KCLM 231153Z AUTO 00000KT 10SM OVC029 04/03 A3046 RMK AO2 SLP316 T00440028 10044 20011 52003=
202311231103 SPECI KCLM 231103Z AUTO 00000KT 10SM BKN029 OVC041 04/02 A3045 RMK AO2 T00390022=
202311231053 METAR KCLM 231053Z AUTO 00000KT 10SM SCT029 OVC040 04/02 A3045 RMK AO2 SLP314 T00390022=
202311230953 METAR KCLM 230953Z AUTO 22004KT 10SM SCT032 OVC039 04/02 A3045 RMK AO2 SLP314 T00390017=
202311230853 METAR KCLM 230853Z AUTO 20003KT 10SM OVC034 02/01 A3045 RMK AO2 SLP312 T00220006 50000=
202311230753 METAR KCLM 230753Z AUTO 21003KT 10SM CLR 02/00 A3045 RMK AO2 SLP313 T00220000 401060011=
202311230653 METAR KCLM 230653Z AUTO 13005KT 10SM OVC043 02/00 A3046 RMK AO2 SLP315 T00170000=
202311230553 METAR KCLM 230553Z AUTO 00000KT 10SM CLR 02/00 A3045 RMK AO2 SLP312 T00170000 10078 20011 53008=
202311230453 METAR KCLM 230453Z AUTO 00000KT 10SM CLR 02/01 A3043 RMK AO2 SLP308 T00220011=
202311230353 METAR KCLM 230353Z AUTO 00000KT 8SM CLR 02/00 A3042 RMK AO2 SLP305 T00220000=
202311230253 METAR KCLM 230253Z AUTO 16004KT 10SM CLR 03/01 A3042 RMK AO2 SLP304 T00330011 52004=
202311230153 METAR KCLM 230153Z AUTO 00000KT 10SM CLR 05/03 A3042 RMK AO2 SLP303 T00500028=
202311230053 METAR KCLM 230053Z AUTO 26003KT 10SM CLR 06/03 A3042 RMK AO2 SLP302 T00560028=
202311222353 METAR KCLM 222353Z AUTO 11006KT 10SM CLR 08/04 A3041 RMK AO2 SLP299 T00780039 10106 20078 55001=
202311222253 METAR KCLM 222253Z AUTO 07006KT 10SM CLR 09/04 A3041 RMK AO2 SLP298 T00940039=
202311222153 METAR KCLM 222153Z AUTO 12005KT 10SM CLR 10/04 A3041 RMK AO2 SLP300 T01000039=
202311222053 METAR KCLM 222053Z AUTO 09008KT 10SM FEW026 OVC032 09/04 A3041 RMK AO2 SLP300 T00890039 53003=
202311221953 METAR KCLM 221953Z AUTO 09010KT 10SM CLR 10/04 A3040 RMK AO2 SLP295 T01000044=
202311221853 METAR KCLM 221853Z AUTO 11007KT 10SM CLR 10/05 A3040 RMK AO2 SLP295 T01000050=
202311221753 METAR KCLM 221753Z AUTO 00000KT 10SM FEW032 SCT042 09/07 A3041 RMK AO2 SLP298 60000 T00940067 10094 20033 51012=
202311221653 METAR KCLM 221653Z AUTO 00000KT 4SM BR BKN043 06/04 A3040 RMK AO2 SLP296 T00610044=
202311221638 SPECI KCLM 221638Z AUTO 00000KT 5SM BR BKN044 06/04 A3040 RMK AO2 T00560039=
202311221630 SPECI KCLM 221630Z AUTO 00000KT 2SM BR SCT044 05/04 A3040 RMK AO2 T00500039=
202311221621 SPECI KCLM 221621Z AUTO 21003KT 1/2SM FG FEW001 FEW044 05/03 A3040 RMK AO2 T00500033=
202311221618 SPECI KCLM 221618Z AUTO 00000KT 1/4SM FG VV001 04/03 A3040 RMK AO2 T00440028=
202311221553 METAR KCLM 221553Z AUTO 00000KT 3/4SM BR SCT042 04/03 A3039 RMK AO2 SLP294 T00440033=
202311221545 SPECI KCLM 221545Z AUTO 00000KT 1 3/4SM BR BKN043 06/04 A3039 RMK AO2 VIS 1/2V5 T00560039=
202311221530 SPECI KCLM 221530Z AUTO 00000KT 2SM BR OVC043 07/05 A3038 RMK AO2 T00670050=
202311221525 SPECI KCLM 221525Z AUTO 00000KT 3/4SM BR OVC044 06/05 A3038 RMK AO2 T00610050=
202311221515 SPECI KCLM 221515Z AUTO 00000KT 1/4SM FG OVC044 06/04 A3038 RMK AO2 T00610044=
202311221453 METAR KCLM 221453Z AUTO 00000KT 1SM BR BKN044 06/05 A3037 RMK AO2 SLP287 60000 T00610050 51008=
202311221447 SPECI KCLM 221447Z AUTO 00000KT 1 3/4SM BR OVC045 06/04 A3037 RMK AO2 VIS 1V5=
202311221408 SPECI KCLM 221408Z AUTO 18005KT 10SM FEW020 BKN046 07/06 A3037 RMK AO2 T00720056=
202311221353 METAR KCLM 221353Z AUTO 18003KT 10SM BKN020 08/06 A3036 RMK AO2 SLP283 T00780061=
202311221315 SPECI KCLM 221315Z AUTO 14005KT 10SM BKN016 OVC042 08/06 A3035 RMK AO2 T00780061=
202311221253 METAR KCLM 221253Z AUTO 00000KT 9SM BKN012 OVC020 08/07 A3036 RMK AO2 RAE1156 SLP281 P0000 T00830067=
202311221239 SPECI KCLM 221239Z AUTO 10003KT 10SM SCT005 OVC010 08/06 A3036 RMK AO2 RAE1156 P0000 T00830061=
202311221153 METAR KCLM 221153Z AUTO 00000KT 5SM -RA BR OVC002 08/07 A3035 RMK AO2 RAB30 SLP278 P0000 60000 70019 T00830067 10089 20078 51022=
202311221104 SPECI KCLM 221104Z AUTO 07004KT 3SM BR OVC003 08/07 A3034 RMK AO2 CIG 001V005 T00830067=
202311221053 METAR KCLM 221053Z AUTO 00000KT 1 3/4SM BR OVC004 09/07 A3033 RMK AO2 SLP272 T00890067=
202311221045 SPECI KCLM 221045Z AUTO 00000KT 5SM BR OVC004 09/07 A3033 RMK AO2 T00890067=
202311220953 METAR KCLM 220953Z AUTO 00000KT 10SM OVC005 08/07 A3030 RMK AO2 SLP263 T00830067=
202311220919 SPECI KCLM 220919Z AUTO 28003KT 10SM BKN006 OVC015 08/07 A3030 RMK AO2 T00830067=
202311220853 METAR KCLM 220853Z AUTO 22004KT 10SM FEW008 OVC017 08/07 A3028 RMK AO2 SLP256 60000 T00830067 50012=
202311220800 SPECI KCLM 220800Z AUTO 00000KT 7SM SCT009 OVC017 08/07 A3028 RMK AO2 T00830067=
202311220753 METAR KCLM 220753Z AUTO 00000KT 10SM BKN009 OVC017 08/07 A3029 RMK AO2 SLP256 T00830067 401060017=
202311220730 SPECI KCLM 220730Z AUTO 00000KT 3SM BR FEW002 OVC009 08/06 A3028 RMK AO2 CIG 006V012 T00830061=
202311220727 SPECI KCLM 220727Z AUTO 00000KT 2 1/2SM BR OVC011 08/06 A3028 RMK AO2 CIG 006V012 T00780061=
202311220719 SPECI KCLM 220719Z AUTO 00000KT 1 3/4SM BR OVC011 08/06 A3028 RMK AO2 T00780061=
202311220706 SPECI KCLM 220706Z AUTO 00000KT 2 1/2SM BR FEW002 BKN011 OVC016 08/06 A3027 RMK AO2 T00780061=
202311220653 METAR KCLM 220653Z AUTO 00000KT 4SM BR BKN013 OVC018 08/06 A3027 RMK AO2 RAE02 SLP251 P0000 T00780056=
202311220553 METAR KCLM 220553Z AUTO 00000KT 6SM -RA BR BKN026 OVC031 08/06 A3025 RMK AO2 SLP244 P0003 60019 T00780061 10094 20072 51017=
202311220453 METAR KCLM 220453Z AUTO 26003KT 4SM -RA BR BKN037 OVC050 08/06 A3024 RMK AO2 SLP243 P0005 T00780061=
202311220353 METAR KCLM 220353Z AUTO 00000KT 5SM -RA BR OVC065 08/06 A3022 RMK AO2 SLP234 P0008 T00780056=
202311220253 METAR KCLM 220253Z AUTO 00000KT 6SM -RA BR OVC065 08/06 A3020 RMK AO2 RAB00 SLP228 P0003 60003 T00780056 50017=
202311220153 METAR KCLM 220153Z AUTO 28004KT 10SM OVC060 08/05 A3020 RMK AO2 RAE32 PRESRR SLP230 P0000 T00830050=
202311220053 METAR KCLM 220053Z AUTO 35003KT 10SM -RA BKN070 OVC085 09/05 A3017 RMK AO2 RAB48 SLP220 P0000 T00890050=
202311212353 METAR KCLM 212353Z AUTO 26004KT 10SM BKN095 OVC110 09/06 A3015 RMK AO2 SLP211 T00940056 10106 20083 56000=
202311212253 METAR KCLM 212253Z AUTO 00000KT 10SM FEW110 09/05 A3015 RMK AO2 SLP211 T00940050=
202311212153 METAR KCLM 212153Z AUTO 02004KT 10SM CLR 09/05 A3015 RMK AO2 SLP211 T00940050=
202311212053 METAR KCLM 212053Z AUTO 00000KT 10SM CLR 11/05 A3015 RMK AO2 SLP211 T01060050 56010=
202311211953 METAR KCLM 211953Z AUTO VRB03KT 10SM CLR 09/04 A3015 RMK AO2 SLP213 T00940044=
202311211853 METAR KCLM 211853Z AUTO 05004KT 10SM CLR 09/04 A3017 RMK AO2 SLP220 T00940044=
202311211753 METAR KCLM 211753Z AUTO 00000KT 10SM CLR 08/05 A3018 RMK AO2 SLP222 T00830050 10083 20017 58003=
202311211653 METAR KCLM 211653Z AUTO 00000KT 10SM CLR 04/03 A3020 RMK AO2 SLP227 T00440028=
202311211553 METAR KCLM 211553Z AUTO 23006KT 10SM CLR 03/01 A3020 RMK AO2 SLP231 T00330011=
202311211453 METAR KCLM 211453Z AUTO 21003KT 9SM CLR 02/01 A3019 RMK AO2 SLP226 T00220006 58012=
202311211353 METAR KCLM 211353Z AUTO 22006KT 10SM CLR 03/02 A3022 RMK AO2 SLP235 T00330017=
202311211253 METAR KCLM 211253Z AUTO 22004KT 10SM CLR 03/01 A3022 RMK AO2 SLP234 T00280011=
202311211153 METAR KCLM 211153Z AUTO 22004KT 10SM CLR 03/01 A3022 RMK AO2 SLP237 T00280011 10039 20017 58019=
202311211053 METAR KCLM 211053Z AUTO 00000KT 10SM CLR 03/01 A3024 RMK AO2 SLP243 T00280011=
202311210953 METAR KCLM 210953Z AUTO 22006KT 10SM CLR 03/01 A3027 RMK AO2 SLP252 T00330011=
202311210853 METAR KCLM 210853Z AUTO 25005KT 10SM FEW016 03/01 A3028 RMK AO2 SLP256 T00330011 55007=
202311210753 METAR KCLM 210753Z AUTO 21005KT 10SM CLR 02/01 A3027 RMK AO2 SLP254 T00220006 400890006=
202311210653 METAR KCLM 210653Z AUTO 21007KT 10SM CLR 04/01 A3030 RMK AO2 SLP261 T00390011=
202311210553 METAR KCLM 210553Z AUTO 00000KT 9SM CLR 02/M01 A3030 RMK AO2 SLP263 T00171006 10078 20017 58022=
202311210453 METAR KCLM 210453Z AUTO 14003KT 10SM CLR 03/01 A3032 RMK AO2 SLP272 T00330011=
202311210353 METAR KCLM 210353Z AUTO 00000KT 10SM CLR 03/01 A3036 RMK AO2 SLP283 T00280006=
202311210253 METAR KCLM 210253Z AUTO 13005KT 10SM CLR 04/02 A3037 RMK AO2 SLP287 T00390017 58016=
202311210153 METAR KCLM 210153Z AUTO 12006KT 10SM CLR 06/03 A3038 RMK AO2 SLP291 T00560028=
202311210053 METAR KCLM 210053Z AUTO 09005KT 10SM CLR 07/03 A3041 RMK AO2 SLP300 T00720028=
202311202353 METAR KCLM 202353Z AUTO 08008KT 10SM CLR 08/04 A3042 RMK AO2 SLP302 T00780039 10089 20072 56018=
202311202253 METAR KCLM 202253Z AUTO 08006KT 10SM CLR 08/04 A3043 RMK AO2 SLP306 T00830039=
202311202153 METAR KCLM 202153Z AUTO 07007KT 10SM CLR 08/04 A3045 RMK AO2 SLP313 T00830039=
202311202053 METAR KCLM 202053Z AUTO 07006KT 10SM FEW012 08/03 A3047 RMK AO2 SLP320 T00830033 56014=
202311202035 SPECI KCLM 202035Z AUTO 10006KT 10SM SCT012 08/04 A3048 RMK AO2 T00830039=
202311202016 SPECI KCLM 202016Z AUTO VRB03KT 10SM BKN012 08/04 A3048 RMK AO2 T00830039=
202311201953 METAR KCLM 201953Z AUTO 07005KT 10SM FEW010 08/04 A3047 RMK AO2 SLP320 T00830039=
202311201853 METAR KCLM 201853Z AUTO 07005KT 10SM CLR 08/03 A3049 RMK AO2 SLP326 T00780028=
202311201753 METAR KCLM 201753Z AUTO 00000KT 10SM CLR 07/02 A3051 RMK AO2 SLP334 T00720022 10072 20006 51009=
202311201653 METAR KCLM 201653Z AUTO 22005KT 10SM CLR 03/00 A3049 RMK AO2 SLP328 T00330000=
202311201553 METAR KCLM 201553Z AUTO 23003KT 10SM CLR 02/M01 A3051 RMK AO2 SLP333 T00221011=
202311201453 METAR KCLM 201453Z AUTO 00000KT 10SM CLR 01/M01 A3049 RMK AO2 SLP326 T00111011 56007=
202311201353 METAR KCLM 201353Z AUTO 22003KT 10SM CLR 02/M01 A3049 RMK AO2 SLP327 T00221011=
202311201253 METAR KCLM 201253Z AUTO 21004KT 10SM CLR 01/M01 A3049 RMK AO2 SLP326 T00111011=
202311201153 METAR KCLM 201153Z AUTO 25007KT 10SM CLR 04/M01 A3051 RMK AO2 SLP333 70007 T00391006 10056 20022 58007=
202311201053 METAR KCLM 201053Z AUTO 23006KT 10SM CLR 04/00 A3052 RMK AO2 SLP338 T00390000=
202311200953 METAR KCLM 200953Z AUTO 22006KT 10SM CLR 03/00 A3052 RMK AO2 SLP338 T00330000=
202311200853 METAR KCLM 200853Z AUTO 23005KT 10SM CLR 04/00 A3053 RMK AO2 SLP340 T00440000 51009=
202311200753 METAR KCLM 200753Z AUTO 23007KT 10SM SCT110 05/01 A3052 RMK AO2 SLP336 T00500006 401110022=
202311200653 METAR KCLM 200653Z AUTO 23009KT 10SM CLR 06/01 A3052 RMK AO2 SLP337 T00560006=
202311200553 METAR KCLM 200553Z AUTO 22006KT 10SM CLR 05/01 A3050 RMK AO2 SLP332 T00500006 10094 20022 51013=
202311200453 METAR KCLM 200453Z AUTO 23006KT 10SM CLR 04/00 A3049 RMK AO2 SLP326 T00440000=
202311200353 METAR KCLM 200353Z AUTO 26007KT 10SM FEW050 06/01 A3049 RMK AO2 SLP326 T00560006=
202311200253 METAR KCLM 200253Z AUTO 23009KT 10SM FEW050 07/01 A3047 RMK AO2 SLP319 T00670011 53020=
202311200153 METAR KCLM 200153Z AUTO 26006KT 10SM FEW060 07/01 A3044 RMK AO2 SLP310 T00670006=
202311200053 METAR KCLM 200053Z AUTO 27008KT 10SM SCT047 07/01 A3042 RMK AO2 SLP304 T00720011=
202311192353 METAR KCLM 192353Z AUTO 29008KT 10SM FEW045 SCT055 09/01 A3040 RMK AO2 SLP297 T00940006 10111 20089 53029=
202311192253 METAR KCLM 192253Z AUTO 26009KT 10SM BKN060 11/01 A3037 RMK AO2 SLP286 T01060006=
202311192153 METAR KCLM 192153Z AUTO 27013G23KT 10SM FEW070 11/00 A3035 RMK AO2 PK WND 27026/2135 SLP277 T01060000=
202311192053 METAR KCLM 192053Z AUTO 26016G24KT 10SM FEW070 11/01 A3032 RMK AO2 PK WND 24030/2007 SLP268 T01060006 51040=
202311191953 METAR KCLM 191953Z AUTO 26016G26KT 10SM CLR 11/M01 A3028 RMK AO2 PK WND 25027/1935 SLP253 T01061006=
202311191853 METAR KCLM 191853Z AUTO 25016G24KT 10SM BKN060 10/01 A3026 RMK AO2 PK WND 25028/1818 SLP249 T01000011=
202311191753 METAR KCLM 191753Z AUTO 26013G23KT 10SM FEW060 09/02 A3020 RMK AO2 PK WND 28029/1739 SLP227 60007 T00940017 10094 20072 51054=
202311191653 METAR KCLM 191653Z AUTO 29010G20KT 10SM FEW047 BKN055 09/02 A3016 RMK AO2 PK WND 27027/1621 SLP213 T00890022=
202311191553 METAR KCLM 191553Z AUTO 26013G25KT 10SM CLR 08/03 A3010 RMK AO2 RAE09 SLP194 P0000 T00830028=
202311191453 METAR KCLM 191453Z AUTO 23015G26KT 10SM -RA OVC040 08/04 A3004 RMK AO2 PK WND 26033/1441 SLP173 P0004 60007 T00780039 51029=
202311191353 METAR KCLM 191353Z AUTO 23009KT 10SM -RA FEW034 BKN045 OVC070 08/04 A3002 RMK AO2 RAB12 SLP169 P0002 T00830039=
202311191253 METAR KCLM 191253Z AUTO 24006KT 10SM FEW045 BKN055 BKN075 08/04 A2999 RMK AO2 RAE18 SLP156 P0001 T00830044=
202311191153 METAR KCLM 191153Z AUTO 29010G29KT 6SM -RA OVC039 08/04 A2995 RMK AO2 PK WND 27029/1147 RAE1055B35 SLP143 P0002 60005 70005 T00830044 10100 20072 53065=
202311191053 METAR KCLM 191053Z AUTO 26010G18KT 10SM -RA SCT050 BKN070 OVC085 09/05 A2988 RMK AO2 PRESRR SLP120 P0002 T00890050=
202311190953 METAR KCLM 190953Z AUTO 26012G19KT 10SM -RA BKN055 BKN085 09/05 A2980 RMK AO2 SLP092 P0001 T00890050=
202311190853 METAR KCLM 190853Z AUTO 26014G19KT 10SM -RA SCT046 BKN070 09/05 A2976 RMK AO2 RAB43 SLP077 P0000 60000 T00940050 51049=
202311190753 METAR KCLM 190753Z AUTO 24008KT 10SM BKN065 OVC085 09/06 A2971 RMK AO2 SLP061 T00890056 401000000=
202311190653 METAR KCLM 190653Z AUTO 26005KT 10SM BKN042 OVC060 08/05 A2966 RMK AO2 RAB22E52 SLP044 P0000 T00780050=
202311190553 METAR KCLM 190553Z AUTO 00000KT 10SM SCT100 OVC110 07/05 A2961 RMK AO2 RAE0457 SLP029 P0000 60000 T00720050 10089 20072 53019=
202311190453 METAR KCLM 190453Z AUTO 22004KT 10SM -RA BKN075 OVC095 07/05 A2958 RMK AO2 RAB46 SLP019 P0000 T00720050=
202311190353 METAR KCLM 190353Z AUTO 22004KT 10SM BKN075 OVC110 08/04 A2957 RMK AO2 SLP015 T00780044=
202311190253 METAR KCLM 190253Z AUTO 22005KT 10SM SCT075 07/04 A2955 RMK AO2 SLP010 T00720044 57012=
202311190153 METAR KCLM 190153Z AUTO 24004KT 10SM SCT085 BKN120 07/04 A2957 RMK AO2 SLP013 T00720044=
202311190053 METAR KCLM 190053Z AUTO 22006KT 10SM SCT090 08/04 A2958 RMK AO2 SLP018 T00830044=
202311182353 METAR KCLM 182353Z AUTO 23003KT 10SM BKN080 BKN110 09/04 A2959 RMK AO2 SLP021 T00890044 10100 20083 58023=
202311182253 METAR KCLM 182253Z AUTO 00000KT 10SM OVC100 09/04 A2962 RMK AO2 SLP030 T00940044=
202311182153 METAR KCLM 182153Z AUTO 00000KT 10SM BKN110 09/04 A2963 RMK AO2 SLP037 T00890039=
202311182134 SPECI KCLM 182134Z AUTO 00000KT 10SM FEW012 SCT070 BKN120 09/04 A2964 RMK AO2 T00890044=
202311182053 METAR KCLM 182053Z AUTO 07004KT 10SM BKN011 09/04 A2966 RMK AO2 SLP045 T00890044 56026=
202311182043 SPECI KCLM 182043Z AUTO VRB03KT 10SM BKN011 09/05 A2966 RMK AO2 T00940050=
202311182000 SPECI KCLM 182000Z AUTO 09007KT 10SM FEW009 09/05 A2968 RMK AO2 T00890050=
202311181953 METAR KCLM 181953Z AUTO 08006KT 10SM CLR 09/05 A2968 RMK AO2 SLP052 T00890050=
202311181853 METAR KCLM 181853Z AUTO 08007KT 10SM FEW120 08/04 A2971 RMK AO2 SLP062 T00830044=
202311181753 METAR KCLM 181753Z AUTO 10005KT 10SM CLR 08/04 A2974 RMK AO2 SLP071 I6000 T00830044 10083 20000 58016=
202311181653 METAR KCLM 181653Z AUTO 11004KT 4SM BR CLR 03/02 A2976 RMK AO2 SLP080 T00330017=
202311181553 METAR KCLM 181553Z AUTO 13005KT 5SM BR CLR 01/M02 A2977 RMK AO2 SLP083 T00061017=
202311181511 SPECI KCLM 181511Z AUTO 00000KT 3SM BR CLR 00/M01 A2978 RMK AO2 T00001011=
202311181456 SPECI KCLM 181456Z AUTO 00000KT 1 1/2SM BR CLR 01/M01 A2978 RMK AO2 T00111006=
202311181453 METAR KCLM 181453Z AUTO 00000KT 4SM BR CLR 01/M01 A2979 RMK AO2 SLP089 I1000 I3000 T00061006 56015=
202311181353 METAR KCLM 181353Z AUTO 00000KT 9SM CLR 01/M01 A2980 RMK AO2 SLP095 T00111006=
202311181253 METAR KCLM 181253Z AUTO 23003KT 8SM CLR 02/00 A2981 RMK AO2 SLP098 T00170000=
202311181153 METAR KCLM 181153Z AUTO 00000KT 10SM CLR 03/01 A2983 RMK AO2 SLP103 I6001 T00280006 10028 20006 58022=
202311181053 METAR KCLM 181053Z AUTO 00000KT 10SM CLR 02/01 A2986 RMK AO2 SLP112 T00220006=
202311180953 METAR KCLM 180953Z AUTO 22004KT 9SM CLR 02/00 A2987 RMK AO2 SLP118 T00170000=
202311180853 METAR KCLM 180853Z AUTO 00000KT 9SM CLR 02/00 A2990 RMK AO2 SLP125 I3001 T00170000 56009=
202311180753 METAR KCLM 180753Z AUTO 00000KT 10SM CLR 02/M01 A2990 RMK AO2 SLP128 T00171006 400940006=
202311180653 METAR KCLM 180653Z AUTO 00000KT 8SM CLR 01/M01 A2991 RMK AO2 SLP131 I1001 T00111006=
202311180553 METAR KCLM 180553Z AUTO 20003KT 10SM CLR 01/M01 A2992 RMK AO2 SLP135 I1000 I6000 T00111011 10078 20006 56009=
202311180453 METAR KCLM 180453Z AUTO 20003KT 10SM CLR 02/00 A2993 RMK AO2 SLP138 T00170000=
202311180353 METAR KCLM 180353Z AUTO 00000KT 10SM CLR 02/00 A2994 RMK AO2 SLP141 T00220000=
202311180253 METAR KCLM 180253Z AUTO 00000KT 10SM CLR 02/00 A2995 RMK AO2 SLP145 T00220000 56010=
202311180153 METAR KCLM 180153Z AUTO 00000KT 10SM CLR 03/01 A2996 RMK AO2 SLP149 T00330006=
202311180053 METAR KCLM 180053Z AUTO 00000KT 10SM CLR 04/01 A2997 RMK AO2 SLP150 T00440011=
202311172353 METAR KCLM 172353Z AUTO 09005KT 10SM CLR 08/02 A2998 RMK AO2 SLP154 T00780022 10094 20078 56018=
202311172253 METAR KCLM 172253Z AUTO 08006KT 10SM CLR 09/02 A3000 RMK AO2 SLP160 T00890017=
202311172153 METAR KCLM 172153Z AUTO 09006KT 10SM CLR 09/02 A3002 RMK AO2 SLP166 T00890017=
202311172053 METAR KCLM 172053Z AUTO VRB04KT 10SM CLR 09/01 A3004 RMK AO2 SLP173 T00890011 58018=
202311172023 SPECI KCLM 172023Z AUTO 09005KT 10SM SCT019 09/02 A3005 RMK AO2 T00940022=
202311171953 METAR KCLM 171953Z AUTO 05003KT 10SM OVC016 08/03 A3006 RMK AO2 SLP182 T00830028=
202311171907 SPECI KCLM 171907Z AUTO VRB05KT 10SM BKN016 09/03 A3007 RMK AO2 T00890033=
202311171853 METAR KCLM 171853Z AUTO 08007KT 10SM FEW019 08/03 A3007 RMK AO2 SLP186 T00830033=
202311171753 METAR KCLM 171753Z AUTO 08005KT 10SM CLR 08/03 A3009 RMK AO2 SLP191 I6002 T00780028 10078 20006 56003=
202311171653 METAR KCLM 171653Z AUTO 00000KT 10SM CLR 04/02 A3009 RMK AO2 SLP192 T00390022=
202311171553 METAR KCLM 171553Z AUTO 21003KT 10SM CLR 02/00 A3009 RMK AO2 SLP193 T00220000=
202311171533 SPECI KCLM 171533Z AUTO 00000KT 10SM SCT017 02/00 A3009 RMK AO2 T00220000=
202311171453 METAR KCLM 171453Z AUTO 21003KT 10SM OVC016 02/00 A3010 RMK AO2 SLP195 I3002 T00220000 58007=
202311171412 SPECI KCLM 171412Z AUTO 22004KT 10SM BKN016 01/M01 A3011 RMK AO2 T00111006=
202311171353 METAR KCLM 171353Z AUTO 22004KT 10SM FEW017 01/M01 A3011 RMK AO2 SLP198 I1000 T00111006=
202311171253 METAR KCLM 171253Z AUTO 00000KT 10SM SCT018 02/M01 A3011 RMK AO2 SLP200 I1002 T00171006=
202311171236 SPECI KCLM 171236Z AUTO 00000KT 10SM FEW014 01/M01 A3012 RMK AO2 I1001 T00111006=
202311171214 SPECI KCLM 171214Z AUTO 00000KT 10SM BKN013 01/M01 A3012 RMK AO2 I1000 T00111011=
202311171153 METAR KCLM 171153Z AUTO 00000KT 9SM FEW013 01/M01 A3012 RMK AO2 SLP201 I1001 I6003 T00111006 10022 20000 55003=
202311171127 SPECI KCLM 171127Z AUTO 00000KT 10SM SCT013 01/M01 A3012 RMK AO2 I1001 T00111011=
202311171116 SPECI KCLM 171116Z AUTO 14003KT 10SM BKN013 01/M01 A3011 RMK AO2 I1001 T00111006=
202311171053 METAR KCLM 171053Z AUTO 13003KT 8SM CLR 01/M01 A3012 RMK AO2 SLP201 I1000 T00111006=
202311171018 SPECI KCLM 171018Z AUTO 00000KT 10SM SCT013 01/M01 A3013 RMK AO2 T00111011=
202311170953 METAR KCLM 170953Z AUTO 00000KT 10SM BKN013 01/M01 A3013 RMK AO2 SLP204 I1000 T00111006=
202311170950 SPECI KCLM 170950Z AUTO 00000KT 10SM BKN013 01/M01 A3013 RMK AO2 I1000=
202311170853 METAR KCLM 170853Z AUTO 00000KT 10SM CLR 01/M01 A3013 RMK AO2 SLP205 I1001 I3002 T00061011 57003=
202311170753 METAR KCLM 170753Z AUTO 13003KT 10SM CLR 01/M01 A3014 RMK AO2 SLP207 T00111011 400890000=
202311170653 METAR KCLM 170653Z AUTO 00000KT 10SM CLR 01/M01 A3013 RMK AO2 SLP206 I1001 T00061011=
202311170553 METAR KCLM 170553Z AUTO 00000KT 10SM CLR 02/M01 A3014 RMK AO2 SLP208 I1001 I6001 T00221006 10072 20000 58004=
202311170453 METAR KCLM 170453Z AUTO 00000KT 10SM CLR 00/M02 A3015 RMK AO2 SLP214 T00001017=
202311170353 METAR KCLM 170353Z AUTO 00000KT 10SM CLR 02/00 A3016 RMK AO2 SLP214 T00220000=
202311170253 METAR KCLM 170253Z AUTO 00000KT 10SM CLR 02/M01 A3015 RMK AO2 SLP212 T00171006 51005=
202311170153 METAR KCLM 170153Z AUTO 00000KT 10SM CLR 04/01 A3015 RMK AO2 SLP211 T00390011=
202311170053 METAR KCLM 170053Z AUTO 00000KT 10SM CLR 04/01 A3014 RMK AO2 SLP209 T00440011=
202311162353 METAR KCLM 162353Z AUTO 09004KT 10SM CLR 07/02 A3014 RMK AO2 SLP207 T00720017 10089 20072 57002=
202311162253 METAR KCLM 162253Z AUTO 09005KT 10SM CLR 08/02 A3014 RMK AO2 SLP208 T00830017=
202311162235 SPECI KCLM 162235Z AUTO 07007KT 10SM SCT023 08/02 A3014 RMK AO2 T00830017=
202311162153 METAR KCLM 162153Z AUTO 08005KT 10SM BKN022 08/02 A3014 RMK AO2 SLP208 T00830022=
202311162053 METAR KCLM 162053Z AUTO 07006KT 10SM OVC019 08/02 A3014 RMK AO2 SLP209 T00830022 58004=
202311162013 SPECI KCLM 162013Z AUTO VRB04KT 10SM BKN018 08/02 A3015 RMK AO2 T00830022=
202311162000 SPECI KCLM 162000Z AUTO 07007KT 10SM SCT016 08/02 A3015 RMK AO2 T00830022=
202311161953 METAR KCLM 161953Z AUTO 07006KT 10SM BKN015 08/03 A3015 RMK AO2 SLP211 T00830028=
202311161945 SPECI KCLM 161945Z AUTO 06005KT 10SM BKN015 09/03 A3015 RMK AO2 T00890033=
202311161922 SPECI KCLM 161922Z AUTO 07008KT 10SM SCT015 08/03 A3015 RMK AO2 T00780028=
202311161853 METAR KCLM 161853Z AUTO 08007KT 10SM OVC027 08/03 A3015 RMK AO2 SLP212 T00830033=
202311161753 METAR KCLM 161753Z AUTO 09005KT 10SM FEW015 OVC025 07/03 A3015 RMK AO2 SLP213 T00720028 10072 20067 50009=
202311161653 METAR KCLM 161653Z AUTO 10004KT 10SM OVC016 07/03 A3016 RMK AO2 SLP213 T00670028=
202311161553 METAR KCLM 161553Z AUTO 08003KT 10SM OVC015 07/03 A3013 RMK AO2 SLP206 T00670028=
202311161453 METAR KCLM 161453Z AUTO 09007KT 10SM OVC020 07/03 A3013 RMK AO2 SLP204 T00720028 50000=
202311161353 METAR KCLM 161353Z AUTO VRB03KT 10SM SCT018 OVC024 07/02 A3013 RMK AO2 SLP205 T00720022=
202311161253 METAR KCLM 161253Z AUTO 08005KT 10SM OVC025 07/02 A3012 RMK AO2 SLP203 T00720022=
202311161153 METAR KCLM 161153Z AUTO VRB06KT 10SM BKN028 OVC033 07/03 A3013 RMK AO2 SLP204 70002 T00720028 10078 20056 51010=
202311161053 METAR KCLM 161053Z AUTO 10SM FEW014 BKN027 OVC032 07/03 A3013 RMK AO2 SLP203 T00720033=
202311161022 SPECI KCLM 161022Z AUTO VRB03KT 10SM BKN015 BKN020 OVC025 07/03 A3012 RMK AO2 T00720033=
202311160953 METAR KCLM 160953Z AUTO VRB04KT 10SM BKN014 OVC019 07/04 A3010 RMK AO2 SLP196 T00670039=
202311160935 SPECI KCLM 160935Z AUTO 00000KT 10SM OVC014 06/04 A3010 RMK AO2 T00610039=
202311160853 METAR KCLM 160853Z AUTO 00000KT 10SM BKN017 BKN021 OVC032 06/03 A3010 RMK AO2 SLP193 T00610033 51006=
202311160753 METAR KCLM 160753Z AUTO 00000KT 10SM SCT020 OVC029 06/03 A3009 RMK AO2 SLP193 T00610033 400891006=
202311160739 SPECI KCLM 160739Z AUTO 00000KT 10SM SCT021 OVC029 06/03 A3009 RMK AO2 T00560033=
202311160722 SPECI KCLM 160722Z AUTO 00000KT 10SM SCT022 OVC030 06/03 A3009 RMK AO2 T00560033=
202311160715 SPECI KCLM 160715Z AUTO 00000KT 10SM SCT022 OVC028 06/03 A3009 RMK AO2 T00560033=
202311160653 METAR KCLM 160653Z AUTO 13003KT 10SM SCT024 OVC032 06/03 A3009 RMK AO2 SLP190 T00560033=
202311160615 SPECI KCLM 160615Z AUTO 00000KT 10SM OVC030 06/03 A3008 RMK AO2 T00610033=
202311160553 METAR KCLM 160553Z AUTO 00000KT 10SM SCT022 BKN029 OVC036 06/03 A3008 RMK AO2 SLP187 60001 T00560033 10061 20028 51012=
202311160551 SPECI KCLM 160551Z AUTO 00000KT 10SM SCT023 BKN029 OVC038 06/03 A3008 RMK AO2=
202311160453 METAR KCLM 160453Z AUTO 00000KT 6SM BR OVC041 04/03 A3006 RMK AO2 SLP180 T00440028=
202311160415 SPECI KCLM 160415Z AUTO 00000KT 4SM BR OVC041 04/02 A3005 RMK AO2 T00390022=
202311160408 SPECI KCLM 160408Z AUTO VRB03KT 2 1/2SM BR BKN041 04/02 A3005 RMK AO2 T00390022=
202311160353 METAR KCLM 160353Z AUTO 00000KT 3/4SM BR BKN040 03/02 A3004 RMK AO2 SLP177 T00330022=
202311160338 SPECI KCLM 160338Z AUTO 00000KT 1/2SM FG BKN039 04/02 A3004 RMK AO2 T00390022=
202311160328 SPECI KCLM 160328Z AUTO 15003KT 1 3/4SM BR BKN039 03/02 A3003 RMK AO2 T00330022=
202311160322 SPECI KCLM 160322Z AUTO 15004KT 5SM BR BKN039 05/03 A3003 RMK AO2 T00500028=
202311160315 SPECI KCLM 160315Z AUTO 15003KT 2SM BR BKN039 03/02 A3003 RMK AO2 T00330017=
202311160310 SPECI KCLM 160310Z AUTO 15003KT 3/4SM BR BKN039 03/02 A3003 RMK AO2 T00330022=
202311160300 SPECI KCLM 160300Z AUTO 00000KT 1 3/4SM BR SCT039 04/03 A3002 RMK AO2 T00390028=
202311160253 METAR KCLM 160253Z AUTO 16003KT 4SM BR FEW039 SCT055 06/03 A3003 RMK AO2 SLP170 60001 T00560033 51004=
202311160237 SPECI KCLM 160237Z AUTO 00000KT 2 1/2SM BR SCT029 BKN055 06/03 A3003 RMK AO2 T00560033=
202311160153 METAR KCLM 160153Z AUTO 00000KT 6SM BR OVC029 06/04 A3002 RMK AO2 SLP166 T00610044=
202311160148 SPECI KCLM 160148Z AUTO 00000KT 6SM BR OVC029 06/04 A3001 RMK AO2=
202311160137 SPECI KCLM 160137Z AUTO 00000KT 5SM HZ OVC030 06/03 A3001 RMK AO2 T00610033=
202311160117 SPECI KCLM 160117Z AUTO 00000KT 6SM BR OVC028 06/04 A3000 RMK AO2 T00610044=
202311160053 METAR KCLM 160053Z AUTO 12003KT 7SM SCT027 SCT032 06/04 A2999 RMK AO2 RAE39 SLP160 P0001 T00560039=
202311160026 SPECI KCLM 160026Z AUTO 13003KT 4SM -RA BR SCT023 BKN029 OVC050 07/04 A2999 RMK AO2 P0001 T00670044=
202311160015 SPECI KCLM 160015Z AUTO 13004KT 2 1/2SM -RA BR SCT014 OVC024 07/04 A3000 RMK AO2 P0001 T00670044=
202311160006 SPECI KCLM 160006Z AUTO 00000KT 2SM -RA BR BKN014 OVC022 07/04 A3000 RMK AO2 P0000 T00670044=
202311152353 METAR KCLM 152353Z AUTO 00000KT 1 1/2SM -RA BR BKN012 OVC017 07/04 A2999 RMK AO2 RAB00E07B34 SLP158 P0001 60001 T00670044 10089 20056 53004=
202311152340 SPECI KCLM 152340Z AUTO 00000KT 1 3/4SM -RA OVC013 07/04 A2999 RMK AO2 RAB00E07B34 P0000 T00720044=
202311152327 SPECI KCLM 152327Z AUTO 04004KT 2SM HZ BKN013 OVC026 07/04 A2999 RMK AO2 RAB00E07 P0000 T00720039=
202311152307 SPECI KCLM 152307Z AUTO 05004KT 10SM SCT015 BKN026 OVC041 08/03 A2998 RMK AO2 RAB00E07 P0000 T00780033=
202311152253 METAR KCLM 152253Z AUTO VRB03KT 10SM FEW026 OVC041 08/04 A2997 RMK AO2 RAB2158E31 SLP150 P0000 T00780039=
202311152227 SPECI KCLM 152227Z AUTO 08004KT 7SM -RA SCT019 BKN047 OVC055 08/03 A2997 RMK AO2 RAB2158 P0000 T00830033=
202311152153 METAR KCLM 152153Z AUTO VRB03KT 10SM BKN017 BKN049 OVC060 08/03 A2997 RMK AO2 SLP151 T00830028=
202311152053 METAR KCLM 152053Z AUTO 08005KT 10SM BKN015 OVC022 08/03 A2998 RMK AO2 SLP154 T00830033 50002=
202311152038 SPECI KCLM 152038Z AUTO 00000KT 10SM BKN015 BKN019 OVC070 08/04 A2999 RMK AO2 T00830039=
202311151953 METAR KCLM 151953Z AUTO 00000KT 10SM FEW015 SCT021 BKN120 08/03 A2999 RMK AO2 SLP157 T00830033=
202311151950 SPECI KCLM 151950Z AUTO 00000KT 10SM FEW017 SCT021 BKN120 08/03 A2999 RMK AO2=
202311151931 SPECI KCLM 151931Z AUTO 00000KT 10SM BKN016 BKN020 08/03 A2998 RMK AO2 T00830028=
202311151853 METAR KCLM 151853Z AUTO 00000KT 10SM CLR 08/02 A2998 RMK AO2 SLP153 T00780017=
202311151753 METAR KCLM 151753Z AUTO 21005KT 10SM FEW060 SCT095 BKN120 06/01 A2997 RMK AO2 RAE1656 SLP150 P0000 60000 T00560006 10056 21006 58002=
202311151653 METAR KCLM 151653Z AUTO 20003KT 10SM -RA BKN055 OVC070 04/01 A2997 RMK AO2 RAB47 SLP151 P0000 T00390006=
202311151553 METAR KCLM 151553Z AUTO 21003KT 10SM OVC100 02/00 A2998 RMK AO2 SLP155 T00220000=
202311151453 METAR KCLM 151453Z AUTO 24003KT 10SM BKN090 OVC110 02/M01 A2997 RMK AO2 SLP153 T00171006 53001=
202311151353 METAR KCLM 151353Z AUTO 24004KT 10SM BKN090 01/M01 A2996 RMK AO2 SLP149 T00111011=
202311151253 METAR KCLM 151253Z AUTO 22005KT 10SM CLR 01/M02 A2996 RMK AO2 SLP147 T00111017=
202311151153 METAR KCLM 151153Z AUTO 22006KT 10SM FEW017 01/M02 A2997 RMK AO2 SLP150 I6000 T00111017 10022 21006 56008=
202311151053 METAR KCLM 151053Z AUTO 22004KT 10SM SCT016 01/M01 A2997 RMK AO2 SLP152 T00111011=
202311150953 METAR KCLM 150953Z AUTO 23005KT 10SM BKN016 02/M01 A2998 RMK AO2 SLP155 T00171011=
202311150930 SPECI KCLM 150930Z AUTO 22004KT 10SM BKN016 02/M01 A2998 RMK AO2 T00171011=
202311150912 SPECI KCLM 150912Z AUTO 22004KT 10SM SCT016 01/M01 A2999 RMK AO2 T00061011=
202311150853 METAR KCLM 150853Z AUTO VRB03KT 10SM BKN016 02/M01 A2999 RMK AO2 SLP158 I3000 T00221006 56001=
202311150753 METAR KCLM 150753Z AUTO 22004KT 10SM CLR 00/M02 A2999 RMK AO2 SLP159 T00001022 401001006=
202311150653 METAR KCLM 150653Z AUTO 22007KT 10SM CLR 02/M01 A2999 RMK AO2 SLP157 I1000 T00221011=
202311150553 METAR KCLM 150553Z AUTO 22003KT 10SM CLR 01/M01 A2999 RMK AO2 SLP159 I1000 I6000 T00061011 10078 20000 58005=
202311150453 METAR KCLM 150453Z AUTO 21004KT 10SM CLR 01/M01 A3000 RMK AO2 SLP163 I1000 T00111011=
202311150353 METAR KCLM 150353Z AUTO 00000KT 10SM CLR 01/M01 A3000 RMK AO2 SLP162 T00061011=
202311150253 METAR KCLM 150253Z AUTO 00000KT 10SM CLR 02/01 A3001 RMK AO2 SLP164 T00220006 56008=
202311150153 METAR KCLM 150153Z AUTO 00000KT 10SM CLR 03/01 A3001 RMK AO2 SLP165 T00330011=
202311150053 METAR KCLM 150053Z AUTO 00000KT 10SM CLR 05/02 A3002 RMK AO2 SLP169 T00500022=
202311150015 SPECI KCLM 150015Z AUTO 11004KT 10SM SCT017 07/03 A3002 RMK AO2 T00720028=
202311142353 METAR KCLM 142353Z AUTO 09003KT 10SM BKN018 08/03 A3003 RMK AO2 SLP171 T00780033 10100 20078 57009=
202311142253 METAR KCLM 142253Z AUTO 09006KT 10SM OVC019 08/03 A3004 RMK AO2 SLP174 T00830033=
202311142153 METAR KCLM 142153Z AUTO VRB04KT 10SM OVC018 08/04 A3005 RMK AO2 SLP177 T00830039=
202311142053 METAR KCLM 142053Z AUTO 07003KT 10SM OVC019 09/03 A3006 RMK AO2 SLP181 T00890033 58012=
202311142003 SPECI KCLM 142003Z AUTO 07006KT 10SM BKN018 09/03 A3008 RMK AO2 T00890033=
202311141953 METAR KCLM 141953Z AUTO 08007KT 10SM SCT020 09/03 A3008 RMK AO2 SLP188 T00890033=
202311141921 SPECI KCLM 141921Z AUTO 07004KT 10SM SCT018 09/03 A3008 RMK AO2 T00890033=
202311141853 METAR KCLM 141853Z AUTO VRB05KT 10SM OVC016 09/03 A3010 RMK AO2 SLP193 T00940033=
202311141839 SPECI KCLM 141839Z AUTO VRB03KT 10SM BKN016 09/03 A3010 RMK AO2 T00890033=
202311141753 METAR KCLM 141753Z AUTO 00000KT 10SM CLR 08/02 A3009 RMK AO2 SLP193 T00780017 10078 20000 58012=
202311141653 METAR KCLM 141653Z AUTO 22007KT 10SM FEW015 04/M01 A3012 RMK AO2 SLP200 T00391006=
202311141632 SPECI KCLM 141632Z AUTO 23007KT 10SM BKN015 03/M01 A3012 RMK AO2 T00331006=
202311141606 SPECI KCLM 141606Z AUTO 23005KT 10SM SCT015 02/M01 A3011 RMK AO2 T00221006=
202311141553 METAR KCLM 141553Z AUTO 00000KT 10SM BKN015 03/M01 A3012 RMK AO2 SLP201 T00281006=
202311141523 SPECI KCLM 141523Z AUTO 22007KT 10SM OVC015 03/M01 A3012 RMK AO2 T00281011=
202311141453 METAR KCLM 141453Z AUTO 22007KT 10SM OVC013 03/M01 A3013 RMK AO2 SLP205 T00281011 55008=
202311141430 SPECI KCLM 141430Z AUTO 22007KT 10SM BKN013 02/M01 A3013 RMK AO2 T00221011=
202311141353 METAR KCLM 141353Z AUTO 22007KT 10SM CLR 02/M01 A3013 RMK AO2 SLP204 T00221011=
202311141253 METAR KCLM 141253Z AUTO 20004KT 10SM FEW020 01/M02 A3014 RMK AO2 SLP208 T00111017=
202311141153 METAR KCLM 141153Z AUTO 21003KT 10SM CLR 01/M02 A3015 RMK AO2 SLP213 T00061022 10061 20006 56005=
202311141053 METAR KCLM 141053Z AUTO 23007KT 10SM CLR 03/M01 A3016 RMK AO2 SLP214 T00331006=
202311140953 METAR KCLM 140953Z AUTO 23006KT 10SM CLR 03/00 A3015 RMK AO2 SLP211 T00330000=
202311140853 METAR KCLM 140853Z AUTO 23009KT 10SM CLR 04/00 A3017 RMK AO2 SLP218 T00440000 58004=
202311140753 METAR KCLM 140753Z AUTO 23007KT 10SM CLR 04/01 A3018 RMK AO2 SLP219 T00440006 401220033=
202311140653 METAR KCLM 140653Z AUTO 23009KT 10SM CLR 06/01 A3019 RMK AO2 SLP224 T00610011=
202311140553 METAR KCLM 140553Z AUTO 23007KT 10SM CLR 05/02 A3018 RMK AO2 SLP222 T00500017 10106 20033 53014=
202311140453 METAR KCLM 140453Z AUTO 22005KT 10SM CLR 04/02 A3016 RMK AO2 SLP213 T00390017=
202311140353 METAR KCLM 140353Z AUTO 00000KT 10SM FEW040 03/01 A3014 RMK AO2 SLP209 T00330011=
202311140253 METAR KCLM 140253Z AUTO 23007KT 10SM CLR 04/02 A3014 RMK AO2 SLP209 T00440022 53004=
202311140153 METAR KCLM 140153Z AUTO 23006KT 10SM CLR 06/03 A3014 RMK AO2 SLP207 T00560028=
202311140053 METAR KCLM 140053Z AUTO 19003KT 10SM FEW035 07/04 A3013 RMK AO2 SLP206 T00670039=
202311132353 METAR KCLM 132353Z AUTO 25003KT 10SM OVC070 10/04 A3013 RMK AO2 SLP204 T01000039 10122 20094 53013=
202311132253 METAR KCLM 132253Z AUTO 30007KT 10SM CLR 11/04 A3012 RMK AO2 SLP199 T01060044=
202311132153 METAR KCLM 132153Z AUTO 29007KT 10SM CLR 11/04 A3010 RMK AO2 SLP194 T01110044=
202311132053 METAR KCLM 132053Z AUTO 29011KT 10SM CLR 11/04 A3009 RMK AO2 SLP191 T01110044 51014=
202311131953 METAR KCLM 131953Z AUTO 23006KT 10SM CLR 12/04 A3008 RMK AO2 SLP188 T01170039=
202311131853 METAR KCLM 131853Z AUTO 26008KT 10SM CLR 11/04 A3008 RMK AO2 SLP186 T01060039=
202311131753 METAR KCLM 131753Z AUTO 24007KT 10SM CLR 09/03 A3005 RMK AO2 RAB08E18 SLP177 P0000 60000 T00940033 10094 20061 51030=
202311131653 METAR KCLM 131653Z AUTO 25008KT 10SM FEW060 08/04 A3003 RMK AO2 SLP172 T00830039=
202311131553 METAR KCLM 131553Z AUTO 25007KT 10SM BKN060 BKN070 07/03 A3000 RMK AO2 SLP161 T00670033=
202311131453 METAR KCLM 131453Z AUTO 23007KT 10SM CLR 07/03 A2996 RMK AO2 SLP148 T00670033 53028=
202311131353 METAR KCLM 131353Z AUTO 24008KT 10SM CLR 07/03 A2993 RMK AO2 SLP137 T00720033 $=
202311131253 METAR KCLM 131253Z AUTO 24008KT 10SM CLR 08/03 A2990 RMK AO2 SLP126 T00780033 $=
202311131153 METAR KCLM 131153Z AUTO 27009KT 10SM FEW060 07/04 A2988 RMK AO2 SLP118 60006 70017 T00720039 10089 20067 51022 $=
202311131053 METAR KCLM 131053Z AUTO 28008KT 10SM CLR 07/04 A2986 RMK AO2 SLP111 T00720039 $=
202311130953 METAR KCLM 130953Z AUTO 24006KT 10SM BKN043 OVC055 08/05 A2984 RMK AO2 RAB25E35 SLP105 P0000 T00780050 $=
202311130853 METAR KCLM 130853Z AUTO 28008KT 10SM BKN034 BKN042 08/06 A2981 RMK AO2 RAE42 SLP096 P0004 60006 T00780056 51033 $=
202311130753 METAR KCLM 130753Z AUTO 28011G19KT 7SM -RA FEW008 BKN031 OVC050 09/07 A2979 RMK AO2 SLP088 P0002 T00890072 401110039 $=
202311130747 SPECI KCLM 130747Z AUTO 28008KT 7SM -RA FEW008 BKN031 OVC050 09/07 A2978 RMK AO2 P0002 $=
202311130735 SPECI KCLM 130735Z AUTO 27006KT 8SM -RA SCT010 BKN016 OVC070 09/07 A2978 RMK AO2 P0001 T00890067 $=
202311130653 METAR KCLM 130653Z AUTO 31004KT 8SM -RA FEW011 BKN055 OVC090 08/06 A2974 RMK AO2 RAB14E25B31E40B46 SLP071 P0000 T00780061 $=
202311130645 SPECI KCLM 130645Z AUTO 25003KT 10SM SCT011 BKN060 OVC090 07/06 A2974 RMK AO2 RAB14E25B31E40 P0000 T00720056 $=
202311130635 SPECI KCLM 130635Z AUTO 25005KT 10SM -RA BKN011 BKN050 BKN095 08/06 A2974 RMK AO2 RAB14E25B31 P0000 T00780056 $=
202311130628 SPECI KCLM 130628Z AUTO 22005KT 10SM BKN009 BKN014 OVC095 08/06 A2973 RMK AO2 RAB14E25 P0000 T00780056 $=
202311130622 SPECI KCLM 130622Z AUTO 23004KT 10SM -RA BKN012 BKN065 OVC095 08/06 A2973 RMK AO2 RAB14 P0000 T00780056 $=
202311130553 METAR KCLM 130553Z AUTO 22004KT 10SM SCT014 07/06 A2971 RMK AO2 SLP062 60011 T00720056 10094 20067 53008 $=
202311130542 SPECI KCLM 130542Z AUTO 00000KT 10SM SCT014 07/06 A2970 RMK AO2 T00720056 $=
202311130526 SPECI KCLM 130526Z AUTO 00000KT 10SM BKN013 08/06 A2970 RMK AO2 T00830056 $=
202311130517 SPECI KCLM 130517Z AUTO 22005KT 10SM SCT009 09/06 A2969 RMK AO2 T00890061 $=
202311130512 SPECI KCLM 130512Z AUTO 19006KT 10SM BKN010 08/06 A2969 RMK AO2 T00780061 $=
202311130453 METAR KCLM 130453Z AUTO 24004KT 10SM SCT010 BKN110 07/06 A2969 RMK AO2 RAE11 SLP055 P0001 T00720061 $=
202311130353 METAR KCLM 130353Z AUTO 29004KT 10SM -RA FEW008 OVC055 09/07 A2969 RMK AO2 SLP054 P0002 T00890067 $=
202311130349 SPECI KCLM 130349Z AUTO 29003KT 10SM -RA SCT008 OVC055 09/07 A2969 RMK AO2 P0002 $=
202311130330 SPECI KCLM 130330Z AUTO 24006KT 9SM -RA BKN008 OVC055 09/07 A2970 RMK AO2 P0001 T00890067=
202311130321 SPECI KCLM 130321Z AUTO 26006KT 10SM -RA SCT007 SCT013 OVC055 09/07 A2969 RMK AO2 P0001 T00890067=
202311130253 METAR KCLM 130253Z AUTO 24005KT 10SM -RA OVC060 09/07 A2968 RMK AO2 SLP053 P0003 60008 T00890067 55011=
202311130153 METAR KCLM 130153Z AUTO 19003KT 6SM -RA BR OVC050 09/07 A2968 RMK AO2 SLP051 P0004 T00890067=
202311130053 METAR KCLM 130053Z AUTO 24004KT 7SM -RA OVC050 09/07 A2970 RMK AO2 RAB12 SLP060 P0001 T00890067=
202311122353 METAR KCLM 122353Z AUTO 23003KT 10SM FEW065 OVC085 09/07 A2971 RMK AO2 SLP064 T00940067 10111 20094 58030=
202311122253 METAR KCLM 122253Z AUTO 29003KT 10SM OVC085 10/06 A2975 RMK AO2 SLP074 T01000061=
202311122153 METAR KCLM 122153Z AUTO 00000KT 10SM FEW070 11/06 A2977 RMK AO2 SLP084 T01060061=
202311122053 METAR KCLM 122053Z AUTO 00000KT 10SM BKN070 11/06 A2980 RMK AO2 SLP094 T01060056 58020=
202311121953 METAR KCLM 121953Z AUTO 18003KT 10SM BKN070 10/06 A2983 RMK AO2 SLP102 T01000061=
202311121853 METAR KCLM 121853Z AUTO 26008KT 10SM SCT013 10/06 A2985 RMK AO2 SLP109 T01000061=
202311121842 SPECI KCLM 121842Z AUTO 26006KT 10SM SCT014 11/06 A2985 RMK AO2 T01060056=
202311121832 SPECI KCLM 121832Z AUTO 28004KT 10SM BKN014 10/05 A2985 RMK AO2 T01000050=
202311121824 SPECI KCLM 121824Z AUTO 22005KT 10SM SCT012 11/05 A2986 RMK AO2 T01060050=
202311121811 SPECI KCLM 121811Z AUTO 24005KT 10SM BKN012 11/05 A2986 RMK AO2 T01060050=
202311121753 METAR KCLM 121753Z AUTO 22006KT 10SM CLR 09/06 A2986 RMK AO2 SLP113 T00940056 10094 20050 58018=
202311121653 METAR KCLM 121653Z AUTO 25008KT 10SM CLR 08/04 A2989 RMK AO2 SLP122 T00780044=
202311121600 SPECI KCLM 121600Z AUTO 26008KT 10SM FEW007 07/04 A2992 RMK AO2 T00720044=
202311121553 METAR KCLM 121553Z AUTO 26010KT 10SM CLR 07/04 A2991 RMK AO2 SLP132 T00720039=
202311121453 METAR KCLM 121453Z AUTO 00000KT 10SM CLR 05/03 A2992 RMK AO2 SLP132 T00500033 56033=
202311121353 METAR KCLM 121353Z AUTO 12004KT 10SM FEW120 05/04 A2994 RMK AO2 SLP142 T00500039=
202311121253 METAR KCLM 121253Z AUTO 25003KT 10SM FEW060 SCT075 BKN120 06/03 A2998 RMK AO2 SLP154 T00560033=
202311121153 METAR KCLM 121153Z AUTO 20003KT 10SM OVC110 05/03 A3001 RMK AO2 SLP166 70042 T00500033 10072 20039 58021=
202311121053 METAR KCLM 121053Z AUTO 21005KT 10SM CLR 04/02 A3004 RMK AO2 SLP174 T00390022=
202311120953 METAR KCLM 120953Z AUTO 00000KT 10SM CLR 04/03 A3006 RMK AO2 SLP181 T00440028=
202311120853 METAR KCLM 120853Z AUTO 00000KT 10SM CLR 05/03 A3008 RMK AO2 SLP187 T00500028 51003=
202311120753 METAR KCLM 120753Z AUTO VRB04KT 10SM CLR 06/03 A3008 RMK AO2 SLP186 T00560028 401560044=
202311120653 METAR KCLM 120653Z AUTO 23003KT 10SM CLR 06/03 A3008 RMK AO2 SLP188 T00560028=
202311120553 METAR KCLM 120553Z AUTO 00000KT 10SM CLR 07/03 A3007 RMK AO2 SLP183 60001 T00670028 10100 20061 53010=
202311120453 METAR KCLM 120453Z AUTO 24011KT 10SM CLR 08/04 A3005 RMK AO2 SLP175 T00780039=
202311120353 METAR KCLM 120353Z AUTO 27009KT 10SM FEW100 08/04 A3005 RMK AO2 RAE08 SLP177 P0001 T00830039=
202311120253 METAR KCLM 120253Z AUTO 28008KT 10SM -RA BKN050 BKN075 OVC090 09/05 A3004 RMK AO2 RAB48 SLP172 P0000 60000 T00890050 53031=
202311120153 METAR KCLM 120153Z AUTO 24006KT 10SM SCT060 BKN090 09/05 A3001 RMK AO2 SLP161 T00890050=
202311120053 METAR KCLM 120053Z AUTO 23006KT 10SM SCT045 BKN065 BKN095 09/06 A2997 RMK AO2 RAB2356E09B40E50 SLP150 P0000 T00890056=
202311112353 METAR KCLM 112353Z AUTO 23009KT 10SM BKN055 OVC070 10/06 A2995 RMK AO2 RAE42 SLP141 P0000 60006 T01000056 10122 20094 53016=
202311112253 METAR KCLM 112253Z AUTO 24010KT 10SM -RA SCT041 BKN050 10/06 A2992 RMK AO2 SLP131 P0000 T01000061=
202311112153 METAR KCLM 112153Z AUTO 23008KT 7SM -RA FEW034 BKN046 OVC055 10/07 A2990 RMK AO2 RAB01 SLP125 P0004 T01000067=
202311112053 METAR KCLM 112053Z AUTO 25005KT 10SM BKN045 OVC055 11/07 A2990 RMK AO2 RAE27 SLP125 P0001 60002 T01060072 51028=
202311111953 METAR KCLM 111953Z AUTO 26008KT 10SM -RA SCT033 BKN044 OVC055 09/06 A2988 RMK AO2 RAB24 SLP120 P0001 T00940061=
202311111853 METAR KCLM 111853Z AUTO 25009KT 10SM FEW050 SCT065 OVC085 12/06 A2984 RMK AO2 RAB32E42 SLP104 P0000 T01220061=
202311111753 METAR KCLM 111753Z AUTO 27008KT 10SM FEW046 SCT055 11/06 A2981 RMK AO2 RAB04E39 SLP096 P0002 60035 T01060061 10106 20083 51029=
202311111653 METAR KCLM 111653Z AUTO 24004KT 10SM SCT038 BKN050 OVC075 09/06 A2979 RMK AO2 RAE49 SLP088 P0004 T00940061=
202311111553 METAR KCLM 111553Z AUTO 23006KT 10SM -RA BKN048 OVC060 09/07 A2976 RMK AO2 SLP078 P0001 T00890067=
202311111453 METAR KCLM 111453Z AUTO 18008KT 10SM -RA OVC050 09/07 A2973 RMK AO2 SLP067 P0002 60028 T00890067 51013=
202311111353 METAR KCLM 111353Z AUTO 19007KT 5SM RA OVC041 09/06 A2971 RMK AO2 SLP060 P0014 T00940061=
202311111253 METAR KCLM 111253Z AUTO 25006KT 4SM -RA OVC042 09/07 A2972 RMK AO2 SLP064 P0012 T00940067=
202311111153 METAR KCLM 111153Z AUTO 30016G27KT 5SM RA OVC047 10/07 A2969 RMK AO2 PK WND 30032/1100 SLP053 P0020 60023 70027 T01000072 10156 20089 53008=
202311111143 SPECI KCLM 111143Z AUTO 29014G29KT 5SM -RA FEW008 OVC043 10/07 A2967 RMK AO2 PK WND 30032/1100 P0017 T01000072=
202311111132 SPECI KCLM 111132Z AUTO 30012G27KT 2SM +RA BR FEW008 SCT013 OVC030 10/08 A2966 RMK AO2 PK WND 30032/1100 VIS 1 1/2V3 P0015 T01000078=
202311111126 SPECI KCLM 111126Z AUTO 30015G27KT 2 1/2SM RA BR SCT008 BKN014 OVC028 10/08 A2965 RMK AO2 PK WND 30032/1100 P0012 T01000078=
202311111117 SPECI KCLM 111117Z AUTO 31016G30KT 3SM RA BR SCT008 BKN015 OVC028 10/08 A2966 RMK AO2 PK WND 30032/1100 P0008 T01000078=
202311111103 SPECI KCLM 111103Z AUTO 29017G32KT 2 1/2SM RA BR BKN008 BKN017 OVC060 10/08 A2967 RMK AO2 PK WND 30032/1100 P0003 T01000078=
202311111059 SPECI KCLM 111059Z AUTO 31016G30KT 3SM RA SCT008 BKN014 OVC070 10/07 A2966 RMK AO2 PK WND 34030/1056 P0002 T01000072=
202311111053 METAR KCLM 111053Z AUTO 30017G27KT 9SM -RA FEW008 BKN055 OVC070 11/07 A2966 RMK AO2 PK WND 32027/1050 RAE01B32 SLP043 P0000 T01060072=
202311110953 METAR KCLM 110953Z AUTO VRB06KT 10SM -RA BKN041 BKN070 BKN100 14/07 A2961 RMK AO2 RAE27B49 PRESFR SLP026 P0000 T01390067=
202311110853 METAR KCLM 110853Z AUTO 16010KT 10SM -RA BKN048 OVC070 12/07 A2966 RMK AO2 PRESFR SLP045 P0001 60003 T01220072 56028=
202311110753 METAR KCLM 110753Z AUTO 22012G21KT 10SM -RA SCT042 15/06 A2969 RMK AO2 PK WND 20029/0724 RAE18B44 SLP054 P0001 T01500061 401500056=
202311110653 METAR KCLM 110653Z AUTO 22020G34KT 10SM -RA SCT036 14/06 A2969 RMK AO2 PK WND 23034/0652 RAE01B18E28B49 SLP056 P0001 T01390056=
202311110553 METAR KCLM 110553Z AUTO 25011G17KT 10SM -RA BKN046 11/06 A2975 RMK AO2 SLP073 P0002 60004 T01060056 10106 20072 58039=
202311110453 METAR KCLM 110453Z AUTO 00000KT 6SM -RA BR BKN055 OVC100 08/06 A2980 RMK AO2 RAB12 SLP091 P0002 T00780056=
202311110353 METAR KCLM 110353Z AUTO 00000KT 10SM SCT060 BKN110 08/05 A2982 RMK AO2 RAB02E12 SLP098 P0000 T00780050=
202311110253 METAR KCLM 110253Z AUTO 11003KT 10SM SCT055 BKN110 08/05 A2986 RMK AO2 SLP114 T00780050 56038=
202311110153 METAR KCLM 110153Z AUTO 28003KT 10SM BKN110 08/05 A2989 RMK AO2 SLP125 T00830050=
202311110053 METAR KCLM 110053Z AUTO 00000KT 10SM SCT065 OVC100 09/05 A2994 RMK AO2 SLP140 T00940050=
202311102353 METAR KCLM 102353Z AUTO 11005KT 10SM BKN110 10/06 A2998 RMK AO2 SLP151 T01000056 10117 20100 56025=
202311102253 METAR KCLM 102253Z AUTO 00000KT 10SM FEW060 OVC100 10/06 A3000 RMK AO2 SLP161 T01000056=
202311102153 METAR KCLM 102153Z AUTO 07003KT 10SM BKN060 BKN100 11/06 A3002 RMK AO2 SLP167 T01060056=
202311102053 METAR KCLM 102053Z AUTO 32003KT 10SM SCT075 OVC095 11/06 A3005 RMK AO2 SLP177 T01060061 58010=
202311101953 METAR KCLM 101953Z AUTO 34004KT 10SM FEW065 OVC095 11/05 A3007 RMK AO2 SLP183 T01110050=
202311101853 METAR KCLM 101853Z AUTO 28007KT 10SM SCT060 BKN070 OVC100 11/04 A3008 RMK AO2 SLP185 T01060044=
202311101753 METAR KCLM 101753Z AUTO 26008KT 10SM OVC055 09/04 A3008 RMK AO2 SLP187 T00940044 10094 20056 51002=
202311101653 METAR KCLM 101653Z AUTO 00000KT 10SM SCT060 BKN090 08/04 A3008 RMK AO2 SLP187 T00830044=
202311101553 METAR KCLM 101553Z AUTO 00000KT 10SM OVC065 06/04 A3008 RMK AO2 SLP188 T00610039=
202311101453 METAR KCLM 101453Z AUTO 00000KT 10SM OVC065 07/04 A3007 RMK AO2 SLP185 T00720039 50004=
202311101353 METAR KCLM 101353Z AUTO 23005KT 10SM OVC075 06/04 A3008 RMK AO2 SLP187 T00610039=
202311101253 METAR KCLM 101253Z AUTO 00000KT 10SM BKN070 OVC085 07/03 A3007 RMK AO2 SLP183 T00720033=
202311101153 METAR KCLM 101153Z AUTO 25008KT 10SM SCT070 OVC080 08/04 A3006 RMK AO2 SLP181 70004 T00780039 10089 20056 50004=
202311101053 METAR KCLM 101053Z AUTO 23005KT 10SM BKN060 07/03 A3007 RMK AO2 SLP182 T00670033=
202311100953 METAR KCLM 100953Z AUTO 23004KT 10SM OVC055 08/04 A3006 RMK AO2 SLP180 T00780044=
202311100853 METAR KCLM 100853Z AUTO 25009KT 10SM FEW060 08/04 A3005 RMK AO2 SLP177 T00830044 51016=
202311100753 METAR KCLM 100753Z AUTO 26008KT 10SM OVC060 08/04 A3004 RMK AO2 SLP173 T00830044 401060011=
202311100653 METAR KCLM 100653Z AUTO 17004KT 10SM CLR 07/04 A3002 RMK AO2 SLP168 T00670044=
202311100553 METAR KCLM 100553Z AUTO 23008KT 10SM CLR 09/05 A3000 RMK AO2 RAB0459E24 SLP160 P0001 60004 T00890050 10094 20072 50013=
202311100453 METAR KCLM 100453Z AUTO 21003KT 10SM FEW043 BKN049 OVC080 08/06 A3000 RMK AO2 SLP162 T00830056=
202311100353 METAR KCLM 100353Z AUTO 27003KT 10SM OVC060 08/06 A2998 RMK AO2 SLP153 T00780056=
202311100253 METAR KCLM 100253Z AUTO 17004KT 10SM OVC060 08/06 A2996 RMK AO2 SLP149 60003 T00830061 53008=
202311100153 METAR KCLM 100153Z AUTO 08003KT 10SM SCT050 BKN070 OVC080 08/06 A2995 RMK AO2 RAE11 SLP144 P0000 T00830061=
202311100123 SPECI KCLM 100123Z AUTO 15004KT 9SM SCT014 BKN055 08/06 A2995 RMK AO2 RAE11 P0000 T00830061=
202311100111 SPECI KCLM 100111Z AUTO 00000KT 10SM BKN014 OVC060 09/07 A2995 RMK AO2 RAE11 P0000 T00890067=
202311100053 METAR KCLM 100053Z AUTO VRB03KT 10SM -RA OVC060 09/07 A2995 RMK AO2 SLP143 P0003 T00890067=
202311100032 SPECI KCLM 100032Z AUTO 21003KT 4SM -RA BR FEW013 SCT027 OVC049 09/07 A2995 RMK AO2 P0003 T00890067=
202311100021 SPECI KCLM 100021Z AUTO 32004KT 3SM -RA SCT014 BKN028 OVC050 09/06 A2995 RMK AO2 P0002 T00940061=
202311092353 METAR KCLM 092353Z AUTO 29006KT 9SM -RA OVC055 09/07 A2994 RMK AO2 RAB2255 PRESRR SLP140 P0000 60000 T00940067 10106 20089 55005=
202311092253 METAR KCLM 092253Z AUTO 10004KT 10SM SCT060 BKN075 OVC090 10/06 A2990 RMK AO2 SLP127 T01000056=
202311092153 METAR KCLM 092153Z AUTO 06004KT 10SM BKN070 OVC085 10/06 A2993 RMK AO2 SLP137 T01000056=
202311092101 SPECI KCLM 092101Z AUTO VRB04KT 10SM SCT013 BKN085 OVC100 10/06 A2996 RMK AO2 T01000056=
202311092053 METAR KCLM 092053Z AUTO VRB05KT 10SM BKN013 BKN085 OVC110 10/06 A2996 RMK AO2 SLP146 T01000056 58023=
202311092008 SPECI KCLM 092008Z AUTO 29010KT 10SM BKN014 BKN100 09/06 A2998 RMK AO2 T00940056=
202311091953 METAR KCLM 091953Z AUTO 29007KT 10SM FEW014 SCT100 09/05 A2999 RMK AO2 SLP156 T00940050=
202311091938 SPECI KCLM 091938Z AUTO 30007KT 10SM FEW014 FEW095 09/05 A2998 RMK AO2 T00940050=
202311091853 METAR KCLM 091853Z AUTO VRB06KT 10SM BKN012 10/06 A3000 RMK AO2 SLP160 T01000056=
202311091753 METAR KCLM 091753Z AUTO 25008KT 10SM BKN013 09/05 A3002 RMK AO2 SLP169 T00890050 10089 20022 58019=
202311091653 METAR KCLM 091653Z AUTO 24005KT 10SM BKN012 07/04 A3005 RMK AO2 SLP177 T00670044=
202311091604 SPECI KCLM 091604Z AUTO 23005KT 10SM OVC012 07/04 A3006 RMK AO2 T00670044=
202311091553 METAR KCLM 091553Z AUTO 28004KT 10SM BKN009 OVC012 07/04 A3006 RMK AO2 SLP183 T00670044=
202311091545 SPECI KCLM 091545Z AUTO 28003KT 10SM OVC009 07/04 A3006 RMK AO2 CIG 006V011 T00670044=
202311091453 METAR KCLM 091453Z AUTO 00000KT 10SM OVC011 06/04 A3008 RMK AO2 SLP188 T00610039 56030=
202311091353 METAR KCLM 091353Z AUTO 00000KT 10SM OVC012 06/04 A3010 RMK AO2 SLP196 T00560039=
202311091253 METAR KCLM 091253Z AUTO 21003KT 10SM BKN011 04/02 A3014 RMK AO2 SLP208 T00390022=
202311091231 SPECI KCLM 091231Z AUTO 21003KT 10SM BKN010 03/02 A3015 RMK AO2 T00330017=
202311091220 SPECI KCLM 091220Z AUTO 00000KT 10SM SCT009 03/02 A3015 RMK AO2 T00280017=
202311091153 METAR KCLM 091153Z AUTO 20003KT 10SM CLR 03/01 A3017 RMK AO2 SLP218 T00280011 10039 20011 56026=
202311091053 METAR KCLM 091053Z AUTO 00000KT 10SM CLR 02/01 A3020 RMK AO2 SLP227 T00220011=
202311090953 METAR KCLM 090953Z AUTO 00000KT 10SM CLR 02/00 A3022 RMK AO2 SLP234 T00170000=
202311090853 METAR KCLM 090853Z AUTO 00000KT 10SM CLR 02/01 A3025 RMK AO2 SLP244 T00220011 56022=
202311090753 METAR KCLM 090753Z AUTO 00000KT 10SM CLR 02/01 A3026 RMK AO2 SLP250 T00220011 401220022=
202311090653 METAR KCLM 090653Z AUTO 00000KT 9SM CLR 03/02 A3029 RMK AO2 SLP259 T00330017=
202311090553 METAR KCLM 090553Z AUTO 00000KT 9SM CLR 03/01 A3031 RMK AO2 SLP267 T00280006 10100 20022 56012=
202311090453 METAR KCLM 090453Z AUTO 00000KT 10SM CLR 03/01 A3032 RMK AO2 SLP268 T00330011=
202311090353 METAR KCLM 090353Z AUTO 21003KT 10SM CLR 04/02 A3033 RMK AO2 SLP274 T00440022=
202311090253 METAR KCLM 090253Z AUTO 00000KT 10SM CLR 06/03 A3035 RMK AO2 SLP279 T00560033 56011=
202311090153 METAR KCLM 090153Z AUTO 00000KT 10SM CLR 06/03 A3036 RMK AO2 SLP281 T00610033=
202311090053 METAR KCLM 090053Z AUTO 00000KT 10SM FEW060 08/04 A3037 RMK AO2 SLP286 T00780044=
202311082353 METAR KCLM 082353Z AUTO 00000KT 10SM CLR 10/05 A3038 RMK AO2 SLP290 T01000050 10122 20100 58011=
202311082253 METAR KCLM 082253Z AUTO 33003KT 10SM CLR 11/06 A3040 RMK AO2 SLP296 T01110056=
202311082153 METAR KCLM 082153Z AUTO 34004KT 10SM SCT060 11/04 A3040 RMK AO2 SLP297 T01110044=
202311082053 METAR KCLM 082053Z AUTO VRB03KT 10SM BKN060 11/06 A3042 RMK AO2 SLP301 T01110056 58008=
202311081953 METAR KCLM 081953Z AUTO VRB03KT 10SM OVC060 11/06 A3043 RMK AO2 SLP306 T01110056=
202311081853 METAR KCLM 081853Z AUTO 00000KT 10SM OVC060 12/04 A3044 RMK AO2 SLP309 T01170039=
202311081753 METAR KCLM 081753Z AUTO 23004KT 10SM OVC050 10/03 A3044 RMK AO2 SLP310 T01000028 10100 20056 52015=
202311081653 METAR KCLM 081653Z AUTO 23005KT 10SM OVC055 09/02 A3042 RMK AO2 SLP304 T00890022=
202311081553 METAR KCLM 081553Z AUTO 25004KT 10SM BKN050 OVC060 08/02 A3042 RMK AO2 SLP301 T00830022=
202311081453 METAR KCLM 081453Z AUTO 22005KT 10SM SCT050 07/02 A3040 RMK AO2 SLP296 T00670022 51007=
202311081353 METAR KCLM 081353Z AUTO 21004KT 10SM BKN050 07/02 A3040 RMK AO2 SLP294 T00720022=
202311081253 METAR KCLM 081253Z AUTO 25009KT 10SM BKN047 OVC055 08/02 A3039 RMK AO2 SLP292 T00830017=
202311081153 METAR KCLM 081153Z AUTO 25009KT 10SM SCT050 OVC070 08/01 A3038 RMK AO2 SLP288 T00830011 10083 20067 50001=
202311081053 METAR KCLM 081053Z AUTO 23010KT 10SM BKN046 08/02 A3038 RMK AO2 SLP290 T00830017=
202311080953 METAR KCLM 080953Z AUTO 23011KT 10SM FEW047 07/02 A3038 RMK AO2 SLP288 T00720017=
202311080853 METAR KCLM 080853Z AUTO 23009KT 10SM BKN050 07/02 A3037 RMK AO2 SLP287 T00720017 53014=
202311080753 METAR KCLM 080753Z AUTO 22009KT 10SM CLR 07/02 A3036 RMK AO2 SLP281 T00720017 401390061=
202311080653 METAR KCLM 080653Z AUTO 24009KT 10SM BKN046 08/02 A3034 RMK AO2 SLP275 T00780017=
202311080553 METAR KCLM 080553Z AUTO 22007KT 10SM FEW046 07/02 A3033 RMK AO2 SLP273 T00720022 10117 20061 53024=
202311080453 METAR KCLM 080453Z AUTO 23009KT 10SM CLR 08/02 A3031 RMK AO2 SLP265 T00780022=
202311080353 METAR KCLM 080353Z AUTO 24009KT 10SM CLR 08/02 A3028 RMK AO2 SLP256 T00780022=
202311080253 METAR KCLM 080253Z AUTO 25005KT 10SM CLR 06/02 A3026 RMK AO2 SLP249 T00610017 51029=
202311080153 METAR KCLM 080153Z AUTO 25008KT 10SM CLR 09/03 A3023 RMK AO2 SLP239 T00940028=
202311080053 METAR KCLM 080053Z AUTO 25007KT 10SM CLR 10/03 A3021 RMK AO2 SLP229 T01000028=
202311072353 METAR KCLM 072353Z AUTO 28009G19KT 10SM CLR 12/03 A3017 RMK AO2 SLP219 T01170028 10139 20117 53023=
202311072253 METAR KCLM 072253Z AUTO 29011G18KT 10SM CLR 13/03 A3015 RMK AO2 SLP210 T01280028=
202311072153 METAR KCLM 072153Z AUTO 30013G23KT 10SM CLR 13/03 A3013 RMK AO2 PK WND 29027/2133 SLP204 T01330028=
202311072053 METAR KCLM 072053Z AUTO 29013G24KT 10SM CLR 13/02 A3011 RMK AO2 SLP195 T01330022 51023=
202311071953 METAR KCLM 071953Z AUTO 28016G24KT 10SM CLR 13/03 A3009 RMK AO2 SLP191 T01330028=
202311071853 METAR KCLM 071853Z AUTO 27015G24KT 9SM FEW049 13/03 A3007 RMK AO2 SLP182 T01280028=
202311071753 METAR KCLM 071753Z AUTO 26015G23KT 10SM CLR 12/02 A3004 RMK AO2 PK WND 27026/1710 SLP172 60000 T01220022 10122 20094 53033=
202311071653 METAR KCLM 071653Z AUTO 28015G23KT 10SM CLR 11/02 A3001 RMK AO2 SLP162 T01110022=
202311071553 METAR KCLM 071553Z AUTO 29006KT 10SM CLR 09/05 A2996 RMK AO2 SLP146 T00940050=
202311071453 METAR KCLM 071453Z AUTO 28010G18KT 10SM FEW030 OVC041 11/06 A2994 RMK AO2 PK WND 27026/1404 SLP139 60000 T01060061 51045=
202311071353 METAR KCLM 071353Z AUTO 28014G26KT 10SM FEW033 OVC045 11/07 A2990 RMK AO2 PK WND 27026/1350 RAE00 PRESRR SLP126 P0000 T01110067=
202311071253 METAR KCLM 071253Z AUTO 29009KT 10SM -RA SCT033 OVC042 11/07 A2985 RMK AO2 RAB50 SLP108 P0000 T01110072=
202311071153 METAR KCLM 071153Z AUTO 26009KT 10SM FEW037 OVC047 11/08 A2981 RMK AO2 RAB29E47 SLP094 P0000 60002 70004 T01060078 10111 20089 51029=
202311071053 METAR KCLM 071053Z AUTO 26009G18KT 10SM FEW041 BKN048 OVC070 11/07 A2979 RMK AO2 RAE43 SLP088 P0002 T01060072=
202311071035 SPECI KCLM 071035Z AUTO 26014G21KT 9SM -RA FEW019 BKN039 OVC046 11/08 A2978 RMK AO2 P0002 T01060078=
202311071028 SPECI KCLM 071028Z AUTO 26013G23KT 4SM -RA BR FEW022 BKN029 OVC043 10/08 A2978 RMK AO2 P0002 T01000078=
202311070953 METAR KCLM 070953Z AUTO 29006KT 10SM -RA OVC042 11/07 A2976 RMK AO2 RAE12B38 PRESRR SLP079 P0000 T01060072=
202311070853 METAR KCLM 070853Z AUTO 25008KT 10SM -RA BKN065 BKN095 OVC120 11/07 A2972 RMK AO2 RAB48 SLP064 P0000 60000 T01060072 51021=
202311070753 METAR KCLM 070753Z AUTO 24007KT 10SM BKN065 OVC075 10/07 A2969 RMK AO2 RAE47 SLP056 P0000 T01000072 401280061=
202311070653 METAR KCLM 070653Z AUTO 25006KT 10SM -RA OVC048 10/08 A2968 RMK AO2 RAB27 SLP052 P0000 T01000078=
202311070553 METAR KCLM 070553Z AUTO 00000KT 10SM BKN050 OVC065 09/07 A2966 RMK AO2 SLP043 T00890072 10122 20083 53018=
202311070453 METAR KCLM 070453Z AUTO 00000KT 10SM OVC080 08/07 A2964 RMK AO2 SLP037 T00830067=
202311070353 METAR KCLM 070353Z AUTO 00000KT 5SM BR FEW070 09/07 A2962 RMK AO2 SLP031 T00890072=
202311070253 METAR KCLM 070253Z AUTO 00000KT 10SM OVC060 10/08 A2960 RMK AO2 SLP025 T01000078 53021=
202311070153 METAR KCLM 070153Z AUTO 00000KT 10SM BKN031 BKN120 10/08 A2958 RMK AO2 SLP018 T01000083=
202311070053 METAR KCLM 070053Z AUTO 00000KT 10SM BKN033 OVC110 11/08 A2956 RMK AO2 SLP010 T01060083=
202311062353 METAR KCLM 062353Z AUTO 00000KT 10SM FEW022 BKN060 OVC110 12/08 A2954 RMK AO2 SLP004 60002 T01220083 10128 20106 53015=
202311062253 METAR KCLM 062253Z AUTO 00000KT 10SM FEW011 SCT026 OVC065 12/08 A2952 RMK AO2 SLP997 T01220083=
202311062153 METAR KCLM 062153Z AUTO 30004KT 10SM FEW009 OVC025 12/09 A2950 RMK AO2 RAB29E38 SLP991 P0000 T01220089=
202311062053 METAR KCLM 062053Z AUTO 27004KT 10SM FEW009 OVC024 12/09 A2950 RMK AO2 SLP989 60002 T01220089 50003=
202311062010 SPECI KCLM 062010Z AUTO 27005KT 10SM FEW009 OVC021 12/09 A2950 RMK AO2 T01220094=
202311061953 METAR KCLM 061953Z AUTO 27005KT 10SM OVC020 12/09 A2950 RMK AO2 RAE35 SLP990 P0001 T01220094=
202311061913 SPECI KCLM 061913Z AUTO 26006KT 10SM -RA SCT010 OVC017 11/09 A2950 RMK AO2 P0000 T01110089=
202311061853 METAR KCLM 061853Z AUTO 25005KT 9SM -RA OVC010 11/09 A2950 RMK AO2 CIG 007V014 SLP989 P0001 T01110089=
202311061807 SPECI KCLM 061807Z AUTO 27005KT 10SM -RA BKN005 OVC008 11/09 A2949 RMK AO2 CIG 002V006 P0000 T01060089=
202311061753 METAR KCLM 061753Z AUTO 28005KT 6SM -RA BR BKN003 OVC008 11/09 A2949 RMK AO2 RAB44 SLP986 P0000 60000 T01060089 10106 20089 53002=
202311061700 SPECI KCLM 061700Z AUTO 27005KT 10SM OVC003 10/08 A2948 RMK AO2 CIG 002V006 T01000083=
202311061653 METAR KCLM 061653Z AUTO 27005KT 10SM OVC005 10/08 A2948 RMK AO2 CIG 002V007 SLP983 T01000083=
202311061638 SPECI KCLM 061638Z AUTO 28003KT 10SM BKN006 OVC070 10/08 A2948 RMK AO2 T01000083=
202311061629 SPECI KCLM 061629Z AUTO 00000KT 10SM SCT006 OVC070 10/08 A2948 RMK AO2 T01000078=
202311061553 METAR KCLM 061553Z AUTO 00000KT 10SM BKN070 OVC120 09/07 A2948 RMK AO2 SLP983 T00890072=
202311061518 SPECI KCLM 061518Z AUTO 23005KT 10SM SCT006 SCT070 BKN110 09/07 A2948 RMK AO2 T00890072=
202311061453 METAR KCLM 061453Z AUTO 21004KT 10SM BKN006 BKN070 09/07 A2948 RMK AO2 SLP984 T00890072 56007=
202311061451 SPECI KCLM 061451Z AUTO 22004KT 10SM BKN006 BKN070 09/07 A2948 RMK AO2=
202311061439 SPECI KCLM 061439Z AUTO 00000KT 10SM SCT008 BKN070 09/07 A2948 RMK AO2 T00890072=
202311061430 SPECI KCLM 061430Z AUTO 20003KT 9SM SCT010 BKN070 BKN110 09/08 A2949 RMK AO2 T00940078=
202311061416 SPECI KCLM 061416Z AUTO 00000KT 10SM FEW006 BKN010 OVC070 10/08 A2949 RMK AO2 T01000078=
202311061353 METAR KCLM 061353Z AUTO 20003KT 10SM OVC005 10/08 A2950 RMK AO2 SLP990 T01000083=
202311061321 SPECI KCLM 061321Z AUTO 00000KT 10SM OVC005 10/08 A2950 RMK AO2 T01000083=
202311061253 METAR KCLM 061253Z AUTO 00000KT 10SM OVC004 11/09 A2950 RMK AO2 SLP991 T01060089=
202311061227 SPECI KCLM 061227Z AUTO 21003KT 9SM OVC004 10/08 A2952 RMK AO2 T01000083=
202311061216 SPECI KCLM 061216Z AUTO 00000KT 9SM OVC005 10/08 A2951 RMK AO2 T01000083=
202311061153 METAR KCLM 061153Z AUTO 22004KT 9SM OVC004 10/08 A2953 RMK AO2 SLP998 70001 T01000083 10100 20061 58013=
202311061053 METAR KCLM 061053Z AUTO 23006KT 7SM BKN002 OVC070 09/08 A2954 RMK AO2 SLP002 T00940078=
202311061017 SPECI KCLM 061017Z AUTO 25004KT 10SM BKN002 BKN110 08/07 A2955 RMK AO2 T00830072=
202311060953 METAR KCLM 060953Z AUTO 23005KT 10SM SCT002 SCT120 08/07 A2955 RMK AO2 SLP008 T00830067=
202311060939 SPECI KCLM 060939Z AUTO 24004KT 10SM FEW004 FEW070 08/06 A2956 RMK AO2 T00780061=
202311060917 SPECI KCLM 060917Z AUTO 00000KT 10SM CLR 08/06 A2956 RMK AO2 T00780061=
202311060903 SPECI KCLM 060903Z AUTO 00000KT 2 1/2SM BR FEW001 06/05 A2956 RMK AO2 T00610050=
202311060853 METAR KCLM 060853Z AUTO 23003KT 6SM BR CLR 07/06 A2956 RMK AO2 SLP011 T00670056 58015=
202311060753 METAR KCLM 060753Z AUTO 25004KT 9SM BKN075 07/06 A2958 RMK AO2 SLP018 T00720056 401220061=
202311060653 METAR KCLM 060653Z AUTO 00000KT 8SM SCT070 08/06 A2960 RMK AO2 SLP023 T00780061=
202311060553 METAR KCLM 060553Z AUTO 07003KT 5SM BR FEW120 08/07 A2961 RMK AO2 SLP026 60001 T00830067 10117 20083 58013=
202311060522 SPECI KCLM 060522Z AUTO 00000KT 7SM CLR 09/07 A2961 RMK AO2 T00890072=
202311060514 SPECI KCLM 060514Z AUTO 00000KT 2 1/2SM BR FEW075 08/07 A2961 RMK AO2 T00830067=
202311060453 METAR KCLM 060453Z AUTO 21003KT 4SM BR BKN070 09/07 A2962 RMK AO2 SLP032 T00890072=
202311060353 METAR KCLM 060353Z AUTO 00000KT 7SM BKN060 OVC100 09/08 A2963 RMK AO2 RAE15 SLP035 P0001 T00940078=
202311060253 METAR KCLM 060253Z AUTO 00000KT 10SM -RA SCT065 BKN080 OVC110 10/08 A2964 RMK AO2 RAB44 SLP039 P0000 60000 T01000078 56013=
202311060153 METAR KCLM 060153Z AUTO 00000KT 10SM SCT070 BKN080 09/08 A2965 RMK AO2 SLP041 T00940078=
202311060053 METAR KCLM 060053Z AUTO 24003KT 10SM FEW065 SCT080 BKN095 11/08 A2967 RMK AO2 SLP047 T01060083=
202311052353 METAR KCLM 052353Z AUTO 00000KT 10SM BKN070 12/09 A2968 RMK AO2 SLP052 60000 T01170089 10122 20106 56015=
202311052253 METAR KCLM 052253Z AUTO 25004KT 10SM BKN070 OVC085 12/09 A2969 RMK AO2 RAE2155 SLP054 P0000 T01220094=
202311052153 METAR KCLM 052153Z AUTO 00000KT 10SM -RA SCT008 BKN065 OVC080 12/09 A2972 RMK AO2 RAB40 SLP065 P0000 T01170089=
202311052139 SPECI KCLM 052139Z AUTO 14003KT 10SM BKN008 OVC070 12/09 A2972 RMK AO2 T01170089=
202311052121 SPECI KCLM 052121Z AUTO 00000KT 10SM SCT006 BKN010 OVC075 12/09 A2973 RMK AO2 T01170089=
202311052053 METAR KCLM 052053Z AUTO 00000KT 10SM BKN007 BKN010 12/09 A2973 RMK AO2 CIG 005V008 SLP067 T01170089 58014=
202311052020 SPECI KCLM 052020Z AUTO 31003KT 10SM OVC005 11/09 A2975 RMK AO2 CIG 003V008 T01110089=
202311051953 METAR KCLM 051953Z AUTO 26003KT 10SM BKN004 11/09 A2976 RMK AO2 SLP078 T01110089=
202311051853 METAR KCLM 051853Z AUTO 00000KT 10SM BKN003 11/08 A2977 RMK AO2 SLP082 T01060083=
202311051848 SPECI KCLM 051848Z AUTO 00000KT 10SM BKN003 11/08 A2977 RMK AO2=
202311051831 SPECI KCLM 051831Z AUTO 00000KT 10SM SCT004 11/08 A2977 RMK AO2 T01060083=
202311051753 METAR KCLM 051753Z AUTO 00000KT 10SM CLR 11/08 A2978 RMK AO2 SLP084 60000 T01060078 10106 20072 58013=
202311051653 METAR KCLM 051653Z AUTO 00000KT 10SM FEW070 10/08 A2979 RMK AO2 SLP088 T01000078=
202311051553 METAR KCLM 051553Z AUTO 21003KT 10SM FEW065 08/07 A2981 RMK AO2 SLP094 T00780067=
202311051453 METAR KCLM 051453Z AUTO 00000KT 10SM OVC065 08/06 A2981 RMK AO2 SLP096 60000 T00780061 58002=
202311051353 METAR KCLM 051353Z AUTO 00000KT 10SM FEW080 BKN100 08/06 A2982 RMK AO2 RAB05E17 SLP100 P0000 T00780061=
202311051253 METAR KCLM 051253Z AUTO 20003KT 10SM BKN060 OVC090 09/07 A2982 RMK AO2 RAE1155B38E50 SLP099 P0000 T00890067=
202311051153 METAR KCLM 051153Z AUTO 00000KT 10SM -RA BKN055 BKN070 09/07 A2982 RMK AO2 RAB1056 SLP099 P0001 60001 70021 T00940067 10111 20061 52003=
202311051053 METAR KCLM 051053Z AUTO 23006KT 10SM BKN060 OVC095 09/07 A2982 RMK AO2 SLP099 T00890067=
202311051017 SPECI KCLM 051017Z AUTO 22006KT 10SM CLR 08/06 A2981 RMK AO2 T00830061=
202311051008 SPECI KCLM 051008Z AUTO 23004KT 2SM BR CLR 07/06 A2981 RMK AO2 T00720056=
202311050953 METAR KCLM 050953Z AUTO 21003KT 5SM BR CLR 07/06 A2981 RMK AO2 SLP096 T00720061=
202311050951 SPECI KCLM 050951Z AUTO 22003KT 3SM BR FEW002 08/06 A2981 RMK AO2=
202311050938 SPECI KCLM 050938Z AUTO 16003KT 5SM BR CLR 07/06 A2981 RMK AO2 T00670056=
202311050930 SPECI KCLM 050930Z AUTO 22003KT 2SM BR FEW002 07/06 A2981 RMK AO2 VIS 3/4V5 T00720056=
202311050921 SPECI KCLM 050921Z AUTO 00000KT 1SM BR VV002 07/05 A2982 RMK AO2 VIS 3/4V2 T00670050=
202311050853 METAR KCLM 050853Z AUTO 00000KT 1 1/4SM BR FEW002 07/06 A2981 RMK AO2 SLP096 T00720056 50003=
202311050834 SPECI KCLM 050834Z AUTO 00000KT 1 1/2SM BR CLR 08/07 A2981 RMK AO2 VIS 3/4V5 T00780067=
202311050812 SPECI KCLM 050812Z AUTO 00000KT 3SM BR FEW002 FEW034 08/07 A2981 RMK AO2 T00830067=
202311050801 SPECI KCLM 050801Z AUTO 00000KT 3SM BR FEW032 08/06 A2981 RMK AO2 T00780061=
202311050753 METAR KCLM 050753Z AUTO 00000KT 1 3/4SM BR SCT032 08/06 A2982 RMK AO2 VIS 3/4V5 SLP097 T00780061 401670078=
202311050653 METAR KCLM 050653Z AUTO 00000KT 10SM SCT020 BKN032 10/08 A2981 RMK AO2 SLP094 T01000078=
202311050553 METAR KCLM 050553Z AUTO 26004KT 10SM FEW038 SCT070 09/07 A2980 RMK AO2 SLP092 60000 T00940072 10139 20094 53012=
202311050453 METAR KCLM 050453Z AUTO 00000KT 6SM BR FEW036 10/08 A2978 RMK AO2 SLP084 T01000083=
202311050353 METAR KCLM 050353Z AUTO 19006KT 10SM SCT070 BKN090 12/09 A2978 RMK AO2 RAE00 SLP084 P0000 T01170094=
202311050253 METAR KCLM 050253Z AUTO 23006KT 10SM -RA BKN070 OVC085 12/11 A2977 RMK AO2 SLP081 P0000 60000 T01220106 51017=
202311050153 METAR KCLM 050153Z AUTO 28003KT 9SM -RA OVC070 12/11 A2975 RMK AO2 RAB49 SLP075 P0000 T01220106=
202311050053 METAR KCLM 050053Z AUTO 00000KT 10SM BKN070 12/11 A2973 RMK AO2 SLP069 T01220106=
202311042353 METAR KCLM 042353Z AUTO 00000KT 10SM SCT030 BKN041 BKN070 14/11 A2972 RMK AO2 RAE35 SLP063 P0001 60001 T01390106 10167 20139 51009=
202311042253 METAR KCLM 042253Z AUTO 00000KT 7SM -RA SCT016 BKN027 OVC050 15/12 A2971 RMK AO2 RAB41 SLP061 P0000 T01500122=
202311042153 METAR KCLM 042153Z AUTO 36004KT 10SM SCT017 BKN022 BKN033 16/11 A2970 RMK AO2 SLP058 T01560111=
202311042053 METAR KCLM 042053Z AUTO VRB03KT 10SM FEW017 SCT075 BKN085 17/12 A2969 RMK AO2 SLP053 60000 T01670122 53019=
202311041953 METAR KCLM 041953Z AUTO VRB03KT 10SM FEW044 SCT065 BKN080 16/13 A2967 RMK AO2 RAB28E45 SLP046 P0000 T01610128=
202311041853 METAR KCLM 041853Z AUTO 05003KT 10SM FEW014 OVC070 15/12 A2964 RMK AO2 SLP038 T01500122=
202311041831 SPECI KCLM 041831Z AUTO 05004KT 10SM SCT010 BKN075 15/13 A2964 RMK AO2 T01500128=
202311041803 SPECI KCLM 041803Z AUTO 00000KT 10SM OVC009 14/13 A2964 RMK AO2 T01440128=
202311041753 METAR KCLM 041753Z AUTO 10003KT 9SM FEW001 OVC010 14/12 A2963 RMK AO2 SLP035 60019 T01390122 10139 20111 50001=
202311041751 SPECI KCLM 041751Z AUTO 09005KT 9SM FEW001 OVC010 14/12 A2963 RMK AO2=
202311041744 SPECI KCLM 041744Z AUTO 00000KT 9SM FEW001 OVC009 14/12 A2964 RMK AO2 T01390122=
202311041737 SPECI KCLM 041737Z AUTO 16004KT 2 1/2SM BR FEW001 OVC009 13/12 A2963 RMK AO2 T01330117=
202311041732 SPECI KCLM 041732Z AUTO VRB03KT 1SM BR FEW001 BKN013 OVC033 13/12 A2963 RMK AO2 T01330117=
202311041728 SPECI KCLM 041728Z AUTO 24004KT 3/4SM BR BKN011 OVC033 13/11 A2964 RMK AO2 T01280111=
202311041723 SPECI KCLM 041723Z AUTO 35005KT 2 1/2SM BR BKN013 BKN033 OVC065 13/12 A2963 RMK AO2 T01330117=
202311041653 METAR KCLM 041653Z AUTO 27003KT 7SM FEW001 BKN065 OVC080 13/11 A2963 RMK AO2 SLP035 T01280111=
202311041650 SPECI KCLM 041650Z AUTO 25005KT 6SM BR FEW001 BKN070 OVC085 13/11 A2963 RMK AO2=
202311041641 SPECI KCLM 041641Z AUTO 31004KT 3SM BR BKN006 OVC075 12/11 A2963 RMK AO2 T01220111=
202311041635 SPECI KCLM 041635Z AUTO 24004KT 1SM BR BKN002 OVC070 12/11 A2963 RMK AO2 T01220111=
202311041553 METAR KCLM 041553Z AUTO VRB03KT 1/4SM FG VV003 12/11 A2962 RMK AO2 RAB23E35 SLP030 P0000 T01220111=
202311041532 SPECI KCLM 041532Z AUTO VRB03KT 3/4SM -RA BR BKN003 OVC006 12/11 A2960 RMK AO2 VIS 1/4V5 RAB23 P0000 T01220106=
202311041506 SPECI KCLM 041506Z AUTO VRB04KT 5SM BR OVC002 12/10 A2961 RMK AO2 T01170100=
202311041453 METAR KCLM 041453Z AUTO 09004KT 2 1/2SM BR OVC002 11/10 A2961 RMK AO2 RAE15 SLP026 P0001 60019 T01110100 58008=
202311041437 SPECI KCLM 041437Z AUTO 00000KT 5SM BR OVC002 11/10 A2961 RMK AO2 RAE15 P0001 T01110100=
202311041430 SPECI KCLM 041430Z AUTO 32003KT 2SM BR OVC002 11/10 A2961 RMK AO2 RAE15 P0001 T01110100=
202311041420 SPECI KCLM 041420Z AUTO 21004KT 3/4SM BR VV002 11/10 A2963 RMK AO2 RAE15 P0001 T01110100=
202311041411 SPECI KCLM 041411Z AUTO 27004KT 1SM -RA BR VV004 11/10 A2962 RMK AO2 P0001 T01110100=
202311041406 SPECI KCLM 041406Z AUTO 27003KT 1 1/2SM -RA BR FEW001 OVC010 11/10 A2962 RMK AO2 P0001 T01110100=
202311041359 SPECI KCLM 041359Z AUTO 30005KT 3/4SM -RA BR FEW001 BKN013 OVC070 11/10 A2963 RMK AO2 P0001 T01110100=
202311041353 METAR KCLM 041353Z AUTO 29005KT 1/2SM -RA FG BKN022 OVC070 12/10 A2963 RMK AO2 SLP035 P0010 T01170100=
202311041351 SPECI KCLM 041351Z AUTO 30006KT 3/4SM -RA BR BKN027 OVC070 12/10 A2963 RMK AO2 P0010=
202311041346 SPECI KCLM 041346Z AUTO VRB03KT 1 3/4SM -RA BR BKN043 OVC070 12/10 A2963 RMK AO2 P0010 T01170100=
202311041319 SPECI KCLM 041319Z AUTO 00000KT 3SM RA BR OVC055 12/10 A2963 RMK AO2 P0006 T01170100=
202311041312 SPECI KCLM 041312Z AUTO 00000KT 2 1/2SM -RA BR BKN060 OVC085 12/10 A2962 RMK AO2 P0004 T01170100=
202311041253 METAR KCLM 041253Z AUTO 00000KT 5SM -RA BR BKN065 BKN080 OVC090 12/10 A2963 RMK AO2 SLP034 P0008 T01170100=
202311041153 METAR KCLM 041153Z AUTO 14006KT 6SM -RA BR OVC070 11/09 A2963 RMK AO2 SLP034 P0008 60029 70032 T01110094 10117 20106 58021=
202311041053 METAR KCLM 041053Z AUTO 25005KT 3SM RA BR SCT005 BKN065 OVC085 11/09 A2967 RMK AO2 SLP047 P0010 T01110094=
202311041013 SPECI KCLM 041013Z AUTO 01004KT 4SM -RA BR FEW009 BKN075 OVC090 11/09 A2966 RMK AO2 P0004 T01110094=
202311040953 METAR KCLM 040953Z AUTO 00000KT 5SM RA BR FEW065 BKN080 OVC095 11/09 A2968 RMK AO2 SLP051 P0002 T01110094=
202311040853 METAR KCLM 040853Z AUTO 02003KT 8SM -RA OVC080 11/09 A2969 RMK AO2 SLP055 P0004 60009 T01110094 58013=
202311040753 METAR KCLM 040753Z AUTO 23004KT 6SM -RA BR BKN070 OVC095 11/09 A2972 RMK AO2 SLP066 P0004 T01110094 401330061=
202311040653 METAR KCLM 040653Z AUTO 00000KT 10SM -RA FEW070 OVC110 11/09 A2972 RMK AO2 SLP065 P0001 T01110089=
202311040553 METAR KCLM 040553Z AUTO 28006KT 10SM -RA OVC100 11/09 A2973 RMK AO2 SLP068 P0000 60002 T01060089 10111 20100 56037=
202311040453 METAR KCLM 040453Z AUTO 24006KT 7SM -RA BKN090 OVC110 11/08 A2974 RMK AO2 SLP073 P0001 T01060083=
202311040353 METAR KCLM 040353Z AUTO 23005KT 8SM -RA BKN090 OVC110 11/08 A2979 RMK AO2 RAE0255B29 SLP089 P0000 T01060083=
202311040253 METAR KCLM 040253Z AUTO 00000KT 4SM -RA BR OVC090 10/08 A2984 RMK AO2 SLP106 P0001 60001 T01000083 58047=
202311040153 METAR KCLM 040153Z AUTO 00000KT 7SM -RA FEW060 OVC090 11/09 A2990 RMK AO2 RAB35 SLP124 P0000 T01060089=
202311040053 METAR KCLM 040053Z AUTO 24004KT 7SM FEW120 11/09 A2994 RMK AO2 RAE15 SLP139 P0000 T01060089=
202311032353 METAR KCLM 032353Z AUTO 01004KT 6SM -RA BR OVC080 11/09 A2998 RMK AO2 RAB36 SLP153 P0001 60001 T01110089 10133 20111 58027=
202311032253 METAR KCLM 032253Z AUTO 30003KT 10SM CLR 12/09 A3002 RMK AO2 SLP166 T01170089=
202311032202 SPECI KCLM 032202Z AUTO 25005KT 10SM FEW005 12/09 A3004 RMK AO2 T01170089=
202311032153 METAR KCLM 032153Z AUTO 26004KT 10SM CLR 12/09 A3004 RMK AO2 SLP175 T01170089=
202311032053 METAR KCLM 032053Z AUTO 28004KT 10SM CLR 12/08 A3006 RMK AO2 SLP180 T01170083 58023=
202311031953 METAR KCLM 031953Z AUTO 28003KT 10SM CLR 13/08 A3010 RMK AO2 SLP194 T01280078=
202311031853 METAR KCLM 031853Z AUTO 00000KT 10SM CLR 12/08 A3013 RMK AO2 SLP203 T01220078=
202311031753 METAR KCLM 031753Z AUTO 00000KT 10SM CLR 12/09 A3013 RMK AO2 SLP203 T01220089 10122 20061 58001=
202311031653 METAR KCLM 031653Z AUTO 22007KT 10SM CLR 10/07 A3014 RMK AO2 SLP208 T01000067=
202311031553 METAR KCLM 031553Z AUTO 22006KT 10SM CLR 09/06 A3014 RMK AO2 SLP208 T00890061=
202311031453 METAR KCLM 031453Z AUTO 22005KT 8SM CLR 06/04 A3013 RMK AO2 SLP204 T00610044 58002=
202311031424 SPECI KCLM 031424Z AUTO VRB04KT 4SM BR FEW002 07/06 A3013 RMK AO2 T00720056=
202311031420 SPECI KCLM 031420Z AUTO 23006KT 2SM BR CLR 07/06 A3013 RMK AO2 T00720056=
202311031407 SPECI KCLM 031407Z AUTO 00000KT 3SM BR CLR 07/05 A3013 RMK AO2 T00670050=
202311031357 SPECI KCLM 031357Z AUTO 09003KT 1 1/2SM BR CLR 07/05 A3014 RMK AO2 T00670050=
202311031353 METAR KCLM 031353Z AUTO 19003KT 8SM CLR 07/06 A3014 RMK AO2 SLP207 T00720061=
202311031315 SPECI KCLM 031315Z AUTO 00000KT 10SM FEW003 SCT011 08/07 A3016 RMK AO2 T00830067=
202311031253 METAR KCLM 031253Z AUTO 00000KT 10SM CLR 09/07 A3015 RMK AO2 SLP210 T00940072=
202311031153 METAR KCLM 031153Z AUTO 21004KT 5SM BR SCT050 09/08 A3014 RMK AO2 SLP206 60000 70019 T00940078 10122 20083 51008=
202311031053 METAR KCLM 031053Z AUTO VRB03KT 9SM OVC055 09/08 A3014 RMK AO2 SLP206 T00940083=
202311031009 SPECI KCLM 031009Z AUTO 14005KT 3SM BR FEW014 BKN065 08/07 A3013 RMK AO2 T00830072=
202311030953 METAR KCLM 030953Z AUTO 16003KT 5SM BR SCT014 BKN022 BKN029 08/07 A3012 RMK AO2 SLP202 T00830072=
202311030946 SPECI KCLM 030946Z AUTO 12004KT 7SM BKN013 BKN022 BKN065 09/08 A3012 RMK AO2 T00940078=
202311030919 SPECI KCLM 030919Z AUTO 00000KT 3SM BR FEW011 09/07 A3011 RMK AO2 T00890072=
202311030911 SPECI KCLM 030911Z AUTO 06003KT 1 1/4SM BR FEW011 09/08 A3011 RMK AO2 VIS 1/2V4 T00940078=
202311030853 METAR KCLM 030853Z AUTO 00000KT 2 1/2SM BR FEW011 09/08 A3011 RMK AO2 SLP198 60000 T00940078 53008=
202311030843 SPECI KCLM 030843Z AUTO 09003KT 4SM BR CLR 09/08 A3011 RMK AO2 T00940078=
202311030831 SPECI KCLM 030831Z AUTO 02003KT 1 1/2SM BR FEW007 09/08 A3010 RMK AO2 VIS 1/2V5 T00940083=
202311030810 SPECI KCLM 030810Z AUTO 07003KT 10SM FEW007 10/08 A3010 RMK AO2 T01000083=
202311030800 SPECI KCLM 030800Z AUTO 9SM CLR 10/09 A3010 RMK AO2 T01000089=
202311030753 METAR KCLM 030753Z AUTO 21004KT 2SM BR CLR 10/08 A3009 RMK AO2 VIS 1/2V5 SLP190 T01000083 401560083=
202311030746 SPECI KCLM 030746Z AUTO VRB04KT 1SM BR VV001 10/08 A3009 RMK AO2 T01000083=
202311030731 SPECI KCLM 030731Z AUTO 33004KT 1/2SM FG CLR 11/09 A3008 RMK AO2 T01060089=
202311030718 SPECI KCLM 030718Z AUTO 35003KT 1 3/4SM BR CLR 11/09 A3009 RMK AO2 VIS 3/4V5 T01110094=
202311030653 METAR KCLM 030653Z AUTO 26005G14KT 10SM FEW008 12/10 A3008 RMK AO2 RAB0558E23 SLP186 P0000 T01170100=
202311030646 SPECI KCLM 030646Z AUTO 25010KT 10SM SCT009 12/10 A3008 RMK AO2 RAB0558E23 P0000 T01170100=
202311030609 SPECI KCLM 030609Z AUTO 26003KT 8SM -RA OVC009 12/11 A3009 RMK AO2 RAB0558 CIG 007V012 P0000 T01220106=
202311030553 METAR KCLM 030553Z AUTO 00000KT 10SM OVC010 12/11 A3009 RMK AO2 RAB0455E29 SLP190 P0006 60007 T01220106 10150 20117 53023=
202311030536 SPECI KCLM 030536Z AUTO 00000KT 10SM OVC010 12/11 A3008 RMK AO2 RAB0455E29 CIG 008V012 P0006 T01220106=
202311030508 SPECI KCLM 030508Z AUTO 14003KT 4SM +RA BR BKN009 OVC013 12/10 A3007 RMK AO2 RAB0455 P0004 T01220100=
202311030453 METAR KCLM 030453Z AUTO 00000KT 10SM OVC012 12/10 A3006 RMK AO2 SLP181 T01220100=
202311030431 SPECI KCLM 030431Z AUTO 22003KT 10SM BKN014 OVC039 12/10 A3006 RMK AO2 T01170100=
202311030414 SPECI KCLM 030414Z AUTO 00000KT 10SM FEW014 BKN039 OVC055 12/10 A3005 RMK AO2 T01170100=
202311030353 METAR KCLM 030353Z AUTO 00000KT 10SM SCT008 BKN019 OVC039 12/10 A3004 RMK AO2 RAB03E44 SLP174 P0001 T01220100=
202311030341 SPECI KCLM 030341Z AUTO 30003KT 9SM -RA SCT008 BKN020 OVC049 12/10 A3004 RMK AO2 RAB03 P0001 T01220100=
202311030326 SPECI KCLM 030326Z AUTO 31003KT 7SM -RA SCT010 BKN019 OVC049 12/10 A3004 RMK AO2 RAB03 P0000 T01220100=
202311030318 SPECI KCLM 030318Z AUTO 00000KT 10SM -RA BKN009 BKN019 OVC049 13/10 A3003 RMK AO2 RAB03 P0000 T01280100=
202311030253 METAR KCLM 030253Z AUTO 03004KT 10SM SCT009 OVC021 13/10 A3002 RMK AO2 SLP167 T01280100 53023=
202311030217 SPECI KCLM 030217Z AUTO 04004KT 9SM BKN020 BKN044 OVC070 13/11 A2999 RMK AO2 T01280106=
202311030153 METAR KCLM 030153Z AUTO 00000KT 10SM FEW012 BKN040 OVC060 14/11 A2999 RMK AO2 SLP156 T01390106=
202311030149 SPECI KCLM 030149Z AUTO VRB04KT 10SM FEW012 BKN040 OVC047 14/11 A2998 RMK AO2=
202311030053 METAR KCLM 030053Z AUTO 06004KT 10SM BKN016 BKN023 OVC065 14/11 A2995 RMK AO2 SLP144 T01440106=
202311030041 SPECI KCLM 030041Z AUTO 00000KT 10SM SCT018 BKN023 OVC065 14/10 A2994 RMK AO2 T01440100=
202311022353 METAR KCLM 022353Z AUTO 29009KT 10SM FEW022 14/10 A2993 RMK AO2 SLP135 T01440100 10156 20122 53028=
202311022253 METAR KCLM 022253Z AUTO 26009KT 10SM CLR 14/10 A2989 RMK AO2 SLP123 T01390100=
202311022153 METAR KCLM 022153Z AUTO 30015G24KT 10SM CLR 14/11 A2987 RMK AO2 SLP115 T01390106=
202311022053 METAR KCLM 022053Z AUTO 28013G19KT 10SM CLR 15/11 A2984 RMK AO2 SLP107 T01500106 51035=
202311021953 METAR KCLM 021953Z AUTO VRB06KT 10SM FEW011 SCT029 SCT035 16/12 A2982 RMK AO2 SLP099 T01560117=
202311021913 SPECI KCLM 021913Z AUTO 28006KT 10SM SCT010 BKN040 BKN055 14/12 A2980 RMK AO2 T01440117=
202311021853 METAR KCLM 021853Z AUTO 29006KT 10SM BKN010 14/11 A2979 RMK AO2 CIG 008V014 SLP087 T01390111=
202311021844 SPECI KCLM 021844Z AUTO 30004KT 10SM SCT006 OVC010 13/11 A2978 RMK AO2 T01330111=
202311021832 SPECI KCLM 021832Z AUTO VRB04KT 10SM SCT003 BKN008 OVC060 13/11 A2977 RMK AO2 T01330111=
202311021753 METAR KCLM 021753Z AUTO 00000KT 7SM BKN003 OVC060 12/10 A2974 RMK AO2 SLP071 60012 T01220100 10122 20094 53033=
202311021653 METAR KCLM 021653Z AUTO 00000KT 10SM BKN003 BKN060 11/09 A2970 RMK AO2 SLP056 T01110094=
202311021642 SPECI KCLM 021642Z AUTO 00000KT 10SM SCT003 BKN060 11/09 A2969 RMK AO2 T01060089=
202311021624 SPECI KCLM 021624Z AUTO 00000KT 10SM FEW003 BKN014 BKN060 11/09 A2968 RMK AO2 T01060089=
202311021613 SPECI KCLM 021613Z AUTO 00000KT 10SM BKN013 OVC055 11/09 A2968 RMK AO2 T01060089=
202311021553 METAR KCLM 021553Z AUTO 33003KT 10SM FEW002 FEW014 OVC060 10/08 A2966 RMK AO2 RAE28 SLP046 P0002 T01000083=
202311021509 SPECI KCLM 021509Z AUTO 18003KT 6SM -RA BR FEW005 SCT050 OVC075 10/08 A2964 RMK AO2 P0001 T01000083=
202311021501 SPECI KCLM 021501Z AUTO 00000KT 5SM -RA BR BKN003 BKN041 OVC070 10/08 A2964 RMK AO2 P0001 T01000083=
202311021453 METAR KCLM 021453Z AUTO 00000KT 5SM -RA BR SCT003 BKN028 OVC075 10/08 A2964 RMK AO2 SLP038 P0005 60010 T01000083 55001=
202311021434 SPECI KCLM 021434Z AUTO 00000KT 5SM -RA BR BKN002 OVC013 10/09 A2964 RMK AO2 P0003 T01000089=
202311021424 SPECI KCLM 021424Z AUTO 23003KT 2 1/2SM RA BR OVC002 10/08 A2964 RMK AO2 P0002 T01000083=
202311021415 SPECI KCLM 021415Z AUTO 24006KT 1 1/2SM -RA BR OVC001 10/09 A2965 RMK AO2 P0000 T01000089=
202311021353 METAR KCLM 021353Z AUTO 27007KT 2SM -RA BR OVC001 10/08 A2963 RMK AO2 RAE06B36 SLP034 P0001 T01000083=
202311021350 SPECI KCLM 021350Z AUTO 27006KT 2SM -RA BR OVC001 10/08 A2964 RMK AO2 RAE06B36 P0001=
202311021334 SPECI KCLM 021334Z AUTO 27004KT 5SM BR OVC001 10/08 A2963 RMK AO2 RAE06 P0000 T01000083=
202311021253 METAR KCLM 021253Z AUTO 26004KT 7SM -RA OVC002 10/08 A2965 RMK AO2 RAB03 SLP040 P0004 T01000083 $=
202311021210 SPECI KCLM 021210Z AUTO 25006KT 5SM -RA BR BKN003 OVC008 10/08 A2965 RMK AO2 RAB03 P0001 T01000083 $=
202311021153 METAR KCLM 021153Z AUTO 27006KT 10SM OVC008 09/08 A2965 RMK AO2 RAE13 SLP042 P0001 60031 70039 T00940078 10094 20083 58017 $=
202311021053 METAR KCLM 021053Z AUTO 25005KT 8SM -RA OVC009 09/07 A2968 RMK AO2 RAB07 SLP049 P0000 T00940072 $=
202311021013 SPECI KCLM 021013Z AUTO 27006KT 7SM -RA BKN009 OVC070 09/07 A2968 RMK AO2 RAB07 P0000 T00890072 $=
202311020953 METAR KCLM 020953Z AUTO 23006KT 9SM FEW009 BKN070 OVC085 09/07 A2969 RMK AO2 RAE52 SLP054 P0007 T00890067 $=
202311020913 SPECI KCLM 020913Z AUTO 25006KT 3SM RA BR FEW055 BKN075 OVC095 08/06 A2971 RMK AO2 P0004 T00830061 $=
202311020904 SPECI KCLM 020904Z AUTO 28005KT 2 1/2SM -RA BR FEW070 OVC090 08/06 A2971 RMK AO2 P0002 T00830061 $=
202311020853 METAR KCLM 020853Z AUTO 00000KT 4SM -RA BR FEW070 OVC100 08/07 A2970 RMK AO2 SLP059 P0006 60023 T00830067 56050 $=
202311020834 SPECI KCLM 020834Z AUTO 00000KT 3SM -RA BR FEW070 OVC095 08/07 A2972 RMK AO2 P0005 T00830067 $=
202311020821 SPECI KCLM 020821Z AUTO 00000KT 2 1/2SM -RA BR SCT070 OVC090 08/07 A2973 RMK AO2 P0004 T00830067 $=
202311020753 METAR KCLM 020753Z AUTO 00000KT 3SM -RA BR BKN080 OVC100 08/07 A2975 RMK AO2 SLP074 P0006 T00830067 401060022 $=
202311020705 SPECI KCLM 020705Z AUTO 00000KT 3SM -RA BR OVC100 08/07 A2978 RMK AO2 PRESFR P0001 T00830067 $=
202311020653 METAR KCLM 020653Z AUTO 00000KT 2 1/2SM -RA BR OVC090 08/07 A2980 RMK AO2 SLP090 P0011 T00830067 $=
202311020641 SPECI KCLM 020641Z AUTO 00000KT 2 1/2SM -RA BR OVC090 08/07 A2980 RMK AO2 P0009 T00830067 $=
202311020632 SPECI KCLM 020632Z AUTO 00000KT 3SM RA BR OVC085 08/07 A2982 RMK AO2 P0008 T00830067 $=
202311020553 METAR KCLM 020553Z AUTO 00000KT 2 1/2SM -RA BR FEW060 OVC090 08/07 A2985 RMK AO2 SLP110 P0004 60008 T00830067 10094 20083 56023 $=
202311020536 SPECI KCLM 020536Z AUTO 00000KT 3SM -RA BR SCT065 OVC100 08/06 A2985 RMK AO2 P0001 T00830061 $=
202311020529 SPECI KCLM 020529Z AUTO 00000KT 2 1/2SM -RA BR BKN065 OVC095 08/06 A2986 RMK AO2 P0001 T00830061 $=
202311020453 METAR KCLM 020453Z AUTO 00000KT 5SM -RA BR FEW036 SCT075 OVC095 08/07 A2986 RMK AO2 RAB11 SLP113 P0000 T00830067 $=
202311020424 SPECI KCLM 020424Z AUTO 00000KT 4SM -RA BR OVC090 08/07 A2988 RMK AO2 RAB11 P0000 T00830067 $=
202311020413 SPECI KCLM 020413Z AUTO 12003KT 2SM -RA BR FEW014 OVC090 08/07 A2988 RMK AO2 RAB11 P0000 T00830067 $=
202311020353 METAR KCLM 020353Z AUTO 00000KT 4SM BR SCT014 OVC095 08/07 A2990 RMK AO2 RAE31 SLP125 P0001 T00830067 $=
202311020253 METAR KCLM 020253Z AUTO 23003KT 3SM -RA BR OVC090 08/07 A2992 RMK AO2 SLP134 P0003 60003 T00830067 56021 $=
202311020153 METAR KCLM 020153Z AUTO 00000KT 7SM -RA OVC100 08/06 A2994 RMK AO2 RAB10 SLP139 P0000 T00830061 $=
202311020053 METAR KCLM 020053Z AUTO 00000KT 8SM BKN070 OVC090 09/06 A2996 RMK AO2 RAB01E12 SLP148 P0000 T00890061 $=
202311012353 METAR KCLM 012353Z AUTO 12003KT 9SM OVC075 09/06 A2998 RMK AO2 RAB26E36 SLP155 P0000 60000 T00940056 10106 20089 58021 $=
202311012300 SPECI KCLM 012300Z AUTO 00000KT 10SM SCT015 OVC070 09/06 A3000 RMK AO2 T00940061 $=
202311012253 METAR KCLM 012253Z AUTO 00000KT 10SM BKN014 OVC065 09/06 A3001 RMK AO2 SLP163 T00940061 $=
202311012153 METAR KCLM 012153Z AUTO 00000KT 10SM FEW009 OVC013 09/06 A3002 RMK AO2 SLP169 T00940056 $=
202311012146 SPECI KCLM 012146Z AUTO 00000KT 10SM FEW009 OVC013 09/06 A3003 RMK AO2 T00940056 $=
202311012053 METAR KCLM 012053Z AUTO 08005KT 10SM OVC013 10/06 A3004 RMK AO2 SLP176 T01000056 58021 $=
202311012042 SPECI KCLM 012042Z AUTO 07005KT 10SM BKN013 OVC075 10/05 A3005 RMK AO2 T01000050 $=
202311012010 SPECI KCLM 012010Z AUTO 10006KT 10SM SCT011 BKN075 10/06 A3007 RMK AO2 T01000056 $=
202311011953 METAR KCLM 011953Z AUTO 07005KT 10SM BKN011 OVC080 10/06 A3008 RMK AO2 SLP189 T01000056 $=
202311011853 METAR KCLM 011853Z AUTO 08004KT 10SM OVC011 11/06 A3010 RMK AO2 SLP195 T01060061 $=
202311011831 SPECI KCLM 011831Z AUTO VRB03KT 10SM OVC010 10/06 A3011 RMK AO2 T01000061 $=
202311011802 SPECI KCLM 011802Z AUTO VRB03KT 10SM OVC009 09/06 A3011 RMK AO2 T00940061 $=
202311011753 METAR KCLM 011753Z AUTO VRB03KT 10SM OVC010 09/06 A3011 RMK AO2 SLP198 60000 T00940061 10094 20050 58002 $=
202311011653 METAR KCLM 011653Z AUTO 00000KT 7SM OVC010 08/06 A3012 RMK AO2 SLP203 T00830061 $=
202311011620 SPECI KCLM 011620Z AUTO 00000KT 10SM OVC010 07/06 A3012 RMK AO2 T00720056 $=
202311011553 METAR KCLM 011553Z AUTO 00000KT 10SM OVC008 07/05 A3013 RMK AO2 SLP204 T00670050 $=
202311011453 METAR KCLM 011453Z AUTO 22004KT 10SM OVC008 06/04 A3011 RMK AO2 SLP200 60000 T00610039 55010 $=
202311011415 SPECI KCLM 011415Z AUTO 00000KT 10SM BKN007 05/03 A3011 RMK AO2 T00500033 $=
202311011353 METAR KCLM 011353Z AUTO 00000KT 10SM FEW008 BKN100 06/03 A3011 RMK AO2 SLP199 T00560033 $=
202311011336 SPECI KCLM 011336Z AUTO 15003KT 10SM BKN008 BKN110 05/03 A3012 RMK AO2 T00500033 $=
202311011318 SPECI KCLM 011318Z AUTO 00000KT 10SM FEW008 BKN110 05/03 A3013 RMK AO2 T00500033 $=
202311011253 METAR KCLM 011253Z AUTO 00000KT 10SM SCT090 BKN110 05/03 A3013 RMK AO2 RAE00 SLP206 P0000 T00500033 $=
202311011153 METAR KCLM 011153Z AUTO 22004KT 10SM -RA OVC095 06/04 A3014 RMK AO2 RAB48 SLP208 P0000 60000 T00610039 10061 20011 53002=
202311011053 METAR KCLM 011053Z AUTO 00000KT 10SM CLR 05/03 A3013 RMK AO2 SLP204 T00500028=
202311010953 METAR KCLM 010953Z AUTO 00000KT 10SM CLR 04/02 A3013 RMK AO2 SLP204 T00440022=
202311010853 METAR KCLM 010853Z AUTO 00000KT 10SM CLR 03/01 A3014 RMK AO2 SLP207 T00280011 55000=
202311010753 METAR KCLM 010753Z AUTO 00000KT 10SM CLR 03/01 A3013 RMK AO2 SLP205 T00280011 401111006=
202311010653 METAR KCLM 010653Z AUTO 00000KT 10SM CLR 03/01 A3014 RMK AO2 SLP209 T00280011=
202311010553 METAR KCLM 010553Z AUTO 00000KT 10SM CLR 02/01 A3014 RMK AO2 SLP207 T00220006 10106 20017 51001=
202311010453 METAR KCLM 010453Z AUTO 21003KT 9SM CLR 02/01 A3014 RMK AO2 SLP207 T00220006=
202311010353 METAR KCLM 010353Z AUTO 00000KT 8SM CLR 02/01 A3014 RMK AO2 SLP208 T00220006=
202311010253 METAR KCLM 010253Z AUTO 00000KT 9SM CLR 04/02 A3013 RMK AO2 SLP207 T00390017 53001=
202311010153 METAR KCLM 010153Z AUTO 00000KT 9SM CLR 05/03 A3013 RMK AO2 SLP206 T00500028=
202311010053 METAR KCLM 010053Z AUTO 13003KT 10SM CLR 08/04 A3013 RMK AO2 SLP204 T00780039=

# No short TAF reports from KCLM in databse.

###################################
#  large TAF from KCLM
###################################
202311302326 TAF KCLM 302326Z 0100/0124 23003KT P6SM -RA OVC018 FM010400 25005KT
                       6SM -RA BR OVC013 FM011400 27010KT 6SM -RA
                       BR FEW005 OVC010 FM012100 27009KT P6SM VCSH
                       BKN030=
202311301728 TAF KCLM 301728Z 3018/0118 VRB03KT P6SM OVC010 FM302200 VRB04KT
                       P6SM -RA OVC025 FM010400 25005KT 6SM -RA
                       BR OVC017 FM011400 27010KT 6SM -RA BR FEW005
                       OVC010=
202311301531 KCLM 301531Z 3016/0112 23005KT P6SM SCT010 OVC080 FM301800 VRB03KT
                       P6SM VCSH OVC040 FM302200 VRB04KT P6SM -RA
                       OVC022 FM010400 25005KT 6SM -RA BR OVC017=
202311301130 TAF KCLM 301130Z 3012/0112 VRB03KT P6SM OVC070 FM301800 VRB03KT
                       P6SM VCSH OVC040 FM302200 VRB04KT P6SM -RA
                       OVC022 FM010400 25005KT 6SM -RA BR OVC017=
202311300523 TAF KCLM 300523Z 3006/0106 VRB03KT P6SM BKN025 FM301200 VRB02KT
                       P6SM VCSH OVC030 FM301800 VRB03KT P6SM -RA
                       OVC020 FM010300 26005KT P6SM OVC015=
202311292320 TAF KCLM 292320Z 3000/3024 VRB03KT P6SM OVC025 FM301200 VRB02KT
                       P6SM VCSH OVC030 FM301800 VRB03KT P6SM -RA
                       OVC020=
202311292102 KCLM 292102Z 2921/3018 VRB03KT P6SM OVC020 FM300300 VRB03KT P6SM
                       OVC050 FM301500 VRB02KT P6SM OVC030=
202311292101 KCLM 292101Z 2921/3018 VRB03KT P6SM OVC020 FM300300 VRB03KT P6SM
                       OVC050 FM301500 VRB02KT P6SM OVC030=
202311291721 TAF KCLM 291721Z 2918/3018 22005KT P6SM BKN020 BKN100 FM292100
                       09004KT P6SM SCT025 BKN100 FM300300 VRB03KT
                       P6SM OVC050 FM301500 VRB02KT P6SM OVC030=
202311291131 TAF KCLM 291131Z 2912/3012 23005KT P6SM BKN015 BKN100 FM291900
                       09004KT P6SM SCT025 BKN100 FM300300 VRB03KT
                       P6SM OVC050=
202311290520 TAF KCLM 290520Z 2906/3006 VRB03KT P6SM BKN015 FM291900 07003KT
                       P6SM BKN100 FM300300 10003KT P6SM OVC050=
202311282333 TAF KCLM 282333Z 2900/2924 VRB03KT P6SM BKN015 FM290800 00000KT
                       6SM BR BKN015 FM292100 07003KT P6SM BKN100=
202311282101 KCLM 282101Z 2821/2918 07004KT P6SM BKN015 FM290800 23004KT 6SM
                       BR BKN007 FM291700 07003KT P6SM BKN100=
202311281835 KCLM 281835Z 2819/2918 00000KT P6SM BKN015 FM282100 07004KT P6SM
                       SCT015 SCT200 FM290800 23004KT 6SM BR BKN007
                       FM291700 07003KT P6SM BKN100=
202311281720 TAF KCLM 281720Z 2818/2918 00000KT P6SM SCT015 SCT200 FM282100
                       07004KT P6SM SCT015 SCT200 FM290800 23004KT
                       6SM BR BKN007 FM291700 07003KT P6SM BKN100=
202311281121 TAF KCLM 281121Z 2812/2912 00000KT P6SM OVC013 FM282100 07004KT
                       P6SM SCT015 SCT200 FM290800 23004KT 6SM
                       BR BKN007=
202311280527 TAF KCLM 280527Z 2806/2906 00000KT P6SM BKN015 FM281000 00000KT
                       6SM BR BKN015 FM282100 07004KT P6SM SCT015
                       SCT250 FM290000 09003KT P6SM BKN250=
202311272329 TAF KCLM 272329Z 2800/2824 06003KT P6SM BKN015 FM280600 12004KT
                       P6SM BKN015 FM282100 07004KT P6SM SCT015
                       SCT250=
202311271720 TAF KCLM 271720Z 2718/2818 VRB03KT P6SM OVC015 FM271900 08004KT
                       P6SM SCT020 SCT250 FM280700 VRB04KT P6SM
                       BKN015=
202311271155 TAF KCLM 271155Z 2712/2812 14003KT 5SM BR OVC015 FM271900 08004KT
                       P6SM SCT020 SCT250 FM280700 VRB04KT P6SM
                       BKN020=
202311270529 TAF KCLM 270529Z 2706/2806 13003KT P6SM BKN012 FM270900 16003KT
                       5SM BR SCT015 FM271900 08004KT P6SM SCT020
                       SCT250=
202311270306 KCLM 270306Z 2703/2724 13003KT P6SM BKN012 FM270800 16003KT 5SM
                       BR SCT015 FM271900 08004KT P6SM SCT020 SCT250=
202311262320 TAF KCLM 262320Z 2700/2724 09005KT P6SM BKN015 FM270300 13003KT
                       P6SM SCT020 SCT250 FM270800 16003KT 5SM
                       BR SCT015 FM271900 08004KT P6SM SCT020 SCT250=
202311261720 TAF KCLM 261720Z 2618/2718 12005KT P6SM OVC015 FM262100 09005KT
                       P6SM FEW015 FEW250 FM270300 13003KT P6SM
                       SKC FM270800 16003KT 5SM BR SCT015=
202311261133 TAF KCLM 261133Z 2612/2712 12005KT 6SM BR OVC015 FM262100 09005KT
                       P6SM FEW015 FEW250 FM270300 13003KT P6SM
                       SKC FM270800 15003KT 5SM BR SCT015=
202311260750 KCLM 260750Z 2608/2706 11003KT 6SM BR OVC009 FM261800 09005KT P6SM
                       FEW015=
202311260533 TAF KCLM 260533Z 2606/2706 13003KT P6SM SKC FM260800 17003KT P6SM
                       SCT250 FM261900 09005KT P6SM SKC=
202311252320 TAF KCLM 252320Z 2600/2624 09006KT P6SM SKC FM260300 13003KT P6SM
                       SKC FM260800 17003KT P6SM SCT250 FM261900
                       09005KT P6SM SKC=
202311251720 TAF KCLM 251720Z 2518/2618 VRB03KT P6SM OVC015 FM251900 09005KT
                       P6SM SKC FM260300 VRB03KT P6SM SKC=
202311251123 TAF KCLM 251123Z 2512/2612 VRB03KT P6SM FEW015 SCT250
                      TEMPO 2512/2515 BKN015 FM251800 09005KT P6SM
                       SKC FM260300 VRB03KT P6SM SKC=
202311250529 TAF KCLM 250529Z 2506/2606 22004KT P6SM SCT250 FM251700 08005KT
                       P6SM SKC FM260300 VRB03KT P6SM SKC=
202311242320 TAF KCLM 242320Z 2500/2524 09005KT P6SM SKC FM250300 21005KT P6SM
                       SKC FM250800 22003KT P6SM SCT250 FM251600
                       09005KT P6SM SKC=
202311241722 TAF KCLM 241722Z 2418/2518 09005KT P6SM SKC FM250300 21005KT P6SM
                       SKC FM250800 22003KT P6SM SCT250 FM251700
                       09006KT P6SM SKC=
202311241124 TAF KCLM 241124Z 2412/2512 23005KT P6SM SKC FM241800 08005KT P6SM
                       SKC FM250000 VRB03KT P6SM SKC FM250700 22003KT
                       P6SM SCT250=
202311240520 TAF KCLM 240520Z 2406/2506 VRB03KT P6SM SKC FM241800 08005KT P6SM
                       SKC FM250000 12004KT P6SM SKC=
202311232320 TAF KCLM 232320Z 2400/2424 10006KT P6SM SKC FM240500 22005KT P6SM
                       SKC FM241700 09005KT P6SM SKC=
202311231720 TAF KCLM 231720Z 2318/2418 10006KT P6SM SKC FM240500 22005KT P6SM
                       SKC FM241700 09005KT P6SM SKC=
202311231120 TAF KCLM 231120Z 2312/2412 24005KT P6SM SCT029 OVC040 FM231800
                       06006KT P6SM SKC FM240300 21005KT P6SM SKC=
202311230903 KCLM 230903Z 2309/2406 20003KT P6SM OVC035 FM231200 00000KT P6SM
                       OVC012 FM231800 06006KT P6SM SKC=
202311230531 TAF KCLM 230531Z 2306/2406 00000KT P6SM SKC FM230900 00000KT P6SM
                       OVC030 FM231200 00000KT P6SM OVC012 FM231800
                       06006KT P6SM SKC=
202311222323 TAF KCLM 222323Z 2300/2324 10008KT P6SM SCT100 FM230300 26006KT
                       P6SM SCT100 FM231600 11006KT P6SM SCT100=
202311221959 KCLM 221959Z 2220/2318 10008KT P6SM SCT050 FM230300 26006KT P6SM
                       SCT050 FM230900 23006KT 5SM BR FEW010 SCT050
                       FM231600 11006KT P6SM SCT100=
202311221725 TAF KCLM 221725Z 2218/2318 00000KT 4SM BR BKN045 FM222000 01008KT
                       P6SM SCT050 FM230300 26006KT P6SM SCT050
                       FM230900 23006KT 5SM BR FEW010 SCT050 FM231600
                       11006KT P6SM SCT100=
202311221600 KCLM 221600Z 2216/2312 00000KT P6SM BKN040
                      TEMPO 2216/2217 1SM BR FM221700 26006KT P6SM
                       SCT007 BKN015 OVC040 FM221900 30006KT P6SM
                       BKN250=
202311221538 KCLM 221538Z 2216/2312 00000KT P6SM BKN012 OVC020
                      TEMPO 2215/2217 2SM BR FM221700 26006KT P6SM
                       SCT007 BKN015 OVC040 FM221900 30006KT P6SM
                       BKN250=
202311221304 KCLM 221304Z 2213/2312 00000KT P6SM BKN012 OVC020 FM221600 26006KT
                       P6SM SCT007 BKN015 OVC040 FM221900 30006KT
                       P6SM BKN250=
202311221120 TAF KCLM 221120Z 2212/2312 VRB04KT 3SM BR OVC003 FM221600 26006KT
                       P6SM SCT007 BKN015 OVC040 FM221900 30006KT
                       P6SM BKN250=
202311220543 TAF KCLM 220543Z 2206/2306 27004KT 4SM -RA OVC035 FM220800 26006KT
                       P6SM BKN012 OVC020 FM221600 26006KT P6SM
                       SCT015 BKN025 OVC040 FM221900 26006KT P6SM
                       BKN040=
202311220359 KCLM 220359Z 2204/2224 VRB03KT P6SM -RA OVC050
                      TEMPO 2204/2206 5SM -RA FM220800 25005KT
                       4SM -RA BR OVC020 FM221100 25008KT P6SM
                       OVC035 FM221600 25004KT P6SM BKN050=
202311212328 TAF KCLM 212328Z 2200/2224 23006KT P6SM -RA OVC100 FM220300 27005KT
                       P6SM -RA OVC025 FM220600 25005KT 4SM -RA
                       BR OVC020 FM221100 25008KT P6SM OVC035 FM221600
                       25004KT P6SM BKN050=
202311211728 TAF KCLM 211728Z 2118/2218 20003KT P6SM BKN250 FM212000 VRB03KT
                       P6SM OVC250 FM220000 23006KT P6SM -RA OVC100
                       FM220300 27005KT P6SM -RA OVC025 FM220600
                       25005KT 4SM -RA BR OVC015 FM221100 25008KT
                       6SM BR OVC025=
202311211124 TAF KCLM 211124Z 2112/2212 20003KT P6SM BKN250 FM212000 VRB03KT
                       P6SM OVC250 FM220000 23006KT P6SM -RA OVC100
                       FM220300 27005KT P6SM -RA OVC025 FM220600
                       25005KT 4SM -RA BR OVC015=
202311210529 TAF KCLM 210529Z 2106/2206 VRB02KT P6SM SCT250 FM211600 VRB03KT
                       P6SM BKN250 FM212300 23006KT P6SM -RA OVC100
                       FM220300 27005KT P6SM -RA OVC015=
202311202320 TAF KCLM 202320Z 2100/2124 09008KT P6SM SCT250 FM210100 12002KT
                       P6SM SCT250 FM211600 VRB03KT P6SM BKN250
                       FM212300 23006KT P6SM -RA OVC100=
202311201737 TAF KCLM 201737Z 2018/2118 22006KT P6SM SCT250 FM201900 09008KT
                       P6SM SCT250 FM210100 12002KT P6SM SCT250
                       FM211600 VRB03KT P6SM BKN250=
202311201120 TAF KCLM 201120Z 2012/2112 23006KT P6SM BKN250 FM201800 08006KT
                       P6SM SCT250=
202311200528 TAF KCLM 200528Z 2006/2106 26006KT P6SM BKN100 FM201300 VRB02KT
                       P6SM FEW020 BKN050 FM201800 08006KT P6SM
                       SCT100=
202311192321 TAF KCLM 192321Z 2000/2024 27010KT P6SM BKN060 FM200300 26006KT
                       P6SM BKN100 FM201300 VRB02KT P6SM FEW020
                       BKN050 FM201800 08005KT P6SM SCT100=
202311191720 TAF KCLM 191720Z 1918/2018 27010G23KT P6SM BKN050 FM200300 26006KT
                       P6SM BKN100 FM201300 VRB02KT P6SM BKN010=
202311191121 TAF KCLM 191121Z 1912/2012 26010G18KT P6SM -SHRA SCT050 BKN070
                       OVC090 FM191800 27010G18KT P6SM BKN050 FM200300
                       26006KT P6SM BKN100=
202311190538 TAF KCLM 190538Z 1906/2006 22004KT P6SM -RA BKN080 OVC100 FM190900
                       28016G24KT P6SM -SHRA SCT030 OVC045 FM191700
                       27018G28KT P6SM BKN050 FM192200 27012G18KT
                       P6SM BKN050 FM200300 26006KT P6SM BKN050=
202311182322 TAF KCLM 182322Z 1900/1924 VRB03KT P6SM OVC100 FM190300 24006KT
                       P6SM -RA OVC030 FM191100 28016G24KT P6SM
                       -SHRA SCT030 OVC045 FM191700 27018G28KT
                       P6SM BKN050 FM192200 27012G18KT P6SM BKN080=
202311182059 TAF AMD KCLM 182059Z 1821/1918 VRB03KT P6SM BKN011 BKN120 FM190300
                       22006KT P6SM -RA OVC035 FM191100 28014G24KT
                       P6SM -SHRA BKN030 BKN045 FM191700 27018G28KT
                       P6SM -SHRA OVC040=
202311181727 TAF KCLM 181727Z 1818/1918 VRB03KT 5SM BR BKN200 FM181900 VRB03KT
                       P6SM BKN120 FM190300 22006KT P6SM -RA OVC035
                       FM191100 28014G24KT P6SM -SHRA BKN030 BKN045
                       FM191700 27018G28KT P6SM -SHRA OVC040=
202311181140 TAF KCLM 181140Z 1812/1912 VRB03KT P6SM BKN200 FM182000 VRB03KT
                       P6SM BKN120 FM190300 11006KT P6SM -RA OVC045
                       FM191100 28014G24KT P6SM -SHRA BKN030 BKN045=
202311180533 TAF KCLM 180533Z 1806/1906 VRB02KT P6SM SCT250 FM181200 22004KT
                       P6SM BKN250 FM190000 26007KT P6SM SHRA OVC050=
202311172320 TAF KCLM 172320Z 1800/1824 08006KT P6SM SKC FM180200 10002KT P6SM
                       SCT250 FM181200 22004KT P6SM OVC250 FM182000
                       20005KT P6SM OVC250=
202311171720 TAF KCLM 171720Z 1718/1818 VRB03KT P6SM SKC FM180200 15002KT P6SM
                       SCT250 FM181200 22004KT P6SM OVC250=
202311171121 TAF KCLM 171121Z 1712/1812 15003KT P6SM SKC
                      TEMPO 1712/1716 BKN015 FM171800 07005KT P6SM
                       SCT250 FM180200 15002KT P6SM SCT250=
202311170527 TAF KCLM 170527Z 1706/1806 00000KT P6SM SKC FM171200 00000KT 6SM
                       BR SKC FM171800 10003KT P6SM BKN250=
202311162320 TAF KCLM 162320Z 1700/1724 09007KT P6SM SKC FM170200 14002KT P6SM
                       SCT200 FM171800 VRB03KT P6SM BKN250=
202311161720 TAF KCLM 161720Z 1618/1718 10005KT P6SM OVC015 FM162000 09007KT
                       P6SM SCT200 FM170200 14002KT P6SM SCT200=
202311161125 TAF KCLM 161125Z 1612/1712 VRB02KT P6SM BKN015 FM161800 09005KT
                       P6SM SCT200 FM170200 14002KT P6SM SCT200=
202311161043 KCLM 161043Z 1611/1706 VRB02KT P6SM BKN015 FM161800 09005KT P6SM
                       SCT200 FM170200 14002KT P6SM SCT200=
202311160529 TAF KCLM 160529Z 1606/1706 VRB03KT 6SM BR SCT015 BKN040
                      TEMPO 1606/1610 2SM BR FM161000 24004KT P6SM
                       SCT040 FM161800 09005KT P6SM SCT200=
202311160341 KCLM 160341Z 1604/1624 05004KT 6SM BR SCT015 BKN040
                      TEMPO 1604/1608 2SM BR FM160800 10004KT P6SM
                       SCT060=
202311152332 TAF KCLM 152332Z 1600/1624 05004KT P6SM SCT015 BKN025 OVC040 FM160500
                       06004KT P6SM BKN060 FM160800 10004KT P6SM
                       SCT060=
202311151720 TAF KCLM 151720Z 1518/1618 VRB03KT P6SM -RA BKN050 OVC070 FM151900
                       VRB04KT P6SM BKN120 OVC200 FM152300 06004KT
                       P6SM SCT060 SCT200 FM160800 22004KT P6SM
                       SCT060=
202311151141 TAF KCLM 151141Z 1512/1612 VRB03KT P6SM SCT015 OVC150
                      TEMPO 1512/1516 BKN015 FM151900 VRB04KT P6SM
                       BKN120 OVC200 FM152300 06004KT P6SM SCT060
                       SCT200=
202311150521 TAF KCLM 150521Z 1506/1606 24004KT P6SM FEW015 SCT120 OVC200 FM151100
                       VRB03KT P6SM SCT010 BKN090 OVC150 FM151900
                       VRB04KT P6SM BKN120 OVC200 FM152300 29007KT
                       P6SM SCT060 SCT200=
202311142338 TAF KCLM 142338Z 1500/1524 09005KT P6SM BKN019
                      TEMPO 1502/1506 SCT020 BKN200 FM150600 24004KT
                       P6SM FEW015 SCT120 OVC200 FM151100 VRB03KT
                       P6SM SCT010 BKN090 OVC150 FM151900 VRB04KT
                       P6SM BKN120 OVC200=
202311141859 KCLM 141859Z 1419/1518 VRB05KT P6SM BKN016 FM142000 VRB05KT P6SM
                       FEW200 FM150300 24006KT P6SM SCT120 OVC200=
202311141730 TAF KCLM 141730Z 1418/1518 VRB06KT P6SM FEW015 FM142300 VRB04KT
                       P6SM BKN200 FM150300 24006KT P6SM SCT120
                       OVC200=
202311141451 KCLM 141451Z 1415/1512 23004KT P6SM SCT013
                      TEMPO 1415/1417 BKN013 FM141700 VRB04KT P6SM
                       SCT200 FM142300 VRB04KT P6SM BKN200 FM150300
                       24004KT P6SM SCT120 OVC200=
202311141143 TAF KCLM 141143Z 1412/1512 23004KT P6SM SCT200 FM141700 VRB04KT
                       P6SM SCT200 FM142300 VRB04KT P6SM BKN200
                       FM150300 24004KT P6SM SCT120 OVC200=
202311140524 TAF KCLM 140524Z 1406/1506 23004KT P6SM SCT200 FM141700 VRB04KT
                       P6SM SCT200 FM142300 VRB04KT P6SM BKN200
                       FM150300 24004KT P6SM SCT120 OVC200=
202311132320 TAF KCLM 132320Z 1400/1424 30006KT P6SM SCT050 SCT200 FM140200
                       23003KT P6SM SCT250 FM140900 23003KT P6SM
                       FEW020 SCT050 FM141700 31005KT P6SM SCT250=
202311131726 TAF KCLM 131726Z 1318/1418 26008KT P6SM SCT050 FM132100 30006KT
                       P6SM SCT050 SCT200 FM140100 23003KT P6SM
                       SCT250 FM140900 23003KT P6SM BKN050 BKN250=
202311131120 TAF KCLM 131120Z 1312/1412 26009KT P6SM BKN050 FM132100 30006KT
                       P6SM SCT050 SCT200 FM140100 24003KT P6SM
                       SCT250=
202311130534 TAF KCLM 130534Z 1306/1406 24004KT P6SM VCSH SCT010 BKN035
                      TEMPO 1306/1310 BKN010 FM131000 26006KT P6SM
                       VCSH BKN030 FM131300 26009KT P6SM BKN050
                       FM132100 30006KT P6SM SCT050 SCT200=
202311122327 TAF KCLM 122327Z 1300/1324 29003KT P6SM VCSH OVC090 FM130300 24004KT
                       P6SM -RA OVC030 FM130800 25006KT P6SM -RA
                       OVC025 FM131100 25007KT P6SM BKN050=
202311121740 TAF KCLM 121740Z 1218/1318 25008KT P6SM BKN150 FM122300 10006KT
                       P6SM VCSH OVC050 FM130200 24004KT P6SM -RA
                       OVC035 FM130800 25006KT P6SM -RA OVC025=
202311121120 TAF KCLM 121120Z 1212/1312 23004KT P6SM OVC040 FM121800 VRB03KT
                       P6SM OVC080 FM122300 10006KT P6SM VCSH OVC050
                       FM130200 24004KT P6SM -RA OVC035 FM130800
                       25006KT P6SM -RA OVC025=
202311120520 TAF KCLM 120520Z 1206/1306 25008KT P6SM VCSH SCT050 OVC080 FM120800
                       23004KT P6SM OVC040 FM121800 14003KT P6SM
                       OVC080 FM122300 10006KT P6SM VCSH OVC050
                       FM130200 14004KT P6SM -RA OVC035=
202311112327 TAF KCLM 112327Z 1200/1224 25010KT P6SM VCSH SCT050 OVC080 FM120800
                       23004KT P6SM OVC040 FM121800 14003KT P6SM
                       OVC070=
202311111720 TAF KCLM 111720Z 1118/1218 24010KT P6SM VCSH SCT040 BKN050 OVC080
                       TEMPO 1118/1120 -SHRA SCT030 BKN040 FM120000
                       25010KT P6SM SCT050 OVC080 FM120800 23004KT
                       P6SM OVC040=
202311111120 TAF KCLM 111120Z 1112/1212 27015G30KT 4SM -RA BR BKN020 OVC050
                       TEMPO 1112/1115 2SM RA BR OVC008 FM111800
                       27012KT P6SM VCSH SCT020 OVC050 FM120000
                       25008KT P6SM SCT050 OVC080 FM120800 23004KT
                       P6SM OVC040=
202311110536 TAF KCLM 110536Z 1106/1206 23005KT P6SM -RA BKN050 OVC070 FM110800
                       27006KT P6SM -RA OVC030 FM111300 27010KT
                       P6SM -SHRA OVC050 FM111800 27012KT P6SM
                       OVC050 FM120000 23008KT P6SM OVC080=
202311102326 TAF KCLM 102326Z 1100/1124 VRB05KT P6SM VCSH FEW030 FEW060 OVC100
                       FM110400 23005KT P6SM VCSH OVC030 FM110800
                       27006KT P6SM -RA OVC030 FM111300 27010KT
                       P6SM -SHRA OVC050 FM111800 27012KT P6SM
                       OVC050=
202311101737 TAF KCLM 101737Z 1018/1118 00000KT P6SM SCT060 BKN090 FM110400
                       25008KT P6SM VCSH OVC030 FM110600 27006KT
                       P6SM -RA OVC030 FM111300 27010KT P6SM -SHRA
                       OVC050=
202311101120 TAF KCLM 101120Z 1012/1112 24005KT P6SM SCT030 OVC050 FM102100
                       VRB03KT P6SM -RA SCT040 OVC060 FM110400
                       25008KT P6SM BKN030=
202311100527 TAF KCLM 100527Z 1006/1106 21004KT P6SM BKN045 OVC080 FM101200
                       24005KT P6SM SCT030 OVC050 FM102100 VRB03KT
                       P6SM SCT040 OVC060 FM110300 25004KT P6SM
                       BKN025=
202311100030 KCLM 100030Z 1001/1024 VRB04KT 3SM -RA SCT015 BKN030 OVC050 FM100300
                       24004KT P6SM SCT020 BKN030 OVC050 FM101200
                       24005KT P6SM SCT030 OVC050 FM102100 VRB03KT
                       P6SM SCT040 OVC060=
202311100017 KCLM 100017Z 1000/1024 VRB04KT P6SM -RA OVC050 FM100300 24004KT
                       P6SM SCT020 BKN030 OVC050 FM101200 24005KT
                       P6SM SCT030 OVC050 FM102100 VRB03KT P6SM
                       SCT040 OVC060=
202311092323 TAF KCLM 092323Z 1000/1024 VRB04KT P6SM -RA OVC030 FM100300 24004KT
                       P6SM SCT020 BKN030 OVC050 FM101200 24005KT
                       P6SM SCT030 OVC050 FM102100 VRB03KT P6SM
                       SCT040 OVC060=
202311092053 KCLM 092053Z 0921/1018 23006KT P6SM BKN015 OVC100 FM092300 12006KT
                       P6SM -RA OVC030 FM100300 28007KT P6SM SCT020
                       BKN035 OVC050 FM101200 24005KT P6SM SCT030
                       OVC050=
202311091726 TAF KCLM 091726Z 0918/1018 23006KT P6SM BKN120 OVC200 FM092300
                       12006KT P6SM -RA OVC030 FM100300 28007KT
                       P6SM SCT020 BKN035 OVC050 FM101200 24005KT
                       P6SM SCT030 OVC050=
202311091505 KCLM 091505Z 0915/1012 00000KT P6SM OVC012 FM091800 12006KT P6SM
                       BKN120 OVC200 FM092300 12006KT P6SM -RA
                       OVC050 FM100300 28012KT P6SM SCT020 BKN035
                       OVC050=
202311091141 TAF KCLM 091141Z 0912/1012 00000KT P6SM BKN200 FM091900 12006KT
                       P6SM BKN120 OVC200 FM092300 12006KT P6SM
                       -RA OVC050 FM100300 28012KT P6SM SCT020
                       BKN035 OVC050=
202311090553 TAF KCLM 090553Z 0906/1006 00000KT P6SM SKC FM090800 VRB03KT P6SM
                       SCT060 FM091000 20003KT P6SM OVC250 FM091900
                       34005KT P6SM FEW060 OVC200 FM092200 VRB04KT
                       P6SM OVC060 FM100300 28007KT P6SM -SHRA
                       OVC030=
202311082320 TAF KCLM 082320Z 0900/0924 33003KT P6SM SKC FM090300 VRB03KT P6SM
                       SCT060 FM091000 20003KT P6SM OVC200=
202311081721 TAF KCLM 081721Z 0818/0918 24006KT P6SM BKN040 FM082200 VRB03KT
                       P6SM BKN045 FM090300 VRB03KT P6SM SCT060
                       FM091000 20003KT P6SM OVC200=
202311081126 TAF KCLM 081126Z 0812/0912 24006KT P6SM BKN045 FM082200 VRB03KT
                       P6SM BKN045 FM090300 VRB03KT P6SM SCT060=
202311080541 TAF KCLM 080541Z 0806/0906 23009KT P6SM SKC FM080700 21004KT P6SM
                       SCT050 FM081800 VRB03KT P6SM BKN050 FM090300
                       VRB03KT P6SM SCT060=
202311072343 TAF KCLM 072343Z 0800/0824 28012G22KT P6SM SCT045 BKN200 FM080700
                       21004KT P6SM SCT250 FM081800 11002KT P6SM
                       BKN050=
202311071735 TAF KCLM 071735Z 0718/0818 28012G22KT P6SM SCT025 FM071900 28012G22KT
                       P6SM SCT045 BKN200 FM080300 28008KT P6SM
                       BKN060 FM081000 24004KT P6SM OVC050=
202311071140 TAF KCLM 071140Z 0712/0812 28012G22KT P6SM OVC045 FM072300 28012KT
                       P6SM SCT045 BKN200 FM080600 28008KT P6SM
                       BKN060=
202311070522 TAF KCLM 070522Z 0706/0806 VRB03KT P6SM BKN060 FM070900 26008KT
                       P6SM -SHRA BKN020 OVC040 FM071500 26012G22KT
                       P6SM OVC050=
202311062339 TAF KCLM 062339Z 0700/0724 VRB03KT P6SM -SHRA FEW010 BKN030 OVC060
                       FM070100 VRB03KT P6SM -SHRA BKN030 FM070600
                       26008KT P6SM -SHRA BKN020 OVC040 FM071500
                       26012G22KT P6SM OVC050=
202311061739 TAF KCLM 061739Z 0618/0718 VRB03KT P6SM -SHRA SCT006 BKN070 OVC100
                       FM070100 VRB03KT P6SM -SHRA BKN030 FM070600
                       26008KT P6SM -SHRA BKN020 OVC040 FM071500
                       26010KT P6SM OVC050=
202311061502 KCLM 061502Z 0615/0712 23006KT P6SM SCT006 BKN060
                      TEMPO 0615/0617 BKN006 OVC060 FM061800 VRB03KT
                       P6SM -SHRA BKN040 OVC060 FM070000 VRB03KT
                       P6SM SCT040 BKN060 FM070600 26008KT P6SM
                       SCT020 BKN040 OVC060=
202311061129 TAF KCLM 061129Z 0612/0712 23006KT P6SM SCT002 BKN060
                      TEMPO 0612/0614 BKN002 OVC060 FM061800 VRB03KT
                       P6SM -SHRA BKN040 OVC060 FM070000 VRB03KT
                       P6SM SCT040 BKN060 FM070600 26008KT P6SM
                       SCT020 BKN040 OVC060=
202311060527 TAF KCLM 060527Z 0606/0706 VRB03KT 5SM -SHRA BR SCT025 OVC040 FM061200
                       VRB03KT 6SM -SHRA BR OVC020=
202311052320 TAF KCLM 052320Z 0600/0624 25004KT P6SM BKN070 OVC080 FM060200
                       VRB04KT 6SM -RA BR OVC025 FM061800 00000KT
                       6SM -RA OVC050=
202311051720 TAF KCLM 051720Z 0518/0618 VRB04KT P6SM FEW070 FM052200 08005KT
                       P6SM -RA OVC035 FM060300 VRB04KT 6SM -RA
                       BR OVC025=
202311051139 TAF KCLM 051139Z 0512/0612 24005KT P6SM VCSH BKN050 FM051700 VRB04KT
                       P6SM VCSH BKN040 BKN070 FM052200 08005KT
                       P6SM -RA OVC035 FM060300 VRB04KT 6SM -RA
                       BR OVC025=
202311050929 KCLM 050929Z 0509/0606 24004KT 5SM BR SCT003 SCT035
                      TEMPO 0509/0512 1SM BR BKN002 FM052300 08005KT
                       P6SM -RA OVC050=
202311050538 TAF KCLM 050538Z 0506/0606 23006KT P6SM -RA BKN070 OVC090 FM050800
                       24004KT P6SM VCSH BKN035 FM052300 08005KT
                       P6SM -RA OVC050=
202311042320 TAF KCLM 042320Z 0500/0524 VRB04KT P6SM VCSH SCT015 BKN030 OVC050
                       FM050200 26004KT P6SM BKN070 FM050800 24004KT
                       P6SM VCSH BKN035=
202311041720 TAF KCLM 041720Z 0418/0518 27003KT P6SM BKN060 FM042300 26006KT
                       P6SM -SHRA BKN045 FM050800 24004KT P6SM
                       VCSH BKN035=
202311041600 KCLM 041600Z 0416/0512 VRB04KT 1/4SM FG VV003 FM041800 26005KT
                       P6SM -SHRA OVC030 FM042300 26006KT P6SM
                       -SHRA BKN045 FM050800 24004KT P6SM VCSH
                       BKN035=
202311041351 KCLM 041351Z 0414/0512 VRB04KT 6SM -RA BR OVC035
                      TEMPO 0414/0416 2SM RA BR FM041800 26005KT
                       P6SM -SHRA OVC030 FM042300 26006KT P6SM
                       -SHRA BKN045 FM050800 24004KT P6SM VCSH
                       BKN035=
202311041132 TAF KCLM 041132Z 0412/0512 VRB04KT 6SM -RA BR OVC035 FM041800 26005KT
                       P6SM -SHRA OVC030 FM042300 26006KT P6SM
                       -SHRA BKN045 FM050800 24004KT P6SM VCSH
                       BKN035=
202311040536 TAF KCLM 040536Z 0406/0506 08003KT P6SM -RA OVC070 FM040900 08010KT
                       6SM -RA BR OVC035 FM041300 18005KT P6SM
                       -RA OVC030 FM041800 26003KT P6SM -SHRA OVC050=
202311032333 TAF KCLM 032333Z 0400/0424 VRB04KT P6SM BKN040 FM040300 08003KT
                       P6SM -RA OVC070 FM040900 08010KT 6SM -RA
                       BR OVC035 FM041300 18005KT P6SM -RA OVC030
                       FM041800 26003KT P6SM -SHRA OVC050=
202311031731 TAF KCLM 031731Z 0318/0418 22005KT P6SM BKN040 FM040300 08003KT
                       P6SM -RA OVC070 FM040900 16002KT 6SM -RA
                       BR OVC025 FM041300 18005KT P6SM -RA OVC020=
202311031133 TAF KCLM 031133Z 0312/0412 VRB04KT P6SM BKN050
                      TEMPO 0312/0315 5SM BR FEW015 BKN035 FM031800
                       10003KT P6SM BKN040 FM040400 13003KT P6SM
                       -RA OVC050 FM040900 16002KT 6SM -RA BR OVC025=
202311030536 TAF KCLM 030536Z 0306/0406 15006KT P6SM OVC015 FM031100 24004KT
                       P6SM BKN025 FM031800 22003KT P6SM BKN040
                       FM040400 13003KT P6SM -RA OVC050=
202311022327 TAF KCLM 022327Z 0300/0324 28009KT P6SM SCT040 FM030400 25006KT
                       P6SM SCT070 FM031100 24004KT P6SM BKN025
                       FM031700 22003KT P6SM BKN040=
202311021904 KCLM 021904Z 0219/0318 24006KT P6SM BKN020 OVC050 FM022300 28006KT
                       P6SM OVC050 FM031000 24004KT P6SM OVC025
                       FM031300 22003KT P6SM OVC020=
202311021726 TAF KCLM 021726Z 0218/0318 24003KT P6SM BKN015 OVC025 FM021900
                       24005KT P6SM BKN035 OVC050 FM022300 28006KT
                       P6SM OVC050 FM031000 24004KT P6SM OVC025
                       FM031300 22003KT P6SM OVC020=
202311021351 KCLM 021351Z 0214/0312 27005KT 5SM -RA BR OVC002 FM021500 24003KT
                       5SM -SHRA BR OVC010 FM021900 24005KT P6SM
                       OVC025 FM022200 28006KT P6SM OVC050 FM031000
                       24004KT P6SM OVC025=
202311021140 TAF KCLM 021140Z 0212/0312 08001KT 6SM -RA OVC008 FM021500 24003KT
                       5SM -SHRA BR OVC010 FM021900 24005KT P6SM
                       OVC025 FM022200 28006KT P6SM OVC050 FM031000
                       24004KT P6SM OVC025=
202311020523 TAF KCLM 020523Z 0206/0306 VRB02KT 5SM -RA BR BKN035 FM020900 08001KT
                       3SM -SHRA BR OVC007 FM021300 15002KT 3SM
                       -SHRA BR OVC005 FM021600 24003KT 6SM -SHRA
                       OVC020 FM022100 27004KT P6SM OVC050=
202311012330 TAF KCLM 012330Z 0200/0224 09003KT P6SM -RA OVC025 FM020300 08001KT
                       5SM -RA BR OVC010 FM020900 08001KT 3SM -SHRA
                       BR OVC007 FM021300 15002KT 3SM -SHRA BR
                       OVC005 FM021600 24003KT 6SM -SHRA OVC020=
202311011950 KCLM 011950Z 0120/0218 VRB03KT P6SM OVC010 FM012300 09003KT 6SM
                       -RA OVC025 FM020500 08001KT 4SM -RA BR OVC010
                       FM020900 08001KT 4SM -SHRA BR OVC009 FM021300
                       15002KT 4SM -SHRA BR OVC007=
202311011823 KCLM 011823Z 0118/0218 VRB03KT P6SM OVC009 FM012300 09003KT 6SM
                       -RA OVC040 FM020500 08001KT 4SM -RA BR OVC010
                       FM020900 08001KT 4SM -SHRA BR OVC009 FM021300
                       15002KT 4SM -SHRA BR OVC007=
202311011727 TAF KCLM 011727Z 0118/0218 VRB03KT P6SM OVC080 FM012300 09003KT
                       6SM -RA OVC040 FM020500 08001KT 4SM -RA
                       BR OVC010 FM020900 08001KT 4SM -SHRA BR
                       OVC009 FM021300 15002KT 4SM -SHRA BR OVC007=
202311011351 KCLM 011351Z 0114/0212 VRB03KT P6SM BKN150
                      TEMPO 0114/0118 6SM BR BKN008 FM012300 09003KT
                       6SM -RA OVC050 FM020500 08001KT 4SM -RA
                       BR OVC015 FM020900 08001KT 6SM -SHRA BR
                       OVC020=
202311011136 TAF KCLM 011136Z 0112/0212 VRB03KT P6SM BKN150 FM012300 09003KT
                       6SM -RA OVC050 FM020500 08001KT 4SM -RA
                       BR OVC015 FM020900 08001KT 6SM -SHRA BR
                       OVC020=
202311010539 TAF KCLM 010539Z 0106/0206 VRB02KT P6SM BKN150 FM010900 07006KT
                       P6SM BKN150 FM012300 09003KT P6SM -RA OVC050
                       FM020500 08001KT 4SM -RA BR OVC015=