##########################################################
# Query made at 02/16/2025 05:46:43 UTC
# Time interval: from 02/01/2023 00:00  to 02/28/2023 23:59  UTC
##########################################################

##########################################################
# KCLM, Port Angeles, William R. Fairchild International Airport (United States)
# WMO index: -----. WIGOS ID: Unknown
# Latitude 48-07-20N. Longitude 123-30-19W. Altitude 87 m.
##########################################################

###################################
#  METAR/SPECI from KCLM
###################################
202302282353 METAR KCLM 282353Z AUTO 30005KT 10SM BKN029 06/M01 A2965 RMK AO2 SLP041 T00611011 10072 20050 53020=
202302282334 SPECI KCLM 282334Z AUTO 31005KT 10SM BKN027 06/M01 A2964 RMK AO2 T00611011=
202302282321 SPECI KCLM 282321Z AUTO 29007KT 10SM SCT027 06/M01 A2964 RMK AO2 T00611006=
202302282311 SPECI KCLM 282311Z AUTO 28005KT 10SM BKN027 07/M01 A2963 RMK AO2 T00671006=
202302282253 METAR KCLM 282253Z AUTO VRB05KT 10SM SCT028 07/01 A2962 RMK AO2 SLP033 T00720006=
202302282153 METAR KCLM 282153Z AUTO VRB05KT 10SM BKN028 07/01 A2960 RMK AO2 SLP026 T00720006=
202302282144 SPECI KCLM 282144Z AUTO 33006KT 10SM BKN026 07/00 A2960 RMK AO2 T00670000=
202302282053 METAR KCLM 282053Z AUTO VRB03KT 10SM FEW024 06/M01 A2959 RMK AO2 SLP021 T00561006 51024=
202302282016 SPECI KCLM 282016Z AUTO 32007KT 10SM SCT029 SCT045 06/M01 A2957 RMK AO2 T00561011=
202302281953 METAR KCLM 281953Z AUTO 32008KT 10SM BKN027 06/M01 A2957 RMK AO2 SLP014 T00611006=
202302281940 SPECI KCLM 281940Z AUTO VRB04KT 10SM BKN029 06/M01 A2956 RMK AO2 T00561006=
202302281853 METAR KCLM 281853Z AUTO 25005KT 10SM CLR 05/01 A2954 RMK AO2 SLP005 T00500006=
202302281753 METAR KCLM 281753Z AUTO 28003KT 10SM SCT060 03/00 A2952 RMK AO2 SLP998 60005 T00330000 10033 20011 51021=
202302281653 METAR KCLM 281653Z AUTO 26006KT 10SM OVC050 02/M01 A2950 RMK AO2 SLP991 T00221006=
202302281553 METAR KCLM 281553Z AUTO 27009KT 9SM FEW006 BKN032 OVC040 02/M01 A2948 RMK AO2 SNE52 SLP986 P0000 T00171006=
202302281544 SPECI KCLM 281544Z AUTO 28010KT 3SM -SN BR FEW006 BKN028 OVC040 01/M01 A2948 RMK AO2 P0000 T00111006=
202302281529 SPECI KCLM 281529Z AUTO 29009KT 3SM -SN BR FEW006 OVC031 01/M01 A2947 RMK AO2 P0000 T00111006=
202302281520 SPECI KCLM 281520Z AUTO 29008KT 2SM -SN BR FEW006 SCT010 OVC022 01/M01 A2947 RMK AO2 P0000 T00111006=
202302281453 METAR KCLM 281453Z AUTO 26007KT 4SM -SN BR SCT008 OVC027 01/M01 A2945 RMK AO2 SLP976 P0001 60005 T00111006 51015=
202302281448 SPECI KCLM 281448Z AUTO 26007KT 5SM -SN BR FEW008 OVC027 01/M01 A2945 RMK AO2 P0001=
202302281415 SPECI KCLM 281415Z AUTO 28007KT 3SM -SN BR OVC015 01/M01 A2944 RMK AO2 P0000 T00111006=
202302281408 SPECI KCLM 281408Z AUTO 28008KT 2 1/2SM -SN BR FEW007 OVC013 01/M01 A2944 RMK AO2 P0000 T00111006=
202302281353 METAR KCLM 281353Z AUTO 28008KT 2 1/2SM -SN BR FEW007 OVC015 01/M01 A2943 RMK AO2 SLP969 P0002 T00111006=
202302281342 SPECI KCLM 281342Z AUTO 28007KT 3SM -SN BR FEW007 OVC017 01/M01 A2943 RMK AO2 P0001 T00111006=
202302281336 SPECI KCLM 281336Z AUTO 28007KT 2 1/2SM -SN BR OVC019 01/M01 A2942 RMK AO2 P0001 T00111006=
202302281327 SPECI KCLM 281327Z AUTO 28007KT 3SM -SN BR OVC019 01/M01 A2942 RMK AO2 P0001 T00111006=
202302281253 METAR KCLM 281253Z AUTO 28007KT 2 1/2SM -SN BR FEW004 OVC015 01/M01 A2941 RMK AO2 SLP961 P0002 T00111006=
202302281234 SPECI KCLM 281234Z AUTO 28005KT 2SM -SN BR FEW006 BKN012 OVC016 01/M01 A2940 RMK AO2 P0002 T00111006=
202302281221 SPECI KCLM 281221Z AUTO 27005KT 1 3/4SM -SN BR OVC010 01/M01 A2939 RMK AO2 P0001 T00111006=
202302281153 METAR KCLM 281153Z AUTO 27005KT 1 1/4SM -SN BR OVC009 01/M01 A2938 RMK AO2 SLP952 P0005 60024 70024 I6000 T00111006 10039 20011 51003=
202302281148 SPECI KCLM 281148Z AUTO 28005KT 1 1/2SM -SN BR BKN009 OVC018 01/M01 A2938 RMK AO2 P0004=
202302281133 SPECI KCLM 281133Z AUTO 27006KT 1 3/4SM -SN BR BKN013 OVC018 01/M01 A2938 RMK AO2 P0002 T00111006=
202302281129 SPECI KCLM 281129Z AUTO 26007KT 2 1/2SM -SN BR BKN013 OVC018 01/M01 A2938 RMK AO2 P0002 T00111006=
202302281053 METAR KCLM 281053Z AUTO 27007KT 1 3/4SM -SN BR FEW005 OVC010 01/M01 A2938 RMK AO2 SLP950 P0008 T00111006=
202302281031 SPECI KCLM 281031Z AUTO 25005KT 2SM -SN BR OVC010 01/M01 A2937 RMK AO2 P0005 T00111006=
202302281003 SPECI KCLM 281003Z AUTO 24005KT 3SM -SN BR OVC010 01/00 A2937 RMK AO2 CIG 008V012 P0002 T00110000=
202302280953 METAR KCLM 280953Z AUTO 24004KT 2SM -SN BR OVC009 01/00 A2937 RMK AO2 RAE22SNB22 CIG 007V012 SLP949 P0010 I1000 T00110000=
202302280935 SPECI KCLM 280935Z AUTO 26005KT 2SM -SN BR OVC008 01/00 A2937 RMK AO2 RAE22SNB22 P0005 I1000 T00110000=
202302280853 METAR KCLM 280853Z AUTO 24007KT 10SM -RA OVC007 02/01 A2937 RMK AO2 UPB29E36 SLP947 P0001 60001 T00220006 53000=
202302280753 METAR KCLM 280753Z AUTO VRB05KT 10SM -RA OVC006 03/01 A2936 RMK AO2 SLP945 P0000 T00280011 400501028=
202302280653 METAR KCLM 280653Z AUTO 23006KT 7SM -RA OVC008 03/01 A2936 RMK AO2 RAB31 CIG 006V012 SLP946 P0000 T00280006=
202302280642 SPECI KCLM 280642Z AUTO 24005KT 9SM -RA OVC008 03/01 A2936 RMK AO2 RAB31 CIG 006V010 P0000 T00280006=
202302280632 SPECI KCLM 280632Z AUTO 23005KT 10SM -RA OVC010 03/01 A2937 RMK AO2 RAB31 CIG 007V012 P0000 T00280006=
202302280553 METAR KCLM 280553Z AUTO VRB04KT 10SM BKN009 OVC013 03/01 A2937 RMK AO2 CIG 006V012 SLP946 T00330011 10044 20033 58003=
202302280453 METAR KCLM 280453Z AUTO VRB05KT 10SM OVC007 03/01 A2937 RMK AO2 CIG 006V011 SLP948 T00330011=
202302280402 SPECI KCLM 280402Z AUTO VRB03KT 10SM OVC009 04/01 A2937 RMK AO2 CIG 006V012 T00390011=
202302280353 METAR KCLM 280353Z AUTO VRB03KT 10SM OVC010 04/01 A2938 RMK AO2 CIG 006V013 SLP950 T00390011=
202302280348 SPECI KCLM 280348Z AUTO VRB04KT 10SM OVC010 04/01 A2938 RMK AO2 CIG 006V013=
202302280253 METAR KCLM 280253Z AUTO 03004KT 10SM OVC009 04/01 A2939 RMK AO2 CIG 007V012 SLP953 T00390011 56008=
202302280153 METAR KCLM 280153Z AUTO VRB05KT 10SM BKN008 OVC012 03/01 A2939 RMK AO2 CIG 005V011 SLP956 T00330011=
202302280053 METAR KCLM 280053Z AUTO VRB04KT 10SM BKN008 OVC014 04/01 A2940 RMK AO2 CIG 006V012 SLP958 T00390011=
202302280032 SPECI KCLM 280032Z AUTO 00000KT 10SM FEW008 OVC013 04/01 A2940 RMK AO2 T00440006=
202302272353 METAR KCLM 272353Z AUTO 00000KT 10SM BKN020 OVC027 04/00 A2941 RMK AO2 SLP961 60000 T00440000 10050 20028 56011=
202302272253 METAR KCLM 272253Z AUTO 00000KT 10SM BKN016 OVC070 04/M01 A2941 RMK AO2 SLP963 T00441006=
202302272202 SPECI KCLM 272202Z AUTO 31004KT 10SM OVC015 04/M01 A2942 RMK AO2 T00391006=
202302272153 METAR KCLM 272153Z AUTO 00000KT 10SM OVC013 05/00 A2942 RMK AO2 SLP965 T00500000=
202302272102 SPECI KCLM 272102Z AUTO 12006KT 10SM FEW009 BKN013 OVC021 04/01 A2944 RMK AO2 T00390006=
202302272053 METAR KCLM 272053Z AUTO 11004KT 10SM BKN010 BKN013 OVC023 03/01 A2944 RMK AO2 UPE00 SLP973 P0000 60000 T00330006 58019=
202302272014 SPECI KCLM 272014Z AUTO 10008KT 7SM OVC009 03/00 A2946 RMK AO2 UPE00 P0000 T00280000=
202302271953 METAR KCLM 271953Z AUTO 10008KT 9SM UP BKN012 OVC017 03/00 A2947 RMK AO2 UPB42 SLP982 P0000 T00280000=
202302271913 SPECI KCLM 271913Z AUTO 12009KT 10SM OVC014 03/M01 A2948 RMK AO2 T00331006=
202302271900 SPECI KCLM 271900Z AUTO 12006KT 10SM BKN015 OVC036 03/M01 A2948 RMK AO2 T00331011=
202302271853 METAR KCLM 271853Z AUTO 10005KT 10SM SCT015 BKN037 OVC048 03/M01 A2948 RMK AO2 SLP987 T00331011=
202302271833 SPECI KCLM 271833Z AUTO 00000KT 10SM SCT025 BKN038 OVC055 02/M02 A2949 RMK AO2 T00221022=
202302271801 SPECI KCLM 271801Z AUTO 25004KT 10SM BKN026 OVC080 01/M02 A2950 RMK AO2 T00111022=
202302271753 METAR KCLM 271753Z AUTO 24004KT 10SM SCT027 OVC080 01/M02 A2950 RMK AO2 SLP992 T00111022 10011 21022 58017=
202302271653 METAR KCLM 271653Z AUTO 00000KT 10SM BKN070 OVC090 01/M03 A2952 RMK AO2 SLP000 T00061028=
202302271553 METAR KCLM 271553Z AUTO 25004KT 10SM SCT016 SCT075 OVC095 M01/M03 A2953 RMK AO2 SLP002 T10061028=
202302271453 METAR KCLM 271453Z AUTO 00000KT 10SM SCT110 M02/M04 A2955 RMK AO2 SLP009 T10171039 57032=
202302271353 METAR KCLM 271353Z AUTO 21004KT 10SM CLR M02/M04 A2958 RMK AO2 SLP020 T10171044=
202302271253 METAR KCLM 271253Z AUTO 23003KT 10SM CLR M01/M04 A2961 RMK AO2 SLP031 T10061039=
202302271153 METAR KCLM 271153Z AUTO 21003KT 10SM CLR M02/M03 A2965 RMK AO2 SLP042 70002 I6000 T10171033 10000 21028 58016=
202302271053 METAR KCLM 271053Z AUTO 00000KT 10SM CLR M01/M04 A2967 RMK AO2 SLP050 T10111039=
202302270953 METAR KCLM 270953Z AUTO 23006KT 10SM FEW014 M01/M03 A2969 RMK AO2 SLP056 I1000 T10111033=
202302270853 METAR KCLM 270853Z AUTO 00000KT 10SM CLR M02/M04 A2969 RMK AO2 SLP058 I1000 I3000 T10171039 58003=
202302270753 METAR KCLM 270753Z AUTO 26006KT 10SM CLR M01/M03 A2970 RMK AO2 SLP061 I1000 T10061028 400721022=
202302270653 METAR KCLM 270653Z AUTO 00000KT 10SM CLR M01/M03 A2970 RMK AO2 SLP061 T10111033=
202302270553 METAR KCLM 270553Z AUTO 00000KT 10SM SCT060 SCT075 M01/M03 A2970 RMK AO2 SLP061 60001 T10061028 10039 21006 52006=
202302270453 METAR KCLM 270453Z AUTO 26003KT 10SM FEW055 FEW090 01/M02 A2970 RMK AO2 SLP059 T00111017=
202302270353 METAR KCLM 270353Z AUTO VRB05KT 10SM SCT060 BKN080 BKN100 02/M02 A2969 RMK AO2 SLP057 T00221017=
202302270253 METAR KCLM 270253Z AUTO 25008KT 10SM FEW055 BKN070 OVC090 02/M01 A2968 RMK AO2 SLP055 60001 T00221011 51012=
202302270153 METAR KCLM 270153Z AUTO 23003KT 10SM CLR 01/00 A2967 RMK AO2 RAB0058E02SNB02E29 SLP050 P0001 T00110000=
202302270138 SPECI KCLM 270138Z AUTO 26004KT 10SM FEW006 SCT018 02/M01 A2967 RMK AO2 RAB0058E02SNB02E29 P0001 T00171006=
202302270109 SPECI KCLM 270109Z AUTO 30015G25KT 4SM -SN FEW009 BKN026 OVC095 02/M01 A2968 RMK AO2 RAB0058E02SNB02 P0001 T00221006=
202302270053 METAR KCLM 270053Z AUTO 30007KT 10SM SCT022 BKN095 OVC110 04/M02 A2967 RMK AO2 SLP049 T00391017=
202302262353 METAR KCLM 262353Z AUTO 26008KT 10SM FEW042 04/M01 A2965 RMK AO2 SLP042 60000 T00391011 10072 20022 51006=
202302262253 METAR KCLM 262253Z AUTO 24008KT 10SM FEW060 03/M01 A2964 RMK AO2 SLP040 T00331006=
202302262153 METAR KCLM 262153Z AUTO 24006KT 10SM FEW025 BKN031 BKN055 03/00 A2964 RMK AO2 SNB20E43 SLP041 P0000 T00330000=
202302262140 SPECI KCLM 262140Z AUTO 26007KT 8SM -SN BKN029 OVC050 03/00 A2965 RMK AO2 SNB20 P0000 T00280000=
202302262125 SPECI KCLM 262125Z AUTO 25009G20KT 2 1/2SM -SN FEW014 BKN025 OVC060 02/M01 A2965 RMK AO2 SNB20 P0000 T00221011=
202302262053 METAR KCLM 262053Z AUTO 23009KT 10SM BKN055 04/M02 A2963 RMK AO2 SLP036 60000 T00441017 51026=
202302262019 SPECI KCLM 262019Z AUTO 25012G20KT 10SM FEW008 SCT060 BKN075 04/M02 A2962 RMK AO2 T00391017=
202302261953 METAR KCLM 261953Z AUTO 25007KT 220V280 10SM FEW065 FEW080 05/M01 A2961 RMK AO2 PK WND 28038/1903 RAB08E11SNB11E36 SLP029 P0000 T00501006=
202302261943 SPECI KCLM 261943Z AUTO 23007KT 10SM SCT012 04/00 A2960 RMK AO2 PK WND 28038/1903 RAB08E11SNB11E36 P0000 T00440000=
202302261931 SPECI KCLM 261931Z AUTO 24008KT 3SM -SN BKN014 03/M01 A2960 RMK AO2 PK WND 28038/1903 RAB08E11SNB11 P0000 T00281006=
202302261915 SPECI KCLM 261915Z AUTO 27013G29KT 1 3/4SM -SN BKN020 BKN060 03/M02 A2961 RMK AO2 PK WND 28038/1903 RAB08E11SNB11 P0000 T00281022=
202302261853 METAR KCLM 261853Z AUTO 28012G23KT 10SM CLR 07/M04 A2957 RMK AO2 PK WND 29027/1803 SLP016 T00671039=
202302261753 METAR KCLM 261753Z AUTO 23011KT 10SM CLR 04/M01 A2955 RMK AO2 PK WND 26026/1700 SLP009 60001 T00391011 10050 20011 53028=
202302261653 METAR KCLM 261653Z AUTO 26018G28KT 10SM FEW075 05/M03 A2952 RMK AO2 PK WND 27028/1611 SLP998 T00501028=
202302261553 METAR KCLM 261553Z AUTO 26014G24KT 10SM FEW047 04/M02 A2950 RMK AO2 PK WND 25029/1459 SLP991 T00441022=
202302261453 METAR KCLM 261453Z AUTO 25017G26KT 10SM BKN045 04/M01 A2947 RMK AO2 PK WND 26028/1433 SLP981 60001 T00391011 53027=
202302261353 METAR KCLM 261353Z AUTO 26013KT 10SM SCT038 BKN110 04/M01 A2943 RMK AO2 RAE1257B15E36 SLP967 P0000 T00391006=
202302261253 METAR KCLM 261253Z AUTO 14004KT 10SM -RA BKN034 OVC040 02/00 A2939 RMK AO2 RAB33UPB34E37 SLP956 P0001 T00170000=
202302261153 METAR KCLM 261153Z AUTO 27008KT 10SM OVC050 02/00 A2939 RMK AO2 RAE08 SLP954 P0000 60001 70001 T00220000 10022 20011 55000=
202302261053 METAR KCLM 261053Z AUTO 00000KT 10SM -RA FEW007 OVC044 01/00 A2938 RMK AO2 RAB43SNE43 SLP952 P0001 T00110000=
202302261030 SPECI KCLM 261030Z AUTO 23004KT 3SM -SN BR OVC007 01/M01 A2939 RMK AO2 P0001 T00111006=
202302261003 SPECI KCLM 261003Z AUTO 25006KT 1 3/4SM -SN BR BKN009 BKN013 OVC018 01/M01 A2939 RMK AO2 P0000 T00111011=
202302260953 METAR KCLM 260953Z AUTO 25006KT 1 3/4SM -SN BR BKN011 OVC018 01/M01 A2939 RMK AO2 SNB19 SLP954 P0000 T00111011=
202302260939 SPECI KCLM 260939Z AUTO 25004KT 2 1/2SM -SN BKN011 OVC023 01/M02 A2939 RMK AO2 SNB19 P0000 T00111022=
202302260929 SPECI KCLM 260929Z AUTO 27003KT 3SM -SN BKN011 OVC035 01/M02 A2938 RMK AO2 SNB19 P0000 T00111022=
202302260853 METAR KCLM 260853Z AUTO 00000KT 10SM OVC044 02/M03 A2939 RMK AO2 SLP955 T00171028 56040=
202302260831 SPECI KCLM 260831Z AUTO 00000KT 10SM SCT011 OVC044 01/M02 A2940 RMK AO2 T00111022=
202302260823 SPECI KCLM 260823Z AUTO 00000KT 10SM BKN011 OVC042 02/M02 A2940 RMK AO2 T00171022=
202302260753 METAR KCLM 260753Z AUTO 00000KT 10SM OVC042 01/M02 A2943 RMK AO2 SLP968 T00111022 400331072=
202302260653 METAR KCLM 260653Z AUTO 00000KT 10SM OVC050 02/M03 A2947 RMK AO2 SLP981 T00171028=
202302260553 METAR KCLM 260553Z AUTO 10003KT 10SM FEW030 OVC039 02/M03 A2951 RMK AO2 SLP995 T00171033 10028 20011 56042=
202302260453 METAR KCLM 260453Z AUTO 00000KT 10SM OVC042 01/M03 A2954 RMK AO2 SLP006 T00111028=
202302260353 METAR KCLM 260353Z AUTO 00000KT 10SM OVC055 01/M03 A2958 RMK AO2 SLP021 T00111033=
202302260327 SPECI KCLM 260327Z AUTO 00000KT 10SM SCT023 OVC055 02/M03 A2960 RMK AO2 T00171033=
202302260319 SPECI KCLM 260319Z AUTO 00000KT 10SM BKN023 BKN041 OVC060 02/M03 A2961 RMK AO2 T00171033=
202302260253 METAR KCLM 260253Z AUTO 00000KT 10SM OVC060 02/M04 A2963 RMK AO2 SLP039 T00171039 58036=
202302260153 METAR KCLM 260153Z AUTO 24004KT 10SM OVC055 02/M04 A2969 RMK AO2 SLP055 T00221039=
202302260053 METAR KCLM 260053Z AUTO 00000KT 10SM FEW065 OVC080 03/M04 A2971 RMK AO2 SLP063 T00281044=
202302252353 METAR KCLM 252353Z AUTO 00000KT 10SM BKN065 OVC080 03/M06 A2974 RMK AO2 SLP075 T00281056 10033 20017 56046=
202302252253 METAR KCLM 252253Z AUTO 08003KT 10SM OVC065 03/M05 A2979 RMK AO2 SLP090 T00281050=
202302252153 METAR KCLM 252153Z AUTO 10003KT 10SM BKN070 03/M05 A2982 RMK AO2 PRESFR SLP102 T00331050=
202302252053 METAR KCLM 252053Z AUTO 00000KT 10SM BKN075 03/M06 A2988 RMK AO2 SLP122 T00281056 58033=
202302251953 METAR KCLM 251953Z AUTO 08005KT 10SM FEW075 SCT095 OVC110 02/M06 A2992 RMK AO2 SLP135 T00221056=
202302251853 METAR KCLM 251853Z AUTO 10005KT 10SM FEW110 02/M05 A2995 RMK AO2 SLP145 T00221050=
202302251753 METAR KCLM 251753Z AUTO 09005KT 10SM SCT080 SCT120 02/M05 A2998 RMK AO2 SLP155 T00171050 10017 21061 58019=
202302251653 METAR KCLM 251653Z AUTO 16003KT 10SM FEW080 BKN120 00/M03 A3001 RMK AO2 SLP165 T00001033=
202302251553 METAR KCLM 251553Z AUTO 22003KT 10SM FEW095 SCT120 M02/M05 A3003 RMK AO2 SLP173 T10221050=
202302251453 METAR KCLM 251453Z AUTO 00000KT 10SM CLR M04/M07 A3004 RMK AO2 SLP175 T10441067 56015=
202302251353 METAR KCLM 251353Z AUTO 19003KT 10SM CLR M04/M07 A3006 RMK AO2 SLP181 T10391067=
202302251253 METAR KCLM 251253Z AUTO 21003KT 10SM CLR M04/M07 A3005 RMK AO2 SLP180 T10441067=
202302251153 METAR KCLM 251153Z AUTO 00000KT 10SM CLR M06/M08 A3008 RMK AO2 SLP190 I6000 T10611078 11039 21072 58016=
202302251053 METAR KCLM 251053Z AUTO 00000KT 10SM CLR M06/M08 A3010 RMK AO2 SLP197 I1000 T10611078=
202302250953 METAR KCLM 250953Z AUTO 22004KT 10SM CLR M07/M08 A3012 RMK AO2 SLP202 I1000 T10671083=
202302250853 METAR KCLM 250853Z AUTO 22006KT 10SM CLR M05/M08 A3013 RMK AO2 SLP206 I1000 I3000 T10501078 55004=
202302250753 METAR KCLM 250753Z AUTO 22005KT 10SM CLR M05/M08 A3011 RMK AO2 SLP201 T10501078 400061067=
202302250653 METAR KCLM 250653Z AUTO 00000KT 10SM CLR M05/M08 A3011 RMK AO2 SLP201 T10501078=
202302250553 METAR KCLM 250553Z AUTO 20003KT 10SM CLR M06/M08 A3014 RMK AO2 SLP210 T10561083 10006 21061 53002=
202302250453 METAR KCLM 250453Z AUTO 22005KT 10SM CLR M04/M08 A3014 RMK AO2 SLP212 T10391078=
202302250353 METAR KCLM 250353Z AUTO 00000KT 10SM CLR M04/M08 A3012 RMK AO2 SLP204 T10391083=
202302250253 METAR KCLM 250253Z AUTO 00000KT 10SM CLR M02/M08 A3013 RMK AO2 SLP207 T10221083 56007=
202302250153 METAR KCLM 250153Z AUTO 14003KT 10SM CLR M02/M08 A3014 RMK AO2 SLP209 T10171083=
202302250053 METAR KCLM 250053Z AUTO 09004KT 10SM CLR 00/M09 A3013 RMK AO2 SLP207 T00001089=
202302242353 METAR KCLM 242353Z AUTO 09005KT 10SM CLR 01/M09 A3015 RMK AO2 SLP214 T00061094 10006 21006 56008=
202302242253 METAR KCLM 242253Z AUTO 08008KT 10SM CLR 01/M09 A3015 RMK AO2 SLP215 T00061094=
202302242153 METAR KCLM 242153Z AUTO 11004KT 10SM OVC032 00/M09 A3016 RMK AO2 SLP216 T00001094=
202302242053 METAR KCLM 242053Z AUTO 09006KT 10SM SCT035 M01/M10 A3018 RMK AO2 SLP222 T10061100 50002=
202302241953 METAR KCLM 241953Z AUTO 09005KT 10SM SCT032 00/M11 A3019 RMK AO2 SLP225 T00001106=
202302241853 METAR KCLM 241853Z AUTO VRB06KT 10SM OVC033 M01/M08 A3018 RMK AO2 SLP223 T10061083=
202302241832 SPECI KCLM 241832Z AUTO VRB05KT 10SM OVC030 00/M07 A3017 RMK AO2 T00001072=
202302241821 SPECI KCLM 241821Z AUTO VRB04KT 10SM OVC029 00/M08 A3017 RMK AO2 T00001078=
202302241753 METAR KCLM 241753Z AUTO 17003KT 10SM SCT031 M01/M08 A3017 RMK AO2 SLP219 T10061083 10000 21067 53004=
202302241653 METAR KCLM 241653Z AUTO 00000KT 10SM CLR M02/M07 A3015 RMK AO2 SLP214 T10221072=
202302241553 METAR KCLM 241553Z AUTO 22005KT 10SM OVC035 M06/M08 A3016 RMK AO2 SLP217 T10561078=
202302241453 METAR KCLM 241453Z AUTO 22004KT 10SM BKN032 M06/M08 A3016 RMK AO2 SLP216 T10561083 53016=
202302241353 METAR KCLM 241353Z AUTO 24005KT 10SM BKN033 M04/M08 A3014 RMK AO2 SLP211 T10441083 $=
202302241253 METAR KCLM 241253Z AUTO 22006KT 10SM OVC032 M03/M08 A3013 RMK AO2 SLP205 T10331078 $=
202302241153 METAR KCLM 241153Z AUTO 23005KT 10SM FEW033 M06/M09 A3011 RMK AO2 SLP200 T10561089 11006 21056 51006 $=
202302241053 METAR KCLM 241053Z AUTO 15003KT 10SM FEW034 M03/M09 A3010 RMK AO2 SLP196 T10331089 $=
202302240953 METAR KCLM 240953Z AUTO 08007KT 10SM BKN037 M01/M10 A3011 RMK AO2 SLP199 T10111100 $=
202302240853 METAR KCLM 240853Z AUTO 08006KT 10SM OVC037 M01/M09 A3009 RMK AO2 SLP193 T10111094 53020 $=
202302240753 METAR KCLM 240753Z AUTO VRB05KT 10SM OVC040 M01/M10 A3007 RMK AO2 SLP188 T10111100 400061022 $=
202302240653 METAR KCLM 240653Z AUTO VRB04KT 10SM OVC043 M01/M10 A3005 RMK AO2 SLP180 T10111100 $=
202302240553 METAR KCLM 240553Z AUTO VRB06KT 10SM OVC042 M01/M10 A3003 RMK AO2 SLP173 T10061100 10006 21006 52023 $=
202302240453 METAR KCLM 240453Z AUTO VRB05KT 10SM OVC042 M01/M10 A3001 RMK AO2 SLP165 T10061100 $=
202302240353 METAR KCLM 240353Z AUTO 07008G15KT 030V100 10SM OVC044 M01/M10 A2999 RMK AO2 SLP159 T10061100 $=
202302240253 METAR KCLM 240253Z AUTO VRB06KT 10SM OVC045 00/M09 A2996 RMK AO2 SLP150 T00001094 53027 $=
202302240153 METAR KCLM 240153Z AUTO 07007KT 030V100 10SM OVC046 00/M09 A2994 RMK AO2 SLP141 T00001094 $=
202302240053 METAR KCLM 240053Z AUTO VRB05KT 10SM OVC046 01/M10 A2991 RMK AO2 SLP130 T00061100 $=
202302232353 METAR KCLM 232353Z AUTO 09007KT 10SM OVC046 01/M09 A2988 RMK AO2 SLP122 60000 T00061094 10006 21022 53018 $=
202302232253 METAR KCLM 232253Z AUTO 10009KT 10SM OVC043 00/M09 A2986 RMK AO2 SLP115 T00001089 $=
202302232153 METAR KCLM 232153Z AUTO 07007G15KT 10SM OVC038 00/M09 A2984 RMK AO2 SLP108 T00001089=
202302232053 METAR KCLM 232053Z AUTO 10012KT 10SM BKN037 BKN047 OVC055 M01/M08 A2983 RMK AO2 SLP104 60000 T10061078 52010=
202302231953 METAR KCLM 231953Z AUTO 10011G17KT 10SM SCT028 BKN034 OVC042 M01/M07 A2982 RMK AO2 SNE40 SLP100 P0000 T10111072=
202302231948 SPECI KCLM 231948Z AUTO 10010KT 10SM FEW019 SCT029 OVC038 M01/M07 A2982 RMK AO2 SNE40 P0000=
202302231933 SPECI KCLM 231933Z AUTO 11008KT 3SM -SN BKN017 BKN029 OVC039 M02/M06 A2981 RMK AO2 P0000 T10171061=
202302231930 SPECI KCLM 231930Z AUTO 10009KT 1 1/2SM -SN BKN017 BKN029 OVC041 M02/M06 A2981 RMK AO2 P0000 T10221061=
202302231908 SPECI KCLM 231908Z AUTO 10008KT 3/4SM -SN BKN016 OVC024 M02/M06 A2981 RMK AO2 P0000 T10221061=
202302231853 METAR KCLM 231853Z AUTO 11011KT 1SM -SN BKN023 OVC029 M02/M06 A2980 RMK AO2 SNB30 SLP095 P0000 T10221061=
202302231844 SPECI KCLM 231844Z AUTO 11011KT 1 3/4SM -SN OVC025 M02/M07 A2980 RMK AO2 SNB30 P0000 T10221067=
202302231825 SPECI KCLM 231825Z AUTO 11013G20KT 10SM BKN029 OVC046 M02/M08 A2979 RMK AO2 T10171078=
202302231753 METAR KCLM 231753Z AUTO 12011KT 10SM BKN041 OVC050 M01/M08 A2977 RMK AO2 SLP084 T10111078 11011 21022 52025=
202302231653 METAR KCLM 231653Z AUTO 12015G22KT 10SM BKN045 OVC055 M02/M08 A2974 RMK AO2 SLP076 T10221078=
202302231553 METAR KCLM 231553Z AUTO 11012KT 10SM OVC043 M02/M07 A2972 RMK AO2 SLP067 T10221072=
202302231453 METAR KCLM 231453Z AUTO 10016G25KT 10SM SCT043 BKN090 M02/M07 A2970 RMK AO2 SLP059 T10221072 53021=
202302231353 METAR KCLM 231353Z AUTO 10013G20KT 10SM BKN048 BKN070 OVC085 M02/M08 A2967 RMK AO2 SLP051 T10221078=
202302231253 METAR KCLM 231253Z AUTO 11010KT 10SM BKN050 BKN060 OVC080 M02/M08 A2965 RMK AO2 PK WND 09026/1154 SLP044 T10171083=
202302231153 METAR KCLM 231153Z AUTO 10014G22KT 10SM OVC090 M01/M08 A2963 RMK AO2 SLP038 60004 70022 T10111078 10000 21011 53006=
202302231053 METAR KCLM 231053Z AUTO 09010G23KT 10SM BKN048 OVC110 M01/M07 A2962 RMK AO2 SLP034 T10061072=
202302230953 METAR KCLM 230953Z AUTO 10012G21KT 10SM SCT017 SCT027 OVC047 00/M06 A2962 RMK AO2 SLP032 T00001056=
202302230922 SPECI KCLM 230922Z AUTO 09011G24KT 10SM SCT017 OVC045 00/M04 A2962 RMK AO2 T00001044=
202302230853 METAR KCLM 230853Z AUTO 10008KT 10SM SCT012 BKN018 OVC038 M01/M03 A2962 RMK AO2 SNE35 SLP031 P0000 60004 T10061033 55003=
202302230834 SPECI KCLM 230834Z AUTO 11007KT 7SM -SN FEW009 BKN017 OVC034 M01/M03 A2961 RMK AO2 P0000 T10111033=
202302230821 SPECI KCLM 230821Z AUTO 11005KT 2SM -SN BR BKN011 OVC025 M01/M03 A2961 RMK AO2 P0000 T10111033=
202302230809 SPECI KCLM 230809Z AUTO 09004KT 3SM -SN BR BKN013 OVC023 M01/M03 A2961 RMK AO2 P0000 T10111028=
202302230802 SPECI KCLM 230802Z AUTO 09004KT 3SM -SN BR SCT013 OVC023 M01/M03 A2961 RMK AO2 P0000 T10111028=
202302230753 METAR KCLM 230753Z AUTO 09006KT 1 1/2SM -SN BR FEW008 OVC023 M01/M03 A2961 RMK AO2 SLP031 P0001 T10111028 400111017=
202302230744 SPECI KCLM 230744Z AUTO 09005KT 2SM -SN BR SCT008 BKN025 OVC037 M01/M03 A2962 RMK AO2 P0001 T10111033=
202302230719 SPECI KCLM 230719Z AUTO 16006KT 3SM -SN BR OVC006 M01/M03 A2961 RMK AO2 P0001 T10111028=
202302230716 SPECI KCLM 230716Z AUTO VRB06KT 2SM -SN BR BKN004 OVC008 M01/M02 A2961 RMK AO2 P0001 T10061022=
202302230703 SPECI KCLM 230703Z AUTO 00000KT 1SM -SN BR OVC005 M01/M03 A2962 RMK AO2 P0000 T10111028=
202302230653 METAR KCLM 230653Z AUTO VRB05KT 3/4SM -SN BR OVC006 M01/M03 A2962 RMK AO2 CIG 003V009 SLP034 P0003 T10111028=
202302230627 SPECI KCLM 230627Z AUTO 11004KT 1 1/4SM -SN BR OVC008 M01/M03 A2963 RMK AO2 CIG 006V010 P0001 T10111033=
202302230553 METAR KCLM 230553Z AUTO VRB06KT 2SM -SN BR BKN006 OVC010 M01/M03 A2963 RMK AO2 SLP035 P0004 60018 T10111033 11011 21017 58001=
202302230506 SPECI KCLM 230506Z AUTO 09004KT 1 3/4SM -SN BR OVC007 M01/M03 A2963 RMK AO2 P0001 T10111033=
202302230453 METAR KCLM 230453Z AUTO 11005KT 3/4SM -SN BR BKN007 OVC016 M01/M03 A2963 RMK AO2 SLP036 P0005 T10111033=
202302230444 SPECI KCLM 230444Z AUTO 07003KT 3/4SM -SN BR BKN005 BKN009 OVC014 M01/M03 A2963 RMK AO2 P0003 T10111033=
202302230439 SPECI KCLM 230439Z AUTO 10004KT 1 1/4SM -SN BR SCT005 BKN011 OVC014 M01/M03 A2963 RMK AO2 P0003 T10111033=
202302230410 SPECI KCLM 230410Z AUTO 08008KT 1 1/4SM -SN BR BKN005 OVC013 M01/M03 A2963 RMK AO2 P0001 T10111033=
202302230353 METAR KCLM 230353Z AUTO 08010G16KT 3/4SM -SN BR OVC007 M02/M04 A2963 RMK AO2 SLP037 P0003 T10171039=
202302230351 SPECI KCLM 230351Z AUTO 08010G16KT 3/4SM -SN BR OVC007 M02/M04 A2963 RMK AO2 P0003=
202302230319 SPECI KCLM 230319Z AUTO VRB05G15KT 1 1/4SM -SN BKN009 OVC016 M01/M04 A2963 RMK AO2 P0001 T10111039=
202302230253 METAR KCLM 230253Z AUTO 08007KT 1 3/4SM -SN BKN013 OVC019 M01/M04 A2963 RMK AO2 SLP036 P0003 60006 T10111039 56003=
202302230242 SPECI KCLM 230242Z AUTO 09004KT 2SM -SN BKN012 OVC018 M01/M04 A2963 RMK AO2 P0003 T10111039=
202302230212 SPECI KCLM 230212Z AUTO 10006KT 1 1/4SM -SN FEW007 OVC013 M01/M04 A2963 RMK AO2 P0001 T10111039=
202302230153 METAR KCLM 230153Z AUTO 07004KT 1 1/2SM -SN OVC013 M01/M04 A2963 RMK AO2 SLP037 P0000 T10111044=
202302230140 SPECI KCLM 230140Z AUTO 07005KT 1SM -SN OVC011 M01/M04 A2963 RMK AO2 P0000 T10111044=
202302230130 SPECI KCLM 230130Z AUTO VRB05KT 2SM -SN OVC013 M01/M04 A2963 RMK AO2 VIS 1V4 P0000 T10111044=
202302230119 SPECI KCLM 230119Z AUTO VRB04KT 3SM -SN BKN011 OVC018 M01/M04 A2963 RMK AO2 P0000 T10111039=
202302230101 SPECI KCLM 230101Z AUTO 09005KT 1 3/4SM -SN OVC013 M01/M04 A2963 RMK AO2 P0000 T10111044=
202302230053 METAR KCLM 230053Z AUTO VRB04KT 3SM -SN OVC013 M01/M04 A2963 RMK AO2 SLP037 P0003 T10111044=
202302230046 SPECI KCLM 230046Z AUTO 07003KT 3SM -SN OVC011 M01/M04 A2963 RMK AO2 P0003 T10111039=
202302230038 SPECI KCLM 230038Z AUTO 07004KT 1SM -SN OVC011 M01/M04 A2963 RMK AO2 P0003 T10111039=
202302230010 SPECI KCLM 230010Z AUTO 09003KT 1/2SM SN OVC008 M01/M04 A2964 RMK AO2 P0001 T10111039=
202302230004 SPECI KCLM 230004Z AUTO VRB03KT 1 1/4SM -SN FEW005 OVC010 M01/M04 A2964 RMK AO2 CIG 008V012 P0000 T10111044=
202302222353 METAR KCLM 222353Z AUTO 00000KT 2 1/2SM -SN BKN010 OVC015 M01/M04 A2964 RMK AO2 CIG 008V013 SLP039 P0000 60000 T10111044 10006 21011 58007=
202302222341 SPECI KCLM 222341Z AUTO 00000KT 2 1/2SM -SN BKN014 OVC019 M01/M04 A2964 RMK AO2 P0000 T10111044=
202302222253 METAR KCLM 222253Z AUTO 19003KT 5SM -SN FEW010 BKN016 OVC024 M01/M05 A2964 RMK AO2 SNB26 SLP041 P0000 T10111050=
202302222213 SPECI KCLM 222213Z AUTO 00000KT 8SM SCT016 BKN022 OVC042 M01/M05 A2965 RMK AO2 T10061050=
202302222201 SPECI KCLM 222201Z AUTO 00000KT 6SM HZ FEW016 SCT032 OVC042 M01/M05 A2966 RMK AO2 T10061050=
202302222153 METAR KCLM 222153Z AUTO 35003KT 6SM HZ FEW014 BKN019 OVC042 M01/M06 A2966 RMK AO2 SNB20E45 SLP046 P0000 T10061056=
202302222150 SPECI KCLM 222150Z AUTO VRB04KT 6SM HZ SCT016 BKN022 OVC042 M01/M06 A2966 RMK AO2 SNB20E45 P0000=
202302222139 SPECI KCLM 222139Z AUTO 00000KT 4SM -SN FEW014 BKN032 OVC039 M01/M05 A2966 RMK AO2 SNB20 P0000 T10061050=
202302222131 SPECI KCLM 222131Z AUTO 33004KT 2SM -SN FEW014 BKN020 OVC036 M01/M06 A2966 RMK AO2 SNB20 P0000 T10061056=
202302222053 METAR KCLM 222053Z AUTO VRB03KT 10SM BKN034 OVC043 00/M07 A2967 RMK AO2 SNB16E38 SLP049 P0000 60000 T00001067 58001=
202302222033 SPECI KCLM 222033Z AUTO 00000KT 3SM -SN FEW023 BKN030 OVC037 M01/M06 A2968 RMK AO2 SNB16 P0000 T10061061=
202302222023 SPECI KCLM 222023Z AUTO 04004KT 2 1/2SM -SN BKN026 OVC035 M01/M06 A2968 RMK AO2 VIS 1 1/2V3 SNB16 P0000 T10061061=
202302221953 METAR KCLM 221953Z AUTO 09004KT 10SM FEW038 BKN047 OVC060 01/M08 A2968 RMK AO2 SLP051 T00061078=
202302221853 METAR KCLM 221853Z AUTO VRB03KT 10SM FEW050 OVC065 01/M08 A2968 RMK AO2 SLP053 T00061078=
202302221753 METAR KCLM 221753Z AUTO VRB05KT 10SM OVC060 01/M08 A2967 RMK AO2 SLP051 T00061083 10006 21011 52009=
202302221653 METAR KCLM 221653Z AUTO 00000KT 10SM OVC065 00/M05 A2966 RMK AO2 SLP047 T00001050=
202302221553 METAR KCLM 221553Z AUTO VRB04KT 10SM OVC060 00/M07 A2965 RMK AO2 SLP045 T00001067=
202302221453 METAR KCLM 221453Z AUTO VRB03KT 10SM OVC065 M01/M06 A2964 RMK AO2 SLP041 T10061056 53010=
202302221353 METAR KCLM 221353Z AUTO 00000KT 10SM FEW035 OVC060 M01/M04 A2963 RMK AO2 SLP038 T10061044=
202302221253 METAR KCLM 221253Z AUTO 23005KT 10SM OVC032 M01/M03 A2962 RMK AO2 SLP034 T10061033=
202302221242 SPECI KCLM 221242Z AUTO 27004KT 10SM OVC032 M01/M03 A2962 RMK AO2 T10061033=
202302221153 METAR KCLM 221153Z AUTO 00000KT 10SM BKN020 OVC025 00/M04 A2961 RMK AO2 SLP031 60012 70020 T00001039 10028 21006 51007=
202302221134 SPECI KCLM 221134Z AUTO 00000KT 10SM BKN023 OVC055 00/M03 A2962 RMK AO2 T00001033=
202302221053 METAR KCLM 221053Z AUTO 23007KT 9SM FEW007 SCT030 OVC055 M01/M03 A2961 RMK AO2 SNE51 SLP030 P0001 T10061028=
202302221039 SPECI KCLM 221039Z AUTO 24004KT 3SM -SN BR BKN007 BKN034 OVC050 M01/M02 A2961 RMK AO2 P0001 T10061022=
202302221031 SPECI KCLM 221031Z AUTO 00000KT 1 1/2SM -SN BR BKN007 OVC018 M01/M02 A2962 RMK AO2 P0001 T10061022=
202302221017 SPECI KCLM 221017Z AUTO 00000KT 2SM -SN BR BKN007 OVC012 M01/M02 A2962 RMK AO2 P0001 T10061022=
202302220953 METAR KCLM 220953Z AUTO VRB03KT 1SM -SN BR SCT006 OVC012 00/M02 A2961 RMK AO2 SLP030 P0003 T00001022=
202302220944 SPECI KCLM 220944Z AUTO 00000KT 1 1/4SM -SN BR SCT006 OVC010 M01/M02 A2961 RMK AO2 P0002 T10061022=
202302220927 SPECI KCLM 220927Z AUTO 00000KT 1SM -SN BR SCT005 OVC009 00/M02 A2961 RMK AO2 P0002 T00001017=
202302220923 SPECI KCLM 220923Z AUTO 00000KT 3/4SM -SN BR SCT005 OVC010 00/M02 A2960 RMK AO2 P0002 T00001022=
202302220906 SPECI KCLM 220906Z AUTO VRB03KT 1 1/4SM -SN BR SCT006 OVC012 00/M02 A2960 RMK AO2 P0001 T00001022=
202302220853 METAR KCLM 220853Z AUTO VRB04KT 1 1/4SM -SN OVC011 01/M03 A2959 RMK AO2 SNB19 SLP024 P0004 60008 T00061028 52029=
202302220826 SPECI KCLM 220826Z AUTO VRB06KT 1 3/4SM -SN SCT008 OVC013 01/M02 A2959 RMK AO2 VIS 1V5 SNB19 P0001 T00111022=
202302220803 SPECI KCLM 220803Z AUTO 10SM FEW004 BKN010 OVC014 01/M02 A2958 RMK AO2 CIG 007V012 T00111017=
202302220753 METAR KCLM 220753Z AUTO VRB05KT 10SM BKN006 OVC013 01/M01 A2957 RMK AO2 RAE02SNB02E40 CIG 003V009 SLP016 P0004 T00111011 400890011=
202302220717 SPECI KCLM 220717Z AUTO 03008G19KT 330V080 4SM -SN BR OVC004 02/M01 A2955 RMK AO2 RAE02SNB02 CIG 003V007 P0003 T00171006=
202302220714 SPECI KCLM 220714Z AUTO 02008G19KT 340V050 2 1/2SM -SN BR OVC005 02/M01 A2954 RMK AO2 VIS 1 1/4V5 RAE02SNB02 CIG 003V007 P0003 T00171006=
202302220653 METAR KCLM 220653Z AUTO 01008G20KT 320V060 8SM -RA OVC005 03/01 A2953 RMK AO2 RAB39 SLP001 P0000 T00280011=
202302220644 SPECI KCLM 220644Z AUTO 02009G20KT 350V060 9SM -RA BKN005 OVC015 03/01 A2952 RMK AO2 RAB39 P0000 T00330011=
202302220611 SPECI KCLM 220611Z AUTO 10SM FEW009 OVC015 03/01 A2951 RMK AO2 T00330006=
202302220601 SPECI KCLM 220601Z AUTO 03007KT 360V060 10SM FEW010 BKN015 OVC034 03/01 A2951 RMK AO2 T00330011=
202302220553 METAR KCLM 220553Z AUTO 12003KT 10SM FEW009 BKN013 OVC050 04/01 A2951 RMK AO2 SLP993 60000 T00390011 10056 20017 53007=
202302220453 METAR KCLM 220453Z AUTO 22003KT 10SM SCT035 OVC050 02/01 A2949 RMK AO2 RAB23E32 SLP988 P0000 T00220006=
202302220353 METAR KCLM 220353Z AUTO 00000KT 10SM BKN043 02/01 A2949 RMK AO2 SLP988 T00220006=
202302220253 METAR KCLM 220253Z AUTO 00000KT 10SM OVC075 02/00 A2949 RMK AO2 SLP987 T00220000 55001=
202302220153 METAR KCLM 220153Z AUTO 00000KT 10SM BKN070 BKN080 03/01 A2948 RMK AO2 SLP984 T00330006=
202302220053 METAR KCLM 220053Z AUTO 24005KT 10SM FEW043 BKN070 05/01 A2948 RMK AO2 SLP983 T00500011=
202302212353 METAR KCLM 212353Z AUTO 25005KT 10SM FEW049 SCT075 06/01 A2949 RMK AO2 RAE2259 SLP988 P0000 60006 T00560011 10089 20044 58009=
202302212304 SPECI KCLM 212304Z AUTO 24006KT 10SM BKN031 BKN049 OVC060 06/02 A2950 RMK AO2 RAE2259 P0000 T00610022=
202302212253 METAR KCLM 212253Z AUTO 24006KT 8SM -RA BKN025 OVC030 05/02 A2950 RMK AO2 SLP991 P0002 T00500017=
202302212236 SPECI KCLM 212236Z AUTO 25011KT 10SM -RA BKN029 BKN036 OVC065 05/02 A2951 RMK AO2 P0001 T00500017=
202302212217 SPECI KCLM 212217Z AUTO 25011KT 10SM -RA BKN037 BKN050 OVC100 05/02 A2951 RMK AO2 P0001 T00500017=
202302212206 SPECI KCLM 212206Z AUTO 26012KT 7SM -RA BKN027 BKN038 OVC100 04/01 A2951 RMK AO2 P0001 T00440011=
202302212153 METAR KCLM 212153Z AUTO 28014G26KT 10SM -RA FEW021 BKN030 OVC100 04/01 A2952 RMK AO2 PK WND 27026/2145 RAE12B32 SLP997 P0002 T00440011=
202302212116 SPECI KCLM 212116Z AUTO 30009KT 10SM FEW024 BKN034 06/02 A2951 RMK AO2 RAE12 P0002 T00610022=
202302212053 METAR KCLM 212053Z AUTO 32010G19KT 4SM RA BKN028 BKN035 OVC042 05/01 A2952 RMK AO2 RAB00 SLP999 P0002 60002 T00500011 58014=
202302211953 METAR KCLM 211953Z AUTO 26009KT 10SM FEW031 OVC060 07/01 A2955 RMK AO2 SLP007 T00720006=
202302211853 METAR KCLM 211853Z AUTO 26009KT 10SM BKN037 OVC085 07/01 A2955 RMK AO2 SLP008 T00720006=
202302211753 METAR KCLM 211753Z AUTO 26008KT 10SM BKN038 OVC048 06/01 A2957 RMK AO2 RAB11E32 SLP013 P0000 60002 T00560011 10067 20033 56016=
202302211653 METAR KCLM 211653Z AUTO 27009KT 10SM FEW050 FEW080 SCT110 06/01 A2957 RMK AO2 RAB1558E26 SLP013 P0000 T00560011=
202302211629 SPECI KCLM 211629Z AUTO 25010G18KT 10SM SCT022 SCT050 OVC080 05/01 A2957 RMK AO2 RAB1558E26 P0000 T00500011=
202302211620 SPECI KCLM 211620Z AUTO 22010G21KT 8SM -RA BKN027 BKN038 OVC075 04/01 A2957 RMK AO2 RAB1558 P0000 T00440006=
202302211553 METAR KCLM 211553Z AUTO 26015G21KT 10SM SCT042 OVC070 05/01 A2959 RMK AO2 SLP021 T00500006=
202302211453 METAR KCLM 211453Z AUTO 26009KT 10SM FEW019 SCT120 03/00 A2961 RMK AO2 PK WND 28034/1424 RAB22E42 SLP029 P0001 60002 T00330000 55014=
202302211448 SPECI KCLM 211448Z AUTO 25011KT 10SM SCT019 SCT120 04/01 A2961 RMK AO2 PK WND 28034/1424 RAB22E42 P0001=
202302211431 SPECI KCLM 211431Z AUTO 27015G34KT 8SM -RA FEW015 BKN024 04/00 A2962 RMK AO2 PK WND 28034/1424 RAB22 P0001 T00440000=
202302211353 METAR KCLM 211353Z AUTO 26017G24KT 10SM CLR 05/00 A2963 RMK AO2 PK WND 26026/1326 RAB1254E25 SLP036 P0000 T00500000=
202302211253 METAR KCLM 211253Z AUTO 26015G26KT 10SM FEW023 04/01 A2965 RMK AO2 PK WND 29034/1157 RAB1158E42 SLP043 P0001 T00440006=
202302211250 SPECI KCLM 211250Z AUTO 26015G26KT 10SM FEW018 SCT023 05/01 A2965 RMK AO2 PK WND 29034/1157 RAB1158E42 P0001=
202302211229 SPECI KCLM 211229Z AUTO 27022G32KT 9SM -RA FEW017 OVC027 05/01 A2966 RMK AO2 PK WND 29034/1157 RAB1158 P0001 T00500006=
202302211153 METAR KCLM 211153Z AUTO 26017G26KT 10SM FEW034 SCT120 06/01 A2968 RMK AO2 PK WND 26027/1103 RAE1058 SLP051 P0000 60005 70008 T00560006 10072 20050 58015=
202302211053 METAR KCLM 211053Z AUTO 26016G34KT 10SM -RA SCT022 BKN034 BKN110 06/01 A2970 RMK AO2 PK WND 26037/0957 RAE09B39 SLP060 P0001 T00560011=
202302210953 METAR KCLM 210953Z AUTO 27018G30KT 10SM -RA SCT026 BKN031 OVC075 05/02 A2971 RMK AO2 PK WND 28038/0930 RAE0857B25 SLP062 P0001 T00500017=
202302210935 SPECI KCLM 210935Z AUTO 27021G38KT 4SM -RA BKN024 06/01 A2972 RMK AO2 PK WND 28038/0930 RAE0857B25 P0001 T00560011=
202302210853 METAR KCLM 210853Z AUTO 26017G27KT 10SM -RA FEW026 BKN034 BKN070 06/02 A2972 RMK AO2 PK WND 26027/0853 SLP066 P0002 60003 T00560017 58000=
202302210851 SPECI KCLM 210851Z AUTO 27012G24KT 9SM -RA FEW026 BKN034 BKN070 06/02 A2972 RMK AO2 PK WND 28027/0803 P0002=
202302210808 SPECI KCLM 210808Z AUTO 26015G27KT 10SM -RA BKN026 BKN033 BKN048 06/02 A2972 RMK AO2 PK WND 28027/0803 P0000 T00560017=
202302210753 METAR KCLM 210753Z AUTO 27017G33KT 8SM -RA BKN030 BKN044 OVC080 06/01 A2973 RMK AO2 PK WND 27040/0726 RAB05 SLP068 P0001 T00610011 401110061=
202302210701 SPECI KCLM 210701Z AUTO 26018G32KT 10SM BKN038 OVC070 07/01 A2973 RMK AO2 PK WND 26032/0658 T00670011=
202302210653 METAR KCLM 210653Z AUTO 26021G31KT 10SM BKN029 BKN039 OVC070 07/01 A2972 RMK AO2 PK WND 26040/0632 RAB0555E53 SLP066 P0000 T00670011=
202302210553 METAR KCLM 210553Z AUTO 26018G30KT 10SM BKN034 BKN050 OVC070 07/01 A2975 RMK AO2 PK WND 29040/0504 RAB00E43 SLP075 P0002 60003 T00720011 10111 20067 53009=
202302210453 METAR KCLM 210453Z AUTO 28021G34KT 10SM FEW049 SCT065 07/02 A2974 RMK AO2 PK WND 29045/0419 RAE30 SLP071 P0001 T00720022=
202302210353 METAR KCLM 210353Z AUTO 29019G28KT 7SM -RA SCT043 BKN050 09/06 A2971 RMK AO2 PK WND 31030/0342 RAB40 SLP063 P0000 T00890056=
202302210253 METAR KCLM 210253Z AUTO VRB03KT 10SM SCT055 SCT070 08/04 A2972 RMK AO2 SLP066 60000 T00830039 58032=
202302210153 METAR KCLM 210153Z AUTO 00000KT 10SM FEW049 OVC060 10/04 A2974 RMK AO2 RAE0059 PRESFR SLP071 P0000 T01000039=
202302210053 METAR KCLM 210053Z AUTO 00000KT 10SM -RA FEW025 SCT046 OVC070 08/06 A2982 RMK AO2 RAE2358B50 SLP099 P0000 T00830056=
202302210050 SPECI KCLM 210050Z AUTO 09003KT 10SM -RA FEW015 BKN046 OVC070 08/06 A2982 RMK AO2 RAE2358B50 PRESFR P0000=
202302210015 SPECI KCLM 210015Z AUTO 00000KT 10SM BKN026 OVC041 08/06 A2988 RMK AO2 RAE2358 P0000 T00830056=
202302202353 METAR KCLM 202353Z AUTO 01003KT 10SM -RA BKN045 OVC055 09/06 A2988 RMK AO2 RAB46 SLP120 P0000 60000 T00890056 10106 20089 58039=
202302202253 METAR KCLM 202253Z AUTO 09008KT 10SM OVC070 09/06 A2992 RMK AO2 SLP132 T00890056=
202302202153 METAR KCLM 202153Z AUTO 12010KT 10SM FEW009 OVC090 09/06 A2998 RMK AO2 SLP152 T00940056=
202302202053 METAR KCLM 202053Z AUTO 11012KT 10SM FEW090 SCT110 10/06 A3000 RMK AO2 PRESFR SLP160 60000 T01000056 58042=
202302201953 METAR KCLM 201953Z AUTO 11006KT 10SM FEW013 FEW060 10/06 A3006 RMK AO2 SLP179 T01000056=
202302201923 SPECI KCLM 201923Z AUTO 10004KT 10SM SCT015 BKN060 OVC070 10/06 A3008 RMK AO2 PRESFR T01000056=
202302201909 SPECI KCLM 201909Z AUTO 04003KT 10SM BKN014 OVC050 10/06 A3010 RMK AO2 T01000056=
202302201853 METAR KCLM 201853Z AUTO 34005KT 10SM FEW014 OVC055 09/06 A3012 RMK AO2 RAB1755E06 SLP199 P0000 T00940056=
202302201753 METAR KCLM 201753Z AUTO 14007KT 10SM FEW024 BKN080 OVC120 09/06 A3012 RMK AO2 SLP202 60000 T00890056 10094 20083 58005=
202302201653 METAR KCLM 201653Z AUTO 00000KT 10SM BKN022 BKN070 BKN110 09/06 A3015 RMK AO2 RAE1559 SLP209 P0000 T00890056=
202302201643 SPECI KCLM 201643Z AUTO 00000KT 10SM SCT022 BKN070 OVC110 09/06 A3014 RMK AO2 RAE1559 P0000 T00890056=
202302201636 SPECI KCLM 201636Z AUTO 00000KT 10SM BKN023 BKN070 OVC110 09/06 A3014 RMK AO2 RAE1559 P0000 T00890056=
202302201553 METAR KCLM 201553Z AUTO 17003KT 10SM -RA SCT021 OVC060 09/05 A3014 RMK AO2 RAB31 SLP207 P0000 T00890050=
202302201453 METAR KCLM 201453Z AUTO VRB03KT 10SM OVC055 09/05 A3017 RMK AO2 SLP218 T00890050 53003=
202302201353 METAR KCLM 201353Z AUTO 09005KT 10SM OVC048 09/05 A3017 RMK AO2 SLP217 T00890050=
202302201253 METAR KCLM 201253Z AUTO 13003KT 10SM OVC049 09/06 A3016 RMK AO2 SLP213 T00890056=
202302201153 METAR KCLM 201153Z AUTO 31012G19KT 10SM OVC047 09/06 A3016 RMK AO2 SLP215 T00890056 10100 20089 56007=
202302201053 METAR KCLM 201053Z AUTO 31011G19KT 10SM OVC050 10/04 A3017 RMK AO2 SLP217 T01000044=
202302200953 METAR KCLM 200953Z AUTO 30012KT 10SM FEW049 BKN070 OVC090 10/05 A3017 RMK AO2 SLP217 T01000050=
202302200853 METAR KCLM 200853Z AUTO 31010G17KT 10SM SCT049 BKN055 OVC075 10/04 A3018 RMK AO2 SLP221 T01000044 53000=
202302200753 METAR KCLM 200753Z AUTO 31011G19KT 10SM BKN048 OVC055 09/05 A3018 RMK AO2 SLP219 T00940050 401170028=
202302200653 METAR KCLM 200653Z AUTO 30008KT 10SM FEW046 OVC060 09/05 A3018 RMK AO2 SLP221 T00940050=
202302200553 METAR KCLM 200553Z AUTO 34007KT 10SM BKN048 OVC070 09/05 A3018 RMK AO2 SLP221 T00940050 10100 20089 50001=
202302200453 METAR KCLM 200453Z AUTO 29006KT 10SM SCT055 OVC110 10/04 A3019 RMK AO2 SLP224 T01000039=
202302200353 METAR KCLM 200353Z AUTO 31009G17KT 10SM FEW045 OVC055 09/04 A3018 RMK AO2 SLP222 T00940044=
202302200253 METAR KCLM 200253Z AUTO 32007KT 10SM OVC055 09/05 A3018 RMK AO2 SLP220 T00890050 58002=
202302200153 METAR KCLM 200153Z AUTO 31011G19KT 10SM OVC070 09/05 A3018 RMK AO2 SLP222 T00890050=
202302200053 METAR KCLM 200053Z AUTO 30012G22KT 10SM FEW050 OVC060 09/06 A3019 RMK AO2 SLP225 T00890056=
202302192353 METAR KCLM 192353Z AUTO 30008G16KT 10SM OVC075 10/04 A3019 RMK AO2 SLP222 T01000044 10117 20094 58001=
202302192253 METAR KCLM 192253Z AUTO 31008G20KT 10SM SCT048 OVC080 10/04 A3018 RMK AO2 SLP223 T01000044=
202302192153 METAR KCLM 192153Z AUTO 31013G22KT 10SM OVC075 10/05 A3019 RMK AO2 PK WND 31028/2126 SLP227 T01000050=
202302192053 METAR KCLM 192053Z AUTO 29013G24KT 10SM OVC085 11/04 A3019 RMK AO2 PK WND 31035/2025 SLP224 T01060044 55008=
202302191953 METAR KCLM 191953Z AUTO 29013G29KT 10SM OVC085 12/03 A3017 RMK AO2 PK WND 28029/1949 SLP218 T01170033=
202302191853 METAR KCLM 191853Z AUTO 29018G28KT 10SM FEW038 OVC085 11/03 A3020 RMK AO2 PK WND 28028/1847 SLP226 T01110033=
202302191753 METAR KCLM 191753Z AUTO 25006KT 10SM FEW035 BKN046 OVC095 10/03 A3021 RMK AO2 SLP232 60000 T01000033 10100 20061 51005=
202302191653 METAR KCLM 191653Z AUTO 26009G16KT 10SM FEW034 OVC100 10/02 A3021 RMK AO2 SLP232 T01000022=
202302191553 METAR KCLM 191553Z AUTO 29009G18KT 10SM FEW033 OVC110 09/02 A3021 RMK AO2 SLP232 T00940017=
202302191453 METAR KCLM 191453Z AUTO 25010KT 10SM BKN080 BKN120 08/02 A3019 RMK AO2 SLP227 60000 T00780017 58008=
202302191353 METAR KCLM 191353Z AUTO 24007KT 10SM OVC080 07/01 A3022 RMK AO2 RAB22E40 SLP235 P0000 T00720011=
202302191253 METAR KCLM 191253Z AUTO 24008KT 10SM OVC080 07/01 A3022 RMK AO2 SLP235 T00720011=
202302191153 METAR KCLM 191153Z AUTO 25006KT 10SM OVC085 06/02 A3022 RMK AO2 SLP235 70001 T00610022 10061 20028 58002=
202302191053 METAR KCLM 191053Z AUTO 23005KT 10SM OVC080 06/02 A3024 RMK AO2 SLP244 T00560022=
202302190953 METAR KCLM 190953Z AUTO 22005KT 10SM OVC110 05/03 A3024 RMK AO2 SLP240 T00500028=
202302190853 METAR KCLM 190853Z AUTO 00000KT 10SM CLR 03/02 A3022 RMK AO2 SLP236 T00280017 50004=
202302190823 SPECI KCLM 190823Z AUTO 22004KT 10SM FEW017 03/02 A3023 RMK AO2 T00330017=
202302190753 METAR KCLM 190753Z AUTO 21003KT 10SM BKN016 05/03 A3023 RMK AO2 SLP240 T00500028 400940039=
202302190726 SPECI KCLM 190726Z AUTO 22004KT 10SM FEW029 04/02 A3023 RMK AO2 T00440022=
202302190653 METAR KCLM 190653Z AUTO 23006KT 10SM BKN029 05/02 A3022 RMK AO2 SLP236 T00500022=
202302190553 METAR KCLM 190553Z AUTO 20005KT 10SM FEW120 05/03 A3021 RMK AO2 SLP233 T00500028 10078 20039 50000=
202302190453 METAR KCLM 190453Z AUTO 22004KT 10SM SCT019 04/03 A3022 RMK AO2 SLP234 T00440028=
202302190450 SPECI KCLM 190450Z AUTO 23004KT 10SM SCT019 04/03 A3021 RMK AO2=
202302190437 SPECI KCLM 190437Z AUTO 23003KT 10SM BKN019 05/03 A3021 RMK AO2 T00500033=
202302190421 SPECI KCLM 190421Z AUTO 00000KT 7SM FEW019 SCT025 05/03 A3021 RMK AO2 T00500033=
202302190353 METAR KCLM 190353Z AUTO 22004KT 10SM OVC019 06/04 A3021 RMK AO2 SLP233 T00610044=
202302190253 METAR KCLM 190253Z AUTO 13004KT 10SM BKN018 OVC026 07/04 A3019 RMK AO2 SLP225 T00670039 53012=
202302190210 SPECI KCLM 190210Z AUTO 14004KT 10SM BKN019 OVC033 06/04 A3019 RMK AO2 T00610039=
202302190153 METAR KCLM 190153Z AUTO 15005KT 10SM FEW019 OVC034 07/04 A3017 RMK AO2 SLP220 T00670039=
202302190144 SPECI KCLM 190144Z AUTO 16005KT 10SM SCT018 OVC032 07/04 A3018 RMK AO2 T00670044=
202302190053 METAR KCLM 190053Z AUTO 14004KT 10SM OVC016 07/05 A3017 RMK AO2 SLP218 T00720050=
202302190028 SPECI KCLM 190028Z AUTO 10004KT 10SM FEW004 SCT009 OVC017 07/05 A3017 RMK AO2 T00720050=
202302182353 METAR KCLM 182353Z AUTO 00000KT 5SM BR BKN005 OVC022 08/06 A3015 RMK AO2 RAB00E33 SLP213 P0001 60001 T00780061 10094 20067 52014=
202302182341 SPECI KCLM 182341Z AUTO 00000KT 3SM BR BKN007 OVC022 08/06 A3015 RMK AO2 RAB00E33 P0001 T00780061=
202302182331 SPECI KCLM 182331Z AUTO 00000KT 2SM -RA BR SCT005 SCT010 OVC022 08/06 A3015 RMK AO2 RAB00 P0001 T00780056=
202302182317 SPECI KCLM 182317Z AUTO 05003KT 1 3/4SM -RA BR SCT005 BKN010 OVC014 08/06 A3014 RMK AO2 RAB00 P0001 T00780056=
202302182253 METAR KCLM 182253Z AUTO 00000KT 5SM HZ BKN011 OVC017 08/05 A3014 RMK AO2 RAB28E39 SLP207 P0000 T00780050=
202302182232 SPECI KCLM 182232Z AUTO 00000KT 5SM -RA OVC010 08/05 A3013 RMK AO2 RAB28 P0000 T00780050=
202302182153 METAR KCLM 182153Z AUTO 33005KT 10SM OVC007 08/05 A3013 RMK AO2 SLP205 T00780050=
202302182053 METAR KCLM 182053Z AUTO 31007KT 10SM BKN007 BKN011 08/05 A3011 RMK AO2 SLP199 60000 T00780050 53001=
202302182051 SPECI KCLM 182051Z AUTO 31006G16KT 10SM BKN007 BKN011 08/05 A3011 RMK AO2=
202302182044 SPECI KCLM 182044Z AUTO 31008G16KT 10SM BKN011 BKN017 08/04 A3011 RMK AO2 CIG 007V013 T00780044=
202302181953 METAR KCLM 181953Z AUTO VRB05KT 10SM FEW008 BKN044 OVC060 09/06 A3011 RMK AO2 RAB30E40 SLP197 P0000 T00940061=
202302181913 SPECI KCLM 181913Z AUTO 23003KT 4SM HZ FEW009 OVC036 07/04 A3011 RMK AO2 T00720044=
202302181904 SPECI KCLM 181904Z AUTO 00000KT 2 1/2SM HZ FEW009 OVC036 07/04 A3011 RMK AO2 T00720044=
202302181853 METAR KCLM 181853Z AUTO 00000KT 5SM HZ BKN038 OVC046 07/04 A3011 RMK AO2 SLP197 T00720039=
202302181753 METAR KCLM 181753Z AUTO 00000KT 10SM OVC039 07/03 A3010 RMK AO2 SLP194 T00670033 10067 20039 50008=
202302181653 METAR KCLM 181653Z AUTO 21003KT 10SM OVC050 06/03 A3010 RMK AO2 SLP194 T00610033=
202302181553 METAR KCLM 181553Z AUTO 00000KT 10SM OVC055 04/03 A3008 RMK AO2 SLP187 T00440028=
202302181453 METAR KCLM 181453Z AUTO 00000KT 10SM OVC055 04/02 A3007 RMK AO2 SLP186 T00390022 56018=
202302181353 METAR KCLM 181353Z AUTO 00000KT 10SM OVC050 04/03 A3011 RMK AO2 SLP197 T00440028=
202302181253 METAR KCLM 181253Z AUTO 00000KT 10SM SCT050 04/03 A3008 RMK AO2 SLP189 T00440028=
202302181153 METAR KCLM 181153Z AUTO 19003KT 10SM BKN050 OVC055 04/03 A3013 RMK AO2 SLP203 60000 T00440028 10050 20039 58014=
202302181053 METAR KCLM 181053Z AUTO 20004KT 10SM OVC050 04/03 A3015 RMK AO2 SLP210 T00440028=
202302180953 METAR KCLM 180953Z AUTO 00000KT 7SM FEW023 FEW028 OVC050 04/03 A3017 RMK AO2 RAB07E22 SLP217 P0000 T00440028=
202302180949 SPECI KCLM 180949Z AUTO 00000KT 7SM SCT025 OVC050 04/03 A3017 RMK AO2 RAB07E22 P0000=
202302180925 SPECI KCLM 180925Z AUTO 00000KT 6SM BR SCT024 BKN028 OVC050 04/03 A3017 RMK AO2 RAB07E22 P0000 T00440028=
202302180853 METAR KCLM 180853Z AUTO 21003KT 10SM FEW031 BKN050 OVC060 04/03 A3019 RMK AO2 SLP226 60000 T00440028 55008=
202302180753 METAR KCLM 180753Z AUTO 00000KT 10SM OVC060 05/03 A3018 RMK AO2 SLP221 T00500028 400890033=
202302180653 METAR KCLM 180653Z AUTO 22004KT 10SM OVC060 05/03 A3019 RMK AO2 RAB14E37 SLP225 P0000 T00500028=
202302180553 METAR KCLM 180553Z AUTO 00000KT 10SM OVC060 04/03 A3022 RMK AO2 RAE01 SLP235 P0000 60000 T00440028 10078 20039 55004=
202302180453 METAR KCLM 180453Z AUTO 00000KT 10SM -RA OVC060 04/02 A3021 RMK AO2 RAB44 SLP231 P0000 T00440022=
202302180353 METAR KCLM 180353Z AUTO 23004KT 10SM BKN065 OVC085 04/02 A3023 RMK AO2 SLP237 T00440022=
202302180253 METAR KCLM 180253Z AUTO 21003KT 10SM FEW028 OVC100 05/02 A3023 RMK AO2 SLP238 T00500017 55003=
202302180249 SPECI KCLM 180249Z AUTO 00000KT 10SM SCT028 OVC100 05/02 A3023 RMK AO2=
202302180153 METAR KCLM 180153Z AUTO 00000KT 10SM OVC023 07/02 A3022 RMK AO2 SLP234 T00670017=
202302180053 METAR KCLM 180053Z AUTO 32003KT 10SM BKN027 OVC100 07/01 A3024 RMK AO2 SLP241 T00720011=
202302180031 SPECI KCLM 180031Z AUTO 00000KT 10SM BKN028 07/02 A3024 RMK AO2 T00720017=
202302172353 METAR KCLM 172353Z AUTO 13003KT 10SM SCT030 07/02 A3025 RMK AO2 SLP245 T00720017 10089 20067 50000=
202302172253 METAR KCLM 172253Z AUTO 08003KT 10SM FEW023 09/02 A3024 RMK AO2 SLP242 T00890022=
202302172153 METAR KCLM 172153Z AUTO 29005KT 10SM FEW027 BKN036 08/02 A3027 RMK AO2 SLP251 T00780017=
202302172053 METAR KCLM 172053Z AUTO 32006KT 10SM FEW015 OVC033 08/02 A3025 RMK AO2 SLP246 T00780017 58003=
202302172044 SPECI KCLM 172044Z AUTO VRB03KT 10SM FEW014 SCT027 OVC035 08/03 A3026 RMK AO2 T00780033=
202302171953 METAR KCLM 171953Z AUTO 35004KT 10SM BKN016 OVC028 07/03 A3027 RMK AO2 SLP253 T00670028=
202302171936 SPECI KCLM 171936Z AUTO 01004KT 10SM BKN025 OVC032 07/03 A3026 RMK AO2 T00720033=
202302171853 METAR KCLM 171853Z AUTO 02004KT 10SM FEW017 SCT030 07/03 A3027 RMK AO2 SLP252 T00720033=
202302171753 METAR KCLM 171753Z AUTO 00000KT 10SM SCT038 07/03 A3026 RMK AO2 SLP249 60000 T00670028 10067 20033 50014=
202302171653 METAR KCLM 171653Z AUTO 24004KT 10SM FEW030 OVC037 05/02 A3026 RMK AO2 SLP250 T00500022=
202302171553 METAR KCLM 171553Z AUTO 23004KT 10SM FEW024 OVC034 04/02 A3024 RMK AO2 SLP242 T00390022=
202302171453 METAR KCLM 171453Z AUTO 24003KT 10SM FEW024 OVC033 04/02 A3022 RMK AO2 SLP235 60000 T00390017 51004=
202302171423 SPECI KCLM 171423Z AUTO 24004KT 10SM OVC031 04/02 A3022 RMK AO2 T00390017=
202302171353 METAR KCLM 171353Z AUTO 24005KT 10SM OVC027 04/02 A3022 RMK AO2 SLP235 T00390017=
202302171306 SPECI KCLM 171306Z AUTO 23004KT 10SM OVC029 03/02 A3021 RMK AO2 T00330017=
202302171253 METAR KCLM 171253Z AUTO 24007KT 10SM BKN031 OVC075 04/02 A3021 RMK AO2 RAE17 SLP232 P0000 T00390017=
202302171153 METAR KCLM 171153Z AUTO 22003KT 10SM -RA OVC036 04/02 A3021 RMK AO2 SLP230 P0005 60014 70014 T00390022 10044 20028 58003=
202302171053 METAR KCLM 171053Z AUTO 17004KT 9SM -RA OVC033 04/02 A3021 RMK AO2 SLP231 P0003 T00390022=
202302171024 SPECI KCLM 171024Z AUTO 18004KT 9SM -RA FEW017 OVC033 04/02 A3021 RMK AO2 P0002 T00390017=
202302170953 METAR KCLM 170953Z AUTO 20003KT 7SM -RA FEW012 BKN017 OVC024 04/02 A3021 RMK AO2 SLP233 P0005 T00390022=
202302170912 SPECI KCLM 170912Z AUTO 23004KT 5SM -RA BR BKN015 OVC023 04/02 A3022 RMK AO2 P0001 T00440022=
202302170853 METAR KCLM 170853Z AUTO 24003KT 7SM -RA BKN012 BKN021 OVC048 04/02 A3021 RMK AO2 RAB07 SLP233 P0001 60001 T00440017 53025=
202302170846 SPECI KCLM 170846Z AUTO 23004KT 6SM -RA FEW012 BKN021 OVC055 04/02 A3021 RMK AO2 RAB07 P0000 T00440017=
202302170753 METAR KCLM 170753Z AUTO 24005KT 10SM BKN065 OVC080 03/01 A3019 RMK AO2 SLP224 T00330006 400720022=
202302170653 METAR KCLM 170653Z AUTO 24004KT 10SM OVC100 03/01 A3015 RMK AO2 SLP213 T00330006=
202302170553 METAR KCLM 170553Z AUTO 00000KT 10SM FEW120 03/01 A3014 RMK AO2 SLP209 T00330006 10067 20033 56003=
202302170453 METAR KCLM 170453Z AUTO 24003KT 10SM CLR 04/01 A3014 RMK AO2 SLP209 T00390011=
202302170353 METAR KCLM 170353Z AUTO 00000KT 10SM OVC090 04/01 A3014 RMK AO2 SLP209 T00440011=
202302170253 METAR KCLM 170253Z AUTO 00000KT 10SM OVC080 06/02 A3015 RMK AO2 SLP211 T00560017 58002=
202302170153 METAR KCLM 170153Z AUTO 04003KT 10SM OVC070 06/02 A3015 RMK AO2 SLP213 T00560017=
202302170053 METAR KCLM 170053Z AUTO 11003KT 10SM OVC080 06/01 A3015 RMK AO2 SLP213 T00610011=
202302162353 METAR KCLM 162353Z AUTO 08004KT 10SM SCT065 OVC090 07/01 A3015 RMK AO2 SLP213 T00670011 10072 20056 58002=
202302162253 METAR KCLM 162253Z AUTO 00000KT 10SM BKN090 07/01 A3016 RMK AO2 SLP213 T00670011=
202302162153 METAR KCLM 162153Z AUTO VRB03KT 10SM OVC037 06/01 A3016 RMK AO2 SLP216 T00610011=
202302162053 METAR KCLM 162053Z AUTO 34003KT 10SM SCT090 BKN100 07/01 A3016 RMK AO2 SLP215 T00670011 58004=
202302161953 METAR KCLM 161953Z AUTO VRB04KT 10SM BKN075 OVC090 07/01 A3017 RMK AO2 SLP217 T00670006=
202302161853 METAR KCLM 161853Z AUTO 03004KT 10SM BKN085 07/01 A3018 RMK AO2 SLP220 T00720006=
202302161753 METAR KCLM 161753Z AUTO 24003KT 10SM OVC085 06/01 A3017 RMK AO2 SLP220 T00560006 10056 20028 50004=
202302161653 METAR KCLM 161653Z AUTO 24006KT 10SM OVC085 04/M01 A3018 RMK AO2 SLP222 T00391006=
202302161553 METAR KCLM 161553Z AUTO 25006KT 10SM SCT018 OVC080 03/M01 A3017 RMK AO2 SLP217 T00331011=
202302161453 METAR KCLM 161453Z AUTO 24006KT 10SM OVC090 03/M01 A3016 RMK AO2 SLP217 T00331006 58006=
202302161353 METAR KCLM 161353Z AUTO 24006KT 10SM SCT100 OVC120 03/M01 A3017 RMK AO2 SLP217 T00331011=
202302161253 METAR KCLM 161253Z AUTO 25005KT 10SM OVC090 04/M01 A3018 RMK AO2 SLP221 T00391011=
202302161153 METAR KCLM 161153Z AUTO 25005KT 10SM OVC110 03/M01 A3018 RMK AO2 SLP222 T00331011 10039 20017 56015=
202302161053 METAR KCLM 161053Z AUTO 24006KT 10SM BKN110 03/M01 A3019 RMK AO2 SLP226 T00331011=
202302160953 METAR KCLM 160953Z AUTO 25004KT 10SM SCT120 03/M01 A3021 RMK AO2 SLP231 T00331011=
202302160853 METAR KCLM 160853Z AUTO 00000KT 10SM BKN110 03/M01 A3023 RMK AO2 SLP237 T00281011 56016=
202302160753 METAR KCLM 160753Z AUTO 23005KT 10SM OVC100 03/M02 A3024 RMK AO2 SLP242 T00281017 400671022=
202302160653 METAR KCLM 160653Z AUTO 00000KT 10SM BKN110 02/M01 A3026 RMK AO2 SLP248 T00221011=
202302160553 METAR KCLM 160553Z AUTO 00000KT 10SM SCT120 02/M02 A3027 RMK AO2 SLP254 T00171017 10061 20017 58013=
202302160453 METAR KCLM 160453Z AUTO 00000KT 10SM BKN110 03/M01 A3029 RMK AO2 SLP260 T00281011=
202302160353 METAR KCLM 160353Z AUTO 24004KT 10SM OVC100 04/M01 A3030 RMK AO2 SLP262 T00391006=
202302160253 METAR KCLM 160253Z AUTO 17003KT 10SM OVC100 03/M01 A3031 RMK AO2 SLP267 T00331011 56009=
202302160153 METAR KCLM 160153Z AUTO 16003KT 10SM BKN100 BKN120 05/M01 A3032 RMK AO2 SLP270 T00501011=
202302160053 METAR KCLM 160053Z AUTO 11004KT 10SM OVC100 06/M02 A3033 RMK AO2 SLP272 T00611017=
202302152353 METAR KCLM 152353Z AUTO 12004KT 10SM OVC100 06/M01 A3034 RMK AO2 SLP276 T00611011 10067 20050 58005=
202302152253 METAR KCLM 152253Z AUTO 03003KT 10SM FEW090 06/M01 A3035 RMK AO2 SLP281 T00611006=
202302152153 METAR KCLM 152153Z AUTO VRB03KT 10SM FEW095 07/M01 A3036 RMK AO2 SLP282 T00671006=
202302152053 METAR KCLM 152053Z AUTO 00000KT 10SM BKN085 07/M01 A3036 RMK AO2 SLP281 T00671011 58005=
202302151953 METAR KCLM 151953Z AUTO VRB04KT 10SM BKN090 07/M01 A3037 RMK AO2 SLP289 T00671011=
202302151853 METAR KCLM 151853Z AUTO 36005KT 10SM OVC095 06/M01 A3038 RMK AO2 SLP289 T00611006=
202302151753 METAR KCLM 151753Z AUTO 25004KT 10SM FEW110 05/M03 A3037 RMK AO2 SLP287 T00501028 10050 21022 51008=
202302151653 METAR KCLM 151653Z AUTO 24007KT 10SM CLR 02/M03 A3036 RMK AO2 SLP285 T00221033=
202302151553 METAR KCLM 151553Z AUTO 24007KT 10SM CLR 01/M04 A3035 RMK AO2 SLP282 T00061039=
202302151453 METAR KCLM 151453Z AUTO 23006KT 10SM CLR 00/M04 A3034 RMK AO2 SLP279 T00001044 50001=
202302151353 METAR KCLM 151353Z AUTO 24007KT 10SM CLR 01/M04 A3036 RMK AO2 SLP283 T00061039=
202302151253 METAR KCLM 151253Z AUTO 24007KT 10SM CLR 02/M04 A3035 RMK AO2 SLP280 T00171044=
202302151153 METAR KCLM 151153Z AUTO 25009KT 10SM CLR 01/M04 A3034 RMK AO2 SLP277 T00111039 10022 21011 58004=
202302151053 METAR KCLM 151053Z AUTO 25007KT 10SM CLR 01/M04 A3034 RMK AO2 SLP278 T00061039=
202302150953 METAR KCLM 150953Z AUTO 23004KT 10SM CLR 01/M04 A3036 RMK AO2 SLP283 T00061039=
202302150853 METAR KCLM 150853Z AUTO 25008G15KT 10SM CLR 02/M03 A3035 RMK AO2 SLP281 T00221033 53009=
202302150753 METAR KCLM 150753Z AUTO 23006KT 10SM CLR 00/M04 A3032 RMK AO2 SLP270 T00001039 400671011=
202302150653 METAR KCLM 150653Z AUTO 23007KT 10SM CLR 01/M03 A3032 RMK AO2 SLP270 T00061033=
202302150553 METAR KCLM 150553Z AUTO 24007KT 10SM CLR 01/M03 A3033 RMK AO2 SLP273 T00111028 10067 21006 53010=
202302150453 METAR KCLM 150453Z AUTO 24006KT 10SM CLR 01/M03 A3031 RMK AO2 SLP268 T00111028=
202302150353 METAR KCLM 150353Z AUTO 24007KT 10SM CLR 01/M03 A3030 RMK AO2 SLP264 T00111028=
202302150253 METAR KCLM 150253Z AUTO 22004KT 10SM CLR 00/M04 A3030 RMK AO2 SLP263 T00001039 51011=
202302150153 METAR KCLM 150153Z AUTO 21004KT 10SM CLR 02/M03 A3029 RMK AO2 SLP261 T00171028=
202302150053 METAR KCLM 150053Z AUTO 00000KT 10SM CLR 06/M04 A3027 RMK AO2 SLP253 T00611044=
202302142353 METAR KCLM 142353Z AUTO 00000KT 10SM CLR 07/M04 A3026 RMK AO2 SLP250 T00671039 10067 20050 52012=
202302142253 METAR KCLM 142253Z AUTO 09004KT 10SM CLR 07/M03 A3025 RMK AO2 SLP247 T00671028=
202302142153 METAR KCLM 142153Z AUTO 03005KT 10SM CLR 06/M03 A3024 RMK AO2 SLP242 T00611028=
202302142053 METAR KCLM 142053Z AUTO 08008KT 10SM CLR 07/M03 A3023 RMK AO2 SLP238 T00671028 51022=
202302141953 METAR KCLM 141953Z AUTO 05003KT 10SM CLR 06/M03 A3022 RMK AO2 SLP236 T00611028=
202302141853 METAR KCLM 141853Z AUTO VRB06KT 10SM CLR 06/M03 A3020 RMK AO2 SLP228 T00561033=
202302141753 METAR KCLM 141753Z AUTO 07003KT 10SM CLR 05/M02 A3016 RMK AO2 SLP217 60000 T00501022 10050 21006 53038=
202302141653 METAR KCLM 141653Z AUTO 00000KT 10SM CLR 03/M02 A3013 RMK AO2 SLP203 T00281017=
202302141553 METAR KCLM 141553Z AUTO 24003KT 10SM FEW045 M01/M02 A3009 RMK AO2 SLP192 T10061022=
202302141453 METAR KCLM 141453Z AUTO 24006KT 10SM BKN040 OVC049 02/M02 A3005 RMK AO2 SLP178 60000 T00171017 51035=
202302141435 SPECI KCLM 141435Z AUTO 24005KT 10SM SCT024 OVC039 02/M01 A3004 RMK AO2 T00171011=
202302141404 SPECI KCLM 141404Z AUTO 18004KT 10SM OVC028 02/M01 A3003 RMK AO2 T00171006 $=
202302141353 METAR KCLM 141353Z AUTO 17005KT 10SM FEW016 SCT024 OVC030 02/M01 A3002 RMK AO2 UPB35E43SNB1256E35 SLP169 P0000 T00171006 $=
202302141316 SPECI KCLM 141316Z AUTO 12004KT 4SM -SN OVC026 02/M02 A3000 RMK AO2 SNB1256 P0000 T00171017 $=
202302141308 SPECI KCLM 141308Z AUTO 12004KT 2 1/2SM -SN OVC028 02/M02 A3000 RMK AO2 SNB1256 P0000 T00171022 $=
202302141253 METAR KCLM 141253Z AUTO 00000KT 10SM OVC026 02/M03 A2999 RMK AO2 SLP156 T00171033 $=
202302141219 SPECI KCLM 141219Z AUTO 23006KT 10SM BKN027 BKN041 OVC050 01/M03 A2996 RMK AO2 T00111033=
202302141153 METAR KCLM 141153Z AUTO 23005KT 10SM FEW025 SCT040 BKN049 01/M03 A2995 RMK AO2 SLP143 70009 T00061033 10044 20006 51022=
202302141053 METAR KCLM 141053Z AUTO 24008KT 10SM FEW039 02/M04 A2993 RMK AO2 SLP137 T00171039=
202302140953 METAR KCLM 140953Z AUTO 25008KT 10SM CLR 02/M04 A2991 RMK AO2 SLP128 T00221039=
202302140853 METAR KCLM 140853Z AUTO 28008KT 10SM CLR 03/M03 A2988 RMK AO2 SLP120 T00281033 51009=
202302140753 METAR KCLM 140753Z AUTO 24007KT 10SM CLR 02/M04 A2987 RMK AO2 SLP118 T00221044 400890022=
202302140653 METAR KCLM 140653Z AUTO 29009KT 10SM CLR 04/M04 A2986 RMK AO2 SLP114 T00391039=
202302140553 METAR KCLM 140553Z AUTO 27013KT 10SM FEW042 04/M04 A2985 RMK AO2 PK WND 26026/0509 SLP111 T00441039 10067 20044 50003=
202302140453 METAR KCLM 140453Z AUTO 27017G29KT 10SM FEW038 05/M04 A2986 RMK AO2 PK WND 24029/0448 SLP112 T00501039=
202302140353 METAR KCLM 140353Z AUTO 27014G22KT 10SM OVC044 06/M03 A2986 RMK AO2 PK WND 28028/0338 SLP114 T00561033=
202302140253 METAR KCLM 140253Z AUTO 27016G24KT 10SM BKN041 OVC060 06/M02 A2985 RMK AO2 PK WND 27029/0209 SLP108 T00561022 53006=
202302140153 METAR KCLM 140153Z AUTO 26014G25KT 10SM BKN100 06/M03 A2983 RMK AO2 PK WND 28031/0057 SLP102 T00561028=
202302140053 METAR KCLM 140053Z AUTO 26016G29KT 10SM SCT041 06/M02 A2982 RMK AO2 PK WND 29034/0012 SLP101 T00561017=
202302132353 METAR KCLM 132353Z AUTO 27020G35KT 10SM BKN035 OVC055 07/M01 A2983 RMK AO2 PK WND 30039/2308 RAB14E25 SLP103 P0000 60001 T00671011 10089 20061 53001=
202302132253 METAR KCLM 132253Z AUTO 28020G38KT 10SM BKN038 BKN045 BKN085 07/00 A2980 RMK AO2 PK WND 27038/2248 SLP093 T00670000=
202302132153 METAR KCLM 132153Z AUTO 27015G26KT 10SM FEW032 SCT043 OVC050 07/02 A2981 RMK AO2 PK WND 26035/2105 RAE36 SLP097 P0001 T00670017=
202302132053 METAR KCLM 132053Z AUTO 25013G24KT 7SM -RA FEW028 BKN033 OVC050 06/02 A2983 RMK AO2 PK WND 25033/2030 RAB32 SLP102 P0000 60000 T00610017 58007=
202302131953 METAR KCLM 131953Z AUTO 28013G20KT 10SM FEW075 SCT095 SCT110 08/01 A2983 RMK AO2 SLP104 T00830006=
202302131853 METAR KCLM 131853Z AUTO 28014G23KT 10SM CLR 08/01 A2984 RMK AO2 RAB10E19 SLP106 P0000 T00780006=
202302131753 METAR KCLM 131753Z AUTO 25009KT 10SM CLR 06/02 A2985 RMK AO2 RAE1659 SLP109 P0001 60008 T00610022 10061 20044 50001=
202302131653 METAR KCLM 131653Z AUTO 25012G20KT 9SM -RA BKN031 BKN050 OVC070 05/02 A2986 RMK AO2 RAB07 SLP113 P0001 T00500022=
202302131553 METAR KCLM 131553Z AUTO 27009KT 10SM SCT035 BKN070 OVC085 05/02 A2986 RMK AO2 RAB12E42 SLP114 P0000 T00500017=
202302131453 METAR KCLM 131453Z AUTO 27010KT 10SM FEW036 04/01 A2984 RMK AO2 RAB1354E16 SLP108 P0002 60006 T00440011 56015=
202302131414 SPECI KCLM 131414Z AUTO 25012KT 10SM -RA SCT026 BKN050 BKN085 05/02 A2985 RMK AO2 RAB1354 P0002 T00500017=
202302131406 SPECI KCLM 131406Z AUTO 28011G23KT 7SM -RA BKN022 BKN036 OVC060 05/02 A2985 RMK AO2 RAB1354 P0002 T00500017=
202302131353 METAR KCLM 131353Z AUTO 28010G16KT 10SM SCT030 BKN049 OVC090 04/02 A2986 RMK AO2 RAB1259E32 SLP113 P0003 T00440017=
202302131337 SPECI KCLM 131337Z AUTO 25007KT 10SM SCT022 BKN041 OVC060 04/02 A2986 RMK AO2 RAB1259E32 P0003 T00440017=
202302131313 SPECI KCLM 131313Z AUTO 27013KT 5SM RA BKN026 BKN036 OVC046 05/02 A2987 RMK AO2 RAB1259 P0003 T00500017=
202302131253 METAR KCLM 131253Z AUTO 25012G19KT 10SM BKN043 05/02 A2985 RMK AO2 RAE20 SLP110 P0001 T00500017=
202302131203 SPECI KCLM 131203Z AUTO 25012KT 10SM -RA FEW025 OVC032 05/02 A2988 RMK AO2 P0000 T00500022=
202302131153 METAR KCLM 131153Z AUTO 25010KT 8SM -RA FEW020 OVC025 05/02 A2989 RMK AO2 RAB23 SLP123 P0006 60006 70007 T00500022 10089 20050 50006=
202302131151 SPECI KCLM 131151Z AUTO 26010KT 6SM -RA FEW021 BKN025 OVC030 05/02 A2989 RMK AO2 RAB23 P0006=
202302131141 SPECI KCLM 131141Z AUTO 29010G20KT 2 1/2SM RA FEW014 OVC029 06/03 A2990 RMK AO2 RAB23 P0005 T00560028=
202302131053 METAR KCLM 131053Z AUTO 25007G25KT 210V290 10SM FEW070 OVC090 08/00 A2987 RMK AO2 SLP117 T00780000=
202302130953 METAR KCLM 130953Z AUTO 25008G15KT 10SM CLR 07/M01 A2987 RMK AO2 SLP117 T00671006=
202302130853 METAR KCLM 130853Z AUTO 28008KT 10SM FEW045 SCT055 07/00 A2989 RMK AO2 SLP124 60000 T00670000 58006=
202302130753 METAR KCLM 130753Z AUTO 30011KT 10SM CLR 07/01 A2991 RMK AO2 RAE02 SLP130 P0000 T00720011 400890011=
202302130653 METAR KCLM 130653Z AUTO 29014G25KT 10SM -RA BKN055 OVC065 08/04 A2991 RMK AO2 PK WND 30026/0642 RAE0557B26 SLP129 P0000 T00830044=
202302130553 METAR KCLM 130553Z AUTO 31005KT 10SM -RA OVC060 07/04 A2991 RMK AO2 RAB46 SLP130 P0000 60000 T00720039 10083 20044 58010=
202302130453 METAR KCLM 130453Z AUTO 10003KT 10SM BKN060 OVC075 06/03 A2991 RMK AO2 RAE12 SLP130 P0000 T00560028=
202302130353 METAR KCLM 130353Z AUTO 24003KT 10SM -RA FEW012 BKN065 OVC090 05/03 A2995 RMK AO2 RAB45 SLP144 P0000 T00500033=
202302130253 METAR KCLM 130253Z AUTO 12005KT 10SM FEW060 BKN080 04/03 A2994 RMK AO2 PRESFR SLP141 60000 T00440028 58041=
202302130221 SPECI KCLM 130221Z AUTO 00000KT 10SM SCT014 BKN060 06/03 A2998 RMK AO2 T00560033=
202302130153 METAR KCLM 130153Z AUTO 00000KT 10SM OVC014 06/03 A3000 RMK AO2 SLP160 T00610033=
202302130142 SPECI KCLM 130142Z AUTO 00000KT 10SM OVC014 06/03 A3000 RMK AO2 T00610033=
202302130053 METAR KCLM 130053Z AUTO 00000KT 10SM OVC016 07/03 A3005 RMK AO2 RAB10E19 SLP177 P0000 T00670033=
202302130034 SPECI KCLM 130034Z AUTO 33004KT 10SM BKN016 OVC050 07/03 A3006 RMK AO2 RAB10E19 P0000 T00670033=
202302122353 METAR KCLM 122353Z AUTO 08003KT 10SM BKN055 OVC070 07/04 A3006 RMK AO2 SLP182 60001 T00720039 10078 20067 56024=
202302122253 METAR KCLM 122253Z AUTO VRB04KT 10SM FEW020 BKN050 OVC065 07/04 A3009 RMK AO2 SLP192 T00720039=
202302122248 SPECI KCLM 122248Z AUTO 07003KT 10SM SCT020 OVC050 07/04 A3010 RMK AO2=
202302122219 SPECI KCLM 122219Z AUTO VRB04KT 10SM BKN020 OVC049 08/04 A3012 RMK AO2 T00780039=
202302122153 METAR KCLM 122153Z AUTO 07003KT 10SM OVC049 08/03 A3013 RMK AO2 SLP205 T00780033=
202302122053 METAR KCLM 122053Z AUTO 00000KT 10SM OVC050 08/03 A3017 RMK AO2 SLP218 60001 T00780028 58022=
202302121953 METAR KCLM 121953Z AUTO 32005KT 10SM OVC050 07/04 A3022 RMK AO2 RAE33 SLP236 P0001 T00720039=
202302121853 METAR KCLM 121853Z AUTO 29004KT 10SM -RA BKN055 OVC065 07/03 A3023 RMK AO2 RAB22 SLP239 P0000 T00720028=
202302121753 METAR KCLM 121753Z AUTO 00000KT 10SM OVC050 07/02 A3024 RMK AO2 SLP241 60000 T00670022 10067 20028 52002=
202302121653 METAR KCLM 121653Z AUTO 00000KT 10SM SCT060 BKN070 OVC110 06/03 A3023 RMK AO2 RAB36E47 SLP239 P0000 T00560028=
202302121553 METAR KCLM 121553Z AUTO 00000KT 10SM OVC049 05/02 A3023 RMK AO2 RAB19E32 SLP240 P0000 T00500017=
202302121453 METAR KCLM 121453Z AUTO 00000KT 10SM SCT047 OVC095 04/02 A3023 RMK AO2 SLP238 T00440017 58019=
202302121353 METAR KCLM 121353Z AUTO 22003KT 10SM SCT044 OVC100 04/01 A3026 RMK AO2 SLP248 T00390011=
202302121253 METAR KCLM 121253Z AUTO 23006KT 10SM SCT050 BKN085 OVC110 03/01 A3027 RMK AO2 SLP252 T00280006=
202302121153 METAR KCLM 121153Z AUTO 22003KT 10SM BKN055 OVC075 03/01 A3028 RMK AO2 SLP257 T00330011 10039 20011 58004=
202302121053 METAR KCLM 121053Z AUTO 00000KT 10SM FEW060 OVC080 03/01 A3030 RMK AO2 SLP261 T00280011=
202302120953 METAR KCLM 120953Z AUTO 21003KT 10SM OVC085 03/01 A3029 RMK AO2 SLP261 T00280006=
202302120853 METAR KCLM 120853Z AUTO 23005KT 10SM SCT070 OVC095 03/00 A3030 RMK AO2 SLP261 T00330000 58002=
202302120753 METAR KCLM 120753Z AUTO 23006KT 10SM OVC070 03/00 A3031 RMK AO2 SLP265 T00280000 400890011=
202302120653 METAR KCLM 120653Z AUTO 21003KT 10SM CLR 02/M01 A3030 RMK AO2 SLP262 T00171006=
202302120553 METAR KCLM 120553Z AUTO 00000KT 10SM FEW100 02/00 A3030 RMK AO2 SLP264 T00220000 10078 20022 53003=
202302120453 METAR KCLM 120453Z AUTO 23004KT 10SM CLR 04/01 A3029 RMK AO2 SLP260 T00390011=
202302120353 METAR KCLM 120353Z AUTO 24003KT 10SM SCT031 06/01 A3028 RMK AO2 SLP255 T00560011=
202302120335 SPECI KCLM 120335Z AUTO 23003KT 10SM OVC030 05/02 A3029 RMK AO2 T00500017=
202302120253 METAR KCLM 120253Z AUTO 00000KT 10SM OVC028 06/01 A3030 RMK AO2 SLP261 T00560011 56009=
202302120153 METAR KCLM 120153Z AUTO 20003KT 7SM OVC029 07/01 A3030 RMK AO2 SLP263 T00670011=
202302120053 METAR KCLM 120053Z AUTO 00000KT 10SM OVC029 07/01 A3030 RMK AO2 SLP263 T00720011=
202302112353 METAR KCLM 112353Z AUTO 30003KT 10SM OVC031 08/02 A3032 RMK AO2 SLP270 T00780017 10089 20061 55004=
202302112326 SPECI KCLM 112326Z AUTO 29004KT 10SM OVC030 07/01 A3032 RMK AO2 T00720011=
202302112311 SPECI KCLM 112311Z AUTO 28004KT 10SM OVC029 07/01 A3032 RMK AO2 T00720011=
202302112253 METAR KCLM 112253Z AUTO 32003KT 10SM OVC030 07/02 A3032 RMK AO2 SLP270 T00720017=
202302112153 METAR KCLM 112153Z AUTO 30003KT 10SM OVC031 08/01 A3032 RMK AO2 SLP268 T00780011=
202302112053 METAR KCLM 112053Z AUTO 32004KT 10SM OVC030 08/02 A3034 RMK AO2 SLP275 T00780017 56003=
202302112049 SPECI KCLM 112049Z AUTO 30005KT 10SM OVC030 08/02 A3034 RMK AO2=
202302111953 METAR KCLM 111953Z AUTO 30007KT 10SM BKN021 OVC025 07/02 A3033 RMK AO2 SLP274 T00720022=
202302111934 SPECI KCLM 111934Z AUTO 32006KT 10SM BKN026 BKN032 08/02 A3034 RMK AO2 T00830022=
202302111853 METAR KCLM 111853Z AUTO VRB04KT 10SM CLR 08/02 A3035 RMK AO2 SLP278 T00780022=
202302111753 METAR KCLM 111753Z AUTO 25009KT 10SM CLR 06/01 A3033 RMK AO2 SLP273 T00610006 10061 20033 53002=
202302111653 METAR KCLM 111653Z AUTO 26006KT 10SM CLR 04/00 A3032 RMK AO2 SLP270 T00440000=
202302111553 METAR KCLM 111553Z AUTO 26010KT 10SM CLR 03/M01 A3033 RMK AO2 SLP275 T00331006=
202302111453 METAR KCLM 111453Z AUTO 26007KT 10SM CLR 03/00 A3033 RMK AO2 SLP272 T00330000 53006=
202302111353 METAR KCLM 111353Z AUTO 25009KT 10SM CLR 03/00 A3031 RMK AO2 SLP266 T00330000=
202302111253 METAR KCLM 111253Z AUTO 26008KT 10SM CLR 03/00 A3031 RMK AO2 SLP266 T00330000=
202302111153 METAR KCLM 111153Z AUTO 25009KT 10SM CLR 04/01 A3031 RMK AO2 SLP266 70010 T00390006 10050 20033 56001=
202302111053 METAR KCLM 111053Z AUTO 25008KT 10SM CLR 04/01 A3031 RMK AO2 SLP267 T00390006=
202302110953 METAR KCLM 110953Z AUTO 25009KT 10SM CLR 04/01 A3030 RMK AO2 SLP263 T00390011=
202302110853 METAR KCLM 110853Z AUTO 25008KT 10SM CLR 04/02 A3031 RMK AO2 SLP267 T00440017 53009=
202302110753 METAR KCLM 110753Z AUTO 26009KT 10SM CLR 04/02 A3029 RMK AO2 SLP258 T00440017 401060022=
202302110653 METAR KCLM 110653Z AUTO 25008KT 10SM CLR 04/02 A3029 RMK AO2 SLP260 T00440022=
202302110553 METAR KCLM 110553Z AUTO 26011KT 10SM CLR 05/03 A3029 RMK AO2 SLP258 60000 T00500028 10078 20033 53011=
202302110453 METAR KCLM 110453Z AUTO 25008KT 10SM CLR 03/02 A3027 RMK AO2 SLP253 T00330017=
202302110353 METAR KCLM 110353Z AUTO 22004KT 10SM CLR 03/02 A3026 RMK AO2 SLP251 T00330017=
202302110253 METAR KCLM 110253Z AUTO 24003KT 10SM FEW050 05/03 A3025 RMK AO2 SLP247 60000 T00500033 53007=
202302110153 METAR KCLM 110153Z AUTO 26005KT 10SM FEW060 05/03 A3025 RMK AO2 SLP245 T00500033=
202302110145 SPECI KCLM 110145Z AUTO 29005KT 3SM BR FEW018 FEW060 06/04 A3024 RMK AO2 T00560039=
202302110136 SPECI KCLM 110136Z AUTO 00000KT 1 3/4SM BR FEW018 06/04 A3024 RMK AO2 T00560039=
202302110100 SPECI KCLM 110100Z AUTO 22004KT 10SM FEW021 FEW027 07/04 A3023 RMK AO2 T00670044=
202302110053 METAR KCLM 110053Z AUTO 25005KT 10SM FEW020 BKN027 BKN032 07/04 A3023 RMK AO2 RAE00 SLP239 P0000 T00670044=
202302110032 SPECI KCLM 110032Z AUTO 27007KT 10SM SCT020 BKN025 OVC037 08/05 A3023 RMK AO2 RAE00 P0000 T00780050=
202302102353 METAR KCLM 102353Z AUTO 22003KT 10SM -RA FEW030 OVC037 08/05 A3023 RMK AO2 SLP240 P0002 60010 T00780050 10106 20072 53008=
202302102253 METAR KCLM 102253Z AUTO 23004KT 3SM RA FEW012 SCT018 OVC033 08/05 A3022 RMK AO2 SLP236 P0005 T00780050=
202302102220 SPECI KCLM 102220Z AUTO 00000KT 7SM -RA BKN019 BKN025 OVC031 08/06 A3021 RMK AO2 P0001 T00830056=
202302102153 METAR KCLM 102153Z AUTO 01003KT 3SM -RA OVC032 08/05 A3021 RMK AO2 RAB37 SLP232 P0003 T00830050=
202302102053 METAR KCLM 102053Z AUTO VRB03KT 10SM BKN039 OVC050 10/04 A3021 RMK AO2 SLP232 T01000039 50010=
202302101953 METAR KCLM 101953Z AUTO VRB03KT 10SM BKN037 BKN070 09/04 A3021 RMK AO2 SLP232 T00940044=
202302101853 METAR KCLM 101853Z AUTO 23003KT 10SM BKN060 09/04 A3020 RMK AO2 SLP229 T00940044=
202302101753 METAR KCLM 101753Z AUTO 26006KT 10SM CLR 08/03 A3018 RMK AO2 SLP222 T00830033 10083 20022 51020=
202302101653 METAR KCLM 101653Z AUTO 18003KT 10SM CLR 04/02 A3017 RMK AO2 SLP219 T00440022=
202302101553 METAR KCLM 101553Z AUTO 11005KT 10SM CLR 03/01 A3015 RMK AO2 SLP211 T00330011=
202302101453 METAR KCLM 101453Z AUTO 12005KT 10SM CLR 03/01 A3012 RMK AO2 SLP202 T00280011 51009=
202302101353 METAR KCLM 101353Z AUTO 24007KT 10SM CLR 06/02 A3011 RMK AO2 SLP199 T00610017=
202302101253 METAR KCLM 101253Z AUTO 10SM CLR 03/02 A3011 RMK AO2 SLP197 T00330022=
202302101153 METAR KCLM 101153Z AUTO 21003KT 10SM FEW060 05/03 A3009 RMK AO2 SLP193 60004 70013 T00500033 10078 20039 50012=
202302101053 METAR KCLM 101053Z AUTO 12003KT 10SM FEW017 FEW041 BKN060 06/03 A3011 RMK AO2 RAB35E45 SLP196 P0000 T00560033=
202302100953 METAR KCLM 100953Z AUTO 14005KT 10SM SCT060 06/04 A3008 RMK AO2 SLP188 T00560039=
202302100853 METAR KCLM 100853Z AUTO 12006KT 10SM CLR 04/03 A3006 RMK AO2 SLP181 60004 T00440028 51034=
202302100753 METAR KCLM 100753Z AUTO 29008KT 10SM FEW050 FEW070 SCT095 07/04 A3002 RMK AO2 RAE47 SLP169 P0000 T00720044 400780044=
202302100653 METAR KCLM 100653Z AUTO 24005KT 8SM -RA BKN044 OVC070 07/06 A3001 RMK AO2 SLP163 P0004 T00720056=
202302100553 METAR KCLM 100553Z AUTO VRB03KT 8SM -RA OVC048 06/05 A2996 RMK AO2 SLP146 P0005 60008 T00610050 10072 20044 53003=
202302100453 METAR KCLM 100453Z AUTO 25004KT 6SM -RA BR OVC046 07/05 A2995 RMK AO2 RAB0357 SLP143 P0003 T00670050=
202302100353 METAR KCLM 100353Z AUTO 27009KT 10SM FEW007 SCT060 BKN110 06/04 A2993 RMK AO2 PRESRR SLP139 T00560039=
202302100341 SPECI KCLM 100341Z AUTO 00000KT 10SM SCT007 BKN110 06/04 A2991 RMK AO2 T00560039=
202302100253 METAR KCLM 100253Z AUTO 00000KT 10SM BKN008 BKN011 05/03 A2995 RMK AO2 CIG 008V011 SLP143 T00500028 58032=
202302100224 SPECI KCLM 100224Z AUTO 00000KT 10SM OVC011 06/03 A2998 RMK AO2 T00560033=
202302100153 METAR KCLM 100153Z AUTO 00000KT 10SM OVC009 06/03 A2998 RMK AO2 SLP155 T00560033=
202302100133 SPECI KCLM 100133Z AUTO 21003KT 10SM BKN009 OVC013 06/04 A2999 RMK AO2 CIG 008V012 T00610039=
202302100053 METAR KCLM 100053Z AUTO 22003KT 10SM OVC012 07/04 A3001 RMK AO2 SLP165 T00720044=
202302092353 METAR KCLM 092353Z AUTO 00000KT 10SM OVC012 07/04 A3004 RMK AO2 SLP175 T00720044 10078 20061 56036=
202302092253 METAR KCLM 092253Z AUTO VRB03KT 10SM OVC013 08/04 A3007 RMK AO2 SLP183 T00780044=
202302092153 METAR KCLM 092153Z AUTO VRB03KT 10SM OVC013 07/04 A3010 RMK AO2 SLP195 T00720039=
202302092130 SPECI KCLM 092130Z AUTO VRB04KT 10SM SCT007 OVC013 07/04 A3012 RMK AO2 T00720039=
202302092114 SPECI KCLM 092114Z AUTO 02005KT 10SM BKN008 OVC013 07/04 A3013 RMK AO2 CIG 007V012 T00720039=
202302092053 METAR KCLM 092053Z AUTO VRB03KT 10SM OVC010 07/04 A3015 RMK AO2 CIG 007V013 SLP211 T00670039 58020=
202302091953 METAR KCLM 091953Z AUTO VRB04KT 10SM OVC013 07/04 A3018 RMK AO2 SLP222 T00720039=
202302091853 METAR KCLM 091853Z AUTO 05005KT 10SM BKN011 OVC021 07/04 A3019 RMK AO2 SLP227 T00720039=
202302091753 METAR KCLM 091753Z AUTO 00000KT 3SM BR FEW009 BKN013 OVC060 06/04 A3021 RMK AO2 SLP231 60001 T00610039 10061 20044 58010=
202302091740 SPECI KCLM 091740Z AUTO 00000KT BKN010 06/04 A3021 RMK AO2 CIG 008V013 T00610039 $=
202302091712 SPECI KCLM 091712Z AUTO 00000KT 10SM SCT009 SCT016 OVC070 06/04 A3022 RMK AO2 T00560039 $=
202302091653 METAR KCLM 091653Z AUTO 00000KT 10SM BKN009 05/04 A3023 RMK AO2 SLP238 T00500039 $=
202302091644 SPECI KCLM 091644Z AUTO 00000KT 10SM SCT008 05/03 A3023 RMK AO2 T00500033 $=
202302091624 SPECI KCLM 091624Z AUTO 00000KT 10SM SCT023 05/03 A3023 RMK AO2 T00500033 $=
202302091553 METAR KCLM 091553Z AUTO 13004KT 10SM OVC022 05/03 A3024 RMK AO2 RAE03B12E22 SLP241 P0000 T00500033 $=
202302091503 SPECI KCLM 091503Z AUTO 23004KT 10SM BKN017 BKN025 OVC075 05/03 A3026 RMK AO2 RAE03 P0000 T00500033 $=
202302091453 METAR KCLM 091453Z AUTO 23003KT -RA SCT017 OVC080 05/03 A3026 RMK AO2 SLP247 P0000 60001 T00500028 56021 $=
202302091353 METAR KCLM 091353Z AUTO 00000KT -RA OVC080 04/03 A3027 RMK AO2 RAB27 SLP252 P0001 T00440033 $=
202302091253 METAR KCLM 091253Z AUTO 00000KT SCT090 OVC100 04/03 A3029 RMK AO2 RAE03 SLP260 P0000 T00440028 $=
202302091153 METAR KCLM 091153Z AUTO 23003KT -RA OVC075 05/03 A3032 RMK AO2 SLP269 P0000 60001 70001 T00500033 10061 20044 56019 $=
202302091053 METAR KCLM 091053Z AUTO 00000KT -RA OVC075 05/03 A3033 RMK AO2 SLP274 P0001 T00500033 $=
202302090953 METAR KCLM 090953Z AUTO 19003KT 10SM -RA OVC075 05/03 A3035 RMK AO2 RAB34 SLP281 P0000 T00500028 $=
202302090853 METAR KCLM 090853Z AUTO 22004KT 10SM OVC060 05/03 A3038 RMK AO2 SLP288 T00500028 58013 $=
202302090753 METAR KCLM 090753Z AUTO 22003KT 10SM BKN055 OVC090 06/02 A3039 RMK AO2 SLP295 T00560022 400940033 $=
202302090653 METAR KCLM 090653Z AUTO 25003KT BKN060 BKN075 OVC100 06/02 A3040 RMK AO2 SLP298 T00560022 $=
202302090553 METAR KCLM 090553Z AUTO 24005KT 10SM BKN075 OVC085 06/02 A3041 RMK AO2 SLP301 T00610022 10083 20056 58009 $=
202302090453 METAR KCLM 090453Z AUTO 24006KT 10SM OVC070 06/02 A3043 RMK AO2 SLP305 T00560022 $=
202302090353 METAR KCLM 090353Z AUTO 26005KT 10SM OVC065 06/02 A3044 RMK AO2 SLP309 T00610022 $=
202302090253 METAR KCLM 090253Z AUTO 00000KT 10SM OVC090 06/03 A3044 RMK AO2 SLP311 T00610028 56009 $=
202302090153 METAR KCLM 090153Z AUTO 00000KT OVC090 06/02 A3045 RMK AO2 SLP312 T00610017 $=
202302090053 METAR KCLM 090053Z AUTO 00000KT OVC100 07/02 A3045 RMK AO2 SLP315 T00720022 $=
202302082353 METAR KCLM 082353Z AUTO 00000KT 10SM CLR 08/00 A3047 RMK AO2 SLP319 T00830000 10094 20061 58012 $=
202302082253 METAR KCLM 082253Z AUTO 00000KT SCT110 08/01 A3048 RMK AO2 SLP325 T00830011 $=
202302082153 METAR KCLM 082153Z AUTO 04004KT 10SM CLR 08/02 A3049 RMK AO2 SLP327 T00830017=
202302082053 METAR KCLM 082053Z AUTO 02005KT 10SM CLR 08/02 A3050 RMK AO2 SLP332 T00830017 51006=
202302081953 METAR KCLM 081953Z AUTO 00000KT CLR 08/01 A3050 RMK AO2 SLP330 T00830006=
202302081853 METAR KCLM 081853Z AUTO 10005KT CLR 07/01 A3049 RMK AO2 SLP327 T00720006 $=
202302081753 METAR KCLM 081753Z AUTO 22003KT 10SM CLR 06/02 A3049 RMK AO2 SLP325 T00610017 10061 20033 51020 $=
202302081653 METAR KCLM 081653Z AUTO 25007KT CLR 04/01 A3047 RMK AO2 SLP321 T00440006 $=
202302081553 METAR KCLM 081553Z AUTO 23008KT 10SM CLR 04/00 A3044 RMK AO2 SLP312 T00440000=
202302081453 METAR KCLM 081453Z AUTO 28010KT 10SM CLR 03/01 A3043 RMK AO2 SLP306 T00330006 53015=
202302081353 METAR KCLM 081353Z AUTO 25010KT 10SM CLR 04/01 A3041 RMK AO2 SLP299 T00390006 $=
202302081253 METAR KCLM 081253Z AUTO 23008KT 10SM CLR 04/01 A3040 RMK AO2 SLP296 T00440006 $=
202302081153 METAR KCLM 081153Z AUTO 24009KT 10SM CLR 04/01 A3038 RMK AO2 RAE1058 SLP290 P0000 60002 70036 T00390011 10050 20033 51019=
202302081106 SPECI KCLM 081106Z AUTO 26009KT 10SM SCT021 04/01 A3036 RMK AO2 RAE1058 P0000 T00440011=
202302081053 METAR KCLM 081053Z AUTO 22006KT 10SM -RA BKN021 04/01 A3037 RMK AO2 RAB14 SLP285 P0002 T00440011=
202302081035 SPECI KCLM 081035Z AUTO 23011KT 7SM -RA OVC027 05/02 A3037 RMK AO2 RAB14 P0002 T00500017=
202302080953 METAR KCLM 080953Z AUTO 29010KT 10SM OVC060 04/01 A3034 RMK AO2 SLP277 T00440011=
202302080853 METAR KCLM 080853Z AUTO 23010KT 10SM SCT050 BKN075 OVC090 05/02 A3033 RMK AO2 SLP271 60000 T00500017 53022=
202302080753 METAR KCLM 080753Z AUTO 23010KT 10SM FEW042 05/01 A3030 RMK AO2 RAB35E44 SLP261 P0000 T00500011 401110039=
202302080653 METAR KCLM 080653Z AUTO 24009KT 10SM BKN060 BKN070 05/01 A3028 RMK AO2 SLP256 T00500011=
202302080553 METAR KCLM 080553Z AUTO 25009KT 10SM FEW055 04/02 A3026 RMK AO2 SLP249 60002 T00440017 10078 20044 53018=
202302080453 METAR KCLM 080453Z AUTO 25009KT 10SM FEW060 SCT075 OVC100 06/01 A3024 RMK AO2 SLP241 T00560011=
202302080353 METAR KCLM 080353Z AUTO 26007KT 10SM CLR 04/02 A3021 RMK AO2 PK WND 21026/0304 RAE15 SLP232 P0000 T00440017=
202302080253 METAR KCLM 080253Z AUTO 24014G19KT 6SM -RA OVC032 06/02 A3021 RMK AO2 PK WND 24030/0222 RAB18 SLP231 P0002 60002 T00610022 53024=
202302080153 METAR KCLM 080153Z AUTO 24010KT 10SM FEW039 06/02 A3016 RMK AO2 SLP214 T00610017=
202302080053 METAR KCLM 080053Z AUTO 24009KT 10SM SCT044 SCT055 07/03 A3015 RMK AO2 RAB00E12 SLP211 P0000 T00670028=
202302072353 METAR KCLM 072353Z AUTO 25006KT 10SM FEW036 BKN043 OVC080 08/04 A3014 RMK AO2 RAB13E52 SLP206 P0000 60012 T00780044 10100 20078 53020=
202302072253 METAR KCLM 072253Z AUTO 25009KT 10SM SCT032 SCT041 BKN055 08/04 A3011 RMK AO2 RAB11E45 SLP199 P0002 T00780039=
202302072153 METAR KCLM 072153Z AUTO 28011KT 10SM FEW075 09/04 A3009 RMK AO2 RAE02 SLP189 P0000 T00890039=
202302072053 METAR KCLM 072053Z AUTO 27017G36KT 10SM -RA FEW033 BKN070 BKN080 09/02 A3008 RMK AO2 PK WND 24036/2047 RAB1959E09B48 SLP185 P0000 60010 T00940022 51016=
202302072016 SPECI KCLM 072016Z AUTO 27006KT 10SM FEW019 BKN045 BKN055 09/06 A3007 RMK AO2 RAB1959E09 P0000 T00890061=
202302071953 METAR KCLM 071953Z AUTO 27007KT 10SM BKN022 BKN032 OVC040 09/06 A3007 RMK AO2 RAE52 SLP183 P0002 T00890056=
202302071853 METAR KCLM 071853Z AUTO 25008KT 6SM -RA OVC043 08/06 A3007 RMK AO2 SLP183 P0008 T00830056=
202302071753 METAR KCLM 071753Z AUTO 21007KT 140V250 9SM -RA OVC055 08/06 A3003 RMK AO2 SLP170 P0003 60020 T00830056 10083 20067 58004=
202302071653 METAR KCLM 071653Z AUTO 30004KT 3SM -RA BR OVC047 07/06 A3004 RMK AO2 SLP175 P0007 T00720056=
202302071553 METAR KCLM 071553Z AUTO 00000KT 4SM -RA BR OVC047 07/06 A3003 RMK AO2 SLP171 P0004 T00720056=
202302071453 METAR KCLM 071453Z AUTO 00000KT 6SM -RA BR OVC046 07/05 A3004 RMK AO2 SLP174 P0004 60006 T00670050 58018=
202302071353 METAR KCLM 071353Z AUTO 18004KT 9SM -RA OVC048 07/05 A3006 RMK AO2 SLP182 P0001 T00670050=
202302071253 METAR KCLM 071253Z AUTO 00000KT 10SM -RA OVC050 08/05 A3008 RMK AO2 RAB32 SLP186 P0001 T00780050=
202302071153 METAR KCLM 071153Z AUTO 18004KT 10SM FEW120 08/04 A3009 RMK AO2 SLP191 60000 T00830044 10111 20056 58011=
202302071053 METAR KCLM 071053Z AUTO 12005KT 10SM FEW085 OVC110 07/05 A3011 RMK AO2 RAB28E37 SLP196 P0000 T00720050=
202302070953 METAR KCLM 070953Z AUTO VRB03KT 10SM BKN095 OVC120 08/05 A3012 RMK AO2 SLP201 T00830050=
202302070853 METAR KCLM 070853Z AUTO 19007KT 150V240 10SM CLR 08/03 A3013 RMK AO2 SLP202 T00830033 56027=
202302070753 METAR KCLM 070753Z AUTO VRB03KT 10SM FEW075 SCT090 BKN110 07/04 A3014 RMK AO2 SLP208 T00720039 401060050=
202302070653 METAR KCLM 070653Z AUTO 18006KT 10SM FEW050 BKN080 OVC090 07/04 A3017 RMK AO2 SLP217 T00670039=
202302070553 METAR KCLM 070553Z AUTO 00000KT 10SM SCT055 BKN070 OVC085 06/03 A3021 RMK AO2 SLP231 T00610033 10094 20056 58007=
202302070453 METAR KCLM 070453Z AUTO 00000KT 10SM BKN060 OVC110 06/03 A3022 RMK AO2 SLP234 T00560028=
202302070353 METAR KCLM 070353Z AUTO 00000KT 10SM BKN060 BKN090 OVC110 06/03 A3022 RMK AO2 SLP236 T00610033=
202302070253 METAR KCLM 070253Z AUTO 13003KT 10SM SCT065 BKN120 06/03 A3023 RMK AO2 SLP238 T00560028 56019=
202302070153 METAR KCLM 070153Z AUTO 00000KT 10SM OVC060 08/04 A3025 RMK AO2 SLP245 T00830039=
202302070053 METAR KCLM 070053Z AUTO 10009KT 10SM BKN060 09/04 A3026 RMK AO2 SLP247 T00890044=
202302062353 METAR KCLM 062353Z AUTO 12008KT 10SM FEW046 OVC065 09/04 A3028 RMK AO2 SLP256 60000 T00940044 10106 20094 58013=
202302062253 METAR KCLM 062253Z AUTO 10003KT 10SM BKN042 OVC055 09/04 A3031 RMK AO2 RAB18E32 SLP265 P0000 T00940044=
202302062153 METAR KCLM 062153Z AUTO 03003KT 10SM FEW046 OVC060 10/04 A3030 RMK AO2 SLP263 T01000044=
202302062053 METAR KCLM 062053Z AUTO 00000KT 10SM FEW047 BKN055 OVC070 11/04 A3032 RMK AO2 SLP269 T01060039 58003=
202302061953 METAR KCLM 061953Z AUTO 36003KT 10SM FEW060 BKN120 10/04 A3034 RMK AO2 SLP276 T01000044=
202302061853 METAR KCLM 061853Z AUTO 09004KT 10SM BKN055 10/04 A3034 RMK AO2 SLP276 T01000039=
202302061753 METAR KCLM 061753Z AUTO 10003KT 10SM FEW100 09/04 A3033 RMK AO2 SLP271 60000 T00940044 10094 20050 50000=
202302061653 METAR KCLM 061653Z AUTO 00000KT 10SM BKN055 07/03 A3033 RMK AO2 SLP274 T00670033=
202302061553 METAR KCLM 061553Z AUTO 13003KT 10SM FEW046 OVC060 05/03 A3033 RMK AO2 SLP274 T00500028=
202302061453 METAR KCLM 061453Z AUTO 22003KT 10SM OVC055 05/03 A3033 RMK AO2 RAB00E25 SLP273 P0000 60000 T00500028 51007=
202302061353 METAR KCLM 061353Z AUTO 00000KT 10SM FEW055 OVC070 06/02 A3033 RMK AO2 SLP272 T00610022=
202302061253 METAR KCLM 061253Z AUTO 17005KT 10SM OVC060 07/03 A3031 RMK AO2 SLP267 T00720028=
202302061153 METAR KCLM 061153Z AUTO 00000KT 10SM OVC065 08/02 A3031 RMK AO2 SLP265 70001 T00780022 10083 20072 51013=
202302061053 METAR KCLM 061053Z AUTO 11007KT 10SM OVC055 08/02 A3031 RMK AO2 SLP264 T00780017=
202302060953 METAR KCLM 060953Z AUTO 00000KT 10SM OVC049 08/01 A3029 RMK AO2 SLP258 T00830011=
202302060853 METAR KCLM 060853Z AUTO 34004KT 10SM OVC080 08/01 A3027 RMK AO2 SLP252 T00780011 53025=
202302060753 METAR KCLM 060753Z AUTO 31005KT 10SM OVC090 08/01 A3024 RMK AO2 SLP242 T00780006 401060056=
202302060653 METAR KCLM 060653Z AUTO 28010KT 10SM OVC100 08/02 A3022 RMK AO2 SLP235 T00780022=
202302060553 METAR KCLM 060553Z AUTO 29010KT 10SM CLR 08/02 A3020 RMK AO2 SLP227 T00780022 10089 20072 53035=
202302060453 METAR KCLM 060453Z AUTO 29011KT 10SM BKN040 08/03 A3015 RMK AO2 SLP213 T00830028=
202302060353 METAR KCLM 060353Z AUTO 29010KT 10SM BKN037 BKN044 08/03 A3013 RMK AO2 SLP203 T00830033=
202302060253 METAR KCLM 060253Z AUTO 29010G16KT 10SM CLR 08/04 A3009 RMK AO2 SLP192 T00780039 53041=
202302060153 METAR KCLM 060153Z AUTO 29008KT 10SM CLR 08/04 A3005 RMK AO2 SLP178 T00830039=
202302060053 METAR KCLM 060053Z AUTO 31006KT 10SM CLR 08/06 A3000 RMK AO2 SLP162 T00830061=
202302060031 SPECI KCLM 060031Z AUTO 30008KT 10SM SCT006 BKN060 09/07 A2999 RMK AO2 T00890067=
202302052353 METAR KCLM 052353Z AUTO 30016G23KT 10SM OVC006 08/06 A2997 RMK AO2 SLP151 60001 T00830061 10106 20078 53030=
202302052340 SPECI KCLM 052340Z AUTO 30012G25KT 10SM BKN007 BKN011 OVC048 09/06 A2996 RMK AO2 T00890061=
202302052326 SPECI KCLM 052326Z AUTO 30014G21KT 10SM SCT007 BKN047 09/06 A2995 RMK AO2 PRESRR T00940061=
202302052253 METAR KCLM 052253Z AUTO 31007KT 10SM SCT047 BKN085 10/06 A2992 RMK AO2 SLP133 T01000061=
202302052153 METAR KCLM 052153Z AUTO 30009KT 10SM FEW050 SCT060 OVC090 10/06 A2990 RMK AO2 SLP124 T01000061=
202302052053 METAR KCLM 052053Z AUTO VRB05KT 10SM OVC031 10/07 A2988 RMK AO2 RAE1956 SLP119 P0000 60001 T01000067 51022=
202302051953 METAR KCLM 051953Z AUTO 25006KT 10SM -RA BKN065 OVC090 09/06 A2987 RMK AO2 RAB1854 SLP115 P0000 T00940061=
202302051853 METAR KCLM 051853Z AUTO 26007KT 10SM OVC043 08/05 A2985 RMK AO2 RAE50 SLP109 P0001 T00830050=
202302051753 METAR KCLM 051753Z AUTO 24007KT 10SM -RA BKN048 OVC055 08/04 A2982 RMK AO2 RAB03E18B40 SLP098 P0000 60000 T00780044 10078 20056 53018=
202302051653 METAR KCLM 051653Z AUTO 25004KT 10SM FEW015 BKN065 OVC075 07/05 A2979 RMK AO2 RAE38 SLP088 P0000 T00670050=
202302051650 SPECI KCLM 051650Z AUTO 26004KT 10SM SCT015 SCT055 OVC070 07/05 A2979 RMK AO2 RAE38 P0000=
202302051553 METAR KCLM 051553Z AUTO 00000KT 10SM -RA OVC015 07/05 A2976 RMK AO2 RAB51 SLP080 P0000 T00670050=
202302051537 SPECI KCLM 051537Z AUTO 00000KT 10SM FEW008 OVC015 07/05 A2975 RMK AO2 T00720050=
202302051453 METAR KCLM 051453Z AUTO 00000KT 10SM SCT007 OVC012 07/05 A2973 RMK AO2 SLP071 T00720050 51012=
202302051449 SPECI KCLM 051449Z AUTO 00000KT 10SM SCT007 OVC012 07/05 A2973 RMK AO2=
202302051353 METAR KCLM 051353Z AUTO 00000KT 10SM BKN009 OVC015 06/04 A2971 RMK AO2 CIG 007V011 SLP064 T00610044=
202302051337 SPECI KCLM 051337Z AUTO 00000KT 10SM BKN009 OVC017 06/04 A2971 RMK AO2 CIG 008V013 T00610039=
202302051313 SPECI KCLM 051313Z AUTO 00000KT 10SM BKN011 OVC075 06/03 A2971 RMK AO2 T00560033=
202302051253 METAR KCLM 051253Z AUTO 00000KT 10SM OVC075 06/03 A2970 RMK AO2 SLP059 T00610033=
202302051153 METAR KCLM 051153Z AUTO 30003KT 10SM OVC080 07/04 A2969 RMK AO2 SLP053 60000 T00720044 10078 20061 53005=
202302051053 METAR KCLM 051053Z AUTO 00000KT 10SM SCT065 OVC100 07/04 A2967 RMK AO2 SLP049 T00720044=
202302050953 METAR KCLM 050953Z AUTO 00000KT 10SM OVC065 07/04 A2967 RMK AO2 RAB02E12 SLP048 P0000 T00670044=
202302050853 METAR KCLM 050853Z AUTO 00000KT 10SM OVC070 07/04 A2967 RMK AO2 SLP048 T00670044 56027=
202302050753 METAR KCLM 050753Z AUTO 00000KT 10SM OVC110 07/04 A2970 RMK AO2 SLP056 T00720044 401060050=
202302050653 METAR KCLM 050653Z AUTO 12003KT 10SM OVC100 08/05 A2973 RMK AO2 SLP066 T00780050=
202302050553 METAR KCLM 050553Z AUTO 16005KT 10SM SCT075 BKN090 OVC110 08/05 A2975 RMK AO2 SLP076 T00780050 10100 20067 58016=
202302050453 METAR KCLM 050453Z AUTO 00000KT 10SM SCT070 OVC090 08/05 A2978 RMK AO2 SLP085 T00780050=
202302050353 METAR KCLM 050353Z AUTO 27005KT 10SM SCT090 OVC110 08/06 A2979 RMK AO2 SLP088 T00780056=
202302050253 METAR KCLM 050253Z AUTO 26006KT 10SM OVC110 07/05 A2980 RMK AO2 SLP092 T00720050 56016=
202302050153 METAR KCLM 050153Z AUTO 00000KT 10SM OVC120 08/04 A2981 RMK AO2 SLP096 T00780044=
202302050053 METAR KCLM 050053Z AUTO 00000KT 10SM BKN100 09/05 A2983 RMK AO2 SLP102 T00890050=
202302042353 METAR KCLM 042353Z AUTO 00000KT 10SM SCT100 10/05 A2984 RMK AO2 SLP107 T01000050 10106 20072 56019=
202302042253 METAR KCLM 042253Z AUTO 00000KT 10SM OVC110 10/05 A2986 RMK AO2 SLP113 T01000050=
202302042153 METAR KCLM 042153Z AUTO 35004KT 10SM OVC110 08/06 A2988 RMK AO2 SLP120 T00830056=
202302042053 METAR KCLM 042053Z AUTO 32004KT 10SM OVC110 09/06 A2990 RMK AO2 SLP126 T00940056 58019=
202302041953 METAR KCLM 041953Z AUTO 00000KT 10SM FEW007 SCT070 BKN100 09/06 A2993 RMK AO2 SLP135 T00940061=
202302041853 METAR KCLM 041853Z AUTO 00000KT 10SM FEW005 08/06 A2995 RMK AO2 SLP142 T00830061=
202302041845 SPECI KCLM 041845Z AUTO 00000KT 10SM SCT005 08/06 A2995 RMK AO2 T00830061=
202302041811 SPECI KCLM 041811Z AUTO 13003KT 10SM BKN005 BKN070 07/05 A2995 RMK AO2 T00720050=
202302041800 SPECI KCLM 041800Z AUTO 13003KT 10SM SCT005 BKN070 07/05 A2995 RMK AO2 T00720050=
202302041753 METAR KCLM 041753Z AUTO 00000KT 10SM BKN004 BKN070 07/05 A2996 RMK AO2 SLP146 T00720050 10078 20050 55001=
202302041703 SPECI KCLM 041703Z AUTO VRB03KT 10SM BKN003 OVC065 08/06 A2995 RMK AO2 T00780056=
202302041653 METAR KCLM 041653Z AUTO 00000KT 10SM SCT003 OVC065 07/05 A2996 RMK AO2 SLP144 T00720050=
202302041553 METAR KCLM 041553Z AUTO 23003KT 10SM BKN065 05/03 A2995 RMK AO2 SLP144 T00500033=
202302041453 METAR KCLM 041453Z AUTO 20003KT 10SM SCT070 BKN090 OVC100 05/03 A2996 RMK AO2 SLP148 T00500033 58009=
202302041353 METAR KCLM 041353Z AUTO 00000KT 10SM SCT065 BKN090 06/04 A2997 RMK AO2 SLP152 T00610039=
202302041253 METAR KCLM 041253Z AUTO 00000KT 10SM FEW085 SCT110 06/04 A2998 RMK AO2 SLP155 T00610039=
202302041153 METAR KCLM 041153Z AUTO 26008KT 10SM BKN070 07/04 A2999 RMK AO2 SLP156 60001 70007 T00720039 10089 20067 55001=
202302041053 METAR KCLM 041053Z AUTO 32005KT 10SM BKN060 07/04 A2999 RMK AO2 SLP155 T00720039=
202302040953 METAR KCLM 040953Z AUTO 26007KT 10SM OVC060 07/04 A2999 RMK AO2 RAE46 SLP156 P0000 T00720044=
202302040853 METAR KCLM 040853Z AUTO 23003KT 10SM -RA OVC050 08/05 A2999 RMK AO2 SLP157 P0000 60001 T00780050 50012=
202302040753 METAR KCLM 040753Z AUTO 11007KT 10SM -RA OVC049 08/05 A3000 RMK AO2 RAB01 SLP159 P0001 T00830050 401220011=
202302040653 METAR KCLM 040653Z AUTO 13011KT 10SM BKN060 BKN070 08/05 A2998 RMK AO2 SLP152 T00830050=
202302040553 METAR KCLM 040553Z AUTO 12008KT 10SM FEW045 SCT055 BKN120 08/04 A2996 RMK AO2 SLP146 60004 T00780039 10106 20067 53034=
202302040453 METAR KCLM 040453Z AUTO 24012G24KT 10SM CLR 09/02 A2992 RMK AO2 RAE18 SLP133 P0000 T00940022=
202302040353 METAR KCLM 040353Z AUTO 24010KT 10SM -RA OVC040 08/04 A2989 RMK AO2 SLP122 P0001 T00830044=
202302040253 METAR KCLM 040253Z AUTO 27008KT 10SM -RA OVC055 08/04 A2986 RMK AO2 SLP112 P0001 60003 T00780044 51034=
202302040153 METAR KCLM 040153Z AUTO 22003KT 10SM -RA BKN055 OVC065 08/05 A2982 RMK AO2 SLP099 P0002 T00780050=
202302040053 METAR KCLM 040053Z AUTO 20003KT 10SM -RA SCT043 OVC055 09/06 A2980 RMK AO2 RAB37 SLP093 P0000 T00890061=
202302032353 METAR KCLM 032353Z AUTO 00000KT 10SM BKN065 11/06 A2976 RMK AO2 RAE24 SLP078 P0001 60002 T01060056 10122 20078 53023=
202302032253 METAR KCLM 032253Z AUTO 25008KT 10SM -RA OVC055 10/06 A2972 RMK AO2 RAB2159 SLP064 P0001 T01000056=
202302032153 METAR KCLM 032153Z AUTO 00000KT 10SM BKN050 OVC065 11/04 A2968 RMK AO2 RAB37E53 SLP052 P0000 T01060039=
202302032053 METAR KCLM 032053Z AUTO VRB03KT 10SM BKN050 OVC065 10/03 A2969 RMK AO2 SLP054 T01000028 58031=
202302031953 METAR KCLM 031953Z AUTO 05007KT 10SM FEW050 OVC070 08/03 A2971 RMK AO2 SLP061 T00830028=
202302031853 METAR KCLM 031853Z AUTO 08007KT 10SM OVC060 08/02 A2976 RMK AO2 SLP079 T00780022=
202302031753 METAR KCLM 031753Z AUTO 00000KT 10SM BKN095 08/02 A2978 RMK AO2 SLP086 T00780017 10078 20017 57011=
202302031653 METAR KCLM 031653Z AUTO 00000KT 10SM FEW120 03/01 A2979 RMK AO2 SLP089 T00330011=
202302031553 METAR KCLM 031553Z AUTO 00000KT 10SM BKN120 03/01 A2980 RMK AO2 SLP095 T00280006=
202302031453 METAR KCLM 031453Z AUTO 00000KT 10SM SCT100 03/01 A2981 RMK AO2 SLP098 T00280006 58026=
202302031353 METAR KCLM 031353Z AUTO 18003KT 10SM OVC100 03/01 A2985 RMK AO2 SLP109 T00330011=
202302031253 METAR KCLM 031253Z AUTO 22003KT 10SM CLR 03/01 A2986 RMK AO2 SLP114 T00280011=
202302031153 METAR KCLM 031153Z AUTO 00000KT 10SM CLR 02/01 A2989 RMK AO2 SLP123 T00220006 10039 20011 58023=
202302031053 METAR KCLM 031053Z AUTO 00000KT 10SM OVC110 03/02 A2993 RMK AO2 SLP136 T00330017=
202302030953 METAR KCLM 030953Z AUTO VRB03KT 10SM FEW110 02/00 A2994 RMK AO2 SLP142 T00170000=
202302030853 METAR KCLM 030853Z AUTO 24004KT 10SM CLR 03/01 A2996 RMK AO2 SLP146 T00280006 58030=
202302030753 METAR KCLM 030753Z AUTO 00000KT 10SM CLR 02/01 A2999 RMK AO2 SLP157 T00220006 400891006=
202302030653 METAR KCLM 030653Z AUTO 00000KT 10SM CLR 02/00 A3001 RMK AO2 SLP166 T00170000=
202302030553 METAR KCLM 030553Z AUTO 22004KT 10SM FEW100 02/01 A3005 RMK AO2 SLP177 T00220006 10067 20017 50001=
202302030453 METAR KCLM 030453Z AUTO 00000KT 10SM OVC070 04/02 A3006 RMK AO2 SLP181 T00390017=
202302030353 METAR KCLM 030353Z AUTO 22004KT 10SM FEW075 SCT090 03/01 A3004 RMK AO2 SLP176 T00280011=
202302030253 METAR KCLM 030253Z AUTO 15004KT 10SM CLR 02/01 A3004 RMK AO2 SLP177 T00220006 57016=
202302030153 METAR KCLM 030153Z AUTO 00000KT 10SM CLR 04/01 A3005 RMK AO2 SLP180 T00390011=
202302030053 METAR KCLM 030053Z AUTO 00000KT 10SM CLR 06/02 A3008 RMK AO2 SLP189 T00610022=
202302022353 METAR KCLM 022353Z AUTO 00000KT 10SM CLR 07/02 A3009 RMK AO2 SLP192 T00670022 10089 20039 56009=
202302022253 METAR KCLM 022253Z AUTO VRB04KT 10SM CLR 07/02 A3010 RMK AO2 SLP194 T00720022=
202302022153 METAR KCLM 022153Z AUTO VRB04KT 10SM CLR 08/02 A3010 RMK AO2 SLP196 T00780017=
202302022053 METAR KCLM 022053Z AUTO 06004KT 10SM CLR 08/02 A3012 RMK AO2 SLP201 T00830022 58006=
202302021953 METAR KCLM 021953Z AUTO 09006KT 10SM CLR 08/02 A3013 RMK AO2 SLP205 T00780017=
202302021853 METAR KCLM 021853Z AUTO VRB03KT 10SM CLR 07/02 A3014 RMK AO2 SLP209 T00720017=
202302021753 METAR KCLM 021753Z AUTO 00000KT 10SM CLR 04/02 A3014 RMK AO2 SLP209 T00390017 10039 20006 51010=
202302021653 METAR KCLM 021653Z AUTO 00000KT 10SM CLR 02/M01 A3013 RMK AO2 SLP206 T00171006=
202302021602 SPECI KCLM 021602Z AUTO 00000KT 10SM SCT016 01/M01 A3012 RMK AO2 T00061011=
202302021553 METAR KCLM 021553Z AUTO 00000KT 10SM BKN017 01/M01 A3012 RMK AO2 SLP202 T00061011=
202302021531 SPECI KCLM 021531Z AUTO 21004KT 10SM BKN016 01/M01 A3011 RMK AO2 T00111011=
202302021453 METAR KCLM 021453Z AUTO 23004KT 10SM CLR 01/M01 A3011 RMK AO2 SLP199 T00061011 55006=
202302021416 SPECI KCLM 021416Z AUTO 00000KT 10SM SCT016 01/M01 A3010 RMK AO2 T00061011=
202302021353 METAR KCLM 021353Z AUTO 15003KT 10SM OVC016 01/M01 A3011 RMK AO2 SLP198 T00111006=
202302021253 METAR KCLM 021253Z AUTO 00000KT 10SM OVC017 02/M01 A3011 RMK AO2 SLP199 T00221006=
202302021211 SPECI KCLM 021211Z AUTO 23004KT 10SM OVC015 02/00 A3012 RMK AO2 T00220000=
202302021153 METAR KCLM 021153Z AUTO 26004KT 10SM OVC014 03/00 A3013 RMK AO2 SLP204 T00280000 10028 21006 53003=
202302021053 METAR KCLM 021053Z AUTO 22005KT 10SM OVC012 02/00 A3012 RMK AO2 SLP201 T00220000=
202302020953 METAR KCLM 020953Z AUTO 22004KT 10SM OVC013 01/M01 A3012 RMK AO2 SLP200 T00061011=
202302020943 SPECI KCLM 020943Z AUTO 24004KT 10SM BKN015 01/M01 A3012 RMK AO2 T00061011=
202302020853 METAR KCLM 020853Z AUTO 18003KT 10SM CLR 00/M02 A3012 RMK AO2 SLP201 T00001017 58005=
202302020753 METAR KCLM 020753Z AUTO 24006KT 10SM CLR 01/M01 A3013 RMK AO2 SLP206 T00061011 400721006=
202302020653 METAR KCLM 020653Z AUTO 00000KT 10SM CLR 01/M01 A3014 RMK AO2 SLP207 T00111011=
202302020553 METAR KCLM 020553Z AUTO 00000KT 10SM CLR 01/M01 A3013 RMK AO2 SLP207 T00111011 10067 20006 55002=
202302020453 METAR KCLM 020453Z AUTO 22004KT 10SM CLR 01/M01 A3013 RMK AO2 SLP206 T00061011=
202302020353 METAR KCLM 020353Z AUTO 00000KT 10SM CLR 01/M01 A3013 RMK AO2 SLP206 T00111011=
202302020253 METAR KCLM 020253Z AUTO 00000KT 10SM CLR 02/M01 A3014 RMK AO2 SLP209 T00171006 56002=
202302020153 METAR KCLM 020153Z AUTO 00000KT 10SM CLR 03/00 A3014 RMK AO2 SLP208 T00330000=
202302020053 METAR KCLM 020053Z AUTO 23003KT 10SM CLR 05/00 A3014 RMK AO2 SLP208 T00500000=
202302012353 METAR KCLM 012353Z AUTO 33004KT 10SM CLR 07/01 A3014 RMK AO2 SLP209 T00670006 10072 20039 53003=
202302012253 METAR KCLM 012253Z AUTO 00000KT 10SM CLR 06/01 A3014 RMK AO2 SLP207 T00610006=
202302012153 METAR KCLM 012153Z AUTO 07004KT 10SM CLR 07/01 A3013 RMK AO2 SLP205 T00670006=
202302012053 METAR KCLM 012053Z AUTO VRB03KT 10SM CLR 07/01 A3013 RMK AO2 SLP206 T00720011 58001=
202302011953 METAR KCLM 011953Z AUTO 35004KT 10SM CLR 06/01 A3015 RMK AO2 SLP212 T00610011=
202302011853 METAR KCLM 011853Z AUTO VRB03KT 10SM CLR 07/00 A3015 RMK AO2 SLP212 T00670000=
202302011753 METAR KCLM 011753Z AUTO 00000KT 10SM CLR 04/00 A3014 RMK AO2 SLP207 T00390000 10039 21006 53002=
202302011653 METAR KCLM 011653Z AUTO 21003KT 10SM CLR 01/M01 A3012 RMK AO2 SLP203 T00111011=
202302011553 METAR KCLM 011553Z AUTO 00000KT 10SM CLR 00/M02 A3012 RMK AO2 SLP204 T00001022=
202302011453 METAR KCLM 011453Z AUTO 23004KT 10SM CLR 01/M02 A3013 RMK AO2 SLP206 T00061017 58002=
202302011353 METAR KCLM 011353Z AUTO 22003KT 10SM CLR 01/M02 A3013 RMK AO2 SLP205 T00111017 $=
202302011253 METAR KCLM 011253Z AUTO 22004KT 10SM CLR 02/M01 A3014 RMK AO2 SLP210 T00171011 $=
202302011153 METAR KCLM 011153Z AUTO 00000KT 10SM CLR 02/M01 A3014 RMK AO2 SLP208 7//// T00171011 10039 20017 58005 $=
202302011053 METAR KCLM 011053Z AUTO 00000KT 10SM CLR 02/M01 A3015 RMK AO2 SLP211 T00171011 $=
202302010953 METAR KCLM 010953Z AUTO 24004KT 10SM SCT044 02/M01 A3015 RMK AO2 SLP211 T00221006 $=
202302010853 METAR KCLM 010853Z AUTO 22003KT 10SM OVC055 02/M01 A3015 RMK AO2 SLP212 T00221006 58005 $=
202302010753 METAR KCLM 010753Z AUTO 15003KT 10SM OVC055 03/M01 A3016 RMK AO2 SLP216 T00281006 400610000 $=
202302010653 METAR KCLM 010653Z AUTO 13004KT 10SM OVC055 03/M01 A3017 RMK AO2 SLP217 T00331006 $=
202302010553 METAR KCLM 010553Z AUTO 26003KT 10SM BKN060 OVC080 03/M01 A3017 RMK AO2 SLP218 T00331006 10050 20028 53002 $=
202302010453 METAR KCLM 010453Z AUTO 23003KT 10SM OVC070 03/M01 A3015 RMK AO2 SLP213 T00331006 $=
202302010353 METAR KCLM 010353Z AUTO 24003KT 10SM OVC075 03/M01 A3016 RMK AO2 SLP216 T00331006 $=
202302010253 METAR KCLM 010253Z AUTO 23003KT 10SM FEW045 BKN085 OVC110 03/M01 A3016 RMK AO2 SLP216 T00281006 58012 $=
202302010153 METAR KCLM 010153Z AUTO 00000KT 10SM OVC110 04/M01 A3017 RMK AO2 SLP221 T00441011 $=
202302010053 METAR KCLM 010053Z AUTO 00000KT 10SM OVC110 04/M01 A3018 RMK AO2 SLP224 T00441006 $=

# No short TAF reports from KCLM in databse.

###################################
#  large TAF from KCLM
###################################
202302282320 TAF KCLM 282320Z 0100/0124 29007KT P6SM SCT030
                      TEMPO 0100/0102 BKN030 FM010400 23005KT P6SM
                       SCT100 SCT200 FM012100 VRB03KT P6SM OVC050=
202302281721 TAF KCLM 281721Z 2818/0118 27007KT P6SM VCSH SCT030 OVC050 FM282200
                       30007KT P6SM SCT050 FM010400 23005KT P6SM
                       SCT100 SCT200=
202302281136 TAF KCLM 281136Z 2812/0112 27006KT 3SM -SHSN OVC010 FM281700 27007KT
                       P6SM VCSH BKN017 OVC030 FM282200 30007KT
                       P6SM BKN040 FM010400 24005KT P6SM SCT100
                       SCT200=
202302280540 TAF KCLM 280540Z 2806/0106 VRB03KT P6SM OVC008 FM281000 25004KT
                       3SM -SHSN OVC010 FM281800 34005KT P6SM OVC025
                       FM010200 24003KT P6SM BKN100=
202302272323 TAF KCLM 272323Z 2800/2824 VRB04KT P6SM OVC015 FM280200 13002KT
                       P6SM OVC020 FM281000 25004KT 4SM -SHRASN
                       OVC010 FM281800 34005KT P6SM OVC025=
202302271734 TAF KCLM 271734Z 2718/2818 23004KT P6SM BKN070 OVC090 FM272000
                       09004KT 6SM -SHRASN OVC030 FM280200 13002KT
                       P6SM OVC050 FM281000 25004KT P6SM -SHRASN
                       OVC025=
202302271140 TAF KCLM 271140Z 2712/2812 23004KT P6SM OVC100 FM272000 09004KT
                       6SM -SHRASN OVC030 FM280200 13002KT P6SM
                       OVC050 FM281000 25004KT P6SM -SHRASN OVC025=
202302270548 TAF KCLM 270548Z 2706/2806 28007KT P6SM BKN100 FM270800 23004KT
                       P6SM OVC100 FM272000 07003KT P6SM -SHRASN
                       OVC050 FM280200 13002KT P6SM OVC050=
202302262327 TAF KCLM 262327Z 2700/2724 24008KT P6SM VCSH BKN070 FM270200 28007KT
                       P6SM BKN100 FM270800 23004KT P6SM OVC100
                       FM271700 07003KT P6SM -RA OVC050=
202302261727 TAF KCLM 261727Z 2618/2718 27015G28KT P6SM VCSH FEW070 FM262000
                       28019G25KT P6SM VCSH BKN070 FM270100 28011KT
                       P6SM OVC100 FM270800 23004KT P6SM OVC100=
202302261139 TAF KCLM 261139Z 2612/2712 23006KT P6SM -SN FEW007 OVC020
                      TEMPO 2612/2616 4SM -SHRASN OVC007 FM261600
                       27012G22KT P6SM VCSH OVC035 FM270100 28011KT
                       P6SM OVC100=
202302260548 TAF KCLM 260548Z 2606/2706 00000KT P6SM -RASN OVC040 FM260700 26002KT
                       4SM -SN OVC020 FM261100 26011G20KT 4SM -SN
                       OVC020 FM261300 26012KT 4SM -SHRASN OVC035
                       FM261600 27015G21KT 4SM -SHRA OVC035 FM270100
                       28011KT P6SM OVC100=
202302260147 KCLM 260147Z 2602/2624 00000KT P6SM FEW070 OVC080 FM260300 VRB02KT
                       6SM -RASN OVC025 FM260500 25007KT 4SM -SN
                       OVC020 FM261100 26011G20KT 4SM -SN OVC020
                       FM261300 26012KT 4SM -SHRASN OVC035 FM261600
                       27015G21KT 4SM -SHRA OVC035=
202302252320 TAF KCLM 252320Z 2600/2624 10003KT P6SM OVC050 FM260100 23004KT
                       6SM -RASN OVC025 FM260600 25007KT 4SM -RASN
                       OVC020 FM261100 26011G20KT 4SM -SHRASN OVC020
                       FM261600 27015G21KT 4SM -RA OVC035=
202302251722 TAF KCLM 251722Z 2518/2618 16003KT P6SM BKN120 FM252000 33005KT
                       P6SM OVC050 FM260100 23004KT 6SM -RASN OVC025
                       FM260600 25007KT 4SM -RASN OVC020 FM261100
                       26011G20KT 4SM -RA OVC015=
202302251132 TAF KCLM 251132Z 2512/2612 23005KT P6SM OVC100 FM251700 VRB04KT
                       P6SM OVC050 FM260100 23004KT 6SM -RASN OVC025
                       FM260600 25007KT 4SM -RASN OVC020=
202302250528 TAF KCLM 250528Z 2506/2606 21003KT P6SM SCT120 FM251000 23005KT
                       P6SM OVC100 FM251700 VRB04KT P6SM OVC050
                       FM260100 25004KT 6SM -RASN OVC025=
202302242320 TAF KCLM 242320Z 2500/2524 08008KT P6SM SKC FM250300 21003KT P6SM
                       BKN250 FM251000 23005KT P6SM OVC100 FM251700
                       VRB04KT P6SM OVC050=
202302241720 TAF KCLM 241720Z 2418/2518 VRB03KT P6SM SKC FM242100 06007KT P6SM
                       SKC FM250300 21003KT P6SM SKC FM251000 23004KT
                       P6SM OVC100=
202302241130 TAF KCLM 241130Z 2412/2512 VRB03KT P6SM SCT040 FM241600 VRB03KT
                       P6SM SKC=
202302240536 TAF KCLM 240536Z 2406/2506 VRB05KT P6SM OVC040 FM241000 12009KT
                       P6SM SCT040 FM241600 17011KT P6SM SKC FM250300
                       20006KT P6SM OVC100=
202302232320 TAF KCLM 232320Z 2400/2424 10013G19KT P6SM BKN050 FM240300 24010KT
                       P6SM FEW250 FM241000 20009KT P6SM SKC FM241600
                       14010KT P6SM SKC=
202302231724 TAF KCLM 231724Z 2318/2418 09015G22KT P6SM BKN040 OVC050 FM232000
                       10013G19KT P6SM BKN060 FM240300 24010KT
                       P6SM BKN060 FM241000 20008KT P6SM SKC=
202302231133 TAF KCLM 231133Z 2312/2412 09010G20KT P6SM BKN040 OVC070 FM232000
                       09008KT P6SM BKN060 FM240300 24006KT P6SM
                       BKN060=
202302230520 TAF KCLM 230520Z 2306/2406 10005KT 1SM -SN SCT005 BKN010 OVC050
                       FM231000 08006KT P6SM VCSH SCT030 BKN050
                       FM231800 09009KT P6SM SCT050 BKN100=
202302230010 KCLM 230010Z 2300/2324 VRB03KT P6SM VCSH SCT015 BKN030
                      TEMPO 2300/2304 2SM -SN BKN009 OVC025 FM230400
                       23005KT 5SM -SHSN SCT012 BKN020 OVC050 FM231000
                       25006KT P6SM SCT030 BKN050 FM231800 09009KT
                       P6SM SCT050 BKN100=
202302222332 TAF KCLM 222332Z 2300/2324 VRB03KT P6SM VCSH SCT015 BKN035
                      TEMPO 2300/2304 5SM -SN BKN015 OVC025 FM230400
                       23005KT 5SM -SHSN SCT015 BKN025 OVC050 FM231000
                       25006KT P6SM SCT030 BKN050 FM231800 09009KT
                       P6SM SCT050 BKN100=
202302221721 TAF KCLM 221721Z 2218/2318 06007KT P6SM VCSH BKN040 FM230200 04010KT
                       5SM -SHSN SCT015 BKN030 OVC050 FM230800
                       25006KT P6SM SCT030 BKN050=
202302221139 TAF KCLM 221139Z 2212/2312 VRB03KT P6SM SCT008 BKN025 OVC050 FM221800
                       04008KT 2SM -SN SCT006 OVC012 FM222200 04012KT
                       5SM -SHSN SCT015 BKN030 OVC050 FM230400
                       25006KT P6SM SCT030 BKN050=
202302220917 KCLM 220917Z 2209/2306 03006KT 3SM -SN SCT006 OVC012
                      TEMPO 2209/2213 1SM -SN BKN006 OVC012 FM222100
                       04011KT 5SM -SHSN BKN030 OVC050=
202302220646 KCLM 220646Z 2207/2306 03008KT P6SM -SHSN SCT015 BKN020 OVC035
                       FM222100 04011KT 5SM -SHSN BKN030 OVC050=
202302220526 TAF KCLM 220526Z 2206/2306 22003KT P6SM VCSH SCT035 OVC050 FM220800
                       03012KT P6SM VCSH BKN040 FM222100 04011KT
                       5SM -SHSN BKN030 OVC050=
202302212322 TAF KCLM 212322Z 2200/2224 25007KT P6SM VCSH BKN035 FM220800 VRB04KT
                       P6SM BKN040 FM221600 08009KT P6SM BKN050=
202302211731 TAF KCLM 211731Z 2118/2218 27012G18KT P6SM VCSH SCT030 BKN050 FM212200
                       29011KT P6SM VCSH BKN050 FM220500 25006KT
                       P6SM BKN060=
202302211143 TAF KCLM 211143Z 2112/2212 28020G30KT P6SM -SHRA SCT020 BKN035
                       BKN050 FM211500 27015G25KT P6SM VCSH SCT030
                       BKN050 FM212200 29012KT P6SM BKN050 FM220500
                       VRB03KT P6SM BKN100=
202302210523 TAF KCLM 210523Z 2106/2206 28024G34KT P6SM VCSH FEW050 SCT070 FM211300
                       27018G28KT P6SM VCSH SCT030 BKN050 FM212000
                       28012G18KT P6SM VCSH BKN050 FM220000 29012KT
                       P6SM VCSH OVC050=
202302202334 TAF KCLM 202334Z 2100/2124 09007KT P6SM VCSH SCT025 OVC050 FM210200
                       27014G22KT P6SM -RA OVC030 FM210500 28024G38KT
                       P6SM VCSH SCT030 BKN045 FM211300 27018G28KT
                       P6SM VCSH SCT030 BKN050 FM212000 28012G18KT
                       P6SM VCSH BKN050=
202302201735 TAF KCLM 201735Z 2018/2118 29008KT P6SM VCSH BKN025 OVC050 FM202100
                       29010KT P6SM -RA OVC025 FM210100 27014G22KT
                       P6SM -RA OVC020 FM210500 28024G38KT P6SM
                       SCT030 OVC050=
202302201122 TAF KCLM 201122Z 2012/2112 29010G18KT P6SM OVC050 FM202100 29010KT
                       P6SM -RA OVC025 FM210500 28024G38KT P6SM
                       SCT030 OVC050=
202302200540 TAF KCLM 200540Z 2006/2106 29008KT P6SM SCT050 OVC100 FM201000
                       27010KT 5SM BR OVC025 FM201800 27009G15KT
                       3SM -RA BR OVC025 FM210100 28015G23KT 5SM
                       -RA BR OVC025=
202302192331 TAF KCLM 192331Z 2000/2024 29011G18KT P6SM VCSH BKN025 OVC035 FM200200
                       28011G18KT 5SM -RA BR OVC025 FM201800 27009G15KT
                       3SM -RA BR OVC020=
202302191720 TAF KCLM 191720Z 1918/2018 26008G17KT P6SM VCSH BKN025 OVC030
                      TEMPO 1918/1920 SCT035 FM200300 27012G22KT
                       4SM -RA BR OVC020=
202302191120 TAF KCLM 191120Z 1912/2012 23005KT P6SM OVC080 FM191600 26008KT
                       P6SM -RA OVC025 FM200400 27012G20KT 4SM
                       -RA BR OVC015=
202302190905 KCLM 190905Z 1909/2006 00000KT P6SM SCT025 BKN200 FM191100 24005KT
                       P6SM BKN025 FM191500 26011KT P6SM OVC023
                       FM200000 27008KT 4SM -RA BR OVC015=
202302190543 TAF KCLM 190543Z 1906/2006 22004KT P6SM SCT020 FM190900 24005KT
                       P6SM BKN025 FM191500 26011KT P6SM OVC023
                       FM200000 27008KT 4SM -RA BR OVC015=
202302182328 TAF KCLM 182328Z 1900/1924 29010KT P6SM BKN010 BKN050
                      TEMPO 1900/1902 VRB03KT 2SM -RA BR SCT005
                       BKN010 FM190300 25007KT P6SM SCT025 BKN050
                       FM191500 26011KT P6SM BKN015 OVC030=
202302182138 KCLM 182138Z 1822/1918 29010KT P6SM BKN010 BKN050 FM190200 25004KT
                       P6SM SCT025 BKN050 FM191200 26007KT P6SM
                       BKN015 OVC025=
202302181720 TAF KCLM 181720Z 1818/1918 27010KT P6SM OVC050
                      TEMPO 1818/1821 5SM -RA BR OVC025 FM190200
                       25004KT P6SM SCT025 BKN050 FM191200 26007KT
                       P6SM BKN015 OVC025=
202302181126 TAF KCLM 181126Z 1812/1912 20004KT P6SM SCT020 OVC050
                      TEMPO 1812/1815 OVC020 FM181500 24005KT P6SM
                       -RA OVC020 FM181800 27010KT P6SM -RA OVC015
                       FM190200 25004KT P6SM BKN025 BKN050=
202302180539 TAF KCLM 180539Z 1806/1906 VRB03KT P6SM -RA OVC060 FM180800 25006KT
                       P6SM OVC035 FM181500 24005KT 6SM -RA BR
                       OVC020 FM181800 27010KT P6SM BKN025 FM190300
                       29005KT P6SM OVC025=
202302172325 TAF KCLM 172325Z 1800/1824 VRB04KT P6SM SCT030 BKN200 FM180800
                       25006KT P6SM OVC025 FM181600 25005KT 6SM
                       -RA BR OVC015=
202302171729 TAF KCLM 171729Z 1718/1818 25004KT P6SM VCSH BKN035 FM180000 33004KT
                       P6SM BKN040 FM180900 25006KT P6SM OVC025
                       FM181600 25005KT 6SM -RA BR OVC015=
202302171128 TAF KCLM 171128Z 1712/1812 18004KT P6SM -RA OVC030 FM171400 25004KT
                       P6SM VCSH OVC025 FM171800 25004KT P6SM VCSH
                       BKN040 FM180000 33004KT P6SM BKN050 FM180900
                       26007KT P6SM OVC025=
202302170529 TAF KCLM 170529Z 1706/1806 24004KT P6SM -RA OVC090 FM170900 26004KT
                       P6SM -RA OVC035 FM171500 25004KT P6SM OVC025
                       FM171800 25004KT P6SM VCSH BKN035 FM180000
                       33004KT P6SM OVC050 FM180400 26007KT P6SM
                       OVC025=
202302162320 TAF KCLM 162320Z 1700/1724 VRB04KT P6SM OVC070 FM170300 26006KT
                       P6SM -RA OVC045 FM170900 27004KT P6SM -RA
                       OVC025 FM171800 25004KT P6SM VCSH BKN035=
202302161725 TAF KCLM 161725Z 1618/1718 24005KT P6SM OVC100 FM162000 VRB04KT
                       P6SM OVC070 FM170200 26006KT P6SM -RA OVC045
                       FM170700 27004KT P6SM -RA OVC030 FM171100
                       24004KT P6SM OVC015=
202302161123 TAF KCLM 161123Z 1612/1712 24005KT P6SM OVC100 FM162000 VRB04KT
                       P6SM OVC070 FM170200 26006KT P6SM -RA OVC045
                       FM170700 27004KT P6SM -RA OVC030=
202302160528 TAF KCLM 160528Z 1606/1706 00000KT P6SM OVC100 FM162000 11006KT
                       P6SM BKN050 OVC100 FM170200 11006KT P6SM
                       -RA OVC045=
202302152327 TAF KCLM 152327Z 1600/1624 VRB04KT P6SM SCT100 BKN200 FM160500
                       23005KT P6SM OVC100 FM161700 VRB04KT P6SM
                       BKN050 OVC100 FM162000 VRB04KT P6SM VCSH
                       BKN045 OVC080=
202302151728 TAF KCLM 151728Z 1518/1618 24006KT P6SM SCT120 BKN200 FM160500
                       23005KT P6SM OVC120 FM161700 VRB04KT P6SM
                       VCSH BKN050 OVC100=
202302151126 TAF KCLM 151126Z 1512/1612 24006KT P6SM SCT200 FM151500 07005KT
                       P6SM BKN120 BKN200 FM160500 23005KT P6SM
                       OVC120=
202302150532 TAF KCLM 150532Z 1506/1606 24006KT P6SM SCT200 FM151500 VRB03KT
                       P6SM BKN120 OVC200=
202302142325 TAF KCLM 142325Z 1500/1524 09004KT P6SM SCT040 SCT200 FM150300
                       24005KT P6SM SCT200 FM151800 25004KT P6SM
                       BKN120 OVC200=
202302141734 TAF KCLM 141734Z 1418/1518 VRB04KT P6SM SCT040 FM150300 24005KT
                       P6SM SCT200=
202302141242 KCLM 141242Z 1413/1512 23006KT P6SM BKN027 BKN040 OVC050 FM141700
                       VRB03KT P6SM SKC FM150300 24005KT P6SM SCT250=
202302141120 TAF KCLM 141120Z 1412/1512 24008KT P6SM FEW040 FM142000 VRB03KT
                       P6SM SKC FM150300 24005KT P6SM SCT250=
202302140529 TAF KCLM 140529Z 1406/1506 27014G24KT P6SM BKN040 FM140900 27012KT
                       P6SM SCT040 BKN080 FM141200 27006KT P6SM
                       SCT250 FM142000 VRB03KT P6SM SKC=
202302132329 TAF KCLM 132329Z 1400/1424 28020G30KT P6SM BKN050 FM140600 27015KT
                       P6SM BKN050 FM140900 26012KT P6SM BKN100
                       FM142200 01009KT P6SM SCT250=
202302131800 KCLM 131800Z 1318/1418 26010G20KT P6SM -SHRA BKN030 OVC060 FM132100
                       28020G30KT P6SM BKN050 FM140600 27015KT
                       P6SM BKN050 FM140900 26012KT P6SM BKN100=
202302131735 TAF KCLM 131735Z 1318/1418 26015G25KT P6SM -SHRA BKN030 OVC060
                       FM132100 28020G30KT P6SM BKN050 FM140600
                       27015KT P6SM BKN050 FM140900 26012KT P6SM
                       BKN100=
202302131129 TAF KCLM 131129Z 1312/1412 25012G25KT P6SM -SHRA FEW030 SCT060
                       OVC090 FM131400 28015G25KT P6SM -SHRA BKN030
                       OVC060 FM132100 28020G30KT P6SM BKN050 FM140600
                       27015KT P6SM BKN050 FM140900 26012KT P6SM
                       BKN100=
202302130528 TAF KCLM 130528Z 1306/1406 10004KT P6SM -RA BKN060 FM130700 27013G25KT
                       P6SM VCSH SCT030 BKN060 FM131400 28018G30KT
                       P6SM -SHRA BKN030 OVC060 FM131900 28022G28KT
                       P6SM BKN050 FM132200 28022G28KT P6SM VCSH
                       BKN040=
202302122328 TAF KCLM 122328Z 1300/1324 VRB04KT P6SM FEW020 BKN050 OVC070
                      TEMPO 1300/1304 -SHRA BKN020 OVC050 FM130400
                       23006KT P6SM -RA BKN020 OVC050 FM130700
                       27013G23KT P6SM VCSH SCT030 BKN060 FM131400
                       28018G30KT P6SM -SHRA BKN030 OVC060=
202302122223 KCLM 122223Z 1222/1318 VRB04KT P6SM SCT020 OVC050
                      TEMPO 1222/1302 -SHRA BKN020 OVC050 FM130200
                       23006KT P6SM -RA BKN020 OVC050 FM130700
                       27015G25KT P6SM VCSH SCT030 BKN060=
202302121724 TAF KCLM 121724Z 1218/1318 VRB03KT P6SM BKN070 OVC120 FM130300
                       23006KT P6SM -RA BKN030 OVC060 FM130700
                       27015G25KT P6SM VCSH SCT030 BKN060=
202302121130 TAF KCLM 121130Z 1212/1312 00000KT P6SM FEW060 OVC080 FM122200
                       VRB03KT P6SM OVC060 FM130300 23006KT P6SM
                       -SHRA BKN030 OVC060 FM130600 27012KT P6SM
                       -SHRA OVC025=
202302120530 TAF KCLM 120530Z 1206/1306 23004KT P6SM SKC FM121000 22004KT P6SM
                       BKN050 BKN200 FM122200 VRB03KT P6SM BKN020
                       OVC040 FM130300 23006KT P6SM -RA BKN040
                       FM130500 23006KT P6SM -RA OVC025=
202302112323 TAF KCLM 112323Z 1200/1224 32004KT P6SM SCT030 BKN200
                      TEMPO 1200/1202 BKN030 OVC200 FM120200 24005KT
                       P6SM SCT035 BKN200 FM121000 21004KT P6SM
                       BKN050 BKN200 FM122200 VRB03KT P6SM BKN020
                       OVC040=
202302111724 TAF KCLM 111724Z 1118/1218 26006KT P6SM BKN150 FM112000 34005KT
                       P6SM SCT050 BKN150 FM120100 24005KT P6SM
                       SCT050 BKN200 FM121000 32004KT P6SM BKN050
                       BKN200=
202302111121 TAF KCLM 111121Z 1112/1212 25008KT P6SM SKC FM111600 25005KT P6SM
                       OVC045 FM112000 34005KT P6SM OVC050 FM120100
                       24005KT P6SM BKN060=
202302110531 TAF KCLM 110531Z 1106/1206 25008KT P6SM SKC FM111000 25005KT P6SM
                       OVC045 FM112000 34005KT P6SM OVC050 FM120100
                       28005KT P6SM BKN050=
202302102339 TAF KCLM 102339Z 1100/1124 33009KT P6SM OVC030
                      TEMPO 1100/1102 3SM -RA FEW012 SCT015 OVC030
                       FM110300 26008KT P6SM BKN045 FM111600 25005KT
                       P6SM OVC025 FM112100 34005KT P6SM OVC050=
202302101738 TAF KCLM 101738Z 1018/1118 18004KT P6SM VCSH BKN045 FM102200 33009KT
                       P6SM BKN045 FM111200 25008KT P6SM BKN050=
202302101122 TAF KCLM 101122Z 1012/1112 VRB03KT P6SM SCT020 BKN040
                      TEMPO 1012/1016 BKN020 BKN040 FM101600 27006KT
                       P6SM BKN045=
202302100541 TAF KCLM 100541Z 1006/1106 25005KT 5SM -RA BR OVC040 FM100800 26004KT
                       P6SM VCSH SCT015 OVC025 FM101200 27006KT
                       P6SM VCSH OVC050 FM102000 30010KT P6SM OVC050
                       FM110500 22005KT P6SM BKN040=
202302092339 TAF KCLM 092339Z 1000/1024 11006KT P6SM OVC015 FM100400 11006KT
                       P6SM -RA OVC025 FM100800 VRB03KT P6SM -SHRA
                       SCT015 OVC025 FM101200 25006KT P6SM OVC050=
202302091730 TAF KCLM 091730Z 0918/1018 VRB03KT P6SM SCT015 OVC070 FM092100
                       11006KT P6SM BKN080 BKN200 FM100200 11006KT
                       P6SM -RA OVC045 FM100800 VRB03KT P6SM -RA
                       SCT015 OVC025=
202302091143 TAF KCLM 091143Z 0912/1012 VRB03KT P6SM OVC070 FM092100 11006KT
                       P6SM BKN080 BKN200 FM100200 11006KT P6SM
                       -RA OVC045 FM100800 VRB03KT P6SM -RA SCT015
                       OVC025=
202302090520 TAF KCLM 090520Z 0906/1006 22003KT P6SM OVC060 FM090900 22003KT
                       P6SM -RA OVC040 FM091500 12003KT P6SM BKN050
                       BKN250 FM091900 11003KT P6SM BKN250=
202302082330 TAF KCLM 082330Z 0900/0924 04006KT P6SM BKN100 FM090200 VRB03KT
                       P6SM OVC080 FM090900 22003KT P6SM -RA OVC050
                       FM091800 14003KT P6SM OVC050=
202302081738 TAF KCLM 081738Z 0818/0918 25007KT P6SM BKN200 FM090200 VRB03KT
                       P6SM OVC080 FM090900 22003KT P6SM -RA OVC050=
202302081143 TAF KCLM 081143Z 0812/0912 27009KT P6SM SCT020
                      TEMPO 0812/0816 BKN020 FM081600 VRB03KT P6SM
                       SCT080 BKN200 FM090200 VRB03KT P6SM OVC080=
202302080520 TAF KCLM 080520Z 0806/0906 27009KT P6SM BKN070 FM081900 07004KT
                       P6SM SCT050 BKN150=
202302072320 TAF KCLM 072320Z 0800/0824 25015G23KT P6SM SCT030 BKN060 FM080500
                       29008KT P6SM BKN050 FM081900 07004KT P6SM
                       SCT050 BKN150=
202302071724 TAF KCLM 071724Z 0718/0818 30004KT 3SM -RA BR OVC045 FM072200 29015G25KT
                       P6SM SCT025 BKN050 FM080500 29008KT P6SM
                       BKN050=
202302071145 TAF KCLM 071145Z 0712/0812 12006KT P6SM OVC060 FM072200 29015G25KT
                       P6SM SCT025 BKN050 FM080500 29008KT P6SM
                       BKN050=
202302070520 TAF KCLM 070520Z 0706/0806 25005KT P6SM BKN040 OVC050 FM071200
                       24003KT 5SM -RA BR OVC020 FM072200 29015G25KT
                       P6SM SCT025 BKN050=
202302062321 TAF KCLM 062321Z 0700/0724 VRB03KT P6SM BKN040 OVC060 FM070400
                       25005KT P6SM BKN030 OVC060 FM071200 24003KT
                       5SM -RA BR OVC020 FM072200 29015G25KT P6SM
                       SCT025 BKN050=
202302061725 TAF KCLM 061725Z 0618/0718 VRB03KT P6SM BKN060 FM070400 25005KT
                       P6SM BKN030 OVC060 FM071200 24003KT 5SM
                       -RA BR OVC020=
202302061120 TAF KCLM 061120Z 0612/0712 25006KT P6SM SCT030 OVC050 FM061600
                       VRB03KT P6SM VCSH SCT010 OVC030 FM062200
                       30006KT P6SM VCSH OVC020 FM070300 25006KT
                       P6SM -RA OVC025=
202302060529 TAF KCLM 060529Z 0606/0706 29010KT P6SM OVC040 FM060900 25006KT
                       P6SM SCT010 OVC030 FM061300 VRB03KT P6SM
                       VCSH SCT010 OVC030 FM062200 VRB04KT P6SM
                       VCSH OVC050=
202302052335 TAF KCLM 052335Z 0600/0624 30010G20KT P6SM -RA BKN060 FM061200
                       25007KT P6SM OVC025=
202302051738 TAF KCLM 051738Z 0518/0618 25004KT P6SM VCSH FEW015 BKN060 OVC070
                       FM052100 27007KT 5SM -RA OVC030 FM060500
                       28012KT P6SM OVC050 FM061000 26008KT P6SM
                       OVC025=
202302051120 TAF KCLM 051120Z 0512/0612 VRB03KT P6SM SCT060 OVC100 FM051600
                       25005KT P6SM VCSH OVC050 FM052100 27007KT
                       5SM -RA OVC030 FM060200 29012KT P6SM OVC030
                       FM061000 26008KT P6SM OVC025=
202302050532 TAF KCLM 050532Z 0506/0606 VRB04KT P6SM -RA BKN050 OVC070 FM050800
                       VRB03KT P6SM OVC070 FM051600 25005KT P6SM
                       -RA OVC050 FM052100 27007KT 5SM -RA OVC030
                       FM060200 29012KT P6SM OVC030=
202302042320 TAF KCLM 042320Z 0500/0524 VRB04KT P6SM VCSH FEW070 OVC100 FM050800
                       21004KT P6SM OVC040 FM051600 25005KT P6SM
                       OVC025=
202302042012 KCLM 042012Z 0420/0518 13004KT P6SM VCSH SCT005 BKN070 FM050300
                       VRB03KT P6SM VCSH OVC030 FM050800 21004KT
                       P6SM OVC040 FM051600 25005KT P6SM OVC025=
202302041829 KCLM 041829Z 0418/0518 13004KT P6SM VCSH BKN005 BKN070 FM050300
                       VRB03KT P6SM VCSH OVC030 FM050800 21004KT
                       P6SM OVC040 FM051600 25005KT P6SM OVC025=
202302041735 TAF KCLM 041735Z 0418/0518 13004KT P6SM VCSH OVC040 FM050300 VRB03KT
                       P6SM VCSH OVC030 FM050800 21004KT P6SM OVC040
                       FM051600 25005KT P6SM OVC025=
202302041120 TAF KCLM 041120Z 0412/0512 VRB04KT P6SM VCSH OVC060 FM041800 13004KT
                       P6SM VCSH OVC040 FM050300 VRB03KT P6SM VCSH
                       OVC030 FM050800 21004KT P6SM OVC040=
202302040530 TAF KCLM 040530Z 0406/0506 24012KT P6SM VCSH OVC045 FM040900 VRB04KT
                       P6SM VCSH OVC050 FM041800 13004KT P6SM VCSH
                       OVC040=
202302032320 TAF KCLM 032320Z 0400/0424 26007KT P6SM -RA OVC050 FM040300 23008KT
                       P6SM -RA OVC035 FM041000 24003KT P6SM -RA
                       OVC035 FM041800 13004KT P6SM VCSH OVC025=
202302031724 TAF KCLM 031724Z 0318/0418 12006KT P6SM VCSH OVC080 FM032000 12010KT
                       P6SM -RA OVC040 FM040300 23008KT P6SM -RA
                       OVC025 FM041000 24003KT P6SM -RA OVC050=
202302031152 TAF KCLM 031152Z 0312/0412 VRB03KT P6SM OVC100 FM031700 12006KT
                       P6SM VCSH OVC080 FM032000 12010KT P6SM -RA
                       OVC040 FM040300 23008KT P6SM -RA OVC025=
202302030520 TAF KCLM 030520Z 0306/0406 00000KT P6SM OVC070 FM031000 VRB03KT
                       P6SM OVC100 FM031700 12006KT P6SM VCSH OVC080
                       FM032000 15006KT P6SM -RA OVC050 FM040400
                       20008KT P6SM -RA OVC025=
202302022324 TAF KCLM 022324Z 0300/0324 08004KT P6SM SCT150 BKN250 FM031000
                       VRB03KT P6SM OVC100 FM031700 12006KT P6SM
                       VCSH OVC080 FM032000 15006KT P6SM -RA OVC050=
202302021726 TAF KCLM 021726Z 0218/0318 08004KT P6SM SCT015 BKN250 FM031000
                       VRB03KT P6SM OVC100 FM031700 12006KT P6SM
                       VCSH OVC080=
202302021129 TAF KCLM 021129Z 0212/0312 24006KT P6SM OVC015 FM021600 VRB03KT
                       P6SM BKN250 FM031000 VRB03KT P6SM OVC100=
202302020535 TAF KCLM 020535Z 0206/0306 00000KT P6SM BKN250=
202302012332 TAF KCLM 012332Z 0200/0224 VRB03KT P6SM BKN250 FM021500 16004KT
                       P6SM BKN250=
202302011735 TAF KCLM 011735Z 0118/0218 VRB03KT P6SM SCT150 FM012200 VRB03KT
                       P6SM BKN250 FM021500 22003KT P6SM OVC250=
202302011134 TAF KCLM 011134Z 0112/0212 VRB03KT P6SM SCT050 OVC150 FM012200
                       VRB03KT P6SM BKN250=
202302010525 TAF KCLM 010525Z 0106/0206 VRB03KT P6SM OVC070 FM010900 VRB03KT
                       P6SM OVC050 FM011800 10004KT P6SM OVC100
                       FM020000 VRB03KT P6SM BKN250=