##########################################################
# Query made at 02/16/2025 05:52:01 UTC
# Time interval: from 05/01/2023 00:00  to 05/31/2023 23:59  UTC
##########################################################

##########################################################
# KCLM, Port Angeles, William R. Fairchild International Airport (United States)
# WMO index: -----. WIGOS ID: Unknown
# Latitude 48-07-20N. Longitude 123-30-19W. Altitude 87 m.
##########################################################

###################################
#  METAR/SPECI from KCLM
###################################
202305312353 METAR KCLM 312353Z AUTO 29016G29KT 10SM CLR 14/04 A3010 RMK AO2 PK WND 29029/2344 SLP192 T01390044 10156 20128 56002=
202305312253 METAR KCLM 312253Z AUTO 29012G22KT 10SM CLR 14/04 A3009 RMK AO2 SLP192 T01440044=
202305312153 METAR KCLM 312153Z AUTO 32008G20KT 10SM SCT075 15/06 A3010 RMK AO2 SLP192 T01500056=
202305312053 METAR KCLM 312053Z AUTO 32013G22KT 10SM CLR 14/05 A3010 RMK AO2 SLP194 T01440050 50001=
202305311953 METAR KCLM 311953Z AUTO 29014G21KT 10SM CLR 14/06 A3011 RMK AO2 SLP196 T01390056=
202305311853 METAR KCLM 311853Z AUTO 30012G21KT 10SM CLR 13/07 A3010 RMK AO2 SLP194 T01330067=
202305311753 METAR KCLM 311753Z AUTO 30013G22KT 10SM CLR 13/07 A3010 RMK AO2 SLP193 T01280067 10133 20061 53004=
202305311653 METAR KCLM 311653Z AUTO 30009G21KT 10SM FEW055 13/06 A3009 RMK AO2 SLP191 T01280056=
202305311553 METAR KCLM 311553Z AUTO 29009KT 10SM OVC049 13/05 A3009 RMK AO2 SLP191 T01280050=
202305311453 METAR KCLM 311453Z AUTO 27009KT 10SM BKN050 11/04 A3009 RMK AO2 SLP190 T01110044 51009=
202305311353 METAR KCLM 311353Z AUTO 25008KT 10SM FEW050 08/03 A3009 RMK AO2 SLP189 T00830033=
202305311253 METAR KCLM 311253Z AUTO 26009KT 10SM CLR 07/03 A3007 RMK AO2 SLP185 T00720028=
202305311153 METAR KCLM 311153Z AUTO 28007KT 10SM CLR 06/02 A3006 RMK AO2 SLP180 T00610022 10094 20061 51002=
202305311053 METAR KCLM 311053Z AUTO 27008KT 10SM CLR 07/02 A3006 RMK AO2 SLP180 T00720022=
202305310953 METAR KCLM 310953Z AUTO 26009KT 10SM CLR 07/03 A3006 RMK AO2 SLP180 T00720028=
202305310853 METAR KCLM 310853Z AUTO 26010KT 10SM CLR 08/02 A3005 RMK AO2 SLP178 T00830022 58000=
202305310753 METAR KCLM 310753Z AUTO 27011KT 10SM CLR 09/02 A3006 RMK AO2 SLP179 T00890022 401440078=
202305310653 METAR KCLM 310653Z AUTO 27009KT 10SM CLR 09/02 A3006 RMK AO2 SLP180 T00890017=
202305310553 METAR KCLM 310553Z AUTO 27009KT 10SM CLR 09/02 A3005 RMK AO2 SLP178 T00890017 10133 20083 56001=
202305310453 METAR KCLM 310453Z AUTO 25006KT 10SM CLR 09/04 A3006 RMK AO2 SLP179 T00940039=
202305310353 METAR KCLM 310353Z AUTO 27006KT 10SM CLR 10/04 A3005 RMK AO2 SLP178 T01000039=
202305310253 METAR KCLM 310253Z AUTO 30011G21KT 10SM CLR 11/04 A3006 RMK AO2 SLP180 T01110039 51003=
202305310153 METAR KCLM 310153Z AUTO 30010KT 10SM CLR 12/05 A3006 RMK AO2 SLP179 T01220050=
202305310053 METAR KCLM 310053Z AUTO 30012G19KT 10SM CLR 13/05 A3006 RMK AO2 SLP179 T01330050=
202305302353 METAR KCLM 302353Z AUTO 30011G19KT 10SM CLR 13/05 A3005 RMK AO2 SLP177 60000 T01330050 10144 20122 56005=
202305302253 METAR KCLM 302253Z AUTO 29012G20KT 10SM CLR 14/05 A3006 RMK AO2 PK WND 29026/2218 RAB33E42 SLP179 P0000 T01390050=
202305302153 METAR KCLM 302153Z AUTO 29012G21KT 10SM CLR 14/05 A3006 RMK AO2 SLP178 T01390050=
202305302053 METAR KCLM 302053Z AUTO 31011G19KT 10SM FEW029 14/06 A3007 RMK AO2 SLP182 T01390056 53001=
202305301953 METAR KCLM 301953Z AUTO 29012G21KT 10SM CLR 13/05 A3007 RMK AO2 SLP183 T01330050=
202305301853 METAR KCLM 301853Z AUTO 31011KT 10SM CLR 13/06 A3006 RMK AO2 SLP179 T01330056=
202305301753 METAR KCLM 301753Z AUTO 28012G20KT 10SM CLR 13/06 A3006 RMK AO2 SLP181 T01330056 10133 20078 52011=
202305301653 METAR KCLM 301653Z AUTO 30012G22KT 10SM CLR 13/05 A3005 RMK AO2 SLP176 T01280050=
202305301553 METAR KCLM 301553Z AUTO 30013G20KT 10SM CLR 12/05 A3004 RMK AO2 SLP174 T01220050=
202305301453 METAR KCLM 301453Z AUTO 29006KT 10SM FEW030 12/04 A3003 RMK AO2 SLP170 T01170044 53010=
202305301353 METAR KCLM 301353Z AUTO 28008KT 10SM CLR 09/04 A3002 RMK AO2 SLP165 T00940039=
202305301253 METAR KCLM 301253Z AUTO 26006KT 10SM SCT049 08/03 A3001 RMK AO2 SLP163 T00830033=
202305301153 METAR KCLM 301153Z AUTO 28008KT 10SM FEW029 09/03 A3000 RMK AO2 SLP159 T00890033 10100 20078 51009=
202305301053 METAR KCLM 301053Z AUTO 26008KT 10SM CLR 08/03 A2999 RMK AO2 SLP157 T00830033=
202305300953 METAR KCLM 300953Z AUTO 25009KT 10SM CLR 09/04 A2998 RMK AO2 SLP153 T00890039=
202305300853 METAR KCLM 300853Z AUTO 26008KT 10SM CLR 09/04 A2997 RMK AO2 SLP150 T00890044 50002=
202305300753 METAR KCLM 300753Z AUTO 27009KT 10SM CLR 09/04 A2997 RMK AO2 SLP150 T00940044 401560089=
202305300653 METAR KCLM 300653Z AUTO 27008KT 10SM CLR 09/05 A2997 RMK AO2 SLP149 T00940050=
202305300553 METAR KCLM 300553Z AUTO 27011KT 10SM CLR 10/06 A2997 RMK AO2 SLP148 T01000056 10150 20100 53005=
202305300453 METAR KCLM 300453Z AUTO 28008KT 10SM CLR 10/06 A2996 RMK AO2 SLP147 T01000061=
202305300353 METAR KCLM 300353Z AUTO 28008G14KT 10SM CLR 11/07 A2995 RMK AO2 SLP143 T01060067=
202305300253 METAR KCLM 300253Z AUTO 29010KT 10SM CLR 12/08 A2995 RMK AO2 SLP143 T01220078 56002=
202305300153 METAR KCLM 300153Z AUTO 28010G19KT 10SM CLR 13/08 A2995 RMK AO2 SLP144 T01330078=
202305300053 METAR KCLM 300053Z AUTO 29007G17KT 260V320 10SM CLR 14/08 A2995 RMK AO2 SLP144 T01440083=
202305292353 METAR KCLM 292353Z AUTO 31010G21KT 10SM CLR 14/08 A2996 RMK AO2 SLP146 T01440083 10156 20139 55005=
202305292253 METAR KCLM 292253Z AUTO 29010G18KT 10SM CLR 14/09 A2996 RMK AO2 SLP145 T01440089=
202305292153 METAR KCLM 292153Z AUTO 30012G20KT 10SM CLR 14/09 A2997 RMK AO2 SLP148 T01440089=
202305292053 METAR KCLM 292053Z AUTO 29011KT 10SM CLR 15/09 A2997 RMK AO2 SLP151 T01500094 56005=
202305291953 METAR KCLM 291953Z AUTO 32009KT 10SM CLR 14/09 A2998 RMK AO2 SLP153 T01440094=
202305291853 METAR KCLM 291853Z AUTO 30009KT 10SM CLR 14/09 A2998 RMK AO2 SLP154 T01390094=
202305291814 SPECI KCLM 291814Z AUTO 32009KT 10SM SCT011 14/09 A2999 RMK AO2 T01390094=
202305291753 METAR KCLM 291753Z AUTO 29007KT 10SM BKN010 14/09 A2999 RMK AO2 CIG 008V013 SLP157 T01390094 10139 20089 58004=
202305291714 SPECI KCLM 291714Z AUTO 31008KT 290V350 10SM BKN008 BKN014 13/09 A3000 RMK AO2 T01330089=
202305291708 SPECI KCLM 291708Z AUTO 32007KT 10SM SCT008 BKN015 14/09 A3000 RMK AO2 T01390094=
202305291700 SPECI KCLM 291700Z AUTO 33007KT 10SM SCT008 SCT015 13/09 A3000 RMK AO2 T01330089=
202305291653 METAR KCLM 291653Z AUTO 29010KT 10SM SCT008 BKN016 13/09 A3000 RMK AO2 SLP161 T01280089=
202305291648 SPECI KCLM 291648Z AUTO 32007KT 280V350 10SM SCT008 BKN016 13/09 A3000 RMK AO2=
202305291553 METAR KCLM 291553Z AUTO 30008KT 10SM FEW013 13/09 A2999 RMK AO2 SLP158 T01280089=
202305291453 METAR KCLM 291453Z AUTO 30008KT 10SM SCT013 12/08 A3000 RMK AO2 SLP158 T01220083 51003=
202305291353 METAR KCLM 291353Z AUTO 27008KT 10SM CLR 11/08 A3000 RMK AO2 SLP158 T01060078=
202305291253 METAR KCLM 291253Z AUTO 27007KT 10SM CLR 09/07 A2999 RMK AO2 SLP156 T00890067=
202305291153 METAR KCLM 291153Z AUTO 28006KT 10SM CLR 09/07 A2999 RMK AO2 SLP154 T00940067 10100 20089 55000=
202305291053 METAR KCLM 291053Z AUTO 27011KT 10SM CLR 10/07 A2998 RMK AO2 SLP153 T01000067=
202305290953 METAR KCLM 290953Z AUTO 27005KT 10SM CLR 09/06 A2999 RMK AO2 SLP155 T00890061=
202305290853 METAR KCLM 290853Z AUTO 28009G17KT 10SM CLR 09/07 A2999 RMK AO2 SLP155 T00940067 58006=
202305290753 METAR KCLM 290753Z AUTO 28010KT 10SM CLR 10/07 A3000 RMK AO2 SLP158 T01000067 401780089=
202305290653 METAR KCLM 290653Z AUTO 28010KT 10SM CLR 10/07 A3000 RMK AO2 SLP160 T01000072=
202305290553 METAR KCLM 290553Z AUTO 28011KT 10SM CLR 10/08 A3001 RMK AO2 SLP162 T01000078 10161 20100 58003=
202305290453 METAR KCLM 290453Z AUTO 29010KT 10SM CLR 11/08 A3002 RMK AO2 SLP165 T01060078=
202305290420 SPECI KCLM 290420Z AUTO 29007KT 10SM SCT011 11/08 A3002 RMK AO2 T01060078=
202305290353 METAR KCLM 290353Z AUTO 28010KT 10SM BKN012 11/08 A3001 RMK AO2 SLP165 T01110078=
202305290345 SPECI KCLM 290345Z AUTO 28008KT 10SM BKN012 11/08 A3001 RMK AO2 T01110078=
202305290253 METAR KCLM 290253Z AUTO 28011G19KT 10SM CLR 12/08 A3002 RMK AO2 SLP166 T01220078 56003=
202305290153 METAR KCLM 290153Z AUTO 30009G18KT 10SM CLR 13/08 A3002 RMK AO2 SLP166 T01330083=
202305290053 METAR KCLM 290053Z AUTO 29010KT 10SM CLR 15/09 A3002 RMK AO2 SLP165 T01500089=
202305282353 METAR KCLM 282353Z AUTO 30006KT 10SM CLR 16/09 A3003 RMK AO2 SLP168 T01610089 10178 20133 58011=
202305282253 METAR KCLM 282253Z AUTO VRB04KT 10SM CLR 17/09 A3004 RMK AO2 SLP172 T01720089=
202305282153 METAR KCLM 282153Z AUTO 31006KT 10SM CLR 16/09 A3006 RMK AO2 SLP178 T01610089=
202305282053 METAR KCLM 282053Z AUTO VRB03KT 10SM CLR 17/09 A3006 RMK AO2 SLP179 T01670089 58007=
202305281953 METAR KCLM 281953Z AUTO 29007KT 10SM CLR 15/09 A3008 RMK AO2 SLP186 T01500089=
202305281853 METAR KCLM 281853Z AUTO 29008KT 10SM CLR 14/09 A3008 RMK AO2 SLP187 T01440089=
202305281753 METAR KCLM 281753Z AUTO VRB06KT 10SM CLR 14/08 A3008 RMK AO2 SLP186 T01390083 10144 20089 50000=
202305281653 METAR KCLM 281653Z AUTO 29007KT 10SM FEW013 13/08 A3009 RMK AO2 SLP189 T01330083=
202305281644 SPECI KCLM 281644Z AUTO 29004KT 10SM SCT013 13/08 A3009 RMK AO2 T01280078=
202305281553 METAR KCLM 281553Z AUTO 31005KT 10SM OVC013 12/08 A3008 RMK AO2 SLP187 T01220078=
202305281453 METAR KCLM 281453Z AUTO 25004KT 10SM OVC014 12/08 A3008 RMK AO2 SLP187 T01170078 53008=
202305281353 METAR KCLM 281353Z AUTO 28004KT 10SM OVC013 11/08 A3007 RMK AO2 SLP182 T01110078=
202305281320 SPECI KCLM 281320Z AUTO 26006KT 10SM BKN013 10/07 A3007 RMK AO2 T01000072=
202305281253 METAR KCLM 281253Z AUTO 27005KT 10SM FEW012 09/07 A3007 RMK AO2 SLP181 T00940067=
202305281240 SPECI KCLM 281240Z AUTO 26004KT 10SM FEW012 09/07 A3006 RMK AO2 T00940067=
202305281153 METAR KCLM 281153Z AUTO 26007KT 10SM BKN013 10/07 A3006 RMK AO2 SLP177 T01000072 10111 20094 50002=
202305281150 SPECI KCLM 281150Z AUTO 25007KT 10SM BKN013 10/07 A3006 RMK AO2=
202305281053 METAR KCLM 281053Z AUTO 26006KT 10SM CLR 09/07 A3005 RMK AO2 SLP175 T00940072=
202305280953 METAR KCLM 280953Z AUTO 27008KT 10SM CLR 10/07 A3005 RMK AO2 SLP175 T01000072=
202305280853 METAR KCLM 280853Z AUTO 27007KT 10SM SCT070 11/07 A3004 RMK AO2 SLP172 T01060072 50002=
202305280753 METAR KCLM 280753Z AUTO 27006KT 10SM FEW075 11/07 A3005 RMK AO2 SLP175 T01060072 401720106=
202305280653 METAR KCLM 280653Z AUTO 26009KT 10SM CLR 11/08 A3004 RMK AO2 SLP173 T01110078=
202305280553 METAR KCLM 280553Z AUTO 26007KT 10SM CLR 11/08 A3003 RMK AO2 SLP170 T01110078 10167 20106 51008=
202305280453 METAR KCLM 280453Z AUTO 28008KT 10SM FEW011 11/08 A3003 RMK AO2 SLP170 T01060078=
202305280353 METAR KCLM 280353Z AUTO 28009KT 10SM CLR 11/08 A3003 RMK AO2 SLP167 T01110078=
202305280253 METAR KCLM 280253Z AUTO 28006KT 10SM CLR 12/08 A3001 RMK AO2 SLP162 T01220078 53009=
202305280153 METAR KCLM 280153Z AUTO 29015KT 10SM CLR 14/08 A3000 RMK AO2 SLP158 T01440083=
202305280053 METAR KCLM 280053Z AUTO 29010G19KT 10SM CLR 16/08 A2999 RMK AO2 SLP156 T01560083=
202305272353 METAR KCLM 272353Z AUTO 30010G16KT 10SM CLR 17/09 A2998 RMK AO2 SLP153 T01670094 10172 20144 56007=
202305272253 METAR KCLM 272253Z AUTO 31008G17KT 10SM CLR 17/09 A2999 RMK AO2 SLP156 T01670094=
202305272153 METAR KCLM 272153Z AUTO 29008KT 10SM CLR 17/10 A2999 RMK AO2 SLP156 T01670100=
202305272053 METAR KCLM 272053Z AUTO 29009KT 10SM CLR 16/10 A3001 RMK AO2 SLP160 T01610100 55000=
202305271953 METAR KCLM 271953Z AUTO 29009KT 10SM CLR 16/10 A3000 RMK AO2 SLP159 T01560100=
202305271853 METAR KCLM 271853Z AUTO 30008KT 270V340 10SM CLR 16/10 A3000 RMK AO2 SLP160 T01610100=
202305271753 METAR KCLM 271753Z AUTO 31006KT 10SM FEW013 14/09 A3001 RMK AO2 SLP160 T01440094 10150 20106 53010=
202305271653 METAR KCLM 271653Z AUTO VRB05KT 10SM FEW013 FEW075 15/09 A2999 RMK AO2 SLP156 T01500094=
202305271553 METAR KCLM 271553Z AUTO 29008KT 10SM CLR 14/09 A2998 RMK AO2 SLP153 T01390094=
202305271501 SPECI KCLM 271501Z AUTO 30005KT 10SM SCT010 13/09 A2997 RMK AO2 T01330089=
202305271453 METAR KCLM 271453Z AUTO 32006KT 10SM BKN010 BKN100 13/09 A2998 RMK AO2 SLP150 T01330089 50006=
202305271450 SPECI KCLM 271450Z AUTO 27005KT 10SM BKN010 BKN100 13/09 A2998 RMK AO2=
202305271416 SPECI KCLM 271416Z AUTO 29006KT 10SM BKN009 12/09 A2997 RMK AO2 T01220089=
202305271353 METAR KCLM 271353Z AUTO 28009KT 10SM SCT008 12/09 A2997 RMK AO2 SLP147 T01170089=
202305271313 SPECI KCLM 271313Z AUTO 27007KT 10SM SCT007 11/09 A2996 RMK AO2 T01110089=
202305271253 METAR KCLM 271253Z AUTO 29007KT 10SM BKN007 11/09 A2996 RMK AO2 SLP144 T01110089=
202305271231 SPECI KCLM 271231Z AUTO 27006KT 9SM BKN006 11/09 A2996 RMK AO2 T01060089=
202305271216 SPECI KCLM 271216Z AUTO 27005KT 10SM FEW006 11/09 A2995 RMK AO2 T01060089=
202305271153 METAR KCLM 271153Z AUTO 28008KT 10SM CLR 11/09 A2994 RMK AO2 SLP139 T01110089 10122 20111 53005=
202305271053 METAR KCLM 271053Z AUTO 29009KT 10SM CLR 11/09 A2993 RMK AO2 SLP136 T01110089=
202305270953 METAR KCLM 270953Z AUTO 29013G20KT 10SM CLR 12/09 A2993 RMK AO2 SLP133 T01170094=
202305270853 METAR KCLM 270853Z AUTO 29012KT 10SM FEW006 12/09 A2993 RMK AO2 SLP134 T01170094 53001=
202305270816 SPECI KCLM 270816Z AUTO 26016KT 10SM FEW006 12/09 A2992 RMK AO2 T01170094=
202305270753 METAR KCLM 270753Z AUTO 28012KT 10SM CLR 12/09 A2993 RMK AO2 SLP134 T01170094 402170100=
202305270653 METAR KCLM 270653Z AUTO 29015G22KT 10SM CLR 12/09 A2992 RMK AO2 SLP130 T01170089=
202305270553 METAR KCLM 270553Z AUTO 28013G21KT 10SM CLR 12/09 A2992 RMK AO2 SLP133 T01170094 10194 20117 51014=
202305270453 METAR KCLM 270453Z AUTO 28010G16KT 10SM CLR 12/09 A2992 RMK AO2 SLP132 T01170089=
202305270353 METAR KCLM 270353Z AUTO 27011KT 10SM CLR 13/09 A2990 RMK AO2 SLP125 T01280094=
202305270253 METAR KCLM 270253Z AUTO VRB06KT 10SM CLR 17/09 A2988 RMK AO2 SLP119 T01670094 56004=
202305270153 METAR KCLM 270153Z AUTO 29009G17KT 10SM CLR 18/10 A2989 RMK AO2 SLP120 T01830100=
202305270053 METAR KCLM 270053Z AUTO 30009KT 10SM CLR 19/11 A2989 RMK AO2 SLP123 T01890106=
202305262353 METAR KCLM 262353Z AUTO 30006KT 10SM CLR 19/11 A2990 RMK AO2 SLP124 T01940111 10217 20189 58010=
202305262253 METAR KCLM 262253Z AUTO 31007KT 10SM CLR 19/11 A2991 RMK AO2 SLP129 T01940106=
202305262153 METAR KCLM 262153Z AUTO 32005KT 10SM CLR 21/11 A2992 RMK AO2 SLP130 T02110111=
202305262053 METAR KCLM 262053Z AUTO 34005KT 10SM CLR 20/12 A2993 RMK AO2 SLP133 T02000117 58005=
202305261953 METAR KCLM 261953Z AUTO VRB03KT 10SM CLR 21/12 A2994 RMK AO2 SLP137 T02060117=
202305261853 METAR KCLM 261853Z AUTO 32006KT 10SM CLR 20/12 A2994 RMK AO2 SLP136 T02000117=
202305261753 METAR KCLM 261753Z AUTO 03005KT 10SM CLR 21/11 A2994 RMK AO2 SLP138 T02110111 10217 20100 58001=
202305261653 METAR KCLM 261653Z AUTO 33004KT 10SM CLR 20/11 A2995 RMK AO2 SLP141 T02000111=
202305261553 METAR KCLM 261553Z AUTO 00000KT 10SM CLR 19/12 A2995 RMK AO2 SLP141 T01890117=
202305261453 METAR KCLM 261453Z AUTO 00000KT 10SM CLR 17/11 A2994 RMK AO2 SLP139 T01670111 53005=
202305261353 METAR KCLM 261353Z AUTO 00000KT 10SM CLR 16/09 A2994 RMK AO2 SLP137 T01560089=
202305261253 METAR KCLM 261253Z AUTO 00000KT 10SM CLR 11/07 A2993 RMK AO2 SLP135 T01060072=
202305261153 METAR KCLM 261153Z AUTO 00000KT 10SM CLR 11/08 A2993 RMK AO2 SLP133 T01060078 10183 20106 53008=
202305261053 METAR KCLM 261053Z AUTO 00000KT 10SM CLR 11/08 A2992 RMK AO2 SLP131 T01110078=
202305260953 METAR KCLM 260953Z AUTO 25005KT 10SM CLR 14/07 A2991 RMK AO2 SLP126 T01440072=
202305260853 METAR KCLM 260853Z AUTO 24010KT 10SM CLR 17/07 A2990 RMK AO2 SLP125 T01720072 58003=
202305260753 METAR KCLM 260753Z AUTO 25010KT 10SM CLR 18/07 A2991 RMK AO2 SLP126 T01830072 402560083=
202305260653 METAR KCLM 260653Z AUTO 24008KT 10SM CLR 17/08 A2991 RMK AO2 SLP127 T01670083=
202305260553 METAR KCLM 260553Z AUTO 28005KT 10SM CLR 14/08 A2991 RMK AO2 SLP129 T01440083 10256 20133 51006=
202305260453 METAR KCLM 260453Z AUTO 28007KT 10SM CLR 14/08 A2991 RMK AO2 SLP129 T01440083=
202305260353 METAR KCLM 260353Z AUTO 29003KT 10SM CLR 14/09 A2990 RMK AO2 SLP124 T01390089=
202305260253 METAR KCLM 260253Z AUTO 00000KT 10SM CLR 18/11 A2989 RMK AO2 SLP121 T01780106 56004=
202305260153 METAR KCLM 260153Z AUTO 30005KT 10SM CLR 18/10 A2990 RMK AO2 SLP123 T01780100=
202305260053 METAR KCLM 260053Z AUTO VRB03KT 10SM CLR 24/09 A2989 RMK AO2 SLP120 T02440094=
202305252353 METAR KCLM 252353Z AUTO VRB03KT 10SM CLR 25/09 A2991 RMK AO2 SLP127 T02500094 10250 20194 58017=
202305252253 METAR KCLM 252253Z AUTO 11004KT 10SM CLR 24/11 A2993 RMK AO2 SLP133 T02390106=
202305252153 METAR KCLM 252153Z AUTO VRB04KT 10SM CLR 23/09 A2994 RMK AO2 SLP139 T02280094=
202305252053 METAR KCLM 252053Z AUTO VRB04KT 10SM CLR 22/09 A2996 RMK AO2 SLP144 T02220094 58012=
202305251953 METAR KCLM 251953Z AUTO VRB04KT 10SM CLR 22/09 A2997 RMK AO2 SLP149 T02170094=
202305251853 METAR KCLM 251853Z AUTO 07008KT 10SM CLR 20/09 A2999 RMK AO2 SLP154 T02000094=
202305251753 METAR KCLM 251753Z AUTO 04005KT 10SM CLR 19/08 A2999 RMK AO2 SLP156 T01940083 10194 20083 58004=
202305251653 METAR KCLM 251653Z AUTO 03005KT 10SM CLR 19/08 A3000 RMK AO2 SLP158 T01890083 TSNO=
202305251553 METAR KCLM 251553Z AUTO 08007KT 10SM CLR 18/08 A3000 RMK AO2 SLP159 T01830078 TSNO=
202305251453 METAR KCLM 251453Z AUTO 10008KT 10SM CLR 17/09 A3001 RMK AO2 SLP160 T01720089 51003=
202305251353 METAR KCLM 251353Z AUTO 00000KT 10SM CLR 12/09 A3000 RMK AO2 SLP160 T01220089=
202305251253 METAR KCLM 251253Z AUTO 00000KT 10SM CLR 09/07 A3000 RMK AO2 SLP158 T00890067=
202305251153 METAR KCLM 251153Z AUTO 00000KT 10SM CLR 08/06 A3000 RMK AO2 SLP157 T00830061 10139 20083 56007=
202305251053 METAR KCLM 251053Z AUTO 00000KT 10SM CLR 09/06 A3000 RMK AO2 SLP158 T00890061=
202305250953 METAR KCLM 250953Z AUTO 00000KT 10SM CLR 09/06 A3000 RMK AO2 SLP159 T00890061=
202305250853 METAR KCLM 250853Z AUTO 32003KT 10SM FEW050 11/07 A3002 RMK AO2 SLP164 T01060072 55004=
202305250753 METAR KCLM 250753Z AUTO 28010G15KT 10SM CLR 13/07 A3001 RMK AO2 SLP161 T01330072 401830106=
202305250653 METAR KCLM 250653Z AUTO 28007KT 10SM CLR 13/07 A3001 RMK AO2 SLP162 T01330072=
202305250553 METAR KCLM 250553Z AUTO 28009KT 10SM CLR 12/07 A3003 RMK AO2 SLP168 T01220067 10167 20106 50002=
202305250453 METAR KCLM 250453Z AUTO 23003KT 10SM CLR 11/07 A3003 RMK AO2 SLP170 T01110067=
202305250353 METAR KCLM 250353Z AUTO 00000KT 10SM CLR 13/07 A3003 RMK AO2 SLP169 T01330067=
202305250253 METAR KCLM 250253Z AUTO 27004KT 10SM CLR 15/06 A3002 RMK AO2 SLP166 T01500061 58012=
202305250153 METAR KCLM 250153Z AUTO 30004KT 10SM CLR 16/07 A3004 RMK AO2 SLP171 T01610067=
202305250053 METAR KCLM 250053Z AUTO VRB06KT 10SM CLR 16/08 A3005 RMK AO2 SLP176 T01610083=
202305242353 METAR KCLM 242353Z AUTO 35003KT 10SM CLR 17/09 A3006 RMK AO2 SLP178 T01670094 10183 20139 58013=
202305242253 METAR KCLM 242253Z AUTO 00000KT 10SM CLR 16/09 A3007 RMK AO2 SLP184 T01610089=
202305242153 METAR KCLM 242153Z AUTO 35006KT 10SM CLR 16/08 A3008 RMK AO2 SLP187 T01610083=
202305242053 METAR KCLM 242053Z AUTO VRB04KT 10SM CLR 17/09 A3010 RMK AO2 SLP191 T01720089 58005=
202305241953 METAR KCLM 241953Z AUTO VRB05KT 10SM SCT100 17/08 A3011 RMK AO2 SLP196 T01720083=
202305241853 METAR KCLM 241853Z AUTO VRB04KT 10SM FEW100 17/08 A3011 RMK AO2 SLP195 T01670083=
202305241753 METAR KCLM 241753Z AUTO 34004KT 10SM SCT120 14/08 A3011 RMK AO2 SLP197 T01390083 10156 20117 56004=
202305241653 METAR KCLM 241653Z AUTO 00000KT 10SM SCT055 15/09 A3011 RMK AO2 SLP197 T01500094=
202305241553 METAR KCLM 241553Z AUTO 00000KT 10SM OVC055 14/09 A3011 RMK AO2 SLP197 T01390089=
202305241453 METAR KCLM 241453Z AUTO 30004KT 10SM OVC055 12/08 A3012 RMK AO2 SLP201 T01220078 50007=
202305241353 METAR KCLM 241353Z AUTO 28007KT 10SM OVC055 12/07 A3012 RMK AO2 SLP202 T01220072=
202305241253 METAR KCLM 241253Z AUTO 27005KT 10SM OVC055 12/07 A3011 RMK AO2 SLP195 T01220072=
202305241153 METAR KCLM 241153Z AUTO 30003KT 10SM OVC055 12/07 A3010 RMK AO2 SLP193 T01170072 10122 20100 55001=
202305241053 METAR KCLM 241053Z AUTO 24006KT 10SM OVC060 12/08 A3010 RMK AO2 SLP193 T01220078=
202305240953 METAR KCLM 240953Z AUTO 27005KT 10SM OVC060 12/08 A3011 RMK AO2 SLP194 T01170078=
202305240853 METAR KCLM 240853Z AUTO 29006KT 10SM BKN060 OVC100 12/08 A3011 RMK AO2 SLP195 T01170078 56003=
202305240753 METAR KCLM 240753Z AUTO 27006KT 10SM OVC100 11/08 A3011 RMK AO2 SLP196 T01110078 401670056=
202305240653 METAR KCLM 240653Z AUTO 23004KT 10SM OVC100 11/07 A3011 RMK AO2 SLP195 T01060072=
202305240553 METAR KCLM 240553Z AUTO 27003KT 10SM OVC110 10/07 A3012 RMK AO2 SLP199 T01000072 10167 20094 51002=
202305240453 METAR KCLM 240453Z AUTO 26003KT 10SM SCT100 10/07 A3011 RMK AO2 SLP199 T01000072=
202305240353 METAR KCLM 240353Z AUTO 26003KT 10SM SCT060 11/07 A3011 RMK AO2 SLP198 T01110072=
202305240253 METAR KCLM 240253Z AUTO 29003KT 10SM OVC060 12/07 A3011 RMK AO2 SLP197 T01170072 52001=
202305240153 METAR KCLM 240153Z AUTO 30005KT 10SM SCT060 12/07 A3011 RMK AO2 SLP197 T01220067=
202305240053 METAR KCLM 240053Z AUTO VRB05KT 10SM SCT120 14/06 A3011 RMK AO2 SLP196 T01440061=
202305232353 METAR KCLM 232353Z AUTO 09005KT 10SM CLR 16/07 A3011 RMK AO2 SLP196 T01560067 10156 20128 58008=
202305232253 METAR KCLM 232253Z AUTO 36003KT 10SM CLR 13/07 A3013 RMK AO2 SLP203 T01330067=
202305232153 METAR KCLM 232153Z AUTO 02004KT 10SM SCT060 14/07 A3013 RMK AO2 SLP204 T01440072=
202305232053 METAR KCLM 232053Z AUTO VRB03KT 10SM CLR 16/08 A3013 RMK AO2 SLP204 T01560078 58003=
202305231953 METAR KCLM 231953Z AUTO VRB05KT 10SM CLR 14/07 A3014 RMK AO2 SLP206 T01390067=
202305231853 METAR KCLM 231853Z AUTO VRB04KT 10SM CLR 14/06 A3014 RMK AO2 SLP208 T01440061=
202305231753 METAR KCLM 231753Z AUTO VRB04KT 10SM CLR 14/06 A3014 RMK AO2 SLP207 T01390056 10139 20056 56007=
202305231653 METAR KCLM 231653Z AUTO 01005KT 10SM CLR 13/06 A3014 RMK AO2 SLP208 T01330061=
202305231553 METAR KCLM 231553Z AUTO 00000KT 10SM CLR 13/06 A3015 RMK AO2 SLP211 T01330056=
202305231453 METAR KCLM 231453Z AUTO 24005KT 10SM CLR 12/06 A3016 RMK AO2 SLP214 T01170061 50004=
202305231353 METAR KCLM 231353Z AUTO 24005KT 10SM CLR 09/05 A3017 RMK AO2 SLP216 T00940050=
202305231253 METAR KCLM 231253Z AUTO 22004KT 10SM CLR 07/04 A3016 RMK AO2 SLP214 T00720039=
202305231153 METAR KCLM 231153Z AUTO 26003KT 10SM CLR 06/03 A3015 RMK AO2 SLP211 T00610033 10089 20056 56013=
202305231053 METAR KCLM 231053Z AUTO 24004KT 10SM CLR 07/04 A3015 RMK AO2 SLP212 T00720039=
202305230953 METAR KCLM 230953Z AUTO 23004KT 10SM CLR 07/04 A3017 RMK AO2 SLP216 T00720044=
202305230853 METAR KCLM 230853Z AUTO 23005KT 10SM OVC045 09/06 A3019 RMK AO2 SLP223 T00890056 50004=
202305230753 METAR KCLM 230753Z AUTO 23004KT 10SM CLR 08/04 A3019 RMK AO2 SLP224 T00780044 401560056=
202305230653 METAR KCLM 230653Z AUTO 23005KT 10SM CLR 08/05 A3018 RMK AO2 SLP221 T00830050=
202305230553 METAR KCLM 230553Z AUTO 25003KT 10SM CLR 08/05 A3018 RMK AO2 SLP219 T00780050 10150 20078 51001=
202305230453 METAR KCLM 230453Z AUTO 00000KT 10SM FEW038 09/06 A3018 RMK AO2 SLP219 T00940056=
202305230353 METAR KCLM 230353Z AUTO 29006KT 10SM OVC043 11/06 A3017 RMK AO2 SLP219 T01110061=
202305230253 METAR KCLM 230253Z AUTO 29008G19KT 10SM CLR 12/07 A3017 RMK AO2 SLP218 T01170067 55001=
202305230153 METAR KCLM 230153Z AUTO 29011G17KT 10SM FEW047 13/07 A3017 RMK AO2 SLP218 T01280067=
202305230053 METAR KCLM 230053Z AUTO 31009G17KT 10SM BKN030 OVC039 14/07 A3018 RMK AO2 SLP218 T01440067=
202305222353 METAR KCLM 222353Z AUTO 32010G17KT 10SM SCT033 OVC045 14/06 A3018 RMK AO2 SLP218 T01440061 10156 20128 58000=
202305222253 METAR KCLM 222253Z AUTO 10SM SCT033 OVC042 16/07 A3018 RMK AO2 SLP218 T01560072=
202305222153 METAR KCLM 222153Z AUTO 33005KT 10SM OVC032 15/07 A3018 RMK AO2 SLP219 T01500072=
202305222053 METAR KCLM 222053Z AUTO VRB03KT 10SM OVC032 14/07 A3018 RMK AO2 SLP219 T01440072 50001=
202305221953 METAR KCLM 221953Z AUTO 34005KT 10SM FEW027 OVC039 14/08 A3018 RMK AO2 SLP220 T01390078=
202305221853 METAR KCLM 221853Z AUTO 10SM OVC025 13/07 A3017 RMK AO2 SLP219 T01330072=
202305221753 METAR KCLM 221753Z AUTO 35005KT 10SM OVC021 13/07 A3017 RMK AO2 SLP216 T01330072 10133 20106 51002=
202305221716 SPECI KCLM 221716Z AUTO 32006KT 10SM BKN022 BKN060 13/07 A3017 RMK AO2 T01280072=
202305221653 METAR KCLM 221653Z AUTO VRB04KT 10SM FEW021 13/08 A3017 RMK AO2 SLP215 T01330078=
202305221553 METAR KCLM 221553Z AUTO VRB05KT 10SM SCT016 OVC065 13/08 A3017 RMK AO2 SLP215 T01330078=
202305221453 METAR KCLM 221453Z AUTO 03003KT 10SM OVC065 12/07 A3016 RMK AO2 SLP214 T01170072 58004=
202305221353 METAR KCLM 221353Z AUTO 00000KT 10SM BKN047 OVC065 12/08 A3017 RMK AO2 SLP215 T01170078=
202305221253 METAR KCLM 221253Z AUTO 00000KT 10SM OVC046 11/07 A3017 RMK AO2 SLP218 T01060072=
202305221153 METAR KCLM 221153Z AUTO 00000KT 10SM BKN048 OVC065 11/07 A3017 RMK AO2 SLP219 T01060072 10122 20100 55001=
202305221053 METAR KCLM 221053Z AUTO 27004KT 10SM OVC046 11/07 A3017 RMK AO2 SLP218 T01060072=
202305220953 METAR KCLM 220953Z AUTO 27006KT 10SM OVC048 11/07 A3017 RMK AO2 SLP217 T01060072=
202305220853 METAR KCLM 220853Z AUTO 28005KT 10SM BKN049 OVC065 11/07 A3018 RMK AO2 SLP219 T01060072 56001=
202305220753 METAR KCLM 220753Z AUTO 29006KT 10SM CLR 10/07 A3018 RMK AO2 SLP220 T01000072 401560100=
202305220653 METAR KCLM 220653Z AUTO 29006KT 10SM CLR 11/06 A3018 RMK AO2 SLP220 T01110061=
202305220553 METAR KCLM 220553Z AUTO 29006KT 10SM OVC050 12/06 A3018 RMK AO2 SLP219 T01170061 10144 20117 50003=
202305220453 METAR KCLM 220453Z AUTO 27010G18KT 10SM SCT047 13/04 A3018 RMK AO2 SLP220 T01330044=
202305220353 METAR KCLM 220353Z AUTO 31009KT 10SM CLR 12/06 A3017 RMK AO2 SLP218 T01220061=
202305220253 METAR KCLM 220253Z AUTO 29011G22KT 10SM CLR 13/04 A3017 RMK AO2 PK WND 31029/0201 SLP216 T01330044 55006=
202305220153 METAR KCLM 220153Z AUTO 30013G28KT 10SM CLR 14/06 A3016 RMK AO2 PK WND 30031/0141 SLP214 T01390056=
202305220053 METAR KCLM 220053Z AUTO 30019G29KT 10SM CLR 13/07 A3017 RMK AO2 PK WND 29035/0039 SLP219 T01330072=
202305212353 METAR KCLM 212353Z AUTO 29018G28KT 10SM CLR 14/08 A3019 RMK AO2 PK WND 29031/2300 SLP223 T01390078 10144 20128 58012=
202305212253 METAR KCLM 212253Z AUTO 28013G28KT 10SM CLR 14/08 A3020 RMK AO2 PK WND 30031/2228 SLP228 T01390083=
202305212153 METAR KCLM 212153Z AUTO 30018G28KT 10SM BKN036 14/08 A3021 RMK AO2 PK WND 28028/2147 SLP231 T01390083=
202305212053 METAR KCLM 212053Z AUTO 29013G26KT 10SM BKN030 13/08 A3022 RMK AO2 PK WND 28026/2041 SLP235 T01330083 51004=
202305211953 METAR KCLM 211953Z AUTO 29015G24KT 10SM SCT035 14/09 A3022 RMK AO2 SLP234 T01390089=
202305211853 METAR KCLM 211853Z AUTO 29018G28KT 10SM FEW012 BKN035 13/09 A3022 RMK AO2 PK WND 29028/1852 SLP233 T01330089=
202305211833 SPECI KCLM 211833Z AUTO 29015G24KT 10SM FEW009 BKN031 13/09 A3022 RMK AO2 PK WND 28026/1805 T01330089=
202305211753 METAR KCLM 211753Z AUTO 30012G27KT 10SM FEW010 OVC031 13/09 A3021 RMK AO2 PK WND 29027/1751 SLP230 T01330094 10156 20111 52007=
202305211710 SPECI KCLM 211710Z AUTO 31011G21KT 10SM FEW009 BKN033 13/09 A3021 RMK AO2 T01330094=
202305211653 METAR KCLM 211653Z AUTO 30011G18KT 10SM FEW031 14/09 A3021 RMK AO2 SLP228 T01440094=
202305211553 METAR KCLM 211553Z AUTO VRB05G15KT 10SM CLR 15/09 A3020 RMK AO2 SLP225 T01500089=
202305211453 METAR KCLM 211453Z AUTO 28008KT 10SM CLR 13/08 A3019 RMK AO2 SLP223 T01280083 53005=
202305211353 METAR KCLM 211353Z AUTO 26007KT 10SM FEW012 11/08 A3019 RMK AO2 SLP223 T01110083=
202305211253 METAR KCLM 211253Z AUTO 27009KT 10SM FEW011 11/08 A3017 RMK AO2 SLP217 T01110083=
202305211249 SPECI KCLM 211249Z AUTO 27009KT 10SM SCT011 SCT060 11/08 A3017 RMK AO2=
202305211153 METAR KCLM 211153Z AUTO 26009KT 10SM OVC011 11/08 A3018 RMK AO2 SLP218 T01110083 10117 20106 53006=
202305211104 SPECI KCLM 211104Z AUTO 27008G17KT 10SM BKN010 11/08 A3017 RMK AO2 T01110083=
202305211053 METAR KCLM 211053Z AUTO 26010G17KT 10SM BKN009 11/08 A3016 RMK AO2 SLP215 T01110083=
202305211049 SPECI KCLM 211049Z AUTO 26010G17KT 10SM BKN009 11/08 A3016 RMK AO2=
202305211035 SPECI KCLM 211035Z AUTO 26008G19KT 10SM SCT009 11/08 A3016 RMK AO2 T01110083=
202305211007 SPECI KCLM 211007Z AUTO 26009KT 10SM BKN009 11/08 A3016 RMK AO2 T01110083=
202305210953 METAR KCLM 210953Z AUTO 26011KT 10SM FEW008 11/08 A3016 RMK AO2 SLP212 T01110083=
202305210900 SPECI KCLM 210900Z AUTO 27010KT 10SM SCT008 11/08 A3016 RMK AO2 T01110083=
202305210853 METAR KCLM 210853Z AUTO 27011G20KT 10SM BKN009 11/08 A3016 RMK AO2 SLP213 T01110083 53004=
202305210841 SPECI KCLM 210841Z AUTO 27010KT 10SM BKN009 11/09 A3016 RMK AO2 T01110089=
202305210753 METAR KCLM 210753Z AUTO 27012G24KT 10SM FEW007 11/09 A3016 RMK AO2 SLP211 T01110089 401720111=
202305210740 SPECI KCLM 210740Z AUTO 27014G22KT 10SM FEW007 11/09 A3015 RMK AO2 T01110089=
202305210653 METAR KCLM 210653Z AUTO 27014KT 10SM CLR 11/09 A3015 RMK AO2 SLP209 T01110089=
202305210553 METAR KCLM 210553Z AUTO 28011KT 10SM BKN070 12/09 A3015 RMK AO2 SLP209 T01170089 10156 20117 52007=
202305210535 SPECI KCLM 210535Z AUTO 28015G21KT 10SM SCT007 12/09 A3014 RMK AO2 T01170089=
202305210453 METAR KCLM 210453Z AUTO 28012G22KT 10SM BKN007 OVC070 12/09 A3014 RMK AO2 SLP207 T01170094=
202305210353 METAR KCLM 210353Z AUTO 27013G21KT 10SM OVC008 12/09 A3013 RMK AO2 SLP204 T01220094=
202305210253 METAR KCLM 210253Z AUTO 27013G20KT 10SM OVC008 13/10 A3013 RMK AO2 SLP202 T01280100 53003=
202305210153 METAR KCLM 210153Z AUTO 28013G20KT 10SM OVC008 13/10 A3012 RMK AO2 SLP199 T01330100=
202305210123 SPECI KCLM 210123Z AUTO 29010G20KT 10SM BKN009 14/10 A3012 RMK AO2 T01440100=
202305210110 SPECI KCLM 210110Z AUTO 29008G18KT 260V320 10SM SCT009 14/10 A3012 RMK AO2 T01440100=
202305210053 METAR KCLM 210053Z AUTO 29010G19KT 10SM CLR 15/11 A3012 RMK AO2 SLP198 T01500106=
202305202353 METAR KCLM 202353Z AUTO 30012KT 10SM CLR 16/11 A3012 RMK AO2 SLP199 T01560106 10172 20144 58011=
202305202253 METAR KCLM 202253Z AUTO 29012KT 10SM CLR 16/11 A3013 RMK AO2 SLP203 T01610111=
202305202153 METAR KCLM 202153Z AUTO 29009G17KT 10SM CLR 17/11 A3014 RMK AO2 SLP208 T01670111=
202305202053 METAR KCLM 202053Z AUTO 29011G16KT 10SM CLR 16/11 A3015 RMK AO2 SLP210 T01610111 58003=
202305201953 METAR KCLM 201953Z AUTO 31009G16KT 10SM CLR 16/11 A3016 RMK AO2 SLP212 T01610106=
202305201853 METAR KCLM 201853Z AUTO 30009KT 10SM CLR 16/11 A3016 RMK AO2 SLP214 T01560106=
202305201753 METAR KCLM 201753Z AUTO 30008KT 280V340 10SM CLR 14/10 A3016 RMK AO2 SLP214 T01440100 10144 20111 56006=
202305201653 METAR KCLM 201653Z AUTO 29010G16KT 10SM CLR 14/10 A3016 RMK AO2 SLP214 T01390100=
202305201601 SPECI KCLM 201601Z AUTO 29007KT 10SM FEW008 14/10 A3017 RMK AO2 T01390100=
202305201553 METAR KCLM 201553Z AUTO 28007KT 10SM BKN008 13/09 A3017 RMK AO2 SLP216 T01330094=
202305201453 METAR KCLM 201453Z AUTO 29011G16KT 10SM OVC006 12/09 A3018 RMK AO2 SLP219 T01220094 53014=
202305201353 METAR KCLM 201353Z AUTO 27008KT 10SM OVC005 12/09 A3017 RMK AO2 SLP215 T01170094=
202305201330 SPECI KCLM 201330Z AUTO 28009KT 10SM OVC005 12/09 A3016 RMK AO2 T01170094=
202305201253 METAR KCLM 201253Z AUTO 30009KT 10SM OVC004 11/09 A3015 RMK AO2 SLP209 T01110094=
202305201153 METAR KCLM 201153Z AUTO 28009KT 10SM OVC004 11/09 A3014 RMK AO2 SLP206 T01110094 10128 20111 53006=
202305201053 METAR KCLM 201053Z AUTO 28010KT 10SM OVC003 11/09 A3014 RMK AO2 SLP205 T01110094=
202305200953 METAR KCLM 200953Z AUTO 29012KT 10SM BKN003 11/09 A3012 RMK AO2 SLP200 T01110094=
202305200928 SPECI KCLM 200928Z AUTO 29009KT 10SM BKN003 11/09 A3013 RMK AO2 T01110094=
202305200915 SPECI KCLM 200915Z AUTO 29009G19KT 10SM SCT003 11/09 A3012 RMK AO2 T01110094=
202305200902 SPECI KCLM 200902Z AUTO 28012KT 10SM BKN004 11/09 A3012 RMK AO2 T01110094=
202305200853 METAR KCLM 200853Z AUTO 29012KT 10SM SCT004 11/09 A3012 RMK AO2 SLP200 T01110094 53007=
202305200839 SPECI KCLM 200839Z AUTO 29010KT 10SM SCT004 11/09 A3012 RMK AO2 T01110094=
202305200753 METAR KCLM 200753Z AUTO 29009KT 10SM CLR 12/09 A3011 RMK AO2 SLP197 T01170094 401830111=
202305200653 METAR KCLM 200653Z AUTO 29009KT 10SM SCT110 12/09 A3011 RMK AO2 SLP195 T01220094=
202305200553 METAR KCLM 200553Z AUTO 29008KT 10SM CLR 13/09 A3010 RMK AO2 SLP193 T01280094 10183 20128 50004=
202305200453 METAR KCLM 200453Z AUTO 30005KT 10SM CLR 13/09 A3011 RMK AO2 SLP194 T01330094=
202305200353 METAR KCLM 200353Z AUTO 26007KT 10SM FEW120 14/10 A3010 RMK AO2 SLP191 T01390100=
202305200253 METAR KCLM 200253Z AUTO 27011G14KT 10SM CLR 15/11 A3009 RMK AO2 SLP189 T01500106 55006=
202305200153 METAR KCLM 200153Z AUTO 30009KT 10SM CLR 16/11 A3008 RMK AO2 SLP187 T01610106=
202305200053 METAR KCLM 200053Z AUTO 30006KT 10SM CLR 18/11 A3010 RMK AO2 SLP191 T01780106=
202305192353 METAR KCLM 192353Z AUTO 29004KT 10SM CLR 18/11 A3011 RMK AO2 SLP195 T01780111 10183 20161 58013=
202305192253 METAR KCLM 192253Z AUTO 30008KT 10SM CLR 17/11 A3013 RMK AO2 SLP202 T01720111=
202305192153 METAR KCLM 192153Z AUTO 31008KT 10SM CLR 17/11 A3014 RMK AO2 SLP207 T01720111=
202305192053 METAR KCLM 192053Z AUTO 29011KT 10SM CLR 17/11 A3015 RMK AO2 SLP208 T01720111 58004=
202305191953 METAR KCLM 191953Z AUTO 32007KT 10SM CLR 17/11 A3015 RMK AO2 SLP210 T01720111=
202305191853 SPECI KCLM 191853Z AUTO 31007KT 270V340 10SM CLR 17/11 A3016 RMK AO2 SLP212 T01670106=
202305191853 METAR KCLM 191853Z AUTO 31007KT 270V340 10SM CLR 17/11 A3016 RMK AO2 SLP212 T01670106=
202305191753 METAR KCLM 191753Z AUTO 33006KT 10SM CLR 16/11 A3016 RMK AO2 SLP213 T01610106 10161 20111 51002=
202305191653 METAR KCLM 191653Z AUTO VRB06KT 10SM CLR 16/11 A3016 RMK AO2 SLP213 T01560106=
202305191639 SPECI KCLM 191639Z AUTO 30006KT 10SM SCT013 15/10 A3016 RMK AO2 T01500100=
202305191553 METAR KCLM 191553Z AUTO 30005KT 10SM OVC012 14/09 A3016 RMK AO2 SLP212 T01390094=
202305191453 METAR KCLM 191453Z AUTO 28006KT 10SM BKN013 13/09 A3015 RMK AO2 SLP211 T01280094 51013=
202305191405 SPECI KCLM 191405Z AUTO 28008KT 10SM BKN013 12/09 A3014 RMK AO2 T01220094=
202305191353 METAR KCLM 191353Z AUTO 28007KT 10SM FEW014 SCT080 12/09 A3014 RMK AO2 SLP207 T01220094=
202305191339 SPECI KCLM 191339Z AUTO 27006KT 10SM SCT014 SCT080 12/09 A3014 RMK AO2 T01170089=
202305191253 METAR KCLM 191253Z AUTO 27006KT 10SM OVC014 11/09 A3013 RMK AO2 SLP202 T01110089=
202305191153 METAR KCLM 191153Z AUTO 27008KT 10SM BKN011 12/09 A3012 RMK AO2 SLP198 T01170089 10122 20111 53007=
202305191146 SPECI KCLM 191146Z AUTO 27007KT 10SM BKN011 12/09 A3012 RMK AO2 T01170089=
202305191053 METAR KCLM 191053Z AUTO 28008KT 10SM FEW011 12/09 A3011 RMK AO2 SLP196 T01170094=
202305190953 METAR KCLM 190953Z AUTO 28008KT 10SM SCT012 12/09 A3010 RMK AO2 SLP192 T01170094=
202305190853 METAR KCLM 190853Z AUTO 28009KT 10SM CLR 12/09 A3010 RMK AO2 SLP191 T01220094 51010=
202305190753 METAR KCLM 190753Z AUTO 28013G20KT 10SM CLR 12/09 A3009 RMK AO2 SLP189 T01220094 401780094=
202305190653 METAR KCLM 190653Z AUTO 28012G21KT 10SM SCT095 12/09 A3008 RMK AO2 SLP186 T01220094=
202305190553 METAR KCLM 190553Z AUTO 28009G17KT 10SM CLR 12/10 A3007 RMK AO2 SLP181 T01220100 10172 20122 51012=
202305190453 METAR KCLM 190453Z AUTO 28012KT 10SM CLR 13/10 A3006 RMK AO2 SLP180 T01280100=
202305190353 METAR KCLM 190353Z AUTO 27009G21KT 10SM CLR 13/10 A3005 RMK AO2 SLP176 T01280100=
202305190253 METAR KCLM 190253Z AUTO 29010G17KT 10SM CLR 14/11 A3003 RMK AO2 SLP169 T01390106 53007=
202305190153 METAR KCLM 190153Z AUTO 28014G20KT 10SM CLR 15/11 A3002 RMK AO2 SLP164 T01500106=
202305190053 METAR KCLM 190053Z AUTO 27010G18KT 10SM CLR 17/12 A3001 RMK AO2 SLP163 T01670117=
202305182353 METAR KCLM 182353Z AUTO 29012G23KT 10SM CLR 17/12 A3001 RMK AO2 SLP162 T01670117 10178 20156 53003=
202305182253 METAR KCLM 182253Z AUTO 30011G23KT 10SM CLR 17/12 A3000 RMK AO2 SLP160 T01720117=
202305182153 METAR KCLM 182153Z AUTO 29009KT 10SM CLR 18/12 A3000 RMK AO2 SLP158 T01780122=
202305182053 METAR KCLM 182053Z AUTO 29010KT 10SM CLR 17/12 A3000 RMK AO2 SLP159 T01670117 52013=
202305181953 METAR KCLM 181953Z AUTO 30011G17KT 10SM CLR 17/12 A2999 RMK AO2 SLP154 T01670117=
202305181853 METAR KCLM 181853Z AUTO 31010KT 10SM CLR 16/12 A2998 RMK AO2 SLP152 T01610117=
202305181753 METAR KCLM 181753Z AUTO 32008KT 10SM CLR 15/11 A2996 RMK AO2 SLP146 T01500111 10156 20094 53008=
202305181702 SPECI KCLM 181702Z AUTO 30009KT 10SM FEW006 14/11 A2996 RMK AO2 T01440111=
202305181653 METAR KCLM 181653Z AUTO 30009KT 10SM CLR 14/11 A2996 RMK AO2 SLP144 T01440111=
202305181629 SPECI KCLM 181629Z AUTO 30007KT 10SM SCT005 14/11 A2995 RMK AO2 T01390111=
202305181553 METAR KCLM 181553Z AUTO 30006KT 10SM BKN005 13/11 A2994 RMK AO2 SLP139 T01330111=
202305181541 SPECI KCLM 181541Z AUTO 27007KT 10SM BKN005 13/11 A2994 RMK AO2 T01330111=
202305181453 METAR KCLM 181453Z AUTO 30006KT 10SM OVC002 12/11 A2994 RMK AO2 SLP138 T01170106 53009=
202305181427 SPECI KCLM 181427Z AUTO 29004KT 8SM OVC002 11/10 A2993 RMK AO2 T01110100=
202305181420 SPECI KCLM 181420Z AUTO 29006KT 2 1/2SM BR OVC002 11/10 A2993 RMK AO2 T01110100=
202305181414 SPECI KCLM 181414Z AUTO 28006KT 3/4SM BR OVC002 11/10 A2993 RMK AO2 T01110100=
202305181400 SPECI KCLM 181400Z AUTO 27005KT 1 3/4SM BR OVC002 11/09 A2993 RMK AO2 VIS 1V5 T01110094=
202305181353 METAR KCLM 181353Z AUTO 29006KT 6SM BR OVC002 11/09 A2993 RMK AO2 SLP135 T01110094=
202305181344 SPECI KCLM 181344Z AUTO 28005KT 1SM BR VV002 11/09 A2993 RMK AO2 T01110094=
202305181316 SPECI KCLM 181316Z AUTO 29004KT 1/4SM FG OVC002 11/09 A2991 RMK AO2 T01060089=
202305181310 SPECI KCLM 181310Z AUTO 30003KT 1 1/2SM BR OVC002 11/09 A2991 RMK AO2 T01060089=
202305181253 METAR KCLM 181253Z AUTO 28004KT 10SM BKN003 10/08 A2991 RMK AO2 SLP128 T01000083=
202305181251 SPECI KCLM 181251Z AUTO 29003KT 10SM SCT003 10/08 A2991 RMK AO2=
202305181153 METAR KCLM 181153Z AUTO 00000KT 8SM CLR 11/09 A2990 RMK AO2 SLP123 T01060089 10128 20100 55000=
202305181111 SPECI KCLM 181111Z AUTO 00000KT 10SM SCT001 11/09 A2989 RMK AO2 T01060089=
202305181053 METAR KCLM 181053Z AUTO 00000KT 9SM OVC002 11/09 A2989 RMK AO2 SLP121 T01060094=
202305181048 SPECI KCLM 181048Z AUTO 00000KT 10SM OVC002 11/09 A2989 RMK AO2=
202305181040 SPECI KCLM 181040Z AUTO 25003KT 2SM BR OVC002 11/09 A2989 RMK AO2 T01060094=
202305181036 SPECI KCLM 181036Z AUTO 25003KT 3/4SM BR OVC002 11/09 A2989 RMK AO2 T01060094=
202305181026 SPECI KCLM 181026Z AUTO 26003KT 1 1/4SM BR OVC002 11/09 A2989 RMK AO2 T01060094=
202305181019 SPECI KCLM 181019Z AUTO 27003KT 3/4SM BR VV002 11/09 A2989 RMK AO2 T01060094=
202305180953 METAR KCLM 180953Z AUTO 26003KT 1/4SM FG VV002 11/09 A2990 RMK AO2 SLP124 T01110094=
202305180933 SPECI KCLM 180933Z AUTO 27005KT 3/4SM BR VV002 11/09 A2990 RMK AO2 T01110094=
202305180928 SPECI KCLM 180928Z AUTO 29004KT 2SM BR BKN002 11/09 A2990 RMK AO2 T01060089=
202305180912 SPECI KCLM 180912Z AUTO 28003KT 10SM SCT002 11/09 A2990 RMK AO2 T01060089=
202305180853 METAR KCLM 180853Z AUTO 26003KT 10SM CLR 11/09 A2990 RMK AO2 SLP123 T01110094 51006=
202305180753 METAR KCLM 180753Z AUTO 00000KT 10SM CLR 12/10 A2989 RMK AO2 SLP121 T01170100 402000111=
202305180653 METAR KCLM 180653Z AUTO 27003KT 10SM CLR 12/10 A2989 RMK AO2 SLP122 T01170100=
202305180553 METAR KCLM 180553Z AUTO 00000KT 10SM CLR 12/10 A2988 RMK AO2 SLP117 T01220100 10200 20122 55000=
202305180453 METAR KCLM 180453Z AUTO 29003KT 10SM CLR 13/11 A2988 RMK AO2 SLP118 T01280106=
202305180353 METAR KCLM 180353Z AUTO 00000KT 10SM CLR 14/11 A2987 RMK AO2 SLP115 T01440111=
202305180253 METAR KCLM 180253Z AUTO 30004KT 10SM CLR 15/11 A2988 RMK AO2 SLP117 T01500111 56016=
202305180153 METAR KCLM 180153Z AUTO 30005KT 10SM CLR 16/11 A2989 RMK AO2 SLP120 T01560111=
202305180053 METAR KCLM 180053Z AUTO 32006KT 10SM CLR 18/12 A2990 RMK AO2 SLP126 T01830117=
202305172353 METAR KCLM 172353Z AUTO 29004KT 10SM CLR 18/12 A2992 RMK AO2 SLP133 T01830122 10189 20144 57018=
202305172253 METAR KCLM 172253Z AUTO 29006KT 10SM CLR 18/12 A2994 RMK AO2 SLP139 T01780117=
202305172153 METAR KCLM 172153Z AUTO 35005KT 10SM CLR 19/12 A2996 RMK AO2 SLP145 T01890122=
202305172053 METAR KCLM 172053Z AUTO 34004KT 10SM CLR 19/12 A2998 RMK AO2 SLP151 T01890122 58017=
202305171953 METAR KCLM 171953Z AUTO 35003KT 10SM CLR 17/12 A3000 RMK AO2 SLP159 T01720117=
202305171853 METAR KCLM 171853Z AUTO 34004KT 10SM CLR 16/11 A3002 RMK AO2 SLP165 T01560111=
202305171753 METAR KCLM 171753Z AUTO 01004KT 10SM CLR 15/11 A3003 RMK AO2 SLP168 T01500111 10156 20122 56007=
202305171653 METAR KCLM 171653Z AUTO 36004KT 4SM BR FEW001 13/11 A3004 RMK AO2 SLP171 T01330111=
202305171642 SPECI KCLM 171642Z AUTO 36005KT 1 3/4SM BR SCT001 13/11 A3004 RMK AO2 VIS 3/4V5 T01280106=
202305171603 SPECI KCLM 171603Z AUTO 00000KT 10SM SCT003 14/12 A3004 RMK AO2 T01390117=
202305171553 METAR KCLM 171553Z AUTO 00000KT 10SM BKN002 13/12 A3004 RMK AO2 SLP172 T01330117=
202305171538 SPECI KCLM 171538Z AUTO 00000KT 3SM BR OVC002 13/11 A3004 RMK AO2 T01280111=
202305171532 SPECI KCLM 171532Z AUTO 00000KT 1SM BR OVC002 13/11 A3004 RMK AO2 T01280111=
202305171522 SPECI KCLM 171522Z AUTO 00000KT 3/4SM BR VV002 12/11 A3005 RMK AO2 T01220111=
202305171453 METAR KCLM 171453Z AUTO 00000KT 1/4SM FG VV002 12/11 A3005 RMK AO2 SLP176 T01220111 56002=
202305171411 SPECI KCLM 171411Z AUTO 30005KT 1/4SM FG VV002 12/11 A3006 RMK AO2 T01220106=
202305171353 METAR KCLM 171353Z AUTO 30005KT 1/2SM FG VV002 12/11 A3005 RMK AO2 SLP176 T01220106=
202305171342 SPECI KCLM 171342Z AUTO 30005KT 3/4SM BR OVC001 12/11 A3005 RMK AO2 T01220106=
202305171322 SPECI KCLM 171322Z AUTO 30004KT 1 1/2SM BR OVC002 12/11 A3005 RMK AO2 T01220106=
202305171301 SPECI KCLM 171301Z AUTO 28005KT 2 1/2SM BR OVC002 12/11 A3005 RMK AO2 T01220106=
202305171253 METAR KCLM 171253Z AUTO 28005KT 3SM BR OVC002 12/11 A3005 RMK AO2 SLP175 T01220106=
202305171153 METAR KCLM 171153Z AUTO 29008KT 8SM OVC002 12/11 A3006 RMK AO2 SLP178 T01220106 10128 20122 58003=
202305171053 METAR KCLM 171053Z AUTO 28006KT 9SM OVC003 13/11 A3007 RMK AO2 SLP182 T01280106=
202305170953 METAR KCLM 170953Z AUTO 00000KT 10SM OVC003 12/11 A3007 RMK AO2 SLP182 T01220106=
202305170853 METAR KCLM 170853Z AUTO 29005KT 10SM OVC004 13/11 A3007 RMK AO2 SLP181 T01280106 58004=
202305170803 SPECI KCLM 170803Z AUTO 23003KT 10SM OVC004 13/11 A3008 RMK AO2 T01280111=
202305170753 METAR KCLM 170753Z AUTO VRB05KT 10SM BKN005 13/11 A3008 RMK AO2 SLP186 T01280106 401830122=
202305170744 SPECI KCLM 170744Z AUTO 28009KT 10SM BKN005 13/11 A3008 RMK AO2 T01280106=
202305170716 SPECI KCLM 170716Z AUTO 29006G15KT 10SM FEW005 13/11 A3007 RMK AO2 T01280106=
202305170653 METAR KCLM 170653Z AUTO 29008KT 10SM CLR 13/11 A3007 RMK AO2 SLP182 T01280106=
202305170553 METAR KCLM 170553Z AUTO 27006KT 10SM CLR 12/10 A3008 RMK AO2 SLP185 T01220100 10172 20122 50004=
202305170453 METAR KCLM 170453Z AUTO 27007KT 10SM CLR 13/11 A3008 RMK AO2 SLP186 T01280106=
202305170353 METAR KCLM 170353Z AUTO 27008KT 10SM CLR 13/11 A3007 RMK AO2 SLP182 T01330106=
202305170253 METAR KCLM 170253Z AUTO 28011KT 10SM CLR 15/11 A3007 RMK AO2 SLP181 T01500106 56009=
202305170153 METAR KCLM 170153Z AUTO 31007G14KT 10SM CLR 17/11 A3007 RMK AO2 SLP182 T01670111=
202305170053 METAR KCLM 170053Z AUTO 30009KT 10SM CLR 17/11 A3008 RMK AO2 SLP185 T01720111=
202305162353 METAR KCLM 162353Z AUTO 30011KT 10SM CLR 17/11 A3009 RMK AO2 SLP190 T01720111 10183 20144 57017=
202305162253 METAR KCLM 162253Z AUTO 29013G19KT 10SM CLR 17/11 A3010 RMK AO2 SLP194 T01720111=
202305162153 METAR KCLM 162153Z AUTO 30011KT 10SM CLR 17/11 A3013 RMK AO2 SLP204 T01720111=
202305162053 METAR KCLM 162053Z AUTO 31008KT 10SM CLR 18/12 A3014 RMK AO2 SLP208 T01780117 58009=
202305162001 SPECI KCLM 162001Z AUTO 34007KT 10SM SCT014 SCT120 17/12 A3015 RMK AO2 T01720117=
202305161953 METAR KCLM 161953Z AUTO VRB04KT 10SM BKN014 BKN120 18/12 A3016 RMK AO2 SLP211 T01780122=
202305161853 METAR KCLM 161853Z AUTO 32007KT 10SM OVC012 16/11 A3017 RMK AO2 SLP216 T01560111=
202305161753 METAR KCLM 161753Z AUTO 30007KT 10SM OVC010 15/11 A3017 RMK AO2 SLP216 T01500111 10156 20133 53004=
202305161702 SPECI KCLM 161702Z AUTO 29005KT 10SM OVC010 15/11 A3016 RMK AO2 T01500111=
202305161653 METAR KCLM 161653Z AUTO 28007KT 10SM OVC009 14/11 A3016 RMK AO2 SLP212 T01440111=
202305161553 METAR KCLM 161553Z AUTO 28005KT 10SM OVC008 14/11 A3016 RMK AO2 SLP214 T01440111=
202305161453 METAR KCLM 161453Z AUTO 30005KT 10SM OVC008 14/11 A3016 RMK AO2 CIG 007V011 SLP212 T01390111 51014=
202305161353 METAR KCLM 161353Z AUTO 28007KT 10SM OVC007 13/11 A3014 RMK AO2 CIG 005V009 SLP207 T01330111=
202305161313 SPECI KCLM 161313Z AUTO 28004KT 10SM OVC005 13/11 A3015 RMK AO2 T01330111=
202305161253 METAR KCLM 161253Z AUTO 27007KT 10SM OVC004 13/11 A3013 RMK AO2 SLP203 T01330111=
202305161215 SPECI KCLM 161215Z AUTO 26010KT 10SM OVC004 13/11 A3011 RMK AO2 T01330111=
202305161153 METAR KCLM 161153Z AUTO 28008G17KT 10SM OVC005 13/11 A3012 RMK AO2 SLP197 7//// T01330111 10133 20133 53005=
202305161053 METAR KCLM 161053Z AUTO 27009KT 10SM OVC005 13/11 A3011 RMK AO2 SLP194 T01330111=
202305160953 METAR KCLM 160953Z AUTO 27010G18KT 10SM OVC006 13/11 A3011 RMK AO2 SLP193 T01330111=
202305160853 METAR KCLM 160853Z AUTO 29009KT 10SM OVC005 13/11 A3010 RMK AO2 SLP192 T01330111 51023=
202305160753 METAR KCLM 160753Z AUTO 26009KT 10SM OVC005 13/11 A3010 RMK AO2 SLP191 T01330111 403000133=
202305160727 SPECI KCLM 160727Z AUTO 27010KT 10SM BKN005 13/11 A3009 RMK AO2 T01330111=
202305160718 SPECI KCLM 160718Z AUTO 26007KT 10SM SCT005 13/11 A3009 RMK AO2 T01330111=
202305160653 METAR KCLM 160653Z AUTO 26008KT 10SM BKN005 13/11 A3007 RMK AO2 SLP183 T01330111=
202305160553 METAR KCLM 160553Z AUTO 27015G25KT 10SM OVC005 13/11 A3003 RMK AO2 PK WND 27027/0506 SLP169 T01330111 10256 20133 51017=
202305160536 SPECI KCLM 160536Z AUTO 28015G24KT 10SM BKN005 13/11 A3003 RMK AO2 PK WND 27027/0506 T01330111=
202305160521 SPECI KCLM 160521Z AUTO 29015G26KT 10SM FEW005 13/11 A3003 RMK AO2 PK WND 27027/0506 T01330111=
202305160453 METAR KCLM 160453Z AUTO 28016G25KT 10SM CLR 14/11 A3003 RMK AO2 SLP166 T01390111=
202305160353 METAR KCLM 160353Z AUTO 27012G18KT 10SM CLR 16/12 A3000 RMK AO2 SLP157 T01610117=
202305160253 METAR KCLM 160253Z AUTO 27013G20KT 10SM CLR 19/12 A2998 RMK AO2 SLP152 T01890117 53006=
202305160153 METAR KCLM 160153Z AUTO 30008G16KT 10SM CLR 22/11 A2997 RMK AO2 SLP148 T02220111=
202305160053 METAR KCLM 160053Z AUTO 30010G20KT 10SM CLR 24/10 A2997 RMK AO2 SLP147 T02390100=
202305152353 METAR KCLM 152353Z AUTO 29011KT 10SM CLR 26/08 A2996 RMK AO2 SLP145 6//// T02610083 10300 20256 55006=
202305152253 METAR KCLM 152253Z AUTO VRB03KT 10SM CLR 30/08 A2996 RMK AO2 LTG DSNT S SLP144 T03000083=
202305152153 METAR KCLM 152153Z AUTO 06006KT 10SM CLR 29/08 A2997 RMK AO2 SLP147 T02940078=
202305152053 METAR KCLM 152053Z AUTO VRB05KT 10SM CLR 28/07 A2998 RMK AO2 SLP152 6//// T02830072 58006=
202305151953 METAR KCLM 151953Z AUTO 08006KT 10SM CLR 27/10 A2999 RMK AO2 SLP154 T02720100=
202305151853 METAR KCLM 151853Z AUTO 10SM CLR 26/09 A3000 RMK AO2 SLP157 T02610094 PWINO $=
202305151753 METAR KCLM 151753Z AUTO 10SM CLR 26/09 A3000 RMK AO2 SLP158 6//// T02560089 10267 20150 PWINO $=
202305151653 METAR KCLM 151653Z AUTO 10005KT 24/09 A3001 RMK AO2 SLP160 T02440089 $=
202305151553 METAR KCLM 151553Z AUTO 11005KT 10SM CLR 24/09 A3001 RMK AO2 SLP162 T02390094=
202305151453 METAR KCLM 151453Z AUTO 00000KT 10SM CLR 22/12 A3001 RMK AO2 SLP160 T02220117 53006=
202305151353 METAR KCLM 151353Z AUTO 23005KT 10SM CLR 19/10 A3000 RMK AO2 SLP156 T01890100=
202305151253 METAR KCLM 151253Z AUTO 00000KT 10SM CLR 15/09 A2999 RMK AO2 SLP156 T01500089=
202305151153 METAR KCLM 151153Z AUTO 22009KT 10SM CLR 17/09 A2999 RMK AO2 SLP154 T01720089 10194 20139 56003=
202305151053 METAR KCLM 151053Z AUTO 00000KT 10SM CLR 16/09 A2999 RMK AO2 SLP155 T01560089=
202305150953 METAR KCLM 150953Z AUTO 22008KT 10SM CLR 18/08 A2999 RMK AO2 SLP154 T01830083=
202305150853 METAR KCLM 150853Z AUTO 23007KT 10SM CLR 18/09 A3000 RMK AO2 SLP157 T01780089 57001=
202305150753 METAR KCLM 150753Z AUTO 22004KT 10SM CLR 17/09 A3000 RMK AO2 SLP157 T01720094 402890133=
202305150653 METAR KCLM 150653Z AUTO 23005KT 10SM CLR 16/09 A3000 RMK AO2 SLP158 T01610094=
202305150553 METAR KCLM 150553Z AUTO 00000KT 10SM CLR 17/11 A3000 RMK AO2 SLP158 T01720106 10289 20172 51009=
202305150453 METAR KCLM 150453Z AUTO 23004KT 10SM CLR 17/11 A3000 RMK AO2 SLP157 T01720111=
202305150353 METAR KCLM 150353Z AUTO 00000KT 10SM CLR 21/09 A2999 RMK AO2 SLP153 T02110089=
202305150253 METAR KCLM 150253Z AUTO 33003KT 10SM CLR 23/09 A2997 RMK AO2 SLP148 T02280094 56012=
202305150153 METAR KCLM 150153Z AUTO 09008KT 10SM CLR 28/07 A2998 RMK AO2 SLP151 T02830067=
202305150053 METAR KCLM 150053Z AUTO 12008KT 10SM CLR 28/07 A3000 RMK AO2 SLP156 T02780072=
202305142353 METAR KCLM 142353Z AUTO 10006KT 10SM CLR 28/07 A3001 RMK AO2 SLP161 T02830072 10283 20239 56018=
202305142253 METAR KCLM 142253Z AUTO 11009KT 10SM CLR 27/09 A3002 RMK AO2 SLP165 T02670089=
202305142153 METAR KCLM 142153Z AUTO 08007KT 10SM CLR 26/09 A3004 RMK AO2 SLP172 T02560094=
202305142053 METAR KCLM 142053Z AUTO 09007KT 10SM CLR 25/09 A3006 RMK AO2 SLP179 T02500089 56018=
202305141953 METAR KCLM 141953Z AUTO 08008KT 10SM CLR 25/09 A3008 RMK AO2 SLP184 T02500094=
202305141853 METAR KCLM 141853Z AUTO VRB05KT 10SM CLR 24/08 A3010 RMK AO2 SLP191 T02440083=
202305141753 METAR KCLM 141753Z AUTO 10007KT 10SM CLR 24/08 A3012 RMK AO2 SLP197 T02390083 10244 20133 58009=
202305141653 METAR KCLM 141653Z AUTO 12007KT 10SM CLR 24/08 A3013 RMK AO2 SLP201 T02440083=
202305141553 METAR KCLM 141553Z AUTO 10006KT 10SM CLR 24/09 A3014 RMK AO2 SLP205 T02390089=
202305141453 METAR KCLM 141453Z AUTO 00000KT 10SM CLR 21/12 A3015 RMK AO2 SLP207 T02110117 58000=
202305141353 METAR KCLM 141353Z AUTO 22004KT 10SM CLR 16/09 A3014 RMK AO2 SLP206 T01610094=
202305141253 METAR KCLM 141253Z AUTO 22004KT 10SM CLR 14/07 A3015 RMK AO2 SLP208 T01390072=
202305141153 METAR KCLM 141153Z AUTO 23007KT 10SM CLR 16/07 A3015 RMK AO2 SLP207 T01560072 10183 20139 56005=
202305141053 METAR KCLM 141053Z AUTO 22007KT 10SM CLR 16/07 A3015 RMK AO2 SLP208 T01610072=
202305140953 METAR KCLM 140953Z AUTO 23006KT 10SM CLR 16/07 A3016 RMK AO2 SLP210 T01560072=
202305140853 METAR KCLM 140853Z AUTO 23007KT 10SM CLR 17/07 A3016 RMK AO2 SLP212 T01720072 58001=
202305140753 METAR KCLM 140753Z AUTO 21005KT 10SM CLR 17/08 A3016 RMK AO2 SLP213 T01720078 402670106=
202305140653 METAR KCLM 140653Z AUTO 23007KT 10SM CLR 17/08 A3017 RMK AO2 SLP214 T01670078=
202305140553 METAR KCLM 140553Z AUTO 23007KT 10SM CLR 16/08 A3016 RMK AO2 SLP213 T01610083 10267 20161 50003=
202305140453 METAR KCLM 140453Z AUTO 20003KT 10SM CLR 16/09 A3017 RMK AO2 SLP216 T01610094=
202305140353 METAR KCLM 140353Z AUTO 00000KT 10SM CLR 19/10 A3016 RMK AO2 SLP212 T01890100=
202305140253 METAR KCLM 140253Z AUTO 00000KT 10SM CLR 24/10 A3016 RMK AO2 SLP210 T02390100 56016=
202305140153 METAR KCLM 140153Z AUTO VRB03KT 10SM CLR 27/10 A3017 RMK AO2 SLP215 T02670100=
202305140053 METAR KCLM 140053Z AUTO 09005KT 10SM CLR 26/08 A3019 RMK AO2 SLP222 T02560083=
202305132353 METAR KCLM 132353Z AUTO 08005KT 10SM CLR 26/08 A3020 RMK AO2 SLP227 T02560083 10256 20222 58021=
202305132253 METAR KCLM 132253Z AUTO 08006KT 10SM CLR 25/09 A3023 RMK AO2 SLP234 T02500089=
202305132153 METAR KCLM 132153Z AUTO 08005KT 10SM CLR 24/09 A3025 RMK AO2 SLP242 T02440089=
202305132053 METAR KCLM 132053Z AUTO 08007KT 10SM CLR 23/07 A3027 RMK AO2 SLP248 T02330072 58012 $=
202305131953 METAR KCLM 131953Z AUTO 09006KT 10SM CLR 24/06 A3028 RMK AO2 SLP254 T02390061 $=
202305131853 METAR KCLM 131853Z AUTO VRB05KT 10SM CLR 23/09 A3029 RMK AO2 SLP257 T02330089 $=
202305131753 METAR KCLM 131753Z AUTO VRB05KT 10SM CLR 22/08 A3030 RMK AO2 SLP260 T02170078 10222 20106 58003 $=
202305131653 METAR KCLM 131653Z AUTO 08004KT 10SM CLR 22/08 A3031 RMK AO2 SLP262 T02170083 $=
202305131553 METAR KCLM 131553Z AUTO 08006KT 10SM CLR 20/08 A3031 RMK AO2 SLP264 T02000083 $=
202305131453 METAR KCLM 131453Z AUTO 27003KT 10SM CLR 19/10 A3031 RMK AO2 SLP263 T01940100 52012 $=
202305131353 METAR KCLM 131353Z AUTO 22005KT 10SM CLR 16/08 A3030 RMK AO2 SLP259 T01560083 $=
202305131253 METAR KCLM 131253Z AUTO 21003KT 10SM CLR 11/07 A3028 RMK AO2 SLP254 T01060067 $=
202305131153 METAR KCLM 131153Z AUTO 22006KT 10SM CLR 14/07 A3027 RMK AO2 SLP250 T01390067 10167 20106 53005 $=
202305131053 METAR KCLM 131053Z AUTO VRB04KT 10SM CLR 11/07 A3026 RMK AO2 SLP247 T01110067 $=
202305130953 METAR KCLM 130953Z AUTO 00000KT 10SM CLR 12/07 A3027 RMK AO2 SLP249 T01170072 $=
202305130853 METAR KCLM 130853Z AUTO 16003KT 10SM CLR 12/07 A3026 RMK AO2 SLP247 T01220072 53005 $=
202305130753 METAR KCLM 130753Z AUTO 00000KT 10SM CLR 15/08 A3025 RMK AO2 SLP243 T01500078 402500072=
202305130653 METAR KCLM 130653Z AUTO 00000KT 10SM CLR 13/08 A3024 RMK AO2 SLP241 T01330083=
202305130553 METAR KCLM 130553Z AUTO 00000KT 10SM CLR 14/08 A3024 RMK AO2 SLP242 T01440083 10250 20128 51011=
202305130453 METAR KCLM 130453Z AUTO 00000KT 10SM CLR 15/08 A3024 RMK AO2 SLP239 T01500078=
202305130353 METAR KCLM 130353Z AUTO 28005KT 10SM CLR 16/08 A3023 RMK AO2 SLP235 T01560078=
202305130253 METAR KCLM 130253Z AUTO 00000KT 10SM CLR 23/08 A3021 RMK AO2 SLP230 T02280078 58004=
202305130153 METAR KCLM 130153Z AUTO 14003KT 10SM CLR 25/07 A3022 RMK AO2 SLP231 T02500067=
202305130053 METAR KCLM 130053Z AUTO 12004KT 10SM CLR 24/06 A3022 RMK AO2 SLP234 T02440061=
202305122353 METAR KCLM 122353Z AUTO VRB03KT 10SM CLR 24/07 A3022 RMK AO2 SLP235 T02390067 10239 20178 58009=
202305122253 METAR KCLM 122253Z AUTO 03004KT 10SM CLR 24/07 A3023 RMK AO2 SLP238 T02390072=
202305122153 METAR KCLM 122153Z AUTO VRB04KT 10SM CLR 23/08 A3024 RMK AO2 SLP241 T02280078=
202305122053 METAR KCLM 122053Z AUTO VRB04KT 10SM CLR 22/07 A3025 RMK AO2 SLP243 T02170072 58003=
202305121953 METAR KCLM 121953Z AUTO 08003KT 10SM CLR 21/09 A3026 RMK AO2 SLP246 T02060089=
202305121853 METAR KCLM 121853Z AUTO 10005KT 10SM CLR 18/08 A3026 RMK AO2 SLP247 T01830078=
202305121753 METAR KCLM 121753Z AUTO 08005KT 10SM CLR 18/07 A3026 RMK AO2 SLP246 T01780072 10183 20072 51009=
202305121653 METAR KCLM 121653Z AUTO VRB04KT 10SM CLR 18/07 A3025 RMK AO2 SLP243 T01830072=
202305121553 METAR KCLM 121553Z AUTO 09006KT 10SM CLR 17/07 A3024 RMK AO2 SLP241 T01670067=
202305121453 METAR KCLM 121453Z AUTO 00000KT 10SM CLR 16/07 A3023 RMK AO2 SLP237 T01610072 53011=
202305121353 METAR KCLM 121353Z AUTO 00000KT 10SM CLR 11/08 A3022 RMK AO2 SLP232 T01110078=
202305121253 METAR KCLM 121253Z AUTO 00000KT 10SM CLR 08/05 A3020 RMK AO2 SLP229 T00780050=
202305121153 METAR KCLM 121153Z AUTO 22003KT 10SM CLR 08/06 A3020 RMK AO2 SLP226 T00830056 10144 20072 53007=
202305121053 METAR KCLM 121053Z AUTO 22005KT 10SM CLR 08/06 A3019 RMK AO2 SLP224 T00830056=
202305120953 METAR KCLM 120953Z AUTO 00000KT 10SM CLR 08/06 A3018 RMK AO2 SLP220 T00830056=
202305120853 METAR KCLM 120853Z AUTO 00000KT 10SM CLR 11/06 A3018 RMK AO2 SLP219 T01110061 53006=
202305120753 METAR KCLM 120753Z AUTO 00000KT 10SM CLR 13/06 A3017 RMK AO2 SLP215 T01280061 401890083=
202305120653 METAR KCLM 120653Z AUTO 27011KT 10SM CLR 14/06 A3016 RMK AO2 SLP213 T01390061=
202305120553 METAR KCLM 120553Z AUTO 26009KT 10SM CLR 13/07 A3016 RMK AO2 SLP213 T01280067 10178 20100 51006=
202305120453 METAR KCLM 120453Z AUTO 31004KT 10SM CLR 11/06 A3016 RMK AO2 SLP212 T01110056=
202305120353 METAR KCLM 120353Z AUTO 27005KT 10SM CLR 12/04 A3015 RMK AO2 SLP209 T01220044=
202305120253 METAR KCLM 120253Z AUTO 29004KT 10SM CLR 14/05 A3014 RMK AO2 SLP206 T01390050 56003=
202305120153 METAR KCLM 120153Z AUTO 30004KT 10SM CLR 16/04 A3014 RMK AO2 SLP206 T01560044=
202305120053 METAR KCLM 120053Z AUTO VRB06KT 10SM CLR 17/04 A3015 RMK AO2 SLP208 T01670044=
202305112353 METAR KCLM 112353Z AUTO 31006KT 10SM CLR 18/05 A3015 RMK AO2 SLP209 T01780050 10189 20139 56010=
202305112253 METAR KCLM 112253Z AUTO VRB06KT 10SM SCT095 18/04 A3016 RMK AO2 SLP213 T01830044=
202305112153 METAR KCLM 112153Z AUTO 35004KT 10SM BKN100 18/06 A3017 RMK AO2 SLP215 T01830061=
202305112053 METAR KCLM 112053Z AUTO 36003KT 10SM BKN100 16/06 A3018 RMK AO2 SLP219 T01560061 57001=
202305111953 METAR KCLM 111953Z AUTO 36005KT 10SM CLR 15/06 A3018 RMK AO2 SLP221 T01500056=
202305111853 METAR KCLM 111853Z AUTO 36004KT 10SM CLR 16/06 A3018 RMK AO2 SLP220 T01560056=
202305111753 METAR KCLM 111753Z AUTO VRB05KT 10SM CLR 15/07 A3018 RMK AO2 SLP221 T01500072 10150 20089 53006=
202305111653 METAR KCLM 111653Z AUTO 31005KT 10SM CLR 14/07 A3018 RMK AO2 SLP218 T01440072=
202305111553 METAR KCLM 111553Z AUTO VRB05KT 10SM CLR 13/06 A3017 RMK AO2 SLP217 T01330056=
202305111453 METAR KCLM 111453Z AUTO 29009KT 10SM CLR 12/04 A3016 RMK AO2 SLP214 T01220044 53012=
202305111353 METAR KCLM 111353Z AUTO 26006KT 10SM CLR 11/04 A3015 RMK AO2 SLP210 T01060044=
202305111253 METAR KCLM 111253Z AUTO 29006KT 10SM CLR 09/05 A3013 RMK AO2 SLP205 T00890050=
202305111153 METAR KCLM 111153Z AUTO 29007KT 10SM CLR 09/04 A3013 RMK AO2 SLP204 T00890039 10111 20083 52006=
202305111053 METAR KCLM 111053Z AUTO 29006KT 10SM CLR 09/04 A3012 RMK AO2 SLP201 T00890039=
202305110953 METAR KCLM 110953Z AUTO 28010KT 10SM CLR 10/04 A3012 RMK AO2 SLP198 T01000039=
202305110853 METAR KCLM 110853Z AUTO 29008KT 10SM CLR 10/05 A3011 RMK AO2 SLP197 T01000050 52005=
202305110753 METAR KCLM 110753Z AUTO 29008KT 10SM CLR 11/04 A3010 RMK AO2 SLP194 T01060039 401720050=
202305110653 METAR KCLM 110653Z AUTO 29010KT 10SM CLR 11/06 A3010 RMK AO2 SLP194 T01110061=
202305110553 METAR KCLM 110553Z AUTO 29010KT 10SM CLR 11/06 A3010 RMK AO2 SLP192 T01110061 10156 20106 51013=
202305110453 METAR KCLM 110453Z AUTO 27007KT 10SM CLR 11/07 A3009 RMK AO2 SLP190 T01110067=
202305110353 METAR KCLM 110353Z AUTO 28006KT 10SM FEW060 12/07 A3007 RMK AO2 SLP184 T01170067=
202305110253 METAR KCLM 110253Z AUTO 32003KT 10SM CLR 14/06 A3006 RMK AO2 SLP179 T01390056 55001=
202305110153 METAR KCLM 110153Z AUTO 27008KT 10SM CLR 15/04 A3006 RMK AO2 SLP180 T01500044=
202305110053 METAR KCLM 110053Z AUTO 30007KT 10SM CLR 16/07 A3005 RMK AO2 SLP178 T01560072=
202305102353 METAR KCLM 102353Z AUTO 32008KT 10SM CLR 15/07 A3006 RMK AO2 SLP181 T01500072 10172 20139 55005=
202305102253 METAR KCLM 102253Z AUTO 30006KT 10SM CLR 16/08 A3006 RMK AO2 SLP180 T01610083=
202305102153 METAR KCLM 102153Z AUTO 34006KT 10SM CLR 16/07 A3007 RMK AO2 SLP184 T01560072=
202305102053 METAR KCLM 102053Z AUTO 01004KT 10SM CLR 15/07 A3008 RMK AO2 SLP186 T01500072 58004=
202305101953 METAR KCLM 101953Z AUTO VRB05KT 10SM CLR 16/07 A3009 RMK AO2 SLP187 T01610072=
202305101853 METAR KCLM 101853Z AUTO VRB04KT 10SM CLR 16/08 A3009 RMK AO2 SLP190 T01560078=
202305101753 METAR KCLM 101753Z AUTO 02005KT 10SM CLR 14/06 A3009 RMK AO2 SLP191 T01390061 10150 20050 58001=
202305101653 METAR KCLM 101653Z AUTO 36004KT 10SM CLR 13/07 A3009 RMK AO2 SLP191 T01330072=
202305101553 METAR KCLM 101553Z AUTO 04004KT 10SM CLR 12/08 A3009 RMK AO2 SLP191 T01220078=
202305101453 METAR KCLM 101453Z AUTO 28009KT 10SM CLR 12/05 A3009 RMK AO2 SLP191 T01170050 53000=
202305101353 METAR KCLM 101353Z AUTO 00000KT 10SM CLR 08/05 A3009 RMK AO2 SLP190 T00830050=
202305101253 METAR KCLM 101253Z AUTO 25003KT 10SM CLR 05/03 A3009 RMK AO2 SLP189 T00500028=
202305101153 METAR KCLM 101153Z AUTO 28006KT 10SM CLR 08/04 A3009 RMK AO2 SLP191 T00830044 10100 20083 56004=
202305101053 METAR KCLM 101053Z AUTO 26008KT 10SM CLR 09/05 A3010 RMK AO2 SLP192 T00940050=
202305100953 METAR KCLM 100953Z AUTO 28008KT 10SM CLR 08/04 A3009 RMK AO2 SLP192 T00830044=
202305100853 METAR KCLM 100853Z AUTO 29008KT 10SM CLR 09/04 A3010 RMK AO2 SLP195 T00890044 58006=
202305100753 METAR KCLM 100753Z AUTO 28007KT 10SM CLR 09/06 A3011 RMK AO2 SLP198 T00890056 401560072=
202305100653 METAR KCLM 100653Z AUTO 28008KT 10SM CLR 09/06 A3012 RMK AO2 SLP200 T00940061=
202305100553 METAR KCLM 100553Z AUTO 28008KT 10SM CLR 09/07 A3012 RMK AO2 SLP202 T00940067 10156 20089 50002=
202305100453 METAR KCLM 100453Z AUTO 29008KT 10SM CLR 09/07 A3013 RMK AO2 SLP204 T00940067=
202305100353 METAR KCLM 100353Z AUTO 28009KT 10SM CLR 10/07 A3013 RMK AO2 SLP203 T01000067=
202305100253 METAR KCLM 100253Z AUTO 29011KT 10SM CLR 12/06 A3012 RMK AO2 SLP200 T01170061 53004=
202305100153 METAR KCLM 100153Z AUTO 31008KT 10SM CLR 13/05 A3011 RMK AO2 SLP198 T01330050=
202305100053 METAR KCLM 100053Z AUTO 30008KT 10SM CLR 14/06 A3011 RMK AO2 SLP197 T01440056=
202305092353 METAR KCLM 092353Z AUTO 31009KT 280V340 10SM CLR 15/05 A3011 RMK AO2 SLP196 T01500050 10156 20133 58008=
202305092253 METAR KCLM 092253Z AUTO 30008KT 10SM CLR 16/06 A3011 RMK AO2 SLP198 T01560061=
202305092153 METAR KCLM 092153Z AUTO VRB04KT 10SM CLR 15/07 A3013 RMK AO2 SLP203 T01500067=
202305092053 METAR KCLM 092053Z AUTO VRB05KT 10SM CLR 14/06 A3013 RMK AO2 SLP204 T01390061 58003=
202305091953 METAR KCLM 091953Z AUTO 32008KT 10SM CLR 14/07 A3014 RMK AO2 SLP207 T01440067=
202305091853 METAR KCLM 091853Z AUTO 32007KT 290V010 10SM CLR 14/07 A3015 RMK AO2 SLP209 T01440067=
202305091753 METAR KCLM 091753Z AUTO 30011G19KT 10SM CLR 13/06 A3014 RMK AO2 SLP207 T01330061 10139 20072 53003=
202305091653 METAR KCLM 091653Z AUTO 29009G16KT 10SM CLR 13/06 A3013 RMK AO2 SLP205 T01280056=
202305091553 METAR KCLM 091553Z AUTO 30009KT 10SM CLR 13/06 A3014 RMK AO2 SLP206 T01280061=
202305091453 METAR KCLM 091453Z AUTO 26007KT 10SM CLR 11/06 A3013 RMK AO2 SLP204 T01060056 51012=
202305091353 METAR KCLM 091353Z AUTO 25008KT 10SM CLR 09/05 A3012 RMK AO2 SLP201 T00940050=
202305091253 METAR KCLM 091253Z AUTO 26007KT 10SM CLR 08/04 A3011 RMK AO2 SLP198 T00780039=
202305091153 METAR KCLM 091153Z AUTO 26007KT 10SM CLR 08/04 A3010 RMK AO2 SLP192 T00830044 10106 20083 53011=
202305091053 METAR KCLM 091053Z AUTO 27008KT 10SM SCT065 09/05 A3008 RMK AO2 SLP188 T00890050=
202305090953 METAR KCLM 090953Z AUTO 28008KT 10SM CLR 09/06 A3007 RMK AO2 SLP183 T00940056=
202305090853 METAR KCLM 090853Z AUTO 26007KT 10SM CLR 09/06 A3006 RMK AO2 SLP180 T00940056 53008=
202305090753 METAR KCLM 090753Z AUTO 25007KT 10SM CLR 10/06 A3005 RMK AO2 SLP175 T01000056 401560083=
202305090653 METAR KCLM 090653Z AUTO 26006KT 10SM SCT120 09/06 A3004 RMK AO2 SLP174 T00940056=
202305090553 METAR KCLM 090553Z AUTO 26007KT 10SM FEW080 10/07 A3004 RMK AO2 SLP173 T01000067 10150 20094 51007=
202305090453 METAR KCLM 090453Z AUTO 29008KT 10SM FEW075 11/06 A3003 RMK AO2 SLP171 T01060061=
202305090353 METAR KCLM 090353Z AUTO 26010KT 10SM CLR 11/07 A3003 RMK AO2 SLP168 T01110067=
202305090253 METAR KCLM 090253Z AUTO 27011KT 10SM CLR 12/07 A3002 RMK AO2 SLP166 T01170072 53006=
202305090153 METAR KCLM 090153Z AUTO 30009KT 10SM CLR 13/07 A3001 RMK AO2 SLP163 T01280067=
202305090053 METAR KCLM 090053Z AUTO 30008KT 10SM CLR 14/06 A3001 RMK AO2 SLP163 T01440061=
202305082353 METAR KCLM 082353Z AUTO 29006KT 10SM CLR 14/07 A3000 RMK AO2 SLP160 T01440067 10156 20133 53002=
202305082253 METAR KCLM 082253Z AUTO 31005KT 10SM SCT080 13/07 A3000 RMK AO2 SLP160 T01330072=
202305082153 METAR KCLM 082153Z AUTO VRB05KT 10SM CLR 16/07 A2999 RMK AO2 SLP156 T01560067=
202305082053 METAR KCLM 082053Z AUTO 36005KT 10SM SCT100 16/07 A2999 RMK AO2 SLP157 T01560067 58006=
202305081953 METAR KCLM 081953Z AUTO VRB03KT 10SM OVC085 16/08 A3001 RMK AO2 SLP161 T01560078=
202305081853 METAR KCLM 081853Z AUTO 07005KT 10SM OVC090 14/07 A3001 RMK AO2 SLP163 T01440072=
202305081753 METAR KCLM 081753Z AUTO 00000KT 10SM OVC060 13/07 A3001 RMK AO2 SLP164 T01330067 10133 20089 50000=
202305081653 METAR KCLM 081653Z AUTO 00000KT 10SM OVC060 12/07 A3001 RMK AO2 SLP165 T01220072=
202305081553 METAR KCLM 081553Z AUTO 00000KT 10SM BKN055 OVC095 11/06 A3002 RMK AO2 SLP166 T01110061=
202305081453 METAR KCLM 081453Z AUTO 31003KT 10SM FEW065 11/06 A3001 RMK AO2 SLP164 T01110061 53003=
202305081353 METAR KCLM 081353Z AUTO 26008KT 10SM FEW095 10/07 A3001 RMK AO2 SLP163 T01000072=
202305081253 METAR KCLM 081253Z AUTO 27005KT 10SM BKN110 09/06 A3000 RMK AO2 SLP161 T00940061=
202305081153 METAR KCLM 081153Z AUTO 27005KT 10SM BKN110 09/07 A3001 RMK AO2 SLP162 T00940067 10100 20083 58007=
202305081053 METAR KCLM 081053Z AUTO 31004KT 10SM BKN055 BKN070 OVC110 09/07 A3002 RMK AO2 SLP166 T00890067=
202305080953 METAR KCLM 080953Z AUTO 28006KT 10SM FEW110 10/07 A3002 RMK AO2 SLP166 T01000072=
202305080853 METAR KCLM 080853Z AUTO 24004KT 10SM FEW070 09/07 A3003 RMK AO2 SLP169 T00940067 56007=
202305080753 METAR KCLM 080753Z AUTO 00000KT 10SM CLR 09/06 A3003 RMK AO2 SLP170 T00940061 401440083=
202305080653 METAR KCLM 080653Z AUTO 30006KT 10SM OVC065 10/06 A3004 RMK AO2 SLP173 T01000061=
202305080553 METAR KCLM 080553Z AUTO 27006KT 10SM OVC065 10/07 A3005 RMK AO2 SLP176 60000 T01000067 10128 20100 58003=
202305080453 METAR KCLM 080453Z AUTO 30006KT 10SM SCT065 BKN080 10/06 A3005 RMK AO2 SLP178 T01000061=
202305080353 METAR KCLM 080353Z AUTO 28009KT 10SM BKN060 OVC080 11/07 A3006 RMK AO2 RAE04 SLP179 P0000 T01060067=
202305080253 METAR KCLM 080253Z AUTO 29007KT 10SM -RA OVC055 11/07 A3006 RMK AO2 RAB53 SLP179 P0000 60000 T01110067 57004=
202305080153 METAR KCLM 080153Z AUTO 30007KT 260V320 10SM OVC055 12/07 A3006 RMK AO2 SLP180 T01170072=
202305080053 METAR KCLM 080053Z AUTO 31007KT 10SM OVC050 13/08 A3006 RMK AO2 SLP182 T01280078=
202305072353 METAR KCLM 072353Z AUTO 30009KT 10SM OVC050 12/08 A3007 RMK AO2 SLP183 T01220078 10144 20122 50000=
202305072253 METAR KCLM 072253Z AUTO 30007KT 10SM CLR 13/07 A3007 RMK AO2 SLP183 T01330072=
202305072153 METAR KCLM 072153Z AUTO VRB05KT 10SM FEW065 BKN085 13/08 A3007 RMK AO2 SLP184 T01280078=
202305072053 METAR KCLM 072053Z AUTO 35005KT 10SM BKN060 OVC080 12/07 A3007 RMK AO2 SLP182 T01220067 53004=
202305071953 METAR KCLM 071953Z AUTO 35007KT 10SM BKN055 13/07 A3006 RMK AO2 SLP179 T01330067=
202305071853 METAR KCLM 071853Z AUTO 33005KT 10SM CLR 13/07 A3005 RMK AO2 SLP178 T01280067=
202305071753 METAR KCLM 071753Z AUTO 34007KT 10SM FEW065 13/07 A3005 RMK AO2 SLP178 T01280067 10133 20083 53003=
202305071653 METAR KCLM 071653Z AUTO 35004KT 10SM CLR 12/06 A3005 RMK AO2 SLP177 T01220061=
202305071553 METAR KCLM 071553Z AUTO VRB03KT 10SM CLR 13/07 A3004 RMK AO2 SLP174 T01280072=
202305071453 METAR KCLM 071453Z AUTO 23005KT 10SM FEW031 SCT055 09/06 A3004 RMK AO2 SLP175 T00940061 53008=
202305071353 METAR KCLM 071353Z AUTO 23004KT 10SM OVC031 09/06 A3003 RMK AO2 SLP171 T00890061=
202305071253 METAR KCLM 071253Z AUTO 24005KT 10SM OVC028 09/06 A3002 RMK AO2 SLP168 T00890056=
202305071211 SPECI KCLM 071211Z AUTO 26004KT 10SM BKN027 OVC033 09/06 A3002 RMK AO2 T00890061=
202305071153 METAR KCLM 071153Z AUTO 26004KT 10SM SCT027 BKN035 OVC046 09/06 A3002 RMK AO2 SLP167 70002 T00890061 10100 20089 51003=
202305071053 METAR KCLM 071053Z AUTO 25007KT 10SM FEW029 OVC035 09/06 A3002 RMK AO2 SLP167 T00940061=
202305071039 SPECI KCLM 071039Z AUTO 26008KT 10SM SCT025 BKN033 OVC055 09/06 A3002 RMK AO2 T00940061=
202305071023 SPECI KCLM 071023Z AUTO 24005KT 10SM BKN025 BKN030 OVC035 10/07 A3002 RMK AO2 T01000067=
202305070953 METAR KCLM 070953Z AUTO 25006KT 10SM BKN038 OVC050 10/07 A3002 RMK AO2 SLP166 T01000067=
202305070853 METAR KCLM 070853Z AUTO 26006KT 10SM BKN042 OVC050 10/08 A3001 RMK AO2 SLP163 T01000078 52000=
202305070753 METAR KCLM 070753Z AUTO 26006KT 10SM FEW030 OVC050 09/07 A3001 RMK AO2 SLP165 T00940072 401390083=
202305070653 METAR KCLM 070653Z AUTO 28003KT 10SM FEW065 09/07 A3001 RMK AO2 SLP162 T00940072=
202305070553 METAR KCLM 070553Z AUTO 31003KT 10SM FEW031 OVC060 10/08 A3001 RMK AO2 SLP163 60002 T01000078 10128 20100 53002=
202305070453 METAR KCLM 070453Z AUTO 23005KT 10SM FEW039 OVC060 11/08 A3001 RMK AO2 SLP162 T01060083=
202305070353 METAR KCLM 070353Z AUTO 25006KT 10SM FEW035 OVC050 11/08 A3001 RMK AO2 RAB04E18 SLP162 P0000 T01110083=
202305070253 METAR KCLM 070253Z AUTO 25006KT 10SM OVC055 11/08 A3000 RMK AO2 RAE38 SLP161 P0000 60002 T01110083 51004=
202305070153 METAR KCLM 070153Z AUTO 28006KT 9SM -RA BKN050 OVC060 12/08 A3000 RMK AO2 SLP160 P0002 T01170083=
202305070053 METAR KCLM 070053Z AUTO 28004KT 10SM -RA SCT045 OVC060 12/08 A3000 RMK AO2 RAB34 SLP158 P0000 T01170078=
202305070012 SPECI KCLM 070012Z AUTO 30006KT 10SM FEW027 BKN047 OVC055 12/07 A2999 RMK AO2 T01220067=
202305062353 METAR KCLM 062353Z AUTO 33005KT 10SM BKN027 OVC055 13/06 A2999 RMK AO2 SLP156 T01280061 10139 20106 51002=
202305062329 SPECI KCLM 062329Z AUTO VRB04KT 10SM BKN027 OVC050 13/07 A2999 RMK AO2 T01330067=
202305062253 METAR KCLM 062253Z AUTO VRB03KT 10SM FEW028 OVC050 13/07 A2999 RMK AO2 SLP156 T01280067=
202305062153 METAR KCLM 062153Z AUTO 34004KT 10SM FEW080 13/06 A2999 RMK AO2 SLP155 T01330061=
202305062053 METAR KCLM 062053Z AUTO VRB03KT 10SM FEW050 OVC070 12/06 A2998 RMK AO2 SLP154 T01220061 50001=
202305061953 METAR KCLM 061953Z AUTO 36005KT 10SM FEW019 OVC070 12/06 A2999 RMK AO2 SLP155 T01220056=
202305061853 METAR KCLM 061853Z AUTO 33006KT 10SM OVC018 12/06 A2998 RMK AO2 SLP154 T01170061=
202305061753 METAR KCLM 061753Z AUTO 30008KT 10SM OVC018 11/06 A2998 RMK AO2 SLP153 T01110056 10111 20083 51003=
202305061653 METAR KCLM 061653Z AUTO 30006KT 10SM OVC018 11/06 A2998 RMK AO2 SLP153 T01060061=
202305061553 METAR KCLM 061553Z AUTO 00000KT 10SM OVC023 11/06 A2998 RMK AO2 SLP152 T01060061=
202305061453 METAR KCLM 061453Z AUTO 28004KT 10SM OVC023 09/06 A2997 RMK AO2 SLP150 T00940061 53002=
202305061353 METAR KCLM 061353Z AUTO 25005KT 10SM BKN022 OVC090 09/06 A2996 RMK AO2 SLP147 T00890056=
202305061350 SPECI KCLM 061350Z AUTO 25005KT 10SM BKN022 OVC090 09/06 A2996 RMK AO2=
202305061333 SPECI KCLM 061333Z AUTO 25005KT 10SM FEW020 SCT060 OVC090 09/06 A2996 RMK AO2 T00890056=
202305061253 METAR KCLM 061253Z AUTO 25004KT 10SM OVC020 08/06 A2997 RMK AO2 SLP148 T00830056=
202305061153 METAR KCLM 061153Z AUTO 00000KT 10SM OVC020 09/06 A2997 RMK AO2 SLP150 70046 T00890061 10094 20089 55001=
202305061053 METAR KCLM 061053Z AUTO 23003KT 10SM OVC019 09/06 A2996 RMK AO2 SLP148 T00890061=
202305060953 METAR KCLM 060953Z AUTO 25005KT 10SM OVC018 09/06 A2996 RMK AO2 SLP148 T00890061=
202305060853 METAR KCLM 060853Z AUTO 24005KT 10SM OVC016 09/07 A2997 RMK AO2 SLP150 T00890067 55001=
202305060753 METAR KCLM 060753Z AUTO 26004KT 10SM OVC016 09/07 A2997 RMK AO2 SLP150 T00890067 401170089=
202305060731 SPECI KCLM 060731Z AUTO 24004KT 10SM OVC015 09/07 A2997 RMK AO2 T00890067=
202305060719 SPECI KCLM 060719Z AUTO 26005KT 10SM OVC014 09/07 A2997 RMK AO2 T00890067=
202305060709 SPECI KCLM 060709Z AUTO 25004KT 10SM OVC015 09/07 A2997 RMK AO2 T00890067=
202305060653 METAR KCLM 060653Z AUTO 26003KT 10SM OVC014 09/07 A2997 RMK AO2 SLP151 T00890072=
202305060642 SPECI KCLM 060642Z AUTO 26005KT 10SM OVC014 09/07 A2997 RMK AO2 T00890072=
202305060553 METAR KCLM 060553Z AUTO 26005KT 10SM OVC015 09/07 A2997 RMK AO2 RAE17 SLP151 P0000 60002 T00940072 10100 20094 50005=
202305060453 METAR KCLM 060453Z AUTO 26006KT 10SM -RA OVC013 09/07 A2998 RMK AO2 SLP152 P0000 T00940072=
202305060353 METAR KCLM 060353Z AUTO 27004KT 9SM -RA OVC013 09/07 A2997 RMK AO2 RAB0257 SLP150 P0001 T00940072=
202305060253 METAR KCLM 060253Z AUTO 29005KT 5SM BR SCT006 OVC012 09/08 A2996 RMK AO2 RAB25E47 SLP146 P0000 60001 T00940078 51005=
202305060251 SPECI KCLM 060251Z AUTO 29007KT 5SM BR SCT006 OVC011 09/08 A2996 RMK AO2 RAB25E47 P0000=
202305060153 METAR KCLM 060153Z AUTO 29008KT 3SM BR OVC005 09/08 A2995 RMK AO2 RAE34 SLP142 P0000 T00940078=
202305060121 SPECI KCLM 060121Z AUTO 30010KT 3SM -RA BR BKN005 OVC010 09/08 A2995 RMK AO2 CIG 003V007 P0000 T00940078=
202305060053 METAR KCLM 060053Z AUTO 30007KT 4SM -RA BR OVC004 10/08 A2994 RMK AO2 CIG 003V009 SLP140 P0001 T01000078=
202305060042 SPECI KCLM 060042Z AUTO 29007KT 3SM -RA BR OVC004 10/08 A2994 RMK AO2 P0000 T01000078=
202305060035 SPECI KCLM 060035Z AUTO 30008KT 2 1/2SM -RA BR OVC004 10/08 A2994 RMK AO2 P0000 T01000078=
202305052353 METAR KCLM 052353Z AUTO 32005KT 5SM -RA BR OVC004 10/08 A2993 RMK AO2 CIG 002V007 SLP135 P0002 60023 T01000083 10117 20100 51013=
202305052310 SPECI KCLM 052310Z AUTO VRB03KT 7SM -RA BKN003 OVC008 11/08 A2992 RMK AO2 CIG 002V007 P0001 T01060083=
202305052301 SPECI KCLM 052301Z AUTO 32004KT 7SM -RA BKN005 OVC010 11/08 A2992 RMK AO2 CIG 002V006 P0000 T01060083=
202305052253 METAR KCLM 052253Z AUTO 35004KT 5SM -RA BR SCT005 BKN010 OVC024 10/08 A2992 RMK AO2 CIG 008V015 SLP132 P0005 T01000083=
202305052237 SPECI KCLM 052237Z AUTO 34003KT 8SM -RA FEW005 BKN014 OVC024 11/08 A2992 RMK AO2 P0003 T01060083=
202305052226 SPECI KCLM 052226Z AUTO 00000KT 8SM -RA SCT012 OVC024 11/08 A2992 RMK AO2 P0003 T01060083=
202305052153 METAR KCLM 052153Z AUTO 04004KT 8SM -RA BKN010 OVC016 11/08 A2991 RMK AO2 CIG 006V014 SLP128 P0005 T01060083=
202305052127 SPECI KCLM 052127Z AUTO 00000KT 7SM -RA SCT010 BKN014 OVC027 12/08 A2990 RMK AO2 P0002 T01170083=
202305052116 SPECI KCLM 052116Z AUTO 00000KT 9SM -RA SCT011 BKN027 OVC050 12/08 A2989 RMK AO2 P0001 T01170083=
202305052053 METAR KCLM 052053Z AUTO 00000KT 8SM -RA FEW007 SCT039 OVC048 11/08 A2989 RMK AO2 SLP122 P0006 60011 T01110083 53010=
202305052040 SPECI KCLM 052040Z AUTO 00000KT 7SM -RA FEW007 BKN041 OVC049 11/09 A2989 RMK AO2 P0005 T01110089=
202305052014 SPECI KCLM 052014Z AUTO 00000KT 6SM -RA FEW027 BKN037 OVC049 11/08 A2988 RMK AO2 P0002 T01110083=
202305051953 METAR KCLM 051953Z AUTO 00000KT 6SM -RA BR OVC028 11/08 A2988 RMK AO2 SLP117 P0004 T01060083=
202305051929 SPECI KCLM 051929Z AUTO 00000KT 7SM -RA FEW008 OVC028 11/08 A2987 RMK AO2 P0003 T01060083=
202305051915 SPECI KCLM 051915Z AUTO 31004KT 8SM -RA FEW008 SCT012 OVC030 11/08 A2986 RMK AO2 P0002 T01060083=
202305051905 SPECI KCLM 051905Z AUTO 29004KT 10SM -RA FEW008 OVC029 11/08 A2986 RMK AO2 P0001 T01060083=
202305051853 METAR KCLM 051853Z AUTO 31003KT 8SM -RA FEW010 SCT028 OVC033 11/08 A2986 RMK AO2 SLP112 P0001 T01060083=
202305051842 SPECI KCLM 051842Z AUTO VRB03KT 10SM -RA FEW007 BKN028 OVC033 11/08 A2986 RMK AO2 P0001 T01060083=
202305051834 SPECI KCLM 051834Z AUTO 30003KT 10SM -RA FEW007 BKN033 OVC050 11/08 A2986 RMK AO2 P0001 T01060078=
202305051827 SPECI KCLM 051827Z AUTO 00000KT 10SM -RA FEW007 BKN015 OVC044 11/08 A2986 RMK AO2 P0000 T01060083=
202305051800 SPECI KCLM 051800Z AUTO 32004KT 10SM -RA SCT008 BKN014 OVC035 10/08 A2985 RMK AO2 P0000 T01000078=
202305051753 METAR KCLM 051753Z AUTO 30004KT 9SM -RA BKN008 OVC014 11/08 A2985 RMK AO2 SLP107 P0002 60021 T01060083 10106 20100 53011=
202305051743 SPECI KCLM 051743Z AUTO 32004KT 8SM -RA BKN008 OVC014 11/08 A2984 RMK AO2 P0001 T01060083=
202305051653 METAR KCLM 051653Z AUTO 31005KT 10SM -RA SCT007 OVC014 10/08 A2983 RMK AO2 SLP102 P0002 T01000078=
202305051627 SPECI KCLM 051627Z AUTO 32004KT 10SM -RA SCT006 OVC014 10/08 A2983 RMK AO2 P0001 T01000083=
202305051553 METAR KCLM 051553Z AUTO VRB04KT 9SM -RA BKN006 OVC011 10/08 A2982 RMK AO2 SLP099 P0002 T01000083=
202305051453 METAR KCLM 051453Z AUTO 29003KT 9SM -RA BKN007 OVC011 10/08 A2981 RMK AO2 SLP096 P0003 60015 T01000083 51009=
202305051353 METAR KCLM 051353Z AUTO 29003KT 8SM -RA OVC005 10/08 A2981 RMK AO2 SLP095 P0005 T01000078=
202305051253 METAR KCLM 051253Z AUTO 29004KT 6SM -RA BR OVC006 10/08 A2980 RMK AO2 SLP091 P0007 T01000078=
202305051153 METAR KCLM 051153Z AUTO 29005KT 5SM -RA BR OVC005 10/08 A2979 RMK AO2 SLP087 P0006 60009 70016 T01000083 10106 20100 53002=
202305051102 SPECI KCLM 051102Z AUTO 30003KT 7SM -RA OVC008 10/08 A2978 RMK AO2 CIG 006V011 P0000 T01000078=
202305051053 METAR KCLM 051053Z AUTO 00000KT 5SM -RA BR OVC010 10/08 A2978 RMK AO2 RAB18 CIG 006V011 SLP084 P0003 T01000078=
202305050953 METAR KCLM 050953Z AUTO 00000KT 10SM OVC011 10/08 A2978 RMK AO2 SLP086 T01000083=
202305050920 SPECI KCLM 050920Z AUTO 24004KT 10SM OVC013 10/08 A2978 RMK AO2 T01000083=
202305050853 METAR KCLM 050853Z AUTO 25004KT 10SM OVC015 10/08 A2978 RMK AO2 SLP085 T01000083 58005=
202305050753 METAR KCLM 050753Z AUTO 24004KT 5SM BR OVC015 10/08 A2979 RMK AO2 SLP089 T01000083 401390100=
202305050742 SPECI KCLM 050742Z AUTO 24004KT 5SM BR OVC015 10/08 A2979 RMK AO2 T01000083=
202305050653 METAR KCLM 050653Z AUTO 26004KT 10SM OVC013 11/08 A2980 RMK AO2 SLP091 T01060078=
202305050648 SPECI KCLM 050648Z AUTO 25006KT 10SM OVC013 11/08 A2979 RMK AO2=
202305050553 METAR KCLM 050553Z AUTO 28007KT 10SM OVC015 11/08 A2979 RMK AO2 SLP087 T01060078 10117 20106 51010=
202305050531 SPECI KCLM 050531Z AUTO 27007KT 10SM BKN016 OVC042 11/08 A2978 RMK AO2 T01060078=
202305050453 METAR KCLM 050453Z AUTO 27006KT 10SM OVC042 11/08 A2978 RMK AO2 LTG DSNT N SLP086 T01060078=
202305050353 METAR KCLM 050353Z AUTO 27008KT 10SM OVC055 11/08 A2977 RMK AO2 SLP082 T01060078=
202305050312 SPECI KCLM 050312Z AUTO 25006KT 10SM FEW020 OVC055 11/08 A2976 RMK AO2 T01110078=
202305050253 METAR KCLM 050253Z AUTO 27007KT 10SM FEW012 BKN019 OVC055 11/08 A2976 RMK AO2 SLP077 T01110078 53002=
202305050236 SPECI KCLM 050236Z AUTO 29005KT 10SM OVC016 11/08 A2976 RMK AO2 T01110078=
202305050153 METAR KCLM 050153Z AUTO 30005KT 10SM OVC012 11/08 A2975 RMK AO2 SLP076 T01110078=
202305050053 METAR KCLM 050053Z AUTO 29008G17KT 10SM OVC012 12/08 A2974 RMK AO2 SLP072 T01170083=
202305042353 METAR KCLM 042353Z AUTO 31011G18KT 10SM OVC010 12/08 A2975 RMK AO2 SLP075 60000 T01170083 10139 20111 51006=
202305042342 SPECI KCLM 042342Z AUTO 32009G16KT 10SM OVC010 12/08 A2975 RMK AO2 T01170083=
202305042253 METAR KCLM 042253Z AUTO 31008KT 10SM OVC008 12/08 A2974 RMK AO2 CIG 006V011 SLP072 T01170083=
202305042251 SPECI KCLM 042251Z AUTO 31008KT 10SM BKN008 OVC012 12/08 A2974 RMK AO2 CIG 006V011=
202305042226 SPECI KCLM 042226Z AUTO 32008G17KT 10SM OVC010 13/09 A2974 RMK AO2 T01280089=
202305042213 SPECI KCLM 042213Z AUTO 31009G16KT 10SM BKN009 13/09 A2974 RMK AO2 T01280089=
202305042203 SPECI KCLM 042203Z AUTO 31008KT 10SM SCT009 13/09 A2973 RMK AO2 T01330094=
202305042153 METAR KCLM 042153Z AUTO 31011KT 10SM CLR 14/09 A2973 RMK AO2 SLP068 T01390094=
202305042131 SPECI KCLM 042131Z AUTO 33005KT 10SM SCT010 14/09 A2973 RMK AO2 T01390094=
202305042118 SPECI KCLM 042118Z AUTO 35008KT 310V010 10SM BKN010 13/09 A2973 RMK AO2 T01330094=
202305042053 METAR KCLM 042053Z AUTO 31004KT 10SM OVC008 14/10 A2975 RMK AO2 SLP073 60000 T01390100 56009=
202305042002 SPECI KCLM 042002Z AUTO 29012KT 10SM OVC009 12/09 A2975 RMK AO2 CIG 007V012 T01220094=
202305041953 METAR KCLM 041953Z AUTO 30007KT 10SM OVC010 13/10 A2975 RMK AO2 CIG 007V012 SLP074 T01280100=
202305041949 SPECI KCLM 041949Z AUTO 29010KT 10SM OVC010 13/09 A2975 RMK AO2 CIG 007V013=
202305041853 METAR KCLM 041853Z AUTO 28009KT 10SM OVC005 12/10 A2977 RMK AO2 RAE25 SLP082 P0000 T01220100 $=
202305041753 METAR KCLM 041753Z AUTO 28008KT 10SM -RA OVC004 11/09 A2980 RMK AO2 RAE1658B53 CIG 004V008 SLP090 P0000 60007 T01110089 10117 20100 51001 $=
202305041653 METAR KCLM 041653Z AUTO 27007KT 10SM -RA OVC003 11/09 A2979 RMK AO2 RAB07 TSB1557E12 CIG 002V006 SLP090 P0007 T01060089 $=
202305041618 SPECI KCLM 041618Z AUTO 29006KT 3SM RA BR OVC004 11/08 A2979 RMK AO2 RAB07 TSB1557E12 P0005 T01060083 $=
202305041604 SPECI KCLM 041604Z AUTO 32005KT 10SM TS OVC004 11/08 A2980 RMK AO2 TSB1557 T01060083 $=
202305041557 SPECI KCLM 041557Z AUTO 32003KT 10SM TS OVC005 11/08 A2981 RMK AO2 TSB57 PRESRR T01060083 $=
202305041553 METAR KCLM 041553Z AUTO VRB04KT 10SM OVC005 11/08 A2980 RMK AO2 PRESRR SLP093 T01060083 $=
202305041518 SPECI KCLM 041518Z AUTO 26004KT 10SM BKN005 BKN013 11/09 A2978 RMK AO2 T01110094 $=
202305041453 METAR KCLM 041453Z AUTO 26003KT 10SM SCT004 OVC011 11/09 A2979 RMK AO2 SLP090 T01110089 51002 $=
202305041353 METAR KCLM 041353Z AUTO 29006KT 8SM OVC003 10/08 A2979 RMK AO2 SLP089 T01000083 $=
202305041322 SPECI KCLM 041322Z AUTO 30006KT 10SM OVC005 10/08 A2980 RMK AO2 T01000083 $=
202305041310 SPECI KCLM 041310Z AUTO 29005KT 10SM OVC004 10/08 A2980 RMK AO2 T01000083=
202305041253 METAR KCLM 041253Z AUTO 32003KT 10SM OVC005 10/08 A2980 RMK AO2 SLP091 T01000083=
202305041153 METAR KCLM 041153Z AUTO VRB03KT 10SM OVC006 11/08 A2979 RMK AO2 SLP087 60001 70001 T01060083 10111 20106 56010=
202305041053 METAR KCLM 041053Z AUTO 25006KT 10SM OVC009 11/08 A2980 RMK AO2 RAE46 CIG 006V013 SLP090 P0001 T01060083=
202305041049 SPECI KCLM 041049Z AUTO 26006KT 10SM OVC009 11/08 A2980 RMK AO2 RAE46 CIG 006V013 P0001=
202305041033 SPECI KCLM 041033Z AUTO 23009KT 10SM -RA FEW006 OVC013 11/08 A2981 RMK AO2 P0001 T01060083=
202305040953 METAR KCLM 040953Z AUTO 25011G24KT 10SM -RA OVC006 11/08 A2982 RMK AO2 RAB22 SLP097 P0000 T01060083=
202305040853 METAR KCLM 040853Z AUTO 30009KT 10SM OVC006 11/08 A2983 RMK AO2 RAB0757E13 SLP099 P0000 60000 T01060083 51011=
202305040753 METAR KCLM 040753Z AUTO 27007G19KT 10SM OVC007 11/08 A2982 RMK AO2 SLP098 T01060083 401670106=
202305040653 METAR KCLM 040653Z AUTO 30012G20KT 270V340 10SM OVC005 11/08 A2980 RMK AO2 SLP091 T01060083=
202305040553 METAR KCLM 040553Z AUTO 29010KT 10SM OVC005 11/09 A2979 RMK AO2 SLP088 T01110089 10161 20111 53017=
202305040453 METAR KCLM 040453Z AUTO 30012KT 10SM OVC005 11/09 A2977 RMK AO2 SLP083 T01110089=
202305040353 METAR KCLM 040353Z AUTO 29012KT 10SM BKN006 11/09 A2974 RMK AO2 SLP073 T01110089=
202305040349 SPECI KCLM 040349Z AUTO 29012KT 10SM BKN006 11/09 A2974 RMK AO2=
202305040333 SPECI KCLM 040333Z AUTO 28010KT 10SM FEW006 11/08 A2974 RMK AO2 T01110083=
202305040253 METAR KCLM 040253Z AUTO 28010KT 10SM CLR 13/09 A2972 RMK AO2 SLP064 T01280089 55003=
202305040153 METAR KCLM 040153Z AUTO 29009KT 10SM CLR 13/09 A2972 RMK AO2 SLP063 T01330089=
202305040053 METAR KCLM 040053Z AUTO 30007KT 10SM CLR 15/09 A2972 RMK AO2 SLP063 T01500094=
202305032353 METAR KCLM 032353Z AUTO 29007KT 10SM CLR 16/10 A2973 RMK AO2 SLP067 T01610100 10167 20144 57021=
202305032253 METAR KCLM 032253Z AUTO 34007KT 10SM CLR 16/09 A2975 RMK AO2 SLP075 T01560094=
202305032153 METAR KCLM 032153Z AUTO 31008KT 10SM CLR 16/10 A2977 RMK AO2 SLP081 T01610100=
202305032053 METAR KCLM 032053Z AUTO 30008KT 10SM CLR 15/10 A2979 RMK AO2 SLP089 T01500100 58014=
202305031953 METAR KCLM 031953Z AUTO 31009G15KT 10SM CLR 15/09 A2981 RMK AO2 SLP094 T01500094=
202305031853 METAR KCLM 031853Z AUTO 31009KT 10SM CLR 14/09 A2982 RMK AO2 SLP099 T01440094=
202305031753 METAR KCLM 031753Z AUTO 30006KT 10SM CLR 14/09 A2983 RMK AO2 SLP103 T01440094 10144 20106 56012=
202305031653 METAR KCLM 031653Z AUTO 30007KT 10SM CLR 13/09 A2984 RMK AO2 SLP106 T01330094=
202305031553 METAR KCLM 031553Z AUTO 32005KT 10SM CLR 13/09 A2986 RMK AO2 SLP110 T01280089=
202305031453 METAR KCLM 031453Z AUTO 32004KT 10SM CLR 13/09 A2987 RMK AO2 SLP114 T01280089 58002=
202305031353 METAR KCLM 031353Z AUTO 23003KT 10SM CLR 11/08 A2987 RMK AO2 SLP115 T01110083=
202305031253 METAR KCLM 031253Z AUTO 24004KT 10SM CLR 11/08 A2988 RMK AO2 SLP116 T01060078=
202305031153 METAR KCLM 031153Z AUTO 25007KT 10SM CLR 12/08 A2987 RMK AO2 SLP115 T01170083 10144 20117 58002=
202305031053 METAR KCLM 031053Z AUTO 27006KT 10SM CLR 12/08 A2988 RMK AO2 SLP118 T01170083=
202305030953 METAR KCLM 030953Z AUTO 28006KT 10SM CLR 13/08 A2988 RMK AO2 SLP118 T01330078=
202305030853 METAR KCLM 030853Z AUTO 24006KT 10SM CLR 13/08 A2988 RMK AO2 SLP117 T01330078 51017=
202305030753 METAR KCLM 030753Z AUTO 24006KT 10SM CLR 14/08 A2987 RMK AO2 SLP113 T01390078 402390094=
202305030653 METAR KCLM 030653Z AUTO 26008KT 10SM CLR 14/08 A2985 RMK AO2 SLP108 T01390083=
202305030553 METAR KCLM 030553Z AUTO 27007KT 10SM CLR 13/08 A2983 RMK AO2 SLP101 T01330083 10233 20122 51023=
202305030453 METAR KCLM 030453Z AUTO 28003KT 10SM CLR 13/08 A2981 RMK AO2 SLP095 T01280083=
202305030353 METAR KCLM 030353Z AUTO 28006KT 10SM CLR 14/07 A2980 RMK AO2 SLP090 T01390072=
202305030253 METAR KCLM 030253Z AUTO 31006KT 10SM CLR 14/08 A2976 RMK AO2 SLP078 T01440083 53014=
202305030153 METAR KCLM 030153Z AUTO 30005KT 10SM CLR 17/09 A2974 RMK AO2 SLP070 T01720089=
202305030053 METAR KCLM 030053Z AUTO VRB03KT 10SM CLR 19/09 A2972 RMK AO2 SLP065 T01890089=
202305022353 METAR KCLM 022353Z AUTO 12006KT 10SM CLR 23/09 A2972 RMK AO2 SLP063 T02330089 10239 20178 55005=
202305022253 METAR KCLM 022253Z AUTO 08005KT 10SM CLR 22/08 A2972 RMK AO2 SLP062 T02220083=
202305022153 METAR KCLM 022153Z AUTO 09005KT 10SM CLR 23/09 A2973 RMK AO2 SLP065 T02330089=
202305022053 METAR KCLM 022053Z AUTO 08006KT 10SM CLR 23/08 A2974 RMK AO2 SLP069 T02280083 58015=
202305021953 METAR KCLM 021953Z AUTO 13008KT 10SM CLR 21/09 A2975 RMK AO2 SLP075 T02060094=
202305021853 METAR KCLM 021853Z AUTO 09006KT 10SM CLR 19/09 A2977 RMK AO2 SLP080 T01940089=
202305021753 METAR KCLM 021753Z AUTO 10003KT 10SM CLR 18/08 A2978 RMK AO2 SLP084 T01780083 10183 20100 56012=
202305021653 METAR KCLM 021653Z AUTO 00000KT 10SM CLR 18/09 A2979 RMK AO2 SLP086 T01780089=
202305021553 METAR KCLM 021553Z AUTO 08005KT 10SM CLR 16/09 A2980 RMK AO2 SLP092 T01560089=
202305021453 METAR KCLM 021453Z AUTO 00000KT 10SM CLR 13/08 A2982 RMK AO2 SLP096 T01330083 58005=
202305021353 METAR KCLM 021353Z AUTO 00000KT 10SM FEW048 10/07 A2982 RMK AO2 SLP097 T01000072=
202305021253 METAR KCLM 021253Z AUTO 00000KT 10SM OVC048 10/07 A2983 RMK AO2 SLP103 T01000072=
202305021153 METAR KCLM 021153Z AUTO 00000KT 10SM OVC048 11/07 A2983 RMK AO2 SLP102 T01060072 10117 20094 58003=
202305021053 METAR KCLM 021053Z AUTO 10003KT 10SM OVC049 11/07 A2986 RMK AO2 SLP113 T01110072=
202305020953 METAR KCLM 020953Z AUTO 16005KT 10SM OVC050 10/07 A2986 RMK AO2 SLP113 T01000072=
202305020853 METAR KCLM 020853Z AUTO 00000KT 10SM CLR 09/06 A2984 RMK AO2 SLP106 T00940061 58000=
202305020753 METAR KCLM 020753Z AUTO 00000KT 10SM OVC050 10/07 A2986 RMK AO2 SLP112 T01000067 401560083=
202305020653 METAR KCLM 020653Z AUTO 27005KT 10SM CLR 11/06 A2985 RMK AO2 SLP107 T01110056=
202305020553 METAR KCLM 020553Z AUTO 24004KT 10SM CLR 11/05 A2984 RMK AO2 SLP105 T01110050 10133 20106 58006=
202305020453 METAR KCLM 020453Z AUTO VRB03KT 10SM OVC047 12/04 A2986 RMK AO2 SLP111 T01220039=
202305020353 METAR KCLM 020353Z AUTO 28005KT 10SM OVC050 13/04 A2986 RMK AO2 SLP112 T01280039=
202305020253 METAR KCLM 020253Z AUTO 29008KT 10SM OVC055 13/04 A2986 RMK AO2 SLP112 T01280039 58003=
202305020153 METAR KCLM 020153Z AUTO 29004KT 10SM OVC050 13/06 A2987 RMK AO2 SLP114 T01280056=
202305020053 METAR KCLM 020053Z AUTO 29005KT 10SM OVC050 13/05 A2987 RMK AO2 SLP117 T01280050=
202305012353 METAR KCLM 012353Z AUTO 30005KT 10SM OVC110 13/06 A2987 RMK AO2 SLP115 T01280056 10156 20128 58004=
202305012253 METAR KCLM 012253Z AUTO 31005KT 10SM SCT110 13/06 A2988 RMK AO2 SLP117 T01330056=
202305012153 METAR KCLM 012153Z AUTO 30006KT 10SM CLR 13/06 A2988 RMK AO2 SLP119 T01330056=
202305012053 METAR KCLM 012053Z AUTO 31007KT 10SM CLR 14/06 A2988 RMK AO2 SLP119 T01390061 56009=
202305011953 METAR KCLM 011953Z AUTO 30009KT 10SM OVC070 14/06 A2989 RMK AO2 SLP121 T01390061=
202305011853 METAR KCLM 011853Z AUTO 32007KT 10SM CLR 15/06 A2989 RMK AO2 SLP124 T01500061=
202305011753 METAR KCLM 011753Z AUTO VRB05KT 10SM FEW044 SCT070 14/07 A2991 RMK AO2 SLP128 T01390067 10139 20094 58000=
202305011653 METAR KCLM 011653Z AUTO 36006KT 10SM OVC041 11/07 A2991 RMK AO2 SLP128 T01110072=
202305011553 METAR KCLM 011553Z AUTO 28004KT 10SM BKN039 OVC070 12/06 A2991 RMK AO2 SLP130 T01170056=
202305011453 METAR KCLM 011453Z AUTO 24005KT 10SM FEW042 OVC060 11/06 A2991 RMK AO2 SLP129 T01060061 53003=
202305011353 METAR KCLM 011353Z AUTO 24003KT 10SM SCT045 OVC055 09/06 A2990 RMK AO2 SLP127 T00940061=
202305011253 METAR KCLM 011253Z AUTO 23003KT 10SM SCT034 OVC047 09/06 A2990 RMK AO2 SLP126 T00940061=
202305011153 METAR KCLM 011153Z AUTO 23003KT 10SM SCT033 OVC041 10/06 A2990 RMK AO2 SLP126 T01000061 10100 20083 56003=
202305011053 METAR KCLM 011053Z AUTO 22003KT 10SM OVC032 10/07 A2990 RMK AO2 SLP127 T01000067=
202305011018 SPECI KCLM 011018Z AUTO 22003KT 10SM OVC030 10/07 A2990 RMK AO2 T01000067=
202305010953 METAR KCLM 010953Z AUTO 00000KT 10SM BKN026 BKN033 OVC070 09/06 A2991 RMK AO2 SLP128 T00940061=
202305010853 METAR KCLM 010853Z AUTO 26003KT 10SM BKN024 OVC070 09/06 A2991 RMK AO2 SLP129 T00890056 58003=
202305010753 METAR KCLM 010753Z AUTO 24005KT 10SM BKN025 OVC035 09/06 A2992 RMK AO2 SLP133 T00940056 401440083=
202305010746 SPECI KCLM 010746Z AUTO 25005KT 10SM BKN023 BKN037 OVC044 09/06 A2992 RMK AO2 T00940056=
202305010653 METAR KCLM 010653Z AUTO 24005KT 10SM BKN070 08/05 A2992 RMK AO2 SLP133 T00830050=
202305010553 METAR KCLM 010553Z AUTO 24005KT 10SM FEW041 SCT080 09/06 A2992 RMK AO2 SLP133 T00940056 10128 20094 50001=
202305010515 SPECI KCLM 010515Z AUTO 22004KT 10SM SCT025 OVC033 11/06 A2993 RMK AO2 T01060061=
202305010453 METAR KCLM 010453Z AUTO 25005KT 10SM OVC025 11/06 A2992 RMK AO2 SLP133 T01060061=
202305010432 SPECI KCLM 010432Z AUTO 24004KT 10SM BKN024 OVC035 11/06 A2992 RMK AO2 T01060061=
202305010353 METAR KCLM 010353Z AUTO 25004KT 10SM SCT034 OVC043 11/06 A2992 RMK AO2 SLP132 T01110061=
202305010253 METAR KCLM 010253Z AUTO 27007KT 10SM OVC031 11/06 A2992 RMK AO2 SLP131 T01110061 56003=
202305010244 SPECI KCLM 010244Z AUTO 28008KT 10SM OVC030 12/06 A2992 RMK AO2 T01170061=
202305010153 METAR KCLM 010153Z AUTO 29008KT 10SM OVC029 12/06 A2992 RMK AO2 SLP131 T01220061=
202305010053 METAR KCLM 010053Z AUTO 28007KT 10SM OVC027 13/08 A2992 RMK AO2 SLP133 T01280078=

# No short TAF reports from KCLM in databse.

###################################
#  large TAF from KCLM
###################################
202305312320 TAF KCLM 312320Z 0100/0124 29012G22KT P6SM SKC FM010300 28008G18KT
                       P6SM FEW200 FM010900 28009KT P6SM FEW200
                       FM011800 34008KT P6SM SKC=
202305311720 TAF KCLM 311720Z 3118/0118 30010G20KT P6SM FEW050 FM312200 32010G18KT
                       P6SM SKC FM010300 28008G18KT P6SM FEW200=
202305311120 TAF KCLM 311120Z 3112/0112 26007KT P6SM SKC FM311500 30010KT P6SM
                       SKC FM010300 28008KT P6SM FEW200=
202305310543 TAF KCLM 310543Z 3106/0106 26007KT P6SM SKC FM311500 29010KT P6SM
                       SKC FM010300 26009KT P6SM FEW200=
202305302351 TAF KCLM 302351Z 3100/3124 29012G20KT P6SM FEW030 FM310200 29016G25KT
                       P6SM FEW250 FM310800 27012KT P6SM SCT250=
202305301748 TAF KCLM 301748Z 3018/3118 32012G20KT P6SM SKC FM310200 29016G25KT
                       P6SM FEW250 FM310800 27012KT P6SM SCT250=
202305301120 TAF KCLM 301120Z 3012/3112 27009KT P6SM SCT250 FM301300 27010KT
                       P6SM BKN030 FM301900 32012G20KT P6SM SKC
                       FM310200 29016G25KT P6SM FEW250 FM310800
                       27012KT P6SM SCT250=
202305300558 TAF KCLM 300558Z 3006/3106 28009KT P6SM SKC FM300700 27012KT P6SM
                       SCT250 FM301200 27014KT P6SM BKN030 FM301900
                       32012G20KT P6SM SKC FM310200 29020G24KT
                       P6SM SKC=
202305292338 TAF KCLM 292338Z 3000/3024 29010G20KT P6SM SKC FM300700 28012KT
                       P6SM SCT250 FM301200 27014KT P6SM BKN030
                       FM301900 32012G20KT P6SM SKC=
202305291730 TAF KCLM 291730Z 2918/3018 31008KT P6SM BKN008 BKN015 FM292000
                       30012G21KT P6SM SKC FM300700 28012KT P6SM
                       SCT250 FM301200 27012KT P6SM BKN050=
202305291120 TAF KCLM 291120Z 2912/3012 29010KT P6SM SKC
                      TEMPO 2912/2916 BKN010 FM292000 30012G21KT
                       P6SM SKC FM300000 29014G24KT P6SM SKC FM300700
                       28012KT P6SM SCT250=
202305290520 TAF KCLM 290520Z 2906/3006 29010KT P6SM SKC FM291200 28008KT P6SM
                       BKN015 FM292000 30012KT P6SM SKC FM300000
                       29014G24KT P6SM SKC=
202305282329 TAF KCLM 282329Z 2900/2924 VRB05KT P6SM SKC FM290200 31010KT P6SM
                       SKC FM291400 28008KT P6SM BKN025 FM292000
                       32012KT P6SM SCT050=
202305281720 TAF KCLM 281720Z 2818/2918 29007KT P6SM SCT013 FM282000 32008KT
                       P6SM SKC FM290000 30010G18KT P6SM SKC FM291400
                       28008KT P6SM BKN025=
202305281608 KCLM 281608Z 2816/2912 31005KT P6SM OVC013 FM282000 32010KT P6SM
                       SKC FM290000 30012G18KT P6SM SKC=
202305281120 TAF KCLM 281120Z 2812/2912 26007KT P6SM SCT060 FM281800 32010KT
                       P6SM SKC FM290000 30012G18KT P6SM SKC=
202305280520 TAF KCLM 280520Z 2806/2906 28008KT P6SM FEW011
                      TEMPO 2806/2810 BKN011 FM281000 27009KT P6SM
                       BKN015 FM281800 32010KT P6SM SCT250 FM290000
                       30012G18KT P6SM SCT250=
202305272329 TAF KCLM 272329Z 2800/2824 31008G20KT P6SM SCT050 SCT120 FM281300
                       27009KT P6SM BKN035 FM281800 32010KT P6SM
                       BKN250=
202305271733 TAF KCLM 271733Z 2718/2818 VRB06KT P6SM FEW013 BKN015 FM272000
                       31010G20KT P6SM SCT050 SCT120 FM281100 27008KT
                       P6SM OVC015=
202305271129 TAF KCLM 271129Z 2712/2812 29010KT P6SM SKC FM271400 30007KT P6SM
                       BKN015 FM272000 31008KT P6SM SCT050 SCT120=
202305270520 TAF KCLM 270520Z 2706/2806 28010G16KT P6SM SCT250 FM271400 30007KT
                       P6SM BKN015 FM272000 31008KT P6SM SCT050
                       SCT120=
202305262320 TAF KCLM 262320Z 2700/2724 29009KT P6SM FEW250 FM270200 29012G18KT
                       P6SM SCT250 FM271400 30007KT P6SM BKN025
                       OVC035 FM272000 31008KT P6SM SCT050=
202305261720 TAF KCLM 261720Z 2618/2718 33005KT P6SM SKC FM262200 29009KT P6SM
                       FEW250 FM270200 29015G20KT P6SM SCT250 FM271200
                       30007KT P6SM SCT025 OVC035=
202305261139 TAF KCLM 261139Z 2612/2712 00000KT P6SM SKC FM261500 33005KT P6SM
                       SKC FM262200 29009KT P6SM FEW250 FM270400
                       29015G20KT P6SM SCT250=
202305260525 TAF KCLM 260525Z 2606/2706 28007KT P6SM SKC FM261500 33005KT P6SM
                       SKC FM262200 29009KT P6SM FEW250 FM270400
                       29015G20KT P6SM SCT250=
202305252320 TAF KCLM 252320Z 2600/2624 35005KT P6SM SKC FM260100 29006KT P6SM
                       SKC FM261500 33005KT P6SM SKC FM262200 29009KT
                       P6SM FEW250=
202305251720 TAF KCLM 251720Z 2518/2618 08005KT P6SM SKC FM260100 30007KT P6SM
                       SKC=
202305251138 TAF KCLM 251138Z 2512/2612 00000KT P6SM FEW030 FM251600 35005KT
                       P6SM SKC FM260100 30007KT P6SM SKC=
202305250521 TAF KCLM 250521Z 2506/2606 VRB03KT P6SM SCT250 FM251000 26004KT
                       P6SM SCT250 FM251600 06005KT P6SM SKC FM260100
                       30007KT P6SM SKC=
202305242325 TAF KCLM 242325Z 2500/2524 32006KT P6SM SCT250 FM250300 29007KT
                       P6SM SCT250 FM251000 29004KT P6SM BKN250
                       FM251600 06005KT P6SM SKC=
202305241720 TAF KCLM 241720Z 2418/2518 00000KT P6SM SCT050 SCT200 FM250000
                       32008KT P6SM SCT250 FM250500 29007KT P6SM
                       SCT250 FM251000 29004KT P6SM BKN250=
202305241139 TAF KCLM 241139Z 2412/2512 25006KT P6SM SCT040 BKN100 FM241800
                       01007KT P6SM SCT100 SCT200 FM250000 32008KT
                       P6SM SCT250=
202305240520 TAF KCLM 240520Z 2406/2506 28008KT P6SM SCT050 SCT100 FM240900
                       25006KT P6SM SCT040 BKN100 FM241800 01007KT
                       P6SM SCT100 SCT200 FM250000 32008KT P6SM
                       SCT250=
202305232325 TAF KCLM 232325Z 2400/2424 31005KT P6SM SCT040 BKN200 FM240400
                       28008KT P6SM SCT050 SCT200 FM240900 25006KT
                       P6SM SCT040 SCT200 FM241800 VRB04KT P6SM
                       SCT200=
202305231720 TAF KCLM 231720Z 2318/2418 36005KT P6SM SCT040 BKN200 FM240200
                       28006KT P6SM SCT050 SCT200 FM240900 26006KT
                       P6SM SCT040=
202305231122 TAF KCLM 231122Z 2312/2412 27009KT P6SM BKN040 FM231800 34006KT
                       P6SM SCT040 BKN120 FM240900 26006KT P6SM
                       SCT040=
202305230537 TAF KCLM 230537Z 2306/2406 30006KT P6SM BKN040 FM230900 27009KT
                       P6SM BKN035 FM231800 34006KT P6SM SCT040
                       BKN200=
202305222322 TAF KCLM 222322Z 2300/2324 31010KT P6SM BKN040 FM230900 27009KT
                       P6SM BKN035 FM232100 35006KT P6SM SCT040
                       BKN200=
202305221720 TAF KCLM 221720Z 2218/2318 VRB04KT P6SM SCT022 BKN050 FM222100
                       32007KT P6SM BKN050 FM231000 26005KT P6SM
                       BKN025 OVC040=
202305221124 TAF KCLM 221124Z 2212/2312 27005KT P6SM OVC045 FM221700 32009KT
                       P6SM OVC050 FM231100 26005KT P6SM BKN025
                       OVC040=
202305220530 TAF KCLM 220530Z 2206/2306 27010G18KT P6SM OVC045 FM220900 27010KT
                       P6SM OVC020 FM221700 32009KT P6SM OVC050=
202305212341 TAF KCLM 212341Z 2200/2224 31010G18KT P6SM FEW010 BKN035 FM220900
                       27011KT P6SM BKN020 FM221700 32009KT P6SM
                       OVC050=
202305211736 TAF KCLM 211736Z 2118/2218 31010G18KT P6SM FEW010 BKN035 FM220000
                       31015G23KT P6SM BKN050 FM220900 27011KT
                       P6SM BKN020 FM221700 32009KT P6SM OVC050=
202305211120 TAF KCLM 211120Z 2112/2212 29015G21KT P6SM BKN010 FM211800 31010G18KT
                       P6SM OVC025 FM220000 31015G23KT P6SM BKN050
                       FM220900 27011KT P6SM BKN020=
202305210524 TAF KCLM 210524Z 2106/2206 28012G22KT P6SM BKN007 OVC070 FM210900
                       29015G21KT P6SM OVC010 FM211800 31010G18KT
                       P6SM OVC025 FM220000 31012KT P6SM SCT250=
202305210215 KCLM 210215Z 2102/2124 28015G25KT P6SM OVC008 FM210900 29015G21KT
                       P6SM OVC015 FM212100 31016G23KT P6SM OVC050=
202305202328 TAF KCLM 202328Z 2100/2124 30015G25KT P6SM BKN100 BKN250 FM210800
                       29015G21KT P6SM OVC015 FM212100 31016G23KT
                       P6SM OVC050=
202305201739 TAF KCLM 201739Z 2018/2118 29010G16KT P6SM BKN250 FM210000 30015G25KT
                       P6SM BKN100 BKN250 FM210800 29015G21KT P6SM
                       OVC015=
202305201140 TAF KCLM 201140Z 2012/2112 28010KT P6SM OVC003 FM201700 31010KT
                       P6SM BKN250 FM210000 30010G20KT P6SM BKN100
                       BKN250 FM210800 29015G21KT P6SM OVC015=
202305200520 TAF KCLM 200520Z 2006/2106 30008KT P6SM FEW120 FM201200 29009KT
                       P6SM SCT015 BKN250 FM201700 31010KT P6SM
                       BKN250 FM210000 30012G20KT P6SM BKN100 BKN250=
202305192324 TAF KCLM 192324Z 2000/2024 29012G20KT P6SM SCT100 FM201200 29009KT
                       P6SM OVC015 FM201700 31010KT P6SM BKN250=
202305191737 TAF KCLM 191737Z 1918/2018 31011KT P6SM SCT020 SCT200 FM200000
                       29012G20KT P6SM SCT040 SCT200 FM201200 29009KT
                       P6SM OVC025=
202305191224 KCLM 191224Z 1912/2012 28008KT P6SM SCT012
                      TEMPO 1912/1916 BKN011 FM191800 31011KT P6SM
                       SCT020 SCT200 FM200000 29012G20KT P6SM SCT040
                       SCT200 FM200900 29010KT P6SM SCT015 SCT200=
202305191121 TAF KCLM 191121Z 1912/2012 28008KT P6SM SCT012 FM191800 31011KT
                       P6SM SCT020 SCT200 FM200000 29012G20KT P6SM
                       SCT040 SCT200 FM200900 29010KT P6SM SCT015
                       SCT200=
202305190520 TAF KCLM 190520Z 1906/2006 28012KT P6SM SKC FM191200 30006KT P6SM
                       BKN015 FM191800 31011KT P6SM SCT200=
202305182330 KCLM 182330Z 1823/1924 30010G20KT P6SM SCT200 FM190600 29014KT
                       P6SM OVC007 FM191600 30006KT P6SM BKN015
                       FM191800 31011KT P6SM FEW015 BKN250=
202305182328 TAF KCLM 182328Z 1900/1924 30011KT P6SM SCT200 FM190600 29014KT
                       P6SM OVC007 FM191600 30006KT P6SM BKN015
                       FM191800 31011KT P6SM FEW015 BKN250=
202305181730 TAF KCLM 181730Z 1818/1918 31008KT P6SM SCT005 SCT200 FM182100
                       30011KT P6SM SCT200 FM190600 29014KT P6SM
                       OVC007 FM191600 30006KT P6SM BKN015=
202305181120 TAF KCLM 181120Z 1812/1912 27004KT 6SM BR OVC002
                      TEMPO 1812/1816 3SM BR FM181700 34008KT P6SM
                       SCT005 SCT200 FM182100 30011KT P6SM SCT200
                       FM190200 29014G21KT P6SM SCT200 FM191000
                       29010KT P6SM BKN009=
202305180939 KCLM 180939Z 1810/1906 27004KT 1SM BR BKN002 FM181700 34008KT P6SM
                       SCT005 SCT250 FM182100 30011KT P6SM SCT250
                       FM190100 29015G24KT P6SM BKN250=
202305180520 TAF KCLM 180520Z 1806/1906 29005KT P6SM SKC FM181200 31004KT 6SM
                       BR BKN003 FM181600 34008KT P6SM SCT007 SCT250
                       FM182100 30011KT P6SM SCT250 FM190100 29015G24KT
                       P6SM BKN250=
202305172320 TAF KCLM 172320Z 1800/1824 30006KT P6SM SKC FM180300 30010KT P6SM
                       SKC FM180900 31006KT P6SM OVC004 FM181200
                       31004KT 6SM BR BKN003=
202305171720 TAF KCLM 171720Z 1718/1818 34006KT 4SM BR SCT001 FM171900 33006KT
                       P6SM FEW010 SCT200 FM180300 30010KT P6SM
                       SCT200 FM180900 31006KT P6SM OVC004 FM181200
                       31004KT 6SM BR BKN003=
202305171349 KCLM 171349Z 1714/1812 27005KT 6SM BR OVC003
                      TEMPO 1714/1716 1SM BR OVC001 FM171700 34006KT
                       P6SM BKN007 BKN200 FM171900 33006KT P6SM
                       FEW010 SCT200 FM180300 30010KT P6SM SCT200
                       FM180900 31006KT P6SM BKN007=
202305171120 TAF KCLM 171120Z 1712/1812 27005KT P6SM OVC003 FM171700 34006KT
                       P6SM BKN007 BKN200 FM171900 33006KT P6SM
                       FEW010 SCT200 FM180300 30010KT P6SM SCT200
                       FM180900 31006KT P6SM BKN007=
202305170811 KCLM 170811Z 1708/1806 24005KT P6SM OVC004 FM171600 34006KT P6SM
                       BKN010 BKN250 FM172000 36006KT P6SM SCT250
                       FM180100 30008KT P6SM SCT250=
202305170520 TAF KCLM 170520Z 1706/1806 27008KT P6SM SCT100 SCT200 FM170900
                       29006KT P6SM BKN009 BKN250 FM171200 28005KT
                       P6SM OVC004 FM171600 34006KT P6SM BKN010
                       BKN250 FM172000 36006KT P6SM SCT250 FM180100
                       30008KT P6SM SCT250=
202305162321 TAF KCLM 162321Z 1700/1724 29011KT P6SM SKC FM170400 29010KT P6SM
                       SCT100 SCT200 FM170700 29011KT P6SM BKN009
                       BKN250 FM171200 30008KT P6SM OVC004 FM171600
                       34004KT P6SM BKN015 BKN250=
202305162059 KCLM 162059Z 1621/1718 31007KT P6SM SCT020 SCT120 FM162200 32006KT
                       P6SM SCT120 BKN200 FM170500 29009KT P6SM
                       SCT100 SCT200 FM171200 30008KT P6SM OVC004=
202305161753 TAF KCLM 161753Z 1618/1718 31007KT P6SM OVC010 FM162200 32006KT
                       P6SM SCT120 BKN200 FM170500 29009KT P6SM
                       SCT100 SCT200 FM171200 30008KT P6SM OVC004=
202305161500 KCLM 161500Z 1615/1712 29005KT P6SM OVC008 FM161800 31007KT P6SM
                       BKN012 BKN120 FM162000 32006KT P6SM SCT120
                       BKN200 FM170100 29009KT P6SM SCT100 SCT200=
202305161120 TAF KCLM 161120Z 1612/1712 29009KT P6SM BKN005 FM161800 31007KT
                       P6SM BKN012 BKN120 FM162000 32006KT P6SM
                       SCT120 BKN200 FM170100 29009KT P6SM SCT100
                       SCT200=
202305160540 KCLM 160540Z 1606/1706 29012G21KT P6SM VCSH BKN005 FM161000 29009KT
                       P6SM BKN005 FM162000 32006KT P6SM BKN100
                       FM170100 29009KT P6SM SCT100 SCT250=
202305160520 TAF KCLM 160520Z 1606/1706 29012G21KT P6SM VCSH SCT200 FM161000
                       29009KT P6SM BKN005 FM162000 32006KT P6SM
                       BKN100 FM170100 29009KT P6SM SCT100 SCT250=
202305152320 TAF KCLM 152320Z 1600/1624 30006KT P6SM VCSH SCT200 FM160300 29010G18KT
                       P6SM VCSH SCT200 FM161300 29006KT P6SM BKN025
                       FM162100 32006KT P6SM BKN100=
202305151737 TAF KCLM 151737Z 1518/1618 08005KT P6SM SCT040 SCT100 FM160100
                       30006KT P6SM VCSH SCT200 FM160300 29010G18KT
                       P6SM VCSH SCT200 FM161100 29006KT P6SM BKN025=
202305151726 TAF KCLM 151726Z 1518/1618 08005KT P6SM SCT040 SCT100 FM160100
                       30006KT P6SM VCSH SCT200 FM160300 29010G18KT
                       P6SM VCSH SCT200 FM161100 29006KT P6SM BKN025=
202305151140 TAF KCLM 151140Z 1512/1612 VRB03KT P6SM SKC FM152000 08005KT P6SM
                       SCT040 SCT100 FM160100 30006KT P6SM SCT200
                       FM160300 29010G18KT P6SM SCT200 FM161100
                       29006KT P6SM BKN025=
202305150546 TAF KCLM 150546Z 1506/1606 VRB04KT P6SM SKC FM151200 VRB03KT P6SM
                       SCT100 FM152000 05005KT P6SM SCT040 SCT100
                       FM160000 28009KT P6SM FEW240=
202305142325 TAF KCLM 142325Z 1500/1524 10009KT P6SM SKC FM150600 VRB03KT P6SM
                       SKC FM151100 VRB03KT P6SM SCT100 FM152000
                       05004KT P6SM SCT040 SCT100=
202305141725 TAF KCLM 141725Z 1418/1518 10009KT P6SM SKC FM150600 VRB03KT P6SM
                       SKC FM151100 VRB03KT P6SM SCT100=
202305141139 TAF KCLM 141139Z 1412/1512 22007KT P6SM SKC FM141700 10009KT P6SM
                       SKC FM150600 21003KT P6SM SKC=
202305140532 TAF KCLM 140532Z 1406/1506 VRB04KT P6SM SKC=
202305132329 TAF KCLM 132329Z 1400/1424 09006KT P6SM SKC FM140300 VRB03KT P6SM
                       SKC FM141600 12005KT P6SM SKC=
202305131729 TAF KCLM 131729Z 1318/1418 09006KT P6SM SKC FM140300 VRB03KT P6SM
                       SKC=
202305131125 TAF KCLM 131125Z 1312/1412 VRB04KT P6SM SKC FM131600 09006KT P6SM
                       SKC FM140400 VRB03KT P6SM SKC=
202305130520 TAF KCLM 130520Z 1306/1406 29003KT P6SM SKC FM131600 08007KT P6SM
                       SKC=
202305122328 TAF KCLM 122328Z 1300/1324 VRB05KT P6SM SKC FM130500 29003KT P6SM
                       SKC FM131600 08007KT P6SM SKC=
202305121720 TAF KCLM 121720Z 1218/1318 09005KT P6SM FEW250 FM130000 29005KT
                       P6SM SKC FM131000 VRB02KT P6SM SKC FM131600
                       09005KT P6SM SKC=
202305121120 TAF KCLM 121120Z 1212/1312 22004KT P6SM SCT250 FM121600 VRB03KT
                       P6SM SCT250 FM130000 29006KT P6SM SKC=
202305120533 TAF KCLM 120533Z 1206/1306 30004KT P6SM SCT250 FM121600 VRB03KT
                       P6SM BKN250 FM130000 29006KT P6SM SKC=
202305112321 TAF KCLM 112321Z 1200/1224 31005KT P6SM SKC FM120500 27006KT P6SM
                       SCT250 FM121600 06003KT P6SM BKN250=
202305111720 TAF KCLM 111720Z 1118/1218 31005KT P6SM SKC FM120500 27006KT P6SM
                       SCT250 FM121500 25003KT P6SM BKN250=
202305111129 TAF KCLM 111129Z 1112/1212 29007KT P6SM SCT250 FM111800 32006KT
                       P6SM FEW250 FM120900 27006KT P6SM SCT250=
202305110530 TAF KCLM 110530Z 1106/1206 30007KT P6SM FEW250 FM111200 30008KT
                       P6SM BKN100 FM111800 31006KT P6SM FEW250=
202305102320 TAF KCLM 102320Z 1100/1124 30007KT P6SM SKC FM110400 28007KT P6SM
                       SKC FM111300 28008KT P6SM FEW250=
202305101722 TAF KCLM 101722Z 1018/1118 36004KT P6SM SKC FM102100 36007KT P6SM
                       SKC FM110200 31009G15KT P6SM SKC FM110900
                       28008KT P6SM FEW250=
202305101133 TAF KCLM 101133Z 1012/1112 29008KT P6SM FEW250=
202305100520 TAF KCLM 100520Z 1006/1106 29008KT P6SM FEW250 FM101800 33006KT
                       P6SM FEW250=
202305092332 TAF KCLM 092332Z 1000/1024 30008KT P6SM SKC FM100500 29010KT P6SM
                       SCT250 FM101000 27006KT P6SM SKC FM101600
                       35007KT P6SM SKC=
202305091729 TAF KCLM 091729Z 0918/1018 29009KT P6SM FEW250 FM092100 33009KT
                       P6SM SCT250 FM100200 29010KT P6SM SCT080
                       FM101000 29008KT P6SM SKC=
202305091138 TAF KCLM 091138Z 0912/1012 27006KT P6SM SCT060 FM091800 29008KT
                       P6SM BKN060 FM100200 29010KT P6SM SCT080=
202305090528 TAF KCLM 090528Z 0906/1006 29008KT P6SM SCT080 FM091200 29006KT
                       P6SM SCT030 BKN050 FM091800 32007KT P6SM
                       SCT050 FM100200 29011G17KT P6SM FEW250=
202305082320 TAF KCLM 082320Z 0900/0924 29008KT P6SM SCT080 FM091200 29006KT
                       P6SM SCT030 BKN050 FM091800 32007KT P6SM
                       SCT050=
202305081721 TAF KCLM 081721Z 0818/0918 35005KT P6SM BKN070 FM082200 29008KT
                       P6SM SCT060 BKN150 FM091200 29006KT P6SM
                       SCT030 BKN050=
202305081134 TAF KCLM 081134Z 0812/0912 29006KT P6SM BKN050 BKN070 FM082100
                       29008KT P6SM SCT060 BKN150=
202305080543 TAF KCLM 080543Z 0806/0906 28008KT P6SM SCT025 BKN035 OVC050 FM081700
                       33005KT P6SM SCT035 BKN050 FM082300 31010G18KT
                       P6SM BKN100=
202305072320 TAF KCLM 072320Z 0800/0824 25008KT P6SM SCT025 BKN035 OVC050 FM080400
                       28008KT P6SM SCT035 BKN050 FM082000 34006KT
                       P6SM BKN100=
202305071739 TAF KCLM 071739Z 0718/0818 25008KT P6SM SCT025 BKN035 OVC050 FM072300
                       28008KT P6SM SCT035 BKN050=
202305071140 TAF KCLM 071140Z 0712/0812 25008KT P6SM SCT025 BKN035 OVC050
                      TEMPO 0714/0718 BKN025 OVC035 FM072300 28008KT
                       P6SM SCT035 BKN050=
202305070539 TAF KCLM 070539Z 0706/0806 25005KT P6SM SCT030 OVC060 FM071200
                       24005KT P6SM BKN030 BKN050 FM071500 VRB04KT
                       P6SM OVC020 FM072000 28004KT P6SM SCT028
                       BKN040=
202305062323 TAF KCLM 062323Z 0700/0724 32005KT P6SM SCT030 OVC060 FM071200
                       24005KT P6SM BKN030 BKN050 FM071500 VRB04KT
                       P6SM OVC020 FM072000 28004KT P6SM SCT028
                       BKN040=
202305061728 TAF KCLM 061728Z 0618/0718 29005KT P6SM OVC020 FM062200 28008KT
                       P6SM VCSH BKN040 FM071200 24005KT P6SM BKN030
                       BKN050=
202305061128 TAF KCLM 061128Z 0612/0712 VRB03KT P6SM OVC020 FM062200 28006KT
                       P6SM BKN040=
202305060537 TAF KCLM 060537Z 0606/0706 26006KT P6SM -RA OVC013 FM061600 29006KT
                       P6SM VCSH OVC030 FM070000 28006KT P6SM BKN040=
202305052335 TAF KCLM 052335Z 0600/0624 31005KT P6SM -RA BKN003 OVC010 FM061400
                       29006KT P6SM VCSH OVC030=
202305051732 TAF KCLM 051732Z 0518/0618 31005KT 6SM -RA OVC010 FM060300 28007KT
                       P6SM -SHRA OVC015 FM060700 27005KT P6SM
                       VCSH OVC010=
202305051120 TAF KCLM 051120Z 0512/0612 VRB04KT 6SM -RA OVC007 FM051800 32008KT
                       4SM -RA OVC010 FM060100 28007KT P6SM -SHRA
                       OVC015 FM060700 27005KT P6SM VCSH OVC010=
202305050535 TAF KCLM 050535Z 0506/0606 31008KT P6SM VCSH OVC016 FM051200 27008KT
                       6SM -RA OVC005 FM051800 31008KT 4SM -RA
                       OVC005=
202305042340 TAF KCLM 042340Z 0500/0524 31008KT P6SM VCSH OVC008 FM051200 27008KT
                       6SM -RA OVC005 FM051800 31008KT 4SM -RA
                       OVC005=
202305041948 KCLM 041948Z 0420/0518 29006KT P6SM OVC008 FM050400 27005KT P6SM
                       VCSH OVC010 FM051200 27008KT P6SM -RA OVC010=
202305041734 TAF KCLM 041734Z 0418/0518 29006KT P6SM OVC010 FM050400 27005KT
                       P6SM VCSH OVC010 FM051200 27008KT P6SM -RA
                       OVC010=
202305041606 KCLM 041606Z 0416/0512 25006KT P6SM VCTS OVC012CB FM041800 31007KT
                       P6SM OVC010 FM042300 29009KT P6SM -SHRA
                       OVC020 FM050400 27005KT P6SM VCSH OVC010
                       FM050900 27008KT P6SM -RA OVC007=
202305041354 KCLM 041354Z 0414/0512 25006KT P6SM OVC005 FM041800 31007KT P6SM
                       OVC010 FM042300 29009KT P6SM -SHRA OVC020
                       FM050400 27005KT P6SM VCSH OVC010 FM050900
                       27008KT P6SM -RA OVC007=
202305041125 TAF KCLM 041125Z 0412/0512 25006KT P6SM OVC010 FM041800 31007KT
                       P6SM OVC015 FM042300 29009KT P6SM -SHRA
                       OVC020 FM050400 27005KT P6SM VCSH OVC010
                       FM050900 27008KT P6SM -RA OVC007=
202305040520 TAF KCLM 040520Z 0406/0506 31011KT P6SM OVC007 FM040900 28009KT
                       P6SM OVC010 FM041800 31007KT P6SM OVC020
                       FM042300 29009KT P6SM -SHRA OVC020=
202305032331 TAF KCLM 032331Z 0400/0424 32008KT P6SM SCT250 FM040800 29006KT
                       P6SM OVC025 FM041100 28007KT P6SM OVC025
                       PROB30 0420/0423 -RA=
202305031742 TAF KCLM 031742Z 0318/0418 31009KT P6SM SCT250 FM040500 29006KT
                       P6SM SCT250 FM041100 28007KT P6SM OVC030=
202305031120 TAF KCLM 031120Z 0312/0412 28007KT P6SM SKC FM031500 30005KT P6SM
                       OVC020 FM031800 32008KT P6SM BKN250 FM032100
                       31009KT P6SM SCT250 FM040500 29006KT P6SM
                       OVC100 FM040800 28009KT P6SM OVC030=
202305030526 TAF KCLM 030526Z 0306/0406 28007KT P6SM SKC FM030900 28005KT P6SM
                       BKN250 FM031300 30005KT P6SM OVC020 FM031800
                       32008KT P6SM BKN250 FM032100 31009KT P6SM
                       SCT250=
202305022333 TAF KCLM 022333Z 0300/0324 08005KT P6SM SKC FM030400 28007KT P6SM
                       SCT050 BKN100 FM030900 28005KT P6SM OVC030
                       FM031200 30005KT P6SM OVC020 FM032100 32006KT
                       P6SM SCT250=
202305021741 TAF KCLM 021741Z 0218/0318 00000KT P6SM BKN050 FM022200 VRB04KT
                       P6SM SCT250 FM030400 29007KT P6SM SCT050
                       BKN100 FM030900 28005KT P6SM OVC030 FM031500
                       31003KT P6SM OVC020=
202305021122 TAF KCLM 021122Z 0212/0312 VRB03KT P6SM OVC050 FM021500 05008KT
                       P6SM BKN050 FM022200 VRB04KT P6SM SCT250
                       FM030400 29007KT P6SM SCT050 OVC100 FM030900
                       28008KT P6SM OVC030=
202305020523 TAF KCLM 020523Z 0206/0306 VRB03KT P6SM OVC050 FM020900 29010KT
                       P6SM SCT050 SCT150 FM021500 36006KT P6SM
                       BKN050 FM022200 33004KT P6SM SKC=
202305012334 TAF KCLM 012334Z 0200/0224 31008KT P6SM SCT040 BKN070 OVC100 FM020900
                       29006KT P6SM SCT050 SCT150=
202305011729 TAF KCLM 011729Z 0118/0218 33008KT P6SM OVC040 FM020600 29006KT
                       P6SM SCT050 BKN150=
202305011126 TAF KCLM 011126Z 0112/0212 25006KT P6SM BKN025 OVC035 FM011700
                       32007KT P6SM SCT030 BKN050 OVC080 FM020200
                       30007KT P6SM OVC100=
202305010539 TAF KCLM 010539Z 0106/0206 25006KT P6SM SCT025 OVC030 FM011700
                       32007KT P6SM SCT030 BKN050 OVC080 FM020200
                       30007KT P6SM OVC100=