##########################################################
# Query made at 02/16/2025 06:00:46 UTC
# Time interval: from 10/01/2023 00:00  to 10/31/2023 23:59  UTC
##########################################################

##########################################################
# KCLM, Port Angeles, William R. Fairchild International Airport (United States)
# WMO index: -----. WIGOS ID: Unknown
# Latitude 48-07-20N. Longitude 123-30-19W. Altitude 87 m.
##########################################################

###################################
#  METAR/SPECI from KCLM
###################################
202310312353 METAR KCLM 312353Z AUTO 00000KT 10SM CLR 11/04 A3013 RMK AO2 SLP205 T01060044 10111 20078 56011=
202310312253 METAR KCLM 312253Z AUTO VRB03KT 10SM CLR 11/05 A3014 RMK AO2 SLP208 T01060050=
202310312153 METAR KCLM 312153Z AUTO 09003KT 10SM CLR 10/04 A3015 RMK AO2 SLP211 T01000044=
202310312053 METAR KCLM 312053Z AUTO VRB03KT 10SM CLR 10/04 A3016 RMK AO2 SLP216 T01000044 58014=
202310311953 METAR KCLM 311953Z AUTO VRB03KT 10SM CLR 10/05 A3019 RMK AO2 SLP224 T01000050=
202310311918 SPECI KCLM 311918Z AUTO 00000KT 10SM SCT012 10/05 A3020 RMK AO2 T01000050=
202310311853 METAR KCLM 311853Z AUTO VRB03KT 10SM OVC012 09/06 A3020 RMK AO2 SLP229 T00940056=
202310311753 METAR KCLM 311753Z AUTO 00000KT 10SM FEW008 OVC014 08/06 A3020 RMK AO2 SLP230 T00780056 10078 20000 50004=
202310311714 SPECI KCLM 311714Z AUTO 00000KT 10SM SCT009 OVC014 06/04 A3021 RMK AO2 T00610044=
202310311700 SPECI KCLM 311700Z AUTO 24003KT 10SM SCT010 BKN015 06/04 A3021 RMK AO2 T00560039=
202310311653 METAR KCLM 311653Z AUTO 22003KT 10SM BKN013 06/04 A3021 RMK AO2 SLP233 T00610039=
202310311625 SPECI KCLM 311625Z AUTO 23004KT 10SM OVC011 05/03 A3021 RMK AO2 T00500028=
202310311553 METAR KCLM 311553Z AUTO 00000KT 8SM OVC008 03/02 A3020 RMK AO2 SLP230 T00330022=
202310311506 SPECI KCLM 311506Z AUTO 00000KT 8SM OVC009 02/00 A3019 RMK AO2 T00220000=
202310311453 METAR KCLM 311453Z AUTO 22004KT 8SM OVC010 02/00 A3019 RMK AO2 CIG 008V012 SLP227 T00170000 58001=
202310311448 SPECI KCLM 311448Z AUTO 22004KT 7SM BKN010 02/00 A3019 RMK AO2=
202310311417 SPECI KCLM 311417Z AUTO 00000KT 9SM BKN008 01/M01 A3019 RMK AO2 T00111006=
202310311353 METAR KCLM 311353Z AUTO 00000KT 9SM FEW008 00/M02 A3020 RMK AO2 SLP228 T00001017=
202310311349 SPECI KCLM 311349Z AUTO VRB03KT 9SM SCT008 00/M01 A3019 RMK AO2=
202310311326 SPECI KCLM 311326Z AUTO 00000KT 10SM BKN008 00/M02 A3020 RMK AO2 T00001017=
202310311308 SPECI KCLM 311308Z AUTO 00000KT 5SM BR FEW007 01/M01 A3020 RMK AO2 T00061011=
202310311253 METAR KCLM 311253Z AUTO 00000KT 8SM CLR 01/M01 A3020 RMK AO2 SLP229 T00061011=
202310311153 METAR KCLM 311153Z AUTO 00000KT 10SM CLR 01/M01 A3021 RMK AO2 SLP231 T00111006 10022 21006 58011=
202310311053 METAR KCLM 311053Z AUTO 00000KT 10SM CLR 00/M02 A3022 RMK AO2 SLP235 T00001017=
202310310953 METAR KCLM 310953Z AUTO 00000KT 10SM CLR 01/M01 A3023 RMK AO2 SLP239 T00111011=
202310310853 METAR KCLM 310853Z AUTO 21003KT 10SM CLR 00/M01 A3024 RMK AO2 SLP242 T00001011 56003=
202310310753 METAR KCLM 310753Z AUTO 22004KT 10SM CLR 02/M01 A3024 RMK AO2 SLP242 T00171011 401061011=
202310310653 METAR KCLM 310653Z AUTO 00000KT 10SM CLR 01/M01 A3024 RMK AO2 SLP242 T00061011=
202310310553 METAR KCLM 310553Z AUTO 00000KT 10SM CLR 01/M01 A3025 RMK AO2 SLP245 T00111011 10100 20006 50000=
202310310453 METAR KCLM 310453Z AUTO 00000KT 8SM CLR 01/M01 A3025 RMK AO2 SLP245 T00061011=
202310310353 METAR KCLM 310353Z AUTO 00000KT 10SM CLR 02/M01 A3025 RMK AO2 SLP247 T00221006=
202310310253 METAR KCLM 310253Z AUTO 00000KT 9SM CLR 03/01 A3025 RMK AO2 SLP246 T00330006 56011=
202310310153 METAR KCLM 310153Z AUTO 00000KT 10SM CLR 04/01 A3025 RMK AO2 SLP248 T00390011=
202310310053 METAR KCLM 310053Z AUTO 12004KT 10SM CLR 07/03 A3027 RMK AO2 SLP251 T00720033=
202310302353 METAR KCLM 302353Z AUTO 08006KT 10SM CLR 10/02 A3028 RMK AO2 SLP256 T01000022 10106 20089 58018=
202310302253 METAR KCLM 302253Z AUTO 09007KT 10SM CLR 10/03 A3030 RMK AO2 SLP262 T01000028=
202310302153 METAR KCLM 302153Z AUTO 09006KT 10SM CLR 10/04 A3032 RMK AO2 SLP268 T01000039=
202310302053 METAR KCLM 302053Z AUTO 05005KT 10SM CLR 10/04 A3033 RMK AO2 SLP274 T01000044 58008=
202310301953 METAR KCLM 301953Z AUTO 09008KT 10SM CLR 09/04 A3034 RMK AO2 SLP278 T00940044=
202310301853 METAR KCLM 301853Z AUTO 09007KT 10SM CLR 09/04 A3035 RMK AO2 SLP280 T00940039=
202310301753 METAR KCLM 301753Z AUTO 08007KT 10SM SCT014 09/04 A3036 RMK AO2 SLP282 T00890039 10089 20000 58002=
202310301653 METAR KCLM 301653Z AUTO 10005KT 10SM FEW013 07/04 A3036 RMK AO2 SLP284 T00720044=
202310301553 METAR KCLM 301553Z AUTO 00000KT 10SM SCT013 01/M01 A3037 RMK AO2 SLP289 T00111011=
202310301545 SPECI KCLM 301545Z AUTO 00000KT 10SM SCT013 01/M01 A3037 RMK AO2 T00111006=
202310301535 SPECI KCLM 301535Z AUTO 00000KT 9SM BKN013 00/M01 A3037 RMK AO2 T00001011=
202310301453 METAR KCLM 301453Z AUTO 00000KT 7SM FEW012 01/M01 A3036 RMK AO2 SLP285 T00061011 57003=
202310301353 METAR KCLM 301353Z AUTO 00000KT 8SM CLR 01/M01 A3037 RMK AO2 SLP287 T00111011=
202310301309 SPECI KCLM 301309Z AUTO 00000KT 8SM SCT013 01/M01 A3037 RMK AO2 T00111006=
202310301253 METAR KCLM 301253Z AUTO 00000KT 8SM BKN014 01/00 A3037 RMK AO2 SLP286 T00110000=
202310301153 METAR KCLM 301153Z AUTO 12003KT 10SM BKN014 03/01 A3037 RMK AO2 SLP288 T00280006 10033 21011 58006=
202310301053 METAR KCLM 301053Z AUTO 00000KT 10SM OVC013 02/00 A3038 RMK AO2 SLP290 T00170000=
202310301020 SPECI KCLM 301020Z AUTO 14004KT 10SM BKN011 00/M02 A3039 RMK AO2 T00001017=
202310300953 METAR KCLM 300953Z AUTO 00000KT 9SM CLR 01/M02 A3039 RMK AO2 SLP292 T00061017=
202310300853 METAR KCLM 300853Z AUTO 13005KT 10SM SCT014 01/M01 A3039 RMK AO2 SLP294 T00061011 56005=
202310300842 SPECI KCLM 300842Z AUTO 13003KT 10SM BKN014 01/M01 A3039 RMK AO2 T00111011=
202310300825 SPECI KCLM 300825Z AUTO 14004KT 10SM SCT012 00/M02 A3040 RMK AO2 T00001017=
202310300753 METAR KCLM 300753Z AUTO 00000KT 10SM BKN013 00/M02 A3040 RMK AO2 SLP296 T00001017 400941017=
202310300738 SPECI KCLM 300738Z AUTO 00000KT 10SM BKN013 00/M02 A3040 RMK AO2 T00001017=
202310300653 METAR KCLM 300653Z AUTO 15003KT 10SM CLR M01/M03 A3040 RMK AO2 SLP296 T10061028=
202310300553 METAR KCLM 300553Z AUTO 00000KT 10SM CLR 01/M01 A3041 RMK AO2 SLP299 T00111011 10089 21006 53001=
202310300453 METAR KCLM 300453Z AUTO 19003KT 10SM CLR 00/M02 A3041 RMK AO2 SLP300 T00001022=
202310300353 METAR KCLM 300353Z AUTO 00000KT 10SM CLR 01/M01 A3040 RMK AO2 SLP297 T00061011=
202310300253 METAR KCLM 300253Z AUTO 00000KT 10SM CLR 03/00 A3040 RMK AO2 SLP298 T00280000 58006=
202310300153 METAR KCLM 300153Z AUTO 00000KT 10SM CLR 02/M01 A3041 RMK AO2 SLP301 T00221006=
202310300053 METAR KCLM 300053Z AUTO 14004KT 10SM CLR 06/02 A3042 RMK AO2 SLP305 T00610017=
202310292353 METAR KCLM 292353Z AUTO 09005KT 10SM CLR 09/01 A3042 RMK AO2 SLP303 T00890011 10094 20083 56012=
202310292253 METAR KCLM 292253Z AUTO 08007KT 10SM CLR 09/02 A3043 RMK AO2 SLP308 T00940017=
202310292153 METAR KCLM 292153Z AUTO 08007KT 10SM CLR 09/01 A3044 RMK AO2 SLP310 T00940011=
202310292053 METAR KCLM 292053Z AUTO VRB05KT 10SM CLR 09/03 A3046 RMK AO2 SLP316 T00890028 58010=
202310291953 METAR KCLM 291953Z AUTO VRB03KT 10SM CLR 09/02 A3047 RMK AO2 SLP321 T00940022=
202310291853 METAR KCLM 291853Z AUTO VRB03KT 10SM CLR 09/02 A3048 RMK AO2 SLP323 T00890022=
202310291753 METAR KCLM 291753Z AUTO VRB04KT 10SM CLR 08/02 A3049 RMK AO2 SLP326 T00780022 10083 21017 50003=
202310291653 METAR KCLM 291653Z AUTO 10003KT 10SM FEW016 06/03 A3051 RMK AO2 SLP333 T00560028=
202310291553 METAR KCLM 291553Z AUTO 00000KT 10SM CLR M01/M02 A3050 RMK AO2 SLP330 T10061022=
202310291453 METAR KCLM 291453Z AUTO 21004KT 10SM CLR M01/M03 A3048 RMK AO2 SLP324 T10111033 58009=
202310291353 METAR KCLM 291353Z AUTO 00000KT 10SM CLR 00/M03 A3050 RMK AO2 SLP330 T00001028=
202310291253 METAR KCLM 291253Z AUTO 00000KT 10SM CLR M01/M03 A3050 RMK AO2 SLP331 T10061028=
202310291153 METAR KCLM 291153Z AUTO 00000KT 10SM CLR M01/M03 A3050 RMK AO2 SLP332 T10061028 10006 21017 56007=
202310291053 METAR KCLM 291053Z AUTO 00000KT 10SM CLR M01/M03 A3051 RMK AO2 SLP332 T10111033=
202310290953 METAR KCLM 290953Z AUTO 00000KT 10SM CLR M01/M03 A3052 RMK AO2 SLP337 T10111033=
202310290853 METAR KCLM 290853Z AUTO 00000KT 10SM CLR 00/M03 A3053 RMK AO2 SLP339 T00001033 52003=
202310290753 METAR KCLM 290753Z AUTO 00000KT 10SM CLR 00/M04 A3052 RMK AO2 SLP338 T00001039 400941017=
202310290653 METAR KCLM 290653Z AUTO 22005KT 10SM CLR M01/M04 A3052 RMK AO2 SLP337 T10111039=
202310290553 METAR KCLM 290553Z AUTO 00000KT 10SM CLR 01/M03 A3052 RMK AO2 SLP336 T00061033 10083 21011 58001=
202310290453 METAR KCLM 290453Z AUTO 20004KT 10SM CLR 00/M03 A3052 RMK AO2 SLP339 T00001028=
202310290353 METAR KCLM 290353Z AUTO 22005KT 10SM CLR 00/M03 A3053 RMK AO2 SLP340 T00001028=
202310290253 METAR KCLM 290253Z AUTO 00000KT 10SM CLR 02/M02 A3052 RMK AO2 SLP337 T00171022 53003=
202310290153 METAR KCLM 290153Z AUTO 00000KT 10SM CLR 02/M02 A3052 RMK AO2 SLP337 T00171022=
202310290053 METAR KCLM 290053Z AUTO 10004KT 10SM CLR 06/M02 A3051 RMK AO2 SLP334 T00561017=
202310282353 METAR KCLM 282353Z AUTO 09006KT 10SM CLR 08/M03 A3051 RMK AO2 SLP333 T00831028 10094 20078 56017=
202310282253 METAR KCLM 282253Z AUTO 08005KT 10SM CLR 09/M02 A3052 RMK AO2 SLP336 T00891022=
202310282153 METAR KCLM 282153Z AUTO 07006KT 10SM CLR 09/M01 A3053 RMK AO2 SLP342 T00891011=
202310282053 METAR KCLM 282053Z AUTO 07006KT 10SM CLR 08/01 A3056 RMK AO2 SLP350 T00830006 58001=
202310281953 METAR KCLM 281953Z AUTO 07006KT 10SM CLR 09/01 A3057 RMK AO2 SLP353 T00890006=
202310281853 METAR KCLM 281853Z AUTO 05004KT 10SM CLR 08/02 A3056 RMK AO2 SLP352 T00830017=
202310281753 METAR KCLM 281753Z AUTO 07004KT 10SM CLR 08/02 A3056 RMK AO2 SLP352 T00780017 10078 21017 51015=
202310281653 METAR KCLM 281653Z AUTO 24004KT 10SM CLR 05/M02 A3055 RMK AO2 SLP348 T00501017=
202310281635 SPECI KCLM 281635Z AUTO 23005KT 10SM SCT015 04/M02 A3055 RMK AO2 T00391022=
202310281624 SPECI KCLM 281624Z AUTO 24005KT 10SM BKN015 04/M02 A3055 RMK AO2 T00391022=
202310281553 METAR KCLM 281553Z AUTO 00000KT 10SM CLR 01/M03 A3055 RMK AO2 SLP347 T00111033=
202310281453 METAR KCLM 281453Z AUTO 22004KT 10SM CLR M02/M05 A3052 RMK AO2 SLP338 T10171050 58003=
202310281353 METAR KCLM 281353Z AUTO 21003KT 10SM CLR M01/M05 A3052 RMK AO2 SLP339 T10061050=
202310281253 METAR KCLM 281253Z AUTO 22006KT 10SM CLR 01/M04 A3053 RMK AO2 SLP340 T00061044=
202310281153 METAR KCLM 281153Z AUTO 22007KT 10SM CLR 01/M04 A3053 RMK AO2 SLP340 T00111044 10022 21006 52008=
202310281053 METAR KCLM 281053Z AUTO 22009KT 10SM CLR 02/M05 A3052 RMK AO2 SLP337 T00171050=
202310280953 METAR KCLM 280953Z AUTO 21003KT 10SM CLR 00/M05 A3051 RMK AO2 SLP334 T00001050=
202310280853 METAR KCLM 280853Z AUTO 23007KT 10SM CLR 02/M05 A3050 RMK AO2 SLP331 T00171050 53006=
202310280753 METAR KCLM 280753Z AUTO 23010KT 10SM CLR 02/M04 A3050 RMK AO2 SLP329 T00221044 401001017=
202310280653 METAR KCLM 280653Z AUTO 22007KT 10SM CLR 02/M05 A3048 RMK AO2 SLP325 T00171050=
202310280553 METAR KCLM 280553Z AUTO 23008KT 10SM CLR 02/M04 A3048 RMK AO2 SLP325 T00171044 10094 21006 52006=
202310280453 METAR KCLM 280453Z AUTO 20004KT 10SM CLR 01/M04 A3048 RMK AO2 SLP324 T00061044=
202310280353 METAR KCLM 280353Z AUTO 22007KT 10SM CLR 02/M04 A3047 RMK AO2 SLP322 T00171044=
202310280253 METAR KCLM 280253Z AUTO 22004KT 10SM CLR M01/M04 A3047 RMK AO2 SLP320 T10061039 53006=
202310280153 METAR KCLM 280153Z AUTO 21003KT 10SM CLR 02/M02 A3046 RMK AO2 SLP316 T00221022=
202310280053 METAR KCLM 280053Z AUTO 00000KT 10SM CLR 07/M04 A3045 RMK AO2 SLP314 T00671044=
202310272353 METAR KCLM 272353Z AUTO 07004KT 10SM CLR 09/M06 A3045 RMK AO2 SLP312 T00941056 10100 20089 56000=
202310272253 METAR KCLM 272253Z AUTO VRB03KT 10SM CLR 09/M05 A3045 RMK AO2 SLP312 T00941050=
202310272153 METAR KCLM 272153Z AUTO 06006KT 10SM CLR 10/M05 A3045 RMK AO2 SLP312 T01001050=
202310272053 METAR KCLM 272053Z AUTO 10SM CLR 09/M06 A3045 RMK AO2 SLP313 T00941061 51005=
202310271953 METAR KCLM 271953Z AUTO 07005KT 10SM CLR 09/M06 A3045 RMK AO2 SLP312 T00941061=
202310271853 METAR KCLM 271853Z AUTO 08007KT 10SM CLR 09/M07 A3045 RMK AO2 SLP312 T00941067=
202310271753 METAR KCLM 271753Z AUTO 11006KT 10SM CLR 09/M06 A3043 RMK AO2 SLP307 T00891056 10089 21011 51012=
202310271653 METAR KCLM 271653Z AUTO 00000KT 10SM CLR 06/00 A3043 RMK AO2 SLP308 T00560000=
202310271553 METAR KCLM 271553Z AUTO 00000KT 10SM CLR 01/M03 A3042 RMK AO2 SLP305 T00061028=
202310271453 METAR KCLM 271453Z AUTO 00000KT 10SM CLR M01/M04 A3040 RMK AO2 SLP296 T10061044 53006=
202310271353 METAR KCLM 271353Z AUTO 16004KT 10SM CLR 02/M04 A3038 RMK AO2 SLP292 T00171044=
202310271253 METAR KCLM 271253Z AUTO 13004KT 10SM CLR 00/M04 A3038 RMK AO2 SLP288 T00001044=
202310271153 METAR KCLM 271153Z AUTO 00000KT 10SM CLR 00/M03 A3038 RMK AO2 SLP289 T00001033 10017 21017 50005=
202310271053 METAR KCLM 271053Z AUTO 21005KT 10SM CLR M01/M02 A3038 RMK AO2 SLP289 T10061022=
202310270953 METAR KCLM 270953Z AUTO 00000KT 10SM CLR 00/M02 A3037 RMK AO2 SLP287 T00001022=
202310270853 METAR KCLM 270853Z AUTO 23005KT 10SM CLR 00/M02 A3036 RMK AO2 SLP283 T00001022 53012=
202310270753 METAR KCLM 270753Z AUTO 22004KT 10SM CLR 02/M01 A3035 RMK AO2 SLP278 T00171011 401000000=
202310270653 METAR KCLM 270653Z AUTO 21005KT 10SM CLR 01/M02 A3033 RMK AO2 SLP274 T00111017=
202310270553 METAR KCLM 270553Z AUTO 00000KT 10SM CLR 01/M02 A3032 RMK AO2 SLP271 T00061017 10094 20000 53010=
202310270453 METAR KCLM 270453Z AUTO 00000KT 10SM CLR 01/M01 A3032 RMK AO2 SLP268 T00111011=
202310270353 METAR KCLM 270353Z AUTO 00000KT 10SM CLR 02/M01 A3030 RMK AO2 SLP263 T00221006=
202310270253 METAR KCLM 270253Z AUTO 00000KT 10SM CLR 03/01 A3029 RMK AO2 SLP262 T00330006 53011=
202310270153 METAR KCLM 270153Z AUTO 00000KT 10SM CLR 04/01 A3028 RMK AO2 SLP256 T00440011=
202310270053 METAR KCLM 270053Z AUTO 16003KT 10SM CLR 07/02 A3027 RMK AO2 SLP251 T00720017=
202310262353 METAR KCLM 262353Z AUTO 07004KT 10SM CLR 09/02 A3026 RMK AO2 SLP249 T00940022 10100 20083 53004=
202310262253 METAR KCLM 262253Z AUTO 09005KT 10SM BKN046 09/02 A3026 RMK AO2 SLP247 T00890022=
202310262153 METAR KCLM 262153Z AUTO 02004KT 10SM SCT046 09/02 A3025 RMK AO2 SLP245 T00940022=
202310262127 SPECI KCLM 262127Z AUTO 03004KT 10SM SCT016 09/03 A3025 RMK AO2 T00940028=
202310262053 METAR KCLM 262053Z AUTO VRB05KT 10SM BKN018 OVC047 09/04 A3025 RMK AO2 SLP246 T00940039 50006=
202310262035 SPECI KCLM 262035Z AUTO VRB06KT 10SM BKN019 BKN041 09/04 A3025 RMK AO2 T00940039=
202310261953 METAR KCLM 261953Z AUTO VRB05KT 10SM CLR 09/03 A3026 RMK AO2 SLP249 T00940033=
202310261853 METAR KCLM 261853Z AUTO 03006KT 10SM SCT046 09/02 A3025 RMK AO2 SLP245 T00890022=
202310261753 METAR KCLM 261753Z AUTO 15003KT 10SM CLR 08/01 A3023 RMK AO2 SLP239 T00830006 10083 20011 51014=
202310261653 METAR KCLM 261653Z AUTO 25003KT 10SM CLR 06/01 A3022 RMK AO2 SLP237 T00610006=
202310261553 METAR KCLM 261553Z AUTO 22004KT 10SM CLR 03/M01 A3022 RMK AO2 SLP235 T00281006=
202310261453 METAR KCLM 261453Z AUTO 22007KT 10SM CLR 03/M01 A3019 RMK AO2 SLP225 T00331011 53011=
202310261353 METAR KCLM 261353Z AUTO 22007KT 10SM CLR 03/M01 A3018 RMK AO2 SLP221 T00281011=
202310261253 METAR KCLM 261253Z AUTO 23008KT 10SM CLR 03/M01 A3017 RMK AO2 SLP217 T00281011=
202310261153 METAR KCLM 261153Z AUTO 23007KT 10SM CLR 03/M01 A3016 RMK AO2 SLP214 70019 T00281011 10044 20022 50011=
202310261053 METAR KCLM 261053Z AUTO 23007KT 10SM CLR 03/M01 A3016 RMK AO2 SLP215 T00331011=
202310260953 METAR KCLM 260953Z AUTO 23006KT 10SM CLR 03/M01 A3015 RMK AO2 SLP212 T00331011=
202310260853 METAR KCLM 260853Z AUTO 23008KT 10SM CLR 03/M01 A3013 RMK AO2 SLP203 T00331006 53012=
202310260753 METAR KCLM 260753Z AUTO 22008KT 10SM CLR 04/M01 A3011 RMK AO2 SLP197 T00391006 401000033=
202310260653 METAR KCLM 260653Z AUTO 23009KT 10SM CLR 04/M01 A3008 RMK AO2 SLP189 T00391006=
202310260553 METAR KCLM 260553Z AUTO 22008KT 10SM CLR 04/M01 A3009 RMK AO2 SLP191 T00391006 10089 20033 51012=
202310260453 METAR KCLM 260453Z AUTO 23008KT 10SM CLR 04/M01 A3008 RMK AO2 SLP188 T00441006=
202310260353 METAR KCLM 260353Z AUTO 23008KT 10SM CLR 04/M01 A3008 RMK AO2 SLP186 T00391006=
202310260253 METAR KCLM 260253Z AUTO 22007KT 10SM CLR 04/00 A3005 RMK AO2 SLP179 T00440000 53016=
202310260153 METAR KCLM 260153Z AUTO 23005KT 10SM CLR 05/M01 A3003 RMK AO2 SLP171 T00501006=
202310260053 METAR KCLM 260053Z AUTO 20007KT 10SM CLR 07/01 A3003 RMK AO2 SLP169 T00720011=
202310252353 METAR KCLM 252353Z AUTO 16003KT 10SM OVC060 09/00 A3001 RMK AO2 SLP163 T00890000 10100 20083 53016=
202310252253 METAR KCLM 252253Z AUTO 16004KT 10SM SCT038 BKN047 OVC060 09/M01 A2999 RMK AO2 SLP157 T00941006=
202310252153 METAR KCLM 252153Z AUTO 13004KT 10SM OVC060 09/00 A2998 RMK AO2 SLP152 T00940000=
202310252053 METAR KCLM 252053Z AUTO 13003KT 10SM OVC048 09/M01 A2996 RMK AO2 SLP147 T00941006 51017=
202310251953 METAR KCLM 251953Z AUTO 07009G16KT 360V090 10SM FEW038 OVC048 09/M01 A2995 RMK AO2 SLP142 T00891011=
202310251853 METAR KCLM 251853Z AUTO 00000KT 10SM OVC044 08/02 A2993 RMK AO2 SLP138 T00830017=
202310251753 METAR KCLM 251753Z AUTO 04009G17KT 010V080 10SM OVC042 08/00 A2991 RMK AO2 SLP130 60019 T00830000 10083 20050 51035=
202310251653 METAR KCLM 251653Z AUTO 06008G25KT 020V080 10SM OVC037 08/M01 A2988 RMK AO2 SLP119 T00781006=
202310251616 SPECI KCLM 251616Z AUTO 07007G20KT 010V100 10SM OVC031 07/01 A2986 RMK AO2 T00720006=
202310251553 METAR KCLM 251553Z AUTO 06008KT 010V080 10SM OVC028 07/02 A2984 RMK AO2 RAE22 SLP107 P0002 T00720017=
202310251453 METAR KCLM 251453Z AUTO VRB04KT 4SM RA OVC018 07/03 A2981 RMK AO2 SLP095 P0007 60017 T00670033 53030=
202310251426 SPECI KCLM 251426Z AUTO VRB05KT 10SM -RA FEW009 BKN019 OVC024 07/04 A2979 RMK AO2 P0003 T00670039=
202310251353 METAR KCLM 251353Z AUTO 00000KT 4SM RA BR BKN011 OVC016 06/04 A2977 RMK AO2 RAB02 SLP083 P0010 T00560039=
202310251345 SPECI KCLM 251345Z AUTO 15004KT 4SM RA BR OVC013 06/03 A2977 RMK AO2 RAB02 P0008 T00560033=
202310251338 SPECI KCLM 251338Z AUTO 24006KT 4SM -RA BR OVC015 05/03 A2977 RMK AO2 RAB02 P0006 T00500033=
202310251302 SPECI KCLM 251302Z AUTO 00000KT 10SM -RA BKN013 OVC036 05/03 A2975 RMK AO2 RAB02 P0000 T00500033=
202310251253 METAR KCLM 251253Z AUTO 00000KT 10SM BKN015 BKN021 OVC036 05/03 A2974 RMK AO2 RAB39E51 SLP073 P0000 T00500033=
202310251153 METAR KCLM 251153Z AUTO 24003KT 10SM OVC023 05/03 A2972 RMK AO2 RAE1055 SLP064 P0000 60002 70042 T00500033 10056 20044 51018=
202310251132 SPECI KCLM 251132Z AUTO 00000KT 10SM BKN015 OVC023 05/03 A2971 RMK AO2 RAE1055 P0000 T00500028=
202310251119 SPECI KCLM 251119Z AUTO 20003KT 9SM OVC014 05/03 A2971 RMK AO2 RAE1055 P0000 T00500028=
202310251053 METAR KCLM 251053Z AUTO 22003KT 6SM -RA BR OVC017 05/03 A2970 RMK AO2 RAB30 SLP061 P0001 T00500028=
202310251022 SPECI KCLM 251022Z AUTO 24004KT 10SM BKN023 OVC032 05/02 A2970 RMK AO2 T00500022=
202310250953 METAR KCLM 250953Z AUTO 26004KT 10SM OVC037 04/03 A2969 RMK AO2 SLP055 T00440028=
202310250932 SPECI KCLM 250932Z AUTO 24004KT 10SM FEW022 OVC037 05/03 A2968 RMK AO2 T00500028=
202310250911 SPECI KCLM 250911Z AUTO 25005KT 10SM FEW010 BKN017 OVC035 05/03 A2967 RMK AO2 T00500028=
202310250853 METAR KCLM 250853Z AUTO 27008KT 10SM BKN012 OVC018 05/03 A2966 RMK AO2 SLP047 60001 T00500028 53015=
202310250759 SPECI KCLM 250759Z AUTO 25008KT 8SM FEW009 BKN013 OVC018 06/03 A2965 RMK AO2 T00560033=
202310250753 METAR KCLM 250753Z AUTO 25008KT 8SM SCT011 BKN014 OVC024 06/03 A2965 RMK AO2 RAE31 SLP041 P0000 T00560033 400940056=
202310250704 SPECI KCLM 250704Z AUTO 24007KT 10SM -RA SCT009 OVC014 06/03 A2963 RMK AO2 P0000 T00560033=
202310250653 METAR KCLM 250653Z AUTO 24007KT 10SM -RA BKN012 OVC020 06/03 A2963 RMK AO2 SLP035 P0001 T00560033=
202310250641 SPECI KCLM 250641Z AUTO 23008KT 10SM -RA FEW009 BKN016 OVC032 06/03 A2963 RMK AO2 P0001 T00560033=
202310250616 SPECI KCLM 250616Z AUTO 26009KT 8SM -RA SCT014 BKN023 OVC031 06/03 A2962 RMK AO2 P0001 T00560033=
202310250602 SPECI KCLM 250602Z AUTO 26010KT 10SM -RA FEW014 FEW025 OVC033 06/03 A2962 RMK AO2 P0001 T00560033=
202310250553 METAR KCLM 250553Z AUTO 26009KT 8SM -RA FEW014 BKN023 OVC033 06/03 A2962 RMK AO2 RAB04 SLP031 P0002 60027 T00560033 10078 20056 55000=
202310250531 SPECI KCLM 250531Z AUTO 26008KT 10SM -RA BKN023 OVC030 06/03 A2961 RMK AO2 RAB04 P0001 T00560033=
202310250453 METAR KCLM 250453Z AUTO 27007KT 10SM OVC049 06/03 A2960 RMK AO2 RAE25 SLP025 P0000 T00560033=
202310250353 METAR KCLM 250353Z AUTO 25006KT 7SM -RA FEW022 SCT029 OVC036 06/04 A2960 RMK AO2 SLP026 P0004 T00610039=
202310250253 METAR KCLM 250253Z AUTO 25007KT 7SM -RA FEW018 OVC028 07/04 A2962 RMK AO2 SLP032 P0005 60021 T00670044 56014=
202310250153 METAR KCLM 250153Z AUTO 26006KT 5SM -RA BR OVC029 07/05 A2963 RMK AO2 SLP034 P0009 T00670050=
202310250053 METAR KCLM 250053Z AUTO 27003KT 3SM -RA BR BKN022 BKN029 OVC039 07/06 A2963 RMK AO2 SLP037 P0007 T00720056=
202310242353 METAR KCLM 242353Z AUTO 18003KT 3SM -RA BR FEW013 OVC040 08/06 A2966 RMK AO2 SLP045 P0006 60011 T00780061 10083 20072 58033=
202310242318 SPECI KCLM 242318Z AUTO 27005KT 5SM -RA BR FEW006 SCT014 OVC039 08/06 A2969 RMK AO2 P0002 T00780056=
202310242253 METAR KCLM 242253Z AUTO 27005KT 5SM -RA BR SCT007 OVC015 08/06 A2970 RMK AO2 SLP058 P0003 T00780056=
202310242231 SPECI KCLM 242231Z AUTO 28004KT 5SM -RA BR FEW007 BKN015 OVC055 08/06 A2971 RMK AO2 P0002 T00780056=
202310242153 METAR KCLM 242153Z AUTO 26003KT 9SM -RA SCT020 OVC050 08/06 A2973 RMK AO2 SLP066 P0000 T00830061=
202310242103 SPECI KCLM 242103Z AUTO 27004KT 10SM -RA SCT011 SCT045 OVC060 08/06 A2975 RMK AO2 P0000 T00780056=
202310242053 METAR KCLM 242053Z AUTO 30004KT 10SM -RA BKN011 BKN044 OVC055 08/06 A2976 RMK AO2 SLP078 P0000 60002 T00830061 58034=
202310241953 METAR KCLM 241953Z AUTO 00000KT 10SM -RA FEW006 BKN014 OVC049 08/06 A2980 RMK AO2 SLP091 P0001 T00780056=
202310241853 METAR KCLM 241853Z AUTO 26004KT 10SM -RA FEW036 BKN046 OVC055 08/05 A2984 RMK AO2 SLP106 P0001 T00780050=
202310241753 METAR KCLM 241753Z AUTO 21004KT 8SM -RA BKN036 OVC048 08/04 A2986 RMK AO2 RAB1658 SLP113 P0002 60002 T00780044 10083 20056 56020=
202310241653 METAR KCLM 241653Z AUTO 31003KT 10SM OVC055 08/03 A2988 RMK AO2 SLP119 T00830033=
202310241553 METAR KCLM 241553Z AUTO 00000KT 10SM OVC070 07/03 A2989 RMK AO2 SLP124 T00720033=
202310241453 METAR KCLM 241453Z AUTO 00000KT 10SM SCT095 SCT120 06/02 A2992 RMK AO2 SLP132 T00610022 58019=
202310241353 METAR KCLM 241353Z AUTO 22003KT 10SM OVC110 06/02 A2995 RMK AO2 SLP142 T00610022=
202310241253 METAR KCLM 241253Z AUTO 17004KT 10SM SCT120 07/01 A2997 RMK AO2 SLP148 T00670011=
202310241153 METAR KCLM 241153Z AUTO 00000KT 10SM CLR 07/01 A2997 RMK AO2 SLP151 T00720011 10094 20072 58021=
202310241053 METAR KCLM 241053Z AUTO 24006KT 10SM FEW065 08/01 A3000 RMK AO2 SLP161 T00830006=
202310240953 METAR KCLM 240953Z AUTO 24005KT 10SM CLR 09/01 A3002 RMK AO2 SLP167 T00940006=
202310240853 METAR KCLM 240853Z AUTO 24008KT 10SM FEW070 08/01 A3004 RMK AO2 SLP172 T00830006 53001=
202310240753 METAR KCLM 240753Z AUTO 25006KT 10SM CLR 09/01 A3004 RMK AO2 SLP172 T00890006 401440072=
202310240653 METAR KCLM 240653Z AUTO 24007KT 10SM CLR 08/01 A3004 RMK AO2 SLP172 T00780006=
202310240553 METAR KCLM 240553Z AUTO 26006KT 10SM CLR 08/01 A3003 RMK AO2 SLP171 T00780006 10122 20078 55003=
202310240453 METAR KCLM 240453Z AUTO 24006KT 10SM CLR 08/01 A3003 RMK AO2 SLP170 T00830011=
202310240353 METAR KCLM 240353Z AUTO 24007KT 10SM CLR 09/01 A3003 RMK AO2 SLP169 T00890011=
202310240253 METAR KCLM 240253Z AUTO 27008G16KT 10SM CLR 10/01 A3004 RMK AO2 SLP175 T01000006 53012=
202310240153 METAR KCLM 240153Z AUTO 28012G18KT 10SM CLR 10/02 A3003 RMK AO2 SLP170 T01000017=
202310240053 METAR KCLM 240053Z AUTO 28010KT 10SM CLR 11/02 A3002 RMK AO2 SLP166 T01060017=
202310232353 METAR KCLM 232353Z AUTO 29011G21KT 10SM CLR 12/02 A3001 RMK AO2 SLP163 T01220017 10144 20122 53006=
202310232253 METAR KCLM 232253Z AUTO 30013G21KT 10SM CLR 13/03 A3000 RMK AO2 SLP159 T01330028=
202310232153 METAR KCLM 232153Z AUTO 30015G24KT 10SM CLR 14/03 A2998 RMK AO2 PK WND 30027/2055 SLP154 T01390033=
202310232053 METAR KCLM 232053Z AUTO 30014G28KT 10SM CLR 14/04 A2999 RMK AO2 PK WND 29028/2052 SLP156 T01390039 50000=
202310231953 METAR KCLM 231953Z AUTO 30012G19KT 10SM CLR 13/04 A3000 RMK AO2 SLP159 T01330044=
202310231853 METAR KCLM 231853Z AUTO 30011G21KT 10SM CLR 13/05 A3001 RMK AO2 SLP162 T01330050=
202310231753 METAR KCLM 231753Z AUTO VRB03KT 10SM CLR 12/05 A2999 RMK AO2 SLP156 T01220050 10122 20072 50001=
202310231653 METAR KCLM 231653Z AUTO 23006KT 10SM CLR 10/05 A2999 RMK AO2 SLP158 T01000050=
202310231553 METAR KCLM 231553Z AUTO 23005KT 10SM CLR 08/04 A3000 RMK AO2 SLP158 T00830044=
202310231453 METAR KCLM 231453Z AUTO 23006KT 10SM SCT033 08/05 A2999 RMK AO2 SLP156 T00780050 53007=
202310231353 METAR KCLM 231353Z AUTO 26003KT 10SM CLR 08/05 A2997 RMK AO2 SLP151 T00830050=
202310231253 METAR KCLM 231253Z AUTO 23006KT 10SM CLR 08/05 A2997 RMK AO2 SLP151 T00780050=
202310231153 METAR KCLM 231153Z AUTO 23005KT 10SM SCT031 09/06 A2997 RMK AO2 SLP149 T00890061 10106 20089 58002=
202310231053 METAR KCLM 231053Z AUTO 00000KT 10SM OVC032 10/07 A2998 RMK AO2 SLP151 T01000072=
202310231041 SPECI KCLM 231041Z AUTO 21003KT 10SM OVC030 10/07 A2998 RMK AO2 T01000072=
202310230953 METAR KCLM 230953Z AUTO 23004KT 10SM OVC024 10/07 A2999 RMK AO2 SLP155 T01000072=
202310230853 METAR KCLM 230853Z AUTO 20003KT 10SM OVC020 10/08 A2997 RMK AO2 SLP151 T01000078 53002=
202310230811 SPECI KCLM 230811Z AUTO 00000KT 10SM OVC015 11/08 A2997 RMK AO2 T01060078=
202310230753 METAR KCLM 230753Z AUTO 00000KT 10SM OVC014 11/08 A2996 RMK AO2 SLP146 T01060083 401500061=
202310230727 SPECI KCLM 230727Z AUTO 00000KT 10SM OVC014 10/07 A2997 RMK AO2 T01000072=
202310230653 METAR KCLM 230653Z AUTO 00000KT 10SM OVC022 10/08 A2997 RMK AO2 SLP149 T01000078=
202310230553 METAR KCLM 230553Z AUTO 00000KT 9SM OVC017 09/07 A2997 RMK AO2 SLP148 T00890072 10133 20061 51003=
202310230453 METAR KCLM 230453Z AUTO 00000KT 9SM SCT018 BKN024 06/04 A2997 RMK AO2 SLP148 T00610044=
202310230353 METAR KCLM 230353Z AUTO 00000KT 10SM CLR 08/06 A2996 RMK AO2 SLP147 T00780061=
202310230253 METAR KCLM 230253Z AUTO 00000KT 10SM CLR 08/06 A2996 RMK AO2 SLP146 T00830061 53012=
202310230153 METAR KCLM 230153Z AUTO 00000KT 10SM CLR 10/07 A2993 RMK AO2 SLP137 T01000072=
202310230053 METAR KCLM 230053Z AUTO 00000KT 10SM CLR 12/07 A2992 RMK AO2 SLP132 T01170072=
202310222353 METAR KCLM 222353Z AUTO 08003KT 10SM CLR 13/08 A2992 RMK AO2 SLP132 T01330078 10150 20128 53002=
202310222253 METAR KCLM 222253Z AUTO VRB03KT 10SM CLR 14/08 A2992 RMK AO2 SLP131 T01390078=
202310222153 METAR KCLM 222153Z AUTO 07005KT 10SM CLR 14/08 A2991 RMK AO2 SLP129 T01440078=
202310222053 METAR KCLM 222053Z AUTO 10008KT 10SM CLR 14/08 A2992 RMK AO2 SLP130 T01390078 55002=
202310221953 METAR KCLM 221953Z AUTO 06007KT 10SM CLR 14/08 A2991 RMK AO2 SLP128 T01440083=
202310221853 METAR KCLM 221853Z AUTO 08004KT 10SM CLR 14/09 A2992 RMK AO2 SLP130 T01440094=
202310221753 METAR KCLM 221753Z AUTO 07004KT 10SM OVC085 13/09 A2992 RMK AO2 SLP133 60000 T01330089 10139 20106 51011=
202310221653 METAR KCLM 221653Z AUTO 10005KT 10SM BKN090 13/08 A2991 RMK AO2 SLP130 T01330078=
202310221553 METAR KCLM 221553Z AUTO 10006KT 10SM BKN095 OVC120 13/08 A2990 RMK AO2 SLP126 T01280078=
202310221453 METAR KCLM 221453Z AUTO 12003KT 10SM OVC100 11/08 A2989 RMK AO2 SLP122 60000 T01060078 55002=
202310221353 METAR KCLM 221353Z AUTO 12004KT 10SM BKN100 BKN120 11/08 A2989 RMK AO2 SLP122 T01110083=
202310221253 METAR KCLM 221253Z AUTO 10005KT 10SM OVC100 12/08 A2989 RMK AO2 RAE07 SLP124 P0000 T01170078=
202310221153 METAR KCLM 221153Z AUTO 12006KT 10SM -RA SCT070 OVC095 12/08 A2989 RMK AO2 RAB53 SLP123 P0000 60000 T01220078 10122 20106 56001=
202310221053 METAR KCLM 221053Z AUTO 10005KT 10SM FEW075 SCT095 BKN120 12/08 A2990 RMK AO2 SLP124 T01170078=
202310220953 METAR KCLM 220953Z AUTO 10006KT 10SM SCT100 BKN120 12/08 A2989 RMK AO2 SLP123 T01170078=
202310220853 METAR KCLM 220853Z AUTO 15003KT 10SM OVC110 11/08 A2990 RMK AO2 SLP124 60000 T01110078 58000=
202310220753 METAR KCLM 220753Z AUTO 10003KT 10SM OVC120 11/07 A2989 RMK AO2 RAB30E41 SLP124 P0000 T01110072 401560083=
202310220653 METAR KCLM 220653Z AUTO 00000KT 10SM FEW120 11/07 A2990 RMK AO2 SLP125 T01110072=
202310220553 METAR KCLM 220553Z AUTO 13006KT 10SM FEW080 BKN110 12/08 A2990 RMK AO2 SLP124 T01220078 10139 20111 50008=
202310220453 METAR KCLM 220453Z AUTO 14003KT 10SM SCT110 12/08 A2990 RMK AO2 SLP125 T01170083=
202310220353 METAR KCLM 220353Z AUTO 09006KT 10SM BKN110 12/09 A2987 RMK AO2 SLP117 T01220089=
202310220253 METAR KCLM 220253Z AUTO 09003KT 10SM OVC110 12/09 A2987 RMK AO2 SLP117 T01220089 58003=
202310220153 METAR KCLM 220153Z AUTO 10003KT 10SM SCT110 12/09 A2990 RMK AO2 SLP124 T01220089=
202310220053 METAR KCLM 220053Z AUTO 00000KT 10SM CLR 13/08 A2988 RMK AO2 SLP118 T01280083=
202310212353 METAR KCLM 212353Z AUTO 08005KT 10SM CLR 14/08 A2988 RMK AO2 SLP120 T01390083 10156 20128 56009=
202310212253 METAR KCLM 212253Z AUTO 12005KT 10SM SCT110 14/08 A2989 RMK AO2 SLP123 T01440083=
202310212153 METAR KCLM 212153Z AUTO 09003KT 10SM CLR 14/08 A2990 RMK AO2 SLP125 T01440083=
202310212053 METAR KCLM 212053Z AUTO 08005KT 10SM FEW011 14/09 A2991 RMK AO2 SLP129 T01390089 57006=
202310211953 METAR KCLM 211953Z AUTO 08007KT 10SM CLR 13/08 A2992 RMK AO2 SLP131 T01330078=
202310211853 METAR KCLM 211853Z AUTO 10007KT 10SM FEW120 14/08 A2992 RMK AO2 SLP132 T01390078=
202310211753 METAR KCLM 211753Z AUTO 00000KT 10SM CLR 13/08 A2993 RMK AO2 SLP134 T01330078 10133 20083 50001=
202310211653 METAR KCLM 211653Z AUTO 09005KT 10SM CLR 13/08 A2993 RMK AO2 SLP137 T01330078=
202310211608 SPECI KCLM 211608Z AUTO 00000KT 10SM SCT026 12/08 A2994 RMK AO2 T01170083=
202310211553 METAR KCLM 211553Z AUTO 13004KT 10SM BKN026 11/08 A2993 RMK AO2 SLP137 T01060078=
202310211453 METAR KCLM 211453Z AUTO 10004KT 10SM OVC027 11/07 A2993 RMK AO2 SLP134 T01060072 56000=
202310211353 METAR KCLM 211353Z AUTO 11010KT 10SM BKN027 12/07 A2993 RMK AO2 SLP134 T01170072=
202310211342 SPECI KCLM 211342Z AUTO 11008KT 10SM BKN027 11/07 A2992 RMK AO2 T01110072=
202310211253 METAR KCLM 211253Z AUTO 13005KT 10SM CLR 11/08 A2992 RMK AO2 SLP134 T01060078=
202310211153 METAR KCLM 211153Z AUTO 17003KT 10SM CLR 08/07 A2993 RMK AO2 SLP135 T00830067 10122 20083 58009=
202310211053 METAR KCLM 211053Z AUTO 00000KT 10SM CLR 09/07 A2994 RMK AO2 SLP138 T00940072=
202310210953 METAR KCLM 210953Z AUTO 20003KT 10SM CLR 10/08 A2995 RMK AO2 SLP143 T01000078=
202310210853 METAR KCLM 210853Z AUTO 11003KT 10SM CLR 11/08 A2995 RMK AO2 SLP143 T01060078 55006=
202310210753 METAR KCLM 210753Z AUTO 15005KT 10SM CLR 12/08 A2995 RMK AO2 SLP142 T01170083 401670106=
202310210653 METAR KCLM 210653Z AUTO 12004KT 10SM CLR 12/08 A2996 RMK AO2 SLP146 T01170083=
202310210553 METAR KCLM 210553Z AUTO 13005KT 10SM CLR 12/08 A2997 RMK AO2 SLP149 T01170083 10139 20106 56008=
202310210453 METAR KCLM 210453Z AUTO 12004KT 10SM CLR 12/09 A2998 RMK AO2 SLP153 T01170089=
202310210353 METAR KCLM 210353Z AUTO 11003KT 10SM CLR 11/08 A2998 RMK AO2 SLP154 T01110083=
202310210253 METAR KCLM 210253Z AUTO 00000KT 10SM CLR 11/08 A3000 RMK AO2 SLP159 T01110083 56011=
202310210153 METAR KCLM 210153Z AUTO 12004KT 10SM CLR 12/09 A3000 RMK AO2 SLP160 T01220089=
202310210053 METAR KCLM 210053Z AUTO 12004KT 10SM CLR 13/08 A3001 RMK AO2 SLP162 T01330083=
202310202353 METAR KCLM 202353Z AUTO 09006KT 10SM CLR 14/08 A3003 RMK AO2 SLP169 T01390078 10167 20139 56014=
202310202253 METAR KCLM 202253Z AUTO 12007KT 10SM CLR 15/09 A3004 RMK AO2 SLP173 T01500089=
202310202153 METAR KCLM 202153Z AUTO 08007KT 10SM CLR 14/09 A3006 RMK AO2 SLP179 T01440089=
202310202053 METAR KCLM 202053Z AUTO 07006KT 10SM CLR 14/11 A3007 RMK AO2 SLP183 T01440106 58010=
202310201953 METAR KCLM 201953Z AUTO 06004KT 10SM CLR 15/11 A3008 RMK AO2 SLP187 T01500111=
202310201853 METAR KCLM 201853Z AUTO 10004KT 10SM FEW008 16/11 A3010 RMK AO2 SLP193 T01560111=
202310201848 SPECI KCLM 201848Z AUTO 10005KT 10SM FEW008 15/11 A3010 RMK AO2=
202310201753 METAR KCLM 201753Z AUTO 10005KT 10SM OVC008 14/11 A3011 RMK AO2 SLP195 T01390106 10144 20128 53006=
202310201712 SPECI KCLM 201712Z AUTO VRB03KT 10SM BKN008 14/11 A3010 RMK AO2 T01390106=
202310201653 METAR KCLM 201653Z AUTO 00000KT 10SM SCT008 14/11 A3010 RMK AO2 SLP194 T01390106=
202310201629 SPECI KCLM 201629Z AUTO 00000KT 10SM OVC009 13/11 A3010 RMK AO2 T01330106=
202310201553 METAR KCLM 201553Z AUTO 00000KT 10SM OVC010 13/11 A3009 RMK AO2 SLP188 T01330106=
202310201541 SPECI KCLM 201541Z AUTO 00000KT 10SM OVC010 13/11 A3009 RMK AO2 T01280106=
202310201453 METAR KCLM 201453Z AUTO 22003KT 10SM OVC009 13/11 A3009 RMK AO2 SLP189 T01280106 58000=
202310201353 METAR KCLM 201353Z AUTO 00000KT 10SM OVC008 13/11 A3009 RMK AO2 SLP190 T01280106=
202310201253 METAR KCLM 201253Z AUTO 00000KT 10SM OVC007 13/11 A3009 RMK AO2 SLP188 T01280106=
202310201153 METAR KCLM 201153Z AUTO 29006KT 10SM OVC008 13/11 A3009 RMK AO2 SLP189 T01280106 10139 20128 51002=
202310201117 SPECI KCLM 201117Z AUTO 31003KT 10SM BKN009 OVC042 13/11 A3008 RMK AO2 T01280111=
202310201053 METAR KCLM 201053Z AUTO 26005KT 10SM FEW006 OVC041 13/11 A3008 RMK AO2 SLP187 T01280111=
202310201036 SPECI KCLM 201036Z AUTO 25005KT 10SM SCT005 OVC040 13/11 A3008 RMK AO2 T01330111=
202310201025 SPECI KCLM 201025Z AUTO 25004KT 10SM BKN005 BKN012 OVC042 13/12 A3009 RMK AO2 CIG 003V010 T01330117=
202310200953 METAR KCLM 200953Z AUTO 28006KT 10SM OVC003 13/12 A3009 RMK AO2 SLP190 T01330117=
202310200901 SPECI KCLM 200901Z AUTO 28008KT 3SM BR OVC002 13/12 A3009 RMK AO2 T01330117=
202310200853 METAR KCLM 200853Z AUTO 29009KT 1 3/4SM BR OVC003 13/12 A3008 RMK AO2 SLP187 T01330117 51008=
202310200753 METAR KCLM 200753Z AUTO 27006KT 10SM OVC003 14/12 A3008 RMK AO2 SLP187 T01390117 401830083=
202310200653 METAR KCLM 200653Z AUTO 27007KT 10SM BKN003 13/12 A3008 RMK AO2 SLP185 T01330117=
202310200627 SPECI KCLM 200627Z AUTO 25007KT 10SM BKN003 BKN038 13/12 A3007 RMK AO2 T01330117=
202310200553 METAR KCLM 200553Z AUTO 28007KT 10SM SCT003 13/12 A3006 RMK AO2 SLP179 T01330117 10161 20133 58002=
202310200513 SPECI KCLM 200513Z AUTO 26006KT 9SM OVC002 14/12 A3007 RMK AO2 T01390122=
202310200501 SPECI KCLM 200501Z AUTO 26005KT 2SM BR OVC002 14/12 A3007 RMK AO2 T01390122=
202310200453 METAR KCLM 200453Z AUTO 27006KT 3SM BR OVC002 14/12 A3007 RMK AO2 SLP181 T01390122=
202310200439 SPECI KCLM 200439Z AUTO 26009KT 2SM BR OVC002 14/12 A3007 RMK AO2 T01390122=
202310200422 SPECI KCLM 200422Z AUTO 26007KT 1/2SM FG VV002 14/13 A3007 RMK AO2 T01390128=
202310200400 SPECI KCLM 200400Z AUTO 28006KT 1/4SM FG VV002 14/12 A3007 RMK AO2 T01390122=
202310200353 METAR KCLM 200353Z AUTO 29007KT 1/2SM FG VV002 14/13 A3007 RMK AO2 SLP182 T01390128=
202310200346 SPECI KCLM 200346Z AUTO 29006KT 3/4SM BR VV002 14/13 A3007 RMK AO2 T01440128=
202310200331 SPECI KCLM 200331Z AUTO 28005KT 1 3/4SM BR OVC002 14/13 A3007 RMK AO2 T01440128=
202310200253 METAR KCLM 200253Z AUTO 28005KT 10SM OVC003 15/13 A3007 RMK AO2 SLP181 T01500133 55002=
202310200209 SPECI KCLM 200209Z AUTO 29007KT 10SM BKN003 OVC010 15/13 A3006 RMK AO2 T01500133=
202310200153 METAR KCLM 200153Z AUTO 31005KT 10SM FEW006 OVC011 15/13 A3006 RMK AO2 SLP180 T01500133=
202310200129 SPECI KCLM 200129Z AUTO 29003KT 8SM FEW006 OVC011 16/13 A3007 RMK AO2 T01560133=
202310200053 METAR KCLM 200053Z AUTO 28003KT 10SM OVC009 16/14 A3007 RMK AO2 SLP182 T01610139=
202310200011 SPECI KCLM 200011Z AUTO 00000KT 7SM OVC009 16/14 A3007 RMK AO2 T01610139=
202310192353 METAR KCLM 192353Z AUTO 00000KT 3SM BR OVC010 16/14 A3007 RMK AO2 SLP183 T01560139 10183 20150 53001=
202310192326 SPECI KCLM 192326Z AUTO 31003KT 8SM BKN013 OVC020 16/13 A3007 RMK AO2 T01560133=
202310192253 METAR KCLM 192253Z AUTO 00000KT 10SM OVC021 15/12 A3007 RMK AO2 SLP185 T01500117=
202310192153 METAR KCLM 192153Z AUTO 01004KT 10SM OVC027 17/11 A3007 RMK AO2 SLP182 T01670111=
202310192053 METAR KCLM 192053Z AUTO 01004KT 10SM BKN021 OVC060 17/12 A3007 RMK AO2 SLP183 T01670117 50006=
202310192010 SPECI KCLM 192010Z AUTO 00000KT 10SM BKN025 OVC065 16/12 A3008 RMK AO2 T01560117=
202310191953 METAR KCLM 191953Z AUTO 32003KT 10SM FEW026 BKN070 16/12 A3008 RMK AO2 SLP185 T01560117=
202310191853 METAR KCLM 191853Z AUTO VRB04KT 10SM SCT080 17/11 A3007 RMK AO2 SLP183 T01670111=
202310191753 METAR KCLM 191753Z AUTO 33003KT 10SM CLR 16/12 A3005 RMK AO2 SLP177 T01610117 10161 20094 51015=
202310191653 METAR KCLM 191653Z AUTO 00000KT 10SM SCT060 BKN070 14/12 A3004 RMK AO2 SLP175 T01440117=
202310191553 METAR KCLM 191553Z AUTO 00000KT 10SM FEW060 14/12 A3003 RMK AO2 SLP169 T01440117=
202310191453 METAR KCLM 191453Z AUTO 00000KT 10SM OVC060 12/11 A3001 RMK AO2 SLP162 T01170106 56000=
202310191449 SPECI KCLM 191449Z AUTO 00000KT 10SM FEW002 OVC060 12/11 A3001 RMK AO2=
202310191353 METAR KCLM 191353Z AUTO 18003KT 10SM OVC055 12/10 A3001 RMK AO2 SLP162 T01170100=
202310191253 METAR KCLM 191253Z AUTO 00000KT 10SM BKN060 BKN075 11/09 A3001 RMK AO2 SLP163 T01060089=
202310191215 SPECI KCLM 191215Z AUTO 00000KT 9SM FEW002 11/09 A2999 RMK AO2 T01060089=
202310191153 METAR KCLM 191153Z AUTO 00000KT 10SM FEW085 09/08 A2999 RMK AO2 SLP155 T00940078 10106 20083 56008=
202310191053 METAR KCLM 191053Z AUTO 00000KT 10SM CLR 09/08 A2999 RMK AO2 SLP157 T00940078=
202310191027 SPECI KCLM 191027Z AUTO 00000KT 3SM BR CLR 09/08 A2999 RMK AO2 T00940078=
202310191018 SPECI KCLM 191018Z AUTO 00000KT 1 3/4SM BR CLR 09/08 A3000 RMK AO2 VIS 3/4V5 T00940078=
202310190953 METAR KCLM 190953Z AUTO 00000KT 10SM CLR 09/08 A3000 RMK AO2 SLP160 T00940078=
202310190853 METAR KCLM 190853Z AUTO 00000KT 3SM BR FEW002 09/07 A3001 RMK AO2 SLP163 T00890072 56002=
202310190841 SPECI KCLM 190841Z AUTO 00000KT 10SM FEW002 09/07 A3001 RMK AO2 T00890072=
202310190753 METAR KCLM 190753Z AUTO 22004KT 10SM CLR 11/09 A3002 RMK AO2 SLP164 T01060089 401670083=
202310190653 METAR KCLM 190653Z AUTO 00000KT 10SM CLR 09/07 A3001 RMK AO2 SLP162 T00890072=
202310190553 METAR KCLM 190553Z AUTO 21003KT 7SM CLR 09/08 A3002 RMK AO2 SLP166 T00890078 10161 20089 50004=
202310190453 METAR KCLM 190453Z AUTO 00000KT 10SM CLR 09/08 A3002 RMK AO2 SLP167 T00940078=
202310190353 METAR KCLM 190353Z AUTO 00000KT 10SM CLR 10/08 A3001 RMK AO2 SLP161 T01000083=
202310190253 METAR KCLM 190253Z AUTO 18003KT 10SM CLR 11/09 A3001 RMK AO2 SLP162 T01060089 56006=
202310190153 METAR KCLM 190153Z AUTO 13005KT 10SM CLR 12/08 A3001 RMK AO2 SLP164 T01170083=
202310190053 METAR KCLM 190053Z AUTO 00000KT 10SM CLR 14/10 A3002 RMK AO2 SLP165 T01390100=
202310182353 METAR KCLM 182353Z AUTO 00000KT 10SM CLR 16/09 A3002 RMK AO2 SLP167 T01560094 10167 20139 57003=
202310182253 METAR KCLM 182253Z AUTO 00000KT 10SM FEW060 16/10 A3002 RMK AO2 SLP167 T01560100=
202310182153 METAR KCLM 182153Z AUTO 33003KT 10SM CLR 14/09 A3003 RMK AO2 SLP169 T01440094=
202310182053 METAR KCLM 182053Z AUTO 34004KT 10SM SCT065 16/09 A3003 RMK AO2 SLP169 T01610094 58002=
202310181953 METAR KCLM 181953Z AUTO 33003KT 10SM CLR 14/09 A3004 RMK AO2 SLP174 T01440094=
202310181853 METAR KCLM 181853Z AUTO VRB03KT 10SM FEW070 14/10 A3004 RMK AO2 SLP172 T01440100=
202310181753 METAR KCLM 181753Z AUTO 29003KT 10SM SCT006 14/11 A3004 RMK AO2 SLP173 T01390111 10144 20094 50001=
202310181653 METAR KCLM 181653Z AUTO 33003KT 10SM SCT005 BKN060 13/10 A3004 RMK AO2 SLP175 T01330100=
202310181622 SPECI KCLM 181622Z AUTO 36003KT 10SM BKN005 OVC060 13/10 A3004 RMK AO2 T01280100=
202310181553 METAR KCLM 181553Z AUTO 22003KT 10SM SCT006 BKN070 12/11 A3004 RMK AO2 SLP172 T01220106=
202310181551 SPECI KCLM 181551Z AUTO 21003KT 10SM SCT006 BKN065 12/11 A3003 RMK AO2=
202310181540 SPECI KCLM 181540Z AUTO 00000KT 7SM BKN006 BKN065 12/09 A3004 RMK AO2 T01170094=
202310181453 METAR KCLM 181453Z AUTO 21005KT 6SM BR FEW007 BKN065 11/08 A3003 RMK AO2 SLP171 T01060083 53009=
202310181450 SPECI KCLM 181450Z AUTO 22003KT 3SM BR FEW007 BKN060 10/08 A3003 RMK AO2=
202310181441 SPECI KCLM 181441Z AUTO 00000KT 1 1/2SM BR BKN065 10/09 A3002 RMK AO2 T01000089=
202310181353 METAR KCLM 181353Z AUTO 19003KT 6SM BR SCT060 10/08 A3001 RMK AO2 SLP163 T01000083=
202310181337 SPECI KCLM 181337Z AUTO 00000KT 3SM BR SCT055 09/08 A3001 RMK AO2 T00940078=
202310181327 SPECI KCLM 181327Z AUTO 00000KT 2 1/2SM BR SCT060 09/08 A3001 RMK AO2 VIS 1 1/4V4 T00940083=
202310181320 SPECI KCLM 181320Z AUTO 00000KT 3SM BR SCT060 10/08 A3000 RMK AO2 T01000083=
202310181313 SPECI KCLM 181313Z AUTO 00000KT 2 1/2SM BR FEW060 10/08 A3001 RMK AO2 T01000083=
202310181253 METAR KCLM 181253Z AUTO 00000KT 5SM BR FEW007 11/09 A3001 RMK AO2 SLP162 T01060089=
202310181251 SPECI KCLM 181251Z AUTO 00000KT 3SM BR FEW008 11/09 A3001 RMK AO2=
202310181250 SPECI KCLM 181250Z AUTO 00000KT 2SM BR SCT008 11/09 A3001 RMK AO2 VIS 1/2V5=
202310181240 SPECI KCLM 181240Z AUTO 00000KT 1 3/4SM BR BKN008 11/09 A3001 RMK AO2 VIS 1/2V5 T01060089=
202310181153 METAR KCLM 181153Z AUTO 23003KT 8SM OVC006 11/09 A3003 RMK AO2 SLP168 70016 T01110094 10111 20106 50001=
202310181053 METAR KCLM 181053Z AUTO 00000KT 6SM BR OVC005 11/09 A3003 RMK AO2 SLP171 T01110094=
202310181028 SPECI KCLM 181028Z AUTO 00000KT 8SM OVC004 11/09 A3003 RMK AO2 T01110094=
202310181002 SPECI KCLM 181002Z AUTO 00000KT 6SM BR BKN005 OVC055 11/09 A3003 RMK AO2 T01110094=
202310180953 METAR KCLM 180953Z AUTO 00000KT 7SM BKN004 OVC060 11/09 A3002 RMK AO2 SLP167 T01110094=
202310180940 SPECI KCLM 180940Z AUTO 04003KT 7SM SCT004 BKN060 OVC085 11/09 A3002 RMK AO2 T01110094=
202310180853 METAR KCLM 180853Z AUTO 30004KT 5SM BR FEW055 BKN085 11/09 A3002 RMK AO2 SLP167 T01060089 56017=
202310180753 METAR KCLM 180753Z AUTO 01003KT 4SM BR FEW003 BKN055 11/09 A3003 RMK AO2 SLP170 T01060089 401220056=
202310180653 METAR KCLM 180653Z AUTO 14003KT 6SM BR OVC004 11/09 A3006 RMK AO2 CIG 003V008 SLP179 T01060089=
202310180645 SPECI KCLM 180645Z AUTO 14003KT 5SM BR OVC004 11/09 A3006 RMK AO2 CIG 003V008 T01060089=
202310180619 SPECI KCLM 180619Z AUTO 18003KT 6SM BR BKN005 BKN060 11/09 A3006 RMK AO2 T01060089=
202310180603 SPECI KCLM 180603Z AUTO 00000KT 7SM FEW005 BKN060 11/09 A3007 RMK AO2 T01060089=
202310180553 METAR KCLM 180553Z AUTO 00000KT 6SM BR BKN060 BKN095 11/09 A3007 RMK AO2 SLP184 60010 T01060089 10122 20106 51003=
202310180522 SPECI KCLM 180522Z AUTO 00000KT 6SM BR SCT004 SCT100 11/09 A3006 RMK AO2 T01060089=
202310180453 METAR KCLM 180453Z AUTO 00000KT 7SM OVC002 11/09 A3007 RMK AO2 SLP183 T01110094=
202310180441 SPECI KCLM 180441Z AUTO 18003KT 7SM BKN002 OVC060 11/09 A3007 RMK AO2 T01110094=
202310180432 SPECI KCLM 180432Z AUTO 00000KT 7SM SCT002 OVC060 11/10 A3008 RMK AO2 T01110100=
202310180353 METAR KCLM 180353Z AUTO 00000KT 10SM OVC060 12/09 A3009 RMK AO2 RAE14 SLP189 P0002 T01170094=
202310180252 METAR KCLM 180252Z AUTO 03004KT 10SM -RA SCT006 BKN050 OVC110 11/09 A3006 RMK AO2 RAE06B28 SLP181 P0000 60008 T01110094 58020=
202310180251 SPECI KCLM 180251Z AUTO VRB03KT 10SM -RA SCT006 BKN050 OVC110 11/09 A3006 RMK AO2 RAE06B28 P0000=
202310180153 METAR KCLM 180153Z AUTO 00000KT 4SM -RA BR OVC004 11/09 A3010 RMK AO2 CIG 002V007 SLP195 P0005 T01110094=
202310180114 SPECI KCLM 180114Z AUTO 30006KT 3SM -RA BR BKN003 BKN055 OVC070 12/10 A3015 RMK AO2 P0002 T01170100=
202310180053 METAR KCLM 180053Z AUTO 29007KT 6SM -RA BR FEW005 BKN055 OVC070 12/10 A3013 RMK AO2 RAB02 SLP204 P0003 T01170100=
202310180038 SPECI KCLM 180038Z AUTO 30005KT 5SM -RA BR FEW007 BKN060 OVC070 12/10 A3014 RMK AO2 RAB02 P0003 T01170100=
202310172353 METAR KCLM 172353Z AUTO 00000KT 9SM BKN070 OVC080 12/11 A3012 RMK AO2 RAE43 SLP201 P0000 60005 T01220106 10122 20117 55022=
202310172253 METAR KCLM 172253Z AUTO 11007KT 6SM -RA BR OVC100 12/10 A3010 RMK AO2 PRESFR SLP194 P0004 T01170100=
202310172202 SPECI KCLM 172202Z AUTO 00000KT 6SM -RA BR SCT007 BKN080 OVC100 12/09 A3018 RMK AO2 P0000 T01170094=
202310172153 METAR KCLM 172153Z AUTO 00000KT 7SM -RA BKN007 OVC090 12/09 A3018 RMK AO2 RAE32B34 SLP221 P0001 T01170094=
202310172132 SPECI KCLM 172132Z AUTO 00000KT 10SM BKN007 OVC080 12/09 A3019 RMK AO2 RAE32 P0000 T01170094=
202310172109 SPECI KCLM 172109Z AUTO 32003KT 10SM -RA FEW008 BKN085 OVC110 12/09 A3018 RMK AO2 P0000 T01170089=
202310172053 METAR KCLM 172053Z AUTO 31003KT 10SM -RA BKN008 OVC110 12/09 A3019 RMK AO2 RAB52 SLP224 P0000 60000 T01170089 53007=
202310171953 METAR KCLM 171953Z AUTO 31004KT 10SM OVC006 12/09 A3018 RMK AO2 SLP222 T01170094=
202310171928 SPECI KCLM 171928Z AUTO 33005KT 10SM BKN005 OVC070 12/09 A3017 RMK AO2 T01170094=
202310171917 SPECI KCLM 171917Z AUTO 33005KT 10SM SCT005 OVC070 12/09 A3016 RMK AO2 T01170094=
202310171853 METAR KCLM 171853Z AUTO 33005KT 10SM OVC065 12/09 A3017 RMK AO2 SLP216 T01170089=
202310171753 METAR KCLM 171753Z AUTO 00000KT 10SM SCT075 BKN095 12/09 A3017 RMK AO2 RAE22 SLP216 P0000 60001 T01170089 10117 20067 50001=
202310171653 METAR KCLM 171653Z AUTO 00000KT 9SM -RA BKN080 OVC100 11/09 A3018 RMK AO2 RAB1557 SLP220 P0001 T01060089=
202310171553 METAR KCLM 171553Z AUTO 00000KT 10SM FEW060 BKN090 OVC110 10/08 A3016 RMK AO2 RAB35E44 SLP213 P0000 T01000083=
202310171453 METAR KCLM 171453Z AUTO 12003KT 10SM FEW070 OVC095 09/07 A3016 RMK AO2 SLP215 T00890072 53007=
202310171353 METAR KCLM 171353Z AUTO 14004KT 10SM OVC110 09/07 A3014 RMK AO2 SLP207 T00890067=
202310171253 METAR KCLM 171253Z AUTO 00000KT 10SM CLR 08/06 A3014 RMK AO2 PRESFR SLP206 T00830061=
202310171153 METAR KCLM 171153Z AUTO 00000KT 10SM CLR 07/05 A3014 RMK AO2 SLP208 70045 T00670050 10117 20056 50010=
202310171053 METAR KCLM 171053Z AUTO VRB03KT 10SM CLR 06/04 A3015 RMK AO2 SLP209 T00610044=
202310170953 METAR KCLM 170953Z AUTO 20003KT 4SM BR CLR 07/05 A3013 RMK AO2 SLP205 T00670050=
202310170853 METAR KCLM 170853Z AUTO 22005KT 10SM CLR 07/05 A3011 RMK AO2 SLP198 T00720050 53020=
202310170753 METAR KCLM 170753Z AUTO 00000KT 10SM CLR 11/06 A3008 RMK AO2 SLP186 T01060061 401830083=
202310170653 METAR KCLM 170653Z AUTO 24008KT 10SM CLR 11/07 A3007 RMK AO2 SLP182 T01110067=
202310170553 METAR KCLM 170553Z AUTO 25008KT 10SM CLR 11/07 A3005 RMK AO2 SLP177 60008 T01110072 10139 20111 53015=
202310170453 METAR KCLM 170453Z AUTO 24011KT 10SM FEW085 12/08 A3003 RMK AO2 SLP170 T01170078=
202310170353 METAR KCLM 170353Z AUTO 21006KT 10SM BKN070 12/09 A3003 RMK AO2 RAE14 SLP170 P0002 T01170089=
202310170253 METAR KCLM 170253Z AUTO 24005KT 4SM -RA OVC055 12/09 A3001 RMK AO2 RAB25 SLP163 P0006 60006 T01170089 53038=
202310170153 METAR KCLM 170153Z AUTO 24007KT 10SM OVC070 13/08 A2997 RMK AO2 SLP149 T01280083=
202310170053 METAR KCLM 170053Z AUTO 25007KT 10SM CLR 12/08 A2993 RMK AO2 SLP134 T01220083=
202310162353 METAR KCLM 162353Z AUTO 24010KT 10SM FEW036 SCT070 SCT110 14/08 A2990 RMK AO2 RAE49 SLP124 P0002 60028 T01390083 10183 20139 53017=
202310162307 SPECI KCLM 162307Z AUTO 25010KT 9SM -RA FEW041 BKN055 OVC070 14/11 A2989 RMK AO2 PRESRR P0002 T01440106=
202310162253 METAR KCLM 162253Z AUTO 24015G21KT 2 1/2SM RA FEW009 BKN046 OVC060 14/12 A2987 RMK AO2 RAB12 SLP114 P0012 T01440117=
202310162251 SPECI KCLM 162251Z AUTO 25009KT 2SM RA BR FEW011 BKN050 OVC065 14/12 A2987 RMK AO2 RAB12 P0011=
202310162244 SPECI KCLM 162244Z AUTO VRB03G16KT 1 3/4SM RA BR SCT009 BKN031 OVC050 14/12 A2986 RMK AO2 RAB12 P0008 T01440122=
202310162242 SPECI KCLM 162242Z AUTO 27004G18KT 1 3/4SM RA SCT011 BKN028 OVC044 14/12 A2986 RMK AO2 RAB12 P0008 T01440117=
202310162236 SPECI KCLM 162236Z AUTO 28010G20KT 2 1/2SM RA BKN009 BKN015 OVC041 14/12 A2986 RMK AO2 RAB12 CIG 004V012 P0005 T01440117=
202310162221 SPECI KCLM 162221Z AUTO 31009G15KT 8SM -RA FEW006 BKN010 OVC033 14/12 A2985 RMK AO2 RAB12 CIG 008V014 P0000 T01440122=
202310162211 SPECI KCLM 162211Z AUTO 31004KT 10SM FEW004 BKN021 OVC033 15/13 A2985 RMK AO2 T01500133=
202310162153 METAR KCLM 162153Z AUTO 32003KT 10SM FEW004 BKN032 OVC041 16/13 A2985 RMK AO2 RAB2059E49 SLP107 P0014 T01560128=
202310162149 SPECI KCLM 162149Z AUTO 00000KT 10SM FEW004 BKN034 OVC044 16/13 A2985 RMK AO2 RAB2059E49 P0014=
202310162136 SPECI KCLM 162136Z AUTO 00000KT 3SM -RA BR FEW029 OVC039 16/13 A2984 RMK AO2 RAB2059 P0014 T01560133=
202310162129 SPECI KCLM 162129Z AUTO 00000KT 1SM +RA BR SCT027 BKN035 OVC044 15/13 A2984 RMK AO2 RAB2059 P0013 T01500128=
202310162122 SPECI KCLM 162122Z AUTO 00000KT 2SM RA SCT027 BKN035 OVC060 15/12 A2985 RMK AO2 RAB2059 P0006 T01500122=
202310162112 SPECI KCLM 162112Z AUTO 00000KT 2 1/2SM RA BKN027 BKN060 OVC080 16/12 A2984 RMK AO2 RAB2059 P0002 T01560122=
202310162053 METAR KCLM 162053Z AUTO 00000KT 10SM BKN070 OVC090 17/12 A2982 RMK AO2 SLP099 T01670122 53003=
202310161953 METAR KCLM 161953Z AUTO 04005KT 10SM SCT050 BKN060 BKN080 18/13 A2982 RMK AO2 SLP096 T01780128=
202310161853 METAR KCLM 161853Z AUTO 08004KT 10SM BKN060 17/12 A2981 RMK AO2 SLP094 T01670122=
202310161753 METAR KCLM 161753Z AUTO 14004KT 10SM SCT006 BKN055 OVC070 15/12 A2982 RMK AO2 RAE23B42E52 SLP096 P0000 60009 T01500122 10150 20122 51028=
202310161718 SPECI KCLM 161718Z AUTO 09003KT 10SM -RA FEW008 BKN050 BKN070 15/12 A2980 RMK AO2 P0000 T01500117=
202310161653 METAR KCLM 161653Z AUTO 00000KT 10SM -RA OVC065 14/12 A2978 RMK AO2 SLP085 P0003 T01440122=
202310161553 METAR KCLM 161553Z AUTO 29004KT 4SM -RA BR BKN075 OVC090 13/11 A2978 RMK AO2 SLP084 P0004 T01280111=
202310161521 SPECI KCLM 161521Z AUTO 31006KT 6SM -RA BR FEW004 BKN070 OVC085 13/11 A2975 RMK AO2 P0000 T01280111=
202310161453 METAR KCLM 161453Z AUTO 27007KT 10SM -RA BKN070 OVC080 13/11 A2973 RMK AO2 RAB1356 SLP068 P0002 60002 T01280106 55024=
202310161419 SPECI KCLM 161419Z AUTO 25008KT 10SM -RA SCT004 OVC075 12/10 A2972 RMK AO2 RAB1356 P0001 T01220100=
202310161353 METAR KCLM 161353Z AUTO 25005KT 8SM OVC004 12/11 A2973 RMK AO2 SLP066 T01220106=
202310161253 METAR KCLM 161253Z AUTO 13003KT 7SM OVC004 13/11 A2976 RMK AO2 SLP076 T01280111=
202310161234 SPECI KCLM 161234Z AUTO 12003KT 9SM OVC004 13/11 A2977 RMK AO2 T01280106=
202310161153 METAR KCLM 161153Z AUTO 20005KT 10SM OVC005 13/11 A2981 RMK AO2 SLP093 70009 T01280106 10128 20106 58023=
202310161053 METAR KCLM 161053Z AUTO 26004KT 10SM OVC005 13/11 A2983 RMK AO2 SLP102 T01280106=
202310160953 METAR KCLM 160953Z AUTO 00000KT 6SM BR OVC005 13/11 A2985 RMK AO2 SLP108 T01280111=
202310160853 METAR KCLM 160853Z AUTO 00000KT 7SM OVC005 13/11 A2987 RMK AO2 SLP116 T01280111 58031=
202310160753 METAR KCLM 160753Z AUTO 13005KT 6SM BR OVC006 12/11 A2990 RMK AO2 SLP126 T01220106 401560089=
202310160712 SPECI KCLM 160712Z AUTO 00000KT 7SM OVC009 12/10 A2993 RMK AO2 T01170100=
202310160653 METAR KCLM 160653Z AUTO 00000KT 6SM BR OVC012 11/09 A2994 RMK AO2 SLP137 T01110094=
202310160630 SPECI KCLM 160630Z AUTO 00000KT 5SM BR OVC014 11/09 A2994 RMK AO2 T01110094=
202310160621 SPECI KCLM 160621Z AUTO 00000KT 3SM BR OVC015 11/09 A2995 RMK AO2 T01060094=
202310160605 SPECI KCLM 160605Z AUTO 00000KT 2 1/2SM BR BKN016 11/09 A2995 RMK AO2 T01060089=
202310160553 METAR KCLM 160553Z AUTO 20004KT 5SM BR FEW007 SCT016 11/09 A2997 RMK AO2 SLP147 60001 T01060094 10133 20106 58012=
202310160540 SPECI KCLM 160540Z AUTO 21003KT 2 1/2SM BR SCT006 11/10 A2997 RMK AO2 VIS 1 1/4V5 T01110100=
202310160532 SPECI KCLM 160532Z AUTO 23003KT 1 3/4SM BR BKN006 12/10 A2997 RMK AO2 VIS 1V2 1/2 T01170100=
202310160453 METAR KCLM 160453Z AUTO 00000KT 1 3/4SM BR SCT007 11/09 A2998 RMK AO2 VIS 3/4V5 SLP151 T01110094=
202310160438 SPECI KCLM 160438Z AUTO 00000KT 1 3/4SM BR SCT007 11/10 A2999 RMK AO2 VIS 3/4V5 T01110100=
202310160353 METAR KCLM 160353Z AUTO 27004KT 6SM BR SCT005 12/11 A3000 RMK AO2 SLP158 T01220106=
202310160324 SPECI KCLM 160324Z AUTO 00000KT 10SM FEW003 SCT009 BKN120 12/11 A2999 RMK AO2 T01220106=
202310160301 SPECI KCLM 160301Z AUTO 00000KT 10SM SCT003 BKN009 BKN070 12/11 A3000 RMK AO2 T01220106=
202310160253 METAR KCLM 160253Z AUTO 00000KT 10SM FEW003 SCT009 BKN070 12/11 A3000 RMK AO2 SLP160 60001 T01220106 56013=
202310160246 SPECI KCLM 160246Z AUTO VRB03KT 10SM FEW009 SCT070 12/11 A3000 RMK AO2 T01220106=
202310160153 METAR KCLM 160153Z AUTO 30003KT 10SM FEW070 OVC095 13/11 A3000 RMK AO2 RAE26 SLP161 P0000 T01280111=
202310160053 METAR KCLM 160053Z AUTO 00000KT 10SM -RA FEW012 SCT080 OVC100 13/12 A3003 RMK AO2 SLP168 P0001 T01330117=
202310152353 METAR KCLM 152353Z AUTO 00000KT 6SM -RA BR BKN075 OVC100 13/11 A3004 RMK AO2 SLP173 P0004 60008 T01330111 10150 20128 58013=
202310152253 METAR KCLM 152253Z AUTO 26003KT 8SM -RA OVC090 14/11 A3006 RMK AO2 SLP178 P0004 T01390111=
202310152153 METAR KCLM 152153Z AUTO 00000KT 10SM -RA OVC090 14/11 A3006 RMK AO2 RAB2056 SLP180 P0000 T01440106=
202310152053 METAR KCLM 152053Z AUTO 00000KT 10SM FEW060 BKN095 OVC110 14/10 A3008 RMK AO2 SLP186 T01390100 56021=
202310151953 METAR KCLM 151953Z AUTO 00000KT 10SM CLR 14/10 A3010 RMK AO2 SLP193 T01390100=
202310151853 METAR KCLM 151853Z AUTO 00000KT 10SM CLR 14/10 A3012 RMK AO2 SLP200 T01390100=
202310151753 METAR KCLM 151753Z AUTO 03004KT 10SM CLR 14/11 A3014 RMK AO2 SLP207 T01440106 10156 20106 50001=
202310151653 METAR KCLM 151653Z AUTO 00000KT 10SM CLR 14/11 A3015 RMK AO2 SLP209 T01390106=
202310151617 SPECI KCLM 151617Z AUTO 00000KT 10SM SCT004 12/11 A3014 RMK AO2 T01220106=
202310151553 METAR KCLM 151553Z AUTO 00000KT 10SM OVC004 13/11 A3015 RMK AO2 SLP210 T01280106=
202310151527 SPECI KCLM 151527Z AUTO 00000KT 10SM BKN004 11/09 A3014 RMK AO2 T01110094=
202310151519 SPECI KCLM 151519Z AUTO 00000KT 10SM SCT004 12/09 A3014 RMK AO2 T01170094=
202310151453 METAR KCLM 151453Z AUTO 00000KT 10SM FEW065 BKN080 11/09 A3014 RMK AO2 SLP206 T01110094 51002=
202310151353 METAR KCLM 151353Z AUTO 22004KT 10SM OVC060 11/09 A3014 RMK AO2 SLP206 T01110094=
202310151253 METAR KCLM 151253Z AUTO 00000KT 10SM OVC060 11/09 A3014 RMK AO2 SLP205 T01110094=
202310151153 METAR KCLM 151153Z AUTO 25003KT 10SM OVC060 11/09 A3013 RMK AO2 SLP203 T01110094 10117 20089 51011=
202310151053 METAR KCLM 151053Z AUTO 22003KT 10SM OVC065 11/09 A3012 RMK AO2 SLP201 T01110094=
202310150953 METAR KCLM 150953Z AUTO 23005KT 10SM OVC065 10/08 A3011 RMK AO2 SLP198 T01000083=
202310150853 METAR KCLM 150853Z AUTO 15003KT 10SM FEW060 09/08 A3010 RMK AO2 SLP192 T00940078 53015=
202310150753 METAR KCLM 150753Z AUTO 00000KT 10SM BKN070 09/08 A3007 RMK AO2 SLP185 T00940078 401390061=
202310150653 METAR KCLM 150653Z AUTO 00000KT 10SM CLR 09/08 A3006 RMK AO2 SLP181 T00940078=
202310150553 METAR KCLM 150553Z AUTO 24004KT 6SM BR BKN070 10/08 A3005 RMK AO2 SLP177 T01000083 10139 20089 53010=
202310150453 METAR KCLM 150453Z AUTO 00000KT 10SM FEW070 SCT090 11/09 A3004 RMK AO2 SLP174 T01060089=
202310150353 METAR KCLM 150353Z AUTO 00000KT 10SM BKN100 OVC110 12/10 A3003 RMK AO2 SLP168 T01170100=
202310150253 METAR KCLM 150253Z AUTO 13004KT 10SM CLR 12/10 A3002 RMK AO2 SLP167 T01220100 53011=
202310150153 METAR KCLM 150153Z AUTO 13005KT 10SM BKN110 12/10 A3001 RMK AO2 SLP163 T01220100=
202310150053 METAR KCLM 150053Z AUTO 24003KT 10SM FEW060 SCT070 OVC090 14/11 A3000 RMK AO2 SLP159 T01390106=
202310142353 METAR KCLM 142353Z AUTO 25003KT 10SM OVC095 14/10 A2999 RMK AO2 SLP156 T01390100 10139 20111 55001=
202310142253 METAR KCLM 142253Z AUTO 00000KT 10SM FEW080 14/10 A2998 RMK AO2 SLP154 T01390100=
202310142153 METAR KCLM 142153Z AUTO 00000KT 10SM OVC080 14/10 A2999 RMK AO2 SLP155 T01390100=
202310142135 SPECI KCLM 142135Z AUTO 00000KT 10SM SCT010 OVC080 14/10 A2999 RMK AO2 T01390100=
202310142053 METAR KCLM 142053Z AUTO 00000KT 10SM OVC011 14/10 A2999 RMK AO2 SLP157 T01390100 51005=
202310142042 SPECI KCLM 142042Z AUTO 01003KT 10SM OVC010 13/10 A2999 RMK AO2 T01330100=
202310141953 METAR KCLM 141953Z AUTO 02003KT 10SM OVC007 13/10 A2999 RMK AO2 CIG 005V010 SLP156 T01330100=
202310141945 SPECI KCLM 141945Z AUTO VRB03KT 10SM OVC005 13/10 A2999 RMK AO2 CIG 004V008 T01280100=
202310141914 SPECI KCLM 141914Z AUTO 03004KT 9SM OVC003 12/10 A2999 RMK AO2 T01220100=
202310141902 SPECI KCLM 141902Z AUTO 03003KT 4SM BR OVC001 12/11 A2999 RMK AO2 T01220106=
202310141859 SPECI KCLM 141859Z AUTO 00000KT 1SM BR VV001 12/11 A2999 RMK AO2 T01170106=
202310141853 METAR KCLM 141853Z AUTO 00000KT 1/4SM FG VV001 12/11 A2999 RMK AO2 SLP157 T01170106=
202310141839 SPECI KCLM 141839Z AUTO 32004KT M1/4SM FG VV001 11/10 A2999 RMK AO2 T01110100=
202310141832 SPECI KCLM 141832Z AUTO 33004KT 1/4SM FG VV001 11/09 A2999 RMK AO2 T01110094=
202310141825 SPECI KCLM 141825Z AUTO 35003KT 1/4SM FG VV002 12/09 A2999 RMK AO2 T01170094=
202310141822 SPECI KCLM 141822Z AUTO VRB04KT 1 1/4SM BR FEW002 12/10 A2999 RMK AO2 T01220100=
202310141806 SPECI KCLM 141806Z AUTO 34003KT 10SM SCT002 13/11 A2998 RMK AO2 T01330106=
202310141755 SPECI KCLM 141755Z AUTO 26003KT 3SM BR BKN002 12/11 A2998 RMK AO2 T01220106=
202310141753 METAR KCLM 141753Z AUTO 00000KT 1 3/4SM BR BKN002 12/11 A2998 RMK AO2 VIS 3/4V5 SLP151 T01220106 10122 20061 51008=
202310141746 SPECI KCLM 141746Z AUTO 31003KT 1 3/4SM BR OVC002 12/10 A2998 RMK AO2 VIS 3/4V4 T01170100=
202310141736 SPECI KCLM 141736Z AUTO 35003KT 4SM BR OVC002 12/10 A2998 RMK AO2 T01170100=
202310141728 SPECI KCLM 141728Z AUTO 00000KT 2SM BR OVC002 12/10 A2997 RMK AO2 T01170100=
202310141713 SPECI KCLM 141713Z AUTO 00000KT 1/2SM FG OVC002 12/10 A2997 RMK AO2 T01170100=
202310141702 SPECI KCLM 141702Z AUTO 00000KT 1 3/4SM BR OVC002 12/10 A2997 RMK AO2 T01170100=
202310141653 METAR KCLM 141653Z AUTO 00000KT 10SM OVC002 11/09 A2997 RMK AO2 SLP150 T01110094=
202310141645 SPECI KCLM 141645Z AUTO 00000KT 10SM BKN002 10/08 A2997 RMK AO2 T01000083=
202310141604 SPECI KCLM 141604Z AUTO 00000KT 10SM SCT004 11/08 A2996 RMK AO2 T01060083=
202310141553 METAR KCLM 141553Z AUTO 00000KT 10SM BKN004 11/09 A2996 RMK AO2 SLP146 T01060089=
202310141543 SPECI KCLM 141543Z AUTO 22003KT 10SM FEW004 10/08 A2996 RMK AO2 T01000078=
202310141453 METAR KCLM 141453Z AUTO 00000KT 10SM SCT100 08/06 A2995 RMK AO2 SLP143 T00780061 53013=
202310141353 METAR KCLM 141353Z AUTO 00000KT 10SM OVC110 08/07 A2993 RMK AO2 SLP135 T00830067=
202310141253 METAR KCLM 141253Z AUTO 00000KT 10SM CLR 06/05 A2992 RMK AO2 SLP133 T00610050=
202310141153 METAR KCLM 141153Z AUTO 00000KT 10SM CLR 08/06 A2991 RMK AO2 SLP130 T00780061 10128 20078 51011=
202310141053 METAR KCLM 141053Z AUTO 00000KT 10SM CLR 08/07 A2991 RMK AO2 SLP128 T00830067=
202310140953 METAR KCLM 140953Z AUTO 00000KT 10SM CLR 09/08 A2989 RMK AO2 SLP122 T00940078=
202310140853 METAR KCLM 140853Z AUTO 00000KT 10SM FEW085 11/08 A2988 RMK AO2 SLP118 T01060083 53011=
202310140753 METAR KCLM 140753Z AUTO 00000KT 10SM BKN085 11/09 A2986 RMK AO2 SLP111 T01110089 401500056=
202310140653 METAR KCLM 140653Z AUTO 22004KT 10SM BKN070 OVC090 11/09 A2986 RMK AO2 SLP111 T01110089=
202310140553 METAR KCLM 140553Z AUTO 00000KT 10SM OVC065 13/09 A2985 RMK AO2 SLP107 T01280094 10144 20128 53019=
202310140453 METAR KCLM 140453Z AUTO 28006KT 10SM BKN110 13/09 A2982 RMK AO2 SLP100 T01280094=
202310140353 METAR KCLM 140353Z AUTO 28006KT 10SM FEW120 13/09 A2981 RMK AO2 SLP095 T01330089=
202310140253 METAR KCLM 140253Z AUTO 23004KT 10SM FEW070 SCT110 13/09 A2979 RMK AO2 SLP089 T01330089 51019=
202310140153 METAR KCLM 140153Z AUTO VRB03KT 10SM SCT080 OVC110 14/08 A2978 RMK AO2 SLP084 T01390083=
202310140053 METAR KCLM 140053Z AUTO 29004KT 10SM OVC090 14/09 A2975 RMK AO2 SLP076 T01390089=
202310132353 METAR KCLM 132353Z AUTO 00000KT 10SM FEW120 14/09 A2974 RMK AO2 SLP070 T01390089 10150 20133 56004=
202310132253 METAR KCLM 132253Z AUTO 06003KT 10SM BKN095 OVC110 15/09 A2974 RMK AO2 SLP069 T01500089=
202310132153 METAR KCLM 132153Z AUTO 29009KT 10SM BKN100 14/08 A2974 RMK AO2 SLP071 T01440083=
202310132053 METAR KCLM 132053Z AUTO 27008KT 10SM FEW120 15/09 A2975 RMK AO2 SLP074 T01500094 56003=
202310131953 METAR KCLM 131953Z AUTO 28006KT 10SM CLR 14/09 A2975 RMK AO2 SLP074 T01440089=
202310131853 METAR KCLM 131853Z AUTO 29003KT 10SM CLR 13/09 A2975 RMK AO2 SLP076 T01330089=
202310131753 METAR KCLM 131753Z AUTO 29004KT 10SM CLR 13/09 A2976 RMK AO2 SLP077 T01280089 10139 20067 56007=
202310131653 METAR KCLM 131653Z AUTO 25007KT 10SM CLR 12/09 A2976 RMK AO2 SLP079 T01170089=
202310131553 METAR KCLM 131553Z AUTO 23004KT 10SM CLR 10/08 A2977 RMK AO2 SLP082 T01000078=
202310131453 METAR KCLM 131453Z AUTO 24006KT 10SM CLR 08/06 A2978 RMK AO2 SLP085 T00780056 56006=
202310131353 METAR KCLM 131353Z AUTO 23004KT 10SM FEW004 08/06 A2979 RMK AO2 SLP087 T00780056=
202310131350 SPECI KCLM 131350Z AUTO 24006KT 10SM SCT004 08/06 A2978 RMK AO2=
202310131322 SPECI KCLM 131322Z AUTO 23006KT 7SM OVC002 09/08 A2979 RMK AO2 T00890078=
202310131315 SPECI KCLM 131315Z AUTO 17005KT 2 1/2SM BR OVC002 09/08 A2979 RMK AO2 T00940078=
202310131253 METAR KCLM 131253Z AUTO 19004KT 1 1/2SM BR OVC002 10/08 A2980 RMK AO2 SLP091 T01000083=
202310131251 SPECI KCLM 131251Z AUTO 19004KT 1 3/4SM BR OVC002 10/08 A2980 RMK AO2=
202310131159 SPECI KCLM 131159Z AUTO 10006KT 3SM BR OVC002 10/08 A2981 RMK AO2 T01000083=
202310131153 METAR KCLM 131153Z AUTO 13006KT 1 3/4SM BR OVC002 10/08 A2981 RMK AO2 SLP095 T01000083 10106 20056 58020=
202310131146 SPECI KCLM 131146Z AUTO 11003KT 1 3/4SM BR OVC002 10/08 A2981 RMK AO2 T01000083=
202310131121 SPECI KCLM 131121Z AUTO 18003KT 2SM BR OVC002 10/09 A2982 RMK AO2 T01000089=
202310131053 METAR KCLM 131053Z AUTO 14006KT 4SM BR OVC003 11/09 A2983 RMK AO2 SLP104 T01060089=
202310131019 SPECI KCLM 131019Z AUTO 15005KT 8SM OVC003 10/09 A2984 RMK AO2 T01000089=
202310130953 METAR KCLM 130953Z AUTO 13006KT 8SM OVC005 10/08 A2985 RMK AO2 CIG 004V009 SLP108 T01000083=
202310130900 SPECI KCLM 130900Z AUTO 10003KT 3SM BR BKN006 06/05 A2987 RMK AO2 T00610050=
202310130853 METAR KCLM 130853Z AUTO 00000KT 1SM BR VV006 06/05 A2987 RMK AO2 SLP116 T00610050 56012=
202310130843 SPECI KCLM 130843Z AUTO 00000KT 2 1/2SM BR FEW008 06/04 A2987 RMK AO2 VIS 1V5 T00560044=
202310130819 SPECI KCLM 130819Z AUTO 15003KT 3SM BR CLR 06/04 A2988 RMK AO2 T00560044=
202310130810 SPECI KCLM 130810Z AUTO 00000KT 1 3/4SM BR CLR 07/05 A2988 RMK AO2 VIS 1V5 T00670050=
202310130753 METAR KCLM 130753Z AUTO 14005KT 7SM FEW002 06/04 A2989 RMK AO2 SLP121 T00610044 401280050=
202310130744 SPECI KCLM 130744Z AUTO 12003KT 2SM BR FEW002 06/04 A2989 RMK AO2 T00560044=
202310130736 SPECI KCLM 130736Z AUTO 00000KT 1SM BR VV002 06/04 A2989 RMK AO2 T00560044=
202310130724 SPECI KCLM 130724Z AUTO 00000KT 1 3/4SM BR CLR 06/06 A2990 RMK AO2 T00610056=
202310130716 SPECI KCLM 130716Z AUTO 00000KT 3SM BR CLR 07/06 A2990 RMK AO2 T00720061=
202310130702 SPECI KCLM 130702Z AUTO 00000KT 1 3/4SM BR CLR 07/05 A2990 RMK AO2 T00720050=
202310130700 SPECI KCLM 130700Z AUTO 00000KT 3SM BR CLR 07/05 A2991 RMK AO2 T00670050=
202310130653 METAR KCLM 130653Z AUTO 00000KT 2SM BR CLR 06/04 A2991 RMK AO2 SLP128 T00610044=
202310130649 SPECI KCLM 130649Z AUTO 00000KT 1SM BR CLR 07/04 A2991 RMK AO2=
202310130643 SPECI KCLM 130643Z AUTO 00000KT 1/2SM FG VV002 07/05 A2991 RMK AO2 T00670050=
202310130633 SPECI KCLM 130633Z AUTO 00000KT 3/4SM BR CLR 07/06 A2991 RMK AO2 T00720056=
202310130601 SPECI KCLM 130601Z AUTO 00000KT 4SM BR CLR 07/06 A2992 RMK AO2 T00720061=
202310130553 METAR KCLM 130553Z AUTO 00000KT 2 1/2SM BR CLR 07/05 A2992 RMK AO2 VIS 1 1/4V5 SLP133 T00670050 10128 20067 58015=
202310130547 SPECI KCLM 130547Z AUTO 00000KT 3SM BR CLR 07/06 A2992 RMK AO2=
202310130524 SPECI KCLM 130524Z AUTO 00000KT 1 3/4SM BR CLR 07/06 A2993 RMK AO2 T00670056=
202310130500 SPECI KCLM 130500Z AUTO 00000KT 4SM BR CLR 08/06 A2994 RMK AO2 T00780061=
202310130453 METAR KCLM 130453Z AUTO 00000KT 1 1/2SM BR CLR 08/06 A2994 RMK AO2 SLP139 T00780061=
202310130442 SPECI KCLM 130442Z AUTO 00000KT 2 1/2SM BR CLR 08/06 A2994 RMK AO2 T00830061=
202310130353 METAR KCLM 130353Z AUTO 00000KT 3SM BR CLR 08/07 A2995 RMK AO2 SLP144 T00830067=
202310130253 METAR KCLM 130253Z AUTO 00000KT 6SM BR FEW012 09/08 A2997 RMK AO2 SLP149 T00940078 56007=
202310130153 METAR KCLM 130153Z AUTO 22003KT 7SM OVC012 11/09 A2998 RMK AO2 SLP153 T01110094=
202310130053 METAR KCLM 130053Z AUTO 00000KT 8SM BKN012 12/09 A2999 RMK AO2 SLP156 T01220089=
202310130034 SPECI KCLM 130034Z AUTO 00000KT 9SM SCT006 OVC012 12/09 A2999 RMK AO2 T01220094=
202310122353 METAR KCLM 122353Z AUTO 00000KT 8SM BKN006 12/09 A3001 RMK AO2 SLP161 T01220089 10122 20100 57014=
202310122253 METAR KCLM 122253Z AUTO VRB04KT 9SM OVC005 12/09 A3002 RMK AO2 SLP166 T01170089=
202310122246 SPECI KCLM 122246Z AUTO VRB03KT 9SM OVC005 11/08 A3002 RMK AO2 T01110083=
202310122153 METAR KCLM 122153Z AUTO 00000KT 10SM OVC003 11/09 A3003 RMK AO2 SLP171 T01060089=
202310122131 SPECI KCLM 122131Z AUTO 00000KT 3SM BR OVC002 11/09 A3004 RMK AO2 T01060089=
202310122126 SPECI KCLM 122126Z AUTO 00000KT 1SM BR OVC002 11/09 A3004 RMK AO2 T01060089=
202310121953 METAR KCLM 121953Z AUTO 32003KT 1/4SM FG VV002 10/09 A3007 RMK AO2 SLP183 T01000089=
202310121951 SPECI KCLM 121951Z AUTO 31003KT 1/4SM FG VV002 11/09 A3007 RMK AO2=
202310121936 SPECI KCLM 121936Z AUTO 00000KT 1/2SM FG VV002 11/09 A3007 RMK AO2 T01060089=
202310121853 METAR KCLM 121853Z AUTO VRB03KT 1/4SM FG VV002 10/08 A3008 RMK AO2 SLP187 T01000083=
202310121851 SPECI KCLM 121851Z AUTO 03003KT 1/4SM FG VV002 11/08 A3008 RMK AO2=
202310121835 SPECI KCLM 121835Z AUTO 00000KT 1/2SM FG OVC002 11/09 A3008 RMK AO2 T01060089=
202310121819 SPECI KCLM 121819Z AUTO 03005KT 1/4SM FG OVC002 11/09 A3008 RMK AO2 T01060089=
202310121753 METAR KCLM 121753Z AUTO 00000KT 1SM BR OVC002 11/09 A3008 RMK AO2 SLP187 T01060089 10106 20050 50004=
202310121740 SPECI KCLM 121740Z AUTO 10004KT 1/2SM FG VV002 11/09 A3008 RMK AO2 T01060089=
202310121653 METAR KCLM 121653Z AUTO 06004KT 1/4SM FG VV002 10/08 A3008 RMK AO2 SLP188 T01000083=
202310121643 SPECI KCLM 121643Z AUTO 07003KT M1/4SM FG VV001 10/08 A3008 RMK AO2 T01000083=
202310121638 SPECI KCLM 121638Z AUTO 00000KT 1/4SM FG VV002 10/08 A3008 RMK AO2 T01000083=
202310121629 SPECI KCLM 121629Z AUTO 08003KT 3/4SM BR VV002 11/08 A3008 RMK AO2 T01060083=
202310121627 SPECI KCLM 121627Z AUTO VRB03KT 2 1/2SM BR FEW003 11/08 A3008 RMK AO2 T01060083=
202310121553 METAR KCLM 121553Z AUTO 00000KT 10SM CLR 10/08 A3008 RMK AO2 SLP186 T01000078=
202310121453 METAR KCLM 121453Z AUTO 00000KT 9SM CLR 05/04 A3007 RMK AO2 SLP184 T00500039 51014=
202310121424 SPECI KCLM 121424Z AUTO 00000KT 10SM CLR 06/05 A3007 RMK AO2 T00610050=
202310121416 SPECI KCLM 121416Z AUTO 00000KT 2 1/2SM BR CLR 05/03 A3007 RMK AO2 T00500033=
202310121353 METAR KCLM 121353Z AUTO 22003KT 10SM CLR 07/04 A3006 RMK AO2 SLP179 T00670044=
202310121253 METAR KCLM 121253Z AUTO 00000KT 10SM CLR 06/05 A3005 RMK AO2 SLP176 T00610050=
202310121153 METAR KCLM 121153Z AUTO 00000KT 10SM CLR 05/04 A3003 RMK AO2 SLP170 70002 T00500039 10100 20050 51017=
202310121109 SPECI KCLM 121109Z AUTO 00000KT 6SM BR CLR 06/04 A3001 RMK AO2 T00610044=
202310121101 SPECI KCLM 121101Z AUTO 00000KT 2SM BR CLR 06/04 A3001 RMK AO2 VIS 1V5 T00610039=
202310121053 METAR KCLM 121053Z AUTO 00000KT 4SM BR CLR 06/04 A3001 RMK AO2 SLP162 T00610044=
202310120953 METAR KCLM 120953Z AUTO 22003KT 10SM CLR 07/04 A3001 RMK AO2 SLP162 T00670044=
202310120853 METAR KCLM 120853Z AUTO 00000KT 5SM BR CLR 08/06 A2998 RMK AO2 SLP153 T00780061 53018=
202310120753 METAR KCLM 120753Z AUTO 15003KT 10SM CLR 08/06 A2995 RMK AO2 SLP144 T00830061 401440067=
202310120653 METAR KCLM 120653Z AUTO 22006KT 10SM CLR 09/07 A2994 RMK AO2 SLP140 T00940072=
202310120553 METAR KCLM 120553Z AUTO 23007KT 10SM CLR 09/07 A2993 RMK AO2 SLP134 T00890067 10133 20083 51015=
202310120453 METAR KCLM 120453Z AUTO 21004KT 10SM CLR 09/07 A2991 RMK AO2 SLP130 T00890067=
202310120353 METAR KCLM 120353Z AUTO 00000KT 9SM CLR 09/07 A2990 RMK AO2 SLP127 T00890072=
202310120253 METAR KCLM 120253Z AUTO 00000KT 10SM CLR 10/08 A2988 RMK AO2 SLP119 T01000083 51024=
202310120153 METAR KCLM 120153Z AUTO 00000KT 10SM CLR 11/08 A2986 RMK AO2 SLP112 T01060083=
202310120053 METAR KCLM 120053Z AUTO 00000KT 10SM SCT041 13/09 A2983 RMK AO2 SLP103 T01330094=
202310112353 METAR KCLM 112353Z AUTO 33003KT 10SM BKN043 13/09 A2981 RMK AO2 SLP095 T01280094 10144 20117 53023=
202310112253 METAR KCLM 112253Z AUTO 00000KT 10SM SCT033 13/10 A2978 RMK AO2 SLP084 T01280100=
202310112153 METAR KCLM 112153Z AUTO 00000KT 10SM FEW007 SCT010 OVC050 13/10 A2975 RMK AO2 SLP076 T01330100=
202310112116 SPECI KCLM 112116Z AUTO 00000KT 10SM OVC006 13/10 A2974 RMK AO2 CIG 003V009 T01280100=
202310112053 METAR KCLM 112053Z AUTO 00000KT 10SM BKN004 OVC008 12/10 A2974 RMK AO2 CIG 003V006 SLP071 T01220100 51035=
202310112022 SPECI KCLM 112022Z AUTO 02003KT 10SM OVC004 12/10 A2973 RMK AO2 T01170100=
202310112009 SPECI KCLM 112009Z AUTO VRB03KT 10SM OVC005 12/09 A2972 RMK AO2 T01220094=
202310111953 METAR KCLM 111953Z AUTO 01004KT 10SM OVC004 12/09 A2971 RMK AO2 SLP061 T01220094=
202310111911 SPECI KCLM 111911Z AUTO 07005KT 10SM BKN005 BKN009 OVC043 13/10 A2968 RMK AO2 T01280100=
202310111853 METAR KCLM 111853Z AUTO 07005KT 10SM BKN004 OVC041 13/11 A2967 RMK AO2 CIG 003V009 SLP047 T01280106=
202310111838 SPECI KCLM 111838Z AUTO 09005KT 10SM BKN007 OVC038 12/10 A2966 RMK AO2 T01220100=
202310111829 SPECI KCLM 111829Z AUTO 08004KT 10SM FEW008 SCT016 OVC038 12/09 A2966 RMK AO2 T01220094=
202310111822 SPECI KCLM 111822Z AUTO 06005KT 10SM SCT016 OVC038 13/10 A2965 RMK AO2 T01280100=
202310111753 METAR KCLM 111753Z AUTO 07005KT 10SM BKN014 BKN023 BKN039 13/10 A2963 RMK AO2 SLP036 60002 T01280100 10128 20089 51028=
202310111653 METAR KCLM 111653Z AUTO 11005KT 10SM SCT012 OVC022 12/09 A2960 RMK AO2 RAE06 SLP023 P0001 T01220094=
202310111634 SPECI KCLM 111634Z AUTO 11003KT 10SM BKN010 OVC017 12/09 A2958 RMK AO2 RAE06 P0001 T01220094=
202310111553 METAR KCLM 111553Z AUTO 20003KT 10SM -RA SCT010 OVC016 12/09 A2955 RMK AO2 RAB38 SLP007 P0000 T01170094=
202310111512 SPECI KCLM 111512Z AUTO 24005KT 10SM FEW009 OVC015 11/09 A2953 RMK AO2 T01110089=
202310111453 METAR KCLM 111453Z AUTO 25005KT 10SM BKN011 BKN020 OVC070 11/08 A2951 RMK AO2 RAB00E52 SLP995 P0001 60001 T01060083 53022=
202310111431 SPECI KCLM 111431Z AUTO 26007KT 10SM -RA SCT006 BKN013 OVC070 11/08 A2949 RMK AO2 RAB00 P0001 T01060083=
202310111418 SPECI KCLM 111418Z AUTO 26009KT 10SM -RA BKN007 OVC070 11/08 A2948 RMK AO2 RAB00 P0001 T01060083=
202310111409 SPECI KCLM 111409Z AUTO 28006KT 10SM -RA SCT008 OVC070 11/08 A2948 RMK AO2 RAB00 P0001 T01060083=
202310111353 METAR KCLM 111353Z AUTO 27005KT 10SM BKN075 OVC095 11/08 A2948 RMK AO2 SLP983 T01060078=
202310111253 METAR KCLM 111253Z AUTO 23005KT 10SM CLR 09/08 A2945 RMK AO2 SLP974 T00940078=
202310111243 SPECI KCLM 111243Z AUTO 24005KT 3SM BR CLR 09/07 A2945 RMK AO2 T00890072=
202310111228 SPECI KCLM 111228Z AUTO 00000KT 1 3/4SM BR CLR 09/07 A2945 RMK AO2 T00890072=
202310111153 METAR KCLM 111153Z AUTO 20003KT 7SM FEW013 SCT065 11/08 A2945 RMK AO2 SLP972 60004 70016 T01060083 10111 20078 51008=
202310111148 SPECI KCLM 111148Z AUTO 00000KT 10SM FEW006 SCT013 BKN065 11/08 A2945 RMK AO2=
202310111132 SPECI KCLM 111132Z AUTO 00000KT 10SM SCT006 OVC014 11/09 A2945 RMK AO2 T01060094=
202310111120 SPECI KCLM 111120Z AUTO 11004KT 10SM BKN005 OVC014 11/09 A2945 RMK AO2 T01110094=
202310111053 METAR KCLM 111053Z AUTO 14005KT 10SM OVC004 11/09 A2945 RMK AO2 RAE0955 SLP971 P0000 T01110094=
202310111015 SPECI KCLM 111015Z AUTO 20003KT 10SM BKN004 BKN070 OVC090 11/09 A2943 RMK AO2 RAE0955 P0000 T01110094=
202310111005 SPECI KCLM 111005Z AUTO VRB03KT 10SM SCT004 BKN070 OVC090 11/09 A2943 RMK AO2 RAE0955 P0000 T01110094=
202310110953 METAR KCLM 110953Z AUTO 31004KT 10SM -RA BKN070 OVC085 11/09 A2943 RMK AO2 SLP964 P0000 T01060089=
202310110853 METAR KCLM 110853Z AUTO 00000KT 8SM -RA BKN070 OVC095 11/09 A2941 RMK AO2 RAB23 SLP960 P0004 60004 T01060089 53005=
202310110753 METAR KCLM 110753Z AUTO 00000KT 10SM CLR 10/08 A2940 RMK AO2 SLP956 T01000083 401780078=
202310110653 METAR KCLM 110653Z AUTO 11004KT 5SM BR CLR 08/07 A2940 RMK AO2 SLP956 T00830067=
202310110553 METAR KCLM 110553Z AUTO 16003KT 7SM CLR 09/08 A2940 RMK AO2 SLP956 60008 T00940078 10156 20094 51001=
202310110453 METAR KCLM 110453Z AUTO 22006KT 10SM FEW075 11/09 A2940 RMK AO2 SLP955 T01060089=
202310110439 SPECI KCLM 110439Z AUTO 18004KT 10SM FEW075 09/08 A2940 RMK AO2 T00940078=
202310110431 SPECI KCLM 110431Z AUTO 00000KT 2 1/2SM BR FEW075 SCT090 11/08 A2940 RMK AO2 T01060083=
202310110419 SPECI KCLM 110419Z AUTO 23003KT 7SM BKN085 11/09 A2940 RMK AO2 T01060089=
202310110407 SPECI KCLM 110407Z AUTO 00000KT 2SM BR BKN090 10/08 A2940 RMK AO2 VIS 3/4V5 T01000083=
202310110353 METAR KCLM 110353Z AUTO 22004KT 5SM BR FEW085 11/09 A2940 RMK AO2 SLP956 T01060089=
202310110253 METAR KCLM 110253Z AUTO 00000KT 9SM BKN070 11/09 A2939 RMK AO2 RAE24 SLP954 P0001 60008 T01110094 50008=
202310110153 METAR KCLM 110153Z AUTO 31004KT 10SM -RA FEW012 BKN080 OVC100 12/10 A2940 RMK AO2 SLP957 P0006 T01220100=
202310110119 SPECI KCLM 110119Z AUTO 00000KT 4SM -RA BR FEW008 BKN060 OVC075 12/11 A2938 RMK AO2 P0006 T01220106=
202310110112 SPECI KCLM 110112Z AUTO 00000KT 2 1/2SM RA BR FEW008 OVC065 12/11 A2938 RMK AO2 P0005 T01220106=
202310110101 SPECI KCLM 110101Z AUTO 29003KT 4SM -RA BR FEW008 BKN065 OVC075 12/10 A2939 RMK AO2 P0002 T01220100=
202310110053 METAR KCLM 110053Z AUTO 29007KT 6SM -RA BKN070 13/10 A2939 RMK AO2 RAE2359B44 SLP952 P0001 T01280100=
202310102353 METAR KCLM 102353Z AUTO 00000KT 10SM -RA BKN044 BKN070 BKN085 16/10 A2937 RMK AO2 RAB07E28B49 SLP945 P0003 60003 T01560100 10178 20128 56001=
202310102253 METAR KCLM 102253Z AUTO 31003KT 10SM BKN070 BKN095 17/08 A2937 RMK AO2 RAB15E37 SLP946 P0000 T01670078=
202310102153 METAR KCLM 102153Z AUTO VRB03KT 10SM FEW065 18/08 A2937 RMK AO2 SLP945 T01780078=
202310102053 METAR KCLM 102053Z AUTO 34005KT 10SM BKN060 OVC080 15/09 A2938 RMK AO2 SLP947 60000 T01500094 58004=
202310101953 METAR KCLM 101953Z AUTO 27006KT 10SM OVC070 14/11 A2939 RMK AO2 SLP951 T01440106=
202310101853 METAR KCLM 101853Z AUTO 34004KT 10SM SCT060 14/10 A2939 RMK AO2 RAE1755 SLP951 P0000 T01440100=
202310101753 METAR KCLM 101753Z AUTO 00000KT 10SM -RA BKN060 OVC075 13/11 A2939 RMK AO2 RAE14B45 SLP952 P0001 60001 T01280106 10133 20106 56017=
202310101653 METAR KCLM 101653Z AUTO 12003KT 10SM -RA BKN070 OVC080 13/09 A2939 RMK AO2 RAE04B36 SLP954 P0000 T01280094=
202310101553 METAR KCLM 101553Z AUTO 00000KT 10SM -RA FEW060 FEW075 OVC100 12/09 A2941 RMK AO2 RAB53 SLP960 P0000 T01170089=
202310101522 SPECI KCLM 101522Z AUTO VRB04KT 10SM SCT003 SCT013 OVC110 11/09 A2943 RMK AO2 T01060089=
202310101503 SPECI KCLM 101503Z AUTO 18005KT 4SM BR OVC002 11/09 A2943 RMK AO2 T01060089=
202310101453 METAR KCLM 101453Z AUTO 00000KT 1SM BR OVC002 11/09 A2944 RMK AO2 SLP969 T01060094 56025=
202310101445 SPECI KCLM 101445Z AUTO 00000KT 1 3/4SM BR BKN002 OVC120 11/09 A2944 RMK AO2 VIS 3/4V5 T01060094=
202310101441 SPECI KCLM 101441Z AUTO 00000KT 4SM BR BKN002 OVC120 11/09 A2944 RMK AO2 T01110094=
202310101430 SPECI KCLM 101430Z AUTO 00000KT 4SM BR SCT001 BKN120 11/09 A2944 RMK AO2 T01110094=
202310101353 METAR KCLM 101353Z AUTO 31004KT 10SM BKN075 OVC100 11/09 A2945 RMK AO2 SLP974 T01110089=
202310101253 METAR KCLM 101253Z AUTO 32004KT 10SM BKN070 BKN090 OVC110 11/09 A2948 RMK AO2 SLP985 T01060089=
202310101153 METAR KCLM 101153Z AUTO 00000KT 10SM OVC070 11/09 A2951 RMK AO2 RAE1056 SLP993 P0000 60000 70002 T01110094 10122 20078 58028=
202310101053 METAR KCLM 101053Z AUTO 17003KT 10SM -RA FEW045 BKN100 OVC120 12/09 A2954 RMK AO2 RAB44 SLP003 P0000 T01170094=
202310100953 METAR KCLM 100953Z AUTO 00000KT 10SM CLR 11/09 A2957 RMK AO2 SLP013 T01110094=
202310100853 METAR KCLM 100853Z AUTO 16004KT 10SM FEW013 SCT022 12/10 A2960 RMK AO2 SLP022 T01220100 58007=
202310100849 SPECI KCLM 100849Z AUTO 14006KT 10SM SCT013 SCT020 12/10 A2960 RMK AO2=
202310100824 SPECI KCLM 100824Z AUTO 13003KT 10SM BKN014 BKN025 OVC075 12/10 A2961 RMK AO2 T01170100=
202310100807 SPECI KCLM 100807Z AUTO 11003KT 10SM SCT010 BKN020 OVC070 12/10 A2962 RMK AO2 T01170100=
202310100753 METAR KCLM 100753Z AUTO 00000KT 10SM BKN010 BKN015 OVC019 12/10 A2962 RMK AO2 CIG 008V013 SLP030 T01220100 401780078=
202310100737 SPECI KCLM 100737Z AUTO 00000KT 8SM SCT010 BKN013 OVC019 11/10 A2962 RMK AO2 T01110100=
202310100730 SPECI KCLM 100730Z AUTO 00000KT 8SM FEW007 BKN019 OVC023 11/09 A2962 RMK AO2 T01060094=
202310100721 SPECI KCLM 100721Z AUTO 10003KT 10SM FEW007 BKN012 OVC022 11/09 A2962 RMK AO2 T01110094=
202310100700 SPECI KCLM 100700Z AUTO 13004KT 10SM FEW007 BKN022 BKN070 11/09 A2962 RMK AO2 T01060089=
202310100653 METAR KCLM 100653Z AUTO 15005KT 10SM SCT021 BKN070 10/08 A2962 RMK AO2 SLP030 T01000083=
202310100646 SPECI KCLM 100646Z AUTO 15005KT 4SM BR SCT070 10/09 A2962 RMK AO2 T01000089=
202310100633 SPECI KCLM 100633Z AUTO 00000KT 1 1/4SM BR FEW004 09/08 A2962 RMK AO2 T00940078=
202310100602 SPECI KCLM 100602Z AUTO 00000KT 3/4SM BR VV002 09/07 A2962 RMK AO2 VIS 1/2V3 T00890072=
202310100556 SPECI KCLM 100556Z AUTO 12005KT 1 1/4SM BR FEW001 09/08 A2962 RMK AO2 VIS 1/2V3 T00940078=
202310100553 METAR KCLM 100553Z AUTO 00000KT 2SM BR CLR 09/08 A2962 RMK AO2 VIS 1 1/4V5 SLP031 60002 T00940083 10133 20094 53000=
202310100507 SPECI KCLM 100507Z AUTO 11003KT 3SM BR FEW002 11/09 A2962 RMK AO2 T01110089=
202310100504 SPECI KCLM 100504Z AUTO 14003KT 1 1/4SM BR FEW002 11/08 A2962 RMK AO2 VIS 1/2V5 T01060083=
202310100500 SPECI KCLM 100500Z AUTO 00000KT 3/4SM BR VV002 10/08 A2962 RMK AO2 VIS 1/2V3 T01000083=
202310100453 METAR KCLM 100453Z AUTO 10003KT 1SM BR VV001 11/08 A2962 RMK AO2 VIS 1/2V1 3/4 SLP030 T01060083=
202310100450 SPECI KCLM 100450Z AUTO 00000KT 1SM BR VV001 10/09 A2962 RMK AO2 VIS 1/2V4=
202310100448 SPECI KCLM 100448Z AUTO 00000KT 1 3/4SM BR CLR 10/09 A2962 RMK AO2 VIS 3/4V5=
202310100421 SPECI KCLM 100421Z AUTO 17003KT 9SM CLR 11/09 A2963 RMK AO2 T01110094=
202310100413 SPECI KCLM 100413Z AUTO 10003KT 2SM BR CLR 12/10 A2962 RMK AO2 VIS 3/4V5 T01220100=
202310100353 METAR KCLM 100353Z AUTO 00000KT 10SM FEW009 12/10 A2962 RMK AO2 SLP031 T01220100=
202310100345 SPECI KCLM 100345Z AUTO 00000KT 10SM FEW008 SCT029 12/10 A2963 RMK AO2 T01220100=
202310100333 SPECI KCLM 100333Z AUTO 32003KT 10SM SCT008 BKN029 BKN034 12/11 A2962 RMK AO2 T01220106=
202310100329 SPECI KCLM 100329Z AUTO 00000KT 10SM BKN010 BKN029 OVC034 12/11 A2962 RMK AO2 CIG 007V013 T01220106=
202310100314 SPECI KCLM 100314Z AUTO VRB04KT 10SM FEW012 BKN028 BKN034 13/10 A2962 RMK AO2 T01280100=
202310100253 METAR KCLM 100253Z AUTO 00000KT 10SM FEW026 SCT036 12/11 A2962 RMK AO2 RAE09 SLP031 P0000 60002 T01220106 51002=
202310100153 METAR KCLM 100153Z AUTO 23004KT 6SM -RA BR SCT017 OVC024 13/11 A2962 RMK AO2 SLP031 P0002 T01280106=
202310100117 SPECI KCLM 100117Z AUTO 26006KT 10SM -RA SCT002 BKN015 OVC024 13/11 A2963 RMK AO2 P0000 T01330111=
202310100053 METAR KCLM 100053Z AUTO 30006KT 4SM -RA BR OVC002 13/12 A2962 RMK AO2 RAB52 SLP031 P0000 T01330117=
202310092353 METAR KCLM 092353Z AUTO 28007KT 9SM OVC003 14/12 A2962 RMK AO2 RAB01E30 SLP028 P0000 60000 T01440122 10178 20139 55000=
202310092325 SPECI KCLM 092325Z AUTO 30007KT 7SM -RA BKN004 BKN029 OVC049 14/13 A2961 RMK AO2 RAB01 P0000 T01440128=
202310092316 SPECI KCLM 092316Z AUTO 30007KT 9SM -RA FEW004 BKN035 OVC065 15/13 A2961 RMK AO2 RAB01 P0000 T01500128=
202310092253 METAR KCLM 092253Z AUTO 29006KT 10SM FEW012 BKN024 OVC029 16/13 A2961 RMK AO2 SLP026 T01610128=
202310092153 METAR KCLM 092153Z AUTO 25005KT 10SM OVC027 17/13 A2960 RMK AO2 RAE09 SLP024 P0000 T01720133=
202310092142 SPECI KCLM 092142Z AUTO 24005KT 10SM OVC029 17/13 A2961 RMK AO2 RAE09 P0000 T01670133=
202310092053 METAR KCLM 092053Z AUTO 23005KT 10SM -RA FEW013 BKN060 OVC075 16/13 A2962 RMK AO2 RAB53 SLP028 P0000 60000 T01610133 56001=
202310092050 SPECI KCLM 092050Z AUTO 22005KT 10SM SCT013 SCT022 OVC065 16/13 A2962 RMK AO2=
202310092011 SPECI KCLM 092011Z AUTO 00000KT 10SM OVC011 16/13 A2961 RMK AO2 T01610128=
202310091953 METAR KCLM 091953Z AUTO 00000KT 10SM OVC008 16/13 A2962 RMK AO2 SLP029 T01560128=
202310091923 SPECI KCLM 091923Z AUTO 08004KT 10SM OVC011 16/12 A2962 RMK AO2 CIG 008V013 T01560122=
202310091853 METAR KCLM 091853Z AUTO 17003KT 10SM BKN009 OVC075 16/12 A2962 RMK AO2 RAE1758 SLP029 P0000 T01560122=
202310091845 SPECI KCLM 091845Z AUTO 00000KT 10SM BKN009 OVC075 16/12 A2962 RMK AO2 RAE1758 P0000 T01560122=
202310091836 SPECI KCLM 091836Z AUTO 00000KT 10SM SCT009 BKN070 OVC090 15/12 A2962 RMK AO2 RAE1758 P0000 T01500122=
202310091753 METAR KCLM 091753Z AUTO 26007KT 10SM -RA BKN080 OVC090 14/11 A2961 RMK AO2 RAB1656 SLP028 P0000 60000 T01390111 10144 20117 53008=
202310091653 METAR KCLM 091653Z AUTO 29007KT 10SM BKN075 BKN095 14/11 A2961 RMK AO2 SLP025 T01390106=
202310091553 METAR KCLM 091553Z AUTO 00000KT 10SM FEW065 SCT100 13/11 A2957 RMK AO2 SLP013 T01330106=
202310091453 METAR KCLM 091453Z AUTO 11004KT 10SM FEW090 12/09 A2959 RMK AO2 RAB26E36 SLP019 P0000 60000 T01170094 55004=
202310091353 METAR KCLM 091353Z AUTO 00000KT 10SM SCT090 12/09 A2959 RMK AO2 SLP018 T01170094=
202310091253 METAR KCLM 091253Z AUTO 00000KT 10SM OVC090 12/10 A2960 RMK AO2 SLP024 T01220100=
202310091153 METAR KCLM 091153Z AUTO 10SM CLR 13/10 A2960 RMK AO2 SLP024 T01330100 10156 20111 56018=
202310091053 METAR KCLM 091053Z AUTO 24003KT 10SM CLR 13/09 A2962 RMK AO2 SLP029 T01280094=
202310090953 METAR KCLM 090953Z AUTO 11008KT 10SM CLR 14/11 A2962 RMK AO2 SLP030 T01440106=
202310090853 METAR KCLM 090853Z AUTO 00000KT 10SM CLR 13/10 A2965 RMK AO2 SLP041 T01280100 51001=
202310090753 METAR KCLM 090753Z AUTO 23005KT 10SM CLR 11/09 A2965 RMK AO2 SLP040 T01110089 402000106=
202310090653 METAR KCLM 090653Z AUTO 21004KT 10SM CLR 12/10 A2966 RMK AO2 SLP042 T01220100=
202310090553 METAR KCLM 090553Z AUTO 00000KT 10SM CLR 12/10 A2965 RMK AO2 SLP040 T01220100 10200 20117 58007=
202310090453 METAR KCLM 090453Z AUTO 22005KT 10SM CLR 13/11 A2967 RMK AO2 SLP045 T01330106=
202310090353 METAR KCLM 090353Z AUTO 00000KT 10SM CLR 13/10 A2966 RMK AO2 SLP044 T01280100=
202310090253 METAR KCLM 090253Z AUTO 24004KT 10SM CLR 14/11 A2967 RMK AO2 SLP048 T01390106 55013=
202310082114 SPECI KCLM 082114Z AUTO 00000KT 10SM SCT019 16/11 A2977 RMK AO2 T01610111=
202310082053 METAR KCLM 082053Z AUTO 29004KT 10SM BKN019 17/11 A2979 RMK AO2 SLP086 T01720111 58015=
202310082032 SPECI KCLM 082032Z AUTO 22004KT 10SM BKN017 17/12 A2979 RMK AO2 T01720117=
202310082024 SPECI KCLM 082024Z AUTO 29003KT 10SM SCT017 17/12 A2979 RMK AO2 T01720117=
202310081953 METAR KCLM 081953Z AUTO 00000KT 10SM OVC015 16/11 A2980 RMK AO2 SLP092 T01560111=
202310081853 METAR KCLM 081853Z AUTO 00000KT 10SM OVC015 16/12 A2982 RMK AO2 SLP097 T01560117=
202310081753 METAR KCLM 081753Z AUTO 07003KT 10SM OVC016 16/12 A2983 RMK AO2 SLP100 T01560117 10161 20106 58009=
202310081653 METAR KCLM 081653Z AUTO 00000KT 10SM OVC017 16/12 A2984 RMK AO2 SLP104 T01560117=
202310081553 METAR KCLM 081553Z AUTO 25004KT 10SM OVC016 14/12 A2985 RMK AO2 SLP109 T01440117=
202310081453 METAR KCLM 081453Z AUTO 28003KT 10SM OVC018 12/11 A2985 RMK AO2 SLP109 T01220106 56010=
202310081439 SPECI KCLM 081439Z AUTO 17003KT 10SM BKN018 12/09 A2986 RMK AO2 T01170094=
202310081423 SPECI KCLM 081423Z AUTO 00000KT 9SM CLR 11/09 A2986 RMK AO2 T01110094=
202310081416 SPECI KCLM 081416Z AUTO 00000KT 2 1/2SM BR CLR 12/09 A2986 RMK AO2 T01170094=
202310081353 METAR KCLM 081353Z AUTO 00000KT 10SM CLR 12/09 A2986 RMK AO2 SLP112 T01170094=
202310081300 SPECI KCLM 081300Z AUTO 00000KT 10SM SCT015 14/11 A2987 RMK AO2 T01390111=
202310081253 METAR KCLM 081253Z AUTO 22003KT 10SM BKN015 14/11 A2987 RMK AO2 SLP114 T01390111=
202310081153 METAR KCLM 081153Z AUTO 24006KT 10SM OVC014 14/12 A2988 RMK AO2 SLP118 T01440117 10144 20111 58002=
202310081053 METAR KCLM 081053Z AUTO 25005KT 10SM BKN013 14/12 A2989 RMK AO2 SLP121 T01390117=
202310080953 METAR KCLM 080953Z AUTO 26007KT 10SM CLR 14/12 A2990 RMK AO2 SLP123 T01390117=
202310080853 METAR KCLM 080853Z AUTO 27008KT 10SM CLR 14/12 A2989 RMK AO2 SLP122 T01390117 50004=
202310080753 METAR KCLM 080753Z AUTO 27009KT 10SM CLR 14/12 A2989 RMK AO2 SLP122 T01390117 402220078=
202310080653 METAR KCLM 080653Z AUTO 26006KT 10SM CLR 12/09 A2989 RMK AO2 SLP120 T01220094=
202310080553 METAR KCLM 080553Z AUTO 26003KT 10SM CLR 13/10 A2988 RMK AO2 SLP118 T01280100 10222 20117 53004=
202310080453 METAR KCLM 080453Z AUTO 24005KT 10SM CLR 13/10 A2987 RMK AO2 SLP114 T01280100=
202310080353 METAR KCLM 080353Z AUTO 26005KT 10SM CLR 15/10 A2987 RMK AO2 SLP113 T01500100=
202310080253 METAR KCLM 080253Z AUTO 00000KT 10SM CLR 16/10 A2987 RMK AO2 SLP114 T01560100 55002=
202310080153 METAR KCLM 080153Z AUTO 27003KT 10SM CLR 19/11 A2986 RMK AO2 SLP111 T01890106=
202310080053 METAR KCLM 080053Z AUTO 26003KT 10SM CLR 22/09 A2986 RMK AO2 SLP112 T02170089=
202310072353 METAR KCLM 072353Z AUTO VRB03KT 10SM CLR 22/09 A2987 RMK AO2 SLP115 T02220094 10222 20178 56012=
202310072253 METAR KCLM 072253Z AUTO 34003KT 10SM CLR 22/08 A2988 RMK AO2 SLP118 T02170083=
202310072153 METAR KCLM 072153Z AUTO 34003KT 10SM CLR 21/09 A2989 RMK AO2 SLP122 T02110094=
202310072053 METAR KCLM 072053Z AUTO VRB04KT 10SM CLR 20/10 A2991 RMK AO2 SLP128 T02000100 58014=
202310071953 METAR KCLM 071953Z AUTO 08005KT 10SM CLR 19/11 A2993 RMK AO2 SLP135 T01940106=
202310071853 METAR KCLM 071853Z AUTO 02005KT 10SM CLR 18/11 A2994 RMK AO2 SLP139 T01780111=
202310071753 METAR KCLM 071753Z AUTO 36004KT 10SM CLR 18/11 A2995 RMK AO2 SLP142 T01780111 10183 20078 50001 $=
202310071653 METAR KCLM 071653Z AUTO 08003KT 10SM CLR 17/12 A2996 RMK AO2 SLP143 T01670117 $=
202310071553 METAR KCLM 071553Z AUTO 00000KT 10SM CLR 13/11 A2996 RMK AO2 SLP144 T01330111 $=
202310071453 METAR KCLM 071453Z AUTO 00000KT 10SM CLR 09/07 A2995 RMK AO2 SLP143 T00890072 56006 $=
202310071430 SPECI KCLM 071430Z AUTO 00000KT 10SM CLR 09/08 A2995 RMK AO2 T00940078 $=
202310071423 SPECI KCLM 071423Z AUTO 00000KT 2 1/2SM BR CLR 09/07 A2995 RMK AO2 T00940072 $=
202310071420 SPECI KCLM 071420Z AUTO 00000KT 3/4SM BR CLR 09/07 A2995 RMK AO2 T00890072 $=
202310071353 METAR KCLM 071353Z AUTO 00000KT 10SM CLR 09/07 A2995 RMK AO2 SLP142 T00890072=
202310071253 METAR KCLM 071253Z AUTO 00000KT 10SM CLR 09/07 A2996 RMK AO2 SLP144 T00890067=
202310071153 METAR KCLM 071153Z AUTO 00000KT 10SM CLR 10/08 A2997 RMK AO2 SLP148 T01000083 10128 20089 58010=
202310071053 METAR KCLM 071053Z AUTO 21004KT 10SM CLR 09/08 A2998 RMK AO2 SLP151 T00940078=
202310070953 METAR KCLM 070953Z AUTO 19003KT 10SM CLR 09/08 A2999 RMK AO2 SLP156 T00940078=
202310070853 METAR KCLM 070853Z AUTO 21003KT 10SM CLR 12/09 A3000 RMK AO2 SLP159 T01170094 58013=
202310070753 METAR KCLM 070753Z AUTO 00000KT 10SM CLR 11/09 A3001 RMK AO2 SLP163 T01110089 402110089=
202310070653 METAR KCLM 070653Z AUTO 00000KT 10SM CLR 12/09 A3003 RMK AO2 SLP169 T01170089=
202310070553 METAR KCLM 070553Z AUTO 14003KT 10SM CLR 12/09 A3004 RMK AO2 SLP172 T01170094 10211 20111 55005=
202310070453 METAR KCLM 070453Z AUTO 00000KT 10SM CLR 12/10 A3004 RMK AO2 SLP171 T01220100=
202310070353 METAR KCLM 070353Z AUTO 00000KT 10SM CLR 12/09 A3004 RMK AO2 SLP173 T01170094=
202310070253 METAR KCLM 070253Z AUTO 00000KT 10SM CLR 14/11 A3006 RMK AO2 SLP177 T01440111 56014=
202310070153 METAR KCLM 070153Z AUTO 00000KT 10SM CLR 17/09 A3007 RMK AO2 SLP181 T01720094=
202310070053 METAR KCLM 070053Z AUTO 09004KT 10SM CLR 21/11 A3008 RMK AO2 SLP185 T02060106=
202310062353 METAR KCLM 062353Z AUTO 10SM CLR 21/10 A3010 RMK AO2 SLP192 T02110100 10211 20178 56026=
202310062253 METAR KCLM 062253Z AUTO 07004KT 10SM CLR 21/11 A3012 RMK AO2 SLP200 T02060111=
202310062153 METAR KCLM 062153Z AUTO 08006KT 10SM CLR 21/11 A3015 RMK AO2 SLP209 T02060111=
202310062053 METAR KCLM 062053Z AUTO 07006KT 10SM CLR 20/11 A3018 RMK AO2 SLP218 T02000111 58018=
202310061953 METAR KCLM 061953Z AUTO 08006KT 10SM CLR 20/11 A3020 RMK AO2 SLP226 T02000111=
202310061853 METAR KCLM 061853Z AUTO 06006KT 10SM CLR 18/11 A3022 RMK AO2 SLP233 T01830111=
202310061753 METAR KCLM 061753Z AUTO VRB05KT 10SM CLR 18/12 A3023 RMK AO2 SLP236 T01780122 10178 20089 58007=
202310061653 METAR KCLM 061653Z AUTO 10006KT 10SM CLR 17/12 A3025 RMK AO2 SLP243 T01720122=
202310061553 METAR KCLM 061553Z AUTO 20003KT 10SM CLR 14/11 A3026 RMK AO2 SLP245 T01390111=
202310061453 METAR KCLM 061453Z AUTO 00000KT 10SM CLR 11/09 A3025 RMK AO2 SLP245 T01060089 56012=
202310061353 METAR KCLM 061353Z AUTO 15005KT 10SM CLR 11/09 A3026 RMK AO2 SLP247 T01060089=
202310061253 METAR KCLM 061253Z AUTO 00000KT 10SM CLR 10/08 A3027 RMK AO2 SLP251 T01000078=
202310061153 METAR KCLM 061153Z AUTO 00000KT 10SM CLR 10/08 A3029 RMK AO2 SLP256 T01000083 10128 20089 58007=
202310061053 METAR KCLM 061053Z AUTO 00000KT 10SM CLR 09/08 A3030 RMK AO2 SLP259 T00940078=
202310060953 METAR KCLM 060953Z AUTO 00000KT 10SM CLR 10/08 A3030 RMK AO2 SLP261 T01000083=
202310060853 METAR KCLM 060853Z AUTO 00000KT 10SM CLR 11/08 A3031 RMK AO2 SLP263 T01060083 56006=
202310060753 METAR KCLM 060753Z AUTO 14005KT 10SM CLR 11/09 A3031 RMK AO2 SLP264 T01110089 402000106=
202310060653 METAR KCLM 060653Z AUTO 12005KT 10SM CLR 12/09 A3032 RMK AO2 SLP267 T01170094=
202310060553 METAR KCLM 060553Z AUTO 14004KT 10SM CLR 12/09 A3033 RMK AO2 SLP269 T01170089 10183 20111 51002=
202310060453 METAR KCLM 060453Z AUTO 12005KT 10SM CLR 13/09 A3033 RMK AO2 SLP269 T01330094=
202310060353 METAR KCLM 060353Z AUTO 11005KT 10SM CLR 13/09 A3033 RMK AO2 SLP270 T01280094=
202310060253 METAR KCLM 060253Z AUTO 13003KT 10SM CLR 13/11 A3032 RMK AO2 SLP267 T01280106 56008=
202310060153 METAR KCLM 060153Z AUTO 11005KT 10SM CLR 16/11 A3033 RMK AO2 SLP269 T01560106=
202310060053 METAR KCLM 060053Z AUTO 08006KT 10SM CLR 18/11 A3033 RMK AO2 SLP270 T01780106=
202310052353 METAR KCLM 052353Z AUTO 08007KT 10SM CLR 18/11 A3034 RMK AO2 SLP275 T01830106 10200 20183 56013=
202310052253 METAR KCLM 052253Z AUTO 08006KT 10SM CLR 18/11 A3035 RMK AO2 SLP277 T01830106=
202310052153 METAR KCLM 052153Z AUTO 05006KT 10SM CLR 19/11 A3036 RMK AO2 SLP282 T01890111=
202310052053 METAR KCLM 052053Z AUTO 11008G15KT 10SM CLR 19/11 A3038 RMK AO2 SLP288 T01940111 58010=
202310051953 METAR KCLM 051953Z AUTO VRB05KT 10SM CLR 19/11 A3039 RMK AO2 SLP292 T01940106=
202310051853 METAR KCLM 051853Z AUTO VRB04KT 10SM CLR 18/11 A3041 RMK AO2 SLP297 T01830111=
202310051753 METAR KCLM 051753Z AUTO 13006KT 10SM CLR 19/11 A3041 RMK AO2 SLP298 T01940111 10194 20122 50003=
202310051706 SPECI KCLM 051706Z AUTO 12005KT 10SM BKN030 OVC034 18/12 A3042 RMK AO2 T01830117=
202310051653 METAR KCLM 051653Z AUTO 11004KT 10SM OVC028 18/12 A3042 RMK AO2 SLP302 T01780117=
202310051553 METAR KCLM 051553Z AUTO 11006KT 10SM OVC025 17/12 A3042 RMK AO2 SLP300 T01670122=
202310051453 METAR KCLM 051453Z AUTO 09005KT 10SM OVC029 16/12 A3040 RMK AO2 SLP295 T01610122 53005=
202310051434 SPECI KCLM 051434Z AUTO 10003KT 10SM OVC029 16/12 A3040 RMK AO2 T01560122=
202310051353 METAR KCLM 051353Z AUTO 09003KT 10SM OVC032 14/12 A3039 RMK AO2 SLP292 T01440117=
202310051253 METAR KCLM 051253Z AUTO 00000KT 9SM OVC031 13/11 A3039 RMK AO2 SLP292 T01280111 $=
202310051220 SPECI KCLM 051220Z AUTO 12005KT 10SM OVC030 15/12 A3039 RMK AO2 T01500122 $=
202310051153 METAR KCLM 051153Z AUTO 00000KT 10SM OVC029 14/12 A3039 RMK AO2 SLP290 T01390122 10144 20122 56002 $=
202310051133 SPECI KCLM 051133Z AUTO 00000KT 10SM OVC029 14/12 A3039 RMK AO2 T01390117 $=
202310051053 METAR KCLM 051053Z AUTO 00000KT 10SM OVC030 13/11 A3039 RMK AO2 SLP291 T01280111 $=
202310050953 METAR KCLM 050953Z AUTO 00000KT 10SM SCT001 BKN030 12/11 A3039 RMK AO2 SLP290 T01220106 $=
202310050945 SPECI KCLM 050945Z AUTO 00000KT 4SM BR BKN001 BKN030 12/11 A3039 RMK AO2 T01220106 $=
202310050941 SPECI KCLM 050941Z AUTO 17004KT 1SM BR VV001 12/11 A3039 RMK AO2 T01220106 $=
202310050902 SPECI KCLM 050902Z AUTO 11003KT 1/4SM FG VV001 13/11 A3039 RMK AO2 T01280111 $=
202310050853 METAR KCLM 050853Z AUTO 00000KT M1/4SM FG VV001 12/11 A3040 RMK AO2 SLP293 T01220111 53006 $=
202310050835 SPECI KCLM 050835Z AUTO 00000KT M1/4SM FG VV001 12/11 A3039 RMK AO2 T01220111 $=
202310050815 SPECI KCLM 050815Z AUTO 00000KT 1/4SM FG VV001 12/11 A3039 RMK AO2 T01220111 $=
202310050753 METAR KCLM 050753Z AUTO 02003KT 1/4SM FG VV002 12/11 A3039 RMK AO2 SLP290 T01220106 401670111 $=
202310050725 SPECI KCLM 050725Z AUTO 00000KT 1/4SM FG BKN002 OVC008 13/12 A3038 RMK AO2 T01280117 $=
202310050718 SPECI KCLM 050718Z AUTO 00000KT 1/2SM FG BKN001 OVC008 13/12 A3038 RMK AO2 VIS 1/2V1 1/2 T01280117 $=
202310050711 SPECI KCLM 050711Z AUTO 00000KT 1 3/4SM BR FEW001 OVC008 13/12 A3038 RMK AO2 T01330117 $=
202310050653 METAR KCLM 050653Z AUTO 00000KT 10SM OVC009 14/12 A3038 RMK AO2 SLP288 T01390117 $=
202310050611 SPECI KCLM 050611Z AUTO 00000KT 10SM OVC009 14/12 A3038 RMK AO2 T01440122 $=
202310050553 METAR KCLM 050553Z AUTO 00000KT 10SM OVC010 14/12 A3038 RMK AO2 SLP287 T01440122 10156 20139 52008 $=
202310050528 SPECI KCLM 050528Z AUTO 00000KT 10SM OVC010 14/12 A3038 RMK AO2 T01440122 $=
202310050508 SPECI KCLM 050508Z AUTO 00000KT 10SM OVC009 14/12 A3037 RMK AO2 T01390122 $=
202310050453 METAR KCLM 050453Z AUTO 00000KT 10SM OVC010 14/12 A3037 RMK AO2 SLP284 T01440122 $=
202310050353 METAR KCLM 050353Z AUTO 00000KT 10SM OVC012 14/12 A3036 RMK AO2 SLP282 T01440122 $=
202310050318 SPECI KCLM 050318Z AUTO 00000KT 10SM SCT005 OVC010 14/12 A3036 RMK AO2 T01440122 $=
202310050253 METAR KCLM 050253Z AUTO 00000KT 10SM BKN005 OVC012 14/12 A3035 RMK AO2 SLP279 T01440122 53001 $=
202310050212 SPECI KCLM 050212Z AUTO 00000KT 10SM SCT004 OVC014 14/12 A3034 RMK AO2 T01440122 $=
202310050153 METAR KCLM 050153Z AUTO 00000KT 10SM OVC004 14/12 A3034 RMK AO2 SLP275 T01440122 $=
202310050144 SPECI KCLM 050144Z AUTO 00000KT 10SM OVC004 14/12 A3034 RMK AO2 T01440122 $=
202310050117 SPECI KCLM 050117Z AUTO 31003KT 10SM BKN007 OVC012 14/12 A3035 RMK AO2 CIG 004V008 T01440122 $=
202310050103 SPECI KCLM 050103Z AUTO 29003KT 10SM FEW007 OVC013 14/12 A3035 RMK AO2 T01440122 $=
202310050053 METAR KCLM 050053Z AUTO 34003KT 10SM OVC013 14/12 A3035 RMK AO2 SLP278 T01440117 $=
202310050046 SPECI KCLM 050046Z AUTO 34003KT 10SM OVC013 14/12 A3035 RMK AO2 T01440117 $=
202310042353 METAR KCLM 042353Z AUTO 34004KT 10SM OVC017 16/12 A3035 RMK AO2 SLP278 T01560117 10167 20139 58004 $=
202310042330 SPECI KCLM 042330Z AUTO 32004KT 10SM OVC015 16/12 A3035 RMK AO2 T01610122 $=
202310042253 METAR KCLM 042253Z AUTO 34003KT 10SM OVC011 16/12 A3036 RMK AO2 SLP280 T01610122 $=
202310042153 METAR KCLM 042153Z AUTO 00000KT 10SM OVC007 15/12 A3036 RMK AO2 SLP282 T01500122=
202310042053 METAR KCLM 042053Z AUTO 34003KT 10SM OVC006 16/12 A3036 RMK AO2 SLP282 T01560122 50007=
202310042015 SPECI KCLM 042015Z AUTO 00000KT 8SM OVC005 15/12 A3037 RMK AO2 T01500117=
202310041953 METAR KCLM 041953Z AUTO 00000KT 10SM OVC004 15/12 A3037 RMK AO2 CIG 002V007 SLP283 T01500122=
202310041930 SPECI KCLM 041930Z AUTO 00000KT 9SM OVC003 14/12 A3036 RMK AO2 T01440122=
202310041923 SPECI KCLM 041923Z AUTO 03003KT 2 1/2SM BR OVC004 14/12 A3036 RMK AO2 VIS 3/4V5 T01440122=
202310041914 SPECI KCLM 041914Z AUTO 36003KT 1 3/4SM BR OVC005 14/12 A3036 RMK AO2 T01390117=
202310041853 METAR KCLM 041853Z AUTO 34004KT 10SM OVC006 14/12 A3035 RMK AO2 SLP279 T01440117=
202310041753 METAR KCLM 041753Z AUTO 33005KT 10SM OVC007 15/12 A3034 RMK AO2 CIG 005V011 SLP274 T01500122 10150 20122 50009=
202310041713 SPECI KCLM 041713Z AUTO 33003KT 10SM OVC009 15/12 A3035 RMK AO2 CIG 007V010 T01500117=
202310041653 METAR KCLM 041653Z AUTO 00000KT 10SM OVC011 14/12 A3035 RMK AO2 CIG 008V012 SLP278 T01440117=
202310041553 METAR KCLM 041553Z AUTO 00000KT 10SM FEW003 OVC014 14/12 A3034 RMK AO2 SLP273 T01390117=
202310041541 SPECI KCLM 041541Z AUTO 00000KT 10SM SCT003 OVC014 13/11 A3033 RMK AO2 T01330111=
202310041522 SPECI KCLM 041522Z AUTO 00000KT 10SM BKN003 BKN013 BKN018 13/11 A3032 RMK AO2 T01280106=
202310041516 SPECI KCLM 041516Z AUTO 00000KT 10SM SCT004 BKN015 12/11 A3032 RMK AO2 T01220106=
202310041503 SPECI KCLM 041503Z AUTO 24005KT 10SM BKN015 BKN020 12/10 A3032 RMK AO2 T01220100=
202310041453 METAR KCLM 041453Z AUTO 25006KT 10SM SCT015 12/10 A3031 RMK AO2 SLP265 T01220100 50005=
202310041438 SPECI KCLM 041438Z AUTO 31003KT 10SM FEW017 SCT023 BKN030 12/11 A3031 RMK AO2 T01220106=
202310041353 METAR KCLM 041353Z AUTO 00000KT 10SM BKN016 OVC022 13/11 A3032 RMK AO2 SLP268 T01280111=
202310041253 METAR KCLM 041253Z AUTO 00000KT 10SM SCT017 OVC027 13/11 A3031 RMK AO2 SLP265 T01280111=
202310041153 METAR KCLM 041153Z AUTO 00000KT 10SM OVC029 13/11 A3030 RMK AO2 SLP260 T01280106 10128 20094 50003=
202310041053 METAR KCLM 041053Z AUTO 00000KT 10SM OVC025 12/11 A3030 RMK AO2 SLP262 T01220106=
202310041007 SPECI KCLM 041007Z AUTO 00000KT 10SM OVC029 12/10 A3030 RMK AO2 T01220100=
202310040953 METAR KCLM 040953Z AUTO 00000KT 10SM OVC030 12/10 A3031 RMK AO2 SLP263 T01170100=
202310040853 METAR KCLM 040853Z AUTO 21003KT 10SM FEW034 12/10 A3029 RMK AO2 SLP256 T01220100 58001=
202310040753 METAR KCLM 040753Z AUTO 27004KT 10SM CLR 11/09 A3029 RMK AO2 SLP257 T01060089 401610094=
202310040653 METAR KCLM 040653Z AUTO 00000KT 10SM CLR 09/08 A3029 RMK AO2 SLP258 T00940083=
202310040553 METAR KCLM 040553Z AUTO 00000KT 10SM CLR 11/09 A3029 RMK AO2 SLP258 T01110089 10139 20100 51007=
202310040153 METAR KCLM 040153Z AUTO 30007KT 10SM BKN007 OVC011 13/10 A3026 RMK AO2 CIG 006V010 SLP246 T01280100=
202310040104 SPECI KCLM 040104Z AUTO 28005KT 10SM BKN013 13/09 A3025 RMK AO2 T01280094=
202310040053 METAR KCLM 040053Z AUTO 28004KT 10SM FEW008 SCT013 13/09 A3025 RMK AO2 SLP244 T01280094=
202310040041 SPECI KCLM 040041Z AUTO 30004KT 10SM FEW008 13/09 A3025 RMK AO2 T01280094=
202310032353 METAR KCLM 032353Z AUTO 00000KT 10SM CLR 14/09 A3025 RMK AO2 SLP242 T01390094 10161 20133 51004=
202310032302 SPECI KCLM 032302Z AUTO 36005KT 10SM SCT022 15/09 A3024 RMK AO2 T01500094=
202310032253 METAR KCLM 032253Z AUTO 36004KT 10SM BKN022 15/09 A3024 RMK AO2 SLP242 T01500094=
202310032216 SPECI KCLM 032216Z AUTO 32004KT 10SM BKN023 15/09 A3025 RMK AO2 T01500089=
202310032153 METAR KCLM 032153Z AUTO VRB04KT 10SM CLR 15/09 A3025 RMK AO2 SLP242 T01500094=
202310032053 METAR KCLM 032053Z AUTO 34004KT 10SM CLR 15/09 A3024 RMK AO2 SLP239 T01500094 50009=
202310032025 SPECI KCLM 032025Z AUTO 08004KT 10SM SCT025 16/10 A3024 RMK AO2 T01560100=
202310031953 METAR KCLM 031953Z AUTO VRB04KT 10SM BKN027 15/09 A3024 RMK AO2 SLP240 T01500094=
202310031853 METAR KCLM 031853Z AUTO 01004KT 10SM CLR 14/09 A3021 RMK AO2 SLP230 T01440094=
202310031753 METAR KCLM 031753Z AUTO VRB05KT 10SM CLR 14/09 A3020 RMK AO2 SLP226 T01390094 10156 20100 53016=
202310031653 METAR KCLM 031653Z AUTO 10005KT 10SM CLR 15/09 A3018 RMK AO2 SLP219 T01500094=
202310031453 METAR KCLM 031453Z AUTO 00000KT 10SM CLR 11/08 A3015 RMK AO2 SLP211 T01060083 53024=
202310031353 METAR KCLM 031353Z AUTO 13004KT 10SM SCT035 12/08 A3012 RMK AO2 SLP199 T01170083=
202310031253 METAR KCLM 031253Z AUTO 13006KT 10SM OVC035 13/09 A3010 RMK AO2 SLP194 T01280094 $=
202310031153 METAR KCLM 031153Z AUTO 12005KT 10SM OVC034 13/10 A3008 RMK AO2 SLP186 60008 70044 T01280100 10128 20122 53017 $=
202310030902 SPECI KCLM 030902Z AUTO 15004KT 8SM SCT012 OVC021 12/11 A3003 RMK AO2 T01220106 $=
202310030853 METAR KCLM 030853Z AUTO 14005KT 4SM BR BKN012 OVC019 12/11 A3003 RMK AO2 RAB15E24 SLP169 P0000 60008 T01220106 51013 $=
202310030822 SPECI KCLM 030822Z AUTO 13005KT 3SM -RA BR OVC013 13/11 A3002 RMK AO2 RAB15 P0000 T01280106 $=
202310030753 METAR KCLM 030753Z AUTO 13004KT 5SM BR OVC009 13/11 A3002 RMK AO2 RAE0655 CIG 006V013 SLP166 P0000 T01280106 401500083 $=
202310030722 SPECI KCLM 030722Z AUTO VRB05KT 3SM BR OVC009 13/11 A3001 RMK AO2 RAE0655 CIG 007V013 P0000 T01280106 $=
202310030707 SPECI KCLM 030707Z AUTO 15006KT 4SM BR OVC010 13/11 A3001 RMK AO2 RAE0655 CIG 005V013 P0000 T01280106 $=
202310030653 METAR KCLM 030653Z AUTO 16004KT 3SM -RA BR OVC008 13/11 A3001 RMK AO2 CIG 004V011 SLP163 P0008 T01280106 $=
202310030642 SPECI KCLM 030642Z AUTO 10005KT 2SM -RA BR OVC006 13/11 A3001 RMK AO2 CIG 003V009 P0007 T01280106 $=
202310030553 METAR KCLM 030553Z AUTO 00000KT 2SM -RA BR OVC004 12/11 A2999 RMK AO2 SLP156 P0008 60034 T01220111 10128 20117 53021 $=
202310030453 METAR KCLM 030453Z AUTO 00000KT 2SM -RA BR OVC002 12/11 A2997 RMK AO2 SLP149 P0006 T01220106 $=
202310030353 METAR KCLM 030353Z AUTO 11003KT 2 1/2SM -RA BR OVC002 12/11 A2995 RMK AO2 SLP142 P0008 T01220106 $=
202310030253 METAR KCLM 030253Z AUTO 00000KT 2SM -RA BR OVC002 12/10 A2993 RMK AO2 SLP135 P0011 60012 T01220100 50009 $=
202310030249 SPECI KCLM 030249Z AUTO 00000KT 2SM -RA BR OVC002 12/10 A2993 RMK AO2 P0010 $=
202310030209 SPECI KCLM 030209Z AUTO VRB04KT 1 1/4SM -RA BR OVC002 12/10 A2991 RMK AO2 P0002 T01170100 $=
202310030153 METAR KCLM 030153Z AUTO 30003KT 2SM -RA BR OVC002 12/10 A2990 RMK AO2 RAB45 SLP127 P0001 T01170100 $=
202310030100 SPECI KCLM 030100Z AUTO 27004KT 7SM BKN003 OVC055 12/11 A2989 RMK AO2 T01220106 $=
202310030053 METAR KCLM 030053Z AUTO 27005KT 8SM SCT003 BKN026 OVC055 12/11 A2989 RMK AO2 SLP123 T01220106 $=
202310022353 METAR KCLM 022353Z AUTO 27008KT 10SM SCT003 BKN034 OVC050 12/11 A2990 RMK AO2 SLP126 60000 T01220106 10150 20122 58003 $=
202310022349 SPECI KCLM 022349Z AUTO 27007KT 10SM SCT003 BKN036 OVC050 12/11 A2990 RMK AO2 $=
202310022253 METAR KCLM 022253Z AUTO 28007KT 7SM OVC002 12/11 A2991 RMK AO2 SLP129 T01220106 $=
202310022250 SPECI KCLM 022250Z AUTO 28007KT 7SM OVC002 12/11 A2991 RMK AO2 $=
202310022153 METAR KCLM 022153Z AUTO 28006KT 9SM BKN004 OVC060 12/10 A2992 RMK AO2 RAE04 SLP133 P0000 T01220100=
202310022150 SPECI KCLM 022150Z AUTO 29007KT 9SM BKN004 OVC060 12/10 A2993 RMK AO2 RAE04 P0000=
202310022136 SPECI KCLM 022136Z AUTO 31006KT 10SM SCT004 BKN065 OVC085 13/11 A2993 RMK AO2 RAE04 P0000 T01330111=
202310022053 METAR KCLM 022053Z AUTO 28005KT 8SM -RA OVC065 13/11 A2994 RMK AO2 RAB22 SLP139 P0000 60000 T01330111 58014=
202310021953 METAR KCLM 021953Z AUTO 09005KT 10SM FEW008 OVC085 15/12 A2996 RMK AO2 SLP146 T01500117=
202310021949 SPECI KCLM 021949Z AUTO 08004KT 10SM FEW008 OVC085 15/12 A2997 RMK AO2=
202310021631 SPECI KCLM 021631Z AUTO 00000KT 10SM -RA BKN010 OVC100 12/11 A3002 RMK AO2 RAB06 P0000 T01220106=
202310021553 METAR KCLM 021553Z AUTO 00000KT 10SM FEW009 BKN100 11/10 A3001 RMK AO2 SLP163 T01110100=
202310021453 METAR KCLM 021453Z AUTO 00000KT 7SM CLR 09/08 A3002 RMK AO2 SLP166 T00940078 55010=
202310021413 SPECI KCLM 021413Z AUTO 00000KT 4SM BR FEW001 09/08 A3001 RMK AO2 T00940078=
202310021410 SPECI KCLM 021410Z AUTO 22003KT 1 1/4SM BR FEW001 09/08 A3002 RMK AO2 T00940078=
202310021406 SPECI KCLM 021406Z AUTO 22003KT 3/4SM BR VV001 09/08 A3001 RMK AO2 VIS 1/2V4 T00890078=
202310021358 SPECI KCLM 021358Z AUTO 00000KT 1SM BR VV001 09/08 A3001 RMK AO2 T00890078=
202310021352 METAR KCLM 021352Z AUTO 00000KT 3/4SM BR FEW001 SCT100 09/08 A3001 RMK AO2 SLP163 T00940078=
202310021351 SPECI KCLM 021351Z AUTO 00000KT 3/4SM BR FEW001 SCT100 09/08 A3001 RMK AO2=
202310021345 SPECI KCLM 021345Z AUTO 00000KT 2SM BR FEW001 FEW100 09/08 A3001 RMK AO2 T00940078=
202310021316 SPECI KCLM 021316Z AUTO 12003KT 10SM SCT015 10/08 A3002 RMK AO2 T01000083=
202310021253 METAR KCLM 021253Z AUTO 17004KT 10SM OVC015 11/09 A3003 RMK AO2 SLP170 T01060089=
202310021215 SPECI KCLM 021215Z AUTO 00000KT 7SM SCT006 OVC017 11/09 A3004 RMK AO2 T01060089=
202310021153 METAR KCLM 021153Z AUTO 00000KT 4SM BR OVC005 11/09 A3005 RMK AO2 SLP176 60002 70002 T01060094 10144 20106 56002=
202310021127 SPECI KCLM 021127Z AUTO 00000KT 10SM BKN004 OVC027 11/09 A3005 RMK AO2 T01060089=
202310021118 SPECI KCLM 021118Z AUTO 32003KT 10SM SCT002 OVC027 11/09 A3005 RMK AO2 T01060089=
202310021106 SPECI KCLM 021106Z AUTO VRB03KT 9SM BKN027 OVC043 11/09 A3005 RMK AO2 T01110089=
202310021053 METAR KCLM 021053Z AUTO 34003KT 8SM SCT025 OVC041 11/09 A3004 RMK AO2 RAE46 SLP173 P0002 T01110089=
202310021023 SPECI KCLM 021023Z AUTO 14005KT 5SM -RA OVC026 11/08 A3005 RMK AO2 P0001 T01110083=
202310021006 SPECI KCLM 021006Z AUTO 03003KT 2 1/2SM -RA FEW017 OVC029 12/08 A3006 RMK AO2 P0001 T01170078=
202310020953 METAR KCLM 020953Z AUTO 00000KT 8SM -RA OVC031 13/07 A3006 RMK AO2 RAB41 SLP178 P0000 T01280072=
202310020853 METAR KCLM 020853Z AUTO 00000KT 10SM OVC042 14/07 A3008 RMK AO2 SLP186 T01390067 55001=
202310020753 METAR KCLM 020753Z AUTO 28007KT 10SM BKN050 BKN060 OVC100 14/07 A3008 RMK AO2 SLP184 T01390072 402000039=
202310020653 METAR KCLM 020653Z AUTO 00000KT 10SM OVC060 14/07 A3008 RMK AO2 SLP186 T01390072=
202310020553 METAR KCLM 020553Z AUTO 23005KT 10SM OVC070 14/07 A3008 RMK AO2 SLP186 T01390072 10178 20117 50003=
202310020453 METAR KCLM 020453Z AUTO 28011KT 10SM CLR 13/07 A3009 RMK AO2 SLP188 T01280072=
202310020353 METAR KCLM 020353Z AUTO 27010KT 10SM CLR 13/07 A3009 RMK AO2 SLP192 T01280072=
202310020253 METAR KCLM 020253Z AUTO 29003KT 10SM CLR 12/06 A3007 RMK AO2 SLP184 T01170061 58006=
202310020153 METAR KCLM 020153Z AUTO 23003KT 10SM CLR 14/06 A3008 RMK AO2 SLP187 T01440056=
202310020053 METAR KCLM 020053Z AUTO 31004KT 10SM CLR 17/06 A3008 RMK AO2 SLP188 T01670061=
202310012353 METAR KCLM 012353Z AUTO 32003KT 10SM CLR 18/06 A3009 RMK AO2 SLP190 T01830056 10200 20156 56009=
202310012253 METAR KCLM 012253Z AUTO VRB04KT 10SM CLR 18/06 A3009 RMK AO2 SLP191 T01780061=
202310012153 METAR KCLM 012153Z AUTO 09003KT 10SM CLR 19/07 A3010 RMK AO2 SLP193 T01890067=
202310012053 METAR KCLM 012053Z AUTO VRB03KT 10SM CLR 17/06 A3012 RMK AO2 SLP199 T01720061 58014=
202310011953 METAR KCLM 011953Z AUTO 08005KT 10SM CLR 17/06 A3013 RMK AO2 SLP205 T01670061=
202310011853 METAR KCLM 011853Z AUTO 07007KT 10SM CLR 17/07 A3015 RMK AO2 SLP209 T01670067=
202310011753 METAR KCLM 011753Z AUTO 09007KT 10SM CLR 16/07 A3016 RMK AO2 SLP213 T01610067 10161 20039 58001=
202310011653 METAR KCLM 011653Z AUTO 09008KT 10SM CLR 16/07 A3016 RMK AO2 SLP215 T01560067=
202310011553 METAR KCLM 011553Z AUTO 20004KT 10SM CLR 12/06 A3016 RMK AO2 SLP213 T01170056=
202310011453 METAR KCLM 011453Z AUTO 00000KT 10SM CLR 06/03 A3016 RMK AO2 SLP214 T00560033 53004=
202310011353 METAR KCLM 011353Z AUTO 00000KT 10SM CLR 06/03 A3015 RMK AO2 SLP212 T00610028=
202310011253 METAR KCLM 011253Z AUTO 00000KT 10SM CLR 04/02 A3015 RMK AO2 SLP210 T00440022=
202310011153 METAR KCLM 011153Z AUTO 00000KT 10SM CLR 06/03 A3015 RMK AO2 SLP210 T00560028 10089 20044 50003=
202310011053 METAR KCLM 011053Z AUTO 20004KT 10SM CLR 06/03 A3015 RMK AO2 SLP211 T00560028=
202310010953 METAR KCLM 010953Z AUTO 21004KT 10SM CLR 06/03 A3015 RMK AO2 SLP210 T00610033=
202310010853 METAR KCLM 010853Z AUTO 00000KT 10SM CLR 07/03 A3014 RMK AO2 SLP207 T00670028 52006=
202310010753 METAR KCLM 010753Z AUTO 00000KT 10SM CLR 07/03 A3014 RMK AO2 SLP206 T00670033 401830044=
202310010653 METAR KCLM 010653Z AUTO 00000KT 10SM CLR 06/03 A3013 RMK AO2 SLP203 T00610033=
202310010553 METAR KCLM 010553Z AUTO 22005KT 10SM CLR 07/04 A3012 RMK AO2 SLP201 T00720044 10178 20061 51012=
202310010453 METAR KCLM 010453Z AUTO 23003KT 10SM CLR 08/04 A3011 RMK AO2 SLP198 T00830044=
202310010353 METAR KCLM 010353Z AUTO 00000KT 10SM CLR 08/05 A3010 RMK AO2 SLP192 T00780050=
202310010253 METAR KCLM 010253Z AUTO 24004KT 10SM CLR 11/06 A3009 RMK AO2 SLP189 T01060061 53006=
202310010153 METAR KCLM 010153Z AUTO 00000KT 10SM CLR 14/06 A3008 RMK AO2 SLP186 T01390056=
202310010053 METAR KCLM 010053Z AUTO 08004KT 10SM CLR 17/06 A3007 RMK AO2 SLP184 T01670056=

# No short TAF reports from KCLM in databse.

###################################
#  large TAF from KCLM
###################################
202310312326 TAF KCLM 312326Z 0100/0124 VRB03KT P6SM BKN180 FM010200 VRB02KT
                       P6SM SCT180 FM010900 07006KT P6SM BKN180
                       FM012300 09003KT P6SM -RA OVC050=
202310311745 TAF KCLM 311745Z 3118/0118 VRB02KT P6SM SKC FM312000 08004KT P6SM
                       SCT180 FM010200 VRB02KT P6SM SCT180 FM010900
                       07006KT P6SM BKN180=
202310311136 TAF KCLM 311136Z 3112/0112 VRB02KT P6SM SKC FM311800 08004KT P6SM
                       SCT250 FM010200 VRB02KT P6SM SCT250=
202310310524 TAF KCLM 310524Z 3106/0106 00000KT P6SM SKC FM311200 VRB02KT P6SM
                       SKC FM311800 08004KT P6SM FEW250=
202310302337 TAF KCLM 302337Z 3100/3124 09005KT P6SM SKC FM310400 14003KT P6SM
                       SKC FM311200 VRB02KT P6SM SKC FM311800 08004KT
                       P6SM FEW250=
202310301720 TAF KCLM 301720Z 3018/3118 08003KT P6SM SKC FM302200 36005KT P6SM
                       SKC FM310000 VRB03KT P6SM SKC FM311600 VRB02KT
                       P6SM SKC=
202310301127 TAF KCLM 301127Z 3012/3112 00000KT P6SM BKN013
                      TEMPO 3014/3017 SCT013 FM301700 08006KT P6SM
                       FEW015 FM310000 VRB03KT P6SM SKC=
202310300521 TAF KCLM 300521Z 3006/3106 VRB03KT P6SM SKC FM301200 00000KT P6SM
                       SCT100 FM301800 08006KT P6SM SKC=
202310292320 TAF KCLM 292320Z 3000/3024 08007KT P6SM SKC FM300300 00000KT P6SM
                       SKC FM301200 VRB03KT P6SM SKC=
202310291720 TAF KCLM 291720Z 2918/3018 VRB03KT P6SM FEW015 FM292000 08005KT
                       P6SM SKC FM300000 00000KT P6SM SKC=
202310291123 TAF KCLM 291123Z 2912/3012 VRB03KT P6SM SKC=
202310290525 TAF KCLM 290525Z 2906/3006 VRB03KT P6SM SKC FM291200 00000KT P6SM
                       SKC=
202310282320 TAF KCLM 282320Z 2900/2924 08005KT P6SM SKC FM290600 VRB03KT P6SM
                       SKC FM291200 00000KT P6SM SKC=
202310281721 TAF KCLM 281721Z 2818/2918 24004KT P6SM SKC FM282000 07005KT P6SM
                       SKC FM290100 VRB03KT P6SM SKC=
202310281122 TAF KCLM 281122Z 2812/2912 23006KT P6SM SKC FM281800 08006KT P6SM
                       SKC FM290100 VRB03KT P6SM SKC=
202310280520 TAF KCLM 280520Z 2806/2906 VRB03KT P6SM SKC FM281200 23005KT P6SM
                       SKC FM281800 08005KT P6SM SKC FM290100 VRB03KT
                       P6SM SKC=
202310272320 TAF KCLM 272320Z 2800/2824 VRB03KT P6SM SKC FM280600 VRB03KT P6SM
                       SKC FM281200 23005KT P6SM SKC=
202310271720 TAF KCLM 271720Z 2718/2818 VRB03KT P6SM SKC FM272300 10006KT P6SM
                       SKC FM280600 VRB03KT P6SM SKC=
202310271133 TAF KCLM 271133Z 2712/2812 VRB03KT P6SM SKC FM272300 24006KT P6SM
                       SKC FM280600 VRB03KT P6SM SKC=
202310270540 TAF KCLM 270540Z 2706/2806 00000KT P6SM SKC FM272300 24006KT P6SM
                       SKC=
202310262323 TAF KCLM 262323Z 2700/2724 04005KT P6SM BKN050 FM270300 12003KT
                       P6SM SKC FM270800 22005KT P6SM SKC FM271300
                       20008KT P6SM SKC=
202310261720 TAF KCLM 261720Z 2618/2718 23004KT P6SM FEW200 FM261900 04005KT
                       P6SM SKC FM270200 12004KT P6SM SKC FM270800
                       VRB04KT P6SM SKC FM271300 21005KT P6SM SKC=
202310261132 TAF KCLM 261132Z 2612/2712 23007KT P6SM FEW200 FM261900 04005KT
                       P6SM SKC FM270200 12004KT P6SM SKC FM270600
                       VRB04KT P6SM SKC=
202310260524 TAF KCLM 260524Z 2606/2706 23006KT P6SM SKC FM261000 22003KT 6SM
                       BR BKN020 FM261900 09005KT P6SM SKC FM270200
                       18003KT P6SM SKC=
202310252320 TAF KCLM 252320Z 2600/2624 VRB05KT P6SM SCT040 FM260300 23004KT
                       P6SM SKC FM261000 22003KT 6SM BR BKN020
                       FM261600 24005KT P6SM SKC=
202310251724 TAF KCLM 251724Z 2518/2618 06008G21KT P6SM OVC035 FM252200 VRB05KT
                       P6SM SCT030 BKN070 FM260300 23004KT P6SM
                       SCT070 BKN200 FM261000 22003KT 6SM BR BKN020=
202310251134 TAF KCLM 251134Z 2512/2612 22005KT 6SM BR VCSH OVC015 FM251700
                       06006KT P6SM SCT015 OVC030 FM252200 08005KT
                       P6SM SCT030 BKN070 FM260200 23004KT P6SM
                       SCT070 BKN200=
202310250537 TAF KCLM 250537Z 2506/2606 28005KT P6SM VCSH OVC040 FM250900 23005KT
                       6SM BR VCSH OVC015 FM251700 10006KT P6SM
                       SCT015 OVC030 FM252200 12005KT P6SM SCT030
                       BKN070 FM260200 23004KT P6SM SCT070 BKN200=
202310242324 TAF KCLM 242324Z 2500/2524 28005KT 5SM -RA BR OVC020 FM250300 06006KT
                       6SM -RA BR OVC015 FM250700 06008KT P6SM
                       VCSH OVC030 FM251300 VRB05KT P6SM OVC050=
202310241729 TAF KCLM 241729Z 2418/2518 VRB03KT P6SM -RA OVC050 FM242300 06004KT
                       5SM -RA BR OVC025 FM250300 06005KT 6SM -RA
                       BR OVC015 FM250700 06007KT P6SM VCSH OVC050=
202310241135 TAF KCLM 241135Z 2412/2512 25006KT P6SM FEW060 BKN150 FM241400
                       22003KT P6SM -RA OVC050 FM241900 02003KT
                       5SM -RA OVC025 FM242300 06004KT 5SM -RA
                       BR OVC015 FM250300 06005KT 6SM -RA BR OVC020
                       FM250600 06007KT 6SM -RA OVC050=
202310240522 TAF KCLM 240522Z 2406/2506 25006KT P6SM OVC050 FM241400 22003KT
                       P6SM -RA OVC050 FM241900 02003KT P6SM -RA
                       OVC025 FM242300 VRB03KT 5SM -RA BR OVC015
                       FM250300 12003KT 6SM -RA BR OVC020=
202310232330 TAF KCLM 232330Z 2400/2424 29012G20KT P6SM BKN040 BKN080 FM240600
                       25010G18KT P6SM OVC050 FM241600 22003KT
                       P6SM -RA OVC050 FM241900 02003KT P6SM -RA
                       OVC025=
202310231743 TAF KCLM 231743Z 2318/2418 29012G20KT P6SM BKN040 BKN080 FM240600
                       25010G18KT P6SM OVC050 FM241700 22003KT
                       P6SM -RA OVC050=
202310231133 TAF KCLM 231133Z 2312/2412 VRB03KT P6SM OVC035 FM231500 28010KT
                       P6SM OVC030 FM231800 29012G20KT P6SM BKN040
                       BKN080 FM240600 25010G18KT P6SM VCSH OVC050=
202310230530 TAF KCLM 230530Z 2306/2406 VRB04KT P6SM SCT015 BKN025 FM230900
                       26006KT P6SM OVC035 FM231500 28010KT P6SM
                       OVC030 FM231800 29012G20KT P6SM BKN040 BKN080=
202310222336 TAF KCLM 222336Z 2300/2324 VRB03KT P6SM FEW030 FM230400 24004KT
                       P6SM SCT200 FM230900 26006KT P6SM BKN035
                       FM231500 28010KT P6SM OVC030 FM231800 29012G18KT
                       P6SM BKN040 BKN080=
202310221730 TAF KCLM 221730Z 2218/2318 10005KT P6SM BKN100 FM222100 08005KT
                       P6SM SCT090 BKN200 FM222200 26004KT P6SM
                       BKN200 FM230400 24004KT P6SM SCT200 FM230900
                       26006KT P6SM BKN035 FM231500 28010G16KT
                       P6SM OVC030=
202310221134 TAF KCLM 221134Z 2212/2312 10005KT P6SM FEW070 SCT100 BKN120 FM221900
                       08005KT P6SM SCT050 BKN200 FM222200 26004KT
                       P6SM BKN200 FM230900 26006KT P6SM BKN045=
202310220526 TAF KCLM 220526Z 2206/2306 VRB03KT P6SM BKN100 OVC200 FM220700
                       24003KT P6SM FEW025 OVC090 FM221200 24004KT
                       P6SM SCT015 BKN050 FM221900 34005KT P6SM
                       SCT050 BKN200 FM222200 VRB04KT P6SM BKN200=
202310212332 TAF KCLM 212332Z 2200/2224 11006KT P6SM SCT030 BKN100 FM220200
                       VRB03KT P6SM BKN100 OVC200 FM220700 24003KT
                       P6SM FEW025 OVC090 FM221200 24004KT P6SM
                       SCT015 BKN050 FM221900 34005KT P6SM SCT050
                       BKN200=
202310211729 TAF KCLM 211729Z 2118/2218 09006KT P6SM SCT030 BKN200 FM220200
                       VRB03KT P6SM BKN100 OVC200 FM220700 24003KT
                       P6SM FEW007 OVC090=
202310211124 TAF KCLM 211124Z 2112/2212 17004KT P6SM FEW008 FM211800 04006KT
                       P6SM FEW010 BKN200 FM220700 24003KT P6SM
                       SCT010=
202310210801 KCLM 210801Z 2108/2206 VRB03KT P6SM BKN200 FM211200 23004KT P6SM
                       BKN008 FM211800 06006KT P6SM SCT010 BKN200=
202310210520 TAF KCLM 210520Z 2106/2206 VRB03KT P6SM BKN200 FM210900 23004KT
                       P6SM BKN008 FM211800 06006KT P6SM SCT010
                       BKN200=
202310202326 TAF KCLM 202326Z 2100/2124 09006KT P6SM BKN200 FM210200 VRB03KT
                       P6SM BKN200 FM210900 23004KT P6SM BKN008
                       FM211800 06006KT P6SM SCT010 BKN200=
202310201959 KCLM 201959Z 2020/2118 06005KT P6SM SCT025 BKN200 FM210000 VRB05KT
                       P6SM SCT040 BKN200 FM210400 25004KT P6SM
                       SCT050 BKN200 FM210900 23004KT P6SM BKN008=
202310201720 TAF KCLM 201720Z 2018/2118 VRB03KT P6SM SCT008
                      TEMPO 2018/2020 BKN008 FM202000 06005KT P6SM
                       SCT012 BKN040 FM210000 VRB05KT P6SM SCT040
                       BKN200 FM210400 25004KT P6SM SCT050 BKN200
                       FM210900 23004KT P6SM BKN008=
202310201120 TAF KCLM 201120Z 2012/2112 25007KT P6SM FEW006 OVC040 FM201400
                       25005KT 6SM BR OVC003 FM201900 06006KT P6SM
                       BKN015 BKN035 FM210000 VRB03KT P6SM SCT040
                       BKN250=
202310200520 TAF KCLM 200520Z 2006/2106 26005KT 1 1/2SM BR OVC002 FM201000 25007KT
                       2SM BR OVC005 FM201900 06006KT P6SM BKN015
                       BKN035 FM210000 VRB03KT P6SM SCT040 BKN250=
202310200336 KCLM 200336Z 2004/2024 26005KT 1 1/2SM BR OVC002 FM201000 25007KT
                       2SM BR OVC005 FM201900 32006KT P6SM BKN015
                       BKN035=
202310200215 KCLM 200215Z 2002/2024 26005KT P6SM OVC010 FM201000 25007KT 6SM
                       BR OVC003 FM201900 32006KT P6SM BKN015 BKN035=
202310192324 TAF KCLM 192324Z 2000/2024 VRB03KT P6SM OVC022 FM200500 26005KT
                       P6SM OVC015 FM201000 25007KT 6SM BR OVC010
                       FM201900 32006KT P6SM BKN015 BKN035=
202310192103 KCLM 192103Z 1921/2018 VRB03KT P6SM BKN025 OVC040 FM192200 27005KT
                       6SM BR VCSH OVC022 FM200500 26004KT 6SM
                       BR OVC015 FM201000 25007KT 6SM BR OVC011=
202310191735 TAF KCLM 191735Z 1918/2018 VRB03KT P6SM OVC040 FM192200 27005KT
                       6SM BR VCSH OVC025 FM200500 26004KT 6SM
                       BR OVC015 FM201000 25007KT 6SM BR OVC011=
202310191120 TAF KCLM 191120Z 1912/2012 VRB03KT P6SM SKC
                      TEMPO 1912/1914 2SM BR SCT002 FM191500 00000KT
                       5SM BR SCT010 OVC050 FM191800 30004KT P6SM
                       OVC035 FM200000 27005KT 5SM BR OVC015=
202310190903 KCLM 190903Z 1909/2006 VRB03KT 3SM BR FEW002 FM191200 VRB03KT 5SM
                       BR SCT007 OVC015 FM191800 30004KT P6SM OVC020
                       FM200000 27005KT 5SM BR OVC015=
202310190523 TAF KCLM 190523Z 1906/2006 VRB03KT 5SM BR SCT005 OVC050 FM191200
                       VRB03KT 5SM BR SCT007 OVC015 FM191800 30004KT
                       P6SM OVC020 FM200000 27005KT 5SM BR OVC015=
202310182330 TAF KCLM 182330Z 1900/1924 VRB03KT P6SM SCT050 FM190500 VRB03KT
                       5SM BR SCT005 OVC050 FM191200 VRB02KT 5SM
                       BR SCT007 OVC015 FM191800 30003KT P6SM OVC015=
202310181859 KCLM 181859Z 1819/1918 VRB03KT P6SM BKN050 FM190500 VRB03KT 5SM
                       BR SCT005 OVC050 FM191200 VRB02KT 5SM BR
                       SCT007 OVC015=
202310181723 TAF KCLM 181723Z 1818/1918 VRB03KT P6SM SCT007 BKN050
                      TEMPO 1818/1820 BKN005 FM182000 05004KT P6SM
                       FEW007 BKN050 FM190500 VRB03KT 5SM BR SCT005
                       OVC050 FM191200 VRB02KT 5SM BR SCT007 OVC015=
202310181637 KCLM 181637Z 1817/1912 VRB03KT 5SM BR SCT007 BKN050
                      TEMPO 1817/1820 BKN005 FM182000 07004KT P6SM
                       BKN050 FM190100 VRB03KT 5SM BR OVC050=
202310181120 TAF KCLM 181120Z 1812/1912 00000KT 6SM BR OVC005 FM181500 VRB03KT
                       5SM BR SCT007 BKN050 FM181900 07004KT P6SM
                       BKN050 FM190100 VRB03KT 5SM BR OVC050=
202310180539 KCLM 180539Z 1806/1906 VRB03KT P6SM SCT005 BKN100
                      TEMPO 1806/1810 1SM BR OVC002 FM181000 10003KT
                       4SM BR OVC007 FM181500 VRB03KT P6SM SCT007
                       BKN050 FM181900 07004KT P6SM BKN050 FM190100
                       VRB03KT P6SM OVC050=
202310180521 TAF KCLM 180521Z 1806/1906 VRB03KT P6SM OVC002
                      TEMPO 1806/1810 1SM BR FM181000 10003KT 4SM
                       BR OVC007 FM181500 VRB03KT P6SM SCT007 BKN050
                       FM181900 07004KT P6SM BKN050 FM190100 VRB03KT
                       P6SM OVC050=
202310180139 KCLM 180139Z 1802/1824 11005KT P6SM -RA FEW007 OVC070
                      TEMPO 1802/1805 3SM -RA BR BKN003 FM180500
                       VRB03KT P6SM FEW007 BKN050 OVC150 FM181500
                       VRB03KT P6SM SCT007 BKN120=
202310172330 TAF KCLM 172330Z 1800/1824 11005KT P6SM -RA FEW007 OVC070 FM180500
                       VRB03KT P6SM FEW007 BKN050 OVC150 FM181500
                       VRB03KT P6SM SCT007 BKN120=
202310171955 KCLM 171955Z 1720/1818 VRB03KT P6SM -RA SCT035 OVC050
                      TEMPO 1720/1723 BKN006 FM172300 VRB04KT P6SM
                       VCSH FEW020 OVC070 FM180500 VRB03KT P6SM
                       BKN050 OVC150 FM181500 12003KT P6SM OVC050=
202310171720 TAF KCLM 171720Z 1718/1818 08004KT 5SM -RA BR SCT035 OVC050 FM172100
                       VRB04KT P6SM VCSH FEW020 OVC070 FM180500
                       VRB03KT P6SM BKN050 OVC150 FM181500 12003KT
                       P6SM OVC050=
202310171120 TAF KCLM 171120Z 1712/1812 23004KT P6SM OVC040 FM171800 09004KT
                       5SM -RA BR OVC030 FM180200 15004KT P6SM
                       BKN100=
202310171015 KCLM 171015Z 1710/1806 24008KT 4SM BR SCT080 FM171100 VRB03KT P6SM
                       OVC040 FM171800 05003KT P6SM VCSH OVC040
                       FM172200 01004KT 5SM -RA BR OVC030 FM180200
                       25004KT P6SM VCSH OVC030=
202310170528 TAF KCLM 170528Z 1706/1806 24008KT P6SM SCT080 FM171100 VRB03KT
                       P6SM OVC040 FM171800 05003KT P6SM VCSH OVC040
                       FM172200 01004KT 5SM -RA BR OVC030 FM180200
                       25004KT P6SM VCSH OVC030=
202310162332 TAF KCLM 162332Z 1700/1724 27011KT P6SM -SHRA SCT040 BKN050 FM170200
                       26008KT P6SM VCSH SCT050 SCT070 FM170800
                       15003KT P6SM SCT050 FM171100 VRB03KT P6SM
                       OVC050=
202310161737 TAF KCLM 161737Z 1618/1718 33005KT P6SM -SHRA BKN035 OVC050 FM162200
                       27011KT P6SM -SHRA BKN050 FM170200 27008KT
                       P6SM VCSH SCT050 FM171100 VRB03KT P6SM OVC050=
202310161121 TAF KCLM 161121Z 1612/1712 19003KT P6SM -RA OVC005 FM161500 18004KT
                       5SM -RA BR OVC010 FM161800 26007KT 4SM -RA
                       OVC025 FM162100 27006KT P6SM -SHRA BKN050
                       FM170000 28010KT P6SM VCSH BKN050 FM170900
                       24005KT P6SM OVC035=
202310160906 KCLM 160906Z 1609/1706 00000KT 6SM BR OVC009
                      TEMPO 1609/1612 2SM BR BKN005 FM161200 13004KT
                       P6SM -RA OVC070 FM161500 18004KT 6SM -RA
                       BR OVC050 FM161800 26007KT 4SM -RA OVC025
                       FM162100 27006KT P6SM -SHRA BKN050 FM170000
                       28010KT P6SM VCSH BKN050=
202310160732 KCLM 160732Z 1608/1706 00000KT 6SM BR SCT007 BKN120 OVC150
                      TEMPO 1607/1610 2SM BR BKN007 FM161200 13004KT
                       P6SM -RA OVC070 FM161500 18004KT 6SM -RA
                       BR OVC050 FM161800 26007KT 4SM -RA OVC025
                       FM162100 27006KT P6SM -SHRA BKN050 FM170000
                       28010KT P6SM VCSH BKN050=
202310160522 TAF KCLM 160522Z 1606/1706 00000KT 2SM BR SCT007 BKN120 OVC150
                       TEMPO 1606/1610 1SM BR BKN007 FM161200 13004KT
                       P6SM -RA OVC070 FM161500 18004KT 6SM -RA
                       BR OVC050 FM161800 26007KT 4SM -RA OVC025
                       FM162100 27006KT P6SM -SHRA BKN050 FM170000
                       28010KT P6SM VCSH BKN050=
202310152320 TAF KCLM 152320Z 1600/1624 08003KT P6SM -RA OVC080 FM160300 14003KT
                       P6SM -SHRA OVC070 FM160900 13004KT P6SM
                       OVC070 FM161400 18004KT 6SM -RA BR OVC050
                       FM161900 28007KT 6SM -RA OVC035=
202310151724 TAF KCLM 151724Z 1518/1618 08003KT P6SM OVC100 FM160300 14003KT
                       P6SM -SHRA OVC100 FM160900 13004KT P6SM
                       OVC070 FM161400 18004KT 6SM -RA BR OVC050=
202310151120 TAF KCLM 151120Z 1512/1612 VRB04KT P6SM VCSH OVC070 FM151800 08003KT
                       P6SM OVC100 FM160300 14003KT P6SM OVC100=
202310150523 TAF KCLM 150523Z 1506/1606 00000KT P6SM VCSH FEW070 SCT090 FM151200
                       VRB04KT P6SM OVC050 FM151800 08003KT P6SM
                       OVC100=
202310142320 TAF KCLM 142320Z 1500/1524 14003KT P6SM -SHRA OVC060 FM150300 23003KT
                       P6SM -SHRA OVC040 FM151200 25004KT P6SM
                       OVC050 FM151800 08003KT P6SM OVC100=
202310141858 KCLM 141858Z 1419/1518 15002KT P6SM OVC050
                      TEMPO 1419/1420 1/4SM FG VV001 FM142200 14003KT
                       P6SM -SHRA OVC050 FM150400 23003KT P6SM
                       OVC040 FM151200 25004KT P6SM OVC050=
202310141722 TAF KCLM 141722Z 1418/1518 15002KT P6SM OVC050
                      TEMPO 1418/1419 1/2SM FG OVC002 FM142200
                       14003KT P6SM -SHRA OVC050 FM150400 23003KT
                       P6SM OVC040 FM151200 25004KT P6SM OVC050=
202310141130 TAF KCLM 141130Z 1412/1512 23003KT P6SM OVC045 FM141800 15002KT
                       P6SM OVC050 FM150000 14003KT P6SM SHRA OVC050=
202310140528 TAF KCLM 140528Z 1406/1506 28006KT P6SM VCSH SCT050 BKN110 FM141200
                       23003KT P6SM OVC050 FM141800 12004KT P6SM
                       OVC050 FM150000 14003KT P6SM VCSH OVC050=
202310132322 TAF KCLM 132322Z 1400/1424 VRB05KT P6SM BKN250 FM140300 24004KT
                       P6SM -SHRA OVC070 FM140600 22002KT P6SM
                       -SHRA OVC050 FM141200 23003KT P6SM OVC050
                       FM141700 06004KT P6SM OVC050=
202310131722 TAF KCLM 131722Z 1318/1418 25007KT P6SM SCT250 FM132000 VRB05KT
                       P6SM BKN250 FM140300 24004KT P6SM OVC070
                       FM140600 22002KT P6SM -RA OVC045 FM141000
                       23003KT P6SM OVC050=
202310131340 KCLM 131340Z 1314/1412 VRB03KT 5SM BR OVC003 FM131700 09004KT P6SM
                       SCT020 SCT250 FM132000 11005KT P6SM BKN250
                       FM140300 24004KT P6SM OVC100 FM140600 22002KT
                       P6SM -RA OVC045=
202310131309 KCLM 131309Z 1313/1412 VRB03KT 2SM BR OVC003 FM131700 09004KT P6SM
                       SCT020 SCT250 FM132000 11005KT P6SM BKN250
                       FM140300 24004KT P6SM OVC100 FM140600 22002KT
                       P6SM -RA OVC045=
202310131120 TAF KCLM 131120Z 1312/1412 VRB03KT 3SM BR OVC003 FM131700 09004KT
                       P6SM SCT020 SCT250 FM132000 11005KT P6SM
                       BKN250 FM140300 24004KT P6SM OVC100 FM140600
                       22002KT P6SM -RA OVC045=
202310131031 KCLM 131031Z 1311/1406 VRB03KT 2SM BR OVC006
                      TEMPO 1311/1312 OVC003 FM131700 09004KT P6SM
                       SCT020 SCT250 FM132000 11005KT P6SM BKN250
                       FM140300 24004KT P6SM OVC100=
202310130921 KCLM 130921Z 1309/1406 VRB03KT 2SM BR OVC006 FM131700 09004KT P6SM
                       SCT020 SCT250 FM132000 11005KT P6SM BKN250
                       FM140300 24004KT P6SM OVC100=
202310130857 KCLM 130857Z 1309/1406 00000KT 1 1/2SM BR SCT012
                      TEMPO 1309/1310 VV006 FM131000 VRB03KT 1SM
                       BR OVC006 FM131700 09004KT P6SM SCT020 SCT250
                       FM132000 11005KT P6SM BKN250 FM140300 24004KT
                       P6SM OVC100=
202310130523 TAF KCLM 130523Z 1306/1406 00000KT 1 1/2SM BR SCT012
                      TEMPO 1306/1310 BKN012 FM131000 VRB03KT 1SM
                       BR OVC006 FM131700 09004KT P6SM SCT020 SCT250
                       FM132000 11005KT P6SM BKN250 FM140300 24004KT
                       P6SM OVC100=
202310130222 KCLM 130222Z 1302/1324 22003KT P6SM OVC012 FM130500 22004KT P6SM
                       OVC008 FM131700 06003KT P6SM SCT250=
202310122321 TAF KCLM 122321Z 1300/1324 07003KT P6SM OVC005 FM130100 16003KT
                       P6SM SKC FM130500 VRB03KT P6SM SKC FM131200
                       14003KT P6SM SCT250 FM131700 06003KT P6SM
                       SCT250=
202310121732 TAF KCLM 121732Z 1218/1318 08005KT 1/4SM FG VV002 FM121900 07003KT
                       P6SM SKC FM130400 VRB03KT P6SM SKC FM131200
                       14003KT P6SM SCT250=
202310121348 KCLM 121348Z 1214/1312 VRB02KT P6SM FEW005 FM121800 08005KT P6SM
                       SKC FM130400 VRB03KT P6SM SKC=
202310121132 TAF KCLM 121132Z 1212/1312 VRB02KT 6SM BR SCT005
                      TEMPO 1212/1216 2SM BR BKN004 FM121800 08005KT
                       P6SM SKC FM130400 VRB03KT P6SM SKC=
202310120529 TAF KCLM 120529Z 1206/1306 VRB02KT P6SM SKC FM121100 VRB02KT 5SM
                       BR SCT004 FM121800 07005KT P6SM SKC=
202310112336 TAF KCLM 112336Z 1200/1224 00000KT P6SM SCT035 FM120300 22003KT
                       P6SM SKC FM121800 07005KT P6SM FEW150=
202310111743 TAF KCLM 111743Z 1118/1218 11005KT P6SM SCT012 OVC020 FM112300
                       08005KT P6SM SKC FM120600 22003KT P6SM SKC=
202310111134 TAF KCLM 111134Z 1112/1212 11004KT P6SM BKN006 OVC015 FM111400
                       11004KT P6SM SCT006 BKN015 FM111600 VRB03KT
                       P6SM SCT012 BKN022 FM111800 VRB03KT P6SM
                       SCT040 BKN100 FM112300 25006KT P6SM SKC=
202310110533 TAF KCLM 110533Z 1106/1206 VRB05KT P6SM -SHRA BKN050 OVC070 FM111700
                       35005KT P6SM -SHRA BKN020 OVC025 FM112300
                       VRB03KT P6SM SCT250=
202310102340 TAF KCLM 102340Z 1100/1124 VRB04KT P6SM VCSH BKN060 OVC080 FM110100
                       25003KT P6SM VCSH SCT020 BKN035 OVC050 FM110400
                       VRB04KT P6SM -SHRA SCT020 OVC035 FM112100
                       20005KT P6SM -SHRA OVC035 FM112300 22004KT
                       P6SM OVC050=
202310101739 TAF KCLM 101739Z 1018/1118 12003KT P6SM -RA BKN070 OVC080 FM101900
                       05003KT P6SM -RA OVC050 FM102100 12006KT
                       P6SM VCSH SCT020 BKN035 OVC050 FM110400
                       26006KT P6SM -SHRA SCT020 OVC035 FM111200
                       22003KT P6SM -SHRA OVC035=
202310101504 KCLM 101504Z 1015/1112 VRB03KT 1SM -RA BR OVC002 FM101900 35003KT
                       P6SM -RA OVC050 FM102100 12006KT P6SM VCSH
                       SCT020 BKN035 OVC050 FM110400 26006KT P6SM
                       -SHRA SCT020 OVC035=
202310101125 TAF KCLM 101125Z 1012/1112 VRB03KT P6SM -RA OVC050 FM102100 12006KT
                       P6SM VCSH SCT020 BKN035 OVC050 FM110400
                       26006KT P6SM -SHRA SCT020 OVC035=
202310100520 TAF KCLM 100520Z 1006/1106 VRB03KT P6SM BKN035 OVC070 FM101200
                       12003KT P6SM -RA SCT015 OVC035 FM101500
                       12007KT P6SM VCSH SCT020 BKN035 OVC050=
202310100020 KCLM 100020Z 1000/1024 27006KT P6SM BKN010
                      TEMPO 1000/1002 OVC003 FM100200 27006KT P6SM
                       BKN035 OVC050 FM100600 VRB03KT P6SM SCT045
                       OVC070 FM101000 VRB03KT P6SM -RA SCT020
                       OVC035 FM101500 18002KT P6SM -SHRA SCT020
                       OVC035=
202310092320 TAF KCLM 092320Z 1000/1024 25006KT P6SM FEW015 BKN025 FM100130
                       27006KT P6SM OVC050 FM100600 VRB03KT P6SM
                       SCT045 OVC070 FM101000 VRB03KT P6SM -RA
                       SCT020 OVC035 FM101500 18002KT P6SM -SHRA
                       SCT020 OVC035=
202310091728 TAF KCLM 091728Z 0918/1018 10006KT P6SM VCSH BKN120 OVC200 FM091900
                       10006KT P6SM -RA OVC040 FM092300 25006KT
                       P6SM SCT025 BKN045 OVC070 FM100600 VRB03KT
                       P6SM SCT045 OVC070 FM101000 VRB03KT P6SM
                       -RA SCT020 OVC035=
202310091140 TAF KCLM 091140Z 0912/1012 VRB03KT P6SM SCT120 BKN200 FM091600
                       10006KT P6SM BKN120 OVC200 FM091900 10006KT
                       P6SM -RA OVC040 FM092300 25006KT P6SM SCT025
                       BKN045 OVC070 FM100600 VRB03KT P6SM SCT045
                       OVC070 FM101000 VRB03KT P6SM -RA SCT020
                       OVC035=
202310090521 TAF KCLM 090521Z 0906/1006 22005KT P6SM SCT120 BKN200 FM091200
                       20003KT P6SM VCSH BKN050 OVC100 FM091500
                       24004KT P6SM -RA OVC050 FM092000 30004KT
                       P6SM BKN050=
202310082320 TAF KCLM 082320Z 0900/0924 35003KT P6SM SCT020 FM091100 VRB03KT
                       P6SM BKN060 OVC100 FM091500 24002KT P6SM
                       -RA OVC050 FM092000 30004KT P6SM -RA OVC025=
202310081731 TAF KCLM 081731Z 0818/0918 VRB03KT P6SM OVC017 FM082000 35003KT
                       P6SM SCT020 FM091100 VRB03KT P6SM BKN060
                       OVC100=
202310081136 TAF KCLM 081136Z 0812/0912 25006KT P6SM OVC012 FM081600 VRB03KT
                       P6SM SKC FM091100 VRB03KT P6SM BKN060 OVC100=
202310080520 TAF KCLM 080520Z 0806/0906 24005KT P6SM SKC FM080900 24003KT P6SM
                       SCT008 FM081800 11003KT P6SM BKN250 FM090000
                       25005KT P6SM OVC250=
202310072342 TAF KCLM 072342Z 0800/0824 22004KT P6SM SCT200 FM080900 24003KT
                       P6SM SCT008 FM081800 11003KT P6SM BKN250=
202310071736 TAF KCLM 071736Z 0718/0818 08004KT P6SM SKC FM080000 22004KT P6SM
                       SCT200 FM080900 24003KT P6SM SCT008=
202310071127 TAF KCLM 071127Z 0712/0812 22003KT P6SM SKC FM071700 08004KT P6SM
                       SKC FM080000 22004KT P6SM SCT200 FM080900
                       24003KT P6SM SCT008=
202310070520 TAF KCLM 070520Z 0706/0806 00000KT P6SM SKC FM071700 11004KT P6SM
                       SKC FM080000 22004KT P6SM SKC=
202310062320 TAF KCLM 062320Z 0700/0724 07004KT P6SM SKC FM070300 VRB03KT P6SM
                       SKC FM071700 11004KT P6SM SKC=
202310061720 TAF KCLM 061720Z 0618/0718 08007KT P6SM SKC FM070300 19003KT P6SM
                       SKC FM071700 11004KT P6SM SKC=
202310061120 TAF KCLM 061120Z 0612/0712 VRB03KT P6SM SKC FM061700 08007KT P6SM
                       SKC FM070300 VRB03KT P6SM SKC=
202310060522 TAF KCLM 060522Z 0606/0706 12005KT P6SM SKC FM061400 VRB03KT 6SM
                       BR SCT020 FM061700 08007KT P6SM SKC=
202310052320 TAF KCLM 052320Z 0600/0624 08007KT P6SM SKC FM060400 16003KT P6SM
                       SKC FM061400 VRB03KT 6SM BR SCT020 FM061700
                       09007KT P6SM SKC=
202310051756 KCLM 051756Z 0518/0618 09006KT P6SM SCT030 FM052100 08007KT P6SM
                       SKC FM060400 16003KT P6SM SKC FM061400 VRB03KT
                       6SM BR SCT020 FM061700 09007KT P6SM SKC=
202310051720 TAF KCLM 051720Z 0518/0618 09004KT P6SM OVC029 FM051900 08006KT
                       P6SM SCT030 FM052100 08007KT P6SM SKC FM060400
                       16003KT P6SM SKC FM061400 VRB03KT 6SM BR
                       SCT020 FM061700 09007KT P6SM SKC=
202310051457 KCLM 051457Z 0515/0612 09004KT P6SM SCT004 OVC029 FM051700 08006KT
                       P6SM SCT035 FM052100 08007KT P6SM SKC FM060400
                       VRB03KT P6SM SKC=
202310051124 TAF KCLM 051124Z 0512/0612 00000KT 6SM BR SCT004 BKN030
                      TEMPO 0512/0516 3SM BR BKN004 FM051700 08006KT
                       P6SM SCT035 FM052100 08007KT P6SM SKC FM060400
                       VRB03KT P6SM SKC=
202310050534 TAF KCLM 050534Z 0506/0606 00000KT P6SM OVC009 FM050900 00000KT
                       1/2SM FG OVC003 FM051300 17003KT 1/4SM FG
                       BKN003 FM051900 08006KT P6SM SCT007 FM060000
                       09005KT P6SM SCT015=
202310042320 TAF KCLM 042320Z 0500/0524 33004KT P6SM OVC011 FM050300 VRB03KT
                       4SM BCFG OVC004 FM050900 VRB02KT 1/2SM BCFG
                       OVC003 FM051300 17003KT 1/4SM BCFG BKN003
                       FM051900 08006KT P6SM SCT007=
202310041726 TAF KCLM 041726Z 0418/0518 VRB02KT P6SM OVC010 FM042000 33005KT
                       P6SM SCT030 BKN050 FM050000 33004KT P6SM
                       BKN020 FM050500 VRB03KT 6SM BCFG SCT006
                       FM050900 VRB02KT 1/2SM BCFG OVC003 FM051300
                       17003KT 4SM BCFG BKN003=
202310041142 TAF KCLM 041142Z 0412/0512 VRB03KT P6SM OVC022 FM041800 32003KT
                       P6SM BKN030 FM041900 33005KT P6SM SCT030
                       BKN050 FM050000 VRB04KT P6SM BKN060 FM050900
                       VRB03KT 6SM BCFG SCT006=
202310040535 TAF KCLM 040535Z 0406/0506 25005KT P6SM SCT015 FM041100 24004KT
                       P6SM SCT007 OVC015 FM041400 VRB03KT 4SM
                       BR OVC010 FM041900 28005KT P6SM SCT007 OVC015
                       FM050000 28004KT P6SM OVC050=
202310040328 KCLM 040328Z 0403/0424 32006KT P6SM BKN008 FM040500 26005KT P6SM
                       BKN015 FM041100 24004KT P6SM BKN007 OVC015
                       FM041400 VRB03KT 4SM BR OVC010 FM041900
                       04003KT P6SM SCT007 OVC015=
202310032327 TAF KCLM 032327Z 0400/0424 32006KT P6SM SCT025 FM040500 26005KT
                       P6SM OVC025 FM041100 24004KT P6SM BKN007
                       OVC015 FM041400 VRB03KT 4SM BR OVC010 FM041900
                       04003KT P6SM SCT007 OVC015=
202310031724 TAF KCLM 031724Z 0318/0418 VRB04KT P6SM SCT035 FM032200 32006KT
                       P6SM BKN035 FM040500 26004KT P6SM OVC025
                       FM041100 24004KT P6SM BKN007 FM041400 VRB03KT
                       4SM BR OVC007=
202310031310 KCLM 031310Z 0313/0412 VRB05KT P6SM OVC030 FM031700 34005KT P6SM
                       OVC035 FM032200 32006KT P6SM OVC030 FM040500
                       26004KT P6SM OVC015=
202310031125 TAF KCLM 031125Z 0312/0412 VRB03KT 6SM BR OVC011 FM031700 34005KT
                       P6SM OVC015 FM032200 32006KT P6SM OVC030
                       FM040500 26004KT P6SM OVC015=
202310030524 TAF KCLM 030524Z 0306/0406 VRB02KT 2SM -RA BR OVC002 FM030900 VRB03KT
                       3SM BR OVC004 FM031700 09003KT 6SM BR OVC007
                       FM032100 28006KT P6SM OVC030=
202310022328 TAF KCLM 022328Z 0300/0324 29008KT 6SM BR OVC003 FM030300 29003KT
                       5SM BR OVC005 FM030900 27003KT 3SM BR OVC009
                       FM031300 24004KT 2SM BR OVC005 FM031700
                       09003KT 6SM BR OVC007=
202310021721 TAF KCLM 021721Z 0218/0318 VRB03KT P6SM -RA SCT004 OVC022 FM022200
                       29008KT P6SM BKN015 OVC025 FM030400 29006KT
                       6SM BR BKN015 OVC025 FM030900 27003KT 6SM
                       BR OVC009 FM031300 24004KT 4SM BR OVC005=
202310021131 TAF KCLM 021131Z 0212/0312 VRB03KT P6SM SCT004 OVC022
                      TEMPO 0212/0216 BKN004 OVC022 FM022200 29008KT
                       P6SM SCT025 BKN040 FM030400 29006KT P6SM
                       BKN015 OVC025=
202310020520 TAF KCLM 020520Z 0206/0306 28010KT P6SM OVC100 FM021000 26006KT
                       P6SM BKN025 FM021200 19002KT 5SM -RA OVC025
                       FM021600 VRB02KT P6SM VCSH OVC020 FM022200
                       30006KT P6SM OVC025=
202310012340 TAF KCLM 012340Z 0200/0224 26006KT P6SM SKC FM021000 26006KT P6SM
                       BKN025 FM021200 19002KT P6SM -RA OVC025
                       FM021600 15002KT P6SM VCSH OVC025=
202310011739 TAF KCLM 011739Z 0118/0218 23004KT P6SM SKC FM012300 26006KT P6SM
                       SKC FM021000 26006KT P6SM BKN025 FM021200
                       19002KT P6SM -RA OVC025=
202310011134 TAF KCLM 011134Z 0112/0212 23004KT P6SM SKC FM012300 26006KT P6SM
                       SKC FM020900 26006KT P6SM BKN100=
202310010524 TAF KCLM 010524Z 0106/0206 23003KT P6SM SKC FM011600 VRB02KT P6SM
                       SKC=