##########################################################
# Query made at 02/16/2025 06:04:08 UTC
# Time interval: from 12/01/2023 00:00  to 12/31/2023 23:59  UTC
##########################################################

##########################################################
# KCLM, Port Angeles, William R. Fairchild International Airport (United States)
# WMO index: -----. WIGOS ID: Unknown
# Latitude 48-07-20N. Longitude 123-30-19W. Altitude 87 m.
##########################################################

###################################
#  METAR/SPECI from KCLM
###################################
202312312353 METAR KCLM 312353Z AUTO 00000KT 10SM CLR 07/04 A3019 RMK AO2 SLP224 T00720044 10100 20072 53000=
202312312310 SPECI KCLM 312310Z AUTO 10005KT 10SM SCT009 08/05 A3018 RMK AO2 T00780050=
202312312253 METAR KCLM 312253Z AUTO 09004KT 10SM OVC009 08/05 A3018 RMK AO2 CIG 007V011 SLP222 T00830050=
202312312153 METAR KCLM 312153Z AUTO 08006KT 10SM BKN009 OVC024 09/06 A3019 RMK AO2 CIG 007V013 SLP224 T00890056=
202312312128 SPECI KCLM 312128Z AUTO 09004KT 10SM FEW008 OVC023 09/06 A3019 RMK AO2 T00890056=
202312312053 METAR KCLM 312053Z AUTO 00000KT 10SM BKN023 09/06 A3018 RMK AO2 SLP223 T00940056 58000=
202312312040 SPECI KCLM 312040Z AUTO 00000KT 10SM SCT017 09/05 A3018 RMK AO2 T00890050=
202312312021 METAR KCLM 312021Z AUTO 03003KT 10SM BKN017 10/06 A3019 RMK AO2 T01000056=
202312312021 SPECI KCLM 312021Z AUTO 03003KT 10SM BKN017 10/06 A3019 RMK AO2 T01000056=
202312311953 METAR KCLM 311953Z AUTO 00000KT 10SM SCT018 09/05 A3019 RMK AO2 SLP225 T00940050=
202312311931 SPECI KCLM 311931Z AUTO 25004KT 10SM FEW016 BKN022 09/05 A3019 RMK AO2 T00940050=
202312311853 METAR KCLM 311853Z AUTO 23005KT 10SM CLR 08/04 A3019 RMK AO2 SLP226 T00830039=
202312311753 METAR KCLM 311753Z AUTO 22005KT 10SM FEW027 06/03 A3019 RMK AO2 SLP224 T00610033 10061 20022 53015=
202312311653 METAR KCLM 311653Z AUTO 24006KT 10SM CLR 05/02 A3017 RMK AO2 SLP217 T00500022=
202312311553 METAR KCLM 311553Z AUTO 23007KT 10SM SCT012 04/02 A3016 RMK AO2 SLP214 T00440022=
202312311453 METAR KCLM 311453Z AUTO 22005KT 10SM FEW024 04/03 A3014 RMK AO2 SLP208 T00440028 53005=
202312311446 SPECI KCLM 311446Z AUTO 24003KT 10SM SCT026 SCT044 05/03 A3014 RMK AO2 T00500028=
202312311353 METAR KCLM 311353Z AUTO 23005KT 10SM FEW018 OVC026 06/04 A3014 RMK AO2 SLP208 T00610039=
202312311253 METAR KCLM 311253Z AUTO 23006KT 10SM SCT019 BKN026 05/03 A3013 RMK AO2 SLP203 T00500028=
202312311248 SPECI KCLM 311248Z AUTO 23005KT 10SM FEW017 BKN026 04/02 A3012 RMK AO2=
202312311226 SPECI KCLM 311226Z AUTO 22003KT 5SM BR FEW027 03/02 A3012 RMK AO2 T00330017=
202312311218 SPECI KCLM 311218Z AUTO 21003KT 2 1/2SM BR SCT027 03/01 A3012 RMK AO2 VIS 1 1/2V5 T00280011=
202312311153 METAR KCLM 311153Z AUTO 23005KT 10SM FEW020 BKN027 04/02 A3012 RMK AO2 SLP203 70005 I1000 I6000 T00390022 10072 20022 50006=
202312311150 SPECI KCLM 311150Z AUTO 22004KT 10SM FEW020 BKN027 03/02 A3013 RMK AO2 I1000=
202312311113 SPECI KCLM 311113Z AUTO 00000KT 4SM BR FEW001 04/02 A3012 RMK AO2 I1000 T00440022=
202312311053 METAR KCLM 311053Z AUTO 20005KT 9SM CLR 04/03 A3012 RMK AO2 SLP201 T00440028=
202312311035 SPECI KCLM 311035Z AUTO 22004KT 3SM BR CLR 04/02 A3011 RMK AO2 T00440022=
202312311026 SPECI KCLM 311026Z AUTO 00000KT 1 3/4SM BR CLR 03/01 A3011 RMK AO2 T00280011=
202312311014 SPECI KCLM 311014Z AUTO 23004KT 5SM BR CLR 04/02 A3011 RMK AO2 T00440022=
202312311006 SPECI KCLM 311006Z AUTO 23004KT 2SM BR CLR 03/02 A3011 RMK AO2 VIS 1 1/4V5 T00330017=
202312310953 METAR KCLM 310953Z AUTO 22003KT 5SM BR CLR 04/02 A3011 RMK AO2 SLP197 T00390022=
202312310853 METAR KCLM 310853Z AUTO 22004KT 10SM FEW034 05/04 A3010 RMK AO2 SLP194 T00500039 53004=
202312310756 SPECI KCLM 310756Z AUTO 23004KT 3SM BR FEW011 06/04 A3009 RMK AO2 T00560039=
202312310753 METAR KCLM 310753Z AUTO 22004KT 1 3/4SM BR FEW011 06/04 A3009 RMK AO2 VIS 3/4V5 SLP190 T00560039 401220044=
202312310747 SPECI KCLM 310747Z AUTO 00000KT 1 3/4SM BR FEW011 04/03 A3009 RMK AO2=
202312310742 SPECI KCLM 310742Z AUTO 21003KT 3SM BR FEW011 06/04 A3009 RMK AO2 T00610044=
202312310724 SPECI KCLM 310724Z AUTO 00000KT 1 1/4SM BR FEW001 SCT021 06/04 A3009 RMK AO2 VIS 1/2V5 T00560044=
202312310721 SPECI KCLM 310721Z AUTO 00000KT 2SM BR SCT021 06/04 A3009 RMK AO2 VIS 1V5 T00560044=
202312310653 METAR KCLM 310653Z AUTO 21005KT 10SM FEW013 BKN019 BKN026 07/05 A3009 RMK AO2 SLP190 T00720050=
202312310651 SPECI KCLM 310651Z AUTO 21006KT 10SM FEW013 BKN019 BKN026 07/05 A3009 RMK AO2=
202312310643 SPECI KCLM 310643Z AUTO 24006KT 2 1/2SM BR FEW002 BKN019 06/04 A3009 RMK AO2 T00610044=
202312310628 SPECI KCLM 310628Z AUTO 31003KT 1 1/4SM BR FEW002 07/05 A3008 RMK AO2 VIS 3/4V2 T00670050=
202312310617 SPECI KCLM 310617Z AUTO 00000KT 3/4SM BR VV002 06/04 A3008 RMK AO2 VIS 1/4V5 T00560039=
202312310614 SPECI KCLM 310614Z AUTO 00000KT 1 3/4SM BR FEW002 06/04 A3008 RMK AO2 VIS 1/2V5 T00610044=
202312310603 SPECI KCLM 310603Z AUTO 00000KT 1 1/2SM BR CLR 06/05 A3008 RMK AO2 VIS 3/4V5 T00610050=
202312310553 METAR KCLM 310553Z AUTO 22003KT 9SM CLR 07/06 A3008 RMK AO2 SLP186 60000 T00670056 10106 20061 53020=
202312310453 METAR KCLM 310453Z AUTO 28003KT 10SM CLR 06/04 A3005 RMK AO2 SLP178 T00610044=
202312310353 METAR KCLM 310353Z AUTO 16003KT 10SM FEW012 BKN030 OVC047 09/07 A3004 RMK AO2 SLP172 T00890067=
202312310310 SPECI KCLM 310310Z AUTO 27005KT 10SM SCT009 BKN030 BKN060 09/07 A3002 RMK AO2 T00890067=
202312310253 METAR KCLM 310253Z AUTO 00000KT 10SM SCT009 BKN013 BKN024 09/07 A3001 RMK AO2 SLP165 60000 T00890067 51019=
202312310251 SPECI KCLM 310251Z AUTO 26003KT 10SM BKN009 BKN013 BKN024 09/07 A3001 RMK AO2 CIG 007V012=
202312310241 SPECI KCLM 310241Z AUTO 25003KT 10SM FEW009 SCT012 BKN024 09/07 A3001 RMK AO2 T00940072=
202312310231 SPECI KCLM 310231Z AUTO 22003KT 10SM FEW012 SCT028 09/07 A3001 RMK AO2 T00940067=
202312310200 SPECI KCLM 310200Z AUTO 00000KT 10SM FEW021 BKN028 BKN120 09/07 A3000 RMK AO2 T00940067=
202312310153 METAR KCLM 310153Z AUTO 00000KT 10SM SCT023 SCT028 BKN120 09/07 A3000 RMK AO2 RAE0054 SLP159 P0000 T00940072=
202312310146 SPECI KCLM 310146Z AUTO 00000KT 10SM SCT021 SCT027 BKN120 09/07 A2999 RMK AO2 RAE0054 P0000 T00940072=
202312310133 SPECI KCLM 310133Z AUTO 26005KT 10SM SCT021 BKN027 OVC120 10/07 A2999 RMK AO2 RAE0054 P0000 T01000072=
202312310106 SPECI KCLM 310106Z AUTO 00000KT 10SM FEW023 SCT060 BKN120 10/07 A2998 RMK AO2 RAE0054 P0000 T01000072=
202312310053 METAR KCLM 310053Z AUTO 24003KT 10SM -RA SCT018 BKN027 OVC075 10/07 A2998 RMK AO2 RAB24E37B45 SLP152 P0000 T01000072=
202312310038 SPECI KCLM 310038Z AUTO 23003KT 10SM SCT013 BKN020 OVC026 10/08 A2997 RMK AO2 RAB24E37 P0000 T01000078=
202312310000 SPECI KCLM 310000Z AUTO 28006KT 10SM OVC013 11/08 A2996 RMK AO2 T01060078=
202312302353 METAR KCLM 302353Z AUTO VRB04KT 10SM OVC015 11/08 A2996 RMK AO2 RAE01 SLP145 P0000 60005 T01060078 10122 20089 53009=
202312302253 METAR KCLM 302253Z AUTO 30005KT 10SM -RA OVC015 11/08 A2995 RMK AO2 RAE14B52 SLP142 P0000 T01060083=
202312302241 SPECI KCLM 302241Z AUTO 29007KT 10SM BKN015 OVC050 11/08 A2994 RMK AO2 RAE14 P0000 T01060078=
202312302153 METAR KCLM 302153Z AUTO 28005KT 9SM -RA FEW016 OVC055 11/08 A2994 RMK AO2 RAB14 SLP139 P0003 T01110083=
202312302128 SPECI KCLM 302128Z AUTO 29006KT 4SM -RA BR SCT015 BKN035 OVC060 11/08 A2993 RMK AO2 RAB14 P0001 T01060083=
202312302115 SPECI KCLM 302115Z AUTO 29006KT 8SM -RA SCT009 BKN017 OVC033 11/08 A2993 RMK AO2 RAB14 P0000 T01060083=
202312302053 METAR KCLM 302053Z AUTO 30007KT 10SM OVC009 11/08 A2993 RMK AO2 RAE35 CIG 005V012 SLP137 P0002 60002 T01060083 53008=
202312302027 SPECI KCLM 302027Z AUTO 30007G16KT 270V330 7SM -RA BKN005 OVC011 11/08 A2993 RMK AO2 CIG 003V007 P0002 T01060083=
202312301953 METAR KCLM 301953Z AUTO 30008KT 8SM -RA OVC004 11/09 A2992 RMK AO2 RAE07B47 CIG 002V008 SLP132 P0000 T01060089=
202312301946 SPECI KCLM 301946Z AUTO VRB06KT 10SM BKN004 OVC010 11/09 A2992 RMK AO2 RAE07 CIG 002V008 P0000 T01110089=
202312301939 SPECI KCLM 301939Z AUTO 31008KT 10SM BKN006 BKN010 OVC017 11/09 A2992 RMK AO2 RAE07 CIG 002V008 P0000 T01110089=
202312301931 SPECI KCLM 301931Z AUTO 29006KT 10SM SCT006 BKN010 OVC070 12/09 A2992 RMK AO2 RAE07 P0000 T01170089=
202312301853 METAR KCLM 301853Z AUTO 27004KT 10SM -RA BKN026 OVC060 12/09 A2991 RMK AO2 RAB49 SLP128 P0000 T01170089=
202312301850 SPECI KCLM 301850Z AUTO 27005KT 10SM -RA BKN026 OVC060 12/09 A2991 RMK AO2 RAB49 P0000=
202312301753 METAR KCLM 301753Z AUTO 00000KT 10SM CLR 09/07 A2989 RMK AO2 RAE05 SLP122 P0000 60000 T00890072 10100 20072 53016=
202312301653 METAR KCLM 301653Z AUTO 23004KT 10SM -RA SCT055 BKN070 OVC085 09/07 A2988 RMK AO2 RAB26 SLP118 P0000 T00940072=
202312301553 METAR KCLM 301553Z AUTO 22005KT 10SM FEW060 SCT080 09/07 A2985 RMK AO2 SLP108 T00890067=
202312301453 METAR KCLM 301453Z AUTO 00000KT 10SM FEW048 OVC075 09/07 A2984 RMK AO2 SLP106 T00890067 52015=
202312301353 METAR KCLM 301353Z AUTO 22003KT 10SM OVC075 09/07 A2983 RMK AO2 SLP101 T00890067=
202312301253 METAR KCLM 301253Z AUTO 00000KT 10SM BKN070 08/06 A2981 RMK AO2 SLP095 T00830061=
202312301153 METAR KCLM 301153Z AUTO 10003KT 10SM FEW050 BKN070 BKN110 09/07 A2980 RMK AO2 RAB42E52 SLP091 P0000 60000 T00940067 10111 20089 50013=
202312301053 METAR KCLM 301053Z AUTO 16005KT 10SM CLR 10/07 A2980 RMK AO2 SLP091 T01000067=
202312300953 METAR KCLM 300953Z AUTO 19004KT 10SM BKN075 10/07 A2978 RMK AO2 SLP085 T01000067=
202312300853 METAR KCLM 300853Z AUTO 25009KT 10SM FEW075 SCT090 BKN120 11/07 A2976 RMK AO2 SLP078 T01060067 50004=
202312300753 METAR KCLM 300753Z AUTO VRB03KT 10SM BKN075 09/07 A2976 RMK AO2 SLP078 T00940067 401440067=
202312300653 METAR KCLM 300653Z AUTO 00000KT 10SM BKN080 09/06 A2975 RMK AO2 SLP076 T00940061=
202312300553 METAR KCLM 300553Z AUTO VRB03KT 10SM BKN075 OVC090 11/08 A2975 RMK AO2 SLP074 60000 T01110078 10133 20106 50004=
202312300453 METAR KCLM 300453Z AUTO 10SM FEW075 OVC110 12/07 A2975 RMK AO2 SLP076 T01220067=
202312300353 METAR KCLM 300353Z AUTO 09003KT 10SM SCT070 OVC100 11/07 A2974 RMK AO2 SLP073 T01110072=
202312300253 METAR KCLM 300253Z AUTO 27009KT 10SM SCT080 BKN100 BKN120 13/07 A2974 RMK AO2 SLP070 60000 T01280072 53007=
202312300153 METAR KCLM 300153Z AUTO 33006KT 10SM BKN080 BKN100 12/08 A2973 RMK AO2 SLP068 T01220078=
202312300053 METAR KCLM 300053Z AUTO 36004KT 10SM BKN090 12/08 A2972 RMK AO2 RAE07 SLP064 P0000 T01170078=
202312292353 METAR KCLM 292353Z AUTO 23004KT 10SM -RA OVC080 13/08 A2971 RMK AO2 RAB45 SLP063 P0000 60000 T01330083 10144 20106 55018=
202312292253 METAR KCLM 292253Z AUTO VRB03KT 10SM OVC090 13/07 A2971 RMK AO2 SLP061 T01280072=
202312292153 METAR KCLM 292153Z AUTO 10004KT 10SM FEW100 13/07 A2972 RMK AO2 SLP065 T01280067=
202312292053 METAR KCLM 292053Z AUTO 03006KT 10SM BKN110 14/07 A2977 RMK AO2 SLP080 T01390067 56014=
202312291953 METAR KCLM 291953Z AUTO 00000KT 10SM OVC090 12/08 A2978 RMK AO2 SLP084 T01220083=
202312291853 METAR KCLM 291853Z AUTO 00000KT 10SM BKN100 11/08 A2979 RMK AO2 SLP087 T01110078=
202312291753 METAR KCLM 291753Z AUTO 25003KT 10SM CLR 11/07 A2981 RMK AO2 SLP094 T01110072 10111 20078 56017=
202312291653 METAR KCLM 291653Z AUTO 23005KT 10SM FEW120 09/07 A2982 RMK AO2 SLP100 T00940067=
202312291553 METAR KCLM 291553Z AUTO 36003KT 10SM FEW060 SCT075 SCT120 08/07 A2983 RMK AO2 SLP103 T00830067=
202312291453 METAR KCLM 291453Z AUTO 00000KT 10SM FEW090 SCT120 08/07 A2986 RMK AO2 SLP111 T00830067 56016=
202312291353 METAR KCLM 291353Z AUTO 00000KT 10SM CLR 08/06 A2987 RMK AO2 SLP115 T00780061=
202312291253 METAR KCLM 291253Z AUTO 25003KT 10SM FEW075 BKN120 08/07 A2989 RMK AO2 SLP121 T00830067=
202312291153 METAR KCLM 291153Z AUTO 23003KT 10SM BKN070 08/06 A2991 RMK AO2 SLP128 70003 T00830061 10089 20067 56014=
202312291053 METAR KCLM 291053Z AUTO 00000KT 10SM SCT120 08/07 A2992 RMK AO2 SLP133 T00830067=
202312290953 METAR KCLM 290953Z AUTO 21003KT 10SM SCT110 08/06 A2993 RMK AO2 SLP137 T00780061=
202312290853 METAR KCLM 290853Z AUTO 00000KT 10SM FEW110 08/06 A2995 RMK AO2 SLP142 T00780061 56016=
202312290753 METAR KCLM 290753Z AUTO 00000KT 10SM FEW120 08/07 A2997 RMK AO2 SLP148 T00830067 401170067=
202312290653 METAR KCLM 290653Z AUTO 00000KT 10SM BKN120 08/07 A2998 RMK AO2 SLP152 T00830067=
202312290553 METAR KCLM 290553Z AUTO 00000KT 10SM CLR 09/07 A2999 RMK AO2 SLP158 T00890067 10100 20078 58005=
202312290453 METAR KCLM 290453Z AUTO 00000KT 10SM CLR 08/07 A3000 RMK AO2 SLP161 T00830067=
202312290353 METAR KCLM 290353Z AUTO 21003KT 10SM FEW120 09/07 A3001 RMK AO2 SLP161 T00940072=
202312290253 METAR KCLM 290253Z AUTO 00000KT 10SM FEW065 FEW100 09/07 A3001 RMK AO2 SLP164 T00890072 56004=
202312290153 METAR KCLM 290153Z AUTO 00000KT 10SM SCT075 BKN120 09/07 A3001 RMK AO2 SLP164 T00940072=
202312290053 METAR KCLM 290053Z AUTO 00000KT 10SM FEW065 SCT080 OVC110 09/08 A3001 RMK AO2 SLP164 T00940078=
202312282353 METAR KCLM 282353Z AUTO 26003KT 10SM OVC100 10/08 A3002 RMK AO2 SLP167 T01000078 10117 20100 56011=
202312282253 METAR KCLM 282253Z AUTO 35003KT 10SM BKN065 BKN085 11/08 A3002 RMK AO2 SLP167 T01110083=
202312282153 METAR KCLM 282153Z AUTO 00000KT 10SM BKN070 BKN090 12/08 A3004 RMK AO2 SLP174 T01170078=
202312282053 METAR KCLM 282053Z AUTO VRB04KT 10SM FEW050 SCT060 11/08 A3006 RMK AO2 SLP178 T01060078 50001=
202312281953 METAR KCLM 281953Z AUTO 00000KT 10SM CLR 11/08 A3007 RMK AO2 SLP182 T01110083=
202312281853 METAR KCLM 281853Z AUTO 36004KT 10SM BKN065 OVC085 11/08 A3007 RMK AO2 SLP184 T01060078=
202312281753 METAR KCLM 281753Z AUTO 00000KT 10SM SCT085 10/08 A3005 RMK AO2 SLP178 60003 T01000078 10100 20067 51017=
202312281659 SPECI KCLM 281659Z AUTO 10003KT 3SM BR SCT080 BKN100 07/06 A3004 RMK AO2 T00720056=
202312281653 METAR KCLM 281653Z AUTO VRB03KT 1 1/4SM BR FEW080 FEW100 07/06 A3004 RMK AO2 RAB02E17 SLP172 P0000 T00720056=
202312281648 SPECI KCLM 281648Z AUTO 00000KT 1 3/4SM BR FEW075 FEW100 07/06 A3004 RMK AO2 RAB02E17 P0000=
202312281641 SPECI KCLM 281641Z AUTO 18003KT 3SM BR FEW055 SCT075 SCT100 07/06 A3004 RMK AO2 RAB02E17 P0000 T00670056=
202312281634 SPECI KCLM 281634Z AUTO 00000KT 1 3/4SM BR FEW050 SCT100 07/06 A3004 RMK AO2 VIS 1/2V5 RAB02E17 P0000 T00720056=
202312281603 SPECI KCLM 281603Z AUTO 16005KT 10SM -RA FEW005 BKN070 07/06 A3003 RMK AO2 RAB02 P0000 T00720056=
202312281553 METAR KCLM 281553Z AUTO 00000KT 9SM BKN070 07/06 A3003 RMK AO2 RAB09E28 SLP169 P0000 T00720056=
202312281453 METAR KCLM 281453Z AUTO 00000KT 10SM FEW041 BKN070 BKN080 08/06 A3000 RMK AO2 SLP161 60003 T00780061 52008=
202312281451 SPECI KCLM 281451Z AUTO 00000KT 10SM SCT070 SCT080 08/06 A3000 RMK AO2=
202312281442 SPECI KCLM 281442Z AUTO 00000KT 2SM BR CLR 08/06 A3000 RMK AO2 T00830061=
202312281353 METAR KCLM 281353Z AUTO 00000KT 6SM BR BKN060 BKN070 08/06 A2998 RMK AO2 RAB03E51 SLP153 P0002 T00780061=
202312281253 METAR KCLM 281253Z AUTO 13004KT 4SM BR BKN047 BKN065 08/06 A2998 RMK AO2 RAE47 SLP152 P0001 T00830061=
202312281153 METAR KCLM 281153Z AUTO 00000KT 7SM -RA OVC050 08/07 A2996 RMK AO2 SLP145 P0003 60006 70008 T00830067 10100 20072 51029=
202312281053 METAR KCLM 281053Z AUTO 24003KT 10SM -RA OVC060 08/06 A2994 RMK AO2 RAB09 SLP138 P0001 T00780061=
202312280953 METAR KCLM 280953Z AUTO 00000KT 10SM BKN050 BKN070 08/06 A2991 RMK AO2 RAB05E53 SLP128 P0001 T00780061=
202312280853 METAR KCLM 280853Z AUTO VRB05KT 10SM CLR 08/06 A2987 RMK AO2 RAB0756E19 SLP116 P0001 60001 T00780056 53036=
202312280753 METAR KCLM 280753Z AUTO 28006KT 10SM SCT055 BKN075 09/06 A2983 RMK AO2 RAE00B21E48 SLP102 P0000 T00940061 401500050=
202312280653 METAR KCLM 280653Z AUTO 00000KT 10SM -RA OVC060 08/06 A2980 RMK AO2 SLP093 P0000 T00830061=
202312280553 METAR KCLM 280553Z AUTO 29004KT 9SM -RA OVC060 09/06 A2977 RMK AO2 RAB28 SLP080 P0001 60001 T00940061 10117 20078 53011=
202312280453 METAR KCLM 280453Z AUTO 00000KT 10SM BKN070 BKN090 10/05 A2974 RMK AO2 SLP072 T01000050=
202312280353 METAR KCLM 280353Z AUTO 14005KT 10SM SCT070 BKN085 10/04 A2974 RMK AO2 SLP071 T01000044=
202312280253 METAR KCLM 280253Z AUTO 18005KT 10SM FEW060 FEW075 09/05 A2973 RMK AO2 SLP069 60000 T00890050 50009=
202312280153 METAR KCLM 280153Z AUTO 08003KT 10SM OVC065 08/06 A2973 RMK AO2 SLP071 T00830061=
202312280053 METAR KCLM 280053Z AUTO 00000KT 10SM BKN050 OVC060 10/07 A2972 RMK AO2 RAB15E26 SLP065 P0000 T01000067=
202312272353 METAR KCLM 272353Z AUTO 31005KT 10SM SCT045 BKN065 11/06 A2971 RMK AO2 RAE41 SLP060 P0000 60001 T01110061 10150 20111 51008=
202312272253 METAR KCLM 272253Z AUTO 14011G29KT 10SM -RA BKN032 BKN050 13/05 A2970 RMK AO2 PK WND 12029/2245 RAB03 SLP059 P0001 T01280050=
202312272153 METAR KCLM 272153Z AUTO 16012G23KT 10SM FEW037 SCT050 BKN100 14/04 A2970 RMK AO2 RAB2059E08 SLP058 P0000 T01440044=
202312272053 METAR KCLM 272053Z AUTO 00000KT 10SM BKN065 BKN080 14/06 A2968 RMK AO2 SLP052 T01390061 56003=
202312271953 METAR KCLM 271953Z AUTO 27005KT 10SM OVC065 14/05 A2968 RMK AO2 SLP052 T01390050=
202312271853 METAR KCLM 271853Z AUTO 13010KT 10SM FEW065 13/06 A2969 RMK AO2 SLP053 T01280061=
202312271753 METAR KCLM 271753Z AUTO VRB03KT 10SM FEW039 SCT065 13/06 A2969 RMK AO2 RAE31 SLP055 P0000 60000 T01280056 10150 20050 51023=
202312271653 METAR KCLM 271653Z AUTO 18010G19KT 150V210 10SM -RA SCT060 OVC090 14/06 A2968 RMK AO2 RAE03B21 SLP051 P0000 T01390056=
202312271553 METAR KCLM 271553Z AUTO 00000KT 10SM -RA BKN060 BKN075 BKN100 09/05 A2964 RMK AO2 RAB34 SLP038 P0000 T00890050=
202312271453 METAR KCLM 271453Z AUTO VRB03KT 10SM FEW110 07/04 A2962 RMK AO2 SLP033 T00720044 56023=
202312271353 METAR KCLM 271353Z AUTO 24003KT 10SM CLR 06/04 A2964 RMK AO2 SLP037 T00610039=
202312271253 METAR KCLM 271253Z AUTO VRB03KT 10SM CLR 06/04 A2966 RMK AO2 SLP044 T00610039=
202312271153 METAR KCLM 271153Z AUTO 10SM CLR 06/04 A2969 RMK AO2 SLP056 T00610044 10072 20056 58030=
202312271053 METAR KCLM 271053Z AUTO 00000KT 10SM BKN110 06/04 A2972 RMK AO2 SLP067 T00610044=
202312270953 METAR KCLM 270953Z AUTO 24005KT 10SM SCT100 BKN120 06/04 A2977 RMK AO2 SLP083 T00610039=
202312270853 METAR KCLM 270853Z AUTO 25004KT 10SM CLR 06/04 A2978 RMK AO2 SLP087 T00610039 58030=
202312270753 METAR KCLM 270753Z AUTO 00000KT 10SM FEW065 BKN090 07/04 A2981 RMK AO2 SLP094 T00670044 401110028=
202312270653 METAR KCLM 270653Z AUTO 22005KT 10SM FEW070 BKN110 07/04 A2985 RMK AO2 SLP109 T00670044=
202312270553 METAR KCLM 270553Z AUTO 00000KT 7SM FEW080 SCT100 BKN120 06/04 A2987 RMK AO2 SLP117 T00610044 10083 20061 58023=
202312270453 METAR KCLM 270453Z AUTO 21005KT 10SM SCT120 06/04 A2991 RMK AO2 SLP129 T00610044=
202312270353 METAR KCLM 270353Z AUTO 23005KT 10SM CLR 06/04 A2991 RMK AO2 SLP130 T00610044=
202312270253 METAR KCLM 270253Z AUTO 21003KT 7SM CLR 07/05 A2994 RMK AO2 SLP141 T00670050 58017=
202312270224 SPECI KCLM 270224Z AUTO 21003KT 3SM BR CLR 07/05 A2995 RMK AO2 T00670050=
202312270211 SPECI KCLM 270211Z AUTO 00000KT 1 3/4SM BR CLR 06/05 A2996 RMK AO2 VIS 1 1/4V4 T00610050=
202312270153 METAR KCLM 270153Z AUTO 00000KT 6SM BR CLR 07/05 A2998 RMK AO2 SLP152 T00670050=
202312270053 METAR KCLM 270053Z AUTO 26005KT 9SM FEW016 07/05 A2999 RMK AO2 SLP156 T00670050=
202312270045 SPECI KCLM 270045Z AUTO 27003KT 10SM SCT016 08/06 A2999 RMK AO2 T00780056=
202312262353 METAR KCLM 262353Z AUTO 05003KT 10SM OVC017 08/06 A2999 RMK AO2 SLP157 T00830056 10100 20078 56037=
202312262311 SPECI KCLM 262311Z AUTO 00000KT 10SM SCT007 SCT012 OVC018 08/06 A3004 RMK AO2 T00830061=
202312262253 METAR KCLM 262253Z AUTO 00000KT 10SM OVC006 08/06 A3004 RMK AO2 CIG 005V009 SLP172 T00830061=
202312262153 METAR KCLM 262153Z AUTO 00000KT 10SM OVC006 08/06 A3005 RMK AO2 PRESFR SLP177 T00830061=
202312262053 METAR KCLM 262053Z AUTO 01003KT 10SM OVC005 08/06 A3010 RMK AO2 SLP194 T00830061 58019=
202312261953 METAR KCLM 261953Z AUTO VRB03KT 10SM BKN006 09/07 A3014 RMK AO2 SLP206 T00940067=
202312261949 SPECI KCLM 261949Z AUTO 02004KT 10SM BKN006 09/06 A3014 RMK AO2=
202312261940 SPECI KCLM 261940Z AUTO VRB04KT 10SM SCT007 09/06 A3014 RMK AO2 T00940056=
202312261853 METAR KCLM 261853Z AUTO 00000KT 10SM CLR 09/06 A3016 RMK AO2 SLP213 T00890056=
202312261753 METAR KCLM 261753Z AUTO 24005KT 10SM SCT014 SCT025 BKN044 08/06 A3016 RMK AO2 SLP215 60000 T00780056 10078 20028 51006=
202312261751 SPECI KCLM 261751Z AUTO 24005KT 10SM SCT014 BKN028 BKN044 07/06 A3016 RMK AO2=
202312261750 SPECI KCLM 261750Z AUTO 23005KT 10SM SCT014 SCT025 BKN030 07/06 A3016 RMK AO2=
202312261701 SPECI KCLM 261701Z AUTO 24003KT 10SM BKN014 OVC021 06/04 A3017 RMK AO2 T00560039=
202312261653 METAR KCLM 261653Z AUTO 00000KT 10SM BKN016 OVC021 04/03 A3017 RMK AO2 SLP218 T00440033=
202312261631 SPECI KCLM 261631Z AUTO 00000KT 10SM BKN018 03/02 A3016 RMK AO2 T00330022=
202312261624 SPECI KCLM 261624Z AUTO 24003KT 2 1/2SM BR BKN018 04/02 A3016 RMK AO2 T00390022=
202312261553 METAR KCLM 261553Z AUTO 00000KT 6SM BR SCT026 04/03 A3015 RMK AO2 SLP210 T00440028=
202312261453 METAR KCLM 261453Z AUTO 22003KT 6SM BR FEW002 05/03 A3013 RMK AO2 SLP204 60000 T00500028 51027=
202312261449 SPECI KCLM 261449Z AUTO 00000KT 2SM BR FEW002 04/03 A3013 RMK AO2=
202312261442 SPECI KCLM 261442Z AUTO 00000KT 1SM BR VV002 04/02 A3012 RMK AO2 T00390022=
202312261438 SPECI KCLM 261438Z AUTO 00000KT 1 3/4SM BR CLR 04/02 A3012 RMK AO2 T00390022=
202312261421 SPECI KCLM 261421Z AUTO 17004KT 8SM FEW046 05/03 A3013 RMK AO2 T00500033=
202312261413 SPECI KCLM 261413Z AUTO 20004KT 2 1/2SM BR FEW048 04/02 A3013 RMK AO2 T00440022=
202312261353 METAR KCLM 261353Z AUTO 00000KT 10SM SCT049 SCT060 04/03 A3012 RMK AO2 SLP201 T00440028=
202312261253 METAR KCLM 261253Z AUTO 19004KT 10SM CLR 06/04 A3008 RMK AO2 RAE1154 SLP187 P0000 T00610044=
202312261153 METAR KCLM 261153Z AUTO 20004KT 10SM -RA FEW055 SCT070 BKN095 08/05 A3005 RMK AO2 RAE06B26 SLP176 P0001 60014 70017 T00830050 10111 20083 51039=
202312261053 METAR KCLM 261053Z AUTO 28005KT 6SM -RA BR OVC041 09/07 A3002 RMK AO2 SLP168 P0006 T00890067=
202312260953 METAR KCLM 260953Z AUTO 27007KT 8SM -RA FEW039 OVC050 09/07 A2999 RMK AO2 RAE10B26 SLP157 P0001 T00940067=
202312260853 METAR KCLM 260853Z AUTO 27004KT 8SM -RA OVC050 09/07 A2993 RMK AO2 RAE0754B17 SLP136 P0002 60006 T00940072 53058=
202312260753 METAR KCLM 260753Z AUTO 00000KT 10SM -RA FEW044 OVC065 10/07 A2986 RMK AO2 PRESRR SLP113 P0001 T01000067 401060017=
202312260716 SPECI KCLM 260716Z AUTO 00000KT 10SM -RA FEW005 BKN048 OVC070 09/07 A2982 RMK AO2 P0001 T00890072=
202312260653 METAR KCLM 260653Z AUTO 32008KT 4SM -RA BR OVC046 09/07 A2981 RMK AO2 SLP096 P0003 T00890067=
202312260553 METAR KCLM 260553Z AUTO 00000KT 10SM -RA FEW050 OVC060 08/06 A2976 RMK AO2 SLP079 P0001 60003 T00830061 10089 20078 56007=
202312260453 METAR KCLM 260453Z AUTO 23003KT 9SM -RA OVC060 08/06 A2976 RMK AO2 SLP079 P0001 T00830061=
202312260353 METAR KCLM 260353Z AUTO 00000KT 10SM -RA OVC065 08/07 A2977 RMK AO2 SLP083 P0001 T00830067=
202312260253 METAR KCLM 260253Z AUTO VRB04KT 10SM -RA FEW006 OVC065 08/06 A2978 RMK AO2 RAB11 SLP087 P0000 60000 T00830061 56014=
202312260242 SPECI KCLM 260242Z AUTO 00000KT 10SM -RA FEW006 OVC065 08/06 A2980 RMK AO2 RAB11 P0000 T00830061=
202312260153 METAR KCLM 260153Z AUTO 25006KT 10SM OVC060 08/06 A2980 RMK AO2 SLP093 T00830061=
202312260053 METAR KCLM 260053Z AUTO 00000KT 10SM OVC060 08/06 A2980 RMK AO2 SLP094 T00830061=
202312252353 METAR KCLM 252353Z AUTO 00000KT 10SM OVC065 09/06 A2982 RMK AO2 SLP101 60000 T00890061 10100 20067 56020=
202312252253 METAR KCLM 252253Z AUTO 11003KT 10SM OVC065 09/06 A2985 RMK AO2 RAB2154E29 SLP108 P0000 T00940061=
202312252153 METAR KCLM 252153Z AUTO 00000KT 10SM OVC065 09/04 A2986 RMK AO2 SLP112 T00940044=
202312252053 METAR KCLM 252053Z AUTO 28008KT 10SM OVC065 09/06 A2988 RMK AO2 SLP121 T00940056 56011=
202312251953 METAR KCLM 251953Z AUTO VRB03KT 10SM BKN060 OVC075 09/05 A2989 RMK AO2 SLP123 T00940050=
202312251853 METAR KCLM 251853Z AUTO 00000KT 10SM SCT070 SCT110 09/04 A2990 RMK AO2 SLP128 T00890039=
202312251753 METAR KCLM 251753Z AUTO 00000KT 10SM FEW040 SCT075 BKN090 07/04 A2992 RMK AO2 RAB32E42 SLP132 P0000 60000 T00670039 10067 20039 56010=
202312251653 METAR KCLM 251653Z AUTO 00000KT 10SM FEW120 04/02 A2992 RMK AO2 SLP135 T00440022=
202312251553 METAR KCLM 251553Z AUTO 25003KT 10SM FEW046 BKN100 BKN120 04/02 A2992 RMK AO2 RAB33E47 SLP136 P0000 T00440022=
202312251453 METAR KCLM 251453Z AUTO 22004KT 10SM FEW070 BKN090 04/02 A2995 RMK AO2 SLP144 60000 T00440017 56018=
202312251353 METAR KCLM 251353Z AUTO 28003KT 10SM OVC075 04/02 A2995 RMK AO2 RAE00 SLP144 P0000 T00440022=
202312251253 METAR KCLM 251253Z AUTO VRB03KT 10SM -RA OVC080 04/02 A2998 RMK AO2 RAB51 SLP155 P0000 T00440017=
202312251153 METAR KCLM 251153Z AUTO 00000KT 10SM OVC090 04/02 A3000 RMK AO2 SLP161 I6002 T00440017 10044 20006 56023=
202312251053 METAR KCLM 251053Z AUTO 23006KT 10SM FEW065 03/01 A3002 RMK AO2 SLP168 T00330006=
202312250953 METAR KCLM 250953Z AUTO VRB04KT 10SM OVC110 02/00 A3003 RMK AO2 SLP172 T00220000=
202312250853 METAR KCLM 250853Z AUTO 24005KT 10SM FEW110 02/00 A3007 RMK AO2 SLP184 I3002 T00220000 58017=
202312250753 METAR KCLM 250753Z AUTO VRB03KT 10SM SCT120 01/M01 A3009 RMK AO2 SLP193 I1001 T00111011 400890000=
202312250653 METAR KCLM 250653Z AUTO 00000KT 10SM CLR 01/M01 A3011 RMK AO2 SLP198 I1001 T00111011=
202312250553 METAR KCLM 250553Z AUTO 00000KT 10SM CLR 01/M01 A3012 RMK AO2 SLP203 I1000 I6000 T00111011 10072 20000 50002=
202312250453 METAR KCLM 250453Z AUTO 22004KT 10SM CLR 01/M01 A3013 RMK AO2 SLP206 I1000 T00061011=
202312250353 METAR KCLM 250353Z AUTO 21003KT 10SM CLR 01/M01 A3012 RMK AO2 SLP203 I1000 T00111011=
202312250253 METAR KCLM 250253Z AUTO 22003KT 10SM CLR 02/M01 A3012 RMK AO2 SLP201 T00171006 51014=
202312250153 METAR KCLM 250153Z AUTO 00000KT 10SM CLR 02/00 A3011 RMK AO2 SLP198 T00220000=
202312250053 METAR KCLM 250053Z AUTO 23004KT 10SM CLR 04/01 A3009 RMK AO2 SLP192 T00440011=
202312242353 METAR KCLM 242353Z AUTO 00000KT 10SM BKN090 07/02 A3008 RMK AO2 SLP186 T00720017 10089 20039 53001=
202312242253 METAR KCLM 242253Z AUTO 00000KT 10SM BKN075 OVC095 08/01 A3006 RMK AO2 SLP180 T00780011=
202312242153 METAR KCLM 242153Z AUTO 00000KT 10SM OVC090 08/01 A3005 RMK AO2 SLP179 T00830006=
202312242053 METAR KCLM 242053Z AUTO 00000KT 10SM OVC095 08/01 A3007 RMK AO2 SLP185 T00780006 53005=
202312241953 METAR KCLM 241953Z AUTO 28005KT 10SM OVC100 07/01 A3007 RMK AO2 SLP184 T00720011=
202312241853 METAR KCLM 241853Z AUTO 25007KT 10SM BKN090 OVC110 06/01 A3006 RMK AO2 SLP180 T00610011=
202312241753 METAR KCLM 241753Z AUTO 24006KT 10SM CLR 04/00 A3006 RMK AO2 SLP181 T00390000 10039 20022 53008=
202312241653 METAR KCLM 241653Z AUTO 00000KT 10SM CLR 02/M01 A3004 RMK AO2 SLP176 T00221006=
202312241553 METAR KCLM 241553Z AUTO 25004KT 10SM CLR 03/M01 A3003 RMK AO2 SLP173 T00331006=
202312241453 METAR KCLM 241453Z AUTO 00000KT 10SM FEW021 02/00 A3003 RMK AO2 SLP173 T00220000 58015=
202312241353 METAR KCLM 241353Z AUTO 23007KT 10SM CLR 03/M01 A3007 RMK AO2 SLP187 T00331006=
202312241328 SPECI KCLM 241328Z AUTO 24007KT 10SM SCT024 03/M01 A3007 RMK AO2 T00331006=
202312241253 METAR KCLM 241253Z AUTO 24008KT 10SM BKN022 03/M01 A3006 RMK AO2 SLP183 T00331006=
202312241246 SPECI KCLM 241246Z AUTO 24008KT 10SM BKN023 03/00 A3007 RMK AO2 T00330000=
202312241230 SPECI KCLM 241230Z AUTO 24007KT 10SM SCT021 03/M01 A3007 RMK AO2 T00331006=
202312241153 METAR KCLM 241153Z AUTO 24007KT 10SM BKN020 03/M01 A3008 RMK AO2 CIG 014V024 SLP187 T00331006 10033 20000 56020=
202312241119 SPECI KCLM 241119Z AUTO 23004KT 10SM BKN015 BKN020 02/00 A3008 RMK AO2 T00220000=
202312241110 SPECI KCLM 241110Z AUTO 19003KT 10SM BKN013 03/01 A3008 RMK AO2 T00330006=
202312241053 METAR KCLM 241053Z AUTO 22005KT 10SM FEW010 02/M01 A3008 RMK AO2 SLP189 T00221006=
202312240953 METAR KCLM 240953Z AUTO 00000KT 10SM CLR 01/M01 A3009 RMK AO2 SLP192 T00111011=
202312240936 SPECI KCLM 240936Z AUTO 21003KT 10SM FEW010 SCT017 02/M01 A3010 RMK AO2 T00171006=
202312240912 SPECI KCLM 240912Z AUTO 00000KT 10SM FEW009 BKN017 OVC023 02/M01 A3012 RMK AO2 T00221006=
202312240853 METAR KCLM 240853Z AUTO 22005KT 10SM BKN023 02/M01 A3014 RMK AO2 SLP207 T00221011 58026=
202312240753 METAR KCLM 240753Z AUTO 22006KT 10SM OVC024 02/M01 A3018 RMK AO2 SLP220 T00221006 400831011=
202312240724 SPECI KCLM 240724Z AUTO 23006KT 10SM SCT013 OVC023 02/M01 A3019 RMK AO2 T00221006=
202312240653 METAR KCLM 240653Z AUTO 22006KT 10SM BKN014 01/M01 A3020 RMK AO2 SLP229 T00111011=
202312240553 METAR KCLM 240553Z AUTO 22003KT 10SM CLR 01/M02 A3022 RMK AO2 SLP235 I6000 T00061017 10061 21011 56021=
202312240453 METAR KCLM 240453Z AUTO 00000KT 10SM CLR 01/M02 A3024 RMK AO2 SLP242 I1000 T00061017=
202312240353 METAR KCLM 240353Z AUTO 15003KT 10SM CLR 00/M02 A3025 RMK AO2 SLP246 I1000 T00001017=
202312240253 METAR KCLM 240253Z AUTO 00000KT 10SM CLR 01/M01 A3028 RMK AO2 SLP256 T00061011 58004=
202312240153 METAR KCLM 240153Z AUTO 00000KT 10SM CLR 01/M01 A3029 RMK AO2 SLP260 T00111011=
202312240053 METAR KCLM 240053Z AUTO 22004KT 10SM CLR 03/00 A3029 RMK AO2 SLP260 T00280000=
202312232353 METAR KCLM 232353Z AUTO 22004KT 10SM CLR 06/01 A3029 RMK AO2 SLP259 T00610006 10083 20044 58009=
202312232253 METAR KCLM 232253Z AUTO 00000KT 10SM CLR 08/01 A3030 RMK AO2 SLP263 T00830006=
202312232153 METAR KCLM 232153Z AUTO 30003KT 10SM CLR 08/02 A3031 RMK AO2 SLP267 T00830017=
202312232053 METAR KCLM 232053Z AUTO 09003KT 10SM CLR 08/02 A3032 RMK AO2 SLP268 T00830017 58010=
202312231953 METAR KCLM 231953Z AUTO 08004KT 10SM CLR 08/00 A3032 RMK AO2 SLP270 T00780000=
202312231853 METAR KCLM 231853Z AUTO 23003KT 10SM CLR 06/M01 A3035 RMK AO2 SLP279 T00611006=
202312231753 METAR KCLM 231753Z AUTO 23006KT 10SM CLR 04/M01 A3035 RMK AO2 SLP278 T00441006 10044 20017 53014=
202312231653 METAR KCLM 231653Z AUTO 22005KT 10SM CLR 03/M02 A3034 RMK AO2 SLP275 T00281017=
202312231553 METAR KCLM 231553Z AUTO 21003KT 10SM CLR 02/M02 A3031 RMK AO2 SLP267 T00221017=
202312231453 METAR KCLM 231453Z AUTO 23008KT 10SM CLR 03/M01 A3031 RMK AO2 SLP265 T00331011 53014=
202312231353 METAR KCLM 231353Z AUTO 25008KT 10SM CLR 03/M01 A3029 RMK AO2 SLP257 T00331011=
202312231253 METAR KCLM 231253Z AUTO 23008KT 10SM CLR 04/M01 A3027 RMK AO2 SLP253 T00391011=
202312231153 METAR KCLM 231153Z AUTO 23010KT 10SM CLR 04/M01 A3026 RMK AO2 SLP250 70017 T00441011 10050 20039 51010=
202312231053 METAR KCLM 231053Z AUTO 24012KT 10SM CLR 05/M01 A3026 RMK AO2 SLP249 T00501011=
202312230953 METAR KCLM 230953Z AUTO 24013KT 10SM CLR 04/M01 A3025 RMK AO2 SLP245 T00441006=
202312230853 METAR KCLM 230853Z AUTO 24012G19KT 10SM CLR 04/M01 A3023 RMK AO2 SLP240 T00441006 51014=
202312230753 METAR KCLM 230753Z AUTO 24016G25KT 10SM CLR 04/00 A3022 RMK AO2 SLP236 T00440000 400940044=
202312230653 METAR KCLM 230653Z AUTO 24012KT 10SM CLR 04/00 A3021 RMK AO2 SLP232 T00440000=
202312230553 METAR KCLM 230553Z AUTO 25009KT 10SM CLR 05/00 A3019 RMK AO2 SLP226 60003 T00500000 10067 20050 51023=
202312230453 METAR KCLM 230453Z AUTO 23012KT 10SM CLR 05/01 A3017 RMK AO2 SLP220 T00500006=
202312230353 METAR KCLM 230353Z AUTO 24010KT 10SM CLR 05/01 A3015 RMK AO2 SLP212 T00500006=
202312230253 METAR KCLM 230253Z AUTO 25010KT 10SM CLR 05/01 A3012 RMK AO2 SLP203 60003 T00500011 53007=
202312230153 METAR KCLM 230153Z AUTO 22007KT 10SM CLR 06/02 A3012 RMK AO2 SLP201 T00560017=
202312230053 METAR KCLM 230053Z AUTO 24011KT 10SM CLR 06/02 A3010 RMK AO2 PK WND 24026/0006 RAE21 SLP196 P0003 T00560022=
202312230024 SPECI KCLM 230024Z AUTO 22008KT 10SM SCT022 OVC110 06/02 A3009 RMK AO2 PK WND 24026/0006 RAE21 P0003 T00610022=
202312230003 SPECI KCLM 230003Z AUTO 26015G23KT 4SM RA BKN024 BKN034 OVC041 06/02 A3011 RMK AO2 P0002 T00610022=
202312222353 METAR KCLM 222353Z AUTO 27012KT 7SM -RA FEW023 BKN032 BKN043 07/02 A3010 RMK AO2 RAB07 SLP194 P0001 60001 T00670022 10089 20067 53025=
202312222253 METAR KCLM 222253Z AUTO 26009KT 10SM SCT035 SCT045 BKN060 07/02 A3005 RMK AO2 SLP178 T00720017=
202312222153 METAR KCLM 222153Z AUTO 25012G19KT 10SM CLR 08/02 A3003 RMK AO2 SLP170 T00830017=
202312222053 METAR KCLM 222053Z AUTO 25009G23KT 10SM FEW055 08/02 A3003 RMK AO2 RAE1956 SLP169 P0000 60000 T00780022 51024=
202312221953 METAR KCLM 221953Z AUTO 29011G17KT 10SM -RA FEW028 BKN033 OVC110 08/03 A3002 RMK AO2 RAB31 SLP167 P0000 T00780033=
202312221853 METAR KCLM 221853Z AUTO 25013KT 10SM BKN044 08/03 A2999 RMK AO2 SLP155 T00830028=
202312221753 METAR KCLM 221753Z AUTO 25006KT 10SM FEW050 OVC065 07/03 A2996 RMK AO2 SLP145 60013 T00720033 10094 20067 53022=
202312221653 METAR KCLM 221653Z AUTO 26010KT 10SM OVC090 08/02 A2991 RMK AO2 SLP130 T00780022=
202312221553 METAR KCLM 221553Z AUTO 24011KT 10SM OVC070 07/03 A2989 RMK AO2 RAE41 SLP124 P0000 T00720028=
202312221453 METAR KCLM 221453Z AUTO 26013KT 10SM -RA OVC055 07/04 A2989 RMK AO2 SLP123 P0001 60013 T00670039 51023=
202312221353 METAR KCLM 221353Z AUTO 27011KT 10SM -RA OVC038 07/04 A2988 RMK AO2 SLP121 P0007 T00720044=
202312221325 SPECI KCLM 221325Z AUTO 29010G20KT 8SM -RA FEW016 SCT024 OVC038 08/05 A2986 RMK AO2 P0004 T00780050=
202312221302 SPECI KCLM 221302Z AUTO 30012G24KT 5SM RA BR SCT006 BKN015 OVC020 08/06 A2986 RMK AO2 P0002 T00780056=
202312221253 METAR KCLM 221253Z AUTO 30013G24KT 6SM -RA BR FEW006 BKN013 OVC019 08/06 A2986 RMK AO2 RAB18 SLP111 P0005 T00780056=
202312221237 SPECI KCLM 221237Z AUTO 30013G20KT 6SM -RA BR FEW007 BKN014 OVC050 09/07 A2986 RMK AO2 RAB18 P0002 T00890067=
202312221202 SPECI KCLM 221202Z AUTO 00000KT 10SM SCT009 OVC060 09/07 A2983 RMK AO2 T00940067=
202312221153 METAR KCLM 221153Z AUTO 13004KT 10SM BKN009 OVC065 09/07 A2982 RMK AO2 SLP099 60000 T00940067 10100 20089 58018=
202312221053 METAR KCLM 221053Z AUTO 00000KT 10SM OVC008 09/07 A2984 RMK AO2 CIG 006V011 SLP106 T00940072=
202312220953 METAR KCLM 220953Z AUTO 28003KT 10SM OVC005 09/07 A2987 RMK AO2 RAB15E47 SLP114 P0000 T00940072=
202312220853 METAR KCLM 220853Z AUTO 27003KT 10SM OVC006 09/07 A2988 RMK AO2 SLP118 T00940072 58004=
202312220753 METAR KCLM 220753Z AUTO 26004KT 10SM OVC007 09/07 A2989 RMK AO2 CIG 004V009 SLP121 T00940072 401170089=
202312220653 METAR KCLM 220653Z AUTO 24003KT 10SM OVC007 09/07 A2989 RMK AO2 CIG 005V010 SLP121 T00940072=
202312220553 METAR KCLM 220553Z AUTO 00000KT 10SM OVC006 10/08 A2989 RMK AO2 SLP122 T01000078 10106 20100 58016=
202312220453 METAR KCLM 220453Z AUTO 10003KT 10SM OVC007 10/08 A2991 RMK AO2 SLP128 T01000078=
202312220353 METAR KCLM 220353Z AUTO 00000KT 10SM OVC008 10/07 A2993 RMK AO2 SLP134 T01000072=
202312220253 METAR KCLM 220253Z AUTO 00000KT 10SM OVC008 10/07 A2993 RMK AO2 SLP137 T01000072 58010=
202312220153 METAR KCLM 220153Z AUTO 00000KT 10SM OVC009 10/08 A2995 RMK AO2 SLP144 T01000078=
202312220120 SPECI KCLM 220120Z AUTO 00000KT 10SM OVC009 10/08 A2996 RMK AO2 T01000078=
202312220053 METAR KCLM 220053Z AUTO 00000KT 10SM OVC010 10/08 A2997 RMK AO2 SLP148 T01000078=
202312220046 SPECI KCLM 220046Z AUTO 00000KT 10SM OVC010 10/08 A2997 RMK AO2 T01000083=
202312220005 SPECI KCLM 220005Z AUTO 00000KT 10SM OVC009 11/08 A2996 RMK AO2 T01060083=
202312212353 METAR KCLM 212353Z AUTO 11004KT 10SM OVC010 11/08 A2996 RMK AO2 SLP147 T01060078 10117 20106 56015=
202312212319 SPECI KCLM 212319Z AUTO 00000KT 10SM OVC010 11/08 A2997 RMK AO2 CIG 008V011 T01060078=
202312212253 METAR KCLM 212253Z AUTO 00000KT 10SM OVC008 11/08 A2998 RMK AO2 SLP153 T01060078=
202312212230 SPECI KCLM 212230Z AUTO 00000KT 10SM OVC008 11/08 A2998 RMK AO2 CIG 007V012 T01060078=
202312212153 METAR KCLM 212153Z AUTO 00000KT 10SM OVC010 11/08 A2999 RMK AO2 CIG 006V013 SLP156 T01060083=
202312212053 METAR KCLM 212053Z AUTO VRB03KT 10SM BKN007 OVC014 11/08 A3001 RMK AO2 SLP163 T01060078 57013=
202312211953 METAR KCLM 211953Z AUTO 00000KT 10SM BKN009 OVC020 11/08 A3002 RMK AO2 CIG 006V011 SLP166 T01110083=
202312211853 METAR KCLM 211853Z AUTO 00000KT 10SM OVC010 11/08 A3004 RMK AO2 SLP172 T01110078=
202312211753 METAR KCLM 211753Z AUTO 00000KT 10SM BKN011 BKN016 OVC060 11/08 A3005 RMK AO2 SLP176 60000 T01060083 10106 20089 53004=
202312211719 SPECI KCLM 211719Z AUTO 00000KT 10SM OVC010 10/08 A3005 RMK AO2 T01000083=
202312211653 METAR KCLM 211653Z AUTO 00000KT 9SM OVC006 09/08 A3004 RMK AO2 SLP174 T00940078=
202312211620 SPECI KCLM 211620Z AUTO 00000KT 10SM OVC005 09/07 A3004 RMK AO2 T00890072=
202312211611 SPECI KCLM 211611Z AUTO 00000KT 10SM BKN003 OVC007 09/07 A3004 RMK AO2 T00890072=
202312211558 SPECI KCLM 211558Z AUTO 24003KT 3SM BR OVC005 09/07 A3004 RMK AO2 T00890072=
202312211553 METAR KCLM 211553Z AUTO 24004KT 2 1/2SM BR OVC004 09/07 A3004 RMK AO2 SLP172 T00890072=
202312211550 SPECI KCLM 211550Z AUTO 23003KT 2 1/2SM BR OVC004 09/07 A3004 RMK AO2=
202312211528 SPECI KCLM 211528Z AUTO 00000KT 7SM OVC004 09/07 A3003 RMK AO2 T00940072=
202312211453 METAR KCLM 211453Z AUTO 00000KT 10SM OVC008 09/07 A3003 RMK AO2 CIG 005V009 SLP171 60000 T00940072 53007=
202312211413 SPECI KCLM 211413Z AUTO 00000KT 10SM BKN008 OVC012 09/07 A3003 RMK AO2 CIG 003V009 T00940072=
202312211404 SPECI KCLM 211404Z AUTO 00000KT 10SM SCT004 OVC011 09/07 A3003 RMK AO2 CIG 007V013 T00890072=
202312211353 METAR KCLM 211353Z AUTO 24004KT 10SM BKN004 OVC010 09/07 A3002 RMK AO2 RAE1259 SLP168 P0000 T00890067=
202312211346 SPECI KCLM 211346Z AUTO 22004KT 10SM BKN004 OVC008 09/07 A3002 RMK AO2 RAE1259 P0000 T00890067=
202312211320 SPECI KCLM 211320Z AUTO 22003KT 10SM BKN008 OVC014 09/07 A3002 RMK AO2 RAE1259 CIG 006V011 P0000 T00890067=
202312211253 METAR KCLM 211253Z AUTO 20003KT 10SM -RA SCT004 OVC014 09/07 A3001 RMK AO2 RAB15 SLP164 P0000 T00890067=
202312211217 SPECI KCLM 211217Z AUTO 00000KT 10SM -RA BKN004 OVC080 09/07 A3001 RMK AO2 RAB15 P0000 T00890067=
202312211153 METAR KCLM 211153Z AUTO 00000KT 10SM BKN005 OVC017 09/07 A3001 RMK AO2 SLP164 T00940067 10100 20089 53004=
202312211146 SPECI KCLM 211146Z AUTO 00000KT 10SM BKN005 OVC017 09/07 A3001 RMK AO2 T00940067=
202312211137 SPECI KCLM 211137Z AUTO 00000KT 10SM SCT006 OVC017 09/07 A3001 RMK AO2 T00940067=
202312211053 METAR KCLM 211053Z AUTO 24004KT 10SM OVC017 09/07 A3001 RMK AO2 SLP162 T00940067=
202312210953 METAR KCLM 210953Z AUTO 00000KT 10SM SCT006 OVC015 09/07 A3000 RMK AO2 SLP160 T00940067=
202312210853 METAR KCLM 210853Z AUTO 22003KT 10SM OVC014 09/07 A3000 RMK AO2 SLP160 T00940067 52002=
202312210850 SPECI KCLM 210850Z AUTO 23004KT 10SM OVC014 09/07 A3000 RMK AO2=
202312210753 METAR KCLM 210753Z AUTO 25003KT 10SM OVC019 09/07 A2999 RMK AO2 SLP157 T00890067 401170028=
202312210720 SPECI KCLM 210720Z AUTO 21003KT 10SM OVC015 09/07 A2999 RMK AO2 T00940072=
202312210720 METAR KCLM 210720Z AUTO 21003KT 10SM OVC015 09/07 A2999 RMK AO2 T00940072=
202312210653 METAR KCLM 210653Z AUTO 00000KT 10SM OVC013 10/08 A2999 RMK AO2 SLP158 T01000078=
202312210640 SPECI KCLM 210640Z AUTO 00000KT 10SM OVC014 09/07 A2999 RMK AO2 T00940072=
202312210625 SPECI KCLM 210625Z AUTO 22003KT 10SM OVC015 09/07 A2999 RMK AO2 T00940072=
202312210613 SPECI KCLM 210613Z AUTO 20003KT 10SM OVC013 09/07 A2999 RMK AO2 T00940072=
202312210553 METAR KCLM 210553Z AUTO 22005KT 10SM OVC015 09/07 A2998 RMK AO2 SLP154 T00890067 10106 20089 53006=
202312210517 SPECI KCLM 210517Z AUTO 00000KT 10SM SCT010 OVC018 09/07 A2997 RMK AO2 T00890072=
202312210453 METAR KCLM 210453Z AUTO 21003KT 10SM BKN010 OVC020 09/07 A2997 RMK AO2 SLP151 T00940072=
202312210444 SPECI KCLM 210444Z AUTO 22004KT 10SM BKN011 OVC020 09/07 A2997 RMK AO2 T00940072=
202312210353 METAR KCLM 210353Z AUTO 00000KT 10SM BKN020 OVC110 09/07 A2997 RMK AO2 SLP149 T00940072=
202312210349 SPECI KCLM 210349Z AUTO 00000KT 10SM BKN020 OVC110 09/07 A2996 RMK AO2=
202312210338 SPECI KCLM 210338Z AUTO 00000KT 10SM SCT018 OVC110 09/07 A2996 RMK AO2 T00940072=
202312210253 METAR KCLM 210253Z AUTO 00000KT 10SM OVC019 10/08 A2996 RMK AO2 SLP148 T01000078 53009=
202312210153 METAR KCLM 210153Z AUTO 00000KT 10SM OVC019 10/08 A2995 RMK AO2 SLP143 T01000078=
202312210053 METAR KCLM 210053Z AUTO 22005KT 10SM OVC021 10/08 A2994 RMK AO2 SLP139 T01000078=
202312202353 METAR KCLM 202353Z AUTO 22004KT 10SM OVC023 11/08 A2993 RMK AO2 SLP137 T01060078 10117 20072 53005=
202312202335 SPECI KCLM 202335Z AUTO 23004KT 10SM BKN023 11/08 A2993 RMK AO2 T01110078=
202312202253 METAR KCLM 202253Z AUTO 30004KT 10SM CLR 10/08 A2992 RMK AO2 SLP134 T01000078=
202312202203 SPECI KCLM 202203Z AUTO 29005KT 10SM SCT022 SCT085 12/08 A2992 RMK AO2 T01170078=
202312202153 METAR KCLM 202153Z AUTO 00000KT 10SM BKN020 12/08 A2992 RMK AO2 SLP133 T01170078=
202312202127 SPECI KCLM 202127Z AUTO 00000KT 10SM BKN015 BKN028 11/08 A2992 RMK AO2 T01110083=
202312202118 SPECI KCLM 202118Z AUTO 00000KT 10SM FEW015 SCT028 11/08 A2992 RMK AO2 T01060083=
202312202053 METAR KCLM 202053Z AUTO 00000KT 10SM OVC029 11/08 A2992 RMK AO2 SLP133 T01060078 56003=
202312202006 SPECI KCLM 202006Z AUTO 00000KT 9SM SCT001 OVC031 08/07 A2993 RMK AO2 T00830072=
202312201958 SPECI KCLM 201958Z AUTO 00000KT 3SM BR BKN001 BKN031 08/07 A2993 RMK AO2 T00830067=
202312201953 METAR KCLM 201953Z AUTO 00000KT 1 1/4SM BR BKN001 08/07 A2993 RMK AO2 SLP135 T00830067=
202312201943 SPECI KCLM 201943Z AUTO 35003KT 3/4SM BR VV001 08/06 A2993 RMK AO2 T00830061=
202312201939 SPECI KCLM 201939Z AUTO VRB03KT 1 3/4SM BR SCT001 08/06 A2993 RMK AO2 T00830061=
202312201853 METAR KCLM 201853Z AUTO 00000KT 7SM SCT001 08/07 A2993 RMK AO2 SLP135 T00830067=
202312201851 SPECI KCLM 201851Z AUTO 00000KT 3SM BR SCT001 08/07 A2993 RMK AO2=
202312201849 SPECI KCLM 201849Z AUTO 00000KT 1SM BR VV001 08/07 A2993 RMK AO2=
202312201839 SPECI KCLM 201839Z AUTO 00000KT 1/4SM FG VV001 08/06 A2993 RMK AO2 T00780056=
202312201836 SPECI KCLM 201836Z AUTO 03003KT 1SM BR VV001 08/06 A2993 RMK AO2 T00780061=
202312201834 SPECI KCLM 201834Z AUTO 03003KT 2SM BR FEW001 08/06 A2993 RMK AO2 VIS 3/4V5 T00780061=
202312201807 SPECI KCLM 201807Z AUTO 00000KT 3SM BR SCT001 08/07 A2993 RMK AO2 T00830067=
202312201805 SPECI KCLM 201805Z AUTO 00000KT 2SM BR BKN001 08/06 A2993 RMK AO2 T00780061=
202312201753 METAR KCLM 201753Z AUTO 00000KT 1/2SM FG VV001 07/06 A2992 RMK AO2 SLP134 T00720056 10072 20028 53016=
202312201729 SPECI KCLM 201729Z AUTO 00000KT 1/4SM FG VV001 06/05 A2992 RMK AO2 T00610050=
202312201709 SPECI KCLM 201709Z AUTO 00000KT M1/4SM FG VV001 06/04 A2991 RMK AO2 T00560039=
202312201704 SPECI KCLM 201704Z AUTO 00000KT 1/4SM FG VV002 06/04 A2991 RMK AO2 T00610039=
202312201653 METAR KCLM 201653Z AUTO 00000KT 3/4SM BR BKN002 04/04 A2990 RMK AO2 SLP128 T00440039=
202312201651 SPECI KCLM 201651Z AUTO 00000KT 3/4SM BR VV002 04/04 A2990 RMK AO2 VIS 1/4V2 1/2=
202312201640 SPECI KCLM 201640Z AUTO 00000KT 1 1/4SM BR FEW001 05/03 A2989 RMK AO2 T00500033=
202312201623 SPECI KCLM 201623Z AUTO 00000KT 1/4SM FG VV001 03/02 A2989 RMK AO2 T00330022=
202312201615 SPECI KCLM 201615Z AUTO 14003KT 1/2SM FG VV001 03/02 A2989 RMK AO2 T00280017=
202312201606 SPECI KCLM 201606Z AUTO 00000KT 1SM BR VV001 03/02 A2989 RMK AO2 VIS 1/2V4 T00280022=
202312201556 SPECI KCLM 201556Z AUTO 14003KT 2 1/2SM BR FEW001 04/03 A2989 RMK AO2 T00440033=
202312201553 METAR KCLM 201553Z AUTO 15003KT 1SM BR VV001 04/03 A2989 RMK AO2 SLP122 T00390028=
202312201537 SPECI KCLM 201537Z AUTO 00000KT 3/4SM BR VV001 03/02 A2989 RMK AO2 T00330022=
202312201531 SPECI KCLM 201531Z AUTO 00000KT 1 3/4SM BR CLR 03/02 A2988 RMK AO2 T00330022=
202312201527 SPECI KCLM 201527Z AUTO 00000KT 3SM BR CLR 04/03 A2988 RMK AO2 T00440028=
202312201512 SPECI KCLM 201512Z AUTO 00000KT 1 3/4SM BR FEW001 05/03 A2988 RMK AO2 T00500033=
202312201503 METAR KCLM 201503Z AUTO 00000KT 3SM BR FEW001 04/03 A2988 RMK AO2 T00440033=
202312201503 SPECI KCLM 201503Z AUTO 00000KT 3SM BR FEW001 04/03 A2988 RMK AO2 T00440033=
202312201459 SPECI KCLM 201459Z AUTO 00000KT 1 1/4SM BR FEW001 04/03 A2988 RMK AO2 T00390028=
202312201453 METAR KCLM 201453Z AUTO 00000KT 3/4SM BR VV001 04/03 A2988 RMK AO2 SLP119 T00440028 53009=
202312201446 SPECI KCLM 201446Z AUTO 00000KT 1SM BR VV001 04/02 A2988 RMK AO2 T00390022=
202312201441 SPECI KCLM 201441Z AUTO 00000KT 1 3/4SM BR FEW025 04/02 A2988 RMK AO2 VIS 1V5 T00440022=
202312201433 SPECI KCLM 201433Z AUTO 13004KT 5SM BR FEW025 04/03 A2988 RMK AO2 T00440028=
202312201423 SPECI KCLM 201423Z AUTO 00000KT 2 1/2SM BR FEW001 SCT025 04/03 A2988 RMK AO2 VIS 1V5 T00440028=
202312201416 SPECI KCLM 201416Z AUTO 00000KT 3SM BR FEW001 SCT025 05/03 A2988 RMK AO2 T00500033=
202312201408 SPECI KCLM 201408Z AUTO 00000KT 1SM BR FEW001 SCT025 04/03 A2988 RMK AO2 VIS 1/2V2 T00440028=
202312201400 SPECI KCLM 201400Z AUTO 00000KT 3/4SM BR VV001 04/02 A2987 RMK AO2 T00390022=
202312201353 METAR KCLM 201353Z AUTO 00000KT 1 3/4SM BR FEW001 05/03 A2986 RMK AO2 VIS 1V3 SLP114 T00500028=
202312201350 SPECI KCLM 201350Z AUTO 00000KT 1 1/4SM BR FEW001 05/03 A2986 RMK AO2 VIS 1/2V3=
202312201338 SPECI KCLM 201338Z AUTO 00000KT 3/4SM BR VV001 04/04 A2986 RMK AO2 VIS 1/2V5 T00440039=
202312201335 SPECI KCLM 201335Z AUTO 00000KT 1 1/2SM BR FEW001 05/04 A2986 RMK AO2 VIS 1/2V5 T00500039=
202312201329 SPECI KCLM 201329Z AUTO 00000KT 3SM BR SCT001 06/05 A2986 RMK AO2 T00610050=
202312201326 SPECI KCLM 201326Z AUTO 00000KT 1 1/4SM BR SCT001 06/04 A2986 RMK AO2 VIS 1/2V5 T00610044=
202312201318 SPECI KCLM 201318Z AUTO 15003KT 1/2SM FG VV001 06/04 A2986 RMK AO2 T00560039=
202312201253 METAR KCLM 201253Z AUTO 00000KT 1/4SM FG VV001 06/05 A2986 RMK AO2 SLP112 T00610050=
202312201238 SPECI KCLM 201238Z AUTO 00000KT 1/4SM FG VV001 06/04 A2986 RMK AO2 T00610044=
202312201231 SPECI KCLM 201231Z AUTO 16003KT 1/4SM FG VV002 06/04 A2986 RMK AO2 T00610039=
202312201218 SPECI KCLM 201218Z AUTO 00000KT 3/4SM BR VV002 07/05 A2986 RMK AO2 T00720050=
202312201210 SPECI KCLM 201210Z AUTO 00000KT 2SM BR OVC002 06/05 A2986 RMK AO2 T00610050=
202312201205 SPECI KCLM 201205Z AUTO 00000KT 3/4SM BR BKN002 OVC030 07/05 A2986 RMK AO2 T00670050=
202312201157 SPECI KCLM 201157Z AUTO 00000KT 1 1/2SM BR BKN003 OVC030 06/05 A2985 RMK AO2 T00610050=
202312201153 METAR KCLM 201153Z AUTO 00000KT 7SM BKN003 OVC030 06/05 A2985 RMK AO2 SLP110 70001 T00610050 10094 20044 53017=
202312201143 SPECI KCLM 201143Z AUTO 00000KT 6SM BR FEW003 OVC030 06/04 A2985 RMK AO2 T00560039=
202312201129 SPECI KCLM 201129Z AUTO 24004KT 4SM BR FEW001 BKN029 06/04 A2985 RMK AO2 T00610044=
202312201122 SPECI KCLM 201122Z AUTO 27003KT 2SM BR FEW001 BKN029 06/04 A2984 RMK AO2 VIS 1/2V5 T00610044=
202312201110 SPECI KCLM 201110Z AUTO 00000KT 1/2SM FG SCT001 BKN029 06/03 A2984 RMK AO2 T00560033=
202312201103 SPECI KCLM 201103Z AUTO 00000KT 3/4SM BR VV002 05/04 A2984 RMK AO2 VIS 1/4V4 T00500039=
202312201053 METAR KCLM 201053Z AUTO 00000KT 1 1/2SM BR FEW002 04/03 A2983 RMK AO2 SLP103 T00440033=
202312201050 SPECI KCLM 201050Z AUTO 00000KT 1 3/4SM BR CLR 04/04 A2983 RMK AO2=
202312201039 SPECI KCLM 201039Z AUTO 00000KT 8SM CLR 06/04 A2983 RMK AO2 T00560039=
202312201030 SPECI KCLM 201030Z AUTO 11003KT 2 1/2SM BR CLR 05/03 A2982 RMK AO2 VIS 1 1/4V5 T00500033=
202312201021 SPECI KCLM 201021Z AUTO 12003KT 3SM BR FEW001 04/03 A2982 RMK AO2 T00440028=
202312201008 SPECI KCLM 201008Z AUTO 00000KT 1 3/4SM BR FEW001 06/04 A2981 RMK AO2 T00560039=
202312201006 SPECI KCLM 201006Z AUTO 00000KT 3SM BR FEW001 06/04 A2981 RMK AO2 T00610044=
202312200955 SPECI KCLM 200955Z AUTO 00000KT 1 1/2SM BR CLR 05/03 A2981 RMK AO2 T00500033=
202312200953 METAR KCLM 200953Z AUTO 00000KT 3SM BR CLR 05/03 A2981 RMK AO2 SLP095 T00500033=
202312200937 SPECI KCLM 200937Z AUTO 00000KT 3SM BR CLR 07/05 A2980 RMK AO2 T00670050=
202312200918 SPECI KCLM 200918Z AUTO 21004KT 1 1/4SM BR FEW001 SCT023 06/04 A2980 RMK AO2 T00560044=
202312200906 SPECI KCLM 200906Z AUTO 22003KT 2SM BR SCT001 BKN023 07/05 A2980 RMK AO2 VIS 3/4V5 T00670050=
202312200903 SPECI KCLM 200903Z AUTO 24003KT 3/4SM BR BKN001 BKN023 07/05 A2981 RMK AO2 T00670050=
202312200853 METAR KCLM 200853Z AUTO 00000KT 1/4SM FG VV001 06/05 A2980 RMK AO2 SLP092 T00610050 51019=
202312200834 SPECI KCLM 200834Z AUTO 00000KT 1/4SM FG VV001 07/06 A2979 RMK AO2 T00720056=
202312200817 SPECI KCLM 200817Z AUTO 22004KT 3/4SM BR VV001 07/06 A2979 RMK AO2 T00720056=
202312200804 SPECI KCLM 200804Z AUTO 24003KT 1/4SM FG BKN001 OVC006 08/06 A2979 RMK AO2 T00780061=
202312200756 SPECI KCLM 200756Z AUTO 21004KT 1/2SM FG BKN001 OVC006 08/06 A2979 RMK AO2 T00780061=
202312200753 METAR KCLM 200753Z AUTO 22003KT 1SM BR SCT001 BKN006 08/06 A2979 RMK AO2 SLP087 T00780061 401060078=
202312200751 SPECI KCLM 200751Z AUTO 25003KT 1 3/4SM BR FEW001 BKN006 08/06 A2979 RMK AO2=
202312200653 METAR KCLM 200653Z AUTO 00000KT 10SM OVC006 09/08 A2977 RMK AO2 SLP082 T00940078=
202312200553 METAR KCLM 200553Z AUTO 22003KT 10SM OVC006 09/07 A2975 RMK AO2 SLP073 T00940072 10106 20078 51024=
202312200453 METAR KCLM 200453Z AUTO 21004KT 10SM OVC006 08/07 A2973 RMK AO2 SLP066 T00830067=
202312200417 SPECI KCLM 200417Z AUTO 21003KT 3SM BR OVC005 08/07 A2971 RMK AO2 T00830067=
202312200404 SPECI KCLM 200404Z AUTO 00000KT 1 3/4SM BR BKN005 OVC070 08/07 A2970 RMK AO2 CIG 005V009 T00830067=
202312200353 METAR KCLM 200353Z AUTO 00000KT 7SM BKN007 BKN070 08/07 A2970 RMK AO2 SLP056 T00830067=
202312200253 METAR KCLM 200253Z AUTO 23005KT 10SM BKN008 OVC055 09/07 A2967 RMK AO2 SLP049 T00890067 51022=
202312200153 METAR KCLM 200153Z AUTO 25003KT 10SM OVC008 09/07 A2966 RMK AO2 SLP043 T00940072=
202312200053 METAR KCLM 200053Z AUTO 00000KT 10SM OVC009 10/08 A2963 RMK AO2 SLP035 T01000078=
202312200044 SPECI KCLM 200044Z AUTO 34003KT 10SM OVC009 10/08 A2963 RMK AO2 T01000078=
202312192353 METAR KCLM 192353Z AUTO 24003KT 10SM BKN011 OVC017 11/08 A2961 RMK AO2 RAB02E16 SLP026 P0000 60001 T01060078 10106 20094 53024=
202312192253 METAR KCLM 192253Z AUTO 24006KT 10SM OVC013 11/08 A2958 RMK AO2 SLP017 T01060078=
202312192212 SPECI KCLM 192212Z AUTO 25008KT 10SM FEW008 OVC012 11/08 A2956 RMK AO2 T01060078=
202312192203 SPECI KCLM 192203Z AUTO 27009KT 10SM OVC011 11/08 A2955 RMK AO2 T01060078=
202312192153 METAR KCLM 192153Z AUTO 26008KT 10SM BKN009 BKN015 OVC070 11/08 A2956 RMK AO2 RAE15 CIG 007V011 SLP009 P0000 T01060078=
202312192145 SPECI KCLM 192145Z AUTO 27009KT 10SM BKN009 BKN015 OVC070 11/08 A2955 RMK AO2 RAE15 P0000 T01060078=
202312192053 METAR KCLM 192053Z AUTO 27007KT 10SM -RA SCT012 OVC080 10/07 A2953 RMK AO2 RAB25 SLP002 P0001 60001 T01000072 51013=
202312191953 METAR KCLM 191953Z AUTO 26004KT 10SM FEW070 FEW120 10/07 A2952 RMK AO2 SLP997 T01000067=
202312191853 METAR KCLM 191853Z AUTO 24004KT 10SM FEW018 BKN070 BKN120 10/07 A2952 RMK AO2 SLP996 T01000067=
202312191835 SPECI KCLM 191835Z AUTO 21005KT 10SM SCT018 BKN070 10/07 A2951 RMK AO2 T01000067=
202312191753 METAR KCLM 191753Z AUTO 25009KT 10SM BKN019 BKN070 OVC100 09/07 A2950 RMK AO2 SLP989 T00940067 10094 20083 53008=
202312191653 METAR KCLM 191653Z AUTO 24006KT 10SM FEW010 OVC016 09/06 A2948 RMK AO2 SLP983 T00890061=
202312191616 SPECI KCLM 191616Z AUTO 24006KT 10SM OVC010 08/06 A2947 RMK AO2 T00830061=
202312191553 METAR KCLM 191553Z AUTO 24005KT 10SM OVC008 08/06 A2947 RMK AO2 SLP980 T00830061=
202312191453 METAR KCLM 191453Z AUTO 27003KT 10SM OVC007 08/07 A2947 RMK AO2 SLP980 T00830067 55001=
202312191414 SPECI KCLM 191414Z AUTO 00000KT 6SM BR OVC007 08/07 A2947 RMK AO2 T00830067=
202312191400 SPECI KCLM 191400Z AUTO 00000KT 7SM OVC010 08/07 A2947 RMK AO2 CIG 007V012 T00830067=
202312191353 METAR KCLM 191353Z AUTO 00000KT 7SM OVC009 08/07 A2947 RMK AO2 CIG 006V012 SLP979 T00830067=
202312191253 METAR KCLM 191253Z AUTO 14004KT 5SM BR OVC005 08/06 A2947 RMK AO2 SLP978 T00830061=
202312191153 METAR KCLM 191153Z AUTO 00000KT 6SM BR OVC004 08/06 A2948 RMK AO2 SLP982 70001 T00830061 10083 20078 57008=
202312191053 METAR KCLM 191053Z AUTO 20003KT 6SM BR OVC004 08/07 A2949 RMK AO2 SLP985 T00830067=
202312190953 METAR KCLM 190953Z AUTO 24005KT 10SM OVC004 08/06 A2949 RMK AO2 SLP987 T00780056=
202312190853 METAR KCLM 190853Z AUTO 25005KT 10SM OVC004 08/06 A2950 RMK AO2 SLP990 T00780056 58014=
202312190753 METAR KCLM 190753Z AUTO 23005KT 10SM OVC006 08/06 A2952 RMK AO2 SLP995 T00780061 401000033=
202312190653 METAR KCLM 190653Z AUTO 22004KT 8SM OVC007 08/06 A2953 RMK AO2 SLP001 T00780061=
202312190553 METAR KCLM 190553Z AUTO 23003KT 6SM BR OVC009 08/06 A2954 RMK AO2 SLP005 60000 T00780061 10078 20078 57009=
202312190453 METAR KCLM 190453Z AUTO 21004KT 6SM BR OVC007 08/06 A2955 RMK AO2 SLP008 T00780056=
202312190353 METAR KCLM 190353Z AUTO 00000KT 7SM OVC007 08/06 A2956 RMK AO2 SLP011 T00780056=
202312190327 SPECI KCLM 190327Z AUTO 00000KT 6SM BR OVC009 08/06 A2956 RMK AO2 CIG 008V013 T00780056=
202312190253 METAR KCLM 190253Z AUTO 11003KT 6SM BR OVC010 08/06 A2957 RMK AO2 CIG 008V014 SLP014 60000 T00780056 56014=
202312190153 METAR KCLM 190153Z AUTO 00000KT 6SM BR OVC008 08/06 A2958 RMK AO2 RAB0056E24 CIG 005V011 SLP017 P0000 T00780056=
202312190053 METAR KCLM 190053Z AUTO 00000KT 6SM BR OVC007 08/06 A2959 RMK AO2 SLP023 T00780056=
202312182353 METAR KCLM 182353Z AUTO 00000KT 6SM BR OVC009 08/06 A2961 RMK AO2 SLP028 60001 T00780056 10089 20061 56022=
202312182253 METAR KCLM 182253Z AUTO 08003KT 9SM OVC009 08/06 A2962 RMK AO2 RAB00E48 CIG 007V011 SLP032 P0001 T00830056=
202312182153 METAR KCLM 182153Z AUTO 07003KT 10SM OVC007 08/06 A2965 RMK AO2 SLP041 T00830056=
202312182053 METAR KCLM 182053Z AUTO 10004KT 10SM OVC008 09/06 A2967 RMK AO2 RAB28E40 SLP049 P0000 60000 T00890056 58023=
202312181953 METAR KCLM 181953Z AUTO 07003KT 10SM OVC009 09/06 A2970 RMK AO2 CIG 007V011 SLP057 T00890056=
202312181943 SPECI KCLM 181943Z AUTO 00000KT 10SM BKN009 OVC013 09/06 A2970 RMK AO2 CIG 007V012 T00890056=
202312181909 SPECI KCLM 181909Z AUTO 14003KT 10SM OVC010 08/06 A2971 RMK AO2 T00830061=
202312181853 METAR KCLM 181853Z AUTO 00000KT 10SM BKN006 OVC010 08/06 A2972 RMK AO2 SLP066 T00780061=
202312181753 METAR KCLM 181753Z AUTO 18003KT 10SM BKN007 OVC011 07/04 A2974 RMK AO2 CIG 005V009 SLP073 T00670044 10072 20033 55002=
202312181709 SPECI KCLM 181709Z AUTO 00000KT 7SM BKN005 BKN012 04/03 A2973 RMK AO2 T00440028=
202312181653 METAR KCLM 181653Z AUTO 00000KT 7SM FEW005 04/03 A2973 RMK AO2 SLP070 T00440028=
202312181613 SPECI KCLM 181613Z AUTO 00000KT 3SM BR CLR 04/02 A2974 RMK AO2 T00390017=
202312181553 METAR KCLM 181553Z AUTO 00000KT 1 3/4SM BR CLR 04/02 A2975 RMK AO2 SLP075 T00390022=
202312181548 SPECI KCLM 181548Z AUTO 00000KT 1 1/2SM BR CLR 04/02 A2975 RMK AO2=
202312181541 METAR KCLM 181541Z AUTO 00000KT 2SM BR CLR 03/02 A2975 RMK AO2 VIS 1 1/4V3 T00330017=
202312181541 SPECI KCLM 181541Z AUTO 00000KT 2SM BR CLR 03/02 A2975 RMK AO2 VIS 1 1/4V3 T00330017=
202312181453 METAR KCLM 181453Z AUTO 14003KT 9SM BKN100 05/03 A2977 RMK AO2 SLP083 T00500033 56024=
202312181353 METAR KCLM 181353Z AUTO 00000KT 10SM BKN120 06/04 A2979 RMK AO2 SLP091 T00560039=
202312181253 METAR KCLM 181253Z AUTO 00000KT 10SM BKN110 06/04 A2982 RMK AO2 SLP100 T00610039=
202312181153 METAR KCLM 181153Z AUTO 13006KT 10SM CLR 07/04 A2984 RMK AO2 SLP107 T00670039 10100 20061 56018=
202312181053 METAR KCLM 181053Z AUTO 16003KT 10SM CLR 07/04 A2986 RMK AO2 SLP114 T00670044=
202312180953 METAR KCLM 180953Z AUTO 22006KT 10SM CLR 07/04 A2988 RMK AO2 SLP117 T00720044=
202312180853 METAR KCLM 180853Z AUTO 00000KT 10SM CLR 07/04 A2990 RMK AO2 SLP125 T00720044 57022=
202312180753 METAR KCLM 180753Z AUTO 19003KT 10SM CLR 08/04 A2993 RMK AO2 SLP134 T00830039 401000056=
202312180653 METAR KCLM 180653Z AUTO 11004KT 10SM CLR 09/04 A2993 RMK AO2 SLP137 T00940039=
202312180553 METAR KCLM 180553Z AUTO 12006KT 10SM CLR 08/04 A2996 RMK AO2 SLP148 T00830039 10089 20061 58019=
202312180453 METAR KCLM 180453Z AUTO 15005KT 10SM FEW120 09/04 A2999 RMK AO2 SLP158 T00890044=
202312180353 METAR KCLM 180353Z AUTO 12004KT 10SM CLR 07/04 A3000 RMK AO2 SLP159 T00670039=
202312180253 METAR KCLM 180253Z AUTO 19005KT 7SM SCT100 07/04 A3002 RMK AO2 SLP167 T00670044 58011=
202312180153 METAR KCLM 180153Z AUTO 00000KT 8SM FEW100 SCT120 07/05 A3003 RMK AO2 SLP171 T00670050=
202312180053 METAR KCLM 180053Z AUTO 00000KT 10SM FEW110 07/06 A3004 RMK AO2 SLP174 T00720056=
202312180008 SPECI KCLM 180008Z AUTO 11004KT 10SM SCT008 BKN100 08/06 A3005 RMK AO2 T00830056=
202312172353 METAR KCLM 172353Z AUTO 09005KT 10SM BKN008 08/06 A3005 RMK AO2 SLP178 60000 T00830056 10094 20067 56020=
202312172346 SPECI KCLM 172346Z AUTO 09004KT 10SM SCT008 08/06 A3006 RMK AO2 T00830056=
202312172253 METAR KCLM 172253Z AUTO 07005KT 10SM CLR 09/06 A3007 RMK AO2 SLP184 T00890056=
202312172153 METAR KCLM 172153Z AUTO 08008KT 10SM BKN090 09/06 A3009 RMK AO2 SLP192 T00940056=
202312172128 SPECI KCLM 172128Z AUTO 09006KT 10SM SCT008 OVC080 09/06 A3011 RMK AO2 T00890056=
202312172053 METAR KCLM 172053Z AUTO 08006KT 10SM OVC008 09/06 A3011 RMK AO2 RAE1954 SLP198 P0000 60000 T00940056 58028=
202312172039 SPECI KCLM 172039Z AUTO 10007KT 10SM BKN008 BKN100 09/06 A3012 RMK AO2 RAE1954 P0000 T00890056=
202312171953 METAR KCLM 171953Z AUTO 11006KT 10SM -RA FEW008 FEW070 OVC095 08/05 A3014 RMK AO2 RAB43 SLP209 P0000 T00830050=
202312171921 SPECI KCLM 171921Z AUTO 12006KT 10SM FEW008 OVC100 08/05 A3017 RMK AO2 T00780050=
202312171912 SPECI KCLM 171912Z AUTO 11006KT 10SM BKN008 OVC095 08/05 A3017 RMK AO2 T00780050=
202312171853 METAR KCLM 171853Z AUTO 12006KT 10SM SCT008 OVC100 08/04 A3018 RMK AO2 SLP222 T00780044=
202312171753 METAR KCLM 171753Z AUTO 12005KT 9SM FEW009 FEW070 OVC090 07/04 A3019 RMK AO2 SLP226 T00670044 10067 20056 52001=
202312171748 SPECI KCLM 171748Z AUTO 13005KT 9SM SCT009 SCT070 OVC085 07/04 A3020 RMK AO2=
202312171653 METAR KCLM 171653Z AUTO 12003KT 9SM OVC008 06/04 A3019 RMK AO2 SLP225 T00610039=
202312171553 METAR KCLM 171553Z AUTO 00000KT 9SM OVC007 06/04 A3019 RMK AO2 SLP226 T00610039=
202312171453 METAR KCLM 171453Z AUTO 00000KT 9SM OVC005 06/04 A3020 RMK AO2 SLP229 T00610039 55001=
202312171353 METAR KCLM 171353Z AUTO 12005KT 7SM OVC003 06/04 A3020 RMK AO2 SLP228 T00560039=
202312171253 METAR KCLM 171253Z AUTO 15006KT 8SM OVC003 06/04 A3020 RMK AO2 SLP230 T00610039=
202312171153 METAR KCLM 171153Z AUTO 10004KT 7SM OVC004 07/04 A3020 RMK AO2 SLP230 T00670044 10067 20056 58005=
202312171053 METAR KCLM 171053Z AUTO 12005KT 5SM BR OVC003 07/04 A3022 RMK AO2 SLP235 T00670044=
202312170953 METAR KCLM 170953Z AUTO 12005KT 8SM OVC004 06/04 A3022 RMK AO2 SLP234 T00610039=
202312170853 METAR KCLM 170853Z AUTO 13003KT 10SM OVC004 06/04 A3022 RMK AO2 SLP235 T00610039 53001=
202312170753 METAR KCLM 170753Z AUTO 14004KT 5SM BR OVC002 06/04 A3021 RMK AO2 SLP232 T00610044 400780017=
202312170653 METAR KCLM 170653Z AUTO 13004KT 9SM OVC004 06/04 A3021 RMK AO2 SLP232 T00560039=
202312170553 METAR KCLM 170553Z AUTO 13005KT 9SM OVC004 06/04 A3021 RMK AO2 SLP233 T00610044 10072 20061 53008=
202312170453 METAR KCLM 170453Z AUTO 13003KT 7SM OVC003 06/05 A3021 RMK AO2 SLP232 T00610050=
202312170353 METAR KCLM 170353Z AUTO 14003KT 6SM BR OVC003 07/05 A3019 RMK AO2 SLP226 T00670050=
202312170336 SPECI KCLM 170336Z AUTO 14003KT 4SM BR OVC002 07/05 A3019 RMK AO2 T00670050=
202312170328 SPECI KCLM 170328Z AUTO 15004KT 2 1/2SM BR OVC002 07/05 A3019 RMK AO2 T00670050=
202312170305 SPECI KCLM 170305Z AUTO 15003KT 1 1/2SM BR OVC002 07/05 A3019 RMK AO2 T00670050=
202312170253 METAR KCLM 170253Z AUTO 16003KT 3/4SM BR VV002 07/05 A3019 RMK AO2 SLP225 T00670050 51008=
202312170232 SPECI KCLM 170232Z AUTO 18003KT 3/4SM BR VV002 07/05 A3019 RMK AO2 T00670050=
202312170153 METAR KCLM 170153Z AUTO 13003KT 1 1/2SM BR OVC002 07/05 A3019 RMK AO2 SLP225 T00670050=
202312170141 SPECI KCLM 170141Z AUTO 00000KT 1 1/2SM BR OVC002 07/06 A3019 RMK AO2 T00720056=
202312170118 SPECI KCLM 170118Z AUTO 00000KT 2 1/2SM BR OVC002 07/06 A3019 RMK AO2 T00720056=
202312170053 METAR KCLM 170053Z AUTO 13004KT 3SM BR OVC002 07/06 A3018 RMK AO2 SLP221 T00720056=
202312170019 SPECI KCLM 170019Z AUTO 12003KT 4SM BR OVC002 07/06 A3018 RMK AO2 T00720056=
202312170004 SPECI KCLM 170004Z AUTO 11003KT 2SM BR OVC002 07/06 A3017 RMK AO2 T00720056=
202312162353 METAR KCLM 162353Z AUTO 11004KT 1 1/2SM BR OVC002 07/06 A3017 RMK AO2 SLP218 T00720056 10078 20050 50013=
202312162349 SPECI KCLM 162349Z AUTO 12004KT 1SM BR VV002 07/06 A3017 RMK AO2=
202312162333 SPECI KCLM 162333Z AUTO 14003KT 1/4SM FG VV002 07/06 A3017 RMK AO2 T00720056=
202312162253 METAR KCLM 162253Z AUTO 06005KT M1/4SM FG VV001 07/05 A3014 RMK AO2 SLP208 T00670050=
202312162242 SPECI KCLM 162242Z AUTO 03003KT M1/4SM FG VV001 07/06 A3013 RMK AO2 T00720056=
202312162229 SPECI KCLM 162229Z AUTO 00000KT 1/4SM FG VV002 08/06 A3013 RMK AO2 T00780061=
202312162222 SPECI KCLM 162222Z AUTO 00000KT 1/4SM FG VV001 08/06 A3013 RMK AO2 T00780056=
202312162153 METAR KCLM 162153Z AUTO 00000KT 1/4SM FG VV002 08/06 A3013 RMK AO2 SLP204 T00780061=
202312162143 SPECI KCLM 162143Z AUTO VRB03KT 1/4SM FG VV002 08/06 A3014 RMK AO2 T00780061=
202312162125 SPECI KCLM 162125Z AUTO 09003KT 3/4SM BR OVC002 08/06 A3016 RMK AO2 T00780056=
202312162115 SPECI KCLM 162115Z AUTO 11003KT 1 1/2SM BR OVC002 07/06 A3016 RMK AO2 T00720056=
202312162100 SPECI KCLM 162100Z AUTO 00000KT 5SM BR OVC002 08/06 A3017 RMK AO2 T00780056=
202312162053 METAR KCLM 162053Z AUTO 07003KT 6SM BR OVC001 08/06 A3017 RMK AO2 SLP217 T00780061 50002=
202312162048 SPECI KCLM 162048Z AUTO 11003KT 3SM BR OVC001 08/06 A3016 RMK AO2=
202312162042 SPECI KCLM 162042Z AUTO 00000KT 1SM BR OVC001 07/06 A3016 RMK AO2 T00720056=
202312162008 SPECI KCLM 162008Z AUTO 14003KT 1/2SM FG VV002 07/06 A3017 RMK AO2 T00720056=
202312162001 SPECI KCLM 162001Z AUTO 13003KT 1SM BR VV003 07/06 A3017 RMK AO2 VIS 1/2V5 T00720056=
202312161953 METAR KCLM 161953Z AUTO 13003KT 10SM FEW004 08/06 A3017 RMK AO2 SLP218 T00780056=
202312161912 SPECI KCLM 161912Z AUTO 00000KT 10SM FEW004 08/06 A3017 RMK AO2 T00780056=
202312161853 METAR KCLM 161853Z AUTO 03003KT 9SM CLR 07/05 A3017 RMK AO2 SLP219 T00720050=
202312161753 METAR KCLM 161753Z AUTO 00000KT 5SM BR CLR 05/04 A3016 RMK AO2 SLP215 T00500039 10050 20022 53004=
202312161653 METAR KCLM 161653Z AUTO 00000KT 5SM BR CLR 03/02 A3015 RMK AO2 SLP211 T00330017=
202312161622 SPECI KCLM 161622Z AUTO 22005KT 8SM FEW025 03/02 A3015 RMK AO2 T00280017=
202312161609 SPECI KCLM 161609Z AUTO 22004KT 8SM SCT001 BKN024 03/02 A3015 RMK AO2 T00280017=
202312161553 METAR KCLM 161553Z AUTO 00000KT 7SM BKN001 OVC023 03/02 A3015 RMK AO2 SLP211 T00330017=
202312161525 SPECI KCLM 161525Z AUTO 00000KT 3SM BR SCT001 OVC023 03/02 A3015 RMK AO2 T00280017=
202312161517 SPECI KCLM 161517Z AUTO 00000KT 1SM BR SCT001 OVC023 03/02 A3015 RMK AO2 T00330017=
202312161507 SPECI KCLM 161507Z AUTO 00000KT 1/2SM FG VV001 03/02 A3014 RMK AO2 T00280017=
202312161453 METAR KCLM 161453Z AUTO 00000KT 1/4SM FG VV001 03/02 A3014 RMK AO2 SLP207 T00330022 56003=
202312161451 SPECI KCLM 161451Z AUTO 00000KT M1/4SM FG VV001 04/02 A3014 RMK AO2=
202312161353 METAR KCLM 161353Z AUTO 21003KT 1/4SM FG VV001 03/02 A3014 RMK AO2 SLP207 T00330022=
202312161253 METAR KCLM 161253Z AUTO 00000KT 1/4SM FG VV001 03/01 A3015 RMK AO2 SLP211 T00280011=
202312161245 SPECI KCLM 161245Z AUTO 00000KT 3/4SM BR OVC001 03/01 A3015 RMK AO2 T00280011=
202312161215 SPECI KCLM 161215Z AUTO 22006KT 10SM BKN001 03/02 A3015 RMK AO2 T00330017=
202312161207 SPECI KCLM 161207Z AUTO 22005KT 10SM BKN002 03/01 A3015 RMK AO2 T00280011=
202312161153 METAR KCLM 161153Z AUTO 21005KT 10SM FEW002 03/02 A3014 RMK AO2 SLP210 I6000 T00330017 10050 20017 55001=
202312161130 SPECI KCLM 161130Z AUTO 21006KT 3SM BR CLR 03/01 A3014 RMK AO2 T00280011=
202312161123 SPECI KCLM 161123Z AUTO 22004KT 1 3/4SM BR CLR 02/01 A3014 RMK AO2 T00220006=
202312161053 METAR KCLM 161053Z AUTO 00000KT 8SM CLR 03/01 A3013 RMK AO2 SLP206 T00280006=
202312160953 METAR KCLM 160953Z AUTO 23003KT 5SM BR CLR 03/01 A3014 RMK AO2 SLP207 I1000 T00280011=
202312160938 SPECI KCLM 160938Z AUTO 23003KT 3SM BR CLR 03/01 A3013 RMK AO2 I1000 T00280011=
202312160933 SPECI KCLM 160933Z AUTO 00000KT 1SM BR CLR 02/01 A3014 RMK AO2 VIS 1/4V4 I1000 T00220006=
202312160929 SPECI KCLM 160929Z AUTO 00000KT 3/4SM BR VV002 02/01 A3014 RMK AO2 T00220006=
202312160922 SPECI KCLM 160922Z AUTO 00000KT 1SM BR VV002 02/01 A3014 RMK AO2 T00220006=
202312160907 SPECI KCLM 160907Z AUTO 00000KT 2SM BR CLR 03/01 A3014 RMK AO2 VIS 1V5 T00280011=
202312160900 SPECI KCLM 160900Z AUTO 00000KT 3SM BR CLR 03/02 A3015 RMK AO2 T00330017=
202312160853 METAR KCLM 160853Z AUTO 00000KT 1SM BR CLR 03/01 A3015 RMK AO2 SLP210 T00280011 56006=
202312160845 SPECI KCLM 160845Z AUTO 00000KT 1 3/4SM BR CLR 03/01 A3015 RMK AO2 T00280011=
202312160819 SPECI KCLM 160819Z AUTO 00000KT 3SM BR CLR 03/02 A3015 RMK AO2 T00280017=
202312160811 SPECI KCLM 160811Z AUTO 00000KT 1SM BR CLR 03/02 A3015 RMK AO2 T00330017=
202312160803 SPECI KCLM 160803Z AUTO 00000KT 3/4SM BR VV002 03/02 A3015 RMK AO2 T00330017=
202312160753 METAR KCLM 160753Z AUTO 00000KT 3/4SM BR CLR 03/02 A3015 RMK AO2 SLP211 T00330017 400940022=
202312160749 SPECI KCLM 160749Z AUTO 00000KT 3/4SM BR CLR 03/02 A3015 RMK AO2=
202312160741 SPECI KCLM 160741Z AUTO 00000KT 1SM BR VV001 03/01 A3015 RMK AO2 T00330011=
202312160734 SPECI KCLM 160734Z AUTO 20003KT 2SM BR CLR 02/01 A3016 RMK AO2 T00220011=
202312160721 SPECI KCLM 160721Z AUTO 21003KT 3SM BR CLR 04/02 A3015 RMK AO2 T00390017=
202312160705 SPECI KCLM 160705Z AUTO 21003KT 1 3/4SM BR CLR 03/02 A3015 RMK AO2 T00280017=
202312160657 SPECI KCLM 160657Z AUTO 21003KT 4SM BR FEW002 04/02 A3015 RMK AO2 T00440022=
202312160653 METAR KCLM 160653Z AUTO 20003KT 1 1/4SM BR FEW002 04/02 A3015 RMK AO2 SLP212 T00390022=
202312160635 SPECI KCLM 160635Z AUTO 00000KT 1/2SM FG VV002 04/03 A3016 RMK AO2 T00440028=
202312160629 SPECI KCLM 160629Z AUTO 00000KT 1SM BR VV001 04/03 A3016 RMK AO2 T00440028=
202312160623 SPECI KCLM 160623Z AUTO 00000KT 1 1/4SM BR FEW001 05/03 A3016 RMK AO2 T00500028=
202312160607 SPECI KCLM 160607Z AUTO 00000KT 1/2SM FG VV002 05/03 A3016 RMK AO2 T00500028=
202312160557 SPECI KCLM 160557Z AUTO 22003KT 1 3/4SM BR CLR 04/03 A3017 RMK AO2 T00440028=
202312160553 METAR KCLM 160553Z AUTO 22003KT 4SM BR CLR 05/03 A3017 RMK AO2 SLP217 T00500033 10083 20044 58003=
202312160544 SPECI KCLM 160544Z AUTO 21004KT 3SM BR CLR 04/03 A3016 RMK AO2 T00440033=
202312160538 SPECI KCLM 160538Z AUTO 21003KT 1 3/4SM BR CLR 06/03 A3016 RMK AO2 VIS 1V4 T00560033=
202312160518 SPECI KCLM 160518Z AUTO 21004KT 10SM SCT006 06/04 A3017 RMK AO2 T00610044=
202312160453 METAR KCLM 160453Z AUTO 00000KT 10SM OVC006 07/05 A3017 RMK AO2 SLP217 T00670050=
202312160406 SPECI KCLM 160406Z AUTO 00000KT 10SM BKN007 07/05 A3017 RMK AO2 CIG 003V009 T00670050=
202312160353 METAR KCLM 160353Z AUTO 00000KT 10SM BKN004 07/06 A3017 RMK AO2 SLP220 T00720056=
202312160349 SPECI KCLM 160349Z AUTO 20004KT 10SM OVC004 07/06 A3017 RMK AO2=
202312160253 METAR KCLM 160253Z AUTO 08003KT 10SM OVC005 08/06 A3017 RMK AO2 SLP218 T00830056 58004=
202312160221 SPECI KCLM 160221Z AUTO 10003KT 10SM OVC004 08/06 A3017 RMK AO2 T00830061=
202312160153 METAR KCLM 160153Z AUTO 13005KT 10SM OVC006 08/06 A3017 RMK AO2 SLP219 T00780056=
202312160053 METAR KCLM 160053Z AUTO 12003KT 10SM OVC007 08/06 A3019 RMK AO2 SLP222 T00830061=
202312152353 METAR KCLM 152353Z AUTO 00000KT 10SM OVC007 08/06 A3018 RMK AO2 SLP223 T00830061 10094 20083 55006=
202312152253 METAR KCLM 152253Z AUTO 07003KT 10SM OVC007 09/06 A3017 RMK AO2 SLP217 T00890061=
202312152153 METAR KCLM 152153Z AUTO 00000KT 10SM OVC008 09/06 A3018 RMK AO2 SLP222 T00890061=
202312152053 METAR KCLM 152053Z AUTO 00000KT 10SM OVC008 09/07 A3020 RMK AO2 SLP228 T00890067 58014=
202312152044 SPECI KCLM 152044Z AUTO 07003KT 10SM OVC009 09/06 A3020 RMK AO2 T00890061=
202312152023 SPECI KCLM 152023Z AUTO 00000KT 10SM OVC010 09/06 A3021 RMK AO2 T00890061=
202312151953 METAR KCLM 151953Z AUTO 00000KT 10SM OVC009 09/06 A3022 RMK AO2 SLP234 T00890061=
202312151853 METAR KCLM 151853Z AUTO 00000KT 10SM OVC007 09/06 A3024 RMK AO2 SLP240 T00890061=
202312151753 METAR KCLM 151753Z AUTO 00000KT 10SM OVC008 08/06 A3024 RMK AO2 SLP241 T00830061 10083 20072 50002=
202312151703 SPECI KCLM 151703Z AUTO 00000KT 10SM OVC009 08/06 A3025 RMK AO2 CIG 007V011 T00830061=
202312151653 METAR KCLM 151653Z AUTO 00000KT 10SM OVC010 08/06 A3025 RMK AO2 CIG 007V012 SLP244 T00830061=
202312151553 METAR KCLM 151553Z AUTO 00000KT 10SM OVC010 08/06 A3023 RMK AO2 SLP239 T00830056=
202312151533 SPECI KCLM 151533Z AUTO 08005KT 10SM OVC010 08/06 A3023 RMK AO2 T00830056=
202312151453 METAR KCLM 151453Z AUTO VRB04KT 10SM OVC007 08/06 A3024 RMK AO2 CIG 006V011 SLP240 T00830056 53004=
202312151353 METAR KCLM 151353Z AUTO 00000KT 10SM OVC005 08/06 A3023 RMK AO2 SLP238 T00830061=
202312151346 SPECI KCLM 151346Z AUTO VRB03KT 10SM OVC005 08/06 A3022 RMK AO2 T00830061=
202312151306 SPECI KCLM 151306Z AUTO 05003KT 4SM BR OVC004 08/06 A3023 RMK AO2 T00780061=
202312151253 METAR KCLM 151253Z AUTO 00000KT 4SM BR OVC005 08/06 A3023 RMK AO2 CIG 002V008 SLP237 T00780061=
202312151153 METAR KCLM 151153Z AUTO 24004KT 4SM BR OVC005 07/06 A3022 RMK AO2 SLP237 60005 70011 T00720056 10083 20072 55000=
202312151127 SPECI KCLM 151127Z AUTO 00000KT 3SM BR OVC005 08/06 A3022 RMK AO2 CIG 003V008 T00780061=
202312151114 SPECI KCLM 151114Z AUTO 00000KT 2 1/2SM BR OVC005 08/06 A3022 RMK AO2 T00780061=
202312151053 METAR KCLM 151053Z AUTO 00000KT 2SM BR OVC004 08/06 A3022 RMK AO2 SLP233 T00780061=
202312150953 METAR KCLM 150953Z AUTO 00000KT 2SM BR OVC006 08/06 A3023 RMK AO2 RAE14B25E37 SLP237 P0002 T00780061=
202312150949 SPECI KCLM 150949Z AUTO 00000KT 2SM BR OVC006 08/06 A3022 RMK AO2 RAE14B25E37 P0002=
202312150921 SPECI KCLM 150921Z AUTO 00000KT 1 3/4SM BR OVC006 08/06 A3023 RMK AO2 RAE14 P0001 T00780061=
202312150914 SPECI KCLM 150914Z AUTO 00000KT 3SM BR OVC006 08/06 A3024 RMK AO2 RAE14 P0001 T00780061=
202312150853 METAR KCLM 150853Z AUTO 00000KT 2 1/2SM -RA BR OVC006 08/06 A3023 RMK AO2 RAB0758 SLP236 P0003 60003 T00780061 58004=
202312150753 METAR KCLM 150753Z AUTO 00000KT 2 1/2SM BR BKN009 OVC013 08/06 A3023 RMK AO2 CIG 007V012 SLP238 T00780056 400890061=
202312150750 SPECI KCLM 150750Z AUTO 00000KT 2 1/2SM BR BKN009 OVC015 08/06 A3023 RMK AO2=
202312150739 SPECI KCLM 150739Z AUTO 00000KT 7SM BKN012 OVC020 08/06 A3023 RMK AO2 T00780061=
202312150719 SPECI KCLM 150719Z AUTO 13003KT 9SM SCT006 OVC021 08/06 A3023 RMK AO2 T00780061=
202312150653 METAR KCLM 150653Z AUTO 12003KT 8SM OVC005 08/06 A3024 RMK AO2 CIG 004V009 SLP240 T00830061=
202312150648 SPECI KCLM 150648Z AUTO 13003KT 8SM BKN006 OVC010 08/06 A3024 RMK AO2=
202312150634 SPECI KCLM 150634Z AUTO 11005KT 7SM BKN004 BKN009 OVC013 08/06 A3023 RMK AO2 T00830061=
202312150616 SPECI KCLM 150616Z AUTO 11005KT 9SM FEW004 BKN013 OVC029 08/06 A3022 RMK AO2 T00830061=
202312150601 SPECI KCLM 150601Z AUTO 10005KT 9SM FEW006 SCT011 OVC030 08/06 A3023 RMK AO2 T00830061=
202312150553 METAR KCLM 150553Z AUTO 09004KT 8SM OVC030 08/06 A3023 RMK AO2 SLP236 T00830061 10089 20072 58005=
202312150538 SPECI KCLM 150538Z AUTO 11003KT 7SM FEW004 SCT009 OVC031 08/06 A3023 RMK AO2 T00780061=
202312150515 SPECI KCLM 150515Z AUTO 10005KT 7SM BKN005 BKN010 OVC030 08/06 A3022 RMK AO2 T00830061=
202312150453 METAR KCLM 150453Z AUTO 10005KT 8SM FEW006 BKN014 OVC028 08/06 A3023 RMK AO2 SLP236 T00830061=
202312150446 SPECI KCLM 150446Z AUTO 11005KT 7SM BKN006 BKN014 OVC029 08/06 A3023 RMK AO2 CIG 004V010 T00830061=
202312150433 SPECI KCLM 150433Z AUTO 11005KT 8SM SCT006 BKN014 OVC022 08/06 A3023 RMK AO2 T00830061=
202312150422 SPECI KCLM 150422Z AUTO 09005KT 4SM BR BKN007 BKN011 OVC031 08/06 A3023 RMK AO2 CIG 005V010 T00780061=
202312150412 SPECI KCLM 150412Z AUTO 13004KT 4SM BR FEW007 BKN021 OVC031 08/06 A3024 RMK AO2 T00780056=
202312150353 METAR KCLM 150353Z AUTO 10003KT 5SM BR OVC021 07/06 A3024 RMK AO2 SLP243 T00720056=
202312150338 SPECI KCLM 150338Z AUTO 00000KT 5SM BR BKN022 OVC032 08/06 A3025 RMK AO2 T00780061=
202312150331 SPECI KCLM 150331Z AUTO 00000KT 5SM BR SCT022 OVC032 08/06 A3025 RMK AO2 T00780056=
202312150324 SPECI KCLM 150324Z AUTO 00000KT 2 1/2SM BR FEW022 OVC032 08/06 A3025 RMK AO2 T00780056=
202312150311 SPECI KCLM 150311Z AUTO 00000KT 1 3/4SM BR FEW020 OVC034 08/06 A3025 RMK AO2 T00780056=
202312150304 SPECI KCLM 150304Z AUTO 00000KT 6SM BR FEW021 OVC034 08/06 A3024 RMK AO2 T00780061=
202312150253 METAR KCLM 150253Z AUTO 14003KT 8SM BKN021 OVC036 08/06 A3024 RMK AO2 SLP242 T00780061 53006=
202312150231 SPECI KCLM 150231Z AUTO 11004KT 9SM SCT009 OVC021 08/06 A3022 RMK AO2 T00830061=
202312150224 SPECI KCLM 150224Z AUTO 10005KT 10SM BKN009 BKN017 OVC021 08/06 A3021 RMK AO2 CIG 008V011 T00830061=
202312150153 METAR KCLM 150153Z AUTO 11005KT 10SM FEW009 OVC015 08/06 A3021 RMK AO2 SLP232 T00830061=
202312150151 SPECI KCLM 150151Z AUTO 10005KT 10SM FEW009 OVC015 08/06 A3021 RMK AO2=
202312150134 SPECI KCLM 150134Z AUTO 11004KT 10SM OVC010 08/06 A3022 RMK AO2 T00830061=
202312150053 METAR KCLM 150053Z AUTO 00000KT 10SM OVC006 08/06 A3023 RMK AO2 SLP238 T00830061=
202312142353 METAR KCLM 142353Z AUTO 00000KT 10SM OVC005 08/07 A3022 RMK AO2 CIG 003V008 SLP236 T00830067 10083 20078 53010=
202312142253 METAR KCLM 142253Z AUTO 05005KT 10SM OVC006 08/06 A3021 RMK AO2 CIG 005V009 SLP231 T00830056=
202312142153 METAR KCLM 142153Z AUTO VRB06KT 10SM OVC008 08/06 A3020 RMK AO2 SLP228 T00830056=
202312142053 METAR KCLM 142053Z AUTO VRB04KT 10SM OVC007 08/06 A3019 RMK AO2 SLP226 T00830056 53005=
202312141953 METAR KCLM 141953Z AUTO 04004KT 10SM OVC006 08/06 A3018 RMK AO2 SLP222 T00830056=
202312141853 METAR KCLM 141853Z AUTO 07004KT 10SM OVC007 08/06 A3018 RMK AO2 SLP220 T00830056=
202312141753 METAR KCLM 141753Z AUTO 00000KT 10SM OVC007 08/06 A3018 RMK AO2 SLP221 60006 T00830056 10083 20067 53020=
202312141653 METAR KCLM 141653Z AUTO 00000KT 10SM OVC007 08/06 A3015 RMK AO2 SLP212 T00780056=
202312141553 METAR KCLM 141553Z AUTO 00000KT 10SM OVC006 08/06 A3013 RMK AO2 RAE30 CIG 005V011 SLP205 P0001 T00780056=
202312141453 METAR KCLM 141453Z AUTO 00000KT 8SM -RA OVC005 08/06 A3012 RMK AO2 SLP200 P0004 60005 T00780056 53011=
202312141353 METAR KCLM 141353Z AUTO 00000KT 8SM -RA OVC006 08/06 A3010 RMK AO2 RAB07 CIG 005V011 SLP193 P0001 T00780056=
202312141337 SPECI KCLM 141337Z AUTO 00000KT 8SM -RA BKN006 OVC011 07/06 A3008 RMK AO2 RAB07 P0000 T00720056=
202312141327 SPECI KCLM 141327Z AUTO 00000KT 7SM -RA OVC010 07/06 A3008 RMK AO2 RAB07 P0000 T00720056=
202312141253 METAR KCLM 141253Z AUTO 00000KT 10SM OVC008 07/06 A3008 RMK AO2 SLP189 T00720056=
202312141200 SPECI KCLM 141200Z AUTO 00000KT 10SM OVC009 07/05 A3009 RMK AO2 T00720050=
202312141153 METAR KCLM 141153Z AUTO 00000KT 10SM OVC010 07/05 A3008 RMK AO2 CIG 008V012 SLP189 P0001 60001 70001 T00670050 10072 20061 53015=
202312141053 METAR KCLM 141053Z AUTO 00000KT 10SM OVC014 07/04 A3007 RMK AO2 RAE47 SLP185 P0000 T00670044=
202312141045 SPECI KCLM 141045Z AUTO 00000KT 10SM -RA BKN013 OVC055 07/04 A3006 RMK AO2 P0000 T00670044=
202312141034 SPECI KCLM 141034Z AUTO 00000KT 10SM -RA BKN015 OVC055 07/04 A3006 RMK AO2 P0000 T00670044=
202312140953 METAR KCLM 140953Z AUTO 00000KT 10SM -RA BKN050 OVC080 07/04 A3005 RMK AO2 RAB0855 SLP178 P0000 T00670044=
202312140853 METAR KCLM 140853Z AUTO 00000KT 10SM BKN065 OVC080 06/04 A3004 RMK AO2 RAB30E39 SLP174 P0000 60000 T00610039 53004=
202312140753 METAR KCLM 140753Z AUTO 00000KT 10SM BKN060 OVC085 07/04 A3004 RMK AO2 SLP176 T00670044 401000039=
202312140653 METAR KCLM 140653Z AUTO 23005KT 10SM BKN080 OVC110 06/04 A3002 RMK AO2 SLP168 T00610039=
202312140553 METAR KCLM 140553Z AUTO 00000KT 10SM OVC065 06/04 A3003 RMK AO2 SLP169 T00610039 10083 20039 51005=
202312140453 METAR KCLM 140453Z AUTO 00000KT 10SM OVC085 05/03 A3002 RMK AO2 SLP169 T00500028=
202312140353 METAR KCLM 140353Z AUTO 00000KT 10SM SCT095 BKN110 05/03 A3002 RMK AO2 SLP169 T00500028=
202312140253 METAR KCLM 140253Z AUTO 23003KT 10SM CLR 05/03 A3001 RMK AO2 SLP165 T00500028 53011=
202312140153 METAR KCLM 140153Z AUTO 21005KT 10SM CLR 04/03 A2999 RMK AO2 SLP157 T00440028=
202312140053 METAR KCLM 140053Z AUTO 22003KT 10SM CLR 05/03 A2999 RMK AO2 SLP156 T00500033=
202312132353 METAR KCLM 132353Z AUTO 00000KT 10SM BKN110 08/05 A2998 RMK AO2 SLP154 T00830050 10100 20067 55007=
202312132253 METAR KCLM 132253Z AUTO 00000KT 10SM CLR 09/04 A2998 RMK AO2 SLP153 T00890044=
202312132153 METAR KCLM 132153Z AUTO 00000KT 10SM CLR 09/05 A2998 RMK AO2 SLP154 T00890050=
202312132053 METAR KCLM 132053Z AUTO VRB03KT 10SM CLR 09/04 A3000 RMK AO2 SLP161 T00940044 58004=
202312131953 METAR KCLM 131953Z AUTO 26005KT 10SM FEW013 09/05 A3002 RMK AO2 SLP167 T00890050=
202312131943 SPECI KCLM 131943Z AUTO 27005KT 10SM SCT012 08/05 A3002 RMK AO2 T00830050=
202312131902 SPECI KCLM 131902Z AUTO 25007KT 10SM BKN011 08/04 A3002 RMK AO2 T00780044=
202312131853 METAR KCLM 131853Z AUTO 26007KT 10SM SCT011 08/04 A3002 RMK AO2 SLP168 T00780044=
202312131753 METAR KCLM 131753Z AUTO 24003KT 10SM CLR 07/03 A3001 RMK AO2 SLP164 T00670033 10067 20039 58005=
202312131653 METAR KCLM 131653Z AUTO 23004KT 10SM CLR 05/02 A3001 RMK AO2 SLP164 T00500022=
202312131624 SPECI KCLM 131624Z AUTO 00000KT 10SM FEW014 04/02 A3002 RMK AO2 T00440017=
202312131553 METAR KCLM 131553Z AUTO 25006KT 10SM OVC014 05/02 A3003 RMK AO2 SLP170 T00500022=
202312131453 METAR KCLM 131453Z AUTO 22006KT 10SM OVC013 06/03 A3003 RMK AO2 SLP169 T00560028 56006=
202312131431 SPECI KCLM 131431Z AUTO 24007KT 10SM BKN014 05/02 A3003 RMK AO2 T00500022=
202312131353 METAR KCLM 131353Z AUTO 23008KT 10SM FEW015 05/02 A3003 RMK AO2 SLP170 T00500022=
202312131314 SPECI KCLM 131314Z AUTO 24005KT 10SM SCT017 06/02 A3003 RMK AO2 T00560022=
202312131253 METAR KCLM 131253Z AUTO 23007KT 10SM OVC017 06/03 A3003 RMK AO2 SLP172 T00610028=
202312131153 METAR KCLM 131153Z AUTO 23006KT 10SM OVC015 06/03 A3004 RMK AO2 SLP176 T00610028 10067 20039 56010=
202312131122 SPECI KCLM 131122Z AUTO 24008KT 10SM BKN016 06/02 A3005 RMK AO2 T00560022=
202312131102 SPECI KCLM 131102Z AUTO 24007KT 10SM SCT015 06/02 A3005 RMK AO2 T00560022=
202312131053 METAR KCLM 131053Z AUTO 24008KT 10SM BKN015 05/02 A3005 RMK AO2 SLP177 T00500022=
202312130953 METAR KCLM 130953Z AUTO 22006KT 10SM OVC016 05/02 A3005 RMK AO2 SLP178 T00500022=
202312130853 METAR KCLM 130853Z AUTO 23007KT 10SM OVC015 04/02 A3007 RMK AO2 SLP186 T00440017 56016=
202312130833 SPECI KCLM 130833Z AUTO 24004KT 10SM OVC015 04/02 A3006 RMK AO2 T00440017=
202312130753 METAR KCLM 130753Z AUTO 25003KT 10SM OVC012 05/02 A3007 RMK AO2 SLP186 T00500022 400830044=
202312130653 METAR KCLM 130653Z AUTO 22005KT 10SM OVC014 05/02 A3012 RMK AO2 SLP201 T00500022=
202312130648 SPECI KCLM 130648Z AUTO 24005KT 10SM OVC014 05/02 A3012 RMK AO2=
202312130619 SPECI KCLM 130619Z AUTO 21005KT 10SM OVC015 06/03 A3012 RMK AO2 T00560028=
202312130553 METAR KCLM 130553Z AUTO 00000KT 10SM OVC013 07/04 A3013 RMK AO2 SLP205 T00670039 10072 20061 58010=
202312130519 SPECI KCLM 130519Z AUTO 11004KT 10SM OVC014 07/03 A3013 RMK AO2 T00720033=
202312130453 METAR KCLM 130453Z AUTO 00000KT 10SM OVC015 06/04 A3015 RMK AO2 SLP211 T00610039=
202312130450 SPECI KCLM 130450Z AUTO 00000KT 10SM OVC015 07/04 A3015 RMK AO2=
202312130353 METAR KCLM 130353Z AUTO 00000KT 10SM OVC014 06/03 A3016 RMK AO2 SLP215 T00610033=
202312130253 METAR KCLM 130253Z AUTO 00000KT 10SM OVC013 07/03 A3017 RMK AO2 SLP218 T00720033 51001=
202312130153 METAR KCLM 130153Z AUTO 09003KT 10SM OVC014 07/03 A3016 RMK AO2 SLP216 T00720033=
202312130053 METAR KCLM 130053Z AUTO 09003KT 10SM OVC017 07/03 A3018 RMK AO2 SLP220 T00720028=
202312122353 METAR KCLM 122353Z AUTO 11005KT 10SM OVC017 07/03 A3017 RMK AO2 SLP217 T00720028 10083 20050 58016=
202312122253 METAR KCLM 122253Z AUTO 00000KT 10SM OVC019 08/03 A3020 RMK AO2 SLP228 T00830033=
202312122153 METAR KCLM 122153Z AUTO 09004KT 10SM OVC015 08/04 A3020 RMK AO2 SLP227 T00780044=
202312122053 METAR KCLM 122053Z AUTO 09005KT 10SM OVC018 08/04 A3021 RMK AO2 SLP233 T00780039 56013=
202312121953 METAR KCLM 121953Z AUTO 07004KT 10SM OVC017 08/04 A3022 RMK AO2 SLP237 T00780044=
202312121853 METAR KCLM 121853Z AUTO 08004KT 10SM OVC020 08/04 A3024 RMK AO2 SLP241 T00780044=
202312121753 METAR KCLM 121753Z AUTO 22004KT 10SM OVC021 05/02 A3025 RMK AO2 SLP246 T00500022 10050 20044 53006=
202312121653 METAR KCLM 121653Z AUTO 22006KT 10SM OVC016 04/02 A3024 RMK AO2 SLP242 T00440017=
202312121636 SPECI KCLM 121636Z AUTO 24005KT 10SM OVC015 04/02 A3023 RMK AO2 T00440017=
202312121553 METAR KCLM 121553Z AUTO 23006KT 10SM OVC014 04/02 A3023 RMK AO2 SLP239 T00440017=
202312121549 SPECI KCLM 121549Z AUTO 22006KT 10SM OVC014 04/02 A3023 RMK AO2=
202312121453 METAR KCLM 121453Z AUTO 23005KT 10SM OVC016 04/02 A3023 RMK AO2 SLP238 T00440017 55005=
202312121353 METAR KCLM 121353Z AUTO 23004KT 10SM OVC024 04/02 A3022 RMK AO2 SLP236 T00440022=
202312121312 SPECI KCLM 121312Z AUTO 22006KT 10SM FEW006 OVC026 04/02 A3024 RMK AO2 T00440022=
202312121253 METAR KCLM 121253Z AUTO 24005KT 10SM BKN006 OVC026 05/02 A3024 RMK AO2 SLP242 T00500022=
202312121221 SPECI KCLM 121221Z AUTO 23004KT 10SM BKN007 OVC026 05/02 A3024 RMK AO2 T00500022=
202312121153 METAR KCLM 121153Z AUTO 22005KT 10SM FEW008 OVC023 05/02 A3024 RMK AO2 SLP243 60000 70001 T00500022 10078 20050 58003=
202312121053 METAR KCLM 121053Z AUTO 22005KT 10SM FEW005 FEW013 OVC022 06/03 A3025 RMK AO2 RAB09E39 SLP246 P0000 T00560033=
202312121046 SPECI KCLM 121046Z AUTO 23004KT 10SM FEW005 SCT013 OVC021 06/04 A3025 RMK AO2 RAB09E39 P0000 T00610039=
202312121015 SPECI KCLM 121015Z AUTO 00000KT 10SM -RA OVC008 06/04 A3026 RMK AO2 RAB09 CIG 005V012 P0000 T00610039=
202312120953 METAR KCLM 120953Z AUTO 00000KT 10SM BKN011 OVC021 06/04 A3026 RMK AO2 RAE02 SLP248 P0000 T00610044=
202312120940 SPECI KCLM 120940Z AUTO 25004KT 10SM SCT011 OVC021 06/04 A3026 RMK AO2 RAE02 P0000 T00610039=
202312120853 METAR KCLM 120853Z AUTO 24003KT 5SM -RA BR OVC010 06/04 A3025 RMK AO2 RAE03B51 SLP246 P0000 60000 T00610039 53001=
202312120811 SPECI KCLM 120811Z AUTO 14003KT 6SM BR BKN009 OVC014 07/05 A3025 RMK AO2 RAE03 CIG 007V011 P0000 T00720050=
202312120802 SPECI KCLM 120802Z AUTO 11004KT 5SM -RA BR BKN010 OVC016 07/05 A3025 RMK AO2 CIG 007V013 P0000 T00720050=
202312120753 METAR KCLM 120753Z AUTO 11004KT 4SM -RA BR SCT010 OVC015 07/05 A3025 RMK AO2 RAB52 SLP245 P0000 T00720050 400890072=
202312120653 METAR KCLM 120653Z AUTO 11005KT 10SM OVC019 07/05 A3025 RMK AO2 SLP244 T00720050=
202312120553 METAR KCLM 120553Z AUTO 11004KT 10SM FEW014 OVC021 07/05 A3025 RMK AO2 SLP245 60000 T00720050 10083 20072 52003=
202312120453 METAR KCLM 120453Z AUTO 10003KT 10SM OVC024 07/05 A3025 RMK AO2 SLP245 T00720050=
202312120353 METAR KCLM 120353Z AUTO 10003KT 10SM OVC024 07/06 A3024 RMK AO2 SLP241 T00720056=
202312120253 METAR KCLM 120253Z AUTO 13003KT 10SM SCT013 SCT018 OVC024 08/06 A3024 RMK AO2 SLP241 60000 T00780056 53001=
202312120242 SPECI KCLM 120242Z AUTO 12003KT 10SM SCT010 SCT015 OVC024 08/06 A3023 RMK AO2 T00780056=
202312120153 METAR KCLM 120153Z AUTO 10003KT 10SM FEW007 BKN012 OVC019 08/06 A3023 RMK AO2 RAB08E32 SLP237 P0000 T00780056=
202312120146 SPECI KCLM 120146Z AUTO 10003KT 9SM FEW007 BKN012 OVC019 08/06 A3023 RMK AO2 RAB08E32 P0000 T00780056=
202312120053 METAR KCLM 120053Z AUTO 13004KT 9SM BKN012 OVC017 08/05 A3023 RMK AO2 SLP239 T00830050=
202312120044 SPECI KCLM 120044Z AUTO 10005KT 10SM BKN012 OVC017 08/05 A3024 RMK AO2 T00830050=
202312120028 SPECI KCLM 120028Z AUTO 07003KT 10SM FEW008 BKN015 OVC023 08/05 A3024 RMK AO2 T00830050=
202312112353 METAR KCLM 112353Z AUTO VRB06KT 10SM BKN013 OVC019 08/05 A3023 RMK AO2 SLP239 60000 T00830050 10083 20078 55000=
202312112319 SPECI KCLM 112319Z AUTO VRB04KT 10SM OVC015 08/06 A3024 RMK AO2 T00830056=
202312112310 SPECI KCLM 112310Z AUTO 07004KT 10SM BKN013 OVC019 08/05 A3024 RMK AO2 T00830050=
202312112253 METAR KCLM 112253Z AUTO VRB04KT 10SM OVC015 08/05 A3023 RMK AO2 SLP238 T00830050=
202312112208 SPECI KCLM 112208Z AUTO VRB03KT 10SM SCT013 OVC019 08/06 A3023 RMK AO2 T00830056=
202312112153 METAR KCLM 112153Z AUTO 05004KT 10SM BKN014 OVC019 08/05 A3023 RMK AO2 SLP239 T00830050=
202312112104 SPECI KCLM 112104Z AUTO 08004KT 10SM OVC010 08/06 A3023 RMK AO2 T00830056=
202312112053 METAR KCLM 112053Z AUTO 08004KT 10SM OVC009 08/06 A3024 RMK AO2 SLP240 60000 T00830061 56010=
202312112050 SPECI KCLM 112050Z AUTO 00000KT 10SM OVC009 08/06 A3024 RMK AO2=
202312112035 SPECI KCLM 112035Z AUTO 13003KT 10SM OVC010 08/06 A3024 RMK AO2 T00830061=
202312111953 METAR KCLM 111953Z AUTO 08003KT 7SM OVC006 08/06 A3025 RMK AO2 RAB1854E09 SLP244 P0000 T00780061=
202312111916 SPECI KCLM 111916Z AUTO 08006KT 3SM BR BKN009 OVC014 08/06 A3026 RMK AO2 RAB1854E09 CIG 006V011 P0000 T00780056=
202312111902 SPECI KCLM 111902Z AUTO 07005KT 2SM -RA BKN009 OVC014 08/05 A3026 RMK AO2 RAB1854 CIG 007V012 P0000 T00780050=
202312111853 METAR KCLM 111853Z AUTO 05004KT 4SM HZ OVC012 08/05 A3027 RMK AO2 RAB32E42 SLP250 P0000 T00830050=
202312111800 SPECI KCLM 111800Z AUTO 07004KT 6SM BR BKN010 OVC015 08/06 A3027 RMK AO2 CIG 007V012 T00830061=
202312111753 METAR KCLM 111753Z AUTO 08005KT 8SM BKN008 OVC015 08/06 A3027 RMK AO2 CIG 005V011 SLP251 60001 T00830061 10083 20078 53008=
202312111724 SPECI KCLM 111724Z AUTO 11004KT 5SM BR BKN008 OVC016 08/06 A3025 RMK AO2 CIG 005V012 T00780061=
202312111715 SPECI KCLM 111715Z AUTO 12005KT 8SM BKN010 OVC016 08/06 A3025 RMK AO2 T00780061=
202312111708 SPECI KCLM 111708Z AUTO 11004KT 10SM SCT010 OVC016 08/06 A3025 RMK AO2 T00780056=
202312111653 METAR KCLM 111653Z AUTO 09005KT 10SM BKN010 BKN015 OVC029 08/06 A3025 RMK AO2 SLP244 T00780056=
202312111649 SPECI KCLM 111649Z AUTO 09004KT 10SM BKN010 BKN015 OVC029 08/06 A3025 RMK AO2=
202312111553 METAR KCLM 111553Z AUTO 09005KT 7SM BKN009 OVC014 08/06 A3024 RMK AO2 RAB1456E38 CIG 005V012 SLP243 P0001 T00780056=
202312111551 SPECI KCLM 111551Z AUTO 10005KT 7SM BKN009 OVC014 08/06 A3024 RMK AO2 RAB1456E38 CIG 005V012 P0001=
202312111542 SPECI KCLM 111542Z AUTO 10006KT 6SM BR SCT005 BKN012 OVC016 08/06 A3024 RMK AO2 RAB1456E38 P0001 T00780056=
202312111453 METAR KCLM 111453Z AUTO 09005KT 5SM BR OVC005 08/06 A3024 RMK AO2 SLP241 T00780056 53008=
202312111353 METAR KCLM 111353Z AUTO 08003KT 10SM OVC008 08/06 A3023 RMK AO2 SLP239 T00830056=
202312111253 METAR KCLM 111253Z AUTO 11003KT 7SM OVC010 08/06 A3022 RMK AO2 SLP233 T00830061=
202312111221 SPECI KCLM 111221Z AUTO 08004KT 7SM OVC010 08/06 A3022 RMK AO2 T00830056=
202312111153 METAR KCLM 111153Z AUTO 07004KT 10SM BKN008 OVC012 08/06 A3022 RMK AO2 SLP233 60009 70011 T00830056 10089 20083 52011=
202312111100 SPECI KCLM 111100Z AUTO VRB04KT 6SM BR OVC006 08/06 A3021 RMK AO2 CIG 003V008 T00830061=
202312111053 METAR KCLM 111053Z AUTO 07006KT 4SM BR BKN003 OVC008 08/06 A3021 RMK AO2 RAB10E35 CIG 003V006 SLP230 P0001 T00830061=
202312110953 METAR KCLM 110953Z AUTO 06006KT 2 1/2SM BR OVC002 08/06 A3019 RMK AO2 RAE52 SLP225 P0002 T00830061=
202312110944 SPECI KCLM 110944Z AUTO VRB03KT 2SM -RA BR OVC002 08/07 A3019 RMK AO2 P0002 T00830067=
202312110921 SPECI KCLM 110921Z AUTO 07005KT 1 3/4SM -RA BR OVC002 08/07 A3019 RMK AO2 P0001 T00830067=
202312110913 SPECI KCLM 110913Z AUTO 07005KT 2SM -RA BR OVC002 08/07 A3019 RMK AO2 P0001 T00830067=
202312110853 METAR KCLM 110853Z AUTO VRB04KT 1 3/4SM -RA BR OVC002 08/07 A3018 RMK AO2 SLP222 P0006 60006 T00830067 51012=
202312110753 METAR KCLM 110753Z AUTO 00000KT 1 3/4SM -RA BR BKN002 OVC008 09/07 A3018 RMK AO2 RAB40 SLP219 P0000 T00890067 400940050=
202312110745 SPECI KCLM 110745Z AUTO 08003KT 2 1/2SM -RA BR BKN002 OVC008 09/07 A3018 RMK AO2 VIS 1 3/4V5 RAB40 P0000 T00890072=
202312110736 SPECI KCLM 110736Z AUTO 08003KT 4SM BR FEW004 BKN008 OVC013 09/07 A3018 RMK AO2 T00890072=
202312110653 METAR KCLM 110653Z AUTO 25004KT 6SM BR OVC011 09/07 A3016 RMK AO2 SLP214 T00890072=
202312110623 SPECI KCLM 110623Z AUTO 30003KT 10SM OVC008 09/07 A3015 RMK AO2 CIG 004V012 T00890072=
202312110614 SPECI KCLM 110614Z AUTO 00000KT 10SM SCT004 OVC010 09/07 A3015 RMK AO2 CIG 007V012 T00890072=
202312110553 METAR KCLM 110553Z AUTO 27005KT 5SM BR BKN004 OVC025 09/07 A3015 RMK AO2 RAE34 SLP210 P0001 60002 T00890067 10094 20089 53007=
202312110534 SPECI KCLM 110534Z AUTO 28005KT 3SM BR BKN002 BKN008 OVC025 09/07 A3014 RMK AO2 RAE34 P0001 T00890072=
202312110453 METAR KCLM 110453Z AUTO 32003KT 2 1/2SM -RA BR OVC004 09/08 A3014 RMK AO2 RAB0356E05B22E31B45 SLP206 P0001 T00940078=
202312110437 SPECI KCLM 110437Z AUTO 32004KT 3SM BR OVC003 09/08 A3013 RMK AO2 RAB0356E05B22E31 P0000 T00940078=
202312110419 SPECI KCLM 110419Z AUTO 00000KT 2 1/2SM BR BKN002 OVC008 09/08 A3013 RMK AO2 RAB0356E05 P0000 T00940078=
202312110409 SPECI KCLM 110409Z AUTO 30003KT 3SM BR SCT004 BKN008 OVC014 09/08 A3013 RMK AO2 RAB0356E05 P0000 T00940078=
202312110402 SPECI KCLM 110402Z AUTO 28003KT 2SM -RA BR FEW004 SCT008 OVC014 09/08 A3013 RMK AO2 VIS 1 1/2V4 RAB0356 P0000 T00940078=
202312110353 METAR KCLM 110353Z AUTO 28003KT 4SM BR SCT007 BKN014 OVC020 09/07 A3013 RMK AO2 SLP205 T00940072=
202312110343 SPECI KCLM 110343Z AUTO 27004KT 8SM FEW009 BKN015 OVC022 09/07 A3013 RMK AO2 T00940072=
202312110320 SPECI KCLM 110320Z AUTO 21003KT 9SM OVC015 09/07 A3013 RMK AO2 T00940072=
202312110253 METAR KCLM 110253Z AUTO 21003KT 10SM OVC013 09/07 A3012 RMK AO2 SLP202 T00940072 51014=
202312110225 SPECI KCLM 110225Z AUTO 00000KT 10SM BKN010 OVC013 09/07 A3012 RMK AO2 CIG 008V012 T00940072=
202312110153 METAR KCLM 110153Z AUTO 00000KT 9SM OVC009 09/08 A3011 RMK AO2 SLP197 T00940078=
202312110053 METAR KCLM 110053Z AUTO 23003KT 5SM BR OVC006 09/08 A3010 RMK AO2 SLP195 T00940078=
202312110035 SPECI KCLM 110035Z AUTO 22003KT 5SM BR OVC006 09/08 A3010 RMK AO2 T00940078=
202312110017 SPECI KCLM 110017Z AUTO 26003KT 2 1/2SM BR OVC005 09/08 A3010 RMK AO2 CIG 004V008 T00940078=
202312102353 METAR KCLM 102353Z AUTO 27004KT 3SM BR OVC005 09/08 A3008 RMK AO2 SLP188 T00940078 10094 20078 53006=
202312102340 SPECI KCLM 102340Z AUTO 26003KT 2 1/2SM BR OVC006 09/08 A3008 RMK AO2 T00940078=
202312102253 METAR KCLM 102253Z AUTO 00000KT 3SM BR OVC006 09/08 A3007 RMK AO2 SLP183 T00940078=
202312102243 SPECI KCLM 102243Z AUTO 00000KT 2SM BR OVC007 09/07 A3007 RMK AO2 CIG 002V009 T00940072=
202312102234 SPECI KCLM 102234Z AUTO 00000KT 1 3/4SM BR SCT002 OVC007 09/07 A3006 RMK AO2 T00890072=
202312102203 SPECI KCLM 102203Z AUTO 00000KT 1 3/4SM BR OVC002 09/07 A3007 RMK AO2 T00890067=
202312102153 METAR KCLM 102153Z AUTO 00000KT 5SM BR OVC002 09/07 A3007 RMK AO2 SLP183 T00890067=
202312102145 SPECI KCLM 102145Z AUTO 00000KT 5SM BR OVC002 09/07 A3007 RMK AO2 T00890067=
202312102129 SPECI KCLM 102129Z AUTO 00000KT 3SM BR OVC001 09/07 A3006 RMK AO2 T00890072=
202312102121 SPECI KCLM 102121Z AUTO 00000KT 1 3/4SM BR OVC002 09/07 A3007 RMK AO2 T00890072=
202312102059 SPECI KCLM 102059Z AUTO 00000KT 3SM BR OVC002 08/07 A3007 RMK AO2 T00830072=
202312102053 METAR KCLM 102053Z AUTO 00000KT 1 3/4SM BR OVC002 08/07 A3007 RMK AO2 SLP183 T00830072 55002=
202312102039 SPECI KCLM 102039Z AUTO 29003KT 1 1/2SM BR OVC002 08/07 A3007 RMK AO2 VIS 1V4 T00830072=
202312101953 METAR KCLM 101953Z AUTO 30003KT 3/4SM BR VV002 08/07 A3006 RMK AO2 SLP182 T00830067=
202312101853 METAR KCLM 101853Z AUTO 28004KT 3/4SM BR OVC002 08/07 A3006 RMK AO2 SLP182 T00830067=
202312101840 SPECI KCLM 101840Z AUTO 24003KT 1 3/4SM BR OVC002 08/07 A3007 RMK AO2 T00830067=
202312101801 SPECI KCLM 101801Z AUTO 25003KT 10SM OVC002 08/06 A3007 RMK AO2 T00780061=
202312101753 METAR KCLM 101753Z AUTO 24003KT 2SM BR OVC002 08/06 A3007 RMK AO2 SLP185 60000 T00830061 10083 20061 53013=
202312101720 SPECI KCLM 101720Z AUTO 00000KT 1 1/4SM BR OVC003 08/07 A3007 RMK AO2 T00780067=
202312101712 SPECI KCLM 101712Z AUTO 00000KT 2SM BR OVC003 08/07 A3006 RMK AO2 T00780067=
202312101653 METAR KCLM 101653Z AUTO 00000KT 9SM OVC003 08/06 A3006 RMK AO2 SLP180 T00780061=
202312101553 METAR KCLM 101553Z AUTO 00000KT 9SM OVC004 07/06 A3004 RMK AO2 SLP175 T00720056=
202312101453 METAR KCLM 101453Z AUTO 00000KT 10SM OVC004 07/06 A3004 RMK AO2 SLP173 60000 T00720056 53011=
202312101353 METAR KCLM 101353Z AUTO 23004KT 10SM OVC007 07/05 A3002 RMK AO2 SLP168 T00670050=
202312101335 SPECI KCLM 101335Z AUTO 23003KT 10SM BKN008 OVC060 07/05 A3002 RMK AO2 T00670050=
202312101302 SPECI KCLM 101302Z AUTO 25005KT 10SM SCT006 BKN048 OVC060 07/05 A3001 RMK AO2 T00720050=
202312101253 METAR KCLM 101253Z AUTO 25004KT 10SM BKN006 BKN018 OVC050 07/06 A3002 RMK AO2 RAE1154 SLP166 P0000 T00720056=
202312101153 METAR KCLM 101153Z AUTO 24003KT 7SM -RA OVC005 07/05 A3000 RMK AO2 RAB18 SLP162 P0006 60006 70065 T00670050 10067 20050 53003=
202312101135 SPECI KCLM 101135Z AUTO 28003KT 5SM -RA BR BKN006 OVC034 07/05 A3001 RMK AO2 RAB18 P0005 T00670050=
202312101128 SPECI KCLM 101128Z AUTO 00000KT 2 1/2SM RA BR BKN006 OVC034 07/05 A3001 RMK AO2 RAB18 P0005 T00670050=
202312101053 METAR KCLM 101053Z AUTO 00000KT 4SM BR BKN006 06/04 A3000 RMK AO2 RAE01 SLP161 P0000 T00610039=
202312101044 SPECI KCLM 101044Z AUTO 00000KT 1 3/4SM BR BKN006 BKN065 06/04 A3001 RMK AO2 RAE01 P0000 T00560039=
202312101031 SPECI KCLM 101031Z AUTO 00000KT 3SM BR BKN006 BKN060 05/04 A2999 RMK AO2 RAE01 P0000 T00500039=
202312101020 SPECI KCLM 101020Z AUTO 08004KT 1 3/4SM BR BKN007 BKN023 OVC060 06/04 A2999 RMK AO2 RAE01 P0000 T00610044=
202312101005 SPECI KCLM 101005Z AUTO 00000KT 6SM BR BKN006 OVC055 07/05 A2999 RMK AO2 RAE01 P0000 T00670050=
202312100953 METAR KCLM 100953Z AUTO 14003KT 6SM -RA BR SCT007 OVC055 07/05 A2999 RMK AO2 RAB45 SLP156 P0000 T00670050=
202312100853 METAR KCLM 100853Z AUTO 00000KT 8SM SCT055 OVC070 07/05 A2999 RMK AO2 SLP159 T00670050 58002=
202312100753 METAR KCLM 100753Z AUTO 16005KT 8SM OVC055 07/04 A3000 RMK AO2 SLP160 T00670044 400670017=
202312100739 SPECI KCLM 100739Z AUTO 00000KT 8SM SCT006 OVC055 07/05 A3000 RMK AO2 T00670050=
202312100653 METAR KCLM 100653Z AUTO 00000KT 10SM BKN006 OVC055 06/04 A3000 RMK AO2 SLP162 T00610044=
202312100638 SPECI KCLM 100638Z AUTO 00000KT 10SM BKN006 BKN050 OVC070 06/05 A3000 RMK AO2 T00610050=
202312100601 SPECI KCLM 100601Z AUTO 23003KT 10SM FEW007 BKN055 OVC075 06/04 A3000 RMK AO2 T00610044=
202312100553 METAR KCLM 100553Z AUTO 00000KT 10SM BKN055 OVC075 06/04 A3000 RMK AO2 RAE06B22E50 SLP161 P0000 60020 T00610044 10067 20056 51004=
202312100453 METAR KCLM 100453Z AUTO 23003KT 10SM -RA BKN055 OVC075 06/04 A3000 RMK AO2 SLP160 P0003 T00610044=
202312100440 SPECI KCLM 100440Z AUTO 23003KT 10SM -RA FEW022 BKN055 OVC075 07/04 A3000 RMK AO2 P0002 T00670044=
202312100425 SPECI KCLM 100425Z AUTO 23005KT 10SM -RA FEW007 BKN020 OVC060 07/04 A3001 RMK AO2 P0002 T00670044=
202312100353 METAR KCLM 100353Z AUTO 24003KT 4SM RA BR FEW007 BKN060 OVC075 06/04 A3001 RMK AO2 RAE0258B16 SLP163 P0003 T00610044=
202312100341 SPECI KCLM 100341Z AUTO 25004KT 9SM -RA FEW007 BKN055 OVC070 06/04 A3000 RMK AO2 RAE0258B16 P0000 T00610044=
202312100326 SPECI KCLM 100326Z AUTO 23004KT 9SM -RA SCT007 BKN023 OVC055 06/04 A3000 RMK AO2 RAE0258B16 P0000 T00610044=
202312100315 SPECI KCLM 100315Z AUTO 22006KT 10SM BKN007 BKN022 OVC055 06/04 A2999 RMK AO2 RAE0258 P0000 T00610044=
202312100253 METAR KCLM 100253Z AUTO 24005KT 10SM -RA SCT006 BKN021 OVC060 06/04 A2999 RMK AO2 SLP157 P0007 60014 T00610044 51009=
202312100214 SPECI KCLM 100214Z AUTO 27003KT 4SM -RA BR FEW006 BKN019 OVC060 06/04 A2998 RMK AO2 P0005 T00560039=
202312100153 METAR KCLM 100153Z AUTO 19004KT 5SM -RA BR FEW006 BKN055 OVC070 06/03 A2998 RMK AO2 SLP154 P0006 T00560033=
202312100145 SPECI KCLM 100145Z AUTO 21003KT 5SM -RA BR SCT006 BKN055 OVC070 06/04 A2998 RMK AO2 P0004 T00560039=
202312100101 SPECI KCLM 100101Z AUTO 00000KT 7SM -RA BKN007 OVC065 06/04 A2998 RMK AO2 P0000 T00560039=
202312100053 METAR KCLM 100053Z AUTO 22004KT 7SM -RA SCT007 BKN011 OVC075 06/04 A2997 RMK AO2 SLP152 P0001 T00560039=
202312100034 SPECI KCLM 100034Z AUTO 23003KT 10SM -RA FEW007 BKN027 OVC075 06/03 A2997 RMK AO2 P0000 T00560033=
202312092353 METAR KCLM 092353Z AUTO 00000KT 9SM -RA BKN080 OVC095 06/04 A2996 RMK AO2 SLP148 P0000 60021 T00560039 10061 20033 56021=
202312092308 SPECI KCLM 092308Z AUTO 00000KT 10SM -RA FEW008 SCT075 OVC095 06/04 A2997 RMK AO2 P0000 T00610039=
202312092253 METAR KCLM 092253Z AUTO 00000KT 10SM -RA FEW065 SCT075 OVC100 06/04 A2997 RMK AO2 SLP151 P0001 T00610039=
202312092153 METAR KCLM 092153Z AUTO 22005KT 4SM -RA BR FEW008 BKN041 OVC065 05/03 A3001 RMK AO2 SLP164 P0005 T00500033=
202312092105 SPECI KCLM 092105Z AUTO 26003KT 5SM -RA BR FEW008 OVC043 05/03 A3002 RMK AO2 P0001 T00500033=
202312092053 METAR KCLM 092053Z AUTO 23003KT 5SM -RA BR BKN008 OVC035 05/03 A3003 RMK AO2 SLP169 P0007 60015 T00500028 58027=
202312092016 SPECI KCLM 092016Z AUTO 24006KT 4SM -RA BR OVC008 04/02 A3006 RMK AO2 P0002 T00440022=
202312091957 SPECI KCLM 091957Z AUTO 24004KT 5SM -RA BKN011 BKN015 OVC050 04/02 A3007 RMK AO2 P0000 T00440017=
202312091953 METAR KCLM 091953Z AUTO 24005KT 5SM -RA SCT011 BKN042 OVC050 04/02 A3007 RMK AO2 SLP184 P0004 T00440017=
202312091903 SPECI KCLM 091903Z AUTO 23004KT 6SM -RA BR SCT014 BKN042 OVC049 04/02 A3008 RMK AO2 P0001 T00390017=
202312091853 METAR KCLM 091853Z AUTO 24005KT 7SM -RA SCT014 BKN019 OVC049 04/02 A3009 RMK AO2 SLP192 P0004 T00390017=
202312091845 SPECI KCLM 091845Z AUTO 25006KT 7SM -RA BKN014 BKN027 OVC038 04/02 A3009 RMK AO2 P0004 T00390017=
202312091821 SPECI KCLM 091821Z AUTO 25007KT 7SM -RA FEW021 FEW026 OVC032 04/02 A3010 RMK AO2 P0002 T00390017=
202312091802 SPECI KCLM 091802Z AUTO 23005KT 5SM -RA BR FEW010 BKN026 OVC033 03/02 A3010 RMK AO2 P0001 T00330022=
202312091753 METAR KCLM 091753Z AUTO 23003KT 2SM -RA BR FEW010 OVC022 04/02 A3010 RMK AO2 SLP197 P0015 60018 T00390022 10050 20028 56027=
202312091748 SPECI KCLM 091748Z AUTO 28003KT 2SM RA BR SCT010 OVC020 04/02 A3011 RMK AO2 P0014=
202312091743 SPECI KCLM 091743Z AUTO 27003KT 1 3/4SM RA BR BKN010 OVC020 04/02 A3010 RMK AO2 P0012 T00390017=
202312091731 SPECI KCLM 091731Z AUTO 00000KT 1 3/4SM RA BR FEW009 FEW014 OVC027 03/02 A3011 RMK AO2 P0009 T00330017=
202312091706 SPECI KCLM 091706Z AUTO 26003KT 2 1/2SM RA BR FEW009 OVC032 03/01 A3012 RMK AO2 P0003 T00330011=
202312091653 METAR KCLM 091653Z AUTO 00000KT 5SM -RA BR OVC028 04/02 A3012 RMK AO2 RAB19 SLP204 P0003 T00390017=
202312091553 METAR KCLM 091553Z AUTO 00000KT 10SM OVC055 03/01 A3015 RMK AO2 SLP212 T00330006=
202312091453 METAR KCLM 091453Z AUTO 13003KT 10SM OVC090 03/01 A3019 RMK AO2 PRESFR SLP225 T00330006 58032=
202312091353 METAR KCLM 091353Z AUTO 00000KT 10SM OVC110 03/00 A3023 RMK AO2 SLP241 T00280000=
202312091253 METAR KCLM 091253Z AUTO 19003KT 10SM OVC110 03/00 A3026 RMK AO2 SLP249 T00330000=
202312091153 METAR KCLM 091153Z AUTO 23006KT 10SM CLR 04/M01 A3028 RMK AO2 SLP256 70001 T00441006 10050 20006 56023=
202312091053 METAR KCLM 091053Z AUTO 24007KT 10SM CLR 04/00 A3030 RMK AO2 SLP263 T00390000=
202312090953 METAR KCLM 090953Z AUTO 24009KT 10SM CLR 04/M01 A3032 RMK AO2 SLP271 T00391006=
202312090853 METAR KCLM 090853Z AUTO 22005KT 10SM CLR 03/M01 A3035 RMK AO2 SLP278 T00281006 58020=
202312090753 METAR KCLM 090753Z AUTO 00000KT 10SM CLR 02/M01 A3038 RMK AO2 SLP289 T00221006 400940006=
202312090653 METAR KCLM 090653Z AUTO 00000KT 10SM CLR 02/M01 A3040 RMK AO2 SLP295 T00171011=
202312090553 METAR KCLM 090553Z AUTO 21003KT 10SM CLR 01/M01 A3041 RMK AO2 SLP299 T00111006 10072 20011 56003=
202312090453 METAR KCLM 090453Z AUTO 24005KT 10SM CLR 03/00 A3041 RMK AO2 SLP300 T00280000=
202312090353 METAR KCLM 090353Z AUTO 23004KT 10SM CLR 02/M01 A3041 RMK AO2 SLP301 T00171006=
202312090253 METAR KCLM 090253Z AUTO 00000KT 10SM CLR 02/01 A3041 RMK AO2 SLP302 T00220006 50002=
202312090153 METAR KCLM 090153Z AUTO 24004KT 10SM CLR 03/01 A3042 RMK AO2 SLP304 T00280006=
202312090053 METAR KCLM 090053Z AUTO 16003KT 10SM CLR 04/02 A3041 RMK AO2 SLP299 T00440022=
202312082353 METAR KCLM 082353Z AUTO 00000KT 10SM BKN041 07/03 A3041 RMK AO2 SLP299 T00720028 10094 20061 53016=
202312082325 SPECI KCLM 082325Z AUTO 12003KT 10SM SCT025 OVC039 08/03 A3040 RMK AO2 T00780033=
202312082300 SPECI KCLM 082300Z AUTO 12003KT 10SM BKN024 OVC037 08/03 A3039 RMK AO2 T00780033=
202312082253 METAR KCLM 082253Z AUTO 11003KT 10SM SCT024 BKN033 OVC040 08/03 A3039 RMK AO2 SLP292 T00780028=
202312082153 METAR KCLM 082153Z AUTO 00000KT 10SM FEW024 FEW030 OVC037 08/03 A3037 RMK AO2 SLP285 T00830028=
202312082135 SPECI KCLM 082135Z AUTO 00000KT 10SM SCT025 OVC035 08/03 A3037 RMK AO2 T00830028=
202312082126 SPECI KCLM 082126Z AUTO VRB03KT 10SM BKN023 OVC033 09/03 A3037 RMK AO2 T00890028=
202312082053 METAR KCLM 082053Z AUTO VRB04KT 10SM SCT023 BKN033 09/02 A3036 RMK AO2 SLP283 T00890022 51010=
202312081953 METAR KCLM 081953Z AUTO 27004KT 10SM CLR 08/02 A3036 RMK AO2 SLP281 T00830017=
202312081853 METAR KCLM 081853Z AUTO 25006KT 10SM CLR 07/01 A3035 RMK AO2 SLP280 T00720011=
202312081753 METAR KCLM 081753Z AUTO 24007KT 10SM CLR 06/01 A3033 RMK AO2 SLP272 60001 T00610011 10061 20044 53031=
202312081653 METAR KCLM 081653Z AUTO 24008KT 10SM BKN041 06/01 A3030 RMK AO2 SLP262 T00560011=
202312081553 METAR KCLM 081553Z AUTO 25005KT 10SM CLR 04/01 A3027 RMK AO2 SLP251 T00440006=
202312081453 METAR KCLM 081453Z AUTO 24009KT 10SM FEW033 04/01 A3024 RMK AO2 SLP241 60001 T00440011 53020=
202312081353 METAR KCLM 081353Z AUTO 23008KT 10SM FEW048 BKN110 04/01 A3021 RMK AO2 SLP233 T00440011=
202312081253 METAR KCLM 081253Z AUTO 22007KT 10SM SCT048 BKN100 05/02 A3019 RMK AO2 RAE10 SLP226 P0001 T00500017=
202312081201 SPECI KCLM 081201Z AUTO 25008KT 10SM -RA SCT027 OVC037 05/02 A3018 RMK AO2 P0001 T00500017=
202312081153 METAR KCLM 081153Z AUTO 25007KT 9SM -RA OVC027 05/02 A3018 RMK AO2 RAB18 SLP221 P0000 60000 70040 T00500017 10061 20044 53025=
202312081136 SPECI KCLM 081136Z AUTO 25006KT 9SM -RA BKN028 OVC042 06/02 A3017 RMK AO2 RAB18 P0000 T00560017=
202312081053 METAR KCLM 081053Z AUTO 28007KT 10SM SCT032 BKN043 05/01 A3015 RMK AO2 SLP213 T00500011=
202312080953 METAR KCLM 080953Z AUTO 26008KT 10SM CLR 05/01 A3013 RMK AO2 RAB00E21 SLP203 P0000 T00500011=
202312080853 METAR KCLM 080853Z AUTO 25009KT 10SM FEW038 BKN047 BKN060 06/01 A3011 RMK AO2 SLP196 T00560011 51019=
202312080753 METAR KCLM 080753Z AUTO 24008KT 10SM FEW100 SCT110 06/02 A3009 RMK AO2 SLP192 T00560017 400890050=
202312080653 METAR KCLM 080653Z AUTO 24008KT 10SM CLR 06/01 A3007 RMK AO2 SLP185 T00560011=
202312080553 METAR KCLM 080553Z AUTO 24011G19KT 10SM CLR 05/02 A3005 RMK AO2 SLP177 60002 T00500017 10072 20050 53024=
202312080453 METAR KCLM 080453Z AUTO 24012G19KT 10SM FEW120 07/02 A3002 RMK AO2 SLP168 T00670022=
202312080353 METAR KCLM 080353Z AUTO 25010KT 10SM SCT120 07/02 A3000 RMK AO2 SLP159 T00670022=
202312080253 METAR KCLM 080253Z AUTO 24009KT 10SM FEW049 06/02 A2998 RMK AO2 SLP152 60002 T00610022 51016=
202312080153 METAR KCLM 080153Z AUTO 23009KT 10SM FEW060 07/02 A2997 RMK AO2 RAE0056 SLP149 P0000 T00670022=
202312080053 METAR KCLM 080053Z AUTO 23009KT 10SM -RA FEW028 BKN046 OVC110 07/03 A2996 RMK AO2 RAB02 SLP146 P0002 T00670033=
202312072353 METAR KCLM 072353Z AUTO 27008KT 10SM OVC055 07/03 A2993 RMK AO2 RAB36E45 SLP137 P0000 60005 T00720033 10089 20067 53020=
202312072253 METAR KCLM 072253Z AUTO 26012KT 10SM FEW095 09/02 A2990 RMK AO2 SLP127 T00890022=
202312072153 METAR KCLM 072153Z AUTO 26009KT 10SM FEW036 BKN080 08/04 A2988 RMK AO2 SLP120 T00830039=
202312072053 METAR KCLM 072053Z AUTO 24008KT 10SM SCT030 BKN080 OVC090 08/04 A2987 RMK AO2 SLP117 60005 T00780039 53015=
202312071953 METAR KCLM 071953Z AUTO 24008KT 10SM BKN035 BKN046 OVC090 07/04 A2985 RMK AO2 RAE26 SLP110 P0001 T00720039=
202312071853 METAR KCLM 071853Z AUTO 23005KT 7SM -RA OVC032 07/04 A2984 RMK AO2 SLP107 P0004 T00670039=
202312071808 SPECI KCLM 071808Z AUTO 28006KT 10SM -RA FEW012 SCT023 OVC032 07/04 A2983 RMK AO2 P0000 T00670044=
202312071753 METAR KCLM 071753Z AUTO 27008KT 4SM -RA BR FEW005 BKN022 OVC026 07/04 A2982 RMK AO2 SLP101 P0006 60033 T00670044 10072 20067 53025=
202312071748 SPECI KCLM 071748Z AUTO 27007KT 3SM -RA BR FEW005 SCT014 OVC021 07/04 A2982 RMK AO2 P0005=
202312071746 SPECI KCLM 071746Z AUTO 27007KT 2 1/2SM -RA BR FEW005 BKN014 OVC021 07/04 A2982 RMK AO2 P0005 T00670044=
202312071740 SPECI KCLM 071740Z AUTO 27008KT 4SM -RA BR SCT005 BKN016 OVC020 07/04 A2982 RMK AO2 P0005 T00670044=
202312071728 SPECI KCLM 071728Z AUTO 28006KT 4SM -RA BR BKN005 BKN010 OVC022 07/04 A2981 RMK AO2 CIG 003V009 P0004 T00670044=
202312071715 SPECI KCLM 071715Z AUTO 27005KT 2 1/2SM -RA BR BKN007 OVC013 07/04 A2980 RMK AO2 CIG 004V010 P0003 T00670044=
202312071706 SPECI KCLM 071706Z AUTO 27004KT 3SM -RA BR BKN007 BKN015 OVC020 07/04 A2980 RMK AO2 CIG 005V010 P0001 T00670044=
202312071702 SPECI KCLM 071702Z AUTO 28004KT 2 1/2SM -RA BR SCT007 BKN015 OVC020 07/04 A2980 RMK AO2 P0001 T00670044=
202312071653 METAR KCLM 071653Z AUTO 27004KT 4SM -RA BR SCT009 BKN013 OVC020 07/04 A2979 RMK AO2 SLP089 P0009 T00670044=
202312071641 SPECI KCLM 071641Z AUTO 25004KT 4SM -RA BR FEW009 BKN015 OVC022 07/04 A2978 RMK AO2 P0008 T00670044=
202312071632 SPECI KCLM 071632Z AUTO 25003KT 4SM -RA BR BKN011 OVC017 07/04 A2978 RMK AO2 P0008 T00670044=
202312071622 SPECI KCLM 071622Z AUTO 26003KT 3SM -RA BR SCT009 OVC015 07/04 A2978 RMK AO2 P0008 T00670044=
202312071606 SPECI KCLM 071606Z AUTO 26003KT 2 1/2SM RA BR OVC007 07/04 A2977 RMK AO2 CIG 006V010 P0004 T00670044=
202312071553 METAR KCLM 071553Z AUTO 25003KT 3SM -RA BR OVC007 07/04 A2976 RMK AO2 SLP081 P0005 T00670044=
202312071529 SPECI KCLM 071529Z AUTO 22003KT 6SM -RA OVC009 07/04 A2976 RMK AO2 P0003 T00720044=
202312071453 METAR KCLM 071453Z AUTO 00000KT 10SM -RA BKN010 OVC021 07/04 A2975 RMK AO2 RAE16B53 SLP075 P0001 60013 T00720039 51003=
202312071449 SPECI KCLM 071449Z AUTO 05004KT 10SM BKN010 OVC021 07/04 A2975 RMK AO2 RAE16 CIG 008V014 P0001=
202312071353 METAR KCLM 071353Z AUTO 00000KT 4SM -RA BR BKN006 OVC011 07/05 A2975 RMK AO2 SLP076 P0011 T00670050=
202312071253 METAR KCLM 071253Z AUTO 24004KT 10SM -RA OVC009 07/04 A2974 RMK AO2 CIG 007V012 SLP073 P0001 T00670044=
202312071244 SPECI KCLM 071244Z AUTO 00000KT 10SM -RA BKN009 OVC013 07/04 A2974 RMK AO2 CIG 008V012 P0001 T00720044=
202312071216 SPECI KCLM 071216Z AUTO 00000KT 10SM -RA BKN012 OVC043 07/04 A2973 RMK AO2 P0001 T00720044=
202312071153 METAR KCLM 071153Z AUTO 09004KT 7SM -RA FEW012 OVC041 07/04 A2974 RMK AO2 RAB35 SLP070 P0001 60001 70002 T00720044 10072 20050 50002=
202312071138 SPECI KCLM 071138Z AUTO 07003KT 10SM -RA SCT019 OVC043 06/03 A2974 RMK AO2 RAB35 P0001 T00610033=
202312071118 SPECI KCLM 071118Z AUTO 13003KT 10SM BKN019 OVC065 06/03 A2974 RMK AO2 T00610033=
202312071053 METAR KCLM 071053Z AUTO 11003KT 10SM SCT020 OVC035 06/03 A2974 RMK AO2 SLP072 T00610028=
202312070953 METAR KCLM 070953Z AUTO 11006KT 10SM BKN037 BKN095 07/03 A2973 RMK AO2 SLP069 T00670033=
202312070853 METAR KCLM 070853Z AUTO 12008KT 10SM CLR 07/03 A2973 RMK AO2 SLP068 T00670033 53003=
202312070753 METAR KCLM 070753Z AUTO 10006KT 10SM CLR 06/04 A2972 RMK AO2 SLP066 T00610039 401000050=
202312070653 METAR KCLM 070653Z AUTO 11005KT 10SM CLR 06/04 A2973 RMK AO2 SLP068 T00560039=
202312070553 METAR KCLM 070553Z AUTO 13004KT 10SM BKN033 07/04 A2972 RMK AO2 SLP066 T00670044 10089 20067 51001=
202312070453 METAR KCLM 070453Z AUTO 14006KT 10SM OVC033 08/05 A2972 RMK AO2 SLP065 T00830050=
202312070353 METAR KCLM 070353Z AUTO 16004KT 10SM OVC030 08/06 A2973 RMK AO2 SLP067 T00830056=
202312070253 METAR KCLM 070253Z AUTO 00000KT 10SM OVC032 08/06 A2972 RMK AO2 SLP065 T00780061 58005=
202312070203 SPECI KCLM 070203Z AUTO 00000KT 10SM OVC031 08/06 A2972 RMK AO2 T00830061=
202312070153 METAR KCLM 070153Z AUTO 12003KT 10SM OVC029 08/06 A2972 RMK AO2 SLP066 T00830056=
202312070113 SPECI KCLM 070113Z AUTO 16004KT 10SM BKN028 OVC033 08/06 A2973 RMK AO2 T00830056=
202312070053 METAR KCLM 070053Z AUTO 15005KT 10SM OVC032 08/06 A2973 RMK AO2 SLP070 T00830056=
202312070037 SPECI KCLM 070037Z AUTO 13005KT 10SM OVC030 08/06 A2973 RMK AO2 T00830061=
202312062353 METAR KCLM 062353Z AUTO 15005KT 10SM OVC029 09/07 A2973 RMK AO2 SLP069 60001 T00890067 10100 20089 56006=
202312062308 SPECI KCLM 062308Z AUTO 12003KT 10SM SCT012 OVC024 09/06 A2974 RMK AO2 T00890061=
202312062253 METAR KCLM 062253Z AUTO 11003KT 10SM FEW006 BKN012 OVC022 09/06 A2974 RMK AO2 SLP071 T00890061=
202312062237 SPECI KCLM 062237Z AUTO 00000KT 3SM BR BKN006 OVC010 09/07 A2973 RMK AO2 CIG 003V008 T00890067=
202312062229 SPECI KCLM 062229Z AUTO VRB03KT 2 1/2SM BR OVC004 09/07 A2973 RMK AO2 CIG 003V007 T00890072=
202312062219 SPECI KCLM 062219Z AUTO 07003KT 2 1/2SM BR OVC005 09/07 A2974 RMK AO2 CIG 002V007 T00890072=
202312062200 SPECI KCLM 062200Z AUTO VRB03KT 2SM BR BKN003 OVC008 09/07 A2974 RMK AO2 T00890072=
202312062153 METAR KCLM 062153Z AUTO 36004KT 1 3/4SM BR BKN003 BKN008 OVC012 09/07 A2974 RMK AO2 RAB13E35 SLP071 P0001 T00890072=
202312062140 SPECI KCLM 062140Z AUTO VRB05KT 2 1/2SM BR BKN002 OVC008 09/07 A2974 RMK AO2 RAB13E35 P0001 T00890072=
202312062131 SPECI KCLM 062131Z AUTO 34005KT 1 3/4SM -RA BR OVC003 09/08 A2974 RMK AO2 RAB13 CIG 001V005 P0001 T00940078=
202312062119 SPECI KCLM 062119Z AUTO 35004KT 1 3/4SM -RA BR OVC005 09/07 A2975 RMK AO2 RAB13 P0000 T00940072=
202312062107 SPECI KCLM 062107Z AUTO 29004KT 9SM BKN005 BKN023 OVC029 10/08 A2975 RMK AO2 T01000078=
202312062053 METAR KCLM 062053Z AUTO 00000KT 10SM SCT005 OVC028 10/08 A2975 RMK AO2 SLP075 T01000078 58021=
202312062047 SPECI KCLM 062047Z AUTO 00000KT 10SM FEW005 OVC028 10/08 A2976 RMK AO2=
202312062042 SPECI KCLM 062042Z AUTO 29003KT 10SM FEW011 OVC030 10/07 A2976 RMK AO2 T01000072=
202312062032 SPECI KCLM 062032Z AUTO 28004KT 10SM SCT009 OVC027 10/07 A2975 RMK AO2 T01000072=
202312062024 SPECI KCLM 062024Z AUTO 00000KT 6SM HZ BKN009 OVC027 10/07 A2975 RMK AO2 T01000072=
202312062001 SPECI KCLM 062001Z AUTO 00000KT 10SM BKN010 OVC029 10/07 A2976 RMK AO2 T01000072=
202312061953 METAR KCLM 061953Z AUTO 00000KT 10SM SCT011 OVC029 10/07 A2977 RMK AO2 SLP080 T01000072=
202312061853 METAR KCLM 061853Z AUTO 21003KT 10SM OVC029 09/07 A2980 RMK AO2 SLP092 T00940072=
202312061821 SPECI KCLM 061821Z AUTO 00000KT 10SM OVC029 09/07 A2981 RMK AO2 T00940072=
202312061802 SPECI KCLM 061802Z AUTO 00000KT 10SM FEW019 OVC030 09/07 A2981 RMK AO2 T00940072=
202312061753 METAR KCLM 061753Z AUTO 00000KT 10SM SCT018 OVC028 09/07 A2981 RMK AO2 SLP096 T00940067 10094 20078 58010=
202312061706 SPECI KCLM 061706Z AUTO 22003KT 10SM FEW008 BKN021 OVC026 09/07 A2983 RMK AO2 T00890067=
202312061653 METAR KCLM 061653Z AUTO 00000KT 10SM OVC024 09/07 A2983 RMK AO2 SLP103 T00890067=
202312061553 METAR KCLM 061553Z AUTO 21003KT 10SM SCT007 OVC018 08/07 A2984 RMK AO2 SLP104 T00830067=
202312061534 SPECI KCLM 061534Z AUTO 00000KT 7SM BKN008 OVC012 08/07 A2984 RMK AO2 T00830067=
202312061514 SPECI KCLM 061514Z AUTO 00000KT 10SM SCT006 BKN013 OVC017 08/07 A2984 RMK AO2 T00830067=
202312061507 SPECI KCLM 061507Z AUTO 00000KT 10SM SCT006 OVC015 08/06 A2985 RMK AO2 T00830061=
202312061453 METAR KCLM 061453Z AUTO 00000KT 10SM BKN006 OVC030 08/06 A2984 RMK AO2 SLP106 T00830061 58005=
202312061440 SPECI KCLM 061440Z AUTO 21003KT 10SM SCT006 OVC030 08/06 A2985 RMK AO2 T00830061=
202312061353 METAR KCLM 061353Z AUTO 00000KT 10SM OVC050 08/06 A2986 RMK AO2 SLP111 T00780061=
202312061253 METAR KCLM 061253Z AUTO 19004KT 10SM FEW014 BKN055 08/06 A2986 RMK AO2 SLP111 T00830061=
202312061237 SPECI KCLM 061237Z AUTO 00000KT 8SM SCT014 SCT027 BKN055 08/06 A2986 RMK AO2 T00780056=
202312061217 SPECI KCLM 061217Z AUTO 22003KT 10SM SCT011 BKN019 OVC027 08/07 A2987 RMK AO2 T00830067=
202312061153 METAR KCLM 061153Z AUTO 00000KT 10SM OVC010 08/06 A2987 RMK AO2 RAB1059E18 SLP115 P0000 60000 70003 T00780061 10100 20072 58010=
202312061127 SPECI KCLM 061127Z AUTO 14004KT 10SM OVC014 08/06 A2988 RMK AO2 RAB1059E18 P0000 T00780056=
202312061116 SPECI KCLM 061116Z AUTO 00000KT 10SM -RA BKN015 OVC070 08/06 A2989 RMK AO2 RAB1059 P0000 T00780056=
202312061053 METAR KCLM 061053Z AUTO 00000KT 10SM BKN070 OVC080 08/06 A2989 RMK AO2 SLP122 T00780056=
202312060953 METAR KCLM 060953Z AUTO 00000KT 10SM FEW090 08/06 A2989 RMK AO2 SLP122 T00780056=
202312060853 METAR KCLM 060853Z AUTO 22003KT 10SM SCT100 09/06 A2990 RMK AO2 SLP125 T00890061 58008=
202312060753 METAR KCLM 060753Z AUTO 23005KT 10SM CLR 09/06 A2991 RMK AO2 SLP131 T00890061 401220083=
202312060653 METAR KCLM 060653Z AUTO 24008KT 10SM FEW034 09/06 A2992 RMK AO2 SLP133 T00940061=
202312060553 METAR KCLM 060553Z AUTO 26005KT 10SM SCT005 BKN060 09/07 A2992 RMK AO2 SLP133 T00940072 10106 20089 50003=
202312060550 SPECI KCLM 060550Z AUTO 26005KT 10SM SCT005 BKN060 09/07 A2992 RMK AO2=
202312060536 SPECI KCLM 060536Z AUTO 26005KT 10SM FEW025 SCT060 09/07 A2992 RMK AO2 T00940067=
202312060508 SPECI KCLM 060508Z AUTO 33003KT 5SM BR SCT005 OVC024 09/07 A2992 RMK AO2 T00940072=
202312060453 METAR KCLM 060453Z AUTO 00000KT 2 1/2SM BR BKN005 OVC022 09/08 A2992 RMK AO2 SLP131 T00890078=
202312060434 SPECI KCLM 060434Z AUTO 00000KT 3SM BR SCT005 BKN022 09/07 A2991 RMK AO2 T00890072=
202312060427 SPECI KCLM 060427Z AUTO 00000KT 2SM BR BKN022 09/08 A2991 RMK AO2 T00940078=
202312060425 SPECI KCLM 060425Z AUTO 00000KT 1 3/4SM BR SCT023 09/08 A2991 RMK AO2 T00940078=
202312060415 SPECI KCLM 060415Z AUTO 00000KT 2 1/2SM BR FEW001 FEW120 09/07 A2992 RMK AO2 T00890072=
202312060404 SPECI KCLM 060404Z AUTO 00000KT 5SM BR FEW120 09/08 A2991 RMK AO2 T00940078=
202312060353 METAR KCLM 060353Z AUTO 00000KT 2SM BR SCT120 09/08 A2991 RMK AO2 SLP130 T00940078=
202312060345 SPECI KCLM 060345Z AUTO 00000KT 2SM BR FEW120 09/08 A2991 RMK AO2 T00940078=
202312060319 SPECI KCLM 060319Z AUTO 00000KT 6SM BR SCT027 10/08 A2993 RMK AO2 T01000078=
202312060253 METAR KCLM 060253Z AUTO 25004KT 10SM OVC026 11/08 A2993 RMK AO2 SLP137 T01060083 58002=
202312060208 SPECI KCLM 060208Z AUTO 24006KT 10SM BKN025 11/08 A2995 RMK AO2 T01060083=
202312060200 SPECI KCLM 060200Z AUTO 23006KT 3SM BR SCT027 10/08 A2996 RMK AO2 PRESRR T01000078=
202312060153 METAR KCLM 060153Z AUTO 25003KT 1 1/2SM BR FEW001 FEW100 10/08 A2995 RMK AO2 VIS 1V4 SLP142 T01000078=
202312060149 SPECI KCLM 060149Z AUTO 00000KT 1 3/4SM BR FEW001 FEW100 10/08 A2994 RMK AO2 VIS 1V5=
202312060053 METAR KCLM 060053Z AUTO 23005KT 9SM SCT110 10/08 A2994 RMK AO2 SLP140 T01000083=
202312060042 SPECI KCLM 060042Z AUTO 22003KT 5SM BR FEW110 10/09 A2993 RMK AO2 T01000089=
202312060034 SPECI KCLM 060034Z AUTO 00000KT 2SM BR SCT110 11/09 A2993 RMK AO2 T01060089=
202312060028 SPECI KCLM 060028Z AUTO 00000KT 1/2SM FG FEW110 10/09 A2993 RMK AO2 T01000089=
202312060020 SPECI KCLM 060020Z AUTO 00000KT 1 1/2SM BR CLR 11/09 A2993 RMK AO2 T01060089=
202312052353 METAR KCLM 052353Z AUTO 00000KT 10SM CLR 11/09 A2994 RMK AO2 SLP139 T01110089 10122 20111 50001=
202312052253 METAR KCLM 052253Z AUTO 00000KT 10SM BKN120 12/09 A2995 RMK AO2 SLP142 T01170094=
202312052153 METAR KCLM 052153Z AUTO 00000KT 10SM FEW026 BKN110 12/09 A2993 RMK AO2 SLP137 T01220094=
202312052053 METAR KCLM 052053Z AUTO 12004KT 10SM FEW022 OVC100 12/09 A2993 RMK AO2 SLP137 T01220094 51001=
202312052023 SPECI KCLM 052023Z AUTO 17005KT 10SM FEW019 SCT030 OVC110 12/09 A2996 RMK AO2 T01170094=
202312051953 METAR KCLM 051953Z AUTO 00000KT 10SM SCT014 OVC022 12/09 A2993 RMK AO2 SLP136 T01170094=
202312051853 METAR KCLM 051853Z AUTO 15005KT 9SM OVC018 11/09 A2995 RMK AO2 SLP142 T01110094=
202312051825 SPECI KCLM 051825Z AUTO 14004KT 10SM OVC018 11/09 A2995 RMK AO2 T01110089=
202312051753 METAR KCLM 051753Z AUTO 10005KT 10SM OVC014 11/09 A2993 RMK AO2 SLP137 60003 T01110089 10111 20100 53017=
202312051745 SPECI KCLM 051745Z AUTO 10004KT 10SM BKN015 OVC120 11/09 A2993 RMK AO2 T01110089=
202312051704 SPECI KCLM 051704Z AUTO 13003KT 10SM BKN012 OVC100 11/08 A2992 RMK AO2 T01060083=
202312051653 METAR KCLM 051653Z AUTO 00000KT 10SM FEW013 BKN090 OVC110 10/08 A2992 RMK AO2 SLP132 T01000083=
202312051553 METAR KCLM 051553Z AUTO VRB03KT 10SM OVC085 10/08 A2989 RMK AO2 RAE15 SLP123 P0000 T01000083=
202312051453 METAR KCLM 051453Z AUTO 29008KT 10SM -RA BKN065 OVC080 11/08 A2988 RMK AO2 RAB1355 SLP120 P0001 60003 T01060083 53012=
202312051353 METAR KCLM 051353Z AUTO 00000KT 10SM FEW033 BKN075 OVC110 11/08 A2985 RMK AO2 RAB34E44 SLP109 P0000 T01060083=
202312051253 METAR KCLM 051253Z AUTO 29008KT 10SM FEW039 BKN046 OVC065 11/09 A2985 RMK AO2 RAE47 SLP110 P0002 T01110089=
202312051235 SPECI KCLM 051235Z AUTO 27008KT 10SM -RA SCT007 OVC042 11/09 A2985 RMK AO2 P0002 T01110089=
202312051213 SPECI KCLM 051213Z AUTO 29008KT 9SM -RA OVC007 11/09 A2985 RMK AO2 P0001 T01110094=
202312051153 METAR KCLM 051153Z AUTO 29013G19KT 6SM -RA BR OVC004 11/09 A2985 RMK AO2 SLP108 P0009 60057 70112 T01110094 10128 20100 53016=
202312051053 METAR KCLM 051053Z AUTO 27006KT 5SM -RA BR OVC004 12/09 A2982 RMK AO2 SLP100 P0007 T01170094=
202312050953 METAR KCLM 050953Z AUTO 30005KT 6SM -RA BR OVC003 12/10 A2980 RMK AO2 SLP093 P0010 T01170100=
202312050930 SPECI KCLM 050930Z AUTO 28005KT 6SM -RA BR BKN004 OVC049 12/11 A2980 RMK AO2 P0007 T01220106=
202312050920 SPECI KCLM 050920Z AUTO VRB04KT 4SM RA BR SCT004 BKN047 OVC070 12/11 A2977 RMK AO2 P0006 T01170106=
202312050853 METAR KCLM 050853Z AUTO 28008KT 4SM RA BR OVC003 12/10 A2980 RMK AO2 SLP091 P0014 60031 T01170100 53006=
202312050845 SPECI KCLM 050845Z AUTO 26005KT 4SM RA BR BKN003 BKN019 OVC045 11/09 A2980 RMK AO2 P0012 T01110094=
202312050833 SPECI KCLM 050833Z AUTO 27005KT 3SM RA BR BKN005 BKN016 OVC075 10/09 A2979 RMK AO2 P0009 T01000089=
202312050824 SPECI KCLM 050824Z AUTO 27004KT 3SM RA BR SCT002 BKN044 OVC075 10/08 A2979 RMK AO2 P0006 T01000083=
202312050817 SPECI KCLM 050817Z AUTO 28006KT 4SM RA BR BKN002 BKN041 OVC070 10/09 A2978 RMK AO2 P0004 T01000089=
202312050807 SPECI KCLM 050807Z AUTO 26003KT 3SM RA BR BKN001 BKN032 OVC085 10/09 A2978 RMK AO2 P0002 T01000089=
202312050758 SPECI KCLM 050758Z AUTO 28009KT 3SM -RA BR SCT001 BKN012 OVC090 11/09 A2979 RMK AO2 P0000 T01060089=
202312050753 METAR KCLM 050753Z AUTO 29006KT 4SM -RA BR SCT001 BKN070 OVC090 11/09 A2977 RMK AO2 SLP082 P0005 T01060089 401280028=
202312050653 METAR KCLM 050653Z AUTO 25007KT 9SM -RA SCT070 OVC095 12/11 A2978 RMK AO2 PRESRR SLP083 P0012 T01220106=
202312050638 SPECI KCLM 050638Z AUTO 17004KT 7SM -RA SCT060 BKN080 OVC100 12/11 A2974 RMK AO2 P0011 T01220106=
202312050619 SPECI KCLM 050619Z AUTO 00000KT 2 1/2SM -RA BR BKN065 OVC080 11/09 A2977 RMK AO2 VIS 1 3/4V4 P0008 T01110094=
202312050553 METAR KCLM 050553Z AUTO 00000KT 4SM RA BR FEW060 BKN070 OVC085 11/09 A2978 RMK AO2 RAB0456 SLP085 P0008 60038 T01060094 10106 20089 50012=
202312050550 SPECI KCLM 050550Z AUTO 16005KT 4SM RA BR BKN070 OVC085 11/09 A2979 RMK AO2 RAB0456 P0007=
202312050541 SPECI KCLM 050541Z AUTO 05003KT 2SM -RA BR SCT070 OVC085 11/09 A2978 RMK AO2 RAB0456 P0004 T01060089=
202312050509 SPECI KCLM 050509Z AUTO 15006KT 4SM RA BR FEW003 BKN050 OVC085 09/08 A2979 RMK AO2 RAB0456 P0002 T00940078=
202312050453 METAR KCLM 050453Z AUTO 29007KT 10SM FEW020 BKN075 OVC090 09/07 A2981 RMK AO2 RAE53 PRESRR SLP097 P0002 T00940072=
202312050353 METAR KCLM 050353Z AUTO 00000KT 7SM -RA OVC060 09/07 A2975 RMK AO2 SLP074 P0001 T00890072=
202312050334 SPECI KCLM 050334Z AUTO 00000KT 3SM -RA BR FEW002 OVC044 09/07 A2975 RMK AO2 P0001 T00890072=
202312050327 SPECI KCLM 050327Z AUTO 17005KT 1 3/4SM -RA BR SCT002 OVC032 09/07 A2976 RMK AO2 P0001 T00890072=
202312050321 SPECI KCLM 050321Z AUTO 00000KT 2 1/2SM -RA BR SCT002 BKN022 OVC095 09/07 A2975 RMK AO2 P0001 T00940072=
202312050308 SPECI KCLM 050308Z AUTO 00000KT 6SM -RA BR SCT002 BKN060 OVC090 09/08 A2976 RMK AO2 P0001 T00940078=
202312050253 METAR KCLM 050253Z AUTO 30004KT 10SM -RA SCT060 OVC085 09/07 A2976 RMK AO2 SLP078 P0014 60027 T00940072 58005=
202312050215 SPECI KCLM 050215Z AUTO 10006KT 3SM +RA BR SCT006 OVC055 09/07 A2975 RMK AO2 PRESFR P0010 T00890072=
202312050153 METAR KCLM 050153Z AUTO 10004KT 5SM RA BR OVC005 09/07 A2978 RMK AO2 SLP086 P0009 T00890072=
202312050110 SPECI KCLM 050110Z AUTO 00000KT 5SM -RA BR OVC006 09/07 A2979 RMK AO2 CIG 004V008 P0002 T00890072=
202312050053 METAR KCLM 050053Z AUTO 20003KT 5SM -RA BR BKN004 OVC010 09/07 A2980 RMK AO2 CIG 002V007 SLP091 P0004 T00890072=
202312050013 SPECI KCLM 050013Z AUTO 00000KT 4SM -RA BR OVC002 09/07 A2979 RMK AO2 P0001 T00890072=
202312042353 METAR KCLM 042353Z AUTO 00000KT 2 1/2SM -RA BR OVC002 09/07 A2977 RMK AO2 SLP084 P0006 60008 T00890072 10094 20072 56021=
202312042334 SPECI KCLM 042334Z AUTO VRB03KT 3SM -RA BR BKN003 OVC007 09/07 A2977 RMK AO2 P0006 T00890072=
202312042320 SPECI KCLM 042320Z AUTO 00000KT 2 1/2SM RA BR OVC005 09/07 A2979 RMK AO2 CIG 002V008 P0004 T00890072=
202312042253 METAR KCLM 042253Z AUTO 33003KT 5SM -RA BR OVC002 09/07 A2978 RMK AO2 RAB32 SLP087 P0001 T00890072=
202312042153 METAR KCLM 042153Z AUTO 23005KT 9SM OVC003 09/07 A2978 RMK AO2 RAE45 SLP086 P0000 T00940072=
202312042053 METAR KCLM 042053Z AUTO 00000KT 9SM -RA OVC004 09/07 A2984 RMK AO2 RAB13E30B52 SLP105 P0000 60001 T00890067 56013=
202312042033 SPECI KCLM 042033Z AUTO 29004KT 10SM OVC004 08/07 A2986 RMK AO2 RAB13E30 P0000 T00830067=
202312041953 METAR KCLM 041953Z AUTO VRB05KT 9SM OVC005 09/07 A2986 RMK AO2 RAB33E45 SLP114 P0000 T00940072=
202312041853 METAR KCLM 041853Z AUTO 23008KT 10SM OVC005 08/06 A2984 RMK AO2 RAE49 SLP106 P0001 T00830061=
202312041753 METAR KCLM 041753Z AUTO 26008KT 10SM -RA OVC007 07/05 A2987 RMK AO2 SLP118 P0003 60009 T00720050 10083 20039 56023=
202312041653 METAR KCLM 041653Z AUTO 22006KT 4SM -RA BR OVC008 07/05 A2990 RMK AO2 SLP126 P0004 T00670050=
202312041641 SPECI KCLM 041641Z AUTO 26005KT 5SM -RA BR BKN008 BKN055 OVC070 07/04 A2991 RMK AO2 P0002 T00670044=
202312041634 SPECI KCLM 041634Z AUTO 28005KT 6SM -RA BR SCT008 OVC070 07/04 A2991 RMK AO2 P0002 T00670044=
202312041553 METAR KCLM 041553Z AUTO 00000KT 7SM -RA OVC085 07/04 A2991 RMK AO2 SLP130 P0002 T00670044=
202312041453 METAR KCLM 041453Z AUTO 10005KT 8SM -RA OVC080 08/04 A2994 RMK AO2 RAB25 SLP140 P0000 60000 T00780044 56034=
202312041353 METAR KCLM 041353Z AUTO 07004KT 10SM SCT120 07/03 A2997 RMK AO2 SLP149 T00720033=
202312041253 METAR KCLM 041253Z AUTO 12003KT 10SM CLR 05/02 A3001 RMK AO2 SLP165 T00500022=
202312041153 METAR KCLM 041153Z AUTO 22005KT 10SM CLR 04/02 A3004 RMK AO2 SLP176 70011 T00440022 10089 20028 58007=
202312041053 METAR KCLM 041053Z AUTO 18003KT 10SM CLR 04/02 A3007 RMK AO2 SLP183 T00440017=
202312040953 METAR KCLM 040953Z AUTO 23006KT 10SM FEW029 06/02 A3006 RMK AO2 SLP179 T00560022=
202312040853 METAR KCLM 040853Z AUTO 22003KT 10SM CLR 04/02 A3006 RMK AO2 SLP181 T00390017 51034=
202312040832 SPECI KCLM 040832Z AUTO 00000KT 10SM SCT022 03/01 A3005 RMK AO2 T00330011=
202312040801 SPECI KCLM 040801Z AUTO 23005KT 10SM BKN022 06/02 A3004 RMK AO2 T00560017=
202312040753 METAR KCLM 040753Z AUTO 24003KT 10SM SCT022 06/02 A3003 RMK AO2 SLP171 T00610017 401280039=
202312040653 METAR KCLM 040653Z AUTO 25008KT 10SM CLR 08/02 A3000 RMK AO2 SLP161 T00830022=
202312040553 METAR KCLM 040553Z AUTO 26008KT 10SM CLR 08/02 A2996 RMK AO2 SLP148 T00830022 10111 20056 55008=
202312040453 METAR KCLM 040453Z AUTO 29003KT 10SM CLR 06/02 A2996 RMK AO2 SLP146 T00610022=
202312040353 METAR KCLM 040353Z AUTO 20003KT 10SM SCT120 07/03 A2998 RMK AO2 SLP154 T00670033=
202312040253 METAR KCLM 040253Z AUTO 28003KT 10SM OVC060 09/03 A2999 RMK AO2 SLP157 T00940033 51036=
202312040153 METAR KCLM 040153Z AUTO 00000KT 10SM BKN060 09/03 A2995 RMK AO2 SLP144 T00940028=
202312040053 METAR KCLM 040053Z AUTO 20004KT 10SM FEW060 11/02 A2993 RMK AO2 SLP137 T01110022=
202312032353 METAR KCLM 032353Z AUTO 29007KT 10SM CLR 11/03 A2988 RMK AO2 PRESRR SLP121 60000 T01060033 10128 20072 53048=
202312032253 METAR KCLM 032253Z AUTO 30010KT 10SM CLR 12/03 A2982 RMK AO2 SLP099 T01220033=
202312032153 METAR KCLM 032153Z AUTO 29014G25KT 10SM CLR 12/04 A2978 RMK AO2 PK WND 30028/2101 SLP087 T01220039=
202312032053 METAR KCLM 032053Z AUTO 30014G28KT 10SM CLR 12/05 A2974 RMK AO2 PK WND 28029/2018 SLP071 60000 T01220050 51043=
202312032005 SPECI KCLM 032005Z AUTO 29010G22KT 10SM FEW008 FEW023 SCT055 10/07 A2971 RMK AO2 T01000067=
202312031953 METAR KCLM 031953Z AUTO 28017G27KT 10SM SCT006 BKN023 10/07 A2971 RMK AO2 PK WND 28027/1953 RAB36E48 SLP062 P0000 T01000067=
202312031935 SPECI KCLM 031935Z AUTO VRB04KT 10SM BKN006 BKN015 OVC060 08/06 A2971 RMK AO2 PRESRR T00780056=
202312031927 SPECI KCLM 031927Z AUTO VRB05KT 10SM SCT006 BKN015 OVC075 08/05 A2970 RMK AO2 PRESRR T00780050=
202312031853 METAR KCLM 031853Z AUTO 30011KT 10SM BKN060 OVC075 08/05 A2966 RMK AO2 RAB29E41 SLP044 P0000 T00780050=
202312031753 METAR KCLM 031753Z AUTO 25004KT 10SM BKN060 BKN085 07/04 A2961 RMK AO2 SLP028 60011 T00720039 10072 20050 56032=
202312031653 METAR KCLM 031653Z AUTO 00000KT 10SM FEW050 FEW070 BKN110 07/04 A2961 RMK AO2 RAE1559 SLP029 P0000 T00670039=
202312031553 METAR KCLM 031553Z AUTO 00000KT 10SM -RA BKN065 BKN080 OVC100 06/04 A2967 RMK AO2 SLP050 P0005 T00560044=
202312031453 METAR KCLM 031453Z AUTO 00000KT 6SM -RA BR OVC060 06/04 A2971 RMK AO2 SLP061 P0004 60006 T00560039 56014=
202312031353 METAR KCLM 031353Z AUTO 24003KT 10SM -RA OVC065 06/04 A2970 RMK AO2 SLP060 P0001 T00560039=
202312031253 METAR KCLM 031253Z AUTO 22004KT 10SM -RA OVC070 06/03 A2972 RMK AO2 RAB06 SLP067 P0001 T00560033=
202312031153 METAR KCLM 031153Z AUTO 00000KT 10SM BKN060 OVC080 05/03 A2975 RMK AO2 SLP075 70006 T00500033 10056 20033 58024=
202312031053 METAR KCLM 031053Z AUTO 00000KT 10SM OVC080 05/03 A2979 RMK AO2 SLP088 T00500028=
202312030953 METAR KCLM 030953Z AUTO 00000KT 10SM BKN100 OVC120 05/03 A2981 RMK AO2 SLP095 T00500028=
202312030853 METAR KCLM 030853Z AUTO 21003KT 10SM OVC100 04/02 A2982 RMK AO2 SLP099 T00440017 58007=
202312030753 METAR KCLM 030753Z AUTO 00000KT 10SM OVC110 04/02 A2983 RMK AO2 SLP102 T00390022 400890033=
202312030653 METAR KCLM 030653Z AUTO 00000KT 10SM BKN120 04/02 A2983 RMK AO2 SLP104 T00390017=
202312030553 METAR KCLM 030553Z AUTO 00000KT 10SM CLR 04/01 A2984 RMK AO2 SLP106 T00390011 10083 20033 58002=
202312030453 METAR KCLM 030453Z AUTO 00000KT 10SM FEW060 04/03 A2985 RMK AO2 SLP109 T00440028=
202312030353 METAR KCLM 030353Z AUTO 22006KT 10SM OVC070 06/02 A2986 RMK AO2 SLP114 T00610022=
202312030253 METAR KCLM 030253Z AUTO 27004KT 10SM BKN060 OVC080 06/02 A2985 RMK AO2 SLP108 T00610022 51015=
202312030153 METAR KCLM 030153Z AUTO 26004KT 10SM SCT100 07/02 A2984 RMK AO2 SLP105 T00670022=
202312030053 METAR KCLM 030053Z AUTO 21005KT 10SM CLR 07/03 A2982 RMK AO2 SLP100 T00720028=
202312022353 METAR KCLM 022353Z AUTO 26010G20KT 10SM BKN060 08/03 A2980 RMK AO2 SLP093 60006 T00830028 10089 20067 53018=
202312022253 METAR KCLM 022253Z AUTO 24008G18KT 10SM FEW047 BKN060 09/03 A2978 RMK AO2 RAB26E42 SLP085 P0000 T00890033=
202312022153 METAR KCLM 022153Z AUTO 24009KT 10SM CLR 09/04 A2976 RMK AO2 SLP080 T00890039=
202312022053 METAR KCLM 022053Z AUTO 25008KT 10SM FEW039 BKN049 OVC060 08/04 A2975 RMK AO2 SLP075 60006 T00830044 51034=
202312021953 METAR KCLM 021953Z AUTO 23009KT 10SM FEW037 SCT049 BKN060 08/04 A2973 RMK AO2 PK WND 28029/1911 WSHFT 1915 RAB01E42 SLP068 P0005 T00830044=
202312021935 SPECI KCLM 021935Z AUTO 22008KT 8SM -RA BKN031 BKN042 BKN050 07/04 A2972 RMK AO2 PK WND 28029/1911 WSHFT 1915 RAB01 P0005 T00720039=
202312021853 METAR KCLM 021853Z AUTO 27010KT 10SM BKN060 08/03 A2970 RMK AO2 PK WND 24027/1815 RAB14E26 SLP058 P0001 T00830028=
202312021753 METAR KCLM 021753Z AUTO 25009KT 10SM FEW055 SCT070 08/03 A2965 RMK AO2 RAB23E33 SLP042 P0000 60000 T00830028 10083 20061 53029=
202312021653 METAR KCLM 021653Z AUTO 26009KT 10SM FEW050 07/02 A2962 RMK AO2 RAE01 SLP033 P0000 T00720022=
202312021553 METAR KCLM 021553Z AUTO 23009KT 10SM -RA FEW039 SCT050 SCT075 07/02 A2958 RMK AO2 RAB52 SLP018 P0000 T00670022=
202312021453 METAR KCLM 021453Z AUTO 24011KT 10SM FEW040 FEW055 SCT075 07/03 A2956 RMK AO2 PK WND 26032/1358 RAE09B26E36 SLP012 P0000 60000 T00670028 51026=
202312021353 METAR KCLM 021353Z AUTO 26014G23KT 10SM -RA SCT050 BKN070 BKN100 08/02 A2955 RMK AO2 PK WND 23029/1322 PRESRR SLP008 P0000 T00780022=
202312021253 METAR KCLM 021253Z AUTO 25013G21KT 10SM -RA SCT046 BKN070 BKN120 08/03 A2952 RMK AO2 RAE05B43 SLP997 P0000 T00780028=
202312021153 METAR KCLM 021153Z AUTO 27009KT 6SM -RA FEW011 OVC036 08/05 A2949 RMK AO2 PK WND 28027/1105 SLP985 P0022 60043 70065 T00780050 10083 20061 55000=
202312021137 SPECI KCLM 021137Z AUTO 30008G16KT 4SM RA BR FEW009 SCT014 OVC030 07/05 A2949 RMK AO2 PK WND 28027/1105 P0021 T00720050=
202312021128 SPECI KCLM 021128Z AUTO 29008KT 2 1/2SM +RA SCT009 SCT014 OVC024 08/05 A2950 RMK AO2 PK WND 28027/1105 P0019 T00780050=
202312021117 SPECI KCLM 021117Z AUTO 27015G25KT 4SM RA FEW010 SCT015 OVC027 08/05 A2950 RMK AO2 PK WND 28027/1105 P0012 T00780050=
202312021107 SPECI KCLM 021107Z AUTO 27017G27KT 2SM +RA FEW015 OVC029 08/06 A2947 RMK AO2 PK WND 28027/1105 VIS 1 1/4V4 PRESRR P0009 T00830056=
202312021102 SPECI KCLM 021102Z AUTO 29008KT 1 3/4SM +RA FEW017 BKN030 OVC035 08/05 A2946 RMK AO2 VIS 1 1/4V3 PRESRR P0008 T00830050=
202312021053 METAR KCLM 021053Z AUTO 26008KT 5SM RA SCT026 OVC032 08/05 A2942 RMK AO2 SLP963 P0003 T00830050=
202312020953 METAR KCLM 020953Z AUTO 22003KT 7SM -RA OVC046 07/04 A2943 RMK AO2 SLP967 P0006 T00670044=
202312020853 METAR KCLM 020853Z AUTO 09003KT 6SM RA BR OVC037 07/04 A2949 RMK AO2 PRESFR SLP986 P0006 60012 T00670044 58065=
202312020753 METAR KCLM 020753Z AUTO 00000KT 6SM -RA BR OVC039 07/04 A2958 RMK AO2 PRESFR SLP017 P0003 T00670044 401060022=
202312020653 METAR KCLM 020653Z AUTO 12004KT 10SM -RA BKN048 OVC055 07/04 A2964 RMK AO2 RAB00 SLP037 P0003 T00670039=
202312020553 METAR KCLM 020553Z AUTO 19003KT 10SM BKN055 BKN080 OVC100 06/04 A2968 RMK AO2 RAB0454E48 SLP052 P0002 60019 T00610039 10083 20056 58016=
202312020453 METAR KCLM 020453Z AUTO 00000KT 10SM SCT047 BKN055 OVC070 06/04 A2971 RMK AO2 RAE0359 SLP062 P0000 T00610039=
202312020353 METAR KCLM 020353Z AUTO 27003KT 10SM -RA BKN037 OVC045 07/04 A2971 RMK AO2 SLP064 P0003 T00670039=
202312020253 METAR KCLM 020253Z AUTO 16006KT 7SM -RA OVC037 07/04 A2973 RMK AO2 PRESFR SLP068 P0004 60014 T00670039 58007=
202312020209 SPECI KCLM 020209Z AUTO 15010KT 7SM -RA FEW028 OVC035 07/03 A2976 RMK AO2 PRESFR P0001 T00670033=
202312020153 METAR KCLM 020153Z AUTO 16008KT 3SM RA OVC028 07/04 A2978 RMK AO2 RAB18 SLP087 P0010 T00720039=
202312020136 SPECI KCLM 020136Z AUTO 26008KT 5SM -RA BKN028 OVC038 08/03 A2978 RMK AO2 RAB18 P0003 T00780033=
202312020053 METAR KCLM 020053Z AUTO 00000KT 10SM BKN070 OVC080 07/04 A2975 RMK AO2 RAE13 SLP075 P0000 T00670039=
202312012353 METAR KCLM 012353Z AUTO 27010KT 8SM -RA OVC037 08/03 A2974 RMK AO2 RAB15 SLP072 P0000 60000 T00830028 10106 20083 53006=
202312012253 METAR KCLM 012253Z AUTO 27008KT 10SM BKN045 BKN050 OVC095 10/02 A2972 RMK AO2 SLP066 T01000017=
202312012153 METAR KCLM 012153Z AUTO 26009KT 10SM CLR 11/02 A2972 RMK AO2 SLP065 T01060022=
202312012053 METAR KCLM 012053Z AUTO 26014G21KT 10SM FEW043 10/02 A2972 RMK AO2 PK WND 26031/2017 RAB21E34 SLP066 P0000 60000 T01000022 51034=
202312011953 METAR KCLM 011953Z AUTO 25014G28KT 10SM CLR 09/02 A2969 RMK AO2 PK WND 25032/1904 SLP055 T00940017=
202312011853 METAR KCLM 011853Z AUTO 27019G27KT 10SM CLR 10/02 A2966 RMK AO2 PK WND 28027/1853 SLP047 T01000022=
202312011753 METAR KCLM 011753Z AUTO 26010G16KT 10SM SCT044 09/03 A2962 RMK AO2 SLP032 60003 T00940033 10094 20044 53022=
202312011653 METAR KCLM 011653Z AUTO 25006KT 10SM OVC120 06/03 A2959 RMK AO2 RAB10E21 SLP020 P0000 T00610033=
202312011553 METAR KCLM 011553Z AUTO VRB03KT 10SM FEW043 BKN050 OVC080 04/02 A2956 RMK AO2 RAE45 SLP012 P0001 T00440022=
202312011453 METAR KCLM 011453Z AUTO 21003KT 10SM -RA BKN050 OVC060 04/02 A2956 RMK AO2 RAE14B44 SLP010 P0001 60002 T00440022 56012=
202312011353 METAR KCLM 011353Z AUTO 20004KT 9SM -RA OVC036 05/02 A2956 RMK AO2 RAB19 SLP010 P0001 T00500022=
202312011253 METAR KCLM 011253Z AUTO 29005KT 10SM OVC065 04/02 A2957 RMK AO2 RAE34 SLP014 P0000 T00440022=
202312011153 METAR KCLM 011153Z AUTO 25005KT 10SM -RA OVC050 04/02 A2959 RMK AO2 RAB51 SLP022 P0000 60000 70002 T00440022 10044 20011 56036=
202312011053 METAR KCLM 011053Z AUTO 20004KT 10SM BKN055 OVC070 03/01 A2963 RMK AO2 SLP035 T00330011=
202312010953 METAR KCLM 010953Z AUTO 00000KT 9SM OVC100 03/01 A2966 RMK AO2 SLP044 T00280011=
202312010853 METAR KCLM 010853Z AUTO 20003KT 10SM OVC100 02/01 A2970 RMK AO2 SLP058 T00220011 58020=
202312010753 METAR KCLM 010753Z AUTO 22003KT 10SM CLR 02/01 A2973 RMK AO2 SLP071 T00220006 400670011=
202312010653 METAR KCLM 010653Z AUTO 00000KT 10SM BKN060 02/01 A2976 RMK AO2 SLP079 T00220006=
202312010553 METAR KCLM 010553Z AUTO 00000KT 10SM CLR 03/01 A2976 RMK AO2 SLP079 60000 T00280006 10056 20017 58006=
202312010453 METAR KCLM 010453Z AUTO 28005KT 9SM CLR 02/01 A2977 RMK AO2 SLP083 T00220006=
202312010353 METAR KCLM 010353Z AUTO 00000KT 8SM FEW055 BKN070 03/01 A2978 RMK AO2 SLP086 T00280011=
202312010253 METAR KCLM 010253Z AUTO 00000KT 10SM SCT039 BKN065 04/02 A2978 RMK AO2 SLP085 60000 T00390022 53002=
202312010153 METAR KCLM 010153Z AUTO 22003KT 7SM FEW050 SCT120 04/02 A2977 RMK AO2 SLP082 T00390017=
202312010053 METAR KCLM 010053Z AUTO 00000KT 8SM OVC055 05/03 A2977 RMK AO2 RAE14 SLP082 P0000 T00500033=
202312010001 SPECI KCLM 010001Z AUTO 00000KT 5SM -RA BR SCT019 BKN048 OVC060 06/03 A2977 RMK AO2 P0000 T00560033=

# No short TAF reports from KCLM in databse.

###################################
#  large TAF from KCLM
###################################
202312312324 TAF KCLM 312324Z 0100/0124 09004KT P6SM SCT009
                      TEMPO 0100/0103 BKN009 FM010300 11004KT P6SM
                       OVC015 FM011000 VRB03KT 5SM BR OVC008 FM011800
                       12003KT P6SM OVC250=
202312312103 KCLM 312103Z 3121/0118 06004KT P6SM BKN025 OVC200 FM010300 11004KT
                       P6SM OVC025 FM011000 VRB03KT 5SM BR OVC008=
202312311726 TAF KCLM 311726Z 3118/0118 24006KT P6SM FEW025 FM312000 06004KT
                       P6SM BKN035 OVC200 FM010300 11004KT P6SM
                       OVC025 FM011000 VRB03KT 5SM BR OVC008=
202312311422 KCLM 311422Z 3114/0112 23004KT P6SM FEW015 OVC025 FM312000 06004KT
                       P6SM BKN035 OVC200 FM010300 11004KT P6SM
                       OVC025 FM011000 VRB03KT 5SM BR OVC008=
202312311138 TAF KCLM 311138Z 3112/0112 VRB04KT P6SM BKN015
                      TEMPO 3112/3115 VRB03KT 4SM BR BKN010 FM312000
                       06004KT P6SM BKN035 OVC200 FM010300 11004KT
                       P6SM OVC025 FM011000 VRB03KT 5SM BR OVC008=
202312310840 KCLM 310840Z 3109/0106 22003KT 2SM BR SCT010 FM310900 23004KT P6SM
                       OVC020 FM312100 07004KT P6SM OVC015=
202312310625 KCLM 310625Z 3106/0106 00000KT 1SM BR VV002 FM310900 23004KT P6SM
                       OVC020 FM312100 07004KT P6SM OVC015=
202312310520 TAF KCLM 310520Z 3106/0106 28004KT P6SM FEW010 FM310900 23004KT
                       P6SM OVC020 FM312100 07004KT P6SM OVC015=
202312302321 TAF KCLM 302321Z 3100/3124 30005KT P6SM VCSH OVC015 FM310200 26006KT
                       P6SM OVC015 FM310600 25004KT P6SM OVC004
                       FM312100 07004KT P6SM OVC015=
202312302126 KCLM 302126Z 3021/3118 29006KT P6SM -SHRA SCT009 BKN017 OVC035
                       TEMPO 3021/3023 -SHRA OVC009 FM302300 27003KT
                       P6SM BKN025 OVC030 FM310600 26006KT P6SM
                       OVC025 FM310900 25004KT P6SM OVC015=
202312302011 KCLM 302011Z 3020/3118 30008KT P6SM -SHRA OVC015
                      TEMPO 3020/3022 -SHRA OVC004 FM302200 27003KT
                       P6SM BKN025 OVC030 FM310600 26006KT P6SM
                       OVC025 FM310900 25004KT P6SM OVC015=
202312301724 TAF KCLM 301724Z 3018/3118 23004KT P6SM -SHRA SCT060 BKN070 OVC090
                       FM302200 27003KT P6SM BKN025 OVC030 FM310600
                       26006KT P6SM OVC025 FM310900 25004KT P6SM
                       OVC015=
202312301141 TAF KCLM 301141Z 3012/3112 VRB03KT P6SM VCSH BKN040 OVC050 FM301800
                       26003KT P6SM -RA OVC025 FM302200 27003KT
                       P6SM BKN025 OVC030=
202312300522 TAF KCLM 300522Z 3006/3106 VRB03KT P6SM FEW070 OVC110 FM301100
                       23003KT P6SM VCSH BKN040 OVC050 FM301800
                       26003KT P6SM -RA OVC025 FM302200 27003KT
                       P6SM BKN025 OVC030=
202312292322 TAF KCLM 292322Z 3000/3024 VRB05KT P6SM OVC090 FM300300 VRB03KT
                       P6SM VCSH OVC060 FM301100 23003KT P6SM VCSH
                       BKN040 OVC050 FM301800 26003KT P6SM -RA
                       OVC025 FM302200 27003KT P6SM BKN025 OVC030=
202312291725 TAF KCLM 291725Z 2918/3018 VRB05KT P6SM SCT090 OVC120 FM300300
                       VRB03KT P6SM VCSH OVC060 FM301100 23003KT
                       P6SM VCSH BKN040 OVC050=
202312291128 TAF KCLM 291128Z 2912/3012 VRB03KT P6SM SCT120 FM291500 11005KT
                       P6SM BKN090 OVC120 FM300000 07007KT P6SM
                       VCSH OVC100 FM300600 VRB02KT P6SM VCSH BKN045
                       OVC070=
202312290520 TAF KCLM 290520Z 2906/3006 VRB03KT P6SM FEW120 FM291200 09007KT
                       P6SM BKN090 OVC120 FM291500 09013KT P6SM
                       BKN090 OVC120 FM300000 07007KT P6SM OVC100=
202312282320 TAF KCLM 282320Z 2900/2924 VRB03KT P6SM BKN060 OVC090 FM291200
                       09007KT P6SM BKN090 OVC120=
202312281720 TAF KCLM 281720Z 2818/2918 13005KT P6SM VCSH FEW025 SCT080 BKN100
                       TEMPO 2818/2820 3SM -SHRA SCT025 BKN040
                       FM290000 11003KT P6SM SCT050 BKN080=
202312281447 KCLM 281447Z 2815/2912 VRB03KT 6SM BR BKN040 BKN070
                      TEMPO 2815/2818 2SM BR FM281800 10002KT P6SM
                       VCSH FEW025 OVC045 FM290000 12002KT P6SM
                       SCT050 BKN080=
202312281358 KCLM 281358Z 2814/2912 VRB03KT 6SM BR BKN040 BKN070 FM281800 10002KT
                       P6SM VCSH FEW025 OVC045 FM290000 12002KT
                       P6SM SCT050 BKN080=
202312281307 KCLM 281307Z 2813/2912 VRB03KT 4SM BR BKN040 BKN070 FM281800 10002KT
                       P6SM VCSH FEW025 OVC045 FM290000 12002KT
                       P6SM SCT050 BKN080=
202312281131 TAF KCLM 281131Z 2812/2912 VRB03KT P6SM -RA OVC040 FM281800 10002KT
                       P6SM VCSH FEW025 OVC045 FM290000 12002KT
                       P6SM SCT050 BKN080=
202312280542 TAF KCLM 280542Z 2806/2906 15004KT P6SM -RA OVC040 FM281000 VRB04KT
                       P6SM VCSH OVC040 FM281200 VRB03KT P6SM VCSH
                       OVC040 FM281800 18003KT P6SM VCSH SCT020
                       OVC035=
202312272320 TAF KCLM 272320Z 2800/2824 14012G22KT P6SM -RA OVC030 FM280300
                       13008KT P6SM -RA OVC025 FM281200 VRB03KT
                       P6SM VCSH OVC020 FM281800 18003KT P6SM VCSH
                       SCT020 OVC035=
202312271724 TAF KCLM 271724Z 2718/2818 16008KT P6SM -RA OVC050 FM272300 20004KT
                       P6SM -RA OVC040 FM280300 VRB03KT P6SM -RA
                       OVC030 FM281100 19003KT P6SM VCSH OVC025=
202312271124 TAF KCLM 271124Z 2712/2812 19003KT P6SM VCSH BKN110 FM271800 14004KT
                       P6SM -RA OVC050 FM280200 20004KT P6SM OVC050
                       FM281100 18003KT P6SM OVC027=
202312270547 TAF KCLM 270547Z 2706/2806 VRB03KT 6SM BR VCSH FEW008 BKN080 FM270700
                       16005KT P6SM VCSH OVC080 FM271800 14004KT
                       P6SM -RA OVC035 FM280200 10004KT P6SM OVC050=
202312262320 TAF KCLM 262320Z 2700/2724 VRB03KT P6SM OVC006 FM270200 VRB04KT
                       P6SM SCT010 BKN050 FM270600 10003KT P6SM
                       VCSH SCT030 OVC050 FM271800 16004KT P6SM
                       -RA OVC030=
202312262101 KCLM 262101Z 2621/2718 VRB04KT P6SM BKN006 FM262300 24004KT P6SM
                       SCT025 BKN200 FM270200 VRB04KT P6SM BKN100
                       FM270600 10003KT P6SM VCSH SCT030 OVC050=
202312261720 TAF KCLM 261720Z 2618/2718 VRB04KT P6SM BKN010 OVC020 FM262100
                       24004KT P6SM SCT025 BKN200 FM270200 VRB04KT
                       P6SM BKN100 FM270600 10003KT P6SM VCSH SCT030
                       OVC050=
202312261448 KCLM 261448Z 2615/2712 VRB04KT P6SM OVC050
                      TEMPO 2615/2618 1SM BR VV002 FM262100 09004KT
                       P6SM BKN100 FM270000 VRB04KT P6SM BKN100
                       FM270600 12003KT P6SM -SHRA SCT030 OVC050=
202312261123 TAF KCLM 261123Z 2612/2712 27007KT P6SM VCSH OVC040 FM261400 VRB04KT
                       P6SM OVC050 FM262100 09004KT P6SM BKN100
                       FM270000 VRB04KT P6SM BKN100 FM270600 12003KT
                       P6SM -SHRA SCT030 OVC050=
202312260546 TAF KCLM 260546Z 2606/2706 VRB04KT 6SM -RA OVC060 FM260900 25007KT
                       P6SM VCSH OVC030 FM261400 VRB04KT P6SM OVC040
                       FM262100 09004KT P6SM BKN100 FM270000 VRB04KT
                       P6SM BKN100=
202312252323 TAF KCLM 252323Z 2600/2624 13005KT P6SM -SHRA OVC060 FM260200 10006KT
                       6SM -RA OVC035 FM260900 24007KT P6SM VCSH
                       OVC030 FM261400 VRB04KT P6SM OVC040 FM262100
                       09004KT P6SM SCT040 BKN200=
202312251725 TAF KCLM 251725Z 2518/2618 VRB03KT P6SM VCSH OVC035 FM252100 13005KT
                       6SM -SHRA BR OVC025 FM260200 10006KT 6SM
                       -RA OVC035 FM260900 24007KT P6SM VCSH OVC030
                       FM261400 VRB04KT P6SM OVC040=
202312251124 TAF KCLM 251124Z 2512/2612 VRB03KT P6SM VCSH OVC035 FM252100 13005KT
                       6SM -SHRA BR OVC025 FM260400 10008G18KT
                       6SM -RA OVC035=
202312250544 TAF KCLM 250544Z 2506/2606 20004KT P6SM SCT250 FM251200 VRB03KT
                       P6SM VCSH OVC035 FM252100 13005KT 6SM -RA
                       BR OVC025 FM260300 10008G18KT 6SM -RA OVC035=
202312242321 TAF KCLM 242321Z 2500/2524 00000KT P6SM VCSH OVC090 FM250500 20004KT
                       P6SM OVC040 FM251200 VRB03KT P6SM VCSH OVC030
                       FM252100 16002KT 6SM -RA BR OVC025=
202312241720 TAF KCLM 241720Z 2418/2518 VRB04KT P6SM OVC100 FM242100 VRB03KT
                       P6SM VCSH OVC030 FM250500 20004KT P6SM OVC040
                       FM251200 VRB03KT P6SM VCSH OVC030=
202312241123 TAF KCLM 241123Z 2412/2512 21003KT P6SM BKN250 FM241600 VRB04KT
                       P6SM OVC100 FM242100 VRB03KT P6SM VCSH OVC030=
202312240520 TAF KCLM 240520Z 2406/2506 VRB03KT P6SM SCT250 FM240900 22003KT
                       P6SM BKN250 FM241600 VRB04KT P6SM OVC100
                       FM242100 VRB03KT P6SM VCSH OVC030=
202312232322 TAF KCLM 232322Z 2400/2424 VRB03KT P6SM SCT250 FM240900 22003KT
                       P6SM BKN250 FM241600 VRB04KT P6SM OVC100
                       FM242100 VRB03KT P6SM VCSH OVC030=
202312231727 TAF KCLM 231727Z 2318/2418 22005KT P6SM SKC FM232000 09005KT P6SM
                       SCT250 FM240000 15003KT P6SM SCT250 FM240900
                       22003KT P6SM BKN250 FM241600 15004KT P6SM
                       OVC100=
202312231209 KCLM 231209Z 2312/2412 22010KT P6SM SKC FM231800 08005KT P6SM SCT250
                       FM240700 22003KT P6SM BKN250=
202312231135 TAF KCLM 231135Z 2312/2412 22010KT 4SM BR OVC020 FM231800 08005KT
                       P6SM SCT250 FM240700 22003KT P6SM BKN250=
202312230520 TAF KCLM 230520Z 2306/2406 23010KT P6SM SKC FM231200 22003KT 4SM
                       BR OVC020 FM231800 08005KT P6SM SCT250=
202312222332 TAF KCLM 222332Z 2300/2324 26009KT P6SM VCSH SCT025 BKN060 FM230600
                       23007KT P6SM BKN050 FM231800 08005KT P6SM
                       SCT250=
202312221737 TAF KCLM 221737Z 2218/2318 27012G19KT P6SM VCSH BKN040 OVC090 FM222300
                       27012KT P6SM VCSH SCT025 BKN050 FM230600
                       24007KT P6SM BKN050=
202312221142 TAF KCLM 221142Z 2212/2312 27006KT P6SM OVC008 FM221500 27012KT
                       P6SM SCT008 BKN015 OVC030 FM221800 27015G25KT
                       P6SM VCSH FEW015 BKN035 BKN050 FM222300
                       27012KT P6SM SCT025 BKN050 FM230600 27008KT
                       P6SM BKN050=
202312220527 TAF KCLM 220527Z 2206/2306 10003KT P6SM OVC007 FM220800 VRB05KT
                       P6SM VCSH SCT008 OVC015 FM221300 27009G15KT
                       P6SM -SHRA OVC015 FM221700 27020G30KT P6SM
                       VCSH FEW015 BKN035 BKN050 FM222100 27012G21KT
                       P6SM FEW015 BKN050=
202312212334 TAF KCLM 212334Z 2200/2224 VRB03KT P6SM OVC008 FM220800 VRB05KT
                       P6SM VCSH SCT008 OVC015 FM221300 27009G15KT
                       P6SM -SHRA OVC015 FM221700 27012G22KT P6SM
                       VCSH FEW015 BKN035 BKN050 FM222100 27012G21KT
                       P6SM FEW015 BKN050=
202312211736 TAF KCLM 211736Z 2118/2218 VRB03KT P6SM OVC010 FM212200 VRB03KT
                       P6SM OVC015 FM221100 25006KT P6SM -RA OVC020
                       FM221600 28009G15KT P6SM -SHRA BKN020 OVC030=
202312211544 KCLM 211544Z 2116/2212 VRB03KT P6SM OVC007 FM211900 VRB03KT P6SM
                       OVC015 FM221000 11006KT P6SM -RA OVC045=
202312211145 TAF KCLM 211145Z 2112/2212 VRB03KT P6SM SCT006 OVC015
                      TEMPO 2112/2116 BKN006 OVC015 FM211800 VRB03KT
                       P6SM SCT030 BKN100 OVC200 FM221000 11006KT
                       P6SM -RA OVC045=
202312210520 TAF KCLM 210520Z 2106/2206 21003KT P6SM BKN010 OVC020 FM210900
                       24003KT 5SM BR OVC007 FM211200 VRB03KT P6SM
                       VCSH OVC015 FM220300 VRB03KT P6SM OVC050=
202312202321 TAF KCLM 202321Z 2100/2124 VRB03KT P6SM SCT020 BKN080 FM210200
                       24003KT P6SM OVC015 FM210600 22004KT 3SM
                       BR OVC010 FM211200 21003KT 5SM BR OVC015
                       PROB30 2112/2116 -RA OVC020 FM211900 12003KT
                       P6SM OVC020=
202312201957 KCLM 201957Z 2020/2118 VRB03KT P6SM SCT002 SCT020
                      TEMPO 2020/2022 1SM BR BKN001 FM210000 24003KT
                       5SM BR OVC015 FM210600 22004KT 3SM BR OVC007=
202312201931 KCLM 201931Z 2020/2118 VRB03KT P6SM SCT002 SCT020 FM210000 24003KT
                       5SM BR OVC015 FM210600 22004KT 3SM BR OVC007=
202312201812 KCLM 201812Z 2018/2118 VRB03KT 3SM BR SCT001
                      TEMPO 2018/2020 1/2SM FG VV002 FM202000 VRB03KT
                       P6SM SCT002 BKN020 FM210000 24003KT 5SM
                       BR OVC015 FM210600 22004KT 3SM BR OVC007=
202312201720 TAF KCLM 201720Z 2018/2118 VRB03KT 1/2SM FG VV002 FM202000 VRB03KT
                       P6SM SCT002 BKN020 FM210000 24003KT 5SM
                       BR OVC015 FM210600 22004KT 3SM BR OVC007=
202312201457 KCLM 201457Z 2015/2112 VRB03KT 3SM BR SCT002 SCT020
                      TEMPO 2015/2017 1/2SM FG VV002 FM201700 24005KT
                       5SM BR SCT004 BKN020 FM202100 06004KT P6SM
                       BKN025 BKN200 FM210600 22004KT 6SM BR OVC012=
202312201132 TAF KCLM 201132Z 2012/2112 VRB03KT 4SM BR FEW002 SCT020
                      TEMPO 2012/2016 1/2SM FG VV002 FM201700 24005KT
                       5SM BR SCT004 BKN020 FM202100 06004KT P6SM
                       BKN025 BKN200 FM210600 22004KT 6SM BR OVC012=
202312200943 KCLM 200943Z 2010/2106 22004KT 4SM BR FEW001 SCT020
                      TEMPO 2010/2014 2SM BR BKN002 FM201400 23004KT
                       5SM BR FEW003 BKN015 FM201900 26005KT P6SM
                       OVC015 FM210000 22004KT P6SM OVC008=
202312200824 KCLM 200824Z 2008/2106 22004KT 1SM BR OVC002
                      TEMPO 2015/2019 5SM BR OVC009 FM201900 26005KT
                       P6SM OVC015 FM210000 22004KT P6SM OVC008=
202312200541 TAF KCLM 200541Z 2006/2106 22004KT P6SM OVC006 FM201900 26005KT
                       P6SM OVC015 FM210000 22004KT P6SM OVC008=
202312200334 KCLM 200334Z 2004/2024 23004KT P6SM BKN008 OVC035 FM200600 24004KT
                       6SM BR OVC014 FM201100 21003KT 4SM BR OVC007
                       FM202000 15004KT 6SM BR OVC015=
202312192343 TAF KCLM 192343Z 2000/2024 24004KT P6SM OVC015 FM200200 20003KT
                       6SM BR OVC035 FM200800 24004KT 6SM BR OVC014
                       FM201100 21003KT 4SM BR OVC007 FM202000
                       15004KT 6SM BR OVC015=
202312191725 TAF KCLM 191725Z 1918/2018 24006KT P6SM VCSH SCT010 OVC015 FM192000
                       26004KT 6SM -SHRA OVC020 FM200200 VRB03KT
                       6SM BR VCSH OVC022 FM200800 24004KT 6SM
                       BR OVC014 FM201100 22003KT 4SM BR OVC007=
202312191138 TAF KCLM 191138Z 1912/2012 25004KT 6SM BR OVC004 FM191500 VRB03KT
                       6SM -SHRA OVC009 FM192000 VRB03KT 6SM -SHRA
                       OVC020 FM200200 VRB03KT 6SM BR VCSH OVC022
                       FM200900 24004KT 6SM BR OVC014=
202312190908 KCLM 190908Z 1909/2006 25004KT 6SM BR OVC003 FM191500 VRB04KT 6SM
                       -SHRA OVC030 FM192000 25005KT 5SM -SHRA
                       OVC020 FM200000 VRB03KT 4SM BR OVC015=
202312190543 TAF KCLM 190543Z 1906/2006 VRB03KT 6SM BR VCSH OVC007 FM190900
                       VRB02KT 2SM BR OVC003 FM191500 VRB04KT 6SM
                       -SHRA OVC030 FM192000 25005KT 5SM -SHRA
                       OVC020 FM200000 VRB03KT 4SM BR OVC015=
202312182346 TAF KCLM 182346Z 1900/1924 VRB03KT P6SM VCSH OVC009 FM190600 VRB03KT
                       P6SM -SHRA OVC005 FM191500 08003KT 6SM -SHRA
                       OVC020=
202312182102 KCLM 182102Z 1821/1918 VRB03KT P6SM BKN007 OVC100 FM190000 VRB02KT
                       P6SM -SHRA BKN050 OVC100 FM190600 11002KT
                       P6SM -SHRA OVC025=
202312181849 TAF KCLM 181849Z 1819/1918 VRB03KT P6SM BKN007 OVC100 FM182100
                       VRB02KT P6SM BKN050 OVC100 FM190000 11002KT
                       P6SM -SHRA OVC025=
202312181120 TAF KCLM 181120Z 1812/1912 VRB03KT P6SM OVC100 FM182100 VRB02KT
                       P6SM BKN050 OVC100 FM190000 11002KT P6SM
                       -SHRA OVC025=
202312180526 TAF KCLM 180526Z 1806/1906 15005KT P6SM OVC120 FM180900 17003KT
                       P6SM OVC100 FM182100 11002KT P6SM OVC050
                       FM190000 11002KT P6SM VCSH OVC025=
202312172349 TAF KCLM 172349Z 1800/1824 VRB03KT P6SM SCT010 OVC100 FM180900
                       VRB03KT P6SM VCSH BKN080 OVC120 FM182300
                       12003KT P6SM -RA OVC050=
202312171744 KCLM 171744Z 1718/1818 14002KT P6SM OVC005 FM172200 10005KT P6SM
                       BKN006 BKN200 FM180100 VRB03KT P6SM SCT010
                       OVC100 FM180900 VRB03KT P6SM VCSH BKN080
                       OVC120=
202312171743 TAF KCLM 171743Z 1718/1818 14002KT 6SM BR OVC005 FM172200 10005KT
                       P6SM BKN006 BKN200 FM180100 VRB03KT P6SM
                       SCT010 OVC100 FM180900 VRB03KT P6SM VCSH
                       BKN080 OVC120=
202312171134 TAF KCLM 171134Z 1712/1812 13004KT 5SM BR OVC003 FM171600 14002KT
                       6SM BR OVC005 FM172200 10005KT P6SM BKN006
                       BKN200 FM180100 VRB03KT P6SM SCT010 OVC100
                       FM180900 VRB03KT P6SM VCSH BKN080 OVC120=
202312170904 KCLM 170904Z 1709/1806 13003KT 5SM BR OVC003 FM171500 14002KT 2SM
                       BR OVC004 FM172200 10005KT P6SM OVC250 FM180300
                       VRB03KT P6SM OVC100=
202312170522 TAF KCLM 170522Z 1706/1806 13003KT P6SM OVC003 FM170900 18003KT
                       1/2SM FG OVC001 FM171500 14002KT 2SM BR
                       OVC004 FM172200 10005KT P6SM OVC250 FM180300
                       VRB03KT P6SM OVC100=
202312162329 TAF KCLM 162329Z 1700/1724 VRB02KT 1/2SM FG VV001 FM170500 13002KT
                       1/4SM FG OVC001 FM172200 10002KT 6SM BR
                       OVC250=
202312162021 KCLM 162021Z 1620/1718 VRB03KT P6SM BKN200
                      TEMPO 1620/1622 1/2SM FG FM170300 22002KT
                       P6SM BKN250
                      TEMPO 1708/1712 4SM BR BKN025 FM171400 10002KT
                       6SM BR OVC250=
202312161732 TAF KCLM 161732Z 1618/1718 07003KT P6SM SCT007 FM162200 08003KT
                       P6SM SCT250 FM170300 22002KT P6SM BKN250
                       TEMPO 1708/1712 4SM BR BKN025 FM171400 10002KT
                       6SM BR OVC250=
202312161358 KCLM 161358Z 1614/1712 00000KT P6SM SCT002 SCT250
                      TEMPO 1614/1617 1/4SM FG VV001 FM161700 07003KT
                       P6SM SCT007 FM162200 08003KT P6SM SCT250
                       FM170300 22002KT P6SM BKN250
                      TEMPO 1708/1712 4SM BR BKN025=
202312161123 TAF KCLM 161123Z 1612/1712 00000KT P6SM SCT002 SCT250
                      TEMPO 1612/1616 1/2SM FG VV002 FM161700 07003KT
                       P6SM SCT007 FM162200 08003KT P6SM SCT250
                       FM170300 22002KT P6SM BKN250
                      TEMPO 1708/1712 4SM BR BKN025=
202312161007 KCLM 161007Z 1610/1706 00000KT 4SM BR SCT002 SCT250
                      TEMPO 1610/1612 1/2SM FG VV002 FM161200 00000KT
                       1/2SM FG VV002 FM161700 07003KT P6SM SCT007
                       FM162200 08003KT P6SM SCT250 FM170300 22002KT
                       P6SM BKN250=
202312160854 KCLM 160854Z 1609/1706 00000KT 1SM BR SCT002 SCT250
                      TEMPO 1609/1612 1/2SM FG VV002 FM161200 00000KT
                       1/2SM FG VV002 FM161700 07003KT P6SM SCT007
                       FM162200 08003KT P6SM SCT250 FM170300 22002KT
                       P6SM BKN250=
202312160647 KCLM 160647Z 1607/1706 00000KT 1/2SM FG VV002 FM161700 07003KT
                       P6SM SCT007 FM162200 08003KT P6SM SCT250
                       FM170300 22002KT P6SM BKN250=
202312160545 KCLM 160545Z 1606/1706 20004KT P6SM SCT006
                      TEMPO 1606/1610 2SM BR BKN006 FM161000 23003KT
                       4SM BR OVC006 FM162000 07003KT P6SM SCT007
                       FM162200 08003KT P6SM SCT250 FM170300 22002KT
                       P6SM BKN250=
202312160533 TAF KCLM 160533Z 1606/1706 20004KT P6SM SCT006
                      TEMPO 1606/1610 BKN006 FM161000 23003KT 4SM
                       BR OVC006 FM162000 07003KT P6SM SCT007 FM162200
                       08003KT P6SM SCT250 FM170300 22002KT P6SM
                       BKN250=
202312152324 TAF KCLM 152324Z 1600/1624 VRB03KT P6SM OVC007 FM160500 VRB03KT
                       P6SM SCT250 FM161000 23003KT 4SM BR OVC020
                       FM161700 25003KT P6SM BKN120=
202312151949 KCLM 151949Z 1520/1618 VRB03KT P6SM OVC008 FM152100 02003KT P6SM
                       BKN250 FM160200 VRB03KT P6SM SCT250 FM161000
                       20003KT 4SM BR OVC020 FM161500 23003KT P6SM
                       BKN050=
202312151745 TAF KCLM 151745Z 1518/1618 VRB03KT P6SM OVC010 FM151900 VRB03KT
                       P6SM BKN040 FM152200 11003KT P6SM BKN250
                       FM160200 VRB03KT P6SM SCT250 FM161000 20003KT
                       4SM BR OVC020 FM161500 23003KT P6SM BKN050=
202312151555 KCLM 151555Z 1516/1612 VRB04KT P6SM OVC010 FM151900 VRB03KT P6SM
                       BKN040 FM152200 11003KT P6SM BKN250 FM160200
                       19003KT P6SM SCT250 FM161000 20003KT 4SM
                       BR OVC020=
202312151406 KCLM 151406Z 1514/1612 VRB03KT P6SM OVC005
                      TEMPO 1514/1516 2SM BR FM151900 VRB03KT P6SM
                       BKN040 FM152200 11003KT P6SM BKN250 FM160200
                       19003KT P6SM SCT250 FM161000 20003KT 4SM
                       BR OVC020=
202312151120 TAF KCLM 151120Z 1512/1612 VRB03KT 2SM BR VCSH OVC005 FM151900
                       VRB03KT P6SM BKN040 FM152200 11003KT P6SM
                       BKN250 FM160200 19003KT P6SM SCT250 FM161000
                       20003KT 4SM BR OVC020=
202312151007 KCLM 151007Z 1510/1606 VRB03KT 2SM BR VCSH OVC005 FM151600 VRB03KT
                       P6SM BKN040 FM152000 11003KT P6SM BKN250=
202312150758 KCLM 150758Z 1508/1606 10005KT P6SM SCT005 BKN015 OVC030
                      TEMPO 1508/1510 2SM BR BKN005 FM151000 VRB03KT
                       P6SM VCSH OVC015 FM151600 VRB03KT P6SM BKN040
                       FM152000 11003KT P6SM BKN250=
202312150537 TAF KCLM 150537Z 1506/1606 10005KT P6SM SCT005 BKN015 OVC030
                      TEMPO 1506/1510 BKN005 FM151000 VRB03KT P6SM
                       VCSH OVC015 FM151600 VRB03KT P6SM BKN040
                       FM152000 11003KT P6SM BKN250=
202312150318 KCLM 150318Z 1503/1524 11005KT P6SM FEW020 OVC035
                      TEMPO 1503/1507 2SM BR FEW010 BKN020 FM150900
                       VRB03KT 6SM BR OVC015 FM151600 VRB03KT P6SM
                       BKN040 FM152000 11003KT P6SM BKN250=
202312150204 KCLM 150204Z 1502/1524 11005KT P6SM FEW009 OVC015 FM150900 VRB03KT
                       6SM BR OVC015 FM151600 VRB03KT P6SM BKN040
                       FM152000 11003KT P6SM BKN250=
202312142324 TAF KCLM 142324Z 1500/1524 VRB03KT P6SM OVC006 FM150900 VRB03KT
                       6SM BR OVC015 FM151600 VRB03KT P6SM BKN040
                       FM152000 11003KT P6SM BKN250=
202312141737 TAF KCLM 141737Z 1418/1518 00000KT P6SM OVC007 FM142100 08003KT
                       P6SM OVC018 FM150000 VRB03KT 5SM BR OVC050
                       FM150600 VRB03KT 5SM BR OVC020 FM151200
                       VRB03KT P6SM OVC015 FM151600 VRB03KT P6SM
                       BKN040=
202312141612 KCLM 141612Z 1416/1512 00000KT P6SM -RA OVC006 FM142100 10003KT
                       P6SM OVC015 FM150000 VRB03KT P6SM OVC050
                       FM150600 12003KT 5SM BR OVC020=
202312141120 TAF KCLM 141120Z 1412/1512 VRB03KT 6SM -RA BR OVC015 FM142100 12003KT
                       P6SM OVC015 FM150000 VRB03KT P6SM OVC050
                       FM150600 12003KT 5SM BR OVC020=
202312140539 TAF KCLM 140539Z 1406/1506 00000KT P6SM OVC090 FM140700 22003KT
                       P6SM -RA OVC030 FM141300 17003KT 6SM -RA
                       BR OVC015 FM142100 12003KT P6SM OVC015 FM150000
                       VRB03KT P6SM OVC050=
202312132339 TAF KCLM 132339Z 1400/1424 VRB03KT P6SM BKN200 FM140300 24002KT
                       P6SM OVC090 FM140700 22003KT P6SM -RA OVC030
                       FM141300 17003KT 6SM -RA BR OVC015 FM142100
                       12003KT P6SM OVC015=
202312131740 TAF KCLM 131740Z 1318/1418 24006KT P6SM BKN200 FM140100 24007KT
                       P6SM OVC090 FM140600 22003KT P6SM -RA OVC030
                       FM141200 17003KT 6SM -RA BR OVC015=
202312131606 KCLM 131606Z 1316/1412 24006KT P6SM OVC015 FM140100 24007KT P6SM
                       OVC100 FM140400 VRB03KT P6SM -RA OVC030=
202312131120 TAF KCLM 131120Z 1312/1412 23007KT P6SM BKN015 OVC250 FM131600
                       20003KT P6SM SCT100 OVC250 FM140100 22007KT
                       P6SM OVC100 FM140400 VRB03KT P6SM -RA OVC030=
202312130524 TAF KCLM 130524Z 1306/1406 VRB03KT P6SM BKN015 OVC250 FM131600
                       VRB03KT P6SM OVC250 FM140100 24007KT P6SM
                       OVC100=
202312122337 TAF KCLM 122337Z 1300/1324 09004KT P6SM OVC020 FM130200 VRB03KT
                       P6SM BKN250 FM130900 20006KT P6SM OVC180
                       FM131600 VRB03KT P6SM OVC250=
202312121939 KCLM 121939Z 1220/1318 08004KT P6SM OVC020 FM122200 08005KT P6SM
                       SCT020 BKN250 FM130200 16004KT P6SM BKN120
                       FM130900 24005KT P6SM BKN090=
202312121738 TAF KCLM 121738Z 1218/1318 23006KT P6SM OVC018 FM122200 08005KT
                       P6SM SCT010 BKN250 FM130200 16004KT P6SM
                       BKN120 FM130900 24005KT P6SM BKN090=
202312121655 KCLM 121655Z 1217/1312 24005KT P6SM OVC015 FM122000 09005KT P6SM
                       SCT010 BKN250 FM130600 16004KT P6SM BKN007=
202312121120 TAF KCLM 121120Z 1212/1312 20004KT P6SM SCT005 OVC020
                      TEMPO 1212/1216 2SM BR OVC005 FM121600 11003KT
                       6SM BR BKN005 FM122000 09005KT P6SM SCT010
                       BKN250 FM130600 16004KT P6SM BKN007=
202312120520 TAF KCLM 120520Z 1206/1306 VRB04KT P6SM OVC015 FM120700 13002KT
                       4SM BR OVC009 FM121100 VRB02KT 2SM BR OVC005
                       FM121400 11003KT 6SM BR BKN015 FM122000
                       09005KT P6SM BKN250=
202312112339 TAF KCLM 112339Z 1200/1224 VRB04KT P6SM OVC015 FM120700 16002KT
                       4SM BR OVC009 FM121100 VRB02KT 2SM BR OVC005
                       FM121400 11003KT 6SM BR BKN015 FM122000
                       09005KT P6SM BKN250=
202312111740 TAF KCLM 111740Z 1118/1218 11005KT 5SM BR SCT006 OVC015 FM112000
                       10004KT P6SM BKN010 BKN025 FM112200 11006KT
                       P6SM BKN020 BKN040 FM120100 14003KT P6SM
                       BKN035 FM120700 16002KT 4SM BR OVC009 FM121300
                       VRB02KT 6SM BR BKN015=
202312111550 KCLM 111550Z 1116/1212 10006KT 6SM BR SCT006 OVC015 FM112000 11004KT
                       P6SM BKN010 BKN025 FM112200 11006KT P6SM
                       BKN020 BKN040 FM120200 14003KT P6SM BKN040
                       FM120800 16002KT 4SM BR OVC009=
202312111140 TAF KCLM 111140Z 1112/1212 VRB04KT 6SM BR OVC006 FM111400 13003KT
                       5SM BR OVC004 FM112000 11004KT P6SM BKN010
                       BKN025 FM112200 11006KT P6SM BKN020 BKN040
                       FM120800 16002KT 4SM BR OVC009=
202312110520 TAF KCLM 110520Z 1106/1206 32003KT 2SM BR VCSH OVC004 FM110900
                       25003KT 6SM BR OVC006 FM111800 09004KT P6SM
                       BKN013 BKN025 FM112200 08006KT P6SM BKN020
                       BKN040=
202312102337 TAF KCLM 102337Z 1100/1124 26004KT 4SM BR BKN007 OVC022 FM110900
                       25003KT 6SM BR OVC006 FM111800 09004KT P6SM
                       BKN013 BKN025 FM112200 08006KT P6SM BKN020
                       BKN040=
202312102120 KCLM 102120Z 1021/1118 VRB04KT 3SM BR OVC004 FM110000 26004KT 6SM
                       BR VCSH BKN010 OVC025 FM110400 25004KT 6SM
                       BR OVC007=
202312101731 TAF KCLM 101731Z 1018/1118 VRB04KT 6SM BR OVC005
                      TEMPO 1018/1021 2SM BR FM102100 26004KT 6SM
                       BR VCSH BKN010 OVC025 FM110400 25004KT 6SM
                       BR OVC007=
202312101638 KCLM 101638Z 1017/1112 VRB04KT 6SM BR OVC006 FM102000 26004KT 6SM
                       -SHRA BR BKN014 OVC025 FM102300 30010KT
                       P6SM BKN025 OVC040 FM110600 25004KT 6SM
                       BR OVC015=
202312101441 TAF AMD KCLM 101441Z 1015/1112 VRB04KT 4SM -RA BR OVC007
                      TEMPO 1015/1016 3/4SM BR OVC004 FM102000
                       26004KT 6SM -SHRA BR BKN014 OVC025 FM102300
                       30010KT P6SM BKN025 OVC040 FM110600 25004KT
                       6SM BR OVC015=
202312101132 TAF KCLM 101132Z 1012/1112 VRB04KT 4SM -RA BR BKN006
                      TEMPO 1012/1016 3/4SM BR OVC004 FM102000
                       26004KT 6SM -SHRA BR BKN014 OVC025 FM102300
                       30010KT P6SM BKN025 OVC040 FM110600 25004KT
                       6SM BR OVC015=
202312100546 TAF KCLM 100546Z 1006/1106 VRB03KT P6SM -RA BKN050 OVC070 FM101000
                       VRB04KT 5SM -RA BR OVC011 FM101900 26004KT
                       6SM -SHRA BR BKN014 OVC025 FM102100 30010KT
                       P6SM BKN025 OVC040=
202312092340 TAF KCLM 092340Z 1000/1024 VRB03KT P6SM -RA SCT015 OVC050
                      TEMPO 1000/1004 5SM -RA BR BKN012 OVC020
                       FM100400 VRB04KT 5SM -RA BR OVC011 FM101200
                       VRB03KT 5SM -RA BR OVC009 FM101900 26004KT
                       6SM -SHRA BR BKN014 OVC025=
202312091735 TAF KCLM 091735Z 0918/1018 VRB04KT 5SM -RA BR OVC022 FM092100 VRB03KT
                       5SM -RA BR OVC019 FM092200 VRB03KT 4SM -RA
                       BR OVC014 FM100600 VRB03KT 4SM -RA BR OVC009=
202312091139 TAF KCLM 091139Z 0912/1012 24005KT P6SM BKN160 FM091700 11002KT
                       P6SM -RA OVC060 FM092100 25002KT 4SM -RA
                       OVC025 FM092200 19002KT 4SM -RA BR OVC015
                       FM100600 13005KT 4SM -RA BR OVC007=
202312090557 TAF KCLM 090557Z 0906/1006 21005KT P6SM SKC FM091700 11002KT P6SM
                       -RA OVC060 FM092200 19002KT 4SM -RA BR OVC015=
202312082320 TAF KCLM 082320Z 0900/0924 VRB02KT P6SM SCT025 OVC040 FM090100
                       15005KT P6SM OVC090 FM091700 11002KT P6SM
                       -RA OVC060 FM092200 19002KT 4SM -RA BR OVC015=
202312081734 TAF KCLM 081734Z 0818/0918 25007KT P6SM BKN040 FM081900 VRB02KT
                       P6SM BKN250 FM090100 15005KT P6SM OVC090=
202312081139 TAF KCLM 081139Z 0812/0912 27007KT P6SM SCT035 BKN040 FM081900
                       35004KT P6SM BKN250 FM090100 15005KT P6SM
                       OVC090=
202312080520 TAF KCLM 080520Z 0806/0906 25010KT P6SM BKN050 FM081200 26004KT
                       P6SM BKN050 FM081800 VRB03KT P6SM BKN070
                       FM090300 15005KT P6SM OVC080=
202312072333 TAF KCLM 072333Z 0800/0824 26012KT P6SM VCSH FEW030 SCT100 FM080600
                       25010KT P6SM OVC050 FM081200 26004KT P6SM
                       BKN050=
202312071729 TAF KCLM 071729Z 0718/0818 27004KT 3SM -RA BR VCSH BKN007 BKN015
                       OVC020 FM072100 27011G18KT P6SM OVC025 FM080600
                       25008KT P6SM BKN035=
202312071603 KCLM 071603Z 0716/0812 25003KT 3SM -SHRA OVC007 FM071800 27005KT
                       P6SM VCSH OVC025 FM072100 27011G18KT P6SM
                       OVC025 FM080200 25008KT P6SM BKN035=
202312071140 TAF KCLM 071140Z 0712/0812 12004KT P6SM BKN015 OVC060 FM071700
                       27005KT P6SM VCSH OVC025 FM072100 27011G18KT
                       P6SM OVC025 FM080200 25008KT P6SM BKN035=
202312070549 TAF KCLM 070549Z 0706/0806 15004KT P6SM OVC030 FM071500 27005KT
                       P6SM VCSH OVC015 FM072100 27011KT P6SM OVC025=
202312062322 TAF KCLM 062322Z 0700/0724 11003KT P6SM VCSH SCT012 OVC025
                      TEMPO 0700/0704 -RA BKN012 FM070600 22004KT
                       P6SM OVC015 FM071500 27005KT P6SM VCSH OVC015
                       FM072100 27011KT P6SM OVC025=
202312062128 KCLM 062128Z 0621/0718 27005KT P6SM SCT005 OVC025
                      TEMPO 0621/0624 2SM BR OVC005 FM070600 22004KT
                       P6SM OVC015=
202312061732 TAF KCLM 061732Z 0618/0718 22003KT P6SM FEW008 BKN021 OVC026 FM062000
                       29005KT P6SM OVC025 FM070600 22004KT P6SM
                       OVC015=
202312061142 TAF KCLM 061142Z 0612/0712 VRB03KT 3SM BR OVC015 FM061500 24005KT
                       P6SM OVC025 FM062000 29005KT P6SM OVC035
                       FM070200 22004KT P6SM OVC040=
202312060521 TAF KCLM 060521Z 0606/0706 VRB03KT 3SM BR OVC025 FM061500 24005KT
                       P6SM OVC015 FM062100 33005KT P6SM OVC025=
202312060421 KCLM 060421Z 0604/0624 VRB03KT P6SM FEW025 OVC120
                      TEMPO 0604/0606 2SM BR FEW004 FM060600 24003KT
                       P6SM OVC025 FM061500 29005KT P6SM OVC015=
202312060025 KCLM 060025Z 0600/0624 VRB03KT P6SM FEW025 OVC120
                      TEMPO 0600/0604 2SM BR FEW004 FM060600 24003KT
                       P6SM OVC025 FM061500 29005KT P6SM OVC015=
202312052327 TAF KCLM 052327Z 0600/0624 VRB03KT P6SM FEW025 OVC120 FM060600
                       24003KT P6SM OVC025 FM061500 29005KT P6SM
                       OVC015=
202312051727 TAF KCLM 051727Z 0518/0618 VRB04KT P6SM BKN012 OVC100 FM052000
                       VRB03KT P6SM OVC030 FM060600 23003KT 6SM
                       BR OVC015=
202312051254 KCLM 051254Z 0513/0612 27006KT 6SM -RA SCT007 OVC040 FM051500 24004KT
                       5SM -RA OVC020 FM052000 VRB03KT P6SM -RA
                       OVC030 FM060100 21003KT P6SM -RA OVC040
                       FM060600 23003KT 6SM -RA BR OVC015=
202312051142 TAF KCLM 051142Z 0512/0612 27006KT 5SM -RA BR OVC010
                      TEMPO 0512/0514 OVC004 FM051500 24004KT 5SM
                       -RA OVC020 FM052000 VRB03KT P6SM -RA OVC030
                       FM060100 21003KT P6SM -RA OVC040 FM060600
                       23003KT 6SM -RA BR OVC015=
202312050833 KCLM 050833Z 0509/0606 28005KT 3SM -RA BR SCT002 OVC040 FM051000
                       27006KT 5SM -RA BR OVC020 FM051500 24004KT
                       P6SM -RA OVC030 FM052000 VRB03KT P6SM -RA
                       OVC030 FM060100 20003KT P6SM -RA OVC040=
202312050521 TAF KCLM 050521Z 0506/0606 VRB05KT 4SM -RA BR SCT004 OVC050
                      TEMPO 0506/0510 2SM -RA BR OVC003 FM051000
                       27006KT 5SM -RA BR OVC020 FM051500 24004KT
                       P6SM -RA OVC030 FM052000 VRB03KT P6SM -RA
                       OVC030 FM060100 20003KT P6SM -RA OVC040=
202312050403 KCLM 050403Z 0504/0524 VRB03KT 4SM -RA BR OVC050
                      TEMPO 0504/0508 2SM -RA BR OVC005 FM051000
                       26006KT 4SM -RA BR OVC015 FM052000 VRB03KT
                       P6SM -RA OVC015 FM052300 10003KT P6SM -RA
                       OVC050=
202312042340 TAF KCLM 042340Z 0500/0524 VRB03KT 4SM -RA BR OVC005 FM051000 26006KT
                       4SM -RA BR OVC015 FM052000 VRB03KT P6SM
                       -RA OVC015 FM052300 10003KT P6SM -RA OVC050=
202312042017 KCLM 042017Z 0420/0518 VRB04KT 6SM -RA OVC006 FM042200 VRB03KT
                       4SM -RA BR OVC015 FM051000 26003KT 4SM -RA
                       BR OVC015=
202312041740 TAF KCLM 041740Z 0418/0518 VRB04KT 6SM -RA SCT008 OVC050
                      TEMPO 0418/0420 OVC008 FM042200 VRB03KT 4SM
                       -RA BR OVC015 FM051000 26003KT 4SM -RA BR
                       OVC015=
202312041147 TAF KCLM 041147Z 0412/0512 VRB03KT P6SM SCT050 BKN100 FM041600
                       VRB03KT P6SM -RA OVC050 FM042200 VRB03KT
                       4SM -RA BR OVC015=
202312040520 TAF KCLM 040520Z 0406/0506 VRB03KT P6SM SCT050 BKN100 FM041500
                       21003KT P6SM -RA OVC050 FM041800 VRB03KT
                       4SM -RA BR OVC015=
202312032335 TAF KCLM 032335Z 0400/0424 28010KT P6SM SKC FM040200 VRB03KT P6SM
                       SCT050 BKN100 FM041500 21002KT P6SM -RA
                       OVC050 FM042000 22002KT 4SM -RA BR OVC015=
202312031731 TAF KCLM 031731Z 0318/0418 VRB03KT 6SM -RA BR OVC050 FM032000 27010KT
                       P6SM OVC030 FM040200 VRB03KT P6SM SCT050
                       BKN100 FM041500 21002KT 6SM -RA BR OVC050=
202312031138 TAF KCLM 031138Z 0312/0412 VRB03KT P6SM OVC060 FM031600 VRB03KT
                       6SM -RA BR OVC050 FM032200 27008KT P6SM
                       OVC030 FM040200 VRB03KT P6SM SCT050 BKN100=
202312030523 TAF KCLM 030523Z 0306/0406 VRB03KT P6SM SCT050 BKN100 FM031000
                       21003KT 6SM -RA BR OVC050 FM031700 24003KT
                       4SM -RA BR OVC025 FM032200 27006KT P6SM
                       OVC030 FM040200 VRB03KT P6SM OVC050=
202312030001 TAF KCLM 030001Z 0306/0406 VRB03KT P6SM SCT050 BKN100 FM031000
                       21003KT 6SM -RA BR OVC050 FM031700 24003KT
                       6SM -RA BR OVC025 FM032100 27006KT P6SM
                       OVC050=
202312021739 TAF KCLM 021739Z 0218/0318 26010KT P6SM SCT050 FM030300 VRB03KT
                       P6SM SCT050 BKN100 FM031000 21003KT 6SM
                       -RA BR OVC050=
202312021141 TAF KCLM 021141Z 0212/0312 27014G24KT 3SM RA BKN015 OVC025 FM021300
                       27014G24KT P6SM SCT020 BKN035 FM022000 27008KT
                       P6SM SCT050 BKN100 FM030300 VRB03KT P6SM
                       SCT050 BKN100=
202312020528 TAF KCLM 020528Z 0206/0306 VRB04KT P6SM -RA BKN060 OVC070 FM021100
                       27017G24KT P6SM RA BKN025 OVC035 FM021500
                       26014G24KT P6SM VCSH BKN035 FM022000 27009KT
                       P6SM BKN035 FM030300 12003KT P6SM OVC050=
202312012321 TAF KCLM 012321Z 0200/0224 27008KT P6SM BKN045 BKN050 OVC100 FM020200
                       26006KT P6SM OVC025 FM020900 26015G28KT
                       P6SM RA BKN005 OVC035 FM021500 26014G24KT
                       P6SM -RA BKN025 FM022000 27009KT P6SM BKN035=
202312011736 TAF KCLM 011736Z 0118/0218 27008KT P6SM OVC120 FM020100 26006KT
                       P6SM OVC025 FM020900 26015G28KT P6SM RA
                       BKN005 OVC035 FM021500 26014G24KT P6SM -RA
                       BKN025=
202312011152 TAF KCLM 011152Z 0112/0212 26006KT P6SM BKN045 OVC070 FM011800
                       28012G18KT P6SM BKN050 FM020100 26006KT
                       P6SM OVC040 FM020400 VRB03KT P6SM -RA OVC035=
202312010525 TAF KCLM 010525Z 0106/0206 00000KT P6SM FEW060 BKN070 FM011200
                       27012G20KT 6SM -RA BR FEW005 OVC020 FM012100
                       27010KT P6SM VCSH BKN030 FM020000 26008KT
                       P6SM -RA OVC025=