##########################################################
# Query made at 02/16/2025 05:48:22 UTC
# Time interval: from 03/01/2023 00:00  to 03/31/2023 23:59  UTC
##########################################################

##########################################################
# KCLM, Port Angeles, William R. Fairchild International Airport (United States)
# WMO index: -----. WIGOS ID: Unknown
# Latitude 48-07-20N. Longitude 123-30-19W. Altitude 87 m.
##########################################################

###################################
#  METAR/SPECI from KCLM
###################################
202303312353 METAR KCLM 312353Z AUTO 01003KT 10SM OVC049 09/02 A2981 RMK AO2 SLP096 60000 T00890022 10089 20072 58018=
202303312253 METAR KCLM 312253Z AUTO VRB04KT 10SM BKN048 OVC055 08/02 A2983 RMK AO2 SLP103 T00830022=
202303312153 METAR KCLM 312153Z AUTO VRB05KT 10SM FEW044 OVC055 08/03 A2984 RMK AO2 SLP108 T00830028=
202303312053 METAR KCLM 312053Z AUTO 01003KT 10SM OVC047 08/03 A2986 RMK AO2 SLP114 60000 T00780028 58004=
202303311953 METAR KCLM 311953Z AUTO VRB03KT 10SM OVC050 08/02 A2987 RMK AO2 SLP117 T00780022=
202303311853 METAR KCLM 311853Z AUTO VRB03KT 10SM BKN045 OVC055 08/03 A2987 RMK AO2 RAB42E51 SLP117 P0000 T00780028=
202303311753 METAR KCLM 311753Z AUTO 00000KT 10SM OVC065 08/02 A2988 RMK AO2 SLP118 T00780022 10078 20022 55003=
202303311653 METAR KCLM 311653Z AUTO 09005KT 10SM SCT060 07/03 A2987 RMK AO2 SLP116 T00720028=
202303311553 METAR KCLM 311553Z AUTO 09004KT 10SM OVC065 06/03 A2987 RMK AO2 SLP118 T00560033=
202303311453 METAR KCLM 311453Z AUTO 22004KT 10SM OVC060 03/02 A2989 RMK AO2 SLP122 T00330017 55003=
202303311353 METAR KCLM 311353Z AUTO 00000KT 10SM SCT060 SCT120 02/01 A2988 RMK AO2 SLP121 T00220006=
202303311305 SPECI KCLM 311305Z AUTO 00000KT 10SM FEW028 SCT060 02/00 A2989 RMK AO2 T00220000=
202303311253 METAR KCLM 311253Z AUTO 00000KT 10SM BKN028 BKN060 02/01 A2989 RMK AO2 SLP123 T00220006=
202303311238 SPECI KCLM 311238Z AUTO 22003KT 10SM BKN027 BKN065 02/01 A2989 RMK AO2 T00220006=
202303311208 SPECI KCLM 311208Z AUTO 00000KT 10SM FEW025 02/01 A2989 RMK AO2 T00220006=
202303311200 SPECI KCLM 311200Z AUTO 00000KT 10SM BKN025 02/01 A2989 RMK AO2 T00220006=
202303311153 METAR KCLM 311153Z AUTO 21003KT 10SM SCT025 02/01 A2989 RMK AO2 SLP125 T00220006 10056 20006 55003=
202303311053 METAR KCLM 311053Z AUTO 00000KT 10SM CLR 03/01 A2989 RMK AO2 SLP124 T00280006=
202303310953 METAR KCLM 310953Z AUTO 00000KT 10SM CLR 02/00 A2990 RMK AO2 SLP125 T00170000=
202303310853 METAR KCLM 310853Z AUTO 00000KT 10SM FEW024 02/00 A2990 RMK AO2 SLP128 T00170000 53001=
202303310753 METAR KCLM 310753Z AUTO 19003KT 10SM CLR 02/M01 A2990 RMK AO2 SLP127 T00171006 401110011=
202303310653 METAR KCLM 310653Z AUTO 00000KT 10SM BKN044 BKN050 04/01 A2990 RMK AO2 SLP126 T00390011=
202303310553 METAR KCLM 310553Z AUTO 00000KT 10SM SCT041 05/02 A2990 RMK AO2 SLP126 T00500022 10083 20050 51006=
202303310453 METAR KCLM 310453Z AUTO 29005KT 10SM FEW023 BKN034 06/02 A2989 RMK AO2 SLP124 T00610022=
202303310448 SPECI KCLM 310448Z AUTO 29004KT 10SM FEW016 SCT023 BKN034 07/03 A2989 RMK AO2=
202303310417 SPECI KCLM 310417Z AUTO VRB03KT 10SM BKN016 OVC033 07/03 A2989 RMK AO2 T00720028=
202303310353 METAR KCLM 310353Z AUTO 30005KT 10SM BKN033 07/03 A2988 RMK AO2 SLP120 T00720028=
202303310321 SPECI KCLM 310321Z AUTO 32004KT 10SM OVC032 08/03 A2987 RMK AO2 T00780028=
202303310253 METAR KCLM 310253Z AUTO 32005KT 10SM OVC029 08/03 A2987 RMK AO2 SLP115 T00780033 50002=
202303310153 METAR KCLM 310153Z AUTO 31009G15KT 10SM OVC021 08/03 A2987 RMK AO2 SLP116 T00780033=
202303310053 METAR KCLM 310053Z AUTO 29007KT 10SM OVC024 08/03 A2986 RMK AO2 SLP115 T00780028=
202303302353 METAR KCLM 302353Z AUTO 29009G17KT 10SM OVC027 08/03 A2986 RMK AO2 SLP112 T00830028 10111 20078 50000=
202303302316 SPECI KCLM 302316Z AUTO 29009KT 10SM OVC029 08/03 A2986 RMK AO2 T00830028=
202303302253 METAR KCLM 302253Z AUTO 30011G18KT 10SM OVC032 08/03 A2986 RMK AO2 SLP113 T00830028=
202303302153 METAR KCLM 302153Z AUTO 31009KT 10SM BKN039 OVC047 08/02 A2986 RMK AO2 SLP112 T00830022=
202303302053 METAR KCLM 302053Z AUTO 31006KT 10SM OVC043 09/03 A2986 RMK AO2 SLP112 T00940028 53010=
202303301953 METAR KCLM 301953Z AUTO 31010G17KT 10SM OVC041 09/02 A2984 RMK AO2 SLP107 T00940017=
202303301853 METAR KCLM 301853Z AUTO 30008G17KT 10SM SCT037 11/01 A2983 RMK AO2 SLP102 T01060006=
202303301753 METAR KCLM 301753Z AUTO 31010G19KT 10SM CLR 09/01 A2983 RMK AO2 SLP100 T00940011 10094 20028 53003=
202303301653 METAR KCLM 301653Z AUTO 29008KT 10SM CLR 08/01 A2982 RMK AO2 SLP097 T00830006=
202303301553 METAR KCLM 301553Z AUTO 25004KT 10SM CLR 06/01 A2981 RMK AO2 SLP096 T00610006=
202303301453 METAR KCLM 301453Z AUTO 26006KT 10SM CLR 03/M01 A2981 RMK AO2 SLP098 T00331006 53007=
202303301353 METAR KCLM 301353Z AUTO 26006KT 10SM CLR 04/01 A2980 RMK AO2 SLP092 T00390006=
202303301253 METAR KCLM 301253Z AUTO 27008KT 10SM CLR 04/01 A2980 RMK AO2 SLP092 T00440011=
202303301153 METAR KCLM 301153Z AUTO 27009KT 10SM CLR 05/02 A2979 RMK AO2 SLP089 T00500017 10083 20050 55002=
202303301053 METAR KCLM 301053Z AUTO 28012KT 10SM CLR 05/02 A2979 RMK AO2 SLP089 T00500022=
202303300953 METAR KCLM 300953Z AUTO 27009KT 10SM CLR 06/02 A2979 RMK AO2 SLP090 T00560022=
202303300853 METAR KCLM 300853Z AUTO 31008G15KT 10SM CLR 06/M01 A2980 RMK AO2 SLP092 T00611011 57001=
202303300753 METAR KCLM 300753Z AUTO 27008KT 10SM CLR 08/M02 A2980 RMK AO2 SLP091 T00781017 401670022=
202303300653 METAR KCLM 300653Z AUTO 29007KT 10SM CLR 08/M01 A2980 RMK AO2 SLP093 T00781011=
202303300553 METAR KCLM 300553Z AUTO 30007KT 10SM CLR 08/M01 A2980 RMK AO2 SLP092 T00781011 10161 20078 51005=
202303300453 METAR KCLM 300453Z AUTO 24007KT 10SM CLR 09/M02 A2980 RMK AO2 SLP092 T00941022=
202303300353 METAR KCLM 300353Z AUTO 28007KT 10SM CLR 09/M04 A2980 RMK AO2 SLP092 T00941044=
202303300253 METAR KCLM 300253Z AUTO 29004KT 10SM CLR 10/M03 A2979 RMK AO2 SLP088 T01001028 55003=
202303300153 METAR KCLM 300153Z AUTO 24004KT 10SM CLR 12/M03 A2978 RMK AO2 SLP087 T01221028=
202303300053 METAR KCLM 300053Z AUTO 35006KT 10SM CLR 13/M01 A2979 RMK AO2 SLP088 T01331006=
202303292353 METAR KCLM 292353Z AUTO VRB03KT 10SM CLR 16/M08 A2980 RMK AO2 SLP090 T01561078 10167 20139 56014=
202303292253 METAR KCLM 292253Z AUTO 01005KT 10SM CLR 16/M09 A2981 RMK AO2 SLP095 T01611089=
202303292153 METAR KCLM 292153Z AUTO 08006KT 10SM CLR 16/M07 A2982 RMK AO2 SLP099 T01561067=
202303292053 METAR KCLM 292053Z AUTO 11006KT 10SM CLR 16/M06 A2984 RMK AO2 SLP105 T01561061 58010=
202303291953 METAR KCLM 291953Z AUTO VRB05KT 10SM CLR 15/M06 A2985 RMK AO2 SLP108 T01501061=
202303291853 METAR KCLM 291853Z AUTO VRB05KT 10SM CLR 14/M07 A2986 RMK AO2 SLP113 T01441067=
202303291753 METAR KCLM 291753Z AUTO VRB05KT 10SM CLR 14/M07 A2987 RMK AO2 SLP115 T01391067 10144 20022 56002=
202303291653 METAR KCLM 291653Z AUTO 29004KT 10SM CLR 13/M01 A2987 RMK AO2 SLP115 T01281011=
202303291553 METAR KCLM 291553Z AUTO 25004KT 10SM CLR 09/M01 A2987 RMK AO2 SLP116 T00891006=
202303291453 METAR KCLM 291453Z AUTO 24005KT 10SM CLR 05/M01 A2988 RMK AO2 SLP118 T00501011 51007=
202303291353 METAR KCLM 291353Z AUTO 23007KT 10SM CLR 03/M02 A2987 RMK AO2 SLP118 T00281017=
202303291253 METAR KCLM 291253Z AUTO 00000KT 10SM CLR 04/M02 A2987 RMK AO2 SLP114 T00441017=
202303291153 METAR KCLM 291153Z AUTO 23009KT 10SM CLR 03/M01 A2986 RMK AO2 SLP111 T00331011 10078 20022 53003=
202303291053 METAR KCLM 291053Z AUTO VRB04KT 10SM CLR 04/M01 A2985 RMK AO2 SLP109 T00391011=
202303290953 METAR KCLM 290953Z AUTO 00000KT 10SM CLR 04/M01 A2985 RMK AO2 SLP108 T00441006=
202303290853 METAR KCLM 290853Z AUTO 00000KT 10SM FEW100 03/M01 A2985 RMK AO2 SLP109 T00331006 58007=
202303290753 METAR KCLM 290753Z AUTO 22005KT 10SM BKN110 04/00 A2986 RMK AO2 SLP113 T00440000 401561006=
202303290653 METAR KCLM 290653Z AUTO 00000KT 10SM FEW120 06/00 A2987 RMK AO2 SLP114 T00610000=
202303290553 METAR KCLM 290553Z AUTO 22004KT 10SM OVC095 06/00 A2987 RMK AO2 SLP115 T00610000 10139 20056 51013=
202303290453 METAR KCLM 290453Z AUTO 22004KT 10SM OVC100 07/M01 A2986 RMK AO2 SLP113 T00671006=
202303290353 METAR KCLM 290353Z AUTO 00000KT 10SM FEW110 07/00 A2984 RMK AO2 SLP108 T00720000=
202303290253 METAR KCLM 290253Z AUTO 15005KT 10SM OVC100 10/01 A2983 RMK AO2 SLP103 T01000006 51007=
202303290153 METAR KCLM 290153Z AUTO 00000KT 10SM OVC100 12/M01 A2983 RMK AO2 SLP102 T01221006=
202303290053 METAR KCLM 290053Z AUTO 08003KT 10SM FEW110 13/M02 A2982 RMK AO2 SLP098 T01331017=
202303282353 METAR KCLM 282353Z AUTO 07006KT 10SM CLR 14/M02 A2981 RMK AO2 SLP095 T01441022 10156 20111 56007=
202303282253 METAR KCLM 282253Z AUTO VRB04KT 10SM CLR 14/M02 A2981 RMK AO2 SLP097 T01441022=
202303282153 METAR KCLM 282153Z AUTO 10007KT 10SM CLR 13/M01 A2982 RMK AO2 SLP100 T01331011=
202303282053 METAR KCLM 282053Z AUTO 08013G20KT 10SM CLR 12/M01 A2983 RMK AO2 SLP103 T01221011 56012=
202303281953 METAR KCLM 281953Z AUTO 10012G17KT 10SM CLR 12/00 A2984 RMK AO2 SLP106 T01170000=
202303281853 METAR KCLM 281853Z AUTO 09010G17KT 10SM CLR 12/M01 A2986 RMK AO2 SLP112 T01171006=
202303281753 METAR KCLM 281753Z AUTO 09010G21KT 10SM CLR 11/00 A2987 RMK AO2 SLP115 T01110000 10111 21006 56005=
202303281653 METAR KCLM 281653Z AUTO 09013G19KT 10SM CLR 10/M01 A2987 RMK AO2 SLP116 T01001006=
202303281553 METAR KCLM 281553Z AUTO 09004KT 10SM CLR 07/M01 A2987 RMK AO2 SLP116 T00721011=
202303281453 METAR KCLM 281453Z AUTO 15004KT 10SM CLR 01/M02 A2988 RMK AO2 SLP121 T00061022 56005=
202303281353 METAR KCLM 281353Z AUTO 00000KT 10SM FEW120 00/M03 A2989 RMK AO2 SLP122 T00001033=
202303281253 METAR KCLM 281253Z AUTO 00000KT 10SM SCT120 01/M02 A2989 RMK AO2 SLP123 T00111022=
202303281153 METAR KCLM 281153Z AUTO 12005KT 10SM BKN110 04/M02 A2990 RMK AO2 SLP125 T00391022 10039 20000 58019=
202303281053 METAR KCLM 281053Z AUTO 00000KT 10SM FEW120 01/M02 A2992 RMK AO2 SLP133 T00061017=
202303280953 METAR KCLM 280953Z AUTO 00000KT 10SM CLR 01/M01 A2994 RMK AO2 SLP140 T00111011=
202303280853 METAR KCLM 280853Z AUTO 00000KT 10SM CLR 01/M01 A2995 RMK AO2 SLP144 T00061011 58018=
202303280753 METAR KCLM 280753Z AUTO 22004KT 10SM CLR 01/M01 A2997 RMK AO2 SLP149 T00111011 401000006=
202303280653 METAR KCLM 280653Z AUTO 00000KT 10SM CLR 01/M01 A2999 RMK AO2 SLP158 T00111011=
202303280553 METAR KCLM 280553Z AUTO 22003KT 10SM CLR 01/M01 A3000 RMK AO2 SLP162 T00111011 10100 20011 56017=
202303280453 METAR KCLM 280453Z AUTO 00000KT 10SM CLR 02/00 A3002 RMK AO2 SLP167 T00220000=
202303280353 METAR KCLM 280353Z AUTO 00000KT 10SM SCT090 04/00 A3004 RMK AO2 SLP173 T00390000=
202303280253 METAR KCLM 280253Z AUTO 13004KT 10SM CLR 06/01 A3006 RMK AO2 SLP180 T00610006 58022=
202303280153 METAR KCLM 280153Z AUTO 11006KT 10SM CLR 09/01 A3008 RMK AO2 SLP188 T00890006=
202303280053 METAR KCLM 280053Z AUTO 13007KT 10SM CLR 10/01 A3010 RMK AO2 SLP196 T01000006=
202303272353 METAR KCLM 272353Z AUTO 07009KT 10SM CLR 10/01 A3012 RMK AO2 SLP203 T01000006 10100 20067 56029=
202303272253 METAR KCLM 272253Z AUTO 07008KT 030V100 10SM CLR 09/00 A3015 RMK AO2 SLP211 T00940000=
202303272153 METAR KCLM 272153Z AUTO 08011G16KT 10SM CLR 09/00 A3018 RMK AO2 SLP221 T00890000=
202303272053 METAR KCLM 272053Z AUTO 04007KT 360V070 10SM FEW035 08/01 A3021 RMK AO2 SLP232 T00830011 58019=
202303271953 METAR KCLM 271953Z AUTO 08009KT 10SM CLR 09/02 A3024 RMK AO2 SLP241 T00890017=
202303271853 METAR KCLM 271853Z AUTO VRB06G14KT 10SM FEW012 07/02 A3026 RMK AO2 SLP248 T00720022=
202303271753 METAR KCLM 271753Z AUTO 09007KT 10SM CLR 07/01 A3027 RMK AO2 SLP251 T00670011 10072 20011 56005=
202303271653 METAR KCLM 271653Z AUTO 09006KT 10SM SCT016 06/02 A3027 RMK AO2 SLP252 T00610017=
202303271632 SPECI KCLM 271632Z AUTO VRB03KT 10SM FEW016 SCT025 06/01 A3027 RMK AO2 T00560011=
202303271553 METAR KCLM 271553Z AUTO 22004KT 10SM BKN018 BKN023 OVC031 04/00 A3027 RMK AO2 SLP254 T00390000=
202303271515 SPECI KCLM 271515Z AUTO 00000KT 10SM FEW017 BKN023 OVC032 03/M01 A3028 RMK AO2 T00281006=
202303271453 METAR KCLM 271453Z AUTO 23005KT 10SM SCT023 OVC034 02/M01 A3028 RMK AO2 SLP256 T00221011 58003=
202303271353 METAR KCLM 271353Z AUTO 24005KT 10SM OVC034 02/M01 A3029 RMK AO2 SLP258 T00171011=
202303271253 METAR KCLM 271253Z AUTO 24005KT 10SM OVC035 02/M01 A3029 RMK AO2 SLP259 T00171011=
202303271153 METAR KCLM 271153Z AUTO 23006KT 10SM FEW038 02/M01 A3029 RMK AO2 SLP259 70007 T00171006 10033 20006 58007=
202303271053 METAR KCLM 271053Z AUTO 22004KT 10SM BKN040 02/00 A3030 RMK AO2 SLP263 T00170000=
202303270953 METAR KCLM 270953Z AUTO 22004KT 10SM OVC040 03/01 A3031 RMK AO2 SLP266 T00280011=
202303270853 METAR KCLM 270853Z AUTO 25004KT 10SM OVC040 03/01 A3031 RMK AO2 SLP267 T00330006 50000=
202303270753 METAR KCLM 270753Z AUTO 24006KT 10SM OVC038 03/01 A3032 RMK AO2 SLP269 T00280006 400831006=
202303270653 METAR KCLM 270653Z AUTO 22005KT 10SM BKN033 01/M01 A3031 RMK AO2 SLP267 T00111006=
202303270553 METAR KCLM 270553Z AUTO 22005KT 10SM FEW055 02/01 A3031 RMK AO2 SLP267 60002 T00220006 10078 20022 53006=
202303270453 METAR KCLM 270453Z AUTO 16003KT 10SM SCT049 BKN060 04/02 A3030 RMK AO2 RAE0356 SLP264 P0000 T00390017=
202303270353 METAR KCLM 270353Z AUTO 18003KT 10SM -RA SCT030 OVC035 05/02 A3029 RMK AO2 SLP261 P0001 T00500022=
202303270253 METAR KCLM 270253Z AUTO 25003KT 10SM -RA OVC036 06/01 A3029 RMK AO2 RAB34 SLP260 P0000 60001 T00560011 53004=
202303270153 METAR KCLM 270153Z AUTO 28006KT 10SM OVC060 06/01 A3029 RMK AO2 RAB09E31 SLP258 P0001 T00610011=
202303270132 SPECI KCLM 270132Z AUTO 31004KT 10SM SCT025 OVC060 06/02 A3029 RMK AO2 RAB09E31 P0001 T00610017=
202303270119 SPECI KCLM 270119Z AUTO 30008KT 7SM -RA BKN029 BKN042 OVC060 06/00 A3029 RMK AO2 RAB09 P0001 T00610000=
202303270053 METAR KCLM 270053Z AUTO 32004KT 10SM BKN050 OVC065 07/M01 A3028 RMK AO2 SLP257 T00721006=
202303262353 METAR KCLM 262353Z AUTO 04003KT 10SM BKN075 07/01 A3028 RMK AO2 SLP257 T00720006 10083 20056 56004=
202303262253 METAR KCLM 262253Z AUTO VRB04KT 10SM FEW085 07/01 A3029 RMK AO2 SLP258 T00720006=
202303262153 METAR KCLM 262153Z AUTO 36005KT 10SM BKN075 08/00 A3029 RMK AO2 SLP258 T00780000=
202303262053 METAR KCLM 262053Z AUTO 06003KT 10SM OVC034 07/01 A3029 RMK AO2 SLP262 T00670011 50002=
202303261953 METAR KCLM 261953Z AUTO VRB04KT 10SM BKN034 06/02 A3030 RMK AO2 SLP262 T00560017=
202303261902 SPECI KCLM 261902Z AUTO 01005KT 10SM SCT026 06/01 A3030 RMK AO2 T00560011=
202303261853 METAR KCLM 261853Z AUTO 01005KT 10SM BKN026 07/02 A3029 RMK AO2 SLP260 T00670022=
202303261753 METAR KCLM 261753Z AUTO 08004KT 10SM FEW010 06/02 A3029 RMK AO2 SLP260 60005 T00610022 10067 20017 52004=
202303261715 SPECI KCLM 261715Z AUTO 00000KT 10SM FEW008 BKN031 06/02 A3029 RMK AO2 T00560022=
202303261653 METAR KCLM 261653Z AUTO 00000KT 10SM OVC031 04/02 A3029 RMK AO2 SLP259 T00440017=
202303261553 METAR KCLM 261553Z AUTO 00000KT 10SM SCT035 02/00 A3028 RMK AO2 SLP256 T00220000=
202303261453 METAR KCLM 261453Z AUTO 25004KT 10SM FEW015 SCT021 OVC033 02/00 A3028 RMK AO2 RAE50 SLP255 P0003 60005 T00170000 50002=
202303261353 METAR KCLM 261353Z AUTO 28003KT 6SM -RA BR BKN022 OVC032 02/M01 A3028 RMK AO2 SLP256 P0002 T00171006=
202303261253 METAR KCLM 261253Z AUTO 00000KT 9SM -RA OVC015 02/00 A3027 RMK AO2 RAB46UPB47E48 SLP252 P0000 T00170000=
202303261236 SPECI KCLM 261236Z AUTO 22004KT 10SM BKN016 OVC030 02/00 A3027 RMK AO2 T00170000=
202303261153 METAR KCLM 261153Z AUTO 23005KT 10SM OVC031 02/M01 A3027 RMK AO2 SLP253 70004 I6000 T00171006 10017 21006 53001=
202303261053 METAR KCLM 261053Z AUTO 24005KT 10SM OVC036 01/M01 A3026 RMK AO2 SLP250 I1000 T00111006=
202303260953 METAR KCLM 260953Z AUTO 00000KT 10SM OVC036 01/M01 A3026 RMK AO2 SLP250 I1000 T00061011=
202303260853 METAR KCLM 260853Z AUTO 22004KT 8SM BKN035 00/M01 A3027 RMK AO2 SLP251 I1000 I3000 T00001011 51002=
202303260753 METAR KCLM 260753Z AUTO 22005KT 10SM CLR 00/M02 A3026 RMK AO2 SLP250 I1000 T00001017 400941006=
202303260653 METAR KCLM 260653Z AUTO 23004KT 10SM CLR 01/M01 A3026 RMK AO2 SLP249 I1000 T00061011=
202303260553 METAR KCLM 260553Z AUTO 00000KT 10SM CLR 01/M01 A3026 RMK AO2 SLP248 60002 I1000 I6000 T00061011 10056 20000 50002=
202303260453 METAR KCLM 260453Z AUTO 00000KT 10SM CLR 01/M01 A3026 RMK AO2 SLP250 I1000 T00061006=
202303260353 METAR KCLM 260353Z AUTO 14004KT 10SM CLR 02/00 A3026 RMK AO2 SLP249 T00170000=
202303260253 METAR KCLM 260253Z AUTO 00000KT 10SM FEW040 BKN075 BKN085 04/02 A3025 RMK AO2 RAE30 SLP247 P0001 60002 T00390017 58001=
202303260235 SPECI KCLM 260235Z AUTO 00000KT 10SM BKN035 OVC070 04/02 A3025 RMK AO2 RAE30 P0001 T00390017=
202303260210 SPECI KCLM 260210Z AUTO 28005KT 7SM -RA FEW012 BKN027 OVC070 04/01 A3026 RMK AO2 P0001 T00390011=
202303260153 METAR KCLM 260153Z AUTO 26009KT 10SM -RA SCT019 BKN039 OVC080 04/01 A3026 RMK AO2 RAB46 SLP249 P0000 T00440011=
202303260120 SPECI KCLM 260120Z AUTO 31005KT 10SM BKN017 BKN029 OVC047 05/02 A3025 RMK AO2 T00500022=
202303260053 METAR KCLM 260053Z AUTO 16004KT 10SM OVC045 06/03 A3025 RMK AO2 RAE48 SLP245 P0001 T00560028=
202303260011 SPECI KCLM 260011Z AUTO 27003KT 10SM -RA FEW017 FEW025 OVC031 06/02 A3025 RMK AO2 P0001 T00560017=
202303252353 METAR KCLM 252353Z AUTO 33003KT 4SM -RA FEW017 BKN026 OVC036 05/01 A3026 RMK AO2 RAE06B45 SLP247 P0001 60002 T00500011 10094 20050 53001=
202303252253 METAR KCLM 252253Z AUTO 17006KT 10SM -RA SCT032 BKN039 OVC046 07/02 A3025 RMK AO2 RAB2155E08B29 SLP246 P0001 T00670017=
202303252211 SPECI KCLM 252211Z AUTO 06003KT 10SM SCT025 SCT032 OVC050 07/02 A3025 RMK AO2 RAB2155E08 P0000 T00720017=
202303252204 SPECI KCLM 252204Z AUTO VRB03KT 10SM -RA SCT023 BKN028 OVC060 07/02 A3025 RMK AO2 RAB2155 P0000 T00670017=
202303252153 METAR KCLM 252153Z AUTO 35005KT 10SM SCT025 OVC060 07/01 A3025 RMK AO2 SLP246 T00720006=
202303252053 METAR KCLM 252053Z AUTO VRB04KT 10SM BKN050 OVC060 08/01 A3025 RMK AO2 SLP246 T00780011 51000=
202303251953 METAR KCLM 251953Z AUTO 32007KT 10SM SCT043 OVC060 08/00 A3025 RMK AO2 SLP246 T00780000=
202303251853 METAR KCLM 251853Z AUTO 10SM BKN060 08/00 A3025 RMK AO2 SLP247 T00830000=
202303251753 METAR KCLM 251753Z AUTO 28005KT 10SM FEW038 OVC050 08/M02 A3025 RMK AO2 SLP246 T00781017 10078 20022 51005=
202303251653 METAR KCLM 251653Z AUTO 25009KT 10SM CLR 06/M03 A3025 RMK AO2 SLP244 T00561028=
202303251553 METAR KCLM 251553Z AUTO 24010KT 10SM CLR 04/M03 A3024 RMK AO2 SLP243 T00391028=
202303251453 METAR KCLM 251453Z AUTO 23010KT 10SM FEW100 03/M03 A3023 RMK AO2 SLP240 T00281033 53008=
202303251353 METAR KCLM 251353Z AUTO 24012G18KT 10SM SCT037 BKN045 OVC055 03/M03 A3023 RMK AO2 SLP237 T00281028=
202303251253 METAR KCLM 251253Z AUTO 24010G19KT 10SM FEW090 03/M03 A3022 RMK AO2 SLP234 T00281033=
202303251153 METAR KCLM 251153Z AUTO 23013KT 10SM FEW080 03/M03 A3021 RMK AO2 SLP232 70005 T00281028 10039 20028 53000=
202303251053 METAR KCLM 251053Z AUTO 24012KT 10SM BKN075 03/M02 A3021 RMK AO2 SLP231 T00331022=
202303250953 METAR KCLM 250953Z AUTO 24012KT 10SM CLR 03/M02 A3021 RMK AO2 SLP232 T00331017=
202303250853 METAR KCLM 250853Z AUTO 24009G19KT 10SM CLR 04/M01 A3021 RMK AO2 SLP232 T00391011 53002=
202303250753 METAR KCLM 250753Z AUTO 24010KT 10SM CLR 04/M01 A3021 RMK AO2 SLP231 T00391011 400890017=
202303250653 METAR KCLM 250653Z AUTO 23010KT 10SM CLR 04/M01 A3020 RMK AO2 SLP230 T00391011=
202303250553 METAR KCLM 250553Z AUTO 27008KT 10SM CLR 03/M01 A3021 RMK AO2 SLP230 60000 T00331006 10078 20033 51009=
202303250453 METAR KCLM 250453Z AUTO 26010KT 10SM SCT060 04/M01 A3020 RMK AO2 SLP228 T00391006=
202303250353 METAR KCLM 250353Z AUTO 25009KT 10SM CLR 04/M01 A3019 RMK AO2 SLP224 T00441006=
202303250253 METAR KCLM 250253Z AUTO 25011KT 10SM FEW100 05/M01 A3018 RMK AO2 SLP221 60000 T00501011 53006=
202303250153 METAR KCLM 250153Z AUTO 27016G25KT 10SM SCT049 BKN090 06/M01 A3017 RMK AO2 SLP219 T00611006=
202303250053 METAR KCLM 250053Z AUTO 27016G25KT 10SM SCT029 BKN048 OVC055 07/01 A3016 RMK AO2 RAB2357E15B31E44 SLP215 P0000 T00670011=
202303250051 SPECI KCLM 250051Z AUTO 28017G25KT 10SM SCT029 BKN048 OVC055 07/01 A3016 RMK AO2 RAB2357E15B31E44 P0000=
202303250002 SPECI KCLM 250002Z AUTO 30013G23KT 8SM -RA BKN029 OVC037 07/01 A3015 RMK AO2 RAB2357 P0000 T00670011=
202303242353 METAR KCLM 242353Z AUTO 30011G23KT 10SM BKN032 BKN055 08/02 A3015 RMK AO2 SLP211 60005 T00780017 10089 20050 53001=
202303242253 METAR KCLM 242253Z AUTO 25011G20KT 10SM FEW023 SCT036 BKN055 08/03 A3014 RMK AO2 RAE01B23E43 SLP210 P0000 T00780033=
202303242201 SPECI KCLM 242201Z AUTO 23009KT 10SM BKN031 OVC042 06/02 A3014 RMK AO2 RAE01 P0000 T00560022=
202303242153 METAR KCLM 242153Z AUTO 24006G15KT 10SM -RA BKN028 OVC035 06/02 A3015 RMK AO2 RAE10B24 SLP210 P0001 T00560017=
202303242149 SPECI KCLM 242149Z AUTO 26009G15KT 9SM -RA BKN026 BKN035 OVC055 06/02 A3015 RMK AO2 RAE10B24 P0001=
202303242112 SPECI KCLM 242112Z AUTO 24008KT 10SM SCT025 BKN037 07/03 A3014 RMK AO2 RAE10 P0000 T00670033=
202303242053 METAR KCLM 242053Z AUTO 25010KT 10SM -RA BKN029 OVC037 06/02 A3014 RMK AO2 SLP209 P0003 60004 T00560022 51006=
202303241953 METAR KCLM 241953Z AUTO 28008KT 7SM -RA BKN027 BKN040 OVC055 06/02 A3013 RMK AO2 RAB1857 SLP206 P0001 T00610017=
202303241853 METAR KCLM 241853Z AUTO 30009KT 10SM FEW036 BKN043 OVC070 07/01 A3012 RMK AO2 RAE10 SLP202 P0000 T00720011=
202303241753 METAR KCLM 241753Z AUTO 30005KT 9SM -RA FEW022 BKN032 OVC048 07/02 A3012 RMK AO2 RAB39 SLP200 P0000 60000 T00670017 10078 20028 53014=
202303241653 METAR KCLM 241653Z AUTO 25011KT 10SM BKN048 06/01 A3010 RMK AO2 SLP193 T00610011=
202303241553 METAR KCLM 241553Z AUTO 23004KT 10SM FEW045 06/01 A3008 RMK AO2 SLP188 T00560011=
202303241453 METAR KCLM 241453Z AUTO 26007KT 10SM OVC047 03/01 A3007 RMK AO2 RAB00E31 SLP186 P0000 60000 T00330006 51009=
202303241353 METAR KCLM 241353Z AUTO 00000KT 10SM OVC045 03/01 A3007 RMK AO2 RAB27E42 SLP184 P0000 T00330006=
202303241253 METAR KCLM 241253Z AUTO 22003KT 10SM OVC060 03/01 A3006 RMK AO2 RAB30E31UPB31E40 SLP180 P0000 T00280006=
202303241153 METAR KCLM 241153Z AUTO 20003KT 10SM OVC045 03/01 A3005 RMK AO2 RAB40E50 SLP177 P0000 60000 70003 T00330006 10039 20017 53000=
202303241053 METAR KCLM 241053Z AUTO 27005KT 10SM BKN050 OVC070 03/00 A3004 RMK AO2 SLP175 T00280000=
202303240953 METAR KCLM 240953Z AUTO 25004KT 10SM SCT029 02/00 A3004 RMK AO2 RAB12E22 SLP175 P0000 T00220000=
202303240911 SPECI KCLM 240911Z AUTO 28003KT 10SM SCT025 BKN033 OVC040 04/01 A3004 RMK AO2 T00390006=
202303240853 METAR KCLM 240853Z AUTO 27006KT 10SM BKN029 BKN075 04/01 A3005 RMK AO2 SLP176 T00390006 53007=
202303240753 METAR KCLM 240753Z AUTO 00000KT 10SM CLR 03/00 A3003 RMK AO2 SLP172 T00280000 401060028=
202303240653 METAR KCLM 240653Z AUTO 25009KT 10SM BKN060 04/01 A3004 RMK AO2 SLP173 T00390006=
202303240553 METAR KCLM 240553Z AUTO 25007KT 10SM FEW085 03/01 A3002 RMK AO2 RAE0457 SLP169 P0001 60001 T00330006 10100 20028 51013=
202303240506 SPECI KCLM 240506Z AUTO 23004KT 10SM SCT023 BKN120 03/01 A3002 RMK AO2 RAE0457 P0001 T00330006=
202303240453 METAR KCLM 240453Z AUTO 22004KT 10SM -RA BKN027 OVC110 04/01 A3001 RMK AO2 RAB24 SLP165 P0000 T00390006=
202303240450 SPECI KCLM 240450Z AUTO 20004KT 9SM -RA BKN027 BKN043 OVC110 04/01 A3001 RMK AO2 RAB24 P0000=
202303240353 METAR KCLM 240353Z AUTO 24011KT 10SM CLR 05/00 A2999 RMK AO2 SLP156 T00500000=
202303240253 METAR KCLM 240253Z AUTO 30006KT 10SM FEW044 SCT055 BKN080 06/00 A2996 RMK AO2 SLP147 T00610000 51035=
202303240153 METAR KCLM 240153Z AUTO 27011KT 10SM FEW036 BKN100 06/01 A2993 RMK AO2 SLP135 T00610006=
202303240053 METAR KCLM 240053Z AUTO 27011G19KT 10SM OVC090 07/00 A2990 RMK AO2 PK WND 30026/0000 SLP125 T00720000=
202303232353 METAR KCLM 232353Z AUTO 29015G23KT 10SM CLR 09/01 A2986 RMK AO2 SLP112 60002 T00940011 10106 20072 53007=
202303232253 METAR KCLM 232253Z AUTO 27006KT 10SM FEW044 SCT065 BKN075 09/03 A2984 RMK AO2 SLP107 T00890033=
202303232153 METAR KCLM 232153Z AUTO 33010G16KT 10SM FEW022 10/03 A2981 RMK AO2 RAE14 SLP097 P0002 T01000033=
202303232053 METAR KCLM 232053Z AUTO 28010KT 6SM -RA SCT020 BKN032 OVC050 07/03 A2984 RMK AO2 RAB41 SLP105 P0000 60000 T00720033 55003=
202303232042 SPECI KCLM 232042Z AUTO 29012G17KT 10SM -RA SCT020 BKN026 BKN049 08/03 A2983 RMK AO2 RAB41 P0000 T00830033=
202303231953 METAR KCLM 231953Z AUTO 34006KT 10SM CLR 09/03 A2981 RMK AO2 SLP098 T00890033=
202303231931 SPECI KCLM 231931Z AUTO VRB04KT 10SM SCT019 09/03 A2982 RMK AO2 T00890028=
202303231853 METAR KCLM 231853Z AUTO VRB05KT 10SM OVC020 08/03 A2983 RMK AO2 SLP105 T00830033=
202303231753 METAR KCLM 231753Z AUTO 10SM OVC019 08/03 A2984 RMK AO2 SLP107 T00780033 10078 20061 58007=
202303231653 METAR KCLM 231653Z AUTO 09003KT 10SM OVC018 07/03 A2986 RMK AO2 SLP112 T00720028=
202303231553 METAR KCLM 231553Z AUTO 00000KT 10SM BKN021 BKN027 OVC100 07/03 A2986 RMK AO2 SLP115 T00670028=
202303231551 SPECI KCLM 231551Z AUTO 00000KT 10SM BKN021 BKN027 OVC110 07/03 A2986 RMK AO2=
202303231519 SPECI KCLM 231519Z AUTO 00000KT 10SM SCT019 BKN031 07/03 A2987 RMK AO2 T00670028=
202303231453 METAR KCLM 231453Z AUTO 00000KT 10SM OVC017 07/03 A2987 RMK AO2 SLP118 T00670028 58002=
202303231406 SPECI KCLM 231406Z AUTO 00000KT 10SM OVC016 06/03 A2988 RMK AO2 T00610028=
202303231353 METAR KCLM 231353Z AUTO 23003KT 10SM OVC014 06/03 A2988 RMK AO2 SLP120 T00610033=
202303231351 SPECI KCLM 231351Z AUTO 00000KT 10SM OVC014 06/03 A2988 RMK AO2=
202303231253 METAR KCLM 231253Z AUTO 29005KT 10SM OVC018 06/03 A2988 RMK AO2 SLP120 T00610028=
202303231153 METAR KCLM 231153Z AUTO VRB04KT 10SM OVC012 06/03 A2988 RMK AO2 SLP119 T00610033 10072 20061 58002=
202303231138 SPECI KCLM 231138Z AUTO 30004KT 10SM BKN012 OVC020 06/03 A2988 RMK AO2 T00610033=
202303231053 METAR KCLM 231053Z AUTO 28009KT 10SM OVC020 07/03 A2989 RMK AO2 SLP121 T00670033=
202303230953 METAR KCLM 230953Z AUTO VRB06KT 10SM SCT023 OVC029 07/03 A2989 RMK AO2 SLP122 T00720033=
202303230922 SPECI KCLM 230922Z AUTO 00000KT 10SM FEW017 BKN023 07/03 A2989 RMK AO2 T00670033=
202303230901 SPECI KCLM 230901Z AUTO 22004KT 10SM SCT015 SCT029 07/03 A2989 RMK AO2 T00670028=
202303230853 METAR KCLM 230853Z AUTO VRB04KT 10SM SCT015 BKN029 07/03 A2988 RMK AO2 SLP121 T00720033 53006=
202303230846 SPECI KCLM 230846Z AUTO 21005KT 10SM BKN015 BKN029 07/03 A2988 RMK AO2 T00670028=
202303230814 SPECI KCLM 230814Z AUTO 17004KT 10SM BKN013 07/03 A2988 RMK AO2 T00670033=
202303230753 METAR KCLM 230753Z AUTO 25005KT 10SM CLR 07/03 A2987 RMK AO2 SLP117 T00670033 401390011=
202303230653 METAR KCLM 230653Z AUTO 27009KT 10SM CLR 07/03 A2987 RMK AO2 SLP115 T00670033=
202303230553 METAR KCLM 230553Z AUTO 28009KT 10SM CLR 07/04 A2987 RMK AO2 SLP114 T00670039 10133 20067 51010=
202303230453 METAR KCLM 230453Z AUTO 29010KT 10SM FEW100 07/04 A2986 RMK AO2 SLP112 T00720044=
202303230439 SPECI KCLM 230439Z AUTO 28011KT 10SM SCT009 BKN100 07/05 A2986 RMK AO2 T00720050=
202303230353 METAR KCLM 230353Z AUTO 29006KT 10SM BKN008 OVC100 08/06 A2985 RMK AO2 SLP110 T00780056=
202303230345 SPECI KCLM 230345Z AUTO 30007KT 10SM BKN008 BKN100 08/06 A2985 RMK AO2 CIG 007V011 T00780056=
202303230335 SPECI KCLM 230335Z AUTO 30009KT 10SM SCT008 BKN100 08/05 A2985 RMK AO2 T00780050=
202303230253 METAR KCLM 230253Z AUTO 29012KT 10SM OVC080 08/06 A2983 RMK AO2 SLP104 T00830056 53006=
202303230153 METAR KCLM 230153Z AUTO 31008KT 10SM OVC085 10/06 A2982 RMK AO2 SLP098 T01000061=
202303230053 METAR KCLM 230053Z AUTO 32007KT 10SM BKN110 09/04 A2983 RMK AO2 SLP102 T00940044=
202303222353 METAR KCLM 222353Z AUTO 34003KT 10SM FEW100 13/04 A2982 RMK AO2 SLP098 T01280044 10139 20100 55005=
202303222253 METAR KCLM 222253Z AUTO 36004KT 10SM BKN100 13/04 A2982 RMK AO2 SLP097 T01280044=
202303222153 METAR KCLM 222153Z AUTO 01003KT 10SM BKN100 11/06 A2982 RMK AO2 SLP099 T01110056=
202303222053 METAR KCLM 222053Z AUTO 00000KT 10SM OVC100 11/05 A2983 RMK AO2 SLP104 T01060050 58003=
202303221953 METAR KCLM 221953Z AUTO 06005KT 10SM SCT100 11/05 A2984 RMK AO2 SLP106 T01110050=
202303221853 METAR KCLM 221853Z AUTO 08007KT 10SM CLR 10/05 A2984 RMK AO2 SLP108 T01000050=
202303221753 METAR KCLM 221753Z AUTO 08005KT 10SM FEW095 10/05 A2984 RMK AO2 SLP105 T01000050 10106 20011 51006=
202303221653 METAR KCLM 221653Z AUTO 08004KT 10SM SCT100 10/04 A2984 RMK AO2 SLP106 T01000044=
202303221553 METAR KCLM 221553Z AUTO 00000KT 10SM SCT028 06/03 A2983 RMK AO2 SLP104 T00610033=
202303221453 METAR KCLM 221453Z AUTO 00000KT 10SM CLR 02/M01 A2982 RMK AO2 SLP100 T00171006 53009=
202303221353 METAR KCLM 221353Z AUTO 00000KT 10SM CLR 03/01 A2981 RMK AO2 SLP095 T00280006=
202303221253 METAR KCLM 221253Z AUTO 22003KT 10SM CLR 05/01 A2980 RMK AO2 SLP092 T00500011=
202303221153 METAR KCLM 221153Z AUTO 23009KT 10SM CLR 05/01 A2980 RMK AO2 SLP090 T00500011 10067 20039 50000=
202303221053 METAR KCLM 221053Z AUTO 23006KT 10SM CLR 05/02 A2979 RMK AO2 SLP091 T00500017=
202303220953 METAR KCLM 220953Z AUTO 23009KT 10SM CLR 06/02 A2980 RMK AO2 SLP091 T00560017=
202303220853 METAR KCLM 220853Z AUTO 22006KT 10SM CLR 05/02 A2980 RMK AO2 SLP091 T00500022 53002=
202303220753 METAR KCLM 220753Z AUTO 23006KT 10SM CLR 05/02 A2979 RMK AO2 SLP090 T00500022 401220044=
202303220653 METAR KCLM 220653Z AUTO 23007KT 10SM CLR 06/03 A2979 RMK AO2 SLP090 T00560028=
202303220553 METAR KCLM 220553Z AUTO 23008KT 10SM CLR 06/03 A2979 RMK AO2 SLP089 T00610033 10122 20050 51002=
202303220453 METAR KCLM 220453Z AUTO 23007KT 10SM CLR 05/03 A2979 RMK AO2 SLP088 T00500028=
202303220353 METAR KCLM 220353Z AUTO 23005KT 10SM CLR 06/03 A2978 RMK AO2 SLP088 T00560033=
202303220253 METAR KCLM 220253Z AUTO 19004KT 10SM CLR 07/04 A2978 RMK AO2 SLP087 T00720044 56009=
202303220153 METAR KCLM 220153Z AUTO 00000KT 10SM CLR 11/04 A2978 RMK AO2 SLP086 T01110044=
202303220053 METAR KCLM 220053Z AUTO 00000KT 10SM CLR 12/05 A2979 RMK AO2 SLP088 T01220050=
202303212353 METAR KCLM 212353Z AUTO 00000KT 10SM FEW040 12/06 A2981 RMK AO2 SLP095 T01170061 10117 20089 56014=
202303212328 SPECI KCLM 212328Z AUTO 11003KT 10SM SCT013 SCT040 10/06 A2981 RMK AO2 T01000056=
202303212320 SPECI KCLM 212320Z AUTO VRB03KT 10SM BKN012 11/06 A2981 RMK AO2 T01110061=
202303212253 METAR KCLM 212253Z AUTO VRB03KT 10SM FEW010 BKN043 10/06 A2982 RMK AO2 SLP099 T01000061=
202303212219 SPECI KCLM 212219Z AUTO VRB06KT 10SM SCT021 SCT043 11/07 A2983 RMK AO2 T01110067=
202303212153 METAR KCLM 212153Z AUTO 02004KT 10SM OVC019 11/06 A2983 RMK AO2 SLP103 T01110061=
202303212053 METAR KCLM 212053Z AUTO 00000KT 10SM OVC023 10/05 A2985 RMK AO2 SLP109 T01000050 58010=
202303212026 SPECI KCLM 212026Z AUTO 00000KT 10SM SCT015 OVC023 11/05 A2986 RMK AO2 T01060050=
202303212015 SPECI KCLM 212015Z AUTO 06003KT 10SM BKN014 OVC025 10/05 A2986 RMK AO2 T01000050=
202303211953 METAR KCLM 211953Z AUTO 33003KT 10SM OVC025 09/05 A2987 RMK AO2 SLP115 T00890050=
202303211853 METAR KCLM 211853Z AUTO 33004KT 10SM OVC028 09/05 A2987 RMK AO2 SLP116 T00890050=
202303211829 SPECI KCLM 211829Z AUTO 01003KT 10SM BKN029 OVC055 09/06 A2988 RMK AO2 T00890056=
202303211753 METAR KCLM 211753Z AUTO 01003KT 10SM BKN035 BKN043 OVC050 09/04 A2988 RMK AO2 SLP119 60000 T00890044 10089 20067 53004=
202303211653 METAR KCLM 211653Z AUTO 25004KT 10SM SCT040 OVC048 08/05 A2987 RMK AO2 SLP116 T00830050=
202303211553 METAR KCLM 211553Z AUTO 26004KT 10SM OVC041 08/05 A2987 RMK AO2 SLP115 T00780050=
202303211453 METAR KCLM 211453Z AUTO 25003KT 10SM OVC034 07/05 A2987 RMK AO2 RAB01E21 SLP115 P0000 60000 T00720050 55001=
202303211353 METAR KCLM 211353Z AUTO 26003KT 10SM OVC036 07/05 A2987 RMK AO2 SLP115 T00720050=
202303211253 METAR KCLM 211253Z AUTO 24003KT 10SM FEW029 OVC037 07/05 A2987 RMK AO2 RAE35 SLP116 P0000 T00720050=
202303211153 METAR KCLM 211153Z AUTO 24004KT 10SM -RA SCT026 OVC041 07/05 A2987 RMK AO2 SLP116 P0001 60007 70041 T00720050 10083 20072 53003=
202303211053 METAR KCLM 211053Z AUTO 24003KT 10SM -RA OVC024 08/05 A2987 RMK AO2 RAB47 SLP114 P0000 T00780050=
202303211040 SPECI KCLM 211040Z AUTO 24003KT 10SM BKN024 OVC039 08/06 A2986 RMK AO2 T00780056=
202303210953 METAR KCLM 210953Z AUTO 26005KT 10SM FEW018 SCT027 OVC039 08/06 A2986 RMK AO2 RAB35E47 SLP113 P0000 T00780056=
202303210853 METAR KCLM 210853Z AUTO 27006KT 10SM FEW017 FEW030 OVC044 08/06 A2986 RMK AO2 RAE52 SLP112 P0001 60006 T00780061 53009=
202303210819 SPECI KCLM 210819Z AUTO 26006KT 9SM -RA FEW005 SCT022 OVC050 08/06 A2985 RMK AO2 P0001 T00780061=
202303210809 SPECI KCLM 210809Z AUTO 26008KT 6SM -RA BR FEW005 BKN023 OVC050 08/06 A2985 RMK AO2 P0001 T00780061=
202303210753 METAR KCLM 210753Z AUTO 26007KT 6SM -RA BR FEW005 BKN041 OVC050 08/06 A2985 RMK AO2 SLP107 P0001 T00780061 401170067=
202303210653 METAR KCLM 210653Z AUTO 26006KT 10SM -RA FEW007 OVC047 08/06 A2984 RMK AO2 SLP106 P0004 T00830061=
202303210636 SPECI KCLM 210636Z AUTO 28006KT 10SM -RA SCT007 OVC045 08/06 A2984 RMK AO2 P0004 T00830061=
202303210602 SPECI KCLM 210602Z AUTO 27006KT 8SM -RA BKN006 OVC043 08/06 A2983 RMK AO2 P0001 T00830061=
202303210553 METAR KCLM 210553Z AUTO 26005KT 7SM -RA SCT007 OVC043 08/06 A2983 RMK AO2 SLP103 P0009 60030 T00830061 10094 20083 51015=
202303210453 METAR KCLM 210453Z AUTO 28005KT 9SM -RA FEW031 OVC041 08/06 A2982 RMK AO2 SLP098 P0003 T00830061=
202303210426 SPECI KCLM 210426Z AUTO 30003KT 7SM -RA FEW017 SCT023 OVC036 08/07 A2981 RMK AO2 P0002 T00830067=
202303210353 METAR KCLM 210353Z AUTO 25003KT 9SM -RA BKN019 OVC038 08/07 A2981 RMK AO2 SLP094 P0004 T00830067=
202303210253 METAR KCLM 210253Z AUTO 00000KT 4SM -RA BR SCT027 OVC036 09/07 A2979 RMK AO2 SLP088 P0004 60014 T00890072 51008=
202303210251 SPECI KCLM 210251Z AUTO 00000KT 4SM -RA BR SCT027 OVC036 09/07 A2979 RMK AO2 P0004=
202303210210 SPECI KCLM 210210Z AUTO 26003KT 5SM -RA BR BKN026 OVC043 09/07 A2978 RMK AO2 P0001 T00890067=
202303210153 METAR KCLM 210153Z AUTO 23004KT 4SM -RA BR SCT037 OVC047 08/07 A2977 RMK AO2 SLP084 P0006 T00830067=
202303210137 SPECI KCLM 210137Z AUTO 23003KT 3SM -RA BR FEW035 OVC045 08/07 A2977 RMK AO2 P0005 T00830067=
202303210128 SPECI KCLM 210128Z AUTO 00000KT 2 1/2SM -RA BR FEW004 FEW009 OVC045 08/06 A2977 RMK AO2 P0004 T00830061=
202303210121 SPECI KCLM 210121Z AUTO 29003KT 3SM -RA BR SCT006 SCT011 OVC044 08/07 A2977 RMK AO2 P0003 T00830067=
202303210108 SPECI KCLM 210108Z AUTO 30004KT 3SM -RA BR BKN007 OVC011 08/07 A2977 RMK AO2 CIG 002V009 P0002 T00830067=
202303210053 METAR KCLM 210053Z AUTO 00000KT 2 1/2SM -RA BR OVC004 08/07 A2977 RMK AO2 CIG 002V007 SLP080 P0004 T00830067=
202303210033 SPECI KCLM 210033Z AUTO 00000KT 2SM -RA BR BKN002 OVC048 08/07 A2976 RMK AO2 P0002 T00830067=
202303210025 SPECI KCLM 210025Z AUTO VRB03KT 3SM -RA BR BKN002 OVC048 08/07 A2976 RMK AO2 P0002 T00830067=
202303210018 SPECI KCLM 210018Z AUTO VRB03KT 4SM -RA BR SCT004 SCT007 OVC047 08/07 A2976 RMK AO2 P0002 T00830067=
202303210000 METAR KCLM 182353Z AUTO VRB03KT 10SM CLR 13/02 A2997 RMK AO2 SLP151 T01280017 10133 20089 56014=
202303202353 METAR KCLM 202353Z AUTO 00000KT 3SM -RA BR OVC047 09/07 A2976 RMK AO2 RAB14 SLP077 P0004 60004 T00890067 10117 20089 53009=
202303202253 METAR KCLM 202253Z AUTO 29003KT 10SM SCT030 OVC043 11/06 A2975 RMK AO2 SLP074 T01060056=
202303202153 METAR KCLM 202153Z AUTO 35003KT 10SM OVC047 11/05 A2974 RMK AO2 SLP071 T01110050=
202303202053 METAR KCLM 202053Z AUTO 00000KT 10SM FEW043 SCT060 SCT080 12/06 A2973 RMK AO2 SLP069 T01170056 51011=
202303201953 METAR KCLM 201953Z AUTO 35003KT 10SM FEW016 BKN075 11/06 A2972 RMK AO2 SLP066 T01060061=
202303201853 METAR KCLM 201853Z AUTO 00000KT 10SM OVC070 10/06 A2971 RMK AO2 SLP062 T01000056=
202303201834 SPECI KCLM 201834Z AUTO 35004KT 10SM SCT017 OVC070 09/06 A2971 RMK AO2 T00940056=
202303201815 SPECI KCLM 201815Z AUTO 36005KT 10SM BKN015 OVC070 09/06 A2971 RMK AO2 T00940056=
202303201753 METAR KCLM 201753Z AUTO 33003KT 10SM FEW014 SCT033 BKN070 11/06 A2970 RMK AO2 SLP058 60000 T01110061 10111 20067 53015=
202303201718 SPECI KCLM 201718Z AUTO 35004KT 10SM SCT018 OVC031 09/06 A2969 RMK AO2 T00940056=
202303201653 METAR KCLM 201653Z AUTO VRB03KT 10SM OVC017 09/06 A2969 RMK AO2 SLP053 T00940061=
202303201553 METAR KCLM 201553Z AUTO 25005KT 10SM BKN016 OVC075 08/04 A2967 RMK AO2 SLP046 T00830044=
202303201453 METAR KCLM 201453Z AUTO 25003KT 10SM SCT006 SCT031 BKN039 07/04 A2965 RMK AO2 SLP042 60000 T00720039 53007=
202303201407 SPECI KCLM 201407Z AUTO 24004KT 10SM BKN006 OVC020 07/05 A2964 RMK AO2 T00720050=
202303201353 METAR KCLM 201353Z AUTO 26004KT 10SM FEW006 BKN020 OVC044 07/04 A2964 RMK AO2 RAE46 SLP038 P0000 T00720044=
202303201348 SPECI KCLM 201348Z AUTO 26004KT 10SM FEW006 BKN022 OVC044 07/04 A2964 RMK AO2 RAE46 P0000=
202303201340 SPECI KCLM 201340Z AUTO 25003KT 10SM -RA FEW011 BKN022 OVC044 07/04 A2964 RMK AO2 P0000 T00720044=
202303201311 SPECI KCLM 201311Z AUTO 26003KT 10SM -RA SCT006 BKN014 OVC029 08/05 A2964 RMK AO2 P0000 T00780050=
202303201253 METAR KCLM 201253Z AUTO 28004KT 10SM -RA BKN006 BKN012 OVC028 08/06 A2963 RMK AO2 RAB45 SLP035 P0000 T00780056=
202303201153 METAR KCLM 201153Z AUTO 25005KT 10SM BKN006 OVC009 08/04 A2962 RMK AO2 SLP032 T00780044 10089 20072 53001=
202303201053 METAR KCLM 201053Z AUTO 00000KT 10SM BKN007 OVC030 08/06 A2962 RMK AO2 SLP031 T00780056=
202303201049 SPECI KCLM 201049Z AUTO 00000KT 10SM BKN007 BKN015 OVC030 08/05 A2962 RMK AO2=
202303201037 SPECI KCLM 201037Z AUTO 00000KT 10SM SCT007 BKN015 OVC030 08/04 A2962 RMK AO2 T00780044=
202303201027 SPECI KCLM 201027Z AUTO 00000KT 10SM SCT015 BKN020 OVC036 08/05 A2962 RMK AO2 T00780050=
202303200953 METAR KCLM 200953Z AUTO 28003KT 10SM OVC037 07/04 A2962 RMK AO2 SLP031 T00720044=
202303200853 METAR KCLM 200853Z AUTO 00000KT 10SM OVC039 08/04 A2962 RMK AO2 SLP031 T00780044 55000=
202303200753 METAR KCLM 200753Z AUTO 27004KT 10SM SCT039 BKN080 OVC110 08/04 A2962 RMK AO2 SLP030 T00830044 401110039=
202303200653 METAR KCLM 200653Z AUTO 23006KT 10SM BKN048 OVC100 09/05 A2962 RMK AO2 SLP030 T00890050=
202303200553 METAR KCLM 200553Z AUTO 26004KT 10SM BKN090 OVC110 08/05 A2962 RMK AO2 SLP031 60000 T00830050 10111 20083 55000=
202303200453 METAR KCLM 200453Z AUTO 28005KT 10SM OVC070 09/05 A2962 RMK AO2 SLP030 T00940050=
202303200353 METAR KCLM 200353Z AUTO 26006KT 10SM OVC080 10/05 A2962 RMK AO2 RAE04 SLP030 P0000 T01000050=
202303200253 METAR KCLM 200253Z AUTO 25008KT 10SM -RA OVC055 09/05 A2962 RMK AO2 RAB0158 SLP032 P0000 60000 T00940050 58013=
202303200153 METAR KCLM 200153Z AUTO 23005KT 10SM OVC070 10/02 A2964 RMK AO2 SLP038 T01000022=
202303200053 METAR KCLM 200053Z AUTO 00000KT 10SM BKN070 OVC085 11/02 A2964 RMK AO2 SLP039 T01060017=
202303192353 METAR KCLM 192353Z AUTO 00000KT 10SM OVC095 11/01 A2966 RMK AO2 SLP044 T01060011 10111 20094 56025=
202303192253 METAR KCLM 192253Z AUTO 09006KT 10SM BKN095 11/01 A2967 RMK AO2 SLP049 T01060011=
202303192153 METAR KCLM 192153Z AUTO 09007KT 10SM SCT100 SCT120 11/01 A2970 RMK AO2 SLP057 T01060011=
202303192053 METAR KCLM 192053Z AUTO 10005KT 10SM BKN100 11/02 A2973 RMK AO2 SLP069 T01060017 58021=
202303191953 METAR KCLM 191953Z AUTO 10006KT 10SM OVC100 10/02 A2976 RMK AO2 SLP077 T01000022=
202303191853 METAR KCLM 191853Z AUTO 09007KT 10SM FEW100 10/03 A2978 RMK AO2 SLP085 T01000028=
202303191753 METAR KCLM 191753Z AUTO 09007KT 10SM SCT100 10/03 A2980 RMK AO2 SLP090 T01000028 10100 20039 58013=
202303191653 METAR KCLM 191653Z AUTO 12006KT 10SM FEW110 09/03 A2981 RMK AO2 SLP096 T00890033=
202303191553 METAR KCLM 191553Z AUTO 14003KT 10SM BKN110 08/03 A2982 RMK AO2 SLP101 T00780033=
202303191453 METAR KCLM 191453Z AUTO 00000KT 10SM OVC110 05/02 A2983 RMK AO2 SLP104 T00500022 58014=
202303191353 METAR KCLM 191353Z AUTO 00000KT 10SM CLR 05/02 A2985 RMK AO2 SLP109 T00500017=
202303191253 METAR KCLM 191253Z AUTO 00000KT 10SM CLR 06/02 A2987 RMK AO2 SLP114 T00560017=
202303191153 METAR KCLM 191153Z AUTO 00000KT 10SM BKN090 OVC100 06/02 A2987 RMK AO2 SLP117 T00610017 10078 20044 58010=
202303191053 METAR KCLM 191053Z AUTO 22003KT 10SM BKN110 07/01 A2989 RMK AO2 SLP121 T00670011=
202303190953 METAR KCLM 190953Z AUTO 00000KT 10SM BKN100 07/01 A2990 RMK AO2 SLP125 T00670011=
202303190853 METAR KCLM 190853Z AUTO 20003KT 10SM CLR 06/01 A2990 RMK AO2 SLP128 T00560011 58009=
202303190753 METAR KCLM 190753Z AUTO 23007KT 10SM CLR 07/01 A2991 RMK AO2 SLP130 T00720011 401330000=
202303190653 METAR KCLM 190653Z AUTO 23006KT 10SM CLR 07/01 A2993 RMK AO2 SLP135 T00670011=
202303190553 METAR KCLM 190553Z AUTO 23006KT 10SM CLR 07/02 A2993 RMK AO2 SLP136 T00720017 10133 20056 56004=
202303190453 METAR KCLM 190453Z AUTO 23007KT 10SM CLR 08/02 A2993 RMK AO2 SLP137 T00780022=
202303190353 METAR KCLM 190353Z AUTO 00000KT 10SM CLR 08/03 A2994 RMK AO2 SLP140 T00780028=
202303190253 METAR KCLM 190253Z AUTO 00000KT 10SM CLR 08/03 A2994 RMK AO2 SLP142 T00780028 56010=
202303190153 METAR KCLM 190153Z AUTO 20005KT 10SM CLR 11/02 A2995 RMK AO2 SLP143 T01110017=
202303190053 METAR KCLM 190053Z AUTO 10003KT 10SM CLR 13/01 A2996 RMK AO2 SLP146 T01280011=
202303182353 METAR KCLM 182353Z AUTO VRB03KT 10SM CLR 13/02 A2997 RMK AO2 SLP151 T01280017 10133 20089 56014=
202303182253 METAR KCLM 182253Z AUTO 03003KT 10SM CLR 12/01 A2999 RMK AO2 SLP155 T01220011=
202303182153 METAR KCLM 182153Z AUTO 04003KT 10SM CLR 11/03 A3000 RMK AO2 SLP161 T01110028=
202303182053 METAR KCLM 182053Z AUTO 36005KT 10SM CLR 10/04 A3002 RMK AO2 SLP165 T01000039 58018=
202303181953 METAR KCLM 181953Z AUTO VRB06KT 10SM CLR 10/04 A3004 RMK AO2 SLP174 T01000039=
202303181853 METAR KCLM 181853Z AUTO 07005KT 10SM CLR 09/03 A3006 RMK AO2 SLP182 T00940033=
202303181753 METAR KCLM 181753Z AUTO VRB06KT 10SM CLR 09/02 A3007 RMK AO2 SLP184 T00890022 10094 20000 56009=
202303181653 METAR KCLM 181653Z AUTO VRB03KT 10SM CLR 09/02 A3009 RMK AO2 SLP189 T00890017=
202303181553 METAR KCLM 181553Z AUTO 24003KT 10SM CLR 05/02 A3008 RMK AO2 SLP187 T00500017=
202303181453 METAR KCLM 181453Z AUTO 21003KT 10SM CLR 02/M01 A3010 RMK AO2 SLP194 T00171006 58000=
202303181353 METAR KCLM 181353Z AUTO 22005KT 10SM CLR 01/M01 A3010 RMK AO2 SLP193 T00111011=
202303181253 METAR KCLM 181253Z AUTO 23003KT 10SM CLR 01/M01 A3011 RMK AO2 SLP197 T00111011=
202303181153 METAR KCLM 181153Z AUTO 00000KT 10SM CLR 04/01 A3010 RMK AO2 SLP194 T00390011 10072 20033 58005=
202303181053 METAR KCLM 181053Z AUTO 23004KT 10SM CLR 05/01 A3010 RMK AO2 SLP194 T00500011=
202303180953 METAR KCLM 180953Z AUTO 25004KT 10SM BKN120 06/01 A3011 RMK AO2 SLP199 T00560011=
202303180853 METAR KCLM 180853Z AUTO 23005KT 10SM OVC120 06/02 A3011 RMK AO2 SLP198 T00610017 55003=
202303180753 METAR KCLM 180753Z AUTO 23005KT 10SM CLR 07/02 A3011 RMK AO2 SLP199 T00670017 401171017=
202303180653 METAR KCLM 180653Z AUTO 24005KT 10SM CLR 06/01 A3012 RMK AO2 SLP201 T00560011=
202303180553 METAR KCLM 180553Z AUTO 24005KT 10SM CLR 07/02 A3012 RMK AO2 SLP202 T00670017 10117 20067 50002=
202303180453 METAR KCLM 180453Z AUTO 24005KT 10SM CLR 07/02 A3013 RMK AO2 SLP203 T00720022=
202303180353 METAR KCLM 180353Z AUTO 22004KT 10SM CLR 08/02 A3012 RMK AO2 SLP203 T00780017=
202303180253 METAR KCLM 180253Z AUTO 24004KT 10SM CLR 08/02 A3012 RMK AO2 SLP200 T00830017 55001=
202303180153 METAR KCLM 180153Z AUTO 20003KT 10SM CLR 10/00 A3011 RMK AO2 SLP199 T01000000=
202303180053 METAR KCLM 180053Z AUTO 00000KT 10SM CLR 11/M01 A3012 RMK AO2 SLP200 T01111006=
202303172353 METAR KCLM 172353Z AUTO 09004KT 10SM CLR 12/M01 A3012 RMK AO2 SLP201 T01171011 10117 20072 56015=
202303172253 METAR KCLM 172253Z AUTO 00000KT 10SM CLR 12/M01 A3013 RMK AO2 SLP205 T01171006=
202303172153 METAR KCLM 172153Z AUTO 11004KT 10SM CLR 11/M01 A3015 RMK AO2 SLP210 T01111006=
202303172053 METAR KCLM 172053Z AUTO VRB04KT 10SM CLR 10/01 A3016 RMK AO2 SLP216 T01000006 58003=
202303171953 METAR KCLM 171953Z AUTO VRB05KT 10SM CLR 09/01 A3017 RMK AO2 SLP218 T00890006=
202303171853 METAR KCLM 171853Z AUTO VRB05KT 10SM CLR 08/01 A3017 RMK AO2 SLP219 T00780006=
202303171753 METAR KCLM 171753Z AUTO VRB04KT 10SM CLR 08/02 A3017 RMK AO2 SLP219 I6001 T00780022 10078 21017 53001=
202303171653 METAR KCLM 171653Z AUTO 00000KT 10SM CLR 07/02 A3017 RMK AO2 SLP218 T00670022=
202303171553 METAR KCLM 171553Z AUTO 00000KT 10SM CLR 03/01 A3017 RMK AO2 SLP219 T00330006=
202303171453 METAR KCLM 171453Z AUTO 00000KT 10SM CLR 00/M02 A3017 RMK AO2 SLP219 I3001 T00001017 50005=
202303171353 METAR KCLM 171353Z AUTO 23006KT 10SM CLR 01/M02 A3017 RMK AO2 SLP219 T00061017=
202303171253 METAR KCLM 171253Z AUTO 22005KT 10SM CLR M01/M02 A3016 RMK AO2 SLP215 I1001 T10061022=
202303171153 METAR KCLM 171153Z AUTO 20003KT 10SM CLR M01/M02 A3015 RMK AO2 SLP213 I1000 I6000 T10111022 10017 21017 58007=
202303171053 METAR KCLM 171053Z AUTO 22005KT 10SM CLR M01/M03 A3017 RMK AO2 SLP217 I1000 T10061028=
202303170953 METAR KCLM 170953Z AUTO 00000KT 10SM CLR 00/M02 A3017 RMK AO2 SLP219 T00001022=
202303170853 METAR KCLM 170853Z AUTO 00000KT 10SM CLR 01/M01 A3018 RMK AO2 SLP221 T00111011 58003=
202303170753 METAR KCLM 170753Z AUTO 21003KT 10SM CLR 01/M02 A3019 RMK AO2 SLP224 T00061022 400891017=
202303170653 METAR KCLM 170653Z AUTO 19003KT 10SM CLR 01/M02 A3018 RMK AO2 SLP223 T00061017=
202303170553 METAR KCLM 170553Z AUTO 22005KT 10SM CLR 02/M01 A3019 RMK AO2 SLP224 T00171011 10089 20006 53003=
202303170453 METAR KCLM 170453Z AUTO 21003KT 10SM CLR 02/M02 A3017 RMK AO2 SLP219 T00171017=
202303170353 METAR KCLM 170353Z AUTO 20003KT 10SM CLR 03/00 A3017 RMK AO2 SLP218 T00330000=
202303170253 METAR KCLM 170253Z AUTO 15003KT 10SM CLR 04/00 A3018 RMK AO2 SLP222 T00440000 56014=
202303170153 METAR KCLM 170153Z AUTO 12003KT 10SM CLR 08/01 A3018 RMK AO2 SLP222 T00780006=
202303170053 METAR KCLM 170053Z AUTO VRB03KT 10SM CLR 08/01 A3020 RMK AO2 SLP227 T00830006=
202303162353 METAR KCLM 162353Z AUTO 09006KT 10SM CLR 08/01 A3022 RMK AO2 SLP235 T00830011 10089 20067 57021=
202303162253 METAR KCLM 162253Z AUTO 08008KT 10SM CLR 08/01 A3024 RMK AO2 SLP243 T00830006=
202303162153 METAR KCLM 162153Z AUTO 06006KT 10SM CLR 08/01 A3026 RMK AO2 SLP248 T00830006=
202303162053 METAR KCLM 162053Z AUTO 08010G17KT 10SM CLR 08/01 A3028 RMK AO2 SLP256 T00780011 58009=
202303161953 METAR KCLM 161953Z AUTO 09006KT 10SM CLR 08/01 A3030 RMK AO2 SLP262 T00780006=
202303161853 METAR KCLM 161853Z AUTO 09008KT 10SM SCT015 07/02 A3030 RMK AO2 SLP264 T00720022=
202303161837 SPECI KCLM 161837Z AUTO 10008KT 10SM BKN016 07/02 A3031 RMK AO2 T00720017=
202303161829 SPECI KCLM 161829Z AUTO 09007KT 10SM SCT016 08/02 A3031 RMK AO2 T00780017=
202303161819 SPECI KCLM 161819Z AUTO VRB06KT 10SM BKN016 07/02 A3031 RMK AO2 T00720017=
202303161753 METAR KCLM 161753Z AUTO VRB05KT 10SM OVC013 07/02 A3031 RMK AO2 SLP265 T00720017 10072 21017 56003=
202303161725 SPECI KCLM 161725Z AUTO 09005KT 10SM OVC012 07/02 A3031 RMK AO2 T00670022=
202303161653 METAR KCLM 161653Z AUTO 09004KT 10SM OVC015 06/02 A3031 RMK AO2 SLP266 T00610022=
202303161649 SPECI KCLM 161649Z AUTO 07004KT 10SM OVC015 06/02 A3031 RMK AO2=
202303161615 SPECI KCLM 161615Z AUTO 20003KT 10SM BKN013 OVC019 04/01 A3031 RMK AO2 T00390011=
202303161601 SPECI KCLM 161601Z AUTO 00000KT 10SM OVC015 04/01 A3032 RMK AO2 T00390011=
202303161553 METAR KCLM 161553Z AUTO 00000KT 10SM BKN013 OVC019 04/01 A3032 RMK AO2 SLP268 T00390011=
202303161515 SPECI KCLM 161515Z AUTO 00000KT 10SM OVC015 03/01 A3032 RMK AO2 T00330011=
202303161505 SPECI KCLM 161505Z AUTO 00000KT 10SM OVC013 03/01 A3032 RMK AO2 T00280006=
202303161453 METAR KCLM 161453Z AUTO 00000KT 10SM OVC015 02/01 A3032 RMK AO2 SLP269 T00220006 50001=
202303161435 SPECI KCLM 161435Z AUTO 00000KT 10SM OVC015 02/00 A3032 RMK AO2 T00220000=
202303161353 METAR KCLM 161353Z AUTO 21003KT 10SM OVC014 02/M01 A3032 RMK AO2 SLP269 T00221006=
202303161338 SPECI KCLM 161338Z AUTO 22005KT 10SM OVC014 02/M01 A3032 RMK AO2 T00171006=
202303161253 METAR KCLM 161253Z AUTO 00000KT 10SM OVC015 M01/M02 A3032 RMK AO2 SLP269 T10061022=
202303161245 SPECI KCLM 161245Z AUTO 21003KT 10SM BKN015 M01/M02 A3032 RMK AO2 T10061022=
202303161153 METAR KCLM 161153Z AUTO 22004KT 10SM CLR 01/M02 A3032 RMK AO2 SLP268 T00111017 10039 21011 58002=
202303161053 METAR KCLM 161053Z AUTO 22003KT 10SM CLR 00/M03 A3032 RMK AO2 SLP270 T00001028=
202303160953 METAR KCLM 160953Z AUTO 25004KT 10SM CLR 01/M01 A3033 RMK AO2 SLP271 T00111011=
202303160853 METAR KCLM 160853Z AUTO 24005KT 10SM CLR 03/M01 A3032 RMK AO2 SLP269 T00281006 53002=
202303160753 METAR KCLM 160753Z AUTO 24007KT 10SM CLR 03/00 A3032 RMK AO2 SLP269 T00330000 401000028=
202303160653 METAR KCLM 160653Z AUTO 24004KT 10SM CLR 04/01 A3032 RMK AO2 SLP268 T00390006=
202303160553 METAR KCLM 160553Z AUTO 24004KT 10SM SCT065 04/00 A3031 RMK AO2 SLP267 T00390000 10083 20039 50006=
202303160453 METAR KCLM 160453Z AUTO 27004KT 10SM OVC065 06/01 A3032 RMK AO2 SLP268 T00610011=
202303160353 METAR KCLM 160353Z AUTO 23004KT 10SM OVC070 06/01 A3031 RMK AO2 SLP265 T00610006=
202303160253 METAR KCLM 160253Z AUTO 27006KT 10SM OVC055 07/01 A3030 RMK AO2 SLP261 T00670006 53012=
202303160153 METAR KCLM 160153Z AUTO 31003KT 10SM BKN060 OVC075 07/01 A3028 RMK AO2 SLP256 T00720006=
202303160053 METAR KCLM 160053Z AUTO 30008KT 10SM BKN070 08/01 A3027 RMK AO2 SLP251 T00780006=
202303152353 METAR KCLM 152353Z AUTO 30010KT 10SM BKN070 08/00 A3026 RMK AO2 SLP249 T00830000 10100 20083 53013=
202303152253 METAR KCLM 152253Z AUTO 29012G19KT 10SM CLR 09/01 A3024 RMK AO2 SLP243 T00940011=
202303152153 METAR KCLM 152153Z AUTO 31010G21KT 10SM CLR 10/00 A3022 RMK AO2 SLP237 T01000000=
202303152053 METAR KCLM 152053Z AUTO 31010KT 10SM CLR 10/00 A3022 RMK AO2 SLP235 T01000000 51018=
202303151953 METAR KCLM 151953Z AUTO 30012KT 10SM CLR 09/01 A3021 RMK AO2 SLP232 T00890011=
202303151853 METAR KCLM 151853Z AUTO 29010G18KT 10SM CLR 09/M01 A3019 RMK AO2 SLP225 T00941011=
202303151753 METAR KCLM 151753Z AUTO 26012G19KT 10SM CLR 09/M01 A3017 RMK AO2 SLP217 T00891006 10089 20028 51033=
202303151653 METAR KCLM 151653Z AUTO 26006KT 10SM CLR 07/M01 A3014 RMK AO2 SLP208 T00671006=
202303151553 METAR KCLM 151553Z AUTO 25011G20KT 10SM CLR 04/M01 A3010 RMK AO2 SLP195 T00441011=
202303151453 METAR KCLM 151453Z AUTO 24007KT 10SM FEW044 03/M01 A3007 RMK AO2 SLP184 T00331011 53036=
202303151353 METAR KCLM 151353Z AUTO 26008KT 10SM FEW046 03/M01 A3003 RMK AO2 SLP169 T00281011=
202303151253 METAR KCLM 151253Z AUTO 25011KT 10SM CLR 03/M01 A2999 RMK AO2 SLP157 T00281006=
202303151153 METAR KCLM 151153Z AUTO 25008KT 10SM FEW050 03/00 A2996 RMK AO2 SLP148 60004 70004 T00280000 10056 20028 51029=
202303151053 METAR KCLM 151053Z AUTO 29005KT 10SM FEW100 03/00 A2993 RMK AO2 RAE17 SLP137 P0000 T00280000=
202303150953 METAR KCLM 150953Z AUTO 29011G17KT 10SM -RA FEW015 OVC033 04/01 A2992 RMK AO2 RAE10B28 SLP133 P0001 T00390011=
202303150924 SPECI KCLM 150924Z AUTO 21004KT 10SM SCT028 OVC035 04/02 A2989 RMK AO2 RAE10 P0000 T00390017=
202303150853 METAR KCLM 150853Z AUTO 27007KT 6SM -RA OVC022 04/01 A2987 RMK AO2 RAB23 SLP118 P0003 60003 T00440011 53035=
202303150843 SPECI KCLM 150843Z AUTO 28007KT 5SM -RA OVC024 04/01 A2987 RMK AO2 RAB23 P0002 T00440011=
202303150753 METAR KCLM 150753Z AUTO 26005KT 10SM BKN075 BKN085 OVC100 05/01 A2983 RMK AO2 SLP101 T00500006 400941011=
202303150653 METAR KCLM 150653Z AUTO 22004KT 10SM OVC100 06/01 A2979 RMK AO2 SLP089 T00560006=
202303150553 METAR KCLM 150553Z AUTO 25005KT 10SM FEW085 04/01 A2977 RMK AO2 SLP083 60000 T00440011 10094 20039 53014=
202303150453 METAR KCLM 150453Z AUTO 27005KT 10SM BKN100 04/01 A2976 RMK AO2 RAB0356E07 SLP078 P0000 T00440006=
202303150353 METAR KCLM 150353Z AUTO 29006KT 10SM SCT060 OVC080 06/01 A2975 RMK AO2 SLP074 T00560011=
202303150253 METAR KCLM 150253Z AUTO 27003KT 10SM FEW060 OVC075 06/01 A2973 RMK AO2 SLP070 T00560011 53004=
202303150153 METAR KCLM 150153Z AUTO 29005KT 10SM BKN075 06/01 A2972 RMK AO2 SLP066 T00610006=
202303150053 METAR KCLM 150053Z AUTO 30005KT 10SM BKN075 07/00 A2971 RMK AO2 SLP063 T00720000=
202303142353 METAR KCLM 142353Z AUTO VRB03KT 10SM SCT080 OVC110 09/M02 A2972 RMK AO2 SLP065 T00891017 10094 20061 56021=
202303142253 METAR KCLM 142253Z AUTO 33005KT 10SM BKN070 09/M01 A2973 RMK AO2 SLP070 T00891011=
202303142153 METAR KCLM 142153Z AUTO 00000KT 10SM BKN075 08/M02 A2975 RMK AO2 SLP076 T00831017=
202303142053 METAR KCLM 142053Z AUTO 05004KT 10SM OVC080 07/01 A2978 RMK AO2 SLP086 T00720011 58012=
202303141953 METAR KCLM 141953Z AUTO 34005KT 10SM FEW010 BKN070 06/02 A2980 RMK AO2 SLP094 T00610022=
202303141853 METAR KCLM 141853Z AUTO VRB05KT 10SM FEW070 07/02 A2981 RMK AO2 SLP096 T00670017=
202303141753 METAR KCLM 141753Z AUTO VRB03KT 10SM FEW110 07/01 A2982 RMK AO2 SLP098 I6000 T00670011 10067 21011 58009=
202303141653 METAR KCLM 141653Z AUTO 00000KT 10SM FEW100 BKN110 05/01 A2983 RMK AO2 SLP102 T00500006=
202303141553 METAR KCLM 141553Z AUTO 00000KT 10SM CLR 02/00 A2984 RMK AO2 SLP106 T00170000=
202303141453 METAR KCLM 141453Z AUTO 00000KT 10SM CLR M01/M02 A2984 RMK AO2 SLP108 I1000 I3000 T10061022 58010=
202303141353 METAR KCLM 141353Z AUTO 00000KT 10SM FEW085 00/M02 A2985 RMK AO2 SLP111 T00001022=
202303141253 METAR KCLM 141253Z AUTO 19004KT 10SM FEW020 00/M02 A2987 RMK AO2 SLP115 T00001022=
202303141237 SPECI KCLM 141237Z AUTO VRB03KT 10SM FEW020 00/M02 A2987 RMK AO2 T00001022=
202303141153 METAR KCLM 141153Z AUTO 22005KT 10SM BKN020 00/M02 A2987 RMK AO2 SLP117 70001 T00001022 10033 21006 50002=
202303141053 METAR KCLM 141053Z AUTO 20003KT 10SM SCT085 00/M02 A2988 RMK AO2 SLP119 T00001017=
202303140953 METAR KCLM 140953Z AUTO 23004KT 10SM FEW055 02/M01 A2989 RMK AO2 SLP122 T00171011=
202303140853 METAR KCLM 140853Z AUTO 26008KT 10SM SCT060 BKN085 03/M01 A2987 RMK AO2 SLP115 T00281006 53017=
202303140753 METAR KCLM 140753Z AUTO 25007KT 10SM SCT085 03/M01 A2985 RMK AO2 SLP109 T00281006 400940022=
202303140653 METAR KCLM 140653Z AUTO 25006KT 10SM FEW050 SCT070 SCT110 03/00 A2983 RMK AO2 SLP104 T00330000=
202303140553 METAR KCLM 140553Z AUTO 26007KT 10SM SCT048 BKN075 BKN090 03/00 A2982 RMK AO2 RAB07E48 SLP098 P0001 60001 T00280000 10094 20028 51021=
202303140453 METAR KCLM 140453Z AUTO 26009KT 10SM SCT046 BKN110 04/00 A2980 RMK AO2 SLP093 T00390000=
202303140353 METAR KCLM 140353Z AUTO 27006KT 10SM FEW060 SCT070 BKN090 04/M01 A2977 RMK AO2 SLP084 T00391011=
202303140253 METAR KCLM 140253Z AUTO 23005KT 10SM CLR 04/00 A2975 RMK AO2 RAB02E12 SLP077 P0000 60000 T00390000 53013=
202303140153 METAR KCLM 140153Z AUTO 29011KT 10SM SCT050 OVC070 06/00 A2974 RMK AO2 SLP072 T00610000=
202303140053 METAR KCLM 140053Z AUTO 00000KT 10SM BKN065 08/01 A2972 RMK AO2 SLP066 T00780006=
202303132353 METAR KCLM 132353Z AUTO VRB04KT 10SM FEW044 08/02 A2972 RMK AO2 SLP064 T00830022 10089 20056 51004=
202303132253 METAR KCLM 132253Z AUTO VRB04KT 10SM FEW050 08/02 A2971 RMK AO2 SLP063 T00830022=
202303132153 METAR KCLM 132153Z AUTO VRB03KT 10SM FEW025 SCT045 BKN055 08/02 A2971 RMK AO2 SLP062 T00780022=
202303132136 SPECI KCLM 132136Z AUTO VRB05KT 10SM SCT025 BKN046 BKN055 07/02 A2971 RMK AO2 T00720017=
202303132053 METAR KCLM 132053Z AUTO 32008G17KT 10SM BKN029 OVC043 08/02 A2970 RMK AO2 SLP060 T00780022 53006=
202303131953 METAR KCLM 131953Z AUTO 32006G15KT 10SM FEW039 07/02 A2969 RMK AO2 SLP056 T00670022=
202303120753 METAR KCLM 120753Z AUTO 23006KT 10SM BKN100 02/M01 A2992 RMK AO2 SLP135 I1000 T00171006 400940000=
202303120653 METAR KCLM 120653Z AUTO 16003KT 10SM FEW110 01/M01 A2993 RMK AO2 SLP138 T00061011=
202303120553 METAR KCLM 120553Z AUTO 22005KT 10SM CLR 02/M01 A2994 RMK AO2 SLP140 T00171006 10094 20011 53006=
202303120453 METAR KCLM 120453Z AUTO 21003KT 10SM FEW110 03/01 A2993 RMK AO2 SLP138 T00330011=
202303120414 SPECI KCLM 120414Z AUTO 00000KT 10SM SCT007 OVC100 04/02 A2993 RMK AO2 T00390017=
202303120353 METAR KCLM 120353Z AUTO 00000KT 10SM OVC100 04/01 A2992 RMK AO2 SLP134 T00390011=
202303120253 METAR KCLM 120253Z AUTO 23003KT 10SM OVC100 06/02 A2992 RMK AO2 SLP133 T00610017 53005=
202303120153 METAR KCLM 120153Z AUTO 00000KT 10SM OVC100 07/01 A2991 RMK AO2 SLP131 T00720011=
202303120053 METAR KCLM 120053Z AUTO 00000KT 10SM OVC100 08/01 A2990 RMK AO2 SLP128 T00830006=
202303112353 METAR KCLM 112353Z AUTO 00000KT 10SM OVC110 09/01 A2991 RMK AO2 SLP128 60000 T00890006 10089 20072 58002=
202303112253 METAR KCLM 112253Z AUTO VRB04KT 10SM BKN060 08/01 A2991 RMK AO2 SLP131 T00830006=
202303112153 METAR KCLM 112153Z AUTO 00000KT 10SM SCT070 OVC100 08/02 A2991 RMK AO2 RAE02 SLP130 P0000 T00830022=
202303112105 SPECI KCLM 112105Z AUTO 04004KT 10SM FEW031 SCT060 SCT070 07/03 A2991 RMK AO2 RAE02 P0000 T00720028=
202303112053 METAR KCLM 112053Z AUTO 08005KT 10SM -RA FEW012 BKN029 OVC075 07/03 A2991 RMK AO2 RAB53 SLP131 P0000 60000 T00720028 51006=
202303111953 METAR KCLM 111953Z AUTO 06005KT 10SM CLR 08/03 A2991 RMK AO2 SLP130 T00780028=
202303111853 METAR KCLM 111853Z AUTO 07007KT 10SM OVC100 08/03 A2990 RMK AO2 SLP127 T00830033=
202303111823 SPECI KCLM 111823Z AUTO 08007KT 10SM SCT019 OVC100 08/03 A2989 RMK AO2 T00780028=
202303111753 METAR KCLM 111753Z AUTO 02004KT 10SM BKN018 OVC110 08/03 A2989 RMK AO2 SLP125 60000 T00780028 10083 20022 53008=
202303111745 SPECI KCLM 111745Z AUTO 09005KT 10SM BKN017 BKN110 08/02 A2989 RMK AO2 T00780022=
202303111653 METAR KCLM 111653Z AUTO 00000KT 10SM FEW095 07/03 A2988 RMK AO2 SLP121 T00670028=
202303111553 METAR KCLM 111553Z AUTO 00000KT 10SM FEW032 SCT045 OVC095 04/02 A2988 RMK AO2 RAB17E50 SLP118 P0000 T00440022=
202303111526 SPECI KCLM 111526Z AUTO 24005KT 10SM -RA SCT025 BKN030 OVC037 04/01 A2987 RMK AO2 RAB17 P0000 T00440011=
202303111453 METAR KCLM 111453Z AUTO 00000KT 10SM OVC019 04/02 A2987 RMK AO2 SLP116 T00390017 53010=
202303111415 SPECI KCLM 111415Z AUTO 23004KT 10SM BKN018 BKN024 OVC100 03/02 A2986 RMK AO2 T00280017=
202303111353 METAR KCLM 111353Z AUTO 00000KT 10SM FEW020 SCT026 OVC100 03/02 A2985 RMK AO2 SLP111 T00330017=
202303111309 SPECI KCLM 111309Z AUTO 22005KT 10SM FEW021 BKN080 OVC110 03/01 A2985 RMK AO2 T00280011=
202303111302 SPECI KCLM 111302Z AUTO 23005KT 10SM BKN020 BKN085 OVC110 03/01 A2985 RMK AO2 T00280011=
202303111253 METAR KCLM 111253Z AUTO 22003KT 10SM SCT020 BKN090 OVC110 03/01 A2984 RMK AO2 SLP108 T00280011=
202303111153 METAR KCLM 111153Z AUTO 22005KT 10SM OVC110 03/01 A2984 RMK AO2 SLP106 60000 70011 T00280011 10050 20022 51008=
202303111053 METAR KCLM 111053Z AUTO 00000KT 10SM FEW023 FEW070 OVC110 04/02 A2983 RMK AO2 RAB34E43 SLP104 P0000 T00390022=
202303111043 SPECI KCLM 111043Z AUTO 13003KT 10SM SCT023 BKN075 OVC110 04/02 A2984 RMK AO2 RAB34E43 P0000 T00390022=
202303110953 METAR KCLM 110953Z AUTO 00000KT 10SM BKN020 BKN032 04/02 A2983 RMK AO2 SLP104 T00440022=
202303110853 METAR KCLM 110853Z AUTO 26006KT 10SM OVC021 05/03 A2981 RMK AO2 SLP097 T00500028 53018=
202303110830 SPECI KCLM 110830Z AUTO 27007KT 10SM BKN023 BKN029 OVC080 04/03 A2980 RMK AO2 T00440028=
202303110753 METAR KCLM 110753Z AUTO 00000KT 10SM FEW033 BKN075 OVC090 04/02 A2979 RMK AO2 SLP090 T00390022 400720033=
202303110653 METAR KCLM 110653Z AUTO 20003KT 10SM SCT023 BKN031 BKN085 04/02 A2977 RMK AO2 SLP083 T00390022=
202303110642 SPECI KCLM 110642Z AUTO 23004KT 10SM SCT024 BKN029 OVC085 03/02 A2977 RMK AO2 T00330017=
202303110619 SPECI KCLM 110619Z AUTO 00000KT 10SM SCT029 BKN042 OVC085 04/02 A2976 RMK AO2 T00440022=
202303110553 METAR KCLM 110553Z AUTO 22003KT 10SM BKN029 OVC044 05/03 A2976 RMK AO2 SLP079 60001 T00500028 10067 20044 51023=
202303110453 METAR KCLM 110453Z AUTO 00000KT 10SM OVC025 05/03 A2974 RMK AO2 SLP072 T00500028=
202303110436 SPECI KCLM 110436Z AUTO 23003KT 10SM BKN025 BKN055 OVC085 04/03 A2973 RMK AO2 T00440028=
202303110407 SPECI KCLM 110407Z AUTO 00000KT 10SM SCT027 BKN032 OVC080 05/03 A2972 RMK AO2 T00500033=
202303110353 METAR KCLM 110353Z AUTO 00000KT 10SM BKN027 BKN032 OVC075 05/03 A2971 RMK AO2 RAB0256E08 SLP062 P0000 T00500033=
202303110341 SPECI KCLM 110341Z AUTO 00000KT 10SM BKN027 OVC039 05/03 A2971 RMK AO2 RAB0256E08 P0000 T00500033=
202303110253 METAR KCLM 110253Z AUTO 00000KT 10SM FEW023 OVC060 06/03 A2969 RMK AO2 SLP055 60001 T00560033 51023=
202303110242 SPECI KCLM 110242Z AUTO 00000KT 10SM FEW023 OVC065 06/03 A2969 RMK AO2 T00560033=
202303110153 METAR KCLM 110153Z AUTO 00000KT 10SM OVC019 06/03 A2967 RMK AO2 RAB0055E35 SLP048 P0001 T00610033=
202303110053 METAR KCLM 110053Z AUTO 00000KT 10SM SCT015 OVC022 06/02 A2965 RMK AO2 SLP040 T00610022=
202303102353 METAR KCLM 102353Z AUTO 00000KT 10SM OVC023 07/03 A2962 RMK AO2 SLP032 60000 T00670028 10072 20044 53026=
202303102253 METAR KCLM 102253Z AUTO VRB03KT 10SM BKN015 OVC021 07/03 A2959 RMK AO2 RAB12E37 SLP023 P0000 T00720028=
202303102228 SPECI KCLM 102228Z AUTO 36003KT 10SM -RA BKN016 BKN024 OVC032 07/03 A2958 RMK AO2 RAB12 P0000 T00670028=
202303102153 METAR KCLM 102153Z AUTO VRB03KT 10SM FEW012 OVC033 07/03 A2957 RMK AO2 SLP014 T00670028=
202303102104 SPECI KCLM 102104Z AUTO 22004KT 10SM SCT009 BKN030 OVC036 06/03 A2955 RMK AO2 T00610028=
202303102053 METAR KCLM 102053Z AUTO VRB03KT 7SM BKN008 BKN027 OVC036 06/03 A2954 RMK AO2 RAB32E46 SLP006 P0000 60000 T00610028 51019=
202303102050 SPECI KCLM 102050Z AUTO 00000KT 6SM HZ BKN008 BKN027 OVC032 06/03 A2954 RMK AO2 RAB32E46 P0000=
202303102043 SPECI KCLM 102043Z AUTO 00000KT 6SM -RA FEW007 BKN025 OVC039 06/02 A2954 RMK AO2 RAB32 P0000 T00560022=
202303102029 SPECI KCLM 102029Z AUTO 31003KT 10SM BKN006 OVC021 06/03 A2953 RMK AO2 CIG 005V011 T00560033=
202303102005 SPECI KCLM 102005Z AUTO 29003KT 10SM SCT009 BKN014 OVC021 05/03 A2953 RMK AO2 T00500028=
202303101953 METAR KCLM 101953Z AUTO 31003KT 10SM FEW006 BKN009 OVC013 05/03 A2952 RMK AO2 RAE04B43E52 SLP997 P0000 T00500028=
202303101933 SPECI KCLM 101933Z AUTO 34004KT 10SM BKN006 BKN010 OVC013 05/03 A2951 RMK AO2 RAE04 CIG 005V008 P0000 T00500028=
202303101853 METAR KCLM 101853Z AUTO 27004KT 8SM -RA OVC011 05/03 A2949 RMK AO2 RAE07B37 SLP987 P0000 T00500028=
202303101804 SPECI KCLM 101804Z AUTO 25005KT 10SM -RA OVC014 04/02 A2946 RMK AO2 P0000 T00440017=
202303101753 METAR KCLM 101753Z AUTO 24006KT 10SM -RA OVC016 04/02 A2946 RMK AO2 SLP977 P0002 60010 T00440017 10050 20033 53024=
202303101725 SPECI KCLM 101725Z AUTO 24004KT 7SM -RA SCT013 OVC021 04/02 A2945 RMK AO2 P0002 T00390017=
202303101707 SPECI KCLM 101707Z AUTO 24004KT 8SM -RA OVC014 04/02 A2944 RMK AO2 P0001 T00390017=
202303101653 METAR KCLM 101653Z AUTO 25004KT 8SM -RA OVC016 04/02 A2943 RMK AO2 SLP969 P0002 T00390017=
202303101553 METAR KCLM 101553Z AUTO 21003KT 7SM -RA OVC024 03/02 A2941 RMK AO2 SLP960 P0002 T00330017=
202303101519 SPECI KCLM 101519Z AUTO 18003KT 8SM -RA OVC028 04/02 A2939 RMK AO2 P0001 T00390017=
202303101453 METAR KCLM 101453Z AUTO 14003KT 10SM -RA FEW017 BKN030 OVC038 04/01 A2939 RMK AO2 SLP953 P0003 60004 T00390011 53009=
202303101445 SPECI KCLM 101445Z AUTO 14004KT 10SM -RA FEW014 BKN030 OVC036 04/01 A2939 RMK AO2 P0003 T00390011=
202303101433 SPECI KCLM 101433Z AUTO 16004KT 10SM -RA FEW012 OVC028 04/02 A2938 RMK AO2 P0002 T00390017=
202303101404 SPECI KCLM 101404Z AUTO 00000KT 10SM -RA SCT020 OVC033 04/02 A2938 RMK AO2 P0001 T00390022=
202303101353 METAR KCLM 101353Z AUTO 00000KT 10SM -RA BKN020 OVC033 04/02 A2937 RMK AO2 RAB04 SLP948 P0000 T00390022=
202303101318 SPECI KCLM 101318Z AUTO 00000KT 10SM -RA BKN022 OVC031 04/02 A2937 RMK AO2 RAB04 P0000 T00390022=
202303101253 METAR KCLM 101253Z AUTO 00000KT 10SM OVC033 04/02 A2937 RMK AO2 RAE51 SLP946 P0001 T00440017=
202303101236 SPECI KCLM 101236Z AUTO 00000KT 10SM -RA OVC031 04/02 A2937 RMK AO2 P0001 T00440017=
202303101201 SPECI KCLM 101201Z AUTO 13004KT 10SM -RA OVC029 05/01 A2936 RMK AO2 P0000 T00500011=
202303101153 METAR KCLM 101153Z AUTO 11005KT 10SM -RA OVC031 05/01 A2936 RMK AO2 RAE1056B25 SLP943 P0001 60001 70001 T00500011 10078 20050 56007=
202303101053 METAR KCLM 101053Z AUTO 14006KT 10SM -RA BKN040 OVC060 05/01 A2936 RMK AO2 RAB22 SLP943 P0000 T00500011=
202303100953 METAR KCLM 100953Z AUTO 10008KT 10SM OVC065 07/M02 A2937 RMK AO2 SLP946 T00721017=
202303100853 METAR KCLM 100853Z AUTO 08005KT 10SM FEW070 OVC085 07/M02 A2938 RMK AO2 SLP950 T00721017 56029=
202303100753 METAR KCLM 100753Z AUTO 02004KT 10SM FEW065 SCT080 BKN100 06/M02 A2940 RMK AO2 SLP956 T00611022 401060000=
202303100653 METAR KCLM 100653Z AUTO 09008KT 10SM FEW070 BKN095 BKN120 07/M01 A2943 RMK AO2 SLP968 T00671011=
202303100553 METAR KCLM 100553Z AUTO 08006G20KT 10SM CLR 08/M02 A2947 RMK AO2 SLP980 T00781022 10094 20067 58034=
202303100453 METAR KCLM 100453Z AUTO 11012G26KT 10SM CLR 08/M03 A2951 RMK AO2 PK WND 08026/0449 SLP993 T00831028=
202303100353 METAR KCLM 100353Z AUTO 12013G25KT 10SM CLR 08/M02 A2953 RMK AO2 PK WND 12032/0312 SLP003 T00781017=
202303100253 METAR KCLM 100253Z AUTO 11015G27KT 10SM FEW120 08/M03 A2957 RMK AO2 PK WND 10033/0221 SLP015 T00781028 56028=
202303100153 METAR KCLM 100153Z AUTO 10015G24KT 10SM OVC110 08/M02 A2959 RMK AO2 PK WND 09028/0113 SLP023 T00831022=
202303100053 METAR KCLM 100053Z AUTO 10016G25KT 10SM CLR 09/M02 A2962 RMK AO2 PK WND 10026/0041 SLP031 T00891022=
202303092353 METAR KCLM 092353Z AUTO 11017G27KT 10SM CLR 09/M02 A2965 RMK AO2 PK WND 10027/2343 SLP044 T00941022 10106 20061 58028=
202303092253 METAR KCLM 092253Z AUTO 11015G24KT 10SM CLR 09/M01 A2969 RMK AO2 SLP055 T00941011=
202303092153 METAR KCLM 092153Z AUTO 09008KT 10SM CLR 09/M01 A2972 RMK AO2 SLP065 T00941006=
202303092053 METAR KCLM 092053Z AUTO 09012G22KT 10SM FEW120 09/M01 A2974 RMK AO2 SLP072 T00891006 58026=
202303091953 METAR KCLM 091953Z AUTO 11016G25KT 10SM FEW080 FEW110 10/M01 A2977 RMK AO2 SLP083 T01001006=
202303091853 METAR KCLM 091853Z AUTO 09007KT 10SM BKN110 09/01 A2980 RMK AO2 SLP094 T00890011=
202303091753 METAR KCLM 091753Z AUTO 00000KT 10SM FEW120 06/01 A2982 RMK AO2 SLP099 T00610006 10061 20000 58015=
202303091653 METAR KCLM 091653Z AUTO 10003KT 10SM BKN110 06/00 A2984 RMK AO2 SLP106 T00560000=
202303091553 METAR KCLM 091553Z AUTO 00000KT 10SM OVC085 01/M01 A2985 RMK AO2 SLP110 T00111006=
202303091453 METAR KCLM 091453Z AUTO 00000KT 10SM BKN080 01/M01 A2986 RMK AO2 SLP115 T00061011 58011=
202303091353 METAR KCLM 091353Z AUTO 23004KT 10SM CLR 01/M01 A2987 RMK AO2 SLP117 T00111011=
202303091253 METAR KCLM 091253Z AUTO 26003KT 10SM CLR 01/M01 A2989 RMK AO2 SLP122 T00111011=
202303091153 METAR KCLM 091153Z AUTO 20003KT 10SM BKN120 01/M01 A2989 RMK AO2 SLP125 T00111006 10022 20000 58013=
202303091053 METAR KCLM 091053Z AUTO 20003KT 10SM CLR 01/M01 A2991 RMK AO2 SLP130 T00061011=
202303090953 METAR KCLM 090953Z AUTO 00000KT 10SM CLR 01/M01 A2992 RMK AO2 SLP135 T00061011=
202303090853 METAR KCLM 090853Z AUTO 00000KT 10SM CLR 01/M02 A2993 RMK AO2 SLP138 T00061017 58005=
202303090753 METAR KCLM 090753Z AUTO 17003KT 10SM CLR 00/M02 A2994 RMK AO2 SLP141 T00001017 400941017=
202303090653 METAR KCLM 090653Z AUTO 22004KT 10SM CLR 01/M01 A2995 RMK AO2 SLP144 T00111011=
202303090553 METAR KCLM 090553Z AUTO 23003KT 10SM CLR 02/M01 A2995 RMK AO2 SLP143 60000 T00171006 10083 20006 50001=
202303090453 METAR KCLM 090453Z AUTO 22003KT 10SM CLR 02/M01 A2995 RMK AO2 SLP145 T00221006=
202303090353 METAR KCLM 090353Z AUTO 00000KT 10SM CLR 02/M01 A2995 RMK AO2 SLP146 T00221006=
202303090253 METAR KCLM 090253Z AUTO 15003KT 10SM FEW039 SCT120 04/01 A2995 RMK AO2 RAB03E19 SLP143 P0000 60000 T00440011 53003=
202303090153 METAR KCLM 090153Z AUTO 00000KT 10SM OVC043 07/02 A2994 RMK AO2 SLP141 T00670017=
202303090053 METAR KCLM 090053Z AUTO 31004KT 10SM CLR 07/00 A2993 RMK AO2 SLP138 T00720000=
202303082353 METAR KCLM 082353Z AUTO 34006KT 10SM CLR 08/01 A2994 RMK AO2 SLP139 T00780006 10094 20056 53002=
202303082253 METAR KCLM 082253Z AUTO 34005KT 10SM CLR 07/01 A2993 RMK AO2 SLP139 T00670011=
202303082153 METAR KCLM 082153Z AUTO VRB06KT 10SM CLR 08/01 A2992 RMK AO2 SLP135 T00830011=
202303082053 METAR KCLM 082053Z AUTO 30006KT 10SM SCT022 BKN080 07/01 A2993 RMK AO2 SLP137 T00720011 51001=
202303082049 SPECI KCLM 082049Z AUTO 27007KT 10SM SCT022 BKN080 08/02 A2993 RMK AO2=
202303082035 SPECI KCLM 082035Z AUTO VRB06KT 10SM BKN022 08/02 A2993 RMK AO2 T00830017=
202303081953 METAR KCLM 081953Z AUTO VRB04KT 10SM CLR 07/01 A2993 RMK AO2 SLP138 T00670011=
202303081928 SPECI KCLM 081928Z AUTO 02004KT 10SM SCT019 06/01 A2993 RMK AO2 T00560011=
202303081853 METAR KCLM 081853Z AUTO 00000KT 10SM OVC018 06/01 A2993 RMK AO2 SLP137 T00560011=
202303081753 METAR KCLM 081753Z AUTO 00000KT 10SM OVC017 06/01 A2992 RMK AO2 SLP135 T00610011 10061 20000 53002=
202303081735 SPECI KCLM 081735Z AUTO 09003KT 10SM BKN017 BKN100 06/01 A2992 RMK AO2 T00560011=
202303081713 SPECI KCLM 081713Z AUTO 00000KT 10SM SCT015 BKN100 06/02 A2992 RMK AO2 T00560017=
202303081653 METAR KCLM 081653Z AUTO 25003KT 10SM OVC016 04/01 A2992 RMK AO2 SLP134 T00440011=
202303081553 METAR KCLM 081553Z AUTO 24005KT 10SM OVC019 02/00 A2992 RMK AO2 SLP133 T00220000=
202303081453 METAR KCLM 081453Z AUTO 24005KT 10SM BKN018 01/M01 A2992 RMK AO2 SLP134 T00111011 58006=
202303081435 SPECI KCLM 081435Z AUTO 24004KT 10SM BKN018 01/M01 A2992 RMK AO2 T00111011=
202303081421 SPECI KCLM 081421Z AUTO 23003KT 10SM FEW012 SCT020 01/M01 A2992 RMK AO2 T00111011=
202303081353 METAR KCLM 081353Z AUTO 22003KT 10SM SCT013 OVC018 01/M01 A2993 RMK AO2 SLP136 T00111006=
202303081304 SPECI KCLM 081304Z AUTO 15003KT 10SM BKN019 01/M01 A2993 RMK AO2 T00061011=
202303081253 METAR KCLM 081253Z AUTO 23005KT 10SM SCT020 01/M01 A2993 RMK AO2 SLP136 T00111011=
202303081214 SPECI KCLM 081214Z AUTO 00000KT 10SM BKN016 00/M02 A2993 RMK AO2 T00001017=
202303081153 METAR KCLM 081153Z AUTO 16003KT 10SM BKN012 00/M02 A2994 RMK AO2 SLP139 60000 I1000 I6000 T00001017 10044 21017 58007=
202303081143 SPECI KCLM 081143Z AUTO 23004KT 10SM BKN012 00/M02 A2993 RMK AO2 I1000 T00001017=
202303081053 METAR KCLM 081053Z AUTO 23006KT 10SM CLR M01/M02 A2994 RMK AO2 SLP142 I1000 T10061022=
202303080953 METAR KCLM 080953Z AUTO 00000KT 10SM CLR 00/M02 A2995 RMK AO2 SLP144 T00001022=
202303080853 METAR KCLM 080853Z AUTO 22003KT 10SM FEW110 01/M01 A2996 RMK AO2 SLP146 60000 T00111006 56008=
202303080753 METAR KCLM 080753Z AUTO 22004KT 10SM SCT100 SCT120 04/01 A2997 RMK AO2 SLP149 T00390006 400830000=
202303080653 METAR KCLM 080653Z AUTO 29003KT 10SM BKN070 OVC085 04/01 A2997 RMK AO2 RAE0557 SLP151 P0000 T00390011=
202303080553 METAR KCLM 080553Z AUTO 24003KT 10SM -RA BKN037 OVC090 04/02 A2998 RMK AO2 SLP155 P0000 60000 T00390017 10072 20039 50001=
202303080453 METAR KCLM 080453Z AUTO 16005KT 10SM -RA FEW013 BKN032 OVC042 05/01 A3000 RMK AO2 RAB39 SLP159 P0000 T00500011=
202303080353 METAR KCLM 080353Z AUTO 27006KT 10SM BKN047 BKN055 OVC090 06/01 A2999 RMK AO2 SLP157 T00560011=
202303080253 METAR KCLM 080253Z AUTO 23005KT 10SM OVC090 04/01 A2998 RMK AO2 SLP155 T00440006 56005=
202303080153 METAR KCLM 080153Z AUTO 00000KT 10SM FEW120 06/00 A2998 RMK AO2 SLP155 T00560000=
202303080053 METAR KCLM 080053Z AUTO 00000KT 10SM CLR 07/01 A2998 RMK AO2 SLP155 T00720006=
202303072353 METAR KCLM 072353Z AUTO 00000KT 10SM CLR 07/M01 A2999 RMK AO2 SLP159 T00721006 10083 20061 56012=
202303072253 METAR KCLM 072253Z AUTO 35005KT 10SM SCT090 07/02 A3000 RMK AO2 SLP162 T00670017=
202303072153 METAR KCLM 072153Z AUTO VRB03KT 10SM FEW070 BKN085 07/01 A3002 RMK AO2 SLP167 T00720011=
202303072053 METAR KCLM 072053Z AUTO 05003KT 10SM FEW065 07/01 A3003 RMK AO2 SLP171 T00670011 58003=
202303071953 METAR KCLM 071953Z AUTO VRB03KT 10SM CLR 07/02 A3004 RMK AO2 SLP175 T00670017=
202303071853 METAR KCLM 071853Z AUTO VRB04KT 10SM CLR 07/02 A3004 RMK AO2 SLP175 T00720022=
202303071837 SPECI KCLM 071837Z AUTO VRB04KT 10SM SCT016 07/02 A3004 RMK AO2 T00670017=
202303071827 SPECI KCLM 071827Z AUTO 32004KT 10SM BKN016 07/02 A3004 RMK AO2 T00670017=
202303071753 METAR KCLM 071753Z AUTO 33003KT 10SM CLR 06/01 A3004 RMK AO2 SLP173 T00610011 10072 20000 51007=
202303071653 METAR KCLM 071653Z AUTO 26008KT 10SM FEW013 06/M01 A3003 RMK AO2 SLP171 T00561011=
202303071553 METAR KCLM 071553Z AUTO 24010KT 10SM CLR 03/M02 A3002 RMK AO2 SLP169 T00331017=
202303071453 METAR KCLM 071453Z AUTO 23006KT 10SM CLR 01/M02 A3002 RMK AO2 SLP167 T00111022 50000=
202303071353 METAR KCLM 071353Z AUTO 23006KT 10SM FEW019 00/M03 A3002 RMK AO2 SLP168 T00001028=
202303071348 SPECI KCLM 071348Z AUTO 22006KT 10SM SCT019 01/M02 A3002 RMK AO2=
202303071326 SPECI KCLM 071326Z AUTO 00000KT 10SM OVC017 01/M02 A3002 RMK AO2 T00061022=
202303071305 SPECI KCLM 071305Z AUTO 00000KT 10SM BKN013 02/M02 A3002 RMK AO2 T00171017=
202303071253 METAR KCLM 071253Z AUTO 28005KT 10SM SCT013 03/M02 A3002 RMK AO2 SLP167 T00281017=
202303071153 METAR KCLM 071153Z AUTO 22007KT 10SM CLR 01/M03 A3001 RMK AO2 SLP164 T00111028 10050 20000 50001=
202303071053 METAR KCLM 071053Z AUTO 22004KT 10SM CLR 03/M02 A3001 RMK AO2 SLP165 T00281017=
202303070953 METAR KCLM 070953Z AUTO 23006KT 10SM CLR 03/M02 A3002 RMK AO2 SLP166 T00331017=
202303070853 METAR KCLM 070853Z AUTO 26005KT 10SM SCT080 02/M02 A3001 RMK AO2 SLP163 T00171022 51007=
202303070753 METAR KCLM 070753Z AUTO 23007KT 10SM CLR 02/M02 A3000 RMK AO2 SLP162 T00221022 401061017=
202303070653 METAR KCLM 070653Z AUTO 00000KT 10SM SCT070 04/M01 A3000 RMK AO2 SLP160 T00441011=
202303070353 METAR KCLM 070353Z AUTO 24008KT 10SM SCT070 06/M01 A2995 RMK AO2 SLP143 T00611006=
202303070253 METAR KCLM 070253Z AUTO 21005KT 10SM CLR 09/M05 A2994 RMK AO2 SLP139 T00941050 53008=
202303070153 METAR KCLM 070153Z AUTO 20013G20KT 160V220 10SM FEW080 SCT090 10/M05 A2992 RMK AO2 SLP133 T01001050=
202303070053 METAR KCLM 070053Z AUTO 10SM FEW075 BKN090 09/00 A2992 RMK AO2 SLP133 T00890000=
202303062353 METAR KCLM 062353Z AUTO 29005KT 10SM BKN090 08/00 A2991 RMK AO2 SLP131 T00780000 10106 20056 56006=
202303062253 METAR KCLM 062253Z AUTO VRB03KT 10SM FEW080 FEW090 08/M01 A2992 RMK AO2 SLP133 T00831006=
202303062153 METAR KCLM 062153Z AUTO 33004KT 10SM CLR 08/01 A2992 RMK AO2 SLP133 T00780006=
202303062053 METAR KCLM 062053Z AUTO 34004KT 10SM CLR 06/00 A2993 RMK AO2 SLP137 T00610000 58001=
202303061953 METAR KCLM 061953Z AUTO VRB04KT 10SM FEW075 07/01 A2994 RMK AO2 SLP140 T00720006=
202303061853 METAR KCLM 061853Z AUTO 09004KT 10SM FEW080 07/01 A2994 RMK AO2 SLP140 T00670006=
202303061753 METAR KCLM 061753Z AUTO 31003KT 10SM BKN080 06/00 A2993 RMK AO2 SLP139 T00560000 10061 21017 51007=
202303061653 METAR KCLM 061653Z AUTO 24004KT 10SM FEW075 04/M02 A2993 RMK AO2 SLP137 T00391017=
202303061553 METAR KCLM 061553Z AUTO 23005KT 10SM CLR 02/M02 A2992 RMK AO2 SLP134 T00171022=
202303061453 METAR KCLM 061453Z AUTO 22004KT 10SM CLR M01/M03 A2991 RMK AO2 SLP132 T10111033 53005=
202303061353 METAR KCLM 061353Z AUTO 20004KT 10SM CLR 00/M03 A2991 RMK AO2 SLP130 T00001033=
202303061253 METAR KCLM 061253Z AUTO 22004KT 10SM CLR 02/M03 A2990 RMK AO2 SLP127 T00221028=
202303061153 METAR KCLM 061153Z AUTO 23006KT 10SM CLR 01/M02 A2990 RMK AO2 SLP126 T00111022 10039 20011 51004=
202303061053 METAR KCLM 061053Z AUTO 25008KT 10SM FEW015 03/M01 A2989 RMK AO2 SLP124 T00281011=
202303060953 METAR KCLM 060953Z AUTO 25007KT 10SM CLR 02/M01 A2989 RMK AO2 SLP124 T00221006=
202303060911 SPECI KCLM 060911Z AUTO 25007KT 10SM SCT013 02/M01 A2989 RMK AO2 T00221006=
202303060853 METAR KCLM 060853Z AUTO 23005KT 10SM OVC013 02/M01 A2988 RMK AO2 SLP121 T00221006 51011=
202303060818 SPECI KCLM 060818Z AUTO 22005KT 10SM BKN012 03/00 A2988 RMK AO2 T00280000=
202303060753 METAR KCLM 060753Z AUTO 00000KT 10SM FEW070 02/M01 A2987 RMK AO2 SLP117 T00221006 400830011=
202303060653 METAR KCLM 060653Z AUTO 00000KT 10SM SCT075 02/00 A2986 RMK AO2 SLP115 T00220000=
202303060602 SPECI KCLM 060602Z AUTO 24005KT 10SM FEW018 BKN080 03/01 A2985 RMK AO2 T00330006=
202303060553 METAR KCLM 060553Z AUTO 00000KT 10SM SCT019 BKN023 OVC080 03/01 A2985 RMK AO2 SLP110 T00330011 10078 20033 52009=
202303060517 SPECI KCLM 060517Z AUTO 00000KT 10SM SCT023 BKN029 BKN035 04/01 A2984 RMK AO2 T00390011=
202303060500 SPECI KCLM 060500Z AUTO 13004KT 10SM SCT024 04/01 A2984 RMK AO2 T00440011=
202303060453 METAR KCLM 060453Z AUTO 11003KT 10SM BKN023 BKN090 04/01 A2984 RMK AO2 SLP107 T00390011=
202303060353 METAR KCLM 060353Z AUTO 10004KT 10SM FEW024 SCT044 OVC085 06/01 A2983 RMK AO2 SLP104 T00610011=
202303060253 METAR KCLM 060253Z AUTO 13004KT 10SM BKN044 BKN075 06/01 A2982 RMK AO2 SLP101 T00560006 53015=
202303060153 METAR KCLM 060153Z AUTO 00000KT 10SM FEW044 OVC095 06/01 A2981 RMK AO2 SLP095 T00610006=
202303060053 METAR KCLM 060053Z AUTO 12003KT 10SM SCT036 BKN100 BKN120 07/01 A2979 RMK AO2 SLP089 T00720006=
202303052353 METAR KCLM 052353Z AUTO 09004KT 10SM BKN037 BKN100 07/01 A2978 RMK AO2 SLP086 T00720011 10083 20056 53011=
202303052253 METAR KCLM 052253Z AUTO VRB04KT 10SM BKN035 08/01 A2977 RMK AO2 SLP082 T00780006=
202303052153 METAR KCLM 052153Z AUTO VRB03KT 10SM CLR 07/02 A2975 RMK AO2 SLP077 T00720017=
202303052053 METAR KCLM 052053Z AUTO 08005KT 10SM CLR 07/01 A2975 RMK AO2 SLP075 T00670006 51012=
202303051953 METAR KCLM 051953Z AUTO VRB04KT 10SM CLR 07/01 A2974 RMK AO2 SLP072 T00720011=
202303051853 METAR KCLM 051853Z AUTO 04004KT 10SM CLR 08/M01 A2972 RMK AO2 SLP067 T00781006=
202303051753 METAR KCLM 051753Z AUTO 00000KT 10SM CLR 06/M01 A2971 RMK AO2 SLP063 T00561011 10056 20011 53018=
202303051653 METAR KCLM 051653Z AUTO 23005KT 10SM CLR 04/M02 A2970 RMK AO2 SLP058 T00391017=
202303051553 METAR KCLM 051553Z AUTO 27007KT 10SM BKN085 03/M02 A2968 RMK AO2 SLP051 T00331017=
202303051453 METAR KCLM 051453Z AUTO 24006KT 10SM CLR 02/M02 A2966 RMK AO2 SLP047 T00171022 53007=
202303051353 METAR KCLM 051353Z AUTO 24008KT 10SM FEW015 BKN055 02/M02 A2965 RMK AO2 SLP043 T00221022=
202303051253 METAR KCLM 051253Z AUTO 24009KT 10SM OVC050 02/M02 A2965 RMK AO2 SLP040 T00221017=
202303051153 METAR KCLM 051153Z AUTO 23005KT 10SM FEW050 02/M02 A2964 RMK AO2 SLP038 T00171017 10039 20017 51010=
202303051113 SPECI KCLM 051113Z AUTO 24006KT 10SM SCT024 BKN046 03/M02 A2963 RMK AO2 T00281017=
202303051053 METAR KCLM 051053Z AUTO 24007KT 10SM SCT018 OVC023 03/M01 A2964 RMK AO2 SLP037 T00281011=
202303051033 SPECI KCLM 051033Z AUTO 24003KT 10SM BKN015 BKN026 03/M01 A2963 RMK AO2 T00281011=
202303051020 SPECI KCLM 051020Z AUTO VRB03KT 10SM BKN014 03/M01 A2963 RMK AO2 T00331011=
202303050953 METAR KCLM 050953Z AUTO 23006KT 10SM CLR 03/M01 A2962 RMK AO2 SLP032 T00281011=
202303050853 METAR KCLM 050853Z AUTO 24006KT 10SM CLR 04/M01 A2961 RMK AO2 SLP028 T00391011 51023=
202303050753 METAR KCLM 050753Z AUTO 24007KT 10SM FEW080 04/M01 A2959 RMK AO2 SLP023 T00391006 400831011=
202303050653 METAR KCLM 050653Z AUTO 23005KT 10SM FEW080 02/M01 A2957 RMK AO2 SLP016 T00221011=
202303050553 METAR KCLM 050553Z AUTO 17005KT 10SM CLR 04/M01 A2954 RMK AO2 SLP005 T00391006 10083 20017 53035=
202303050453 METAR KCLM 050453Z AUTO 25009KT 10SM SCT070 05/00 A2951 RMK AO2 SLP993 T00500000=
202303050353 METAR KCLM 050353Z AUTO 25010KT 10SM BKN060 05/01 A2947 RMK AO2 SLP982 T00500006=
202303050253 METAR KCLM 050253Z AUTO 08003KT 10SM CLR 03/M01 A2944 RMK AO2 SLP971 T00281006 53016=
202303050153 METAR KCLM 050153Z AUTO 10004KT 10SM FEW060 SCT110 05/01 A2941 RMK AO2 SLP962 T00500006=
202303050053 METAR KCLM 050053Z AUTO 09010G17KT 10SM FEW029 SCT065 06/01 A2940 RMK AO2 SLP959 T00610006=
202303042353 METAR KCLM 042353Z AUTO 08003KT 10SM OVC070 07/01 A2939 RMK AO2 SLP954 T00720011 10083 20039 53005=
202303042253 METAR KCLM 042253Z AUTO 09007KT 10SM SCT080 07/01 A2938 RMK AO2 SLP951 T00720011=
202303042153 METAR KCLM 042153Z AUTO 10005KT 10SM SCT075 07/01 A2938 RMK AO2 SLP949 T00670011=
202303042053 METAR KCLM 042053Z AUTO VRB03KT 10SM BKN080 07/01 A2938 RMK AO2 SLP950 T00670006 58012=
202303041953 METAR KCLM 041953Z AUTO 09007KT 10SM OVC080 05/01 A2940 RMK AO2 SLP956 T00500006=
202303041853 METAR KCLM 041853Z AUTO 13003KT 10SM BKN090 06/01 A2940 RMK AO2 SLP957 T00560006=
202303041753 METAR KCLM 041753Z AUTO 00000KT 10SM SCT095 OVC120 04/00 A2941 RMK AO2 SLP963 T00390000 10039 21006 56015=
202303041653 METAR KCLM 041653Z AUTO 00000KT 10SM OVC110 02/00 A2942 RMK AO2 SLP966 T00220000=
202303041615 SPECI KCLM 041615Z AUTO 00000KT 10SM SCT013 OVC100 02/00 A2943 RMK AO2 T00170000=
202303041602 SPECI KCLM 041602Z AUTO 00000KT 10SM BKN013 OVC110 02/M01 A2944 RMK AO2 T00171006=
202303041553 METAR KCLM 041553Z AUTO 00000KT 10SM SCT012 OVC110 02/00 A2944 RMK AO2 SLP973 T00170000=
202303041516 SPECI KCLM 041516Z AUTO 20004KT 10SM SCT014 OVC100 02/M01 A2945 RMK AO2 T00171006=
202303041453 METAR KCLM 041453Z AUTO 00000KT 10SM BKN014 OVC090 01/M01 A2946 RMK AO2 SLP978 T00111011 58021=
202303041446 SPECI KCLM 041446Z AUTO 00000KT 10SM BKN014 OVC095 01/M01 A2946 RMK AO2 T00061011=
202303041353 METAR KCLM 041353Z AUTO 00000KT 10SM BKN110 01/M01 A2948 RMK AO2 SLP986 T00061011=
202303041253 METAR KCLM 041253Z AUTO 23006KT 10SM OVC100 01/M01 A2951 RMK AO2 SLP994 T00061011=
202303041153 METAR KCLM 041153Z AUTO 00000KT 10SM CLR 00/M02 A2952 RMK AO2 SLP999 T00001017 10033 21011 58026=
202303041053 METAR KCLM 041053Z AUTO 00000KT 10SM CLR M01/M02 A2955 RMK AO2 SLP009 T10061022=
202303040953 METAR KCLM 040953Z AUTO 00000KT 10SM FEW065 BKN090 01/M01 A2958 RMK AO2 SLP018 T00111011=
202303040853 METAR KCLM 040853Z AUTO 00000KT 10SM SCT110 01/M01 A2960 RMK AO2 SLP025 T00111011 58019=
202303040753 METAR KCLM 040753Z AUTO 25005KT 10SM FEW065 BKN110 02/M01 A2962 RMK AO2 SLP031 T00221006 400780017=
202303040653 METAR KCLM 040653Z AUTO 22004KT 10SM BKN080 OVC095 02/M01 A2965 RMK AO2 SLP041 T00221006=
202303040553 METAR KCLM 040553Z AUTO 22004KT 10SM FEW120 02/M01 A2966 RMK AO2 SLP044 T00171011 10072 20017 56021=
202303040453 METAR KCLM 040453Z AUTO 22004KT 10SM FEW075 03/M01 A2968 RMK AO2 SLP053 T00281006=
202303040353 METAR KCLM 040353Z AUTO 26006KT 10SM SCT060 02/M01 A2969 RMK AO2 SLP057 T00221006=
202303040253 METAR KCLM 040253Z AUTO 22004KT 10SM CLR 03/00 A2972 RMK AO2 SLP066 T00330000 56029=
202303040153 METAR KCLM 040153Z AUTO 00000KT 10SM SCT120 05/01 A2974 RMK AO2 SLP074 T00500011=
202303040053 METAR KCLM 040053Z AUTO 00000KT 10SM FEW050 07/02 A2977 RMK AO2 SLP083 T00670017=
202303032353 METAR KCLM 032353Z AUTO 07003KT 10SM SCT048 OVC065 07/01 A2980 RMK AO2 SLP094 T00720011 10078 20056 56026=
202303032253 METAR KCLM 032253Z AUTO 00000KT 10SM BKN040 OVC048 07/M01 A2983 RMK AO2 SLP103 T00721011=
202303032153 METAR KCLM 032153Z AUTO 12004KT 10SM SCT047 OVC075 07/M01 A2985 RMK AO2 SLP111 T00721011=
202303032053 METAR KCLM 032053Z AUTO 03004KT 10SM FEW046 OVC070 07/M01 A2988 RMK AO2 SLP121 T00721011 58020=
202303031953 METAR KCLM 031953Z AUTO VRB04KT 10SM BKN075 OVC090 07/M02 A2991 RMK AO2 SLP129 T00671017=
202303031853 METAR KCLM 031853Z AUTO 03003KT 10SM FEW110 07/M02 A2992 RMK AO2 SLP134 T00671017=
202303031753 METAR KCLM 031753Z AUTO 00000KT 10SM OVC080 06/M01 A2994 RMK AO2 SLP141 60000 T00561006 10056 20022 58005=
202303031653 METAR KCLM 031653Z AUTO 25005KT 10SM OVC065 04/M01 A2996 RMK AO2 SLP147 T00391006=
202303031553 METAR KCLM 031553Z AUTO 26004KT 10SM BKN070 03/M01 A2995 RMK AO2 SLP146 T00281006=
202303031453 METAR KCLM 031453Z AUTO 26010KT 10SM BKN065 OVC090 03/M01 A2996 RMK AO2 SLP147 60000 T00281011 58008=
202303031353 METAR KCLM 031353Z AUTO 26009KT 10SM FEW028 BKN060 OVC075 03/M01 A2997 RMK AO2 RAB28E41 SLP151 P0000 T00281011=
202303031253 METAR KCLM 031253Z AUTO 26008KT 10SM BKN060 03/M02 A2997 RMK AO2 SLP151 T00281017=
202303031153 METAR KCLM 031153Z AUTO 23008KT 10SM BKN050 BKN090 03/M02 A2998 RMK AO2 SLP155 70007 T00281017 10033 20022 56007=
202303031053 METAR KCLM 031053Z AUTO 28010KT 10SM OVC070 03/M02 A2999 RMK AO2 SLP157 T00281017=
202303030953 METAR KCLM 030953Z AUTO 27009KT 10SM CLR 02/M02 A2999 RMK AO2 SLP157 T00221017=
202303030853 METAR KCLM 030853Z AUTO 26010KT 10SM FEW050 BKN075 OVC090 03/M01 A3000 RMK AO2 SLP161 T00281011 55002=
202303030753 METAR KCLM 030753Z AUTO 26008KT 10SM FEW050 BKN090 OVC100 03/M02 A3000 RMK AO2 SLP159 T00331017 401000017=
202303030653 METAR KCLM 030653Z AUTO 26007KT 10SM SCT060 02/M01 A3000 RMK AO2 SLP159 T00221011=
202303030553 METAR KCLM 030553Z AUTO 27009KT 10SM BKN038 OVC075 03/M01 A3001 RMK AO2 SLP163 60002 T00281011 10044 20017 53001=
202303030453 METAR KCLM 030453Z AUTO 28007KT 10SM FEW048 SCT060 BKN075 02/M01 A3000 RMK AO2 RAB08E17 SLP161 P0000 T00221011=
202303030353 METAR KCLM 030353Z AUTO 24009KT 10SM FEW060 03/M01 A2999 RMK AO2 RAB0256E08SNE0256 SLP158 P0000 T00281011=
202303030313 SPECI KCLM 030313Z AUTO 22008KT 10SM SCT030 SCT055 03/00 A3000 RMK AO2 RAB0256E08SNE0256 P0000 T00280000=
202303030253 METAR KCLM 030253Z AUTO 25008G17KT 7SM -SN BKN025 OVC075 02/M01 A3000 RMK AO2 PK WND 28028/0238 RAE0159B32E41SNB41 SLP162 P0002 60002 T00221006 53014=
202303030243 SPECI KCLM 030243Z AUTO 29014G28KT 5SM -SN BKN019 BKN027 BKN110 03/M01 A3001 RMK AO2 PK WND 28028/0238 RAE0159B32E41SNB41 P0001 T00281006=
202303030153 METAR KCLM 030153Z AUTO 25013G19KT 10SM -RA SCT040 SCT055 04/M01 A2998 RMK AO2 RAB48 SLP154 P0000 T00441011=
202303030053 METAR KCLM 030053Z AUTO 25009KT 10SM FEW021 SCT038 SCT050 04/01 A2997 RMK AO2 RAE07B21E35 SLP149 P0000 T00440011=
202303030008 SPECI KCLM 030008Z AUTO 22006KT 10SM SCT028 BKN035 OVC055 04/01 A2996 RMK AO2 RAE07 P0000 T00440011=
202303022353 METAR KCLM 022353Z AUTO 24008KT 4SM RA BKN024 BKN035 OVC050 04/01 A2996 RMK AO2 RAE01B26 SLP147 P0001 60003 T00390006 10100 20039 51014=
202303022310 SPECI KCLM 022310Z AUTO 25006KT 10SM SCT017 BKN095 OVC120 05/02 A2994 RMK AO2 RAE01 P0000 T00500017=
202303022253 METAR KCLM 022253Z AUTO 23010KT 5SM -RA BKN021 OVC060 04/01 A2994 RMK AO2 PK WND 26030/2228 RAB30 SLP139 P0002 T00390006=
202303022249 SPECI KCLM 022249Z AUTO 24012G24KT 4SM -RA BKN021 BKN046 OVC060 04/01 A2994 RMK AO2 PK WND 26030/2228 RAB30 P0002=
202303022153 METAR KCLM 022153Z AUTO 27016G26KT 10SM CLR 09/M04 A2992 RMK AO2 PK WND 30028/2113 SLP133 T00941044=
202303022053 METAR KCLM 022053Z AUTO 26012G20KT 10SM FEW048 10/M02 A2993 RMK AO2 PK WND 25030/1959 SLP136 T01001022 51014=
202303021953 METAR KCLM 021953Z AUTO 28014G28KT 10SM CLR 09/M02 A2993 RMK AO2 PK WND 27031/1917 SLP135 T00941022=
202303021853 METAR KCLM 021853Z AUTO 27016G28KT 10SM SCT042 08/00 A2991 RMK AO2 PK WND 26028/1849 SLP129 T00830000=
202303021753 METAR KCLM 021753Z AUTO 27014G23KT 10SM FEW075 FEW095 07/00 A2989 RMK AO2 PK WND 28027/1725 SLP122 60002 T00720000 10072 20039 53022=
202303021653 METAR KCLM 021653Z AUTO 27010G19KT 10SM FEW048 OVC090 06/02 A2987 RMK AO2 RAB05E26 SLP115 P0000 T00610017=
202303021553 METAR KCLM 021553Z AUTO 26007G17KT 10SM BKN047 BKN055 OVC110 06/02 A2984 RMK AO2 RAB1459E45 SLP106 P0001 T00610017=
202303021453 METAR KCLM 021453Z AUTO 00000KT 10SM OVC040 04/02 A2982 RMK AO2 RAE1359B19E28 SLP099 P0000 60001 T00390022 53013=
202303021353 METAR KCLM 021353Z AUTO 22003KT 10SM -RA SCT007 BKN032 OVC039 04/02 A2981 RMK AO2 SLP096 P0001 T00390022=
202303021346 SPECI KCLM 021346Z AUTO 00000KT 10SM -RA SCT007 BKN021 OVC035 04/03 A2981 RMK AO2 P0001 T00390028=
202303021335 SPECI KCLM 021335Z AUTO 00000KT 8SM -RA BKN005 BKN012 OVC021 04/03 A2981 RMK AO2 P0001 T00440028=
202303021318 SPECI KCLM 021318Z AUTO 34005KT 10SM -RA BKN004 OVC048 04/03 A2981 RMK AO2 P0000 T00440028=
202303021309 SPECI KCLM 021309Z AUTO 32007G15KT 10SM -RA SCT006 OVC050 04/02 A2981 RMK AO2 PRESRR P0000 T00440022=
202303021253 METAR KCLM 021253Z AUTO 00000KT 10SM -RA BKN055 OVC065 04/02 A2979 RMK AO2 SLP088 P0000 T00390017=
202303021153 METAR KCLM 021153Z AUTO 35005KT 10SM -RA FEW041 BKN080 OVC090 04/01 A2978 RMK AO2 SLP086 P0000 60000 T00390011 10039 20028 58033=
202303021053 METAR KCLM 021053Z AUTO 00000KT 10SM -RA BKN050 OVC070 04/01 A2982 RMK AO2 RAB48 SLP100 P0000 T00390006=
202303020953 METAR KCLM 020953Z AUTO 00000KT 10SM BKN090 BKN110 04/01 A2986 RMK AO2 SLP112 T00390006=
202303020853 METAR KCLM 020853Z AUTO 15004KT 10SM OVC070 03/00 A2988 RMK AO2 SLP119 60000 T00330000 58044=
202303020753 METAR KCLM 020753Z AUTO 13003KT 10SM OVC070 03/01 A2993 RMK AO2 RAB0658E35 PRESFR SLP135 P0000 T00280006 400720000=
202303020653 METAR KCLM 020653Z AUTO 00000KT 10SM FEW011 BKN060 OVC075 03/00 A2999 RMK AO2 SLP157 T00280000=
202303020553 METAR KCLM 020553Z AUTO 00000KT 10SM OVC070 03/00 A3001 RMK AO2 SLP164 60000 T00280000 10067 20028 56025=
202303020453 METAR KCLM 020453Z AUTO 00000KT 10SM BKN065 OVC100 03/01 A3003 RMK AO2 SLP171 T00330006 TSNO=
202303020353 METAR KCLM 020353Z AUTO 00000KT 10SM BKN033 OVC070 04/01 A3006 RMK AO2 RAB20E43 SLP181 P0000 T00390006=
202303020253 METAR KCLM 020253Z AUTO 11003KT 10SM SCT029 BKN037 OVC085 05/00 A3008 RMK AO2 RAB12E51 SLP189 P0000 60000 T00500000 55004=
202303020153 METAR KCLM 020153Z AUTO 08005KT 10SM FEW047 BKN060 OVC070 06/M01 A3008 RMK AO2 SLP188 T00611011=
202303020053 METAR KCLM 020053Z AUTO 11003KT 10SM SCT060 SCT075 OVC100 07/M01 A3008 RMK AO2 SLP189 T00671006=
202303012353 METAR KCLM 012353Z AUTO 11005KT 10SM FEW040 BKN048 OVC080 07/M01 A3009 RMK AO2 SLP193 T00671006 10072 20033 50001=
202303012253 METAR KCLM 012253Z AUTO 00000KT 10SM FEW080 OVC100 06/M01 A3011 RMK AO2 SLP197 T00611006=
202303012153 METAR KCLM 012153Z AUTO 00000KT 10SM FEW060 BKN080 OVC110 06/M02 A3009 RMK AO2 SLP192 T00611017=
202303012053 METAR KCLM 012053Z AUTO VRB04KT 10SM BKN090 07/M02 A3009 RMK AO2 SLP192 T00671017 51018=
202303011953 METAR KCLM 011953Z AUTO VRB04KT 10SM SCT100 07/M02 A3008 RMK AO2 SLP188 T00671017=
202303011853 METAR KCLM 011853Z AUTO 00000KT 10SM FEW110 06/M02 A3005 RMK AO2 SLP178 T00611022=
202303011753 METAR KCLM 011753Z AUTO 26006KT 10SM BKN110 03/M04 A3004 RMK AO2 SLP175 T00331044 10033 20000 50011=
202303011653 METAR KCLM 011653Z AUTO 24006KT 10SM BKN120 02/M05 A3004 RMK AO2 SLP175 T00221050=
202303011553 METAR KCLM 011553Z AUTO 24009KT 10SM CLR 01/M05 A3002 RMK AO2 SLP168 T00061050=
202303011453 METAR KCLM 011453Z AUTO 24009KT 10SM CLR 00/M06 A3001 RMK AO2 SLP164 T00001056 51017=
202303011353 METAR KCLM 011353Z AUTO 23008KT 10SM CLR 00/M06 A3000 RMK AO2 SLP162 T00001056=
202303011253 METAR KCLM 011253Z AUTO 24010KT 10SM CLR 00/M05 A2998 RMK AO2 SLP154 T00001050=
202303011153 METAR KCLM 011153Z AUTO 24009KT 10SM CLR 00/M05 A2995 RMK AO2 SLP146 70005 T00001050 10017 20000 51027=
202303011053 METAR KCLM 011053Z AUTO 24011KT 10SM CLR 00/M05 A2992 RMK AO2 SLP134 T00001050=
202303010953 METAR KCLM 010953Z AUTO 25011KT 10SM CLR 01/M05 A2992 RMK AO2 SLP133 T00061050=
202303010853 METAR KCLM 010853Z AUTO 24007KT 10SM CLR 00/M04 A2987 RMK AO2 SLP119 T00001044 51020=
202303010753 METAR KCLM 010753Z AUTO 24008KT 10SM CLR 01/M03 A2987 RMK AO2 SLP116 T00061033 400720006=
202303010653 METAR KCLM 010653Z AUTO 25008KT 10SM CLR 02/M03 A2986 RMK AO2 SLP113 T00171033=
202303010553 METAR KCLM 010553Z AUTO 24007KT 10SM CLR 01/M02 A2981 RMK AO2 SLP098 T00061022 10067 20006 53025=
202303010453 METAR KCLM 010453Z AUTO 23005KT 10SM FEW028 01/M01 A2978 RMK AO2 SLP088 T00111011=
202303010444 SPECI KCLM 010444Z AUTO 23006KT 10SM SCT028 01/M01 A2978 RMK AO2 T00061011=
202303010415 SPECI KCLM 010415Z AUTO 23005KT 10SM BKN028 01/M01 A2977 RMK AO2 T00111011=
202303010353 METAR KCLM 010353Z AUTO 23005KT 10SM SCT027 BKN035 01/M02 A2976 RMK AO2 SLP080 T00061017=
202303010253 METAR KCLM 010253Z AUTO 23005KT 10SM CLR 01/M02 A2974 RMK AO2 SLP073 T00061017 51030=
202303010153 METAR KCLM 010153Z AUTO 24004KT 10SM CLR 04/00 A2971 RMK AO2 SLP063 T00390000=
202303010131 SPECI KCLM 010131Z AUTO 29003KT 10SM BKN030 05/M01 A2970 RMK AO2 T00501011=
202303010105 SPECI KCLM 010105Z AUTO 00000KT 10SM BKN029 06/M02 A2968 RMK AO2 T00561017=
202303010053 METAR KCLM 010053Z AUTO 34003KT 10SM SCT029 06/M02 A2968 RMK AO2 SLP052 T00561017=
202303010032 SPECI KCLM 010032Z AUTO VRB04KT 10SM SCT027 BKN035 06/M01 A2967 RMK AO2 T00611011=

# No short TAF reports from KCLM in databse.

###################################
#  large TAF from KCLM
###################################
202303312346 TAF KCLM 312346Z 0100/0124 28010KT P6SM VCSH BKN050 FM010200 28005KT
                       P6SM -RA OVC035 FM010600 26010KT P6SM -SHRA
                       OVC040 FM011800 31010KT P6SM BKN100=
202303311737 TAF KCLM 311737Z 3118/0118 30005KT P6SM VCSH OVC025 FM312200 02005KT
                       6SM -RA OVC025 FM010000 28010KT P6SM -RA
                       OVC020 FM010500 26010KT P6SM OVC050=
202303311136 TAF KCLM 311136Z 3112/0112 24004KT P6SM SCT030 BKN040 FM311800
                       30005KT P6SM -RA OVC025 FM010000 28010KT
                       P6SM -RA OVC020 FM010500 26010KT P6SM OVC050=
202303310531 TAF KCLM 310531Z 3106/0106 32005KT P6SM OVC028 FM310900 23005KT
                       P6SM SCT025 OVC035 FM311800 02005KT 5SM
                       -RA BR OVC025=
202303310305 KCLM 310305Z 3103/3124 32005KT P6SM OVC028 FM310900 23005KT P6SM
                       SCT025 OVC035 FM311800 02005KT 5SM -RA BR
                       OVC025=
202303302331 TAF KCLM 302331Z 3100/3124 29009KT P6SM OVC035 FM310900 23005KT
                       P6SM SCT025 OVC035 FM311800 02005KT 5SM
                       -RA BR OVC025=
202303301721 TAF KCLM 301721Z 3018/3118 29008KT P6SM SCT250 FM302300 29009KT
                       P6SM BKN050 FM310900 23005KT P6SM SCT025
                       OVC050=
202303301139 TAF KCLM 301139Z 3012/3112 28012KT P6SM BKN080 FM301900 30008KT
                       P6SM BKN050 FM302300 31009KT P6SM OVC050=
202303300525 TAF KCLM 300525Z 3006/3106 24007KT P6SM BKN120 BKN200 FM301200
                       25005KT P6SM SCT200 FM301900 02007KT P6SM
                       BKN050 FM302300 31009KT P6SM OVC050=
202303292323 TAF KCLM 292323Z 3000/3024 26006KT P6SM BKN200 FM300400 24007KT
                       P6SM BKN120 BKN200 FM301200 25005KT P6SM
                       SCT200 FM301900 02007KT P6SM BKN050=
202303291720 TAF KCLM 291720Z 2918/3018 26005KT P6SM FEW100 FM300000 26006KT
                       P6SM SCT120 BKN200 FM300400 28007KT P6SM
                       BKN120 BKN200 FM301100 25005KT P6SM SCT200=
202303291120 TAF KCLM 291120Z 2912/3012 VRB04KT P6SM FEW110 FM291800 VRB04KT
                       P6SM SCT200 FM300000 26006KT P6SM SCT200=
202303290521 TAF KCLM 290521Z 2906/3006 23005KT P6SM SCT200 FM291800 VRB04KT
                       P6SM SCT200=
202303282320 TAF KCLM 282320Z 2900/2924 VRB05KT P6SM SCT120 BKN200 FM290400
                       23005KT P6SM SCT200 FM291800 VRB04KT P6SM
                       SCT200=
202303281723 TAF KCLM 281723Z 2818/2918 09010G16KT P6SM SCT120 BKN200 FM290200
                       23005KT P6SM SCT200=
202303281120 TAF KCLM 281120Z 2812/2912 VRB05KT P6SM FEW120 FM281700 09010KT
                       P6SM SCT120 FM290200 22005KT P6SM SCT200=
202303280521 TAF KCLM 280521Z 2806/2906 VRB05KT P6SM SCT200 FM281000 VRB05KT
                       P6SM BKN200 FM281700 09010KT P6SM SCT200
                       FM290200 22005KT P6SM SCT250=
202303272338 TAF KCLM 272338Z 2800/2824 07008KT P6SM SCT200 FM280500 VRB05KT
                       P6SM SCT200 FM281000 25005KT P6SM BKN200
                       FM281800 09010KT P6SM SCT200=
202303271740 TAF KCLM 271740Z 2718/2818 09008KT P6SM SCT022 SCT200 FM280500
                       VRB05KT P6SM SCT200 FM281000 25005KT P6SM
                       SCT200=
202303271149 TAF KCLM 271149Z 2712/2812 22004KT P6SM SCT040 FM271800 09008KT
                       P6SM SCT250 FM280500 11007KT P6SM BKN230=
202303270549 TAF KCLM 270549Z 2706/2806 VRB03KT P6SM BKN050 FM271100 VRB03KT
                       P6SM SCT050 FM272000 09008KT P6SM SCT250=
202303262320 TAF KCLM 262320Z 2700/2724 VRB04KT P6SM SCT070 FM270600 22003KT
                       P6SM SCT070 SCT250 FM271600 07008KT P6SM
                       SCT250=
202303261720 TAF KCLM 261720Z 2618/2718 05005KT P6SM BKN050 FM270000 VRB04KT
                       P6SM BKN040 FM270600 VRB03KT P6SM SCT250=
202303261136 TAF KCLM 261136Z 2612/2712 VRB03KT P6SM OVC035 FM261800 07005KT
                       P6SM BKN040 FM270000 VRB04KT P6SM BKN040=
202303260538 TAF KCLM 260538Z 2606/2706 VRB03KT P6SM SCT040=
202303252338 TAF KCLM 252338Z 2600/2624 25006KT P6SM VCSH BKN035 OVC050 FM260400
                       25006KT P6SM SCT035 BKN050=
202303251737 TAF KCLM 251737Z 2518/2618 28007KT P6SM VCSH SCT060 FM260200 26005KT
                       P6SM VCSH SCT020 BKN040 FM260500 25006KT
                       P6SM BKN040 OVC050=
202303251148 TAF KCLM 251148Z 2512/2612 24012KT P6SM BKN070 FM251800 28007KT
                       P6SM VCSH BKN050 FM252300 31008KT P6SM BKN040
                       FM260200 26005KT P6SM BKN040=
202303250535 TAF KCLM 250535Z 2506/2606 27010KT P6SM VCSH BKN060 FM252000 31006KT
                       P6SM BKN040=
202303242336 TAF KCLM 242336Z 2500/2524 27012G18KT P6SM VCSH SCT025 BKN040 FM250400
                       27011KT P6SM VCSH BKN035 FM250800 25008KT
                       P6SM BKN035 FM251800 31007KT P6SM BKN040=
202303241720 TAF KCLM 241720Z 2418/2518 26011KT P6SM VCSH SCT025 BKN045 OVC070
                       FM242000 27012G18KT P6SM VCSH SCT025 BKN040
                       FM250100 27013G21KT P6SM VCSH BKN040 FM250800
                       27010KT P6SM BKN035=
202303241141 TAF KCLM 241141Z 2412/2512 27006KT P6SM VCSH SCT025 BKN050 BKN100
                       FM241400 27008KT P6SM -SHRA SCT025 BKN045
                       OVC070 FM242000 27015G25KT P6SM SCT025 BKN050
                       FM250300 27012KT P6SM VCSH OVC050=
202303240538 TAF KCLM 240538Z 2406/2506 24006KT P6SM SCT025 BKN100
                      TEMPO 2406/2410 -SHRA BKN025 BKN100 FM241400
                       27008KT P6SM SCT025 BKN045 OVC070 FM242000
                       27015G25KT P6SM SCT025 BKN040=
202303232320 TAF KCLM 232320Z 2400/2424 29010G18KT P6SM VCSH BKN040 FM240600
                       26008KT P6SM VCSH OVC035 FM241800 27014G22KT
                       P6SM -SHRA BKN027 BKN040=
202303232220 KCLM 232220Z 2322/2418 29010G18KT P6SM VCSH BKN035 FM240200 27012G20KT
                       P6SM -SHRA OVC035 FM240800 26012KT P6SM
                       VCSH OVC035 FM241600 27014G22KT P6SM -SHRA
                       BKN027 BKN040=
202303231736 TAF KCLM 231736Z 2318/2418 24003KT P6SM -RA OVC015 FM232300 29010G18KT
                       P6SM -RA OVC025 FM240200 27012G20KT P6SM
                       -SHRA OVC035 FM240800 26012KT P6SM VCSH
                       OVC035 FM241600 27014G22KT P6SM -SHRA BKN027
                       BKN040=
202303231140 TAF KCLM 231140Z 2312/2412 28008KT P6SM OVC020 FM231700 24003KT
                       P6SM -RA OVC015 FM232300 29010G18KT P6SM
                       -RA OVC025 FM240200 27012G20KT P6SM -RA
                       OVC035 FM240800 26012KT P6SM OVC050=
202303230539 TAF KCLM 230539Z 2306/2406 27009KT P6SM OVC050 FM231200 26005KT
                       P6SM OVC050 FM231900 29004KT P6SM -RA OVC025=
202303222334 TAF KCLM 222334Z 2300/2324 30006KT P6SM BKN250 FM230600 27009KT
                       P6SM OVC050 FM231200 26005KT P6SM OVC050
                       FM232100 29004KT P6SM -RA OVC015=
202303221731 TAF KCLM 221731Z 2218/2318 04004KT P6SM SCT030 FM230000 30006KT
                       P6SM BKN250 FM230600 27009KT P6SM OVC050
                       FM231200 26005KT P6SM OVC050=
202303221126 TAF KCLM 221126Z 2212/2312 23006KT P6SM SCT150 FM221800 04004KT
                       P6SM SCT150 FM230000 30006KT P6SM BKN250
                       FM230600 27009KT P6SM OVC050=
202303220523 TAF KCLM 220523Z 2206/2306 25006KT P6SM SCT150 FM221800 04004KT
                       P6SM SCT150 FM230000 31008KT P6SM BKN250=
202303212336 TAF KCLM 212336Z 2200/2224 25004KT P6SM SCT040 FM220100 29007KT
                       P6SM SCT150=
202303211735 TAF KCLM 211735Z 2118/2218 25004KT P6SM SCT040 FM220100 29007KT
                       P6SM SCT150=
202303211137 TAF KCLM 211137Z 2112/2212 24003KT 4SM -RA BR SCT007 OVC025 FM211300
                       26004KT 4SM -RA BR SCT007 OVC030 FM212100
                       35004KT P6SM OVC050 FM220100 29007KT P6SM
                       BKN250=
202303210529 TAF KCLM 210529Z 2106/2206 29004KT P6SM VCSH SCT030 OVC045 FM210900
                       VRB03KT 4SM BR SCT007 OVC015 FM212100 35004KT
                       P6SM OVC050 FM220100 29007KT P6SM BKN250=
202303202323 TAF KCLM 202323Z 2100/2124 29004KT P6SM VCSH SCT030 OVC045 FM210900
                       VRB03KT 4SM BR SCT007 OVC015 FM211900 36004KT
                       P6SM OVC050=
202303201740 TAF KCLM 201740Z 2018/2118 VRB04KT P6SM VCSH SCT015 OVC030 FM210200
                       25004KT P6SM VCSH OVC030 FM210900 VRB03KT
                       4SM BR SCT007 OVC015=
202303201131 TAF KCLM 201131Z 2012/2112 VRB03KT P6SM VCSH SCT009 OVC025
                      TEMPO 2012/2016 -RA BKN009 FM201700 VRB04KT
                       P6SM VCSH OVC025 FM210200 25004KT P6SM VCSH
                       OVC030 FM210900 VRB03KT 4SM BR SCT007 OVC015=
202303200520 TAF KCLM 200520Z 2006/2106 28006KT P6SM OVC070 FM200700 25005KT
                       P6SM -RA OVC040 FM201000 24003KT P6SM -RA
                       OVC020 FM201700 04004KT P6SM VCSH OVC020
                       FM202200 31004KT P6SM -RA OVC025=
202303192324 TAF KCLM 192324Z 2000/2024 09006KT P6SM OVC100 FM200500 26004KT
                       P6SM -RA OVC040 FM201000 VRB04KT P6SM -RA
                       OVC025 FM201700 05004KT P6SM OVC025=
202303191735 TAF KCLM 191735Z 1918/2018 12006KT P6SM OVC100 FM191900 05005KT
                       P6SM OVC100 FM200000 28005KT P6SM BKN060
                       OVC100 FM200500 26004KT P6SM -RA OVC040
                       FM201000 VRB04KT P6SM -RA OVC025 FM201700
                       05004KT P6SM OVC025=
202303191125 TAF KCLM 191125Z 1912/2012 VRB04KT P6SM BKN100 OVC250 FM191900
                       05005KT P6SM OVC100 FM200000 28005KT P6SM
                       BKN060 OVC100 FM200500 26004KT P6SM -RA
                       OVC040 FM201000 VRB04KT P6SM -RA OVC025=
202303190520 TAF KCLM 190520Z 1906/2006 VRB04KT P6SM SCT250 FM191200 VRB04KT
                       P6SM BKN100 OVC250 FM192100 05005KT P6SM
                       OVC100 FM200300 23003KT P6SM -RA OVC040=
202303182320 TAF KCLM 182320Z 1900/1924 03003KT P6SM FEW250 FM190300 24004KT
                       P6SM SCT250 FM191200 VRB04KT P6SM BKN100
                       OVC250 FM192100 05005KT P6SM OVC100=
202303181727 TAF KCLM 181727Z 1818/1918 VRB03KT P6SM SKC FM190300 24004KT P6SM
                       BKN250=
202303181120 TAF KCLM 181120Z 1812/1912 22004KT P6SM SKC FM181800 06004KT P6SM
                       SKC FM190300 VRB03KT P6SM BKN250=
202303180520 TAF KCLM 180520Z 1806/1906 25004KT P6SM BKN120 OVC250 FM181200
                       24004KT P6SM OVC100 FM181800 07004KT P6SM
                       SCT250 FM190300 VRB03KT P6SM BKN250=
202303172320 TAF KCLM 172320Z 1800/1824 VRB04KT P6SM BKN250 FM180300 25004KT
                       P6SM BKN120 OVC250 FM181200 24004KT P6SM
                       OVC100 FM181800 07004KT P6SM SCT250=
202303171720 TAF KCLM 171720Z 1718/1818 08004KT P6SM SCT250 FM171900 08005KT
                       P6SM BKN250 FM180300 25003KT P6SM BKN120
                       OVC250=
202303171120 TAF KCLM 171120Z 1712/1812 VRB04KT P6SM SKC FM171900 08005KT P6SM
                       BKN200 FM180200 23003KT P6SM BKN120 OVC250=
202303170530 TAF KCLM 170530Z 1706/1806 VRB04KT P6SM SKC FM171600 09005KT P6SM
                       BKN200 FM172000 04005KT P6SM BKN200 FM180000
                       VRB03KT P6SM OVC250=
202303162321 TAF KCLM 162321Z 1700/1724 09008KT P6SM SCT200 FM170500 23005KT
                       P6SM SCT200 FM171800 08005KT P6SM BKN200=
202303162112 KCLM 162112Z 1621/1718 09010KT P6SM SCT200 FM170400 23005KT P6SM
                       SCT200=
202303161720 TAF KCLM 161720Z 1618/1718 09005KT P6SM FEW015 SCT200
                      TEMPO 1618/1619 BKN015 FM170400 23005KT P6SM
                       SCT200=
202303161515 KCLM 161515Z 1615/1712 24005KT P6SM SCT015 SCT250
                      TEMPO 1615/1618 BKN013 FM161800 06007KT P6SM
                       BKN250 FM170400 23005KT P6SM SCT250=
202303161120 TAF KCLM 161120Z 1612/1712 24005KT P6SM SCT030 SCT250 FM161800
                       06007KT P6SM BKN250 FM170400 23005KT P6SM
                       SCT250=
202303160521 TAF KCLM 160521Z 1606/1706 27004KT P6SM OVC070 FM161000 VRB04KT
                       P6SM BKN250 FM161700 21004KT P6SM BKN250
                       FM162200 06007KT P6SM BKN250=
202303152320 TAF KCLM 152320Z 1600/1624 29011G18KT P6SM FEW250 FM160300 25006KT
                       P6SM SCT070 SCT250 FM161000 VRB04KT P6SM
                       BKN250 FM161700 17004KT P6SM SKC=
202303151745 TAF KCLM 151745Z 1518/1618 26006KT P6SM VCSH SKC FM152000 34008KT
                       P6SM FEW070 FM160400 26006KT P6SM SCT070
                       SCT250 FM160800 VRB04KT P6SM BKN250=
202303151125 TAF KCLM 151125Z 1512/1612 29006KT P6SM VCSH FEW060 SCT100 FM152000
                       34008KT P6SM SCT070 FM160400 28006KT P6SM
                       SCT070 SCT250=
202303150538 TAF KCLM 150538Z 1506/1606 29006KT P6SM SCT050 BKN100 FM150800
                       25008KT P6SM -SHRA BKN040 BKN100 FM151200
                       26012KT P6SM BKN100 FM151800 31010KT P6SM
                       BKN100 FM152000 34010KT P6SM SCT250=
202303142330 TAF KCLM 142330Z 1500/1524 VRB02KT P6SM BKN100 FM150200 28004KT
                       P6SM SCT070 FM150700 25008KT P6SM -SHRA
                       BKN040 BKN100 FM151200 26012KT P6SM BKN100
                       FM151900 31010KT P6SM BKN100=
202303141743 TAF KCLM 141743Z 1418/1518 VRB02KT P6SM BKN100 FM150200 28004KT
                       P6SM SCT070 FM150700 25008KT P6SM -SHRA
                       BKN040 BKN100 FM151200 26012KT P6SM BKN100=
202303141125 TAF KCLM 141125Z 1412/1512 22004KT P6SM VCSH SCT025 BKN080 FM141700
                       05004KT P6SM BKN070 FM150200 28004KT P6SM
                       SCT070 FM150700 25008KT P6SM -RA BKN040
                       BKN100=
202303140544 TAF KCLM 140544Z 1406/1506 26009KT P6SM SCT050 BKN110 FM141200
                       24004KT P6SM BKN060 FM141900 02004KT P6SM
                       BKN070 FM150200 28003KT P6SM SCT250=
202303132327 TAF KCLM 132327Z 1400/1424 28009KT P6SM VCSH SCT040 BKN070 FM140600
                       24006KT P6SM VCSH BKN070 FM141200 24004KT
                       P6SM OVC050 FM142100 15008KT P6SM SCT250=
202303131723 TAF KCLM 131723Z 1318/1418 28009KT P6SM VCSH SCT040 BKN070 FM140600
                       24006KT P6SM VCSH BKN070 FM141200 24004KT
                       P6SM OVC050=
202303131124 TAF KCLM 131124Z 1312/1412 25006KT 6SM -RA BR BKN015 OVC040 FM131800
                       28009KT P6SM VCSH SCT040 BKN070 FM140600
                       24006KT P6SM VCSH BKN070=
202303130524 TAF KCLM 130524Z 1306/1406 VRB03KT 6SM -RA BR OVC015 FM131300 27007KT
                       6SM -SHRA BR OVC022 FM132100 28009KT P6SM
                       VCSH BKN035 OVC050=
202303122330 TAF KCLM 122330Z 1300/1324 21004KT 6SM -RA BKN030 BKN100 FM130400
                       25006KT 6SM -RA OVC030 FM131200 26004KT
                       6SM -SHRA BR OVC050=
202303121731 TAF KCLM 121731Z 1218/1318 22004KT P6SM SCT060 BKN100 FM122000
                       07003KT 6SM -RA OVC050 FM122300 10002KT
                       6SM -RA OVC030 FM130400 25006KT 6SM BR VCSH
                       OVC030 FM131200 26004KT 6SM -SHRA BR OVC050=
202303121122 TAF KCLM 121122Z 1212/1312 22004KT P6SM SCT060 FM122100 07003KT
                       6SM -RA OVC050 FM130400 25006KT 6SM BR VCSH
                       OVC030=
202303120522 TAF KCLM 120522Z 1206/1306 VRB02KT P6SM BKN050 BKN100 FM122200
                       07003KT 6SM -RA OVC050=
202303112339 TAF KCLM 112339Z 1200/1224 VRB02KT P6SM VCSH SCT030 BKN060 FM120400
                       VRB02KT P6SM BKN050 BKN100 FM122200 07003KT
                       6SM -RA OVC050=
202303111733 TAF KCLM 111733Z 1118/1218 VRB02KT P6SM VCSH SCT030 BKN050 FM120400
                       23004KT P6SM BKN050 BKN100 FM120800 22003KT
                       P6SM OVC050=
202303111121 TAF KCLM 111121Z 1112/1212 23005KT P6SM VCSH FEW050 OVC100 FM111400
                       24003KT P6SM VCSH OVC020 FM112000 VRB03KT
                       P6SM SCT015 BKN050 FM120400 23004KT P6SM
                       BKN050 BKN100 FM120800 22003KT P6SM OVC050=
202303110526 TAF KCLM 110526Z 1106/1206 VRB03KT P6SM VCSH SCT015 BKN035 OVC080
                       TEMPO 1106/1110 -SHRA BKN015 OVC035 FM111000
                       23005KT P6SM VCSH OVC015 FM112000 VRB03KT
                       P6SM SCT015 BKN050 FM120400 23004KT P6SM
                       BKN050 BKN100=
202303110423 KCLM 110423Z 1104/1124 VRB03KT P6SM VCSH SCT015 BKN035 OVC080
                      TEMPO 1104/1108 BKN015 OVC035 FM110800 23005KT
                       P6SM OVC015 FM111800 VRB03KT P6SM SCT015
                       BKN060=
202303102321 TAF KCLM 102321Z 1100/1124 VRB03KT P6SM VCSH SCT015 BKN035 OVC080
                       TEMPO 1100/1104 BKN015 OVC035 FM110400 23005KT
                       P6SM BKN020 OVC035 FM110800 23005KT P6SM
                       OVC010 FM111800 VRB03KT P6SM SCT015 BKN060=
202303101721 TAF KCLM 101721Z 1018/1118 25004KT P6SM SCT015 OVC030
                      TEMPO 1018/1021 -SHRA OVC015 FM102200 VRB04KT
                       P6SM VCSH SCT025 BKN040 FM110200 23005KT
                       P6SM SCT025 BKN050=
202303101410 KCLM 101410Z 1014/1112 21003KT P6SM -RA BKN020 OVC035
                      TEMPO 1014/1017 5SM -RA BR OVC015 FM102200
                       VRB04KT P6SM VCSH SCT025 BKN040 FM110200
                       23005KT P6SM SCT025 BKN050=
202303101120 TAF KCLM 101120Z 1012/1112 12005KT P6SM -RA BKN035 OVC050 FM101300
                       21003KT P6SM -RA OVC020
                      TEMPO 1013/1017 2SM -RA BR BKN007 OVC015
                       FM102300 VRB04KT P6SM VCSH SCT025 BKN040
                       FM110200 23005KT P6SM SCT025 BKN050=
202303100520 TAF KCLM 100520Z 1006/1106 09012G22KT P6SM BKN120 OVC200 FM100900
                       21005KT P6SM BKN050 OVC090 FM101200 21003KT
                       P6SM -RA BKN035 OVC050 FM101400 21003KT
                       P6SM -RA OVC020 FM102000 VRB04KT P6SM VCSH
                       BKN025 BKN040=
202303092327 TAF KCLM 092327Z 1000/1024 09014G24KT P6SM BKN120 OVC200 FM100900
                       21005KT P6SM BKN050 OVC090 FM101200 21003KT
                       P6SM -RA BKN035 OVC050 FM101400 21003KT
                       P6SM -RA OVC015 FM102000 VRB04KT P6SM BKN025
                       BKN040=
202303091722 TAF KCLM 091722Z 0918/1018 10005KT P6SM BKN100 BKN200 FM100900
                       21005KT P6SM BKN050 OVC090 FM101200 21003KT
                       P6SM -RA BKN035 OVC050 FM101400 21003KT
                       P6SM -RA OVC020=
202303091123 TAF KCLM 091123Z 0912/1012 12005KT P6SM SCT100 SCT150 FM091600
                       10008KT P6SM BKN150 FM100900 21005KT P6SM
                       BKN050 OVC090=
202303090542 TAF KCLM 090542Z 0906/1006 VRB03KT P6SM SCT150 FM091500 07005KT
                       P6SM BKN080 BKN150 FM091800 10008KT P6SM
                       BKN100 FM092100 09012KT P6SM BKN100=
202303082320 TAF KCLM 082320Z 0900/0924 34005KT P6SM FEW035 BKN060 BKN100 FM090400
                       VRB03KT P6SM SCT060 BKN150 FM091500 07005KT
                       P6SM BKN080 BKN150=
202303081724 TAF KCLM 081724Z 0818/0918 25003KT P6SM SCT015 BKN100
                      TEMPO 0818/0819 OVC015 FM082000 07005KT P6SM
                       BKN070 BKN100 FM090200 22004KT P6SM BKN070=
202303081120 TAF KCLM 081120Z 0812/0912 23004KT P6SM SCT100 FM081900 07005KT
                       P6SM BKN070 BKN100 FM090200 22004KT P6SM
                       BKN070=
202303080520 TAF KCLM 080520Z 0806/0906 VRB04KT P6SM BKN040 BKN100
                      TEMPO 0806/0810 -RA SCT010 OVC030 FM081900
                       08005KT P6SM BKN060 BKN100 FM090200 22004KT
                       P6SM OVC060=
202303072320 TAF KCLM 072320Z 0800/0824 35005KT P6SM SCT050 BKN100 FM080300
                       23004KT P6SM BKN060 BKN100 FM081900 08005KT
                       P6SM BKN060 BKN100=
202303071733 TAF KCLM 071733Z 0718/0818 25005KT P6SM FEW020 SCT100 BKN200 FM072100
                       07005KT P6SM BKN080 BKN150 FM080300 23004KT
                       P6SM BKN080 BKN150=
202303071120 TAF KCLM 071120Z 0712/0812 23004KT P6SM SCT050 BKN100 FM071900
                       07006KT P6SM BKN060 BKN100 FM072300 27006KT
                       P6SM BKN070=
202303070523 TAF KCLM 070523Z 0706/0806 23005KT P6SM VCSH SCT070 BKN100 FM071000
                       23004KT P6SM SCT020 SCT050 BKN100 FM071900
                       07006KT P6SM BKN070 BKN100=
202303062322 TAF KCLM 062322Z 0700/0724 VRB03KT P6SM SCT070 BKN250 FM070700
                       23004KT P6SM SCT050 BKN100=
202303061725 TAF KCLM 061725Z 0618/0718 24004KT P6SM SCT060 BKN200 FM062100
                       07008KT P6SM SCT060 BKN200 FM070700 23004KT
                       P6SM SCT050 BKN100=
202303061127 TAF KCLM 061127Z 0612/0712 25008KT P6SM BKN050 BKN100 FM061600
                       22004KT P6SM BKN100 FM062100 06008KT P6SM
                       OVC050 FM070700 20004KT P6SM OVC100=
202303060530 TAF KCLM 060530Z 0606/0706 06006KT P6SM VCSH BKN025 BKN080 FM060800
                       24003KT P6SM VCSH BKN015 OVC030 FM061600
                       22004KT P6SM BKN030 OVC050 FM062100 06008KT
                       P6SM SCT050 BKN100=
202303052331 TAF KCLM 052331Z 0600/0624 06006KT P6SM VCSH BKN040 BKN080
                      TEMPO 0604/0608 -SHRA OVC040 FM060800 24003KT
                       P6SM VCSH BKN015 OVC030 FM061600 22004KT
                       P6SM BKN030 OVC050 FM062100 06008KT P6SM
                       SCT050 BKN100=
202303051724 TAF KCLM 051724Z 0518/0618 06006KT P6SM OVC080 FM060600 24003KT
                       P6SM VCSH OVC050 FM061100 22004KT P6SM BKN030
                       OVC050=
202303051129 TAF KCLM 051129Z 0512/0612 24007KT P6SM SCT020 OVC025 FM051400
                       23003KT P6SM SCT030 BKN080 FM052000 06006KT
                       P6SM BKN040 FM060400 24003KT P6SM OVC050=
202303050536 TAF KCLM 050536Z 0506/0606 11008KT P6SM VCSH SCT080 FM050800 24004KT
                       P6SM SCT030 BKN080 FM052000 06006KT P6SM
                       BKN040=
202303042328 TAF KCLM 042328Z 0500/0524 11008KT P6SM VCSH SCT080 FM050800 24004KT
                       P6SM SCT030 BKN080 FM052000 06006KT P6SM
                       BKN040=
202303041728 TAF KCLM 041728Z 0418/0518 10004KT P6SM VCSH FEW015 OVC100 FM042200
                       VRB03KT P6SM VCSH OVC100 FM050900 24004KT
                       P6SM VCSH SCT030 BKN080=
202303041125 TAF KCLM 041125Z 0412/0512 VRB04KT P6SM BKN050 OVC100 FM041800
                       10004KT P6SM VCSH BKN050 OVC070 FM050200
                       VRB03KT P6SM -SHRA OVC035 FM050900 24004KT
                       P6SM VCSH OVC027=
202303040521 TAF KCLM 040521Z 0406/0506 22004KT P6SM VCSH BKN035 OVC050 FM040800
                       23005KT P6SM -SHRASN BKN025 OVC035 FM041500
                       11011KT P6SM -SHRA BKN050 OVC070 FM042100
                       15003KT P6SM OVC050=
202303040453 KCLM 040453Z 0405/0424 VRB04KT P6SM -SHRA SCT015 OVC045 FM040600
                       12005KT P6SM VCSH BKN035 OVC050 FM041500
                       11011KT P6SM BKN050 OVC070=
202303032323 TAF KCLM 032323Z 0400/0424 VRB04KT P6SM -SHRA SCT015 OVC025
                      TEMPO 0400/0402 BKN035 FM040600 12005KT P6SM
                       VCSH BKN035 OVC050 FM041500 11011KT P6SM
                       BKN050 OVC070=
202303031727 TAF KCLM 031727Z 0318/0418 28008KT P6SM SCT040 OVC060 FM031900
                       33005KT P6SM VCSH SCT030 OVC040 FM032300
                       VRB04KT P6SM -SHRA SCT015 OVC020 FM041100
                       12007KT P6SM VCSH SCT030 OVC050=
202303031128 TAF KCLM 031128Z 0312/0412 28008KT P6SM SCT040 SCT060 FM031900
                       30007KT P6SM VCSH SCT030 OVC040 FM032300
                       VRB04KT P6SM -SHRA OVC025=
202303030526 TAF KCLM 030526Z 0306/0406 28008KT P6SM SCT040 SCT060 FM031900
                       VRB05KT P6SM VCSH SCT030 OVC040 FM032200
                       VRB04KT P6SM -SHRA OVC025=
202303022320 TAF KCLM 022320Z 0300/0324 24014G19KT P6SM VCSH SCT020 OVC060
                      TEMPO 0300/0303 5SM -SHRA BR BKN020 FM030400
                       25011KT P6SM VCSH BKN060 OVC080 FM031900
                       VRB05KT P6SM VCSH SCT030 OVC040=
202303021732 TAF KCLM 021732Z 0218/0318 27014G28KT P6SM VCSH BKN050 FM030400
                       26013G20KT P6SM -SHRA OVC060=
202303021129 TAF KCLM 021129Z 0212/0312 23007KT P6SM -RA SCT025 OVC050 FM021800
                       27018G28KT P6SM VCSH BKN050 FM030400 27013G20KT
                       P6SM VCSH BKN060=
202303020526 TAF KCLM 020526Z 0206/0306 VRB03KT P6SM VCSH OVC070 FM021200 23007KT
                       P6SM -RA SCT025 OVC050 FM021800 27018G29KT
                       P6SM VCSH BKN050 FM030400 27013KT P6SM VCSH
                       BKN060=
202303012324 TAF KCLM 012324Z 0200/0224 VRB03KT P6SM OVC060 FM020500 VRB03KT
                       6SM -RA BR SCT010 OVC020 FM021500 26012G23KT
                       P6SM -RA SCT025 OVC050 FM021800 27018G29KT
                       P6SM VCSH BKN050=
202303011734 TAF KCLM 011734Z 0118/0218 24008KT P6SM BKN110 FM011900 29005KT
                       P6SM OVC090 FM012200 33006KT P6SM OVC060
                       FM020500 25003KT 6SM -RA BR SCT010 OVC025
                       FM021500 26012G23KT P6SM -RA SCT025 OVC050=
202303011131 TAF KCLM 011131Z 0112/0212 24010KT P6SM SCT030 OVC200 FM011900
                       24005KT P6SM OVC120 FM012200 VRB03KT P6SM
                       OVC060 FM020500 VRB03KT P6SM -RA OVC035
                       FM021000 24006KT P6SM -RA OVC020=
202303010528 TAF KCLM 010528Z 0106/0206 23005KT P6SM SCT030 FM012100 VRB03KT
                       P6SM OVC050=