##########################################################
# Query made at 02/16/2025 05:44:42 UTC
# Time interval: from 01/01/2023 00:00  to 01/31/2023 23:59  UTC
##########################################################

##########################################################
# KCLM, Port Angeles, William R. Fairchild International Airport (United States)
# WMO index: -----. WIGOS ID: Unknown
# Latitude 48-07-20N. Longitude 123-30-19W. Altitude 87 m.
##########################################################

###################################
#  METAR/SPECI from KCLM
###################################
202301312353 METAR KCLM 312353Z AUTO 00000KT 10SM BKN042 OVC110 05/M01 A3019 RMK AO2 SLP228 6//// T00501011 10061 20033 56010 $=
202301312253 METAR KCLM 312253Z AUTO VRB03KT 10SM SCT042 BKN110 06/M01 A3020 RMK AO2 SLP228 T00561006 $=
202301312153 METAR KCLM 312153Z AUTO 00000KT FEW043 06/M01 A3022 RMK AO2 SLP235 T00561006=
202301312053 METAR KCLM 312053Z AUTO VRB03KT CLR 06/M01 A3023 RMK AO2 SLP238 6//// T00561006 58004 PWINO $=
202301311953 METAR KCLM 311953Z AUTO 23004KT 05/00 A3024 RMK AO2 SLP242 T00500000 PWINO $=
202301311853 METAR KCLM 311853Z AUTO 25005KT CLR 04/00 A3025 RMK AO2 SLP247 T00440000 $=
202301311753 METAR KCLM 311753Z AUTO 28005KT CLR 03/M01 A3024 RMK AO2 SLP243 60000 T00331011 10033 20011 55005 $=
202301311653 METAR KCLM 311653Z AUTO 21003KT 10SM BKN110 02/M02 A3023 RMK AO2 SLP240 T00221017=
202301311553 METAR KCLM 311553Z AUTO 00000KT 10SM OVC085 03/M02 A3024 RMK AO2 SLP242 T00281022=
202301311453 METAR KCLM 311453Z AUTO 13003KT 10SM BKN055 OVC070 02/M01 A3025 RMK AO2 RAB1355E21UPB04E20 SLP247 P0000 60000 T00171011 58013=
202301311353 METAR KCLM 311353Z AUTO 00000KT 10SM OVC036 02/M02 A3027 RMK AO2 SLP253 T00171022=
202301311253 METAR KCLM 311253Z AUTO 23005KT 10SM BKN070 OVC080 02/M03 A3028 RMK AO2 SLP258 T00171028=
202301311153 METAR KCLM 311153Z AUTO 22005KT 10SM BKN065 OVC090 01/M03 A3029 RMK AO2 SLP261 T00111028 10017 20000 55003=
202301311053 METAR KCLM 311053Z AUTO 24003KT 10SM SCT070 BKN110 00/M03 A3029 RMK AO2 SLP260 T00001033=
202301310953 METAR KCLM 310953Z AUTO 22003KT 10SM BKN070 01/M03 A3030 RMK AO2 SLP264 T00111033=
202301310853 METAR KCLM 310853Z AUTO 00000KT 10SM OVC075 01/M03 A3030 RMK AO2 SLP264 T00111028 58009=
202301310753 METAR KCLM 310753Z AUTO 22004KT 10SM BKN080 OVC110 02/M04 A3032 RMK AO2 SLP270 T00171039 400441056=
202301310653 METAR KCLM 310653Z AUTO 00000KT 10SM OVC100 01/M03 A3032 RMK AO2 SLP271 T00111033=
202301310553 METAR KCLM 310553Z AUTO 00000KT 10SM BKN050 OVC070 02/M03 A3033 RMK AO2 SLP273 T00171033 10033 21006 58006=
202301310453 METAR KCLM 310453Z AUTO 22004KT 10SM OVC090 01/M03 A3034 RMK AO2 SLP278 T00111033=
202301310353 METAR KCLM 310353Z AUTO 00000KT 10SM CLR 01/M04 A3034 RMK AO2 SLP279 T00061039=
202301310253 METAR KCLM 310253Z AUTO 00000KT 10SM CLR 00/M04 A3035 RMK AO2 SLP280 T00001039 58012=
202301310153 METAR KCLM 310153Z AUTO 00000KT 10SM CLR 01/M04 A3037 RMK AO2 SLP287 T00111044=
202301310053 METAR KCLM 310053Z AUTO 11003KT 10SM CLR 02/M05 A3037 RMK AO2 SLP289 T00221050=
202301302353 METAR KCLM 302353Z AUTO 11005KT 10SM CLR 03/M05 A3038 RMK AO2 SLP290 T00331050 10044 20017 57023=
202301302253 METAR KCLM 302253Z AUTO 06003KT 10SM CLR 03/M06 A3041 RMK AO2 SLP299 T00331056=
202301302153 METAR KCLM 302153Z AUTO 10003KT 10SM CLR 03/M05 A3042 RMK AO2 SLP305 T00331050=
202301302053 METAR KCLM 302053Z AUTO VRB03KT 10SM CLR 04/M06 A3045 RMK AO2 SLP313 T00391056 50002=
202301301953 METAR KCLM 301953Z AUTO 01003KT 10SM CLR 04/M07 A3045 RMK AO2 SLP315 T00391067=
202301301853 METAR KCLM 301853Z AUTO 04004KT 10SM CLR 04/M06 A3047 RMK AO2 SLP320 T00391056=
202301301753 METAR KCLM 301753Z AUTO 00000KT 10SM CLR 02/M03 A3044 RMK AO2 SLP311 T00171033 10017 21056 56002=
202301301653 METAR KCLM 301653Z AUTO 23008KT 10SM CLR M01/M07 A3044 RMK AO2 SLP313 T10111067=
202301301553 METAR KCLM 301553Z AUTO 20003KT 10SM CLR M04/M07 A3044 RMK AO2 SLP311 T10441072=
202301301453 METAR KCLM 301453Z AUTO 22003KT 10SM CLR M04/M07 A3045 RMK AO2 SLP314 T10441067 58007=
202301301353 METAR KCLM 301353Z AUTO 22004KT 10SM CLR M04/M07 A3046 RMK AO2 SLP319 T10441072=
202301301253 METAR KCLM 301253Z AUTO 00000KT 10SM CLR M04/M08 A3047 RMK AO2 SLP321 T10391078=
202301301153 METAR KCLM 301153Z AUTO 22003KT 10SM CLR M04/M07 A3047 RMK AO2 SLP320 T10391072 11022 21050 58002=
202301301053 METAR KCLM 301053Z AUTO 23004KT 10SM CLR M03/M08 A3048 RMK AO2 SLP324 T10331078=
202301300953 METAR KCLM 300953Z AUTO 22005KT 10SM CLR M03/M07 A3047 RMK AO2 SLP320 T10331072=
202301300853 METAR KCLM 300853Z AUTO 22005KT 10SM CLR M04/M08 A3047 RMK AO2 SLP322 T10391078 56005=
202301300753 METAR KCLM 300753Z AUTO 21003KT 10SM CLR M03/M08 A3048 RMK AO2 SLP323 T10331078 400501044=
202301300653 METAR KCLM 300653Z AUTO 22003KT 10SM CLR M03/M07 A3048 RMK AO2 SLP324 T10331072=
202301300553 METAR KCLM 300553Z AUTO 21003KT 10SM CLR M03/M07 A3049 RMK AO2 SLP327 T10281072 10039 21033 53006=
202301300453 METAR KCLM 300453Z AUTO 23006KT 10SM CLR M03/M08 A3048 RMK AO2 SLP325 T10281078=
202301300353 METAR KCLM 300353Z AUTO 23003KT 10SM CLR M02/M07 A3047 RMK AO2 SLP322 T10221072=
202301300253 METAR KCLM 300253Z AUTO 00000KT 10SM CLR M02/M07 A3047 RMK AO2 SLP322 T10221067 56008=
202301300153 METAR KCLM 300153Z AUTO 00000KT 10SM CLR M02/M07 A3047 RMK AO2 SLP323 T10221072=
202301300053 METAR KCLM 300053Z AUTO 10004KT 10SM CLR 02/M11 A3048 RMK AO2 SLP325 T00171106=
202301292353 METAR KCLM 292353Z AUTO 08006KT 10SM CLR 03/M10 A3049 RMK AO2 SLP329 T00331100 10050 20033 55017=
202301292253 METAR KCLM 292253Z AUTO VRB04KT 10SM CLR 04/M12 A3048 RMK AO2 SLP326 T00441122=
202301292153 METAR KCLM 292153Z AUTO VRB06KT 10SM CLR 04/M11 A3052 RMK AO2 SLP338 T00441111=
202301292053 METAR KCLM 292053Z AUTO 10SM CLR 04/M11 A3054 RMK AO2 SLP345 T00441106 50001=
202301291953 METAR KCLM 291953Z AUTO 01005KT 10SM CLR 04/M11 A3055 RMK AO2 SLP348 T00441111=
202301291853 METAR KCLM 291853Z AUTO 10007KT 10SM CLR 04/M12 A3056 RMK AO2 SLP349 T00441122=
202301291753 METAR KCLM 291753Z AUTO 10008KT 10SM CLR 03/M12 A3054 RMK AO2 SLP345 T00331117 10033 21033 51007=
202301291653 METAR KCLM 291653Z AUTO 14003KT 10SM CLR 00/M07 A3054 RMK AO2 SLP344 T00001072=
202301291553 METAR KCLM 291553Z AUTO 12005KT 10SM CLR M01/M11 A3054 RMK AO2 SLP343 T10061111=
202301291453 METAR KCLM 291453Z AUTO 12005KT 10SM CLR M02/M10 A3052 RMK AO2 SLP338 T10221100 53012=
202301291353 METAR KCLM 291353Z AUTO 14005KT 10SM CLR M01/M08 A3050 RMK AO2 SLP331 T10061083=
202301291253 METAR KCLM 291253Z AUTO 13008KT 10SM CLR M01/M07 A3050 RMK AO2 SLP331 T10111072=
202301291153 METAR KCLM 291153Z AUTO 18003KT 10SM CLR M02/M06 A3049 RMK AO2 SLP326 T10221061 10033 21033 51015=
202301291053 METAR KCLM 291053Z AUTO 00000KT 10SM CLR 02/M08 A3048 RMK AO2 SLP323 T00221078=
202301290953 METAR KCLM 290953Z AUTO VRB05KT 10SM CLR 02/M08 A3046 RMK AO2 SLP316 T00221083=
202301290853 METAR KCLM 290853Z AUTO 08006G18KT 10SM FEW050 03/M08 A3044 RMK AO2 SLP310 T00281078 51026=
202301290753 METAR KCLM 290753Z AUTO VRB06G22KT 10SM CLR 03/M08 A3042 RMK AO2 SLP303 T00331078 400830028=
202301290653 METAR KCLM 290653Z AUTO 08009G20KT 010V110 10SM CLR 03/M07 A3040 RMK AO2 PK WND 10028/0603 SLP295 T00331072=
202301290553 METAR KCLM 290553Z AUTO 06007G19KT 040V100 10SM SCT070 03/M07 A3036 RMK AO2 SLP284 T00331072 10072 20033 53029=
202301290453 METAR KCLM 290453Z AUTO 09007G22KT 10SM OVC070 04/M08 A3033 RMK AO2 PK WND 08026/0358 SLP274 T00441078=
202301290353 METAR KCLM 290353Z AUTO 09010G17KT 10SM FEW070 04/M08 A3030 RMK AO2 SLP262 T00441078=
202301290253 METAR KCLM 290253Z AUTO 08011G19KT 10SM CLR 06/M07 A3028 RMK AO2 SLP255 T00561072 53024=
202301290153 METAR KCLM 290153Z AUTO 07010G22KT 10SM FEW080 06/M08 A3025 RMK AO2 SLP245 T00611078=
202301290053 METAR KCLM 290053Z AUTO 08004KT 10SM FEW075 06/M01 A3022 RMK AO2 SLP235 T00611011=
202301282353 METAR KCLM 282353Z AUTO 14004KT 10SM FEW032 07/01 A3021 RMK AO2 SLP230 T00720011 10083 20067 53010=
202301282314 SPECI KCLM 282314Z AUTO 10005KT 10SM SCT026 BKN033 07/01 A3019 RMK AO2 T00720011=
202301282253 METAR KCLM 282253Z AUTO 10005KT 10SM BKN025 BKN035 08/01 A3018 RMK AO2 SLP223 T00780006=
202301282233 SPECI KCLM 282233Z AUTO 15006KT 10SM BKN026 08/01 A3018 RMK AO2 T00780011=
202301282153 METAR KCLM 282153Z AUTO 09006KT 10SM FEW030 SCT036 BKN110 07/01 A3017 RMK AO2 SLP219 T00720006=
202301282053 METAR KCLM 282053Z AUTO 11005KT 10SM FEW016 SCT041 08/03 A3017 RMK AO2 SLP220 T00780028 58002=
202301282005 SPECI KCLM 282005Z AUTO 09006KT 10SM SCT027 SCT033 BKN043 07/03 A3018 RMK AO2 T00720028=
202301281953 METAR KCLM 281953Z AUTO 08005KT 10SM BKN025 BKN043 07/03 A3018 RMK AO2 SLP223 T00720028=
202301281853 METAR KCLM 281853Z AUTO VRB04KT 10SM FEW014 OVC024 07/03 A3020 RMK AO2 SLP228 T00670028=
202301281753 METAR KCLM 281753Z AUTO VRB06KT 10SM FEW011 BKN021 OVC026 07/03 A3018 RMK AO2 SLP222 T00670033 10067 20056 53009=
202301281738 SPECI KCLM 281738Z AUTO 06007KT 10SM SCT013 OVC020 07/03 A3018 RMK AO2 T00670033=
202301281653 METAR KCLM 281653Z AUTO VRB05KT 10SM BKN010 OVC016 07/03 A3017 RMK AO2 SLP218 T00670033=
202301281623 SPECI KCLM 281623Z AUTO VRB04KT 10SM BKN011 OVC015 07/03 A3016 RMK AO2 T00670033=
202301281602 SPECI KCLM 281602Z AUTO 06005KT 10SM OVC009 07/03 A3016 RMK AO2 T00670033=
202301281553 METAR KCLM 281553Z AUTO VRB05KT 10SM BKN010 OVC030 06/03 A3016 RMK AO2 SLP214 T00610033=
202301281548 SPECI KCLM 281548Z AUTO 09006KT 10SM BKN010 BKN014 OVC030 06/04 A3016 RMK AO2=
202301281539 SPECI KCLM 281539Z AUTO VRB04KT 10SM SCT012 OVC030 06/04 A3015 RMK AO2 T00610039=
202301281453 METAR KCLM 281453Z AUTO 11003KT 10SM SCT014 OVC028 06/04 A3014 RMK AO2 SLP210 T00610039 55009=
202301281418 SPECI KCLM 281418Z AUTO 10003KT 10SM BKN028 OVC033 06/04 A3014 RMK AO2 T00610039=
202301281353 METAR KCLM 281353Z AUTO 11003KT 10SM SCT028 OVC033 06/04 A3014 RMK AO2 SLP208 T00560039=
202301281253 METAR KCLM 281253Z AUTO 12004KT 10SM SCT012 OVC033 06/04 A3016 RMK AO2 SLP217 T00610044=
202301281221 SPECI KCLM 281221Z AUTO 14003KT 10SM BKN013 BKN024 OVC029 06/04 A3017 RMK AO2 T00610044=
202301281201 SPECI KCLM 281201Z AUTO 17003KT 10SM SCT011 BKN023 OVC027 06/04 A3017 RMK AO2 T00610044=
202301281153 METAR KCLM 281153Z AUTO 00000KT 10SM SCT011 BKN014 OVC027 07/04 A3017 RMK AO2 RAB1055E51 SLP219 P0000 60000 70002 T00670044 10078 20067 50003=
202301281053 METAR KCLM 281053Z AUTO VRB04KT 10SM BKN014 OVC023 07/04 A3019 RMK AO2 SLP223 T00720039=
202301280953 METAR KCLM 280953Z AUTO 00000KT 10SM FEW023 OVC029 07/05 A3016 RMK AO2 SLP213 T00720050=
202301280853 METAR KCLM 280853Z AUTO 00000KT 10SM BKN027 OVC032 07/05 A3016 RMK AO2 SLP215 T00720050 56009=
202301280812 SPECI KCLM 280812Z AUTO 00000KT 10SM SCT005 OVC032 07/05 A3016 RMK AO2 T00720050=
202301280753 METAR KCLM 280753Z AUTO 15003KT 10SM OVC005 07/05 A3017 RMK AO2 SLP217 T00720050 401000050=
202301280739 SPECI KCLM 280739Z AUTO 00000KT 10SM BKN005 OVC023 07/06 A3017 RMK AO2 T00720056=
202301280729 SPECI KCLM 280729Z AUTO 00000KT 10SM SCT005 OVC023 07/06 A3018 RMK AO2 T00720056=
202301280653 METAR KCLM 280653Z AUTO 04003KT 10SM OVC022 07/05 A3018 RMK AO2 SLP222 T00720050=
202301280553 METAR KCLM 280553Z AUTO 00000KT 10SM BKN024 OVC043 07/05 A3019 RMK AO2 SLP225 T00720050 10083 20072 55001=
202301280525 SPECI KCLM 280525Z AUTO 00000KT 10SM BKN022 OVC041 07/05 A3019 RMK AO2 T00720050=
202301280510 SPECI KCLM 280510Z AUTO 00000KT 10SM FEW022 SCT029 OVC041 07/05 A3019 RMK AO2 T00720050=
202301280453 METAR KCLM 280453Z AUTO 00000KT 10SM BKN028 OVC035 07/05 A3019 RMK AO2 SLP224 T00720050=
202301280353 METAR KCLM 280353Z AUTO 16007KT 10SM FEW016 OVC026 08/05 A3018 RMK AO2 SLP223 T00780050=
202301280253 METAR KCLM 280253Z AUTO 09004KT 10SM OVC015 08/05 A3019 RMK AO2 SLP226 T00780050 58007=
202301280153 METAR KCLM 280153Z AUTO 09004KT 10SM OVC016 08/05 A3020 RMK AO2 SLP227 T00780050=
202301280105 SPECI KCLM 280105Z AUTO 09004KT 10SM OVC018 08/04 A3021 RMK AO2 T00830044=
202301280053 METAR KCLM 280053Z AUTO 10004KT 10SM BKN014 OVC022 08/04 A3021 RMK AO2 SLP232 T00830044=
202301272353 METAR KCLM 272353Z AUTO 09006KT 10SM OVC016 08/04 A3021 RMK AO2 SLP232 T00830044 10100 20083 55009=
202301272306 SPECI KCLM 272306Z AUTO 08007KT 10SM BKN018 08/05 A3021 RMK AO2 T00830050=
202301272253 METAR KCLM 272253Z AUTO 08009KT 10SM FEW018 09/05 A3021 RMK AO2 SLP230 T00890050=
202301272153 METAR KCLM 272153Z AUTO 09008G16KT 10SM CLR 09/06 A3022 RMK AO2 SLP233 T00940056=
202301272053 METAR KCLM 272053Z AUTO 09010KT 10SM CLR 09/05 A3024 RMK AO2 SLP241 T00890050 58009=
202301271953 METAR KCLM 271953Z AUTO 11010KT 10SM CLR 09/06 A3024 RMK AO2 SLP242 T00940056=
202301271853 METAR KCLM 271853Z AUTO 11011KT 10SM CLR 09/06 A3026 RMK AO2 SLP249 T00890061=
202301271753 METAR KCLM 271753Z AUTO 12007KT 10SM SCT020 08/06 A3027 RMK AO2 RAB00E24 SLP250 P0001 60002 T00830061 10089 20050 52005=
202301271741 SPECI KCLM 271741Z AUTO 13006KT 7SM OVC018 08/06 A3027 RMK AO2 RAB00E24 P0001 T00780056=
202301271732 SPECI KCLM 271732Z AUTO 14007KT 4SM BR BKN014 OVC022 08/06 A3027 RMK AO2 RAB00E24 P0001 T00780061=
202301271723 SPECI KCLM 271723Z AUTO 13007KT 2SM -RA BR FEW004 FEW009 OVC015 08/06 A3027 RMK AO2 RAB00 P0001 T00780061=
202301271717 SPECI KCLM 271717Z AUTO 12006KT 1 1/2SM -RA BR FEW004 OVC013 07/06 A3027 RMK AO2 RAB00 P0001 T00720061=
202301271705 SPECI KCLM 271705Z AUTO 10007KT 1 3/4SM -RA BR BKN009 OVC013 07/06 A3027 RMK AO2 RAB00 P0000 T00720056=
202301271653 METAR KCLM 271653Z AUTO 15003KT 4SM BR BKN009 OVC015 08/07 A3026 RMK AO2 RAB19E33 SLP249 P0001 T00780067=
202301271644 SPECI KCLM 271644Z AUTO 16003KT 2 1/2SM BR BKN009 OVC015 08/06 A3026 RMK AO2 RAB19E33 P0001 T00780061=
202301271632 SPECI KCLM 271632Z AUTO 15003KT 1 1/2SM -RA BR SCT003 OVC010 08/06 A3026 RMK AO2 RAB19 P0001 T00780061=
202301271612 SPECI KCLM 271612Z AUTO 00000KT 1 3/4SM BR OVC003 07/06 A3026 RMK AO2 T00720056=
202301271553 METAR KCLM 271553Z AUTO 00000KT 10SM OVC003 07/06 A3025 RMK AO2 SLP247 T00720056=
202301271521 SPECI KCLM 271521Z AUTO 00000KT 10SM BKN004 06/05 A3024 RMK AO2 T00610050=
202301271512 SPECI KCLM 271512Z AUTO 11004KT 9SM SCT004 06/04 A3023 RMK AO2 T00560044=
202301271453 METAR KCLM 271453Z AUTO 00000KT 5SM BR CLR 06/04 A3022 RMK AO2 RAE1355 SLP234 P0000 60000 T00610044 58004=
202301271404 SPECI KCLM 271404Z AUTO 23003KT 10SM FEW005 BKN045 OVC055 08/06 A3023 RMK AO2 RAE1355 P0000 T00780061=
202301271353 METAR KCLM 271353Z AUTO 24004KT 10SM -RA FEW050 OVC060 08/06 A3024 RMK AO2 RAB44 SLP241 P0000 T00780061=
202301271253 METAR KCLM 271253Z AUTO 32006KT 10SM BKN055 08/06 A3023 RMK AO2 SLP238 T00830061=
202301271153 METAR KCLM 271153Z AUTO 28011G20KT 10SM SCT009 BKN046 OVC065 09/07 A3023 RMK AO2 SLP238 60002 70005 T00890067 10100 20083 56002=
202301271140 SPECI KCLM 271140Z AUTO 30007KT 9SM BKN009 BKN028 OVC037 09/07 A3023 RMK AO2 T00890067=
202301271127 SPECI KCLM 271127Z AUTO 29011G18KT 8SM FEW008 BKN030 OVC039 09/07 A3024 RMK AO2 T00890067=
202301271053 METAR KCLM 271053Z AUTO 30011G21KT 10SM FEW029 OVC037 10/06 A3024 RMK AO2 SLP240 T01000061=
202301270953 METAR KCLM 270953Z AUTO 29009KT 10SM BKN042 OVC060 09/06 A3023 RMK AO2 RAE33 SLP237 P0001 T00940061=
202301270853 METAR KCLM 270853Z AUTO 28012G20KT 10SM -RA OVC047 10/06 A3024 RMK AO2 RAE15B47 SLP240 P0001 60001 T01000056 58043=
202301270753 METAR KCLM 270753Z AUTO 26010KT 10SM -RA FEW036 OVC049 09/06 A3029 RMK AO2 RAB37 SLP257 P0000 T00940056 401000006=
202301270653 METAR KCLM 270653Z AUTO 24009G19KT 10SM SCT041 BKN050 OVC090 09/06 A3033 RMK AO2 RAE24 SLP271 P0000 T00940056=
202301270553 METAR KCLM 270553Z AUTO 29005KT 10SM -RA OVC055 08/06 A3037 RMK AO2 RAB04 SLP285 P0003 60003 T00830061 10089 20067 58033=
202301270453 METAR KCLM 270453Z AUTO 33004KT 10SM OVC041 08/06 A3040 RMK AO2 SLP298 T00780056=
202301270353 METAR KCLM 270353Z AUTO 10003KT 9SM OVC043 07/06 A3043 RMK AO2 SLP305 T00720056=
202301270333 SPECI KCLM 270333Z AUTO 19003KT 6SM BR SCT007 OVC044 07/06 A3045 RMK AO2 T00720056=
202301270259 SPECI KCLM 270259Z AUTO 00000KT 3SM BR FEW002 BKN008 OVC034 07/06 A3046 RMK AO2 T00720061=
202301270253 METAR KCLM 270253Z AUTO 00000KT 1 1/4SM BR FEW002 SCT008 OVC034 07/06 A3046 RMK AO2 SLP318 T00720061 56025=
202301270245 SPECI KCLM 270245Z AUTO 00000KT 1/2SM FG FEW002 OVC036 07/06 A3046 RMK AO2 T00720061=
202301270226 SPECI KCLM 270226Z AUTO 00000KT 1/2SM FG SCT002 BKN027 OVC039 07/06 A3047 RMK AO2 T00720061=
202301270214 SPECI KCLM 270214Z AUTO 00000KT 3/4SM BR BKN002 OVC010 07/06 A3047 RMK AO2 T00720061=
202301270204 SPECI KCLM 270204Z AUTO 00000KT 1 1/4SM BR OVC002 07/06 A3048 RMK AO2 T00720061=
202301270153 METAR KCLM 270153Z AUTO 00000KT 2 1/2SM BR OVC002 07/06 A3048 RMK AO2 VIS 1 3/4V4 SLP324 T00720061=
202301270053 METAR KCLM 270053Z AUTO 32003KT 1 1/2SM BR OVC002 08/06 A3051 RMK AO2 VIS 1V2 1/2 SLP333 T00780061=
202301270051 SPECI KCLM 270051Z AUTO 00000KT 1 3/4SM BR OVC002 08/06 A3051 RMK AO2 VIS 1V5=
202301262353 METAR KCLM 262353Z AUTO 31005KT 10SM OVC004 08/06 A3054 RMK AO2 SLP343 T00780061 10089 20078 56014=
202301262351 SPECI KCLM 262351Z AUTO VRB06KT 10SM OVC004 08/06 A3054 RMK AO2=
202301262327 SPECI KCLM 262327Z AUTO 30006KT 10SM BKN005 OVC037 08/06 A3054 RMK AO2 T00830056=
202301262253 METAR KCLM 262253Z AUTO 00000KT 10SM FEW007 OVC035 09/06 A3055 RMK AO2 SLP347 T00890061=
202301262244 SPECI KCLM 262244Z AUTO 29003KT 10SM SCT007 OVC035 08/06 A3055 RMK AO2 T00830056=
202301262210 SPECI KCLM 262210Z AUTO 31006KT 10SM BKN009 OVC032 08/06 A3058 RMK AO2 T00830056=
202301262153 METAR KCLM 262153Z AUTO VRB04KT 10SM BKN010 OVC014 09/06 A3058 RMK AO2 SLP358 T00890056=
202301262138 SPECI KCLM 262138Z AUTO 36004KT 10SM OVC013 08/05 A3058 RMK AO2 T00780050=
202301262120 SPECI KCLM 262120Z AUTO 00000KT 10SM SCT007 BKN015 09/06 A3058 RMK AO2 T00890056=
202301262053 METAR KCLM 262053Z AUTO VRB03KT 10SM BKN008 OVC013 08/06 A3058 RMK AO2 CIG 007V012 SLP357 T00830056 58023=
202301261953 METAR KCLM 261953Z AUTO 01003KT 10SM OVC014 08/04 A3061 RMK AO2 SLP367 T00830044=
202301261935 SPECI KCLM 261935Z AUTO VRB04KT 10SM OVC014 08/04 A3062 RMK AO2 T00830039=
202301261909 SPECI KCLM 261909Z AUTO 35003KT 10SM OVC015 08/04 A3064 RMK AO2 T00780039=
202301261853 METAR KCLM 261853Z AUTO 00000KT 10SM OVC014 08/03 A3064 RMK AO2 SLP378 T00830033=
202301261814 SPECI KCLM 261814Z AUTO 28003KT 10SM OVC015 07/03 A3065 RMK AO2 T00720033=
202301261753 METAR KCLM 261753Z AUTO 23003KT 10SM BKN014 07/03 A3065 RMK AO2 SLP381 T00670033 10067 20044 58007=
202301261733 SPECI KCLM 261733Z AUTO 25003KT 10SM BKN015 07/03 A3065 RMK AO2 T00670033=
202301261653 METAR KCLM 261653Z AUTO 24003KT 10SM OVC013 06/03 A3067 RMK AO2 SLP387 T00610033=
202301261630 SPECI KCLM 261630Z AUTO 25005KT 10SM OVC014 06/03 A3068 RMK AO2 T00610028=
202301261553 METAR KCLM 261553Z AUTO 23006KT 10SM OVC015 06/03 A3067 RMK AO2 SLP387 T00560028=
202301261453 METAR KCLM 261453Z AUTO 24006KT 10SM OVC017 06/03 A3067 RMK AO2 SLP387 T00560028 50000=
202301261353 METAR KCLM 261353Z AUTO 17003KT 10SM OVC017 05/03 A3068 RMK AO2 SLP391 T00500028=
202301261253 METAR KCLM 261253Z AUTO 00000KT 10SM OVC018 05/03 A3067 RMK AO2 SLP389 T00500028=
202301261153 METAR KCLM 261153Z AUTO 23005KT 10SM OVC017 04/03 A3067 RMK AO2 SLP387 T00440028 10044 20006 58009=
202301261053 METAR KCLM 261053Z AUTO 00000KT 10SM OVC018 03/02 A3068 RMK AO2 SLP392 T00330017=
202301260953 METAR KCLM 260953Z AUTO 22004KT 10SM BKN017 01/00 A3070 RMK AO2 SLP397 T00110000=
202301260949 SPECI KCLM 260949Z AUTO 24004KT 10SM BKN017 01/00 A3069 RMK AO2=
202301260853 METAR KCLM 260853Z AUTO 22005KT 10SM CLR 02/00 A3070 RMK AO2 SLP400 T00170000 56002=
202301260830 SPECI KCLM 260830Z AUTO 00000KT 10SM SCT016 02/01 A3070 RMK AO2 T00220006=
202301260810 SPECI KCLM 260810Z AUTO 00000KT 10SM BKN016 02/00 A3070 RMK AO2 T00170000=
202301260753 METAR KCLM 260753Z AUTO 00000KT 10SM FEW018 02/M01 A3071 RMK AO2 SLP401 T00171006 401000006=
202301260653 METAR KCLM 260653Z AUTO 00000KT 10SM CLR 03/01 A3070 RMK AO2 SLP400 T00280006=
202301260553 METAR KCLM 260553Z AUTO 00000KT 10SM CLR 03/01 A3071 RMK AO2 SLP402 T00330011 10078 20017 58006=
202301260453 METAR KCLM 260453Z AUTO 13004KT 10SM FEW022 04/03 A3072 RMK AO2 SLP404 T00440028=
202301260445 SPECI KCLM 260445Z AUTO 00000KT 10SM FEW022 04/02 A3072 RMK AO2 T00440022=
202301260353 METAR KCLM 260353Z AUTO 00000KT 10SM OVC023 07/04 A3073 RMK AO2 SLP408 T00670039=
202301260253 METAR KCLM 260253Z AUTO 00000KT 10SM OVC023 07/04 A3073 RMK AO2 SLP408 T00670039 53004=
202301260153 METAR KCLM 260153Z AUTO 15003KT 10SM OVC025 07/04 A3073 RMK AO2 SLP409 T00670039=
202301260112 SPECI KCLM 260112Z AUTO 13003KT 10SM BKN022 06/04 A3072 RMK AO2 T00560039=
202301260053 METAR KCLM 260053Z AUTO 00000KT 10SM CLR 07/04 A3071 RMK AO2 SLP402 T00720044=
202301252353 METAR KCLM 252353Z AUTO 11003KT 10SM CLR 08/04 A3072 RMK AO2 SLP404 T00780044 10100 20078 56011=
202301252253 METAR KCLM 252253Z AUTO 08003KT 10SM CLR 08/04 A3072 RMK AO2 SLP405 T00780044=
202301252215 SPECI KCLM 252215Z AUTO 09005KT 10SM SCT024 08/04 A3071 RMK AO2 T00830039=
202301252153 METAR KCLM 252153Z AUTO 09005KT 10SM BKN024 09/03 A3072 RMK AO2 SLP403 T00940033=
202301252053 METAR KCLM 252053Z AUTO VRB05KT 10SM OVC025 09/05 A3075 RMK AO2 SLP414 T00890050 56004=
202301251953 METAR KCLM 251953Z AUTO 12003KT 10SM BKN022 09/03 A3075 RMK AO2 SLP414 T00940028=
202301251853 METAR KCLM 251853Z AUTO 10SM OVC021 10/03 A3075 RMK AO2 SLP413 T01000033=
202301251753 METAR KCLM 251753Z AUTO 10004KT 10SM OVC021 08/03 A3076 RMK AO2 SLP418 T00830033 10083 20061 53013=
202301251653 METAR KCLM 251653Z AUTO 14004KT 10SM OVC021 08/05 A3073 RMK AO2 SLP410 T00780050=
202301251553 METAR KCLM 251553Z AUTO 20004KT 10SM OVC019 06/04 A3073 RMK AO2 SLP410 T00610039=
202301251453 METAR KCLM 251453Z AUTO 00000KT 10SM OVC016 07/04 A3072 RMK AO2 SLP406 T00670044 51013=
202301251404 SPECI KCLM 251404Z AUTO 00000KT 10SM OVC016 07/04 A3071 RMK AO2 T00670044=
202301251353 METAR KCLM 251353Z AUTO 20003KT 10SM OVC014 07/05 A3071 RMK AO2 SLP402 T00670050=
202301251333 SPECI KCLM 251333Z AUTO 00000KT 6SM BR FEW003 OVC013 07/06 A3071 RMK AO2 T00720056=
202301251253 METAR KCLM 251253Z AUTO 00000KT 4SM BR OVC002 07/06 A3070 RMK AO2 SLP399 T00720056=
202301251233 SPECI KCLM 251233Z AUTO 00000KT 5SM BR BKN003 OVC010 07/06 A3070 RMK AO2 T00720056=
202301251224 SPECI KCLM 251224Z AUTO 00000KT 6SM BR SCT004 OVC010 07/06 A3069 RMK AO2 T00720061=
202301251153 METAR KCLM 251153Z AUTO 00000KT 8SM OVC010 07/06 A3069 RMK AO2 SLP392 T00720056 10083 20072 50006=
202301251143 SPECI KCLM 251143Z AUTO 16003KT 6SM BR OVC010 07/06 A3069 RMK AO2 CIG 008V013 T00720056=
202301251053 METAR KCLM 251053Z AUTO 00000KT 7SM OVC006 08/06 A3069 RMK AO2 CIG 002V009 SLP394 T00780056=
202301251049 SPECI KCLM 251049Z AUTO 09003KT 8SM OVC006 08/06 A3069 RMK AO2 CIG 002V009=
202301250953 METAR KCLM 250953Z AUTO 00000KT 6SM BR OVC003 08/06 A3067 RMK AO2 CIG 002V006 SLP386 T00780061=
202301250916 SPECI KCLM 250916Z AUTO 00000KT 9SM BKN003 OVC014 08/06 A3067 RMK AO2 T00780056=
202301250903 SPECI KCLM 250903Z AUTO 00000KT 10SM SCT004 OVC016 07/06 A3067 RMK AO2 T00720056=
202301250853 METAR KCLM 250853Z AUTO 00000KT 10SM OVC016 07/05 A3067 RMK AO2 SLP386 T00720050 51008=
202301250753 METAR KCLM 250753Z AUTO 00000KT 10SM OVC017 07/05 A3067 RMK AO2 SLP386 T00720050 401000039=
202301250653 METAR KCLM 250653Z AUTO 33003KT 10SM OVC016 08/05 A3066 RMK AO2 SLP382 T00780050=
202301250553 METAR KCLM 250553Z AUTO 27005KT 10SM OVC017 08/06 A3064 RMK AO2 SLP379 T00780056 10089 20056 53012=
202301250453 METAR KCLM 250453Z AUTO 00000KT 10SM OVC020 07/06 A3063 RMK AO2 SLP374 T00670056=
202301250410 SPECI KCLM 250410Z AUTO 00000KT 10SM SCT006 BKN025 07/05 A3062 RMK AO2 T00670050=
202301250353 METAR KCLM 250353Z AUTO 00000KT 10SM BKN005 OVC025 07/06 A3062 RMK AO2 SLP372 T00720056=
202301250253 METAR KCLM 250253Z AUTO 25003KT 10SM BKN006 07/06 A3061 RMK AO2 SLP368 T00720056 53006=
202301250239 SPECI KCLM 250239Z AUTO VRB04KT 10SM BKN007 BKN024 07/05 A3061 RMK AO2 T00720050=
202301250236 SPECI KCLM 250236Z AUTO VRB03KT 10SM SCT007 SCT024 07/05 A3060 RMK AO2 T00720050=
202301250153 METAR KCLM 250153Z AUTO 31006KT 10SM FEW015 08/05 A3059 RMK AO2 SLP360 T00780050=
202301250053 METAR KCLM 250053Z AUTO 27009KT 10SM FEW010 FEW023 SCT075 08/06 A3059 RMK AO2 SLP361 T00830056=
202301250046 SPECI KCLM 250046Z AUTO 28006KT 10SM FEW010 SCT023 BKN075 08/06 A3059 RMK AO2 T00830056=
202301242353 METAR KCLM 242353Z AUTO 30007KT 10SM SCT016 BKN023 09/06 A3059 RMK AO2 SLP361 T00890061 10100 20078 53003=
202301242253 METAR KCLM 242253Z AUTO 32004KT 10SM BKN016 OVC021 09/06 A3057 RMK AO2 SLP353 T00940061=
202301242233 SPECI KCLM 242233Z AUTO 30009KT 10SM OVC015 09/06 A3057 RMK AO2 T00890061=
202301242153 METAR KCLM 242153Z AUTO 31005KT 10SM OVC012 09/06 A3056 RMK AO2 SLP352 T00940061=
202301242146 SPECI KCLM 242146Z AUTO 31006KT 10SM OVC011 10/06 A3057 RMK AO2 T01000061=
202301242053 METAR KCLM 242053Z AUTO 30007KT 10SM BKN008 OVC012 09/06 A3058 RMK AO2 CIG 007V010 SLP358 T00890061 53005=
202301241953 METAR KCLM 241953Z AUTO 31007KT 10SM BKN014 09/06 A3057 RMK AO2 SLP355 T00940056=
202301241949 SPECI KCLM 241949Z AUTO 33005KT 10SM BKN014 09/06 A3057 RMK AO2=
202301241915 SPECI KCLM 241915Z AUTO 28005KT 10SM FEW013 09/05 A3056 RMK AO2 T00940050=
202301241853 METAR KCLM 241853Z AUTO 28004KT 10SM BKN013 09/05 A3057 RMK AO2 SLP353 T00890050=
202301241802 SPECI KCLM 241802Z AUTO 00000KT 10SM OVC013 08/04 A3057 RMK AO2 T00780044=
202301241753 METAR KCLM 241753Z AUTO 00000KT 10SM OVC015 08/04 A3057 RMK AO2 SLP353 T00780044 10078 20039 51014=
202301241738 SPECI KCLM 241738Z AUTO 00000KT 10SM BKN017 BKN044 OVC080 07/04 A3056 RMK AO2 T00720044=
202301241725 SPECI KCLM 241725Z AUTO 00000KT 10SM SCT011 BKN044 OVC080 07/05 A3056 RMK AO2 T00720050=
202301241702 SPECI KCLM 241702Z AUTO 19003KT 10SM BKN011 OVC017 06/04 A3055 RMK AO2 T00610039=
202301241653 METAR KCLM 241653Z AUTO 21003KT 10SM SCT010 OVC017 06/03 A3055 RMK AO2 SLP347 T00560033=
202301241627 SPECI KCLM 241627Z AUTO 00000KT 10SM BKN024 OVC047 04/03 A3055 RMK AO2 T00440028=
202301241553 METAR KCLM 241553Z AUTO 22003KT 10SM FEW016 BKN048 OVC100 04/02 A3054 RMK AO2 SLP344 T00390022=
202301241453 METAR KCLM 241453Z AUTO 00000KT 10SM OVC075 04/03 A3052 RMK AO2 SLP338 T00440028 55001=
202301241428 SPECI KCLM 241428Z AUTO 00000KT 10SM SCT012 BKN075 OVC095 04/03 A3052 RMK AO2 T00440028=
202301241353 METAR KCLM 241353Z AUTO 15003KT 10SM BKN013 OVC080 04/03 A3052 RMK AO2 SLP336 T00440028=
202301241253 METAR KCLM 241253Z AUTO 00000KT 10SM FEW045 OVC100 06/03 A3052 RMK AO2 SLP337 T00560033=
202301241153 METAR KCLM 241153Z AUTO 00000KT 10SM OVC043 06/03 A3052 RMK AO2 SLP339 60000 T00560028 10061 20044 53005=
202301241053 METAR KCLM 241053Z AUTO 00000KT 10SM OVC047 06/03 A3052 RMK AO2 RAB27E36 SLP338 P0000 T00560028=
202301240953 METAR KCLM 240953Z AUTO 28003KT 10SM BKN065 OVC090 06/03 A3050 RMK AO2 SLP331 T00560028=
202301240853 METAR KCLM 240853Z AUTO 00000KT 10SM OVC070 06/03 A3051 RMK AO2 SLP333 T00560028 58005=
202301240753 METAR KCLM 240753Z AUTO 23005KT 10SM OVC070 06/03 A3053 RMK AO2 SLP340 T00560028 400890006=
202301240653 METAR KCLM 240653Z AUTO 00000KT 10SM SCT030 OVC070 04/02 A3053 RMK AO2 SLP340 T00440022=
202301240553 METAR KCLM 240553Z AUTO 00000KT 10SM OVC080 04/02 A3052 RMK AO2 SLP338 T00440022 10083 20039 53002=
202301240522 SPECI KCLM 240522Z AUTO 00000KT 10SM SCT026 BKN080 OVC110 05/02 A3052 RMK AO2 T00500022=
202301240453 METAR KCLM 240453Z AUTO 23005KT 10SM OVC026 06/03 A3051 RMK AO2 SLP334 T00560028=
202301240403 SPECI KCLM 240403Z AUTO 21003KT 10SM BKN027 OVC120 06/02 A3051 RMK AO2 T00560022=
202301240353 METAR KCLM 240353Z AUTO 00000KT 10SM SCT027 SCT037 OVC120 04/02 A3051 RMK AO2 SLP336 T00440022=
202301240253 METAR KCLM 240253Z AUTO 23003KT 10SM OVC036 06/02 A3052 RMK AO2 SLP336 T00560022 50009=
202301240153 METAR KCLM 240153Z AUTO 00000KT 10SM OVC033 06/02 A3052 RMK AO2 SLP338 T00560022=
202301240053 METAR KCLM 240053Z AUTO 00000KT 10SM SCT110 06/02 A3049 RMK AO2 SLP327 T00610017=
202301232353 METAR KCLM 232353Z AUTO 08005KT 10SM BKN110 08/02 A3049 RMK AO2 SLP327 T00780022 10089 20050 58013=
202301232253 METAR KCLM 232253Z AUTO VRB03KT 10SM FEW025 OVC045 08/03 A3051 RMK AO2 SLP334 T00780028=
202301232240 SPECI KCLM 232240Z AUTO 07003KT 10SM SCT025 OVC045 08/02 A3052 RMK AO2 T00780022=
202301232153 METAR KCLM 232153Z AUTO VRB03KT 10SM OVC027 08/02 A3053 RMK AO2 SLP339 T00780022=
202301232132 SPECI KCLM 232132Z AUTO 31003KT 10SM OVC029 07/02 A3053 RMK AO2 T00720017=
202301232053 METAR KCLM 232053Z AUTO VRB05KT 10SM SCT030 BKN050 07/01 A3053 RMK AO2 SLP340 T00720011 51010=
202301231953 METAR KCLM 231953Z AUTO 07003KT 10SM CLR 08/01 A3050 RMK AO2 SLP330 T00830011=
202301231942 SPECI KCLM 231942Z AUTO 00000KT 10SM SCT028 08/01 A3051 RMK AO2 T00830011=
202301231935 SPECI KCLM 231935Z AUTO 00000KT 10SM BKN028 08/01 A3051 RMK AO2 T00830011=
202301231853 METAR KCLM 231853Z AUTO 26004KT 10SM BKN033 OVC050 07/02 A3055 RMK AO2 PRESRR SLP346 T00670017=
202301231753 METAR KCLM 231753Z AUTO 00000KT 10SM OVC039 05/03 A3050 RMK AO2 SLP330 60000 T00500028 10050 20006 53005=
202301231653 METAR KCLM 231653Z AUTO 00000KT 10SM CLR 01/M01 A3048 RMK AO2 SLP326 T00111006=
202301231553 METAR KCLM 231553Z AUTO 22005KT 9SM CLR 01/M01 A3047 RMK AO2 SLP322 T00111006=
202301231536 SPECI KCLM 231536Z AUTO 00000KT 3SM BR CLR 02/01 A3047 RMK AO2 T00220011=
202301231528 SPECI KCLM 231528Z AUTO 00000KT 1 3/4SM BR CLR 02/01 A3047 RMK AO2 T00220006=
202301231453 METAR KCLM 231453Z AUTO 00000KT 10SM OVC060 03/02 A3049 RMK AO2 SLP326 60000 T00330017 58003=
202301231353 METAR KCLM 231353Z AUTO 21004KT 10SM OVC046 04/02 A3050 RMK AO2 SLP330 T00390022=
202301231253 METAR KCLM 231253Z AUTO 00000KT 10SM OVC050 04/02 A3049 RMK AO2 RAE19 SLP326 P0000 T00390022=
202301231153 METAR KCLM 231153Z AUTO 00000KT 10SM -RA SCT027 OVC045 04/02 A3049 RMK AO2 RAB27 SLP328 P0000 60000 T00390017 10050 20033 51014=
202301231112 SPECI KCLM 231112Z AUTO 23003KT 10SM OVC029 05/02 A3050 RMK AO2 T00500017=
202301231053 METAR KCLM 231053Z AUTO 21004KT 10SM OVC030 05/01 A3049 RMK AO2 SLP328 T00500011=
202301230953 METAR KCLM 230953Z AUTO 25006KT 10SM OVC065 04/02 A3047 RMK AO2 PRESRR SLP321 T00440017=
202301230853 METAR KCLM 230853Z AUTO 00000KT 10SM OVC065 04/01 A3045 RMK AO2 SLP314 T00440011 56006=
202301230753 METAR KCLM 230753Z AUTO 23004KT 10SM OVC075 04/02 A3046 RMK AO2 SLP318 T00440017 400780017=
202301230653 METAR KCLM 230653Z AUTO 00000KT 10SM OVC100 04/02 A3046 RMK AO2 SLP315 T00390017=
202301230553 METAR KCLM 230553Z AUTO 22004KT 10SM OVC100 04/01 A3047 RMK AO2 SLP320 T00390011 10067 20017 58004=
202301230453 METAR KCLM 230453Z AUTO 20003KT 10SM OVC080 03/01 A3048 RMK AO2 SLP322 T00330011=
202301230353 METAR KCLM 230353Z AUTO 00000KT 10SM BKN080 03/01 A3048 RMK AO2 SLP325 T00330006=
202301230253 METAR KCLM 230253Z AUTO 00000KT 10SM OVC090 03/01 A3048 RMK AO2 SLP325 T00280006 58002=
202301230153 METAR KCLM 230153Z AUTO 00000KT 10SM CLR 04/01 A3049 RMK AO2 SLP327 T00390006=
202301230053 METAR KCLM 230053Z AUTO 00000KT 10SM BKN085 06/01 A3048 RMK AO2 SLP325 T00560006=
202301222353 METAR KCLM 222353Z AUTO 09005KT 10SM SCT080 OVC110 07/01 A3049 RMK AO2 SLP327 T00670011 10078 20056 53012=
202301222253 METAR KCLM 222253Z AUTO 05003KT 10SM BKN120 07/01 A3047 RMK AO2 SLP322 T00720006=
202301222153 METAR KCLM 222153Z AUTO 00000KT 10SM BKN120 07/01 A3046 RMK AO2 SLP317 T00720006=
202301222053 METAR KCLM 222053Z AUTO 01003KT 10SM FEW024 BKN110 08/01 A3045 RMK AO2 SLP315 T00780011 58000=
202301221953 METAR KCLM 221953Z AUTO 14003KT 10SM CLR 07/01 A3046 RMK AO2 SLP315 T00720006=
202301221853 METAR KCLM 221853Z AUTO 29003KT 10SM CLR 07/00 A3046 RMK AO2 SLP318 T00670000=
202301221753 METAR KCLM 221753Z AUTO 24009KT 10SM CLR 06/00 A3046 RMK AO2 SLP315 T00560000 10056 20028 53017=
202301221653 METAR KCLM 221653Z AUTO 25007KT 10SM CLR 04/M01 A3044 RMK AO2 SLP309 T00441011=
202301221553 METAR KCLM 221553Z AUTO 24010KT 10SM CLR 04/M01 A3042 RMK AO2 SLP304 T00391011=
202301221453 METAR KCLM 221453Z AUTO 25008KT 10SM CLR 03/M01 A3040 RMK AO2 SLP298 T00331011 53013=
202301221353 METAR KCLM 221353Z AUTO 26008KT 10SM CLR 03/M01 A3039 RMK AO2 SLP293 T00331011=
202301221253 METAR KCLM 221253Z AUTO 25009KT 10SM BKN044 03/M01 A3038 RMK AO2 SLP290 T00331006=
202301221153 METAR KCLM 221153Z AUTO 24010KT 10SM FEW048 03/M01 A3037 RMK AO2 SLP285 70006 T00331006 10056 20033 51022=
202301221053 METAR KCLM 221053Z AUTO 26010KT 10SM CLR 04/00 A3035 RMK AO2 SLP280 T00390000=
202301220953 METAR KCLM 220953Z AUTO 25011KT 10SM CLR 04/00 A3033 RMK AO2 SLP272 T00390000=
202301220853 METAR KCLM 220853Z AUTO 27007KT 10SM CLR 04/00 A3030 RMK AO2 SLP263 T00440000 51016=
202301220753 METAR KCLM 220753Z AUTO 25009KT 10SM CLR 04/01 A3030 RMK AO2 SLP262 T00440011 400671017=
202301220653 METAR KCLM 220653Z AUTO 26005KT 10SM FEW050 04/01 A3028 RMK AO2 SLP257 T00390011=
202301220553 METAR KCLM 220553Z AUTO 25009KT 10SM BKN050 06/02 A3026 RMK AO2 SLP247 60006 T00560017 10061 20044 51023=
202301220519 SPECI KCLM 220519Z AUTO 27010KT 10SM SCT027 SCT055 05/02 A3024 RMK AO2 T00500017=
202301220453 METAR KCLM 220453Z AUTO 27013KT 10SM BKN028 OVC033 06/02 A3024 RMK AO2 SLP242 T00610022=
202301220442 SPECI KCLM 220442Z AUTO 26011KT 10SM OVC031 06/02 A3023 RMK AO2 T00560022=
202301220353 METAR KCLM 220353Z AUTO 27009KT 10SM OVC026 05/03 A3022 RMK AO2 RAE14 SLP235 P0001 T00500028=
202301220338 SPECI KCLM 220338Z AUTO 26007KT 10SM BKN028 OVC033 05/03 A3021 RMK AO2 RAE14 P0001 T00500028=
202301220253 METAR KCLM 220253Z AUTO 25007KT 10SM -RA FEW023 SCT030 OVC039 04/02 A3019 RMK AO2 RAE48B53 SLP225 P0000 60005 T00440022 51020=
202301220248 SPECI KCLM 220248Z AUTO 25006KT 10SM FEW018 SCT023 OVC041 04/02 A3019 RMK AO2 RAE48 P0000=
202301220239 SPECI KCLM 220239Z AUTO 25006KT 10SM -RA FEW014 BKN022 OVC041 04/02 A3018 RMK AO2 P0000 T00440022=
202301220153 METAR KCLM 220153Z AUTO 26003KT 9SM -RA OVC012 05/03 A3016 RMK AO2 SLP215 P0003 T00500028=
202301220118 SPECI KCLM 220118Z AUTO 25004KT 9SM -RA OVC012 05/03 A3014 RMK AO2 P0001 T00500028=
202301220104 SPECI KCLM 220104Z AUTO 24006KT 10SM -RA OVC015 05/03 A3013 RMK AO2 P0000 T00500028=
202301220053 METAR KCLM 220053Z AUTO 24004KT 10SM -RA BKN013 OVC017 05/03 A3013 RMK AO2 RAB2354 SLP206 P0002 T00500028=
202301220032 SPECI KCLM 220032Z AUTO 25004KT 8SM -RA BKN011 BKN017 OVC022 05/03 A3012 RMK AO2 RAB2354 P0001 T00500028=
202301212353 METAR KCLM 212353Z AUTO 32006KT 10SM OVC008 06/02 A3009 RMK AO2 SLP193 60000 T00560022 10067 20039 53011=
202301212253 METAR KCLM 212253Z AUTO 29006KT 10SM OVC009 06/02 A3006 RMK AO2 CIG 009V013 SLP181 T00560022=
202301212220 SPECI KCLM 212220Z AUTO 34003KT 10SM OVC009 06/02 A3004 RMK AO2 T00560022=
202301212153 METAR KCLM 212153Z AUTO 03004KT 10SM OVC010 06/02 A3003 RMK AO2 SLP173 T00560022=
202301212053 METAR KCLM 212053Z AUTO 00000KT 10SM BKN008 BKN075 OVC100 06/03 A3006 RMK AO2 SLP182 60000 T00560028 58026=
202301211953 METAR KCLM 211953Z AUTO 10004KT 10SM OVC009 06/03 A3008 RMK AO2 RAE08 SLP189 P0000 T00560028=
202301211853 METAR KCLM 211853Z AUTO 00000KT 10SM -RA OVC009 05/03 A3013 RMK AO2 RAE04B42 SLP204 P0000 T00500028=
202301211753 METAR KCLM 211753Z AUTO 00000KT 10SM -RA OVC008 04/02 A3014 RMK AO2 RAB1657E25B52 SLP208 P0000 60000 I6000 T00390022 10044 21011 58012=
202301211653 METAR KCLM 211653Z AUTO 27004KT 10SM OVC009 03/01 A3016 RMK AO2 SLP215 T00330011=
202301211553 METAR KCLM 211553Z AUTO 25005KT 10SM OVC006 02/01 A3017 RMK AO2 CIG 005V009 SLP219 T00220006=
202301211537 SPECI KCLM 211537Z AUTO 00000KT 10SM BKN005 OVC011 02/01 A3017 RMK AO2 CIG 005V008 T00220011=
202301211526 SPECI KCLM 211526Z AUTO 00000KT 10SM SCT006 OVC011 03/01 A3017 RMK AO2 T00280011=
202301211453 METAR KCLM 211453Z AUTO 00000KT 10SM BKN010 02/01 A3017 RMK AO2 SLP221 I3000 T00220011 58041=
202301211353 METAR KCLM 211353Z AUTO 00000KT 10SM OVC010 02/01 A3022 RMK AO2 SLP236 T00220006=
202301211253 METAR KCLM 211253Z AUTO 24003KT 10SM OVC012 01/M01 A3025 RMK AO2 SLP248 I1000 T00111006=
202301211223 SPECI KCLM 211223Z AUTO 00000KT 10SM BKN012 00/M02 A3027 RMK AO2 T00001017=
202301211153 METAR KCLM 211153Z AUTO 16003KT 10SM CLR M01/M03 A3030 RMK AO2 SLP262 I1000 I6000 T10111028 10033 21017 58030=
202301211053 METAR KCLM 211053Z AUTO 00000KT 10SM CLR 01/M01 A3035 RMK AO2 SLP282 I1000 T00061006=
202301211031 SPECI KCLM 211031Z AUTO 00000KT 10SM SCT026 00/M01 A3036 RMK AO2 T00001011=
202301210953 METAR KCLM 210953Z AUTO 24005KT 10SM BKN027 00/M02 A3038 RMK AO2 SLP290 I1000 T00001022=
202301210853 METAR KCLM 210853Z AUTO 11003KT 10SM CLR M01/M02 A3038 RMK AO2 SLP292 I1000 I3000 T10061017 58011=
202301210753 METAR KCLM 210753Z AUTO 00000KT 10SM CLR 01/00 A3040 RMK AO2 SLP297 I1000 T00110000 400670000=
202301210653 METAR KCLM 210653Z AUTO 15004KT 10SM CLR 01/M01 A3041 RMK AO2 SLP299 T00111011=
202301210553 METAR KCLM 210553Z AUTO 00000KT 10SM BKN049 03/01 A3042 RMK AO2 SLP303 T00280011 10061 20028 56016=
202301210453 METAR KCLM 210453Z AUTO 00000KT 10SM OVC050 04/02 A3043 RMK AO2 SLP309 T00440022=
202301210353 METAR KCLM 210353Z AUTO 13004KT 10SM OVC050 04/02 A3044 RMK AO2 SLP311 T00440022=
202301210253 METAR KCLM 210253Z AUTO 13005KT 10SM SCT010 OVC055 03/01 A3046 RMK AO2 SLP319 T00280011 58009=
202301210232 SPECI KCLM 210232Z AUTO 17003KT 10SM BKN010 03/01 A3047 RMK AO2 T00330011=
202301210153 METAR KCLM 210153Z AUTO 00000KT 10SM BKN060 04/02 A3047 RMK AO2 SLP322 T00440017=
202301210053 METAR KCLM 210053Z AUTO 09004KT 10SM OVC060 06/02 A3049 RMK AO2 SLP326 T00560022=
202301210032 SPECI KCLM 210032Z AUTO 09004KT 10SM FEW011 OVC060 06/02 A3049 RMK AO2 T00610022=
202301202353 METAR KCLM 202353Z AUTO 09004KT 10SM OVC012 06/02 A3049 RMK AO2 SLP328 T00610022 10067 20039 58007=
202301202253 METAR KCLM 202253Z AUTO 09005KT 10SM OVC012 06/02 A3050 RMK AO2 SLP331 T00610017=
202301202153 METAR KCLM 202153Z AUTO 09004KT 10SM OVC012 06/02 A3051 RMK AO2 SLP333 T00610022=
202301202053 METAR KCLM 202053Z AUTO 07003KT 10SM OVC012 07/02 A3051 RMK AO2 SLP335 T00670022 58001=
202301202012 SPECI KCLM 202012Z AUTO 00000KT 10SM BKN011 OVC055 06/02 A3052 RMK AO2 T00610022=
202301202001 SPECI KCLM 202001Z AUTO VRB04KT 10SM SCT011 OVC055 06/02 A3052 RMK AO2 T00610022=
202301201953 METAR KCLM 201953Z AUTO VRB03KT 10SM BKN011 OVC055 07/03 A3052 RMK AO2 SLP338 T00670028=
202301201853 METAR KCLM 201853Z AUTO 00000KT 10SM OVC013 06/02 A3054 RMK AO2 SLP344 T00610022=
202301201819 SPECI KCLM 201819Z AUTO 00000KT 10SM BKN013 06/02 A3053 RMK AO2 T00560022=
202301201753 METAR KCLM 201753Z AUTO 00000KT 10SM FEW013 BKN060 04/02 A3052 RMK AO2 SLP337 T00390017 10039 20011 53010=
202301201725 SPECI KCLM 201725Z AUTO 00000KT 10SM SCT012 BKN060 03/01 A3052 RMK AO2 T00280011=
202301201710 SPECI KCLM 201710Z AUTO 00000KT 10SM BKN012 OVC055 02/01 A3052 RMK AO2 T00220006=
202301201653 METAR KCLM 201653Z AUTO 00000KT 10SM BKN055 02/01 A3051 RMK AO2 SLP336 T00220006=
202301201553 METAR KCLM 201553Z AUTO 23003KT 10SM BKN070 03/01 A3049 RMK AO2 SLP329 T00280006=
202301201453 METAR KCLM 201453Z AUTO 00000KT 10SM OVC065 03/01 A3049 RMK AO2 SLP327 T00330011 53003=
202301201353 METAR KCLM 201353Z AUTO 23003KT 10SM OVC070 03/01 A3049 RMK AO2 SLP327 T00280011=
202301201253 METAR KCLM 201253Z AUTO 00000KT 10SM OVC080 02/01 A3048 RMK AO2 SLP322 T00220006=
202301201153 METAR KCLM 201153Z AUTO 22003KT 10SM OVC085 02/00 A3048 RMK AO2 SLP323 T00170000 10039 20006 58001=
202301201053 METAR KCLM 201053Z AUTO 22004KT 10SM OVC080 02/00 A3050 RMK AO2 SLP330 T00170000=
202301200953 METAR KCLM 200953Z AUTO 23005KT 10SM CLR 03/00 A3048 RMK AO2 SLP324 T00280000=
202301200853 METAR KCLM 200853Z AUTO 00000KT 10SM OVC085 02/M01 A3048 RMK AO2 SLP324 T00171006 53001=
202301200753 METAR KCLM 200753Z AUTO 22004KT 10SM FEW095 02/00 A3047 RMK AO2 SLP320 T00220000 400890017=
202301200653 METAR KCLM 200653Z AUTO 24005KT 10SM CLR 03/00 A3046 RMK AO2 SLP316 T00280000=
202301200553 METAR KCLM 200553Z AUTO 23006KT 10SM BKN080 OVC120 04/01 A3048 RMK AO2 SLP322 T00390006 10078 20022 53018=
202301200453 METAR KCLM 200453Z AUTO 23007KT 10SM SCT100 04/01 A3045 RMK AO2 SLP314 T00390006=
202301200353 METAR KCLM 200353Z AUTO 23005KT 10SM OVC090 03/01 A3044 RMK AO2 SLP311 T00330006=
202301200253 METAR KCLM 200253Z AUTO 22004KT 10SM FEW100 BKN120 02/00 A3042 RMK AO2 SLP305 T00220000 53006=
202301200153 METAR KCLM 200153Z AUTO 21003KT 10SM CLR 03/01 A3041 RMK AO2 SLP302 T00330006=
202301200053 METAR KCLM 200053Z AUTO 00000KT 10SM CLR 06/01 A3041 RMK AO2 SLP300 T00560011=
202301192353 METAR KCLM 192353Z AUTO 09003KT 10SM CLR 08/01 A3041 RMK AO2 SLP298 T00780011 10089 20050 51010=
202301192253 METAR KCLM 192253Z AUTO 08005KT 10SM SCT043 SCT055 08/02 A3040 RMK AO2 SLP296 T00830017=
202301192153 METAR KCLM 192153Z AUTO 06004KT 10SM OVC055 08/02 A3039 RMK AO2 SLP293 T00780017=
202301192053 METAR KCLM 192053Z AUTO 08005KT 10SM CLR 08/01 A3038 RMK AO2 SLP288 T00830006 51012=
202301191953 METAR KCLM 191953Z AUTO 08005KT 10SM CLR 08/M01 A3037 RMK AO2 SLP287 T00831006=
202301191853 METAR KCLM 191853Z AUTO 24003KT 10SM CLR 07/M01 A3037 RMK AO2 SLP286 T00671006=
202301191753 METAR KCLM 191753Z AUTO 24007KT 10SM CLR 05/M01 A3034 RMK AO2 SLP277 T00501011 10050 20028 53025=
202301191653 METAR KCLM 191653Z AUTO 24009KT 10SM CLR 03/M02 A3031 RMK AO2 SLP266 T00331017=
202301191553 METAR KCLM 191553Z AUTO 25009KT 10SM CLR 03/M02 A3028 RMK AO2 SLP257 T00281017=
202301191453 METAR KCLM 191453Z AUTO 25011KT 10SM CLR 03/M02 A3027 RMK AO2 SLP251 T00331017 51018=
202301191353 METAR KCLM 191353Z AUTO 24011KT 10SM CLR 03/M01 A3024 RMK AO2 SLP244 T00331011=
202301191253 METAR KCLM 191253Z AUTO 24011KT 10SM CLR 03/M01 A3024 RMK AO2 SLP241 T00331011=
202301191153 METAR KCLM 191153Z AUTO 24012KT 10SM CLR 04/M01 A3021 RMK AO2 SLP233 70004 T00391011 10050 20033 51024=
202301191053 METAR KCLM 191053Z AUTO 24011KT 10SM CLR 04/M01 A3019 RMK AO2 SLP226 T00391006=
202301190953 METAR KCLM 190953Z AUTO 24011G17KT 10SM FEW036 04/M01 A3017 RMK AO2 SLP217 T00441006=
202301190853 METAR KCLM 190853Z AUTO 25010KT 10SM CLR 04/00 A3014 RMK AO2 SLP208 T00440000 51025=
202301190753 METAR KCLM 190753Z AUTO 25008KT 10SM FEW050 04/00 A3012 RMK AO2 SLP203 T00440000 400940028=
202301190653 METAR KCLM 190653Z AUTO 25008KT 10SM CLR 04/01 A3010 RMK AO2 SLP194 T00440006=
202301190553 METAR KCLM 190553Z AUTO 24009KT 10SM CLR 04/01 A3007 RMK AO2 SLP183 60000 T00440011 10072 20044 53023=
202301190453 METAR KCLM 190453Z AUTO 26010KT 10SM CLR 04/01 A3003 RMK AO2 SLP171 T00440011=
202301190353 METAR KCLM 190353Z AUTO 24010KT 10SM CLR 04/02 A3002 RMK AO2 SLP167 T00440017=
202301190253 METAR KCLM 190253Z AUTO 25007KT 10SM CLR 05/01 A3000 RMK AO2 SLP160 60000 T00500011 51025=
202301190153 METAR KCLM 190153Z AUTO 27008KT 10SM SCT048 SCT060 SCT075 05/02 A2998 RMK AO2 RAE21 SLP153 P0000 T00500022=
202301190053 METAR KCLM 190053Z AUTO 29011KT 10SM -RA FEW033 OVC065 06/02 A2996 RMK AO2 RAB12 SLP146 P0000 T00610022=
202301182353 METAR KCLM 182353Z AUTO 29009KT 10SM FEW023 BKN060 07/03 A2992 RMK AO2 SLP135 60000 T00720028 10094 20067 53030=
202301182253 METAR KCLM 182253Z AUTO 28008KT 10SM BKN060 OVC075 08/02 A2989 RMK AO2 SLP123 T00830022=
202301182153 METAR KCLM 182153Z AUTO 31004KT 10SM FEW022 BKN070 09/03 A2985 RMK AO2 SLP110 T00890033=
202301182053 METAR KCLM 182053Z AUTO 28005KT 10SM FEW024 FEW065 08/04 A2983 RMK AO2 SLP104 60000 T00830039 53013=
202301181953 METAR KCLM 181953Z AUTO 27007KT 10SM FEW060 08/04 A2981 RMK AO2 SLP098 T00780039=
202301181853 METAR KCLM 181853Z AUTO 28006KT 10SM SCT029 SCT060 07/04 A2981 RMK AO2 RAE22 SLP095 P0000 T00720044=
202301181753 METAR KCLM 181753Z AUTO 28006KT 7SM -RA SCT037 BKN049 OVC090 07/04 A2979 RMK AO2 RAE1659B16 SLP091 P0001 60004 T00670044 10072 20056 53038=
202301181653 METAR KCLM 181653Z AUTO 21007KT 8SM -RA BKN035 OVC070 07/04 A2975 RMK AO2 RAE1557B31 SLP074 P0001 T00670044=
202301181553 METAR KCLM 181553Z AUTO 00000KT 10SM -RA BKN049 OVC070 07/05 A2971 RMK AO2 SLP061 P0001 T00670050=
202301181453 METAR KCLM 181453Z AUTO 33006KT 9SM -RA FEW008 BKN045 OVC050 07/06 A2968 RMK AO2 RAB13 SLP052 P0001 60001 T00720056 53001=
202301181420 SPECI KCLM 181420Z AUTO 29011KT 10SM -RA SCT004 SCT013 OVC060 07/05 A2967 RMK AO2 RAB13 P0000 T00670050=
202301181353 METAR KCLM 181353Z AUTO 25007KT 10SM FEW045 OVC055 06/04 A2964 RMK AO2 RAB00E13 SLP038 P0000 T00560039=
202301181253 METAR KCLM 181253Z AUTO 00000KT 10SM FEW048 OVC055 06/04 A2963 RMK AO2 RAE40 SLP035 P0000 T00610044=
202301181236 SPECI KCLM 181236Z AUTO 14003KT 10SM -RA FEW006 OVC048 06/04 A2964 RMK AO2 P0000 T00560039=
202301181153 METAR KCLM 181153Z AUTO 00000KT 10SM -RA OVC050 06/04 A2968 RMK AO2 RAB51 SLP051 P0000 60000 T00560044 10056 20028 58027=
202301181053 METAR KCLM 181053Z AUTO 00000KT 10SM OVC055 05/04 A2971 RMK AO2 SLP061 T00500039=
202301180953 METAR KCLM 180953Z AUTO 00000KT 10SM OVC060 04/03 A2974 RMK AO2 RAB39E49 SLP071 P0000 T00440033=
202301180905 SPECI KCLM 180905Z AUTO 00000KT 6SM BR FEW006 OVC070 04/02 A2975 RMK AO2 T00390022=
202301180853 METAR KCLM 180853Z AUTO 00000KT 10SM BKN006 OVC070 04/02 A2976 RMK AO2 SLP078 T00390022 58017=
202301180830 SPECI KCLM 180830Z AUTO 24004KT 10SM BKN006 BKN065 03/02 A2977 RMK AO2 T00330022=
202301180811 SPECI KCLM 180811Z AUTO 00000KT 10SM FEW007 SCT065 04/02 A2976 RMK AO2 PRESFR T00390022=
202301180753 METAR KCLM 180753Z AUTO 17003KT 8SM FEW065 03/02 A2978 RMK AO2 SLP087 T00330017 400830028=
202301180653 METAR KCLM 180653Z AUTO 00000KT 8SM BKN060 OVC075 03/02 A2980 RMK AO2 SLP093 T00280017=
202301180553 METAR KCLM 180553Z AUTO 24003KT 9SM CLR 04/02 A2981 RMK AO2 SLP095 T00390022 10078 20033 56008=
202301180453 METAR KCLM 180453Z AUTO 00000KT 10SM FEW065 04/03 A2981 RMK AO2 SLP097 T00440028=
202301180353 METAR KCLM 180353Z AUTO 10003KT 9SM FEW070 FEW085 04/03 A2981 RMK AO2 SLP097 T00440028=
202301180307 SPECI KCLM 180307Z AUTO 21004KT 10SM FEW008 SCT055 06/04 A2983 RMK AO2 T00560039=
202301180253 METAR KCLM 180253Z AUTO 00000KT 10SM BKN008 06/04 A2983 RMK AO2 SLP104 T00560039 58005=
202301180228 SPECI KCLM 180228Z AUTO 00000KT 10SM SCT008 SCT060 BKN120 06/04 A2984 RMK AO2 T00610044 TSNO=
202301180201 SPECI KCLM 180201Z AUTO 21003KT 10SM BKN008 OVC110 06/04 A2984 RMK AO2 T00610044=
202301180153 METAR KCLM 180153Z AUTO 25003KT 10SM SCT008 BKN060 OVC110 07/04 A2984 RMK AO2 SLP107 T00670044=
202301180150 SPECI KCLM 180150Z AUTO 24003KT 10SM SCT008 BKN060 OVC110 06/04 A2984 RMK AO2=
202301180053 METAR KCLM 180053Z AUTO 24003KT 10SM OVC100 07/04 A2985 RMK AO2 SLP109 T00670044=
202301180007 SPECI KCLM 180007Z AUTO 00000KT 10SM FEW009 OVC095 07/04 A2986 RMK AO2 T00720044=
202301172353 METAR KCLM 172353Z AUTO 00000KT 10SM OVC095 07/05 A2986 RMK AO2 SLP114 T00720050 10083 20067 56011=
202301172253 METAR KCLM 172253Z AUTO 00000KT 10SM BKN090 OVC120 08/04 A2987 RMK AO2 SLP117 T00780044=
202301172229 SPECI KCLM 172229Z AUTO 05003KT 10SM SCT017 OVC090 08/05 A2987 RMK AO2 T00780050=
202301172153 METAR KCLM 172153Z AUTO 00000KT 10SM OVC017 08/06 A2988 RMK AO2 SLP120 T00830056=
202301172102 SPECI KCLM 172102Z AUTO 00000KT 10SM FEW008 OVC015 08/05 A2989 RMK AO2 T00830050=
202301172053 METAR KCLM 172053Z AUTO 00000KT 10SM SCT010 OVC013 08/06 A2989 RMK AO2 SLP124 T00830056 58006=
202301172042 SPECI KCLM 172042Z AUTO 00000KT 10SM BKN011 OVC014 08/05 A2989 RMK AO2 T00830050=
202301172031 SPECI KCLM 172031Z AUTO 00000KT 10SM OVC009 08/05 A2990 RMK AO2 CIG 008V014 T00830050=
202301172008 SPECI KCLM 172008Z AUTO 00000KT 10SM BKN011 OVC017 08/05 A2990 RMK AO2 T00830050=
202301171953 METAR KCLM 171953Z AUTO 00000KT 10SM OVC015 08/05 A2991 RMK AO2 SLP130 T00830050=
202301171853 METAR KCLM 171853Z AUTO 00000KT 10SM OVC017 08/05 A2991 RMK AO2 SLP132 T00780050=
202301171836 SPECI KCLM 171836Z AUTO 00000KT 10SM BKN016 BKN120 08/05 A2992 RMK AO2 T00780050=
202301171821 SPECI KCLM 171821Z AUTO 00000KT 10SM SCT016 SCT120 07/05 A2991 RMK AO2 T00720050=
202301171753 METAR KCLM 171753Z AUTO 00000KT 10SM OVC017 07/04 A2991 RMK AO2 SLP130 T00670044 10067 20028 53008=
202301171701 SPECI KCLM 171701Z AUTO 23003KT 10SM BKN017 04/03 A2990 RMK AO2 T00440028=
202301171653 METAR KCLM 171653Z AUTO 22003KT 10SM SCT017 BKN120 04/03 A2990 RMK AO2 SLP128 T00390028=
202301171553 METAR KCLM 171553Z AUTO 00000KT 10SM FEW065 BKN110 04/02 A2989 RMK AO2 SLP123 T00390022=
202301171520 SPECI KCLM 171520Z AUTO 23004KT 10SM SCT024 BKN050 03/02 A2989 RMK AO2 T00330022=
202301171453 METAR KCLM 171453Z AUTO 23004KT 10SM OVC023 04/02 A2989 RMK AO2 SLP122 T00390022 53006 $=
202301171443 SPECI KCLM 171443Z AUTO 23003KT 9SM BKN022 BKN050 03/02 A2988 RMK AO2 T00330022 $=
202301171353 METAR KCLM 171353Z AUTO 00000KT 4SM BR CLR 03/02 A2988 RMK AO2 SLP119 T00330022 $=
202301171350 SPECI KCLM 171350Z AUTO 20003KT 3SM BR CLR 03/02 A2988 RMK AO2 $=
202301171340 SPECI KCLM 171340Z AUTO 00000KT 1 3/4SM BR CLR 03/02 A2987 RMK AO2 T00330017 $=
202301171330 SPECI KCLM 171330Z AUTO 00000KT 3SM BR FEW080 04/02 A2987 RMK AO2 T00390022 $=
202301171318 SPECI KCLM 171318Z AUTO 00000KT 1 3/4SM BR SCT080 04/03 A2987 RMK AO2 T00390028 $=
202301171253 METAR KCLM 171253Z AUTO 00000KT 10SM OVC080 04/03 A2987 RMK AO2 SLP118 T00440033 $=
202301171153 METAR KCLM 171153Z AUTO 00000KT 10SM SCT049 OVC080 06/04 A2987 RMK AO2 SLP116 60000 T00560039 10061 20044 51012 $=
202301171053 METAR KCLM 171053Z AUTO 00000KT 10SM FEW050 BKN075 05/03 A2986 RMK AO2 RAB10E24 SLP113 P0000 T00500033 $=
202301171015 SPECI KCLM 171015Z AUTO 00000KT 9SM -RA SCT012 OVC055 06/04 A2986 RMK AO2 RAB10 P0000 T00560039 $=
202301170953 METAR KCLM 170953Z AUTO 00000KT 10SM OVC011 06/04 A2985 RMK AO2 SLP109 T00560044 $=
202301170905 SPECI KCLM 170905Z AUTO 00000KT 10SM BKN010 OVC060 06/04 A2984 RMK AO2 T00560039 $=
202301170853 METAR KCLM 170853Z AUTO 00000KT 10SM SCT009 OVC060 06/04 A2983 RMK AO2 SLP104 T00560039 51010 $=
202301170831 SPECI KCLM 170831Z AUTO 24004KT 10SM FEW009 BKN060 OVC080 06/04 A2984 RMK AO2 T00560039 $=
202301170753 METAR KCLM 170753Z AUTO 23003KT 10SM OVC060 06/04 A2983 RMK AO2 SLP103 T00560039 401000028 $=
202301170653 METAR KCLM 170653Z AUTO 26003KT 10SM OVC055 04/03 A2981 RMK AO2 SLP097 T00440028 $=
202301170553 METAR KCLM 170553Z AUTO 24003KT 10SM BKN070 OVC085 04/03 A2980 RMK AO2 SLP094 T00440028 10083 20028 53011 $=
202301170453 METAR KCLM 170453Z AUTO 26004KT 10SM BKN085 04/02 A2979 RMK AO2 SLP089 T00390022 $=
202301170407 SPECI KCLM 170407Z AUTO 00000KT 3SM BR OVC080 04/03 A2978 RMK AO2 T00390028 $=
202301170359 SPECI KCLM 170359Z AUTO 00000KT 1 3/4SM BR OVC080 04/02 A2978 RMK AO2 T00390022 $=
202301170353 METAR KCLM 170353Z AUTO 00000KT 7SM BKN080 03/02 A2978 RMK AO2 SLP086 T00330022 $=
202301170259 SPECI KCLM 170259Z AUTO 00000KT 3SM BR CLR 04/03 A2977 RMK AO2 T00390028 $=
202301170253 METAR KCLM 170253Z AUTO 00000KT 1 1/4SM BR CLR 05/03 A2977 RMK AO2 SLP083 T00500033 51008 $=
202301170248 SPECI KCLM 170248Z AUTO 00000KT 1SM BR CLR 04/03 A2977 RMK AO2 $=
202301170228 SPECI KCLM 170228Z AUTO 00000KT 1/2SM FG CLR 05/03 A2977 RMK AO2 T00500033 $=
202301170221 SPECI KCLM 170221Z AUTO 00000KT 1SM BR CLR 05/03 A2977 RMK AO2 T00500033 $=
202301170214 SPECI KCLM 170214Z AUTO 00000KT 2SM BR CLR 05/03 A2977 RMK AO2 VIS 1V4 T00500033 $=
202301170153 METAR KCLM 170153Z AUTO 23003KT 9SM CLR 06/04 A2976 RMK AO2 SLP080 T00560044 $=
202301170053 METAR KCLM 170053Z AUTO 00000KT FEW060 07/05 A2975 RMK AO2 SLP075 T00670050 $=
202301170005 SPECI KCLM 170005Z AUTO 00000KT SCT029 BKN060 08/06 A2974 RMK AO2 T00830056 $=
202301162353 METAR KCLM 162353Z AUTO 00000KT BKN029 OVC060 09/05 A2973 RMK AO2 SLP071 T00890050 10100 20056 53011 $=
202301162343 SPECI KCLM 162343Z AUTO 00000KT BKN028 08/06 A2973 RMK AO2 T00830056 $=
202301162253 METAR KCLM 162253Z AUTO 03003KT CLR 09/06 A2972 RMK AO2 SLP066 T00890056 $=
202301162153 METAR KCLM 162153Z AUTO 36003KT CLR 08/06 A2970 RMK AO2 SLP059 T00830061 $=
202301162053 METAR KCLM 162053Z AUTO 00000KT FEW008 09/06 A2970 RMK AO2 SLP059 T00940061 50007 $=
202301162023 SPECI KCLM 162023Z AUTO 00000KT FEW006 10/06 A2970 RMK AO2 T01000061 $=
202301161953 METAR KCLM 161953Z AUTO 00000KT 10SM BKN005 BKN065 08/06 A2970 RMK AO2 SLP060 T00830056=
202301161941 SPECI KCLM 161941Z AUTO 00000KT 10SM SCT005 SCT065 08/06 A2970 RMK AO2 T00830061=
202301161853 METAR KCLM 161853Z AUTO 00000KT 10SM CLR 08/06 A2970 RMK AO2 SLP057 T00780061=
202301161753 METAR KCLM 161753Z AUTO 00000KT 10SM CLR 06/04 A2968 RMK AO2 SLP053 T00560039 10067 20028 53015=
202301161653 METAR KCLM 161653Z AUTO 23004KT 8SM FEW065 04/03 A2966 RMK AO2 SLP045 T00390028=
202301161648 SPECI KCLM 161648Z AUTO 23005KT 5SM BR FEW001 SCT065 04/02 A2966 RMK AO2=
202301161641 SPECI KCLM 161641Z AUTO 00000KT 6SM BR BKN065 04/02 A2965 RMK AO2 T00390022=
202301161634 SPECI KCLM 161634Z AUTO 13003KT 2 1/2SM BR FEW001 BKN065 03/02 A2965 RMK AO2 VIS 3/4V5 T00330022=
202301161623 SPECI KCLM 161623Z AUTO 17003KT 1 1/4SM BR BKN065 03/02 A2965 RMK AO2 T00330022=
202301161616 SPECI KCLM 161616Z AUTO 00000KT 2SM BR SCT060 03/02 A2964 RMK AO2 VIS 3/4V5 T00330022=
202301161559 SPECI KCLM 161559Z AUTO 16003KT 1 1/2SM BR BKN060 03/03 A2964 RMK AO2 VIS 1/2V5 T00330028=
202301161553 METAR KCLM 161553Z AUTO 20003KT 3SM BR SCT060 04/03 A2964 RMK AO2 SLP037 T00390033=
202301161538 SPECI KCLM 161538Z AUTO 16004KT 3SM BR BKN060 04/03 A2963 RMK AO2 T00390028=
202301161530 SPECI KCLM 161530Z AUTO 00000KT 2SM BR FEW026 BKN060 04/03 A2963 RMK AO2 VIS 1V4 T00390028=
202301161526 SPECI KCLM 161526Z AUTO 00000KT 3/4SM BR FEW017 BKN060 04/03 A2963 RMK AO2 T00440033=
202301161517 SPECI KCLM 161517Z AUTO 00000KT 1 1/2SM BR FEW008 BKN065 04/03 A2963 RMK AO2 VIS 1/2V5 T00440033=
202301161457 SPECI KCLM 161457Z AUTO 23003KT 3SM BR SCT009 BKN060 05/04 A2962 RMK AO2 T00500039=
202301161453 METAR KCLM 161453Z AUTO 21003KT 1 1/4SM BR SCT009 BKN060 05/03 A2962 RMK AO2 SLP032 T00500033 53013=
202301161441 SPECI KCLM 161441Z AUTO 24003KT 1 3/4SM BR FEW009 SCT060 04/03 A2961 RMK AO2 T00390028=
202301161433 SPECI KCLM 161433Z AUTO 00000KT 4SM BR FEW009 SCT060 05/04 A2961 RMK AO2 T00500039=
202301161430 SPECI KCLM 161430Z AUTO 00000KT 2SM BR FEW011 SCT060 06/04 A2961 RMK AO2 T00560044=
202301161353 METAR KCLM 161353Z AUTO 00000KT 10SM FEW003 06/05 A2960 RMK AO2 SLP025 T00610050=
202301161351 SPECI KCLM 161351Z AUTO 00000KT 10SM SCT003 06/04 A2960 RMK AO2=
202301161253 METAR KCLM 161253Z AUTO 00000KT 10SM OVC003 06/05 A2958 RMK AO2 SLP019 T00610050=
202301161228 SPECI KCLM 161228Z AUTO 00000KT 10SM BKN003 OVC100 06/04 A2958 RMK AO2 T00560039=
202301161203 SPECI KCLM 161203Z AUTO 20003KT 10SM SCT004 OVC110 05/04 A2957 RMK AO2 T00500039=
202301161153 METAR KCLM 161153Z AUTO 00000KT 10SM OVC110 06/04 A2957 RMK AO2 SLP015 60000 70003 T00560044 10072 20050 53021=
202301161053 METAR KCLM 161053Z AUTO 00000KT 10SM OVC110 05/04 A2954 RMK AO2 SLP005 T00500039=
202301161001 SPECI KCLM 161001Z AUTO 24004KT 7SM CLR 05/04 A2952 RMK AO2 T00500044=
202301160953 METAR KCLM 160953Z AUTO 26003KT 2 1/2SM BR CLR 06/04 A2952 RMK AO2 SLP998 T00560039=
202301160944 SPECI KCLM 160944Z AUTO 00000KT 2 1/2SM BR FEW001 05/04 A2952 RMK AO2 VIS 1 1/2V5 T00500039=
202301160927 SPECI KCLM 160927Z AUTO 00000KT 4SM BR FEW022 05/04 A2951 RMK AO2 T00500039=
202301160920 SPECI KCLM 160920Z AUTO 00000KT 2 1/2SM BR FEW022 05/04 A2951 RMK AO2 T00500039=
202301160909 SPECI KCLM 160909Z AUTO 00000KT 6SM BR SCT022 SCT060 05/04 A2951 RMK AO2 T00500039=
202301160901 SPECI KCLM 160901Z AUTO 15003KT 2SM BR SCT022 BKN070 05/04 A2951 RMK AO2 T00500039=
202301160853 METAR KCLM 160853Z AUTO 00000KT 3/4SM BR FEW022 SCT048 BKN065 05/04 A2951 RMK AO2 SLP993 60000 T00500039 53020=
202301160814 SPECI KCLM 160814Z AUTO 00000KT 1 3/4SM BR SCT022 BKN039 BKN050 06/04 A2950 RMK AO2 T00610044=
202301160753 METAR KCLM 160753Z AUTO 00000KT 9SM OVC022 06/05 A2948 RMK AO2 SLP986 T00610050 401060039=
202301160653 METAR KCLM 160653Z AUTO 25003KT 10SM OVC020 07/05 A2947 RMK AO2 RAE00 SLP980 P0000 T00670050=
202301160625 SPECI KCLM 160625Z AUTO 00000KT 10SM BKN020 OVC060 07/06 A2946 RMK AO2 RAE00 P0000 T00720056=
202301160608 SPECI KCLM 160608Z AUTO 23003KT 10SM FEW022 OVC055 07/06 A2945 RMK AO2 RAE00 P0000 T00720056=
202301160553 METAR KCLM 160553Z AUTO 00000KT 9SM -RA BKN023 BKN049 OVC060 07/06 A2945 RMK AO2 SLP973 P0001 60003 T00670056 10094 20067 51021=
202301160453 METAR KCLM 160453Z AUTO 21003KT 10SM -RA BKN026 BKN039 OVC060 07/05 A2943 RMK AO2 RAB44 SLP968 P0000 T00720050=
202301160353 METAR KCLM 160353Z AUTO 24004KT 10SM FEW075 BKN090 OVC120 07/05 A2941 RMK AO2 SLP960 T00720050=
202301160253 METAR KCLM 160253Z AUTO 28004KT 10SM SCT070 BKN090 07/06 A2939 RMK AO2 RAB08E18 SLP952 P0000 60002 T00720056 51025=
202301160153 METAR KCLM 160153Z AUTO 27007KT 10SM FEW028 OVC070 08/06 A2936 RMK AO2 RAE27 SLP945 P0001 T00830056=
202301160053 METAR KCLM 160053Z AUTO 28005KT 9SM -RA OVC046 09/06 A2934 RMK AO2 RAB24 SLP936 P0001 T00890056=
202301160016 SPECI KCLM 160016Z AUTO 26003KT 10SM SCT023 OVC075 09/06 A2932 RMK AO2 T00940056=
202301152353 METAR KCLM 152353Z AUTO 26005KT 10SM OVC023 09/06 A2931 RMK AO2 SLP926 T00940056 10106 20083 53012=
202301152306 SPECI KCLM 152306Z AUTO VRB03KT 10SM BKN018 OVC080 10/06 A2929 RMK AO2 T01000061=
202301152253 METAR KCLM 152253Z AUTO 32003KT 10SM FEW018 OVC085 11/06 A2928 RMK AO2 SLP917 T01060061=
202301152153 METAR KCLM 152153Z AUTO 27009KT 10SM BKN075 10/06 A2927 RMK AO2 SLP913 T01000061=
202301152053 METAR KCLM 152053Z AUTO 24006KT 10SM BKN075 OVC090 10/06 A2928 RMK AO2 SLP914 T01000061 58001=
202301151953 METAR KCLM 151953Z AUTO 23007KT 10SM BKN080 OVC100 09/07 A2928 RMK AO2 SLP915 T00940067=
202301151910 SPECI KCLM 151910Z AUTO 20003KT 10SM FEW016 SCT065 BKN085 09/07 A2929 RMK AO2 T00890067=
202301151853 METAR KCLM 151853Z AUTO 25004KT 10SM BKN016 OVC090 08/06 A2928 RMK AO2 SLP918 T00830061=
202301151755 SPECI KCLM 151755Z AUTO 26004KT 10SM SCT008 OVC016 08/06 A2928 RMK AO2 T00830061=
202301151753 METAR KCLM 151753Z AUTO 26005KT 10SM BKN010 OVC018 08/07 A2928 RMK AO2 CIG 006V015 SLP916 60000 T00830067 10083 20039 50001=
202301151653 METAR KCLM 151653Z AUTO 00000KT 9SM OVC007 07/06 A2929 RMK AO2 SLP919 T00720061=
202301151553 METAR KCLM 151553Z AUTO 00000KT 10SM OVC007 07/06 A2927 RMK AO2 SLP914 T00670056=
202301151453 METAR KCLM 151453Z AUTO 00000KT 10SM OVC007 07/05 A2928 RMK AO2 CIG 006V012 SLP916 60000 T00670050 56004=
202301151358 SPECI KCLM 151358Z AUTO 00000KT 3SM BR BKN007 BKN011 OVC110 05/04 A2928 RMK AO2 T00500039=
202301151356 SPECI KCLM 151356Z AUTO 00000KT 2 1/2SM BR SCT007 BKN011 OVC110 05/04 A2928 RMK AO2 T00500039=
202301151353 METAR KCLM 151353Z AUTO 00000KT 1 1/2SM BR BKN009 OVC110 05/04 A2928 RMK AO2 CIG 007V013 SLP916 T00500039=
202301151333 SPECI KCLM 151333Z AUTO 22004KT 1 1/4SM BR FEW002 SCT009 BKN110 05/03 A2928 RMK AO2 T00500033=
202301151325 SPECI KCLM 151325Z AUTO 00000KT 2SM BR FEW002 SCT007 BKN110 04/03 A2928 RMK AO2 T00440033=
202301151315 SPECI KCLM 151315Z AUTO 00000KT 1/2SM FG SCT002 BKN110 06/04 A2928 RMK AO2 T00560039=
202301151312 SPECI KCLM 151312Z AUTO 00000KT 1/4SM FG BKN002 BKN110 05/04 A2928 RMK AO2 T00500039=
202301151303 SPECI KCLM 151303Z AUTO 00000KT 1/4SM FG SCT002 BKN019 BKN110 05/04 A2928 RMK AO2 T00500039=
202301151258 SPECI KCLM 151258Z AUTO 00000KT 1/2SM FG FEW002 SCT019 BKN110 06/04 A2928 RMK AO2 T00560044=
202301151253 METAR KCLM 151253Z AUTO 00000KT 1/4SM FG SCT002 BKN019 BKN110 06/04 A2928 RMK AO2 RAE04 SLP918 P0000 T00560044=
202301151240 SPECI KCLM 151240Z AUTO 00000KT 3/4SM BR FEW002 BKN018 BKN080 06/04 A2929 RMK AO2 RAE04 P0000 T00560044=
202301151238 SPECI KCLM 151238Z AUTO 14003KT 1 1/4SM BR FEW002 SCT015 BKN080 06/04 A2929 RMK AO2 VIS 3/4V4 RAE04 P0000 T00560044=
202301151225 SPECI KCLM 151225Z AUTO 15004KT 1/2SM FG FEW002 BKN016 BKN080 06/04 A2929 RMK AO2 RAE04 P0000 T00560044=
202301151217 SPECI KCLM 151217Z AUTO 00000KT 1 1/4SM BR FEW002 BKN016 OVC080 06/05 A2929 RMK AO2 VIS 1/2V5 RAE04 P0000 T00610050=
202301151208 SPECI KCLM 151208Z AUTO 00000KT 2 1/2SM BR OVC016 07/05 A2929 RMK AO2 RAE04 P0000 T00670050=
202301151153 METAR KCLM 151153Z AUTO 00000KT 10SM -RA OVC017 07/06 A2929 RMK AO2 RAB53 SLP920 P0000 60002 70002 T00720056 10083 20061 56005=
202301151143 SPECI KCLM 151143Z AUTO 00000KT 10SM SCT005 OVC017 07/06 A2930 RMK AO2 T00720056=
202301151120 SPECI KCLM 151120Z AUTO 00000KT 10SM BKN005 OVC013 08/06 A2930 RMK AO2 T00780061=
202301151107 SPECI KCLM 151107Z AUTO 00000KT 10SM FEW006 BKN012 OVC020 08/06 A2930 RMK AO2 T00780061=
202301151053 METAR KCLM 151053Z AUTO 24003KT 10SM BKN012 BKN018 OVC075 07/06 A2930 RMK AO2 SLP922 T00720061=
202301151019 SPECI KCLM 151019Z AUTO 27003KT 10SM SCT013 OVC018 07/06 A2930 RMK AO2 T00720056=
202301150953 METAR KCLM 150953Z AUTO 24004KT 10SM OVC012 07/06 A2929 RMK AO2 SLP920 T00720061=
202301150937 SPECI KCLM 150937Z AUTO 24003KT 10SM SCT009 OVC014 07/06 A2930 RMK AO2 T00720061=
202301150853 METAR KCLM 150853Z AUTO 00000KT 10SM OVC013 08/06 A2930 RMK AO2 RAE0758 SLP924 P0000 60002 T00830061 58004=
202301150800 SPECI KCLM 150800Z AUTO 00000KT 8SM OVC014 07/06 A2932 RMK AO2 RAE0758 P0000 T00720056=
202301150753 METAR KCLM 150753Z AUTO 23003KT 8SM -RA OVC015 07/06 A2932 RMK AO2 SLP930 P0002 T00720056 400890039=
202301150730 SPECI KCLM 150730Z AUTO 00000KT 9SM -RA BKN016 OVC055 07/06 A2932 RMK AO2 P0002 T00720061=
202301150653 METAR KCLM 150653Z AUTO 00000KT 10SM -RA OVC060 07/06 A2932 RMK AO2 RAB28 SLP931 P0000 T00720056=
202301150553 METAR KCLM 150553Z AUTO 16004KT 8SM FEW090 BKN110 06/04 A2932 RMK AO2 SLP929 T00610044 10083 20056 57003=
202301150453 METAR KCLM 150453Z AUTO 00000KT 6SM BR FEW110 06/05 A2932 RMK AO2 SLP929 T00610050=
202301150353 METAR KCLM 150353Z AUTO 17003KT 9SM FEW026 OVC120 06/05 A2933 RMK AO2 SLP932 T00610050=
202301150253 METAR KCLM 150253Z AUTO 17003KT 10SM CLR 07/05 A2933 RMK AO2 SLP932 T00670050 58005=
202301150236 SPECI KCLM 150236Z AUTO 21003KT 4SM BR CLR 06/04 A2933 RMK AO2 T00560044=
202301150227 SPECI KCLM 150227Z AUTO 19003KT 2SM BR CLR 06/04 A2933 RMK AO2 T00560044=
202301150213 SPECI KCLM 150213Z AUTO 00000KT 1SM BR VV001 06/04 A2933 RMK AO2 T00560044=
202301150210 SPECI KCLM 150210Z AUTO 16003KT 3/4SM BR CLR 06/04 A2933 RMK AO2 T00560044=
202301150201 SPECI KCLM 150201Z AUTO 00000KT 3/4SM BR VV001 06/05 A2933 RMK AO2 T00610050=
202301150153 METAR KCLM 150153Z AUTO 00000KT 1 1/4SM BR CLR 06/04 A2933 RMK AO2 SLP934 T00610044=
202301150150 SPECI KCLM 150150Z AUTO 00000KT 1 1/2SM BR CLR 06/04 A2933 RMK AO2=
202301150137 SPECI KCLM 150137Z AUTO 22003KT 2SM BR CLR 07/05 A2934 RMK AO2 VIS 1 1/4V5 T00670050=
202301150124 SPECI KCLM 150124Z AUTO 21003KT 5SM BR CLR 07/06 A2934 RMK AO2 T00670056=
202301150117 SPECI KCLM 150117Z AUTO 22003KT 2 1/2SM BR CLR 07/06 A2934 RMK AO2 T00720061=
202301150053 METAR KCLM 150053Z AUTO 00000KT 3/4SM BR CLR 07/06 A2934 RMK AO2 SLP937 T00720061=
202301150049 SPECI KCLM 150049Z AUTO 00000KT 1/2SM FG CLR 07/06 A2934 RMK AO2=
202301150040 SPECI KCLM 150040Z AUTO 00000KT 1 1/2SM BR CLR 08/06 A2934 RMK AO2 T00780061=
202301150034 SPECI KCLM 150034Z AUTO 00000KT 4SM BR CLR 08/06 A2934 RMK AO2 T00780061=
202301150025 SPECI KCLM 150025Z AUTO 00000KT 2 1/2SM BR CLR 08/06 A2934 RMK AO2 T00780061=
202301142353 METAR KCLM 142353Z AUTO 13003KT 10SM CLR 08/06 A2934 RMK AO2 SLP938 T00830061 10089 20061 56021=
202301142253 METAR KCLM 142253Z AUTO 00000KT 10SM FEW004 09/07 A2936 RMK AO2 SLP943 T00890067 $=
202301142214 SPECI KCLM 142214Z AUTO 00000KT 10SM SCT004 09/07 A2937 RMK AO2 T00890067 $=
202301142153 METAR KCLM 142153Z AUTO 00000KT 10SM OVC003 08/07 A2937 RMK AO2 SLP948 T00830067 $=
202301142053 METAR KCLM 142053Z AUTO 00000KT 7SM OVC003 08/07 A2941 RMK AO2 SLP959 T00780067 58031 $=
202301141953 METAR KCLM 141953Z AUTO 00000KT 7SM OVC003 08/07 A2943 RMK AO2 CIG 002V006 SLP968 T00830067 $=
202301141853 METAR KCLM 141853Z AUTO 00000KT 10SM OVC006 07/06 A2947 RMK AO2 CIG 002V007 SLP981 T00720061 $=
202301141822 SPECI KCLM 141822Z AUTO 00000KT 7SM OVC008 07/06 A2948 RMK AO2 T00720061 $=
202301141812 SPECI KCLM 141812Z AUTO 00000KT 2SM BR FEW001 OVC008 07/05 A2949 RMK AO2 VIS 1 1/4V4 T00670050 $=
202301141801 SPECI KCLM 141801Z AUTO 00000KT 1 3/4SM BR SCT001 OVC010 07/05 A2949 RMK AO2 T00670050 $=
202301141759 SPECI KCLM 141759Z AUTO 00000KT 3SM BR SCT001 BKN010 06/05 A2949 RMK AO2 T00610050 $=
202301141753 METAR KCLM 141753Z AUTO 00000KT 1SM BR BKN003 BKN010 07/06 A2950 RMK AO2 SLP989 T00670056 10067 20044 58020 $=
202301141737 SPECI KCLM 141737Z AUTO 00000KT 1/4SM FG VV002 06/05 A2950 RMK AO2 T00610050 $=
202301141729 SPECI KCLM 141729Z AUTO 00000KT M1/4SM FG VV003 06/05 A2951 RMK AO2 T00610050 $=
202301141653 METAR KCLM 141653Z AUTO 00000KT M1/4SM FG VV001 06/05 A2952 RMK AO2 SLP997 T00610050 $=
202301141644 SPECI KCLM 141644Z AUTO 00000KT M1/4SM FG VV001 06/05 A2953 RMK AO2 T00560050 $=
202301141629 SPECI KCLM 141629Z AUTO 00000KT M1/4SM FG VV002 06/04 A2953 RMK AO2 T00560044 $=
202301141553 METAR KCLM 141553Z AUTO 26004KT 1/4SM FG VV001 06/04 A2954 RMK AO2 SLP004 T00610044 $=
202301141535 SPECI KCLM 141535Z AUTO 00000KT M1/4SM FG VV001 06/06 A2954 RMK AO2 T00610056 $=
202301141505 SPECI KCLM 141505Z AUTO 00000KT 1/4SM FG VV001 06/04 A2955 RMK AO2 T00610044 $=
202301141453 METAR KCLM 141453Z AUTO 00000KT 1/2SM FG VV001 06/04 A2956 RMK AO2 SLP011 T00560044 58017 $=
202301141449 SPECI KCLM 141449Z AUTO 00000KT 1/4SM FG VV001 06/04 A2956 RMK AO2 $=
202301141442 SPECI KCLM 141442Z AUTO 00000KT 3/4SM BR BKN002 OVC070 06/04 A2956 RMK AO2 T00610044 $=
202301141438 SPECI KCLM 141438Z AUTO 00000KT 5SM BR BKN002 OVC070 06/04 A2956 RMK AO2 T00560044 $=
202301141419 SPECI KCLM 141419Z AUTO 15004KT 5SM BR SCT002 BKN070 BKN110 05/04 A2957 RMK AO2 T00500039 $=
202301141411 SPECI KCLM 141411Z AUTO 00000KT 2 1/2SM BR FEW002 SCT070 BKN110 05/04 A2957 RMK AO2 VIS 1 1/4V4 T00500044 $=
202301141353 METAR KCLM 141353Z AUTO 15003KT 7SM FEW015 SCT085 06/04 A2958 RMK AO2 SLP017 T00560044 $=
202301141324 SPECI KCLM 141324Z AUTO 00000KT 10SM FEW001 BKN080 BKN095 06/04 A2958 RMK AO2 T00560044 $=
202301141307 SPECI KCLM 141307Z AUTO 00000KT 7SM FEW001 BKN016 OVC120 06/04 A2959 RMK AO2 T00560044 $=
202301141253 METAR KCLM 141253Z AUTO 18004KT 10SM OVC016 06/04 A2959 RMK AO2 SLP022 T00560044 $=
202301141200 SPECI KCLM 141200Z AUTO 00000KT 4SM BR FEW001 BKN016 04/03 A2961 RMK AO2 T00440033 $=
202301141153 METAR KCLM 141153Z AUTO 00000KT 2 1/2SM BR BKN016 04/03 A2961 RMK AO2 SLP028 60003 70008 T00440033 10094 20039 51005 $=
202301141144 SPECI KCLM 141144Z AUTO 00000KT 2 1/2SM BR BKN015 04/03 A2961 RMK AO2 T00390028 $=
202301141140 SPECI KCLM 141140Z AUTO 17003KT 4SM BR SCT015 04/03 A2961 RMK AO2 T00440033 $=
202301141132 SPECI KCLM 141132Z AUTO 22003KT 2 1/2SM BR FEW015 06/04 A2961 RMK AO2 VIS 1V5 T00560044 $=
202301141113 SPECI KCLM 141113Z AUTO 14003KT 3SM BR CLR 05/04 A2961 RMK AO2 T00500039 $=
202301141100 SPECI KCLM 141100Z AUTO 00000KT 1 3/4SM BR CLR 06/04 A2961 RMK AO2 VIS 3/4V5 T00560044 $=
202301141053 METAR KCLM 141053Z AUTO 00000KT 4SM BR CLR 06/04 A2961 RMK AO2 SLP026 T00610044 $=
202301141000 SPECI KCLM 141000Z AUTO 23005KT FEW001 FEW016 06/04 A2960 RMK AO2 T00610044 $=
202301140953 METAR KCLM 140953Z AUTO 00000KT FEW016 05/04 A2960 RMK AO2 SLP025 T00500039 $=
202301140922 SPECI KCLM 140922Z AUTO 00000KT FEW001 07/05 A2960 RMK AO2 T00670050 $=
202301140853 METAR KCLM 140853Z AUTO 00000KT FEW037 SCT060 07/06 A2959 RMK AO2 RAE18 SLP022 P0000 60003 T00720056 58003 $=
202301140753 METAR KCLM 140753Z AUTO 20004KT -RA BKN065 09/07 A2961 RMK AO2 SLP026 P0001 T00890072 401330083 $=
202301140653 METAR KCLM 140653Z AUTO 00000KT -RA OVC065 09/08 A2961 RMK AO2 RAB00 SLP028 P0002 T00940078 $=
202301140630 SPECI KCLM 140630Z AUTO 19003KT -RA SCT003 SCT013 OVC060 09/08 A2961 RMK AO2 RAB00 P0001 T00940078 $=
202301140553 METAR KCLM 140553Z AUTO 15004KT OVC002 09/08 A2960 RMK AO2 RAE36 CIG 001V005 SLP025 P0001 60005 T00940078 10100 20083 55003 $=
202301140536 SPECI KCLM 140536Z AUTO 12003KT BKN003 BKN043 BKN070 09/08 A2960 RMK AO2 RAE36 P0001 T00940078 $=
202301140523 SPECI KCLM 140523Z AUTO 11006KT -RA FEW005 BKN047 BKN070 10/08 A2959 RMK AO2 P0001 T01000078 $=
202301140453 METAR KCLM 140453Z AUTO 18003KT -RA OVC050 10/07 A2960 RMK AO2 RAB02 SLP023 P0004 T01000072 $=
202301140353 METAR KCLM 140353Z AUTO 00000KT FEW055 BKN075 OVC095 08/07 A2961 RMK AO2 RAB0257E06B33E48 SLP027 P0000 T00830072 $=
202301140253 METAR KCLM 140253Z AUTO 00000KT BKN065 OVC080 09/07 A2961 RMK AO2 SLP028 60000 T00890072 58014 $=
202301140153 METAR KCLM 140153Z AUTO 00000KT FEW023 FEW060 OVC080 09/08 A2963 RMK AO2 RAE05 SLP035 P0000 T00890078 $=
202301140053 METAR KCLM 140053Z AUTO 00000KT -RA SCT070 BKN085 09/07 A2965 RMK AO2 RAB50 SLP039 P0000 T00890072 $=
202301132353 METAR KCLM 132353Z AUTO 00000KT FEW065 10/08 A2966 RMK AO2 SLP043 T01000083 10133 20100 56010=
202301132303 SPECI KCLM 132303Z AUTO 00000KT FEW025 OVC070 11/08 A2967 RMK AO2 T01060083=
202301132253 METAR KCLM 132253Z AUTO 36003KT BKN025 OVC075 11/08 A2966 RMK AO2 SLP046 T01060083=
202301132237 SPECI KCLM 132237Z AUTO 00000KT BKN025 OVC065 13/09 A2966 RMK AO2 T01330089=
202301132153 METAR KCLM 132153Z AUTO 09003KT FEW020 OVC070 13/09 A2967 RMK AO2 SLP049 T01280089=
202301132104 SPECI KCLM 132104Z AUTO 10006KT SCT021 BKN065 12/09 A2969 RMK AO2 T01220089=
202301132053 METAR KCLM 132053Z AUTO 11004KT BKN019 BKN065 12/09 A2969 RMK AO2 SLP053 T01220089 58015 $=
202301132032 SPECI KCLM 132032Z AUTO 11005KT SCT014 OVC019 12/09 A2970 RMK AO2 T01220094 $=
202301131953 METAR KCLM 131953Z AUTO 07003KT BKN012 OVC070 12/09 A2971 RMK AO2 SLP061 T01220089 $=
202301131853 METAR KCLM 131853Z AUTO 08003KT CLR 12/09 A2972 RMK AO2 SLP066 T01220089 $=
202301131753 METAR KCLM 131753Z AUTO 21003KT 10SM FEW012 BKN060 OVC080 11/09 A2973 RMK AO2 RAE16 SLP069 P0000 60000 T01060094 10106 20083 53014=
202301131746 SPECI KCLM 131746Z AUTO 23003KT 10SM FEW012 BKN060 OVC080 11/09 A2973 RMK AO2 RAE16 P0000 T01060089=
202301131733 SPECI KCLM 131733Z AUTO 00000KT 10SM SCT012 BKN022 OVC055 11/09 A2973 RMK AO2 RAE16 P0000 T01060089=
202301131708 SPECI KCLM 131708Z AUTO 00000KT 10SM -RA SCT010 OVC060 11/09 A2972 RMK AO2 P0000 T01060089=
202301131653 METAR KCLM 131653Z AUTO 00000KT 10SM -RA BKN010 OVC060 10/09 A2972 RMK AO2 RAE1557B44 SLP064 P0000 T01000089=
202301131553 METAR KCLM 131553Z AUTO 00000KT 10SM -RA FEW011 OVC060 10/08 A2971 RMK AO2 RAB12 SLP060 P0000 T01000083=
202301131453 METAR KCLM 131453Z AUTO 27005KT 10SM OVC050 10/08 A2969 RMK AO2 SLP055 60000 T01000083 53007=
202301131420 SPECI KCLM 131420Z AUTO 30006KT 10SM SCT002 OVC055 09/08 A2968 RMK AO2 T00940078=
202301131353 METAR KCLM 131353Z AUTO 29006KT 4SM BR BKN001 OVC050 09/08 A2967 RMK AO2 SLP049 T00940078=
202301131350 SPECI KCLM 131350Z AUTO 30006KT 4SM BR BKN001 OVC055 09/08 A2967 RMK AO2=
202301131337 SPECI KCLM 131337Z AUTO 28006KT 7SM FEW002 BKN050 OVC060 09/07 A2966 RMK AO2 T00890072=
202301131253 METAR KCLM 131253Z AUTO 00000KT 7SM OVC055 09/08 A2967 RMK AO2 RAE15 SLP048 P0000 T00890078=
202301131153 METAR KCLM 131153Z AUTO 10003KT 5SM -RA BR FEW004 BKN050 OVC060 09/08 A2970 RMK AO2 RAE26B49 SLP058 P0001 60002 70049 T00940078 10100 20089 58010=
202301131131 SPECI KCLM 131131Z AUTO 24003KT 10SM SCT003 BKN050 OVC060 09/08 A2971 RMK AO2 RAE26 P0001 T00940083=
202301131053 METAR KCLM 131053Z AUTO 27005KT 8SM -RA BKN003 OVC060 09/08 A2972 RMK AO2 SLP066 P0000 T00940078=
202301130953 METAR KCLM 130953Z AUTO 00000KT 10SM -RA SCT006 BKN055 OVC075 10/08 A2972 RMK AO2 RAB38 SLP064 P0000 T01000083=
202301130935 SPECI KCLM 130935Z AUTO 34003KT 9SM FEW006 BKN060 OVC075 10/08 A2971 RMK AO2 T01000083=
202301130853 METAR KCLM 130853Z AUTO 00000KT 3SM BR BKN060 OVC075 09/07 A2973 RMK AO2 SLP068 60001 T00890072 58013=
202301130830 SPECI KCLM 130830Z AUTO 23003KT 8SM SCT006 OVC060 09/08 A2974 RMK AO2 T00940078=
202301130820 SPECI KCLM 130820Z AUTO 00000KT 7SM BKN004 OVC055 09/08 A2974 RMK AO2 T00940078=
202301130808 SPECI KCLM 130808Z AUTO 00000KT 6SM BR SCT004 OVC060 09/08 A2975 RMK AO2 T00940083=
202301130753 METAR KCLM 130753Z AUTO 23003KT 9SM BKN003 OVC060 09/08 A2976 RMK AO2 RAB0654E37 SLP079 P0001 T00940083 401110072=
202301130727 SPECI KCLM 130727Z AUTO 30004KT 5SM -RA BR BKN002 OVC060 09/08 A2977 RMK AO2 RAB0654 P0001 T00940083=
202301130653 METAR KCLM 130653Z AUTO 24004KT 10SM FEW003 OVC060 09/08 A2978 RMK AO2 RAB39E47 SLP084 P0000 T00940083=
202301130603 SPECI KCLM 130603Z AUTO 26003KT 5SM BR FEW004 OVC055 09/08 A2977 RMK AO2 T00940078=
202301130553 METAR KCLM 130553Z AUTO 00000KT 6SM BR OVC055 09/08 A2977 RMK AO2 RAE08 SLP081 P0000 60005 T00940078 10106 20083 53001=
202301130453 METAR KCLM 130453Z AUTO 25003KT 7SM -RA FEW050 BKN060 OVC075 09/08 A2975 RMK AO2 SLP076 P0001 T00890078=
202301130421 SPECI KCLM 130421Z AUTO 28004KT 3SM -RA BR BKN070 OVC080 09/08 A2976 RMK AO2 P0001 T00890078=
202301130353 METAR KCLM 130353Z AUTO 00000KT 1SM -RA BR OVC070 09/07 A2976 RMK AO2 RAB00 SLP078 P0001 T00890072=
202301130346 SPECI KCLM 130346Z AUTO 00000KT 1 1/4SM -RA BR OVC070 09/07 A2976 RMK AO2 RAB00 P0000 T00890072=
202301130330 SPECI KCLM 130330Z AUTO 00000KT 2SM -RA BR SCT060 OVC080 09/08 A2976 RMK AO2 RAB00 P0000 T00890078=
202301130313 SPECI KCLM 130313Z AUTO 00000KT 1 1/2SM -RA BR FEW050 BKN060 OVC075 09/08 A2976 RMK AO2 RAB00 P0000 T00890078=
202301130253 METAR KCLM 130253Z AUTO 00000KT 3/4SM BR BKN055 OVC075 09/08 A2977 RMK AO2 RAE53 SLP080 P0001 60003 T00940083 55003=
202301130241 SPECI KCLM 130241Z AUTO 32003KT 1 1/4SM -RA BR BKN050 OVC075 09/08 A2976 RMK AO2 P0001 T00940078=
202301130229 SPECI KCLM 130229Z AUTO 22003KT 2 1/2SM -RA BR FEW041 BKN050 OVC075 09/08 A2976 RMK AO2 VIS 1 3/4V5 P0001 T00940083=
202301130153 METAR KCLM 130153Z AUTO 00000KT 1SM -RA BR BKN032 OVC070 09/08 A2976 RMK AO2 SLP077 P0001 T00940083=
202301130142 SPECI KCLM 130142Z AUTO 00000KT 1 3/4SM -RA BR BKN027 OVC070 09/08 A2976 RMK AO2 P0001 T00940083=
202301130138 SPECI KCLM 130138Z AUTO 00000KT 2SM -RA BR BKN040 OVC070 09/08 A2976 RMK AO2 P0001 T00940083=
202301130130 SPECI KCLM 130130Z AUTO 28005KT 3/4SM -RA BR BKN036 OVC070 09/08 A2976 RMK AO2 P0001 T00940083=
202301130117 SPECI KCLM 130117Z AUTO 29003KT 1 1/4SM -RA BR BKN060 OVC070 10/08 A2976 RMK AO2 P0000 T01000083=
202301130107 SPECI KCLM 130107Z AUTO 00000KT 3/4SM -RA BR BKN050 OVC070 10/08 A2976 RMK AO2 P0000 T01000083=
202301130053 METAR KCLM 130053Z AUTO 00000KT 1 1/2SM -RA BR OVC070 10/09 A2976 RMK AO2 SLP077 P0001 T01000089=
202301130050 SPECI KCLM 130050Z AUTO 00000KT 1 3/4SM -RA BR OVC070 10/09 A2976 RMK AO2 VIS 3/4V5 P0001=
202301122353 METAR KCLM 122353Z AUTO 08003KT 6SM -RA BR OVC080 11/09 A2977 RMK AO2 SLP083 P0003 60032 T01060089 10111 20094 55007=
202301122253 METAR KCLM 122253Z AUTO 00000KT 7SM -RA OVC055 11/09 A2976 RMK AO2 SLP079 P0003 T01060094=
202301122218 SPECI KCLM 122218Z AUTO 00000KT 5SM -RA BR SCT002 BKN060 OVC075 11/09 A2977 RMK AO2 P0002 T01060089=
202301122153 METAR KCLM 122153Z AUTO 00000KT 4SM -RA BR BKN060 OVC075 10/08 A2978 RMK AO2 SLP084 P0008 T01000083=
202301122127 SPECI KCLM 122127Z AUTO 00000KT 3SM -RA BR BKN055 OVC070 10/08 A2979 RMK AO2 P0005 T01000083=
202301122053 METAR KCLM 122053Z AUTO 08003KT 2 1/2SM -RA BR SCT004 OVC055 10/08 A2980 RMK AO2 SLP090 P0011 60018 T01000083 58002=
202301122042 SPECI KCLM 122042Z AUTO 00000KT 2SM RA BR SCT002 BKN048 OVC065 10/08 A2980 RMK AO2 P0009 T01000083=
202301122031 SPECI KCLM 122031Z AUTO 00000KT 2 1/2SM -RA BR BKN002 BKN037 OVC065 10/08 A2981 RMK AO2 P0006 T01000083=
202301122029 SPECI KCLM 122029Z AUTO 00000KT 3SM -RA BR SCT002 BKN037 OVC060 10/08 A2981 RMK AO2 P0006 T01000083=
202301122019 SPECI KCLM 122019Z AUTO 00000KT 2 1/2SM RA BR FEW002 BKN035 OVC070 10/08 A2981 RMK AO2 P0004 T01000083=
202301121953 METAR KCLM 121953Z AUTO 00000KT 4SM -RA BR FEW004 BKN060 OVC070 10/09 A2981 RMK AO2 RAB1854 SLP095 P0006 T01000089=
202301121936 SPECI KCLM 121936Z AUTO 00000KT 5SM -RA BR FEW002 SCT055 OVC070 10/08 A2981 RMK AO2 RAB1854 P0004 T01000083=
202301121853 METAR KCLM 121853Z AUTO 00000KT 10SM FEW048 BKN065 OVC080 10/08 A2981 RMK AO2 RAE12 SLP095 P0001 T01000083=
202301121843 SPECI KCLM 121843Z AUTO 12003KT 10SM FEW004 FEW050 OVC070 10/08 A2981 RMK AO2 RAE12 P0001 T01000083=
202301121753 METAR KCLM 121753Z AUTO 26004KT 9SM -RA FEW060 OVC075 09/08 A2980 RMK AO2 SLP092 P0002 60010 T00940078 10094 20072 51021=
202301121653 METAR KCLM 121653Z AUTO 00000KT 9SM -RA SCT065 OVC080 08/07 A2978 RMK AO2 SLP088 P0001 T00830067=
202301121553 METAR KCLM 121553Z AUTO VRB03KT 10SM -RA OVC080 07/06 A2976 RMK AO2 SLP080 P0000 T00720061=
202301121453 METAR KCLM 121453Z AUTO 28005KT 10SM -RA BKN060 OVC075 08/06 A2974 RMK AO2 SLP072 P0003 60007 T00780061 53012=
202301121353 METAR KCLM 121353Z AUTO 30004KT 10SM -RA BKN065 OVC085 08/06 A2971 RMK AO2 SLP063 P0002 T00780061=
202301121253 METAR KCLM 121253Z AUTO 00000KT 10SM -RA OVC070 08/06 A2970 RMK AO2 SLP060 P0002 T00780061=
202301121153 METAR KCLM 121153Z AUTO 23003KT 10SM -RA FEW060 OVC085 08/05 A2970 RMK AO2 RAB41 SLP059 P0000 60000 T00830050 10089 20067 56003=
202301121053 METAR KCLM 121053Z AUTO 00000KT 10SM BKN080 OVC090 08/04 A2971 RMK AO2 RAB24E48 SLP062 P0000 T00780044=
202301120953 METAR KCLM 120953Z AUTO VRB03KT 10SM FEW050 SCT065 BKN110 08/04 A2970 RMK AO2 SLP057 T00830044=
202301120853 METAR KCLM 120853Z AUTO 23006KT 10SM BKN070 OVC090 08/04 A2971 RMK AO2 SLP062 60000 T00780044 58010=
202301120753 METAR KCLM 120753Z AUTO 05003KT 10SM FEW070 BKN100 08/04 A2973 RMK AO2 SLP066 T00780044 400940028=
202301120653 METAR KCLM 120653Z AUTO VRB03KT 10SM FEW070 BKN090 OVC110 09/04 A2973 RMK AO2 RAE15 SLP069 P0000 T00890044=
202301120553 METAR KCLM 120553Z AUTO 00000KT 10SM -RA FEW049 BKN075 OVC090 07/05 A2974 RMK AO2 RAB35 SLP073 P0000 60000 T00670050 10089 20056 58011=
202301120453 METAR KCLM 120453Z AUTO 00000KT 10SM FEW060 OVC100 07/05 A2975 RMK AO2 SLP077 T00670050=
202301120353 METAR KCLM 120353Z AUTO 18005KT 10SM BKN060 OVC110 06/04 A2977 RMK AO2 SLP084 T00610044=
202301120253 METAR KCLM 120253Z AUTO 00000KT 10SM BKN080 OVC100 07/05 A2978 RMK AO2 SLP085 T00720050 58004=
202301120153 METAR KCLM 120153Z AUTO 00000KT 10SM OVC080 07/05 A2978 RMK AO2 SLP086 T00670050=
202301120053 METAR KCLM 120053Z AUTO 00000KT 10SM BKN085 08/06 A2979 RMK AO2 SLP091 T00780056=
202301112353 METAR KCLM 112353Z AUTO 00000KT 10SM BKN090 OVC110 09/06 A2979 RMK AO2 SLP088 T00890061 10094 20067 58019=
202301112253 METAR KCLM 112253Z AUTO 00000KT 10SM CLR 08/06 A2981 RMK AO2 SLP095 T00830056=
202301112153 METAR KCLM 112153Z AUTO 00000KT 10SM CLR 08/05 A2983 RMK AO2 SLP103 T00830050=
202301112053 METAR KCLM 112053Z AUTO 00000KT 10SM FEW080 09/06 A2984 RMK AO2 SLP107 T00890056 58003=
202301111953 METAR KCLM 111953Z AUTO 28003KT 10SM OVC075 08/06 A2986 RMK AO2 SLP112 T00830056=
202301111853 METAR KCLM 111853Z AUTO 25004KT 10SM FEW005 OVC080 08/06 A2987 RMK AO2 SLP116 T00780056=
202301111832 SPECI KCLM 111832Z AUTO 27003KT 10SM FEW005 OVC080 08/05 A2987 RMK AO2 T00780050=
202301111753 METAR KCLM 111753Z AUTO 24004KT 10SM OVC090 07/04 A2985 RMK AO2 SLP111 T00670044 10067 20028 53022=
202301111653 METAR KCLM 111653Z AUTO 26004KT 10SM FEW080 BKN095 04/02 A2982 RMK AO2 SLP101 T00390022=
202301111553 METAR KCLM 111553Z AUTO 22006KT 10SM SCT095 04/02 A2980 RMK AO2 SLP094 T00390022=
202301111453 METAR KCLM 111453Z AUTO 23006KT 10SM BKN070 OVC100 04/02 A2979 RMK AO2 SLP088 T00440022 53014=
202301111353 METAR KCLM 111353Z AUTO 25003KT 10SM SCT070 BKN095 05/03 A2977 RMK AO2 SLP082 T00500028=
202301111253 METAR KCLM 111253Z AUTO 24006KT 10SM BKN080 BKN095 04/03 A2975 RMK AO2 SLP077 T00440028=
202301111236 SPECI KCLM 111236Z AUTO 26007KT 10SM SCT010 BKN080 04/02 A2976 RMK AO2 T00390022=
202301111229 SPECI KCLM 111229Z AUTO 24004KT 10SM BKN009 OVC080 04/03 A2975 RMK AO2 CIG 007V012 T00390028=
202301111216 SPECI KCLM 111216Z AUTO 26006KT 10SM SCT009 BKN075 BKN085 04/02 A2975 RMK AO2 T00390022=
202301111153 METAR KCLM 111153Z AUTO 26007KT 10SM FEW011 SCT075 SCT090 03/02 A2975 RMK AO2 SLP075 T00280017 10072 20028 53014=
202301111125 SPECI KCLM 111125Z AUTO 23004KT 10SM SCT011 BKN080 04/02 A2974 RMK AO2 T00390022=
202301111110 SPECI KCLM 111110Z AUTO 22005KT 10SM BKN011 04/03 A2973 RMK AO2 T00440028=
202301111053 METAR KCLM 111053Z AUTO 00000KT 10SM OVC009 05/03 A2973 RMK AO2 SLP070 T00500033=
202301111012 SPECI KCLM 111012Z AUTO 24004KT 10SM OVC009 04/03 A2972 RMK AO2 T00440033=
202301110953 METAR KCLM 110953Z AUTO 00000KT 10SM OVC011 04/03 A2971 RMK AO2 SLP063 T00440033=
202301110916 SPECI KCLM 110916Z AUTO 00000KT 4SM BR OVC011 04/03 A2971 RMK AO2 T00390028=
202301110908 SPECI KCLM 110908Z AUTO 00000KT 2 1/2SM BR OVC012 04/03 A2971 RMK AO2 T00390028=
202301110900 SPECI KCLM 110900Z AUTO 00000KT 3SM BR OVC012 04/03 A2970 RMK AO2 T00390033=
202301110853 METAR KCLM 110853Z AUTO 00000KT 1 1/4SM BR FEW001 OVC012 04/03 A2970 RMK AO2 SLP060 T00390028 51002=
202301110848 SPECI KCLM 110848Z AUTO 00000KT 1 1/4SM BR FEW001 BKN012 03/03 A2970 RMK AO2=
202301110837 SPECI KCLM 110837Z AUTO 00000KT 1/2SM FG FEW001 BKN012 05/03 A2970 RMK AO2 T00500033=
202301110834 SPECI KCLM 110834Z AUTO 00000KT 1/4SM FG SCT001 SCT012 04/03 A2970 RMK AO2 T00440033=
202301110828 SPECI KCLM 110828Z AUTO 00000KT 1/2SM FG VV001 05/03 A2970 RMK AO2 T00500033=
202301110813 SPECI KCLM 110813Z AUTO 00000KT 3/4SM BR FEW002 SCT017 04/03 A2970 RMK AO2 T00440033=
202301110805 SPECI KCLM 110805Z AUTO 00000KT 1 3/4SM BR SCT017 SCT090 06/04 A2971 RMK AO2 VIS 1/2V5 T00560039=
202301110753 METAR KCLM 110753Z AUTO 00000KT 10SM BKN017 OVC090 06/04 A2971 RMK AO2 SLP061 T00610044 400940017=
202301110716 SPECI KCLM 110716Z AUTO 11006KT 10SM FEW009 OVC017 06/04 A2970 RMK AO2 T00610044=
202301110653 METAR KCLM 110653Z AUTO 13005KT 10SM OVC018 06/04 A2970 RMK AO2 SLP058 T00560039=
202301110602 SPECI KCLM 110602Z AUTO 11006KT 10SM BKN020 BKN110 04/03 A2968 RMK AO2 T00440028=
202301110553 METAR KCLM 110553Z AUTO 11005KT 10SM SCT019 BKN110 05/03 A2968 RMK AO2 SLP052 T00500033 10089 20017 51019=
202301110453 METAR KCLM 110453Z AUTO 17003KT 6SM BR CLR 02/01 A2966 RMK AO2 SLP048 T00170006=
202301110430 SPECI KCLM 110430Z AUTO 14003KT 5SM BR FEW026 02/01 A2966 RMK AO2 T00220011=
202301110423 SPECI KCLM 110423Z AUTO 00000KT 2 1/2SM BR FEW002 SCT026 03/01 A2965 RMK AO2 T00280011=
202301110414 SPECI KCLM 110414Z AUTO 00000KT 2 1/2SM BR FEW002 BKN026 03/01 A2965 RMK AO2 VIS 1 1/4V5 T00280011=
202301110353 METAR KCLM 110353Z AUTO 21003KT 5SM BR SCT009 BKN027 03/01 A2964 RMK AO2 SLP041 T00280011=
202301110331 SPECI KCLM 110331Z AUTO 00000KT 10SM SCT009 03/02 A2964 RMK AO2 T00330017=
202301110253 METAR KCLM 110253Z AUTO 21004KT 6SM BR BKN009 03/01 A2963 RMK AO2 SLP033 T00280011 53002=
202301110249 SPECI KCLM 110249Z AUTO 22004KT 6SM BR SCT009 03/02 A2963 RMK AO2=
202301110153 METAR KCLM 110153Z AUTO 00000KT 10SM CLR 03/02 A2961 RMK AO2 SLP030 T00330017=
202301110101 SPECI KCLM 110101Z AUTO 14004KT 4SM BR CLR 03/02 A2962 RMK AO2 T00330022=
202301110053 METAR KCLM 110053Z AUTO 00000KT 1SM BR CLR 04/03 A2962 RMK AO2 VIS 1/2V5 SLP031 T00440028=
202301110047 SPECI KCLM 110047Z AUTO 00000KT 1 3/4SM BR CLR 04/03 A2962 RMK AO2=
202301102353 METAR KCLM 102353Z AUTO 10004KT 10SM CLR 09/04 A2962 RMK AO2 SLP032 T00890039 10094 20067 56008=
202301102253 METAR KCLM 102253Z AUTO 14007KT 10SM CLR 09/05 A2962 RMK AO2 SLP033 T00890050=
202301102153 METAR KCLM 102153Z AUTO 14005KT 10SM CLR 09/06 A2964 RMK AO2 SLP038 T00890056=
202301102112 SPECI KCLM 102112Z AUTO 15006KT 10SM SCT007 SCT013 08/05 A2964 RMK AO2 T00830050=
202301102053 METAR KCLM 102053Z AUTO 13003KT 10SM OVC007 08/05 A2964 RMK AO2 SLP040 T00780050 58002=
202301101953 METAR KCLM 101953Z AUTO 10004KT 10SM OVC006 08/05 A2965 RMK AO2 CIG 005V011 SLP041 T00780050=
202301101853 METAR KCLM 101853Z AUTO VRB03KT 10SM BKN007 OVC010 08/06 A2965 RMK AO2 CIG 005V009 SLP043 T00830056=
202301101843 SPECI KCLM 101843Z AUTO 03003KT 10SM SCT007 BKN012 08/06 A2966 RMK AO2 T00780056=
202301101753 METAR KCLM 101753Z AUTO 00000KT 10SM FEW001 07/06 A2965 RMK AO2 SLP043 60000 T00670056 10067 20028 56007=
202301101733 SPECI KCLM 101733Z AUTO 00000KT 5SM BR FEW001 06/04 A2965 RMK AO2 T00610044=
202301101720 SPECI KCLM 101720Z AUTO 00000KT 7SM CLR 05/03 A2965 RMK AO2 T00500033=
202301101653 METAR KCLM 101653Z AUTO 22003KT 2 1/2SM BR CLR 04/03 A2965 RMK AO2 VIS 1 1/4V5 SLP043 T00390028=
202301101648 SPECI KCLM 101648Z AUTO VRB03KT 2SM BR CLR 04/03 A2965 RMK AO2=
202301101624 SPECI KCLM 101624Z AUTO 00000KT 1/2SM FG FEW004 FEW008 04/02 A2965 RMK AO2 T00390022=
202301101618 SPECI KCLM 101618Z AUTO 00000KT 1/2SM FG VV006 03/02 A2966 RMK AO2 T00280017=
202301101604 SPECI KCLM 101604Z AUTO 00000KT 1 3/4SM BR BKN006 04/03 A2966 RMK AO2 VIS 3/4V5 CIG 005V009 T00390028=
202301101553 METAR KCLM 101553Z AUTO 00000KT 4SM BR BKN005 04/03 A2966 RMK AO2 SLP045 T00390033=
202301101537 SPECI KCLM 101537Z AUTO 21003KT 9SM SCT005 SCT012 05/03 A2966 RMK AO2 T00500033=
202301101453 METAR KCLM 101453Z AUTO 24004KT 10SM BKN005 BKN090 OVC110 06/04 A2967 RMK AO2 CIG 004V012 SLP050 60000 T00610044 53005=
202301101443 SPECI KCLM 101443Z AUTO 25005KT 10SM FEW006 BKN090 OVC110 06/04 A2967 RMK AO2 T00610044=
202301101353 METAR KCLM 101353Z AUTO 29005KT 10SM OVC070 07/05 A2966 RMK AO2 SLP046 T00670050=
202301101253 METAR KCLM 101253Z AUTO 26006KT 10SM BKN070 OVC090 06/04 A2965 RMK AO2 RAE1156B26E36 SLP042 P0000 T00610039=
202301101153 METAR KCLM 101153Z AUTO 00000KT 10SM -RA BKN060 OVC080 05/04 A2966 RMK AO2 RAB1056E21B45 SLP045 P0000 60003 70028 T00500039 10067 20033 53011=
202301101053 METAR KCLM 101053Z AUTO 00000KT 10SM OVC055 04/03 A2965 RMK AO2 RAE12 SLP041 P0000 T00440033=
202301100953 METAR KCLM 100953Z AUTO 00000KT 10SM -RA BKN050 BKN065 04/03 A2962 RMK AO2 RAB47 SLP033 P0001 T00440033=
202301100950 SPECI KCLM 100950Z AUTO 21004KT 6SM -RA BR BKN050 BKN065 04/03 A2963 RMK AO2 RAB47 P0001=
202301100924 SPECI KCLM 100924Z AUTO 00000KT 2 1/2SM BR CLR 04/03 A2962 RMK AO2 T00440033=
202301100853 METAR KCLM 100853Z AUTO 22005KT 8SM SCT060 04/03 A2962 RMK AO2 RAE0755 SLP032 P0000 60002 T00440028 50006=
202301100849 SPECI KCLM 100849Z AUTO 24006KT 7SM SCT060 04/03 A2962 RMK AO2 RAE0755 P0000=
202301100829 SPECI KCLM 100829Z AUTO 20003KT 2SM BR FEW065 SCT110 04/03 A2962 RMK AO2 VIS 1 1/2V3 RAE0755 P0000 T00440033=
202301100813 SPECI KCLM 100813Z AUTO 00000KT 3SM BR FEW040 FEW050 SCT065 04/03 A2962 RMK AO2 RAE0755 P0000 T00440033=
202301100802 SPECI KCLM 100802Z AUTO 00000KT 1 1/4SM BR SCT042 SCT050 BKN065 05/03 A2962 RMK AO2 RAE0755 P0000 T00500033=
202301100753 METAR KCLM 100753Z AUTO 00000KT 2 1/2SM -RA BR BKN042 BKN050 04/03 A2962 RMK AO2 SLP031 P0000 T00440033 401220017=
202301100653 METAR KCLM 100653Z AUTO 31003KT 8SM -RA OVC044 06/04 A2960 RMK AO2 SLP024 P0002 T00610044=
202301100553 METAR KCLM 100553Z AUTO 23006KT 10SM -RA OVC055 07/05 A2959 RMK AO2 SLP021 P0001 60012 T00670050 10089 20044 51025=
202301100453 METAR KCLM 100453Z AUTO 00000KT 7SM -RA OVC038 07/06 A2958 RMK AO2 RAB07 SLP018 P0007 T00720056=
202301100353 METAR KCLM 100353Z AUTO 19003KT 10SM BKN095 BKN110 06/04 A2956 RMK AO2 SLP012 T00560044=
202301100255 SPECI KCLM 100255Z AUTO 00000KT 3SM BR CLR 06/04 A2952 RMK AO2 T00560039=
202301100253 METAR KCLM 100253Z AUTO 24004KT 1 3/4SM BR CLR 05/03 A2952 RMK AO2 RAE0154 SLP996 P0000 60004 T00500033 51013=
202301100247 SPECI KCLM 100247Z AUTO 14006KT 1 3/4SM BR CLR 05/03 A2951 RMK AO2 RAE0154 P0000=
202301100153 METAR KCLM 100153Z AUTO 23006KT 10SM -RA BKN041 07/05 A2951 RMK AO2 SLP995 P0002 T00720050=
202301100053 METAR KCLM 100053Z AUTO 26006KT 10SM -RA OVC045 08/06 A2951 RMK AO2 SLP993 P0002 T00830061=
202301092353 METAR KCLM 092353Z AUTO 15004KT 10SM -RA BKN050 OVC060 08/07 A2948 RMK AO2 SLP983 P0005 60013 T00830067 10122 20083 51047=
202301092253 METAR KCLM 092253Z AUTO 12004KT 10SM -RA OVC046 09/06 A2944 RMK AO2 RAB04 SLP970 P0003 T00890061=
202301092153 METAR KCLM 092153Z AUTO 03004KT 10SM BKN050 OVC065 09/07 A2939 RMK AO2 RAE53 SLP954 P0003 T00940067=
202301092053 METAR KCLM 092053Z AUTO 14004KT 6SM -RA BKN042 OVC050 09/06 A2934 RMK AO2 SLP936 P0002 60002 T00940056 53006=
202301091953 METAR KCLM 091953Z AUTO 09008KT 10SM -RA BKN060 BKN075 OVC090 10/03 A2931 RMK AO2 PK WND 09026/1935 RAB51 SLP925 P0000 T01000033=
202301091853 METAR KCLM 091853Z AUTO 12017G27KT 10SM BKN085 11/04 A2930 RMK AO2 PK WND 11028/1840 SLP922 T01110039=
202301091753 METAR KCLM 091753Z AUTO 11015G22KT 10SM BKN110 09/03 A2932 RMK AO2 SLP929 T00890033 10089 20017 56043=
202301091653 METAR KCLM 091653Z AUTO 14004KT 10SM CLR 06/03 A2935 RMK AO2 SLP940 T00610028=
202301091553 METAR KCLM 091553Z AUTO 00000KT 10SM FEW120 05/03 A2940 RMK AO2 SLP955 T00500028=
202301091453 METAR KCLM 091453Z AUTO 12007KT 9SM CLR 03/02 A2945 RMK AO2 SLP973 T00330017 58062=
202301091435 SPECI KCLM 091435Z AUTO 14003KT 6SM BR CLR 03/02 A2947 RMK AO2 T00280017=
202301091417 SPECI KCLM 091417Z AUTO 00000KT 2SM BR CLR 02/01 A2949 RMK AO2 VIS 1 1/2V3 T00170006=
202301091400 SPECI KCLM 091400Z AUTO 00000KT 5SM BR CLR 02/01 A2951 RMK AO2 T00220011=
202301091353 METAR KCLM 091353Z AUTO 00000KT 2 1/2SM BR CLR 02/01 A2952 RMK AO2 VIS 1 1/2V5 SLP997 T00220006=
202301091253 METAR KCLM 091253Z AUTO 00000KT 7SM CLR 02/01 A2957 RMK AO2 SLP015 T00220011=
202301091229 SPECI KCLM 091229Z AUTO 17004KT 3SM BR CLR 03/02 A2960 RMK AO2 T00280017=
202301091220 SPECI KCLM 091220Z AUTO 00000KT 1 3/4SM BR CLR 02/01 A2961 RMK AO2 T00220011=
202301091209 SPECI KCLM 091209Z AUTO 15003KT 3SM BR CLR 03/01 A2962 RMK AO2 T00280011=
202301091206 SPECI KCLM 091206Z AUTO 12003KT 1 1/2SM BR FEW001 03/01 A2962 RMK AO2 T00280011=
202301091159 SPECI KCLM 091159Z AUTO 08003KT 2SM BR FEW001 03/01 A2962 RMK AO2 PRESFR T00280011=
202301091153 METAR KCLM 091153Z AUTO 00000KT 6SM BR CLR 03/01 A2963 RMK AO2 SLP036 60000 70017 T00280011 10061 20022 58022=
202301091134 SPECI KCLM 091134Z AUTO 00000KT 10SM FEW065 04/03 A2965 RMK AO2 T00440028=
202301091119 SPECI KCLM 091119Z AUTO 00000KT 2 1/2SM BR FEW001 FEW065 03/02 A2967 RMK AO2 T00280017=
202301091053 METAR KCLM 091053Z AUTO 20003KT 10SM CLR 05/03 A2967 RMK AO2 SLP049 T00500033=
202301090953 METAR KCLM 090953Z AUTO VRB04KT 8SM FEW006 BKN070 BKN080 05/04 A2970 RMK AO2 RAE03 SLP057 P0000 T00500039=
202301090950 SPECI KCLM 090950Z AUTO 00000KT 7SM FEW006 SCT065 OVC080 05/04 A2970 RMK AO2 RAE03 P0000=
202301090853 METAR KCLM 090853Z AUTO VRB04KT 10SM -RA OVC047 04/03 A2972 RMK AO2 RAB34 SLP067 P0000 60000 T00440033 58011=
202301090753 METAR KCLM 090753Z AUTO 20004KT 10SM OVC090 03/02 A2974 RMK AO2 SLP074 T00280017 400940022=
202301090653 METAR KCLM 090653Z AUTO 23004KT 3SM BR CLR 04/03 A2976 RMK AO2 SLP078 T00440028=
202301090651 SPECI KCLM 090651Z AUTO 26004KT 2 1/2SM BR CLR 04/03 A2976 RMK AO2=
202301090640 SPECI KCLM 090640Z AUTO 00000KT 4SM BR CLR 03/02 A2975 RMK AO2 T00280017=
202301090629 SPECI KCLM 090629Z AUTO 19003KT 1 3/4SM BR FEW001 03/02 A2974 RMK AO2 VIS 3/4V5 T00330022=
202301090621 SPECI KCLM 090621Z AUTO 00000KT 3SM BR FEW001 04/03 A2974 RMK AO2 T00440028=
202301090607 SPECI KCLM 090607Z AUTO 00000KT 1 1/4SM BR FEW001 04/03 A2975 RMK AO2 T00440033=
202301090556 SPECI KCLM 090556Z AUTO 00000KT 3/4SM BR VV001 03/02 A2976 RMK AO2 T00330022=
202301090553 METAR KCLM 090553Z AUTO 23003KT 1 3/4SM BR CLR 04/03 A2976 RMK AO2 VIS 3/4V5 RAE0456 SLP078 P0000 60010 T00390033 10089 20039 53014=
202301090453 METAR KCLM 090453Z AUTO 24003KT 10SM -RA OVC038 06/04 A2975 RMK AO2 RAB35 SLP076 P0001 T00610044=
202301090416 SPECI KCLM 090416Z AUTO 18004KT 3SM BR FEW090 05/04 A2974 RMK AO2 T00500039=
202301090402 SPECI KCLM 090402Z AUTO 20003KT 1 3/4SM BR CLR 04/04 A2973 RMK AO2 VIS 1V5 T00440039=
202301090353 METAR KCLM 090353Z AUTO 19003KT 7SM SCT042 06/04 A2972 RMK AO2 RAE26 SLP065 P0000 T00560044=
202301090253 METAR KCLM 090253Z AUTO 26005KT 6SM -RA BR OVC042 07/06 A2971 RMK AO2 RAB02 SLP063 P0004 60009 T00720056 51026=
202301090153 METAR KCLM 090153Z AUTO 00000KT 6SM BR SCT065 07/06 A2968 RMK AO2 RAE32 SLP051 P0003 T00670056=
202301090053 METAR KCLM 090053Z AUTO 23005KT 10SM -RA OVC046 08/06 A2967 RMK AO2 SLP050 P0002 T00830061=
202301082353 METAR KCLM 082353Z AUTO 10005KT 10SM -RA BKN050 OVC065 08/07 A2963 RMK AO2 SLP037 P0001 60007 T00830067 10094 20078 53033=
202301082253 METAR KCLM 082253Z AUTO 00000KT 10SM -RA FEW005 BKN043 OVC050 09/07 A2959 RMK AO2 RAB02 SLP023 P0004 T00890067=
202301082153 METAR KCLM 082153Z AUTO 30008KT 10SM SCT007 BKN035 BKN049 09/07 A2957 RMK AO2 RAE44 SLP013 P0002 T00890067=
202301082119 SPECI KCLM 082119Z AUTO 30008KT 6SM -RA BR FEW009 BKN050 OVC060 09/07 A2956 RMK AO2 P0001 T00890067=
202301082053 METAR KCLM 082053Z AUTO 28007KT 10SM -RA FEW011 FEW049 OVC060 09/06 A2954 RMK AO2 RAB43 SLP003 P0000 60000 T00940061 53008=
202301081953 METAR KCLM 081953Z AUTO VRB03KT 10SM BKN060 09/06 A2952 RMK AO2 SLP999 T00890056=
202301081853 METAR KCLM 081853Z AUTO 27003KT 10SM CLR 08/06 A2952 RMK AO2 SLP998 T00830056=
202301081753 METAR KCLM 081753Z AUTO 20004KT 10SM BKN070 08/06 A2951 RMK AO2 SLP995 T00780056 10078 20056 58003=
202301081653 METAR KCLM 081653Z AUTO 22003KT 10SM SCT015 BKN070 06/04 A2952 RMK AO2 SLP997 T00610039=
202301081637 SPECI KCLM 081637Z AUTO 00000KT 10SM OVC015 07/04 A2952 RMK AO2 T00670044=
202301081553 METAR KCLM 081553Z AUTO 22005KT 10SM OVC010 06/04 A2952 RMK AO2 CIG 008V014 SLP998 T00560039=
202301081516 SPECI KCLM 081516Z AUTO 26004KT 10SM OVC009 06/04 A2952 RMK AO2 T00560039=
202301081501 SPECI KCLM 081501Z AUTO 25003KT 10SM BKN010 06/04 A2952 RMK AO2 CIG 008V013 T00610044=
202301081453 METAR KCLM 081453Z AUTO 25004KT 10SM BKN008 OVC120 06/04 A2952 RMK AO2 CIG 008V013 SLP999 T00610039 56013=
202301081405 SPECI KCLM 081405Z AUTO 00000KT 10SM OVC009 06/04 A2952 RMK AO2 CIG 007V012 T00610044=
202301081353 METAR KCLM 081353Z AUTO 23004KT 10SM SCT007 OVC013 06/04 A2952 RMK AO2 SLP999 T00610039=
202301081253 METAR KCLM 081253Z AUTO 00000KT 10SM OVC008 07/04 A2954 RMK AO2 SLP004 T00670044=
202301081208 SPECI KCLM 081208Z AUTO 00000KT 10SM OVC009 06/04 A2955 RMK AO2 CIG 008V012 T00610044=
202301081153 METAR KCLM 081153Z AUTO 16003KT 10SM OVC011 06/04 A2956 RMK AO2 SLP011 70002 T00610044 10061 20028 58024=
202301081053 METAR KCLM 081053Z AUTO 00000KT 10SM OVC011 06/04 A2960 RMK AO2 SLP024 T00610044=
202301080953 METAR KCLM 080953Z AUTO 16004KT 10SM OVC011 06/04 A2962 RMK AO2 SLP031 T00560039=
202301080853 METAR KCLM 080853Z AUTO 18004KT 10SM OVC012 05/03 A2963 RMK AO2 SLP036 T00500033 58016=
202301080753 METAR KCLM 080753Z AUTO 00000KT 10SM OVC012 04/03 A2965 RMK AO2 SLP042 T00440033 400830028=
202301080700 SPECI KCLM 080700Z AUTO 00000KT 3SM BR BKN012 03/02 A2967 RMK AO2 T00330017=
202301080653 METAR KCLM 080653Z AUTO 00000KT 2 1/2SM BR SCT010 03/02 A2967 RMK AO2 SLP048 T00280017=
202301080650 SPECI KCLM 080650Z AUTO 00000KT 3SM BR FEW010 03/02 A2967 RMK AO2=
202301080628 SPECI KCLM 080628Z AUTO 21003KT 1 1/4SM BR FEW011 04/02 A2967 RMK AO2 VIS 1/2V5 T00390022=
202301080620 SPECI KCLM 080620Z AUTO 00000KT 2 1/2SM BR SCT011 04/03 A2967 RMK AO2 VIS 1V5 T00440028=
202301080553 METAR KCLM 080553Z AUTO 00000KT 10SM OVC010 06/04 A2968 RMK AO2 CIG 008V012 SLP052 T00560044 10078 20044 56012=
202301080540 SPECI KCLM 080540Z AUTO 00000KT 10SM OVC009 06/04 A2968 RMK AO2 CIG 008V012 T00560039=
202301080453 METAR KCLM 080453Z AUTO 00000KT 10SM BKN011 06/04 A2969 RMK AO2 SLP055 T00560039=
202301080353 METAR KCLM 080353Z AUTO 24005KT 9SM OVC011 05/04 A2970 RMK AO2 SLP060 T00500039=
202301080340 SPECI KCLM 080340Z AUTO 23003KT 10SM BKN012 06/04 A2971 RMK AO2 T00560039=
202301080310 SPECI KCLM 080310Z AUTO 22004KT 9SM CLR 06/04 A2971 RMK AO2 T00560039=
202301080301 SPECI KCLM 080301Z AUTO 24004KT 2SM BR CLR 06/04 A2971 RMK AO2 T00560039=
202301080253 METAR KCLM 080253Z AUTO 00000KT 4SM BR CLR 06/04 A2972 RMK AO2 SLP064 T00560044 58009=
202301080251 SPECI KCLM 080251Z AUTO 22003KT 3SM BR CLR 06/04 A2972 RMK AO2=
202301080240 SPECI KCLM 080240Z AUTO 23003KT 1 3/4SM BR CLR 06/04 A2972 RMK AO2 VIS 1 1/4V3 T00560044=
202301080153 METAR KCLM 080153Z AUTO 00000KT 10SM BKN100 OVC110 07/05 A2972 RMK AO2 SLP067 T00670050=
202301080120 SPECI KCLM 080120Z AUTO 24003KT 10SM SCT009 BKN060 OVC085 07/06 A2973 RMK AO2 T00720056=
202301080053 METAR KCLM 080053Z AUTO 00000KT 10SM OVC009 08/06 A2974 RMK AO2 CIG 008V012 SLP072 T00780061=
202301080015 SPECI KCLM 080015Z AUTO 26003KT 10SM OVC005 08/06 A2974 RMK AO2 T00780061=
202301072353 METAR KCLM 072353Z AUTO 25003KT 10SM OVC004 08/06 A2974 RMK AO2 RAB2256E27 SLP073 P0000 60002 T00780061 10083 20067 56017=
202301072342 SPECI KCLM 072342Z AUTO 25004KT 10SM OVC004 08/06 A2974 RMK AO2 RAB2256E27 P0000 T00780061=
202301072314 SPECI KCLM 072314Z AUTO 26005KT 10SM -RA BKN006 OVC013 08/06 A2975 RMK AO2 RAB2256 CIG 003V012 P0000 T00780061=
202301072253 METAR KCLM 072253Z AUTO 27004KT 10SM BKN004 OVC013 08/06 A2975 RMK AO2 RAE32 SLP077 P0001 T00780061=
202301072229 SPECI KCLM 072229Z AUTO 28004KT 10SM -RA BKN005 OVC014 08/06 A2976 RMK AO2 CIG 002V008 P0001 T00780061=
202301072210 SPECI KCLM 072210Z AUTO 30004KT 9SM -RA BKN004 BKN011 OVC050 08/06 A2977 RMK AO2 P0001 T00780061=
202301072201 SPECI KCLM 072201Z AUTO 29003KT 8SM -RA SCT004 OVC055 08/06 A2977 RMK AO2 P0000 T00780061=
202301072153 METAR KCLM 072153Z AUTO 31003KT 9SM -RA BKN005 OVC055 08/06 A2977 RMK AO2 SLP083 P0000 T00780061=
202301072140 SPECI KCLM 072140Z AUTO 30003KT 10SM -RA FEW007 OVC060 08/06 A2977 RMK AO2 P0000 T00780061=
202301072125 SPECI KCLM 072125Z AUTO 00000KT 8SM -RA FEW005 BKN008 OVC060 08/06 A2978 RMK AO2 P0000 T00780061=
202301072053 METAR KCLM 072053Z AUTO 00000KT 10SM -RA BKN004 OVC065 08/06 A2979 RMK AO2 RAB47 SLP091 P0000 60001 T00780061 56021=
202301072039 SPECI KCLM 072039Z AUTO 00000KT 10SM BKN004 BKN075 OVC090 08/06 A2979 RMK AO2 T00780061=
202301072026 SPECI KCLM 072026Z AUTO 00000KT 10SM SCT004 OVC090 08/06 A2980 RMK AO2 T00830061=
202301071953 METAR KCLM 071953Z AUTO 00000KT 10SM BKN070 OVC080 08/06 A2981 RMK AO2 RAE22 SLP096 P0000 T00780061=
202301071853 METAR KCLM 071853Z AUTO 00000KT 10SM -RA FEW006 OVC060 08/06 A2984 RMK AO2 SLP105 P0001 T00780061=
202301071753 METAR KCLM 071753Z AUTO 22004KT 10SM -RA SCT007 OVC060 06/04 A2986 RMK AO2 RAB14 SLP112 P0000 60000 T00610044 10067 20039 56000=
202301071749 SPECI KCLM 071749Z AUTO 21004KT 10SM -RA SCT007 BKN055 OVC070 06/04 A2986 RMK AO2 RAB14 P0000=
202301071735 SPECI KCLM 071735Z AUTO 00000KT 10SM -RA BKN007 OVC060 07/04 A2986 RMK AO2 RAB14 P0000 T00670044=
202301071653 METAR KCLM 071653Z AUTO 24004KT 10SM FEW007 FEW060 OVC080 06/04 A2985 RMK AO2 SLP109 T00560039=
202301071553 METAR KCLM 071553Z AUTO 20004KT 10SM FEW006 OVC075 05/03 A2986 RMK AO2 SLP112 T00500033=
202301071453 METAR KCLM 071453Z AUTO 00000KT 10SM SCT006 OVC070 04/03 A2987 RMK AO2 SLP115 T00440033 56005=
202301071428 SPECI KCLM 071428Z AUTO 25006KT 10SM BKN005 04/03 A2987 RMK AO2 T00440028=
202301071353 METAR KCLM 071353Z AUTO 23005KT 10SM FEW006 04/03 A2987 RMK AO2 SLP116 T00440033=
202301071304 SPECI KCLM 071304Z AUTO 25006KT 10SM FEW006 04/03 A2987 RMK AO2 T00440028=
202301071253 METAR KCLM 071253Z AUTO 23004KT 10SM CLR 04/03 A2987 RMK AO2 SLP118 T00440028=
202301071153 METAR KCLM 071153Z AUTO 25006KT 10SM CLR 05/03 A2988 RMK AO2 SLP121 70005 T00500033 10078 20033 55004=
202301071053 METAR KCLM 071053Z AUTO VRB03KT 10SM CLR 04/02 A2987 RMK AO2 SLP117 T00390022=
202301070953 METAR KCLM 070953Z AUTO 00000KT 10SM CLR 05/03 A2988 RMK AO2 SLP122 T00500028=
202301070853 METAR KCLM 070853Z AUTO 28009KT 10SM FEW070 07/04 A2989 RMK AO2 SLP124 T00670039 51011=
202301070753 METAR KCLM 070753Z AUTO 27007KT 10SM FEW065 06/03 A2988 RMK AO2 SLP119 T00610033 400890011=
202301070653 METAR KCLM 070653Z AUTO 23006KT 10SM BKN065 07/04 A2989 RMK AO2 SLP122 T00670044=
202301070553 METAR KCLM 070553Z AUTO 13005KT 10SM SCT060 07/05 A2986 RMK AO2 SLP114 60005 T00720050 10089 20067 58001=
202301070453 METAR KCLM 070453Z AUTO 10SM OVC065 07/06 A2989 RMK AO2 RAE05B39E51 SLP122 P0000 T00720056=
202301070353 METAR KCLM 070353Z AUTO 18004KT 10SM -RA BKN065 OVC080 07/06 A2987 RMK AO2 RAB11E20B53 SLP118 P0000 T00720056=
202301070253 METAR KCLM 070253Z AUTO 29003KT 10SM OVC060 07/06 A2987 RMK AO2 SLP115 60005 T00720056 53006=
202301070153 METAR KCLM 070153Z AUTO 02004KT 10SM FEW050 OVC060 07/06 A2982 RMK AO2 RAE09 SLP099 P0000 T00720056=
202301070053 METAR KCLM 070053Z AUTO 06003KT 4SM -RA BR OVC050 08/06 A2982 RMK AO2 RAB2355 SLP101 P0005 T00780061=
202301062353 METAR KCLM 062353Z AUTO 19003KT 10SM OVC065 08/06 A2985 RMK AO2 SLP109 60000 T00830056 10089 20056 56016=
202301062253 METAR KCLM 062253Z AUTO 00000KT 10SM OVC070 08/07 A2986 RMK AO2 SLP112 T00830067=
202301062153 METAR KCLM 062153Z AUTO 00000KT 10SM SCT060 BKN070 09/06 A2988 RMK AO2 RAB14E25 SLP120 P0000 T00890061=
202301062053 METAR KCLM 062053Z AUTO 00000KT 8SM FEW006 SCT049 OVC070 08/06 A2989 RMK AO2 SLP125 T00830061 57012=
202301062039 SPECI KCLM 062039Z AUTO 00000KT 10SM SCT006 BKN050 BKN065 09/07 A2990 RMK AO2 T00890067=
202301061953 METAR KCLM 061953Z AUTO 29004KT 10SM BKN065 BKN075 08/06 A2991 RMK AO2 SLP130 T00830056=
202301061853 METAR KCLM 061853Z AUTO 00000KT 10SM FEW065 08/06 A2991 RMK AO2 SLP130 T00780056=
202301061810 SPECI KCLM 061810Z AUTO 00000KT 10SM FEW005 SCT065 06/04 A2992 RMK AO2 T00610044=
202301061753 METAR KCLM 061753Z AUTO 22003KT 10SM CLR 06/04 A2993 RMK AO2 SLP136 T00610044 10067 20011 56005=
202301061653 METAR KCLM 061653Z AUTO 00000KT 10SM CLR 04/03 A2993 RMK AO2 SLP137 T00440033=
202301061553 METAR KCLM 061553Z AUTO 16005KT 6SM BR BKN120 03/02 A2993 RMK AO2 SLP135 T00280017=
202301061453 METAR KCLM 061453Z AUTO 00000KT 9SM BKN110 03/01 A2994 RMK AO2 SLP141 T00280011 53010=
202301061353 METAR KCLM 061353Z AUTO 00000KT 3SM BR CLR 03/01 A2993 RMK AO2 SLP137 T00280011 $=
202301061253 METAR KCLM 061253Z AUTO 21003KT 10SM CLR 06/04 A2992 RMK AO2 SLP132 T00610039 $=
202301061153 METAR KCLM 061153Z AUTO 13006KT 10SM FEW050 SCT070 04/03 A2991 RMK AO2 RAE1054 SLP130 P0000 60003 70003 T00440028 10094 20044 51026 $=
202301061053 METAR KCLM 061053Z AUTO VRB03KT 10SM -RA BKN055 OVC080 06/04 A2990 RMK AO2 RAB43 SLP126 P0000 T00560039 $=
202301061015 SPECI KCLM 061015Z AUTO 25003KT 3SM BR FEW034 SCT045 BKN060 06/04 A2989 RMK AO2 T00560039 $=
202301061007 SPECI KCLM 061007Z AUTO 00000KT 1SM BR SCT042 SCT060 04/03 A2988 RMK AO2 VIS 3/4V2 T00440028 $=
202301061000 SPECI KCLM 061000Z AUTO 00000KT 2SM BR FEW006 04/03 A2988 RMK AO2 T00440033 $=
202301060953 METAR KCLM 060953Z AUTO 00000KT FEW042 06/04 A2987 RMK AO2 RAB17E39 SLP116 P0001 T00610044 $=
202301060853 METAR KCLM 060853Z AUTO 00000KT FEW047 SCT055 BKN070 06/04 A2984 RMK AO2 RAB39E50 SLP104 P0000 60002 T00610044 51043 $=
202301060753 METAR KCLM 060753Z AUTO 20004KT FEW065 BKN085 07/05 A2980 RMK AO2 RAE0659 SLP092 P0000 T00720050 401440044 $=
202301060653 METAR KCLM 060653Z AUTO 26005KT -RA BKN050 OVC065 09/06 A2976 RMK AO2 RAB0558 SLP079 P0002 T00890061 $=
202301060553 METAR KCLM 060553Z AUTO 00000KT BKN055 OVC070 08/06 A2971 RMK AO2 RAE30 SLP061 P0000 60000 T00830056 10144 20083 51058 $=
202301060453 METAR KCLM 060453Z AUTO 30006KT -RA OVC055 09/06 A2966 RMK AO2 PRESRR SLP044 P0000 T00940061 $=
202301060353 METAR KCLM 060353Z AUTO 25010KT -RA OVC060 11/06 A2959 RMK AO2 RAB19 SLP022 P0000 T01060056 $=
202301060253 METAR KCLM 060253Z AUTO 24010KT BKN060 OVC075 11/05 A2954 RMK AO2 RAB21E46 SLP004 P0000 60000 T01110050 53043 $=
202301060153 METAR KCLM 060153Z AUTO 06003KT OVC055 12/05 A2948 RMK AO2 SLP985 T01170050 $=
202301060053 METAR KCLM 060053Z AUTO 27003KT OVC055 12/05 A2945 RMK AO2 PRESRR SLP974 T01220050 $=
202301052353 METAR KCLM 052353Z AUTO 05006KT BKN065 OVC080 13/04 A2941 RMK AO2 SLP959 T01280044 10144 20089 53019 $=
202301052253 METAR KCLM 052253Z AUTO 07007KT 040V100 OVC060 12/05 A2937 RMK AO2 SLP945 T01220050 $=
202301052153 METAR KCLM 052153Z AUTO VRB05KT BKN060 OVC070 14/04 A2935 RMK AO2 SLP940 T01390044 $=
202301052053 METAR KCLM 052053Z AUTO 11007KT BKN065 13/05 A2935 RMK AO2 SLP940 T01330050 58001 $=
202301051953 METAR KCLM 051953Z AUTO 07005KT OVC070 13/04 A2937 RMK AO2 SLP946 T01330039 $=
202301051853 METAR KCLM 051853Z AUTO 00000KT 10SM BKN070 12/04 A2937 RMK AO2 SLP947 T01170044=
202301051753 METAR KCLM 051753Z AUTO VRB03KT 10SM OVC080 09/05 A2936 RMK AO2 SLP942 T00890050 10089 20044 51007=
202301051653 METAR KCLM 051653Z AUTO VRB03KT 10SM OVC070 06/04 A2935 RMK AO2 SLP940 T00610039=
202301051553 METAR KCLM 051553Z AUTO 23009KT 10SM SCT080 BKN100 06/03 A2935 RMK AO2 SLP939 T00560033=
202301051453 METAR KCLM 051453Z AUTO 00000KT 10SM CLR 04/03 A2934 RMK AO2 SLP935 T00440028 58022=
202301051353 METAR KCLM 051353Z AUTO 00000KT 10SM SCT080 06/03 A2936 RMK AO2 SLP945 T00560033=
202301051253 METAR KCLM 051253Z AUTO 00000KT 10SM OVC070 06/04 A2938 RMK AO2 SLP950 T00560039=
202301051153 METAR KCLM 051153Z AUTO 22004KT 10SM OVC065 06/04 A2940 RMK AO2 RAE24 SLP957 P0000 60000 T00610039 10094 20050 58012=
202301051053 METAR KCLM 051053Z AUTO 30003KT 10SM -RA OVC070 07/04 A2941 RMK AO2 RAE04B49 SLP961 P0000 T00670039=
202301050953 METAR KCLM 050953Z AUTO 00000KT 10SM -RA OVC070 08/03 A2943 RMK AO2 RAB05 SLP968 P0000 T00780033=
202301050853 METAR KCLM 050853Z AUTO 04006KT 10SM OVC070 09/03 A2944 RMK AO2 RAB43E53 SLP968 P0000 60000 T00940033 58007=
202301050753 METAR KCLM 050753Z AUTO 00000KT 10SM BKN085 05/02 A2944 RMK AO2 SLP972 T00500017 400891011=
202301050653 METAR KCLM 050653Z AUTO 10SM CLR 06/02 A2945 RMK AO2 SLP974 T00560017=
202301050553 METAR KCLM 050553Z AUTO 08003KT 10SM CLR 07/02 A2946 RMK AO2 SLP977 T00670017 10083 20044 56020=
202301050453 METAR KCLM 050453Z AUTO 00000KT 10SM FEW065 05/02 A2947 RMK AO2 SLP983 T00500017=
202301050353 METAR KCLM 050353Z AUTO 00000KT 10SM BKN120 05/01 A2949 RMK AO2 SLP989 T00500011=
202301050253 METAR KCLM 050253Z AUTO 23004KT 10SM FEW110 05/01 A2952 RMK AO2 SLP998 T00500011 56032=
202301050153 METAR KCLM 050153Z AUTO 00000KT 10SM FEW080 05/01 A2955 RMK AO2 SLP009 T00500011=
202301050053 METAR KCLM 050053Z AUTO 24005KT 10SM CLR 06/01 A2957 RMK AO2 SLP016 T00560011=
202301042353 METAR KCLM 042353Z AUTO 08009G20KT 10SM CLR 08/00 A2961 RMK AO2 SLP029 T00780000 10078 20017 56034=
202301042253 METAR KCLM 042253Z AUTO 08011G17KT 10SM CLR 07/01 A2965 RMK AO2 SLP041 T00720011=
202301042153 METAR KCLM 042153Z AUTO 08009G20KT 10SM CLR 07/01 A2967 RMK AO2 SLP050 T00720011=
202301042053 METAR KCLM 042053Z AUTO 08011G18KT 10SM CLR 07/01 A2971 RMK AO2 SLP064 T00720006 58034=
202301041953 METAR KCLM 041953Z AUTO 10SM CLR 06/02 A2975 RMK AO2 SLP076 T00610017=
202301041853 METAR KCLM 041853Z AUTO 00000KT 10SM CLR 05/03 A2978 RMK AO2 SLP088 T00500028=
202301041753 METAR KCLM 041753Z AUTO 00000KT 10SM FEW012 02/01 A2982 RMK AO2 SLP099 I6000 T00170006 10039 21011 58014=
202301041653 METAR KCLM 041653Z AUTO 00000KT 10SM CLR 01/00 A2984 RMK AO2 SLP109 I1000 T00110000=
202301041553 METAR KCLM 041553Z AUTO 23004KT 10SM FEW015 01/00 A2985 RMK AO2 SLP112 I1000 T00110000=
202301041548 SPECI KCLM 041548Z AUTO 23006KT 10SM SCT015 02/M01 A2986 RMK AO2 I1000=
202301041515 SPECI KCLM 041515Z AUTO 00000KT 10SM BKN016 01/M01 A2986 RMK AO2 I1000 T00061006=
202301041453 METAR KCLM 041453Z AUTO 00000KT 10SM CLR 00/M01 A2987 RMK AO2 SLP117 I1000 I3000 T00001011 55007=
202301041353 METAR KCLM 041353Z AUTO 00000KT 10SM CLR 00/M02 A2984 RMK AO2 SLP108 T00001022=
202301041253 METAR KCLM 041253Z AUTO 21003KT 10SM CLR 03/01 A2987 RMK AO2 SLP116 T00280006=
202301041153 METAR KCLM 041153Z AUTO 22004KT 10SM FEW065 03/02 A2989 RMK AO2 SLP123 T00330017 10050 20022 51007=
202301041053 METAR KCLM 041053Z AUTO 24008KT 10SM FEW075 04/02 A2989 RMK AO2 SLP123 T00440022=
202301040953 METAR KCLM 040953Z AUTO 25008KT 10SM SCT065 05/02 A2988 RMK AO2 SLP120 T00500022=
202301040853 METAR KCLM 040853Z AUTO 24006KT 10SM BKN075 OVC110 04/02 A2987 RMK AO2 SLP116 T00440017 51004=
202301040753 METAR KCLM 040753Z AUTO 25005KT 10SM OVC065 04/02 A2987 RMK AO2 SLP115 T00390017 400781017=
202301040653 METAR KCLM 040653Z AUTO 23003KT 10SM BKN065 03/01 A2987 RMK AO2 SLP115 T00330011=
202301040553 METAR KCLM 040553Z AUTO 22006KT 10SM OVC085 03/01 A2986 RMK AO2 SLP113 T00330011 10061 20011 53012=
202301040453 METAR KCLM 040453Z AUTO 00000KT 10SM OVC110 02/00 A2984 RMK AO2 SLP108 T00170000=
202301040353 METAR KCLM 040353Z AUTO 00000KT 10SM CLR 01/00 A2983 RMK AO2 SLP103 T00110000=
202301040253 METAR KCLM 040253Z AUTO 00000KT 10SM CLR 02/00 A2982 RMK AO2 SLP101 T00170000 58003=
202301040153 METAR KCLM 040153Z AUTO 00000KT 10SM CLR 03/00 A2983 RMK AO2 SLP102 T00280000=
202301040053 METAR KCLM 040053Z AUTO 00000KT 10SM BKN065 BKN075 05/02 A2983 RMK AO2 SLP104 T00500017=
202301032353 METAR KCLM 032353Z AUTO 23003KT 10SM BKN080 06/03 A2983 RMK AO2 SLP104 T00610028 10078 20028 56005=
202301032329 SPECI KCLM 032329Z AUTO 00000KT 10SM SCT012 06/02 A2984 RMK AO2 T00610022=
202301032301 SPECI KCLM 032301Z AUTO 35003KT 10SM BKN011 OVC070 07/03 A2983 RMK AO2 T00670028=
202301032253 METAR KCLM 032253Z AUTO 00000KT 10SM SCT011 BKN070 07/03 A2983 RMK AO2 SLP104 T00670028=
202301032153 METAR KCLM 032153Z AUTO VRB04KT 10SM FEW075 07/03 A2984 RMK AO2 SLP107 T00720028=
202301032053 METAR KCLM 032053Z AUTO 00000KT 10SM FEW070 07/02 A2985 RMK AO2 SLP109 T00670022 51004=
202301031953 METAR KCLM 031953Z AUTO 03004KT 10SM CLR 07/02 A2985 RMK AO2 SLP109 T00670017=
202301031853 METAR KCLM 031853Z AUTO 36003KT 10SM CLR 07/02 A2984 RMK AO2 SLP107 T00670022=
202301031753 METAR KCLM 031753Z AUTO 00000KT 10SM CLR 03/01 A2984 RMK AO2 SLP106 I6001 T00280011 10028 21017 51018=
202301031653 METAR KCLM 031653Z AUTO 00000KT 10SM CLR 00/M02 A2982 RMK AO2 SLP102 T00001017=
202301031553 METAR KCLM 031553Z AUTO 00000KT 10SM CLR 00/M02 A2980 RMK AO2 SLP093 I1001 T00001022=
202301031453 METAR KCLM 031453Z AUTO 22004KT 9SM CLR 00/M02 A2978 RMK AO2 SLP088 T00001022 51012=
202301031353 METAR KCLM 031353Z AUTO 20003KT 10SM CLR 00/M02 A2977 RMK AO2 SLP084 T00001017=
202301031253 METAR KCLM 031253Z AUTO 00000KT 10SM CLR 02/00 A2976 RMK AO2 SLP081 T00170000=
202301031153 METAR KCLM 031153Z AUTO 23003KT 10SM OVC085 03/01 A2975 RMK AO2 SLP075 T00280011 10044 20017 51017=
202301031053 METAR KCLM 031053Z AUTO 21003KT 10SM OVC065 04/02 A2973 RMK AO2 SLP070 T00390017=
202301030953 METAR KCLM 030953Z AUTO 23004KT 10SM OVC065 04/02 A2972 RMK AO2 SLP064 T00390017=
202301030853 METAR KCLM 030853Z AUTO 26005KT 10SM OVC070 04/02 A2970 RMK AO2 SLP057 T00440017 51010=
202301030753 METAR KCLM 030753Z AUTO 25008KT 10SM OVC090 04/02 A2969 RMK AO2 SLP055 T00440017 400610006=
202301030653 METAR KCLM 030653Z AUTO 25005KT 10SM OVC095 02/00 A2968 RMK AO2 SLP052 T00220000=
202301030553 METAR KCLM 030553Z AUTO 21004KT 10SM BKN100 02/00 A2967 RMK AO2 SLP048 T00220000 10056 20011 58000=
202301030453 METAR KCLM 030453Z AUTO 00000KT 10SM FEW085 02/00 A2967 RMK AO2 SLP051 T00170000=
202301030353 METAR KCLM 030353Z AUTO 00000KT 10SM CLR 02/01 A2967 RMK AO2 SLP050 T00220006=
202301030253 METAR KCLM 030253Z AUTO 00000KT 10SM CLR 02/00 A2967 RMK AO2 SLP049 T00220000 50001=
202301030153 METAR KCLM 030153Z AUTO 23006KT 10SM FEW120 04/01 A2967 RMK AO2 SLP048 T00390011=
202301030053 METAR KCLM 030053Z AUTO 27004KT 10SM CLR 04/02 A2967 RMK AO2 SLP047 T00440017=
202301022353 METAR KCLM 022353Z AUTO 25006KT 10SM CLR 06/02 A2967 RMK AO2 SLP047 T00560017 10061 20033 53004=
202301022253 METAR KCLM 022253Z AUTO 25007KT 10SM CLR 06/02 A2965 RMK AO2 SLP043 T00610022=
202301022153 METAR KCLM 022153Z AUTO 26009KT 10SM CLR 06/02 A2964 RMK AO2 SLP039 T00610022=
202301022053 METAR KCLM 022053Z AUTO 24008KT 10SM CLR 06/02 A2965 RMK AO2 SLP043 T00560017 58017=
202301021953 METAR KCLM 021953Z AUTO 27006KT 10SM CLR 06/02 A2967 RMK AO2 SLP049 T00560017=
202301021853 METAR KCLM 021853Z AUTO 25004KT 10SM CLR 05/02 A2969 RMK AO2 SLP054 T00500017=
202301021753 METAR KCLM 021753Z AUTO 24004KT 10SM CLR 03/01 A2970 RMK AO2 SLP059 T00330011 10039 20022 56024=
202301021703 SPECI KCLM 021703Z AUTO 22005KT 10SM SCT013 03/01 A2971 RMK AO2 T00280011=
202301021653 METAR KCLM 021653Z AUTO 21003KT 9SM BKN013 03/01 A2972 RMK AO2 SLP065 T00280011=
202301021628 SPECI KCLM 021628Z AUTO 20003KT 10SM BKN013 03/01 A2973 RMK AO2 T00280011=
202301021609 SPECI KCLM 021609Z AUTO 14004KT 10SM SCT006 03/01 A2974 RMK AO2 T00280011=
202301021553 METAR KCLM 021553Z AUTO 15004KT 10SM OVC006 03/01 A2975 RMK AO2 SLP074 T00280011=
202301021453 METAR KCLM 021453Z AUTO 00000KT 10SM OVC008 03/02 A2977 RMK AO2 SLP084 T00330017 56029=
202301021420 SPECI KCLM 021420Z AUTO 25003KT 10SM OVC008 03/02 A2979 RMK AO2 CIG 007V014 T00330017=
202301021353 METAR KCLM 021353Z AUTO 00000KT 10SM OVC012 03/02 A2979 RMK AO2 SLP089 T00330017=
202301021253 METAR KCLM 021253Z AUTO 13004KT 10SM BKN010 OVC014 03/01 A2982 RMK AO2 CIG 008V012 SLP099 T00280011=
202301021224 SPECI KCLM 021224Z AUTO 00000KT 10SM BKN010 OVC016 02/01 A2984 RMK AO2 T00220006=
202301021153 METAR KCLM 021153Z AUTO 22004KT 10SM OVC017 03/01 A2986 RMK AO2 SLP114 T00280006 10039 20006 56019=
202301021053 METAR KCLM 021053Z AUTO 23004KT 10SM OVC019 02/00 A2987 RMK AO2 SLP116 T00170000=
202301021037 SPECI KCLM 021037Z AUTO 00000KT 10SM BKN019 01/M01 A2987 RMK AO2 T00111006=
202301021010 SPECI KCLM 021010Z AUTO 00000KT 10SM SCT016 01/00 A2987 RMK AO2 T00110000=
202301020953 METAR KCLM 020953Z AUTO 00000KT 10SM BKN016 01/00 A2988 RMK AO2 SLP121 T00110000=
202301020936 SPECI KCLM 020936Z AUTO 00000KT 10SM BKN016 01/00 A2990 RMK AO2 T00110000=
202301020853 METAR KCLM 020853Z AUTO 00000KT 10SM SCT025 02/M01 A2992 RMK AO2 SLP133 T00171006 58023=
202301020843 SPECI KCLM 020843Z AUTO 00000KT 10SM SCT012 BKN025 02/01 A2992 RMK AO2 T00220006=
202301020813 SPECI KCLM 020813Z AUTO 14003KT 10SM BKN011 02/00 A2994 RMK AO2 PRESFR T00170000=
202301020753 METAR KCLM 020753Z AUTO 25004KT 10SM CLR 03/00 A2996 RMK AO2 SLP147 T00280000 400831006=
202301020653 METAR KCLM 020653Z AUTO 27003KT 10SM CLR 03/01 A2997 RMK AO2 SLP151 T00330006=
202301020553 METAR KCLM 020553Z AUTO 00000KT 10SM FEW008 SCT026 04/01 A2999 RMK AO2 SLP156 T00390011 10067 20022 56008=
202301020544 SPECI KCLM 020544Z AUTO 25005KT 10SM SCT010 SCT026 05/02 A2999 RMK AO2 T00500017=
202301020520 SPECI KCLM 020520Z AUTO 21004KT 10SM BKN010 OVC020 06/02 A3001 RMK AO2 CIG 007V014 T00560022=
202301020453 METAR KCLM 020453Z AUTO 24006KT 10SM BKN008 OVC015 05/02 A3001 RMK AO2 SLP164 T00500022=
202301020448 SPECI KCLM 020448Z AUTO 28004KT 10SM BKN008 OVC015 06/03 A3001 RMK AO2=
202301020432 SPECI KCLM 020432Z AUTO 28003KT 10SM SCT008 OVC015 07/04 A3002 RMK AO2 T00670039=
202301020353 METAR KCLM 020353Z AUTO 00000KT 10SM OVC007 06/03 A3002 RMK AO2 SLP168 T00560033=
202301020253 METAR KCLM 020253Z AUTO 00000KT 10SM OVC008 04/02 A3003 RMK AO2 SLP172 T00390022 58015=
202301020231 SPECI KCLM 020231Z AUTO 22003KT 10SM BKN008 BKN012 OVC022 03/02 A3005 RMK AO2 T00330017=
202301020213 SPECI KCLM 020213Z AUTO 00000KT 10SM FEW008 SCT017 BKN021 03/02 A3005 RMK AO2 T00330017=
202301020156 SPECI KCLM 020156Z AUTO 21004KT 10SM SCT009 SCT012 03/01 A3006 RMK AO2 T00330011=
202301020153 METAR KCLM 020153Z AUTO 21004KT 10SM BKN009 03/01 A3006 RMK AO2 CIG 008V012 SLP181 T00280011=
202301020110 SPECI KCLM 020110Z AUTO 08003KT 10SM BKN008 04/02 A3006 RMK AO2 T00440022=
202301020053 METAR KCLM 020053Z AUTO 10004KT 10SM FEW007 04/02 A3006 RMK AO2 SLP181 T00440022=
202301012353 METAR KCLM 012353Z AUTO 09005KT 10SM CLR 06/02 A3008 RMK AO2 SLP187 T00610022 10083 20039 56019=
202301012305 SPECI KCLM 012305Z AUTO 09006KT 10SM FEW020 07/02 A3009 RMK AO2 T00720022=
202301012253 METAR KCLM 012253Z AUTO 10008KT 10SM BKN021 07/03 A3009 RMK AO2 SLP190 T00720028=
202301012153 METAR KCLM 012153Z AUTO 10005KT 10SM OVC020 08/03 A3012 RMK AO2 SLP201 T00780028=
202301012053 METAR KCLM 012053Z AUTO 00000KT 10SM OVC022 07/03 A3013 RMK AO2 PRESFR SLP206 T00670028 58008=
202301011953 METAR KCLM 011953Z AUTO 32003KT 10SM OVC019 07/03 A3017 RMK AO2 SLP217 T00720028=
202301011908 SPECI KCLM 011908Z AUTO 11004KT 10SM BKN017 07/02 A3015 RMK AO2 T00720022=
202301011853 METAR KCLM 011853Z AUTO 10004KT 10SM CLR 08/03 A3016 RMK AO2 SLP213 T00780028=
202301011753 METAR KCLM 011753Z AUTO 14004KT 10SM SCT012 04/01 A3016 RMK AO2 PRESFR SLP214 T00390011 10039 21006 50007=
202301011714 SPECI KCLM 011714Z AUTO 23007KT 10SM BKN014 03/01 A3018 RMK AO2 T00330006=
202301011653 METAR KCLM 011653Z AUTO 24003KT 10SM FEW031 02/01 A3017 RMK AO2 SLP217 T00220006=
202301011630 SPECI KCLM 011630Z AUTO 24005KT 10SM FEW011 BKN030 03/01 A3016 RMK AO2 T00280006=
202301011616 SPECI KCLM 011616Z AUTO 24006KT 10SM FEW013 OVC029 03/01 A3016 RMK AO2 T00280006=
202301011600 SPECI KCLM 011600Z AUTO 23006KT 10SM BKN013 OVC029 03/01 A3016 RMK AO2 T00280006=
202301011553 METAR KCLM 011553Z AUTO 24007KT 10SM SCT013 OVC030 03/01 A3016 RMK AO2 SLP215 T00330006=
202301011544 SPECI KCLM 011544Z AUTO 26008KT 10SM BKN013 BKN030 03/00 A3016 RMK AO2 T00280000=
202301011453 METAR KCLM 011453Z AUTO 20003KT 10SM FEW011 00/M01 A3014 RMK AO2 SLP208 T00001011 51009=
202301011353 METAR KCLM 011353Z AUTO 00000KT 10SM CLR 00/M02 A3013 RMK AO2 SLP206 T00001017=
202301011253 METAR KCLM 011253Z AUTO 25006KT 10SM CLR 01/M01 A3012 RMK AO2 SLP202 T00111011=
202301011153 METAR KCLM 011153Z AUTO 23005KT 10SM CLR 03/01 A3011 RMK AO2 SLP198 70001 T00280006 10056 20022 51018=
202301011053 METAR KCLM 011053Z AUTO 24004KT 10SM FEW012 03/01 A3011 RMK AO2 SLP197 T00330006=
202301010953 METAR KCLM 010953Z AUTO 24008KT 10SM CLR 04/01 A3008 RMK AO2 SLP189 T00390011=
202301010853 METAR KCLM 010853Z AUTO 25010KT 10SM CLR 05/01 A3006 RMK AO2 SLP180 T00500011 51013=
202301010753 METAR KCLM 010753Z AUTO 24007KT 10SM CLR 05/02 A3005 RMK AO2 SLP179 T00500017 401060039=
202301010653 METAR KCLM 010653Z AUTO 25006KT 10SM CLR 05/02 A3004 RMK AO2 SLP173 T00500017=
202301010553 METAR KCLM 010553Z AUTO 25009KT 10SM CLR 05/02 A3002 RMK AO2 SLP167 T00500022 10083 20050 51017=
202301010453 METAR KCLM 010453Z AUTO 26007KT 10SM CLR 05/02 A3001 RMK AO2 SLP163 T00500022=
202301010353 METAR KCLM 010353Z AUTO 26008KT 10SM CLR 06/03 A2999 RMK AO2 SLP156 T00560028=
202301010253 METAR KCLM 010253Z AUTO 25008KT 10SM FEW045 BKN080 07/03 A2997 RMK AO2 SLP149 T00670033 51020=
202301010153 METAR KCLM 010153Z AUTO 28005KT 10SM BKN080 07/04 A2995 RMK AO2 SLP143 T00670039=
202301010053 METAR KCLM 010053Z AUTO 27007KT 10SM BKN095 08/04 A2993 RMK AO2 SLP138 T00780044=

# No short TAF reports from KCLM in databse.

###################################
#  large TAF from KCLM
###################################
202301312320 TAF KCLM 312320Z 0100/0124 00000KT P6SM FEW040 BKN150 FM010300
                       VRB03KT P6SM OVC050 FM011000 VRB04KT P6SM
                       OVC100 FM011700 22003KT P6SM OVC100=
202301311723 TAF KCLM 311723Z 3118/0118 21003KT P6SM BKN100 OVC250 FM312100
                       09003KT P6SM OVC100 FM010300 VRB03KT P6SM
                       OVC050 FM011000 VRB04KT P6SM OVC100=
202301311422 KCLM 311422Z 3114/0112 VRB03KT P6SM VCSH OVC035 FM010000 VRB04KT
                       P6SM OVC050=
202301311139 TAF KCLM 311139Z 3112/0112 22004KT P6SM OVC050 FM311500 VRB05KT
                       P6SM OVC025 FM010000 VRB04KT P6SM OVC050=
202301310629 KCLM 310629Z 3106/0106 00000KT P6SM BKN050 OVC070 FM311200 22004KT
                       P6SM OVC050 FM311500 VRB05KT P6SM OVC025
                       FM010000 VRB04KT P6SM OVC050=
202301310520 TAF KCLM 310520Z 3106/0106 22004KT P6SM OVC090 FM311200 22004KT
                       P6SM OVC050 FM311500 VRB05KT P6SM OVC025
                       FM010000 VRB04KT P6SM OVC050=
202301302320 TAF KCLM 302320Z 3100/3124 08003KT P6SM SCT250 FM310300 22003KT
                       P6SM BKN150 BKN250 FM310800 23004KT P6SM
                       OVC100 FM311400 23004KT P6SM OVC050=
202301301720 TAF KCLM 301720Z 3018/3118 23008KT P6SM SKC FM302100 08003KT P6SM
                       SCT250 FM310300 22003KT P6SM BKN150 BKN250
                       FM310800 23004KT P6SM OVC120=
202301301135 TAF KCLM 301135Z 3012/3112 VRB03KT P6SM SKC FM301900 10004KT P6SM
                       SCT250 FM310300 22003KT P6SM BKN150 BKN250=
202301300525 TAF KCLM 300525Z 3006/3106 VRB03KT P6SM SKC FM301900 10004KT P6SM
                       SCT250 FM310300 22003KT P6SM BKN150 BKN250=
202301292320 TAF KCLM 292320Z 3000/3024 12003KT P6SM SKC FM300300 21005KT P6SM
                       SKC FM301800 12003KT P6SM BKN250=
202301291720 TAF KCLM 291720Z 2918/3018 12003KT P6SM SKC FM300300 21005KT P6SM
                       SKC=
202301291133 TAF KCLM 291133Z 2912/3012 VRB03KT P6SM SKC FM292100 03005KT P6SM
                       SKC=
202301290521 TAF KCLM 290521Z 2906/3006 08012G21KT P6SM BKN060 FM291400 06009KT
                       P6SM SKC FM292100 03005KT P6SM SKC=
202301282320 TAF KCLM 282320Z 2900/2924 09008KT P6SM SCT025 BKN035 FM290400
                       08012G21KT P6SM SKC FM291200 06009KT P6SM
                       SKC FM291900 03005KT P6SM SKC=
202301281727 TAF KCLM 281727Z 2818/2918 07005KT P6SM BKN015 OVC025 FM282200
                       09010G18KT P6SM SCT025 BKN050 FM290400 08012KT
                       P6SM SCT050 FM291200 06009KT P6SM SKC=
202301281122 TAF KCLM 281122Z 2812/2912 VRB04KT P6SM BKN012 OVC022 FM282100
                       09010G18KT P6SM SCT025 BKN050 FM290400 10012KT
                       P6SM SCT050=
202301280748 KCLM 280748Z 2808/2906 VRB05KT P6SM SCT005 BKN015 OVC035
                      TEMPO 2808/2811 BKN005 OVC012 FM281100 07007KT
                       P6SM BKN010 OVC022 FM282100 09011G18KT P6SM
                       SCT025 BKN050 FM290400 10012KT P6SM SCT050=
202301280525 TAF KCLM 280525Z 2806/2906 VRB05KT P6SM SCT015 BKN025 OVC035 FM281100
                       07007KT P6SM BKN012 OVC022 FM282100 09011G18KT
                       P6SM SCT025 BKN050 FM290400 10012KT P6SM
                       SCT050=
202301272337 TAF KCLM 272337Z 2800/2824 08007KT P6SM BKN020 BKN050 FM281400
                       23005KT P6SM OVC050 FM282200 03011G21KT
                       P6SM BKN100=
202301271725 TAF KCLM 271725Z 2718/2818 12006KT 3SM BR BKN010 BKN050 FM271900
                       33005KT P6SM SCT025 BKN050 FM280400 23004KT
                       P6SM OVC025 FM281400 23005KT P6SM OVC050=
202301271400 KCLM 271400Z 2714/2812 25006KT P6SM SCT010 BKN060
                      TEMPO 2714/2717 -SHRA BKN010 OVC060 FM271900
                       33005KT P6SM SCT025 BKN050 FM280100 23003KT
                       P6SM BKN040=
202301271149 KCLM 271149Z 2712/2812 27010KT P6SM SCT008 BKN025 OVC040
                      TEMPO 2712/2716 BKN008 OVC025 FM271600 25006KT
                       P6SM BKN020 OVC030 FM271900 33005KT P6SM
                       SCT025 BKN045 FM280100 23003KT P6SM BKN040=
202301271126 TAF KCLM 271126Z 2712/2812 27010G18KT P6SM SCT025 OVC035 FM271400
                       25008KT P6SM BKN020 OVC030 FM271900 33005KT
                       P6SM SCT025 BKN045 FM280100 23003KT P6SM
                       BKN040=
202301270520 TAF KCLM 270520Z 2706/2806 VRB03KT P6SM OVC040 FM271000 25012KT
                       5SM BR VCSH OVC010 FM271400 25008KT 5SM
                       BR OVC007 FM271900 03005KT P6SM OVC015 FM280000
                       VRB03KT P6SM OVC050=
202301262321 TAF KCLM 262321Z 2700/2724 VRB03KT P6SM SCT010 OVC030 FM270500
                       27008KT 6SM -RA BR OVC010 FM271000 25012KT
                       5SM BR VCSH OVC010 FM271400 25008KT 5SM
                       BR OVC007 FM271900 03005KT P6SM OVC015=
202301261723 TAF KCLM 261723Z 2618/2718 23003KT P6SM OVC015 FM262100 29005KT
                       P6SM OVC020 FM270500 27008KT 6SM -RA BR
                       OVC010 FM271000 25012KT 5SM BR VCSH OVC010
                       FM271400 25008KT 5SM BR OVC007=
202301261120 TAF KCLM 261120Z 2612/2712 23003KT P6SM OVC020 FM262100 29005KT
                       P6SM OVC020 FM270500 27008KT 6SM -RA BR
                       OVC010=
202301260910 KCLM 260910Z 2609/2706 22003KT P6SM SCT015 BKN250 FM261200 VRB03KT
                       6SM BR OVC007 FM262100 27005KT P6SM OVC015=
202301260520 TAF KCLM 260520Z 2606/2706 00000KT P6SM OVC025 FM260900 00000KT
                       2SM BR OVC004 FM261200 VRB03KT 1/4SM FG
                       OVC004 FM261600 00000KT P6SM OVC007 FM262100
                       27005KT P6SM OVC015=
202301252330 TAF KCLM 252330Z 2600/2624 VRB03KT P6SM SCT025 FM260300 00000KT
                       P6SM OVC025 FM260900 00000KT 2SM BR OVC004
                       FM261600 00000KT P6SM OVC007 FM262100 27005KT
                       P6SM OVC015=
202301251724 TAF KCLM 251724Z 2518/2618 VRB04KT P6SM OVC020 FM260300 00000KT
                       P6SM OVC008=
202301251308 KCLM 251308Z 2513/2612 00000KT P6SM OVC006
                      TEMPO 2513/2517 3SM BR OVC002 FM251800 06003KT
                       P6SM OVC013 FM260300 00000KT P6SM OVC008=
202301251120 TAF KCLM 251120Z 2512/2612 00000KT P6SM OVC006 FM251800 06003KT
                       P6SM OVC013 FM260300 00000KT P6SM OVC008=
202301250520 TAF KCLM 250520Z 2506/2606 00000KT P6SM OVC020 FM250900 25006KT
                       6SM BR OVC009 FM251200 23005KT 1/2SM FG
                       OVC004 FM251700 VRB04KT 1SM BR OVC004=
202301242322 TAF KCLM 242322Z 2500/2524 32004KT P6SM BKN015 OVC020 FM250300
                       25005KT 6SM BR OVC015 FM250900 25006KT 6SM
                       BR OVC009 FM251200 23005KT 1/2SM FG OVC004
                       FM251700 20004KT 5SM BR OVC009=
202301241722 TAF KCLM 241722Z 2418/2518 00000KT P6SM BKN025 OVC040 FM242200
                       VRB03KT P6SM OVC020 FM250500 25005KT 6SM
                       BR OVC010 FM251200 23004KT 6SM BR OVC015=
202301241407 KCLM 241407Z 2414/2512 00000KT P6SM SCT013 OVC045
                      TEMPO 2414/2417 BKN013 OVC045 FM241700 25003KT
                       P6SM OVC015 FM250500 25005KT 6SM BR OVC010=
202301241123 TAF KCLM 241123Z 2412/2512 00000KT P6SM OVC045 FM241700 25003KT
                       P6SM OVC015 FM250500 25005KT 6SM BR OVC010=
202301240520 TAF KCLM 240520Z 2406/2506 23005KT P6SM OVC025 FM241200 23004KT
                       6SM BR OVC025 FM241700 VRB02KT 6SM BR OVC020=
202301240023 KCLM 240023Z 2400/2424 15006KT P6SM BKN150 FM240300 VRB02KT P6SM
                       BKN025 FM240600 24004KT P6SM BKN025 OVC035
                       FM241200 23004KT 6SM BR OVC025 FM241700
                       VRB02KT 6SM BR OVC020=
202301232325 TAF KCLM 232325Z 2400/2424 15006KT P6SM OVC025 FM240300 VRB02KT
                       P6SM BKN025 FM240600 24004KT P6SM BKN025
                       OVC035 FM241200 23004KT 6SM BR OVC025 FM241700
                       VRB02KT 6SM BR OVC020=
202301231720 TAF KCLM 231720Z 2318/2418 00000KT P6SM SCT015 OVC035 FM232000
                       VRB03KT P6SM SCT018 OVC028 FM232300 VRB03KT
                       P6SM SCT030 BKN045 FM240600 24004KT P6SM
                       BKN025 FM241200 23004KT P6SM OVC050=
202301231401 KCLM 231401Z 2314/2412 24003KT P6SM VCSH SCT020 OVC035 FM231700
                       VRB03KT P6SM VCSH OVC030 FM232000 VRB03KT
                       P6SM SCT018 OVC028 FM232200 VRB03KT P6SM
                       SCT030 BKN045 FM240600 24004KT P6SM BKN025=
202301231120 TAF KCLM 231120Z 2312/2412 24003KT P6SM VCSH SCT020 OVC030 FM231500
                       VRB03KT P6SM -RA OVC020 FM232000 VRB03KT
                       P6SM SCT018 OVC028 FM232200 VRB03KT P6SM
                       SCT030 BKN045 FM240600 24004KT P6SM BKN025=
202301230541 TAF KCLM 230541Z 2306/2406 VRB03KT P6SM OVC080 FM231000 VRB03KT
                       P6SM BKN045 OVC080 FM231300 VRB03KT P6SM
                       OVC018 FM232000 VRB03KT P6SM SCT018 OVC028
                       FM232200 VRB03KT P6SM SCT030 BKN045=
202301222331 TAF KCLM 222331Z 2300/2324 VRB03KT P6SM BKN050 FM231200 24004KT
                       P6SM OVC040 FM231500 22003KT P6SM OVC020
                       FM232000 32002KT P6SM OVC015=
202301221739 TAF KCLM 221739Z 2218/2318 25007KT P6SM BKN050 FM222200 VRB03KT
                       P6SM BKN050 FM231200 24004KT P6SM OVC040
                       FM231500 22003KT P6SM OVC020=
202301221127 TAF KCLM 221127Z 2212/2312 28009KT P6SM SCT040 FM221600 24005KT
                       P6SM BKN035 FM222200 VRB03KT P6SM BKN050
                       FM230800 24004KT P6SM OVC025=
202301220540 TAF KCLM 220540Z 2206/2306 28008KT P6SM SCT050 FM221600 VRB03KT
                       P6SM OVC022=
202301212331 TAF KCLM 212331Z 2200/2224 VRB03KT 5SM -RA BR OVC009 FM220400 28015G25KT
                       P6SM VCSH SCT025 BKN045 FM222000 06010KT
                       P6SM OVC015=
202301211735 TAF KCLM 211735Z 2118/2218 VRB03KT 5SM -RA BR OVC009 FM220400 28015G25KT
                       P6SM VCSH SCT025 BKN045=
202301211130 TAF KCLM 211130Z 2112/2212 VRB03KT P6SM OVC050 FM211700 VRB03KT
                       5SM -RA BR OVC020 FM220400 28015G25KT P6SM
                       VCSH SCT025 BKN045=
202301210536 TAF KCLM 210536Z 2106/2206 VRB03KT P6SM OVC050 FM211700 VRB03KT
                       5SM -RA BR OVC020 FM220100 28015G25KT P6SM
                       SCT025 BKN045=
202301202320 TAF KCLM 202320Z 2100/2124 17003KT P6SM OVC012 FM210200 17002KT
                       P6SM OVC060 FM210700 21003KT P6SM OVC050
                       FM211700 25003KT 4SM -RA BR OVC020=
202301201720 TAF KCLM 201720Z 2018/2118 00000KT P6SM BKN050 FM202000 VRB03KT
                       P6SM OVC100 FM210000 17003KT P6SM OVC060
                       FM210700 21003KT P6SM OVC050=
202301201130 TAF KCLM 201130Z 2012/2112 22004KT P6SM OVC080 FM202000 VRB03KT
                       P6SM OVC100 FM210700 21003KT P6SM OVC050=
202301200530 TAF KCLM 200530Z 2006/2106 23006KT P6SM BKN100 FM201200 00000KT
                       P6SM OVC011 FM201900 00000KT P6SM OVC020
                       FM202100 00000KT P6SM SCT200=
202301192320 TAF KCLM 192320Z 2000/2024 08005KT P6SM SCT050 FM200600 23005KT
                       P6SM BKN050 FM201200 22003KT P6SM OVC050
                       FM201900 VRB03KT P6SM OVC025=
202301191720 TAF KCLM 191720Z 1918/2018 24009KT P6SM BKN050 BKN100 FM192100
                       VRB04KT P6SM OVC050 FM200600 23005KT P6SM
                       BKN050 FM201200 22003KT P6SM OVC050=
202301191122 TAF KCLM 191122Z 1912/2012 25010KT P6SM SKC FM191500 24003KT P6SM
                       BKN050 BKN100 FM192100 VRB04KT P6SM OVC050
                       FM200800 23004KT P6SM OVC015=
202301190522 TAF KCLM 190522Z 1906/2006 25008KT P6SM SCT050 FM191600 VRB04KT
                       P6SM SCT050 BKN200=
202301182332 TAF KCLM 182332Z 1900/1924 28008KT P6SM BKN060 OVC070 FM190300
                       26010KT P6SM BKN050 FM191000 24008KT P6SM
                       OVC035 FM191800 VRB04KT P6SM OVC050=
202301181724 TAF KCLM 181724Z 1818/1918 21007KT P6SM -RA BKN035 OVC060 FM182200
                       28010KT P6SM VCSH SCT030 BKN060 FM190200
                       26010KT P6SM BKN050 FM191000 24008KT P6SM
                       OVC035=
202301181133 TAF KCLM 181133Z 1812/1912 00000KT P6SM OVC060 FM181500 25005KT
                       P6SM -RA OVC020 FM182200 28010KT P6SM SCT030
                       BKN080 FM190200 26010KT P6SM BKN050 FM191000
                       24008KT P6SM OVC025=
202301180901 KCLM 180901Z 1809/1906 00000KT P6SM BKN006 OVC070 FM181500 25005KT
                       P6SM -RA OVC020 FM182200 28010KT P6SM SCT030
                       BKN080=
202301180520 TAF KCLM 180520Z 1806/1906 21003KT P6SM SCT010 BKN080 FM181500
                       25005KT P6SM -RA OVC020 FM182200 28010KT
                       P6SM SCT030 BKN080=
202301180314 KCLM 180314Z 1803/1824 21003KT P6SM SCT008 BKN070
                      TEMPO 1803/1806 BKN008 OVC070 FM180600 21003KT
                       P6SM VCSH OVC015 FM181000 23004KT 6SM -RA
                       OVC030 FM181400 27007KT 6SM -RA OVC025=
202301172326 TAF KCLM 172326Z 1800/1824 VRB03KT P6SM SCT025 OVC040 FM180300
                       21003KT P6SM VCSH OVC025 FM181000 23004KT
                       6SM -RA OVC030 FM181400 27007KT 6SM -RA
                       OVC025=
202301172127 KCLM 172127Z 1721/1818 VRB03KT P6SM OVC020 FM172300 VRB03KT P6SM
                       SCT015 OVC030 FM180300 VRB03KT P6SM OVC035
                       FM181000 23004KT 6SM -RA OVC030 FM181400
                       27007KT 6SM -RA OVC025=
202301171730 TAF KCLM 171730Z 1718/1818 23003KT P6SM BKN015 FM172000 VRB03KT
                       P6SM SCT015 BKN050 FM172300 VRB03KT P6SM
                       SCT015 OVC030 FM180300 VRB03KT P6SM OVC035
                       FM181000 23004KT 6SM -RA OVC030 FM181400
                       27007KT 6SM -RA OVC025=
202301171140 TAF KCLM 171140Z 1712/1812 00000KT P6SM OVC060 FM171500 23003KT
                       P6SM OVC025 FM171900 VRB03KT P6SM SCT015
                       BKN050 FM180300 VRB03KT P6SM OVC035 FM181000
                       23004KT 6SM -RA OVC050=
202301170526 TAF KCLM 170526Z 1706/1806 24004KT P6SM OVC070 FM170800 21003KT
                       P6SM OVC030 FM171100 22003KT P6SM OVC010
                       FM171900 VRB03KT P6SM SCT015 BKN050 FM180300
                       VRB03KT P6SM OVC035=
202301162320 TAF KCLM 162320Z 1700/1724 VRB03KT P6SM SCT025 SCT250 FM170300
                       23003KT 5SM BR OVC035 FM170700 21003KT 5SM
                       BR OVC030 FM171000 23004KT 5SM BR OVC025=
202301161729 TAF KCLM 161729Z 1618/1718 25004KT P6SM FEW050 FM162000 VRB03KT
                       5SM BR BKN015 BKN050 FM170500 21003KT 5SM
                       BR OVC030 FM171000 23004KT 5SM BR OVC025=
202301161137 TAF KCLM 161137Z 1612/1712 VRB03KT P6SM OVC100 FM161500 25004KT
                       5SM BR OVC035 FM162000 VRB03KT 5SM BR BKN015
                       BKN050 FM170500 21003KT 5SM BR OVC030=
202301160824 KCLM 160824Z 1608/1706 00000KT 2SM BR SCT020 BKN040 FM161000 VRB03KT
                       5SM BR OVC020 FM162000 VRB03KT P6SM BKN035
                       BKN050=
202301160520 TAF KCLM 160520Z 1606/1706 21003KT P6SM -RA BKN015 OVC025 FM160900
                       VRB03KT P6SM VCSH BKN007 OVC015 FM162000
                       VRB03KT P6SM BKN035 BKN050=
202301152329 TAF KCLM 152329Z 1600/1624 VRB03KT P6SM VCSH BKN015 OVC080
                      TEMPO 1600/1604 -RA FM160400 24005KT P6SM
                       VCSH BKN015 OVC060 FM161400 VRB04KT P6SM
                       VCSH BKN007 OVC015 FM162000 VRB04KT P6SM
                       SCT030 BKN050=
202301152053 KCLM 152053Z 1521/1618 22004KT P6SM VCSH OVC080
                      TEMPO 1521/1601 -RA FM160300 VRB03KT 4SM
                       -RA BKN020 OVC040 FM161200 VRB04KT 2SM -SHRA
                       OVC007=
202301151740 TAF KCLM 151740Z 1518/1618 VRB03KT 6SM -RA OVC007 FM160300 VRB03KT
                       4SM -RA BKN007 OVC010 FM161200 VRB04KT 2SM
                       -SHRA OVC007=
202301151145 TAF KCLM 151145Z 1512/1612 VRB03KT P6SM BKN005 OVC015 FM151800
                       12003KT P6SM OVC015 FM160300 VRB03KT P6SM
                       -RA BKN015 OVC040 FM161100 VRB04KT P6SM
                       OVC020=
202301150901 KCLM 150901Z 1509/1606 VRB04KT P6SM OVC015 FM152100 11003KT P6SM
                       BKN060 OVC100 FM160300 VRB03KT P6SM -RA
                       BKN020 OVC040=
202301150524 TAF KCLM 150524Z 1506/1606 21003KT P6SM BKN100
                      TEMPO 1506/1509 4SM BR FM152100 11003KT P6SM
                       BKN060 OVC100 FM160300 VRB03KT P6SM -RA
                       BKN020 OVC040=
202301150206 KCLM 150206Z 1502/1524 00000KT 4SM BR SCT001 BKN250
                      TEMPO 1502/1506 1/2SM FG VV001 FM150600 VRB03KT
                       P6SM BKN050
                      TEMPO 1512/1515 1/4SM FG VV002 FM151500 VRB04KT
                       3SM BR OVC010=
202301142351 TAF KCLM 142351Z 1500/1524 VRB03KT P6SM FEW004 FM150400 VRB03KT
                       P6SM OVC050 FM150600 VRB03KT P6SM BKN050
                       TEMPO 1512/1515 1/4SM FG VV002 FM151500
                       VRB04KT 3SM BR OVC010=
202301142055 KCLM 142055Z 1421/1518 VRB03KT 6SM BR OVC003
                      TEMPO 1421/1423 3SM BR SCT005 FM142300 VRB03KT
                       6SM BR OVC050 FM150000 09004KT P6SM OVC100
                       FM150600 VRB03KT P6SM BKN050
                      TEMPO 1512/1515 1/4SM FG VV002=
202301141801 TAF KCLM 141801Z 1418/1518 VRB03KT 1/4SM FG VV002
                      TEMPO 1418/1420 3SM BR SCT015 FM142000 VRB03KT
                       6SM BR OVC050 FM150000 09004KT P6SM OVC100
                       FM150600 VRB03KT P6SM BKN050
                      TEMPO 1512/1515 1/4SM FG VV002=
202301141514 KCLM 141514Z 1415/1512 VRB03KT 1/4SM FG VV001
                      TEMPO 1415/1418 3SM BR SCT015 FM141800 17002KT
                       6SM BR OVC050 FM142000 09004KT P6SM OVC100=
202301141454 KCLM 141454Z 1415/1512 VRB03KT P6SM SCT015
                      TEMPO 1415/1418 1/2SM FG BKN015 FM141800
                       17002KT 6SM BR OVC050 FM142000 09004KT P6SM
                       OVC100=
202301141138 TAF KCLM 141138Z 1412/1512 VRB03KT P6SM SCT015
                      TEMPO 1412/1415 2SM BR BKN015 FM141500 17002KT
                       6SM BR OVC050 FM142000 09004KT P6SM OVC100=
202301140520 TAF KCLM 140520Z 1406/1506 18003KT P6SM -RA OVC050 FM140900 24003KT
                       4SM -RA OVC050 FM141500 VRB03KT P6SM OVC003
                       FM142000 09004KT P6SM OVC100=
202301132339 TAF KCLM 132339Z 1400/1424 VRB03KT P6SM -RA SCT011 OVC050 FM140900
                       VRB03KT P6SM SCT050 BKN100=
202301131741 TAF KCLM 131741Z 1318/1418 VRB03KT P6SM -RA SCT011 OVC050
                      TEMPO 1318/1321 BKN011 OVC050 FM140900 VRB03KT
                       P6SM SCT050 BKN100=
202301131406 KCLM 131406Z 1314/1412 25006KT 4SM -RA OVC050
                      TEMPO 1314/1315 BKN001 FM131500 29003KT 4SM
                       -RA BR OVC050 FM131800 VRB04KT 5SM -RA BR
                       OVC025 FM132300 VRB03KT 5SM -RA BR OVC020=
202301131355 KCLM 131355Z 1314/1412 25003KT 4SM -RA OVC060
                      TEMPO 1314/1315 BKN003 FM131500 29003KT 4SM
                       -RA BR OVC050 FM131800 VRB04KT 5SM -RA BR
                       OVC025 FM132300 VRB03KT 5SM -RA BR OVC020=
202301131121 TAF KCLM 131121Z 1312/1412 25003KT 4SM -RA OVC060
                      TEMPO 1312/1313 BKN003 FM131500 29003KT 4SM
                       -RA BR OVC050 FM131800 VRB04KT 5SM -RA BR
                       OVC025 FM132300 VRB03KT 5SM -RA BR OVC020=
202301130520 TAF KCLM 130520Z 1306/1406 25003KT P6SM -RA FEW050 BKN060 OVC070
                       FM130900 VRB03KT 5SM -RA OVC040 FM131200
                       25003KT 4SM -RA BR OVC050=
202301122320 TAF KCLM 122320Z 1300/1324 VRB03KT P6SM -RA OVC050 FM130500 11004KT
                       5SM -RA OVC040=
202301121728 TAF KCLM 121728Z 1218/1318 11004KT P6SM -RA OVC060 FM122300 11004KT
                       P6SM OVC045 FM130300 11004KT 5SM -RA OVC040=
202301121121 TAF KCLM 121121Z 1212/1312 16004KT P6SM -RA OVC070 FM121700 11004KT
                       5SM -RA BR OVC050 FM122100 16003KT 4SM -RA
                       BR OVC040 FM130200 12003KT 6SM -RA BR OVC050=
202301120520 TAF KCLM 120520Z 1206/1306 18005KT P6SM BKN060 OVC100 FM120800
                       16004KT P6SM -RA OVC050 FM121700 11004KT
                       4SM -RA BR OVC040 FM130000 16003KT 6SM -RA
                       BR OVC050=
202301112330 TAF KCLM 112330Z 1200/1224 00000KT P6SM OVC050 FM120500 15003KT
                       P6SM -RA OVC050 FM121700 18002KT 4SM -RA
                       BR OVC040=
202301111736 TAF KCLM 111736Z 1118/1218 26005KT P6SM VCSH BKN070 FM112000 09004KT
                       P6SM BKN050 FM120000 13004KT P6SM OVC050
                       FM120700 15003KT P6SM -RA OVC050=
202301111420 KCLM 111420Z 1114/1212 20003KT P6SM VCSH BKN070 FM112000 09004KT
                       P6SM BKN050 FM120000 13004KT P6SM OVC050
                       FM120700 15003KT P6SM -RA OVC050=
202301111120 TAF KCLM 111120Z 1112/1212 20003KT P6SM VCSH OVC025
                      TEMPO 1112/1113 OVC009 FM112000 09004KT P6SM
                       BKN050 FM120000 13004KT P6SM OVC050 FM120700
                       15003KT P6SM -RA OVC050=
202301110520 TAF KCLM 110520Z 1106/1206 17004KT 6SM BR SKC
                      TEMPO 1106/1108 5SM BR FM111100 20003KT P6SM
                       OVC030 FM112100 09004KT P6SM BKN050=
202301102327 TAF KCLM 102327Z 1100/1124 10005KT P6SM BKN100 FM111100 19003KT
                       P6SM OVC050 FM112100 12004KT P6SM BKN050=
202301101720 TAF KCLM 101720Z 1018/1118 VRB03KT 3SM BR SCT003 SCT150 FM101900
                       10005KT P6SM BKN100 FM111100 19003KT P6SM
                       OVC050=
202301101123 TAF KCLM 101123Z 1012/1112 00000KT P6SM OVC050 FM101600 VRB03KT
                       P6SM SCT040 BKN250 FM101900 10005KT P6SM
                       BKN250 FM110100 VRB04KT P6SM BKN250=
202301100524 TAF KCLM 100524Z 1006/1106 00000KT P6SM -RA OVC035 FM100900 23003KT
                       P6SM OVC040 FM101600 24003KT P6SM SCT040
                       BKN250 FM101900 10005KT P6SM BKN250 FM110100
                       VRB04KT P6SM BKN250=
202301092346 TAF KCLM 092346Z 1000/1024 12004KT P6SM -RA OVC040 FM100100 11007KT
                       P6SM VCSH BKN070 FM100900 VRB03KT P6SM OVC030
                       FM101600 VRB04KT P6SM SCT130 FM102000 10004KT
                       P6SM BKN250=
202301091745 TAF KCLM 091745Z 0918/1018 14005KT P6SM SCT100 FM092000 07009KT
                       P6SM -SHRA OVC035 FM100900 00000KT P6SM
                       BKN080 FM101600 VRB04KT P6SM SCT130=
202301091139 TAF KCLM 091139Z 0912/1012 22004KT P6SM OVC050 FM091500 08010G20KT
                       P6SM OVC100 FM091900 10015G25KT P6SM -SHRA
                       OVC040 FM100300 VRB04KT P6SM VCSH OVC050=
202301090602 KCLM 090602Z 0906/1006 24003KT P6SM VCSH FEW001 BKN040
                      TEMPO 0906/0909 1SM BR VV001 FM090900 22004KT
                       P6SM OVC050 FM092000 10004KT P6SM VCSH BKN050
                       OVC100 FM092200 10008KT P6SM -SHRA OVC040
                       FM100300 VRB04KT P6SM VCSH OVC050=
202301090530 TAF KCLM 090530Z 0906/1006 24003KT P6SM VCSH OVC040
                      TEMPO 0906/0909 3SM -SHRA FM090900 22004KT
                       P6SM OVC050 FM092000 10004KT P6SM VCSH BKN050
                       OVC100 FM092200 10008KT P6SM -SHRA OVC040
                       FM100300 VRB04KT P6SM VCSH OVC050=
202301090409 KCLM 090409Z 0904/0924 20003KT P6SM VCSH SCT040
                      TEMPO 0904/0908 2SM BR FM090800 22004KT P6SM
                       OVC035 FM091800 02005KT P6SM -RA OVC050
                       FM092000 10003KT P6SM OVC100 FM092200 10010KT
                       P6SM -RA OVC040=
202301082343 TAF KCLM 082343Z 0900/0924 VRB04KT P6SM -RA FEW005 BKN040 OVC050
                       FM090800 22004KT P6SM OVC035 FM091800 02005KT
                       P6SM -RA OVC050 FM092000 10003KT P6SM OVC100
                       FM092200 10010KT P6SM -RA OVC040=
202301081746 TAF KCLM 081746Z 0818/0918 23003KT P6SM VCSH SCT015 BKN070 FM082100
                       15002KT 6SM -RA BR OVC025 FM090000 25005KT
                       P6SM -RA OVC050 FM090800 22004KT P6SM OVC035
                       FM091400 20003KT P6SM BKN100 FM091700 10003KT
                       P6SM OVC100=
202301081122 TAF KCLM 081122Z 0812/0912 00000KT P6SM OVC020 FM081500 15005KT
                       P6SM -RA OVC025 FM081900 13003KT 6SM -RA
                       BR OVC025 FM090000 23005KT P6SM -RA OVC050
                       FM090800 22004KT P6SM OVC025=
202301080627 KCLM 080627Z 0806/0906 00000KT 2SM BR BKN011 OVC050 FM081000 00000KT
                       1SM BR OVC003 FM081500 00000KT P6SM -RA
                       OVC050 FM081900 VRB03KT 6SM -RA BR OVC025
                       FM090000 VRB03KT P6SM -RA OVC050=
202301080528 TAF KCLM 080528Z 0806/0906 00000KT P6SM BKN011 OVC050 FM081000
                       00000KT 6SM BR OVC003 FM081500 00000KT P6SM
                       -RA OVC050 FM081900 VRB03KT 6SM -RA BR OVC025
                       FM090000 VRB03KT P6SM -RA OVC050=
202301080239 KCLM 080239Z 0803/0824 00000KT P6SM VCSH SCT050 BKN100 OVC110 FM080800
                       VRB04KT P6SM BKN050 FM081200 13003KT P6SM
                       OVC030 FM081600 09003KT P6SM -RA OVC025
                       FM082100 12008KT P6SM -RA OVC030=
202301072342 TAF KCLM 072342Z 0800/0824 26005KT P6SM -RA BKN006 OVC015 FM080400
                       19003KT P6SM -RA OVC007 FM080800 VRB04KT
                       P6SM BKN050 FM081200 13003KT P6SM OVC030
                       FM081600 09003KT P6SM -RA OVC025 FM082100
                       12008KT P6SM -RA OVC030=
202301071743 TAF KCLM 071743Z 0718/0818 21004KT P6SM FEW050 OVC080 FM072000
                       34003KT 6SM -RA BR SCT015 OVC030 FM080200
                       00000KT P6SM -RA OVC007 FM081000 VRB04KT
                       P6SM BKN050=
202301071127 TAF KCLM 071127Z 0712/0812 VRB03KT P6SM SCT060 FM072000 34003KT
                       6SM -RA BR OVC025 FM080100 00000KT P6SM
                       -RA OVC007 FM081000 23004KT P6SM BKN050=
202301070530 TAF KCLM 070530Z 0706/0806 22003KT P6SM VCSH OVC070 FM070800 VRB03KT
                       P6SM OVC035 FM071500 VRB03KT P6SM VCSH BKN025
                       OVC040 FM071900 VRB03KT 6SM -RA BR OVC020=
202301062329 TAF KCLM 062329Z 0700/0724 VRB03KT P6SM -RA OVC040 FM070800 VRB03KT
                       P6SM VCSH OVC035 FM071300 VRB03KT P6SM VCSH
                       BKN025 OVC040 FM071900 VRB03KT 6SM -RA BR
                       OVC020=
202301061734 TAF KCLM 061734Z 0618/0718 12005KT P6SM OVC050 FM070000 12005KT
                       P6SM -RA OVC050 FM070500 VRB03KT P6SM -RA
                       OVC035 FM071300 24004KT P6SM VCSH BKN025
                       OVC040=
202301061130 TAF KCLM 061130Z 0612/0712 VRB03KT P6SM OVC050 FM061800 12005KT
                       P6SM OVC050 FM070000 12005KT P6SM -RA OVC050=
202301060520 TAF KCLM 060520Z 0606/0706 25010KT P6SM -SHRA OVC050 FM061100 VRB03KT
                       P6SM OVC050 FM061800 12005KT P6SM OVC050
                       FM070000 12005KT P6SM -RA OVC050=
202301052321 TAF KCLM 052321Z 0600/0624 09009KT P6SM -RA OVC050 WS020/16030KT
                       FM060300 23011KT P6SM -RA OVC030 FM061100
                       VRB03KT P6SM OVC025 FM061800 12005KT P6SM
                       SCT025 OVC040=
202301051720 TAF KCLM 051720Z 0518/0618 VRB03KT P6SM VCSH OVC060 FM052100 09014KT
                       P6SM -RA OVC040 WS020/16030KT FM060300 23011KT
                       P6SM -RA OVC030 FM061100 VRB03KT P6SM OVC025=
202301051139 TAF KCLM 051139Z 0512/0612 30003KT P6SM VCSH OVC060 FM051800 14004KT
                       P6SM VCSH OVC040 FM052100 09014KT P6SM -RA
                       OVC100 WS020/16030KT FM060300 11011KT P6SM
                       -RA OVC070=
202301050539 TAF KCLM 050539Z 0506/0606 00000KT P6SM VCSH SCT060 FM050900 23006KT
                       P6SM VCSH OVC060 FM051800 14004KT P6SM VCSH
                       OVC040 FM052100 09014KT P6SM -RA OVC100
                       WS020/16030KT FM060300 11011KT P6SM -RA
                       OVC070=
202301042320 TAF KCLM 042320Z 0500/0524 08012G21KT P6SM BKN150 FM050300 10015KT
                       P6SM VCSH OVC060
                      TEMPO 0503/0507 -RA OVC050 FM050900 24006KT
                       P6SM VCSH OVC050 FM051800 14004KT P6SM VCSH
                       OVC040=
202301041720 TAF KCLM 041720Z 0418/0518 VRB04KT P6SM SCT100 FM042100 08017G25KT
                       P6SM BKN150 FM050300 10015KT P6SM VCSH OVC060
                       FM050900 24006KT P6SM OVC050=
202301041127 TAF KCLM 041127Z 0412/0512 24008KT P6SM SCT060 FM041800 24004KT
                       P6SM SCT100 FM042100 08017G25KT P6SM BKN150
                       FM050300 10015KT P6SM OVC080=
202301040548 TAF KCLM 040548Z 0406/0506 20004KT P6SM VCSH OVC010 FM041600 14004KT
                       P6SM SCT015 OVC100 FM042100 08017G25KT P6SM
                       BKN210 FM050300 10015KT P6SM OVC080=
202301032320 TAF KCLM 032320Z 0400/0424 VRB03KT P6SM BKN010 OVC060 FM040600
                       20004KT P6SM VCSH OVC010 FM041700 14004KT
                       P6SM SCT015 OVC100=
202301031720 TAF KCLM 031720Z 0318/0418 VRB03KT P6SM BKN060 FM040600 20004KT
                       P6SM VCSH BKN045=
202301031127 TAF KCLM 031127Z 0312/0412 23003KT P6SM VCSH SCT025 OVC060 FM032000
                       VRB03KT P6SM BKN060 FM040600 22004KT P6SM
                       VCSH BKN045=
202301030525 TAF KCLM 030525Z 0306/0406 VRB03KT P6SM BKN050 OVC100 FM031100
                       23003KT P6SM VCSH BKN020 OVC040 FM032000
                       VRB03KT P6SM VCSH SCT025 BKN040=
202301022321 TAF KCLM 022321Z 0300/0324 25006KT P6SM BKN250 FM030400 24003KT
                       P6SM BKN050 OVC100 FM031100 23003KT P6SM
                       VCSH BKN020 OVC040 FM031900 VRB03KT P6SM
                       SCT025 BKN040=
202301021724 TAF KCLM 021724Z 0218/0318 08005KT P6SM SCT013 BKN200
                      TEMPO 0218/0220 BKN013 OVC200 FM030400 VRB03KT
                       P6SM BKN050 OVC100 FM031100 VRB04KT P6SM
                       VCSH BKN035 OVC050=
202301021130 TAF KCLM 021130Z 0212/0312 VRB03KT P6SM BKN018 OVC200 FM021800
                       08005KT P6SM OVC150 FM030400 VRB03KT P6SM
                       BKN050 OVC100 FM031100 VRB04KT P6SM VCSH
                       BKN035 OVC050=
202301020528 TAF KCLM 020528Z 0206/0306 24004KT P6SM BKN009 OVC015 FM020900
                       VRB03KT P6SM OVC012 FM021800 08005KT P6SM
                       SCT020 BKN200 FM030400 VRB03KT P6SM BKN080
                       OVC120=
202301020254 KCLM 020254Z 0203/0224 24004KT P6SM BKN009 OVC015 FM020900 VRB03KT
                       P6SM OVC012 FM021800 08005KT P6SM SCT020
                       BKN200=
202301012338 TAF KCLM 012338Z 0200/0224 24005KT P6SM SCT015 FM020300 18003KT
                       P6SM OVC015 FM021200 19003KT P6SM BKN250=
202301012044 KCLM 012044Z 0121/0218 24005KT P6SM BKN015 FM020800 19003KT P6SM
                       BKN250 FM021400 14002KT P6SM BKN250=
202301011739 TAF KCLM 011739Z 0118/0218 24005KT P6SM BKN015 FM011900 VRB03KT
                       P6SM SCT015 BKN040 FM012200 08004KT P6SM
                       SCT050 FM020700 10006KT P6SM SCT030 SCT250=
202301011128 TAF KCLM 011128Z 0112/0212 24005KT P6SM SCT015 FM011900 VRB03KT
                       P6SM SCT025 SCT040 FM012200 08004KT P6SM
                       SCT050 FM020700 10006KT P6SM SCT030 SCT250=
202301010534 TAF KCLM 010534Z 0106/0206 26006KT P6SM SCT025 BKN050 FM010900
                       24004KT P6SM OVC025 FM011900 VRB03KT P6SM
                       BKN027 BKN050 FM012200 08004KT P6SM SCT030
                       BKN050=