##########################################################
# Query made at 02/16/2025 06:14:10 UTC
# Time interval: from 06/01/2024 00:00  to 06/30/2024 23:59  UTC
##########################################################

##########################################################
# KCLM, Port Angeles, William R. Fairchild International Airport (United States)
# WMO index: -----. WIGOS ID: Unknown
# Latitude 48-07-20N. Longitude 123-30-19W. Altitude 87 m.
##########################################################

###################################
#  METAR/SPECI from KCLM
###################################
202406302353 METAR KCLM 302353Z AUTO 29009G17KT 10SM SCT044 20/13 A3016 RMK AO2 SLP211 60000 T02000133 10211 20172 53001=
202406302253 METAR KCLM 302253Z AUTO 29009KT 10SM FEW042 FEW055 21/14 A3015 RMK AO2 SLP209 T02060139=
202406302153 METAR KCLM 302153Z AUTO 29007KT 10SM SCT041 21/14 A3015 RMK AO2 RAE2054 SLP208 P0000 T02060144=
202406302100 SPECI KCLM 302100Z AUTO VRB06G15KT 10SM SCT025 BKN032 OVC044 18/13 A3015 RMK AO2 RAE2054 P0000 T01830133=
202406302053 METAR KCLM 302053Z AUTO 29008KT 10SM -RA BKN023 OVC032 18/13 A3015 RMK AO2 RAB44 SLP211 P0000 60000 T01830133 53008=
202406302021 SPECI KCLM 302021Z AUTO 31008KT 10SM FEW015 BKN020 OVC046 18/14 A3015 RMK AO2 T01830139=
202406301953 METAR KCLM 301953Z AUTO VRB06KT 10SM FEW015 SCT029 OVC048 19/14 A3015 RMK AO2 SLP208 T01940144=
202406301853 METAR KCLM 301853Z AUTO VRB04KT 10SM SCT013 OVC025 19/15 A3013 RMK AO2 SLP204 T01890150=
202406301753 METAR KCLM 301753Z AUTO 30006KT 10SM OVC010 17/14 A3013 RMK AO2 SLP202 T01720144 10178 20150 53010=
202406301653 METAR KCLM 301653Z AUTO 31003KT 10SM OVC010 17/15 A3011 RMK AO2 SLP197 T01720150=
202406301633 SPECI KCLM 301633Z AUTO 30006KT 10SM BKN009 OVC017 17/15 A3011 RMK AO2 T01720150=
202406301553 METAR KCLM 301553Z AUTO 29006KT 10SM OVC010 17/15 A3011 RMK AO2 CIG 007V014 SLP195 T01670150=
202406301529 SPECI KCLM 301529Z AUTO 30004KT 10SM BKN009 OVC014 17/14 A3011 RMK AO2 CIG 007V012 T01670144=
202406301453 METAR KCLM 301453Z AUTO 29006KT 10SM OVC014 17/14 A3010 RMK AO2 SLP192 T01670144 53008=
202406301353 METAR KCLM 301353Z AUTO 24004KT 10SM OVC010 16/14 A3009 RMK AO2 SLP189 T01610144=
202406301340 SPECI KCLM 301340Z AUTO 24003KT 10SM OVC010 16/14 A3008 RMK AO2 T01560144=
202406301306 SPECI KCLM 301306Z AUTO 25004KT 10SM OVC009 16/14 A3008 RMK AO2 T01560144=
202406301253 METAR KCLM 301253Z AUTO 25003KT 10SM OVC010 15/14 A3008 RMK AO2 SLP185 T01500139=
202406301231 SPECI KCLM 301231Z AUTO 27004KT 10SM BKN010 OVC026 15/14 A3008 RMK AO2 T01500139=
202406301153 METAR KCLM 301153Z AUTO 00000KT 10SM BKN016 BKN021 OVC033 16/14 A3007 RMK AO2 SLP184 70006 T01560139 10156 20150 52000=
202406301133 SPECI KCLM 301133Z AUTO 00000KT 10SM OVC014 16/14 A3007 RMK AO2 T01560139=
202406301053 METAR KCLM 301053Z AUTO 00000KT 10SM FEW008 OVC017 15/14 A3007 RMK AO2 SLP183 T01500139=
202406300953 METAR KCLM 300953Z AUTO 00000KT 10SM OVC022 16/14 A3008 RMK AO2 SLP184 T01560144=
202406300853 METAR KCLM 300853Z AUTO 27003KT 10SM FEW016 OVC023 16/14 A3007 RMK AO2 SLP183 T01560139 58004=
202406300753 METAR KCLM 300753Z AUTO 28004KT 10SM OVC024 15/14 A3008 RMK AO2 SLP185 T01500139 402000111=
202406300739 SPECI KCLM 300739Z AUTO 26004KT 10SM BKN024 OVC085 15/14 A3008 RMK AO2 T01500139=
202406300712 SPECI KCLM 300712Z AUTO 26003KT 10SM SCT023 OVC090 15/14 A3008 RMK AO2 T01500139=
202406300653 METAR KCLM 300653Z AUTO 28004KT 10SM OVC023 16/14 A3008 RMK AO2 SLP187 T01560139=
202406300553 METAR KCLM 300553Z AUTO 26004KT 10SM OVC025 16/14 A3009 RMK AO2 SLP188 60004 T01560139 10167 20150 51005=
202406300520 SPECI KCLM 300520Z AUTO 28004KT 10SM BKN026 OVC100 16/14 A3008 RMK AO2 T01560139=
202406300453 METAR KCLM 300453Z AUTO 26003KT 10SM OVC095 16/14 A3008 RMK AO2 SLP187 P0001 T01560139=
202406300353 METAR KCLM 300353Z AUTO 00000KT 10SM OVC095 16/14 A3008 RMK AO2 RAB0257E17 SLP184 P0000 T01560144=
202406300253 METAR KCLM 300253Z AUTO 28003KT 10SM OVC090 16/14 A3007 RMK AO2 RAE23 SLP182 P0000 60003 T01560139 53001=
202406300153 METAR KCLM 300153Z AUTO 00000KT 10SM -RA OVC090 16/14 A3006 RMK AO2 SLP180 P0001 T01560139=
202406300053 METAR KCLM 300053Z AUTO 29004KT 10SM -RA OVC090 16/14 A3006 RMK AO2 SLP181 P0002 T01560139=
202406292353 METAR KCLM 292353Z AUTO 31003KT 10SM -RA OVC090 17/14 A3007 RMK AO2 SLP182 P0002 60002 T01670139 10200 20161 51005=
202406292253 METAR KCLM 292253Z AUTO 28003KT 8SM -RA SCT055 BKN070 OVC085 17/14 A3007 RMK AO2 RAB13 SLP181 P0000 T01670144=
202406292153 METAR KCLM 292153Z AUTO VRB03KT 10SM FEW037 BKN044 OVC085 18/12 A3006 RMK AO2 SLP179 T01830122=
202406292053 METAR KCLM 292053Z AUTO VRB03KT 10SM FEW049 20/12 A3005 RMK AO2 SLP176 60000 T02000117 50000=
202406291953 METAR KCLM 291953Z AUTO VRB04KT 10SM SCT046 SCT060 BKN090 19/11 A3006 RMK AO2 RAB09E19 SLP178 P0000 T01890111=
202406291853 METAR KCLM 291853Z AUTO 34003KT 10SM FEW065 BKN080 BKN100 18/11 A3005 RMK AO2 SLP177 T01780111=
202406291753 METAR KCLM 291753Z AUTO VRB03KT 10SM FEW110 18/11 A3005 RMK AO2 SLP176 T01780111 10189 20117 51008=
202406291653 METAR KCLM 291653Z AUTO 34004KT 10SM CLR 18/12 A3005 RMK AO2 SLP174 T01780117=
202406291553 METAR KCLM 291553Z AUTO VRB03KT 10SM BKN055 17/11 A3004 RMK AO2 SLP172 T01670111=
202406291453 METAR KCLM 291453Z AUTO 00000KT 10SM BKN055 17/11 A3003 RMK AO2 SLP168 T01720111 53003=
202406291353 METAR KCLM 291353Z AUTO 00000KT 10SM CLR 13/11 A3003 RMK AO2 SLP167 T01330106=
202406291253 METAR KCLM 291253Z AUTO 00000KT 10SM FEW065 12/10 A3002 RMK AO2 SLP166 T01170100=
202406291153 METAR KCLM 291153Z AUTO 25003KT 10SM CLR 12/10 A3002 RMK AO2 SLP165 T01170100 10150 20111 58002=
202406291053 METAR KCLM 291053Z AUTO 21003KT 10SM BKN070 13/11 A3002 RMK AO2 SLP165 T01280106=
202406290953 METAR KCLM 290953Z AUTO 00000KT 10SM FEW065 FEW100 13/11 A3003 RMK AO2 SLP168 T01280106=
202406290853 METAR KCLM 290853Z AUTO 25004KT 10SM SCT070 OVC100 14/11 A3002 RMK AO2 SLP167 T01440111 53001=
202406290753 METAR KCLM 290753Z AUTO 27004KT 10SM BKN075 OVC100 14/11 A3002 RMK AO2 SLP165 T01440106 401830094=
202406290653 METAR KCLM 290653Z AUTO 26006KT 10SM BKN095 14/10 A3002 RMK AO2 SLP167 T01390100=
202406290553 METAR KCLM 290553Z AUTO 26006KT 10SM BKN110 15/09 A3002 RMK AO2 SLP167 T01500094 10178 20139 56001=
202406290453 METAR KCLM 290453Z AUTO 26006KT 10SM BKN110 15/09 A3003 RMK AO2 SLP168 T01500089=
202406290353 METAR KCLM 290353Z AUTO 26005KT 10SM OVC095 14/09 A3002 RMK AO2 SLP166 T01390094=
202406290253 METAR KCLM 290253Z AUTO 28006KT 10SM CLR 14/09 A3003 RMK AO2 SLP168 T01440094 57003=
202406290153 METAR KCLM 290153Z AUTO 31005KT 10SM SCT110 16/10 A3003 RMK AO2 SLP169 T01560100=
202406290053 METAR KCLM 290053Z AUTO 33004KT 10SM SCT110 16/10 A3003 RMK AO2 SLP170 T01610100=
202406282353 METAR KCLM 282353Z AUTO 02003KT 10SM SCT110 17/09 A3004 RMK AO2 SLP171 T01670094 10183 20150 56006=
202406282253 METAR KCLM 282253Z AUTO 02005KT 10SM CLR 17/09 A3004 RMK AO2 SLP173 T01720094=
202406282153 METAR KCLM 282153Z AUTO VRB05KT 10SM CLR 17/10 A3004 RMK AO2 SLP173 T01670100=
202406282053 METAR KCLM 282053Z AUTO VRB06KT 10SM CLR 18/09 A3005 RMK AO2 SLP177 T01780089 58007=
202406281953 METAR KCLM 281953Z AUTO VRB06KT 10SM CLR 17/08 A3007 RMK AO2 SLP181 T01670083=
202406281853 METAR KCLM 281853Z AUTO 34006KT 10SM CLR 16/08 A3007 RMK AO2 SLP182 T01560083=
202406281804 SPECI KCLM 281804Z AUTO 35006KT 10SM SCT026 16/08 A3007 RMK AO2 T01610083=
202406281753 METAR KCLM 281753Z AUTO VRB05KT 10SM BKN026 16/08 A3008 RMK AO2 SLP184 T01560083 10156 20122 53002=
202406281653 METAR KCLM 281653Z AUTO 33006KT 10SM OVC025 15/08 A3007 RMK AO2 SLP181 T01500083=
202406281553 METAR KCLM 281553Z AUTO VRB03KT 10SM OVC025 15/08 A3006 RMK AO2 SLP180 T01500083=
202406281453 METAR KCLM 281453Z AUTO 25004KT 10SM OVC026 14/08 A3007 RMK AO2 SLP182 T01390078 53003=
202406281353 METAR KCLM 281353Z AUTO 23006KT 10SM OVC027 13/08 A3006 RMK AO2 SLP181 T01330083=
202406281253 METAR KCLM 281253Z AUTO 24004KT 10SM OVC028 13/09 A3006 RMK AO2 SLP179 T01280089=
202406281153 METAR KCLM 281153Z AUTO 00000KT 10SM OVC028 12/09 A3006 RMK AO2 SLP178 T01220089 10122 20094 55001=
202406281053 METAR KCLM 281053Z AUTO 26004KT 10SM OVC029 12/09 A3005 RMK AO2 SLP175 T01170094=
202406281017 SPECI KCLM 281017Z AUTO 00000KT 10SM OVC029 12/09 A3005 RMK AO2 T01170094=
202406280953 METAR KCLM 280953Z AUTO 00000KT 10SM OVC030 12/09 A3006 RMK AO2 SLP179 T01170094=
202406280853 METAR KCLM 280853Z AUTO 22003KT 10SM FEW033 11/08 A3006 RMK AO2 SLP180 T01060083 50001=
202406280753 METAR KCLM 280753Z AUTO 24005KT 10SM FEW034 11/08 A3007 RMK AO2 SLP181 T01110083 401560094=
202406280653 METAR KCLM 280653Z AUTO 25003KT 10SM FEW036 10/08 A3007 RMK AO2 SLP183 T01000078=
202406280553 METAR KCLM 280553Z AUTO 24003KT 10SM CLR 11/08 A3006 RMK AO2 SLP179 T01060083 10150 20106 50001=
202406280453 METAR KCLM 280453Z AUTO 31003KT 10SM CLR 11/08 A3006 RMK AO2 SLP180 T01110083=
202406280353 METAR KCLM 280353Z AUTO 26006KT 10SM BKN034 14/09 A3006 RMK AO2 SLP179 T01390089=
202406280253 METAR KCLM 280253Z AUTO 30012G25KT 10SM SCT028 BKN100 14/09 A3006 RMK AO2 SLP178 T01390094 55000=
202406280245 SPECI KCLM 280245Z AUTO 30014G25KT 10SM BKN028 BKN100 13/09 A3006 RMK AO2 T01330094=
202406280215 SPECI KCLM 280215Z AUTO 29012G22KT 10SM FEW019 SCT029 BKN100 14/09 A3005 RMK AO2 T01440094=
202406280153 METAR KCLM 280153Z AUTO 29011G21KT 10SM BKN019 OVC027 15/09 A3006 RMK AO2 SLP178 T01500094=
202406280127 SPECI KCLM 280127Z AUTO 29013G23KT 10SM FEW020 BKN028 OVC100 15/09 A3005 RMK AO2 T01500094=
202406280103 SPECI KCLM 280103Z AUTO 30013G25KT 10SM SCT019 BKN100 14/09 A3005 RMK AO2 T01440094=
202406280053 METAR KCLM 280053Z AUTO 30012G24KT 10SM BKN019 BKN100 14/09 A3005 RMK AO2 PK WND 29027/0022 SLP177 T01440094=
202406272353 METAR KCLM 272353Z AUTO 30013G19KT 10SM BKN022 OVC028 14/10 A3006 RMK AO2 SLP179 T01390100 10156 20133 51008=
202406272336 SPECI KCLM 272336Z AUTO 30012G20KT 10SM BKN022 BKN030 BKN100 14/09 A3006 RMK AO2 T01440094=
202406272320 SPECI KCLM 272320Z AUTO 30012G21KT 10SM FEW022 SCT029 BKN095 14/10 A3006 RMK AO2 T01440100=
202406272253 METAR KCLM 272253Z AUTO 29014G26KT 10SM BKN022 OVC085 15/10 A3006 RMK AO2 PK WND 30029/2157 SLP179 T01500100=
202406272209 SPECI KCLM 272209Z AUTO 29015G27KT 10SM OVC016 14/10 A3005 RMK AO2 PK WND 30029/2157 T01440100=
202406272153 METAR KCLM 272153Z AUTO 29014G23KT 10SM OVC014 15/10 A3005 RMK AO2 PK WND 29026/2101 SLP176 T01500100=
202406272113 SPECI KCLM 272113Z AUTO 30012G25KT 10SM OVC014 14/11 A3005 RMK AO2 PK WND 29026/2101 T01390106=
202406272053 METAR KCLM 272053Z AUTO 30013G25KT 10SM OVC016 14/11 A3004 RMK AO2 PK WND 28027/2032 SLP171 T01440106 51006=
202406272040 SPECI KCLM 272040Z AUTO 30011G27KT 270V340 10SM OVC016 15/11 A3003 RMK AO2 PK WND 28027/2032 T01500106=
202406271953 METAR KCLM 271953Z AUTO 30015G25KT 10SM OVC010 14/11 A3003 RMK AO2 PK WND 29027/1934 SLP169 T01440106=
202406271928 SPECI KCLM 271928Z AUTO 30014G22KT 10SM BKN011 OVC080 14/11 A3003 RMK AO2 CIG 008V014 T01390106=
202406271911 SPECI KCLM 271911Z AUTO 29015G25KT 10SM FEW008 SCT013 OVC080 14/11 A3002 RMK AO2 T01440111=
202406271902 SPECI KCLM 271902Z AUTO 30012G24KT 10SM FEW010 SCT013 OVC080 14/11 A3002 RMK AO2 T01440111=
202406271853 METAR KCLM 271853Z AUTO 30014G23KT 10SM BKN013 OVC080 14/11 A3002 RMK AO2 SLP167 T01440111=
202406271823 SPECI KCLM 271823Z AUTO 30012G20KT 10SM FEW009 BKN013 BKN095 14/11 A3002 RMK AO2 T01440111=
202406271753 METAR KCLM 271753Z AUTO 30009G20KT 280V340 10SM BKN049 BKN100 15/11 A3002 RMK AO2 SLP164 60000 T01500111 10156 20122 53007=
202406271653 METAR KCLM 271653Z AUTO 30006KT 10SM BKN039 OVC050 15/11 A3001 RMK AO2 SLP161 T01500111=
202406271553 METAR KCLM 271553Z AUTO 30008KT 10SM OVC070 13/11 A3000 RMK AO2 SLP159 T01330111=
202406271453 METAR KCLM 271453Z AUTO 28006KT 10SM SCT070 OVC090 13/12 A2999 RMK AO2 SLP157 60000 T01330117 53001=
202406271353 METAR KCLM 271353Z AUTO 30004KT 10SM OVC080 13/11 A2999 RMK AO2 RAB06E31 SLP155 P0000 T01280111=
202406271253 METAR KCLM 271253Z AUTO 25006KT 10SM OVC065 12/11 A2999 RMK AO2 SLP156 T01220111=
202406271153 METAR KCLM 271153Z AUTO 26006KT 10SM OVC045 12/11 A2999 RMK AO2 RAE25 SLP155 P0000 60000 T01220111 10128 20122 53000=
202406271053 METAR KCLM 271053Z AUTO 29004KT 10SM -RA FEW007 OVC031 12/11 A2999 RMK AO2 RAB48 SLP155 P0000 T01220111=
202406271019 SPECI KCLM 271019Z AUTO 27006KT 10SM SCT014 OVC022 12/11 A2999 RMK AO2 T01220111=
202406270953 METAR KCLM 270953Z AUTO 28007KT 10SM OVC012 12/11 A2998 RMK AO2 SLP153 T01220111=
202406270937 SPECI KCLM 270937Z AUTO 27007KT 8SM OVC010 12/11 A2999 RMK AO2 CIG 006V012 T01220111=
202406270853 METAR KCLM 270853Z AUTO 29006KT 9SM OVC006 12/11 A2999 RMK AO2 SLP155 T01220111 56002=
202406270753 METAR KCLM 270753Z AUTO 26007KT 9SM OVC005 12/12 A2999 RMK AO2 SLP155 T01220117 401670122=
202406270711 SPECI KCLM 270711Z AUTO 28006KT 4SM BR OVC003 12/12 A2999 RMK AO2 T01220117=
202406270653 METAR KCLM 270653Z AUTO 29006KT 2 1/2SM BR OVC002 13/12 A2999 RMK AO2 SLP156 T01280117=
202406270645 SPECI KCLM 270645Z AUTO 29007KT 2 1/2SM BR OVC003 13/12 A3000 RMK AO2 T01280117=
202406270553 METAR KCLM 270553Z AUTO 28006KT 10SM OVC003 13/12 A3000 RMK AO2 SLP158 60000 T01280117 10167 20128 51000=
202406270453 METAR KCLM 270453Z AUTO 29007KT 10SM OVC004 13/12 A3000 RMK AO2 SLP158 T01280117=
202406270451 SPECI KCLM 270451Z AUTO 29008KT 10SM OVC004 13/12 A3000 RMK AO2=
202406270353 METAR KCLM 270353Z AUTO 27004KT 10SM OVC005 13/12 A3000 RMK AO2 SLP157 T01330117=
202406270253 METAR KCLM 270253Z AUTO 32007KT 290V350 10SM BKN005 OVC016 13/12 A2999 RMK AO2 SLP156 60000 T01330117 53001=
202406270227 SPECI KCLM 270227Z AUTO 31009KT 10SM FEW009 OVC016 14/12 A2999 RMK AO2 T01390117=
202406270153 METAR KCLM 270153Z AUTO 30008KT 10SM OVC016 15/12 A2999 RMK AO2 SLP154 T01500117=
202406270053 METAR KCLM 270053Z AUTO 34003KT 10SM OVC017 16/12 A2999 RMK AO2 RAE13 SLP155 P0000 T01560117=
202406262353 METAR KCLM 262353Z AUTO 30004KT 10SM -RA OVC018 15/12 A2999 RMK AO2 RAB46 SLP155 P0000 60000 T01500117 10156 20139 51008=
202406262253 METAR KCLM 262253Z AUTO 29006KT 10SM OVC019 14/11 A2999 RMK AO2 SLP155 T01440111=
202406262153 METAR KCLM 262153Z AUTO 29006KT 10SM OVC019 15/11 A2998 RMK AO2 SLP153 T01500111=
202406262053 METAR KCLM 262053Z AUTO 30009G16KT 10SM OVC018 14/11 A2997 RMK AO2 SLP147 T01440111 51020=
202406262031 SPECI KCLM 262031Z AUTO 30009KT 10SM BKN022 OVC060 15/11 A2996 RMK AO2 T01500111=
202406262017 SPECI KCLM 262017Z AUTO 30005KT 10SM FEW020 SCT026 OVC060 14/11 A2995 RMK AO2 T01440111=
202406261953 METAR KCLM 261953Z AUTO 30006KT 10SM FEW015 OVC027 14/11 A2995 RMK AO2 SLP141 T01390111=
202406261938 SPECI KCLM 261938Z AUTO 29006KT 10SM BKN015 OVC027 14/11 A2995 RMK AO2 T01440111=
202406261926 SPECI KCLM 261926Z AUTO 30008KT 10SM BKN014 OVC027 14/11 A2994 RMK AO2 T01440111=
202406261914 SPECI KCLM 261914Z AUTO 30010G16KT 280V340 10SM BKN015 OVC025 14/11 A2994 RMK AO2 T01440111=
202406261853 METAR KCLM 261853Z AUTO 29011G20KT 10SM BKN014 14/11 A2993 RMK AO2 SLP135 T01440111=
202406261801 SPECI KCLM 261801Z AUTO 30012KT 10SM BKN013 BKN100 15/11 A2991 RMK AO2 T01500111=
202406261753 METAR KCLM 261753Z AUTO 30009KT 10SM SCT012 BKN046 BKN090 14/11 A2991 RMK AO2 SLP127 T01440111 10156 20122 53010=
202406261653 METAR KCLM 261653Z AUTO 29015G20KT 10SM FEW012 15/11 A2989 RMK AO2 SLP120 T01500111=
202406261553 METAR KCLM 261553Z AUTO 29007KT 10SM SCT075 SCT100 14/11 A2988 RMK AO2 SLP118 T01440111=
202406261453 METAR KCLM 261453Z AUTO 28008KT 10SM BKN080 14/11 A2988 RMK AO2 SLP117 T01390111 53010=
202406261353 METAR KCLM 261353Z AUTO 29006KT 10SM CLR 13/11 A2986 RMK AO2 SLP111 T01330106=
202406261253 METAR KCLM 261253Z AUTO 28003KT 10SM CLR 13/11 A2985 RMK AO2 SLP107 T01280106=
202406261153 METAR KCLM 261153Z AUTO 10SM CLR 13/11 A2985 RMK AO2 SLP106 T01280106 10161 20122 58008=
202406261053 METAR KCLM 261053Z AUTO 27004KT 10SM CLR 13/10 A2985 RMK AO2 SLP108 T01280100=
202406260953 METAR KCLM 260953Z AUTO 30003KT 10SM CLR 13/10 A2986 RMK AO2 SLP111 T01280100=
202406260853 METAR KCLM 260853Z AUTO 27003KT 10SM CLR 15/09 A2987 RMK AO2 SLP114 T01500094 56009=
202406260753 METAR KCLM 260753Z AUTO 29005KT 10SM CLR 15/09 A2988 RMK AO2 SLP116 T01500094 402390078=
202406260653 METAR KCLM 260653Z AUTO 28008KT 10SM CLR 16/09 A2989 RMK AO2 SLP120 T01610094=
202406260553 METAR KCLM 260553Z AUTO 29009KT 10SM CLR 16/09 A2990 RMK AO2 SLP123 T01610094 10233 20156 58003=
202406260453 METAR KCLM 260453Z AUTO 28010KT 10SM CLR 16/09 A2990 RMK AO2 SLP125 T01610094=
202406260353 METAR KCLM 260353Z AUTO 28006KT 10SM CLR 17/09 A2991 RMK AO2 SLP128 T01670094=
202406260253 METAR KCLM 260253Z AUTO 00000KT 10SM CLR 18/10 A2991 RMK AO2 SLP127 T01780100 58010=
202406260153 METAR KCLM 260153Z AUTO 29004KT 10SM CLR 18/10 A2992 RMK AO2 SLP130 T01780100=
202406260053 METAR KCLM 260053Z AUTO 28009G15KT 10SM CLR 19/11 A2994 RMK AO2 SLP137 T01890106=
202406252353 METAR KCLM 252353Z AUTO VRB04KT 10SM CLR 24/08 A2994 RMK AO2 SLP137 T02390083 10239 20189 56015=
202406252253 METAR KCLM 252253Z AUTO 36004KT 10SM CLR 23/08 A2995 RMK AO2 SLP141 T02280083=
202406252153 METAR KCLM 252153Z AUTO VRB05KT 10SM CLR 23/09 A2996 RMK AO2 SLP147 T02280089=
202406252053 METAR KCLM 252053Z AUTO VRB05KT 10SM CLR 22/08 A2998 RMK AO2 SLP152 T02220083 58015=
202406251953 METAR KCLM 251953Z AUTO VRB05KT 10SM CLR 21/10 A3000 RMK AO2 SLP158 T02060100=
202406251853 METAR KCLM 251853Z AUTO VRB06KT 10SM CLR 21/11 A3001 RMK AO2 SLP162 T02060106=
202406251753 METAR KCLM 251753Z AUTO VRB06KT 10SM CLR 19/11 A3002 RMK AO2 SLP167 T01940106 10200 20078 58003=
202406251653 METAR KCLM 251653Z AUTO VRB05KT 10SM CLR 19/11 A3003 RMK AO2 SLP169 T01890106=
202406251553 METAR KCLM 251553Z AUTO VRB04KT 10SM CLR 17/11 A3004 RMK AO2 SLP171 T01720106=
202406251453 METAR KCLM 251453Z AUTO 11003KT 10SM CLR 17/11 A3003 RMK AO2 SLP170 T01670111 50000=
202406251353 METAR KCLM 251353Z AUTO 00000KT 10SM CLR 14/10 A3003 RMK AO2 SLP170 T01390100=
202406251253 METAR KCLM 251253Z AUTO 21003KT 10SM CLR 09/08 A3004 RMK AO2 SLP172 T00940078=
202406251153 METAR KCLM 251153Z AUTO 20003KT 10SM CLR 08/07 A3004 RMK AO2 SLP171 T00830072 10117 20078 58006=
202406251053 METAR KCLM 251053Z AUTO 00000KT 10SM CLR 08/07 A3004 RMK AO2 SLP174 T00830067=
202406250953 METAR KCLM 250953Z AUTO 00000KT 10SM CLR 09/08 A3005 RMK AO2 SLP175 T00940078=
202406250853 METAR KCLM 250853Z AUTO 23005KT 10SM CLR 11/08 A3005 RMK AO2 SLP177 T01110083 58006=
202406250753 METAR KCLM 250753Z AUTO 00000KT 10SM CLR 09/08 A3006 RMK AO2 SLP180 T00940078 401890089=
202406250653 METAR KCLM 250653Z AUTO 27006KT 10SM CLR 11/08 A3007 RMK AO2 SLP182 T01060083=
202406250553 METAR KCLM 250553Z AUTO 29003KT 10SM CLR 11/08 A3007 RMK AO2 SLP183 T01060083 10172 20106 56005=
202406250453 METAR KCLM 250453Z AUTO 28004KT 10SM CLR 12/08 A3008 RMK AO2 SLP184 T01220083=
202406250353 METAR KCLM 250353Z AUTO 31003KT 10SM CLR 14/08 A3008 RMK AO2 SLP185 T01390083=
202406250253 METAR KCLM 250253Z AUTO 31005KT 10SM OVC050 15/08 A3009 RMK AO2 SLP188 T01500083 58005=
202406250153 METAR KCLM 250153Z AUTO 29010KT 10SM OVC049 15/09 A3009 RMK AO2 SLP189 T01500089=
202406250053 METAR KCLM 250053Z AUTO 30009KT 10SM OVC050 16/08 A3010 RMK AO2 SLP191 T01610083=
202406242353 METAR KCLM 242353Z AUTO 30009KT 10SM OVC050 17/08 A3010 RMK AO2 SLP192 T01720078 10189 20156 58007=
202406242253 METAR KCLM 242253Z AUTO 31007KT 10SM OVC050 17/08 A3011 RMK AO2 SLP196 T01720083=
202406242153 METAR KCLM 242153Z AUTO 29010KT 10SM OVC050 17/08 A3012 RMK AO2 SLP200 T01720083=
202406242053 METAR KCLM 242053Z AUTO 29009KT 10SM OVC050 18/07 A3012 RMK AO2 SLP200 T01780072 50001=
202406241953 METAR KCLM 241953Z AUTO 28008KT 10SM BKN047 BKN065 18/07 A3013 RMK AO2 SLP202 T01780072=
202406241900 SPECI KCLM 241900Z AUTO 29008KT 10SM BKN030 OVC046 17/08 A3013 RMK AO2 T01670083=
202406241853 METAR KCLM 241853Z AUTO 29009KT 10SM BKN029 BKN047 OVC060 17/09 A3013 RMK AO2 SLP201 T01670089=
202406241753 METAR KCLM 241753Z AUTO 29005KT 10SM FEW035 FEW050 OVC060 16/09 A3012 RMK AO2 SLP199 T01560089 10167 20111 51005=
202406241653 METAR KCLM 241653Z AUTO 31006KT 10SM OVC055 15/11 A3012 RMK AO2 SLP198 T01500106=
202406241553 METAR KCLM 241553Z AUTO VRB03KT 10SM FEW026 OVC060 14/11 A3011 RMK AO2 SLP198 T01440106=
202406241453 METAR KCLM 241453Z AUTO 00000KT 10SM OVC060 13/09 A3011 RMK AO2 SLP194 T01330094 50002=
202406241353 METAR KCLM 241353Z AUTO 24003KT 10SM OVC047 12/09 A3011 RMK AO2 SLP196 T01220094=
202406241253 METAR KCLM 241253Z AUTO 22005KT 10SM OVC050 12/09 A3011 RMK AO2 SLP195 T01170094=
202406241153 METAR KCLM 241153Z AUTO 00000KT 10SM OVC050 11/09 A3010 RMK AO2 SLP192 T01110094 10122 20100 53002=
202406241053 METAR KCLM 241053Z AUTO 22004KT 10SM OVC060 11/09 A3009 RMK AO2 SLP191 T01110094=
202406240953 METAR KCLM 240953Z AUTO 25003KT 10SM FEW009 OVC060 11/09 A3010 RMK AO2 SLP191 T01060094=
202406240934 SPECI KCLM 240934Z AUTO 25004KT 10SM FEW009 FEW015 OVC060 11/09 A3009 RMK AO2 T01060089=
202406240853 METAR KCLM 240853Z AUTO 24003KT 10SM BKN065 10/08 A3009 RMK AO2 SLP190 T01000083 53002=
202406240753 METAR KCLM 240753Z AUTO 25004KT 10SM CLR 11/09 A3009 RMK AO2 SLP189 T01110094 401720111=
202406240653 METAR KCLM 240653Z AUTO 25005KT 10SM SCT055 12/09 A3009 RMK AO2 SLP190 T01170094=
202406240553 METAR KCLM 240553Z AUTO 24003KT 10SM FEW060 12/09 A3009 RMK AO2 SLP189 T01220094 10161 20122 53002=
202406240453 METAR KCLM 240453Z AUTO 27004KT 10SM SCT023 12/09 A3009 RMK AO2 SLP189 T01220094=
202406240353 METAR KCLM 240353Z AUTO 27004KT 10SM FEW080 14/09 A3008 RMK AO2 SLP184 T01390094=
202406240253 METAR KCLM 240253Z AUTO 30009KT 10SM BKN035 OVC043 16/09 A3008 RMK AO2 SLP186 T01560094 53003=
202406240224 SPECI KCLM 240224Z AUTO 29007KT 10SM SCT027 OVC035 14/09 A3008 RMK AO2 T01440094=
202406240216 SPECI KCLM 240216Z AUTO 29009KT 10SM BKN027 OVC033 14/09 A3008 RMK AO2 T01440094=
202406240153 METAR KCLM 240153Z AUTO 29006KT 10SM OVC032 15/09 A3008 RMK AO2 SLP186 T01500094=
202406240053 METAR KCLM 240053Z AUTO 29008KT 10SM FEW023 BKN034 OVC048 16/10 A3007 RMK AO2 SLP183 T01560100=
202406232353 METAR KCLM 232353Z AUTO 31010G15KT 10SM SCT024 OVC038 16/10 A3007 RMK AO2 SLP183 T01560100 10172 20144 51004=
202406232314 SPECI KCLM 232314Z AUTO 02005KT 10SM SCT025 BKN039 OVC045 16/10 A3007 RMK AO2 T01610100=
202406232307 SPECI KCLM 232307Z AUTO VRB04KT 10SM BKN025 BKN039 OVC075 16/10 A3007 RMK AO2 T01560100=
202406232253 METAR KCLM 232253Z AUTO VRB06KT 10SM SCT025 BKN037 OVC046 16/10 A3007 RMK AO2 SLP183 T01610100=
202406232153 METAR KCLM 232153Z AUTO VRB04KT 10SM BKN034 OVC055 16/10 A3007 RMK AO2 SLP181 T01610100=
202406232053 METAR KCLM 232053Z AUTO VRB04KT 10SM SCT032 BKN055 BKN070 16/10 A3006 RMK AO2 SLP179 T01560100 51015=
202406231953 METAR KCLM 231953Z AUTO 34006KT 10SM SCT070 16/10 A3004 RMK AO2 SLP173 T01610100=
202406231853 METAR KCLM 231853Z AUTO VRB05KT 10SM FEW080 16/10 A3004 RMK AO2 SLP172 T01560100=
202406231753 METAR KCLM 231753Z AUTO 29008KT 10SM OVC075 16/10 A3002 RMK AO2 SLP165 T01610100 10161 20117 50006=
202406231653 METAR KCLM 231653Z AUTO VRB06KT 10SM OVC075 13/10 A3003 RMK AO2 SLP167 T01330100=
202406231553 METAR KCLM 231553Z AUTO 28006KT 10SM FEW013 OVC075 13/10 A3001 RMK AO2 SLP162 T01330100=
202406231453 METAR KCLM 231453Z AUTO 27010G20KT 10SM OVC070 14/09 A3000 RMK AO2 SLP158 T01390094 53012=
202406231409 SPECI KCLM 231409Z AUTO 28009KT 10SM SCT011 BKN065 12/10 A2999 RMK AO2 T01220100=
202406231353 METAR KCLM 231353Z AUTO 28012G16KT 10SM BKN013 BKN060 12/10 A2998 RMK AO2 SLP152 T01220100=
202406231347 SPECI KCLM 231347Z AUTO 28012KT 10SM FEW009 SCT013 BKN060 12/10 A2998 RMK AO2=
202406231336 SPECI KCLM 231336Z AUTO 28010KT 10SM BKN014 12/10 A2998 RMK AO2 T01220100=
202406231253 METAR KCLM 231253Z AUTO 24006KT 10SM FEW013 SCT060 12/09 A2997 RMK AO2 SLP147 T01170094=
202406231251 SPECI KCLM 231251Z AUTO 25005KT 10SM SCT013 12/09 A2996 RMK AO2=
202406231219 SPECI KCLM 231219Z AUTO VRB05KT 10SM OVC011 12/10 A2997 RMK AO2 CIG 008V013 T01220100=
202406231200 SPECI KCLM 231200Z AUTO 20003KT 10SM OVC009 12/10 A2996 RMK AO2 CIG 008V015 T01220100=
202406231153 METAR KCLM 231153Z AUTO 00000KT 10SM OVC011 12/10 A2996 RMK AO2 CIG 008V015 SLP145 T01220100 10133 20117 53005=
202406231127 SPECI KCLM 231127Z AUTO 27009G18KT 250V310 10SM BKN013 12/10 A2995 RMK AO2 T01170100=
202406231053 METAR KCLM 231053Z AUTO 28010G17KT 10SM FEW015 BKN027 12/09 A2995 RMK AO2 SLP140 T01170094=
202406230953 METAR KCLM 230953Z AUTO 30003KT 10SM FEW015 OVC026 12/10 A2995 RMK AO2 SLP140 T01220100=
202406230940 SPECI KCLM 230940Z AUTO 28005KT 10SM SCT013 OVC025 12/10 A2994 RMK AO2 T01220100=
202406230853 METAR KCLM 230853Z AUTO 28009KT 10SM OVC010 13/10 A2994 RMK AO2 SLP139 T01280100 51001=
202406230753 METAR KCLM 230753Z AUTO 29008G14KT 10SM OVC010 13/11 A2994 RMK AO2 CIG 007V012 SLP138 T01280106 401890128=
202406230653 METAR KCLM 230653Z AUTO 29008G18KT 10SM OVC007 13/11 A2995 RMK AO2 SLP140 T01280106=
202406230553 METAR KCLM 230553Z AUTO 30009KT 10SM OVC007 13/11 A2994 RMK AO2 SLP139 T01330111 10183 20133 53006=
202406230453 METAR KCLM 230453Z AUTO 30004KT 10SM OVC007 13/11 A2993 RMK AO2 SLP136 T01330111=
202406230353 METAR KCLM 230353Z AUTO 29011KT 10SM OVC006 13/12 A2993 RMK AO2 SLP136 T01330117=
202406230256 SPECI KCLM 230256Z AUTO 29011G19KT 10SM BKN008 BKN014 BKN018 15/13 A2993 RMK AO2 CIG 007V012 T01500128=
202406230249 METAR KCLM 230249Z AUTO 30011G17KT 10SM BKN012 BKN020 16/13 A2992 RMK AO2 SLP133 T01610128 53002=
202406230248 SPECI KCLM 230248Z AUTO 30010G17KT 10SM BKN014 BKN020 16/13 A2992 RMK AO2=
202406230153 METAR KCLM 230153Z AUTO 30007G16KT 10SM SCT065 17/13 A2991 RMK AO2 SLP129 T01720128=
202406230053 METAR KCLM 230053Z AUTO 29009KT 10SM FEW065 SCT085 18/13 A2992 RMK AO2 SLP130 T01830128=
202406222353 METAR KCLM 222353Z AUTO 29010G15KT 10SM BKN090 17/13 A2992 RMK AO2 RAB19E30 SLP130 P0000 60000 T01720128 10189 20161 58002=
202406222253 METAR KCLM 222253Z AUTO 30009KT 10SM BKN075 BKN090 17/12 A2993 RMK AO2 SLP134 T01720122=
202406222153 METAR KCLM 222153Z AUTO 30008G17KT 10SM FEW075 SCT090 18/12 A2993 RMK AO2 SLP134 T01780117=
202406222053 METAR KCLM 222053Z AUTO VRB05KT 10SM CLR 18/09 A2992 RMK AO2 SLP132 T01830094 56000=
202406221953 METAR KCLM 221953Z AUTO 30007KT 10SM FEW085 17/09 A2993 RMK AO2 SLP134 T01670094=
202406221853 METAR KCLM 221853Z AUTO 29006KT 10SM FEW075 18/09 A2992 RMK AO2 SLP131 T01780094=
202406221753 METAR KCLM 221753Z AUTO 26004KT 10SM BKN080 OVC100 17/10 A2992 RMK AO2 SLP133 60000 T01720100 10172 20128 55000=
202406221653 METAR KCLM 221653Z AUTO 00000KT 10SM OVC060 16/09 A2992 RMK AO2 RAB1555E04 SLP133 P0000 T01610094=
202406221553 METAR KCLM 221553Z AUTO 35003KT 10SM OVC070 16/08 A2992 RMK AO2 SLP131 T01560083=
202406221453 METAR KCLM 221453Z AUTO 24003KT 10SM BKN080 OVC110 15/08 A2992 RMK AO2 SLP133 T01500078 51001=
202406221353 METAR KCLM 221353Z AUTO 27007KT 10SM SCT110 14/08 A2992 RMK AO2 SLP133 T01390078=
202406221253 METAR KCLM 221253Z AUTO 25003KT 10SM CLR 13/08 A2992 RMK AO2 SLP133 T01330078=
202406221153 METAR KCLM 221153Z AUTO 28005KT 10SM BKN120 13/08 A2992 RMK AO2 SLP131 T01280078 10150 20128 53001=
202406221053 METAR KCLM 221053Z AUTO 28011G17KT 10SM SCT090 SCT110 13/08 A2992 RMK AO2 SLP131 T01330083=
202406220953 METAR KCLM 220953Z AUTO 27006KT 10SM BKN120 13/08 A2992 RMK AO2 SLP131 T01330083=
202406220853 METAR KCLM 220853Z AUTO 28009KT 10SM CLR 13/09 A2992 RMK AO2 SLP131 T01330089 55001=
202406220753 METAR KCLM 220753Z AUTO 28006KT 10SM CLR 13/09 A2991 RMK AO2 SLP130 T01330089 402170094=
202406220653 METAR KCLM 220653Z AUTO 28009KT 10SM CLR 14/09 A2992 RMK AO2 SLP132 T01390094=
202406220553 METAR KCLM 220553Z AUTO 30009KT 10SM CLR 14/10 A2992 RMK AO2 SLP132 T01440100 10211 20139 58004=
202406220453 METAR KCLM 220453Z AUTO 27007KT 10SM CLR 14/11 A2993 RMK AO2 SLP135 T01440106=
202406220353 METAR KCLM 220353Z AUTO 28006KT 10SM CLR 16/11 A2993 RMK AO2 SLP135 T01560111=
202406220253 METAR KCLM 220253Z AUTO 29005KT 10SM CLR 17/11 A2994 RMK AO2 SLP137 T01670106 56001=
202406220153 METAR KCLM 220153Z AUTO VRB03G17KT 10SM CLR 18/11 A2994 RMK AO2 SLP137 T01830111=
202406220053 METAR KCLM 220053Z AUTO 29008KT 10SM CLR 19/11 A2993 RMK AO2 SLP135 T01940111=
202406212353 METAR KCLM 212353Z AUTO 32006KT 10SM CLR 21/12 A2994 RMK AO2 SLP138 T02110117 10217 20183 58010=
202406212253 METAR KCLM 212253Z AUTO 29008KT 10SM CLR 19/11 A2996 RMK AO2 SLP144 T01940111=
202406212153 METAR KCLM 212153Z AUTO 31007KT 10SM CLR 20/12 A2997 RMK AO2 SLP148 T02000117=
202406212053 METAR KCLM 212053Z AUTO 29008KT 10SM CLR 20/11 A2997 RMK AO2 SLP147 T02000106 58004=
202406211953 METAR KCLM 211953Z AUTO 33005KT 10SM CLR 21/11 A2998 RMK AO2 SLP151 T02110111=
202406211853 METAR KCLM 211853Z AUTO 34004KT 10SM CLR 19/11 A2998 RMK AO2 SLP150 T01940111=
202406211753 METAR KCLM 211753Z AUTO 35004KT 10SM CLR 19/12 A2998 RMK AO2 SLP151 T01940117 10194 20094 56002=
202406211653 METAR KCLM 211653Z AUTO 34003KT 10SM CLR 19/12 A2998 RMK AO2 SLP152 T01890117=
202406211553 METAR KCLM 211553Z AUTO 34004KT 10SM CLR 19/12 A2998 RMK AO2 SLP151 T01890122=
202406211453 METAR KCLM 211453Z AUTO 00000KT 10SM CLR 18/11 A2998 RMK AO2 SLP152 T01780106 50005=
202406211353 METAR KCLM 211353Z AUTO 00000KT 10SM CLR 15/11 A2999 RMK AO2 SLP154 T01500106=
202406211253 METAR KCLM 211253Z AUTO 22003KT 10SM CLR 11/08 A2998 RMK AO2 SLP152 T01110083=
202406211153 METAR KCLM 211153Z AUTO 12003KT 10SM CLR 11/08 A2997 RMK AO2 SLP147 T01110083 10200 20100 58001=
202406211053 METAR KCLM 211053Z AUTO 00000KT 10SM CLR 12/09 A2997 RMK AO2 SLP147 T01220089=
202406210953 METAR KCLM 210953Z AUTO 00000KT 10SM CLR 13/09 A2998 RMK AO2 SLP150 T01330089=
202406210853 METAR KCLM 210853Z AUTO 25007KT 10SM CLR 18/07 A2997 RMK AO2 SLP148 T01780067 56006=
202406210753 METAR KCLM 210753Z AUTO 25011KT 10SM CLR 20/07 A2997 RMK AO2 SLP148 T02000067 402720078=
202406210653 METAR KCLM 210653Z AUTO 25007KT 10SM CLR 19/07 A2998 RMK AO2 SLP151 T01940067=
202406210553 METAR KCLM 210553Z AUTO 25006KT 10SM CLR 18/09 A2999 RMK AO2 SLP154 T01780089 10244 20167 58001=
202406210453 METAR KCLM 210453Z AUTO 22006KT 10SM CLR 17/09 A2999 RMK AO2 SLP156 T01670089=
202406210353 METAR KCLM 210353Z AUTO 26007KT 10SM CLR 20/08 A2999 RMK AO2 SLP156 T02000078=
202406210253 METAR KCLM 210253Z AUTO 30006KT 10SM CLR 21/08 A2999 RMK AO2 SLP155 T02110083 55004=
202406210153 METAR KCLM 210153Z AUTO 30007KT 10SM CLR 23/09 A2999 RMK AO2 SLP155 T02280089=
202406210053 METAR KCLM 210053Z AUTO 29005KT 10SM CLR 22/09 A3000 RMK AO2 SLP158 T02220094=
202406202353 METAR KCLM 202353Z AUTO 35006KT 10SM CLR 24/10 A3000 RMK AO2 SLP160 T02440100 10272 20228 56009=
202406202253 METAR KCLM 202253Z AUTO 06004KT 10SM CLR 27/07 A3001 RMK AO2 SLP161 T02670067=
202406202153 METAR KCLM 202153Z AUTO 04006KT 10SM CLR 26/07 A3002 RMK AO2 SLP164 T02610072=
202406202053 METAR KCLM 202053Z AUTO VRB06KT 10SM CLR 26/07 A3003 RMK AO2 SLP168 T02560072 58008=
202406201953 METAR KCLM 201953Z AUTO VRB04KT 10SM CLR 24/09 A3004 RMK AO2 SLP172 T02440089=
202406201853 METAR KCLM 201853Z AUTO 08006KT 10SM CLR 23/09 A3005 RMK AO2 SLP177 T02280094=
202406201753 METAR KCLM 201753Z AUTO 08008KT 10SM CLR 23/09 A3006 RMK AO2 SLP177 T02280089 10228 20083 51005=
202406201653 METAR KCLM 201653Z AUTO 04004KT 10SM CLR 22/07 A3006 RMK AO2 SLP176 T02220072=
202406201553 METAR KCLM 201553Z AUTO 10007KT 10SM CLR 22/08 A3005 RMK AO2 SLP174 T02220083=
202406201453 METAR KCLM 201453Z AUTO 00000KT 10SM CLR 20/09 A3004 RMK AO2 SLP171 T02000094 51009=
202406201353 METAR KCLM 201353Z AUTO 22004KT 10SM CLR 16/08 A3004 RMK AO2 SLP171 T01560083=
202406201253 METAR KCLM 201253Z AUTO 20003KT 10SM CLR 09/07 A3003 RMK AO2 SLP168 T00890067=
202406201153 METAR KCLM 201153Z AUTO 00000KT 10SM CLR 09/07 A3001 RMK AO2 SLP163 T00940067 10139 20078 53005=
202406201053 METAR KCLM 201053Z AUTO 00000KT 10SM CLR 09/06 A3001 RMK AO2 SLP161 T00890061=
202406200953 METAR KCLM 200953Z AUTO 00000KT 10SM CLR 10/07 A3000 RMK AO2 SLP159 T01000072=
202406200853 METAR KCLM 200853Z AUTO 00000KT 10SM CLR 11/07 A3000 RMK AO2 SLP159 T01110072 58004=
202406200753 METAR KCLM 200753Z AUTO 26004KT 10SM CLR 13/08 A3000 RMK AO2 SLP159 T01330078 402440067=
202406200653 METAR KCLM 200653Z AUTO 28003KT 10SM CLR 12/09 A3001 RMK AO2 SLP164 T01170089=
202406200553 METAR KCLM 200553Z AUTO 25003KT 10SM CLR 14/09 A3001 RMK AO2 SLP163 T01390094 10244 20139 53005=
202406200453 METAR KCLM 200453Z AUTO 25004KT 10SM CLR 16/09 A3001 RMK AO2 SLP162 T01560089=
202406200353 METAR KCLM 200353Z AUTO 26007KT 10SM CLR 17/10 A3000 RMK AO2 SLP158 T01670100=
202406200253 METAR KCLM 200253Z AUTO 29005KT 10SM CLR 18/10 A3000 RMK AO2 SLP158 T01830100 55000=
202406200153 METAR KCLM 200153Z AUTO 30006KT 10SM CLR 18/10 A3000 RMK AO2 SLP157 T01830100=
202406200053 METAR KCLM 200053Z AUTO 29006KT 10SM CLR 21/11 A2999 RMK AO2 SLP156 T02060106=
202406192353 METAR KCLM 192353Z AUTO 10005KT 10SM CLR 24/06 A3000 RMK AO2 SLP158 T02440056 10244 20178 56010=
202406192253 METAR KCLM 192253Z AUTO VRB05KT 10SM CLR 23/08 A3001 RMK AO2 SLP160 T02280083=
202406192153 METAR KCLM 192153Z AUTO 07005KT 10SM CLR 22/09 A3001 RMK AO2 SLP163 T02220089=
202406192053 METAR KCLM 192053Z AUTO VRB06KT 10SM CLR 22/09 A3003 RMK AO2 SLP168 T02170089 58006=
202406191953 METAR KCLM 191953Z AUTO 08007KT 10SM CLR 21/08 A3004 RMK AO2 SLP172 T02060083=
202406191853 METAR KCLM 191853Z AUTO VRB05KT 10SM CLR 20/09 A3004 RMK AO2 SLP173 T02000094=
202406191753 METAR KCLM 191753Z AUTO VRB04KT 10SM CLR 18/10 A3005 RMK AO2 SLP175 T01780100 10183 20067 50001=
202406191653 METAR KCLM 191653Z AUTO VRB03KT 10SM CLR 18/10 A3005 RMK AO2 SLP176 T01780100=
202406191553 METAR KCLM 191553Z AUTO 03004KT 10SM CLR 17/09 A3005 RMK AO2 SLP176 T01670089=
202406191453 METAR KCLM 191453Z AUTO 00000KT 10SM CLR 15/08 A3004 RMK AO2 SLP174 T01500078 51008=
202406191353 METAR KCLM 191353Z AUTO 00000KT 10SM CLR 12/08 A3004 RMK AO2 SLP172 T01170083=
202406191253 METAR KCLM 191253Z AUTO 00000KT 10SM CLR 07/06 A3003 RMK AO2 SLP170 T00720061=
202406191153 METAR KCLM 191153Z AUTO 20003KT 10SM CLR 08/06 A3002 RMK AO2 SLP167 T00780061 10106 20067 55000=
202406191053 METAR KCLM 191053Z AUTO 24005KT 10SM CLR 10/07 A3001 RMK AO2 SLP161 T01000072=
202406190953 METAR KCLM 190953Z AUTO 00000KT 10SM CLR 08/07 A3001 RMK AO2 SLP163 T00830067=
202406190853 METAR KCLM 190853Z AUTO 27005KT 10SM CLR 09/07 A3002 RMK AO2 SLP167 T00890072 57005=
202406190753 METAR KCLM 190753Z AUTO 23006KT 10SM CLR 10/08 A3003 RMK AO2 SLP168 T01000083 401780067=
202406190653 METAR KCLM 190653Z AUTO 29006KT 10SM CLR 10/08 A3003 RMK AO2 SLP169 T01000083=
202406190553 METAR KCLM 190553Z AUTO 28006KT 10SM CLR 11/08 A3004 RMK AO2 SLP171 T01060083 10167 20100 50002=
202406190453 METAR KCLM 190453Z AUTO 26004KT 10SM CLR 11/08 A3004 RMK AO2 SLP173 T01110083=
202406190353 METAR KCLM 190353Z AUTO 29006KT 10SM CLR 13/09 A3004 RMK AO2 SLP172 T01330089=
202406190253 METAR KCLM 190253Z AUTO 29007KT 10SM CLR 15/09 A3003 RMK AO2 SLP169 T01500089 55003=
202406190153 METAR KCLM 190153Z AUTO 29008KT 10SM FEW065 16/09 A3003 RMK AO2 SLP169 T01560089=
202406190053 METAR KCLM 190053Z AUTO 29011G16KT 10SM CLR 16/09 A3004 RMK AO2 SLP171 T01610089=
202406182353 METAR KCLM 182353Z AUTO 31008KT 10SM CLR 17/09 A3004 RMK AO2 SLP172 T01670089 10178 20139 58010=
202406182253 METAR KCLM 182253Z AUTO VRB05KT 10SM CLR 17/09 A3005 RMK AO2 SLP177 T01670094=
202406182153 METAR KCLM 182153Z AUTO VRB05KT 10SM CLR 17/09 A3007 RMK AO2 SLP183 T01670089=
202406182053 METAR KCLM 182053Z AUTO 35006KT 10SM CLR 16/09 A3007 RMK AO2 SLP184 T01560089 58005=
202406181953 METAR KCLM 181953Z AUTO VRB06KT 10SM FEW029 16/09 A3008 RMK AO2 SLP186 T01560089=
202406181928 SPECI KCLM 181928Z AUTO 33005KT 10SM SCT028 16/09 A3008 RMK AO2 T01560089=
202406181853 METAR KCLM 181853Z AUTO VRB04KT 10SM OVC026 15/09 A3009 RMK AO2 SLP189 T01500094=
202406181810 SPECI KCLM 181810Z AUTO 36005KT 10SM BKN029 14/09 A3008 RMK AO2 T01440094=
202406181753 METAR KCLM 181753Z AUTO 33004KT 10SM OVC031 14/10 A3009 RMK AO2 SLP189 T01440100 10150 20094 50001=
202406181653 METAR KCLM 181653Z AUTO VRB03KT 10SM OVC032 14/09 A3010 RMK AO2 SLP193 T01390094=
202406181553 METAR KCLM 181553Z AUTO 34003KT 10SM OVC038 13/09 A3009 RMK AO2 SLP191 T01330089=
202406181453 METAR KCLM 181453Z AUTO 00000KT 10SM CLR 13/07 A3008 RMK AO2 SLP187 T01330072 57001=
202406181353 METAR KCLM 181353Z AUTO 25008KT 10SM BKN039 12/07 A3008 RMK AO2 SLP187 T01170067=
202406181253 METAR KCLM 181253Z AUTO 23004KT 10SM OVC039 10/07 A3009 RMK AO2 SLP189 T01000072=
202406181153 METAR KCLM 181153Z AUTO 23004KT 10SM OVC041 09/08 A3009 RMK AO2 SLP189 T00940078 10094 20067 51002=
202406181053 METAR KCLM 181053Z AUTO 00000KT 10SM OVC041 09/08 A3008 RMK AO2 SLP188 T00890078=
202406180953 METAR KCLM 180953Z AUTO 00000KT 10SM OVC041 07/06 A3009 RMK AO2 SLP189 T00720061=
202406180853 METAR KCLM 180853Z AUTO 20003KT 10SM CLR 08/07 A3008 RMK AO2 SLP187 T00780067 55003=
202406180753 METAR KCLM 180753Z AUTO 00000KT 10SM CLR 07/06 A3007 RMK AO2 SLP185 T00670056 401610067=
202406180653 METAR KCLM 180653Z AUTO 00000KT 10SM CLR 08/07 A3009 RMK AO2 SLP189 T00830072=
202406180553 METAR KCLM 180553Z AUTO 00000KT 10SM CLR 09/08 A3009 RMK AO2 SLP190 T00940083 10150 20094 53005=
202406180500 SPECI KCLM 180500Z AUTO 31003KT 10SM FEW006 SCT010 11/09 A3009 RMK AO2 T01060094=
202406180453 METAR KCLM 180453Z AUTO 29005KT 10SM FEW010 11/09 A3009 RMK AO2 SLP187 T01060094=
202406180353 METAR KCLM 180353Z AUTO 29009G18KT 10SM SCT020 12/09 A3008 RMK AO2 SLP185 T01170094=
202406180253 METAR KCLM 180253Z AUTO 28010G16KT 10SM CLR 12/09 A3008 RMK AO2 SLP185 T01220094 53007=
202406180153 METAR KCLM 180153Z AUTO 30010G20KT 10SM FEW025 13/09 A3007 RMK AO2 PK WND 30026/0059 SLP182 T01330089=
202406180053 METAR KCLM 180053Z AUTO 30013G22KT 10SM CLR 14/08 A3006 RMK AO2 SLP179 T01390078=
202406172353 METAR KCLM 172353Z AUTO 30015G27KT 10SM CLR 15/08 A3005 RMK AO2 PK WND 30027/2353 SLP177 T01500078 10161 20144 53002=
202406172253 METAR KCLM 172253Z AUTO 29014G24KT 10SM CLR 16/09 A3005 RMK AO2 PK WND 30026/2239 SLP176 T01560089=
202406172153 METAR KCLM 172153Z AUTO 30012G23KT 10SM CLR 15/08 A3005 RMK AO2 PK WND 30027/2112 SLP175 T01500083=
202406172053 METAR KCLM 172053Z AUTO 29013G24KT 10SM CLR 15/09 A3005 RMK AO2 SLP175 T01500094 51005=
202406171953 METAR KCLM 171953Z AUTO 30012G24KT 10SM CLR 16/09 A3004 RMK AO2 SLP173 T01610089=
202406171853 METAR KCLM 171853Z AUTO 32010G19KT 10SM CLR 16/09 A3004 RMK AO2 SLP173 T01560094=
202406171753 METAR KCLM 171753Z AUTO 30014G22KT 10SM FEW015 15/09 A3003 RMK AO2 SLP169 T01500094 10156 20111 53005=
202406171653 METAR KCLM 171653Z AUTO 29010G18KT 10SM CLR 15/10 A3002 RMK AO2 SLP166 T01500100=
202406171553 METAR KCLM 171553Z AUTO 30008KT 10SM CLR 14/09 A3001 RMK AO2 SLP163 T01440094=
202406171453 METAR KCLM 171453Z AUTO VRB04KT 10SM SCT060 BKN075 12/09 A3002 RMK AO2 SLP164 T01220089 52008=
202406171353 METAR KCLM 171353Z AUTO 26004KT 10SM OVC070 12/09 A3001 RMK AO2 SLP161 T01170089=
202406171253 METAR KCLM 171253Z AUTO 27009KT 10SM OVC070 11/09 A3000 RMK AO2 SLP159 T01110089=
202406171153 METAR KCLM 171153Z AUTO 28005KT 10SM OVC070 11/08 A2999 RMK AO2 SLP156 T01110083 10122 20106 53002=
202406171053 METAR KCLM 171053Z AUTO 28006KT 10SM OVC065 11/08 A2998 RMK AO2 SLP153 T01110078=
202406170953 METAR KCLM 170953Z AUTO 30006KT 10SM OVC065 12/07 A2999 RMK AO2 SLP154 T01170072=
202406170853 METAR KCLM 170853Z AUTO 26008KT 10SM BKN055 OVC070 12/07 A2998 RMK AO2 SLP153 T01220072 58007=
202406170753 METAR KCLM 170753Z AUTO 25007KT 10SM OVC065 12/07 A2999 RMK AO2 SLP155 T01220072 401560083=
202406170653 METAR KCLM 170653Z AUTO 26009KT 10SM OVC070 12/08 A3000 RMK AO2 SLP159 T01170078=
202406170553 METAR KCLM 170553Z AUTO 29006KT 10SM BKN070 11/08 A3001 RMK AO2 SLP162 T01060083 10139 20106 55002=
202406170453 METAR KCLM 170453Z AUTO 29006KT 10SM OVC070 11/09 A3000 RMK AO2 SLP159 T01110089=
202406170353 METAR KCLM 170353Z AUTO 27007KT 10SM OVC070 12/08 A3000 RMK AO2 SLP160 T01220083=
202406170253 METAR KCLM 170253Z AUTO 26008KT 10SM BKN075 OVC090 13/08 A3001 RMK AO2 SLP163 T01280083 56005=
202406170153 METAR KCLM 170153Z AUTO 28008KT 10SM SCT018 BKN085 13/09 A3002 RMK AO2 SLP166 T01330089=
202406170150 SPECI KCLM 170150Z AUTO 29006KT 10SM SCT018 BKN085 13/09 A3002 RMK AO2=
202406170134 SPECI KCLM 170134Z AUTO 26009KT 10SM BKN019 BKN033 13/09 A3002 RMK AO2 T01330089=
202406170053 METAR KCLM 170053Z AUTO 30008KT 10SM FEW018 SCT030 BKN110 14/09 A3003 RMK AO2 SLP169 T01390089=
202406162353 METAR KCLM 162353Z AUTO 29014G20KT 10SM CLR 14/08 A3003 RMK AO2 SLP171 T01390083 10156 20139 55009=
202406162253 METAR KCLM 162253Z AUTO 30008G15KT 10SM CLR 15/08 A3003 RMK AO2 SLP170 T01500083=
202406162153 METAR KCLM 162153Z AUTO 29008KT 10SM CLR 14/09 A3005 RMK AO2 SLP176 T01440089=
202406162053 METAR KCLM 162053Z AUTO 30011G19KT 10SM BKN050 14/08 A3006 RMK AO2 SLP180 T01440083 56003=
202406161953 METAR KCLM 161953Z AUTO 34008G15KT 10SM SCT060 14/09 A3006 RMK AO2 SLP181 T01390089=
202406161853 METAR KCLM 161853Z AUTO 30011G17KT 10SM CLR 14/08 A3006 RMK AO2 SLP181 T01440083=
202406161753 METAR KCLM 161753Z AUTO 30007KT 10SM OVC055 14/08 A3007 RMK AO2 SLP184 T01390083 10139 20083 58004=
202406161653 METAR KCLM 161653Z AUTO 29006KT 10SM OVC055 13/08 A3008 RMK AO2 SLP187 T01330078=
202406161553 METAR KCLM 161553Z AUTO 26005KT 10SM OVC055 13/06 A3009 RMK AO2 SLP189 T01280061=
202406161453 METAR KCLM 161453Z AUTO 24008KT 10SM OVC055 11/06 A3008 RMK AO2 SLP188 T01110056 56009=
202406161353 METAR KCLM 161353Z AUTO 24011KT 10SM OVC055 10/05 A3009 RMK AO2 SLP189 T01000050=
202406161253 METAR KCLM 161253Z AUTO 24008KT 10SM OVC055 09/05 A3010 RMK AO2 SLP195 T00940050=
202406161153 METAR KCLM 161153Z AUTO 24007KT 10SM CLR 08/05 A3011 RMK AO2 SLP197 70010 T00830050 10106 20083 56008=
202406161053 METAR KCLM 161053Z AUTO 23008KT 10SM BKN055 10/06 A3012 RMK AO2 SLP199 T01000056=
202406160953 METAR KCLM 160953Z AUTO 24009KT 10SM OVC055 10/06 A3013 RMK AO2 SLP203 T01000061=
202406160853 METAR KCLM 160853Z AUTO 23007KT 10SM OVC050 10/07 A3013 RMK AO2 SLP205 T01000067 58001=
202406160753 METAR KCLM 160753Z AUTO 22007KT 10SM OVC050 10/07 A3014 RMK AO2 SLP206 T01000072 401610089=
202406160653 METAR KCLM 160653Z AUTO 23004KT 10SM SCT045 BKN055 10/07 A3014 RMK AO2 SLP207 T01000072=
202406160553 METAR KCLM 160553Z AUTO 00000KT 10SM OVC049 10/09 A3014 RMK AO2 SLP206 60008 T01000089 10122 20100 52003=
202406160453 METAR KCLM 160453Z AUTO 00000KT 10SM OVC050 10/09 A3014 RMK AO2 SLP207 T01000089=
202406160353 METAR KCLM 160353Z AUTO 30004KT 10SM BKN048 BKN060 11/09 A3013 RMK AO2 SLP203 T01060089=
202406160253 METAR KCLM 160253Z AUTO 29005KT 10SM BKN050 11/09 A3013 RMK AO2 RAE23 SLP204 P0000 60008 T01110089 51008=
202406160153 METAR KCLM 160153Z AUTO 29004KT 9SM -RA FEW016 BKN055 OVC070 11/09 A3012 RMK AO2 RAE03B13 SLP202 P0001 T01110094=
202406160111 SPECI KCLM 160111Z AUTO 00000KT 10SM FEW025 BKN037 OVC075 12/09 A3012 RMK AO2 RAE03 P0000 T01170094=
202406160057 SPECI KCLM 160057Z AUTO 00000KT 3SM -RA BR BKN027 OVC035 11/09 A3012 RMK AO2 P0000 T01110089=
202406160053 METAR KCLM 160053Z AUTO 29003KT 1 1/2SM -RA BR BKN024 BKN032 OVC043 11/09 A3012 RMK AO2 SLP199 P0007 T01110089=
202406160049 SPECI KCLM 160049Z AUTO 29004KT 1 3/4SM +RA BR BKN024 BKN030 OVC044 11/09 A3012 RMK AO2 P0007=
202406152353 METAR KCLM 152353Z AUTO 33003KT 9SM -RA BKN018 OVC024 12/08 A3011 RMK AO2 RAB48 SLP195 P0000 60001 T01220083 10161 20122 51020=
202406152337 SPECI KCLM 152337Z AUTO 00000KT 10SM BKN017 BKN027 OVC048 13/08 A3010 RMK AO2 T01330083=
202406152253 METAR KCLM 152253Z AUTO VRB03KT 10SM FEW043 SCT055 BKN070 14/08 A3009 RMK AO2 SLP189 T01440083=
202406152153 METAR KCLM 152153Z AUTO 30011G18KT 10SM FEW039 BKN060 OVC075 13/07 A3007 RMK AO2 RAE2054B14E23 SLP183 P0000 T01330072=
202406152053 METAR KCLM 152053Z AUTO VRB06KT 10SM -RA FEW045 BKN065 OVC100 14/10 A3005 RMK AO2 PK WND 30026/2034 RAB41 SLP175 P0001 60001 T01390100 53008=
202406151953 METAR KCLM 151953Z AUTO 30011G21KT 10SM CLR 16/07 A3003 RMK AO2 RAB10E22 SLP168 P0000 T01610067=
202406151853 METAR KCLM 151853Z AUTO 30014G21KT 10SM CLR 16/07 A3003 RMK AO2 PK WND 28026/1812 SLP167 T01560067=
202406151753 METAR KCLM 151753Z AUTO 29010KT 10SM CLR 14/07 A3002 RMK AO2 SLP166 60001 T01440072 10144 20089 51004=
202406151653 METAR KCLM 151653Z AUTO 30010KT 10SM SCT047 13/08 A3002 RMK AO2 SLP167 T01330078=
202406151553 METAR KCLM 151553Z AUTO 31007KT 10SM BKN060 11/08 A3002 RMK AO2 RAE06 SLP166 P0000 T01110078=
202406151453 METAR KCLM 151453Z AUTO 28003KT 10SM -RA BKN050 OVC060 11/08 A3001 RMK AO2 RAE1356B42 SLP164 P0000 60001 T01060083 52004=
202406151353 METAR KCLM 151353Z AUTO 00000KT 10SM -RA BKN050 OVC070 10/08 A3001 RMK AO2 SLP162 P0001 T01000078=
202406151253 METAR KCLM 151253Z AUTO 00000KT 10SM -RA OVC055 09/08 A3001 RMK AO2 SLP161 P0000 T00940083=
202406151153 METAR KCLM 151153Z AUTO 00000KT 10SM -RA OVC060 09/08 A3000 RMK AO2 RAE07B53 SLP160 P0000 60000 70004 T00940078 10106 20089 55002=
202406151053 METAR KCLM 151053Z AUTO 00000KT 10SM -RA FEW060 BKN085 OVC100 09/08 A3000 RMK AO2 RAB52 SLP158 P0000 T00890078=
202406150953 METAR KCLM 150953Z AUTO 27006KT 10SM SCT110 09/07 A3000 RMK AO2 SLP161 T00890067=
202406150853 METAR KCLM 150853Z AUTO 27005KT 10SM CLR 09/07 A3001 RMK AO2 SLP162 T00940072 56010=
202406150753 METAR KCLM 150753Z AUTO 28004KT 10SM FEW080 10/08 A3001 RMK AO2 SLP163 T01000078 401780061=
202406150653 METAR KCLM 150653Z AUTO 26004KT 10SM CLR 10/08 A3003 RMK AO2 SLP169 T01000083=
202406150553 METAR KCLM 150553Z AUTO 25007KT 10SM SCT075 11/09 A3004 RMK AO2 SLP172 60003 T01060089 10150 20106 58014=
202406150453 METAR KCLM 150453Z AUTO 26007KT 10SM OVC048 11/09 A3006 RMK AO2 SLP179 T01110094=
202406150353 METAR KCLM 150353Z AUTO 10SM FEW070 OVC085 12/09 A3007 RMK AO2 RAE42 SLP181 P0002 T01170094=
202406150253 METAR KCLM 150253Z AUTO 28008KT 10SM -RA OVC060 13/09 A3008 RMK AO2 RAB19 SLP186 P0001 60001 T01330094 58012=
202406150153 METAR KCLM 150153Z AUTO 29007KT 10SM FEW044 SCT075 14/09 A3009 RMK AO2 SLP191 T01390089=
202406150053 METAR KCLM 150053Z AUTO 30011G16KT 10SM BKN050 14/09 A3011 RMK AO2 SLP195 T01440089=
202406142353 METAR KCLM 142353Z AUTO 30006KT 10SM FEW055 14/09 A3012 RMK AO2 SLP199 60001 T01390089 10178 20139 58003=
202406142253 METAR KCLM 142253Z AUTO VRB04KT 10SM CLR 16/08 A3012 RMK AO2 SLP202 T01610083=
202406142153 METAR KCLM 142153Z AUTO 33007KT 10SM FEW026 FEW037 SCT048 15/10 A3013 RMK AO2 RAE38 SLP204 P0000 T01500100=
202406142053 METAR KCLM 142053Z AUTO VRB03KT 5SM -RA FEW042 BKN050 OVC070 15/10 A3012 RMK AO2 RAB42 SLP201 P0001 60001 T01500100 50001=
202406141953 METAR KCLM 141953Z AUTO 05007KT 010V080 10SM CLR 17/08 A3012 RMK AO2 RAE02 SLP201 P0000 T01670078=
202406141853 METAR KCLM 141853Z AUTO 36004KT 10SM -RA FEW041 BKN049 OVC060 14/08 A3013 RMK AO2 RAB47 SLP204 P0000 T01390083=
202406141753 METAR KCLM 141753Z AUTO 07005KT 10SM FEW075 16/09 A3012 RMK AO2 SLP199 60000 T01560089 10156 20067 58004=
202406141653 METAR KCLM 141653Z AUTO 07008KT 10SM BKN070 13/08 A3013 RMK AO2 SLP203 T01330078=
202406141553 METAR KCLM 141553Z AUTO 08005KT 10SM FEW060 BKN090 14/07 A3013 RMK AO2 SLP203 T01390072=
202406141453 METAR KCLM 141453Z AUTO 00000KT 10SM OVC060 12/06 A3013 RMK AO2 RAB01E10 SLP204 P0000 60000 T01220061 51008=
202406141353 METAR KCLM 141353Z AUTO 22003KT 10SM BKN070 OVC085 10/06 A3013 RMK AO2 SLP204 T01000061=
202406141253 METAR KCLM 141253Z AUTO 00000KT 10SM SCT080 07/04 A3012 RMK AO2 SLP199 T00670044=
202406141153 METAR KCLM 141153Z AUTO 21003KT 10SM FEW085 BKN100 07/05 A3011 RMK AO2 SLP197 T00670050 10122 20061 51005=
202406141053 METAR KCLM 141053Z AUTO 00000KT 10SM CLR 07/04 A3011 RMK AO2 SLP196 T00720044=
202406140953 METAR KCLM 140953Z AUTO 30003KT 10SM CLR 09/05 A3010 RMK AO2 SLP193 T00940050=
202406140853 METAR KCLM 140853Z AUTO 28010KT 10SM CLR 12/03 A3009 RMK AO2 SLP190 T01220028 53003=
202406140753 METAR KCLM 140753Z AUTO 27013KT 10SM CLR 12/03 A3008 RMK AO2 SLP186 T01170033 401720061=
202406140653 METAR KCLM 140653Z AUTO 28009KT 10SM CLR 12/03 A3009 RMK AO2 SLP189 T01170028=
202406140553 METAR KCLM 140553Z AUTO 26008KT 10SM SCT080 12/03 A3009 RMK AO2 SLP187 T01170033 10156 20117 53004=
202406140453 METAR KCLM 140453Z AUTO 26009KT 10SM OVC070 12/05 A3008 RMK AO2 SLP186 T01220050=
202406140353 METAR KCLM 140353Z AUTO 27012G19KT 10SM FEW075 12/06 A3007 RMK AO2 SLP182 T01220061=
202406140253 METAR KCLM 140253Z AUTO 27008G17KT 240V300 10SM CLR 13/07 A3007 RMK AO2 SLP183 T01330067 55003=
202406140153 METAR KCLM 140153Z AUTO 29009G18KT 10SM CLR 14/06 A3007 RMK AO2 SLP181 T01440056=
202406140053 METAR KCLM 140053Z AUTO 30013G20KT 10SM CLR 16/06 A3007 RMK AO2 SLP183 T01560056=
202406132353 METAR KCLM 132353Z AUTO 30014G21KT 10SM BKN070 15/06 A3008 RMK AO2 SLP187 T01500061 10172 20144 55002=
202406132253 METAR KCLM 132253Z AUTO 30013G23KT 10SM CLR 17/06 A3008 RMK AO2 SLP184 T01670056=
202406132153 METAR KCLM 132153Z AUTO 30010G20KT 10SM CLR 17/09 A3008 RMK AO2 SLP185 T01670089=
202406132053 METAR KCLM 132053Z AUTO 29009G16KT 10SM CLR 17/09 A3009 RMK AO2 SLP189 T01670089 58008=
202406131953 METAR KCLM 131953Z AUTO 29009KT 10SM CLR 16/09 A3010 RMK AO2 SLP195 T01560089=
202406131853 METAR KCLM 131853Z AUTO 33006KT 10SM CLR 16/08 A3011 RMK AO2 SLP195 T01560083=
202406131753 METAR KCLM 131753Z AUTO 35004KT 10SM CLR 14/09 A3011 RMK AO2 SLP198 T01440089 10156 20061 58007=
202406131653 METAR KCLM 131653Z AUTO VRB04KT 10SM CLR 14/08 A3012 RMK AO2 SLP202 T01440083=
202406131553 METAR KCLM 131553Z AUTO VRB04KT 10SM CLR 13/08 A3013 RMK AO2 SLP204 T01280078=
202406131453 METAR KCLM 131453Z AUTO 31005KT 10SM CLR 13/08 A3013 RMK AO2 SLP204 T01280078 51001=
202406131353 METAR KCLM 131353Z AUTO 27007KT 10SM CLR 11/06 A3013 RMK AO2 SLP203 T01110056=
202406131253 METAR KCLM 131253Z AUTO 25004KT 10SM CLR 08/05 A3013 RMK AO2 SLP205 T00780050=
202406131153 METAR KCLM 131153Z AUTO 25003KT 10SM CLR 07/04 A3013 RMK AO2 SLP204 T00670044 10100 20061 56009=
202406131053 METAR KCLM 131053Z AUTO 23003KT 10SM CLR 09/06 A3013 RMK AO2 SLP205 T00890056=
202406130953 METAR KCLM 130953Z AUTO 25009KT 10SM CLR 09/06 A3015 RMK AO2 SLP209 T00940061=
202406130853 METAR KCLM 130853Z AUTO 28004KT 10SM CLR 09/06 A3016 RMK AO2 SLP213 T00890056 56012=
202406130753 METAR KCLM 130753Z AUTO 27005KT 10SM CLR 09/06 A3016 RMK AO2 SLP213 T00890056 401610083=
202406130653 METAR KCLM 130653Z AUTO 27007KT 10SM CLR 10/06 A3018 RMK AO2 SLP221 T01000061=
202406130553 METAR KCLM 130553Z AUTO 27007KT 10SM CLR 09/06 A3019 RMK AO2 SLP225 T00940061 10150 20089 58010=
202406130453 METAR KCLM 130453Z AUTO 26009KT 10SM CLR 10/06 A3022 RMK AO2 SLP233 T01000061=
202406130353 METAR KCLM 130353Z AUTO 28009KT 10SM CLR 11/05 A3021 RMK AO2 SLP232 T01110050=
202406130253 METAR KCLM 130253Z AUTO 30006KT 10SM CLR 13/05 A3022 RMK AO2 SLP234 T01330050 56009=
202406130153 METAR KCLM 130153Z AUTO 29008G16KT 10SM CLR 14/06 A3023 RMK AO2 SLP238 T01390056=
202406130053 METAR KCLM 130053Z AUTO 30009KT 10SM CLR 14/06 A3024 RMK AO2 SLP241 T01440061=
202406122353 METAR KCLM 122353Z AUTO 29012KT 10SM FEW040 15/07 A3025 RMK AO2 SLP245 T01500067 10161 20139 58010=
202406122253 METAR KCLM 122253Z AUTO 29009KT 10SM OVC042 15/07 A3026 RMK AO2 SLP248 T01500072=
202406122153 METAR KCLM 122153Z AUTO 31007KT 10SM OVC045 16/07 A3027 RMK AO2 SLP251 T01560067=
202406122053 METAR KCLM 122053Z AUTO 29011KT 10SM OVC046 14/06 A3028 RMK AO2 SLP255 T01440056 53002=
202406121953 METAR KCLM 121953Z AUTO 32008KT 10SM OVC048 15/07 A3028 RMK AO2 SLP253 T01500067=
202406121853 METAR KCLM 121853Z AUTO 29008KT 10SM CLR 15/08 A3027 RMK AO2 SLP250 T01500083=
202406121753 METAR KCLM 121753Z AUTO 32009KT 10SM CLR 14/08 A3027 RMK AO2 SLP251 T01440083 10144 20083 52007=
202406121653 METAR KCLM 121653Z AUTO 31009KT 280V350 10SM CLR 13/08 A3027 RMK AO2 SLP250 T01330078=
202406121553 METAR KCLM 121553Z AUTO 29007KT 10SM BKN055 13/07 A3026 RMK AO2 SLP248 T01280072=
202406121453 METAR KCLM 121453Z AUTO 28005KT 10SM OVC050 12/05 A3025 RMK AO2 SLP245 T01170050 53015=
202406121353 METAR KCLM 121353Z AUTO 25007KT 10SM OVC048 10/04 A3023 RMK AO2 SLP239 T01000039=
202406121253 METAR KCLM 121253Z AUTO 25009KT 10SM OVC046 09/04 A3022 RMK AO2 SLP234 T00940039=
202406121153 METAR KCLM 121153Z AUTO 23007KT 10SM CLR 08/04 A3021 RMK AO2 SLP231 T00830044 10117 20083 58000=
202406121053 METAR KCLM 121053Z AUTO 26008KT 10SM CLR 10/06 A3021 RMK AO2 SLP229 T01000061=
202406120953 METAR KCLM 120953Z AUTO 29008KT 10SM OVC041 11/07 A3022 RMK AO2 SLP232 T01110067=
202406120853 METAR KCLM 120853Z AUTO 27009KT 10SM BKN045 10/06 A3021 RMK AO2 SLP231 T01000061 53003=
202406120753 METAR KCLM 120753Z AUTO 28007KT 10SM CLR 09/06 A3020 RMK AO2 SLP228 T00890061 401670083=
202406120653 METAR KCLM 120653Z AUTO 30010KT 10SM CLR 11/06 A3021 RMK AO2 SLP229 T01110061=
202406120553 METAR KCLM 120553Z AUTO 28010KT 10SM OVC048 12/07 A3020 RMK AO2 SLP227 T01170067 10156 20106 51008=
202406120453 METAR KCLM 120453Z AUTO 27012G19KT 10SM BKN048 11/08 A3020 RMK AO2 SLP226 T01060078=
202406120353 METAR KCLM 120353Z AUTO 30015G24KT 10SM OVC050 11/08 A3019 RMK AO2 SLP225 T01060083=
202406120253 METAR KCLM 120253Z AUTO 32009G19KT 10SM OVC050 12/08 A3018 RMK AO2 SLP218 T01170078 53020=
202406120153 METAR KCLM 120153Z AUTO 31012G24KT 10SM BKN060 13/07 A3015 RMK AO2 PK WND 28034/0102 SLP211 T01330072=
202406120053 METAR KCLM 120053Z AUTO 30012G28KT 10SM FEW048 14/07 A3013 RMK AO2 PK WND 31030/0013 SLP202 T01440072=
202406112353 METAR KCLM 112353Z AUTO 31016G32KT 10SM BKN041 BKN050 14/07 A3011 RMK AO2 PK WND 32032/2352 SLP198 60000 T01390067 10167 20133 51013=
202406112253 METAR KCLM 112253Z AUTO 30015G25KT 10SM CLR 15/08 A3011 RMK AO2 PK WND 30032/2156 SLP195 T01500078=
202406112153 METAR KCLM 112153Z AUTO 28013G31KT 10SM FEW013 SCT033 15/09 A3009 RMK AO2 PK WND 32031/2116 RAE04 SLP190 P0000 T01500089=
202406112053 METAR KCLM 112053Z AUTO 30013G27KT 10SM -RA FEW011 SCT035 14/09 A3008 RMK AO2 PK WND 32031/2031 SLP184 P0000 60000 T01390094 53024=
202406111953 METAR KCLM 111953Z AUTO 31010G33KT 270V360 10SM -RA FEW009 14/10 A3005 RMK AO2 PK WND 32033/1950 RAB53 SLP175 P0000 T01390100=
202406111853 METAR KCLM 111853Z AUTO 31009G24KT 290V350 10SM CLR 16/09 A3002 RMK AO2 SLP165 T01560094=
202406111753 METAR KCLM 111753Z AUTO 32014G22KT 10SM CLR 16/10 A3001 RMK AO2 SLP161 60000 T01560100 10167 20111 53016=
202406111653 METAR KCLM 111653Z AUTO 34005KT 10SM CLR 16/09 A2999 RMK AO2 SLP156 T01560089=
202406111553 METAR KCLM 111553Z AUTO VRB03KT 10SM BKN070 14/08 A2997 RMK AO2 SLP149 T01390083=
202406111453 METAR KCLM 111453Z AUTO 30003KT 10SM BKN070 13/08 A2996 RMK AO2 SLP144 60000 T01330078 53010=
202406111353 METAR KCLM 111353Z AUTO 20003KT 10SM BKN075 12/09 A2994 RMK AO2 SLP140 T01220089=
202406111253 METAR KCLM 111253Z AUTO 23004KT 10SM SCT070 BKN080 OVC100 12/09 A2993 RMK AO2 RAB29E50 SLP136 P0000 T01170094=
202406111153 METAR KCLM 111153Z AUTO 26006KT 10SM OVC070 12/08 A2993 RMK AO2 SLP134 60000 T01170083 10117 20106 56008=
202406111053 METAR KCLM 111053Z AUTO 23004KT 10SM BKN075 OVC095 11/09 A2993 RMK AO2 SLP135 T01110089=
202406110953 METAR KCLM 110953Z AUTO 24003KT 10SM OVC100 12/09 A2994 RMK AO2 SLP137 T01170089=
202406110853 METAR KCLM 110853Z AUTO 29008KT 10SM SCT110 11/09 A2995 RMK AO2 SLP142 60000 T01110089 57009=
202406110753 METAR KCLM 110753Z AUTO 22004KT 10SM FEW120 11/08 A2995 RMK AO2 RAB18E28 SLP142 P0000 T01110083 401780078=
202406110653 METAR KCLM 110653Z AUTO 27009G17KT 10SM FEW120 12/08 A2998 RMK AO2 SLP152 T01170083=
202406110553 METAR KCLM 110553Z AUTO 26003KT 10SM FEW120 11/08 A2998 RMK AO2 SLP151 T01110083 10178 20100 56015=
202406110453 METAR KCLM 110453Z AUTO 26005KT 10SM CLR 11/08 A2999 RMK AO2 SLP157 T01060078=
202406110353 METAR KCLM 110353Z AUTO 30003KT 10SM CLR 12/08 A3001 RMK AO2 SLP160 T01170083=
202406110253 METAR KCLM 110253Z AUTO 28005KT 10SM CLR 14/09 A3002 RMK AO2 SLP166 T01390089 56026=
202406110153 METAR KCLM 110153Z AUTO 28005KT 10SM CLR 14/08 A3004 RMK AO2 SLP173 T01440083=
202406110053 METAR KCLM 110053Z AUTO 33005KT 10SM CLR 17/08 A3007 RMK AO2 SLP181 T01670083=
202406102353 METAR KCLM 102353Z AUTO 33005KT 10SM CLR 17/09 A3010 RMK AO2 SLP193 T01720089 10178 20144 58021=
202406102253 METAR KCLM 102253Z AUTO 36006KT 10SM CLR 17/09 A3012 RMK AO2 SLP201 T01670089=
202406102153 METAR KCLM 102153Z AUTO 31006KT 10SM BKN110 16/09 A3015 RMK AO2 SLP208 T01610089=
202406102053 METAR KCLM 102053Z AUTO VRB06KT 10SM CLR 16/09 A3017 RMK AO2 SLP215 T01610089 58005=
202406101953 METAR KCLM 101953Z AUTO 29008KT 10SM CLR 16/09 A3017 RMK AO2 SLP218 T01560089=
202406101853 METAR KCLM 101853Z AUTO 33009G16KT 10SM CLR 16/09 A3017 RMK AO2 SLP218 T01560094=
202406101753 METAR KCLM 101753Z AUTO 31008G15KT 280V350 10SM CLR 15/09 A3018 RMK AO2 SLP219 T01500089 10156 20078 51007=
202406101653 METAR KCLM 101653Z AUTO 30008KT 10SM BKN110 14/08 A3018 RMK AO2 SLP218 T01390083=
202406101553 METAR KCLM 101553Z AUTO 30008KT 290V350 10SM FEW120 13/08 A3017 RMK AO2 SLP216 T01330078=
202406101453 METAR KCLM 101453Z AUTO 27008KT 10SM CLR 13/08 A3016 RMK AO2 SLP212 T01280078 50009=
202406101353 METAR KCLM 101353Z AUTO 27006KT 10SM FEW020 12/07 A3016 RMK AO2 SLP214 T01170072=
202406101346 SPECI KCLM 101346Z AUTO 26006KT 10SM SCT020 11/07 A3016 RMK AO2 T01110072=
202406101311 SPECI KCLM 101311Z AUTO 25006KT 10SM BKN021 11/07 A3015 RMK AO2 T01060072=
202406101301 SPECI KCLM 101301Z AUTO 25007KT 10SM SCT022 10/07 A3015 RMK AO2 T01000072=
202406101253 METAR KCLM 101253Z AUTO 27006KT 10SM BKN022 10/07 A3015 RMK AO2 SLP210 T01000072=
202406101153 METAR KCLM 101153Z AUTO 27003KT 10SM FEW022 08/06 A3013 RMK AO2 SLP204 T00830061 10106 20083 53001=
202406101053 METAR KCLM 101053Z AUTO 23004KT 10SM CLR 10/07 A3013 RMK AO2 SLP204 T01000072=
202406100953 METAR KCLM 100953Z AUTO 26008KT 10SM CLR 11/07 A3013 RMK AO2 SLP201 T01060072=
202406100853 METAR KCLM 100853Z AUTO 27009KT 10SM CLR 11/08 A3013 RMK AO2 SLP203 T01060078 51015=
202406100809 SPECI KCLM 100809Z AUTO 27007KT 10SM SCT017 11/08 A3012 RMK AO2 T01060083=
202406100753 METAR KCLM 100753Z AUTO 27012KT 10SM BKN016 11/08 A3013 RMK AO2 SLP202 T01060083 401720106=
202406100653 METAR KCLM 100653Z AUTO 28012KT 10SM FEW014 11/08 A3011 RMK AO2 SLP195 T01060083=
202406100553 METAR KCLM 100553Z AUTO 29012G19KT 10SM CLR 11/09 A3009 RMK AO2 SLP188 T01060089 10150 20106 51007=
202406100515 SPECI KCLM 100515Z AUTO 29009G16KT 10SM FEW011 SCT014 11/09 A3009 RMK AO2 T01110089=
202406100453 METAR KCLM 100453Z AUTO 29007KT 10SM BKN011 11/09 A3008 RMK AO2 SLP187 T01110089=
202406100419 SPECI KCLM 100419Z AUTO 29009KT 10SM BKN012 11/09 A3008 RMK AO2 T01110094=
202406100353 METAR KCLM 100353Z AUTO 29006KT 10SM CLR 12/09 A3007 RMK AO2 SLP182 T01170089=
202406100253 METAR KCLM 100253Z AUTO 30010G16KT 270V340 10SM CLR 12/09 A3007 RMK AO2 SLP181 T01220094 52003=
202406100153 METAR KCLM 100153Z AUTO 29010G16KT 10SM CLR 14/10 A3006 RMK AO2 SLP180 T01390100=
202406100053 METAR KCLM 100053Z AUTO 28010G22KT 10SM SCT014 14/10 A3006 RMK AO2 SLP178 T01440100=
202406092353 METAR KCLM 092353Z AUTO 30013G23KT 10SM FEW015 FEW110 15/11 A3006 RMK AO2 PK WND 30026/2304 SLP177 T01500106 10172 20144 53009=
202406092343 SPECI KCLM 092343Z AUTO 30012G23KT 10SM FEW015 15/11 A3005 RMK AO2 PK WND 30026/2304 T01500106=
202406092253 METAR KCLM 092253Z AUTO 29010G20KT 10SM BKN016 16/11 A3005 RMK AO2 SLP175 T01610106=
202406092153 METAR KCLM 092153Z AUTO 29011G19KT 10SM CLR 17/12 A3004 RMK AO2 SLP171 T01670117=
202406092053 METAR KCLM 092053Z AUTO 29009G17KT 10SM CLR 17/12 A3003 RMK AO2 SLP169 T01670117 58000=
202406092020 SPECI KCLM 092020Z AUTO 31009G16KT 10SM FEW015 17/12 A3003 RMK AO2 T01670117=
202406091953 METAR KCLM 091953Z AUTO 30011G18KT 10SM OVC015 16/12 A3004 RMK AO2 SLP172 T01560117=
202406091950 SPECI KCLM 091950Z AUTO 29010G18KT 10SM OVC015 16/11 A3004 RMK AO2=
202406091853 METAR KCLM 091853Z AUTO 29010G17KT 280V360 10SM OVC012 15/11 A3003 RMK AO2 SLP169 T01500111=
202406091753 METAR KCLM 091753Z AUTO 30009G16KT 10SM OVC013 15/11 A3003 RMK AO2 SLP168 T01500111 10150 20117 53009=
202406091738 SPECI KCLM 091738Z AUTO 30012G19KT 10SM OVC013 14/11 A3003 RMK AO2 T01440111=
202406091703 SPECI KCLM 091703Z AUTO 29011G18KT 10SM BKN015 15/11 A3002 RMK AO2 T01500111=
202406091653 METAR KCLM 091653Z AUTO 30010KT 10SM SCT013 15/11 A3002 RMK AO2 SLP165 T01500111=
202406091553 METAR KCLM 091553Z AUTO 30007KT 10SM FEW012 14/11 A3001 RMK AO2 SLP161 T01440111=
202406091543 SPECI KCLM 091543Z AUTO 31006KT 10SM FEW012 15/11 A3001 RMK AO2 T01500106=
202406091521 SPECI KCLM 091521Z AUTO 27003KT 10SM BKN011 14/11 A3001 RMK AO2 T01390106=
202406091453 METAR KCLM 091453Z AUTO 29004KT 10SM BKN009 13/11 A3000 RMK AO2 SLP159 T01280106 53010=
202406091443 SPECI KCLM 091443Z AUTO 28009KT 10SM FEW009 14/11 A3000 RMK AO2 T01390106=
202406091353 METAR KCLM 091353Z AUTO 28009KT 10SM CLR 12/10 A2999 RMK AO2 SLP154 T01220100=
202406091253 METAR KCLM 091253Z AUTO 28008KT 10SM CLR 12/10 A2998 RMK AO2 SLP153 T01220100=
202406091153 METAR KCLM 091153Z AUTO 28008KT 10SM CLR 12/09 A2997 RMK AO2 SLP149 T01220094 10139 20117 51012=
202406091053 METAR KCLM 091053Z AUTO 29008KT 10SM CLR 12/09 A2997 RMK AO2 SLP148 T01220094=
202406090953 METAR KCLM 090953Z AUTO 28006KT 10SM CLR 12/08 A2996 RMK AO2 SLP144 T01220083=
202406090853 METAR KCLM 090853Z AUTO 30007KT 10SM CLR 13/07 A2994 RMK AO2 SLP137 T01330067 53002=
202406090753 METAR KCLM 090753Z AUTO 29008KT 10SM CLR 13/07 A2993 RMK AO2 SLP135 T01280067 402280100=
202406090653 METAR KCLM 090653Z AUTO 29007KT 10SM CLR 13/07 A2993 RMK AO2 SLP134 T01330067=
202406090553 METAR KCLM 090553Z AUTO 29009KT 10SM CLR 14/07 A2993 RMK AO2 SLP135 T01390067 10211 20139 53002=
202406090453 METAR KCLM 090453Z AUTO 29006KT 10SM CLR 14/06 A2993 RMK AO2 SLP132 T01440056=
202406090353 METAR KCLM 090353Z AUTO 29010KT 10SM CLR 16/07 A2992 RMK AO2 SLP132 T01610067=
202406090253 METAR KCLM 090253Z AUTO 28008KT 10SM CLR 16/08 A2993 RMK AO2 SLP134 T01560083 55006=
202406090153 METAR KCLM 090153Z AUTO 28007KT 10SM CLR 21/09 A2992 RMK AO2 SLP132 T02110094=
202406090053 METAR KCLM 090053Z AUTO 27006KT 10SM CLR 19/07 A2993 RMK AO2 SLP136 T01940072=
202406082353 METAR KCLM 082353Z AUTO 29011KT 10SM CLR 20/09 A2994 RMK AO2 SLP139 T02000094 10228 20189 55001=
202406082253 METAR KCLM 082253Z AUTO 29007KT 10SM CLR 22/08 A2994 RMK AO2 SLP137 T02170083=
202406082153 METAR KCLM 082153Z AUTO 29007KT 10SM CLR 21/09 A2994 RMK AO2 SLP139 T02060089=
202406082053 METAR KCLM 082053Z AUTO 29007KT 10SM CLR 21/09 A2995 RMK AO2 SLP140 T02060094 50003=
202406081953 METAR KCLM 081953Z AUTO 35007KT 10SM CLR 21/09 A2995 RMK AO2 SLP141 T02110089=
202406081853 METAR KCLM 081853Z AUTO VRB04KT 10SM CLR 21/07 A2994 RMK AO2 SLP139 T02110072=
202406081753 METAR KCLM 081753Z AUTO VRB03KT 10SM CLR 21/08 A2994 RMK AO2 SLP138 T02060083 10222 20106 51009=
202406081653 METAR KCLM 081653Z AUTO 36003KT 10SM CLR 21/09 A2993 RMK AO2 SLP134 T02060094=
202406081553 METAR KCLM 081553Z AUTO 34004KT 10SM CLR 17/08 A2993 RMK AO2 SLP136 T01670078=
202406081453 METAR KCLM 081453Z AUTO 00000KT 10SM CLR 19/08 A2991 RMK AO2 SLP127 T01890078 51003=
202406081353 METAR KCLM 081353Z AUTO 00000KT 10SM CLR 14/08 A2991 RMK AO2 SLP127 T01440083=
202406081253 METAR KCLM 081253Z AUTO 24004KT 10SM CLR 14/07 A2991 RMK AO2 SLP125 T01440067=
202406081153 METAR KCLM 081153Z AUTO 00000KT 10SM CLR 11/07 A2990 RMK AO2 SLP124 T01110067 10150 20100 53005=
202406081053 METAR KCLM 081053Z AUTO 22006KT 10SM CLR 13/06 A2989 RMK AO2 SLP121 T01330061=
202406080953 METAR KCLM 080953Z AUTO 23004KT 10SM CLR 13/06 A2989 RMK AO2 SLP119 T01330056=
202406080853 METAR KCLM 080853Z AUTO 23008KT 10SM CLR 13/06 A2989 RMK AO2 SLP119 T01330056 56004=
202406080753 METAR KCLM 080753Z AUTO 23005KT 10SM CLR 13/06 A2989 RMK AO2 SLP121 T01280061 402560067=
202406080653 METAR KCLM 080653Z AUTO 00000KT 10SM CLR 12/07 A2989 RMK AO2 SLP123 T01170072=
202406080553 METAR KCLM 080553Z AUTO 23004KT 10SM CLR 13/08 A2990 RMK AO2 SLP124 T01330078 10256 20128 58005=
202406080453 METAR KCLM 080453Z AUTO 23003KT 10SM CLR 15/08 A2991 RMK AO2 SLP129 T01500083=
202406080353 METAR KCLM 080353Z AUTO 27005KT 10SM CLR 17/07 A2991 RMK AO2 SLP129 T01670072=
202406080253 METAR KCLM 080253Z AUTO 00000KT 10SM CLR 24/06 A2991 RMK AO2 SLP128 T02440056 56017=
202406080153 METAR KCLM 080153Z AUTO 03003KT 10SM CLR 24/06 A2992 RMK AO2 SLP132 T02440056=
202406080053 METAR KCLM 080053Z AUTO 08003KT 10SM CLR 24/06 A2994 RMK AO2 SLP139 T02440056=
202406072353 METAR KCLM 072353Z AUTO 10004KT 10SM CLR 24/06 A2996 RMK AO2 SLP146 T02390061 10244 20183 58019=
202406072253 METAR KCLM 072253Z AUTO VRB04KT 10SM CLR 23/06 A2998 RMK AO2 SLP152 T02330056=
202406072153 METAR KCLM 072153Z AUTO VRB05KT 10SM CLR 22/06 A3000 RMK AO2 SLP159 T02220061=
202406072053 METAR KCLM 072053Z AUTO VRB04KT 10SM CLR 22/06 A3002 RMK AO2 SLP165 T02170056 58017=
202406071953 METAR KCLM 071953Z AUTO 10005KT 10SM CLR 21/06 A3004 RMK AO2 SLP171 T02110061=
202406071853 METAR KCLM 071853Z AUTO VRB06KT 10SM CLR 20/07 A3005 RMK AO2 SLP177 T02000072=
202406071753 METAR KCLM 071753Z AUTO 09006KT 10SM CLR 19/07 A3007 RMK AO2 SLP182 T01890072 10189 20067 58008=
202406071653 METAR KCLM 071653Z AUTO 07007KT 10SM CLR 18/07 A3008 RMK AO2 SLP184 T01780072=
202406071553 METAR KCLM 071553Z AUTO 08006KT 10SM CLR 17/06 A3010 RMK AO2 SLP192 T01720061=
202406071453 METAR KCLM 071453Z AUTO 11010KT 10SM CLR 16/07 A3009 RMK AO2 SLP191 T01610067 50001=
202406071353 METAR KCLM 071353Z AUTO 13004KT 10SM CLR 13/09 A3010 RMK AO2 SLP192 T01330089=
202406071253 METAR KCLM 071253Z AUTO 00000KT 10SM CLR 08/06 A3010 RMK AO2 SLP193 T00780061=
202406071153 METAR KCLM 071153Z AUTO 00000KT 10SM CLR 08/06 A3009 RMK AO2 SLP189 T00830056 10122 20072 53001=
202406071053 METAR KCLM 071053Z AUTO 22004KT 10SM CLR 08/06 A3009 RMK AO2 SLP189 T00780056=
202406070953 METAR KCLM 070953Z AUTO 16003KT 10SM CLR 09/07 A3009 RMK AO2 SLP188 T00890067=
202406070853 METAR KCLM 070853Z AUTO 21004KT 10SM CLR 10/07 A3009 RMK AO2 SLP188 T01000072 56003=
202406070753 METAR KCLM 070753Z AUTO 31004KT 10SM CLR 11/07 A3009 RMK AO2 SLP189 T01110072 402000072=
202406070653 METAR KCLM 070653Z AUTO 24008KT 10SM CLR 12/07 A3009 RMK AO2 SLP188 T01170072=
202406070553 METAR KCLM 070553Z AUTO 22004KT 10SM CLR 11/06 A3010 RMK AO2 SLP191 T01110061 10178 20111 58000=
202406070453 METAR KCLM 070453Z AUTO 23004KT 10SM CLR 13/04 A3011 RMK AO2 SLP196 T01280044=
202406070353 METAR KCLM 070353Z AUTO 28006KT 10SM CLR 14/04 A3010 RMK AO2 SLP193 T01390044=
202406070253 METAR KCLM 070253Z AUTO VRB06KT 10SM CLR 16/06 A3010 RMK AO2 SLP191 T01610061 56009=
202406070153 METAR KCLM 070153Z AUTO 30008KT 10SM CLR 17/06 A3010 RMK AO2 SLP191 T01670061=
202406070053 METAR KCLM 070053Z AUTO 30007KT 10SM CLR 17/07 A3010 RMK AO2 SLP195 T01720067=
202406062353 METAR KCLM 062353Z AUTO 30008KT 10SM CLR 17/08 A3012 RMK AO2 SLP202 T01670083 10200 20167 56005=
202406062253 METAR KCLM 062253Z AUTO VRB06KT 10SM CLR 19/05 A3013 RMK AO2 SLP202 T01890050=
202406062153 METAR KCLM 062153Z AUTO VRB04KT 10SM CLR 20/06 A3013 RMK AO2 SLP202 T02000061=
202406062053 METAR KCLM 062053Z AUTO 35005KT 10SM CLR 19/07 A3014 RMK AO2 SLP206 T01890072 58007=
202406061953 METAR KCLM 061953Z AUTO 13004KT 10SM CLR 18/07 A3015 RMK AO2 SLP210 T01780067=
202406061853 METAR KCLM 061853Z AUTO 06005KT 10SM CLR 17/08 A3016 RMK AO2 SLP213 T01720078=
202406061753 METAR KCLM 061753Z AUTO 08005KT 10SM CLR 17/07 A3016 RMK AO2 SLP213 T01670072 10167 20072 58008=
202406061653 METAR KCLM 061653Z AUTO 08006KT 10SM CLR 16/08 A3017 RMK AO2 SLP218 T01560078=
202406061553 METAR KCLM 061553Z AUTO 10005KT 10SM CLR 15/08 A3017 RMK AO2 SLP216 T01500078=
202406061453 METAR KCLM 061453Z AUTO 10004KT 10SM CLR 14/07 A3018 RMK AO2 SLP221 T01390072 53004=
202406061353 METAR KCLM 061353Z AUTO 00000KT 10SM CLR 11/09 A3018 RMK AO2 SLP218 T01060089=
202406061253 METAR KCLM 061253Z AUTO 00000KT 10SM CLR 07/06 A3017 RMK AO2 SLP218 T00720061=
202406061153 METAR KCLM 061153Z AUTO 21003KT 10SM CLR 07/06 A3017 RMK AO2 SLP218 T00720056 10106 20072 50000=
202406061053 METAR KCLM 061053Z AUTO 00000KT 10SM CLR 09/07 A3017 RMK AO2 SLP216 T00890067=
202406060953 METAR KCLM 060953Z AUTO 26007KT 10SM CLR 10/07 A3018 RMK AO2 SLP218 T01000072=
202406060853 METAR KCLM 060853Z AUTO 28007KT 10SM CLR 10/07 A3017 RMK AO2 SLP217 T01000072 58010=
202406060753 METAR KCLM 060753Z AUTO 27006KT 10SM CLR 09/07 A3018 RMK AO2 SLP221 T00940067 401670072=
202406060653 METAR KCLM 060653Z AUTO 25004KT 10SM CLR 09/07 A3019 RMK AO2 SLP226 T00940067=
202406060553 METAR KCLM 060553Z AUTO 25006KT 10SM CLR 11/06 A3020 RMK AO2 SLP227 T01060056 10167 20106 58003=
202406060453 METAR KCLM 060453Z AUTO 27006KT 10SM CLR 11/06 A3022 RMK AO2 SLP232 T01110061=
202406060353 METAR KCLM 060353Z AUTO 27007KT 10SM CLR 12/07 A3021 RMK AO2 SLP230 T01220067=
202406060253 METAR KCLM 060253Z AUTO 30005KT 10SM CLR 14/07 A3021 RMK AO2 SLP230 T01390067 58012=
202406060153 METAR KCLM 060153Z AUTO 30004KT 10SM CLR 14/07 A3022 RMK AO2 SLP234 T01440072=
202406060053 METAR KCLM 060053Z AUTO 30007KT 10SM CLR 16/08 A3024 RMK AO2 SLP241 T01560078=
202406052353 METAR KCLM 052353Z AUTO 30007KT 10SM CLR 16/07 A3025 RMK AO2 SLP243 T01610072 10167 20139 58006=
202406052253 METAR KCLM 052253Z AUTO 29009KT 10SM CLR 16/08 A3026 RMK AO2 SLP248 T01610083=
202406052153 METAR KCLM 052153Z AUTO VRB04KT 10SM SCT046 17/06 A3026 RMK AO2 SLP246 T01670061=
202406052053 METAR KCLM 052053Z AUTO VRB04KT 10SM BKN049 16/06 A3026 RMK AO2 SLP248 T01610061 50004=
202406051953 METAR KCLM 051953Z AUTO VRB05KT 10SM BKN041 15/07 A3027 RMK AO2 SLP250 T01500067=
202406051853 METAR KCLM 051853Z AUTO 36004KT 10SM CLR 15/07 A3026 RMK AO2 SLP247 T01500067=
202406051753 METAR KCLM 051753Z AUTO 01005KT 10SM CLR 14/07 A3025 RMK AO2 SLP244 T01440072 10150 20072 51007=
202406051653 METAR KCLM 051653Z AUTO 03004KT 10SM CLR 14/08 A3024 RMK AO2 SLP240 T01390078=
202406051553 METAR KCLM 051553Z AUTO 35004KT 10SM FEW041 13/07 A3024 RMK AO2 SLP241 T01330072=
202406051453 METAR KCLM 051453Z AUTO 31003KT 10SM CLR 12/06 A3023 RMK AO2 SLP238 T01220056 51018=
202406051353 METAR KCLM 051353Z AUTO 24007KT 10SM CLR 10/06 A3022 RMK AO2 SLP234 T01000056=
202406051253 METAR KCLM 051253Z AUTO 22004KT 10SM CLR 08/04 A3019 RMK AO2 SLP225 T00830044=
202406051153 METAR KCLM 051153Z AUTO 23007KT 10SM CLR 08/05 A3018 RMK AO2 SLP220 70005 T00780050 10106 20078 51013=
202406051053 METAR KCLM 051053Z AUTO 23005KT 10SM CLR 08/06 A3016 RMK AO2 SLP215 T00780056=
202406050953 METAR KCLM 050953Z AUTO 00000KT 10SM CLR 09/06 A3016 RMK AO2 SLP211 T00890056=
202406050853 METAR KCLM 050853Z AUTO 25005KT 10SM CLR 09/06 A3014 RMK AO2 SLP207 T00890056 53015=
202406050753 METAR KCLM 050753Z AUTO 25009KT 10SM CLR 10/07 A3012 RMK AO2 SLP198 T01000072 401830083=
202406050653 METAR KCLM 050653Z AUTO 26005KT 10SM FEW060 09/08 A3011 RMK AO2 SLP196 T00940078=
202406050553 METAR KCLM 050553Z AUTO 29007KT 10SM SCT065 11/08 A3009 RMK AO2 SLP191 60000 T01110083 10144 20106 51027=
202406050453 METAR KCLM 050453Z AUTO 30006KT 10SM BKN060 12/08 A3008 RMK AO2 SLP184 T01170078=
202406050353 METAR KCLM 050353Z AUTO 00000KT 10SM CLR 12/07 A3004 RMK AO2 SLP173 T01170072=
202406050253 METAR KCLM 050253Z AUTO 30009KT 10SM CLR 12/08 A3001 RMK AO2 SLP165 60000 T01220078 51023=
202406050153 METAR KCLM 050153Z AUTO 28009G18KT 10SM BKN060 13/08 A3000 RMK AO2 SLP159 T01330083=
202406050053 METAR KCLM 050053Z AUTO 30015G24KT 10SM FEW065 13/08 A2997 RMK AO2 PK WND 30028/0000 RAE2357 SLP148 P0000 T01330083=
202406042353 METAR KCLM 042353Z AUTO 30011G26KT 10SM -RA FEW049 BKN060 OVC075 12/08 A2995 RMK AO2 PK WND 28032/2332 RAB20 SLP141 P0000 60003 T01220083 10183 20122 53029=
202406042253 METAR KCLM 042253Z AUTO 31012G26KT 10SM BKN060 14/08 A2990 RMK AO2 PK WND 34026/2246 SLP125 T01440083=
202406042153 METAR KCLM 042153Z AUTO 30013G22KT 10SM SCT065 17/08 A2987 RMK AO2 PK WND 29029/2126 SLP115 T01720083=
202406042053 METAR KCLM 042053Z AUTO VRB05KT 10SM FEW032 BKN039 OVC070 14/09 A2986 RMK AO2 RAE50 SLP112 P0003 60003 T01440094 51024=
202406042042 SPECI KCLM 042042Z AUTO 30011G20KT 6SM -RA SCT027 BKN035 OVC042 13/09 A2986 RMK AO2 P0003 T01330094=
202406042012 SPECI KCLM 042012Z AUTO 29012G21KT 10SM -RA BKN027 BKN038 OVC050 14/09 A2985 RMK AO2 P0000 T01440094=
202406041953 METAR KCLM 041953Z AUTO 29012G21KT 10SM -RA FEW026 BKN049 OVC070 15/10 A2984 RMK AO2 RAB1858E10B53 SLP104 P0000 T01500100=
202406041853 METAR KCLM 041853Z AUTO 29007KT 10SM FEW040 BKN055 BKN070 16/10 A2981 RMK AO2 SLP094 T01610100=
202406041753 METAR KCLM 041753Z AUTO 10003KT 10SM FEW011 14/11 A2979 RMK AO2 SLP086 60002 T01440111 10144 20100 51011=
202406041749 SPECI KCLM 041749Z AUTO VRB04KT 10SM SCT011 14/11 A2978 RMK AO2=
202406041731 SPECI KCLM 041731Z AUTO VRB04KT 10SM OVC011 14/11 A2977 RMK AO2 T01390106=
202406041720 SPECI KCLM 041720Z AUTO 00000KT 10SM OVC009 14/11 A2977 RMK AO2 CIG 007V015 T01390111=
202406041653 METAR KCLM 041653Z AUTO VRB04KT 10SM OVC010 13/11 A2977 RMK AO2 RAE10B27E48 CIG 007V013 SLP080 P0000 T01330111=
202406041634 SPECI KCLM 041634Z AUTO 30004KT 7SM -RA OVC009 13/11 A2976 RMK AO2 RAE10B27 CIG 004V013 P0000 T01330111=
202406041608 SPECI KCLM 041608Z AUTO 34005KT 10SM -RA FEW005 BKN014 OVC070 13/11 A2976 RMK AO2 P0000 T01280111=
202406041553 METAR KCLM 041553Z AUTO 00000KT 7SM -RA FEW016 BKN055 OVC070 12/11 A2975 RMK AO2 SLP076 P0001 T01220111=
202406041453 METAR KCLM 041453Z AUTO 00000KT 10SM -RA OVC065 12/10 A2973 RMK AO2 RAB31 SLP067 P0001 60001 T01170100 55001=
202406041353 METAR KCLM 041353Z AUTO 00000KT 10SM BKN070 11/09 A2971 RMK AO2 SLP062 T01060094=
202406041253 METAR KCLM 041253Z AUTO 00000KT 10SM OVC070 10/09 A2972 RMK AO2 RAE45 SLP065 P0000 T01000089=
202406041153 METAR KCLM 041153Z AUTO 16004KT 10SM -RA OVC070 10/09 A2973 RMK AO2 RAB14 SLP067 P0001 60001 70001 T01000089 10106 20094 56020=
202406041053 METAR KCLM 041053Z AUTO 00000KT 10SM OVC060 10/09 A2975 RMK AO2 SLP074 T01000089=
202406040953 METAR KCLM 040953Z AUTO 00000KT 10SM BKN060 BKN090 10/08 A2976 RMK AO2 SLP076 T01000083=
202406040853 METAR KCLM 040853Z AUTO 15003KT 10SM SCT060 BKN095 10/08 A2979 RMK AO2 SLP089 60000 T01000083 58022=
202406040753 METAR KCLM 040753Z AUTO 00000KT 10SM BKN060 OVC070 11/09 A2981 RMK AO2 SLP096 T01060089 401670100=
202406040653 METAR KCLM 040653Z AUTO 00000KT 10SM OVC055 10/09 A2984 RMK AO2 RAB14E30 SLP105 P0000 T01000089=
202406040553 METAR KCLM 040553Z AUTO 00000KT 10SM FEW025 BKN050 OVC060 11/09 A2986 RMK AO2 RAB0456E06 SLP109 P0000 60000 T01060089 10156 20106 58003=
202406040453 METAR KCLM 040453Z AUTO 09004KT 10SM OVC050 11/09 A2986 RMK AO2 RAB30E46 SLP112 P0000 T01110089=
202406040353 METAR KCLM 040353Z AUTO 00000KT 10SM OVC060 11/09 A2986 RMK AO2 SLP112 T01110089=
202406040253 METAR KCLM 040253Z AUTO 09003KT 10SM FEW040 BKN060 OVC095 12/09 A2986 RMK AO2 SLP114 T01170089 50011=
202406040153 METAR KCLM 040153Z AUTO VRB04KT 10SM SCT040 BKN048 BKN060 12/09 A2987 RMK AO2 SLP115 T01220089=
202406040053 METAR KCLM 040053Z AUTO 31008G17KT 10SM BKN046 OVC060 13/08 A2985 RMK AO2 SLP110 T01280083=
202406032353 METAR KCLM 032353Z AUTO 02006KT 10SM BKN033 BKN043 16/08 A2983 RMK AO2 SLP101 60000 T01560078 10167 20133 51019=
202406032319 SPECI KCLM 032319Z AUTO 10SM SCT030 BKN036 OVC055 15/08 A2982 RMK AO2 T01500083=
202406032304 SPECI KCLM 032304Z AUTO VRB04KT 10SM BKN028 BKN045 14/08 A2982 RMK AO2 T01440078=
202406032253 METAR KCLM 032253Z AUTO 29007KT 10SM SCT028 BKN043 BKN055 14/08 A2981 RMK AO2 SLP095 T01390078=
202406032153 METAR KCLM 032153Z AUTO 14005KT 10SM BKN035 OVC048 15/08 A2980 RMK AO2 RAE10B36E45 SLP090 P0000 T01500083=
202406032053 METAR KCLM 032053Z AUTO 08004KT 10SM -RA FEW035 BKN049 OVC060 14/08 A2977 RMK AO2 RAB46 SLP082 P0000 60000 T01440083 51028=
202406032032 SPECI KCLM 032032Z AUTO 08007KT 10SM FEW029 BKN048 OVC070 14/08 A2976 RMK AO2 T01440083=
202406032024 SPECI KCLM 032024Z AUTO 08005KT 10SM BKN029 BKN048 OVC065 14/08 A2977 RMK AO2 T01440083=
202406032012 SPECI KCLM 032012Z AUTO VRB05KT 10SM SCT029 BKN036 OVC065 14/09 A2975 RMK AO2 T01440089=
202406032005 SPECI KCLM 032005Z AUTO VRB04KT 10SM BKN029 BKN039 OVC060 15/09 A2975 RMK AO2 T01500089=
202406031953 METAR KCLM 031953Z AUTO VRB05KT 10SM BKN034 BKN044 OVC060 16/09 A2975 RMK AO2 SLP073 T01610089=
202406031853 METAR KCLM 031853Z AUTO 09005KT 10SM OVC032 14/08 A2972 RMK AO2 RAB40E52 SLP064 P0000 T01390078=
202406031830 SPECI KCLM 031830Z AUTO 12008KT 10SM BKN029 OVC036 14/08 A2971 RMK AO2 T01390078=
202406031753 METAR KCLM 031753Z AUTO VRB05KT 10SM SCT033 BKN039 OVC060 14/08 A2969 RMK AO2 SLP053 60000 T01440078 10150 20100 51034=
202406031653 METAR KCLM 031653Z AUTO 27008KT 10SM BKN060 BKN070 OVC110 14/06 A2966 RMK AO2 SLP045 T01390061=
202406031553 METAR KCLM 031553Z AUTO 26011G15KT 10SM BKN060 BKN110 13/06 A2963 RMK AO2 SLP034 T01330056=
202406031453 METAR KCLM 031453Z AUTO 30008KT 270V340 10SM FEW060 13/07 A2959 RMK AO2 SLP019 60000 T01280072 51037=
202406031353 METAR KCLM 031353Z AUTO 30006G16KT 10SM FEW045 11/08 A2954 RMK AO2 RAB1258E31 SLP003 P0000 T01110078=
202406031253 METAR KCLM 031253Z AUTO 26009G19KT 10SM BKN055 BKN070 10/08 A2953 RMK AO2 RAB22E47 PRESRR SLP000 P0000 T01000078=
202406031153 METAR KCLM 031153Z AUTO 27010KT 10SM BKN060 11/09 A2948 RMK AO2 RAE20 SLP983 P0001 60018 70028 T01110089 10133 20111 53001=
202406031108 SPECI KCLM 031108Z AUTO 28006KT 9SM -RA SCT004 BKN048 OVC060 12/11 A2947 RMK AO2 P0000 T01170106=
202406031053 METAR KCLM 031053Z AUTO 30007KT 5SM -RA BR BKN004 OVC014 12/11 A2947 RMK AO2 SLP979 P0006 T01170106=
202406031042 SPECI KCLM 031042Z AUTO 29009G16KT 3SM RA BR BKN004 BKN009 OVC021 12/11 A2947 RMK AO2 PRESRR P0005 T01220111=
202406030953 METAR KCLM 030953Z AUTO 12003KT 8SM -RA OVC009 13/11 A2946 RMK AO2 SLP976 P0008 T01280111=
202406030938 SPECI KCLM 030938Z AUTO 10005KT 6SM -RA BR OVC009 13/12 A2946 RMK AO2 P0006 T01280117=
202406030912 SPECI KCLM 030912Z AUTO 09003KT 10SM -RA FEW004 BKN012 OVC017 13/12 A2946 RMK AO2 P0001 T01280117=
202406030905 SPECI KCLM 030905Z AUTO 10003KT 8SM -RA SCT004 OVC015 13/12 A2946 RMK AO2 P0001 T01280117=
202406030853 METAR KCLM 030853Z AUTO 11004KT 8SM -RA BKN004 OVC013 13/12 A2948 RMK AO2 RAE0754B10 SLP981 P0001 60003 T01280117 58027=
202406030839 SPECI KCLM 030839Z AUTO 09006KT 8SM -RA OVC004 13/11 A2948 RMK AO2 RAE0754B10 CIG 003V009 PRESFR P0001 T01280111=
202406030815 SPECI KCLM 030815Z AUTO 00000KT 10SM -RA OVC009 13/11 A2951 RMK AO2 RAE0754B10 CIG 006V011 P0000 T01280111=
202406030753 METAR KCLM 030753Z AUTO 00000KT 10SM -RA BKN010 OVC070 13/12 A2952 RMK AO2 SLP997 P0002 T01280117 401500111=
202406030742 SPECI KCLM 030742Z AUTO 00000KT 7SM -RA BKN010 OVC070 13/12 A2953 RMK AO2 P0002 T01280117=
202406030737 SPECI KCLM 030737Z AUTO 00000KT 9SM -RA SCT010 SCT018 OVC070 13/12 A2954 RMK AO2 P0002 T01280117=
202406030716 SPECI KCLM 030716Z AUTO 00000KT 8SM -RA BKN010 OVC070 13/12 A2954 RMK AO2 CIG 008V013 P0001 T01280117=
202406030653 METAR KCLM 030653Z AUTO 00000KT 10SM -RA BKN008 OVC011 13/12 A2955 RMK AO2 RAB43 CIG 006V009 SLP007 P0000 T01280117=
202406030651 SPECI KCLM 030651Z AUTO 00000KT 10SM -RA BKN008 OVC011 13/12 A2956 RMK AO2 RAB43 CIG 006V009 P0000=
202406030642 SPECI KCLM 030642Z AUTO 00000KT 10SM SCT006 OVC011 13/12 A2956 RMK AO2 T01280117=
202406030627 SPECI KCLM 030627Z AUTO 00000KT 10SM BKN011 OVC060 13/12 A2957 RMK AO2 T01280117=
202406030553 METAR KCLM 030553Z AUTO 07005KT 10SM FEW012 SCT020 OVC065 13/12 A2957 RMK AO2 SLP013 60000 T01330117 10150 20128 50005=
202406030453 METAR KCLM 030453Z AUTO 00000KT 10SM BKN060 13/12 A2958 RMK AO2 SLP016 T01280117=
202406030353 METAR KCLM 030353Z AUTO 08004KT 10SM BKN065 14/12 A2956 RMK AO2 SLP011 T01390117=
202406030310 SPECI KCLM 030310Z AUTO 12005KT 10SM SCT009 BKN070 15/12 A2955 RMK AO2 T01500122=
202406030253 METAR KCLM 030253Z AUTO 00000KT 10SM BKN009 BKN048 OVC070 14/12 A2955 RMK AO2 SLP007 60000 T01440122 53006=
202406030153 METAR KCLM 030153Z AUTO 00000KT 10SM BKN008 BKN044 OVC060 14/12 A2954 RMK AO2 CIG 006V010 SLP003 T01440122=
202406030145 SPECI KCLM 030145Z AUTO 00000KT 10SM BKN008 BKN044 OVC065 14/13 A2955 RMK AO2 CIG 006V010 T01440128=
202406030053 METAR KCLM 030053Z AUTO 00000KT 10SM FEW008 BKN065 BKN100 14/12 A2954 RMK AO2 RAE08 SLP001 P0000 T01390117=
202406030037 SPECI KCLM 030037Z AUTO 33003KT 10SM SCT008 BKN040 OVC100 13/12 A2954 RMK AO2 RAE08 P0000 T01330122=
202406030000 SPECI KCLM 030000Z AUTO 00000KT 10SM -RA BKN006 BKN045 OVC085 13/12 A2953 RMK AO2 P0000 T01280117=
202406022353 METAR KCLM 022353Z AUTO 31004KT 10SM -RA SCT003 BKN049 OVC085 13/12 A2954 RMK AO2 RAB29 SLP002 P0001 60005 T01280117 10144 20122 56022=
202406022253 METAR KCLM 022253Z AUTO 30007KT 10SM FEW003 BKN040 OVC070 13/12 A2954 RMK AO2 RAB2159E39 SLP004 P0000 T01330122=
202406022153 METAR KCLM 022153Z AUTO 29004KT 10SM SCT004 SCT007 OVC070 14/13 A2956 RMK AO2 RAE36 SLP010 P0002 T01390128=
202406022053 METAR KCLM 022053Z AUTO 00000KT 7SM -RA OVC002 13/12 A2960 RMK AO2 SLP023 P0001 60002 T01330117 58028=
202406021953 METAR KCLM 021953Z AUTO VRB03KT 9SM -RA BKN003 OVC013 13/12 A2965 RMK AO2 RAB36 SLP039 P0000 T01280117=
202406021951 SPECI KCLM 021951Z AUTO 07003KT 9SM -RA BKN003 OVC013 13/12 A2965 RMK AO2 RAB36 P0000=
202406021935 SPECI KCLM 021935Z AUTO 06003KT 10SM SCT004 OVC014 13/12 A2966 RMK AO2 T01330117=
202406021920 SPECI KCLM 021920Z AUTO 07004KT 10SM BKN004 BKN012 OVC070 13/12 A2967 RMK AO2 T01330117=
202406021912 SPECI KCLM 021912Z AUTO 08005KT 10SM SCT004 BKN012 OVC070 13/12 A2967 RMK AO2 T01280117=
202406021853 METAR KCLM 021853Z AUTO 07004KT 10SM SCT004 BKN016 OVC070 13/12 A2968 RMK AO2 RAE25 SLP051 P0001 T01330117=
202406021838 SPECI KCLM 021838Z AUTO 09005KT 10SM FEW004 BKN019 OVC075 13/12 A2969 RMK AO2 RAE25 P0001 T01330117=
202406021824 SPECI KCLM 021824Z AUTO 08005KT 10SM -RA SCT005 BKN034 OVC075 13/12 A2970 RMK AO2 P0001 T01330117=
202406021753 METAR KCLM 021753Z AUTO 09005KT 7SM -RA FEW005 BKN015 OVC075 13/12 A2971 RMK AO2 SLP060 P0003 60005 T01330122 10139 20117 58023=
202406021743 SPECI KCLM 021743Z AUTO 09003KT 7SM -RA FEW005 BKN015 OVC070 14/12 A2972 RMK AO2 P0003 T01390122=
202406021727 SPECI KCLM 021727Z AUTO 12004KT 6SM -RA BR SCT010 BKN017 OVC070 13/12 A2972 RMK AO2 P0002 T01330117=
202406021705 SPECI KCLM 021705Z AUTO 08004KT 8SM -RA SCT008 BKN012 OVC075 13/12 A2974 RMK AO2 P0001 T01330117=
202406021653 METAR KCLM 021653Z AUTO 00000KT 9SM -RA BKN008 BKN012 OVC075 13/12 A2974 RMK AO2 CIG 007V011 SLP071 P0002 T01330117=
202406021642 SPECI KCLM 021642Z AUTO 00000KT 10SM -RA BKN008 BKN014 OVC075 13/12 A2975 RMK AO2 P0002 T01330117=
202406021628 SPECI KCLM 021628Z AUTO 00000KT 8SM -RA FEW008 OVC075 13/11 A2975 RMK AO2 P0001 T01330111=
202406021553 METAR KCLM 021553Z AUTO 00000KT 10SM -RA BKN080 OVC090 13/11 A2975 RMK AO2 RAB18 SLP075 P0000 T01280111=
202406021535 SPECI KCLM 021535Z AUTO 00000KT 10SM -RA SCT010 BKN075 OVC090 13/11 A2976 RMK AO2 RAB18 P0000 T01330111=
202406021453 METAR KCLM 021453Z AUTO 00000KT 10SM OVC010 13/11 A2978 RMK AO2 SLP084 T01280111 56014=
202406021353 METAR KCLM 021353Z AUTO 00000KT 10SM OVC012 12/11 A2978 RMK AO2 SLP085 T01220111=
202406021253 METAR KCLM 021253Z AUTO 00000KT 10SM OVC012 12/11 A2981 RMK AO2 SLP093 T01220111=
202406021153 METAR KCLM 021153Z AUTO 00000KT 10SM OVC013 12/11 A2982 RMK AO2 SLP098 70006 T01220106 10133 20111 58012=
202406021053 METAR KCLM 021053Z AUTO 00000KT 10SM OVC014 12/11 A2984 RMK AO2 SLP104 T01170106=
202406021034 SPECI KCLM 021034Z AUTO 00000KT 10SM BKN015 BKN120 12/11 A2985 RMK AO2 T01170106=
202406020953 METAR KCLM 020953Z AUTO 00000KT 10SM FEW020 BKN110 12/11 A2985 RMK AO2 SLP109 T01170106=
202406020853 METAR KCLM 020853Z AUTO 00000KT 10SM FEW025 12/10 A2986 RMK AO2 SLP110 T01170100 58016=
202406020843 SPECI KCLM 020843Z AUTO 00000KT 10SM SCT024 12/11 A2986 RMK AO2 T01220106=
202406020823 SPECI KCLM 020823Z AUTO 26003KT 10SM SCT014 BKN022 12/11 A2987 RMK AO2 T01220111=
202406020753 METAR KCLM 020753Z AUTO 00000KT 10SM OVC013 13/11 A2988 RMK AO2 SLP117 T01330111 401610106=
202406020721 SPECI KCLM 020721Z AUTO 00000KT 10SM OVC014 13/11 A2988 RMK AO2 T01280111=
202406020700 SPECI KCLM 020700Z AUTO 00000KT 10SM OVC015 13/11 A2989 RMK AO2 T01330111=
202406020653 METAR KCLM 020653Z AUTO 00000KT 10SM BKN013 OVC018 13/11 A2989 RMK AO2 SLP122 T01330111=
202406020553 METAR KCLM 020553Z AUTO 25003KT 10SM OVC014 13/12 A2991 RMK AO2 SLP127 T01330117 10156 20133 56009=
202406020523 SPECI KCLM 020523Z AUTO 24003KT 10SM OVC014 13/11 A2991 RMK AO2 T01330111=
202406020453 METAR KCLM 020453Z AUTO 21003KT 10SM OVC015 13/12 A2991 RMK AO2 SLP129 T01330117=
202406020353 METAR KCLM 020353Z AUTO 24004KT 10SM OVC014 13/12 A2992 RMK AO2 SLP132 T01330117=
202406020328 SPECI KCLM 020328Z AUTO 27004KT 10SM SCT008 OVC014 14/12 A2993 RMK AO2 T01390117=
202406020318 SPECI KCLM 020318Z AUTO 25003KT 9SM SCT008 OVC015 14/12 A2993 RMK AO2 T01390117=
202406020306 SPECI KCLM 020306Z AUTO 00000KT 10SM FEW008 OVC014 14/12 A2993 RMK AO2 T01390117=
202406020253 METAR KCLM 020253Z AUTO 27003KT 10SM OVC015 14/12 A2993 RMK AO2 SLP135 T01390117 56004=
202406020153 METAR KCLM 020153Z AUTO 30008KT 10SM BKN016 OVC026 14/11 A2993 RMK AO2 SLP136 T01440111=
202406020109 SPECI KCLM 020109Z AUTO 30005KT 10SM FEW014 BKN026 OVC032 15/11 A2994 RMK AO2 T01500111=
202406020053 METAR KCLM 020053Z AUTO 30005KT 10SM OVC032 15/11 A2994 RMK AO2 SLP138 T01500111=
202406020008 SPECI KCLM 020008Z AUTO 29007KT 10SM SCT014 OVC031 15/12 A2994 RMK AO2 T01500117=
202406012353 METAR KCLM 012353Z AUTO 32004KT 10SM BKN014 OVC035 16/12 A2994 RMK AO2 SLP140 60003 T01560117 10161 20133 56007=
202406012253 METAR KCLM 012253Z AUTO VRB04KT 10SM OVC010 15/12 A2995 RMK AO2 CIG 009V014 SLP141 T01500117=
202406012200 SPECI KCLM 012200Z AUTO 33005KT 10SM SCT006 BKN014 OVC028 14/12 A2995 RMK AO2 T01440117=
202406012153 METAR KCLM 012153Z AUTO 30005KT 10SM BKN006 BKN015 OVC027 14/12 A2996 RMK AO2 RAB2056E14B21E33 SLP144 P0001 T01440117=
202406012131 SPECI KCLM 012131Z AUTO 30004KT 10SM -RA BKN005 OVC015 14/12 A2996 RMK AO2 RAB2056E14B21 P0001 T01390117=
202406012118 SPECI KCLM 012118Z AUTO 34003KT 10SM SCT005 OVC015 14/12 A2996 RMK AO2 RAB2056E14 P0000 T01390122=
202406012053 METAR KCLM 012053Z AUTO 28004KT 10SM OVC017 13/12 A2997 RMK AO2 RAB15E21 SLP148 P0000 60002 T01330117 51001=
202406011953 METAR KCLM 011953Z AUTO VRB03KT 9SM OVC018 14/12 A2997 RMK AO2 RAE13 SLP147 P0000 T01440117=
202406011900 SPECI KCLM 011900Z AUTO 28004KT 7SM -RA FEW006 BKN020 OVC038 14/12 A2996 RMK AO2 P0000 T01440122=
202406011853 METAR KCLM 011853Z AUTO 29004KT 2 1/2SM -RA BR FEW008 BKN020 OVC040 13/12 A2997 RMK AO2 RAB41 SLP147 P0002 T01330117=
202406011848 SPECI KCLM 011848Z AUTO 28004KT 1 3/4SM -RA BR FEW008 BKN020 OVC029 13/12 A2997 RMK AO2 RAB41 P0002=
202406011841 SPECI KCLM 011841Z AUTO 30005KT 5SM -RA BR FEW008 BKN020 OVC044 13/11 A2996 RMK AO2 RAB41 P0000 T01330111=
202406011753 METAR KCLM 011753Z AUTO 00000KT 10SM OVC026 14/11 A2996 RMK AO2 RAB00E44 SLP146 P0002 60003 T01390106 10139 20106 50002=
202406011653 METAR KCLM 011653Z AUTO 29003KT 10SM BKN026 OVC055 12/09 A2997 RMK AO2 RAB1559E13 SLP147 P0000 T01220094=
202406011646 SPECI KCLM 011646Z AUTO 29004KT 10SM BKN026 OVC055 12/10 A2996 RMK AO2 RAB1559E13 P0000 T01220100=
202406011553 METAR KCLM 011553Z AUTO 34003KT 10SM BKN060 OVC075 12/10 A2996 RMK AO2 RAB1454E25 SLP145 P0001 T01220100=
202406011453 METAR KCLM 011453Z AUTO 00000KT 10SM SCT050 OVC055 12/10 A2996 RMK AO2 SLP144 T01220100 58000=
202406011424 SPECI KCLM 011424Z AUTO 00000KT 10SM SCT025 BKN048 OVC060 12/10 A2996 RMK AO2 T01220100=
202406011353 METAR KCLM 011353Z AUTO 25004KT 10SM OVC025 12/10 A2996 RMK AO2 SLP145 T01170100=
202406011322 SPECI KCLM 011322Z AUTO 22004KT 10SM BKN024 OVC060 11/10 A2996 RMK AO2 T01110100=
202406011315 SPECI KCLM 011315Z AUTO 00000KT 10SM SCT024 BKN060 OVC080 11/10 A2996 RMK AO2 T01110100=
202406011304 SPECI KCLM 011304Z AUTO 00000KT 10SM BKN024 BKN060 OVC080 11/10 A2996 RMK AO2 T01110100=
202406011253 METAR KCLM 011253Z AUTO 00000KT 10SM SCT026 OVC080 11/09 A2996 RMK AO2 SLP145 T01110094=
202406011248 SPECI KCLM 011248Z AUTO 00000KT 10SM SCT026 OVC080 11/10 A2996 RMK AO2=
202406011230 SPECI KCLM 011230Z AUTO 00000KT 10SM BKN025 OVC048 11/10 A2996 RMK AO2 T01110100=
202406011153 METAR KCLM 011153Z AUTO 00000KT 10SM SCT024 OVC048 11/09 A2996 RMK AO2 SLP145 60004 70004 T01110094 10122 20106 57009=
202406011053 METAR KCLM 011053Z AUTO 23004KT 10SM SCT060 OVC100 11/08 A2997 RMK AO2 RAE42 SLP149 P0000 T01060083=
202406010953 METAR KCLM 010953Z AUTO 27005KT 10SM -RA OVC075 11/09 A2998 RMK AO2 SLP151 P0001 T01060089=
202406010853 METAR KCLM 010853Z AUTO 28003KT 10SM -RA OVC070 11/09 A2999 RMK AO2 SLP154 P0003 60003 T01060089 56010=
202406010753 METAR KCLM 010753Z AUTO 28007KT 10SM -RA BKN065 OVC085 11/08 A3000 RMK AO2 SLP157 P0000 T01110083 401940061=
202406010653 METAR KCLM 010653Z AUTO 29006G15KT 10SM -RA BKN085 BKN120 12/07 A3001 RMK AO2 RAB53 SLP161 P0000 T01170072=
202406010553 METAR KCLM 010553Z AUTO 30010G17KT 10SM SCT110 12/08 A3002 RMK AO2 SLP165 T01220078 10172 20122 55011=
202406010453 METAR KCLM 010453Z AUTO 29005KT 10SM BKN110 14/07 A3001 RMK AO2 SLP163 T01390067=
202406010353 METAR KCLM 010353Z AUTO 26005KT 10SM BKN120 14/07 A3003 RMK AO2 SLP171 T01390072=
202406010253 METAR KCLM 010253Z AUTO 28007KT 10SM FEW110 14/07 A3005 RMK AO2 SLP175 T01390072 58012=
202406010153 METAR KCLM 010153Z AUTO 28007KT 10SM CLR 14/08 A3007 RMK AO2 SLP182 T01390078=
202406010053 METAR KCLM 010053Z AUTO 29008KT 10SM CLR 14/08 A3007 RMK AO2 SLP185 T01390083=

# No short TAF reports from KCLM in databse.

###################################
#  large TAF from KCLM
###################################
202406302324 TAF KCLM 302324Z 0100/0124 29010G16KT P6SM FEW040 FEW060 FM010800
                       27009KT P6SM SCT030 BKN050 FM011100 29010KT
                       P6SM FEW009 BKN018 OVC030 FM012100 31013G21KT
                       P6SM SCT040=
202406301959 KCLM 301959Z 3020/0118 30006KT P6SM FEW015 SCT030 OVC050 FM302200
                       31009KT P6SM BKN045 FM010200 29010G16KT
                       P6SM BKN100 OVC200 FM010800 27009KT P6SM
                       SCT030 BKN050 FM011300 29010KT P6SM FEW009
                       BKN022 OVC030 FM011700 31012G18KT P6SM BKN035=
202406301904 KCLM 301904Z 3019/0118 30006KT P6SM SCT015 OVC025 FM302200 31009KT
                       P6SM BKN045 FM010200 29010G16KT P6SM BKN100
                       OVC200 FM010800 27009KT P6SM SCT030 BKN050
                       FM011300 29010KT P6SM FEW009 BKN022 OVC030
                       FM011700 31012G18KT P6SM BKN035=
202406301725 TAF KCLM 301725Z 3018/0118 30006KT P6SM BKN010 OVC020 FM302200
                       31009KT P6SM BKN045 FM010200 29010G16KT
                       P6SM BKN100 OVC200 FM010800 27009KT P6SM
                       SCT030 BKN050 FM011300 29010KT P6SM FEW009
                       BKN022 OVC030 FM011700 31012G18KT P6SM BKN035=
202406301450 KCLM 301450Z 3015/0112 26004KT P6SM BKN010 OVC015 FM301700 30006KT
                       P6SM SCT015 BKN030 FM302200 31009KT P6SM
                       BKN045 FM010200 29010G16KT P6SM BKN100 OVC200
                       FM010800 27009KT P6SM SCT030 BKN050=
202406301320 KCLM 301320Z 3013/0112 26004KT 6SM BR BKN009 OVC015 FM301700 30006KT
                       P6SM SCT015 BKN030 FM302200 31009KT P6SM
                       BKN045 FM010200 29010G16KT P6SM BKN100 OVC200
                       FM010800 27009KT P6SM SCT030 BKN050=
202406301122 TAF KCLM 301122Z 3012/0112 26004KT 6SM BR SCT008 OVC015 FM301700
                       30006KT P6SM SCT015 BKN030 FM302200 31009KT
                       P6SM BKN045 FM010200 29010G16KT P6SM BKN100
                       OVC200 FM010800 27009KT P6SM SCT030 BKN050=
202406300750 KCLM 300750Z 3008/0106 27005KT P6SM BKN025 OVC050 FM301100 26004KT
                       6SM BR SCT008 OVC015 FM301700 30006KT P6SM
                       SCT015 BKN030 FM302200 31009KT P6SM BKN045
                       FM010200 29010KT P6SM BKN100 OVC200=
202406300527 TAF KCLM 300527Z 3006/0106 27005KT P6SM OVC050 FM301100 26004KT
                       6SM BR SCT008 OVC015 FM301700 30006KT P6SM
                       SCT015 BKN030 FM302200 31009KT P6SM BKN045
                       FM010200 29010KT P6SM BKN100 OVC200=
202406292320 TAF KCLM 292320Z 3000/3024 27006KT 6SM -RA SCT040 OVC060 FM300300
                       27006KT P6SM BKN011 OVC020 FM301100 26004KT
                       6SM BR SCT008 BKN011 OVC015 FM301700 30006KT
                       P6SM SCT015 BKN030 FM302200 31009KT P6SM
                       BKN035=
202406291720 TAF KCLM 291720Z 2918/3018 30006KT P6SM BKN100 FM292300 27006KT
                       P6SM -SHRA SCT040 OVC060 FM300300 27006KT
                       P6SM BKN011 OVC020 FM301100 26004KT P6SM
                       SCT007 BKN011 OVC015 FM301700 30006KT P6SM
                       SCT015 BKN030=
202406291126 TAF KCLM 291126Z 2912/3012 VRB03KT P6SM BKN070 BKN100 FM291700
                       30006KT P6SM SCT070 BKN100 FM292300 27006KT
                       P6SM SCT040 OVC060 FM300300 27006KT P6SM
                       BKN011 OVC020=
202406290520 TAF KCLM 290520Z 2906/3006 27006KT P6SM BKN100 FM291900 30006KT
                       P6SM SCT100 BKN200 FM300000 27006KT P6SM
                       SCT040 OVC060 FM300300 27006KT P6SM BKN011
                       OVC020=
202406282320 TAF KCLM 282320Z 2900/2924 33008KT P6SM BKN250 FM290200 28005KT
                       P6SM BKN100 FM290700 27003KT P6SM OVC070
                       FM292200 30010KT P6SM VCSH FEW015 BKN060=
202406281905 KCLM 281905Z 2819/2918 33010KT P6SM FEW030 BKN200 FM290200 28005KT
                       P6SM BKN100 FM290700 27003KT P6SM OVC070=
202406281720 TAF KCLM 281720Z 2818/2918 30006KT P6SM OVC025 FM282100 31010KT
                       P6SM SCT030 BKN200 FM290200 28005KT P6SM
                       BKN100 FM290700 27003KT P6SM OVC070=
202406281120 TAF KCLM 281120Z 2812/2912 28005KT P6SM OVC025 FM281600 33004KT
                       P6SM BKN040 FM282100 31008KT P6SM SCT025
                       BKN050 FM290200 28005KT P6SM OVC060 FM290700
                       27003KT P6SM OVC100=
202406280520 TAF KCLM 280520Z 2806/2906 30004KT P6SM BKN035 FM281200 28005KT
                       P6SM OVC025 FM282100 31008KT P6SM SCT025
                       BKN050 FM290200 28005KT P6SM OVC060=
202406272320 TAF KCLM 272320Z 2800/2824 30015G25KT P6SM BKN022 OVC080 FM280300
                       30015G22KT P6SM BKN035 OVC050 FM281200 28007KT
                       P6SM OVC025 FM282100 31008KT P6SM SCT050=
202406272003 KCLM 272003Z 2720/2818 30015G25KT P6SM OVC010 FM272200 30015G22KT
                       P6SM BKN035 OVC050 FM281200 28007KT P6SM
                       OVC025=
202406271724 TAF KCLM 271724Z 2718/2818 30009G17KT P6SM SCT025 OVC040 FM272200
                       30015G22KT P6SM BKN035 OVC050 FM281200 28007KT
                       P6SM OVC025=
202406271502 KCLM 271502Z 2715/2812 27005KT P6SM -SHRA SCT070 OVC090 FM271700
                       30009G17KT P6SM OVC020 FM280000 30010KT
                       P6SM BKN035 OVC050=
202406271125 TAF KCLM 271125Z 2712/2812 28004KT P6SM -SHRA OVC035 FM271400 27005KT
                       P6SM -SHRA OVC015 FM271700 30009G17KT P6SM
                       OVC020 FM280000 30010KT P6SM BKN035 OVC050=
202406270729 KCLM 270729Z 2707/2806 27008KT 6SM -SHRA OVC004 FM271000 28004KT
                       P6SM -SHRA OVC007 FM271300 27005KT P6SM
                       -SHRA OVC015 FM280000 30010KT P6SM OVC050=
202406270524 TAF KCLM 270524Z 2706/2806 27008KT P6SM -SHRA OVC007 FM271000 28004KT
                       P6SM -SHRA OVC007 FM271300 27005KT P6SM
                       -SHRA OVC015 FM280000 30010KT P6SM OVC050=
202406262340 TAF KCLM 262340Z 2700/2724 30007KT P6SM -SHRA OVC020 FM270400 28004KT
                       P6SM -SHRA OVC025 FM270700 27008KT P6SM
                       -SHRA OVC007 FM271200 27008KT P6SM -SHRA
                       OVC015=
202406261728 TAF KCLM 261728Z 2618/2718 29012G21KT P6SM VCSH SCT015 OVC060 FM262100
                       30009G19KT P6SM -SHRA OVC040 FM270400 28004KT
                       P6SM -SHRA OVC020 FM270800 27008KT P6SM
                       -SHRA OVC007=
202406261125 TAF KCLM 261125Z 2612/2712 28007KT P6SM SKC FM261500 29010G20KT
                       P6SM OVC060 FM262100 30009G19KT P6SM -SHRA
                       OVC040 FM270400 28004KT P6SM OVC020=
202406260617 TAF KCLM 260617Z 2606/2706 28007KT P6SM SKC FM261500 30010G20KT
                       P6SM OVC025=
202406252337 TAF KCLM 252337Z 2600/2624 35006KT P6SM BKN250 FM260400 28007KT
                       P6SM SKC FM261500 30010G20KT P6SM OVC025=
202406251736 TAF KCLM 251736Z 2518/2618 VRB06KT P6SM SCT250 FM260000 32006KT
                       P6SM BKN250 FM260700 28007KT P6SM SKC FM261400
                       28007KT P6SM OVC100 FM261500 30010G20KT
                       P6SM OVC025=
202406251120 TAF KCLM 251120Z 2512/2612 27003KT P6SM BKN250 FM251800 03007KT
                       P6SM BKN250 FM260000 31006KT P6SM OVC250
                       FM260700 28007KT P6SM SKC=
202406250520 TAF KCLM 250520Z 2506/2606 30006KT P6SM BKN250 FM250900 27003KT
                       P6SM BKN250 FM251800 03007KT P6SM BKN250
                       FM260000 31006KT P6SM OVC250=
202406242337 TAF KCLM 242337Z 2500/2524 31007KT P6SM BKN050 FM250300 30006KT
                       P6SM BKN250 FM250900 27003KT P6SM BKN250
                       FM251800 03007KT P6SM BKN250=
202406241740 TAF KCLM 241740Z 2418/2518 32007KT P6SM BKN050 FM250300 30006KT
                       P6SM BKN250 FM250900 27003KT P6SM BKN250=
202406241120 TAF KCLM 241120Z 2412/2512 22004KT P6SM OVC060 FM241800 32007KT
                       P6SM BKN060 FM250300 29005KT P6SM BKN250=
202406240520 TAF KCLM 240520Z 2406/2506 27006KT P6SM SCT025 FM241400 26005KT
                       P6SM BKN025 FM241800 32007KT P6SM BKN050
                       FM250300 29005KT P6SM BKN250=
202406232326 TAF KCLM 232326Z 2400/2424 VRB05KT P6SM SCT025 BKN040 FM240400
                       27006KT P6SM BKN060 FM240800 26005KT P6SM
                       BKN025 FM241800 32007KT P6SM BKN050=
202406231729 TAF KCLM 231729Z 2318/2418 VRB06KT P6SM OVC070 FM232100 31006KT
                       P6SM SCT025 BKN040 FM240400 28007KT P6SM
                       BKN070 FM240800 26004KT P6SM BKN040=
202406231136 TAF KCLM 231136Z 2312/2412 28012KT P6SM BKN015 OVC025 FM231800
                       30006KT P6SM SCT025 BKN040 FM240400 28010KT
                       P6SM BKN040=
202406230530 TAF KCLM 230530Z 2306/2406 28012KT P6SM OVC007 FM231200 28008KT
                       P6SM SCT010 OVC019 FM231800 31005KT P6SM
                       OVC050 FM240400 27005KT P6SM OVC050=
202406222339 TAF KCLM 222339Z 2300/2324 30010KT P6SM BKN070 BKN090 FM230100
                       28012KT P6SM SCT030 OVC050 FM230800 28012KT
                       P6SM BKN025 OVC035 FM231800 31005KT P6SM
                       OVC050=
202406221728 TAF KCLM 221728Z 2218/2318 28010KT P6SM OVC060 FM230100 28012KT
                       P6SM SCT030 OVC050 FM230800 28012KT P6SM
                       BKN025 OVC030 FM231700 31005KT P6SM OVC050=
202406221139 TAF KCLM 221139Z 2212/2312 28010KT P6SM BKN120 FM230100 28012KT
                       P6SM SCT030 OVC050 FM230800 28012KT P6SM
                       BKN020 OVC030=
202406220520 TAF KCLM 220520Z 2206/2306 28007KT P6SM BKN250 FM222300 28011KT
                       P6SM FEW050 SCT250=
202406212320 TAF KCLM 212320Z 2200/2224 29009KT P6SM SCT250 FM222100 28011KT
                       P6SM SCT040 SCT250=
202406211721 TAF KCLM 211721Z 2118/2218 34004KT P6SM SKC FM211900 29006KT P6SM
                       SKC FM220200 28010KT P6SM SCT040=
202406211124 TAF KCLM 211124Z 2112/2212 25006KT P6SM SKC FM211900 29008KT P6SM
                       SKC=
202406210537 TAF KCLM 210537Z 2106/2206 25006KT P6SM SKC FM211900 29008KT P6SM
                       SKC=
202406202320 TAF KCLM 202320Z 2100/2124 07005KT P6SM SKC FM210400 29006KT P6SM
                       SKC FM211500 25003KT P6SM SKC=
202406201720 TAF KCLM 201720Z 2018/2118 07005KT P6SM SKC FM210400 29006KT P6SM
                       SKC FM211100 24003KT P6SM SKC=
202406201134 TAF KCLM 201134Z 2012/2112 VRB03KT P6SM SKC FM201700 07008KT P6SM
                       SKC FM210200 29006KT P6SM SKC=
202406200521 TAF KCLM 200521Z 2006/2106 26004KT P6SM SKC FM201500 07008KT P6SM
                       SKC FM210200 28007KT P6SM SKC=
202406192320 TAF KCLM 192320Z 2000/2024 06005KT P6SM SKC FM200600 28004KT P6SM
                       SKC FM201500 07008KT P6SM SKC=
202406191720 TAF KCLM 191720Z 1918/2018 VRB04KT P6SM SKC FM192200 06005KT P6SM
                       SKC FM200600 28006KT P6SM SKC=
202406191128 TAF KCLM 191128Z 1912/2012 26004KT P6SM SKC FM191800 07008KT P6SM
                       SKC FM200200 28006KT P6SM SKC=
202406190520 TAF KCLM 190520Z 1906/2006 29007KT P6SM SCT250 FM191200 27004KT
                       P6SM SCT250 FM191800 07008KT P6SM SKC FM200200
                       30006KT P6SM SKC=
202406182320 TAF KCLM 182320Z 1900/1924 01006KT P6SM SKC FM190300 29007KT P6SM
                       SCT250 FM191200 27004KT P6SM SCT250 FM191800
                       07008KT P6SM SKC=
202406181720 TAF KCLM 181720Z 1818/1918 34006KT P6SM SCT030 SCT250 FM182100
                       01006KT P6SM SCT250 FM190300 29006KT P6SM
                       SCT250 FM191200 27004KT P6SM SCT250=
202406181120 TAF KCLM 181120Z 1812/1912 VRB03KT P6SM BKN040 FM181800 34006KT
                       P6SM SCT050 SCT250 FM190100 29006KT P6SM
                       SCT250 FM190500 27004KT P6SM SCT250=
202406180525 TAF KCLM 180525Z 1806/1906 28010KT P6SM SCT050 BKN120 FM180900
                       27006KT P6SM BKN050 FM181400 26005KT P6SM
                       OVC030 FM181800 30006KT P6SM BKN050 FM182100
                       33006KT P6SM SCT250 FM190300 29006KT P6SM
                       SKC=
202406172320 TAF KCLM 172320Z 1800/1824 29014G24KT P6SM FEW050 FM180400 28010KT
                       P6SM SCT050 BKN120 FM180900 27006KT P6SM
                       BKN050 FM181400 26005KT P6SM OVC030 FM181800
                       30006KT P6SM BKN050 FM182100 33006KT P6SM
                       SCT250=
202406171904 KCLM 171904Z 1719/1818 31012G22KT P6SM SCT050 FM180900 27006KT
                       P6SM BKN050=
202406171725 TAF KCLM 171725Z 1718/1818 29010G18KT P6SM SCT070 FM172100 31015G24KT
                       P6SM SCT050 FM180900 27006KT P6SM BKN050=
202406171120 TAF KCLM 171120Z 1712/1812 27008KT P6SM OVC060 FM171600 30012KT
                       P6SM OVC030 FM172100 32015G24KT P6SM OVC050
                       FM180400 28008KT P6SM BKN050=
202406170520 TAF KCLM 170520Z 1706/1806 27008KT P6SM OVC050 FM171400 30007KT
                       P6SM OVC025 FM172100 32007KT P6SM OVC050
                       FM180400 28005KT P6SM SCT050=
202406162320 TAF KCLM 162320Z 1700/1724 30008G15KT P6SM VCSH SCT040 BKN060 FM170500
                       27008KT P6SM OVC050 FM171400 30007KT P6SM
                       OVC025 FM172100 32007KT P6SM OVC050=
202406161725 TAF KCLM 161725Z 1618/1718 29006KT P6SM OVC060 FM162300 29010KT
                       P6SM BKN050 OVC100 FM170500 27008KT P6SM
                       OVC050 FM171400 30007KT P6SM OVC025=
202406161120 TAF KCLM 161120Z 1612/1712 26007KT P6SM OVC050 FM161500 29007KT
                       P6SM OVC030 FM162000 33010KT P6SM VCSH OVC040
                       FM170200 27008KT P6SM BKN050=
202406160520 TAF KCLM 160520Z 1606/1706 26007KT P6SM OVC050 FM161500 27007KT
                       P6SM OVC025 FM162000 33005KT P6SM VCSH OVC030
                       FM170200 27005KT P6SM BKN050=
202406160059 KCLM 160059Z 1601/1624 30009KT P6SM -SHRA FEW045 SCT060 BKN070
                       TEMPO 1601/1603 1 1/2SM -RA BR BKN025 FM160300
                       27010KT P6SM SCT050 BKN100 FM160700 26007KT
                       P6SM OVC050 FM161500 27007KT P6SM OVC025
                       FM162100 33005KT P6SM VCSH OVC030=
202406152328 TAF KCLM 152328Z 1600/1624 30009KT P6SM -SHRA FEW045 SCT060 BKN070
                       FM160300 27010KT P6SM SCT050 BKN100 FM160700
                       26007KT P6SM OVC050 FM161500 27007KT P6SM
                       OVC025 FM162100 33005KT P6SM VCSH OVC030=
202406151724 TAF KCLM 151724Z 1518/1618 30010KT P6SM VCSH SCT045 BKN060 FM151900
                       30012KT P6SM -SHRA BKN040 OVC060 FM152200
                       30010KT P6SM VCSH BKN050 FM160100 27010KT
                       P6SM SCT050 OVC070 FM160700 26007KT P6SM
                       OVC050=
202406151136 TAF KCLM 151136Z 1512/1612 26006KT P6SM -SHRA BKN060 FM151500 30008KT
                       P6SM -SHRA BKN035 OVC050 FM151900 30012KT
                       P6SM -SHRA BKN040 OVC060 FM152200 30010KT
                       P6SM VCSH BKN050 FM160100 27008KT P6SM SCT050
                       OVC070 FM160700 26007KT P6SM OVC050=
202406150520 TAF KCLM 150520Z 1506/1606 26006KT P6SM VCSH BKN050 FM151100 25005KT
                       P6SM -SHRA BKN035 OVC050 FM151800 30008KT
                       P6SM -SHRA BKN040 OVC060 FM160000 28008KT
                       P6SM VCSH SCT050=
202406142332 TAF KCLM 142332Z 1500/1524 32005KT P6SM VCSH BKN060 FM150600 26006KT
                       P6SM VCSH BKN050 FM151100 25005KT P6SM -SHRA
                       BKN035 OVC050 FM151800 30008KT P6SM -SHRA
                       BKN040 OVC060=
202406141730 TAF KCLM 141730Z 1418/1518 07006KT P6SM VCSH BKN040 BKN060 FM142100
                       32005KT P6SM VCSH BKN060 FM150600 26006KT
                       P6SM VCSH BKN050 FM151100 25005KT P6SM -SHRA
                       BKN035 OVC050=
202406141127 TAF KCLM 141127Z 1412/1512 28006KT P6SM BKN100 OVC200 FM141500
                       29005KT P6SM -SHRA OVC040 FM142300 32005KT
                       P6SM OVC070 FM150900 26006KT P6SM -SHRA
                       BKN050=
202406140520 TAF KCLM 140520Z 1406/1506 26009KT P6SM OVC070 FM140800 27009KT
                       P6SM BKN200 FM141200 27006KT P6SM BKN100
                       OVC200 FM141600 29005KT P6SM VCSH OVC050
                       FM150000 32005KT P6SM VCSH OVC050=
202406132325 TAF KCLM 132325Z 1400/1424 30013G21KT P6SM SCT200 FM140300 29014G22KT
                       P6SM BKN200 FM140800 27009KT P6SM BKN200
                       FM141200 27006KT P6SM BKN100 OVC200 FM141600
                       29005KT P6SM VCSH OVC050=
202406131731 TAF KCLM 131731Z 1318/1418 32006KT P6SM SCT200 FM132100 31012G18KT
                       P6SM BKN200 FM140300 29014G22KT P6SM BKN200
                       FM140900 27009KT P6SM BKN200 FM141200 27006KT
                       P6SM BKN090 OVC120 FM141600 29005KT P6SM
                       VCSH OVC050=
202406131120 TAF KCLM 131120Z 1312/1412 25005KT P6SM FEW250 FM131800 32006KT
                       P6SM BKN200 FM132100 32012G22KT P6SM SCT150
                       FM140900 27008KT P6SM BKN250=
202406130543 TAF KCLM 130543Z 1306/1406 26008KT P6SM FEW250 FM131800 32006KT
                       P6SM BKN200 FM132300 32012KT P6SM SCT150=
202406122336 TAF KCLM 122336Z 1300/1324 29010KT P6SM BKN050 FM130600 27008KT
                       P6SM SCT250 FM131900 32012KT P6SM BKN250=
202406121722 TAF KCLM 121722Z 1218/1318 26010KT P6SM BKN050 FM121900 28010G20KT
                       P6SM SCT050 FM130600 27008KT P6SM SCT250=
202406121120 TAF KCLM 121120Z 1212/1312 26008KT P6SM SCT100 FM121500 26010KT
                       P6SM BKN050 FM121900 28010G20KT P6SM SCT050
                       FM130600 27007KT P6SM BKN250=
202406120537 TAF KCLM 120537Z 1206/1306 28012G20KT P6SM BKN045 FM120900 27012KT
                       P6SM SCT100 FM121500 26010KT P6SM BKN050
                       FM121900 28010G20KT P6SM SCT050=
202406112331 TAF KCLM 112331Z 1200/1224 30015G25KT P6SM SCT050 FM120200 29014G22KT
                       P6SM BKN050 FM120700 27012KT P6SM SCT100
                       FM121500 26010KT P6SM BKN050 FM121900 28010G20KT
                       P6SM SCT050=
202406111726 TAF KCLM 111726Z 1118/1218 34005KT P6SM BKN070 FM112100 29015G25KT
                       P6SM BKN050 FM120700 27012KT P6SM SCT100
                       FM121200 26010KT P6SM BKN050=
202406111122 TAF KCLM 111122Z 1112/1212 29007KT P6SM VCSH BKN070 OVC100 FM111800
                       29015G25KT P6SM BKN050 FM120300 28013G21KT
                       P6SM SCT100=
202406110522 TAF KCLM 110522Z 1106/1206 26004KT P6SM BKN100 FM111200 29007KT
                       P6SM VCSH BKN040 OVC060 FM111800 29015G22KT
                       P6SM BKN050 FM120300 28013G21KT P6SM SCT100=
202406102321 TAF KCLM 102321Z 1100/1124 32007KT P6SM SCT250 FM110600 26003KT
                       P6SM BKN100 FM111200 29007KT P6SM VCSH BKN040
                       OVC060 FM111800 29015G22KT P6SM BKN050=
202406101725 TAF KCLM 101725Z 1018/1118 30007KT P6SM SCT250 FM110600 27003KT
                       P6SM OVC100 FM111200 28007KT P6SM VCSH BKN040
                       OVC060=
202406101120 TAF KCLM 101120Z 1012/1112 23004KT P6SM FEW020 BKN250 FM101900
                       32007KT P6SM SCT025 SCT250 FM110300 28006KT
                       P6SM SCT250 FM110700 27003KT P6SM OVC100=
202406100520 TAF KCLM 100520Z 1006/1106 29007KT P6SM OVC010 FM101600 31010KT
                       P6SM OVC020 FM101900 32007KT P6SM SCT025
                       SCT250 FM110300 28006KT P6SM SCT250=
202406092338 TAF KCLM 092338Z 1000/1024 29010G22KT P6SM SCT015 FM101000 28010KT
                       P6SM BKN100 FM101200 27007KT P6SM BKN050
                       FM101900 32009KT P6SM FEW250=
202406091739 TAF KCLM 091739Z 0918/1018 29010KT P6SM BKN015 FM092000 30011G20KT
                       P6SM SCT250 FM092300 30012G22KT P6SM BKN250
                       FM101000 28010KT P6SM BKN100 FM101200 27007KT
                       P6SM BKN050=
202406091505 KCLM 091505Z 0915/1012 29007KT P6SM BKN250
                      TEMPO 0915/0917 BKN009 FM092100 30011G19KT
                       P6SM SCT250 FM092300 30015G22KT P6SM BKN250
                       FM100600 28011KT P6SM BKN100=
202406091124 TAF KCLM 091124Z 0912/1012 29008KT P6SM BKN250 FM092100 30011G19KT
                       P6SM SCT250 FM092300 30015G22KT P6SM BKN250
                       FM100600 28011KT P6SM BKN100=
202406090520 TAF KCLM 090520Z 0906/1006 29007KT P6SM SCT250 FM090800 30009KT
                       P6SM OVC250 FM091600 30010KT P6SM OVC100
                       FM092000 30014G23KT P6SM SCT250=
202406082339 TAF KCLM 082339Z 0900/0924 29007KT P6SM SCT250 FM090100 30009KT
                       P6SM OVC250 FM091600 30010KT P6SM OVC100
                       FM092000 30012G20KT P6SM FEW250=
202406081739 TAF KCLM 081739Z 0818/0918 34005KT P6SM SCT250 FM090100 30008KT
                       P6SM OVC250 FM091600 30010KT P6SM OVC100=
202406081120 TAF KCLM 081120Z 0812/0912 22006KT P6SM SCT250 FM081700 33008KT
                       P6SM SCT250 FM090100 28012KT P6SM OVC250=
202406080520 TAF KCLM 080520Z 0806/0906 24003KT P6SM SKC FM081700 33008KT P6SM
                       SCT250 FM090100 28010KT P6SM OVC250=
202406072324 TAF KCLM 072324Z 0800/0824 06007KT P6SM SKC FM080300 VRB03KT P6SM
                       SKC FM080600 20003KT P6SM SKC FM081700 33008KT
                       P6SM SKC=
202406071745 TAF KCLM 071745Z 0718/0818 09007KT P6SM SKC FM072100 06007KT P6SM
                       SKC FM080300 VRB03KT P6SM SKC FM080600 20003KT
                       P6SM SKC FM081700 33008KT P6SM SKC=
202406071120 TAF KCLM 071120Z 0712/0812 22004KT P6SM SKC FM071500 09003KT P6SM
                       SKC FM072100 06007KT P6SM SKC FM080300 VRB03KT
                       P6SM SKC=
202406070547 TAF KCLM 070547Z 0706/0806 VRB04KT P6SM SCT250 FM071500 09003KT
                       P6SM SKC FM072100 06007KT P6SM SKC FM080300
                       VRB03KT P6SM SKC=
202406062320 TAF KCLM 062320Z 0700/0724 VRB04KT P6SM SCT250 FM071500 09003KT
                       P6SM SKC FM072100 06007KT P6SM SKC=
202406061746 TAF KCLM 061746Z 0618/0718 08007KT P6SM SCT250 FM062300 VRB04KT
                       P6SM SCT250 FM071500 09003KT P6SM SKC=
202406061120 TAF KCLM 061120Z 0612/0712 VRB03KT P6SM BKN250 FM061700 08007KT
                       P6SM SCT250 FM062200 28007KT P6SM SCT250
                       FM070500 VRB03KT P6SM FEW250=
202406060536 TAF KCLM 060536Z 0606/0706 27006KT P6SM SCT250 FM061000 00000KT
                       P6SM FEW002 SCT250 FM061700 01010KT P6SM
                       SCT250 FM070000 28007KT P6SM SCT250=
202406052320 TAF KCLM 052320Z 0600/0624 29008KT P6SM SCT250 FM061000 00000KT
                       P6SM FEW002 SCT250 FM061700 34010KT P6SM
                       SCT250=
202406051720 TAF KCLM 051720Z 0518/0618 33006KT P6SM FEW050 BKN250 FM060000
                       29008KT P6SM BKN250 FM061000 26004KT P6SM
                       SCT250 FM061700 34010KT P6SM SCT250=
202406051120 TAF KCLM 051120Z 0512/0612 VRB04KT P6SM FEW050 FM051500 33006KT
                       P6SM FEW050 BKN250 FM060000 29008KT P6SM
                       BKN250=
202406050534 TAF KCLM 050534Z 0506/0606 30006KT P6SM BKN060 FM050800 VRB04KT
                       P6SM SCT050 FM051500 33006KT P6SM SCT050
                       BKN250 FM060000 29008KT P6SM SCT050=
202406042320 TAF KCLM 042320Z 0500/0524 30010G26KT P6SM BKN060 FM050700 25005KT
                       P6SM SCT050 FM051500 34005KT P6SM SCT045
                       FM052200 32008KT P6SM SCT050=
202406041722 TAF KCLM 041722Z 0418/0518 VRB04KT P6SM VCSH OVC010 FM041900 28011G23KT
                       P6SM BKN050 FM050000 26010G21KT P6SM SCT050
                       FM050700 25005KT P6SM SCT050 FM051500 32005KT
                       P6SM SCT045=
202406041642 KCLM 041642Z 0417/0512 VRB04KT P6SM -RA OVC009 FM041800 28011KT
                       P6SM BKN050 FM050000 29013KT P6SM BKN050
                       FM050600 26005KT P6SM SCT050=
202406041133 TAF KCLM 041133Z 0412/0512 VRB04KT P6SM VCSH SCT035 OVC050 FM041800
                       28011KT P6SM BKN050 FM050000 29013KT P6SM
                       BKN050 FM050600 26005KT P6SM SCT050=
202406040537 TAF KCLM 040537Z 0406/0506 09004KT P6SM -SHRA FEW030 OVC050 FM040900
                       VRB04KT P6SM -SHRA SCT025 OVC050 FM041700
                       31004KT P6SM FEW030 OVC050 FM041800 29006KT
                       P6SM OVC050 FM050000 29013KT P6SM BKN050=
202406032322 TAF KCLM 032322Z 0400/0424 29008KT P6SM -SHRA OVC025 FM040500 VRB06KT
                       P6SM -SHRA OVC015 FM041900 28013KT P6SM
                       VCSH BKN050=
202406031732 TAF KCLM 031732Z 0318/0418 27010KT P6SM VCSH OVC050 FM040000 29008KT
                       P6SM -RA OVC050 FM040500 25006KT P6SM -RA
                       OVC025=
202406031140 TAF KCLM 031140Z 0312/0412 28006KT P6SM -RA SCT004 BKN045 OVC060
                       FM031500 26008KT P6SM -SHRA OVC025 FM032200
                       27008KT P6SM OVC050 FM040000 29008KT P6SM
                       -RA OVC050 FM040500 25006KT P6SM -RA OVC025=
202406030534 TAF KCLM 030534Z 0306/0406 18005KT P6SM VCSH OVC050 FM030900 VRB04KT
                       4SM -RA BR OVC010 FM032000 29008G16KT P6SM
                       -RA OVC035 FM040000 29008KT P6SM -RA OVC050=
202406022329 TAF KCLM 022329Z 0300/0324 30008KT 6SM -RA BR SCT007 BKN040 FM030300
                       28005KT 4SM -RA BR OVC019 FM032000 30008G16KT
                       P6SM -RA OVC003=
202406021735 TAF KCLM 021735Z 0218/0318 05003KT 6SM -RA BR OVC015 FM030300 28005KT
                       4SM -RA BR OVC019=
202406021139 TAF KCLM 021139Z 0212/0312 24002KT P6SM OVC015 FM021700 05003KT
                       4SM -RA BR OVC015 FM030300 28005KT 4SM -RA
                       BR OVC019=
202406020537 TAF KCLM 020537Z 0206/0306 29005KT P6SM OVC015 FM020900 24002KT
                       P6SM OVC025 FM021600 06003KT 4SM -RA BR
                       OVC025 FM022200 31003KT 4SM -RA BR OVC019=
202406020348 KCLM 020348Z 0204/0224 29005KT P6SM OVC015 FM020900 24002KT P6SM
                       OVC025 FM021600 06003KT 4SM -RA BR OVC025=
202406012320 TAF KCLM 012320Z 0200/0224 33005KT P6SM OVC010 FM020200 31005KT
                       P6SM SCT025 OVC050 FM020900 24002KT P6SM
                       OVC025 FM021600 06003KT 4SM -RA BR OVC025=
202406011738 TAF KCLM 011738Z 0118/0218 29005KT P6SM VCSH BKN025 OVC050 FM012100
                       28003KT P6SM OVC015 FM020200 31005KT P6SM
                       SCT025 OVC050 FM020900 24002KT P6SM OVC025
                       FM021600 06003KT 4SM -RA BR OVC025=
202406011353 KCLM 011353Z 0114/0212 VRB03KT P6SM -SHRA BKN025 OVC060 FM011800
                       33005KT P6SM OVC020 FM020400 28003KT P6SM
                       OVC015=
202406011126 TAF KCLM 011126Z 0112/0212 28003KT P6SM -SHRA SCT060 OVC100 FM011400
                       VRB03KT P6SM -SHRA OVC015 FM011800 33005KT
                       P6SM OVC020 FM020400 28003KT P6SM OVC015=
202406010525 TAF KCLM 010525Z 0106/0206 27006KT P6SM BKN090 OVC150 FM011000
                       28003KT P6SM -SHRA OVC030 FM011400 VRB03KT
                       P6SM -SHRA OVC015 FM011800 33005KT P6SM
                       OVC020=