##########################################################
# Query made at 02/16/2025 06:09:11 UTC
# Time interval: from 03/01/2024 00:00  to 03/31/2024 23:59  UTC
##########################################################

##########################################################
# KCLM, Port Angeles, William R. Fairchild International Airport (United States)
# WMO index: -----. WIGOS ID: Unknown
# Latitude 48-07-20N. Longitude 123-30-19W. Altitude 87 m.
##########################################################

###################################
#  METAR/SPECI from KCLM
###################################
202403312353 METAR KCLM 312353Z AUTO 00000KT 10SM CLR 16/01 A2999 RMK AO2 SLP157 T01560011 10156 20122 58009=
202403312253 METAR KCLM 312253Z AUTO 32004KT 10SM CLR 14/02 A3002 RMK AO2 SLP167 T01440017=
202403312153 METAR KCLM 312153Z AUTO VRB04KT 10SM CLR 14/02 A3002 RMK AO2 SLP166 T01390022=
202403312053 METAR KCLM 312053Z AUTO 09004KT 10SM CLR 14/03 A3002 RMK AO2 SLP167 T01390033 58003=
202403311953 METAR KCLM 311953Z AUTO 09007KT 10SM CLR 13/03 A3002 RMK AO2 SLP168 T01330033=
202403311853 METAR KCLM 311853Z AUTO 10006KT 10SM CLR 13/03 A3003 RMK AO2 SLP170 T01280033=
202403311753 METAR KCLM 311753Z AUTO 09006KT 10SM CLR 12/03 A3003 RMK AO2 SLP170 T01220033 10128 20017 51009=
202403311653 METAR KCLM 311653Z AUTO 12006KT 10SM CLR 12/03 A3003 RMK AO2 SLP168 T01170033=
202403311553 METAR KCLM 311553Z AUTO 14003KT 10SM CLR 09/04 A3001 RMK AO2 SLP163 T00940039=
202403311453 METAR KCLM 311453Z AUTO 00000KT 10SM CLR 04/02 A3000 RMK AO2 SLP161 T00440017 53017=
202403311353 METAR KCLM 311353Z AUTO 00000KT 10SM CLR 03/00 A2999 RMK AO2 SLP156 T00280000=
202403311253 METAR KCLM 311253Z AUTO 00000KT 10SM CLR 04/01 A2997 RMK AO2 SLP148 T00390011=
202403311153 METAR KCLM 311153Z AUTO 21004KT 10SM CLR 03/01 A2995 RMK AO2 SLP143 T00330006 10083 20033 53011=
202403311053 METAR KCLM 311053Z AUTO 21003KT 10SM CLR 04/01 A2994 RMK AO2 SLP138 T00390011=
202403310953 METAR KCLM 310953Z AUTO 21004KT 10SM CLR 05/02 A2993 RMK AO2 SLP137 T00500017=
202403310853 METAR KCLM 310853Z AUTO 16003KT 10SM BKN060 06/02 A2992 RMK AO2 SLP132 T00610022 51006=
202403310753 METAR KCLM 310753Z AUTO 25006KT 10SM SCT050 BKN060 08/02 A2991 RMK AO2 SLP129 T00780022 401390044=
202403310653 METAR KCLM 310653Z AUTO 26004KT 10SM FEW060 06/03 A2991 RMK AO2 SLP130 T00610028=
202403310553 METAR KCLM 310553Z AUTO 24005KT 10SM CLR 06/03 A2990 RMK AO2 SLP126 T00610033 10139 20056 58001=
202403310453 METAR KCLM 310453Z AUTO 22006KT 10SM CLR 07/04 A2991 RMK AO2 SLP129 T00670044=
202403310353 METAR KCLM 310353Z AUTO 00000KT 10SM CLR 07/04 A2991 RMK AO2 SLP130 T00720039=
202403310253 METAR KCLM 310253Z AUTO 28003KT 10SM CLR 09/05 A2990 RMK AO2 SLP126 T00940050 55011=
202403310153 METAR KCLM 310153Z AUTO 00000KT 10SM CLR 11/03 A2990 RMK AO2 SLP124 T01060033=
202403310053 METAR KCLM 310053Z AUTO 34003KT 10SM CLR 12/03 A2990 RMK AO2 SLP125 T01220028=
202403302353 METAR KCLM 302353Z AUTO 00000KT 10SM CLR 14/03 A2994 RMK AO2 SLP138 T01390033 10139 20111 56008=
202403302253 METAR KCLM 302253Z AUTO VRB03KT 10SM CLR 13/03 A2994 RMK AO2 SLP140 T01280033=
202403302153 METAR KCLM 302153Z AUTO VRB04KT 10SM CLR 12/03 A2995 RMK AO2 SLP142 T01220033=
202403302053 METAR KCLM 302053Z AUTO 11005KT 10SM CLR 13/03 A2996 RMK AO2 SLP146 T01280033 58013=
202403301953 METAR KCLM 301953Z AUTO 09005KT 10SM CLR 12/03 A2999 RMK AO2 SLP155 T01220033=
202403301853 METAR KCLM 301853Z AUTO VRB06KT 10SM CLR 12/04 A2999 RMK AO2 SLP156 T01170044=
202403301753 METAR KCLM 301753Z AUTO 08006KT 10SM CLR 12/04 A3000 RMK AO2 SLP159 T01170039 10117 20050 55005=
202403301653 METAR KCLM 301653Z AUTO 07005KT 10SM CLR 11/03 A2999 RMK AO2 SLP159 T01110033=
202403301553 METAR KCLM 301553Z AUTO 23005KT 10SM OVC038 08/02 A3000 RMK AO2 SLP162 T00780022=
202403301453 METAR KCLM 301453Z AUTO 23007KT 10SM OVC037 07/02 A3001 RMK AO2 SLP164 T00670017 53007=
202403301353 METAR KCLM 301353Z AUTO 23007KT 10SM OVC038 06/01 A3000 RMK AO2 SLP160 T00610011=
202403301253 METAR KCLM 301253Z AUTO 23007KT 10SM SCT038 05/01 A3000 RMK AO2 SLP160 T00500011=
202403301153 METAR KCLM 301153Z AUTO 23009KT 10SM FEW036 05/01 A2999 RMK AO2 SLP157 T00500011 10061 20044 55000=
202403301053 METAR KCLM 301053Z AUTO 23008KT 10SM CLR 05/01 A2999 RMK AO2 SLP155 T00500011=
202403300953 METAR KCLM 300953Z AUTO 23008KT 10SM CLR 05/01 A2999 RMK AO2 SLP157 T00500011=
202403300853 METAR KCLM 300853Z AUTO 23009KT 10SM CLR 06/02 A2999 RMK AO2 SLP157 T00560017 52003=
202403300753 METAR KCLM 300753Z AUTO 23008KT 10SM CLR 06/02 A2999 RMK AO2 SLP155 T00560017 401330044=
202403300653 METAR KCLM 300653Z AUTO 23009KT 10SM CLR 06/02 A2999 RMK AO2 SLP156 T00560022=
202403300553 METAR KCLM 300553Z AUTO 23007KT 10SM CLR 06/02 A2998 RMK AO2 SLP154 T00610022 10133 20044 51007=
202403300453 METAR KCLM 300453Z AUTO 00000KT 10SM CLR 04/02 A2998 RMK AO2 SLP155 T00440017=
202403300353 METAR KCLM 300353Z AUTO 22006KT 10SM CLR 07/03 A2997 RMK AO2 SLP151 T00720028=
202403300253 METAR KCLM 300253Z AUTO 16004KT 10SM CLR 10/03 A2996 RMK AO2 SLP148 T01000033 53006=
202403300153 METAR KCLM 300153Z AUTO 00000KT 10SM CLR 12/03 A2995 RMK AO2 SLP144 T01220033=
202403300053 METAR KCLM 300053Z AUTO 00000KT 10SM CLR 13/03 A2995 RMK AO2 SLP142 T01280033=
202403292353 METAR KCLM 292353Z AUTO 07003KT 10SM CLR 13/04 A2994 RMK AO2 SLP141 T01280039 10128 20100 56006=
202403292253 METAR KCLM 292253Z AUTO VRB04KT 10SM CLR 13/04 A2995 RMK AO2 SLP142 T01280039=
202403292153 METAR KCLM 292153Z AUTO VRB04KT 10SM CLR 12/04 A2995 RMK AO2 SLP143 T01170039=
202403292113 SPECI KCLM 292113Z AUTO VRB04KT 10SM SCT029 12/04 A2996 RMK AO2 T01170044=
202403292053 METAR KCLM 292053Z AUTO VRB04KT 10SM BKN028 11/04 A2996 RMK AO2 SLP147 T01110044 51009=
202403292046 SPECI KCLM 292046Z AUTO VRB04KT 10SM BKN028 11/04 A2996 RMK AO2 T01110044=
202403292012 SPECI KCLM 292012Z AUTO VRB04KT 10SM SCT021 11/04 A2996 RMK AO2 T01110044=
202403291953 METAR KCLM 291953Z AUTO 10SM OVC021 11/05 A2996 RMK AO2 SLP146 T01060050=
202403291853 METAR KCLM 291853Z AUTO 06005KT 10SM BKN018 11/06 A2995 RMK AO2 SLP144 T01060056=
202403291846 SPECI KCLM 291846Z AUTO VRB04KT 10SM BKN018 11/06 A2995 RMK AO2 T01060056=
202403291753 METAR KCLM 291753Z AUTO 04006KT 10SM CLR 10/05 A2993 RMK AO2 SLP138 T01000050 10106 20050 53022=
202403291728 SPECI KCLM 291728Z AUTO 32005KT 10SM SCT018 10/04 A2992 RMK AO2 T01000044=
202403291653 METAR KCLM 291653Z AUTO 33004KT 10SM BKN016 09/04 A2991 RMK AO2 SLP129 T00890044=
202403291553 METAR KCLM 291553Z AUTO 23005KT 10SM CLR 08/03 A2988 RMK AO2 SLP121 T00780028=
202403291453 METAR KCLM 291453Z AUTO 24005KT 10SM FEW013 06/02 A2987 RMK AO2 SLP116 T00560022 53016=
202403291353 METAR KCLM 291353Z AUTO 00000KT 10SM OVC075 06/02 A2985 RMK AO2 SLP108 T00560022=
202403291253 METAR KCLM 291253Z AUTO 23004KT 10SM FEW060 BKN080 BKN110 06/03 A2983 RMK AO2 SLP104 T00560028=
202403291153 METAR KCLM 291153Z AUTO 00000KT 10SM FEW110 06/03 A2982 RMK AO2 SLP099 T00610028 10078 20044 51016=
202403291053 METAR KCLM 291053Z AUTO 22003KT 10SM CLR 06/03 A2981 RMK AO2 SLP095 T00560028=
202403290953 METAR KCLM 290953Z AUTO 18004KT 10SM SCT085 04/03 A2980 RMK AO2 SLP092 T00440028=
202403290853 METAR KCLM 290853Z AUTO 19004KT 10SM CLR 05/02 A2977 RMK AO2 SLP083 T00500022 51019=
202403290753 METAR KCLM 290753Z AUTO 24004KT 10SM FEW065 07/02 A2976 RMK AO2 SLP077 T00670022 401390033=
202403290653 METAR KCLM 290653Z AUTO 24003KT 10SM CLR 07/02 A2974 RMK AO2 SLP070 T00720022=
202403290553 METAR KCLM 290553Z AUTO 25005KT 10SM BKN070 07/02 A2972 RMK AO2 SLP063 60000 T00670022 10133 20067 53022=
202403290453 METAR KCLM 290453Z AUTO 20005KT 10SM CLR 08/02 A2969 RMK AO2 SLP056 T00830022=
202403290353 METAR KCLM 290353Z AUTO 24013KT 10SM BKN050 08/03 A2966 RMK AO2 RAB36E46 SLP045 P0000 T00780028=
202403290253 METAR KCLM 290253Z AUTO 23010KT 10SM SCT065 08/03 A2965 RMK AO2 SLP042 60000 T00830028 51016=
202403290153 METAR KCLM 290153Z AUTO 25010KT 10SM BKN060 09/03 A2963 RMK AO2 RAB23E38 SLP035 P0000 T00890033=
202403290053 METAR KCLM 290053Z AUTO 00000KT 10SM FEW049 OVC070 10/05 A2963 RMK AO2 RAB33E43 SLP035 P0000 T01000050=
202403282353 METAR KCLM 282353Z AUTO 00000KT 10SM FEW065 13/02 A2961 RMK AO2 SLP026 T01330022 10139 20094 56007=
202403282253 METAR KCLM 282253Z AUTO 00000KT 10SM SCT070 12/02 A2961 RMK AO2 SLP028 T01170022=
202403282153 METAR KCLM 282153Z AUTO 00000KT 10SM FEW080 11/03 A2962 RMK AO2 SLP029 T01110028=
202403282053 METAR KCLM 282053Z AUTO 04004KT 10SM FEW070 11/03 A2963 RMK AO2 SLP034 T01110033 53004=
202403281953 METAR KCLM 281953Z AUTO 00000KT 10SM CLR 10/03 A2962 RMK AO2 SLP032 T01000028=
202403281853 METAR KCLM 281853Z AUTO VRB06KT 10SM SCT070 11/03 A2961 RMK AO2 SLP027 T01060033=
202403281753 METAR KCLM 281753Z AUTO 00000KT 10SM FEW070 09/04 A2961 RMK AO2 SLP028 T00940044 10094 20033 55002=
202403281653 METAR KCLM 281653Z AUTO 36004KT 10SM BKN070 09/04 A2961 RMK AO2 SLP027 T00940044=
202403281553 METAR KCLM 281553Z AUTO VRB04KT 10SM CLR 07/04 A2960 RMK AO2 SLP026 T00670039=
202403281453 METAR KCLM 281453Z AUTO 22005KT 10SM FEW070 04/02 A2962 RMK AO2 SLP032 T00440022 58005=
202403281404 SPECI KCLM 281404Z AUTO 18004KT 10SM FEW008 SCT065 04/03 A2963 RMK AO2 T00440028=
202403281353 METAR KCLM 281353Z AUTO 00000KT 10SM CLR 04/02 A2963 RMK AO2 SLP034 T00390022=
202403281349 SPECI KCLM 281349Z AUTO 00000KT 10SM FEW009 04/02 A2963 RMK AO2=
202403281253 METAR KCLM 281253Z AUTO 00000KT 10SM FEW095 03/01 A2963 RMK AO2 SLP036 T00330011=
202403281153 METAR KCLM 281153Z AUTO 00000KT 10SM CLR 04/01 A2964 RMK AO2 SLP037 70013 T00390011 10083 20039 58008=
202403281053 METAR KCLM 281053Z AUTO 31003KT 10SM FEW037 SCT070 05/02 A2965 RMK AO2 SLP041 T00500022=
202403280953 METAR KCLM 280953Z AUTO 21004KT 10SM SCT021 BKN060 05/03 A2965 RMK AO2 SLP042 T00500028=
202403280853 METAR KCLM 280853Z AUTO 22004KT 10SM CLR 04/02 A2966 RMK AO2 SLP044 T00440022 58003=
202403280753 METAR KCLM 280753Z AUTO 26003KT 10SM FEW080 06/03 A2967 RMK AO2 SLP047 T00560028 401220050=
202403280653 METAR KCLM 280653Z AUTO 21003KT 10SM BKN065 07/03 A2967 RMK AO2 SLP049 T00670028=
202403280553 METAR KCLM 280553Z AUTO 10SM FEW055 SCT085 08/02 A2967 RMK AO2 RAB31E40 SLP048 P0000 60001 T00780022 10122 20061 51003=
202403280453 METAR KCLM 280453Z AUTO VRB04KT 10SM CLR 08/02 A2967 RMK AO2 SLP048 T00780022=
202403280353 METAR KCLM 280353Z AUTO 25005KT 10SM FEW060 07/04 A2967 RMK AO2 SLP050 T00670039=
202403280253 METAR KCLM 280253Z AUTO 25007KT 10SM SCT044 08/04 A2966 RMK AO2 RAB11E49 SLP046 P0001 60001 T00780039 53003=
202403280153 METAR KCLM 280153Z AUTO 17005KT 10SM BKN070 10/06 A2966 RMK AO2 SLP043 T01000061=
202403272353 METAR KCLM 272353Z AUTO 00000KT 10SM SCT021 BKN070 BKN080 11/06 A2965 RMK AO2 RAB19E33 SLP042 P0001 60008 T01060061 10122 20094 50001=
202403272301 SPECI KCLM 272301Z AUTO 02003KT 10SM FEW012 BKN019 BKN070 10/06 A2966 RMK AO2 T01000061=
202403272253 METAR KCLM 272253Z AUTO VRB04KT 10SM FEW012 SCT019 BKN050 10/07 A2966 RMK AO2 RAE2159 SLP045 P0000 T01000067=
202403272230 SPECI KCLM 272230Z AUTO VRB04KT 10SM FEW013 SCT019 BKN048 11/07 A2966 RMK AO2 RAE2159 P0000 T01060072=
202403272221 SPECI KCLM 272221Z AUTO VRB03KT 10SM FEW013 BKN019 BKN110 10/07 A2966 RMK AO2 RAE2159 P0000 T01000067=
202403272153 METAR KCLM 272153Z AUTO VRB06KT 8SM -RA SCT028 BKN039 OVC100 11/08 A2964 RMK AO2 RAB04 SLP039 P0007 T01110078=
202403272135 SPECI KCLM 272135Z AUTO 00000KT 3SM -RA FEW018 BKN030 OVC045 09/07 A2966 RMK AO2 RAB04 P0007 T00940067=
202403272130 SPECI KCLM 272130Z AUTO 34005KT 1 3/4SM RA FEW019 BKN033 OVC047 09/06 A2966 RMK AO2 RAB04 P0006 T00940061 TSNO=
202403272123 SPECI KCLM 272123Z AUTO 00000KT 2SM -RA FEW021 BKN033 OVC047 10/06 A2967 RMK AO2 VIS 1V3 RAB04 P0005 T01000056=
202403272053 METAR KCLM 272053Z AUTO VRB05KT 10SM FEW050 FEW060 12/05 A2965 RMK AO2 RAB19E34 SLP041 P0000 60000 T01170050 51017=
202403271953 METAR KCLM 271953Z AUTO 06004KT 10SM FEW075 11/05 A2964 RMK AO2 SLP037 T01060050=
202403271907 SPECI KCLM 271907Z AUTO 01004KT 10SM FEW010 SCT070 11/06 A2963 RMK AO2 T01060056=
202403271853 METAR KCLM 271853Z AUTO 32004KT 10SM BKN010 BKN070 BKN110 09/06 A2962 RMK AO2 SLP033 T00940056=
202403271825 SPECI KCLM 271825Z AUTO 00000KT 10SM SCT007 SCT070 BKN110 11/07 A2961 RMK AO2 T01060067=
202403271753 METAR KCLM 271753Z AUTO VRB03KT 10SM BKN009 09/06 A2960 RMK AO2 SLP025 60004 T00940061 10094 20056 51008=
202403271740 SPECI KCLM 271740Z AUTO 00000KT 10SM BKN009 OVC080 09/06 A2960 RMK AO2 CIG 006V013 T00890061=
202403271714 SPECI KCLM 271714Z AUTO 00000KT 10SM SCT007 BKN011 BKN080 08/06 A2959 RMK AO2 T00830061=
202403271653 METAR KCLM 271653Z AUTO 04003KT 10SM BKN007 OVC075 08/06 A2959 RMK AO2 RAE11 CIG 005V009 SLP022 P0001 T00830056=
202403271649 SPECI KCLM 271649Z AUTO 02003KT 10SM SCT007 OVC075 09/06 A2959 RMK AO2 RAE11 P0001=
202403271553 METAR KCLM 271553Z AUTO 26003KT 10SM -RA OVC055 07/05 A2958 RMK AO2 RAB16 SLP017 P0000 T00720050=
202403271453 METAR KCLM 271453Z AUTO 00000KT 10SM OVC065 06/04 A2957 RMK AO2 RAE21 SLP016 P0001 60003 T00610044 56028=
202403271353 METAR KCLM 271353Z AUTO 00000KT 10SM -RA OVC050 07/04 A2960 RMK AO2 SLP025 P0000 T00670044=
202403271253 METAR KCLM 271253Z AUTO 00000KT 10SM -RA OVC046 07/04 A2963 RMK AO2 SLP033 P0002 T00670044=
202403271153 METAR KCLM 271153Z AUTO 00000KT 10SM -RA OVC050 06/04 A2966 RMK AO2 RAB02 SLP045 P0000 60000 70001 T00610039 10067 20056 56048=
202403271053 METAR KCLM 271053Z AUTO 23003KT 10SM FEW017 OVC055 07/04 A2970 RMK AO2 SLP058 T00670039=
202403270953 METAR KCLM 270953Z AUTO 13004KT 10SM FEW023 OVC065 07/04 A2976 RMK AO2 SLP077 T00670039=
202403270938 SPECI KCLM 270938Z AUTO 12005KT 10SM FEW014 SCT021 OVC070 07/04 A2977 RMK AO2 T00670039=
202403270927 SPECI KCLM 270927Z AUTO 11005KT 10SM FEW015 BKN020 OVC060 07/04 A2978 RMK AO2 T00670044=
202403270853 METAR KCLM 270853Z AUTO 00000KT 10SM SCT060 OVC080 06/04 A2980 RMK AO2 SLP092 T00610039 58031=
202403270753 METAR KCLM 270753Z AUTO 00000KT 10SM BKN110 06/03 A2983 RMK AO2 SLP103 T00560033 401220056=
202403270653 METAR KCLM 270653Z AUTO 23004KT 10SM SCT030 06/03 A2986 RMK AO2 SLP114 T00610033=
202403270553 METAR KCLM 270553Z AUTO 00000KT 10SM FEW028 06/04 A2989 RMK AO2 SLP123 60001 T00560039 10100 20056 58022=
202403270453 METAR KCLM 270453Z AUTO 16003KT 10SM CLR 06/04 A2992 RMK AO2 SLP133 T00560039=
202403270353 METAR KCLM 270353Z AUTO 00000KT 9SM CLR 06/04 A2994 RMK AO2 SLP141 T00560039=
202403270253 METAR KCLM 270253Z AUTO 00000KT 10SM BKN031 BKN039 08/05 A2996 RMK AO2 RAE16 SLP146 P0000 60001 T00780050 56017=
202403270153 METAR KCLM 270153Z AUTO 00000KT 10SM -RA BKN048 OVC060 09/05 A2997 RMK AO2 RAB47 SLP150 P0000 T00890050=
202403270053 METAR KCLM 270053Z AUTO 00000KT 10SM FEW037 OVC055 09/04 A2998 RMK AO2 RAE34 SLP154 P0001 T00940039=
202403262353 METAR KCLM 262353Z AUTO 33004KT 10SM -RA BKN045 OVC055 09/04 A3001 RMK AO2 RAB12 SLP162 P0000 60000 T00940044 10122 20094 56005=
202403262253 METAR KCLM 262253Z AUTO VRB03KT 10SM FEW019 BKN033 OVC040 09/04 A3001 RMK AO2 RAB04E14 SLP164 P0000 T00940044=
202403262153 METAR KCLM 262153Z AUTO 28005KT 10SM FEW039 SCT049 OVC060 10/04 A3001 RMK AO2 RAE00B18E28 SLP164 P0000 T01000044=
202403262053 METAR KCLM 262053Z AUTO 30012G20KT 10SM -RA OVC036 10/04 A3002 RMK AO2 RAB39 SLP167 P0000 60000 T01000044 53007=
202403261953 METAR KCLM 261953Z AUTO VRB06G14KT 10SM SCT037 12/05 A3001 RMK AO2 SLP164 T01220050=
202403261853 METAR KCLM 261853Z AUTO 30008KT 250V320 10SM BKN039 BKN048 10/04 A3001 RMK AO2 SLP163 T01000039=
202403261816 SPECI KCLM 261816Z AUTO 29009KT 10SM SCT029 BKN035 11/04 A3000 RMK AO2 T01060039=
202403261801 SPECI KCLM 261801Z AUTO 32006KT 10SM BKN027 12/04 A3000 RMK AO2 T01170044=
202403261753 METAR KCLM 261753Z AUTO 31004KT 10SM SCT027 11/04 A3000 RMK AO2 SLP160 T01110039 10117 20056 53013=
202403261653 METAR KCLM 261653Z AUTO 26006KT 10SM CLR 10/04 A2999 RMK AO2 SLP155 T01000044=
202403261553 METAR KCLM 261553Z AUTO 25007KT 10SM CLR 09/04 A2997 RMK AO2 SLP150 T00890039=
202403261453 METAR KCLM 261453Z AUTO 24007KT 10SM CLR 07/03 A2996 RMK AO2 SLP148 T00670033 51010=
202403261353 METAR KCLM 261353Z AUTO 23007KT 10SM BKN044 OVC065 06/03 A2996 RMK AO2 SLP146 T00610033=
202403261253 METAR KCLM 261253Z AUTO 25007G15KT 10SM OVC047 07/03 A2995 RMK AO2 SLP142 T00720033=
202403261153 METAR KCLM 261153Z AUTO 25008KT 10SM BKN049 07/03 A2993 RMK AO2 SLP136 70008 T00720033 10078 20056 53006=
202403261053 METAR KCLM 261053Z AUTO 26006KT 10SM SCT032 BKN050 06/03 A2992 RMK AO2 SLP133 T00610033=
202403260953 METAR KCLM 260953Z AUTO 25007KT 10SM CLR 06/03 A2992 RMK AO2 SLP132 T00610033=
202403260853 METAR KCLM 260853Z AUTO 29006KT 10SM SCT050 06/04 A2991 RMK AO2 SLP131 T00610039 51005=
202403260826 SPECI KCLM 260826Z AUTO 26006KT 10SM SCT009 BKN047 BKN055 07/04 A2991 RMK AO2 T00670039=
202403260818 SPECI KCLM 260818Z AUTO 26006KT 10SM BKN009 BKN049 07/04 A2991 RMK AO2 T00670044=
202403260811 SPECI KCLM 260811Z AUTO 26006KT 10SM SCT009 OVC049 07/04 A2991 RMK AO2 T00720044=
202403260753 METAR KCLM 260753Z AUTO 25006KT 10SM OVC047 07/04 A2991 RMK AO2 SLP129 T00720044 401000067=
202403260653 METAR KCLM 260653Z AUTO 24006KT 10SM OVC045 07/04 A2990 RMK AO2 SLP126 T00720044=
202403260614 SPECI KCLM 260614Z AUTO 24005KT 10SM FEW025 OVC046 07/04 A2990 RMK AO2 T00720044=
202403260553 METAR KCLM 260553Z AUTO 23004KT 10SM OVC023 07/05 A2990 RMK AO2 RAB17E26 SLP124 P0000 60007 T00720050 10094 20072 51011=
202403260453 METAR KCLM 260453Z AUTO 25003KT 10SM BKN021 OVC029 08/06 A2989 RMK AO2 RAE37 SLP122 P0001 T00780056=
202403260401 SPECI KCLM 260401Z AUTO 26004KT 3SM -RA BR FEW003 SCT011 OVC026 08/06 A2988 RMK AO2 P0000 T00780056=
202403260353 METAR KCLM 260353Z AUTO 28004KT 5SM -RA BR FEW005 SCT011 OVC030 08/06 A2988 RMK AO2 RAB10 SLP119 P0001 T00780056=
202403260346 SPECI KCLM 260346Z AUTO 28003KT 5SM -RA BR FEW003 SCT007 OVC034 08/06 A2988 RMK AO2 RAB10 P0000 T00780061=
202403260250 METAR KCLM 260250Z AUTO 00000KT 3SM HZ FEW030 BKN044 OVC060 08/05 A2986 RMK AO2 RAB05E14 SLP114 P0000 60005 T00780050 58004=
202403260249 SPECI KCLM 260249Z AUTO 00000KT 3SM HZ BKN044 OVC060 08/05 A2986 RMK AO2 RAB05E14 P0000=
202403260243 SPECI KCLM 260243Z AUTO 00000KT 1 3/4SM BR BKN043 OVC055 08/06 A2986 RMK AO2 VIS 1V4 RAB05E14 P0000 T00780056=
202403260153 METAR KCLM 260153Z AUTO 14004KT 10SM FEW021 FEW028 OVC044 08/06 A2987 RMK AO2 RAE48 SLP116 P0003 T00830056=
202403260149 SPECI KCLM 260149Z AUTO 15004KT 10SM FEW021 SCT028 OVC043 08/06 A2987 RMK AO2 RAE48 P0003=
202403260104 SPECI KCLM 260104Z AUTO 29006KT 7SM -RA SCT006 OVC017 08/06 A2988 RMK AO2 P0001 T00830061=
202403260053 METAR KCLM 260053Z AUTO 31004KT 4SM -RA BR BKN006 BKN010 OVC018 08/06 A2987 RMK AO2 RAB14 SLP117 P0002 T00830061=
202403260036 SPECI KCLM 260036Z AUTO 31006KT 6SM -RA BKN006 OVC021 08/06 A2987 RMK AO2 RAB14 CIG 004V009 P0001 T00830056=
202403260029 SPECI KCLM 260029Z AUTO 32004KT 6SM -RA SCT008 OVC021 08/06 A2987 RMK AO2 RAB14 P0001 T00830056=
202403252353 METAR KCLM 252353Z AUTO 03004KT 10SM BKN023 OVC036 09/04 A2987 RMK AO2 SLP115 60001 T00940039 10100 20094 50000=
202403252253 METAR KCLM 252253Z AUTO VRB03KT 10SM OVC018 10/05 A2987 RMK AO2 RAE08 SLP115 P0000 T01000050=
202403252153 METAR KCLM 252153Z AUTO 00000KT 8SM -RA BKN025 OVC032 09/05 A2987 RMK AO2 RAB31 SLP115 P0001 T00940050=
202403252053 METAR KCLM 252053Z AUTO 35004KT 10SM OVC021 09/04 A2987 RMK AO2 SLP115 T00940044 50002=
202403251953 METAR KCLM 251953Z AUTO VRB05KT 10SM OVC019 09/05 A2987 RMK AO2 SLP115 T00940050=
202403251853 METAR KCLM 251853Z AUTO VRB03KT 10SM FEW016 BKN020 OVC075 10/04 A2987 RMK AO2 SLP114 T01000044=
202403251801 SPECI KCLM 251801Z AUTO 30006KT 10SM BKN021 BKN070 10/04 A2986 RMK AO2 T01000044=
202403251753 METAR KCLM 251753Z AUTO 30005KT 10SM SCT021 BKN070 10/04 A2986 RMK AO2 SLP113 T01000044 10100 20067 51006=
202403251744 SPECI KCLM 251744Z AUTO 30005KT 10SM BKN021 BKN075 10/04 A2986 RMK AO2 T01000044=
202403251653 METAR KCLM 251653Z AUTO 31003KT 10SM BKN070 OVC085 09/04 A2986 RMK AO2 SLP113 T00890039=
202403251553 METAR KCLM 251553Z AUTO 00000KT 10SM OVC095 08/04 A2985 RMK AO2 SLP110 T00830039=
202403251453 METAR KCLM 251453Z AUTO 21004KT 10SM BKN110 07/04 A2985 RMK AO2 SLP107 T00670039 53001=
202403251353 METAR KCLM 251353Z AUTO 21004KT 10SM FEW050 07/04 A2984 RMK AO2 SLP106 T00720039=
202403251336 SPECI KCLM 251336Z AUTO 25005KT 10SM SCT029 SCT050 07/04 A2984 RMK AO2 T00720039=
202403251253 METAR KCLM 251253Z AUTO 27007KT 10SM BKN025 OVC035 08/04 A2984 RMK AO2 SLP105 T00780039=
202403251153 METAR KCLM 251153Z AUTO 28009KT 10SM OVC023 08/04 A2984 RMK AO2 SLP106 T00830044 10083 20067 58004=
202403251053 METAR KCLM 251053Z AUTO 27007KT 10SM BKN022 OVC030 08/04 A2984 RMK AO2 SLP107 T00830044=
202403250953 METAR KCLM 250953Z AUTO 28006KT 10SM OVC016 08/05 A2985 RMK AO2 SLP110 T00830050=
202403250853 METAR KCLM 250853Z AUTO 27008KT 10SM OVC016 08/06 A2985 RMK AO2 SLP110 T00830056 52003=
202403250830 SPECI KCLM 250830Z AUTO 25007KT 10SM BKN015 OVC023 08/06 A2985 RMK AO2 T00830056=
202403250805 SPECI KCLM 250805Z AUTO 26008KT 10SM BKN013 08/06 A2985 RMK AO2 T00830056=
202403250753 METAR KCLM 250753Z AUTO 25005KT 10SM SCT014 07/05 A2985 RMK AO2 SLP109 T00720050 401220039=
202403250737 SPECI KCLM 250737Z AUTO 22004KT 10SM SCT012 07/05 A2985 RMK AO2 T00720050=
202403250653 METAR KCLM 250653Z AUTO 26004KT 10SM BKN011 BKN019 08/06 A2985 RMK AO2 SLP108 T00780056=
202403250624 SPECI KCLM 250624Z AUTO 27006KT 10SM FEW017 08/05 A2985 RMK AO2 T00780050=
202403250616 SPECI KCLM 250616Z AUTO 24005KT 10SM BKN017 08/05 A2985 RMK AO2 T00780050=
202403250553 METAR KCLM 250553Z AUTO 24003KT 10SM SCT016 SCT020 08/05 A2985 RMK AO2 SLP107 T00780050 10117 20072 51007=
202403250453 METAR KCLM 250453Z AUTO 27006KT 10SM FEW023 BKN030 09/06 A2984 RMK AO2 SLP105 T00940056=
202403250353 METAR KCLM 250353Z AUTO 28007KT 10SM OVC015 10/06 A2984 RMK AO2 SLP104 T01000061=
202403250312 SPECI KCLM 250312Z AUTO 29003KT 10SM OVC015 10/06 A2982 RMK AO2 T01000061=
202403250253 METAR KCLM 250253Z AUTO 30004KT 10SM OVC014 10/06 A2982 RMK AO2 SLP101 T01000061 50001=
202403250215 SPECI KCLM 250215Z AUTO 29006KT 10SM OVC014 10/06 A2983 RMK AO2 T01000061=
202403250153 METAR KCLM 250153Z AUTO 29008KT 10SM BKN016 10/06 A2983 RMK AO2 SLP102 T01000061=
202403250053 METAR KCLM 250053Z AUTO 28003KT 10SM SCT019 12/07 A2982 RMK AO2 SLP099 T01170067=
202403242353 METAR KCLM 242353Z AUTO 32007KT 10SM OVC023 11/06 A2983 RMK AO2 SLP103 T01060056 10122 20089 55000=
202403242323 SPECI KCLM 242323Z AUTO 34004KT 10SM BKN024 11/06 A2983 RMK AO2 T01110061=
202403242253 METAR KCLM 242253Z AUTO 04004KT 10SM FEW026 11/06 A2983 RMK AO2 SLP101 T01110061=
202403242153 METAR KCLM 242153Z AUTO 33004KT 10SM CLR 11/06 A2983 RMK AO2 SLP101 T01110061=
202403242053 METAR KCLM 242053Z AUTO VRB03KT 10SM CLR 11/06 A2983 RMK AO2 SLP103 T01060056 53006=
202403241953 METAR KCLM 241953Z AUTO VRB04KT 10SM CLR 11/07 A2982 RMK AO2 SLP099 T01110067=
202403241853 METAR KCLM 241853Z AUTO 05004KT 10SM FEW009 11/06 A2982 RMK AO2 SLP100 T01060061=
202403241818 SPECI KCLM 241818Z AUTO 00000KT 10SM SCT007 10/06 A2982 RMK AO2 T01000061=
202403241753 METAR KCLM 241753Z AUTO VRB03KT 10SM BKN006 09/06 A2981 RMK AO2 CIG 006V010 SLP097 T00890056 10100 20039 51012=
202403241749 SPECI KCLM 241749Z AUTO 33006KT 10SM BKN006 09/06 A2981 RMK AO2=
202403241732 SPECI KCLM 241732Z AUTO 34005KT 10SM FEW007 09/06 A2981 RMK AO2 T00890056=
202403241653 METAR KCLM 241653Z AUTO 00000KT 10SM FEW010 10/04 A2980 RMK AO2 SLP090 T01000044=
202403241553 METAR KCLM 241553Z AUTO 28007KT 10SM CLR 08/04 A2978 RMK AO2 SLP086 T00780039=
202403241453 METAR KCLM 241453Z AUTO 23005KT 10SM CLR 05/03 A2975 RMK AO2 SLP076 T00500028 51016=
202403241353 METAR KCLM 241353Z AUTO 26005KT 10SM CLR 05/03 A2974 RMK AO2 SLP072 T00500028=
202403241300 SPECI KCLM 241300Z AUTO 26007KT 10SM FEW008 06/03 A2973 RMK AO2 T00610033=
202403241253 METAR KCLM 241253Z AUTO 24007KT 10SM FEW010 06/03 A2972 RMK AO2 SLP067 T00610033=
202403241153 METAR KCLM 241153Z AUTO 25004KT 10SM CLR 06/03 A2970 RMK AO2 SLP059 70037 T00560033 10078 20056 52013=
202403241053 METAR KCLM 241053Z AUTO 24006KT 10SM OVC036 08/04 A2969 RMK AO2 SLP053 T00780044=
202403240953 METAR KCLM 240953Z AUTO 24005KT 10SM BKN036 07/04 A2968 RMK AO2 SLP050 T00720039=
202403240853 METAR KCLM 240853Z AUTO 26004KT 10SM FEW037 OVC070 08/04 A2966 RMK AO2 SLP045 T00780044 51012=
202403240753 METAR KCLM 240753Z AUTO 26004KT 10SM OVC040 08/04 A2966 RMK AO2 SLP045 T00780044 401060072=
202403240653 METAR KCLM 240653Z AUTO 24008KT 10SM OVC055 08/04 A2964 RMK AO2 SLP039 T00780044=
202403240553 METAR KCLM 240553Z AUTO 23004KT 10SM OVC090 07/05 A2963 RMK AO2 SLP034 60010 T00720050 10094 20072 53002=
202403240453 METAR KCLM 240453Z AUTO 23004KT 10SM OVC042 08/06 A2963 RMK AO2 RAE23 SLP033 P0000 T00780056=
202403240353 METAR KCLM 240353Z AUTO 23004KT 10SM -RA BKN034 OVC041 08/06 A2963 RMK AO2 SLP033 P0001 T00780056=
202403240306 SPECI KCLM 240306Z AUTO 23004KT 8SM -RA SCT018 OVC033 08/06 A2962 RMK AO2 P0001 T00780056=
202403240253 METAR KCLM 240253Z AUTO 24004KT 9SM -RA BKN018 BKN024 OVC033 08/06 A2962 RMK AO2 SLP032 P0002 60009 T00780056 53005=
202403240228 SPECI KCLM 240228Z AUTO 25004KT 6SM -RA BKN018 BKN030 OVC035 08/06 A2962 RMK AO2 P0002 T00830056=
202403240213 SPECI KCLM 240213Z AUTO 24003KT 8SM -RA FEW017 SCT025 OVC034 08/06 A2962 RMK AO2 P0001 T00830056=
202403240153 METAR KCLM 240153Z AUTO 24005KT 7SM -RA BKN024 OVC032 08/06 A2962 RMK AO2 SLP029 P0004 T00830056=
202403240136 SPECI KCLM 240136Z AUTO 24004KT 7SM -RA BKN023 OVC030 09/06 A2961 RMK AO2 P0003 T00890056=
202403240053 METAR KCLM 240053Z AUTO 24005KT 8SM -RA FEW022 OVC034 09/07 A2961 RMK AO2 SLP027 P0003 T00890067=
202403240049 SPECI KCLM 240049Z AUTO 24004KT 8SM -RA FEW013 SCT022 OVC034 09/07 A2961 RMK AO2 P0003=
202403240006 SPECI KCLM 240006Z AUTO 00000KT 9SM -RA SCT022 BKN028 OVC032 09/06 A2960 RMK AO2 P0001 T00940061=
202403232353 METAR KCLM 232353Z AUTO 00000KT 7SM -RA SCT027 OVC032 09/06 A2960 RMK AO2 SLP025 P0003 60008 T00940061 10106 20094 53002=
202403232253 METAR KCLM 232253Z AUTO 00000KT 6SM -RA FEW031 OVC043 09/06 A2960 RMK AO2 SLP024 P0004 T00940061=
202403232216 SPECI KCLM 232216Z AUTO 05003KT 5SM -RA BR FEW016 SCT029 OVC039 09/07 A2960 RMK AO2 P0002 T00940072=
202403232207 SPECI KCLM 232207Z AUTO 06003KT 6SM -RA FEW017 BKN029 OVC037 10/07 A2960 RMK AO2 P0001 T01000072=
202403232153 METAR KCLM 232153Z AUTO 05003KT 10SM -RA FEW024 SCT030 OVC039 10/07 A2959 RMK AO2 RAB28 SLP022 P0000 T01000072=
202403232053 METAR KCLM 232053Z AUTO 00000KT 10SM FEW007 OVC036 10/07 A2960 RMK AO2 RAB00E08 SLP023 P0000 60001 T01000072 50001=
202403232019 SPECI KCLM 232019Z AUTO 10004KT 10SM FEW005 SCT026 OVC032 10/07 A2959 RMK AO2 RAB00E08 P0000 T01000072=
202403232012 SPECI KCLM 232012Z AUTO 10004KT 8SM SCT005 BKN026 OVC032 10/08 A2959 RMK AO2 RAB00E08 P0000 T01000078=
202403231953 METAR KCLM 231953Z AUTO 05003KT 4SM HZ BKN005 OVC010 10/07 A2960 RMK AO2 RAE42 SLP023 P0001 T01000072=
202403231944 SPECI KCLM 231944Z AUTO 07004KT 6SM HZ BKN006 BKN010 OVC037 10/07 A2960 RMK AO2 RAE42 P0001 T01000072=
202403231901 SPECI KCLM 231901Z AUTO 08004KT 3SM -RA BKN004 BKN008 OVC015 10/07 A2959 RMK AO2 P0001 T01000072=
202403231853 METAR KCLM 231853Z AUTO 00000KT 4SM -RA BR SCT004 BKN008 OVC035 09/07 A2959 RMK AO2 RAB47 SLP022 P0000 T00940072=
202403231842 SPECI KCLM 231842Z AUTO 00000KT 3SM BR FEW004 BKN015 OVC036 09/07 A2959 RMK AO2 T00940072=
202403231826 SPECI KCLM 231826Z AUTO 00000KT 3SM HZ FEW006 SCT022 OVC038 09/07 A2959 RMK AO2 T00940067=
202403231753 METAR KCLM 231753Z AUTO 00000KT 10SM SCT027 OVC037 09/07 A2959 RMK AO2 RAE23 SLP021 P0000 60019 T00940067 10094 20083 56002=
202403231653 METAR KCLM 231653Z AUTO 24006KT 10SM -RA FEW041 OVC055 09/06 A2959 RMK AO2 SLP021 P0001 T00890056=
202403231553 METAR KCLM 231553Z AUTO 27005KT 10SM -RA OVC060 08/06 A2960 RMK AO2 SLP023 P0002 T00830056=
202403231515 SPECI KCLM 231515Z AUTO 25005KT 6SM -RA BR SCT014 BKN045 OVC055 08/06 A2959 RMK AO2 P0001 T00830061=
202403231453 METAR KCLM 231453Z AUTO 00000KT 5SM -RA BR BKN012 BKN045 OVC050 08/07 A2960 RMK AO2 SLP023 P0008 60016 T00830067 56004=
202403231410 SPECI KCLM 231410Z AUTO 00000KT 4SM -RA BR BKN005 OVC020 08/06 A2960 RMK AO2 CIG 001V008 P0002 T00830061=
202403231353 METAR KCLM 231353Z AUTO 00000KT 4SM -RA BR BKN002 OVC019 08/07 A2960 RMK AO2 SLP024 P0007 T00830067=
202403231253 METAR KCLM 231253Z AUTO 29004KT 4SM -RA BR OVC002 08/07 A2961 RMK AO2 RAE18B26 SLP026 P0001 T00830067=
202403231221 SPECI KCLM 231221Z AUTO 30004KT 4SM BR BKN003 OVC009 09/07 A2961 RMK AO2 RAE18 P0001 T00890067=
202403231210 SPECI KCLM 231210Z AUTO VRB04KT 4SM -RA BR SCT003 OVC009 09/07 A2961 RMK AO2 CIG 006V012 P0001 T00890072=
202403231153 METAR KCLM 231153Z AUTO 27003KT 6SM -RA BR OVC011 09/07 A2961 RMK AO2 RAB36 CIG 009V012 SLP028 P0000 60000 70001 T00890072 10100 20089 58014=
202403231053 METAR KCLM 231053Z AUTO 00000KT 3SM BR SCT008 BKN012 OVC034 09/07 A2963 RMK AO2 RAB07E16 SLP034 P0000 T00890072=
202403231047 SPECI KCLM 231047Z AUTO 27004KT 3SM BR SCT008 BKN012 OVC034 09/07 A2963 RMK AO2 RAB07E16 P0000=
202403231036 SPECI KCLM 231036Z AUTO 23003KT 2 1/2SM BR OVC007 09/07 A2963 RMK AO2 RAB07E16 P0000 T00890072=
202403231004 SPECI KCLM 231004Z AUTO 00000KT 1 1/2SM BR OVC008 09/07 A2964 RMK AO2 T00940072=
202403230953 METAR KCLM 230953Z AUTO 00000KT 2SM BR OVC008 09/07 A2964 RMK AO2 SLP038 T00940072=
202403230942 SPECI KCLM 230942Z AUTO 00000KT 2SM BR OVC008 09/07 A2964 RMK AO2 T00940072=
202403230910 SPECI KCLM 230910Z AUTO 00000KT 4SM BR OVC009 09/07 A2965 RMK AO2 T00940072=
202403230853 METAR KCLM 230853Z AUTO 15003KT 7SM OVC010 09/07 A2965 RMK AO2 CIG 008V012 SLP041 T00940072 58015=
202403230753 METAR KCLM 230753Z AUTO 15003KT 9SM OVC010 09/07 A2967 RMK AO2 SLP048 T00940072 401060083=
202403230730 SPECI KCLM 230730Z AUTO 13003KT 9SM OVC009 09/07 A2967 RMK AO2 T00940067=
202403230653 METAR KCLM 230653Z AUTO 12004KT 10SM OVC010 10/07 A2968 RMK AO2 SLP052 T01000067=
202403230601 SPECI KCLM 230601Z AUTO 09004KT 9SM OVC013 09/07 A2969 RMK AO2 T00940072=
202403230553 METAR KCLM 230553Z AUTO 11003KT 8SM OVC015 09/07 A2970 RMK AO2 SLP056 60001 T00940072 10100 20094 56009=
202403230551 SPECI KCLM 230551Z AUTO 11003KT 8SM OVC015 09/07 A2970 RMK AO2=
202403230453 METAR KCLM 230453Z AUTO 13003KT 8SM OVC011 09/07 A2971 RMK AO2 RAB13E28 SLP063 P0000 T00940072=
202403230353 METAR KCLM 230353Z AUTO 12003KT 7SM OVC011 09/07 A2972 RMK AO2 RAE32 SLP065 P0001 T00940072=
202403230253 METAR KCLM 230253Z AUTO 11003KT 9SM -RA OVC012 09/07 A2973 RMK AO2 RAB39 SLP068 P0000 60000 T00940067 58014=
202403230153 METAR KCLM 230153Z AUTO 00000KT 10SM OVC014 10/07 A2975 RMK AO2 SLP074 T01000067=
202403230140 SPECI KCLM 230140Z AUTO 00000KT 10SM OVC014 10/07 A2975 RMK AO2 T01000067=
202403230053 METAR KCLM 230053Z AUTO 12003KT 10SM OVC016 10/07 A2976 RMK AO2 SLP078 T01000067=
202403222353 METAR KCLM 222353Z AUTO 00000KT 10SM BKN015 OVC020 10/07 A2977 RMK AO2 SLP083 60000 T01000067 10106 20094 56026=
202403222313 SPECI KCLM 222313Z AUTO 06004KT 10SM OVC016 10/06 A2979 RMK AO2 T01000061=
202403222253 METAR KCLM 222253Z AUTO VRB03KT 10SM BKN012 OVC021 10/06 A2979 RMK AO2 SLP089 T01000061=
202403222153 METAR KCLM 222153Z AUTO 09004KT 10SM OVC012 10/07 A2982 RMK AO2 RAE09 SLP098 P0000 T01000067=
202403222053 METAR KCLM 222053Z AUTO 07005KT 10SM -RA OVC012 10/07 A2985 RMK AO2 RAB31 SLP109 P0000 60000 T01000067 56015=
202403221953 METAR KCLM 221953Z AUTO 08007KT 10SM FEW009 OVC014 10/07 A2986 RMK AO2 SLP112 T01000067=
202403221853 METAR KCLM 221853Z AUTO 08008KT 10SM OVC011 10/07 A2987 RMK AO2 SLP116 T01000067=
202403221753 METAR KCLM 221753Z AUTO 10006KT 10SM OVC011 09/07 A2989 RMK AO2 SLP123 60000 T00940072 10100 20089 58008=
202403221724 SPECI KCLM 221724Z AUTO 07004KT 10SM OVC010 09/07 A2990 RMK AO2 T00940072=
202403221653 METAR KCLM 221653Z AUTO 09004KT 5SM BR OVC009 09/07 A2991 RMK AO2 SLP129 T00940072=
202403221633 SPECI KCLM 221633Z AUTO 08004KT 5SM BR OVC006 09/07 A2991 RMK AO2 CIG 003V008 T00940072=
202403221626 SPECI KCLM 221626Z AUTO 08004KT 2 1/2SM BR OVC006 09/07 A2992 RMK AO2 CIG 002V008 T00940072=
202403221606 SPECI KCLM 221606Z AUTO 08006KT 1SM BR OVC002 09/07 A2991 RMK AO2 T00940072=
202403221553 METAR KCLM 221553Z AUTO VRB05KT 3/4SM BR OVC002 09/07 A2992 RMK AO2 SLP131 T00940072=
202403221545 SPECI KCLM 221545Z AUTO VRB05KT 1/2SM FG OVC002 09/08 A2992 RMK AO2 T00940078=
202403221534 SPECI KCLM 221534Z AUTO 06003KT 1 1/4SM BR OVC002 09/08 A2992 RMK AO2 T00940078=
202403221523 SPECI KCLM 221523Z AUTO 07004KT 2 1/2SM BR OVC002 09/07 A2992 RMK AO2 T00940072=
202403221515 SPECI KCLM 221515Z AUTO 06006KT 1 1/4SM BR OVC002 09/07 A2992 RMK AO2 T00940072=
202403221507 SPECI KCLM 221507Z AUTO 07006KT 1/4SM FG VV002 09/08 A2991 RMK AO2 T00940078=
202403221453 METAR KCLM 221453Z AUTO VRB03KT 1/2SM FG OVC002 09/08 A2992 RMK AO2 SLP132 60000 T00940078 56020=
202403221446 SPECI KCLM 221446Z AUTO 06004KT 1 3/4SM BR OVC002 09/07 A2992 RMK AO2 T00940072=
202403221353 METAR KCLM 221353Z AUTO 07006KT 4SM BR OVC002 09/07 A2993 RMK AO2 SLP137 T00940072=
202403221253 METAR KCLM 221253Z AUTO 00000KT 5SM BR OVC003 09/07 A2995 RMK AO2 RAB26E48 SLP144 P0000 T00890072 $=
202403221153 METAR KCLM 221153Z AUTO 00000KT 7SM OVC004 09/07 A2998 RMK AO2 SLP152 60001 70001 T00890072 10089 20083 58016 $=
202403221131 SPECI KCLM 221131Z AUTO 22003KT 10SM OVC004 09/07 A2999 RMK AO2 T00890067 $=
202403221053 METAR KCLM 221053Z AUTO 00000KT 10SM OVC005 09/07 A3000 RMK AO2 RAE19 SLP159 P0001 T00890067 $=
202403220953 METAR KCLM 220953Z AUTO 00000KT 10SM -RA OVC008 09/07 A3001 RMK AO2 RAB21 CIG 006V009 SLP164 P0000 T00890067 $=
202403220938 SPECI KCLM 220938Z AUTO 00000KT 10SM -RA OVC009 09/07 A3002 RMK AO2 RAB21 P0000 T00890067 $=
202403220910 SPECI KCLM 220910Z AUTO 25003KT 10SM BKN011 OVC022 09/06 A3002 RMK AO2 T00890061 $=
202403220853 METAR KCLM 220853Z AUTO 00000KT 10SM FEW012 OVC020 09/06 A3003 RMK AO2 SLP168 T00890061 58009 $=
202403220753 METAR KCLM 220753Z AUTO 25004KT 10SM OVC021 09/06 A3004 RMK AO2 SLP172 T00890061 401220039 $=
202403220653 METAR KCLM 220653Z AUTO 21003KT 10SM OVC024 09/06 A3004 RMK AO2 SLP175 T00890061 $=
202403220644 SPECI KCLM 220644Z AUTO 00000KT 10SM BKN025 OVC100 09/06 A3005 RMK AO2 T00890061 $=
202403220553 METAR KCLM 220553Z AUTO 00000KT 10SM FEW060 BKN120 08/06 A3005 RMK AO2 SLP178 T00830056 10117 20083 56001 $=
202403220530 SPECI KCLM 220530Z AUTO 00000KT 10SM SCT028 BKN060 BKN120 09/06 A3005 RMK AO2 T00890056 $=
202403220515 SPECI KCLM 220515Z AUTO 00000KT 10SM BKN029 OVC065 09/06 A3005 RMK AO2 T00940061 $=
202403220453 METAR KCLM 220453Z AUTO 00000KT 10SM FEW029 FEW055 OVC070 09/06 A3005 RMK AO2 SLP178 T00940056 $=
202403220353 METAR KCLM 220353Z AUTO 00000KT 10SM SCT055 OVC070 09/06 A3005 RMK AO2 SLP178 T00940056 $=
202403220253 METAR KCLM 220253Z AUTO 12004KT 10SM BKN050 BKN075 OVC095 10/06 A3006 RMK AO2 SLP179 T01000056 56006 $=
202403220153 METAR KCLM 220153Z AUTO 09004KT 10SM BKN065 11/05 A3006 RMK AO2 SLP180 T01060050 $=
202403220053 METAR KCLM 220053Z AUTO 07004KT 10SM BKN100 BKN120 11/04 A3006 RMK AO2 SLP181 T01110044 $=
202403212353 METAR KCLM 212353Z AUTO 09006KT 10SM FEW055 SCT070 12/04 A3007 RMK AO2 SLP185 T01170044 10122 20106 58004=
202403212253 METAR KCLM 212253Z AUTO 12007KT 10SM OVC032 12/04 A3008 RMK AO2 SLP187 T01170044=
202403211953 METAR KCLM 211953Z AUTO 07006KT 10SM CLR 11/07 A3009 RMK AO2 SLP190 T01110067=
202403211853 METAR KCLM 211853Z AUTO VRB05KT 10SM CLR 11/06 A3009 RMK AO2 SLP190 T01110056=
202403211753 METAR KCLM 211753Z AUTO 02005KT 10SM CLR 11/05 A3008 RMK AO2 SLP187 T01110050 10117 20039 53012=
202403211653 METAR KCLM 211653Z AUTO 36003KT 10SM CLR 11/05 A3007 RMK AO2 SLP183 T01060050=
202403211553 METAR KCLM 211553Z AUTO 00000KT 10SM CLR 09/06 A3005 RMK AO2 SLP178 T00890061=
202403211453 METAR KCLM 211453Z AUTO 00000KT 10SM BKN060 06/03 A3004 RMK AO2 SLP175 T00560033 53014=
202403211353 METAR KCLM 211353Z AUTO 22003KT 10SM OVC060 06/03 A3002 RMK AO2 SLP169 T00560033=
202403211253 METAR KCLM 211253Z AUTO 00000KT 10SM OVC065 06/04 A3001 RMK AO2 SLP164 T00560039=
202403211153 METAR KCLM 211153Z AUTO 21005KT 10SM SCT060 BKN070 06/03 A3000 RMK AO2 SLP161 60000 T00560033 10078 20050 53004=
202403211053 METAR KCLM 211053Z AUTO 00000KT 10SM BKN060 05/03 A3000 RMK AO2 SLP159 T00500033=
202403210953 METAR KCLM 210953Z AUTO 00000KT 10SM SCT039 07/04 A2999 RMK AO2 RAB34E46 SLP155 P0000 T00670044=
202403210853 METAR KCLM 210853Z AUTO 00000KT 10SM BKN060 OVC075 07/04 A2999 RMK AO2 SLP157 T00720044 53005=
202403210753 METAR KCLM 210753Z AUTO 24004KT 10SM BKN055 OVC070 08/04 A2999 RMK AO2 SLP155 T00780044 401110072=
202403210653 METAR KCLM 210653Z AUTO 00000KT 10SM OVC055 08/04 A2998 RMK AO2 SLP152 T00780044=
202403210553 METAR KCLM 210553Z AUTO 00000KT 10SM BKN050 OVC120 07/04 A2998 RMK AO2 SLP152 T00720044 10111 20072 50006=
202403210453 METAR KCLM 210453Z AUTO 22003KT 10SM SCT048 OVC120 08/04 A2998 RMK AO2 SLP154 T00780044=
202403210353 METAR KCLM 210353Z AUTO 00000KT 10SM SCT060 BKN120 08/04 A2997 RMK AO2 SLP150 T00780044=
202403210253 METAR KCLM 210253Z AUTO 27003KT 10SM FEW060 09/04 A2996 RMK AO2 SLP146 T00890044 53000=
202403210153 METAR KCLM 210153Z AUTO 30004KT 10SM BKN045 BKN055 09/04 A2996 RMK AO2 SLP146 T00940044=
202403210053 METAR KCLM 210053Z AUTO 00000KT 10SM OVC041 11/04 A2995 RMK AO2 SLP144 T01060039=
202403202353 METAR KCLM 202353Z AUTO 14004KT 10SM OVC040 11/03 A2996 RMK AO2 SLP146 T01110028 10111 20094 58010=
202403202253 METAR KCLM 202253Z AUTO 14004KT 10SM OVC037 11/04 A2997 RMK AO2 SLP150 T01060039=
202403202153 METAR KCLM 202153Z AUTO 02003KT 10SM OVC033 10/03 A2998 RMK AO2 SLP153 T01000033=
202403202053 METAR KCLM 202053Z AUTO 13004KT 10SM OVC035 11/03 A2999 RMK AO2 SLP156 T01110033 56005=
202403202019 SPECI KCLM 202019Z AUTO 12003KT 10SM OVC031 11/03 A2999 RMK AO2 T01060028=
202403201953 METAR KCLM 201953Z AUTO 00000KT 10SM OVC028 10/04 A3000 RMK AO2 SLP158 T01000039=
202403201923 SPECI KCLM 201923Z AUTO 00000KT 10SM OVC029 10/03 A3000 RMK AO2 T01000033=
202403201853 METAR KCLM 201853Z AUTO 00000KT 10SM OVC030 10/03 A3000 RMK AO2 SLP158 T01000033=
202403201843 SPECI KCLM 201843Z AUTO 00000KT 10SM OVC030 10/04 A3000 RMK AO2 T01000039=
202403201753 METAR KCLM 201753Z AUTO 30003KT 10SM OVC027 09/04 A3000 RMK AO2 SLP161 T00940039 10094 20083 51006=
202403201653 METAR KCLM 201653Z AUTO 00000KT 10SM OVC025 09/04 A3000 RMK AO2 SLP159 T00890044=
202403201553 METAR KCLM 201553Z AUTO 00000KT 10SM OVC024 08/04 A2999 RMK AO2 SLP156 T00830044=
202403201453 METAR KCLM 201453Z AUTO 21003KT 10SM OVC023 08/04 A2998 RMK AO2 SLP154 T00830039 51002=
202403201353 METAR KCLM 201353Z AUTO 31006KT 10SM OVC022 09/04 A2998 RMK AO2 SLP154 T00890039=
202403201253 METAR KCLM 201253Z AUTO 28004KT 10SM OVC020 08/04 A2998 RMK AO2 SLP154 T00830039=
202403201153 METAR KCLM 201153Z AUTO 31004KT 10SM OVC019 09/04 A2998 RMK AO2 SLP152 T00890039 10089 20089 58005=
202403201053 METAR KCLM 201053Z AUTO 30004KT 10SM OVC017 09/04 A2998 RMK AO2 SLP154 T00890039=
202403200953 METAR KCLM 200953Z AUTO 00000KT 10SM OVC016 09/04 A2999 RMK AO2 SLP158 T00890044=
202403200853 METAR KCLM 200853Z AUTO 28005KT 10SM OVC017 09/05 A2999 RMK AO2 SLP157 T00890050 50002=
202403200753 METAR KCLM 200753Z AUTO 28008KT 10SM OVC017 09/05 A2999 RMK AO2 SLP157 T00890050 401610028=
202403200653 METAR KCLM 200653Z AUTO 28007KT 10SM OVC015 09/05 A2999 RMK AO2 SLP157 T00890050=
202403200628 SPECI KCLM 200628Z AUTO 29008KT 10SM OVC015 09/06 A2999 RMK AO2 T00890056=
202403200553 METAR KCLM 200553Z AUTO 28008KT 10SM OVC014 09/06 A2999 RMK AO2 SLP155 T00890056 10133 20083 53006=
202403200517 SPECI KCLM 200517Z AUTO 29009KT 10SM OVC014 09/06 A2998 RMK AO2 T00890056=
202403200502 SPECI KCLM 200502Z AUTO 29009KT 10SM BKN016 08/06 A2998 RMK AO2 T00830056=
202403200453 METAR KCLM 200453Z AUTO 29007KT 10SM SCT016 08/06 A2998 RMK AO2 SLP152 T00830056=
202403200353 METAR KCLM 200353Z AUTO 27008G16KT 10SM SCT010 09/06 A2997 RMK AO2 SLP149 T00890061=
202403200349 SPECI KCLM 200349Z AUTO 27009G16KT 10SM BKN010 09/07 A2997 RMK AO2=
202403200253 METAR KCLM 200253Z AUTO 28007KT 10SM CLR 09/07 A2997 RMK AO2 SLP149 T00940067 55001=
202403200153 METAR KCLM 200153Z AUTO 28007KT 10SM CLR 11/07 A2996 RMK AO2 SLP147 T01060067=
202403200053 METAR KCLM 200053Z AUTO 30008KT 10SM CLR 12/07 A2997 RMK AO2 SLP149 T01170067=
202403192353 METAR KCLM 192353Z AUTO 32006KT 10SM CLR 13/06 A2997 RMK AO2 SLP150 T01330061 10161 20122 56010=
202403192253 METAR KCLM 192253Z AUTO 36004KT 10SM CLR 16/06 A2998 RMK AO2 SLP151 T01560056=
202403192153 METAR KCLM 192153Z AUTO VRB03KT 10SM CLR 14/06 A2998 RMK AO2 SLP154 T01440056=
202403192053 METAR KCLM 192053Z AUTO 08006KT 10SM CLR 14/06 A3000 RMK AO2 SLP160 T01390056 58013 TSNO=
202403191953 METAR KCLM 191953Z AUTO VRB05KT 10SM CLR 14/06 A3001 RMK AO2 SLP164 T01440056 TSNO=
202403191853 METAR KCLM 191853Z AUTO 08007KT 10SM CLR 13/06 A3003 RMK AO2 SLP170 T01280056=
202403191753 METAR KCLM 191753Z AUTO 10008KT 10SM CLR 12/05 A3004 RMK AO2 SLP173 T01220050 10122 20028 50000=
202403191653 METAR KCLM 191653Z AUTO 10007KT 10SM CLR 12/06 A3004 RMK AO2 SLP174 T01170056=
202403191553 METAR KCLM 191553Z AUTO 15003KT 10SM CLR 09/05 A3005 RMK AO2 SLP176 T00940050=
202403191453 METAR KCLM 191453Z AUTO 00000KT 10SM CLR 03/02 A3004 RMK AO2 SLP174 T00330022 56004=
202403191353 METAR KCLM 191353Z AUTO 00000KT 10SM CLR 04/02 A3004 RMK AO2 SLP173 T00390017=
202403191253 METAR KCLM 191253Z AUTO 00000KT 10SM CLR 03/01 A3004 RMK AO2 SLP173 T00280006=
202403191153 METAR KCLM 191153Z AUTO 00000KT 10SM CLR 06/03 A3005 RMK AO2 SLP176 T00560028 10078 20033 58011=
202403191053 METAR KCLM 191053Z AUTO 22003KT 10SM CLR 06/03 A3006 RMK AO2 SLP180 T00560028=
202403190953 METAR KCLM 190953Z AUTO 00000KT 10SM CLR 04/02 A3008 RMK AO2 SLP186 T00440022=
202403190853 METAR KCLM 190853Z AUTO 00000KT 10SM CLR 05/02 A3008 RMK AO2 SLP188 T00500022 56005=
202403190753 METAR KCLM 190753Z AUTO 17003KT 10SM CLR 06/03 A3009 RMK AO2 SLP189 T00610033 401830028=
202403190653 METAR KCLM 190653Z AUTO 00000KT 10SM CLR 07/04 A3009 RMK AO2 SLP191 T00670039=
202403190553 METAR KCLM 190553Z AUTO 00000KT 10SM CLR 08/04 A3010 RMK AO2 SLP193 T00780044 10183 20067 55000=
202403190453 METAR KCLM 190453Z AUTO 18003KT 10SM CLR 07/04 A3009 RMK AO2 SLP191 T00670039=
202403190353 METAR KCLM 190353Z AUTO 00000KT 10SM CLR 08/05 A3010 RMK AO2 SLP193 T00830050=
202403190253 METAR KCLM 190253Z AUTO 00000KT 10SM CLR 12/06 A3010 RMK AO2 SLP194 T01220056 56011=
202403190153 METAR KCLM 190153Z AUTO 00000KT 10SM CLR 16/06 A3010 RMK AO2 SLP194 T01560061=
202403190053 METAR KCLM 190053Z AUTO 00000KT 10SM CLR 18/06 A3011 RMK AO2 SLP198 T01830061=
202403182353 METAR KCLM 182353Z AUTO 12003KT 10SM CLR 18/06 A3013 RMK AO2 SLP204 T01780061 10178 20133 58020=
202403182253 METAR KCLM 182253Z AUTO 08004KT 10SM CLR 17/05 A3016 RMK AO2 SLP212 T01670050=
202403182153 METAR KCLM 182153Z AUTO VRB05KT 10SM CLR 16/05 A3017 RMK AO2 SLP217 T01610050=
202403182053 METAR KCLM 182053Z AUTO VRB05KT 10SM CLR 16/06 A3019 RMK AO2 SLP224 T01560056 58018=
202403181953 METAR KCLM 181953Z AUTO VRB04KT 10SM CLR 15/06 A3021 RMK AO2 SLP231 T01500056=
202403181853 METAR KCLM 181853Z AUTO 08007KT 10SM CLR 13/06 A3023 RMK AO2 SLP237 T01330056=
202403181753 METAR KCLM 181753Z AUTO 09008KT 10SM CLR 14/06 A3024 RMK AO2 SLP241 T01390056 10144 20028 50002=
202403181653 METAR KCLM 181653Z AUTO 09005KT 10SM CLR 14/06 A3025 RMK AO2 SLP243 T01390061=
202403181553 METAR KCLM 181553Z AUTO 00000KT 10SM CLR 08/06 A3024 RMK AO2 SLP241 T00830061=
202403181453 METAR KCLM 181453Z AUTO 00000KT 10SM CLR 03/02 A3024 RMK AO2 SLP241 T00330017 53001=
202403181353 METAR KCLM 181353Z AUTO 00000KT 10SM CLR 03/01 A3023 RMK AO2 SLP240 T00280011=
202403181300 SPECI KCLM 181300Z AUTO 00000KT 9SM FEW001 03/02 A3023 RMK AO2 T00330017=
202403181253 METAR KCLM 181253Z AUTO 00000KT 2 1/2SM BR SCT001 03/02 A3023 RMK AO2 VIS 1 1/4V5 SLP239 T00330017=
202403181246 SPECI KCLM 181246Z AUTO 00000KT 1SM BR VV001 04/03 A3023 RMK AO2 T00390028=
202403181153 METAR KCLM 181153Z AUTO 34003KT 1/4SM FG VV001 06/04 A3023 RMK AO2 SLP239 T00560039 10111 20050 52004=
202403181125 SPECI KCLM 181125Z AUTO 22003KT 1/4SM FG VV001 06/04 A3022 RMK AO2 T00610044=
202403181117 SPECI KCLM 181117Z AUTO 22003KT 1/4SM FG VV002 07/05 A3023 RMK AO2 T00670050=
202403181053 METAR KCLM 181053Z AUTO 23004KT 3/4SM BR VV002 06/04 A3023 RMK AO2 SLP238 T00560039=
202403181045 SPECI KCLM 181045Z AUTO 25003KT 1 1/2SM BR BKN002 06/04 A3023 RMK AO2 T00610044=
202403181041 SPECI KCLM 181041Z AUTO 28003KT 3SM BR BKN002 06/04 A3023 RMK AO2 T00610044=
202403181031 SPECI KCLM 181031Z AUTO 00000KT 5SM BR SCT002 06/03 A3023 RMK AO2 T00560033=
202403180953 METAR KCLM 180953Z AUTO 24004KT 10SM CLR 06/04 A3023 RMK AO2 SLP236 T00610044=
202403180853 METAR KCLM 180853Z AUTO 00000KT 10SM SCT003 07/05 A3022 RMK AO2 SLP235 T00670050 51003=
202403180835 SPECI KCLM 180835Z AUTO 28003KT 10SM SCT003 08/06 A3023 RMK AO2 T00780056=
202403180753 METAR KCLM 180753Z AUTO 31003KT 10SM CLR 07/04 A3022 RMK AO2 SLP233 T00670039 401560033=
202403180653 METAR KCLM 180653Z AUTO 30008KT 10SM CLR 09/06 A3022 RMK AO2 SLP235 T00890056=
202403180553 METAR KCLM 180553Z AUTO 24007KT 10SM CLR 11/04 A3021 RMK AO2 SLP231 T01110044 10144 20083 50002=
202403180453 METAR KCLM 180453Z AUTO 31005KT 10SM CLR 09/06 A3022 RMK AO2 SLP233 T00890061=
202403180353 METAR KCLM 180353Z AUTO 29004KT 10SM CLR 09/06 A3021 RMK AO2 SLP232 T00890056=
202403180253 METAR KCLM 180253Z AUTO 28004KT 10SM CLR 09/06 A3021 RMK AO2 SLP230 T00940056 55001=
202403180153 METAR KCLM 180153Z AUTO 30004KT 10SM CLR 12/06 A3020 RMK AO2 SLP227 T01170061=
202403180053 METAR KCLM 180053Z AUTO 29004KT 10SM CLR 14/07 A3020 RMK AO2 SLP227 T01390072=
202403172353 METAR KCLM 172353Z AUTO 30006KT 10SM CLR 14/07 A3021 RMK AO2 SLP231 T01390067 10156 20133 56009=
202403172253 METAR KCLM 172253Z AUTO 28005KT 10SM CLR 15/07 A3022 RMK AO2 SLP233 T01500072=
202403172153 METAR KCLM 172153Z AUTO 29007KT 10SM CLR 14/07 A3023 RMK AO2 SLP237 T01390067=
202403172053 METAR KCLM 172053Z AUTO 29008KT 10SM CLR 15/06 A3024 RMK AO2 SLP239 T01500061 50001=
202403171953 METAR KCLM 171953Z AUTO VRB04KT 10SM CLR 15/06 A3024 RMK AO2 SLP242 T01500056=
202403171853 METAR KCLM 171853Z AUTO 05003KT 10SM CLR 15/06 A3023 RMK AO2 SLP238 T01500056=
202403171753 METAR KCLM 171753Z AUTO 03004KT 10SM CLR 14/06 A3023 RMK AO2 SLP239 T01390061 10139 20033 51010=
202403171653 METAR KCLM 171653Z AUTO 00000KT 10SM CLR 13/04 A3023 RMK AO2 SLP236 T01330044=
202403171553 METAR KCLM 171553Z AUTO 29005KT 10SM CLR 12/03 A3022 RMK AO2 SLP235 T01170028=
202403171453 METAR KCLM 171453Z AUTO 23006KT 10SM CLR 08/03 A3020 RMK AO2 SLP229 T00780028 53012=
202403171353 METAR KCLM 171353Z AUTO 21004KT 10SM CLR 07/02 A3019 RMK AO2 SLP223 T00720022=
202403171253 METAR KCLM 171253Z AUTO 22005KT 10SM CLR 07/02 A3019 RMK AO2 SLP223 T00670022=
202403171153 METAR KCLM 171153Z AUTO 00000KT 10SM CLR 06/03 A3017 RMK AO2 SLP217 T00610028 10117 20050 51014=
202403171053 METAR KCLM 171053Z AUTO 19003KT 10SM CLR 07/02 A3016 RMK AO2 SLP213 T00670022=
202403170953 METAR KCLM 170953Z AUTO 23009KT 10SM CLR 10/02 A3015 RMK AO2 SLP211 T01000022=
202403170853 METAR KCLM 170853Z AUTO 21007KT 10SM CLR 11/02 A3013 RMK AO2 SLP202 T01060022 51014=
202403170753 METAR KCLM 170753Z AUTO 23009KT 10SM CLR 11/02 A3012 RMK AO2 SLP199 T01110022 401720022=
202403170653 METAR KCLM 170653Z AUTO 23007KT 10SM CLR 11/03 A3010 RMK AO2 SLP195 T01060028=
202403170553 METAR KCLM 170553Z AUTO 22005KT 10SM CLR 10/03 A3009 RMK AO2 SLP189 T01000033 10172 20094 52015=
202403170453 METAR KCLM 170453Z AUTO 25007KT 10SM CLR 12/03 A3007 RMK AO2 SLP182 T01220033=
202403170353 METAR KCLM 170353Z AUTO 25010KT 10SM CLR 14/05 A3006 RMK AO2 SLP179 T01390050=
202403170253 METAR KCLM 170253Z AUTO 21004KT 10SM CLR 12/07 A3004 RMK AO2 SLP173 T01220067 53004=
202403170153 METAR KCLM 170153Z AUTO 00000KT 10SM CLR 16/06 A3003 RMK AO2 SLP171 T01560056=
202403170053 METAR KCLM 170053Z AUTO 00000KT 10SM CLR 17/06 A3003 RMK AO2 SLP170 T01670056=
202403162353 METAR KCLM 162353Z AUTO 02003KT 10SM CLR 17/05 A3003 RMK AO2 SLP169 T01670050 10167 20133 58006=
202403162253 METAR KCLM 162253Z AUTO 02005KT 10SM CLR 16/06 A3004 RMK AO2 SLP173 T01560056=
202403162153 METAR KCLM 162153Z AUTO VRB03KT 10SM CLR 14/05 A3005 RMK AO2 SLP175 T01440050=
202403162053 METAR KCLM 162053Z AUTO 07007KT 10SM CLR 14/04 A3005 RMK AO2 SLP176 T01440044 58006=
202403161953 METAR KCLM 161953Z AUTO 07007KT 10SM CLR 13/05 A3005 RMK AO2 SLP177 T01330050=
202403161853 METAR KCLM 161853Z AUTO VRB04KT 10SM CLR 14/05 A3007 RMK AO2 SLP182 T01390050=
202403161753 METAR KCLM 161753Z AUTO 08004KT 10SM CLR 14/05 A3007 RMK AO2 SLP182 T01390050 10144 20022 57002=
202403161653 METAR KCLM 161653Z AUTO 08004KT 10SM CLR 13/05 A3007 RMK AO2 SLP183 T01330050=
202403161553 METAR KCLM 161553Z AUTO 00000KT 10SM CLR 08/04 A3007 RMK AO2 SLP183 T00780044=
202403161453 METAR KCLM 161453Z AUTO 21004KT 10SM CLR 04/02 A3007 RMK AO2 SLP185 T00390017 58002=
202403161353 METAR KCLM 161353Z AUTO 21004KT 10SM CLR 03/01 A3007 RMK AO2 SLP186 T00280011=
202403161253 METAR KCLM 161253Z AUTO 19003KT 10SM CLR 04/02 A3007 RMK AO2 SLP185 T00390017=
202403161153 METAR KCLM 161153Z AUTO 22005KT 10SM CLR 06/02 A3008 RMK AO2 SLP186 T00560022 10100 20039 55007=
202403161053 METAR KCLM 161053Z AUTO 00000KT 10SM CLR 06/02 A3008 RMK AO2 SLP186 T00560022=
202403160953 METAR KCLM 160953Z AUTO 22004KT 10SM CLR 06/02 A3009 RMK AO2 SLP192 T00610022=
202403160853 METAR KCLM 160853Z AUTO 22003KT 10SM CLR 07/02 A3010 RMK AO2 SLP193 T00670022 58005=
202403160753 METAR KCLM 160753Z AUTO 13007KT 10SM CLR 07/02 A3011 RMK AO2 SLP197 T00720022 401390006=
202403160653 METAR KCLM 160653Z AUTO 15005KT 10SM CLR 07/02 A3011 RMK AO2 SLP197 T00670022=
202403160553 METAR KCLM 160553Z AUTO 14005KT 10SM CLR 07/03 A3011 RMK AO2 SLP198 T00670028 10139 20056 56005=
202403160453 METAR KCLM 160453Z AUTO 14005KT 10SM CLR 07/02 A3012 RMK AO2 SLP199 T00670022=
202403160353 METAR KCLM 160353Z AUTO 14003KT 10SM CLR 09/03 A3012 RMK AO2 SLP200 T00890028=
202403160253 METAR KCLM 160253Z AUTO 15004KT 10SM CLR 10/03 A3013 RMK AO2 SLP204 T01000033 56013=
202403160153 METAR KCLM 160153Z AUTO 12006KT 10SM CLR 12/04 A3014 RMK AO2 SLP207 T01170039=
202403160053 METAR KCLM 160053Z AUTO 10006KT 10SM CLR 13/04 A3015 RMK AO2 SLP211 T01330039=
202403152353 METAR KCLM 152353Z AUTO VRB05KT 10SM CLR 13/04 A3016 RMK AO2 SLP215 T01330039 10139 20111 56026=
202403152253 METAR KCLM 152253Z AUTO 08009KT 10SM CLR 14/04 A3019 RMK AO2 SLP223 T01390039=
202403152153 METAR KCLM 152153Z AUTO 10009KT 10SM CLR 13/03 A3022 RMK AO2 SLP233 T01330033=
202403152053 METAR KCLM 152053Z AUTO 08007KT 10SM CLR 13/03 A3024 RMK AO2 SLP242 T01330033 58016=
202403151953 METAR KCLM 151953Z AUTO 08007KT 10SM CLR 12/04 A3026 RMK AO2 SLP249 T01220044=
202403151853 METAR KCLM 151853Z AUTO 08009KT 10SM CLR 11/04 A3028 RMK AO2 SLP256 T01110039=
202403151753 METAR KCLM 151753Z AUTO 08005KT 10SM CLR 12/04 A3029 RMK AO2 SLP258 T01170044 10117 20006 58006=
202403151653 METAR KCLM 151653Z AUTO 11005KT 10SM CLR 09/04 A3031 RMK AO2 SLP265 T00940044=
202403151553 METAR KCLM 151553Z AUTO 14003KT 10SM CLR 03/02 A3031 RMK AO2 SLP266 T00330017=
202403151453 METAR KCLM 151453Z AUTO 00000KT 10SM CLR 02/M01 A3031 RMK AO2 SLP265 T00221006 58008=
202403151353 METAR KCLM 151353Z AUTO 00000KT 10SM CLR 01/M01 A3032 RMK AO2 SLP271 T00111011=
202403151253 METAR KCLM 151253Z AUTO 19003KT 10SM CLR 02/M01 A3033 RMK AO2 SLP271 T00221006=
202403151153 METAR KCLM 151153Z AUTO 00000KT 10SM CLR 03/01 A3033 RMK AO2 SLP273 T00280006 10050 20028 58013=
202403151053 METAR KCLM 151053Z AUTO 00000KT 10SM CLR 03/01 A3034 RMK AO2 SLP277 T00330006=
202403150953 METAR KCLM 150953Z AUTO 20003KT 10SM CLR 03/01 A3037 RMK AO2 SLP285 T00330006=
202403150853 METAR KCLM 150853Z AUTO 00000KT 10SM CLR 03/01 A3037 RMK AO2 SLP286 T00330006 56011=
202403150753 METAR KCLM 150753Z AUTO 00000KT 10SM CLR 04/01 A3038 RMK AO2 SLP289 T00390006 401170000=
202403150653 METAR KCLM 150653Z AUTO 00000KT 10SM CLR 04/01 A3039 RMK AO2 SLP293 T00390006=
202403150553 METAR KCLM 150553Z AUTO 00000KT 10SM CLR 04/01 A3040 RMK AO2 SLP297 T00440006 10111 20039 58001=
202403150453 METAR KCLM 150453Z AUTO 21003KT 10SM CLR 04/01 A3040 RMK AO2 SLP298 T00440011=
202403150353 METAR KCLM 150353Z AUTO 00000KT 10SM CLR 05/01 A3041 RMK AO2 SLP300 T00500011=
202403150253 METAR KCLM 150253Z AUTO 15003KT 10SM CLR 08/02 A3040 RMK AO2 SLP298 T00830017 56017=
202403150153 METAR KCLM 150153Z AUTO 11005KT 10SM CLR 10/02 A3041 RMK AO2 SLP301 T01000017=
202403150053 METAR KCLM 150053Z AUTO 11005KT 10SM CLR 11/01 A3043 RMK AO2 SLP307 T01110006=
202403142353 METAR KCLM 142353Z AUTO 08006KT 10SM CLR 11/01 A3045 RMK AO2 SLP315 T01110011 10117 20083 56013=
202403142253 METAR KCLM 142253Z AUTO VRB05KT 10SM CLR 11/03 A3047 RMK AO2 SLP320 T01060028=
202403142153 METAR KCLM 142153Z AUTO VRB06KT 10SM CLR 11/02 A3046 RMK AO2 SLP317 T01110022=
202403142053 METAR KCLM 142053Z AUTO 09007KT 10SM CLR 10/03 A3049 RMK AO2 SLP328 T01000028 58015=
202403141953 METAR KCLM 141953Z AUTO 07008KT 10SM FEW010 09/04 A3052 RMK AO2 SLP336 T00940044=
202403141934 SPECI KCLM 141934Z AUTO 08008KT 10SM SCT010 09/05 A3052 RMK AO2 T00940050=
202403141927 SPECI KCLM 141927Z AUTO VRB06KT 10SM BKN010 09/04 A3052 RMK AO2 T00890044=
202403141905 SPECI KCLM 141905Z AUTO 08007KT 10SM SCT010 09/04 A3052 RMK AO2 T00890044=
202403141853 METAR KCLM 141853Z AUTO 07006KT 10SM BKN010 09/04 A3052 RMK AO2 SLP339 T00890044=
202403141837 SPECI KCLM 141837Z AUTO VRB05KT 10SM BKN011 09/04 A3053 RMK AO2 T00940044=
202403141802 SPECI KCLM 141802Z AUTO 08005KT 10SM SCT013 09/04 A3053 RMK AO2 T00890044=
202403141753 METAR KCLM 141753Z AUTO 08006KT 10SM BKN013 09/04 A3054 RMK AO2 SLP343 T00890039 10094 20000 58004=
202403141653 METAR KCLM 141653Z AUTO 00000KT 10SM OVC012 08/04 A3055 RMK AO2 SLP346 T00780039=
202403141600 SPECI KCLM 141600Z AUTO 22004KT 10SM OVC011 06/02 A3055 RMK AO2 T00560022=
202403141553 METAR KCLM 141553Z AUTO 00000KT 10SM OVC009 05/02 A3055 RMK AO2 CIG 009V013 SLP347 T00500022=
202403141503 SPECI KCLM 141503Z AUTO 20003KT 10SM BKN008 02/M01 A3055 RMK AO2 T00171006=
202403141453 METAR KCLM 141453Z AUTO 00000KT 10SM SCT008 01/M01 A3055 RMK AO2 SLP348 T00111006 51002=
202403141353 METAR KCLM 141353Z AUTO 24004KT 10SM CLR 01/M01 A3055 RMK AO2 SLP346 T00061011=
202403141311 SPECI KCLM 141311Z AUTO 00000KT 10SM SCT008 01/M01 A3055 RMK AO2 T00111006=
202403141253 METAR KCLM 141253Z AUTO 00000KT 10SM CLR 01/M01 A3055 RMK AO2 SLP347 T00111011=
202403141153 METAR KCLM 141153Z AUTO 00000KT 10SM CLR 01/M02 A3054 RMK AO2 SLP345 T00061017 10050 20006 53003=
202403141053 METAR KCLM 141053Z AUTO 00000KT 10SM CLR 02/M01 A3054 RMK AO2 SLP345 T00171011=
202403140953 METAR KCLM 140953Z AUTO 20003KT 10SM CLR 02/M01 A3053 RMK AO2 SLP341 T00171006=
202403140853 METAR KCLM 140853Z AUTO 23005KT 10SM CLR 03/01 A3053 RMK AO2 SLP342 T00330006 53004=
202403140753 METAR KCLM 140753Z AUTO 00000KT 10SM CLR 03/01 A3053 RMK AO2 SLP340 T00330006 401110022=
202403140653 METAR KCLM 140653Z AUTO 23006KT 10SM CLR 04/01 A3053 RMK AO2 SLP339 T00440011=
202403140553 METAR KCLM 140553Z AUTO 22005KT 10SM CLR 04/01 A3052 RMK AO2 SLP338 T00440011 10106 20033 53010=
202403140453 METAR KCLM 140453Z AUTO 22005KT 10SM CLR 03/01 A3051 RMK AO2 SLP334 T00330006=
202403140353 METAR KCLM 140353Z AUTO 22003KT 10SM CLR 04/01 A3050 RMK AO2 SLP329 T00390011=
202403140253 METAR KCLM 140253Z AUTO 00000KT 10SM CLR 06/02 A3049 RMK AO2 SLP327 T00560017 53009=
202403140153 METAR KCLM 140153Z AUTO 00000KT 10SM CLR 08/02 A3048 RMK AO2 SLP322 T00780022=
202403140053 METAR KCLM 140053Z AUTO 00000KT 10SM CLR 09/02 A3047 RMK AO2 SLP320 T00940022=
202403132353 METAR KCLM 132353Z AUTO 34003KT 10SM CLR 10/02 A3046 RMK AO2 SLP318 T01000022 10111 20089 50005=
202403132253 METAR KCLM 132253Z AUTO VRB04KT 10SM BKN100 10/02 A3047 RMK AO2 SLP320 T01000017=
202403132153 METAR KCLM 132153Z AUTO VRB03KT 10SM FEW060 10/02 A3046 RMK AO2 SLP315 T01000022=
202403132053 METAR KCLM 132053Z AUTO VRB04KT 10SM SCT060 10/03 A3045 RMK AO2 SLP313 T01000028 53011=
202403131953 METAR KCLM 131953Z AUTO 34004KT 10SM OVC060 09/03 A3044 RMK AO2 SLP309 T00940028=
202403131853 METAR KCLM 131853Z AUTO VRB04KT 10SM CLR 09/02 A3043 RMK AO2 SLP305 T00940017=
202403131753 METAR KCLM 131753Z AUTO VRB06KT 10SM SCT060 09/02 A3042 RMK AO2 SLP302 T00890017 10094 20044 51019=
202403131653 METAR KCLM 131653Z AUTO 25005KT 10SM FEW060 08/01 A3040 RMK AO2 SLP297 T00780006=
202403131553 METAR KCLM 131553Z AUTO 24009KT 10SM CLR 06/00 A3038 RMK AO2 SLP291 T00610000=
202403131453 METAR KCLM 131453Z AUTO 25008KT 10SM CLR 05/00 A3036 RMK AO2 SLP282 T00500000 51019=
202403131353 METAR KCLM 131353Z AUTO 23007KT 10SM CLR 05/00 A3034 RMK AO2 SLP277 T00500000=
202403131253 METAR KCLM 131253Z AUTO 25006KT 10SM OVC050 06/00 A3032 RMK AO2 SLP270 T00560000=
202403131153 METAR KCLM 131153Z AUTO 24009KT 10SM BKN060 05/01 A3030 RMK AO2 SLP263 70007 T00500006 10061 20044 53015=
202403131053 METAR KCLM 131053Z AUTO 24006KT 10SM OVC055 06/01 A3028 RMK AO2 SLP256 T00560006=
202403130953 METAR KCLM 130953Z AUTO 25005KT 10SM OVC055 06/01 A3026 RMK AO2 SLP248 T00610006=
202403130853 METAR KCLM 130853Z AUTO 26006KT 10SM BKN060 06/01 A3026 RMK AO2 SLP247 T00560006 53024=
202403130753 METAR KCLM 130753Z AUTO 25008KT 10SM OVC060 06/01 A3023 RMK AO2 SLP239 T00610006 401170033=
202403130653 METAR KCLM 130653Z AUTO 25007KT 10SM OVC060 06/01 A3020 RMK AO2 SLP229 T00610006=
202403130553 METAR KCLM 130553Z AUTO 24006KT 10SM SCT043 06/01 A3018 RMK AO2 SLP223 T00560006 10089 20056 53027=
202403130453 METAR KCLM 130453Z AUTO 25006KT 10SM BKN060 07/01 A3015 RMK AO2 SLP213 T00670006=
202403130353 METAR KCLM 130353Z AUTO 26006KT 10SM SCT060 BKN070 06/01 A3013 RMK AO2 SLP206 T00560011=
202403130253 METAR KCLM 130253Z AUTO 26006KT 10SM CLR 06/02 A3010 RMK AO2 SLP196 T00560017 51029=
202403130153 METAR KCLM 130153Z AUTO 28004KT 10SM FEW014 SCT070 07/02 A3008 RMK AO2 SLP187 T00670022=
202403130053 METAR KCLM 130053Z AUTO 28011KT 10SM SCT060 BKN070 09/01 A3005 RMK AO2 PK WND 28026/2355 SLP176 T00890011=
202403122353 METAR KCLM 122353Z AUTO 29014G25KT 10SM OVC055 08/01 A3002 RMK AO2 RAB37E48 SLP166 P0000 60000 T00830006 10117 20083 53028=
202403122253 METAR KCLM 122253Z AUTO 29011G21KT 10SM FEW048 SCT065 09/03 A2998 RMK AO2 SLP152 T00940028=
202403122153 METAR KCLM 122153Z AUTO 26010KT 10SM BKN060 11/01 A2995 RMK AO2 SLP142 T01110011=
202403122053 METAR KCLM 122053Z AUTO 29009KT 10SM FEW037 SCT065 11/01 A2993 RMK AO2 SLP138 T01060011 53034=
202403121953 METAR KCLM 121953Z AUTO 28013G25KT 10SM FEW030 FEW038 09/02 A2990 RMK AO2 SLP127 T00890022=
202403121853 METAR KCLM 121853Z AUTO 27009KT 10SM CLR 09/02 A2986 RMK AO2 SLP112 T00940022=
202403121753 METAR KCLM 121753Z AUTO 26009KT 10SM FEW024 09/03 A2983 RMK AO2 RAE32 SLP104 P0001 60007 T00890033 10089 20061 51039=
202403121653 METAR KCLM 121653Z AUTO 25012G19KT 230V290 10SM -RA BKN039 BKN050 OVC120 07/03 A2980 RMK AO2 RAE1556B16E36B53 SLP093 P0000 T00720028=
202403121553 METAR KCLM 121553Z AUTO 27008KT 10SM -RA FEW037 BKN043 OVC055 07/04 A2975 RMK AO2 SLP076 P0002 T00670039=
202403121453 METAR KCLM 121453Z AUTO 25007KT 7SM -RA OVC036 07/04 A2972 RMK AO2 SLP064 P0001 60004 T00670039 53028=
202403121353 METAR KCLM 121353Z AUTO 23003KT 10SM -RA BKN040 OVC060 06/04 A2969 RMK AO2 RAB16 SLP054 P0002 T00610044=
202403121253 METAR KCLM 121253Z AUTO 26008KT 10SM BKN050 BKN085 06/03 A2965 RMK AO2 RAE52 SLP044 P0001 T00610033=
202403121153 METAR KCLM 121153Z AUTO 26008KT 8SM -RA OVC041 07/04 A2963 RMK AO2 SLP036 P0002 60005 70009 T00670039 10078 20033 51017=
202403121053 METAR KCLM 121053Z AUTO 27004KT 6SM -RA BR OVC043 06/04 A2961 RMK AO2 RAB45 SLP029 P0001 T00560039=
202403120953 METAR KCLM 120953Z AUTO VRB03KT 10SM FEW037 BKN046 OVC065 07/03 A2960 RMK AO2 RAB17E45 SLP026 P0002 T00670033=
202403120853 METAR KCLM 120853Z AUTO 22005KT 5SM BR CLR 04/02 A2958 RMK AO2 RAB01E11 SLP019 P0000 60000 T00390022 50015=
202403120753 METAR KCLM 120753Z AUTO 00000KT 10SM BKN050 BKN065 06/03 A2958 RMK AO2 SLP020 T00610033 400890039=
202403120653 METAR KCLM 120653Z AUTO 26004KT 10SM FEW042 BKN049 OVC060 07/04 A2956 RMK AO2 RAB0554E39 SLP011 P0000 T00670039=
202403120553 METAR KCLM 120553Z AUTO 15004KT 10SM SCT055 BKN070 BKN085 06/04 A2954 RMK AO2 RAB0456E11 SLP004 P0000 60004 T00610039 10083 20061 53023=
202403120453 METAR KCLM 120453Z AUTO 21005KT 10SM BKN046 BKN075 07/04 A2951 RMK AO2 RAE49 SLP994 P0003 T00720039=
202403120353 METAR KCLM 120353Z AUTO 21004KT 10SM -RA OVC050 08/04 A2948 RMK AO2 RAB03E22B53 SLP986 P0001 T00780039=
202403120253 METAR KCLM 120253Z AUTO 10SM BKN047 BKN070 07/04 A2947 RMK AO2 RAB05E13B41E52 SLP981 P0000 60000 T00670039 55017=
202403120153 METAR KCLM 120153Z AUTO 00000KT 10SM OVC050 08/04 A2947 RMK AO2 RAB34E44 SLP979 P0000 T00780044=
202403120053 METAR KCLM 120053Z AUTO 00000KT 10SM BKN060 OVC070 08/04 A2948 RMK AO2 RAB08E35 SLP985 P0000 T00830044=
202403112353 METAR KCLM 112353Z AUTO 34004KT 10SM OVC049 08/04 A2952 RMK AO2 RAB04E14 SLP998 P0000 60000 T00780039 10089 20072 56032=
202403112253 METAR KCLM 112253Z AUTO 26003KT 10SM OVC048 09/05 A2955 RMK AO2 RAE44 SLP008 P0000 T00890050=
202403112153 METAR KCLM 112153Z AUTO 32004KT 10SM -RA OVC049 08/04 A2958 RMK AO2 RAB36 SLP019 P0000 T00780039=
202403112053 METAR KCLM 112053Z AUTO VRB04KT 10SM FEW012 BKN060 OVC075 08/04 A2961 RMK AO2 SLP030 T00830039 57030=
202403111953 METAR KCLM 111953Z AUTO 00000KT 10SM SCT014 OVC050 08/04 A2964 RMK AO2 SLP040 T00780039=
202403111902 SPECI KCLM 111902Z AUTO 00000KT 10SM SCT013 OVC060 08/03 A2967 RMK AO2 T00780033=
202403111853 METAR KCLM 111853Z AUTO 33003KT 10SM BKN013 OVC060 08/03 A2968 RMK AO2 SLP051 T00780028=
202403111753 METAR KCLM 111753Z AUTO 09003KT 10SM SCT070 BKN090 07/04 A2971 RMK AO2 SLP061 60000 T00720039 10072 20050 56019=
202403111717 SPECI KCLM 111717Z AUTO 08005KT 10SM SCT019 BKN070 OVC085 07/03 A2973 RMK AO2 T00720033=
202403111653 METAR KCLM 111653Z AUTO VRB04KT 10SM BKN019 OVC070 07/03 A2973 RMK AO2 SLP070 T00670033=
202403111649 SPECI KCLM 111649Z AUTO 08006KT 10SM BKN019 BKN070 07/03 A2973 RMK AO2=
202403111553 METAR KCLM 111553Z AUTO 10006KT 10SM FEW013 SCT018 07/04 A2976 RMK AO2 SLP080 T00670039=
202403111550 SPECI KCLM 111550Z AUTO 11005KT 10SM SCT013 07/04 A2976 RMK AO2=
202403111453 METAR KCLM 111453Z AUTO 00000KT 10SM OVC013 06/04 A2979 RMK AO2 SLP089 60000 T00610039 56002=
202403111417 SPECI KCLM 111417Z AUTO 13003KT 10SM BKN014 06/03 A2979 RMK AO2 T00610033=
202403111407 SPECI KCLM 111407Z AUTO 11004KT 10SM BKN015 06/04 A2978 RMK AO2 T00610039=
202403111353 METAR KCLM 111353Z AUTO 10005KT 10SM OVC013 07/04 A2979 RMK AO2 SLP089 T00670039=
202403111345 SPECI KCLM 111345Z AUTO 12005KT 10SM OVC015 06/04 A2980 RMK AO2 T00610039=
202403111332 SPECI KCLM 111332Z AUTO 00000KT 10SM OVC013 06/04 A2980 RMK AO2 T00610039=
202403111253 METAR KCLM 111253Z AUTO 00000KT 10SM OVC019 06/04 A2980 RMK AO2 RAB31E46 SLP091 P0000 T00610039=
202403111209 SPECI KCLM 111209Z AUTO 00000KT 10SM BKN015 BKN038 OVC070 06/03 A2980 RMK AO2 T00560033=
202403111153 METAR KCLM 111153Z AUTO 00000KT 10SM FEW020 BKN037 OVC070 06/03 A2980 RMK AO2 RAB18E32B41E47 SLP091 P0000 60001 70002 T00610033 10078 20039 58001=
202403111151 SPECI KCLM 111151Z AUTO 17004KT 10SM FEW020 SCT029 OVC037 06/03 A2980 RMK AO2 RAB18E32B41E47 P0000=
202403111138 SPECI KCLM 111138Z AUTO 18003KT 10SM FEW020 BKN029 OVC043 06/03 A2980 RMK AO2 RAB18E32 P0000 T00560028=
202403111053 METAR KCLM 111053Z AUTO 00000KT 10SM FEW020 SCT027 BKN049 06/03 A2980 RMK AO2 RAB15E33 SLP094 P0000 T00560033=
202403111038 SPECI KCLM 111038Z AUTO 24004KT 10SM SCT022 BKN027 OVC037 05/03 A2981 RMK AO2 RAB15E33 P0000 T00500028=
202403111005 SPECI KCLM 111005Z AUTO 23005KT 10SM SCT020 BKN060 OVC080 06/03 A2980 RMK AO2 T00560033=
202403110953 METAR KCLM 110953Z AUTO 24006KT 10SM SCT021 BKN026 OVC080 05/03 A2980 RMK AO2 RAB31E41 SLP093 P0000 T00500028=
202403110853 METAR KCLM 110853Z AUTO 20004KT 10SM SCT065 BKN090 BKN100 06/03 A2978 RMK AO2 RAB0757E16 SLP086 P0001 60001 T00560033 51012=
202403110753 METAR KCLM 110753Z AUTO 25005KT 10SM BKN055 BKN070 BKN080 06/03 A2978 RMK AO2 RAB18E31 SLP086 P0000 T00610033 401110056=
202403110653 METAR KCLM 110653Z AUTO 27008KT 10SM SCT042 BKN060 OVC075 07/03 A2976 RMK AO2 RAB0554E47 SLP080 P0000 T00670033=
202403110553 METAR KCLM 110553Z AUTO 26009KT 10SM BKN048 OVC070 08/03 A2975 RMK AO2 RAB23E32 SLP074 P0000 60001 T00780033 10111 20067 51026=
202403110453 METAR KCLM 110453Z AUTO 26013KT 10SM BKN075 OVC090 08/03 A2972 RMK AO2 SLP065 T00780033=
202403110353 METAR KCLM 110353Z AUTO 25006KT 10SM BKN050 OVC110 08/04 A2970 RMK AO2 RAB35E52 SLP059 P0000 T00780039=
202403110253 METAR KCLM 110253Z AUTO 25004KT 10SM BKN075 BKN090 07/04 A2967 RMK AO2 SLP048 60001 T00720044 52019=
202403110153 METAR KCLM 110153Z AUTO 00000KT 10SM BKN080 08/04 A2965 RMK AO2 RAB00E22 SLP041 P0001 T00830044=
202403110053 METAR KCLM 110053Z AUTO 00000KT 10SM BKN050 OVC070 09/04 A2964 RMK AO2 RAB37E48 SLP037 P0000 T00940044=
202403102353 METAR KCLM 102353Z AUTO 12006KT 10SM BKN060 11/04 A2961 RMK AO2 SLP029 60000 T01060044 10111 20089 53014=
202403102253 METAR KCLM 102253Z AUTO VRB04KT 10SM SCT044 BKN055 10/04 A2959 RMK AO2 RAB24E46 SLP020 P0000 T01000044=
202403102153 METAR KCLM 102153Z AUTO 24009KT 10SM BKN047 BKN060 10/04 A2958 RMK AO2 RAB03E43 SLP015 P0000 T01000039=
202403102053 METAR KCLM 102053Z AUTO 26005KT 10SM BKN055 BKN070 11/03 A2957 RMK AO2 SLP015 T01060028 51000=
202403101953 METAR KCLM 101953Z AUTO 04003KT 10SM CLR 10/04 A2957 RMK AO2 SLP015 T01000039=
202403101853 METAR KCLM 101853Z AUTO 31004KT 10SM CLR 09/02 A2958 RMK AO2 SLP016 T00940022=
202403101753 METAR KCLM 101753Z AUTO 12003KT 10SM CLR 09/03 A2957 RMK AO2 SLP015 T00890033 10089 20056 51010=
202403101704 SPECI KCLM 101704Z AUTO 08003KT 10SM SCT015 08/03 A2957 RMK AO2 T00830033=
202403101653 METAR KCLM 101653Z AUTO 15003KT 10SM BKN015 BKN024 08/04 A2957 RMK AO2 SLP014 T00830039=
202403101637 SPECI KCLM 101637Z AUTO 00000KT 10SM BKN014 08/04 A2957 RMK AO2 T00830039=
202403101629 SPECI KCLM 101629Z AUTO 13003KT 10SM BKN017 09/04 A2956 RMK AO2 T00890039=
202403101553 METAR KCLM 101553Z AUTO VRB05KT 10SM CLR 07/03 A2955 RMK AO2 SLP009 T00720033=
202403101453 METAR KCLM 101453Z AUTO 13004KT 10SM FEW085 FEW120 06/03 A2954 RMK AO2 SLP006 T00610028 51016=
202403101353 METAR KCLM 101353Z AUTO 30005KT 10SM SCT011 SCT070 07/03 A2954 RMK AO2 SLP004 T00670033=
202403101253 METAR KCLM 101253Z AUTO 24009KT 10SM CLR 07/02 A2951 RMK AO2 SLP995 T00670022=
202403101153 METAR KCLM 101153Z AUTO 25007KT 10SM BKN035 BKN070 07/03 A2950 RMK AO2 RAB27E48 SLP990 P0000 60000 70018 T00670028 10094 20061 51007=
202403101053 METAR KCLM 101053Z AUTO 24004KT 10SM OVC065 08/03 A2950 RMK AO2 SLP989 T00780028=
202403100953 METAR KCLM 100953Z AUTO 25003KT 10SM OVC065 07/02 A2949 RMK AO2 SLP988 T00670022=
202403100853 METAR KCLM 100853Z AUTO 27006KT 10SM SCT050 08/02 A2948 RMK AO2 RAB0756E13 SLP982 P0000 60000 T00780017 58031=
202403100753 METAR KCLM 100753Z AUTO VRB04KT 10SM OVC060 08/03 A2952 RMK AO2 SLP995 T00780028 401110044=
202403100653 METAR KCLM 100653Z AUTO VRB06KT 10SM BKN065 BKN075 08/03 A2955 RMK AO2 SLP006 T00780028=
202403100553 METAR KCLM 100553Z AUTO VRB05KT 10SM FEW050 OVC060 07/04 A2957 RMK AO2 RAB10E23 SLP014 P0000 60001 T00720039 10083 20056 58034=
202403100453 METAR KCLM 100453Z AUTO 22005KT 10SM OVC055 06/04 A2962 RMK AO2 RAB31E51 SLP029 P0000 T00610039=
202403100353 METAR KCLM 100353Z AUTO 11004KT 10SM OVC049 06/03 A2965 RMK AO2 SLP042 T00610033=
202403100253 METAR KCLM 100253Z AUTO 08003KT 10SM CLR 06/03 A2967 RMK AO2 SLP049 60001 T00610028 58007=
202403100153 METAR KCLM 100153Z AUTO 00000KT 10SM CLR 07/04 A2969 RMK AO2 SLP056 T00670039=
202403100053 METAR KCLM 100053Z AUTO 25007KT 10SM BKN055 OVC070 08/03 A2970 RMK AO2 RAE27 SLP058 P0001 T00780033=
202403092353 METAR KCLM 092353Z AUTO 26009KT 10SM -RA BKN045 BKN055 BKN090 08/04 A2969 RMK AO2 RAE10B53 SLP057 P0003 60017 T00830039 10111 20078 53008=
202403092307 SPECI KCLM 092307Z AUTO 02004KT 5SM -RA SCT023 BKN034 08/04 A2968 RMK AO2 PRESFR P0003 T00830044=
202403092303 SPECI KCLM 092303Z AUTO 36005KT 2SM -RA BKN025 BKN034 BKN055 08/04 A2968 RMK AO2 P0003 T00830044=
202403092257 SPECI KCLM 092257Z AUTO VRB04KT 1 3/4SM RA FEW022 BKN030 OVC055 08/04 A2969 RMK AO2 P0002 T00780044=
202403092253 METAR KCLM 092253Z AUTO 20006KT 3SM -RA BKN034 BKN060 OVC070 08/04 A2970 RMK AO2 RAE24B47 SLP059 P0002 T00780044=
202403092153 METAR KCLM 092153Z AUTO 23003KT 6SM -RA BKN035 OVC047 09/06 A2966 RMK AO2 SLP047 P0003 T00940056=
202403092053 METAR KCLM 092053Z AUTO 25006KT 5SM -RA OVC033 09/04 A2967 RMK AO2 RAB21 SLP049 P0008 60009 T00890044 53014=
202403092046 SPECI KCLM 092046Z AUTO 20005KT 4SM -RA OVC033 09/04 A2967 RMK AO2 RAB21 P0007 T00890044=
202403092035 SPECI KCLM 092035Z AUTO 17006KT 2 1/2SM RA BKN033 BKN050 OVC065 09/04 A2968 RMK AO2 RAB21 P0005 T00940039=
202403091953 METAR KCLM 091953Z AUTO 23009KT 10SM FEW037 SCT048 10/05 A2965 RMK AO2 RAB21E47 SLP041 P0001 T01000050=
202403091853 METAR KCLM 091853Z AUTO 24008KT 10SM FEW027 10/05 A2964 RMK AO2 RAE39 SLP036 P0000 T01000050=
202403091753 METAR KCLM 091753Z AUTO 26012G18KT 10SM -RA SCT045 BKN065 10/05 A2963 RMK AO2 RAB52 SLP034 P0000 60000 T01000050 10106 20044 55001=
202403091653 METAR KCLM 091653Z AUTO 00000KT 10SM CLR 10/05 A2962 RMK AO2 SLP033 T01000050=
202403091553 METAR KCLM 091553Z AUTO 00000KT 10SM FEW034 06/04 A2962 RMK AO2 SLP031 T00610039=
202403091453 METAR KCLM 091453Z AUTO 00000KT 10SM SCT038 SCT100 05/03 A2963 RMK AO2 SLP036 T00500028 56031=
202403091353 METAR KCLM 091353Z AUTO 23004KT 10SM SCT085 06/03 A2967 RMK AO2 SLP049 T00560033=
202403091253 METAR KCLM 091253Z AUTO 14004KT 9SM CLR 04/03 A2968 RMK AO2 SLP051 T00440028=
202403091153 METAR KCLM 091153Z AUTO 00000KT 10SM SCT009 05/03 A2973 RMK AO2 SLP068 T00500033 10072 20050 57009=
202403091149 SPECI KCLM 091149Z AUTO 25005KT 10SM SCT009 05/03 A2973 RMK AO2=
202403091139 SPECI KCLM 091139Z AUTO 25003KT 10SM BKN010 06/03 A2973 RMK AO2 T00560033=
202403091053 METAR KCLM 091053Z AUTO 00000KT 10SM BKN009 06/04 A2975 RMK AO2 SLP077 T00610039=
202403090953 METAR KCLM 090953Z AUTO VRB03KT 10SM FEW007 OVC060 06/03 A2978 RMK AO2 SLP085 T00610033=
202403090941 SPECI KCLM 090941Z AUTO 00000KT 10SM SCT007 OVC060 06/03 A2978 RMK AO2 T00610033=
202403090853 METAR KCLM 090853Z AUTO 27003KT 10SM OVC006 07/04 A2982 RMK AO2 SLP098 T00670039 57025=
202403090753 METAR KCLM 090753Z AUTO 00000KT 10SM OVC006 07/04 A2984 RMK AO2 SLP106 T00720044 401000044=
202403090653 METAR KCLM 090653Z AUTO 00000KT 10SM OVC009 07/04 A2987 RMK AO2 CIG 006V012 SLP117 T00670039=
202403090553 METAR KCLM 090553Z AUTO 00000KT 10SM OVC009 06/03 A2989 RMK AO2 SLP124 T00610033 10089 20050 56015=
202403090529 SPECI KCLM 090529Z AUTO 20003KT 10SM BKN009 OVC013 06/03 A2990 RMK AO2 T00610033=
202403090453 METAR KCLM 090453Z AUTO 00000KT 10SM BKN010 BKN014 06/03 A2991 RMK AO2 CIG 009V013 SLP129 T00560033=
202403090353 METAR KCLM 090353Z AUTO 00000KT 10SM BKN010 OVC015 06/03 A2992 RMK AO2 CIG 009V012 SLP132 T00610028=
202403090253 METAR KCLM 090253Z AUTO 00000KT 10SM BKN011 07/02 A2994 RMK AO2 SLP140 T00670022 56012=
202403090243 SPECI KCLM 090243Z AUTO 00000KT 10SM BKN009 06/02 A2994 RMK AO2 CIG 009V012 T00610022=
202403090235 SPECI KCLM 090235Z AUTO 24003KT 10SM SCT009 07/02 A2994 RMK AO2 T00670022=
202403090153 METAR KCLM 090153Z AUTO 25004KT 10SM CLR 07/02 A2995 RMK AO2 SLP144 T00720022=
202403090053 METAR KCLM 090053Z AUTO 28003KT 10SM CLR 08/03 A2997 RMK AO2 SLP151 T00830028=
202403082353 METAR KCLM 082353Z AUTO VRB04KT 10SM BKN100 09/03 A3000 RMK AO2 SLP160 T00890028 10100 20072 56031=
202403082253 METAR KCLM 082253Z AUTO 00000KT 10SM FEW120 09/02 A3003 RMK AO2 SLP169 T00890022=
202403082153 METAR KCLM 082153Z AUTO VRB03KT 10SM OVC110 09/02 A3006 RMK AO2 SLP180 T00890022=
202403082053 METAR KCLM 082053Z AUTO 31003KT 10SM BKN110 10/03 A3009 RMK AO2 SLP192 T01000033 58019=
202403081953 METAR KCLM 081953Z AUTO VRB05KT 10SM FEW055 08/03 A3013 RMK AO2 SLP203 T00830028=
202403081853 METAR KCLM 081853Z AUTO 28006KT 10SM FEW075 08/03 A3014 RMK AO2 SLP209 T00780028=
202403081753 METAR KCLM 081753Z AUTO 00000KT 10SM OVC075 07/02 A3015 RMK AO2 SLP211 60000 T00720022 10072 20044 58007=
202403081653 METAR KCLM 081653Z AUTO 00000KT 10SM FEW060 OVC080 07/02 A3016 RMK AO2 SLP214 T00670022=
202403081553 METAR KCLM 081553Z AUTO 10004KT 10SM OVC070 06/03 A3017 RMK AO2 RAE1455B35E52 SLP218 P0000 T00560028=
202403081453 METAR KCLM 081453Z AUTO 00000KT 10SM -RA BKN060 OVC075 04/02 A3017 RMK AO2 RAB12 SLP218 P0000 60000 T00440022 58007=
202403081353 METAR KCLM 081353Z AUTO 23003KT 10SM BKN060 OVC080 04/02 A3018 RMK AO2 RAB08E35 SLP222 P0000 T00440017=
202403081253 METAR KCLM 081253Z AUTO 00000KT 10SM OVC070 04/01 A3018 RMK AO2 SLP223 T00440011=
202403081153 METAR KCLM 081153Z AUTO 23003KT 10SM OVC060 04/01 A3019 RMK AO2 SLP225 T00440011 10050 20039 56009=
202403081053 METAR KCLM 081053Z AUTO 23004KT 10SM OVC060 04/01 A3019 RMK AO2 SLP227 T00440011=
202403080953 METAR KCLM 080953Z AUTO 00000KT 10SM OVC065 04/01 A3021 RMK AO2 SLP231 T00440011=
202403080853 METAR KCLM 080853Z AUTO 22005KT 10SM OVC065 04/01 A3022 RMK AO2 SLP234 T00440006 58002=
202403080753 METAR KCLM 080753Z AUTO 23006KT 10SM BKN080 OVC100 04/01 A3023 RMK AO2 SLP238 T00440006 400831011=
202403080653 METAR KCLM 080653Z AUTO 24005KT 10SM FEW070 OVC085 05/01 A3023 RMK AO2 SLP238 T00500006=
202403080553 METAR KCLM 080553Z AUTO 00000KT 10SM OVC090 04/01 A3022 RMK AO2 SLP236 T00440011 10078 20039 53002=
202403080453 METAR KCLM 080453Z AUTO 22005KT 10SM OVC100 04/01 A3022 RMK AO2 SLP234 T00390006=
202403080353 METAR KCLM 080353Z AUTO 00000KT 10SM SCT110 04/01 A3022 RMK AO2 SLP235 T00390006=
202403080253 METAR KCLM 080253Z AUTO 10003KT 10SM CLR 04/01 A3022 RMK AO2 SLP235 T00440006 56003=
202403080153 METAR KCLM 080153Z AUTO 00000KT 10SM CLR 06/00 A3022 RMK AO2 SLP236 T00560000=
202403080053 METAR KCLM 080053Z AUTO 07006KT 10SM CLR 07/01 A3022 RMK AO2 SLP235 T00670006=
202403072353 METAR KCLM 072353Z AUTO VRB05KT 10SM CLR 07/01 A3023 RMK AO2 SLP239 T00670006 10083 20050 56002=
202403072253 METAR KCLM 072253Z AUTO VRB05KT 10SM CLR 07/00 A3023 RMK AO2 SLP238 T00720000=
202403072153 METAR KCLM 072153Z AUTO VRB05KT 10SM CLR 08/01 A3023 RMK AO2 SLP237 T00780006=
202403072053 METAR KCLM 072053Z AUTO 10SM CLR 07/01 A3023 RMK AO2 SLP240 T00720006 50001=
202403071953 METAR KCLM 071953Z AUTO 02005KT 10SM CLR 06/01 A3024 RMK AO2 SLP244 T00610006=
202403071925 SPECI KCLM 071925Z AUTO 04004KT 10SM SCT027 06/01 A3024 RMK AO2 T00560006=
202403071903 SPECI KCLM 071903Z AUTO VRB04KT 10SM FEW012 BKN029 06/01 A3024 RMK AO2 T00560006=
202403071853 METAR KCLM 071853Z AUTO 06004KT 10SM SCT012 SCT026 06/01 A3024 RMK AO2 SLP243 T00560006=
202403071753 METAR KCLM 071753Z AUTO VRB03KT 10SM FEW020 06/M01 A3023 RMK AO2 SLP238 T00611011 10061 21011 53013=
202403071653 METAR KCLM 071653Z AUTO 24006KT 10SM CLR 04/M02 A3022 RMK AO2 SLP235 T00391022=
202403071553 METAR KCLM 071553Z AUTO 22006KT 10SM SCT020 01/M03 A3019 RMK AO2 SLP228 T00111033=
202403071538 SPECI KCLM 071538Z AUTO 23007KT 10SM BKN021 01/M03 A3020 RMK AO2 T00111033=
202403071453 METAR KCLM 071453Z AUTO 22006KT 10SM FEW050 00/M04 A3019 RMK AO2 SLP226 T00001039 53008=
202403071353 METAR KCLM 071353Z AUTO 23006KT 10SM CLR 00/M04 A3018 RMK AO2 SLP222 T00001039=
202403071253 METAR KCLM 071253Z AUTO 22006KT 10SM CLR 00/M03 A3017 RMK AO2 SLP219 T00001033=
202403071153 METAR KCLM 071153Z AUTO 23006KT 10SM CLR 00/M03 A3016 RMK AO2 SLP218 T00001033 10011 21011 51005=
202403071053 METAR KCLM 071053Z AUTO 22005KT 10SM CLR 00/M03 A3016 RMK AO2 SLP217 T00001028=
202403070953 METAR KCLM 070953Z AUTO 22006KT 10SM CLR 01/M03 A3016 RMK AO2 SLP215 T00111028=
202403070853 METAR KCLM 070853Z AUTO 22005KT 10SM CLR 01/M02 A3015 RMK AO2 SLP212 T00061022 53004=
202403070753 METAR KCLM 070753Z AUTO 21004KT 10SM CLR M01/M03 A3014 RMK AO2 SLP209 T10061028 400671006=
202403070653 METAR KCLM 070653Z AUTO 23005KT 10SM CLR 01/M02 A3014 RMK AO2 SLP210 T00061022=
202403070553 METAR KCLM 070553Z AUTO 00000KT 10SM OVC060 01/M02 A3014 RMK AO2 SLP208 T00111017 10050 20006 53008=
202403070453 METAR KCLM 070453Z AUTO 22004KT 10SM OVC055 02/M01 A3012 RMK AO2 SLP203 T00171011=
202403070353 METAR KCLM 070353Z AUTO 13003KT 10SM OVC055 04/M01 A3012 RMK AO2 SLP200 T00391006=
202403070253 METAR KCLM 070253Z AUTO 00000KT 10SM OVC060 04/M01 A3011 RMK AO2 SLP200 T00391006 53001=
202403070153 METAR KCLM 070153Z AUTO 09003KT 10SM OVC055 04/M01 A3011 RMK AO2 SLP199 T00441011=
202403070053 METAR KCLM 070053Z AUTO 10003KT 10SM OVC055 05/M01 A3011 RMK AO2 SLP198 T00501011=
202403062353 METAR KCLM 062353Z AUTO 00000KT 10SM OVC060 05/M01 A3011 RMK AO2 SLP198 60000 T00501011 10067 20039 53003=
202403062253 METAR KCLM 062253Z AUTO 08005KT 10SM OVC060 05/00 A3011 RMK AO2 SLP197 T00500000=
202403062153 METAR KCLM 062153Z AUTO VRB03KT 10SM OVC060 05/M01 A3010 RMK AO2 SLP195 T00501011=
202403062053 METAR KCLM 062053Z AUTO 02003KT 10SM FEW024 OVC065 06/M01 A3010 RMK AO2 SLP195 60000 T00561006 58002=
202403061953 METAR KCLM 061953Z AUTO 00000KT 9SM SCT033 BKN042 OVC060 04/00 A3011 RMK AO2 RAB22E39 SLP200 P0000 T00440000=
202403061943 SPECI KCLM 061943Z AUTO VRB03KT 10SM FEW014 BKN036 OVC060 04/00 A3011 RMK AO2 RAB22E39 P0000 T00440000=
202403061931 SPECI KCLM 061931Z AUTO VRB03KT 10SM -RA SCT012 BKN027 OVC055 04/00 A3011 RMK AO2 RAB22 P0000 T00390000=
202403061853 METAR KCLM 061853Z AUTO 34003KT 10SM BKN013 BKN018 OVC024 04/01 A3011 RMK AO2 SLP198 T00440006=
202403061829 SPECI KCLM 061829Z AUTO 00000KT 10SM BKN012 OVC060 05/01 A3011 RMK AO2 T00500006=
202403061753 METAR KCLM 061753Z AUTO 00000KT 10SM OVC055 04/M01 A3011 RMK AO2 SLP198 T00441011 10044 20028 51009=
202403061653 METAR KCLM 061653Z AUTO 29003KT 10SM SCT013 OVC055 04/M02 A3010 RMK AO2 SLP197 T00391017=
202403061645 SPECI KCLM 061645Z AUTO 26004KT 10SM BKN014 BKN021 OVC055 04/M02 A3010 RMK AO2 T00391017=
202403061553 METAR KCLM 061553Z AUTO 33004KT 10SM BKN019 OVC055 03/M02 A3009 RMK AO2 SLP194 T00331017=
202403061453 METAR KCLM 061453Z AUTO 24007KT 10SM OVC060 03/M02 A3008 RMK AO2 SLP190 T00281022 53004=
202403061353 METAR KCLM 061353Z AUTO 24007KT 10SM OVC060 03/M02 A3008 RMK AO2 SLP186 T00331022=
202403061253 METAR KCLM 061253Z AUTO 24006KT 10SM OVC060 03/M02 A3007 RMK AO2 SLP185 T00331022=
202403061153 METAR KCLM 061153Z AUTO 25008KT 10SM OVC060 03/M02 A3007 RMK AO2 SLP184 70002 T00281017 10028 20017 57005=
202403061053 METAR KCLM 061053Z AUTO 23005KT 10SM OVC060 02/M01 A3007 RMK AO2 SLP185 T00221011=
202403060953 METAR KCLM 060953Z AUTO 23006KT 10SM OVC060 02/M01 A3008 RMK AO2 SLP189 T00221011=
202403060853 METAR KCLM 060853Z AUTO 23005KT 10SM OVC060 03/M01 A3009 RMK AO2 SLP190 T00281011 51004=
202403060753 METAR KCLM 060753Z AUTO 22004KT 10SM FEW027 SCT035 OVC055 02/M01 A3008 RMK AO2 SLP190 T00221006 400670011=
202403060714 SPECI KCLM 060714Z AUTO 19003KT 10SM SCT028 SCT032 BKN055 02/M01 A3008 RMK AO2 T00171011=
202403060653 METAR KCLM 060653Z AUTO 16003KT 10SM BKN026 OVC055 02/M01 A3008 RMK AO2 SLP186 T00171011=
202403060609 SPECI KCLM 060609Z AUTO 00000KT 10SM BKN028 OVC060 02/M01 A3007 RMK AO2 T00171011=
202403060553 METAR KCLM 060553Z AUTO 00000KT 10SM OVC060 02/M01 A3007 RMK AO2 SLP186 T00171011 10067 20011 52004=
202403060518 SPECI KCLM 060518Z AUTO 25004KT 10SM FEW029 OVC060 03/M01 A3007 RMK AO2 T00281006=
202403060510 SPECI KCLM 060510Z AUTO 27005KT 10SM FEW024 BKN029 OVC060 03/M01 A3007 RMK AO2 T00281006=
202403060453 METAR KCLM 060453Z AUTO 26006KT 10SM SCT025 SCT030 OVC060 02/M01 A3007 RMK AO2 SLP185 T00221006=
202403060353 METAR KCLM 060353Z AUTO 00000KT 10SM BKN045 02/M01 A3006 RMK AO2 SLP183 T00171011=
202403060253 METAR KCLM 060253Z AUTO 23003KT 10SM SCT044 03/01 A3006 RMK AO2 SLP182 T00330006 53004=
202403060153 METAR KCLM 060153Z AUTO 00000KT 10SM FEW041 FEW050 04/M01 A3005 RMK AO2 SLP178 T00441006=
202403060053 METAR KCLM 060053Z AUTO 10003KT 10SM SCT038 06/M01 A3004 RMK AO2 SLP176 T00611006=
202403060003 SPECI KCLM 060003Z AUTO 00000KT 10SM FEW028 BKN039 06/M01 A3005 RMK AO2 T00611011=
202403052353 METAR KCLM 052353Z AUTO 00000KT 10SM BKN028 BKN039 06/M01 A3005 RMK AO2 SLP177 T00561011 10067 20044 56004=
202403052253 METAR KCLM 052253Z AUTO 10004KT 10SM FEW037 06/M01 A3005 RMK AO2 SLP178 T00561011=
202403052240 SPECI KCLM 052240Z AUTO 10004KT 10SM SCT022 SCT037 06/M01 A3005 RMK AO2 T00561011=
202403052153 METAR KCLM 052153Z AUTO VRB03KT 10SM OVC022 06/M01 A3005 RMK AO2 SLP179 T00561006=
202403052053 METAR KCLM 052053Z AUTO VRB04KT 10SM OVC025 06/M01 A3006 RMK AO2 SLP181 T00561011 51003=
202403051953 METAR KCLM 051953Z AUTO 07006KT 10SM OVC021 04/M01 A3006 RMK AO2 SLP180 T00441011=
202403051853 METAR KCLM 051853Z AUTO 11007KT 070V140 10SM OVC019 06/00 A3005 RMK AO2 SLP179 T00560000=
202403051753 METAR KCLM 051753Z AUTO 09005KT 10SM OVC025 04/M01 A3005 RMK AO2 SLP177 60002 T00441006 10050 20017 51011=
202403051653 METAR KCLM 051653Z AUTO 00000KT 10SM OVC023 03/00 A3005 RMK AO2 SLP178 T00280000=
202403051553 METAR KCLM 051553Z AUTO 00000KT 10SM OVC027 02/00 A3003 RMK AO2 UPE1458 SLP172 P0000 T00220000=
202403051453 METAR KCLM 051453Z AUTO 19004KT 7SM UP FEW019 BKN027 OVC032 02/M01 A3002 RMK AO2 UPB27SNE27 SLP167 P0001 60002 T00221006 51005=
202403051415 SPECI KCLM 051415Z AUTO 21005KT 4SM -SN BR FEW010 BKN016 OVC025 02/M01 A3001 RMK AO2 P0001 T00171006=
202403051353 METAR KCLM 051353Z AUTO 20005KT 3SM -SN BR BKN012 OVC018 02/M01 A3001 RMK AO2 UPE38SNB38 SLP167 P0001 T00171006=
202403051351 SPECI KCLM 051351Z AUTO 19005KT 2 1/2SM -SN BR BKN012 OVC018 02/M01 A3001 RMK AO2 VIS 2V4 UPE38SNB38 P0001=
202403051253 METAR KCLM 051253Z AUTO 27003KT 10SM UP OVC018 03/00 A3000 RMK AO2 RAE35UPB45 SLP162 P0000 T00280000=
202403051153 METAR KCLM 051153Z AUTO VRB03KT 10SM -RA OVC020 04/M01 A2998 RMK AO2 RAE06B51 SLP155 P0000 60001 70002 T00391011 10044 20033 51004=
202403051053 METAR KCLM 051053Z AUTO VRB06KT 10SM -RA OVC017 04/M01 A2998 RMK AO2 RAB40 SLP153 P0000 T00391006=
202403050953 METAR KCLM 050953Z AUTO VRB04KT 10SM FEW009 BKN021 OVC027 03/00 A2998 RMK AO2 SLP154 T00330000=
202403050942 SPECI KCLM 050942Z AUTO VRB04KT 10SM FEW006 BKN021 OVC028 04/01 A2998 RMK AO2 T00390006=
202403050853 METAR KCLM 050853Z AUTO VRB06KT 10SM OVC007 03/01 A2997 RMK AO2 RAB05E26 CIG 004V012 SLP151 P0001 60001 T00330006 53007=
202403050820 SPECI KCLM 050820Z AUTO 06008G14KT 9SM -RA BKN007 OVC013 03/01 A2997 RMK AO2 RAB05 CIG 004V010 P0001 T00330006=
202403050753 METAR KCLM 050753Z AUTO VRB03KT 10SM OVC013 04/01 A2996 RMK AO2 SLP148 T00440006 400830022=
202403050653 METAR KCLM 050653Z AUTO 10SM BKN010 BKN017 OVC031 04/01 A2995 RMK AO2 SLP145 T00440011=
202403050618 SPECI KCLM 050618Z AUTO 10SM SCT012 BKN019 BKN060 04/01 A2995 RMK AO2 T00440011=
202403050553 METAR KCLM 050553Z AUTO VRB03KT 10SM OVC012 04/01 A2995 RMK AO2 SLP144 60001 T00440011 10044 20028 53004=
202403050453 METAR KCLM 050453Z AUTO 23003KT 10SM OVC010 03/01 A2995 RMK AO2 RAE0356 SLP142 P0000 T00330011=
202403050353 METAR KCLM 050353Z AUTO 24005KT 10SM -RA BKN010 OVC016 03/01 A2994 RMK AO2 RAE12B44 CIG 008V012 SLP142 P0000 T00280006=
202403050344 SPECI KCLM 050344Z AUTO 24004KT 10SM -RA BKN010 OVC016 03/01 A2994 RMK AO2 RAE12B44 CIG 008V012 P0000 T00280006=
202403050253 METAR KCLM 050253Z AUTO 00000KT 10SM -RA OVC009 03/01 A2994 RMK AO2 RAB26 SLP141 P0001 60001 T00330006 53006=
202403050241 SPECI KCLM 050241Z AUTO 23003KT 9SM -RA BKN009 OVC014 04/01 A2994 RMK AO2 RAB26 P0001 T00390006=
202403050225 SPECI KCLM 050225Z AUTO 00000KT 10SM BKN014 OVC026 04/01 A2993 RMK AO2 T00390006=
202403050153 METAR KCLM 050153Z AUTO 00000KT 10SM BKN025 BKN055 OVC070 04/00 A2993 RMK AO2 SLP138 T00390000=
202403050148 SPECI KCLM 050148Z AUTO 00000KT 10SM BKN026 BKN055 OVC070 04/00 A2993 RMK AO2=
202403050053 METAR KCLM 050053Z AUTO 07003KT 10SM FEW011 SCT035 BKN044 04/01 A2992 RMK AO2 SLP135 T00390006=
202403050050 SPECI KCLM 050050Z AUTO 09003KT 10SM FEW011 BKN034 OVC065 04/01 A2992 RMK AO2=
202403050038 SPECI KCLM 050038Z AUTO 10004KT 10SM SCT010 BKN019 OVC043 04/01 A2992 RMK AO2 T00390006=
202403050017 SPECI KCLM 050017Z AUTO 10006KT 10SM SCT010 BKN030 OVC037 04/01 A2992 RMK AO2 T00390006=
202403050004 SPECI KCLM 050004Z AUTO 09007KT 10SM FEW008 OVC029 04/01 A2992 RMK AO2 T00390006=
202403042353 METAR KCLM 042353Z AUTO 10009KT 10SM FEW022 BKN030 OVC036 04/01 A2992 RMK AO2 SLP134 T00390006 10083 20039 53004=
202403042253 METAR KCLM 042253Z AUTO 11005KT 10SM SCT029 SCT037 OVC045 06/M01 A2991 RMK AO2 SLP132 T00561006=
202403042153 METAR KCLM 042153Z AUTO 25006KT 10SM BKN037 OVC050 06/M01 A2991 RMK AO2 SLP130 T00561006=
202403042053 METAR KCLM 042053Z AUTO 08003KT 10SM FEW042 BKN049 07/M01 A2991 RMK AO2 SLP130 T00721006 50010=
202403041953 METAR KCLM 041953Z AUTO VRB03KT 10SM BKN070 07/M03 A2991 RMK AO2 SLP131 T00721028=
202403041853 METAR KCLM 041853Z AUTO 28005KT 10SM CLR 08/M04 A2990 RMK AO2 SLP126 T00781044=
202403041753 METAR KCLM 041753Z AUTO 25008KT 10SM CLR 06/M02 A2988 RMK AO2 SLP120 T00611022 10061 20022 51017=
202403041653 METAR KCLM 041653Z AUTO 24009KT 10SM CLR 05/M02 A2987 RMK AO2 SLP116 T00501022=
202403041553 METAR KCLM 041553Z AUTO 24010KT 10SM CLR 03/M03 A2985 RMK AO2 SLP111 T00331028=
202403041453 METAR KCLM 041453Z AUTO 24006KT 10SM CLR 03/M03 A2983 RMK AO2 SLP103 T00281028 53018=
202403041353 METAR KCLM 041353Z AUTO 26010KT 10SM CLR 03/M01 A2980 RMK AO2 SLP093 T00281011=
202403041253 METAR KCLM 041253Z AUTO 24009KT 10SM CLR 03/M01 A2978 RMK AO2 SLP087 T00281011=
202403041153 METAR KCLM 041153Z AUTO 26014G21KT 10SM FEW040 FEW048 BKN060 04/M01 A2978 RMK AO2 SLP084 60001 70002 T00391006 10044 20033 53013=
202403041053 METAR KCLM 041053Z AUTO 23010G19KT 10SM SCT042 BKN049 04/M01 A2976 RMK AO2 SLP079 T00391006=
202403040953 METAR KCLM 040953Z AUTO 25006KT 10SM BKN055 OVC075 03/00 A2974 RMK AO2 RAB08E29 SLP074 P0000 T00330000=
202403040853 METAR KCLM 040853Z AUTO 24008KT 10SM FEW034 OVC065 03/00 A2974 RMK AO2 RAE26 SLP072 P0000 60001 T00330000 51014=
202403040823 SPECI KCLM 040823Z AUTO 25004KT 10SM -RA OVC038 03/01 A2973 RMK AO2 P0000 T00330006=
202403040753 METAR KCLM 040753Z AUTO 22008KT 10SM -RA OVC024 04/01 A2973 RMK AO2 RAB26 SLP068 P0001 T00390006 400830006=
202403040653 METAR KCLM 040653Z AUTO 24006KT 10SM FEW043 OVC050 04/00 A2971 RMK AO2 SLP062 T00390000=
202403040553 METAR KCLM 040553Z AUTO 23005KT 10SM FEW033 03/00 A2970 RMK AO2 SLP058 60001 T00330000 10061 20028 51012=
202403040453 METAR KCLM 040453Z AUTO 25003KT 10SM FEW024 SCT036 BKN070 03/01 A2968 RMK AO2 RAB07E38 SLP054 P0001 T00330006=
202403040449 SPECI KCLM 040449Z AUTO 24003KT 10SM FEW024 SCT036 OVC070 04/01 A2968 RMK AO2 RAB07E38 P0001=
202403040442 SPECI KCLM 040442Z AUTO 23006KT 10SM FEW009 BKN029 OVC065 04/01 A2968 RMK AO2 RAB07E38 P0001 T00390006=
202403040431 SPECI KCLM 040431Z AUTO 25010KT 10SM -RA FEW011 OVC029 04/01 A2968 RMK AO2 RAB07 P0001 T00390006=
202403040353 METAR KCLM 040353Z AUTO 27006KT 10SM BKN013 OVC060 04/01 A2966 RMK AO2 SLP047 T00440006=
202403040347 SPECI KCLM 040347Z AUTO 00000KT 10SM BKN013 OVC060 04/01 A2966 RMK AO2=
202403040253 METAR KCLM 040253Z AUTO 25004KT 10SM FEW037 OVC060 04/00 A2964 RMK AO2 SLP040 T00440000 53010=
202403040153 METAR KCLM 040153Z AUTO 27004KT 10SM FEW095 04/01 A2962 RMK AO2 SLP033 T00440006=
202403040053 METAR KCLM 040053Z AUTO 00000KT 10SM BKN075 OVC090 06/01 A2961 RMK AO2 SLP028 T00560011=
202403032353 METAR KCLM 032353Z AUTO 22004KT 10SM FEW024 BKN038 OVC080 06/01 A2961 RMK AO2 RAE2254B21E47 SLP028 P0000 60000 T00610011 10083 20061 51004=
202403032345 SPECI KCLM 032345Z AUTO 00000KT 10SM -RA BKN027 OVC080 06/01 A2961 RMK AO2 RAE2254B21 P0000 T00610006=
202403032253 METAR KCLM 032253Z AUTO 30005KT 10SM -RA FEW027 BKN039 OVC049 06/M01 A2961 RMK AO2 RAB2157E07B44 SLP027 P0000 T00611006=
202403032232 SPECI KCLM 032232Z AUTO 04004KT 10SM SCT028 BKN035 OVC060 07/M01 A2961 RMK AO2 RAB2157E07 P0000 T00671006=
202403032221 SPECI KCLM 032221Z AUTO 00000KT 10SM BKN028 BKN034 OVC044 07/00 A2960 RMK AO2 RAB2157E07 P0000 T00720000=
202403032153 METAR KCLM 032153Z AUTO 04003KT 10SM SCT020 BKN047 BKN060 07/01 A2960 RMK AO2 SLP025 T00720006=
202403032145 SPECI KCLM 032145Z AUTO 01004KT 10SM BKN020 BKN055 07/01 A2960 RMK AO2 T00720006=
202403032114 SPECI KCLM 032114Z AUTO 11004KT 10SM FEW018 BKN110 08/02 A2960 RMK AO2 T00780022=
202403032053 METAR KCLM 032053Z AUTO 04004KT 10SM BKN018 BKN120 07/02 A2960 RMK AO2 SLP024 T00720017 50006=
202403032045 SPECI KCLM 032045Z AUTO 36003KT 10SM BKN019 07/02 A2960 RMK AO2 T00720017=
202403031953 METAR KCLM 031953Z AUTO 35003KT 10SM SCT018 BKN065 07/01 A2960 RMK AO2 SLP026 T00670011=
202403031853 METAR KCLM 031853Z AUTO 00000KT 10SM CLR 07/01 A2959 RMK AO2 SLP022 T00670011=
202403031753 METAR KCLM 031753Z AUTO 25004KT 10SM FEW017 07/01 A2958 RMK AO2 SLP018 T00670011 10067 20006 53012=
202403031653 METAR KCLM 031653Z AUTO 22005KT 10SM CLR 03/00 A2957 RMK AO2 SLP014 T00280000=
202403031553 METAR KCLM 031553Z AUTO 00000KT 10SM CLR 01/M01 A2955 RMK AO2 SLP009 T00111011=
202403031453 METAR KCLM 031453Z AUTO 00000KT 10SM BKN070 01/M02 A2954 RMK AO2 SLP006 T00061017 51007=
202403031353 METAR KCLM 031353Z AUTO 20003KT 10SM SCT016 BKN100 01/M02 A2954 RMK AO2 SLP005 T00111017=
202403031253 METAR KCLM 031253Z AUTO 22004KT 10SM FEW075 BKN090 OVC110 02/M01 A2953 RMK AO2 SLP000 T00221011=
202403031153 METAR KCLM 031153Z AUTO 00000KT 10SM FEW029 SCT110 01/M02 A2952 RMK AO2 SLP998 T00111017 10039 20011 51005=
202403031053 METAR KCLM 031053Z AUTO 15003KT 10SM CLR 02/M02 A2951 RMK AO2 SLP995 T00171017=
202403030953 METAR KCLM 030953Z AUTO 24008KT 10SM SCT065 BKN085 OVC100 03/M01 A2952 RMK AO2 SLP998 T00331011=
202403030853 METAR KCLM 030853Z AUTO 25004KT 10SM FEW060 01/M02 A2951 RMK AO2 SLP993 T00111017 53005=
202403030753 METAR KCLM 030753Z AUTO 22003KT 10SM FEW020 SCT060 BKN075 03/M01 A2950 RMK AO2 SLP990 T00281011 400890011=
202403030653 METAR KCLM 030653Z AUTO 00000KT 10SM OVC060 03/00 A2949 RMK AO2 SLP989 T00330000=
202403030553 METAR KCLM 030553Z AUTO 23004KT 10SM OVC055 03/00 A2949 RMK AO2 SLP988 60000 T00330000 10061 20017 58001=
202403030453 METAR KCLM 030453Z AUTO 22005KT 10SM OVC080 03/00 A2950 RMK AO2 SLP990 T00280000=
202403030353 METAR KCLM 030353Z AUTO 23004KT 10SM FEW070 02/M01 A2950 RMK AO2 SLP991 T00221006=
202403030253 METAR KCLM 030253Z AUTO 17003KT 10SM CLR 04/M01 A2950 RMK AO2 SLP989 60000 T00391006 53006=
202403030231 SPECI KCLM 030231Z AUTO 00000KT 10SM FEW021 SCT027 04/M01 A2949 RMK AO2 T00391006=
202403030153 METAR KCLM 030153Z AUTO 22003KT 10SM BKN023 04/M01 A2948 RMK AO2 SLP986 T00441006=
202403030151 SPECI KCLM 030151Z AUTO 23003KT 10SM BKN023 04/M01 A2948 RMK AO2=
202403030053 METAR KCLM 030053Z AUTO 25005KT 10SM SCT032 BKN041 BKN095 05/00 A2948 RMK AO2 RAB10E25 SLP984 P0000 T00500000=
202403022353 METAR KCLM 022353Z AUTO 09004KT 10SM BKN060 BKN070 OVC110 06/00 A2947 RMK AO2 SLP981 60000 T00610000 10089 20044 53020=
202403022253 METAR KCLM 022253Z AUTO 07005KT 10SM SCT055 BKN120 07/M01 A2945 RMK AO2 SLP973 T00671011=
202403022153 METAR KCLM 022153Z AUTO VRB04KT 10SM SCT100 08/M03 A2943 RMK AO2 SLP967 T00781028=
202403022053 METAR KCLM 022053Z AUTO 24008KT 190V270 10SM FEW060 08/M04 A2941 RMK AO2 SLP961 60000 T00781044 50019=
202403021953 METAR KCLM 021953Z AUTO VRB05G16KT 10SM SCT032 SCT039 OVC110 07/M02 A2941 RMK AO2 RAB01E16 SLP962 P0000 T00721017=
202403021853 METAR KCLM 021853Z AUTO 27010KT 10SM FEW055 BKN075 07/M02 A2939 RMK AO2 SLP953 T00721022=
202403021753 METAR KCLM 021753Z AUTO 30006KT 10SM BKN070 06/M01 A2936 RMK AO2 SLP942 60000 T00611011 10061 20011 51029=
202403021653 METAR KCLM 021653Z AUTO 26006KT 10SM CLR 05/M01 A2933 RMK AO2 SLP934 T00501011=
202403021553 METAR KCLM 021553Z AUTO 23007KT 10SM FEW044 OVC060 04/M01 A2931 RMK AO2 SLP927 T00391011=
202403021453 METAR KCLM 021453Z AUTO 24010KT 10SM OVC060 04/M01 A2927 RMK AO2 RAB1356E08 SLP913 P0000 60000 T00391011 53016=
202403021353 METAR KCLM 021353Z AUTO 25011KT 10SM SCT045 BKN055 BKN070 03/M01 A2925 RMK AO2 SLP905 T00331011=
202403021253 METAR KCLM 021253Z AUTO 00000KT 10SM CLR 02/M02 A2922 RMK AO2 SLP895 T00171017=
202403021153 METAR KCLM 021153Z AUTO 23004KT 10SM FEW019 OVC060 02/M01 A2922 RMK AO2 SLP896 70001 T00221006 10039 20022 56006=
202403021150 SPECI KCLM 021150Z AUTO 22005KT 10SM SCT019 OVC060 02/M01 A2922 RMK AO2=
202403021053 METAR KCLM 021053Z AUTO 22004KT 10SM OVC023 03/M01 A2923 RMK AO2 SLP898 T00281006=
202403021022 SPECI KCLM 021022Z AUTO 00000KT 10SM BKN025 BKN030 03/M01 A2923 RMK AO2 T00331011=
202403020953 METAR KCLM 020953Z AUTO 11004KT 10SM BKN055 BKN100 03/M01 A2924 RMK AO2 SLP902 T00331011=
202403020853 METAR KCLM 020853Z AUTO 00000KT 10SM OVC043 03/M01 A2926 RMK AO2 SLP909 T00281006 56014=
202403020753 METAR KCLM 020753Z AUTO 00000KT 10SM BKN075 OVC090 03/M01 A2926 RMK AO2 SLP911 T00281006 400780017=
202403020709 SPECI KCLM 020709Z AUTO 00000KT 10SM SCT027 BKN120 03/00 A2928 RMK AO2 T00280000=
202403020653 METAR KCLM 020653Z AUTO 21003KT 10SM BKN027 BKN110 03/00 A2928 RMK AO2 SLP918 T00280000=
202403020644 SPECI KCLM 020644Z AUTO 00000KT 10SM SCT027 OVC110 03/00 A2929 RMK AO2 T00280000=
202403020634 SPECI KCLM 020634Z AUTO 00000KT 10SM BKN025 OVC120 03/M01 A2929 RMK AO2 T00281006=
202403020553 METAR KCLM 020553Z AUTO 19003KT 10SM FEW110 03/M01 A2930 RMK AO2 SLP924 T00331006 10067 20022 56026=
202403020453 METAR KCLM 020453Z AUTO 22006KT 10SM SCT120 03/00 A2933 RMK AO2 SLP932 T00280000=
202403020353 METAR KCLM 020353Z AUTO 21004KT 10SM CLR 03/00 A2935 RMK AO2 SLP941 T00330000=
202403020318 SPECI KCLM 020318Z AUTO 21004KT 10SM SCT022 SCT044 03/00 A2937 RMK AO2 T00330000=
202403020301 SPECI KCLM 020301Z AUTO 23003KT 10SM BKN023 OVC037 04/00 A2937 RMK AO2 T00390000=
202403020253 METAR KCLM 020253Z AUTO 23003KT 10SM SCT023 BKN030 BKN038 04/01 A2938 RMK AO2 SLP951 T00390006 58011=
202403020246 SPECI KCLM 020246Z AUTO 21003KT 10SM BKN025 BKN038 04/01 A2938 RMK AO2 T00390006=
202403020153 METAR KCLM 020153Z AUTO 00000KT 10SM FEW035 FEW045 04/00 A2941 RMK AO2 SLP960 T00440000=
202403020053 METAR KCLM 020053Z AUTO VRB03KT 10SM CLR 06/M01 A2941 RMK AO2 SLP961 T00611006=
202403012353 METAR KCLM 012353Z AUTO 07003KT 10SM FEW041 FEW048 BKN070 07/M01 A2941 RMK AO2 SLP961 60001 T00671006 10078 20050 50006=
202403012253 METAR KCLM 012253Z AUTO 28005KT 10SM FEW065 SCT085 07/01 A2942 RMK AO2 RAB04E22 SLP962 P0001 T00670006=
202403012232 SPECI KCLM 012232Z AUTO 26005KT 10SM SCT022 07/00 A2942 RMK AO2 RAB04E22 P0001 T00670000=
202403012224 SPECI KCLM 012224Z AUTO VRB03KT 10SM BKN026 07/01 A2941 RMK AO2 RAB04E22 P0001 T00670011=
202403012153 METAR KCLM 012153Z AUTO 24013G24KT 10SM OVC060 05/00 A2942 RMK AO2 SLP963 T00500000=
202403012053 METAR KCLM 012053Z AUTO 24009KT 10SM CLR 07/M01 A2939 RMK AO2 SLP954 T00721011 58005=
202403011953 METAR KCLM 011953Z AUTO 00000KT 10SM CLR 08/M01 A2940 RMK AO2 SLP958 T00781011=
202403011853 METAR KCLM 011853Z AUTO VRB05KT 10SM CLR 07/01 A2941 RMK AO2 SLP960 T00670006=
202403011753 METAR KCLM 011753Z AUTO 11004KT 10SM SCT016 06/01 A2941 RMK AO2 SLP960 T00610011 10061 20017 56005=
202403011722 SPECI KCLM 011722Z AUTO 09004KT 10SM BKN020 06/01 A2941 RMK AO2 T00610011=
202403011653 METAR KCLM 011653Z AUTO 00000KT 10SM SCT019 05/01 A2941 RMK AO2 SLP961 T00500011=
202403011553 METAR KCLM 011553Z AUTO 00000KT 10SM CLR 03/01 A2942 RMK AO2 SLP964 T00280006=
202403011453 METAR KCLM 011453Z AUTO 22003KT 10SM BKN048 BKN070 OVC100 02/01 A2942 RMK AO2 SLP966 T00220006 58002=
202403011353 METAR KCLM 011353Z AUTO 22005KT 10SM FEW055 BKN075 OVC090 02/00 A2943 RMK AO2 SLP968 T00220000=
202403011253 METAR KCLM 011253Z AUTO 22004KT 10SM SCT040 BKN055 OVC110 02/00 A2943 RMK AO2 SLP969 T00220000=
202403011153 METAR KCLM 011153Z AUTO 21004KT 10SM FEW060 FEW110 03/00 A2943 RMK AO2 SLP968 60001 70005 T00280000 10050 20017 53008=
202403011053 METAR KCLM 011053Z AUTO 00000KT 10SM CLR 02/M01 A2942 RMK AO2 RAE08 SLP963 P0000 T00221006=
202403011022 SPECI KCLM 011022Z AUTO VRB03KT 10SM FEW016 SCT110 03/00 A2942 RMK AO2 RAE08 P0000 T00280000=
202403011002 SPECI KCLM 011002Z AUTO 27006KT 10SM -RA BKN021 BKN075 OVC110 04/00 A2941 RMK AO2 P0000 T00390000=
202403010953 METAR KCLM 010953Z AUTO 15009KT 10SM -RA BKN033 BKN070 OVC080 04/00 A2942 RMK AO2 RAB37 SLP963 P0001 T00390000=
202403010853 METAR KCLM 010853Z AUTO 23006KT 10SM FEW048 SCT070 04/00 A2941 RMK AO2 SLP959 60000 T00390000 53002=
202403010753 METAR KCLM 010753Z AUTO 22006KT 10SM BKN055 04/00 A2939 RMK AO2 SLP952 T00440000 400720017=
202403010653 METAR KCLM 010653Z AUTO 20004KT 10SM SCT028 04/00 A2937 RMK AO2 RAB08E43 SLP946 P0000 T00390000=
202403010553 METAR KCLM 010553Z AUTO 10SM FEW014 BKN050 OVC075 02/00 A2940 RMK AO2 SLP956 T00220000 10056 20017 55003=
202403010531 SPECI KCLM 010531Z AUTO 22005KT 10SM SCT017 02/00 A2939 RMK AO2 T00220000=
202403010453 METAR KCLM 010453Z AUTO 00000KT 10SM OVC015 02/01 A2939 RMK AO2 SLP955 T00220006=
202403010419 SPECI KCLM 010419Z AUTO 23003KT 10SM BKN015 02/00 A2939 RMK AO2 T00220000=
202403010353 METAR KCLM 010353Z AUTO 00000KT 10SM FEW015 02/00 A2939 RMK AO2 SLP956 T00170000=
202403010253 METAR KCLM 010253Z AUTO 00000KT 10SM CLR 02/00 A2941 RMK AO2 SLP961 T00220000 56006=
202403010153 METAR KCLM 010153Z AUTO 19003KT 10SM SCT055 03/01 A2941 RMK AO2 SLP960 T00330006=
202403010053 METAR KCLM 010053Z AUTO 31003KT 10SM BKN032 BKN045 BKN070 05/01 A2941 RMK AO2 SLP961 T00500011=

# No short TAF reports from KCLM in databse.

###################################
#  large TAF from KCLM
###################################
202403312320 TAF KCLM 312320Z 0100/0124 32005KT P6SM SCT200 FM010200 28008KT
                       P6SM SCT200=
202403311720 TAF KCLM 311720Z 3118/0118 VRB06KT P6SM SCT200 FM010200 28008KT
                       P6SM SCT200=
202403311138 TAF KCLM 311138Z 3112/0112 VRB03KT P6SM SCT250 FM311400 VRB03KT
                       P6SM BKN040 FM311800 VRB03KT P6SM SCT200
                       FM010000 25006KT P6SM SCT200=
202403310520 TAF KCLM 310520Z 3106/0106 21005KT P6SM SKC FM311200 VRB03KT P6SM
                       SCT250 FM311800 05005KT P6SM FEW250 FM010100
                       25005KT P6SM BKN250=
202403302320 TAF KCLM 302320Z 3100/3124 VRB04KT P6SM SKC FM310400 23005KT P6SM
                       SKC FM311800 05008KT P6SM FEW250=
202403301720 TAF KCLM 301720Z 3018/3118 VRB05KT P6SM FEW250 FM302300 28010KT
                       P6SM SKC FM310400 VRB05KT P6SM SKC=
202403301122 TAF KCLM 301122Z 3012/3112 23006KT P6SM SKC FM301800 32006KT P6SM
                       SKC FM310200 24008KT P6SM SKC=
202403300520 TAF KCLM 300520Z 3006/3106 22004KT P6SM SKC FM301800 04007KT P6SM
                       FEW250 FM310200 25008KT P6SM FEW250=
202403292320 TAF KCLM 292320Z 3000/3024 VRB03KT P6SM SCT200 FM300600 23006KT
                       P6SM SKC FM301800 04007KT P6SM SCT250=
202403292107 KCLM 292107Z 2921/3018 VRB03KT P6SM OVC025 FM292300 26006KT P6SM
                       SCT200 FM300600 23006KT P6SM SKC=
202403291720 TAF KCLM 291720Z 2918/3018 VRB03KT P6SM OVC015 FM292000 07005KT
                       P6SM SCT020 BKN070 BKN200 FM292300 26006KT
                       P6SM SCT200 FM300600 23006KT P6SM SKC=
202403291132 TAF KCLM 291132Z 2912/3012 23004KT P6SM SCT035 BKN050 OVC070 FM291800
                       VRB03KT P6SM BKN070 BKN200 FM292300 26006KT
                       P6SM BKN200 FM300600 VRB03KT P6SM SKC=
202403290520 TAF KCLM 290520Z 2906/3006 20005KT P6SM VCSH SCT050 SCT070 FM290900
                       23004KT P6SM BKN050 FM291800 11006KT P6SM
                       BKN100 FM300000 27007KT P6SM BKN250=
202403282331 TAF KCLM 282331Z 2900/2924 VRB03KT P6SM VCSH BKN040 OVC060 FM290400
                       22005KT P6SM -SHRA BKN040 OVC070 FM291800
                       36004KT P6SM BKN050=
202403281744 TAF KCLM 281744Z 2818/2918 VRB05KT P6SM VCSH BKN040 OVC060 FM290000
                       VRB03KT P6SM -SHRA OVC050 FM290400 22005KT
                       P6SM -SHRA BKN040 OVC070=
202403281124 TAF KCLM 281124Z 2812/2912 22005KT P6SM VCSH BKN040 OVC060 FM281700
                       04003KT P6SM -SHRA BKN035 OVC050 FM290000
                       VRB03KT P6SM -RA OVC050 FM290400 22005KT
                       P6SM -SHRA BKN040 OVC070=
202403280520 TAF KCLM 280520Z 2806/2906 22003KT P6SM FEW060 FM281200 22005KT
                       P6SM -SHRA OVC035 FM281800 04003KT P6SM
                       -SHRA OVC050 FM290000 VRB03KT P6SM -RA OVC050=
202403272335 TAF KCLM 272335Z 2800/2824 VRB03KT P6SM -SHRA BKN050 FM280600 22003KT
                       P6SM -SHRA OVC035 FM281800 04003KT P6SM
                       -SHRA OVC050=
202403271732 TAF KCLM 271732Z 2718/2818 26003KT P6SM -SHRA OVC050 FM272200 12003KT
                       P6SM -SHRA BKN050 FM280600 VRB03KT P6SM
                       -SHRA OVC035=
202403271720 TAF KCLM 271720Z 2718/2818 26003KT P6SM -SHRA OVC050 FM272200 12003KT
                       P6SM -SHRA BKN050 FM280600 VRB03KT P6SM
                       -SHRA OVC035=
202403271127 TAF KCLM 271127Z 2712/2812 VRB03KT P6SM -RA FEW020 OVC060 FM271600
                       30003KT P6SM -SHRA OVC025 FM272200 12003KT
                       P6SM -SHRA BKN050 FM280600 VRB03KT P6SM
                       -SHRA OVC035=
202403270520 TAF KCLM 270520Z 2706/2806 VRB05KT P6SM SKC FM271100 VRB03KT P6SM
                       -RA SCT025 OVC035 FM271600 30003KT P6SM
                       OVC025
                      PROB30 2716/2722 -RA FM272200 23003KT P6SM
                       OVC030
                      PROB30 2722/2724 -SHRA=
202403262334 TAF KCLM 262334Z 2700/2724 VRB05KT P6SM FEW020 BKN035 OVC040 FM271100
                       VRB03KT P6SM -RA SCT025 OVC035 FM271600
                       30003KT P6SM OVC025
                      PROB30 2716/2722 -RA FM272200 23003KT P6SM
                       OVC030
                      PROB30 2722/2724 -SHRA=
202403261723 TAF KCLM 261723Z 2618/2718 27008KT P6SM SCT050 FM270200 VRB03KT
                       P6SM OVC070 FM271100 23004KT P6SM SCT025
                       OVC035
                      PROB30 2711/2717 -RA=
202403261124 TAF KCLM 261124Z 2612/2712 26006KT P6SM VCSH SCT030 BKN050 FM261600
                       27008KT P6SM SCT025 BKN070 FM262200 32006KT
                       P6SM SCT050 FM270600 12005KT P6SM BKN100
                       FM270900 24003KT P6SM VCSH OVC050=
202403260547 TAF KCLM 260547Z 2606/2706 25007KT P6SM BKN020 OVC030 FM260900
                       25008KT P6SM VCSH FEW005 OVC030 FM261600
                       27008KT P6SM SCT025 BKN035 FM262200 32006KT
                       P6SM SCT050=
202403260251 KCLM 260251Z 2603/2624 VRB04KT 2SM BR BKN040 OVC050 FM260600 25007KT
                       P6SM VCSH FEW005 BKN025 FM261600 27008KT
                       P6SM SCT025 BKN035 FM262200 32006KT P6SM
                       SCT050=
202403252323 TAF KCLM 252323Z 2600/2624 VRB04KT P6SM VCSH OVC020 FM260600 25007KT
                       P6SM VCSH FEW005 BKN025 FM261600 27008KT
                       P6SM SCT025 BKN035 FM262200 32006KT P6SM
                       SCT050=
202403251724 TAF KCLM 251724Z 2518/2618 30005KT P6SM BKN060 OVC080 FM260000
                       30004KT P6SM VCSH OVC025 FM260600 25007KT
                       P6SM VCSH FEW005 OVC025 FM261600 27008KT
                       P6SM SCT025 BKN035=
202403251122 TAF KCLM 251122Z 2512/2612 27007KT P6SM BKN025 OVC030 FM252100
                       30004KT P6SM VCSH OVC025 FM260600 25006KT
                       P6SM OVC025=
202403250527 TAF KCLM 250527Z 2506/2606 27007KT P6SM FEW025 BKN030 FM250700
                       26006KT P6SM OVC025 FM251200 25007KT P6SM
                       OVC035 FM252100 30004KT P6SM VCSH OVC025=
202403242323 TAF KCLM 242323Z 2500/2524 04004KT P6SM FEW025 FM250200 26007KT
                       P6SM SCT025 BKN100 FM250700 26009KT P6SM
                       OVC025 FM251500 25004KT P6SM OVC030 FM252100
                       30005KT P6SM VCSH OVC025=
202403241726 TAF KCLM 241726Z 2418/2518 VRB04KT P6SM SCT010 FM242200 06004KT
                       P6SM SCT050 FM250200 26007KT P6SM OVC035
                       FM250600 26009KT P6SM OVC025 FM251500 25004KT
                       P6SM OVC025=
202403241122 TAF KCLM 241122Z 2412/2512 24004KT P6SM OVC035 FM241800 03004KT
                       P6SM BKN050 FM242200 06004KT P6SM OVC050
                       FM250200 26003KT P6SM OVC035 FM250600 26008KT
                       P6SM OVC025=
202403240520 TAF KCLM 240520Z 2406/2506 24004KT P6SM OVC035 FM241800 03004KT
                       P6SM BKN050 FM242200 06004KT P6SM OVC050
                       FM250200 26003KT P6SM OVC035=
202403232320 TAF KCLM 232320Z 2400/2424 00000KT 6SM -SHRA FEW015 SCT030 OVC045
                       FM240300 00000KT 5SM BR OVC019 FM240600
                       24004KT P6SM OVC035 FM241800 03004KT P6SM
                       BKN050=
202403231908 KCLM 231908Z 2319/2418 08004KT 3SM -RA BKN004 BKN008 OVC015 FM232100
                       07005KT 6SM BR VCSH BKN025 OVC040 FM240300
                       25004KT P6SM OVC025=
202403231739 TAF KCLM 231739Z 2318/2418 24006KT P6SM -SHRA FEW040 OVC060 FM232100
                       07005KT 6SM BR VCSH BKN025 OVC040 FM240300
                       25004KT P6SM OVC025=
202403231123 TAF KCLM 231123Z 2312/2412 VRB03KT 5SM BR VCSH SCT010 OVC022
                      TEMPO 2312/2316 3SM BR BKN007 OVC015 FM231600
                       VRB04KT 5SM -SHRA BR BKN017 OVC025 FM232100
                       07005KT 6SM BR VCSH BKN025 OVC040 FM240300
                       25004KT P6SM OVC025=
202403230520 TAF KCLM 230520Z 2306/2406 VRB03KT P6SM -SHRA OVC010 FM231100 23003KT
                       P6SM -RA OVC007 FM231800 03006KT 4SM -RA
                       OVC010 FM232300 07006KT 6SM BR VCSH OVC020
                       FM240200 23004KT P6SM OVC025=
202403222321 TAF KCLM 222321Z 2300/2324 10004KT P6SM -SHRA BKN015 OVC020 FM230400
                       20003KT P6SM -SHRA OVC020 FM231100 23003KT
                       P6SM -RA OVC015 FM231800 30006KT 6SM -RA
                       OVC010=
202403221728 TAF KCLM 221728Z 2218/2318 08004KT 6SM BR OVC009 FM221900 08004KT
                       P6SM -SHRA OVC020 FM230000 10004KT P6SM
                       -SHRA OVC030 FM230300 VRB03KT P6SM -SHRA
                       OVC030 FM231000 23003KT P6SM -RA OVC025=
202403221335 KCLM 221335Z 2214/2312 VRB03KT P6SM OVC005 FM221800 08004KT P6SM
                       SCT020 OVC040 FM230000 10004KT P6SM -SHRA
                       OVC030 FM230300 VRB03KT P6SM -SHRA OVC030
                       FM230900 23003KT P6SM -RA OVC025=
202403221120 TAF KCLM 221120Z 2212/2312 VRB03KT P6SM OVC050 FM221800 08004KT
                       P6SM SCT020 OVC040 FM230000 10004KT P6SM
                       -SHRA OVC030 FM230300 VRB03KT P6SM -SHRA
                       OVC030 FM230900 23003KT P6SM -RA OVC025=
202403220520 TAF KCLM 220520Z 2206/2306 VRB03KT P6SM VCSH SCT025 OVC050 FM220800
                       VRB03KT P6SM OVC025 FM221300 22004KT P6SM
                       -SHRA OVC015 FM221700 08004KT P6SM SCT020
                       OVC040 FM230000 10004KT P6SM -SHRA OVC030
                       FM230300 VRB03KT P6SM -SHRA OVC030=
202403212329 TAF KCLM 212329Z 2200/2224 06004KT P6SM VCSH SCT035 OVC050 FM220600
                       23003KT P6SM VCSH OVC050 FM221300 22004KT
                       P6SM -SHRA OVC025 FM221700 06004KT P6SM
                       OVC040=
202403211720 TAF KCLM 211720Z 2118/2218 05003KT P6SM BKN045 FM212200 06004KT
                       P6SM BKN050 FM220700 23003KT P6SM -SHRA
                       OVC040 FM221300 22004KT P6SM -SHRA OVC025=
202403211138 TAF KCLM 211138Z 2112/2212 24004KT P6SM OVC050 FM211800 05003KT
                       P6SM BKN035 FM220700 23003KT P6SM -SHRA
                       OVC050=
202403210520 TAF KCLM 210520Z 2106/2206 VRB04KT P6SM SCT040 OVC050 FM210800
                       25004KT P6SM VCSH SCT007 BKN020 OVC040 FM211200
                       24004KT P6SM OVC015 FM212000 VRB02KT P6SM
                       VCSH SCT010 OVC030=
202403202320 TAF KCLM 202320Z 2100/2124 VRB04KT P6SM OVC035 FM210300 25004KT
                       P6SM VCSH SCT007 BKN020 OVC040 FM211200
                       24004KT P6SM OVC015 FM212000 08004KT P6SM
                       SCT010 OVC030=
202403201720 TAF KCLM 201720Z 2018/2118 VRB04KT P6SM OVC025 FM210300 25004KT
                       P6SM VCSH SCT007 BKN020 OVC040 FM211200
                       24004KT P6SM OVC015=
202403201139 TAF KCLM 201139Z 2012/2112 29006KT P6SM OVC015 FM201800 34005KT
                       P6SM SCT008 BKN015 OVC040 FM210300 25004KT
                       P6SM VCSH SCT007 BKN020 OVC040=
202403200521 KCLM 200521Z 2005/2106 27009KT P6SM OVC015 FM201800 34005KT P6SM
                       SCT008 BKN015 OVC040 FM210300 25004KT P6SM
                       VCSH SCT007 BKN020 OVC040=
202403200520 TAF KCLM 200520Z 2006/2106 27009KT P6SM SCT015 FM201800 34005KT
                       P6SM SCT008 BKN015 OVC040 FM210300 25004KT
                       P6SM VCSH SCT007 BKN020 OVC040=
202403192320 TAF KCLM 192320Z 2000/2024 VRB05KT P6SM FEW250 FM200100 27006KT
                       P6SM BKN250 FM200700 27005KT P6SM SCT015
                       OVC020 FM201800 02005KT P6SM SCT025 BKN040
                       OVC050=
202403191720 TAF KCLM 191720Z 1918/2018 09005KT P6SM FEW250 FM200100 27006KT
                       P6SM BKN150 FM201000 27005KT P6SM BKN007
                       OVC015=
202403191122 TAF KCLM 191122Z 1912/2012 VRB03KT P6SM FEW250 FM200300 27006KT
                       P6SM BKN150 FM200900 27005KT P6SM OVC002=
202403190520 TAF KCLM 190520Z 1906/2006 VRB05KT P6SM FEW250 FM200300 27006KT
                       P6SM BKN150=
202403182322 TAF KCLM 182322Z 1900/1924 VRB05KT P6SM FEW250=
202403181742 TAF KCLM 181742Z 1818/1918 09005KT P6SM SKC FM190100 22006KT P6SM
                       SKC FM191000 VRB03KT 4SM BR BKN004=
202403181136 TAF KCLM 181136Z 1812/1912 24004KT 1/2SM FG VV001 FM181500 VRB04KT
                       4SM BR BKN004 FM181600 08006KT P6SM SKC
                       FM190100 24006KT P6SM SKC FM191000 VRB03KT
                       4SM BR BKN004=
202403180538 TAF KCLM 180538Z 1806/1906 29006KT P6SM SKC FM181300 VRB04KT 4SM
                       BR BKN004 FM181600 08006KT P6SM FEW250 FM190100
                       24006KT P6SM FEW250=
202403172320 TAF KCLM 172320Z 1800/1824 27006KT P6SM SKC FM180900 VRB04KT 4SM
                       BR BKN008 FM181800 08006KT P6SM FEW250=
202403171746 TAF KCLM 171746Z 1718/1818 VRB03KT P6SM SKC FM172100 26006KT P6SM
                       SKC FM181000 VRB03KT P6SM SCT010 FM181300
                       VRB04KT 4SM BR BKN008 FM181700 08004KT P6SM
                       SKC=
202403171126 TAF KCLM 171126Z 1712/1812 VRB03KT P6SM SKC FM172100 26006KT P6SM
                       SKC=
202403170539 TAF KCLM 170539Z 1706/1806 24006KT P6SM SKC FM171900 30007KT P6SM
                       SKC=
202403162320 TAF KCLM 162320Z 1700/1724 08004KT P6SM FEW250 FM170300 24006KT
                       P6SM SKC FM171900 30007KT P6SM SKC=
202403161753 TAF KCLM 161753Z 1618/1718 08004KT P6SM SKC FM170300 24006KT P6SM
                       SKC FM171000 10005KT P6SM SKC=
202403161136 TAF KCLM 161136Z 1612/1712 VRB04KT P6SM SKC FM170000 24006KT P6SM
                       SKC=
202403160520 TAF KCLM 160520Z 1606/1706 VRB04KT P6SM SKC=
202403160054 KCLM 160054Z 1601/1624 09005KT P6SM FEW250 FM160200 VRB03KT P6SM
                       SKC=
202403151740 TAF KCLM 151740Z 1518/1618 11005KT P6SM SCT250 FM160200 VRB03KT
                       P6SM SKC=
202403151141 TAF KCLM 151141Z 1512/1612 VRB03KT P6SM SCT250 FM151800 09006KT
                       P6SM SCT250 FM160200 VRB03KT P6SM SKC=
202403150530 TAF KCLM 150530Z 1506/1606 VRB03KT P6SM SCT250 FM151800 09006KT
                       P6SM SCT250 FM160200 12005KT P6SM FEW250=
202403142320 TAF KCLM 142320Z 1500/1524 08006KT P6SM BKN250 FM150300 14003KT
                       P6SM SCT250 FM151800 09004KT P6SM SCT250=
202403141739 TAF KCLM 141739Z 1418/1518 VRB03KT P6SM OVC015 FM141900 07005KT
                       P6SM SCT250 FM150300 12003KT P6SM FEW250=
202403141120 TAF KCLM 141120Z 1412/1512 VRB03KT P6SM SCT250 FM141800 08006KT
                       P6SM SCT250 FM150300 VRB02KT P6SM FEW250=
202403140520 TAF KCLM 140520Z 1406/1506 24004KT P6SM SCT250 FM141200 VRB03KT
                       P6SM SCT050 SCT250 FM141800 07006KT P6SM
                       SCT250 FM150300 VRB04KT P6SM SCT250=
202403132320 TAF KCLM 132320Z 1400/1424 VRB03KT P6SM SCT050 BKN100 FM140300
                       25003KT P6SM BKN100 BKN200 FM140700 24004KT
                       P6SM BKN200 FM141200 VRB03KT P6SM BKN100
                       OVC250 FM141800 07006KT P6SM SCT100 SCT250=
202403131729 TAF KCLM 131729Z 1318/1418 24005KT P6SM BKN060 FM132100 06005KT
                       P6SM BKN050 BKN100 FM140200 25003KT P6SM
                       BKN100 BKN200 FM140700 24004KT P6SM BKN200=
202403131120 TAF KCLM 131120Z 1312/1412 24005KT P6SM BKN050 FM132100 06005KT
                       P6SM BKN050 BKN100 FM140200 25003KT P6SM
                       BKN100 BKN200 FM140700 24004KT P6SM BKN200=
202403130523 TAF KCLM 130523Z 1306/1406 26008KT P6SM BKN050 FM131200 24005KT
                       P6SM BKN040 FM132200 04005KT P6SM FEW030
                       BKN050 FM140300 25003KT P6SM FEW030 BKN100=
202403122330 TAF KCLM 122330Z 1300/1324 29010G20KT P6SM FEW040 BKN060 FM130400
                       26010KT P6SM BKN050 FM131800 04003KT P6SM
                       BKN050=
202403121732 TAF KCLM 121732Z 1218/1318 27010G20KT P6SM -RA BKN040 OVC050 FM122100
                       27011KT P6SM VCSH SCT025 BKN050 FM130400
                       26008KT P6SM BKN050 FM131400 23004KT P6SM
                       OVC050=
202403121124 TAF KCLM 121124Z 1212/1312 27006KT P6SM -SHRA OVC040 FM122100 27011KT
                       P6SM VCSH SCT025 BKN050 FM130400 26008KT
                       P6SM BKN050=
202403120521 TAF KCLM 120521Z 1206/1306 22005KT P6SM -SHRA BKN045 BKN070 FM120900
                       26008KT P6SM -SHRA FEW010 OVC035 FM130000
                       27012KT P6SM VCSH FEW015 BKN080=
202403112324 TAF KCLM 112324Z 1200/1224 VRB04KT P6SM VCSH OVC045 FM120700 26006KT
                       P6SM -SHRA OVC035 FM121200 27010KT P6SM
                       -SHRA BKN080=
202403111739 TAF KCLM 111739Z 1118/1218 VRB06KT P6SM VCSH FEW020 OVC050 FM111900
                       10005KT P6SM -RA OVC035 FM112200 VRB04KT
                       P6SM -RA OVC025 FM120700 26006KT P6SM -SHRA
                       BKN020 OVC030 FM121200 27010KT P6SM VCSH
                       BKN060=
202403111322 KCLM 111322Z 1113/1212 VRB04KT P6SM VCSH BKN015 BKN035 FM111500
                       24005KT P6SM VCSH BKN022 OVC040 FM111900
                       09004KT P6SM -RA OVC035 FM112200 VRB04KT
                       P6SM -RA OVC025 FM120700 26006KT P6SM -SHRA
                       BKN020 OVC030=
202403111130 TAF KCLM 111130Z 1112/1212 VRB04KT P6SM VCSH BKN035 FM111500 24005KT
                       P6SM VCSH OVC040 FM111900 09004KT P6SM -RA
                       OVC035 FM112200 VRB04KT P6SM -RA OVC025
                       FM120700 26006KT P6SM -SHRA BKN020 OVC030=
202403110526 TAF KCLM 110526Z 1106/1206 26013KT P6SM VCSH BKN035 FM110900 25006KT
                       P6SM OVC050 FM111500 24005KT P6SM -SHRA
                       OVC050 FM111900 04003KT P6SM -SHRA OVC040=
202403110001 TAF KCLM 110001Z 1100/1124 24010KT P6SM -SHRA BKN040 OVC060 FM110400
                       26008KT P6SM VCSH OVC035 FM110800 25006KT
                       P6SM OVC050 FM111500 24005KT P6SM -SHRA
                       OVC050=
202403102116 KCLM 102116Z 1021/1118 26005KT P6SM -SHRA SCT035 OVC060 FM110400
                       26008KT P6SM VCSH OVC035 FM110800 25006KT
                       P6SM OVC050 FM111500 15010KT P6SM OVC050=
202403101720 TAF KCLM 101720Z 1018/1118 27004KT P6SM -RA BKN015 OVC025 FM102100
                       30004KT 6SM -SHRA OVC025 FM110400 26008KT
                       P6SM VCSH OVC035=
202403101122 TAF KCLM 101122Z 1012/1112 22005KT P6SM -RA OVC050 FM101500 27004KT
                       P6SM -RA OVC030 FM102100 30004KT 6SM -SHRA
                       OVC025 FM110400 26008KT P6SM VCSH OVC035=
202403100526 TAF KCLM 100526Z 1006/1106 22005KT P6SM -RA OVC050 FM101500 24004KT
                       P6SM -RA OVC030 FM102100 01004KT 4SM -RA
                       OVC025 FM110400 26008KT P6SM -SHRA OVC040=
202403092320 TAF KCLM 092320Z 1000/1024 26011KT P6SM -SHRA BKN035 OVC050 FM100600
                       14005KT P6SM -RA OVC030 FM101900 04003KT
                       P6SM -RA OVC050 FM102100 01004KT 4SM -RA
                       OVC025=
202403091720 TAF KCLM 091720Z 0918/1018 VRB04KT P6SM -RA SCT040 OVC080 FM092000
                       26011KT P6SM -SHRA BKN035 OVC050 FM100600
                       14005KT P6SM -RA OVC030=
202403091129 TAF KCLM 091129Z 0912/1012 VRB04KT P6SM -RA SCT008 OVC040
                      TEMPO 0912/0916 BKN008 FM091700 28006KT P6SM
                       -RA OVC025 FM092300 26009KT P6SM -SHRA OVC035
                       FM100600 14005KT P6SM -RA OVC030=
202403090538 TAF KCLM 090538Z 0906/1006 23004KT P6SM BKN009 OVC015 FM090900
                       16002KT P6SM OVC060 FM091200 22007KT P6SM
                       -RA OVC050 FM092000 25010G20KT P6SM -SHRA
                       OVC050=
202403082320 TAF KCLM 082320Z 0900/0924 VRB03KT P6SM OVC050 FM090200 23004KT
                       P6SM OVC070 FM090900 16002KT P6SM OVC060
                       FM091200 22003KT P6SM -RA OVC050=
202403081723 TAF KCLM 081723Z 0818/0918 VRB03KT P6SM VCSH OVC040 FM082000 VRB04KT
                       P6SM OVC050 FM090200 23004KT P6SM OVC070
                       FM091200 22003KT P6SM -RA OVC050=
202403081120 TAF KCLM 081120Z 0812/0912 19002KT P6SM VCSH OVC060 FM081500 00000KT
                       P6SM -RA OVC040 FM082000 VRB04KT P6SM OVC050
                       FM090200 23004KT P6SM OVC070=
202403080520 TAF KCLM 080520Z 0806/0906 VRB03KT P6SM SCT110 FM081200 19002KT
                       P6SM -RA OVC050 FM081600 00000KT P6SM -RA
                       OVC020 FM082000 VRB04KT P6SM OVC050=
202403072320 TAF KCLM 072320Z 0800/0824 08004KT P6SM SKC FM080400 22004KT P6SM
                       OVC070 FM081200 19002KT P6SM -RA OVC050=
202403071720 TAF KCLM 071720Z 0718/0818 05004KT P6SM BKN250 FM080000 08004KT
                       P6SM OVC100 FM080400 22004KT P6SM OVC070
                       FM081200 19002KT P6SM -RA OVC050=
202403071122 TAF KCLM 071122Z 0712/0812 22004KT P6SM OVC060 FM071800 05004KT
                       P6SM OVC050 FM080000 08004KT P6SM OVC100
                       FM080400 22004KT P6SM OVC070=
202403070520 TAF KCLM 070520Z 0706/0806 20003KT P6SM OVC060 FM071800 05004KT
                       P6SM OVC050 FM080000 08004KT P6SM OVC050=
202403062329 TAF KCLM 062329Z 0700/0724 08005KT P6SM OVC060 FM070200 20003KT
                       P6SM BKN060 FM071800 05004KT P6SM OVC050=
202403061733 TAF KCLM 061733Z 0618/0718 29004KT P6SM VCSH SCT015 OVC050 FM062100
                       VRB05KT P6SM BKN060 FM070200 21003KT P6SM
                       BKN060=
202403061120 TAF KCLM 061120Z 0612/0712 26006KT P6SM OVC060 FM061700 02003KT
                       P6SM SCT060 BKN120 FM070000 23004KT P6SM
                       BKN060=
202403060535 TAF KCLM 060535Z 0606/0706 26006KT P6SM BKN050 FM061700 VRB03KT
                       P6SM SCT060 BKN120=
202403052342 TAF KCLM 052342Z 0600/0624 VRB03KT P6SM SCT040 FM060200 26006KT
                       P6SM SCT040 FM061700 VRB03KT P6SM BKN120=
202403052205 KCLM 052205Z 0522/0618 VRB03KT P6SM OVC025 FM060200 24004KT P6SM
                       SCT040 BKN200 FM061500 VRB03KT P6SM BKN035=
202403051744 TAF KCLM 051744Z 0518/0618 00000KT P6SM OVC025 FM052200 24004KT
                       P6SM BKN200=
202403051124 TAF KCLM 051124Z 0512/0612 VRB05KT P6SM OVC020 FM051800 24004KT
                       P6SM SCT015 OVC050 FM052200 24004KT P6SM
                       BKN200=
202403050539 TAF KCLM 050539Z 0506/0606 VRB03KT P6SM OVC010 FM051100 VRB03KT
                       P6SM SCT010 BKN020 OVC030 FM051800 24004KT
                       P6SM BKN050 FM052200 24004KT P6SM BKN200=
202403042332 TAF KCLM 042332Z 0500/0524 11005KT P6SM VCSH SCT029 SCT035 OVC045
                       FM050300 VRB03KT P6SM OVC030 FM051300 24004KT
                       P6SM OVC030 FM051800 VRB03KT P6SM BKN050=
202403041729 TAF KCLM 041729Z 0418/0518 24009KT P6SM FEW050 SCT200 FM042300
                       35004KT P6SM -SHSNRA OVC050 FM050700 24005KT
                       P6SM OVC050=
202403041127 TAF KCLM 041127Z 0412/0512 23012KT P6SM VCSH SCT040 OVC050 FM041700
                       26010KT P6SM BKN050 FM042300 35004KT P6SM
                       -SHSNRA OVC050 FM050700 24005KT P6SM OVC050=
202403040911 KCLM 040911Z 0409/0506 24008KT P6SM SCT025 OVC060 FM041100 26006KT
                       P6SM SCT015 BKN025 OVC040 FM041700 26010KT
                       P6SM BKN050=
202403040539 TAF KCLM 040539Z 0406/0506 26006KT P6SM SCT025 OVC060
                      TEMPO 0407/0411 -SHRA BKN025 OVC060 FM041100
                       26006KT P6SM SCT015 BKN025 OVC040 FM041700
                       26010KT P6SM BKN050=
202403032331 TAF KCLM 032331Z 0400/0424 30005KT P6SM VCSH FEW027 BKN040 OVC050
                       FM040600 26006KT P6SM OVC025 FM040900 26008KT
                       P6SM OVC015 FM041500 26011KT P6SM BKN050=
202403031733 TAF KCLM 031733Z 0318/0418 22005KT P6SM SCT070 OVC100 FM032100
                       VRB04KT P6SM OVC050 FM040300 26006KT P6SM
                       OVC025=
202403031139 TAF KCLM 031139Z 0312/0412 15003KT P6SM VCSH SCT060 OVC080 FM031900
                       02004KT P6SM OVC050 FM040300 23003KT P6SM
                       -SHRA OVC025=
202403030541 TAF KCLM 030541Z 0306/0406 24006KT P6SM SCT030 OVC050
                      TEMPO 0310/0314 -SHRA BKN030 OVC050=
202403022323 TAF KCLM 022323Z 0300/0324 VRB04KT P6SM VCSH SCT060 BKN120 FM031200
                       22004KT P6SM OVC050 FM031800 VRB04KT P6SM
                       OVC050=
202403021734 TAF KCLM 021734Z 0218/0318 26006KT P6SM VCSH FEW050 BKN060 FM031200
                       23004KT P6SM OVC050=
202403021120 TAF KCLM 021120Z 0212/0312 22004KT P6SM OVC025 FM021300 24005KT
                       P6SM OVC060 FM021800 VRB04KT P6SM VCSH BKN100=
202403020535 TAF KCLM 020535Z 0206/0306 22005KT P6SM SCT100 FM020900 13005KT
                       P6SM VCSH OVC050 FM021300 24005KT P6SM OVC060
                       FM021800 VRB04KT P6SM VCSH BKN100=
202403012323 TAF KCLM 012323Z 0200/0224 28005KT P6SM FEW060 SCT080 FM020600
                       23004KT P6SM OVC060 FM021600 24005KT P6SM
                       OVC100=
202403011720 TAF KCLM 011720Z 0118/0218 00000KT P6SM SCT020 FM012100 VRB04KT
                       P6SM VCSH OVC040 FM020000 20003KT P6SM OVC100
                       FM020600 23004KT P6SM OVC060=
202403011133 TAF KCLM 011133Z 0112/0212 00000KT P6SM -SHRASN SCT020 BKN060 FM011800
                       22004KT P6SM -SHRA OVC040 FM020000 20003KT
                       P6SM OVC100=
202403010521 TAF KCLM 010521Z 0106/0206 VRB03KT P6SM VCSH OVC015 FM011200 24006KT
                       6SM -SHSN OVC030 FM011800 22004KT P6SM -SHRA
                       OVC040 FM020000 20003KT P6SM OVC100=