##########################################################
# Query made at 02/16/2025 06:19:10 UTC
# Time interval: from 09/01/2024 00:00  to 09/30/2024 23:59  UTC
##########################################################

##########################################################
# KCLM, Port Angeles, William R. Fairchild International Airport (United States)
# WMO index: -----. WIGOS ID: Unknown
# Latitude 48-07-20N. Longitude 123-30-19W. Altitude 87 m.
##########################################################

###################################
#  METAR/SPECI from KCLM
###################################
202409302353 METAR KCLM 302353Z AUTO 10006KT 10SM CLR 15/06 A3036 RMK AO2 SLP282 T01500061 10156 20111 58010=
202409302253 METAR KCLM 302253Z AUTO 08006KT 10SM OVC120 15/07 A3038 RMK AO2 SLP289 T01500067=
202409302153 METAR KCLM 302153Z AUTO VRB05KT 10SM CLR 14/07 A3039 RMK AO2 SLP293 T01440067=
202409302053 METAR KCLM 302053Z AUTO 10007KT 10SM CLR 14/07 A3039 RMK AO2 SLP293 T01390072 56020=
202409301953 METAR KCLM 301953Z AUTO 08007KT 10SM CLR 13/07 A3041 RMK AO2 SLP300 T01330072=
202409301853 METAR KCLM 301853Z AUTO 09007KT 10SM CLR 14/08 A3042 RMK AO2 SLP302 T01390083=
202409301825 SPECI KCLM 301825Z AUTO VRB05KT 10SM SCT003 13/08 A3044 RMK AO2 T01280083=
202409301753 METAR KCLM 301753Z AUTO 07005KT 10SM BKN004 12/09 A3045 RMK AO2 CIG 003V007 SLP313 T01170089 10122 20033 51004=
202409301740 SPECI KCLM 301740Z AUTO VRB03KT 10SM BKN004 11/08 A3045 RMK AO2 CIG 003V007 T01110083=
202409301719 SPECI KCLM 301719Z AUTO 02005KT 10SM FEW007 12/08 A3045 RMK AO2 T01170083=
202409301653 METAR KCLM 301653Z AUTO VRB04KT 10SM CLR 12/08 A3045 RMK AO2 SLP312 T01170078=
202409301626 SPECI KCLM 301626Z AUTO 06004KT 10SM SCT008 12/08 A3046 RMK AO2 T01170078=
202409301618 SPECI KCLM 301618Z AUTO VRB03KT 10SM BKN007 12/08 A3045 RMK AO2 T01170078=
202409301608 SPECI KCLM 301608Z AUTO 00000KT 10SM SCT007 12/07 A3046 RMK AO2 T01170067=
202409301553 METAR KCLM 301553Z AUTO 00000KT 10SM CLR 11/05 A3045 RMK AO2 SLP311 T01060050=
202409301453 METAR KCLM 301453Z AUTO 00000KT 10SM CLR 05/03 A3044 RMK AO2 SLP309 T00500033 50000=
202409301353 METAR KCLM 301353Z AUTO 00000KT 10SM CLR 04/02 A3045 RMK AO2 SLP313 T00390022=
202409301253 METAR KCLM 301253Z AUTO 00000KT 10SM CLR 04/02 A3044 RMK AO2 SLP311 T00440022 $=
202409301153 METAR KCLM 301153Z AUTO 22006KT 10SM CLR 07/03 A3044 RMK AO2 SLP309 T00670033 10100 20056 51006 $=
202409301053 METAR KCLM 301053Z AUTO 22005KT 10SM CLR 08/04 A3044 RMK AO2 SLP308 T00780039 $=
202409300953 METAR KCLM 300953Z AUTO 24006KT 10SM CLR 08/04 A3044 RMK AO2 SLP309 T00830039 $=
202409300853 METAR KCLM 300853Z AUTO 24005KT 10SM CLR 09/04 A3042 RMK AO2 SLP303 T00890044 50003 $=
202409300753 METAR KCLM 300753Z AUTO 24008KT 10SM CLR 09/05 A3043 RMK AO2 SLP304 T00940050 401720089 $=
202409300653 METAR KCLM 300653Z AUTO 25006KT 10SM CLR 10/06 A3042 RMK AO2 SLP302 T01000056 $=
202409300553 METAR KCLM 300553Z AUTO 27008KT 10SM CLR 09/06 A3041 RMK AO2 SLP298 T00890061 10150 20089 51016 $=
202409300453 METAR KCLM 300453Z AUTO 26007KT 10SM CLR 10/07 A3040 RMK AO2 SLP294 T01000072 $=
202409300353 METAR KCLM 300353Z AUTO 24007KT 10SM CLR 11/07 A3038 RMK AO2 SLP290 T01110067 $=
202409300253 METAR KCLM 300253Z AUTO 25007KT 10SM CLR 12/07 A3037 RMK AO2 SLP284 T01170067 53014 $=
202409300153 METAR KCLM 300153Z AUTO 27008KT 10SM CLR 13/07 A3034 RMK AO2 SLP276 T01280067 $=
202409300053 METAR KCLM 300053Z AUTO 27007KT 10SM CLR 14/06 A3033 RMK AO2 SLP271 T01440061 $=
202409292353 METAR KCLM 292353Z AUTO 30010KT 10SM CLR 15/06 A3032 RMK AO2 SLP269 T01500056 10172 20144 53011 $=
202409292253 METAR KCLM 292253Z AUTO 30010G19KT 10SM CLR 16/06 A3031 RMK AO2 SLP264 T01560061 $=
202409292153 METAR KCLM 292153Z AUTO 30011G19KT 10SM CLR 16/06 A3030 RMK AO2 SLP261 T01560061 $=
202409292053 METAR KCLM 292053Z AUTO 31010G17KT 10SM CLR 16/08 A3029 RMK AO2 SLP257 T01560078 51012 $=
202409291953 METAR KCLM 291953Z AUTO 30010G18KT 10SM CLR 17/06 A3028 RMK AO2 SLP253 T01670056 $=
202409291853 METAR KCLM 291853Z AUTO 30009G17KT 10SM CLR 16/05 A3027 RMK AO2 SLP250 T01560050 $=
202409291753 METAR KCLM 291753Z AUTO 27011G19KT 10SM CLR 16/04 A3025 RMK AO2 SLP245 T01610039 10161 20100 53021 $=
202409291653 METAR KCLM 291653Z AUTO 24009KT 10SM CLR 14/03 A3023 RMK AO2 SLP238 T01440028 $=
202409291553 METAR KCLM 291553Z AUTO 25009KT 10SM CLR 12/02 A3021 RMK AO2 SLP231 T01220022 $=
202409291453 METAR KCLM 291453Z AUTO 25009KT 10SM CLR 11/02 A3019 RMK AO2 SLP225 T01060017 53021 $=
202409291353 METAR KCLM 291353Z AUTO 24012KT 10SM CLR 10/02 A3017 RMK AO2 SLP216 T01000017 $=
202409291253 METAR KCLM 291253Z AUTO 23010KT 10SM CLR 10/02 A3015 RMK AO2 SLP212 T01000022 $=
202409291153 METAR KCLM 291153Z AUTO 26011KT 10SM CLR 12/03 A3013 RMK AO2 SLP203 T01170033 10133 20106 53017 $=
202409291053 METAR KCLM 291053Z AUTO 25010KT 10SM CLR 12/03 A3011 RMK AO2 SLP196 T01170033 $=
202409290953 METAR KCLM 290953Z AUTO 26009KT 10SM CLR 12/03 A3009 RMK AO2 SLP190 T01170028 $=
202409290853 METAR KCLM 290853Z AUTO 25011KT 10SM CLR 12/02 A3008 RMK AO2 SLP186 T01170017 51024 $=
202409290753 METAR KCLM 290753Z AUTO 24007KT 10SM CLR 12/02 A3007 RMK AO2 SLP181 T01170022 401670061 $=
202409290653 METAR KCLM 290653Z AUTO 29016G24KT 10SM CLR 13/02 A3004 RMK AO2 SLP171 T01280017 $=
202409290553 METAR KCLM 290553Z AUTO 27010KT 10SM SCT110 12/06 A3001 RMK AO2 SLP162 T01170056 10150 20111 53022 $=
202409290453 METAR KCLM 290453Z AUTO 26007G17KT 10SM CLR 12/06 A2998 RMK AO2 SLP151 T01220056 $=
202409290353 METAR KCLM 290353Z AUTO 21004KT 10SM BKN095 OVC120 12/08 A2996 RMK AO2 SLP144 T01170083 $=
202409290253 METAR KCLM 290253Z AUTO 27003KT 10SM BKN100 OVC120 12/08 A2994 RMK AO2 SLP140 T01220083 51014 $=
202409290153 METAR KCLM 290153Z AUTO 29007KT 10SM BKN037 OVC120 13/08 A2993 RMK AO2 SLP136 T01280078 $=
202409290053 METAR KCLM 290053Z AUTO 27004KT 10SM OVC110 13/08 A2993 RMK AO2 SLP134 T01280083 $=
202409282353 METAR KCLM 282353Z AUTO 00000KT 10SM BKN120 15/08 A2990 RMK AO2 SLP126 T01500083 10167 20133 56005 $=
202409282253 METAR KCLM 282253Z AUTO 00000KT 10SM CLR 14/09 A2991 RMK AO2 SLP128 T01390089 $=
202409282153 METAR KCLM 282153Z AUTO 35004KT 10SM CLR 14/08 A2990 RMK AO2 SLP126 T01440083 $=
202409282053 METAR KCLM 282053Z AUTO 35004KT 10SM CLR 16/07 A2992 RMK AO2 SLP132 T01560067 58008 $=
202409281953 METAR KCLM 281953Z AUTO 00000KT 10SM CLR 17/06 A2993 RMK AO2 SLP136 T01670061 $=
202409281853 METAR KCLM 281853Z AUTO 09005KT 10SM CLR 16/06 A2994 RMK AO2 SLP139 T01610061 $=
202409281753 METAR KCLM 281753Z AUTO 10007KT 10SM CLR 16/07 A2994 RMK AO2 SLP140 T01560072 10161 20072 58012 $=
202409281653 METAR KCLM 281653Z AUTO 11007KT 10SM CLR 16/08 A2996 RMK AO2 SLP144 T01560078 $=
202409281553 METAR KCLM 281553Z AUTO 13006KT 10SM CLR 14/08 A2997 RMK AO2 SLP149 T01390083 $=
202409281453 METAR KCLM 281453Z AUTO 12004KT 10SM CLR 11/08 A2998 RMK AO2 SLP152 T01060078 56014 $=
202409281353 METAR KCLM 281353Z AUTO 13003KT 10SM CLR 09/07 A2999 RMK AO2 SLP157 T00940067=
202409281253 METAR KCLM 281253Z AUTO 12003KT 10SM CLR 08/06 A3000 RMK AO2 SLP160 T00780056=
202409281153 METAR KCLM 281153Z AUTO 15004KT 10SM CLR 08/06 A3002 RMK AO2 SLP165 7//// T00780061 10089 20061 56018=
202409281053 METAR KCLM 281053Z AUTO 13005KT 10SM CLR 07/06 A3003 RMK AO2 SLP168 T00720056=
202409280953 METAR KCLM 280953Z AUTO 19003KT 10SM CLR 07/06 A3005 RMK AO2 SLP176 T00720061=
202409280853 METAR KCLM 280853Z AUTO 00000KT 10SM CLR 08/07 A3007 RMK AO2 SLP184 T00830067 57018=
202409280753 METAR KCLM 280753Z AUTO 00000KT 10SM CLR 08/07 A3009 RMK AO2 SLPNO T00830067 401830078=
202409280653 METAR KCLM 280653Z AUTO 00000KT 10SM CLR 08/06 A3011 RMK AO2 SLPNO T00780061=
202409280553 METAR KCLM 280553Z AUTO 22005KT 10SM CLR 09/07 A3013 RMK AO2 SLPNO T00890072 10172 20083 58015=
202409280453 METAR KCLM 280453Z AUTO 23006KT 10SM CLR 10/07 A3015 RMK AO2 SLP210 T01000072=
202409280353 METAR KCLM 280353Z AUTO 24005KT 10SM CLR 11/07 A3017 RMK AO2 SLPNO T01060067=
202409280253 METAR KCLM 280253Z AUTO 25007KT 10SM CLR 12/06 A3017 RMK AO2 SLP217 T01220056 56004=
202409280153 METAR KCLM 280153Z AUTO 27005KT 10SM OVC046 14/07 A3017 RMK AO2 SLP217 T01390067=
202409280053 METAR KCLM 280053Z AUTO 29010KT 10SM BKN042 15/08 A3018 RMK AO2 SLP218 T01500083=
202409272353 METAR KCLM 272353Z AUTO 30006KT 10SM CLR 17/08 A3018 RMK AO2 SLP221 T01720078 58011=
202409272253 METAR KCLM 272253Z AUTO 30005KT 10SM BKN043 17/07 A3019 RMK AO2 SLP224 T01720067=
202409272153 METAR KCLM 272153Z AUTO 29007KT 10SM OVC046 17/08 A3021 RMK AO2 SLP229 T01670083=
202409272053 METAR KCLM 272053Z AUTO 29011KT 10SM OVC048 16/09 A3022 RMK AO2 SLP232 T01610089=
202409271953 METAR KCLM 271953Z AUTO A3022 RMK AO2 SLPNO PWINO=
202409271853 METAR KCLM 271853Z AUTO A3021 RMK AO2 SLPNO PWINO=
202409271753 METAR KCLM 271753Z AUTO A3020 RMK AO2 SLPNO 6//// 51020 PWINO $=
202409271653 METAR KCLM 271653Z AUTO 27006KT CLR 16/11 A3019 RMK AO2 SLP223 T01610111 PWINO $=
202409271553 METAR KCLM 271553Z AUTO A3017 RMK AO2 SLPNO PWINO PNO $=
202409271453 METAR KCLM 271453Z AUTO 24004KT 10SM OVC039 14/11 A3015 RMK AO2 RAB15E26 SLP208 P0000 60000 T01390111 53028=
202409271353 METAR KCLM 271353Z AUTO 17004KT 10SM BKN045 BKN055 OVC070 14/11 A3011 RMK AO2 SLP197 T01390111=
202409271253 METAR KCLM 271253Z AUTO VRB03KT 10SM OVC070 14/11 A3009 RMK AO2 SLP190 T01440111=
202409271153 METAR KCLM 271153Z AUTO 27006KT 10SM FEW048 OVC060 15/11 A3006 RMK AO2 SLP180 70014 T01500111 10156 20111 51030=
202409271053 METAR KCLM 271053Z AUTO 00000KT 10SM BKN041 BKN050 BKN060 15/12 A3003 RMK AO2 SLP170 T01500117=
202409270953 METAR KCLM 270953Z AUTO 17007KT 10SM BKN041 OVC050 14/12 A3001 RMK AO2 SLP161 T01440117=
202409270853 METAR KCLM 270853Z AUTO 20003KT 10SM FEW014 BKN055 OVC070 13/11 A2997 RMK AO2 SLP149 T01330111 53009=
202409270850 SPECI KCLM 270850Z AUTO VRB04KT 10SM SCT014 BKN041 BKN060 13/11 A2997 RMK AO2=
202409270753 METAR KCLM 270753Z AUTO 12008KT 10SM BKN013 OVC070 12/11 A2995 RMK AO2 SLP141 T01170106 401500067=
202409270749 SPECI KCLM 270749Z AUTO 12006KT 10SM BKN014 BKN065 12/11 A2994 RMK AO2=
202409270653 METAR KCLM 270653Z AUTO 33006KT 6SM BR CLR 11/10 A2990 RMK AO2 SLP125 T01110100=
202409270648 SPECI KCLM 270648Z AUTO 00000KT 2 1/2SM BR FEW001 FEW065 11/10 A2989 RMK AO2=
202409270639 SPECI KCLM 270639Z AUTO 00000KT 1 3/4SM BR FEW010 FEW065 12/11 A2989 RMK AO2 T01170106=
202409270553 METAR KCLM 270553Z AUTO 22007KT 10SM BKN060 12/11 A2988 RMK AO2 SLP119 60006 T01170106 10128 20106 53015=
202409270545 SPECI KCLM 270545Z AUTO 23006KT 3SM BR BKN065 11/10 A2987 RMK AO2 T01110100=
202409270536 SPECI KCLM 270536Z AUTO 00000KT 1 1/2SM BR FEW065 11/10 A2987 RMK AO2 VIS 3/4V5 T01060100=
202409270453 METAR KCLM 270453Z AUTO 00000KT 9SM BKN060 12/11 A2987 RMK AO2 SLP114 T01170106=
202409270353 METAR KCLM 270353Z AUTO 00000KT 6SM BR FEW010 SCT049 OVC065 11/10 A2984 RMK AO2 SLP106 T01110100=
202409270253 METAR KCLM 270253Z AUTO 00000KT 10SM FEW012 BKN060 12/M03 A2984 RMK AO2 RAB06E17 SLP104 P0000 60006 T01171028 56010=
202409270217 SPECI KCLM 270217Z AUTO 00000KT 10SM BKN010 OVC060 12/M04 A2983 RMK AO2 RAB06E17 P0000 T01221039=
202409270208 SPECI KCLM 270208Z AUTO 16004KT 10SM -RA BKN009 OVC060 12/M03 A2983 RMK AO2 RAB06 P0000 T01221033=
202409270153 METAR KCLM 270153Z AUTO 25004KT 10SM FEW007 SCT060 12/M03 A2984 RMK AO2 SLP105 T01171028=
202409270053 METAR KCLM 270053Z AUTO 00000KT 10SM SCT007 BKN043 BKN075 12/M03 A2983 RMK AO2 RAE47 SLP102 P0006 T01221033=
202409270038 SPECI KCLM 270038Z AUTO 29004KT 4SM -RA FEW005 BKN041 OVC065 13/M03 A2985 RMK AO2 P0006 T01281033=
202409270021 SPECI KCLM 270021Z AUTO 29005KT 2 1/2SM -RA SCT050 BKN070 OVC080 12/M03 A2986 RMK AO2 VIS 2V3 P0005 T01221028=
202409270009 SPECI KCLM 270009Z AUTO 30005KT 4SM -RA SCT009 BKN070 OVC080 13/M03 A2987 RMK AO2 P0002 T01281033=
202409270001 SPECI KCLM 270001Z AUTO 00000KT 4SM -RA BKN009 BKN070 OVC080 13/M03 A2986 RMK AO2 P0001 T01281033=
202409262353 METAR KCLM 262353Z AUTO 27004KT 2 1/2SM -RA BKN009 BKN014 OVC075 13/M03 A2987 RMK AO2 RAB04 SLP115 P0005 60008 T01281033 10150 20122 55007=
202409262351 SPECI KCLM 262351Z AUTO 27004KT 2SM RA BKN009 BKN014 OVC090 13/M03 A2987 RMK AO2 RAB04 P0005=
202409262341 SPECI KCLM 262341Z AUTO 29004KT 5SM -RA BKN009 BKN070 OVC090 13/M03 A2987 RMK AO2 RAB04 CIG 005V018 P0002 T01281033=
202409262329 SPECI KCLM 262329Z AUTO 30004KT 6SM -RA SCT008 BKN070 OVC110 13/M04 A2987 RMK AO2 RAB04 P0000 T01281039=
202409262253 METAR KCLM 262253Z AUTO 29003KT 8SM SCT070 OVC100 13/M04 A2986 RMK AO2 RAE32 SLP113 P0002 T01281039=
202409262153 METAR KCLM 262153Z AUTO 26006KT 7SM -RA FEW050 SCT085 OVC100 14/M03 A2989 RMK AO2 RAB2054 SLP122 P0001 T01391028=
202409262053 METAR KCLM 262053Z AUTO 30007KT 10SM FEW060 SCT075 OVC090 14/M04 A2992 RMK AO2 RAB1956E13 SLP131 P0000 60000 T01441039 58022=
202409261953 METAR KCLM 261953Z AUTO VRB03KT 10SM FEW047 SCT070 OVC090 13/M04 A2994 RMK AO2 SLP138 T01331044=
202409261853 METAR KCLM 261853Z AUTO VRB03KT 10SM BKN100 13/M04 A2997 RMK AO2 SLP148 T01331039=
202409261753 METAR KCLM 261753Z AUTO 35003KT 10SM CLR 12/M03 A2998 RMK AO2 SLP153 T01221033 10144 20072 58004=
202409261653 METAR KCLM 261653Z AUTO 00000KT 10SM FEW100 14/M03 A2999 RMK AO2 SLP155 T01391033=
202409261553 METAR KCLM 261553Z AUTO 00000KT 10SM FEW120 12/M02 A2999 RMK AO2 SLP157 T01171022=
202409261453 METAR KCLM 261453Z AUTO 22003KT 10SM CLR 09/M02 A3000 RMK AO2 SLP159 T00941017 58001=
202409261353 METAR KCLM 261353Z AUTO 21004KT 10SM CLR 07/M01 A3000 RMK AO2 SLP161 T00721011=
202409261253 METAR KCLM 261253Z AUTO 22005KT 10SM CLR 09/M01 A3000 RMK AO2 SLP160 T00891006=
202409261153 METAR KCLM 261153Z AUTO 22003KT 10SM CLR 10/M01 A3000 RMK AO2 SLP159 70050 T01001011 10128 20067 53010=
202409261053 METAR KCLM 261053Z AUTO 00000KT 10SM CLR 07/M01 A2999 RMK AO2 SLP155 T00671006=
202409260953 METAR KCLM 260953Z AUTO 15003KT 10SM CLR 09/M01 A2997 RMK AO2 SLP150 T00891006=
202409260853 METAR KCLM 260853Z AUTO 23010KT 10SM CLR 11/00 A2997 RMK AO2 SLP148 T01110000 51023=
202409260753 METAR KCLM 260753Z AUTO 24005KT 10SM CLR 11/00 A2995 RMK AO2 SLP143 T01110000 401610111=
202409260653 METAR KCLM 260653Z AUTO 24007KT 10SM CLR 12/00 A2993 RMK AO2 SLP135 T01170000=
202409260553 METAR KCLM 260553Z AUTO 16003KT 10SM FEW065 13/00 A2990 RMK AO2 SLP125 60001 T01280000 10156 20117 53035=
202409260453 METAR KCLM 260453Z AUTO 26010KT 10SM FEW055 13/00 A2986 RMK AO2 SLP112 T01330000=
202409260353 METAR KCLM 260353Z AUTO 28009KT 10SM CLR 13/01 A2983 RMK AO2 SLP100 T01280006=
202409260253 METAR KCLM 260253Z AUTO 30009KT 10SM CLR 13/07 A2980 RMK AO2 SLP089 60001 T01330072 53023=
202409260153 METAR KCLM 260153Z AUTO 26012G18KT 10SM CLR 14/08 A2976 RMK AO2 SLP077 T01440078=
202409260053 METAR KCLM 260053Z AUTO 25012KT 10SM SCT085 16/11 A2974 RMK AO2 RAE22 SLP069 P0001 T01560106=
202409252353 METAR KCLM 252353Z AUTO 28008KT 10SM -RA SCT060 BKN075 OVC085 15/11 A2973 RMK AO2 RAE18B39 SLP067 P0001 60039 T01500111 10156 20139 51015=
202409252321 SPECI KCLM 252321Z AUTO 27009KT 10SM FEW011 BKN045 OVC055 14/11 A2973 RMK AO2 RAE18 P0001 T01440111=
202409252302 SPECI KCLM 252302Z AUTO 27011G18KT 3SM -RA SCT007 BKN018 OVC050 14/11 A2972 RMK AO2 P0001 T01390111=
202409252258 SPECI KCLM 252258Z AUTO 28011G16KT 2 1/2SM -RA SCT007 BKN010 OVC014 14/11 A2972 RMK AO2 P0000 T01390111=
202409252253 METAR KCLM 252253Z AUTO 29008KT 1 3/4SM RA BKN006 OVC012 14/11 A2972 RMK AO2 RAB12 SLP064 P0020 T01390106=
202409252248 SPECI KCLM 252248Z AUTO 29007G17KT 1 3/4SM RA BKN006 OVC010 14/11 A2972 RMK AO2 RAB12 P0018=
202409252236 SPECI KCLM 252236Z AUTO 28009G15KT 1 1/4SM RA OVC004 14/11 A2971 RMK AO2 RAB12 P0013 T01390106=
202409252225 SPECI KCLM 252225Z AUTO 30009G19KT 1 1/4SM +RA SCT002 BKN010 OVC060 14/11 A2971 RMK AO2 RAB12 P0007 T01390106=
202409252221 SPECI KCLM 252221Z AUTO 30010G19KT 2SM RA BKN002 BKN019 OVC060 14/11 A2970 RMK AO2 RAB12 P0005 T01390111=
202409252215 SPECI KCLM 252215Z AUTO 29008KT 10SM -RA SCT002 BKN019 OVC060 14/12 A2970 RMK AO2 RAB12 P0000 T01440117=
202409252208 SPECI KCLM 252208Z AUTO 31005KT 10SM FEW004 BKN042 OVC055 15/12 A2968 RMK AO2 T01500117=
202409252153 METAR KCLM 252153Z AUTO 31004KT 10SM BKN019 BKN033 OVC042 16/12 A2969 RMK AO2 RAE04B30E46 SLP052 P0000 T01560122=
202409252131 SPECI KCLM 252131Z AUTO 30005KT 8SM -RA SCT002 BKN028 OVC041 15/12 A2968 RMK AO2 RAE04B30 P0000 T01500122=
202409252123 SPECI KCLM 252123Z AUTO 30005KT 10SM BKN002 BKN030 OVC039 14/12 A2968 RMK AO2 RAE04 P0000 T01440117=
202409252115 SPECI KCLM 252115Z AUTO 29005KT 2SM BR BKN003 OVC039 14/13 A2969 RMK AO2 RAE04 P0000 T01440128=
202409252112 SPECI KCLM 252112Z AUTO 30004KT 1 1/4SM HZ SCT003 BKN025 OVC039 14/12 A2968 RMK AO2 RAE04 P0000 T01440117=
202409252104 SPECI KCLM 252104Z AUTO VRB03KT 1 3/4SM HZ BKN037 OVC050 15/12 A2968 RMK AO2 RAE04 P0000 T01500122=
202409252053 METAR KCLM 252053Z AUTO 00000KT 7SM -RA FEW007 BKN035 OVC070 15/13 A2968 RMK AO2 SLP051 P0007 60018 T01500128 50009=
202409252001 SPECI KCLM 252001Z AUTO 26004KT 3SM RA SCT004 BKN030 OVC036 16/12 A2969 RMK AO2 P0001 T01560122=
202409251953 METAR KCLM 251953Z AUTO 27006KT 4SM -RA BKN004 BKN011 OVC028 16/12 A2969 RMK AO2 SLP052 P0006 T01560117=
202409251943 SPECI KCLM 251943Z AUTO 28004KT 4SM -RA BR BKN004 OVC010 15/14 A2969 RMK AO2 P0004 T01500139=
202409251924 SPECI KCLM 251924Z AUTO 30004KT 5SM -RA SCT004 OVC010 15/12 A2968 RMK AO2 P0002 T01500122=
202409251917 SPECI KCLM 251917Z AUTO 31003KT 7SM -RA BKN004 OVC010 15/13 A2968 RMK AO2 P0001 T01500133=
202409251853 METAR KCLM 251853Z AUTO 00000KT 10SM -RA BKN006 OVC009 15/13 A2967 RMK AO2 RAB1758 SLP048 P0005 T01500128=
202409251807 SPECI KCLM 251807Z AUTO 00000KT 10SM -RA BKN005 BKN080 OVC095 16/13 A2966 RMK AO2 RAB1758 P0000 T01560128=
202409251753 METAR KCLM 251753Z AUTO 00000KT 10SM FEW005 FEW070 OVC090 16/13 A2965 RMK AO2 RAE42 SLP041 P0002 60010 T01560133 10161 20150 53008=
202409251720 SPECI KCLM 251720Z AUTO 25005KT 8SM -RA SCT005 BKN046 OVC070 16/12 A2965 RMK AO2 P0002 T01560117=
202409251653 METAR KCLM 251653Z AUTO 29008KT 5SM -RA SCT003 BKN007 OVC011 15/12 A2965 RMK AO2 CIG 005V008 SLP040 P0004 T01500117=
202409251642 SPECI KCLM 251642Z AUTO 29006KT 6SM -RA FEW007 BKN011 OVC085 16/12 A2964 RMK AO2 P0003 T01560122=
202409251553 METAR KCLM 251553Z AUTO 00000KT 4SM -RA BR FEW024 FEW030 OVC090 16/14 A2963 RMK AO2 RAB1457 SLP032 P0004 T01560139=
202409251548 SPECI KCLM 251548Z AUTO 14003KT 5SM -RA FEW024 SCT030 OVC090 16/13 A2963 RMK AO2 RAB1457 P0003=
202409251453 METAR KCLM 251453Z AUTO 02005KT 9SM OVC023 15/13 A2961 RMK AO2 RAB22E37 SLP028 P0000 60000 T01500133 56011=
202409251353 METAR KCLM 251353Z AUTO 16003KT 10SM OVC020 16/12 A2962 RMK AO2 SLP030 T01560122=
202409251309 SPECI KCLM 251309Z AUTO 14005KT 10SM OVC016 15/12 A2962 RMK AO2 T01500117=
202409251253 METAR KCLM 251253Z AUTO 00000KT 10SM BKN014 BKN021 OVC120 15/12 A2963 RMK AO2 SLP034 T01500122=
202409251153 METAR KCLM 251153Z AUTO 17005KT 10SM FEW100 OVC120 16/12 A2965 RMK AO2 SLP038 60007 70007 T01560117 10167 20144 55001=
202409251121 SPECI KCLM 251121Z AUTO 27004KT 10SM SCT006 OVC120 14/11 A2964 RMK AO2 T01440111=
202409251053 METAR KCLM 251053Z AUTO 00000KT 10SM BKN006 BKN030 OVC120 15/12 A2964 RMK AO2 RAB0954E28 SLP034 P0000 T01500117=
202409251040 SPECI KCLM 251040Z AUTO 29006KT 10SM SCT008 BKN049 OVC110 15/12 A2966 RMK AO2 RAB0954E28 P0000 T01500117=
202409250953 METAR KCLM 250953Z AUTO 24003KT 10SM OVC110 16/12 A2965 RMK AO2 RAE45 SLP039 P0003 T01610122=
202409250853 METAR KCLM 250853Z AUTO 27008KT 7SM -RA BKN080 OVC100 16/11 A2965 RMK AO2 RAB26 SLP039 P0004 60004 T01560111 56004=
202409250753 METAR KCLM 250753Z AUTO 28009KT 10SM OVC060 17/11 A2965 RMK AO2 SLP040 T01670111 402390150=
202409250713 SPECI KCLM 250713Z AUTO 27009G18KT 10SM FEW006 OVC075 16/12 A2966 RMK AO2 T01610117=
202409250653 METAR KCLM 250653Z AUTO 27010G19KT 10SM BKN005 OVC085 16/12 A2966 RMK AO2 SLP043 T01560117=
202409250635 SPECI KCLM 250635Z AUTO 28010KT 10SM BKN004 OVC090 16/12 A2966 RMK AO2 T01560122=
202409250606 SPECI KCLM 250606Z AUTO 29004KT 10SM SCT004 OVC095 16/13 A2966 RMK AO2 T01610128=
202409250553 METAR KCLM 250553Z AUTO 28006KT 10SM BKN004 BKN100 16/13 A2966 RMK AO2 SLP044 T01610133 10211 20150 58004=
202409250453 METAR KCLM 250453Z AUTO 28008KT 10SM BKN004 16/12 A2967 RMK AO2 SLP048 T01610122=
202409250416 SPECI KCLM 250416Z AUTO 27004KT 10SM BKN003 15/02 A2968 RMK AO2 T01500022=
202409250408 SPECI KCLM 250408Z AUTO 29004KT 10SM SCT003 15/07 A2968 RMK AO2 T01500072=
202409250353 METAR KCLM 250353Z AUTO 00000KT 10SM CLR 16/13 A2967 RMK AO2 SLP048 T01610133=
202409250253 METAR KCLM 250253Z AUTO 00000KT 10SM CLR 16/13 A2967 RMK AO2 SLP048 T01560133 58020=
202409250153 METAR KCLM 250153Z AUTO 28006KT 9SM CLR 15/12 A2969 RMK AO2 SLP055 T01500122=
202409250053 METAR KCLM 250053Z AUTO 00000KT 10SM CLR 19/14 A2971 RMK AO2 SLP059 T01940144=
202409242353 METAR KCLM 242353Z AUTO 00000KT 10SM CLR 21/15 A2973 RMK AO2 SLP066 T02060150 10239 20178 56022=
202409242253 METAR KCLM 242253Z AUTO VRB04KT 10SM CLR 24/14 A2975 RMK AO2 SLP073 T02390139=
202409242153 METAR KCLM 242153Z AUTO 03004KT 10SM CLR 23/14 A2977 RMK AO2 SLP079 T02280144=
202409242053 METAR KCLM 242053Z AUTO 05004KT 10SM CLR 21/14 A2980 RMK AO2 SLP089 T02110144 56024=
202409241953 METAR KCLM 241953Z AUTO 00000KT 10SM FEW007 19/15 A2982 RMK AO2 SLP096 T01940150=
202409241853 METAR KCLM 241853Z AUTO 12007KT 10SM OVC006 18/14 A2985 RMK AO2 CIG 004V008 SLP106 T01780144=
202409241845 SPECI KCLM 241845Z AUTO 11007KT 10SM OVC006 17/15 A2985 RMK AO2 CIG 004V008 T01720150=
202409241753 METAR KCLM 241753Z AUTO 11005KT 9SM OVC002 16/16 A2987 RMK AO2 SLP114 T01610156 10167 20150 56019 $=
202409241745 SPECI KCLM 241745Z AUTO 11006KT 3SM BR OVC002 16/15 A2987 RMK AO2 T01610150 $=
202409241729 SPECI KCLM 241729Z AUTO 07005KT 1 3/4SM BR OVC002 16/15 A2987 RMK AO2 T01610150 $=
202409241723 SPECI KCLM 241723Z AUTO 07005KT 3SM BR OVC002 16/15 A2988 RMK AO2 T01610150 $=
202409241712 SPECI KCLM 241712Z AUTO 07005KT 1 1/4SM BR OVC002 16/14 A2988 RMK AO2 T01610144 $=
202409241653 METAR KCLM 241653Z AUTO 07003KT 3/4SM BR OVC002 16/14 A2988 RMK AO2 SLP119 T01610144 $=
202409241630 SPECI KCLM 241630Z AUTO 10006KT 3/4SM BR VV002 16/14 A2989 RMK AO2 T01610139 $=
202409241606 SPECI KCLM 241606Z AUTO 13005KT 1/4SM FG OVC002 16/14 A2990 RMK AO2 T01610139 $=
202409241553 METAR KCLM 241553Z AUTO 12004KT 1 1/4SM BR OVC002 16/14 A2990 RMK AO2 SLP126 T01560144 $=
202409241545 SPECI KCLM 241545Z AUTO 11004KT 2SM BR OVC002 16/14 A2991 RMK AO2 VIS 1 1/4V3 T01560139 $=
202409241539 SPECI KCLM 241539Z AUTO 10004KT 3/4SM BR VV002 16/14 A2991 RMK AO2 T01560139 $=
202409241453 METAR KCLM 241453Z AUTO 09003KT 1/4SM FG VV002 16/14 A2992 RMK AO2 SLP133 T01560139 56019 $=
202409241353 METAR KCLM 241353Z AUTO 12003KT 1/4SM HZ VV002 16/09 A2994 RMK AO2 SLP138 T01560094 $=
202409241253 METAR KCLM 241253Z AUTO 11003KT 1/4SM FG VV002 16/14 A2996 RMK AO2 SLP144 T01560144 $=
202409241226 SPECI KCLM 241226Z AUTO 09003KT 1/4SM FG VV002 16/14 A2997 RMK AO2 T01560144 $=
202409241153 METAR KCLM 241153Z AUTO 10004KT 1/2SM HZ VV002 16/01 A2998 RMK AO2 SLP151 T01560006 10167 20150 58019=
202409241053 METAR KCLM 241053Z AUTO 00000KT 1/2SM FG VV002 16/15 A3000 RMK AO2 SLP158 T01610150=
202409241041 SPECI KCLM 241041Z AUTO 07003KT 1/2SM FG VV002 16/16 A3000 RMK AO2 T01610156=
202409241005 SPECI KCLM 241005Z AUTO 00000KT 1/4SM FG VV002 17/16 A3001 RMK AO2 T01670156=
202409240953 METAR KCLM 240953Z AUTO 00000KT 1/2SM FG VV002 17/16 A3002 RMK AO2 SLP164 T01670156=
202409240922 SPECI KCLM 240922Z AUTO 00000KT 1/4SM FG VV003 17/16 A3002 RMK AO2 T01670156=
202409240853 METAR KCLM 240853Z AUTO 00000KT 1/2SM FG VV003 17/16 A3004 RMK AO2 SLP170 T01670156 58011=
202409240753 METAR KCLM 240753Z AUTO 00000KT 1/2SM FG VV002 16/16 A3005 RMK AO2 SLP174 T01610156 402110144=
202409240737 SPECI KCLM 240737Z AUTO 00000KT 1/4SM FG VV002 16/16 A3005 RMK AO2 T01610156=
202409240711 SPECI KCLM 240711Z AUTO 00000KT 1/2SM FG VV002 16/15 A3006 RMK AO2 T01610150=
202409240700 SPECI KCLM 240700Z AUTO 00000KT 1 1/2SM BR OVC003 16/15 A3006 RMK AO2 T01610150=
202409240653 METAR KCLM 240653Z AUTO 00000KT 8SM OVC003 16/14 A3006 RMK AO2 SLP180 T01610144=
202409240553 METAR KCLM 240553Z AUTO 00000KT 10SM BKN004 15/13 A3007 RMK AO2 SLP182 T01500133 10200 20144 58003=
202409240453 METAR KCLM 240453Z AUTO 00000KT 10SM CLR 16/14 A3007 RMK AO2 SLP184 T01610144=
202409240353 METAR KCLM 240353Z AUTO 00000KT 10SM CLR 17/15 A3008 RMK AO2 SLP186 T01670150=
202409240336 SPECI KCLM 240336Z AUTO 00000KT 10SM SCT012 17/15 A3008 RMK AO2 T01720150=
202409240253 METAR KCLM 240253Z AUTO 00000KT 10SM BKN012 BKN080 18/16 A3008 RMK AO2 SLP185 T01780156 58016=
202409240153 METAR KCLM 240153Z AUTO 00000KT 10SM OVC080 19/16 A3010 RMK AO2 SLP191 T01940156=
202409240053 METAR KCLM 240053Z AUTO 34003KT 10SM OVC085 20/14 A3012 RMK AO2 SLP197 T02000144=
202409232353 METAR KCLM 232353Z AUTO 34004KT 10SM FEW030 OVC085 20/15 A3013 RMK AO2 SLP200 T02000150 10211 20172 56009=
202409232253 METAR KCLM 232253Z AUTO 32004KT 10SM OVC080 20/15 A3013 RMK AO2 SLP201 T02000150=
202409232153 METAR KCLM 232153Z AUTO 00000KT 10SM OVC090 19/16 A3014 RMK AO2 SLP207 T01890156=
202409232053 METAR KCLM 232053Z AUTO 36005KT 10SM BKN085 20/16 A3015 RMK AO2 SLP209 T02000156 50002=
202409231953 METAR KCLM 231953Z AUTO 33004KT 10SM OVC085 19/15 A3016 RMK AO2 SLP213 T01890150=
202409231853 METAR KCLM 231853Z AUTO 29003KT 10SM OVC041 18/15 A3017 RMK AO2 SLP216 T01780150=
202409231753 METAR KCLM 231753Z AUTO 00000KT 10SM FEW004 BKN039 OVC075 18/16 A3015 RMK AO2 SLP208 T01780156 10178 20156 58003=
202409231739 SPECI KCLM 231739Z AUTO 00000KT 10SM SCT004 OVC039 17/15 A3015 RMK AO2 T01720150=
202409231653 METAR KCLM 231653Z AUTO 00000KT 10SM OVC002 17/15 A3016 RMK AO2 SLP212 T01670150=
202409231645 SPECI KCLM 231645Z AUTO 00000KT 10SM OVC002 17/15 A3016 RMK AO2 T01670150=
202409231638 SPECI KCLM 231638Z AUTO 00000KT 2 1/2SM BR OVC002 17/15 A3016 RMK AO2 T01670150=
202409231631 SPECI KCLM 231631Z AUTO 00000KT 1/2SM FG OVC002 16/15 A3016 RMK AO2 T01610150=
202409231622 SPECI KCLM 231622Z AUTO 00000KT 1 3/4SM BR OVC002 16/15 A3016 RMK AO2 T01610150=
202409231553 METAR KCLM 231553Z AUTO 00000KT 10SM BKN004 OVC045 16/14 A3016 RMK AO2 SLP212 T01560139=
202409231550 SPECI KCLM 231550Z AUTO 00000KT 10SM BKN004 OVC045 16/14 A3016 RMK AO2=
202409231530 SPECI KCLM 231530Z AUTO 00000KT 10SM BKN005 OVC045 16/14 A3015 RMK AO2 T01560144=
202409231516 SPECI KCLM 231516Z AUTO 00000KT 10SM FEW004 OVC046 16/14 A3015 RMK AO2 T01610144=
202409231453 METAR KCLM 231453Z AUTO 00000KT 10SM OVC046 16/14 A3014 RMK AO2 SLP205 T01610144 53003=
202409231353 METAR KCLM 231353Z AUTO 22003KT 10SM OVC046 16/14 A3013 RMK AO2 SLP201 T01560144=
202409231253 METAR KCLM 231253Z AUTO 00000KT 10SM FEW005 OVC048 16/14 A3012 RMK AO2 SLP200 T01560144=
202409231242 SPECI KCLM 231242Z AUTO 10SM FEW005 SCT009 OVC046 16/14 A3012 RMK AO2 T01610144=
202409231224 SPECI KCLM 231224Z AUTO 19003KT 10SM BKN007 OVC046 16/14 A3013 RMK AO2 T01560144=
202409231202 SPECI KCLM 231202Z AUTO 00000KT 10SM FEW007 OVC045 16/15 A3012 RMK AO2 T01610150=
202409231153 METAR KCLM 231153Z AUTO 00000KT 10SM OVC045 16/14 A3013 RMK AO2 SLP202 60001 70001 T01610144 10161 20156 51009=
202409231053 METAR KCLM 231053Z AUTO 00000KT 10SM SCT005 OVC047 16/14 A3013 RMK AO2 RAB21E46 SLP201 P0001 T01610144=
202409231013 SPECI KCLM 231013Z AUTO 00000KT 10SM BKN004 OVC050 16/14 A3013 RMK AO2 T01560144=
202409231000 SPECI KCLM 231000Z AUTO 00000KT 10SM FEW004 OVC050 16/14 A3012 RMK AO2 T01560139=
202409230953 METAR KCLM 230953Z AUTO 00000KT 10SM OVC050 16/14 A3012 RMK AO2 RAB34E47 SLP198 P0000 T01560139=
202409230853 METAR KCLM 230853Z AUTO 00000KT 10SM BKN060 OVC100 16/14 A3010 RMK AO2 SLP193 60000 T01560139 58002=
202409230753 METAR KCLM 230753Z AUTO 00000KT 10SM BKN080 OVC100 16/14 A3011 RMK AO2 SLP196 T01560139 401940100=
202409230717 SPECI KCLM 230717Z AUTO 23003KT 10SM FEW003 OVC080 16/14 A3012 RMK AO2 T01560144=
202409230653 METAR KCLM 230653Z AUTO 23003KT 10SM OVC085 16/14 A3011 RMK AO2 RAB0557E07 SLP197 P0000 T01560139=
202409230553 METAR KCLM 230553Z AUTO 00000KT 10SM SCT055 SCT065 OVC110 16/14 A3011 RMK AO2 RAE46 SLP195 P0000 60000 T01610144 10194 20156 52001=
202409230353 METAR KCLM 230353Z AUTO 21003KT 10SM OVC050 17/14 A3010 RMK AO2 SLP194 T01670144 TSNO=
202409230253 METAR KCLM 230253Z AUTO 23003KT 10SM OVC050 17/14 A3010 RMK AO2 SLP194 T01720139 51003=
202409230153 METAR KCLM 230153Z AUTO 00000KT 10SM BKN060 OVC075 17/14 A3010 RMK AO2 SLP193 T01720139=
202409230053 METAR KCLM 230053Z AUTO 00000KT 10SM FEW050 OVC075 18/11 A3010 RMK AO2 SLP194 T01830111=
202409222353 METAR KCLM 222353Z AUTO 36003KT 10SM SCT055 OVC085 19/12 A3010 RMK AO2 SLP191 T01940122 10194 20167 58006=
202409222253 METAR KCLM 222253Z AUTO 00000KT 10SM OVC060 19/12 A3010 RMK AO2 SLP193 T01940117=
202409222153 METAR KCLM 222153Z AUTO 00000KT 10SM OVC070 18/12 A3012 RMK AO2 SLP198 T01830122=
202409222053 METAR KCLM 222053Z AUTO 00000KT 10SM OVC080 18/12 A3012 RMK AO2 SLP198 T01830117 55004=
202409221953 METAR KCLM 221953Z AUTO 09004KT 10SM OVC080 18/11 A3011 RMK AO2 SLP196 T01830106=
202409221853 METAR KCLM 221853Z AUTO VRB04KT 10SM FEW100 17/11 A3012 RMK AO2 SLP198 T01720106=
202409221753 METAR KCLM 221753Z AUTO 34004KT 10SM CLR 17/10 A3013 RMK AO2 SLP201 T01720100 10178 20100 51006=
202409221653 METAR KCLM 221653Z AUTO 28003KT 10SM CLR 17/11 A3013 RMK AO2 SLP202 T01720106=
202409221553 METAR KCLM 221553Z AUTO 25003KT 10SM CLR 16/11 A3011 RMK AO2 SLP197 T01610106=
202409221453 METAR KCLM 221453Z AUTO 00000KT 10SM CLR 12/10 A3011 RMK AO2 SLP195 T01220100 58005=
202409221353 METAR KCLM 221353Z AUTO 25006KT 10SM BKN050 11/09 A3012 RMK AO2 SLP200 T01110094=
202409221253 METAR KCLM 221253Z AUTO 20003KT 10SM CLR 11/09 A3012 RMK AO2 SLP199 T01110089=
202409221153 METAR KCLM 221153Z AUTO 22004KT 10SM CLR 12/09 A3012 RMK AO2 SLP200 T01220094 10133 20106 55006=
202409221053 METAR KCLM 221053Z AUTO 21004KT 10SM CLR 12/09 A3012 RMK AO2 SLP199 T01170089=
202409220953 METAR KCLM 220953Z AUTO 25005KT 10SM CLR 12/09 A3014 RMK AO2 SLP205 T01220089=
202409220853 METAR KCLM 220853Z AUTO 25003KT 10SM CLR 12/09 A3014 RMK AO2 SLP207 T01220089 56007=
202409220753 METAR KCLM 220753Z AUTO 23005KT 10SM CLR 13/09 A3015 RMK AO2 SLP209 T01280094 401890078=
202409220653 METAR KCLM 220653Z AUTO 24006KT 10SM CLR 13/09 A3015 RMK AO2 SLP210 T01330089=
202409220553 METAR KCLM 220553Z AUTO 23004KT 10SM CLR 13/09 A3016 RMK AO2 SLP214 T01330094 10183 20122 58001=
202409220453 METAR KCLM 220453Z AUTO 27006KT 10SM CLR 14/09 A3018 RMK AO2 SLP219 T01390094=
202409220353 METAR KCLM 220353Z AUTO 25004KT 10SM CLR 13/08 A3017 RMK AO2 SLP216 T01330083=
202409220253 METAR KCLM 220253Z AUTO 26004KT 10SM CLR 13/08 A3017 RMK AO2 SLP217 T01330078 56006=
202409220153 METAR KCLM 220153Z AUTO 00000KT 10SM CLR 15/08 A3017 RMK AO2 SLP218 T01500078=
202409220053 METAR KCLM 220053Z AUTO 29006KT 10SM CLR 17/07 A3018 RMK AO2 SLP218 T01670072=
202409212353 METAR KCLM 212353Z AUTO 34004KT 10SM CLR 19/08 A3019 RMK AO2 SLP221 T01890083 10189 20161 56007=
202409212253 METAR KCLM 212253Z AUTO 33004KT 10SM CLR 18/09 A3020 RMK AO2 SLP226 T01780089=
202409212153 METAR KCLM 212153Z AUTO 01005KT 10SM CLR 17/08 A3019 RMK AO2 SLP223 T01720083=
202409212053 METAR KCLM 212053Z AUTO 01004KT 10SM CLR 18/08 A3021 RMK AO2 SLP229 T01780083 57009=
202409211953 METAR KCLM 211953Z AUTO 02007KT 10SM CLR 17/09 A3021 RMK AO2 SLP231 T01670089=
202409211853 METAR KCLM 211853Z AUTO VRB05KT 10SM CLR 17/09 A3023 RMK AO2 SLP236 T01720094=
202409211753 METAR KCLM 211753Z AUTO 10003KT 10SM CLR 16/09 A3024 RMK AO2 SLP238 T01610094 10161 20083 50001=
202409211653 METAR KCLM 211653Z AUTO 32004KT 10SM CLR 14/09 A3025 RMK AO2 SLP245 T01390089=
202409211553 METAR KCLM 211553Z AUTO 26003KT 10SM BKN100 12/09 A3024 RMK AO2 SLP242 T01220089=
202409211453 METAR KCLM 211453Z AUTO 00000KT 10SM CLR 11/09 A3023 RMK AO2 SLP239 T01110089 51004=
202409211353 METAR KCLM 211353Z AUTO 00000KT 10SM BKN055 11/08 A3023 RMK AO2 SLP239 T01060083=
202409211253 METAR KCLM 211253Z AUTO 23003KT 10SM BKN060 11/08 A3023 RMK AO2 SLP236 T01060078=
202409211153 METAR KCLM 211153Z AUTO 00000KT 10SM SCT060 08/07 A3022 RMK AO2 SLP234 T00830067 10117 20078 55001=
202409211053 METAR KCLM 211053Z AUTO 00000KT 10SM CLR 08/07 A3021 RMK AO2 SLP231 T00830067=
202409210953 METAR KCLM 210953Z AUTO 19003KT 10SM CLR 08/07 A3022 RMK AO2 SLP233 T00830067=
202409210853 METAR KCLM 210853Z AUTO 00000KT 10SM CLR 10/08 A3022 RMK AO2 SLP235 T01000078 50001=
202409210753 METAR KCLM 210753Z AUTO 00000KT 10SM CLR 11/08 A3023 RMK AO2 SLP236 T01060083 401830078=
202409210653 METAR KCLM 210653Z AUTO 25004KT 10SM CLR 12/09 A3023 RMK AO2 SLP236 T01170089=
202409210553 METAR KCLM 210553Z AUTO 00000KT 10SM CLR 11/09 A3022 RMK AO2 SLP234 T01060089 10183 20094 51012=
202409210453 METAR KCLM 210453Z AUTO 24004KT 10SM CLR 11/09 A3022 RMK AO2 SLP234 T01060089=
202409210353 METAR KCLM 210353Z AUTO 26005KT 10SM CLR 09/08 A3021 RMK AO2 SLP230 T00940083=
202409210253 METAR KCLM 210253Z AUTO 00000KT 10SM CLR 11/09 A3019 RMK AO2 SLP224 T01110094 53006=
202409210153 METAR KCLM 210153Z AUTO 00000KT 10SM CLR 13/10 A3019 RMK AO2 SLP223 T01330100=
202409210053 METAR KCLM 210053Z AUTO VRB03KT 10SM CLR 18/09 A3017 RMK AO2 SLP215 T01830094=
202409202353 METAR KCLM 202353Z AUTO 07006KT 10SM CLR 18/09 A3017 RMK AO2 SLP216 T01830089 10183 20156 50001=
202409202253 METAR KCLM 202253Z AUTO 08005KT 10SM CLR 17/09 A3017 RMK AO2 SLP217 T01720089=
202409202153 METAR KCLM 202153Z AUTO 09006KT 10SM CLR 17/10 A3017 RMK AO2 SLP216 T01720100=
202409202053 METAR KCLM 202053Z AUTO 03006KT 10SM CLR 17/09 A3017 RMK AO2 SLP216 T01720094 52010=
202409201953 METAR KCLM 201953Z AUTO VRB04KT 10SM CLR 17/09 A3016 RMK AO2 SLP213 T01670089=
202409201853 METAR KCLM 201853Z AUTO VRB05KT 10SM CLR 16/09 A3015 RMK AO2 SLP209 T01610089=
202409201753 METAR KCLM 201753Z AUTO 32005KT 10SM CLR 15/09 A3014 RMK AO2 SLP206 T01500094 10156 20089 51019=
202409201653 METAR KCLM 201653Z AUTO VRB03KT 10SM CLR 16/11 A3012 RMK AO2 SLP201 T01560106=
202409201553 METAR KCLM 201553Z AUTO 24006KT 10SM CLR 13/07 A3010 RMK AO2 SLP194 T01280072=
202409201453 METAR KCLM 201453Z AUTO 24003KT 10SM CLR 10/08 A3008 RMK AO2 SLP188 T01000078 53011=
202409201353 METAR KCLM 201353Z AUTO 23003KT 10SM BKN050 10/08 A3007 RMK AO2 SLP183 T01000078=
202409201253 METAR KCLM 201253Z AUTO 21004KT 10SM OVC050 11/08 A3006 RMK AO2 SLP178 T01060083=
202409201153 METAR KCLM 201153Z AUTO 22003KT 10SM OVC050 11/09 A3005 RMK AO2 SLP176 T01060089 10117 20078 53002=
202409201053 METAR KCLM 201053Z AUTO 21003KT 10SM BKN050 09/08 A3004 RMK AO2 SLP173 T00940083=
202409200953 METAR KCLM 200953Z AUTO 23005KT 10SM CLR 09/08 A3004 RMK AO2 SLP172 T00890078=
202409200853 METAR KCLM 200853Z AUTO 25006KT 10SM CLR 11/08 A3004 RMK AO2 SLP175 T01110083 53007=
202409200753 METAR KCLM 200753Z AUTO 27007KT 10SM CLR 10/08 A3001 RMK AO2 SLP165 T01000078 401670078=
202409200653 METAR KCLM 200653Z AUTO 28010KT 10SM CLR 12/09 A3003 RMK AO2 SLP168 T01170094=
202409200613 SPECI KCLM 200613Z AUTO 24004KT 10SM SCT013 11/09 A3002 RMK AO2 T01110094=
202409200553 METAR KCLM 200553Z AUTO 00000KT 10SM BKN014 11/09 A3002 RMK AO2 SLP168 T01060089 10150 20100 53006=
202409200453 METAR KCLM 200453Z AUTO 30005KT 10SM CLR 11/09 A3001 RMK AO2 SLP164 T01110094=
202409200353 METAR KCLM 200353Z AUTO 00000KT 10SM CLR 11/09 A3001 RMK AO2 SLP164 T01060094=
202409200253 METAR KCLM 200253Z AUTO 31008KT 10SM CLR 11/09 A3001 RMK AO2 SLP161 T01110094 55001=
202409200153 METAR KCLM 200153Z AUTO 00000KT 10SM CLR 14/10 A2999 RMK AO2 SLP156 T01390100=
202409200053 METAR KCLM 200053Z AUTO 29007KT 10SM CLR 14/11 A3000 RMK AO2 SLP160 T01390106=
202409192353 METAR KCLM 192353Z AUTO 29011G20KT 10SM CLR 15/11 A3001 RMK AO2 SLP162 T01500106 10167 20117 56010=
202409192253 METAR KCLM 192253Z AUTO 29008KT 10SM CLR 16/10 A3001 RMK AO2 SLP162 T01560100=
202409192153 METAR KCLM 192153Z AUTO 29008KT 10SM CLR 16/10 A3001 RMK AO2 SLP162 T01560100=
202409192053 METAR KCLM 192053Z AUTO 29007KT 10SM CLR 13/10 A3004 RMK AO2 SLP173 T01330100 58005=
202409191953 METAR KCLM 191953Z AUTO 35006KT 10SM SCT075 13/10 A3004 RMK AO2 SLP172 T01330100=
202409191853 METAR KCLM 191853Z AUTO 30006KT 10SM CLR 13/09 A3006 RMK AO2 SLP180 T01280094=
202409191753 METAR KCLM 191753Z AUTO 35005KT 9SM FEW001 12/10 A3005 RMK AO2 SLP177 T01170100 10133 20078 50002=
202409191724 SPECI KCLM 191724Z AUTO 00000KT 10SM SCT003 13/11 A3004 RMK AO2 T01280106=
202409191713 SPECI KCLM 191713Z AUTO 00000KT 10SM BKN003 BKN110 12/10 A3005 RMK AO2 T01170100=
202409191653 METAR KCLM 191653Z AUTO 00000KT 10SM FEW002 OVC110 11/10 A3006 RMK AO2 SLP181 T01110100=
202409191553 METAR KCLM 191553Z AUTO 00000KT 10SM SCT100 11/10 A3004 RMK AO2 SLP174 T01060100=
202409191517 SPECI KCLM 191517Z AUTO 00000KT 5SM BR SCT001 09/08 A3003 RMK AO2 T00890083=
202409191510 SPECI KCLM 191510Z AUTO 20003KT 1SM BR VV001 09/08 A3003 RMK AO2 T00890083=
202409191453 METAR KCLM 191453Z AUTO 23006KT 1/4SM FG VV002 09/08 A3005 RMK AO2 SLP176 T00940083 53003=
202409191434 SPECI KCLM 191434Z AUTO 25004KT 1/4SM FG VV002 09/08 A3006 RMK AO2 T00890083=
202409191407 SPECI KCLM 191407Z AUTO 24003KT M1/4SM FG VV001 08/07 A3003 RMK AO2 T00830072=
202409191353 METAR KCLM 191353Z AUTO 00000KT 1/4SM FG VV001 08/08 A3002 RMK AO2 SLP166 T00830078=
202409191341 SPECI KCLM 191341Z AUTO 00000KT 1/4SM FG VV001 08/07 A3002 RMK AO2 T00830072=
202409191326 SPECI KCLM 191326Z AUTO 00000KT 1/2SM FG VV001 08/07 A3002 RMK AO2 T00780072=
202409191253 METAR KCLM 191253Z AUTO 00000KT 1/4SM FG VV001 09/08 A3003 RMK AO2 SLP170 T00890083=
202409191242 SPECI KCLM 191242Z AUTO 00000KT 1/4SM FG VV001 08/08 A3004 RMK AO2 T00830078=
202409191237 SPECI KCLM 191237Z AUTO 00000KT 1/2SM FG VV002 09/08 A3004 RMK AO2 T00890078=
202409191153 METAR KCLM 191153Z AUTO 00000KT 1/4SM FG VV001 09/08 A3004 RMK AO2 SLP171 T00890078 10122 20083 55002=
202409191053 METAR KCLM 191053Z AUTO 00000KT 1/4SM FG VV001 09/09 A3003 RMK AO2 SLP170 T00940089=
202409190953 METAR KCLM 190953Z AUTO 00000KT 1/4SM FG VV001 10/09 A3003 RMK AO2 SLP169 T01000094=
202409190853 METAR KCLM 190853Z AUTO 00000KT 1/4SM FG VV001 11/10 A3004 RMK AO2 SLP174 T01060100 55001=
202409190753 METAR KCLM 190753Z AUTO 29003KT 1/4SM FG VV001 11/10 A3004 RMK AO2 SLP171 T01060100 402060100=
202409190706 SPECI KCLM 190706Z AUTO 00000KT 1/4SM FG VV001 10/09 A3004 RMK AO2 T01000094=
202409190702 SPECI KCLM 190702Z AUTO 34003KT 1SM BR VV001 10/09 A3004 RMK AO2 T01000094=
202409190700 SPECI KCLM 190700Z AUTO 34003KT 2 1/2SM BR FEW001 10/09 A3004 RMK AO2 T01000094=
202409190653 METAR KCLM 190653Z AUTO 34003KT 8SM CLR 10/09 A3003 RMK AO2 SLP170 T01000094=
202409190553 METAR KCLM 190553Z AUTO 00000KT 10SM CLR 12/11 A3005 RMK AO2 SLP175 T01170106 10172 20111 51009=
202409190453 METAR KCLM 190453Z AUTO 28007KT 10SM FEW004 SCT023 SCT030 13/12 A3005 RMK AO2 SLP174 T01280117=
202409190408 SPECI KCLM 190408Z AUTO 00000KT 10SM FEW003 11/10 A3004 RMK AO2 T01110100=
202409190353 METAR KCLM 190353Z AUTO 00000KT 10SM CLR 12/12 A3003 RMK AO2 SLP169 T01220117=
202409190253 METAR KCLM 190253Z AUTO 26003KT 10SM CLR 13/11 A3002 RMK AO2 SLP165 T01280111 58007=
202409190153 METAR KCLM 190153Z AUTO 00000KT 10SM OVC035 16/12 A3003 RMK AO2 SLP167 T01610122=
202409190053 METAR KCLM 190053Z AUTO 24004KT 10SM OVC038 16/12 A3004 RMK AO2 SLP174 T01610122=
202409182353 METAR KCLM 182353Z AUTO VRB06KT 10SM CLR 17/12 A3004 RMK AO2 SLP172 T01670122 10206 20156 55004=
202409182253 METAR KCLM 182253Z AUTO 07004KT 10SM CLR 21/12 A3002 RMK AO2 SLP167 T02060122=
202409182153 METAR KCLM 182153Z AUTO VRB03KT 10SM BKN035 18/12 A3005 RMK AO2 SLP176 T01830122=
202409182053 METAR KCLM 182053Z AUTO 10SM BKN030 20/12 A3005 RMK AO2 SLP176 T02000117 53001=
202409181953 METAR KCLM 181953Z AUTO VRB03KT 10SM SCT029 19/13 A3004 RMK AO2 SLP172 T01940128 $=
202409181853 METAR KCLM 181853Z AUTO VRB04KT 10SM FEW022 18/13 A3004 RMK AO2 SLP173 T01830128=
202409181753 METAR KCLM 181753Z AUTO 00000KT 10SM OVC041 16/13 A3005 RMK AO2 SLP175 T01560133 10172 20139 51007=
202409181653 METAR KCLM 181653Z AUTO 00000KT 10SM OVC033 17/13 A3004 RMK AO2 SLP173 T01670133=
202409181553 METAR KCLM 181553Z AUTO 00000KT 10SM OVC030 15/14 A3004 RMK AO2 SLP171 T01500139=
202409181518 SPECI KCLM 181518Z AUTO 00000KT 10SM SCT019 OVC031 15/14 A3004 RMK AO2 T01500139=
202409181453 METAR KCLM 181453Z AUTO 00000KT 10SM OVC018 14/14 A3003 RMK AO2 SLP168 T01440139 53010=
202409181353 METAR KCLM 181353Z AUTO 00000KT 10SM OVC019 14/13 A3001 RMK AO2 SLP163 T01390133=
202409181335 SPECI KCLM 181335Z AUTO 00000KT 9SM FEW015 BKN020 OVC035 14/13 A3000 RMK AO2 T01390133=
202409181306 SPECI KCLM 181306Z AUTO 00000KT 10SM FEW009 OVC035 14/13 A2999 RMK AO2 T01390133=
202409181253 METAR KCLM 181253Z AUTO 00000KT 10SM BKN009 OVC034 14/13 A2998 RMK AO2 CIG 007V011 SLP152 T01390133=
202409181224 SPECI KCLM 181224Z AUTO 19005KT 3SM BR FEW006 OVC013 14/13 A2998 RMK AO2 T01390133=
202409181218 SPECI KCLM 181218Z AUTO 20005KT 1 1/4SM BR SCT004 OVC013 14/13 A2999 RMK AO2 T01390133=
202409181153 METAR KCLM 181153Z AUTO 00000KT 1/2SM FG VV002 14/13 A2999 RMK AO2 SLP157 60001 70003 T01390128 10150 20133 51013=
202409181111 SPECI KCLM 181111Z AUTO 23004KT 1/4SM FG VV002 13/13 A2999 RMK AO2 T01330128=
202409181053 METAR KCLM 181053Z AUTO 00000KT 1/4SM FG VV001 13/12 A2999 RMK AO2 SLP154 T01330122=
202409181049 SPECI KCLM 181049Z AUTO 00000KT 1/4SM FG VV001 13/12 A2998 RMK AO2=
202409181037 SPECI KCLM 181037Z AUTO 00000KT 1/4SM FG VV002 13/12 A2997 RMK AO2 T01330122=
202409181011 SPECI KCLM 181011Z AUTO VRB03KT 1/4SM FG VV001 13/13 A2996 RMK AO2 T01330128=
202409180953 METAR KCLM 180953Z AUTO 09004KT 1/2SM FG VV003 13/13 A2996 RMK AO2 SLP144 T01330128=
202409180908 SPECI KCLM 180908Z AUTO 00000KT 1/4SM FG VV002 14/13 A2996 RMK AO2 T01390128=
202409180901 SPECI KCLM 180901Z AUTO 00000KT 1/2SM FG VV002 14/13 A2996 RMK AO2 T01390128=
202409180853 METAR KCLM 180853Z AUTO 36003KT 1 1/4SM BR OVC004 14/13 A2996 RMK AO2 SLP145 60001 T01390133 53010=
202409180753 METAR KCLM 180753Z AUTO 26004KT 6SM BR OVC002 14/14 A2995 RMK AO2 SLP141 T01440139 401780089=
202409180740 SPECI KCLM 180740Z AUTO 27004KT 3SM BR OVC002 14/14 A2994 RMK AO2 T01440139=
202409180723 SPECI KCLM 180723Z AUTO 29006KT 1 3/4SM BR OVC004 15/14 A2994 RMK AO2 T01500139=
202409180717 SPECI KCLM 180717Z AUTO 31003KT 10SM BKN004 OVC010 15/14 A2994 RMK AO2 CIG 002V006 T01500139=
202409180653 METAR KCLM 180653Z AUTO 00000KT 10SM BKN005 OVC010 15/14 A2994 RMK AO2 RAB12E37 SLP137 P0001 T01500139=
202409180642 SPECI KCLM 180642Z AUTO 00000KT 8SM OVC005 15/14 A2993 RMK AO2 RAB12E37 P0001 T01500139=
202409180553 METAR KCLM 180553Z AUTO 00000KT 10SM OVC003 16/14 A2993 RMK AO2 SLP135 60001 T01560139 10167 20139 52015=
202409180456 SPECI KCLM 180456Z AUTO 24003KT 10SM BKN004 OVC065 15/14 A2992 RMK AO2 T01500139=
202409180453 METAR KCLM 180453Z AUTO 25003KT 10SM SCT004 SCT028 OVC065 14/14 A2992 RMK AO2 SLP131 T01440139=
202409180434 SPECI KCLM 180434Z AUTO 00000KT 10SM SCT026 OVC065 14/13 A2991 RMK AO2 T01440133=
202409180427 SPECI KCLM 180427Z AUTO 00000KT 9SM BKN026 BKN065 14/13 A2991 RMK AO2 T01390133=
202409180417 SPECI KCLM 180417Z AUTO 28003KT 2SM BR BKN027 BKN065 14/13 A2990 RMK AO2 VIS 1 1/4V5 T01390133=
202409180405 SPECI KCLM 180405Z AUTO 00000KT 1 1/2SM BR FEW027 BKN065 14/13 A2990 RMK AO2 T01390128=
202409180353 METAR KCLM 180353Z AUTO 00000KT 9SM FEW016 BKN065 14/13 A2990 RMK AO2 RAE00 SLP124 P0000 T01440133=
202409180306 SPECI KCLM 180306Z AUTO 00000KT 10SM SCT018 OVC049 16/14 A2989 RMK AO2 RAE00 P0000 T01560139=
202409180253 METAR KCLM 180253Z AUTO 00000KT 10SM -RA BKN018 OVC049 16/14 A2989 RMK AO2 RAB0159E10B50 SLP120 P0000 60001 T01560139 51008=
202409180234 SPECI KCLM 180234Z AUTO 00000KT 10SM BKN019 OVC049 16/14 A2988 RMK AO2 RAB0159E10 P0000 T01560139=
202409180153 METAR KCLM 180153Z AUTO 00000KT 10SM SCT020 OVC050 16/14 A2988 RMK AO2 SLP118 T01610139=
202409180053 METAR KCLM 180053Z AUTO 00000KT 10SM SCT018 OVC060 16/13 A2987 RMK AO2 RAE19 SLP114 P0001 T01610133=
202409172353 METAR KCLM 172353Z AUTO 00000KT 4SM -RA BKN019 OVC042 16/13 A2986 RMK AO2 RAB27 SLP112 P0001 60001 T01610133 10178 20156 53003=
202409172253 METAR KCLM 172253Z AUTO 33003KT 10SM BKN018 OVC060 16/13 A2986 RMK AO2 SLP110 T01610128=
202409172204 SPECI KCLM 172204Z AUTO 00000KT 10SM BKN018 OVC070 17/12 A2985 RMK AO2 T01670122=
202409172153 METAR KCLM 172153Z AUTO 03004KT 10SM SCT018 OVC070 17/12 A2985 RMK AO2 SLP108 T01670122=
202409172143 SPECI KCLM 172143Z AUTO 01003KT 10SM SCT018 OVC070 17/13 A2985 RMK AO2 T01720128=
202409172053 METAR KCLM 172053Z AUTO 00000KT 10SM BKN021 OVC075 16/12 A2985 RMK AO2 SLP108 T01610122 52004=
202409172035 SPECI KCLM 172035Z AUTO VRB04KT 10SM BKN021 17/12 A2985 RMK AO2 T01670122=
202409171953 METAR KCLM 171953Z AUTO 33004KT 10SM SCT060 17/12 A2985 RMK AO2 SLP107 T01720117=
202409171853 METAR KCLM 171853Z AUTO 34005KT 10SM FEW060 17/12 A2984 RMK AO2 SLP106 T01670117=
202409171753 METAR KCLM 171753Z AUTO VRB03KT 10SM FEW070 16/12 A2984 RMK AO2 SLP104 T01610117 10161 20089 50004=
202409171653 METAR KCLM 171653Z AUTO 00000KT 10SM CLR 15/11 A2984 RMK AO2 SLP105 T01500111=
202409171553 METAR KCLM 171553Z AUTO 23003KT 10SM CLR 14/11 A2983 RMK AO2 SLP102 T01390106=
202409171453 METAR KCLM 171453Z AUTO 22003KT 10SM CLR 11/10 A2983 RMK AO2 SLP101 T01110100 55001=
202409171353 METAR KCLM 171353Z AUTO 22003KT 10SM CLR 09/08 A2982 RMK AO2 SLP098 T00890078=
202409171253 METAR KCLM 171253Z AUTO 00000KT 10SM CLR 09/08 A2982 RMK AO2 SLP097 T00940083=
202409171153 METAR KCLM 171153Z AUTO 19003KT 10SM CLR 10/08 A2983 RMK AO2 SLP101 T01000083 10117 20089 56011=
202409171053 METAR KCLM 171053Z AUTO 24004KT 10SM CLR 11/09 A2983 RMK AO2 SLP101 T01060094=
202409170953 METAR KCLM 170953Z AUTO 23004KT 10SM CLR 11/09 A2985 RMK AO2 SLP108 T01110094=
202409170853 METAR KCLM 170853Z AUTO 27009KT 10SM FEW005 11/10 A2986 RMK AO2 SLP112 T01110100 56005=
202409170808 SPECI KCLM 170808Z AUTO 28007KT 10SM FEW005 12/10 A2987 RMK AO2 T01170100=
202409170753 METAR KCLM 170753Z AUTO 27007KT 10SM CLR 11/09 A2986 RMK AO2 SLP113 T01110094 402220078=
202409170653 METAR KCLM 170653Z AUTO 00000KT 10SM CLR 11/09 A2987 RMK AO2 SLP113 T01110094=
202409170553 METAR KCLM 170553Z AUTO 00000KT 10SM CLR 11/09 A2988 RMK AO2 SLP117 T01110094 10211 20100 55004=
202409170453 METAR KCLM 170453Z AUTO 00000KT 10SM CLR 11/09 A2988 RMK AO2 SLP117 T01060089=
202409170353 METAR KCLM 170353Z AUTO 00000KT 10SM CLR 12/10 A2989 RMK AO2 SLP120 T01220100=
202409170253 METAR KCLM 170253Z AUTO 34003KT 10SM CLR 13/10 A2989 RMK AO2 SLP123 T01330100 56005=
202409170153 METAR KCLM 170153Z AUTO 30003KT 10SM CLR 16/11 A2989 RMK AO2 SLP122 T01610111=
202409170053 METAR KCLM 170053Z AUTO 03003KT 10SM CLR 18/11 A2989 RMK AO2 SLP123 T01780106=
202409162353 METAR KCLM 162353Z AUTO 08003KT 10SM CLR 19/10 A2991 RMK AO2 SLP127 T01940100 10222 20178 56019=
202409162253 METAR KCLM 162253Z AUTO VRB04KT 10SM CLR 22/09 A2991 RMK AO2 SLP129 T02170094=
202409162153 METAR KCLM 162153Z AUTO VRB03KT 10SM CLR 22/09 A2994 RMK AO2 SLP138 T02170094=
202409162053 METAR KCLM 162053Z AUTO 09007KT 10SM CLR 20/10 A2996 RMK AO2 SLP146 T02000100 58014=
202409161953 METAR KCLM 161953Z AUTO 07008KT 10SM CLR 20/09 A2998 RMK AO2 SLP150 T02000094=
202409161853 METAR KCLM 161853Z AUTO 09008KT 10SM CLR 19/10 A2999 RMK AO2 SLP156 T01940100=
202409161753 METAR KCLM 161753Z AUTO 09008KT 10SM CLR 18/10 A3000 RMK AO2 SLP159 T01830100 10189 20078 56005=
202409161653 METAR KCLM 161653Z AUTO 07007KT 10SM CLR 17/10 A3001 RMK AO2 SLP161 T01720100=
202409161553 METAR KCLM 161553Z AUTO 10006KT 10SM CLR 17/10 A3001 RMK AO2 SLP162 T01720100=
202409161453 METAR KCLM 161453Z AUTO 00000KT 10SM CLR 11/09 A3002 RMK AO2 SLP165 T01110089 55002=
202409161353 METAR KCLM 161353Z AUTO 20004KT 10SM CLR 10/07 A3001 RMK AO2 SLP164 T01000072=
202409161253 METAR KCLM 161253Z AUTO 23003KT 10SM CLR 08/07 A3002 RMK AO2 SLP165 T00830067=
202409161153 METAR KCLM 161153Z AUTO 00000KT 10SM CLR 08/07 A3002 RMK AO2 SLP166 T00830067 10122 20078 52002=
202409161053 METAR KCLM 161053Z AUTO 00000KT 10SM CLR 09/07 A3002 RMK AO2 SLP166 T00890072=
202409160953 METAR KCLM 160953Z AUTO 00000KT 10SM CLR 08/07 A3002 RMK AO2 SLP164 T00830067=
202409160853 METAR KCLM 160853Z AUTO 00000KT 10SM CLR 09/07 A3002 RMK AO2 SLP164 T00940072 55000=
202409160753 METAR KCLM 160753Z AUTO 23005KT 10SM CLR 11/07 A3001 RMK AO2 SLP161 T01110072 402000083=
202409160653 METAR KCLM 160653Z AUTO 22006KT 10SM CLR 12/08 A3000 RMK AO2 SLP160 T01220078=
202409160553 METAR KCLM 160553Z AUTO 25006KT 10SM CLR 12/08 A3002 RMK AO2 SLP164 T01220083 10194 20111 58000=
202409160453 METAR KCLM 160453Z AUTO 24005KT 10SM CLR 12/09 A3002 RMK AO2 SLP167 T01220094=
202409160353 METAR KCLM 160353Z AUTO 23005KT 10SM CLR 11/11 A3003 RMK AO2 SLP169 T01110106=
202409160253 METAR KCLM 160253Z AUTO 22003KT 10SM CLR 12/10 A3002 RMK AO2 SLP166 T01220100 52011=
202409160153 METAR KCLM 160153Z AUTO 29003KT 10SM CLR 14/10 A3001 RMK AO2 SLP162 T01390100=
202409160053 METAR KCLM 160053Z AUTO 30004KT 10SM CLR 16/10 A3000 RMK AO2 SLP158 T01610100=
202409152353 METAR KCLM 152353Z AUTO 35003KT 10SM CLR 19/09 A2999 RMK AO2 SLP154 T01940089 10200 20167 56007=
202409152253 METAR KCLM 152253Z AUTO 00000KT 10SM CLR 20/09 A2999 RMK AO2 SLP154 T02000089=
202409152153 METAR KCLM 152153Z AUTO VRB03KT 10SM CLR 20/08 A2999 RMK AO2 SLP156 T02000083=
202409152053 METAR KCLM 152053Z AUTO VRB04KT 10SM CLR 18/09 A3001 RMK AO2 SLP161 T01830089 58001=
202409151953 METAR KCLM 151953Z AUTO VRB06KT 10SM CLR 18/09 A3001 RMK AO2 SLP164 T01830094=
202409151853 METAR KCLM 151853Z AUTO 08006KT 10SM CLR 18/09 A3002 RMK AO2 SLP164 T01780094=
202409151753 METAR KCLM 151753Z AUTO VRB03KT 10SM FEW032 18/10 A3001 RMK AO2 SLP162 T01780100 10178 20083 53003=
202409151653 METAR KCLM 151653Z AUTO 36003KT 10SM SCT037 16/09 A3001 RMK AO2 SLP161 T01560094=
202409151553 METAR KCLM 151553Z AUTO 00000KT 10SM FEW040 BKN050 12/09 A3000 RMK AO2 SLP159 T01220094=
202409151453 METAR KCLM 151453Z AUTO 22004KT 10SM FEW037 OVC046 11/09 A3000 RMK AO2 SLP160 T01060089 53010=
202409151353 METAR KCLM 151353Z AUTO 23004KT 10SM FEW040 10/08 A2999 RMK AO2 SLP155 T01000083=
202409151253 METAR KCLM 151253Z AUTO 23004KT 10SM SCT035 09/08 A2998 RMK AO2 SLP150 T00890078=
202409151153 METAR KCLM 151153Z AUTO 00000KT 10SM CLR 09/08 A2997 RMK AO2 SLP149 T00940083 10128 20089 53003=
202409151053 METAR KCLM 151053Z AUTO 00000KT 10SM CLR 10/08 A2996 RMK AO2 SLP147 T01000083=
202409150953 METAR KCLM 150953Z AUTO 00000KT 10SM CLR 10/09 A2997 RMK AO2 SLP147 T01000089=
202409150853 METAR KCLM 150853Z AUTO 22006KT 10SM CLR 11/09 A2996 RMK AO2 SLP146 T01060089 53002=
202409150753 METAR KCLM 150753Z AUTO 25008KT 10SM SCT075 12/09 A2996 RMK AO2 SLP145 T01220094 401720117=
202409150653 METAR KCLM 150653Z AUTO 27008KT 10SM FEW080 12/09 A2995 RMK AO2 SLP143 T01220094=
202409150553 METAR KCLM 150553Z AUTO 26006KT 10SM CLR 12/10 A2996 RMK AO2 SLP144 T01170100 10172 20117 53004=
202409150453 METAR KCLM 150453Z AUTO 28007KT 10SM CLR 13/11 A2995 RMK AO2 SLP142 T01280106=
202409150353 METAR KCLM 150353Z AUTO 27010KT 10SM CLR 13/11 A2995 RMK AO2 SLP141 T01280106=
202409150253 METAR KCLM 150253Z AUTO 25009KT 10SM CLR 14/11 A2994 RMK AO2 SLP140 T01390111 53007=
202409150153 METAR KCLM 150153Z AUTO 26011KT 10SM CLR 14/11 A2994 RMK AO2 SLP137 T01440111=
202409150053 METAR KCLM 150053Z AUTO 28009G18KT 10SM CLR 16/12 A2992 RMK AO2 SLP133 T01610117=
202409142353 METAR KCLM 142353Z AUTO 29010G18KT 10SM CLR 17/12 A2992 RMK AO2 SLP133 60000 T01720122 10172 20139 56004=
202409142253 METAR KCLM 142253Z AUTO 30010KT 10SM SCT047 17/12 A2992 RMK AO2 SLP133 T01670122=
202409142205 SPECI KCLM 142205Z AUTO 30007KT 10SM FEW024 OVC047 16/12 A2993 RMK AO2 T01610122=
202409142153 METAR KCLM 142153Z AUTO 28007KT 10SM BKN023 OVC046 16/12 A2993 RMK AO2 SLP135 T01610122=
202409142135 SPECI KCLM 142135Z AUTO 32004KT 10SM SCT007 BKN023 BKN046 17/13 A2994 RMK AO2 T01670133=
202409142112 SPECI KCLM 142112Z AUTO 00000KT 8SM BKN007 BKN013 OVC020 16/13 A2994 RMK AO2 T01560128=
202409142103 SPECI KCLM 142103Z AUTO 01003KT 6SM BR SCT002 BKN013 OVC049 16/13 A2994 RMK AO2 T01560133=
202409142053 METAR KCLM 142053Z AUTO 02003KT 4SM BR BKN002 OVC006 15/13 A2994 RMK AO2 SLP137 60000 T01500133 50007=
202409141953 METAR KCLM 141953Z AUTO VRB04KT 4SM BR OVC003 14/13 A2994 RMK AO2 RAE06B42E51 CIG 002V007 SLP138 P0000 T01440133=
202409141946 SPECI KCLM 141946Z AUTO 30004KT 4SM -RA BR BKN003 OVC008 14/13 A2994 RMK AO2 RAE06B42 CIG 002V005 P0000 T01440133=
202409141926 SPECI KCLM 141926Z AUTO 32004KT 8SM BKN009 BKN014 OVC035 16/14 A2993 RMK AO2 RAE06 P0000 T01560139=
202409141914 SPECI KCLM 141914Z AUTO 00000KT 6SM HZ BKN013 OVC039 16/13 A2993 RMK AO2 RAE06 P0000 T01610133=
202409141907 SPECI KCLM 141907Z AUTO 00000KT 4SM BR FEW013 OVC037 16/14 A2993 RMK AO2 RAE06 P0000 T01610139=
202409141900 SPECI KCLM 141900Z AUTO 00000KT 2 1/2SM -RA BR OVC037 16/14 A2993 RMK AO2 P0000 T01560139=
202409141853 METAR KCLM 141853Z AUTO VRB03KT 3SM -RA BR FEW026 OVC037 16/14 A2993 RMK AO2 RAB1755E30B49 SLP134 P0000 T01560139=
202409141837 SPECI KCLM 141837Z AUTO 00000KT 3SM BR SCT012 SCT024 OVC032 15/14 A2993 RMK AO2 RAB1755E30 P0000 T01500139=
202409141830 SPECI KCLM 141830Z AUTO 27003KT 2 1/2SM BR SCT012 OVC027 15/14 A2993 RMK AO2 RAB1755E30 P0000 T01500139=
202409141821 SPECI KCLM 141821Z AUTO 29005KT 2 1/2SM -RA BR FEW005 BKN011 OVC025 15/13 A2993 RMK AO2 RAB1755 P0000 T01500133=
202409141753 METAR KCLM 141753Z AUTO 30005KT 7SM FEW002 OVC025 15/13 A2992 RMK AO2 SLP130 T01500133 10167 20117 53009=
202409141746 SPECI KCLM 141746Z AUTO 31005KT 7SM SCT002 OVC027 15/13 A2991 RMK AO2 T01500133=
202409141732 SPECI KCLM 141732Z AUTO 32004KT 3SM BR BKN002 BKN027 OVC055 16/14 A2991 RMK AO2 T01560139=
202409141653 METAR KCLM 141653Z AUTO 00000KT 3SM BR FEW003 BKN060 OVC070 16/15 A2990 RMK AO2 SLP125 T01610150=
202409141644 SPECI KCLM 141644Z AUTO 34004KT 4SM BR FEW003 BKN065 16/14 A2990 RMK AO2 T01610144=
202409141553 METAR KCLM 141553Z AUTO 26003KT 5SM BR FEW020 OVC080 15/14 A2989 RMK AO2 SLP122 T01500144=
202409141542 SPECI KCLM 141542Z AUTO 00000KT 5SM BR SCT021 SCT050 OVC085 15/14 A2989 RMK AO2 T01500139=
202409141532 SPECI KCLM 141532Z AUTO 22003KT 4SM BR SCT020 BKN024 OVC085 14/14 A2989 RMK AO2 T01440139=
202409141502 SPECI KCLM 141502Z AUTO 00000KT 3SM BR BKN085 14/13 A2989 RMK AO2 T01390133=
202409141453 METAR KCLM 141453Z AUTO 00000KT 2 1/2SM BR FEW031 SCT085 13/12 A2989 RMK AO2 SLP121 T01280122 55002=
202409141420 SPECI KCLM 141420Z AUTO 15003KT 2SM BR FEW019 12/11 A2989 RMK AO2 T01220111=
202409141406 SPECI KCLM 141406Z AUTO 00000KT 1 3/4SM BR SCT018 12/11 A2989 RMK AO2 T01170111=
202409141403 SPECI KCLM 141403Z AUTO 00000KT 2SM BR FEW001 BKN018 12/11 A2988 RMK AO2 T01170111=
202409141353 METAR KCLM 141353Z AUTO 24003KT 1 1/2SM BR FEW001 12/11 A2988 RMK AO2 SLP119 T01220111=
202409141344 SPECI KCLM 141344Z AUTO 00000KT 1/2SM FG SCT001 SCT018 12/12 A2988 RMK AO2 T01220117=
202409141341 SPECI KCLM 141341Z AUTO 00000KT 1/4SM FG VV001 12/12 A2988 RMK AO2 T01220117=
202409141323 SPECI KCLM 141323Z AUTO 00000KT 3/4SM BR VV001 12/12 A2988 RMK AO2 T01220117=
202409141309 SPECI KCLM 141309Z AUTO 00000KT 1SM BR VV001 13/12 A2988 RMK AO2 T01280122=
202409141251 METAR KCLM 141251Z AUTO 00000KT 1/4SM FG VV001 13/12 A2989 RMK AO2 SLP120 T01280122=
202409141250 SPECI KCLM 141250Z AUTO 00000KT 1/4SM FG VV001 13/12 A2989 RMK AO2=
202409141235 SPECI KCLM 141235Z AUTO 15003KT 1 1/2SM BR CLR 13/12 A2989 RMK AO2 VIS 1/2V5 T01280122=
202409141223 SPECI KCLM 141223Z AUTO 14003KT 6SM BR SCT019 13/12 A2989 RMK AO2 T01330122=
202409141153 METAR KCLM 141153Z AUTO 00000KT 3SM BR FEW001 OVC017 14/13 A2989 RMK AO2 SLP123 60001 70021 T01390128 10144 20133 50001=
202409141149 SPECI KCLM 141149Z AUTO 00000KT 3SM BR SCT002 OVC018 14/13 A2990 RMK AO2=
202409141120 SPECI KCLM 141120Z AUTO 00000KT 3SM BR OVC003 13/13 A2990 RMK AO2 T01330128=
202409141053 METAR KCLM 141053Z AUTO 00000KT 1SM BR BKN004 BKN019 OVC025 13/13 A2989 RMK AO2 SLP123 P0001 T01330128=
202409141048 SPECI KCLM 141048Z AUTO 00000KT 1 1/2SM BR BKN004 OVC019 13/13 A2989 RMK AO2 P0001=
202409141022 SPECI KCLM 141022Z AUTO 00000KT 3/4SM BR VV003 13/13 A2989 RMK AO2 P0001 T01330128=
202409140953 METAR KCLM 140953Z AUTO 00000KT 1/4SM FG VV002 13/13 A2990 RMK AO2 RAB10E35 SLP123 P0000 T01330128=
202409140912 SPECI KCLM 140912Z AUTO 00000KT 1/4SM -RA FG VV002 13/13 A2990 RMK AO2 RAB10 P0000 T01330128=
202409140853 METAR KCLM 140853Z AUTO 00000KT 1/2SM FG VV003 13/13 A2990 RMK AO2 SLP126 60000 T01330128 56004=
202409140803 SPECI KCLM 140803Z AUTO 00000KT 1/2SM FG BKN004 OVC027 14/13 A2990 RMK AO2 T01390128=
202409140756 SPECI KCLM 140756Z AUTO 00000KT 1/2SM FG FEW002 BKN008 OVC027 14/13 A2990 RMK AO2 T01390128=
202409140753 METAR KCLM 140753Z AUTO 00000KT 3/4SM BR SCT002 BKN018 OVC027 14/13 A2990 RMK AO2 SLP126 T01390128 401830106=
202409140750 SPECI KCLM 140750Z AUTO 00000KT 1SM BR SCT002 BKN027 OVC032 14/13 A2990 RMK AO2=
202409140736 SPECI KCLM 140736Z AUTO 00000KT 2 1/2SM BR FEW004 BKN027 OVC050 14/13 A2991 RMK AO2 T01390133=
202409140730 SPECI KCLM 140730Z AUTO 33003KT 3SM BR FEW006 BKN044 OVC050 14/13 A2990 RMK AO2 T01390133=
202409140653 METAR KCLM 140653Z AUTO 00000KT 5SM BR BKN025 OVC055 14/13 A2992 RMK AO2 RAE0556 SLP130 P0000 T01390133=
202409140645 SPECI KCLM 140645Z AUTO 00000KT 6SM BR FEW003 BKN025 OVC055 14/13 A2991 RMK AO2 RAE0556 P0000 T01390133=
202409140624 SPECI KCLM 140624Z AUTO 00000KT 4SM BR FEW003 OVC055 14/13 A2991 RMK AO2 RAE0556 P0000 T01440133=
202409140553 METAR KCLM 140553Z AUTO 09003KT 8SM -RA FEW022 OVC050 14/13 A2992 RMK AO2 SLP131 P0006 60007 T01440133 10150 20139 58012=
202409140518 SPECI KCLM 140518Z AUTO 00000KT 5SM -RA BR FEW039 OVC048 14/13 A2993 RMK AO2 P0005 T01440133=
202409140504 SPECI KCLM 140504Z AUTO 31003KT 2SM RA BR SCT040 OVC050 14/13 A2994 RMK AO2 P0004 T01440133=
202409140453 METAR KCLM 140453Z AUTO 00000KT 5SM -RA BR SCT040 OVC055 14/13 A2994 RMK AO2 RAB06E15B37 SLP137 P0000 T01440133=
202409140404 SPECI KCLM 140404Z AUTO 32004KT 5SM BR OVC050 14/13 A2995 RMK AO2 T01390133=
202409140353 METAR KCLM 140353Z AUTO 34003KT 2SM BR OVC050 14/13 A2994 RMK AO2 SLP139 T01390133=
202409140253 METAR KCLM 140253Z AUTO 00000KT 4SM BR FEW001 OVC055 14/13 A2995 RMK AO2 SLP142 P0001 60001 T01440133 58002=
202409140153 METAR KCLM 140153Z AUTO 00000KT 7SM FEW049 BKN080 OVC090 15/14 A2996 RMK AO2 RAB13E49 SLP145 P0000 T01500139=
202409140116 SPECI KCLM 140116Z AUTO 00000KT 8SM -RA FEW003 SCT021 OVC055 14/13 A2997 RMK AO2 RAB13 P0000 T01440133=
202409140053 METAR KCLM 140053Z AUTO 00000KT 9SM OVC004 14/13 A2998 RMK AO2 RAE32 SLP151 P0000 T01440133=
202409140041 SPECI KCLM 140041Z AUTO 29003KT 10SM BKN004 BKN023 OVC060 14/13 A2998 RMK AO2 RAE32 P0000 T01440128=
202409140030 SPECI KCLM 140030Z AUTO 00000KT 8SM -RA FEW003 BKN023 OVC060 14/13 A2998 RMK AO2 P0000 T01390128=
202409132353 METAR KCLM 132353Z AUTO 07005KT 10SM -RA OVC095 15/14 A2996 RMK AO2 SLP144 P0003 60013 T01500139 10183 20139 58018=
202409132325 SPECI KCLM 132325Z AUTO 00000KT 9SM -RA FEW005 SCT070 OVC090 14/13 A2999 RMK AO2 P0003 T01390128=
202409132253 METAR KCLM 132253Z AUTO 00000KT 4SM -RA BR OVC075 14/13 A2998 RMK AO2 SLP153 P0010 T01440133=
202409132153 METAR KCLM 132153Z AUTO 00000KT 10SM -RA OVC095 16/12 A3001 RMK AO2 RAB48 SLP163 P0000 T01560117=
202409132053 METAR KCLM 132053Z AUTO 29005KT 10SM FEW075 BKN110 16/11 A3001 RMK AO2 SLP162 T01560111 55000=
202409131953 METAR KCLM 131953Z AUTO 34005KT 10SM FEW110 17/11 A3000 RMK AO2 SLP157 T01670106=
202409131853 METAR KCLM 131853Z AUTO 34005KT 10SM CLR 17/11 A3000 RMK AO2 SLP160 T01670106=
202409131753 METAR KCLM 131753Z AUTO 00000KT 10SM CLR 17/11 A3001 RMK AO2 SLP163 T01720106 10172 20106 58001=
202409131653 METAR KCLM 131653Z AUTO VRB05KT 10SM CLR 16/11 A3001 RMK AO2 SLP163 T01610106=
202409131553 METAR KCLM 131553Z AUTO 24004KT 10SM FEW017 14/11 A3001 RMK AO2 SLP163 T01440106=
202409131453 METAR KCLM 131453Z AUTO 15003KT 10SM CLR 13/11 A3001 RMK AO2 SLP163 T01330106 50001=
202409131413 SPECI KCLM 131413Z AUTO 18003KT 10SM SCT017 11/09 A3002 RMK AO2 T01110094=
202409131353 METAR KCLM 131353Z AUTO 22004KT 10SM OVC017 12/10 A3002 RMK AO2 SLP165 T01170100=
202409131253 METAR KCLM 131253Z AUTO 23004KT 10SM BKN015 12/10 A3002 RMK AO2 SLP165 T01170100=
202409131239 SPECI KCLM 131239Z AUTO 24004KT 10SM BKN015 12/09 A3002 RMK AO2 T01170094=
202409131153 METAR KCLM 131153Z AUTO 23003KT 10SM CLR 11/10 A3001 RMK AO2 SLP163 T01110100 10128 20111 55000=
202409131053 METAR KCLM 131053Z AUTO 27006KT 10SM CLR 12/10 A3001 RMK AO2 SLP162 T01170100=
202409130953 METAR KCLM 130953Z AUTO 29006KT 10SM CLR 12/10 A3001 RMK AO2 SLP161 T01170100=
202409130907 SPECI KCLM 130907Z AUTO 26006KT 10SM SCT011 12/10 A3001 RMK AO2 T01220100=
202409130853 METAR KCLM 130853Z AUTO 27006KT 10SM SCT006 BKN011 12/11 A3001 RMK AO2 SLP163 T01220106 58002=
202409130801 SPECI KCLM 130801Z AUTO 29006KT 10SM BKN007 OVC011 12/11 A3002 RMK AO2 T01220106=
202409130753 METAR KCLM 130753Z AUTO 29006KT 10SM OVC012 12/11 A3002 RMK AO2 SLP166 T01220106 401830106=
202409130705 SPECI KCLM 130705Z AUTO 28006KT 10SM OVC010 13/11 A3002 RMK AO2 T01280106=
202409130653 METAR KCLM 130653Z AUTO 28007KT 10SM OVC009 13/11 A3002 RMK AO2 CIG 007V012 SLP166 T01280111=
202409130624 SPECI KCLM 130624Z AUTO 28007KT 10SM OVC005 13/11 A3002 RMK AO2 CIG 004V010 T01280111=
202409130553 METAR KCLM 130553Z AUTO 29008KT 10SM OVC004 13/12 A3002 RMK AO2 SLP165 T01280117 10178 20122 51010=
202409130453 METAR KCLM 130453Z AUTO 29007KT 10SM OVC004 13/12 A3001 RMK AO2 SLP163 T01280117=
202409130353 METAR KCLM 130353Z AUTO 27007KT 10SM OVC004 13/12 A3001 RMK AO2 SLP161 T01280122=
202409130323 SPECI KCLM 130323Z AUTO 27008KT 10SM BKN004 13/12 A3000 RMK AO2 T01330117=
202409130314 SPECI KCLM 130314Z AUTO 28006KT 10SM SCT004 13/12 A3000 RMK AO2 T01280117=
202409130253 METAR KCLM 130253Z AUTO 28005KT 10SM CLR 13/12 A2999 RMK AO2 SLP155 T01330117 53006=
202409130153 METAR KCLM 130153Z AUTO 30004KT 10SM CLR 16/12 A2997 RMK AO2 SLP150 T01560122=
202409130053 METAR KCLM 130053Z AUTO 31004KT 10SM OVC037 17/12 A2997 RMK AO2 SLP150 T01720122=
202409122353 METAR KCLM 122353Z AUTO 34005KT 10SM OVC034 18/12 A2997 RMK AO2 SLP149 T01780122 10183 20144 51001=
202409122253 METAR KCLM 122253Z AUTO VRB04KT 10SM CLR 18/12 A2997 RMK AO2 SLP148 T01780117=
202409122153 METAR KCLM 122153Z AUTO 33004KT 10SM BKN038 17/12 A2997 RMK AO2 SLP149 T01670117=
202409122053 METAR KCLM 122053Z AUTO 36003KT 10SM FEW031 16/12 A2997 RMK AO2 SLP148 T01610117 53003=
202409121953 METAR KCLM 121953Z AUTO 34004KT 10SM CLR 16/11 A2996 RMK AO2 SLP146 T01560111=
202409121853 METAR KCLM 121853Z AUTO 33005KT 10SM CLR 16/12 A2996 RMK AO2 SLP144 T01560117=
202409121753 METAR KCLM 121753Z AUTO VRB03KT 10SM CLR 14/11 A2996 RMK AO2 SLP144 T01440111 10172 20106 51012=
202409121653 METAR KCLM 121653Z AUTO 36004KT 10SM CLR 17/12 A2995 RMK AO2 SLP141 T01720122=
202409121553 METAR KCLM 121553Z AUTO 31003KT 10SM CLR 16/13 A2994 RMK AO2 SLP138 T01560128=
202409121453 METAR KCLM 121453Z AUTO 27003KT 10SM CLR 13/12 A2992 RMK AO2 SLP132 T01330122 53012=
202409121413 SPECI KCLM 121413Z AUTO 00000KT 4SM BR FEW002 11/10 A2991 RMK AO2 T01110100=
202409121406 SPECI KCLM 121406Z AUTO 00000KT 2 1/2SM BR SCT002 12/11 A2991 RMK AO2 VIS 1/2V5 T01170106=
202409121355 SPECI KCLM 121355Z AUTO 00000KT 3/4SM BR VV002 12/11 A2991 RMK AO2 T01170106=
202409121353 METAR KCLM 121353Z AUTO 00000KT 2SM BR CLR 12/11 A2991 RMK AO2 VIS 1/2V5 SLP127 T01170106=
202409121344 SPECI KCLM 121344Z AUTO 00000KT 2SM BR FEW001 12/11 A2990 RMK AO2 T01170106=
202409121325 SPECI KCLM 121325Z AUTO 00000KT 3SM BR FEW001 12/11 A2990 RMK AO2 T01170106=
202409121313 SPECI KCLM 121313Z AUTO 00000KT 1 3/4SM BR FEW001 FEW039 12/12 A2989 RMK AO2 VIS 3/4V5 T01220117=
202409121253 METAR KCLM 121253Z AUTO 00000KT 10SM BKN039 13/11 A2989 RMK AO2 SLP121 T01280111 $=
202409121153 METAR KCLM 121153Z AUTO 25006KT 10SM BKN039 OVC055 14/12 A2989 RMK AO2 SLP120 T01440122 10144 20122 51012 $=
202409121053 METAR KCLM 121053Z AUTO 23003KT 10SM BKN042 OVC055 13/12 A2988 RMK AO2 SLP118 T01330122 $=
202409120953 METAR KCLM 120953Z AUTO 23005KT 10SM SCT060 13/12 A2987 RMK AO2 SLP114 T01280117 $=
202409120853 METAR KCLM 120853Z AUTO 32007KT 10SM CLR 13/12 A2985 RMK AO2 SLP109 T01330122 51003 $=
202409120753 METAR KCLM 120753Z AUTO 24006KT 10SM SCT080 14/12 A2985 RMK AO2 SLP108 T01390122 401780111 $=
202409120653 METAR KCLM 120653Z AUTO 30004KT 10SM SCT041 BKN085 14/12 A2986 RMK AO2 SLP110 T01390122 $=
202409120553 METAR KCLM 120553Z AUTO 23003KT 10SM BKN048 OVC060 14/12 A2984 RMK AO2 SLP106 60000 T01390122 10178 20128 51013 $=
202409120453 METAR KCLM 120453Z AUTO 00000KT 10SM SCT055 13/12 A2984 RMK AO2 SLP103 T01280117 $=
202409120353 METAR KCLM 120353Z AUTO 00000KT 10SM FEW065 14/13 A2983 RMK AO2 RAE03 SLP100 P0000 T01440128=
202409120253 METAR KCLM 120253Z AUTO 00000KT 10SM -RA BKN060 OVC070 17/13 A2980 RMK AO2 RAB53 SLP092 P0000 60000 T01670128 53006=
202409120153 METAR KCLM 120153Z AUTO 00000KT 10SM FEW038 BKN070 OVC080 17/12 A2980 RMK AO2 SLP090 T01720122=
202409120053 METAR KCLM 120053Z AUTO 00000KT 10SM FEW018 BKN060 OVC090 18/12 A2979 RMK AO2 SLP088 T01780122=
202409112353 METAR KCLM 112353Z AUTO 11004KT 10SM BKN045 OVC065 17/12 A2979 RMK AO2 SLP086 T01720122 10172 20139 53003=
202409112253 METAR KCLM 112253Z AUTO 14004KT 10SM OVC046 17/12 A2978 RMK AO2 SLP085 T01670122=
202409112237 SPECI KCLM 112237Z AUTO 13003KT 10SM SCT013 OVC047 16/12 A2978 RMK AO2 T01610122=
202409112153 METAR KCLM 112153Z AUTO VRB03KT 10SM BKN013 OVC046 16/12 A2978 RMK AO2 SLP084 T01610117=
202409112053 METAR KCLM 112053Z AUTO 00000KT 10SM OVC010 15/12 A2978 RMK AO2 SLP083 T01500122 53006=
202409112033 SPECI KCLM 112033Z AUTO VRB04KT 10SM OVC010 15/12 A2978 RMK AO2 CIG 008V013 T01500122=
202409112020 SPECI KCLM 112020Z AUTO 08004KT 10SM OVC009 15/12 A2977 RMK AO2 CIG 008V013 T01500122=
202409111953 METAR KCLM 111953Z AUTO 36003KT 10SM OVC011 15/12 A2977 RMK AO2 CIG 008V013 SLP081 T01500122=
202409111915 SPECI KCLM 111915Z AUTO VRB03KT 10SM OVC010 15/12 A2977 RMK AO2 T01500122=
202409111853 METAR KCLM 111853Z AUTO 03004KT 10SM OVC009 15/12 A2976 RMK AO2 SLP078 T01500122=
202409111753 METAR KCLM 111753Z AUTO 00000KT 10SM OVC008 14/12 A2976 RMK AO2 SLP076 T01390122 10144 20122 51006=
202409111653 METAR KCLM 111653Z AUTO 00000KT 10SM OVC009 14/12 A2975 RMK AO2 SLP075 T01390117=
202409111553 METAR KCLM 111553Z AUTO 00000KT 10SM OVC008 13/12 A2975 RMK AO2 SLP073 T01330117=
202409111453 METAR KCLM 111453Z AUTO 00000KT 10SM OVC008 13/11 A2974 RMK AO2 SLP070 T01280111 53003=
202409111353 METAR KCLM 111353Z AUTO 00000KT 9SM OVC009 12/11 A2973 RMK AO2 SLP066 T01220111=
202409111340 SPECI KCLM 111340Z AUTO 00000KT 9SM OVC009 12/11 A2972 RMK AO2 T01220111=
202409111253 METAR KCLM 111253Z AUTO 17003KT 10SM OVC011 12/11 A2972 RMK AO2 SLP064 T01220111=
202409111242 SPECI KCLM 111242Z AUTO 00000KT 10SM OVC010 12/11 A2972 RMK AO2 T01220111=
202409111153 METAR KCLM 111153Z AUTO 19003KT 10SM OVC009 12/11 A2973 RMK AO2 CIG 007V012 SLP067 60003 70009 T01220111 10128 20111 51004=
202409111151 SPECI KCLM 111151Z AUTO 00000KT 10SM OVC009 12/11 A2973 RMK AO2 CIG 007V012=
202409111128 SPECI KCLM 111128Z AUTO 00000KT 10SM SCT006 OVC012 12/11 A2973 RMK AO2 T01220111=
202409111053 METAR KCLM 111053Z AUTO 00000KT 10SM BKN006 OVC060 12/11 A2972 RMK AO2 SLP065 T01170106=
202409111020 SPECI KCLM 111020Z AUTO 27003KT 3SM BR BKN006 12/11 A2972 RMK AO2 T01170106=
202409111010 SPECI KCLM 111010Z AUTO 28004KT 2 1/2SM BR FEW006 SCT065 BKN080 11/11 A2972 RMK AO2 VIS 1 1/4V5 T01110106=
202409110953 METAR KCLM 110953Z AUTO 00000KT 8SM BKN075 12/11 A2972 RMK AO2 SLP063 T01170106=
202409110853 METAR KCLM 110853Z AUTO 00000KT 10SM SCT019 BKN080 BKN110 12/11 A2973 RMK AO2 RAB08E51 SLP066 P0001 60003 T01220111 56012=
202409110851 SPECI KCLM 110851Z AUTO 00000KT 10SM SCT019 BKN080 BKN100 12/11 A2973 RMK AO2 RAB08E51 P0001=
202409110844 SPECI KCLM 110844Z AUTO 00000KT 10SM -RA BKN019 OVC090 12/11 A2973 RMK AO2 RAB08 P0001 T01220111=
202409110831 SPECI KCLM 110831Z AUTO 00000KT 10SM -RA SCT018 BKN090 OVC110 12/11 A2973 RMK AO2 RAB08 P0001 T01220111=
202409110753 METAR KCLM 110753Z AUTO 00000KT 10SM OVC019 12/11 A2975 RMK AO2 RAE47 SLP073 P0002 T01220111 401780089=
202409110653 METAR KCLM 110653Z AUTO 00000KT 10SM -RA BKN020 OVC095 12/11 A2976 RMK AO2 RAB0556 SLP079 P0000 T01220111=
202409110553 METAR KCLM 110553Z AUTO 00000KT 10SM SCT080 OVC090 13/12 A2977 RMK AO2 RAE49 SLP080 P0003 60006 T01280117 10156 20128 58013=
202409110453 METAR KCLM 110453Z AUTO 00000KT 10SM -RA OVC060 13/11 A2978 RMK AO2 RAB35 SLP085 P0000 T01330111=
202409110353 METAR KCLM 110353Z AUTO 25005KT 10SM FEW020 BKN100 OVC120 13/11 A2980 RMK AO2 SLP091 T01330106=
202409110253 METAR KCLM 110253Z AUTO 27007KT 10SM BKN065 OVC085 13/11 A2981 RMK AO2 RAE20 SLP094 P0000 60003 T01330111 58018=
202409110153 METAR KCLM 110153Z AUTO 25006KT 10SM -RA SCT075 OVC100 13/11 A2982 RMK AO2 SLP100 P0002 T01330111=
202409110053 METAR KCLM 110053Z AUTO 28007KT 5SM -RA OVC085 14/11 A2984 RMK AO2 RAB26 SLP107 P0001 T01390111=
202409102353 METAR KCLM 102353Z AUTO 26009KT 10SM BKN100 16/11 A2986 RMK AO2 SLP111 T01560106 10178 20122 56013=
202409102253 METAR KCLM 102253Z AUTO 29009KT 10SM FEW100 17/11 A2987 RMK AO2 SLP115 T01670106=
202409102153 METAR KCLM 102153Z AUTO 31006KT 10SM CLR 17/11 A2988 RMK AO2 SLP118 T01670106=
202409102053 METAR KCLM 102053Z AUTO 28006KT 10SM CLR 16/12 A2990 RMK AO2 SLP124 T01610117 58008=
202409102019 SPECI KCLM 102019Z AUTO 30005KT 10SM SCT021 14/11 A2990 RMK AO2 T01440111=
202409101953 METAR KCLM 101953Z AUTO 31006KT 10SM FEW006 BKN021 14/11 A2991 RMK AO2 SLP129 T01440111=
202409101951 SPECI KCLM 101951Z AUTO 30007KT 10SM SCT006 BKN021 14/11 A2991 RMK AO2=
202409101937 SPECI KCLM 101937Z AUTO 34006KT 10SM BKN006 15/12 A2991 RMK AO2 T01500117=
202409101853 METAR KCLM 101853Z AUTO 30006KT 10SM OVC002 13/11 A2992 RMK AO2 SLP133 T01330111=
202409101819 SPECI KCLM 101819Z AUTO 31007KT 3SM BR OVC002 13/11 A2992 RMK AO2 T01280111=
202409101753 METAR KCLM 101753Z AUTO VRB06KT 1SM BR OVC002 12/12 A2993 RMK AO2 VIS 1/2V3 SLP135 T01220117 10128 20100 56001=
202409101740 SPECI KCLM 101740Z AUTO 30006KT 1/2SM FG VV002 12/11 A2993 RMK AO2 T01220111=
202409101732 SPECI KCLM 101732Z AUTO 29006KT 1SM BR OVC002 12/12 A2993 RMK AO2 VIS 1/2V3 T01220117=
202409101720 SPECI KCLM 101720Z AUTO 31004KT 3/4SM BR OVC002 12/11 A2993 RMK AO2 T01220111=
202409101708 SPECI KCLM 101708Z AUTO 35005KT 1 1/2SM BR OVC002 12/12 A2993 RMK AO2 VIS 1/2V5 T01220117=
202409101653 METAR KCLM 101653Z AUTO VRB03KT 10SM OVC002 12/12 A2993 RMK AO2 SLP135 T01220117=
202409101558 SPECI KCLM 101558Z AUTO VRB03KT 3SM BR OVC002 12/11 A2993 RMK AO2 T01170111=
202409101553 METAR KCLM 101553Z AUTO 25003KT 1 1/2SM BR OVC002 12/11 A2993 RMK AO2 VIS 3/4V4 SLP136 T01170106=
202409101550 SPECI KCLM 101550Z AUTO 25004KT 3/4SM BR VV002 11/11 A2993 RMK AO2=
202409101531 SPECI KCLM 101531Z AUTO 28006KT 1/4SM FG VV002 11/11 A2994 RMK AO2 T01110106=
202409101453 METAR KCLM 101453Z AUTO 27004KT M1/4SM FG VV001 11/10 A2994 RMK AO2 SLP139 T01060100 55001=
202409101353 METAR KCLM 101353Z AUTO 26003KT M1/4SM FG VV001 10/09 A2993 RMK AO2 SLP136 T01000094=
202409101348 SPECI KCLM 101348Z AUTO 24004KT M1/4SM FG VV001 10/09 A2993 RMK AO2=
202409101253 METAR KCLM 101253Z AUTO 26003KT 1/4SM FG VV001 10/09 A2994 RMK AO2 SLP139 T01000094=
202409101246 SPECI KCLM 101246Z AUTO 25003KT 1/4SM FG VV001 10/09 A2994 RMK AO2 T01000094=
202409101238 SPECI KCLM 101238Z AUTO 00000KT 1/4SM FG VV002 10/09 A2995 RMK AO2 T01000094=
202409101228 SPECI KCLM 101228Z AUTO 23003KT 1/2SM FG VV002 10/09 A2995 RMK AO2 T01000094=
202409101153 METAR KCLM 101153Z AUTO 00000KT 1/4SM FG VV002 10/09 A2995 RMK AO2 SLP142 T01000094 10128 20089 50001=
202409101137 SPECI KCLM 101137Z AUTO 25004KT 1/4SM FG VV002 10/09 A2995 RMK AO2 T01000094=
202409101053 METAR KCLM 101053Z AUTO 24003KT 1/2SM FG VV002 11/10 A2995 RMK AO2 SLP143 T01060100=
202409101044 SPECI KCLM 101044Z AUTO 26003KT 1/2SM FG VV002 11/10 A2995 RMK AO2 T01060100=
202409101035 SPECI KCLM 101035Z AUTO 27005KT 1/4SM FG VV002 11/10 A2996 RMK AO2 T01060100=
202409100953 METAR KCLM 100953Z AUTO 26003KT 1/4SM FG VV001 11/10 A2995 RMK AO2 SLP143 T01060100=
202409100917 SPECI KCLM 100917Z AUTO 00000KT 1/4SM FG VV001 09/09 A2995 RMK AO2 T00940089=
202409100858 SPECI KCLM 100858Z AUTO 31003KT 3/4SM BR VV001 10/09 A2995 RMK AO2 T01000089=
202409100853 METAR KCLM 100853Z AUTO 00000KT 1 1/4SM BR CLR 10/09 A2995 RMK AO2 SLP140 T01000089 56007=
202409100848 SPECI KCLM 100848Z AUTO 00000KT 1 3/4SM BR CLR 10/09 A2995 RMK AO2 VIS 3/4V5=
202409100843 SPECI KCLM 100843Z AUTO 00000KT 3SM BR CLR 10/09 A2995 RMK AO2 T01000089=
202409100829 SPECI KCLM 100829Z AUTO 00000KT 1 1/2SM BR CLR 09/09 A2995 RMK AO2 VIS 3/4V5 T00940089=
202409100753 METAR KCLM 100753Z AUTO 24003KT 5SM BR FEW055 10/09 A2995 RMK AO2 SLP141 T01000089 401780094=
202409100653 METAR KCLM 100653Z AUTO 24003KT 4SM BR CLR 11/10 A2996 RMK AO2 SLP146 T01110100=
202409100553 METAR KCLM 100553Z AUTO 00000KT 10SM CLR 13/12 A2997 RMK AO2 SLP148 T01280117 10178 20122 50000=
202409100453 METAR KCLM 100453Z AUTO 23003KT 10SM CLR 13/12 A2997 RMK AO2 SLP149 T01280117=
202409100353 METAR KCLM 100353Z AUTO 26003KT 10SM CLR 13/12 A2998 RMK AO2 SLP152 T01280117=
202409100253 METAR KCLM 100253Z AUTO 31003KT 10SM CLR 13/12 A2997 RMK AO2 SLP147 T01330122 56007=
202409100153 METAR KCLM 100153Z AUTO 31004KT 10SM CLR 16/13 A2997 RMK AO2 SLP149 T01610133=
202409100053 METAR KCLM 100053Z AUTO 34004KT 10SM BKN038 17/13 A2998 RMK AO2 SLP151 T01720133=
202409092353 METAR KCLM 092353Z AUTO 34004KT 10SM CLR 17/13 A2999 RMK AO2 SLP155 T01720128 10178 20144 56008=
202409092253 METAR KCLM 092253Z AUTO 34004KT 10SM CLR 18/13 A2999 RMK AO2 SLP156 T01780128=
202409092153 METAR KCLM 092153Z AUTO 04004KT 10SM CLR 17/13 A3000 RMK AO2 SLP159 T01670128=
202409092101 SPECI KCLM 092101Z AUTO 04005KT 10SM SCT002 16/13 A3001 RMK AO2 T01610128=
202409092053 METAR KCLM 092053Z AUTO VRB03KT 2 1/2SM HZ BKN002 16/13 A3001 RMK AO2 SLP163 T01560128 58000=
202409092051 SPECI KCLM 092051Z AUTO VRB03KT 2SM HZ BKN002 16/13 A3001 RMK AO2=
202409092046 SPECI KCLM 092046Z AUTO 02004KT 1 1/4SM BR OVC001 15/13 A3001 RMK AO2 T01500128=
202409092024 SPECI KCLM 092024Z AUTO 03004KT 3/4SM BR VV001 15/13 A3001 RMK AO2 T01500128=
202409092020 SPECI KCLM 092020Z AUTO 03006KT 1 1/4SM HZ SCT001 16/13 A3001 RMK AO2 T01560128=
202409092017 SPECI KCLM 092017Z AUTO 02006KT 3SM HZ FEW001 16/13 A3001 RMK AO2 T01560128=
202409091953 METAR KCLM 091953Z AUTO VRB04KT 10SM CLR 17/13 A3001 RMK AO2 SLP163 T01720133=
202409091921 SPECI KCLM 091921Z AUTO 32005KT 10SM SCT003 16/13 A3002 RMK AO2 T01610133=
202409091853 METAR KCLM 091853Z AUTO 33005KT 6SM BR BKN002 15/13 A3002 RMK AO2 CIG 001V006 SLP165 T01500128=
202409091842 SPECI KCLM 091842Z AUTO 34006KT 10SM BKN002 15/13 A3002 RMK AO2 T01500128=
202409091826 SPECI KCLM 091826Z AUTO 34006KT 10SM FEW003 SCT008 15/13 A3002 RMK AO2 T01500128=
202409091753 METAR KCLM 091753Z AUTO 33005KT 10SM OVC006 16/13 A3001 RMK AO2 SLP163 T01560128 10156 20133 51007=
202409091745 SPECI KCLM 091745Z AUTO VRB03KT 10SM OVC005 16/13 A3001 RMK AO2 T01560128=
202409091653 METAR KCLM 091653Z AUTO 35005KT 10SM OVC004 14/13 A3001 RMK AO2 SLP161 T01440128=
202409091553 METAR KCLM 091553Z AUTO 00000KT 10SM OVC004 14/13 A3000 RMK AO2 SLP158 T01440128=
202409091453 METAR KCLM 091453Z AUTO 27004KT 10SM OVC003 14/13 A2999 RMK AO2 SLP156 T01390128 53008=
202409091353 METAR KCLM 091353Z AUTO 21003KT 5SM BR OVC003 13/13 A2998 RMK AO2 SLP153 T01330128=
202409091253 METAR KCLM 091253Z AUTO 25005KT 7SM OVC003 13/12 A2997 RMK AO2 CIG 002V007 SLP149 T01330122=
202409091153 METAR KCLM 091153Z AUTO 29005KT 10SM OVC003 13/12 A2997 RMK AO2 SLP147 T01330122 10150 20133 51006=
202409091111 SPECI KCLM 091111Z AUTO 27005KT 3SM BR OVC002 13/13 A2997 RMK AO2 T01330128=
202409091053 METAR KCLM 091053Z AUTO 28006KT 2SM BR OVC002 14/13 A2996 RMK AO2 SLP147 T01390128=
202409091044 SPECI KCLM 091044Z AUTO 29005KT 2SM BR OVC002 14/13 A2996 RMK AO2 T01390128=
202409090953 METAR KCLM 090953Z AUTO 28009KT 5SM BR OVC002 14/13 A2996 RMK AO2 SLP145 T01390128=
202409090853 METAR KCLM 090853Z AUTO 30004KT 7SM OVC002 14/13 A2995 RMK AO2 SLP141 T01390133 53008=
202409090753 METAR KCLM 090753Z AUTO 29007KT 4SM BR OVC002 14/13 A2994 RMK AO2 SLP138 T01440133 402170128=
202409090653 METAR KCLM 090653Z AUTO 29006KT 10SM OVC003 15/14 A2993 RMK AO2 SLP133 T01500139=
202409090605 SPECI KCLM 090605Z AUTO 28008KT 10SM OVC004 15/14 A2993 RMK AO2 T01500139=
202409090553 METAR KCLM 090553Z AUTO 29007KT 10SM OVC005 16/14 A2992 RMK AO2 SLP132 T01560139 10200 20156 51012=
202409090530 SPECI KCLM 090530Z AUTO 29008KT 10SM OVC005 16/14 A2992 RMK AO2 T01560139=
202409090500 SPECI KCLM 090500Z AUTO 29008KT 10SM OVC004 16/14 A2992 RMK AO2 T01560139=
202409090453 METAR KCLM 090453Z AUTO 29009KT 10SM OVC005 16/14 A2992 RMK AO2 SLP132 T01560139=
202409090353 METAR KCLM 090353Z AUTO 28007KT 10SM OVC007 16/14 A2991 RMK AO2 SLP129 T01610144=
202409090339 SPECI KCLM 090339Z AUTO 28009KT 10SM BKN008 16/14 A2991 RMK AO2 T01610144=
202409090325 SPECI KCLM 090325Z AUTO 28007KT 10SM FEW008 16/14 A2991 RMK AO2 T01560139=
202409090253 METAR KCLM 090253Z AUTO 28005KT 10SM CLR 16/14 A2989 RMK AO2 SLP121 T01610139 51006=
202409090153 METAR KCLM 090153Z AUTO 28005KT 10SM CLR 18/14 A2988 RMK AO2 SLP119 T01780144=
202409090053 METAR KCLM 090053Z AUTO 30007KT 10SM CLR 19/14 A2988 RMK AO2 SLP117 T01940144=
202409082353 METAR KCLM 082353Z AUTO 33007KT 10SM CLR 20/14 A2987 RMK AO2 SLP115 T02000144 10217 20172 58007=
202409082253 METAR KCLM 082253Z AUTO 29007KT 10SM CLR 20/14 A2988 RMK AO2 SLP118 T02000144=
202409082153 METAR KCLM 082153Z AUTO 34005KT 10SM CLR 21/14 A2989 RMK AO2 SLP120 T02060144=
202409082053 METAR KCLM 082053Z AUTO 33005KT 10SM CLR 20/14 A2989 RMK AO2 SLP122 T02000139 51001=
202409081953 METAR KCLM 081953Z AUTO 34006KT 10SM CLR 19/13 A2989 RMK AO2 SLP121 T01890133=
202409081853 METAR KCLM 081853Z AUTO VRB05KT 10SM CLR 18/13 A2989 RMK AO2 SLP120 T01830133=
202409081753 METAR KCLM 081753Z AUTO VRB03KT 10SM CLR 18/14 A2989 RMK AO2 SLP120 T01830139 10200 20128 52003=
202409081653 METAR KCLM 081653Z AUTO 00000KT 10SM CLR 18/14 A2989 RMK AO2 SLP119 T01780139=
202409081553 METAR KCLM 081553Z AUTO 27003KT 10SM CLR 17/14 A2988 RMK AO2 SLP119 T01720144=
202409081453 METAR KCLM 081453Z AUTO 00000KT 10SM CLR 14/13 A2988 RMK AO2 SLP118 T01440128 53008=
202409081353 METAR KCLM 081353Z AUTO 24003KT 10SM CLR 13/12 A2987 RMK AO2 SLP114 T01330122=
202409081253 METAR KCLM 081253Z AUTO 12003KT 10SM CLR 14/13 A2986 RMK AO2 SLP110 T01390128=
202409081153 METAR KCLM 081153Z AUTO 16003KT 10SM CLR 14/13 A2986 RMK AO2 SLP109 T01390128 10178 20139 53002=
202409081053 METAR KCLM 081053Z AUTO 00000KT 10SM CLR 14/13 A2985 RMK AO2 SLP108 T01440128=
202409080953 METAR KCLM 080953Z AUTO 25003KT 10SM CLR 15/13 A2984 RMK AO2 SLP104 T01500133=
202409080853 METAR KCLM 080853Z AUTO 27005KT 10SM CLR 14/13 A2985 RMK AO2 SLP107 T01440128 51005=
202409080753 METAR KCLM 080753Z AUTO 00000KT 10SM CLR 16/13 A2985 RMK AO2 SLP106 T01610133 402670144=
202409080653 METAR KCLM 080653Z AUTO 00000KT 10SM CLR 18/14 A2984 RMK AO2 SLP104 T01780144=
202409080553 METAR KCLM 080553Z AUTO 26003KT 10SM CLR 18/14 A2984 RMK AO2 SLP102 T01780139 10261 20167 58001=
202409080453 METAR KCLM 080453Z AUTO 25003KT 10SM CLR 17/14 A2985 RMK AO2 SLP105 T01720139=
202409080353 METAR KCLM 080353Z AUTO 00000KT 10SM CLR 17/13 A2985 RMK AO2 SLP107 T01720133=
202409080253 METAR KCLM 080253Z AUTO 32003KT 10SM CLR 18/13 A2984 RMK AO2 SLP103 T01830133 56007=
202409080153 METAR KCLM 080153Z AUTO 00000KT 10SM CLR 19/13 A2985 RMK AO2 SLP106 T01940133=
202409080053 METAR KCLM 080053Z AUTO 33003KT 10SM CLR 22/13 A2985 RMK AO2 SLP106 T02220133=
202409072353 METAR KCLM 072353Z AUTO 07004KT 10SM CLR 26/13 A2986 RMK AO2 SLP110 T02610133 10267 20244 58015=
202409072253 METAR KCLM 072253Z AUTO 00000KT 10SM CLR 25/13 A2988 RMK AO2 SLP116 T02500133=
202409072153 METAR KCLM 072153Z AUTO 08004KT 10SM CLR 25/13 A2990 RMK AO2 SLP122 T02500133=
202409072053 METAR KCLM 072053Z AUTO 06004KT 10SM CLR 26/13 A2990 RMK AO2 SLP125 T02610128 58012=
202409071953 METAR KCLM 071953Z AUTO 07005KT 10SM CLR 26/13 A2992 RMK AO2 SLP130 T02610133=
202409071853 METAR KCLM 071853Z AUTO 09006KT 10SM CLR 26/13 A2993 RMK AO2 SLP133 T02560128=
202409071753 METAR KCLM 071753Z AUTO 10005KT 10SM CLR 26/13 A2994 RMK AO2 SLP136 T02560128 10256 20144 55000=
202409071653 METAR KCLM 071653Z AUTO 11008KT 10SM CLR 24/13 A2994 RMK AO2 SLP136 T02440128=
202409071553 METAR KCLM 071553Z AUTO 11006KT 10SM CLR 23/15 A2993 RMK AO2 SLP135 T02280150=
202409071453 METAR KCLM 071453Z AUTO 00000KT 10SM CLR 17/14 A2994 RMK AO2 SLP137 T01670144 55001=
202409071353 METAR KCLM 071353Z AUTO 00000KT 10SM CLR 15/13 A2994 RMK AO2 SLP136 T01500128=
202409071253 METAR KCLM 071253Z AUTO 00000KT 10SM CLR 16/13 A2994 RMK AO2 SLP136 T01560128=
202409071153 METAR KCLM 071153Z AUTO 00000KT 10SM CLR 14/13 A2994 RMK AO2 SLP138 T01440128 10178 20144 58006=
202409071053 METAR KCLM 071053Z AUTO 00000KT 10SM CLR 15/13 A2995 RMK AO2 SLP142 T01500128=
202409070953 METAR KCLM 070953Z AUTO 00000KT 10SM CLR 16/13 A2996 RMK AO2 SLP143 T01560128=
202409070853 METAR KCLM 070853Z AUTO 00000KT 10SM CLR 16/13 A2996 RMK AO2 SLP144 T01610133 50001=
202409070753 METAR KCLM 070753Z AUTO 00000KT 10SM CLR 16/13 A2996 RMK AO2 SLP145 T01560133 403060144=
202409070653 METAR KCLM 070653Z AUTO 00000KT 10SM CLR 16/13 A2996 RMK AO2 SLP145 T01610133=
202409070553 METAR KCLM 070553Z AUTO 00000KT 10SM CLR 17/14 A2996 RMK AO2 SLP143 T01670144 10306 20161 51003=
202409070453 METAR KCLM 070453Z AUTO 00000KT 10SM CLR 18/15 A2995 RMK AO2 SLP141 T01830150=
202409070353 METAR KCLM 070353Z AUTO 23005KT 10SM CLR 19/15 A2996 RMK AO2 SLP143 T01890150=
202409070253 METAR KCLM 070253Z AUTO 00000KT 10SM CLR 21/14 A2995 RMK AO2 SLP140 T02110139 58013=
202409070153 METAR KCLM 070153Z AUTO 00000KT 10SM CLR 25/14 A2997 RMK AO2 SLP146 T02500139=
202409070053 METAR KCLM 070053Z AUTO 00000KT 10SM CLR 29/14 A2997 RMK AO2 SLP149 T02940144=
202409062353 METAR KCLM 062353Z AUTO 09003KT 10SM CLR 30/14 A2999 RMK AO2 SLP154 T03000139 10300 20250 56014=
202409062253 METAR KCLM 062253Z AUTO VRB03KT 10SM CLR 30/14 A3000 RMK AO2 SLP158 T03000144=
202409062153 METAR KCLM 062153Z AUTO VRB04KT 10SM CLR 29/14 A3001 RMK AO2 SLP162 T02890144=
202409062053 METAR KCLM 062053Z AUTO 35004KT 10SM CLR 28/14 A3003 RMK AO2 SLP167 T02780144 58010=
202409061953 METAR KCLM 061953Z AUTO 08005KT 10SM CLR 27/14 A3004 RMK AO2 SLP172 T02720139=
202409061853 METAR KCLM 061853Z AUTO 09006KT 10SM CLR 26/14 A3006 RMK AO2 SLP177 T02610139=
202409061753 METAR KCLM 061753Z AUTO 08007KT 10SM CLR 25/14 A3006 RMK AO2 SLP177 T02500139 10256 20144 53002=
202409061653 METAR KCLM 061653Z AUTO 07006KT 10SM CLR 25/14 A3006 RMK AO2 SLP176 T02500139=
202409061553 METAR KCLM 061553Z AUTO 12005KT 10SM CLR 24/14 A3005 RMK AO2 SLP175 T02440139=
202409061453 METAR KCLM 061453Z AUTO 00000KT 10SM CLR 18/14 A3005 RMK AO2 SLP175 T01830144 53007=
202409061353 METAR KCLM 061353Z AUTO 22005KT 10SM CLR 15/13 A3004 RMK AO2 SLP170 T01500128=
202409061253 METAR KCLM 061253Z AUTO 00000KT 10SM CLR 14/12 A3003 RMK AO2 SLP167 T01440122=
202409061153 METAR KCLM 061153Z AUTO 00000KT 10SM CLR 16/12 A3003 RMK AO2 SLP168 T01560122 10194 20144 55001=
202409061053 METAR KCLM 061053Z AUTO 00000KT 10SM CLR 15/13 A3002 RMK AO2 SLP166 T01500128=
202409060953 METAR KCLM 060953Z AUTO 13003KT 10SM CLR 16/13 A3004 RMK AO2 SLP171 T01610128=
202409060853 METAR KCLM 060853Z AUTO 21003KT 10SM CLR 16/13 A3003 RMK AO2 SLP169 T01610128 50005=
202409060753 METAR KCLM 060753Z AUTO 00000KT 10SM CLR 16/13 A3004 RMK AO2 SLP170 T01610128 402940139=
202409060653 METAR KCLM 060653Z AUTO 00000KT 10SM CLR 17/13 A3002 RMK AO2 SLP166 T01720133=
202409060553 METAR KCLM 060553Z AUTO 00000KT 10SM CLR 19/14 A3002 RMK AO2 SLP164 T01890144 10294 20189 58002=
202409060453 METAR KCLM 060453Z AUTO 21003KT 10SM CLR 20/16 A3003 RMK AO2 SLP167 T02000156=
202409060353 METAR KCLM 060353Z AUTO 00000KT 10SM CLR 20/17 A3003 RMK AO2 SLP167 T02000167=
202409060253 METAR KCLM 060253Z AUTO 00000KT 10SM CLR 23/16 A3003 RMK AO2 SLP167 T02330156 56014=
202409060153 METAR KCLM 060153Z AUTO 16004KT 10SM CLR 28/13 A3004 RMK AO2 SLP170 T02830128=
202409060053 METAR KCLM 060053Z AUTO 07003KT 10SM CLR 29/13 A3005 RMK AO2 SLP175 T02940128=
202409052353 METAR KCLM 052353Z AUTO 09005KT 10SM CLR 29/14 A3007 RMK AO2 SLP181 T02890139 10294 20239 56016=
202409052253 METAR KCLM 052253Z AUTO 08006KT 10SM CLR 29/13 A3008 RMK AO2 SLP186 T02890133=
202409052153 METAR KCLM 052153Z AUTO 09005KT 10SM CLR 27/14 A3010 RMK AO2 SLP192 T02720144=
202409052053 METAR KCLM 052053Z AUTO 08006KT 10SM CLR 26/16 A3012 RMK AO2 SLP197 T02560156 56012=
202409051953 METAR KCLM 051953Z AUTO 09005KT 10SM CLR 25/15 A3013 RMK AO2 SLP200 T02500150=
202409051853 METAR KCLM 051853Z AUTO VRB05KT 10SM CLR 24/14 A3014 RMK AO2 SLP205 T02440144=
202409051753 METAR KCLM 051753Z AUTO 08007KT 10SM CLR 24/14 A3015 RMK AO2 SLP209 T02440144 10244 20139 56003=
202409051653 METAR KCLM 051653Z AUTO 36005KT 10SM CLR 24/14 A3015 RMK AO2 SLP209 T02390144=
202409051553 METAR KCLM 051553Z AUTO 00000KT 10SM CLR 22/14 A3016 RMK AO2 SLP211 T02170144=
202409051453 METAR KCLM 051453Z AUTO 00000KT 10SM CLR 17/14 A3016 RMK AO2 SLP212 T01720144 53001=
202409051353 METAR KCLM 051353Z AUTO 21003KT 10SM CLR 14/13 A3016 RMK AO2 SLP212 T01440128=
202409051253 METAR KCLM 051253Z AUTO 00000KT 10SM CLR 15/13 A3016 RMK AO2 SLP210 T01500128=
202409051153 METAR KCLM 051153Z AUTO 00000KT 10SM CLR 14/13 A3016 RMK AO2 SLP211 T01440128 10167 20144 58001=
202409051053 METAR KCLM 051053Z AUTO 00000KT 10SM CLR 15/13 A3016 RMK AO2 SLP212 T01500128=
202409050953 METAR KCLM 050953Z AUTO 00000KT 10SM CLR 16/13 A3016 RMK AO2 SLP213 T01560133=
202409050853 METAR KCLM 050853Z AUTO 00000KT 10SM CLR 16/13 A3016 RMK AO2 SLP212 T01560133 58002=
202409050753 METAR KCLM 050753Z AUTO 00000KT 10SM CLR 16/13 A3017 RMK AO2 SLP215 T01560133 402560100=
202409050653 METAR KCLM 050653Z AUTO 13003KT 10SM CLR 16/13 A3016 RMK AO2 SLP213 T01560133=
202409050553 METAR KCLM 050553Z AUTO 00000KT 10SM CLR 16/14 A3017 RMK AO2 SLP214 T01610139 10256 20156 51003=
202409050453 METAR KCLM 050453Z AUTO 00000KT 10SM CLR 17/14 A3016 RMK AO2 SLP213 T01670139=
202409050353 METAR KCLM 050353Z AUTO 00000KT 10SM CLR 18/14 A3016 RMK AO2 SLP213 T01830144=
202409050253 METAR KCLM 050253Z AUTO 15003KT 10SM CLR 21/14 A3016 RMK AO2 SLP211 T02060139 55006=
202409050153 METAR KCLM 050153Z AUTO 00000KT 10SM CLR 24/13 A3015 RMK AO2 SLP210 T02440133=
202409050053 METAR KCLM 050053Z AUTO 07003KT 10SM CLR 25/13 A3016 RMK AO2 SLP213 T02500128=
202409042353 METAR KCLM 042353Z AUTO VRB05KT 10SM CLR 25/14 A3017 RMK AO2 SLP217 T02500139 10250 20200 56009=
202409042253 METAR KCLM 042253Z AUTO VRB03KT 10SM CLR 24/14 A3018 RMK AO2 SLP219 T02440139=
202409042153 METAR KCLM 042153Z AUTO 08006KT 10SM CLR 23/14 A3019 RMK AO2 SLP224 T02330139=
202409042053 METAR KCLM 042053Z AUTO 09008KT 10SM CLR 23/14 A3020 RMK AO2 SLP227 T02330139 58010=
202409041953 METAR KCLM 041953Z AUTO 08007KT 10SM CLR 23/14 A3021 RMK AO2 SLP231 T02280139=
202409041853 METAR KCLM 041853Z AUTO 08007KT 10SM CLR 21/14 A3022 RMK AO2 SLP235 T02110144=
202409041753 METAR KCLM 041753Z AUTO 08007KT 10SM CLR 20/14 A3023 RMK AO2 SLP237 T02000144 10206 20100 50003=
202409041653 METAR KCLM 041653Z AUTO 08004KT 10SM CLR 21/14 A3023 RMK AO2 SLP238 T02060144=
202409041553 METAR KCLM 041553Z AUTO 00000KT 10SM CLR 18/14 A3023 RMK AO2 SLP236 T01830144=
202409041453 METAR KCLM 041453Z AUTO 00000KT 10SM CLR 14/13 A3022 RMK AO2 SLP233 T01440133 53005=
202409041353 METAR KCLM 041353Z AUTO 00000KT 10SM CLR 11/09 A3021 RMK AO2 SLP231 T01060094=
202409041253 METAR KCLM 041253Z AUTO 00000KT 10SM CLR 11/09 A3020 RMK AO2 SLP227 T01060094=
202409041236 SPECI KCLM 041236Z AUTO 00000KT 9SM FEW001 11/10 A3020 RMK AO2 T01110100=
202409041228 SPECI KCLM 041228Z AUTO 00000KT 2SM BR FEW001 11/11 A3020 RMK AO2 T01110106=
202409041215 SPECI KCLM 041215Z AUTO 00000KT 10SM SCT001 11/10 A3020 RMK AO2 T01110100=
202409041153 METAR KCLM 041153Z AUTO 00000KT 9SM CLR 10/09 A3020 RMK AO2 SLP227 T01000094 10128 20100 58000=
202409041053 METAR KCLM 041053Z AUTO 00000KT 9SM CLR 11/10 A3020 RMK AO2 SLP227 T01060100=
202409040953 METAR KCLM 040953Z AUTO 00000KT 10SM CLR 11/10 A3020 RMK AO2 SLP228 T01060100=
202409040853 METAR KCLM 040853Z AUTO 00000KT 10SM CLR 10/09 A3020 RMK AO2 SLP228 T01000094 50001=
202409040807 SPECI KCLM 040807Z AUTO 00000KT 10SM SCT001 11/10 A3021 RMK AO2 T01110100=
202409040800 SPECI KCLM 040800Z AUTO 00000KT 2 1/2SM BR BKN001 12/11 A3021 RMK AO2 T01170111=
202409040753 METAR KCLM 040753Z AUTO 00000KT 3/4SM BR VV001 12/11 A3021 RMK AO2 SLP228 T01170111 402170117=
202409040749 SPECI KCLM 040749Z AUTO 00000KT 1/2SM FG VV001 12/11 A3021 RMK AO2=
202409040735 SPECI KCLM 040735Z AUTO 23003KT 1/4SM FG VV001 12/11 A3021 RMK AO2 T01170111=
202409040727 SPECI KCLM 040727Z AUTO 24004KT 1/4SM FG VV002 12/11 A3021 RMK AO2 T01170111=
202409040653 METAR KCLM 040653Z AUTO 00000KT 3/4SM BR VV001 12/11 A3020 RMK AO2 SLP227 T01170111=
202409040638 SPECI KCLM 040638Z AUTO 00000KT 1/2SM FG VV001 12/11 A3020 RMK AO2 T01170111=
202409040600 SPECI KCLM 040600Z AUTO 25003KT 1/4SM FG VV001 13/12 A3020 RMK AO2 T01280122=
202409040553 METAR KCLM 040553Z AUTO 27003KT 1/2SM FG VV001 13/12 A3020 RMK AO2 VIS M1/4V5 SLP226 T01280117 10217 20117 51009=
202409040550 SPECI KCLM 040550Z AUTO 27003KT 1 1/4SM BR BKN002 12/12 A3020 RMK AO2 VIS 1/4V5=
202409040546 SPECI KCLM 040546Z AUTO 00000KT 8SM SCT002 12/11 A3020 RMK AO2 T01170111=
202409040538 SPECI KCLM 040538Z AUTO 00000KT 4SM BR CLR 12/11 A3020 RMK AO2 T01170111=
202409040531 SPECI KCLM 040531Z AUTO 00000KT 1 3/4SM BR CLR 12/11 A3020 RMK AO2 T01220111=
202409040526 SPECI KCLM 040526Z AUTO 00000KT 3SM BR CLR 12/12 A3020 RMK AO2 T01220117=
202409040512 SPECI KCLM 040512Z AUTO 00000KT 1 3/4SM BR CLR 12/12 A3020 RMK AO2 T01220117=
202409040453 METAR KCLM 040453Z AUTO 00000KT 10SM CLR 13/12 A3020 RMK AO2 SLP225 T01280122=
202409040432 SPECI KCLM 040432Z AUTO 24003KT 10SM SCT002 13/12 A3020 RMK AO2 T01280122=
202409040423 SPECI KCLM 040423Z AUTO 24003KT 9SM BKN002 13/12 A3020 RMK AO2 T01330122=
202409040416 SPECI KCLM 040416Z AUTO 00000KT 2SM BR BKN002 13/12 A3020 RMK AO2 T01330122=
202409040353 METAR KCLM 040353Z AUTO 29003KT 1/2SM FG VV002 13/12 A3019 RMK AO2 SLP224 T01280122=
202409040342 SPECI KCLM 040342Z AUTO 30003KT 1/2SM FG VV001 13/13 A3019 RMK AO2 T01330128=
202409040336 SPECI KCLM 040336Z AUTO 30004KT 1 3/4SM BR BKN002 13/13 A3019 RMK AO2 T01330128=
202409040333 SPECI KCLM 040333Z AUTO 31003KT 5SM BR SCT002 13/12 A3018 RMK AO2 T01330122=
202409040253 METAR KCLM 040253Z AUTO 00000KT 10SM CLR 14/13 A3017 RMK AO2 SLP217 T01440128 58007=
202409040153 METAR KCLM 040153Z AUTO 02003KT 10SM CLR 17/13 A3018 RMK AO2 SLP221 T01670133=
202409040053 METAR KCLM 040053Z AUTO VRB03KT 10SM CLR 20/14 A3019 RMK AO2 SLP222 T02000139=
202409032353 METAR KCLM 032353Z AUTO VRB03KT 10SM CLR 21/14 A3019 RMK AO2 SLP224 T02060139 10217 20161 58005=
202409032253 METAR KCLM 032253Z AUTO 05004KT 10SM CLR 21/14 A3020 RMK AO2 SLP225 T02110144=
202409032153 METAR KCLM 032153Z AUTO 00000KT 10SM CLR 21/14 A3021 RMK AO2 SLP228 T02110144=
202409032109 SPECI KCLM 032109Z AUTO VRB05KT 10SM SCT017 18/13 A3021 RMK AO2 T01830133=
202409032053 METAR KCLM 032053Z AUTO 04005KT 10SM OVC017 19/14 A3021 RMK AO2 SLP229 T01940139 50000=
202409031953 METAR KCLM 031953Z AUTO 00000KT 10SM OVC018 19/14 A3021 RMK AO2 SLP231 T01940139=
202409031853 METAR KCLM 031853Z AUTO 30003KT 10SM OVC018 17/14 A3021 RMK AO2 SLP230 T01720139=
202409031753 METAR KCLM 031753Z AUTO VRB03KT 10SM FEW009 OVC019 16/13 A3021 RMK AO2 SLP229 T01610133 10167 20139 53011=
202409031719 SPECI KCLM 031719Z AUTO VRB03KT 10SM SCT008 OVC019 16/13 A3020 RMK AO2 T01610133=
202409031653 METAR KCLM 031653Z AUTO VRB04KT 10SM BKN007 OVC020 16/13 A3019 RMK AO2 SLP224 T01610133=
202409031620 SPECI KCLM 031620Z AUTO 29005KT 10SM BKN008 OVC021 16/13 A3019 RMK AO2 T01560133=
202409031606 SPECI KCLM 031606Z AUTO 30005KT 10SM SCT008 OVC022 16/13 A3019 RMK AO2 T01560133=
202409031553 METAR KCLM 031553Z AUTO VRB03KT 10SM OVC023 16/13 A3018 RMK AO2 SLP220 T01560128=
202409031529 SPECI KCLM 031529Z AUTO 21003KT 10SM FEW007 OVC023 15/13 A3018 RMK AO2 T01500128=
202409031453 METAR KCLM 031453Z AUTO 00000KT 10SM OVC005 14/13 A3017 RMK AO2 SLP218 T01440128 53010=
202409031353 METAR KCLM 031353Z AUTO 00000KT 10SM OVC006 14/13 A3016 RMK AO2 SLP212 T01440133=
202409031339 SPECI KCLM 031339Z AUTO 00000KT 10SM OVC006 14/13 A3015 RMK AO2 CIG 003V008 T01390133=
202409031329 SPECI KCLM 031329Z AUTO 30003KT 10SM OVC004 14/13 A3015 RMK AO2 CIG 003V008 T01390133=
202409031253 METAR KCLM 031253Z AUTO 00000KT 7SM OVC005 14/13 A3015 RMK AO2 CIG 003V008 SLP208 T01390133=
202409031153 METAR KCLM 031153Z AUTO 30003KT 9SM OVC004 14/13 A3014 RMK AO2 SLP205 T01440133 10150 20144 53013=
202409031145 SPECI KCLM 031145Z AUTO 30003KT 7SM OVC004 14/13 A3013 RMK AO2 T01440133=
202409031053 METAR KCLM 031053Z AUTO 29004KT 10SM OVC007 14/13 A3013 RMK AO2 SLP202 T01440133=
202409030953 METAR KCLM 030953Z AUTO 29005KT 10SM OVC005 14/13 A3011 RMK AO2 SLP195 T01440133=
202409030853 METAR KCLM 030853Z AUTO 28004KT 10SM OVC005 14/13 A3010 RMK AO2 SLP192 T01440133 53007=
202409030753 METAR KCLM 030753Z AUTO 00000KT 10SM OVC005 14/13 A3008 RMK AO2 SLP187 T01440133 402060144=
202409030653 METAR KCLM 030653Z AUTO 27005KT 10SM OVC006 14/13 A3009 RMK AO2 SLP188 T01440128=
202409030553 METAR KCLM 030553Z AUTO 29008KT 10SM OVC006 14/13 A3007 RMK AO2 SLP184 T01440133 10194 20144 51015=
202409030453 METAR KCLM 030453Z AUTO 28007KT 10SM OVC005 14/13 A3006 RMK AO2 SLP179 T01440133=
202409030421 SPECI KCLM 030421Z AUTO 26007KT 10SM OVC005 14/13 A3006 RMK AO2 T01440133=
202409030353 METAR KCLM 030353Z AUTO 26008KT 10SM OVC004 14/13 A3005 RMK AO2 SLP175 T01440133=
202409030253 METAR KCLM 030253Z AUTO 30008KT 10SM OVC004 14/13 A3003 RMK AO2 SLP169 T01440128 53015=
202409030153 METAR KCLM 030153Z AUTO 28008KT 10SM OVC008 16/13 A3002 RMK AO2 SLP164 T01560133=
202409030139 SPECI KCLM 030139Z AUTO 29006KT 10SM BKN009 16/13 A3001 RMK AO2 T01610133=
202409030131 SPECI KCLM 030131Z AUTO 29005KT 10SM SCT009 16/13 A3001 RMK AO2 T01610133=
202409030053 METAR KCLM 030053Z AUTO 30006KT 10SM CLR 17/14 A3000 RMK AO2 SLP158 T01670139=
202409022353 METAR KCLM 022353Z AUTO 29007KT 10SM CLR 19/14 A2999 RMK AO2 SLP154 T01890139 10206 20161 53006=
202409022253 METAR KCLM 022253Z AUTO 01005KT 10SM CLR 19/14 A2997 RMK AO2 SLP148 T01940139=
202409022153 METAR KCLM 022153Z AUTO VRB05KT 10SM CLR 19/14 A2997 RMK AO2 SLP149 T01890139=
202409022137 SPECI KCLM 022137Z AUTO 34005KT 10SM FEW012 19/14 A2997 RMK AO2 T01890139=
202409022053 METAR KCLM 022053Z AUTO 29005KT 10SM OVC011 18/14 A2997 RMK AO2 SLP148 T01780144 55002=
202409022006 SPECI KCLM 022006Z AUTO 31008KT 10SM OVC010 18/14 A2996 RMK AO2 T01780144=
202409021953 METAR KCLM 021953Z AUTO 28007KT 10SM OVC009 18/14 A2996 RMK AO2 SLP145 T01780144=
202409021853 METAR KCLM 021853Z AUTO 29004KT 10SM OVC008 17/14 A2996 RMK AO2 SLP146 T01670144=
202409021753 METAR KCLM 021753Z AUTO 30004KT 10SM OVC009 17/15 A2998 RMK AO2 CIG 004V010 SLP150 T01670150 10167 20150 51006=
202409021728 SPECI KCLM 021728Z AUTO 00000KT 4SM BR OVC005 16/15 A2998 RMK AO2 CIG 003V008 T01610150=
202409021653 METAR KCLM 021653Z AUTO 29004KT 2SM BR OVC006 16/15 A2997 RMK AO2 CIG 003V010 SLP149 T01610150=
202409021648 SPECI KCLM 021648Z AUTO 29004KT 2SM BR BKN006 OVC009 16/15 A2997 RMK AO2=
202409021625 SPECI KCLM 021625Z AUTO 30004KT 3SM BR OVC003 16/14 A2997 RMK AO2 T01560144=
202409021608 SPECI KCLM 021608Z AUTO 30003KT 2 1/2SM BR OVC003 16/15 A2996 RMK AO2 T01560150=
202409021553 METAR KCLM 021553Z AUTO 29003KT 3SM BR OVC003 16/15 A2996 RMK AO2 SLP144 T01560150=
202409021523 SPECI KCLM 021523Z AUTO 30003KT 3SM BR OVC003 16/14 A2995 RMK AO2 T01560144=
202409021453 METAR KCLM 021453Z AUTO 28004KT 2 1/2SM BR OVC003 16/14 A2994 RMK AO2 SLP139 T01560144 53005=
202409021440 SPECI KCLM 021440Z AUTO 28004KT 2SM BR OVC004 16/14 A2994 RMK AO2 T01560144=
202409021426 SPECI KCLM 021426Z AUTO 28006KT 3SM BR BKN004 OVC008 16/14 A2993 RMK AO2 CIG 002V007 T01560144=
202409021422 SPECI KCLM 021422Z AUTO 28006KT 2 1/2SM BR BKN004 OVC007 16/14 A2993 RMK AO2 CIG 002V007 T01560144=
202409021353 METAR KCLM 021353Z AUTO 29004KT 7SM OVC007 15/14 A2993 RMK AO2 CIG 003V009 SLP133 T01500144=
202409021325 SPECI KCLM 021325Z AUTO 29005KT 3SM BR OVC005 15/14 A2992 RMK AO2 CIG 002V007 T01500144=
202409021253 METAR KCLM 021253Z AUTO 27004KT 4SM BR OVC003 15/14 A2993 RMK AO2 SLP133 T01500144=
202409021153 METAR KCLM 021153Z AUTO 27005KT 7SM OVC003 16/14 A2993 RMK AO2 SLP132 T01560144 10156 20156 50001=
202409021053 METAR KCLM 021053Z AUTO 27006KT 5SM BR OVC002 16/14 A2993 RMK AO2 SLP133 T01560144=
202409020953 METAR KCLM 020953Z AUTO 28006KT 8SM OVC003 16/14 A2992 RMK AO2 SLP132 T01560144=
202409020853 METAR KCLM 020853Z AUTO 28009G18KT 10SM OVC003 16/14 A2992 RMK AO2 SLP131 T01560144 51009=
202409020753 METAR KCLM 020753Z AUTO 27008KT 10SM OVC003 16/14 A2992 RMK AO2 SLP130 T01560144 402610144=
202409020653 METAR KCLM 020653Z AUTO 28006KT 10SM OVC003 16/14 A2992 RMK AO2 SLP131 T01560144=
202409020553 METAR KCLM 020553Z AUTO 27007KT 10SM OVC004 16/14 A2989 RMK AO2 SLP122 T01560144 10222 20156 50009=
202409020453 METAR KCLM 020453Z AUTO 28008KT 10SM BKN004 16/14 A2990 RMK AO2 SLP122 T01560144=
202409020438 SPECI KCLM 020438Z AUTO 27008KT 10SM BKN004 16/14 A2990 RMK AO2 T01560144=
202409020411 SPECI KCLM 020411Z AUTO 27007KT 10SM FEW005 16/14 A2989 RMK AO2 T01560139=
202409020353 METAR KCLM 020353Z AUTO 28007KT 10SM CLR 16/14 A2988 RMK AO2 SLP117 T01560139=
202409020253 METAR KCLM 020253Z AUTO 29008KT 10SM CLR 17/14 A2987 RMK AO2 SLP113 T01720144 55004=
202409020153 METAR KCLM 020153Z AUTO 27008KT 10SM CLR 21/16 A2986 RMK AO2 SLP111 T02060156=
202409020053 METAR KCLM 020053Z AUTO 31005KT 10SM CLR 22/15 A2987 RMK AO2 SLP113 T02170150=
202409012353 METAR KCLM 012353Z AUTO VRB05KT 10SM CLR 21/14 A2988 RMK AO2 SLP117 T02110144 10261 20189 56007=
202409012253 METAR KCLM 012253Z AUTO 29007KT 10SM CLR 21/14 A2988 RMK AO2 SLP118 T02110144=
202409012153 METAR KCLM 012153Z AUTO 35006KT 10SM CLR 22/14 A2989 RMK AO2 SLP120 T02170139=
202409012053 METAR KCLM 012053Z AUTO 08003KT 10SM CLR 24/14 A2990 RMK AO2 SLP124 T02440144 58012=
202409011953 METAR KCLM 011953Z AUTO VRB03KT 10SM CLR 24/14 A2991 RMK AO2 SLP128 T02440144=
202409011853 METAR KCLM 011853Z AUTO VRB03KT 10SM CLR 24/14 A2992 RMK AO2 SLP132 T02440144=
202409011753 METAR KCLM 011753Z AUTO 08005KT 10SM CLR 25/14 A2994 RMK AO2 SLP136 T02500144 10250 20150 56001=
202409011653 METAR KCLM 011653Z AUTO 36003KT 10SM CLR 24/14 A2994 RMK AO2 SLP136 T02440144=
202409011553 METAR KCLM 011553Z AUTO 00000KT 10SM CLR 22/14 A2994 RMK AO2 SLP137 T02220144=
202409011453 METAR KCLM 011453Z AUTO 00000KT 10SM CLR 18/14 A2994 RMK AO2 SLP137 T01780139 53005=
202409011353 METAR KCLM 011353Z AUTO 00000KT 10SM CLR 15/12 A2993 RMK AO2 SLP135 T01500122=
202409011253 METAR KCLM 011253Z AUTO 24003KT 10SM CLR 15/12 A2993 RMK AO2 SLP133 T01500122=
202409011153 METAR KCLM 011153Z AUTO 00000KT 10SM CLR 16/12 A2993 RMK AO2 SLP132 T01560122 10172 20144 56006=
202409011053 METAR KCLM 011053Z AUTO 00000KT 10SM CLR 16/13 A2993 RMK AO2 SLP133 T01560128=
202409010953 METAR KCLM 010953Z AUTO 16003KT 10SM CLR 16/13 A2993 RMK AO2 SLP134 T01560133=
202409010853 METAR KCLM 010853Z AUTO 00000KT 10SM CLR 16/13 A2994 RMK AO2 SLP139 T01560128 57001=
202409010753 METAR KCLM 010753Z AUTO 00000KT 10SM CLR 17/13 A2995 RMK AO2 SLP139 T01670133 402830128=
202409010653 METAR KCLM 010653Z AUTO 00000KT 10SM CLR 17/12 A2994 RMK AO2 SLP139 T01670122=
202409010553 METAR KCLM 010553Z AUTO 00000KT 10SM CLR 17/12 A2995 RMK AO2 SLP140 T01720122 10283 20167 58000=
202409010453 METAR KCLM 010453Z AUTO 00000KT 10SM CLR 18/14 A2995 RMK AO2 SLP140 T01830139=
202409010353 METAR KCLM 010353Z AUTO 00000KT 10SM CLR 19/15 A2995 RMK AO2 SLP142 T01890150=
202409010253 METAR KCLM 010253Z AUTO 10004KT 10SM CLR 24/13 A2995 RMK AO2 SLP140 T02390133 56014=
202409010153 METAR KCLM 010153Z AUTO 10006KT 10SM CLR 27/13 A2995 RMK AO2 SLP142 T02720133=
202409010053 METAR KCLM 010053Z AUTO 10005KT 10SM CLR 28/13 A2997 RMK AO2 SLP149 T02830133=

# No short TAF reports from KCLM in databse.

###################################
#  large TAF from KCLM
###################################
202409302320 TAF KCLM 302320Z 0100/0124 07005KT P6SM OVC120 FM010400 VRB04KT
                       P6SM BKN200 FM011500 27003KT P6SM VCSH SCT070
                       BKN150=
202409301720 TAF KCLM 301720Z 3018/0118 07005KT P6SM SCT200 FM010400 VRB04KT
                       P6SM BKN200 FM011500 27003KT P6SM VCSH SCT070
                       BKN150=
202409301120 TAF KCLM 301120Z 3012/0112 24004KT P6SM SCT200 FM301800 08006KT
                       P6SM SCT200 FM010400 VRB04KT P6SM BKN200=
202409300520 TAF KCLM 300520Z 3006/0106 25008KT P6SM SKC FM301200 23003KT P6SM
                       SKC FM301800 08005KT P6SM SKC FM302100 07008KT
                       P6SM SKC=
202409300259 KCLM 300259Z 3003/3024 25007KT P6SM SKC FM300400 29006KT P6SM SKC
                       FM301200 23003KT P6SM SKC=
202409292320 TAF KCLM 292320Z 3000/3024 30010G20KT P6SM SKC FM300400 29006KT
                       P6SM SKC FM301200 23003KT P6SM SKC=
202409291733 TAF KCLM 291733Z 2918/3018 24009KT P6SM SKC FM292000 30010G20KT
                       P6SM SKC FM300400 29006KT P6SM SKC=
202409291127 TAF KCLM 291127Z 2912/3012 25010KT P6SM SCT050 SCT200 FM291800
                       30011KT P6SM SCT050 SCT200 FM300400 29006KT
                       P6SM SKC=
202409290520 TAF KCLM 290520Z 2906/3006 27012G18KT P6SM BKN200 FM291000 27011KT
                       P6SM BKN200 FM291800 30010G20KT P6SM SKC
                       FM292300 30010G17KT P6SM SKC=
202409282320 TAF KCLM 282320Z 2900/2924 VRB04KT P6SM SKC FM290600 27012G18KT
                       P6SM BKN200 FM291000 27011KT P6SM BKN200
                       FM291800 30010G20KT P6SM SKC=
202409281720 TAF KCLM 281720Z 2818/2918 11007KT P6SM SKC FM282200 30010KT P6SM
                       BKN120 OVC200 FM290600 27012G18KT P6SM BKN200
                       FM291000 27011KT P6SM BKN200=
202409281123 TAF KCLM 281123Z 2812/2912 VRB04KT P6SM SCT200 FM281800 32006KT
                       P6SM BKN200 FM282200 30010KT P6SM BKN120
                       OVC200 FM290600 27012G18KT P6SM BKN200 FM291000
                       27011KT P6SM BKN200=
202409280540 TAF KCLM 280540Z 2806/2906 25006KT P6SM SCT200 FM281800 32006KT
                       P6SM SCT200=
202409272320 TAF KCLM 272320Z 2800/2824 30010KT P6SM BKN060 FM280400 22005KT
                       P6SM SCT200 FM281800 32006KT P6SM SCT200=
202409271720 TAF KCLM 271720Z 2718/2818 30010KT P6SM BKN060 FM280400 20005KT
                       P6SM SCT200=
202409271132 TAF KCLM 271132Z 2712/2812 26005KT P6SM VCSH SCT025 OVC035 FM271700
                       31010KT P6SM SCT035 BKN060 FM272100 31011KT
                       P6SM SCT060 SCT200 FM280400 29007KT P6SM
                       SCT200=
202409270701 KCLM 270701Z 2707/2806 VRB03KT 5SM BR BKN060 FM270800 26008KT P6SM
                       VCSH SCT025 OVC035 FM271400 29012KT P6SM
                       SCT035 BKN060 FM271900 29008KT P6SM SCT060=
202409270549 TAF KCLM 270549Z 2706/2806 VRB03KT 2SM BR BKN060 FM270800 26008KT
                       P6SM -SHRA SCT025 OVC035 FM271400 29012KT
                       P6SM SCT035 BKN060 FM271900 29008KT P6SM
                       SCT060=
202409262320 TAF KCLM 262320Z 2700/2724 VRB05KT P6SM -RA SCT050 OVC080 FM270800
                       26008KT P6SM -SHRA SCT025 OVC035 FM271700
                       30010G18KT P6SM BKN035 FM272100 29008KT
                       P6SM SCT050=
202409262035 KCLM 262035Z 2621/2718 VRB05KT P6SM -RA SCT030 OVC050 FM270800
                       26008KT P6SM -SHRA SCT025 OVC035 FM271700
                       30010G18KT P6SM BKN035=
202409261720 TAF KCLM 261720Z 2618/2718 VRB04KT P6SM SCT045 OVC060 FM262300
                       VRB05KT P6SM -RA SCT030 OVC050 FM270800
                       26008KT P6SM -SHRA SCT025 OVC035 FM271700
                       30010G18KT P6SM BKN035=
202409261139 TAF KCLM 261139Z 2612/2712 VRB03KT P6SM FEW010 BKN035 FM262300
                       VRB05KT P6SM -RA SCT030 OVC050=
202409260534 TAF KCLM 260534Z 2606/2706 27008KT P6SM SCT050 FM261200 VRB03KT
                       P6SM FEW010 BKN035 FM262300 VRB05KT P6SM
                       -RA SCT030 OVC050=
202409252330 TAF KCLM 252330Z 2600/2624 29010G18KT 3SM -RA SCT007 BKN020 OVC050
                       FM260200 27008KT P6SM SCT050 FM261300 VRB03KT
                       P6SM OVC035 FM261500 05004KT P6SM BKN025
                       OVC035 FM261900 31008KT P6SM -RA OVC060=
202409252231 KCLM 252231Z 2523/2618 29010G18KT P6SM BKN020 OVC050
                      TEMPO 2523/2524 1SM +RA FM260300 27008KT
                       P6SM SCT050 FM261200 VRB03KT P6SM OVC035
                       FM261500 05004KT P6SM FEW010 BKN035=
202409252113 KCLM 252113Z 2521/2618 29010G18KT P6SM BKN020 OVC050
                      TEMPO 2521/2523 2SM HZ FM260300 27008KT P6SM
                       SCT050 FM261200 VRB03KT P6SM OVC035 FM261500
                       05004KT P6SM FEW010 BKN035=
202409251925 KCLM 251925Z 2519/2618 29006KT 5SM -RA BR FEW007 BKN011 OVC030
                       TEMPO 2519/2521 BKN004 FM252100 29010G18KT
                       P6SM BKN020 OVC050 FM260300 27008KT P6SM
                       SCT050 FM261200 VRB03KT P6SM OVC035 FM261500
                       05004KT P6SM FEW010 BKN035=
202409251720 TAF KCLM 251720Z 2518/2618 29006KT 5SM -RA BR FEW007 BKN011 OVC030
                       FM252100 29010G18KT P6SM BKN020 OVC050 FM260300
                       27008KT P6SM SCT050 FM261200 VRB03KT P6SM
                       OVC035 FM261500 05004KT P6SM FEW010 BKN035=
202409251503 KCLM 251503Z 2515/2612 VRB05KT 5SM -RA BR SCT008 OVC020 FM252100
                       29010G18KT P6SM BKN020 OVC050 FM260300 27008KT
                       P6SM SCT003 BKN035=
202409251129 TAF KCLM 251129Z 2512/2612 28007KT 6SM -SHRA BR OVC060 FM251400
                       29007KT 4SM -RA BR OVC008 FM252100 29010G18KT
                       P6SM BKN020 OVC050 FM260300 27008KT P6SM
                       SCT003 BKN035=
202409250905 KCLM 250905Z 2509/2606 28007KT 6SM -SHRA BR SCT015 OVC060 FM251400
                       29007KT 4SM -RA BR OVC008 FM252100 29010G18KT
                       P6SM BKN020 OVC050 FM260300 27008KT P6SM
                       SCT003 BKN035=
202409250534 TAF KCLM 250534Z 2506/2606 28004KT 5SM BR OVC003 FM251100 28007KT
                       5SM BR VCSH SCT003 OVC007 FM251400 29007KT
                       4SM -RA BR OVC003 FM252100 29010G18KT P6SM
                       BKN020 OVC050 FM260300 27008KT P6SM SCT003
                       BKN035=
202409242324 TAF KCLM 242324Z 2500/2524 04004KT P6SM SCT100 FM250600 28004KT
                       1/4SM FG OVC003 FM251000 28007KT 5SM BR
                       VCSH SCT007 BKN015 OVC050 FM251400 29007KT
                       5SM -RA BR BKN007 OVC015 FM252100 29012G18KT
                       P6SM BKN025 OVC050=
202409241752 TAF KCLM 241752Z 2418/2518 VRB03KT 3SM BR OVC002 FM241900 34004KT
                       P6SM SCT015 FM242200 04004KT P6SM SCT100
                       FM250600 28004KT 1/4SM FG OVC003=
202409241610 KCLM 241610Z 2416/2512 VRB03KT 1/4SM FG OVC002 FM241900 34004KT
                       P6SM SCT015 FM242200 04004KT P6SM SCT100
                       FM250600 28004KT 1/4SM FG OVC003=
202409241128 TAF KCLM 241128Z 2412/2512 VRB03KT 1/2SM FG OVC002 FM241900 34004KT
                       P6SM SCT015 FM242200 04004KT P6SM SCT100
                       FM250600 28004KT 1/4SM FG OVC003=
202409240602 KCLM 240602Z 2406/2506 VRB03KT 1SM BR OVC004 FM241900 34004KT P6SM
                       SCT015=
202409240520 TAF KCLM 240520Z 2406/2506 00000KT P6SM FEW250 FM240800 00000KT
                       P6SM BKN010 FM241100 VRB03KT 1SM BR OVC004
                       FM241900 34004KT P6SM SCT015=
202409232320 TAF KCLM 232320Z 2400/2424 32003KT P6SM OVC080 FM240300 23002KT
                       P6SM OVC040 FM240600 00000KT 1SM BR OVC004
                       FM241800 34004KT P6SM OVC015=
202409231720 TAF KCLM 231720Z 2318/2418 VRB03KT P6SM BKN004 OVC045 FM232000
                       35003KT P6SM SCT007 OVC025 FM240000 32003KT
                       P6SM OVC020 FM240300 23002KT P6SM OVC004=
202409231315 KCLM 231315Z 2313/2412 VRB03KT P6SM VCSH SCT005 OVC045
                      TEMPO 2313/2316 BKN004 FM232000 35003KT P6SM
                       SCT007 OVC025 FM240000 32003KT P6SM OVC020
                       FM240300 23002KT P6SM OVC004=
202409231139 TAF KCLM 231139Z 2312/2412 VRB03KT P6SM VCSH SCT005 OVC050
                      TEMPO 2312/2316 BKN004 FM232000 35003KT P6SM
                       SCT007 OVC025 FM240000 32003KT P6SM OVC020
                       FM240300 23002KT P6SM OVC004=
202409231038 KCLM 231038Z 2311/2406 VRB03KT P6SM -RA BKN004 OVC015 FM231200
                       VRB03KT 4SM BR VCSH BKN005 OVC015 FM232000
                       35003KT P6SM SCT007 OVC015 FM240000 32003KT
                       P6SM OVC020=
202409230527 TAF KCLM 230527Z 2306/2406 27004KT P6SM VCSH OVC050 FM230700 VRB03KT
                       P6SM -RA FEW007 OVC015 FM231200 VRB03KT
                       4SM BR VCSH BKN005 OVC015 FM232000 35003KT
                       P6SM SCT007 OVC015 FM240000 32003KT P6SM
                       OVC020=
202409222323 TAF KCLM 222323Z 2300/2324 27004KT P6SM VCSH OVC050 FM230700 VRB03KT
                       P6SM -RA FEW007 OVC015 FM231200 VRB03KT
                       4SM BR VCSH BKN007 OVC015 FM231900 35003KT
                       P6SM SCT007 OVC015=
202409221724 TAF KCLM 221724Z 2218/2318 29005KT P6SM BKN090 OVC120 FM222100
                       29005KT P6SM VCSH SCT035 OVC050 FM230500
                       VRB03KT P6SM -RA FEW007 OVC020 FM231500
                       VRB03KT 6SM BR VCSH OVC015=
202409221120 TAF KCLM 221120Z 2212/2312 21004KT P6SM BKN250 FM221800 29005KT
                       P6SM FEW025 OVC050 FM222100 33005KT P6SM
                       VCSH FEW015 OVC025 FM230300 VRB03KT P6SM
                       -RA OVC020=
202409220526 TAF KCLM 220526Z 2206/2306 28004KT P6SM BKN250 FM221800 29005KT
                       P6SM FEW025 OVC050 FM222100 33005KT P6SM
                       VCSH FEW015 OVC025 FM230300 VRB03KT P6SM
                       -RA OVC015=
202409212328 TAF KCLM 212328Z 2200/2224 28004KT P6SM BKN250 FM221800 29005KT
                       P6SM FEW025 OVC050 FM222100 VRB05KT P6SM
                       VCSH FEW015 OVC025=
202409211720 TAF KCLM 211720Z 2118/2218 02005KT P6SM SCT250 FM220000 33004KT
                       P6SM SCT250 FM220300 27006KT P6SM BKN250
                       FM221500 28004KT P6SM BKN050 OVC100=
202409211122 TAF KCLM 211122Z 2112/2212 20004KT P6SM BKN100 OVC200 FM211800
                       08005KT P6SM SCT250 FM220000 33004KT P6SM
                       BKN250 FM220300 27005KT P6SM BKN250=
202409210520 TAF KCLM 210520Z 2106/2206 26005KT P6SM BKN200 FM210900 25004KT
                       P6SM BKN100 OVC200 FM211800 07005KT P6SM
                       SCT250 FM220000 32004KT P6SM BKN250 FM220300
                       27005KT P6SM BKN200=
202409202320 TAF KCLM 202320Z 2100/2124 06004KT P6SM SCT050 SCT200 FM210300
                       26005KT P6SM BKN200 FM210900 25004KT P6SM
                       BKN100 OVC200 FM211800 35005KT P6SM SCT250=
202409201730 TAF KCLM 201730Z 2018/2118 VRB03KT P6SM SCT050 FM202100 35004KT
                       P6SM SCT050 SCT200 FM210300 26005KT P6SM
                       BKN200 FM210900 25004KT P6SM BKN100 OVC200=
202409201126 TAF KCLM 201126Z 2012/2112 23004KT P6SM SCT025 BKN050 FM201800
                       VRB03KT P6SM BKN035 BKN060 FM202100 34006KT
                       P6SM SCT050 SCT200 FM210300 26005KT P6SM
                       BKN200 FM210900 25004KT P6SM BKN100 OVC200=
202409200523 TAF KCLM 200523Z 2006/2106 30006KT P6SM FEW040 SCT250 FM201200
                       25004KT P6SM BKN030
                      TEMPO 2012/2015 6SM BR FEW001 OVC022 FM201500
                       VRB03KT P6SM BKN018 FM202000 03005KT P6SM
                       BKN035 FM202300 VRB03KT P6SM SCT250 FM210300
                       26004KT P6SM BKN250=
202409192326 TAF KCLM 192326Z 2000/2024 28010G16KT P6SM FEW040 SCT250 FM201200
                       27008KT 6SM BR FEW001 OVC022 FM201500 30003KT
                       P6SM BKN018 BKN035 FM202000 VRB03KT P6SM
                       BKN035 FM202300 33005KT P6SM SCT250=
202409191729 TAF KCLM 191729Z 1918/2018 32004KT P6SM FEW001 BKN040
                      TEMPO 1918/1919 BKN003 FM192100 32007KT P6SM
                       FEW012 BKN040 FM200000 28010G16KT P6SM SCT040
                       BKN200 FM201200 27008KT 6SM BR SCT001 OVC012
                       FM201500 30003KT P6SM BKN018 BKN035=
202409191609 KCLM 191609Z 1916/2012 25003KT P6SM FEW001 BKN040 FM191900 32007KT
                       P6SM FEW012 BKN040 FM200000 28010G16KT P6SM
                       SCT040 BKN200 FM200800 27008KT 6SM BR BKN010=
202409191500 KCLM 191500Z 1915/2012 25003KT 1/4SM FG VV001
                      TEMPO 1915/1917 1/4SM FG VV002 FM191700 32005KT
                       P6SM BKN008 BKN030 FM191900 32007KT P6SM
                       SCT012 BKN040 FM200000 28010G16KT P6SM SCT040
                       BKN200 FM200800 27008KT 6SM BR BKN010=
202409191138 TAF KCLM 191138Z 1912/2012 25003KT 1/4SM FG VV001
                      TEMPO 1914/1917 4SM BR BKN003 FM191700 32005KT
                       P6SM BKN008 BKN030 FM191900 32007KT P6SM
                       SCT012 BKN040 FM200000 28010G16KT P6SM SCT040
                       BKN200 FM200800 27008KT 6SM BR BKN010=
202409190749 KCLM 190749Z 1908/2006 25003KT 1/4SM FG VV001 FM191500 24003KT
                       P6SM OVC015 FM192000 02004KT P6SM BKN040
                       FM200000 30010G18KT P6SM BKN050=
202409190529 TAF KCLM 190529Z 1906/2006 27004KT P6SM SCT004 FM190800 25004KT
                       4SM BR BKN004 FM191000 25003KT 1/4SM FG
                       OVC004 FM191500 24003KT P6SM OVC015 FM192000
                       02004KT P6SM BKN040 FM200000 30010G18KT
                       P6SM BKN050=
202409182329 TAF KCLM 182329Z 1900/1924 07004KT P6SM BKN050 FM190500 27004KT
                       P6SM BKN004 FM191000 25004KT P6SM BKN022
                       FM191500 24003KT P6SM OVC015 FM192000 02004KT
                       P6SM BKN040=
202409181727 TAF KCLM 181727Z 1818/1918 VRB03KT P6SM OVC035 FM182100 33006KT
                       P6SM BKN025 BKN050 FM182300 32005KT P6SM
                       BKN050 FM191000 25004KT P6SM BKN022 FM191500
                       24003KT P6SM OVC015=
202409181329 KCLM 181329Z 1813/1912 25003KT P6SM SCT008 BKN025
                      TEMPO 1813/1817 5SM BR OVC008 FM181700 33003KT
                       P6SM SCT010 OVC025 FM182100 33005KT P6SM
                       BKN025 BKN050 FM182300 32005KT P6SM BKN050
                       FM191000 25004KT P6SM BKN022=
202409181125 TAF KCLM 181125Z 1812/1912 25003KT 1/4SM FG VV002
                      TEMPO 1813/1817 4SM BR OVC006 FM181700 33003KT
                       P6SM BKN010 OVC025 FM182100 33005KT P6SM
                       BKN025 BKN050 FM182300 32005KT P6SM BKN050
                       FM191000 25004KT P6SM BKN022=
202409180954 KCLM 180954Z 1810/1906 25003KT 5SM BR BKN005 BKN015
                      TEMPO 1810/1814 1/2SM FG VV002 FM181800 35003KT
                       P6SM BKN010 OVC025 FM182100 33005KT P6SM
                       BKN025 BKN050 FM182300 29004KT P6SM SCT050=
202409180521 TAF KCLM 180521Z 1806/1906 25003KT P6SM SCT004 BKN025
                      TEMPO 1806/1810 BKN004 FM181000 VRB03KT P6SM
                       BKN004 OVC015 FM181800 35003KT P6SM BKN010
                       OVC025 FM182100 33005KT P6SM BKN025 BKN050
                       FM182300 29004KT P6SM SCT050=
202409172335 TAF KCLM 172335Z 1800/1824 31004KT P6SM BKN020 OVC050 FM180600
                       VRB03KT P6SM OVC020
                      TEMPO 1806/1810 SCT020 OVC050 FM181200 VRB03KT
                       P6SM FEW007 OVC015 FM181800 34005KT P6SM
                       BKN015 OVC025 FM182100 33005KT P6SM BKN025=
202409171742 TAF KCLM 171742Z 1718/1818 23003KT P6SM VCSH BKN015 OVC025 FM172300
                       31004KT P6SM SCT025 OVC035 FM180600 24004KT
                       P6SM OVC020 FM181200 00000KT P6SM OVC015=
202409171120 TAF KCLM 171120Z 1712/1812 24004KT P6SM SCT015 SCT200 FM171500
                       VRB04KT P6SM BKN015 OVC035 FM171700 32004KT
                       P6SM VCSH BKN015 OVC025 FM172300 31004KT
                       P6SM SCT025 OVC035 FM180600 24004KT P6SM
                       OVC018=
202409170532 TAF KCLM 170532Z 1706/1806 26003KT P6SM SCT200 FM171400 VRB05KT
                       P6SM SCT015 OVC035 FM171700 02004KT P6SM
                       VCSH BKN015 OVC025 FM172300 31004KT P6SM
                       SCT025 OVC035=
202409162324 TAF KCLM 162324Z 1700/1724 31006KT P6SM SCT200 FM171400 VRB05KT
                       P6SM SCT015 OVC035 FM171900 02004KT P6SM
                       -RA SCT015 OVC025=
202409161750 TAF KCLM 161750Z 1618/1718 07007KT P6SM SKC FM162300 29007KT P6SM
                       SCT200 FM170600 27006KT P6SM OVC200 FM171400
                       23004KT P6SM SCT015 BKN040=
202409161140 TAF KCLM 161140Z 1612/1712 VRB03KT P6SM SCT200 FM161800 01004KT
                       P6SM SCT200 FM170300 28007KT P6SM SCT200=
202409160529 TAF KCLM 160529Z 1606/1706 VRB05KT P6SM SCT050 FM161800 01004KT
                       P6SM SCT200 FM162300 28006KT P6SM SCT250=
202409152320 TAF KCLM 152320Z 1600/1624 VRB05KT P6SM SCT050 FM161800 01008KT
                       P6SM SCT200=
202409151727 TAF KCLM 151727Z 1518/1618 VRB05KT P6SM SCT050=
202409151125 TAF KCLM 151125Z 1512/1612 27009KT P6SM SCT040 OVC060 FM151400
                       26005KT 6SM BR FEW007 BKN025 FM151800 02004KT
                       P6SM SCT050 FM152300 29005KT P6SM SCT250=
202409150536 TAF KCLM 150536Z 1506/1606 27009KT P6SM SCT040 OVC060 FM151400
                       26005KT 6SM BR FEW007 BKN025 FM151800 02004KT
                       P6SM SCT050 FM152300 29005KT P6SM SCT250=
202409142334 TAF KCLM 142334Z 1500/1524 30010G18KT P6SM SCT030 BKN045 FM150800
                       27009KT P6SM SCT040 OVC060 FM151400 26005KT
                       6SM BR FEW007 OVC025 FM151800 35005KT P6SM
                       SCT050=
202409141955 KCLM 141955Z 1420/1518 00000KT P6SM VCSH SCT003 BKN027 OVC060
                      TEMPO 1420/1421 4SM -RA BR BKN003 FM142200
                       30010G18KT P6SM SCT030 BKN045 FM150800 27009KT
                       P6SM SCT040 OVC060 FM151400 26005KT 6SM
                       BR FEW007 OVC018=
202409141838 KCLM 141838Z 1419/1518 00000KT P6SM SCT003 BKN027 OVC060
                      TEMPO 1419/1420 2SM -RA BR FM142200 30010G18KT
                       P6SM SCT030 BKN045 FM150800 27009KT P6SM
                       SCT040 OVC060 FM151400 26005KT 6SM BR FEW007
                       OVC018=
202409141751 KCLM 141751Z 1418/1518 00000KT P6SM SCT003 BKN027 OVC060 FM142200
                       30010G18KT P6SM SCT030 BKN045 FM150800 27009KT
                       P6SM SCT040 OVC060 FM151400 26005KT 6SM
                       BR FEW007 OVC018=
202409141736 KCLM 141736Z 1418/1518 00000KT 4SM BR VCSH BKN003 BKN027 OVC060
                       FM142200 30010G18KT P6SM SCT030 BKN045 FM150800
                       27009KT P6SM SCT040 OVC060 FM151400 26005KT
                       6SM BR FEW007 OVC018=
202409141726 TAF KCLM 141726Z 1418/1518 00000KT 4SM BR VCSH FEW003 BKN060 OVC070
                       FM142200 30010G18KT P6SM SCT030 BKN045 FM150800
                       27009KT P6SM SCT040 OVC060 FM151400 26005KT
                       6SM BR FEW007 OVC018=
202409141604 KCLM 141604Z 1416/1512 00000KT 5SM BR FEW020 BKN035 FM141700 30005KT
                       P6SM OVC020 FM142200 30010KT P6SM SCT025
                       BKN035 FM150100 27006KT P6SM SCT040 OVC060
                       FM150800 26005KT 6SM BR OVC007=
202409141519 KCLM 141519Z 1415/1512 00000KT 3SM BR FEW020 BKN035 FM141700 30005KT
                       P6SM OVC020 FM142200 30010KT P6SM SCT025
                       BKN035 FM150100 27006KT P6SM SCT040 OVC060
                       FM150800 26005KT 6SM BR OVC007=
202409141500 KCLM 141500Z 1415/1512 00000KT 2SM BR FEW020 BKN030 FM141700 30005KT
                       P6SM OVC020 FM142200 30010KT P6SM SCT025
                       BKN035 FM150100 27006KT P6SM SCT040 OVC060
                       FM150800 26005KT 6SM BR OVC007=
202409141356 KCLM 141356Z 1414/1512 00000KT 1/2SM FG SCT001 FM141700 30005KT
                       P6SM OVC020 FM142200 30010KT P6SM SCT025
                       BKN035 FM150100 27006KT P6SM SCT040 OVC060
                       FM150800 26005KT 6SM BR OVC007=
202409141348 KCLM 141348Z 1414/1512 00000KT 1SM BR VCSH OVC004
                      TEMPO 1414/1416 1/2SM FG OVC001 FM141700
                       30005KT P6SM OVC020 FM142200 30010KT P6SM
                       SCT025 BKN035 FM150100 27006KT P6SM SCT040
                       OVC060 FM150800 26005KT 6SM BR OVC007=
202409141135 TAF KCLM 141135Z 1412/1512 00000KT 1SM BR VCSH OVC004
                      TEMPO 1412/1414 1/2SM FG OVC001 FM141700
                       30005KT P6SM OVC020 FM142200 30010KT P6SM
                       SCT025 BKN035 FM150100 27006KT P6SM SCT040
                       OVC060 FM150800 26005KT 6SM BR OVC007=
202409140523 TAF KCLM 140523Z 1406/1506 VRB03KT P6SM SCT030 OVC050
                      TEMPO 1406/1410 2SM RA BR OVC004 FM141000
                       VRB03KT 1SM BR VCSH OVC004
                      TEMPO 1410/1414 1/2SM FG OVC001 FM141700
                       30005KT P6SM OVC020 FM142200 30010KT P6SM
                       SCT025 BKN035 FM150100 27006KT P6SM SCT040
                       OVC060=
202409140400 KCLM 140400Z 1404/1424 VRB03KT P6SM SCT025 OVC040
                      TEMPO 1404/1408 2SM BR OVC004 FM141000 18002KT
                       5SM -SHRA BR BKN006 OVC015 FM141700 22005KT
                       P6SM OVC025 FM142200 30011G18KT P6SM SCT025
                       BKN035=
202409140100 KCLM 140100Z 1401/1424 VRB03KT P6SM SCT025 OVC040
                      TEMPO 1401/1405 OVC004 FM141000 18002KT 5SM
                       -SHRA BR BKN006 OVC015 FM141700 22005KT
                       P6SM OVC025 FM142200 30011G18KT P6SM SCT025
                       BKN035=
202409132339 TAF KCLM 132339Z 1400/1424 25007KT 3SM RA BR BKN070 OVC090 FM140200
                       VRB03KT P6SM SCT025 OVC040 FM141000 18002KT
                       5SM -SHRA BR BKN006 OVC015 FM141700 22005KT
                       P6SM OVC025 FM142200 30011G18KT P6SM SCT025
                       BKN035=
202409131740 TAF KCLM 131740Z 1318/1418 21002KT P6SM OVC015 FM132000 25007KT
                       P6SM OVC070 FM140200 VRB03KT P6SM OVC040
                       FM141000 18002KT 5SM -SHRA BR OVC015 FM141700
                       22005KT P6SM OVC025=
202409131445 KCLM 131445Z 1315/1412 20004KT P6SM SCT017 FM132000 35004KT P6SM
                       OVC035 FM140000 31003KT 5SM -RA BR OVC020
                       FM140300 VRB03KT 4SM -RA BR OVC020=
202409131327 KCLM 131327Z 1313/1412 27004KT P6SM BKN015
                      TEMPO 1313/1315 1/2SM FG OVC004 FM132000
                       35004KT P6SM OVC035 FM140000 31003KT 5SM
                       -RA BR OVC020 FM140300 VRB03KT 4SM -RA BR
                       OVC020=
202409131126 TAF KCLM 131126Z 1312/1412 27004KT 1SM BR OVC002
                      TEMPO 1312/1315 1/2SM FG OVC001 FM132000
                       35004KT P6SM OVC020 FM140000 31003KT 5SM
                       -RA BR OVC004 FM140300 VRB03KT 4SM -RA BR
                       OVC020=
202409130520 TAF KCLM 130520Z 1306/1406 28006KT P6SM OVC004 FM131100 27004KT
                       1SM BR OVC002
                      TEMPO 1311/1315 1/2SM FG OVC001 FM132000
                       35004KT P6SM OVC020 FM140000 31003KT 5SM
                       -RA BR OVC004 FM140300 VRB03KT 4SM -RA BR
                       OVC020=
202409130329 KCLM 130329Z 1303/1324 33004KT P6SM BKN040
                      TEMPO 1303/1307 BKN004 FM131100 27006KT P6SM
                       OVC030 FM131400 25003KT P6SM OVC015 FM132000
                       35004KT P6SM OVC050=
202409122320 TAF KCLM 122320Z 1300/1324 33004KT P6SM BKN040 FM131100 27006KT
                       P6SM OVC030 FM131400 25003KT P6SM OVC015
                       FM132000 35004KT P6SM OVC050=
202409121733 TAF KCLM 121733Z 1218/1318 34005KT P6SM BKN035 FM122000 33006KT
                       P6SM BKN050 FM130300 28007KT P6SM BKN100
                       FM131400 25003KT P6SM OVC015=
202409121326 KCLM 121326Z 1213/1312 24003KT P6SM BKN035
                      TEMPO 1213/1216 2SM BR FM121600 34004KT P6SM
                       BKN035 FM122000 33006KT P6SM BKN050 FM130300
                       28007KT P6SM BKN100=
202409121146 TAF KCLM 121146Z 1212/1312 24003KT P6SM BKN040 FM121400 34004KT
                       P6SM OVC015 FM122000 33006KT P6SM BKN050
                       FM130300 28007KT P6SM BKN100=
202409120520 TAF KCLM 120520Z 1206/1306 00000KT P6SM SCT050 FM120900 24003KT
                       P6SM OVC030 FM121100 24003KT 2SM BR OVC003
                       FM121800 34004KT P6SM OVC015 FM122100 33006KT
                       P6SM BKN030 FM130300 28007KT P6SM BKN100=
202409112335 TAF KCLM 112335Z 1200/1224 14005KT P6SM VCSH BKN040 FM120300 25005KT
                       P6SM OVC050 FM120900 24003KT P6SM OVC030
                       FM121100 24003KT 2SM BR OVC003 FM121800
                       34004KT P6SM OVC015 FM122100 33006KT P6SM
                       BKN030=
202409111738 TAF KCLM 111738Z 1118/1218 VRB03KT P6SM VCSH OVC009 FM112100 09005KT
                       P6SM VCSH SCT017 BKN035 FM120300 25005KT
                       P6SM OVC050 FM121100 24003KT P6SM OVC030
                       FM121300 24003KT P6SM OVC015=
202409111134 TAF KCLM 111134Z 1112/1212 VRB03KT 6SM BR VCSH SCT008 OVC035
                      TEMPO 1112/1116 BKN006 OVC025 FM111800 VRB03KT
                       P6SM VCSH SCT007 OVC015 FM112100 VRB04KT
                       P6SM VCSH SCT017 BKN030 FM120300 25005KT
                       P6SM OVC050=
202409110702 KCLM 110702Z 1107/1206 VRB03KT 5SM -RA BR OVC015 FM111400 VRB03KT
                       5SM -RA BR OVC005 FM111800 VRB02KT P6SM
                       -SHRA SCT007 OVC012 FM120300 25005KT P6SM
                       OVC050=
202409110521 TAF KCLM 110521Z 1106/1206 27005KT P6SM -SHRA OVC060 FM111000 VRB03KT
                       5SM -RA BR OVC015 FM111400 VRB03KT 5SM -RA
                       BR OVC005 FM111800 VRB02KT P6SM -SHRA SCT007
                       OVC012 FM120300 25005KT P6SM OVC050=
202409102324 TAF KCLM 102324Z 1100/1124 31010KT P6SM -SHRA FEW100 BKN200 FM110200
                       27005KT P6SM -SHRA OVC050 FM110700 VRB03KT
                       3SM -RA BR OVC004 FM111800 VRB02KT P6SM
                       -SHRA SCT007 OVC012=
202409101858 KCLM 101858Z 1019/1118 31004KT P6SM OVC002 FM102000 32004KT P6SM
                       SCT010 SCT120 BKN200 FM110000 31006KT P6SM
                       -SHRA BKN100 OVC200 FM110400 27005KT P6SM
                       -RA OVC040 FM111100 VRB03KT 3SM -RA BR OVC004
                       FM111700 VRB02KT P6SM -SHRA BKN007 OVC012=
202409101730 KCLM 101730Z 1018/1118 31004KT 1SM BR OVC002 FM102000 32004KT P6SM
                       SCT010 SCT120 BKN200 FM110000 31006KT P6SM
                       -SHRA BKN100 OVC200 FM110400 27005KT P6SM
                       -RA OVC040 FM111100 VRB03KT 3SM -RA BR OVC004
                       FM111700 VRB02KT P6SM -SHRA BKN007 OVC012=
202409101729 TAF KCLM 101729Z 1018/1118 31004KT 2SM BR OVC002 FM102000 32004KT
                       P6SM SCT010 SCT120 BKN200 FM110000 31006KT
                       P6SM -SHRA BKN100 OVC200 FM110400 27005KT
                       P6SM -RA OVC040 FM111100 VRB03KT 3SM -RA
                       BR OVC004 FM111700 VRB02KT P6SM -SHRA BKN007
                       OVC012=
202409101610 KCLM 101610Z 1016/1112 26004KT 5SM BR SCT002 BKN006 BKN200 FM101800
                       32004KT P6SM SCT010 SCT120 BKN200 FM102100
                       31006KT P6SM BKN100 OVC200 FM110400 27005KT
                       P6SM -RA OVC040 FM110800 VRB03KT 6SM -RA
                       BR OVC022=
202409101445 KCLM 101445Z 1015/1112 25003KT 1/4SM FG VV001 FM101600 26004KT
                       6SM BR BKN006 BKN200 FM101800 32004KT P6SM
                       SCT010 SCT120 BKN200 FM102100 31006KT P6SM
                       BKN100 OVC200 FM110400 27005KT P6SM -RA
                       OVC040 FM110800 VRB03KT 6SM -RA BR OVC022=
202409101123 TAF KCLM 101123Z 1012/1112 25003KT 1/2SM FG VV002
                      TEMPO 1014/1016 3SM BR BKN004 BKN200 FM101600
                       26004KT 6SM BR BKN006 BKN200 FM101800 32004KT
                       P6SM SCT010 SCT120 BKN200 FM102100 31006KT
                       P6SM BKN100 OVC200 FM110400 27005KT P6SM
                       -RA OVC040 FM110800 VRB03KT 6SM -RA BR OVC022=
202409100927 KCLM 100927Z 1009/1106 VRB02KT 3SM BR SCT004
                      TEMPO 1009/1011 1/2SM FG VV001 FM101100 25003KT
                       1/4SM FG VV001 FM101500 26004KT 5SM BR OVC003
                       FM101700 31004KT P6SM OVC010 FM102100 31006KT
                       P6SM OVC100 FM110300 27005KT P6SM -RA OVC050=
202409100703 KCLM 100703Z 1007/1106 23003KT 4SM BR SCT004
                      TEMPO 1007/1011 4SM BR BKN004 FM101100 25003KT
                       4SM BR OVC003 FM101400 26004KT 6SM BR OVC008
                       FM101700 31004KT P6SM OVC011 FM102100 31006KT
                       P6SM OVC100 FM110300 27005KT P6SM -RA OVC050=
202409100520 TAF KCLM 100520Z 1006/1106 23003KT P6SM SCT250 FM100700 27003KT
                       P6SM BKN004 FM101200 26004KT P6SM OVC015
                       FM101700 31004KT P6SM OVC020 FM102100 31006KT
                       P6SM OVC100 FM110300 27005KT P6SM -RA OVC050=
202409092320 TAF KCLM 092320Z 1000/1024 34004KT P6SM SCT250 FM100400 27003KT
                       P6SM BKN004 FM101200 26004KT P6SM OVC015
                       FM101700 31004KT P6SM OVC020 FM102100 31006KT
                       P6SM OVC100=
202409091836 KCLM 091836Z 0919/1018 34006KT P6SM FEW003 SCT008
                      TEMPO 0919/0920 BKN008 FM092000 33008KT P6SM
                       SCT250 FM100900 28004KT P6SM BKN007 FM101200
                       26004KT P6SM OVC004 FM101500 27004KT P6SM
                       OVC015=
202409091720 TAF KCLM 091720Z 0918/1018 35005KT P6SM OVC004 FM092000 33008KT
                       P6SM SCT250 FM100900 28004KT P6SM BKN007
                       FM101200 26004KT P6SM OVC004 FM101500 27004KT
                       P6SM OVC015=
202409091601 KCLM 091601Z 0916/1012 00000KT P6SM OVC004 FM092000 33008KT P6SM
                       SCT250=
202409091122 TAF KCLM 091122Z 0912/1012 27005KT 3SM BR OVC002 FM091400 27004KT
                       5SM BR OVC004 FM091600 29004KT P6SM OVC012
                       FM092000 33008KT P6SM SCT250=
202409090528 TAF KCLM 090528Z 0906/1006 29008KT P6SM OVC003 FM091200 29004KT
                       P6SM OVC006 FM091600 29004KT P6SM OVC012
                       FM092000 29008KT P6SM SCT250=
202409082321 TAF KCLM 082321Z 0900/0924 29009KT P6SM SKC FM090600 29007KT P6SM
                       OVC003 FM091700 30004KT P6SM OVC015 FM092000
                       32005KT P6SM SKC=
202409081728 TAF KCLM 081728Z 0818/0918 30005KT P6SM SKC FM090100 29010KT P6SM
                       FEW150 FM091200 27006KT P6SM BKN025 FM091500
                       29004KT P6SM OVC015=
202409081602 KCLM 081602Z 0816/0912 27003KT P6SM SKC FM081700 32006KT P6SM FEW150
                       FM090100 29010KT P6SM FEW150=
202409081120 TAF KCLM 081120Z 0812/0912 VRB03KT P6SM SKC FM081300 27006KT 3SM
                       BR SCT010 FM081600 27006KT P6SM BKN006 FM081700
                       32006KT P6SM FEW150 FM090100 29010KT P6SM
                       FEW150=
202409080536 TAF KCLM 080536Z 0806/0906 VRB03KT P6SM BKN200 FM081300 27006KT
                       3SM BR OVC003 FM081600 27006KT P6SM BKN006
                       FM081700 27006KT P6SM FEW150 FM090100 29010KT
                       P6SM FEW150=
202409072320 TAF KCLM 072320Z 0800/0824 VRB04KT P6SM SCT150 BKN200 FM080300
                       28005KT P6SM SCT250 FM081500 30004KT P6SM
                       BKN015 FM082100 33008KT P6SM FEW250=
202409071720 TAF KCLM 071720Z 0718/0818 11008KT P6SM SKC FM072200 08008KT P6SM
                       SCT250 FM080000 07003KT P6SM SCT250 FM080300
                       28005KT P6SM SCT250 FM081500 30004KT P6SM
                       BKN015=
202409071120 TAF KCLM 071120Z 0712/0812 VRB03KT P6SM SKC FM071500 09005KT 6SM
                       HZ SKC FM072200 08008KT P6SM SCT250 FM080000
                       07003KT P6SM SCT250=
202409070527 TAF KCLM 070527Z 0706/0806 VRB03KT P6SM SKC FM072200 29008KT P6SM
                       SCT250=
202409062336 TAF KCLM 062336Z 0700/0724 VRB03KT P6SM SKC FM071400 11003KT P6SM
                       SKC=
202409061727 TAF KCLM 061727Z 0618/0718 07006KT P6SM SKC FM070300 28003KT P6SM
                       SKC=
202409061120 TAF KCLM 061120Z 0612/0712 VRB03KT P6SM SKC FM061700 09005KT P6SM
                       SKC FM070300 28008KT P6SM SKC=
202409060534 TAF KCLM 060534Z 0606/0706 VRB03KT P6SM SKC FM070100 28008KT P6SM
                       SKC=
202409052320 TAF KCLM 052320Z 0600/0624 09005KT P6SM SKC FM060400 VRB05KT P6SM
                       SKC FM061700 09006KT P6SM FEW250=
202409051720 TAF KCLM 051720Z 0518/0618 05005KT P6SM SKC FM060200 VRB03KT P6SM
                       FEW250=
202409051120 TAF KCLM 051120Z 0512/0612 VRB03KT P6SM FEW010 FM051500 10005KT
                       P6SM SKC FM051800 09007KT P6SM SKC FM060200
                       VRB03KT P6SM SKC=
202409050520 TAF KCLM 050520Z 0506/0606 VRB03KT P6SM SKC FM051200 15007KT P6SM
                       FEW010 FM051500 10005KT P6SM SKC FM051800
                       09007KT P6SM SKC=
202409042320 TAF KCLM 042320Z 0500/0524 08006KT P6SM SKC FM050300 VRB03KT P6SM
                       SKC FM051200 15007KT P6SM FEW010 FM051500
                       10005KT P6SM SKC=
202409041727 TAF KCLM 041727Z 0418/0518 08006KT P6SM SKC FM050300 VRB03KT P6SM
                       SKC FM051200 15007KT P6SM FEW002 FM051500
                       11005KT P6SM SKC=
202409041546 KCLM 041546Z 0416/0512 VRB03KT P6SM FEW005 FM041800 09006KT P6SM
                       SCT250 FM050300 VRB03KT P6SM SKC=
202409041423 KCLM 041423Z 0414/0512 VRB03KT P6SM SCT005
                      TEMPO 0414/0416 2SM BR FEW001 FM041800 09006KT
                       P6SM SCT250 FM050300 VRB03KT P6SM SKC=
202409041120 TAF KCLM 041120Z 0412/0512 VRB03KT P6SM SCT005
                      TEMPO 0412/0416 3SM BR OVC003 FM041800 09006KT
                       P6SM SCT250 FM050300 VRB03KT P6SM SKC=
202409040857 KCLM 040857Z 0409/0506 VRB03KT P6SM SCT003
                      TEMPO 0409/0412 1SM BR OVC001 FM041200 VRB03KT
                       P6SM SCT007 FM041800 09006KT P6SM SCT250=
202409040710 KCLM 040710Z 0407/0506 VRB03KT 1SM BR BKN003
                      TEMPO 0407/0411 1/2SM FG VV001 FM041200 VRB03KT
                       P6SM SCT007 FM041800 09006KT P6SM SCT250=
202409040528 TAF KCLM 040528Z 0406/0506 24003KT 2SM BR SCT003 FM040700 VRB03KT
                       P6SM SCT003 BKN007 FM041200 VRB03KT P6SM
                       SCT007 FM041800 09006KT P6SM SCT250=
202409040428 KCLM 040428Z 0404/0424 24003KT P6SM BKN005 FM040700 VRB03KT P6SM
                       SCT003 BKN007 FM041200 VRB03KT P6SM SCT007
                       FM041800 09006KT P6SM SCT250=
202409032329 TAF KCLM 032329Z 0400/0424 VRB03KT P6SM SCT040 SCT250 FM040400
                       28003KT P6SM FEW250 FM040700 VRB03KT P6SM
                       SCT003 BKN007 FM041200 VRB03KT P6SM SCT007
                       FM041800 09006KT P6SM SCT250=
202409031724 TAF KCLM 031724Z 0318/0418 VRB05KT P6SM SCT007 OVC020 FM032100
                       04005KT P6SM FEW015 BKN035 FM040000 VRB03KT
                       P6SM SCT040 SCT250 FM040300 28003KT P6SM
                       FEW250 FM040700 VRB03KT P6SM SCT003 BKN007=
202409031128 TAF KCLM 031128Z 0312/0412 28005KT P6SM OVC005 FM031800 04005KT
                       P6SM OVC015 FM032100 04005KT P6SM BKN035
                       FM040000 VRB03KT P6SM SCT040 SCT250 FM040300
                       28003KT P6SM FEW250=
202409030520 TAF KCLM 030520Z 0306/0406 30008KT P6SM OVC005 FM031100 27005KT
                       P6SM OVC005 FM031300 26004KT P6SM OVC003
                       FM031800 05005KT P6SM OVC015 FM032100 04005KT
                       P6SM BKN035=
202409030300 KCLM 030300Z 0303/0324 30008KT P6SM OVC005 FM031100 27005KT P6SM
                       OVC005 FM031300 26004KT P6SM OVC003 FM031800
                       05005KT P6SM OVC015 FM032100 04005KT P6SM
                       BKN035=
202409022340 TAF KCLM 022340Z 0300/0324 01005KT P6SM BKN030 FM030600 27006KT
                       P6SM OVC015 FM031100 27005KT P6SM OVC005
                       FM031300 26004KT P6SM OVC003 FM031800 05005KT
                       P6SM OVC015 FM032100 04005KT P6SM BKN035=
202409021723 TAF KCLM 021723Z 0218/0318 28005KT 2SM BR OVC006 FM022000 27006KT
                       P6SM OVC011 FM022200 30008KT P6SM BKN030
                       FM030600 27006KT P6SM OVC015 FM031100 27005KT
                       P6SM OVC008 FM031300 26004KT P6SM OVC003=
202409021140 TAF KCLM 021140Z 0212/0312 27006KT 5SM BR OVC002 FM021500 27006KT
                       P6SM OVC005 FM021700 27006KT P6SM OVC009
                       FM021900 27006KT P6SM OVC011 FM022100 30008KT
                       P6SM BKN035 FM030600 27006KT P6SM OVC015=
202409020542 TAF KCLM 020542Z 0206/0306 28008KT P6SM BKN004 FM020700 29006KT
                       P6SM OVC004 FM021700 31004KT P6SM OVC015
                       FM022100 30008KT P6SM OVC045=
202409012335 TAF KCLM 012335Z 0200/0224 29007KT P6SM SCT250 FM020400 29006KT
                       P6SM OVC010 FM020700 29006KT P6SM OVC004
                       FM021700 31004KT P6SM OVC015=
202409011725 TAF KCLM 011725Z 0118/0218 VRB05KT P6SM SKC FM012100 28008KT P6SM
                       SCT250 FM021000 30008KT P6SM OVC006=
202409011144 TAF KCLM 011144Z 0112/0212 VRB03KT P6SM SKC FM011400 11006KT P6SM
                       SKC FM012100 28008KT P6SM SCT250 FM021000
                       28008KT P6SM OVC006=
202409010554 TAF KCLM 010554Z 0106/0206 VRB03KT P6SM SKC FM011400 11006KT P6SM
                       SKC FM012100 33004KT P6SM SCT250=