##########################################################
# Query made at 02/16/2025 06:05:49 UTC
# Time interval: from 01/01/2024 00:00  to 01/31/2024 23:59  UTC
##########################################################

##########################################################
# KCLM, Port Angeles, William R. Fairchild International Airport (United States)
# WMO index: -----. WIGOS ID: Unknown
# Latitude 48-07-20N. Longitude 123-30-19W. Altitude 87 m.
##########################################################

###################################
#  METAR/SPECI from KCLM
###################################
202401312353 METAR KCLM 312353Z AUTO 00000KT 10SM SCT007 OVC070 13/09 A2940 RMK AO2 SLP954 60000 T01330094 10144 20122 55006=
202401312310 SPECI KCLM 312310Z AUTO 00000KT 10SM SCT012 OVC070 13/09 A2941 RMK AO2 T01330094=
202401312253 METAR KCLM 312253Z AUTO 00000KT 10SM BKN011 OVC070 13/10 A2941 RMK AO2 RAB2154E07B39E50 SLP958 P0000 T01330100=
202401312243 SPECI KCLM 312243Z AUTO 00000KT 10SM -RA BKN011 OVC070 13/10 A2941 RMK AO2 RAB2154E07B39 P0000 T01330100=
202401312236 SPECI KCLM 312236Z AUTO 00000KT 10SM BKN009 OVC070 13/10 A2941 RMK AO2 RAB2154E07 CIG 009V012 P0000 T01330100=
202401312225 SPECI KCLM 312225Z AUTO 00000KT 10SM SCT009 OVC070 13/11 A2941 RMK AO2 RAB2154E07 P0000 T01330106=
202401312153 METAR KCLM 312153Z AUTO 00000KT 10SM FEW055 OVC075 14/11 A2941 RMK AO2 RAB2054E22 SLP960 P0000 T01440111=
202401312053 METAR KCLM 312053Z AUTO 27004KT 10SM FEW006 SCT042 OVC075 13/10 A2943 RMK AO2 RAE34 SLP967 P0000 60000 T01330100 50002=
202401312035 SPECI KCLM 312035Z AUTO 00000KT 10SM FEW007 SCT050 OVC075 13/10 A2944 RMK AO2 RAE34 P0000 T01330100=
202401311953 METAR KCLM 311953Z AUTO 30005KT 10SM -RA FEW010 OVC075 13/10 A2944 RMK AO2 RAB16 SLP970 P0000 T01330100=
202401311853 METAR KCLM 311853Z AUTO 00000KT 10SM FEW050 SCT065 OVC080 13/10 A2943 RMK AO2 RAE1757 SLP966 P0000 T01330100=
202401311753 METAR KCLM 311753Z AUTO 00000KT 10SM -RA BKN070 OVC085 13/09 A2942 RMK AO2 RAB30 SLP964 P0000 60000 T01280094 10150 20117 51006=
202401311653 METAR KCLM 311653Z AUTO 35004KT 10SM OVC075 12/09 A2942 RMK AO2 SLP964 T01220094=
202401311553 METAR KCLM 311553Z AUTO 00000KT 10SM BKN075 OVC090 13/09 A2941 RMK AO2 SLP959 T01280094=
202401311453 METAR KCLM 311453Z AUTO 30004KT 10SM OVC075 14/09 A2940 RMK AO2 SLP958 T01390089 55008=
202401311353 METAR KCLM 311353Z AUTO 09006KT 10SM SCT065 OVC085 13/09 A2940 RMK AO2 SLP955 T01330094=
202401311253 METAR KCLM 311253Z AUTO 00000KT 10SM OVC070 13/09 A2942 RMK AO2 SLP961 T01280094=
202401311153 METAR KCLM 311153Z AUTO 07003KT 10SM BKN065 OVC080 12/09 A2943 RMK AO2 SLP965 60000 T01220089 10156 20100 58018=
202401311053 METAR KCLM 311053Z AUTO 08004KT 10SM OVC070 12/09 A2945 RMK AO2 RAB0955E01 SLP972 P0000 T01220089=
202401310953 METAR KCLM 310953Z AUTO 16011G27KT 090V210 10SM BKN070 OVC080 14/08 A2946 RMK AO2 PK WND 07027/0950 SLP976 T01390078=
202401310853 METAR KCLM 310853Z AUTO 00000KT 10SM OVC065 11/09 A2948 RMK AO2 SLP984 T01110089 56029=
202401310753 METAR KCLM 310753Z AUTO 21004KT 10SM OVC075 11/08 A2951 RMK AO2 SLP993 T01060083 401330100=
202401310653 METAR KCLM 310653Z AUTO 17006KT 10SM BKN070 BKN100 OVC120 10/08 A2952 RMK AO2 SLP998 T01000083=
202401310553 METAR KCLM 310553Z AUTO VRB03KT 10SM BKN080 BKN090 BKN110 11/08 A2957 RMK AO2 SLP013 60000 T01060083 10117 20100 56029=
202401310453 METAR KCLM 310453Z AUTO 16003KT 10SM CLR 10/08 A2959 RMK AO2 RAE0359 SLP019 P0000 T01000078=
202401310353 METAR KCLM 310353Z AUTO VRB05KT 10SM -RA FEW070 BKN100 OVC110 11/08 A2963 RMK AO2 RAB50 SLP034 P0000 T01060078=
202401310253 METAR KCLM 310253Z AUTO 00000KT 10SM OVC110 11/08 A2965 RMK AO2 SLP042 T01060078 56040=
202401310153 METAR KCLM 310153Z AUTO 00000KT 10SM BKN070 BKN120 10/08 A2969 RMK AO2 SLP055 T01000078=
202401310053 METAR KCLM 310053Z AUTO 13004KT 10SM SCT010 OVC070 11/08 A2973 RMK AO2 SLP070 T01110078=
202401310000 SPECI KCLM 310000Z AUTO 00000KT 10SM BKN007 BKN070 12/08 A2977 RMK AO2 CIG 005V009 T01170083=
202401302353 METAR KCLM 302353Z AUTO 00000KT 10SM SCT007 BKN070 12/08 A2977 RMK AO2 SLP083 T01170083 10128 20111 56032=
202401302343 SPECI KCLM 302343Z AUTO 04003KT 10SM BKN005 OVC070 12/08 A2977 RMK AO2 T01170083=
202401302253 METAR KCLM 302253Z AUTO VRB03KT 10SM OVC003 12/09 A2978 RMK AO2 CIG 002V006 SLP086 T01170089=
202401302153 METAR KCLM 302153Z AUTO 08005KT 10SM BKN008 BKN070 OVC100 13/09 A2983 RMK AO2 CIG 006V010 SLP101 T01280094=
202401302105 SPECI KCLM 302105Z AUTO 10006KT 10SM SCT006 BKN070 OVC090 12/09 A2986 RMK AO2 T01220094=
202401302053 METAR KCLM 302053Z AUTO 10005KT 10SM FEW012 BKN070 OVC090 12/09 A2987 RMK AO2 SLP115 T01170089 58030=
202401301953 METAR KCLM 301953Z AUTO 10003KT 10SM OVC070 12/09 A2990 RMK AO2 SLP124 T01170089=
202401301853 METAR KCLM 301853Z AUTO 08003KT 10SM OVC090 12/09 A2993 RMK AO2 SLP137 T01220094=
202401301753 METAR KCLM 301753Z AUTO 13003KT 10SM OVC100 12/09 A2996 RMK AO2 SLP145 T01220094 10122 20100 56010=
202401301653 METAR KCLM 301653Z AUTO 22005KT 10SM OVC090 12/09 A2996 RMK AO2 SLP144 T01170089=
202401301553 METAR KCLM 301553Z AUTO 22004KT 10SM BKN100 11/08 A2997 RMK AO2 SLP149 T01060083=
202401301453 METAR KCLM 301453Z AUTO 19003KT 10SM CLR 10/08 A2999 RMK AO2 SLP156 T01000078 50002=
202401301353 METAR KCLM 301353Z AUTO 00000KT 10SM BKN090 11/08 A3000 RMK AO2 SLP158 T01060083=
202401301304 SPECI KCLM 301304Z AUTO 15003KT 10SM SCT015 OVC065 12/09 A3000 RMK AO2 T01170094=
202401301253 METAR KCLM 301253Z AUTO 18004KT 10SM BKN015 OVC065 11/09 A3000 RMK AO2 SLP161 T01110089=
202401301153 METAR KCLM 301153Z AUTO 00000KT 10SM SCT060 BKN085 11/09 A2998 RMK AO2 SLP154 60000 70003 T01110089 10144 20106 51007=
202401301053 METAR KCLM 301053Z AUTO 00000KT 10SM OVC065 12/09 A2998 RMK AO2 SLP152 T01220094=
202401300953 METAR KCLM 300953Z AUTO 05003KT 10SM OVC070 13/09 A2999 RMK AO2 SLP156 T01280094=
202401300853 METAR KCLM 300853Z AUTO 00000KT 10SM BKN070 OVC085 12/09 A2996 RMK AO2 SLP147 60000 T01170094 51037=
202401300753 METAR KCLM 300753Z AUTO 00000KT 10SM BKN060 OVC080 13/09 A2994 RMK AO2 RAE00 SLP140 P0000 T01330089 401500100=
202401300653 METAR KCLM 300653Z AUTO 24004KT 10SM -RA OVC060 13/09 A2992 RMK AO2 RAB17 SLP131 P0000 T01330089=
202401300553 METAR KCLM 300553Z AUTO 31005KT 10SM FEW046 BKN065 OVC080 13/08 A2985 RMK AO2 RAE02B19E44 SLP109 P0001 60003 T01280083 10150 20111 53003=
202401300453 METAR KCLM 300453Z AUTO 05006KT 10SM -RA FEW055 SCT070 OVC085 13/09 A2984 RMK AO2 SLP104 P0001 T01330094=
202401300353 METAR KCLM 300353Z AUTO 00000KT 10SM -RA BKN065 OVC080 12/09 A2985 RMK AO2 RAB0254 SLP109 P0001 T01220094=
202401300253 METAR KCLM 300253Z AUTO 26005KT 10SM FEW055 OVC075 13/09 A2984 RMK AO2 RAB21E45 SLP106 P0000 60000 T01280094 53003=
202401300153 METAR KCLM 300153Z AUTO 24005KT 10SM BKN080 OVC090 12/09 A2983 RMK AO2 SLP101 T01220094=
202401300053 METAR KCLM 300053Z AUTO 24004KT 10SM FEW080 BKN100 OVC120 12/09 A2980 RMK AO2 RAE2359 SLP093 P0000 T01220089=
202401292353 METAR KCLM 292353Z AUTO 00000KT 10SM -RA FEW060 BKN090 OVC100 13/10 A2984 RMK AO2 RAB39 SLP103 P0000 60000 T01280100 10144 20117 56020=
202401292253 METAR KCLM 292253Z AUTO 27004KT 10SM BKN100 13/10 A2986 RMK AO2 SLP110 T01330100=
202401292153 METAR KCLM 292153Z AUTO 25004KT 10SM CLR 13/09 A2987 RMK AO2 SLP115 T01280094=
202401292053 METAR KCLM 292053Z AUTO 06004KT 10SM BKN095 13/09 A2989 RMK AO2 SLP124 T01280094 58024=
202401291953 METAR KCLM 291953Z AUTO 01003KT 10SM BKN095 13/10 A2992 RMK AO2 SLP133 T01280100=
202401291853 METAR KCLM 291853Z AUTO 00000KT 10SM CLR 14/11 A2995 RMK AO2 SLP141 T01390106=
202401291753 METAR KCLM 291753Z AUTO 13005KT 10SM FEW090 12/09 A2996 RMK AO2 SLP148 T01170094 10128 20100 58005=
202401291653 METAR KCLM 291653Z AUTO 00000KT 10SM BKN090 11/09 A2997 RMK AO2 SLP149 T01110089=
202401291553 METAR KCLM 291553Z AUTO 21005KT 10SM BKN085 11/09 A2998 RMK AO2 SLP152 T01060089=
202401291453 METAR KCLM 291453Z AUTO 00000KT 10SM CLR 11/09 A2998 RMK AO2 SLP153 T01060089 58006=
202401291353 METAR KCLM 291353Z AUTO 18004KT 10SM CLR 12/09 A2999 RMK AO2 SLP155 T01170094=
202401291253 METAR KCLM 291253Z AUTO 20003KT 8SM SCT075 SCT090 12/10 A3000 RMK AO2 SLP159 T01170100=
202401291153 METAR KCLM 291153Z AUTO 20006KT 10SM BKN075 OVC090 12/11 A3000 RMK AO2 SLP159 60000 70013 T01220106 10122 20111 53006 TSNO=
202401291110 SPECI KCLM 291110Z AUTO 30004KT 9SM FEW002 BKN075 OVC085 12/10 A3000 RMK AO2 T01220100=
202401291053 METAR KCLM 291053Z AUTO 00000KT 9SM OVC070 12/10 A2999 RMK AO2 SLP156 T01170100=
202401290953 METAR KCLM 290953Z AUTO 00000KT 5SM BR FEW002 OVC070 12/10 A2998 RMK AO2 SLP153 T01170100=
202401290940 SPECI KCLM 290940Z AUTO 00000KT 4SM BR SCT002 OVC070 12/10 A2998 RMK AO2 T01170100=
202401290908 SPECI KCLM 290908Z AUTO 29003KT 2 1/2SM BR FEW002 OVC070 12/10 A2999 RMK AO2 T01170100=
202401290853 METAR KCLM 290853Z AUTO 00000KT 9SM OVC070 12/10 A2998 RMK AO2 RAB05E19 SLP153 P0000 60000 T01170100 58011=
202401290809 SPECI KCLM 290809Z AUTO 00000KT 7SM -RA FEW002 OVC075 12/10 A3000 RMK AO2 RAB05 P0000 T01220100=
202401290753 METAR KCLM 290753Z AUTO 00000KT 10SM OVC070 12/10 A3000 RMK AO2 RAB0658E11 SLP161 P0000 T01170100 401280089=
202401290653 METAR KCLM 290653Z AUTO 23003KT 10SM OVC070 12/10 A3001 RMK AO2 RAE53 SLP164 P0000 T01220100=
202401290553 METAR KCLM 290553Z AUTO 11003KT 4SM -RA BR FEW026 OVC070 12/09 A3001 RMK AO2 RAB39 SLP164 P0000 60000 T01170094 10117 20106 58002=
202401290548 SPECI KCLM 290548Z AUTO 12004KT 3SM -RA BR FEW022 OVC070 12/09 A3002 RMK AO2 RAB39 P0000=
202401290547 SPECI KCLM 290547Z AUTO 11003KT 2SM -RA BR FEW022 OVC070 12/09 A3002 RMK AO2 RAB39 P0000=
202401290539 SPECI KCLM 290539Z AUTO 00000KT 1/2SM -RA FG SCT007 OVC070 11/09 A3002 RMK AO2 RAB39 P0000 T01110094=
202401290528 SPECI KCLM 290528Z AUTO 00000KT 1/2SM FG BKN002 OVC070 12/10 A3002 RMK AO2 T01170100=
202401290507 SPECI KCLM 290507Z AUTO 14003KT 1/4SM FG VV002 12/09 A3002 RMK AO2 T01170094=
202401290453 METAR KCLM 290453Z AUTO 17003KT 1/2SM FG VV002 12/10 A3002 RMK AO2 SLP167 T01170100=
202401290448 SPECI KCLM 290448Z AUTO 18003KT 3/4SM BR VV002 12/10 A3002 RMK AO2=
202401290434 SPECI KCLM 290434Z AUTO VRB04KT 1SM BR OVC002 11/09 A3002 RMK AO2 T01110094=
202401290410 SPECI KCLM 290410Z AUTO 24003KT 3/4SM BR VV002 11/09 A3002 RMK AO2 T01110094=
202401290353 METAR KCLM 290353Z AUTO 22004KT 1/4SM FG VV002 11/09 A3002 RMK AO2 SLP165 T01110094=
202401290335 SPECI KCLM 290335Z AUTO 21003KT 1/4SM FG VV002 11/09 A3001 RMK AO2 T01110094=
202401290253 METAR KCLM 290253Z AUTO 00000KT 1/4SM FG VV001 11/09 A3002 RMK AO2 SLP165 T01060089 55003=
202401290231 SPECI KCLM 290231Z AUTO 00000KT 1/4SM FG VV001 11/09 A3001 RMK AO2 T01110094=
202401290201 SPECI KCLM 290201Z AUTO 00000KT 1/4SM FG VV002 11/09 A3000 RMK AO2 T01110094=
202401290153 METAR KCLM 290153Z AUTO VRB03KT 1/2SM FG VV001 11/09 A3001 RMK AO2 SLP162 T01110094=
202401290148 SPECI KCLM 290148Z AUTO 00000KT 1/4SM FG VV001 11/09 A3000 RMK AO2=
202401290143 SPECI KCLM 290143Z AUTO 00000KT 1/2SM FG VV002 11/09 A3001 RMK AO2 T01110094=
202401290131 SPECI KCLM 290131Z AUTO 00000KT 1/4SM FG VV002 12/10 A3002 RMK AO2 T01170100=
202401290116 SPECI KCLM 290116Z AUTO 00000KT 1/2SM FG VV002 12/09 A3002 RMK AO2 T01170094=
202401290053 METAR KCLM 290053Z AUTO 00000KT 1/4SM FG VV002 12/10 A3003 RMK AO2 SLP168 T01170100=
202401290051 SPECI KCLM 290051Z AUTO 00000KT 1/4SM FG VV002 12/10 A3003 RMK AO2=
202401282353 METAR KCLM 282353Z AUTO 00000KT M1/4SM FG VV002 12/10 A3005 RMK AO2 SLP177 T01170100 10128 20111 56015=
202401282344 SPECI KCLM 282344Z AUTO 00000KT M1/4SM FG VV002 12/10 A3006 RMK AO2 T01170100=
202401282320 SPECI KCLM 282320Z AUTO 00000KT 1/4SM FG VV002 12/10 A3007 RMK AO2 T01170100=
202401282253 METAR KCLM 282253Z AUTO 00000KT M1/4SM FG VV002 12/09 A3006 RMK AO2 SLP180 T01170094=
202401282220 SPECI KCLM 282220Z AUTO 00000KT 1/4SM FG VV002 11/10 A3008 RMK AO2 T01110100=
202401282209 SPECI KCLM 282209Z AUTO 00000KT M1/4SM FG VV002 11/09 A3008 RMK AO2 T01110094=
202401282153 METAR KCLM 282153Z AUTO 00000KT 1/4SM FG VV002 12/10 A3008 RMK AO2 SLP188 T01170100=
202401282127 SPECI KCLM 282127Z AUTO 00000KT 1/4SM FG VV002 12/11 A3009 RMK AO2 T01220106=
202401282100 SPECI KCLM 282100Z AUTO 08004KT M1/4SM FG VV002 12/10 A3010 RMK AO2 T01220100=
202401282053 METAR KCLM 282053Z AUTO VRB04KT 1/4SM FG VV002 12/10 A3010 RMK AO2 SLP193 T01220100 50002=
202401282015 SPECI KCLM 282015Z AUTO 09006KT M1/4SM FG VV002 12/10 A3011 RMK AO2 T01220100=
202401281953 METAR KCLM 281953Z AUTO 10005KT 1/4SM FG VV002 12/11 A3011 RMK AO2 SLP197 T01220106=
202401281929 SPECI KCLM 281929Z AUTO 08005KT 1/4SM FG VV002 13/11 A3010 RMK AO2 T01280106=
202401281922 SPECI KCLM 281922Z AUTO 08005KT 1 3/4SM BR BKN002 12/11 A3010 RMK AO2 T01220106=
202401281910 SPECI KCLM 281910Z AUTO 04003KT 5SM BR BKN002 BKN006 12/11 A3010 RMK AO2 T01220106=
202401281905 SPECI KCLM 281905Z AUTO 00000KT 1SM BR VV002 12/11 A3011 RMK AO2 T01220106=
202401281853 METAR KCLM 281853Z AUTO 11004KT 1/4SM FG VV003 12/10 A3011 RMK AO2 SLP196 T01170100=
202401281835 SPECI KCLM 281835Z AUTO 00000KT 1/4SM FG VV002 12/09 A3010 RMK AO2 T01170094=
202401281553 METAR KCLM 281553Z AUTO 00000KT 3/4SM BR VV001 09/07 A3005 RMK AO2 SLP176 T00940072 $=
202401281544 SPECI KCLM 281544Z AUTO 11004KT 1/2SM FG VV001 09/07 A3004 RMK AO2 T00890067 $=
202401281537 SPECI KCLM 281537Z AUTO 11004KT 3/4SM BR FEW001 FEW018 09/08 A3004 RMK AO2 T00940078 $=
202401281528 SPECI KCLM 281528Z AUTO 20003KT 1 3/4SM BR FEW019 11/08 A3004 RMK AO2 VIS 1/2V5 T01060083 $=
202401281523 SPECI KCLM 281523Z AUTO 21003KT 5SM BR FEW019 11/08 A3004 RMK AO2 T01060083 $=
202401281514 SPECI KCLM 281514Z AUTO 23004KT 3SM BR BKN019 12/09 A3004 RMK AO2 T01170094 $=
202401281456 SPECI KCLM 281456Z AUTO 22003KT 4SM BR FEW018 12/09 A3004 RMK AO2 T01170094 $=
202401281453 METAR KCLM 281453Z AUTO 22004KT 1 3/4SM BR FEW021 11/09 A3004 RMK AO2 RAE18 SLP174 P0000 60013 T01110089 53009 $=
202401281444 SPECI KCLM 281444Z AUTO 28006KT 1 3/4SM BR FEW050 SCT070 11/08 A3003 RMK AO2 VIS 3/4V5 RAE18 P0000 T01060083 $=
202401281353 METAR KCLM 281353Z AUTO 11005KT 3SM -RA BR BKN060 OVC075 12/09 A3002 RMK AO2 SLP166 P0004 T01170094 $=
202401281345 SPECI KCLM 281345Z AUTO 11004KT 4SM -RA BR OVC070 12/09 A3002 RMK AO2 P0004 T01170094 $=
202401281333 SPECI KCLM 281333Z AUTO 14004KT 2SM -RA BR FEW016 BKN048 OVC070 12/09 A3002 RMK AO2 P0003 T01170094 $=
202401281309 SPECI KCLM 281309Z AUTO 13003KT 4SM -RA BR FEW015 OVC037 12/09 A3002 RMK AO2 P0001 T01170094 $=
202401281253 METAR KCLM 281253Z AUTO 00000KT 4SM -RA BR FEW008 OVC015 12/11 A3002 RMK AO2 SLP165 P0009 T01220106 $=
202401281231 SPECI KCLM 281231Z AUTO 23004KT 5SM -RA BR SCT009 OVC012 12/10 A3001 RMK AO2 P0004 T01170100 $=
202401281207 SPECI KCLM 281207Z AUTO 00000KT 6SM -RA BR OVC012 12/10 A3000 RMK AO2 P0002 T01170100 $=
202401281153 METAR KCLM 281153Z AUTO 00000KT 4SM -RA BR SCT012 BKN020 OVC070 12/09 A3000 RMK AO2 SLP158 P0004 60056 70095 T01170094 10117 20111 53001 $=
202401281150 SPECI KCLM 281150Z AUTO 00000KT 3SM -RA BR SCT012 BKN020 OVC075 11/09 A3000 RMK AO2 P0004 $=
202401281146 SPECI KCLM 281146Z AUTO 00000KT 1 3/4SM -RA BR SCT012 BKN022 OVC075 11/09 A3000 RMK AO2 P0004 T01110094 $=
202401281137 SPECI KCLM 281137Z AUTO 27003KT 1 1/2SM -RA BR FEW019 SCT037 OVC075 11/09 A3000 RMK AO2 P0003 T01110094 $=
202401281127 SPECI KCLM 281127Z AUTO 00000KT 2 1/2SM -RA BR FEW060 OVC075 11/09 A2999 RMK AO2 VIS 1 3/4V4 P0002 T01110094 $=
202401281103 SPECI KCLM 281103Z AUTO 13003KT 1 1/4SM -RA BR FEW014 SCT049 OVC075 11/09 A2999 RMK AO2 P0001 T01110094 $=
202401281053 METAR KCLM 281053Z AUTO 00000KT 2 1/2SM -RA BR FEW015 BKN043 OVC075 12/09 A2999 RMK AO2 SLP158 P0009 T01170094 $=
202401281044 SPECI KCLM 281044Z AUTO 13003KT 4SM -RA BR FEW005 SCT015 OVC041 12/10 A3000 RMK AO2 P0008 T01170100 $=
202401281027 SPECI KCLM 281027Z AUTO 00000KT 3SM -RA BR SCT005 BKN015 OVC020 12/09 A3000 RMK AO2 P0005 T01170094 $=
202401281014 SPECI KCLM 281014Z AUTO 00000KT 2SM -RA BR BKN005 OVC016 12/10 A3000 RMK AO2 VIS 1 1/2V3 P0003 T01170100 $=
202401281007 SPECI KCLM 281007Z AUTO 00000KT 2 1/2SM -RA BR FEW007 OVC014 12/09 A2999 RMK AO2 P0003 T01170094 $=
202401280953 METAR KCLM 280953Z AUTO 00000KT 3SM RA BR OVC011 12/09 A2999 RMK AO2 SLP157 P0012 T01170094 $=
202401280943 SPECI KCLM 280943Z AUTO 00000KT 4SM -RA BR FEW009 OVC013 12/09 A3000 RMK AO2 P0010 T01170094 $=
202401280929 SPECI KCLM 280929Z AUTO 00000KT 4SM -RA BR FEW006 OVC015 12/09 A2999 RMK AO2 P0008 T01170094 $=
202401280917 SPECI KCLM 280917Z AUTO 00000KT 4SM -RA BR FEW013 OVC023 12/10 A2999 RMK AO2 P0006 T01170100 $=
202401280853 METAR KCLM 280853Z AUTO 00000KT 3SM RA BR OVC065 12/09 A2999 RMK AO2 SLP158 P0012 60031 T01170094 $=
202401280829 SPECI KCLM 280829Z AUTO 23003KT 4SM -RA BR FEW003 BKN055 OVC070 12/10 A2999 RMK AO2 P0007 T01170100 $=
202401280814 SPECI KCLM 280814Z AUTO 25003KT 4SM RA BR SCT003 BKN016 OVC044 12/09 A2999 RMK AO2 P0004 T01170094 $=
202401280805 SPECI KCLM 280805Z AUTO 25003KT 2SM -RA BR SCT001 BKN016 OVC043 12/09 A3000 RMK AO2 P0002 T01170094 $=
202401280756 SPECI KCLM 280756Z AUTO 00000KT 1 3/4SM -RA BR FEW004 BKN014 OVC070 11/09 A2999 RMK AO2 P0000 T01110094 $=
202401280753 METAR KCLM 280753Z AUTO 00000KT 2 1/2SM -RA BR SCT014 BKN050 OVC070 11/09 A2999 RMK AO2 RAB24 SLP157 P0008 T01110094 401170078 $=
202401280653 METAR KCLM 280653Z AUTO 00000KT 2SM -RA BR OVC065 11/09 A2999 RMK AO2 SLP157 P0011 T01110094=
202401280646 SPECI KCLM 280646Z AUTO 00000KT 2SM RA BR BKN065 OVC080 11/09 A2999 RMK AO2 P0010 T01110094=
202401280631 SPECI KCLM 280631Z AUTO 00000KT 5SM -RA BR OVC070 11/09 A2999 RMK AO2 P0006 T01110094=
202401280622 SPECI KCLM 280622Z AUTO 00000KT 2 1/2SM RA BR BKN065 OVC080 11/09 A2998 RMK AO2 P0005 T01110089=
202401280553 METAR KCLM 280553Z AUTO 00000KT 4SM -RA BR FEW060 OVC080 11/09 A2997 RMK AO2 SLP150 P0003 60032 T01110089 10117 20106 50002=
202401280545 SPECI KCLM 280545Z AUTO 00000KT 1 3/4SM -RA BR SCT055 OVC075 11/09 A2997 RMK AO2 P0003 T01060094=
202401280453 METAR KCLM 280453Z AUTO 24003KT 7SM -RA FEW012 SCT060 OVC085 11/09 A2998 RMK AO2 SLP153 P0004 T01060089=
202401280353 METAR KCLM 280353Z AUTO 00000KT 6SM -RA BR SCT010 BKN055 OVC085 11/09 A2998 RMK AO2 SLP154 P0011 T01060089=
202401280337 SPECI KCLM 280337Z AUTO 00000KT 2 1/2SM RA BR FEW010 BKN055 OVC070 11/09 A2998 RMK AO2 P0009 T01060089=
202401280253 METAR KCLM 280253Z AUTO 16003KT 5SM -RA BR FEW004 BKN075 OVC090 11/08 A2997 RMK AO2 SLP148 P0012 60014 T01060083 53001=
202401280243 SPECI KCLM 280243Z AUTO 00000KT 5SM RA BR SCT003 BKN042 OVC075 11/09 A2997 RMK AO2 P0011 T01060089=
202401280229 SPECI KCLM 280229Z AUTO 21003KT 3SM RA BR BKN003 OVC017 11/08 A2997 RMK AO2 P0009 T01060083=
202401280218 SPECI KCLM 280218Z AUTO 00000KT 2 1/2SM RA BR OVC003 11/08 A2997 RMK AO2 P0006 T01060083=
202401280201 SPECI KCLM 280201Z AUTO 00000KT 1 1/4SM RA BR OVC002 11/08 A2997 RMK AO2 P0002 T01060083=
202401280153 METAR KCLM 280153Z AUTO 00000KT 2SM -RA BR OVC002 11/09 A2996 RMK AO2 SLP146 P0002 T01060089=
202401280146 SPECI KCLM 280146Z AUTO 27003KT 2SM -RA BR OVC002 11/09 A2996 RMK AO2 P0002 T01060089=
202401280138 SPECI KCLM 280138Z AUTO 29003KT 1 3/4SM -RA BR OVC002 11/08 A2996 RMK AO2 P0002 T01060083=
202401280123 SPECI KCLM 280123Z AUTO 29005KT 1/2SM -RA FG VV002 11/08 A2997 RMK AO2 P0000 T01060083=
202401280053 METAR KCLM 280053Z AUTO 00000KT 1/4SM -RA FG VV002 11/09 A2996 RMK AO2 RAE06B52 SLP146 P0000 T01060089=
202401280023 SPECI KCLM 280023Z AUTO 31003KT 1/4SM FG VV004 11/09 A2995 RMK AO2 RAE06 P0000 T01060089=
202401280019 SPECI KCLM 280019Z AUTO 00000KT 1/4SM FG SCT001 OVC010 11/09 A2995 RMK AO2 RAE06 P0000 T01110089=
202401280008 SPECI KCLM 280008Z AUTO 00000KT 1 1/2SM BR SCT002 OVC012 11/09 A2996 RMK AO2 RAE06 P0000 T01110094=
202401280000 SPECI KCLM 280000Z AUTO 00000KT 1SM -RA BR SCT002 OVC016 11/09 A2996 RMK AO2 P0000 T01110094=
202401272353 METAR KCLM 272353Z AUTO 00000KT 1SM -RA BR FEW002 OVC007 11/09 A2996 RMK AO2 RAB24 SLP147 P0002 60002 T01110089 10117 20100 58004=
202401272343 SPECI KCLM 272343Z AUTO 00000KT 1/2SM -RA FG VV005 11/09 A2996 RMK AO2 RAB24 P0001 T01110089=
202401272332 SPECI KCLM 272332Z AUTO 00000KT 1/4SM -RA FG VV002 11/09 A2997 RMK AO2 RAB24 P0001 T01110089=
202401272324 SPECI KCLM 272324Z AUTO 00000KT M1/4SM -RA FG VV002 11/09 A2996 RMK AO2 RAB24 P0000 T01110094=
202401272305 SPECI KCLM 272305Z AUTO 34003KT 1/4SM FG OVC002 11/09 A2997 RMK AO2 T01110089=
202401272257 SPECI KCLM 272257Z AUTO 36003KT 1 3/4SM HZ OVC002 12/09 A2997 RMK AO2 T01170089=
202401272253 METAR KCLM 272253Z AUTO 33003KT 4SM BR OVC002 12/09 A2997 RMK AO2 SLP149 T01170094=
202401272153 METAR KCLM 272153Z AUTO 00000KT 10SM OVC002 12/09 A2997 RMK AO2 SLP151 T01170094=
202401272053 METAR KCLM 272053Z AUTO 00000KT 8SM OVC002 11/09 A2998 RMK AO2 SLP151 60000 T01060089 53008=
202401271953 METAR KCLM 271953Z AUTO 31003KT 10SM OVC002 11/08 A2996 RMK AO2 RAB01E27 SLP146 P0000 T01110083=
202401271931 SPECI KCLM 271931Z AUTO 00000KT 6SM BR OVC002 11/09 A2996 RMK AO2 RAB01E27 P0000 T01060089=
202401271923 SPECI KCLM 271923Z AUTO 29003KT 2SM -RA BR OVC002 11/08 A2996 RMK AO2 RAB01 P0000 T01060083=
202401271918 SPECI KCLM 271918Z AUTO 29004KT 3/4SM -RA BR VV002 10/08 A2997 RMK AO2 RAB01 P0000 T01000083=
202401271911 SPECI KCLM 271911Z AUTO 29005KT 1/4SM -RA FG VV002 10/08 A2997 RMK AO2 RAB01 P0000 T01000083=
202401271853 METAR KCLM 271853Z AUTO 31003KT 3/4SM BR VV002 10/08 A2997 RMK AO2 SLP148 T01000083=
202401271825 SPECI KCLM 271825Z AUTO 28004KT 3/4SM BR VV002 10/08 A2996 RMK AO2 T01000083=
202401271811 SPECI KCLM 271811Z AUTO 29004KT 1SM BR VV002 10/08 A2995 RMK AO2 T01000083=
202401271746 SPECI KCLM 271746Z AUTO 29005KT 1SM BR VV002 10/08 A2995 RMK AO2 T01000078=
202401271737 SPECI KCLM 271737Z AUTO 28003KT 3/4SM BR VV002 10/08 A2995 RMK AO2 T01000078=
202401271653 METAR KCLM 271653Z AUTO 29005KT 1/4SM FG BKN003 OVC110 10/08 A2995 RMK AO2 RAE05 SLP142 P0000 T01000078=
202401271648 SPECI KCLM 271648Z AUTO 29005KT 1/4SM FG BKN003 OVC110 10/08 A2995 RMK AO2 RAE05 P0000=
202401271643 SPECI KCLM 271643Z AUTO 31004KT 1 1/4SM BR BKN003 OVC110 10/08 A2995 RMK AO2 RAE05 P0000 T01000083=
202401271641 SPECI KCLM 271641Z AUTO 31004KT 5SM BR BKN005 OVC110 10/08 A2995 RMK AO2 RAE05 P0000 T01000083=
202401271630 SPECI KCLM 271630Z AUTO 28004KT 10SM SCT005 OVC110 10/08 A2995 RMK AO2 RAE05 P0000 T01000083=
202401271453 METAR KCLM 271453Z AUTO 23005KT 3SM -RA BR OVC002 10/08 A2995 RMK AO2 RAB42 SLP144 P0001 60001 T01000083 56002=
202401271353 METAR KCLM 271353Z AUTO 23005KT 5SM BR OVC002 10/08 A2995 RMK AO2 SLP144 T01000083=
202401271253 METAR KCLM 271253Z AUTO 26008KT 9SM OVC003 10/08 A2996 RMK AO2 SLP146 T01000078=
202401271213 SPECI KCLM 271213Z AUTO 25009KT 6SM BR OVC002 09/07 A2996 RMK AO2 T00940072=
202401271204 SPECI KCLM 271204Z AUTO 25008KT 2SM BR OVC002 09/07 A2996 RMK AO2 T00940072=
202401271153 METAR KCLM 271153Z AUTO 23007KT 1 3/4SM BR OVC002 09/07 A2996 RMK AO2 SLP146 60002 70003 T00890067 10089 20078 58012=
202401271122 SPECI KCLM 271122Z AUTO 23005KT 1 3/4SM BR OVC003 08/07 A2997 RMK AO2 T00830067=
202401271053 METAR KCLM 271053Z AUTO 23003KT 4SM BR OVC004 08/06 A2998 RMK AO2 RAE26 SLP152 P0000 T00780056=
202401271051 SPECI KCLM 271051Z AUTO 24006KT 3SM BR OVC003 08/06 A2998 RMK AO2 RAE26 P0000=
202401271041 SPECI KCLM 271041Z AUTO 22003KT 1 3/4SM BR OVC003 08/06 A2998 RMK AO2 VIS 1V3 RAE26 P0000 T00780056=
202401271022 SPECI KCLM 271022Z AUTO 00000KT 9SM -RA OVC004 08/06 A2999 RMK AO2 P0000 T00830061=
202401270953 METAR KCLM 270953Z AUTO 23003KT 6SM -RA BR BKN006 BKN055 OVC075 08/07 A2999 RMK AO2 RAB37 SLP156 P0002 T00830067=
202401270853 METAR KCLM 270853Z AUTO 11003KT 9SM BKN075 OVC085 08/06 A3000 RMK AO2 RAB02E19 SLP158 P0000 60000 T00830061 50001=
202401270753 METAR KCLM 270753Z AUTO 00000KT 8SM BKN075 OVC095 08/06 A3000 RMK AO2 SLP159 T00830061 401110050=
202401270703 SPECI KCLM 270703Z AUTO 18003KT 8SM FEW006 BKN070 BKN085 08/06 A3000 RMK AO2 T00830061=
202401270653 METAR KCLM 270653Z AUTO 00000KT 9SM SCT070 BKN085 08/07 A3000 RMK AO2 SLP160 T00830067=
202401270553 METAR KCLM 270553Z AUTO 00000KT 9SM OVC050 09/07 A2999 RMK AO2 SLP157 60001 T00890067 10106 20089 53013=
202401270525 SPECI KCLM 270525Z AUTO 19003KT 10SM SCT008 OVC050 09/07 A2999 RMK AO2 T00890067=
202401270453 METAR KCLM 270453Z AUTO 20003KT 10SM OVC008 09/07 A2998 RMK AO2 SLP152 T00890067=
202401270353 METAR KCLM 270353Z AUTO 26005KT 10SM BKN007 OVC070 09/07 A2996 RMK AO2 SLP146 T00890067=
202401270350 SPECI KCLM 270350Z AUTO 24005KT 10SM BKN007 OVC070 09/07 A2996 RMK AO2=
202401270341 SPECI KCLM 270341Z AUTO 25004KT 10SM SCT007 BKN065 OVC080 09/07 A2995 RMK AO2 T00890067=
202401270253 METAR KCLM 270253Z AUTO 26005KT 10SM SCT070 BKN085 OVC110 09/07 A2993 RMK AO2 RAE53 SLP137 P0001 60001 T00890067 55007=
202401270153 METAR KCLM 270153Z AUTO 00000KT 10SM -RA OVC095 09/07 A2991 RMK AO2 SLP130 P0000 T00890067=
202401270053 METAR KCLM 270053Z AUTO 00000KT 10SM -RA OVC100 09/07 A2992 RMK AO2 RAB2355E29B50 SLP133 P0000 T00940067=
202401262353 METAR KCLM 262353Z AUTO 00000KT 10SM FEW060 SCT070 BKN095 11/07 A2995 RMK AO2 SLP142 T01060067 10111 20083 56019=
202401262253 METAR KCLM 262253Z AUTO 29003KT 10SM BKN100 11/07 A2997 RMK AO2 SLP148 T01110067=
202401262153 METAR KCLM 262153Z AUTO 28004KT 10SM FEW009 11/07 A2998 RMK AO2 SLP155 T01060072=
202401262129 SPECI KCLM 262129Z AUTO 29005KT 10SM FEW009 11/07 A2999 RMK AO2 T01060067=
202401262053 METAR KCLM 262053Z AUTO 28007KT 10SM CLR 11/07 A3001 RMK AO2 SLP162 T01110067 58014=
202401261953 METAR KCLM 261953Z AUTO 24005KT 10SM CLR 09/07 A3002 RMK AO2 SLP167 T00940067=
202401261937 SPECI KCLM 261937Z AUTO 22006KT 10SM SCT005 09/07 A3003 RMK AO2 T00890072=
202401261927 SPECI KCLM 261927Z AUTO 20005KT 10SM BKN005 09/07 A3003 RMK AO2 CIG 003V008 T00890072=
202401261853 METAR KCLM 261853Z AUTO 24003KT 10SM OVC002 09/07 A3005 RMK AO2 SLP177 T00890067=
202401261839 SPECI KCLM 261839Z AUTO 23003KT 3SM BR OVC002 08/07 A3006 RMK AO2 T00830067=
202401261828 SPECI KCLM 261828Z AUTO 23004KT 1 1/4SM BR OVC002 08/07 A3006 RMK AO2 T00830067=
202401261821 SPECI KCLM 261821Z AUTO 26003KT 3/4SM BR OVC002 08/07 A3006 RMK AO2 T00830067=
202401261753 METAR KCLM 261753Z AUTO 23004KT 1/4SM FG VV002 08/06 A3005 RMK AO2 SLP177 T00830061 10083 20061 58007=
202401261653 METAR KCLM 261653Z AUTO 00000KT 1/4SM FG VV002 08/06 A3006 RMK AO2 SLP182 T00780061=
202401261632 SPECI KCLM 261632Z AUTO 19004KT 1/4SM FG VV002 07/06 A3006 RMK AO2 T00720056=
202401261625 SPECI KCLM 261625Z AUTO 00000KT 1/2SM FG VV002 07/06 A3006 RMK AO2 T00720056=
202401261611 SPECI KCLM 261611Z AUTO 00000KT 1 1/4SM BR OVC002 07/05 A3007 RMK AO2 VIS 1/2V5 T00720050=
202401261559 SPECI KCLM 261559Z AUTO 00000KT 3/4SM BR OVC002 07/05 A3007 RMK AO2 T00670050=
202401261553 METAR KCLM 261553Z AUTO 00000KT 2SM BR OVC002 07/05 A3007 RMK AO2 VIS 1 1/4V4 SLP186 T00670050=
202401261549 SPECI KCLM 261549Z AUTO 00000KT 2SM BR OVC001 07/05 A3007 RMK AO2 VIS 1V4=
202401261529 SPECI KCLM 261529Z AUTO 00000KT 10SM BKN001 OVC090 07/04 A3008 RMK AO2 T00670044=
202401261510 SPECI KCLM 261510Z AUTO 00000KT 3SM BR FEW001 OVC090 07/05 A3008 RMK AO2 T00670050=
202401261506 SPECI KCLM 261506Z AUTO 00000KT 2SM BR OVC090 07/05 A3008 RMK AO2 VIS 1V4 T00670050=
202401261453 METAR KCLM 261453Z AUTO 00000KT 6SM BR OVC085 07/05 A3008 RMK AO2 SLP188 T00670050 58009=
202401261406 SPECI KCLM 261406Z AUTO 00000KT 8SM FEW015 OVC090 07/05 A3010 RMK AO2 T00720050=
202401261353 METAR KCLM 261353Z AUTO 00000KT 2 1/2SM HZ FEW004 BKN075 OVC090 07/04 A3009 RMK AO2 VIS 1 1/4V5 SLP193 T00720044=
202401261341 SPECI KCLM 261341Z AUTO 17003KT 6SM BR SCT004 BKN065 OVC085 07/06 A3010 RMK AO2 T00720056=
202401261253 METAR KCLM 261253Z AUTO 00000KT 10SM OVC004 07/04 A3010 RMK AO2 SLP195 T00670044=
202401261232 SPECI KCLM 261232Z AUTO 16004KT 9SM BKN006 07/04 A3011 RMK AO2 CIG 003V008 T00670044=
202401261211 SPECI KCLM 261211Z AUTO 00000KT 10SM FEW003 07/04 A3011 RMK AO2 T00670039=
202401261153 METAR KCLM 261153Z AUTO 00000KT 10SM FEW065 06/04 A3011 RMK AO2 SLP196 70002 T00610039 10072 20044 57003=
202401261129 SPECI KCLM 261129Z AUTO 00000KT 10SM SCT002 07/04 A3011 RMK AO2 T00670044=
202401261053 METAR KCLM 261053Z AUTO 00000KT 10SM OVC003 07/04 A3011 RMK AO2 SLP198 T00670044=
202401261018 SPECI KCLM 261018Z AUTO 19003KT 9SM BKN003 06/04 A3012 RMK AO2 T00610039=
202401261009 SPECI KCLM 261009Z AUTO 00000KT 9SM SCT004 SCT060 06/04 A3012 RMK AO2 T00560039=
202401260953 METAR KCLM 260953Z AUTO 00000KT 8SM FEW060 05/03 A3011 RMK AO2 SLP199 T00500033=
202401260853 METAR KCLM 260853Z AUTO 15003KT 8SM OVC060 06/03 A3012 RMK AO2 SLP199 T00560033 58001=
202401260753 METAR KCLM 260753Z AUTO 00000KT 3SM BR FEW065 05/03 A3013 RMK AO2 SLP204 T00500028 401110039=
202401260701 SPECI KCLM 260701Z AUTO 23006KT 7SM SCT060 06/03 A3013 RMK AO2 T00560033=
202401260653 METAR KCLM 260653Z AUTO 23003KT 2SM BR FEW060 05/03 A3012 RMK AO2 SLP202 T00500033=
202401260645 SPECI KCLM 260645Z AUTO 00000KT 1 3/4SM BR CLR 06/03 A3011 RMK AO2 T00560033=
202401260553 METAR KCLM 260553Z AUTO 12003KT 7SM CLR 05/03 A3012 RMK AO2 SLP201 T00500028 10106 20044 53010=
202401260539 SPECI KCLM 260539Z AUTO 22004KT 9SM CLR 06/04 A3012 RMK AO2 T00560039=
202401260531 SPECI KCLM 260531Z AUTO 22003KT 2SM HZ CLR 06/03 A3011 RMK AO2 T00610033=
202401260518 SPECI KCLM 260518Z AUTO 00000KT 4SM BR CLR 05/03 A3011 RMK AO2 T00500033=
202401260505 SPECI KCLM 260505Z AUTO 00000KT 1SM BR CLR 05/03 A3011 RMK AO2 VIS 3/4V2 T00500028=
202401260453 METAR KCLM 260453Z AUTO 00000KT 3/4SM BR CLR 05/03 A3011 RMK AO2 VIS 1/2V1 3/4 SLP198 T00500033=
202401260445 SPECI KCLM 260445Z AUTO 00000KT 1SM BR CLR 06/03 A3011 RMK AO2 VIS 1/2V3 T00560033=
202401260423 SPECI KCLM 260423Z AUTO 20003KT 3/4SM BR FEW001 FEW060 06/03 A3010 RMK AO2 T00560033=
202401260408 SPECI KCLM 260408Z AUTO 00000KT 1SM BR FEW001 BKN060 06/04 A3009 RMK AO2 T00560039=
202401260400 SPECI KCLM 260400Z AUTO 00000KT 1/2SM FG BKN060 06/04 A3009 RMK AO2 T00610039=
202401260353 METAR KCLM 260353Z AUTO 00000KT 1SM BR BKN060 06/04 A3009 RMK AO2 SLP191 T00610039=
202401260350 SPECI KCLM 260350Z AUTO 00000KT 1 1/2SM BR BKN060 06/04 A3009 RMK AO2=
202401260341 SPECI KCLM 260341Z AUTO 19003KT 3SM BR FEW045 BKN060 07/04 A3009 RMK AO2 T00670044=
202401260317 SPECI KCLM 260317Z AUTO 00000KT 1 3/4SM BR FEW031 SCT055 BKN065 06/04 A3009 RMK AO2 T00610044=
202401260314 SPECI KCLM 260314Z AUTO VRB03KT 3SM BR SCT055 BKN070 06/04 A3009 RMK AO2 T00610039=
202401260303 SPECI KCLM 260303Z AUTO 13003KT 1 3/4SM BR OVC060 07/04 A3009 RMK AO2 VIS 1 1/4V4 T00670044=
202401260253 METAR KCLM 260253Z AUTO 00000KT 7SM BKN065 07/05 A3009 RMK AO2 SLP190 T00720050 51013=
202401260153 METAR KCLM 260153Z AUTO 17003KT 10SM BKN048 BKN055 BKN070 08/06 A3008 RMK AO2 SLP186 T00830056=
202401260053 METAR KCLM 260053Z AUTO 00000KT 10SM OVC060 10/07 A3006 RMK AO2 SLP181 T01000067=
202401252353 METAR KCLM 252353Z AUTO 09003KT 10SM OVC060 11/07 A3005 RMK AO2 RAB25E49 SLP176 P0000 60000 T01060067 10111 20094 53014=
202401252253 METAR KCLM 252253Z AUTO 00000KT 10SM OVC065 11/07 A3003 RMK AO2 SLP171 T01060067=
202401252221 SPECI KCLM 252221Z AUTO 00000KT 10SM FEW008 SCT070 OVC090 11/07 A3002 RMK AO2 T01060067=
202401252153 METAR KCLM 252153Z AUTO 34003KT 10SM FEW050 SCT070 BKN085 11/07 A3002 RMK AO2 SLP165 T01060067=
202401252053 METAR KCLM 252053Z AUTO VRB03KT 10SM FEW007 OVC070 11/07 A3001 RMK AO2 RAB24E34 SLP162 P0000 60000 T01060072 51014=
202401252027 SPECI KCLM 252027Z AUTO 00000KT 10SM -RA SCT004 BKN055 OVC075 11/07 A3000 RMK AO2 RAB24 P0000 T01060072=
202401252015 SPECI KCLM 252015Z AUTO 00000KT 10SM BKN004 BKN065 BKN110 10/07 A3000 RMK AO2 T01000072=
202401251953 METAR KCLM 251953Z AUTO 00000KT 10SM FEW004 SCT065 BKN110 11/07 A3000 RMK AO2 RAE00 SLP159 P0000 T01060072=
202401251925 SPECI KCLM 251925Z AUTO VRB03KT 10SM SCT004 BKN075 OVC110 11/07 A3000 RMK AO2 RAE00 P0000 T01060072=
202401251853 METAR KCLM 251853Z AUTO 03003KT 10SM -RA FEW055 BKN070 OVC095 11/07 A2999 RMK AO2 RAB44 SLP156 P0000 T01060067=
202401251753 METAR KCLM 251753Z AUTO 00000KT 10SM BKN070 OVC085 09/07 A2997 RMK AO2 SLP148 60002 T00890067 10094 20039 53023=
202401251653 METAR KCLM 251653Z AUTO 00000KT 10SM FEW100 06/04 A2994 RMK AO2 RAB20E29 SLP139 P0000 T00560039=
202401251626 SPECI KCLM 251626Z AUTO 00000KT 7SM -RA FEW042 FEW070 OVC095 05/03 A2993 RMK AO2 RAB20 P0000 T00500028=
202401251605 SPECI KCLM 251605Z AUTO 00000KT 2 1/2SM BR FEW001 SCT095 04/02 A2992 RMK AO2 VIS 1 1/2V4 T00440022=
202401251553 METAR KCLM 251553Z AUTO 00000KT 1SM BR SCT001 SCT065 05/03 A2991 RMK AO2 SLP132 T00500028=
202401251541 SPECI KCLM 251541Z AUTO 00000KT 3/4SM BR SCT001 SCT065 04/02 A2991 RMK AO2 T00440022=
202401251529 SPECI KCLM 251529Z AUTO 00000KT 3/4SM BR VV001 06/03 A2991 RMK AO2 VIS 1/2V2 1/2 T00560033=
202401251521 SPECI KCLM 251521Z AUTO 00000KT 1/2SM FG VV002 05/03 A2991 RMK AO2 T00500033=
202401251514 SPECI KCLM 251514Z AUTO 00000KT 1/2SM FG SCT007 BKN070 06/04 A2991 RMK AO2 T00560039=
202401251505 SPECI KCLM 251505Z AUTO 00000KT 1 1/2SM BR FEW014 SCT075 BKN100 04/03 A2990 RMK AO2 T00440028=
202401251453 METAR KCLM 251453Z AUTO 00000KT 6SM BR FEW006 BKN065 OVC095 05/03 A2990 RMK AO2 RAE21B36E39 SLP126 P0000 60002 T00500028 53011=
202401251430 SPECI KCLM 251430Z AUTO 00000KT 9SM SCT005 BKN055 BKN065 06/04 A2989 RMK AO2 RAE21 P0000 T00610044=
202401251353 METAR KCLM 251353Z AUTO 17003KT 6SM -RA BR OVC050 06/04 A2989 RMK AO2 RAE02B22 SLP122 P0002 T00610039=
202401251253 METAR KCLM 251253Z AUTO 00000KT 7SM -RA SCT050 SCT070 BKN110 06/03 A2987 RMK AO2 RAE19B49 SLP115 P0000 T00560033=
202401251250 SPECI KCLM 251250Z AUTO 00000KT 7SM -RA SCT055 SCT070 BKN110 05/03 A2987 RMK AO2 RAE19B49 P0000=
202401251238 SPECI KCLM 251238Z AUTO 18003KT 2 1/2SM BR FEW009 SCT110 05/03 A2986 RMK AO2 RAE19 P0000 T00500028=
202401251153 METAR KCLM 251153Z AUTO 00000KT 10SM -RA SCT045 BKN060 OVC085 06/04 A2985 RMK AO2 RAB46 SLP109 P0000 60000 70006 T00560039 10078 20050 51013=
202401251128 SPECI KCLM 251128Z AUTO 00000KT 10SM FEW007 BKN090 06/04 A2985 RMK AO2 T00610039=
202401251053 METAR KCLM 251053Z AUTO 00000KT 10SM SCT095 BKN110 06/03 A2984 RMK AO2 SLP106 T00560033=
202401250953 METAR KCLM 250953Z AUTO 00000KT 9SM FEW070 OVC080 06/03 A2983 RMK AO2 SLP101 T00560033=
202401250853 METAR KCLM 250853Z AUTO 21003KT 10SM SCT090 06/03 A2981 RMK AO2 SLP096 60000 T00560033 53011=
202401250753 METAR KCLM 250753Z AUTO 26003KT 10SM BKN070 07/03 A2980 RMK AO2 RAB0659E13 SLP093 P0000 T00670033 401280056=
202401250653 METAR KCLM 250653Z AUTO 00000KT 10SM SCT060 OVC085 07/04 A2979 RMK AO2 SLP088 T00720044=
202401250553 METAR KCLM 250553Z AUTO 18003KT 10SM FEW004 FEW010 BKN080 07/05 A2978 RMK AO2 SLP086 60001 T00720050 10106 20067 53009=
202401250530 SPECI KCLM 250530Z AUTO 00000KT 10SM SCT004 OVC080 07/05 A2977 RMK AO2 T00720050=
202401250453 METAR KCLM 250453Z AUTO 24004KT 10SM CLR 07/04 A2975 RMK AO2 SLP077 T00670044=
202401250353 METAR KCLM 250353Z AUTO VRB05KT 10SM CLR 09/06 A2975 RMK AO2 RAE11 SLP075 P0000 T00890056=
202401250324 SPECI KCLM 250324Z AUTO 00000KT 10SM FEW003 SCT055 08/06 A2975 RMK AO2 RAE11 P0000 T00830061=
202401250253 METAR KCLM 250253Z AUTO 08004KT 10SM -RA BKN065 OVC090 07/05 A2975 RMK AO2 RAB48 SLP077 P0000 60001 T00720050 53016=
202401250225 SPECI KCLM 250225Z AUTO 21007KT 4SM BR FEW065 07/05 A2973 RMK AO2 T00720050=
202401250215 SPECI KCLM 250215Z AUTO 13004KT 2SM BR FEW049 SCT060 07/05 A2972 RMK AO2 T00720050=
202401250200 SPECI KCLM 250200Z AUTO 21003KT 3SM BR FEW001 FEW037 BKN060 08/06 A2972 RMK AO2 T00780056=
202401250153 METAR KCLM 250153Z AUTO 00000KT 2 1/2SM BR FEW028 SCT060 08/06 A2972 RMK AO2 SLP065 T00780056=
202401250144 SPECI KCLM 250144Z AUTO 3SM BR FEW019 BKN060 08/06 A2971 RMK AO2 T00830061=
202401250118 SPECI KCLM 250118Z AUTO 00000KT 1 1/2SM BR FEW008 BKN060 08/07 A2971 RMK AO2 T00830067=
202401250053 METAR KCLM 250053Z AUTO 00000KT 3/4SM BR FEW042 BKN050 09/07 A2970 RMK AO2 RAE25 SLP059 P0001 T00940072=
202401250050 SPECI KCLM 250050Z AUTO 00000KT 1SM BR BKN047 09/07 A2970 RMK AO2 RAE25 P0001=
202401250049 SPECI KCLM 250049Z AUTO 23003KT 3/4SM BR BKN047 BKN060 09/07 A2971 RMK AO2 RAE25 P0001=
202401250042 SPECI KCLM 250042Z AUTO 00000KT 2 1/2SM BR SCT045 BKN055 09/07 A2971 RMK AO2 VIS 1 1/2V5 RAE25 P0001 T00940072=
202401242353 METAR KCLM 242353Z AUTO VRB05KT 10SM -RA FEW005 BKN055 OVC070 11/08 A2970 RMK AO2 SLP058 P0002 60003 T01060078 10128 20083 52013=
202401242253 METAR KCLM 242253Z AUTO 35003KT 6SM -RA OVC050 11/07 A2969 RMK AO2 RAB13 SLP054 P0001 T01060072=
202401242153 METAR KCLM 242153Z AUTO 34004KT 10SM FEW025 FEW050 SCT065 11/06 A2967 RMK AO2 SLP049 T01060061=
202401242053 METAR KCLM 242053Z AUTO VRB04KT 10SM FEW050 SCT060 12/07 A2966 RMK AO2 SLP045 60000 T01220072 53002=
202401241953 METAR KCLM 241953Z AUTO 00000KT 10SM SCT007 SCT021 11/07 A2966 RMK AO2 RAB18E33 SLP043 P0000 T01060067=
202401241909 SPECI KCLM 241909Z AUTO 13005KT 10SM BKN007 09/06 A2966 RMK AO2 T00940061=
202401241853 METAR KCLM 241853Z AUTO 25003KT 10SM SCT006 09/07 A2966 RMK AO2 RAE16 SLP044 P0000 T00940067=
202401241850 SPECI KCLM 241850Z AUTO 00000KT 10SM SCT006 09/07 A2966 RMK AO2 RAE16 P0000=
202401241753 METAR KCLM 241753Z AUTO 32004KT 10SM -RA FEW046 BKN075 BKN090 08/06 A2963 RMK AO2 SLP034 P0002 60002 T00830056 10083 20056 53003=
202401241653 METAR KCLM 241653Z AUTO 25006KT 10SM -RA FEW060 BKN075 OVC090 07/04 A2960 RMK AO2 RAB51 SLP025 P0000 T00670044=
202401241553 METAR KCLM 241553Z AUTO 15005KT 10SM FEW008 FEW120 06/04 A2959 RMK AO2 RAE15 SLP022 P0000 T00610039=
202401241353 METAR KCLM 241353Z AUTO 00000KT 10SM BKN008 BKN120 07/04 A2963 RMK AO2 SLP033 T00670044=
202401241324 SPECI KCLM 241324Z AUTO 23004KT 10SM BKN009 OVC090 07/04 A2965 RMK AO2 T00670044=
202401241312 SPECI KCLM 241312Z AUTO 22004KT 10SM BKN010 BKN065 07/04 A2966 RMK AO2 T00670044=
202401241253 METAR KCLM 241253Z AUTO 00000KT 10SM FEW010 BKN065 07/04 A2967 RMK AO2 RAE00 SLP047 P0000 T00670044=
202401241231 SPECI KCLM 241231Z AUTO 20003KT 10SM SCT010 BKN070 BKN120 07/05 A2969 RMK AO2 RAE00 P0000 T00670050=
202401241153 METAR KCLM 241153Z AUTO 00000KT 8SM -RA OVC010 08/05 A2972 RMK AO2 RAB48 SLP064 P0000 60000 70001 T00780050 10078 20061 58026=
202401241053 METAR KCLM 241053Z AUTO 00000KT 10SM SCT008 OVC012 07/05 A2975 RMK AO2 SLP076 T00720050=
202401240953 METAR KCLM 240953Z AUTO 00000KT 10SM OVC006 07/05 A2977 RMK AO2 SLP083 T00720050=
202401240943 SPECI KCLM 240943Z AUTO 24003KT 10SM BKN006 OVC012 07/05 A2978 RMK AO2 T00720050=
202401240922 SPECI KCLM 240922Z AUTO 25004KT 9SM FEW001 OVC012 07/04 A2978 RMK AO2 T00720044=
202401240853 METAR KCLM 240853Z AUTO 00000KT 8SM OVC014 07/05 A2980 RMK AO2 SLP090 T00720050 58022=
202401240753 METAR KCLM 240753Z AUTO 00000KT 6SM HZ BKN011 OVC016 07/04 A2982 RMK AO2 SLP097 T00720044 401170044=
202401240659 SPECI KCLM 240659Z AUTO 00000KT 3SM BR BKN011 07/04 A2984 RMK AO2 T00670044=
202401240653 METAR KCLM 240653Z AUTO 00000KT 1 1/4SM BR BKN011 06/04 A2984 RMK AO2 SLP107 T00610039=
202401240649 SPECI KCLM 240649Z AUTO 00000KT 1SM BR FEW001 BKN011 06/04 A2985 RMK AO2=
202401240628 SPECI KCLM 240628Z AUTO 00000KT 1/2SM FG SCT001 SCT013 07/05 A2985 RMK AO2 T00720050=
202401240618 SPECI KCLM 240618Z AUTO 00000KT 1 1/2SM BR FEW001 SCT013 07/05 A2985 RMK AO2 T00670050=
202401240612 SPECI KCLM 240612Z AUTO 17003KT 1SM HZ FEW001 BKN014 07/04 A2986 RMK AO2 T00720044=
202401240608 SPECI KCLM 240608Z AUTO 00000KT 1/2SM FG FEW001 SCT014 07/04 A2986 RMK AO2 T00670044=
202401240559 SPECI KCLM 240559Z AUTO 00000KT 1 1/2SM BR FEW001 FEW014 07/05 A2986 RMK AO2 T00670050=
202401240553 METAR KCLM 240553Z AUTO 21003KT 6SM BR SCT014 08/06 A2986 RMK AO2 SLP113 T00780056 10106 20078 57015=
202401240536 SPECI KCLM 240536Z AUTO 21003KT 7SM SCT024 08/06 A2987 RMK AO2 T00830056=
202401240504 SPECI KCLM 240504Z AUTO 21004KT 10SM FEW013 OVC025 09/07 A2988 RMK AO2 T00890067=
202401240453 METAR KCLM 240453Z AUTO 21003KT 10SM SCT007 BKN013 OVC025 09/07 A2989 RMK AO2 SLP122 T00890067=
202401240407 SPECI KCLM 240407Z AUTO 24003KT 3SM BR BKN009 OVC014 09/07 A2989 RMK AO2 T00890067=
202401240353 METAR KCLM 240353Z AUTO 15003KT 3SM HZ FEW007 OVC013 09/06 A2988 RMK AO2 SLP121 T00890061=
202401240337 SPECI KCLM 240337Z AUTO 00000KT 4SM BR OVC011 09/07 A2989 RMK AO2 T00890067=
202401240323 SPECI KCLM 240323Z AUTO 00000KT 2SM BR OVC010 09/07 A2990 RMK AO2 T00890067=
202401240302 SPECI KCLM 240302Z AUTO 00000KT 9SM OVC013 09/07 A2991 RMK AO2 T00940067=
202401240253 METAR KCLM 240253Z AUTO 00000KT 10SM OVC015 09/07 A2991 RMK AO2 SLP129 T00890067 50000=
202401240153 METAR KCLM 240153Z AUTO 00000KT 10SM BKN016 OVC026 09/07 A2991 RMK AO2 SLP128 T00940067=
202401240053 METAR KCLM 240053Z AUTO 27003KT 10SM BKN016 OVC031 10/07 A2991 RMK AO2 SLP128 T01000067=
202401240050 SPECI KCLM 240050Z AUTO 26003KT 10SM OVC016 10/07 A2991 RMK AO2=
202401232353 METAR KCLM 232353Z AUTO 00000KT 10SM BKN012 BKN018 OVC026 11/07 A2990 RMK AO2 SLP126 T01060072 10117 20100 53004=
202401232328 SPECI KCLM 232328Z AUTO 27005KT 10SM SCT013 BKN021 OVC026 10/07 A2990 RMK AO2 T01000072=
202401232302 SPECI KCLM 232302Z AUTO 27006KT 10SM SCT004 OVC012 10/07 A2990 RMK AO2 T01000072=
202401232253 METAR KCLM 232253Z AUTO 29005KT 10SM BKN004 OVC012 10/07 A2990 RMK AO2 SLP124 T01000072=
202401232245 SPECI KCLM 232245Z AUTO 29005KT 10SM BKN004 OVC012 10/07 A2989 RMK AO2 T01000072=
202401232220 SPECI KCLM 232220Z AUTO 29005KT 10SM BKN005 OVC012 10/08 A2989 RMK AO2 T01000078=
202401232203 SPECI KCLM 232203Z AUTO 30005KT 6SM BR BKN004 OVC022 10/08 A2989 RMK AO2 T01000078=
202401232153 METAR KCLM 232153Z AUTO 29004KT 4SM HZ OVC005 11/08 A2989 RMK AO2 SLP121 T01060078=
202401232053 METAR KCLM 232053Z AUTO 32004KT 7SM BKN007 OVC014 11/08 A2989 RMK AO2 SLP121 T01060078 51012=
202401232035 SPECI KCLM 232035Z AUTO 31005KT 10SM BKN009 OVC014 11/08 A2990 RMK AO2 T01110078=
202401231953 METAR KCLM 231953Z AUTO 00000KT 10SM OVC011 11/07 A2988 RMK AO2 CIG 010V014 SLP120 T01060072=
202401231944 SPECI KCLM 231944Z AUTO 00000KT 10SM BKN011 BKN019 OVC030 11/07 A2989 RMK AO2 T01060072=
202401231853 METAR KCLM 231853Z AUTO 00000KT 10SM OVC027 11/07 A2989 RMK AO2 SLP122 T01110072=
202401231821 SPECI KCLM 231821Z AUTO 00000KT 10SM BKN026 BKN031 BKN060 11/07 A2987 RMK AO2 T01110072=
202401231753 METAR KCLM 231753Z AUTO 00000KT 10SM BKN065 10/08 A2985 RMK AO2 SLP109 60001 T01000078 10100 20044 51015=
202401231708 SPECI KCLM 231708Z AUTO 21003KT 3SM BR FEW065 05/03 A2984 RMK AO2 T00500033=
202401231653 METAR KCLM 231653Z AUTO 00000KT 1SM BR FEW055 06/04 A2983 RMK AO2 VIS 1/2V3 SLP103 T00610039=
202401231651 SPECI KCLM 231651Z AUTO 00000KT 1 1/2SM BR FEW001 FEW055 06/04 A2983 RMK AO2 VIS 1/2V5=
202401231644 SPECI KCLM 231644Z AUTO 00000KT 3SM HZ FEW001 SCT055 06/03 A2983 RMK AO2 T00610033=
202401231640 SPECI KCLM 231640Z AUTO 00000KT 1 1/2SM BR FEW001 SCT055 06/03 A2983 RMK AO2 T00560033=
202401231619 SPECI KCLM 231619Z AUTO 16004KT 1/2SM FG FEW006 SCT060 05/03 A2982 RMK AO2 T00500033=
202401231612 SPECI KCLM 231612Z AUTO 14003KT 1 1/2SM BR SCT060 05/03 A2981 RMK AO2 T00500028=
202401231553 METAR KCLM 231553Z AUTO 00000KT 8SM OVC060 07/04 A2981 RMK AO2 SLP095 T00670044=
202401231526 SPECI KCLM 231526Z AUTO 00000KT 3SM BR SCT060 BKN080 05/03 A2980 RMK AO2 T00500033=
202401231453 METAR KCLM 231453Z AUTO 00000KT 1SM HZ FEW043 BKN060 BKN100 07/04 A2979 RMK AO2 SLP089 60001 T00670039 51011=
202401231435 SPECI KCLM 231435Z AUTO 00000KT 1 3/4SM BR FEW001 SCT060 BKN110 07/04 A2979 RMK AO2 VIS 1V5 T00670044=
202401231353 METAR KCLM 231353Z AUTO 00000KT 10SM FEW065 BKN090 OVC110 07/04 A2978 RMK AO2 RAE29 SLP087 P0000 T00670044=
202401231253 METAR KCLM 231253Z AUTO 00000KT 10SM -RA OVC065 07/05 A2977 RMK AO2 RAB22 SLP081 P0001 T00720050=
202401231153 METAR KCLM 231153Z AUTO 00000KT 9SM FEW090 06/04 A2976 RMK AO2 SLP077 60002 70006 T00610039 10083 20056 53007=
202401231053 METAR KCLM 231053Z AUTO 00000KT 6SM BR FEW001 SCT085 BKN110 07/04 A2974 RMK AO2 SLP073 T00670044=
202401230953 METAR KCLM 230953Z AUTO 00000KT 9SM OVC060 07/05 A2974 RMK AO2 SLP070 T00720050=
202401230853 METAR KCLM 230853Z AUTO 00000KT 9SM BKN060 OVC085 07/05 A2973 RMK AO2 RAE39 SLP066 P0001 60002 T00720050 51010=
202401230753 METAR KCLM 230753Z AUTO 23005KT 10SM -RA OVC060 08/06 A2972 RMK AO2 RAE05B44 SLP066 P0000 T00780056 401000056=
202401230653 METAR KCLM 230653Z AUTO 22003KT 5SM -RA BR BKN060 OVC085 08/06 A2971 RMK AO2 RAB32 SLP060 P0001 T00780056=
202401230632 SPECI KCLM 230632Z AUTO 15003KT 7SM -RA SCT020 BKN065 OVC075 07/05 A2971 RMK AO2 RAB32 P0000 T00720050=
202401230620 SPECI KCLM 230620Z AUTO 00000KT 8SM BKN020 OVC090 07/05 A2970 RMK AO2 T00720050=
202401230553 METAR KCLM 230553Z AUTO 00000KT 8SM OVC080 07/05 A2969 RMK AO2 SLP057 T00720050 10100 20067 51017=
202401230507 SPECI KCLM 230507Z AUTO 00000KT 8SM SCT022 BKN100 OVC120 07/05 A2968 RMK AO2 T00720050=
202401230453 METAR KCLM 230453Z AUTO 00000KT 8SM BKN022 BKN095 08/06 A2968 RMK AO2 SLP052 T00780056=
202401230353 METAR KCLM 230353Z AUTO 23003KT 5SM BR OVC020 08/06 A2967 RMK AO2 SLP047 T00780056=
202401230315 SPECI KCLM 230315Z AUTO 00000KT 3SM HZ FEW016 BKN022 BKN110 08/05 A2965 RMK AO2 T00780050=
202401230310 SPECI KCLM 230310Z AUTO 00000KT 1 3/4SM BR FEW016 BKN022 OVC110 07/05 A2965 RMK AO2 T00720050=
202401230303 SPECI KCLM 230303Z AUTO 00000KT 1 1/2SM BR FEW016 BKN046 OVC110 07/04 A2965 RMK AO2 T00670044=
202401230253 METAR KCLM 230253Z AUTO 00000KT 2 1/2SM BR FEW039 BKN055 BKN110 07/05 A2964 RMK AO2 SLP040 T00670050 51016=
202401230250 SPECI KCLM 230250Z AUTO 00000KT 2 1/2SM BR FEW045 BKN060 07/05 A2964 RMK AO2=
202401230233 SPECI KCLM 230233Z AUTO 00000KT 1/2SM FG FEW030 SCT045 OVC060 08/06 A2964 RMK AO2 T00780056=
202401230225 SPECI KCLM 230225Z AUTO 00000KT 1SM BR FEW018 SCT045 OVC060 08/06 A2964 RMK AO2 T00780056=
202401230211 SPECI KCLM 230211Z AUTO 00000KT 3/4SM BR SCT018 BKN046 OVC060 08/06 A2963 RMK AO2 T00830061=
202401230153 METAR KCLM 230153Z AUTO 00000KT 1 1/4SM BR BKN018 OVC060 08/06 A2962 RMK AO2 SLP033 T00830061=
202401230150 SPECI KCLM 230150Z AUTO 00000KT 1SM BR BKN018 OVC055 09/07 A2962 RMK AO2=
202401230143 SPECI KCLM 230143Z AUTO 00000KT 2SM BR BKN017 OVC060 08/06 A2962 RMK AO2 T00830061=
202401230053 METAR KCLM 230053Z AUTO 00000KT 5SM BR SCT017 BKN060 09/07 A2960 RMK AO2 SLP024 T00940072=
202401230033 SPECI KCLM 230033Z AUTO 00000KT 10SM SCT018 BKN065 10/07 A2959 RMK AO2 T01000072=
202401230019 SPECI KCLM 230019Z AUTO 00000KT 10SM SCT005 BKN019 BKN065 10/07 A2959 RMK AO2 T01000067=
202401230008 SPECI KCLM 230008Z AUTO 00000KT 10SM BKN005 BKN019 OVC065 10/07 A2958 RMK AO2 T01000067=
202401222353 METAR KCLM 222353Z AUTO 00000KT 10SM OVC004 10/07 A2958 RMK AO2 SLP016 60001 T01000072 10100 20083 53025=
202401222340 SPECI KCLM 222340Z AUTO 00000KT 10SM OVC004 10/07 A2957 RMK AO2 T01000072=
202401222253 METAR KCLM 222253Z AUTO 00000KT 10SM OVC005 09/07 A2955 RMK AO2 SLP007 T00940067=
202401222204 SPECI KCLM 222204Z AUTO 00000KT 10SM OVC005 09/07 A2952 RMK AO2 T00940072=
202401222153 METAR KCLM 222153Z AUTO 00000KT 10SM OVC004 09/07 A2952 RMK AO2 SLP997 T00940072=
202401222126 SPECI KCLM 222126Z AUTO 32003KT 10SM OVC004 09/07 A2951 RMK AO2 T00940067=
202401222053 METAR KCLM 222053Z AUTO 30004KT 10SM OVC005 09/07 A2950 RMK AO2 RAE26 SLP991 P0001 60001 T00940067 51016=
202401222022 SPECI KCLM 222022Z AUTO 29005KT 10SM -RA OVC004 09/07 A2950 RMK AO2 P0001 T00940067=
202401221953 METAR KCLM 221953Z AUTO 26006KT 10SM -RA OVC006 09/07 A2949 RMK AO2 RAB41 SLP988 P0000 T00890067=
202401221853 METAR KCLM 221853Z AUTO 25005KT 10SM OVC005 08/06 A2948 RMK AO2 SLP983 T00830056=
202401221753 METAR KCLM 221753Z AUTO 26004KT 10SM OVC008 08/06 A2945 RMK AO2 CIG 006V010 SLP975 60003 T00830056 10083 20056 53020=
202401221714 SPECI KCLM 221714Z AUTO 26004KT 10SM OVC009 08/05 A2943 RMK AO2 T00780050=
202401221653 METAR KCLM 221653Z AUTO 00000KT 10SM FEW006 BKN010 OVC110 07/05 A2942 RMK AO2 SLP965 T00720050=
202401221649 SPECI KCLM 221649Z AUTO 24003KT 10SM FEW006 BKN010 OVC110 07/05 A2942 RMK AO2=
202401221553 METAR KCLM 221553Z AUTO 24005KT 10SM BKN006 07/04 A2939 RMK AO2 SLP955 T00720044=
202401221509 SPECI KCLM 221509Z AUTO 00000KT 10SM BKN006 OVC014 07/05 A2939 RMK AO2 T00720050=
202401221500 SPECI KCLM 221500Z AUTO 00000KT 10SM SCT007 OVC014 07/04 A2939 RMK AO2 T00670044=
202401221453 METAR KCLM 221453Z AUTO 00000KT 10SM OVC014 07/04 A2939 RMK AO2 SLP953 60003 T00670044 58002=
202401221437 SPECI KCLM 221437Z AUTO 23005KT 10SM FEW003 OVC014 07/04 A2939 RMK AO2 T00670044=
202401221426 SPECI KCLM 221426Z AUTO 22005KT 10SM FEW003 OVC015 06/04 A2939 RMK AO2 T00610039=
202401221353 METAR KCLM 221353Z AUTO 21004KT 10SM OVC007 06/04 A2939 RMK AO2 RAE27 SLP955 P0003 T00610039=
202401221336 SPECI KCLM 221336Z AUTO 00000KT 10SM BKN007 BKN060 OVC090 06/04 A2939 RMK AO2 RAE27 P0003 T00610039=
202401221253 METAR KCLM 221253Z AUTO 00000KT 10SM -RA FEW003 BKN070 OVC090 06/04 A2940 RMK AO2 RAE11B53 SLP956 P0000 T00610039=
202401221235 SPECI KCLM 221235Z AUTO 00000KT 8SM FEW001 BKN080 OVC095 06/04 A2940 RMK AO2 RAE11 P0000 T00610039=
202401221153 METAR KCLM 221153Z AUTO 00000KT 10SM -RA OVC065 06/04 A2939 RMK AO2 RAB1057 SLP955 P0000 60001 70008 T00610039 10072 20050 58001=
202401221053 METAR KCLM 221053Z AUTO 19003KT 9SM FEW009 SCT025 OVC065 07/04 A2940 RMK AO2 RAE23B40E53 SLP957 P0000 T00670044=
202401221036 SPECI KCLM 221036Z AUTO 14003KT 7SM SCT017 BKN065 OVC080 06/04 A2941 RMK AO2 RAE23 P0000 T00610039=
202401221026 SPECI KCLM 221026Z AUTO 00000KT 10SM BKN018 BKN060 OVC080 07/04 A2940 RMK AO2 RAE23 P0000 T00670039=
202401220953 METAR KCLM 220953Z AUTO 00000KT 10SM -RA SCT007 OVC065 07/04 A2940 RMK AO2 RAB15 SLP956 P0001 T00670044=
202401220853 METAR KCLM 220853Z AUTO 20004KT 10SM OVC070 06/04 A2940 RMK AO2 RAB32E51 SLP959 P0000 60000 T00610039 56012=
202401220753 METAR KCLM 220753Z AUTO 00000KT 9SM BKN110 06/04 A2941 RMK AO2 SLP961 T00610039 401000044=
202401220653 METAR KCLM 220653Z AUTO 00000KT 3SM BR FEW002 05/03 A2943 RMK AO2 SLP967 T00500033=
202401220636 SPECI KCLM 220636Z AUTO 00000KT 3SM BR SCT002 SCT090 06/04 A2943 RMK AO2 T00610039=
202401220633 SPECI KCLM 220633Z AUTO 00000KT 1 1/2SM HZ SCT002 SCT090 06/03 A2943 RMK AO2 VIS 1/2V5 T00610033=
202401220622 SPECI KCLM 220622Z AUTO 24003KT 3/4SM HZ SCT002 SCT070 BKN090 06/03 A2943 RMK AO2 T00610033=
202401220614 SPECI KCLM 220614Z AUTO 00000KT 1SM BR FEW001 SCT075 BKN090 06/03 A2943 RMK AO2 VIS 3/4V4 T00560033=
202401220607 SPECI KCLM 220607Z AUTO 00000KT 2SM BR FEW001 SCT075 BKN090 06/04 A2943 RMK AO2 VIS 3/4V4 T00610039=
202401220553 METAR KCLM 220553Z AUTO 23003KT 3SM BR FEW001 BKN080 OVC095 06/04 A2944 RMK AO2 RAE04 SLP971 P0000 60006 T00610044 10083 20061 55001=
202401220539 SPECI KCLM 220539Z AUTO 00000KT 1 3/4SM BR FEW065 OVC100 07/04 A2944 RMK AO2 RAE04 P0000 T00670044=
202401220513 SPECI KCLM 220513Z AUTO 00000KT 5SM BR SCT006 BKN065 OVC110 07/05 A2944 RMK AO2 RAE04 P0000 T00720050=
202401220453 METAR KCLM 220453Z AUTO 00000KT 6SM -RA BR BKN006 OVC070 08/06 A2944 RMK AO2 RAE21B38 SLP970 P0001 T00780056=
202401220446 SPECI KCLM 220446Z AUTO 00000KT 6SM -RA BR BKN005 BKN070 OVC090 08/06 A2944 RMK AO2 RAE21B38 P0001 T00780056=
202401220437 SPECI KCLM 220437Z AUTO 15004KT 5SM BR SCT004 BKN075 OVC120 07/06 A2944 RMK AO2 RAE21 P0001 T00720056=
202401220353 METAR KCLM 220353Z AUTO 00000KT 8SM -RA SCT055 OVC075 08/06 A2944 RMK AO2 RAE03B17 SLP970 P0004 T00780056=
202401220316 SPECI KCLM 220316Z AUTO 21005KT 9SM SCT004 BKN060 BKN095 07/05 A2944 RMK AO2 RAE03 P0000 T00720050=
202401220253 METAR KCLM 220253Z AUTO 00000KT 6SM -RA BR OVC004 07/05 A2944 RMK AO2 RAB32 SLP972 P0001 60001 T00720050 50001=
202401220153 METAR KCLM 220153Z AUTO 00000KT 9SM OVC004 08/06 A2945 RMK AO2 SLP973 T00780056=
202401220116 SPECI KCLM 220116Z AUTO 00000KT 6SM HZ BKN003 08/06 A2944 RMK AO2 T00830056=
202401220103 SPECI KCLM 220103Z AUTO 30003KT 10SM FEW003 08/06 A2944 RMK AO2 T00830061=
202401220053 METAR KCLM 220053Z AUTO 00000KT 10SM FEW034 FEW120 08/06 A2944 RMK AO2 RAB2356E38 SLP970 P0000 T00830061=
202401212353 METAR KCLM 212353Z AUTO 00000KT 10SM FEW060 SCT070 09/07 A2944 RMK AO2 RAB2258E22 SLP971 P0001 60001 T00940067 10100 20067 53001=
202401212253 METAR KCLM 212253Z AUTO 25005KT 10SM SCT007 SCT070 BKN085 09/06 A2944 RMK AO2 RAB17E35 SLP969 P0000 T00940061=
202401212153 METAR KCLM 212153Z AUTO 20005KT 10SM OVC006 09/06 A2943 RMK AO2 SLP967 T00890061=
202401212053 METAR KCLM 212053Z AUTO 28005KT 10SM BKN007 OVC010 08/06 A2944 RMK AO2 RAB26E47 CIG 005V008 SLP970 P0000 60000 T00830056 58005=
202401212007 SPECI KCLM 212007Z AUTO 34004KT 10SM BKN006 BKN110 08/05 A2944 RMK AO2 T00830050=
202401211953 METAR KCLM 211953Z AUTO 32003KT 10SM SCT006 SCT095 BKN110 09/06 A2944 RMK AO2 SLP970 T00890056=
202401211945 SPECI KCLM 211945Z AUTO 00000KT 10SM SCT006 BKN100 08/06 A2944 RMK AO2 T00830056=
202401211929 SPECI KCLM 211929Z AUTO 26006KT 10SM BKN006 OVC065 08/05 A2945 RMK AO2 T00780050=
202401211921 SPECI KCLM 211921Z AUTO 28003KT 10SM SCT006 OVC065 08/05 A2945 RMK AO2 T00780050=
202401211853 METAR KCLM 211853Z AUTO 00000KT 10SM BKN060 08/04 A2946 RMK AO2 SLP977 T00780044=
202401211753 METAR KCLM 211753Z AUTO 00000KT 10SM FEW006 FEW060 07/04 A2945 RMK AO2 SLP975 60000 T00720044 10072 20044 50006=
202401211745 SPECI KCLM 211745Z AUTO 00000KT 10SM SCT006 07/04 A2945 RMK AO2 T00670044=
202401211653 METAR KCLM 211653Z AUTO 00000KT 9SM OVC009 06/03 A2945 RMK AO2 SLP975 T00560028=
202401211614 SPECI KCLM 211614Z AUTO 20003KT 10SM SCT004 OVC008 05/03 A2945 RMK AO2 CIG 007V010 T00500028=
202401211602 SPECI KCLM 211602Z AUTO 00000KT 10SM OVC004 05/03 A2945 RMK AO2 T00500028=
202401211553 METAR KCLM 211553Z AUTO 19003KT 10SM OVC005 05/03 A2945 RMK AO2 SLP972 T00500028=
202401211453 METAR KCLM 211453Z AUTO 22004KT 10SM OVC006 06/03 A2943 RMK AO2 RAE1359 SLP969 P0000 60000 T00560028 58003 $=
202401211433 SPECI KCLM 211433Z AUTO 22003KT 10SM BKN006 OVC060 05/02 A2944 RMK AO2 RAE1359 P0000 T00500022 $=
202401211421 SPECI KCLM 211421Z AUTO 23004KT 10SM SCT007 BKN060 OVC080 05/02 A2944 RMK AO2 RAE1359 P0000 T00500022 $=
202401211353 METAR KCLM 211353Z AUTO 22006KT 10SM -RA FEW011 BKN060 BKN075 05/02 A2944 RMK AO2 RAB50 SLP971 P0000 T00500022 $=
202401211343 SPECI KCLM 211343Z AUTO 22003KT 10SM FEW011 BKN065 BKN100 04/02 A2944 RMK AO2 T00440022 $=
202401211328 SPECI KCLM 211328Z AUTO 26003KT 10SM SCT007 BKN010 OVC100 05/02 A2944 RMK AO2 T00500022 $=
202401211253 METAR KCLM 211253Z AUTO 23004KT 10SM OVC006 05/03 A2944 RMK AO2 SLP972 T00500028 $=
202401211224 SPECI KCLM 211224Z AUTO 00000KT 10SM BKN007 OVC013 05/03 A2944 RMK AO2 T00500028 $=
202401211217 SPECI KCLM 211217Z AUTO 00000KT 10SM SCT008 OVC012 05/03 A2944 RMK AO2 T00500028 $=
202401211153 METAR KCLM 211153Z AUTO 22005KT 10SM OVC011 05/02 A2944 RMK AO2 SLP972 60000 T00500022 10061 20050 58006 $=
202401211053 METAR KCLM 211053Z AUTO 25003KT 10SM OVC005 06/03 A2945 RMK AO2 RAE0957 SLP976 P0000 T00560028 $=
202401211042 SPECI KCLM 211042Z AUTO 22004KT 10SM OVC004 06/03 A2946 RMK AO2 RAE0957 P0000 T00560028 $=
202401210953 METAR KCLM 210953Z AUTO 24005KT 10SM -RA OVC005 06/02 A2945 RMK AO2 RAB47 SLP976 P0000 T00560022 $=
202401210905 SPECI KCLM 210905Z AUTO 23005KT 10SM OVC005 06/02 A2946 RMK AO2 T00560022 $=
202401210853 METAR KCLM 210853Z AUTO 26004KT 10SM OVC004 06/02 A2946 RMK AO2 SLP978 T00560022 58005 $=
202401210753 METAR KCLM 210753Z AUTO 23005KT 10SM OVC006 05/02 A2947 RMK AO2 SLP980 T00500022 400720022 $=
202401210653 METAR KCLM 210653Z AUTO 23003KT 9SM OVC008 05/02 A2947 RMK AO2 SLP981 T00500022 $=
202401210553 METAR KCLM 210553Z AUTO 00000KT 10SM OVC009 05/03 A2948 RMK AO2 SLP983 60000 T00500028 10072 20050 53002 $=
202401210529 SPECI KCLM 210529Z AUTO 00000KT 10SM OVC009 05/03 A2947 RMK AO2 T00500028 $=
202401210453 METAR KCLM 210453Z AUTO 00000KT 10SM OVC012 05/03 A2947 RMK AO2 SLP982 T00500028 $=
202401210439 SPECI KCLM 210439Z AUTO 00000KT 10SM OVC014 05/03 A2947 RMK AO2 T00500028 $=
202401210353 METAR KCLM 210353Z AUTO 15003KT 10SM BKN015 OVC090 06/03 A2947 RMK AO2 RAB21E40 SLP981 P0000 T00560028 $=
202401210253 METAR KCLM 210253Z AUTO 00000KT 10SM OVC013 06/03 A2947 RMK AO2 SLP981 T00610028 56010 $=
202401210153 METAR KCLM 210153Z AUTO 11003KT 10SM OVC012 07/03 A2948 RMK AO2 SLP983 T00670028 $=
202401210053 METAR KCLM 210053Z AUTO 13003KT 10SM OVC011 07/03 A2949 RMK AO2 SLP987 T00670028 $=
202401202353 METAR KCLM 202353Z AUTO 13003KT 10SM OVC014 07/03 A2950 RMK AO2 SLP991 T00720033 10072 20061 56017 $=
202401202253 METAR KCLM 202253Z AUTO 13005KT 10SM OVC013 07/03 A2951 RMK AO2 SLP996 T00670033 $=
202401202237 SPECI KCLM 202237Z AUTO 10004KT 10SM OVC014 07/03 A2952 RMK AO2 T00720033 $=
202401202212 SPECI KCLM 202212Z AUTO 13004KT 10SM SCT010 OVC016 07/03 A2952 RMK AO2 T00720033 $=
202401202153 METAR KCLM 202153Z AUTO 10004KT 10SM OVC011 07/03 A2953 RMK AO2 SLP001 T00670033 $=
202401202053 METAR KCLM 202053Z AUTO 11005KT 10SM OVC013 07/03 A2955 RMK AO2 SLP008 T00670033 58021 $=
202401202012 SPECI KCLM 202012Z AUTO 10005KT 10SM OVC013 07/03 A2957 RMK AO2 T00670033 $=
202401202001 SPECI KCLM 202001Z AUTO 12007KT 10SM OVC015 07/03 A2957 RMK AO2 T00720033 $=
202401201953 METAR KCLM 201953Z AUTO 11006KT 10SM OVC013 07/03 A2958 RMK AO2 SLP017 T00720033 $=
202401201853 METAR KCLM 201853Z AUTO 12003KT 10SM OVC010 07/03 A2960 RMK AO2 SLP025 T00670033 $=
202401201843 SPECI KCLM 201843Z AUTO 12003KT 10SM OVC010 07/03 A2960 RMK AO2 T00670033 $=
202401201753 METAR KCLM 201753Z AUTO 00000KT 10SM OVC008 06/03 A2962 RMK AO2 SLP030 T00610033 10061 20039 58005 $=
202401201653 METAR KCLM 201653Z AUTO 15003KT 8SM OVC008 04/02 A2963 RMK AO2 SLP034 T00440022 $=
202401201607 SPECI KCLM 201607Z AUTO 00000KT 8SM OVC009 04/02 A2963 RMK AO2 T00440022 $=
202401201553 METAR KCLM 201553Z AUTO 00000KT 9SM OVC010 04/02 A2963 RMK AO2 SLP035 T00440017 $=
202401201549 SPECI KCLM 201549Z AUTO 00000KT 8SM OVC010 04/02 A2963 RMK AO2 $=
202401201453 METAR KCLM 201453Z AUTO 12003KT 9SM OVC008 04/02 A2963 RMK AO2 SLP034 T00440017 56025 $=
202401201353 METAR KCLM 201353Z AUTO 00000KT 10SM OVC008 04/02 A2965 RMK AO2 SLP042 T00390017 $=
202401201253 METAR KCLM 201253Z AUTO 00000KT 9SM OVC007 04/02 A2968 RMK AO2 SLP051 T00440022 $=
202401201153 METAR KCLM 201153Z AUTO 00000KT 9SM OVC007 03/02 A2970 RMK AO2 SLP059 T00330017 10039 20022 58013 $=
202401201053 METAR KCLM 201053Z AUTO 15003KT 5SM BR BKN007 OVC011 03/01 A2972 RMK AO2 CIG 007V011 SLP065 T00280011 $=
202401201006 SPECI KCLM 201006Z AUTO 14003KT 5SM BR BKN008 03/01 A2973 RMK AO2 T00280006 $=
202401200953 METAR KCLM 200953Z AUTO 12004KT 5SM BR FEW008 03/01 A2972 RMK AO2 SLP066 T00280006 $=
202401200935 SPECI KCLM 200935Z AUTO 13003KT 3SM HZ SCT007 03/00 A2973 RMK AO2 T00280000 $=
202401200853 METAR KCLM 200853Z AUTO 00000KT 8SM BKN007 OVC110 04/02 A2974 RMK AO2 SLP072 T00390017 56015 $=
202401200848 SPECI KCLM 200848Z AUTO 11003KT 8SM BKN007 OVC110 03/01 A2974 RMK AO2 $=
202401200826 SPECI KCLM 200826Z AUTO 14004KT 5SM BR SCT009 OVC110 03/02 A2976 RMK AO2 T00330017 $=
202401200800 SPECI KCLM 200800Z AUTO 12004KT 9SM OVC009 04/02 A2976 RMK AO2 T00390022 $=
202401200753 METAR KCLM 200753Z AUTO 12003KT 7SM OVC010 04/02 A2976 RMK AO2 SLP080 T00390017 400670022 $=
202401200653 METAR KCLM 200653Z AUTO 00000KT 8SM OVC006 04/02 A2978 RMK AO2 SLP087 T00390022 $=
202401200553 METAR KCLM 200553Z AUTO 00000KT 5SM BR BKN009 03/01 A2979 RMK AO2 CIG 006V011 SLP089 T00330011 10067 20028 56012 $=
202401200453 METAR KCLM 200453Z AUTO 00000KT 8SM OVC010 03/01 A2980 RMK AO2 SLP094 T00330011 $=
202401200422 SPECI KCLM 200422Z AUTO 23004KT 6SM BR BKN012 03/01 A2981 RMK AO2 T00280006 $=
202401200415 SPECI KCLM 200415Z AUTO 21003KT 9SM SCT012 03/01 A2981 RMK AO2 T00330011 $=
202401200353 METAR KCLM 200353Z AUTO 24003KT 5SM BR BKN012 03/01 A2981 RMK AO2 SLP096 T00280006 $=
202401200253 METAR KCLM 200253Z AUTO 00000KT 8SM OVC010 03/01 A2982 RMK AO2 SLP102 T00330011 57014 $=
202401200235 SPECI KCLM 200235Z AUTO 00000KT 9SM BKN010 OVC015 03/01 A2983 RMK AO2 T00330011 $=
202401200153 METAR KCLM 200153Z AUTO 00000KT 8SM BKN016 OVC070 04/02 A2983 RMK AO2 SLP105 T00390017=
202401200143 SPECI KCLM 200143Z AUTO 22003KT 10SM FEW010 OVC016 04/02 A2984 RMK AO2 T00390017=
202401200053 METAR KCLM 200053Z AUTO 00000KT 10SM OVC012 05/02 A2985 RMK AO2 SLP111 T00500022=
202401200034 SPECI KCLM 200034Z AUTO 00000KT 10SM BKN014 05/02 A2985 RMK AO2 T00500022=
202401192353 METAR KCLM 192353Z AUTO 00000KT 10SM FEW012 SCT022 BKN060 07/02 A2986 RMK AO2 SLP115 60000 T00670022 10067 20039 56015=
202401192326 SPECI KCLM 192326Z AUTO 00000KT 10SM SCT013 OVC021 07/03 A2987 RMK AO2 T00670028=
202401192253 METAR KCLM 192253Z AUTO 11003KT 10SM BKN012 OVC022 07/02 A2987 RMK AO2 RAB27E41 SLP118 P0000 T00670022=
202401192214 SPECI KCLM 192214Z AUTO 00000KT 10SM BKN013 OVC021 07/03 A2988 RMK AO2 T00670028=
202401192153 METAR KCLM 192153Z AUTO 23003KT 10SM OVC015 06/03 A2988 RMK AO2 RAB19E32 SLP120 P0000 T00610028=
202401192132 SPECI KCLM 192132Z AUTO 00000KT 10SM OVC015 06/02 A2989 RMK AO2 RAB19E32 P0000 T00610022=
202401192107 SPECI KCLM 192107Z AUTO 00000KT 10SM OVC013 06/03 A2990 RMK AO2 T00610028=
202401192053 METAR KCLM 192053Z AUTO 00000KT 10SM OVC015 06/02 A2991 RMK AO2 SLP129 T00560022 58010=
202401192006 SPECI KCLM 192006Z AUTO 00000KT 10SM OVC015 04/02 A2992 RMK AO2 T00440022=
202401191953 METAR KCLM 191953Z AUTO 00000KT 6SM BR OVC012 04/02 A2992 RMK AO2 SLP134 T00440022=
202401191919 SPECI KCLM 191919Z AUTO 00000KT 5SM BR OVC010 04/02 A2993 RMK AO2 T00440022=
202401191853 METAR KCLM 191853Z AUTO 14004KT 10SM OVC009 04/02 A2993 RMK AO2 SLP139 T00390017=
202401191818 SPECI KCLM 191818Z AUTO 10003KT 10SM OVC009 04/01 A2993 RMK AO2 T00390011=
202401191753 METAR KCLM 191753Z AUTO 11004KT 10SM OVC010 04/01 A2994 RMK AO2 SLP140 60000 T00390011 10039 20022 56005=
202401191653 METAR KCLM 191653Z AUTO 12004KT 10SM OVC011 04/01 A2994 RMK AO2 SLP141 T00390011=
202401191600 SPECI KCLM 191600Z AUTO 13005KT 10SM OVC013 03/01 A2994 RMK AO2 T00330006=
202401191553 METAR KCLM 191553Z AUTO 11005KT 10SM OVC015 03/01 A2994 RMK AO2 SLP141 T00330006=
202401191453 METAR KCLM 191453Z AUTO 12004KT 5SM BR OVC019 03/01 A2995 RMK AO2 RAE07 SLP145 P0000 60000 T00280006 56009=
202401191417 SPECI KCLM 191417Z AUTO 00000KT 4SM HZ SCT012 OVC017 03/00 A2996 RMK AO2 RAE07 P0000 T00280000=
202401191414 SPECI KCLM 191414Z AUTO 00000KT 2SM HZ SCT013 OVC019 03/01 A2996 RMK AO2 RAE07 P0000 T00330006=
202401191353 METAR KCLM 191353Z AUTO 00000KT 9SM -RA OVC010 03/01 A2996 RMK AO2 RAB16E35B51UPB17E20 SLP147 P0000 T00280011=
202401191253 METAR KCLM 191253Z AUTO 00000KT 5SM BR OVC011 03/01 A2997 RMK AO2 SLP151 T00280006=
202401191201 SPECI KCLM 191201Z AUTO 00000KT 4SM BR OVC010 02/01 A2998 RMK AO2 T00220006=
202401191153 METAR KCLM 191153Z AUTO 14003KT 2 1/2SM BR OVC010 03/01 A2998 RMK AO2 RAE11 SLP155 P0000 60000 70015 T00280006 10039 20028 58009=
202401191053 METAR KCLM 191053Z AUTO 22004KT 10SM -RA OVC012 03/01 A3001 RMK AO2 RAB16 SLP164 P0000 T00330011=
202401190953 METAR KCLM 190953Z AUTO 23005KT 10SM BKN013 BKN020 BKN095 03/01 A3000 RMK AO2 RAE19 SLP161 P0000 T00330011=
202401190925 SPECI KCLM 190925Z AUTO 24005KT 10SM FEW011 BKN020 OVC095 03/01 A3001 RMK AO2 RAE19 P0000 T00330006=
202401190853 METAR KCLM 190853Z AUTO 00000KT 10SM -RA SCT014 SCT070 OVC090 03/01 A3001 RMK AO2 RAB11 SLP164 P0000 60000 T00330011 58000=
202401190753 METAR KCLM 190753Z AUTO 23005KT 10SM OVC010 03/01 A3001 RMK AO2 RAE23UPB30E48 SLP164 P0000 T00330006 400330022=
202401190736 SPECI KCLM 190736Z AUTO 23006KT 10SM UP OVC010 03/01 A3001 RMK AO2 RAE23UPB30 P0000 T00280006=
202401190653 METAR KCLM 190653Z AUTO 23006KT 10SM -RA OVC009 03/00 A3001 RMK AO2 UPB0557E0559B24E25 SLP164 P0000 T00280000=
202401190606 SPECI KCLM 190606Z AUTO 00000KT 10SM -RA OVC010 03/01 A3001 RMK AO2 UPB0557E0559 P0000 T00280006=
202401190553 METAR KCLM 190553Z AUTO 22003KT 10SM -RA OVC009 03/01 A3001 RMK AO2 SLP164 P0001 60001 T00280006 10028 20022 58016=
202401190453 METAR KCLM 190453Z AUTO 21004KT 9SM -RA OVC007 03/01 A3003 RMK AO2 RAB41 SLP172 P0000 T00280006=
202401190353 METAR KCLM 190353Z AUTO 22004KT 10SM OVC005 02/01 A3004 RMK AO2 SLP176 T00220006=
202401190253 METAR KCLM 190253Z AUTO 00000KT 10SM OVC005 03/01 A3006 RMK AO2 SLP180 60000 T00280006 58014=
202401190240 SPECI KCLM 190240Z AUTO 23004KT 9SM OVC005 03/00 A3006 RMK AO2 T00280000=
202401190214 SPECI KCLM 190214Z AUTO 00000KT 3SM BR OVC003 03/01 A3007 RMK AO2 T00280006=
202401190153 METAR KCLM 190153Z AUTO 21003KT 1SM BR OVC003 02/00 A3008 RMK AO2 SLP188 T00220000=
202401190141 SPECI KCLM 190141Z AUTO 00000KT 1 1/2SM BR OVC003 03/01 A3008 RMK AO2 T00280006=
202401190053 METAR KCLM 190053Z AUTO 14004KT 2 1/2SM BR OVC004 03/01 A3009 RMK AO2 RAE05UPB05E16 SLP191 P0000 T00280006=
202401190007 SPECI KCLM 190007Z AUTO 13005KT 2 1/2SM UP BR OVC004 03/01 A3009 RMK AO2 RAE05UPB05 P0000 T00280006=
202401182353 METAR KCLM 182353Z AUTO 11003KT 3SM -RA BR OVC005 03/01 A3010 RMK AO2 SLP195 P0001 60005 T00280006 10028 20022 56008=
202401182342 SPECI KCLM 182342Z AUTO 14004KT 4SM -RA BR OVC005 03/01 A3010 RMK AO2 P0001 T00280006=
202401182253 METAR KCLM 182253Z AUTO 13005KT 4SM -RA OVC004 03/00 A3010 RMK AO2 RAB14 SLP197 P0001 T00280000=
202401182153 METAR KCLM 182153Z AUTO 12006KT 10SM OVC004 03/00 A3011 RMK AO2 SLP199 T00280000=
202401182131 SPECI KCLM 182131Z AUTO 11006KT 10SM OVC004 03/00 A3011 RMK AO2 T00280000=
202401182053 METAR KCLM 182053Z AUTO 12007KT 10SM BKN006 OVC010 03/00 A3012 RMK AO2 RAE06UPB06E33 SLP203 P0000 60003 T00280000 58007=
202401181953 METAR KCLM 181953Z AUTO 11004KT 4SM -RA BR OVC008 02/00 A3013 RMK AO2 UPB11E20B35E53RAB53SNE11B20E35 CIG 005V011 SLP207 P0001 T00220000=
202401181948 SPECI KCLM 181948Z AUTO 11005KT 4SM UP BR OVC008 02/00 A3013 RMK AO2 UPB11E20B35SNE11B20E35 P0001=
202401181937 SPECI KCLM 181937Z AUTO 11006KT 2 1/2SM UP BKN006 BKN011 OVC024 02/M01 A3013 RMK AO2 UPB11E20B35SNE11B20E35 P0001 T00221006=
202401181928 SPECI KCLM 181928Z AUTO 11007KT 1 3/4SM -SN SCT004 BKN009 OVC024 02/M01 A3014 RMK AO2 UPB11E20SNE11B20 P0001 T00221006=
202401181914 SPECI KCLM 181914Z AUTO 11008KT 2SM UP BKN004 OVC012 02/M01 A3014 RMK AO2 UPB11SNE11 P0001 T00221006=
202401181853 METAR KCLM 181853Z AUTO 10008KT 1 1/2SM -SN OVC004 02/M01 A3014 RMK AO2 SLP209 P0002 T00221006=
202401181828 SPECI KCLM 181828Z AUTO 11006KT 2SM -SN OVC004 02/M01 A3014 RMK AO2 P0002 T00221006=
202401181813 SPECI KCLM 181813Z AUTO 11005KT 1 3/4SM -SN OVC004 02/M01 A3013 RMK AO2 P0001 T00221006=
202401181806 SPECI KCLM 181806Z AUTO 11005KT 2SM -SN OVC004 02/M01 A3013 RMK AO2 P0001 T00221006=
202401181753 METAR KCLM 181753Z AUTO 11006KT 3SM -SN OVC006 02/M01 A3012 RMK AO2 RAE1657SNB1657 SLP204 P0003 60009 T00221006 10028 20022 53010=
202401181737 SPECI KCLM 181737Z AUTO 10006KT 3SM -SN BKN008 OVC011 02/M01 A3012 RMK AO2 RAE1657SNB1657 P0003 T00221006=
202401181728 SPECI KCLM 181728Z AUTO 10007KT 2 1/2SM -SN BKN008 OVC012 02/M01 A3012 RMK AO2 RAE1657SNB1657 P0002 T00221006=
202401181718 SPECI KCLM 181718Z AUTO 09006KT 1 1/2SM -SN SCT006 BKN010 OVC014 02/M01 A3011 RMK AO2 RAE1657SNB1657 P0002 T00221006=
202401181706 SPECI KCLM 181706Z AUTO 11006KT 1 3/4SM -SN BKN010 OVC014 02/M01 A3012 RMK AO2 RAE1657SNB1657 P0001 T00221006=
202401181653 METAR KCLM 181653Z AUTO 11006KT 3SM -RA BR OVC014 02/00 A3011 RMK AO2 SLP200 P0004 T00220000=
202401181553 METAR KCLM 181553Z AUTO 11006KT 3SM -RA BR OVC010 03/01 A3009 RMK AO2 RAB17 SLP194 P0002 T00280006=
202401181551 SPECI KCLM 181551Z AUTO 11006KT 3SM -RA BR OVC010 03/01 A3009 RMK AO2 RAB17 P0001=
202401181502 SPECI KCLM 181502Z AUTO 10004KT 5SM HZ BKN008 OVC014 03/00 A3007 RMK AO2 T00280000=
202401181453 METAR KCLM 181453Z AUTO 09003KT 9SM BKN010 OVC016 03/00 A3007 RMK AO2 CIG 008V014 SLP185 60000 T00280000 53005=
202401181404 SPECI KCLM 181404Z AUTO 14004KT 10SM FEW008 BKN013 OVC026 03/00 A3006 RMK AO2 T00280000=
202401181353 METAR KCLM 181353Z AUTO 13005KT 10SM BKN008 BKN013 OVC027 03/00 A3006 RMK AO2 RAE09 SLP181 P0000 T00280000=
202401181335 SPECI KCLM 181335Z AUTO 12005KT 10SM OVC008 02/00 A3006 RMK AO2 RAE09 P0000 T00220000=
202401181253 METAR KCLM 181253Z AUTO 00000KT 8SM -RA BKN014 BKN019 OVC024 02/00 A3006 RMK AO2 RAB52 SLP181 P0000 T00220000=
202401181233 SPECI KCLM 181233Z AUTO 14003KT 10SM SCT012 OVC019 02/00 A3005 RMK AO2 T00220000=
202401181210 SPECI KCLM 181210Z AUTO 13005KT 10SM BKN014 BKN019 OVC030 03/00 A3004 RMK AO2 T00280000=
202401181153 METAR KCLM 181153Z AUTO 12005KT 10SM BKN015 OVC030 02/00 A3005 RMK AO2 UPB00E13RAB35E48 SLP180 P0000 60000 70022 T00220000 10033 20022 53001=
202401181053 METAR KCLM 181053Z AUTO 12005KT 10SM OVC024 02/00 A3005 RMK AO2 RAE28 SLP178 P0000 T00220000=
202401181034 SPECI KCLM 181034Z AUTO 00000KT 5SM BR FEW010 OVC025 02/00 A3005 RMK AO2 RAE28 P0000 T00220000=
202401181005 SPECI KCLM 181005Z AUTO 00000KT 9SM -RA OVC011 02/00 A3005 RMK AO2 CIG 006V014 P0000 T00220000=
202401180953 METAR KCLM 180953Z AUTO 22004KT 10SM -RA OVC009 03/00 A3005 RMK AO2 RAB22E44B53UPB44E53 CIG 006V012 SLP180 P0000 T00280000=
202401180948 SPECI KCLM 180948Z AUTO 22004KT 10SM UP BKN009 OVC015 03/00 A3005 RMK AO2 RAB22E44UPB44 CIG 006V012 P0000=
202401180853 METAR KCLM 180853Z AUTO 22003KT 8SM BKN012 OVC028 02/00 A3004 RMK AO2 SLP177 T00220000 51031=
202401180836 SPECI KCLM 180836Z AUTO 21003KT 7SM OVC011 02/00 A3004 RMK AO2 T00220000=
202401180825 SPECI KCLM 180825Z AUTO 00000KT 3SM BR BKN009 OVC014 03/01 A3003 RMK AO2 T00280006=
202401180817 SPECI KCLM 180817Z AUTO 00000KT 4SM BR OVC012 02/00 A3003 RMK AO2 T00220000=
202401180753 METAR KCLM 180753Z AUTO 13004KT 6SM BR OVC009 02/00 A3002 RMK AO2 SLP168 T00220000 400500017=
202401180653 METAR KCLM 180653Z AUTO 00000KT 5SM BR OVC009 02/00 A2999 RMK AO2 SLP160 T00220000=
202401180553 METAR KCLM 180553Z AUTO 14003KT 10SM OVC009 02/00 A2995 RMK AO2 RAB0458E13 SLP145 P0000 60002 T00220000 10028 20022 51040=
202401180453 METAR KCLM 180453Z AUTO 00000KT 5SM HZ OVC009 03/00 A2992 RMK AO2 RAE28 SLP135 P0001 T00280000=
202401180353 METAR KCLM 180353Z AUTO 00000KT 5SM -RA BR OVC011 02/00 A2988 RMK AO2 UPE10RAB10E20B43 SLP120 P0000 T00220000=
202401180339 SPECI KCLM 180339Z AUTO 00000KT 5SM BR BKN011 BKN020 OVC025 02/00 A2987 RMK AO2 UPE10RAB10E20 P0000 T00220000=
202401180253 METAR KCLM 180253Z AUTO 10005KT 4SM UP BR SCT009 BKN015 OVC021 02/00 A2983 RMK AO2 UPB01E18B51SNB18E19 SLP104 P0001 60001 T00220000 51042=
202401180235 SPECI KCLM 180235Z AUTO 10007KT 3SM BR SCT007 OVC012 02/00 A2982 RMK AO2 UPB01E18SNB18E19 P0001 T00220000=
202401180218 SPECI KCLM 180218Z AUTO 10006KT 2 1/2SM -SN BR BKN009 BKN012 OVC021 02/00 A2981 RMK AO2 UPB01E18SNB18 CIG 004V012 P0001 T00220000=
202401180214 SPECI KCLM 180214Z AUTO 10007KT 3SM UP BR SCT006 BKN012 OVC021 02/00 A2980 RMK AO2 UPB01 P0001 T00220000=
202401180153 METAR KCLM 180153Z AUTO 11007KT 4SM HZ OVC006 02/M01 A2979 RMK AO2 UPE0057 SLP091 P0000 T00221006=
202401180132 SPECI KCLM 180132Z AUTO 10006KT 4SM BR BKN006 OVC017 02/00 A2978 RMK AO2 UPE0057 PRESRR P0000 T00220000=
202401180115 SPECI KCLM 180115Z AUTO 10006KT 9SM FEW008 OVC016 02/00 A2977 RMK AO2 UPE0057 P0000 T00220000=
202401180053 METAR KCLM 180053Z AUTO 09007KT 6SM UP OVC020 02/M01 A2975 RMK AO2 RAE00UPB20E21B32SNB15E20B21E32 SLP076 P0000 T00221006=
202401180023 SPECI KCLM 180023Z AUTO 10007KT 3SM -SN BR SCT012 OVC017 02/00 A2972 RMK AO2 RAE00UPB20E21SNB15E20B21 P0000 T00220000=
202401180008 SPECI KCLM 180008Z AUTO 10008KT 5SM HZ SCT006 BKN012 OVC017 03/00 A2971 RMK AO2 RAE00 P0000 T00280000=
202401172353 METAR KCLM 172353Z AUTO 09005KT 6SM -RA BKN006 OVC012 03/01 A2970 RMK AO2 RAB2254 CIG 004V009 SLP061 P0002 60007 T00330006 10050 20017 53054=
202401172253 METAR KCLM 172253Z AUTO 10004KT 10SM OVC006 04/01 A2966 RMK AO2 SLP045 T00440011=
202401172246 SPECI KCLM 172246Z AUTO VRB05KT 10SM BKN006 OVC010 04/02 A2965 RMK AO2 CIG 005V009 T00440017=
202401172208 SPECI KCLM 172208Z AUTO 00000KT 10SM BKN014 OVC040 04/01 A2961 RMK AO2 PRESRR T00390011=
202401172153 METAR KCLM 172153Z AUTO 19004KT 10SM FEW014 OVC039 03/01 A2959 RMK AO2 RAB19E41 PRESRR SLP022 P0000 T00330006=
202401172053 METAR KCLM 172053Z AUTO 00000KT 10SM BKN039 OVC050 03/01 A2954 RMK AO2 SLP007 60005 T00330011 51026=
202401171953 METAR KCLM 171953Z AUTO 22005KT 10SM SCT026 OVC034 02/M01 A2952 RMK AO2 SNE24 SLP000 P0000 T00221006=
202401171912 SPECI KCLM 171912Z AUTO 24005KT 3SM -SN BR FEW010 OVC025 02/M01 A2951 RMK AO2 P0000 T00171006=
202401171853 METAR KCLM 171853Z AUTO 24005KT 1 1/2SM -SN BR SCT010 OVC016 02/M01 A2951 RMK AO2 SLP995 P0005 T00171006=
202401171846 SPECI KCLM 171846Z AUTO 25006KT 2SM -SN BR FEW006 OVC012 02/M01 A2951 RMK AO2 P0004 T00171006=
202401171840 SPECI KCLM 171840Z AUTO 27006KT 1 1/4SM -SN BR OVC008 02/M01 A2951 RMK AO2 P0004 T00171006=
202401171820 SPECI KCLM 171820Z AUTO 28004KT 1/2SM SN FG VV005 02/M01 A2949 RMK AO2 P0003 T00171006=
202401171753 METAR KCLM 171753Z AUTO 31003KT 1/4SM +SN VV005 02/M01 A2947 RMK AO2 SLP980 P0010 60013 T00171011 10028 20017 51015=
202401171749 SPECI KCLM 171749Z AUTO 00000KT 1/4SM +SN VV005 02/M01 A2946 RMK AO2 P0010=
202401171745 SPECI KCLM 171745Z AUTO 00000KT 1/2SM SN VV004 02/M01 A2946 RMK AO2 P0009 T00171011=
202401171730 SPECI KCLM 171730Z AUTO 21003KT 1/4SM SN FG OVC003 02/00 A2946 RMK AO2 P0007 T00170000=
202401171710 SPECI KCLM 171710Z AUTO 30003KT 3/4SM -SN OVC003 02/M01 A2946 RMK AO2 CIG 002V006 P0002 T00221006=
202401171706 SPECI KCLM 171706Z AUTO 32004KT 1SM -SN BR OVC005 02/00 A2946 RMK AO2 CIG 003V009 P0002 T00220000=
202401171653 METAR KCLM 171653Z AUTO 00000KT 2 1/2SM -SN BKN005 OVC010 02/M01 A2945 RMK AO2 RAE36UPB19E30SNB36 CIG 004V008 SLP977 P0003 T00221006=
202401171648 SPECI KCLM 171648Z AUTO VRB05KT 3SM -SN OVC008 03/M01 A2945 RMK AO2 RAE36UPB19E30SNB36 CIG 005V010 P0002=
202401171553 METAR KCLM 171553Z AUTO 22003KT 8SM -RA OVC010 02/M01 A2942 RMK AO2 RAB01UPB43E47 SLP966 P0000 T00221006=
202401171453 METAR KCLM 171453Z AUTO 00000KT 10SM OVC010 02/M01 A2944 RMK AO2 UPB23E25RAB25E46 SLP971 P0000 60000 T00221006 56031=
202401171353 METAR KCLM 171353Z AUTO 13004KT 10SM OVC011 02/M01 A2946 RMK AO2 RAE02 SLP979 P0000 T00221011=
202401171253 METAR KCLM 171253Z AUTO 12003KT 10SM -RA OVC012 02/M01 A2949 RMK AO2 RAE15B49UPB02E04 SLP989 P0000 T00221011=
202401171153 METAR KCLM 171153Z AUTO 00000KT 10SM -RA OVC012 02/M02 A2953 RMK AO2 UPB45E47RAB47 SLP002 P0000 60004 70004 I6000 T00171017 10022 20017 58025=
202401171117 SPECI KCLM 171117Z AUTO 00000KT 10SM OVC014 02/M02 A2955 RMK AO2 T00171017=
202401171053 METAR KCLM 171053Z AUTO 14004KT 10SM OVC015 02/M02 A2956 RMK AO2 UPB14E18B43E46RAB18E47 SLP013 P0001 T00171017=
202401171037 SPECI KCLM 171037Z AUTO 12004KT 10SM -RA BKN017 BKN034 OVC055 02/M02 A2956 RMK AO2 UPB14E18RAB18 P0001 T00171017=
202401170953 METAR KCLM 170953Z AUTO 11005KT 10SM OVC060 02/M03 A2958 RMK AO2 RAE00B19E53 SLP018 P0000 I1000 T00171028=
202401170853 METAR KCLM 170853Z AUTO 14004KT 10SM -RA SCT060 SCT075 OVC095 02/M03 A2960 RMK AO2 UPB10E23RAB50 SLP027 P0000 60003 T00171033 58023=
202401170753 METAR KCLM 170753Z AUTO 13006KT 10SM FEW050 OVC075 02/M04 A2963 RMK AO2 RAE0656UPB0656E03 SLP037 P0000 T00171044 400281072=
202401170653 METAR KCLM 170653Z AUTO 15004KT 10SM -RA BKN055 OVC070 02/M04 A2965 RMK AO2 UPE0555RAB0555 SLP042 P0003 T00221044=
202401170553 METAR KCLM 170553Z AUTO 12005KT 10SM UP BKN055 OVC080 02/M06 A2967 RMK AO2 UPB0458RAB02E13B41E52 SLP051 P0000 60000 T00221056 10022 20006 58025=
202401170453 METAR KCLM 170453Z AUTO 13005KT 10SM OVC065 02/M06 A2970 RMK AO2 SLP060 T00221061=
202401170353 METAR KCLM 170353Z AUTO 15005KT 10SM OVC100 02/M06 A2973 RMK AO2 SLP070 T00221056=
202401170253 METAR KCLM 170253Z AUTO 13004KT 10SM BKN110 02/M04 A2975 RMK AO2 SLP078 T00171044 56027=
202401170153 METAR KCLM 170153Z AUTO 11003KT 10SM FEW120 01/M04 A2976 RMK AO2 SLP083 T00111044=
202401170053 METAR KCLM 170053Z AUTO 10003KT 10SM CLR 01/M05 A2980 RMK AO2 SLP095 T00111050=
202401162353 METAR KCLM 162353Z AUTO 00000KT 10SM CLR 02/M06 A2983 RMK AO2 SLP105 T00221056 10028 21017 56034=
202401162253 METAR KCLM 162253Z AUTO 12004KT 10SM CLR 03/M06 A2986 RMK AO2 SLP114 T00281056=
202401162153 METAR KCLM 162153Z AUTO 11004KT 10SM CLR 02/M06 A2990 RMK AO2 SLP128 T00221061=
202401162053 METAR KCLM 162053Z AUTO 07003KT 10SM CLR 02/M06 A2993 RMK AO2 SLP140 T00221061 58028=
202401161953 METAR KCLM 161953Z AUTO 08004KT 10SM CLR 02/M04 A2996 RMK AO2 SLP149 T00221044=
202401161853 METAR KCLM 161853Z AUTO 12005KT 10SM CLR 02/M05 A3000 RMK AO2 SLP162 T00171050=
202401161753 METAR KCLM 161753Z AUTO 12003KT 10SM CLR M02/M06 A3002 RMK AO2 SLP168 T10171061 11017 21067 56016=
202401161653 METAR KCLM 161653Z AUTO 00000KT 10SM CLR M03/M07 A3003 RMK AO2 SLP173 T10331067=
202401161553 METAR KCLM 161553Z AUTO 21003KT 10SM CLR M04/M07 A3004 RMK AO2 SLP177 T10441072=
202401161453 METAR KCLM 161453Z AUTO 00000KT 10SM CLR M05/M08 A3006 RMK AO2 SLP185 T10501083 56027=
202401161353 METAR KCLM 161353Z AUTO 15003KT 10SM CLR M06/M09 A3009 RMK AO2 SLP193 T10611094=
202401161253 METAR KCLM 161253Z AUTO 12004KT 10SM CLR M04/M08 A3011 RMK AO2 SLP200 T10391083=
202401161153 METAR KCLM 161153Z AUTO 17003KT 10SM CLR M07/M10 A3015 RMK AO2 SLP212 T10671100 11011 21072 58024=
202401161053 METAR KCLM 161053Z AUTO 12004KT 10SM CLR M06/M09 A3018 RMK AO2 SLP225 T10561089=
202401160953 METAR KCLM 160953Z AUTO 00000KT 10SM CLR M06/M09 A3021 RMK AO2 SLP235 T10561094=
202401160853 METAR KCLM 160853Z AUTO 17003KT 10SM CLR M06/M09 A3022 RMK AO2 SLP236 T10561089 58018=
202401160753 METAR KCLM 160753Z AUTO 14004KT 10SM CLR M03/M08 A3024 RMK AO2 SLP243 T10331078 400221078=
202401160653 METAR KCLM 160653Z AUTO 14003KT 10SM CLR M04/M08 A3025 RMK AO2 SLP249 T10441083=
202401160553 METAR KCLM 160553Z AUTO 12005KT 10SM CLR M01/M08 A3027 RMK AO2 SLP253 T10111078 10011 21033 56015=
202401160453 METAR KCLM 160453Z AUTO 13006KT 10SM CLR M02/M08 A3028 RMK AO2 SLP258 T10221083=
202401160353 METAR KCLM 160353Z AUTO 13003KT 10SM CLR M02/M08 A3030 RMK AO2 SLP266 T10221083=
202401160253 METAR KCLM 160253Z AUTO 12003KT 10SM CLR M02/M08 A3031 RMK AO2 SLP269 T10221078 56007=
202401160153 METAR KCLM 160153Z AUTO 15003KT 10SM CLR M02/M07 A3033 RMK AO2 SLP274 T10171072=
202401160053 METAR KCLM 160053Z AUTO 11005KT 10SM CLR 00/M07 A3031 RMK AO2 SLP269 T00001072=
202401152353 METAR KCLM 152353Z AUTO 10007KT 10SM CLR 01/M07 A3034 RMK AO2 SLP276 T00111067 10022 21006 58021=
202401152253 METAR KCLM 152253Z AUTO 10005KT 10SM CLR 02/M06 A3036 RMK AO2 SLP284 T00171061=
202401152153 METAR KCLM 152153Z AUTO 09005KT 10SM CLR 02/M06 A3038 RMK AO2 SLP292 T00171056=
202401152053 METAR KCLM 152053Z AUTO 10006KT 10SM CLR 02/M05 A3040 RMK AO2 SLP298 T00171050 58003=
202401151953 METAR KCLM 151953Z AUTO 10009KT 10SM CLR 02/M07 A3040 RMK AO2 SLP298 T00171067=
202401151853 METAR KCLM 151853Z AUTO 12007KT 10SM CLR 01/M05 A3041 RMK AO2 SLP301 T00061050=
202401151753 METAR KCLM 151753Z AUTO 13006KT 10SM CLR M01/M06 A3041 RMK AO2 SLP301 I6000 T10061061 11006 21078 53004=
202401151653 METAR KCLM 151653Z AUTO 13004KT 10SM CLR M02/M07 A3038 RMK AO2 SLP293 T10221072=
202401151553 METAR KCLM 151553Z AUTO 00000KT 10SM CLR M08/M11 A3039 RMK AO2 SLP295 T10781111=
202401151453 METAR KCLM 151453Z AUTO 00000KT 10SM CLR M06/M08 A3039 RMK AO2 SLP296 I1000 I3000 T10611083 56001=
202401151353 METAR KCLM 151353Z AUTO 00000KT 10SM FEW021 M06/M09 A3039 RMK AO2 SLP296 T10611089=
202401151253 METAR KCLM 151253Z AUTO 13003KT 10SM CLR M06/M08 A3038 RMK AO2 SLP291 I1000 T10561083=
202401151153 METAR KCLM 151153Z AUTO 16003KT 10SM CLR M07/M09 A3040 RMK AO2 SLP297 I1000 I6000 T10671094 11022 21072 50007=
202401151053 METAR KCLM 151053Z AUTO 00000KT 10SM CLR M06/M09 A3040 RMK AO2 SLP300 I1000 T10611089=
202401150953 METAR KCLM 150953Z AUTO 00000KT 10SM CLR M06/M08 A3037 RMK AO2 SLP289 I1000 T10611083=
202401150853 METAR KCLM 150853Z AUTO 13003KT 10SM CLR M05/M08 A3037 RMK AO2 SLP290 T10501083 51012=
202401150801 SPECI KCLM 150801Z AUTO 00000KT 10SM SCT026 M04/M07 A3036 RMK AO2 T10441072=
202401150753 METAR KCLM 150753Z AUTO 14003KT 10SM BKN026 M04/M07 A3035 RMK AO2 SLP283 T10391072 400111078=
202401150653 METAR KCLM 150653Z AUTO 00000KT 10SM BKN027 M03/M07 A3037 RMK AO2 SLP287 T10331067=
202401150604 SPECI KCLM 150604Z AUTO 14003KT 10SM BKN026 M03/M07 A3035 RMK AO2 T10331067=
202401150553 METAR KCLM 150553Z AUTO 14003KT 10SM SCT026 M04/M07 A3034 RMK AO2 SLP277 T10391072 10006 21039 53005=
202401150503 SPECI KCLM 150503Z AUTO 14004KT 10SM SCT026 M03/M06 A3032 RMK AO2 T10281061=
202401150453 METAR KCLM 150453Z AUTO 13003KT 10SM BKN026 M02/M07 A3032 RMK AO2 SLP271 T10221067=
202401150353 METAR KCLM 150353Z AUTO 00000KT 10SM OVC027 M01/M07 A3032 RMK AO2 SLP273 T10061067=
202401150337 SPECI KCLM 150337Z AUTO 00000KT 10SM BKN026 M01/M07 A3032 RMK AO2 T10061067=
202401150325 SPECI KCLM 150325Z AUTO 00000KT 10SM SCT024 M01/M06 A3032 RMK AO2 T10111061=
202401150316 SPECI KCLM 150316Z AUTO 00000KT 10SM BKN024 M01/M07 A3032 RMK AO2 T10061067=
202401150309 SPECI KCLM 150309Z AUTO 16003KT 10SM SCT024 00/M07 A3032 RMK AO2 T00001067=
202401150253 METAR KCLM 150253Z AUTO 17003KT 10SM BKN028 00/M07 A3032 RMK AO2 SLP272 T00001067 53020=
202401150153 METAR KCLM 150153Z AUTO 15004KT 10SM OVC025 00/M07 A3030 RMK AO2 SLP263 T00001067=
202401150053 METAR KCLM 150053Z AUTO 11004KT 10SM OVC025 00/M07 A3028 RMK AO2 SLP258 T00001067=
202401142353 METAR KCLM 142353Z AUTO 11005KT 10SM BKN027 00/M07 A3026 RMK AO2 SLP252 T00001067 10011 21017 53012=
202401142253 METAR KCLM 142253Z AUTO 11004KT 10SM OVC027 01/M07 A3024 RMK AO2 SLP246 T00111067=
202401142153 METAR KCLM 142153Z AUTO 11007KT 10SM OVC027 01/M07 A3024 RMK AO2 SLP244 T00061067=
202401142053 METAR KCLM 142053Z AUTO 09006KT 10SM OVC027 01/M07 A3023 RMK AO2 SLP240 T00061067 50011=
202401142026 SPECI KCLM 142026Z AUTO 11008KT 10SM OVC029 01/M06 A3023 RMK AO2 T00061061=
202401142004 SPECI KCLM 142004Z AUTO 10008KT 10SM OVC030 01/M06 A3023 RMK AO2 T00061061=
202401141953 METAR KCLM 141953Z AUTO 11008KT 10SM OVC029 01/M06 A3023 RMK AO2 SLP240 T00061061=
202401141853 METAR KCLM 141853Z AUTO 11006KT 10SM OVC028 01/M07 A3022 RMK AO2 SLP239 T00061067=
202401141753 METAR KCLM 141753Z AUTO 14003KT 10SM OVC028 M02/M07 A3020 RMK AO2 SLP229 I6000 T10171067 11017 21078 53024=
202401141653 METAR KCLM 141653Z AUTO 21003KT 10SM OVC027 M04/M08 A3016 RMK AO2 SLP218 T10441083=
202401141631 SPECI KCLM 141631Z AUTO 00000KT 10SM BKN027 M06/M09 A3015 RMK AO2 T10561094=
202401141603 SPECI KCLM 141603Z AUTO 21004KT 10SM SCT024 M06/M10 A3014 RMK AO2 T10561100=
202401141553 METAR KCLM 141553Z AUTO 22005KT 10SM BKN024 M06/M10 A3014 RMK AO2 SLP211 T10611100=
202401141511 SPECI KCLM 141511Z AUTO 22006KT 10SM BKN024 M06/M10 A3013 RMK AO2 T10611100=
202401141453 METAR KCLM 141453Z AUTO 21003KT 10SM CLR M07/M11 A3012 RMK AO2 SLP206 I3000 T10671106 51026=
202401141430 SPECI KCLM 141430Z AUTO 21006KT 10SM SCT025 M06/M11 A3012 RMK AO2 T10611106=
202401141415 SPECI KCLM 141415Z AUTO 22005KT 10SM BKN025 M06/M10 A3012 RMK AO2 T10561100=
202401141353 METAR KCLM 141353Z AUTO 23006KT 10SM FEW024 M06/M11 A3011 RMK AO2 SLP200 I1000 T10611106=
202401141253 METAR KCLM 141253Z AUTO 22005KT 10SM SCT023 M06/M10 A3008 RMK AO2 SLP190 T10611100=
202401141153 METAR KCLM 141153Z AUTO 22003KT 10SM CLR M06/M11 A3005 RMK AO2 SLP179 T10611106 11028 21072 53021=
202401141053 METAR KCLM 141053Z AUTO 20004KT 10SM CLR M06/M11 A3002 RMK AO2 SLP168 T10611106=
202401140953 METAR KCLM 140953Z AUTO 23007KT 10SM CLR M06/M11 A3001 RMK AO2 SLP165 T10561106=
202401140853 METAR KCLM 140853Z AUTO 23006KT 10SM CLR M07/M11 A2998 RMK AO2 SLP158 T10671111 51011=
202401140753 METAR KCLM 140753Z AUTO 22003KT 10SM SCT026 M07/M12 A2997 RMK AO2 SLP155 T10671117 410171072=
202401140748 SPECI KCLM 140748Z AUTO 22004KT 10SM SCT026 M06/M11 A2998 RMK AO2=
202401140653 METAR KCLM 140653Z AUTO 12004KT 10SM BKN024 M03/M11 A2995 RMK AO2 SLP146 T10281106=
202401140632 SPECI KCLM 140632Z AUTO 12005KT 10SM BKN023 M04/M11 A2994 RMK AO2 T10391111=
202401140553 METAR KCLM 140553Z AUTO 14007KT 10SM CLR M04/M12 A2992 RMK AO2 SLP134 T10391117 11033 21050 53008=
202401140453 METAR KCLM 140453Z AUTO 15008KT 10SM CLR M03/M11 A2990 RMK AO2 SLP130 T10331111=
202401140353 METAR KCLM 140353Z AUTO 14008KT 10SM CLR M04/M12 A2990 RMK AO2 SLP127 T10391122=
202401140253 METAR KCLM 140253Z AUTO 14008KT 10SM CLR M04/M13 A2989 RMK AO2 SLP127 T10441128 51017=
202401140153 METAR KCLM 140153Z AUTO 13006KT 10SM CLR M04/M13 A2987 RMK AO2 SLP119 T10441128=
202401140053 METAR KCLM 140053Z AUTO 14007KT 10SM CLR M04/M13 A2987 RMK AO2 SLP119 T10441133=
202401132353 METAR KCLM 132353Z AUTO 12009KT 10SM CLR M03/M12 A2984 RMK AO2 SLP109 T10331122 11017 21044 55006=
202401132253 METAR KCLM 132253Z AUTO 11010KT 10SM FEW024 M03/M13 A2983 RMK AO2 SLP105 T10281133=
202401132153 METAR KCLM 132153Z AUTO 11012KT 10SM CLR M03/M12 A2984 RMK AO2 SLP109 T10331122=
202401132053 METAR KCLM 132053Z AUTO 11014KT 10SM CLR M04/M13 A2986 RMK AO2 SLP116 T10391128 56040=
202401131953 METAR KCLM 131953Z AUTO 10013KT 10SM CLR M04/M15 A2990 RMK AO2 SLP127 T10441150=
202401131853 METAR KCLM 131853Z AUTO 11010KT 10SM CLR M04/M15 A2994 RMK AO2 SLP142 T10441150=
202401131753 METAR KCLM 131753Z AUTO 12011KT 10SM CLR M04/M14 A2998 RMK AO2 SLP155 T10441139 11039 21067 57026=
202401131653 METAR KCLM 131653Z AUTO 12007KT 10SM CLR M06/M14 A3001 RMK AO2 SLP166 T10561144=
202401131553 METAR KCLM 131553Z AUTO 13007KT 10SM CLR M06/M14 A3003 RMK AO2 SLP173 T10561144 $=
202401131453 METAR KCLM 131453Z AUTO 13009KT 10SM FEW023 M06/M14 A3005 RMK AO2 SLP182 T10561139 58033 $=
202401131440 SPECI KCLM 131440Z AUTO 13011KT 10SM FEW023 M06/M14 A3006 RMK AO2 T10561144 $=
202401131353 METAR KCLM 131353Z AUTO 12011KT 10SM OVC022 M04/M14 A3009 RMK AO2 SLP192 T10441139 $=
202401131253 METAR KCLM 131253Z AUTO 12010KT 10SM OVC022 M04/M13 A3012 RMK AO2 SLP204 T10391128 $=
202401131153 METAR KCLM 131153Z AUTO 13008KT 10SM BKN023 M06/M14 A3015 RMK AO2 SLP215 60000 T10561144 11044 21072 58018 $=
202401131139 SPECI KCLM 131139Z AUTO 12007KT 10SM BKN022 M06/M14 A3015 RMK AO2 T10611144 $=
202401131053 METAR KCLM 131053Z AUTO 14008KT 10SM FEW020 M07/M14 A3017 RMK AO2 SLP223 T10671144 $=
202401130953 METAR KCLM 130953Z AUTO 11006KT 10SM CLR M07/M15 A3019 RMK AO2 SLP227 T10721150 $=
202401130853 METAR KCLM 130853Z AUTO 11006KT 10SM CLR M07/M16 A3021 RMK AO2 SLP234 60000 T10721156 58028 $=
202401130823 SPECI KCLM 130823Z AUTO 14008KT 10SM FEW024 M06/M14 A3023 RMK AO2 T10561144 $=
202401130753 METAR KCLM 130753Z AUTO 13007KT 10SM OVC023 M05/M14 A3025 RMK AO2 SLP247 T10501139 410391100 $=
202401130745 SPECI KCLM 130745Z AUTO 13006KT 10SM BKN023 M05/M14 A3025 RMK AO2 T10501139 $=
202401130720 SPECI KCLM 130720Z AUTO 13009KT 10SM SCT029 M05/M14 A3025 RMK AO2 T10501139 $=
202401130653 METAR KCLM 130653Z AUTO 12009KT 10SM OVC027 M04/M13 A3026 RMK AO2 SNB19E28 SLP253 P0000 T10441133 $=
202401130553 METAR KCLM 130553Z AUTO 14006KT 10SM BKN028 M05/M15 A3029 RMK AO2 SLP262 T10501150 11039 21100 58010 $=
202401130453 METAR KCLM 130453Z AUTO 14005KT 10SM CLR M06/M17 A3030 RMK AO2 SLP265 T10561167 $=
202401130353 METAR KCLM 130353Z AUTO 00000KT 10SM CLR M06/M15 A3031 RMK AO2 SLP270 T10561150 $=
202401130253 METAR KCLM 130253Z AUTO 19003KT 10SM CLR M07/M16 A3032 RMK AO2 SLP272 T10721161 58008 $=
202401130153 METAR KCLM 130153Z AUTO 23005KT 10SM CLR M04/M17 A3033 RMK AO2 SLP275 T10441172 $=
202401130053 METAR KCLM 130053Z AUTO 23004KT 10SM CLR M09/M17 A3034 RMK AO2 SLP279 T10941172=
202401122353 METAR KCLM 122353Z AUTO 07003KT 10SM FEW041 M08/M18 A3034 RMK AO2 SLP280 T10831178 11072 21083 50000=
202401122253 METAR KCLM 122253Z AUTO 07008KT 10SM CLR M08/M18 A3035 RMK AO2 SLP282 T10781183=
202401122153 METAR KCLM 122153Z AUTO 08006KT 10SM FEW034 M08/M18 A3034 RMK AO2 SLP280 T10781178=
202401122053 METAR KCLM 122053Z AUTO 08008KT 10SM SCT034 M07/M17 A3034 RMK AO2 SLP280 T10721167 51012=
202401121953 METAR KCLM 121953Z AUTO VRB05G15KT 10SM FEW032 M08/M17 A3034 RMK AO2 SLP278 T10831172=
202401121853 METAR KCLM 121853Z AUTO 10SM OVC040 M08/M16 A3033 RMK AO2 SLP275 T10781161=
202401121753 METAR KCLM 121753Z AUTO 09008KT 10SM OVC036 M08/M16 A3031 RMK AO2 SLP268 T10781161 11067 21078 53022=
202401121653 METAR KCLM 121653Z AUTO 08006KT 10SM BKN036 OVC042 M08/M16 A3028 RMK AO2 SLP259 T10781156=
202401121553 METAR KCLM 121553Z AUTO 04007KT 360V070 10SM OVC038 M08/M17 A3026 RMK AO2 SLP252 T10781167=
202401121453 METAR KCLM 121453Z AUTO 08007G16KT 10SM OVC040 M08/M16 A3024 RMK AO2 SLP245 T10781161 53022=
202401121353 METAR KCLM 121353Z AUTO 07006KT 10SM OVC038 M07/M16 A3021 RMK AO2 SLP237 T10721161=
202401121253 METAR KCLM 121253Z AUTO 04008G18KT 360V090 10SM OVC040 M07/M16 A3020 RMK AO2 SLP229 T10721156=
202401121153 METAR KCLM 121153Z AUTO 04007G15KT 360V090 10SM OVC043 M07/M16 A3017 RMK AO2 SLP221 60000 70016 T10671156 11044 21067 53023=
202401121053 METAR KCLM 121053Z AUTO 05010G19KT 020V100 10SM OVC049 M07/M15 A3015 RMK AO2 SLP213 T10671150=
202401120953 METAR KCLM 120953Z AUTO 10SM OVC047 M06/M14 A3012 RMK AO2 SLP202 T10611144=
202401120853 METAR KCLM 120853Z AUTO 07009G18KT 10SM BKN049 OVC060 M06/M14 A3010 RMK AO2 SLP197 60000 T10611139 51029=
202401120753 METAR KCLM 120753Z AUTO 07008G16KT 10SM FEW035 OVC050 M06/M14 A3009 RMK AO2 SLP191 T10561144 400781056=
202401120653 METAR KCLM 120653Z AUTO 07007KT 10SM OVC043 M06/M13 A3005 RMK AO2 SNE16 SLP180 P0000 T10561133=
202401120602 SPECI KCLM 120602Z AUTO 00000KT 7SM -SN FEW018 SCT024 OVC035 M05/M08 A3002 RMK AO2 P0000 T10501083=
202401120553 METAR KCLM 120553Z AUTO 13008KT 3SM -SN SCT013 BKN028 OVC035 M05/M08 A3002 RMK AO2 SLP168 P0003 60016 T10501078 11011 21050 51023=
202401120549 SPECI KCLM 120549Z AUTO 14006KT 2SM -SN SCT013 BKN018 OVC035 M05/M08 A3002 RMK AO2 P0003=
202401120543 SPECI KCLM 120543Z AUTO 12005KT 1 1/4SM -SN BKN013 BKN018 OVC026 M05/M08 A3002 RMK AO2 P0003 T10501078=
202401120533 SPECI KCLM 120533Z AUTO 08004KT 3/4SM -SN BR SCT008 OVC013 M05/M07 A3001 RMK AO2 P0003 T10501072=
202401120525 SPECI KCLM 120525Z AUTO 10003KT 1SM -SN BR BKN008 OVC013 M05/M07 A3001 RMK AO2 P0001 T10501072=
202401120508 SPECI KCLM 120508Z AUTO 10004KT 3/4SM -SN BKN009 OVC013 M05/M08 A3000 RMK AO2 P0001 T10501078=
202401120453 METAR KCLM 120453Z AUTO 09006KT 1SM -SN BKN009 OVC013 M04/M07 A3000 RMK AO2 SLP162 P0002 T10441072=
202401120400 SPECI KCLM 120400Z AUTO VRB04KT 1/2SM SN VV005 M04/M07 A2998 RMK AO2 P0000 T10441072=
202401120353 METAR KCLM 120353Z AUTO VRB06KT 1/4SM +SN VV004 M04/M07 A2998 RMK AO2 SLP154 P0004 T10441072=
202401120342 SPECI KCLM 120342Z AUTO 06007KT 020V080 1/4SM +SN FZFG VV004 M04/M07 A2997 RMK AO2 P0003 T10441067=
202401120253 METAR KCLM 120253Z AUTO VRB06KT 1/2SM SN VV005 M04/M07 A2995 RMK AO2 SLP145 P0005 60007 T10391067 53025=
202401120220 SPECI KCLM 120220Z AUTO 06006KT 3/4SM -SN SCT005 OVC009 M03/M06 A2993 RMK AO2 P0002 T10331061=
202401120212 SPECI KCLM 120212Z AUTO 05006KT 3/4SM -SN SCT005 OVC011 M03/M06 A2992 RMK AO2 P0001 T10281056=
202401120204 SPECI KCLM 120204Z AUTO VRB06KT 1SM -SN BKN005 BKN011 OVC019 M03/M06 A2992 RMK AO2 P0001 T10281056=
202401120153 METAR KCLM 120153Z AUTO VRB05KT 1SM -SN SCT006 BKN013 OVC027 M03/M06 A2991 RMK AO2 SNB04 SLP132 P0002 T10281056=
202401120149 SPECI KCLM 120149Z AUTO VRB05KT 1SM -SN FEW006 BKN013 OVC027 M02/M06 A2991 RMK AO2 SNB04 P0002=
202401120141 SPECI KCLM 120141Z AUTO VRB06KT 2SM -SN FEW008 BKN021 OVC027 M02/M06 A2990 RMK AO2 SNB04 P0001 T10221056=
202401120137 SPECI KCLM 120137Z AUTO VRB05KT 2 1/2SM -SN BKN012 BKN019 OVC025 M02/M06 A2990 RMK AO2 SNB04 P0000 T10221056=
202401120130 SPECI KCLM 120130Z AUTO VRB05G17KT 3SM -SN FEW007 BKN013 OVC019 M02/M06 A2990 RMK AO2 SNB04 P0000 T10171056=
202401120113 SPECI KCLM 120113Z AUTO VRB04G15KT 7SM -SN BKN013 OVC019 M01/M06 A2989 RMK AO2 SNB04 P0000 T10111056=
202401120053 METAR KCLM 120053Z AUTO 07010G21KT 10SM BKN017 OVC024 M01/M06 A2988 RMK AO2 SLP119 T10111056=
202401120023 SPECI KCLM 120023Z AUTO 06008G18KT 020V100 10SM FEW017 BKN022 OVC055 01/M05 A2985 RMK AO2 PRESRR T00061050=
202401112353 METAR KCLM 112353Z AUTO 27013KT 10SM FEW050 SCT055 OVC075 05/M06 A2981 RMK AO2 PK WND 27029/2321 SLP096 T00501056 10078 20050 53015=
202401112253 METAR KCLM 112253Z AUTO 27014G29KT 10SM BKN060 OVC080 06/M05 A2978 RMK AO2 PK WND 23036/2217 SLP087 T00611050=
202401112153 METAR KCLM 112153Z AUTO 27023G31KT 10SM BKN055 OVC070 07/M04 A2976 RMK AO2 PK WND 29031/2058 SLP080 T00671044=
202401112053 METAR KCLM 112053Z AUTO 28018G24KT 10SM BKN060 07/M05 A2976 RMK AO2 PK WND 30035/2033 SLP081 T00721050 55006=
202401111953 METAR KCLM 111953Z AUTO 27014G34KT 10SM FEW041 FEW049 SCT060 07/M02 A2976 RMK AO2 PK WND 23041/1907 SLP080 T00721022=
202401111853 METAR KCLM 111853Z AUTO 26018G23KT 10SM FEW070 06/M02 A2977 RMK AO2 PK WND 26036/1820 SLP083 T00611017=
202401111753 METAR KCLM 111753Z AUTO 26020G29KT 10SM OVC070 06/M04 A2978 RMK AO2 PK WND 25029/1745 SLP086 T00611039 10061 20044 58008=
202401111653 METAR KCLM 111653Z AUTO 27012KT 10SM BKN070 OVC085 06/M04 A2980 RMK AO2 SLP091 T00611039=
202401111553 METAR KCLM 111553Z AUTO 26014G19KT 10SM OVC085 06/M04 A2980 RMK AO2 SLP094 T00561044=
202401111453 METAR KCLM 111453Z AUTO 26013G20KT 10SM OVC080 05/M04 A2981 RMK AO2 SLP095 T00501044 58007=
202401111353 METAR KCLM 111353Z AUTO 26010KT 10SM FEW040 FEW055 04/M03 A2983 RMK AO2 SLP102 T00441033=
202401111253 METAR KCLM 111253Z AUTO 26010G25KT 10SM FEW070 05/M03 A2984 RMK AO2 SLP105 T00501033=
202401111153 METAR KCLM 111153Z AUTO 26009KT 10SM CLR 04/M03 A2983 RMK AO2 PK WND 27026/1109 SLP102 T00441033 10061 20033 53017=
202401111053 METAR KCLM 111053Z AUTO 26013G24KT 10SM BKN050 06/M02 A2981 RMK AO2 PK WND 27028/1030 SLP096 T00561022=
202401110953 METAR KCLM 110953Z AUTO 27011G21KT 10SM BKN046 06/M01 A2979 RMK AO2 SLP088 T00561006=
202401110853 METAR KCLM 110853Z AUTO 25008KT 10SM OVC047 05/M02 A2977 RMK AO2 SLP084 T00501017 56006=
202401110753 METAR KCLM 110753Z AUTO 25008KT 10SM OVC046 04/M02 A2977 RMK AO2 SLP084 T00391017 400720022=
202401110653 METAR KCLM 110653Z AUTO 25013G22KT 10SM BKN046 04/M02 A2978 RMK AO2 SLP085 T00391017=
202401110553 METAR KCLM 110553Z AUTO 24013G20KT 10SM CLR 03/M01 A2979 RMK AO2 SLP091 T00331011 10056 20022 51003=
202401110453 METAR KCLM 110453Z AUTO 23013G19KT 10SM CLR 03/M01 A2979 RMK AO2 SLP090 T00331011=
202401110353 METAR KCLM 110353Z AUTO 26009KT 10SM CLR 03/M01 A2979 RMK AO2 SLP092 T00331006=
202401110253 METAR KCLM 110253Z AUTO 24010KT 10SM CLR 03/00 A2978 RMK AO2 SLP087 T00330000 51012=
202401110153 METAR KCLM 110153Z AUTO 23007KT 10SM CLR 02/00 A2978 RMK AO2 SLP085 T00220000=
202401110053 METAR KCLM 110053Z AUTO 22005KT 10SM FEW050 03/01 A2976 RMK AO2 SLP080 T00330006=
202401102353 METAR KCLM 102353Z AUTO 21003KT 10SM BKN050 06/01 A2975 RMK AO2 SLP075 60000 T00560011 10072 20044 53018=
202401102253 METAR KCLM 102253Z AUTO 13005KT 10SM SCT055 07/01 A2973 RMK AO2 SLP068 T00670006=
202401102153 METAR KCLM 102153Z AUTO 10005KT 10SM CLR 07/01 A2971 RMK AO2 SLP061 T00720006=
202401102053 METAR KCLM 102053Z AUTO 15003KT 10SM FEW050 SCT070 06/01 A2970 RMK AO2 SLP057 60000 T00610011 51013=
202401101953 METAR KCLM 101953Z AUTO 17004KT 10SM BKN041 BKN049 OVC060 05/02 A2969 RMK AO2 RAE40 SLP057 P0000 T00500017=
202401101940 SPECI KCLM 101940Z AUTO 14005KT 10SM FEW018 BKN030 OVC045 05/02 A2969 RMK AO2 RAE40 P0000 T00500017=
202401101902 SPECI KCLM 101902Z AUTO 09005KT 10SM -RA OVC016 04/01 A2969 RMK AO2 P0000 T00440011=
202401101853 METAR KCLM 101853Z AUTO 07007KT 10SM -RA BKN014 OVC020 04/01 A2968 RMK AO2 RAB32 SLP053 P0000 T00440011=
202401101828 SPECI KCLM 101828Z AUTO VRB06KT 10SM OVC014 06/02 A2967 RMK AO2 T00560017=
202401101753 METAR KCLM 101753Z AUTO VRB03KT 10SM BKN027 OVC035 06/01 A2966 RMK AO2 SLP044 T00560006 10056 20033 53026=
202401101653 METAR KCLM 101653Z AUTO 25006KT 10SM CLR 04/00 A2962 RMK AO2 SLP032 T00390000=
202401101553 METAR KCLM 101553Z AUTO 25008KT 10SM CLR 03/00 A2959 RMK AO2 SLP023 T00330000=
202401101453 METAR KCLM 101453Z AUTO 24011KT 10SM BKN035 04/00 A2958 RMK AO2 SLP018 T00390000 51009=
202401101353 METAR KCLM 101353Z AUTO 24009KT 10SM FEW041 04/01 A2958 RMK AO2 SLP017 T00390006=
202401101253 METAR KCLM 101253Z AUTO 24011KT 10SM FEW028 04/01 A2956 RMK AO2 SLP013 T00390006=
202401101243 SPECI KCLM 101243Z AUTO 25011KT 10SM SCT028 04/01 A2956 RMK AO2 T00390006=
202401101225 SPECI KCLM 101225Z AUTO 25012KT 10SM BKN026 04/01 A2955 RMK AO2 T00390006=
202401101206 SPECI KCLM 101206Z AUTO 24014G21KT 10SM FEW027 BKN033 04/01 A2955 RMK AO2 T00390006=
202401101153 METAR KCLM 101153Z AUTO 24012G21KT 10SM FEW023 BKN029 OVC035 04/01 A2955 RMK AO2 RAE18B33E43 SLP008 P0000 60009 70044 T00390006 10044 20033 53004=
202401101146 SPECI KCLM 101146Z AUTO 23014G21KT 10SM FEW023 BKN031 OVC038 04/01 A2955 RMK AO2 RAE18B33E43 P0000 T00390006=
202401101135 SPECI KCLM 101135Z AUTO 23014G22KT 9SM -RA SCT023 BKN027 OVC038 04/01 A2955 RMK AO2 RAE18B33 P0000 T00390006=
202401101124 SPECI KCLM 101124Z AUTO 24012G20KT 10SM FEW025 BKN030 OVC039 04/01 A2955 RMK AO2 RAE18 P0000 T00440006=
202401101053 METAR KCLM 101053Z AUTO 24013G18KT 10SM -RA OVC029 04/01 A2954 RMK AO2 RAE11B50 SLP005 P0000 T00390006=
202401100953 METAR KCLM 100953Z AUTO 23011KT 6SM -RA OVC024 04/01 A2954 RMK AO2 SLP005 P0004 T00390006=
202401100919 SPECI KCLM 100919Z AUTO 23010G17KT 10SM -RA OVC028 04/01 A2954 RMK AO2 P0000 T00390006=
202401100853 METAR KCLM 100853Z AUTO 23014G23KT 9SM -RA OVC031 04/01 A2954 RMK AO2 SLP004 P0001 60005 T00390006 56012=
202401100838 SPECI KCLM 100838Z AUTO 24015G22KT 10SM -RA FEW024 BKN035 OVC100 03/01 A2954 RMK AO2 P0001 T00330006=
202401100753 METAR KCLM 100753Z AUTO 24015G27KT 8SM -RA BKN028 04/01 A2955 RMK AO2 PK WND 23027/0750 SLP007 P0003 T00390006 400830033=
202401100653 METAR KCLM 100653Z AUTO 24008KT 7SM -RA OVC024 04/01 A2956 RMK AO2 RAB14 SLP011 P0001 T00390011=
202401100646 SPECI KCLM 100646Z AUTO 25009KT 9SM -RA OVC026 04/01 A2956 RMK AO2 RAB14 P0000 T00440011=
202401100553 METAR KCLM 100553Z AUTO 25006KT 10SM OVC046 04/01 A2957 RMK AO2 SLP016 60003 T00390011 10067 20033 58018=
202401100453 METAR KCLM 100453Z AUTO 30005KT 10SM SCT075 04/01 A2960 RMK AO2 RAB0354E11 SLP025 P0000 T00390006=
202401100353 METAR KCLM 100353Z AUTO 27013KT 10SM SCT027 BKN050 OVC070 05/02 A2962 RMK AO2 SLP033 T00500017=
202401100253 METAR KCLM 100253Z AUTO 24009KT 10SM SCT046 BKN055 OVC085 05/01 A2963 RMK AO2 PK WND 26032/0212 RAB04E37 SLP035 P0001 60003 T00500011 50003=
202401100153 METAR KCLM 100153Z AUTO 26016G26KT 10SM BKN043 OVC050 06/01 A2965 RMK AO2 PK WND 24030/0138 RAE43 SLP041 P0002 T00560011=
202401100130 SPECI KCLM 100130Z AUTO 24012G25KT 10SM -RA OVC034 06/02 A2965 RMK AO2 PK WND 23027/0054 P0002 T00560017=
202401100120 SPECI KCLM 100120Z AUTO 25011KT 6SM -RA OVC028 06/02 A2965 RMK AO2 PK WND 23027/0054 P0002 T00560017=
202401100053 METAR KCLM 100053Z AUTO 26016G28KT 10SM -RA SCT032 BKN044 OVC070 06/02 A2963 RMK AO2 PK WND 24028/0048 SLP036 P0000 T00610017=
202401092353 METAR KCLM 092353Z AUTO 26014G26KT 8SM -RA FEW026 BKN033 BKN090 07/02 A2962 RMK AO2 PK WND 27031/2317 SLP031 P0004 60016 T00670022 10083 20061 51017=
202401092334 SPECI KCLM 092334Z AUTO 26015G24KT 10SM -RA FEW023 BKN035 BKN070 07/02 A2962 RMK AO2 PK WND 27031/2317 P0003 T00670022=
202401092326 SPECI KCLM 092326Z AUTO 27015G31KT 3SM -RA BKN028 OVC038 06/03 A2962 RMK AO2 PK WND 27031/2317 P0003 T00610028=
202401092320 SPECI KCLM 092320Z AUTO 28020G31KT 1 3/4SM RA FEW021 BKN026 OVC038 06/02 A2963 RMK AO2 PK WND 27031/2317 P0003 T00610022=
202401092253 METAR KCLM 092253Z AUTO 25016G26KT 10SM -RA FEW031 OVC038 07/02 A2961 RMK AO2 PK WND 25031/2234 SLP028 P0002 T00720022=
202401092153 METAR KCLM 092153Z AUTO 26019G29KT 10SM -RA FEW030 BKN039 OVC055 07/02 A2959 RMK AO2 PK WND 24044/2134 SLP021 P0001 T00720022=
202401092053 METAR KCLM 092053Z AUTO 26018G40KT 10SM -RA BKN038 BKN065 OVC090 07/02 A2957 RMK AO2 PK WND 24042/2043 SLP014 P0003 60009 T00720022 51035=
202401091953 METAR KCLM 091953Z AUTO 29010G22KT 7SM -RA OVC032 07/03 A2955 RMK AO2 PK WND 25046/1934 RAE26B32 SLP007 P0002 T00720033=
202401091929 SPECI KCLM 091929Z AUTO 26020G37KT 10SM BKN032 BKN046 OVC070 08/03 A2953 RMK AO2 PK WND 28037/1925 RAE26 P0000 T00780028=
202401091910 SPECI KCLM 091910Z AUTO 25017G33KT 10SM -RA BKN029 BKN065 07/03 A2952 RMK AO2 PK WND 25033/1910 P0000 T00720028=
202401091853 METAR KCLM 091853Z AUTO 26019G40KT 5SM -RA FEW028 BKN035 OVC070 07/03 A2952 RMK AO2 PK WND 24051/1840 RAE12B36 SLP996 P0004 T00720028=
202401091753 METAR KCLM 091753Z AUTO 26016G25KT 9SM -RA BKN038 OVC050 08/03 A2946 RMK AO2 PK WND 26030/1718 SLP979 P0001 60016 T00780033 10078 20056 53007=
202401091653 METAR KCLM 091653Z AUTO 26014G27KT 6SM -RA OVC037 07/03 A2945 RMK AO2 PK WND 24037/1638 SLP974 P0003 T00720028=
202401091553 METAR KCLM 091553Z AUTO 23015G23KT 8SM -RA OVC030 07/03 A2943 RMK AO2 PK WND 28028/1527 LTG DSNT SW SLP968 P0005 T00670028=
202401091540 SPECI KCLM 091540Z AUTO 21011G21KT 6SM -RA OVC030 06/03 A2944 RMK AO2 PK WND 28028/1527 P0004 T00610028=
202401091534 SPECI KCLM 091534Z AUTO 22014G28KT 2 1/2SM RA OVC028 07/03 A2945 RMK AO2 PK WND 28028/1527 P0004 T00670028=
202401091453 METAR KCLM 091453Z AUTO 25006KT 9SM -RA OVC035 06/02 A2944 RMK AO2 RAB19 SLP972 P0002 60007 T00610022 57017=
202401091353 METAR KCLM 091353Z AUTO 14003KT 10SM FEW030 BKN049 OVC110 06/02 A2946 RMK AO2 RAE49 SLP977 P0002 T00560022=
202401091253 METAR KCLM 091253Z AUTO 21009G16KT 170V230 6SM -RA FEW029 OVC034 06/03 A2948 RMK AO2 SLP983 P0003 T00610028=
202401091153 METAR KCLM 091153Z AUTO 18005KT 10SM -RA OVC045 06/03 A2949 RMK AO2 RAB1056 SLP989 P0000 60040 70068 T00610033 10083 20050 50014=
202401091053 METAR KCLM 091053Z AUTO 02004KT 10SM BKN045 OVC060 06/03 A2951 RMK AO2 RAE42 SLP993 P0001 T00610028=
202401090953 METAR KCLM 090953Z AUTO 23009G27KT 8SM -RA OVC034 08/02 A2945 RMK AO2 PK WND 20027/0946 SLP973 P0000 T00780022=
202401090853 METAR KCLM 090853Z AUTO 24007KT 10SM -RA FEW033 BKN100 OVC110 07/02 A2945 RMK AO2 RAE02B48 SLP975 P0000 60039 T00720022 58006=
202401090753 METAR KCLM 090753Z AUTO 29005KT 10SM -RA BKN046 OVC065 08/04 A2949 RMK AO2 SLP987 P0011 T00830044 400830011=
202401090725 SPECI KCLM 090725Z AUTO 26007G14KT 4SM RA BR FEW008 SCT013 OVC033 08/06 A2949 RMK AO2 P0010 T00780056=
202401090717 SPECI KCLM 090717Z AUTO 25009KT 3SM RA BR FEW007 SCT013 OVC027 08/06 A2948 RMK AO2 P0009 T00780056=
202401090708 SPECI KCLM 090708Z AUTO VRB06KT 2 1/2SM RA BR SCT007 BKN012 OVC031 07/06 A2948 RMK AO2 P0006 T00720056=
202401090653 METAR KCLM 090653Z AUTO 31011G28KT 2 1/2SM +RA BR FEW003 FEW014 OVC035 07/04 A2948 RMK AO2 PK WND 30028/0646 SLP984 P0028 T00670044=
202401090619 SPECI KCLM 090619Z AUTO 14004KT 2SM +RA BR OVC038 05/03 A2944 RMK AO2 P0012 T00500033=
202401090553 METAR KCLM 090553Z AUTO 15004KT 3SM RA BR OVC042 05/03 A2947 RMK AO2 SLP980 P0013 60016 T00500028 10050 20039 56059=
202401090453 METAR KCLM 090453Z AUTO 20006KT 6SM -RA BR OVC055 04/03 A2953 RMK AO2 SLP001 P0001 T00440028=
202401090353 METAR KCLM 090353Z AUTO 13004KT 8SM -RA OVC060 04/02 A2957 RMK AO2 RAB0259 PRESFR SLP015 P0002 T00390022=
202401090253 METAR KCLM 090253Z AUTO 16003KT 9SM BKN048 OVC065 04/02 A2964 RMK AO2 RAE11B40E51 SLP040 P0000 60000 T00390022 58054=
202401090208 SPECI KCLM 090208Z AUTO 00000KT 10SM -RA SCT010 OVC060 04/02 A2968 RMK AO2 P0000 T00440022=
202401090153 METAR KCLM 090153Z AUTO 14003KT 8SM -RA BKN010 BKN029 OVC055 05/03 A2970 RMK AO2 RAB07E27B29 PRESFR SLP058 P0000 T00500028=
202401090127 SPECI KCLM 090127Z AUTO 20004KT 8SM BKN010 BKN028 OVC055 05/03 A2974 RMK AO2 RAB07E27 PRESFR P0000 T00500033=
202401090053 METAR KCLM 090053Z AUTO 13003KT 10SM SCT006 OVC060 05/03 A2977 RMK AO2 SLP081 T00500028=
202401090037 SPECI KCLM 090037Z AUTO 07003KT 10SM BKN006 OVC060 05/03 A2978 RMK AO2 T00500033=
202401090015 SPECI KCLM 090015Z AUTO 09005KT 8SM BKN004 OVC060 05/03 A2980 RMK AO2 T00500028=
202401082353 METAR KCLM 082353Z AUTO 08003KT 10SM FEW006 BKN060 05/03 A2981 RMK AO2 SLP094 60010 T00500028 10056 20033 58038=
202401082253 METAR KCLM 082253Z AUTO 00000KT 10SM FEW005 FEW050 OVC060 05/03 A2985 RMK AO2 RAE46 SLP111 P0001 T00500028=
202401082244 SPECI KCLM 082244Z AUTO 00000KT 10SM -RA SCT005 OVC060 06/03 A2986 RMK AO2 P0001 T00560028=
202401082153 METAR KCLM 082153Z AUTO 00000KT 10SM -RA OVC005 05/03 A2988 RMK AO2 SLP120 P0003 T00500033=
202401082111 SPECI KCLM 082111Z AUTO 23003KT 5SM -RA BR BKN009 BKN039 OVC048 05/03 A2990 RMK AO2 P0001 T00500028=
202401082104 SPECI KCLM 082104Z AUTO 22003KT 4SM -RA BR SCT007 BKN037 OVC060 05/03 A2991 RMK AO2 P0001 T00500028=
202401082053 METAR KCLM 082053Z AUTO 00000KT 3SM -RA BR BKN006 OVC035 05/03 A2992 RMK AO2 SLP133 P0004 60006 T00500028 58022=
202401082042 SPECI KCLM 082042Z AUTO 00000KT 5SM -RA BR BKN006 BKN035 OVC044 05/03 A2992 RMK AO2 P0002 T00500028=
202401081953 METAR KCLM 081953Z AUTO 00000KT 10SM -RA SCT007 BKN038 OVC046 05/03 A2994 RMK AO2 SLP141 P0002 T00500028=
202401081909 SPECI KCLM 081909Z AUTO 00000KT 8SM -RA FEW006 BKN041 OVC050 04/02 A2996 RMK AO2 P0000 T00440022=
202401081853 METAR KCLM 081853Z AUTO 00000KT 10SM -RA OVC045 04/02 A2997 RMK AO2 RAE02B39 SLP152 P0000 T00440022=
202401081753 METAR KCLM 081753Z AUTO 00000KT 10SM -RA OVC045 03/02 A2998 RMK AO2 RAE12B33 SLP155 P0000 60002 T00330017 10039 20028 56023=
202401081653 METAR KCLM 081653Z AUTO 22004KT 10SM -RA OVC041 03/01 A3000 RMK AO2 RAB02 SLP161 P0000 T00330011=
202401081553 METAR KCLM 081553Z AUTO 00000KT 10SM OVC050 03/01 A3002 RMK AO2 RAE1457B19E29 SLP170 P0000 T00330011=
202401081453 METAR KCLM 081453Z AUTO 11005KT 10SM -RA SCT013 OVC046 03/01 A3005 RMK AO2 SLP179 P0000 60002 T00330006 58019=
202401081353 METAR KCLM 081353Z AUTO 10005KT 10SM -RA OVC031 03/01 A3007 RMK AO2 SLP187 P0002 T00330006 $=
202401081346 SPECI KCLM 081346Z AUTO 10006KT 10SM -RA OVC031 03/01 A3008 RMK AO2 P0002 T00330006 $=
202401081306 SPECI KCLM 081306Z AUTO 11006KT 10SM -RA OVC029 03/01 A3009 RMK AO2 P0000 T00330011 $=
202401081253 METAR KCLM 081253Z AUTO 12005KT 10SM -RA OVC033 03/01 A3009 RMK AO2 UPB34E43 SLP192 P0000 T00330011 $=
202401081153 METAR KCLM 081153Z AUTO VRB03KT 10SM -RA OVC031 03/01 A3011 RMK AO2 RAB01 SLP196 P0001 60001 70001 T00280006 10033 20006 50004 $=
202401081053 METAR KCLM 081053Z AUTO 23004KT 10SM OVC044 03/00 A3011 RMK AO2 SLP199 T00280000 $=
202401080953 METAR KCLM 080953Z AUTO 00000KT 10SM BKN070 OVC090 02/00 A3011 RMK AO2 SLP198 T00220000 $=
202401080853 METAR KCLM 080853Z AUTO 22004KT 10SM OVC110 02/00 A3009 RMK AO2 SLP192 T00170000 56009 $=
202401080753 METAR KCLM 080753Z AUTO 00000KT 10SM SCT120 02/M01 A3011 RMK AO2 SLP197 T00171006 400670000=
202401080653 METAR KCLM 080653Z AUTO 22004KT 10SM CLR 02/M01 A3010 RMK AO2 SLP197 T00171006=
202401080553 METAR KCLM 080553Z AUTO 21004KT 10SM CLR 01/M01 A3012 RMK AO2 SLP203 T00061011 10056 20000 53001=
202401080453 METAR KCLM 080453Z AUTO 00000KT 10SM CLR 01/M01 A3011 RMK AO2 SLP197 T00061011=
202401080353 METAR KCLM 080353Z AUTO 21003KT 9SM CLR 02/M01 A3010 RMK AO2 SLP197 T00171006=
202401080253 METAR KCLM 080253Z AUTO 00000KT 10SM BKN046 02/00 A3012 RMK AO2 SLP202 T00220000 51012=
202401080153 METAR KCLM 080153Z AUTO 00000KT 10SM BKN046 02/00 A3010 RMK AO2 SLP197 T00220000=
202401080053 METAR KCLM 080053Z AUTO 00000KT 10SM BKN049 04/01 A3010 RMK AO2 SLP195 T00390006=
202401072353 METAR KCLM 072353Z AUTO 10005KT 10SM SCT019 OVC042 06/01 A3008 RMK AO2 SLP190 60000 T00560006 10067 20033 52005=
202401072253 METAR KCLM 072253Z AUTO 08004KT 10SM SCT018 BKN041 06/01 A3008 RMK AO2 SLP188 T00560006=
202401072223 SPECI KCLM 072223Z AUTO 07005KT 10SM FEW013 SCT035 BKN043 06/02 A3007 RMK AO2 T00560017=
202401072153 METAR KCLM 072153Z AUTO VRB05KT 10SM SCT014 BKN020 OVC026 06/01 A3008 RMK AO2 SLP186 T00610011=
202401072134 SPECI KCLM 072134Z AUTO 06006KT 10SM OVC016 06/02 A3008 RMK AO2 T00610017=
202401072104 SPECI KCLM 072104Z AUTO 09005KT 10SM BKN014 BKN030 06/02 A3007 RMK AO2 T00560017=
202401072053 METAR KCLM 072053Z AUTO 07006KT 10SM SCT014 OVC030 06/02 A3007 RMK AO2 SLP184 60000 T00560017 51003=
202401072006 SPECI KCLM 072006Z AUTO 00000KT 10SM BKN018 BKN029 07/01 A3007 RMK AO2 T00670011=
202401071953 METAR KCLM 071953Z AUTO 00000KT 10SM SCT030 06/02 A3007 RMK AO2 SLP183 T00610017=
202401071902 SPECI KCLM 071902Z AUTO 22005KT 10SM FEW022 SCT029 04/01 A3006 RMK AO2 T00440011=
202401071853 METAR KCLM 071853Z AUTO 23004KT 10SM SCT022 BKN029 04/01 A3006 RMK AO2 RAE24 SLP184 P0000 T00440011=
202401071753 METAR KCLM 071753Z AUTO 00000KT 10SM -RA BKN023 OVC028 03/01 A3006 RMK AO2 RAB24 SLP182 P0000 60000 T00330006 10033 20006 53013=
202401071653 METAR KCLM 071653Z AUTO 16003KT 10SM OVC028 02/M01 A3004 RMK AO2 RAB1558E08 SLP177 P0000 T00171006=
202401071553 METAR KCLM 071553Z AUTO 22003KT 10SM BKN023 OVC030 01/M01 A3003 RMK AO2 SLP173 T00111006=
202401071453 METAR KCLM 071453Z AUTO 00000KT 10SM BKN026 01/M02 A3002 RMK AO2 SLP169 T00061017 51009=
202401071353 METAR KCLM 071353Z AUTO 22005KT 10SM BKN021 BKN030 OVC042 02/M01 A3001 RMK AO2 SLP165 T00171006=
202401071322 SPECI KCLM 071322Z AUTO 22004KT 10SM FEW025 BKN032 OVC042 02/M01 A3000 RMK AO2 T00221006=
202401071253 METAR KCLM 071253Z AUTO 22005KT 10SM BKN023 OVC031 02/M01 A2999 RMK AO2 SLP160 T00171006=
202401071207 SPECI KCLM 071207Z AUTO 21003KT 10SM BKN023 BKN032 01/M01 A2999 RMK AO2 T00061011=
202401071153 METAR KCLM 071153Z AUTO 22004KT 10SM FEW022 BKN032 BKN048 01/M01 A2999 RMK AO2 SLP157 60001 70004 I6001 T00111011 10039 20006 51019=
202401071105 SPECI KCLM 071105Z AUTO 00000KT 10SM OVC030 01/M01 A2998 RMK AO2 T00061011=
202401071053 METAR KCLM 071053Z AUTO 00000KT 10SM BKN028 01/M01 A2997 RMK AO2 SLP152 I1001 T00111011=
202401071042 SPECI KCLM 071042Z AUTO 00000KT 10SM BKN028 01/M01 A2997 RMK AO2 I1001 T00111011=
202401070953 METAR KCLM 070953Z AUTO 12004KT 10SM FEW029 02/M01 A2996 RMK AO2 RAE0857 SLP145 P0000 T00171006=
202401070901 SPECI KCLM 070901Z AUTO 22005KT 10SM SCT019 SCT034 BKN055 02/00 A2994 RMK AO2 RAE0857 P0000 T00220000=
202401070853 METAR KCLM 070853Z AUTO 00000KT 10SM -RA BKN019 BKN034 BKN055 03/00 A2993 RMK AO2 RAB25 SLP138 P0001 60001 T00280000 51008=
202401070848 SPECI KCLM 070848Z AUTO 00000KT 8SM -RA BKN021 OVC034 03/00 A2993 RMK AO2 RAB25 P0001=
202401070753 METAR KCLM 070753Z AUTO 25005KT 10SM FEW027 SCT047 OVC055 04/00 A2993 RMK AO2 SLP137 T00390000 400940017=
202401070726 SPECI KCLM 070726Z AUTO 23007KT 10SM FEW023 SCT029 BKN050 03/00 A2992 RMK AO2 T00330000=
202401070653 METAR KCLM 070653Z AUTO 23006KT 10SM OVC024 02/M01 A2991 RMK AO2 SLP130 T00221006=
202401070642 SPECI KCLM 070642Z AUTO 00000KT 10SM BKN024 BKN060 02/M01 A2991 RMK AO2 T00221006=
202401070553 METAR KCLM 070553Z AUTO 23006KT 10SM CLR 03/M01 A2989 RMK AO2 SLP123 T00331006 10061 20033 53019=
202401070453 METAR KCLM 070453Z AUTO 24010KT 10SM SCT050 04/00 A2986 RMK AO2 SLP115 T00390000=
202401070353 METAR KCLM 070353Z AUTO 25006KT 10SM OVC065 04/01 A2985 RMK AO2 SLP111 T00440006=
202401070253 METAR KCLM 070253Z AUTO 24008KT 10SM FEW025 04/01 A2983 RMK AO2 SLP104 T00390006 51012=
202401070153 METAR KCLM 070153Z AUTO 23007KT 10SM FEW060 04/01 A2982 RMK AO2 SLP100 T00440006=
202401070053 METAR KCLM 070053Z AUTO 23006KT 10SM CLR 05/01 A2982 RMK AO2 SLP099 T00500011=
202401062353 METAR KCLM 062353Z AUTO 25006KT 10SM FEW030 BKN043 06/03 A2980 RMK AO2 RAB2256E20 SLP092 P0000 60003 T00610028 10094 20061 51016=
202401062253 METAR KCLM 062253Z AUTO 28010KT 10SM FEW027 BKN035 07/03 A2978 RMK AO2 RAB05E48 SLP085 P0003 T00670033=
202401062222 SPECI KCLM 062222Z AUTO 30010G20KT 10SM -RA OVC029 07/03 A2977 RMK AO2 RAB05 P0000 T00720033=
202401062153 METAR KCLM 062153Z AUTO 27011G19KT 10SM BKN031 BKN055 OVC100 09/02 A2975 RMK AO2 SLP076 T00890017=
202401062053 METAR KCLM 062053Z AUTO 27014G22KT 10SM CLR 08/01 A2974 RMK AO2 SLP073 T00830011 58005=
202401061953 METAR KCLM 061953Z AUTO 24011KT 10SM SCT036 08/01 A2975 RMK AO2 SLP076 T00780011=
202401061853 METAR KCLM 061853Z AUTO 25012KT 10SM FEW032 07/01 A2976 RMK AO2 SLP078 T00720011=
202401061753 METAR KCLM 061753Z AUTO 25008KT 10SM BKN039 07/01 A2976 RMK AO2 SLP078 60000 T00670006 10067 20050 51004=
202401061653 METAR KCLM 061653Z AUTO 23010KT 10SM FEW120 05/M01 A2975 RMK AO2 SLP077 T00501011=
202401061553 METAR KCLM 061553Z AUTO 24010KT 10SM BKN110 06/00 A2975 RMK AO2 SLP076 T00560000=
202401061453 METAR KCLM 061453Z AUTO 25008KT 10SM CLR 05/00 A2974 RMK AO2 SLP074 60000 T00500000 51013=
202401061353 METAR KCLM 061353Z AUTO 26013KT 10SM FEW025 06/02 A2973 RMK AO2 SLP068 T00610017=
202401061330 SPECI KCLM 061330Z AUTO 25010KT 10SM BKN023 OVC060 05/02 A2972 RMK AO2 T00500017=
202401061253 METAR KCLM 061253Z AUTO 24008KT 10SM CLR 05/02 A2971 RMK AO2 RAB04E26 SLP061 P0000 T00500017=
202401061225 SPECI KCLM 061225Z AUTO 24008G19KT 10SM -RA BKN033 BKN040 OVC120 06/02 A2971 RMK AO2 RAB04 P0000 T00560022=
202401061214 SPECI KCLM 061214Z AUTO 25011KT 10SM -RA BKN029 OVC035 06/03 A2971 RMK AO2 RAB04 P0000 T00560028=
202401061153 METAR KCLM 061153Z AUTO 24009KT 10SM SCT028 BKN055 OVC070 05/02 A2971 RMK AO2 RAE1056 SLP062 P0000 60018 70028 T00500022 10067 20050 50000=
202401061053 METAR KCLM 061053Z AUTO 24010KT 10SM -RA FEW030 OVC037 06/03 A2972 RMK AO2 SLP064 P0003 T00560028=
202401061028 SPECI KCLM 061028Z AUTO 24008KT 10SM -RA OVC031 06/03 A2972 RMK AO2 P0002 T00560028=
202401060953 METAR KCLM 060953Z AUTO 25007KT 7SM -RA OVC028 06/03 A2972 RMK AO2 SLP065 P0011 T00560033=
202401060922 SPECI KCLM 060922Z AUTO 28008KT 5SM RA BR OVC029 06/03 A2972 RMK AO2 P0006 T00560033=
202401060912 SPECI KCLM 060912Z AUTO 27009KT 6SM -RA FEW026 OVC031 06/03 A2971 RMK AO2 P0004 T00610033=
202401060904 SPECI KCLM 060904Z AUTO 28008KT 5SM RA BR OVC028 06/04 A2971 RMK AO2 P0003 T00610039=
202401060853 METAR KCLM 060853Z AUTO 29008KT 7SM -RA FEW011 FEW016 OVC030 07/04 A2971 RMK AO2 RAB00 SLP062 P0003 60004 T00670039 56026=
202401060828 SPECI KCLM 060828Z AUTO 31009G16KT 9SM -RA FEW009 BKN028 OVC047 07/04 A2971 RMK AO2 RAB00 P0001 T00670044=
202401060753 METAR KCLM 060753Z AUTO 25007KT 10SM SCT044 OVC075 07/04 A2971 RMK AO2 RAE41 SLP062 P0000 T00670039 401110044=
202401060653 METAR KCLM 060653Z AUTO 23005KT 9SM -RA OVC038 07/04 A2973 RMK AO2 SLP070 P0001 T00670044=
202401060553 METAR KCLM 060553Z AUTO 00000KT 10SM -RA FEW033 OVC042 07/04 A2979 RMK AO2 SLP088 P0006 60010 T00670044 10094 20061 56041=
202401060453 METAR KCLM 060453Z AUTO 23004KT 8SM -RA OVC039 07/04 A2983 RMK AO2 RAE0355B17 SLP102 P0001 T00670044=
202401060353 METAR KCLM 060353Z AUTO 24004KT 10SM -RA BKN041 OVC049 07/03 A2986 RMK AO2 RAE03B23 SLP113 P0002 T00720033=
202401060253 METAR KCLM 060253Z AUTO 28006KT 10SM -RA OVC043 07/03 A2991 RMK AO2 RAB16 SLP130 P0001 60001 T00720028 56033=
202401060153 METAR KCLM 060153Z AUTO 25011G19KT 10SM OVC055 08/02 A2994 RMK AO2 RAB41E51 SLP140 P0000 T00830022=
202401060053 METAR KCLM 060053Z AUTO 24013G21KT 10SM FEW036 FEW055 09/02 A2997 RMK AO2 PK WND 24026/0034 RAE11 SLP150 P0000 T00890022=
202401052353 METAR KCLM 052353Z AUTO 25010G20KT 10SM -RA BKN039 BKN050 OVC110 09/02 A3001 RMK AO2 RAB23 SLP163 P0000 60000 T00890022 10111 20072 58036=
202401052253 METAR KCLM 052253Z AUTO 18011G21KT 10SM SCT049 BKN065 11/01 A3006 RMK AO2 SLP181 T01060006=
202401052153 METAR KCLM 052153Z AUTO 29009KT 10SM SCT070 OVC110 10/02 A3008 RMK AO2 SLP188 T01000022=
202401052053 METAR KCLM 052053Z AUTO 26009KT 10SM FEW045 SCT090 BKN110 09/03 A3011 RMK AO2 RAB15E29 SLP200 P0000 60000 T00890028 56038=
202401051953 METAR KCLM 051953Z AUTO VRB05KT 10SM BKN120 08/03 A3014 RMK AO2 SLP209 T00830028=
202401051853 METAR KCLM 051853Z AUTO 29006KT 10SM FEW060 FEW110 08/02 A3020 RMK AO2 SLP227 T00830017=
202401051753 METAR KCLM 051753Z AUTO 25009KT 10SM BKN110 07/01 A3023 RMK AO2 SLP238 T00720011 10072 20056 55008=
202401051653 METAR KCLM 051653Z AUTO 21005KT 10SM OVC110 06/01 A3021 RMK AO2 SLP233 T00610011=
202401051553 METAR KCLM 051553Z AUTO 05004KT 10SM BKN100 OVC120 06/01 A3023 RMK AO2 SLP240 T00610011=
202401051453 METAR KCLM 051453Z AUTO 23009KT 10SM BKN110 07/01 A3025 RMK AO2 SLP246 T00670011 53006=
202401051353 METAR KCLM 051353Z AUTO 23012KT 10SM BKN120 07/01 A3023 RMK AO2 SLP240 T00670011=
202401051253 METAR KCLM 051253Z AUTO 24009KT 10SM CLR 06/02 A3023 RMK AO2 SLP238 T00560017=
202401051153 METAR KCLM 051153Z AUTO 24007KT 10SM SCT050 SCT060 BKN075 06/02 A3023 RMK AO2 SLP240 60002 70003 T00560022 10078 20044 51016=
202401051053 METAR KCLM 051053Z AUTO 12004KT 10SM SCT065 06/03 A3022 RMK AO2 RAE14 SLP235 P0001 T00560033=
202401051004 METAR KCLM 051004Z AUTO 00000KT 8SM -RA FEW008 BKN036 OVC065 07/04 A3023 RMK AO2 P0001 T00670044=
202401051004 SPECI KCLM 051004Z AUTO 00000KT 8SM -RA FEW008 BKN036 OVC065 07/04 A3023 RMK AO2 P0001 T00670044=
202401050956 SPECI KCLM 050956Z AUTO 19004KT 6SM -RA BR SCT010 BKN028 OVC034 07/04 A3022 RMK AO2 P0001 T00670044=
202401050953 METAR KCLM 050953Z AUTO 25003KT 6SM -RA BR BKN008 BKN012 OVC034 07/04 A3023 RMK AO2 RAB24 SLP236 P0001 T00670044=
202401050942 SPECI KCLM 050942Z AUTO VRB05KT 7SM -RA BKN011 BKN032 OVC041 07/04 A3023 RMK AO2 RAB24 P0001 T00670044=
202401050853 METAR KCLM 050853Z AUTO 00000KT 10SM BKN080 OVC095 07/M01 A3018 RMK AO2 SLP222 T00671006 51002=
202401050753 METAR KCLM 050753Z AUTO 16005KT 10SM BKN095 OVC110 07/M01 A3018 RMK AO2 SLP221 T00671006 401110050=
202401050653 METAR KCLM 050653Z AUTO 23008KT 140V270 10SM FEW080 SCT110 07/00 A3019 RMK AO2 SLP226 T00670000=
202401050553 METAR KCLM 050553Z AUTO 24012KT 10SM CLR 07/00 A3018 RMK AO2 SLP221 60000 T00720000 10094 20061 58001=
202401050453 METAR KCLM 050453Z AUTO 24009KT 10SM CLR 06/01 A3018 RMK AO2 SLP221 T00610006=
202401050353 METAR KCLM 050353Z AUTO 26011KT 10SM CLR 07/01 A3018 RMK AO2 RAE0254 SLP223 P0000 T00670011=
202401050253 METAR KCLM 050253Z AUTO 25008KT 10SM -RA BKN050 08/01 A3018 RMK AO2 RAB45 SLP222 P0000 60000 T00830011 51013=
202401050153 METAR KCLM 050153Z AUTO 24009KT 10SM BKN055 09/00 A3017 RMK AO2 SLP218 T00890000=
202401050053 METAR KCLM 050053Z AUTO 25010KT 10SM SCT055 09/01 A3017 RMK AO2 SLP218 T00890006=
202401042353 METAR KCLM 042353Z AUTO 28009KT 10SM CLR 09/01 A3014 RMK AO2 SLP210 60000 T00940011 10111 20083 53015=
202401042253 METAR KCLM 042253Z AUTO 29006KT 10SM CLR 10/02 A3012 RMK AO2 SLP200 T01000022=
202401042153 METAR KCLM 042153Z AUTO 30010G19KT 10SM CLR 11/02 A3011 RMK AO2 SLP196 T01110022=
202401042053 METAR KCLM 042053Z AUTO 27010KT 10SM CLR 11/04 A3010 RMK AO2 SLP194 60000 T01060039 53001=
202401042001 SPECI KCLM 042001Z AUTO 28011G19KT 10SM BKN030 10/04 A3009 RMK AO2 T01000039=
202401041953 METAR KCLM 041953Z AUTO 27012KT 10SM OVC029 10/05 A3009 RMK AO2 RAE1856 SLP192 P0000 T01000050=
202401041939 SPECI KCLM 041939Z AUTO 27010KT 10SM BKN029 09/06 A3009 RMK AO2 RAE1856 P0000 T00940056=
202401041917 SPECI KCLM 041917Z AUTO 27007KT 10SM FEW008 BKN070 09/07 A3009 RMK AO2 RAE1856 P0000 T00940067=
202401041904 SPECI KCLM 041904Z AUTO 25005KT 10SM SCT008 BKN018 OVC075 09/07 A3010 RMK AO2 RAE1856 P0000 T00890067=
202401041853 METAR KCLM 041853Z AUTO 24004KT 8SM -RA BKN009 BKN016 OVC043 09/07 A3010 RMK AO2 SLP193 P0000 T00890067=
202401041851 SPECI KCLM 041851Z AUTO 23003KT 7SM -RA BKN009 OVC016 09/07 A3010 RMK AO2 P0000=
202401041806 SPECI KCLM 041806Z AUTO 27003KT 10SM -RA BKN014 OVC050 08/06 A3008 RMK AO2 P0000 T00830061=
202401041753 METAR KCLM 041753Z AUTO 00000KT 10SM -RA BKN015 OVC050 08/06 A3007 RMK AO2 RAE03B51 SLP185 P0000 60001 T00830061 10083 20050 53022=
202401041653 METAR KCLM 041653Z AUTO 30003KT 7SM -RA OVC055 08/06 A3003 RMK AO2 RAB32 SLP172 P0001 T00780056=
202401041553 METAR KCLM 041553Z AUTO 23003KT 10SM BKN070 OVC080 06/04 A3000 RMK AO2 RAB18E27 SLP161 P0000 T00560039=
202401041534 SPECI KCLM 041534Z AUTO 00000KT 10SM SCT008 BKN080 OVC100 06/03 A3000 RMK AO2 RAB18E27 P0000 T00560033=
202401041453 METAR KCLM 041453Z AUTO 23003KT 10SM OVC006 06/04 A3001 RMK AO2 SLP163 60000 T00610044 55005=
202401041432 SPECI KCLM 041432Z AUTO 20003KT 10SM BKN005 BKN013 06/04 A3000 RMK AO2 T00610044=
202401041417 SPECI KCLM 041417Z AUTO 34003KT 10SM FEW005 SCT080 08/05 A3000 RMK AO2 T00780050=
202401041353 METAR KCLM 041353Z AUTO 00000KT 8SM SCT070 BKN085 06/04 A3000 RMK AO2 SLP162 T00610044=
202401041253 METAR KCLM 041253Z AUTO 22003KT 10SM BKN065 OVC080 07/05 A3002 RMK AO2 RAB27E46 SLP168 P0000 T00670050=
202401041153 METAR KCLM 041153Z AUTO 15003KT 10SM FEW020 BKN075 OVC090 06/04 A3002 RMK AO2 SLP169 60000 T00610044 10072 20056 56007=
202401041053 METAR KCLM 041053Z AUTO 13003KT 10SM SCT090 BKN100 06/04 A3003 RMK AO2 RAE0957 SLP172 P0000 T00610044=
202401041036 SPECI KCLM 041036Z AUTO 00000KT 10SM SCT005 OVC080 06/04 A3004 RMK AO2 RAE0957 P0000 T00610044=
202401041012 SPECI KCLM 041012Z AUTO 00000KT 10SM BKN005 OVC065 07/05 A3003 RMK AO2 RAE0957 P0000 T00670050=
202401041003 SPECI KCLM 041003Z AUTO 00000KT 9SM SCT005 BKN055 OVC070 07/05 A3003 RMK AO2 RAE0957 P0000 T00670050=
202401040953 METAR KCLM 040953Z AUTO 13003KT 10SM -RA OVC060 07/04 A3003 RMK AO2 RAB47 SLP170 P0000 T00670044=
202401040853 METAR KCLM 040853Z AUTO 00000KT 10SM OVC095 07/05 A3004 RMK AO2 SLP176 60000 T00670050 50006=
202401040753 METAR KCLM 040753Z AUTO 24003KT 10SM SCT055 OVC110 06/04 A3005 RMK AO2 RAB05E44 SLP178 P0000 T00610044 400940050=
202401040653 METAR KCLM 040653Z AUTO 00000KT 10SM SCT060 BKN075 OVC095 06/04 A3004 RMK AO2 SLP174 T00610044=
202401040553 METAR KCLM 040553Z AUTO 21003KT 10SM FEW060 BKN095 06/04 A3003 RMK AO2 SLP170 60000 T00610039 10089 20050 51005=
202401040453 METAR KCLM 040453Z AUTO 22003KT 8SM BKN060 OVC095 06/04 A3003 RMK AO2 SLP170 T00560039=
202401040353 METAR KCLM 040353Z AUTO 00000KT 7SM FEW024 OVC085 06/04 A3002 RMK AO2 SLP168 T00610044=
202401040253 METAR KCLM 040253Z AUTO 00000KT 10SM FEW027 SCT070 OVC100 07/05 A3001 RMK AO2 RAB17E46 SLP164 P0000 60000 T00720050 51011=
202401040153 METAR KCLM 040153Z AUTO 00000KT 10SM FEW029 SCT060 OVC085 07/05 A3000 RMK AO2 SLP161 T00670050=
202401040053 METAR KCLM 040053Z AUTO 00000KT 10SM BKN070 OVC085 07/06 A3000 RMK AO2 SLP159 T00720056=
202401032353 METAR KCLM 032353Z AUTO 00000KT 10SM OVC075 09/06 A2998 RMK AO2 RAE2254B20E41 SLP152 P0000 60000 T00890061 10094 20078 53013=
202401032323 SPECI KCLM 032323Z AUTO 00000KT 10SM -RA SCT013 BKN055 OVC070 09/06 A2997 RMK AO2 RAE2254B20 P0000 T00940056=
202401032253 METAR KCLM 032253Z AUTO 26003KT 10SM -RA OVC013 09/06 A2996 RMK AO2 RAB33 SLP147 P0000 T00940056=
202401032153 METAR KCLM 032153Z AUTO 30003KT 10SM OVC011 09/06 A2995 RMK AO2 SLP143 T00940056=
202401032053 METAR KCLM 032053Z AUTO VRB04KT 10SM OVC011 09/06 A2994 RMK AO2 SLP140 T00890056 51001=
202401031953 METAR KCLM 031953Z AUTO 30005KT 10SM OVC014 09/06 A2994 RMK AO2 SLP141 T00890056=
202401031853 METAR KCLM 031853Z AUTO 24003KT 10SM OVC012 09/06 A2994 RMK AO2 SLP141 T00890056=
202401031753 METAR KCLM 031753Z AUTO 00000KT 10SM OVC011 08/06 A2994 RMK AO2 SLP139 T00780056 10083 20067 50007=
202401031653 METAR KCLM 031653Z AUTO 24003KT 10SM OVC010 07/05 A2994 RMK AO2 CIG 008V012 SLP140 T00720050=
202401031619 SPECI KCLM 031619Z AUTO 22003KT 10SM BKN010 OVC015 07/05 A2993 RMK AO2 CIG 009V013 T00720050=
202401031601 SPECI KCLM 031601Z AUTO 00000KT 10SM SCT010 OVC016 07/05 A2992 RMK AO2 T00720050=
202401031553 METAR KCLM 031553Z AUTO 00000KT 10SM BKN010 OVC016 07/05 A2993 RMK AO2 CIG 009V013 SLP136 T00720050=
202401031453 METAR KCLM 031453Z AUTO 20003KT 10SM OVC016 07/05 A2992 RMK AO2 SLP132 T00720050 53005=
202401031422 SPECI KCLM 031422Z AUTO 00000KT 10SM OVC015 08/06 A2991 RMK AO2 T00780056=
202401031353 METAR KCLM 031353Z AUTO 00000KT 10SM OVC013 08/05 A2991 RMK AO2 SLP130 T00780050=
202401031253 METAR KCLM 031253Z AUTO 00000KT 10SM OVC014 08/06 A2990 RMK AO2 SLP127 T00780056=
202401031231 SPECI KCLM 031231Z AUTO 24003KT 10SM BKN010 OVC014 08/05 A2989 RMK AO2 T00780050=
202401031153 METAR KCLM 031153Z AUTO VRB04KT 10SM OVC009 08/06 A2990 RMK AO2 CIG 008V012 SLP126 T00830056 10083 20050 53004=
202401031053 METAR KCLM 031053Z AUTO VRB04KT 10SM OVC008 08/06 A2989 RMK AO2 SLP123 T00830056=
202401031006 SPECI KCLM 031006Z AUTO VRB03KT 10SM BKN007 OVC012 08/06 A2989 RMK AO2 T00830061=
202401030953 METAR KCLM 030953Z AUTO 26005KT 10SM OVC011 08/06 A2989 RMK AO2 CIG 006V014 SLP121 T00830061=
202401030853 METAR KCLM 030853Z AUTO 26005KT 10SM BKN005 BKN009 OVC014 08/06 A2989 RMK AO2 CIG 005V008 SLP123 T00780056 51003=
202401030850 SPECI KCLM 030850Z AUTO 26005KT 10SM SCT005 BKN009 OVC014 08/06 A2989 RMK AO2 CIG 008V012=
202401030840 SPECI KCLM 030840Z AUTO 25007KT 10SM SCT009 BKN013 07/06 A2989 RMK AO2 T00720056=
202401030819 SPECI KCLM 030819Z AUTO 25005KT 10SM FEW009 SCT013 07/05 A2989 RMK AO2 T00720050=
202401030814 SPECI KCLM 030814Z AUTO 25006KT 10SM SCT011 BKN018 07/05 A2989 RMK AO2 T00720050=
202401030753 METAR KCLM 030753Z AUTO 23007KT 10SM OVC011 07/05 A2988 RMK AO2 SLP121 T00670050 400830050=
202401030701 SPECI KCLM 030701Z AUTO 27004KT 10SM BKN013 06/04 A2989 RMK AO2 T00560039=
202401030653 METAR KCLM 030653Z AUTO 00000KT 10SM SCT013 06/03 A2988 RMK AO2 SLP120 T00560033=
202401030553 METAR KCLM 030553Z AUTO 00000KT 10SM CLR 07/04 A2986 RMK AO2 SLP115 T00670044 10078 20061 53007=
202401030453 METAR KCLM 030453Z AUTO 21005KT 10SM BKN070 07/04 A2985 RMK AO2 SLP111 T00720044=
202401030353 METAR KCLM 030353Z AUTO 23004KT 10SM FEW060 07/04 A2985 RMK AO2 SLP111 T00670044=
202401030253 METAR KCLM 030253Z AUTO 00000KT 10SM BKN090 BKN110 07/04 A2984 RMK AO2 SLP108 T00670044 53002=
202401030153 METAR KCLM 030153Z AUTO 00000KT 10SM BKN100 07/04 A2983 RMK AO2 SLP105 T00670039=
202401030053 METAR KCLM 030053Z AUTO 22004KT 10SM SCT095 OVC120 07/04 A2984 RMK AO2 SLP107 T00720044=
202401022353 METAR KCLM 022353Z AUTO 00000KT 10SM OVC085 08/04 A2984 RMK AO2 SLP106 T00780044 10083 20067 55009=
202401022253 METAR KCLM 022253Z AUTO 00000KT 10SM BKN080 OVC100 08/04 A2983 RMK AO2 SLP102 T00830039=
202401022153 METAR KCLM 022153Z AUTO 17003KT 10SM SCT070 OVC090 08/04 A2984 RMK AO2 SLP108 T00780044=
202401022053 METAR KCLM 022053Z AUTO 26004KT 10SM OVC090 08/04 A2986 RMK AO2 SLP115 T00780039 58027=
202401021953 METAR KCLM 021953Z AUTO 19004KT 10SM BKN065 OVC100 08/04 A2989 RMK AO2 SLP122 T00780039=
202401021853 METAR KCLM 021853Z AUTO 24003KT 10SM BKN070 07/04 A2993 RMK AO2 SLP136 T00720039=
202401021753 METAR KCLM 021753Z AUTO 25003KT 10SM BKN065 BKN090 07/04 A2995 RMK AO2 SLP142 T00670039 10067 20056 58008=
202401021653 METAR KCLM 021653Z AUTO 25006KT 10SM OVC065 06/03 A2997 RMK AO2 SLP149 T00610033=
202401021553 METAR KCLM 021553Z AUTO 26003KT 10SM BKN080 OVC100 06/03 A2996 RMK AO2 SLP147 T00560033=
202401021453 METAR KCLM 021453Z AUTO 00000KT 10SM OVC095 06/03 A2997 RMK AO2 SLP150 T00560033 56018=
202401021409 SPECI KCLM 021409Z AUTO 00000KT 10SM SCT017 OVC095 06/04 A2997 RMK AO2 T00610039=
202401021353 METAR KCLM 021353Z AUTO 17003KT 10SM BKN016 OVC100 06/03 A2998 RMK AO2 SLP153 T00610033=
202401021343 SPECI KCLM 021343Z AUTO 14003KT 10SM OVC016 06/04 A2998 RMK AO2 T00610039=
202401021253 METAR KCLM 021253Z AUTO 14003KT 10SM OVC012 06/04 A3000 RMK AO2 SLP160 T00610039=
202401021153 METAR KCLM 021153Z AUTO 00000KT 10SM OVC012 06/03 A3002 RMK AO2 SLP168 T00560033 10067 20044 58020=
202401021053 METAR KCLM 021053Z AUTO 00000KT 10SM OVC011 06/03 A3005 RMK AO2 SLP177 T00560033=
202401020953 METAR KCLM 020953Z AUTO 22003KT 10SM OVC011 06/03 A3007 RMK AO2 SLP186 T00560033=
202401020853 METAR KCLM 020853Z AUTO 00000KT 10SM OVC010 06/03 A3008 RMK AO2 SLP188 T00610033 58009=
202401020800 SPECI KCLM 020800Z AUTO 19003KT 10SM OVC014 06/03 A3010 RMK AO2 T00610033=
202401020753 METAR KCLM 020753Z AUTO 19004KT 10SM OVC016 06/03 A3010 RMK AO2 SLP195 T00610033 400890028=
202401020731 SPECI KCLM 020731Z AUTO 00000KT 10SM BKN015 05/03 A3010 RMK AO2 T00500028=
202401020653 METAR KCLM 020653Z AUTO 13003KT 10SM BKN013 04/03 A3011 RMK AO2 SLP197 T00440028=
202401020553 METAR KCLM 020553Z AUTO 11003KT 10SM SCT011 05/03 A3011 RMK AO2 SLP198 T00500028 10072 20039 55012=
202401020551 SPECI KCLM 020551Z AUTO 10003KT 10SM SCT011 05/03 A3011 RMK AO2=
202401020516 SPECI KCLM 020516Z AUTO 10003KT 10SM BKN011 06/03 A3012 RMK AO2 T00560033=
202401020453 METAR KCLM 020453Z AUTO 10005KT 10SM CLR 06/03 A3012 RMK AO2 SLP202 T00560028=
202401020353 METAR KCLM 020353Z AUTO 12003KT 9SM CLR 04/03 A3015 RMK AO2 SLP210 T00440028=
202401020253 METAR KCLM 020253Z AUTO 00000KT 10SM CLR 04/03 A3016 RMK AO2 SLP215 T00440028 58011=
202401020153 METAR KCLM 020153Z AUTO 00000KT 10SM CLR 05/03 A3017 RMK AO2 SLP218 T00500028=
202401020053 METAR KCLM 020053Z AUTO 17003KT 10SM CLR 06/02 A3019 RMK AO2 SLP225 T00560022=
202401012353 METAR KCLM 012353Z AUTO 25003KT 10SM SCT013 07/03 A3019 RMK AO2 SLP227 T00670028 10089 20056 58002=
202401012307 SPECI KCLM 012307Z AUTO 00000KT 10SM OVC013 07/03 A3020 RMK AO2 T00720028=
202401012253 METAR KCLM 012253Z AUTO 00000KT 10SM OVC015 07/03 A3019 RMK AO2 SLP227 T00720033=
202401012153 METAR KCLM 012153Z AUTO 09004KT 10SM OVC018 08/03 A3020 RMK AO2 SLP228 T00780033=
202401012137 SPECI KCLM 012137Z AUTO 08005KT 10SM SCT013 OVC020 07/03 A3020 RMK AO2 T00720033=
202401012102 SPECI KCLM 012102Z AUTO 07005KT 10SM BKN010 BKN022 08/03 A3020 RMK AO2 T00780033=
202401012053 METAR KCLM 012053Z AUTO 09004KT 10SM SCT009 BKN023 08/04 A3020 RMK AO2 SLP228 T00780039 58010=
202401012045 SPECI KCLM 012045Z AUTO 08005KT 10SM FEW009 SCT023 08/04 A3020 RMK AO2 T00780039=
202401011953 METAR KCLM 011953Z AUTO 08006KT 10SM FEW024 08/03 A3021 RMK AO2 SLP232 T00830033=
202401011943 SPECI KCLM 011943Z AUTO 09005KT 10SM FEW024 08/03 A3022 RMK AO2 T00830033=
202401011853 METAR KCLM 011853Z AUTO 00000KT 10SM OVC025 08/03 A3023 RMK AO2 SLP238 T00830028=
202401011753 METAR KCLM 011753Z AUTO 00000KT 10SM OVC020 06/03 A3023 RMK AO2 SLP238 T00560028 10061 20028 53010=
202401011653 METAR KCLM 011653Z AUTO 22005KT 10SM BKN024 03/02 A3022 RMK AO2 SLP236 T00330017=
202401011553 METAR KCLM 011553Z AUTO 00000KT 10SM FEW006 SCT013 04/01 A3020 RMK AO2 SLP229 T00390011=
202401011550 SPECI KCLM 011550Z AUTO 00000KT 10SM SCT006 BKN013 04/02 A3020 RMK AO2=
202401011453 METAR KCLM 011453Z AUTO 00000KT 10SM OVC008 05/03 A3020 RMK AO2 CIG 006V011 SLP230 T00500028 55004=
202401011353 METAR KCLM 011353Z AUTO 24003KT 10SM OVC006 06/03 A3020 RMK AO2 SLP229 T00560028=
202401011253 METAR KCLM 011253Z AUTO 12003KT 10SM BKN006 OVC023 06/04 A3019 RMK AO2 CIG 005V011 SLP224 T00610039=
202401011246 SPECI KCLM 011246Z AUTO 00000KT 10SM BKN008 OVC023 05/03 A3019 RMK AO2 T00500033=
202401011211 SPECI KCLM 011211Z AUTO 00000KT 10SM BKN010 BKN014 OVC024 06/03 A3020 RMK AO2 CIG 009V012 T00560033=
202401011153 METAR KCLM 011153Z AUTO 00000KT 10SM OVC009 06/03 A3021 RMK AO2 CIG 009V012 SLP234 T00560033 10067 20039 58002=
202401011142 SPECI KCLM 011142Z AUTO 00000KT 10SM OVC009 06/04 A3022 RMK AO2 T00560039=
202401011053 METAR KCLM 011053Z AUTO 22005KT 10SM OVC013 05/03 A3023 RMK AO2 SLP239 T00500033=
202401010953 METAR KCLM 010953Z AUTO 00000KT 10SM OVC011 05/03 A3023 RMK AO2 SLP239 T00500033=
202401010910 SPECI KCLM 010910Z AUTO 00000KT 7SM OVC010 04/03 A3022 RMK AO2 CIG 009V013 T00440033=
202401010853 METAR KCLM 010853Z AUTO 24003KT 10SM OVC009 05/03 A3022 RMK AO2 SLP236 T00500033 53003=
202401010841 SPECI KCLM 010841Z AUTO 00000KT 7SM BKN009 04/03 A3021 RMK AO2 T00440028=
202401010834 SPECI KCLM 010834Z AUTO 23004KT 2 1/2SM BR BKN009 04/02 A3021 RMK AO2 T00390022=
202401010804 SPECI KCLM 010804Z AUTO 15003KT 10SM SCT006 05/03 A3020 RMK AO2 T00500033=
202401010753 METAR KCLM 010753Z AUTO 00000KT 10SM BKN006 06/03 A3021 RMK AO2 SLP231 T00560033 401000017=
202401010653 METAR KCLM 010653Z AUTO 12003KT 10SM OVC007 06/04 A3020 RMK AO2 SLP229 T00610039=
202401010553 METAR KCLM 010553Z AUTO 16004KT 10SM OVC007 06/04 A3021 RMK AO2 SLP232 T00610039 10072 20017 53003=
202401010453 METAR KCLM 010453Z AUTO 16003KT 8SM OVC006 03/02 A3021 RMK AO2 SLP231 T00330022=
202401010425 SPECI KCLM 010425Z AUTO 00000KT 6SM BR BKN007 03/01 A3021 RMK AO2 T00280011=
202401010416 SPECI KCLM 010416Z AUTO 21003KT 7SM SCT005 02/01 A3021 RMK AO2 T00220011=
202401010408 SPECI KCLM 010408Z AUTO 00000KT 4SM BR CLR 02/01 A3021 RMK AO2 T00220006=
202401010403 SPECI KCLM 010403Z AUTO 00000KT 1 1/2SM BR CLR 02/01 A3021 RMK AO2 T00170006=
202401010353 METAR KCLM 010353Z AUTO 00000KT 2 1/2SM BR CLR 02/01 A3021 RMK AO2 VIS 1V5 SLP232 T00220006=
202401010253 METAR KCLM 010253Z AUTO 00000KT 4SM BR CLR 04/02 A3020 RMK AO2 SLP230 T00390022 51006=
202401010236 SPECI KCLM 010236Z AUTO 00000KT 4SM BR FEW001 04/03 A3020 RMK AO2 T00440028=
202401010233 SPECI KCLM 010233Z AUTO 00000KT 1 1/4SM BR FEW001 04/03 A3021 RMK AO2 T00440028=
202401010222 SPECI KCLM 010222Z AUTO 00000KT 1/2SM FG VV001 04/03 A3020 RMK AO2 T00440028=
202401010215 SPECI KCLM 010215Z AUTO 00000KT 1SM BR VV001 04/03 A3020 RMK AO2 VIS 1/2V5 T00440028=
202401010208 SPECI KCLM 010208Z AUTO 00000KT 3/4SM BR CLR 04/03 A3020 RMK AO2 T00440028=
202401010158 SPECI KCLM 010158Z AUTO 00000KT 1 1/2SM BR CLR 04/03 A3020 RMK AO2 T00440028=
202401010153 METAR KCLM 010153Z AUTO 00000KT 3SM BR CLR 05/03 A3020 RMK AO2 SLP229 T00500028=
202401010141 SPECI KCLM 010141Z AUTO 00000KT 1 3/4SM BR CLR 04/02 A3020 RMK AO2 T00390022=
202401010053 METAR KCLM 010053Z AUTO 00000KT 9SM CLR 06/04 A3020 RMK AO2 SLP227 T00610039=

# No short TAF reports from KCLM in databse.

###################################
#  large TAF from KCLM
###################################
202401312321 TAF KCLM 312321Z 0100/0124 00000KT P6SM VCSH BKN011 OVC070 FM010500
                       VRB03KT P6SM VCSH SCT025 BKN035 OVC050 FM011200
                       20004KT P6SM VCSH OVC050=
202401311721 TAF KCLM 311721Z 3118/0118 10004KT P6SM -RA OVC070 FM312100 VRB04KT
                       P6SM -RA OVC030 FM010500 VRB03KT P6SM -SHRA
                       SCT025 BKN035 OVC050 FM011200 20004KT P6SM
                       VCSH OVC050=
202401311135 TAF KCLM 311135Z 3112/0112 VRB04KT P6SM -RA OVC050 FM311500 10004KT
                       P6SM -RA OVC040 FM312100 VRB04KT P6SM -RA
                       OVC030 FM010400 VRB03KT P6SM -SHRA BKN035
                       OVC050=
202401310520 TAF KCLM 310520Z 3106/0106 16003KT P6SM VCSH BKN060 OVC100 FM310900
                       12006KT P6SM -RA OVC050 FM311500 10010G18KT
                       P6SM -RA OVC040 FM312100 12005KT P6SM -RA
                       OVC035=
202401302331 TAF KCLM 302331Z 3100/3124 11004KT P6SM BKN060
                      TEMPO 3100/3102 BKN003 FM310900 12006KT P6SM
                       VCSH OVC050 FM311200 08008KT P6SM -RA OVC050
                       FM311500 10010G18KT P6SM -RA OVC050 FM312100
                       12005KT P6SM -RA OVC035=
202401301733 TAF KCLM 301733Z 3018/3118 22005KT P6SM OVC100 FM310000 11004KT
                       P6SM BKN060 FM310900 12006KT P6SM VCSH OVC050
                       FM311200 08008KT P6SM -RA OVC050=
202401301123 TAF KCLM 301123Z 3012/3112 00000KT P6SM OVC070 FM301800 12003KT
                       P6SM SCT060 BKN100 OVC200 FM310900 12002KT
                       P6SM VCSH OVC050=
202401300539 TAF KCLM 300539Z 3006/3106 07006KT P6SM -SHRA BKN050 OVC100
                      TEMPO 3007/3011 4SM -SHRA FM301300 VRB03KT
                       P6SM BKN060 OVC100 FM301800 VRB03KT P6SM
                       SCT060 BKN100 OVC200=
202401292320 TAF KCLM 292320Z 3000/3024 VRB05KT P6SM VCSH BKN050 FM300400 VRB04KT
                       P6SM -SHRA OVC035 FM301100 16005KT P6SM
                       OVC015 FM302100 09005KT P6SM -SHRA OVC025=
202401291736 TAF KCLM 291736Z 2918/3018 VRB03KT P6SM BKN090 OVC250 FM300000
                       11006KT P6SM VCSH BKN050 FM300400 VRB04KT
                       P6SM -SHRA OVC035 FM301000 16005KT P6SM
                       OVC015=
202401291135 TAF KCLM 291135Z 2912/3012 00000KT P6SM FEW002 OVC070
                      TEMPO 2912/2916 OVC004 FM291800 00000KT P6SM
                       BKN070 OVC250 FM300300 22006KT P6SM -RA
                       OVC050 FM300900 24004KT P6SM OVC015=
202401290945 KCLM 290945Z 2910/3006 29003KT 2SM BR FEW002 OVC070
                      TEMPO 2910/2914 OVC004 FM291400 15002KT 1/4SM
                       FG OVC004 FM292100 00000KT 1 1/2SM BR OVC004
                       FM300100 11006KT P6SM OVC045=
202401290704 KCLM 290704Z 2907/3006 23003KT P6SM OVC070 FM290800 00000KT P6SM
                       SCT040 BKN070 OVC120 FM300100 11006KT P6SM
                       OVC045=
202401290535 TAF KCLM 290535Z 2906/3006 00000KT 1/2SM FG VV002 FM290800 00000KT
                       P6SM SCT040 BKN070 OVC120 FM300100 11006KT
                       P6SM OVC045=
202401282341 TAF KCLM 282341Z 2900/2924 00000KT 1/4SM FG VV001 FM290600 00000KT
                       P6SM SCT005 BKN040 OVC070 FM291500 00000KT
                       P6SM SCT040 BKN070 OVC120=
202401282304 KCLM 282304Z 2823/2918 00000KT 1/4SM FG VV001 FM290600 00000KT
                       P6SM OVC050=
202401281720 TAF KCLM 281720Z 2818/2918 00000KT 1SM BR VV001 FM282300 00000KT
                       5SM BR OVC004 FM290600 00000KT P6SM OVC050=
202401281413 KCLM 281413Z 2814/2912 11005KT P6SM VCSH FEW015 BKN060 OVC080
                      TEMPO 2814/2815 3SM -RA SCT015 FM281500 00000KT
                       P6SM BKN060 OVC080 FM282300 00000KT P6SM
                       SCT020 OVC050 FM290600 00000KT P6SM OVC050=
202401281302 KCLM 281302Z 2813/2912 00000KT 4SM -RA BR FEW008 OVC015 FM281400
                       00000KT 2SM BR OVC004 FM282300 00000KT P6SM
                       SCT020 OVC050 FM290600 00000KT P6SM OVC050=
202401281226 KCLM 281226Z 2812/2912 00000KT 6SM -RA BR OVC012 FM281600 00000KT
                       2SM BR OVC004 FM282300 00000KT P6SM SCT020
                       OVC050 FM290600 00000KT P6SM OVC050=
202401281120 TAF KCLM 281120Z 2812/2912 00000KT 2SM -RA BR FEW015 BKN045 OVC080
                       FM281600 00000KT 2SM BR OVC004 FM282300
                       00000KT P6SM SCT020 OVC050 FM290600 00000KT
                       P6SM OVC050=
202401280542 TAF KCLM 280542Z 2806/2906 VRB03KT P6SM -RA SCT010 OVC050 FM280900
                       00000KT 4SM -RA BR OVC008 FM281600 00000KT
                       2SM BR OVC004 FM282300 00000KT P6SM SCT020
                       OVC050=
202401280418 KCLM 280418Z 2804/2824 VRB03KT 4SM -RA SCT010 OVC045 FM280900 00000KT
                       4SM -RA BR OVC008 FM281800 VRB03KT P6SM
                       SCT010 BKN040 OVC060=
202401272320 TAF KCLM 272320Z 2800/2824 VRB03KT 1/4SM FG OVC002 FM280300 00000KT
                       4SM -RA BR OVC004 FM280900 VRB03KT 4SM -RA
                       BR OVC007=
202401271720 TAF KCLM 271720Z 2718/2818 29005KT 1/4SM FG BKN003 OVC100 FM272200
                       VRB03KT 4SM -RA BR OVC015 FM280900 VRB03KT
                       4SM -RA BR OVC007=
202401271131 TAF KCLM 271131Z 2712/2812 VRB03KT 3SM BR OVC004 FM271600 VRB03KT
                       4SM -RA SCT007 BKN015 OVC025 FM272200 VRB03KT
                       P6SM OVC015 FM280900 VRB03KT 4SM -RA BR
                       OVC007=
202401270540 TAF KCLM 270540Z 2706/2806 VRB03KT P6SM SCT008 OVC045
                      TEMPO 2706/2710 BKN008 OVC045 FM271600 VRB03KT
                       4SM -RA SCT010 BKN020 OVC035 FM272200 VRB03KT
                       P6SM SCT025 OVC040=
202401262331 TAF KCLM 262331Z 2700/2724 24004KT P6SM -SHRA BKN100 FM270300 VRB03KT
                       5SM -RA BR SCT008 OVC015 FM270700 00000KT
                       P6SM OVC020 FM271100 00000KT P6SM -SHRA
                       OVC025 FM272200 16002KT 5SM BR OVC008=
202401261943 KCLM 261943Z 2620/2718 22006KT P6SM SCT005 FM262200 08003KT P6SM
                       -SHRA OVC045 FM270300 VRB03KT 5SM -RA BR
                       OVC015 FM270600 00000KT P6SM OVC020 FM271100
                       00000KT P6SM -SHRA OVC025=
202401261902 KCLM 261902Z 2619/2718 11002KT P6SM OVC002 FM262000 08003KT P6SM
                       -SHRA OVC045 FM270300 VRB03KT 5SM -RA BR
                       OVC015 FM270600 00000KT P6SM OVC020 FM271100
                       00000KT P6SM -SHRA OVC025=
202401261842 KCLM 261842Z 2619/2718 11002KT 3SM BR OVC002 FM262000 08003KT P6SM
                       -SHRA OVC045 FM270300 VRB03KT 5SM -RA BR
                       OVC015 FM270600 00000KT P6SM OVC020 FM271100
                       00000KT P6SM -SHRA OVC025=
202401261824 KCLM 261824Z 2618/2718 11002KT 3/4SM BR OVC002 FM262100 08003KT
                       P6SM -SHRA OVC045 FM270300 VRB03KT 5SM -RA
                       BR OVC015 FM270600 00000KT P6SM OVC020 FM271100
                       00000KT P6SM -SHRA OVC025=
202401261739 TAF KCLM 261739Z 2618/2718 11002KT 1/4SM FG VV002 FM262100 08003KT
                       P6SM -SHRA OVC045 FM270300 VRB03KT 5SM -RA
                       BR OVC015 FM270600 00000KT P6SM OVC020 FM271100
                       00000KT P6SM -SHRA OVC025=
202401261556 KCLM 261556Z 2616/2712 00000KT 2SM BR OVC002 FM261800 12003KT P6SM
                       -SHRA OVC050 FM262100 08003KT 5SM -RA OVC035
                       FM270300 VRB03KT 5SM -RA OVC025=
202401261532 KCLM 261532Z 2616/2712 00000KT P6SM SCT004 OVC090
                      TEMPO 2616/2618 2SM BR BKN001 FM261800 12003KT
                       P6SM -SHRA OVC050 FM262100 08003KT 5SM -RA
                       OVC035 FM270300 VRB03KT 5SM -RA OVC025=
202401261430 KCLM 261430Z 2615/2712 00000KT P6SM SCT004 OVC090 FM261800 12003KT
                       P6SM -SHRA OVC050 FM262100 08003KT 5SM -RA
                       OVC035 FM270300 VRB03KT 5SM -RA OVC025=
202401261120 TAF KCLM 261120Z 2612/2712 00000KT P6SM OVC003 FM261800 12003KT
                       P6SM -SHRA OVC050 FM262100 08003KT 5SM -RA
                       OVC035 FM270300 VRB03KT 5SM -RA OVC025=
202401260521 TAF KCLM 260521Z 2606/2706 18002KT 1SM BR OVC035 FM261200 20003KT
                       P6SM OVC040 FM261800 12003KT P6SM -SHRA
                       OVC050 FM262100 08003KT 5SM -RA OVC050=
202401252326 TAF KCLM 252326Z 2600/2624 VRB05KT P6SM VCSH OVC060 FM260300 18002KT
                       P6SM OVC030 FM261200 20003KT P6SM OVC040
                       FM261800 12003KT P6SM -SHRA OVC050=
202401251729 TAF KCLM 251729Z 2518/2618 VRB02KT P6SM -SHRA SCT025 OVC035 FM252000
                       VRB05KT 6SM -SHRA BR OVC025 FM260300 16002KT
                       P6SM OVC020 FM260900 22003KT P6SM OVC040=
202401251643 KCLM 251643Z 2517/2612 21003KT P6SM -SHRA OVC035 FM252000 VRB05KT
                       6SM -SHRA OVC025 FM260300 19003KT P6SM OVC015
                       FM260900 22003KT P6SM OVC035=
202401251526 KCLM 251526Z 2515/2612 21003KT P6SM -SHRA OVC035
                      TEMPO 2515/2518 1/2SM FG VV002 FM252000 VRB05KT
                       6SM -SHRA OVC025 FM260300 19003KT P6SM OVC015
                       FM260900 22003KT P6SM OVC035=
202401251520 KCLM 251520Z 2515/2612 21003KT P6SM -SHRA OVC035
                      TEMPO 2515/2518 1SM BR SCT007 FM252000 VRB05KT
                       6SM -SHRA OVC025 FM260300 19003KT P6SM OVC015
                       FM260900 22003KT P6SM OVC035=
202401251120 TAF KCLM 251120Z 2512/2612 VRB03KT P6SM VCSH OVC070 FM251500 21003KT
                       P6SM -SHRA OVC035 FM252000 VRB05KT 6SM -SHRA
                       OVC025 FM260300 19003KT P6SM OVC015 FM260900
                       22003KT P6SM OVC035=
202401250539 TAF KCLM 250539Z 2506/2606 17005KT P6SM OVC080 FM251200 22004KT
                       P6SM -SHRA OVC025 FM252000 VRB05KT 6SM -SHRA
                       OVC015 FM260300 19003KT P6SM OVC015=
202401242331 TAF KCLM 242331Z 2500/2524 VRB04KT P6SM VCSH OVC040 FM250400 17005KT
                       P6SM VCSH OVC035 FM251200 22004KT P6SM -RA
                       OVC025 FM251600 VRB05KT 6SM -RA OVC015=
202401241725 TAF KCLM 241725Z 2418/2518 09003KT P6SM VCSH BKN050 OVC080 FM242000
                       VRB04KT P6SM VCSH OVC040 FM250400 17005KT
                       P6SM VCSH OVC035 FM251000 22004KT P6SM -RA
                       OVC025=
202401241445 KCLM 241445Z 2415/2512 09003KT P6SM VCSH OVC008 FM242000 VRB04KT
                       P6SM VCSH OVC020=
202401241120 TAF KCLM 241120Z 2412/2512 VRB02KT P6SM OVC015 FM241400 09003KT
                       P6SM VCSH OVC015 FM242000 VRB04KT P6SM VCSH
                       OVC020=
202401240604 TAF AMD KCLM 240604Z 2406/2506 21003KT P6SM SCT007 BKN013 OVC025
                       TEMPO 2406/2410 1 1/2SM BR SCT001 FM241000
                       14003KT P6SM OVC015 FM241400 09003KT P6SM
                       VCSH OVC015 FM242000 VRB04KT P6SM VCSH OVC020=
202401240521 TAF KCLM 240521Z 2406/2506 21003KT P6SM SCT007 BKN013 OVC025 FM241000
                       14003KT P6SM OVC015 FM241400 09003KT P6SM
                       VCSH OVC015 FM242000 VRB04KT P6SM VCSH OVC020=
202401240335 KCLM 240335Z 2404/2424 00000KT 2SM BR OVC010 FM241000 14003KT P6SM
                       VCSH OVC040 FM241400 09003KT 5SM -RA BR
                       OVC025=
202401232324 TAF KCLM 232324Z 2400/2424 VRB03KT P6SM BKN009 OVC015 FM240200
                       22003KT P6SM SCT020 OVC050 FM241000 14003KT
                       P6SM VCSH OVC040 FM241400 09003KT 5SM -RA
                       BR OVC025=
202401231729 TAF KCLM 231729Z 2318/2418 27005KT P6SM SCT015 BKN050 FM232200
                       VRB03KT P6SM SCT020 OVC050 FM241000 14003KT
                       P6SM VCSH OVC040 FM241400 09003KT 5SM -RA
                       BR OVC025=
202401231454 KCLM 231454Z 2315/2412 27005KT P6SM FEW001 SCT060 BKN110
                      TEMPO 2315/2317 2SM BR FM232200 VRB03KT P6SM
                       SCT020 OVC050 FM241000 14003KT P6SM VCSH
                       OVC025=
202401231134 TAF KCLM 231134Z 2312/2412 VRB03KT 6SM BR VCSH FEW001 OVC060 FM231500
                       27005KT P6SM VCSH BKN020 OVC035 FM232200
                       VRB03KT P6SM SCT020 OVC050 FM241000 14003KT
                       P6SM VCSH OVC025=
202401230521 TAF KCLM 230521Z 2306/2406 23003KT P6SM VCSH SCT020 OVC040
                      TEMPO 2306/2308 3SM BR OVC025 FM230800 VRB03KT
                       P6SM VCSH OVC020 FM231700 27005KT P6SM VCSH
                       BKN020 OVC035 FM232200 VRB03KT P6SM SCT020
                       OVC050=
202401230254 KCLM 230254Z 2303/2324 20003KT P6SM VCSH OVC025
                      TEMPO 2303/2307 2SM BR OVC040 FM231000 23003KT
                       P6SM VCSH OVC010 FM231700 24003KT P6SM VCSH
                       OVC007=
202401230039 KCLM 230039Z 2301/2324 VRB04KT P6SM VCSH SCT015 BKN040 FM230300
                       20003KT P6SM VCSH OVC025 FM231000 23003KT
                       P6SM VCSH OVC010 FM231700 24003KT P6SM VCSH
                       OVC007=
202401222333 TAF KCLM 222333Z 2300/2324 VRB04KT P6SM VCSH OVC005 FM230300 20003KT
                       P6SM VCSH BKN006 OVC010 FM231000 23003KT
                       P6SM VCSH OVC010 FM231700 24003KT P6SM VCSH
                       OVC007=
202401221722 TAF KCLM 221722Z 2218/2318 VRB03KT 6SM BR VCSH SCT006 BKN010 OVC020
                       FM222100 VRB04KT 6SM -RA BR OVC009 FM230300
                       20003KT 4SM BR VCSH BKN006 OVC010 FM231000
                       23003KT 6SM -RA BR OVC025=
202401221123 TAF KCLM 221123Z 2212/2312 VRB02KT P6SM -RA SCT006 OVC040 FM221300
                       11003KT 6SM -RA BR FEW006 BKN025 OVC035
                       FM221700 VRB03KT 6SM BR VCSH SCT006 BKN010
                       OVC020 FM230300 20003KT 4SM BR VCSH BKN006
                       OVC010=
202401220528 TAF KCLM 220528Z 2206/2306 VRB02KT P6SM -RA SCT006 OVC040 FM221200
                       07003KT 6SM -RA BR FEW006 BKN025 OVC035
                       FM221700 VRB03KT 6SM BR VCSH SCT006 BKN010
                       OVC020=
202401220200 KCLM 220200Z 2202/2224 VRB03KT P6SM VCSH BKN007 OVC015
                      TEMPO 2202/2204 OVC004 FM220400 VRB02KT P6SM
                       VCSH OVC007 FM221800 26003KT 4SM -RA BR
                       OVC007=
202401212320 TAF KCLM 212320Z 2200/2224 25005KT P6SM VCSH SCT007 SCT070 BKN090
                       TEMPO 2200/2204 BKN007 FM220400 14002KT
                       P6SM VCSH OVC007 FM221800 26003KT 4SM -RA
                       BR OVC007=
202401211727 TAF KCLM 211727Z 2118/2218 00000KT P6SM OVC009 FM212100 12003KT
                       4SM -RA BR OVC007 FM220000 VRB03KT P6SM
                       -RA OVC015=
202401211122 TAF KCLM 211122Z 2112/2212 VRB03KT P6SM VCSH OVC005 FM211500 23004KT
                       P6SM -RA OVC010 FM212100 12003KT 4SM -RA
                       BR OVC015 FM220100 VRB03KT P6SM -RA OVC020=
202401211005 KCLM 211005Z 2110/2206 VRB03KT P6SM VCSH OVC005 FM212100 12003KT
                       4SM -RA BR OVC015=
202401210524 TAF KCLM 210524Z 2106/2206 13004KT P6SM OVC015 FM210800 VRB03KT
                       P6SM VCSH OVC025 FM212100 12003KT 4SM -RA
                       BR OVC015=
202401202320 TAF KCLM 202320Z 2100/2124 13004KT P6SM OVC013 FM211200 12003KT
                       4SM BR VCSH OVC015=
202401201720 TAF KCLM 201720Z 2018/2118 09003KT P6SM OVC008 FM210000 10002KT
                       P6SM OVC015 FM210600 15002KT P6SM OVC015
                       FM210900 00000KT 4SM BR OVC015=
202401201120 TAF KCLM 201120Z 2012/2112 VRB04KT P6SM BKN007 FM202000 08005KT
                       P6SM OVC035 FM210400 07005KT P6SM OVC025
                       FM210700 13005KT P6SM -RA OVC020=
202401200534 TAF KCLM 200534Z 2006/2106 VRB04KT P6SM OVC010 FM200900 VRB03KT
                       P6SM OVC008 FM201200 VRB04KT P6SM BKN010
                       FM201400 21003KT P6SM OVC060 FM202000 08005KT
                       P6SM OVC050 FM210400 07005KT P6SM OVC025=
202401192321 TAF KCLM 192321Z 2000/2024 12004KT P6SM BKN010 OVC020 FM200500
                       VRB03KT P6SM OVC025 FM201000 18003KT P6SM
                       OVC040 FM201500 21003KT P6SM OVC050=
202401191727 KCLM 191727Z 1917/2018 VRB04KT P6SM VCSH OVC010 FM200000 12004KT
                       P6SM VCSH OVC025 FM200500 VRB03KT P6SM OVC035
                       FM201200 18003KT P6SM OVC020=
202401191725 TAF KCLM 191725Z 1918/2018 VRB04KT 6SM BR VCSH OVC025 FM200000
                       12004KT 4SM BR VCSH OVC015 FM200500 VRB03KT
                       P6SM OVC025=
202401191157 KCLM 191157Z 1912/2012 VRB03KT P6SM -SHRA OVC010
                      TEMPO 1912/1915 2SM BR FM191500 VRB04KT 6SM
                       BR VCSH OVC025 FM200000 12004KT 4SM BR VCSH
                       OVC015 FM200500 VRB03KT P6SM OVC025=
202401191120 TAF KCLM 191120Z 1912/2012 VRB03KT P6SM -SHRA OVC010 FM191500 VRB04KT
                       6SM BR VCSH OVC025 FM200000 12004KT 4SM
                       BR VCSH OVC015 FM200500 VRB03KT P6SM OVC025=
202401190539 TAF KCLM 190539Z 1906/2006 VRB04KT P6SM OVC006 FM190800 VRB03KT
                       5SM -RA BR OVC015 FM191500 VRB04KT 6SM BR
                       VCSH OVC030 FM200000 16004KT 4SM BR VCSH
                       OVC015=
202401190304 KCLM 190304Z 1903/1924 VRB03KT P6SM OVC005 FM190800 00000KT 5SM
                       -RA BR OVC015 FM191400 11004KT 6SM -RA BR
                       OVC030=
202401190118 KCLM 190118Z 1901/1924 14005KT 2SM -RA BR OVC004 FM190300 VRB03KT
                       4SM -RA BR OVC010 FM190900 00000KT 5SM -RA
                       BR OVC015 FM191400 11004KT 6SM -RA BR OVC030=
202401182336 TAF KCLM 182336Z 1900/1924 16003KT 4SM -RA BR BKN007 OVC015 FM190300
                       VRB03KT 4SM -RA BR OVC010 FM190900 00000KT
                       5SM -RA BR OVC015 FM191400 11004KT 6SM -RA
                       BR OVC030=
202401181737 TAF KCLM 181737Z 1818/1918 12003KT 2SM -SN SCT006 BKN010 FM182100
                       16003KT 2SM -RASN BR BKN007 OVC015 FM190300
                       VRB03KT 4SM -RA BR OVC010 FM190900 00000KT
                       4SM -RA BR OVC010=
202401181125 TAF KCLM 181125Z 1812/1912 11003KT 6SM BR OVC025
                      TEMPO 1816/1818 4SM -RA OVC025 FM181800 12003KT
                       4SM -RA BR OVC025 FM182100 16003KT 2SM -RA
                       BR OVC015 FM190300 VRB03KT 4SM -RA BR OVC010=
202401180534 TAF KCLM 180534Z 1806/1906 00000KT 5SM BR OVC009 FM181200 11003KT
                       4SM BR OVC025
                      TEMPO 1816/1818 4SM -RA OVC025 FM181800 12003KT
                       4SM -RA BR OVC025 FM182100 13003KT 2SM -RA
                       BR OVC015=
202401172329 TAF KCLM 172329Z 1800/1824 VRB05KT P6SM VCSH BKN006 OVC010 FM180300
                       VRB03KT P6SM BKN022 FM181000 21003KT P6SM
                       OVC035 FM181700 16003KT 4SM -SN BR OVC015=
202401171735 TAF KCLM 171735Z 1718/1818 16003KT 1SM -SN OVC003 FM171900 22004KT
                       P6SM -RASN OVC010 FM172100 28008KT P6SM
                       VCSH BKN012 OVC020 FM180300 VRB03KT P6SM
                       BKN022 FM181000 21003KT P6SM OVC035=
202401171132 TAF KCLM 171132Z 1712/1812 VRB03KT P6SM VCSH OVC015 FM171600 16003KT
                       5SM -RA BR OVC011 FM172100 28008KT P6SM
                       VCSH BKN012 OVC020 FM180300 VRB03KT P6SM
                       BKN022=
202401170530 TAF KCLM 170530Z 1706/1806 13005KT P6SM VCSH OVC070 FM170800 VRB03KT
                       6SM -RASN OVC015 FM171500 16003KT 4SM -RA
                       BR OVC010 FM171700 27004KT 4SM -RA BR OVC007
                       FM172100 28010KT P6SM OVC015=
202401162340 TAF KCLM 162340Z 1700/1724 11004KT P6SM OVC060 FM170400 VRB03KT
                       6SM -RASN OVC025 FM170800 VRB03KT 6SM -RASN
                       OVC015 FM171300 08003KT 4SM -RA BR OVC010
                       FM171700 25004KT 4SM -RA BR OVC007=
202401161735 TAF KCLM 161735Z 1618/1718 VRB03KT P6SM BKN200 FM162100 10005KT
                       P6SM BKN120 FM170000 10004KT P6SM OVC060
                       FM170300 VRB03KT 6SM -RASN OVC025 FM170800
                       VRB03KT 6SM -RASN OVC015 FM171300 08003KT
                       4SM -RA BR OVC010=
202401161133 TAF KCLM 161133Z 1612/1712 VRB03KT P6SM BKN200 FM162100 10005KT
                       P6SM BKN120 FM170000 10004KT P6SM OVC060
                       FM170300 VRB03KT 6SM -RASN OVC025 FM170800
                       VRB03KT 6SM -RA OVC014=
202401160531 TAF KCLM 160531Z 1606/1706 13006KT P6SM SCT250 FM161200 VRB03KT
                       P6SM BKN200 FM162100 10005KT P6SM BKN150
                       FM170000 VRB03KT P6SM RASN OVC050=
202401152322 TAF KCLM 152322Z 1600/1624 10006KT P6SM SCT200 FM160300 12005KT
                       P6SM SCT200 FM161200 VRB03KT P6SM BKN200
                       FM162100 11005KT P6SM BKN100=
202401151727 TAF KCLM 151727Z 1518/1618 13004KT P6SM SCT200 FM152100 10006KT
                       P6SM SCT200 FM160200 VRB03KT P6SM SCT200=
202401151132 TAF KCLM 151132Z 1512/1612 VRB03KT P6SM FEW025 SCT200 FM151800
                       08006KT P6SM SCT200 FM160200 VRB03KT P6SM
                       SCT200=
202401150536 TAF KCLM 150536Z 1506/1606 VRB04KT P6SM BKN025 FM151000 13005KT
                       P6SM BKN200 FM151800 08006KT P6SM SCT250
                       FM160200 VRB03KT P6SM SCT150=
202401142334 TAF KCLM 142334Z 1500/1524 VRB04KT P6SM OVC025 FM150800 10005KT
                       P6SM BKN200=
202401141730 TAF KCLM 141730Z 1418/1518 VRB04KT P6SM OVC025 FM150900 06005KT
                       P6SM BKN200=
202401141126 TAF KCLM 141126Z 1412/1512 VRB04KT P6SM SCT200 FM142000 08005KT
                       P6SM BKN200 FM150400 VRB03KT P6SM SCT200=
202401140520 TAF KCLM 140520Z 1406/1506 15007KT P6SM SCT250 FM142000 08006KT
                       P6SM BKN250 FM150200 14004KT P6SM BKN250=
202401132320 TAF KCLM 132320Z 1400/1424 11010KT P6SM FEW025 FM140200 VRB04KT
                       P6SM SCT200 FM141800 15004KT P6SM BKN250=
202401131730 TAF KCLM 131730Z 1318/1418 11007KT P6SM SKC FM132200 09007KT P6SM
                       SCT200 FM140200 VRB04KT P6SM SCT200=
202401131137 TAF KCLM 131137Z 1312/1412 11007KT P6SM SCT200 FM132200 09007KT
                       P6SM SCT200 FM140200 VRB04KT P6SM SCT200=
202401130542 TAF KCLM 130542Z 1306/1406 VRB04KT P6SM SCT250 FM131500 10010KT
                       P6SM SCT250 FM140200 VRB04KT P6SM SKC=
202401122320 TAF KCLM 122320Z 1300/1324 09009KT P6SM SCT050 SCT250 FM130300
                       13007KT P6SM SCT250 FM130700 11004KT P6SM
                       BKN250 FM132000 09007KT P6SM SCT250=
202401121727 TAF KCLM 121727Z 1218/1318 06007KT P6SM BKN035 OVC050 FM122100
                       09009KT P6SM SCT050 SCT250 FM130300 13007KT
                       P6SM SCT250 FM130700 VRB04KT P6SM BKN250=
202401121121 TAF KCLM 121121Z 1212/1312 05010G20KT P6SM OVC050 FM121600 07010KT
                       P6SM SCT030 BKN120 FM130300 13007KT P6SM
                       SCT150 FM130700 11004KT P6SM BKN250=
202401120541 TAF KCLM 120541Z 1206/1306 10004KT 5SM -SN BR BKN015 OVC025
                      TEMPO 1206/1208 10004KT 1SM -SN BR BKN008
                       OVC012 FM121000 05008KT P6SM SCT020 OVC035
                       FM121600 07008KT P6SM SCT030 BKN120 FM130300
                       13005KT P6SM SCT150=
202401120345 KCLM 120345Z 1204/1224 05006KT 2SM -SN BR BKN020 OVC030
                      TEMPO 1204/1206 1/2SM SN OVC009 FM120600
                       05008KT 5SM -SN BR BKN015 OVC025 FM121200
                       06008KT P6SM SCT020 OVC050 FM121800 07008KT
                       P6SM BKN070=
202401120153 KCLM 120153Z 1202/1224 VRB05KT 2SM -SN BR BKN020 OVC030 FM120400
                       05008KT 5SM -SN BR BKN015 OVC025 FM121200
                       06008KT P6SM SCT020 OVC050 FM121800 07008KT
                       P6SM BKN070=
202401112337 TAF KCLM 112337Z 1200/1224 28012G30KT P6SM VCSH BKN060 OVC080 FM120100
                       03011KT 5SM -SN BR BKN020 OVC040 FM120400
                       05010G20KT 5SM -SN BR BKN015 OVC025 FM121200
                       06008KT P6SM SCT020 OVC050 FM121800 07008KT
                       P6SM BKN070=
202401111759 TAF KCLM 111759Z 1118/1218 28017G25KT P6SM VCSH FEW010 BKN040 FM112100
                       03011KT 5SM -SN BR BKN020 OVC040 FM120200
                       05009G19KT 5SM -SN BR BKN015 OVC025 FM121200
                       05008KT P6SM SCT020 OVC050=
202401111135 TAF KCLM 111135Z 1112/1212 26014G22KT P6SM BKN040 FM111500 28017G25KT
                       P6SM VCSH FEW010 BKN040 FM112100 03011KT
                       5SM -SN BR BKN020 OVC040 FM120200 30009G19KT
                       5SM -SNRA BR BKN015 OVC025=
202401110536 TAF KCLM 110536Z 1106/1206 26014G22KT P6SM BKN040 FM111500 28017G25KT
                       P6SM VCSH FEW010 BKN040 FM112200 03011KT
                       5SM -SN BR BKN020 OVC040=
202401102340 TAF KCLM 102340Z 1100/1124 13005KT P6SM VCSH SCT040 FM110300 25007KT
                       P6SM BKN040 FM110900 26014G22KT P6SM BKN050
                       FM111500 26017G25KT P6SM -SHRA SCT020 BKN040
                       FM112200 27015G22KT P6SM -SNRA SCT020 OVC040=
202401101742 TAF KCLM 101742Z 1018/1118 26010KT P6SM VCSH OVC035 FM102100 29010KT
                       P6SM VCSH SCT020 BKN040 FM110300 25004KT
                       P6SM VCSH BKN040 FM110900 26012G20KT P6SM
                       VCSH BKN050 FM111500 26015G22KT P6SM -SHRA
                       SCT020 BKN040=
202401101259 KCLM 101259Z 1013/1112 26012G17KT P6SM -SHRA BKN035 FM101500 25012G22KT
                       P6SM -SHRA BKN025 OVC035 FM102100 29010KT
                       P6SM VCSH SCT020 BKN050 FM110300 24004KT
                       P6SM VCSH BKN040=
202401101129 TAF KCLM 101129Z 1012/1112 26012G17KT P6SM -SHRA OVC025 FM101500
                       25012G22KT P6SM -SHRA BKN025 OVC035 FM102100
                       29010KT P6SM VCSH SCT020 BKN050 FM110300
                       24004KT P6SM VCSH BKN040=
202401100527 TAF KCLM 100527Z 1006/1106 28012KT P6SM VCSH BKN020 OVC030
                      TEMPO 1006/1007 SCT020 FM100700 26012KT 6SM
                       -SHRA OVC025 FM101500 25012KT P6SM -SHRA
                       BKN025 OVC035 FM102100 29010KT P6SM VCSH
                       SCT020 BKN050=
202401092328 TAF KCLM 092328Z 1000/1024 26016G26KT P6SM -RA FEW030 OVC040 FM100700
                       26014G22KT P6SM -RA OVC025 FM101300 25012G18KT
                       P6SM -RA OVC020 FM101900 29010KT P6SM SCT020
                       BKN050=
202401091725 TAF KCLM 091725Z 0918/1018 26020G30KT 6SM -RA OVC035 FM100200 26018G28KT
                       P6SM VCSH OVC030 FM100700 26014G22KT P6SM
                       -RA OVC025 FM101300 25012G18KT P6SM -RA
                       OVC020=
202401091141 TAF KCLM 091141Z 0912/1012 27015G20KT 6SM -SHRA BR SCT025 OVC040
                       FM091700 27030G42KT 5SM -SHRA BR BKN020
                       OVC025 FM100200 26018G28KT P6SM VCSH OVC030
                       FM100700 26012KT P6SM -RA OVC025=
202401090625 KCLM 090625Z 0906/1006 26012G21KT 2SM RA BR OVC035 FM090800 27015G25KT
                       6SM -SHRA BR SCT025 OVC040 FM091500 27030G40KT
                       5SM -SHRA BR BKN020 OVC025 FM100200 26015G22KT
                       P6SM VCSH OVC030=
202401090533 TAF KCLM 090533Z 0906/1006 25015G22KT 5SM -RA BR OVC050 FM090800
                       27015G25KT 6SM -SHRA BR SCT025 OVC040 FM091500
                       27030G40KT 5SM -SHRA BR BKN020 OVC025 FM100200
                       26015G22KT P6SM VCSH OVC030=
202401082320 TAF KCLM 082320Z 0900/0924 00000KT P6SM -RA FEW005 FEW050 OVC060
                       FM090600 27009KT 5SM -RA BR OVC015 FM091000
                       27015G25KT 6SM -SHRA BR BKN025 OVC040 FM091700
                       27030G40KT 5SM -SHRA BR OVC025=
202401081722 TAF KCLM 081722Z 0818/0918 22004KT P6SM -RA OVC040 FM081900 11007KT
                       5SM -RA BR OVC015 FM090600 27009KT 5SM -RA
                       BR OVC015 FM091000 27015G25KT 6SM -SHRA
                       BR BKN025 OVC040 FM091700 27030G40KT 5SM
                       -SHRA BR OVC025=
202401081138 TAF KCLM 081138Z 0812/0912 VRB03KT P6SM -RA OVC030 FM081500 VRB03KT
                       P6SM -RA BKN015 OVC020 FM081900 11007KT
                       5SM -RA BR OVC015 FM090600 27009KT 5SM -RA
                       BR OVC015 FM091000 27015G25KT 6SM -SHRA
                       BR BKN025 OVC040=
202401080525 TAF KCLM 080525Z 0806/0906 20003KT P6SM BKN050 FM081300 09005KT
                       P6SM -RA BKN015 OVC020 FM081600 11007KT
                       P6SM -RA OVC015=
202401072334 TAF KCLM 072334Z 0800/0824 16003KT P6SM SCT025 OVC040 FM080400
                       23005KT P6SM OVC040 FM081300 20004KT P6SM
                       -RA OVC025 FM081600 11006KT P6SM OVC018=
202401071906 KCLM 071906Z 0719/0818 16003KT P6SM SCT025 OVC040 FM080400 23005KT
                       P6SM OVC040 FM081300 20004KT P6SM -RA OVC025
                       FM081600 11006KT P6SM OVC018=
202401071732 TAF KCLM 071732Z 0718/0818 16003KT P6SM OVC025 FM080400 23005KT
                       P6SM OVC035 FM081300 20004KT P6SM -RA OVC025
                       FM081600 11006KT P6SM OVC018=
202401071121 TAF KCLM 071121Z 0712/0812 VRB03KT P6SM BKN030 FM071800 VRB04KT
                       P6SM SCT030 BKN050 FM080400 23005KT P6SM
                       OVC035 FM081100 23004KT P6SM -RA OVC025=
202401070526 TAF KCLM 070526Z 0706/0806 23007KT P6SM BKN050 FM071800 11006KT
                       P6SM SCT030 BKN050 FM072300 VRB03KT P6SM
                       OVC030=
202401062336 TAF KCLM 062336Z 0700/0724 23011KT P6SM BKN035 OVC060 FM070300
                       26007KT P6SM BKN025 FM070900 24006KT P6SM
                       BKN017=
202401061729 TAF KCLM 061729Z 0618/0718 23011KT P6SM SCT040 SCT100 FM070300
                       26007KT P6SM BKN025 FM070900 24006KT P6SM
                       BKN017=
202401061134 TAF KCLM 061134Z 0612/0712 27012G18KT P6SM VCSH BKN035 FM061800
                       28011KT P6SM SCT020 OVC035 FM070300 26007KT
                       P6SM BKN025 FM070900 24006KT P6SM BKN017=
202401060520 TAF KCLM 060520Z 0606/0706 24005KT P6SM -RA OVC035 FM060900 27012G22KT
                       6SM -RA BR OVC025 FM061500 26013G22KT 6SM
                       BR SCT008 OVC020 FM061800 28010KT P6SM SCT020
                       OVC035 FM070300 26007KT P6SM OVC020=
202401052330 TAF KCLM 052330Z 0600/0624 25010KT P6SM -RA SCT025 OVC045 FM060500
                       26010KT P6SM -RA OVC020 FM060900 27012G22KT
                       6SM -RA BR OVC015 FM061500 26013G22KT 6SM
                       BR SCT008 OVC020 FM061800 28010KT P6SM SCT020
                       OVC035=
202401051725 TAF KCLM 051725Z 0518/0618 VRB04KT P6SM OVC100 FM052100 26005KT
                       P6SM BKN040 FM060000 25007KT P6SM -RA OVC025
                       FM060500 26010KT 6SM -RA BR OVC022 FM060900
                       27012G18KT 6SM -RA BR OVC022 FM061500 26013G20KT
                       6SM BR SCT008 OVC020=
202401051135 TAF KCLM 051135Z 0512/0612 VRB04KT P6SM VCSH SCT020 BKN035 FM051900
                       26005KT P6SM BKN040 FM060000 25007KT P6SM
                       -RA OVC025 FM060500 26010KT 6SM -RA BR OVC022
                       FM060900 27012G18KT 6SM -RA BR OVC022=
202401050539 TAF KCLM 050539Z 0506/0606 25010KT P6SM SCT030 FM050800 26008KT
                       P6SM SCT020 OVC030 FM052000 26005KT P6SM
                       -RA BKN020 FM060300 25010KT P6SM -RA OVC025=
202401042336 TAF KCLM 042336Z 0500/0524 27012G20KT P6SM SCT030 FM050800 26010G18KT
                       P6SM -RA BKN025 OVC035 FM051800 26005KT
                       P6SM BKN035=
202401042030 KCLM 042030Z 0421/0518 27012G20KT P6SM OVC030 FM042300 29010G18KT
                       P6SM BKN035 BKN050 FM050500 26009KT P6SM
                       -RA SCT025 BKN035=
202401041818 KCLM 041818Z 0418/0518 27010KT P6SM -RA BKN015 OVC050 FM042300
                       29010G18KT P6SM BKN035 BKN050 FM050500 26009KT
                       P6SM -RA SCT025 BKN035=
202401041728 TAF KCLM 041728Z 0418/0518 27010KT P6SM -RA OVC050 FM042300 29010G18KT
                       P6SM BKN035 BKN050 FM050500 26009KT P6SM
                       -RA SCT025 BKN035=
202401041441 KCLM 041441Z 0415/0512 VRB03KT P6SM VCSH SCT015 OVC030
                      TEMPO 0415/0417 SCT005 BKN012 FM041700 29005KT
                       P6SM VCSH SCT012 OVC025 FM042300 29010G18KT
                       P6SM BKN035 BKN050 FM050500 26009KT P6SM
                       BKN035=
202401041134 TAF KCLM 041134Z 0412/0512 VRB03KT P6SM VCSH SCT022 OVC040 FM041700
                       29005KT P6SM VCSH SCT012 OVC025 FM042300
                       29010G18KT P6SM BKN035 BKN050 FM050500 26009KT
                       P6SM BKN035=
202401040523 TAF KCLM 040523Z 0406/0506 25005KT P6SM SCT020 OVC060 FM040700
                       26006KT P6SM -RA OVC040 FM041200 20002KT
                       P6SM BKN005 OVC015 FM041700 30003KT 5SM
                       BR SCT008 OVC015 FM042300 28007KT P6SM OVC015=
202401032332 TAF KCLM 032332Z 0400/0424 VRB03KT P6SM -RA FEW009 OVC012 FM040400
                       25005KT P6SM SCT020 OVC040 FM040700 26006KT
                       P6SM -RA OVC040 FM041200 20002KT P6SM BKN005
                       OVC015 FM041700 30003KT 5SM BR SCT008 OVC015
                       FM042300 28007KT P6SM OVC015=
202401032102 KCLM 032102Z 0321/0418 VRB05KT P6SM -SHRA OVC012 FM040200 25003KT
                       P6SM SCT020 OVC040 FM040700 26006KT P6SM
                       -RA OVC040 FM041700 25003KT 5SM BR SCT008
                       OVC015=
202401031738 TAF KCLM 031738Z 0318/0418 VRB03KT P6SM OVC010 FM032200 VRB03KT
                       P6SM -SHRA SCT030 OVC050 FM040200 25003KT
                       P6SM SCT020 OVC040 FM040700 26006KT P6SM
                       -RA OVC040 FM041700 25003KT 5SM BR SCT008
                       OVC015=
202401031140 TAF KCLM 031140Z 0312/0412 26004KT P6SM SCT006 OVC012
                      TEMPO 0312/0316 BKN006 OVC012 FM031600 VRB03KT
                       P6SM SCT020 BKN060 OVC100 FM032200 VRB03KT
                       P6SM -RA OVC050 FM040100 26006KT P6SM SCT020
                       OVC040 FM040700 26006KT P6SM OVC015=
202401030920 KCLM 030920Z 0309/0406 26004KT P6SM SCT005 OVC012
                      TEMPO 0309/0313 BKN005 OVC012 FM031600 VRB03KT
                       P6SM SCT020 BKN060 OVC100 FM032000 VRB03KT
                       P6SM OVC020=
202401030532 TAF KCLM 030532Z 0306/0406 15004KT P6SM BKN080 OVC100 FM030800
                       18004KT P6SM OVC035 FM031300 VRB03KT P6SM
                       OVC025 FM032000 VRB04KT P6SM OVC020=
202401022336 TAF KCLM 022336Z 0300/0324 15004KT P6SM BKN080 OVC100 FM030400
                       18004KT P6SM OVC035 FM031300 VRB03KT P6SM
                       OVC025 FM032000 VRB04KT P6SM OVC020=
202401021729 TAF KCLM 021729Z 0218/0318 25006KT P6SM OVC060 FM022100 11004KT
                       P6SM -RA SCT020 OVC040 FM030400 15004KT
                       P6SM SCT030 BKN050 FM031000 VRB03KT P6SM
                       OVC015=
202401021135 TAF KCLM 021135Z 0212/0312 VRB03KT P6SM OVC011 FM022300 11004KT
                       P6SM -SHRA SCT020 OVC040 FM030400 15004KT
                       P6SM SCT030 BKN050 FM031000 VRB03KT P6SM
                       OVC011=
202401020529 TAF KCLM 020529Z 0206/0306 10003KT P6SM BKN010 FM021200 16003KT
                       P6SM OVC060 FM022000 11004KT P6SM -SHRA
                       SCT030 OVC040 FM030000 15004KT P6SM -RA
                       OVC050=
202401012329 TAF KCLM 012329Z 0200/0224 VRB03KT P6SM OVC015 FM020200 15004KT
                       P6SM BKN070 FM021200 16003KT P6SM OVC060
                       FM022000 11004KT P6SM -SHRA SCT030 OVC040=
202401012201 KCLM 012201Z 0122/0218 VRB03KT P6SM OVC020 FM020100 15004KT P6SM
                       BKN250 FM020600 14003KT P6SM OVC100 FM021200
                       16003KT P6SM OVC060=
202401012048 KCLM 012048Z 0121/0218 VRB03KT P6SM FEW009 SCT025 FM020100 15004KT
                       P6SM BKN250 FM020600 14003KT P6SM OVC100
                       FM021200 16003KT P6SM OVC060=
202401011729 TAF KCLM 011729Z 0118/0218 VRB03KT P6SM BKN025 FM020100 15004KT
                       P6SM BKN250 FM020600 14003KT P6SM OVC100
                       FM021200 16003KT P6SM OVC060=
202401011143 TAF KCLM 011143Z 0112/0212 22005KT P6SM OVC015 FM011800 12003KT
                       P6SM OVC020 FM020100 15004KT P6SM BKN250
                       FM020600 14003KT P6SM OVC100=
202401010520 TAF KCLM 010520Z 0106/0206 16004KT 6SM BR OVC006 FM011000 VRB03KT
                       5SM BR OVC008 FM011800 12003KT P6SM OVC020
                       FM020100 00000KT P6SM BKN250=
202401010205 KCLM 010205Z 0102/0124 00000KT 1 1/2SM BR SCT009 FM010300 11004KT
                       1SM BR OVC010 FM011000 VRB03KT 5SM BR OVC008
                       FM011800 12003KT P6SM OVC250=