##########################################################
# Query made at 02/16/2025 06:12:31 UTC
# Time interval: from 05/01/2024 00:00  to 05/31/2024 23:59  UTC
##########################################################

##########################################################
# KCLM, Port Angeles, William R. Fairchild International Airport (United States)
# WMO index: -----. WIGOS ID: Unknown
# Latitude 48-07-20N. Longitude 123-30-19W. Altitude 87 m.
##########################################################

###################################
#  METAR/SPECI from KCLM
###################################
202405312353 METAR KCLM 312353Z AUTO VRB04KT 10SM CLR 17/08 A3009 RMK AO2 SLP189 T01670078 10194 20133 56023=
202405312253 METAR KCLM 312253Z AUTO VRB03KT 10SM CLR 19/06 A3011 RMK AO2 SLP194 T01940061=
202405312153 METAR KCLM 312153Z AUTO 07005KT 10SM CLR 19/06 A3013 RMK AO2 SLP202 T01890061=
202405312053 METAR KCLM 312053Z AUTO VRB04KT 10SM CLR 16/08 A3015 RMK AO2 SLP211 T01610083 58018=
202405311953 METAR KCLM 311953Z AUTO VRB03KT 10SM CLR 17/08 A3017 RMK AO2 SLP217 T01670083=
202405311853 METAR KCLM 311853Z AUTO VRB04KT 10SM CLR 15/08 A3019 RMK AO2 SLP225 T01500083=
202405311753 METAR KCLM 311753Z AUTO VRB03KT 10SM CLR 13/08 A3021 RMK AO2 SLP230 T01330083 10139 20061 58010=
202405311653 METAR KCLM 311653Z AUTO 33005KT 10SM CLR 13/09 A3023 RMK AO2 SLP236 T01280089=
202405311618 SPECI KCLM 311618Z AUTO 35003KT 10SM SCT002 11/09 A3024 RMK AO2 T01060089=
202405311605 SPECI KCLM 311605Z AUTO 34004KT 2 1/2SM BR BKN002 11/08 A3024 RMK AO2 T01060083=
202405311553 METAR KCLM 311553Z AUTO 33004KT 10SM FEW002 11/08 A3024 RMK AO2 SLP241 T01060083=
202405311531 SPECI KCLM 311531Z AUTO VRB04KT 9SM FEW001 11/08 A3024 RMK AO2 T01060083=
202405311453 METAR KCLM 311453Z AUTO 00000KT 10SM CLR 12/06 A3024 RMK AO2 SLP240 T01220056 56005=
202405311353 METAR KCLM 311353Z AUTO 26005KT 10SM CLR 10/06 A3024 RMK AO2 SLP242 T01000056=
202405311253 METAR KCLM 311253Z AUTO 00000KT 10SM CLR 07/04 A3024 RMK AO2 SLP243 T00670039=
202405311153 METAR KCLM 311153Z AUTO 23003KT 10SM CLR 07/04 A3025 RMK AO2 SLP245 T00720044 10100 20072 58011=
202405311053 METAR KCLM 311053Z AUTO 27005KT 10SM CLR 08/05 A3027 RMK AO2 SLP251 T00780050=
202405310953 METAR KCLM 310953Z AUTO 27010KT 10SM CLR 09/06 A3028 RMK AO2 SLP254 T00940056=
202405310853 METAR KCLM 310853Z AUTO 28006KT 10SM CLR 09/06 A3028 RMK AO2 SLP256 T00940061 56012=
202405310753 METAR KCLM 310753Z AUTO 25007KT 10SM CLR 09/06 A3029 RMK AO2 SLP260 T00940061 401500072=
202405310653 METAR KCLM 310653Z AUTO 25007KT 10SM CLR 09/06 A3031 RMK AO2 SLP264 T00940061=
202405310553 METAR KCLM 310553Z AUTO 26005KT 10SM CLR 09/06 A3032 RMK AO2 SLP268 T00890056 10150 20089 58006=
202405310453 METAR KCLM 310453Z AUTO 24005KT 10SM CLR 10/06 A3033 RMK AO2 SLP272 T01000061=
202405310353 METAR KCLM 310353Z AUTO 27006KT 10SM CLR 11/06 A3033 RMK AO2 SLP271 T01110056=
202405310253 METAR KCLM 310253Z AUTO 28008KT 10SM CLR 13/06 A3034 RMK AO2 SLP274 T01280056 58013=
202405310153 METAR KCLM 310153Z AUTO 29009KT 10SM CLR 14/06 A3035 RMK AO2 SLP279 T01390056=
202405310053 METAR KCLM 310053Z AUTO VRB06G14KT 10SM SCT060 15/06 A3036 RMK AO2 SLP283 T01500056=
202405302353 METAR KCLM 302353Z AUTO 29011KT 10SM FEW036 15/05 A3037 RMK AO2 SLP287 T01500050 10150 20128 58008=
202405302253 METAR KCLM 302253Z AUTO 32007KT 10SM CLR 15/07 A3038 RMK AO2 SLP289 T01500067=
202405302153 METAR KCLM 302153Z AUTO 34007KT 10SM CLR 14/06 A3039 RMK AO2 SLP293 T01440061=
202405302053 METAR KCLM 302053Z AUTO VRB05KT 10SM CLR 14/06 A3040 RMK AO2 SLP294 T01440061 58007=
202405301953 METAR KCLM 301953Z AUTO 36007KT 10SM CLR 14/06 A3041 RMK AO2 SLP298 T01390056=
202405301853 METAR KCLM 301853Z AUTO 36007KT 310V040 10SM CLR 13/06 A3042 RMK AO2 SLP301 T01330061=
202405301753 METAR KCLM 301753Z AUTO 32007KT 10SM CLR 13/07 A3042 RMK AO2 SLP302 T01330067 10139 20072 50001=
202405301653 METAR KCLM 301653Z AUTO 33010G18KT 10SM CLR 13/06 A3042 RMK AO2 SLP303 T01280056=
202405301553 METAR KCLM 301553Z AUTO 31008KT 10SM CLR 13/06 A3043 RMK AO2 SLP304 T01280056=
202405301453 METAR KCLM 301453Z AUTO 25007KT 10SM FEW046 12/04 A3042 RMK AO2 SLP301 T01170044 53003=
202405301353 METAR KCLM 301353Z AUTO 24010KT 10SM BKN100 09/04 A3041 RMK AO2 SLP298 T00940039=
202405301253 METAR KCLM 301253Z AUTO 26006KT 10SM CLR 08/03 A3041 RMK AO2 SLP297 T00780028=
202405301153 METAR KCLM 301153Z AUTO 24009KT 10SM CLR 08/03 A3041 RMK AO2 SLP297 T00780033 10100 20072 50004=
202405301053 METAR KCLM 301053Z AUTO 24009KT 10SM CLR 08/03 A3041 RMK AO2 SLP298 T00780033=
202405300953 METAR KCLM 300953Z AUTO 25008KT 10SM CLR 08/04 A3040 RMK AO2 SLP294 T00780039=
202405300853 METAR KCLM 300853Z AUTO 26007KT 10SM CLR 08/04 A3039 RMK AO2 SLP293 T00830044 53002=
202405300753 METAR KCLM 300753Z AUTO 26007KT 10SM CLR 08/04 A3039 RMK AO2 SLP292 T00780044 401500050=
202405300653 METAR KCLM 300653Z AUTO 26007KT 10SM CLR 08/05 A3039 RMK AO2 SLP291 T00780050=
202405300553 METAR KCLM 300553Z AUTO 30009KT 10SM CLR 09/06 A3039 RMK AO2 SLP291 T00940056 10139 20083 52010=
202405300453 METAR KCLM 300453Z AUTO 28005KT 10SM CLR 09/07 A3038 RMK AO2 SLP289 T00940067=
202405300353 METAR KCLM 300353Z AUTO 29012G22KT 10SM CLR 11/07 A3036 RMK AO2 SLP283 T01060067=
202405300253 METAR KCLM 300253Z AUTO 29011G17KT 10SM CLR 12/07 A3036 RMK AO2 SLP281 T01170067 51009=
202405300153 METAR KCLM 300153Z AUTO 30016G25KT 10SM BKN060 12/06 A3035 RMK AO2 PK WND 30026/0141 SLP277 T01220056=
202405300053 METAR KCLM 300053Z AUTO 31011G23KT 10SM SCT080 13/07 A3034 RMK AO2 PK WND 29027/0003 SLP276 T01280067=
202405292353 METAR KCLM 292353Z AUTO 30013G22KT 10SM CLR 14/07 A3033 RMK AO2 PK WND 29027/2341 SLP271 60000 T01390067 10150 20128 53010=
202405292253 METAR KCLM 292253Z AUTO 30011G23KT 10SM CLR 14/07 A3032 RMK AO2 PK WND 28026/2200 RAE2158 SLP267 P0000 T01390067=
202405292153 METAR KCLM 292153Z AUTO 29015G27KT 10SM -RA FEW042 SCT050 13/08 A3031 RMK AO2 PK WND 29028/2058 RAB48 SLP265 P0000 T01330078=
202405292053 METAR KCLM 292053Z AUTO 30013G27KT 10SM FEW075 14/08 A3030 RMK AO2 PK WND 31027/2043 SLP261 T01440078 53006=
202405291953 METAR KCLM 291953Z AUTO 31011G23KT 10SM SCT055 13/08 A3030 RMK AO2 SLP260 T01330078=
202405291853 METAR KCLM 291853Z AUTO 31009G15KT 10SM FEW055 14/08 A3028 RMK AO2 SLP254 T01390078=
202405291753 METAR KCLM 291753Z AUTO 29011G16KT 10SM FEW038 SCT050 BKN065 13/08 A3028 RMK AO2 RAB1656E07 SLP255 P0000 60000 T01330078 10133 20067 53009=
202405291653 METAR KCLM 291653Z AUTO 35005KT 10SM FEW037 SCT046 BKN060 12/08 A3026 RMK AO2 SLP249 T01220078=
202405291553 METAR KCLM 291553Z AUTO 33003KT 10SM SCT047 BKN060 BKN070 12/08 A3026 RMK AO2 SLP247 T01170078=
202405291453 METAR KCLM 291453Z AUTO 28004KT 10SM OVC046 11/08 A3025 RMK AO2 SLP245 T01060078 53012=
202405291353 METAR KCLM 291353Z AUTO 23003KT 10SM OVC049 09/07 A3024 RMK AO2 SLP240 T00890072=
202405291253 METAR KCLM 291253Z AUTO 00000KT 10SM OVC055 08/06 A3023 RMK AO2 SLP237 T00780061=
202405291153 METAR KCLM 291153Z AUTO 23003KT 10SM OVC060 07/05 A3022 RMK AO2 SLP234 70010 T00670050 10089 20050 53003=
202405291053 METAR KCLM 291053Z AUTO 22004KT 10SM FEW060 06/04 A3022 RMK AO2 SLP233 T00560039=
202405290953 METAR KCLM 290953Z AUTO 13003KT 10SM CLR 07/05 A3021 RMK AO2 SLP230 T00720050=
202405290853 METAR KCLM 290853Z AUTO 24007KT 10SM SCT095 08/05 A3021 RMK AO2 SLP231 T00780050 53003=
202405290753 METAR KCLM 290753Z AUTO 26006KT 10SM CLR 07/05 A3020 RMK AO2 SLP228 T00670050 401390067=
202405290653 METAR KCLM 290653Z AUTO 25005KT 10SM CLR 07/06 A3020 RMK AO2 SLP227 T00720056=
202405290553 METAR KCLM 290553Z AUTO 25005KT 10SM CLR 09/07 A3020 RMK AO2 SLP228 T00890067 10122 20083 53010=
202405290453 METAR KCLM 290453Z AUTO 24003KT 10SM CLR 09/07 A3019 RMK AO2 SLP224 T00890067=
202405290353 METAR KCLM 290353Z AUTO 28007KT 10SM SCT060 10/07 A3018 RMK AO2 SLP220 T01000072=
202405290253 METAR KCLM 290253Z AUTO 30006KT 10SM CLR 11/07 A3017 RMK AO2 SLP218 T01060072 52012=
202405290153 METAR KCLM 290153Z AUTO 29011G19KT 260V330 10SM FEW016 BKN045 OVC055 12/08 A3016 RMK AO2 SLP214 T01170083=
202405290053 METAR KCLM 290053Z AUTO 28009KT 10SM FEW050 SCT065 12/07 A3015 RMK AO2 SLP211 T01170072=
202405282353 METAR KCLM 282353Z AUTO 29011G19KT 10SM BKN047 OVC055 12/08 A3014 RMK AO2 SLP207 60000 T01170078 10139 20111 52012=
202405282253 METAR KCLM 282253Z AUTO 30013G23KT 10SM FEW016 SCT050 SCT070 13/08 A3013 RMK AO2 PK WND 28031/2229 SLP203 T01280078=
202405282153 METAR KCLM 282153Z AUTO 29011G17KT 10SM FEW050 13/09 A3011 RMK AO2 PK WND 30026/2117 SLP196 T01330089=
202405282053 METAR KCLM 282053Z AUTO 30011G20KT 10SM FEW080 13/09 A3010 RMK AO2 SLP194 60000 T01280089 51009=
202405281953 METAR KCLM 281953Z AUTO 30011G19KT 10SM OVC060 13/10 A3009 RMK AO2 RAE05B23E33 SLP190 P0000 T01280100=
202405281902 SPECI KCLM 281902Z AUTO 30009KT 10SM -RA FEW012 SCT021 OVC045 12/10 A3008 RMK AO2 P0000 T01170100=
202405281853 METAR KCLM 281853Z AUTO 29011G17KT 10SM -RA FEW005 BKN012 OVC042 12/10 A3009 RMK AO2 RAE43B50 SLP189 P0000 T01170100=
202405281844 SPECI KCLM 281844Z AUTO 30008KT 10SM SCT005 BKN012 OVC039 12/11 A3008 RMK AO2 RAE43 P0000 T01220106=
202405281753 METAR KCLM 281753Z AUTO 31007G15KT 290V350 9SM -RA BKN007 OVC011 11/09 A3007 RMK AO2 CIG 005V008 SLP184 P0001 60010 T01110094 10122 20106 53004=
202405281705 SPECI KCLM 281705Z AUTO 00000KT 6SM -RA BR BKN005 OVC030 11/09 A3007 RMK AO2 CIG 002V007 P0000 T01110094=
202405281653 METAR KCLM 281653Z AUTO 31005KT 6SM -RA BR BKN004 OVC019 11/09 A3007 RMK AO2 RAE1554B22 CIG 002V007 SLP182 P0001 T01110094=
202405281646 SPECI KCLM 281646Z AUTO 32004KT 6SM -RA BR BKN005 BKN019 OVC030 11/10 A3007 RMK AO2 RAE1554B22 P0001 T01110100=
202405281635 SPECI KCLM 281635Z AUTO 30003KT 9SM -RA FEW007 BKN019 OVC030 11/09 A3006 RMK AO2 RAE1554B22 P0001 T01110094=
202405281624 SPECI KCLM 281624Z AUTO 27004KT 8SM -RA SCT007 BKN012 OVC030 11/10 A3006 RMK AO2 RAE1554B22 P0001 T01110100=
202405281607 SPECI KCLM 281607Z AUTO 29004KT 8SM OVC009 11/09 A3006 RMK AO2 RAE1554 CIG 005V012 P0000 T01110094=
202405281553 METAR KCLM 281553Z AUTO 28004KT 10SM -RA OVC010 11/09 A3006 RMK AO2 SLP181 P0001 T01110094=
202405281448 METAR KCLM 281448Z AUTO 28005KT 6SM -RA BR BKN013 BKN027 OVC050 11/09 A3006 RMK AO2 SLP179 P0002 60007 T01060089 53004=
202405281447 SPECI KCLM 281447Z AUTO 28004KT 6SM -RA BR BKN013 BKN027 OVC050 11/09 A3006 RMK AO2 P0001=
202405281353 METAR KCLM 281353Z AUTO 28004KT 6SM -RA BR BKN035 OVC055 11/09 A3005 RMK AO2 SLP177 P0002 T01060089=
202405281253 METAR KCLM 281253Z AUTO 26005KT 6SM -RA BR SCT041 OVC060 11/09 A3004 RMK AO2 SLP173 P0003 T01060089=
202405281153 METAR KCLM 281153Z AUTO 00000KT 10SM -RA BKN039 OVC060 11/08 A3005 RMK AO2 RAB47 SLP175 P0000 60000 T01060078 10122 20106 56002=
202405281053 METAR KCLM 281053Z AUTO 26005KT 10SM OVC040 12/07 A3005 RMK AO2 SLP175 T01220072=
202405280953 METAR KCLM 280953Z AUTO 27004KT 10SM BKN040 12/09 A3005 RMK AO2 SLP174 T01170094=
202405280853 METAR KCLM 280853Z AUTO 25005KT 10SM CLR 12/09 A3005 RMK AO2 SLP177 T01170094 56013=
202405280753 METAR KCLM 280753Z AUTO 27003KT 10SM CLR 11/09 A3006 RMK AO2 SLP179 T01110089 401560067=
202405280653 METAR KCLM 280653Z AUTO 30003KT 10SM OVC100 11/09 A3007 RMK AO2 SLP184 T01110089=
202405280553 METAR KCLM 280553Z AUTO 00000KT 10SM BKN120 11/08 A3009 RMK AO2 SLP191 T01110083 10156 20106 56010=
202405280453 METAR KCLM 280453Z AUTO 00000KT 10SM FEW120 11/08 A3010 RMK AO2 SLP194 T01110078=
202405280353 METAR KCLM 280353Z AUTO 00000KT 10SM CLR 13/09 A3011 RMK AO2 SLP197 T01280094=
202405280253 METAR KCLM 280253Z AUTO 24004KT 10SM BKN034 14/09 A3012 RMK AO2 SLP201 T01440089 56013=
202405280153 METAR KCLM 280153Z AUTO 30005KT 10SM OVC032 14/08 A3014 RMK AO2 SLP205 T01440078=
202405280053 METAR KCLM 280053Z AUTO 30006KT 10SM BKN033 15/08 A3015 RMK AO2 SLP210 T01500078=
202405272353 METAR KCLM 272353Z AUTO VRB06KT 10SM BKN035 16/09 A3016 RMK AO2 SLP215 T01560089 10156 20128 58004=
202405272253 METAR KCLM 272253Z AUTO 30006KT 10SM SCT024 SCT035 15/09 A3017 RMK AO2 SLP216 T01500089=
202405272153 METAR KCLM 272153Z AUTO 30006KT 10SM OVC020 15/09 A3018 RMK AO2 SLP220 T01500089=
202405272053 METAR KCLM 272053Z AUTO 28007KT 10SM OVC022 14/09 A3018 RMK AO2 SLP219 T01440094 51005=
202405271953 METAR KCLM 271953Z AUTO 29006KT 10SM OVC021 14/09 A3018 RMK AO2 SLP219 T01440094=
202405271853 METAR KCLM 271853Z AUTO 32007KT 10SM OVC022 14/09 A3017 RMK AO2 SLP217 T01390094=
202405271835 SPECI KCLM 271835Z AUTO 35004KT 10SM SCT015 OVC020 13/10 A3017 RMK AO2 T01330100=
202405271753 METAR KCLM 271753Z AUTO VRB04KT 10SM BKN013 OVC065 13/10 A3016 RMK AO2 SLP215 T01330100 10139 20083 51015=
202405271733 SPECI KCLM 271733Z AUTO 29004KT 10SM FEW009 OVC065 13/10 A3016 RMK AO2 T01330100=
202405271723 SPECI KCLM 271723Z AUTO 30005KT 10SM BKN009 OVC060 13/11 A3016 RMK AO2 T01330106=
202405271708 SPECI KCLM 271708Z AUTO 32008KT 10SM BKN010 BKN013 OVC060 13/10 A3016 RMK AO2 T01280100=
202405271653 METAR KCLM 271653Z AUTO 30007KT 10SM FEW011 OVC065 13/10 A3015 RMK AO2 SLP211 T01280100=
202405271553 METAR KCLM 271553Z AUTO 29007KT 10SM OVC060 12/09 A3014 RMK AO2 SLP207 T01170094=
202405271453 METAR KCLM 271453Z AUTO 00000KT 10SM OVC065 12/08 A3012 RMK AO2 SLP200 T01170083 51005=
202405271353 METAR KCLM 271353Z AUTO 00000KT 10SM SCT065 10/09 A3012 RMK AO2 SLP199 T01000089=
202405271253 METAR KCLM 271253Z AUTO 13003KT 10SM OVC065 09/08 A3011 RMK AO2 SLP197 T00890078=
202405271153 METAR KCLM 271153Z AUTO 00000KT 10SM OVC065 09/07 A3011 RMK AO2 SLP195 70010 T00890072 10089 20067 55002=
202405271053 METAR KCLM 271053Z AUTO 25004KT 10SM CLR 08/06 A3010 RMK AO2 SLP195 T00780061=
202405270953 METAR KCLM 270953Z AUTO 13008KT 10SM CLR 07/06 A3010 RMK AO2 SLP194 T00720061=
202405270853 METAR KCLM 270853Z AUTO 21003KT 10SM CLR 07/06 A3011 RMK AO2 SLP198 T00720061 58002=
202405270753 METAR KCLM 270753Z AUTO 00000KT 10SM CLR 08/07 A3012 RMK AO2 SLP199 T00780067 401560072=
202405270653 METAR KCLM 270653Z AUTO 00000KT 10SM CLR 07/06 A3012 RMK AO2 SLP200 T00720061=
202405270553 METAR KCLM 270553Z AUTO 18003KT 8SM FEW060 08/07 A3012 RMK AO2 SLP199 T00830072 10150 20078 58001=
202405270453 METAR KCLM 270453Z AUTO 00000KT 6SM BR CLR 09/08 A3012 RMK AO2 SLP201 T00940083=
202405270353 METAR KCLM 270353Z AUTO 00000KT 10SM CLR 11/09 A3012 RMK AO2 SLP199 T01110089=
202405270253 METAR KCLM 270253Z AUTO 00000KT 10SM OVC090 12/10 A3012 RMK AO2 SLP201 T01220100 51001=
202405270153 METAR KCLM 270153Z AUTO 00000KT 10SM FEW075 BKN100 12/09 A3012 RMK AO2 SLP200 T01220094=
202405270053 METAR KCLM 270053Z AUTO 00000KT 10SM SCT060 12/09 A3012 RMK AO2 SLP202 T01220094=
202405262353 METAR KCLM 262353Z AUTO VRB03KT 10SM SCT060 SCT075 14/08 A3012 RMK AO2 SLP199 60001 T01440083 10156 20111 53003=
202405262253 METAR KCLM 262253Z AUTO 00000KT 10SM OVC060 14/08 A3011 RMK AO2 SLP198 T01440083=
202405262153 METAR KCLM 262153Z AUTO 30004KT 10SM FEW041 OVC060 13/09 A3011 RMK AO2 SLP197 T01330089=
202405262053 METAR KCLM 262053Z AUTO 32004KT 10SM FEW009 OVC042 12/09 A3011 RMK AO2 SLP196 60001 T01170094 53010=
202405261953 METAR KCLM 261953Z AUTO VRB03KT 10SM SCT006 BKN030 BKN048 13/10 A3009 RMK AO2 RAE07 SLP190 P0000 T01280100=
202405261906 SPECI KCLM 261906Z AUTO 34004KT 10SM -RA BKN005 OVC060 11/09 A3008 RMK AO2 P0000 T01110094=
202405261853 METAR KCLM 261853Z AUTO 02003KT 10SM -RA SCT005 OVC065 11/09 A3008 RMK AO2 RAB28 SLP187 P0001 T01110094=
202405261834 SPECI KCLM 261834Z AUTO VRB03KT 10SM -RA SCT005 BKN065 OVC080 11/09 A3008 RMK AO2 RAB28 P0000 T01110094=
202405261753 METAR KCLM 261753Z AUTO VRB03KT 10SM BKN007 BKN065 OVC100 12/09 A3008 RMK AO2 SLP186 60009 T01220094 10122 20094 53004=
202405261736 SPECI KCLM 261736Z AUTO 04004KT 10SM BKN006 BKN100 12/09 A3007 RMK AO2 T01220094=
202405261726 SPECI KCLM 261726Z AUTO 07004KT 10SM SCT006 SCT090 12/09 A3007 RMK AO2 T01170094=
202405261713 SPECI KCLM 261713Z AUTO 08004KT 10SM BKN005 BKN090 BKN100 12/09 A3007 RMK AO2 T01170094=
202405261701 SPECI KCLM 261701Z AUTO 05003KT 10SM SCT004 BKN090 BKN100 12/09 A3007 RMK AO2 T01170094=
202405261653 METAR KCLM 261653Z AUTO 09005KT 10SM BKN005 OVC085 11/09 A3007 RMK AO2 SLP182 T01110094=
202405261651 SPECI KCLM 261651Z AUTO 08004KT 10SM BKN005 OVC080 11/09 A3007 RMK AO2=
202405261553 METAR KCLM 261553Z AUTO VRB03KT 10SM FEW006 OVC070 11/09 A3006 RMK AO2 RAE1458 SLP181 P0000 T01110094=
202405261537 SPECI KCLM 261537Z AUTO 00000KT 10SM FEW005 BKN075 OVC090 11/09 A3006 RMK AO2 RAE1458 P0000 T01110094=
202405261453 METAR KCLM 261453Z AUTO 00000KT 10SM -RA SCT042 SCT060 OVC075 11/09 A3006 RMK AO2 RAE30B48 SLP179 P0000 60009 T01060089 56005=
202405261353 METAR KCLM 261353Z AUTO 11003KT 6SM -RA BR OVC055 10/08 A3006 RMK AO2 SLP179 P0004 T01000083=
202405261253 METAR KCLM 261253Z AUTO 00000KT 7SM -RA OVC050 09/08 A3007 RMK AO2 SLP182 P0005 T00940083=
202405261204 SPECI KCLM 261204Z AUTO 00000KT 5SM -RA BR SCT015 OVC044 09/08 A3007 RMK AO2 P0001 T00940083=
202405261153 METAR KCLM 261153Z AUTO 00000KT 5SM -RA BR BKN015 OVC040 09/08 A3007 RMK AO2 RAB06 SLP183 P0003 60003 70003 T00940083 10100 20094 53007=
202405261102 SPECI KCLM 261102Z AUTO 12003KT 10SM OVC015 10/08 A3005 RMK AO2 T01000083=
202405261053 METAR KCLM 261053Z AUTO 00000KT 10SM OVC014 10/08 A3006 RMK AO2 SLP179 T01000083=
202405261035 SPECI KCLM 261035Z AUTO 00000KT 10SM FEW009 OVC015 10/08 A3005 RMK AO2 T01000083=
202405260953 METAR KCLM 260953Z AUTO 00000KT 10SM BKN009 OVC016 10/08 A3005 RMK AO2 SLP176 T01000083=
202405260948 SPECI KCLM 260948Z AUTO 00000KT 10SM BKN010 OVC016 10/08 A3005 RMK AO2=
202405260922 SPECI KCLM 260922Z AUTO 00000KT 10SM BKN017 OVC047 09/08 A3005 RMK AO2 T00940078=
202405260853 METAR KCLM 260853Z AUTO 00000KT 10SM FEW018 OVC048 10/08 A3005 RMK AO2 SLP176 T01000078 55002=
202405260838 SPECI KCLM 260838Z AUTO 00000KT 10SM BKN018 OVC049 09/08 A3005 RMK AO2 T00940078=
202405260753 METAR KCLM 260753Z AUTO 00000KT 10SM FEW014 OVC049 10/08 A3005 RMK AO2 SLP175 T01000078 401560072=
202405260653 METAR KCLM 260653Z AUTO 00000KT 10SM OVC048 10/07 A3005 RMK AO2 SLP177 T01000072=
202405260553 METAR KCLM 260553Z AUTO 00000KT 10SM OVC048 10/07 A3005 RMK AO2 SLP178 T01000067 10117 20100 51007=
202405260453 METAR KCLM 260453Z AUTO 32003KT 10SM OVC048 10/07 A3005 RMK AO2 SLP177 T01000072=
202405260353 METAR KCLM 260353Z AUTO 00000KT 10SM OVC050 11/06 A3004 RMK AO2 SLP175 T01060061=
202405260253 METAR KCLM 260253Z AUTO 29005KT 10SM OVC055 11/07 A3003 RMK AO2 SLP171 T01060067 51011=
202405260153 METAR KCLM 260153Z AUTO 30004KT 10SM OVC060 11/07 A3003 RMK AO2 SLP169 T01110067=
202405260053 METAR KCLM 260053Z AUTO 28005G17KT 10SM OVC090 11/07 A3002 RMK AO2 SLP167 T01110072=
202405252353 METAR KCLM 252353Z AUTO 30012G21KT 270V330 10SM OVC100 11/07 A3000 RMK AO2 SLP160 T01110072 10156 20111 53012=
202405252253 METAR KCLM 252253Z AUTO 31009G17KT 10SM BKN100 13/06 A2998 RMK AO2 SLP154 T01330056=
202405252153 METAR KCLM 252153Z AUTO 30011G19KT 10SM OVC080 13/05 A2997 RMK AO2 SLP151 T01280050=
202405252053 METAR KCLM 252053Z AUTO 31010G20KT 10SM OVC095 12/06 A2997 RMK AO2 SLP149 T01170061 53022=
202405251953 METAR KCLM 251953Z AUTO 29010KT 270V330 10SM FEW110 13/04 A2994 RMK AO2 SLP139 T01280044=
202405251853 METAR KCLM 251853Z AUTO 29009KT 10SM CLR 13/04 A2992 RMK AO2 PK WND 31026/1825 SLP134 T01280044=
202405251753 METAR KCLM 251753Z AUTO 31012G23KT 10SM FEW060 14/04 A2990 RMK AO2 SLP126 T01440044 10150 20072 51013=
202405251653 METAR KCLM 251653Z AUTO 30009G17KT 260V330 10SM SCT031 13/06 A2989 RMK AO2 SLP124 T01280061=
202405251553 METAR KCLM 251553Z AUTO 31008KT 10SM CLR 12/07 A2988 RMK AO2 SLP119 T01170067=
202405251502 SPECI KCLM 251502Z AUTO 00000KT 10SM SCT023 BKN070 10/07 A2987 RMK AO2 T01000067=
202405251453 METAR KCLM 251453Z AUTO 23003KT 10SM BKN023 OVC070 10/07 A2986 RMK AO2 SLP114 T01000072 53009=
202405251437 SPECI KCLM 251437Z AUTO 25003KT 10SM BKN023 OVC070 11/07 A2986 RMK AO2 T01060072=
202405251353 METAR KCLM 251353Z AUTO 00000KT 10SM OVC070 09/08 A2985 RMK AO2 SLP110 T00940078=
202405251253 METAR KCLM 251253Z AUTO 22004KT 10SM BKN070 07/06 A2984 RMK AO2 SLP105 T00720061=
202405251153 METAR KCLM 251153Z AUTO 00000KT 10SM OVC049 08/07 A2984 RMK AO2 SLP104 70024 T00780067 10106 20078 53004=
202405251053 METAR KCLM 251053Z AUTO 25004KT 10SM BKN050 08/07 A2983 RMK AO2 SLP103 T00780067=
202405250953 METAR KCLM 250953Z AUTO 27004KT 10SM FEW065 FEW090 08/07 A2983 RMK AO2 SLP101 T00830072=
202405250853 METAR KCLM 250853Z AUTO 29005KT 10SM OVC044 09/08 A2983 RMK AO2 SLP100 T00940078 55000=
202405250753 METAR KCLM 250753Z AUTO 26010KT 10SM OVC090 10/08 A2982 RMK AO2 SLP099 T01000078 401330094=
202405250653 METAR KCLM 250653Z AUTO 27007KT 10SM OVC060 10/08 A2982 RMK AO2 SLP099 T01000083=
202405250630 SPECI KCLM 250630Z AUTO 27008KT 10SM SCT008 OVC060 10/09 A2982 RMK AO2 T01000089=
202405250605 SPECI KCLM 250605Z AUTO 28003KT 10SM BKN008 BKN011 OVC050 11/09 A2983 RMK AO2 CIG 005V011 T01060089=
202405250553 METAR KCLM 250553Z AUTO 29005KT 10SM BKN014 OVC049 11/09 A2983 RMK AO2 SLP101 60012 T01060089 10133 20106 53004=
202405250545 SPECI KCLM 250545Z AUTO 30007KT 10SM SCT014 OVC049 11/09 A2983 RMK AO2 T01060089=
202405250538 SPECI KCLM 250538Z AUTO 30008KT 10SM BKN014 OVC047 11/09 A2983 RMK AO2 T01060089=
202405250453 METAR KCLM 250453Z AUTO 00000KT 10SM FEW029 BKN034 OVC049 11/09 A2982 RMK AO2 RAE53 SLP100 P0002 T01110094=
202405250417 SPECI KCLM 250417Z AUTO 00000KT 6SM -RA BR SCT023 BKN033 OVC055 11/10 A2982 RMK AO2 P0001 T01110100=
202405250353 METAR KCLM 250353Z AUTO 29003KT 3SM -RA BR BKN019 OVC026 11/10 A2982 RMK AO2 RAB38 SLP098 P0000 T01110100=
202405250325 SPECI KCLM 250325Z AUTO 00000KT 10SM FEW003 SCT013 OVC018 12/11 A2982 RMK AO2 T01170106=
202405250310 SPECI KCLM 250310Z AUTO 00000KT 10SM OVC016 12/10 A2982 RMK AO2 T01220100=
202405250300 SPECI KCLM 250300Z AUTO 00000KT 10SM BKN014 OVC022 12/11 A2982 RMK AO2 T01220106=
202405250253 METAR KCLM 250253Z AUTO 00000KT 10SM BKN017 OVC022 12/10 A2982 RMK AO2 RAB04E53 SLP097 P0008 60010 T01220100 56002=
202405250250 SPECI KCLM 250250Z AUTO 00000KT 8SM -RA BKN017 OVC022 12/10 A2982 RMK AO2 RAB04 P0008=
202405250232 SPECI KCLM 250232Z AUTO 00000KT 2 1/2SM -RA BR BKN018 BKN025 OVC035 12/10 A2982 RMK AO2 RAB04 P0006 T01170100=
202405250212 SPECI KCLM 250212Z AUTO 30003KT 1 3/4SM RA BR BKN022 BKN028 OVC037 12/11 A2982 RMK AO2 RAB04 P0002 T01220106=
202405250153 METAR KCLM 250153Z AUTO 00000KT 10SM BKN023 OVC042 12/11 A2982 RMK AO2 RAE16 SLP097 P0001 T01220106=
202405250135 SPECI KCLM 250135Z AUTO 00000KT 10SM BKN023 OVC050 12/11 A2982 RMK AO2 RAE16 P0001 T01220106=
202405250118 SPECI KCLM 250118Z AUTO 00000KT 10SM FEW027 SCT037 OVC050 12/11 A2982 RMK AO2 RAE16 P0001 T01170106=
202405250053 METAR KCLM 250053Z AUTO 00000KT 4SM RA BR BKN023 OVC040 11/10 A2982 RMK AO2 RAB25 SLP099 P0001 T01110100=
202405250021 SPECI KCLM 250021Z AUTO 00000KT 10SM BKN023 BKN028 OVC036 11/09 A2983 RMK AO2 T01110094=
202405250004 SPECI KCLM 250004Z AUTO 00000KT 10SM FEW005 SCT027 OVC036 13/11 A2982 RMK AO2 T01330106=
202405242353 METAR KCLM 242353Z AUTO 00000KT 10SM SCT005 BKN027 OVC039 12/10 A2983 RMK AO2 RAB13E33 SLP101 P0001 60003 T01220100 10122 20100 56008=
202405242350 SPECI KCLM 242350Z AUTO 00000KT 10SM SCT005 BKN027 OVC032 12/10 A2983 RMK AO2 RAB13E33 P0001=
202405242337 SPECI KCLM 242337Z AUTO 00000KT 10SM BKN005 OVC029 12/10 A2983 RMK AO2 RAB13E33 P0001 T01170100=
202405242253 METAR KCLM 242253Z AUTO 00000KT 10SM OVC003 11/09 A2984 RMK AO2 RAE2156 SLP106 P0000 T01110094=
202405242153 METAR KCLM 242153Z AUTO 00000KT 8SM -RA OVC003 11/09 A2985 RMK AO2 RAB41 SLP110 P0000 T01060089=
202405242053 METAR KCLM 242053Z AUTO VRB04KT 10SM OVC002 10/09 A2986 RMK AO2 SLP112 60002 T01000089 56006=
202405241953 METAR KCLM 241953Z AUTO 07004KT 10SM OVC003 11/09 A2986 RMK AO2 RAE29 SLP113 P0002 T01060094=
202405241853 METAR KCLM 241853Z AUTO 03003KT 6SM -RA BR OVC003 10/09 A2987 RMK AO2 RAE07B34 SLP116 P0000 T01000089=
202405241753 METAR KCLM 241753Z AUTO 02003KT 5SM -RA BR BKN004 OVC037 10/09 A2988 RMK AO2 SLP118 P0001 60009 T01000089 10111 20094 58009=
202405241735 SPECI KCLM 241735Z AUTO 00000KT 2 1/2SM -RA BR BKN003 BKN028 OVC037 10/09 A2988 RMK AO2 P0001 T01000089=
202405241715 SPECI KCLM 241715Z AUTO 00000KT 2SM -RA BR FEW004 OVC037 10/08 A2989 RMK AO2 P0000 T01000083=
202405241702 SPECI KCLM 241702Z AUTO 33003KT 4SM -RA BR SCT004 SCT031 OVC037 10/08 A2989 RMK AO2 P0000 T01000083=
202405241653 METAR KCLM 241653Z AUTO 35003KT 3SM -RA BR BKN004 BKN031 OVC040 10/08 A2989 RMK AO2 SLP121 P0003 T01000083=
202405241625 SPECI KCLM 241625Z AUTO 36003KT 3SM -RA BR BKN004 BKN010 OVC027 10/08 A2989 RMK AO2 P0002 T01000083=
202405241616 SPECI KCLM 241616Z AUTO 00000KT 2SM -RA BR SCT006 BKN010 OVC028 10/09 A2989 RMK AO2 P0002 T01000089=
202405241606 SPECI KCLM 241606Z AUTO 00000KT 3SM -RA BR SCT007 BKN010 OVC034 10/08 A2989 RMK AO2 P0001 T01000083=
202405241553 METAR KCLM 241553Z AUTO 33004KT 3SM -RA BR BKN007 BKN047 OVC060 09/08 A2990 RMK AO2 SLP124 P0005 T00940078=
202405241527 SPECI KCLM 241527Z AUTO 28003KT 8SM -RA FEW009 BKN055 OVC070 10/08 A2990 RMK AO2 P0004 T01000083=
202405241453 METAR KCLM 241453Z AUTO 27004KT 10SM -RA SCT018 BKN048 OVC070 11/08 A2990 RMK AO2 RAB45 SLP127 P0000 60000 T01060078 56010=
202405241353 METAR KCLM 241353Z AUTO 24003KT 10SM BKN015 OVC055 11/08 A2991 RMK AO2 RAE22 SLP129 P0000 T01060083=
202405241344 SPECI KCLM 241344Z AUTO 23003KT 10SM BKN015 OVC055 10/08 A2991 RMK AO2 RAE22 P0000 T01000083=
202405241253 METAR KCLM 241253Z AUTO 25003KT 10SM -RA OVC048 10/08 A2992 RMK AO2 RAB1156E26B50 SLP132 P0000 T01000083=
202405241153 METAR KCLM 241153Z AUTO 26004KT 10SM FEW013 BKN070 OVC095 10/08 A2993 RMK AO2 RAB27E38 SLP136 P0000 60000 T01000083 10106 20100 57014=
202405241053 METAR KCLM 241053Z AUTO 24003KT 10SM OVC065 10/08 A2995 RMK AO2 RAB22E30 SLP141 P0000 T01000083=
202405241006 SPECI KCLM 241006Z AUTO 25003KT 10SM FEW015 OVC065 11/08 A2996 RMK AO2 T01060083=
202405240953 METAR KCLM 240953Z AUTO 26005KT 10SM BKN015 OVC070 11/08 A2996 RMK AO2 SLP146 T01060083=
202405240853 METAR KCLM 240853Z AUTO 26004KT 10SM OVC015 11/08 A2998 RMK AO2 SLP151 T01060083 58019=
202405240844 SPECI KCLM 240844Z AUTO 28006KT 10SM OVC015 11/08 A2998 RMK AO2 T01060083=
202405240816 SPECI KCLM 240816Z AUTO 29005KT 10SM BKN014 OVC110 11/08 A2999 RMK AO2 T01060078=
202405240753 METAR KCLM 240753Z AUTO 28005KT 10SM SCT014 OVC110 10/08 A3000 RMK AO2 SLP159 T01000078 401560072=
202405240653 METAR KCLM 240653Z AUTO 29006KT 10SM BKN120 11/08 A3001 RMK AO2 SLP163 T01060078=
202405240622 SPECI KCLM 240622Z AUTO 27005KT 10SM FEW017 11/08 A3002 RMK AO2 T01060078=
202405240611 SPECI KCLM 240611Z AUTO 28005KT 10SM BKN017 11/08 A3003 RMK AO2 T01060078=
202405240553 METAR KCLM 240553Z AUTO 28006KT 10SM SCT017 11/08 A3003 RMK AO2 SLP171 T01060078 10156 20106 58007=
202405240539 SPECI KCLM 240539Z AUTO 28007KT 10SM SCT017 11/08 A3004 RMK AO2 T01060078=
202405240453 METAR KCLM 240453Z AUTO 29007KT 10SM OVC018 11/08 A3005 RMK AO2 SLP175 T01110078=
202405240353 METAR KCLM 240353Z AUTO 29008G17KT 10SM BKN019 OVC070 12/08 A3005 RMK AO2 SLP177 T01170078=
202405240350 SPECI KCLM 240350Z AUTO 30009G17KT 10SM BKN019 BKN070 12/08 A3005 RMK AO2=
202405240253 METAR KCLM 240253Z AUTO 27011G17KT 10SM CLR 12/08 A3006 RMK AO2 SLP181 T01170078 56009=
202405240153 METAR KCLM 240153Z AUTO 30008G17KT 10SM CLR 13/08 A3007 RMK AO2 SLP184 T01330078=
202405240053 METAR KCLM 240053Z AUTO 30011G18KT 10SM CLR 14/07 A3008 RMK AO2 SLP186 T01440072=
202405232353 METAR KCLM 232353Z AUTO 31010KT 10SM CLR 15/07 A3009 RMK AO2 SLP190 T01500072 10156 20122 58013=
202405232253 METAR KCLM 232253Z AUTO 31008KT 280V340 10SM CLR 15/08 A3010 RMK AO2 SLP195 T01500078=
202405232236 SPECI KCLM 232236Z AUTO 31009KT 290V360 10SM SCT026 16/08 A3011 RMK AO2 T01560078=
202405232153 METAR KCLM 232153Z AUTO 35007KT 10SM OVC025 14/08 A3012 RMK AO2 SLP202 T01440078=
202405232053 METAR KCLM 232053Z AUTO VRB04KT 10SM OVC025 14/07 A3013 RMK AO2 SLP203 T01390072 58003=
202405231953 METAR KCLM 231953Z AUTO VRB05KT 10SM OVC022 13/07 A3014 RMK AO2 SLP205 T01330072=
202405231853 METAR KCLM 231853Z AUTO 36005KT 10SM OVC020 13/07 A3014 RMK AO2 SLP207 T01280072=
202405231753 METAR KCLM 231753Z AUTO 35003KT 10SM OVC018 12/07 A3014 RMK AO2 SLP207 T01220072 10122 20072 51003=
202405231653 METAR KCLM 231653Z AUTO 25003KT 10SM OVC018 12/07 A3014 RMK AO2 SLP207 T01170072=
202405231553 METAR KCLM 231553Z AUTO 00000KT 10SM OVC020 12/07 A3014 RMK AO2 SLP205 T01170072=
202405231453 METAR KCLM 231453Z AUTO 23005KT 10SM OVC021 11/08 A3013 RMK AO2 SLP203 T01060078 51009=
202405231422 SPECI KCLM 231422Z AUTO 23004KT 10SM BKN022 09/07 A3013 RMK AO2 T00940072=
202405231353 METAR KCLM 231353Z AUTO 22004KT 10SM CLR 08/07 A3012 RMK AO2 SLP200 T00830067=
202405231253 METAR KCLM 231253Z AUTO 21004KT 10SM CLR 08/06 A3011 RMK AO2 SLP197 T00780061=
202405231153 METAR KCLM 231153Z AUTO 25004KT 10SM CLR 08/07 A3010 RMK AO2 SLP195 70005 T00780067 10111 20078 51008=
202405231053 METAR KCLM 231053Z AUTO 28007KT 9SM CLR 09/08 A3010 RMK AO2 SLP194 T00890078=
202405230953 METAR KCLM 230953Z AUTO 26009KT 9SM CLR 09/08 A3009 RMK AO2 SLP190 T00940078=
202405230853 METAR KCLM 230853Z AUTO 30007KT 10SM CLR 10/08 A3008 RMK AO2 SLP186 T01000078 53001=
202405230753 METAR KCLM 230753Z AUTO 27007KT 10SM CLR 11/07 A3007 RMK AO2 SLP181 T01060067 401720083=
202405230653 METAR KCLM 230653Z AUTO 27007KT 10SM CLR 09/07 A3006 RMK AO2 SLP181 T00940067=
202405230553 METAR KCLM 230553Z AUTO 23005KT 10SM CLR 09/06 A3007 RMK AO2 SLP185 T00940056 10172 20089 51016=
202405230453 METAR KCLM 230453Z AUTO 00000KT 10SM CLR 10/04 A3006 RMK AO2 SLP180 T01000044=
202405230353 METAR KCLM 230353Z AUTO 25005KT 10SM CLR 13/03 A3004 RMK AO2 SLP174 T01330028=
202405230253 METAR KCLM 230253Z AUTO 28007KT 10SM CLR 16/03 A3003 RMK AO2 SLP168 T01560033 53007=
202405230153 METAR KCLM 230153Z AUTO 30005KT 10SM FEW080 17/03 A3001 RMK AO2 SLP164 T01720033=
202405230053 METAR KCLM 230053Z AUTO 29007KT 10SM CLR 17/04 A3001 RMK AO2 SLP162 T01670039=
202405222353 METAR KCLM 222353Z AUTO VRB04KT 10SM BKN080 16/05 A3000 RMK AO2 SLP160 T01560050 10172 20128 51012=
202405222253 METAR KCLM 222253Z AUTO VRB04KT 10SM OVC085 16/06 A3000 RMK AO2 SLP158 T01560056=
202405222153 METAR KCLM 222153Z AUTO 00000KT 10SM BKN095 16/06 A2998 RMK AO2 SLP152 T01610061=
202405222053 METAR KCLM 222053Z AUTO 34008KT 10SM OVC100 14/06 A2997 RMK AO2 SLP149 T01440056 53006=
202405221953 METAR KCLM 221953Z AUTO 24005KT 10SM SCT041 16/06 A2996 RMK AO2 SLP145 T01560061=
202405221853 METAR KCLM 221853Z AUTO 24008KT 10SM SCT034 SCT045 14/06 A2996 RMK AO2 SLP145 T01440061=
202405221753 METAR KCLM 221753Z AUTO 10SM BKN049 13/06 A2995 RMK AO2 SLP143 60005 T01330061 10133 20083 51023=
202405221653 METAR KCLM 221653Z AUTO 23008KT 10SM OVC048 12/07 A2993 RMK AO2 RAE1558 SLP135 P0000 T01170067=
202405221553 METAR KCLM 221553Z AUTO 24009KT 10SM -RA BKN036 OVC045 09/06 A2991 RMK AO2 RAE02B19 SLP128 P0000 T00890061=
202405221453 METAR KCLM 221453Z AUTO 25008KT 10SM -RA BKN042 OVC055 08/06 A2988 RMK AO2 SLP119 P0002 60005 T00830056 53016=
202405221353 METAR KCLM 221353Z AUTO 27007KT 9SM -RA SCT035 OVC055 08/06 A2986 RMK AO2 SLP111 P0001 T00830056=
202405221253 METAR KCLM 221253Z AUTO 25008KT 9SM -RA OVC037 09/04 A2985 RMK AO2 SLP108 P0002 T00890044=
202405221153 METAR KCLM 221153Z AUTO 27003KT 10SM -RA BKN046 OVC075 09/03 A2983 RMK AO2 RAB1059 SLP103 P0000 60000 70027 T00940033 10106 20083 51011=
202405221053 METAR KCLM 221053Z AUTO 24008KT 10SM SCT055 BKN070 OVC100 11/02 A2983 RMK AO2 PK WND 24028/1002 SLP103 T01060022=
202405220953 METAR KCLM 220953Z AUTO 24014G27KT 10SM SCT060 11/03 A2982 RMK AO2 PK WND 24027/0948 SLP098 T01060033=
202405220853 METAR KCLM 220853Z AUTO 23014G24KT 10SM FEW050 FEW075 10/02 A2980 RMK AO2 SLP092 T01000022 58012=
202405220753 METAR KCLM 220753Z AUTO 26009G18KT 10SM CLR 09/03 A2983 RMK AO2 SLP101 T00940028 401390083=
202405220653 METAR KCLM 220653Z AUTO 27008KT 10SM CLR 09/04 A2983 RMK AO2 SLP103 T00890039=
202405220553 METAR KCLM 220553Z AUTO 30009KT 10SM CLR 09/07 A2984 RMK AO2 SLP104 T00940067 10133 20089 56014=
202405220453 METAR KCLM 220453Z AUTO 27005KT 10SM CLR 09/08 A2984 RMK AO2 SLP106 T00940078=
202405220353 METAR KCLM 220353Z AUTO 25004KT 10SM SCT006 SCT060 12/10 A2986 RMK AO2 SLP111 T01170100=
202405220321 SPECI KCLM 220321Z AUTO 00000KT 10SM OVC006 12/10 A2987 RMK AO2 CIG 003V010 T01170100=
202405220253 METAR KCLM 220253Z AUTO 29008KT 10SM OVC004 11/10 A2988 RMK AO2 SLP118 T01110100 58010=
202405220153 METAR KCLM 220153Z AUTO 30006KT 10SM BKN003 OVC015 12/11 A2989 RMK AO2 SLP122 T01220111=
202405220053 METAR KCLM 220053Z AUTO 30005KT 3SM BR OVC002 12/11 A2991 RMK AO2 SLP128 T01170106=
202405220049 SPECI KCLM 220049Z AUTO 31005KT 3SM BR OVC002 12/11 A2991 RMK AO2=
202405220025 SPECI KCLM 220025Z AUTO 30006KT 2 1/2SM BR OVC003 12/11 A2992 RMK AO2 CIG 002V007 T01170106=
202405212353 METAR KCLM 212353Z AUTO 34004KT 10SM BKN007 BKN012 OVC060 13/12 A2992 RMK AO2 RAE53 SLP133 P0002 60017 T01330117 10139 20106 58012=
202405212345 SPECI KCLM 212345Z AUTO 30003KT 10SM -RA SCT007 BKN012 OVC060 13/11 A2992 RMK AO2 P0002 T01330111=
202405212316 SPECI KCLM 212316Z AUTO 00000KT 6SM -RA BR FEW006 SCT030 OVC055 13/11 A2993 RMK AO2 P0002 T01280111=
202405212253 METAR KCLM 212253Z AUTO 00000KT 5SM -RA BR OVC060 12/11 A2994 RMK AO2 SLP140 P0006 T01220106=
202405212235 SPECI KCLM 212235Z AUTO 18003KT 5SM -RA BR SCT027 OVC060 12/11 A2994 RMK AO2 P0004 T01220106=
202405212153 METAR KCLM 212153Z AUTO 34004KT 5SM -RA BR BKN025 OVC060 12/10 A2996 RMK AO2 SLP145 P0002 T01170100=
202405212127 SPECI KCLM 212127Z AUTO VRB04KT 9SM -RA FEW007 FEW029 OVC065 13/12 A2995 RMK AO2 P0000 T01330117=
202405212053 METAR KCLM 212053Z AUTO 12004KT 8SM -RA OVC070 13/11 A2995 RMK AO2 SLP144 P0003 60007 T01280106 58017=
202405211953 METAR KCLM 211953Z AUTO 00000KT 5SM -RA BR FEW020 OVC065 12/09 A2998 RMK AO2 SLP152 P0003 T01170094=
202405211900 SPECI KCLM 211900Z AUTO 00000KT 5SM -RA BR SCT005 BKN043 OVC070 11/10 A2999 RMK AO2 P0000 T01110100=
202405211853 METAR KCLM 211853Z AUTO 00000KT 5SM -RA BR BKN003 BKN007 OVC050 11/10 A2999 RMK AO2 RAB25 SLP157 P0001 T01110100=
202405211753 METAR KCLM 211753Z AUTO VRB03KT 6SM BR OVC003 11/10 A3000 RMK AO2 RAE1656 SLP161 P0000 60010 T01110100 10111 20100 58018=
202405211653 METAR KCLM 211653Z AUTO 01003KT 10SM -RA BKN004 OVC065 11/10 A3002 RMK AO2 SLP167 P0002 T01110100=
202405211612 SPECI KCLM 211612Z AUTO 29004KT 5SM -RA BR BKN002 OVC050 11/09 A3004 RMK AO2 P0001 T01060094=
202405211553 METAR KCLM 211553Z AUTO 31005KT 7SM -RA SCT003 OVC060 11/10 A3005 RMK AO2 SLP177 P0001 T01110100=
202405211453 METAR KCLM 211453Z AUTO 00000KT 7SM -RA FEW005 SCT029 OVC055 11/09 A3006 RMK AO2 SLP179 P0001 60007 T01060094 58015=
202405211450 SPECI KCLM 211450Z AUTO 00000KT 6SM -RA BR SCT005 SCT029 OVC055 11/09 A3006 RMK AO2 P0001=
202405211401 SPECI KCLM 211401Z AUTO 00000KT 7SM -RA BKN006 OVC060 11/09 A3008 RMK AO2 P0000 T01060094=
202405211353 METAR KCLM 211353Z AUTO 00000KT 6SM -RA BR SCT006 OVC060 10/09 A3008 RMK AO2 SLP187 P0003 T01000089=
202405211351 SPECI KCLM 211351Z AUTO 00000KT 6SM -RA BR SCT006 OVC060 10/09 A3008 RMK AO2 P0003=
202405211253 METAR KCLM 211253Z AUTO 00000KT 5SM -RA BR OVC047 10/09 A3010 RMK AO2 SLP194 P0003 T01000089=
202405211153 METAR KCLM 211153Z AUTO 00000KT 7SM -RA OVC040 10/08 A3013 RMK AO2 SLP204 P0005 60006 70006 T01000083 10111 20094 56010=
202405211053 METAR KCLM 211053Z AUTO 00000KT 10SM -RA BKN046 BKN055 OVC070 10/08 A3014 RMK AO2 RAB06 SLP205 P0001 T01000083=
202405210953 METAR KCLM 210953Z AUTO 00000KT 10SM OVC080 11/06 A3014 RMK AO2 SLP206 T01060061=
202405210853 METAR KCLM 210853Z AUTO 27005KT 10SM FEW090 11/06 A3016 RMK AO2 SLP213 T01060056 58018=
202405210753 METAR KCLM 210753Z AUTO 28006KT 10SM SCT110 10/06 A3018 RMK AO2 SLP219 T01000061 401560067=
202405210653 METAR KCLM 210653Z AUTO 25008KT 10SM CLR 11/06 A3020 RMK AO2 SLP228 T01060056=
202405210553 METAR KCLM 210553Z AUTO 26007KT 10SM SCT100 10/06 A3021 RMK AO2 SLP232 T01000056 10144 20100 58005=
202405210453 METAR KCLM 210453Z AUTO 26006KT 10SM CLR 10/06 A3023 RMK AO2 SLP236 T01000061=
202405210353 METAR KCLM 210353Z AUTO 29008KT 10SM CLR 10/07 A3022 RMK AO2 SLP236 T01000067=
202405210253 METAR KCLM 210253Z AUTO 29007G19KT 10SM CLR 11/07 A3023 RMK AO2 SLP237 T01110067 55003=
202405210153 METAR KCLM 210153Z AUTO 31013G23KT 10SM CLR 12/07 A3023 RMK AO2 SLP237 T01220072=
202405210053 METAR KCLM 210053Z AUTO 31010G20KT 10SM CLR 14/07 A3023 RMK AO2 SLP237 T01390072=
202405202353 METAR KCLM 202353Z AUTO 29010G19KT 10SM CLR 14/07 A3024 RMK AO2 SLP240 T01440067 10156 20128 58011=
202405202253 METAR KCLM 202253Z AUTO 30008G18KT 10SM CLR 15/07 A3025 RMK AO2 SLP245 T01500072=
202405202153 METAR KCLM 202153Z AUTO 28012G18KT 10SM CLR 15/07 A3026 RMK AO2 SLP248 T01500072=
202405202053 METAR KCLM 202053Z AUTO 32008KT 10SM CLR 14/07 A3027 RMK AO2 SLP251 T01440072 58003=
202405201953 METAR KCLM 201953Z AUTO 32010KT 10SM CLR 14/07 A3027 RMK AO2 SLP252 T01390072=
202405201853 METAR KCLM 201853Z AUTO VRB05KT 10SM CLR 14/08 A3028 RMK AO2 SLP254 T01390078=
202405201753 METAR KCLM 201753Z AUTO 33007KT 10SM CLR 13/08 A3028 RMK AO2 SLP254 T01330078 10139 20067 58001=
202405201653 METAR KCLM 201653Z AUTO VRB06KT 10SM CLR 13/07 A3028 RMK AO2 SLP255 T01280072=
202405201553 METAR KCLM 201553Z AUTO 32007G15KT 10SM CLR 12/07 A3029 RMK AO2 SLP257 T01170072=
202405201453 METAR KCLM 201453Z AUTO 25004KT 10SM CLR 10/05 A3028 RMK AO2 SLP255 T01000050 53005=
202405201353 METAR KCLM 201353Z AUTO 24005KT 10SM CLR 09/04 A3028 RMK AO2 SLP253 T00940044=
202405201253 METAR KCLM 201253Z AUTO 24006KT 10SM CLR 07/03 A3027 RMK AO2 SLP251 T00720033=
202405201153 METAR KCLM 201153Z AUTO 24008KT 10SM CLR 08/04 A3027 RMK AO2 SLP250 T00780039 10100 20067 55000=
202405201053 METAR KCLM 201053Z AUTO 25007KT 10SM CLR 08/04 A3026 RMK AO2 SLP249 T00780039=
202405200953 METAR KCLM 200953Z AUTO 26006KT 10SM FEW065 08/04 A3026 RMK AO2 SLP248 T00780039=
202405200853 METAR KCLM 200853Z AUTO 25005KT 10SM CLR 08/04 A3027 RMK AO2 SLP250 T00780044 53002=
202405200753 METAR KCLM 200753Z AUTO 28005KT 10SM CLR 08/04 A3026 RMK AO2 SLP248 T00830044 401610072=
202405200653 METAR KCLM 200653Z AUTO 23007KT 10SM CLR 09/05 A3026 RMK AO2 SLP247 T00940050=
202405200553 METAR KCLM 200553Z AUTO 24008KT 10SM CLR 09/06 A3026 RMK AO2 SLP248 T00940056 10156 20094 50004=
202405200453 METAR KCLM 200453Z AUTO 25009KT 10SM CLR 10/04 A3026 RMK AO2 SLP248 T01000044=
202405200353 METAR KCLM 200353Z AUTO 24008KT 10SM CLR 11/05 A3026 RMK AO2 SLP247 T01060050=
202405200253 METAR KCLM 200253Z AUTO 27011KT 10SM CLR 12/06 A3025 RMK AO2 SLP244 T01220056 53002=
202405200153 METAR KCLM 200153Z AUTO 30010G17KT 10SM CLR 13/06 A3024 RMK AO2 SLP242 T01330061=
202405200053 METAR KCLM 200053Z AUTO 28013G19KT 10SM CLR 15/06 A3024 RMK AO2 SLP242 T01500061=
202405192353 METAR KCLM 192353Z AUTO 30006KT 10SM CLR 15/08 A3024 RMK AO2 SLP242 T01500078 10161 20128 58004=
202405192253 METAR KCLM 192253Z AUTO VRB05KT 10SM CLR 15/08 A3025 RMK AO2 SLP245 T01500078=
202405192153 METAR KCLM 192153Z AUTO 10SM CLR 16/06 A3025 RMK AO2 SLP245 T01560061=
202405192053 METAR KCLM 192053Z AUTO 34007KT 10SM CLR 15/05 A3025 RMK AO2 SLP246 T01500050 50001=
202405191953 METAR KCLM 191953Z AUTO VRB04KT 10SM CLR 16/06 A3026 RMK AO2 SLP248 T01560061=
202405191853 METAR KCLM 191853Z AUTO VRB06KT 10SM FEW043 14/06 A3027 RMK AO2 SLP250 T01440061=
202405191753 METAR KCLM 191753Z AUTO 33008KT 10SM CLR 13/07 A3025 RMK AO2 SLP245 T01330067 10133 20072 51011=
202405191653 METAR KCLM 191653Z AUTO 34007KT 10SM CLR 12/07 A3024 RMK AO2 SLP242 T01220072=
202405191553 METAR KCLM 191553Z AUTO 29005KT 10SM CLR 13/05 A3023 RMK AO2 SLP238 T01330050=
202405191453 METAR KCLM 191453Z AUTO 26006KT 10SM BKN046 OVC085 11/04 A3022 RMK AO2 SLP234 T01110039 53016=
202405191353 METAR KCLM 191353Z AUTO 24008KT 10SM OVC085 10/03 A3021 RMK AO2 SLP229 T01000028=
202405191253 METAR KCLM 191253Z AUTO 25008KT 10SM CLR 08/02 A3018 RMK AO2 SLP222 T00780022=
202405191153 METAR KCLM 191153Z AUTO 25007KT 10SM CLR 08/03 A3017 RMK AO2 SLP218 T00780028 10094 20072 51010=
202405191053 METAR KCLM 191053Z AUTO 25006KT 10SM CLR 08/03 A3017 RMK AO2 SLP216 T00780033=
202405190953 METAR KCLM 190953Z AUTO 28009KT 10SM CLR 08/04 A3015 RMK AO2 SLP212 T00830044=
202405190853 METAR KCLM 190853Z AUTO 28009KT 10SM BKN080 09/03 A3014 RMK AO2 SLP208 T00940033 51005=
202405190753 METAR KCLM 190753Z AUTO 27010KT 10SM BKN080 08/04 A3014 RMK AO2 SLP207 T00830039 401390078=
202405190653 METAR KCLM 190653Z AUTO 28007KT 10SM SCT085 08/04 A3013 RMK AO2 SLP204 T00830039=
202405190553 METAR KCLM 190553Z AUTO 28007KT 10SM CLR 09/04 A3013 RMK AO2 SLP203 60000 T00890039 10128 20078 53009=
202405190453 METAR KCLM 190453Z AUTO 27007KT 10SM CLR 09/04 A3012 RMK AO2 SLP200 T00890044=
202405190353 METAR KCLM 190353Z AUTO 27007KT 10SM CLR 09/06 A3010 RMK AO2 SLP195 T00940061=
202405190253 METAR KCLM 190253Z AUTO 28011G19KT 10SM CLR 11/06 A3010 RMK AO2 SLP194 60000 T01110061 53004=
202405190153 METAR KCLM 190153Z AUTO 29012KT 10SM FEW045 12/06 A3009 RMK AO2 RAB38E47 SLP189 P0000 T01220061=
202405190053 METAR KCLM 190053Z AUTO 30010KT 270V330 10SM SCT019 SCT026 BKN050 12/07 A3009 RMK AO2 RAB25E39 SLP190 P0000 T01220067=
202405190025 SPECI KCLM 190025Z AUTO 28011G21KT 10SM -RA SCT023 BKN038 BKN049 11/07 A3009 RMK AO2 RAB25 P0000 T01110067=
202405190010 SPECI KCLM 190010Z AUTO 30014G22KT 10SM BKN022 BKN027 BKN075 12/06 A3009 RMK AO2 T01170056=
202405182353 METAR KCLM 182353Z AUTO 29011G19KT 10SM FEW020 SCT027 BKN080 12/07 A3009 RMK AO2 RAB2255E07B39E53 SLP190 P0000 60000 T01220067 10133 20106 55000=
202405182253 METAR KCLM 182253Z AUTO 29014G23KT 10SM SCT030 SCT044 BKN110 13/07 A3008 RMK AO2 RAB11E24 SLP188 P0000 T01280072=
202405182153 METAR KCLM 182153Z AUTO 30014G21KT 10SM FEW028 SCT037 BKN060 12/07 A3008 RMK AO2 RAB2057E09B28E44 SLP187 P0000 T01220072=
202405182053 METAR KCLM 182053Z AUTO 31012G20KT 10SM FEW034 FEW044 BKN070 12/07 A3009 RMK AO2 RAE1959 SLP190 P0000 60000 T01220067 51003=
202405181953 METAR KCLM 181953Z AUTO 30010G20KT 10SM -RA OVC055 11/07 A3008 RMK AO2 PK WND 31027/1855 RAB36 SLP188 P0000 T01060067=
202405181853 METAR KCLM 181853Z AUTO 31012G23KT 10SM FEW055 BKN100 12/06 A3009 RMK AO2 SLP189 T01220061=
202405181753 METAR KCLM 181753Z AUTO 30011G21KT 10SM SCT110 12/04 A3008 RMK AO2 SLP186 60000 T01220039 10139 20100 57005=
202405181653 METAR KCLM 181653Z AUTO 31013G21KT 10SM FEW050 13/02 A3008 RMK AO2 SLP187 T01330022=
202405181553 METAR KCLM 181553Z AUTO 27011KT 10SM BKN050 12/03 A3009 RMK AO2 SLP192 T01170033=
202405181453 METAR KCLM 181453Z AUTO 24005KT 10SM SCT040 BKN048 OVC060 11/06 A3009 RMK AO2 RAB22E40 SLP192 P0000 60000 T01110056 55002=
202405181353 METAR KCLM 181353Z AUTO 24006KT 10SM OVC050 10/04 A3009 RMK AO2 SLP190 T01000039=
202405181253 METAR KCLM 181253Z AUTO 28010KT 10SM BKN049 BKN110 10/03 A3009 RMK AO2 SLP192 T01000028=
202405181153 METAR KCLM 181153Z AUTO 30007KT 10SM OVC044 10/03 A3010 RMK AO2 SLP194 T01000033 10106 20078 56007=
202405181053 METAR KCLM 181053Z AUTO 30009G15KT 10SM BKN120 11/03 A3010 RMK AO2 SLP194 T01060028=
202405180953 METAR KCLM 180953Z AUTO 24006KT 10SM BKN110 09/03 A3011 RMK AO2 SLP198 T00940033=
202405180853 METAR KCLM 180853Z AUTO 22005KT 10SM OVC120 09/04 A3012 RMK AO2 SLP201 T00890039 56004=
202405180753 METAR KCLM 180753Z AUTO 23006KT 10SM CLR 09/04 A3012 RMK AO2 SLP202 T00890039 401500067=
202405180653 METAR KCLM 180653Z AUTO 27004KT 10SM CLR 08/05 A3012 RMK AO2 SLP201 T00830050=
202405180553 METAR KCLM 180553Z AUTO 25006KT 10SM CLR 09/06 A3013 RMK AO2 SLP205 T00940056 10122 20094 58001=
202405180453 METAR KCLM 180453Z AUTO 22005KT 10SM FEW015 09/07 A3014 RMK AO2 SLP208 T00940067=
202405180353 METAR KCLM 180353Z AUTO 26010KT 10SM CLR 10/07 A3013 RMK AO2 SLP205 T01000067=
202405180253 METAR KCLM 180253Z AUTO 28014G24KT 10SM CLR 11/07 A3014 RMK AO2 SLP206 T01060072 58008=
202405180153 METAR KCLM 180153Z AUTO 29007KT 10SM CLR 12/07 A3015 RMK AO2 SLP209 T01170072=
202405180053 METAR KCLM 180053Z AUTO 27011G23KT 10SM CLR 12/07 A3016 RMK AO2 SLP213 T01220072=
202405172353 METAR KCLM 172353Z AUTO 29015G26KT 10SM CLR 13/07 A3016 RMK AO2 PK WND 29030/2343 SLP214 T01280067 10144 20128 51009=
202405172253 METAR KCLM 172253Z AUTO 29011G20KT 270V340 10SM CLR 14/07 A3016 RMK AO2 SLP213 T01390072=
202405172153 METAR KCLM 172153Z AUTO 30012G23KT 260V340 10SM CLR 14/07 A3015 RMK AO2 PK WND 30029/2112 SLP212 T01390072=
202405172053 METAR KCLM 172053Z AUTO 31017G27KT 10SM CLR 14/07 A3013 RMK AO2 PK WND 29027/2053 SLP204 T01440072 51005=
202405171953 METAR KCLM 171953Z AUTO 31013G26KT 10SM CLR 13/07 A3013 RMK AO2 PK WND 29026/1947 SLP203 T01330072=
202405171853 METAR KCLM 171853Z AUTO 31012G20KT 280V350 10SM CLR 14/07 A3013 RMK AO2 SLP203 T01390067=
202405171753 METAR KCLM 171753Z AUTO 31013G21KT 10SM CLR 15/06 A3012 RMK AO2 SLP199 T01500056 10150 20067 51009=
202405171653 METAR KCLM 171653Z AUTO 30007G19KT 10SM CLR 14/05 A3011 RMK AO2 SLP198 T01390050=
202405171553 METAR KCLM 171553Z AUTO 30013G19KT 10SM CLR 14/02 A3010 RMK AO2 SLP193 T01390017=
202405171453 METAR KCLM 171453Z AUTO 25007KT 10SM CLR 12/02 A3009 RMK AO2 SLP190 T01220022 53023=
202405171353 METAR KCLM 171353Z AUTO 28007KT 10SM CLR 11/02 A3007 RMK AO2 SLP183 T01060017=
202405171253 METAR KCLM 171253Z AUTO 27009KT 10SM CLR 08/00 A3004 RMK AO2 SLP172 T00830000=
202405171153 METAR KCLM 171153Z AUTO 30003KT 10SM CLR 08/01 A3002 RMK AO2 SLP166 T00780006 10117 20078 51019=
202405171053 METAR KCLM 171053Z AUTO 28009G16KT 10SM CLR 10/01 A3000 RMK AO2 SLP161 T01000011=
202405170953 METAR KCLM 170953Z AUTO 29009KT 10SM CLR 10/01 A2999 RMK AO2 SLP155 T01000011=
202405170853 METAR KCLM 170853Z AUTO 28010KT 10SM CLR 10/01 A2996 RMK AO2 SLP147 T01000011 51003=
202405170753 METAR KCLM 170753Z AUTO 26010G20KT 10SM FEW044 11/01 A2996 RMK AO2 PK WND 27029/0705 SLP146 T01110006 401670106=
202405170653 METAR KCLM 170653Z AUTO 26011KT 10SM FEW048 11/02 A2997 RMK AO2 SLP148 T01060017=
202405170553 METAR KCLM 170553Z AUTO 25014G35KT 10SM SCT050 12/01 A2996 RMK AO2 PK WND 26035/0545 SLP144 T01170011 10144 20106 53015=
202405170453 METAR KCLM 170453Z AUTO 28016G27KT 10SM CLR 11/03 A2992 RMK AO2 PK WND 28030/0439 SLP133 T01060033=
202405170353 METAR KCLM 170353Z AUTO 29016G28KT 10SM CLR 11/07 A2991 RMK AO2 PK WND 31032/0319 SLP130 T01110067=
202405170253 METAR KCLM 170253Z AUTO 30017G30KT 10SM CLR 11/08 A2991 RMK AO2 PK WND 30032/0213 SLP128 T01110078 55004=
202405170153 METAR KCLM 170153Z AUTO 30015G27KT 10SM CLR 14/06 A2990 RMK AO2 PK WND 30028/0119 SLP123 T01390061=
202405170053 METAR KCLM 170053Z AUTO 30015G25KT 10SM CLR 13/09 A2991 RMK AO2 PK WND 29029/0039 SLP128 T01330089=
202405170018 SPECI KCLM 170018Z AUTO 29011G26KT 10SM SCT012 13/09 A2992 RMK AO2 PK WND 30027/0002 T01330089=
202405170011 SPECI KCLM 170011Z AUTO 29014G27KT 10SM BKN012 13/08 A2991 RMK AO2 PK WND 30027/0002 T01330083=
202405162353 METAR KCLM 162353Z AUTO 29015G30KT 10SM BKN009 13/09 A2992 RMK AO2 PK WND 30033/2300 SLP132 T01280089 10167 20117 58001=
202405162340 SPECI KCLM 162340Z AUTO 30012G30KT 10SM BKN009 13/09 A2992 RMK AO2 PK WND 30033/2300 T01280089=
202405162330 SPECI KCLM 162330Z AUTO 30013G27KT 10SM SCT009 BKN013 14/09 A2992 RMK AO2 PK WND 30033/2300 T01390094=
202405162253 METAR KCLM 162253Z AUTO 29013G27KT 10SM BKN010 OVC017 13/09 A2993 RMK AO2 PK WND 29030/2229 CIG 009V013 SLP135 T01330094=
202405162251 SPECI KCLM 162251Z AUTO 28014G27KT 10SM BKN010 OVC017 13/09 A2993 RMK AO2 PK WND 29030/2229 CIG 008V013=
202405162153 METAR KCLM 162153Z AUTO 28015G29KT 10SM OVC006 12/10 A2993 RMK AO2 PK WND 30029/2147 SLP134 T01220100=
202405162053 METAR KCLM 162053Z AUTO 28012G21KT 10SM OVC006 13/11 A2993 RMK AO2 SLP136 T01330106 55002=
202405162034 SPECI KCLM 162034Z AUTO 29010G21KT 260V320 10SM BKN006 BKN055 OVC100 13/11 A2993 RMK AO2 T01330106=
202405162026 SPECI KCLM 162026Z AUTO 31006G22KT 10SM SCT006 BKN055 OVC100 13/11 A2993 RMK AO2 T01330106=
202405161953 METAR KCLM 161953Z AUTO 34007KT 10SM FEW055 FEW070 OVC110 16/10 A2991 RMK AO2 SLP128 T01610100=
202405161853 METAR KCLM 161853Z AUTO 29010G19KT 10SM BKN070 BKN080 BKN110 16/10 A2993 RMK AO2 SLP135 T01560100=
202405161753 METAR KCLM 161753Z AUTO 30009KT 10SM BKN065 OVC090 16/11 A2994 RMK AO2 SLP137 T01560106 10161 20106 58007=
202405161653 METAR KCLM 161653Z AUTO 28007KT 10SM OVC055 13/10 A2996 RMK AO2 SLP145 T01330100=
202405161553 METAR KCLM 161553Z AUTO 28009KT 10SM OVC075 13/09 A2996 RMK AO2 SLP146 T01280094=
202405161453 METAR KCLM 161453Z AUTO 11003KT 10SM BKN080 BKN095 16/09 A2996 RMK AO2 SLP144 T01560094 56007=
202405161353 METAR KCLM 161353Z AUTO 25006KT 10SM CLR 13/09 A2997 RMK AO2 SLP147 T01330089=
202405161253 METAR KCLM 161253Z AUTO 28007KT 10SM CLR 11/08 A2996 RMK AO2 SLP146 T01110083=
202405161153 METAR KCLM 161153Z AUTO 24008KT 10SM CLR 12/08 A2998 RMK AO2 SLP151 T01220083 10122 20106 58008=
202405161053 METAR KCLM 161053Z AUTO 26008KT 10SM CLR 12/08 A2999 RMK AO2 SLP155 T01170083=
202405160953 METAR KCLM 160953Z AUTO 24010KT 10SM CLR 11/09 A3000 RMK AO2 SLP157 T01110089=
202405160853 METAR KCLM 160853Z AUTO 25011G16KT 10SM CLR 11/09 A3000 RMK AO2 SLP159 T01110089 56015=
202405160753 METAR KCLM 160753Z AUTO 27010KT 10SM CLR 11/09 A3001 RMK AO2 SLP162 T01060089 401670100=
202405160714 SPECI KCLM 160714Z AUTO 25008KT 10SM FEW006 11/09 A3002 RMK AO2 T01060089=
202405160653 METAR KCLM 160653Z AUTO 28006KT 10SM BKN006 11/09 A3003 RMK AO2 SLP168 T01060094=
202405160553 METAR KCLM 160553Z AUTO 26013G20KT 10SM OVC006 11/09 A3004 RMK AO2 SLP174 T01110094 10156 20111 56003=
202405160453 METAR KCLM 160453Z AUTO 28009G19KT 10SM OVC007 12/09 A3005 RMK AO2 SLP175 T01170094=
202405160353 METAR KCLM 160353Z AUTO 29012G17KT 10SM OVC007 12/09 A3004 RMK AO2 SLP172 T01170094=
202405160253 METAR KCLM 160253Z AUTO 28011G19KT 10SM OVC008 12/10 A3005 RMK AO2 SLP178 T01220100 55008=
202405160219 SPECI KCLM 160219Z AUTO 29011G20KT 10SM BKN009 13/10 A3006 RMK AO2 T01280100=
202405160153 METAR KCLM 160153Z AUTO 30011G19KT 10SM CLR 13/10 A3005 RMK AO2 SLP177 T01330100=
202405160053 METAR KCLM 160053Z AUTO 30007G16KT 10SM CLR 16/11 A3007 RMK AO2 SLP182 T01560106=
202405152353 METAR KCLM 152353Z AUTO 29006KT 10SM CLR 16/11 A3008 RMK AO2 SLP185 T01560106 10167 20139 58017=
202405152253 METAR KCLM 152253Z AUTO 29010KT 270V330 10SM CLR 15/11 A3011 RMK AO2 SLP196 T01500106=
202405152153 METAR KCLM 152153Z AUTO 30010G17KT 10SM CLR 15/11 A3013 RMK AO2 SLP202 T01500106=
202405152053 METAR KCLM 152053Z AUTO 30010KT 10SM CLR 16/11 A3013 RMK AO2 SLP203 T01610106 58014=
202405151953 METAR KCLM 151953Z AUTO 30005KT 10SM CLR 16/11 A3015 RMK AO2 SLP208 T01610106=
202405151853 METAR KCLM 151853Z AUTO 30009KT 10SM CLR 14/11 A3016 RMK AO2 SLP213 T01440106=
202405151753 METAR KCLM 151753Z AUTO 29008KT 10SM CLR 14/11 A3017 RMK AO2 SLP217 T01440106 10144 20100 58003=
202405151653 METAR KCLM 151653Z AUTO 30009KT 10SM FEW007 13/10 A3018 RMK AO2 SLP221 T01330100=
202405151646 SPECI KCLM 151646Z AUTO 31008KT 10SM SCT007 13/10 A3018 RMK AO2 T01330100=
202405151553 METAR KCLM 151553Z AUTO 30007KT 10SM OVC005 12/10 A3018 RMK AO2 SLP220 T01220100=
202405151528 SPECI KCLM 151528Z AUTO 30008KT 10SM OVC005 12/10 A3018 RMK AO2 T01170100=
202405151453 METAR KCLM 151453Z AUTO 28005KT 9SM OVC003 11/10 A3018 RMK AO2 SLP220 T01110100 53001=
202405151353 METAR KCLM 151353Z AUTO 28010KT 3SM BR OVC002 11/09 A3018 RMK AO2 SLP219 T01060094=
202405151346 SPECI KCLM 151346Z AUTO 27007KT 2SM BR OVC002 11/09 A3018 RMK AO2 VIS 1 3/4V3 T01060094=
202405151332 SPECI KCLM 151332Z AUTO 26007KT 1 1/2SM BR OVC002 11/09 A3017 RMK AO2 T01060094=
202405151314 SPECI KCLM 151314Z AUTO 28005KT 2SM BR OVC002 11/09 A3018 RMK AO2 T01060094=
202405151253 METAR KCLM 151253Z AUTO 28006KT 1SM BR OVC002 10/09 A3017 RMK AO2 SLP218 T01000094=
202405151241 SPECI KCLM 151241Z AUTO 29005KT 1 1/2SM BR OVC002 10/09 A3017 RMK AO2 T01000089=
202405151226 SPECI KCLM 151226Z AUTO 28006KT 2SM BR OVC002 10/09 A3017 RMK AO2 T01000089=
202405151153 METAR KCLM 151153Z AUTO 28005KT 9SM OVC003 10/09 A3018 RMK AO2 SLP219 T01000089 10111 20100 58002=
202405151100 SPECI KCLM 151100Z AUTO 00000KT 10SM BKN004 10/08 A3019 RMK AO2 T01000083=
202405151053 METAR KCLM 151053Z AUTO 24003KT 10SM SCT005 10/08 A3018 RMK AO2 SLP221 T01000083=
202405150953 METAR KCLM 150953Z AUTO 28007KT 10SM FEW005 10/09 A3019 RMK AO2 SLP224 T01000089=
202405150911 SPECI KCLM 150911Z AUTO 29006KT 10SM FEW005 10/09 A3019 RMK AO2 T01000089=
202405150853 METAR KCLM 150853Z AUTO 30007KT 10SM CLR 10/09 A3018 RMK AO2 SLP221 T01000089 56008=
202405150839 SPECI KCLM 150839Z AUTO 27005KT 10SM SCT005 10/09 A3018 RMK AO2 T01000089=
202405150814 SPECI KCLM 150814Z AUTO 27007KT 10SM BKN005 11/09 A3019 RMK AO2 T01060094=
202405150804 SPECI KCLM 150804Z AUTO 28008KT 10SM SCT005 11/09 A3020 RMK AO2 T01060089=
202405150753 METAR KCLM 150753Z AUTO 29005KT 10SM CLR 10/09 A3019 RMK AO2 SLP222 T01000089 401890067=
202405150721 SPECI KCLM 150721Z AUTO 25008KT 10SM SCT006 11/09 A3019 RMK AO2 T01060089=
202405150714 SPECI KCLM 150714Z AUTO 26007KT 10SM BKN006 11/09 A3020 RMK AO2 T01060089=
202405150706 SPECI KCLM 150706Z AUTO 27006KT 10SM SCT007 11/09 A3020 RMK AO2 T01060089=
202405150653 METAR KCLM 150653Z AUTO 29006KT 10SM CLR 11/09 A3020 RMK AO2 SLP228 T01060089=
202405150606 SPECI KCLM 150606Z AUTO 29006KT 10SM FEW008 11/09 A3021 RMK AO2 T01110089=
202405150553 METAR KCLM 150553Z AUTO 30005KT 10SM CLR 11/09 A3021 RMK AO2 SLP229 T01110089 10189 20111 53005=
202405150453 METAR KCLM 150453Z AUTO 30008KT 10SM CLR 12/09 A3021 RMK AO2 SLP229 T01220094=
202405150353 METAR KCLM 150353Z AUTO 28008KT 10SM CLR 14/09 A3019 RMK AO2 SLP224 T01440089=
202405150253 METAR KCLM 150253Z AUTO 29009KT 10SM CLR 15/09 A3019 RMK AO2 SLP225 T01500094 57004=
202405150153 METAR KCLM 150153Z AUTO 30006KT 10SM CLR 17/09 A3020 RMK AO2 SLP225 T01720089=
202405150053 METAR KCLM 150053Z AUTO 28008KT 10SM CLR 18/09 A3020 RMK AO2 SLP228 T01830094=
202405142353 METAR KCLM 142353Z AUTO 30007KT 10SM CLR 19/09 A3021 RMK AO2 SLP228 T01890089 10189 20150 58007=
202405142253 METAR KCLM 142253Z AUTO 29005KT 10SM CLR 17/09 A3022 RMK AO2 SLP232 T01720094=
202405142153 METAR KCLM 142153Z AUTO 35006KT 10SM CLR 16/09 A3022 RMK AO2 SLP233 T01610094=
202405142053 METAR KCLM 142053Z AUTO VRB04KT 10SM CLR 18/08 A3023 RMK AO2 SLP235 T01780083 56007=
202405141953 METAR KCLM 141953Z AUTO 02004KT 10SM CLR 16/08 A3024 RMK AO2 SLP240 T01610083=
202405141853 METAR KCLM 141853Z AUTO 04005KT 10SM CLR 17/08 A3023 RMK AO2 SLP237 T01670078=
202405141753 METAR KCLM 141753Z AUTO VRB03KT 10SM CLR 16/09 A3025 RMK AO2 SLP243 T01560094 10156 20067 52010=
202405141653 METAR KCLM 141653Z AUTO VRB05KT 10SM CLR 13/09 A3023 RMK AO2 SLP238 T01280094=
202405141553 METAR KCLM 141553Z AUTO 31005KT 10SM CLR 13/09 A3023 RMK AO2 SLP239 T01280089=
202405141453 METAR KCLM 141453Z AUTO 36003KT 10SM CLR 12/08 A3022 RMK AO2 SLP233 T01170083 53012=
202405141353 METAR KCLM 141353Z AUTO 26003KT 10SM CLR 10/07 A3020 RMK AO2 SLP228 T01000072=
202405141253 METAR KCLM 141253Z AUTO 00000KT 10SM CLR 07/06 A3019 RMK AO2 SLP225 T00720056=
202405141153 METAR KCLM 141153Z AUTO 00000KT 10SM CLR 07/06 A3018 RMK AO2 SLP221 T00720056 10111 20072 51006=
202405141053 METAR KCLM 141053Z AUTO 27009KT 10SM CLR 09/06 A3018 RMK AO2 SLP220 T00940061=
202405140953 METAR KCLM 140953Z AUTO 28008KT 10SM CLR 10/06 A3017 RMK AO2 SLP218 T01000061=
202405140853 METAR KCLM 140853Z AUTO 30008KT 10SM CLR 11/07 A3016 RMK AO2 SLP215 T01060067 58002=
202405140753 METAR KCLM 140753Z AUTO 28005KT 10SM CLR 09/06 A3017 RMK AO2 SLP217 T00940061 401670089=
202405140653 METAR KCLM 140653Z AUTO 26007KT 10SM CLR 09/07 A3017 RMK AO2 SLP216 T00940067=
202405140553 METAR KCLM 140553Z AUTO 27008KT 10SM CLR 11/07 A3017 RMK AO2 SLP216 T01060067 10150 20100 51013=
202405140453 METAR KCLM 140453Z AUTO 27009KT 10SM CLR 11/07 A3016 RMK AO2 SLP214 T01060072=
202405140353 METAR KCLM 140353Z AUTO 28008KT 10SM CLR 12/07 A3015 RMK AO2 SLP209 T01170072=
202405140253 METAR KCLM 140253Z AUTO 27010G17KT 10SM CLR 13/07 A3013 RMK AO2 SLP203 T01280072 51005=
202405140153 METAR KCLM 140153Z AUTO 30012G21KT 10SM CLR 14/07 A3013 RMK AO2 SLP202 T01390072=
202405140053 METAR KCLM 140053Z AUTO 30010G20KT 10SM BKN040 14/07 A3013 RMK AO2 PK WND 30031/0021 SLP201 T01440067=
202405132353 METAR KCLM 132353Z AUTO 31011G21KT 10SM BKN037 14/09 A3012 RMK AO2 SLP199 T01390094 10167 20133 58001=
202405132307 SPECI KCLM 132307Z AUTO 29005G18KT 10SM SCT019 OVC037 14/09 A3013 RMK AO2 T01440094=
202405132253 METAR KCLM 132253Z AUTO 27008G16KT 10SM BKN017 OVC037 14/09 A3013 RMK AO2 PK WND 30026/2210 SLP203 T01390089=
202405132243 SPECI KCLM 132243Z AUTO 29013G23KT 10SM BKN015 OVC035 14/09 A3013 RMK AO2 PK WND 30026/2210 T01390089=
202405132221 SPECI KCLM 132221Z AUTO 29011G22KT 10SM OVC014 14/09 A3013 RMK AO2 PK WND 30026/2210 T01390094=
202405132153 METAR KCLM 132153Z AUTO 29012G22KT 10SM BKN015 OVC037 14/10 A3013 RMK AO2 SLP203 T01440100=
202405132112 SPECI KCLM 132112Z AUTO 27010G19KT 10SM OVC013 14/10 A3012 RMK AO2 T01390100=
202405132053 METAR KCLM 132053Z AUTO 29009G16KT 10SM OVC015 14/10 A3012 RMK AO2 SLP201 T01390100 53010=
202405131953 METAR KCLM 131953Z AUTO 31010G22KT 10SM BKN017 BKN046 14/10 A3011 RMK AO2 PK WND 30027/1929 SLP195 T01440100=
202405131853 METAR KCLM 131853Z AUTO 30011G18KT 10SM CLR 14/10 A3009 RMK AO2 SLP190 T01440100=
202405131753 METAR KCLM 131753Z AUTO 29009KT OVC065 14/09 A3009 RMK AO2 SLP190 T01440094 10150 20111 50006 $=
202405131653 METAR KCLM 131653Z AUTO 10SM OVC065 13/09 A3009 RMK AO2 SLP190 T01330089 PWINO $=
202405131625 SPECI KCLM 131625Z AUTO 31009KT 10SM SCT011 OVC060 13/09 A3009 RMK AO2 T01330089 PWINO $=
202405131553 METAR KCLM 131553Z AUTO 28010KT 10SM BKN010 OVC065 13/09 A3009 RMK AO2 CIG 009V014 SLP190 T01280089=
202405131540 SPECI KCLM 131540Z AUTO 29005KT 10SM BKN012 OVC065 13/09 A3009 RMK AO2 T01280089=
202405131453 METAR KCLM 131453Z AUTO 29009KT 10SM OVC065 12/09 A3007 RMK AO2 SLP184 T01220089 53012=
202405131353 METAR KCLM 131353Z AUTO 30008KT 10SM BKN065 11/08 A3007 RMK AO2 SLP181 T01110083=
202405130853 METAR KCLM 130853Z AUTO 27009KT 10SM SCT006 11/08 A3004 RMK AO2 SLP173 T01060078 51006=
202405130753 METAR KCLM 130753Z AUTO 24005KT 10SM BKN006 11/08 A3004 RMK AO2 SLP171 T01110083 401830089=
202405130728 SPECI KCLM 130728Z AUTO 27006KT 10SM SCT006 11/08 A3003 RMK AO2 T01110083=
202405130653 METAR KCLM 130653Z AUTO 28009KT 10SM BKN005 11/08 A3003 RMK AO2 SLP170 T01110083=
202405130642 SPECI KCLM 130642Z AUTO 28009KT 10SM BKN006 11/08 A3003 RMK AO2 T01110083=
202405130626 SPECI KCLM 130626Z AUTO 29009G16KT 10SM BKN004 11/08 A3003 RMK AO2 CIG 003V008 T01110083=
202405130619 SPECI KCLM 130619Z AUTO 31004KT 10SM SCT006 12/09 A3003 RMK AO2 T01170089=
202405130553 METAR KCLM 130553Z AUTO 27007KT 10SM CLR 12/08 A3002 RMK AO2 SLP166 T01170083 10167 20117 51007=
202405130453 METAR KCLM 130453Z AUTO 27010KT 10SM CLR 12/09 A3002 RMK AO2 SLP165 T01220089=
202405130353 METAR KCLM 130353Z AUTO 28010KT 10SM CLR 13/08 A3001 RMK AO2 SLP161 T01330083=
202405130253 METAR KCLM 130253Z AUTO 29010KT 10SM CLR 15/08 A3000 RMK AO2 SLP159 T01500083 51005=
202405130153 METAR KCLM 130153Z AUTO 28007G14KT 10SM CLR 16/08 A3000 RMK AO2 SLP159 T01610083=
202405130053 METAR KCLM 130053Z AUTO 27011G16KT 10SM CLR 16/08 A3000 RMK AO2 SLP157 T01610083=
202405122353 METAR KCLM 122353Z AUTO 29014G24KT 10SM CLR 17/08 A2999 RMK AO2 PK WND 31027/2255 SLP154 T01670078 10183 20161 56004=
202405122253 METAR KCLM 122253Z AUTO 30013G23KT 10SM CLR 18/08 A2999 RMK AO2 SLP154 T01780078=
202405122153 METAR KCLM 122153Z AUTO 29012KT 10SM CLR 18/09 A2999 RMK AO2 SLP155 T01780089=
202405122053 METAR KCLM 122053Z AUTO 30008KT 10SM CLR 17/10 A3000 RMK AO2 SLP158 T01720100 58000=
202405121953 METAR KCLM 121953Z AUTO 29009KT 10SM CLR 17/10 A3000 RMK AO2 SLP160 T01720100=
202405121853 METAR KCLM 121853Z AUTO VRB06KT 10SM CLR 17/10 A3000 RMK AO2 SLP159 T01720100 $=
202405121753 METAR KCLM 121753Z AUTO 31008KT 290V350 10SM CLR 16/09 A3000 RMK AO2 SLP158 T01610094 10167 20089 51008 $=
202405121653 METAR KCLM 121653Z AUTO 30007KT 10SM CLR 16/09 A2999 RMK AO2 SLP157 T01560094 $=
202405121553 METAR KCLM 121553Z AUTO 29008KT 10SM CLR 14/09 A2999 RMK AO2 SLP154 T01440089 $=
202405121453 METAR KCLM 121453Z AUTO 28006KT 10SM CLR 14/08 A2998 RMK AO2 SLP150 T01390083 51007 $=
202405121353 METAR KCLM 121353Z AUTO 26003KT 10SM CLR 12/08 A2997 RMK AO2 SLP148 T01220083 $=
202405121253 METAR KCLM 121253Z AUTO 26006KT 10SM CLR 11/07 A2996 RMK AO2 SLP147 T01060067 $=
202405121153 METAR KCLM 121153Z AUTO 00000KT 10SM CLR 09/06 A2995 RMK AO2 SLP143 T00940056 10139 20094 53003 $=
202405121053 METAR KCLM 121053Z AUTO 27003KT 10SM CLR 11/07 A2995 RMK AO2 SLP141 T01110067 $=
202405120953 METAR KCLM 120953Z AUTO 28006KT 10SM CLR 11/07 A2994 RMK AO2 SLP139 T01110067 $=
202405120853 METAR KCLM 120853Z AUTO 27006KT 10SM CLR 12/07 A2994 RMK AO2 SLP138 T01170067 53002 $=
202405120753 METAR KCLM 120753Z AUTO 30004KT 10SM CLR 12/07 A2994 RMK AO2 SLP140 T01220067 402390100 $=
202405120653 METAR KCLM 120653Z AUTO 28013KT 10SM CLR 13/07 A2993 RMK AO2 SLP135 T01330072 $=
202405120553 METAR KCLM 120553Z AUTO 00000KT 10SM CLR 13/07 A2994 RMK AO2 SLP137 T01280072 10200 20128 53005 $=
202405120453 METAR KCLM 120453Z AUTO 25003KT 10SM CLR 14/08 A2993 RMK AO2 SLP136 T01440078 $=
202405120353 METAR KCLM 120353Z AUTO 28008KT 10SM CLR 15/08 A2992 RMK AO2 SLP132 T01500083=
202405120253 METAR KCLM 120253Z AUTO 27011KT 10SM CLR 17/09 A2992 RMK AO2 SLP131 T01720089 55005=
202405120153 METAR KCLM 120153Z AUTO 27008KT 10SM CLR 18/09 A2992 RMK AO2 SLP131 T01830094=
202405120053 METAR KCLM 120053Z AUTO 29007KT 10SM CLR 19/09 A2993 RMK AO2 SLP134 T01940094=
202405112353 METAR KCLM 112353Z AUTO 28008KT 10SM CLR 18/09 A2994 RMK AO2 SLP137 T01830094 10239 20183 55006=
202405112253 METAR KCLM 112253Z AUTO 33004KT 10SM CLR 23/09 A2994 RMK AO2 SLP137 T02280094=
202405112153 METAR KCLM 112153Z AUTO 04006KT 10SM CLR 22/08 A2995 RMK AO2 SLP142 T02220078=
202405112053 METAR KCLM 112053Z AUTO 06005KT 10SM CLR 23/08 A2995 RMK AO2 SLP142 T02330083 58007=
202405111953 METAR KCLM 111953Z AUTO 09008KT 10SM CLR 22/07 A2997 RMK AO2 SLP146 T02220072=
202405111853 METAR KCLM 111853Z AUTO 08008KT 10SM CLR 22/07 A2997 RMK AO2 SLP149 T02170072=
202405111753 METAR KCLM 111753Z AUTO 08009KT 10SM CLR 21/07 A2997 RMK AO2 SLP149 T02060072 10211 20100 53001=
202405111653 METAR KCLM 111653Z AUTO 08011KT 10SM CLR 20/07 A2998 RMK AO2 SLP149 T02000072=
202405111553 METAR KCLM 111553Z AUTO 03003KT 10SM CLR 21/09 A2997 RMK AO2 SLP147 T02060094=
202405111453 METAR KCLM 111453Z AUTO 15003KT 10SM CLR 18/08 A2997 RMK AO2 SLP148 T01780078 52006=
202405111353 METAR KCLM 111353Z AUTO 00000KT 10SM CLR 12/07 A2997 RMK AO2 SLP147 T01220072=
202405111253 METAR KCLM 111253Z AUTO 20003KT 10SM CLR 11/06 A2996 RMK AO2 SLP143 T01110061=
202405111153 METAR KCLM 111153Z AUTO 21003KT 10SM CLR 12/06 A2995 RMK AO2 SLP142 T01170056 10194 20100 58003=
202405111053 METAR KCLM 111053Z AUTO 21004KT 10SM CLR 10/06 A2996 RMK AO2 SLP144 T01000056=
202405110953 METAR KCLM 110953Z AUTO 22003KT 10SM CLR 12/06 A2997 RMK AO2 SLP147 T01220061=
202405110853 METAR KCLM 110853Z AUTO 00000KT 10SM CLR 13/06 A2996 RMK AO2 SLP145 T01330061 55006=
202405110753 METAR KCLM 110753Z AUTO 23007KT 10SM CLR 19/06 A2996 RMK AO2 SLP145 T01890061 402670083=
202405110653 METAR KCLM 110653Z AUTO 24009KT 10SM CLR 19/06 A2998 RMK AO2 SLP149 T01940061=
202405110553 METAR KCLM 110553Z AUTO 27006KT 10SM CLR 18/07 A2998 RMK AO2 SLP152 T01780067 10267 20156 56003=
202405110453 METAR KCLM 110453Z AUTO 22005KT 10SM CLR 17/07 A2998 RMK AO2 SLP152 T01670072=
202405110353 METAR KCLM 110353Z AUTO 21003KT 10SM CLR 17/09 A2999 RMK AO2 SLP153 T01670089=
202405110253 METAR KCLM 110253Z AUTO 00000KT 10SM CLR 22/08 A2999 RMK AO2 SLP155 T02170078 56017=
202405110153 METAR KCLM 110153Z AUTO 35003KT 10SM CLR 26/07 A3000 RMK AO2 SLP157 T02610072=
202405110053 METAR KCLM 110053Z AUTO 07004KT 10SM CLR 26/06 A3002 RMK AO2 SLP163 T02610061=
202405102353 METAR KCLM 102353Z AUTO 07005KT 10SM CLR 26/07 A3004 RMK AO2 SLP171 T02610067 10261 20206 58024=
202405102253 METAR KCLM 102253Z AUTO VRB04KT 10SM CLR 25/07 A3007 RMK AO2 SLP181 T02500072=
202405102153 METAR KCLM 102153Z AUTO 08006KT 10SM CLR 24/07 A3009 RMK AO2 SLP189 T02440067=
202405102053 METAR KCLM 102053Z AUTO 09006KT 10SM CLR 23/08 A3011 RMK AO2 SLP196 T02280078 56022=
202405101953 METAR KCLM 101953Z AUTO VRB04KT 10SM CLR 22/09 A3013 RMK AO2 SLP204 T02220089=
202405101853 METAR KCLM 101853Z AUTO VRB05KT 10SM CLR 21/08 A3015 RMK AO2 SLP210 T02110083=
202405101753 METAR KCLM 101753Z AUTO 08006KT 10SM CLR 21/08 A3018 RMK AO2 SLP218 T02060078 10211 20083 58009=
202405101653 METAR KCLM 101653Z AUTO 08006KT 10SM CLR 20/08 A3020 RMK AO2 SLP224 T02000078=
202405101553 METAR KCLM 101553Z AUTO VRB03KT 10SM CLR 20/07 A3021 RMK AO2 SLP228 T02000072=
202405101453 METAR KCLM 101453Z AUTO 09004KT 10SM CLR 19/08 A3021 RMK AO2 SLP227 T01940078 53000=
202405101353 METAR KCLM 101353Z AUTO 16004KT 10SM CLR 14/06 A3020 RMK AO2 SLP226 T01390061=
202405101253 METAR KCLM 101253Z AUTO 00000KT 10SM CLR 09/04 A3020 RMK AO2 SLP227 T00890039=
202405101153 METAR KCLM 101153Z AUTO 10004KT 10SM CLR 10/04 A3020 RMK AO2 SLP228 T01000044 10172 20089 55001=
202405101053 METAR KCLM 101053Z AUTO 00000KT 10SM CLR 10/04 A3020 RMK AO2 SLP225 T01000039=
202405100953 METAR KCLM 100953Z AUTO 20003KT 10SM CLR 10/04 A3020 RMK AO2 SLP227 T01000044=
202405100853 METAR KCLM 100853Z AUTO 22004KT 10SM CLR 11/04 A3021 RMK AO2 SLP229 T01110044 58004=
202405100753 METAR KCLM 100753Z AUTO 13003KT 10SM CLR 12/04 A3021 RMK AO2 SLP230 T01170044 402440061=
202405100653 METAR KCLM 100653Z AUTO 22003KT 10SM CLR 15/04 A3022 RMK AO2 SLP232 T01500044=
202405100553 METAR KCLM 100553Z AUTO 23009KT 10SM CLR 17/04 A3022 RMK AO2 SLP233 T01670044 10244 20150 58005=
202405100453 METAR KCLM 100453Z AUTO 23008KT 10SM CLR 17/06 A3023 RMK AO2 SLP236 T01670056=
202405100353 METAR KCLM 100353Z AUTO 19004KT 10SM CLR 16/07 A3023 RMK AO2 SLP236 T01610072=
202405100253 METAR KCLM 100253Z AUTO 16005KT 10SM CLR 22/06 A3023 RMK AO2 SLP237 T02170056 56016=
202405100153 METAR KCLM 100153Z AUTO 09004KT 10SM CLR 24/06 A3025 RMK AO2 SLP242 T02390056=
202405100053 METAR KCLM 100053Z AUTO VRB03KT 10SM CLR 24/05 A3026 RMK AO2 SLP247 T02390050=
202405092353 METAR KCLM 092353Z AUTO 08004KT 10SM CLR 24/06 A3028 RMK AO2 SLP254 T02390056 10239 20178 56024=
202405092253 METAR KCLM 092253Z AUTO 08005KT 10SM CLR 23/05 A3031 RMK AO2 SLP262 T02330050=
202405092153 METAR KCLM 092153Z AUTO 08005KT 10SM CLR 22/05 A3033 RMK AO2 SLP270 T02220050=
202405092053 METAR KCLM 092053Z AUTO 11006KT 10SM CLR 22/07 A3035 RMK AO2 SLP279 T02170072 56018=
202405091953 METAR KCLM 091953Z AUTO 10009KT 10SM CLR 21/07 A3037 RMK AO2 SLP284 T02060067=
202405091853 METAR KCLM 091853Z AUTO 09007KT 10SM CLR 19/07 A3039 RMK AO2 SLP290 T01890067=
202405091753 METAR KCLM 091753Z AUTO 08008KT 10SM CLR 18/07 A3041 RMK AO2 SLP297 T01780072 10183 20061 58008=
202405091653 METAR KCLM 091653Z AUTO 08004KT 10SM CLR 17/07 A3042 RMK AO2 SLP301 T01670072=
202405091553 METAR KCLM 091553Z AUTO 10007KT 10SM CLR 17/07 A3043 RMK AO2 SLP305 T01670067=
202405091453 METAR KCLM 091453Z AUTO 22003KT 10SM CLR 14/08 A3043 RMK AO2 SLP305 T01390078 51006=
202405091353 METAR KCLM 091353Z AUTO 00000KT 10SM CLR 09/06 A3043 RMK AO2 SLP305 T00940061=
202405091253 METAR KCLM 091253Z AUTO 22004KT 10SM CLR 07/04 A3042 RMK AO2 SLP302 T00670039=
202405091153 METAR KCLM 091153Z AUTO 18003KT 10SM CLR 07/04 A3041 RMK AO2 SLP300 T00720039 10094 20061 53007=
202405091053 METAR KCLM 091053Z AUTO 18003KT 10SM CLR 07/04 A3040 RMK AO2 SLP296 T00720044=
202405090953 METAR KCLM 090953Z AUTO 00000KT 10SM CLR 07/04 A3039 RMK AO2 SLP292 T00670039=
202405090853 METAR KCLM 090853Z AUTO 23003KT 10SM CLR 07/04 A3039 RMK AO2 SLP293 T00670039 51000=
202405090753 METAR KCLM 090753Z AUTO 00000KT 10SM CLR 08/04 A3039 RMK AO2 SLP291 T00780044 401500067=
202405090653 METAR KCLM 090653Z AUTO 23003KT 10SM CLR 09/05 A3040 RMK AO2 SLP294 T00890050=
202405090553 METAR KCLM 090553Z AUTO 27006KT 10SM CLR 09/04 A3039 RMK AO2 SLP292 T00890044 10144 20083 58005=
202405090453 METAR KCLM 090453Z AUTO 26004KT 10SM CLR 09/05 A3040 RMK AO2 SLP295 T00940050=
202405090353 METAR KCLM 090353Z AUTO 00000KT 10SM CLR 11/05 A3040 RMK AO2 SLP295 T01060050=
202405090253 METAR KCLM 090253Z AUTO 29005KT 10SM CLR 13/06 A3040 RMK AO2 SLP297 T01280056 56009=
202405090153 METAR KCLM 090153Z AUTO 30006KT 10SM CLR 14/06 A3041 RMK AO2 SLP300 T01390056=
202405090053 METAR KCLM 090053Z AUTO 30008KT 10SM CLR 14/06 A3042 RMK AO2 SLP302 T01440056=
202405082353 METAR KCLM 082353Z AUTO 29008KT 10SM CLR 14/06 A3043 RMK AO2 SLP307 T01440061 10150 20128 56008=
202405082253 METAR KCLM 082253Z AUTO 32007KT 280V350 10SM CLR 14/05 A3044 RMK AO2 SLP309 T01440050=
202405082153 METAR KCLM 082153Z AUTO 30009KT 10SM CLR 14/05 A3045 RMK AO2 SLP312 T01440050=
202405082053 METAR KCLM 082053Z AUTO 30009G18KT 10SM CLR 14/06 A3046 RMK AO2 SLP315 T01440061 50000=
202405081953 METAR KCLM 081953Z AUTO 31008G18KT 10SM CLR 14/06 A3046 RMK AO2 SLP316 T01440056=
202405081853 METAR KCLM 081853Z AUTO 29011G21KT 10SM CLR 13/06 A3046 RMK AO2 SLP317 T01330056=
202405081753 METAR KCLM 081753Z AUTO 32011KT 10SM CLR 13/06 A3046 RMK AO2 SLP315 T01330056 10139 20067 58001=
202405081653 METAR KCLM 081653Z AUTO 32009KT 10SM CLR 13/06 A3046 RMK AO2 SLP316 T01330056=
202405081553 METAR KCLM 081553Z AUTO 26006KT 10SM CLR 12/03 A3046 RMK AO2 SLP317 T01170028=
202405081453 METAR KCLM 081453Z AUTO 24009KT 10SM CLR 10/02 A3046 RMK AO2 SLP316 T01000017 51012=
202405081353 METAR KCLM 081353Z AUTO 24009KT 10SM CLR 08/01 A3045 RMK AO2 SLP312 T00830011=
202405081253 METAR KCLM 081253Z AUTO 25008KT 10SM CLR 07/01 A3044 RMK AO2 SLP310 T00720011=
202405081153 METAR KCLM 081153Z AUTO 25010KT 10SM CLR 07/01 A3043 RMK AO2 SLP304 T00670006 10083 20067 53010=
202405081053 METAR KCLM 081053Z AUTO 24008KT 10SM CLR 07/01 A3042 RMK AO2 SLP302 T00720011=
202405080953 METAR KCLM 080953Z AUTO 24010KT 10SM CLR 07/01 A3040 RMK AO2 SLP295 T00720011=
202405080853 METAR KCLM 080853Z AUTO 25008KT 10SM CLR 08/01 A3040 RMK AO2 SLP294 T00780011 51006=
202405080753 METAR KCLM 080753Z AUTO 25009KT 10SM CLR 08/02 A3039 RMK AO2 SLP292 T00780017 401500067=
202405080653 METAR KCLM 080653Z AUTO 27008KT 10SM CLR 08/03 A3038 RMK AO2 SLP290 T00780028=
202405080553 METAR KCLM 080553Z AUTO 25008KT 10SM CLR 09/03 A3038 RMK AO2 SLP287 T00890028 10128 20083 51016=
202405080453 METAR KCLM 080453Z AUTO 26008KT 10SM CLR 08/04 A3037 RMK AO2 SLP287 T00830039=
202405080353 METAR KCLM 080353Z AUTO 28008KT 10SM CLR 09/04 A3036 RMK AO2 SLP280 T00940039=
202405080253 METAR KCLM 080253Z AUTO 28015G22KT 10SM CLR 11/04 A3033 RMK AO2 SLP272 T01060044 51014=
202405080153 METAR KCLM 080153Z AUTO 30013G21KT 10SM CLR 12/03 A3032 RMK AO2 SLP269 T01170033=
202405080053 METAR KCLM 080053Z AUTO 30013G24KT 10SM CLR 12/04 A3032 RMK AO2 PK WND 29026/0024 SLP267 T01170044=
202405072353 METAR KCLM 072353Z AUTO 29016G25KT 10SM CLR 13/03 A3029 RMK AO2 SLP258 60000 T01280033 10150 20117 53005=
202405072253 METAR KCLM 072253Z AUTO 28016G22KT 10SM CLR 14/04 A3028 RMK AO2 SLP255 T01440039=
202405072153 METAR KCLM 072153Z AUTO 29012G21KT 10SM FEW030 13/04 A3028 RMK AO2 SLP253 T01330044=
202405072053 METAR KCLM 072053Z AUTO 30014G21KT 10SM FEW032 FEW046 SCT055 13/04 A3028 RMK AO2 RAB27E35 SLP253 P0000 60000 T01330039 53011=
202405071953 METAR KCLM 071953Z AUTO 29013G20KT 10SM FEW027 FEW039 SCT050 12/04 A3026 RMK AO2 RAB25E42 SLP249 P0000 T01220044=
202405071853 METAR KCLM 071853Z AUTO 32012G18KT 10SM SCT055 12/04 A3025 RMK AO2 SLP245 T01220044=
202405071753 METAR KCLM 071753Z AUTO 31013G23KT 10SM FEW043 12/04 A3024 RMK AO2 SLP242 T01220039 10133 20067 51017=
202405071653 METAR KCLM 071653Z AUTO 28011KT 10SM SCT040 12/03 A3023 RMK AO2 SLP239 T01220033=
202405071553 METAR KCLM 071553Z AUTO 28009KT 10SM FEW033 12/03 A3021 RMK AO2 SLP231 T01220033=
202405071453 METAR KCLM 071453Z AUTO 25009KT 10SM CLR 10/03 A3019 RMK AO2 SLP225 T01000028 51022=
202405071353 METAR KCLM 071353Z AUTO 25011KT 10SM CLR 08/02 A3017 RMK AO2 SLP218 T00830022=
202405071253 METAR KCLM 071253Z AUTO 24009KT 10SM CLR 07/02 A3015 RMK AO2 SLP211 T00720017=
202405071153 METAR KCLM 071153Z AUTO 25009KT 10SM CLR 07/02 A3012 RMK AO2 SLP202 70003 T00720017 10083 20067 52017=
202405071053 METAR KCLM 071053Z AUTO 26009KT 10SM CLR 07/02 A3011 RMK AO2 SLP197 T00670017=
202405070953 METAR KCLM 070953Z AUTO 26007KT 10SM CLR 07/02 A3009 RMK AO2 SLP190 T00670022=
202405070853 METAR KCLM 070853Z AUTO 25008KT 10SM FEW045 07/02 A3007 RMK AO2 SLP185 T00720017 53020=
202405070753 METAR KCLM 070753Z AUTO 25009KT 10SM CLR 08/02 A3004 RMK AO2 SLP173 T00780017 401280072=
202405070653 METAR KCLM 070653Z AUTO 25008KT 10SM CLR 08/02 A3003 RMK AO2 SLP170 T00780017=
202405070553 METAR KCLM 070553Z AUTO 26010KT 10SM CLR 08/02 A3001 RMK AO2 SLP165 60000 T00830017 10111 20072 51017=
202405070453 METAR KCLM 070453Z AUTO 28011KT 10SM CLR 08/02 A3000 RMK AO2 RAB11E21 SLP160 P0000 T00830022=
202405070353 METAR KCLM 070353Z AUTO 25006KT 10SM CLR 08/03 A2999 RMK AO2 SLP156 T00830033=
202405070253 METAR KCLM 070253Z AUTO 29011KT 10SM CLR 10/03 A2996 RMK AO2 SLP148 60000 T01000028 51013=
202405070153 METAR KCLM 070153Z AUTO 29009KT 10SM BKN047 BKN055 11/05 A2995 RMK AO2 RAB05E17 SLP144 P0000 T01060050=
202405070053 METAR KCLM 070053Z AUTO 29011G23KT 10SM OVC047 11/05 A2994 RMK AO2 RAB31E45 SLP141 P0000 T01110050=
202405062353 METAR KCLM 062353Z AUTO 29013G22KT 10SM FEW029 BKN047 10/05 A2993 RMK AO2 RAE23 SLP135 P0000 60002 T01000050 10122 20100 51007=
202405062253 METAR KCLM 062253Z AUTO 29013G19KT 9SM -RA SCT041 BKN050 BKN070 11/06 A2992 RMK AO2 RAB50 SLP132 P0001 T01060056=
202405062153 METAR KCLM 062153Z AUTO 31016G25KT 10SM FEW033 BKN050 BKN070 11/05 A2991 RMK AO2 RAB40E53 SLP130 P0000 T01110050=
202405062053 METAR KCLM 062053Z AUTO 29014G22KT 10SM FEW040 SCT110 11/06 A2990 RMK AO2 RAE38 SLP127 P0000 60001 T01110056 51014=
202405061953 METAR KCLM 061953Z AUTO 30008G21KT 10SM -RA BKN050 BKN070 BKN095 11/04 A2989 RMK AO2 RAE10B49 SLP122 P0001 T01060044=
202405061910 SPECI KCLM 061910Z AUTO 31008KT 10SM FEW015 BKN065 OVC080 11/06 A2988 RMK AO2 RAE10 P0000 T01060061=
202405061903 SPECI KCLM 061903Z AUTO 31007G19KT 9SM -RA BKN019 BKN037 OVC080 11/06 A2988 RMK AO2 P0000 T01060056=
202405061853 METAR KCLM 061853Z AUTO 30013G21KT 9SM -RA FEW018 BKN037 OVC080 11/05 A2988 RMK AO2 RAB24 SLP118 P0000 T01060050=
202405061753 METAR KCLM 061753Z AUTO 31009G19KT 10SM BKN065 BKN080 BKN100 11/04 A2986 RMK AO2 SLP113 60001 T01110044 10128 20078 53012=
202405061653 METAR KCLM 061653Z AUTO 29011KT 10SM FEW039 BKN047 BKN060 12/04 A2985 RMK AO2 RAB32E45 SLP107 P0000 T01170044=
202405061553 METAR KCLM 061553Z AUTO 28010KT 10SM FEW080 11/05 A2984 RMK AO2 RAE04 SLP104 P0000 T01110050=
202405061453 METAR KCLM 061453Z AUTO 28010KT 8SM -RA SCT038 BKN050 OVC080 09/04 A2983 RMK AO2 RAB43 SLP101 P0001 60001 T00940044 53012=
202405061353 METAR KCLM 061353Z AUTO 29005KT 10SM FEW040 OVC055 08/05 A2981 RMK AO2 SLP096 T00830050=
202405061253 METAR KCLM 061253Z AUTO 26007KT 10SM BKN065 08/04 A2980 RMK AO2 RAB02E13 SLP091 P0000 T00830044=
202405061153 METAR KCLM 061153Z AUTO 00000KT 10SM FEW049 OVC065 08/06 A2979 RMK AO2 RAB02E23 SLP089 P0000 60000 70002 T00830056 10094 20072 53003=
202405061053 METAR KCLM 061053Z AUTO 23003KT 10SM FEW012 BKN055 OVC070 09/06 A2978 RMK AO2 RAB12E28 SLP085 P0000 T00890061=
202405061042 SPECI KCLM 061042Z AUTO 25006KT 10SM FEW011 BKN047 OVC065 09/06 A2978 RMK AO2 RAB12E28 P0000 T00890061=
202405061027 SPECI KCLM 061027Z AUTO 29005KT 10SM -RA SCT014 BKN020 OVC060 09/06 A2978 RMK AO2 RAB12 P0000 T00890061=
202405060953 METAR KCLM 060953Z AUTO 23005KT 10SM SCT060 08/05 A2978 RMK AO2 SLP085 T00780050=
202405060853 METAR KCLM 060853Z AUTO 27007KT 10SM BKN050 OVC060 09/06 A2978 RMK AO2 RAB00E24 SLP085 P0000 60000 T00890061 56005=
202405060753 METAR KCLM 060753Z AUTO 00000KT 10SM OVC060 08/06 A2978 RMK AO2 SLP086 T00830061 401330072=
202405060653 METAR KCLM 060653Z AUTO 11007KT 10SM FEW018 SCT070 BKN100 09/06 A2978 RMK AO2 SLP085 T00890061=
202405060644 SPECI KCLM 060644Z AUTO 11006KT 10SM SCT018 BKN050 BKN070 09/06 A2978 RMK AO2 T00890061=
202405060626 SPECI KCLM 060626Z AUTO 11006KT 10SM BKN018 09/06 A2979 RMK AO2 T00940061=
202405060553 METAR KCLM 060553Z AUTO 10005KT 10SM SCT014 BKN090 08/06 A2979 RMK AO2 SLP090 T00830056 10122 20072 50008=
202405060453 METAR KCLM 060453Z AUTO 00000KT 10SM FEW018 SCT090 09/06 A2980 RMK AO2 SLP091 T00940056=
202405060353 METAR KCLM 060353Z AUTO 09003KT 10SM OVC075 11/06 A2978 RMK AO2 SLP084 T01060061=
202405060253 METAR KCLM 060253Z AUTO 00000KT 10SM FEW008 BKN090 BKN120 10/07 A2977 RMK AO2 SLP082 T01000067 53006=
202405060227 SPECI KCLM 060227Z AUTO 30006KT 10SM SCT008 SCT060 BKN095 10/07 A2977 RMK AO2 T01000067=
202405060153 METAR KCLM 060153Z AUTO 30012G19KT 10SM SCT060 BKN110 12/06 A2975 RMK AO2 SLP076 T01170056=
202405060053 METAR KCLM 060053Z AUTO 30010G22KT 10SM FEW008 SCT015 BKN039 11/07 A2975 RMK AO2 SLP075 T01060067=
202405060029 SPECI KCLM 060029Z AUTO 30013G23KT 10SM FEW007 BKN017 OVC031 11/07 A2976 RMK AO2 T01060072=
202405052353 METAR KCLM 052353Z AUTO 30007KT 10SM OVC023 11/08 A2975 RMK AO2 RAB2254E27 SLP075 P0002 60002 T01060078 10133 20106 50004=
202405052303 SPECI KCLM 052303Z AUTO 32006KT 4SM -RA FEW005 SCT015 OVC021 11/08 A2975 RMK AO2 RAB2254 P0001 T01110078=
202405052253 METAR KCLM 052253Z AUTO 31006KT 6SM HZ SCT013 BKN018 OVC036 11/08 A2975 RMK AO2 SLP076 T01110078=
202405052237 SPECI KCLM 052237Z AUTO 30009KT 10SM SCT013 BKN026 OVC043 12/08 A2975 RMK AO2 T01170083=
202405052215 SPECI KCLM 052215Z AUTO VRB05KT 10SM FEW007 BKN013 OVC021 12/08 A2975 RMK AO2 T01170083=
202405052153 METAR KCLM 052153Z AUTO VRB05KT 10SM OVC023 12/08 A2975 RMK AO2 RAE05 SLP075 P0000 T01220083=
202405052124 SPECI KCLM 052124Z AUTO 32007KT 10SM FEW018 BKN023 OVC075 12/08 A2975 RMK AO2 RAE05 P0000 T01220078=
202405052053 METAR KCLM 052053Z AUTO 00000KT 10SM -RA OVC070 12/08 A2974 RMK AO2 RAB32 SLP070 P0000 60000 T01220078 52008=
202405051953 METAR KCLM 051953Z AUTO 12003KT 10SM FEW019 OVC065 13/08 A2973 RMK AO2 SLP066 T01280078=
202405051853 METAR KCLM 051853Z AUTO 00000KT 10SM OVC055 13/08 A2972 RMK AO2 SLP065 T01330078=
202405051753 METAR KCLM 051753Z AUTO 30004KT 10SM BKN055 OVC065 12/07 A2971 RMK AO2 SLP062 60000 T01220072 10122 20106 51013=
202405051653 METAR KCLM 051653Z AUTO 30005KT 10SM FEW016 OVC075 12/07 A2971 RMK AO2 SLP059 T01220072=
202405051606 SPECI KCLM 051606Z AUTO 33003KT 10SM SCT012 BKN080 OVC110 12/07 A2970 RMK AO2 T01220072=
202405051553 METAR KCLM 051553Z AUTO 24003KT 10SM BKN011 OVC080 12/08 A2969 RMK AO2 SLP056 T01220078=
202405051535 SPECI KCLM 051535Z AUTO 00000KT 10SM BKN010 OVC110 12/08 A2969 RMK AO2 T01170078=
202405051453 METAR KCLM 051453Z AUTO 29007KT 10SM FEW080 OVC110 11/08 A2967 RMK AO2 RAB22E35 SLP049 P0000 60000 T01110078 51009=
202405051353 METAR KCLM 051353Z AUTO 28009KT 10SM BKN090 OVC110 11/08 A2967 RMK AO2 SLP048 T01110078=
202405051253 METAR KCLM 051253Z AUTO 29009KT 10SM OVC100 11/08 A2966 RMK AO2 SLP043 T01060078=
202405051153 METAR KCLM 051153Z AUTO 28010KT 10SM SCT060 OVC075 11/08 A2965 RMK AO2 RAB1055E19 SLP039 P0000 60000 70002 T01110083 10133 20111 53008=
202405051053 METAR KCLM 051053Z AUTO 29009KT 10SM OVC065 12/08 A2964 RMK AO2 SLP036 T01170078=
202405050953 METAR KCLM 050953Z AUTO 26008KT 10SM OVC070 13/08 A2962 RMK AO2 SLP031 T01330083=
202405050853 METAR KCLM 050853Z AUTO 25011KT 10SM OVC070 13/08 A2962 RMK AO2 SLP031 T01330083 53000=
202405050753 METAR KCLM 050753Z AUTO 25012KT 10SM BKN060 OVC075 13/08 A2962 RMK AO2 SLP029 T01330083 401610078=
202405050653 METAR KCLM 050653Z AUTO 24007KT 10SM OVC070 13/08 A2962 RMK AO2 SLP030 T01330078=
202405050553 METAR KCLM 050553Z AUTO 24007KT 10SM OVC065 13/08 A2962 RMK AO2 SLP031 60001 T01330078 10139 20122 50006=
202405050453 METAR KCLM 050453Z AUTO 25006KT 10SM BKN055 OVC070 13/08 A2963 RMK AO2 SLP033 T01280083=
202405050353 METAR KCLM 050353Z AUTO 27007KT 10SM OVC070 12/09 A2961 RMK AO2 RAE08 SLP028 P0000 T01220089=
202405050253 METAR KCLM 050253Z AUTO 29008KT 10SM -RA OVC065 12/09 A2961 RMK AO2 RAE22B45 SLP026 P0000 60001 T01220089 52013=
202405050153 METAR KCLM 050153Z AUTO 28004KT 10SM -RA OVC065 12/09 A2960 RMK AO2 RAB00 SLP022 P0001 T01220094=
202405050053 METAR KCLM 050053Z AUTO 30004KT 10SM OVC070 13/08 A2958 RMK AO2 SLP016 T01280083=
202405042353 METAR KCLM 042353Z AUTO 33003KT 10SM OVC070 14/09 A2957 RMK AO2 RAE46 SLP013 P0001 60001 T01390094 10161 20117 53004=
202405042253 METAR KCLM 042253Z AUTO 29004KT 10SM -RA BKN060 OVC070 13/09 A2957 RMK AO2 RAB15 SLP012 P0000 T01330094=
202405042153 METAR KCLM 042153Z AUTO 00000KT 10SM BKN055 OVC070 16/09 A2955 RMK AO2 RAE04 SLP007 P0000 T01560089=
202405042053 METAR KCLM 042053Z AUTO 29003KT 10SM -RA OVC060 14/08 A2955 RMK AO2 RAB21 SLP008 P0000 60000 T01440083 56003=
202405041953 METAR KCLM 041953Z AUTO VRB03KT 10SM BKN070 12/07 A2956 RMK AO2 SLP010 T01220067=
202405041853 METAR KCLM 041853Z AUTO 31003KT 10SM FEW034 FEW047 SCT070 15/09 A2955 RMK AO2 RAE10 SLP005 P0000 T01500089=
202405041753 METAR KCLM 041753Z AUTO 23003KT 10SM -RA OVC065 13/08 A2956 RMK AO2 RAB03 SLP011 P0000 60000 T01280083 10128 20100 58008=
202405041653 METAR KCLM 041653Z AUTO 23004KT 10SM OVC060 12/07 A2957 RMK AO2 SLP015 T01220072=
202405041553 METAR KCLM 041553Z AUTO 26004KT 10SM OVC060 11/07 A2959 RMK AO2 RAE21B40E50 SLP020 P0000 T01110072=
202405041453 METAR KCLM 041453Z AUTO 23003KT 10SM -RA BKN060 OVC075 11/07 A2959 RMK AO2 RAB48 SLP020 P0000 60000 T01060072 56009=
202405041415 SPECI KCLM 041415Z AUTO 29004KT 10SM SCT013 OVC070 10/07 A2959 RMK AO2 T01000067=
202405041353 METAR KCLM 041353Z AUTO 28007KT 10SM OVC013 10/07 A2959 RMK AO2 SLP020 T01000067=
202405041327 SPECI KCLM 041327Z AUTO 29007KT 10SM SCT007 OVC013 10/07 A2959 RMK AO2 T01000067=
202405041253 METAR KCLM 041253Z AUTO 28007KT 10SM BKN007 OVC013 10/07 A2960 RMK AO2 SLP023 T01000072=
202405041153 METAR KCLM 041153Z AUTO 27007KT 10SM BKN009 OVC014 11/07 A2961 RMK AO2 CIG 006V011 SLP028 T01060072 10111 20078 50001=
202405041151 SPECI KCLM 041151Z AUTO 27008KT 10SM OVC009 11/07 A2962 RMK AO2 CIG 006V011=
202405041136 SPECI KCLM 041136Z AUTO 29008KT 10SM BKN010 BKN014 OVC050 11/07 A2961 RMK AO2 T01060072=
202405041053 METAR KCLM 041053Z AUTO 28008KT 10SM SCT050 BKN075 OVC090 11/06 A2961 RMK AO2 SLP028 T01110061=
202405040953 METAR KCLM 040953Z AUTO 25007KT 10SM BKN075 OVC095 09/06 A2961 RMK AO2 SLP028 T00940061=
202405040853 METAR KCLM 040853Z AUTO 00000KT 10SM FEW100 08/06 A2963 RMK AO2 SLP034 T00830056 56012=
202405040753 METAR KCLM 040753Z AUTO 21004KT 10SM CLR 08/06 A2964 RMK AO2 SLP037 T00830056 401610033=
202405040653 METAR KCLM 040653Z AUTO 18004KT 10SM CLR 10/07 A2965 RMK AO2 SLP042 T01000067=
202405040553 METAR KCLM 040553Z AUTO 00000KT 10SM CLR 11/07 A2967 RMK AO2 SLP046 T01060072 10139 20106 56013=
202405040453 METAR KCLM 040453Z AUTO 22004KT 10SM CLR 11/07 A2967 RMK AO2 SLP049 T01060072=
202405040353 METAR KCLM 040353Z AUTO 29004KT 10SM BKN090 12/07 A2969 RMK AO2 SLP053 T01170072=
202405040253 METAR KCLM 040253Z AUTO 29004KT 10SM SCT085 BKN120 12/07 A2970 RMK AO2 SLP059 T01220067 58012=
202405040153 METAR KCLM 040153Z AUTO 27005KT 10SM OVC110 13/06 A2972 RMK AO2 SLP065 T01280056=
202405040053 METAR KCLM 040053Z AUTO VRB03KT 10SM OVC110 13/06 A2973 RMK AO2 SLP067 T01280061=
202405032353 METAR KCLM 032353Z AUTO 32005KT 10SM BKN110 14/06 A2974 RMK AO2 SLP071 T01440061 10161 20122 58026=
202405032253 METAR KCLM 032253Z AUTO 29007KT 10SM CLR 16/04 A2976 RMK AO2 SLP079 T01560044=
202405032153 METAR KCLM 032153Z AUTO 31005KT 10SM CLR 15/06 A2979 RMK AO2 SLP089 T01500061=
202405032053 METAR KCLM 032053Z AUTO 28006KT 10SM CLR 14/07 A2982 RMK AO2 SLP097 T01390067 58028=
202405031953 METAR KCLM 031953Z AUTO 29009KT 10SM CLR 13/07 A2985 RMK AO2 SLP107 T01330067=
202405031853 METAR KCLM 031853Z AUTO 32004KT 10SM CLR 13/04 A2987 RMK AO2 SLP116 T01280044=
202405031753 METAR KCLM 031753Z AUTO VRB03KT 10SM CLR 13/04 A2990 RMK AO2 SLP125 T01280044 10128 20033 56016=
202405031653 METAR KCLM 031653Z AUTO 35005KT 10SM CLR 12/06 A2991 RMK AO2 SLP130 T01170056=
202405031553 METAR KCLM 031553Z AUTO VRB03KT 10SM CLR 12/06 A2992 RMK AO2 SLP134 T01170056=
202405031453 METAR KCLM 031453Z AUTO 36003KT 10SM CLR 11/06 A2995 RMK AO2 SLP141 T01060056 58016=
202405031353 METAR KCLM 031353Z AUTO 00000KT 10SM CLR 07/01 A2997 RMK AO2 SLP148 T00670011=
202405031253 METAR KCLM 031253Z AUTO 00000KT 10SM CLR 04/00 A2998 RMK AO2 SLP151 T00390000=
202405031153 METAR KCLM 031153Z AUTO 00000KT 10SM CLR 04/00 A2999 RMK AO2 SLP157 T00440000 10122 20039 58010=
202405031053 METAR KCLM 031053Z AUTO 00000KT 10SM CLR 06/00 A3001 RMK AO2 SLP163 T00560000=
202405030953 METAR KCLM 030953Z AUTO 00000KT 10SM CLR 06/01 A3001 RMK AO2 SLP164 T00560006=
202405030853 METAR KCLM 030853Z AUTO 23009KT 10SM CLR 10/01 A3002 RMK AO2 SLP166 T01000011 58001=
202405030753 METAR KCLM 030753Z AUTO 25008KT 10SM CLR 11/01 A3002 RMK AO2 SLP166 T01060006 401940028=
202405030653 METAR KCLM 030653Z AUTO 24011G18KT 10SM CLR 12/01 A3003 RMK AO2 SLP168 T01170006=
202405030553 METAR KCLM 030553Z AUTO 24008KT 10SM CLR 11/01 A3003 RMK AO2 SLP167 T01060006 10194 20083 58001=
202405030453 METAR KCLM 030453Z AUTO 00000KT 10SM CLR 09/03 A3003 RMK AO2 SLP171 T00890028=
202405030353 METAR KCLM 030353Z AUTO 25003KT 10SM CLR 11/02 A3003 RMK AO2 SLPNO T01060022=
202405030253 METAR KCLM 030253Z AUTO 27003KT 10SM CLR 13/03 A3003 RMK AO2 SLP170 T01280028 56003=
202405030153 METAR KCLM 030153Z AUTO 28007KT 10SM CLR 14/04 A3003 RMK AO2 SLP171 T01440039=
202405030053 METAR KCLM 030053Z AUTO 12003KT 10SM CLR 19/00 A3003 RMK AO2 SLP170 T01890000=
202405022353 METAR KCLM 022353Z AUTO 07003KT 10SM CLR 18/01 A3004 RMK AO2 SLP173 T01830006 10183 20150 58009=
202405022253 METAR KCLM 022253Z AUTO VRB05KT 10SM CLR 18/02 A3005 RMK AO2 SLP177 T01780017=
202405022153 METAR KCLM 022153Z AUTO 07005KT 10SM CLR 17/02 A3006 RMK AO2 SLP179 T01720022=
202405022053 METAR KCLM 022053Z AUTO 00000KT 10SM CLR 17/02 A3007 RMK AO2 SLP182 T01720022 56008=
202405021953 METAR KCLM 021953Z AUTO 10005KT 10SM CLR 16/03 A3007 RMK AO2 SLP185 T01610028=
202405021853 METAR KCLM 021853Z AUTO 03006KT 10SM CLR 16/03 A3008 RMK AO2 SLP188 T01560028=
202405021753 METAR KCLM 021753Z AUTO 08006KT 10SM CLR 15/02 A3009 RMK AO2 SLP191 T01500022 10150 20028 51001=
202405021653 METAR KCLM 021653Z AUTO VRB03KT 10SM CLR 15/04 A3009 RMK AO2 SLP190 T01500039=
202405021553 METAR KCLM 021553Z AUTO A3009 RMK AO2 SLPNO PWINO $=
202405021453 METAR KCLM 021453Z AUTO 23004KT 10SM CLR 10/04 A3009 RMK AO2 SLP190 T01000044 53005=
202405021353 METAR KCLM 021353Z AUTO 25003KT 10SM CLR 06/02 A3008 RMK AO2 SLP188 T00560022=
202405021253 METAR KCLM 021253Z AUTO 00000KT 10SM CLR 03/00 A3007 RMK AO2 SLP185 T00330000=
202405021153 METAR KCLM 021153Z AUTO 00000KT 10SM CLR 04/01 A3007 RMK AO2 SLP184 T00390006 10078 20039 53005=
202405021053 METAR KCLM 021053Z AUTO 23005KT 10SM CLR 05/01 A3007 RMK AO2 SLP182 T00500011=
202405020953 METAR KCLM 020953Z AUTO 22006KT 10SM CLR 05/02 A3005 RMK AO2 SLP178 T00500017=
202405020853 METAR KCLM 020853Z AUTO 00000KT 10SM CLR 05/01 A3006 RMK AO2 SLP179 T00500011 57007=
202405020753 METAR KCLM 020753Z AUTO 23003KT 10SM CLR 06/02 A3007 RMK AO2 SLP183 T00610022 401440050=
202405020653 METAR KCLM 020653Z AUTO 00000KT 10SM FEW041 05/02 A3007 RMK AO2 SLP183 T00500017=
202405020553 METAR KCLM 020553Z AUTO 21003KT 10SM CLR 08/03 A3008 RMK AO2 SLP187 T00780028 10144 20078 58005=
202405020453 METAR KCLM 020453Z AUTO 24004KT 10SM SCT085 09/03 A3009 RMK AO2 SLP191 T00890033=
202405020353 METAR KCLM 020353Z AUTO 25004KT 10SM BKN090 OVC100 10/03 A3010 RMK AO2 SLP192 T01000033=
202405020253 METAR KCLM 020253Z AUTO 29004KT 10SM BKN080 OVC100 11/04 A3010 RMK AO2 SLP192 T01060039 56011=
202405020153 METAR KCLM 020153Z AUTO 31003KT 10SM OVC070 11/02 A3010 RMK AO2 SLP195 T01110017=
202405020053 METAR KCLM 020053Z AUTO VRB04KT 10SM BKN075 OVC100 12/02 A3011 RMK AO2 SLP197 T01220022=
202405012353 METAR KCLM 012353Z AUTO 03004KT 10SM OVC070 13/02 A3013 RMK AO2 SLP204 T01280022 10139 20117 56016=
202405012253 METAR KCLM 012253Z AUTO VRB03KT 10SM OVC070 13/03 A3014 RMK AO2 SLP208 T01330028=
202405012153 METAR KCLM 012153Z AUTO VRB05KT 10SM CLR 13/02 A3016 RMK AO2 SLP213 T01330022=
202405012053 METAR KCLM 012053Z AUTO VRB06KT 10SM CLR 13/02 A3018 RMK AO2 SLP220 T01330022 58013=
202405011953 METAR KCLM 011953Z AUTO VRB04KT 10SM CLR 13/02 A3020 RMK AO2 SLP226 T01280017=
202405011853 METAR KCLM 011853Z AUTO 32008KT 10SM CLR 12/02 A3021 RMK AO2 SLP230 T01220022=
202405011753 METAR KCLM 011753Z AUTO 33008KT 10SM CLR 12/02 A3022 RMK AO2 SLP233 T01220022 10128 20061 56004=
202405011653 METAR KCLM 011653Z AUTO 10SM CLR 12/02 A3022 RMK AO2 SLP233 T01170017=
202405011553 METAR KCLM 011553Z AUTO 10SM CLR 12/02 A3023 RMK AO2 SLP237 T01220017 $=
202405011453 METAR KCLM 011453Z AUTO 10SM CLR 10/01 A3023 RMK AO2 SLP237 T01000006 53005 $=
202405011353 METAR KCLM 011353Z AUTO 23009KT 10SM CLR 06/M01 A3022 RMK AO2 SLP234 T00611006=
202405011253 METAR KCLM 011253Z AUTO 24009KT 10SM CLR 07/M01 A3021 RMK AO2 SLP233 T00671011=
202405011153 METAR KCLM 011153Z AUTO 23010KT 10SM CLR 07/M01 A3021 RMK AO2 SLP232 7//// T00721011 10083 20072 50002=
202405011053 METAR KCLM 011053Z AUTO 24007KT 10SM CLR 07/M01 A3021 RMK AO2 SLP232 T00721006=
202405010953 METAR KCLM 010953Z AUTO 24007KT 10SM CLR 07/00 A3021 RMK AO2 SLP231 T00720000=
202405010853 METAR KCLM 010853Z AUTO 25012KT 10SM CLR 08/00 A3021 RMK AO2 SLP230 T00780000 51006=
202405010753 METAR KCLM 010753Z AUTO 24013G19KT 10SM CLR 08/00 A3021 RMK AO2 SLPNO T00780000 401440050=
202405010653 METAR KCLM 010653Z AUTO 24010KT 10SM CLR 08/01 A3020 RMK AO2 SLPNO T00780006=
202405010553 METAR KCLM 010553Z AUTO 25008KT 10SM CLR 08/02 A3019 RMK AO2 SLP224 T00830017 10139 20078 50012=
202405010453 METAR KCLM 010453Z AUTO 26007KT 10SM CLR 08/03 A3019 RMK AO2 SLP226 T00780028=
202405010353 METAR KCLM 010353Z AUTO 24006KT 10SM CLR 09/03 A3018 RMK AO2 SLP220 T00940033=
202405010253 METAR KCLM 010253Z AUTO 28007KT 10SM CLR 11/02 A3015 RMK AO2 SLP212 T01110022 51004=
202405010153 METAR KCLM 010153Z AUTO 28008KT 10SM CLR 12/03 A3015 RMK AO2 SLP210 T01170028=
202405010053 METAR KCLM 010053Z AUTO 29011G18KT 10SM CLR 12/03 A3015 RMK AO2 SLP210 T01170033=

# No short TAF reports from KCLM in databse.

###################################
#  large TAF from KCLM
###################################
202405312320 TAF KCLM 312320Z 0100/0124 30005KT P6SM SCT120 BKN200 FM010600
                       27006KT P6SM BKN090 OVC150 FM011000 28003KT
                       P6SM -RA OVC030 FM011400 VRB03KT P6SM -RA
                       OVC015 FM011800 33005KT P6SM OVC020=
202405311720 TAF KCLM 311720Z 3118/0118 33007KT P6SM SCT200 FM312300 30009KT
                       P6SM SCT120 BKN200 FM010600 27006KT P6SM
                       BKN090 OVC150 FM011000 28003KT P6SM -RA
                       OVC030 FM011400 VRB03KT P6SM -RA OVC015=
202405311122 TAF KCLM 311122Z 3112/0112 27005KT P6SM SCT250 FM311800 33007KT
                       P6SM BKN200 FM312300 30009KT P6SM SCT120
                       OVC200 FM010600 27006KT P6SM BKN090 OVC150
                       FM011000 28003KT P6SM -RA OVC030=
202405310524 TAF KCLM 310524Z 3106/0106 24006KT P6SM SCT200 FM311200 VRB03KT
                       P6SM BKN200 FM312200 30006KT P6SM SCT250=
202405302320 TAF KCLM 302320Z 3100/3124 32006KT P6SM SCT050 SCT200 FM310400
                       27008KT P6SM SCT200 FM311200 VRB03KT P6SM
                       BKN200 FM311800 04006KT P6SM SCT250=
202405301720 TAF KCLM 301720Z 3018/3118 32010KT P6SM SCT050 SCT200 FM310400
                       27008KT P6SM SCT200 FM311200 VRB03KT P6SM
                       BKN200=
202405301120 TAF KCLM 301120Z 3012/3112 25008KT P6SM SCT060 FM301600 26008KT
                       P6SM BKN050 BKN200 FM302100 32010KT P6SM
                       SCT050 SCT200 FM310400 29008KT P6SM SCT200=
202405300536 TAF KCLM 300536Z 3006/3106 27010KT P6SM SCT060 FM301500 26008KT
                       P6SM BKN050 FM302100 32010KT P6SM SCT050
                       SCT200=
202405292320 TAF KCLM 292320Z 3000/3024 30012G20KT P6SM SCT050 FM300400 27010KT
                       P6SM BKN060 FM301500 26008KT P6SM BKN045=
202405291727 TAF KCLM 291727Z 2918/3018 35005KT P6SM FEW035 SCT045 BKN060 FM292100
                       28012G20KT P6SM BKN045 FM300700 27010KT
                       P6SM BKN060 FM301500 26008KT P6SM BKN045=
202405291127 TAF KCLM 291127Z 2912/3012 23004KT P6SM VCSH BKN040 FM291800 28010KT
                       P6SM SCT025 BKN040 FM292100 28012G18KT P6SM
                       BKN045 FM300700 27010KT P6SM BKN060=
202405290538 TAF KCLM 290538Z 2906/3006 28004KT P6SM SCT050 FM291200 28004KT
                       P6SM OVC025 FM291900 28010KT P6SM SCT025
                       BKN040=
202405282329 TAF KCLM 282329Z 2900/2924 29012G20KT P6SM FEW016 SCT050 BKN070
                       FM290500 28009KT P6SM BKN050 FM291500 27009KT
                       P6SM OVC030 FM291800 30012G20KT P6SM -SHRA
                       BKN040=
202405281940 KCLM 281940Z 2820/2918 29012G20KT P6SM FEW012 SCT021 OVC045 FM290500
                       28009KT P6SM BKN050 FM291500 27009KT P6SM
                       OVC030=
202405281759 KCLM 281759Z 2818/2918 29004KT 6SM -RA BKN007 OVC011 FM282200 29012G20KT
                       P6SM BKN045 FM290500 28009KT P6SM BKN050
                       FM291500 27009KT P6SM OVC030=
202405281733 TAF KCLM 281733Z 2818/2918 29004KT 6SM -RA BKN005 BKN020 OVC030
                       FM282200 29012G20KT P6SM BKN045 FM290500
                       28009KT P6SM BKN050 FM291500 27009KT P6SM
                       OVC030=
202405281653 KCLM 281653Z 2817/2912 29004KT 6SM -RA BKN005 BKN020 OVC030 FM281900
                       27012KT P6SM VCSH SCT025 BKN040 FM282200
                       29012G18KT P6SM BKN045 FM290500 28009KT
                       P6SM BKN050=
202405281632 KCLM 281632Z 2817/2912 29004KT P6SM -RA BKN012 OVC030 FM281900
                       27012KT P6SM VCSH SCT025 BKN040 FM282200
                       29012G18KT P6SM BKN045 FM290500 28009KT
                       P6SM BKN050=
202405281618 KCLM 281618Z 2816/2912 29004KT P6SM -RA OVC009 FM281900 27012KT
                       P6SM VCSH SCT025 BKN040 FM282200 29012G18KT
                       P6SM BKN045 FM290500 28009KT P6SM BKN050=
202405281606 KCLM 281606Z 2816/2912 VRB03KT P6SM -RA OVC012 FM281900 27012KT
                       P6SM VCSH SCT025 BKN040 FM282200 29012G18KT
                       P6SM BKN045 FM290500 28009KT P6SM BKN050=
202405281125 TAF KCLM 281125Z 2812/2912 VRB03KT P6SM SCT025 OVC040 FM281300
                       VRB03KT P6SM -RA SCT015 OVC025 FM281900
                       27012KT P6SM VCSH SCT025 BKN040 FM282200
                       29012G18KT P6SM BKN045 FM290500 28009KT
                       P6SM BKN050=
202405280538 TAF KCLM 280538Z 2806/2906 VRB03KT P6SM BKN150 FM281000 VRB03KT
                       P6SM SCT030 OVC050 FM281300 VRB03KT P6SM
                       -RA SCT015 OVC025 FM281900 27012KT P6SM
                       SCT025 BKN040 FM282300 29012G18KT P6SM BKN050=
202405272333 TAF KCLM 272333Z 2800/2824 30006KT P6SM SCT024 SCT035 BKN150 FM280300
                       27005KT P6SM OVC050 FM281000 26005KT P6SM
                       OVC025 FM281300 28003KT P6SM -RA OVC020
                       FM281500 29003KT 4SM -RA OVC007 FM282200
                       29009G17KT P6SM -SHRA OVC025=
202405271736 TAF KCLM 271736Z 2718/2818 30007KT P6SM SCT010 OVC060
                      TEMPO 2718/2719 BKN009 FM272100 32006KT P6SM
                       SCT050 BKN120 FM280300 27005KT P6SM OVC050
                       FM281000 26005KT P6SM OVC025 FM281300 28003KT
                       P6SM -RA OVC020=
202405271145 TAF KCLM 271145Z 2712/2812 VRB03KT P6SM SCT150 FM272100 32006KT
                       P6SM SCT050 BKN120 FM280300 27005KT P6SM
                       OVC050 FM281000 26005KT P6SM OVC025=
202405270536 TAF KCLM 270536Z 2706/2806 00000KT P6SM SCT060
                      TEMPO 2706/2710 5SM BR SCT060 FM271600 VRB03KT
                       P6SM OVC050 FM272100 31006KT P6SM SCT050
                       BKN120=
202405262326 TAF KCLM 262326Z 2700/2724 VRB04KT P6SM OVC060 FM271200 VRB03KT
                       P6SM OVC020 FM271800 31005KT P6SM OVC050=
202405261728 TAF KCLM 261728Z 2618/2718 05003KT P6SM VCSH SCT004 BKN090 BKN100
                       TEMPO 2618/2621 -SHRA BKN005 FM262100 VRB04KT
                       P6SM -RA SCT012 OVC020 FM270300 27006KT
                       P6SM SCT020 BKN035 OVC050 FM270600 24004KT
                       P6SM OVC050=
202405261140 TAF KCLM 261140Z 2612/2712 VRB03KT P6SM -RA OVC015 FM262100 VRB04KT
                       P6SM -RA SCT012 OVC020 FM270300 27006KT
                       P6SM SCT020 BKN035 OVC050=
202405260538 TAF KCLM 260538Z 2606/2706 28004KT P6SM OVC045 FM261100 32006KT
                       P6SM -RA SCT012 OVC020 FM262100 VRB04KT
                       P6SM SCT012 OVC020 FM270300 27006KT P6SM
                       SCT020 BKN035 OVC050=
202405252333 TAF KCLM 252333Z 2600/2624 31009G17KT P6SM BKN100 FM260700 27008KT
                       P6SM OVC050 FM260900 24005KT P6SM -RA OVC050
                       FM261100 24005KT P6SM -RA OVC020 FM262100
                       VRB04KT P6SM OVC015=
202405251735 TAF KCLM 251735Z 2518/2618 30009G17KT P6SM SCT030 BKN050 FM252000
                       29013G22KT P6SM OVC050 FM260700 27008KT
                       P6SM OVC050 FM261000 24005KT P6SM -RA OVC050
                       FM261100 24005KT 6SM -RA BR OVC025=
202405251137 TAF KCLM 251137Z 2512/2612 28011KT P6SM BKN050 FM251600 28013KT
                       P6SM OVC020 FM252000 29013G22KT P6SM OVC050
                       FM260300 27006KT P6SM VCSH OVC040=
202405250529 TAF KCLM 250529Z 2506/2606 VRB03KT P6SM FEW030 BKN035 OVC045 FM250800
                       VRB03KT 6SM BR VCSH OVC025 FM251200 28011KT
                       P6SM OVC010 FM251600 28013KT P6SM OVC020
                       FM252000 29013G22KT P6SM OVC050 FM260300
                       27006KT P6SM VCSH OVC040=
202405250120 KCLM 250120Z 2501/2524 VRB04KT P6SM VCSH BKN025 OVC040
                      TEMPO 2501/2505 4SM RA BR BKN020 FM250500
                       26004KT P6SM OVC003 FM251200 28011KT P6SM
                       OVC003 FM251600 28013KT P6SM OVC015=
202405242320 TAF KCLM 242320Z 2500/2524 30004KT P6SM VCSH OVC003 FM250500 26004KT
                       P6SM OVC003 FM251200 28011KT P6SM OVC003
                       FM251600 28013KT P6SM OVC015=
202405242104 KCLM 242104Z 2421/2518 30004KT P6SM VCSH BKN005 OVC010
                      TEMPO 2421/2501 OVC002 FM250300 28006KT P6SM
                       OVC010 FM251600 29012G21KT P6SM OVC025=
202405241750 KCLM 241750Z 2418/2518 30004KT P6SM -SHRA BKN025 OVC035
                      TEMPO 2418/2421 2SM -SHRA BKN003 BKN010 FM242100
                       33005KT P6SM VCSH OVC010 FM250300 28006KT
                       P6SM OVC010 FM251600 29012G21KT P6SM OVC025=
202405241735 TAF KCLM 241735Z 2418/2518 30004KT P6SM -SHRA FEW010 OVC035
                      TEMPO 2418/2421 2SM -SHRA SCT004 BKN010 FM242100
                       33005KT P6SM VCSH OVC010 FM250300 28006KT
                       P6SM OVC010 FM251600 29012G21KT P6SM OVC025=
202405241425 KCLM 241425Z 2414/2512 24003KT P6SM -SHRA BKN015 OVC060 FM241600
                       33005KT P6SM -SHRA OVC015 FM242200 33005KT
                       P6SM VCSH OVC003 FM250300 28006KT P6SM OVC003=
202405241139 TAF KCLM 241139Z 2412/2512 26002KT P6SM OVC060 FM241600 33005KT
                       P6SM -RA OVC015 FM242200 33005KT P6SM VCSH
                       OVC003 FM250300 28006KT P6SM OVC003=
202405240550 TAF KCLM 240550Z 2406/2506 29007KT P6SM OVC020 FM240900 28004KT
                       P6SM OVC050 FM241200 26002KT P6SM OVC025
                       FM241600 33005KT P6SM -RA OVC015 FM242200
                       33005KT P6SM VCSH OVC003 FM250300 28006KT
                       P6SM OVC003=
202405232323 TAF KCLM 232323Z 2400/2424 31008KT P6SM SCT250 FM240600 28004KT
                       P6SM BKN100 FM240900 28004KT P6SM OVC050
                       FM241200 22002KT P6SM OVC025 FM241600 30005KT
                       P6SM VCSH OVC015=
202405231720 TAF KCLM 231720Z 2318/2418 25003KT P6SM OVC018 FM232000 32006KT
                       P6SM BKN050 FM240400 27007KT P6SM OVC050
                       FM241300 25003KT P6SM VCSH OVC015=
202405231133 TAF KCLM 231133Z 2312/2412 28007KT P6SM SKC FM231400 27007KT P6SM
                       SCT020 FM231900 30010KT P6SM BKN100 FM240600
                       28005KT P6SM VCSH BKN080=
202405230540 TAF KCLM 230540Z 2306/2406 VRB04KT P6SM SKC FM231400 27006KT P6SM
                       BKN015 OVC030 FM231900 32005KT P6SM BKN050
                       FM240200 28009KT P6SM BKN100=
202405222326 TAF KCLM 222326Z 2300/2324 VRB04KT P6SM BKN050 FM230300 27007KT
                       P6SM SCT100 FM231400 27006KT P6SM OVC009
                       FM231800 33005KT P6SM SCT010=
202405221734 TAF KCLM 221734Z 2218/2318 23008KT P6SM BKN050 FM230300 27007KT
                       P6SM SCT100 FM231600 30005KT P6SM BKN050=
202405221133 TAF KCLM 221133Z 2212/2312 24010G18KT P6SM VCSH BKN050 FM221600
                       32008KT P6SM BKN050 FM230300 27007KT P6SM
                       SCT100=
202405220532 TAF KCLM 220532Z 2206/2306 27010KT P6SM VCSH SCT004 FM221100 26009G17KT
                       P6SM -SHRA BKN025 FM221700 32008KT P6SM
                       BKN050=
202405220304 KCLM 220304Z 2203/2224 28010G18KT P6SM OVC004 FM221200 26009KT
                       P6SM VCSH BKN035
                      PROB30 2212/2218 -SHRA BKN020 FM221800 31008KT
                       6SM BR BKN050=
202405220032 KCLM 220032Z 2201/2224 30006KT 2SM BR OVC003 FM220300 28010G18KT
                       P6SM VCSH BKN035 FM221200 26009KT P6SM VCSH
                       BKN035
                      PROB30 2212/2218 -SHRA BKN020 FM221800 31008KT
                       6SM BR BKN050=
202405212326 TAF KCLM 212326Z 2200/2224 VRB03KT 5SM -RA BR OVC060 FM220300 28010G18KT
                       P6SM VCSH BKN035 FM221200 26009KT P6SM VCSH
                       BKN035
                      PROB30 2212/2218 -SHRA BKN020 FM221800 31008KT
                       6SM BR BKN050=
202405211959 KCLM 211959Z 2120/2218 30005KT 5SM -RA BR FEW020 OVC060 FM220100
                       28011G19KT P6SM VCSH BKN035=
202405211828 TAF KCLM 211828Z 2118/2218 30005KT 5SM -RA BR BKN002 OVC010 FM212100
                       33005KT 6SM -RA BR OVC020 FM220100 28011G19KT
                       P6SM VCSH BKN035=
202405211646 KCLM 211646Z 2117/2212 30005KT 5SM -RA BR OVC050
                      TEMPO 2117/2121 BKN002 OVC010 FM212100 33005KT
                       6SM -RA BR OVC020 FM220100 28011G19KT P6SM
                       VCSH BKN035=
202405211124 TAF KCLM 211124Z 2112/2212 VRB03KT P6SM -RA OVC025 FM211600 33005KT
                       5SM -RA BR OVC010 FM212100 33005KT 6SM -RA
                       BR OVC020 FM220100 28011G19KT P6SM VCSH
                       BKN035=
202405210734 KCLM 210734Z 2108/2206 26010KT P6SM BKN100 FM210900 27006KT P6SM
                       OVC035 FM211200 24003KT P6SM -RA OVC025
                       FM211600 33005KT 5SM -RA BR OVC010 FM212100
                       33005KT 6SM -RA BR OVC020 FM220300 28011G19KT
                       6SM -RA BR OVC015=
202405210520 TAF KCLM 210520Z 2106/2206 28010G18KT P6SM BKN100 FM210900 27006KT
                       P6SM OVC035 FM211200 24003KT P6SM -RA OVC025
                       FM211600 33005KT 5SM -RA BR OVC010 FM212100
                       33005KT 6SM -RA BR OVC020 FM220300 28011G19KT
                       6SM -RA BR OVC015=
202405202327 TAF KCLM 202327Z 2100/2124 30010G20KT P6SM FEW250 FM210600 28010KT
                       P6SM BKN100 FM210900 27006KT P6SM OVC035
                       FM211200 24003KT P6SM -RA OVC025 FM211800
                       33005KT 6SM -RA BR OVC015=
202405201744 TAF KCLM 201744Z 2018/2118 27007KT P6SM SKC FM210100 29011G19KT
                       P6SM BKN100 FM210900 26008KT P6SM -RA OVC025=
202405201120 TAF KCLM 201120Z 2012/2112 25007KT P6SM SCT060 FM201600 27005KT
                       P6SM BKN100 FM210100 29011G19KT P6SM BKN100
                       FM210900 26008KT P6SM -RA OVC025=
202405200525 TAF KCLM 200525Z 2006/2106 27007KT P6SM FEW250 FM201200 24003KT
                       P6SM SCT050 SCT100 FM201800 34006KT P6SM
                       SCT150 FM202200 31011KT P6SM BKN150=
202405192320 TAF KCLM 192320Z 2000/2024 VRB05KT P6SM SCT250 FM200600 27008KT
                       P6SM SCT250 FM201800 35006KT P6SM BKN100=
202405191720 TAF KCLM 191720Z 1918/2018 34007KT P6SM FEW080 FM192100 33006KT
                       P6SM BKN100 FM200000 29011KT P6SM SCT250
                       FM200600 27008KT P6SM SCT250=
202405191120 TAF KCLM 191120Z 1912/2012 25006KT P6SM SCT035 FM191800 32008KT
                       P6SM SCT050 FM192100 33006KT P6SM BKN100
                       FM192200 28008KT P6SM SCT250=
202405190538 TAF KCLM 190538Z 1906/2006 26009KT P6SM FEW050 FM191800 32008KT
                       P6SM SCT050=
202405182332 TAF KCLM 182332Z 1900/1924 29015G25KT P6SM VCSH SCT030 SCT040 BKN100
                       FM190500 27010KT P6SM BKN050 FM191800 32008KT
                       P6SM BKN050=
202405181724 TAF KCLM 181724Z 1818/1918 31013G20KT P6SM FEW050 FM182100 29015G25KT
                       P6SM VCSH BKN050 FM190200 28010G18KT P6SM
                       SCT050 FM190900 26009KT P6SM BKN050=
202405181120 TAF KCLM 181120Z 1812/1912 30009G15KT P6SM BKN120 FM182100 29011G22KT
                       P6SM VCSH BKN050 FM190200 28010G18KT P6SM
                       SCT050 FM190900 26009KT P6SM BKN050=
202405180532 TAF KCLM 180532Z 1806/1906 26009KT P6SM BKN070 FM181200 28011KT
                       P6SM OVC050 FM182200 29011G22KT P6SM BKN050
                       FM190200 28010G18KT P6SM SCT050=
202405172331 TAF KCLM 172331Z 1800/1824 29012G20KT P6SM BKN100 FM180600 27012KT
                       P6SM OVC070 FM180900 28011G19KT P6SM OVC040
                       FM182200 29012G22KT P6SM BKN040=
202405171740 TAF KCLM 171740Z 1718/1818 30007G20KT P6SM SKC FM172100 29012G20KT
                       P6SM BKN100 FM180300 29015G22KT P6SM OVC100
                       FM180600 27012G22KT P6SM OVC060 FM180900
                       27011KT P6SM OVC050=
202405171120 TAF KCLM 171120Z 1712/1812 28009G16KT P6SM SKC FM171900 29012G19KT
                       P6SM BKN100 FM180300 29015G22KT P6SM OVC100
                       FM180600 27012KT P6SM OVC100 FM180900 27011KT
                       P6SM OVC050=
202405170521 TAF KCLM 170521Z 1706/1806 28015G25KT P6SM FEW010 SCT050 FM171100
                       26012KT P6SM BKN050 FM171900 29012G19KT
                       P6SM OVC050=
202405170235 KCLM 170235Z 1703/1724 29015G25KT P6SM FEW010 SCT050 FM171200 26015G22KT
                       P6SM SCT050 FM171800 30014KT P6SM OVC050=
202405162340 TAF KCLM 162340Z 1700/1724 29012G28KT P6SM VCSH BKN010 OVC015 FM170100
                       28018G26KT P6SM BKN030 FM171200 26015G22KT
                       P6SM BKN050 FM171800 30014KT P6SM OVC050=
202405161740 TAF KCLM 161740Z 1618/1718 29010KT P6SM OVC050 FM162000 29015G24KT
                       P6SM BKN030 FM170100 28018G27KT P6SM BKN040
                       FM171200 26015KT P6SM BKN050=
202405161121 TAF KCLM 161121Z 1612/1712 28010KT P6SM SCT010 BKN035 FM161600
                       30011KT P6SM OVC025 FM162000 29015G24KT
                       P6SM BKN030 FM170100 28018G27KT P6SM BKN040=
202405160520 TAF KCLM 160520Z 1606/1706 28012G20KT P6SM OVC008 FM160900 28010KT
                       P6SM SCT010 BKN035 FM161900 30014G24KT P6SM
                       OVC025 FM162300 29012G22KT P6SM BKN050=
202405160312 KCLM 160312Z 1603/1624 29012G20KT P6SM OVC008 FM160900 28010KT
                       P6SM SCT010 BKN035 FM161900 30011G18KT P6SM
                       OVC025=
202405152338 TAF KCLM 152338Z 1600/1624 30012KT P6SM SCT030 OVC100 FM160200
                       29012G20KT P6SM SCT030 BKN250 FM160900 28010KT
                       P6SM BKN035 FM161900 30011G18KT P6SM OVC025=
202405151738 TAF KCLM 151738Z 1518/1618 33008KT P6SM FEW015 SCT030 BKN200 FM152100
                       30012KT P6SM SCT030 OVC100 FM160700 28009KT
                       P6SM OVC030 FM161000 28011KT P6SM OVC030=
202405151618 KCLM 151618Z 1516/1612 33008KT P6SM FEW015 SCT030 BKN200
                      TEMPO 1516/1517 1SM BR OVC005 FM152100 30012KT
                       P6SM SCT030 OVC100 FM160700 28009KT P6SM
                       OVC030=
202405151247 KCLM 151247Z 1513/1612 VRB04KT P6SM FEW010 SCT250
                      TEMPO 1513/1516 1SM BR OVC002 FM151600 33008KT
                       P6SM FEW015 SCT030 BKN200 FM152100 30012KT
                       P6SM SCT030 OVC100 FM160700 28009KT P6SM
                       OVC030=
202405151122 TAF KCLM 151122Z 1512/1612 VRB04KT P6SM FEW010 SCT250
                      TEMPO 1512/1516 BKN005 FM151600 33008KT P6SM
                       FEW015 SCT030 BKN200 FM152100 30012KT P6SM
                       SCT030 OVC100 FM160700 28009KT P6SM OVC030=
202405150721 KCLM 150721Z 1507/1606 29009KT P6SM SCT250
                      TEMPO 1507/1511 BKN006 FM151100 28008KT P6SM
                       FEW008 FEW015 BKN250 FM152100 30010G18KT
                       P6SM SCT200=
202405150520 TAF KCLM 150520Z 1506/1606 29009KT P6SM SCT250 FM151100 28008KT
                       P6SM FEW008 FEW015 BKN250 FM152100 30010G18KT
                       P6SM SCT200=
202405142320 TAF KCLM 142320Z 1500/1524 32011KT P6SM SCT250 FM151100 28008KT
                       P6SM FEW008 FEW015 BKN250 FM152100 30010KT
                       P6SM SCT250=
202405141720 TAF KCLM 141720Z 1418/1518 33007KT P6SM SCT250 FM142100 32011KT
                       P6SM SCT250 FM150300 28008KT P6SM FEW008
                       BKN250=
202405141120 TAF KCLM 141120Z 1412/1512 28008KT P6SM SCT050 SCT250 FM141600
                       33007KT P6SM SCT250 FM142100 32011KT P6SM
                       SCT250 FM150300 28008KT P6SM BKN250=
202405140526 TAF KCLM 140526Z 1406/1506 28008KT P6SM SCT050 FM142100 32011KT
                       P6SM FEW250=
202405132324 TAF KCLM 132324Z 1400/1424 29012G18KT P6SM SCT020 OVC035 FM140700
                       27007KT P6SM BKN045 FM141600 29007KT P6SM
                       BKN020 FM142100 32011KT P6SM FEW250=
202405132139 KCLM 132139Z 1322/1418 30014G20KT P6SM BKN015 FM140000 29012G18KT
                       P6SM SCT050 FM140700 27007KT P6SM BKN030=
202405131725 TAF KCLM 131725Z 1318/1418 30014G20KT P6SM OVC060 FM132200 29012G18KT
                       P6SM SCT050 FM140700 27007KT P6SM BKN030=
202405131527 KCLM 131527Z 1315/1412 29009KT P6SM SCT007 FM131700 30010G16KT
                       P6SM SCT010 BKN050 FM132200 29012G18KT P6SM
                       BKN050 FM140400 28010KT P6SM BKN050=
202405131130 TAF KCLM 131130Z 1312/1412 29009KT P6SM SCT007
                      TEMPO 1313/1317 BKN006 FM131700 30010G16KT
                       P6SM SCT010 BKN050 FM132200 29012G18KT P6SM
                       BKN050 FM140400 28010KT P6SM BKN050=
202405130636 KCLM 130636Z 1307/1406 28010G16KT P6SM SCT006
                      TEMPO 1307/1310 BKN005 FM131000 29009KT P6SM
                       BKN007 FM131700 30013G20KT P6SM OVC050=
202405130529 TAF KCLM 130529Z 1306/1406 28010KT P6SM BKN120 FM131700 30013G20KT
                       P6SM OVC050=
202405122337 TAF KCLM 122337Z 1300/1324 29013G21KT P6SM BKN200 FM130300 29010KT
                       P6SM BKN120 OVC200 FM130900 28008KT P6SM
                       BKN045 OVC070 FM131700 30013G20KT P6SM OVC050=
202405121720 TAF KCLM 121720Z 1218/1318 30008KT P6SM FEW200 FM122300 29013G21KT
                       P6SM BKN200 FM130300 29010KT P6SM BKN120
                       OVC200 FM130900 28008KT P6SM BKN045 OVC070=
202405121135 TAF KCLM 121135Z 1212/1312 25004KT P6SM FEW200 FM121800 30010KT
                       P6SM FEW200 FM122300 29013G21KT P6SM BKN200
                       FM130300 29010KT P6SM BKN120 OVC200 FM130900
                       28008KT P6SM BKN045 OVC070=
202405120520 TAF KCLM 120520Z 1206/1306 25004KT P6SM FEW200 FM121800 30010KT
                       P6SM FEW200 FM122300 29013G21KT P6SM BKN200
                       FM130300 29010KT P6SM BKN120 OVC200=
202405112321 TAF KCLM 112321Z 1200/1224 04006KT P6SM FEW200 FM120400 29007KT
                       P6SM SCT200 FM122100 31010KT P6SM FEW250=
202405111737 TAF KCLM 111737Z 1118/1218 05005KT P6SM SKC FM112300 04006KT P6SM
                       FEW200 FM120400 29007KT P6SM SCT200=
202405111127 TAF KCLM 111127Z 1112/1212 23003KT P6SM SKC FM111700 05005KT P6SM
                       SKC FM112300 04006KT P6SM FEW200 FM120400
                       29007KT P6SM SCT200=
202405110527 TAF KCLM 110527Z 1106/1206 VRB03KT P6SM SKC FM111600 06005KT P6SM
                       SKC FM112300 04006KT P6SM SKC=
202405102320 TAF KCLM 102320Z 1100/1124 08005KT P6SM SKC FM110300 24004KT P6SM
                       SKC FM111600 06005KT P6SM SKC=
202405101720 TAF KCLM 101720Z 1018/1118 08006KT P6SM SKC FM110300 27004KT P6SM
                       SKC FM111600 06003KT P6SM SKC=
202405101120 TAF KCLM 101120Z 1012/1112 VRB03KT P6SM SKC FM101500 04007KT P6SM
                       SKC FM110300 27006KT P6SM SKC=
202405100653 KCLM 100653Z 1007/1106 23009KT P6SM SKC FM100900 22004KT P6SM SKC
                       FM101500 09006KT P6SM SKC FM110300 27006KT
                       P6SM SKC=
202405092320 TAF KCLM 092320Z 1000/1024 08006KT P6SM SKC FM100300 VRB04KT P6SM
                       SKC FM101500 09006KT P6SM SKC=
202405091720 TAF KCLM 091720Z 0918/1018 08007KT P6SM SKC FM100300 VRB04KT P6SM
                       SKC FM101500 09006KT P6SM SKC=
202405091120 TAF KCLM 091120Z 0912/1012 VRB03KT P6SM SKC FM091500 09008KT P6SM
                       SKC FM100300 VRB04KT P6SM SKC=
202405090537 TAF KCLM 090537Z 0906/1006 25005KT P6SM SKC FM091000 VRB03KT P6SM
                       SKC FM091500 09008KT P6SM SKC FM100300 VRB04KT
                       P6SM SKC=
202405082320 TAF KCLM 082320Z 0900/0924 31009KT P6SM SKC FM090500 25005KT P6SM
                       SKC FM091000 VRB03KT P6SM SKC FM091500 09008KT
                       P6SM SKC=
202405081720 TAF KCLM 081720Z 0818/0918 31009KT P6SM FEW250 FM082100 31011KT
                       P6SM SKC FM090500 25005KT P6SM SKC FM091000
                       VRB03KT P6SM SKC=
202405081120 TAF KCLM 081120Z 0812/0912 25010KT P6SM FEW250 FM081900 31012G20KT
                       P6SM SKC FM090400 26005KT P6SM SKC=
202405080520 TAF KCLM 080520Z 0806/0906 28010KT P6SM SKC FM081900 31012G20KT
                       P6SM SKC FM090200 28007KT P6SM SKC=
202405072320 TAF KCLM 072320Z 0800/0824 29014G22KT P6SM FEW050 FM080500 27010KT
                       P6SM SCT250=
202405071727 TAF KCLM 071727Z 0718/0818 28011KT P6SM SCT050 FM072100 29012G19KT
                       P6SM SCT050 FM080500 27010KT P6SM SCT050=
202405071130 TAF KCLM 071130Z 0712/0812 27010KT P6SM SCT050 FM072100 29012G22KT
                       P6SM BKN050 FM080500 27010KT P6SM SCT050=
202405070534 TAF KCLM 070534Z 0706/0806 28010KT P6SM FEW050 FM071800 29012G22KT
                       P6SM SCT100 FM080500 27010KT P6SM FEW250=
202405062320 TAF KCLM 062320Z 0700/0724 29010G18KT P6SM -SHRA SCT030 BKN050
                       FM070600 27012KT P6SM BKN100 FM071900 29012G22KT
                       P6SM BKN100=
202405061728 TAF KCLM 061728Z 0618/0718 29010G18KT P6SM -SHRA SCT030 BKN050
                       FM070600 27012KT P6SM BKN100=
202405061139 TAF KCLM 061139Z 0612/0712 26006KT P6SM SCT015 BKN050 OVC080 FM061400
                       28010KT P6SM BKN015 OVC045 FM061800 28010G18KT
                       P6SM SCT020 BKN040 OVC060 FM070600 28012KT
                       P6SM BKN100=
202405060522 TAF KCLM 060522Z 0606/0706 VRB04KT P6SM VCSH FEW020 SCT090 FM061100
                       26008KT P6SM OVC050 FM061800 29010G18KT
                       P6SM BKN035 OVC050 FM070000 26012G20KT P6SM
                       BKN100=
202405060321 KCLM 060321Z 0603/0624 VRB04KT P6SM VCSH FEW008 BKN100 FM061100
                       26008KT P6SM OVC050 FM061800 29010G18KT
                       P6SM BKN035 OVC050 FM062300 26012G20KT P6SM
                       BKN050=
202405052334 TAF KCLM 052334Z 0600/0624 28012G18KT P6SM -SHRA OVC030 FM060400
                       27008KT P6SM VCSH BKN035 OVC040 FM061100
                       26011KT P6SM OVC050 FM061700 30009KT P6SM
                       BKN035 OVC050=
202405051724 TAF KCLM 051724Z 0518/0618 29008KT P6SM SCT030 OVC050 FM052200
                       28012G18KT P6SM VCSH OVC030 FM060400 27008KT
                       P6SM VCSH OVC050 FM061200 26011KT P6SM OVC050=
202405051140 TAF KCLM 051140Z 0512/0612 28008KT P6SM OVC060 FM051400 28008KT
                       P6SM BKN015 OVC050 FM051700 28008KT P6SM
                       SCT030 OVC050 FM052200 28012G18KT P6SM OVC030=
202405050528 TAF KCLM 050528Z 0506/0606 25006KT P6SM BKN050 OVC070 FM051500
                       27006KT P6SM SCT015 BKN020 OVC030 FM052100
                       28011G18KT P6SM VCSH BKN020 OVC050 FM060000
                       29012G20KT P6SM OVC030=
202405042329 TAF KCLM 042329Z 0500/0524 28005KT P6SM VCSH OVC060 FM051500 27006KT
                       P6SM VCSH SCT015 BKN020 OVC030 FM052100
                       28011KT P6SM BKN020 OVC050=
202405041725 TAF KCLM 041725Z 0418/0518 VRB05KT P6SM OVC050 FM050200 27005KT
                       P6SM SCT040 OVC050 FM051200 27006KT P6SM
                       BKN015 OVC030=
202405041403 KCLM 041403Z 0414/0512 27008KT P6SM BKN015 OVC050 FM041800 27008KT
                       P6SM SCT020 OVC050 FM050900 27008KT P6SM
                       OVC035=
202405041135 TAF KCLM 041135Z 0412/0512 27008KT P6SM OVC050 FM050900 27008KT
                       P6SM OVC035=
202405040530 TAF KCLM 040530Z 0406/0506 24004KT P6SM VCSH OVC050 FM041200 26005KT
                       P6SM -SHRA OVC035 FM041800 32007KT P6SM
                       OVC035=
202405032321 TAF KCLM 032321Z 0400/0424 30006KT P6SM BKN120 OVC200 FM040300
                       24004KT P6SM -SHRA OVC050 FM041000 01004KT
                       P6SM -SHRA OVC035=
202405031721 TAF KCLM 031721Z 0318/0418 VRB05KT P6SM BKN200 FM032200 VRB04KT
                       P6SM BKN120 OVC200 FM040300 24004KT P6SM
                       -SHRA OVC050 FM041000 01004KT P6SM -SHRA
                       OVC035=
202405031134 TAF KCLM 031134Z 0312/0412 23005KT P6SM SKC FM031500 VRB04KT P6SM
                       BKN200 FM032200 VRB04KT P6SM BKN120 OVC200
                       FM040300 24004KT P6SM -SHRA OVC050=
202405030520 TAF KCLM 030520Z 0306/0406 26003KT P6SM SKC FM030900 23004KT P6SM
                       SKC FM031300 VRB04KT P6SM BKN200 FM032100
                       VRB04KT P6SM BKN120 OVC200 FM040300 VRB04KT
                       P6SM -SHRA OVC050=
202405022339 TAF KCLM 022339Z 0300/0324 VRB05KT P6SM SKC FM030400 26005KT P6SM
                       SKC FM030900 23004KT P6SM SKC FM031300 VRB04KT
                       P6SM BKN200 FM032100 VRB04KT P6SM BKN120
                       OVC200=
202405021720 TAF KCLM 021720Z 0218/0318 VRB05KT P6SM SKC FM030200 30004KT P6SM
                       SKC FM030900 23004KT P6SM SKC=
202405021131 TAF KCLM 021131Z 0212/0312 23005KT P6SM SKC FM021700 08009KT P6SM
                       SKC FM030200 30004KT P6SM SKC FM030900 23004KT
                       P6SM SKC=
202405020539 TAF KCLM 020539Z 0206/0306 23005KT P6SM SCT150 FM021200 22005KT
                       P6SM BKN250 FM021800 07006KT P6SM SKC=
202405012320 TAF KCLM 012320Z 0200/0224 34004KT P6SM SCT120 FM020500 23005KT
                       P6SM SCT150 FM021200 22005KT P6SM BKN250
                       FM021800 07006KT P6SM SKC=
202405011721 TAF KCLM 011721Z 0118/0218 VRB05KT P6SM SCT100 FM012100 34006KT
                       P6SM SCT120 FM020500 23003KT P6SM SCT150
                       FM021200 22005KT P6SM BKN250=
202405011130 TAF KCLM 011130Z 0112/0212 24007KT P6SM SCT100 FM012300 34004KT
                       P6SM SCT120 FM020500 23003KT P6SM SCT150=
202405010537 TAF KCLM 010537Z 0106/0206 26007KT P6SM SCT050 FM011000 28006KT
                       P6SM SCT100 FM012300 36004KT P6SM SCT150=