##########################################################
# Query made at 02/16/2025 00:07:27 UTC
# Time interval: from 06/01/2018 00:00  to 06/30/2018 23:59  UTC
##########################################################

##########################################################
# KPWT, Bremerton National Automatic Weather Observing / Reporting System (United States)
# WMO index: -----. WIGOS ID: Unknown
# Latitude 47-30N. Longitude 122-45W. Altitude 147 m.
##########################################################

###################################
#  METAR/SPECI from KPWT
###################################
201806302356 METAR KPWT 302356Z AUTO 23015KT 10SM OVC035 18/12 A3016 RMK AO2 SLP230 60000 T01830122 10200 20150 58004=
201806302334 SPECI KPWT 302334Z AUTO 22016KT 10SM SCT029 OVC035 19/12 A3017 RMK AO2=
201806302256 METAR KPWT 302256Z AUTO 24018G22KT 10SM BKN023 OVC029 19/12 A3016 RMK AO2 SLP230 T01940122=
201806302156 METAR KPWT 302156Z AUTO 21013G19KT 10SM BKN024 OVC033 18/12 A3018 RMK AO2 RAB43E53 SLP234 P0000 T01780122=
201806302125 SPECI KPWT 302125Z AUTO 22012KT 10SM BKN024 OVC036 18/12 A3017 RMK AO2=
201806302056 METAR KPWT 302056Z AUTO 22014G20KT 10SM FEW026 BKN038 BKN110 18/12 A3018 RMK AO2 SLP234 T01780122=
201806302038 SPECI KPWT 302038Z AUTO 23014G22KT 10SM SCT027 BKN038 18/12 A3017 RMK AO2=
201806301956 METAR KPWT 301956Z AUTO 22014G18KT 10SM OVC025 18/12 A3017 RMK AO2 SLP232 T01780117=
201806301856 METAR KPWT 301856Z AUTO 19008G14KT 10SM OVC023 17/12 A3018 RMK AO2 SLP236 T01670122=
201806301820 SPECI KPWT 301820Z AUTO 20010KT 10SM BKN016 OVC022 16/12 A3018 RMK AO2=
201806301756 METAR KPWT 301756Z AUTO 18007KT 10SM OVC012 15/12 RMK AO2 SLPNO T01500117 10150 20106 $=
201806301656 METAR KPWT 301656Z AUTO 19007KT 10SM OVC012 14/12 A3020 RMK AO2 SLP242 T01440117=
201806301611 SPECI KPWT 301611Z AUTO 20005KT 10SM OVC010 14/12 A3021 RMK AO2 CIG 006V014=
201806301556 METAR KPWT 301556Z AUTO 21005KT 10SM OVC006 14/12 A3021 RMK AO2 CIG 005V010 SLP244 T01390122=
201806301540 SPECI KPWT 301540Z AUTO 19006KT 10SM OVC006 13/12 A3020 RMK AO2=
201806301506 SPECI KPWT 301506Z AUTO 19005KT 10SM OVC004 13/12 A3021 RMK AO2=
201806301456 METAR KPWT 301456Z AUTO 21004KT 10SM OVC002 13/12 A3021 RMK AO2 SLP246 T01280117 51008=
201806301356 METAR KPWT 301356Z AUTO 19004KT 7SM OVC002 12/12 A3020 RMK AO2 SLP244 T01170117=
201806301348 SPECI KPWT 301348Z AUTO 20004KT 3SM BR OVC002 12/12 A3020 RMK AO2=
201806301334 SPECI KPWT 301334Z AUTO 19003KT 1 1/4SM BR OVC002 12/12 A3021 RMK AO2 VIS 3/4V2=
201806301327 SPECI KPWT 301327Z AUTO 20004KT 2SM BR OVC002 12/12 A3021 RMK AO2 VIS 3/4V4=
201806301311 SPECI KPWT 301311Z AUTO 19005KT 1 3/4SM BR OVC002 12/11 A3021 RMK AO2=
201806301307 SPECI KPWT 301307Z AUTO 19004KT 3SM BR OVC002 12/11 A3020 RMK AO2=
201806301256 METAR KPWT 301256Z AUTO 22003KT 10SM OVC004 12/11 A3020 RMK AO2 SLP242 T01170111=
201806301220 SPECI KPWT 301220Z AUTO 24003KT 5SM BR BKN004 BKN030 11/11 A3019 RMK AO2=
201806301212 SPECI KPWT 301212Z AUTO 00000KT 2 1/2SM BR FEW004 SCT030 11/10 A3018 RMK AO2 VIS 1/2V5=
201806301156 METAR KPWT 301156Z AUTO 00000KT 10SM BKN030 BKN036 12/12 A3018 RMK AO2 SLP237 7//// T01170117 10167 20117 53001=
201806301056 METAR KPWT 301056Z AUTO 22004KT 10SM OVC031 13/12 A3018 RMK AO2 SLP234 T01330122=
201806300956 METAR KPWT 300956Z AUTO 23003KT 10SM FEW033 OVC047 14/12 A3017 RMK AO2 SLP232 T01390122=
201806300856 METAR KPWT 300856Z AUTO 22003KT 10SM BKN031 OVC046 14/12 A3018 RMK AO2 SLP235 T01440122 51005=
201806300756 METAR KPWT 300756Z AUTO 07003KT 10SM FEW035 BKN046 16/12 A3018 RMK AO2 SLP234 T01610122 402060106=
201806300656 METAR KPWT 300656Z AUTO 05007KT 10SM OVC038 17/12 A3018 RMK AO2 SLP234 T01670122=
201806300556 METAR KPWT 300556Z AUTO 05005KT 10SM OVC034 17/12 A3017 RMK AO2 SLP230 6//// T01670122 10206 20167=
201806300456 METAR KPWT 300456Z AUTO 03005KT 10SM OVC034 17/12 A3016 RMK AO2 SLP229 T01720117=
201806300356 METAR KPWT 300356Z AUTO 05006KT 10SM BKN035 BKN041 OVC060 18/12 A3014 RMK AO2 SLP223 T01780117=
201806300256 METAR KPWT 300256Z AUTO 06005KT 10SM OVC037 18/11 RMK AO2 SLPNO T01830111 $=
201806300156 METAR KPWT 300156Z AUTO 04006KT 10SM BKN037 BKN048 19/12 A3013 RMK AO2 SLP218 T01890117=
201806300056 METAR KPWT 300056Z AUTO 03005KT 10SM BKN037 21/12 A3012 RMK AO2 SLP216 T02060122=
201806292356 METAR KPWT 292356Z AUTO 05006KT 10SM BKN035 OVC045 20/12 A3013 RMK AO2 SLP218 60000 T02000122 10206 20161 58001=
201806292256 METAR KPWT 292256Z AUTO 07004KT 10SM BKN036 OVC046 19/12 A3013 RMK AO2 SLP220 T01940122=
201806292156 METAR KPWT 292156Z AUTO VRB03KT 10SM OVC040 19/11 A3013 RMK AO2 SLP219 T01940111=
201806292056 METAR KPWT 292056Z AUTO 20006KT 10SM FEW038 BKN120 19/12 A3013 RMK AO2 SLP219 60000 T01940117 50001=
201806291956 METAR KPWT 291956Z AUTO 17004KT 10SM OVC032 18/11 A3013 RMK AO2 RAB21E34 SLP220 P0000 T01780111=
201806291944 SPECI KPWT 291944Z AUTO 23004KT 10SM FEW025 OVC032 18/12 A3014 RMK AO2 RAB21E34 P0000=
201806291920 SPECI KPWT 291920Z AUTO 21005KT 10SM BKN023 BKN080 17/12 A3013 RMK AO2=
201806291856 METAR KPWT 291856Z AUTO VRB03KT 10SM FEW080 SCT100 18/12 A3013 RMK AO2 SLP218 T01830117=
201806291756 METAR KPWT 291756Z AUTO 21006KT 10SM FEW018 BKN090 16/12 A3013 RMK AO2 RAB30E48 SLP219 P0000 60000 T01610117 10161 20106 51004=
201806291741 SPECI KPWT 291741Z AUTO 22005KT 10SM -RA SCT018 BKN090 16/12 A3013 RMK AO2 RAB30 P0000=
201806291732 SPECI KPWT 291732Z AUTO VRB05KT 10SM -RA BKN018 BKN033 BKN095 16/12 A3013 RMK AO2 RAB30 P0000=
201806291656 METAR KPWT 291656Z AUTO 19004KT 10SM FEW016 SCT100 16/11 A3012 RMK AO2 SLP217 T01560111=
201806291556 METAR KPWT 291556Z AUTO 00000KT 10SM FEW033 15/11 A3012 RMK AO2 SLP217 T01500111=
201806291456 METAR KPWT 291456Z AUTO 17003KT 10SM SCT018 OVC033 13/11 A3012 RMK AO2 SLP215 T01330111 52003=
201806291438 SPECI KPWT 291438Z AUTO 22004KT 10SM BKN018 BKN033 OVC095 13/11 A3011 RMK AO2=
201806291410 SPECI KPWT 291410Z AUTO 00000KT 10SM SCT018 OVC095 13/11 RMK AO2 $=
201806291356 METAR KPWT 291356Z AUTO 00000KT 10SM BKN018 OVC095 12/11 A3011 RMK AO2 SLP214 T01220111=
201806291344 SPECI KPWT 291344Z AUTO 00000KT 10SM BKN018 BKN023 OVC095 12/11 A3012 RMK AO2=
201806291337 SPECI KPWT 291337Z AUTO 00000KT 10SM SCT021 OVC095 12/11 A3012 RMK AO2=
201806291256 METAR KPWT 291256Z AUTO 00000KT 10SM FEW019 BKN025 OVC090 11/11 A3011 RMK AO2 SLP214 T01110106=
201806291156 METAR KPWT 291156Z AUTO 00000KT 10SM BKN040 BKN095 11/10 A3011 RMK AO2 SLP212 60000 7//// T01110100 10133 20111 58000=
201806291056 METAR KPWT 291056Z AUTO 00000KT 10SM BKN031 OVC040 12/11 A3012 RMK AO2 SLP214 T01220106=
201806290956 METAR KPWT 290956Z AUTO 00000KT 10SM OVC042 12/11 A3011 RMK AO2 SLP212 T01220111=
201806290856 METAR KPWT 290856Z AUTO 00000KT 10SM OVC046 12/11 A3011 RMK AO2 SLP213 60000 T01220106 55000=
201806290756 METAR KPWT 290756Z AUTO 00000KT 10SM OVC041 13/10 A3010 RMK AO2 SLP210 T01280100 401780067=
201806290656 METAR KPWT 290656Z AUTO 06004KT 10SM OVC041 13/10 A3011 RMK AO2 RAE34 SLP213 P0000 T01330100=
201806290556 METAR KPWT 290556Z AUTO 06004KT 10SM -RA BKN043 14/10 A3011 RMK AO2 RAB52 SLP213 P0000 60000 T01390100 10172 20139 50004=
201806290456 METAR KPWT 290456Z AUTO 05006KT 10SM OVC041 14/09 A3011 RMK AO2 SLP215 T01390094=
201806290356 METAR KPWT 290356Z AUTO 04006KT 10SM BKN035 OVC046 15/10 A3010 RMK AO2 SLP211 T01500100=
201806290256 METAR KPWT 290256Z AUTO 06006KT 10SM FEW036 BKN044 OVC075 16/11 A3010 RMK AO2 SLP210 T01560106 53002=
201806290156 METAR KPWT 290156Z AUTO 07005KT 10SM OVC038 16/11 A3010 RMK AO2 SLP209 T01610106=
201806290056 METAR KPWT 290056Z AUTO 05007KT 10SM OVC036 17/11 A3009 RMK AO2 SLP207 T01670106=
201806282356 METAR KPWT 282356Z AUTO 06005KT 10SM OVC038 17/11 A3009 RMK AO2 SLP209 T01720106 10178 20133 55002=
201806282256 METAR KPWT 282256Z AUTO 06005KT 10SM SCT034 OVC042 18/11 A3009 RMK AO2 SLP208 T01780106=
201806282156 METAR KPWT 282156Z AUTO 15004KT 10SM OVC039 17/09 A3010 RMK AO2 SLP209 T01720089=
201806282115 SPECI KPWT 282115Z AUTO 00000KT 10SM BKN031 OVC041 17/09 A3010 RMK AO2=
201806282056 METAR KPWT 282056Z AUTO VRB03KT 10SM BKN029 OVC043 17/09 A3010 RMK AO2 SLP210 T01670094 57003=
201806282033 SPECI KPWT 282033Z AUTO 00000KT 10SM BKN026 BKN040 17/10 A3010 RMK AO2=
201806281956 METAR KPWT 281956Z AUTO 22006KT 10SM SCT022 16/11 A3011 RMK AO2 SLP212 T01610106=
201806281924 SPECI KPWT 281924Z AUTO 00000KT 10SM BKN018 OVC090 14/10 A3011 RMK AO2=
201806281916 SPECI KPWT 281916Z AUTO 00000KT 10SM SCT016 OVC090 14/10 A3011 RMK AO2=
201806281856 METAR KPWT 281856Z AUTO 21005KT 10SM BKN016 14/10 A3011 RMK AO2 SLP214 T01390100=
201806281833 SPECI KPWT 281833Z AUTO 24005KT 10SM OVC016 13/09 A3011 RMK AO2=
201806281756 METAR KPWT 281756Z AUTO 23006KT 10SM OVC014 13/10 A3011 RMK AO2 SLP212 6//// T01330100 10133 20083 51004=
201806281656 METAR KPWT 281656Z AUTO 26005KT 10SM OVC012 13/09 A3010 RMK AO2 SLP211 T01280094=
201806281556 METAR KPWT 281556Z AUTO 22005KT 10SM OVC012 12/09 A3010 RMK AO2 SLP212 T01170094=
201806281528 SPECI KPWT 281528Z AUTO 21007KT 10SM OVC010 12/09 A3010 RMK AO2 CIG 007V012=
201806281456 METAR KPWT 281456Z AUTO 23005KT 10SM OVC008 11/09 A3009 RMK AO2 SLP208 T01110094 51007=
201806281447 SPECI KPWT 281447Z AUTO 22004KT 10SM BKN006 OVC028 11/09 A3009 RMK AO2=
201806281418 SPECI KPWT 281418Z AUTO 00000KT 10SM FEW006 OVC028 11/09 A3009 RMK AO2=
201806281356 METAR KPWT 281356Z AUTO 22003KT 10SM BKN028 OVC055 11/09 A3009 RMK AO2 SLP205 T01060094=
201806281256 METAR KPWT 281256Z AUTO 00000KT 10SM OVC028 10/09 A3008 RMK AO2 SLP204 T01000089=
201806281231 SPECI KPWT 281231Z AUTO 00000KT 10SM BKN028 OVC060 09/08 A3008 RMK AO2=
201806281156 METAR KPWT 281156Z AUTO 00000KT 10SM BKN060 08/07 A3007 RMK AO2 SLP201 6//// 7//// T00830072 10139 20067 53005=
201806281056 METAR KPWT 281056Z AUTO 00000KT 3SM BR FEW060 07/07 A3006 RMK AO2 SLP199 T00670067=
201806280956 METAR KPWT 280956Z AUTO 00000KT 10SM CLR 09/08 A3006 RMK AO2 SLP197 T00890078=
201806280856 METAR KPWT 280856Z AUTO 20003KT 10SM OVC060 11/09 A3006 RMK AO2 SLP195 T01060089 53000=
201806280756 METAR KPWT 280756Z AUTO 19003KT 10SM BKN065 OVC080 12/09 A3006 RMK AO2 SLP195 T01170089 401890056=
201806280656 METAR KPWT 280656Z AUTO 20004KT 10SM FEW055 OVC080 13/09 A3005 RMK AO2 SLP193 T01280094=
201806280556 METAR KPWT 280556Z AUTO 17003KT 10SM OVC080 14/10 A3006 RMK AO2 SLP195 T01390100 10189 20133 52004=
201806280456 METAR KPWT 280456Z AUTO 18003KT 10SM BKN060 BKN085 14/10 A3006 RMK AO2 SLP194 T01390100=
201806280356 METAR KPWT 280356Z AUTO 20004KT 10SM FEW049 BKN065 14/10 A3005 RMK AO2 SLP192 T01440100=
201806280256 METAR KPWT 280256Z AUTO 20007KT 10SM OVC075 16/10 A3005 RMK AO2 SLP191 T01560100 53001=
201806280156 METAR KPWT 280156Z AUTO 18007KT 10SM FEW085 SCT120 17/10 A3004 RMK AO2 SLP188 T01670100=
201806280056 METAR KPWT 280056Z AUTO 23008KT 10SM SCT060 18/10 A3004 RMK AO2 SLP191 T01780100=
201806272356 METAR KPWT 272356Z AUTO VRB03KT 10SM CLR 18/09 A3004 RMK AO2 SLP192 T01830089 10189 20156 58003=
201806272256 METAR KPWT 272256Z AUTO 26004KT 10SM CLR 18/09 A3005 RMK AO2 SLP193 T01830094=
201806272156 METAR KPWT 272156Z AUTO 24007KT 10SM CLR 18/10 A3005 RMK AO2 SLP193 T01780100=
201806272056 METAR KPWT 272056Z AUTO VRB05KT 10SM FEW028 18/10 A3005 RMK AO2 SLP195 T01780100 58006=
201806271956 METAR KPWT 271956Z AUTO 21005KT 10SM CLR 17/11 A3006 RMK AO2 SLP198 T01720106=
201806271856 METAR KPWT 271856Z AUTO 24006KT 10SM CLR 17/10 A3007 RMK AO2 SLP200 T01720100=
201806271756 METAR KPWT 271756Z AUTO 00000KT 10SM CLR 16/10 A3007 RMK AO2 SLP200 6//// T01560100 10161 20056 58004=
201806271656 METAR KPWT 271656Z AUTO 00000KT 10SM CLR 16/10 A3008 RMK AO2 SLP201 T01610100=
201806271556 METAR KPWT 271556Z AUTO 22003KT 10SM CLR 14/10 A3009 RMK AO2 SLP205 T01390100=
201806271456 METAR KPWT 271456Z AUTO 00000KT 10SM CLR 13/09 A3009 RMK AO2 SLP204 6//// T01280094 51001=
201806271356 METAR KPWT 271356Z AUTO 00000KT 10SM CLR 12/09 A3009 RMK AO2 SLP204 T01170094=
201806271256 METAR KPWT 271256Z AUTO 00000KT 10SM CLR 07/06 A3008 RMK AO2 SLP204 T00720061=
201806271156 METAR KPWT 271156Z AUTO 00000KT 10SM CLR 06/05 A3008 RMK AO2 SLP204 7//// T00560050 10133 20056 57008=
201806271056 METAR KPWT 271056Z AUTO 00000KT 10SM CLR 08/07 A3009 RMK AO2 SLP206 T00780067=
201806270956 METAR KPWT 270956Z AUTO 04003KT 10SM CLR 08/07 A3010 RMK AO2 SLP209 T00830072=
201806270856 METAR KPWT 270856Z AUTO 00000KT 10SM CLR 08/07 A3010 RMK AO2 SLP212 T00780072 56009=
201806270756 METAR KPWT 270756Z AUTO 00000KT 10SM CLR 09/08 A3011 RMK AO2 SLP212 T00940078 402000078=
201806270656 METAR KPWT 270656Z AUTO 00000KT 10SM BKN060 11/08 A3012 RMK AO2 SLP218 T01060083=
201806270556 METAR KPWT 270556Z AUTO 09003KT 10SM BKN060 13/09 A3013 RMK AO2 SLP220 6//// T01330094 10194 20133 56007=
201806270456 METAR KPWT 270456Z AUTO 05010KT 10SM OVC060 16/09 A3014 RMK AO2 SLP222 T01560094=
201806270356 METAR KPWT 270356Z AUTO 35007KT 10SM OVC060 17/08 A3014 RMK AO2 SLP222 T01720078=
201806270256 METAR KPWT 270256Z AUTO 03007KT 10SM OVC060 18/10 A3015 RMK AO2 SLP227 T01830100 56009=
201806270056 METAR KPWT 270056Z AUTO 05007KT 10SM OVC055 19/08 A3017 RMK AO2 SLP232 T01890083=
201806262356 METAR KPWT 262356Z AUTO 08006KT 10SM OVC055 19/08 A3018 RMK AO2 SLP236 T01940078 10200 20156 58010=
201806262256 METAR KPWT 262256Z AUTO VRB04KT 10SM BKN055 19/08 A3019 RMK AO2 SLP240 T01890078=
201806262156 METAR KPWT 262156Z AUTO 04007KT 10SM FEW043 OVC050 19/08 A3020 RMK AO2 SLP245 T01890083=
201806262056 METAR KPWT 262056Z AUTO 09006KT 10SM SCT039 OVC055 18/09 A3021 RMK AO2 SLP248 T01780089 55003=
201806261956 METAR KPWT 261956Z AUTO VRB03KT 10SM SCT038 BKN050 18/08 A3021 RMK AO2 SLP247 T01830083=
201806261856 METAR KPWT 261856Z AUTO 08005KT 10SM BKN030 OVC037 16/09 A3022 RMK AO2 SLP251 T01610089=
201806261854 SPECI KPWT 261854Z AUTO 07003KT 10SM BKN030 OVC037 16/09 A3022 RMK AO2=
201806261756 METAR KPWT 261756Z AUTO 11005KT 10SM BKN022 16/10 A3023 RMK AO2 SLP253 T01610100 10161 20094 50003=
201806261656 METAR KPWT 261656Z AUTO 10003KT 10SM OVC016 13/10 A3023 RMK AO2 SLP256 T01330100=
201806261556 METAR KPWT 261556Z AUTO VRB03KT 10SM OVC010 12/10 A3023 RMK AO2 SLP253 T01220100=
201806261541 SPECI KPWT 261541Z AUTO 07003KT 10SM OVC010 12/09 A3023 RMK AO2=
201806261456 METAR KPWT 261456Z AUTO 00000KT 10SM OVC008 11/09 A3022 RMK AO2 SLP250 T01110094 51009=
201806261356 METAR KPWT 261356Z AUTO VRB03KT 10SM OVC008 11/10 A3021 RMK AO2 SLP246 T01110100=
201806261256 METAR KPWT 261256Z AUTO 00000KT 10SM OVC006 11/10 A3020 RMK AO2 SLP244 T01060100=
201806261156 METAR KPWT 261156Z AUTO 00000KT 10SM BKN006 OVC039 09/09 A3019 RMK AO2 SLP240 7//// T00940089 10106 20078 51005=
201806261153 SPECI KPWT 261153Z AUTO 00000KT 10SM BKN006 OVC039 09/08 A3019 RMK AO2=
201806261143 SPECI KPWT 261143Z AUTO 00000KT 10SM SCT006 OVC039 08/08 A3019 RMK AO2=
201806261056 METAR KPWT 261056Z AUTO 00000KT 10SM FEW040 08/08 A3018 RMK AO2 SLP238 T00830078=
201806260956 METAR KPWT 260956Z AUTO 00000KT 10SM SCT036 BKN055 09/08 A3017 RMK AO2 SLP235 T00890078=
201806260856 METAR KPWT 260856Z AUTO 00000KT 10SM OVC031 09/08 A3017 RMK AO2 SLP232 T00940083 53005=
201806260756 METAR KPWT 260756Z AUTO 13003KT 10SM OVC040 09/08 A3016 RMK AO2 SLP230 T00890078 402060083=
201806260656 METAR KPWT 260656Z AUTO 00000KT 10SM CLR 09/08 A3016 RMK AO2 SLP231 T00940078=
201806260556 METAR KPWT 260556Z AUTO 13003KT 10SM CLR 11/08 A3016 RMK AO2 SLP228 T01060083 10194 20106 53010=
201806260456 METAR KPWT 260456Z AUTO 00000KT 10SM FEW033 13/09 A3014 RMK AO2 SLP225 T01280089=
201806260356 METAR KPWT 260356Z AUTO 22006KT 10SM SCT037 SCT047 15/09 A3013 RMK AO2 SLP221 T01500089=
201806260256 METAR KPWT 260256Z AUTO 23010KT 10SM SCT044 OVC070 16/09 A3012 RMK AO2 SLP218 T01610089 53007=
201806260156 METAR KPWT 260156Z AUTO 22011KT 10SM OVC044 17/08 A3011 RMK AO2 SLP212 T01720078=
201806260056 METAR KPWT 260056Z AUTO 36007G14KT 10SM SCT038 BKN046 OVC060 18/11 A3011 RMK AO2 SLP211 T01830106=
201806252356 METAR KPWT 252356Z AUTO 22011KT 10SM OVC050 18/08 A3010 RMK AO2 SLP211 6//// T01780078 10206 20167 51007=
201806252256 METAR KPWT 252256Z AUTO 23010KT 10SM OVC055 18/08 A3010 RMK AO2 SLP207 T01830078=
201806252156 METAR KPWT 252156Z AUTO VRB05KT 10SM OVC055 19/06 A3010 RMK AO2 SLP207 T01890061=
201806252056 METAR KPWT 252056Z AUTO 22015G21KT 10SM SCT070 20/07 A3008 RMK AO2 WSHFT 1946 SLP202 T02000072 53012=
201806252006 SPECI KPWT 252006Z AUTO 23012G19KT 10SM SCT048 19/08 A3007 RMK AO2 WSHFT 1946=
201806251956 METAR KPWT 251956Z AUTO 24012KT 10SM SCT048 18/08 A3007 RMK AO2 SLP198 T01830078=
201806251856 METAR KPWT 251856Z AUTO 21011G19KT 10SM FEW040 SCT055 18/09 A3006 RMK AO2 SLP195 T01780089=
201806251756 METAR KPWT 251756Z AUTO 22013KT 10SM FEW028 SCT060 18/10 A3005 RMK AO2 SLP189 T01780100 10189 20111 51015=
201806251746 SPECI KPWT 251746Z AUTO 21013G19KT 10SM FEW020 SCT028 BKN060 19/11 A3005 RMK AO2=
201806251711 SPECI KPWT 251711Z AUTO 21008KT 10SM BKN015 OVC021 17/13 A3004 RMK AO2=
201806251656 METAR KPWT 251656Z AUTO 00000KT 10SM BKN013 15/12 A3004 RMK AO2 SLP187 T01500117=
201806251617 SPECI KPWT 251617Z AUTO 25004KT 10SM OVC010 13/11 A3004 RMK AO2 CIG 007V012=
201806251556 METAR KPWT 251556Z AUTO 21007KT 10SM OVC006 13/11 A3003 RMK AO2 CIG 006V010 SLP184 T01280111=
201806251456 METAR KPWT 251456Z AUTO 19004KT 10SM OVC006 12/11 A3000 RMK AO2 SLP176 T01170111 51016=
201806251419 SPECI KPWT 251419Z AUTO 20007KT 10SM OVC006 12/11 A2999 RMK AO2 CIG 004V008=
201806251356 METAR KPWT 251356Z AUTO 21005KT 10SM OVC004 12/11 A2999 RMK AO2 SLP171 T01170111=
201806251256 METAR KPWT 251256Z AUTO 20007KT 10SM OVC004 12/11 A2998 RMK AO2 SLP165 T01170111=
201806251156 METAR KPWT 251156Z AUTO 20005KT 10SM OVC004 12/12 A2996 RMK AO2 RAE03 SLP158 P0000 60012 70012 T01220117 10133 20122 53002=
201806251133 SPECI KPWT 251133Z AUTO 21006KT 10SM OVC004 13/12 A2995 RMK AO2 RAE03 CIG 003V007 P0000=
201806251056 METAR KPWT 251056Z AUTO 20007KT 7SM -RA OVC006 13/12 A2995 RMK AO2 RAB48 CIG 003V009 SLP157 P0000 T01280122=
201806251029 SPECI KPWT 251029Z AUTO 20005KT 10SM BKN006 BKN009 OVC039 13/13 A2995 RMK AO2 CIG 003V007=
201806251019 SPECI KPWT 251019Z AUTO 22004KT 10SM BKN004 OVC041 13/13 A2995 RMK AO2 CIG 003V010=
201806250956 METAR KPWT 250956Z AUTO 00000KT 10SM FEW004 SCT022 OVC041 13/12 A2995 RMK AO2 RAE30 SLP155 P0001 T01280122=
201806250929 SPECI KPWT 250929Z AUTO 00000KT 10SM -RA BKN015 OVC025 13/12 A2996 RMK AO2 P0001=
201806250856 METAR KPWT 250856Z AUTO 00000KT 5SM -RA BR FEW004 SCT008 OVC013 13/12 A2995 RMK AO2 RAB10 SLP157 P0003 60011 T01280122 51010=
201806250853 SPECI KPWT 250853Z AUTO 00000KT 4SM -RA BR FEW004 OVC011 13/12 A2995 RMK AO2 RAB10 CIG 006V013 P0003=
201806250756 METAR KPWT 250756Z AUTO 00000KT 10SM OVC006 13/12 A2997 RMK AO2 RAE28 SLP161 P0001 T01330122 402500094=
201806250738 SPECI KPWT 250738Z AUTO 00000KT 10SM BKN006 BKN055 13/12 A2995 RMK AO2 RAE28 P0001=
201806250730 SPECI KPWT 250730Z AUTO VRB03KT 10SM SCT006 SCT031 BKN055 13/12 A2994 RMK AO2 LTG DSNT NE AND E RAE28 P0001=
201806250656 METAR KPWT 250656Z AUTO 10006KT 8SM -RA FEW034 BKN041 OVC055 13/12 A2992 RMK AO2 TSE10 SLP147 P0007 T01330117=
201806250556 METAR KPWT 250556Z AUTO 16003KT 10SM VCTS -RA SCT070 OVC090 17/09 A2994 RMK AO2 LTG DSNT N TSB55RAB41 SLP151 P0000 60000 T01720089 10244 20172 53035=
201806250456 METAR KPWT 250456Z AUTO VRB03KT 10SM OVC065 18/07 A2989 RMK AO2 LTG DSNT W SLP135 T01830072=
201806250356 METAR KPWT 250356Z AUTO 05013KT 10SM BKN065 19/07 A2984 RMK AO2 SLP119 T01940072=
201806250256 METAR KPWT 250256Z AUTO 05007KT 10SM CLR 20/09 A2983 RMK AO2 SLP117 T02000089 55005=
201806250156 METAR KPWT 250156Z AUTO 04009KT 10SM CLR 21/09 A2982 RMK AO2 SLP114 T02110094=
201806250056 METAR KPWT 250056Z AUTO 04011G16KT 10SM CLR 23/12 A2984 RMK AO2 SLP117 T02330117=
201806242356 METAR KPWT 242356Z AUTO 06013KT 10SM CLR 24/13 A2984 RMK AO2 SLP120 T02440128 10250 20178 58027=
201806242256 METAR KPWT 242256Z AUTO 06008KT 10SM CLR 24/14 A2987 RMK AO2 SLP130 T02440139=
201806242156 METAR KPWT 242156Z AUTO 03005KT 10SM CLR 24/14 A2990 RMK AO2 SLP138 T02440139=
201806242056 METAR KPWT 242056Z AUTO VRB05KT 10SM CLR 24/12 A2993 RMK AO2 SLP148 T02390122 56028=
201806241956 METAR KPWT 241956Z AUTO VRB04KT 10SM CLR 23/13 A2995 RMK AO2 SLP157 T02280128=
201806241856 METAR KPWT 241856Z AUTO VRB03KT 10SM CLR 21/13 A2998 RMK AO2 SLP167 T02110133=
201806241756 METAR KPWT 241756Z AUTO 03005KT 10SM CLR 18/13 A3001 RMK AO2 SLP178 T01830128 10183 20106 58013=
201806241713 SPECI KPWT 241713Z AUTO 02005KT 10SM SCT004 16/13 A3003 RMK AO2=
201806241656 METAR KPWT 241656Z AUTO 03003KT 10SM OVC004 14/12 A3003 RMK AO2 SLP187 T01440122=
201806241642 SPECI KPWT 241642Z AUTO 00000KT 10SM OVC004 14/12 A3004 RMK AO2=
201806241610 SPECI KPWT 241610Z AUTO 01004KT 9SM OVC002 13/12 A3005 RMK AO2=
201806241601 SPECI KPWT 241601Z AUTO 03004KT 2SM BR OVC002 12/12 A3005 RMK AO2 VIS 3/4V5=
201806241556 METAR KPWT 241556Z AUTO 04003KT 1SM BR OVC002 12/12 A3005 RMK AO2 VIS 1/2V3 SLP191 T01170117=
201806241551 SPECI KPWT 241551Z AUTO 05004KT 1SM BR OVC002 12/11 A3005 RMK AO2=
201806241542 SPECI KPWT 241542Z AUTO 05003KT 3/4SM BR OVC002 12/11 A3005 RMK AO2=
201806241456 METAR KPWT 241456Z AUTO 06004KT M1/4SM FG OVC002 11/11 A3006 RMK AO2 SLP197 T01110106 56012=
201806241431 SPECI KPWT 241431Z AUTO 07005KT 1/4SM FG OVC002 11/11 A3006 RMK AO2=
201806241426 SPECI KPWT 241426Z AUTO 06006KT 3/4SM BR OVC002 11/11 A3007 RMK AO2=
201806241423 SPECI KPWT 241423Z AUTO 08005KT 1 3/4SM BR OVC002 11/11 A3007 RMK AO2 VIS 3/4V5=
201806241412 SPECI KPWT 241412Z AUTO 07005KT 3SM BR OVC002 11/11 A3007 RMK AO2=
201806241401 SPECI KPWT 241401Z AUTO 05003KT 1 1/4SM BR OVC002 11/11 A3007 RMK AO2=
201806241356 METAR KPWT 241356Z AUTO 04005KT 3/4SM BR OVC002 11/11 A3007 RMK AO2 SLP200 T01110106=
201806241348 SPECI KPWT 241348Z AUTO 06004KT 1/2SM FG OVC002 11/11 A3007 RMK AO2=
201806241336 SPECI KPWT 241336Z AUTO 05004KT 1/4SM FG OVC002 11/11 A3008 RMK AO2=
201806241312 SPECI KPWT 241312Z AUTO 04005KT 1/2SM FG BKN002 11/10 A3009 RMK AO2=
201806241309 SPECI KPWT 241309Z AUTO 03004KT 1SM BR BKN002 11/10 A3009 RMK AO2=
201806241304 SPECI KPWT 241304Z AUTO 04005KT 2 1/2SM BR BKN002 11/10 A3008 RMK AO2=
201806241256 METAR KPWT 241256Z AUTO 05006KT 9SM FEW002 11/10 A3008 RMK AO2 SLP203 T01060100=
201806241156 METAR KPWT 241156Z AUTO 03004KT 10SM CLR 11/10 A3010 RMK AO2 SLP209 7//// T01060100 10122 20094 57005=
201806241056 METAR KPWT 241056Z AUTO 06006KT 10SM CLR 11/11 A3010 RMK AO2 SLP209 T01110106=
201806240956 METAR KPWT 240956Z AUTO 05003KT 10SM CLR 11/11 A3011 RMK AO2 SLP214 T01110106=
201806240856 METAR KPWT 240856Z AUTO 06004KT 10SM CLR 12/12 A3011 RMK AO2 SLP214 T01170117 58007=
201806240756 METAR KPWT 240756Z AUTO 00000KT 10SM CLR 10/09 A3012 RMK AO2 SLP218 T01000094 402060100=
201806240656 METAR KPWT 240656Z AUTO 00000KT 10SM CLR 11/10 A3013 RMK AO2 SLP221 T01060100=
201806240556 METAR KPWT 240556Z AUTO 00000KT 10SM CLR 11/10 A3014 RMK AO2 SLP223 6//// T01110100 10206 20111 58006=
201806240456 METAR KPWT 240456Z AUTO 00000KT 10SM CLR 13/12 A3015 RMK AO2 SLP226 T01330117=
201806240356 METAR KPWT 240356Z AUTO 00000KT 10SM CLR 17/13 A3014 RMK AO2 SLP224 T01720128=
201806240256 METAR KPWT 240256Z AUTO 26005KT 10SM FEW029 19/13 A3015 RMK AO2 SLP227 T01890128 56013=
201806240246 SPECI KPWT 240246Z AUTO 25005KT 10SM SCT029 19/13 A3016 RMK AO2=
201806240232 SPECI KPWT 240232Z AUTO 26005KT 10SM BKN029 20/13 A3016 RMK AO2=
201806240056 METAR KPWT 240056Z AUTO VRB03KT 10SM SCT045 20/13 A3018 RMK AO2 SLP234 T02000128=
201806240007 SPECI KPWT 240007Z AUTO 20004KT 10SM SCT026 OVC038 19/13 A3019 RMK AO2=
201806232356 METAR KPWT 232356Z AUTO 00000KT 10SM BKN026 OVC038 19/13 A3019 RMK AO2 SLP239 6//// T01940128 10194 20144 58004=
201806232311 SPECI KPWT 232311Z AUTO VRB04KT 10SM OVC030 18/12 A3020 RMK AO2=
201806232256 METAR KPWT 232256Z AUTO VRB03KT 10SM BKN029 BKN034 OVC041 18/12 A3020 RMK AO2 SLP242 T01830122=
201806232156 METAR KPWT 232156Z AUTO VRB03KT 10SM OVC027 18/13 A3020 RMK AO2 SLP244 T01780128=
201806232111 SPECI KPWT 232111Z AUTO 07004KT 10SM OVC029 17/13 A3020 RMK AO2=
201806232056 METAR KPWT 232056Z AUTO 05003KT 10SM OVC031 17/13 A3020 RMK AO2 SLP244 6//// T01720128 50000=
201806232040 SPECI KPWT 232040Z AUTO 07003KT 10SM SCT020 OVC031 17/13 A3020 RMK AO2=
201806232015 SPECI KPWT 232015Z AUTO 00000KT 10SM BKN020 OVC040 18/12 A3020 RMK AO2=
201806231956 METAR KPWT 231956Z AUTO 00000KT 10SM OVC038 17/13 A3020 RMK AO2 SLP244 T01720128=
201806231942 SPECI KPWT 231942Z AUTO 05003KT 10SM FEW014 SCT025 OVC034 17/12 A3020 RMK AO2=
201806231921 SPECI KPWT 231921Z AUTO 00000KT 10SM SCT012 OVC024 16/13 A3021 RMK AO2=
201806231913 SPECI KPWT 231913Z AUTO 10SM BKN012 OVC022 16/13 A3021 RMK AO2=
201806231856 METAR KPWT 231856Z AUTO 00000KT 10SM SCT012 BKN022 OVC026 16/13 A3021 RMK AO2 SLP247 T01560128=
201806231822 SPECI KPWT 231822Z AUTO 00000KT 10SM SCT011 OVC020 15/13 A3021 RMK AO2=
201806231756 METAR KPWT 231756Z AUTO VRB03KT 10SM OVC011 14/13 A3020 RMK AO2 SLP245 6//// T01440128 10150 20128 53009=
201806231656 METAR KPWT 231656Z AUTO 20003KT 10SM BKN013 OVC037 14/12 A3019 RMK AO2 SLP241 T01440122=
201806231645 SPECI KPWT 231645Z AUTO 00000KT 10SM BKN010 OVC018 14/12 A3019 RMK AO2 CIG 008V012=
201806231638 SPECI KPWT 231638Z AUTO 00000KT 10SM SCT009 OVC015 14/12 A3019 RMK AO2=
201806231635 SPECI KPWT 231635Z AUTO 00000KT 10SM BKN009 OVC013 14/12 A3019 RMK AO2 CIG 007V012=
201806231615 SPECI KPWT 231615Z AUTO 00000KT 10SM FEW007 OVC013 14/12 A3019 RMK AO2=
201806231556 METAR KPWT 231556Z AUTO 13003KT 10SM OVC017 14/12 A3019 RMK AO2 SLP238 T01390122=
201806231456 METAR KPWT 231456Z AUTO 07005KT 10SM FEW007 OVC019 13/12 A3018 RMK AO2 SLP235 6//// T01330122 51006=
201806231454 SPECI KPWT 231454Z AUTO 06004KT 10SM SCT007 OVC019 13/12 A3018 RMK AO2=
201806231356 METAR KPWT 231356Z AUTO 00000KT 10SM OVC007 13/12 A3017 RMK AO2 CIG 005V010 SLP233 T01280122=
201806231332 SPECI KPWT 231332Z AUTO 08004KT 10SM OVC005 13/12 A3016 RMK AO2 CIG 004V009=
201806231256 METAR KPWT 231256Z AUTO 00000KT 10SM OVC007 13/12 A3016 RMK AO2 CIG 004V010 SLP228 T01280122=
201806231254 SPECI KPWT 231254Z AUTO 00000KT 10SM OVC007 13/12 A3016 RMK AO2 CIG 004V010=
201806231156 METAR KPWT 231156Z AUTO 06004KT 10SM BKN005 OVC010 13/12 A3016 RMK AO2 SLP227 60005 70005 T01280122 10139 20128 51007=
201806231149 SPECI KPWT 231149Z AUTO 06003KT 10SM SCT005 OVC010 13/12 A3015 RMK AO2=
201806231134 SPECI KPWT 231134Z AUTO 06003KT 10SM OVC010 13/12 A3015 RMK AO2 CIG 005V011=
201806231121 SPECI KPWT 231121Z AUTO 06004KT 10SM OVC008 13/12 A3015 RMK AO2 CIG 004V011=
201806231056 METAR KPWT 231056Z AUTO 07004KT 9SM OVC005 13/13 A3015 RMK AO2 RAE37 CIG 003V009 SLP225 P0002 T01280128=
201806231036 SPECI KPWT 231036Z AUTO 03003KT 8SM -RA BKN005 OVC010 13/13 A3015 RMK AO2 CIG 003V007 P0001=
201806231016 SPECI KPWT 231016Z AUTO 00000KT 6SM -RA BR FEW004 OVC011 13/12 A3014 RMK AO2 P0001=
201806230956 METAR KPWT 230956Z AUTO 06003KT 5SM -RA BR BKN004 OVC011 13/12 A3015 RMK AO2 RAB22 CIG 003V008 SLP225 P0001 T01280122=
201806230934 SPECI KPWT 230934Z AUTO 03003KT 5SM -RA BR OVC004 13/12 A3014 RMK AO2 RAB22 P0000=
201806230856 METAR KPWT 230856Z AUTO 05003KT 6SM BR BKN006 OVC012 13/12 A3013 RMK AO2 RAE37 CIG 004V010 SLP220 P0002 60002 T01280122 51001=
201806230853 SPECI KPWT 230853Z AUTO 06004KT 6SM BR BKN006 OVC012 13/12 A3013 RMK AO2 RAE37 CIG 004V010 P0002=
201806230839 SPECI KPWT 230839Z AUTO 06005KT 9SM SCT004 OVC013 13/12 A3014 RMK AO2 RAE37 P0001=
201806230814 SPECI KPWT 230814Z AUTO 07003KT 7SM -RA OVC004 13/12 A3013 RMK AO2 P0001=
201806230756 METAR KPWT 230756Z AUTO 05004KT 8SM -RA OVC006 13/12 A3013 RMK AO2 RAB44 CIG 004V009 SLP221 P0000 T01280122 401940100=
201806230723 SPECI KPWT 230723Z AUTO 05004KT 10SM OVC008 13/12 A3013 RMK AO2=
201806230656 METAR KPWT 230656Z AUTO 05009KT 10SM BKN010 OVC023 13/12 A3013 RMK AO2 RAB00E48 SLP220 P0000 T01330122=
201806230649 SPECI KPWT 230649Z AUTO 05008KT 10SM BKN010 OVC023 13/12 A3013 RMK AO2 RAB00E48 P0000=
201806230629 SPECI KPWT 230629Z AUTO 05007KT 10SM -RA SCT010 OVC023 13/12 A3013 RMK AO2 RAB00 P0000=
201806230620 SPECI KPWT 230620Z AUTO 05007KT 10SM -RA BKN010 OVC023 13/12 A3013 RMK AO2 RAB00 P0000=
201806230556 METAR KPWT 230556Z AUTO 05006KT 10SM BKN021 OVC025 14/12 A3013 RMK AO2 SLP221 T01390117 10194 20139 50004=
201806230456 METAR KPWT 230456Z AUTO 04006KT 10SM OVC021 15/11 A3013 RMK AO2 SLP221 T01500111=
201806230356 METAR KPWT 230356Z AUTO 06008KT 10SM BKN023 OVC028 16/12 A3012 RMK AO2 SLP218 T01560117=
201806230256 METAR KPWT 230256Z AUTO 25004KT 10SM OVC027 17/12 A3012 RMK AO2 SLP216 T01720117 55001=
201806230230 SPECI KPWT 230230Z AUTO 06004KT 10SM OVC027 17/11 A3012 RMK AO2=
201806230156 METAR KPWT 230156Z AUTO 07006KT 10SM OVC035 17/11 A3012 RMK AO2 SLP215 T01720111=
201806230056 METAR KPWT 230056Z AUTO 04011KT 10SM OVC043 18/12 A3011 RMK AO2 SLP213 T01830117=
201806222356 METAR KPWT 222356Z AUTO 13004KT 10SM BKN036 BKN043 19/11 A3012 RMK AO2 SLP217 T01890111 10189 20144 58012=
201806222256 METAR KPWT 222256Z AUTO VRB04KT 10SM FEW028 OVC038 18/12 A3014 RMK AO2 SLP223 T01830117=
201806222254 SPECI KPWT 222254Z AUTO 00000KT 10SM SCT028 OVC038 18/12 A3014 RMK AO2=
201806222156 METAR KPWT 222156Z AUTO 18004KT 10SM OVC028 18/12 A3016 RMK AO2 SLP229 T01780117=
201806222056 METAR KPWT 222056Z AUTO 20004KT 10SM OVC024 17/12 A3017 RMK AO2 SLP235 T01720117 58003=
201806221956 METAR KPWT 221956Z AUTO 20007KT 10SM OVC016 16/12 A3019 RMK AO2 SLP239 T01560117=
201806221909 SPECI KPWT 221909Z AUTO 19005KT 10SM OVC016 15/12 A3018 RMK AO2=
201806221856 METAR KPWT 221856Z AUTO 20005KT 10SM OVC014 14/12 A3018 RMK AO2 SLP239 T01440117=
201806221810 SPECI KPWT 221810Z AUTO VRB04KT 10SM BKN010 OVC015 14/12 A3018 RMK AO2 CIG 008V012=
201806221756 METAR KPWT 221756Z AUTO 10SM OVC008 14/12 A3018 RMK AO2 CIG 006V012 SLP239 60000 T01390122 10139 20122 50001=
201806221656 METAR KPWT 221656Z AUTO 19005KT 8SM BKN006 OVC009 13/12 A3019 RMK AO2 RAB37E56 CIG 004V007 SLP240 P0000 T01280122=
201806221556 METAR KPWT 221556Z AUTO 21006KT 10SM BKN006 OVC011 12/12 A3018 RMK AO2 RAB21E32 CIG 005V009 SLP238 P0000 T01220117=
201806221456 METAR KPWT 221456Z AUTO 19007KT 9SM BKN006 OVC010 12/12 A3018 RMK AO2 CIG 004V008 SLP237 T01220117 53006=
201806221440 SPECI KPWT 221440Z AUTO 17004KT 9SM BKN006 OVC013 12/12 A3017 RMK AO2 CIG 004V009=
201806221420 SPECI KPWT 221420Z AUTO 17004KT 9SM SCT006 OVC015 12/12 A3018 RMK AO2=
201806221356 METAR KPWT 221356Z AUTO 18005KT 8SM OVC009 12/11 A3017 RMK AO2 CIG 005V013 SLP234 T01220111=
201806221256 METAR KPWT 221256Z AUTO 18004KT 10SM OVC009 13/12 A3016 RMK AO2 CIG 008V013 SLP230 T01280117=
201806221156 METAR KPWT 221156Z AUTO 20003KT 10SM BKN009 OVC022 12/11 A3016 RMK AO2 SLP230 6//// 7//// T01220111 10139 20100 53005=
201806221136 SPECI KPWT 221136Z AUTO 18004KT 10SM BKN009 OVC020 12/11 A3016 RMK AO2=
201806221120 SPECI KPWT 221120Z AUTO 18005KT 10SM SCT009 OVC022 12/11 A3016 RMK AO2=
201806221056 METAR KPWT 221056Z AUTO 17003KT 10SM OVC007 12/11 A3015 RMK AO2 SLP226 T01220111=
201806220956 METAR KPWT 220956Z AUTO 21004KT 10SM OVC007 12/11 A3015 RMK AO2 SLP225 T01220111=
201806220856 METAR KPWT 220856Z AUTO 17003KT 10SM BKN009 12/11 A3015 RMK AO2 SLP225 T01170111 50000=
201806220847 SPECI KPWT 220847Z AUTO 16003KT 10SM SCT009 11/10 A3015 RMK AO2=
201806220756 METAR KPWT 220756Z AUTO 00000KT 10SM CLR 12/11 A3015 RMK AO2 SLP225 T01220111 401830111=
201806220656 METAR KPWT 220656Z AUTO 20003KT 10SM CLR 13/11 A3015 RMK AO2 SLP227 T01280111=
201806220618 SPECI KPWT 220618Z AUTO 24006KT 10SM SCT020 14/11 A3015 RMK AO2=
201806220556 METAR KPWT 220556Z AUTO 22005KT 10SM OVC020 14/12 A3015 RMK AO2 SLP225 6//// T01390117 10183 20139 50002=
201806220456 METAR KPWT 220456Z AUTO 22007KT 10SM OVC020 15/12 A3015 RMK AO2 SLP227 T01500117=
201806220356 METAR KPWT 220356Z AUTO 21008KT 10SM OVC022 16/12 A3014 RMK AO2 SLP223 T01560117=
201806220156 METAR KPWT 220156Z AUTO 19007KT 10SM OVC025 17/12 A3013 RMK AO2 SLP220 T01720122=
201806220056 METAR KPWT 220056Z AUTO 22007KT 10SM OVC025 18/13 A3013 RMK AO2 SLP219 T01780128=
201806212356 METAR KPWT 212356Z AUTO VRB04KT 10SM OVC023 18/13 A3013 RMK AO2 SLP219 T01780128 10178 20150 58006=
201806212256 METAR KPWT 212256Z AUTO 18006KT 10SM OVC021 17/12 A3015 RMK AO2 SLP224 T01720122=
201806212156 METAR KPWT 212156Z AUTO 23006KT 10SM OVC021 18/12 A3015 RMK AO2 SLP224 T01780122=
201806212056 METAR KPWT 212056Z AUTO 21010KT 10SM OVC019 17/12 A3015 RMK AO2 SLP226 T01670122 53006=
201806211956 METAR KPWT 211956Z AUTO 20008KT 10SM OVC017 16/12 A3014 RMK AO2 SLP224 T01610122=
201806211856 METAR KPWT 211856Z AUTO 18007KT 10SM OVC019 16/12 A3014 RMK AO2 SLP221 T01610117=
201806211804 SPECI KPWT 211804Z AUTO 21010KT 10SM BKN015 OVC020 15/12 A3013 RMK AO2=
201806211756 METAR KPWT 211756Z AUTO 20008KT 10SM BKN012 OVC020 15/12 A3013 RMK AO2 SLP220 T01500122 10150 20133 53011=
201806211656 METAR KPWT 211656Z AUTO 21010KT 10SM OVC010 14/12 A3012 RMK AO2 CIG 009V013 SLP214 T01440122=
201806211635 SPECI KPWT 211635Z AUTO 20010KT 10SM OVC010 14/12 A3012 RMK AO2 CIG 008V015=
201806211556 METAR KPWT 211556Z AUTO 19010G14KT 10SM BKN006 OVC014 14/12 A3011 RMK AO2 CIG 005V009 SLP211 T01390122=
201806211456 METAR KPWT 211456Z AUTO 22008KT 10SM OVC008 13/12 A3010 RMK AO2 SLP205 T01330122 51013=
201806211356 METAR KPWT 211356Z AUTO 21009KT 10SM OVC008 13/12 A3009 RMK AO2 SLP201 T01330117=
201806211305 SPECI KPWT 211305Z AUTO 20009KT 10SM OVC008 13/12 A3008 RMK AO2=
201806211256 METAR KPWT 211256Z AUTO 21007KT 10SM OVC010 13/12 A3008 RMK AO2 SLP197 T01330117=
201806211220 SPECI KPWT 211220Z AUTO 20007KT 160V240 10SM OVC010 14/12 A3006 RMK AO2=
201806211156 METAR KPWT 211156Z AUTO 21010KT 10SM OVC008 14/12 A3006 RMK AO2 SLP191 T01390117 10144 20133 53012=
201806211139 SPECI KPWT 211139Z AUTO 22009KT 10SM OVC008 14/12 A3005 RMK AO2=
201806211056 METAR KPWT 211056Z AUTO 20009G15KT 10SM OVC010 14/12 A3004 RMK AO2 SLP185 T01390117=
201806210956 METAR KPWT 210956Z AUTO 21010G16KT 10SM OVC008 14/12 A3003 RMK AO2 SLP180 T01390122=
201806210756 METAR KPWT 210756Z AUTO 20010KT 10SM OVC008 14/12 A3001 RMK AO2 SLP175 T01390122 403110133=
201806210656 METAR KPWT 210656Z AUTO 21009KT 10SM OVC008 14/12 A2999 RMK AO2 SLP166 T01390122=
201806210635 SPECI KPWT 210635Z AUTO 21006KT 10SM BKN008 13/12 A2998 RMK AO2=
201806210625 SPECI KPWT 210625Z AUTO 21007KT 10SM SCT008 14/13 A2997 RMK AO2=
201806210556 METAR KPWT 210556Z AUTO 21006KT 10SM CLR 14/13 A2997 RMK AO2 SLP160 T01440128 10272 20144 53019=
201806210456 METAR KPWT 210456Z AUTO 20007KT 10SM CLR 17/13 A2995 RMK AO2 SLP154 T01670133=
201806210356 METAR KPWT 210356Z AUTO 23007KT 10SM CLR 21/15 A2993 RMK AO2 SLP146 T02060150=
201806210256 METAR KPWT 210256Z AUTO 07004KT 10SM CLR 26/13 A2991 RMK AO2 SLP139 T02560128 53003=
201806210156 METAR KPWT 210156Z AUTO 04010KT 10SM CLR 27/12 A2991 RMK AO2 SLP138 T02720122=
201806210056 METAR KPWT 210056Z AUTO 04009KT 10SM SCT120 26/15 A2990 RMK AO2 SLP138 T02610150=
201806202356 METAR KPWT 202356Z AUTO 07011KT 10SM CLR 27/16 A2990 RMK AO2 LTG DSNT NW SLP137 T02720156 10311 20244 56009=
201806202256 METAR KPWT 202256Z AUTO 05008KT 10SM CLR 29/17 A2990 RMK AO2 LTG DSNT NW SLP136 T02890172=
201806202156 METAR KPWT 202156Z AUTO 00000KT 10SM CLR 31/13 A2991 RMK AO2 SLP139 T03060128=
201806202056 METAR KPWT 202056Z AUTO 24005KT 10SM CLR 29/14 A2993 RMK AO2 SLP145 T02940139 58012=
201806201956 METAR KPWT 201956Z AUTO 00000KT 10SM CLR 28/17 A2994 RMK AO2 SLP149 T02830167=
201806201856 METAR KPWT 201856Z AUTO VRB03KT 10SM CLR 28/16 A2996 RMK AO2 SLP154 T02780161=
201806201756 METAR KPWT 201756Z AUTO 13003KT 10SM CLR 24/16 A2997 RMK AO2 SLP159 T02440161 10250 20150 58004=
201806201656 METAR KPWT 201656Z AUTO 10004KT 10SM CLR 23/16 A2997 RMK AO2 SLP161 T02330156=
201806201556 METAR KPWT 201556Z AUTO 00000KT 10SM CLR 23/14 A2998 RMK AO2 SLP161 T02280144=
201806201456 METAR KPWT 201456Z AUTO 00000KT 10SM BKN110 19/14 A2998 RMK AO2 SLP162 T01940144 51004=
201806201356 METAR KPWT 201356Z AUTO 00000KT 10SM CLR 19/14 A2998 RMK AO2 SLP162 T01890139=
201806201256 METAR KPWT 201256Z AUTO 21004KT 10SM CLR 16/13 A2997 RMK AO2 SLP160 T01560133=
201806201156 METAR KPWT 201156Z AUTO 00000KT 10SM CLR 16/14 A2997 RMK AO2 SLP158 T01610139 10200 20161 58007=
201806201056 METAR KPWT 201056Z AUTO 00000KT 10SM CLR 17/14 A2998 RMK AO2 SLP163 T01720144=
201806200956 METAR KPWT 200956Z AUTO 02003KT 10SM SCT120 18/14 A2998 RMK AO2 SLP164 T01780139=
201806200856 METAR KPWT 200856Z AUTO 03003KT 10SM CLR 19/14 A2999 RMK AO2 SLP166 T01890139 58007=
201806200756 METAR KPWT 200756Z AUTO 00000KT 10SM CLR 19/14 A3000 RMK AO2 SLP169 T01940139 402890139=
201806200656 METAR KPWT 200656Z AUTO 08003KT 10SM CLR 19/14 A3001 RMK AO2 SLP175 T01940144=
201806200556 METAR KPWT 200556Z AUTO 00000KT 10SM CLR 18/14 A3001 RMK AO2 SLP175 T01830139 10289 20172 50004=
201806200456 METAR KPWT 200456Z AUTO 00000KT 10SM CLR 21/14 A3001 RMK AO2 SLP176 T02060144=
201806200356 METAR KPWT 200356Z AUTO 05003KT 10SM CLR 23/14 A3000 RMK AO2 SLP173 T02330139=
201806200256 METAR KPWT 200256Z AUTO 04007KT 10SM CLR 26/14 A3000 RMK AO2 SLP170 T02560144 55003=
201806200156 METAR KPWT 200156Z AUTO 25004KT 10SM CLR 28/15 A2998 RMK AO2 SLP165 T02830150=
201806200056 METAR KPWT 200056Z AUTO 00000KT 10SM CLR 28/15 A2999 RMK AO2 SLP167 T02830150=
201806192356 METAR KPWT 192356Z AUTO 27004KT 10SM CLR 28/15 A3001 RMK AO2 SLP173 T02830150 10289 20189 58013=
201806192256 METAR KPWT 192256Z AUTO VRB03KT 10SM CLR 27/14 A3002 RMK AO2 SLP179 T02720144=
201806192156 METAR KPWT 192156Z AUTO VRB04KT 10SM CLR 27/14 A3003 RMK AO2 SLP182 T02720144=
201806192056 METAR KPWT 192056Z AUTO 29005KT 10SM CLR 25/14 A3004 RMK AO2 SLP186 T02500144 58010=
201806191956 METAR KPWT 191956Z AUTO 30004KT 10SM CLR 23/13 A3005 RMK AO2 SLP191 T02280133=
201806191856 METAR KPWT 191856Z AUTO VRB03KT 10SM CLR 21/13 A3006 RMK AO2 SLP195 T02060128=
201806191756 METAR KPWT 191756Z AUTO VRB04KT 10SM CLR 19/13 A3007 RMK AO2 SLP199 T01890128 10189 20139 58004=
201806191656 METAR KPWT 191656Z AUTO VRB04KT 10SM CLR 18/13 A3008 RMK AO2 SLP200 T01780133=
201806191640 SPECI KPWT 191640Z AUTO 24005KT 10SM SCT012 17/13 A3008 RMK AO2=
201806191624 SPECI KPWT 191624Z AUTO VRB05KT 10SM BKN012 16/13 A3008 RMK AO2=
201806191556 METAR KPWT 191556Z AUTO 21006KT 10SM SCT010 16/12 A3008 RMK AO2 SLP202 T01560122=
201806191522 SPECI KPWT 191522Z AUTO 22007KT 10SM OVC010 15/12 A3009 RMK AO2=
201806191456 METAR KPWT 191456Z AUTO 23005KT 10SM OVC008 14/12 A3008 RMK AO2 SLP201 T01440122 51008=
201806191356 METAR KPWT 191356Z AUTO 22005KT 10SM OVC006 14/13 A3008 RMK AO2 SLP199 T01390128=
201806191256 METAR KPWT 191256Z AUTO 22006KT 10SM OVC006 14/13 A3007 RMK AO2 SLP195 T01390128=
201806191156 METAR KPWT 191156Z AUTO 20006KT 10SM OVC006 14/13 A3006 RMK AO2 SLP191 7//// T01390128 10144 20139 53008=
201806191056 METAR KPWT 191056Z AUTO 21006KT 10SM OVC006 14/13 A3005 RMK AO2 SLP188 T01390128=
201806190956 METAR KPWT 190956Z AUTO 21007KT 10SM OVC006 14/13 A3004 RMK AO2 SLP184 T01440128=
201806190856 METAR KPWT 190856Z AUTO 22008KT 10SM OVC008 14/13 A3004 RMK AO2 SLP183 T01440133 50006=
201806190756 METAR KPWT 190756Z AUTO 21003KT 10SM OVC008 14/13 A3005 RMK AO2 SLP187 T01440133 403060106=
201806190737 SPECI KPWT 190737Z AUTO 20004KT 10SM BKN010 14/13 A3004 RMK AO2=
201806190656 METAR KPWT 190656Z AUTO 21004KT 10SM CLR 14/13 A3003 RMK AO2 SLP183 T01390128=
201806190556 METAR KPWT 190556Z AUTO 22006KT 10SM CLR 14/13 A3002 RMK AO2 SLP178 T01440128 10294 20144 53017=
201806190456 METAR KPWT 190456Z AUTO 21007KT 10SM CLR 16/13 A3000 RMK AO2 SLP173 T01610133=
201806190356 METAR KPWT 190356Z AUTO 20007KT 10SM CLR 19/14 A2998 RMK AO2 SLP165 T01890144=
201806190256 METAR KPWT 190256Z AUTO 23009KT 10SM CLR 22/15 A2997 RMK AO2 SLP160 T02220150 53008=
201806190156 METAR KPWT 190156Z AUTO 24009KT 10SM CLR 25/16 A2996 RMK AO2 SLP156 T02500156=
201806190056 METAR KPWT 190056Z AUTO 23010KT 10SM CLR 28/15 A2995 RMK AO2 SLP154 T02780150=
201806182356 METAR KPWT 182356Z AUTO 23010KT 10SM CLR 29/16 A2994 RMK AO2 SLP152 T02940156 10306 20244 55003=
201806182256 METAR KPWT 182256Z AUTO 21005KT 10SM CLR 29/14 A2994 RMK AO2 SLP151 T02940144=
201806182156 METAR KPWT 182156Z AUTO 20006KT 10SM CLR 29/14 A2995 RMK AO2 SLP152 T02890139=
201806182056 METAR KPWT 182056Z AUTO 23008KT 10SM CLR 28/13 A2995 RMK AO2 SLP154 T02830128 57004=
201806181956 METAR KPWT 181956Z AUTO 22008KT 10SM CLR 27/12 A2996 RMK AO2 SLP157 T02670117=
201806181856 METAR KPWT 181856Z AUTO VRB04KT 10SM CLR 26/14 A2996 RMK AO2 SLP157 T02610139=
201806181756 METAR KPWT 181756Z AUTO 23004KT 10SM CLR 25/13 A2996 RMK AO2 SLP159 6//// T02500133 10256 20106 57000=
201806181656 METAR KPWT 181656Z AUTO 00000KT 10SM CLR 24/13 A2997 RMK AO2 SLP159 T02390128=
201806181556 METAR KPWT 181556Z AUTO 25004KT 10SM CLR 21/14 A2996 RMK AO2 SLP158 T02110139=
201806181456 METAR KPWT 181456Z AUTO 00000KT 10SM CLR 19/13 A2997 RMK AO2 SLP157 T01890128 51015=
201806181356 METAR KPWT 181356Z AUTO 00000KT 10SM CLR 16/13 A2995 RMK AO2 SLP153 T01560128=
201806181256 METAR KPWT 181256Z AUTO 00000KT 10SM CLR 12/09 A2994 RMK AO2 SLP150 T01170094=
201806181156 METAR KPWT 181156Z AUTO 00000KT 10SM CLR 12/09 A2992 RMK AO2 SLP144 6//// 7//// T01170089 10161 20111 53007=
201806181056 METAR KPWT 181056Z AUTO 00000KT 10SM CLR 12/09 A2991 RMK AO2 SLP142 T01220094=
201806180956 METAR KPWT 180956Z AUTO 00000KT 10SM CLR 12/10 A2990 RMK AO2 SLP139 T01170100=
201806180856 METAR KPWT 180856Z AUTO 00000KT 10SM CLR 14/10 A2990 RMK AO2 SLP138 6//// T01390100 53001=
201806180756 METAR KPWT 180756Z AUTO 00000KT 10SM CLR 14/10 A2990 RMK AO2 SLP136 T01440100 403060089=
201806180656 METAR KPWT 180656Z AUTO 00000KT 10SM CLR 14/10 A2989 RMK AO2 SLP136 T01440100=
201806180556 METAR KPWT 180556Z AUTO 00000KT 10SM CLR 16/11 A2990 RMK AO2 SLP137 T01610111 10306 20156 51015=
201806180456 METAR KPWT 180456Z AUTO 00000KT 10SM CLR 19/11 A2989 RMK AO2 SLP134 T01890106=
201806180356 METAR KPWT 180356Z AUTO 18003KT 10SM CLR 23/09 A2987 RMK AO2 SLP124 T02330094=
201806180256 METAR KPWT 180256Z AUTO 05006KT 10SM CLR 28/06 A2986 RMK AO2 SLP120 T02780061 53000=
201806180156 METAR KPWT 180156Z AUTO 02010G18KT 10SM CLR 29/05 A2985 RMK AO2 SLP118 T02940050=
201806180056 METAR KPWT 180056Z AUTO 04014G20KT 10SM CLR 30/07 A2984 RMK AO2 SLP116 T03000067=
201806172356 METAR KPWT 172356Z AUTO 04015G19KT 10SM CLR 31/06 A2985 RMK AO2 SLP122 T03060056 10306 20233 58014=
201806172256 METAR KPWT 172256Z AUTO 03007KT 10SM CLR 29/09 A2987 RMK AO2 SLP127 T02890094=
201806172156 METAR KPWT 172156Z AUTO 05010G16KT 10SM CLR 28/12 A2989 RMK AO2 SLP133 T02830117=
201806172056 METAR KPWT 172056Z AUTO VRB06KT 10SM CLR 27/12 A2990 RMK AO2 SLP137 T02720122 58018=
201806171956 METAR KPWT 171956Z AUTO 06009KT 10SM CLR 26/12 A2992 RMK AO2 SLP143 T02610117=
201806171856 METAR KPWT 171856Z AUTO VRB06KT 10SM CLR 24/12 A2994 RMK AO2 SLP150 T02440122=
201806171756 METAR KPWT 171756Z AUTO 06008KT 10SM CLR 23/12 A2995 RMK AO2 SLP156 T02330117 10233 20089 58009=
201806171656 METAR KPWT 171656Z AUTO 07008KT 7SM CLR 22/12 A2996 RMK AO2 SLP159 T02170117=
201806171556 METAR KPWT 171556Z AUTO 05008KT 6SM HZ CLR 20/11 A2997 RMK AO2 SLP161 T02000106=
201806171456 METAR KPWT 171456Z AUTO VRB03KT 9SM CLR 18/10 A2998 RMK AO2 SLP164 T01830100 51006=
201806171356 METAR KPWT 171356Z AUTO 00000KT 10SM CLR 16/11 A2997 RMK AO2 SLP163 T01560106=
201806171256 METAR KPWT 171256Z AUTO 00000KT 10SM CLR 09/08 A2996 RMK AO2 SLP162 T00940078=
201806171156 METAR KPWT 171156Z AUTO 00000KT 10SM CLR 09/07 A2996 RMK AO2 SLP160 T00890072 10144 20089 58006=
201806171056 METAR KPWT 171056Z AUTO 00000KT 10SM CLR 09/08 A2997 RMK AO2 SLP163 T00940078=
201806170956 METAR KPWT 170956Z AUTO 00000KT 10SM CLR 11/08 A2997 RMK AO2 SLP165 T01060078=
201806170856 METAR KPWT 170856Z AUTO 00000KT 10SM CLR 11/09 A2998 RMK AO2 SLP166 T01060089 58000=
201806170756 METAR KPWT 170756Z AUTO 00000KT 10SM CLR 11/08 A2998 RMK AO2 SLP167 T01110083 402500083=
201806170656 METAR KPWT 170656Z AUTO 00000KT 10SM CLR 13/09 A2998 RMK AO2 SLP167 T01280089=
201806170556 METAR KPWT 170556Z AUTO 00000KT 10SM CLR 13/09 A2998 RMK AO2 SLP167 T01330089 10250 20133 53007=
201806170456 METAR KPWT 170456Z AUTO 00000KT 10SM CLR 16/09 A2997 RMK AO2 SLP164 T01560094=
201806170356 METAR KPWT 170356Z AUTO 00000KT 10SM CLR 20/08 A2996 RMK AO2 SLP159 T02000078=
201806170256 METAR KPWT 170256Z AUTO 07005KT 10SM CLR 22/09 A2996 RMK AO2 SLP159 T02170089 53002=
201806170156 METAR KPWT 170156Z AUTO 11008KT 10SM CLR 24/10 A2995 RMK AO2 SLP157 T02390100=
201806170056 METAR KPWT 170056Z AUTO 04007KT 10SM CLR 24/10 A2995 RMK AO2 SLP155 T02440100=
201806162356 METAR KPWT 162356Z AUTO 05009KT 10SM CLR 24/10 A2995 RMK AO2 SLP157 T02440100 10244 20189 56008=
201806162256 METAR KPWT 162256Z AUTO 05008KT 030V090 10SM CLR 24/11 A2996 RMK AO2 SLP158 T02390106=
201806162156 METAR KPWT 162156Z AUTO 05010G15KT 10SM CLR 23/11 A2996 RMK AO2 SLP160 T02330106=
201806162056 METAR KPWT 162056Z AUTO 03008KT 10SM CLR 22/10 A2998 RMK AO2 SLP166 T02220100 58004=
201806161956 METAR KPWT 161956Z AUTO 05009G14KT 10SM CLR 21/10 A2999 RMK AO2 SLP170 T02110100=
201806161856 METAR KPWT 161856Z AUTO 06008KT 10SM CLR 20/10 A2999 RMK AO2 SLP170 T02000100=
201806161756 METAR KPWT 161756Z AUTO 05008KT 10SM CLR 19/10 A2999 RMK AO2 SLP170 T01940100 10194 20083 50003=
201806161656 METAR KPWT 161656Z AUTO VRB06KT 10SM FEW036 18/10 A2999 RMK AO2 SLP171 T01780100=
201806161556 METAR KPWT 161556Z AUTO VRB05KT 10SM FEW027 16/11 A2999 RMK AO2 SLP170 T01610106=
201806161456 METAR KPWT 161456Z AUTO 00000KT 10SM CLR 14/10 A2998 RMK AO2 SLP168 T01390100 51008=
201806161356 METAR KPWT 161356Z AUTO 00000KT 10SM FEW004 BKN041 11/11 A2997 RMK AO2 SLP165 T01110106=
201806161354 SPECI KPWT 161354Z AUTO 00000KT 10SM SCT004 BKN041 11/11 A2997 RMK AO2=
201806161314 SPECI KPWT 161314Z AUTO 00000KT 10SM BKN004 10/10 A2996 RMK AO2=
201806161305 SPECI KPWT 161305Z AUTO 00000KT 10SM SCT004 09/09 A2996 RMK AO2=
201806161256 METAR KPWT 161256Z AUTO 00000KT 10SM CLR 09/08 A2996 RMK AO2 SLP161 T00890083=
201806161156 METAR KPWT 161156Z AUTO 23003KT 10SM BKN075 10/09 A2994 RMK AO2 SLP156 6//// 7//// T01000089 10150 20100 50004=
201806161056 METAR KPWT 161056Z AUTO 00000KT 10SM FEW030 BKN065 OVC075 12/10 A2994 RMK AO2 SLP155 T01170100=
201806160956 METAR KPWT 160956Z AUTO 00000KT 10SM BKN050 OVC060 11/10 A2994 RMK AO2 SLP155 T01110100=
201806160856 METAR KPWT 160856Z AUTO 00000KT 10SM OVC050 11/09 A2993 RMK AO2 SLP151 T01110094 53002=
201806160756 METAR KPWT 160756Z AUTO 00000KT 10SM BKN090 11/09 A2992 RMK AO2 SLP149 T01110094 402000067=
201806160656 METAR KPWT 160656Z AUTO 13003KT 10SM OVC085 13/10 A2992 RMK AO2 SLP147 T01330100=
201806160556 METAR KPWT 160556Z AUTO 00000KT 10SM OVC080 15/10 A2993 RMK AO2 SLP148 T01500100 10200 20150 50000=
201806160456 METAR KPWT 160456Z AUTO 00000KT 10SM SCT060 OVC075 15/10 A2993 RMK AO2 SLP151 T01500100=
201806160356 METAR KPWT 160356Z AUTO 07003KT 10SM FEW045 SCT060 OVC075 17/10 A2992 RMK AO2 SLP149 T01670100=
201806160256 METAR KPWT 160256Z AUTO 11003KT 10SM FEW047 OVC055 18/09 A2992 RMK AO2 SLP149 T01780094 56008=
201806160156 METAR KPWT 160156Z AUTO 07003KT 10SM SCT048 BKN060 OVC075 18/09 A2993 RMK AO2 SLP150 T01830094=
201806160056 METAR KPWT 160056Z AUTO 06003KT 10SM BKN055 19/10 A2993 RMK AO2 SLP153 T01890100=
201806152356 METAR KPWT 152356Z AUTO 05005KT 10SM BKN046 BKN060 OVC075 18/10 A2995 RMK AO2 SLP159 T01830100 10194 20161 58009=
201806152256 METAR KPWT 152256Z AUTO 05004KT 10SM BKN040 BKN055 BKN075 19/10 A2996 RMK AO2 SLP163 T01890100=
201806152156 METAR KPWT 152156Z AUTO 05005KT 10SM BKN040 OVC050 18/10 A2997 RMK AO2 SLP167 T01830100=
201806152056 METAR KPWT 152056Z AUTO 00000KT 10SM SCT033 BKN060 OVC075 18/10 A2998 RMK AO2 SLP167 T01830100 58007=
201806151956 METAR KPWT 151956Z AUTO VRB04KT 10SM BKN049 BKN070 18/10 A2999 RMK AO2 SLP171 T01830100=
201806151856 METAR KPWT 151856Z AUTO 00000KT 10SM BKN036 BKN044 19/11 A2999 RMK AO2 SLP172 T01890106=
201806151828 SPECI KPWT 151828Z AUTO 03004KT 10SM SCT026 SCT036 BKN065 17/11 A2999 RMK AO2=
201806151809 SPECI KPWT 151809Z AUTO VRB04KT 10SM BKN026 BKN030 OVC055 17/11 A3000 RMK AO2=
201806151756 METAR KPWT 151756Z AUTO 02005KT 10SM SCT023 BKN030 18/11 A3000 RMK AO2 SLP173 T01780111 10178 20078 58003=
201806151743 SPECI KPWT 151743Z AUTO VRB03KT 10SM SCT019 SCT032 16/11 A3000 RMK AO2=
201806151709 SPECI KPWT 151709Z AUTO 00000KT 10SM BKN017 14/11 A3000 RMK AO2=
201806151656 METAR KPWT 151656Z AUTO 00000KT 10SM SCT011 14/11 A3000 RMK AO2 SLP176 T01440106=
201806151648 SPECI KPWT 151648Z AUTO VRB03KT 10SM BKN011 14/11 A3000 RMK AO2=
201806151556 METAR KPWT 151556Z AUTO VRB04KT 10SM OVC009 12/10 A3001 RMK AO2 SLP178 T01220100=
201806151456 METAR KPWT 151456Z AUTO 00000KT 10SM OVC009 12/10 A3000 RMK AO2 SLP177 T01170100 53002=
201806151446 SPECI KPWT 151446Z AUTO 11003KT 10SM OVC009 12/10 A3000 RMK AO2=
201806151356 METAR KPWT 151356Z AUTO 00000KT 10SM OVC011 11/10 A3000 RMK AO2 SLP177 T01110100=
201806151315 SPECI KPWT 151315Z AUTO 00000KT 10SM BKN013 BKN065 09/08 A3000 RMK AO2=
201806151256 METAR KPWT 151256Z AUTO 00000KT 10SM BKN065 08/08 A3000 RMK AO2 SLP176 T00830078=
201806151156 METAR KPWT 151156Z AUTO 00000KT 5SM BR OVC065 08/07 A3000 RMK AO2 SLP177 6//// 7//// T00780072 10128 20067 50000=
201806151056 METAR KPWT 151056Z AUTO 00000KT 10SM CLR 07/07 A3000 RMK AO2 SLP177 T00720072=
201806151050 SPECI KPWT 151050Z AUTO 00000KT 2SM BR CLR 07/07 A3000 RMK AO2=
201806151046 SPECI KPWT 151046Z AUTO 00000KT 1SM BR CLR 07/07 A3000 RMK AO2=
201806151039 SPECI KPWT 151039Z AUTO 21003KT 1/2SM FG CLR 07/07 A3000 RMK AO2=
201806151031 SPECI KPWT 151031Z AUTO 00000KT 3/4SM BR CLR 07/06 A3000 RMK AO2 VIS 1/4V5=
201806151028 SPECI KPWT 151028Z AUTO 00000KT 1 3/4SM BR CLR 07/07 A3000 RMK AO2 VIS 1/2V5=
201806150956 METAR KPWT 150956Z AUTO 00000KT 3SM BR CLR 07/07 A3000 RMK AO2 SLP177 T00720067=
201806150856 METAR KPWT 150856Z AUTO 00000KT 10SM BKN070 11/09 A3000 RMK AO2 SLP175 6//// T01060094 56007=
201806150756 METAR KPWT 150756Z AUTO 00000KT 10SM SCT070 09/09 A3001 RMK AO2 SLP178 T00940089 401780094=
201806150656 METAR KPWT 150656Z AUTO 00000KT 10SM OVC070 12/10 A3001 RMK AO2 SLP181 T01170100=
201806150556 METAR KPWT 150556Z AUTO 00000KT 10SM OVC070 13/10 A3002 RMK AO2 SLP184 T01280100 10167 20128 58006=
201806150456 METAR KPWT 150456Z AUTO 00000KT 10SM OVC070 13/11 A3003 RMK AO2 SLP187 T01330106=
201806150356 METAR KPWT 150356Z AUTO 00000KT 10SM OVC070 15/11 A3003 RMK AO2 SLP186 T01500106=
201806150256 METAR KPWT 150256Z AUTO 00000KT 10SM OVC070 16/11 A3004 RMK AO2 SLP189 T01610106 56008=
201806150156 METAR KPWT 150156Z AUTO 00000KT 10SM OVC060 16/10 A3004 RMK AO2 SLP190 T01610100=
201806150056 METAR KPWT 150056Z AUTO 00000KT 10SM BKN050 OVC065 16/10 A3005 RMK AO2 SLP193 T01610100=
201806142356 METAR KPWT 142356Z AUTO 17003KT 10SM FEW045 OVC055 16/09 A3006 RMK AO2 SLP197 60000 T01610094 10178 20117 58008=
201806142256 METAR KPWT 142256Z AUTO 06003KT 10SM FEW036 BKN048 OVC065 17/08 A3007 RMK AO2 SLP200 T01670083=
201806142156 METAR KPWT 142156Z AUTO 30003KT 10SM BKN049 OVC065 17/09 A3008 RMK AO2 SLP204 T01720089=
201806142056 METAR KPWT 142056Z AUTO 30003KT 10SM BKN034 BKN065 18/09 A3009 RMK AO2 SLP205 60000 T01780089 58008=
201806142021 SPECI KPWT 142021Z AUTO VRB03KT 10SM SCT025 17/09 A3010 RMK AO2=
201806142007 SPECI KPWT 142007Z AUTO 15003KT 10SM BKN025 16/09 A3010 RMK AO2=
201806141956 METAR KPWT 141956Z AUTO 00000KT 10SM SCT027 16/09 A3010 RMK AO2 SLP211 T01560094=
201806141917 SPECI KPWT 141917Z AUTO 00000KT 10SM BKN017 OVC024 14/11 A3011 RMK AO2=
201806141856 METAR KPWT 141856Z AUTO 00000KT 10SM OVC012 12/10 A3011 RMK AO2 RAE1758 SLP216 P0000 T01220100=
201806141842 SPECI KPWT 141842Z AUTO 15003KT 10SM OVC010 12/10 A3011 RMK AO2 RAE1758 P0000=
201806141756 METAR KPWT 141756Z AUTO 18003KT 10SM -RA OVC008 12/10 A3011 RMK AO2 RAE02B48 CIG 005V011 SLP216 P0000 60001 T01170100 10117 20100 51008=
201806141656 METAR KPWT 141656Z AUTO 00000KT 6SM -RA BR BKN006 OVC010 11/10 A3011 RMK AO2 RAB46 SLP214 P0000 T01110100=
201806141556 METAR KPWT 141556Z AUTO 03005KT 8SM OVC006 11/10 A3010 RMK AO2 SLP211 T01110100=
201806141548 SPECI KPWT 141548Z AUTO 02005KT 9SM OVC006 11/10 A3010 RMK AO2=
201806141535 SPECI KPWT 141535Z AUTO 02005KT 10SM OVC004 11/10 A3009 RMK AO2=
201806141456 METAR KPWT 141456Z AUTO 03003KT 10SM OVC006 11/10 A3009 RMK AO2 SLP207 60001 T01060100 53013=
201806141356 METAR KPWT 141356Z AUTO 03003KT 10SM OVC008 10/09 A3007 RMK AO2 RAB01E26 CIG 003V009 SLP202 P0001 T01000094=
201806141310 SPECI KPWT 141310Z AUTO 00000KT 5SM -RA BR BKN008 OVC012 10/09 A3006 RMK AO2 RAB01 P0000=
201806141256 METAR KPWT 141256Z AUTO 00000KT 10SM FEW008 OVC015 10/09 A3006 RMK AO2 RAB32E47 SLP198 P0000 T01000089=
201806141209 SPECI KPWT 141209Z AUTO 00000KT 10SM SCT007 OVC015 10/09 A3005 RMK AO2=
201806141156 METAR KPWT 141156Z AUTO 00000KT 10SM OVC015 10/09 A3005 RMK AO2 SLP193 7//// T01000089 10117 20100 53008=
201806141056 METAR KPWT 141056Z AUTO 00000KT 10SM OVC013 10/08 A3004 RMK AO2 SLP189 T01000083=
201806140956 METAR KPWT 140956Z AUTO 00000KT 10SM OVC013 10/09 A3003 RMK AO2 SLP185 T01000089=
201806140936 SPECI KPWT 140936Z AUTO 00000KT 10SM BKN013 OVC026 10/08 A3003 RMK AO2=
201806140856 METAR KPWT 140856Z AUTO 17003KT 10SM OVC024 10/09 A3002 RMK AO2 SLP184 T01000089 53004=
201806140756 METAR KPWT 140756Z AUTO 00000KT 10SM OVC020 11/09 A3002 RMK AO2 SLP182 T01060089 401940089=
201806140656 METAR KPWT 140656Z AUTO 18003KT 10SM OVC016 11/09 A3002 RMK AO2 SLP182 T01060089=
201806140641 SPECI KPWT 140641Z AUTO 15003KT 10SM BKN016 BKN050 11/09 A3002 RMK AO2=
201806140556 METAR KPWT 140556Z AUTO 00000KT 10SM FEW017 SCT065 11/09 A3001 RMK AO2 SLP181 6//// T01110094 10167 20111 50009=
201806140554 SPECI KPWT 140554Z AUTO 00000KT 10SM FEW015 SCT024 SCT065 11/09 A3001 RMK AO2=
201806140456 METAR KPWT 140456Z AUTO 00000KT 10SM OVC022 12/11 A3000 RMK AO2 SLP178 T01220106=
201806140406 SPECI KPWT 140406Z AUTO 00000KT 10SM SCT017 BKN022 BKN026 12/10 A2999 RMK AO2=
201806140356 METAR KPWT 140356Z AUTO 10004KT 10SM SCT026 BKN050 12/10 A2999 RMK AO2 SLP173 T01220100=
201806140256 METAR KPWT 140256Z AUTO 07008KT 10SM BKN034 13/11 A2998 RMK AO2 SLP169 60000 T01330106 52006=
201806140156 METAR KPWT 140156Z AUTO 05011KT 10SM FEW027 SCT038 OVC060 14/11 A2997 RMK AO2 SLP167 T01390106=
201806140049 SPECI KPWT 140049Z AUTO 06007KT 10SM SCT025 BKN037 OVC047 14/11 A2997 RMK AO2 RAB09E20 P0000=
201806140038 SPECI KPWT 140038Z AUTO VRB04KT 10SM SCT024 BKN028 OVC035 14/11 A2996 RMK AO2 RAB09E20 P0000=
201806132356 METAR KPWT 132356Z AUTO 21009KT 10SM OVC043 17/08 A2996 RMK AO2 SLP162 T01670078 10194 20144 53012=
201806132256 METAR KPWT 132256Z AUTO 21016KT 10SM FEW044 BKN100 18/09 A2994 RMK AO2 SLP153 T01780089=
201806132156 METAR KPWT 132156Z AUTO 23015G20KT 10SM FEW080 19/09 A2993 RMK AO2 SLP151 T01890094=
201806132056 METAR KPWT 132056Z AUTO 22017G22KT 10SM FEW046 18/09 A2992 RMK AO2 SLP148 T01830089 51007=
201806131956 METAR KPWT 131956Z AUTO 22016G22KT 10SM CLR 18/11 A2992 RMK AO2 SLP146 T01780106=
201806131942 SPECI KPWT 131942Z AUTO 21014G19KT 10SM SCT027 17/11 A2992 RMK AO2=
201806131856 METAR KPWT 131856Z AUTO 21011KT 10SM BKN019 BKN026 16/11 A2991 RMK AO2 SLP144 T01610111=
201806131756 METAR KPWT 131756Z AUTO 21012G20KT 10SM FEW014 BKN019 OVC085 15/11 A2990 RMK AO2 SLP141 60005 T01500111 10150 20089 50005=
201806131751 SPECI KPWT 131751Z AUTO 21012G20KT 10SM FEW014 BKN019 OVC060 15/11 A2990 RMK AO2=
201806131656 METAR KPWT 131656Z AUTO 21010KT 10SM BKN008 OVC015 13/12 A2990 RMK AO2 CIG 006V011 SLP140 T01330117=
201806131556 METAR KPWT 131556Z AUTO 19008KT 10SM OVC008 12/11 A2988 RMK AO2 CIG 005V011 SLP136 T01170106=
201806131516 SPECI KPWT 131516Z AUTO 20006KT 10SM OVC014 11/10 A2988 RMK AO2=
201806131456 METAR KPWT 131456Z AUTO 20006KT 10SM OVC016 11/09 A2988 RMK AO2 RAE06 SLP135 P0000 60005 T01060094 55003=
201806131408 SPECI KPWT 131408Z AUTO 20005KT 10SM FEW004 SCT008 OVC020 10/09 A2988 RMK AO2 RAE06 P0000=
201806131356 METAR KPWT 131356Z AUTO 20003KT 6SM -RA BR SCT004 BKN008 OVC020 09/09 A2988 RMK AO2 RAB12 CIG 007V011 SLP135 P0002 T00940089=
201806131354 SPECI KPWT 131354Z AUTO 20004KT 5SM -RA BR SCT004 BKN011 OVC020 09/09 A2988 RMK AO2 RAB12 P0002=
201806131338 SPECI KPWT 131338Z AUTO 21003KT 4SM -RA BR BKN004 BKN007 OVC023 09/09 A2988 RMK AO2 RAB12 P0000=
201806131331 SPECI KPWT 131331Z AUTO 22003KT 3SM -RA BR SCT004 BKN008 OVC023 09/09 A2988 RMK AO2 RAB12 CIG 007V011 P0000=
201806131324 SPECI KPWT 131324Z AUTO 23004KT 2 1/2SM -RA BR SCT004 BKN008 OVC023 09/09 A2988 RMK AO2 RAB12 CIG 006V011 P0000=
201806131256 METAR KPWT 131256Z AUTO 23005KT 10SM SCT005 OVC023 09/09 A2988 RMK AO2 RAE49 SLP136 P0003 T00940089=
201806131220 SPECI KPWT 131220Z AUTO 20006KT 4SM -RA BR OVC005 09/09 A2989 RMK AO2 CIG 003V008 P0002=
201806131156 METAR KPWT 131156Z AUTO 21007KT 4SM -RA BR OVC003 09/09 A2989 RMK AO2 RAB05 CIG 003V007 SLP138 P0004 6//// 7//// T00890089 10133 20089 53002=
201806131147 SPECI KPWT 131147Z AUTO 21010KT 3SM -RA BR BKN003 BKN007 OVC025 09/09 A2989 RMK AO2 RAB05 P0003=
201806131135 SPECI KPWT 131135Z AUTO 22010KT 2 1/2SM -RA BR BKN005 BKN023 OVC037 09/09 A2989 RMK AO2 RAB05 CIG 003V012 P0001=
201806131125 SPECI KPWT 131125Z AUTO 23011KT 4SM -RA BR FEW009 BKN028 OVC040 10/08 A2989 RMK AO2 RAB05 P0000=
201806131056 METAR KPWT 131056Z AUTO 23011KT 10SM BKN043 OVC050 12/06 A2988 RMK AO2 SLP134 T01220061=
201806130956 METAR KPWT 130956Z AUTO 20007KT 10SM BKN065 OVC080 12/07 A2988 RMK AO2 SLP135 T01170072=
201806130856 METAR KPWT 130856Z AUTO 17004KT 10SM BKN090 12/08 A2988 RMK AO2 SLP135 6//// T01170083 56016=
201806130756 METAR KPWT 130756Z AUTO 24008KT 10SM SCT070 BKN085 13/09 A2990 RMK AO2 SLP139 T01280094 401890083=
201806130556 METAR KPWT 130556Z AUTO 00000KT 10SM OVC095 12/10 A2993 RMK AO2 RAE00B17E28 SLP151 P0000 60000 T01220100 10178 20122 56003=
201806130456 METAR KPWT 130456Z AUTO 00000KT 10SM -RA FEW060 SCT085 BKN110 14/09 A2994 RMK AO2 RAE31B47 SLP153 P0000 T01390094=
201806130356 METAR KPWT 130356Z AUTO 03003KT 10SM -RA OVC100 16/11 A2993 RMK AO2 RAE00B53 SLP152 P0000 T01560106=
201806130256 METAR KPWT 130256Z AUTO 00000KT 10SM -RA BKN100 16/10 A2994 RMK AO2 RAB46 SLP154 P0000 60000 T01610100 56015=
201806130156 METAR KPWT 130156Z AUTO 00000KT 10SM SCT100 17/07 A2995 RMK AO2 SLP159 T01720072=
201806130056 METAR KPWT 130056Z AUTO 08003KT 10SM FEW100 17/07 A2996 RMK AO2 SLP161 T01720067=
201806122356 METAR KPWT 122356Z AUTO 06004KT 10SM FEW110 18/07 A2998 RMK AO2 SLP170 T01780067 10189 20172 56019=
201806122256 METAR KPWT 122256Z AUTO 08007KT 10SM CLR 18/06 A2999 RMK AO2 SLP171 T01830061=
201806122156 METAR KPWT 122156Z AUTO 05008KT 10SM CLR 18/06 A3002 RMK AO2 SLP183 T01780056=
201806122056 METAR KPWT 122056Z AUTO 03007KT 10SM CLR 17/06 A3004 RMK AO2 SLP189 T01720056 56013=
201806121956 METAR KPWT 121956Z AUTO 03008KT 10SM CLR 18/06 A3005 RMK AO2 SLP193 T01780061=
201806121856 METAR KPWT 121856Z AUTO 04009KT 10SM CLR 18/06 A3006 RMK AO2 SLP197 T01780056=
201806121756 METAR KPWT 121756Z AUTO VRB06KT 10SM CLR 17/07 A3008 RMK AO2 SLP202 T01720067 10178 20083 56011=
201806121656 METAR KPWT 121656Z AUTO 05010KT 10SM CLR 17/07 A3008 RMK AO2 SLP204 T01670072=
201806121556 METAR KPWT 121556Z AUTO 06006KT 10SM CLR 14/08 A3010 RMK AO2 SLP208 T01440078=
201806121456 METAR KPWT 121456Z AUTO 05006KT 10SM CLR 13/07 A3011 RMK AO2 SLP212 T01280072 56014=
201806121356 METAR KPWT 121356Z AUTO 04005KT 10SM CLR 12/07 A3012 RMK AO2 SLP217 T01170072=
201806121256 METAR KPWT 121256Z AUTO 03003KT 10SM CLR 09/06 A3013 RMK AO2 SLP222 T00890061=
201806121156 METAR KPWT 121156Z AUTO 03004KT 10SM CLR 09/06 A3015 RMK AO2 SLP228 7//// T00890061 10117 20089 58010=
201806121056 METAR KPWT 121056Z AUTO 05007KT 10SM CLR 09/07 A3017 RMK AO2 SLP235 T00890067=
201806120956 METAR KPWT 120956Z AUTO 06008KT 10SM CLR 09/07 A3018 RMK AO2 SLP237 T00940067=
201806120856 METAR KPWT 120856Z AUTO 06006KT 10SM CLR 11/07 A3018 RMK AO2 SLP239 T01060067 58004=
201806120656 METAR KPWT 120656Z AUTO 05005KT 10SM CLR 11/06 A3020 RMK AO2 SLP244 T01060061=
201806120556 METAR KPWT 120556Z AUTO 05004KT 10SM CLR 11/07 A3019 RMK AO2 SLP242 T01110067 10183 20089 50001=
201806120456 METAR KPWT 120456Z AUTO 00000KT 10SM CLR 10/07 A3020 RMK AO2 SLP245 T01000067=
201806120356 METAR KPWT 120356Z AUTO 05005KT 10SM CLR 14/05 A3019 RMK AO2 SLP241 T01440050=
201806120256 METAR KPWT 120256Z AUTO 04007KT 10SM CLR 17/05 A3019 RMK AO2 SLP240 T01720050 56005=
201806120156 METAR KPWT 120156Z AUTO 06005KT 10SM SCT060 18/06 A3019 RMK AO2 SLP241 T01780056=
201806120056 METAR KPWT 120056Z AUTO 06005KT 10SM FEW060 18/06 A3019 RMK AO2 SLP242 T01780061=
201806112356 METAR KPWT 112356Z AUTO 09005KT 10SM OVC055 18/07 A3020 RMK AO2 SLP246 6//// T01780067 10189 20128 58010=
201806112256 METAR KPWT 112256Z AUTO VRB04KT 10SM BKN049 BKN065 18/06 A3022 RMK AO2 SLP252 T01780061=
201806112156 METAR KPWT 112156Z AUTO 00000KT 10SM SCT047 BKN065 17/07 A3023 RMK AO2 SLP254 T01670067=
201806112056 METAR KPWT 112056Z AUTO 00000KT 10SM OVC037 15/07 A3023 RMK AO2 SLP257 6//// T01500067 53005=
201806111956 METAR KPWT 111956Z AUTO VRB04KT 10SM FEW035 SCT045 OVC055 15/08 A3022 RMK AO2 SLP253 T01500078=
201806111856 METAR KPWT 111856Z AUTO 00000KT 10SM BKN050 14/08 A3023 RMK AO2 SLP255 T01390078=
201806111756 METAR KPWT 111756Z AUTO 23007KT 10SM SCT027 BKN050 14/08 A3022 RMK AO2 SLP252 T01390083 10144 20061 51007=
201806111739 SPECI KPWT 111739Z AUTO VRB03KT 10SM SCT023 BKN050 13/07 A3022 RMK AO2=
201806111656 METAR KPWT 111656Z AUTO 24004KT 10SM BKN023 OVC030 13/07 A3021 RMK AO2 SLP250 T01330072=
201806111651 SPECI KPWT 111651Z AUTO 00000KT 10SM SCT023 BKN030 OVC045 14/07 A3021 RMK AO2=
201806111607 SPECI KPWT 111607Z AUTO 05006KT 10SM FEW014 BKN025 12/07 A3020 RMK AO2=
201806111556 METAR KPWT 111556Z AUTO VRB03KT 10SM BKN014 OVC023 13/08 A3020 RMK AO2 SLP245 T01280078=
201806111537 SPECI KPWT 111537Z AUTO 01003KT 10SM BKN012 BKN022 12/09 A3020 RMK AO2=
201806111524 SPECI KPWT 111524Z AUTO 05004KT 10SM SCT012 11/08 A3020 RMK AO2=
201806111519 SPECI KPWT 111519Z AUTO 06005KT 10SM BKN012 BKN018 12/09 A3020 RMK AO2=
201806111512 SPECI KPWT 111512Z AUTO 02006KT 10SM SCT012 BKN016 12/09 A3019 RMK AO2=
201806111456 METAR KPWT 111456Z AUTO 05005KT 10SM SCT008 11/08 A3019 RMK AO2 SLP242 T01110083 53008=
201806111437 SPECI KPWT 111437Z AUTO VRB03KT 10SM SCT008 11/09 A3018 RMK AO2=
201806111417 SPECI KPWT 111417Z AUTO 00000KT 10SM SCT027 10/08 A3018 RMK AO2=
201806111356 METAR KPWT 111356Z AUTO 00000KT 10SM OVC027 08/08 A3018 RMK AO2 SLP238 T00830078=
201806111310 SPECI KPWT 111310Z AUTO 00000KT 10SM OVC023 08/07 A3017 RMK AO2=
201806111303 SPECI KPWT 111303Z AUTO 00000KT 2 1/2SM BR OVC023 07/07 A3017 RMK AO2=
201806111300 SPECI KPWT 111300Z AUTO 00000KT 1SM BR OVC023 07/07 A3017 RMK AO2=
201806111256 METAR KPWT 111256Z AUTO 00000KT 1/2SM FG OVC023 07/07 A3017 RMK AO2 SLP235 T00720067=
201806111247 SPECI KPWT 111247Z AUTO 00000KT 3/4SM BR BKN023 07/07 A3016 RMK AO2=
201806111245 SPECI KPWT 111245Z AUTO 00000KT 1 1/2SM BR BKN023 07/07 A3016 RMK AO2=
201806111233 SPECI KPWT 111233Z AUTO 00000KT 10SM SCT011 SCT016 BKN023 06/06 A3016 RMK AO2=
201806111156 METAR KPWT 111156Z AUTO 00000KT 10SM OVC011 07/07 A3015 RMK AO2 CIG 006V012 SLP229 60000 7//// T00720072 10100 20056 52005=
201806111153 SPECI KPWT 111153Z AUTO 04003KT 10SM OVC011 07/07 A3015 RMK AO2 CIG 006V012=
201806111127 SPECI KPWT 111127Z AUTO 00000KT 10SM BKN007 07/06 A3014 RMK AO2=
201806111056 METAR KPWT 111056Z AUTO 00000KT 10SM FEW008 07/06 A3013 RMK AO2 SLP224 T00670061=
201806110956 METAR KPWT 110956Z AUTO 00000KT 10SM BKN008 08/07 A3012 RMK AO2 SLP220 T00780072=
201806110938 SPECI KPWT 110938Z AUTO 00000KT 10SM BKN008 08/07 A3012 RMK AO2=
201806110856 METAR KPWT 110856Z AUTO 00000KT 10SM OVC010 09/08 A3011 RMK AO2 CIG 005V012 SLP214 60000 T00940083 53006=
201806110849 SPECI KPWT 110849Z AUTO 00000KT 10SM OVC008 09/08 A3011 RMK AO2 CIG 005V012=
201806110841 SPECI KPWT 110841Z AUTO 00000KT 10SM OVC010 09/08 A3011 RMK AO2 CIG 005V012=
201806110810 SPECI KPWT 110810Z AUTO 00000KT 10SM BKN006 09/08 A3010 RMK AO2 CIG 005V008=
201806110756 METAR KPWT 110756Z AUTO 05003KT 10SM FEW008 BKN022 09/08 A3010 RMK AO2 SLP210 T00940078 401560072=
201806110723 SPECI KPWT 110723Z AUTO 00000KT 10SM SCT010 OVC022 10/08 A3009 RMK AO2=
201806110656 METAR KPWT 110656Z AUTO 00000KT 10SM BKN012 OVC019 09/08 A3009 RMK AO2 RAE01 SLP210 P0000 T00940083=
201806110556 METAR KPWT 110556Z AUTO 00000KT 10SM -RA OVC012 10/09 A3009 RMK AO2 RAB32 SLP209 P0000 60000 T01000089 10139 20100 51006=
201806110515 SPECI KPWT 110515Z AUTO 00000KT 10SM OVC014 11/09 A3009 RMK AO2=
201806110456 METAR KPWT 110456Z AUTO 00000KT 10SM OVC016 10/08 A3009 RMK AO2 SLP210 T01000083=
201806110356 METAR KPWT 110356Z AUTO 17003KT 10SM BKN022 BKN029 OVC037 11/08 A3008 RMK AO2 SLP204 T01060083=
201806110256 METAR KPWT 110256Z AUTO VRB03KT 10SM OVC018 11/08 A3007 RMK AO2 SLP203 T01110083 51006=
201806110156 METAR KPWT 110156Z AUTO 08004KT 10SM BKN024 OVC039 11/08 A3007 RMK AO2 SLP202 T01110078=
201806110056 METAR KPWT 110056Z AUTO VRB06KT 10SM BKN022 BKN037 OVC044 13/08 A3006 RMK AO2 SLP200 T01280078=
201806110041 SPECI KPWT 110041Z AUTO 23007KT 10SM BKN024 BKN029 OVC041 13/08 A3007 RMK AO2=
201806110034 SPECI KPWT 110034Z AUTO 22010KT 10SM SCT026 BKN041 13/08 A3006 RMK AO2=
201806110006 SPECI KPWT 110006Z AUTO 20010G15KT 10SM BKN027 BKN043 OVC080 14/07 A3006 RMK AO2=
201806102356 METAR KPWT 102356Z AUTO 21010KT 10SM SCT025 BKN070 BKN090 14/08 A3005 RMK AO2 LTG DSNT NE SLP196 6//// T01390078 10156 20100 53003=
201806102156 METAR KPWT 102156Z AUTO 19013G20KT 10SM SCT028 14/08 A3004 RMK AO2 SLP191 T01390078=
201806102056 METAR KPWT 102056Z AUTO 21008KT 10SM FEW070 13/08 A3005 RMK AO2 RAB1959E43 SLP194 P0000 60000 T01280083 58002=
201806101956 METAR KPWT 101956Z AUTO 22012G17KT 10SM FEW020 13/08 A3005 RMK AO2 RAB39E51 SLP195 P0000 T01330083=
201806101953 SPECI KPWT 101953Z AUTO 22012G17KT 10SM FEW020 13/08 A3005 RMK AO2 RAB39E51 P0000=
201806101920 SPECI KPWT 101920Z AUTO 21010G15KT 10SM BKN020 BKN043 13/08 A3005 RMK AO2=
201806101856 METAR KPWT 101856Z AUTO 21008KT 10SM FEW035 SCT044 12/08 A3005 RMK AO2 SLP195 T01170078=
201806101840 SPECI KPWT 101840Z AUTO 20006KT 10SM SCT022 BKN035 11/08 A3006 RMK AO2=
201806101756 METAR KPWT 101756Z AUTO 22014G17KT 10SM SCT013 BKN019 11/08 A3006 RMK AO2 RAE11 SLP199 P0000 60006 T01110078 10117 20072 50004=
201806101735 SPECI KPWT 101735Z AUTO 21010KT 10SM FEW009 11/08 A3006 RMK AO2 RAE11 P0000=
201806101656 METAR KPWT 101656Z AUTO 23011KT 10SM -RA FEW011 SCT023 OVC042 09/08 A3007 RMK AO2 RAB03 SLP201 P0006 T00890078=
201806101615 SPECI KPWT 101615Z AUTO 22009KT 8SM -RA SCT014 BKN019 BKN031 09/08 A3007 RMK AO2 RAB03 P0001=
201806101556 METAR KPWT 101556Z AUTO 20013G17KT 10SM SCT014 11/08 A3006 RMK AO2 SLP198 T01110078=
201806101456 METAR KPWT 101456Z AUTO 20015G18KT 10SM CLR 10/07 A3005 RMK AO2 SLP194 T01000072 52004=
201806101356 METAR KPWT 101356Z AUTO 20011KT 10SM CLR 08/07 A3004 RMK AO2 SLP193 T00830072=
201806101256 METAR KPWT 101256Z AUTO 19009G14KT 10SM CLR 07/07 A3004 RMK AO2 SLP191 T00720067=
201806101156 METAR KPWT 101156Z AUTO 19009KT 10SM CLR 08/07 A3003 RMK AO2 SLP189 6//// 7//// T00780067 10078 20061=
201806101056 METAR KPWT 101056Z AUTO 19010KT 10SM CLR 07/06 RMK AO2 SLPNO T00720061 $=
201806100956 METAR KPWT 100956Z AUTO 21010KT 10SM SCT110 07/06 A3002 RMK AO2 SLP187 T00720061=
201806100856 METAR KPWT 100856Z AUTO 21012KT 10SM CLR 08/07 A3001 RMK AO2 SLP182 6//// T00780067 53004=
201806100756 METAR KPWT 100756Z AUTO 21007KT 10SM CLR 07/06 A3001 RMK AO2 SLP181 T00720061 401610061=
201806100656 METAR KPWT 100656Z AUTO 22004KT 10SM CLR 06/06 A3000 RMK AO2 SLP179 T00610056=
201806100556 METAR KPWT 100556Z AUTO 00000KT 10SM CLR 08/07 A3000 RMK AO2 SLP177 60033 T00780067 10161 20072 53002=
201806100456 METAR KPWT 100456Z AUTO 20003KT 10SM CLR 08/07 A2999 RMK AO2 RAE0359 SLP177 P0000 T00830067=
201806100356 METAR KPWT 100356Z AUTO 15004KT 10SM -RA FEW023 BKN050 OVC060 11/08 A2998 RMK AO2 SLP173 P0005 T01060083=
201806100314 SPECI KPWT 100314Z AUTO 17004KT 7SM -RA FEW022 SCT032 OVC050 11/08 A2999 RMK AO2 P0003=
201806100256 METAR KPWT 100256Z AUTO VRB03KT 4SM +RA BR BKN024 BKN029 OVC036 11/09 A2999 RMK AO2 SLP175 P0026 60028 T01110094 50004=
201806100254 SPECI KPWT 100254Z AUTO 36003KT 4SM +RA BR BKN024 BKN036 OVC050 11/09 A2999 RMK AO2 P0025=
201806100156 METAR KPWT 100156Z AUTO 07007KT 10SM -RA FEW030 BKN055 OVC100 13/10 A2998 RMK AO2 RAB36 SLP173 P0002 T01280100=
201806100056 METAR KPWT 100056Z AUTO 03006KT 10SM FEW039 SCT050 BKN090 13/11 A2998 RMK AO2 RAB23E45 SLP170 P0000 T01330106=
201806092356 METAR KPWT 092356Z AUTO VRB03KT 10SM FEW100 15/08 A2997 RMK AO2 RAE27 SLP167 P0000 60016 T01500078 10156 20111 58002=
201806092256 METAR KPWT 092256Z AUTO 27003KT 9SM -RA FEW038 BKN050 BKN060 13/09 A2997 RMK AO2 RAB2157 SLP169 P0002 T01330094=
201806092156 METAR KPWT 092156Z AUTO 00000KT 10SM BKN055 BKN075 13/11 A2998 RMK AO2 RAE51 SLP170 P0004 T01280106=
201806092056 METAR KPWT 092056Z AUTO 02006KT 7SM -RA FEW021 OVC037 12/09 A2998 RMK AO2 TSB08E26RAE09B27 SLP170 P0009 60010 T01170094 55000=
201806092032 SPECI KPWT 092032Z AUTO 09004KT 10SM -RA BKN034 BKN043 OVC055 12/10 A2997 RMK AO2 TSB08E26RAE09B27 P0001=
201806092014 SPECI KPWT 092014Z AUTO 12005KT 10SM TS FEW032 SCT043 BKN060 13/10 A2996 RMK AO2 TSB08RAE09 P0001=
201806091956 METAR KPWT 091956Z AUTO 01005KT 10SM -RA FEW023 SCT028 BKN033 13/11 A2996 RMK AO2 RAB28 SLP162 P0001 T01280106=
201806091856 METAR KPWT 091856Z AUTO VRB04KT 10SM BKN060 13/09 A2997 RMK AO2 SLP167 T01280089=
201806091829 SPECI KPWT 091829Z AUTO 04008KT 10SM SCT018 BKN036 BKN045 12/09 A2997 RMK AO2=
201806091756 METAR KPWT 091756Z AUTO 02007KT 10SM FEW016 BKN022 OVC031 13/09 A2998 RMK AO2 SLP169 T01280094 10133 20083 58000=
201806091741 SPECI KPWT 091741Z AUTO 15004KT 10SM SCT011 BKN020 OVC033 12/08 A2998 RMK AO2=
201806091727 SPECI KPWT 091727Z AUTO VRB06KT 10SM BKN011 OVC015 11/09 A2998 RMK AO2 CIG 008V013=
201806091656 METAR KPWT 091656Z AUTO 17005KT 10SM OVC009 11/09 A2998 RMK AO2 CIG 008V013 SLP172 T01060089=
201806091649 SPECI KPWT 091649Z AUTO 14004KT 10SM OVC009 11/09 A2998 RMK AO2 CIG 007V013=
201806091638 SPECI KPWT 091638Z AUTO 17004KT 10SM OVC011 11/09 A2998 RMK AO2=
201806091629 SPECI KPWT 091629Z AUTO 20005KT 10SM BKN009 OVC013 11/09 A2998 RMK AO2 CIG 007V012=
201806091616 SPECI KPWT 091616Z AUTO 18003KT 10SM SCT009 OVC013 11/09 A2998 RMK AO2=
201806091556 METAR KPWT 091556Z AUTO 26005KT 10SM OVC009 11/09 A2997 RMK AO2 CIG 006V011 SLP169 T01110089=
201806091517 SPECI KPWT 091517Z AUTO 00000KT 10SM BKN007 OVC090 10/08 A2997 RMK AO2 CIG 004V009=
201806091456 METAR KPWT 091456Z AUTO 22004KT 10SM OVC005 09/08 A2998 RMK AO2 SLP170 T00940083 50005=
201806091356 METAR KPWT 091356Z AUTO 00000KT 10SM OVC005 08/08 A2998 RMK AO2 SLP171 T00830078=
201806091256 METAR KPWT 091256Z AUTO 21004KT 10SM OVC005 08/08 A2997 RMK AO2 SLP168 T00830078=
201806091156 METAR KPWT 091156Z AUTO 18007KT 10SM OVC009 08/08 A2996 RMK AO2 SLP165 6//// 7//// T00830078 10111 20083 50002=
201806091056 METAR KPWT 091056Z AUTO 19004KT 10SM OVC007 09/08 A2997 RMK AO2 SLP166 T00890078=
201806090956 METAR KPWT 090956Z AUTO 20004KT 10SM OVC009 09/08 A2995 RMK AO2 CIG 005V011 SLP162 T00890083=
201806090913 SPECI KPWT 090913Z AUTO 21006KT 10SM BKN007 OVC012 09/08 A2995 RMK AO2 CIG 004V008=
201806090856 METAR KPWT 090856Z AUTO 20007KT 10SM OVC005 09/08 A2995 RMK AO2 CIG 004V008 SLP162 T00940083 50004=
201806090756 METAR KPWT 090756Z AUTO 17004KT 10SM OVC005 10/09 A2995 RMK AO2 CIG 004V008 SLP162 T01000094 401500100=
201806090723 SPECI KPWT 090723Z AUTO 18004KT 10SM OVC007 10/09 A2995 RMK AO2 CIG 003V010=
201806090714 SPECI KPWT 090714Z AUTO 16004KT 10SM SCT005 OVC010 10/09 A2995 RMK AO2 CIG 006V010=
201806090703 SPECI KPWT 090703Z AUTO 17004KT 10SM BKN005 OVC050 11/10 A2995 RMK AO2 CIG 002V010=
201806090656 METAR KPWT 090656Z AUTO 15004KT 10SM SCT003 BKN009 OVC050 11/10 A2995 RMK AO2 CIG 007V010 SLP162 T01060100=
201806090617 SPECI KPWT 090617Z AUTO 00000KT 10SM SCT005 BKN065 OVC110 11/10 A2994 RMK AO2=
201806090600 SPECI KPWT 090600Z AUTO 26004KT 10SM BKN005 BKN033 OVC100 11/11 A2994 RMK AO2=
201806090556 METAR KPWT 090556Z AUTO 24005KT 10SM SCT007 BKN033 OVC100 11/10 A2994 RMK AO2 RAE38 SLP158 P0001 60006 T01060100 10128 20106 58001=
201806090530 SPECI KPWT 090530Z AUTO 00000KT 4SM -RA BR FEW005 BKN030 OVC060 11/11 A2994 RMK AO2 P0001=
201806090512 SPECI KPWT 090512Z AUTO 00000KT 10SM -RA SCT005 BKN015 OVC035 11/11 A2995 RMK AO2 P0001=
201806090456 METAR KPWT 090456Z AUTO 24005KT 10SM -RA SCT005 BKN014 OVC024 11/11 A2995 RMK AO2 RAB12 SLP159 P0002 T01110106=
201806090452 SPECI KPWT 090452Z AUTO 22005KT 10SM -RA SCT005 SCT008 OVC014 11/11 A2995 RMK AO2 RAB12 P0002=
201806090444 SPECI KPWT 090444Z AUTO 24004KT 10SM -RA SCT005 BKN008 OVC024 11/11 A2994 RMK AO2 RAB12 P0002=
201806090430 SPECI KPWT 090430Z AUTO 23006KT 4SM -RA BR BKN005 BKN011 OVC018 11/11 A2995 RMK AO2 RAB12 CIG 002V008 P0002=
201806090419 SPECI KPWT 090419Z AUTO 22008KT 2 1/2SM -RA BR FEW003 BKN011 OVC018 12/11 A2995 RMK AO2 RAB12 P0001=
201806090411 SPECI KPWT 090411Z AUTO 21006KT 8SM OVC011 12/11 A2995 RMK AO2 P0001=
201806090356 METAR KPWT 090356Z AUTO 20003KT 10SM BKN009 OVC035 12/11 A2994 RMK AO2 RAE10 CIG 007V011 SLP157 P0000 T01170111=
201806090256 METAR KPWT 090256Z AUTO 00000KT 10SM -RA FEW005 SCT032 BKN043 12/11 A2994 RMK AO2 RAB48 SLP157 P0000 60003 T01220111 56017=
201806090228 SPECI KPWT 090228Z AUTO 21004KT 10SM SCT005 BKN010 OVC031 12/11 A2996 RMK AO2 CIG 009V012=
201806090215 SPECI KPWT 090215Z AUTO 23004KT 10SM FEW005 SCT009 OVC033 12/11 A2996 RMK AO2=
201806090206 SPECI KPWT 090206Z AUTO 00000KT 10SM BKN005 BKN035 OVC055 12/11 A2996 RMK AO2 CIG 005V009=
201806090156 METAR KPWT 090156Z AUTO 21004KT 10SM SCT005 BKN035 OVC060 12/11 A2996 RMK AO2 RAE48 SLP164 P0001 T01170111=
201806090125 SPECI KPWT 090125Z AUTO 00000KT 7SM -RA FEW007 BKN035 OVC060 12/11 A2997 RMK AO2 P0001=
201806090056 METAR KPWT 090056Z AUTO 20003KT 10SM -RA BKN036 OVC055 12/11 A2997 RMK AO2 SLP166 P0002 T01220106=
201806090044 SPECI KPWT 090044Z AUTO 19005KT 10SM -RA FEW008 BKN040 OVC055 12/11 A2998 RMK AO2 P0001=
201806082356 METAR KPWT 082356Z AUTO 20003KT 10SM -RA BKN039 OVC050 13/11 A2999 RMK AO2 RAE21B40 SLP174 P0001 60009 T01280106 10133 20128 58011=
201806082256 METAR KPWT 082256Z AUTO 19007KT 10SM -RA FEW037 BKN060 OVC070 13/11 A3001 RMK AO2 SLP178 P0000 T01330106=
201806082156 METAR KPWT 082156Z AUTO 21009KT 10SM -RA OVC039 13/11 A3002 RMK AO2 SLP183 P0001 T01280106=
201806082129 SPECI KPWT 082129Z AUTO 22010KT 10SM -RA SCT007 OVC037 13/11 A3002 RMK AO2 P0001=
201806082111 SPECI KPWT 082111Z AUTO 23009G14KT 10SM -RA BKN009 OVC012 13/12 A3002 RMK AO2 CIG 006V009 P0001=
201806082056 METAR KPWT 082056Z AUTO 22008KT 10SM -RA BKN012 OVC026 13/12 A3002 RMK AO2 SLP184 P0001 60007 T01330122 58003=
201806082031 SPECI KPWT 082031Z AUTO 21010KT 10SM -RA FEW009 OVC028 13/12 A3003 RMK AO2 P0001=
201806082021 SPECI KPWT 082021Z AUTO 20009KT 10SM -RA FEW009 SCT023 OVC031 13/12 A3003 RMK AO2 P0000=
201806082007 SPECI KPWT 082007Z AUTO 20011G15KT 10SM -RA SCT009 BKN025 OVC033 13/12 A3003 RMK AO2 P0000=
201806081956 METAR KPWT 081956Z AUTO 20009G14KT 10SM -RA FEW009 SCT027 OVC033 13/12 A3003 RMK AO2 SLP188 P0004 T01330122=
201806081906 SPECI KPWT 081906Z AUTO 19009KT 10SM -RA FEW008 SCT012 OVC035 13/12 A3004 RMK AO2 P0001=
201806081856 METAR KPWT 081856Z AUTO 20008KT 10SM -RA SCT010 BKN013 OVC035 13/12 A3004 RMK AO2 SLP189 P0002 T01280117=
201806081846 SPECI KPWT 081846Z AUTO 21006KT 10SM -RA SCT010 BKN013 OVC037 13/12 A3003 RMK AO2 P0002=
201806081835 SPECI KPWT 081835Z AUTO 21006KT 10SM -RA FEW010 SCT014 OVC037 13/12 A3004 RMK AO2 P0001=
201806081759 SPECI KPWT 081759Z AUTO 21007KT 10SM -RA SCT010 BKN014 OVC035 13/12 A3003 RMK AO2 P0000=
201806081756 METAR KPWT 081756Z AUTO 21008KT 10SM -RA SCT010 SCT013 OVC035 13/12 A3003 RMK AO2 SLP188 P0002 6//// T01280117 10150 20122 58000=
201806081656 METAR KPWT 081656Z AUTO 20009KT 10SM -RA FEW031 OVC043 13/11 A3004 RMK AO2 RAB18 SLP190 P0000 T01330111=
201806081456 METAR KPWT 081456Z AUTO 20006KT 10SM BKN043 OVC050 14/10 A3004 RMK AO2 SLP187 6//// T01390100 50001=
201806081356 METAR KPWT 081356Z AUTO 21006KT 10SM OVC048 13/10 A3004 RMK AO2 SLP187 T01280100=
201806081256 METAR KPWT 081256Z AUTO 20004KT 10SM OVC035 12/10 A3004 RMK AO2 SLP188 T01220100=
201806081156 METAR KPWT 081156Z AUTO 20005KT 10SM OVC035 12/10 A3003 RMK AO2 SLP186 7//// T01220100 10133 20122 58002=
201806081056 METAR KPWT 081056Z AUTO 20007KT 10SM BKN035 OVC044 13/10 A3004 RMK AO2 SLP187 T01280100=
201806080956 METAR KPWT 080956Z AUTO 20007KT 10SM CLR 13/09 A3004 RMK AO2 SLP187 T01280094=
201806080856 METAR KPWT 080856Z AUTO 20008KT 10SM OVC041 13/09 A3004 RMK AO2 SLP187 T01330094 55001=
201806080756 METAR KPWT 080756Z AUTO 22009KT 10SM FEW041 13/09 A3004 RMK AO2 SLP187 T01330089 401890094=
201806080656 METAR KPWT 080656Z AUTO 21007KT 10SM BKN110 13/09 A3004 RMK AO2 SLP188 T01280089=
201806080556 METAR KPWT 080556Z AUTO 21009KT 10SM BKN110 13/09 A3004 RMK AO2 SLP189 6//// T01280094 10183 20122 51005=
201806080456 METAR KPWT 080456Z AUTO 19005KT 10SM CLR 13/09 A3004 RMK AO2 SLP188 T01280094=
201806080356 METAR KPWT 080356Z AUTO 20007KT 10SM CLR 13/09 A3003 RMK AO2 SLP185 T01330089=
201806080256 METAR KPWT 080256Z AUTO 20007KT 10SM CLR 15/09 A3002 RMK AO2 SLP183 6//// T01500094 53003=
201806080156 METAR KPWT 080156Z AUTO 21011KT 10SM CLR 17/09 A3001 RMK AO2 SLP180 T01670089=
201806080056 METAR KPWT 080056Z AUTO 21012KT 10SM BKN038 18/09 A3001 RMK AO2 SLP180 T01830089=
201806072356 METAR KPWT 072356Z AUTO 23011G16KT 10SM SCT038 18/09 A3001 RMK AO2 SLP180 6//// T01780089 10189 20144 55001=
201806072256 METAR KPWT 072256Z AUTO 21011G16KT 10SM BKN038 18/09 A3001 RMK AO2 SLP180 T01830094=
201806072156 METAR KPWT 072156Z AUTO 20012G19KT 10SM BKN034 17/09 A3002 RMK AO2 SLP181 T01670089=
201806072056 METAR KPWT 072056Z AUTO 21011G18KT 10SM BKN034 BKN044 17/09 A3002 RMK AO2 SLP181 6//// T01720094 53007=
201806071956 METAR KPWT 071956Z AUTO 24011G19KT 10SM OVC036 17/08 A3001 RMK AO2 SLP178 T01670083=
201806071856 METAR KPWT 071856Z AUTO 19006KT 10SM OVC030 16/09 A3000 RMK AO2 SLP177 T01560089=
201806071807 SPECI KPWT 071807Z AUTO 19008KT 10SM OVC032 15/08 A3000 RMK AO2=
201806071756 METAR KPWT 071756Z AUTO 20008KT 10SM BKN028 OVC034 14/08 A3000 RMK AO2 SLP175 6//// T01440083 10144 20106 51006=
201806071754 SPECI KPWT 071754Z AUTO 19010KT 10SM BKN028 OVC034 14/08 A3000 RMK AO2=
201806071656 METAR KPWT 071656Z AUTO 19009G18KT 10SM FEW026 OVC036 14/08 A2999 RMK AO2 SLP171 T01440083=
201806071556 METAR KPWT 071556Z AUTO 21011KT 10SM OVC034 13/08 A2998 RMK AO2 SLP167 T01330083=
201806071456 METAR KPWT 071456Z AUTO 21010KT 10SM OVC034 13/08 A2997 RMK AO2 SLP165 6//// T01330078 53008=
201806071356 METAR KPWT 071356Z AUTO 21010KT 10SM OVC034 12/08 A2996 RMK AO2 SLP160 T01220078=
201806071329 SPECI KPWT 071329Z AUTO 21007KT 10SM OVC030 12/08 A2996 RMK AO2=
201806071256 METAR KPWT 071256Z AUTO 20007KT 10SM OVC027 12/08 A2995 RMK AO2 SLP158 T01170078=
201806071156 METAR KPWT 071156Z AUTO 19007KT 10SM BKN029 11/08 A2995 RMK AO2 SLP157 7//// T01060078 10128 20094 51005=
201806071153 SPECI KPWT 071153Z AUTO 19006KT 10SM BKN029 11/08 A2995 RMK AO2=
201806071056 METAR KPWT 071056Z AUTO 24003KT 10SM SCT038 10/08 A2994 RMK AO2 SLP155 T01000078=
201806070956 METAR KPWT 070956Z AUTO 22003KT 10SM CLR 09/08 A2993 RMK AO2 SLP152 T00940078=
201806070856 METAR KPWT 070856Z AUTO 00000KT 10SM CLR 10/08 A2992 RMK AO2 SLP148 T01000078 52006=
201806070756 METAR KPWT 070756Z AUTO 00000KT 10SM CLR 10/08 A2991 RMK AO2 SLP146 T01000083 402390050=
201806070656 METAR KPWT 070656Z AUTO 17004KT 10SM CLR 12/09 A2991 RMK AO2 SLP143 T01220089=
201806070556 METAR KPWT 070556Z AUTO 00000KT 10SM CLR 12/09 A2990 RMK AO2 SLP142 6//// T01220094 10222 20111 51010=
201806070456 METAR KPWT 070456Z AUTO 13003KT 10SM CLR 15/09 A2990 RMK AO2 SLP139 T01500089=
201806070356 METAR KPWT 070356Z AUTO 09004KT 10SM CLR 17/09 A2988 RMK AO2 SLP134 T01670089=
201806070256 METAR KPWT 070256Z AUTO 07005KT 10SM CLR 19/10 A2987 RMK AO2 SLP131 T01940100 55000=
201806070156 METAR KPWT 070156Z AUTO 07004KT 10SM CLR 21/11 A2987 RMK AO2 SLP129 T02060106=
201806070056 METAR KPWT 070056Z AUTO 05007KT 10SM CLR 22/09 A2986 RMK AO2 SLP130 T02170094=
201806062356 METAR KPWT 062356Z AUTO 05007KT 10SM CLR 22/08 A2987 RMK AO2 SLP132 6//// T02220083 10239 20178 56015=
201806062256 METAR KPWT 062256Z AUTO 28008KT 10SM CLR 23/07 A2988 RMK AO2 SLP135 T02280072=
201806062156 METAR KPWT 062156Z AUTO 24006KT 10SM CLR 23/07 A2990 RMK AO2 SLP140 T02280072=
201806062056 METAR KPWT 062056Z AUTO VRB04KT 10SM CLR 21/08 A2992 RMK AO2 SLP147 6//// T02110083 58015=
201806061956 METAR KPWT 061956Z AUTO VRB04KT 10SM CLR 20/08 A2993 RMK AO2 SLP153 T02000083=
201806061856 METAR KPWT 061856Z AUTO 23007KT 10SM CLR 19/10 A2995 RMK AO2 SLP157 T01940100=
201806061656 METAR KPWT 061656Z AUTO 17005KT 10SM CLR 16/10 A2997 RMK AO2 SLP166 T01610100=
201806061556 METAR KPWT 061556Z AUTO 21005KT 10SM CLR 14/10 A2998 RMK AO2 SLP168 T01440100=
201806061456 METAR KPWT 061456Z AUTO 21004KT 10SM CLR 12/10 A2998 RMK AO2 SLP170 6//// T01220100 56002=
201806061356 METAR KPWT 061356Z AUTO 00000KT 10SM CLR 10/09 A2998 RMK AO2 SLP170 T01000089=
201806061256 METAR KPWT 061256Z AUTO 00000KT 10SM CLR 06/06 A2998 RMK AO2 SLP172 T00610056=
201806061156 METAR KPWT 061156Z AUTO 00000KT 10SM CLR 06/05 A2999 RMK AO2 SLP173 7//// T00560050 10106 20050=
201806061056 METAR KPWT 061056Z AUTO 00000KT 10SM CLR 06/06 A2999 RMK AO2 SLP173 T00610056=
201806060956 METAR KPWT 060956Z AUTO 00000KT 10SM CLR 07/06 RMK AO2 SLPNO T00720061 $=
201806060856 METAR KPWT 060856Z AUTO 00000KT 10SM CLR 07/06 A2999 RMK AO2 SLP174 T00670056 58009=
201806060756 METAR KPWT 060756Z AUTO 00000KT 10SM CLR 09/07 A3000 RMK AO2 SLP177 T00890072 401830061=
201806060656 METAR KPWT 060656Z AUTO 00000KT 10SM CLR 09/07 A3001 RMK AO2 SLP181 T00890067=
201806060556 METAR KPWT 060556Z AUTO 00000KT 10SM CLR 09/07 A3002 RMK AO2 SLP183 6//// T00940072 10183 20089 50003=
201806060456 METAR KPWT 060456Z AUTO 21004KT 10SM CLR 11/07 A3002 RMK AO2 SLP185 T01110072=
201806060356 METAR KPWT 060356Z AUTO 21004KT 10SM CLR 13/07 A3001 RMK AO2 SLP181 T01280072=
201806060256 METAR KPWT 060256Z AUTO 22010KT 10SM CLR 16/08 A3001 RMK AO2 SLP180 T01560078 56004=
201806060156 METAR KPWT 060156Z AUTO 23010KT 10SM CLR 17/08 A3001 RMK AO2 SLP180 T01720078=
201806060056 METAR KPWT 060056Z AUTO 23013G19KT 10SM CLR 18/07 A3001 RMK AO2 SLP181 T01780072=
201806052356 METAR KPWT 052356Z AUTO 23012KT 10SM BKN060 17/07 A3002 RMK AO2 SLP184 T01670067 10183 20144 51002=
201806052256 METAR KPWT 052256Z AUTO 25013G17KT 10SM FEW048 SCT060 18/07 A3002 RMK AO2 SLP184 T01780067=
201806052156 METAR KPWT 052156Z AUTO 23016KT 10SM FEW055 18/06 A3002 RMK AO2 SLP184 T01780061=
201806052056 METAR KPWT 052056Z AUTO 22012KT 10SM BKN049 18/06 A3001 RMK AO2 SLP181 T01780056 51004=
201806051956 METAR KPWT 051956Z AUTO 22012G20KT 10SM SCT049 SCT075 BKN095 17/06 A3001 RMK AO2 SLP181 T01670056=
201806051856 METAR KPWT 051856Z AUTO 21010G16KT 10SM SCT090 15/06 A3001 RMK AO2 SLP180 T01500056=
201806051756 METAR KPWT 051756Z AUTO 18010G14KT 10SM SCT035 15/07 A3000 RMK AO2 SLP178 T01500067 10150 20061 58001=
201806051656 METAR KPWT 051656Z AUTO 21009KT 10SM FEW100 13/07 A3000 RMK AO2 SLP178 T01330067=
201806051556 METAR KPWT 051556Z AUTO VRB06KT 10SM FEW100 11/07 A3001 RMK AO2 SLP179 T01110072=
201806051456 METAR KPWT 051456Z AUTO 21008KT 10SM CLR 09/08 A3000 RMK AO2 SLP178 T00940078 51006=
201806051356 METAR KPWT 051356Z AUTO 20003KT 10SM BKN110 08/07 A2999 RMK AO2 SLP175 T00780067=
201806051256 METAR KPWT 051256Z AUTO 20003KT 10SM CLR 07/06 A3000 RMK AO2 SLP176 T00670061=
201806051156 METAR KPWT 051156Z AUTO 00000KT 10SM CLR 07/06 A2999 RMK AO2 SLP173 6//// 7//// T00670061 10094 20061 58007=
201806051056 METAR KPWT 051056Z AUTO 00000KT 10SM CLR 06/06 A3000 RMK AO2 SLP177 T00610056=
201806050956 METAR KPWT 050956Z AUTO 00000KT 10SM CLR 07/06 A3000 RMK AO2 SLP179 T00670061=
201806050856 METAR KPWT 050856Z AUTO 08003KT 10SM CLR 07/07 A3001 RMK AO2 SLP180 T00720067 58008=
201806050756 METAR KPWT 050756Z AUTO 00000KT 10SM CLR 08/07 A3001 RMK AO2 SLP183 T00780072 401720072=
201806050656 METAR KPWT 050656Z AUTO 00000KT 9SM CLR 07/07 A3003 RMK AO2 SLP187 T00720067=
201806050456 METAR KPWT 050456Z AUTO 00000KT 10SM FEW080 11/09 A3004 RMK AO2 RAB00E34 SLP191 P0001 T01060089=
201806050356 METAR KPWT 050356Z AUTO 19003KT 10SM SCT046 BKN075 13/08 A3004 RMK AO2 SLP193 T01280083=
201806050256 METAR KPWT 050256Z AUTO 03008KT 10SM BKN050 14/08 A3004 RMK AO2 SLP190 6//// T01440083 56009=
201806050156 METAR KPWT 050156Z AUTO 03008KT 10SM OVC050 17/09 A3005 RMK AO2 SLP193 T01670094=
201806050056 METAR KPWT 050056Z AUTO 05009KT 10SM SCT048 SCT055 17/08 A3006 RMK AO2 RAB06E20 SLP195 P0000 T01670083=
201806042256 METAR KPWT 042256Z AUTO 05008KT 10SM SCT050 BKN060 17/09 A3008 RMK AO2 SLP204 T01670094=
201806042156 METAR KPWT 042156Z AUTO 03006KT 10SM FEW085 16/10 A3008 RMK AO2 RAB25E38 SLP205 P0000 T01610100=
201806042056 METAR KPWT 042056Z AUTO 04007KT 10SM FEW011 15/12 A3009 RMK AO2 SLP206 6//// T01500117 56007=
201806042009 SPECI KPWT 042009Z AUTO 05007KT 10SM FEW009 13/11 A3009 RMK AO2=
201806041956 METAR KPWT 041956Z AUTO 06007KT 10SM FEW029 13/11 A3010 RMK AO2 RAE44 SLP210 P0021 T01330111=
201806041945 SPECI KPWT 041945Z AUTO 07008KT 10SM FEW029 SCT033 13/12 A3009 RMK AO2 RAE44 P0021=
201806041931 SPECI KPWT 041931Z AUTO 05007KT 7SM -RA FEW018 BKN027 OVC033 11/10 A3010 RMK AO2 P0021=
201806041924 SPECI KPWT 041924Z AUTO 05009KT 2 1/2SM +RA BR FEW018 BKN027 OVC033 11/10 A3010 RMK AO2 P0021=
201806041856 METAR KPWT 041856Z AUTO 04010KT 10SM -RA BKN027 OVC036 13/09 A3009 RMK AO2 RAB56 SLP209 P0000 T01280094=
201806041846 SPECI KPWT 041846Z AUTO 04009KT 10SM BKN027 BKN033 OVC041 13/09 A3010 RMK AO2=
201806041821 SPECI KPWT 041821Z AUTO 06010KT 10SM FEW014 BKN034 OVC044 13/09 A3010 RMK AO2=
201806041756 METAR KPWT 041756Z AUTO 08006KT 10SM BKN017 OVC036 12/09 A3011 RMK AO2 SLP213 6//// T01220089 10128 20094 50004=
201806041736 SPECI KPWT 041736Z AUTO 08005KT 10SM FEW018 BKN038 OVC046 13/09 A3011 RMK AO2=
201806041719 SPECI KPWT 041719Z AUTO VRB05KT 10SM SCT013 BKN018 OVC027 12/08 A3011 RMK AO2=
201806041656 METAR KPWT 041656Z AUTO 07004KT 10SM BKN013 OVC021 12/08 A3011 RMK AO2 SLP215 T01170083=
201806041624 SPECI KPWT 041624Z AUTO 21003KT 10SM OVC011 11/09 A3011 RMK AO2=
201806041556 METAR KPWT 041556Z AUTO 00000KT 10SM BKN006 OVC011 10/09 A3011 RMK AO2 SLP214 T01000089=
201806041456 METAR KPWT 041456Z AUTO 00000KT 6SM BR OVC006 09/09 A3009 RMK AO2 SLP210 T00940089 53001=
201806041356 METAR KPWT 041356Z AUTO 13003KT 10SM OVC008 09/09 A3009 RMK AO2 SLP208 T00940089=
201806041334 SPECI KPWT 041334Z AUTO 00000KT 10SM OVC008 09/08 A3009 RMK AO2=
201806041256 METAR KPWT 041256Z AUTO 00000KT 10SM BKN010 OVC016 09/08 A3009 RMK AO2 CIG 009V012 SLP208 T00940083=
201806041205 SPECI KPWT 041205Z AUTO 09003KT 10SM OVC016 09/09 A3009 RMK AO2=
201806041156 METAR KPWT 041156Z AUTO 00000KT 10SM BKN014 OVC018 09/08 A3009 RMK AO2 RAE25 SLP209 P0000 60000 70002 T00940083 10106 20094 51005=
201806041107 SPECI KPWT 041107Z AUTO 07004KT 10SM -RA SCT007 OVC012 10/09 A3009 RMK AO2 P0000=
201806041056 METAR KPWT 041056Z AUTO 05003KT 10SM -RA BKN007 OVC012 10/09 A3009 RMK AO2 RAB21 SLP207 P0000 T01000089=
201806041047 SPECI KPWT 041047Z AUTO 08003KT 9SM -RA BKN007 OVC012 10/09 A3009 RMK AO2 RAB21 P0000=
201806041033 SPECI KPWT 041033Z AUTO 05003KT 10SM -RA SCT007 OVC012 10/09 A3008 RMK AO2 RAB21 P0000=
201806040956 METAR KPWT 040956Z AUTO 03003KT 10SM OVC012 10/09 A3008 RMK AO2 SLP205 T01000089=
201806040856 METAR KPWT 040856Z AUTO 05003KT 10SM OVC014 10/08 A3008 RMK AO2 SLP203 T01000083 53005=
201806040824 SPECI KPWT 040824Z AUTO 08003KT 10SM OVC014 10/08 A3007 RMK AO2=
201806040756 METAR KPWT 040756Z AUTO 05004KT 10SM OVC016 10/08 A3007 RMK AO2 SLP200 T01000083 401560072=
201806040744 SPECI KPWT 040744Z AUTO 05006KT 10SM BKN016 OVC049 09/08 A3007 RMK AO2=
201806040656 METAR KPWT 040656Z AUTO 06005KT 10SM OVC047 10/08 A3007 RMK AO2 SLP199 T01000083=
201806040630 SPECI KPWT 040630Z AUTO 06005KT 10SM FEW020 SCT027 OVC043 10/08 A3007 RMK AO2=
201806040556 METAR KPWT 040556Z AUTO 06005KT 10SM OVC022 11/08 A3006 RMK AO2 SLP198 60001 T01060083 10133 20106 51009=
201806040456 METAR KPWT 040456Z AUTO 09003KT 10SM BKN026 OVC034 11/08 A3006 RMK AO2 SLP197 T01060083=
201806040448 SPECI KPWT 040448Z AUTO 06004KT 10SM BKN028 OVC034 11/08 A3006 RMK AO2=
201806040432 SPECI KPWT 040432Z AUTO 06005KT 10SM SCT028 OVC034 11/09 A3005 RMK AO2=
201806040356 METAR KPWT 040356Z AUTO 06006KT 10SM BKN026 OVC033 11/09 A3004 RMK AO2 SLP191 T01110089=
201806040256 METAR KPWT 040256Z AUTO 06007KT 10SM OVC028 12/10 A3004 RMK AO2 SLP190 60001 T01170100 56006=
201806040156 METAR KPWT 040156Z AUTO 23003KT 10SM BKN024 13/08 A3004 RMK AO2 SLP190 T01280083=
201806040056 METAR KPWT 040056Z AUTO 24004KT 10SM SCT014 BKN020 BKN065 13/09 A3004 RMK AO2 RAE24 SLP192 P0001 T01280089=
201806040017 SPECI KPWT 040017Z AUTO 26005KT 10SM -RA BKN014 OVC048 12/10 A3005 RMK AO2 P0001=
201806032356 METAR KPWT 032356Z AUTO 21005KT 10SM -RA FEW034 BKN048 OVC070 13/11 A3005 RMK AO2 SLP197 P0000 60001 T01280106 10156 20128 50002=
201806032256 METAR KPWT 032256Z AUTO 24007KT 10SM -RA SCT046 OVC060 13/10 A3006 RMK AO2 RAB23 SLP199 P0000 T01330100=
201806032156 METAR KPWT 032156Z AUTO 23006KT 10SM BKN046 OVC060 13/08 A3006 RMK AO2 RAB2058E12 SLP198 P0000 T01330083=
201806032056 METAR KPWT 032056Z AUTO 23006KT 10SM FEW029 SCT060 14/11 A3005 RMK AO2 RAE53 SLP193 P0001 60001 T01390111 50002=
201806032018 SPECI KPWT 032018Z AUTO 23007KT 10SM -RA SCT021 BKN035 BKN080 14/11 A3006 RMK AO2 P0000=
201806032010 SPECI KPWT 032010Z AUTO 25009KT 10SM -RA BKN021 BKN080 15/11 A3006 RMK AO2 P0000=
201806031956 METAR KPWT 031956Z AUTO 19007KT 10SM -RA FEW023 BKN080 15/11 A3006 RMK AO2 RAB45 SLP196 P0000 T01500106=
201806031856 METAR KPWT 031856Z AUTO VRB04KT 10SM FEW017 BKN075 15/11 A3004 RMK AO2 SLP190 T01500106=
201806031834 SPECI KPWT 031834Z AUTO 25007KT 10SM SCT016 OVC075 14/11 A3005 RMK AO2=
201806031756 METAR KPWT 031756Z AUTO 22005KT 10SM BKN014 OVC070 14/11 A3004 RMK AO2 SLP191 T01390106 10139 20072 55006=
201806031656 METAR KPWT 031656Z AUTO 00000KT 10SM BKN012 14/11 A3004 RMK AO2 SLP187 T01390106=
201806031622 SPECI KPWT 031622Z AUTO 00000KT 10SM SCT010 SCT110 13/10 A3005 RMK AO2=
201806031613 SPECI KPWT 031613Z AUTO 00000KT 10SM BKN010 13/10 A3005 RMK AO2=
201806031556 METAR KPWT 031556Z AUTO VRB03KT 10SM OVC008 12/09 A3005 RMK AO2 CIG 007V010 SLP194 T01220094=
201806031528 SPECI KPWT 031528Z AUTO 00000KT 10SM OVC006 11/09 A3005 RMK AO2=
201806031456 METAR KPWT 031456Z AUTO 22003KT 10SM OVC004 11/09 A3006 RMK AO2 SLP196 T01060094 58003=
201806031451 SPECI KPWT 031451Z AUTO 00000KT 10SM OVC004 11/09 A3006 RMK AO2=
201806031425 SPECI KPWT 031425Z AUTO 23003KT 3SM BR OVC002 10/09 A3007 RMK AO2=
201806031413 SPECI KPWT 031413Z AUTO 21004KT 1 3/4SM BR OVC002 10/09 A3007 RMK AO2=
201806031356 METAR KPWT 031356Z AUTO 20005KT 7SM OVC002 09/09 A3007 RMK AO2 SLP199 T00940094=
201806031349 SPECI KPWT 031349Z AUTO 20004KT 10SM OVC002 09/09 A3007 RMK AO2=
201806031342 SPECI KPWT 031342Z AUTO 00000KT 2SM BR OVC002 09/09 A3007 RMK AO2=
201806031340 SPECI KPWT 031340Z AUTO 20003KT 1SM BR OVC002 09/09 A3007 RMK AO2=
201806031333 SPECI KPWT 031333Z AUTO 20003KT 1/2SM FG BKN002 09/09 A3007 RMK AO2=
201806031325 SPECI KPWT 031325Z AUTO 21003KT 3/4SM BR BKN002 09/09 A3007 RMK AO2=
201806031323 SPECI KPWT 031323Z AUTO 21003KT 1 1/2SM BR BKN002 09/08 A3007 RMK AO2=
201806031320 SPECI KPWT 031320Z AUTO 21003KT 9SM SCT002 09/08 A3007 RMK AO2=
201806031256 METAR KPWT 031256Z AUTO 00000KT 10SM CLR 08/08 A3007 RMK AO2 SLP198 T00830078=
201806031156 METAR KPWT 031156Z AUTO 00000KT 10SM CLR 08/07 A3008 RMK AO2 SLP201 T00780067 10122 20078 58004=
201806031056 METAR KPWT 031056Z AUTO 00000KT 10SM CLR 08/07 A3009 RMK AO2 SLP204 T00830067=
201806030956 METAR KPWT 030956Z AUTO 00000KT 10SM CLR 10/08 A3009 RMK AO2 SLP204 T01000078=
201806030856 METAR KPWT 030856Z AUTO 00000KT 10SM CLR 11/08 A3009 RMK AO2 SLP204 T01110083 58005=
201806030756 METAR KPWT 030756Z AUTO 00000KT 10SM CLR 10/08 A3009 RMK AO2 SLP207 T01000078 402500083=
201806030656 METAR KPWT 030656Z AUTO 00000KT 10SM CLR 10/08 A3010 RMK AO2 SLP210 T01000083=
201806030556 METAR KPWT 030556Z AUTO 00000KT 10SM CLR 12/08 A3010 RMK AO2 SLP210 T01170083 10233 20117 56003=
201806030456 METAR KPWT 030456Z AUTO 00000KT 10SM CLR 16/08 A3011 RMK AO2 SLP212 T01560083=
201806030356 METAR KPWT 030356Z AUTO 04004KT 10SM CLR 17/09 A3010 RMK AO2 SLP209 T01720089=
201806030256 METAR KPWT 030256Z AUTO 04009KT 10SM CLR 19/09 A3011 RMK AO2 SLP213 T01940089 56009=
201806030156 METAR KPWT 030156Z AUTO 05010KT 10SM CLR 21/09 A3012 RMK AO2 SLP214 T02110089=
201806030056 METAR KPWT 030056Z AUTO 04009KT 10SM CLR 22/10 A3013 RMK AO2 SLP220 T02220100=
201806022356 METAR KPWT 022356Z AUTO 05009KT 10SM CLR 23/09 A3014 RMK AO2 SLP222 T02330089 10250 20189 57020=
201806022256 METAR KPWT 022256Z AUTO VRB04KT 10SM CLR 24/07 A3016 RMK AO2 SLP229 T02390072=
201806022156 METAR KPWT 022156Z AUTO VRB05KT 10SM CLR 23/08 A3018 RMK AO2 SLP234 T02330078=
201806022056 METAR KPWT 022056Z AUTO 22007KT 180V240 10SM FEW055 23/09 A3020 RMK AO2 SLP241 T02280089 58018=
201806021956 METAR KPWT 021956Z AUTO VRB03KT 10SM FEW049 21/09 A3022 RMK AO2 SLP249 T02060089=
201806021856 METAR KPWT 021856Z AUTO 23007KT 10SM CLR 20/09 A3024 RMK AO2 SLP254 T02000089=
201806021756 METAR KPWT 021756Z AUTO VRB03KT 10SM CLR 19/08 A3025 RMK AO2 SLP261 T01890083 10194 20083 56006=
201806021656 METAR KPWT 021656Z AUTO 00000KT 10SM CLR 18/09 A3026 RMK AO2 SLP263 T01780089=
201806021556 METAR KPWT 021556Z AUTO 00000KT 10SM SCT065 15/09 A3026 RMK AO2 SLP266 T01500089=
201806021456 METAR KPWT 021456Z AUTO 22003KT 10SM OVC065 13/08 A3027 RMK AO2 SLP268 T01280083 51005=
201806021356 METAR KPWT 021356Z AUTO 00000KT 10SM SCT080 12/08 A3027 RMK AO2 SLP267 T01170078=
201806021256 METAR KPWT 021256Z AUTO 00000KT 10SM CLR 09/07 A3026 RMK AO2 SLP265 T00940072=
201806021156 METAR KPWT 021156Z AUTO 00000KT 10SM CLR 09/07 A3025 RMK AO2 SLP263 7//// T00890067 10117 20083 58001=
201806021056 METAR KPWT 021056Z AUTO 00000KT 10SM FEW060 SCT080 OVC110 09/07 A3026 RMK AO2 SLP265 T00890072=
201806020956 METAR KPWT 020956Z AUTO 00000KT 10SM BKN060 10/08 A3026 RMK AO2 SLP265 T01000078=
201806020856 METAR KPWT 020856Z AUTO 00000KT 10SM FEW065 11/07 A3026 RMK AO2 SLP265 T01060072 50000=
201806020756 METAR KPWT 020756Z AUTO 23004KT 10SM OVC100 09/08 A3026 RMK AO2 SLP265 T00940078 401830072=
201806020656 METAR KPWT 020656Z AUTO 19004KT 10SM CLR 12/08 A3026 RMK AO2 SLP266 T01170078=
201806020556 METAR KPWT 020556Z AUTO 22006KT 10SM CLR 11/08 A3026 RMK AO2 SLP265 T01060078 10183 20106 53008=
201806020456 METAR KPWT 020456Z AUTO 21005KT 10SM BKN085 12/08 A3025 RMK AO2 SLP262 T01170078=
201806020256 METAR KPWT 020256Z AUTO 22007KT 10SM OVC090 16/08 A3024 RMK AO2 SLP257 T01610078 51001=
201806020156 METAR KPWT 020156Z AUTO 23011KT 10SM OVC090 16/07 A3024 RMK AO2 SLP257 T01610067=
201806020056 METAR KPWT 020056Z AUTO 22011KT 10SM CLR 17/07 A3023 RMK AO2 SLP257 T01670067=
201806012356 METAR KPWT 012356Z AUTO 24012KT 10SM CLR 18/07 A3023 RMK AO2 SLP256 6//// T01780067 10183 20133 58000=
201806012256 METAR KPWT 012256Z AUTO 22008G14KT 190V260 10SM FEW042 18/07 A3024 RMK AO2 SLP258 T01780067=
201806012156 METAR KPWT 012156Z AUTO 21010KT 10SM FEW060 16/06 A3024 RMK AO2 SLP260 T01560056=
201806012056 METAR KPWT 012056Z AUTO 21009G15KT 10SM FEW043 15/06 A3023 RMK AO2 SLP257 6//// T01500056 51009=
201806011956 METAR KPWT 011956Z AUTO 20010G16KT 10SM SCT040 BKN050 14/05 A3023 RMK AO2 SLP256 T01440050=
201806011856 METAR KPWT 011856Z AUTO 19011KT 10SM FEW032 OVC049 15/07 A3022 RMK AO2 SLP253 T01500072=
201806011756 METAR KPWT 011756Z AUTO 18009KT 10SM SCT039 BKN047 OVC055 13/08 A3021 RMK AO2 SLP248 T01330078 10133 20078 53011=
201806011737 SPECI KPWT 011737Z AUTO 19008KT 10SM FEW023 BKN039 OVC047 12/08 A3021 RMK AO2=
201806011656 METAR KPWT 011656Z AUTO 21007KT 10SM BKN021 OVC038 13/07 A3019 RMK AO2 SLP243 T01330072=
201806011640 SPECI KPWT 011640Z AUTO 22011KT 10SM BKN021 BKN048 12/07 A3019 RMK AO2=
201806011627 SPECI KPWT 011627Z AUTO 22005KT 10SM SCT019 BKN048 12/08 A3019 RMK AO2=
201806011608 SPECI KPWT 011608Z AUTO 21011G14KT 10SM BKN017 OVC050 13/08 A3019 RMK AO2=
201806011556 METAR KPWT 011556Z AUTO 23005KT 10SM BKN013 OVC050 11/07 A3018 RMK AO2 SLP240 T01110072=
201806011537 SPECI KPWT 011537Z AUTO 21006KT 10SM OVC010 11/08 A3019 RMK AO2 CIG 008V013=
201806011456 METAR KPWT 011456Z AUTO 22006KT 10SM BKN006 OVC014 09/07 A3017 RMK AO2 SLP237 T00890072 51018=
201806011356 METAR KPWT 011356Z AUTO 20004KT 10SM BKN006 OVC014 08/07 A3016 RMK AO2 SLP232 T00830067=
201806011346 SPECI KPWT 011346Z AUTO 20004KT 10SM SCT006 OVC014 08/07 A3015 RMK AO2=
201806011256 METAR KPWT 011256Z AUTO 20004KT 10SM OVC010 08/07 A3014 RMK AO2 SLP225 T00780067=
201806011248 SPECI KPWT 011248Z AUTO 19004KT 10SM BKN010 OVC026 08/07 A3014 RMK AO2=
201806011156 METAR KPWT 011156Z AUTO 20003KT 10SM OVC023 08/07 A3012 RMK AO2 SLP219 T00780067 10083 20072 51016=
201806011056 METAR KPWT 011056Z AUTO 20004KT 10SM OVC021 08/07 A3011 RMK AO2 SLP214 T00830067=
201806010956 METAR KPWT 010956Z AUTO 19004KT 10SM OVC019 08/06 A3009 RMK AO2 SLP209 T00830061=
201806010856 METAR KPWT 010856Z AUTO 19003KT 10SM FEW021 BKN027 OVC060 08/06 A3007 RMK AO2 SLP202 T00780061 53016=
201806010756 METAR KPWT 010756Z AUTO 19004KT 10SM FEW026 BKN060 08/06 A3006 RMK AO2 SLP197 T00780061 401560056=
201806010722 SPECI KPWT 010722Z AUTO 17003KT 10SM BKN026 OVC055 08/06 A3005 RMK AO2=
201806010656 METAR KPWT 010656Z AUTO 16004KT 10SM SCT055 08/06 A3004 RMK AO2 SLP192 T00830061=
201806010556 METAR KPWT 010556Z AUTO 00000KT 10SM CLR 09/06 A3003 RMK AO2 SLP187 60000 T00890056 10144 20089 51018=
201806010456 METAR KPWT 010456Z AUTO 20006KT 10SM OVC080 11/06 A3001 RMK AO2 SLP181 T01060061=
201806010356 METAR KPWT 010356Z AUTO 20006KT 10SM FEW080 OVC095 12/06 A2999 RMK AO2 SLP174 T01220061=
201806010256 METAR KPWT 010256Z AUTO 00000KT 10SM OVC080 13/09 A2997 RMK AO2 SLP168 60000 T01330094 53011=
201806010156 METAR KPWT 010156Z AUTO 00000KT 10SM FEW085 14/09 A2996 RMK AO2 SLP163 T01390089=
201806010056 METAR KPWT 010056Z AUTO 19003KT 10SM BKN085 13/08 A2995 RMK AO2 RAB39E49 SLP160 P0000 T01330083=

# No short TAF reports from KPWT in databse.

###################################
#  large TAF from KPWT
###################################
201806302327 TAF KPWT 302327Z 0100/0124 24018G22KT P6SM VCSH BKN023 OVC029 FM010500
                       19007KT P6SM OVC015 FM011000 19007KT P6SM
                       OVC007 FM011800 19007KT P6SM OVC015 FM012000
                       19012KT P6SM BKN025 FM012300 19012KT P6SM
                       BKN040=
201806302103 KPWT 302103Z 3021/0118 22014G20KT P6SM VCSH SCT026 BKN040 BKN110
                       TEMPO 3021/3024 BKN026 OVC040 FM010500 19007KT
                       P6SM OVC025 FM011000 19007KT P6SM OVC015=
201806301720 TAF KPWT 301720Z 3018/0118 19007KT P6SM OVC012 FM302000 21010KT
                       P6SM VCSH BKN025 OVC035 FM010500 19007KT
                       P6SM OVC025 FM011000 19007KT P6SM OVC015=
201806301621 KPWT 301621Z 3016/0112 20005KT P6SM OVC010 FM302000 21010KT P6SM
                       VCSH BKN025 OVC035 FM010500 19007KT P6SM
                       OVC025 FM011000 19007KT P6SM OVC015=
201806301559 KPWT 301559Z 3016/0112 21005KT P6SM OVC006 FM302000 21010KT P6SM
                       VCSH BKN025 OVC035 FM010500 19007KT P6SM
                       OVC025 FM011000 19007KT P6SM OVC015=
201806301233 KPWT 301233Z 3013/0112 22004KT P6SM SCT004 OVC030
                      TEMPO 3013/3016 3SM BR BKN004 OVC030 FM302000
                       21010KT P6SM VCSH OVC035 FM010500 19007KT
                       P6SM OVC025 FM011000 19007KT P6SM OVC015=
201806301120 TAF KPWT 301120Z 3012/0112 22004KT P6SM OVC030
                      TEMPO 3012/3016 OVC025 FM302000 21010KT P6SM
                       VCSH OVC035 FM010500 19007KT P6SM OVC025
                       FM011000 19007KT P6SM OVC015=
201806301005 KPWT 301005Z 3010/0106 VRB03KT P6SM BKN050 FM301200 20007KT P6SM
                       VCSH OVC035 FM302100 20007KT P6SM VCSH BKN040
                       OVC080 FM010400 20007KT P6SM OVC025=
201806300802 KPWT 300802Z 3008/0106 02005KT P6SM BKN040 FM301000 00000KT P6SM
                       VCSH SCT008 OVC015
                      TEMPO 3011/3015 BKN008 OVC015 FM301800 19008KT
                       P6SM BKN025 OVC050 FM302100 21014KT P6SM
                       VCSH BKN035 BKN050 OVC100 FM010300 19008KT
                       P6SM BKN028 BKN050=
201806300523 TAF KPWT 300523Z 3006/0106 02005KT P6SM FEW015 OVC035 FM300800
                       VRB02KT P6SM VCSH SCT008 OVC015
                      TEMPO 3011/3015 BKN008 OVC015 FM301800 19008KT
                       P6SM BKN025 OVC050 FM302100 21014KT P6SM
                       VCSH BKN035 BKN050 OVC100 FM010300 19008KT
                       P6SM BKN028 BKN050=
201806292326 TAF KPWT 292326Z 3000/3024 07004KT P6SM VCSH BKN035 OVC045 FM301000
                       19003KT P6SM OVC015 FM301800 20012KT P6SM
                       OVC025 FM302000 20012G19KT P6SM VCSH SCT015
                       OVC025=
201806291738 TAF KPWT 291738Z 2918/3018 19004KT P6SM FEW016 BKN120 OVC200 FM291900
                       VRB04KT P6SM VCSH OVC050 FM300700 20003KT
                       P6SM OVC015=
201806291501 KPWT 291501Z 2915/3012 17003KT P6SM SCT018 OVC035
                      TEMPO 2915/2916 BKN025 OVC070 FM292000 VRB04KT
                       P6SM SCT030 OVC050 FM300600 18006KT P6SM
                       OVC030=
201806291303 KPWT 291303Z 2913/3012 00000KT P6SM SCT025 BKN090
                      TEMPO 2913/2916 BKN025 OVC070 FM292000 VRB04KT
                       P6SM SCT030 OVC050 FM300600 18006KT P6SM
                       OVC030=
201806291120 TAF KPWT 291120Z 2912/3012 VRB04KT P6SM OVC040 FM300600 18006KT
                       P6SM OVC030=
201806290521 TAF KPWT 290521Z 2906/3006 05006KT P6SM OVC040 FM291000 17003KT
                       P6SM OVC015 FM291800 19007KT P6SM OVC030
                       FM292100 19006KT P6SM BKN045 OVC070 FM300200
                       05005KT P6SM OVC045=
201806282320 TAF KPWT 282320Z 2900/2924 06005KT P6SM VCSH SCT035 OVC040 FM291000
                       17002KT P6SM VCSH OVC015 FM291800 19007KT
                       P6SM OVC025 FM292300 19006KT P6SM OVC050=
201806282105 KPWT 282105Z 2821/2918 VRB03KT P6SM VCSH BKN029 OVC045 FM290900
                       18003KT P6SM VCSH OVC015 FM291500 19004KT
                       P6SM VCSH OVC007=
201806282009 KPWT 282009Z 2820/2918 22006KT P6SM SCT022 BKN150 FM290900 18003KT
                       P6SM VCSH OVC015 FM291500 19004KT P6SM VCSH
                       OVC007=
201806281730 TAF KPWT 281730Z 2818/2918 20006KT P6SM OVC012 FM282100 20006KT
                       P6SM SCT020 BKN150 FM290900 18003KT P6SM
                       VCSH OVC015 FM291500 19004KT P6SM VCSH OVC007=
201806281503 KPWT 281503Z 2815/2912 23005KT P6SM OVC008 FM281800 22007KT P6SM
                       SCT025 BKN050 FM290900 18007KT P6SM OVC025=
201806281120 TAF KPWT 281120Z 2812/2912 00000KT P6SM SCT022 SCT060
                      TEMPO 2812/2815 3SM BR BKN022 BKN060 FM281500
                       18005KT P6SM BKN022 BKN060 FM281800 22007KT
                       P6SM SCT025 BKN050 FM290900 18007KT P6SM
                       OVC025=
201806280900 KPWT 280900Z 2809/2906 VRB03KT P6SM SCT018 OVC060
                      TEMPO 2809/2812 BKN018 OVC050 FM281200 VRB03KT
                       P6SM BKN018 OVC040 FM281800 22006KT P6SM
                       SCT025 OVC040 FM282300 31006KT P6SM SCT035
                       BKN045 OVC070=
201806280520 TAF KPWT 280520Z 2806/2906 18003KT P6SM BKN060 BKN090 FM280900
                       16004KT P6SM BKN020 OVC045 FM281300 18006KT
                       P6SM SCT008 BKN014 OVC020 FM281700 19006KT
                       P6SM SCT018 BKN030 FM282100 20007KT P6SM
                       SCT030 BKN040 OVC060=
201806272339 TAF KPWT 272339Z 2800/2824 VRB03KT P6SM SCT040 BKN050 OVC080 FM280900
                       16004KT P6SM BKN020 OVC045 FM281300 18006KT
                       P6SM SCT008 BKN014 OVC020 FM281700 19006KT
                       P6SM SCT018 BKN030 FM282100 20007KT P6SM
                       VCSH SCT030 BKN040=
201806271732 TAF KPWT 271732Z 2718/2818 VRB03KT P6SM SCT080 SCT120 BKN200 FM272200
                       06003KT P6SM SCT040 BKN120 OVC200 FM280000
                       08003KT P6SM SCT040 BKN050 OVC080 FM280900
                       16004KT P6SM BKN020 OVC045 FM281300 18006KT
                       P6SM SCT008 BKN014 OVC020 FM281700 19006KT
                       P6SM SCT018 BKN030=
201806271120 TAF KPWT 271120Z 2712/2812 VRB03KT P6SM FEW050 SCT200 FM271500
                       VRB05KT P6SM SCT120 BKN200 FM271900 20006KT
                       P6SM SCT060 BKN120 OVC200 FM280400 19006KT
                       P6SM BKN060 OVC100 FM280900 17007KT P6SM
                       BKN022 OVC045=
201806270531 TAF KPWT 270531Z 2706/2806 04007KT P6SM BKN050 FM271500 VRB05KT
                       P6SM SCT010 BKN070 BKN200 FM271800 20006KT
                       P6SM BKN060 BKN120 FM280100 19006KT P6SM
                       BKN050 OVC100=
201806262322 TAF KPWT 262322Z 2700/2724 04006KT P6SM BKN050 FM271500 18007KT
                       P6SM BKN070 BKN120 FM271800 22006KT P6SM
                       SCT050 BKN070 BKN120=
201806261721 TAF KPWT 261721Z 2618/2718 VRB05KT P6SM OVC016 FM261900 VRB05KT
                       P6SM SCT020 BKN050 BKN250 FM262100 29006KT
                       P6SM SCT050 FM262300 04008KT P6SM SCT060
                       FM270400 04007KT P6SM FEW050 SCT200 FM271000
                       VRB05KT P6SM BKN050=
201806261324 KPWT 261324Z 2613/2712 18003KT P6SM SCT010 SCT030 BKN050
                      TEMPO 2613/2616 BKN008 BKN030 FM261600 VRB04KT
                       P6SM SCT030 BKN050 FM262100 04005KT P6SM
                       SCT050 FM270600 VRB03KT P6SM FEW050 SCT200
                       FM271100 VRB03KT P6SM BCFG SCT005=
201806261134 TAF KPWT 261134Z 2612/2712 18003KT P6SM SCT030 BKN050
                      TEMPO 2612/2616 BKN030 FM261600 VRB04KT P6SM
                       SCT030 BKN050 FM262100 04005KT P6SM SCT050
                       FM270600 VRB03KT P6SM FEW050 SCT200 FM271100
                       VRB03KT P6SM BCFG SCT005=
201806260524 TAF KPWT 260524Z 2606/2706 00000KT P6SM SCT040 BKN080 FM260900
                       18003KT P6SM BKN040 OVC080 FM261200 18003KT
                       P6SM BKN015 OVC025 FM261800 VRB04KT P6SM
                       SCT030 BKN050 FM262100 04005KT P6SM SCT050=
201806252320 TAF KPWT 252320Z 2600/2624 23010KT P6SM SCT035 OVC060 FM260700
                       19008KT P6SM BKN030 FM261000 18006KT P6SM
                       BKN015 OVC025 FM261800 VRB04KT P6SM SCT030
                       SCT250 FM262100 04005KT P6SM SCT050 BKN250=
201806252127 KPWT 252127Z 2521/2618 22015G21KT P6SM VCSH SCT030 BKN070 FM260500
                       19008KT P6SM BKN025 FM261000 18006KT P6SM
                       BKN010 OVC020
                      TEMPO 2612/2616 BKN006 OVC010=
201806251741 TAF KPWT 251741Z 2518/2618 21010KT P6SM VCSH BKN015 OVC020 FM251900
                       22012G18KT P6SM VCSH BKN030 BKN050 FM252200
                       21012G18KT P6SM SCT035 BKN060 FM260500 19008KT
                       P6SM BKN025 FM261000 18006KT P6SM BKN010
                       OVC020
                      TEMPO 2612/2616 BKN006 OVC010=
201806251144 TAF KPWT 251144Z 2512/2612 21010KT P6SM VCSH SCT007 BKN030
                      TEMPO 2512/2516 -SHRA BKN006 OVC025 FM251600
                       21012KT P6SM VCSH SCT012 BKN022 FM251900
                       22012G18KT P6SM VCSH BKN030 BKN050 FM252200
                       21012G18KT P6SM SCT035 BKN060 FM260500 20010KT
                       P6SM BKN025=
201806250754 KPWT 250754Z 2508/2606 VRB04KT P6SM VCSH SCT006 BKN040
                      TEMPO 2508/2512 BKN006 OVC035 FM251200 21010KT
                       P6SM VCSH BKN030 FM251600 21012G20KT P6SM
                       VCSH BKN030 FM251900 22012KT P6SM BKN050=
201806250520 TAF KPWT 250520Z 2506/2606 VRB04KT P6SM -RA OVC040 FM251000 21010KT
                       P6SM VCSH BKN030 FM251600 21012G20KT P6SM
                       VCSH BKN030 FM251900 22012KT P6SM BKN050=
201806242335 TAF KPWT 242335Z 2500/2524 06008KT P6SM FEW150 SCT250 FM250300
                       11006KT P6SM SCT050 OVC100 FM250700 20009KT
                       P6SM -RA OVC015 FM251500 20014G20KT P6SM
                       VCSH OVC025 FM251800 20017G24KT P6SM BKN050=
201806241729 TAF KPWT 241729Z 2418/2518 02005KT P6SM SKC FM242100 03004KT P6SM
                       SCT200 FM250300 04007KT P6SM BKN050 OVC100
                       FM250700 14008KT P6SM -SHRA OVC025
                      TEMPO 2514/2518 OVC003=
201806241614 KPWT 241614Z 2416/2512 01004KT P6SM OVC002 FM241700 04005KT P6SM
                       SCT200 FM242000 04005KT P6SM SCT120 BKN200
                       FM250300 VRB04KT P6SM BKN060 OVC100 FM250600
                       18008KT P6SM -RA OVC040 FM251000 18011KT
                       6SM -RA BR BKN015 OVC030=
201806241609 KPWT 241609Z 2416/2512 03004KT 2SM BR OVC002 FM241700 04005KT P6SM
                       SCT200 FM242000 04005KT P6SM SCT120 BKN200
                       FM250300 VRB04KT P6SM BKN060 OVC100 FM250600
                       18008KT P6SM -RA OVC040 FM251000 18011KT
                       6SM -RA BR BKN015 OVC030=
201806241339 KPWT 241339Z 2414/2512 05005KT P6SM SCT005
                      TEMPO 2414/2416 1/4SM FG VV002 FM241700 04005KT
                       P6SM SCT200 FM242000 04005KT P6SM SCT120
                       BKN200 FM250300 VRB04KT P6SM BKN060 OVC100
                       FM250600 18008KT P6SM -RA OVC040 FM251000
                       18011KT 6SM -RA BR BKN015 OVC030=
201806241254 KPWT 241254Z 2413/2512 05005KT P6SM FEW005
                      TEMPO 2413/2416 6SM BR BKN003 FM242000 04005KT
                       P6SM SCT120 BKN200 FM250300 VRB04KT P6SM
                       BKN060 OVC100 FM250600 18008KT P6SM -RA
                       OVC040 FM251000 18011KT 6SM -RA BR BKN015
                       OVC030=
201806241133 TAF KPWT 241133Z 2412/2512 05005KT P6SM SKC
                      TEMPO 2412/2415 3SM BR SCT003 FM242000 04005KT
                       P6SM SCT120 BKN200 FM250300 VRB04KT P6SM
                       BKN060 OVC100 FM250600 18008KT P6SM -RA
                       OVC040 FM251000 18011KT 6SM -RA BR BKN015
                       OVC030=
201806240539 TAF KPWT 240539Z 2406/2506 00000KT P6SM SKC
                      TEMPO 2410/2414 3SM BR SCT003 FM242000 36008KT
                       P6SM SCT050 SCT120 BKN200 FM250300 VRB04KT
                       P6SM BKN040 BKN120 FM250500 18008KT P6SM
                       -RA OVC040=
201806232323 TAF KPWT 232323Z 2400/2424 36004KT P6SM OVC030 FM240100 00000KT
                       P6SM SCT035 FM241100 00000KT P6SM BKN012
                       FM241800 04002KT P6SM SKC=
201806231732 TAF KPWT 231732Z 2318/2418 20003KT P6SM BKN013 OVC035 FM232000
                       05002KT P6SM SCT015 BKN035 FM232300 06002KT
                       P6SM SCT035 FM241000 24004KT P6SM OVC012=
201806231513 KPWT 231513Z 2315/2412 07005KT P6SM FEW007 OVC019 FM231900 VRB03KT
                       P6SM SCT012 OVC022 FM232100 36006KT P6SM
                       BKN035 FM232300 36006KT P6SM SCT040=
201806231131 TAF KPWT 231131Z 2312/2412 06006KT P6SM OVC006 FM231600 VRB03KT
                       P6SM SCT006 OVC012 FM231900 VRB03KT P6SM
                       SCT012 OVC022 FM232100 36006KT P6SM BKN035
                       FM232300 36006KT P6SM SCT040=
201806230724 KPWT 230724Z 2307/2406 04006KT P6SM BKN010 OVC020 FM231500 36006KT
                       P6SM OVC025 FM231800 36006KT P6SM OVC035
                       FM232300 36006KT P6SM SCT040=
201806230520 TAF KPWT 230520Z 2306/2406 04006KT P6SM -SHRA OVC020 FM230900 36006KT
                       P6SM OVC025 FM231800 36006KT P6SM OVC035
                       FM232300 36006KT P6SM SCT040=
201806230304 KPWT 230304Z 2303/2324 VRB04KT P6SM OVC025 FM230600 VRB04KT P6SM
                       -SHRA OVC025 FM231000 VRB04KT P6SM OVC015
                       FM232200 04004KT P6SM SCT040=
201806222330 TAF KPWT 222330Z 2300/2324 VRB04KT P6SM FEW028 OVC040 FM230400
                       19006KT P6SM -SHRA OVC025 FM231000 13002KT
                       P6SM OVC015 FM232200 04004KT P6SM SCT040=
201806221733 TAF KPWT 221733Z 2218/2318 19005KT P6SM BKN006 OVC009 FM222200
                       21008KT P6SM OVC025 FM230300 VRB03KT P6SM
                       -SHRA OVC025 FM230900 VRB03KT P6SM SCT008
                       OVC015=
201806221121 TAF KPWT 221121Z 2212/2312 18006KT P6SM OVC006 FM221600 21008KT
                       P6SM SCT008 OVC015 FM222200 21008KT P6SM
                       OVC025 FM230300 VRB03KT P6SM -SHRA OVC025
                       FM230900 VRB03KT P6SM SCT008 OVC015=
201806220912 KPWT 220912Z 2209/2306 18006KT P6SM SCT009 OVC020
                      TEMPO 2209/2213 BKN009 OVC020 FM221800 22010KT
                       P6SM BKN030 FM222200 VRB04KT P6SM -SHRA
                       OVC035 FM230300 34008KT P6SM VCSH BKN040=
201806220520 TAF KPWT 220520Z 2206/2306 22007KT P6SM OVC020 FM221800 22010KT
                       P6SM BKN030 FM222200 VRB04KT P6SM -SHRA
                       OVC035 FM230300 34008KT P6SM VCSH BKN040=
201806212347 TAF KPWT 212347Z 2200/2224 19008KT P6SM OVC020 FM220300 20006KT
                       P6SM BKN030 FM220700 20008KT P6SM OVC015
                       FM221000 19008KT P6SM OVC012
                      TEMPO 2212/2215 3SM BR OVC008 FM221800 20007KT
                       P6SM OVC025 FM222100 20009KT P6SM OVC030=
201806211724 TAF KPWT 211724Z 2118/2218 21010KT P6SM OVC010 FM220000 21011KT
                       P6SM SCT025 FM220700 19007KT P6SM OVC015=
201806211425 KPWT 211425Z 2114/2212 21009KT P6SM OVC008 FM211900 20010KT P6SM
                       OVC020 FM212100 20008KT P6SM SCT040 BKN150
                       FM220600 18008KT P6SM OVC018=
201806211130 TAF KPWT 211130Z 2112/2212 20010KT P6SM OVC011 FM211900 20010KT
                       P6SM OVC020 FM212100 20008KT P6SM SCT040
                       BKN150 FM220600 18008KT P6SM OVC018=
201806210800 KPWT 210800Z 2108/2206 20010KT P6SM OVC008 FM211400 18008KT P6SM
                       OVC012 FM211800 22007KT P6SM OVC030 FM212100
                       22007KT P6SM BKN040 FM220000 22007KT P6SM
                       SCT040 FM220500 18006KT P6SM OVC035=
201806210520 TAF KPWT 210520Z 2106/2206 23008KT P6SM SCT010 BKN250
                      TEMPO 2106/2109 BKN010 BKN250 FM210900 18008KT
                       P6SM BKN015 FM211600 18008KT P6SM OVC018
                       FM211800 22007KT P6SM OVC030 FM212100 22007KT
                       P6SM BKN040 FM220000 22007KT P6SM SCT040
                       FM220500 18006KT P6SM OVC035=
201806202328 TAF KPWT 202328Z 2100/2124 05008KT P6SM BKN150 BKN250 FM210900
                       19012KT P6SM OVC015
                      PROB30 2109/2113 P6SM -DZ OVC015 FM211300
                       19011KT P6SM OVC007 FM211800 19009KT P6SM
                       OVC025 FM212100 20010KT P6SM OVC050=
201806201735 TAF KPWT 201735Z 2018/2118 10004KT P6SM SCT120 BKN200 FM210100
                       20008KT P6SM VCSH SCT080 BKN120 BKN200 FM210900
                       19011KT 6SM BR BKN009=
201806201122 TAF KPWT 201122Z 2012/2112 VRB03KT P6SM SCT120 BKN200 FM201800
                       19007KT P6SM SCT100 BKN200 FM210100 20008KT
                       P6SM VCSH SCT080 BKN120 FM210900 19011KT
                       6SM BR BKN009=
201806200525 TAF KPWT 200525Z 2006/2106 00000KT P6SM FEW120 SCT200 FM201200
                       VRB02KT P6SM BCFG SCT004 SCT120 BKN250
                      TEMPO 2012/2016 4SM BR BKN004 BKN120 BKN250
                       FM201800 19007KT P6SM SCT060 BKN250 FM210100
                       20012KT P6SM SCT060 BKN250=
201806192320 TAF KPWT 192320Z 2000/2024 VRB04KT P6SM FEW120 BKN250 FM200300
                       VRB02KT P6SM SCT250 FM201200 VRB02KT P6SM
                       BCFG SCT004 SCT120 BKN250
                      TEMPO 2012/2016 4SM BR BKN004 BKN120 BKN250
                       FM201800 19007KT P6SM FEW060 BKN250=
201806191738 TAF KPWT 191738Z 1918/2018 22006KT P6SM FEW020 FM191900 22006KT
                       P6SM FEW120 FM200300 VRB02KT P6SM SCT250
                       FM201200 VRB02KT P6SM BCFG SCT005 SCT250=
201806191136 TAF KPWT 191136Z 1912/2012 21007KT P6SM OVC006 FM191700 19007KT
                       P6SM SCT007 FM191900 19006KT P6SM FEW120
                       SCT200 FM200300 VRB04KT P6SM SCT120 BKN200
                       FM201100 19004KT P6SM SCT005=
201806190744 KPWT 190744Z 1908/2006 19008KT P6SM SCT010 SCT120
                      TEMPO 1908/1910 BKN009 FM191000 19005KT 5SM
                       BR OVC007 FM191700 19005KT P6SM BKN007 FM191900
                       19006KT P6SM FEW060 SCT250 FM200300 18004KT
                       P6SM SCT060 BKN150=
201806190600 TAF KPWT 190600Z 1906/2006 21007KT P6SM FEW150 BKN250 FM191000
                       19008KT P6SM VCFG SCT008 SCT250
                      TEMPO 1910/1912 BKN008 BKN250 FM191200 19005KT
                       2SM BR OVC003 FM191700 19005KT P6SM BKN007
                       FM191900 19006KT P6SM FEW060 SCT250 FM200300
                       18004KT P6SM SCT060 BKN150=
201806182327 TAF KPWT 182327Z 1900/1924 20007KT P6SM BKN250 FM190900 19008KT
                       P6SM VCFG SCT008 SCT250
                      TEMPO 1909/1911 BKN008 BKN250 FM191100 19005KT
                       2SM BR OVC003 FM191600 19005KT P6SM BKN007
                       FM191800 22005KT P6SM SCT250=
201806182102 TAF AMD KPWT 182102Z 1821/1918 23008KT P6SM BKN250 FM190900 19008KT
                       P6SM VCFG SCT008 SCT250
                      TEMPO 1909/1911 BKN008 BKN250 FM191100 19005KT
                       2SM BR OVC003=
201806181749 TAF KPWT 181749Z 1818/1918 19004KT P6SM BKN250 FM182100 19008KT
                       P6SM BKN250 FM190900 19008KT P6SM VCFG SCT008
                       SCT250
                      TEMPO 1909/1911 BKN008 BKN250 FM191100 19005KT
                       2SM BR OVC003=
201806181134 TAF KPWT 181134Z 1812/1912 VRB04KT P6SM SCT250 FM182000 20006KT
                       P6SM SCT150 SCT250 FM190400 18004KT P6SM
                       FEW120 SCT250 FM191000 18007KT 2SM BR BKN003=
201806180550 TAF KPWT 180550Z 1806/1906 VRB04KT P6SM SCT250 FM182000 20008KT
                       P6SM SCT150 SCT250=
201806180118 KPWT 180118Z 1801/1824 04013G20KT P6SM SCT250 FM180300 05007KT
                       P6SM SCT250 FM180600 VRB04KT P6SM SCT250
                       FM182000 19008KT P6SM SCT250=
201806172320 TAF KPWT 172320Z 1800/1824 04009KT P6SM SCT250 FM180300 VRB03KT
                       P6SM SCT250 FM182000 23005KT P6SM SCT250=
201806171741 TAF KPWT 171741Z 1718/1818 05010KT P6SM SKC FM180300 VRB03KT P6SM
                       SKC=
201806171136 TAF KPWT 171136Z 1712/1812 00000KT P6SM SKC FM171800 03010KT P6SM
                       SCT250 FM180300 VRB03KT P6SM SCT250=
201806170556 TAF KPWT 170556Z 1706/1806 VRB03KT P6SM FEW120 SCT200 FM171200
                       VRB03KT P6SM FEW004 SCT100 SCT200 FM171800
                       03010KT P6SM SCT100 SCT200 FM180300 04005KT
                       P6SM FEW100 SCT150=
201806162326 TAF KPWT 162326Z 1700/1724 05009KT P6SM SCT250 FM170300 VRB03KT
                       P6SM SCT250 FM171200 VRB03KT P6SM FEW004
                       FM171800 03010KT P6SM SKC=
201806161741 TAF KPWT 161741Z 1618/1718 03009KT P6SM SCT035 FM170300 VRB03KT
                       P6SM SCT250 FM171200 VRB03KT P6SM FEW004=
201806161657 KPWT 161657Z 1617/1712 01005KT P6SM FEW028 FM161800 03009KT P6SM
                       SKC FM162100 03009KT P6SM SCT150 FM170600
                       03003KT P6SM SKC=
201806161520 KPWT 161520Z 1615/1712 01003KT P6SM SCT009 SCT025
                      TEMPO 1615/1618 BKN009 BKN025 FM161800 03009KT
                       P6SM SCT030 FM162100 03009KT P6SM SCT150
                       FM170600 03003KT P6SM SKC=
201806161347 KPWT 161347Z 1614/1712 04003KT P6SM SCT006 SCT018 BKN030 FM161800
                       03009KT P6SM SCT030 FM162100 03009KT P6SM
                       SCT150 FM170600 03003KT P6SM SKC=
201806161138 TAF KPWT 161138Z 1612/1712 04003KT P6SM SCT030 BKN050 FM161400
                       03004KT P6SM SCT018 BKN030 FM161800 03009KT
                       P6SM SCT030 FM162100 03009KT P6SM SCT150
                       FM170600 03003KT P6SM SKC=
201806160549 TAF KPWT 160549Z 1606/1706 VRB02KT P6SM BKN060 FM160900 VRB02KT
                       P6SM SCT013 BKN070 FM161200 03004KT P6SM
                       OVC007 FM161700 03009KT P6SM BKN012 BKN250
                       FM161800 03009KT P6SM FEW035 SCT250=
201806152341 TAF KPWT 152341Z 1600/1624 04007KT P6SM BKN050 FM160300 VRB02KT
                       P6SM BKN060 FM160900 VRB02KT P6SM SCT013
                       BKN070 FM161200 03004KT P6SM OVC007 FM161700
                       03009KT P6SM BKN012 BKN250 FM161800 03009KT
                       P6SM FEW035 SCT250=
201806152226 KPWT 152226Z 1522/1618 04008KT P6SM OVC045 FM160300 VRB02KT P6SM
                       SCT060 FM160900 VRB02KT P6SM SCT013 BKN070
                       FM161200 03004KT P6SM BKN007 BKN070=
201806151850 KPWT 151850Z 1519/1618 03005KT P6SM SCT028 SCT035 BKN060 FM152000
                       03008KT P6SM BKN060 FM160300 VRB02KT P6SM
                       SCT070 FM160900 VRB02KT P6SM SCT013 BKN070
                       FM161200 03004KT P6SM BKN007 BKN070=
201806151740 TAF KPWT 151740Z 1518/1618 VRB02KT P6SM SCT020 SCT035
                      TEMPO 1518/1519 BKN020 BKN035 FM152000 03008KT
                       P6SM SCT050 FM160300 VRB02KT P6SM SCT070
                       FM160900 VRB02KT P6SM SCT013 BKN070 FM161200
                       03004KT P6SM BKN007 BKN070=
201806151717 KPWT 151717Z 1517/1612 03005KT P6SM BKN017 BKN035 FM151900 04006KT
                       P6SM SCT040 FM160000 04007KT P6SM SCT045
                       BKN060=
201806151630 KPWT 151630Z 1517/1612 03005KT P6SM BKN009 BKN035 FM151900 04006KT
                       P6SM SCT040 FM160000 04007KT P6SM SCT045
                       BKN060=
201806151442 KPWT 151442Z 1515/1612 00000KT P6SM OVC010 FM151700 03005KT P6SM
                       BKN015 BKN035 FM151900 04006KT P6SM SCT040
                       FM160000 04007KT P6SM SCT045 BKN060=
201806151130 TAF KPWT 151130Z 1512/1612 00000KT P6SM SCT050 FM151400 00000KT
                       P6SM SCT012 BKN030 FM151700 03005KT P6SM
                       SCT025 BKN035 FM152000 04006KT P6SM SCT040
                       FM160000 04007KT P6SM SCT045 BKN060=
201806150530 TAF KPWT 150530Z 1506/1606 00000KT P6SM OVC070 FM150900 00000KT
                       P6SM BKN015 BKN050 FM151300 00000KT P6SM
                       BKN007 OVC015 FM151800 03005KT P6SM SCT020
                       OVC040 FM152000 04006KT P6SM FEW025 BKN050
                       FM160000 03006KT P6SM SCT050 BKN250=
201806142322 TAF KPWT 142322Z 1500/1524 06004KT P6SM FEW035 BKN050 OVC070 FM150900
                       00000KT P6SM BKN015 BKN050 FM151300 00000KT
                       P6SM BKN007 OVC015 FM151800 03005KT P6SM
                       SCT020 OVC040 FM152000 04006KT P6SM FEW025
                       BKN050=
201806141731 TAF KPWT 141731Z 1418/1518 00000KT P6SM SCT006 BKN015 BKN050
                      TEMPO 1418/1419 BKN006 OVC015 FM142000 20005KT
                       P6SM SCT030 BKN050 FM150000 04004KT P6SM
                       SCT035 BKN060 FM150900 00000KT P6SM BKN015
                       BKN050 FM151300 00000KT P6SM BKN007 OVC015=
201806141133 TAF KPWT 141133Z 1412/1512 18003KT P6SM OVC012 FM141700 19005KT
                       P6SM SCT018 BKN030 OVC060 FM142000 20005KT
                       P6SM SCT030 BKN050 FM150000 04004KT P6SM
                       SCT035 BKN060=
201806140537 TAF KPWT 140537Z 1406/1506 00000KT P6SM VCSH OVC022 FM140900 18006KT
                       P6SM OVC012 FM141700 21006KT P6SM SCT025
                       BKN050 FM142100 VRB05KT P6SM BKN050=
201806140336 KPWT 140336Z 1404/1424 07008KT P6SM VCSH BKN035 FM140900 18006KT
                       P6SM BKN020 FM141700 21006KT P6SM SCT025
                       BKN050=
201806132320 TAF KPWT 132320Z 1400/1424 22012KT P6SM VCSH BKN040
                      TEMPO 1400/1404 VRB04KT -SHRA FM140900 18006KT
                       P6SM BKN020 FM141700 21006KT P6SM SCT025
                       BKN050=
201806131720 TAF KPWT 131720Z 1318/1418 22012KT P6SM VCSH SCT012 BKN040
                      TEMPO 1318/1321 BKN012 OVC030 FM132100 22012KT
                       P6SM VCSH BKN040
                      TEMPO 1400/1404 VRB06KT -SHRA BKN030 FM140900
                       18006KT P6SM BKN020 FM141700 21006KT P6SM
                       SCT025 BKN050=
201806131328 KPWT 131328Z 1313/1412 20010KT P6SM -RA SCT008 BKN035 OVC050
                      TEMPO 1313/1316 3SM -RA BR OVC007 FM131600
                       20011KT P6SM -RA OVC025 FM132000 20010KT
                       P6SM VCSH BKN035 BKN060 FM140700 17006KT
                       P6SM OVC015=
201806131128 TAF KPWT 131128Z 1312/1412 19011KT P6SM -RA BKN035 OVC050
                      TEMPO 1312/1315 6SM -RA BR OVC025 FM131500
                       20011KT P6SM -RA OVC025 FM132000 20010KT
                       P6SM VCSH BKN035 BKN060 FM140700 17006KT
                       P6SM OVC015=
201806130520 TAF KPWT 130520Z 1306/1406 00000KT P6SM -RA BKN080 OVC120 FM130900
                       19006KT P6SM -RA OVC040 FM131200 19010KT
                       P6SM -RA OVC018 FM132000 20010KT P6SM VCSH
                       BKN035 BKN060=
201806122324 TAF KPWT 122324Z 1300/1324 08007KT P6SM OVC140 FM130400 15008KT
                       P6SM OVC080 FM130700 19006KT P6SM OVC050
                       FM131100 18011KT 5SM -RA BR OVC025 FM131600
                       20009KT P6SM -SHRA BKN015 BKN040 FM132100
                       20014KT P6SM VCSH SCT025 BKN040=
201806121732 TAF KPWT 121732Z 1218/1318 05010KT P6SM FEW150 BKN250 FM130500
                       15008KT P6SM OVC080 FM130700 19006KT P6SM
                       OVC050 FM131100 18011KT 5SM -RA BR OVC025
                       FM131600 20009KT P6SM VCSH BKN015 BKN040=
201806121142 TAF KPWT 121142Z 1212/1312 05006KT P6SM SKC FM121900 05004KT P6SM
                       BKN250 FM130000 15008KT P6SM OVC200 FM130600
                       18004KT P6SM -RA OVC060 FM131100 18011KT
                       6SM -RA BR OVC025=
201806120530 TAF KPWT 120530Z 1206/1306 00000KT P6SM SKC FM121900 05004KT P6SM
                       BKN250 FM130000 15008KT P6SM OVC250=
201806112320 TAF KPWT 112320Z 1200/1224 VRB04KT P6SM SCT060 FM120200 05004KT
                       P6SM SKC FM121900 05004KT P6SM BKN250=
201806112050 KPWT 112050Z 1121/1218 VRB04KT P6SM FEW035 SCT045 BKN060 FM120200
                       03006KT P6SM SKC=
201806111725 TAF KPWT 111725Z 1118/1218 24004KT P6SM BKN023 OVC030 FM111900
                       VRB03KT P6SM SCT030 SCT050
                      TEMPO 1119/1121 BKN030 BKN050 FM112100 04005KT
                       P6SM SCT050 FM120200 03006KT P6SM SKC=
201806111440 KPWT 111440Z 1115/1212 00000KT P6SM SCT027 SCT045
                      TEMPO 1115/1119 BKN022 BKN045 FM111900 VRB03KT
                       P6SM SCT030 SCT050 FM112200 01003KT P6SM
                       SCT050 FM120200 03006KT P6SM SKC=
201806111130 TAF KPWT 111130Z 1112/1212 00000KT P6SM SCT010
                      TEMPO 1112/1116 BKN008 BKN015 FM111600 17003KT
                       P6SM SCT010 BKN025 FM111900 VRB03KT P6SM
                       SCT030 SCT050 FM112200 01003KT P6SM SCT050
                       FM120200 03006KT P6SM SKC=
201806110837 KPWT 110837Z 1109/1206 00000KT P6SM SCT010 BKN020
                      TEMPO 1109/1113 BKN006 OVC015 FM111300 12003KT
                       P6SM SCT007 BKN015 FM111700 17003KT P6SM
                       SCT020 BKN030 FM111900 VRB03KT P6SM SCT030
                       SCT050 FM112200 01003KT P6SM SCT050 FM120400
                       03006KT P6SM SKC=
201806110538 TAF KPWT 110538Z 1106/1206 00000KT P6SM -SHRA BKN015 BKN030 FM110800
                       00000KT P6SM SCT015 BKN030 FM111300 12003KT
                       P6SM SCT010 BKN015 FM111700 17003KT P6SM
                       SCT020 BKN030 FM111900 VRB03KT P6SM SCT030
                       SCT050 FM112200 01003KT P6SM SCT050 FM120400
                       03006KT P6SM SKC=
201806102320 TAF KPWT 102320Z 1100/1124 22014KT P6SM SCT030 BKN060
                      TEMPO 1100/1104 -SHRA BKN030 OVC060 FM110400
                       36006KT P6SM VCSH BKN025 BKN050 FM111100
                       VRB04KT P6SM BKN020 FM111700 VRB04KT P6SM
                       SCT025 BKN050 FM112200 36006KT P6SM SCT050=
201806101720 TAF KPWT 101720Z 1018/1118 22012KT P6SM -SHRA SCT020 BKN040 FM110400
                       36006KT P6SM VCSH BKN025 BKN050 FM111100
                       VRB04KT P6SM BKN020 FM111700 VRB04KT P6SM
                       SCT025 BKN050=
201806101139 TAF KPWT 101139Z 1012/1112 19011KT P6SM VCSH SCT035 SCT070
                      TEMPO 1012/1016 BKN030 FM101600 19012KT P6SM
                       VCSH SCT020 BKN030 OVC045 FM102100 20013KT
                       P6SM -SHRA SCT035 BKN045 FM110200 20005KT
                       P6SM -SHRA SCT030 BKN040 FM110900 VRB03KT
                       P6SM OVC015=
201806100536 TAF KPWT 100536Z 1006/1106 19003KT P6SM VCSH SCT025 FM101000 19004KT
                       P6SM VCSH SCT012 BKN025 FM101800 18009KT
                       P6SM -SHRA SCT020 BKN030 OVC045 FM102200
                       20011KT P6SM VCSH SCT035 BKN045 FM110200
                       20005KT P6SM -SHRA SCT030 BKN040=
201806092320 TAF KPWT 092320Z 1000/1024 VRB04KT P6SM -SHRA BKN050
                      TEMPO 1000/1004 -SHRA BKN030 FM100900 18006KT
                       P6SM BKN020 FM101800 21010KT P6SM -SHRA
                       BKN035 FM102300 34008KT P6SM VCSH BKN050=
201806092020 KPWT 092020Z 0920/1018 VRB04KT P6SM VCTS BKN040CB FM092100 30008KT
                       P6SM VCSH BKN040 FM100300 VRB04KT P6SM VCSH
                       SCT015 BKN040 FM101000 18006KT P6SM BKN012
                       OVC025 FM101600 18008KT P6SM -SHRA BKN015
                       OVC030=
201806091720 TAF KPWT 091720Z 0918/1018 VRB04KT P6SM VCSH SCT012 BKN040
                      TEMPO 0918/0921 4SM -SHRA BKN012 OVC040 FM092100
                       30008KT P6SM -SHRA BKN020 OVC040 FM100300
                       VRB04KT P6SM VCSH SCT015 BKN040 FM101000
                       18006KT P6SM BKN012 OVC025 FM101600 18008KT
                       P6SM -SHRA BKN015 OVC030=
201806091628 KPWT 091628Z 0916/1012 VRB04KT P6SM BKN015 BKN040
                      TEMPO 0916/0918 OVC012 FM092100 VRB04KT P6SM
                       -SHRA BKN030 BKN060 FM100400 18006KT P6SM
                       VCSH SCT025 BKN040 FM100900 18008KT P6SM
                       BKN022 OVC030=
201806091120 TAF KPWT 091120Z 0912/1012 19004KT P6SM VCSH BKN007 OVC020 FM091800
                       19005KT P6SM VCSH SCT015 BKN025 FM092000
                       20008KT P6SM VCSH SCT025 BKN040 FM092300
                       23004KT P6SM -SHRA SCT030 OVC040 FM100400
                       19006KT P6SM VCSH SCT020 BKN030 FM100800
                       19008KT P6SM OVC018=
201806090538 TAF KPWT 090538Z 0906/1006 20003KT P6SM VCSH SCT005 BKN014 OVC035
                       FM091800 19005KT P6SM VCSH SCT015 BKN025
                       FM092000 20008KT P6SM VCSH SCT025 BKN040
                       FM092300 23004KT P6SM -SHRA SCT030 OVC040
                       FM100400 19006KT P6SM VCSH SCT020 BKN030=
201806082320 TAF KPWT 082320Z 0900/0924 18007KT P6SM -RA SCT020 OVC040
                      TEMPO 0900/0904 4SM -RA BR BKN020 OVC040
                       FM090400 VRB04KT 5SM -RA BR BKN015 OVC040
                       TEMPO 0905/0909 3SM -RA BR OVC010 FM091200
                       20007KT P6SM -SHRA BKN012 BKN030 FM092000
                       30007KT P6SM VCSH SCT020 BKN040=
201806081215 TAF KPWT 081215Z 0812/0912 20005KT P6SM OVC035 FM081800 20010KT
                       P6SM BKN030 OVC050 FM082200 20010KT 6SM
                       -RA BR SCT018 BKN025 OVC045 FM090100 19005KT
                       P6SM -SHRA SCT015 BKN050=
201806080539 TAF KPWT 080539Z 0806/0906 19005KT P6SM SCT040 BKN090 FM081200
                       19007KT P6SM SCT015 BKN025 FM081800 20010KT
                       P6SM BKN030 OVC050 FM082200 20010KT 6SM
                       -RA BR SCT018 BKN025 OVC045 FM090100 19005KT
                       P6SM -SHRA SCT015 BKN050=
201806072320 TAF KPWT 072320Z 0800/0824 20012KT P6SM BKN035 OVC200 FM080600
                       20010KT P6SM OVC030 FM081200 20008KT P6SM
                       OVC020 FM081800 20010KT P6SM BKN030 OVC050
                       FM082200 20010KT 5SM -RA BR OVC020=
201806071720 TAF KPWT 071720Z 0718/0818 21010KT P6SM SCT025 BKN040 BKN200
                      TEMPO 0718/0721 BKN025 OVC040 FM081000 18008KT
                       P6SM OVC020=
201806071502 KPWT 071502Z 0715/0812 21010KT P6SM OVC035 FM072000 20010KT P6SM
                       BKN040 BKN250 FM080400 19006KT P6SM OVC040=
201806071130 TAF KPWT 071130Z 0712/0812 24003KT P6SM BKN030
                      TEMPO 0712/0713 SCT030 FM071300 19006KT P6SM
                       OVC025 FM071900 20010KT P6SM SCT030 BKN250
                       FM080400 19006KT P6SM OVC100=
201806070520 TAF KPWT 070520Z 0706/0806 VRB03KT P6SM BKN250 FM070800 VRB03KT
                       P6SM SCT030 SCT250 FM071200 18007KT P6SM
                       BKN015 FM071700 20010KT P6SM SCT030 FM072000
                       21012G21KT P6SM BKN035=
201806062324 TAF KPWT 062324Z 0700/0724 30007KT P6SM BKN250 FM070800 VRB03KT
                       P6SM SCT030 SCT250 FM071200 18007KT P6SM
                       BKN015 FM071700 VRB04KT P6SM SCT030=
201806061720 TAF KPWT 061720Z 0618/0718 VRB04KT P6SM FEW040 SCT250 FM062200
                       36006KT P6SM SCT040 SCT250 FM070800 VRB03KT
                       P6SM SCT030 SCT250 FM071200 18007KT P6SM
                       BKN015 FM071700 VRB04KT P6SM SCT030=
201806061125 TAF KPWT 061125Z 0612/0712 00000KT P6SM SKC
                      TEMPO 0612/0616 SCT012 FM061600 19004KT P6SM
                       SCT250 FM070000 20008KT P6SM SCT250=
201806060523 TAF KPWT 060523Z 0606/0706 21006KT P6SM FEW070 FM061200 19004KT
                       P6SM SCT020 SCT050 SCT100 FM061600 19004KT
                       P6SM FEW050 SCT100 FM062000 21007KT P6SM
                       SCT100 SCT250 FM070400 VRB04KT P6SM SCT250=
201806052328 TAF KPWT 052328Z 0600/0624 22011KT P6SM FEW050 SCT070 FM060300
                       21006KT P6SM SCT070 FM061200 19004KT P6SM
                       SCT020 SCT050 SCT100 FM061600 19004KT P6SM
                       FEW050 SCT100=
201806051720 TAF KPWT 051720Z 0518/0618 20006KT P6SM SCT050 BKN150 FM060300
                       18006KT P6SM SCT050 BKN120 FM061200 18004KT
                       P6SM SCT020 SCT050 BKN100 FM061600 18004KT
                       P6SM FEW050 BKN100=
201806051213 TAF KPWT 051213Z 0512/0612 00000KT P6SM SKC FM051600 20005KT P6SM
                       BKN025 BKN150 FM051800 20010KT P6SM SCT050
                       BKN120 FM060300 18006KT P6SM SCT050 BKN150=
201806050520 TAF KPWT 050520Z 0506/0606 VRB04KT P6SM FEW045 SCT080 OVC250 FM051100
                       VRB04KT 4SM BR OVC012 FM051600 20005KT P6SM
                       BKN025 BKN150 FM051800 20010KT P6SM SCT050
                       BKN120 FM060300 18006KT P6SM SCT050 BKN150=
201806042320 TAF KPWT 042320Z 0500/0524 05008KT P6SM FEW040 BKN070 BKN250 FM050400
                       VRB04KT P6SM FEW025 SCT045 OVC250 FM051100
                       VRB04KT 4SM BR OVC012 FM051600 20005KT P6SM
                       BKN025 BKN150 FM051800 20006KT P6SM SCT050
                       BKN120=
201806042120 KPWT 042120Z 0421/0518 05007KT P6SM SCT015 SCT025 BKN045 FM042300
                       05008KT P6SM SCT020 BKN045 BKN250 FM050600
                       VRB04KT P6SM SCT045 OVC250 FM051000 VRB04KT
                       P6SM BKN050=
201806041935 KPWT 041935Z 0420/0518 05007KT P6SM SCT015 BKN025 BKN045
                      TEMPO 0420/0422 3SM -SHRA BR BKN015 OVC025
                       FM042200 05008KT P6SM SCT020 BKN040 BKN250
                       FM050600 VRB04KT P6SM SCT045 OVC250 FM051000
                       VRB04KT P6SM BKN050=
201806041735 TAF KPWT 041735Z 0418/0518 VRB04KT P6SM SCT018 BKN025 BKN045
                      TEMPO 0418/0420 5SM -DZ BR OVC018 FM042200
                       19006KT P6SM SCT020 BKN040 FM050000 21009KT
                       P6SM SCT025 SCT045 BKN250 FM050600 VRB04KT
                       P6SM SCT045 OVC250 FM051000 VRB04KT P6SM
                       BKN050=
201806041509 KPWT 041509Z 0415/0512 VRB04KT P6SM SCT007 OVC013
                      TEMPO 0415/0417 5SM -DZ BR OVC007 FM041900
                       19006KT P6SM SCT020 BKN040 FM050000 21011KT
                       P6SM SCT045 BKN250 FM050600 13005KT P6SM
                       SCT045 OVC250=
201806041138 TAF KPWT 041138Z 0412/0512 07004KT P6SM -RA SCT007 OVC012 FM041900
                       19006KT P6SM SCT020 BKN040 FM050000 21011KT
                       P6SM SCT045 BKN250 FM050600 13005KT P6SM
                       SCT045 OVC250=
201806040905 KPWT 040905Z 0409/0506 05003KT P6SM OVC014 FM041300 18005KT P6SM
                       OVC010 FM041800 18006KT P6SM SCT030 BKN060
                       FM042200 21011G20KT P6SM SCT060 BKN100=
201806040520 TAF KPWT 040520Z 0406/0506 VRB04KT P6SM OVC020 FM041300 18005KT
                       P6SM OVC010 FM041800 18006KT P6SM SCT030
                       BKN060 FM042200 21011G20KT P6SM SCT060 BKN100=
201806032321 TAF KPWT 032321Z 0400/0424 20006KT P6SM -RA SCT025 OVC060 FM040300
                       18005KT 4SM BR OVC020 FM041800 18006KT P6SM
                       SCT030 BKN060=
201806032320 TAF KPWT 032320Z 0400/0424 20006KT P6SM -RA SCT025 OVC060 FM040300
                       18005KT 4SM BR OVC020 FM041800 18006KT P6SM
                       SCT030 BKN060=
201806031738 TAF KPWT 031738Z 0318/0418 20006KT P6SM OVC050 FM032000 19008KT
                       P6SM -RA BKN025 OVC040 FM040000 20009KT
                       P6SM VCSH SCT030 OVC050 FM041000 18005KT
                       P6SM OVC014 FM041700 18006KT P6SM BKN025
                       BKN050=
201806031332 KPWT 031332Z 0314/0412 21003KT P6SM SCT060 BKN250
                      TEMPO 0314/0317 3/4SM BR BKN002 FM031800
                       20006KT P6SM OVC050 FM032000 19008KT P6SM
                       -RA BKN025 OVC040 FM040000 20009KT P6SM
                       VCSH SCT030 OVC050 FM041000 18005KT P6SM
                       OVC014=
201806031135 TAF KPWT 031135Z 0312/0412 00000KT P6SM FEW060 SCT250 FM031800
                       20006KT P6SM OVC050 FM032000 19008KT P6SM
                       -RA BKN025 OVC040 FM040000 20009KT P6SM
                       VCSH SCT030 OVC050 FM041000 18005KT P6SM
                       OVC014=
201806030523 TAF KPWT 030523Z 0306/0406 VRB04KT P6SM FEW050 SCT100 SCT200 FM030900
                       VRB04KT P6SM BKN100 OVC150 FM031700 20006KT
                       P6SM -RA BKN030 OVC080 FM032000 20010KT
                       P6SM -RA OVC022 FM040100 18008KT P6SM BKN025
                       OVC040=
201806022320 TAF KPWT 022320Z 0300/0324 24006KT P6SM FEW050 SCT100 BKN200 FM030400
                       VRB04KT P6SM BKN100 OVC150 FM031700 VRB04KT
                       P6SM -RA BKN030 OVC080 FM032000 20010G20KT
                       P6SM -RA OVC022=
201806021720 TAF KPWT 021720Z 0218/0318 20005KT P6SM BKN100 BKN200 FM022300
                       03005KT P6SM SCT100 BKN200 FM030600 03005KT
                       P6SM BKN100 OVC150 FM031700 03005KT P6SM
                       OVC100=
201806021120 TAF KPWT 021120Z 0212/0312 00000KT P6SM BKN060 OVC100 FM021800
                       20005KT P6SM BKN100 BKN200 FM022300 03005KT
                       P6SM SCT100 BKN200=
201806020901 KPWT 020901Z 0209/0306 00000KT P6SM FEW070 SCT100 BKN200 FM021200
                       VRB03KT P6SM BKN070 BKN100 BKN200 FM021800
                       22005KT P6SM BKN100 BKN200 FM022300 03005KT
                       P6SM SCT100 BKN200=
201806020523 TAF KPWT 020523Z 0206/0306 20008KT P6SM SCT030 SCT080 BKN150 FM021000
                       VRB03KT P6SM BKN025 FM021800 22005KT P6SM
                       SCT030 BKN200 FM022300 03005KT P6SM SCT035
                       SCT200=
201806012320 TAF KPWT 012320Z 0200/0224 20010KT P6SM FEW030 BKN050 FM020300
                       20008KT P6SM SCT030 SCT050 BKN150 FM021000
                       VRB03KT P6SM BKN025 FM021800 01005KT P6SM
                       SCT030 BKN200=
201806011720 TAF KPWT 011720Z 0118/0218 20010KT P6SM SCT020 BKN045 FM012100
                       20013G20KT P6SM FEW035 SCT050 SCT150 FM020300
                       20008KT P6SM OVC035 FM021000 VRB03KT P6SM
                       OVC020=
201806011301 KPWT 011301Z 0113/0212 20004KT P6SM OVC010 FM011800 20010KT P6SM
                       SCT025 BKN040 FM012100 20014KT P6SM FEW035
                       SCT050 SCT150 FM020200 20008KT P6SM OVC050
                       FM021000 VRB03KT P6SM OVC025=
201806011125 TAF KPWT 011125Z 0112/0212 20004KT P6SM OVC021 FM011800 20010KT
                       P6SM SCT025 BKN040 FM012100 20014KT P6SM
                       FEW035 SCT050 SCT150 FM020200 20008KT P6SM
                       OVC050 FM021000 VRB03KT P6SM OVC025=
201806010724 KPWT 010724Z 0107/0206 17003KT P6SM BKN026 OVC060 FM010900 18006KT
                       P6SM OVC015 FM011800 19012KT P6SM SCT020
                       BKN040 FM012100 20014KT P6SM FEW030 SCT050=
201806010521 TAF KPWT 010521Z 0106/0206 20006KT P6SM BKN080 FM010900 18006KT
                       P6SM OVC015 FM011800 19012KT P6SM SCT020
                       BKN040 FM012100 20014KT P6SM FEW030 SCT050=