##########################################################
# Query made at 02/16/2025 00:08:36 UTC
# Time interval: from 07/01/2018 00:00  to 07/31/2018 23:59  UTC
##########################################################

##########################################################
# KPWT, Bremerton National Automatic Weather Observing / Reporting System (United States)
# WMO index: -----. WIGOS ID: Unknown
# Latitude 47-30N. Longitude 122-45W. Altitude 147 m.
##########################################################

###################################
#  METAR/SPECI from KPWT
###################################
201807312356 METAR KPWT 312356Z AUTO 24011KT 10SM CLR 24/14 A3000 RMK AO2 SLP171 T02440139 10250 20167 58011=
201807312256 METAR KPWT 312256Z AUTO 26011G15KT 10SM CLR 24/14 A3001 RMK AO2 SLP174 T02440144=
201807312156 METAR KPWT 312156Z AUTO 23008KT 10SM CLR 24/14 A3002 RMK AO2 SLP179 T02390144=
201807312056 METAR KPWT 312056Z AUTO 21008KT 160V240 10SM CLR 22/14 A3003 RMK AO2 SLP182 T02220144 58007=
201807312008 SPECI KPWT 312008Z AUTO 19008KT 10SM SCT018 21/14 A3004 RMK AO2=
201807311956 METAR KPWT 311956Z AUTO 20010KT 10SM BKN018 20/14 A3004 RMK AO2 SLP186 T02000139=
201807311925 SPECI KPWT 311925Z AUTO 19010G15KT 10SM OVC016 19/14 A3004 RMK AO2=
201807311856 METAR KPWT 311856Z AUTO 20012G15KT 10SM OVC012 18/14 A3005 RMK AO2 SLP190 T01830139=
201807311817 SPECI KPWT 311817Z AUTO 20006KT 10SM OVC010 17/13 A3005 RMK AO2=
201807311756 METAR KPWT 311756Z AUTO 23010KT 10SM OVC008 17/13 A3005 RMK AO2 SLP192 T01670133 10167 20144 53000=
201807311656 METAR KPWT 311656Z AUTO 21010KT 10SM OVC008 16/13 A3005 RMK AO2 SLP191 T01610133=
201807311609 SPECI KPWT 311609Z AUTO 19008KT 10SM OVC006 16/13 A3005 RMK AO2=
201807311556 METAR KPWT 311556Z AUTO 20009KT 10SM OVC004 15/13 A3005 RMK AO2 SLP190 T01500133=
201807311456 METAR KPWT 311456Z AUTO 22009KT 10SM OVC004 14/13 A3005 RMK AO2 SLP189 T01440133 53005=
201807311356 METAR KPWT 311356Z AUTO 21006KT 9SM OVC004 14/13 A3004 RMK AO2 SLP186 T01440133=
201807311256 METAR KPWT 311256Z AUTO 21008KT 9SM OVC004 14/13 A3004 RMK AO2 SLP183 T01440133=
201807311156 METAR KPWT 311156Z AUTO 19005KT 10SM OVC004 14/13 A3003 RMK AO2 SLP181 7//// T01440133 10156 20144 51004=
201807311056 METAR KPWT 311056Z AUTO 20007KT 10SM OVC004 15/13 A3003 RMK AO2 SLP180 T01500133=
201807310956 METAR KPWT 310956Z AUTO 23007KT 10SM OVC004 15/14 A3003 RMK AO2 SLP178 T01500139=
201807310856 METAR KPWT 310856Z AUTO 21008KT 10SM OVC004 15/14 A3002 RMK AO2 SLP177 T01500139 53007=
201807310833 SPECI KPWT 310833Z AUTO 21008KT 10SM OVC004 15/14 A3002 RMK AO2=
201807310756 METAR KPWT 310756Z AUTO 22008KT 10SM OVC006 15/14 A3002 RMK AO2 SLP176 T01500139 403280122=
201807310710 SPECI KPWT 310710Z AUTO 22007KT 10SM BKN008 15/14 A3001 RMK AO2=
201807310656 METAR KPWT 310656Z AUTO 22006KT 10SM FEW008 14/14 A3001 RMK AO2 SLP174 T01440139=
201807310556 METAR KPWT 310556Z AUTO 22008KT 10SM CLR 16/14 A3000 RMK AO2 SLP173 T01560139 10317 20156 51012=
201807310456 METAR KPWT 310456Z AUTO 21007KT 10SM CLR 17/14 A2999 RMK AO2 SLP170 T01720144=
201807310356 METAR KPWT 310356Z AUTO 22006KT 10SM CLR 20/14 A2998 RMK AO2 SLP164 T02000144=
201807310256 METAR KPWT 310256Z AUTO 24008KT 10SM CLR 24/16 A2997 RMK AO2 SLP160 T02390156 53006=
201807310156 METAR KPWT 310156Z AUTO 25007KT 10SM CLR 27/16 A2995 RMK AO2 SLP155 T02670161=
201807310056 METAR KPWT 310056Z AUTO 22011KT 10SM CLR 29/16 A2995 RMK AO2 SLP152 T02940161=
201807302356 METAR KPWT 302356Z AUTO 23009KT 10SM CLR 32/16 A2995 RMK AO2 SLP152 T03170161 10328 20233 56015=
201807302256 METAR KPWT 302256Z AUTO VRB04KT 10SM CLR 33/16 A2996 RMK AO2 SLP154 T03280156=
201807302156 METAR KPWT 302156Z AUTO 27005KT 10SM CLR 32/16 A2998 RMK AO2 SLP161 T03220156=
201807302056 METAR KPWT 302056Z AUTO 00000KT 10SM CLR 29/16 A2999 RMK AO2 SLP167 T02940156 58014=
201807301956 METAR KPWT 301956Z AUTO VRB05KT 10SM CLR 28/16 A3001 RMK AO2 SLP172 T02830156=
201807301856 METAR KPWT 301856Z AUTO 20004KT 10SM CLR 26/15 A3002 RMK AO2 SLP178 T02560150=
201807301756 METAR KPWT 301756Z AUTO 20004KT 10SM CLR 23/14 A3003 RMK AO2 SLP181 6//// T02330144 10233 20122 56005=
201807301656 METAR KPWT 301656Z AUTO 00000KT 10SM CLR 21/14 A3004 RMK AO2 SLP183 T02110139=
201807301556 METAR KPWT 301556Z AUTO 23005KT 10SM CLR 18/14 A3004 RMK AO2 SLP184 T01830139=
201807301456 METAR KPWT 301456Z AUTO 23004KT 10SM CLR 16/13 A3005 RMK AO2 SLP186 T01560133 51008=
201807301356 METAR KPWT 301356Z AUTO 22004KT 10SM CLR 14/13 A3005 RMK AO2 SLP185 T01390128=
201807301256 METAR KPWT 301256Z AUTO 00000KT 10SM CLR 13/13 A3004 RMK AO2 SLP181 T01330128=
201807301156 METAR KPWT 301156Z AUTO 22004KT 10SM CLR 14/13 A3002 RMK AO2 SLP177 6//// 7//// T01390128 10206 20133 52007=
201807301056 METAR KPWT 301056Z AUTO 22004KT 10SM CLR 15/14 A3002 RMK AO2 SLP175 T01500139=
201807300956 METAR KPWT 300956Z AUTO 00000KT 10SM CLR 17/14 A3001 RMK AO2 SLP172 T01670144=
201807300856 METAR KPWT 300856Z AUTO 00000KT 10SM CLR 17/14 A3000 RMK AO2 SLP170 6//// T01720139 50005=
201807300756 METAR KPWT 300756Z AUTO 00000KT 10SM CLR 18/14 A3001 RMK AO2 SLP171 T01830139 403330117=
201807300656 METAR KPWT 300656Z AUTO 00000KT 10SM CLR 19/14 A3000 RMK AO2 SLP169 T01940139=
201807300556 METAR KPWT 300556Z AUTO 00000KT 10SM CLR 21/14 A2999 RMK AO2 SLP166 T02060139 10328 20206 51006=
201807300456 METAR KPWT 300456Z AUTO 00000KT 10SM CLR 22/14 A2999 RMK AO2 SLP165 T02220144=
201807300356 METAR KPWT 300356Z AUTO 08004KT 10SM CLR 26/14 A2998 RMK AO2 SLP162 T02560144=
201807300256 METAR KPWT 300256Z AUTO 06006KT 10SM CLR 29/14 A2997 RMK AO2 SLP158 T02890144 55004=
201807300156 METAR KPWT 300156Z AUTO 05007KT 10SM CLR 31/14 A2997 RMK AO2 SLP159 T03110144=
201807300056 METAR KPWT 300056Z AUTO 07009KT 10SM CLR 33/14 A2998 RMK AO2 SLP162 T03280144=
201807292356 METAR KPWT 292356Z AUTO 07010KT 10SM CLR 33/14 A2998 RMK AO2 SLP164 T03280139 10333 20244 56017=
201807292256 METAR KPWT 292256Z AUTO 05008KT 10SM CLR 33/14 A3000 RMK AO2 SLP168 T03280144=
201807292156 METAR KPWT 292156Z AUTO 01006KT 10SM CLR 32/16 A3001 RMK AO2 SLP173 T03220156=
201807292056 METAR KPWT 292056Z AUTO 04007KT 10SM CLR 31/16 A3003 RMK AO2 SLP181 T03060156 56013=
201807291956 METAR KPWT 291956Z AUTO 06007KT 10SM CLR 29/14 A3004 RMK AO2 SLP184 T02940144=
201807291856 METAR KPWT 291856Z AUTO 05007KT 030V100 10SM CLR 27/15 A3006 RMK AO2 SLP190 T02720150=
201807291756 METAR KPWT 291756Z AUTO 05007KT 10SM CLR 24/16 A3007 RMK AO2 SLP194 6//// T02440156 10250 20117 58003=
201807291656 METAR KPWT 291656Z AUTO VRB06KT 10SM CLR 23/15 A3008 RMK AO2 SLP197 T02280150=
201807291556 METAR KPWT 291556Z AUTO 05006KT 10SM CLR 21/14 A3008 RMK AO2 SLP199 T02060144=
201807291456 METAR KPWT 291456Z AUTO 04006KT 8SM CLR 19/14 A3008 RMK AO2 SLP197 6//// T01940144 51006=
201807291356 METAR KPWT 291356Z AUTO 00000KT 10SM CLR 14/13 A3008 RMK AO2 SLP197 T01390133=
201807291256 METAR KPWT 291256Z AUTO 00000KT 10SM CLR 13/12 A3007 RMK AO2 SLP193 T01330117=
201807291156 METAR KPWT 291156Z AUTO 00000KT 10SM CLR 13/12 A3006 RMK AO2 SLP192 6//// 7//// T01280117 10183 20128 52001=
201807291056 METAR KPWT 291056Z AUTO 00000KT 10SM CLR 14/13 A3006 RMK AO2 SLP192 T01390128=
201807290956 METAR KPWT 290956Z AUTO 00000KT 10SM CLR 14/12 A3006 RMK AO2 SLP190 T01440122=
201807290856 METAR KPWT 290856Z AUTO 00000KT 10SM CLR 14/13 A3006 RMK AO2 SLP191 6//// T01440128 53002=
201807290756 METAR KPWT 290756Z AUTO 00000KT 10SM CLR 16/13 A3006 RMK AO2 SLP190 T01610133 403060128=
201807290656 METAR KPWT 290656Z AUTO 00000KT 10SM CLR 17/14 A3005 RMK AO2 SLP190 T01670139=
201807290556 METAR KPWT 290556Z AUTO 14003KT 10SM CLR 18/14 A3005 RMK AO2 SLP189 T01830144 10300 20183 53012=
201807290456 METAR KPWT 290456Z AUTO 12003KT 10SM CLR 20/14 A3004 RMK AO2 SLP184 T02000144=
201807290356 METAR KPWT 290356Z AUTO 00000KT 10SM CLR 24/15 A3002 RMK AO2 SLP179 T02390150=
201807290156 METAR KPWT 290156Z AUTO 23005KT 10SM CLR 29/16 A3000 RMK AO2 SLP171 T02890156=
201807290056 METAR KPWT 290056Z AUTO 06006KT 10SM CLR 29/16 A3000 RMK AO2 SLP170 T02940156=
201807282356 METAR KPWT 282356Z AUTO 05007KT 10SM CLR 29/16 A3001 RMK AO2 SLP172 T02940156 10306 20206 56009=
201807282256 METAR KPWT 282256Z AUTO 00000KT 10SM CLR 29/14 A3001 RMK AO2 SLP175 T02940144=
201807282156 METAR KPWT 282156Z AUTO VRB03KT 10SM CLR 29/13 A3002 RMK AO2 SLP178 T02890133=
201807282056 METAR KPWT 282056Z AUTO 22006KT 10SM CLR 27/14 A3003 RMK AO2 SLP182 T02720139 58010=
201807281956 METAR KPWT 281956Z AUTO VRB05KT 10SM CLR 24/14 A3004 RMK AO2 SLP187 T02440139=
201807281856 METAR KPWT 281856Z AUTO VRB03KT 10SM CLR 22/14 A3006 RMK AO2 SLP191 T02220139=
201807281756 METAR KPWT 281756Z AUTO 22004KT 8SM CLR 21/14 A3006 RMK AO2 SLP194 60000 T02060139 10206 20133=
201807281656 METAR KPWT 281656Z AUTO VRB04KT 10SM FEW010 17/13 A3007 RMK AO2 SLP195 T01720133=
201807281649 SPECI KPWT 281649Z AUTO 25006KT 10SM SCT010 17/13 A3007 RMK AO2=
201807281556 METAR KPWT 281556Z AUTO 20005KT 10SM OVC006 15/13 A3007 RMK AO2 SLP196 T01500128=
201807281536 SPECI KPWT 281536Z AUTO 19006KT 10SM OVC006 15/13 RMK AO2 $=
201807281456 METAR KPWT 281456Z AUTO 21006KT 10SM OVC004 14/13 RMK AO2 RAE02 SLPNO P0000 60000 T01390128 $=
201807281356 METAR KPWT 281356Z AUTO 21005KT 10SM -RA OVC004 14/13 A3005 RMK AO2 RAB49 SLP188 P0000 T01390128=
201807281256 METAR KPWT 281256Z AUTO 21005KT 10SM OVC004 13/13 A3004 RMK AO2 SLP185 T01330128=
201807281156 METAR KPWT 281156Z AUTO 21007KT 10SM OVC004 13/13 A3003 RMK AO2 SLP182 6//// 7//// T01330128 10167 20128 51006=
201807281056 METAR KPWT 281056Z AUTO 21005KT 10SM OVC004 13/13 A3003 RMK AO2 SLP179 T01330128=
201807280956 METAR KPWT 280956Z AUTO 21005KT 10SM OVC004 13/13 A3003 RMK AO2 SLP180 T01330128=
201807280931 SPECI KPWT 280931Z AUTO 23005KT 10SM BKN006 13/12 A3002 RMK AO2=
201807280922 SPECI KPWT 280922Z AUTO 22004KT 10SM SCT006 13/12 A3002 RMK AO2=
201807280856 METAR KPWT 280856Z AUTO 22005KT 10SM CLR 13/12 A3002 RMK AO2 SLP176 6//// T01280122 51006=
201807280756 METAR KPWT 280756Z AUTO 22004KT 10SM BKN110 13/12 A3001 RMK AO2 SLP175 T01330122 403110111=
201807280656 METAR KPWT 280656Z AUTO 21005KT 10SM CLR 14/13 A3000 RMK AO2 SLP174 T01440128=
201807280556 METAR KPWT 280556Z AUTO 20005KT 10SM CLR 17/13 A3000 RMK AO2 SLP171 6//// T01670133 10311 20167 51012=
201807280456 METAR KPWT 280456Z AUTO 21005KT 10SM CLR 18/14 A2999 RMK AO2 SLP169 T01830139=
201807280356 METAR KPWT 280356Z AUTO 23007KT 10SM CLR 23/14 A2997 RMK AO2 SLP164 T02280144=
201807280256 METAR KPWT 280256Z AUTO 22008KT 10SM CLR 26/14 A2996 RMK AO2 SLP159 T02610139 55003=
201807280156 METAR KPWT 280156Z AUTO 22009KT 10SM CLR 29/13 A2996 RMK AO2 SLP156 T02940133=
201807280056 METAR KPWT 280056Z AUTO 22010KT 10SM CLR 30/13 A2996 RMK AO2 SLP157 T03000128=
201807272356 METAR KPWT 272356Z AUTO VRB06KT 10SM CLR 31/13 A2997 RMK AO2 SLP160 6//// T03060128 10306 20206 58016=
201807272256 METAR KPWT 272256Z AUTO 23007KT 180V260 9SM CLR 29/13 A2999 RMK AO2 SLP166 T02940133=
201807272156 METAR KPWT 272156Z AUTO VRB05KT 10SM CLR 29/13 A3000 RMK AO2 SLP172 T02890128=
201807272056 METAR KPWT 272056Z AUTO VRB04KT 10SM CLR 28/13 A3002 RMK AO2 SLP177 T02780128 58010=
201807271956 METAR KPWT 271956Z AUTO VRB03KT 10SM CLR 26/13 A3003 RMK AO2 SLP182 T02560133=
201807271856 METAR KPWT 271856Z AUTO 23006KT 10SM CLR 23/13 A3004 RMK AO2 SLP186 T02330133=
201807271756 METAR KPWT 271756Z AUTO VRB04KT 10SM CLR 21/13 A3005 RMK AO2 SLP187 6//// T02110128 10211 20122 58004=
201807271656 METAR KPWT 271656Z AUTO 17005KT 10SM CLR 18/12 A3005 RMK AO2 SLP190 T01830122=
201807271610 SPECI KPWT 271610Z AUTO 23004KT 10SM SCT005 15/12 A3006 RMK AO2=
201807271556 METAR KPWT 271556Z AUTO VRB04KT 10SM BKN003 14/12 A3006 RMK AO2 SLP192 T01390122=
201807271533 SPECI KPWT 271533Z AUTO 23004KT 10SM OVC003 13/12 A3006 RMK AO2=
201807271456 METAR KPWT 271456Z AUTO 19005KT 6SM BR OVC001 13/12 A3006 RMK AO2 SLP191 6//// T01280122 51005=
201807271448 SPECI KPWT 271448Z AUTO 25005KT 1 1/4SM BR OVC001 12/12 A3006 RMK AO2 VIS 1/4V5 TSNO=
201807271445 SPECI KPWT 271445Z AUTO 24006KT 3/4SM BR OVC001 12/12 A3006 RMK AO2=
201807271418 SPECI KPWT 271418Z AUTO 21007KT 1/4SM FG OVC001 12/12 A3005 RMK AO2=
201807271407 SPECI KPWT 271407Z AUTO 1/2SM FG OVC001 12/12 RMK AO2 VIS 1/4V4 $=
201807271356 METAR KPWT 271356Z AUTO 23005KT 1SM BR OVC001 12/12 A3005 RMK AO2 VIS 1/2V5 SLP188 T01220122 TSNO=
201807271354 SPECI KPWT 271354Z AUTO 25005KT 3/4SM BR OVC001 12/12 A3005 RMK AO2 VIS 1/4V4=
201807271323 SPECI KPWT 271323Z AUTO 21005KT 1/2SM FG OVC001 12/12 A3005 RMK AO2=
201807271310 SPECI KPWT 271310Z AUTO 1/4SM FG OVC001 12/12 A3005 RMK AO2=
201807271256 METAR KPWT 271256Z AUTO 21005KT 1/4SM FG OVC003 12/12 A3004 RMK AO2 SLP184 T01220122=
201807271235 SPECI KPWT 271235Z AUTO 20006KT 1/4SM FG OVC003 12/12 A3004 RMK AO2=
201807271207 SPECI KPWT 271207Z AUTO 21005KT 1/2SM FG OVC003 13/12 A3004 RMK AO2=
201807271156 METAR KPWT 271156Z AUTO 21005KT 3/4SM BR OVC003 13/12 A3004 RMK AO2 SLP181 6//// 7//// T01280122 10183 20111 56001=
201807271149 SPECI KPWT 271149Z AUTO 22005KT 1 3/4SM BR OVC003 13/12 A3003 RMK AO2=
201807271056 METAR KPWT 271056Z AUTO 20004KT 9SM OVC003 12/12 A3004 RMK AO2 SLP182 T01220117=
201807271046 SPECI KPWT 271046Z AUTO 20004KT 10SM BKN003 12/12 A3004 RMK AO2=
201807271036 SPECI KPWT 271036Z AUTO 20004KT 10SM SCT003 12/11 A3004 RMK AO2=
201807270956 METAR KPWT 270956Z AUTO 21005KT 10SM CLR 12/11 A3003 RMK AO2 SLP182 T01170111=
201807270856 METAR KPWT 270856Z AUTO 22004KT 10SM CLR 12/12 A3004 RMK AO2 SLP183 T01220117 58001=
201807270756 METAR KPWT 270756Z AUTO 22005KT 10SM CLR 13/12 A3004 RMK AO2 SLP184 T01330117 403390128=
201807270656 METAR KPWT 270656Z AUTO 21003KT 10SM CLR 15/12 A3004 RMK AO2 SLP184 T01500122=
201807270556 METAR KPWT 270556Z AUTO 21003KT 10SM CLR 18/13 A3004 RMK AO2 SLP183 T01830128 10328 20178 51007=
201807270456 METAR KPWT 270456Z AUTO 21005KT 10SM CLR 20/13 A3004 RMK AO2 SLP182 T02000128=
201807270356 METAR KPWT 270356Z AUTO 21005KT 10SM CLR 22/12 A3003 RMK AO2 SLP179 T02220122=
201807270256 METAR KPWT 270256Z AUTO 22007KT 10SM CLR 27/12 A3002 RMK AO2 SLP176 T02720117 55004=
201807270156 METAR KPWT 270156Z AUTO 24011KT 10SM CLR 31/11 A3002 RMK AO2 SLP175 T03060106=
201807270056 METAR KPWT 270056Z AUTO 25007KT 10SM CLR 33/12 A3002 RMK AO2 SLP177 T03280122=
201807262356 METAR KPWT 262356Z AUTO 23008KT 10SM CLR 33/12 A3003 RMK AO2 SLP179 T03280122 10339 20272 57018=
201807262256 METAR KPWT 262256Z AUTO 29006KT 10SM CLR 33/12 A3005 RMK AO2 SLP185 T03330117=
201807262156 METAR KPWT 262156Z AUTO 23006KT 10SM CLR 32/12 A3007 RMK AO2 SLP191 T03170117=
201807262056 METAR KPWT 262056Z AUTO VRB03KT 10SM CLR 31/11 A3008 RMK AO2 SLP198 T03060106 58011=
201807261956 METAR KPWT 261956Z AUTO VRB05KT 10SM CLR 30/13 A3010 RMK AO2 SLP202 T03000128=
201807261856 METAR KPWT 261856Z AUTO 08004KT 10SM CLR 28/13 A3011 RMK AO2 SLP206 T02830133=
201807261756 METAR KPWT 261756Z AUTO 03004KT 10SM CLR 27/13 A3012 RMK AO2 SLP208 T02720128 10272 20128 58006=
201807261656 METAR KPWT 261656Z AUTO VRB03KT 10SM CLR 26/13 A3012 RMK AO2 SLP210 T02560128=
201807261556 METAR KPWT 261556Z AUTO VRB03KT 10SM CLR 22/14 A3014 RMK AO2 SLP215 T02170139=
201807261456 METAR KPWT 261456Z AUTO 13003KT 10SM CLR 18/13 A3013 RMK AO2 SLP215 T01780133=
201807261356 METAR KPWT 261356Z AUTO 20003KT 10SM CLR 14/13 RMK AO2 SLPNO T01440128 $=
201807261256 METAR KPWT 261256Z AUTO 00000KT 10SM CLR 13/11 A3012 RMK AO2 SLP212 T01280111=
201807261156 METAR KPWT 261156Z AUTO 00000KT 10SM CLR 13/11 A3012 RMK AO2 SLP209 7//// T01330111 10194 20133 55001=
201807261056 METAR KPWT 261056Z AUTO 00000KT 10SM CLR 14/11 A3011 RMK AO2 SLP207 T01440111=
201807260956 METAR KPWT 260956Z AUTO 00000KT 10SM CLR 16/11 A3011 RMK AO2 SLP208 T01560111=
201807260856 METAR KPWT 260856Z AUTO 00000KT 10SM CLR 14/11 A3012 RMK AO2 SLP210 T01440106 50000=
201807260756 METAR KPWT 260756Z AUTO 00000KT 10SM CLR 16/11 A3012 RMK AO2 SLP210 T01610111 403280111=
201807260556 METAR KPWT 260556Z AUTO 13003KT 10SM CLR 19/12 A3012 RMK AO2 SLP210 6//// T01940117 10317 20183 50005=
201807260456 METAR KPWT 260456Z AUTO 00000KT 10SM CLR 23/11 A3012 RMK AO2 SLP211 T02280111=
201807260356 METAR KPWT 260356Z AUTO 07005KT 10SM CLR 26/12 A3011 RMK AO2 SLP205 T02610117=
201807260256 METAR KPWT 260256Z AUTO 07006KT 10SM CLR 29/12 A3010 RMK AO2 SLP204 T02890122 55002=
201807260156 METAR KPWT 260156Z AUTO 07008KT 10SM CLR 31/12 A3010 RMK AO2 SLP205 T03060122=
201807260056 METAR KPWT 260056Z AUTO 05007KT 10SM CLR 31/13 A3011 RMK AO2 SLP207 T03110133=
201807252356 METAR KPWT 252356Z AUTO 06009KT 10SM CLR 32/12 A3011 RMK AO2 SLP208 6//// T03170122 10328 20261 56009=
201807252256 METAR KPWT 252256Z AUTO 04010G14KT 10SM CLR 32/13 A3012 RMK AO2 SLP210 T03220133=
201807252156 METAR KPWT 252156Z AUTO 06008KT 040V110 10SM CLR 32/13 A3013 RMK AO2 SLP213 T03220128=
201807252056 METAR KPWT 252056Z AUTO 04007KT 10SM CLR 31/12 A3014 RMK AO2 SLP217 6//// T03110122 58010=
201807251956 METAR KPWT 251956Z AUTO VRB04KT 10SM CLR 31/12 A3015 RMK AO2 SLP220 T03060122=
201807251856 METAR KPWT 251856Z AUTO VRB03KT 10SM CLR 28/12 A3016 RMK AO2 SLP225 T02830117=
201807251756 METAR KPWT 251756Z AUTO VRB04KT 10SM CLR 26/11 A3017 RMK AO2 SLP227 T02610111 10267 20117 50000=
201807251656 METAR KPWT 251656Z AUTO 23003KT 10SM CLR 24/13 A3017 RMK AO2 SLP226 T02390128=
201807251556 METAR KPWT 251556Z AUTO 00000KT 10SM CLR 22/12 A3017 RMK AO2 SLP227 T02170122=
201807251456 METAR KPWT 251456Z AUTO 00000KT 10SM CLR 19/12 A3017 RMK AO2 SLP225 T01890117 51009=
201807251356 METAR KPWT 251356Z AUTO 00000KT 10SM CLR 14/11 A3016 RMK AO2 SLP224 T01390111=
201807251256 METAR KPWT 251256Z AUTO 00000KT 10SM CLR 12/09 A3015 RMK AO2 SLP221 T01220094=
201807251156 METAR KPWT 251156Z AUTO 00000KT 10SM CLR 12/09 A3014 RMK AO2 SLP218 6//// 7//// T01170094 10183 20111 53006=
201807251056 METAR KPWT 251056Z AUTO 00000KT 10SM CLR 12/09 A3013 RMK AO2 SLP215 T01220089=
201807250956 METAR KPWT 250956Z AUTO 00000KT 10SM CLR 13/10 A3013 RMK AO2 SLP213 T01280100=
201807250856 METAR KPWT 250856Z AUTO 00000KT 10SM CLR 13/10 A3012 RMK AO2 SLP212 T01330100 53002=
201807250756 METAR KPWT 250756Z AUTO 00000KT 10SM CLR 15/10 A3012 RMK AO2 SLP211 T01500100 403170100=
201807250656 METAR KPWT 250656Z AUTO 00000KT 10SM CLR 16/10 A3012 RMK AO2 SLP210 T01560100=
201807250556 METAR KPWT 250556Z AUTO 00000KT 10SM CLR 18/11 A3012 RMK AO2 SLP210 T01780106 10311 20172 53011=
201807250456 METAR KPWT 250456Z AUTO 06003KT 10SM CLR 22/10 A3010 RMK AO2 SLP203 T02220100=
201807250356 METAR KPWT 250356Z AUTO 06006KT 10SM CLR 25/09 A3009 RMK AO2 SLP200 T02500094=
201807250256 METAR KPWT 250256Z AUTO 06006KT 7SM CLR 28/10 A3008 RMK AO2 SLP198 T02830100 55001=
201807250156 METAR KPWT 250156Z AUTO 07007KT 10SM CLR 29/11 A3008 RMK AO2 SLP198 T02940106=
201807250056 METAR KPWT 250056Z AUTO 06009KT 10SM CLR 31/12 A3008 RMK AO2 SLP199 T03060117=
201807242356 METAR KPWT 242356Z AUTO 06008KT 10SM CLR 31/12 A3009 RMK AO2 SLP200 T03110117 10317 20256 56008=
201807242256 METAR KPWT 242256Z AUTO 06008KT 10SM CLR 31/12 A3010 RMK AO2 SLP203 T03110122=
201807242156 METAR KPWT 242156Z AUTO VRB06KT 10SM CLR 31/12 A3010 RMK AO2 SLP205 T03060122=
201807242056 METAR KPWT 242056Z AUTO 07006KT 10SM CLR 30/13 A3011 RMK AO2 SLP208 T03000128 58007=
201807241956 METAR KPWT 241956Z AUTO 00000KT 10SM CLR 29/12 A3012 RMK AO2 SLP211 T02890122=
201807241856 METAR KPWT 241856Z AUTO VRB03KT 10SM CLR 28/13 A3013 RMK AO2 SLP214 T02780128=
201807241756 METAR KPWT 241756Z AUTO 25004KT 8SM CLR 26/12 A3013 RMK AO2 SLP216 60000 T02610122 10261 20100 58002=
201807241656 METAR KPWT 241656Z AUTO 00000KT 10SM CLR 23/13 A3014 RMK AO2 SLP219 T02280133=
201807241556 METAR KPWT 241556Z AUTO 00000KT 9SM CLR 19/13 A3014 RMK AO2 SLP218 T01940128=
201807241456 METAR KPWT 241456Z AUTO 19003KT 10SM CLR 16/13 A3014 RMK AO2 SLP217 60000 T01610128 53012=
201807241356 METAR KPWT 241356Z AUTO 22003KT 10SM CLR 14/12 A3013 RMK AO2 RAB03E15 SLP213 P0000 T01390122=
201807241319 SPECI KPWT 241319Z AUTO 20005KT 10SM CLR 12/11 A3012 RMK AO2 RAB03E15 P0000=
201807241311 SPECI KPWT 241311Z AUTO 00000KT 1 1/4SM -RA BR CLR 11/11 A3011 RMK AO2 RAB03 P0000=
201807241303 SPECI KPWT 241303Z AUTO 00000KT 3/4SM -RA BR CLR 11/10 A3011 RMK AO2 VIS 1/4V5 RAB03 P0000=
201807241301 SPECI KPWT 241301Z AUTO 00000KT 1 1/2SM BR CLR 11/10 A3011 RMK AO2 VIS 1/2V5=
201807241256 METAR KPWT 241256Z AUTO 00000KT 4SM BR CLR 10/09 A3011 RMK AO2 SLP209 T01000094=
201807241233 SPECI KPWT 241233Z AUTO 00000KT 10SM CLR 12/10 A3011 RMK AO2=
201807241225 SPECI KPWT 241225Z AUTO 00000KT 2 1/2SM BR CLR 12/11 A3011 RMK AO2=
201807241156 METAR KPWT 241156Z AUTO 00000KT 10SM CLR 12/10 A3010 RMK AO2 SLP205 6//// 7//// T01170100 10172 20111 51004=
201807241056 METAR KPWT 241056Z AUTO 00000KT 10SM CLR 11/09 A3010 RMK AO2 SLP205 T01110094=
201807240956 METAR KPWT 240956Z AUTO 00000KT 10SM CLR 12/09 A3010 RMK AO2 SLP203 T01170089=
201807240856 METAR KPWT 240856Z AUTO 00000KT 10SM CLR 13/09 A3009 RMK AO2 SLP201 6//// T01280094=
201807240756 METAR KPWT 240756Z AUTO 00000KT 10SM CLR 15/11 A3009 RMK AO2 SLP199 T01500106 403220106=
201807240656 METAR KPWT 240656Z AUTO 00000KT 10SM CLR 16/11 A3009 RMK AO2 SLP199 T01560106=
201807240556 METAR KPWT 240556Z AUTO 00000KT 10SM CLR 17/11 RMK AO2 SLPNO 6//// T01720106 10317 20167 $=
201807240456 METAR KPWT 240456Z AUTO 00000KT 10SM CLR 19/09 A3007 RMK AO2 SLP194 T01890094=
201807240356 METAR KPWT 240356Z AUTO 00000KT 10SM CLR 24/09 A3006 RMK AO2 SLP188 T02440094=
201807240256 METAR KPWT 240256Z AUTO 07007KT 10SM CLR 28/09 A3006 RMK AO2 SLP187 6//// T02830094 55001=
201807240156 METAR KPWT 240156Z AUTO 05007KT 10SM CLR 30/09 A3005 RMK AO2 SLP187 T03000094=
201807240056 METAR KPWT 240056Z AUTO 05010KT 10SM CLR 31/11 A3005 RMK AO2 SLP188 T03110106=
201807232356 METAR KPWT 232356Z AUTO 03009KT 10SM CLR 32/11 A3006 RMK AO2 SLP190 T03170111 10322 20267 57012=
201807232256 METAR KPWT 232256Z AUTO 07007KT 10SM CLR 32/11 A3007 RMK AO2 SLP194 T03170111=
201807232156 METAR KPWT 232156Z AUTO 04008KT 020V080 10SM CLR 31/12 A3008 RMK AO2 SLP198 T03110122=
201807232056 METAR KPWT 232056Z AUTO 01007KT 350V050 10SM CLR 31/13 A3009 RMK AO2 SLP202 T03110128 58008=
201807231956 METAR KPWT 231956Z AUTO VRB03KT 10SM CLR 29/12 A3011 RMK AO2 SLP207 T02940117=
201807231856 METAR KPWT 231856Z AUTO 07006KT 10SM CLR 28/12 A3011 RMK AO2 SLP209 T02830117=
201807231756 METAR KPWT 231756Z AUTO 05007KT 10SM CLR 27/11 A3012 RMK AO2 SLP209 6//// T02670111 10267 20106 58005=
201807231656 METAR KPWT 231656Z AUTO 00000KT 10SM CLR 26/12 A3013 RMK AO2 SLP213 T02610117=
201807231456 METAR KPWT 231456Z AUTO 00000KT 10SM CLR 22/11 A3013 RMK AO2 SLP214 6//// T02170111 50005=
201807231356 METAR KPWT 231356Z AUTO 00000KT 10SM CLR 14/11 A3013 RMK AO2 SLP216 T01440106=
201807231256 METAR KPWT 231256Z AUTO 00000KT 10SM CLR 11/09 A3012 RMK AO2 SLP214 T01110089=
201807231156 METAR KPWT 231156Z AUTO 00000KT 10SM CLR 11/08 A3012 RMK AO2 SLP212 6//// 7//// T01060083 10200 20106 55000=
201807231056 METAR KPWT 231056Z AUTO 00000KT 10SM CLR 11/08 A3012 RMK AO2 SLP211 T01110083=
201807230956 METAR KPWT 230956Z AUTO 00000KT 10SM CLR 12/09 A3012 RMK AO2 SLP212 T01170089=
201807230856 METAR KPWT 230856Z AUTO 00000KT 10SM CLR 13/09 A3012 RMK AO2 SLP212 6//// T01280089 51002=
201807230756 METAR KPWT 230756Z AUTO 00000KT 10SM CLR 14/09 A3012 RMK AO2 SLP212 T01390094 403000083=
201807230656 METAR KPWT 230656Z AUTO 00000KT 10SM CLR 16/09 A3012 RMK AO2 SLP211 T01610094=
201807230556 METAR KPWT 230556Z AUTO 03005KT 10SM CLR 21/10 A3012 RMK AO2 SLP209 6//// T02060100 10300 20206 50005=
201807230456 METAR KPWT 230456Z AUTO 02008KT 10SM CLR 22/11 A3012 RMK AO2 SLP210 T02220106=
201807230256 METAR KPWT 230256Z AUTO 05007KT 10SM CLR 27/10 A3010 RMK AO2 SLP204 6//// T02670100 56007=
201807230156 METAR KPWT 230156Z AUTO 07008KT 10SM CLR 28/09 A3010 RMK AO2 SLP205 T02830089=
201807230056 METAR KPWT 230056Z AUTO 03008KT 10SM CLR 29/10 A3011 RMK AO2 SLP208 T02890100=
201807222356 METAR KPWT 222356Z AUTO 04008KT 10SM CLR 29/10 A3012 RMK AO2 SLP213 T02940100 10294 20228 58017=
201807222256 METAR KPWT 222256Z AUTO 04008G15KT 10SM CLR 28/10 A3014 RMK AO2 SLP219 T02830100=
201807222156 METAR KPWT 222156Z AUTO 01007KT 340V050 10SM CLR 28/11 A3016 RMK AO2 SLP225 T02780106=
201807222056 METAR KPWT 222056Z AUTO 04010KT 10SM CLR 27/11 A3017 RMK AO2 SLP229 T02720106 58012=
201807221956 METAR KPWT 221956Z AUTO 06009KT 10SM CLR 26/11 A3018 RMK AO2 SLP235 T02560111=
201807221856 METAR KPWT 221856Z AUTO VRB06KT 10SM CLR 24/11 A3020 RMK AO2 SLP238 T02440111=
201807221756 METAR KPWT 221756Z AUTO 06008KT 10SM CLR 23/11 A3021 RMK AO2 SLP242 T02280106 10228 20083 58004=
201807221656 METAR KPWT 221656Z AUTO 07009KT 10SM CLR 20/11 A3021 RMK AO2 SLP245 T02000106=
201807221556 METAR KPWT 221556Z AUTO 04011KT 10SM CLR 18/10 A3022 RMK AO2 SLP246 T01780100=
201807221456 METAR KPWT 221456Z AUTO 04005KT 10SM CLR 16/10 A3022 RMK AO2 SLP246 T01610100 50004=
201807221356 METAR KPWT 221356Z AUTO 08003KT 10SM CLR 14/10 A3022 RMK AO2 SLP247 T01390100=
201807221256 METAR KPWT 221256Z AUTO 00000KT 10SM CLR 08/07 A3021 RMK AO2 SLP245 T00830072=
201807221156 METAR KPWT 221156Z AUTO 00000KT 10SM CLR 09/07 A3020 RMK AO2 SLP243 7//// T00940072 10161 20089 50002=
201807221056 METAR KPWT 221056Z AUTO 00000KT 10SM CLR 11/08 A3021 RMK AO2 SLP244 T01060078=
201807220956 METAR KPWT 220956Z AUTO 10003KT 10SM CLR 12/08 A3021 RMK AO2 SLP244 T01220083=
201807220856 METAR KPWT 220856Z AUTO 06007KT 10SM CLR 14/09 A3020 RMK AO2 SLP240 T01440089 50000=
201807220756 METAR KPWT 220756Z AUTO 00000KT 10SM CLR 11/07 A3020 RMK AO2 SLP242 T01110072 402560056=
201807220656 METAR KPWT 220656Z AUTO 05003KT 10SM CLR 15/08 A3021 RMK AO2 SLP243 T01500078=
201807220556 METAR KPWT 220556Z AUTO 06004KT 10SM CLR 14/08 A3020 RMK AO2 SLP242 T01390078 10244 20139 53009=
201807220456 METAR KPWT 220456Z AUTO 03004KT 10SM CLR 16/08 A3019 RMK AO2 SLP238 T01610083=
201807220356 METAR KPWT 220356Z AUTO 04003KT 10SM CLR 19/08 A3018 RMK AO2 SLP234 T01890083=
201807220256 METAR KPWT 220256Z AUTO 04006KT 10SM CLR 23/09 A3017 RMK AO2 SLP232 T02280094 53004=
201807220156 METAR KPWT 220156Z AUTO 05008KT 10SM CLR 23/09 A3016 RMK AO2 SLP229 T02330094=
201807220056 METAR KPWT 220056Z AUTO 04011G15KT 10SM CLR 24/09 A3016 RMK AO2 SLP230 T02390094=
201807212356 METAR KPWT 212356Z AUTO 01007KT 350V060 10SM CLR 24/09 A3016 RMK AO2 SLP230 T02390089 10256 20189 55001=
201807212256 METAR KPWT 212256Z AUTO 01008KT 10SM BKN055 24/09 A3016 RMK AO2 SLP229 T02390094=
201807212156 METAR KPWT 212156Z AUTO VRB04KT 10SM FEW049 23/10 A3016 RMK AO2 SLP228 T02280100=
201807212056 METAR KPWT 212056Z AUTO 05004KT 10SM BKN047 22/11 A3016 RMK AO2 SLP230 T02220106 56004=
201807211956 METAR KPWT 211956Z AUTO 00000KT 10SM BKN043 22/10 A3017 RMK AO2 SLP231 T02170100=
201807211856 METAR KPWT 211856Z AUTO 05006KT 10SM CLR 21/11 A3017 RMK AO2 SLP231 T02060106=
201807211756 METAR KPWT 211756Z AUTO 00000KT 10SM CLR 19/11 A3018 RMK AO2 SLP233 6//// T01940106 10200 20056=
201807211656 METAR KPWT 211656Z AUTO VRB03KT 10SM FEW027 17/11 A3018 RMK AO2 SLP236 T01720106=
201807211556 METAR KPWT 211556Z AUTO 00000KT 10SM CLR 17/11 A3017 RMK AO2 SLP232 T01670106=
201807211456 METAR KPWT 211456Z AUTO 00000KT 10SM CLR 14/11 RMK AO2 SLPNO T01390106 $=
201807211356 METAR KPWT 211356Z AUTO 00000KT 10SM CLR 11/09 A3015 RMK AO2 SLP226 T01060089=
201807211304 SPECI KPWT 211304Z AUTO 00000KT 10SM CLR 07/07 A3015 RMK AO2=
201807211256 METAR KPWT 211256Z AUTO 00000KT 1 3/4SM BR CLR 07/07 A3015 RMK AO2 SLP228 T00720067=
201807211254 SPECI KPWT 211254Z AUTO 00000KT 1 1/2SM BR CLR 07/07 A3015 RMK AO2=
201807211247 SPECI KPWT 211247Z AUTO 00000KT 2SM BR CLR 07/07 A3015 RMK AO2 VIS 1/2V5=
201807211156 METAR KPWT 211156Z AUTO 00000KT 4SM BR CLR 07/07 A3015 RMK AO2 SLP225 6//// 7//// T00720067 10161 20072 51006=
201807211056 METAR KPWT 211056Z AUTO 00000KT 10SM FEW060 08/07 A3014 RMK AO2 SLP223 T00780067=
201807210956 METAR KPWT 210956Z AUTO 00000KT 10SM CLR 08/07 A3013 RMK AO2 SLP221 T00830072=
201807210856 METAR KPWT 210856Z AUTO 00000KT 10SM CLR 09/08 A3013 RMK AO2 SLP219 6//// T00940083 58002=
201807210756 METAR KPWT 210756Z AUTO 00000KT 10SM CLR 12/09 A3013 RMK AO2 SLP220 T01170089 402280111=
201807210656 METAR KPWT 210656Z AUTO 00000KT 10SM CLR 14/09 A3013 RMK AO2 SLP220 T01390094=
201807210556 METAR KPWT 210556Z AUTO 07004KT 10SM SCT047 BKN070 16/10 A3013 RMK AO2 SLP219 T01610100 10228 20150 50004=
201807210456 METAR KPWT 210456Z AUTO 03004KT 10SM CLR 16/10 A3014 RMK AO2 SLP221 T01560100=
201807210356 METAR KPWT 210356Z AUTO 07003KT 10SM FEW050 18/10 A3013 RMK AO2 SLP219 T01780100=
201807210256 METAR KPWT 210256Z AUTO 06006KT 10SM OVC050 21/10 A3012 RMK AO2 SLP216 T02060100 55009=
201807210156 METAR KPWT 210156Z AUTO 04005KT 10SM SCT049 22/11 A3011 RMK AO2 SLP212 T02170106=
201807210056 METAR KPWT 210056Z AUTO 07006KT 10SM FEW046 22/10 A3013 RMK AO2 SLP218 T02170100=
201807202356 METAR KPWT 202356Z AUTO 00000KT 10SM FEW046 21/10 A3015 RMK AO2 SLP225 6//// T02110100 10211 20156 58011=
201807202256 METAR KPWT 202256Z AUTO VRB05KT 10SM BKN044 21/09 A3016 RMK AO2 SLP228 T02060094=
201807202156 METAR KPWT 202156Z AUTO 27004KT 10SM OVC046 20/11 A3017 RMK AO2 SLP233 T02000106=
201807202056 METAR KPWT 202056Z AUTO 23004KT 10SM OVC044 19/10 A3018 RMK AO2 SLP236 6//// T01890100=
201807201956 METAR KPWT 201956Z AUTO 10SM BKN031 OVC042 19/11 RMK AO2 SLPNO T01890106 $=
201807201938 SPECI KPWT 201938Z AUTO 21005KT 10SM BKN028 18/11 A3019 RMK AO2=
201807201856 METAR KPWT 201856Z AUTO VRB05KT 10SM FEW020 OVC033 17/11 A3020 RMK AO2 SLP243 T01670106=
201807201756 METAR KPWT 201756Z AUTO VRB05KT 10SM SCT017 BKN031 OVC043 16/10 A3020 RMK AO2 SLP244 6//// T01560100 10156 20111 53001=
201807201747 SPECI KPWT 201747Z AUTO VRB05KT 10SM BKN017 OVC043 16/10 A3020 RMK AO2=
201807201732 SPECI KPWT 201732Z AUTO 15003KT 10SM SCT017 OVC043 14/10 A3020 RMK AO2=
201807201656 METAR KPWT 201656Z AUTO 17005KT 10SM BKN015 OVC030 14/10 A3020 RMK AO2 SLP243 T01390100=
201807201654 SPECI KPWT 201654Z AUTO VRB03KT 10SM BKN015 OVC030 14/10 A3020 RMK AO2=
201807201556 METAR KPWT 201556Z AUTO 20004KT 10SM BKN030 OVC037 13/09 A3020 RMK AO2 SLP243 T01330094=
201807201456 METAR KPWT 201456Z AUTO 20005KT 10SM FEW035 12/09 A3020 RMK AO2 SLP244 T01170089 53008=
201807201356 METAR KPWT 201356Z AUTO 22005KT 10SM BKN034 OVC050 11/09 A3019 RMK AO2 SLP240 T01110094=
201807201256 METAR KPWT 201256Z AUTO 21003KT 10SM OVC030 11/09 A3018 RMK AO2 SLP236 T01110094=
201807201156 METAR KPWT 201156Z AUTO 19003KT 10SM SCT017 BKN030 OVC050 11/10 A3018 RMK AO2 SLP235 7//// T01110100 10144 20111 52008=
201807201108 SPECI KPWT 201108Z AUTO 00000KT 10SM OVC015 12/10 A3017 RMK AO2=
201807201056 METAR KPWT 201056Z AUTO 00000KT 10SM OVC013 12/10 A3017 RMK AO2 SLP232 T01220100=
201807200956 METAR KPWT 200956Z AUTO 00000KT 10SM OVC013 13/10 A3016 RMK AO2 SLP228 T01280100=
201807200919 SPECI KPWT 200919Z AUTO 20003KT 10SM BKN013 BKN035 OVC049 13/10 A3015 RMK AO2=
201807200856 METAR KPWT 200856Z AUTO 00000KT 10SM FEW013 OVC049 13/11 A3015 RMK AO2 SLP226 T01330106 56001=
201807200756 METAR KPWT 200756Z AUTO 00000KT 10SM OVC047 14/11 A3015 RMK AO2 SLP226 T01440106 401830100=
201807200656 METAR KPWT 200656Z AUTO 00000KT 10SM OVC049 14/11 A3015 RMK AO2 SLP226 T01440106=
201807200556 METAR KPWT 200556Z AUTO 00000KT 10SM BKN047 OVC055 14/11 A3015 RMK AO2 SLP227 T01440106 10178 20139 58001=
201807200456 METAR KPWT 200456Z AUTO 00000KT 10SM OVC043 16/12 A3016 RMK AO2 SLP230 T01560117=
201807200356 METAR KPWT 200356Z AUTO 08003KT 10SM BKN031 OVC041 17/11 A3016 RMK AO2 SLP229 T01670111=
201807200256 METAR KPWT 200256Z AUTO 12003KT 10SM OVC030 17/11 A3016 RMK AO2 SLP228 T01720111 56003=
201807200156 METAR KPWT 200156Z AUTO 00000KT 10SM OVC030 17/11 A3016 RMK AO2 SLP229 T01720111=
201807200056 METAR KPWT 200056Z AUTO 18003KT 10SM OVC032 18/11 A3016 RMK AO2 SLP230 T01780111=
201807192356 METAR KPWT 192356Z AUTO VRB04KT 10SM OVC032 18/11 A3017 RMK AO2 SLP232 T01780111 10183 20139 58005=
201807192256 METAR KPWT 192256Z AUTO 21007KT 10SM OVC030 18/11 A3018 RMK AO2 SLP236 T01780106=
201807192156 METAR KPWT 192156Z AUTO 20008KT 10SM OVC030 18/11 A3018 RMK AO2 SLP237 T01780106=
201807192151 SPECI KPWT 192151Z AUTO 20008KT 10SM OVC030 18/10 A3018 RMK AO2=
201807192056 METAR KPWT 192056Z AUTO 20008KT 10SM OVC028 18/11 A3019 RMK AO2 SLP239 T01780106 56003 TSNO=
201807192054 SPECI KPWT 192054Z AUTO 21009KT 10SM OVC028 18/11 A3019 RMK AO2=
201807192017 SPECI KPWT 192017Z AUTO 22006KT 10SM SCT020 OVC039 17/12 A3019 RMK AO2=
201807191956 METAR KPWT 191956Z AUTO VRB05KT 10SM BKN016 OVC039 17/12 A3019 RMK AO2 SLP240 T01670117=
201807191914 SPECI KPWT 191914Z AUTO 15004KT 10SM OVC010 14/12 A3020 RMK AO2 CIG 008V012=
201807191856 METAR KPWT 191856Z AUTO 18006KT 10SM OVC008 14/12 A3019 RMK AO2 SLP242 T01390117=
201807191852 SPECI KPWT 191852Z AUTO VRB05KT 10SM OVC008 14/12 A3019 RMK AO2=
201807191756 METAR KPWT 191756Z AUTO 19006KT 10SM OVC010 14/11 A3019 RMK AO2 SLP239 6//// T01390111 10139 20122 50002=
201807191724 SPECI KPWT 191724Z AUTO 18005KT 10SM OVC010 14/11 A3019 RMK AO2=
201807191656 METAR KPWT 191656Z AUTO 17004KT 10SM OVC008 13/11 A3019 RMK AO2 SLP240 T01330111=
201807191556 METAR KPWT 191556Z AUTO 19004KT 10SM OVC008 13/11 A3019 RMK AO2 RAB18E28 SLP239 P0000 T01280111=
201807191456 METAR KPWT 191456Z AUTO 22003KT 10SM OVC008 13/11 A3018 RMK AO2 SLP235 T01280111 53008=
201807191356 METAR KPWT 191356Z AUTO 00000KT 10SM OVC008 13/11 A3017 RMK AO2 SLP232 T01280111=
201807191256 METAR KPWT 191256Z AUTO 00000KT 10SM OVC008 13/11 A3016 RMK AO2 SLP227 T01280111=
201807191242 SPECI KPWT 191242Z AUTO 00000KT 10SM BKN008 OVC014 13/11 A3016 RMK AO2=
201807191228 SPECI KPWT 191228Z AUTO 29003KT 10SM BKN010 OVC014 13/11 A3016 RMK AO2 CIG 006V013=
201807191156 METAR KPWT 191156Z AUTO 00000KT 10SM OVC009 12/11 A3016 RMK AO2 SLP227 7//// T01220111 10144 20100 51001=
201807191056 METAR KPWT 191056Z AUTO 00000KT 10SM OVC009 12/11 A3016 RMK AO2 SLP227 T01220106=
201807191016 SPECI KPWT 191016Z AUTO 00000KT 10SM OVC009 12/11 A3016 RMK AO2=
201807190956 METAR KPWT 190956Z AUTO 00000KT 10SM OVC011 11/10 A3016 RMK AO2 SLP228 T01110100=
201807190940 SPECI KPWT 190940Z AUTO 00000KT 10SM BKN011 11/09 A3016 RMK AO2=
201807190856 METAR KPWT 190856Z AUTO 00000KT 10SM CLR 11/10 A3016 RMK AO2 SLP228 T01110100 51001=
201807190756 METAR KPWT 190756Z AUTO 15003KT 10SM BKN050 13/11 A3015 RMK AO2 SLP227 T01280106 402560128=
201807190656 METAR KPWT 190656Z AUTO 18004KT 10SM BKN048 13/11 A3016 RMK AO2 SLP229 T01330106=
201807190556 METAR KPWT 190556Z AUTO 14003KT 10SM CLR 14/11 A3015 RMK AO2 SLP227 6//// T01440106 10256 20144 51009=
201807190456 METAR KPWT 190456Z AUTO 17004KT 10SM CLR 16/11 A3015 RMK AO2 SLP226 T01610106=
201807190356 METAR KPWT 190356Z AUTO 20005KT 10SM CLR 18/11 A3014 RMK AO2 SLP221 T01780111=
201807190256 METAR KPWT 190256Z AUTO 23012KT 10SM CLR 21/12 A3013 RMK AO2 SLP216 T02110122 56007=
201807190156 METAR KPWT 190156Z AUTO 20007KT 10SM OVC043 24/14 A3013 RMK AO2 SLP215 T02390139=
201807190056 METAR KPWT 190056Z AUTO 19005KT 10SM OVC043 24/15 A3014 RMK AO2 SLP218 T02390150=
201807182356 METAR KPWT 182356Z AUTO 25003KT 10SM CLR 24/13 A3015 RMK AO2 SLP222 T02440133 10250 20161 58016=
201807182256 METAR KPWT 182256Z AUTO 29006KT 10SM CLR 24/14 A3016 RMK AO2 SLP228 T02390139=
201807182156 METAR KPWT 182156Z AUTO VRB05KT 10SM CLR 23/14 A3018 RMK AO2 SLP234 T02280139=
201807182056 METAR KPWT 182056Z AUTO 20007KT 10SM FEW028 21/13 A3020 RMK AO2 SLP239 T02110133 58004=
201807182033 SPECI KPWT 182033Z AUTO VRB06KT 10SM SCT023 21/13 A3020 RMK AO2=
201807181956 METAR KPWT 181956Z AUTO 16006KT 10SM BKN021 19/13 A3020 RMK AO2 SLP243 T01890128=
201807181856 METAR KPWT 181856Z AUTO 23006KT 10SM OVC015 17/12 A3021 RMK AO2 SLP245 T01720122 TSNO=
201807181853 SPECI KPWT 181853Z AUTO 00000KT 10SM OVC015 17/12 A3021 RMK AO2=
201807181756 METAR KPWT 181756Z AUTO 22006KT 10SM OVC011 16/12 A3020 RMK AO2 SLP243 6//// T01610122 10161 20133 51007=
201807181656 METAR KPWT 181656Z AUTO 20005KT 10SM OVC011 16/12 A3020 RMK AO2 SLP243 T01560122=
201807181556 METAR KPWT 181556Z AUTO 21005KT 10SM OVC011 15/12 A3019 RMK AO2 SLP241 T01500122=
201807181456 METAR KPWT 181456Z AUTO VRB03KT 10SM OVC011 14/12 A3018 RMK AO2 SLP235 6//// T01440117 53016=
201807181407 SPECI KPWT 181407Z AUTO 22005KT 10SM OVC011 14/12 A3017 RMK AO2=
201807181356 METAR KPWT 181356Z AUTO 22006KT 10SM OVC009 14/12 A3016 RMK AO2 SLP228 T01390122=
201807181256 METAR KPWT 181256Z AUTO 20005KT 10SM OVC007 14/12 A3015 RMK AO2 SLP221 T01390122=
201807181156 METAR KPWT 181156Z AUTO 20006KT 9SM OVC007 14/13 A3013 RMK AO2 CIG 005V009 SLP216 7//// T01390128 10156 20139 53011=
201807181056 METAR KPWT 181056Z AUTO 20005KT 10SM OVC007 14/13 A3012 RMK AO2 SLP211 T01440128=
201807180956 METAR KPWT 180956Z AUTO 21006KT 10SM OVC009 14/13 A3011 RMK AO2 SLP207 T01440128=
201807180856 METAR KPWT 180856Z AUTO 21007KT 10SM OVC009 15/13 A3010 RMK AO2 SLP205 T01500128 52007=
201807180822 SPECI KPWT 180822Z AUTO 21006KT 10SM OVC009 15/13 A3010 RMK AO2=
201807180756 METAR KPWT 180756Z AUTO 21008KT 10SM OVC011 15/13 A3009 RMK AO2 SLP204 T01500128 402830111=
201807180656 METAR KPWT 180656Z AUTO 20007KT 10SM OVC011 15/13 A3009 RMK AO2 SLP201 T01500128=
201807180556 METAR KPWT 180556Z AUTO 20008KT 10SM OVC011 16/13 A3008 RMK AO2 SLP199 6//// T01560133 10278 20144 51018=
201807180456 METAR KPWT 180456Z AUTO 20005KT 10SM BKN013 14/13 A3006 RMK AO2 SLP195 T01440128=
201807180356 METAR KPWT 180356Z AUTO 21006KT 10SM CLR 16/13 A3004 RMK AO2 SLP189 T01610133=
201807180256 METAR KPWT 180256Z AUTO 21010KT 10SM CLR 19/14 A3003 RMK AO2 SLP183 T01890139 53005=
201807180156 METAR KPWT 180156Z AUTO 23010KT 10SM CLR 23/14 A3002 RMK AO2 SLP179 T02330139=
201807180056 METAR KPWT 180056Z AUTO 22012KT 10SM CLR 27/12 A3001 RMK AO2 SLP175 T02670122=
201807172356 METAR KPWT 172356Z AUTO 23011G14KT 10SM CLR 28/12 A3001 RMK AO2 SLP175 T02780122 10283 20217 58009=
201807172256 METAR KPWT 172256Z AUTO 23010KT 210V280 10SM CLR 28/13 A3002 RMK AO2 SLP178 T02830128=
201807172156 METAR KPWT 172156Z AUTO 24008KT 10SM CLR 27/14 A3003 RMK AO2 SLP182 T02720139=
201807172056 METAR KPWT 172056Z AUTO 23006KT 10SM CLR 26/13 A3004 RMK AO2 SLP184 T02610133 57005=
201807171956 METAR KPWT 171956Z AUTO 25006KT 10SM CLR 24/14 A3004 RMK AO2 SLP185 T02440139=
201807171856 METAR KPWT 171856Z AUTO 23006KT 10SM CLR 23/14 A3005 RMK AO2 SLP188 T02330139=
201807171756 METAR KPWT 171756Z AUTO 23007KT 10SM CLR 22/14 A3005 RMK AO2 SLP189 6//// T02170139 10217 20111 50001=
201807171656 METAR KPWT 171656Z AUTO 21007KT 10SM CLR 20/14 A3006 RMK AO2 SLP191 T02000139=
201807171556 METAR KPWT 171556Z AUTO 21008KT 10SM CLR 17/13 A3005 RMK AO2 SLP189 T01720133=
201807171456 METAR KPWT 171456Z AUTO 21007KT 10SM CLR 16/13 A3005 RMK AO2 SLP186 T01560133 53010=
201807171356 METAR KPWT 171356Z AUTO 20004KT 9SM CLR 13/13 A3003 RMK AO2 SLP180 T01330128=
201807171256 METAR KPWT 171256Z AUTO 23003KT 5SM BR CLR 12/11 A3002 RMK AO2 SLP178 T01170111=
201807171156 METAR KPWT 171156Z AUTO 20003KT 10SM CLR 13/12 A3002 RMK AO2 SLP176 7//// T01280122 10189 20117 51007=
201807171056 METAR KPWT 171056Z AUTO 21004KT 10SM CLR 12/12 A3002 RMK AO2 SLP175 T01220117=
201807170956 METAR KPWT 170956Z AUTO 21003KT 10SM CLR 14/12 A3001 RMK AO2 SLP171 T01390122=
201807170856 METAR KPWT 170856Z AUTO 00000KT 10SM CLR 14/12 A3000 RMK AO2 SLP169 T01440117 51004=
201807170756 METAR KPWT 170756Z AUTO 00000KT 10SM CLR 16/12 A3000 RMK AO2 SLP169 T01560117 403390100=
201807170656 METAR KPWT 170656Z AUTO 00000KT 10SM CLR 18/12 A2999 RMK AO2 SLP165 T01830122=
201807170556 METAR KPWT 170556Z AUTO 00000KT 10SM CLR 18/12 A2999 RMK AO2 SLP165 6//// T01830117 10328 20178 51007=
201807170456 METAR KPWT 170456Z AUTO 00000KT 10SM CLR 21/12 A2999 RMK AO2 SLP164 T02110117=
201807170256 METAR KPWT 170256Z AUTO 06004KT 8SM CLR 30/08 A2997 RMK AO2 SLP157 6//// T03000083 55002=
201807170156 METAR KPWT 170156Z AUTO 06007KT 10SM CLR 32/09 A2996 RMK AO2 SLP155 T03170094=
201807170056 METAR KPWT 170056Z AUTO 06008KT 10SM CLR 32/11 A2997 RMK AO2 SLP159 T03220106=
201807162356 METAR KPWT 162356Z AUTO 06010KT 10SM CLR 33/11 A2998 RMK AO2 SLP161 T03280111 10339 20267 58012=
201807162256 METAR KPWT 162256Z AUTO 06007KT 10SM CLR 33/10 A2999 RMK AO2 SLP166 T03280100=
201807162156 METAR KPWT 162156Z AUTO 07006KT 10SM CLR 33/09 A3000 RMK AO2 SLP170 T03280089=
201807162056 METAR KPWT 162056Z AUTO 10006KT 10SM CLR 32/11 A3001 RMK AO2 SLP174 T03170106 58011=
201807161956 METAR KPWT 161956Z AUTO 36004KT 10SM CLR 31/10 A3002 RMK AO2 SLP178 T03060100=
201807161856 METAR KPWT 161856Z AUTO VRB03KT 10SM CLR 30/10 A3004 RMK AO2 SLP182 T03000100=
201807161756 METAR KPWT 161756Z AUTO VRB03KT 10SM CLR 27/10 A3004 RMK AO2 SLP184 T02670100 10272 20106 58001=
201807161656 METAR KPWT 161656Z AUTO 04004KT 10SM CLR 26/09 A3005 RMK AO2 SLP184 T02560089=
201807161556 METAR KPWT 161556Z AUTO 04006KT 10SM CLR 23/09 A3005 RMK AO2 SLP185 T02330089=
201807161456 METAR KPWT 161456Z AUTO 00000KT 10SM CLR 21/09 A3005 RMK AO2 SLP184 T02110094 52010=
201807161356 METAR KPWT 161356Z AUTO 00000KT 10SM CLR 16/10 A3003 RMK AO2 SLP181 T01560100=
201807161256 METAR KPWT 161256Z AUTO 00000KT 10SM CLR 11/08 A3003 RMK AO2 SLP180 T01060083=
201807161156 METAR KPWT 161156Z AUTO 00000KT 10SM CLR 11/08 A3002 RMK AO2 SLP175 6//// 7//// T01110083 10200 20100 53005=
201807161056 METAR KPWT 161056Z AUTO 00000KT 10SM CLR 12/08 A3001 RMK AO2 SLP173 T01170078=
201807160956 METAR KPWT 160956Z AUTO 00000KT 10SM CLR 13/08 A3000 RMK AO2 SLP171 T01280078=
201807160856 METAR KPWT 160856Z AUTO 00000KT 10SM CLR 13/08 A3000 RMK AO2 SLP170 T01280078 51007=
201807160756 METAR KPWT 160756Z AUTO 13003KT 10SM CLR 15/08 A3000 RMK AO2 SLP169 T01500083 403330100=
201807160656 METAR KPWT 160656Z AUTO 00000KT 10SM CLR 17/07 A2999 RMK AO2 SLP167 T01670072=
201807160556 METAR KPWT 160556Z AUTO 00000KT 10SM CLR 19/08 A2998 RMK AO2 SLP162 T01890078 10333 20189 51009=
201807160456 METAR KPWT 160456Z AUTO 04007KT 10SM CLR 24/08 A2998 RMK AO2 SLP160 T02390078=
201807160356 METAR KPWT 160356Z AUTO 04010KT 10SM CLR 26/07 A2996 RMK AO2 SLP155 T02610072=
201807160256 METAR KPWT 160256Z AUTO 05011KT 10SM CLR 29/07 A2995 RMK AO2 SLP152 T02890072 55002=
201807160156 METAR KPWT 160156Z AUTO 05008KT 10SM CLR 31/07 A2995 RMK AO2 SLP151 T03110072=
201807160056 METAR KPWT 160056Z AUTO 06011KT 10SM CLR 32/08 A2995 RMK AO2 SLP152 T03220083=
201807152356 METAR KPWT 152356Z AUTO 04009KT 10SM CLR 33/09 A2996 RMK AO2 SLP156 T03280094 10333 20267 58015=
201807152156 METAR KPWT 152156Z AUTO 04007KT 350V090 10SM CLR 32/11 A2999 RMK AO2 SLP167 T03170106=
201807152056 METAR KPWT 152056Z AUTO 02011G18KT 10SM CLR 31/10 A3000 RMK AO2 SLP171 T03110100 58010=
201807151956 METAR KPWT 151956Z AUTO 04009G14KT 350V080 10SM CLR 29/12 A3002 RMK AO2 SLP175 T02940117=
201807151856 METAR KPWT 151856Z AUTO 05006KT 10SM CLR 28/11 A3002 RMK AO2 SLP176 T02780111=
201807151756 METAR KPWT 151756Z AUTO 05008KT 10SM CLR 27/11 A3003 RMK AO2 SLP181 6//// T02670106 10267 20100 58004=
201807151656 METAR KPWT 151656Z AUTO 06008KT 10SM CLR 24/11 A3004 RMK AO2 SLP184 T02440106=
201807151556 METAR KPWT 151556Z AUTO 05011G15KT 10SM CLR 23/10 A3005 RMK AO2 SLP185 T02280100=
201807151456 METAR KPWT 151456Z AUTO 06006KT 10SM CLR 21/08 A3005 RMK AO2 SLP185 6//// T02110078=
201807151356 METAR KPWT 151356Z AUTO 00000KT 10SM CLR 15/11 A3004 RMK AO2 SLP186 T01500111=
201807151256 METAR KPWT 151256Z AUTO 00000KT 10SM CLR 10/08 A3004 RMK AO2 SLP186 T01000078=
201807151156 METAR KPWT 151156Z AUTO 00000KT 10SM CLR 11/07 RMK AO2 SLPNO 6//// 7//// T01060072 10194 20106 $=
201807151056 METAR KPWT 151056Z AUTO 00000KT 10SM CLR 12/08 A3004 RMK AO2 SLP185 T01170078=
201807150956 METAR KPWT 150956Z AUTO 00000KT 10SM CLR 11/08 A3005 RMK AO2 SLP188 T01110078=
201807150856 METAR KPWT 150856Z AUTO 00000KT 10SM CLR 13/08 A3005 RMK AO2 SLP187 T01280083 56002=
201807150756 METAR KPWT 150756Z AUTO 08003KT 10SM CLR 17/08 A3005 RMK AO2 SLP186 T01720078 402940100=
201807150656 METAR KPWT 150656Z AUTO 07004KT 10SM CLR 19/08 A3004 RMK AO2 SLP185 T01940083=
201807150556 METAR KPWT 150556Z AUTO 00000KT 10SM CLR 16/09 A3005 RMK AO2 SLP190 6//// T01610089 10294 20156 53002=
201807150456 METAR KPWT 150456Z AUTO 00000KT 10SM CLR 21/08 A3006 RMK AO2 SLP189 T02060083=
201807150356 METAR KPWT 150356Z AUTO 05006KT 10SM CLR 24/09 A3004 RMK AO2 SLP185 T02390089=
201807150256 METAR KPWT 150256Z AUTO 03010KT 10SM CLR 27/09 A3005 RMK AO2 SLP186 T02670089 56008=
201807150156 METAR KPWT 150156Z AUTO 05009KT 10SM CLR 28/10 A3005 RMK AO2 SLP189 T02830100=
201807150056 METAR KPWT 150056Z AUTO 05008KT 10SM CLR 29/11 A3006 RMK AO2 SLP191 T02890106=
201807142356 METAR KPWT 142356Z AUTO 06009KT 10SM CLR 29/11 A3007 RMK AO2 SLP196 T02890111 10294 20228 58012=
201807142256 METAR KPWT 142256Z AUTO 04009KT 10SM CLR 29/11 A3009 RMK AO2 SLP201 T02940106=
201807142156 METAR KPWT 142156Z AUTO 05011G16KT 10SM CLR 28/11 A3010 RMK AO2 SLP204 T02780106=
201807142056 METAR KPWT 142056Z AUTO 06011KT 10SM CLR 28/11 A3011 RMK AO2 SLP208 T02780111 58012=
201807141956 METAR KPWT 141956Z AUTO VRB06KT 10SM CLR 26/12 A3013 RMK AO2 SLP214 T02610122=
201807141856 METAR KPWT 141856Z AUTO VRB03KT 10SM CLR 24/12 A3014 RMK AO2 SLP218 T02440117=
201807141756 METAR KPWT 141756Z AUTO 06009KT 10SM CLR 23/11 A3014 RMK AO2 SLP220 T02280111 10228 20100 58006=
201807141656 METAR KPWT 141656Z AUTO 06008KT 10SM CLR 21/11 A3016 RMK AO2 SLP223 T02110111=
201807141556 METAR KPWT 141556Z AUTO 05010KT 10SM CLR 19/11 A3016 RMK AO2 SLP225 T01940106=
201807141456 METAR KPWT 141456Z AUTO 06005KT 10SM CLR 17/11 A3016 RMK AO2 SLP225 T01720111 50006=
201807141356 METAR KPWT 141356Z AUTO 00000KT 10SM CLR 13/11 A3016 RMK AO2 SLP227 T01330111=
201807141256 METAR KPWT 141256Z AUTO 00000KT 10SM CLR 11/09 A3015 RMK AO2 SLP225 T01060094=
201807141156 METAR KPWT 141156Z AUTO 00000KT 10SM CLR 11/09 A3014 RMK AO2 SLP220 6//// 7//// T01060089 10183 20100 51009=
201807141056 METAR KPWT 141056Z AUTO 00000KT 10SM CLR 11/10 A3013 RMK AO2 SLP216 T01110100=
201807140956 METAR KPWT 140956Z AUTO 00000KT 10SM SCT060 13/11 A3013 RMK AO2 SLP214 T01330111=
201807140856 METAR KPWT 140856Z AUTO 00000KT 10SM CLR 13/11 A3012 RMK AO2 SLP211 T01330106 53012=
201807140756 METAR KPWT 140756Z AUTO 00000KT 10SM CLR 14/11 A3010 RMK AO2 SLP206 T01440111 403000111=
201807140656 METAR KPWT 140656Z AUTO 00000KT 10SM CLR 16/11 A3009 RMK AO2 SLP202 T01560111=
201807140556 METAR KPWT 140556Z AUTO 00000KT 10SM CLR 17/10 A3008 RMK AO2 SLP199 T01720100 10289 20172 53013=
201807140456 METAR KPWT 140456Z AUTO 05005KT 10SM CLR 21/10 A3007 RMK AO2 SLP193 T02110100=
201807140356 METAR KPWT 140356Z AUTO 05007KT 10SM CLR 23/09 A3005 RMK AO2 SLP188 T02280089=
201807140156 METAR KPWT 140156Z AUTO 05008KT 10SM CLR 27/12 A3003 RMK AO2 SLP182 T02720122=
201807140056 METAR KPWT 140056Z AUTO 03009KT 10SM CLR 28/12 A3003 RMK AO2 SLP182 T02830122=
201807132356 METAR KPWT 132356Z AUTO 06009KT 10SM CLR 29/13 A3004 RMK AO2 SLP184 6//// T02890128 10300 20233 58007=
201807132256 METAR KPWT 132256Z AUTO 06007KT 030V100 10SM CLR 29/13 A3005 RMK AO2 SLP186 T02940128=
201807132156 METAR KPWT 132156Z AUTO VRB06KT 10SM CLR 29/13 A3005 RMK AO2 SLP188 T02890128=
201807132056 METAR KPWT 132056Z AUTO 06006KT 10SM CLR 28/12 A3006 RMK AO2 SLP190 6//// T02780122 58005=
201807131956 METAR KPWT 131956Z AUTO 01007KT 340V070 10SM CLR 27/12 A3007 RMK AO2 SLP193 T02670122=
201807131856 METAR KPWT 131856Z AUTO 03006KT 10SM CLR 27/13 A3007 RMK AO2 SLP194 T02670128=
201807131756 METAR KPWT 131756Z AUTO VRB05KT 8SM CLR 24/12 A3008 RMK AO2 SLP196 T02390122 10239 20111 58001=
201807131656 METAR KPWT 131656Z AUTO VRB04KT 10SM CLR 22/12 A3009 RMK AO2 SLP198 T02220122=
201807131556 METAR KPWT 131556Z AUTO 07004KT 10SM CLR 21/12 A3008 RMK AO2 SLP196 T02060117=
201807131456 METAR KPWT 131456Z AUTO 00000KT 10SM CLR 19/12 A3008 RMK AO2 SLP196 T01890122 51010=
201807131356 METAR KPWT 131356Z AUTO 00000KT 10SM CLR 15/13 A3007 RMK AO2 SLP194 T01500128=
201807131256 METAR KPWT 131256Z AUTO 00000KT 10SM CLR 12/11 A3006 RMK AO2 SLP191 T01220106=
201807131156 METAR KPWT 131156Z AUTO 00000KT 10SM CLR 12/11 A3005 RMK AO2 SLP187 T01220106 10194 20117 50003=
201807131056 METAR KPWT 131056Z AUTO 12003KT 10SM CLR 14/11 A3005 RMK AO2 SLP188 T01390111=
201807130956 METAR KPWT 130956Z AUTO 06004KT 10SM CLR 16/12 A3005 RMK AO2 SLP186 T01610117=
201807130856 METAR KPWT 130856Z AUTO 06004KT 10SM CLR 17/12 A3004 RMK AO2 SLP183 T01670122 53004=
201807130756 METAR KPWT 130756Z AUTO 00000KT 10SM CLR 17/12 A3003 RMK AO2 SLP181 T01720117 403060094=
201807130656 METAR KPWT 130656Z AUTO 07003KT 10SM CLR 18/12 A3003 RMK AO2 SLP180 T01780117=
201807130556 METAR KPWT 130556Z AUTO 00000KT 10SM CLR 18/12 A3003 RMK AO2 SLP181 T01780117 10306 20178 53008=
201807130456 METAR KPWT 130456Z AUTO 06005KT 10SM CLR 23/12 A3002 RMK AO2 SLP177 T02280117=
201807130356 METAR KPWT 130356Z AUTO 05007KT 10SM CLR 25/11 A3001 RMK AO2 SLP172 T02500106=
201807130256 METAR KPWT 130256Z AUTO 04011KT 10SM CLR 27/10 A3001 RMK AO2 SLP171 T02720100 58008=
201807130156 METAR KPWT 130156Z AUTO 04008KT 10SM CLR 29/11 A3002 RMK AO2 SLP174 T02890111=
201807130056 METAR KPWT 130056Z AUTO 01008KT 10SM CLR 31/13 A3003 RMK AO2 SLP180 T03060133=
201807122356 METAR KPWT 122356Z AUTO 05009KT 10SM CLR 31/13 A3003 RMK AO2 SLP182 T03060128 10306 20233 58015=
201807122256 METAR KPWT 122256Z AUTO 07008KT 040V110 10SM CLR 29/13 A3005 RMK AO2 SLP188 T02940133=
201807122156 METAR KPWT 122156Z AUTO VRB06KT 10SM CLR 29/14 A3006 RMK AO2 SLP192 T02890139=
201807122056 METAR KPWT 122056Z AUTO 11004KT 10SM CLR 28/13 A3008 RMK AO2 SLP197 T02830133 58012=
201807121956 METAR KPWT 121956Z AUTO 06009KT 10SM CLR 27/14 A3009 RMK AO2 SLP202 T02720139=
201807121856 METAR KPWT 121856Z AUTO 05010KT 10SM CLR 25/13 A3011 RMK AO2 SLP208 T02500133=
201807121756 METAR KPWT 121756Z AUTO 04011KT 10SM CLR 24/13 A3011 RMK AO2 SLP209 T02390133 10239 20094 57004=
201807121656 METAR KPWT 121656Z AUTO 06009KT 10SM CLR 23/13 A3011 RMK AO2 SLP209 T02280128=
201807121556 METAR KPWT 121556Z AUTO 05007KT 10SM CLR 21/13 A3012 RMK AO2 SLP212 T02060128=
201807121456 METAR KPWT 121456Z AUTO 04004KT 10SM CLR 19/12 A3012 RMK AO2 SLP212 T01890122 53007=
201807121356 METAR KPWT 121356Z AUTO 00000KT 10SM CLR 16/12 A3011 RMK AO2 SLP210 T01610117=
201807121256 METAR KPWT 121256Z AUTO 00000KT 10SM CLR 11/09 A3010 RMK AO2 SLP207 T01060094=
201807121156 METAR KPWT 121156Z AUTO 00000KT 10SM CLR 11/09 A3010 RMK AO2 SLP207 T01110094 10172 20094 55001=
201807121056 METAR KPWT 121056Z AUTO 00000KT 10SM CLR 12/11 A3010 RMK AO2 SLP205 T01220106=
201807120956 METAR KPWT 120956Z AUTO 03003KT 10SM CLR 13/11 A3010 RMK AO2 SLP207 T01330106=
201807120856 METAR KPWT 120856Z AUTO 00000KT 10SM CLR 12/10 A3010 RMK AO2 SLP208 T01220100 58003=
201807120756 METAR KPWT 120756Z AUTO 00000KT 10SM CLR 13/11 A3011 RMK AO2 SLP209 T01280106 402720094=
201807120656 METAR KPWT 120656Z AUTO 00000KT 10SM CLR 14/11 A3011 RMK AO2 SLP211 T01440106=
201807120556 METAR KPWT 120556Z AUTO 00000KT 10SM CLR 17/12 A3011 RMK AO2 SLP211 T01720117 10272 20172 51007=
201807120456 METAR KPWT 120456Z AUTO 05005KT 10SM CLR 18/12 A3011 RMK AO2 SLP209 T01780117=
201807120356 METAR KPWT 120356Z AUTO 04009KT 10SM CLR 21/11 A3010 RMK AO2 SLP204 T02110111=
201807120256 METAR KPWT 120256Z AUTO 04008KT 10SM CLR 24/11 A3009 RMK AO2 SLP203 T02390111 56007=
201807120156 METAR KPWT 120156Z AUTO 04009KT 10SM CLR 25/12 A3009 RMK AO2 SLP204 T02500117=
201807120056 METAR KPWT 120056Z AUTO 03008KT 10SM CLR 26/12 A3010 RMK AO2 SLP208 T02610122=
201807112356 METAR KPWT 112356Z AUTO 01009KT 10SM CLR 27/13 A3012 RMK AO2 SLP211 T02670128 10267 20217 57018=
201807112256 METAR KPWT 112256Z AUTO 05008KT 10SM CLR 27/13 A3014 RMK AO2 SLP218 T02670128=
201807112156 METAR KPWT 112156Z AUTO 06010G14KT 10SM CLR 25/13 A3015 RMK AO2 SLP223 T02500128=
201807112056 METAR KPWT 112056Z AUTO 06010G16KT 10SM CLR 24/13 A3017 RMK AO2 SLP231 T02440133 58016=
201807111956 METAR KPWT 111956Z AUTO 06007G14KT 030V090 10SM CLR 23/13 A3019 RMK AO2 SLP237 T02330133=
201807111856 METAR KPWT 111856Z AUTO 04008KT 10SM CLR 23/13 A3020 RMK AO2 SLP242 T02280128=
201807111756 METAR KPWT 111756Z AUTO 05009KT 10SM CLR 22/12 A3022 RMK AO2 SLP246 T02170122 10217 20094 56006=
201807111656 METAR KPWT 111656Z AUTO 03007KT 350V070 10SM CLR 21/12 A3022 RMK AO2 SLP249 T02060122=
201807111556 METAR KPWT 111556Z AUTO 05010KT 10SM CLR 18/11 A3022 RMK AO2 SLP249 T01830111=
201807111456 METAR KPWT 111456Z AUTO 05006KT 10SM CLR 16/12 A3023 RMK AO2 SLP252 T01610117 57003=
201807111356 METAR KPWT 111356Z AUTO 21003KT 10SM CLR 13/12 A3024 RMK AO2 SLP255 T01280117=
201807111256 METAR KPWT 111256Z AUTO 00000KT 10SM CLR 10/09 A3024 RMK AO2 SLP255 T01000089=
201807111156 METAR KPWT 111156Z AUTO 06003KT 10SM CLR 12/11 A3024 RMK AO2 SLP257 7//// T01170106 10161 20100 52003=
201807111056 METAR KPWT 111056Z AUTO 05003KT 10SM CLR 11/10 A3024 RMK AO2 SLP257 T01110100=
201807110956 METAR KPWT 110956Z AUTO 04005KT 10SM CLR 12/11 A3023 RMK AO2 SLP253 T01220111=
201807110856 METAR KPWT 110856Z AUTO 00000KT 10SM CLR 11/09 A3024 RMK AO2 SLP255 T01060094 56006=
201807110756 METAR KPWT 110756Z AUTO 00000KT 10SM CLR 12/11 A3024 RMK AO2 SLP254 T01220106 402220111=
201807110656 METAR KPWT 110656Z AUTO 10003KT 10SM CLR 13/11 A3024 RMK AO2 SLP257 T01280106=
201807110556 METAR KPWT 110556Z AUTO 02004KT 10SM CLR 14/11 A3025 RMK AO2 SLP260 T01440111 10222 20144 58001=
201807110456 METAR KPWT 110456Z AUTO 03005KT 10SM CLR 16/12 A3026 RMK AO2 SLP264 T01610117=
201807110356 METAR KPWT 110356Z AUTO 04007KT 10SM SCT070 18/12 A3025 RMK AO2 SLP260 T01830117=
201807110256 METAR KPWT 110256Z AUTO 01005KT 10SM SCT065 BKN085 20/12 A3026 RMK AO2 SLP260 T02000117 55002=
201807110156 METAR KPWT 110156Z AUTO 03006KT 10SM SCT070 OVC085 21/11 A3025 RMK AO2 SLP260 T02060111=
201807110056 METAR KPWT 110056Z AUTO 03006KT 10SM BKN090 22/11 A3026 RMK AO2 SLP260 T02170106=
201807102356 METAR KPWT 102356Z AUTO 03004KT 10SM SCT049 OVC085 22/11 A3026 RMK AO2 SLP262 T02170106 10222 20172 58006=
201807102256 METAR KPWT 102256Z AUTO VRB03KT 10SM BKN047 OVC080 22/11 A3027 RMK AO2 SLP266 T02170111=
201807102156 METAR KPWT 102156Z AUTO 04006KT 10SM SCT040 OVC049 21/11 A3028 RMK AO2 SLP267 T02110111=
201807102056 METAR KPWT 102056Z AUTO 07007KT 10SM BKN036 OVC044 20/11 A3028 RMK AO2 SLP269 T02000111 58001=
201807101956 METAR KPWT 101956Z AUTO VRB03KT 10SM SCT026 BKN045 OVC080 19/12 A3029 RMK AO2 SLP271 T01940122=
201807101856 METAR KPWT 101856Z AUTO 03004KT 10SM SCT022 BKN029 19/12 A3029 RMK AO2 SLP273 T01890122=
201807101756 METAR KPWT 101756Z AUTO VRB03KT 10SM OVC022 17/12 A3028 RMK AO2 SLP271 6//// T01720122 10172 20128 51013=
201807101656 METAR KPWT 101656Z AUTO 00000KT 10SM OVC017 16/12 A3028 RMK AO2 SLP269 T01610117=
201807101629 SPECI KPWT 101629Z AUTO 22003KT 10SM OVC015 16/12 A3027 RMK AO2=
201807101556 METAR KPWT 101556Z AUTO 07003KT 10SM OVC013 15/12 A3027 RMK AO2 SLP266 T01500117=
201807101508 SPECI KPWT 101508Z AUTO 26003KT 10SM BKN013 OVC085 15/12 A3026 RMK AO2=
201807101456 METAR KPWT 101456Z AUTO 26003KT 10SM SCT013 BKN044 BKN085 14/12 A3025 RMK AO2 SLP259 6//// T01440117 51013=
201807101407 SPECI KPWT 101407Z AUTO 29003KT 10SM FEW015 OVC044 14/12 A3024 RMK AO2=
201807101356 METAR KPWT 101356Z AUTO 00000KT 10SM BKN015 BKN021 OVC044 14/11 A3024 RMK AO2 SLP255 T01390111=
201807101256 METAR KPWT 101256Z AUTO 00000KT 10SM OVC015 13/12 A3023 RMK AO2 SLP251 T01330117=
201807101056 METAR KPWT 101056Z AUTO 00000KT 10SM OVC017 13/11 A3020 RMK AO2 RAE10 SLP242 P0000 T01330111=
201807100956 METAR KPWT 100956Z AUTO 00000KT 10SM -RA OVC017 13/11 A3019 RMK AO2 RAB53 SLP240 T01330111=
201807100856 METAR KPWT 100856Z AUTO 00000KT 10SM SCT017 OVC026 14/11 A3018 RMK AO2 SLP234 T01390111 53003=
201807100756 METAR KPWT 100756Z AUTO 00000KT 10SM OVC020 14/11 A3018 RMK AO2 SLP234 T01390111 402220111=
201807100656 METAR KPWT 100656Z AUTO 15003KT 10SM OVC022 14/11 A3017 RMK AO2 SLP232 T01390111=
201807100556 METAR KPWT 100556Z AUTO 15003KT 10SM OVC024 14/12 A3017 RMK AO2 SLP232 60000 T01390117 10183 20128 53005=
201807100531 SPECI KPWT 100531Z AUTO 13003KT 10SM BKN024 BKN110 13/12 A3016 RMK AO2=
201807100456 METAR KPWT 100456Z AUTO 00000KT 10SM FEW025 13/12 A3017 RMK AO2 SLP231 T01330117=
201807100445 SPECI KPWT 100445Z AUTO 00000KT 10SM SCT025 13/12 A3017 RMK AO2=
201807100433 SPECI KPWT 100433Z AUTO 21005KT 10SM BKN025 OVC095 14/12 A3017 RMK AO2=
201807100356 METAR KPWT 100356Z AUTO 19004KT 10SM FEW024 OVC090 15/12 A3016 RMK AO2 RAE0259 SLP227 P0000 T01500122=
201807100256 METAR KPWT 100256Z AUTO 21006KT 10SM -RA CLR 16/13 A3016 RMK AO2 SLP228 P0000 60000 T01560133 58000=
201807100156 METAR KPWT 100156Z AUTO 20006KT 10SM -RA SCT095 16/13 A3016 RMK AO2 SLP228 P0000 T01610133=
201807100056 METAR KPWT 100056Z AUTO 22006KT 10SM -RA CLR 18/12 A3016 RMK AO2 RAB47 SLP230 P0000 T01780122=
201807092356 METAR KPWT 092356Z AUTO 21007KT 10SM CLR 18/12 A3016 RMK AO2 SLP229 6//// T01830122 10222 20183 51010=
201807092256 METAR KPWT 092256Z AUTO 23007KT 10SM FEW027 19/13 A3015 RMK AO2 SLP225 T01940128=
201807092156 METAR KPWT 092156Z AUTO 18010KT 10SM SCT030 20/13 A3014 RMK AO2 SLP221 T02000128=
201807092056 METAR KPWT 092056Z AUTO 20009KT 10SM BKN030 22/13 A3013 RMK AO2 SLP216 T02220133 58002=
201807091956 METAR KPWT 091956Z AUTO 20007KT 10SM BKN026 21/13 A3013 RMK AO2 SLP217 T02110133=
201807091920 SPECI KPWT 091920Z AUTO 22010KT 10SM BKN024 21/13 A3013 RMK AO2=
201807091856 METAR KPWT 091856Z AUTO 19009KT 10SM SCT024 20/13 A3013 RMK AO2 SLP217 T02000128=
201807091756 METAR KPWT 091756Z AUTO 24007KT 10SM SCT022 19/13 A3013 RMK AO2 SLP218 6//// T01940128 10200 20117 58002=
201807091656 SPECI KPWT 091656Z AUTO VRB06KT 10SM SCT016 18/13 A3014 RMK AO2 SLP221 T01780128=
201807091656 METAR KPWT 091656Z AUTO VRB06KT 10SM SCT016 18/13 A3014 RMK AO2 SLP221 T01780128=
201807091645 SPECI KPWT 091645Z AUTO 21005KT 10SM BKN016 17/13 A3014 RMK AO2=
201807091556 METAR KPWT 091556Z AUTO 20003KT 10SM OVC010 16/12 A3015 RMK AO2 SLP223 T01560122=
201807091535 SPECI KPWT 091535Z AUTO 20005KT 10SM OVC010 14/12 A3015 RMK AO2=
201807091456 METAR KPWT 091456Z AUTO 22007KT 10SM OVC008 14/12 A3014 RMK AO2 SLP220 6//// T01390117 53004=
201807091356 METAR KPWT 091356Z AUTO 20005KT 10SM OVC006 13/12 A3013 RMK AO2 SLP217 T01330122=
201807091256 METAR KPWT 091256Z AUTO 22005KT 10SM OVC006 13/12 A3013 RMK AO2 SLP216 T01280117=
201807091156 METAR KPWT 091156Z AUTO 21003KT 10SM OVC006 12/11 A3013 RMK AO2 SLP215 7//// T01170111 10178 20111 51006=
201807091124 SPECI KPWT 091124Z AUTO 21003KT 10SM BKN006 12/11 A3012 RMK AO2=
201807091115 SPECI KPWT 091115Z AUTO 21003KT 10SM SCT006 12/11 A3012 RMK AO2=
201807091056 METAR KPWT 091056Z AUTO 21003KT 10SM CLR 12/11 A3012 RMK AO2 SLP213 T01170111=
201807090956 METAR KPWT 090956Z AUTO 21003KT 10SM CLR 12/11 A3011 RMK AO2 SLP211 T01220111=
201807090856 METAR KPWT 090856Z AUTO 19003KT 10SM CLR 13/12 A3011 RMK AO2 SLP209 T01330117 51008=
201807090756 METAR KPWT 090756Z AUTO 20003KT 10SM CLR 16/12 A3010 RMK AO2 SLP206 T01560122 402670083=
201807090656 METAR KPWT 090656Z AUTO 20003KT 10SM CLR 17/12 A3009 RMK AO2 SLP202 T01670122=
201807090556 METAR KPWT 090556Z AUTO 00000KT 10SM CLR 17/11 A3008 RMK AO2 SLP200 6//// T01670106 10261 20156 52012=
201807090456 METAR KPWT 090456Z AUTO 22003KT 10SM CLR 17/10 A3007 RMK AO2 SLP198 T01720100=
201807090356 METAR KPWT 090356Z AUTO 00000KT 10SM CLR 21/09 A3006 RMK AO2 SLP192 T02060094=
201807090256 METAR KPWT 090256Z AUTO 04007KT 10SM CLR 23/09 A3005 RMK AO2 SLP189 6//// T02280089 53005=
201807090156 METAR KPWT 090156Z AUTO 06009KT 10SM CLR 23/10 A3004 RMK AO2 SLP187 T02330100=
201807090056 METAR KPWT 090056Z AUTO 05012KT 10SM CLR 25/10 A3003 RMK AO2 SLP184 T02500100=
201807082356 METAR KPWT 082356Z AUTO 08009KT 10SM CLR 26/11 A3004 RMK AO2 SLP185 T02610106 10267 20217 56006=
201807082256 METAR KPWT 082256Z AUTO 06008KT 10SM CLR 26/11 A3004 RMK AO2 SLP186 T02610106=
201807082156 METAR KPWT 082156Z AUTO 02007KT 10SM CLR 25/11 A3004 RMK AO2 SLP187 T02500106=
201807082056 METAR KPWT 082056Z AUTO 04007KT 10SM CLR 24/09 A3005 RMK AO2 SLP190 T02390094 57011=
201807081956 METAR KPWT 081956Z AUTO 02008KT 10SM CLR 24/10 A3006 RMK AO2 SLP193 T02390100=
201807081856 METAR KPWT 081856Z AUTO 04009KT 10SM CLR 23/11 A3008 RMK AO2 SLP199 T02280111=
201807081756 METAR KPWT 081756Z AUTO 04008KT 10SM CLR 22/12 A3009 RMK AO2 SLP202 60000 T02170122 10217 20083 56008=
201807081656 METAR KPWT 081656Z AUTO 06008KT 10SM CLR 19/12 A3009 RMK AO2 SLP204 T01940122=
201807081556 METAR KPWT 081556Z AUTO 06006KT 10SM CLR 18/12 A3010 RMK AO2 SLP206 T01830122=
201807081456 METAR KPWT 081456Z AUTO 03006KT 10SM CLR 16/12 A3011 RMK AO2 SLP210 60000 T01560122 58002=
201807081356 METAR KPWT 081356Z AUTO 04005KT 10SM CLR 14/12 A3012 RMK AO2 RAE05 SLP213 P0000 T01390122=
201807081302 SPECI KPWT 081302Z AUTO 00000KT 4SM -RA BR CLR 09/09 A3011 RMK AO2 P0000=
201807081300 SPECI KPWT 081300Z AUTO 00000KT 1 1/2SM -RA BR CLR 09/09 A3011 RMK AO2 VIS 1/2V5 P0000=
201807081256 METAR KPWT 081256Z AUTO 00000KT 3/4SM -RA BR CLR 09/09 A3011 RMK AO2 VIS 1/4V5 RAB42 SLP213 P0000 T00940094=
201807081237 SPECI KPWT 081237Z AUTO 00000KT 3/4SM BR CLR 08/08 A3011 RMK AO2=
201807081225 SPECI KPWT 081225Z AUTO 00000KT 2SM BR CLR 09/09 A3012 RMK AO2 VIS 1/4V5=
201807081222 SPECI KPWT 081222Z AUTO 00000KT 1SM BR CLR 09/09 A3012 RMK AO2 VIS 1/4V5=
201807081218 SPECI KPWT 081218Z AUTO 00000KT 1/2SM FG CLR 09/09 A3012 RMK AO2=
201807081210 SPECI KPWT 081210Z AUTO 00000KT 3/4SM BR CLR 09/09 A3012 RMK AO2 VIS 1/4V5=
201807081207 SPECI KPWT 081207Z AUTO 00000KT 1 1/4SM BR CLR 10/09 A3012 RMK AO2 VIS 1/4V5=
201807081156 METAR KPWT 081156Z AUTO 00000KT 7SM CLR 10/09 A3011 RMK AO2 SLP214 6//// 7//// T01000094 10156 20100 58007=
201807081056 METAR KPWT 081056Z AUTO 00000KT 10SM CLR 10/09 A3013 RMK AO2 SLP217 T01000089=
201807080956 METAR KPWT 080956Z AUTO 00000KT 10SM CLR 11/11 A3013 RMK AO2 SLP219 T01110106=
201807080856 METAR KPWT 080856Z AUTO 07004KT 10SM CLR 13/12 A3014 RMK AO2 SLP220 6//// T01330117 58006=
201807080756 METAR KPWT 080756Z AUTO 06006KT 10SM CLR 14/12 A3014 RMK AO2 SLP222 T01440117 402280133=
201807080656 METAR KPWT 080656Z AUTO 05004KT 10SM CLR 14/11 A3015 RMK AO2 SLP224 T01440111=
201807080556 METAR KPWT 080556Z AUTO 06004KT 10SM CLR 16/12 A3015 RMK AO2 SLP225 6//// T01560122 10228 20156 56001=
201807080356 METAR KPWT 080356Z AUTO 04006KT 10SM BKN041 OVC048 19/12 A3015 RMK AO2 SLP225 T01940122=
201807080256 METAR KPWT 080256Z AUTO 26004KT 10SM BKN049 22/11 A3016 RMK AO2 SLP226 T02170111 55004=
201807080156 METAR KPWT 080156Z AUTO 00000KT 10SM CLR 22/11 A3015 RMK AO2 SLP224 T02170111=
201807080056 METAR KPWT 080056Z AUTO 22007KT 10SM FEW039 BKN060 22/12 A3016 RMK AO2 SLP229 T02170117=
201807072356 METAR KPWT 072356Z AUTO 12005KT 10SM OVC045 21/11 A3017 RMK AO2 SLP230 T02110111 10228 20183 58014=
201807072256 METAR KPWT 072256Z AUTO VRB05KT 10SM BKN038 BKN049 22/12 A3019 RMK AO2 SLP236 T02170117=
201807072156 METAR KPWT 072156Z AUTO 23010KT 10SM BKN040 BKN049 21/13 A3020 RMK AO2 SLP241 T02060128=
201807072056 METAR KPWT 072056Z AUTO 20008G14KT 10SM FEW029 20/12 A3021 RMK AO2 SLP244 T02000117 57005=
201807071956 METAR KPWT 071956Z AUTO 20012G15KT 10SM SCT029 21/12 A3021 RMK AO2 SLP245 T02060122=
201807071856 METAR KPWT 071856Z AUTO 22012KT 10SM CLR 20/12 A3022 RMK AO2 SLP248 T02000117=
201807071756 METAR KPWT 071756Z AUTO 21012G18KT 10SM SCT022 19/12 A3022 RMK AO2 SLP249 T01940122 10194 20133 51002=
201807071749 SPECI KPWT 071749Z AUTO 21012G19KT 10SM SCT022 19/12 A3022 RMK AO2=
201807071656 METAR KPWT 071656Z AUTO 21011KT 170V230 10SM BKN019 17/12 A3022 RMK AO2 SLP249 T01670117=
201807071556 METAR KPWT 071556Z AUTO 20009KT 10SM BKN015 16/12 A3023 RMK AO2 SLP251 T01610122=
201807071525 SPECI KPWT 071525Z AUTO 20008KT 10SM BKN015 BKN060 17/12 A3022 RMK AO2=
201807071456 METAR KPWT 071456Z AUTO 20009KT 10SM FEW012 BKN060 15/12 A3022 RMK AO2 SLP248 T01500122 53007=
201807071446 SPECI KPWT 071446Z AUTO 21010KT 10SM SCT012 BKN060 16/12 A3022 RMK AO2=
201807071433 SPECI KPWT 071433Z AUTO 22011KT 10SM BKN012 BKN019 BKN060 15/12 A3022 RMK AO2=
201807071407 SPECI KPWT 071407Z AUTO 20010KT 10SM SCT006 BKN020 BKN026 14/13 A3021 RMK AO2=
201807071356 METAR KPWT 071356Z AUTO 20008KT 10SM BKN006 BKN027 OVC065 14/13 A3021 RMK AO2 CIG 005V009 SLP245 T01390128=
201807071348 SPECI KPWT 071348Z AUTO 20007KT 10SM SCT006 BKN027 BKN065 14/13 A3021 RMK AO2=
201807071316 SPECI KPWT 071316Z AUTO 19007KT 10SM FEW006 OVC070 13/12 A3020 RMK AO2=
201807071304 SPECI KPWT 071304Z AUTO 20006KT 10SM SCT006 BKN025 OVC070 13/13 A3020 RMK AO2=
201807071256 METAR KPWT 071256Z AUTO 21007KT 10SM SCT006 BKN013 OVC070 14/13 A3020 RMK AO2 SLP241 T01390128=
201807071244 SPECI KPWT 071244Z AUTO 20008KT 10SM SCT006 BKN013 OVC025 14/13 A3020 RMK AO2=
201807071237 SPECI KPWT 071237Z AUTO 21006KT 10SM BKN004 BKN013 OVC027 14/13 A3020 RMK AO2 CIG 004V008=
201807071226 SPECI KPWT 071226Z AUTO 20006KT 10SM SCT004 BKN015 OVC028 13/13 A3020 RMK AO2=
201807071215 SPECI KPWT 071215Z AUTO 20005KT 10SM SCT013 BKN026 OVC070 13/13 A3020 RMK AO2=
201807071156 METAR KPWT 071156Z AUTO 22005KT 10SM FEW007 OVC055 14/12 A3020 RMK AO2 SLP239 7//// T01390122 10150 20133 51005=
201807071114 SPECI KPWT 071114Z AUTO 23008KT 10SM FEW009 SCT037 OVC048 14/12 A3019 RMK AO2=
201807071056 METAR KPWT 071056Z AUTO 21008KT 10SM FEW037 BKN055 OVC085 14/12 A3019 RMK AO2 SLP237 T01390122=
201807071029 SPECI KPWT 071029Z AUTO 22010KT 10SM FEW008 BKN060 OVC085 13/12 A3019 RMK AO2=
201807070956 METAR KPWT 070956Z AUTO 20008KT 10SM OVC049 13/13 A3019 RMK AO2 SLP236 T01330128=
201807070922 SPECI KPWT 070922Z AUTO 19008KT 10SM FEW007 OVC041 14/13 A3019 RMK AO2=
201807070856 METAR KPWT 070856Z AUTO 19009KT 10SM OVC042 14/13 A3018 RMK AO2 SLP235 T01390128 53007=
201807070756 METAR KPWT 070756Z AUTO 20010KT 10SM OVC048 15/12 A3017 RMK AO2 SLP231 T01500117 402440106=
201807070656 METAR KPWT 070656Z AUTO 21015G21KT 10SM BKN046 15/12 A3016 RMK AO2 SLP229 T01500117=
201807070556 METAR KPWT 070556Z AUTO 20009KT 10SM SCT090 15/12 A3016 RMK AO2 SLP227 6//// T01500117 10233 20150 53014=
201807070456 METAR KPWT 070456Z AUTO 22012KT 10SM CLR 16/12 A3015 RMK AO2 SLP224 T01560117=
201807070356 METAR KPWT 070356Z AUTO 22014G18KT 10SM CLR 17/11 A3012 RMK AO2 SLP215 T01670111=
201807070256 METAR KPWT 070256Z AUTO 22016G23KT 10SM CLR 18/11 A3012 RMK AO2 SLP214 6//// T01830111 53009=
201807070156 METAR KPWT 070156Z AUTO 22017G25KT 10SM CLR 21/12 A3010 RMK AO2 PK WND 22027/0057 SLP208 T02060117=
201807070056 METAR KPWT 070056Z AUTO 23018G22KT 10SM CLR 22/11 A3010 RMK AO2 SLP206 T02220111=
201807062356 METAR KPWT 062356Z AUTO 24017G22KT 10SM CLR 23/11 A3009 RMK AO2 PK WND 23027/2338 SLP204 T02330111 10244 20194 56013=
201807062256 METAR KPWT 062256Z AUTO 25013G22KT 10SM CLR 24/11 A3010 RMK AO2 PK WND 22026/2223 SLP205 T02440111=
201807062156 METAR KPWT 062156Z AUTO 23017G22KT 10SM FEW044 23/12 A3011 RMK AO2 SLP208 T02330117=
201807062056 METAR KPWT 062056Z AUTO 23015G23KT 10SM CLR 23/12 A3013 RMK AO2 SLP216 T02280122 58007=
201807061956 METAR KPWT 061956Z AUTO 24016G20KT 10SM BKN036 OVC047 21/12 A3014 RMK AO2 SLP219 T02110122=
201807061856 METAR KPWT 061856Z AUTO 22012G18KT 10SM FEW045 21/12 A3014 RMK AO2 SLP221 T02060122=
201807061756 METAR KPWT 061756Z AUTO 23014G22KT 10SM CLR 21/12 A3015 RMK AO2 SLP222 6//// T02060117 10211 20106 56002=
201807061656 METAR KPWT 061656Z AUTO 22014G20KT 10SM CLR 19/12 A3015 RMK AO2 SLP223 T01940122=
201807061556 METAR KPWT 061556Z AUTO 22012KT 10SM CLR 19/13 A3015 RMK AO2 SLP224 T01890128=
201807061456 METAR KPWT 061456Z AUTO 20007KT 10SM CLR 17/12 A3016 RMK AO2 SLP225 6//// T01670122 53006=
201807061356 METAR KPWT 061356Z AUTO 20003KT 10SM CLR 15/11 A3015 RMK AO2 SLP223 T01500111=
201807061256 METAR KPWT 061256Z AUTO 00000KT 10SM CLR 12/09 A3013 RMK AO2 SLP219 T01170094=
201807061156 METAR KPWT 061156Z AUTO 19003KT 10SM CLR 13/09 A3014 RMK AO2 SLP218 60000 7//// T01280094 10189 20111 55001=
201807061056 METAR KPWT 061056Z AUTO 00000KT 10SM CLR 14/09 A3013 RMK AO2 SLP217 T01390094=
201807060956 METAR KPWT 060956Z AUTO 00000KT 10SM CLR 14/11 A3014 RMK AO2 SLP219 T01440106=
201807060856 METAR KPWT 060856Z AUTO 00000KT 10SM OVC110 16/11 A3014 RMK AO2 RAB02E15 SLP219 P0000 60000 T01610111 51004=
201807060756 METAR KPWT 060756Z AUTO 19006KT 10SM BKN100 17/11 A3014 RMK AO2 SLP219 T01670111 402830100=
201807060656 METAR KPWT 060656Z AUTO 20008KT 10SM FEW110 17/09 A3014 RMK AO2 SLP220 T01720094=
201807060556 METAR KPWT 060556Z AUTO 20005KT 10SM CLR 19/10 A3013 RMK AO2 SLP215 6//// T01890100 10272 20183 53016=
201807060456 METAR KPWT 060456Z AUTO 00000KT 10SM CLR 19/11 A3010 RMK AO2 SLP204 T01940106=
201807060356 METAR KPWT 060356Z AUTO 19007KT 10SM CLR 21/11 A3009 RMK AO2 SLP201 T02110106=
201807060256 METAR KPWT 060256Z AUTO 23014KT 10SM CLR 22/10 A3008 RMK AO2 SLP200 T02220100 51013=
201807060156 METAR KPWT 060156Z AUTO 22012G17KT 10SM CLR 23/09 A3007 RMK AO2 SLP197 T02330094=
201807060056 METAR KPWT 060056Z AUTO 22014G23KT 10SM CLR 24/11 A3007 RMK AO2 SLP197 T02440106=
201807052356 METAR KPWT 052356Z AUTO 24017G22KT 10SM CLR 27/13 A3004 RMK AO2 SLP186 T02720128 10283 20228 53005=
201807052256 METAR KPWT 052256Z AUTO 22013G18KT 10SM CLR 28/13 A3003 RMK AO2 SLP181 T02830133=
201807052156 METAR KPWT 052156Z AUTO 22005KT 10SM CLR 28/13 A3003 RMK AO2 SLP180 T02780133=
201807052056 METAR KPWT 052056Z AUTO VRB04KT 10SM CLR 27/14 A3003 RMK AO2 SLP181 T02720144 58002=
201807051956 METAR KPWT 051956Z AUTO 19004KT 10SM CLR 26/14 A3003 RMK AO2 SLP182 T02610144=
201807051856 METAR KPWT 051856Z AUTO 35006KT 10SM CLR 26/13 A3004 RMK AO2 SLP185 T02560133=
201807051756 METAR KPWT 051756Z AUTO VRB05KT 10SM CLR 23/13 A3004 RMK AO2 SLP184 T02280128 10228 20111 58005=
201807051656 METAR KPWT 051656Z AUTO VRB05KT 10SM CLR 21/12 A3004 RMK AO2 SLP186 T02110122=
201807051556 METAR KPWT 051556Z AUTO VRB03KT 10SM CLR 20/13 A3005 RMK AO2 SLP186 T02000133=
201807051456 METAR KPWT 051456Z AUTO 00000KT 10SM CLR 16/13 A3005 RMK AO2 SLP189 T01610128 50000=
201807051356 METAR KPWT 051356Z AUTO 27003KT 10SM FEW004 14/12 A3005 RMK AO2 SLP190 T01390122=
201807051352 SPECI KPWT 051352Z AUTO 28003KT 10SM FEW004 14/12 A3006 RMK AO2=
201807051256 METAR KPWT 051256Z AUTO 00000KT 10SM CLR 12/11 A3005 RMK AO2 SLP190 T01170111=
201807051156 METAR KPWT 051156Z AUTO 00000KT 10SM CLR 12/12 A3003 RMK AO2 SLP182 6//// 7//// T01220117 10167 20100 53004=
201807051056 METAR KPWT 051056Z AUTO 00000KT 10SM CLR 12/12 A3001 RMK AO2 SLP177 T01220117=
201807050956 METAR KPWT 050956Z AUTO 20003KT 10SM CLR 12/11 A3001 RMK AO2 SLP175 T01220111=
201807050856 METAR KPWT 050856Z AUTO 22003KT 10SM CLR 13/12 A3002 RMK AO2 SLP177 T01330117 51006=
201807050756 METAR KPWT 050756Z AUTO 19004KT 10SM CLR 14/12 A3001 RMK AO2 SLP176 T01440122 402780133=
201807050656 METAR KPWT 050656Z AUTO 20003KT 10SM CLR 16/13 A3001 RMK AO2 SLP175 T01560128=
201807050556 METAR KPWT 050556Z AUTO 22005KT 10SM CLR 17/13 A3000 RMK AO2 SLP171 T01670128 10250 20167 53011=
201807050456 METAR KPWT 050456Z AUTO 22009KT 10SM BKN120 18/13 A2999 RMK AO2 SLP170 T01830133=
201807050256 METAR KPWT 050256Z AUTO 32003KT 10SM SCT100 23/12 A2997 RMK AO2 SLP159 T02330122 53007=
201807050156 METAR KPWT 050156Z AUTO 20007KT 10SM FEW080 BKN100 23/12 A2997 RMK AO2 SLP162 T02330117=
201807050056 METAR KPWT 050056Z AUTO 06008KT 10SM SCT110 24/10 A2993 RMK AO2 SLP149 T02440100=
201807042356 METAR KPWT 042356Z AUTO 03003KT 10SM SCT110 25/11 A2994 RMK AO2 SLP152 T02500106 10278 20228 53005=
201807042256 METAR KPWT 042256Z AUTO 03005KT 10SM CLR 26/11 A2994 RMK AO2 SLP150 T02560106=
201807042156 METAR KPWT 042156Z AUTO 36011KT 10SM CLR 26/11 A2992 RMK AO2 SLP142 T02610111=
201807042056 METAR KPWT 042056Z AUTO 02010KT 10SM CLR 27/11 A2993 RMK AO2 SLP146 T02670106 55001=
201807041956 METAR KPWT 041956Z AUTO 03010KT 10SM CLR 26/11 A2992 RMK AO2 SLP145 T02610106=
201807041856 METAR KPWT 041856Z AUTO 03012KT 10SM CLR 25/10 A2993 RMK AO2 SLP148 T02500100=
201807041756 METAR KPWT 041756Z AUTO 05012KT 10SM CLR 23/11 A2993 RMK AO2 SLP148 6//// T02330111 10233 20150 58007=
201807041656 METAR KPWT 041656Z AUTO 03008KT 10SM CLR 21/11 A2995 RMK AO2 SLP154 T02060106=
201807041556 METAR KPWT 041556Z AUTO 05011KT 10SM CLR 19/10 A2995 RMK AO2 SLP157 T01890100=
201807041456 METAR KPWT 041456Z AUTO 04011KT 10SM CLR 18/10 A2995 RMK AO2 SLP155 6//// T01830100 51004=
201807041356 METAR KPWT 041356Z AUTO 05013KT 10SM CLR 17/09 A2995 RMK AO2 SLP155 T01670094=
201807041256 METAR KPWT 041256Z AUTO 04010KT 10SM CLR 15/08 A2995 RMK AO2 SLP155 T01500083=
201807041156 METAR KPWT 041156Z AUTO 05012KT 10SM CLR 16/08 A2994 RMK AO2 SLP152 7//// T01560078 10161 20133 58009=
201807041056 METAR KPWT 041056Z AUTO 05012KT 10SM CLR 14/08 A2995 RMK AO2 SLP155 T01440083=
201807040956 METAR KPWT 040956Z AUTO 04010KT 10SM CLR 14/08 A2996 RMK AO2 SLP158 T01440083=
201807040856 METAR KPWT 040856Z AUTO 05008KT 10SM CLR 14/08 A2997 RMK AO2 SLP162 T01390083 58014=
201807040756 METAR KPWT 040756Z AUTO 05008KT 10SM CLR 14/08 A2999 RMK AO2 SLP169 T01440083 402330056=
201807040656 METAR KPWT 040656Z AUTO 06008KT 10SM CLR 15/08 A3000 RMK AO2 SLP173 T01500078=
201807040556 METAR KPWT 040556Z AUTO 02004KT 10SM CLR 16/07 A3001 RMK AO2 SLP178 T01560072 10233 20156 58003=
201807040456 METAR KPWT 040456Z AUTO 03006KT 10SM CLR 17/08 A3002 RMK AO2 SLP181 T01670078=
201807040356 METAR KPWT 040356Z AUTO 03007KT 10SM CLR 18/08 A3002 RMK AO2 SLP181 T01780083=
201807040256 METAR KPWT 040256Z AUTO 05008KT 10SM CLR 21/09 A3002 RMK AO2 SLP181 T02110089 56015=
201807040156 METAR KPWT 040156Z AUTO 07007KT 10SM CLR 22/09 A3003 RMK AO2 SLP183 T02220089=
201807040056 METAR KPWT 040056Z AUTO 07008KT 10SM CLR 23/09 A3004 RMK AO2 SLP188 T02280094=
201807032356 METAR KPWT 032356Z AUTO 01008KT 10SM CLR 23/09 A3006 RMK AO2 SLP195 6//// T02330089 10233 20139 58018=
201807032256 METAR KPWT 032256Z AUTO 06008KT 10SM CLR 23/09 A3008 RMK AO2 SLP203 T02280089=
201807032156 METAR KPWT 032156Z AUTO 04007KT 10SM CLR 23/09 A3010 RMK AO2 SLP209 T02330094=
201807032056 METAR KPWT 032056Z AUTO 29004KT 10SM SCT047 22/09 A3012 RMK AO2 SLP215 6//// T02170094 58017=
201807031956 METAR KPWT 031956Z AUTO 00000KT 10SM CLR 19/09 A3014 RMK AO2 SLP223 T01940089=
201807031856 METAR KPWT 031856Z AUTO VRB03KT 10SM CLR 18/09 A3016 RMK AO2 SLP229 T01780094=
201807031756 METAR KPWT 031756Z AUTO VRB04KT 10SM FEW010 14/11 A3017 RMK AO2 SLP234 60000 T01440106 10150 20083 58008=
201807031748 SPECI KPWT 031748Z AUTO 29005KT 10SM SCT008 14/11 A3017 RMK AO2=
201807031719 SPECI KPWT 031719Z AUTO 30004KT 10SM OVC006 13/11 A3018 RMK AO2 CIG 004V008=
201807031656 METAR KPWT 031656Z AUTO VRB04KT 10SM OVC004 11/10 A3018 RMK AO2 RAE1557 SLP240 T01110100=
201807031654 SPECI KPWT 031654Z AUTO VRB03KT 10SM OVC004 11/10 A3018 RMK AO2 RAE1557=
201807031602 SPECI KPWT 031602Z AUTO 25004KT 3SM BR OVC002 10/10 A3019 RMK AO2 RAE1557=
201807031556 METAR KPWT 031556Z AUTO 22004KT 1 1/2SM -RA BR OVC002 10/10 A3019 RMK AO2 VIS 3/4V5 SLP241 P0000 T01000100=
201807031547 SPECI KPWT 031547Z AUTO 19004KT 1SM -RA BR OVC002 10/10 A3019 RMK AO2 P0000=
201807031527 SPECI KPWT 031527Z AUTO 23003KT 1/2SM -RA FG OVC002 09/09 A3019 RMK AO2 P0000=
201807031456 METAR KPWT 031456Z AUTO 19004KT 1/4SM -RA FG OVC002 09/09 A3019 RMK AO2 SLP242 P0000 60000 T00940094 56003=
201807031356 METAR KPWT 031356Z AUTO 19003KT 1/4SM -RA FG OVC002 09/09 A3019 RMK AO2 SLP242 P0000 T00890089=
201807031256 METAR KPWT 031256Z AUTO 20003KT M1/4SM -RA FG OVC002 09/08 A3019 RMK AO2 SLP242 P0000 T00890083=
201807031156 METAR KPWT 031156Z AUTO 19004KT 1/4SM -RA FG OVC002 08/08 A3020 RMK AO2 RAB16 SLP245 P0000 60000 7//// T00830083 10094 20056 53001=
201807031151 SPECI KPWT 031151Z AUTO 19003KT 1/4SM -RA FG OVC002 08/08 A3020 RMK AO2 RAB16 P0000=
201807031144 SPECI KPWT 031144Z AUTO 21003KT 1/2SM -RA FG OVC002 08/08 A3020 RMK AO2 RAB16 P0000=
201807031108 SPECI KPWT 031108Z AUTO 23003KT 1/4SM FG OVC002 07/07 A3019 RMK AO2=
201807031059 SPECI KPWT 031059Z AUTO 00000KT 1/2SM FG BKN002 07/07 A3019 RMK AO2=
201807031056 METAR KPWT 031056Z AUTO 00000KT 1SM BR BKN002 07/07 A3019 RMK AO2 SLP242 T00720067=
201807031052 SPECI KPWT 031052Z AUTO 00000KT 1 1/4SM BR BKN002 07/07 A3019 RMK AO2=
201807031045 SPECI KPWT 031045Z AUTO 20004KT 3/4SM BR VV002 06/06 A3020 RMK AO2=
201807031042 SPECI KPWT 031042Z AUTO 20003KT 1 1/2SM BR FEW002 06/06 A3020 RMK AO2 VIS 1/4V5=
201807030956 METAR KPWT 030956Z AUTO 00000KT 8SM CLR 07/07 A3020 RMK AO2 SLP244 T00720067=
201807030856 METAR KPWT 030856Z AUTO 00000KT 10SM CLR 07/07 A3020 RMK AO2 SLP245 T00720067 55002=
201807030756 METAR KPWT 030756Z AUTO 00000KT 10SM CLR 07/07 A3020 RMK AO2 SLP243 T00720067 402060067=
201807030656 METAR KPWT 030656Z AUTO 00000KT 10SM CLR 08/06 A3020 RMK AO2 SLP244 T00830061=
201807030556 METAR KPWT 030556Z AUTO 00000KT 10SM CLR 08/07 A3021 RMK AO2 SLP247 60000 T00830067 10194 20083=
201807030456 METAR KPWT 030456Z AUTO 00000KT 10SM CLR 11/07 A3021 RMK AO2 SLP247 T01060072=
201807030356 METAR KPWT 030356Z AUTO 05004KT 10SM CLR 15/07 A3020 RMK AO2 SLP243 T01500072=
201807030256 METAR KPWT 030256Z AUTO 04005KT 10SM CLR 17/07 RMK AO2 SLPNO 60000 T01720072 $=
201807030156 METAR KPWT 030156Z AUTO 04007KT 10SM FEW080 18/07 A3019 RMK AO2 SLP239 T01780072=
201807030056 METAR KPWT 030056Z AUTO 02006KT 10SM BKN050 BKN055 19/08 A3019 RMK AO2 RAE09 SLP240 P0000 T01890078=
201807022356 METAR KPWT 022356Z AUTO 06008KT 10SM -RA BKN055 BKN075 18/09 A3019 RMK AO2 RAB46 SLP240 P0000 60000 T01780094 10206 20161 55002=
201807022256 METAR KPWT 022256Z AUTO 12008KT 10SM BKN050 19/07 A3018 RMK AO2 SLP237 T01890067=
201807022156 METAR KPWT 022156Z AUTO 03009KT 10SM BKN050 OVC080 19/08 A3019 RMK AO2 SLP239 T01940078=
201807022056 METAR KPWT 022056Z AUTO 04010KT 10SM BKN041 BKN055 OVC090 18/08 A3019 RMK AO2 SLP241 T01830083 58001=
201807021956 METAR KPWT 021956Z AUTO 06008KT 10SM SCT044 BKN060 OVC075 18/08 A3020 RMK AO2 SLP242 T01780078=
201807021856 METAR KPWT 021856Z AUTO 05008KT 020V080 10SM SCT048 SCT060 BKN080 18/09 A3020 RMK AO2 SLP243 T01780089=
201807021756 METAR KPWT 021756Z AUTO VRB05KT 10SM FEW065 17/08 A3020 RMK AO2 SLP242 6//// T01720078 10172 20078 58003=
201807021656 METAR KPWT 021656Z AUTO VRB04KT 10SM CLR 16/09 A3020 RMK AO2 SLP245 T01560089=
201807021609 SPECI KPWT 021609Z AUTO VRB04KT 10SM FEW018 SCT027 14/09 A3020 RMK AO2=
201807021556 METAR KPWT 021556Z AUTO 00000KT 10SM BKN018 BKN027 13/09 A3021 RMK AO2 SLP247 T01330094=
201807021456 METAR KPWT 021456Z AUTO 00000KT 10SM BKN016 BKN024 13/09 A3021 RMK AO2 SLP246 6//// T01280089 53004=
201807021447 SPECI KPWT 021447Z AUTO 00000KT 10SM BKN016 13/09 A3021 RMK AO2=
201807021356 METAR KPWT 021356Z AUTO 12003KT 10SM FEW065 12/09 A3019 RMK AO2 SLP241 T01220094=
201807021256 METAR KPWT 021256Z AUTO 00000KT 10SM FEW037 08/07 A3020 RMK AO2 SLP244 T00780072=
201807021156 METAR KPWT 021156Z AUTO 00000KT 10SM SCT019 OVC034 11/09 A3019 RMK AO2 SLP241 7//// T01060089 10133 20100 53000=
201807021132 SPECI KPWT 021132Z AUTO 00000KT 10SM BKN021 OVC038 11/08 A3019 RMK AO2=
201807021056 METAR KPWT 021056Z AUTO 00000KT 10SM SCT019 BKN038 11/09 A3019 RMK AO2 SLP240 T01110089=
201807021032 SPECI KPWT 021032Z AUTO 00000KT 10SM BKN019 OVC034 11/09 A3019 RMK AO2=
201807020956 METAR KPWT 020956Z AUTO 00000KT 10SM OVC034 12/09 A3019 RMK AO2 SLP241 T01170089=
201807020856 METAR KPWT 020856Z AUTO 05003KT 10SM FEW025 BKN034 BKN055 11/09 A3019 RMK AO2 SLP240 T01110089 51001=
201807020756 METAR KPWT 020756Z AUTO 05004KT 10SM OVC034 13/09 A3019 RMK AO2 SLP240 T01280094 401890128=
201807020656 METAR KPWT 020656Z AUTO 05007KT 10SM OVC040 13/09 A3019 RMK AO2 SLP239 T01280094=
201807020556 METAR KPWT 020556Z AUTO 06006KT 10SM OVC038 13/09 A3019 RMK AO2 SLP239 T01330094 10178 20133 56001=
201807020456 METAR KPWT 020456Z AUTO 06006KT 10SM OVC038 13/09 A3019 RMK AO2 SLP240 T01330094=
201807020356 METAR KPWT 020356Z AUTO 06009KT 10SM SCT035 BKN042 13/09 A3019 RMK AO2 SLP239 T01330094=
201807020256 METAR KPWT 020256Z AUTO 04010KT 10SM SCT037 15/11 A3019 RMK AO2 SLP240 T01500106 55003=
201807020156 METAR KPWT 020156Z AUTO 06009KT 10SM CLR 17/11 A3018 RMK AO2 SLP238 T01670111=
201807020056 METAR KPWT 020056Z AUTO 07010KT 10SM FEW045 17/12 A3019 RMK AO2 SLP240 T01720117=
201807012356 METAR KPWT 012356Z AUTO 05013KT 10SM BKN043 18/12 A3020 RMK AO2 SLP242 T01780122 10189 20161 54000=
201807012256 METAR KPWT 012256Z AUTO 05011KT 10SM OVC039 17/13 A3020 RMK AO2 SLP243 T01670128=
201807012156 METAR KPWT 012156Z AUTO VRB04KT 10SM OVC035 18/11 A3020 RMK AO2 SLP241 T01830111=
201807012056 METAR KPWT 012056Z AUTO 18004KT 10SM OVC041 18/11 A3020 RMK AO2 SLP241 T01830111 58002=
201807011956 METAR KPWT 011956Z AUTO 17007KT 140V220 10SM BKN031 OVC039 18/11 A3020 RMK AO2 SLP244 T01830111=
201807011917 SPECI KPWT 011917Z AUTO 19008KT 160V240 10SM SCT029 OVC050 19/12 A3021 RMK AO2=
201807011856 METAR KPWT 011856Z AUTO 19007KT 10SM BKN027 OVC050 18/12 A3020 RMK AO2 SLP243 T01830117=
201807011853 SPECI KPWT 011853Z AUTO 20006KT 10SM BKN027 BKN041 OVC050 18/11 A3020 RMK AO2=
201807011823 SPECI KPWT 011823Z AUTO 20005KT 10SM SCT023 SCT041 BKN055 18/11 RMK AO2 $=
201807011756 METAR KPWT 011756Z AUTO 16008KT 10SM BKN021 OVC043 17/12 A3020 RMK AO2 SLP243 6//// T01670117 10172 20128 58003=
201807011656 METAR KPWT 011656Z AUTO VRB03KT 10SM OVC015 16/12 A3021 RMK AO2 SLP245 T01610117=
201807011654 SPECI KPWT 011654Z AUTO 28004KT 10SM OVC015 16/12 A3021 RMK AO2=
201807011616 SPECI KPWT 011616Z AUTO 20005KT 10SM OVC011 14/12 A3020 RMK AO2=
201807011556 METAR KPWT 011556Z AUTO 20006KT 10SM OVC009 14/12 A3021 RMK AO2 SLP246 T01440117=
201807011456 METAR KPWT 011456Z AUTO 21007KT 10SM OVC007 13/12 A3020 RMK AO2 SLP244 T01330117 51008=
201807011435 SPECI KPWT 011435Z AUTO 21005KT 10SM OVC007 13/12 A3020 RMK AO2 CIG 005V009=
201807011356 METAR KPWT 011356Z AUTO 19004KT 10SM OVC005 13/12 A3020 RMK AO2 SLP241 T01330122=
201807011256 METAR KPWT 011256Z AUTO 19004KT 10SM OVC005 13/12 A3019 RMK AO2 SLP238 T01280122=
201807011243 SPECI KPWT 011243Z AUTO 21003KT 10SM OVC005 13/12 A3018 RMK AO2=
201807011156 METAR KPWT 011156Z AUTO 20004KT 10SM OVC006 13/12 A3018 RMK AO2 SLP235 7//// T01330122 10139 20133 55000=
201807011056 METAR KPWT 011056Z AUTO 19003KT 10SM OVC006 13/12 A3018 RMK AO2 SLP234 T01330122=
201807010956 METAR KPWT 010956Z AUTO 21004KT 10SM OVC006 13/ A3018 RMK AO2 SLP235 T0133=
201807010856 METAR KPWT 010856Z AUTO 20005KT 10SM OVC008 13/12 A3018 RMK AO2 SLP236 T01330122 51001=
201807010756 METAR KPWT 010756Z AUTO 21004KT 10SM OVC008 14/12 A3018 RMK AO2 SLP236 T01390122 402000106=
201807010733 SPECI KPWT 010733Z AUTO 21004KT 10SM OVC008 14/12 RMK AO2 $=
201807010656 METAR KPWT 010656Z AUTO 21005KT 10SM BKN010 OVC028 14/12 A3018 RMK AO2 SLP235 T01390122=
201807010612 SPECI KPWT 010612Z AUTO VRB03KT 10SM SCT010 OVC028 14/12 A3018 RMK AO2=
201807010556 METAR KPWT 010556Z AUTO 19005KT 10SM OVC012 14/12 A3018 RMK AO2 SLP236 6//// T01390122 10183 20139 50002=
201807010456 METAR KPWT 010456Z AUTO 20004KT 10SM OVC014 14/12 A3018 RMK AO2 SLP236 T01440122=
201807010452 SPECI KPWT 010452Z AUTO 19004KT 10SM OVC014 14/12 A3018 RMK AO2=
201807010256 METAR KPWT 010256Z AUTO 21009KT 10SM OVC029 16/12 A3016 RMK AO2 SLP231 T01610122 53001=
201807010225 SPECI KPWT 010225Z AUTO 22013KT 10SM OVC030 17/12 A3016 RMK AO2=
201807010156 METAR KPWT 010156Z AUTO 22012KT 10SM OVC026 17/12 A3016 RMK AO2 SLP231 T01720117=
201807010056 METAR KPWT 010056Z AUTO 21014KT 10SM BKN028 BKN046 18/12 A3016 RMK AO2 SLP229 T01780122=
201807010052 SPECI KPWT 010052Z AUTO 22014KT 10SM BKN028 BKN046 18/12 A3016 RMK AO2=

# No short TAF reports from KPWT in databse.

###################################
#  large TAF from KPWT
###################################
201807312327 TAF KPWT 312327Z 0100/0124 24010KT P6SM SKC FM010600 19007KT P6SM
                       OVC005 FM011500 19007KT P6SM OVC012 FM012100
                       21009KT P6SM FEW028 SCT250=
201807311740 TAF KPWT 311740Z 3118/0118 21010KT P6SM OVC010 FM312000 21010KT
                       P6SM SKC FM010600 19007KT P6SM OVC005 FM011500
                       19007KT P6SM OVC012=
201807311654 KPWT 311654Z 3117/0112 19008KT P6SM OVC007 FM311900 20008KT P6SM
                       FEW010 BKN250 FM312100 20011KT P6SM SCT250
                       FM010800 19006KT P6SM OVC009=
201807311122 TAF KPWT 311122Z 3112/0112 20007KT P6SM OVC004
                      TEMPO 3117/3119 SCT008 BKN250 FM311900 20008KT
                       P6SM FEW010 BKN250 FM312100 20011KT P6SM
                       SCT250 FM010800 19006KT P6SM OVC009=
201807310714 KPWT 310714Z 3107/0106 20007KT P6SM OVC006
                      TEMPO 3117/3120 SCT008 BKN250 FM312000 20008KT
                       P6SM BKN250 FM312100 20011G17KT P6SM FEW250
                       FM312200 20009KT P6SM SKC=
201807310526 TAF KPWT 310526Z 3106/0106 21007KT P6SM FEW250 FM310900 20007KT
                       P6SM OVC007 FM311700 20008KT P6SM BKN250
                       FM312100 20011G17KT P6SM FEW250 FM312200
                       20009KT P6SM SKC=
201807302331 TAF KPWT 302331Z 3100/3124 22006KT P6SM SKC FM310900 19008KT P6SM
                       SCT010
                      TEMPO 3109/3111 BKN010 FM311100 19008KT 5SM
                       BR OVC004 FM311800 21009KT P6SM BKN009 BKN250
                       FM311900 21009KT P6SM FEW030 BKN250=
201807301741 TAF KPWT 301741Z 3018/3118 23005KT P6SM SKC FM302100 21007KT P6SM
                       SKC FM310900 19008KT P6SM SCT010
                      TEMPO 3109/3111 BKN010 FM311100 19008KT 5SM
                       BR OVC004=
201807301120 TAF KPWT 301120Z 3012/3112 22004KT P6SM SKC FM302300 20007KT P6SM
                       SKC FM311100 20008KT 5SM BR OVC004=
201807300526 TAF KPWT 300526Z 3006/3106 00000KT P6SM SKC FM300900 22004KT P6SM
                       SKC=
201807292327 TAF KPWT 292327Z 3000/3024 04010KT P6SM SKC FM300400 VRB03KT P6SM
                       SKC=
201807291720 TAF KPWT 291720Z 2918/3018 03006KT P6SM SKC FM300400 VRB03KT P6SM
                       SKC=
201807291120 TAF KPWT 291120Z 2912/3012 VRB03KT P6SM SKC FM291700 03006KT P6SM
                       SKC FM300400 VRB03KT P6SM SKC=
201807290520 TAF KPWT 290520Z 2906/3006 12003KT P6SM SKC FM291200 VRB03KT P6SM
                       SCT004 FM291700 32006KT P6SM SKC=
201807282320 TAF KPWT 282320Z 2900/2924 VRB04KT P6SM SKC FM291200 20006KT 5SM
                       BR BKN002
                      TEMPO 2912/2916 1SM BR FM291700 VRB04KT P6SM
                       SKC=
201807281720 TAF KPWT 281720Z 2818/2918 VRB04KT P6SM SCT090 FM291200 20006KT
                       5SM BR BKN004
                      TEMPO 2912/2916 2SM BR BKN002 FM291700 VRB04KT
                       P6SM SKC=
201807281120 TAF KPWT 281120Z 2812/2912 20007KT 4SM BR BKN003
                      TEMPO 2812/2816 1/2SM FG VV002 FM281700 20005KT
                       P6SM SCT120 FM290300 VRB03KT P6SM SKC=
201807280522 TAF KPWT 280522Z 2806/2906 21005KT P6SM FEW250 FM281200 20007KT
                       3SM BR BKN003
                      TEMPO 2812/2816 1/2SM FG VV002 FM281700 VRB04KT
                       P6SM SCT120=
201807272320 TAF KPWT 272320Z 2800/2824 23007KT P6SM SKC FM281200 20007KT 3SM
                       BR BKN003
                      TEMPO 2812/2816 1/2SM FG VV002 FM281700 VRB04KT
                       P6SM SCT120=
201807271720 TAF KPWT 271720Z 2718/2818 20005KT P6SM SKC FM280000 VRB05KT P6SM
                       SCT120 FM280600 20007KT P6SM BKN120 FM281200
                       20007KT 3SM BR BKN003
                      TEMPO 2812/2816 1/2SM FG VV002 FM281700 VRB04KT
                       P6SM SCT120=
201807271403 KPWT 271403Z 2714/2812 20005KT 5SM BR OVC003
                      TEMPO 2714/2716 3/4SM BR OVC001 FM271700
                       19005KT P6SM SKC FM280000 VRB03KT P6SM SKC
                       FM280600 VRB03KT P6SM SCT120=
201807271202 KPWT 271202Z 2712/2812 20005KT P6SM OVC005
                      TEMPO 2712/2716 3/4SM BR OVC003 FM271700
                       19005KT P6SM SKC FM280000 VRB03KT P6SM SKC
                       FM280600 VRB03KT P6SM SCT120=
201807271120 TAF KPWT 271120Z 2712/2812 20005KT P6SM OVC005 FM271700 19005KT
                       P6SM SKC FM280000 VRB03KT P6SM SKC FM280600
                       VRB03KT P6SM SCT120=
201807270539 TAF KPWT 270539Z 2706/2806 21005KT P6SM SKC FM271300 20005KT P6SM
                       SCT007 FM271700 19005KT P6SM SKC FM280000
                       VRB03KT P6SM SCT120=
201807262320 TAF KPWT 262320Z 2700/2724 VRB04KT P6SM SKC
                      TEMPO 2700/2704 29007KT=
201807261720 TAF KPWT 261720Z 2618/2718 VRB04KT P6SM SKC=
201807261121 TAF KPWT 261121Z 2612/2712 VRB04KT P6SM SKC FM262200 05006KT P6SM
                       FEW120 FM270800 20004KT P6SM SKC=
201807260602 KPWT 260602Z 2606/2706 VRB04KT P6SM SKC FM262200 05006KT P6SM FEW060=
201807260551 TAF KPWT 260551Z 2606/2706 VRB04KT P6SM SKC=
201807252320 TAF KPWT 252320Z 2600/2624 05006KT P6SM SKC FM260500 VRB04KT P6SM
                       SKC=
201807251720 TAF KPWT 251720Z 2518/2618 05006KT P6SM SKC FM260500 VRB04KT P6SM
                       SKC=
201807251131 TAF KPWT 251131Z 2512/2612 00000KT P6SM SKC FM251900 05006KT P6SM
                       SKC FM260500 VRB04KT P6SM SKC=
201807250532 TAF KPWT 250532Z 2506/2606 00000KT P6SM SKC FM251900 05006KT P6SM
                       SKC=
201807242321 TAF KPWT 242321Z 2500/2524 06006KT P6SM SKC FM250400 00000KT P6SM
                       SKC FM251900 05006KT P6SM SKC=
201807241720 TAF KPWT 241720Z 2418/2518 VRB03KT P6SM SKC FM242000 03006KT P6SM
                       SKC FM250400 00000KT P6SM SKC=
201807241306 KPWT 241306Z 2413/2512 VRB03KT P6SM SKC
                      TEMPO 2413/2416 3SM BR FM241800 04006KT P6SM
                       SKC FM250400 VRB04KT P6SM SKC=
201807241123 TAF KPWT 241123Z 2412/2512 VRB03KT P6SM SKC FM241800 04006KT P6SM
                       SKC FM250400 VRB04KT P6SM SKC=
201807240533 TAF KPWT 240533Z 2406/2506 VRB03KT P6SM SKC FM241800 04006KT P6SM
                       SKC=
201807232322 TAF KPWT 232322Z 2400/2424 05006KT P6SM SKC FM240400 VRB03KT P6SM
                       SKC FM241800 04006KT P6SM SKC=
201807231721 TAF KPWT 231721Z 2318/2418 04006KT P6SM SKC FM240400 VRB03KT P6SM
                       SKC=
201807231123 TAF KPWT 231123Z 2312/2412 VRB04KT P6SM SKC FM231900 03008KT P6SM
                       SKC FM240400 VRB03KT P6SM SKC=
201807230520 TAF KPWT 230520Z 2306/2406 03007KT P6SM SKC FM230700 VRB04KT P6SM
                       SKC FM231900 03008KT P6SM SKC FM240400 VRB03KT
                       P6SM SKC=
201807222320 TAF KPWT 222320Z 2300/2324 03007KT P6SM SKC FM230500 VRB04KT P6SM
                       SKC FM231900 03008KT P6SM SKC=
201807221733 TAF KPWT 221733Z 2218/2318 04010KT P6SM SKC FM230500 VRB04KT P6SM
                       SKC=
201807221126 TAF KPWT 221126Z 2212/2312 VRB03KT P6SM SKC FM222200 03008KT P6SM
                       SKC FM230500 VRB03KT P6SM SKC=
201807220520 TAF KPWT 220520Z 2206/2306 VRB03KT P6SM SKC FM222200 03006KT P6SM
                       SKC FM230400 VRB03KT P6SM SKC=
201807212320 TAF KPWT 212320Z 2200/2224 02006KT P6SM SKC FM220300 VRB03KT P6SM
                       SKC FM222200 02006KT P6SM SKC=
201807211739 TAF KPWT 211739Z 2118/2218 03004KT P6SM FEW025 FM212000 04006KT
                       P6SM SKC FM220300 VRB03KT P6SM SKC=
201807211130 TAF KPWT 211130Z 2112/2212 00000KT P6SM SCT060 FM211800 03006KT
                       P6SM SKC FM220300 VRB03KT P6SM SKC=
201807210520 TAF KPWT 210520Z 2106/2206 VRB03KT P6SM SKC FM211200 00000KT P6SM
                       SCT015 SCT090
                      TEMPO 2114/2118 BKN015 BKN090 FM211800 03006KT
                       P6SM SCT250 FM220300 VRB03KT P6SM SKC=
201807202320 TAF KPWT 202320Z 2100/2124 04005KT P6SM BKN050 FM210200 04005KT
                       P6SM SCT050 FM210600 00000KT P6SM SKC FM211200
                       00000KT P6SM SCT015 SCT090
                      TEMPO 2114/2118 BKN015 BKN090 FM211800 03006KT
                       P6SM SCT250=
201807202105 KPWT 202105Z 2021/2118 VRB05KT P6SM BKN045 FM210000 04005KT P6SM
                       SCT050 FM210600 00000KT P6SM SKC FM211200
                       00000KT P6SM SCT015
                      TEMPO 2114/2118 BKN015=
201807201802 KPWT 201802Z 2018/2118 VRB04KT P6SM SCT018 BKN030 BKN045 FM201900
                       VRB04KT P6SM BKN035 BKN050 FM202100 04006KT
                       P6SM SCT050 FM210600 00000KT P6SM SKC FM211200
                       00000KT P6SM SCT015
                      TEMPO 2114/2118 BKN015=
201807201741 TAF KPWT 201741Z 2018/2118 VRB04KT P6SM BKN022 BKN035 BKN050 FM201900
                       VRB04KT P6SM FEW028 SCT035 BKN050 FM202100
                       04006KT P6SM SCT050 FM210600 00000KT P6SM
                       SKC FM211200 00000KT P6SM SCT015
                      TEMPO 2114/2118 BKN015=
201807201704 KPWT 201704Z 2017/2112 19005KT P6SM FEW015 BKN035 OVC050
                      TEMPO 2017/2019 BKN015 OVC030 FM202100 VRB03KT
                       P6SM FEW035 SCT050=
201807201641 KPWT 201641Z 2017/2112 21005KT P6SM BKN035 OVC050
                      TEMPO 2017/2019 BKN030 OVC050 FM202100 VRB03KT
                       P6SM FEW035 SCT050=
201807201422 KPWT 201422Z 2014/2112 22005KT P6SM BKN035 OVC050 FM201900 VRB03KT
                       P6SM FEW035 BKN050 FM202200 VRB03KT P6SM
                       SCT050=
201807201124 TAF KPWT 201124Z 2012/2112 VRB03KT P6SM OVC012 FM201900 VRB03KT
                       P6SM OVC020 FM202200 VRB03KT P6SM SCT025
                       BKN040=
201807200522 TAF KPWT 200522Z 2006/2106 VRB04KT P6SM BKN040 FM201100 VRB03KT
                       P6SM OVC008 FM201800 VRB03KT P6SM OVC015
                       FM202000 04005KT P6SM SCT035=
201807192321 TAF KPWT 192321Z 2000/2024 21007KT P6SM BKN030 FM200100 07006KT
                       P6SM BKN045 FM201100 VRB03KT P6SM OVC008
                       FM201800 VRB03KT P6SM OVC015 FM202000 04005KT
                       P6SM SCT035=
201807192248 KPWT 192248Z 1923/2018 20008KT P6SM OVC030 FM200100 07006KT P6SM
                       BKN045 FM201100 VRB03KT P6SM OVC008=
201807191721 TAF KPWT 191721Z 1918/2018 17004KT P6SM OVC010 FM192000 20006KT
                       P6SM BKN015 FM192100 20006KT P6SM SCT030
                       FM200100 07006KT P6SM BKN045 FM201100 VRB03KT
                       P6SM OVC008=
201807191141 TAF KPWT 191141Z 1912/2012 VRB03KT P6SM OVC006 FM191700 VRB03KT
                       P6SM OVC012 FM191900 20006KT P6SM SCT030
                       FM200100 07006KT P6SM BKN045 FM201100 VRB03KT
                       P6SM OVC008=
201807190545 KPWT 190545Z 1906/2006 17006KT P6SM SKC FM190900 17006KT P6SM BKN014
                       FM191100 19004KT P6SM OVC005 FM191700 19008KT
                       P6SM SCT016 BKN025 FM191900 20008KT P6SM
                       SCT030 FM200000 07006KT P6SM SKC=
201807190536 TAF KPWT 190536Z 1906/2006 17006KT P6SM BKN014 FM190900 19004KT
                       P6SM OVC005 FM191700 19008KT P6SM SCT016
                       BKN025 FM191900 20008KT P6SM SCT030 FM200000
                       07006KT P6SM SKC=
201807182348 TAF KPWT 182348Z 1900/1924 VRB04KT P6SM SKC FM190600 17006KT P6SM
                       BKN014 FM190900 19004KT P6SM OVC005 FM191700
                       19008KT P6SM SCT016 BKN025 FM191900 20008KT
                       P6SM SCT030=
201807181739 TAF KPWT 181739Z 1818/1918 20009KT P6SM OVC010
                      TEMPO 1820/1823 SCT015 BKN025 FM182300 20011KT
                       P6SM SCT025 FM190600 17007KT P6SM BKN014
                       FM190900 19006KT P6SM OVC005=
201807181121 TAF KPWT 181121Z 1812/1912 20007KT P6SM OVC008 FM181800 20009KT
                       P6SM OVC012
                      TEMPO 1820/1823 SCT020 FM182300 20011KT P6SM
                       SCT025 FM190600 17007KT P6SM BKN014 FM190900
                       19006KT P6SM OVC010=
201807180520 TAF KPWT 180520Z 1806/1906 23010KT P6SM BKN013 FM180700 23010KT
                       P6SM OVC010 FM181000 20010KT P6SM OVC006
                       FM181800 20009KT P6SM OVC012 FM182100 20007KT
                       P6SM SCT035=
201807180306 KPWT 180306Z 1803/1824 23010KT P6SM SKC
                      TEMPO 1803/1807 BKN015 FM180700 23010KT P6SM
                       OVC015 FM181000 20010KT P6SM OVC007 FM181800
                       20009KT P6SM OVC015 FM182100 20007KT P6SM
                       SCT040=
201807172326 TAF KPWT 172326Z 1800/1824 23010KT P6SM SKC FM181000 20010KT P6SM
                       OVC007 FM181800 20009KT P6SM OVC015 FM182100
                       20007KT P6SM SCT040=
201807171748 TAF KPWT 171748Z 1718/1818 21007KT P6SM SKC FM180000 20012KT P6SM
                       SKC FM180600 19005KT P6SM SKC FM180900 19005KT
                       P6SM OVC015 FM181200 19003KT P6SM OVC007=
201807171135 TAF KPWT 171135Z 1712/1812 20004KT P6SM SKC FM171800 20007KT P6SM
                       SCT200 FM180300 19010KT P6SM SCT200 FM180900
                       18008KT 6SM BR OVC005=
201807170525 TAF KPWT 170525Z 1706/1806 VRB04KT P6SM SKC FM170900 20004KT P6SM
                       SKC=
201807162327 TAF KPWT 162327Z 1700/1724 06007KT P6SM FEW250 FM170800 23004KT
                       P6SM SKC=
201807161732 TAF KPWT 161732Z 1618/1718 04004KT P6SM FEW200 FM170900 21006KT
                       P6SM SKC=
201807161125 TAF KPWT 161125Z 1612/1712 VRB03KT P6SM SKC FM161800 04006KT P6SM
                       SKC FM170700 20004KT P6SM SKC
                      TEMPO 1709/1712 5SM BR SCT003=
201807160520 TAF KPWT 160520Z 1606/1706 04007KT P6SM SKC=
201807152323 TAF KPWT 152323Z 1600/1624 04007KT P6SM FEW150 FM160500 04005KT
                       P6SM SKC FM161000 VRB03KT P6SM SKC=
201807152104 KPWT 152104Z 1521/1618 02011G18KT P6SM FEW200 FM160400 04005KT
                       P6SM SKC=
201807151731 TAF KPWT 151731Z 1518/1618 06008KT P6SM FEW200 FM152100 06005KT
                       P6SM SKC=
201807151120 TAF KPWT 151120Z 1512/1612 VRB03KT P6SM SKC FM151500 04005KT P6SM
                       SKC FM160600 VRB03KT P6SM SKC=
201807150520 TAF KPWT 150520Z 1506/1606 04005KT P6SM SKC=
201807142320 TAF KPWT 142320Z 1500/1524 04009KT P6SM SKC FM151800 36005KT P6SM
                       FEW250=
201807141722 TAF KPWT 141722Z 1418/1518 06008KT P6SM SKC=
201807141120 TAF KPWT 141120Z 1412/1512 VRB03KT P6SM SKC FM141500 05007KT P6SM
                       SKC FM150300 VRB03KT P6SM SKC=
201807140524 TAF KPWT 140524Z 1406/1506 05007KT P6SM SKC=
201807132331 TAF KPWT 132331Z 1400/1424 06007KT P6SM SKC=
201807132220 KPWT 132220Z 1322/1418 VRB06KT P6SM SKC FM140500 VRB03KT P6SM SKC=
201807131120 TAF KPWT 131120Z 1312/1412 VRB04KT P6SM SKC FM132000 04008KT P6SM
                       SKC FM140500 VRB03KT P6SM SKC=
201807130520 TAF KPWT 130520Z 1306/1406 04005KT P6SM SKC FM131100 VRB04KT P6SM
                       SKC FM132000 04008KT P6SM SKC=
201807122320 TAF KPWT 122320Z 1300/1324 05010KT P6SM SKC FM131000 VRB04KT P6SM
                       SKC FM132000 05010KT P6SM SCT250=
201807121720 TAF KPWT 121720Z 1218/1318 05010KT P6SM SKC FM131000 VRB04KT P6SM
                       SKC=
201807121138 TAF KPWT 121138Z 1212/1312 VRB04KT P6SM SKC FM122200 03008KT P6SM
                       SKC FM130400 04004KT P6SM SKC FM131000 VRB04KT
                       P6SM SKC=
201807120520 TAF KPWT 120520Z 1206/1306 05005KT P6SM SKC FM122200 03008KT P6SM
                       SKC FM130400 04004KT P6SM SKC=
201807112320 TAF KPWT 112320Z 1200/1224 05008KT P6SM SKC=
201807111720 TAF KPWT 111720Z 1118/1218 03008KT P6SM SKC=
201807111120 TAF KPWT 111120Z 1112/1212 04005KT P6SM SCT050 FM111700 03008KT
                       P6SM SKC FM120300 03003KT P6SM SKC=
201807110520 TAF KPWT 110520Z 1106/1206 03005KT P6SM SKC FM111200 03005KT P6SM
                       SCT005 FM111700 03007KT P6SM SKC FM120300
                       03003KT P6SM SKC=
201807102320 TAF KPWT 102320Z 1100/1124 07007KT P6SM BKN035 OVC045 FM110700
                       03004KT P6SM SKC FM111200 03002KT P6SM SCT007
                       FM111500 03008KT P6SM SCT250=
201807101742 TAF KPWT 101742Z 1018/1118 00000KT P6SM VCSH OVC017 FM102000 20006KT
                       P6SM SCT025 BKN050 FM110000 02005KT P6SM
                       SCT050 FM110700 03004KT P6SM SKC FM111200
                       03002KT P6SM SCT007=
201807101127 TAF KPWT 101127Z 1012/1112 18004KT P6SM VCSH OVC017
                      TEMPO 1016/1020 BKN025 BKN050 FM102000 20006KT
                       P6SM SCT025 BKN050 FM110000 02005KT P6SM
                       SCT050 FM110700 03004KT P6SM SKC=
201807100805 KPWT 100805Z 1008/1106 18004KT P6SM OVC017 FM101800 20006KT P6SM
                       SCT020 BKN050 FM102200 02005KT P6SM SCT050=
201807100524 TAF KPWT 100524Z 1006/1106 00000KT P6SM SCT025 BKN050 FM101000
                       18004KT P6SM OVC010 FM101800 20006KT P6SM
                       SCT020 BKN050 FM102200 02005KT P6SM SCT050=
201807092320 TAF KPWT 092320Z 1000/1024 23006KT P6SM FEW030 BKN200 FM100300
                       17006KT P6SM OVC050 FM100800 18005KT P6SM
                       OVC010 FM101800 20006KT P6SM SCT015 OVC050=
201807091734 TAF KPWT 091734Z 0918/1018 21006KT P6SM SCT016 BKN200 FM092100
                       19009KT P6SM SCT050 BKN120 OVC200 FM100300
                       17006KT P6SM OVC050 FM100800 18005KT P6SM
                       OVC010=
201807091503 KPWT 091503Z 0915/1012 22007KT P6SM OVC008 FM091700 20006KT P6SM
                       SCT010 SCT120 BKN200 FM092100 19009KT P6SM
                       SCT050 BKN120 OVC200 FM100300 17006KT P6SM
                       OVC050 FM100800 18005KT P6SM OVC012=
201807091124 TAF KPWT 091124Z 0912/1012 20004KT P6SM SCT007 SCT200
                      TEMPO 0912/0916 6SM BR BKN005 FM091700 20006KT
                       P6SM SCT010 SCT120 BKN200 FM092100 19009KT
                       P6SM SCT050 BKN120 OVC200 FM100300 17006KT
                       P6SM OVC050 FM100800 18005KT P6SM OVC012=
201807090521 TAF KPWT 090521Z 0906/1006 22003KT P6SM FEW120 BKN220 FM090800
                       17004KT P6SM SCT200 FM091100 18004KT P6SM
                       SCT015 BKN250 FM091400 20003KT P6SM OVC015
                       FM091800 20006KT P6SM SCT020 BKN050 FM092100
                       21009KT P6SM SCT035 OVC050 FM100300 12004KT
                       P6SM OVC050=
201807090021 KPWT 090021Z 0900/0924 08009KT P6SM SCT250 FM090800 17004KT P6SM
                       SCT250 FM091100 18004KT P6SM BCFG SCT005
                       BKN250 FM091400 20003KT P6SM OVC005 FM091800
                       20006KT P6SM SCT010 BKN070 FM092100 21009KT
                       P6SM SCT025 OVC050=
201807082320 TAF KPWT 082320Z 0900/0924 03006KT P6SM SCT250 FM090800 17004KT
                       P6SM SCT250 FM091100 18004KT P6SM BCFG SCT005
                       BKN250 FM091400 20003KT P6SM OVC005 FM091800
                       20006KT P6SM SCT010 BKN070 FM092100 21009KT
                       P6SM BKN015 OVC050=
201807081724 TAF KPWT 081724Z 0818/0918 03006KT P6SM SCT250 FM090800 17004KT
                       P6SM SCT250 FM091100 18004KT P6SM BCFG SCT005
                       BKN250 FM091400 20003KT P6SM OVC005=
201807081121 TAF KPWT 081121Z 0812/0912 VRB03KT P6SM SKC FM082000 03006KT P6SM
                       SCT250 FM090800 17004KT P6SM SCT250 FM091100
                       18004KT P6SM BCFG SCT005 BKN250=
201807080520 TAF KPWT 080520Z 0806/0906 04006KT P6SM SCT040 FM081000 VRB03KT
                       P6SM SKC FM082000 36008KT P6SM SCT250=
201807072320 TAF KPWT 072320Z 0800/0824 22006KT P6SM SCT040 BKN050 FM080300
                       VRB03KT P6SM SCT050 FM081400 03003KT P6SM
                       SCT250=
201807071725 TAF KPWT 071725Z 0718/0818 22008KT P6SM BKN020 FM072000 22006KT
                       P6SM SCT030 BKN045 FM080300 VRB03KT P6SM
                       SCT045 FM081400 VRB03KT P6SM SCT250=
201807071134 TAF KPWT 071134Z 0712/0812 22008KT P6SM SCT025 OVC050
                      TEMPO 0714/0718 BKN025 OVC050 FM072000 22006KT
                       P6SM SCT030 BKN045 FM080200 36006KT P6SM
                       SCT045=
201807070520 TAF KPWT 070520Z 0706/0806 22010KT P6SM BKN050 FM070900 18006KT
                       P6SM BKN025 FM072000 22006KT P6SM BKN040
                       FM080300 36006KT P6SM SCT040=
201807062320 TAF KPWT 062320Z 0700/0724 22016G25KT P6SM VCSH SCT025 BKN040 BKN070
                       FM070600 19008KT P6SM VCSH BKN025 BKN040
                       FM071200 20007KT P6SM OVC020 FM071800 21006KT
                       P6SM SCT025 BKN040=
201807061720 TAF KPWT 061720Z 0618/0718 22012KT P6SM SCT050 BKN100 FM062100
                       19016G25KT P6SM -SHRA SCT025 BKN040 BKN070
                       FM070600 19008KT P6SM VCSH BKN025 BKN040
                       FM071200 20007KT P6SM OVC020=
201807061137 TAF KPWT 061137Z 0612/0712 VRB03KT P6SM SCT120 FM061800 19006KT
                       P6SM SCT050 BKN100 FM062100 19012KT P6SM
                       -SHRA SCT025 BKN040 BKN070 FM070600 19008KT
                       P6SM VCSH BKN025 BKN040=
201807060520 TAF KPWT 060520Z 0606/0706 VRB04KT P6SM BKN120 BKN250 FM061200
                       18008KT P6SM SCT015 SCT050 SCT120 FM061800
                       20010KT P6SM SCT025 BKN050 FM062100 22014KT
                       P6SM VCSH BKN050 FM070500 18008KT P6SM VCSH
                       BKN030=
201807052320 TAF KPWT 052320Z 0600/0624 VRB04KT P6SM SCT150 FM060400 19006KT
                       P6SM BKN100 BKN200 FM061300 20008KT P6SM
                       SCT030 BKN050 FM061900 20016G25KT P6SM BKN030=
201807051720 TAF KPWT 051720Z 0518/0618 VRB04KT P6SM SCT150 FM060400 19006KT
                       P6SM BKN100 BKN200 FM061300 20008KT P6SM
                       SCT030 BKN050=
201807051130 TAF KPWT 051130Z 0512/0612 VRB04KT P6SM BKN150 FM051800 VRB04KT
                       P6SM SCT150 FM060400 19006KT P6SM BKN100
                       BKN200=
201807050520 TAF KPWT 050520Z 0506/0606 22008KT P6SM BKN120 BKN200 FM051800
                       VRB04KT P6SM SCT120 SCT200 FM060400 22008KT
                       P6SM SCT050 BKN090=
201807042320 TAF KPWT 042320Z 0500/0524 04007KT P6SM FEW090 SCT120 BKN250 FM050700
                       05004KT P6SM SCT120 BKN250 FM051100 VRB03KT
                       P6SM SCT250 FM052100 21006KT P6SM SCT250=
201807041720 TAF KPWT 041720Z 0418/0518 04013KT P6SM FEW120 BKN250 FM050000
                       VRB05KT P6SM FEW090 BKN120 OVC250 FM050700
                       09004KT P6SM SCT120 BKN250 FM051100 VRB03KT
                       P6SM SCT250=
201807041133 TAF KPWT 041133Z 0412/0512 05011KT P6SM SCT250 FM041800 04013KT
                       P6SM FEW120 BKN250 FM050000 VRB05KT P6SM
                       FEW090 BKN120 OVC250 FM050700 03004KT P6SM
                       SCT120 BKN250=
201807040536 TAF KPWT 040536Z 0406/0506 04007KT P6SM SCT250 FM041800 04013KT
                       P6SM FEW130 BKN250 FM050000 07007KT P6SM
                       FEW090 BKN130 OVC250=
201807040137 KPWT 040137Z 0402/0424 05008KT P6SM FEW200 FM041500 02012KT P6SM
                       SCT200 FM042000 02012G18KT P6SM BKN200=
201807032323 TAF KPWT 032323Z 0400/0424 04008KT P6SM FEW200 FM041500 02012KT
                       P6SM SCT200 FM042000 02012G18KT P6SM BKN200=
201807031729 TAF KPWT 031729Z 0318/0418 VRB05KT P6SM FEW020 FEW200
                      TEMPO 0318/0319 SCT007 FM032000 VRB05KT P6SM
                       FEW200 FM032200 03007KT P6SM FEW200 FM041500
                       03010KT P6SM SCT200=
201807031120 TAF KPWT 031120Z 0312/0412 VRB02KT 3SM BR OVC003
                      TEMPO 0312/0316 1/2SM FG VV002 FM031600 VRB04KT
                       5SM BR BKN004 FM031800 VRB05KT P6SM SCT200
                       FM032200 03007KT P6SM SCT200=
201807030528 TAF KPWT 030528Z 0306/0406 VRB02KT P6SM SKC FM030900 VRB02KT P6SM
                       FEW009 FM031200 VRB02KT P6SM BCFG OVC004
                       FM031700 VRB04KT P6SM BKN010 FM031800 02005KT
                       P6SM SKC=
201807030311 KPWT 030311Z 0303/0324 04005KT P6SM FEW060 FM031100 VRB03KT P6SM
                       BCFG BKN007 FM031500 20002KT P6SM SCT007
                       BKN050 FM031900 18004KT P6SM SCT050 BKN250=
201807030107 KPWT 030107Z 0301/0324 04006KT P6SM VCSH BKN050 FM030300 VRB03KT
                       P6SM BKN070 FM031100 VRB03KT P6SM BCFG BKN007
                       FM031500 20002KT P6SM SCT007 BKN050 FM031900
                       18004KT P6SM SCT050 BKN250=
201807022327 TAF KPWT 022327Z 0300/0324 12008KT P6SM BKN050 FM030300 11093KT
                       P6SM BKN070 BKN200 FM031100 VRB03KT P6SM
                       BCFG BKN007 FM031500 20002KT P6SM SCT007
                       BKN050 FM031900 18004KT P6SM SCT050 BKN250=
201807021756 TAF KPWT 021756Z 0218/0318 VRB05KT P6SM VCSH OVC050 FM022100 VRB05KT
                       P6SM VCSH BKN035 BKN070 FM030000 03007KT
                       P6SM BKN050 BKN200 FM030300 03008KT P6SM
                       FEW035 BKN070 BKN200 FM031100 VRB03KT P6SM
                       BCFG SCT006 SCT040 SCT200=
201807021133 TAF KPWT 021133Z 0212/0312 VRB05KT P6SM VCSH BKN018 OVC035
                      TEMPO 0212/0216 SCT020 BKN040 FM021600 17006KT
                       P6SM VCSH BKN025 OVC050 FM022100 VRB05KT
                       P6SM VCSH BKN035 BKN070 FM030000 03007KT
                       P6SM BKN050 BKN200 FM030300 03008KT P6SM
                       FEW035 BKN070 BKN200 FM031100 VRB03KT P6SM
                       BCFG SCT006 SCT040 SCT200=
201807020543 TAF KPWT 020543Z 0206/0306 VRB05KT P6SM OVC035 FM020900 VRB05KT
                       P6SM OVC025 FM021200 15005KT P6SM OVC012
                       FM021800 19008KT P6SM -SHRA BKN028 OVC050
                       FM030000 03008KT P6SM VCSH BKN035 BKN070
                       FM030300 03008KT P6SM FEW035 BKN070 BKN250=
201807020046 KPWT 020046Z 0201/0224 05012KT P6SM SCT045
                      TEMPO 0201/0205 BKN045 FM020500 15008KT P6SM
                       SCT020 BKN040 FM020800 17005KT P6SM OVC015
                       FM021800 18005KT P6SM BKN030 BKN050 FM022200
                       05006KT P6SM SCT035 BKN050=
201807012322 TAF KPWT 012322Z 0200/0224 05010KT P6SM OVC040 FM020500 15008KT
                       P6SM SCT020 BKN040 FM020800 17005KT P6SM
                       OVC015 FM021800 18005KT P6SM BKN030 BKN050
                       FM022200 05006KT P6SM SCT035 BKN050=
201807012010 KPWT 012010Z 0120/0218 17007KT P6SM OVC035 FM012200 VRB05KT P6SM
                       BKN035 BKN050 FM020500 16008KT P6SM SCT020
                       BKN040 FM020800 17005KT P6SM OVC015=
201807011720 TAF KPWT 011720Z 0118/0218 20005KT P6SM VCSH OVC015 FM012000 21012G18KT
                       P6SM VCSH FEW020 BKN035 BKN050 FM012200
                       VRB05KT P6SM VCSH BKN035 BKN050 FM020500
                       16008KT P6SM SCT020 BKN040 FM020800 17005KT
                       P6SM OVC015=
201807011632 KPWT 011632Z 0117/0212 20005KT P6SM VCSH OVC011 FM011800 19011KT
                       P6SM VCSH SCT012 OVC022 FM012200 21012G18KT
                       P6SM FEW020 BKN035 BKN050
                      TEMPO 0200/0204 08010KT FM020500 16008KT
                       P6SM SCT020 BKN040 FM020900 17005KT P6SM
                       OVC020=
201807011131 TAF KPWT 011131Z 0112/0212 19005KT P6SM VCSH OVC007 FM011800 19011KT
                       P6SM VCSH SCT007 OVC022 FM012200 21012G18KT
                       P6SM FEW020 BKN035 BKN050
                      TEMPO 0200/0204 08010KT FM020500 16008KT
                       P6SM SCT020 BKN040 FM020900 17005KT P6SM
                       OVC020=
201807010541 TAF KPWT 010541Z 0106/0206 19005KT P6SM OVC011 FM010900 19005KT
                       P6SM OVC007 FM011200 19005KT P6SM VCSH OVC007
                       FM011800 19011KT P6SM VCSH SCT007 OVC020
                       FM012000 21015G23KT P6SM FEW020 BKN035 BKN050
                       FM020200 06008KT P6SM FEW035 BKN050=
201807010116 KPWT 010116Z 0101/0124 23016KT P6SM VCSH SCT025 BKN050
                      TEMPO 0101/0105 BKN025 OVC050 FM010500 19007KT
                       P6SM OVC015 FM011000 19007KT P6SM OVC007
                       FM011800 19007KT P6SM OVC015 FM012000 19012KT
                       P6SM BKN025 FM012300 19012KT P6SM BKN040=
201807010052 TAF KPWT 010052Z 0101/0124 23016KT P6SM VCSH OVC035 FM010500 19007KT
                       P6SM OVC015 FM011000 19007KT P6SM OVC007
                       FM011800 19007KT P6SM OVC015 FM012000 19012KT
                       P6SM BKN025 FM012300 19012KT P6SM BKN040=