##########################################################
# Query made at 02/16/2025 00:14:22 UTC
# Time interval: from 12/01/2018 00:00  to 12/31/2018 23:59  UTC
##########################################################

##########################################################
# KPWT, Bremerton National Automatic Weather Observing / Reporting System (United States)
# WMO index: -----. WIGOS ID: Unknown
# Latitude 47-30N. Longitude 122-45W. Altitude 147 m.
##########################################################

###################################
#  METAR/SPECI from KPWT
###################################
201812312356 METAR KPWT 312356Z AUTO 00000KT 10SM CLR 04/01 A3048 RMK AO2 SLP343 6//// T00390006 10061 20033 53008=
201812312256 METAR KPWT 312256Z AUTO 03005KT 10SM CLR 06/00 A3048 RMK AO2 SLP341 T00560000=
201812312156 METAR KPWT 312156Z AUTO 05009KT 10SM CLR 06/M01 A3046 RMK AO2 SLP334 T00561006=
201812312056 METAR KPWT 312056Z AUTO 06006KT 10SM CLR 06/00 A3046 RMK AO2 SLP334 6//// T00560000 58003=
201812311956 METAR KPWT 311956Z AUTO 05008KT 10SM CLR 05/M01 A3048 RMK AO2 SLP340 T00501006=
201812311856 METAR KPWT 311856Z AUTO 05008KT 10SM CLR 04/M01 A3048 RMK AO2 SLP342 T00441006=
201812311756 METAR KPWT 311756Z AUTO 06006KT 10SM CLR 03/M01 A3047 RMK AO2 SLP338 6//// T00331006 10039 20017 53014=
201812311656 METAR KPWT 311656Z AUTO 05007KT 10SM CLR 02/M01 A3045 RMK AO2 SLP331 T00221006 FZRANO=
201812311556 METAR KPWT 311556Z AUTO 04010KT 10SM CLR 02/M02 A3043 RMK AO2 SLP323 T00221017 FZRANO=
201812311456 METAR KPWT 311456Z AUTO 06010KT 10SM CLR 02/M01 A3043 RMK AO2 SLP322 6//// T00221011 53008 FZRANO=
201812311356 METAR KPWT 311356Z AUTO 06008KT 10SM CLR 02/M02 A3042 RMK AO2 SLP320 T00221017 FZRANO=
201812311256 METAR KPWT 311256Z AUTO 05007KT 10SM CLR 03/M03 A3039 RMK AO2 SLP312 T00281028=
201812311156 METAR KPWT 311156Z AUTO 02010G22KT 10SM CLR 04/M03 A3040 RMK AO2 SLP314 6//// 7//// T00391033 10044 20022 50018=
201812311056 METAR KPWT 311056Z AUTO 03006KT 10SM CLR 02/M02 A3041 RMK AO2 SLP316 T00221017 FZRANO=
201812310956 METAR KPWT 310956Z AUTO 36009KT 10SM CLR 04/M02 A3038 RMK AO2 SLP306 T00441022=
201812310856 METAR KPWT 310856Z AUTO 01009KT 10SM CLR 04/M01 A3035 RMK AO2 SLP295 6//// T00391006 53017=
201812310756 METAR KPWT 310756Z AUTO 02011G19KT 10SM CLR 04/00 A3032 RMK AO2 SLP287 T00440000 400831017=
201812310656 METAR KPWT 310656Z AUTO 03007KT 10SM CLR 03/01 A3031 RMK AO2 SLP283 T00330011=
201812310556 METAR KPWT 310556Z AUTO 02008KT 10SM CLR 03/02 A3030 RMK AO2 SLP279 T00330017 10056 20011 51011=
201812310456 METAR KPWT 310456Z AUTO 03004KT 10SM CLR 02/01 A3029 RMK AO2 SLP275 T00220011 FZRANO=
201812310356 METAR KPWT 310356Z AUTO 09007KT 10SM CLR 03/02 A3028 RMK AO2 SLP271 T00330017=
201812310256 METAR KPWT 310256Z AUTO 05004KT 10SM CLR 03/02 A3026 RMK AO2 SLP267 T00330022 53019=
201812310156 METAR KPWT 310156Z AUTO 07007KT 10SM CLR 04/03 A3024 RMK AO2 SLP260 T00390028=
201812310056 METAR KPWT 310056Z AUTO 04003KT 10SM OVC031 03/03 A3023 RMK AO2 SLP254 T00330028=
201812302356 METAR KPWT 302356Z AUTO 05003KT 10SM FEW065 06/03 A3021 RMK AO2 SLP249 6//// T00560033 10083 20033 53014=
201812302256 METAR KPWT 302256Z AUTO 04004KT 10SM OVC060 07/04 A3019 RMK AO2 SLP244 T00720039=
201812302232 SPECI KPWT 302232Z AUTO 07003KT 10SM SCT017 OVC060 07/03 A3018 RMK AO2=
201812302213 SPECI KPWT 302213Z AUTO 04005KT 10SM BKN019 07/03 A3018 RMK AO2=
201812302204 SPECI KPWT 302204Z AUTO 00000KT 10SM SCT017 06/03 A3017 RMK AO2=
201812302156 METAR KPWT 302156Z AUTO 00000KT 10SM BKN017 06/03 A3017 RMK AO2 SLP234 T00610028=
201812302112 SPECI KPWT 302112Z AUTO 22003KT 10SM BKN015 08/03 A3016 RMK AO2=
201812302056 METAR KPWT 302056Z AUTO 00000KT 10SM FEW013 07/04 A3017 RMK AO2 SLP233 T00720039 58007=
201812301956 METAR KPWT 301956Z AUTO 19003KT 10SM FEW009 06/03 A3018 RMK AO2 SLP238 T00560033=
201812301856 METAR KPWT 301856Z AUTO 14003KT 10SM FEW005 04/03 A3020 RMK AO2 SLP246 T00440028=
201812301838 SPECI KPWT 301838Z AUTO 00000KT 10SM SCT005 04/03 A3020 RMK AO2=
201812301756 METAR KPWT 301756Z AUTO 00000KT 10SM CLR 03/03 A3019 RMK AO2 SLP241 T00330028 10039 21017 51023=
201812301656 METAR KPWT 301656Z AUTO 00000KT 10SM CLR 02/01 A3017 RMK AO2 SLP235 T00170011 FZRANO=
201812301556 METAR KPWT 301556Z AUTO 00000KT 10SM CLR M01/M01 A3014 RMK AO2 SLP228 T10061006 FZRANO=
201812301456 METAR KPWT 301456Z AUTO 00000KT 10SM CLR M01/M01 A3012 RMK AO2 SLP218 T10061006 53015 FZRANO=
201812301356 METAR KPWT 301356Z AUTO 00000KT 10SM SCT025 00/00 A3010 RMK AO2 SLP212 T00000000 FZRANO=
201812301349 SPECI KPWT 301349Z AUTO 00000KT 10SM SCT025 01/00 A3009 RMK AO2 FZRANO=
201812301337 SPECI KPWT 301337Z AUTO 00000KT 10SM BKN025 01/00 A3008 RMK AO2 FZRANO=
201812301256 METAR KPWT 301256Z AUTO 14003KT 8SM FEW001 00/M01 A3007 RMK AO2 SLP203 T00001006 FZRANO=
201812301237 SPECI KPWT 301237Z AUTO 00000KT 9SM SCT001 00/00 A3007 RMK AO2 FZRANO=
201812301156 METAR KPWT 301156Z AUTO 00000KT 10SM FEW011 01/00 A3007 RMK AO2 SLP202 7//// T00060000 10061 20006 53017 FZRANO=
201812301056 METAR KPWT 301056Z AUTO 00000KT 10SM CLR 02/02 A3005 RMK AO2 SLP194 T00220022 FZRANO=
201812300956 METAR KPWT 300956Z AUTO 25004KT 10SM FEW019 BKN110 04/03 A3004 RMK AO2 LTG DSNT NE SLP192 T00440033=
201812300856 METAR KPWT 300856Z AUTO 00000KT 10SM OVC110 04/04 A3002 RMK AO2 SLP186 T00440039 51017=
201812300838 SPECI KPWT 300838Z AUTO 00000KT 10SM SCT009 OVC110 04/04 A3002 RMK AO2=
201812300825 SPECI KPWT 300825Z AUTO 00000KT 10SM BKN009 BKN017 BKN110 04/04 A3002 RMK AO2 CIG 007V012=
201812300756 METAR KPWT 300756Z AUTO 00000KT 10SM SCT007 BKN028 OVC110 04/04 A3002 RMK AO2 SLP184 T00390039 401060033=
201812300743 SPECI KPWT 300743Z AUTO 00000KT 10SM BKN007 OVC110 04/04 A3002 RMK AO2 CIG 004V009=
201812300721 SPECI KPWT 300721Z AUTO 14003KT 6SM BR BKN005 BKN010 BKN016 04/04 A3001 RMK AO2=
201812300712 SPECI KPWT 300712Z AUTO 00000KT 8SM SCT005 BKN010 BKN016 04/04 A3002 RMK AO2=
201812300656 METAR KPWT 300656Z AUTO 00000KT 10SM BKN010 BKN070 OVC085 05/04 A3001 RMK AO2 SLP181 T00500044=
201812300648 SPECI KPWT 300648Z AUTO 00000KT 10SM BKN010 OVC065 04/04 A3000 RMK AO2=
201812300606 SPECI KPWT 300606Z AUTO 23004KT 10SM FEW007 BKN070 06/04 A2997 RMK AO2=
201812300556 METAR KPWT 300556Z AUTO 25003KT 10SM BKN075 04/04 A2997 RMK AO2 SLP170 60002 T00440039 10100 20044 51010=
201812300456 METAR KPWT 300456Z AUTO 14003KT 10SM CLR 06/05 A2997 RMK AO2 SLP167 T00560050=
201812300425 SPECI KPWT 300425Z AUTO 00000KT 10SM SCT011 SCT018 07/06 A2996 RMK AO2=
201812300356 METAR KPWT 300356Z AUTO 09004KT 10SM OVC011 07/07 A2996 RMK AO2 SLP163 T00720067=
201812300256 METAR KPWT 300256Z AUTO VRB06KT 10SM BKN011 08/07 A2994 RMK AO2 SLP158 60002 T00780067 53009=
201812300248 SPECI KPWT 300248Z AUTO 25008KT 10SM BKN011 08/07 A2994 RMK AO2=
201812300233 SPECI KPWT 300233Z AUTO 24012KT 10SM SCT011 08/06 A2994 RMK AO2=
201812300156 METAR KPWT 300156Z AUTO 24008KT 10SM BKN013 OVC095 08/07 A2993 RMK AO2 SLP152 T00830067=
201812300103 SPECI KPWT 300103Z AUTO 20012G16KT 10SM FEW009 BKN075 BKN090 09/08 A2991 RMK AO2=
201812300056 METAR KPWT 300056Z AUTO 20010KT 10SM FEW011 BKN075 09/08 A2992 RMK AO2 RAE37 SLP152 P0002 T00940083=
201812300006 SPECI KPWT 300006Z AUTO 21013KT 10SM -RA SCT007 BKN039 BKN065 10/09 A2992 RMK AO2 P0001=
201812292356 METAR KPWT 292356Z AUTO 20015G20KT 10SM -RA BKN007 BKN043 OVC065 10/09 A2992 RMK AO2 SLP151 P0004 60029 T01000094 10106 20083 58016=
201812292256 METAR KPWT 292256Z AUTO 22017G24KT 6SM -RA BR OVC007 10/09 A2994 RMK AO2 CIG 005V010 SLP157 P0006 T01000094=
201812292156 METAR KPWT 292156Z AUTO 21018G26KT 10SM -RA OVC007 11/09 A2995 RMK AO2 PK WND 22030/2108 SLP161 P0006 T01060094=
201812292056 METAR KPWT 292056Z AUTO 20016G23KT 10SM -RA OVC007 10/09 A2996 RMK AO2 PK WND 19026/2029 SLP164 P0007 60013 T01000094=
201812292025 SPECI KPWT 292025Z AUTO 21017G21KT 10SM -RA OVC007 10/09 A3000 RMK AO2 P0004=
201812291956 METAR KPWT 291956Z AUTO 19012G19KT 9SM -RA OVC005 09/09 A3002 RMK AO2 SLP184 P0004 T00940089=
201812291918 SPECI KPWT 291918Z AUTO 10SM -RA OVC005 09/08 A3003 RMK AO2 P0001=
201812291856 METAR KPWT 291856Z AUTO 19019G28KT 10SM -RA OVC003 09/08 A3003 RMK AO2 PK WND 20028/1856 SLP189 P0002 T00890083=
201812291756 METAR KPWT 291756Z AUTO 19013G18KT 6SM -RA BR OVC003 08/08 RMK AO2 SLPNO P0005 6//// T00830083 10094 20083 $=
201812291656 METAR KPWT 291656Z AUTO 18011G19KT 9SM -RA OVC003 08/08 A3011 RMK AO2 PRESFR SLP214 P0004 T00830078=
201812291556 METAR KPWT 291556Z AUTO 19013G21KT 6SM -RA BR OVC003 08/08 A3011 RMK AO2 RAB18 SLP216 P0002 T00830078=
201812291456 METAR KPWT 291456Z AUTO 20015KT 10SM OVC003 09/08 A3012 RMK AO2 SLP218 6//// T00890083 58002=
201812291420 SPECI KPWT 291420Z AUTO 20016G21KT 10SM OVC003 09/08 A3012 RMK AO2 CIG 003V007=
201812291356 METAR KPWT 291356Z AUTO 20017G23KT 10SM BKN006 OVC012 09/08 A3012 RMK AO2 CIG 004V009 SLP219 T00890083=
201812291256 METAR KPWT 291256Z AUTO 22017G23KT 10SM OVC005 09/09 A3012 RMK AO2 PK WND 21026/1212 SLP220 T00940089=
201812291156 METAR KPWT 291156Z AUTO 20016G21KT 10SM OVC003 08/08 A3012 RMK AO2 SLP220 6//// 7//// T00830083 10083 20061 58005=
201812291056 METAR KPWT 291056Z AUTO 19014G25KT 10SM OVC003 08/08 A3014 RMK AO2 PK WND 20028/1029 RAB04E14 SLP225 T00830078=
201812290956 METAR KPWT 290956Z AUTO 19013G22KT 10SM OVC003 08/08 A3014 RMK AO2 RAB17E29 SLP228 P0000 T00780078=
201812290856 METAR KPWT 290856Z AUTO 18012G21KT 9SM BKN003 OVC008 08/07 A3014 RMK AO2 SLP226 P0001 6//// T00780072 55001=
201812290756 METAR KPWT 290756Z AUTO 19012G23KT 9SM OVC003 07/07 A3013 RMK AO2 RAE43 SLP222 P0000 T00720067 400720022=
201812290656 METAR KPWT 290656Z AUTO 20013G19KT 6SM -RA BR OVC003 07/07 A3014 RMK AO2 RAB33 SLP225 T00670067=
201812290556 METAR KPWT 290556Z AUTO 20012KT 8SM OVC003 06/06 A3014 RMK AO2 RAE14 SLP225 P0000 60006 T00610061 10061 20056 56013=
201812290456 METAR KPWT 290456Z AUTO 20012KT 8SM -RA OVC003 06/06 A3015 RMK AO2 SLP228 P0001 T00610056=
201812290356 METAR KPWT 290356Z AUTO 20013G19KT 5SM -RA BR OVC003 06/06 A3017 RMK AO2 SLP233 P0001 T00610056=
201812290256 METAR KPWT 290256Z AUTO 20012G21KT 5SM -RA BR OVC003 06/06 A3018 RMK AO2 SLP239 P0002 60004 T00610056 58016=
201812290156 METAR KPWT 290156Z AUTO 20015G20KT 5SM -RA BR OVC003 06/06 A3020 RMK AO2 SLP246 P0001 T00610056=
201812290056 METAR KPWT 290056Z AUTO 20012KT 6SM -RA BR OVC003 06/06 A3022 RMK AO2 SLP251 P0001 T00610056=
201812282356 METAR KPWT 282356Z AUTO 19015G20KT 7SM -RA OVC003 06/05 A3023 RMK AO2 SLP255 P0001 60012 T00560050 10056 20044 57010=
201812282256 METAR KPWT 282256Z AUTO 18009G16KT 9SM -RA OVC003 06/05 A3024 RMK AO2 SLP260 P0001 T00560050=
201812282156 METAR KPWT 282156Z AUTO 20010KT 7SM -RA OVC003 06/05 A3024 RMK AO2 RAE38B54 SLP260 P0000 T00560050=
201812282056 METAR KPWT 282056Z AUTO 19009KT 10SM -RA OVC003 05/05 A3026 RMK AO2 SLP266 P0002 60010 T00500050 58023=
201812281956 METAR KPWT 281956Z AUTO 19010G16KT 10SM -RA OVC003 05/04 A3029 RMK AO2 SLP276 P0007 T00500044=
201812281856 METAR KPWT 281856Z AUTO 20010KT 5SM -RA BR OVC003 05/04 A3032 RMK AO2 RAE13B46 SLP287 P0001 T00500044=
201812281756 METAR KPWT 281756Z AUTO 20008KT 10SM -RA OVC003 04/04 A3033 RMK AO2 SLP290 P0001 60006 T00440044 10044 20039 58004=
201812281656 METAR KPWT 281656Z AUTO 18005KT 9SM -RA OVC003 04/04 A3034 RMK AO2 SLP295 P0002 T00440039=
201812281637 SPECI KPWT 281637Z AUTO 19006KT 8SM -RA OVC003 04/04 A3034 RMK AO2 P0001=
201812281556 METAR KPWT 281556Z AUTO 18005KT 9SM -RA OVC005 04/04 A3034 RMK AO2 SLP295 P0002 T00440039=
201812281545 SPECI KPWT 281545Z AUTO 18005KT 10SM -RA OVC005 04/04 A3034 RMK AO2 P0001=
201812281456 METAR KPWT 281456Z AUTO 20003KT 7SM -RA OVC003 04/04 A3034 RMK AO2 SLP294 P0001 60001 T00390039 55008=
201812281441 SPECI KPWT 281441Z AUTO 00000KT 9SM -RA BKN003 OVC007 04/04 A3034 RMK AO2 P0000=
201812281356 METAR KPWT 281356Z AUTO 20004KT 10SM -RA OVC007 04/03 A3034 RMK AO2 SLP294 P0000 T00390033=
201812281347 SPECI KPWT 281347Z AUTO 19003KT 10SM -RA OVC007 04/03 A3034 RMK AO2 P0000=
201812281327 SPECI KPWT 281327Z AUTO 20003KT 10SM -RA OVC005 04/03 A3035 RMK AO2 CIG 002V007 P0000=
201812281256 METAR KPWT 281256Z AUTO 00000KT 5SM -RA BR OVC003 04/03 A3036 RMK AO2 RAE39B55 SLP300 P0000 T00390033=
201812281156 METAR KPWT 281156Z AUTO 18003KT 7SM -RA OVC003 04/03 A3036 RMK AO2 SLP302 P0001 60001 70001 T00390033 10039 20017 58010=
201812281056 METAR KPWT 281056Z AUTO 20003KT 7SM -RA OVC003 04/03 A3039 RMK AO2 UPB05E17 SLP311 P0000 T00390033=
201812281025 SPECI KPWT 281025Z AUTO 00000KT 6SM -RA BR BKN003 OVC028 03/03 A3039 RMK AO2 UPB05E17 P0000=
201812280956 METAR KPWT 280956Z AUTO 00000KT 8SM -RA SCT003 OVC028 03/03 A3039 RMK AO2 UPB31E33RAB33 SLP311 P0000 T00330028=
201812280942 SPECI KPWT 280942Z AUTO 00000KT 7SM -RA FEW003 SCT007 OVC028 03/03 A3039 RMK AO2 UPB31E33RAB33 P0000=
201812280920 SPECI KPWT 280920Z AUTO 00000KT 6SM BR SCT007 OVC032 03/02 A3039 RMK AO2=
201812280856 METAR KPWT 280856Z AUTO 00000KT 8SM OVC032 02/02 A3039 RMK AO2 SLP313 T00220022 56002 FZRANO=
201812280830 SPECI KPWT 280830Z AUTO 00000KT 8SM SCT005 OVC034 02/02 A3039 RMK AO2 FZRANO=
201812280804 SPECI KPWT 280804Z AUTO 00000KT 8SM BKN005 OVC032 02/02 A3039 RMK AO2 FZRANO=
201812280756 METAR KPWT 280756Z AUTO 00000KT 10SM SCT003 OVC032 02/02 A3040 RMK AO2 SLP313 T00220022 400610006 FZRANO TSNO=
201812280753 SPECI KPWT 280753Z AUTO 00000KT 9SM SCT003 OVC032 02/02 A3040 RMK AO2 400610006 FZRANO=
201812280656 METAR KPWT 280656Z AUTO 00000KT 10SM OVC036 02/02 A3040 RMK AO2 SLP315 T00220022 FZRANO=
201812280620 SPECI KPWT 280620Z AUTO 00000KT 7SM FEW009 BKN036 02/02 A3040 RMK AO2 FZRANO=
201812280610 SPECI KPWT 280610Z AUTO 00000KT 2SM BR FEW009 SCT013 SCT036 02/02 A3040 RMK AO2 VIS 1V5 FZRANO=
201812280605 SPECI KPWT 280605Z AUTO 00000KT 1 3/4SM BR SCT009 BKN013 02/02 A3040 RMK AO2 VIS 3/4V5 FZRANO=
201812280556 METAR KPWT 280556Z AUTO 00000KT 10SM FEW008 BKN013 BKN036 02/02 A3040 RMK AO2 SLP312 T00220022 10050 20022 58001 FZRANO=
201812280546 SPECI KPWT 280546Z AUTO 00000KT 10SM FEW008 BKN011 BKN036 02/02 A3040 RMK AO2 FZRANO=
201812280514 SPECI KPWT 280514Z AUTO 00000KT 3SM BR SCT036 OVC075 02/02 A3040 RMK AO2 FZRANO=
201812280502 SPECI KPWT 280502Z AUTO 00000KT 1 3/4SM BR BKN036 BKN085 02/02 A3041 RMK AO2 FZRANO=
201812280456 METAR KPWT 280456Z AUTO 00000KT 9SM BKN036 BKN085 03/02 A3040 RMK AO2 SLP314 T00280022=
201812280356 METAR KPWT 280356Z AUTO 00000KT 10SM BKN036 OVC095 03/03 A3041 RMK AO2 SLP316 T00330028=
201812280256 METAR KPWT 280256Z AUTO 00000KT 9SM OVC065 03/03 A3040 RMK AO2 SLP313 T00330028 53003=
201812280156 METAR KPWT 280156Z AUTO 00000KT 10SM BKN070 OVC120 04/03 A3040 RMK AO2 SLP312 T00390033=
201812280112 SPECI KPWT 280112Z AUTO 00000KT 3SM BR CLR 04/03 A3040 RMK AO2=
201812280104 SPECI KPWT 280104Z AUTO 22003KT 1 3/4SM BR CLR 03/03 A3039 RMK AO2=
201812280056 METAR KPWT 280056Z AUTO 00000KT 10SM CLR 04/04 A3039 RMK AO2 SLP312 T00390039=
201812272356 METAR KPWT 272356Z AUTO 00000KT 10SM FEW014 05/04 A3039 RMK AO2 SLP311 T00500039 10061 20028 51006=
201812272256 METAR KPWT 272256Z AUTO 00000KT 10SM OVC038 06/04 A3039 RMK AO2 SLP311 T00560039=
201812272156 METAR KPWT 272156Z AUTO 00000KT 10SM OVC036 05/03 A3038 RMK AO2 SLP308 T00500033=
201812272056 METAR KPWT 272056Z AUTO 00000KT 10SM FEW009 04/03 A3037 RMK AO2 SLP305 T00440033 56003=
201812272052 SPECI KPWT 272052Z AUTO 00000KT 10SM FEW009 04/04 A3037 RMK AO2=
201812272018 SPECI KPWT 272018Z AUTO 27004KT 10SM BKN007 BKN033 05/04 A3037 RMK AO2 CIG 003V010=
201812272011 SPECI KPWT 272011Z AUTO 00000KT 10SM BKN005 BKN033 05/04 A3037 RMK AO2 CIG 003V010=
201812271956 METAR KPWT 271956Z AUTO 00000KT 10SM SCT003 BKN035 04/04 A3038 RMK AO2 SLP306 T00440039=
201812271856 METAR KPWT 271856Z AUTO 00000KT 10SM BKN003 OVC035 04/03 A3038 RMK AO2 SLP309 T00390033=
201812271854 SPECI KPWT 271854Z AUTO 00000KT 10SM BKN003 OVC035 04/03 A3038 RMK AO2=
201812271819 SPECI KPWT 271819Z AUTO 10SM FEW001 OVC037 03/03 A3038 RMK AO2=
201812271756 METAR KPWT 271756Z AUTO 00000KT 9SM OVC001 03/03 A3038 RMK AO2 SLP306 T00280028 10028 20011 51020=
201812271748 SPECI KPWT 271748Z AUTO 00000KT 3SM BR OVC001 03/02 A3038 RMK AO2=
201812271728 SPECI KPWT 271728Z AUTO 1 1/4SM BR BKN001 OVC036 02/02 A3038 RMK AO2 FZRANO=
201812271700 SPECI KPWT 271700Z AUTO 20003KT 1/4SM FG BKN001 OVC036 02/02 A3036 RMK AO2 FZRANO=
201812271656 METAR KPWT 271656Z AUTO 20004KT 1/2SM FG SCT001 OVC036 02/02 A3036 RMK AO2 SLP301 T00220022 FZRANO TSNO=
201812271653 SPECI KPWT 271653Z AUTO 21004KT 1/2SM FG SCT001 OVC036 02/02 A3036 RMK AO2 FZRANO=
201812271648 SPECI KPWT 271648Z AUTO 21004KT 1SM BR FEW001 OVC036 02/02 A3036 RMK AO2 FZRANO=
201812271630 SPECI KPWT 271630Z AUTO 21004KT 1/2SM FG FEW001 OVC036 02/02 A3036 RMK AO2 FZRANO=
201812271628 SPECI KPWT 271628Z AUTO 21003KT 1SM BR FEW001 OVC036 02/01 A3036 RMK AO2 FZRANO=
201812271626 SPECI KPWT 271626Z AUTO 22003KT 2SM BR FEW001 OVC034 01/01 A3035 RMK AO2 FZRANO=
201812271556 METAR KPWT 271556Z AUTO 00000KT 10SM OVC034 02/02 A3034 RMK AO2 SLP293 T00170017 FZRANO=
201812271521 SPECI KPWT 271521Z AUTO 00000KT 9SM FEW018 SCT026 OVC034 02/02 A3033 RMK AO2 FZRANO=
201812271514 SPECI KPWT 271514Z AUTO 00000KT 2 1/2SM BR FEW002 BKN026 OVC034 02/02 A3032 RMK AO2 FZRANO=
201812271509 SPECI KPWT 271509Z AUTO 00000KT 1SM BR SCT002 OVC026 02/02 A3032 RMK AO2 FZRANO=
201812271456 METAR KPWT 271456Z AUTO 00000KT 1/2SM FG BKN002 OVC026 02/01 A3032 RMK AO2 SLP286 T00170011 53013 FZRANO=
201812271356 METAR KPWT 271356Z AUTO 00000KT 1/4SM FG OVC002 02/02 A3030 RMK AO2 SLP281 T00170017 FZRANO=
201812271337 SPECI KPWT 271337Z AUTO 00000KT 1/4SM FG OVC002 02/02 A3030 RMK AO2 FZRANO=
201812271331 SPECI KPWT 271331Z AUTO 00000KT 3/4SM BR OVC002 02/02 A3030 RMK AO2 FZRANO=
201812271317 SPECI KPWT 271317Z AUTO 00000KT 1 1/4SM BR BKN002 OVC018 02/02 A3029 RMK AO2 FZRANO=
201812271309 SPECI KPWT 271309Z AUTO 00000KT 3/4SM BR BKN002 OVC018 02/02 A3029 RMK AO2 FZRANO=
201812271256 METAR KPWT 271256Z AUTO 00000KT 1/2SM FG FEW002 OVC018 02/02 A3028 RMK AO2 SLP275 T00220022 FZRANO=
201812271253 SPECI KPWT 271253Z AUTO 00000KT 1/2SM FG SCT002 OVC018 02/02 A3028 RMK AO2 FZRANO=
201812271238 SPECI KPWT 271238Z AUTO 00000KT 1/4SM FG SCT002 OVC016 02/02 A3028 RMK AO2 FZRANO=
201812271156 METAR KPWT 271156Z AUTO 00000KT 1/4SM FG OVC002 02/02 A3027 RMK AO2 SLP269 7//// T00220022 10028 20006 51020 FZRANO=
201812271104 SPECI KPWT 271104Z AUTO 00000KT 1/4SM FG OVC002 02/02 A3026 RMK AO2 FZRANO=
201812271056 METAR KPWT 271056Z AUTO 00000KT 1/2SM FG OVC002 02/02 A3026 RMK AO2 SLP267 T00170017 FZRANO=
201812271052 SPECI KPWT 271052Z AUTO 00000KT 3/4SM BR OVC002 02/01 A3026 RMK AO2 FZRANO=
201812271050 SPECI KPWT 271050Z AUTO 00000KT 1 1/4SM BR OVC002 01/01 A3026 RMK AO2 FZRANO=
201812271016 SPECI KPWT 271016Z AUTO 00000KT 4SM BR BKN002 OVC055 01/01 A3024 RMK AO2 FZRANO=
201812271005 SPECI KPWT 271005Z AUTO 00000KT 7SM SCT002 SCT042 BKN055 01/01 A3024 RMK AO2 FZRANO=
201812270956 METAR KPWT 270956Z AUTO 00000KT 7SM FEW042 BKN050 01/01 A3023 RMK AO2 SLP257 T00110011 FZRANO=
201812270856 METAR KPWT 270856Z AUTO 00000KT 10SM BKN032 03/02 A3021 RMK AO2 SLP248 T00280022 53020=
201812270756 METAR KPWT 270756Z AUTO 00000KT 9SM OVC034 03/02 A3018 RMK AO2 SLP241 T00280022 400500011=
201812270712 SPECI KPWT 270712Z AUTO 00000KT 10SM SCT011 OVC032 03/03 A3017 RMK AO2=
201812270656 METAR KPWT 270656Z AUTO 00000KT 9SM BKN011 OVC030 03/03 A3016 RMK AO2 SLP235 T00280028=
201812270556 METAR KPWT 270556Z AUTO 00000KT 5SM BR OVC011 02/02 A3014 RMK AO2 SLP226 60001 T00220017 10044 20011 53022 FZRANO=
201812270545 SPECI KPWT 270545Z AUTO 00000KT 3SM BR OVC011 02/02 A3014 RMK AO2 FZRANO=
201812270533 SPECI KPWT 270533Z AUTO 00000KT 1 1/4SM BR OVC011 02/02 A3014 RMK AO2 FZRANO=
201812270523 SPECI KPWT 270523Z AUTO 00000KT 1SM BR OVC011 02/02 A3013 RMK AO2 FZRANO=
201812270519 SPECI KPWT 270519Z AUTO 00000KT 1/2SM FG FEW001 OVC011 02/02 A3013 RMK AO2 FZRANO=
201812270509 SPECI KPWT 270509Z AUTO 00000KT 3/4SM BR SCT001 OVC011 02/01 A3013 RMK AO2 FZRANO=
201812270501 SPECI KPWT 270501Z AUTO 00000KT 1SM BR SCT001 BKN011 OVC075 02/02 A3012 RMK AO2 FZRANO=
201812270456 METAR KPWT 270456Z AUTO 08003KT 3/4SM BR BKN001 BKN011 BKN075 01/01 A3012 RMK AO2 SLP217 T00110011 FZRANO=
201812270447 SPECI KPWT 270447Z AUTO 00000KT 1/2SM FG SCT001 BKN075 01/01 A3012 RMK AO2 FZRANO=
201812270440 SPECI KPWT 270440Z AUTO 00000KT 1/2SM FG FEW010 BKN075 02/02 A3011 RMK AO2 FZRANO=
201812270433 SPECI KPWT 270433Z AUTO 00000KT 3/4SM BR FEW010 SCT041 SCT075 02/02 A3011 RMK AO2 FZRANO TSNO=
201812270430 SPECI KPWT 270430Z AUTO 00000KT 1 3/4SM BR FEW010 SCT041 02/02 A3011 RMK AO2 VIS 1/2V4 FZRANO=
201812270413 SPECI KPWT 270413Z AUTO 00000KT 3SM BR FEW010 SCT041 03/02 A3010 RMK AO2=
201812270355 METAR KPWT 270355Z AUTO 00000KT 1 1/2SM BR CLR 03/02 A3010 RMK AO2 VIS 3/4V4 SLP211 T00280022=
201812270354 SPECI KPWT 270354Z AUTO 00000KT 1 3/4SM BR CLR 03/03 A3010 RMK AO2 VIS 3/4V5=
201812270256 METAR KPWT 270256Z AUTO 00000KT 10SM FEW010 BKN055 04/03 A3008 RMK AO2 RAE28 SLP205 P0000 60001 T00390033 51015=
201812270156 METAR KPWT 270156Z AUTO 00000KT 10SM -RA OVC010 04/04 A3006 RMK AO2 SLP200 P0000 T00440039=
201812270112 SPECI KPWT 270112Z AUTO 00000KT 10SM -RA FEW007 OVC012 04/04 A3005 RMK AO2 P0000=
201812270056 METAR KPWT 270056Z AUTO 20004KT 10SM -RA BKN007 OVC010 04/04 A3005 RMK AO2 SLP195 P0001 T00440039=
201812262356 METAR KPWT 262356Z AUTO 22003KT 10SM -RA OVC006 04/04 A3003 RMK AO2 CIG 003V010 SLP190 P0001 60007 T00440039 10050 20028 53013=
201812262318 SPECI KPWT 262318Z AUTO 23005KT 10SM -RA OVC006 04/04 A3003 RMK AO2 CIG 004V009 P0000=
201812262256 METAR KPWT 262256Z AUTO 24003KT 10SM -RA OVC004 04/04 A3002 RMK AO2 RAB29 SLP185 P0000 T00440039=
201812262226 SPECI KPWT 262226Z AUTO 00000KT 10SM OVC004 05/04 A3001 RMK AO2 CIG 003V007=
201812262156 METAR KPWT 262156Z AUTO 24004KT 10SM OVC006 05/04 A3000 RMK AO2 SLP179 T00500039=
201812262056 METAR KPWT 262056Z AUTO 21007KT 10SM OVC006 05/04 A2999 RMK AO2 SLP176 60006 T00500039 58013=
201812261956 METAR KPWT 261956Z AUTO 20008KT 10SM OVC006 04/03 A3001 RMK AO2 RAE48 CIG 004V008 SLP181 P0000 T00440033=
201812261856 METAR KPWT 261856Z AUTO VRB05KT 4SM -RA BR OVC006 04/03 A3002 RMK AO2 CIG 004V009 SLP186 P0006 T00390033=
201812261826 SPECI KPWT 261826Z AUTO VRB04KT 3SM -RA BR OVC006 03/03 A3003 RMK AO2 CIG 004V008 P0003=
201812261756 METAR KPWT 261756Z AUTO 18004KT 2 1/2SM -RA BR OVC006 03/02 A3003 RMK AO2 CIG 004V011 SLP190 P0007 6//// T00280022 10033 20028 50000=
201812261726 SPECI KPWT 261726Z AUTO VRB03KT 2 1/2SM -RA BR BKN006 OVC009 03/03 A3003 RMK AO2 CIG 004V008 P0003=
201812261717 SPECI KPWT 261717Z AUTO VRB05KT 3SM -RA BR OVC008 03/03 A3003 RMK AO2 CIG 004V010 P0002=
201812261709 SPECI KPWT 261709Z AUTO VRB04KT 2 1/2SM -RA BR OVC008 03/03 A3003 RMK AO2 CIG 004V011 P0001=
201812261656 METAR KPWT 261656Z AUTO 20006KT 4SM -RA BR BKN008 OVC011 03/03 A3004 RMK AO2 SLP191 P0007 T00330028=
201812261556 METAR KPWT 261556Z AUTO 20007KT 8SM -RA OVC008 03/03 A3003 RMK AO2 CIG 006V010 SLP190 P0005 T00330028=
201812261530 SPECI KPWT 261530Z AUTO 20008KT 10SM -RA BKN008 OVC014 03/02 A3003 RMK AO2 CIG 006V010 P0003=
201812261515 SPECI KPWT 261515Z AUTO 20009KT 10SM -RA OVC014 03/02 A3003 RMK AO2 P0002=
201812261456 METAR KPWT 261456Z AUTO 21008KT 10SM -RA BKN016 OVC023 03/02 A3004 RMK AO2 SLP191 P0001 6//// T00330022 56015=
201812261421 SPECI KPWT 261421Z AUTO 19004KT 10SM -RA BKN027 OVC033 03/02 A3004 RMK AO2 P0000=
201812261356 METAR KPWT 261356Z AUTO 22004KT 10SM -RA SCT029 OVC039 03/02 A3005 RMK AO2 RAB22 SLP194 P0000 T00280022=
201812261256 METAR KPWT 261256Z AUTO 20005KT 10SM BKN043 03/02 A3005 RMK AO2 RAB35E45 SLP196 T00280017=
201812261156 METAR KPWT 261156Z AUTO 21005KT 10SM FEW043 OVC080 03/02 A3008 RMK AO2 SLP206 6//// 7//// T00330022 10039 20033 58021=
201812261116 SPECI KPWT 261116Z AUTO 18005KT 10SM SCT011 BKN085 03/02 A3010 RMK AO2=
201812261056 METAR KPWT 261056Z AUTO 18005KT 10SM BKN011 OVC100 03/02 A3012 RMK AO2 SLP217 T00330022=
201812261052 SPECI KPWT 261052Z AUTO 20004KT 10SM BKN011 OVC100 03/02 A3012 RMK AO2=
201812260956 METAR KPWT 260956Z AUTO 19004KT 10SM OVC100 03/02 A3014 RMK AO2 SLP227 T00330022=
201812260856 METAR KPWT 260856Z AUTO 20005KT 10SM BKN110 03/03 A3014 RMK AO2 SLP227 6//// T00330028 58002=
201812260808 SPECI KPWT 260808Z AUTO 21006KT 10SM FEW006 SCT039 BKN100 04/03 A3015 RMK AO2=
201812260756 METAR KPWT 260756Z AUTO 21004KT 10SM BKN006 BKN039 03/03 A3016 RMK AO2 CIG 005V008 SLP233 T00330033 400720000=
201812260740 SPECI KPWT 260740Z AUTO 21004KT 10SM BKN006 03/03 A3017 RMK AO2 CIG 005V009=
201812260656 METAR KPWT 260656Z AUTO 00000KT 9SM FEW009 BKN090 03/03 A3015 RMK AO2 SLP230 T00330028 TSNO=
201812260653 SPECI KPWT 260653Z AUTO 00000KT 9SM FEW009 SCT018 BKN090 03/03 A3015 RMK AO2=
201812260636 SPECI KPWT 260636Z AUTO 00000KT 9SM SCT008 BKN019 OVC038 03/03 A3016 RMK AO2=
201812260629 SPECI KPWT 260629Z AUTO 00000KT 8SM BKN016 BKN038 OVC049 03/03 A3016 RMK AO2=
201812260556 METAR KPWT 260556Z AUTO 00000KT 7SM SCT040 OVC047 03/03 A3017 RMK AO2 SLP237 60000 T00330028 10056 20033 56012=
201812260456 METAR KPWT 260456Z AUTO 00000KT 6SM BR OVC037 03/03 A3019 RMK AO2 SLP242 T00330033=
201812260441 SPECI KPWT 260441Z AUTO 00000KT 5SM BR OVC030 03/03 A3019 RMK AO2=
201812260426 SPECI KPWT 260426Z AUTO 00000KT 2 1/2SM BR BKN030 OVC041 03/03 A3019 RMK AO2=
201812260420 SPECI KPWT 260420Z AUTO 00000KT 5SM BR BKN028 BKN033 OVC041 03/03 A3019 RMK AO2=
201812260356 METAR KPWT 260356Z AUTO 00000KT 8SM BKN041 OVC050 03/03 A3019 RMK AO2 SLP241 T00330033=
201812260331 SPECI KPWT 260331Z AUTO 00000KT 8SM FEW023 OVC039 04/04 A3020 RMK AO2=
201812260323 SPECI KPWT 260323Z AUTO 00000KT 8SM BKN023 OVC037 04/03 A3020 RMK AO2=
201812260316 SPECI KPWT 260316Z AUTO 00000KT 9SM SCT023 OVC037 04/04 A3020 RMK AO2=
201812260256 METAR KPWT 260256Z AUTO 00000KT 8SM SCT023 BKN037 OVC050 04/04 A3021 RMK AO2 SLP250 60000 T00390039 56004=
201812260246 SPECI KPWT 260246Z AUTO 00000KT 10SM SCT025 BKN037 OVC050 04/04 A3021 RMK AO2=
201812260236 SPECI KPWT 260236Z AUTO 00000KT 10SM BKN025 OVC037 04/04 A3021 RMK AO2=
201812260223 SPECI KPWT 260223Z AUTO 00000KT 10SM SCT029 OVC037 04/04 A3021 RMK AO2=
201812260156 METAR KPWT 260156Z AUTO 00000KT 10SM BKN025 OVC035 04/04 A3021 RMK AO2 SLP250 T00440039=
201812260124 SPECI KPWT 260124Z AUTO 00000KT 10SM BKN020 OVC040 05/04 A3021 RMK AO2=
201812260113 SPECI KPWT 260113Z AUTO 00000KT 10SM SCT022 OVC040 04/04 A3021 RMK AO2=
201812260056 METAR KPWT 260056Z AUTO 00000KT 10SM BKN022 OVC033 05/04 A3022 RMK AO2 RAE07 SLP252 P0000 T00500039=
201812252356 METAR KPWT 252356Z AUTO 00000KT 10SM -RA BKN024 OVC032 06/04 A3022 RMK AO2 RAB49 SLP254 P0000 60000 T00560039 10072 20033 58001=
201812252325 SPECI KPWT 252325Z AUTO 00000KT 10SM BKN026 OVC039 06/03 A3023 RMK AO2=
201812252314 SPECI KPWT 252314Z AUTO 15004KT 10SM SCT026 OVC039 06/04 A3023 RMK AO2=
201812252256 METAR KPWT 252256Z AUTO 00000KT 10SM BKN026 OVC037 06/04 A3023 RMK AO2 SLP255 T00610039=
201812252156 METAR KPWT 252156Z AUTO 00000KT 10SM FEW029 BKN035 OVC048 06/03 A3022 RMK AO2 SLP253 T00610028=
201812252056 METAR KPWT 252056Z AUTO 00000KT 10SM FEW026 07/03 A3022 RMK AO2 RAE20 SLP253 P0000 60000 T00670033 58007=
201812252041 SPECI KPWT 252041Z AUTO 00000KT 10SM SCT025 06/03 A3023 RMK AO2 RAE20 P0000=
201812251956 METAR KPWT 251956Z AUTO 00000KT 10SM -RA OVC025 06/04 A3024 RMK AO2 RAB42 SLP259 P0000 T00560039=
201812251915 SPECI KPWT 251915Z AUTO 00000KT 10SM SCT012 OVC025 05/03 A3024 RMK AO2=
201812251856 METAR KPWT 251856Z AUTO 00000KT 10SM OVC012 04/03 A3025 RMK AO2 RAB1757E43 SLP262 P0000 T00440033=
201812251843 SPECI KPWT 251843Z AUTO 00000KT 10SM BKN012 OVC018 05/03 A3025 RMK AO2 RAB1757E43 P0000=
201812251756 METAR KPWT 251756Z AUTO 00000KT 10SM BKN024 OVC031 03/03 A3024 RMK AO2 SLP261 T00330033 10033 20000 53011=
201812251722 SPECI KPWT 251722Z AUTO 00000KT 10SM FEW022 OVC031 03/03 A3025 RMK AO2=
201812251656 METAR KPWT 251656Z AUTO 00000KT 10SM SCT015 OVC022 03/03 A3024 RMK AO2 SLP259 T00280028=
201812251649 SPECI KPWT 251649Z AUTO 00000KT 10SM BKN015 OVC022 03/03 A3024 RMK AO2=
201812251556 METAR KPWT 251556Z AUTO 00000KT 10SM BKN012 02/02 A3021 RMK AO2 SLP251 T00170017 FZRANO=
201812251552 SPECI KPWT 251552Z AUTO 00000KT 10SM BKN012 BKN049 02/02 A3021 RMK AO2 FZRANO=
201812251456 METAR KPWT 251456Z AUTO 12003KT 10SM OVC043 02/02 A3019 RMK AO2 SLP244 T00220022 50007 FZRANO=
201812251356 METAR KPWT 251356Z AUTO 00000KT 10SM FEW021 OVC043 02/02 A3020 RMK AO2 SLP246 T00170017 FZRANO=
201812251321 SPECI KPWT 251321Z AUTO 20004KT 10SM FEW019 OVC045 01/01 A3019 RMK AO2 FZRANO=
201812251256 METAR KPWT 251256Z AUTO 00000KT 10SM BKN019 OVC047 01/01 A3019 RMK AO2 SLP242 T00110006 FZRANO=
201812251244 SPECI KPWT 251244Z AUTO 00000KT 10SM BKN017 01/01 A3018 RMK AO2 FZRANO=
201812251214 SPECI KPWT 251214Z AUTO 21004KT 10SM SCT015 01/01 A3018 RMK AO2 FZRANO=
201812251156 METAR KPWT 251156Z AUTO 23003KT 10SM BKN015 01/01 A3017 RMK AO2 SLP237 6//// 7//// T00060006 10050 20006 FZRANO=
201812251119 SPECI KPWT 251119Z AUTO 22005KT 10SM FEW016 02/01 A3016 RMK AO2 FZRANO=
201812251056 METAR KPWT 251056Z AUTO 06005KT 10SM BKN016 05/04 A3016 RMK AO2 SLP230 T00500039=
201812251033 SPECI KPWT 251033Z AUTO 07004KT 10SM OVC016 05/04 A3015 RMK AO2=
201812250956 METAR KPWT 250956Z AUTO 06006KT 10SM OVC014 05/04 A3014 RMK AO2 SLP228 T00500039=
201812250937 SPECI KPWT 250937Z AUTO 05004KT 10SM OVC010 05/04 A3014 RMK AO2 CIG 007V013=
201812250926 SPECI KPWT 250926Z AUTO 05004KT 10SM OVC008 05/04 A3013 RMK AO2 CIG 007V013=
201812250856 METAR KPWT 250856Z AUTO 10SM OVC012 05/04 RMK AO2 SLPNO 6//// T00500039 $=
201812250825 SPECI KPWT 250825Z AUTO 06006KT 10SM BKN012 05/04 A3011 RMK AO2=
201812250756 METAR KPWT 250756Z AUTO 05008KT 10SM CLR 04/03 A3010 RMK AO2 SLP211 T00440033 400890039=
201812250656 METAR KPWT 250656Z AUTO 05008KT 10SM CLR 04/03 A3009 RMK AO2 SLP209 T00440033=
201812250556 METAR KPWT 250556Z AUTO 05009KT 10SM CLR 04/03 A3009 RMK AO2 SLP207 6//// T00440033 10067 20044 53023=
201812250356 METAR KPWT 250356Z AUTO 06008KT 10SM CLR 05/02 A3004 RMK AO2 SLP191 T00500022=
201812250256 METAR KPWT 250256Z AUTO 04006KT 10SM CLR 06/02 A3002 RMK AO2 SLP184 T00560022 53008=
201812250156 METAR KPWT 250156Z AUTO 04003KT 10SM CLR 04/03 A3001 RMK AO2 SLP181 T00440028=
201812250056 METAR KPWT 250056Z AUTO 03005KT 10SM CLR 05/04 A3000 RMK AO2 SLP177 T00500039=
201812242356 METAR KPWT 242356Z AUTO 03007KT 10SM FEW012 07/05 A3000 RMK AO2 SLP175 T00670050 10089 20056 53003=
201812242256 METAR KPWT 242256Z AUTO 02006G14KT 10SM FEW011 07/05 A2999 RMK AO2 SLP172 T00720050=
201812242156 METAR KPWT 242156Z AUTO 03007KT 10SM CLR 08/06 A2998 RMK AO2 SLP172 T00830056=
201812242056 METAR KPWT 242056Z AUTO 35007KT 10SM SCT030 09/06 A2999 RMK AO2 SLP174 T00890056 56011=
201812241956 METAR KPWT 241956Z AUTO 06006KT 10SM OVC032 07/06 A2999 RMK AO2 SLP175 T00720056=
201812241856 METAR KPWT 241856Z AUTO 03005KT 10SM OVC032 06/06 A3001 RMK AO2 SLP179 T00610056=
201812241829 SPECI KPWT 241829Z AUTO 03005KT 10SM SCT003 OVC036 06/06 A3002 RMK AO2=
201812241803 SPECI KPWT 241803Z AUTO 03005KT 5SM BR OVC003 06/06 A3002 RMK AO2=
201812241756 METAR KPWT 241756Z AUTO 03005KT 2 1/2SM BR OVC003 06/06 A3002 RMK AO2 SLP183 60001 T00560056 10056 20044 50001=
201812241713 SPECI KPWT 241713Z AUTO 04005KT 4SM BR BKN003 OVC009 06/06 A3002 RMK AO2=
201812241703 SPECI KPWT 241703Z AUTO 04004KT 6SM BR SCT003 OVC009 06/06 A3002 RMK AO2=
201812241656 METAR KPWT 241656Z AUTO 05004KT 2 1/2SM BR BKN003 OVC009 06/05 A3002 RMK AO2 SLP184 T00560050=
201812241648 SPECI KPWT 241648Z AUTO 05004KT 1 3/4SM BR BKN003 OVC009 06/05 A3002 RMK AO2=
201812241638 SPECI KPWT 241638Z AUTO 04003KT 1SM BR BKN003 OVC007 05/05 A3002 RMK AO2=
201812241626 SPECI KPWT 241626Z AUTO 03003KT 3/4SM BR BKN003 OVC008 05/05 A3002 RMK AO2 CIG 002V007=
201812241618 SPECI KPWT 241618Z AUTO 03003KT 1/2SM FG OVC005 05/05 A3002 RMK AO2 CIG 003V008=
201812241606 SPECI KPWT 241606Z AUTO 03003KT 1/4SM FG OVC003 05/05 A3002 RMK AO2=
201812241556 METAR KPWT 241556Z AUTO 02003KT 1/2SM FG OVC003 05/05 A3002 RMK AO2 CIG 002V007 SLP183 T00500050=
201812241549 SPECI KPWT 241549Z AUTO 00000KT 3/4SM BR OVC003 05/05 A3002 RMK AO2 CIG 002V006=
201812241537 SPECI KPWT 241537Z AUTO 00000KT 1 3/4SM BR OVC003 05/05 A3002 RMK AO2 CIG 002V006=
201812241516 SPECI KPWT 241516Z AUTO 00000KT 7SM OVC003 05/05 A3002 RMK AO2=
201812241503 SPECI KPWT 241503Z AUTO 00000KT 7SM OVC005 05/04 A3002 RMK AO2 CIG 003V008=
201812241456 METAR KPWT 241456Z AUTO 00000KT 9SM BKN003 OVC008 05/04 A3002 RMK AO2 SLP184 60001 T00500044 56010=
201812241431 SPECI KPWT 241431Z AUTO 00000KT 10SM FEW003 OVC008 05/04 A3003 RMK AO2=
201812241423 SPECI KPWT 241423Z AUTO 00000KT 10SM FEW005 BKN010 OVC033 04/04 A3003 RMK AO2=
201812241413 SPECI KPWT 241413Z AUTO 00000KT 10SM SCT002 BKN008 OVC033 04/04 A3003 RMK AO2 CIG 007V010=
201812241356 METAR KPWT 241356Z AUTO 00000KT 10SM SCT002 OVC033 05/04 A3003 RMK AO2 SLP186 T00500044=
201812241329 SPECI KPWT 241329Z AUTO 00000KT 3SM BR OVC002 05/04 A3003 RMK AO2=
201812241320 SPECI KPWT 241320Z AUTO 00000KT 1 1/2SM BR OVC002 05/04 A3003 RMK AO2=
201812241256 METAR KPWT 241256Z AUTO 00000KT 1SM BR BKN002 OVC010 05/04 A3003 RMK AO2 SLP189 P0001 T00500044=
201812241248 SPECI KPWT 241248Z AUTO 00000KT 3/4SM BR OVC002 05/05 A3004 RMK AO2 P0001=
201812241236 SPECI KPWT 241236Z AUTO 00000KT 1/2SM FG OVC002 05/05 A3004 RMK AO2=
201812241224 SPECI KPWT 241224Z AUTO 00000KT 3/4SM BR OVC002 05/04 A3004 RMK AO2=
201812241215 SPECI KPWT 241215Z AUTO 22003KT 1SM BR OVC002 05/04 A3005 RMK AO2=
201812241156 METAR KPWT 241156Z AUTO 19003KT 2 1/2SM BR OVC002 05/05 A3005 RMK AO2 SLP194 7//// T00500050 10061 20039 50003=
201812241141 SPECI KPWT 241141Z AUTO 00000KT 2 1/2SM BR OVC002 05/05 A3005 RMK AO2=
201812241132 SPECI KPWT 241132Z AUTO 00000KT 3SM BR OVC002 05/05 A3005 RMK AO2=
201812241056 METAR KPWT 241056Z AUTO 00000KT 4SM BR BKN002 OVC005 05/05 A3005 RMK AO2 CIG 002V005 SLP194 T00500050=
201812241049 SPECI KPWT 241049Z AUTO 23003KT 4SM BR OVC005 05/04 A3005 RMK AO2 CIG 002V007=
201812240956 METAR KPWT 240956Z AUTO 00000KT 10SM BKN009 OVC013 04/04 A3005 RMK AO2 CIG 006V011 SLP193 T00440044=
201812240939 SPECI KPWT 240939Z AUTO 00000KT 10SM BKN007 OVC011 04/04 A3004 RMK AO2 CIG 005V010=
201812240856 METAR KPWT 240856Z AUTO 00000KT 10SM OVC005 04/04 A3004 RMK AO2 SLP191 T00440044 52003=
201812240851 SPECI KPWT 240851Z AUTO 00000KT 10SM OVC005 04/04 A3004 RMK AO2=
201812240756 METAR KPWT 240756Z AUTO 00000KT 10SM OVC007 05/04 A3003 RMK AO2 CIG 004V010 SLP188 T00500044 400670050=
201812240704 SPECI KPWT 240704Z AUTO 22003KT 10SM OVC005 06/06 A3003 RMK AO2 CIG 003V009=
201812240656 METAR KPWT 240656Z AUTO 23006KT 10SM OVC003 06/06 A3003 RMK AO2 CIG 003V007 SLP189 T00610056=
201812240556 METAR KPWT 240556Z AUTO 23006KT 10SM OVC003 06/06 A3002 RMK AO2 SLP185 60003 T00610061 10067 20061 53007=
201812240522 SPECI KPWT 240522Z AUTO 20004KT 3SM BR OVC003 06/06 A3001 RMK AO2=
201812240518 SPECI KPWT 240518Z AUTO 20004KT 1 1/4SM BR OVC003 06/06 A3001 RMK AO2=
201812240514 SPECI KPWT 240514Z AUTO 20004KT 3/4SM BR OVC003 06/06 RMK AO2 $=
201812240456 METAR KPWT 240456Z AUTO 22003KT 1/2SM FG OVC003 06/06 A3001 RMK AO2 RAE07 SLP180 P0000 T00610061=
201812240452 SPECI KPWT 240452Z AUTO 23003KT 3/4SM BR OVC003 06/06 A3001 RMK AO2 RAE07 P0000=
201812240448 SPECI KPWT 240448Z AUTO 23003KT 1 3/4SM BR OVC003 06/06 A3001 RMK AO2 RAE07 P0000=
201812240356 METAR KPWT 240356Z AUTO 23005KT 10SM -RA OVC003 06/06 A3001 RMK AO2 SLP178 P0001 T00610061=
201812240256 METAR KPWT 240256Z AUTO 21004KT 10SM -RA OVC003 07/06 A3000 RMK AO2 RAB21 SLP180 P0000 60002 T00670061 53004=
201812240235 SPECI KPWT 240235Z AUTO 20006KT 10SM -RA BKN003 BKN012 BKN060 07/06 A3000 RMK AO2 RAB21 P0000=
201812240203 SPECI KPWT 240203Z AUTO 19005KT 10SM SCT005 OVC042 07/06 A3000 RMK AO2=
201812240156 METAR KPWT 240156Z AUTO 21003KT 10SM BKN005 OVC044 07/06 A3000 RMK AO2 SLP178 P0001 T00670061=
201812240138 SPECI KPWT 240138Z AUTO 20005KT 10SM BKN005 BKN044 OVC050 06/06 A3000 RMK AO2=
201812240126 SPECI KPWT 240126Z AUTO 20004KT 10SM SCT005 BKN044 OVC055 06/06 A3000 RMK AO2=
201812240056 METAR KPWT 240056Z AUTO 00000KT 10SM FEW050 BKN060 06/06 A2999 RMK AO2 RAE40 SLP174 P0001 T00610056=
201812232356 METAR KPWT 232356Z AUTO 20006KT 10SM -RA SCT035 BKN047 BKN055 07/06 A2999 RMK AO2 SLP174 P0002 6//// T00670056 10067 20061=
201812232256 METAR KPWT 232256Z AUTO 19007KT 10SM -RA BKN039 BKN048 07/06 RMK AO2 RAB2157E12B29 SLPNO P0001 T00670056 $=
201812232156 METAR KPWT 232156Z AUTO 20010KT 10SM FEW080 06/05 A2996 RMK AO2 RAE53 SLP164 P0001 T00610050=
201812232056 METAR KPWT 232056Z AUTO 19012KT 8SM RA FEW008 BKN032 OVC040 06/05 A2997 RMK AO2 SLP165 P0012 6//// T00610050 50001=
201812232018 SPECI KPWT 232018Z AUTO 20006KT 6SM -RA BR SCT005 SCT020 OVC033 07/06 A2997 RMK AO2 P0006=
201812231956 METAR KPWT 231956Z AUTO 21008KT 8SM -RA BKN005 OVC024 07/06 A2998 RMK AO2 RAB12 SLP170 T00670061=
201812231943 SPECI KPWT 231943Z AUTO 18008KT 10SM -RA BKN005 OVC024 07/06 A2997 RMK AO2 RAB12=
201812231932 SPECI KPWT 231932Z AUTO 19009KT 10SM -RA SCT005 BKN024 OVC047 07/06 A2997 RMK AO2 RAB12=
201812231856 METAR KPWT 231856Z AUTO 19009KT 10SM OVC005 07/06 A2997 RMK AO2 SLP167 T00670056=
201812231836 SPECI KPWT 231836Z AUTO 20007KT 10SM BKN005 06/06 A2997 RMK AO2=
201812231815 SPECI KPWT 231815Z AUTO 19007KT 10SM FEW005 SCT031 SCT060 06/06 A2996 RMK AO2=
201812231756 METAR KPWT 231756Z AUTO 19006KT 10SM SCT046 BKN060 06/06 A2996 RMK AO2 RAB00E50 SLP165 P0000 60038 T00610056 10061 20050 53018=
201812231656 METAR KPWT 231656Z AUTO 19007KT 10SM SCT070 06/05 A2994 RMK AO2 RAE30 SLP157 P0003 T00610050=
201812231623 SPECI KPWT 231623Z AUTO 18007KT 10SM -RA FEW005 SCT021 BKN035 06/06 A2992 RMK AO2 P0002=
201812231611 SPECI KPWT 231611Z AUTO 21006KT 7SM -RA FEW005 BKN021 OVC042 06/06 A2993 RMK AO2 P0002=
201812231556 METAR KPWT 231556Z AUTO 22007KT 8SM RA BKN021 OVC029 06/06 A2992 RMK AO2 SLP151 P0013 T00610056=
201812231532 SPECI KPWT 231532Z AUTO 7SM -RA BKN029 OVC034 06/05 RMK AO2 P0011 $=
201812231456 METAR KPWT 231456Z AUTO 19008KT 7SM RA FEW004 SCT017 OVC033 06/06 A2991 RMK AO2 SLP147 P0011 60022 T00610056 53006 TSNO=
201812231453 SPECI KPWT 231453Z AUTO 19009KT 7SM -RA SCT004 SCT017 OVC033 06/06 A2991 RMK AO2 P0010=
201812231356 METAR KPWT 231356Z AUTO 21007KT 10SM -RA OVC004 06/06 A2990 RMK AO2 SLP143 P0000 T00610056=
201812231256 METAR KPWT 231256Z AUTO 21009KT 10SM -RA OVC004 06/06 A2989 RMK AO2 CIG 003V007 SLP140 P0011 T00560056=
201812231230 SPECI KPWT 231230Z AUTO 19005KT 10SM -RA OVC004 06/05 A2989 RMK AO2 CIG 003V008 P0010=
201812231156 METAR KPWT 231156Z AUTO 20006KT 10SM -RA BKN006 OVC009 06/05 A2989 RMK AO2 SLP141 P0002 6//// 7//// T00560050 10056 20044 50001=
201812231056 METAR KPWT 231056Z AUTO 20008KT 10SM -RA OVC006 06/04 A2990 RMK AO2 CIG 005V009 SLP142 P0008 T00560044=
201812230956 METAR KPWT 230956Z AUTO 22006KT 8SM -RA OVC006 05/04 A2990 RMK AO2 CIG 004V008 SLP142 P0004 T00500044=
201812230856 METAR KPWT 230856Z AUTO 21006KT 10SM -RA BKN008 OVC013 06/04 A2989 RMK AO2 CIG 005V010 SLP140 P0001 6//// T00560044 50003=
201812230838 SPECI KPWT 230838Z AUTO 25003KT 10SM -RA BKN008 OVC013 05/04 A2989 RMK AO2 CIG 005V010 P0001=
201812230831 SPECI KPWT 230831Z AUTO 25003KT 10SM -RA SCT008 OVC012 05/04 A2989 RMK AO2 P0001=
201812230756 METAR KPWT 230756Z AUTO 24003KT 8SM -RA OVC012 05/04 A2989 RMK AO2 SLP141 P0005 T00500044 400670011=
201812230734 SPECI KPWT 230734Z AUTO 23003KT 10SM -RA FEW004 BKN010 OVC013 05/04 A2990 RMK AO2 CIG 007V011 P0004=
201812230656 METAR KPWT 230656Z AUTO 00000KT 8SM RA BKN007 OVC019 05/04 A2990 RMK AO2 RAB43 CIG 004V008 SLP142 T00500044=
201812230647 SPECI KPWT 230647Z AUTO 30005KT 10SM -RA SCT007 OVC019 05/04 A2990 RMK AO2 RAB43=
201812230627 SPECI KPWT 230627Z AUTO 00000KT 10SM SCT010 OVC021 05/04 A2987 RMK AO2=
201812230556 METAR KPWT 230556Z AUTO 06004KT 10SM OVC010 05/04 A2988 RMK AO2 RAE48 SLP138 P0002 60059 T00500044 10067 20050=
201812230553 SPECI KPWT 230553Z AUTO 05003KT 10SM FEW007 OVC012 05/04 A2988 RMK AO2 RAE48 P0002=
201812230545 SPECI KPWT 230545Z AUTO 00000KT 10SM -RA OVC010 05/04 A2989 RMK AO2 CIG 005V013 P0002=
201812230533 SPECI KPWT 230533Z AUTO 00000KT 9SM -RA BKN008 OVC014 05/04 A2989 RMK AO2 CIG 005V009 P0002=
201812230456 METAR KPWT 230456Z AUTO 00000KT 7SM -RA BKN010 OVC019 05/04 A2992 RMK AO2 CIG 006V012 SLP149 P0012 T00500044=
201812230356 METAR KPWT 230356Z AUTO 23003KT 7SM -RA BKN013 OVC020 05/04 RMK AO2 SLPNO P0010 T00500039 $=
201812230348 SPECI KPWT 230348Z AUTO VRB03KT 8SM -RA BKN015 OVC020 05/04 A2993 RMK AO2 P0009=
201812230326 SPECI KPWT 230326Z AUTO 20005KT 7SM -RA BKN014 OVC020 05/04 A2994 RMK AO2 P0006=
201812230256 METAR KPWT 230256Z AUTO 19007KT 160V230 6SM RA BR FEW009 BKN020 OVC027 05/04 A2994 RMK AO2 SLP158 P0021 60035 T00500039 58005=
201812230253 SPECI KPWT 230253Z AUTO 19006KT 6SM RA BR FEW009 BKN020 OVC027 05/04 A2994 RMK AO2 P0020=
201812230156 METAR KPWT 230156Z AUTO 20010KT 7SM RA OVC024 06/04 A2997 RMK AO2 SLP166 P0012 T00560039=
201812230135 SPECI KPWT 230135Z AUTO 22011KT 7SM RA BKN026 OVC031 06/04 A2996 RMK AO2 P0006=
201812230056 METAR KPWT 230056Z AUTO 21007KT 10SM -RA BKN030 OVC041 06/03 A2996 RMK AO2 RAB20 SLP163 P0002 T00560033=
201812222356 METAR KPWT 222356Z AUTO 23003KT 10SM FEW055 BKN075 BKN085 05/04 A2995 RMK AO2 SLP162 T00500039 10061 20039 56025=
201812222256 METAR KPWT 222256Z AUTO 22004KT 10SM FEW100 06/04 A2997 RMK AO2 SLP167 T00560044=
201812222156 METAR KPWT 222156Z AUTO 00000KT 10SM FEW070 06/04 A2998 RMK AO2 PRESFR SLP172 T00610039=
201812222056 METAR KPWT 222056Z AUTO 22003KT 10SM CLR 06/03 A3003 RMK AO2 SLP188 T00610033 58032=
201812221956 METAR KPWT 221956Z AUTO 00000KT 10SM FEW050 SCT065 06/04 A3007 RMK AO2 SLP201 T00610039=
201812221856 METAR KPWT 221856Z AUTO 26004KT 10SM FEW060 06/04 A3011 RMK AO2 SLP215 T00560039=
201812221756 METAR KPWT 221756Z AUTO VRB05KT 10SM BKN055 04/04 A3012 RMK AO2 SLP219 60005 T00390039 10039 20017 58011=
201812221656 METAR KPWT 221656Z AUTO 00000KT 10SM OVC043 03/03 A3014 RMK AO2 RAB26E38UPB38E40 SLP224 P0000 T00330028=
201812221556 METAR KPWT 221556Z AUTO 23003KT 10SM BKN037 OVC045 03/03 A3015 RMK AO2 SLP227 T00280028=
201812221532 SPECI KPWT 221532Z AUTO 28004KT 10SM FEW003 OVC037 03/03 A3015 RMK AO2=
201812221456 METAR KPWT 221456Z AUTO 00000KT 9SM BKN003 OVC041 03/02 A3016 RMK AO2 UPB06E55 SLP231 P0000 60005 T00280022 58017=
201812221427 SPECI KPWT 221427Z AUTO 00000KT 7SM UP BKN003 BKN010 OVC038 03/02 A3017 RMK AO2 UPB06 P0000=
201812221422 SPECI KPWT 221422Z AUTO 00000KT 6SM UP BR SCT003 SCT010 OVC036 03/02 A3017 RMK AO2 UPB06 P0000=
201812221341 SPECI KPWT 221341Z AUTO 00000KT 8SM -RA FEW017 BKN033 OVC043 03/02 A3018 RMK AO2 P0002=
201812221256 METAR KPWT 221256Z AUTO 00000KT 7SM -RA BKN019 OVC025 02/02 A3019 RMK AO2 UPE05RAB05 SLP242 P0003 T00220022 FZRANO=
201812221156 METAR KPWT 221156Z AUTO 21003KT 9SM UP BKN028 OVC040 02/02 A3021 RMK AO2 RAE55UPB1059E05B55 SLP247 P0000 6//// 7//// T00170017 10022 20006 58005 FZRANO=
201812221056 METAR KPWT 221056Z AUTO 00000KT 8SM -RA OVC038 02/02 A3022 RMK AO2 RAB50 SLP251 T00220017 FZRANO=
201812220956 METAR KPWT 220956Z AUTO 00000KT 7SM OVC036 02/01 A3022 RMK AO2 UPB03E51 SLP251 P0000 T00170011 FZRANO=
201812220915 SPECI KPWT 220915Z AUTO 00000KT 10SM FEW021 SCT029 BKN036 02/02 A3022 RMK AO2 UPB03E14 P0000 FZRANO=
201812220907 SPECI KPWT 220907Z AUTO 00000KT 10SM UP FEW021 BKN028 OVC044 02/02 A3022 RMK AO2 UPB03 P0000 FZRANO=
201812220856 METAR KPWT 220856Z AUTO 19003KT 9SM SCT029 BKN046 OVC055 02/02 A3022 RMK AO2 SLP252 6//// T00220017 57001 FZRANO=
201812220756 METAR KPWT 220756Z AUTO 00000KT 8SM OVC045 01/01 A3022 RMK AO2 SLP254 T00110006 400441028 FZRANO=
201812220656 METAR KPWT 220656Z AUTO 00000KT 8SM FEW033 OVC065 01/01 A3023 RMK AO2 RAE26 SLP255 P0000 T00110011 FZRANO=
201812220556 METAR KPWT 220556Z AUTO 00000KT 10SM -RA FEW036 SCT050 BKN060 01/01 A3023 RMK AO2 RAB42 SLP256 P0000 60000 T00110006 10039 21011 53003 FZRANO=
201812220456 METAR KPWT 220456Z AUTO 00000KT 7SM FEW036 BKN055 00/00 A3022 RMK AO2 SLP250 T00000000 FZRANO=
201812220425 SPECI KPWT 220425Z AUTO 00000KT 9SM SCT021 BKN055 00/M01 A3021 RMK AO2 FZRANO=
201812220356 METAR KPWT 220356Z AUTO 00000KT 10SM OVC019 00/M01 A3022 RMK AO2 SLP251 T00001006 FZRANO=
201812220346 SPECI KPWT 220346Z AUTO 00000KT 10SM BKN019 M01/M01 A3021 RMK AO2 FZRANO=
201812220256 METAR KPWT 220256Z AUTO 00000KT 9SM CLR M01/M01 A3022 RMK AO2 SLP251 T10061006 51000 FZRANO=
201812220218 SPECI KPWT 220218Z AUTO 00000KT 10SM SCT013 01/01 A3021 RMK AO2 FZRANO=
201812220156 METAR KPWT 220156Z AUTO 00000KT 10SM OVC013 02/02 A3021 RMK AO2 SLP251 T00220017 FZRANO=
201812220056 METAR KPWT 220056Z AUTO 00000KT 10SM OVC013 02/02 A3022 RMK AO2 SLP252 T00220017 FZRANO=
201812220035 SPECI KPWT 220035Z AUTO 00000KT 10SM BKN013 02/01 A3022 RMK AO2 FZRANO=
201812212356 METAR KPWT 212356Z AUTO 00000KT 10SM CLR 04/02 A3022 RMK AO2 SLP251 T00390017 10044 20000 53009=
201812212256 METAR KPWT 212256Z AUTO 00000KT 10SM CLR 03/02 A3020 RMK AO2 SLP246 T00280022=
201812212056 METAR KPWT 212056Z AUTO 17003KT 10SM CLR 03/02 A3019 RMK AO2 SLP242 T00280022 56008=
201812211956 METAR KPWT 211956Z AUTO 00000KT 10SM CLR 02/02 A3020 RMK AO2 SLP244 T00220022 FZRANO=
201812211856 METAR KPWT 211856Z AUTO 00000KT 10SM CLR 01/01 A3020 RMK AO2 SLP247 T00110011 FZRANO=
201812211756 METAR KPWT 211756Z AUTO 10003KT 10SM SCT100 00/00 A3021 RMK AO2 SLP250 6//// T00000000 10000 21028 51026 FZRANO=
201812211656 METAR KPWT 211656Z AUTO 00000KT 10SM CLR M01/M02 A3020 RMK AO2 SLP245 T10111017 FZRANO=
201812211556 METAR KPWT 211556Z AUTO 00000KT 9SM CLR M02/M03 A3017 RMK AO2 SLP235 T10221028 FZRANO=
201812211456 METAR KPWT 211456Z AUTO 00000KT 10SM CLR M02/M02 A3014 RMK AO2 SLP224 6//// T10171017 51016 FZRANO=
201812211356 METAR KPWT 211356Z AUTO 15005KT 10SM CLR M01/M02 A3012 RMK AO2 SLP219 T10111017 FZRANO=
201812211256 METAR KPWT 211256Z AUTO VRB04KT 10SM CLR M02/M03 A3011 RMK AO2 SLP214 T10221028 FZRANO=
201812211156 METAR KPWT 211156Z AUTO 13003KT 10SM CLR M01/M01 A3009 RMK AO2 SLP209 6//// 7//// T10061011 10039 21006 51018 FZRANO=
201812211056 METAR KPWT 211056Z AUTO 14006KT 10SM CLR 02/01 A3009 RMK AO2 SLP207 T00170006 FZRANO=
201812210956 METAR KPWT 210956Z AUTO 21006KT 10SM CLR 00/M01 A3006 RMK AO2 SLP199 T00001006 FZRANO=
201812210856 METAR KPWT 210856Z AUTO 14004KT 10SM CLR 02/01 A3003 RMK AO2 SLP189 6//// T00170006 53022 FZRANO=
201812210756 METAR KPWT 210756Z AUTO 00000KT 10SM CLR 02/01 A3001 RMK AO2 SLP181 T00220006 401060022 FZRANO=
201812210656 METAR KPWT 210656Z AUTO 22008KT 10SM CLR 03/01 A2999 RMK AO2 SLP174 T00330011=
201812210556 METAR KPWT 210556Z AUTO 22008KT 10SM CLR 04/02 A2997 RMK AO2 SLP168 6//// T00390017 10067 20039 53028=
201812210456 METAR KPWT 210456Z AUTO 22012G15KT 10SM CLR 04/02 A2993 RMK AO2 SLP156 T00390017=
201812210356 METAR KPWT 210356Z AUTO 19011KT 10SM CLR 04/02 A2991 RMK AO2 SLP147 T00390022=
201812210256 METAR KPWT 210256Z AUTO 21010G18KT 10SM CLR 05/03 A2988 RMK AO2 PK WND 21027/0158 SLP139 60001 T00500028 53025=
201812210156 METAR KPWT 210156Z AUTO 20019G26KT 10SM CLR 05/04 A2983 RMK AO2 PK WND 21026/0155 SLP119 T00500039=
201812210056 METAR KPWT 210056Z AUTO 21017G22KT 10SM FEW015 06/04 A2984 RMK AO2 RAB17E40 SLP123 P0001 T00560039=
201812202356 METAR KPWT 202356Z AUTO 21015G21KT 10SM FEW065 07/05 A2981 RMK AO2 RAB05E52 SLP114 P0000 6//// T00670050 10106 20067 51026=
201812202324 SPECI KPWT 202324Z AUTO 20015KT 10SM FEW019 SCT024 SCT028 07/05 A2980 RMK AO2 RAB05E21 P0000=
201812202256 METAR KPWT 202256Z AUTO 20015G25KT 10SM SCT020 BKN025 OVC036 07/06 A2979 RMK AO2 RAB09E43 SLP108 T00720056=
201812202236 SPECI KPWT 202236Z AUTO 20015G26KT 9SM -RA FEW017 BKN026 OVC032 07/06 A2979 RMK AO2 PK WND 20027/2218 RAB09=
201812202212 SPECI KPWT 202212Z AUTO 20017G24KT 9SM -RA OVC031 08/05 A2979 RMK AO2 RAB09=
201812202156 METAR KPWT 202156Z AUTO 19018G26KT 10SM BKN027 OVC033 08/05 A2978 RMK AO2 PK WND 22037/2103 RAB28E44 SLP104 T00780050=
201812202056 METAR KPWT 202056Z AUTO 20026G37KT 10SM FEW024 BKN037 BKN048 08/05 A2973 RMK AO2 PK WND 20037/2051 RAE56 SLP087 P0002 60028 T00830050 50036 TSNO=
201812202054 SPECI KPWT 202054Z AUTO 21025G37KT 10SM -RA FEW021 BKN037 BKN048 08/05 A2973 RMK AO2 PK WND 20037/2051 P0002=
201812201956 METAR KPWT 201956Z AUTO 22021G28KT 4SM -RA BR SCT013 BKN022 OVC027 08/07 A2968 RMK AO2 PK WND 21042/1913 PRESRR SLP070 P0003 T00830072=
201812201901 SPECI KPWT 201901Z AUTO 22025G38KT 9SM -RA SCT007 BKN017 OVC023 10/08 A2962 RMK AO2 PK WND 23032/1859 P0000=
201812201856 METAR KPWT 201856Z AUTO 23030G39KT 2 1/2SM -RA BR SCT007 BKN011 OVC018 10/08 A2962 RMK AO2 PK WND 24039/1848 CIG 008V012 SLP050 P0023 T01000083=
201812201853 SPECI KPWT 201853Z AUTO 23029G39KT 2SM -RA BR BKN007 BKN011 OVC021 10/08 A2962 RMK AO2 PK WND 24039/1848 CIG 004V010 P0023=
201812201852 SPECI KPWT 201852Z AUTO 23029G39KT 1 3/4SM -RA BR BKN007 BKN011 OVC017 10/09 A2962 RMK AO2 PK WND 24039/1848 CIG 004V010 P0023=
201812201834 SPECI KPWT 201834Z AUTO 20016G24KT 6SM -RA BR BKN007 OVC015 11/10 A2960 RMK AO2 CIG 005V011 P0020=
201812201805 SPECI KPWT 201805Z AUTO 20017G24KT 2 1/2SM RA BR OVC009 11/10 A2959 RMK AO2 VIS 1 3/4V4 CIG 005V012 P0007=
201812201756 METAR KPWT 201756Z AUTO 20017G25KT 4SM -RA BR BKN011 BKN014 OVC021 11/09 A2959 RMK AO2 CIG 007V012 SLP036 P0009 60044 T01060094 10106 20067 55002=
201812201656 METAR KPWT 201656Z AUTO 20009KT 3SM RA BR OVC026 09/09 A2959 RMK AO2 SLP038 P0011 T00940089=
201812201620 SPECI KPWT 201620Z AUTO 21006KT 4SM -RA BR OVC028 09/08 RMK AO2 P0005 $=
201812201556 METAR KPWT 201556Z AUTO 23004KT 6SM -RA BR OVC030 08/08 A2959 RMK AO2 SLP040 P0006 T00780078=
201812201456 METAR KPWT 201456Z AUTO 26004KT 5SM -RA BR OVC031 08/07 A2964 RMK AO2 SLP057 P0006 60018 T00780072 56034=
201812201356 METAR KPWT 201356Z AUTO 00000KT 7SM -RA OVC033 07/07 A2966 RMK AO2 SLP061 P0006 T00720072=
201812201256 METAR KPWT 201256Z AUTO 28006KT 8SM -RA SCT002 OVC035 07/07 A2970 RMK AO2 SLP078 P0006 T00670067=
201812201225 SPECI KPWT 201225Z AUTO 24004KT 10SM -RA FEW002 BKN039 OVC050 07/07 A2972 RMK AO2 P0001=
201812201218 SPECI KPWT 201218Z AUTO 23003KT 10SM -RA SCT002 BKN028 OVC050 07/07 A2972 RMK AO2 P0001=
201812201156 METAR KPWT 201156Z AUTO 22005KT 10SM -RA BKN002 07/06 A2974 RMK AO2 SLP091 P0001 60011 7//// T00670061 10067 20061 58046=
201812201056 METAR KPWT 201056Z AUTO 21003KT 6SM -RA BR BKN002 BKN014 OVC023 06/06 A2981 RMK AO2 SLP115 P0003 T00610061=
201812201050 SPECI KPWT 201050Z AUTO 23004KT 3SM -RA BR BKN002 OVC013 06/06 A2982 RMK AO2 P0002=
201812201043 SPECI KPWT 201043Z AUTO 24003KT 1 1/4SM -RA BR BKN002 OVC013 06/06 A2983 RMK AO2 P0002=
201812201035 SPECI KPWT 201035Z AUTO 26003KT 2 1/2SM -RA BR BKN002 OVC037 06/06 A2983 RMK AO2 P0001=
201812201023 SPECI KPWT 201023Z AUTO 27003KT 10SM -RA BKN004 BKN012 OVC037 07/06 A2983 RMK AO2 P0001=
201812201004 SPECI KPWT 201004Z AUTO 21004KT 10SM -RA FEW005 BKN035 OVC042 06/06 A2985 RMK AO2 P0000=
201812200956 METAR KPWT 200956Z AUTO 22003KT 7SM -RA FEW030 OVC039 06/06 A2985 RMK AO2 RAB04 SLP127 P0004 T00610061=
201812200937 SPECI KPWT 200937Z AUTO 22005KT 6SM -RA BR SCT003 SCT023 OVC036 06/06 A2986 RMK AO2 RAB04 P0001=
201812200927 SPECI KPWT 200927Z AUTO 20003KT 6SM -RA BR SCT003 BKN025 OVC038 06/06 A2986 RMK AO2 RAB04 P0000=
201812200908 SPECI KPWT 200908Z AUTO 22004KT 9SM -RA FEW003 OVC038 06/06 A2988 RMK AO2 RAB04 P0000=
201812200856 METAR KPWT 200856Z AUTO 22004KT 10SM FEW022 BKN038 BKN045 06/06 A2988 RMK AO2 RAB0758E47 SLP138 P0001 60003 T00610061 58040=
201812200756 METAR KPWT 200756Z AUTO 23003KT 7SM BKN033 OVC041 06/06 A2993 RMK AO2 RAE22 SLP155 P0001 T00610061 400830061=
201812200735 SPECI KPWT 200735Z AUTO 28004KT 10SM FEW003 OVC039 06/06 A2994 RMK AO2 RAE22 P0001=
201812200707 SPECI KPWT 200707Z AUTO 00000KT 7SM -RA SCT003 BKN024 OVC029 06/06 A2995 RMK AO2 P0001=
201812200656 METAR KPWT 200656Z AUTO 22003KT 9SM -RA FEW003 SCT021 OVC030 06/06 A2997 RMK AO2 SLP167 P0001 T00610056=
201812200556 METAR KPWT 200556Z AUTO VRB04KT 9SM -RA OVC039 07/06 A3000 RMK AO2 SLP179 P0000 60001 T00670056 10078 20061 56027=
201812200456 METAR KPWT 200456Z AUTO 00000KT 9SM -RA OVC039 07/06 A3002 RMK AO2 SLP186 P0001 T00670061=
201812200356 METAR KPWT 200356Z AUTO 00000KT 10SM -RA OVC045 07/06 A3006 RMK AO2 RAB23 SLP197 P0000 T00670061=
201812200256 METAR KPWT 200256Z AUTO 00000KT 10SM BKN070 07/06 A3008 RMK AO2 SLP207 T00670061 58030=
201812200156 METAR KPWT 200156Z AUTO 00000KT 10SM OVC080 07/06 A3012 RMK AO2 SLP218 T00670061=
201812200056 METAR KPWT 200056Z AUTO 00000KT 9SM OVC080 07/07 A3015 RMK AO2 SLP231 T00670067=
201812192356 METAR KPWT 192356Z AUTO 00000KT 10SM BKN085 OVC110 08/07 A3017 RMK AO2 SLP237 60009 T00780067 10083 20072 56026=
201812192256 METAR KPWT 192256Z AUTO 25003KT 10SM BKN100 08/07 A3020 RMK AO2 SLP246 T00830067=
201812192156 METAR KPWT 192156Z AUTO 26004KT 10SM BKN100 08/07 A3022 RMK AO2 RAB02E12 SLP254 P0000 T00830067=
201812192127 SPECI KPWT 192127Z AUTO 23004KT 10SM FEW024 SCT030 08/07 A3023 RMK AO2 RAB02E12 P0000=
201812192056 METAR KPWT 192056Z AUTO 23008KT 10SM BKN024 OVC030 08/06 A3025 RMK AO2 RAE53 SLP264 P0006 60009 T00780061=
201812192045 SPECI KPWT 192045Z AUTO 24006KT 10SM -RA BKN027 OVC034 08/06 A3025 RMK AO2 P0006=
201812192015 SPECI KPWT 192015Z AUTO 20006KT 10SM -RA FEW007 SCT021 OVC036 07/06 A3027 RMK AO2 P0003=
201812191956 METAR KPWT 191956Z AUTO 21014KT 4SM -RA BR SCT007 OVC023 08/06 A3027 RMK AO2 SLP269 P0003 T00780061=
201812191938 SPECI KPWT 191938Z AUTO 21006KT 8SM -RA SCT007 BKN022 OVC044 08/07 A3027 RMK AO2 P0001=
201812191856 METAR KPWT 191856Z AUTO 19010KT 9SM -RA FEW024 BKN041 BKN050 08/07 RMK AO2 RAB47 SLPNO P0000 T00780067 $=
201812191821 SPECI KPWT 191821Z AUTO 20008KT 10SM SCT022 SCT028 08/07 A3030 RMK AO2=
201812191756 METAR KPWT 191756Z AUTO 21010KT 10SM FEW012 BKN020 OVC029 07/06 A3029 RMK AO2 RAE54 SLP277 P0015 6//// T00720061 10072 20061 51016=
201812191752 SPECI KPWT 191752Z AUTO 20005KT 10SM -RA SCT012 SCT018 OVC024 07/06 A3029 RMK AO2 P0015=
201812191733 SPECI KPWT 191733Z AUTO 22007KT 3SM RA BR FEW006 BKN011 OVC022 07/06 A3029 RMK AO2 P0011=
201812191725 SPECI KPWT 191725Z AUTO 24005KT 4SM RA BR BKN006 OVC020 07/06 A3029 RMK AO2 CIG 005V014 P0007=
201812191656 METAR KPWT 191656Z AUTO 18006KT 6SM -RA BR OVC018 07/06 A3027 RMK AO2 RAB40 SLP271 T00670056=
201812191556 METAR KPWT 191556Z AUTO 17007KT 10SM BKN016 06/05 A3024 RMK AO2 SLP261 T00610050=
201812191456 METAR KPWT 191456Z AUTO 18009KT 10SM FEW055 07/06 A3023 RMK AO2 RAB15E26 SLP258 P0000 60000 T00670056 51021=
201812191356 METAR KPWT 191356Z AUTO 21015G24KT 10SM SCT014 SCT080 07/06 A3022 RMK AO2 SLP252 T00720056=
201812191256 METAR KPWT 191256Z AUTO 19012KT 10SM FEW050 07/05 A3019 RMK AO2 SLP244 T00670050=
201812191146 SPECI KPWT 191146Z AUTO 19010KT 10SM SCT015 BKN029 BKN040 07/06 A3018 RMK AO2=
201812191056 METAR KPWT 191056Z AUTO 19006KT 10SM OVC011 07/06 RMK AO2 RAE19 SLPNO P0000 T00670056 $=
201812191003 SPECI KPWT 191003Z AUTO 21005KT 10SM -RA FEW009 BKN013 OVC035 07/06 A3015 RMK AO2 P0000=
201812190956 METAR KPWT 190956Z AUTO 20006KT 10SM -RA SCT011 OVC035 07/06 A3014 RMK AO2 RAB35 SLP228 T00670056=
201812190934 SPECI KPWT 190934Z AUTO 19007KT 10SM BKN011 OVC015 07/06 A3014 RMK AO2 CIG 006V012=
201812190927 SPECI KPWT 190927Z AUTO 19007KT 10SM BKN009 BKN014 07/06 A3013 RMK AO2 CIG 006V011=
201812190914 SPECI KPWT 190914Z AUTO 18007KT 10SM SCT009 BKN014 07/06 A3012 RMK AO2=
201812190856 METAR KPWT 190856Z AUTO 20009KT 10SM CLR 06/05 A3011 RMK AO2 SLP214 6//// T00610050 51031=
201812190811 SPECI KPWT 190811Z AUTO 18007KT 10SM SCT017 07/06 A3009 RMK AO2=
201812190756 METAR KPWT 190756Z AUTO 17004KT 10SM FEW013 BKN020 OVC085 07/06 A3009 RMK AO2 LTG DSNT S RAB10E48 SLP209 P0005 T00670056 401000067=
201812190712 SPECI KPWT 190712Z AUTO 22010KT 8SM -RA SCT012 SCT018 BKN043 08/07 RMK AO2 RAB10 P0000 $=
201812190656 METAR KPWT 190656Z AUTO 21009KT 10SM BKN010 BKN016 08/07 A3006 RMK AO2 SLP199 T00780067=
201812190556 METAR KPWT 190556Z AUTO 22008KT 10SM OVC010 08/07 A3002 RMK AO2 CIG 007V012 SLP183 6//// T00780067 10078 20067 51025=
201812190554 SPECI KPWT 190554Z AUTO 22009KT 10SM OVC010 08/07 A3002 RMK AO2 CIG 007V012=
201812190531 SPECI KPWT 190531Z AUTO 23008KT 10SM BKN008 BKN044 07/07 A3001 RMK AO2 CIG 006V011=
201812190522 SPECI KPWT 190522Z AUTO 22010KT 10SM BKN010 BKN044 07/06 A3000 RMK AO2 CIG 006V011=
201812190456 METAR KPWT 190456Z AUTO 22012KT 10SM CLR 07/06 A2998 RMK AO2 SLP172 T00670061=
201812190427 SPECI KPWT 190427Z AUTO 22014G18KT 10SM SCT008 07/06 A2997 RMK AO2=
201812190356 METAR KPWT 190356Z AUTO 23013KT 10SM OVC008 07/06 A2994 RMK AO2 SLP158 T00670061=
201812190326 SPECI KPWT 190326Z AUTO 21013G21KT 10SM BKN010 07/06 A2991 RMK AO2=
201812190256 METAR KPWT 190256Z AUTO 21015G20KT 10SM CLR 07/06 A2989 RMK AO2 RAE0159 SLP139 P0000 60006 T00670056 53027=
201812190156 METAR KPWT 190156Z AUTO 21013KT 10SM -RA FEW008 SCT012 07/06 A2985 RMK AO2 SLP127 P0006 T00720061=
201812190154 SPECI KPWT 190154Z AUTO 20015KT 10SM -RA FEW008 SCT012 07/06 A2985 RMK AO2 P0006=
201812190142 SPECI KPWT 190142Z AUTO 21017G21KT 10SM -RA SCT008 BKN012 OVC017 08/07 A2986 RMK AO2 P0005=
201812190119 SPECI KPWT 190119Z AUTO 6SM RA BR BKN014 BKN018 OVC045 08/07 RMK AO2 P0004 $=
201812190056 METAR KPWT 190056Z AUTO 20010KT 10SM -RA BKN020 BKN031 OVC043 08/07 A2983 RMK AO2 RAE04B40 SLP121 P0000 T00780067=
201812182356 METAR KPWT 182356Z AUTO 20010G17KT 10SM -RA BKN015 OVC021 08/06 A2981 RMK AO2 RAB16 SLP112 P0013 60054 T00780061 10100 20072 53020=
201812182335 SPECI KPWT 182335Z AUTO 25008KT 9SM -RA BKN016 BKN023 OVC042 08/07 A2981 RMK AO2 RAB16 P0003=
201812182308 SPECI KPWT 182308Z AUTO 21013G23KT 10SM SCT019 09/07 A2980 RMK AO2 PRESRR=
201812182256 METAR KPWT 182256Z AUTO 20017G21KT 10SM BKN019 09/07 A2978 RMK AO2 RAE26 SLP102 P0008 T00890072=
201812182239 SPECI KPWT 182239Z AUTO 20015G21KT 10SM FEW008 BKN016 OVC021 09/08 A2978 RMK AO2 RAE26 P0008=
201812182206 SPECI KPWT 182206Z AUTO 21006KT 6SM RA BR FEW008 BKN014 OVC023 08/07 A2977 RMK AO2 P0004=
201812182156 METAR KPWT 182156Z AUTO 24008KT 7SM -RA FEW006 BKN022 OVC029 08/07 A2977 RMK AO2 SLP101 P0028 T00780067=
201812182145 SPECI KPWT 182145Z AUTO 27007KT 4SM +RA BR FEW006 BKN010 OVC021 08/07 A2978 RMK AO2 P0026=
201812182056 METAR KPWT 182056Z AUTO 20016KT 10SM -RA BKN019 OVC026 09/08 A2975 RMK AO2 RAE1957B16 SLP091 P0001 60005 T00940078=
201812181956 METAR KPWT 181956Z AUTO 22015G21KT 10SM -RA OVC015 09/08 A2973 RMK AO2 PK WND 18027/1922 RAE05B43 SLP085 P0000 T00940078=
201812181856 METAR KPWT 181856Z AUTO 19013KT 10SM -RA SCT008 OVC015 08/08 A2971 RMK AO2 PK WND 20027/1840 RAB12 SLP079 P0004 T00830078=
201812181852 SPECI KPWT 181852Z AUTO 20012KT 9SM -RA SCT008 OVC015 08/08 A2971 RMK AO2 PK WND 20027/1840 RAB12 P0004=
201812181843 SPECI KPWT 181843Z AUTO 22014G27KT 6SM -RA BR BKN009 OVC015 08/07 A2971 RMK AO2 PK WND 20027/1840 RAB12 CIG 006V013 P0004=
201812181826 SPECI KPWT 181826Z AUTO 20011KT 9SM -RA SCT008 OVC014 08/07 A2970 RMK AO2 RAB12 P0001=
201812181803 SPECI KPWT 181803Z AUTO 20015G18KT 10SM BKN012 08/07 A2969 RMK AO2=
201812181756 METAR KPWT 181756Z AUTO 10SM SCT012 BKN110 08/07 RMK AO2 SLPNO 60026 T00830072 10089 20083 $=
201812181656 METAR KPWT 181656Z AUTO 20016G20KT 10SM FEW010 08/07 A2964 RMK AO2 RAE1558 PRESRR SLP056 P0000 T00830072=
201812181644 SPECI KPWT 181644Z AUTO 20016G21KT 10SM SCT008 08/08 A2963 RMK AO2 RAE1558 P0000=
201812181603 SPECI KPWT 181603Z AUTO 19013G20KT 10SM BKN008 BKN015 OVC095 09/08 A2960 RMK AO2 RAE1558 CIG 005V011 P0000=
201812181556 METAR KPWT 181556Z AUTO 19015G23KT 10SM -RA SCT006 BKN010 OVC095 09/08 A2959 RMK AO2 PK WND 18026/1534 CIG 008V011 SLP039 P0005 T00890078=
201812181547 SPECI KPWT 181547Z AUTO 20015G20KT 10SM -RA BKN006 BKN010 OVC014 09/08 A2959 RMK AO2 PK WND 18026/1534 CIG 004V007 P0005=
201812181456 METAR KPWT 181456Z AUTO 20011KT 10SM -RA OVC004 08/08 A2957 RMK AO2 SLP031 P0002 60021 T00830078 56009=
201812181356 METAR KPWT 181356Z AUTO 19011KT 10SM -RA OVC004 08/08 A2957 RMK AO2 SLP033 P0007 T00830078=
201812181333 SPECI KPWT 181333Z AUTO 19011G17KT 10SM -RA OVC004 08/08 A2957 RMK AO2 P0003=
201812181256 METAR KPWT 181256Z AUTO 19010G18KT 8SM RA OVC006 08/08 A2958 RMK AO2 CIG 004V010 SLP035 P0012 T00830078=
201812181156 METAR KPWT 181156Z AUTO 20011KT 7SM RA OVC006 08/08 A2960 RMK AO2 CIG 004V009 SLP040 P0017 60069 7//// T00830078 10083 20072=
201812181056 METAR KPWT 181056Z AUTO 18009KT 10SM -RA BKN006 BKN010 OVC049 08/07 A2960 RMK AO2 CIG 005V008 SLP040 P0016 T00830072=
201812181022 SPECI KPWT 181022Z AUTO 20011KT 8SM RA SCT008 BKN011 OVC027 08/07 A2964 RMK AO2 P0010=
201812181012 SPECI KPWT 181012Z AUTO 21010KT 7SM RA SCT008 BKN016 OVC029 08/07 A2964 RMK AO2 P0006=
201812180956 METAR KPWT 180956Z AUTO 19012G19KT 8SM RA BKN006 OVC012 08/07 RMK AO2 CIG 004V010 SLPNO P0009 T00780072 $=
201812180856 METAR KPWT 180856Z AUTO 18012KT 10SM -RA OVC006 08/07 A2964 RMK AO2 CIG 004V009 SLP056 P0012 60027 T00780072 58010=
201812180756 METAR KPWT 180756Z AUTO 21009KT 10SM -RA OVC008 08/07 A2967 RMK AO2 SLP065 P0007 T00780067 400940067=
201812180656 METAR KPWT 180656Z AUTO 20012KT 8SM -RA OVC008 07/07 A2968 RMK AO2 CIG 006V011 SLP069 P0008 T00720067=
201812180556 METAR KPWT 180556Z AUTO 19013G19KT 160V220 9SM -RA OVC008 07/06 A2967 RMK AO2 CIG 006V013 SLP067 P0009 60094 T00720061 10078 20067 56025=
201812180456 METAR KPWT 180456Z AUTO 20010G19KT 10SM -RA OVC014 07/06 A2968 RMK AO2 SLP070 P0016 T00720056=
201812180415 SPECI KPWT 180415Z AUTO 19011KT 8SM RA BKN014 OVC020 07/06 A2972 RMK AO2 P0006=
201812180356 METAR KPWT 180356Z AUTO 21011KT 7SM RA SCT013 OVC021 07/06 A2973 RMK AO2 SLP085 P0019 T00670056=
201812180328 SPECI KPWT 180328Z AUTO 20013G18KT 7SM RA BKN014 OVC022 07/06 A2972 RMK AO2 P0011=
201812180305 SPECI KPWT 180305Z AUTO 21009G16KT 7SM RA FEW009 BKN015 OVC023 07/06 A2974 RMK AO2 P0004=
201812180256 METAR KPWT 180256Z AUTO 20011G16KT 8SM RA SCT013 BKN018 OVC029 07/06 A2975 RMK AO2 SLP093 P0019 60050 T00670061 58022=
201812180156 METAR KPWT 180156Z AUTO 20012G25KT 7SM RA FEW014 BKN025 OVC030 07/06 A2978 RMK AO2 SLP102 P0021 T00720061=
201812180107 SPECI KPWT 180107Z AUTO 21009KT 8SM RA BKN026 OVC033 08/07 A2979 RMK AO2 P0002=
201812180056 METAR KPWT 180056Z AUTO 20011KT 8SM -RA FEW024 OVC032 08/07 A2979 RMK AO2 SLP107 P0010 T00780067=
201812172356 METAR KPWT 172356Z AUTO 21008KT 9SM -RA OVC039 08/07 A2982 RMK AO2 SLP115 P0003 60003 T00780067 10094 20078 56027=
201812172256 METAR KPWT 172256Z AUTO 20012G16KT 10SM -RA FEW028 BKN043 OVC050 09/06 A2983 RMK AO2 RAB22 SLP120 P0000 T00890061=
201812172247 SPECI KPWT 172247Z AUTO 19009G15KT 10SM -RA SCT028 BKN050 09/06 A2984 RMK AO2 RAB22 P0000=
201812172223 SPECI KPWT 172223Z AUTO 20013G17KT 10SM -RA BKN028 OVC045 09/06 A2985 RMK AO2 RAB22 P0000=
201812172156 METAR KPWT 172156Z AUTO 20009KT 10SM FEW028 BKN047 OVC055 09/06 A2987 RMK AO2 SLP132 T00890061=
201812172056 METAR KPWT 172056Z AUTO 20009G15KT 10SM FEW080 09/06 A2990 RMK AO2 SLP142 T00890061 58016=
201812171956 METAR KPWT 171956Z AUTO 19010KT 10SM OVC045 09/07 A2992 RMK AO2 SLP151 T00890067=
201812171856 METAR KPWT 171856Z AUTO 20011KT 10SM SCT015 OVC043 08/07 A2994 RMK AO2 SLP157 T00830067=
201812171812 SPECI KPWT 171812Z AUTO 19011KT 10SM SCT010 OVC043 08/07 RMK AO2 $=
201812171756 METAR KPWT 171756Z AUTO 19007KT 10SM BKN010 BKN043 OVC050 08/07 A2995 RMK AO2 RAB10E23 CIG 007V013 SLP159 P0000 6//// T00830067 10083 20072 50008=
201812171743 SPECI KPWT 171743Z AUTO 19009KT 10SM SCT009 BKN041 OVC055 08/07 A2995 RMK AO2 RAB10E23 P0000=
201812171656 METAR KPWT 171656Z AUTO 19009KT 10SM SCT010 BKN037 OVC044 08/07 A2995 RMK AO2 SLP161 T00780067=
201812171556 METAR KPWT 171556Z AUTO 19007KT 10SM FEW010 OVC041 08/07 A2993 RMK AO2 SLP152 T00780067=
201812171456 METAR KPWT 171456Z AUTO 19008KT 10SM FEW006 BKN046 07/07 A2992 RMK AO2 SLP151 6//// T00720067=
201812171425 SPECI KPWT 171425Z AUTO 20009KT 10SM FEW008 OVC038 07/07 A2993 RMK AO2=
201812171356 METAR KPWT 171356Z AUTO 19007KT 10SM BKN036 07/07 A2993 RMK AO2 SLP154 T00720067=
201812171256 METAR KPWT 171256Z AUTO 19010KT 10SM BKN033 OVC042 08/07 RMK AO2 SLPNO T00780067 $=
201812171156 METAR KPWT 171156Z AUTO 19007KT 10SM SCT033 BKN045 BKN060 08/07 A2992 RMK AO2 RAB32E45 SLP150 6//// 7//// T00780067 10083 20072 51008=
201812171056 METAR KPWT 171056Z AUTO 19009KT 10SM BKN039 BKN049 08/07 A2991 RMK AO2 RAE27 SLP148 P0000 T00780067=
201812170956 METAR KPWT 170956Z AUTO 19008KT 10SM -RA FEW019 BKN037 OVC047 08/07 A2991 RMK AO2 SLP146 P0003 T00830072=
201812170906 SPECI KPWT 170906Z AUTO 19012G17KT 10SM -RA FEW007 BKN034 OVC043 08/07 A2990 RMK AO2 P0000=
201812170856 METAR KPWT 170856Z AUTO 20010G19KT 10SM -RA FEW007 BKN027 OVC045 08/07 A2990 RMK AO2 RAB07 SLP142 P0002 6//// T00830072 51012=
201812170851 SPECI KPWT 170851Z AUTO 20013G19KT 10SM -RA SCT007 BKN027 OVC035 08/07 A2990 RMK AO2 RAB07 P0002=
201812170824 SPECI KPWT 170824Z AUTO 19011KT 10SM -RA FEW005 SCT025 BKN031 08/07 A2989 RMK AO2 RAB07 P0002=
201812170811 SPECI KPWT 170811Z AUTO 20013G18KT 9SM -RA FEW007 BKN025 OVC035 08/08 A2989 RMK AO2 RAB07 P0001=
201812170756 METAR KPWT 170756Z AUTO 19011KT 10SM OVC025 08/08 A2988 RMK AO2 RAB39E50 SLP136 T00830078 400940050=
201812170656 METAR KPWT 170656Z AUTO 20012KT 10SM SCT005 OVC027 08/08 A2986 RMK AO2 RAB18E29 SLP130 P0000 T00830078=
201812170626 SPECI KPWT 170626Z AUTO 21008KT 10SM -RA BKN005 OVC014 08/08 A2985 RMK AO2 RAB18 P0000=
201812170617 SPECI KPWT 170617Z AUTO 21010KT 10SM SCT005 BKN014 OVC027 08/08 A2985 RMK AO2=
201812170603 SPECI KPWT 170603Z AUTO 21011KT 10SM BKN014 OVC024 08/08 A2984 RMK AO2=
201812170556 METAR KPWT 170556Z AUTO 20011KT 10SM SCT012 BKN024 OVC038 08/08 A2984 RMK AO2 SLP123 6//// T00830078 10094 20078 51025=
201812170552 SPECI KPWT 170552Z AUTO 20010KT 10SM SCT012 BKN024 OVC050 08/08 A2984 RMK AO2=
201812170456 METAR KPWT 170456Z AUTO 21012KT 10SM SCT046 OVC080 08/08 A2980 RMK AO2 RAE52 SLP110 P0007 T00830078=
201812170444 SPECI KPWT 170444Z AUTO 21013G18KT 10SM -RA FEW008 BKN039 OVC070 09/08 A2979 RMK AO2 P0007=
201812170356 METAR KPWT 170356Z AUTO 20013G20KT 10SM -RA OVC008 09/08 A2976 RMK AO2 RAB17 CIG 006V010 SLP097 P0001 T00940083=
201812170342 SPECI KPWT 170342Z AUTO 19011G19KT 10SM -RA OVC008 09/08 A2975 RMK AO2 RAB17 CIG 006V014 P0001=
201812170326 SPECI KPWT 170326Z AUTO 19013G19KT 10SM -RA OVC010 09/08 A2975 RMK AO2 RAB17 CIG 007V014 P0001=
201812170256 METAR KPWT 170256Z AUTO 20013KT 10SM OVC008 09/08 A2973 RMK AO2 RAE51 CIG 006V012 SLP087 P0002 60014 T00940083 53019=
201812170210 SPECI KPWT 170210Z AUTO 20015G23KT 7SM -RA OVC006 09/08 RMK AO2 CIG 003V010 P0002 $=
201812170156 METAR KPWT 170156Z AUTO 20014G18KT 9SM -RA BKN004 OVC011 09/09 A2970 RMK AO2 CIG 003V009 SLP074 P0005 T00890089=
201812170120 SPECI KPWT 170120Z AUTO 20010KT 7SM -RA BKN004 BKN010 OVC023 09/08 A2968 RMK AO2 P0002=
201812170105 SPECI KPWT 170105Z AUTO 21009KT 10SM -RA SCT004 BKN013 OVC036 09/08 A2968 RMK AO2 P0000=
201812170056 METAR KPWT 170056Z AUTO 20010KT 7SM -RA SCT004 BKN007 OVC034 09/08 A2968 RMK AO2 RAB02 CIG 006V012 SLP068 P0007 T00890083=
201812170031 SPECI KPWT 170031Z AUTO 21005KT 6SM -RA BR BKN007 BKN010 OVC055 09/08 A2968 RMK AO2 RAB02 CIG 003V008 P0005=
201812170011 SPECI KPWT 170011Z AUTO 21006KT 10SM -RA FEW009 BKN060 OVC080 09/08 A2967 RMK AO2 RAB02 PRESRR P0001=
201812162356 METAR KPWT 162356Z AUTO 19004KT 10SM BKN080 09/08 A2965 RMK AO2 RAE48 PRESRR SLP061 P0004 60029 T00890083 10089 20078 53013=
201812162338 SPECI KPWT 162338Z AUTO 07004KT 10SM -RA SCT024 SCT034 09/09 A2961 RMK AO2 P0004=
201812162322 SPECI KPWT 162322Z AUTO VRB03KT 10SM -RA FEW009 BKN021 OVC026 09/09 A2964 RMK AO2 P0004=
201812162306 SPECI KPWT 162306Z AUTO 21005KT 5SM RA BR SCT009 BKN013 OVC021 09/09 A2965 RMK AO2 P0002=
201812162256 METAR KPWT 162256Z AUTO 20004KT 4SM RA BR BKN013 OVC023 09/08 A2965 RMK AO2 SLP059 P0010 T00890083=
201812162251 SPECI KPWT 162251Z AUTO 23003KT 3SM RA BR BKN011 OVC023 09/08 A2964 RMK AO2 P0008=
201812162237 SPECI KPWT 162237Z AUTO 20004KT 2 1/2SM RA BR FEW013 BKN023 OVC035 09/08 A2963 RMK AO2 VIS 2V4 P0005=
201812162156 METAR KPWT 162156Z AUTO 00000KT 6SM -RA BR BKN043 OVC049 09/08 A2961 RMK AO2 SLP045 P0006 T00890083=
201812162056 METAR KPWT 162056Z AUTO 00000KT 9SM -RA FEW038 OVC049 09/08 A2962 RMK AO2 SLP048 P0004 60009 T00890083 58013=
201812161956 METAR KPWT 161956Z AUTO 00000KT 10SM -RA OVC049 09/08 A2963 RMK AO2 SLP052 P0002 T00890083=
201812161856 METAR KPWT 161856Z AUTO VRB03KT 9SM -RA FEW037 BKN049 OVC065 08/08 A2965 RMK AO2 SLP058 P0003 T00830078=
201812161756 METAR KPWT 161756Z AUTO 00000KT 10SM -RA OVC046 08/08 A2965 RMK AO2 SLP061 P0000 60024 T00780078 10078 20056=
201812161656 METAR KPWT 161656Z AUTO 00000KT 10SM -RA SCT041 OVC049 07/07 RMK AO2 SLPNO P0004 T00670067 $=
201812161556 METAR KPWT 161556Z AUTO 00000KT 5SM -RA BR OVC037 07/07 A2968 RMK AO2 SLP069 P0004 T00670067=
201812161456 METAR KPWT 161456Z AUTO 00000KT 10SM -RA OVC043 07/06 A2967 RMK AO2 SLP066 P0005 60016 T00670061 56014=
201812161356 METAR KPWT 161356Z AUTO 00000KT 10SM -RA OVC042 07/06 A2968 RMK AO2 SLP069 P0006 T00670061=
201812161256 METAR KPWT 161256Z AUTO VRB03KT 10SM -RA OVC042 06/06 A2969 RMK AO2 SLP073 P0005 T00610056=
201812161214 SPECI KPWT 161214Z AUTO 06004KT 9SM -RA FEW007 OVC036 06/06 A2970 RMK AO2 P0001=
201812161156 METAR KPWT 161156Z AUTO 01003KT 10SM -RA SCT030 BKN037 OVC047 06/05 A2972 RMK AO2 SLP080 P0011 60045 70046 T00560050 10056 20050 58028=
201812161056 METAR KPWT 161056Z AUTO 00000KT 5SM RA BR BKN035 OVC043 05/05 A2977 RMK AO2 SLP098 P0010 T00500050=
201812160956 METAR KPWT 160956Z AUTO 00000KT 10SM -RA SCT038 OVC048 05/04 A2978 RMK AO2 SLP101 P0006 T00500044=
201812160856 METAR KPWT 160856Z AUTO 30004KT 10SM -RA SCT029 BKN036 OVC045 05/04 A2980 RMK AO2 SLP109 P0009 60018 T00500044 58024=
201812160822 SPECI KPWT 160822Z AUTO 00000KT 6SM -RA BR FEW005 BKN038 OVC044 05/04 A2982 RMK AO2 P0004=
201812160756 METAR KPWT 160756Z AUTO 00000KT 10SM -RA OVC040 05/04 A2983 RMK AO2 SLP119 P0004 T00500044 400780011=
201812160656 METAR KPWT 160656Z AUTO 08006KT 10SM -RA OVC038 05/04 A2984 RMK AO2 SLP124 P0005 T00500044=
201812160556 METAR KPWT 160556Z AUTO 27003KT 10SM -RA BKN033 OVC043 05/04 A2987 RMK AO2 SLP133 P0001 60001 T00500039 10078 20039 50000=
201812160456 METAR KPWT 160456Z AUTO 19003KT 10SM -RA OVC048 06/03 A2988 RMK AO2 SLP138 P0000 T00560033=
201812160356 METAR KPWT 160356Z AUTO 21007G14KT 10SM -RA BKN043 OVC050 08/02 A2989 RMK AO2 RAB40 SLP139 P0000 T00780017=
201812160256 METAR KPWT 160256Z AUTO 23004KT 10SM FEW080 BKN095 04/03 A2987 RMK AO2 SLP134 T00390033 58013=
201812160156 METAR KPWT 160156Z AUTO 24004KT 10SM BKN100 06/03 A2988 RMK AO2 SLP135 T00560028=
201812160056 METAR KPWT 160056Z AUTO VRB03KT 10SM SCT060 BKN085 05/03 A2991 RMK AO2 SLP148 T00500033=
201812152356 METAR KPWT 152356Z AUTO 00000KT 10SM FEW110 06/03 A2991 RMK AO2 SLP146 T00610033 10072 20050 56012=
201812152156 METAR KPWT 152156Z AUTO 00000KT 10SM BKN085 07/04 A2992 RMK AO2 SLP149 T00670039=
201812152056 METAR KPWT 152056Z AUTO 31003KT 10SM CLR 07/04 A2994 RMK AO2 SLP158 T00670039 58028=
201812151956 METAR KPWT 151956Z AUTO 00000KT 10SM CLR 06/04 A2999 RMK AO2 SLP173 T00610039=
201812151856 METAR KPWT 151856Z AUTO 28004KT 10SM BKN049 OVC065 06/04 A3002 RMK AO2 SLP184 T00560044=
201812151756 METAR KPWT 151756Z AUTO 00000KT 10SM SCT049 BKN070 05/04 A3003 RMK AO2 RAB1658E16 SLP187 P0000 60000 T00500039 10050 20011 50007=
201812151656 METAR KPWT 151656Z AUTO 00000KT 10SM FEW016 BKN065 03/03 A3006 RMK AO2 RAB08E36UPB36E43 SLP197 P0000 T00280028=
201812151456 METAR KPWT 151456Z AUTO 00000KT 10SM SCT031 BKN050 03/03 A3001 RMK AO2 SLP180 T00330028 58008=
201812151356 METAR KPWT 151356Z AUTO 19005KT 10SM SCT029 BKN040 BKN120 04/03 A3002 RMK AO2 SLP185 T00390028=
201812151256 METAR KPWT 151256Z AUTO 18006KT 10SM CLR 04/03 A3004 RMK AO2 SLP192 T00390028=
201812151243 SPECI KPWT 151243Z AUTO 20006KT 10SM FEW018 SCT037 04/03 A3004 RMK AO2=
201812151221 SPECI KPWT 151221Z AUTO 19006KT 10SM SCT005 SCT014 BKN022 04/03 A3005 RMK AO2=
201812151156 METAR KPWT 151156Z AUTO 18005KT 10SM BKN005 04/03 A3003 RMK AO2 RAE04 SLP188 P0000 6//// 7//// T00390033 10050 20033 51014=
201812151138 SPECI KPWT 151138Z AUTO 00000KT 10SM BKN005 03/03 A3003 RMK AO2 RAE04 P0000=
201812151130 SPECI KPWT 151130Z AUTO 00000KT 10SM SCT005 BKN085 04/03 A3003 RMK AO2 RAE04 P0000=
201812151056 METAR KPWT 151056Z AUTO 20006KT 10SM -RA FEW014 SCT027 BKN038 04/03 A3001 RMK AO2 RAB11 SLP182 P0001 T00390028=
201812151053 SPECI KPWT 151053Z AUTO 18007KT 10SM -RA FEW012 BKN027 BKN038 04/03 A3001 RMK AO2 RAB11 P0001=
201812150956 METAR KPWT 150956Z AUTO 17006KT 10SM SCT050 04/03 A2999 RMK AO2 SLP174 T00390033=
201812150856 METAR KPWT 150856Z AUTO 18008KT 10SM SCT023 04/03 A2998 RMK AO2 RAE28 SLP169 P0000 6//// T00440033 51041=
201812150756 METAR KPWT 150756Z AUTO 20014G19KT 10SM -RA FEW024 SCT033 BKN050 04/03 A2996 RMK AO2 RAB38 SLP164 P0001 T00440028 401000039=
201812150656 METAR KPWT 150656Z AUTO 20011KT 10SM CLR 04/03 A2991 RMK AO2 SLP145 T00440028=
201812150556 METAR KPWT 150556Z AUTO 21012G20KT 10SM CLR 05/03 A2985 RMK AO2 SLP128 6//// T00500028 10100 20050=
201812150456 METAR KPWT 150456Z AUTO 21020G23KT 10SM CLR 05/03 A2978 RMK AO2 PK WND 22027/0418 SLP102 T00500033=
201812150356 METAR KPWT 150356Z AUTO 21017G29KT 10SM OVC120 06/04 RMK AO2 PK WND 22037/0305 SLPNO T00610039 $=
201812150335 SPECI KPWT 150335Z AUTO 22020G27KT 10SM SCT014 OVC110 06/04 A2969 RMK AO2 PK WND 22037/0305=
201812150308 SPECI KPWT 150308Z AUTO 21024G37KT 10SM OVC014 06/04 A2964 RMK AO2 PK WND 22037/0305=
201812150256 METAR KPWT 150256Z AUTO 21022G32KT 10SM SCT010 BKN016 06/04 A2961 RMK AO2 PK WND 21036/0237 RAE26 SLP043 P0001 60003 T00610044 53030=
201812150224 SPECI KPWT 150224Z AUTO 19018G32KT 10SM -RA BKN010 BKN014 OVC020 07/06 A2956 RMK AO2 PK WND 18032/0215 CIG 009V012 P0001=
201812150156 METAR KPWT 150156Z AUTO 19019G30KT 10SM -RA BKN023 BKN027 OVC032 08/06 A2952 RMK AO2 RAB14 SLP016 P0002 T00830056=
201812150153 SPECI KPWT 150153Z AUTO 18017G30KT 10SM -RA BKN025 BKN030 OVC034 08/06 A2952 RMK AO2 RAB14 P0002=
201812150056 METAR KPWT 150056Z AUTO 20009KT 10SM SCT050 BKN090 OVC110 09/04 A2952 RMK AO2 SLP014 T00890044=
201812142356 METAR KPWT 142356Z AUTO 22006KT 10SM FEW049 SCT075 OVC085 08/04 A2948 RMK AO2 RAB32E54 SLP002 P0000 60000 T00830039 10083 20050 55002=
201812142256 METAR KPWT 142256Z AUTO 21006KT 10SM OVC100 07/05 A2948 RMK AO2 SLP001 T00720050=
201812142156 METAR KPWT 142156Z AUTO 24004KT 10SM BKN110 07/05 A2948 RMK AO2 SLP001 T00720050=
201812142056 METAR KPWT 142056Z AUTO 00000KT 10SM CLR 07/06 A2949 RMK AO2 SLP005 T00720056 58026=
201812141956 METAR KPWT 141956Z AUTO 00000KT 10SM CLR 07/05 A2953 RMK AO2 SLP017 T00720050=
201812141856 METAR KPWT 141856Z AUTO 00000KT 10SM CLR 07/05 A2955 RMK AO2 SLP026 T00670050=
201812141756 METAR KPWT 141756Z AUTO 00000KT 10SM CLR 05/04 A2957 RMK AO2 SLP030 T00500039 10067 20039=
201812141656 METAR KPWT 141656Z AUTO 11003KT 10SM CLR 04/04 RMK AO2 SLPNO T00440039 $=
201812141556 METAR KPWT 141556Z AUTO 00000KT 10SM SCT120 04/04 A2963 RMK AO2 SLP050 T00440039=
201812141456 METAR KPWT 141456Z AUTO 00000KT 10SM CLR 04/03 A2965 RMK AO2 SLP057 T00440033 58031=
201812141356 METAR KPWT 141356Z AUTO 00000KT 10SM CLR 05/04 A2968 RMK AO2 SLP068 T00500039=
201812141256 METAR KPWT 141256Z AUTO 00000KT 10SM CLR 06/03 A2971 RMK AO2 SLP080 T00610033=
201812141156 METAR KPWT 141156Z AUTO 20006KT 10SM CLR 06/04 A2974 RMK AO2 SLP091 6//// 7//// T00560044 10072 20044=
201812141056 METAR KPWT 141056Z AUTO 20004KT 10SM FEW120 06/04 A2978 RMK AO2 SLP104 T00560044=
201812140956 METAR KPWT 140956Z AUTO 20005KT 10SM FEW100 06/05 RMK AO2 SLPNO T00610050 $=
201812140856 METAR KPWT 140856Z AUTO 21005KT 10SM BKN080 BKN120 06/06 A2983 RMK AO2 RAE13 SLP120 P0000 60001 T00610056 58027=
201812140756 METAR KPWT 140756Z AUTO 21004KT 10SM -RA BKN048 BKN060 07/06 A2985 RMK AO2 SLP128 P0000 T00670061 400780061=
201812140656 METAR KPWT 140656Z AUTO 23003KT 10SM -RA SCT048 BKN065 07/06 A2989 RMK AO2 RAB46 SLP140 P0001 T00670061=
201812140556 METAR KPWT 140556Z AUTO 22004KT 10SM OVC044 07/07 A2991 RMK AO2 SLP147 6//// T00670067 10072 20067 57018=
201812140456 METAR KPWT 140456Z AUTO 22003KT 10SM OVC048 07/07 A2993 RMK AO2 SLP155 T00670067=
201812140356 METAR KPWT 140356Z AUTO 00000KT 10SM OVC050 07/06 A2994 RMK AO2 SLP158 T00670061=
201812140256 METAR KPWT 140256Z AUTO 25003KT 10SM OVC050 07/07 A2996 RMK AO2 SLP165 60004 T00670067 56011=
201812140156 METAR KPWT 140156Z AUTO 00000KT 10SM OVC040 07/07 A2997 RMK AO2 RAB10E21 SLP168 P0000 T00670067=
201812140128 SPECI KPWT 140128Z AUTO 00000KT 10SM OVC031 07/07 A2997 RMK AO2 RAB10E21 P0000=
201812140056 METAR KPWT 140056Z AUTO 00000KT 10SM OVC029 07/07 A2999 RMK AO2 RAE41 SLP175 P0004 T00720067=
201812140033 SPECI KPWT 140033Z AUTO 00000KT 3SM -RA BR OVC027 07/07 A2999 RMK AO2 P0004=
201812140017 SPECI KPWT 140017Z AUTO 00000KT 1 3/4SM RA BR OVC027 07/07 A2999 RMK AO2 P0002=
201812132356 METAR KPWT 132356Z AUTO 00000KT 10SM -RA OVC027 07/07 A2999 RMK AO2 SLP177 P0003 6//// T00720067 10078 20067 58008=
201812132256 METAR KPWT 132256Z AUTO 20008KT 7SM -RA FEW006 OVC021 07/07 A3001 RMK AO2 SLP182 P0003 T00720067=
201812132156 METAR KPWT 132156Z AUTO 21009KT 8SM -RA OVC023 07/07 A3002 RMK AO2 SLP184 P0004 T00720067=
201812132143 SPECI KPWT 132143Z AUTO 20007G17KT 4SM -RA BR OVC023 07/07 A3001 RMK AO2 P0004=
201812132134 SPECI KPWT 132134Z AUTO 2 1/2SM -RA BR OVC023 07/07 A3002 RMK AO2 P0003=
201812132101 SPECI KPWT 132101Z AUTO 22009KT 3SM -RA BR FEW008 OVC023 07/07 A3002 RMK AO2 P0001=
201812132056 METAR KPWT 132056Z AUTO 23007KT 2 1/2SM -RA BR OVC023 07/07 A3002 RMK AO2 SLP185 P0005 6//// T00720067 57016=
201812132033 SPECI KPWT 132033Z AUTO 24006KT 3SM -RA BR FEW005 OVC025 07/07 A3002 RMK AO2 P0004=
201812131956 METAR KPWT 131956Z AUTO 23006KT 1 3/4SM -RA BR OVC025 07/07 A3003 RMK AO2 SLP190 T00670067=
201812131944 SPECI KPWT 131944Z AUTO 24005KT 1 3/4SM -RA BR OVC025 07/06 A3004 RMK AO2=
201812131856 METAR KPWT 131856Z AUTO 20006KT 4SM -RA BR OVC025 07/06 A3005 RMK AO2 SLP196 P0009 T00670061=
201812131756 METAR KPWT 131756Z AUTO 20007KT 5SM RA BR OVC025 07/06 A3007 RMK AO2 SLP201 P0011 60059 T00670061 10067 20061 53007=
201812131718 SPECI KPWT 131718Z AUTO 24004KT 4SM -RA BR OVC023 07/06 A3006 RMK AO2 P0005=
201812131703 SPECI KPWT 131703Z AUTO 22005KT 2 1/2SM -RA BR OVC023 07/06 A3006 RMK AO2 VIS 1 3/4V4 P0002=
201812131656 METAR KPWT 131656Z AUTO 22005KT 3SM RA BR OVC023 07/06 A3006 RMK AO2 SLP200 P0006 T00670056=
201812131648 SPECI KPWT 131648Z AUTO 21007KT 3SM -RA BR OVC021 07/06 A3006 RMK AO2 P0005=
201812131614 SPECI KPWT 131614Z AUTO 18007KT 2 1/2SM -RA BR OVC021 07/06 A3005 RMK AO2 VIS 1 3/4V4 P0002=
201812131556 METAR KPWT 131556Z AUTO 19009KT 5SM -RA BR OVC019 06/06 A3004 RMK AO2 SLP193 P0006 T00610056=
201812131527 SPECI KPWT 131527Z AUTO 18008G15KT 6SM -RA BR SCT008 OVC017 06/06 A3004 RMK AO2 P0003=
201812131456 METAR KPWT 131456Z AUTO 18012G16KT 9SM -RA BKN006 OVC011 06/06 A3004 RMK AO2 CIG 004V009 SLP194 P0014 60036 T00610056 53001=
201812131356 METAR KPWT 131356Z AUTO 19012G20KT 6SM -RA BR OVC006 06/06 A3004 RMK AO2 CIG 004V008 SLP191 P0010 T00610056=
201812131256 METAR KPWT 131256Z AUTO 20010G17KT 6SM -RA BR OVC006 06/06 A3004 RMK AO2 CIG 004V009 SLP191 P0012 T00610056=
201812131156 METAR KPWT 131156Z AUTO 19011G20KT 9SM RA OVC006 06/06 A3004 RMK AO2 SLP191 P0011 60055 7//// T00610056 10061 20061 56009=
201812131056 METAR KPWT 131056Z AUTO 20015G24KT 10SM -RA OVC006 06/06 A3005 RMK AO2 CIG 005V009 SLP195 P0011 T00610056=
201812130956 METAR KPWT 130956Z AUTO 20012G18KT 8SM -RA OVC006 06/05 A3005 RMK AO2 CIG 005V010 SLP196 P0008 T00610050=
201812130856 METAR KPWT 130856Z AUTO 19013G19KT 10SM -RA OVC008 06/05 A3007 RMK AO2 CIG 005V011 SLP203 P0008 60025 T00610050 56020=
201812130756 METAR KPWT 130756Z AUTO 19014G19KT 10SM -RA OVC008 06/05 A3009 RMK AO2 CIG 006V013 SLP208 P0008 T00610050 400671011=
201812130656 METAR KPWT 130656Z AUTO 20013G23KT 10SM -RA BKN008 OVC011 06/06 A3011 RMK AO2 CIG 005V009 SLP214 P0009 T00610056=
201812130556 METAR KPWT 130556Z AUTO 21011KT 8SM -RA OVC006 06/06 A3013 RMK AO2 CIG 004V009 SLP222 P0010 60029 T00610056 10067 20061=
201812130514 SPECI KPWT 130514Z AUTO 21012KT 8SM -RA OVC006 06/06 A3014 RMK AO2 CIG 003V010 P0003=
201812130456 METAR KPWT 130456Z AUTO 20016G21KT 8SM -RA OVC004 07/06 RMK AO2 SLPNO P0008 T00670056 $=
201812130449 SPECI KPWT 130449Z AUTO 20014G20KT 9SM -RA OVC004 07/06 A3014 RMK AO2 CIG 003V009 P0007=
201812130356 METAR KPWT 130356Z AUTO 21014G22KT 9SM -RA OVC006 07/06 A3015 RMK AO2 SLP227 P0005 T00670061=
201812130256 METAR KPWT 130256Z AUTO 20016G21KT 10SM -RA OVC006 07/06 A3016 RMK AO2 SLP233 P0002 60006 T00670061 58011=
201812130156 METAR KPWT 130156Z AUTO 20014G17KT 10SM -RA OVC006 07/06 A3017 RMK AO2 CIG 004V008 SLP236 P0003 T00670061=
201812130056 METAR KPWT 130056Z AUTO 19008KT 10SM -RA BKN008 OVC013 07/06 A3019 RMK AO2 SLP245 P0001 T00670056=
201812130052 SPECI KPWT 130052Z AUTO 19006KT 10SM -RA BKN008 OVC013 07/06 A3019 RMK AO2 P0001=
201812122356 METAR KPWT 122356Z AUTO 16007KT 4SM -RA BR FEW007 BKN013 OVC027 06/06 A3020 RMK AO2 SLP246 P0014 60020 T00610056 10067 20033 55006=
201812122337 SPECI KPWT 122337Z AUTO 00000KT 4SM RA BR FEW009 BKN013 OVC021 06/06 A3020 RMK AO2 P0006=
201812122328 SPECI KPWT 122328Z AUTO 00000KT 6SM RA BR FEW009 BKN021 OVC027 06/06 A3021 RMK AO2 P0004=
201812122303 SPECI KPWT 122303Z AUTO 18005KT 10SM -RA SCT013 BKN024 OVC029 06/05 A3020 RMK AO2 P0000=
201812122256 METAR KPWT 122256Z AUTO VRB05KT 10SM -RA BKN013 OVC027 06/06 A3020 RMK AO2 SLP245 P0004 T00610056=
201812122254 SPECI KPWT 122254Z AUTO 17004KT 10SM -RA BKN013 OVC027 06/06 A3020 RMK AO2 P0004=
201812122215 SPECI KPWT 122215Z AUTO 21011KT 5SM -RA BR SCT011 SCT017 OVC028 06/04 A3022 RMK AO2 P0003=
201812122156 METAR KPWT 122156Z AUTO 19007KT 9SM -RA FEW011 BKN030 OVC037 07/05 A3022 RMK AO2 SLP255 P0002 T00670050=
201812122136 SPECI KPWT 122136Z AUTO 20010KT 10SM -RA FEW013 BKN034 BKN041 07/06 A3023 RMK AO2 P0001=
201812122112 SPECI KPWT 122112Z AUTO 19009G16KT 10SM -RA SCT009 SCT013 BKN019 07/05 RMK AO2 P0001 TSNO $=
201812122109 SPECI KPWT 122109Z AUTO 19009G16KT 9SM -RA BKN011 BKN017 BKN025 07/05 A3024 RMK AO2 CIG 008V014 P0001=
201812122056 METAR KPWT 122056Z AUTO 20011KT 10SM -RA SCT009 BKN019 OVC042 07/06 A3025 RMK AO2 RAB1959E14B56 SLP264 P0000 60000 T00670056 58004=
201812122002 SPECI KPWT 122002Z AUTO 18007KT 9SM -RA BKN009 BKN024 OVC033 06/04 A3026 RMK AO2 RAB1959 CIG 006V013 P0000=
201812121956 METAR KPWT 121956Z AUTO 20008KT 10SM SCT006 SCT012 BKN024 06/05 A3027 RMK AO2 RAB03E33 SLP269 P0000 T00610050=
201812121942 SPECI KPWT 121942Z AUTO 20006KT 10SM FEW006 SCT011 BKN024 06/05 A3027 RMK AO2 RAB03E33 P0000=
201812121933 SPECI KPWT 121933Z AUTO 20007KT 10SM FEW006 BKN013 BKN035 06/05 A3027 RMK AO2 RAB03E33 P0000=
201812121916 SPECI KPWT 121916Z AUTO 19010KT 9SM -RA BKN013 BKN028 OVC035 06/04 A3028 RMK AO2 RAB03 P0000=
201812121909 SPECI KPWT 121909Z AUTO 20008KT 8SM -RA SCT013 BKN028 OVC035 06/04 A3028 RMK AO2 RAB03 P0000=
201812121856 METAR KPWT 121856Z AUTO 19010KT 10SM FEW026 BKN031 OVC060 06/04 A3028 RMK AO2 SLP273 T00560039=
201812121756 METAR KPWT 121756Z AUTO 20014KT 10SM FEW015 03/03 A3027 RMK AO2 SLP268 6//// T00330028 10033 21011 51031=
201812121656 METAR KPWT 121656Z AUTO 00000KT 10SM CLR 01/01 A3025 RMK AO2 SLP265 T00060006 FZRANO=
201812121556 METAR KPWT 121556Z AUTO 00000KT 10SM CLR M01/M01 A3022 RMK AO2 SLP251 T10111011 FZRANO=
201812121456 METAR KPWT 121456Z AUTO 14004KT 10SM CLR 00/M01 A3017 RMK AO2 SLP238 T00001006 51041 FZRANO=
201812121356 METAR KPWT 121356Z AUTO 18003KT 10SM CLR M01/M02 A3013 RMK AO2 SLP222 T10111017 FZRANO=
201812121256 METAR KPWT 121256Z AUTO 24003KT 10SM CLR 00/M01 A3010 RMK AO2 SLP213 T00001006 FZRANO=
201812121156 METAR KPWT 121156Z AUTO 22006KT 10SM CLR M01/M01 A3005 RMK AO2 SLP196 60001 70144 T10061011 10050 21006 51041 FZRANO=
201812121056 METAR KPWT 121056Z AUTO 00000KT 10SM CLR 01/01 A3004 RMK AO2 PRESRR SLP192 T00110006 FZRANO=
201812120956 METAR KPWT 120956Z AUTO 00000KT 10SM CLR 00/00 A2998 RMK AO2 PRESRR SLP170 T00000000 FZRANO=
201812120856 METAR KPWT 120856Z AUTO VRB03KT 10SM SCT080 03/02 A2993 RMK AO2 SLP153 60001 T00280017 53045=
201812120756 METAR KPWT 120756Z AUTO 00000KT 10SM CLR 02/02 A2988 RMK AO2 SLP136 P0001 T00220022 400890017 FZRANO=
201812120656 METAR KPWT 120656Z AUTO 00000KT 10SM CLR 03/02 A2983 RMK AO2 SLP120 T00330022=
201812120556 METAR KPWT 120556Z AUTO 22007KT 10SM CLR 05/04 A2979 RMK AO2 SLP107 60001 T00500039 10089 20050 53042=
201812120456 METAR KPWT 120456Z AUTO 26005KT 10SM CLR 07/05 A2974 RMK AO2 SLP090 T00670050=
201812120356 METAR KPWT 120356Z AUTO 22007KT 10SM CLR 06/06 A2970 RMK AO2 SLP076 T00610056=
201812120256 METAR KPWT 120256Z AUTO 20009KT 10SM OVC110 07/06 A2967 RMK AO2 RAE00 SLP066 P0000 60001 T00670056 53012=
201812120156 METAR KPWT 120156Z AUTO 22008KT 10SM -RA FEW047 SCT055 BKN100 08/07 A2965 RMK AO2 RAB29 SLP058 P0001 T00780072=
201812120056 METAR KPWT 120056Z AUTO 19012KT 10SM FEW055 BKN110 08/08 A2965 RMK AO2 RAE03B25E44 SLP058 P0000 T00830078=
201812120033 SPECI KPWT 120033Z AUTO 19011G18KT 10SM -RA SCT008 BKN060 BKN080 09/08 A2963 RMK AO2 RAE03B25 P0000=
201812120014 SPECI KPWT 120014Z AUTO 19014G20KT 10SM FEW004 BKN008 BKN060 08/08 A2964 RMK AO2 RAE03 CIG 006V011 P0000=
201812112356 METAR KPWT 112356Z AUTO 20015G18KT 10SM -RA SCT004 SCT008 BKN060 08/08 A2963 RMK AO2 SLP054 P0002 60093 T00830078 10083 20067 58002=
201812112354 SPECI KPWT 112354Z AUTO 20014G18KT 10SM -RA SCT004 SCT008 BKN060 08/08 A2963 RMK AO2 P0002=
201812112256 METAR KPWT 112256Z AUTO 20016G21KT 10SM -RA OVC004 08/07 A2965 RMK AO2 CIG 004V008 SLP058 P0021 T00780072=
201812112222 SPECI KPWT 112222Z AUTO 6SM RA BR OVC004 08/07 RMK AO2 P0011 $=
201812112156 METAR KPWT 112156Z AUTO 19016G26KT 5SM RA BR OVC006 08/07 A2964 RMK AO2 PK WND 19032/2102 SLP056 P0018 T00780067=
201812112056 METAR KPWT 112056Z AUTO 21018G24KT 6SM RA BR OVC006 07/07 A2970 RMK AO2 PK WND 21028/2019 SLP077 P0018 60052 T00720067 56039=
201812111956 METAR KPWT 111956Z AUTO 20018G26KT 6SM -RA BR OVC006 07/07 A2974 RMK AO2 SLP089 P0016 T00720067=
201812111856 METAR KPWT 111856Z AUTO 21015G26KT 6SM -RA BR OVC006 07/06 A2979 RMK AO2 PK WND 20026/1848 SLP106 P0018 T00720061=
201812111756 METAR KPWT 111756Z AUTO 19016G23KT 7SM RA OVC006 07/06 A2982 RMK AO2 SLP116 P0010 60049 T00670061 10067 20061 58026=
201812111656 METAR KPWT 111656Z AUTO 20016G23KT 6SM -RA BR OVC006 07/06 A2985 RMK AO2 CIG 004V009 SLP128 P0010 T00670061=
201812111556 METAR KPWT 111556Z AUTO 20012G24KT 5SM -RA BR OVC004 07/06 A2987 RMK AO2 SLP135 P0006 T00670056=
201812111456 METAR KPWT 111456Z AUTO 20016G23KT 6SM -RA BR OVC004 06/06 A2990 RMK AO2 SLP145 P0007 60023 T00610056 56042=
201812111356 METAR KPWT 111356Z AUTO 19011G17KT 9SM -RA OVC004 06/06 A2994 RMK AO2 SLP155 P0009 T00610056=
201812111337 SPECI KPWT 111337Z AUTO 19013G17KT 6SM -RA BR OVC004 06/06 A2995 RMK AO2 CIG 003V008 P0007=
201812111256 METAR KPWT 111256Z AUTO 21010G16KT 5SM -RA BR OVC006 06/06 A2999 RMK AO2 CIG 005V011 SLP172 P0007 T00610056=
201812111233 SPECI KPWT 111233Z AUTO 20012G16KT 7SM -RA BKN008 OVC013 06/06 A3000 RMK AO2 CIG 005V011 P0005=
201812111207 SPECI KPWT 111207Z AUTO 20011G16KT 9SM -RA BKN010 OVC016 06/05 A3002 RMK AO2 CIG 007V013 P0001=
201812111156 METAR KPWT 111156Z AUTO 19010KT 8SM -RA SCT009 OVC015 06/06 A3003 RMK AO2 SLP188 P0009 60027 70032 T00610056 10067 20056 58019=
201812111056 METAR KPWT 111056Z AUTO 21008KT 9SM -RA BKN010 BKN014 OVC023 06/06 A3007 RMK AO2 CIG 006V012 SLP202 P0008 T00610056=
201812111052 SPECI KPWT 111052Z AUTO 20009KT 10SM -RA SCT008 BKN014 OVC023 07/06 A3007 RMK AO2 P0007=
201812110956 METAR KPWT 110956Z AUTO 20008KT 8SM -RA OVC006 07/06 A3008 RMK AO2 CIG 004V011 SLP206 P0005 T00670056=
201812110856 METAR KPWT 110856Z AUTO 20011KT 9SM -RA BKN006 BKN011 OVC028 07/06 A3011 RMK AO2 CIG 003V008 SLP217 P0004 60005 T00670056 56021=
201812110853 SPECI KPWT 110853Z AUTO 20011KT 10SM -RA SCT006 BKN011 OVC028 07/06 A3012 RMK AO2 P0004=
201812110839 SPECI KPWT 110839Z AUTO 20010KT 7SM -RA BKN008 OVC013 06/06 A3013 RMK AO2 CIG 005V011 P0003=
201812110818 SPECI KPWT 110818Z AUTO 21010KT 10SM -RA FEW005 BKN014 OVC038 06/06 A3014 RMK AO2 P0001=
201812110809 SPECI KPWT 110809Z AUTO 21010KT 9SM -RA SCT007 BKN015 OVC037 06/06 RMK AO2 P0001 $=
201812110756 METAR KPWT 110756Z AUTO 21008KT 9SM -RA OVC007 06/06 A3015 RMK AO2 RAB01 CIG 004V010 SLP228 P0001 T00610056 400780050=
201812110656 METAR KPWT 110656Z AUTO 20009KT 10SM OVC007 06/05 A3018 RMK AO2 CIG 005V011 SLP236 T00610050=
201812110631 SPECI KPWT 110631Z AUTO 20011KT 10SM BKN007 BKN041 OVC055 06/05 A3017 RMK AO2 CIG 005V012=
201812110610 SPECI KPWT 110610Z AUTO 19010KT 10SM SCT005 BKN043 BKN050 06/05 A3018 RMK AO2=
201812110556 METAR KPWT 110556Z AUTO 20009KT 10SM BKN005 06/05 A3018 RMK AO2 CIG 004V008 SLP237 60004 T00560050 10067 20056 58010=
201812110456 METAR KPWT 110456Z AUTO 20008KT 10SM BKN005 OVC045 06/05 A3019 RMK AO2 CIG 004V008 SLP243 T00610050=
201812110356 METAR KPWT 110356Z AUTO 20007KT 10SM OVC005 06/06 A3020 RMK AO2 RAE43 CIG 004V007 SLP245 P0001 T00610056=
201812110256 METAR KPWT 110256Z AUTO 20004KT 9SM -RA BKN005 OVC029 07/06 A3021 RMK AO2 SLP248 P0003 60003 T00670061 58006=
201812110244 SPECI KPWT 110244Z AUTO 19006KT 10SM -RA OVC005 07/06 A3021 RMK AO2 CIG 003V008 P0003=
201812110230 SPECI KPWT 110230Z AUTO 18005KT 10SM BKN007 BKN021 OVC030 07/06 A3022 RMK AO2 RAE30 CIG 004V010 P0002=
201812110156 METAR KPWT 110156Z AUTO 17003KT 10SM -RA FEW005 BKN028 OVC035 06/06 A3022 RMK AO2 RAB05 SLP252 P0000 T00610056=
201812110153 SPECI KPWT 110153Z AUTO 18003KT 10SM -RA FEW007 BKN027 OVC034 07/06 A3022 RMK AO2 RAB05 P0000=
201812110123 SPECI KPWT 110123Z AUTO 19008KT 10SM -RA SCT004 BKN041 OVC048 07/06 A3023 RMK AO2 RAB05 P0000=
201812110056 METAR KPWT 110056Z AUTO 20007KT 10SM OVC004 06/06 A3023 RMK AO2 SLP254 T00610056=
201812102309 SPECI KPWT 102309Z AUTO 20009KT 10SM SCT006 07/06 A3024 RMK AO2=
201812102256 METAR KPWT 102256Z AUTO 20009KT 10SM BKN006 BKN009 07/06 A3024 RMK AO2 CIG 004V008 SLP257 T00670061=
201812102235 SPECI KPWT 102235Z AUTO 19010G17KT 10SM BKN008 07/06 A3023 RMK AO2 CIG 006V011=
201812102225 SPECI KPWT 102225Z AUTO 20012KT 10SM SCT008 07/06 A3023 RMK AO2=
201812102156 METAR KPWT 102156Z AUTO 19010KT 10SM OVC008 08/06 A3023 RMK AO2 CIG 007V012 SLP256 T00780061=
201812102128 SPECI KPWT 102128Z AUTO 20012KT 10SM BKN006 OVC012 07/06 A3023 RMK AO2 CIG 005V010=
201812102056 METAR KPWT 102056Z AUTO 20012KT 10SM BKN004 07/06 A3023 RMK AO2 SLP258 T00670061 58007=
201812102041 SPECI KPWT 102041Z AUTO 20011KT 10SM BKN004 07/06 A3023 RMK AO2 CIG 004V009=
201812102024 SPECI KPWT 102024Z AUTO 20011KT 10SM SCT004 07/06 A3024 RMK AO2=
201812101956 METAR KPWT 101956Z AUTO 20010KT 10SM BKN004 BKN008 07/06 A3024 RMK AO2 CIG 003V007 SLP260 T00670061=
201812101946 SPECI KPWT 101946Z AUTO 20010G19KT 10SM BKN004 BKN008 07/06 A3025 RMK AO2 CIG 003V008=
201812101913 SPECI KPWT 101913Z AUTO 20009KT 10SM SCT003 BKN080 07/06 A3025 RMK AO2=
201812101856 METAR KPWT 101856Z AUTO 20007KT 10SM BKN003 06/06 A3025 RMK AO2 SLP262 T00610056=
201812101756 METAR KPWT 101756Z AUTO 19006KT 10SM OVC003 06/05 A3025 RMK AO2 RAB29E53 SLP263 P0001 60001 T00560050 10061 20050 51014=
201812101656 METAR KPWT 101656Z AUTO 21006KT 6SM BR OVC003 06/05 A3025 RMK AO2 SLP261 T00560050=
201812101640 SPECI KPWT 101640Z AUTO 20005KT 3SM BR OVC003 06/05 A3024 RMK AO2=
201812101627 SPECI KPWT 101627Z AUTO 20006KT 1 1/4SM BR OVC003 05/05 A3024 RMK AO2=
201812101608 SPECI KPWT 101608Z AUTO 21007KT 3/4SM BR OVC003 06/05 A3023 RMK AO2=
201812101556 METAR KPWT 101556Z AUTO 22004KT 1SM BR OVC003 06/05 A3023 RMK AO2 SLP253 T00560050=
201812101547 SPECI KPWT 101547Z AUTO 20005KT 1 3/4SM BR OVC003 06/05 A3022 RMK AO2=
201812101456 METAR KPWT 101456Z AUTO 21004KT 10SM OVC003 06/05 A3021 RMK AO2 SLP249 T00560050 53009=
201812101356 METAR KPWT 101356Z AUTO 25005KT 10SM OVC003 06/06 A3020 RMK AO2 SLP245 T00560056=
201812101256 METAR KPWT 101256Z AUTO 19007KT 6SM BR OVC003 06/06 A3018 RMK AO2 SLP239 T00610056=
201812101151 SPECI KPWT 101151Z AUTO 21010KT 3SM BR OVC003 06/06 A3018 RMK AO2=
201812101144 SPECI KPWT 101144Z AUTO 20008KT 1 3/4SM BR OVC003 06/06 A3018 RMK AO2=
201812101122 SPECI KPWT 101122Z AUTO 20008KT 2SM BR OVC003 06/06 A3017 RMK AO2=
201812101113 SPECI KPWT 101113Z AUTO 20008KT 3SM BR OVC003 06/06 A3017 RMK AO2=
201812101056 METAR KPWT 101056Z AUTO 21008KT 2SM BR OVC003 06/06 A3016 RMK AO2 RAE08 SLP233 P0000 T00560056=
201812100956 METAR KPWT 100956Z AUTO 19006KT 8SM -RA OVC003 06/06 A3015 RMK AO2 SLP226 P0001 T00560056=
201812100856 METAR KPWT 100856Z AUTO 19008KT 6SM -RA BR OVC003 06/06 A3016 RMK AO2 RAE0758B22 SLP230 P0002 60002 T00610056 51008=
201812100756 METAR KPWT 100756Z AUTO 19008KT 10SM -RA OVC003 06/06 A3015 RMK AO2 RAB21 SLP230 P0000 T00610056 400610017=
201812100656 METAR KPWT 100656Z AUTO 19007KT 10SM OVC003 06/06 A3014 RMK AO2 SLP226 T00610056=
201812100556 METAR KPWT 100556Z AUTO 19009KT 10SM OVC003 06/06 A3013 RMK AO2 SLP223 60012 T00610056 10061 20050 53012=
201812100456 METAR KPWT 100456Z AUTO 20012KT 9SM OVC003 06/06 A3012 RMK AO2 SLP218 T00610056=
201812100356 METAR KPWT 100356Z AUTO 20009KT 10SM OVC003 06/06 A3011 RMK AO2 RAE37 SLP213 P0000 T00610056=
201812100256 METAR KPWT 100256Z AUTO 20005KT 10SM -RA OVC003 06/06 A3010 RMK AO2 SLP211 P0002 60012 T00560056 50002=
201812100156 METAR KPWT 100156Z AUTO 21003KT 3SM -RA BR OVC005 05/05 A3010 RMK AO2 CIG 002V010 SLP212 P0004 T00500050=
201812100147 SPECI KPWT 100147Z AUTO 00000KT 3SM -RA BR OVC005 05/05 A3010 RMK AO2 CIG 002V007 P0004=
201812100124 SPECI KPWT 100124Z AUTO 00000KT 2SM -RA BR BKN007 OVC012 05/05 A3009 RMK AO2 CIG 005V009 P0003=
201812100112 SPECI KPWT 100112Z AUTO 00000KT 3SM -RA BR BKN009 OVC014 05/05 A3009 RMK AO2 CIG 007V012 P0002=
201812100102 SPECI KPWT 100102Z AUTO 00000KT 3SM -RA BR SCT009 OVC014 05/05 A3009 RMK AO2 P0001=
201812100056 METAR KPWT 100056Z AUTO 00000KT 3SM -RA BR OVC015 05/05 A3009 RMK AO2 SLP208 P0006 T00500050=
201812100032 SPECI KPWT 100032Z AUTO 00000KT 2 1/2SM -RA BR SCT009 OVC015 05/05 A3009 RMK AO2 P0004=
201812100021 SPECI KPWT 100021Z AUTO 00000KT 2 1/2SM -RA BR BKN009 OVC015 05/05 A3009 RMK AO2 CIG 006V012 P0003=
201812092356 METAR KPWT 092356Z AUTO 32003KT 8SM -RA BKN007 OVC011 05/05 A3010 RMK AO2 CIG 003V010 SLP211 P0011 60054 T00500050 10056 20050 56009=
201812092332 SPECI KPWT 092332Z AUTO 00000KT 5SM -RA BR BKN005 OVC009 06/05 A3010 RMK AO2 CIG 002V007 P0007=
201812092318 SPECI KPWT 092318Z AUTO 00000KT 4SM RA BR OVC007 06/05 A3010 RMK AO2 CIG 002V011 P0005=
201812092313 SPECI KPWT 092313Z AUTO 00000KT 3SM RA BR BKN003 OVC010 05/05 A3010 RMK AO2 CIG 002V008 P0003=
201812092256 METAR KPWT 092256Z AUTO 00000KT 5SM RA BR OVC005 05/05 A3010 RMK AO2 CIG 002V007 SLP213 P0013 T00500050=
201812092156 METAR KPWT 092156Z AUTO 23003KT 6SM -RA BR OVC005 05/05 A3011 RMK AO2 CIG 002V009 SLP216 P0010 T00500050=
201812092117 SPECI KPWT 092117Z AUTO 24004KT 5SM RA BR BKN005 BKN010 OVC040 06/05 A3013 RMK AO2 P0004=
201812092056 METAR KPWT 092056Z AUTO 00000KT 5SM -RA BR BKN003 BKN010 OVC040 06/05 A3013 RMK AO2 SLP221 P0005 60020 T00560050 58006=
201812092050 SPECI KPWT 092050Z AUTO 00000KT 6SM -RA BR BKN003 BKN012 OVC040 06/05 A3013 RMK AO2 P0004=
201812092025 SPECI KPWT 092025Z AUTO 12003KT 5SM -RA BR FEW008 BKN035 OVC044 06/05 A3013 RMK AO2 P0002=
201812091956 METAR KPWT 091956Z AUTO 00000KT 4SM -RA BR FEW022 OVC035 05/05 A3014 RMK AO2 SLP227 P0007 T00500050=
201812091932 SPECI KPWT 091932Z AUTO 00000KT 4SM -RA BR FEW004 OVC035 05/05 A3014 RMK AO2 P0004=
201812091856 METAR KPWT 091856Z AUTO 00000KT 4SM RA BR OVC039 05/04 A3015 RMK AO2 SLP231 P0008 T00500044=
201812091704 SPECI KPWT 091704Z AUTO 00000KT 8SM -RA OVC041 05/05 A3015 RMK AO2 P0001=
201812091656 METAR KPWT 091656Z AUTO 00000KT 2 1/2SM -RA BR OVC041 05/05 A3015 RMK AO2 VIS 1 1/4V5 SLP228 P0009 T00500050=
201812091653 SPECI KPWT 091653Z AUTO 00000KT 2SM RA BR OVC041 05/04 A3014 RMK AO2 VIS 1 1/4V3 P0009=
201812091631 SPECI KPWT 091631Z AUTO 00000KT 5SM -RA BR FEW006 OVC041 05/04 A3015 RMK AO2 P0005=
201812091615 SPECI KPWT 091615Z AUTO 00000KT 2 1/2SM -RA BR FEW006 OVC041 04/04 A3014 RMK AO2 VIS 1 1/4V5 P0003=
201812091556 METAR KPWT 091556Z AUTO 25003KT 8SM -RA BKN037 OVC044 04/04 A3014 RMK AO2 SLP225 P0005 T00440044=
201812091512 SPECI KPWT 091512Z AUTO 00000KT 6SM -RA BR SCT006 OVC032 04/04 A3014 RMK AO2 P0001=
201812091503 SPECI KPWT 091503Z AUTO 00000KT 5SM -RA BR OVC030 04/04 A3014 RMK AO2 P0000=
201812091456 METAR KPWT 091456Z AUTO 00000KT 4SM -RA BR BKN028 OVC033 04/04 A3014 RMK AO2 RAE1358B17 SLP224 P0002 60005 T00440039 56003=
201812091452 SPECI KPWT 091452Z AUTO 00000KT 4SM -RA BR OVC028 04/04 A3014 RMK AO2 RAE1358B17 P0001=
201812091356 METAR KPWT 091356Z AUTO 00000KT 10SM -RA BKN041 OVC049 04/03 A3014 RMK AO2 SLP226 P0001 T00390033=
201812091256 METAR KPWT 091256Z AUTO 00000KT 10SM -RA OVC044 04/03 A3014 RMK AO2 SLP228 P0002 T00440028=
201812091156 METAR KPWT 091156Z AUTO 00000KT 10SM -RA OVC048 05/02 A3017 RMK AO2 RAB49 SLP234 P0000 6//// 7//// T00500017 10061 20011 58016=
201812091056 METAR KPWT 091056Z AUTO 01005KT 10SM OVC050 05/01 A3018 RMK AO2 SLP240 T00500006=
201812090956 METAR KPWT 090956Z AUTO 34004KT 10SM OVC050 04/01 A3021 RMK AO2 SLP248 T00440006=
201812090856 METAR KPWT 090856Z AUTO 00000KT 10SM OVC050 03/02 A3021 RMK AO2 SLP251 T00280017 58016=
201812090756 METAR KPWT 090756Z AUTO 00000KT 10SM BKN050 02/01 A3024 RMK AO2 SLP261 T00170006 400610000 FZRANO=
201812090656 METAR KPWT 090656Z AUTO 00000KT 10SM BKN050 01/01 A3027 RMK AO2 SLP267 T00110006 FZRANO=
201812090556 METAR KPWT 090556Z AUTO 00000KT 10SM CLR 02/00 A3026 RMK AO2 SLP267 6//// T00170000 10050 20017 58010 FZRANO=
201812090456 METAR KPWT 090456Z AUTO 00000KT 10SM BKN049 02/02 A3027 RMK AO2 SLP268 T00220017 FZRANO=
201812090356 METAR KPWT 090356Z AUTO 00000KT 10SM BKN055 03/02 A3029 RMK AO2 SLP274 T00280022=
201812090256 METAR KPWT 090256Z AUTO 00000KT 10SM OVC050 04/03 A3029 RMK AO2 SLP278 T00390033 56009=
201812090156 METAR KPWT 090156Z AUTO 00000KT 10SM OVC060 03/03 A3030 RMK AO2 SLP277 T00330028=
201812090056 METAR KPWT 090056Z AUTO 00000KT 8SM BKN055 03/03 A3031 RMK AO2 SLP282 T00330028=
201812082356 METAR KPWT 082356Z AUTO 00000KT 10SM CLR 05/03 A3032 RMK AO2 SLP287 6//// T00500033 10061 20044 55004=
201812082256 METAR KPWT 082256Z AUTO 13003KT 10SM OVC050 06/04 A3032 RMK AO2 SLP286 T00560039=
201812082156 METAR KPWT 082156Z AUTO 33003KT 10SM OVC050 05/04 A3032 RMK AO2 SLP289 T00500039=
201812082146 SPECI KPWT 082146Z AUTO 29003KT 10SM SCT024 OVC050 06/04 A3033 RMK AO2=
201812082109 SPECI KPWT 082109Z AUTO 00000KT 10SM BKN024 OVC050 06/03 A3033 RMK AO2=
201812082056 METAR KPWT 082056Z AUTO 00000KT 10SM FEW022 OVC050 05/03 A3033 RMK AO2 SLP291 T00500033=
201812082040 SPECI KPWT 082040Z AUTO 00000KT 10SM SCT024 OVC050 05/04 A3033 RMK AO2=
201812081956 METAR KPWT 081956Z AUTO 00000KT 10SM OVC022 05/04 RMK AO2 SLPNO T00500039 $=
201812081856 METAR KPWT 081856Z AUTO 19006KT 10SM OVC020 04/03 A3034 RMK AO2 SLP292 T00440033=
201812081756 METAR KPWT 081756Z AUTO 20006KT 10SM OVC024 04/03 A3033 RMK AO2 RAE04 SLP291 P0000 60003 T00440033 10044 20022 51014=
201812081556 METAR KPWT 081556Z AUTO 00000KT 2SM UP BR OVC022 02/02 A3030 RMK AO2 UPE07B28RAB07E28 SLP280 P0001 T00220022 FZRANO=
201812081548 SPECI KPWT 081548Z AUTO 00000KT 2SM UP BR OVC022 02/02 A3030 RMK AO2 VIS 1 3/4V3 UPE07B28RAB07E28 P0001 FZRANO=
201812081520 SPECI KPWT 081520Z AUTO 00000KT 4SM -RA BR OVC016 02/02 A3029 RMK AO2 UPE07RAB07 P0001 FZRANO=
201812081512 SPECI KPWT 081512Z AUTO 00000KT 2 1/2SM -RA BR OVC018 02/02 A3029 RMK AO2 UPE07RAB07 P0000 FZRANO=
201812081456 METAR KPWT 081456Z AUTO 00000KT 4SM UP BR SCT013 OVC019 02/02 A3029 RMK AO2 RAB20E53UPB53 SLP276 P0001 60002 T00220022 53007 FZRANO=
201812081356 METAR KPWT 081356Z AUTO 00000KT 5SM BR OVC021 02/02 A3027 RMK AO2 RAB34E44 SLP271 P0000 T00220017 FZRANO=
201812081328 SPECI KPWT 081328Z AUTO 00000KT 7SM OVC028 02/02 A3027 RMK AO2 FZRANO=
201812081307 SPECI KPWT 081307Z AUTO 00000KT 6SM BR FEW003 SCT019 OVC030 02/02 A3027 RMK AO2 FZRANO=
201812081256 METAR KPWT 081256Z AUTO 00000KT 5SM BR SCT003 BKN021 OVC030 02/02 A3027 RMK AO2 UPE09B48E54RAB09E48 SLP269 P0001 T00220017 FZRANO=
201812081246 SPECI KPWT 081246Z AUTO 00000KT 5SM -RA BR FEW003 OVC021 02/02 A3027 RMK AO2 UPE09RAB09 P0001 FZRANO=
201812081156 METAR KPWT 081156Z AUTO 00000KT 5SM UP BR OVC026 02/02 A3027 RMK AO2 RAE31UPB39 SLP268 P0000 60001 7//// T00220017 10028 20000 51014 FZRANO=
201812081115 SPECI KPWT 081115Z AUTO 00000KT 10SM -RA BKN026 OVC031 02/01 A3026 RMK AO2 P0000 FZRANO=
201812081056 METAR KPWT 081056Z AUTO 00000KT 10SM -RA OVC031 02/01 A3026 RMK AO2 SLP264 P0001 T00170006 FZRANO=
201812081018 SPECI KPWT 081018Z AUTO 28004KT 5SM -RA BR FEW025 BKN033 OVC040 02/01 A3025 RMK AO2 P0000 FZRANO=
201812080956 METAR KPWT 080956Z AUTO 00000KT 7SM -RA BKN024 BKN032 OVC050 02/00 A3024 RMK AO2 RAB01E10B46UPB10E46 SLP261 P0000 T00170000 FZRANO=
201812080925 SPECI KPWT 080925Z AUTO 00000KT 10SM OVC028 02/M01 A3023 RMK AO2 RAB01E10UPB10E17 P0000 FZRANO=
201812080856 METAR KPWT 080856Z AUTO 00000KT 10SM OVC034 02/M01 A3022 RMK AO2 SLP255 T00171006 FZRANO=
201812080756 METAR KPWT 080756Z AUTO 00000KT 10SM FEW041 SCT075 00/M02 RMK AO2 SLPNO T00001017 400561072 FZRANO $=
201812080656 METAR KPWT 080656Z AUTO 00000KT 10SM SCT047 BKN070 01/M02 A3020 RMK AO2 SLP245 T00061017 FZRANO=
201812080556 METAR KPWT 080556Z AUTO 00000KT 10SM OVC045 02/M01 A3019 RMK AO2 SLP240 T00171011 10022 20000 51008 FZRANO=
201812080456 METAR KPWT 080456Z AUTO 00000KT 10SM OVC044 02/M01 A3018 RMK AO2 SLP239 T00171011 FZRANO=
201812080356 METAR KPWT 080356Z AUTO 18003KT 10SM OVC036 01/M01 A3017 RMK AO2 SLP236 T00111006 FZRANO=
201812080256 METAR KPWT 080256Z AUTO 00000KT 10SM OVC042 01/M01 A3016 RMK AO2 SLP233 T00061011 51008 FZRANO=
201812080156 METAR KPWT 080156Z AUTO 00000KT 10SM CLR 00/M02 A3015 RMK AO2 SLP228 T00001017 FZRANO=
201812080056 METAR KPWT 080056Z AUTO 00000KT 10SM FEW039 01/M02 A3015 RMK AO2 SLP231 T00061022 FZRANO=
201812072356 METAR KPWT 072356Z AUTO 00000KT 10SM CLR 01/M02 A3014 RMK AO2 SLP225 6//// T00111022 10056 20011 53005 FZRANO=
201812072256 METAR KPWT 072256Z AUTO 23004KT 10SM CLR 03/M02 A3013 RMK AO2 SLP221 T00331022=
201812072156 METAR KPWT 072156Z AUTO 20003KT 10SM CLR 04/M03 A3012 RMK AO2 SLP218 T00441028=
201812072056 METAR KPWT 072056Z AUTO VRB04KT 10SM CLR 05/M03 A3012 RMK AO2 SLP218 T00501033 58006=
201812071956 METAR KPWT 071956Z AUTO 24005KT 10SM CLR 04/M03 A3013 RMK AO2 SLP221 T00441033=
201812071856 METAR KPWT 071856Z AUTO 00000KT 10SM CLR 03/M05 A3014 RMK AO2 SLP225 T00281050=
201812071756 METAR KPWT 071756Z AUTO 00000KT 10SM CLR 02/M01 A3014 RMK AO2 SLP225 6//// T00221006 10022 21072 51007 FZRANO=
201812071656 METAR KPWT 071656Z AUTO 00000KT 10SM CLR M01/M02 A3014 RMK AO2 SLP225 T10111017 FZRANO=
201812071556 METAR KPWT 071556Z AUTO 00000KT 10SM CLR M07/M07 A3013 RMK AO2 SLP222 T10671072 FZRANO=
201812071456 METAR KPWT 071456Z AUTO 00000KT 10SM CLR M07/M08 A3012 RMK AO2 SLP219 6//// T10671078 FZRANO=
201812071256 METAR KPWT 071256Z AUTO 00000KT 10SM CLR M07/M07 A3010 RMK AO2 SLP212 T10671072 FZRANO=
201812071156 METAR KPWT 071156Z AUTO 00000KT 10SM CLR M07/M08 RMK AO2 SLPNO 6//// 7//// T10721078 11050 21072 FZRANO $=
201812071056 METAR KPWT 071056Z AUTO 00000KT 10SM CLR M07/M08 A3009 RMK AO2 SLP209 T10671078 FZRANO=
201812070956 METAR KPWT 070956Z AUTO 00000KT 10SM CLR M06/M07 A3009 RMK AO2 SLP209 T10611067 FZRANO=
201812070856 METAR KPWT 070856Z AUTO 00000KT 10SM CLR M07/M07 A3009 RMK AO2 SLP207 6//// T10671072 58002 FZRANO=
201812070756 METAR KPWT 070756Z AUTO 00000KT 10SM CLR M06/M07 A3010 RMK AO2 SLP210 T10611067 400561072 FZRANO=
201812070656 METAR KPWT 070656Z AUTO 00000KT 10SM CLR M06/M07 A3009 RMK AO2 SLP208 T10561067 FZRANO=
201812070556 METAR KPWT 070556Z AUTO 00000KT 10SM CLR M05/M06 A3009 RMK AO2 SLP209 6//// T10501061 10039 21050 56002 FZRANO=
201812070456 METAR KPWT 070456Z AUTO 00000KT 10SM CLR M04/M06 A3010 RMK AO2 SLP212 T10441061 FZRANO=
201812070356 METAR KPWT 070356Z AUTO 00000KT 10SM CLR M04/M05 A3009 RMK AO2 SLP210 T10391050 FZRANO=
201812070256 METAR KPWT 070256Z AUTO 00000KT 10SM CLR M04/M04 A3010 RMK AO2 SLP212 6//// T10391044 53001 FZRANO=
201812070156 METAR KPWT 070156Z AUTO 00000KT 10SM CLR M03/M04 A3009 RMK AO2 SLP209 T10281039 FZRANO=
201812070056 METAR KPWT 070056Z AUTO 00000KT 10SM CLR M02/M03 A3009 RMK AO2 SLP207 T10171033 FZRANO=
201812062356 METAR KPWT 062356Z AUTO 35003KT 10SM CLR 04/M04 A3010 RMK AO2 SLP211 T00391039 10056 20033 56009=
201812062256 METAR KPWT 062256Z AUTO 03007KT 10SM CLR 06/M03 A3010 RMK AO2 SLP212 T00561033=
201812062156 METAR KPWT 062156Z AUTO 04008KT 10SM CLR 06/M04 A3011 RMK AO2 SLP216 T00561039=
201812062056 METAR KPWT 062056Z AUTO 04006KT 10SM CLR 06/M03 A3012 RMK AO2 SLP220 T00561033 58007=
201812061956 METAR KPWT 061956Z AUTO 05004KT 10SM CLR 05/M04 A3013 RMK AO2 SLP223 T00501044=
201812061856 METAR KPWT 061856Z AUTO 06009KT 10SM CLR 04/M06 A3014 RMK AO2 SLP223 T00391056=
201812061756 METAR KPWT 061756Z AUTO 03004KT 10SM CLR 03/M04 A3014 RMK AO2 SLP227 6//// T00331039 10033 21072 55001=
201812061656 METAR KPWT 061656Z AUTO 00000KT 10SM CLR M01/M02 A3014 RMK AO2 SLP224 T10111022 FZRANO=
201812061556 METAR KPWT 061556Z AUTO 00000KT 10SM CLR M07/M07 A3014 RMK AO2 SLP223 T10671072 FZRANO=
201812061456 METAR KPWT 061456Z AUTO 00000KT 10SM CLR M07/M08 A3015 RMK AO2 SLP228 6//// T10671078 58004 FZRANO=
201812061356 METAR KPWT 061356Z AUTO 00000KT 10SM CLR M07/M08 A3015 RMK AO2 SLP228 T10671083 FZRANO=
201812061256 METAR KPWT 061256Z AUTO 00000KT 10SM CLR M06/M07 A3015 RMK AO2 SLP230 T10561072 FZRANO=
201812061156 METAR KPWT 061156Z AUTO 00000KT 10SM CLR M02/M06 A3016 RMK AO2 SLP231 6//// 7//// T10221061 11006 21044 55000 FZRANO=
201812061056 METAR KPWT 061056Z AUTO 05004KT 10SM CLR M03/M06 A3016 RMK AO2 SLP232 T10281056 FZRANO=
201812060956 METAR KPWT 060956Z AUTO 05005KT 10SM CLR M01/M05 A3015 RMK AO2 SLP229 T10111050 FZRANO=
201812060856 METAR KPWT 060856Z AUTO 05005KT 10SM CLR M03/M04 A3016 RMK AO2 SLP231 T10281044 51002 FZRANO=
201812060756 METAR KPWT 060756Z AUTO 02004KT 10SM CLR M02/M03 A3016 RMK AO2 SLP230 T10171033 400671044 FZRANO=
201812060656 METAR KPWT 060656Z AUTO 04003KT 10SM CLR M04/M04 A3015 RMK AO2 SLP231 T10391044 FZRANO=
201812060556 METAR KPWT 060556Z AUTO 00000KT 10SM CLR M01/M03 A3015 RMK AO2 SLP229 T10111028 10044 21017 53002 FZRANO=
201812060456 METAR KPWT 060456Z AUTO 04006KT 10SM CLR M02/M03 A3014 RMK AO2 SLP225 T10171028 FZRANO=
201812060356 METAR KPWT 060356Z AUTO 00000KT 10SM CLR 00/M02 A3015 RMK AO2 SLP228 T00001022 FZRANO=
201812060256 METAR KPWT 060256Z AUTO 03005KT 10SM CLR 02/M02 A3014 RMK AO2 SLP227 T00221022 50000 FZRANO=
201812060156 METAR KPWT 060156Z AUTO 02006KT 10SM CLR 00/M03 A3014 RMK AO2 SLP226 T00001028 FZRANO=
201812060056 METAR KPWT 060056Z AUTO 04006KT 10SM CLR 02/M02 A3015 RMK AO2 SLP228 T00221017 FZRANO=
201812052356 METAR KPWT 052356Z AUTO 04008KT 10SM CLR 04/M01 A3014 RMK AO2 SLP226 6//// T00441011 10067 20033 56003=
201812052256 METAR KPWT 052256Z AUTO 04010KT 10SM CLR 06/M01 A3015 RMK AO2 SLP229 T00561006=
201812052156 METAR KPWT 052156Z AUTO 04010KT 10SM CLR 07/M02 A3015 RMK AO2 SLP229 T00671017=
201812052056 METAR KPWT 052056Z AUTO 02009KT 10SM CLR 06/M01 A3015 RMK AO2 SLP230 T00611006 58007=
201812051956 METAR KPWT 051956Z AUTO 03009KT 10SM CLR 06/M01 A3016 RMK AO2 SLP234 T00561006=
201812051856 METAR KPWT 051856Z AUTO 04008KT 10SM CLR 05/00 A3017 RMK AO2 SLP237 T00500000=
201812051756 METAR KPWT 051756Z AUTO 05010KT 10SM CLR 04/00 A3017 RMK AO2 SLP236 6//// T00390000 10039 21006=
201812051656 METAR KPWT 051656Z AUTO 05013KT 10SM CLR 02/M01 A3016 RMK AO2 SLP232 T00221006 FZRANO=
201812051556 METAR KPWT 051556Z AUTO 04010KT 10SM CLR 00/M02 A3015 RMK AO2 SLP230 T00001017 FZRANO=
201812051456 METAR KPWT 051456Z AUTO 04011KT 10SM CLR M01/M02 RMK AO2 SLPNO T10061017 FZRANO $=
201812051356 METAR KPWT 051356Z AUTO 05006KT 10SM CLR M01/M02 A3015 RMK AO2 SLP230 T10061017 FZRANO=
201812051256 METAR KPWT 051256Z AUTO 06006KT 10SM CLR 00/M02 A3015 RMK AO2 SLP230 T00001017 FZRANO=
201812051156 METAR KPWT 051156Z AUTO 07006KT 10SM CLR 00/M01 A3016 RMK AO2 SLP232 6//// 7//// T00001011 10011 20000 58006 FZRANO=
201812051056 METAR KPWT 051056Z AUTO 06007KT 10SM CLR 01/M02 A3017 RMK AO2 SLP238 T00061017 FZRANO=
201812050956 METAR KPWT 050956Z AUTO 05008KT 10SM CLR 00/M02 A3018 RMK AO2 SLP239 T00001017 FZRANO=
201812050856 METAR KPWT 050856Z AUTO 06009KT 10SM CLR 01/M02 A3018 RMK AO2 SLP239 6//// T00061017 58002 FZRANO=
201812050756 METAR KPWT 050756Z AUTO 04011KT 10SM CLR 01/M02 A3018 RMK AO2 SLP241 T00061017 400671022 FZRANO=
201812050656 METAR KPWT 050656Z AUTO 05008KT 10SM CLR 01/M02 A3018 RMK AO2 SLP242 T00111017 FZRANO=
201812050556 METAR KPWT 050556Z AUTO 05010KT 10SM CLR 01/M02 A3019 RMK AO2 SLP240 6//// T00111017 10039 20006 53001 FZRANO=
201812050456 METAR KPWT 050456Z AUTO 06008KT 10SM CLR 01/M02 A3018 RMK AO2 SLP239 T00111022 FZRANO=
201812050356 METAR KPWT 050356Z AUTO 06008KT 10SM CLR 02/M02 A3018 RMK AO2 SLP239 T00171022 FZRANO=
201812050256 METAR KPWT 050256Z AUTO 05009KT 10SM CLR 02/M03 A3018 RMK AO2 SLP241 6//// T00171028 58013 FZRANO=
201812050156 METAR KPWT 050156Z AUTO 04007KT 10SM CLR 02/M03 A3020 RMK AO2 SLP245 T00171028 FZRANO=
201812050056 METAR KPWT 050056Z AUTO 05007KT 10SM CLR 02/M02 A3021 RMK AO2 SLP249 T00221022 FZRANO=
201812042356 METAR KPWT 042356Z AUTO 03009KT 10SM CLR 04/M03 A3022 RMK AO2 SLP253 T00391028 10067 20039 57016=
201812042256 METAR KPWT 042256Z AUTO 03009KT 10SM CLR 06/M02 A3024 RMK AO2 SLP259 T00561022=
201812042156 METAR KPWT 042156Z AUTO 04007KT 10SM CLR 07/M01 A3025 RMK AO2 SLP264 T00671006=
201812042056 METAR KPWT 042056Z AUTO 04011KT 10SM CLR 07/M02 A3027 RMK AO2 SLP271 T00671022 58019=
201812041956 METAR KPWT 041956Z AUTO 03007KT 10SM CLR 06/M02 A3030 RMK AO2 SLP279 T00611017=
201812041856 METAR KPWT 041856Z AUTO 03008KT 10SM CLR 05/M01 A3031 RMK AO2 SLP285 T00501011=
201812041756 METAR KPWT 041756Z AUTO 04007KT 10SM CLR 04/M02 A3033 RMK AO2 SLP288 6//// T00441022 10044 21011 57004=
201812041656 METAR KPWT 041656Z AUTO 04005KT 10SM CLR 02/M02 A3033 RMK AO2 SLP290 T00221017 FZRANO=
201812041556 METAR KPWT 041556Z AUTO 04004KT 10SM CLR M01/M03 A3033 RMK AO2 UPB32E46 SLP290 P0000 T10111028 FZRANO=
201812041456 METAR KPWT 041456Z AUTO 03005KT 10SM CLR M01/M03 A3034 RMK AO2 SLP293 T10061028 58003 FZRANO TSNO=
201812041356 METAR KPWT 041356Z AUTO 04007KT 10SM CLR 01/M02 A3034 RMK AO2 SLP294 T00061022 FZRANO TSNO=
201812041256 METAR KPWT 041256Z AUTO 04006KT 10SM CLR 01/M02 A3035 RMK AO2 SLP295 T00061017 FZRANO TSNO=
201812041156 METAR KPWT 041156Z AUTO 04007KT 10SM CLR M01/M02 A3035 RMK AO2 SLP295 6//// 7//// T10111022 10022 21022 53001 FZRANO TSNO=
201812041056 METAR KPWT 041056Z AUTO 06003KT 10SM CLR M02/M03 A3034 RMK AO2 SLP294 T10171028 FZRANO TSNO=
201812040956 METAR KPWT 040956Z AUTO 03004KT 10SM CLR M01/M02 A3034 RMK AO2 SLP295 T10061017 FZRANO TSNO=
201812040856 METAR KPWT 040856Z AUTO 04005KT 10SM CLR 00/M02 A3034 RMK AO2 SLP296 6//// T00001017 56003 FZRANO TSNO=
201812040756 METAR KPWT 040756Z AUTO 03008KT 10SM CLR 02/M02 A3035 RMK AO2 SLP296 T00221017 400671011 FZRANO TSNO=
201812040556 METAR KPWT 040556Z AUTO 03004KT 10SM CLR 01/M02 A3035 RMK AO2 SLP297 T00111022 10050 20011 50001 FZRANO TSNO=
201812040456 METAR KPWT 040456Z AUTO 04006KT 10SM CLR 02/M02 A3036 RMK AO2 SLP298 T00171017 FZRANO=
201812040356 METAR KPWT 040356Z AUTO 03004KT 10SM CLR 01/M01 A3035 RMK AO2 SLP298 T00111011 FZRANO=
201812040256 METAR KPWT 040256Z AUTO 05009KT 10SM CLR 03/M01 A3035 RMK AO2 SLP297 T00281006 53007=
201812040156 METAR KPWT 040156Z AUTO 04011KT 10SM CLR 03/00 A3034 RMK AO2 SLP295 T00280000=
201812040056 METAR KPWT 040056Z AUTO 04009KT 10SM CLR 03/01 A3033 RMK AO2 SLP292 T00330006=
201812032356 METAR KPWT 032356Z AUTO 03006KT 10SM CLR 05/02 A3033 RMK AO2 SLP290 T00500022 10067 20039 53000=
201812032256 METAR KPWT 032256Z AUTO 03009KT 10SM CLR 06/02 A3033 RMK AO2 SLP290 T00610022=
201812032156 METAR KPWT 032156Z AUTO 04012KT 10SM CLR 07/03 A3032 RMK AO2 SLP287 T00670028=
201812032056 METAR KPWT 032056Z AUTO 03011G16KT 10SM CLR 07/03 A3033 RMK AO2 SLP290 T00670033 58006=
201812032032 SPECI KPWT 032032Z AUTO 03009KT 10SM SCT008 06/03 A3033 RMK AO2=
201812031956 METAR KPWT 031956Z AUTO 05010KT 10SM OVC008 05/03 A3033 RMK AO2 SLP292 T00500033=
201812031856 METAR KPWT 031856Z AUTO 03009KT 10SM OVC006 04/04 A3034 RMK AO2 CIG 005V008 SLP296 T00440039=
201812031847 SPECI KPWT 031847Z AUTO 04007KT 10SM OVC006 04/04 A3035 RMK AO2=
201812031739 SPECI KPWT 031739Z AUTO 04008KT 6SM BR BKN004 03/03 A3034 RMK AO2=
201812031656 METAR KPWT 031656Z AUTO 04008KT 3SM BR OVC002 03/03 A3033 RMK AO2 SLP291 T00330028=
201812031644 SPECI KPWT 031644Z AUTO 05011KT 4SM BR OVC002 03/03 A3033 RMK AO2=
201812031605 SPECI KPWT 031605Z AUTO 05008KT 5SM BR BKN004 03/03 A3032 RMK AO2=
201812031556 METAR KPWT 031556Z AUTO 05008KT 8SM SCT004 BKN050 03/03 A3032 RMK AO2 SLP287 T00280028=
201812031508 SPECI KPWT 031508Z AUTO 05004KT 8SM FEW002 OVC050 03/03 A3032 RMK AO2=
201812031456 METAR KPWT 031456Z AUTO 05006KT 7SM BKN002 OVC050 03/03 A3032 RMK AO2 SLP284 6//// T00330028 53002=
201812031403 SPECI KPWT 031403Z AUTO 06006KT 5SM BR OVC002 03/03 A3031 RMK AO2=
201812031356 METAR KPWT 031356Z AUTO 05007KT 2 1/2SM BR OVC002 03/03 A3031 RMK AO2 SLP281 T00330028=
201812031353 SPECI KPWT 031353Z AUTO 05006KT 2SM BR OVC002 03/03 A3031 RMK AO2 VIS 1V3=
201812031348 SPECI KPWT 031348Z AUTO 05006KT 1SM BR OVC002 03/03 A3031 RMK AO2=
201812031341 SPECI KPWT 031341Z AUTO 04005KT 1/2SM FG OVC002 03/03 A3031 RMK AO2=
201812031334 SPECI KPWT 031334Z AUTO 04006KT 3/4SM BR OVC002 03/03 A3031 RMK AO2=
201812031325 SPECI KPWT 031325Z AUTO 04007KT 1SM BR OVC002 03/03 A3031 RMK AO2=
201812031317 SPECI KPWT 031317Z AUTO 04006KT 2 1/2SM BR OVC002 03/03 A3031 RMK AO2 CIG 001V005=
201812031256 METAR KPWT 031256Z AUTO 03008KT 1 3/4SM BR OVC002 03/03 A3031 RMK AO2 SLP283 T00330033=
201812031238 SPECI KPWT 031238Z AUTO 04008KT 3SM BR OVC002 03/03 A3031 RMK AO2=
201812031229 SPECI KPWT 031229Z AUTO 04007KT 1 3/4SM BR OVC002 03/03 A3031 RMK AO2=
201812031213 SPECI KPWT 031213Z AUTO 04008KT 2 1/2SM BR BKN002 OVC025 03/03 A3031 RMK AO2=
201812031156 METAR KPWT 031156Z AUTO 05007KT 6SM BR BKN004 OVC025 03/03 A3031 RMK AO2 SLP282 6//// 7//// T00330033 10033 21011 51011=
201812031131 SPECI KPWT 031131Z AUTO 06007KT 6SM BR OVC004 03/03 A3031 RMK AO2 CIG 002V006=
201812031056 METAR KPWT 031056Z AUTO 01003KT 5SM BR BKN006 OVC025 00/00 A3030 RMK AO2 SLP282 T00000000 FZRANO=
201812030956 METAR KPWT 030956Z AUTO 00000KT 1 1/2SM BR CLR M01/M01 A3029 RMK AO2 VIS 1/2V5 SLP277 T10061011 FZRANO=
201812030947 SPECI KPWT 030947Z AUTO 00000KT 4SM BR CLR M01/M01 A3029 RMK AO2 FZRANO=
201812030940 SPECI KPWT 030940Z AUTO 00000KT 2 1/2SM BR CLR 00/00 A3028 RMK AO2 VIS 3/4V5 FZRANO=
201812030936 SPECI KPWT 030936Z AUTO 00000KT 1SM BR CLR M01/M01 A3028 RMK AO2 VIS 1/2V5 FZRANO=
201812030927 SPECI KPWT 030927Z AUTO 00000KT 1 3/4SM BR FEW055 00/00 A3028 RMK AO2 VIS 3/4V5 FZRANO=
201812030856 METAR KPWT 030856Z AUTO 00000KT 6SM BR BKN055 00/00 A3028 RMK AO2 SLP273 6//// T00000000 51002 FZRANO=
201812030852 SPECI KPWT 030852Z AUTO 00000KT 7SM OVC055 00/00 A3028 RMK AO2 FZRANO=
201812030844 SPECI KPWT 030844Z AUTO 00000KT 2 1/2SM BR OVC055 00/00 RMK AO2 FZRANO $=
201812030801 SPECI KPWT 030801Z AUTO 00000KT 3SM BR BKN055 02/01 A3028 RMK AO2 FZRANO=
201812030756 METAR KPWT 030756Z AUTO 00000KT 1 3/4SM BR BKN050 02/01 A3028 RMK AO2 SLP272 T00170011 400671006 FZRANO=
201812030753 SPECI KPWT 030753Z AUTO 1 3/4SM BR OVC050 02/01 RMK AO2 400671006 FZRANO $=
201812030656 METAR KPWT 030656Z AUTO 00000KT 9SM OVC055 02/01 A3027 RMK AO2 SLP270 T00170011 FZRANO=
201812030555 METAR KPWT 030555Z AUTO 00000KT 3SM BR OVC050 01/01 A3025 RMK AO2 SLP262 6//// T00060006 10061 21006 51010 FZRANO=
201812030554 SPECI KPWT 030554Z AUTO 00000KT 2SM BR OVC050 01/01 A3025 RMK AO2 FZRANO=
201812030544 SPECI KPWT 030544Z AUTO 00000KT 1SM BR OVC050 01/00 A3025 RMK AO2 FZRANO=
201812030521 SPECI KPWT 030521Z AUTO 00000KT 1/2SM FG OVC055 00/M01 A3024 RMK AO2 FZRANO=
201812030511 SPECI KPWT 030511Z AUTO 00000KT 3/4SM BR OVC055 M01/M01 A3024 RMK AO2 FZRANO=
201812030508 SPECI KPWT 030508Z AUTO 00000KT 1 3/4SM BR OVC055 M01/M01 A3024 RMK AO2 FZRANO=
201812030456 METAR KPWT 030456Z AUTO 00000KT 7SM BKN055 00/M01 A3024 RMK AO2 SLP259 T00001006 FZRANO=
201812030436 SPECI KPWT 030436Z AUTO 00000KT 4SM BR OVC055 00/M01 A3024 RMK AO2 FZRANO=
201812030432 SPECI KPWT 030432Z AUTO 00000KT 1 1/4SM BR OVC055 00/M01 A3024 RMK AO2 FZRANO=
201812030422 SPECI KPWT 030422Z AUTO 00000KT 1 3/4SM BR BKN055 M01/M01 A3023 RMK AO2 FZRANO=
201812030417 SPECI KPWT 030417Z AUTO 00000KT 3SM BR BKN055 M01/M01 A3023 RMK AO2 FZRANO TSNO=
201812030414 SPECI KPWT 030414Z AUTO 00000KT 1 1/4SM BR SCT055 M01/M01 A3023 RMK AO2 FZRANO=
201812030408 SPECI KPWT 030408Z AUTO 00000KT 3/4SM BR FEW055 M01/M01 A3023 RMK AO2 FZRANO=
201812030356 METAR KPWT 030356Z AUTO 00000KT 1 1/4SM BR CLR M01/M01 A3023 RMK AO2 VIS 3/4V5 SLP256 T10061006 FZRANO=
201812030351 SPECI KPWT 030351Z AUTO 00000KT 1SM BR CLR M01/M01 A3023 RMK AO2 VIS 1/2V5 FZRANO=
201812030334 SPECI KPWT 030334Z AUTO 00000KT 1/2SM FG FEW060 00/M01 A3023 RMK AO2 FZRANO=
201812030326 SPECI KPWT 030326Z AUTO 00000KT 3/4SM BR SCT060 00/00 A3023 RMK AO2 FZRANO=
201812030321 SPECI KPWT 030321Z AUTO 00000KT 1 3/4SM BR FEW060 01/00 A3023 RMK AO2 FZRANO=
201812030256 METAR KPWT 030256Z AUTO 00000KT 5SM BR CLR 01/01 A3022 RMK AO2 SLP251 6//// T00060006 52010 FZRANO=
201812030252 SPECI KPWT 030252Z AUTO 00000KT 3SM BR CLR 01/00 A3022 RMK AO2 FZRANO=
201812030250 SPECI KPWT 030250Z AUTO 00000KT 1 3/4SM BR CLR 01/00 A3022 RMK AO2 VIS 1/2V5 FZRANO=
201812030221 SPECI KPWT 030221Z AUTO 00000KT 1/4SM FG CLR 01/01 A3021 RMK AO2 FZRANO=
201812030214 SPECI KPWT 030214Z AUTO 00000KT 1/2SM FG CLR 02/01 A3021 RMK AO2 FZRANO=
201812030156 METAR KPWT 030156Z AUTO 00000KT 1/4SM FG CLR 02/02 A3021 RMK AO2 SLP249 T00220017 FZRANO=
201812030152 SPECI KPWT 030152Z AUTO 00000KT 1/2SM FG CLR 02/02 A3021 RMK AO2 FZRANO=
201812030145 SPECI KPWT 030145Z AUTO 00000KT 1SM BR CLR 03/02 A3021 RMK AO2=
201812030129 SPECI KPWT 030129Z AUTO 00000KT 1/2SM FG FEW060 03/03 A3020 RMK AO2 TSNO=
201812030126 SPECI KPWT 030126Z AUTO 00000KT 1 1/4SM BR FEW060 04/03 A3020 RMK AO2=
201812030056 METAR KPWT 030056Z AUTO 00000KT 10SM OVC060 05/04 A3020 RMK AO2 SLP246 T00500044=
201812022356 METAR KPWT 022356Z AUTO 00000KT 10SM OVC055 06/04 A3019 RMK AO2 SLP242 T00610044 10067 20050 53010=
201812022256 METAR KPWT 022256Z AUTO 00000KT 10SM OVC055 07/05 A3018 RMK AO2 SLP237 T00670050=
201812022156 METAR KPWT 022156Z AUTO 22003KT 10SM OVC055 07/03 A3017 RMK AO2 SLP233 T00670033=
201812022126 SPECI KPWT 022126Z AUTO 21003KT 10SM SCT020 OVC055 07/04 A3016 RMK AO2=
201812022056 METAR KPWT 022056Z AUTO 24003KT 10SM FEW011 OVC018 07/04 A3016 RMK AO2 SLP231 T00670039 53005=
201812022037 SPECI KPWT 022037Z AUTO 00000KT 10SM SCT011 BKN018 OVC060 07/04 A3016 RMK AO2=
201812022027 SPECI KPWT 022027Z AUTO 23003KT 10SM BKN011 OVC018 07/04 A3015 RMK AO2=
201812022020 SPECI KPWT 022020Z AUTO 25003KT 10SM SCT011 OVC018 07/04 A3015 RMK AO2=
201812022005 SPECI KPWT 022005Z AUTO 21003KT 10SM OVC011 06/04 A3015 RMK AO2=
201812021956 METAR KPWT 021956Z AUTO 22003KT 10SM OVC009 06/04 A3015 RMK AO2 CIG 008V012 SLP228 T00610044=
201812021856 METAR KPWT 021856Z AUTO 00000KT 10SM BKN007 OVC011 06/04 A3014 RMK AO2 CIG 003V009 SLP226 T00560044 TSNO=
201812021854 SPECI KPWT 021854Z AUTO 00000KT 10SM FEW004 OVC009 06/04 A3014 RMK AO2 CIG 006V012=
201812021805 SPECI KPWT 021805Z AUTO 00000KT 10SM BKN004 OVC035 06/04 A3014 RMK AO2 LTG DSNT NE=
201812021756 METAR KPWT 021756Z AUTO 00000KT 10SM SCT004 OVC035 05/04 A3013 RMK AO2 RAB21E43 SLP223 6//// T00500044 10050 20039 51020=
201812021742 SPECI KPWT 021742Z AUTO 23003KT 10SM -RA FEW007 SCT018 OVC037 05/04 A3013 RMK AO2 RAB21=
201812021712 SPECI KPWT 021712Z AUTO 00000KT 10SM FEW004 OVC015 04/04 A3012 RMK AO2=
201812021656 METAR KPWT 021656Z AUTO 22003KT 10SM OVC015 04/04 A3012 RMK AO2 SLP218 T00440044=
201812021633 SPECI KPWT 021633Z AUTO 00000KT 10SM BKN015 BKN038 OVC060 04/04 A3011 RMK AO2=
201812021609 SPECI KPWT 021609Z AUTO 00000KT 9SM SCT023 BKN031 OVC060 04/04 A3010 RMK AO2=
201812021556 METAR KPWT 021556Z AUTO 00000KT 8SM BKN025 OVC031 04/04 A3009 RMK AO2 SLP209 T00390039=
201812021456 METAR KPWT 021456Z AUTO 00000KT 6SM BR BKN017 OVC023 04/04 A3007 RMK AO2 RAB12E37 SLP203 P0000 6//// T00440044 51016=
201812021432 SPECI KPWT 021432Z AUTO 00000KT 8SM -RA FEW002 SCT012 OVC017 04/04 A3007 RMK AO2 RAB12 P0000=
201812021404 SPECI KPWT 021404Z AUTO 00000KT 8SM FEW002 BKN013 OVC019 04/04 A3006 RMK AO2=
201812021356 METAR KPWT 021356Z AUTO 00000KT 10SM FEW002 OVC018 04/04 A3006 RMK AO2 SLP198 T00440044=
201812021304 SPECI KPWT 021304Z AUTO 22003KT 7SM FEW012 OVC018 04/04 A3005 RMK AO2=
201812021256 METAR KPWT 021256Z AUTO 00000KT 2 1/2SM BR SCT012 BKN018 OVC031 04/04 A3004 RMK AO2 RAB13E51 SLP193 P0000 T00390039=
201812021252 SPECI KPWT 021252Z AUTO 00000KT 2 1/2SM BR SCT012 BKN018 OVC031 04/04 RMK AO2 RAB13E51 P0000 $=
201812021236 SPECI KPWT 021236Z AUTO 00000KT 5SM -RA BR FEW012 OVC031 04/04 A3004 RMK AO2 RAB13 P0000=
201812021156 METAR KPWT 021156Z AUTO 00000KT 6SM BR OVC025 04/04 A3003 RMK AO2 SLP186 7//// T00440044 10050 20044 51005=
201812021056 METAR KPWT 021056Z AUTO 00000KT 4SM BR BKN021 OVC038 05/04 A3002 RMK AO2 SLP184 T00500044=
201812021051 SPECI KPWT 021051Z AUTO 00000KT 4SM BR BKN021 OVC038 04/04 A3002 RMK AO2=
201812021017 SPECI KPWT 021017Z AUTO 00000KT 4SM BR FEW027 OVC035 04/04 A3002 RMK AO2=
201812020956 METAR KPWT 020956Z AUTO 00000KT 5SM BR FEW001 BKN027 OVC037 04/04 A3001 RMK AO2 SLP181 T00440039=
201812020949 SPECI KPWT 020949Z AUTO 00000KT 6SM BR SCT001 BKN025 OVC039 04/04 A3001 RMK AO2=
201812020922 SPECI KPWT 020922Z AUTO 00000KT 6SM BR BKN001 OVC038 04/04 A3001 RMK AO2=
201812020913 SPECI KPWT 020913Z AUTO 00000KT 7SM SCT001 OVC036 04/04 A3001 RMK AO2=
201812020903 SPECI KPWT 020903Z AUTO 00000KT 6SM BR SCT025 OVC036 04/04 A3001 RMK AO2=
201812020856 METAR KPWT 020856Z AUTO 00000KT 8SM BKN025 OVC036 04/04 A3001 RMK AO2 SLP179 T00440044 51009=
201812020756 METAR KPWT 020756Z AUTO 00000KT 9SM BKN017 OVC036 04/04 A3000 RMK AO2 SLP179 T00440044 400721006=
201812020656 METAR KPWT 020656Z AUTO 00000KT 10SM BKN019 OVC032 04/04 A3000 RMK AO2 SLP176 T00440044=
201812020649 SPECI KPWT 020649Z AUTO 00000KT 10SM BKN021 OVC032 04/04 A2999 RMK AO2=
201812020640 SPECI KPWT 020640Z AUTO 00000KT 10SM FEW015 SCT021 OVC032 05/04 A2999 RMK AO2=
201812020607 SPECI KPWT 020607Z AUTO 21003KT 3SM BR OVC023 04/04 A2998 RMK AO2=
201812020601 SPECI KPWT 020601Z AUTO 00000KT 1 3/4SM BR OVC023 04/04 A2998 RMK AO2=
201812020556 METAR KPWT 020556Z AUTO 20003KT 3SM BR OVC023 04/04 A2998 RMK AO2 SLP171 6//// T00440039 10061 20039 53015=
201812020540 SPECI KPWT 020540Z AUTO 00000KT 10SM BKN025 OVC045 04/04 A2997 RMK AO2=
201812020456 METAR KPWT 020456Z AUTO 00000KT 8SM SCT027 OVC043 04/04 A2996 RMK AO2 SLP166 T00440044=
201812020446 SPECI KPWT 020446Z AUTO 00000KT 10SM BKN027 OVC039 04/04 A2996 RMK AO2=
201812020439 SPECI KPWT 020439Z AUTO 00000KT 10SM SCT025 OVC037 04/04 A2996 RMK AO2=
201812020356 METAR KPWT 020356Z AUTO 00000KT 10SM FEW017 OVC027 05/04 A2995 RMK AO2 RAB00E49 SLP159 P0000 T00500044=
201812020344 SPECI KPWT 020344Z AUTO 00000KT 10SM -RA FEW017 BKN025 OVC032 04/04 A2995 RMK AO2 RAB00 P0000=
201812020309 SPECI KPWT 020309Z AUTO 00000KT 10SM -RA FEW001 BKN032 OVC080 04/04 A2994 RMK AO2 RAB00 P0000=
201812020256 METAR KPWT 020256Z AUTO 00000KT 9SM BKN034 OVC080 04/04 A2993 RMK AO2 SLP155 6//// T00390039 51011=
201812020252 SPECI KPWT 020252Z AUTO 00000KT 3SM BR SCT036 OVC080 04/04 A2993 RMK AO2=
201812020212 SPECI KPWT 020212Z AUTO 00000KT 3SM BR FEW060 BKN075 04/04 A2993 RMK AO2=
201812020204 SPECI KPWT 020204Z AUTO 00000KT 1 3/4SM BR FEW029 SCT060 BKN075 04/04 A2993 RMK AO2=
201812020156 METAR KPWT 020156Z AUTO 00000KT 10SM FEW018 BKN060 OVC075 04/04 A2993 RMK AO2 SLP154 T00440044=
201812020134 SPECI KPWT 020134Z AUTO 00000KT 9SM FEW007 SCT011 OVC034 05/04 A2992 RMK AO2=
201812020112 SPECI KPWT 020112Z AUTO 00000KT 5SM BR BKN008 OVC029 05/04 A2992 RMK AO2 CIG 007V011=
201812020104 SPECI KPWT 020104Z AUTO 00000KT 8SM BKN010 OVC029 05/04 A2992 RMK AO2=
201812020056 METAR KPWT 020056Z AUTO 00000KT 9SM SCT010 BKN027 OVC048 05/04 A2992 RMK AO2 SLP149 T00500044=
201812020045 SPECI KPWT 020045Z AUTO 00000KT 9SM BKN027 BKN048 OVC060 05/04 A2991 RMK AO2=
201812020003 SPECI KPWT 020003Z AUTO 00000KT 10SM FEW010 SCT016 OVC060 06/06 A2990 RMK AO2=
201812012356 METAR KPWT 012356Z AUTO 27003KT 10SM FEW010 BKN016 OVC060 06/06 A2990 RMK AO2 RAE24 SLP144 P0001 60004 T00610056 10072 20039 53007=
201812012256 METAR KPWT 012256Z AUTO 00000KT 7SM -RA SCT023 BKN029 OVC036 07/06 A2989 RMK AO2 RAE17B53 SLP141 P0000 T00670056=
201812012156 METAR KPWT 012156Z AUTO 00000KT 10SM -RA SCT021 OVC032 06/05 A2988 RMK AO2 RAB08 SLP136 P0003 T00610050=
201812012154 SPECI KPWT 012154Z AUTO 00000KT 10SM -RA FEW021 SCT025 OVC034 06/05 A2988 RMK AO2 RAB08 P0003=
201812012143 SPECI KPWT 012143Z AUTO 31003KT 10SM -RA BKN021 OVC030 06/05 A2988 RMK AO2 RAB08 P0003=
201812012131 SPECI KPWT 012131Z AUTO 7SM -RA SCT017 OVC030 06/04 A2988 RMK AO2 RAB08 P0002=
201812012104 SPECI KPWT 012104Z AUTO 22003KT 10SM BKN019 OVC043 07/03 A2988 RMK AO2=
201812012056 METAR KPWT 012056Z AUTO 20004KT 10SM SCT019 OVC043 07/04 A2987 RMK AO2 SLP134 T00720039 51003=
201812011956 METAR KPWT 011956Z AUTO 22003KT 10SM SCT007 SCT016 OVC045 06/04 A2987 RMK AO2 SLP133 T00610044=
201812011927 SPECI KPWT 011927Z AUTO 23005KT 10SM FEW007 OVC045 06/04 A2987 RMK AO2=
201812011856 METAR KPWT 011856Z AUTO 22005KT 10SM FEW045 06/04 A2987 RMK AO2 SLP134 T00560044=
201812011756 METAR KPWT 011756Z AUTO 00000KT 10SM BKN044 04/04 A2987 RMK AO2 SLP132 T00440039 10044 21006 53016=
201812011656 METAR KPWT 011656Z AUTO 00000KT 10SM BKN032 02/02 A2985 RMK AO2 SLP127 T00170017 FZRANO=
201812011608 SPECI KPWT 011608Z AUTO 00000KT 4SM BR OVC034 01/01 A2984 RMK AO2 FZRANO=
201812011556 METAR KPWT 011556Z AUTO 00000KT 1 1/4SM BR BKN034 00/M01 A2983 RMK AO2 VIS 1/2V5 SLP120 T00001006 FZRANO=
201812011551 SPECI KPWT 011551Z AUTO 00000KT 3SM BR BKN036 00/M01 A2983 RMK AO2 FZRANO=
201812011549 SPECI KPWT 011549Z AUTO 00000KT 1 1/2SM BR BKN036 00/M01 A2983 RMK AO2 FZRANO=
201812011539 SPECI KPWT 011539Z AUTO 00000KT 3/4SM BR CLR M01/M01 A2983 RMK AO2 FZRANO TSNO=
201812011536 SPECI KPWT 011536Z AUTO 00000KT 1 1/2SM BR CLR M01/M01 A2982 RMK AO2 FZRANO TSNO=
201812011534 SPECI KPWT 011534Z AUTO 00000KT 3SM BR CLR M01/M01 A2982 RMK AO2 FZRANO=
201812011520 SPECI KPWT 011520Z AUTO 00000KT 1 3/4SM BR CLR M01/M01 A2982 RMK AO2 VIS 1V5 FZRANO=
201812011514 SPECI KPWT 011514Z AUTO 00000KT 4SM BR CLR 00/M01 A2982 RMK AO2 FZRANO=
201812011507 SPECI KPWT 011507Z AUTO 00000KT 2 1/2SM BR CLR 00/M01 A2982 RMK AO2 VIS 3/4V5 FZRANO=
201812011502 SPECI KPWT 011502Z AUTO 00000KT 1SM BR CLR 00/M01 A2982 RMK AO2 FZRANO=
201812011456 METAR KPWT 011456Z AUTO 00000KT 1/2SM FG CLR 00/00 A2982 RMK AO2 SLP115 T00000000 50007 FZRANO=
201812011451 SPECI KPWT 011451Z AUTO 00000KT 1/4SM FG VV001 00/00 A2982 RMK AO2 FZRANO=
201812011442 SPECI KPWT 011442Z AUTO 00000KT 1/2SM FG VV001 00/00 A2982 RMK AO2 FZRANO=
201812011437 SPECI KPWT 011437Z AUTO 00000KT 1SM BR VV001 01/00 A2982 RMK AO2 FZRANO=
201812011420 SPECI KPWT 011420Z AUTO 00000KT 3/4SM BR CLR 01/01 A2981 RMK AO2 FZRANO=
201812011408 SPECI KPWT 011408Z AUTO 00000KT 1/2SM FG CLR 01/00 A2981 RMK AO2 FZRANO=
201812011356 METAR KPWT 011356Z AUTO 00000KT 3/4SM BR CLR 02/02 A2981 RMK AO2 SLP113 T00170017 FZRANO=
201812011348 SPECI KPWT 011348Z AUTO 00000KT 1/2SM FG CLR 01/01 A2981 RMK AO2 FZRANO=
201812011340 SPECI KPWT 011340Z AUTO 00000KT 3/4SM BR CLR 02/02 A2981 RMK AO2 FZRANO=
201812011335 SPECI KPWT 011335Z AUTO 00000KT 1 3/4SM BR CLR 02/02 A2980 RMK AO2 FZRANO=
201812011256 METAR KPWT 011256Z AUTO 00000KT 8SM BKN065 OVC120 03/03 A2980 RMK AO2 SLP109 T00330028=
201812011218 SPECI KPWT 011218Z AUTO 00000KT 10SM SCT015 BKN049 OVC070 04/04 A2980 RMK AO2=
201812011156 METAR KPWT 011156Z AUTO 00000KT 10SM OVC015 04/04 A2980 RMK AO2 SLP108 60002 7//// T00440039 10050 20044 53005=
201812011127 SPECI KPWT 011127Z AUTO 00000KT 10SM BKN015 OVC030 04/04 A2979 RMK AO2=
201812011101 SPECI KPWT 011101Z AUTO 00000KT 10SM FEW009 SCT015 OVC030 04/04 A2979 RMK AO2=
201812011056 METAR KPWT 011056Z AUTO 00000KT 10SM FEW009 BKN013 OVC030 04/04 A2979 RMK AO2 RAE21 SLP104 P0000 T00440039=
201812011046 SPECI KPWT 011046Z AUTO 00000KT 10SM FEW008 BKN015 OVC028 05/04 A2979 RMK AO2 RAE21 P0000=
201812011042 SPECI KPWT 011042Z AUTO 00000KT 10SM SCT010 OVC013 05/04 A2978 RMK AO2 RAE21 P0000=
201812011032 SPECI KPWT 011032Z AUTO 00000KT 10SM FEW009 OVC015 05/04 A2978 RMK AO2 RAE21 P0000=
201812011024 SPECI KPWT 011024Z AUTO 00000KT 10SM SCT009 OVC013 05/04 A2978 RMK AO2 RAE21 P0000=
201812010956 METAR KPWT 010956Z AUTO 00000KT 10SM -RA BKN011 OVC014 05/04 A2978 RMK AO2 CIG 007V011 SLP102 P0001 T00500044=
201812010948 SPECI KPWT 010948Z AUTO 00000KT 10SM -RA BKN011 BKN015 OVC022 05/04 A2978 RMK AO2 CIG 007V013 P0001=
201812010910 SPECI KPWT 010910Z AUTO 22007KT 10SM -RA SCT006 BKN020 OVC026 05/04 A2978 RMK AO2 P0001=
201812010856 METAR KPWT 010856Z AUTO 23006KT 7SM -RA BKN006 OVC026 05/04 A2978 RMK AO2 RAB0758 CIG 004V010 SLP102 P0001 60001 T00500039 51008=
201812010826 SPECI KPWT 010826Z AUTO 20003KT 9SM -RA BKN008 OVC012 05/04 A2978 RMK AO2 RAB0758 CIG 006V010 P0001=
201812010810 SPECI KPWT 010810Z AUTO 20004KT 10SM -RA OVC010 05/04 A2978 RMK AO2 RAB0758 CIG 007V013 P0000=
201812010756 METAR KPWT 010756Z AUTO 21006KT 10SM OVC008 05/04 A2978 RMK AO2 RAE15 CIG 007V011 SLP102 P0000 T00500039 400780044=
201812010656 METAR KPWT 010656Z AUTO 19005KT 10SM -RA OVC014 05/04 A2977 RMK AO2 RAB19 SLP098 P0000 T00500039=
201812010635 SPECI KPWT 010635Z AUTO 20004KT 10SM -RA BKN014 OVC036 05/04 A2976 RMK AO2 RAB19 P0000=
201812010623 SPECI KPWT 010623Z AUTO 18003KT 10SM -RA SCT014 OVC034 05/04 A2976 RMK AO2 RAB19 P0000=
201812010556 METAR KPWT 010556Z AUTO 19005KT 10SM BKN014 OVC032 05/04 A2975 RMK AO2 RAE05 SLP093 P0000 60016 T00500039 10067 20050 53010=
201812010515 SPECI KPWT 010515Z AUTO 19007KT 10SM FEW008 OVC012 05/04 A2975 RMK AO2 RAE05 P0000=
201812010456 METAR KPWT 010456Z AUTO VRB06KT 10SM -RA BKN009 OVC014 06/04 A2974 RMK AO2 CIG 005V012 SLP090 P0000 T00560044=
201812010356 METAR KPWT 010356Z AUTO 19008KT 10SM -RA OVC009 06/04 A2973 RMK AO2 CIG 005V015 SLP086 P0002 T00560044=
201812010347 SPECI KPWT 010347Z AUTO 19008KT 10SM -RA BKN009 OVC016 06/04 A2973 RMK AO2 CIG 005V012 P0001=
201812010336 SPECI KPWT 010336Z AUTO 18009G14KT 10SM -RA BKN012 OVC018 06/04 A2973 RMK AO2 P0001=
201812010307 SPECI KPWT 010307Z AUTO 19007KT 8SM -RA SCT009 BKN015 OVC023 06/05 A2973 RMK AO2 P0000=
201812010256 METAR KPWT 010256Z AUTO 15004KT 3SM -RA BR SCT016 OVC023 06/05 A2972 RMK AO2 SLP083 P0011 60014 T00560050 55002=
201812010156 METAR KPWT 010156Z AUTO 19006KT 8SM RA SCT011 BKN019 OVC029 06/06 A2972 RMK AO2 RAB04 SLP082 P0003 T00610056=
201812010145 SPECI KPWT 010145Z AUTO 23003KT 8SM -RA SCT012 BKN023 OVC042 06/06 A2972 RMK AO2 RAB04 P0001=
201812010056 METAR KPWT 010056Z AUTO 00000KT 10SM FEW025 SCT085 06/06 A2972 RMK AO2 RAE28 SLP081 P0000 T00610056=

# No short TAF reports from KPWT in databse.

###################################
#  large TAF from KPWT
###################################
201812312322 TAF KPWT 312322Z 0100/0124 03005KT P6SM SCT200 FM010400 00000KT
                       P6SM BKN200 FM011300 VRB02KT 3SM BR BKN003
                       FM011900 VRB03KT P6SM BKN200=
201812311720 TAF KPWT 311720Z 3118/0118 05007KT P6SM SCT250 FM010400 00000KT
                       P6SM BKN250=
201812311138 TAF KPWT 311138Z 3112/0112 03006KT P6SM FEW020 SCT250 FM312000
                       04004KT P6SM SCT250 FM011000 VRB03KT 5SM
                       BR BCFG SCT001 BKN250=
201812310522 TAF KPWT 310522Z 3106/0106 03004KT P6SM SCT025 FM311300 02004KT
                       2SM BR BCFG SCT002 SCT250 FM312000 04004KT
                       P6SM SCT250=
201812302338 TAF KPWT 302338Z 3100/3124 04004KT P6SM SCT025 BKN060 FM310300
                       04004KT P6SM SCT250 FM311300 02004KT 2SM
                       BR BCFG SCT002 SCT250 FM312000 04004KT P6SM
                       SCT250=
201812302218 KPWT 302218Z 3022/3118 04005KT P6SM BKN019 BKN045 FM310000 04005KT
                       P6SM SCT040 FM311300 02004KT 6SM BR BCFG
                       SCT002=
201812301720 TAF KPWT 301720Z 3018/3118 VRB03KT P6SM SCT030 SCT070 FM302200
                       02005KT P6SM FEW035 FM311300 02004KT 6SM
                       BR BCFG SCT002=
201812301127 TAF KPWT 301127Z 3012/3112 VRB03KT P6SM VCSH SCT030 BKN060 FM301900
                       VRB05KT P6SM FEW040 BKN060 FM310000 02005KT
                       P6SM FEW040 FM310800 02004KT 6SM BR BCFG
                       SCT002=
201812300524 TAF KPWT 300524Z 3006/3106 VRB03KT P6SM SCT010 SCT060
                      TEMPO 3006/3010 BKN010 OVC060 FM301800 03006KT
                       P6SM FEW025 BKN050 FM310000 02004KT P6SM
                       FEW040=
201812292323 TAF KPWT 292323Z 3000/3024 22017G24KT 6SM -RA BR OVC007 FM300200
                       19015G25KT P6SM VCSH BKN007 OVC015 FM300600
                       20012G19KT P6SM VCSH BKN015 BKN030 FM301200
                       18010KT P6SM BKN015 BKN030 FM302000 05008KT
                       P6SM SCT030=
201812292041 TAF AMD KPWT 292041Z 2921/3018 21017G21KT P6SM -RA OVC007 FM300500
                       20012G19KT P6SM VCSH BKN015 BKN030 FM301100
                       16010KT P6SM BKN003 OVC015=
201812291731 TAF KPWT 291731Z 2918/3018 18011G19KT P6SM -RA OVC003 FM292000
                       20022G35KT 4SM -RA BR OVC003 FM300200 20015G22KT
                       5SM -SHRA OVC005 FM300500 20012G19KT P6SM
                       VCSH BKN015 BKN030 FM301100 16010KT P6SM
                       BKN003 OVC015=
201812291138 TAF KPWT 291138Z 2912/3012 19014G25KT P6SM OVC003 FM291800 19022G35KT
                       6SM -RA BR OVC005 FM292100 20025G38KT 4SM
                       -RA BR OVC005 FM300200 20015G22KT 5SM -SHRA
                       OVC007=
201812290525 TAF KPWT 290525Z 2906/3006 20012KT P6SM -RA OVC003 FM290900 19014G20KT
                       P6SM OVC003 FM291800 19023G35KT 6SM -RA
                       BR OVC005 FM292100 19025G38KT 4SM -RA BR
                       OVC005 FM300200 20014G22KT 5SM -SHRA OVC007=
201812282335 TAF KPWT 282335Z 2900/2924 18009G16KT 6SM -RA BR OVC003 FM291100
                       19015G25KT 6SM -SHRA BR OVC005 FM291700
                       19028G37KT 5SM -RA BR OVC005=
201812281723 TAF KPWT 281723Z 2818/2918 18005KT P6SM -RA OVC003 FM282200 19008G15KT
                       4SM -RA BR OVC005 FM291100 20012G20KT 6SM
                       -SHRA BR OVC005=
201812281405 KPWT 281405Z 2814/2912 20004KT P6SM -RA OVC007
                      TEMPO 2814/2816 P6SM -RA BKN003 OVC007 FM281600
                       19005KT 5SM -RA BR OVC005 FM290000 19011KT
                       4SM -RA BR OVC005=
201812281139 TAF KPWT 281139Z 2812/2912 14008KT P6SM SCT015 OVC030
                      TEMPO 2812/2816 P6SM BKN003 OVC025 FM281600
                       19005KT 5SM -RA BR OVC015 FM290000 19011KT
                       4SM -RA BR OVC010=
201812280520 TAF KPWT 280520Z 2806/2906 00000KT P6SM BKN035 OVC070 FM281200
                       14008KT P6SM SCT015 OVC030 FM281800 18010KT
                       5SM -RA BR OVC015=
201812272320 TAF KPWT 272320Z 2800/2824 00000KT P6SM OVC040 FM281000 17004KT
                       5SM -RA BKN025 FM281600 15004KT 4SM -RA
                       BKN007=
201812271908 KPWT 271908Z 2719/2818 00000KT P6SM BKN003 OVC035 FM272200 16002KT
                       P6SM OVC025 FM281400 15004KT 6SM -RA BR
                       OVC015=
201812271720 TAF KPWT 271720Z 2718/2818 00000KT P6SM OVC040 FM272200 16002KT
                       P6SM OVC025 FM281400 15004KT 6SM -RA BR
                       OVC015=
201812271130 TAF KPWT 271130Z 2712/2812 00000KT P6SM BKN008 OVC015
                      TEMPO 2712/2716 00000KT 1/2SM FG OVC002 FM272000
                       16002KT P6SM OVC015=
201812270911 KPWT 270911Z 2709/2806 00000KT P6SM BKN030 OVC035
                      TEMPO 2709/2712 3SM BR OVC010 FM272000 16002KT
                       P6SM OVC007=
201812270537 TAF KPWT 270537Z 2706/2806 00000KT 3SM BR BKN015
                      TEMPO 2706/2710 1SM BR OVC010 FM271000 00000KT
                       3SM BR OVC004 FM272000 00000KT P6SM OVC007=
201812270403 KPWT 270403Z 2704/2724 00000KT 4SM BR SCT010 SCT040
                      TEMPO 2704/2706 1 1/2SM BR FM270600 00000KT
                       4SM BR BKN007 BKN040 FM271400 00000KT 3SM
                       BR OVC004 FM272100 17002KT P6SM OVC007=
201812270301 KPWT 270301Z 2703/2724 00000KT P6SM SCT010 BKN040
                      TEMPO 2703/2706 5SM -SHRA BR BKN010 OVC040
                       FM270600 00000KT P6SM BKN007 BKN040 FM271400
                       00000KT 3SM BR OVC004 FM272100 17002KT P6SM
                       OVC007=
201812262320 TAF KPWT 262320Z 2700/2724 24003KT P6SM VCSH OVC004 FM271400 00000KT
                       3SM BR OVC004 FM272100 17002KT P6SM OVC007=
201812262228 KPWT 262228Z 2622/2718 24004KT P6SM VCSH OVC006 FM271400 00000KT
                       5SM BR OVC004=
201812261729 TAF KPWT 261729Z 2618/2718 20006KT 4SM -RA BR OVC015
                      TEMPO 2618/2620 2SM -RA OVC008 FM262000 18008KT
                       P6SM VCSH OVC015 FM270600 VRB05KT P6SM VCSH
                       OVC007 FM271400 00000KT 5SM BR OVC004=
201812261444 KPWT 261444Z 2615/2712 19004KT P6SM -RA BKN027 OVC035 FM261900
                       18008KT P6SM VCSH OVC015 FM270900 VRB05KT
                       P6SM VCSH OVC010=
201812261141 TAF KPWT 261141Z 2612/2712 18005KT P6SM -RA BKN011 OVC100 FM261900
                       19006KT P6SM VCSH OVC015 FM270900 VRB05KT
                       P6SM VCSH OVC010=
201812260529 TAF KPWT 260529Z 2606/2706 00000KT 6SM BR OVC035 FM261200 17006KT
                       P6SM -RA OVC025 FM262000 20009KT P6SM VCSH
                       OVC025=
201812252320 TAF KPWT 252320Z 2600/2624 VRB03KT P6SM VCSH BKN025 OVC040 FM260300
                       17003KT P6SM OVC040 FM261400 17006KT P6SM
                       -RA OVC025 FM262000 20009KT P6SM VCSH OVC025=
201812251723 TAF KPWT 251723Z 2518/2618 VRB02KT P6SM SCT015 OVC025 FM252000
                       VRB03KT P6SM SCT035 FM260300 17003KT P6SM
                       OVC050 FM261400 17006KT P6SM -RA OVC025=
201812251141 TAF KPWT 251141Z 2512/2612 06005KT P6SM BKN016 FM252000 VRB03KT
                       P6SM SCT020 FM260300 17003KT 5SM BR OVC015=
201812250520 TAF KPWT 250520Z 2506/2606 02010KT P6SM SCT012 FM250900 02006KT
                       3SM BR BKN012 FM252000 VRB03KT P6SM SCT020=
201812242320 TAF KPWT 242320Z 2500/2524 02006KT P6SM FEW030 FM250900 02006KT
                       P6SM BKN004 FM251300 03002KT 3/4SM BR OVC003
                       FM252000 VRB03KT P6SM OVC015 FM252300 VRB03KT
                       P6SM SCT035=
201812241720 TAF KPWT 241720Z 2418/2518 04004KT 4SM BR BKN002 BKN010 FM242100
                       02006KT P6SM SCT035 FM250900 02006KT P6SM
                       BKN004 FM251300 03002KT 3/4SM BR OVC003=
201812241605 KPWT 241605Z 2416/2512 VRB03KT 1/2SM FG OVC003 FM241800 35004KT
                       P6SM SCT004 BKN011 OVC020 FM242100 02006KT
                       P6SM SCT035 FM250900 02006KT P6SM BKN004=
201812241138 TAF KPWT 241138Z 2412/2512 VRB03KT 3SM BR BKN003 OVC010 FM241700
                       35004KT P6SM SCT004 BKN011 OVC020 FM242100
                       02006KT P6SM SCT035 FM250900 02006KT P6SM
                       BKN004=
201812240520 TAF KPWT 240520Z 2406/2506 VRB03KT 3SM BR BKN003 BKN050
                      TEMPO 2406/2410 1/2SM FG VV002 FM241000 VRB03KT
                       4SM BR BKN003 OVC015 FM241700 35004KT P6SM
                       SCT020=
201812240459 KPWT 240459Z 2405/2424 VRB03KT 3SM BR BKN003 BKN050
                      TEMPO 2405/2408 1/2SM FG VV002 FM241000 VRB03KT
                       4SM BR BKN003 OVC015 FM241700 35004KT P6SM
                       SCT020=
201812240201 KPWT 240201Z 2402/2424 20005KT P6SM SCT005 OVC040
                      TEMPO 2402/2406 4SM -SHRA BR BKN005 OVC040
                       FM240600 VRB03KT 4SM BR BKN003 OVC015 FM241700
                       35004KT P6SM SCT020=
201812232329 TAF KPWT 232329Z 2400/2424 19007KT P6SM -SHRA SCT020 BKN040 BKN050
                       TEMPO 2400/2402 4SM -SHRA OVC015 FM240200
                       17006KT P6SM SCT020 BKN035 BKN050 FM241200
                       VRB03KT 4SM BR SCT003 OVC015 FM241700 35004KT
                       P6SM SCT025=
201812231906 KPWT 231906Z 2319/2418 19009KT P6SM VCSH SCT005 BKN035
                      TEMPO 2319/2322 OVC005 FM240300 17006KT P6SM
                       SCT020 BKN035 BKN050 FM241200 VRB03KT 4SM
                       BR SCT003 OVC015=
201812231726 TAF KPWT 231726Z 2318/2418 19007KT P6SM -SHRA SCT020 BKN035 BKN050
                       FM240300 17006KT P6SM SCT020 BKN035 BKN050
                       FM241200 VRB03KT 4SM BR SCT003 OVC015=
201812231138 TAF KPWT 231138Z 2312/2412 20008KT P6SM -SHRA BKN006 OVC012 FM231500
                       20008KT P6SM -SHRA SCT006 BKN012 OVC020
                       FM240300 17006KT P6SM SCT020 BKN035 BKN050=
201812230530 TAF KPWT 230530Z 2306/2406 VRB04KT P6SM -SHRA OVC020
                      TEMPO 2306/2310 5SM -SHRA BR OVC010 FM231000
                       19012G20KT 5SM -SHRA BKN008 BKN015 OVC035
                       FM231800 19008KT 5SM -SHRA BKN015 OVC035=
201812222320 TAF KPWT 222320Z 2300/2324 22004KT P6SM SCT040 OVC090 FM230800
                       19010KT 5SM -RA BR OVC015 FM231200 19012G20KT
                       5SM -SHRA BKN008 BKN015 OVC035 FM231800
                       19008KT 5SM -SHRA BKN015 OVC035=
201812221733 TAF KPWT 221733Z 2218/2318 00000KT P6SM OVC045 FM230000 18010KT
                       P6SM -RA OVC035 FM230800 19012KT 4SM -RA
                       BR OVC008 FM231200 19012G20KT 5SM -SHRA
                       BKN008 OVC015=
201812221618 KPWT 221618Z 2216/2312 23003KT P6SM BKN035 OVC045 FM230000 14008KT
                       P6SM -RA OVC035 FM230800 14008KT P6SM -RA
                       BKN020 OVC035=
201812221505 KPWT 221505Z 2215/2312 VRB03KT P6SM BKN003 OVC040 FM221700 VRB03KT
                       P6SM SCT010 BKN040 OVC100 FM230000 14008KT
                       P6SM -RA OVC035 FM230800 14008KT P6SM -RA
                       BKN020 OVC035=
201812221140 TAF KPWT 221140Z 2212/2312 VRB03KT P6SM -RA BKN035 OVC060 FM221700
                       VRB03KT P6SM SCT035 BKN060 OVC100 FM230000
                       14008KT P6SM -RA OVC035 FM230800 14008KT
                       P6SM -RA BKN020 OVC035=
201812220520 TAF KPWT 220520Z 2206/2306 00000KT P6SM SCT020 BKN050 OVC120 FM230000
                       13005KT P6SM -RA OVC040=
201812220115 KPWT 220115Z 2201/2224 00000KT P6SM SCT012 BKN120 OVC200
                      TEMPO 2201/2205 BKN012 OVC120 FM220800 17003KT
                       P6SM SCT015 BKN050 OVC120 FM221700 18004KT
                       P6SM -RA SCT025 OVC040=
201812212320 TAF KPWT 212320Z 2200/2224 17003KT P6SM OVC200 FM220400 17003KT
                       P6SM OVC050 FM221700 18004KT P6SM -RA SCT025
                       OVC040=
201812211734 TAF KPWT 211734Z 2118/2218 18004KT P6SM FEW090 BKN250 FM212000
                       18004KT P6SM SCT050 SCT250 FM220900 18005KT
                       P6SM -RA OVC040 FM221700 20006KT P6SM SCT040
                       BKN100=
201812211137 TAF KPWT 211137Z 2112/2212 16006KT P6SM SCT050 FM212000 16006KT
                       P6SM SCT050 BKN120 OVC200 FM220700 13006KT
                       P6SM -RA OVC040=
201812210520 TAF KPWT 210520Z 2106/2206 20012G20KT P6SM SCT050 FM211000 20012KT
                       P6SM SCT025 BKN040 FM212000 18008KT P6SM
                       BKN050 OVC120=
201812202330 TAF KPWT 202330Z 2100/2124 20017G25KT P6SM -SHRA SCT020 BKN025
                       OVC035 FM210700 19010KT P6SM -SHRA SCT025
                       BKN040 FM211200 17006KT P6SM SCT015 BKN040=
201812202115 KPWT 202115Z 2021/2118 20026G37KT P6SM FEW024 BKN035 BKN050 FM210200
                       19010KT P6SM SCT025 BKN040 FM211200 19008KT
                       P6SM OVC015=
201812201734 TAF KPWT 201734Z 2018/2118 19010KT 5SM RA BR OVC030 WS020/18050KT
                       FM202000 19030G44KT P6SM -SHRA SCT008 BKN015
                       OVC030 FM210000 19022G32KT P6SM SCT025 BKN040
                       FM210600 19010KT P6SM SCT025 BKN040 FM211200
                       19008KT P6SM OVC015=
201812201452 KPWT 201452Z 2015/2112 19010KT 5SM RA BR OVC030 WS020/18050KT FM201900
                       19025G35KT P6SM -SHRA SCT008 BKN015 OVC030
                       FM210200 19015G25KT P6SM SCT025 BKN040 FM210600
                       19010KT P6SM SCT025 BKN040=
201812201142 TAF KPWT 201142Z 2012/2112 19008KT 4SM -RA SCT002 OVC015
                      TEMPO 2012/2015 1SM -RA BKN002 OVC015 FM201500
                       19014KT 4SM RA BR SCT004 OVC012 WS020/18050KT
                       FM202100 19025G35KT P6SM -SHRA SCT008 BKN015
                       OVC030 FM210200 19015G25KT P6SM SCT025 BKN040
                       FM210600 19010KT P6SM SCT025 BKN040=
201812201057 KPWT 201057Z 2011/2106 19008KT 4SM -RA SCT002 OVC015
                      TEMPO 2011/2015 1SM -RA BKN002 OVC015 FM201500
                       19012KT 4SM RA BR SCT004 OVC012 WS020/18050KT
                       FM202200 20025G35KT 4SM RA BR OVC008 FM210200
                       20016G26KT P6SM -SHRA SCT010 BKN020 BKN040=
201812200520 TAF KPWT 200520Z 2006/2106 05006KT 6SM -RA BR OVC035 FM200900 19008KT
                       5SM RA BR OVC012 WS020/18045KT FM201500
                       19012KT 5SM RA BR OVC012 WS020/18050KT FM202200
                       20030G48KT 4SM RA BR OVC008=
201812192346 TAF KPWT 192346Z 2000/2024 25003KT P6SM BKN100 FM200400 05006KT
                       6SM -RA BR SCT025 OVC050 FM200900 19008KT
                       5SM RA BR OVC012 WS020/18045KT FM201500
                       19012KT 5SM RA BR OVC012 WS020/18050KT FM202200
                       20030G48KT 4SM RA BR OVC008=
201812191727 TAF KPWT 191727Z 1918/2018 18006KT P6SM SCT020 SCT050 BKN180
                      TEMPO 1918/1920 6SM -SHRA BR BKN020 OVC050
                       FM192300 13005KT P6SM BKN090 OVC150 FM200200
                       05006KT 6SM -RA BR SCT025 OVC050 FM200600
                       19008KT 5SM RA BR OVC012 WS020/18040KT=
201812191131 TAF KPWT 191131Z 1912/2012 19009KT P6SM VCSH SCT015 BKN040
                      TEMPO 1912/1916 -SHRA BKN012 OVC030 FM191800
                       19008KT P6SM SCT025 OVC070 FM192300 VRB05KT
                       P6SM VCSH BKN050 OVC120 FM200200 05006KT
                       6SM -RA BR OVC025 FM201000 19008KT 5SM RA
                       BR OVC012 WS020/18040KT=
201812190844 KPWT 190844Z 1909/2006 22010KT P6SM VCSH SCT025 BKN050
                      TEMPO 1909/1913 BKN020 FM191500 19012G20KT
                       P6SM SCT025 OVC070 FM192300 07005KT P6SM
                       VCSH BKN050 OVC120 FM200200 04004KT 6SM
                       -RA BR OVC015=
201812190531 TAF KPWT 190531Z 1906/2006 22010KT P6SM VCSH BKN010 BKN045 FM190800
                       20012G19KT P6SM VCSH OVC008 FM191500 19012G20KT
                       P6SM SCT025 OVC070 FM192300 07005KT P6SM
                       VCSH OVC050 FM200200 04004KT 6SM -RA BR
                       OVC015=
201812190404 KPWT 190404Z 1904/1924 23013KT P6SM VCSH OVC008 FM191500 19008KT
                       P6SM SCT025 BKN050 FM192100 19011KT P6SM
                       -RA BKN025 OVC050=
201812182327 KPWT 182327Z 1823/1924 21013G23KT P6SM SCT020 SCT070 BKN150
                      TEMPO 1823/1903 -SHRA BKN020 BKN070 FM190400
                       20010KT P6SM SCT015 BKN030 OVC050 FM190900
                       19008KT P6SM SCT025 BKN050=
201812182320 TAF KPWT 182320Z 1900/1924 20013G21KT P6SM FEW008 SCT015 OVC030
                       TEMPO 1900/1903 -SHRA SCT008 OVC015 FM190400
                       20010KT P6SM SCT015 BKN030 OVC050 FM190900
                       19008KT P6SM SCT025 BKN050 FM192300 VRB05KT
                       P6SM -RA FEW030 OVC050=
201812181728 TAF KPWT 181728Z 1818/1918 20015G23KT P6SM SCT010 BKN100
                      TEMPO 1818/1822 -SHRA BKN010 OVC050 FM182200
                       19018G28KT P6SM SCT020 BKN090
                      TEMPO 1822/1902 -SHRA BKN020 OVC050 FM190400
                       20010KT P6SM FEW020 BKN200=
201812181140 TAF KPWT 181140Z 1812/1912 19011KT P6SM -RA SCT009 BKN015 OVC040
                       WS020/17040KT
                      TEMPO 1812/1816 5SM RA BR OVC008 FM181600
                       18011KT 6SM -RA BR OVC009 FM182000 19015G24KT
                       P6SM -RA BKN014 BKN030 FM190100 19022G29KT
                       6SM -SHRA BR BKN020 BKN035 FM190600 20010G18KT
                       P6SM VCSH BKN015 BKN030=
201812180845 KPWT 180845Z 1809/1906 19011KT 5SM RA BR OVC009 WS020/17040KT FM181600
                       18010KT 5SM -RA BR OVC009 FM182000 19015G24KT
                       5SM -RA OVC009 FM190200 19022G29KT 6SM -SHRA
                       BR BKN012 BKN025 FM190500 20014G21KT 5SM
                       -SHRA OVC009=
201812180526 TAF KPWT 180526Z 1806/1906 20010G19KT P6SM -RA OVC014 WS020/17040KT
                       FM180800 19013G22KT 5SM RA BR OVC015 WS020/17040KT
                       FM181000 18013G20KT 5SM RA BR OVC009 WS020/17040KT
                       FM181600 18016G23KT 2SM -SHRA OVC009 FM182000
                       19020G28KT 5SM -SHRA OVC009 FM190200 19022G29KT
                       5SM -SHRA OVC004 FM190500 20014G21KT 5SM
                       -SHRA OVC009=
201812172320 TAF KPWT 172320Z 1800/1824 20012G18KT P6SM -RA FEW025 BKN045 OVC080
                       FM180400 19015G23KT 5SM RA BR SCT012 OVC025
                       WS020/17040KT FM180700 19011G18KT 5SM RA
                       BR BKN008 OVC020 FM181600 19010KT P6SM -SHRA
                       BKN013 OVC030 FM182000 20015G23KT P6SM -SHRA
                       BKN020 OVC050=
201812171723 TAF KPWT 171723Z 1718/1818 19010KT P6SM SCT010 BKN035 OVC050 FM172200
                       19012G20KT P6SM -RA SCT012 OVC045 FM180400
                       19015G23KT 5SM RA BR SCT012 OVC025 WS020/17040KT
                       FM180700 19011G18KT 5SM RA BR BKN008 OVC020
                       FM181600 19016G25KT P6SM -SHRA BKN013 OVC030=
201812171140 TAF KPWT 171140Z 1712/1812 19010KT P6SM VCSH BKN035 BKN050 FM171800
                       19011KT P6SM SCT030 BKN050 FM172200 19012G20KT
                       P6SM -RA SCT022 OVC045 FM180200 19015G23KT
                       5SM RA BR BKN012 OVC025 WS020/17040KT FM180700
                       19011G18KT 5SM RA BR BKN008 OVC020=
201812170533 TAF KPWT 170533Z 1706/1806 21012KT P6SM VCSH SCT045 OVC080 FM170800
                       19011G18KT P6SM VCSH OVC015 FM171600 19014G20KT
                       P6SM BKN030 FM172000 19016G23KT P6SM VCSH
                       SCT030 OVC060 FM180000 19015G23KT P6SM -RA
                       OVC009=
201812170416 KPWT 170416Z 1704/1724 20013G20KT P6SM -RA OVC008 FM170600 19008KT
                       P6SM VCSH BKN014 OVC030 FM171800 19010KT
                       P6SM SCT025 BKN060 FM172200 19012KT P6SM
                       -RA SCT025 OVC050=
201812170003 KPWT 170003Z 1700/1724 19005KT P6SM -RA SCT007 SCT030 OVC080
                      TEMPO 1700/1704 2SM -RA BR BKN007 OVC030
                       FM170600 19008KT P6SM VCSH BKN014 OVC030
                       FM171800 19010KT P6SM SCT025 BKN060 FM172200
                       19012KT P6SM -RA SCT025 OVC050=
201812162323 TAF KPWT 162323Z 1700/1724 20004KT 5SM -RA BR SCT007 BKN013 OVC023
                       TEMPO 1700/1704 2SM -RA BR BKN007 OVC013
                       FM170600 19008KT P6SM VCSH BKN014 OVC030
                       FM171800 19010KT P6SM SCT025 BKN060 FM172200
                       19012KT P6SM -RA SCT025 OVC050=
201812161722 TAF KPWT 161722Z 1618/1718 19004KT P6SM -RA BKN045 OVC090 FM162300
                       19007G15KT 5SM RA BR BKN012 OVC025 FM170600
                       19008KT P6SM VCSH BKN014 BKN030=
201812161135 TAF KPWT 161135Z 1612/1712 VRB05KT 6SM -RA BR OVC035 FM161800 18008KT
                       6SM RA BR OVC030 FM162300 19007G15KT 5SM
                       RA BR OVC012 FM170600 19008KT P6SM VCSH
                       BKN014 BKN030=
201812160524 TAF KPWT 160524Z 1606/1706 19003KT P6SM -RA OVC050 FM161100 18008G16KT
                       P6SM -RA OVC035 FM162300 19007G15KT P6SM
                       -RA OVC009=
201812152325 TAF KPWT 152325Z 1600/1624 03004KT P6SM FEW050 OVC090 FM160400
                       VRB03KT P6SM -RA SCT010 OVC050 FM161200
                       19006KT P6SM -RA BKN010 OVC030=
201812151722 TAF KPWT 151722Z 1518/1618 16004KT P6SM FEW020 BKN070 OVC120 FM152000
                       04005KT P6SM BKN060 OVC100 FM160300 VRB03KT
                       P6SM -RA SCT010 OVC060 FM161200 19006KT
                       P6SM -RA BKN010 OVC030=
201812151120 TAF KPWT 151120Z 1512/1612 20006KT P6SM SCT020 BKN050 BKN100
                      TEMPO 1512/1516 -SHRA SCT015 BKN025 OVC035
                       FM151800 18005KT P6SM BKN100 FM160200 18007KT
                       P6SM BKN060 OVC100 FM160500 VRB03KT 5SM
                       -RA BR BKN010 OVC030=
201812150529 TAF KPWT 150529Z 1506/1606 21013G23KT P6SM VCSH SCT025 BKN060 BKN100
                       FM150800 20011KT P6SM VCSH SCT020 BKN060
                       BKN100 FM151000 20006KT P6SM BKN050 BKN100
                       FM151800 18005KT P6SM BKN100 FM160200 18007KT
                       P6SM BKN060 OVC100=
201812150415 KPWT 150415Z 1504/1524 21017G30KT P6SM VCSH SCT025 BKN070 BKN100
                       FM150500 20012G18KT P6SM VCSH SCT020 BKN060
                       BKN100 FM151000 20006KT P6SM BKN020 OVC030
                       FM151400 20004KT P6SM SCT018 BKN050 BKN100
                       FM151900 18005KT P6SM BKN100=
201812150323 KPWT 150323Z 1503/1524 20022G32KT P6SM -RA BKN015 OVC025 FM150500
                       20012G18KT P6SM VCSH SCT020 OVC040 FM150800
                       20006KT P6SM BKN020 OVC030 FM151400 20004KT
                       P6SM SCT018 BKN050 BKN100 FM151900 18005KT
                       P6SM BKN100=
201812142340 TAF KPWT 142340Z 1500/1524 20012G22KT P6SM -RA SCT030 BKN050 OVC100
                       FM150500 20012G18KT P6SM VCSH SCT020 OVC040
                       FM150800 20006KT P6SM BKN020 OVC030 FM151400
                       20004KT P6SM SCT018 BKN050 BKN100 FM151900
                       18005KT P6SM BKN100=
201812142108 KPWT 142108Z 1421/1518 VRB04KT P6SM BKN100 FM142300 19021G30KT
                       P6SM -RA SCT007 BKN015 OVC050 FM150500 20012KT
                       P6SM VCSH OVC015 FM150900 20006KT P6SM OVC010
                       FM151400 19003KT P6SM SCT012 BKN100=
201812141737 TAF KPWT 141737Z 1418/1518 VRB04KT P6SM SCT030 BKN100 WS020/18030KT
                       FM142100 20012G22KT P6SM -RA BKN030 OVC070
                       FM142300 19021G30KT P6SM -RA SCT007 BKN015
                       OVC050 FM150500 20012KT P6SM VCSH OVC015
                       FM150900 20006KT P6SM OVC010 FM151400 19003KT
                       P6SM SCT012 BKN100=
201812141123 TAF KPWT 141123Z 1412/1512 VRB06KT P6SM SCT045 BKN100 FM141500
                       19005KT P6SM SCT005 BKN080 WS020/18030KT
                       FM141900 20010G18KT P6SM -RA BKN030 OVC050
                       FM142300 19021G30KT P6SM -RA OVC007 FM150500
                       20012KT P6SM BKN007 OVC010 FM150900 VRB03KT
                       P6SM OVC010=
201812140530 TAF KPWT 140530Z 1406/1506 VRB06KT P6SM VCSH OVC045 FM141500 19005KT
                       P6SM SCT005 BKN080 WS020/18030KT FM141900
                       20010G18KT P6SM -RA BKN030 OVC050 FM142300
                       19018G26KT P6SM -RA OVC007=
201812132344 TAF KPWT 132344Z 1400/1424 22008KT P6SM -RA OVC022 WS020/18025KT
                       FM140400 19010KT P6SM VCSH SCT007 OVC030
                       FM140700 20010KT 6SM BR VCSH BKN007 BKN100
                       FM141500 19005KT P6SM VCSH SCT005 BKN080
                       WS020/18030KT FM141800 20010G18KT P6SM -RA
                       BKN030 OVC050=
201812131748 TAF KPWT 131748Z 1318/1418 22007KT P6SM -SHRA OVC022 WS020/18025KT
                       TEMPO 1318/1320 2SM -RA BR FM140300 19010KT
                       P6SM SCT007 OVC030 FM140600 20010KT 6SM
                       BR BKN007 BKN100 FM141400 19005KT P6SM VCSH
                       SCT005 BKN080=
201812131120 TAF KPWT 131120Z 1312/1412 20014G21KT P6SM -RA OVC006 WS020/18025KT
                       FM131400 20015G25KT P6SM -SHRA BKN007 OVC012
                       WS020/18025KT FM140300 19013KT P6SM OVC015
                       FM140600 19005KT 4SM BR OVC003=
201812130528 TAF KPWT 130528Z 1306/1406 20014G21KT P6SM -RA OVC006 WS020/18025KT
                       FM131400 20015G25KT P6SM -SHRA BKN007 OVC012
                       WS020/18025KT FM140300 19013KT P6SM OVC015=
201812130406 KPWT 130406Z 1304/1324 20014G21KT P6SM -RA OVC006 WS020/18025KT
                       FM131400 20015G25KT P6SM -SHRA BKN007 OVC012
                       WS020/18025KT=
201812122327 TAF KPWT 122327Z 1300/1324 18007KT P6SM VCSH SCT015 OVC025
                      TEMPO 1300/1302 -SHRA BKN015 FM130200 19010G15KT
                       P6SM -RA BKN015 WS020/18025KT FM131400 20015G25KT
                       P6SM -SHRA BKN007 OVC012 WS020/18025KT=
201812122034 KPWT 122034Z 1221/1318 19008KT P6SM VCSH BKN025
                      TEMPO 1221/1223 -SHRA SCT009 FM122300 18010G18KT
                       6SM -RA BR FEW020 OVC030 FM130400 20015G22KT
                       5SM -RA BR OVC015 WS020/18025KT FM131400
                       20015G25KT P6SM -SHRA BKN007 OVC012=
201812121731 TAF KPWT 121731Z 1218/1318 20006KT P6SM VCSH SCT030 BKN060 FM122300
                       18010G18KT 6SM -RA BR FEW020 OVC030 FM130400
                       20015G22KT 5SM -RA BR OVC015 WS020/18025KT
                       FM131400 20015G25KT P6SM -SHRA BKN007 OVC012=
201812121131 TAF KPWT 121131Z 1212/1312 20006KT P6SM VCSH SCT035 BKN070 FM121700
                       19010KT P6SM BKN070 OVC200 FM122300 18012G20KT
                       6SM -RA BR OVC030 FM130600 19015G22KT 5SM
                       -RA BR OVC015=
201812120522 TAF KPWT 120522Z 1206/1306 22006KT P6SM VCSH SCT050 BKN100 FM121600
                       19010G15KT P6SM OVC050 FM122000 19016G22KT
                       P6SM VCSH BKN030 FM122300 19017G25KT 6SM
                       -RA BR OVC030=
201812120204 KPWT 120204Z 1202/1224 22012KT P6SM -SHRA SCT050 BKN100 FM121600
                       19010G15KT P6SM SCT012 OVC020 FM122000 19016G22KT
                       P6SM VCSH BKN030=
201812112337 TAF KPWT 112337Z 1200/1224 20016G25KT 6SM -RA BR OVC004 FM120200
                       19017G27KT P6SM -SHRA BKN005 OVC012 FM121100
                       20012G20KT P6SM VCSH BKN010 OVC025 FM121600
                       19010G15KT P6SM SCT012 OVC020 FM122000 19016G22KT
                       P6SM VCSH BKN030=
201812111746 TAF KPWT 111746Z 1118/1218 20016G25KT 6SM -RA BR OVC005 WS020/18030KT
                       FM112000 18019G28KT 5SM RA OVC003 WS020/18030KT
                       TEMPO 1120/1124 2SM BR FM120200 19017G27KT
                       P6SM -SHRA BKN005 BKN012 FM121100 20012G20KT
                       P6SM VCSH BKN015 FM121600 19008G15KT P6SM
                       OVC020=
201812111120 TAF KPWT 111120Z 1112/1212 19011KT 6SM -RA BR OVC007 FM111500 18012KT
                       5SM -RA BR BKN007 OVC018 WS020/18040KT FM112000
                       18015G25KT 5SM RA BR OVC010 FM120300 20017G27KT
                       P6SM -SHRA BKN020 OVC040 FM120800 19015G25KT
                       P6SM VCSH BKN030 BKN050=
201812110815 KPWT 110815Z 1108/1206 18010KT P6SM -RA SCT007 BKN015 OVC040
                      TEMPO 1108/1112 5SM RA BR BKN006 OVC012 FM111200
                       19012KT 5SM -RA BR OVC007 FM111500 18012KT
                       5SM -RA BR BKN010 OVC025 FM112200 18015G25KT
                       P6SM -RA BKN025 BKN050=
201812110814 KPWT 110814Z 1108/1206 18010KT P6SM -RA BKN005 OVC040 FM111500
                       18012KT 5SM -RA BR BKN010 OVC025 FM112200
                       18015G25KT P6SM -RA BKN025 BKN050=
201812110520 TAF KPWT 110520Z 1106/1206 20010KT P6SM BKN005 OVC045 FM110800
                       18010KT P6SM -RA BKN005 OVC040 FM111500
                       18012KT 5SM -RA BR BKN010 OVC025 FM112200
                       18015G25KT P6SM -RA BKN025 BKN050=
201812102320 TAF KPWT 102320Z 1100/1124 20009KT P6SM SCT010 SCT050 BKN200
                      TEMPO 1100/1102 BKN010 BKN050 OVC200 FM110500
                       20010KT P6SM BKN040 OVC120 FM111000 18010KT
                       P6SM -RA SCT010 OVC040 FM111500 18012KT
                       5SM -RA BR BKN010 OVC025 FM112200 18015G25KT
                       P6SM -SHRA BKN025 BKN050=
201812102013 KPWT 102013Z 1020/1118 21010KT P6SM SCT008 BKN050
                      TEMPO 1020/1022 BKN008 BKN050 FM102200 18008KT
                       P6SM SCT015 BKN050 BKN120 FM111000 15010KT
                       P6SM -RA SCT010 OVC040 FM111500 16012KT
                       5SM -RA BR BKN010 OVC025=
201812101929 KPWT 101929Z 1019/1118 21010KT P6SM SCT005 BKN050 FM102100 18008KT
                       P6SM BKN050 BKN120 FM111000 15010KT P6SM
                       -RA OVC040 FM111500 16012KT 5SM -RA BR OVC025=
201812101720 TAF KPWT 101720Z 1018/1118 21007KT P6SM OVC003 FM102000 21007KT
                       P6SM SCT005 BKN025 BKN050 FM102200 18008KT
                       P6SM SCT030 BKN050 BKN120 FM111000 15010KT
                       P6SM -RA OVC040 FM111500 16012KT 5SM -RA
                       BR OVC025=
201812101622 KPWT 101622Z 1016/1112 21007KT 3SM BR BKN005 BKN050
                      TEMPO 1016/1018 1/2SM FG OVC003 FM101800
                       19008KT P6SM SCT010 BKN030 BKN050 FM110000
                       19006KT P6SM SCT030 BKN050 BKN120 FM111000
                       19010KT P6SM -RA OVC025=
201812101127 TAF KPWT 101127Z 1012/1112 19010KT 5SM BR VCSH BKN004 BKN015
                      TEMPO 1014/1018 P6SM NSW SCT006 BKN017 FM101800
                       19009KT P6SM SCT009 BKN020 OVC035 FM102100
                       19006KT P6SM SCT015 BKN025 OVC050 FM110000
                       19006KT P6SM SCT030 BKN050 BKN120 FM111000
                       19010KT P6SM -RA OVC025=
201812100538 TAF KPWT 100538Z 1006/1106 19010KT P6SM OVC003 FM101100 19010KT
                       P6SM SCT003 BKN009 OVC015 FM101500 19006KT
                       P6SM SCT009 BKN015 OVC025 FM102100 19006KT
                       P6SM SCT015 BKN025 OVC050 FM110000 19006KT
                       P6SM SCT030 BKN050 BKN120=
201812092327 TAF KPWT 092327Z 1000/1024 00000KT 5SM -RA BR SCT003 OVC010
                      TEMPO 1000/1004 2SM -RA BR BKN003 OVC010
                       FM100500 18008KT 6SM BR VCSH BKN005 OVC012
                       FM102000 19006KT P6SM BKN015 BKN100=
201812092245 KPWT 092245Z 0923/1018 20005KT 6SM -RA BR OVC005 FM100500 18008KT
                       6SM BR VCSH BKN005 OVC012=
201812091722 TAF KPWT 091722Z 0918/1018 00000KT 2SM -RA BR SCT010 OVC040 FM092000
                       18007KT 6SM -RA BR OVC025 FM100000 19006KT
                       5SM -RA BR BKN007 OVC015 FM100500 18008KT
                       6SM BR VCSH BKN005 OVC012=
201812091129 TAF KPWT 091129Z 0912/1012 VRB05KT P6SM BKN050 OVC200 FM091600
                       15006KT P6SM -RA OVC040 FM092000 18007KT
                       6SM -RA BR OVC025 FM100000 19006KT 5SM -RA
                       BR OVC015 FM100500 18008KT 6SM BR VCSH SCT009
                       BKN018 OVC040=
201812090548 TAF KPWT 090548Z 0906/1006 VRB03KT P6SM BKN050 OVC200 FM091400
                       VRB03KT P6SM SCT030 OVC050 FM091700 13006KT
                       P6SM -RA OVC040 FM092200 13006KT P6SM -RA
                       OVC025 FM100500 18010KT P6SM VCSH SCT015
                       BKN025 OVC040=
201812082347 TAF KPWT 082347Z 0900/0924 12005KT P6SM FEW030 BKN050 OVC200 FM090200
                       VRB04KT P6SM SCT030 OVC050 FM090800 15006KT
                       P6SM BKN060 OVC080 FM091600 16009KT P6SM
                       -RA OVC035 FM092200 18010KT P6SM VCSH OVC030=
201812081753 TAF KPWT 081753Z 0818/0918 VRB04KT 4SM BR VCSH BKN020 OVC040
                      TEMPO 0818/0821 2SM -RA BR OVC020 FM082100
                       13006KT P6SM OVC035 FM090200 VRB03KT P6SM
                       BKN050 OVC080 FM090600 14006KT P6SM BKN060
                       OVC080 FM091500 15007KT P6SM -RA OVC030=
201812081637 KPWT 081637Z 0817/0912 VRB04KT 4SM -SHRA SCT020 OVC030
                      TEMPO 0817/0820 2SM -RA BR OVC020 FM082000
                       13006KT P6SM SCT035 BKN070 OVC120 FM090000
                       11006KT P6SM SCT070 BKN120 OVC200 FM090500
                       VRB03KT 6SM BR SCT005 OVC040=
201812081120 TAF KPWT 081120Z 0812/0912 VRB03KT P6SM -RA OVC030 FM081400 13006KT
                       P6SM -SHRA SCT015 OVC030 FM081700 13006KT
                       P6SM SCT020 OVC040 FM082000 13006KT P6SM
                       SCT045 BKN070 OVC120 FM090000 11006KT P6SM
                       SCT070 BKN120 OVC200 FM090500 VRB03KT 6SM
                       BR SCT005 OVC040=
201812080535 TAF KPWT 080535Z 0806/0906 VRB03KT P6SM BKN045 OVC080 FM080900
                       VRB03KT P6SM -RA SCT025 OVC040 FM081400
                       13006KT P6SM -SHRA SCT025 OVC040 FM081700
                       13006KT P6SM SCT030 OVC045 FM082000 13006KT
                       P6SM SCT045 BKN070 OVC120 FM090000 11006KT
                       P6SM SCT070 BKN120 OVC200=
201812072346 TAF KPWT 072346Z 0800/0824 VRB04KT P6SM SCT100 BKN200 FM080500
                       VRB04KT P6SM BKN080 OVC150 FM080900 15005KT
                       P6SM -RA SCT025 OVC050 FM081100 18006KT
                       4SM -RA BR OVC020 FM081400 19007KT P6SM
                       -SHRA BKN025 OVC040 FM081700 18006KT P6SM
                       SCT030 OVC045=
201812071747 TAF KPWT 071747Z 0718/0818 VRB04KT P6SM SCT200 FM072100 VRB04KT
                       P6SM SCT100 BKN200 FM080500 VRB04KT P6SM
                       BKN080 OVC150 FM080800 15005KT P6SM -RA
                       SCT025 OVC050 FM081000 18006KT 4SM -RA BR
                       OVC020 FM081300 19007KT P6SM -SHRA BKN025
                       OVC040 FM081700 18006KT P6SM SCT030 OVC045=
201812071120 TAF KPWT 071120Z 0712/0812 00000KT P6SM SKC FM071800 12006KT P6SM
                       SCT200 FM072100 12006KT P6SM SCT100 BKN200
                       FM080500 12006KT P6SM BKN080 OVC150 FM080800
                       19004KT P6SM -RA OVC020=
201812070540 TAF KPWT 070540Z 0706/0806 00000KT P6SM SKC FM071800 12006KT P6SM
                       SCT200 FM072100 12006KT P6SM SCT100 BKN200
                       FM080500 12006KT P6SM BKN080 OVC150=
201812062344 TAF KPWT 062344Z 0700/0724 03005KT P6SM SKC=
201812061736 TAF KPWT 061736Z 0618/0718 VRB03KT P6SM SKC=
201812061120 TAF KPWT 061120Z 0612/0712 04005KT P6SM SKC=
201812060540 TAF KPWT 060540Z 0606/0706 04008KT P6SM SKC=
201812052334 TAF KPWT 052334Z 0600/0624 04009KT P6SM SKC FM060900 03004KT 6SM
                       BR BCFG FEW001 FM061100 03003KT 2SM BR BKN001
                       TEMPO 0613/0617 1/4SM FG VV001 FM061800
                       03005KT P6SM SKC=
201812051742 TAF KPWT 051742Z 0518/0618 04007KT P6SM SKC FM060900 03004KT 6SM
                       BR BCFG FEW001 FM061100 03003KT 2SM BR BKN001
                       TEMPO 0613/0617 1/4SM FG VV001=
201812051134 TAF KPWT 051134Z 0512/0612 04007KT P6SM SKC FM060900 03004KT 6SM
                       BR BCFG FEW001=
201812050520 TAF KPWT 050520Z 0506/0606 03008KT P6SM SKC=
201812042332 TAF KPWT 042332Z 0500/0524 03009KT P6SM SKC=
201812041734 TAF KPWT 041734Z 0418/0518 04005KT P6SM SKC FM051700 02001KT 6SM
                       BR SKC=
201812041123 TAF KPWT 041123Z 0412/0512 VRB03KT P6SM SKC FM041700 03007KT P6SM
                       SKC FM050900 03004KT P6SM BCFG FEW001=
201812040520 TAF KPWT 040520Z 0406/0506 03006KT P6SM SKC FM041100 02004KT 2SM
                       BR BKN005 FM041700 03006KT P6SM SKC=
201812032320 TAF KPWT 032320Z 0400/0424 03009KT P6SM SKC FM041100 02004KT 2SM
                       BR BKN005 FM041600 03006KT P6SM SKC=
201812031803 KPWT 031803Z 0318/0418 04008KT 6SM BR BKN004 FM031900 04008KT P6SM
                       BKN007 FM032000 04005KT P6SM SKC FM040900
                       04005KT 1/2SM FG VV002 FM041700 00000KT
                       4SM BR SKC=
201812031720 TAF KPWT 031720Z 0318/0418 04008KT 3SM BR OVC002 FM031900 04008KT
                       P6SM BKN007 FM032000 04005KT P6SM SKC FM040900
                       04005KT 1/2SM FG VV002 FM041700 00000KT
                       4SM BR SKC=
201812031122 TAF KPWT 031122Z 0312/0412 00000KT 5SM BR SCT005 BKN025
                      TEMPO 0312/0316 2SM BR BKN005 OVC020 FM031800
                       02005KT P6SM SCT018 FM032000 02007KT P6SM
                       SKC FM040600 03006KT P6SM SKC=
201812030530 TAF KPWT 030530Z 0306/0406 00000KT 2SM BR OVC060 FM031800 02005KT
                       P6SM SCT018 FM032000 02007KT P6SM SKC=
201812030132 KPWT 030132Z 0302/0324 00000KT 1SM BR SCT040
                      TEMPO 0302/0306 OVC007 FM030600 07002KT 1/2SM
                       FG OVC004 FM031800 02005KT P6SM OVC004 FM032000
                       02007KT P6SM SKC=
201812022330 TAF KPWT 022330Z 0300/0324 00000KT P6SM OVC060 FM030300 00000KT
                       4SM BR OVC007 FM030600 07002KT 1/2SM FG
                       OVC004 FM031800 02005KT P6SM OVC004 FM032000
                       02007KT P6SM SKC=
201812021735 TAF KPWT 021735Z 0218/0318 00000KT P6SM VCSH FEW004 OVC015 FM022000
                       00000KT P6SM BKN025 FM022300 00000KT P6SM
                       BKN040 FM030600 00000KT 5SM BR BKN015 FM031300
                       03002KT P6SM OVC004=
201812021122 TAF KPWT 021122Z 0212/0312 VRB03KT 4SM BR OVC020 FM021700 VRB03KT
                       P6SM OVC025 FM022000 VRB03KT P6SM BKN030
                       FM022300 VRB03KT P6SM BKN035 FM030400 00000KT
                       4SM BR OVC010=
201812020522 TAF KPWT 020522Z 0206/0306 VRB03KT P6SM VCSH BKN025 BKN040 OVC060
                       TEMPO 0206/0210 -SHRA BKN020 FM021000 VRB03KT
                       P6SM OVC014 FM021700 03003KT P6SM OVC022
                       FM022000 04005KT P6SM BKN030=
201812012329 TAF KPWT 012329Z 0200/0224 00000KT P6SM -SHRA SCT023 BKN029 OVC035
                       FM020500 00000KT P6SM OVC019 FM021400 00000KT
                       6SM BR OVC009 FM021900 00000KT P6SM BKN019=
201812011725 TAF KPWT 011725Z 0118/0218 00000KT P6SM BKN030 FM012000 00000KT
                       P6SM BKN060 FM020100 00000KT P6SM OVC030
                       FM020400 00000KT 5SM BR OVC015=
201812011448 KPWT 011448Z 0115/0212 VRB04KT P6SM SCT025 OVC040
                      TEMPO 0115/0118 1/2SM FG VV001 FM012000 03005KT
                       P6SM BKN040 FM020200 VRB03KT 5SM BR OVC010=
201812011401 KPWT 011401Z 0114/0212 VRB03KT 3/4SM BR SCT010 OVC030 FM011500
                       VRB04KT P6SM SCT025 OVC040 FM012000 03005KT
                       P6SM BKN040 FM020200 VRB03KT 5SM BR OVC010=
201812011120 TAF KPWT 011120Z 0112/0212 VRB03KT P6SM SCT010 OVC030
                      TEMPO 0112/0115 3SM BR OVC004 FM011500 VRB04KT
                       P6SM SCT025 OVC040 FM012000 03005KT P6SM
                       BKN040 FM020200 VRB03KT 5SM BR OVC010=
201812010527 TAF KPWT 010527Z 0106/0206 17005KT P6SM -SHRA SCT009 OVC015 FM010900
                       18006KT P6SM VCSH BKN012 OVC040
                      TEMPO 0109/0112 -SHRA FM011500 VRB04KT P6SM
                       SCT025 OVC040 FM012000 03005KT P6SM BKN040=