##########################################################
# Query made at 02/16/2025 00:17:51 UTC
# Time interval: from 03/01/2019 00:00  to 03/31/2019 23:59  UTC
##########################################################

##########################################################
# KPWT, Bremerton National Automatic Weather Observing / Reporting System (United States)
# WMO index: -----. WIGOS ID: Unknown
# Latitude 47-30N. Longitude 122-45W. Altitude 147 m.
##########################################################

###################################
#  METAR/SPECI from KPWT
###################################
201903312356 METAR KPWT 312356Z AUTO 05008KT 10SM CLR 19/02 A3014 RMK AO2 SLP227 T01890017 10194 20128 56021=
201903312256 METAR KPWT 312256Z AUTO 04006KT 10SM CLR 18/02 A3016 RMK AO2 SLP233 T01830017=
201903312156 METAR KPWT 312156Z AUTO 05007KT 10SM CLR 18/04 A3018 RMK AO2 SLP241 T01830039=
201903312056 METAR KPWT 312056Z AUTO 08008KT 10SM CLR 18/05 A3021 RMK AO2 SLP248 T01780050 58016=
201903311956 METAR KPWT 311956Z AUTO 07006KT 10SM CLR 16/06 A3023 RMK AO2 SLP256 T01610061=
201903311856 METAR KPWT 311856Z AUTO 06006KT 10SM CLR 14/06 A3025 RMK AO2 SLP263 T01390061=
201903311756 METAR KPWT 311756Z AUTO 05007KT 10SM CLR 12/06 A3026 RMK AO2 SLP264 T01220061 10128 20006 58009=
201903311656 METAR KPWT 311656Z AUTO 06006KT 10SM CLR 11/06 A3027 RMK AO2 SLP268 T01110056=
201903311556 METAR KPWT 311556Z AUTO 04006KT 10SM CLR 10/06 A3027 RMK AO2 SLP273 T01000056=
201903311456 METAR KPWT 311456Z AUTO 00000KT 10SM CLR 04/03 A3028 RMK AO2 SLP274 T00390033 55001=
201903311402 SPECI KPWT 311402Z AUTO 00000KT 3SM BR CLR 02/01 A3028 RMK AO2 FZRANO=
201903311359 SPECI KPWT 311359Z AUTO 00000KT 1 1/2SM BR CLR 02/01 A3028 RMK AO2 VIS 1/2V5 FZRANO=
201903311356 METAR KPWT 311356Z AUTO 00000KT 1/2SM FG CLR 01/01 A3028 RMK AO2 VIS M1/4V4 SLP273 T00110006 FZRANO=
201903311347 SPECI KPWT 311347Z AUTO 00000KT 1/4SM FG CLR 02/02 A3028 RMK AO2 FZRANO=
201903311342 SPECI KPWT 311342Z AUTO 00000KT 3/4SM BR CLR 02/02 A3027 RMK AO2 FZRANO=
201903311256 METAR KPWT 311256Z AUTO 00000KT 10SM CLR 01/01 A3028 RMK AO2 SLP273 T00110006 FZRANO=
201903311156 METAR KPWT 311156Z AUTO 00000KT 10SM CLR 03/02 A3028 RMK AO2 SLP275 T00280022 10056 20022 58005=
201903311056 METAR KPWT 311056Z AUTO 00000KT 10SM CLR 03/02 A3029 RMK AO2 SLP278 T00280022=
201903310956 METAR KPWT 310956Z AUTO 00000KT 10SM CLR 03/02 A3029 RMK AO2 SLP279 T00280017=
201903310856 METAR KPWT 310856Z AUTO 00000KT 10SM CLR 05/03 A3030 RMK AO2 SLP280 T00500028 56003=
201903310756 METAR KPWT 310756Z AUTO 00000KT 10SM CLR 04/02 A3030 RMK AO2 SLP282 T00390022 401890006=
201903310556 METAR KPWT 310556Z AUTO 00000KT 10SM CLR 06/03 A3031 RMK AO2 SLP283 T00560028 10178 20056 50004=
201903310456 METAR KPWT 310456Z AUTO 00000KT 10SM CLR 06/03 A3031 RMK AO2 SLP284 T00610028=
201903310356 METAR KPWT 310356Z AUTO 08003KT 10SM CLR 09/03 A3031 RMK AO2 SLP284 T00890028=
201903310256 METAR KPWT 310256Z AUTO 06005KT 10SM CLR 13/03 A3030 RMK AO2 SLP279 T01280033 55002=
201903310156 METAR KPWT 310156Z AUTO 05007KT 10SM CLR 16/04 A3029 RMK AO2 SLP277 T01560039=
201903310056 METAR KPWT 310056Z AUTO 04009KT 10SM CLR 17/04 A3029 RMK AO2 SLP279 T01720039=
201903302356 METAR KPWT 302356Z AUTO 04006KT 10SM CLR 18/06 A3031 RMK AO2 SLP283 T01780061 10189 20117 56020=
201903302256 METAR KPWT 302256Z AUTO 04005KT 10SM CLR 18/06 A3032 RMK AO2 SLP289 T01780061=
201903302156 METAR KPWT 302156Z AUTO 04007KT 10SM CLR 17/06 A3035 RMK AO2 SLP297 T01720056=
201903302056 METAR KPWT 302056Z AUTO 00000KT 10SM CLR 17/05 A3037 RMK AO2 SLP304 T01670050 56018=
201903301956 METAR KPWT 301956Z AUTO 00000KT 10SM CLR 16/07 A3038 RMK AO2 SLP308 T01610067=
201903301856 METAR KPWT 301856Z AUTO 00000KT 10SM CLR 16/07 A3040 RMK AO2 SLP316 T01560067=
201903301756 METAR KPWT 301756Z AUTO 00000KT 10SM CLR 12/06 A3042 RMK AO2 SLP320 T01170061 10122 20006 58004=
201903301656 METAR KPWT 301656Z AUTO 24005KT 10SM CLR 10/07 A3043 RMK AO2 SLP323 T01000067=
201903301556 METAR KPWT 301556Z AUTO 00000KT 10SM SCT001 07/06 A3043 RMK AO2 SLP326 T00670061=
201903301552 SPECI KPWT 301552Z AUTO 00000KT 10SM SCT001 07/06 A3043 RMK AO2=
201903301544 SPECI KPWT 301544Z AUTO 00000KT 3SM BR BKN001 06/06 A3043 RMK AO2=
201903301538 SPECI KPWT 301538Z AUTO 00000KT 1 1/2SM BR BKN001 06/05 A3043 RMK AO2 VIS 3/4V3=
201903301530 SPECI KPWT 301530Z AUTO 00000KT 1 1/4SM BR SCT001 05/05 A3043 RMK AO2=
201903301525 SPECI KPWT 301525Z AUTO 00000KT 3/4SM BR VV001 05/05 A3043 RMK AO2=
201903301456 METAR KPWT 301456Z AUTO 00000KT M1/4SM FG OVC001 03/03 A3043 RMK AO2 SLP326 T00330028 51005=
201903301429 SPECI KPWT 301429Z AUTO 00000KT 1/4SM FG OVC001 02/01 A3043 RMK AO2 FZRANO=
201903301420 SPECI KPWT 301420Z AUTO 00000KT 1/2SM FG OVC001 01/01 A3043 RMK AO2 FZRANO=
201903301356 METAR KPWT 301356Z AUTO 00000KT M1/4SM FG OVC001 01/01 A3043 RMK AO2 SLP324 T00110006 FZRANO=
201903301344 SPECI KPWT 301344Z AUTO 00000KT 1/4SM FG OVC001 01/01 A3043 RMK AO2 FZRANO=
201903301320 SPECI KPWT 301320Z AUTO 00000KT 1/2SM FG VV001 01/01 A3043 RMK AO2 FZRANO=
201903301312 SPECI KPWT 301312Z AUTO 00000KT 3/4SM BR VV001 01/01 A3043 RMK AO2 VIS 1/4V5 FZRANO=
201903301310 SPECI KPWT 301310Z AUTO 00000KT 1 1/4SM BR FEW001 01/01 A3043 RMK AO2 VIS 1/4V5 FZRANO=
201903301305 SPECI KPWT 301305Z AUTO 00000KT 8SM SCT001 01/01 A3043 RMK AO2 FZRANO=
201903301256 METAR KPWT 301256Z AUTO 00000KT 7SM CLR 01/01 A3042 RMK AO2 SLP322 T00110006 FZRANO=
201903301240 SPECI KPWT 301240Z AUTO 00000KT 1 3/4SM BR CLR 01/00 A3042 RMK AO2 FZRANO=
201903301222 SPECI KPWT 301222Z AUTO 00000KT 4SM BR CLR 01/01 A3042 RMK AO2 FZRANO=
201903301213 SPECI KPWT 301213Z AUTO 00000KT 1 1/2SM BR CLR 01/01 A3042 RMK AO2 VIS 1/2V5 FZRANO=
201903301202 SPECI KPWT 301202Z AUTO 00000KT 10SM CLR 01/01 A3042 RMK AO2 FZRANO=
201903301200 SPECI KPWT 301200Z AUTO 00000KT 1 1/4SM BR CLR 01/01 A3042 RMK AO2 FZRANO=
201903301156 METAR KPWT 301156Z AUTO 00000KT 3/4SM BR CLR 01/01 A3042 RMK AO2 SLP320 T00110011 10061 20006 50003 FZRANO=
201903301151 SPECI KPWT 301151Z AUTO 00000KT 3/4SM BR CLR 01/01 A3042 RMK AO2 FZRANO=
201903301148 SPECI KPWT 301148Z AUTO 00000KT 1 1/2SM BR CLR 01/01 A3042 RMK AO2 FZRANO=
201903301119 SPECI KPWT 301119Z AUTO 00000KT 7SM CLR 02/01 A3042 RMK AO2 FZRANO=
201903301117 SPECI KPWT 301117Z AUTO 00000KT 1 1/2SM BR CLR 02/02 A3042 RMK AO2 FZRANO=
201903301114 SPECI KPWT 301114Z AUTO 00000KT 3/4SM BR CLR 03/02 A3042 RMK AO2=
201903301101 SPECI KPWT 301101Z AUTO 00000KT 1/4SM FG CLR 02/01 A3042 RMK AO2 FZRANO=
201903301056 METAR KPWT 301056Z AUTO 00000KT 3/4SM BR CLR 01/01 A3042 RMK AO2 SLP319 T00110006 FZRANO=
201903301053 SPECI KPWT 301053Z AUTO 00000KT 1 1/2SM BR CLR 02/01 A3042 RMK AO2 VIS 1/2V5 FZRANO=
201903301022 SPECI KPWT 301022Z AUTO 14003KT 10SM CLR 03/03 A3042 RMK AO2=
201903301015 SPECI KPWT 301015Z AUTO 00000KT 2 1/2SM BR CLR 02/02 A3042 RMK AO2 FZRANO=
201903300956 METAR KPWT 300956Z AUTO 13003KT 10SM CLR 02/02 A3041 RMK AO2 SLP319 T00170017 FZRANO=
201903300920 SPECI KPWT 300920Z AUTO 00000KT 6SM BR CLR 03/03 A3041 RMK AO2=
201903300916 SPECI KPWT 300916Z AUTO 00000KT 1 1/2SM BR CLR 03/02 A3041 RMK AO2 VIS 1/2V5=
201903300856 METAR KPWT 300856Z AUTO 00000KT 10SM CLR 02/01 A3041 RMK AO2 SLP318 T00220011 50004 FZRANO=
201903300756 METAR KPWT 300756Z AUTO 00000KT 6SM BR CLR 02/02 A3041 RMK AO2 SLP317 T00220017 401720000 FZRANO=
201903300656 METAR KPWT 300656Z AUTO 00000KT 10SM CLR 04/03 A3041 RMK AO2 SLP316 T00390033=
201903300556 METAR KPWT 300556Z AUTO 00000KT 10SM CLR 06/04 A3040 RMK AO2 SLP313 T00610044 10156 20050=
201903300456 METAR KPWT 300456Z AUTO 00000KT 10SM CLR 06/04 A3040 RMK AO2 SLP314 T00610044=
201903300356 METAR KPWT 300356Z AUTO 22005KT 10SM CLR 06/04 A3039 RMK AO2 SLP309 T00610039=
201903300256 METAR KPWT 300256Z AUTO 00000KT 10SM CLR 09/06 RMK AO2 SLPNO T00940056 $=
201903300156 METAR KPWT 300156Z AUTO 12003KT 10SM SCT060 14/05 A3036 RMK AO2 SLP300 T01390050=
201903300056 METAR KPWT 300056Z AUTO 15004KT 10SM SCT041 SCT110 14/06 A3035 RMK AO2 SLP297 T01440061=
201903292356 METAR KPWT 292356Z AUTO 17003KT 10SM BKN045 16/06 A3034 RMK AO2 SLP293 T01560061 10172 20106 55002=
201903292256 METAR KPWT 292256Z AUTO 05003KT 10SM CLR 17/05 A3034 RMK AO2 SLP291 T01670050=
201903292156 METAR KPWT 292156Z AUTO 04006KT 10SM CLR 17/05 A3034 RMK AO2 SLP294 T01670050=
201903292056 METAR KPWT 292056Z AUTO 32003KT 10SM CLR 17/06 A3035 RMK AO2 SLP297 T01670056 50001=
201903291956 METAR KPWT 291956Z AUTO 04006KT 10SM FEW120 16/05 A3035 RMK AO2 SLP297 T01560050=
201903291856 METAR KPWT 291856Z AUTO 18004KT 10SM FEW110 13/06 A3035 RMK AO2 SLP299 T01280061=
201903291756 METAR KPWT 291756Z AUTO 14003KT 10SM FEW110 11/06 A3034 RMK AO2 SLP295 T01060061 10111 20000 53013=
201903291656 METAR KPWT 291656Z AUTO 00000KT 10SM BKN110 08/06 A3033 RMK AO2 SLP291 T00830061=
201903291556 METAR KPWT 291556Z AUTO 00000KT 10SM CLR 03/03 A3032 RMK AO2 SLP287 T00330033=
201903291505 SPECI KPWT 291505Z AUTO 00000KT 10SM CLR 01/01 A3031 RMK AO2 FZRANO=
201903291456 METAR KPWT 291456Z AUTO 00000KT 2SM BR CLR 01/01 A3031 RMK AO2 SLP281 T00110006 53016 FZRANO=
201903291451 SPECI KPWT 291451Z AUTO 00000KT 1 1/2SM BR CLR 01/01 A3030 RMK AO2 VIS 1/2V5 FZRANO=
201903291435 SPECI KPWT 291435Z AUTO 00000KT 6SM BR CLR 01/01 A3030 RMK AO2 FZRANO=
201903291433 SPECI KPWT 291433Z AUTO 00000KT 1SM BR CLR 01/00 A3030 RMK AO2 FZRANO=
201903291414 SPECI KPWT 291414Z AUTO 00000KT 1/4SM FG CLR 00/00 A3029 RMK AO2 VIS M1/4V5 FZRANO=
201903291356 METAR KPWT 291356Z AUTO 00000KT 5SM BR CLR 01/01 A3028 RMK AO2 SLP274 T00060006 FZRANO=
201903291256 METAR KPWT 291256Z AUTO 00000KT 10SM CLR 00/M01 A3027 RMK AO2 SLP270 T00001006 FZRANO=
201903291208 SPECI KPWT 291208Z AUTO 00000KT 3SM BR CLR 01/00 A3026 RMK AO2 FZRANO=
201903291205 SPECI KPWT 291205Z AUTO 00000KT 1 1/2SM BR CLR 01/01 A3026 RMK AO2 VIS 1/2V5 FZRANO=
201903291156 METAR KPWT 291156Z AUTO 00000KT 3/4SM BR CLR 01/01 A3026 RMK AO2 SLP266 T00110011 10072 20011 53010 FZRANO=
201903291151 SPECI KPWT 291151Z AUTO 00000KT 3/4SM BR CLR 01/01 A3026 RMK AO2 FZRANO=
201903291147 SPECI KPWT 291147Z AUTO 00000KT 1 1/4SM BR CLR 02/01 A3026 RMK AO2 FZRANO=
201903291056 METAR KPWT 291056Z AUTO 15003KT 10SM CLR 01/01 A3025 RMK AO2 SLP261 T00110006 FZRANO=
201903290956 METAR KPWT 290956Z AUTO 00000KT 10SM CLR 02/01 A3024 RMK AO2 SLP259 T00170011 FZRANO=
201903290856 METAR KPWT 290856Z AUTO 00000KT 10SM CLR 03/02 A3023 RMK AO2 SLP258 T00280017 51019=
201903290756 METAR KPWT 290756Z AUTO 00000KT 10SM CLR 04/02 A3022 RMK AO2 SLP252 T00440022 401720011=
201903290656 METAR KPWT 290656Z AUTO 00000KT 10SM FEW095 07/03 A3020 RMK AO2 SLP246 T00670028=
201903290456 METAR KPWT 290456Z AUTO 03006KT 10SM FEW095 10/02 A3016 RMK AO2 SLP233 T01000022=
201903290356 METAR KPWT 290356Z AUTO 05004KT 10SM OVC095 11/03 A3014 RMK AO2 SLP227 T01060028=
201903290256 METAR KPWT 290256Z AUTO 04004KT 10SM CLR 11/02 A3012 RMK AO2 SLP221 T01110017 53006=
201903290156 METAR KPWT 290156Z AUTO 05007KT 10SM CLR 15/02 A3011 RMK AO2 SLP214 T01500017=
201903290056 METAR KPWT 290056Z AUTO 05005KT 10SM CLR 16/03 A3010 RMK AO2 SLP215 T01560028=
201903282356 METAR KPWT 282356Z AUTO 00000KT 10SM CLR 17/02 A3010 RMK AO2 SLP214 T01670022 10172 20122 55000=
201903282256 METAR KPWT 282256Z AUTO 05004KT 10SM FEW055 16/03 A3010 RMK AO2 SLP213 T01610028=
201903282156 METAR KPWT 282156Z AUTO 00000KT 10SM CLR 16/02 A3010 RMK AO2 SLP211 T01560022=
201903282056 METAR KPWT 282056Z AUTO 00000KT 10SM CLR 16/02 A3011 RMK AO2 SLP215 T01560017 57008=
201903281956 METAR KPWT 281956Z AUTO 00000KT 10SM CLR 16/02 A3011 RMK AO2 SLP216 T01610017=
201903281856 METAR KPWT 281856Z AUTO 00000KT 10SM CLR 14/04 A3012 RMK AO2 SLP220 T01440044=
201903281756 METAR KPWT 281756Z AUTO 00000KT 10SM CLR 12/04 A3013 RMK AO2 SLP223 T01220044 10122 20011 51008=
201903281656 METAR KPWT 281656Z AUTO 05004KT 10SM CLR 11/04 A3012 RMK AO2 SLP220 T01110044=
201903281556 METAR KPWT 281556Z AUTO 00000KT 10SM CLR 09/06 A3012 RMK AO2 SLP216 T00940061=
201903281456 METAR KPWT 281456Z AUTO 00000KT 9SM CLR 02/02 A3011 RMK AO2 SLP213 T00220022 53012 FZRANO=
201903281356 METAR KPWT 281356Z AUTO 00000KT 10SM CLR 02/02 A3009 RMK AO2 SLP210 T00220017 FZRANO=
201903281256 METAR KPWT 281256Z AUTO 00000KT 10SM FEW120 03/03 A3008 RMK AO2 SLP205 T00330033=
201903281156 METAR KPWT 281156Z AUTO 00000KT 10SM FEW100 04/03 A3007 RMK AO2 SLP201 60000 T00390033 10072 20033 53008=
201903281056 METAR KPWT 281056Z AUTO 00000KT 10SM OVC100 05/04 A3006 RMK AO2 SLP199 T00500044=
201903280956 METAR KPWT 280956Z AUTO 00000KT 10SM BKN075 OVC095 06/05 A3005 RMK AO2 SLP197 T00560050=
201903280900 SPECI KPWT 280900Z AUTO 23004KT 3SM BR BKN090 03/03 A3005 RMK AO2=
201903280856 METAR KPWT 280856Z AUTO 00000KT 1 1/4SM BR BKN085 03/03 A3005 RMK AO2 SLP193 60000 T00330033 51010=
201903280849 SPECI KPWT 280849Z AUTO 00000KT 1 3/4SM BR SCT090 04/04 A3005 RMK AO2 VIS 1/2V5=
201903280756 METAR KPWT 280756Z AUTO 23004KT 10SM FEW049 BKN085 06/04 A3004 RMK AO2 RAE0659B18E31 SLP193 P0000 T00560044 401500056=
201903280656 METAR KPWT 280656Z AUTO 00000KT 10SM -RA OVC045 07/06 A3003 RMK AO2 RAB41 SLP191 P0000 T00670056=
201903280556 METAR KPWT 280556Z AUTO 22003KT 10SM SCT038 BKN055 06/04 A3002 RMK AO2 RAB10E55 SLP182 P0000 60000 T00610044 10133 20061 51020=
201903280456 METAR KPWT 280456Z AUTO 24005KT 10SM SCT060 08/05 A3000 RMK AO2 RAB02E31 SLP178 P0000 T00780050=
201903280356 METAR KPWT 280356Z AUTO 27006KT 10SM FEW055 08/05 A2998 RMK AO2 RAE12 SLP172 P0000 T00830050=
201903280256 METAR KPWT 280256Z AUTO 20008KT 10SM -RA SCT055 09/04 A2996 RMK AO2 RAB52 SLP163 P0000 60000 T00940039 53034=
201903280156 METAR KPWT 280156Z AUTO 20012KT 10SM FEW075 11/04 A2992 RMK AO2 SLP151 T01110039=
201903280056 METAR KPWT 280056Z AUTO 00000KT 10SM CLR 13/00 A2988 RMK AO2 SLP137 T01330000=
201903272356 METAR KPWT 272356Z AUTO 06006KT 10SM CLR 13/M01 A2985 RMK AO2 SLP129 T01331011 10150 20111 53012=
201903272256 METAR KPWT 272256Z AUTO 06011KT 10SM CLR 14/01 A2983 RMK AO2 SLP120 T01440006=
201903272156 METAR KPWT 272156Z AUTO 02009KT 10SM CLR 14/01 A2982 RMK AO2 SLP117 T01390006=
201903272056 METAR KPWT 272056Z AUTO 03010KT 10SM CLR 13/01 A2982 RMK AO2 SLP117 T01330006 56013=
201903271956 METAR KPWT 271956Z AUTO 03014G20KT 10SM CLR 13/01 A2983 RMK AO2 SLP119 T01280011=
201903271856 METAR KPWT 271856Z AUTO 04014G21KT 10SM CLR 12/01 A2984 RMK AO2 SLP125 T01220011=
201903271756 METAR KPWT 271756Z AUTO 03014G22KT 10SM CLR 11/02 A2986 RMK AO2 SLP131 T01110017 10111 20056 56015=
201903271656 METAR KPWT 271656Z AUTO 04013G19KT 10SM CLR 11/02 A2987 RMK AO2 SLP132 T01060017=
201903271556 METAR KPWT 271556Z AUTO 03016G24KT 10SM CLR 08/02 A2989 RMK AO2 SLP140 T00780022=
201903271456 METAR KPWT 271456Z AUTO 04011G19KT 10SM CLR 06/02 A2990 RMK AO2 SLP143 T00610017 55004=
201903271356 METAR KPWT 271356Z AUTO 05013KT 10SM CLR 06/02 A2989 RMK AO2 SLP141 T00560017=
201903271256 METAR KPWT 271256Z AUTO 05014KT 10SM CLR 06/02 A2991 RMK AO2 SLP147 T00610017=
201903271156 METAR KPWT 271156Z AUTO 05012G19KT 10SM CLR 07/01 A2991 RMK AO2 SLP150 T00670011 10083 20067 58016=
201903271056 METAR KPWT 271056Z AUTO 04014KT 10SM CLR 07/01 A2993 RMK AO2 SLP156 T00670011=
201903270956 METAR KPWT 270956Z AUTO 04015KT 10SM CLR 07/02 A2995 RMK AO2 SLP163 T00720017=
201903270856 METAR KPWT 270856Z AUTO 03012KT 10SM CLR 08/02 A2996 RMK AO2 SLP167 T00780017 58015=
201903270756 METAR KPWT 270756Z AUTO 04009KT 10SM CLR 08/02 A2998 RMK AO2 SLP173 T00780017 401390044=
201903270656 METAR KPWT 270656Z AUTO 06010KT 10SM CLR 08/03 A3000 RMK AO2 SLP177 T00780028=
201903270556 METAR KPWT 270556Z AUTO 05007KT 10SM CLR 07/03 A3001 RMK AO2 SLP180 T00720028 10128 20056 58002=
201903270456 METAR KPWT 270456Z AUTO 04004KT 10SM CLR 06/03 A3002 RMK AO2 SLP185 T00610028=
201903270356 METAR KPWT 270356Z AUTO 03004KT 10SM CLR 06/02 A3001 RMK AO2 SLP182 T00610022=
201903270256 METAR KPWT 270256Z AUTO 00000KT 10SM CLR 06/02 A3001 RMK AO2 SLP182 T00560017 55007=
201903270156 METAR KPWT 270156Z AUTO 05005KT 10SM CLR 12/01 A3001 RMK AO2 SLP182 T01170011=
201903270056 METAR KPWT 270056Z AUTO 00000KT 10SM FEW050 12/01 A3002 RMK AO2 SLP185 T01220006=
201903262356 METAR KPWT 262356Z AUTO 00000KT 10SM CLR 13/01 A3004 RMK AO2 SLP189 T01280006 10139 20089 56016=
201903262256 METAR KPWT 262256Z AUTO VRB03KT 10SM FEW045 13/02 A3005 RMK AO2 SLP195 T01330017=
201903262156 METAR KPWT 262156Z AUTO 22007KT 170V250 10SM OVC045 13/02 A3006 RMK AO2 SLP198 T01280022=
201903262056 METAR KPWT 262056Z AUTO 23004KT 10SM FEW036 11/03 A3008 RMK AO2 SLP205 T01060028 58007=
201903261956 METAR KPWT 261956Z AUTO 20004KT 10SM FEW041 11/03 A3009 RMK AO2 SLP209 T01110033=
201903261856 METAR KPWT 261856Z AUTO 22007KT 10SM FEW019 BKN033 BKN040 09/05 A3010 RMK AO2 SLP213 T00890050=
201903261756 METAR KPWT 261756Z AUTO 20008KT 10SM FEW009 09/06 A3010 RMK AO2 SLP213 60000 T00890061 10089 20056 51008=
201903261734 SPECI KPWT 261734Z AUTO 20007KT 10SM SCT009 SCT039 08/06 A3010 RMK AO2=
201903261656 METAR KPWT 261656Z AUTO 21007KT 10SM OVC007 07/06 A3010 RMK AO2 CIG 005V011 SLP213 T00670056=
201903261633 SPECI KPWT 261633Z AUTO 22008KT 10SM OVC007 06/05 A3010 RMK AO2 CIG 005V011=
201903261556 METAR KPWT 261556Z AUTO 21006KT 10SM OVC005 06/06 A3009 RMK AO2 SLP209 T00610056=
201903261456 METAR KPWT 261456Z AUTO 22006KT 10SM OVC005 06/05 A3008 RMK AO2 RAE05 SLP205 P0000 60000 T00560050 53011=
201903261356 METAR KPWT 261356Z AUTO 22006KT 9SM -RA OVC003 06/05 A3007 RMK AO2 RAE09B47 SLP201 P0000 T00560050=
201903261342 SPECI KPWT 261342Z AUTO 20007KT 10SM OVC005 06/05 A3007 RMK AO2 RAE09 CIG 003V008 P0000=
201903261256 METAR KPWT 261256Z AUTO 21007KT 10SM -RA OVC003 06/05 A3005 RMK AO2 RAB45 SLP197 P0000 T00560050=
201903261245 SPECI KPWT 261245Z AUTO 22006KT 10SM -RA OVC003 06/05 A3005 RMK AO2 RAB45 P0000=
201903261156 METAR KPWT 261156Z AUTO 23007KT 10SM OVC005 05/04 A3005 RMK AO2 RAE1057B44E56 SLP194 P0000 60002 70037 T00500044 10061 20044 52004=
201903261151 SPECI KPWT 261151Z AUTO 22006KT 10SM -RA OVC005 05/04 A3004 RMK AO2 RAE1057B44 P0000=
201903261135 SPECI KPWT 261135Z AUTO 22006KT 10SM BKN007 BKN012 OVC018 05/04 A3004 RMK AO2 RAE1057 CIG 005V009=
201903261126 SPECI KPWT 261126Z AUTO 25004KT 10SM SCT009 BKN012 OVC027 05/04 A3004 RMK AO2 RAE1057=
201903261056 METAR KPWT 261056Z AUTO 19005KT 10SM -RA BKN028 BKN038 BKN047 05/04 A3003 RMK AO2 RAB08 SLP190 P0000 T00500044=
201903261054 SPECI KPWT 261054Z AUTO 19004KT 10SM -RA BKN028 BKN047 05/04 A3003 RMK AO2 RAB08 P0000=
201903261008 SPECI KPWT 261008Z AUTO 22006KT 10SM -RA SCT004 SCT032 BKN045 05/04 A3003 RMK AO2 RAB08 P0000=
201903260956 METAR KPWT 260956Z AUTO 20007KT 10SM SCT045 04/04 A3003 RMK AO2 RAE28 SLP187 P0000 T00440039=
201903260927 SPECI KPWT 260927Z AUTO 20008KT 10SM -RA SCT009 SCT041 05/04 A3002 RMK AO2 P0000=
201903260856 METAR KPWT 260856Z AUTO 20011KT 10SM -RA BKN009 OVC013 06/05 A3001 RMK AO2 CIG 005V011 SLP183 P0001 60002 T00560050 51006=
201903260854 SPECI KPWT 260854Z AUTO 20009KT 10SM -RA BKN009 BKN013 OVC041 06/05 A3001 RMK AO2 CIG 005V011 P0001=
201903260845 SPECI KPWT 260845Z AUTO 20011KT 10SM -RA FEW004 BKN013 OVC041 06/05 A3001 RMK AO2 P0001=
201903260756 METAR KPWT 260756Z AUTO 19008KT 10SM -RA BKN006 OVC030 06/06 A3001 RMK AO2 CIG 003V011 SLP183 P0001 T00610056 401330006=
201903260729 SPECI KPWT 260729Z AUTO 20004KT 10SM -RA BKN006 OVC012 06/06 A3000 RMK AO2 P0000=
201903260656 METAR KPWT 260656Z AUTO 21008KT 5SM -RA BR FEW004 BKN012 OVC023 06/06 A3000 RMK AO2 RAB39 SLP177 P0000 T00610056=
201903260641 SPECI KPWT 260641Z AUTO 23008KT 7SM -RA BKN014 BKN024 OVC031 06/06 A2999 RMK AO2 RAB39 P0000=
201903260556 METAR KPWT 260556Z AUTO 21008KT 10SM OVC020 06/06 A2998 RMK AO2 RAB31E46 SLP173 P0000 60030 T00610056 10083 20056 51020=
201903260529 SPECI KPWT 260529Z AUTO 22010KT 9SM BKN020 BKN027 06/06 A2998 RMK AO2=
201903260507 SPECI KPWT 260507Z AUTO 21011KT 10SM FEW008 SCT040 06/05 A2997 RMK AO2=
201903260456 METAR KPWT 260456Z AUTO 20012KT 10SM BKN008 BKN040 06/06 A2997 RMK AO2 RAE39 CIG 004V010 SLP166 P0000 T00610056=
201903260437 SPECI KPWT 260437Z AUTO 20011KT 10SM -RA BKN008 BKN044 06/06 A2996 RMK AO2 CIG 005V010 P0000=
201903260421 SPECI KPWT 260421Z AUTO 20009KT 10SM -RA SCT008 BKN045 07/06 A2996 RMK AO2 P0000=
201903260402 SPECI KPWT 260402Z AUTO 21012KT 10SM -RA BKN008 OVC044 07/06 A2995 RMK AO2 CIG 005V010 P0000=
201903260356 METAR KPWT 260356Z AUTO 21011KT 10SM -RA SCT008 SCT036 OVC045 07/06 A2995 RMK AO2 SLP160 P0002 T00670056=
201903260340 SPECI KPWT 260340Z AUTO 22012KT 10SM -RA SCT010 SCT026 OVC041 07/06 A2994 RMK AO2 P0001=
201903260328 SPECI KPWT 260328Z AUTO 21014G21KT 10SM -RA SCT007 BKN013 OVC036 07/06 A2994 RMK AO2 P0001=
201903260316 SPECI KPWT 260316Z AUTO 21015G22KT 10SM -RA BKN007 OVC011 07/07 A2993 RMK AO2 CIG 004V010 P0000=
201903260256 METAR KPWT 260256Z AUTO 20006KT 10SM -RA FEW005 OVC011 08/07 A2992 RMK AO2 CIG 008V015 SLP152 P0004 60028 T00780072 51008=
201903260251 SPECI KPWT 260251Z AUTO 20006KT 10SM -RA BKN011 OVC016 07/07 A2992 RMK AO2 CIG 008V013 P0003=
201903260224 SPECI KPWT 260224Z AUTO 22003KT 10SM -RA FEW008 BKN020 OVC036 07/07 A2991 RMK AO2 P0002=
201903260156 METAR KPWT 260156Z AUTO 25005KT 9SM RA SCT012 BKN019 OVC032 08/07 A2992 RMK AO2 SLP150 P0013 T00780067=
201903260124 SPECI KPWT 260124Z AUTO 28004KT 8SM RA BKN027 OVC032 08/07 A2991 RMK AO2 P0007=
201903260056 METAR KPWT 260056Z AUTO 27007KT 8SM RA FEW005 OVC034 08/07 A2990 RMK AO2 SLP144 P0011 T00780072=
201903252356 METAR KPWT 252356Z AUTO 25007KT 8SM RA SCT032 OVC041 08/07 A2990 RMK AO2 SLP143 P0005 60005 T00830072 10133 20083 53002=
201903252256 METAR KPWT 252256Z AUTO 25008KT 10SM -RA BKN048 11/07 A2989 RMK AO2 RAB18 SLP139 P0000 T01060067=
201903252156 METAR KPWT 252156Z AUTO 24012KT 10SM FEW031 SCT047 12/06 A2988 RMK AO2 RAE53 SLP134 P0000 T01170061=
201903252056 METAR KPWT 252056Z AUTO 00000KT 10SM -RA BKN055 13/06 A2989 RMK AO2 RAB19 SLP140 P0000 60000 T01280056 55008=
201903251956 METAR KPWT 251956Z AUTO 04006KT 10SM CLR 13/04 A2989 RMK AO2 SLP140 T01280044=
201903251856 METAR KPWT 251856Z AUTO 04007KT 10SM CLR 13/04 A2990 RMK AO2 SLP144 T01330039=
201903251756 METAR KPWT 251756Z AUTO 03007KT 10SM CLR 12/04 A2991 RMK AO2 SLP148 T01220039 10122 20050 55013=
201903251656 METAR KPWT 251656Z AUTO 05009KT 10SM CLR 11/04 A2990 RMK AO2 SLP143 T01060039=
201903251556 METAR KPWT 251556Z AUTO 01010KT 10SM CLR 09/04 A2992 RMK AO2 SLP153 T00940039=
201903251456 METAR KPWT 251456Z AUTO 05010KT 10SM CLR 07/04 A2995 RMK AO2 SLP162 T00670039 58027=
201903251356 METAR KPWT 251356Z AUTO 05008KT 10SM CLR 07/04 A2998 RMK AO2 SLP171 T00670039=
201903251256 METAR KPWT 251256Z AUTO 03006KT 10SM CLR 06/04 A3002 RMK AO2 SLP185 T00560039=
201903251156 METAR KPWT 251156Z AUTO 05008KT 10SM CLR 06/04 A3003 RMK AO2 SLP190 7//// T00610044 10067 20006 56026=
201903251056 METAR KPWT 251056Z AUTO 05007KT 10SM CLR 06/04 A3005 RMK AO2 SLP198 T00610044=
201903250956 METAR KPWT 250956Z AUTO 00000KT 10SM CLR 01/00 A3009 RMK AO2 SLP206 T00060000 FZRANO=
201903250856 METAR KPWT 250856Z AUTO 00000KT 10SM CLR 03/02 A3011 RMK AO2 SLP216 T00280017 58014=
201903250756 METAR KPWT 250756Z AUTO 00000KT 10SM CLR 03/02 A3012 RMK AO2 SLP221 T00280022 401440011=
201903250656 METAR KPWT 250656Z AUTO 00000KT 10SM CLR 02/02 A3014 RMK AO2 SLP226 T00220017 FZRANO=
201903250556 METAR KPWT 250556Z AUTO 00000KT 10SM CLR 04/03 A3015 RMK AO2 SLP231 T00390028 10144 20028 58002=
201903250456 METAR KPWT 250456Z AUTO 00000KT 10SM CLR 06/03 A3016 RMK AO2 SLP232 T00560033=
201903250356 METAR KPWT 250356Z AUTO 00000KT 10SM CLR 04/03 A3015 RMK AO2 SLP230 T00440028=
201903250256 METAR KPWT 250256Z AUTO 12003KT 10SM CLR 09/04 A3016 RMK AO2 SLP231 T00890039 56003=
201903250156 METAR KPWT 250156Z AUTO 13003KT 10SM CLR 12/03 A3016 RMK AO2 SLP232 T01220033=
201903250056 METAR KPWT 250056Z AUTO VRB05KT 10SM CLR 13/03 A3016 RMK AO2 SLP231 T01330033=
201903242356 METAR KPWT 242356Z AUTO 00000KT 10SM FEW041 13/03 A3017 RMK AO2 SLP234 T01330033 10139 20094 58009=
201903242256 METAR KPWT 242256Z AUTO 00000KT 10SM BKN035 12/04 A3018 RMK AO2 SLP239 T01220044=
201903242156 METAR KPWT 242156Z AUTO VRB03KT 10SM SCT027 12/05 A3018 RMK AO2 SLP240 T01170050=
201903242056 METAR KPWT 242056Z AUTO VRB04KT 10SM BKN029 12/05 A3019 RMK AO2 SLP244 T01170050 58005=
201903242043 SPECI KPWT 242043Z AUTO 00000KT 10SM BKN027 12/05 A3020 RMK AO2=
201903241956 METAR KPWT 241956Z AUTO 21005KT 10SM CLR 11/05 A3020 RMK AO2 SLP246 T01060050=
201903241856 METAR KPWT 241856Z AUTO 20005KT 10SM FEW019 10/05 A3021 RMK AO2 SLP249 T01000050=
201903241756 METAR KPWT 241756Z AUTO 23004KT 10SM CLR 09/06 A3021 RMK AO2 SLP249 6//// T00940056 10094 20011 53004=
201903241656 METAR KPWT 241656Z AUTO 24003KT 10SM CLR 08/06 A3020 RMK AO2 SLP247 T00830056=
201903241556 METAR KPWT 241556Z AUTO 00000KT 10SM CLR 06/05 A3020 RMK AO2 SLP244 T00560050=
201903241507 SPECI KPWT 241507Z AUTO 00000KT 3SM BR CLR 03/02 A3020 RMK AO2=
201903241503 SPECI KPWT 241503Z AUTO 00000KT 1 3/4SM BR CLR 02/02 A3020 RMK AO2 VIS 1/2V5 FZRANO=
201903241456 METAR KPWT 241456Z AUTO 00000KT 2 1/2SM BR CLR 02/02 A3020 RMK AO2 VIS 1V5 SLP245 6//// T00220017 FZRANO=
201903241443 SPECI KPWT 241443Z AUTO 00000KT 4SM BR CLR 02/02 A3020 RMK AO2 FZRANO=
201903241440 SPECI KPWT 241440Z AUTO 00000KT 1 1/4SM BR CLR 03/03 A3019 RMK AO2=
201903241430 SPECI KPWT 241430Z AUTO 00000KT 1SM BR CLR 02/02 A3019 RMK AO2 FZRANO=
201903241418 SPECI KPWT 241418Z AUTO 00000KT 1/2SM FG CLR 02/01 A3019 RMK AO2 VIS M1/4V5 FZRANO=
201903241416 SPECI KPWT 241416Z AUTO 00000KT 1 1/4SM BR CLR 02/01 A3019 RMK AO2 VIS 1/4V5 FZRANO=
201903241404 SPECI KPWT 241404Z AUTO 00000KT 10SM CLR 02/01 A3019 RMK AO2 FZRANO=
201903241356 METAR KPWT 241356Z AUTO 00000KT 2 1/2SM BR CLR 02/02 A3019 RMK AO2 SLP244 T00170017 FZRANO=
201903241256 METAR KPWT 241256Z AUTO 00000KT 4SM BR CLR 02/01 A3020 RMK AO2 SLP246 T00170011 FZRANO=
201903241156 METAR KPWT 241156Z AUTO 10SM SCT046 02/01 RMK AO2 SLPNO T00220011 10078 20022 FZRANO $=
201903241056 METAR KPWT 241056Z AUTO 00000KT 10SM CLR 03/02 RMK AO2 SLPNO T00280022 $=
201903240956 METAR KPWT 240956Z AUTO 00000KT 10SM BKN043 04/03 A3021 RMK AO2 SLP248 T00390033=
201903240856 METAR KPWT 240856Z AUTO 00000KT 10SM CLR 03/02 A3020 RMK AO2 SLP247 T00280022 55001=
201903240756 METAR KPWT 240756Z AUTO 00000KT 10SM CLR 03/02 A3020 RMK AO2 SLP247 T00330022 401440028=
201903240656 METAR KPWT 240656Z AUTO 00000KT 10SM CLR 05/03 A3020 RMK AO2 SLP247 T00500033=
201903240556 METAR KPWT 240556Z AUTO 05003KT 10SM CLR 06/03 A3021 RMK AO2 SLP248 T00560033 10144 20050 51007=
201903240456 METAR KPWT 240456Z AUTO 00000KT 10SM BKN043 06/04 A3021 RMK AO2 SLP249 T00610039=
201903240356 METAR KPWT 240356Z AUTO 00000KT 10SM SCT041 06/03 A3020 RMK AO2 SLP246 T00610033=
201903240256 METAR KPWT 240256Z AUTO 00000KT 10SM CLR 07/03 A3018 RMK AO2 SLP241 T00720033 53005=
201903240156 METAR KPWT 240156Z AUTO 20004KT 10SM CLR 11/04 A3018 RMK AO2 SLP238 T01110044=
201903240056 METAR KPWT 240056Z AUTO 21006KT 10SM CLR 13/03 A3017 RMK AO2 SLP238 T01330033=
201903232356 METAR KPWT 232356Z AUTO 21006KT 10SM CLR 14/04 A3017 RMK AO2 SLP235 T01390039 10144 20083 56006=
201903232256 METAR KPWT 232256Z AUTO 23010KT 10SM FEW041 14/03 A3017 RMK AO2 SLP237 T01440033=
201903232156 METAR KPWT 232156Z AUTO 24007KT 10SM SCT036 BKN048 13/04 A3018 RMK AO2 SLP241 T01330044=
201903232056 METAR KPWT 232056Z AUTO 24007KT 10SM FEW027 BKN050 12/06 A3019 RMK AO2 SLP241 T01220061 58003=
201903231956 METAR KPWT 231956Z AUTO 19004KT 10SM FEW019 SCT036 BKN048 11/06 A3020 RMK AO2 SLP244 T01110056=
201903231922 SPECI KPWT 231922Z AUTO 22007KT 10SM FEW016 SCT022 OVC039 11/07 A3019 RMK AO2=
201903231912 SPECI KPWT 231912Z AUTO 23006KT 10SM FEW016 BKN026 OVC047 11/06 A3020 RMK AO2=
201903231856 METAR KPWT 231856Z AUTO 22005KT 10SM FEW012 BKN040 OVC055 10/07 A3020 RMK AO2 SLP244 T01000067=
201903231851 SPECI KPWT 231851Z AUTO 19005KT 10SM SCT012 BKN024 BKN040 10/07 A3020 RMK AO2=
201903231814 SPECI KPWT 231814Z AUTO 18004KT 10SM BKN010 OVC050 09/07 A3020 RMK AO2=
201903231756 METAR KPWT 231756Z AUTO 13003KT 10SM BKN050 08/07 A3019 RMK AO2 SLP243 T00830067 10083 20056 51010=
201903231714 SPECI KPWT 231714Z AUTO 00000KT 10SM SCT002 07/07 A3018 RMK AO2=
201903231656 METAR KPWT 231656Z AUTO 13004KT 10SM BKN002 07/07 A3019 RMK AO2 SLP242 T00670067=
201903231621 SPECI KPWT 231621Z AUTO 21003KT 10SM FEW002 07/07 A3018 RMK AO2=
201903231612 SPECI KPWT 231612Z AUTO 00000KT 5SM BR BKN002 07/07 A3017 RMK AO2=
201903231602 SPECI KPWT 231602Z AUTO 00000KT 2SM BR BKN002 07/07 A3017 RMK AO2 VIS 1/2V5=
201903231600 SPECI KPWT 231600Z AUTO 00000KT 3/4SM BR BKN002 07/07 A3017 RMK AO2 VIS M1/4V5=
201903231556 METAR KPWT 231556Z AUTO 00000KT 1/4SM FG OVC002 07/07 A3017 RMK AO2 SLP237 T00670067=
201903231534 SPECI KPWT 231534Z AUTO 00000KT 1/4SM FG OVC002 06/06 A3017 RMK AO2=
201903231526 SPECI KPWT 231526Z AUTO 00000KT 3/4SM BR OVC002 06/06 A3017 RMK AO2 VIS 1/2V2 1/2=
201903231512 SPECI KPWT 231512Z AUTO 00000KT 1/4SM FG OVC002 06/06 A3016 RMK AO2=
201903231505 SPECI KPWT 231505Z AUTO 00000KT 3/4SM BR OVC002 06/06 A3016 RMK AO2=
201903231501 SPECI KPWT 231501Z AUTO 00000KT 1 1/2SM BR OVC002 06/06 A3016 RMK AO2=
201903231456 METAR KPWT 231456Z AUTO 00000KT 5SM BR OVC002 06/06 A3016 RMK AO2 CIG 001V005 SLP233 T00610056 51009=
201903231454 SPECI KPWT 231454Z AUTO 00000KT 5SM BR OVC004 06/06 A3016 RMK AO2=
201903231445 SPECI KPWT 231445Z AUTO 00000KT 2SM BR OVC004 06/06 A3016 RMK AO2=
201903231441 SPECI KPWT 231441Z AUTO 00000KT 1SM BR OVC004 06/06 A3016 RMK AO2=
201903231438 SPECI KPWT 231438Z AUTO 00000KT 1/2SM FG OVC004 06/06 A3016 RMK AO2=
201903231356 METAR KPWT 231356Z AUTO 00000KT 1/4SM FG OVC002 06/06 A3015 RMK AO2 SLP228 T00560056=
201903231256 METAR KPWT 231256Z AUTO 00000KT 1/4SM FG OVC002 06/06 A3013 RMK AO2 SLP223 T00560056=
201903231243 SPECI KPWT 231243Z AUTO 27004KT 1/2SM FG OVC002 06/06 A3013 RMK AO2=
201903231236 SPECI KPWT 231236Z AUTO 24003KT 1/4SM FG OVC002 06/06 A3013 RMK AO2=
201903231229 SPECI KPWT 231229Z AUTO 21004KT 1/2SM FG OVC002 06/06 A3013 RMK AO2=
201903231220 SPECI KPWT 231220Z AUTO 22006KT 3/4SM BR OVC002 06/06 A3013 RMK AO2=
201903231210 SPECI KPWT 231210Z AUTO 22005KT 1 3/4SM BR OVC002 07/06 A3012 RMK AO2 VIS 1V3=
201903231156 METAR KPWT 231156Z AUTO 23004KT 6SM BR OVC002 07/06 A3012 RMK AO2 SLP218 70001 T00670061 10072 20050 51009=
201903231056 METAR KPWT 231056Z AUTO 00000KT 7SM OVC002 07/07 A3012 RMK AO2 SLP218 T00670067=
201903231020 SPECI KPWT 231020Z AUTO 21003KT 6SM BR OVC002 07/07 A3012 RMK AO2=
201903230956 METAR KPWT 230956Z AUTO 21004KT 7SM OVC004 07/06 A3011 RMK AO2 SLP216 T00670061=
201903230929 SPECI KPWT 230929Z AUTO 22003KT 8SM BKN004 06/05 A3011 RMK AO2=
201903230922 SPECI KPWT 230922Z AUTO 00000KT 2SM BR BKN004 06/05 A3010 RMK AO2=
201903230915 SPECI KPWT 230915Z AUTO 00000KT 1SM BR VV004 05/05 A3010 RMK AO2 VIS 1/2V4=
201903230906 SPECI KPWT 230906Z AUTO 00000KT 2 1/2SM BR FEW004 06/05 A3010 RMK AO2 VIS 1V5=
201903230856 METAR KPWT 230856Z AUTO 00000KT 5SM BR CLR 06/06 A3009 RMK AO2 SLP210 T00560056 51017=
201903230756 METAR KPWT 230756Z AUTO 21004KT 10SM FEW005 06/05 A3008 RMK AO2 SLP206 T00560050 401670000=
201903230656 METAR KPWT 230656Z AUTO 20007KT 10SM CLR 07/07 A3007 RMK AO2 SLP200 T00720067=
201903230556 METAR KPWT 230556Z AUTO 21008KT 10SM CLR 07/07 A3004 RMK AO2 SLP194 60001 T00720067 10111 20072 52020=
201903230356 METAR KPWT 230356Z AUTO 22006KT 10SM CLR 08/07 A3000 RMK AO2 SLP179 T00780072=
201903230308 SPECI KPWT 230308Z AUTO 20008KT 10SM FEW008 SCT031 BKN042 08/08 A2999 RMK AO2=
201903230256 METAR KPWT 230256Z AUTO 20008KT 10SM BKN030 BKN044 09/08 A2998 RMK AO2 RAE19 SLP171 P0000 60001 T00890078 53014=
201903230222 SPECI KPWT 230222Z AUTO 21010KT 10SM FEW011 BKN030 OVC045 09/08 A2998 RMK AO2 RAE19 P0000=
201903230156 METAR KPWT 230156Z AUTO 22013KT 7SM -RA FEW013 BKN018 OVC024 09/08 A2997 RMK AO2 RAB37 SLP168 P0001 T00940078=
201903230126 SPECI KPWT 230126Z AUTO 20011G15KT 10SM BKN020 OVC035 11/07 A2996 RMK AO2=
201903230056 METAR KPWT 230056Z AUTO 20010KT 10SM BKN047 OVC070 11/07 A2995 RMK AO2 SLP161 T01110072=
201903222356 METAR KPWT 222356Z AUTO 20011G14KT 10SM FEW019 BKN043 OVC050 11/07 A2994 RMK AO2 SLP159 60000 T01110072 10167 20111 51018=
201903222341 SPECI KPWT 222341Z AUTO 20010G17KT 10SM SCT021 BKN046 OVC055 11/07 A2994 RMK AO2=
201903222312 SPECI KPWT 222312Z AUTO 20011KT 10SM BKN021 OVC050 12/08 A2994 RMK AO2=
201903222256 METAR KPWT 222256Z AUTO 21014G19KT 10SM SCT021 OVC050 12/08 A2993 RMK AO2 PK WND 20030/2159 RAB02E39 SLP155 P0000 T01170083=
201903222156 METAR KPWT 222156Z AUTO 21017G26KT 10SM FEW038 SCT047 BKN060 14/06 A2992 RMK AO2 PK WND 22028/2143 RAB32E46 SLP148 P0000 T01390061=
201903222056 METAR KPWT 222056Z AUTO 19012KT 10SM CLR 16/04 A2989 RMK AO2 SLP140 T01610044 56008=
201903221956 METAR KPWT 221956Z AUTO 19012KT 10SM CLR 17/03 A2989 RMK AO2 SLP140 T01670033=
201903221856 METAR KPWT 221856Z AUTO VRB05KT 10SM CLR 15/07 A2990 RMK AO2 SLP145 T01500067=
201903221756 METAR KPWT 221756Z AUTO VRB04KT 10SM CLR 13/07 A2991 RMK AO2 SLP148 T01280067 10128 20000 58010=
201903221656 METAR KPWT 221656Z AUTO 24003KT 10SM CLR 10/07 A2992 RMK AO2 SLP151 T01000067=
201903221556 METAR KPWT 221556Z AUTO 00000KT 10SM CLR 08/06 A2993 RMK AO2 SLP154 T00830056=
201903221501 SPECI KPWT 221501Z AUTO 00000KT 5SM BR CLR 02/02 A2994 RMK AO2 FZRANO=
201903221459 SPECI KPWT 221459Z AUTO 00000KT 1 1/2SM BR CLR 02/02 A2994 RMK AO2 FZRANO=
201903221456 METAR KPWT 221456Z AUTO 00000KT 3/4SM BR CLR 02/01 A2994 RMK AO2 SLP157 T00170011 56009 FZRANO=
201903221449 SPECI KPWT 221449Z AUTO 00000KT 1/2SM FG CLR 01/01 A2994 RMK AO2 VIS M1/4V5 FZRANO=
201903221445 SPECI KPWT 221445Z AUTO 00000KT 1SM BR CLR 01/01 A2994 RMK AO2 FZRANO=
201903221434 SPECI KPWT 221434Z AUTO 00000KT 4SM BR CLR 01/01 A2994 RMK AO2 FZRANO=
201903221432 SPECI KPWT 221432Z AUTO 00000KT 3/4SM BR CLR 01/01 A2994 RMK AO2 VIS M1/4V5 FZRANO=
201903221410 SPECI KPWT 221410Z AUTO 00000KT 1/4SM FG CLR 00/00 A2994 RMK AO2 FZRANO=
201903221358 SPECI KPWT 221358Z AUTO 00000KT 1/2SM FG CLR 01/00 A2994 RMK AO2 VIS 1/4V5 FZRANO=
201903221356 METAR KPWT 221356Z AUTO 00000KT 1SM BR CLR 01/00 A2994 RMK AO2 VIS 1/4V5 SLP157 T00060000 FZRANO=
201903221306 SPECI KPWT 221306Z AUTO 00000KT 3SM BR CLR 02/01 A2995 RMK AO2 FZRANO=
201903221303 SPECI KPWT 221303Z AUTO 00000KT 1SM BR CLR 02/02 A2995 RMK AO2 FZRANO=
201903221256 METAR KPWT 221256Z AUTO 00000KT 1/2SM FG CLR 02/01 A2995 RMK AO2 SLP163 T00170011 FZRANO=
201903221249 SPECI KPWT 221249Z AUTO 00000KT 3/4SM BR CLR 02/01 A2996 RMK AO2 FZRANO=
201903221246 SPECI KPWT 221246Z AUTO 00000KT 1 3/4SM BR CLR 01/01 A2996 RMK AO2 FZRANO=
201903221217 SPECI KPWT 221217Z AUTO 00000KT 3SM BR CLR 02/01 A2997 RMK AO2 FZRANO=
201903221210 SPECI KPWT 221210Z AUTO 00000KT 1 1/4SM BR CLR 02/02 A2997 RMK AO2 VIS 1/2V5 FZRANO=
201903221207 SPECI KPWT 221207Z AUTO 00000KT 3/4SM BR FEW046 02/01 A2997 RMK AO2 FZRANO=
201903221200 SPECI KPWT 221200Z AUTO 00000KT 1 1/2SM BR SCT044 02/02 A2997 RMK AO2 VIS 1/2V5 FZRANO=
201903221156 METAR KPWT 221156Z AUTO 00000KT 4SM BR SCT044 02/02 A2997 RMK AO2 SLP166 T00220022 10067 20011 58012 FZRANO=
201903221117 SPECI KPWT 221117Z AUTO 00000KT 3SM BR FEW040 03/02 A2998 RMK AO2=
201903221115 SPECI KPWT 221115Z AUTO 00000KT 1 1/2SM BR FEW040 03/02 A2998 RMK AO2 VIS 1/2V5=
201903221102 SPECI KPWT 221102Z AUTO 00000KT 3/4SM BR CLR 01/01 A2998 RMK AO2 VIS 1/2V5 FZRANO=
201903221056 METAR KPWT 221056Z AUTO 00000KT 1 1/2SM BR CLR 02/01 A2998 RMK AO2 SLP172 T00170011 FZRANO=
201903220956 METAR KPWT 220956Z AUTO 00000KT 10SM CLR 03/03 A2999 RMK AO2 SLP175 T00330028=
201903220856 METAR KPWT 220856Z AUTO 00000KT 10SM CLR 04/03 A3000 RMK AO2 SLP180 T00440033 58008=
201903220756 METAR KPWT 220756Z AUTO 00000KT 10SM CLR 06/04 A3001 RMK AO2 SLP184 T00560044 401500022=
201903220656 METAR KPWT 220656Z AUTO 21004KT 10SM CLR 06/04 A3003 RMK AO2 SLP186 T00560044=
201903220556 METAR KPWT 220556Z AUTO 00000KT 10SM CLR 06/05 A3003 RMK AO2 SLP189 T00610050 10139 20061 58002=
201903220456 METAR KPWT 220456Z AUTO 00000KT 10SM CLR 07/06 A3004 RMK AO2 SLP191 T00720061=
201903220356 METAR KPWT 220356Z AUTO 20005KT 10SM CLR 08/07 A3004 RMK AO2 SLP191 T00830067=
201903220256 METAR KPWT 220256Z AUTO 22005KT 10SM SCT100 09/07 A3004 RMK AO2 SLP190 T00940067 55000=
201903220156 METAR KPWT 220156Z AUTO 22006KT 10SM OVC100 12/07 A3003 RMK AO2 SLP189 T01170072=
201903220056 METAR KPWT 220056Z AUTO 23012KT 10SM OVC110 12/07 A3003 RMK AO2 SLP187 T01220072=
201903220008 SPECI KPWT 220008Z AUTO 24012KT 10SM SCT024 BKN110 13/08 A3003 RMK AO2=
201903212356 METAR KPWT 212356Z AUTO 20013KT 10SM BKN026 14/07 A3004 RMK AO2 SLP190 T01390072 10150 20117 56007=
201903212336 SPECI KPWT 212336Z AUTO 21013KT 10SM BKN026 BKN120 14/08 A3004 RMK AO2=
201903212256 METAR KPWT 212256Z AUTO 21013G16KT 10SM SCT026 15/08 A3004 RMK AO2 SLP193 T01500078=
201903212209 SPECI KPWT 212209Z AUTO 22012G16KT 10SM SCT024 15/08 A3003 RMK AO2=
201903212156 METAR KPWT 212156Z AUTO 20009G15KT 10SM BKN024 14/08 A3004 RMK AO2 SLP192 T01390078=
201903212145 SPECI KPWT 212145Z AUTO 20011KT 10SM SCT024 14/08 A3005 RMK AO2=
201903212056 METAR KPWT 212056Z AUTO 21009G14KT 10SM BKN024 14/07 A3006 RMK AO2 SLP198 T01390072 58006=
201903211856 METAR KPWT 211856Z AUTO 23010KT 10SM BKN022 12/07 A3008 RMK AO2 SLP204 T01220067=
201903211841 SPECI KPWT 211841Z AUTO 20009KT 160V240 10SM BKN022 13/07 A3008 RMK AO2=
201903211831 SPECI KPWT 211831Z AUTO 20010KT 10SM SCT020 12/07 A3008 RMK AO2=
201903211756 METAR KPWT 211756Z AUTO 20012G17KT 10SM BKN020 12/07 A3008 RMK AO2 SLP203 60000 T01220067 10128 20022 51001=
201903211752 SPECI KPWT 211752Z AUTO 21010KT 10SM BKN020 12/07 A3008 RMK AO2=
201903211656 METAR KPWT 211656Z AUTO 23009KT 10SM FEW015 11/06 A3008 RMK AO2 SLP203 T01060061=
201903211644 SPECI KPWT 211644Z AUTO 23011KT 10SM FEW013 11/06 A3007 RMK AO2=
201903211556 METAR KPWT 211556Z AUTO 22007KT 10SM OVC011 08/07 A3007 RMK AO2 SLP203 T00830072=
201903211547 SPECI KPWT 211547Z AUTO 21006KT 10SM BKN011 08/07 A3007 RMK AO2=
201903211456 METAR KPWT 211456Z AUTO 24003KT 10SM CLR 06/06 A3006 RMK AO2 RAB1358E09B26E39 SLP197 P0000 60000 T00560056 53010=
201903211442 SPECI KPWT 211442Z AUTO 24004KT 9SM CLR 05/04 A3005 RMK AO2 RAB1358E09B26E39 P0000=
201903211435 SPECI KPWT 211435Z AUTO 23004KT 1 1/4SM -RA BR CLR 03/03 A3005 RMK AO2 RAB1358E09B26 P0000=
201903211425 SPECI KPWT 211425Z AUTO 22005KT 1/2SM FG FEW120 02/02 A3005 RMK AO2 RAB1358E09 P0000 FZRANO=
201903211423 SPECI KPWT 211423Z AUTO 22004KT 1 1/4SM BR FEW120 03/03 A3005 RMK AO2 RAB1358E09 P0000=
201903211413 SPECI KPWT 211413Z AUTO 20004KT 3SM BR CLR 04/04 A3004 RMK AO2 RAB1358E09 P0000=
201903211406 SPECI KPWT 211406Z AUTO 00000KT 1 1/4SM -RA BR CLR 04/04 A3004 RMK AO2 VIS 1/4V5 RAB1358 P0000=
201903211356 METAR KPWT 211356Z AUTO 23003KT 1/2SM FG CLR 03/02 A3004 RMK AO2 RAE30 SLP191 P0000 T00280022=
201903211353 SPECI KPWT 211353Z AUTO 22004KT 1 1/4SM BR CLR 03/03 A3004 RMK AO2 RAE30 P0000=
201903211327 SPECI KPWT 211327Z AUTO 25004KT 3SM -RA BR CLR 03/03 A3003 RMK AO2 P0000=
201903211314 SPECI KPWT 211314Z AUTO 20004KT 1 3/4SM BR CLR 03/02 A3003 RMK AO2 VIS 1/2V5 RAE07 P0000=
201903211303 SPECI KPWT 211303Z AUTO 19004KT 3SM -RA BR CLR 04/04 A3003 RMK AO2 P0000=
201903211256 METAR KPWT 211256Z AUTO 20004KT 1 1/2SM -RA BR CLR 03/03 A3003 RMK AO2 RAB52 SLP186 P0000 T00280028=
201903211254 SPECI KPWT 211254Z AUTO 21005KT 1 3/4SM -RA BR CLR 02/02 A3003 RMK AO2 RAB52 P0000 FZRANO=
201903211156 METAR KPWT 211156Z AUTO 22005KT 10SM CLR 04/03 A3003 RMK AO2 SLP185 7//// T00390033 10111 20028 53011=
201903211056 METAR KPWT 211056Z AUTO 00000KT 10SM CLR 06/03 A3001 RMK AO2 SLP178 T00560033=
201903210956 METAR KPWT 210956Z AUTO 00000KT 10SM CLR 06/03 A3001 RMK AO2 SLP177 T00560028=
201903210856 METAR KPWT 210856Z AUTO 22004KT 10SM CLR 06/02 A2999 RMK AO2 SLP173 T00560017 51017=
201903210756 METAR KPWT 210756Z AUTO 00000KT 10SM CLR 06/01 A2997 RMK AO2 SLP166 T00560011 402500028=
201903210656 METAR KPWT 210656Z AUTO 00000KT 10SM CLR 08/02 A2997 RMK AO2 SLP163 T00780017=
201903210556 METAR KPWT 210556Z AUTO 21004KT 10SM CLR 11/01 A2994 RMK AO2 SLP155 T01060006 10239 20083 51031=
201903210456 METAR KPWT 210456Z AUTO 22008KT 10SM CLR 13/01 A2992 RMK AO2 SLP147 T01280011=
201903210356 METAR KPWT 210356Z AUTO 00000KT 10SM CLR 12/01 A2988 RMK AO2 SLP135 T01220006=
201903210256 METAR KPWT 210256Z AUTO 06005KT 10SM CLR 18/M01 A2985 RMK AO2 SLP126 T01831006 53006=
201903210156 METAR KPWT 210156Z AUTO 06008KT 10SM CLR 21/00 A2984 RMK AO2 SLP121 T02060000=
201903210056 METAR KPWT 210056Z AUTO 05009KT 10SM CLR 23/00 A2983 RMK AO2 SLP117 T02280000=
201903202356 METAR KPWT 202356Z AUTO 06009KT 030V090 10SM CLR 24/M02 A2983 RMK AO2 SLP116 6//// T02391017 10250 20200 55004=
201903202256 METAR KPWT 202256Z AUTO 02008KT 10SM CLR 24/M02 A2983 RMK AO2 SLP118 T02441017=
201903202156 METAR KPWT 202156Z AUTO 05007G14KT 010V100 10SM CLR 24/M01 A2983 RMK AO2 SLP118 T02391011=
201903202056 METAR KPWT 202056Z AUTO 03012G16KT 10SM CLR 24/M01 A2985 RMK AO2 SLP121 6//// T02391011 56018=
201903201956 METAR KPWT 201956Z AUTO 04009G17KT 10SM CLR 23/00 A2986 RMK AO2 SLP127 T02280000=
201903201856 METAR KPWT 201856Z AUTO 04006KT 10SM CLR 22/M01 A2988 RMK AO2 SLP135 T02171006=
201903201756 METAR KPWT 201756Z AUTO 05006KT 20/M01 A2990 RMK AO2 SLP139 6//// T02001006 10200 20028 58007 PWINO PNO $=
201903201656 METAR KPWT 201656Z AUTO 05005KT 10SM CLR 17/01 A2991 RMK AO2 SLP144 T01720006=
201903201556 METAR KPWT 201556Z AUTO 03004KT 10SM CLR 14/01 A2992 RMK AO2 SLP147 T01390011=
201903201456 METAR KPWT 201456Z AUTO 00000KT 10SM CLR 05/M01 A2992 RMK AO2 SLP150 T00501006 58002=
201903201356 METAR KPWT 201356Z AUTO 00000KT 10SM CLR 04/M02 A2992 RMK AO2 SLP151 T00441022=
201903201256 METAR KPWT 201256Z AUTO 00000KT 10SM CLR 08/M03 A2992 RMK AO2 SLP148 T00781028=
201903201156 METAR KPWT 201156Z AUTO 04004KT 10SM CLR 10/M02 A2992 RMK AO2 SLP147 T01001022 10133 20033 58006=
201903201056 METAR KPWT 201056Z AUTO 04004KT 10SM CLR 04/M02 A2993 RMK AO2 SLP150 T00391017=
201903200956 METAR KPWT 200956Z AUTO 00000KT 10SM CLR 05/M01 A2994 RMK AO2 SLP155 T00501011=
201903200856 METAR KPWT 200856Z AUTO 05005KT 10SM CLR 11/M03 A2994 RMK AO2 SLP154 T01061028 58006=
201903200756 METAR KPWT 200756Z AUTO 00000KT 10SM CLR 06/M01 A2996 RMK AO2 SLP161 T00611011 402560022=
201903200656 METAR KPWT 200656Z AUTO 00000KT 10SM CLR 08/M02 A2996 RMK AO2 SLP163 T00831022=
201903200556 METAR KPWT 200556Z AUTO 05006KT 10SM CLR 13/M03 A2996 RMK AO2 SLP161 T01331028 10250 20122 51008=
201903200456 METAR KPWT 200456Z AUTO 06004KT 10SM CLR 14/M03 A2996 RMK AO2 SLP159 T01391028=
201903200356 METAR KPWT 200356Z AUTO 04007KT 10SM CLR 16/M03 A2995 RMK AO2 SLP156 T01611028=
201903200256 METAR KPWT 200256Z AUTO 04008KT 10SM CLR 17/M02 A2994 RMK AO2 SLP155 T01721017 55006=
201903200156 METAR KPWT 200156Z AUTO 04008KT 10SM CLR 20/M01 A2993 RMK AO2 SLP154 T02001011=
201903200056 METAR KPWT 200056Z AUTO 05010KT 10SM CLR 24/M03 A2994 RMK AO2 SLP151 T02391028=
201903192356 METAR KPWT 192356Z AUTO 06008KT 10SM CLR 25/M03 A2996 RMK AO2 SLP158 T02501033 10256 20189 56021=
201903192256 METAR KPWT 192256Z AUTO 02004KT 10SM CLR 25/M03 A2998 RMK AO2 SLP166 T02501033=
201903192156 METAR KPWT 192156Z AUTO VRB03KT 10SM CLR 26/M02 A2999 RMK AO2 SLP172 T02561017=
201903192056 METAR KPWT 192056Z AUTO 00000KT 10SM CLR 23/M02 A3002 RMK AO2 SLP182 T02281022 58016=
201903191956 METAR KPWT 191956Z AUTO VRB04KT 10SM CLR 22/M02 A3004 RMK AO2 SLP190 T02221017=
201903191856 METAR KPWT 191856Z AUTO 27004KT 10SM CLR 21/M02 A3006 RMK AO2 SLP194 T02111017=
201903191756 METAR KPWT 191756Z AUTO 07005KT 10SM CLR 19/M03 A3007 RMK AO2 SLP197 T01891028 10189 20022 57000=
201903191656 METAR KPWT 191656Z AUTO 03006KT 10SM CLR 18/M02 A3007 RMK AO2 SLP198 T01781017=
201903191556 METAR KPWT 191556Z AUTO 03003KT 10SM CLR 15/M01 A3006 RMK AO2 SLP197 T01501011=
201903191456 METAR KPWT 191456Z AUTO VRB03KT 10SM CLR 09/M03 A3007 RMK AO2 SLP199 T00941028 56007=
201903191356 METAR KPWT 191356Z AUTO 02004KT 10SM CLR 04/M03 A3007 RMK AO2 SLP202 T00441028=
201903191256 METAR KPWT 191256Z AUTO 03004KT 10SM CLR 10/M04 A3008 RMK AO2 SLP202 T01001039=
201903191156 METAR KPWT 191156Z AUTO 02003KT 10SM CLR 10/M03 A3009 RMK AO2 SLP205 T01001033 10122 20033 56008=
201903191056 METAR KPWT 191056Z AUTO 04006KT 10SM CLR 08/M03 A3009 RMK AO2 SLP207 T00831028=
201903190956 METAR KPWT 190956Z AUTO 05006KT 10SM CLR 07/M02 A3010 RMK AO2 SLP211 T00721022=
201903190856 METAR KPWT 190856Z AUTO 00000KT 10SM CLR 06/M02 A3011 RMK AO2 SLP214 T00611017 50004=
201903190756 METAR KPWT 190756Z AUTO 00000KT 10SM CLR 06/M02 A3012 RMK AO2 SLP216 T00561017 402220044=
201903190656 METAR KPWT 190656Z AUTO 03003KT 10SM CLR 09/M02 A3011 RMK AO2 SLP212 T00941022=
201903190556 METAR KPWT 190556Z AUTO 03004KT 10SM CLR 11/M02 A3010 RMK AO2 SLP210 T01061017 10222 20106 50004=
201903190456 METAR KPWT 190456Z AUTO 00000KT 10SM CLR 13/M01 A3010 RMK AO2 SLP211 T01331011=
201903190356 METAR KPWT 190356Z AUTO 05005KT 10SM CLR 14/01 A3010 RMK AO2 SLP209 T01390011=
201903190256 METAR KPWT 190256Z AUTO 08003KT 10SM CLR 16/02 A3009 RMK AO2 SLP207 T01560017 56004=
201903190156 METAR KPWT 190156Z AUTO 05006KT 10SM CLR 19/02 A3009 RMK AO2 SLP206 T01890017=
201903190056 METAR KPWT 190056Z AUTO 05005KT 10SM CLR 21/00 A3009 RMK AO2 SLP207 T02110000=
201903182356 METAR KPWT 182356Z AUTO 02008KT 10SM CLR 22/M01 A3010 RMK AO2 SLP208 T02221006 10222 20161 56016=
201903182256 METAR KPWT 182256Z AUTO 03011G20KT 350V060 10SM CLR 22/M01 A3011 RMK AO2 SLP213 T02221006=
201903182156 METAR KPWT 182156Z AUTO 35006G15KT 10SM CLR 22/M01 A3013 RMK AO2 SLP219 T02171011=
201903181956 METAR KPWT 181956Z AUTO 03012KT 10SM CLR 20/01 A3016 RMK AO2 SLP231 T02000006=
201903181856 METAR KPWT 181856Z AUTO 03011G17KT 10SM CLR 18/02 A3018 RMK AO2 SLP235 T01830022=
201903181756 METAR KPWT 181756Z AUTO 04010KT 10SM CLR 16/03 A3019 RMK AO2 SLP243 T01610028 10161 20083 50000=
201903181656 METAR KPWT 181656Z AUTO 04009KT 10SM CLR 13/03 A3020 RMK AO2 SLP245 T01330033=
201903181556 METAR KPWT 181556Z AUTO 06008KT 10SM CLR 11/03 A3020 RMK AO2 SLP246 T01110028=
201903181456 METAR KPWT 181456Z AUTO 03008KT 10SM CLR 09/03 A3019 RMK AO2 SLP244 T00940028 58003=
201903181356 METAR KPWT 181356Z AUTO 05010KT 10SM CLR 09/03 A3020 RMK AO2 SLP245 T00890028=
201903181256 METAR KPWT 181256Z AUTO 04010KT 10SM CLR 09/03 A3021 RMK AO2 SLP246 T00890028=
201903181156 METAR KPWT 181156Z AUTO 03014G18KT 10SM CLR 10/03 A3020 RMK AO2 SLP245 7//// T01000028 10117 20094 56008=
201903181056 METAR KPWT 181056Z AUTO 04017KT 10SM CLR 11/03 A3021 RMK AO2 SLP246 T01060033=
201903180956 METAR KPWT 180956Z AUTO 05010KT 10SM CLR 11/03 A3022 RMK AO2 SLP250 T01060028=
201903180856 METAR KPWT 180856Z AUTO 04012KT 10SM CLR 11/03 A3023 RMK AO2 SLP253 T01110028 56003=
201903180756 METAR KPWT 180756Z AUTO 04009KT 10SM CLR 11/03 A3023 RMK AO2 SLP255 T01110033 401830039=
201903180656 METAR KPWT 180656Z AUTO 05011KT 10SM CLR 12/04 A3023 RMK AO2 SLP256 T01170039=
201903180556 METAR KPWT 180556Z AUTO 03005KT 10SM CLR 09/04 A3024 RMK AO2 SLP259 6//// T00940039 10183 20094 53003=
201903180456 METAR KPWT 180456Z AUTO 05009KT 10SM CLR 11/03 A3024 RMK AO2 SLP258 T01110033=
201903180356 METAR KPWT 180356Z AUTO 05009KT 10SM CLR 12/04 A3023 RMK AO2 SLP256 T01170039=
201903180256 METAR KPWT 180256Z AUTO 05010KT 10SM CLR 13/04 A3023 RMK AO2 SLP256 T01280039 56004=
201903180156 METAR KPWT 180156Z AUTO 05008KT 10SM CLR 14/03 A3023 RMK AO2 SLP257 T01440033=
201903180056 METAR KPWT 180056Z AUTO 04010KT 10SM CLR 17/04 A3023 RMK AO2 SLP257 T01720044=
201903172356 METAR KPWT 172356Z AUTO 04009KT 10SM CLR 18/04 A3024 RMK AO2 SLP260 T01780044 10183 20111 56012=
201903172256 METAR KPWT 172256Z AUTO 05011KT 10SM CLR 18/04 A3025 RMK AO2 SLP263 T01780039=
201903172156 METAR KPWT 172156Z AUTO 03008KT 10SM CLR 17/05 A3026 RMK AO2 SLP266 T01720050=
201903172056 METAR KPWT 172056Z AUTO 05011G16KT 10SM CLR 16/05 A3028 RMK AO2 SLP272 T01610050 58015=
201903171956 METAR KPWT 171956Z AUTO 06013KT 10SM CLR 14/05 A3030 RMK AO2 SLP278 T01440050=
201903171856 METAR KPWT 171856Z AUTO 04008KT 10SM CLR 13/05 A3031 RMK AO2 SLP285 T01330050=
201903171756 METAR KPWT 171756Z AUTO 04009KT 10SM CLR 11/05 A3032 RMK AO2 SLP289 T01110050 10111 20039 51006=
201903171656 METAR KPWT 171656Z AUTO 04010G15KT 10SM CLR 09/04 A3032 RMK AO2 SLP287 T00940044=
201903171556 METAR KPWT 171556Z AUTO 06008KT 10SM CLR 07/04 A3032 RMK AO2 SLP285 T00720039=
201903171456 METAR KPWT 171456Z AUTO 00000KT 10SM CLR 04/02 A3030 RMK AO2 SLP282 T00390022 51006=
201903171356 METAR KPWT 171356Z AUTO 00000KT 10SM CLR 06/03 A3030 RMK AO2 SLP281 T00560028=
201903171256 METAR KPWT 171256Z AUTO 06005KT 10SM CLR 06/03 A3030 RMK AO2 SLP280 T00610028=
201903171156 METAR KPWT 171156Z AUTO 05009KT 10SM CLR 07/03 A3029 RMK AO2 SLP276 7//// T00670028 10089 20061 50001=
201903171056 METAR KPWT 171056Z AUTO 06004KT 10SM CLR 07/03 A3029 RMK AO2 SLP277 T00670028=
201903170956 METAR KPWT 170956Z AUTO 05007KT 10SM CLR 08/03 A3029 RMK AO2 SLP276 T00780028=
201903170856 METAR KPWT 170856Z AUTO 05005KT 10SM CLR 07/03 A3028 RMK AO2 SLP275 T00670028 51005=
201903170756 METAR KPWT 170756Z AUTO 06007KT 10SM CLR 08/03 A3028 RMK AO2 SLP273 T00780033 401720061=
201903170656 METAR KPWT 170656Z AUTO 04005KT 10SM CLR 08/03 A3028 RMK AO2 SLP275 T00780028=
201903170556 METAR KPWT 170556Z AUTO 06006KT 10SM CLR 08/03 A3027 RMK AO2 SLP271 T00830028 10150 20078 51003=
201903170456 METAR KPWT 170456Z AUTO 03006KT 10SM CLR 08/03 A3027 RMK AO2 SLP269 T00830033=
201903170356 METAR KPWT 170356Z AUTO 04003KT 10SM CLR 09/04 A3027 RMK AO2 SLP269 T00940039=
201903170256 METAR KPWT 170256Z AUTO 06005KT 10SM CLR 11/04 A3026 RMK AO2 SLP266 T01110039 53001=
201903170156 METAR KPWT 170156Z AUTO 07004KT 10SM CLR 12/05 A3026 RMK AO2 SLP267 T01220050=
201903170056 METAR KPWT 170056Z AUTO 08006KT 10SM CLR 13/05 A3026 RMK AO2 SLP266 T01330050=
201903162356 METAR KPWT 162356Z AUTO 05008KT 10SM CLR 15/04 A3026 RMK AO2 SLP266 T01500044 10172 20106 56003=
201903162256 METAR KPWT 162256Z AUTO 05008KT 10SM CLR 16/04 A3026 RMK AO2 SLP265 T01610044=
201903162156 METAR KPWT 162156Z AUTO 00000KT 10SM CLR 17/04 A3026 RMK AO2 SLP264 T01720039=
201903162056 METAR KPWT 162056Z AUTO VRB04KT 10SM CLR 15/04 A3027 RMK AO2 SLP268 T01500044 58007=
201903161956 METAR KPWT 161956Z AUTO 00000KT 10SM CLR 14/03 A3028 RMK AO2 SLP273 T01390028=
201903161856 METAR KPWT 161856Z AUTO VRB04KT 10SM CLR 13/02 A3028 RMK AO2 SLP274 T01280022=
201903161756 METAR KPWT 161756Z AUTO VRB05KT 10SM CLR 10/04 A3029 RMK AO2 SLP277 6//// T01000044 10100 20061 51004=
201903161656 METAR KPWT 161656Z AUTO 05005KT 10SM CLR 08/04 A3029 RMK AO2 SLP275 T00830039=
201903161556 METAR KPWT 161556Z AUTO 00000KT 10SM CLR 07/04 A3029 RMK AO2 SLP275 T00720039=
201903161456 METAR KPWT 161456Z AUTO 06007KT 10SM CLR 06/03 A3027 RMK AO2 SLP271 6//// T00610033 51004=
201903161356 METAR KPWT 161356Z AUTO 05007KT 10SM CLR 06/03 A3027 RMK AO2 SLP270 T00610028=
201903161256 METAR KPWT 161256Z AUTO 05010KT 10SM CLR 07/03 A3027 RMK AO2 SLP269 T00670028=
201903161056 METAR KPWT 161056Z AUTO 05006KT 10SM CLR 07/03 A3026 RMK AO2 SLP266 T00670028=
201903160956 METAR KPWT 160956Z AUTO 05006KT 10SM CLR 07/03 A3026 RMK AO2 SLP265 T00720028=
201903160856 METAR KPWT 160856Z AUTO 05004KT 10SM CLR 07/03 A3026 RMK AO2 SLP266 T00720028 56005=
201903160656 METAR KPWT 160656Z AUTO 06004KT 10SM CLR 08/03 A3027 RMK AO2 SLP270 T00780028=
201903160556 METAR KPWT 160556Z AUTO 04007KT 10SM CLR 08/03 A3027 RMK AO2 SLP272 6//// T00830028 10139 20083 50000=
201903160456 METAR KPWT 160456Z AUTO 05009KT 10SM CLR 08/03 A3027 RMK AO2 SLP270 T00830033=
201903160356 METAR KPWT 160356Z AUTO 04008KT 10SM CLR 09/04 A3027 RMK AO2 SLP271 T00890039=
201903160256 METAR KPWT 160256Z AUTO 05004KT 10SM CLR 09/04 A3027 RMK AO2 SLP270 T00890039 55005=
201903160156 METAR KPWT 160156Z AUTO 03007KT 10SM CLR 11/04 A3027 RMK AO2 SLP267 T01110044=
201903160056 METAR KPWT 160056Z AUTO 04009KT 10SM CLR 13/04 A3028 RMK AO2 SLP273 T01280044=
201903152356 METAR KPWT 152356Z AUTO 04006KT 10SM CLR 14/04 A3029 RMK AO2 SLP276 T01390044 10156 20100 56014=
201903152256 METAR KPWT 152256Z AUTO 07007KT 10SM FEW075 14/04 A3030 RMK AO2 SLP279 T01440039=
201903152156 METAR KPWT 152156Z AUTO 00000KT 10SM CLR 15/04 A3031 RMK AO2 SLP282 T01500039=
201903152056 METAR KPWT 152056Z AUTO VRB03KT 10SM CLR 15/04 A3033 RMK AO2 SLP291 T01500039 58015=
201903151956 METAR KPWT 151956Z AUTO 00000KT 10SM CLR 14/04 A3035 RMK AO2 SLP295 T01440039=
201903151856 METAR KPWT 151856Z AUTO 04003KT 10SM CLR 12/04 A3036 RMK AO2 SLP299 T01220039=
201903151756 METAR KPWT 151756Z AUTO 00000KT 10SM CLR 10/04 A3037 RMK AO2 SLP304 6//// T01000044 10100 20000 58003=
201903151656 METAR KPWT 151656Z AUTO 03004KT 10SM CLR 08/04 A3038 RMK AO2 SLP307 T00830044=
201903151556 METAR KPWT 151556Z AUTO 05006KT 10SM OVC060 07/04 A3038 RMK AO2 SLP307 T00670039=
201903151456 METAR KPWT 151456Z AUTO 00000KT 10SM BKN060 00/00 A3038 RMK AO2 SLP307 6//// T00000000 51003 FZRANO=
201903151356 METAR KPWT 151356Z AUTO 00000KT 10SM CLR 01/00 A3038 RMK AO2 SLP307 T00060000 FZRANO=
201903151256 METAR KPWT 151256Z AUTO 00000KT 10SM SCT048 01/01 A3038 RMK AO2 SLP305 T00110006 FZRANO=
201903151156 METAR KPWT 151156Z AUTO 00000KT 10SM SCT042 01/01 A3037 RMK AO2 SLP305 6//// 7//// T00110006 10072 20011 58003 FZRANO=
201903151056 METAR KPWT 151056Z AUTO 00000KT 10SM CLR 02/01 A3038 RMK AO2 SLP309 T00170011 FZRANO=
201903150956 METAR KPWT 150956Z AUTO 00000KT 10SM SCT045 BKN075 02/01 A3038 RMK AO2 SLP308 T00220011 FZRANO=
201903150856 METAR KPWT 150856Z AUTO 00000KT 10SM FEW070 03/02 A3038 RMK AO2 SLP308 T00330017=
201903150756 METAR KPWT 150756Z AUTO 00000KT 10SM BKN060 03/02 A3038 RMK AO2 SLP306 T00330017 401220006=
201903150656 METAR KPWT 150656Z AUTO 10SM OVC100 05/03 RMK AO2 SLPNO T00500033 $=
201903150556 METAR KPWT 150556Z AUTO 00000KT 10SM BKN070 OVC110 07/03 A3037 RMK AO2 SLP305 60000 T00670028 10122 20067 50007=
201903150456 METAR KPWT 150456Z AUTO 21005KT 10SM OVC065 08/02 A3037 RMK AO2 SLP306 T00780022=
201903150356 METAR KPWT 150356Z AUTO 22005KT 10SM SCT048 SCT100 08/03 A3036 RMK AO2 RAE06 SLP300 P0000 T00780028=
201903150256 METAR KPWT 150256Z AUTO 20004KT 10SM -RA FEW060 08/03 A3035 RMK AO2 RAB01 SLP297 P0000 60000 T00830033 53002=
201903150156 METAR KPWT 150156Z AUTO 23010KT 10SM FEW060 09/03 A3035 RMK AO2 SLP296 T00940033=
201903150056 METAR KPWT 150056Z AUTO 21008KT 10SM OVC100 11/03 A3034 RMK AO2 SLP293 T01060028=
201903142356 METAR KPWT 142356Z AUTO 21011KT 10SM FEW038 SCT060 12/03 A3035 RMK AO2 SLP296 T01220033 10122 20072 56007=
201903142256 METAR KPWT 142256Z AUTO 19008KT 10SM CLR 11/02 A3036 RMK AO2 SLP297 T01110022=
201903142156 METAR KPWT 142156Z AUTO 20008G15KT 10SM BKN065 12/03 A3035 RMK AO2 SLP296 T01170028=
201903142056 METAR KPWT 142056Z AUTO 21008KT 10SM CLR 11/02 A3037 RMK AO2 SLP302 T01110022=
201903141956 METAR KPWT 141956Z AUTO 20008KT 10SM CLR 11/02 A3039 RMK AO2 SLP311 T01060022=
201903141856 METAR KPWT 141856Z AUTO 22008KT 10SM CLR 09/03 RMK AO2 SLPNO T00890028 $=
201903141756 METAR KPWT 141756Z AUTO 22003KT 10SM CLR 07/03 A3040 RMK AO2 SLP313 6//// T00720033 10072 20006 50006=
201903141656 METAR KPWT 141656Z AUTO 00000KT 10SM CLR 05/03 A3040 RMK AO2 SLP315 T00500028=
201903141556 METAR KPWT 141556Z AUTO 00000KT 10SM CLR 03/03 A3039 RMK AO2 SLP310 T00330028=
201903141356 METAR KPWT 141356Z AUTO 00000KT 9SM FEW110 01/00 A3038 RMK AO2 SLP307 T00060000 FZRANO=
201903141256 METAR KPWT 141256Z AUTO 00000KT 10SM OVC110 01/01 A3039 RMK AO2 SLP309 T00060006 FZRANO=
201903141156 METAR KPWT 141156Z AUTO 00000KT 10SM FEW110 01/01 A3039 RMK AO2 SLP311 7//// T00110006 10022 20006 FZRANO=
201903141056 METAR KPWT 141056Z AUTO 00000KT 10SM SCT110 01/01 A3040 RMK AO2 SLP312 T00110006 FZRANO=
201903140956 METAR KPWT 140956Z AUTO 00000KT 10SM CLR 01/00 RMK AO2 SLPNO T00060000 FZRANO $=
201903140856 METAR KPWT 140856Z AUTO 00000KT 10SM FEW120 01/01 A3041 RMK AO2 SLP316 T00110006 51007 FZRANO=
201903140756 METAR KPWT 140756Z AUTO 00000KT 10SM CLR 02/01 A3040 RMK AO2 SLP314 T00220011 401111028 FZRANO=
201903140656 METAR KPWT 140656Z AUTO 23003KT 10SM CLR 01/00 A3039 RMK AO2 SLP313 T00110000 FZRANO=
201903140556 METAR KPWT 140556Z AUTO 00000KT 10SM FEW044 01/00 A3039 RMK AO2 SLP309 T00060000 10106 20006 53008 FZRANO=
201903140456 METAR KPWT 140456Z AUTO 00000KT 10SM CLR 02/01 A3038 RMK AO2 SLP305 T00170006 FZRANO=
201903140356 METAR KPWT 140356Z AUTO 00000KT 10SM CLR 03/01 A3037 RMK AO2 SLP303 T00280006=
201903140256 METAR KPWT 140256Z AUTO 00000KT 10SM BKN043 BKN050 07/02 A3036 RMK AO2 SLP301 T00670022 53009=
201903140156 METAR KPWT 140156Z AUTO 00000KT 10SM SCT046 08/02 A3034 RMK AO2 SLP295 T00780017=
201903140056 METAR KPWT 140056Z AUTO 07004KT 10SM BKN044 10/02 A3033 RMK AO2 SLP291 T01000017=
201903132356 METAR KPWT 132356Z AUTO 34006KT 10SM SCT043 10/02 A3033 RMK AO2 SLP291 T01000022 10111 20039 55001=
201903132256 METAR KPWT 132256Z AUTO 36004KT 10SM SCT043 10/01 A3033 RMK AO2 SLP289 T01000011=
201903132156 METAR KPWT 132156Z AUTO 01005KT 10SM OVC035 10/02 A3033 RMK AO2 SLP291 T01000022=
201903132056 METAR KPWT 132056Z AUTO 00000KT 10SM SCT024 08/02 A3034 RMK AO2 SLP293 T00830017 51008=
201903131956 METAR KPWT 131956Z AUTO 00000KT 10SM OVC019 07/02 A3033 RMK AO2 SLP292 T00720022=
201903131906 SPECI KPWT 131906Z AUTO 20003KT 10SM SCT011 OVC017 06/03 A3032 RMK AO2=
201903131856 METAR KPWT 131856Z AUTO VRB03KT 10SM BKN009 OVC015 06/03 A3032 RMK AO2 SLP286 T00610028=
201903131805 SPECI KPWT 131805Z AUTO 19003KT 10SM OVC006 04/04 A3031 RMK AO2=
201903131756 METAR KPWT 131756Z AUTO 00000KT 10SM OVC004 04/04 A3031 RMK AO2 CIG 002V007 SLP283 6//// T00390039 10039 21022 51027=
201903131748 SPECI KPWT 131748Z AUTO 00000KT 10SM OVC004 04/03 A3031 RMK AO2 CIG 002V007=
201903131735 SPECI KPWT 131735Z AUTO 00000KT 9SM OVC002 04/04 A3030 RMK AO2 CIG 002V006=
201903131724 SPECI KPWT 131724Z AUTO 00000KT 1SM BR OVC002 03/03 A3030 RMK AO2=
201903131714 SPECI KPWT 131714Z AUTO 00000KT 1/2SM FG OVC002 03/03 RMK AO2 $=
201903131656 METAR KPWT 131656Z AUTO 00000KT 1/4SM FG OVC002 02/02 A3029 RMK AO2 SLP275 T00220022 FZRANO=
201903131556 METAR KPWT 131556Z AUTO 00000KT M1/4SM FG OVC002 01/00 A3026 RMK AO2 SLP266 T00060000 FZRANO=
201903131456 METAR KPWT 131456Z AUTO 00000KT M1/4SM FG OVC002 00/M01 A3023 RMK AO2 SLP256 6//// T00001006 53025 FZRANO=
201903131404 SPECI KPWT 131404Z AUTO 00000KT 1/4SM FZFG OVC002 M01/M01 A3021 RMK AO2 FZRANO=
201903131356 METAR KPWT 131356Z AUTO 00000KT 1/2SM FZFG OVC002 M01/M01 A3020 RMK AO2 SLP247 T10111011 FZRANO=
201903131346 SPECI KPWT 131346Z AUTO 00000KT 1/2SM FZFG OVC002 M01/M01 A3020 RMK AO2 FZRANO=
201903131337 SPECI KPWT 131337Z AUTO 00000KT 1/4SM FZFG OVC002 M01/M01 A3020 RMK AO2 FZRANO=
201903131328 SPECI KPWT 131328Z AUTO 00000KT 1/2SM FZFG OVC002 M01/M02 A3020 RMK AO2 FZRANO=
201903131312 SPECI KPWT 131312Z AUTO 00000KT 3/4SM BR BKN002 M02/M02 A3019 RMK AO2 FZRANO=
201903131302 SPECI KPWT 131302Z AUTO 00000KT 1 3/4SM BR BKN002 M02/M02 A3018 RMK AO2 FZRANO=
201903131256 METAR KPWT 131256Z AUTO 00000KT 4SM BR BKN002 M02/M02 A3018 RMK AO2 SLP238 T10171022 FZRANO=
201903131253 SPECI KPWT 131253Z AUTO 2SM BR BKN002 M02/M02 RMK AO2 FZRANO $=
201903131248 SPECI KPWT 131248Z AUTO 13003KT 1SM BR BKN002 M02/M02 A3017 RMK AO2 FZRANO=
201903131236 SPECI KPWT 131236Z AUTO 00000KT 1/2SM FZFG OVC002 M02/M02 A3017 RMK AO2 FZRANO=
201903131156 METAR KPWT 131156Z AUTO 00000KT 1/4SM FZFG OVC002 M01/M01 A3016 RMK AO2 SLP232 6//// 7//// T10111011 10017 21028 51021 FZRANO=
201903131110 SPECI KPWT 131110Z AUTO 00000KT 1/4SM FZFG OVC002 M01/M01 A3014 RMK AO2 FZRANO=
201903131056 METAR KPWT 131056Z AUTO 00000KT 1/2SM FZFG OVC002 M01/M01 A3014 RMK AO2 SLP226 T10111011 FZRANO=
201903131030 SPECI KPWT 131030Z AUTO 00000KT 1/2SM FZFG BKN002 M01/M02 A3013 RMK AO2 FZRANO=
201903131027 SPECI KPWT 131027Z AUTO 00000KT 1SM BR BKN002 M02/M02 A3013 RMK AO2 FZRANO=
201903131020 SPECI KPWT 131020Z AUTO 00000KT 2 1/2SM BR BKN002 M02/M02 A3013 RMK AO2 FZRANO=
201903131013 SPECI KPWT 131013Z AUTO 00000KT 1SM BR VV002 M03/M03 A3013 RMK AO2 VIS 1/2V2 1/2 FZRANO=
201903131007 SPECI KPWT 131007Z AUTO 00000KT 1/2SM FZFG CLR M03/M03 A3012 RMK AO2 FZRANO=
201903130959 SPECI KPWT 130959Z AUTO 00000KT 3/4SM BR CLR M02/M03 A3012 RMK AO2 VIS 1/2V4 FZRANO=
201903130956 METAR KPWT 130956Z AUTO 00000KT 1 1/2SM BR CLR M02/M03 A3012 RMK AO2 VIS 1/2V5 SLP219 T10221028 FZRANO=
201903130929 SPECI KPWT 130929Z AUTO 13004KT 10SM CLR M02/M02 A3011 RMK AO2 FZRANO=
201903130921 SPECI KPWT 130921Z AUTO 00000KT 2SM BR CLR M02/M02 A3011 RMK AO2 VIS 1V5 FZRANO=
201903130916 SPECI KPWT 130916Z AUTO 00000KT 1SM BR VV001 M02/M03 RMK AO2 FZRANO $=
201903130911 SPECI KPWT 130911Z AUTO 00000KT 1/2SM FZFG VV001 M02/M02 A3010 RMK AO2 FZRANO=
201903130856 METAR KPWT 130856Z AUTO 00000KT 1/4SM FZFG BKN001 M02/M02 A3010 RMK AO2 SLP209 6//// T10171017 53019 FZRANO=
201903130825 SPECI KPWT 130825Z AUTO 00000KT 1/4SM FZFG OVC001 M01/M01 A3008 RMK AO2 FZRANO=
201903130817 SPECI KPWT 130817Z AUTO 00000KT 1/2SM FZFG BKN001 M02/M02 A3008 RMK AO2 FZRANO=
201903130815 SPECI KPWT 130815Z AUTO 00000KT 1SM BR BKN001 M02/M02 A3008 RMK AO2 FZRANO=
201903130813 SPECI KPWT 130813Z AUTO 00000KT 2SM BR BKN001 M02/M02 A3008 RMK AO2 FZRANO=
201903130805 SPECI KPWT 130805Z AUTO 00000KT 4SM BR SCT001 M02/M02 A3008 RMK AO2 FZRANO=
201903130801 SPECI KPWT 130801Z AUTO 00000KT 1 1/4SM BR FEW001 M01/M02 A3007 RMK AO2 FZRANO=
201903130756 METAR KPWT 130756Z AUTO 00000KT 3/4SM BR CLR M01/M02 A3007 RMK AO2 SLP202 T10111017 400891011 FZRANO=
201903130749 SPECI KPWT 130749Z AUTO 00000KT 3/4SM BR CLR M01/M02 A3007 RMK AO2 VIS 1/4V4 FZRANO=
201903130744 SPECI KPWT 130744Z AUTO 00000KT 1 1/2SM BR CLR M01/M02 A3007 RMK AO2 VIS 1/4V5 FZRANO=
201903130656 METAR KPWT 130656Z AUTO 00000KT 10SM CLR M01/M01 A3006 RMK AO2 SLP196 T10061011 FZRANO=
201903130556 METAR KPWT 130556Z AUTO 02003KT 10SM CLR 01/01 A3004 RMK AO2 SLP190 6//// T00110006 10072 20011 51027 FZRANO=
201903130456 METAR KPWT 130456Z AUTO 00000KT 10SM SCT038 BKN050 03/02 A3001 RMK AO2 SLP181 T00330022=
201903130428 SPECI KPWT 130428Z AUTO 00000KT 10SM FEW026 OVC036 04/03 A3000 RMK AO2=
201903130356 METAR KPWT 130356Z AUTO 00000KT 10SM OVC029 02/01 A2999 RMK AO2 SLP172 T00220011 FZRANO=
201903130256 METAR KPWT 130256Z AUTO 12003KT 10SM OVC033 05/02 A2996 RMK AO2 SLP164 T00500022 53018=
201903130156 METAR KPWT 130156Z AUTO 10004KT 10SM FEW031 BKN041 06/02 A2994 RMK AO2 SLP157 T00560017=
201903130129 SPECI KPWT 130129Z AUTO 09004KT 10SM BKN031 BKN035 OVC050 07/02 A2993 RMK AO2=
201903130112 SPECI KPWT 130112Z AUTO 09005KT 10SM BKN029 BKN034 OVC043 07/03 A2992 RMK AO2=
201903130056 METAR KPWT 130056Z AUTO 05005KT 10SM FEW027 BKN033 OVC043 07/03 A2992 RMK AO2 SLP150 T00720028=
201903122356 METAR KPWT 122356Z AUTO 14004KT 10SM FEW036 SCT043 SCT095 08/03 A2990 RMK AO2 SLP144 T00830028 10083 20044 53007=
201903122256 METAR KPWT 122256Z AUTO 14006KT 10SM SCT036 07/03 A2989 RMK AO2 SLP142 T00720028=
201903122209 SPECI KPWT 122209Z AUTO 07007KT 10SM SCT023 BKN031 OVC040 07/04 A2989 RMK AO2=
201903122156 METAR KPWT 122156Z AUTO 05008KT 10SM BKN021 OVC029 07/04 A2988 RMK AO2 SLP138 T00670039=
201903122113 SPECI KPWT 122113Z AUTO 09007KT 10SM SCT014 BKN029 07/04 A2988 RMK AO2=
201903122105 SPECI KPWT 122105Z AUTO 09005KT 10SM BKN014 BKN037 07/03 A2988 RMK AO2=
201903122056 METAR KPWT 122056Z AUTO 04006KT 10SM SCT014 BKN025 BKN037 07/04 A2988 RMK AO2 SLP138 T00670039 51008=
201903121956 METAR KPWT 121956Z AUTO VRB04KT 10SM SCT013 BKN029 BKN039 07/03 A2988 RMK AO2 SLP137 T00670028=
201903121939 SPECI KPWT 121939Z AUTO 17004KT 10SM FEW008 SCT029 BKN038 06/03 A2988 RMK AO2=
201903121909 SPECI KPWT 121909Z AUTO 15004KT 10SM FEW007 BKN015 OVC023 05/03 A2987 RMK AO2=
201903121856 METAR KPWT 121856Z AUTO 12003KT 10SM BKN007 OVC015 04/03 A2988 RMK AO2 CIG 005V011 SLP136 T00440033=
201903121845 SPECI KPWT 121845Z AUTO VRB03KT 10SM BKN007 OVC010 04/03 A2987 RMK AO2 CIG 005V008=
201903121825 SPECI KPWT 121825Z AUTO 00000KT 10SM OVC005 04/03 A2986 RMK AO2 CIG 002V008=
201903121809 SPECI KPWT 121809Z AUTO 00000KT 10SM OVC003 03/03 A2986 RMK AO2=
201903121756 METAR KPWT 121756Z AUTO 08003KT 8SM OVC001 03/03 A2986 RMK AO2 SLP128 6//// T00330028 10033 20011 53014=
201903121750 SPECI KPWT 121750Z AUTO 00000KT 3SM BR OVC001 03/03 A2986 RMK AO2=
201903121748 SPECI KPWT 121748Z AUTO 10003KT 1 1/4SM BR OVC001 03/03 A2986 RMK AO2 VIS 1/2V5=
201903121733 SPECI KPWT 121733Z AUTO VRB03KT 3/4SM BR OVC001 03/02 A2985 RMK AO2 VIS 1/4V5=
201903121720 SPECI KPWT 121720Z AUTO 20003KT 1/4SM FG OVC001 03/02 A2985 RMK AO2=
201903121712 SPECI KPWT 121712Z AUTO 00000KT 3/4SM BR OVC001 02/02 A2985 RMK AO2 FZRANO=
201903121656 METAR KPWT 121656Z AUTO 20005KT 1/4SM FG OVC001 02/02 A2984 RMK AO2 SLP123 T00220022 FZRANO=
201903121606 SPECI KPWT 121606Z AUTO 23005KT 1/4SM FG BKN001 02/02 A2982 RMK AO2 FZRANO=
201903121600 SPECI KPWT 121600Z AUTO 22006KT 3/4SM BR BKN001 02/02 A2982 RMK AO2 FZRANO=
201903121558 SPECI KPWT 121558Z AUTO 22005KT 1 1/2SM BR BKN001 02/02 A2982 RMK AO2 VIS 1/2V5 FZRANO=
201903121556 METAR KPWT 121556Z AUTO 23004KT 4SM BR BKN001 02/02 A2982 RMK AO2 SLP115 T00220022 FZRANO=
201903121554 SPECI KPWT 121554Z AUTO 23004KT 5SM BR SCT001 02/02 A2982 RMK AO2 FZRANO=
201903121547 SPECI KPWT 121547Z AUTO 22003KT 2 1/2SM BR FEW001 SCT018 02/02 A2982 RMK AO2 FZRANO=
201903121545 SPECI KPWT 121545Z AUTO 00000KT 1SM BR FEW001 SCT018 02/02 A2982 RMK AO2 FZRANO=
201903121541 SPECI KPWT 121541Z AUTO 00000KT 1/2SM FG FEW001 SCT018 01/01 A2981 RMK AO2 FZRANO=
201903121536 SPECI KPWT 121536Z AUTO 19003KT 1/4SM FG FEW001 BKN018 01/01 A2981 RMK AO2 FZRANO=
201903121522 SPECI KPWT 121522Z AUTO 21003KT 1/2SM FG FEW001 OVC018 01/01 A2981 RMK AO2 FZRANO=
201903121513 SPECI KPWT 121513Z AUTO 00000KT 3/4SM BR FEW001 BKN018 02/01 A2980 RMK AO2 FZRANO=
201903121509 SPECI KPWT 121509Z AUTO 00000KT 1 1/2SM BR FEW001 OVC018 02/01 A2980 RMK AO2 FZRANO=
201903121506 SPECI KPWT 121506Z AUTO 00000KT 3SM BR SCT001 OVC018 02/01 A2980 RMK AO2 FZRANO=
201903121456 METAR KPWT 121456Z AUTO 00000KT 6SM BR BKN001 BKN020 02/02 A2979 RMK AO2 SLP107 P0001 60002 T00220017 FZRANO=
201903121445 SPECI KPWT 121445Z AUTO 00000KT 6SM BR BKN001 OVC020 02/02 A2980 RMK AO2 P0001 FZRANO=
201903121436 SPECI KPWT 121436Z AUTO 00000KT 7SM SCT001 OVC020 02/02 A2979 RMK AO2 P0001 FZRANO=
201903121356 METAR KPWT 121356Z AUTO 00000KT 8SM OVC022 02/02 RMK AO2 RAE14 SLPNO P0000 T00220017 FZRANO $=
201903121256 METAR KPWT 121256Z AUTO 00000KT 10SM -RA FEW002 OVC022 02/02 A2977 RMK AO2 UPB42E50 SLP101 P0001 T00220017 FZRANO=
201903121242 SPECI KPWT 121242Z AUTO 04004KT 10SM UP FEW002 OVC024 02/02 A2976 RMK AO2 RAE42UPB42 P0001 FZRANO=
201903121156 METAR KPWT 121156Z AUTO 06004KT 10SM -RA FEW019 OVC028 02/02 A2975 RMK AO2 SLP092 P0004 60034 7//// T00220017 10022 20017 56008 FZRANO=
201903121145 SPECI KPWT 121145Z AUTO 00000KT 7SM -RA SCT008 BKN020 OVC028 02/02 RMK AO2 P0003 FZRANO $=
201903121056 METAR KPWT 121056Z AUTO 00000KT 7SM RA BKN008 BKN012 OVC017 02/02 A2976 RMK AO2 CIG 007V010 SLP097 P0007 T00170017 FZRANO=
201903121053 SPECI KPWT 121053Z AUTO 03003KT 7SM RA BKN010 OVC017 02/02 A2976 RMK AO2 CIG 007V014 P0006 FZRANO=
201903120956 METAR KPWT 120956Z AUTO 7SM -RA SCT012 BKN017 OVC025 02/02 A2977 RMK AO2 SLP100 P0006 T00220022 FZRANO=
201903120856 METAR KPWT 120856Z AUTO 00000KT 10SM -RA OVC010 02/02 A2979 RMK AO2 SLP107 P0006 60017 T00220017 56030 FZRANO=
201903120824 SPECI KPWT 120824Z AUTO 25004KT 10SM -RA OVC010 02/02 A2981 RMK AO2 CIG 007V012 P0003 FZRANO=
201903120756 METAR KPWT 120756Z AUTO 10SM -RA FEW004 OVC008 02/02 A2982 RMK AO2 CIG 006V011 SLP115 P0005 T00220017 400831044 FZRANO=
201903120735 SPECI KPWT 120735Z AUTO 24004KT 10SM -RA FEW004 OVC010 02/02 A2983 RMK AO2 CIG 007V013 P0003 FZRANO=
201903120656 METAR KPWT 120656Z AUTO 23004KT 10SM -RA OVC010 02/02 A2985 RMK AO2 SLP127 P0006 T00220017 FZRANO=
201903120556 METAR KPWT 120556Z AUTO 23006KT 10SM -RA OVC014 02/02 A2988 RMK AO2 SLP139 P0006 60016 T00220017 10078 20022 58019 FZRANO=
201903120534 SPECI KPWT 120534Z AUTO 23006KT 10SM -RA FEW005 OVC014 03/02 A2990 RMK AO2 P0004=
201903120526 SPECI KPWT 120526Z AUTO 22006KT 9SM -RA OVC014 03/02 A2990 RMK AO2 P0003=
201903120504 SPECI KPWT 120504Z AUTO 23008KT 9SM -RA FEW004 OVC016 03/02 A2991 RMK AO2 P0001=
201903120456 METAR KPWT 120456Z AUTO 23010KT 8SM -RA SCT004 BKN011 OVC018 03/02 A2991 RMK AO2 SLP147 P0007 T00280022=
201903120429 SPECI KPWT 120429Z AUTO 23008KT 9SM -RA OVC004 03/02 A2992 RMK AO2 P0003=
201903120356 METAR KPWT 120356Z AUTO 23010KT 9SM -RA OVC008 03/02 A2993 RMK AO2 CIG 006V011 SLP152 P0002 T00330022=
201903120338 SPECI KPWT 120338Z AUTO 23010KT 10SM -RA BKN008 BKN014 OVC033 03/03 A2993 RMK AO2 CIG 006V011 P0001=
201903120319 SPECI KPWT 120319Z AUTO 23009KT 10SM -RA SCT008 BKN012 OVC035 03/03 A2994 RMK AO2 P0001=
201903120312 SPECI KPWT 120312Z AUTO 23010KT 10SM -RA SCT010 BKN015 OVC037 03/03 A2994 RMK AO2 P0001=
201903120256 METAR KPWT 120256Z AUTO 23010KT 10SM -RA BKN013 BKN019 OVC029 03/03 A2994 RMK AO2 SLP158 P0001 60001 T00330028 56010=
201903120253 SPECI KPWT 120253Z AUTO 23011KT 10SM -RA BKN013 BKN019 OVC029 03/03 A2994 RMK AO2 P0001=
201903120237 SPECI KPWT 120237Z AUTO 23010KT 10SM -RA SCT013 BKN021 OVC027 04/02 A2994 RMK AO2 P0000=
201903120220 SPECI KPWT 120220Z AUTO 23010KT 10SM -RA BKN013 BKN018 OVC027 04/02 A2995 RMK AO2 P0000=
201903120203 SPECI KPWT 120203Z AUTO 23013KT 10SM -RA SCT016 BKN027 OVC035 04/02 A2995 RMK AO2 P0000=
201903120156 METAR KPWT 120156Z AUTO 24014KT 10SM -RA FEW014 SCT020 OVC036 04/02 A2995 RMK AO2 SLP162 P0000 T00440022=
201903120056 METAR KPWT 120056Z AUTO 23013G20KT 10SM -RA FEW023 BKN031 05/02 A2997 RMK AO2 SLP167 P0000 T00500022=
201903112356 METAR KPWT 112356Z AUTO 23018G22KT 10SM -RA SCT034 BKN043 07/M01 A2998 RMK AO2 RAB49 SLP170 P0000 6//// T00721011 10083 20050=
201903112256 METAR KPWT 112256Z AUTO 21014G19KT 10SM CLR 08/M03 A3000 RMK AO2 SLP175 T00831028=
201903112156 METAR KPWT 112156Z AUTO 20011KT 10SM SCT080 08/M02 RMK AO2 SLPNO T00831022 $=
201903112056 METAR KPWT 112056Z AUTO 22014KT 10SM BKN080 08/M03 A3004 RMK AO2 SLP192 T00781028 56019=
201903111956 METAR KPWT 111956Z AUTO 21015KT 10SM SCT080 BKN100 08/M03 A3006 RMK AO2 SLP198 T00831028=
201903111856 METAR KPWT 111856Z AUTO 21011KT 10SM BKN085 07/M02 A3008 RMK AO2 SLP203 T00671022=
201903111756 METAR KPWT 111756Z AUTO 20010KT 10SM OVC090 05/M02 A3010 RMK AO2 SLP211 6//// T00501022 10050 21044 58016=
201903111656 METAR KPWT 111656Z AUTO 21006KT 10SM SCT100 BKN120 03/00 A3013 RMK AO2 SLP221 T00330000=
201903111556 METAR KPWT 111556Z AUTO VRB04KT 10SM BKN120 02/02 A3014 RMK AO2 SLP224 T00220017 FZRANO=
201903111456 METAR KPWT 111456Z AUTO 00000KT 10SM FEW120 M02/M03 A3015 RMK AO2 SLP227 6//// T10221028 58009 FZRANO=
201903111356 METAR KPWT 111356Z AUTO 00000KT 10SM CLR M03/M04 A3015 RMK AO2 SLP229 T10331039 FZRANO=
201903111256 METAR KPWT 111256Z AUTO 00000KT 10SM CLR M03/M04 A3017 RMK AO2 SLP238 T10331039 FZRANO=
201903111156 METAR KPWT 111156Z AUTO 00000KT 10SM CLR M04/M04 A3017 RMK AO2 SLP238 6//// 7//// T10391044 10000 21039 55008 FZRANO=
201903111056 METAR KPWT 111056Z AUTO 00000KT 10SM CLR M03/M03 A3017 RMK AO2 SLP236 T10331033 FZRANO=
201903110956 METAR KPWT 110956Z AUTO 00000KT 10SM CLR M03/M04 A3020 RMK AO2 SLP247 T10331039 FZRANO=
201903110856 METAR KPWT 110856Z AUTO 00000KT 10SM CLR M02/M03 A3020 RMK AO2 SLP246 6//// T10221028 58008 FZRANO=
201903110756 METAR KPWT 110756Z AUTO 00000KT 10SM CLR M03/M03 A3022 RMK AO2 SLP250 T10281033 401111061 FZRANO=
201903110656 METAR KPWT 110656Z AUTO 00000KT 10SM CLR M02/M03 A3023 RMK AO2 SLP255 T10171028 FZRANO=
201903110556 METAR KPWT 110556Z AUTO 00000KT 10SM CLR 00/M02 A3023 RMK AO2 SLP253 T00001022 10100 21011 55000 FZRANO=
201903110456 METAR KPWT 110456Z AUTO 00000KT 10SM CLR 00/M02 A3022 RMK AO2 SLP253 T00001022 FZRANO=
201903110356 METAR KPWT 110356Z AUTO 00000KT 10SM CLR 01/M03 A3022 RMK AO2 SLP253 T00061028 FZRANO=
201903110256 METAR KPWT 110256Z AUTO 13003KT 10SM CLR 02/M03 A3023 RMK AO2 SLP254 T00221028 53004 FZRANO=
201903110156 METAR KPWT 110156Z AUTO 00000KT 10SM CLR 07/M02 A3021 RMK AO2 SLP251 T00721022=
201903110056 METAR KPWT 110056Z AUTO 05006KT 10SM CLR 09/M02 A3020 RMK AO2 SLP244 T00941022=
201903102356 METAR KPWT 102356Z AUTO 06004KT 10SM CLR 10/M07 A3021 RMK AO2 SLP249 6//// T01001067 10111 20056 58005=
201903102256 METAR KPWT 102256Z AUTO VRB03KT 10SM CLR 11/M05 A3022 RMK AO2 SLP255 T01061050=
201903102156 METAR KPWT 102156Z AUTO 00000KT 10SM CLR 11/M04 A3023 RMK AO2 SLP255 T01061039=
201903102056 METAR KPWT 102056Z AUTO 05005KT 10SM CLR 09/M02 A3023 RMK AO2 SLP256 T00941022 50004=
201903101956 METAR KPWT 101956Z AUTO 05007KT 10SM CLR 08/M02 A3023 RMK AO2 SLP256 T00781017=
201903101856 METAR KPWT 101856Z AUTO 06006KT 10SM CLR 07/M01 A3023 RMK AO2 SLP255 T00671011=
201903101756 METAR KPWT 101756Z AUTO 07006KT 10SM CLR 06/00 A3022 RMK AO2 SLP252 6//// T00560000 10061 21061=
201903101656 METAR KPWT 101656Z AUTO 03004KT 10SM CLR 04/00 A3022 RMK AO2 SLP251 T00390000=
201903101556 METAR KPWT 101556Z AUTO 05006KT 10SM CLR 01/M01 A3021 RMK AO2 SLP248 T00111011 FZRANO=
201903101456 METAR KPWT 101456Z AUTO 23003KT 10SM CLR M05/M07 RMK AO2 SLPNO 6//// T10501067 FZRANO $=
201903101356 METAR KPWT 101356Z AUTO 00000KT 10SM CLR M06/M07 A3018 RMK AO2 SLP239 T10611072 FZRANO=
201903101256 METAR KPWT 101256Z AUTO 00000KT 10SM CLR M06/M07 A3017 RMK AO2 SLP236 T10561072 FZRANO=
201903101156 METAR KPWT 101156Z AUTO 00000KT 10SM CLR M05/M07 A3015 RMK AO2 SLP230 7//// T10501067 10022 21056 51008 FZRANO=
201903101056 METAR KPWT 101056Z AUTO 00000KT 10SM CLR M04/M06 A3014 RMK AO2 SLP227 T10441061 FZRANO=
201903100956 METAR KPWT 100956Z AUTO 00000KT 10SM CLR M02/M05 A3014 RMK AO2 SLP224 T10171050 FZRANO=
201903100856 METAR KPWT 100856Z AUTO 00000KT 10SM CLR M02/M04 A3013 RMK AO2 SLP221 T10171039 53012 FZRANO=
201903100756 METAR KPWT 100756Z AUTO 10SM CLR 01/M04 A3012 RMK AO2 SLP217 T00061039 400831050 FZRANO=
201903100656 METAR KPWT 100656Z AUTO 06005KT 10SM CLR 01/M03 A3011 RMK AO2 SLP213 T00111033 FZRANO=
201903100556 METAR KPWT 100556Z AUTO 06006KT 10SM CLR 02/M03 A3010 RMK AO2 SLP209 6//// T00171033 10078 20011 FZRANO=
201903100456 METAR KPWT 100456Z AUTO 05007KT 10SM CLR 02/M02 A3008 RMK AO2 SLP206 T00171022 FZRANO=
201903100356 METAR KPWT 100356Z AUTO 04004KT 10SM CLR 02/M02 RMK AO2 SLPNO T00171022 FZRANO $=
201903100256 METAR KPWT 100256Z AUTO 04004KT 10SM CLR 02/M02 A3007 RMK AO2 SLP201 6//// T00221022 53009 FZRANO=
201903100156 METAR KPWT 100156Z AUTO 04005KT 10SM CLR 04/M02 A3005 RMK AO2 SLP195 T00391017=
201903100056 METAR KPWT 100056Z AUTO 02007KT 10SM CLR 07/M02 A3004 RMK AO2 SLP191 T00721017=
201903092356 METAR KPWT 092356Z AUTO 03007KT 10SM CLR 07/M03 A3004 RMK AO2 SLP190 T00721028 10083 20011 55005=
201903092256 METAR KPWT 092256Z AUTO 03007KT 10SM CLR 08/M02 A3004 RMK AO2 SLP192 T00781017=
201903092156 METAR KPWT 092156Z AUTO 04008KT 10SM CLR 07/M01 A3004 RMK AO2 SLP191 T00721006=
201903092110 SPECI KPWT 092110Z AUTO 05006KT 10SM SCT026 06/01 A3005 RMK AO2=
201903092056 METAR KPWT 092056Z AUTO 03007KT 10SM BKN026 06/00 A3005 RMK AO2 SLP196 T00610000 58005=
201903092043 SPECI KPWT 092043Z AUTO 01010KT 10SM BKN026 06/01 A3006 RMK AO2=
201903091956 METAR KPWT 091956Z AUTO 04008KT 10SM FEW024 04/00 A3006 RMK AO2 SLP198 T00440000=
201903091856 METAR KPWT 091856Z AUTO 06008KT 10SM SCT004 03/01 A3007 RMK AO2 SLP200 T00330006=
201903091817 SPECI KPWT 091817Z AUTO 06007KT 7SM BKN004 02/00 A3007 RMK AO2 CIG 001V006 FZRANO=
201903091809 SPECI KPWT 091809Z AUTO 06008KT 8SM SCT004 02/01 RMK AO2 FZRANO $=
201903091756 METAR KPWT 091756Z AUTO 06006KT 10SM BKN006 03/01 A3007 RMK AO2 CIG 004V009 SLP199 6//// T00330006 10039 21022 51008=
201903091739 SPECI KPWT 091739Z AUTO 06004KT 10SM BKN008 03/01 A3006 RMK AO2 CIG 006V010=
201903091656 METAR KPWT 091656Z AUTO 06004KT 10SM SCT008 01/01 A3006 RMK AO2 SLP197 T00110006 FZRANO=
201903091556 METAR KPWT 091556Z AUTO 00000KT 8SM CLR 02/02 A3004 RMK AO2 SLP191 T00170017 FZRANO=
201903091534 SPECI KPWT 091534Z AUTO 00000KT 10SM SCT027 M01/M01 A3003 RMK AO2 FZRANO=
201903091456 METAR KPWT 091456Z AUTO 00000KT 10SM OVC027 M02/M02 A3002 RMK AO2 SLP185 6//// T10171022 53006 FZRANO=
201903091356 METAR KPWT 091356Z AUTO 00000KT 10SM OVC027 M02/M02 A3001 RMK AO2 SLP181 T10171022 FZRANO=
201903091256 METAR KPWT 091256Z AUTO 00000KT 10SM OVC027 M02/M02 A3000 RMK AO2 SLP178 T10221022 FZRANO=
201903091156 METAR KPWT 091156Z AUTO 00000KT 10SM OVC027 M02/M02 A3000 RMK AO2 SLP179 6//// 7//// T10171022 11017 21050 50001 FZRANO=
201903091056 METAR KPWT 091056Z AUTO 00000KT 10SM OVC027 M02/M02 A3000 RMK AO2 SLP179 T10171022 FZRANO=
201903090956 METAR KPWT 090956Z AUTO 00000KT 10SM OVC025 M03/M04 A3001 RMK AO2 SLP181 T10331039 FZRANO=
201903090930 SPECI KPWT 090930Z AUTO 3SM BR OVC025 M04/M05 RMK AO2 FZRANO $=
201903090926 SPECI KPWT 090926Z AUTO 00000KT 1 1/4SM BR OVC025 M05/M05 A3000 RMK AO2 FZRANO=
201903090912 SPECI KPWT 090912Z AUTO 00000KT 3/4SM BR BKN025 M05/M06 A3000 RMK AO2 FZRANO=
201903090901 SPECI KPWT 090901Z AUTO 00000KT 1/2SM FZFG FEW025 M04/M05 A3000 RMK AO2 VIS M1/4V1 3/4 FZRANO=
201903090856 METAR KPWT 090856Z AUTO 00000KT 1SM BR CLR M04/M05 A3000 RMK AO2 VIS 3/4V1 1/2 SLP178 T10441050 53003 FZRANO=
201903090844 SPECI KPWT 090844Z AUTO 00000KT 1 3/4SM BR CLR M05/M06 A3000 RMK AO2 FZRANO=
201903090828 SPECI KPWT 090828Z AUTO 00000KT 8SM CLR M05/M06 A3000 RMK AO2 FZRANO=
201903090821 SPECI KPWT 090821Z AUTO 00000KT 2 1/2SM BR CLR M05/M06 A2999 RMK AO2 VIS 1/2V5 FZRANO=
201903090756 METAR KPWT 090756Z AUTO 00000KT 1/2SM FZFG CLR M05/M05 A2999 RMK AO2 SLP174 T10501050 400441050 FZRANO=
201903090752 SPECI KPWT 090752Z AUTO 00000KT 3/4SM BR CLR M05/M05 A2999 RMK AO2 400441050 FZRANO=
201903090749 SPECI KPWT 090749Z AUTO 00000KT 1 3/4SM BR CLR M05/M05 A2999 RMK AO2 VIS 1/2V5 FZRANO=
201903090723 SPECI KPWT 090723Z AUTO 00000KT 4SM BR CLR M04/M04 A2999 RMK AO2 FZRANO=
201903090719 SPECI KPWT 090719Z AUTO 00000KT 1 1/4SM BR CLR M04/M04 A2999 RMK AO2 VIS 3/4V5 FZRANO=
201903090703 SPECI KPWT 090703Z AUTO 00000KT 3/4SM BR CLR M04/M04 A2999 RMK AO2 FZRANO=
201903090700 SPECI KPWT 090700Z AUTO 00000KT 1 3/4SM BR CLR M04/M04 A2999 RMK AO2 FZRANO=
201903090656 METAR KPWT 090656Z AUTO 00000KT 4SM BR CLR M04/M04 A2999 RMK AO2 SLP175 T10441044 FZRANO=
201903090653 SPECI KPWT 090653Z AUTO 00000KT 3SM BR CLR M04/M04 A2999 RMK AO2 FZRANO=
201903090648 SPECI KPWT 090648Z AUTO 00000KT 1 3/4SM BR CLR M04/M04 A2999 RMK AO2 VIS 1 1/4V5 FZRANO=
201903090636 SPECI KPWT 090636Z AUTO 00000KT 3SM BR CLR M04/M04 A2999 RMK AO2 FZRANO=
201903090633 SPECI KPWT 090633Z AUTO 00000KT 1 1/4SM BR CLR M04/M04 A2999 RMK AO2 VIS 1/2V5 FZRANO=
201903090627 SPECI KPWT 090627Z AUTO 00000KT 3/4SM BR CLR M04/M04 A2999 RMK AO2 FZRANO=
201903090623 SPECI KPWT 090623Z AUTO 00000KT 1 1/2SM BR CLR M04/M04 A2999 RMK AO2 FZRANO=
201903090618 SPECI KPWT 090618Z AUTO 00000KT 10SM CLR M04/M04 A2999 RMK AO2 FZRANO=
201903090611 SPECI KPWT 090611Z AUTO 00000KT 2SM BR CLR M04/M04 A2999 RMK AO2 FZRANO=
201903090607 SPECI KPWT 090607Z AUTO 00000KT 1SM BR CLR M03/M04 A2999 RMK AO2 FZRANO=
201903090556 METAR KPWT 090556Z AUTO 00000KT 1/2SM FZFG CLR M04/M04 A2999 RMK AO2 SLP175 6//// T10391039 10033 21039 53008 FZRANO=
201903090543 SPECI KPWT 090543Z AUTO 00000KT 1SM BR CLR M03/M04 A2999 RMK AO2 FZRANO=
201903090517 SPECI KPWT 090517Z AUTO 00000KT 1/2SM FZFG CLR M02/M02 A2998 RMK AO2 FZRANO=
201903090504 SPECI KPWT 090504Z AUTO 04003KT 1/2SM FZFG VV001 M03/M04 A2998 RMK AO2 FZRANO=
201903090502 SPECI KPWT 090502Z AUTO 03003KT 1SM BR VV001 M03/M04 A2998 RMK AO2 FZRANO=
201903090456 METAR KPWT 090456Z AUTO 00000KT 7SM CLR M03/M03 A2998 RMK AO2 SLP170 T10331033 FZRANO=
201903090453 SPECI KPWT 090453Z AUTO 00000KT 2 1/2SM BR CLR M03/M03 A2998 RMK AO2 FZRANO=
201903090449 SPECI KPWT 090449Z AUTO 00000KT 1SM BR CLR M03/M03 A2998 RMK AO2 FZRANO=
201903090436 SPECI KPWT 090436Z AUTO 00000KT 1/2SM FZFG CLR M03/M03 A2998 RMK AO2 FZRANO=
201903090428 SPECI KPWT 090428Z AUTO 00000KT 3/4SM BR CLR M03/M03 A2998 RMK AO2 FZRANO=
201903090423 SPECI KPWT 090423Z AUTO 00000KT 1 1/2SM BR CLR M02/M03 A2998 RMK AO2 VIS 1/2V5 FZRANO=
201903090356 METAR KPWT 090356Z AUTO 14003KT 8SM CLR M02/M02 A2998 RMK AO2 SLP168 T10221022 FZRANO=
201903090325 SPECI KPWT 090325Z AUTO 00000KT 4SM BR CLR M02/M02 RMK AO2 FZRANO $=
201903090322 SPECI KPWT 090322Z AUTO 00000KT 1 1/4SM BR CLR M02/M02 A2997 RMK AO2 FZRANO=
201903090315 SPECI KPWT 090315Z AUTO 00000KT 3/4SM BR CLR M02/M03 A2997 RMK AO2 FZRANO=
201903090311 SPECI KPWT 090311Z AUTO 00000KT 1 3/4SM BR CLR M02/M03 A2997 RMK AO2 FZRANO=
201903090256 METAR KPWT 090256Z AUTO 00000KT 10SM CLR M02/M02 A2997 RMK AO2 SLP166 6//// T10171022 53002 FZRANO=
201903090156 METAR KPWT 090156Z AUTO 00000KT 10SM CLR 02/00 A2995 RMK AO2 SLP163 T00170000 FZRANO=
201903090056 METAR KPWT 090056Z AUTO 00000KT 10SM CLR 02/01 A2996 RMK AO2 SLP163 T00220006 FZRANO=
201903090027 SPECI KPWT 090027Z AUTO 00000KT 10SM SCT018 03/01 A2996 RMK AO2=
201903082356 METAR KPWT 082356Z AUTO 00000KT 10SM FEW010 OVC020 03/01 A2996 RMK AO2 SLP166 60016 T00280006 10044 20006 55008=
201903082345 SPECI KPWT 082345Z AUTO 12003KT 10SM SCT010 BKN020 03/01 A2996 RMK AO2=
201903082256 METAR KPWT 082256Z AUTO 00000KT 10SM BKN010 BKN016 04/01 A2996 RMK AO2 SLP164 T00440006=
201903082222 SPECI KPWT 082222Z AUTO 00000KT 10SM BKN010 OVC014 02/01 A2997 RMK AO2 CIG 007V012 FZRANO=
201903082156 METAR KPWT 082156Z AUTO 00000KT 10SM OVC006 04/01 A2997 RMK AO2 RAE24UPB14E23 CIG 006V011 SLP167 P0001 T00390006=
201903082113 SPECI KPWT 082113Z AUTO 01003KT 10SM OVC006 02/01 A2998 RMK AO2 RAE08 CIG 004V009 P0001 FZRANO=
201903082056 METAR KPWT 082056Z AUTO 36003KT 6SM -RA BR OVC004 01/01 A2999 RMK AO2 RAB12SNE10 SLP173 P0000 60015 T00110006 58002 FZRANO=
201903082012 SPECI KPWT 082012Z AUTO 00000KT 3SM -RA OVC004 04/01 A3000 RMK AO2 RAB12SNE10 CIG 003V008 P0000=
201903081956 METAR KPWT 081956Z AUTO 00000KT 2 1/2SM -SN BR OVC004 03/02 A3000 RMK AO2 VIS 2V3 CIG 003V008 SLP176 P0012 T00330017=
201903081952 SPECI KPWT 081952Z AUTO 00000KT 2 1/2SM -SN BR OVC004 03/02 A3000 RMK AO2 CIG 003V007 P0011=
201903081944 SPECI KPWT 081944Z AUTO 00000KT 2SM -SN BR BKN006 OVC010 02/01 A3000 RMK AO2 CIG 003V008 P0010 FZRANO=
201903081940 SPECI KPWT 081940Z AUTO 00000KT 1 3/4SM -SN BR BKN004 OVC010 02/01 A3000 RMK AO2 CIG 003V008 P0010 FZRANO=
201903081930 SPECI KPWT 081930Z AUTO 00000KT 1 3/4SM -SN BR FEW004 BKN008 OVC018 01/01 A3000 RMK AO2 VIS 1 1/4V2 1/2 CIG 007V010 P0008 FZRANO=
201903081922 SPECI KPWT 081922Z AUTO 00000KT 1 1/2SM -SN BR BKN010 OVC016 01/00 A3000 RMK AO2 CIG 007V013 P0006 FZRANO=
201903081914 SPECI KPWT 081914Z AUTO 08003KT 1SM -SN BR OVC014 01/00 A2999 RMK AO2 P0004 FZRANO=
201903081856 METAR KPWT 081856Z AUTO 05005KT 3/4SM -SN BR SCT009 OVC014 01/00 A2999 RMK AO2 SLP175 P0003 T00060000 FZRANO=
201903081848 SPECI KPWT 081848Z AUTO 03004KT 3/4SM -SN BR BKN009 OVC014 01/00 A2999 RMK AO2 CIG 005V012 P0002 FZRANO=
201903081831 SPECI KPWT 081831Z AUTO 05004KT 1/2SM -SN FG OVC009 01/00 A2999 RMK AO2 CIG 006V011 P0001 FZRANO=
201903081822 SPECI KPWT 081822Z AUTO 05004KT 3/4SM -SN BR OVC009 01/00 A2999 RMK AO2 CIG 006V011 P0001 FZRANO=
201903081756 METAR KPWT 081756Z AUTO 05004KT 1/2SM SN FG OVC007 01/00 A2999 RMK AO2 SLP173 P0005 6//// T00060000 10006 21017 50003 FZRANO=
201903081732 SPECI KPWT 081732Z AUTO 00000KT 1/2SM SN FG OVC009 01/00 A2999 RMK AO2 CIG 007V012 P0004 FZRANO=
201903081720 SPECI KPWT 081720Z AUTO 00000KT 1/2SM -SN FG OVC011 01/00 A2999 RMK AO2 CIG 009V014 P0003 FZRANO=
201903081638 SPECI KPWT 081638Z AUTO 00000KT 3/4SM -SN BR BKN011 OVC016 01/00 A2999 RMK AO2 UPB00E21SNE00B21 P0001 FZRANO=
201903081630 SPECI KPWT 081630Z AUTO 00000KT 1SM -SN BR OVC013 01/00 A2998 RMK AO2 UPB00E21SNE00B21 P0000 FZRANO=
201903081610 SPECI KPWT 081610Z AUTO 00000KT 1 1/2SM UP BR BKN010 OVC016 01/00 A2998 RMK AO2 UPB00SNE00 P0000 FZRANO=
201903081556 METAR KPWT 081556Z AUTO 00000KT 1SM -SN BR OVC012 01/00 A2998 RMK AO2 SLP171 P0003 T00060000 FZRANO=
201903081553 SPECI KPWT 081553Z AUTO 00000KT 1SM -SN BR OVC012 00/00 A2998 RMK AO2 P0002 FZRANO=
201903081541 SPECI KPWT 081541Z AUTO 00000KT 3/4SM -SN BR SCT005 OVC012 00/M01 A2997 RMK AO2 P0002 FZRANO=
201903081532 SPECI KPWT 081532Z AUTO 00000KT 1 1/4SM -SN BR BKN005 OVC014 00/M01 RMK AO2 CIG 004V010 P0001 FZRANO $=
201903081524 SPECI KPWT 081524Z AUTO 00000KT 2SM -SN BR BKN005 OVC014 M01/M01 A2997 RMK AO2 CIG 004V008 P0001 FZRANO=
201903081517 SPECI KPWT 081517Z AUTO 00000KT 1 3/4SM -SN BR SCT005 BKN014 OVC020 M01/M01 A2997 RMK AO2 P0001 FZRANO=
201903081509 SPECI KPWT 081509Z AUTO 00000KT 1SM -SN BR BKN014 OVC020 M01/M01 A2997 RMK AO2 P0001 FZRANO=
201903081456 METAR KPWT 081456Z AUTO 00000KT 1SM -SN BR BKN019 OVC026 M01/M01 A2997 RMK AO2 UPE02B34E36SNB02E34B36 SLP168 P0000 6//// T10061011 FZRANO=
201903081439 SPECI KPWT 081439Z AUTO 00000KT 1 1/4SM -SN BR BKN022 OVC028 M01/M01 A2997 RMK AO2 VIS 3/4V3 UPE02B34E36SNB02E34B36 P0000 FZRANO=
201903081410 SPECI KPWT 081410Z AUTO 00000KT 2SM -SN BR BKN016 OVC024 M01/M01 A2997 RMK AO2 UPE02SNB02 P0000 FZRANO=
201903081356 METAR KPWT 081356Z AUTO 00000KT 3SM UP BR FEW011 BKN025 OVC036 M01/M02 A2997 RMK AO2 UPB38 SLP167 P0000 T10111017 FZRANO=
201903081256 METAR KPWT 081256Z AUTO 10SM FEW001 BKN038 M02/M02 RMK AO2 SLPNO T10171022 FZRANO $=
201903081254 SPECI KPWT 081254Z AUTO 00000KT 10SM FEW001 BKN036 M02/M02 A2996 RMK AO2 FZRANO=
201903081247 SPECI KPWT 081247Z AUTO 00000KT 2 1/2SM BR SCT001 OVC036 M02/M02 A2996 RMK AO2 FZRANO=
201903081243 SPECI KPWT 081243Z AUTO 00000KT 1SM BR BKN001 OVC036 M02/M02 A2996 RMK AO2 FZRANO=
201903081217 SPECI KPWT 081217Z AUTO 00000KT 1/2SM FZFG OVC001 M02/M02 A2996 RMK AO2 FZRANO=
201903081156 METAR KPWT 081156Z AUTO 00000KT 1/4SM FZFG OVC001 M02/M02 A2996 RMK AO2 SLP164 6//// 7//// T10171022 10011 21017 58008 FZRANO=
201903081143 SPECI KPWT 081143Z AUTO 01003KT 1/2SM FZFG OVC001 M02/M02 A2996 RMK AO2 FZRANO=
201903081134 SPECI KPWT 081134Z AUTO 00000KT 3/4SM BR OVC001 M02/M02 A2996 RMK AO2 FZRANO=
201903081124 SPECI KPWT 081124Z AUTO 00000KT 1 1/4SM BR OVC001 M01/M02 A2997 RMK AO2 FZRANO=
201903081118 SPECI KPWT 081118Z AUTO 00000KT 3/4SM BR OVC001 M01/M02 A2997 RMK AO2 FZRANO=
201903081056 METAR KPWT 081056Z AUTO 00000KT 1/2SM FZFG OVC001 M01/M02 A2997 RMK AO2 SLP168 T10111017 FZRANO=
201903081040 SPECI KPWT 081040Z AUTO 00000KT 1/4SM FZFG OVC001 M01/M02 A2998 RMK AO2 FZRANO=
201903080956 METAR KPWT 080956Z AUTO 00000KT 1/4SM FG OVC003 00/M01 A2998 RMK AO2 SLP170 T00001006 FZRANO=
201903080923 SPECI KPWT 080923Z AUTO 00000KT 1/4SM FZFG BKN003 OVC018 M01/M01 A2998 RMK AO2 FZRANO=
201903080916 SPECI KPWT 080916Z AUTO 00000KT 1/2SM FZFG BKN003 OVC018 M01/M01 A2998 RMK AO2 FZRANO=
201903080906 SPECI KPWT 080906Z AUTO 00000KT 3/4SM BR BKN003 OVC018 00/M01 A2998 RMK AO2 FZRANO=
201903080856 METAR KPWT 080856Z AUTO 00000KT 1 3/4SM BR OVC003 01/00 A2998 RMK AO2 SLP172 T00060000 56003 FZRANO=
201903080851 SPECI KPWT 080851Z AUTO 00000KT 3SM BR OVC003 01/00 RMK AO2 FZRANO $=
201903080838 SPECI KPWT 080838Z AUTO 00000KT 1 1/2SM BR OVC003 01/00 A2998 RMK AO2 FZRANO=
201903080828 SPECI KPWT 080828Z AUTO 00000KT 1SM BR OVC003 01/00 A2998 RMK AO2 FZRANO=
201903080822 SPECI KPWT 080822Z AUTO 00000KT 1/2SM FG OVC003 01/00 A2998 RMK AO2 FZRANO=
201903080811 SPECI KPWT 080811Z AUTO 19004KT 3/4SM BR OVC003 01/00 A2999 RMK AO2 FZRANO=
201903080804 SPECI KPWT 080804Z AUTO 18003KT 1 3/4SM BR OVC003 01/00 A2999 RMK AO2 FZRANO=
201903080756 METAR KPWT 080756Z AUTO 16003KT 10SM OVC003 01/00 A2999 RMK AO2 SLP172 T00060000 400611022 FZRANO=
201903080736 SPECI KPWT 080736Z AUTO 20003KT 10SM OVC003 00/M01 A2998 RMK AO2 FZRANO=
201903080720 SPECI KPWT 080720Z AUTO 18003KT 10SM BKN005 BKN010 OVC019 00/M01 A2998 RMK AO2 FZRANO=
201903080656 METAR KPWT 080656Z AUTO 00000KT 10SM FEW008 OVC019 01/M01 A2999 RMK AO2 SLP174 T00061011 FZRANO=
201903080636 SPECI KPWT 080636Z AUTO 20005KT 10SM SCT011 OVC019 01/00 A2999 RMK AO2 FZRANO=
201903080556 METAR KPWT 080556Z AUTO 00000KT 10SM OVC011 01/00 A2999 RMK AO2 SLP176 6//// T00110000 10050 20000 FZRANO=
201903080531 SPECI KPWT 080531Z AUTO 00000KT 10SM OVC011 01/M01 A2999 RMK AO2 FZRANO=
201903080503 SPECI KPWT 080503Z AUTO VRB03KT 10SM OVC009 01/M01 A2998 RMK AO2 CIG 008V014 FZRANO=
201903080456 METAR KPWT 080456Z AUTO 00000KT 10SM BKN011 BKN014 00/M01 A2998 RMK AO2 CIG 008V013 SLP171 T00001011 FZRANO=
201903080407 SPECI KPWT 080407Z AUTO 00000KT 10SM BKN013 02/00 A2997 RMK AO2 FZRANO=
201903080356 METAR KPWT 080356Z AUTO 18003KT 10SM SCT013 02/00 RMK AO2 SLPNO T00170000 FZRANO $=
201903080256 METAR KPWT 080256Z AUTO 18007KT 10SM CLR 02/00 A2996 RMK AO2 SLP163 6//// T00220000 53003 FZRANO=
201903080156 METAR KPWT 080156Z AUTO 19007KT 10SM CLR 03/00 A2994 RMK AO2 SLP158 T00330000=
201903080132 SPECI KPWT 080132Z AUTO 21011KT 10SM FEW026 04/00 A2994 RMK AO2=
201903080056 METAR KPWT 080056Z AUTO 20008KT 10SM BKN024 05/01 A2995 RMK AO2 SLP160 T00500006=
201903080035 SPECI KPWT 080035Z AUTO 20009KT 10SM BKN024 05/00 A2995 RMK AO2=
201903080004 SPECI KPWT 080004Z AUTO 10SM SCT022 05/00 RMK AO2 $=
201903072356 METAR KPWT 072356Z AUTO 20009KT 10SM BKN022 04/00 A2995 RMK AO2 SLP159 6//// T00440000 10061 20011 56004=
201903072318 SPECI KPWT 072318Z AUTO 22011G16KT 10SM BKN020 BKN029 06/01 A2995 RMK AO2=
201903072256 METAR KPWT 072256Z AUTO 23010KT 10SM FEW016 06/02 A2995 RMK AO2 SLP160 T00560017=
201903072247 SPECI KPWT 072247Z AUTO 22011KT 10SM FEW016 06/02 A2995 RMK AO2=
201903072156 METAR KPWT 072156Z AUTO 22012G15KT 10SM BKN015 OVC020 05/02 A2995 RMK AO2 SLP161 T00500017=
201903072123 SPECI KPWT 072123Z AUTO 20007KT 10SM SCT010 BKN016 04/02 A2996 RMK AO2=
201903072056 METAR KPWT 072056Z AUTO 21009KT 10SM OVC013 04/02 A2996 RMK AO2 SLP165 6//// T00390017 51010=
201903072036 SPECI KPWT 072036Z AUTO 21011KT 10SM OVC013 04/02 A2996 RMK AO2=
201903071956 METAR KPWT 071956Z AUTO 22010KT 10SM OVC007 03/02 A2996 RMK AO2 CIG 005V011 SLP164 T00330022=
201903071942 SPECI KPWT 071942Z AUTO 22010KT 10SM BKN007 OVC011 03/02 A2996 RMK AO2=
201903071856 METAR KPWT 071856Z AUTO 23007KT 10SM OVC005 02/01 A2995 RMK AO2 SLP160 T00170011 FZRANO=
201903071843 SPECI KPWT 071843Z AUTO 21006KT 10SM OVC005 02/02 A2995 RMK AO2 CIG 004V007 FZRANO=
201903071756 METAR KPWT 071756Z AUTO 22008KT 10SM OVC003 01/01 A2993 RMK AO2 SLP154 6//// T00110006 10011 20000 51025 FZRANO=
201903071656 METAR KPWT 071656Z AUTO 21007KT 10SM OVC003 01/00 A2991 RMK AO2 SLP146 P0003 T00060000 FZRANO=
201903071556 METAR KPWT 071556Z AUTO 22010KT 7SM OVC003 01/00 A2988 RMK AO2 UPE17 SLP138 P0004 T00060000 FZRANO=
201903071516 SPECI KPWT 071516Z AUTO 19007KT 4SM UP BR OVC003 01/00 A2986 RMK AO2 P0002 FZRANO=
201903071456 METAR KPWT 071456Z AUTO 20006KT 2 1/2SM UP BR OVC003 00/M01 A2986 RMK AO2 UPB05E24B46SNE05B24E46 SLP129 P0004 60008 T00001006 53004 FZRANO=
201903071437 SPECI KPWT 071437Z AUTO 2SM -SN BR OVC003 00/M01 A2985 RMK AO2 UPB05E24SNE05B24 P0002 FZRANO=
201903071402 SPECI KPWT 071402Z AUTO 22003KT 3SM -SN BR OVC003 00/M01 A2985 RMK AO2 P0000 FZRANO=
201903071356 METAR KPWT 071356Z AUTO 00000KT 1 3/4SM -SN BR OVC003 00/M01 A2984 RMK AO2 SLP125 P0001 T00001006 FZRANO=
201903071348 SPECI KPWT 071348Z AUTO 00000KT 1SM -SN BR OVC003 00/M01 A2984 RMK AO2 P0000 FZRANO=
201903071303 SPECI KPWT 071303Z AUTO 21003KT 3/4SM -SN BR OVC003 00/M01 A2984 RMK AO2 P0000 FZRANO=
201903071156 METAR KPWT 071156Z AUTO 21005KT 1 3/4SM -SN BR OVC003 01/M01 A2984 RMK AO2 RAB28E43SNB43 SLP123 P0001 6//// 7//// T00061006 10011 21022 FZRANO=
201903071153 SPECI KPWT 071153Z AUTO 1 3/4SM -SN BR OVC003 01/M01 A2984 RMK AO2 RAB28E43SNB43 P0001 FZRANO $=
201903071056 METAR KPWT 071056Z AUTO 20005KT 6SM BR OVC003 00/M01 A2983 RMK AO2 SLP119 T00001006 FZRANO=
201903070956 METAR KPWT 070956Z AUTO 00000KT 10SM OVC003 M01/M01 RMK AO2 SLPNO T10061011 FZRANO $=
201903070933 SPECI KPWT 070933Z AUTO 00000KT 10SM BKN005 M01/M02 A2982 RMK AO2 FZRANO=
201903070924 SPECI KPWT 070924Z AUTO 10SM SCT005 M02/M02 RMK AO2 FZRANO $=
201903070856 METAR KPWT 070856Z AUTO 26003KT 10SM CLR M02/M02 A2980 RMK AO2 SLP110 6//// T10171022 53021 FZRANO=
201903070756 METAR KPWT 070756Z AUTO 21006KT 9SM SCT003 00/M01 A2978 RMK AO2 SLP102 T00001006 400390000 FZRANO=
201903070656 METAR KPWT 070656Z AUTO 20008KT 9SM OVC005 01/00 A2976 RMK AO2 SLP095 T00110000 FZRANO=
201903070627 SPECI KPWT 070627Z AUTO 21007KT 7SM OVC005 01/00 A2975 RMK AO2 CIG 003V009 FZRANO=
201903070556 METAR KPWT 070556Z AUTO 22006KT 5SM BR OVC003 02/01 A2974 RMK AO2 SLP089 60000 T00170011 10017 20011 53022 FZRANO=
201903070456 METAR KPWT 070456Z AUTO 20004KT 3SM BR OVC003 02/01 A2972 RMK AO2 SLP081 T00170006 FZRANO=
201903070356 METAR KPWT 070356Z AUTO 21003KT 7SM OVC003 01/01 A2969 RMK AO2 SLP073 T00110006 FZRANO=
201903070309 SPECI KPWT 070309Z AUTO 20003KT 10SM OVC005 01/01 A2968 RMK AO2 CIG 002V008 FZRANO=
201903070256 METAR KPWT 070256Z AUTO 20004KT 10SM BKN003 OVC007 01/01 A2968 RMK AO2 CIG 002V005 SLP067 60000 T00110006 FZRANO=
201903070156 METAR KPWT 070156Z AUTO 00000KT 10SM OVC003 02/01 A2965 RMK AO2 SLP060 T00170006 FZRANO=
201903070056 METAR KPWT 070056Z AUTO 00000KT 10SM OVC003 02/01 A2965 RMK AO2 RAE36 SLP057 P0000 T00170006 FZRANO=
201903062356 METAR KPWT 062356Z AUTO 00000KT 10SM -RA BKN003 OVC007 01/01 RMK AO2 RAE05B46UPB05E06B26E46SNB06E26 SLPNO P0002 6//// T00110006 10039 20006 FZRANO $=
201903062338 SPECI KPWT 062338Z AUTO 6SM UP BR BKN003 OVC016 01/00 RMK AO2 RAE05UPB05E06B26SNB06E26 P0002 FZRANO $=
201903062256 METAR KPWT 062256Z AUTO 23003KT 6SM -RA BR BKN007 OVC016 02/01 A2962 RMK AO2 UPB39E50RAB50SNE39 SLP050 P0003 T00170006 FZRANO=
201903062249 SPECI KPWT 062249Z AUTO 00000KT 5SM UP BR SCT007 OVC016 02/01 A2962 RMK AO2 UPB39SNE39 P0003 FZRANO=
201903062242 SPECI KPWT 062242Z AUTO 00000KT 2SM UP BR SCT009 OVC014 02/01 A2961 RMK AO2 UPB39SNE39 P0003 FZRANO=
201903062223 SPECI KPWT 062223Z AUTO 00000KT 1 1/4SM -SN BR BKN006 BKN011 OVC016 01/00 A2961 RMK AO2 CIG 004V008 P0001 FZRANO=
201903062201 SPECI KPWT 062201Z AUTO 00000KT 1SM -SN BR OVC006 01/00 RMK AO2 CIG 004V008 P0000 FZRANO $=
201903062156 METAR KPWT 062156Z AUTO 00000KT 1 1/4SM -SN BR OVC004 01/M01 RMK AO2 UPE02SNB02 CIG 004V007 SLPNO P0005 T00061006 FZRANO $=
201903062152 SPECI KPWT 062152Z AUTO 00000KT 1 1/4SM -SN BR OVC004 01/M01 A2961 RMK AO2 UPE02SNB02 CIG 004V007 P0004 FZRANO=
201903062137 SPECI KPWT 062137Z AUTO 00000KT 1SM -SN BR OVC004 01/00 A2961 RMK AO2 UPE02SNB02 CIG 004V007 P0004 FZRANO=
201903062118 SPECI KPWT 062118Z AUTO 00000KT 1 1/4SM -SN BR BKN004 OVC011 01/00 A2960 RMK AO2 UPE02SNB02 P0002 FZRANO=
201903062116 SPECI KPWT 062116Z AUTO 00000KT 1SM -SN BR SCT004 OVC011 01/00 A2960 RMK AO2 UPE02SNB02 P0002 FZRANO=
201903062104 SPECI KPWT 062104Z AUTO 00000KT 1SM -SN BR BKN011 01/01 A2960 RMK AO2 UPE02SNB02 P0001 FZRANO=
201903062056 METAR KPWT 062056Z AUTO 00000KT 1 1/4SM UP BR BKN011 01/01 A2961 RMK AO2 SLP043 P0004 6//// T00110006 50001 FZRANO=
201903062019 SPECI KPWT 062019Z AUTO 1 1/4SM UP BR CLR 01/00 RMK AO2 VIS 1/2V2 P0002 FZRANO $=
201903062008 SPECI KPWT 062008Z AUTO 00000KT 2 1/2SM UP BR CLR 01/00 A2961 RMK AO2 VIS 1 1/2V3 P0001 FZRANO=
201903061956 METAR KPWT 061956Z AUTO 00000KT 1 3/4SM UP BR FEW015 01/00 A2961 RMK AO2 RAE33UPB33 SLP045 P0001 T00110000 FZRANO=
201903061948 SPECI KPWT 061948Z AUTO 1 1/2SM UP BR SCT015 01/00 RMK AO2 RAE33UPB33 P0001 FZRANO $=
201903061941 SPECI KPWT 061941Z AUTO 00000KT 2SM UP BR BKN017 02/00 A2961 RMK AO2 RAE33UPB33 P0000 FZRANO=
201903061856 METAR KPWT 061856Z AUTO 04006KT 10SM -RA BKN021 OVC026 03/M02 A2961 RMK AO2 RAB28 SLP043 T00331022=
201903061836 SPECI KPWT 061836Z AUTO 04008KT 10SM -RA OVC028 04/M04 A2960 RMK AO2 RAB28=
201903061756 METAR KPWT 061756Z AUTO 05009KT 10SM BKN037 OVC048 03/M04 A2960 RMK AO2 SLP041 6//// T00331044 10033 20011 55008=
201903061656 METAR KPWT 061656Z AUTO 04010KT 10SM OVC060 03/M04 A2960 RMK AO2 SLP041 T00281044=
201903061556 METAR KPWT 061556Z AUTO 05008KT 10SM OVC060 02/M04 A2962 RMK AO2 SLP047 T00221044 FZRANO=
201903061456 METAR KPWT 061456Z AUTO 06008KT 10SM OVC060 02/M04 A2963 RMK AO2 SLP050 6//// T00171044 58019 FZRANO=
201903061356 METAR KPWT 061356Z AUTO 04009KT 10SM OVC060 02/M04 A2965 RMK AO2 SLP057 T00171044 FZRANO=
201903061256 METAR KPWT 061256Z AUTO 05008KT 10SM OVC070 01/M05 A2966 RMK AO2 SLP063 T00111050 FZRANO=
201903061156 METAR KPWT 061156Z AUTO 04009KT 10SM CLR 01/M05 A2968 RMK AO2 SLP070 7//// T00111050 10022 20006 58021 FZRANO=
201903061056 METAR KPWT 061056Z AUTO 05008KT 10SM CLR 01/M06 A2971 RMK AO2 SLP078 T00061056 FZRANO=
201903060956 METAR KPWT 060956Z AUTO 05006KT 10SM FEW060 01/M06 A2973 RMK AO2 SLP087 T00061061 FZRANO=
201903060856 METAR KPWT 060856Z AUTO 04007KT 10SM CLR 02/M07 A2975 RMK AO2 SLP091 T00171067 56022 FZRANO=
201903060756 METAR KPWT 060756Z AUTO 05009KT 10SM CLR 02/M07 A2976 RMK AO2 SLP097 T00171072 400831067 FZRANO=
201903060656 METAR KPWT 060656Z AUTO 05010KT 10SM CLR 02/M07 A2979 RMK AO2 SLP108 T00171072 FZRANO=
201903060556 METAR KPWT 060556Z AUTO 04011KT 10SM CLR 02/M07 A2981 RMK AO2 SLP114 6//// T00171072 10078 20017 58015 FZRANO=
201903060456 METAR KPWT 060456Z AUTO 05009KT 10SM CLR 02/M07 A2983 RMK AO2 SLP119 T00171072 FZRANO=
201903060356 METAR KPWT 060356Z AUTO 10SM CLR 02/M08 A2984 RMK AO2 SLP124 T00221078 FZRANO=
201903060256 METAR KPWT 060256Z AUTO 04010KT 10SM CLR 03/M08 A2986 RMK AO2 SLP129 T00281078 56016=
201903060156 METAR KPWT 060156Z AUTO 03010KT 10SM CLR 04/M07 A2986 RMK AO2 SLP130 T00391072=
201903060056 METAR KPWT 060056Z AUTO 03011KT 10SM CLR 07/M07 A2988 RMK AO2 SLP136 T00671067=
201903052356 METAR KPWT 052356Z AUTO 02010KT 10SM CLR 08/M07 A2990 RMK AO2 SLP145 6//// T00781067 10083 20044 56028=
201903052256 METAR KPWT 052256Z AUTO 02008KT 10SM CLR 08/M08 A2992 RMK AO2 SLP151 T00781083=
201903052156 METAR KPWT 052156Z AUTO 36007KT 10SM CLR 08/M08 A2996 RMK AO2 SLP163 T00781083=
201903052056 METAR KPWT 052056Z AUTO 04008KT 10SM CLR 07/M08 A2999 RMK AO2 SLP174 6//// T00671083 56026=
201903051956 METAR KPWT 051956Z AUTO 06008KT 10SM CLR 06/M08 A3001 RMK AO2 SLP182 T00611083=
201903051856 METAR KPWT 051856Z AUTO 07007KT 10SM CLR 05/M09 A3004 RMK AO2 SLP191 T00501089=
201903051756 METAR KPWT 051756Z AUTO 03009G14KT 10SM CLR 04/M08 A3007 RMK AO2 SLP199 6//// T00441083 10044 21067 58006=
201903051656 METAR KPWT 051656Z AUTO 03005KT 10SM CLR 03/M08 A3009 RMK AO2 SLP206 T00331078=
201903051556 METAR KPWT 051556Z AUTO 05007KT 10SM CLR 01/M08 A3008 RMK AO2 SLP205 T00061078 FZRANO=
201903051456 METAR KPWT 051456Z AUTO 05006KT 10SM CLR M02/M08 A3008 RMK AO2 SLP205 6//// T10221078 58020 FZRANO=
201903051356 METAR KPWT 051356Z AUTO 00000KT 10SM CLR M03/M09 A3011 RMK AO2 SLP213 T10331094 FZRANO=
201903051256 METAR KPWT 051256Z AUTO 04005KT 10SM CLR M02/M09 A3013 RMK AO2 SLP221 T10221089 FZRANO=
201903051156 METAR KPWT 051156Z AUTO 00000KT 10SM CLR M06/M09 A3014 RMK AO2 SLP227 6//// 7//// T10561094 11006 21061 58012 FZRANO=
201903051056 METAR KPWT 051056Z AUTO 00000KT 10SM CLR M04/M09 A3016 RMK AO2 SLP234 T10441089 FZRANO=
201903050956 METAR KPWT 050956Z AUTO 00000KT 10SM CLR M06/M09 A3018 RMK AO2 SLP237 T10561089 FZRANO=
201903050856 METAR KPWT 050856Z AUTO 00000KT 10SM CLR M04/M09 A3018 RMK AO2 SLP239 6//// T10441089 56012 FZRANO=
201903050756 METAR KPWT 050756Z AUTO 04004KT 10SM CLR M03/M09 A3019 RMK AO2 SLP243 T10281089 400611067 FZRANO=
201903050656 METAR KPWT 050656Z AUTO 05006KT 10SM CLR M02/M08 A3019 RMK AO2 SLP244 T10171083 FZRANO TSNO=
201903050556 METAR KPWT 050556Z AUTO 06005KT 10SM CLR 00/M08 A3021 RMK AO2 SLP250 6//// T00001078 10061 20000 55001 FZRANO=
201903050456 METAR KPWT 050456Z AUTO 06008KT 10SM CLR 01/M09 A3021 RMK AO2 SLP248 T00061089 FZRANO=
201903050356 METAR KPWT 050356Z AUTO 04010KT 10SM CLR 02/M10 A3021 RMK AO2 SLP249 T00171100 FZRANO=
201903050256 METAR KPWT 050256Z AUTO 05005KT 10SM CLR 01/M11 A3022 RMK AO2 SLP252 6//// T00061111 55001 FZRANO=
201903050156 METAR KPWT 050156Z AUTO 02004KT 10SM CLR 03/M12 A3021 RMK AO2 SLP249 T00281117=
201903050056 METAR KPWT 050056Z AUTO 03006KT 10SM CLR 06/M13 A3021 RMK AO2 SLP249 T00561128=
201903042356 METAR KPWT 042356Z AUTO 03008KT 10SM CLR 06/M13 A3022 RMK AO2 SLP252 T00611128 10061 20028 56010=
201903042256 METAR KPWT 042256Z AUTO 05008KT 10SM CLR 06/M13 A3023 RMK AO2 SLP256 T00561128=
201903042056 METAR KPWT 042056Z AUTO 04008KT 10SM CLR 05/M13 A3025 RMK AO2 SLP262 T00501133 58007=
201903041956 METAR KPWT 041956Z AUTO 10006KT 10SM CLR 04/M14 A3026 RMK AO2 SLP267 T00391139=
201903041856 METAR KPWT 041856Z AUTO 08008KT 040V130 10SM CLR 03/M14 A3026 RMK AO2 SLP267 T00331144=
201903041756 METAR KPWT 041756Z AUTO 05008KT 10SM CLR 03/M13 A3027 RMK AO2 SLP270 6//// T00281128 10028 21067 51006=
201903041656 METAR KPWT 041656Z AUTO 04008KT 10SM CLR 01/M12 A3027 RMK AO2 SLP271 T00111117 FZRANO=
201903041556 METAR KPWT 041556Z AUTO 03005KT 10SM CLR M01/M10 A3026 RMK AO2 SLP267 T10061100 FZRANO=
201903041456 METAR KPWT 041456Z AUTO 05003KT 10SM CLR M06/M11 A3025 RMK AO2 SLP264 6//// T10611106 50001 FZRANO=
201903041356 METAR KPWT 041356Z AUTO 00000KT 10SM CLR M03/M11 A3026 RMK AO2 SLP264 T10331106 FZRANO=
201903041256 METAR KPWT 041256Z AUTO 03004KT 10SM CLR M04/M10 A3026 RMK AO2 SLP266 T10441100 FZRANO=
201903041156 METAR KPWT 041156Z AUTO 03005KT 10SM CLR M04/M10 A3025 RMK AO2 SLP263 6//// 7//// T10391100 10006 21056 50000 FZRANO=
201903041056 METAR KPWT 041056Z AUTO 03005KT 10SM CLR M04/M09 A3025 RMK AO2 SLP263 T10441089 FZRANO=
201903040956 METAR KPWT 040956Z AUTO 00000KT 10SM CLR M04/M10 A3025 RMK AO2 SLP265 T10441100 FZRANO=
201903040856 METAR KPWT 040856Z AUTO 04004KT 10SM CLR M02/M12 A3025 RMK AO2 SLP263 6//// T10171122 FZRANO=
201903040756 METAR KPWT 040756Z AUTO 05007KT 10SM CLR M01/M12 RMK AO2 SLPNO T10061122 400721028 FZRANO $=
201903040656 METAR KPWT 040656Z AUTO 08007KT 10SM CLR 01/M14 A3026 RMK AO2 SLP264 T00061144 FZRANO=
201903040556 METAR KPWT 040556Z AUTO 09004KT 10SM CLR 00/M12 A3025 RMK AO2 SLP263 6//// T00001117 10067 21006 53007 FZRANO=
201903040456 METAR KPWT 040456Z AUTO 05004KT 10SM CLR 00/M08 A3024 RMK AO2 SLP261 T00001083 FZRANO=
201903040356 METAR KPWT 040356Z AUTO 03006KT 10SM CLR 02/M07 A3023 RMK AO2 SLP258 T00171067 FZRANO=
201903040256 METAR KPWT 040256Z AUTO 04008KT 10SM CLR 02/M06 A3023 RMK AO2 SLP255 T00171061 53003 FZRANO=
201903040156 METAR KPWT 040156Z AUTO 02006KT 10SM CLR 03/M08 A3021 RMK AO2 SLP251 T00331083=
201903040056 METAR KPWT 040056Z AUTO 03006KT 10SM CLR 06/M09 A3021 RMK AO2 SLP249 T00611089=
201903032356 METAR KPWT 032356Z AUTO 06011KT 10SM CLR 07/M10 A3022 RMK AO2 SLP252 T00671100 10072 20039 56013=
201903032256 METAR KPWT 032256Z AUTO 07010KT 10SM CLR 07/M10 A3023 RMK AO2 SLP256 T00671100=
201903032156 METAR KPWT 032156Z AUTO 07010KT 10SM CLR 06/M09 A3024 RMK AO2 SLP260 T00611094=
201903032056 METAR KPWT 032056Z AUTO 05008KT 10SM CLR 06/M09 A3026 RMK AO2 SLP266 T00561094 58008=
201903031956 METAR KPWT 031956Z AUTO 07007KT 10SM CLR 06/M09 A3027 RMK AO2 SLP271 T00561089=
201903031856 METAR KPWT 031856Z AUTO 03008KT 10SM CLR 05/M08 A3028 RMK AO2 SLP274 T00501083=
201903031756 METAR KPWT 031756Z AUTO 03006KT 10SM CLR 04/M07 A3029 RMK AO2 SLP276 6//// T00391072 10039 21028 50004=
201903031656 METAR KPWT 031656Z AUTO 03006KT 10SM CLR 03/M07 A3029 RMK AO2 SLP275 T00281067=
201903031556 METAR KPWT 031556Z AUTO 04007KT 10SM CLR 01/M06 A3028 RMK AO2 SLP272 T00061061 FZRANO=
201903031456 METAR KPWT 031456Z AUTO 03004KT 10SM CLR M02/M06 A3027 RMK AO2 SLP270 6//// T10221061 50004 FZRANO=
201903031356 METAR KPWT 031356Z AUTO 05004KT 10SM CLR M02/M06 A3027 RMK AO2 SLP271 T10171061 FZRANO=
201903031256 METAR KPWT 031256Z AUTO 04004KT 10SM CLR M01/M06 A3027 RMK AO2 SLP269 T10061056 FZRANO=
201903031156 METAR KPWT 031156Z AUTO 06006KT 10SM CLR M01/M06 A3026 RMK AO2 SLP267 6//// 7//// T10111056 10022 21011 51007 FZRANO=
201903031056 METAR KPWT 031056Z AUTO 05007KT 10SM CLR M01/M06 A3025 RMK AO2 SLP264 T10061056 FZRANO=
201903030956 METAR KPWT 030956Z AUTO 05008KT 10SM CLR 01/M06 A3025 RMK AO2 SLP264 T00061061 FZRANO=
201903030856 METAR KPWT 030856Z AUTO 04006KT 10SM CLR M01/M06 A3024 RMK AO2 SLP260 T10061056 53013 FZRANO=
201903030756 METAR KPWT 030756Z AUTO 02005KT 10SM CLR 01/M06 A3022 RMK AO2 SLP254 T00061061 400940006 FZRANO=
201903030556 METAR KPWT 030556Z AUTO 05008KT 10SM CLR 02/M07 A3020 RMK AO2 SLP247 6//// T00221067 10089 20022 51015 FZRANO=
201903030456 METAR KPWT 030456Z AUTO 06007KT 10SM CLR 03/M07 A3019 RMK AO2 SLP244 T00281072=
201903030356 METAR KPWT 030356Z AUTO 07007KT 10SM CLR 03/M07 A3018 RMK AO2 SLP238 T00331067=
201903030256 METAR KPWT 030256Z AUTO 04010KT 10SM CLR 04/M05 A3016 RMK AO2 SLP230 T00441050 53016=
201903030156 METAR KPWT 030156Z AUTO 05008KT 10SM CLR 05/M04 A3014 RMK AO2 SLP226 T00501044=
201903030056 METAR KPWT 030056Z AUTO 05009KT 10SM CLR 08/M04 A3012 RMK AO2 SLP218 T00781039=
201903022356 METAR KPWT 022356Z AUTO 04008KT 10SM CLR 09/M03 A3011 RMK AO2 SLP214 T00891033 10094 20056 56004=
201903022256 METAR KPWT 022256Z AUTO 05011KT 10SM CLR 09/M03 A3011 RMK AO2 SLP215 T00891028=
201903022156 METAR KPWT 022156Z AUTO 05010KT 10SM CLR 08/M02 A3011 RMK AO2 SLP215 T00831017=
201903022056 METAR KPWT 022056Z AUTO 05011G16KT 10SM CLR 08/M01 A3012 RMK AO2 SLP219 T00831011 58007=
201903021956 METAR KPWT 021956Z AUTO 04012G16KT 10SM CLR 07/M01 A3013 RMK AO2 SLP223 T00721011=
201903021856 METAR KPWT 021856Z AUTO 04012KT 10SM CLR 07/00 A3014 RMK AO2 SLP227 T00670000=
201903021756 METAR KPWT 021756Z AUTO 03013G21KT 10SM CLR 06/00 A3014 RMK AO2 SLP227 6//// T00560000 10056 20006 50003=
201903021656 METAR KPWT 021656Z AUTO 05014G18KT 10SM CLR 04/00 A3015 RMK AO2 SLP229 T00390000=
201903021556 METAR KPWT 021556Z AUTO 05008KT 10SM CLR 02/M01 A3014 RMK AO2 SLP225 T00221006 FZRANO=
201903021456 METAR KPWT 021456Z AUTO 05008KT 10SM BKN070 01/M01 A3013 RMK AO2 SLP223 6//// T00111011 56002 FZRANO=
201903021356 METAR KPWT 021356Z AUTO 04008KT 10SM BKN070 02/M01 A3013 RMK AO2 SLP224 T00171011 FZRANO=
201903021256 METAR KPWT 021256Z AUTO 05007KT 10SM CLR 01/M02 A3013 RMK AO2 SLP223 T00111022 FZRANO=
201903021156 METAR KPWT 021156Z AUTO 05007KT 10SM CLR 02/M02 A3014 RMK AO2 SLP225 6//// 7//// T00171022 10022 20006 FZRANO=
201903021056 METAR KPWT 021056Z AUTO 05008KT 10SM BKN070 02/M02 A3014 RMK AO2 SLP226 T00171017 FZRANO=
201903020956 METAR KPWT 020956Z AUTO 05006KT 10SM SCT046 BKN070 02/M03 A3015 RMK AO2 SLP230 T00171028 FZRANO=
201903020856 METAR KPWT 020856Z AUTO 06005KT 10SM FEW070 02/M03 RMK AO2 SLPNO 6//// T00171028 FZRANO $=
201903020756 METAR KPWT 020756Z AUTO 06007KT 10SM CLR 02/M03 A3015 RMK AO2 SLP229 T00221028 400891022 FZRANO=
201903020656 METAR KPWT 020656Z AUTO 05005KT 10SM CLR 01/M03 A3015 RMK AO2 SLP230 T00111028 FZRANO=
201903020556 METAR KPWT 020556Z AUTO 06005KT 10SM CLR 02/M03 A3015 RMK AO2 SLP231 6//// T00171028 10083 20011 53008 FZRANO=
201903020456 METAR KPWT 020456Z AUTO 06006KT 10SM CLR 02/M02 A3014 RMK AO2 SLP225 T00221022 FZRANO=
201903020356 METAR KPWT 020356Z AUTO 06006KT 10SM CLR 03/M02 A3013 RMK AO2 SLP222 T00281022=
201903020256 METAR KPWT 020256Z AUTO 05004KT 10SM CLR 02/M03 A3013 RMK AO2 SLP221 T00221028 53006 FZRANO=
201903020156 METAR KPWT 020156Z AUTO 02004KT 10SM CLR 04/M02 A3011 RMK AO2 SLP216 T00441022=
201903020056 METAR KPWT 020056Z AUTO 02007KT 10SM CLR 08/M02 A3011 RMK AO2 SLP216 T00781022=
201903012356 METAR KPWT 012356Z AUTO VRB05KT 10SM CLR 08/M02 A3011 RMK AO2 SLP216 T00781017 10089 20044 56006=
201903012256 METAR KPWT 012256Z AUTO 02008KT 10SM CLR 08/M02 A3011 RMK AO2 SLP216 T00831017=
201903012156 METAR KPWT 012156Z AUTO 03007KT 10SM BKN042 OVC050 07/M01 A3012 RMK AO2 SLP218 T00721011=
201903012056 METAR KPWT 012056Z AUTO 04007KT 10SM BKN047 07/M02 A3013 RMK AO2 SLP221 T00721017 58004=
201903011956 METAR KPWT 011956Z AUTO 05007KT 10SM CLR 08/00 A3013 RMK AO2 SLP223 T00780000=
201903011856 METAR KPWT 011856Z AUTO 05010KT 10SM SCT048 06/00 A3014 RMK AO2 SLP225 T00610000=
201903011756 METAR KPWT 011756Z AUTO 04010KT 10SM BKN050 04/00 A3014 RMK AO2 SLP226 6//// T00440000 10044 21017 50003=
201903011656 METAR KPWT 011656Z AUTO 04008KT 10SM FEW050 03/00 A3014 RMK AO2 SLP228 T00330000=
201903011556 METAR KPWT 011556Z AUTO 05004KT 10SM CLR 02/00 A3014 RMK AO2 SLP223 T00170000 FZRANO=
201903011456 METAR KPWT 011456Z AUTO 04006KT 10SM OVC050 01/00 A3013 RMK AO2 SLP221 6//// T00110000 53001 FZRANO=
201903011356 METAR KPWT 011356Z AUTO 02003KT 10SM OVC055 00/M01 A3013 RMK AO2 SLP220 T00001006 FZRANO=
201903011256 METAR KPWT 011256Z AUTO 00000KT 10SM OVC050 M01/M01 A3013 RMK AO2 SLP222 T10061011 FZRANO=
201903011156 METAR KPWT 011156Z AUTO 00000KT 10SM OVC050 M02/M02 A3013 RMK AO2 SLP222 6//// 7//// T10171022 10033 21022 58002 FZRANO=
201903011056 METAR KPWT 011056Z AUTO 00000KT 10SM SCT046 M02/M03 A3014 RMK AO2 SLP225 T10221033 FZRANO=
201903010956 METAR KPWT 010956Z AUTO 00000KT 10SM BKN047 OVC060 01/M01 A3014 RMK AO2 SLP226 T00111011 FZRANO=
201903010856 METAR KPWT 010856Z AUTO 00000KT 10SM OVC047 02/M01 A3014 RMK AO2 SLP224 6//// T00171006 51002 FZRANO=
201903010756 METAR KPWT 010756Z AUTO 04004KT 10SM OVC065 02/M01 A3013 RMK AO2 SLP224 T00171006 400941056 FZRANO=
201903010656 METAR KPWT 010656Z AUTO 00000KT 10SM OVC065 03/M01 A3013 RMK AO2 SLP224 T00281011=
201903010556 METAR KPWT 010556Z AUTO 28003KT 10SM OVC060 03/M01 A3013 RMK AO2 SLP222 6//// T00331011 10083 20033 51010=
201903010456 METAR KPWT 010456Z AUTO 24004KT 10SM OVC060 03/M01 A3012 RMK AO2 SLP218 T00331006=
201903010356 METAR KPWT 010356Z AUTO 22006KT 10SM OVC060 03/M01 A3011 RMK AO2 SLP216 T00331006=
201903010256 METAR KPWT 010256Z AUTO 23006KT 10SM OVC075 04/M02 A3010 RMK AO2 SLP210 T00391017 53012=
201903010156 METAR KPWT 010156Z AUTO 00000KT 10SM CLR 04/M03 A3007 RMK AO2 SLP202 T00391028=
201903010056 METAR KPWT 010056Z AUTO 07004KT 10SM CLR 07/M04 A3006 RMK AO2 SLP199 T00671039=

# No short TAF reports from KPWT in databse.

###################################
#  large TAF from KPWT
###################################
201903312320 TAF KPWT 312320Z 0100/0124 05007KT P6SM FEW035 SCT250 FM010500
                       00000KT P6SM BKN250 FM011400 02005KT P6SM
                       BKN150 OVC250 FM012100 03010KT P6SM BKN100
                       OVC150=
201903311725 TAF KPWT 311725Z 3118/0118 06005KT P6SM SCT250 FM010500 00000KT
                       P6SM BKN250 FM011400 02005KT P6SM BKN150
                       OVC250=
201903311120 TAF KPWT 311120Z 3112/0112 00000KT P6SM SCT200 FM311800 36006KT
                       P6SM BKN200 FM010500 00000KT P6SM SCT200=
201903310520 TAF KPWT 310520Z 3106/0106 00000KT P6SM SCT200 FM311200 00000KT
                       P6SM SCT002 BKN250
                      TEMPO 3112/3116 1/2SM FG VV002 FM311800 36006KT
                       P6SM BKN200=
201903302326 TAF KPWT 302326Z 3100/3124 04005KT P6SM FEW040 FM310300 VRB03KT
                       P6SM SCT250 FM311200 00000KT P6SM SCT002
                       BKN250
                      TEMPO 3112/3116 1/2SM FG VV002=
201903301721 TAF KPWT 301721Z 3018/3118 VRB03KT P6SM SKC FM302000 04005KT P6SM
                       FEW040 FM310300 VRB03KT P6SM BKN250 FM311200
                       00000KT 5SM BR SCT002 BKN250
                      TEMPO 3112/3116 1/2SM FG VV002=
201903301556 KPWT 301556Z 3016/3112 00000KT P6SM SCT001 FM301700 VRB03KT P6SM
                       SKC FM301900 04005KT P6SM SKC FM310300 00000KT
                       P6SM BKN250=
201903301521 KPWT 301521Z 3015/3112 00000KT 1/4SM FG OVC001 FM301800 VRB03KT
                       5SM BR SCT002 FM301900 04005KT P6SM SKC
                       FM310300 00000KT P6SM BKN250=
201903301120 TAF KPWT 301120Z 3012/3112 VRB03KT P6SM SKC
                      TEMPO 3012/3016 1/4SM FG FM302100 05005KT
                       P6SM SCT200=
201903301022 KPWT 301022Z 3010/3106 00000KT 2SM BR SKC FM301400 VRB02KT P6SM
                       SCT200 FM302100 05005KT P6SM SCT200=
201903300520 TAF KPWT 300520Z 3006/3106 00000KT P6SM SCT200
                      TEMPO 3012/3016 2SM BR FM302100 05005KT P6SM
                       SCT200=
201903292320 TAF KPWT 292320Z 3000/3024 05004KT P6SM FEW040 SCT120 BKN200 FM300500
                       00000KT P6SM SCT120 BKN250
                      TEMPO 3012/3016 2SM BR FM302100 05005KT P6SM
                       SCT250=
201903291723 TAF KPWT 291723Z 2918/3018 00000KT P6SM BKN120 BKN250 FM292100
                       04006KT P6SM BKN120 BKN250 FM300500 00000KT
                       P6SM BKN120 BKN250 FM301000 00000KT P6SM
                       SCT120 BKN250
                      TEMPO 3012/3016 2SM BR=
201903291120 TAF KPWT 291120Z 2912/3012 VRB03KT P6SM SCT100 FM292100 04006KT
                       P6SM SCT040 BKN080 FM300300 06005KT P6SM
                       SCT200=
201903290520 TAF KPWT 290520Z 2906/3006 04004KT P6SM SCT100 FM291500 VRB03KT
                       P6SM SCT080 BKN200 FM292100 04006KT P6SM
                       SCT040 BKN080 FM300300 06005KT P6SM SCT200=
201903290314 KPWT 290314Z 2903/2924 04004KT P6SM FEW040 SCT200 FM291500 VRB03KT
                       P6SM SCT080 BKN200 FM292100 04006KT P6SM
                       SCT040 BKN080=
201903282339 TAF KPWT 282339Z 2900/2924 03004KT P6SM FEW040 BKN250 FM291100
                       15003KT P6SM BKN100 FM292100 04005KT P6SM
                       BKN080 BKN250=
201903281739 TAF KPWT 281739Z 2818/2918 VRB03KT P6SM BKN100 FM282000 03004KT
                       P6SM BKN250 FM291100 VRB03KT P6SM BKN100=
201903281120 TAF KPWT 281120Z 2812/2912 VRB03KT P6SM OVC100 FM282000 03004KT
                       P6SM SCT250 FM291100 VRB03KT P6SM BKN100=
201903280526 TAF KPWT 280526Z 2806/2906 VRB05KT P6SM -SHRA SCT050 OVC070 FM280800
                       18006KT P6SM FEW030 OVC050 FM281500 VRB03KT
                       P6SM BKN040 OVC070 FM282200 04006KT P6SM
                       SCT050 SCT250=
201903280309 KPWT 280309Z 2803/2824 20010KT P6SM -SHRA SCT050 OVC070 FM280800
                       18006KT P6SM FEW030 OVC040 FM281500 VRB03KT
                       P6SM SCT030 BKN040 OVC070 FM282200 04006KT
                       P6SM SCT050 SCT250=
201903280131 KPWT 280131Z 2802/2824 03008KT P6SM -SHRA SCT040 OVC080 FM280700
                       17008KT P6SM BKN040 OVC060 FM281500 VRB03KT
                       P6SM SCT030 BKN040 OVC070 FM282200 03004KT
                       P6SM BKN120 BKN250=
201903272341 TAF KPWT 272341Z 2800/2824 03008KT P6SM SCT080 BKN150 FM280300
                       17008KT P6SM -SHRA SCT040 OVC080 FM280700
                       17008KT P6SM BKN040 OVC060 FM281500 VRB03KT
                       P6SM SCT030 BKN040 OVC070 FM282200 03004KT
                       P6SM BKN120 BKN250=
201903271737 TAF KPWT 271737Z 2718/2818 03014G22KT P6SM BKN250 FM272200 03008KT
                       P6SM SCT080 OVC150 FM280300 17008KT P6SM
                       -SHRA SCT040 OVC080 FM280700 17008KT P6SM
                       BKN040 OVC060 FM281500 VRB03KT P6SM SCT030
                       BKN040 OVC070=
201903271139 TAF KPWT 271139Z 2712/2812 03014KT P6SM SCT250 FM272200 03008KT
                       P6SM SCT080 OVC150 FM280200 17008KT P6SM
                       VCSH SCT040 OVC080 FM280600 17008KT P6SM
                       -SHRA BKN040 OVC060=
201903270538 TAF KPWT 270538Z 2706/2806 03005KT P6SM SCT250 FM271700 02009KT
                       P6SM BKN180 FM280100 VRB06KT P6SM VCSH FEW040
                       BKN080=
201903262337 TAF KPWT 262337Z 2700/2724 VRB04KT P6SM SCT050 BKN090 FM270300
                       03005KT P6SM SCT250 FM271900 02009KT P6SM
                       SCT250 FM272200 02007KT P6SM BKN150=
201903261737 TAF KPWT 261737Z 2618/2718 21007KT P6SM SCT009 BKN040 BKN080 FM262000
                       VRB04KT P6SM SCT050 BKN090 FM270300 03007KT
                       P6SM SCT250=
201903261507 KPWT 261507Z 2615/2712 19006KT P6SM SCT030 BKN045 BKN080
                      TEMPO 2615/2618 BKN007 FM262100 VRB03KT P6SM
                       SCT050 BKN090 FM270400 04006KT P6SM SCT250=
201903261132 TAF KPWT 261132Z 2612/2712 19006KT P6SM -SHRA BKN015 OVC030 FM261500
                       19006KT P6SM SCT030 BKN045 BKN080 FM262100
                       VRB03KT P6SM SCT050 BKN090 FM270400 04006KT
                       P6SM SCT250=
201903260528 TAF KPWT 260528Z 2606/2706 20011KT P6SM VCSH SCT008 OVC040
                      TEMPO 2606/2610 6SM -SHRA BKN008 FM261200
                       19007KT P6SM SCT020 BKN030 OVC040 FM261700
                       19008KT P6SM BKN040 FM262100 17005KT P6SM
                       BKN100 FM270400 04007KT P6SM SCT250=
201903260323 KPWT 260323Z 2603/2624 21015G20KT P6SM -RA BKN007 OVC030 FM260500
                       21011G18KT P6SM VCSH SCT007 BKN015 OVC030
                       FM260800 20007KT P6SM SCT015 OVC025 FM261200
                       19007KT P6SM SCT020 BKN030 OVC040 FM261700
                       19008KT P6SM BKN040 FM262100 17005KT P6SM
                       BKN100=
201903252337 TAF KPWT 252337Z 2600/2624 22011G15KT 6SM -RA SCT030 BKN040 OVC060
                       FM260300 19011G18KT P6SM VCSH BKN025 OVC030
                       FM260800 20007KT P6SM SCT015 OVC025 FM261200
                       19007KT P6SM SCT020 BKN030 OVC040 FM261700
                       19008KT P6SM BKN040 FM262100 17005KT P6SM
                       BKN100=
201903251737 TAF KPWT 251737Z 2518/2618 03006KT P6SM BKN140 FM252100 21010KT
                       P6SM BKN060 OVC100 FM252300 21011G15KT 6SM
                       -RA SCT030 BKN040 OVC060 FM260200 19011G18KT
                       P6SM VCSH BKN025 OVC030 FM260800 20007KT
                       P6SM SCT015 OVC025 FM261700 19008KT P6SM
                       BKN040=
201903251130 TAF KPWT 251130Z 2512/2612 05007KT P6SM BKN200 FM251400 03006KT
                       P6SM BKN100 OVC200 FM252100 21010KT P6SM
                       BKN060 OVC100 FM252300 21011G15KT 6SM -RA
                       SCT030 BKN040 OVC060 FM260200 19011G18KT
                       P6SM VCSH BKN025 OVC030 FM260800 20007KT
                       P6SM SCT015 OVC025=
201903250530 TAF KPWT 250530Z 2506/2606 VRB03KT P6SM FEW080 SCT250 FM251200
                       00000KT P6SM BKN150 BKN250 FM252000 03010KT
                       P6SM VCSH SCT050 OVC100 FM252200 16011KT
                       6SM -RA SCT030 BKN040 OVC060 FM260200 19011G18KT
                       P6SM -SHRA BKN025 OVC030=
201903242321 TAF KPWT 242321Z 2500/2524 VRB05KT P6SM SCT035 SCT070 OVC120
                      TEMPO 2500/2503 BKN035 FM250300 05004KT P6SM
                       SCT070 SCT250 FM251500 03008KT P6SM BKN250
                       FM252100 04009KT P6SM SCT070 BKN120 OVC250=
201903242103 KPWT 242103Z 2421/2518 25004KT P6SM BKN030 BKN250 FM250300 04004KT
                       P6SM SCT250 FM251500 02008KT P6SM BKN250=
201903241720 TAF KPWT 241720Z 2418/2518 24005KT P6SM SCT030 BKN070 FM242100
                       25004KT P6SM SCT035 BKN070 FM250300 04004KT
                       P6SM SCT250 FM251500 02008KT P6SM BKN250=
201903241344 KPWT 241344Z 2414/2512 00000KT 4SM BR BKN040 BKN060 FM241700 18005KT
                       P6SM SCT020 BKN035 BKN060 FM242100 20004KT
                       P6SM SCT040 BKN070 FM250300 00000KT P6SM
                       SCT250=
201903241133 TAF KPWT 241133Z 2412/2512 00000KT P6SM BKN040 BKN060 FM241700
                       18005KT P6SM SCT020 BKN035 BKN060 FM242100
                       20004KT P6SM SCT040 BKN070 FM250300 00000KT
                       P6SM SCT250=
201903240532 TAF KPWT 240532Z 2406/2506 00000KT P6SM BKN040 BKN070 FM241200
                       00000KT P6SM SCT008 BKN020 FM241800 20005KT
                       P6SM BKN025 FM242100 18004KT P6SM SCT040
                       SCT200 FM250300 03004KT P6SM SCT250=
201903232324 TAF KPWT 232324Z 2400/2424 24008KT P6SM FEW040 SCT200 FM240400
                       VRB03KT P6SM FEW030 SCT200 FM241200 00000KT
                       P6SM SCT008 BKN012 FM241800 20005KT P6SM
                       BKN025 FM242100 18004KT P6SM SCT040 SCT200=
201903231720 TAF KPWT 231720Z 2318/2418 18006KT P6SM FEW050 BKN120 BKN200
                      TEMPO 2318/2319 BKN002 FM232100 29005KT P6SM
                       SCT060 BKN120 BKN200 FM240400 04005KT P6SM
                       SCT060 BKN080 FM241300 20004KT P6SM BKN018
                       OVC030=
201903231304 KPWT 231304Z 2313/2412 VRB03KT 3SM BR BKN002
                      TEMPO 2313/2315 1/2SM FG OVC002 FM231800
                       VRB04KT P6SM BKN018 BKN100 FM232100 VRB05KT
                       P6SM SCT030 BKN090 FM240400 VRB03KT P6SM
                       BKN060 FM240900 00000KT 6SM BR BKN007 OVC015=
201903231133 TAF KPWT 231133Z 2312/2412 VRB03KT 6SM BR BKN004
                      TEMPO 2312/2314 3SM BR OVC004 FM231800 VRB04KT
                       P6SM BKN018 BKN100 FM232100 VRB05KT P6SM
                       SCT030 BKN090 FM240400 VRB03KT P6SM BKN060
                       FM240900 00000KT 6SM BR BKN007 OVC015=
201903230520 TAF KPWT 230520Z 2306/2406 22006KT P6SM VCSH BKN050 FM231000 22006KT
                       P6SM VCSH SCT025 BKN040
                      TEMPO 2310/2314 BKN025 BKN040 FM232100 VRB04KT
                       P6SM SCT040=
201903230304 KPWT 230304Z 2303/2324 19010KT P6SM VCSH BKN040 BKN120 FM230800
                       18007KT P6SM BKN025 BKN040 FM231700 18007KT
                       P6SM BKN030 FM232100 25005KT P6SM SCT040
                       BKN250=
201903222320 TAF KPWT 222320Z 2300/2324 20015G22KT P6SM -SHRA SCT020 BKN050
                       OVC080 FM230300 19010KT P6SM VCSH SCT020
                       OVC060 FM230800 19007KT P6SM BKN020 OVC040
                       FM231700 18005KT P6SM BKN030 FM232100 25005KT
                       P6SM SCT040 BKN250=
201903222114 KPWT 222114Z 2221/2318 20012KT P6SM FEW030 SCT100 BKN200 FM222200
                       19012G20KT P6SM -SHRA BKN045 OVC080 FM230200
                       20011KT P6SM VCSH BKN030 OVC050 FM230900
                       VRB03KT P6SM BKN025 OVC030=
201903221721 TAF KPWT 221721Z 2218/2318 24004KT P6SM FEW120 SCT250 FM222200
                       20010KT P6SM SCT070 BKN100 OVC250 FM230000
                       19012G20KT P6SM -SHRA BKN045 OVC080 FM230200
                       20011KT P6SM VCSH BKN030 OVC050 FM230900
                       VRB03KT P6SM BKN025 OVC030=
201903221503 KPWT 221503Z 2215/2312 00000KT 6SM BR FEW050
                      TEMPO 2215/2217 1SM BR FM221700 16005KT P6SM
                       SCT100 FM222200 19012G20KT P6SM -SHRA BKN045
                       OVC080 FM230200 20011KT P6SM VCSH BKN030
                       OVC050 FM230900 VRB03KT P6SM BKN025 OVC030=
201903221130 TAF KPWT 221130Z 2212/2312 00000KT 6SM BR FEW040 SCT120
                      TEMPO 2212/2215 2SM BR FM221600 16005KT P6SM
                       SCT100 FM222200 19012G20KT P6SM -SHRA BKN045
                       OVC080 FM230200 20011KT P6SM VCSH BKN030
                       OVC050 FM230900 VRB03KT P6SM BKN025 OVC030=
201903220535 TAF KPWT 220535Z 2206/2306 00000KT P6SM BKN100 FM220700 19006KT
                       P6SM BKN050 OVC070 FM221200 19004KT P6SM
                       BKN015 FM221700 18005KT P6SM BKN035 FM222100
                       19010KT P6SM OVC050 FM230300 20007KT P6SM
                       VCSH BKN030 OVC050=
201903212337 TAF KPWT 212337Z 2200/2224 20012KT P6SM SCT025 BKN100 FM220700
                       19006KT P6SM BKN050 OVC070 FM221200 19004KT
                       P6SM BKN015 FM221700 18005KT P6SM BKN035=
201903211739 TAF KPWT 211739Z 2118/2218 21009KT P6SM FEW015 SCT050 SCT100 FM212100
                       20012KT P6SM BKN070 BKN100 FM220700 19006KT
                       P6SM BKN040 OVC050 FM221200 19004KT P6SM
                       BKN015 FM221700 18005KT P6SM BKN035=
201903211348 KPWT 211348Z 2114/2212 VRB04KT P6SM SCT250
                      TEMPO 2114/2116 3SM BR FM211600 18007KT P6SM
                       SCT050 SCT100 FM212100 20012KT P6SM BKN050
                       BKN100 FM220700 19006KT P6SM BKN030 OVC050=
201903211143 TAF KPWT 211143Z 2112/2212 VRB03KT P6SM SCT250 FM211600 18007KT
                       P6SM SCT050 SCT100 FM212100 20012KT P6SM
                       BKN050 BKN100 FM220700 19006KT P6SM BKN030
                       OVC050=
201903210656 TAF KPWT 210656Z 2107/2206 21004KT P6SM SCT150 FM210900 17005KT
                       P6SM SCT050 BKN150 FM211500 18007KT P6SM
                       SCT040 BKN070 FM212200 19014KT P6SM BKN050
                       FM220300 19006KT P6SM BKN030=
201903202339 TAF KPWT 202339Z 2100/2124 05009KT P6SM SKC FM210300 13008KT P6SM
                       SCT150 FM210900 17005KT P6SM SCT050 BKN150
                       FM211500 18007KT P6SM SCT040 BKN070 FM212200
                       19014KT P6SM BKN050=
201903201737 TAF KPWT 201737Z 2018/2118 05004KT P6SM SKC FM202100 07008KT P6SM
                       SKC FM210300 15007KT P6SM FEW050 BKN100
                       FM210900 17005KT P6SM SCT050 BKN150 FM211500
                       13007KT P6SM SCT040 BKN070=
201903201138 TAF KPWT 201138Z 2012/2112 04005KT P6SM SKC FM201500 06004KT P6SM
                       SKC FM202100 07008KT P6SM SKC FM210300 15003KT
                       P6SM FEW050 BKN100=
201903200539 TAF KPWT 200539Z 2006/2106 06004KT P6SM SKC FM200900 00000KT P6SM
                       SKC FM201500 34004KT P6SM SKC FM202100 32010KT
                       P6SM SKC FM210300 15003KT P6SM FEW050 BKN100=
201903192338 TAF KPWT 192338Z 2000/2024 02005KT P6SM SKC=
201903191736 TAF KPWT 191736Z 1918/2018 03008KT P6SM SKC FM192100 04012G18KT
                       P6SM SKC FM200000 02005KT P6SM SKC=
201903191135 TAF KPWT 191135Z 1912/2012 04006KT P6SM SKC FM191800 03008G15KT
                       P6SM SKC FM200000 02006KT P6SM SKC=
201903190538 TAF KPWT 190538Z 1906/2006 00000KT P6SM SKC FM190700 04004KT P6SM
                       SKC FM191200 02003KT P6SM SKC FM191800 03007G15KT
                       P6SM SKC FM200000 02006KT P6SM SKC=
201903182338 TAF KPWT 182338Z 1900/1924 04012G20KT P6SM SKC FM190300 04007KT
                       P6SM SKC FM191200 02005KT P6SM SKC FM191800
                       03007G15KT P6SM SKC=
201903181736 TAF KPWT 181736Z 1818/1918 04010KT P6SM SKC FM182100 05012G20KT
                       P6SM SKC FM190300 04007KT P6SM SKC=
201903181144 TAF KPWT 181144Z 1812/1912 04010KT P6SM SKC FM182000 03012G20KT
                       P6SM SKC FM190300 03007KT P6SM SKC=
201903180520 TAF KPWT 180520Z 1806/1906 05010KT P6SM SKC=
201903172322 TAF KPWT 172322Z 1800/1824 04010KT P6SM SKC FM180500 04008KT P6SM
                       SKC FM181800 02013KT P6SM SKC=
201903171750 TAF KPWT 171750Z 1718/1818 04010KT P6SM SKC FM180400 04008KT P6SM
                       SKC=
201903171140 TAF KPWT 171140Z 1712/1812 04006KT P6SM SKC FM171500 03006KT P6SM
                       FEW200 FM171800 03009KT P6SM SKC FM180200
                       02005KT P6SM SKC=
201903170520 TAF KPWT 170520Z 1706/1806 03006KT P6SM BKN200 FM171500 03006KT
                       P6SM FEW200 FM171800 02009KT P6SM SKC=
201903162330 TAF KPWT 162330Z 1700/1724 03004KT P6SM BKN200 FM171500 03006KT
                       P6SM FEW200 FM171800 02009KT P6SM SKC=
201903161720 TAF KPWT 161720Z 1618/1718 02006KT P6SM FEW120 BKN200 FM170400
                       03002KT P6SM SCT200 FM171500 03006KT P6SM
                       FEW200 FM171700 02009KT P6SM SKC=
201903161137 TAF KPWT 161137Z 1612/1712 05006KT P6SM BKN200 FM161800 05008KT
                       P6SM BKN200 FM170900 03002KT P6SM SCT220=
201903160520 TAF KPWT 160520Z 1606/1706 05008KT P6SM BKN200 FM161800 05008KT
                       P6SM SCT200=
201903152320 TAF KPWT 152320Z 1600/1624 04006KT P6SM FEW080 BKN250 FM160500
                       03006KT P6SM SCT250 FM161800 03004KT P6SM
                       FEW250=
201903151720 TAF KPWT 151720Z 1518/1618 02006KT P6SM SCT250 FM160500 04006KT
                       P6SM SKC=
201903151133 TAF KPWT 151133Z 1512/1612 VRB03KT P6SM SCT100 BKN200 FM152000
                       02006KT P6SM SCT200 FM160500 04006KT P6SM
                       SKC=
201903150520 TAF KPWT 150520Z 1506/1606 VRB03KT P6SM OVC070 FM151200 VRB03KT
                       P6SM BKN060 BKN120 FM151800 VRB03KT P6SM
                       SCT060 SCT120 FM152100 02006KT P6SM SCT150
                       FM160500 04006KT P6SM SKC=
201903142320 TAF KPWT 142320Z 1500/1524 20008KT P6SM BKN070 OVC200 FM150600
                       VRB03KT P6SM SCT040 BKN080 FM152100 06004KT
                       P6SM SCT060=
201903141733 TAF KPWT 141733Z 1418/1518 VRB05KT P6SM BKN100 OVC200 FM142200
                       20008KT P6SM BKN080 OVC200 FM150600 VRB03KT
                       P6SM SCT040 BKN080=
201903141136 TAF KPWT 141136Z 1412/1512 VRB03KT P6SM BKN050 BKN150 FM142000
                       18005KT P6SM SCT050 BKN120 OVC200 FM150600
                       13003KT P6SM SCT040 BKN100=
201903140520 TAF KPWT 140520Z 1406/1506 VRB03KT P6SM BKN050 BKN250 FM142000
                       18006KT P6SM SCT050 BKN120 OVC200=
201903132320 TAF KPWT 132320Z 1400/1424 19006KT P6SM OVC035 FM141000 00000KT
                       1SM BR BKN005 BKN040 FM141500 VRB03KT 3SM
                       BR SCT005 BKN010 FM141800 19004KT P6SM BKN030=
201903131733 TAF KPWT 131733Z 1318/1418 00000KT 1/2SM FG OVC002 FM131900 VRB02KT
                       1SM BR BKN005 OVC015 FM132000 19006KT P6SM
                       SCT015 BKN050 FM141000 00000KT 1SM BR BKN005
                       BKN040 FM141500 VRB03KT 3SM BR SCT005 BKN010=
201903131612 KPWT 131612Z 1316/1412 00000KT 1/4SM FG OVC002 FM131800 VRB02KT
                       6SM BR OVC015 FM131900 19006KT P6SM BKN050
                       FM140000 VRB03KT P6SM BKN100=
201903131138 TAF KPWT 131138Z 1312/1412 VRB02KT 6SM BR OVC015
                      TEMPO 1312/1316 1/2SM FZFG OVC002 FM131800
                       19006KT P6SM BKN050 FM140000 VRB03KT P6SM
                       BKN100=
201903130858 KPWT 130858Z 1309/1406 09005KT P6SM VCSH SCT035 BKN050
                      TEMPO 1309/1312 1/2SM FZFG OVC001 FM131200
                       VRB04KT 6SM BR OVC015 FM131800 19006KT P6SM
                       BKN050 FM140000 19006KT P6SM BKN100=
201903130535 TAF KPWT 130535Z 1306/1406 09005KT P6SM VCSH SCT035 BKN050 FM131000
                       VRB04KT 6SM BR OVC015 FM131800 19006KT P6SM
                       BKN050 FM140000 19006KT P6SM BKN100=
201903130128 KPWT 130128Z 1301/1324 09005KT P6SM SCT029 OVC045
                      TEMPO 1301/1305 -SHRA BKN029 OVC040 FM131000
                       VRB04KT 6SM BR OVC015 FM131800 19006KT P6SM
                       BKN050=
201903122328 TAF KPWT 122328Z 1300/1324 VRB06KT P6SM BKN050 FM131000 VRB04KT
                       6SM BR OVC015 FM131800 19006KT P6SM BKN050=
201903121726 TAF KPWT 121726Z 1218/1318 VRB05KT 1/2SM FG OVC001 FM122000 24010G16KT
                       P6SM VCSH BKN020 FM130000 20010KT P6SM BKN050
                       FM130600 VRB04KT 4SM BR BKN001=
201903121509 KPWT 121509Z 1215/1312 VRB05KT 3SM BR SCT001 OVC015 FM122200 24015G22KT
                       P6SM VCSH BKN020 FM130000 20010KT P6SM BKN035
                       FM130600 19003KT P6SM BKN050=
201903121138 TAF KPWT 121138Z 1212/1312 23010KT P6SM -RA SCT012 BKN015 OVC025
                       FM121400 18010G16KT P6SM -SHRA BKN010 FM122200
                       24015G22KT P6SM VCSH BKN020 FM130000 20010KT
                       P6SM BKN035 FM130600 19003KT P6SM BKN050=
201903120539 TAF KPWT 120539Z 1206/1306 23010KT P6SM -RA BKN005 BKN014 OVC035
                       FM121500 05010KT P6SM -SHRA BKN015 FM122200
                       24015G22KT P6SM -SHRA BKN025 FM130000 01015G22KT
                       P6SM BKN030=
201903120346 KPWT 120346Z 1204/1224 23010KT P6SM -RA BKN008 BKN014 OVC035 FM121500
                       05010KT P6SM -SHRA BKN015 FM122200 24013G18KT
                       P6SM BKN025=
201903120025 KPWT 120025Z 1200/1224 23018G22KT P6SM -RA SCT035 OVC045 FM120400
                       20005KT 4SM -RA BR OVC015 FM121400 19015G22KT
                       P6SM VCSH OVC025 FM122100 21013G18KT P6SM
                       BKN025=
201903112324 TAF KPWT 112324Z 1200/1224 20013KT P6SM OVC080 FM120100 20010KT
                       P6SM -RA OVC050 FM120400 20005KT 4SM -RA
                       BR OVC015 FM121400 19015G22KT P6SM VCSH
                       OVC025 FM122100 21013G18KT P6SM BKN025=
201903111731 TAF KPWT 111731Z 1118/1218 VRB05KT P6SM BKN120 OVC200 FM112200
                       16012KT P6SM BKN050 OVC100 FM120100 20010KT
                       P6SM -RA OVC050 FM120400 20005KT 4SM -RA
                       BR OVC015 FM121400 19015G22KT P6SM VCSH
                       OVC025=
201903111136 TAF KPWT 111136Z 1112/1212 00000KT P6SM BKN120 OVC200 FM112200
                       16012KT P6SM BKN050 OVC100 FM120100 20010KT
                       P6SM -RA OVC050 FM120400 20005KT 4SM -RA
                       BR OVC015=
201903110536 TAF KPWT 110536Z 1106/1206 VRB04KT P6SM BKN250 FM111200 14008KT
                       P6SM BKN120 OVC200 FM112200 16012KT P6SM
                       BKN050 OVC100 FM120100 20010KT 4SM -RA OVC050=
201903102320 TAF KPWT 102320Z 1100/1124 VRB04KT P6SM BKN250 FM111200 14008KT
                       P6SM BKN120 OVC200 FM112200 16012KT P6SM
                       BKN050 OVC100=
201903101720 TAF KPWT 101720Z 1018/1118 VRB04KT P6SM FEW250 FM110900 VRB04KT
                       P6SM BKN250 FM111600 18008KT P6SM BKN120
                       OVC200=
201903101120 TAF KPWT 101120Z 1012/1112 VRB05KT P6SM SKC FM110400 00000KT P6SM
                       SKC=
201903100521 TAF KPWT 100521Z 1006/1106 05005KT P6SM SKC FM110400 00000KT P6SM
                       SKC=
201903092320 TAF KPWT 092320Z 1000/1024 04007KT P6SM SKC=
201903092106 KPWT 092106Z 0921/1018 03007KT P6SM SCT030
                      TEMPO 0921/0923 BKN025 FM100400 06007KT P6SM
                       SKC=
201903091823 KPWT 091823Z 0918/1018 06007KT P6SM SCT010
                      TEMPO 0918/0920 5SM BR BKN005 FM092100 06007KT
                       P6SM SCT035 FM100400 06007KT P6SM SKC=
201903091720 TAF KPWT 091720Z 0918/1018 05005KT P6SM SCT015 FM092100 05005KT
                       P6SM SCT035 FM100400 05005KT P6SM SKC=
201903091122 TAF KPWT 091122Z 0912/1012 00000KT P6SM OVC025 FM091800 00000KT
                       P6SM SCT030 FM092100 03006KT P6SM SCT250
                       FM100900 03006KT 1SM BR BKN002=
201903090521 KPWT 090521Z 0905/1006 00000KT 1/2SM FZFG VV001 FM091600 04002KT
                       5SM BR SCT015 FM092100 03005KT P6SM SCT030=
201903090520 TAF KPWT 090520Z 0906/1006 00000KT 1SM BR SKC FM090800 00000KT
                       3/4SM BR SCT001
                      TEMPO 0912/0916 1/2SM FZFG BKN001 FM091600
                       04002KT 5SM BR SCT015 FM092100 03005KT P6SM
                       SCT030 FM100400 VRB02KT P6SM SCT250=
201903090512 KPWT 090512Z 0905/0924 04003KT 1/2SM FZFG VV001 FM091600 04002KT
                       5SM BR SCT015 FM092000 03004KT P6SM SCT030=
201903090434 KPWT 090434Z 0905/0924 00000KT 3/4SM BR SKC FM090800 00000KT 3/4SM
                       BR SCT001
                      TEMPO 0912/0916 1/2SM FZFG BKN001 FM091600
                       04002KT 5SM BR SCT015 FM092000 03004KT P6SM
                       SCT030=
201903090356 KPWT 090356Z 0904/0924 00000KT 4SM BR SKC FM090800 00000KT 1SM
                       BR SCT001
                      TEMPO 0912/0916 BKN001 FM091600 04002KT 5SM
                       BR SCT015 FM092000 03004KT P6SM SCT030=
201903082320 TAF KPWT 082320Z 0900/0924 VRB03KT P6SM SCT015
                      TEMPO 0900/0903 BKN015 FM090400 VRB03KT P6SM
                       SCT200 FM090900 04006KT P6SM SCT005
                      TEMPO 0912/0916 3SM BR BKN005 FM091600 04006KT
                       P6SM SCT015 FM092000 VRB03KT P6SM SCT030=
201903082009 KPWT 082009Z 0820/0918 VRB03KT 3SM -SN BR OVC012
                      TEMPO 0820/0822 1SM -SN BR OVC004 FM082200
                       VRB03KT P6SM BKN022
                      TEMPO 0822/0824 4SM -SHRASN OVC015 FM090000
                       VRB03KT P6SM VCSH SCT020 BKN040 FM090400
                       03006KT P6SM BKN050 FM091200 03006KT P6SM
                       SCT050=
201903081722 TAF KPWT 081722Z 0818/0918 VRB03KT 3SM -SN BR OVC020
                      TEMPO 0818/0820 1SM -SN BR OVC010 FM082000
                       VRB03KT P6SM BKN022
                      TEMPO 0820/0822 4SM -SHRASN OVC015 FM082200
                       VRB03KT P6SM VCSH SCT020 BKN040 FM090400
                       03006KT P6SM BKN050 FM091200 03006KT P6SM
                       SCT050=
201903081449 KPWT 081449Z 0815/0912 00000KT 2SM -SHSN BR SCT006 OVC012
                      TEMPO 0815/0817 1SM -SN BR OVC006 FM081700
                       00000KT 3SM -SHSN BR OVC003 FM081800 00000KT
                       4SM BR SCT004 BKN008 OVC015 FM082200 00000KT
                       P6SM SCT015 BKN035 FM090300 00000KT P6SM
                       BKN040 BKN060 FM090900 00000KT 1SM BR OVC002=
201903081128 TAF KPWT 081128Z 0812/0912 00000KT 1SM BR OVC001 FM081600 00000KT
                       3SM BR OVC003 FM081900 00000KT 4SM BR SCT004
                       BKN008 OVC015 FM082200 00000KT P6SM SCT015
                       BKN035 FM090300 00000KT P6SM BKN040 BKN060
                       FM090900 00000KT 1SM BR OVC002=
201903080802 KPWT 080802Z 0808/0906 18004KT P6SM OVC003 FM081100 18006KT P6SM
                       VCSH SCT003 BKN008 OVC015
                      TEMPO 0811/0814 2SM -SHSN OVC003 FM081900
                       18004KT P6SM VCSH SCT020 BKN035 FM090300
                       VRB04KT P6SM BKN040 BKN070=
201903080520 TAF KPWT 080520Z 0806/0906 VRB05KT P6SM VCSH BKN012 BKN035 FM080900
                       18006KT P6SM VCSH OVC019 FM081900 17004KT
                       P6SM VCSH BKN035 FM090300 VRB04KT P6SM BKN040
                       BKN070=
201903080302 KPWT 080302Z 0803/0824 18010KT P6SM VCSH BKN035 BKN200 FM080900
                       18006KT P6SM VCSH OVC019 FM081900 17004KT
                       P6SM VCSH BKN035=
201903072335 TAF KPWT 072335Z 0800/0824 22011G16KT P6SM VCSH BKN020 BKN029 FM080400
                       VRB03KT P6SM VCSH BKN035 FM081400 09006KT
                       P6SM VCSH OVC019 FM081900 17004KT P6SM VCSH
                       BKN035=
201903071722 TAF KPWT 071722Z 0718/0818 21007KT P6SM OVC003 FM072000 22006KT
                       P6SM -SHRA SCT005 OVC010 FM080400 VRB03KT
                       P6SM VCSH BKN007 BKN035 FM081500 00000KT
                       P6SM VCSH OVC009=
201903071138 TAF KPWT 071138Z 0712/0812 20005KT 5SM -SN OVC003
                      TEMPO 0712/0715 1SM -SN BR FM071800 18007KT
                       5SM BR VCSH BKN008 BKN025 OVC045 FM072200
                       19009KT P6SM VCSH BKN020 BKN035 FM080400
                       19005KT P6SM VCSH BKN030=
201903070533 TAF KPWT 070533Z 0706/0806 20005KT 3SM BR BKN003 OVC012
                      TEMPO 0706/0709 P6SM NSW SCT006 BKN015 FM070900
                       00000KT P6SM BKN015 OVC040 FM071300 20002KT
                       4SM -SN BR OVC007 FM071800 18007KT 5SM BR
                       VCSH BKN008 BKN025 BKN045 FM072200 19009KT
                       P6SM VCSH BKN015 BKN035 FM080400 19005KT
                       P6SM VCSH BKN020=
201903070305 KPWT 070305Z 0703/0724 20005KT P6SM BKN003 OVC012
                      TEMPO 0704/0708 SCT006 BKN017 FM070800 00000KT
                       P6SM BKN020 OVC040 FM071200 20002KT 4SM
                       -SN BR OVC007 FM071800 18010KT 5SM BR VCSH
                       BKN008 BKN025 BKN045 FM072200 19011G17KT
                       P6SM VCSH BKN025 BKN045=
201903062342 TAF KPWT 062342Z 0700/0724 23003KT 6SM -RA BR BKN007 OVC016 FM070400
                       00000KT P6SM VCSH OVC012 FM070900 00000KT
                       P6SM BKN040 FM071200 20002KT 4SM -SN BR
                       OVC007 FM071800 18010KT 5SM BR VCSH BKN008
                       BKN025 BKN045 FM072200 19011G17KT P6SM VCSH
                       BKN025 BKN045=
201903062141 KPWT 062141Z 0622/0718 00000KT 1SM -SN BR OVC004 FM070100 12004KT
                       P6SM VCSH OVC035 FM071000 19004KT P6SM BKN040
                       FM071300 17004KT 4SM -SHSN BR BKN015 OVC025=
201903062101 KPWT 062101Z 0621/0718 00000KT 1SM -SN BR BKN011 OVC025 FM070100
                       12004KT P6SM VCSH OVC035 FM071000 19004KT
                       P6SM BKN040 FM071300 17004KT 4SM -SHSN BR
                       BKN015 OVC025=
201903062008 KPWT 062008Z 0620/0718 00000KT 2SM -SN BR FEW015 OVC030 FM070100
                       12004KT P6SM VCSH OVC035 FM071000 19004KT
                       P6SM BKN040 FM071300 17004KT 4SM -SHSN BR
                       BKN015 OVC025=
201903061736 TAF KPWT 061736Z 0618/0718 04010KT P6SM OVC060 FM062100 04005KT
                       P6SM -RA OVC035 FM070100 12004KT P6SM VCSH
                       OVC035 FM071000 19004KT P6SM BKN040 FM071300
                       17004KT 4SM -SHSN BR BKN015 OVC025=
201903061138 TAF KPWT 061138Z 0612/0712 04007KT P6SM SCT070 BKN200 FM061600
                       02004KT P6SM BKN060 FM062100 02004KT P6SM
                       -RA OVC030 FM070000 17005KT 6SM -RA OVC017
                       FM070400 18004KT P6SM -SHRA BKN020 OVC030
                       FM070600 19005KT P6SM BKN020 OVC030=
201903060525 TAF KPWT 060525Z 0606/0706 04008KT P6SM BKN200 FM061000 03005KT
                       P6SM BKN120 OVC200 FM061600 VRB04KT P6SM
                       BKN060 FM062000 VRB04KT P6SM OVC030 FM070000
                       17005KT P6SM -RA OVC017=
201903052343 TAF KPWT 052343Z 0600/0624 02008KT P6SM SCT250 FM060200 VRB03KT
                       P6SM BKN200 FM061000 VRB03KT P6SM OVC200
                       FM061500 VRB03KT P6SM BKN060 FM062000 00000KT
                       P6SM OVC030=
201903051720 TAF KPWT 051720Z 0518/0618 03005KT P6SM SKC FM060200 03004KT P6SM
                       BKN200 FM061000 00000KT P6SM OVC200 FM061500
                       VRB03KT P6SM SCT060=
201903051135 TAF KPWT 051135Z 0512/0612 04005KT P6SM SKC FM051800 03008KT P6SM
                       SCT200 FM060200 02004KT P6SM BKN200 FM060900
                       02005KT P6SM BKN100=
201903050522 TAF KPWT 050522Z 0506/0606 04008KT P6SM SKC FM051800 03010KT P6SM
                       SCT200 FM060200 02004KT P6SM BKN200=
201903042325 TAF KPWT 042325Z 0500/0524 05008KT P6SM SKC FM050500 03004KT P6SM
                       SKC=
201903041720 TAF KPWT 041720Z 0418/0518 04008KT P6SM SKC FM042000 VRB03KT P6SM
                       SKC=
201903041137 TAF KPWT 041137Z 0412/0512 03005KT P6SM FEW250 FM041800 03004KT
                       P6SM SKC=
201903040523 TAF KPWT 040523Z 0406/0506 04004KT P6SM FEW100 FM041900 03007KT
                       P6SM SKC=
201903032320 TAF KPWT 032320Z 0400/0424 07010KT P6SM SKC FM040500 03006KT P6SM
                       SKC=
201903031720 TAF KPWT 031720Z 0318/0418 04007KT P6SM SKC FM040500 03004KT P6SM
                       SKC=
201903031135 TAF KPWT 031135Z 0312/0412 03007KT P6SM SKC FM040500 03005KT P6SM
                       SKC=
201903030531 TAF KPWT 030531Z 0306/0406 06007KT P6SM SCT070 FM031200 04007KT
                       P6SM SKC FM040500 03005KT P6SM SKC=
201903022320 TAF KPWT 022320Z 0300/0324 05010G16KT P6SM SKC FM030300 03007KT
                       P6SM SKC=
201903021722 TAF KPWT 021722Z 0218/0318 05014G18KT P6SM SCT250 FM030300 03007KT
                       P6SM FEW200=
201903021137 TAF KPWT 021137Z 0212/0312 04008KT P6SM SCT050 FM021300 04007KT
                       P6SM FEW200 FM021900 03009KT P6SM FEW150
                       SCT250 FM030000 02012KT P6SM FEW200 FM030800
                       02007KT P6SM SKC=
201903020531 TAF KPWT 020531Z 0206/0306 06006KT P6SM SCT050 FM021300 04003KT
                       P6SM FEW200 FM021900 04009KT P6SM FEW150
                       SCT250 FM030000 02012KT P6SM FEW200=
201903012346 TAF KPWT 012346Z 0200/0224 02008KT P6SM FEW050 FEW200 FM020300
                       04003KT P6SM FEW200 FM021900 04012KT P6SM
                       SCT200=
201903011727 TAF KPWT 011727Z 0118/0218 04008KT P6SM FEW050 SCT200 FM020300
                       04003KT P6SM SCT200 FM021700 04008KT P6SM
                       SCT200=
201903011121 TAF KPWT 011121Z 0112/0212 00000KT P6SM SCT050
                      TEMPO 0112/0116 BKN050 FM011800 03006KT P6SM
                       SCT200 FM020300 02003KT P6SM FEW120 SCT200=
201903010532 TAF KPWT 010532Z 0106/0206 23005KT P6SM OVC060 FM010900 03003KT
                       P6SM SCT050 BKN250 FM011800 03006KT P6SM
                       SCT200 FM020300 02003KT P6SM FEW120 SCT200=