##########################################################
# Query made at 02/16/2025 00:21:21 UTC
# Time interval: from 06/01/2019 00:00  to 06/30/2019 23:59  UTC
##########################################################

##########################################################
# KPWT, Bremerton National Automatic Weather Observing / Reporting System (United States)
# WMO index: -----. WIGOS ID: Unknown
# Latitude 47-30N. Longitude 122-45W. Altitude 147 m.
##########################################################

###################################
#  METAR/SPECI from KPWT
###################################
201906302356 METAR KPWT 302356Z AUTO 07009KT 10SM CLR 26/09 A3007 RMK AO2 SLP197 T02560089 10267 20217 56013=
201906302256 METAR KPWT 302256Z AUTO VRB05G15KT 10SM CLR 26/09 A3008 RMK AO2 SLP200 T02560094=
201906302156 METAR KPWT 302156Z AUTO 05007KT 020V090 10SM CLR 26/09 A3009 RMK AO2 SLP204 T02560094=
201906302056 METAR KPWT 302056Z AUTO 07007KT 040V100 10SM CLR 25/09 A3010 RMK AO2 SLP209 T02500094 58016=
201906301956 METAR KPWT 301956Z AUTO 04008KT 10SM CLR 24/10 A3013 RMK AO2 SLP216 T02440100=
201906301856 METAR KPWT 301856Z AUTO 11007KT 080V140 10SM CLR 23/10 A3014 RMK AO2 SLP221 T02280100=
201906301756 METAR KPWT 301756Z AUTO VRB06KT 10SM CLR 21/11 A3015 RMK AO2 SLP224 6//// T02110111 10211 20072 58007=
201906301656 METAR KPWT 301656Z AUTO 04005KT 10SM CLR 20/11 A3016 RMK AO2 SLP228 T02000106=
201906301556 METAR KPWT 301556Z AUTO 07006KT 10SM CLR 19/11 A3017 RMK AO2 SLP230 T01890106=
201906301456 METAR KPWT 301456Z AUTO 00000KT 10SM CLR 17/10 A3017 RMK AO2 SLP231 T01670100 51008=
201906301356 METAR KPWT 301356Z AUTO 13003KT 10SM CLR 13/09 A3017 RMK AO2 SLP230 T01330094=
201906301256 METAR KPWT 301256Z AUTO 00000KT 10SM CLR 09/07 A3016 RMK AO2 SLP228 T00890072=
201906301156 METAR KPWT 301156Z AUTO 00000KT 10SM CLR 08/07 A3015 RMK AO2 SLP226 6//// 7//// T00780067 10167 20067 51002=
201906301056 METAR KPWT 301056Z AUTO 00000KT 10SM CLR 09/07 A3014 RMK AO2 SLP223 T00890072=
201906300956 METAR KPWT 300956Z AUTO 00000KT 10SM CLR 11/08 A3015 RMK AO2 SLP226 T01060078=
201906300856 METAR KPWT 300856Z AUTO 14003KT 10SM CLR 11/07 A3014 RMK AO2 SLP223 T01060072 51003=
201906300756 METAR KPWT 300756Z AUTO 04006KT 10SM CLR 15/08 A3014 RMK AO2 SLP222 T01500083 402390078=
201906300656 METAR KPWT 300656Z AUTO 06008KT 10SM CLR 16/08 A3014 RMK AO2 SLP221 T01610083=
201906300556 METAR KPWT 300556Z AUTO 05008KT 10SM CLR 17/08 A3013 RMK AO2 SLP218 T01670083 10239 20167 52007=
201906300456 METAR KPWT 300456Z AUTO 05008KT 10SM CLR 17/08 A3013 RMK AO2 SLP217 T01720083=
201906300356 METAR KPWT 300356Z AUTO 04010KT 10SM CLR 18/07 A3012 RMK AO2 SLP214 T01830072=
201906300256 METAR KPWT 300256Z AUTO 04010KT 10SM CLR 21/08 A3011 RMK AO2 SLP211 T02060078 55002=
201906300156 METAR KPWT 300156Z AUTO 04011KT 10SM CLR 22/10 A3010 RMK AO2 SLP208 T02170100=
201906300056 METAR KPWT 300056Z AUTO 03011KT 10SM CLR 23/10 A3010 RMK AO2 SLP208 T02330100=
201906292356 METAR KPWT 292356Z AUTO VRB05KT 10SM SCT070 22/10 A3012 RMK AO2 SLP215 6//// T02170100 10239 20189 57009=
201906292256 METAR KPWT 292256Z AUTO 01009KT 10SM BKN050 BKN070 23/09 A3013 RMK AO2 SLP217 T02330094=
201906292156 METAR KPWT 292156Z AUTO 33008KT 10SM SCT050 22/09 A3014 RMK AO2 SLP220 T02220094=
201906292056 METAR KPWT 292056Z AUTO 12005KT 10SM FEW070 22/10 A3015 RMK AO2 SLP223 T02220100 56008=
201906291956 METAR KPWT 291956Z AUTO 00000KT 10SM FEW075 20/09 A3015 RMK AO2 SLP227 T02000089=
201906291856 METAR KPWT 291856Z AUTO VRB05KT 10SM CLR 21/10 A3016 RMK AO2 SLP227 T02110100=
201906291756 METAR KPWT 291756Z AUTO VRB05KT 10SM CLR 19/11 A3017 RMK AO2 SLP231 T01940106 10194 20083 50000=
201906291656 METAR KPWT 291656Z AUTO VRB03KT 10SM CLR 17/10 A3017 RMK AO2 SLP233 T01720100=
201906291556 METAR KPWT 291556Z AUTO 02003KT 10SM CLR 16/11 A3017 RMK AO2 SLP233 T01560111=
201906291456 METAR KPWT 291456Z AUTO 00000KT 10SM CLR 15/11 A3017 RMK AO2 SLP231 T01500106=
201906291356 METAR KPWT 291356Z AUTO 00000KT 10SM CLR 12/09 A3016 RMK AO2 SLP227 T01220094=
201906291256 METAR KPWT 291256Z AUTO 00000KT 10SM CLR 09/08 A3014 RMK AO2 SLP224 T00940083=
201906291156 METAR KPWT 291156Z AUTO 00000KT 10SM CLR 09/08 RMK AO2 SLPNO 7//// T00890078 10139 20078 $=
201906291056 METAR KPWT 291056Z AUTO 00000KT 10SM CLR 09/07 A3014 RMK AO2 SLP222 T00890072=
201906290956 METAR KPWT 290956Z AUTO 00000KT 10SM CLR 09/08 A3014 RMK AO2 SLP222 T00940078=
201906290856 METAR KPWT 290856Z AUTO 00000KT 10SM CLR 11/09 A3014 RMK AO2 SLP222 T01060089=
201906290756 METAR KPWT 290756Z AUTO 00000KT 10SM CLR 11/08 A3013 RMK AO2 SLP220 T01060083 402220100=
201906290656 METAR KPWT 290656Z AUTO 00000KT 10SM CLR 11/08 RMK AO2 SLPNO T01060083 $=
201906290556 METAR KPWT 290556Z AUTO 08003KT 10SM CLR 14/08 A3013 RMK AO2 SLP218 6//// T01390083 10211 20139 51006=
201906290456 METAR KPWT 290456Z AUTO 07005KT 10SM CLR 15/08 A3012 RMK AO2 SLP216 T01500083=
201906290356 METAR KPWT 290356Z AUTO 07004KT 10SM CLR 17/10 A3012 RMK AO2 SLP215 T01670100=
201906290256 METAR KPWT 290256Z AUTO 23007KT 10SM CLR 19/09 A3011 RMK AO2 SLP211 6//// T01890089 53001=
201906290156 METAR KPWT 290156Z AUTO 21008KT 10SM CLR 21/07 A3010 RMK AO2 SLP208 T02060072=
201906290056 METAR KPWT 290056Z AUTO 20008KT 10SM CLR 21/08 A3010 RMK AO2 SLP209 T02060083=
201906282356 METAR KPWT 282356Z AUTO 24009KT 10SM BKN085 21/07 A3011 RMK AO2 SLP210 60000 T02110072 10222 20161 56004=
201906282256 METAR KPWT 282256Z AUTO 23009KT 10SM FEW047 SCT055 BKN080 20/09 A3011 RMK AO2 SLP211 T02000089=
201906282156 METAR KPWT 282156Z AUTO 24010KT 10SM FEW060 21/09 A3011 RMK AO2 SLP211 T02110089=
201906282056 METAR KPWT 282056Z AUTO 15007KT 10SM FEW080 19/09 A3012 RMK AO2 SLP215 60000 T01940094 58003=
201906281956 METAR KPWT 281956Z AUTO 19008KT 160V220 10SM FEW029 19/10 A3013 RMK AO2 RAB02E13 SLP217 P0000 T01890100=
201906281856 METAR KPWT 281856Z AUTO 22007KT 10SM SCT028 BKN070 17/10 A3013 RMK AO2 SLP219 T01720100=
201906281810 SPECI KPWT 281810Z AUTO 24008KT 10SM SCT028 OVC060 17/11 A3013 RMK AO2=
201906281756 METAR KPWT 281756Z AUTO 23006KT 10SM BKN026 BKN060 17/11 A3012 RMK AO2 SLP217 6//// T01670106 10178 20106 56005=
201906281746 SPECI KPWT 281746Z AUTO 27008KT 10SM BKN026 BKN065 17/11 A3012 RMK AO2=
201906281732 SPECI KPWT 281732Z AUTO VRB03KT 10SM FEW021 BKN055 OVC065 17/11 A3013 RMK AO2=
201906281656 METAR KPWT 281656Z AUTO VRB03KT 10SM BKN020 BKN070 16/11 A3013 RMK AO2 SLP218 T01610106=
201906281556 METAR KPWT 281556Z AUTO 22006KT 10SM BKN070 14/11 A3014 RMK AO2 SLP222 T01440111=
201906281524 SPECI KPWT 281524Z AUTO VRB03KT 10SM FEW015 13/11 A3014 RMK AO2=
201906281503 SPECI KPWT 281503Z AUTO 20004KT 10SM FEW004 OVC015 12/11 A3014 RMK AO2=
201906281456 METAR KPWT 281456Z AUTO 22005KT 10SM BKN004 OVC015 12/11 A3014 RMK AO2 SLP223 T01220111 53003=
201906281405 SPECI KPWT 281405Z AUTO 18005KT 10SM BKN004 OVC070 11/11 A3013 RMK AO2=
201906281356 METAR KPWT 281356Z AUTO 21003KT 10SM SCT004 BKN070 11/11 A3013 RMK AO2 SLP221 T01110106=
201906281353 SPECI KPWT 281353Z AUTO 18003KT 10SM SCT002 BKN070 11/11 A3013 RMK AO2=
201906281313 SPECI KPWT 281313Z AUTO 00000KT 10SM BKN002 11/11 A3013 RMK AO2=
201906281305 SPECI KPWT 281305Z AUTO 00000KT 2SM BR OVC002 11/11 A3013 RMK AO2=
201906281302 SPECI KPWT 281302Z AUTO 00000KT 1SM BR OVC002 11/11 A3013 RMK AO2=
201906281256 METAR KPWT 281256Z AUTO 19003KT 1/2SM FG OVC002 11/11 A3013 RMK AO2 SLP220 T01060106=
201906281235 SPECI KPWT 281235Z AUTO 22004KT 1/4SM FG OVC002 11/11 A3013 RMK AO2=
201906281231 SPECI KPWT 281231Z AUTO 22004KT 3/4SM BR OVC002 11/11 A3013 RMK AO2=
201906281228 SPECI KPWT 281228Z AUTO 22004KT 1 3/4SM BR OVC002 11/11 A3013 RMK AO2=
201906281208 SPECI KPWT 281208Z AUTO 00000KT 8SM OVC002 11/11 A3013 RMK AO2=
201906281200 SPECI KPWT 281200Z AUTO 00000KT 2SM BR OVC002 11/11 A3012 RMK AO2 VIS 3/4V5=
201906281156 METAR KPWT 281156Z AUTO 00000KT 1SM BR OVC002 11/11 A3012 RMK AO2 VIS 3/4V4 SLP217 6//// 7//// T01110106 10133 20100 53000=
201906281149 SPECI KPWT 281149Z AUTO 23003KT 1 3/4SM BR OVC002 11/11 A3012 RMK AO2 VIS 3/4V5=
201906281128 SPECI KPWT 281128Z AUTO 22003KT 10SM BKN002 BKN075 11/11 A3012 RMK AO2=
201906281056 METAR KPWT 281056Z AUTO 19005KT 10SM FEW004 BKN075 11/11 A3012 RMK AO2 SLP216 T01110106=
201906281043 SPECI KPWT 281043Z AUTO 22004KT 10SM FEW004 BKN075 11/10 A3012 RMK AO2=
201906280956 METAR KPWT 280956Z AUTO 20004KT 10SM BKN070 11/11 A3012 RMK AO2 SLP215 T01110106=
201906280856 METAR KPWT 280856Z AUTO 25003KT 10SM CLR 10/09 A3012 RMK AO2 SLP216 T01000094 53004=
201906280756 METAR KPWT 280756Z AUTO 18005KT 10SM CLR 12/10 A3012 RMK AO2 SLP214 T01170100 402110117=
201906280656 METAR KPWT 280656Z AUTO 18005KT 10SM BKN090 13/09 A3011 RMK AO2 SLP213 T01280089=
201906280556 METAR KPWT 280556Z AUTO 19006KT 10SM BKN090 13/09 A3011 RMK AO2 SLP212 T01330089 10200 20133=
201906280456 METAR KPWT 280456Z AUTO 20007KT 10SM OVC090 14/09 RMK AO2 SLPNO T01440094 $=
201906280356 METAR KPWT 280356Z AUTO 19006KT 10SM CLR 15/09 A3009 RMK AO2 SLP204 T01500094=
201906280256 METAR KPWT 280256Z AUTO 23010KT 10SM CLR 17/09 A3007 RMK AO2 SLP200 T01670094 51008=
201906280156 METAR KPWT 280156Z AUTO 22011KT 10SM CLR 17/08 A3007 RMK AO2 SLP198 T01720078=
201906280056 METAR KPWT 280056Z AUTO 23014G20KT 10SM CLR 18/08 A3006 RMK AO2 PK WND 22026/0026 SLP194 T01780078=
201906272356 METAR KPWT 272356Z AUTO 21011KT 10SM BKN046 BKN060 19/08 A3005 RMK AO2 SLP191 T01890078 10211 20161 51007=
201906272256 METAR KPWT 272256Z AUTO 21010G18KT 10SM FEW080 19/08 A3004 RMK AO2 SLP189 T01940078=
201906272156 METAR KPWT 272156Z AUTO 21011G17KT 10SM CLR 20/09 A3003 RMK AO2 SLP185 T02000094=
201906272056 METAR KPWT 272056Z AUTO 21010KT 10SM SCT047 SCT075 21/08 A3003 RMK AO2 SLP182 T02060078 50000=
201906271956 METAR KPWT 271956Z AUTO 24007KT 10SM FEW045 SCT050 BKN080 19/09 A3003 RMK AO2 SLP183 T01890094=
201906271904 SPECI KPWT 271904Z AUTO 22008KT 10SM SCT027 BKN036 BKN075 17/11 A3003 RMK AO2=
201906271856 METAR KPWT 271856Z AUTO 23008KT 10SM BKN027 BKN036 OVC070 17/11 A3003 RMK AO2 SLP184 T01670106=
201906271851 SPECI KPWT 271851Z AUTO 22011KT 10SM BKN027 BKN036 OVC075 17/11 A3003 RMK AO2=
201906271840 SPECI KPWT 271840Z AUTO 21009KT 10SM SCT027 BKN034 OVC070 17/10 A3003 RMK AO2=
201906271832 SPECI KPWT 271832Z AUTO 21011KT 10SM BKN027 BKN033 OVC055 17/10 A3003 RMK AO2=
201906271756 METAR KPWT 271756Z AUTO 23011KT 10SM SCT029 SCT036 BKN055 16/10 A3002 RMK AO2 SLP181 60000 T01610100 10172 20122=
201906271710 SPECI KPWT 271710Z AUTO 20010KT 10SM SCT020 BKN048 16/11 A3002 RMK AO2=
201906271656 METAR KPWT 271656Z AUTO 21011KT 10SM SCT018 BKN024 16/11 A3001 RMK AO2 SLP179 T01610106=
201906271606 SPECI KPWT 271606Z AUTO 20007G14KT 10SM FEW013 BKN020 14/11 A3001 RMK AO2=
201906271556 METAR KPWT 271556Z AUTO 18010KT 10SM SCT013 14/11 RMK AO2 RAE05 SLPNO P0000 T01440111 $=
201906271456 METAR KPWT 271456Z AUTO 19010KT 10SM -RA SCT008 SCT080 13/11 A3000 RMK AO2 RAE1358B22 SLP174 P0000 60000 T01280111 51015=
201906271356 METAR KPWT 271356Z AUTO 20009KT 10SM -RA SCT009 BKN070 12/11 A2999 RMK AO2 RAB43 SLP170 P0000 T01220106=
201906271349 SPECI KPWT 271349Z AUTO 19012KT 10SM -RA FEW009 BKN075 12/11 A2998 RMK AO2 RAB43 P0000=
201906271256 METAR KPWT 271256Z AUTO 20009KT 10SM BKN070 BKN080 12/11 A2997 RMK AO2 SLP163 T01220106=
201906271156 METAR KPWT 271156Z AUTO 20008KT 10SM SCT055 BKN070 12/10 A2995 RMK AO2 SLP158 T01220100 10139 20117 53004=
201906271136 SPECI KPWT 271136Z AUTO 20008KT 10SM SCT011 BKN080 12/10 A2995 RMK AO2=
201906271056 METAR KPWT 271056Z AUTO 21007KT 10SM BKN011 12/11 A2994 RMK AO2 SLP155 T01220106=
201906271053 SPECI KPWT 271053Z AUTO 21008KT 10SM BKN011 12/11 A2994 RMK AO2=
201906271028 SPECI KPWT 271028Z AUTO 21007KT 10SM SCT004 OVC009 12/11 A2994 RMK AO2 CIG 007V011=
201906270956 METAR KPWT 270956Z AUTO 20008KT 10SM OVC004 12/11 A2994 RMK AO2 SLP153 T01220111=
201906270938 SPECI KPWT 270938Z AUTO 20011KT 10SM OVC004 12/11 A2994 RMK AO2=
201906270856 METAR KPWT 270856Z AUTO 20006KT 10SM OVC006 13/12 A2994 RMK AO2 SLP152 T01280117 51004=
201906270756 METAR KPWT 270756Z AUTO 22005KT 10SM OVC008 13/12 A2994 RMK AO2 SLP152 T01330117 402280094=
201906270748 SPECI KPWT 270748Z AUTO 22004KT 10SM BKN008 OVC031 13/12 A2994 RMK AO2=
201906270738 SPECI KPWT 270738Z AUTO 22004KT 10SM SCT008 BKN031 OVC035 13/12 A2994 RMK AO2=
201906270656 METAR KPWT 270656Z AUTO 18003KT 10SM BKN100 13/11 A2993 RMK AO2 SLP151 T01280111=
201906270556 METAR KPWT 270556Z AUTO 00000KT 10SM OVC090 14/12 A2993 RMK AO2 SLP149 T01390122 10189 20128 53013=
201906270456 METAR KPWT 270456Z AUTO 19003KT 10SM BKN100 13/12 A2991 RMK AO2 SLP144 T01330117=
201906270356 METAR KPWT 270356Z AUTO 28003KT 10SM CLR 16/12 A2989 RMK AO2 SLP138 T01560117=
201906270256 METAR KPWT 270256Z AUTO 05005KT 10SM FEW095 17/11 A2989 RMK AO2 SLP138 T01720111 50008=
201906270156 METAR KPWT 270156Z AUTO 00000KT 10SM CLR 18/11 A2990 RMK AO2 LTG DSNT SW SLP140 T01780111=
201906270056 METAR KPWT 270056Z AUTO 09004KT 10SM SCT070 18/11 A2989 RMK AO2 LTG DSNT SW TSB13E28 SLP137 T01830111=
201906270034 SPECI KPWT 270034Z AUTO 06007KT 10SM CLR 18/12 A2988 RMK AO2 LTG DSNT S AND W TSB13E28=
201906270019 SPECI KPWT 270019Z AUTO 10010KT 10SM VCTS CLR 18/12 A2988 RMK AO2 LTG DSNT S AND W TSB13=
201906262340 SPECI KPWT 262340Z AUTO 07009KT 10SM BKN055 19/11 A2986 RMK AO2 LTG DSNT SW AND W TSB19E34=
201906262325 SPECI KPWT 262325Z AUTO 07007KT 10SM VCTS BKN050 19/11 A2987 RMK AO2 LTG DSNT SW TSB19=
201906262256 METAR KPWT 262256Z AUTO 09007KT 10SM CLR 19/11 A2986 RMK AO2 TSB21E36 SLP128 T01940111=
201906262242 SPECI KPWT 262242Z AUTO 09006KT 10SM CLR 20/12 A2985 RMK AO2 TSB21E36=
201906262227 SPECI KPWT 262227Z AUTO 07006KT 10SM VCTS CLR 21/11 A2985 RMK AO2 TSB21=
201906262156 METAR KPWT 262156Z AUTO 03006KT 10SM FEW080 21/10 A2985 RMK AO2 SLP121 T02060100=
201906262056 METAR KPWT 262056Z AUTO 03005KT 10SM BKN049 22/09 A2985 RMK AO2 SLP122 T02220094 58014=
201906261956 METAR KPWT 261956Z AUTO 01004KT 10SM SCT043 21/11 A2986 RMK AO2 SLP127 T02110106=
201906261856 METAR KPWT 261856Z AUTO 09004KT 10SM BKN039 OVC047 20/11 A2988 RMK AO2 SLP133 T02000106=
201906261756 METAR KPWT 261756Z AUTO VRB03KT 10SM CLR 19/10 A2989 RMK AO2 SLP136 T01940100 10194 20100 56014=
201906261656 METAR KPWT 261656Z AUTO VRB03KT 10SM CLR 19/10 A2990 RMK AO2 SLP140 T01890100=
201906261556 METAR KPWT 261556Z AUTO 00000KT 10SM CLR 15/11 A2991 RMK AO2 SLP144 T01500111=
201906261504 SPECI KPWT 261504Z AUTO 00000KT 10SM SCT003 12/10 A2993 RMK AO2=
201906261456 METAR KPWT 261456Z AUTO 00000KT 10SM BKN003 12/10 A2993 RMK AO2 SLP152 T01170100 53004=
201906261356 METAR KPWT 261356Z AUTO 00000KT 10SM OVC003 11/10 A2993 RMK AO2 SLP150 T01110100=
201906261256 METAR KPWT 261256Z AUTO 00000KT 7SM OVC003 11/10 A2992 RMK AO2 SLP147 T01060100=
201906261248 SPECI KPWT 261248Z AUTO 19003KT 8SM OVC003 11/10 A2992 RMK AO2=
201906261156 METAR KPWT 261156Z AUTO 00000KT 10SM OVC005 11/09 A2992 RMK AO2 SLP147 T01060094 10139 20094 52002=
201906261110 SPECI KPWT 261110Z AUTO 00000KT 10SM BKN005 OVC048 10/09 A2992 RMK AO2=
201906261056 METAR KPWT 261056Z AUTO 00000KT 10SM FEW005 OVC048 11/09 A2992 RMK AO2 SLP145 T01060094=
201906260956 METAR KPWT 260956Z AUTO 00000KT 10SM FEW007 BKN048 11/10 A2991 RMK AO2 SLP145 T01110100=
201906260942 SPECI KPWT 260942Z AUTO 20003KT 10SM FEW007 OVC048 11/10 A2992 RMK AO2=
201906260856 METAR KPWT 260856Z AUTO 20003KT 10SM CLR 11/09 A2991 RMK AO2 SLP144 T01060094 51003=
201906260756 METAR KPWT 260756Z AUTO 20004KT 10SM CLR 11/09 A2991 RMK AO2 SLP143 T01110094 402390044=
201906260656 METAR KPWT 260656Z AUTO 18004KT 10SM OVC055 13/11 A2991 RMK AO2 SLP143 T01330106=
201906260556 METAR KPWT 260556Z AUTO 19003KT 10SM BKN065 14/10 A2990 RMK AO2 SLP140 T01390100 10211 20128 51012=
201906260456 METAR KPWT 260456Z AUTO 20004KT 10SM BKN070 14/10 A2990 RMK AO2 SLP139 T01440100=
201906260356 METAR KPWT 260356Z AUTO 21005KT 10SM BKN070 17/11 A2988 RMK AO2 SLP134 T01670106=
201906260256 METAR KPWT 260256Z AUTO 21011KT 10SM OVC075 17/11 A2987 RMK AO2 SLP129 T01720111 53008=
201906260156 METAR KPWT 260156Z AUTO 21011KT 10SM OVC080 18/11 A2986 RMK AO2 SLP126 T01830111=
201906260056 METAR KPWT 260056Z AUTO 27007KT 10SM FEW085 20/09 A2985 RMK AO2 SLP125 T02000094=
201906252356 METAR KPWT 252356Z AUTO 23013KT 10SM FEW065 21/09 A2984 RMK AO2 LTG DSNT W SLP122 T02060089 10239 20183 55005=
201906252256 METAR KPWT 252256Z AUTO 18006G14KT 10SM BKN070 23/06 A2984 RMK AO2 SLP120 T02330056=
201906252156 METAR KPWT 252156Z AUTO 00000KT 10SM FEW075 22/08 A2985 RMK AO2 SLP122 T02220078=
201906252056 METAR KPWT 252056Z AUTO 00000KT 10SM FEW050 21/08 A2986 RMK AO2 SLP126 T02110083 56012=
201906251956 METAR KPWT 251956Z AUTO VRB06KT 10SM SCT048 21/09 A2987 RMK AO2 SLP129 T02110089=
201906251856 METAR KPWT 251856Z AUTO 28005KT 10SM SCT043 21/09 A2988 RMK AO2 SLP133 T02060094=
201906251756 METAR KPWT 251756Z AUTO VRB04KT 10SM CLR 19/09 A2989 RMK AO2 SLP137 T01940094 10194 20044 58005=
201906251656 METAR KPWT 251656Z AUTO 00000KT 10SM CLR 18/09 A2990 RMK AO2 SLP141 T01780089=
201906251556 METAR KPWT 251556Z AUTO 02004KT 10SM CLR 15/08 A2990 RMK AO2 SLP142 T01500083=
201906251456 METAR KPWT 251456Z AUTO 00000KT 10SM CLR 14/09 A2991 RMK AO2 SLP143 T01390089 50002=
201906251356 METAR KPWT 251356Z AUTO 00000KT 10SM BKN120 12/08 A2991 RMK AO2 SLP144 T01170078=
201906251256 METAR KPWT 251256Z AUTO 00000KT 10SM CLR 06/05 A2991 RMK AO2 SLP145 T00610050=
201906251244 SPECI KPWT 251244Z AUTO 00000KT 10SM CLR 06/05 A2991 RMK AO2=
201906251237 SPECI KPWT 251237Z AUTO 00000KT 2SM BR CLR 06/06 A2991 RMK AO2 VIS 1/4V5=
201906251228 SPECI KPWT 251228Z AUTO 00000KT 1SM BR CLR 04/04 A2991 RMK AO2 VIS 1/4V5=
201906251156 METAR KPWT 251156Z AUTO 00000KT 10SM CLR 07/06 A2990 RMK AO2 SLP143 7//// T00670056 10128 20056 56006=
201906251056 METAR KPWT 251056Z AUTO 00000KT 10SM CLR 07/06 A2990 RMK AO2 SLP144 T00720056=
201906250956 METAR KPWT 250956Z AUTO 00000KT 10SM CLR 08/07 A2991 RMK AO2 SLP147 T00830067=
201906250856 METAR KPWT 250856Z AUTO 05005KT 10SM CLR 11/08 A2992 RMK AO2 SLP148 T01060078 57006=
201906250756 METAR KPWT 250756Z AUTO 05006KT 10SM CLR 12/08 A2992 RMK AO2 SLP150 T01170078 402000106=
201906250656 METAR KPWT 250656Z AUTO 05006KT 10SM CLR 12/08 A2993 RMK AO2 SLP153 T01170083=
201906250556 METAR KPWT 250556Z AUTO 04004KT 10SM CLR 13/09 A2994 RMK AO2 SLP154 T01280094 10200 20111 56004=
201906250456 METAR KPWT 250456Z AUTO 00000KT 10SM CLR 11/08 A2994 RMK AO2 SLP156 T01110078=
201906250356 METAR KPWT 250356Z AUTO 00000KT 10SM SCT060 16/09 A2994 RMK AO2 SLP154 T01610094=
201906250256 METAR KPWT 250256Z AUTO 03004KT 10SM BKN060 17/09 A2995 RMK AO2 SLP157 T01720089 56017=
201906250156 METAR KPWT 250156Z AUTO 02005KT 10SM BKN070 19/09 A2996 RMK AO2 SLP161 T01890089=
201906250056 METAR KPWT 250056Z AUTO 05003KT 10SM BKN070 19/07 A2998 RMK AO2 SLP167 T01890072=
201906242356 METAR KPWT 242356Z AUTO VRB04KT 10SM OVC060 19/07 A3000 RMK AO2 SLP175 T01890072 10194 20144 56015=
201906242256 METAR KPWT 242256Z AUTO 33004KT 10SM OVC046 19/08 A3001 RMK AO2 SLP179 T01890078=
201906242156 METAR KPWT 242156Z AUTO VRB04KT 10SM SCT041 OVC050 18/07 A3003 RMK AO2 SLP185 T01780072=
201906242056 METAR KPWT 242056Z AUTO VRB04KT 10SM FEW035 OVC050 18/08 A3004 RMK AO2 SLP190 T01830083 58011=
201906241956 METAR KPWT 241956Z AUTO 24005KT 10SM SCT033 OVC047 16/09 A3006 RMK AO2 SLP197 T01610089=
201906241856 METAR KPWT 241856Z AUTO 14005KT 10SM FEW026 SCT032 OVC042 16/08 A3007 RMK AO2 SLP200 T01560083=
201906241805 SPECI KPWT 241805Z AUTO 25003KT 10SM FEW018 SCT033 OVC042 14/09 A3008 RMK AO2=
201906241756 METAR KPWT 241756Z AUTO 24004KT 10SM SCT021 BKN029 OVC042 14/09 A3008 RMK AO2 SLP202 6//// T01440089 10144 20106 58005=
201906241720 SPECI KPWT 241720Z AUTO 12003KT 10SM FEW019 BKN028 OVC041 14/08 A3009 RMK AO2=
201906241656 METAR KPWT 241656Z AUTO 18004KT 10SM SCT019 BKN030 OVC044 14/09 A3009 RMK AO2 SLP207 T01390089=
201906241634 SPECI KPWT 241634Z AUTO VRB04KT 10SM FEW016 OVC030 13/09 A3009 RMK AO2=
201906241556 METAR KPWT 241556Z AUTO 12004KT 10SM SCT016 OVC026 13/09 A3009 RMK AO2 SLP207 T01280089=
201906241456 METAR KPWT 241456Z AUTO 00000KT 10SM OVC023 12/09 A3009 RMK AO2 SLP207 6//// T01220089 55004=
201906241356 METAR KPWT 241356Z AUTO 00000KT 10SM OVC019 11/09 A3009 RMK AO2 SLP206 T01110089=
201906241256 METAR KPWT 241256Z AUTO 00000KT 10SM OVC015 11/09 A3010 RMK AO2 SLP210 T01110089=
201906241254 SPECI KPWT 241254Z AUTO 00000KT 10SM OVC015 11/09 A3010 RMK AO2=
201906241156 METAR KPWT 241156Z AUTO 09003KT 10SM OVC011 11/09 A3011 RMK AO2 SLP212 T01110089 10117 20111 58004=
201906241120 SPECI KPWT 241120Z AUTO 00000KT 10SM BKN011 OVC019 11/09 A3011 RMK AO2=
201906241056 METAR KPWT 241056Z AUTO 00000KT 10SM SCT011 BKN021 OVC043 11/09 A3012 RMK AO2 SLP215 T01110094=
201906241025 SPECI KPWT 241025Z AUTO 05003KT 10SM SCT024 BKN043 11/09 A3012 RMK AO2=
201906240956 METAR KPWT 240956Z AUTO 08003KT 10SM BKN022 OVC027 12/09 A3012 RMK AO2 SLP215 T01170094=
201906240856 METAR KPWT 240856Z AUTO 07004KT 10SM OVC019 12/09 A3012 RMK AO2 SLP217 T01170094 56005=
201906240756 METAR KPWT 240756Z AUTO 05004KT 10SM BKN021 OVC027 12/09 A3012 RMK AO2 SLP217 T01170094 401720111=
201906240733 SPECI KPWT 240733Z AUTO 05005KT 10SM SCT022 BKN029 OVC044 12/09 A3012 RMK AO2=
201906240656 METAR KPWT 240656Z AUTO 06005KT 10SM FEW022 SCT036 BKN048 12/09 A3013 RMK AO2 SLP220 T01170094=
201906240642 SPECI KPWT 240642Z AUTO 06005KT 10SM FEW022 SCT030 BKN037 12/09 A3013 RMK AO2=
201906240609 SPECI KPWT 240609Z AUTO 06006KT 10SM SCT019 BKN028 OVC050 12/09 A3013 RMK AO2=
201906240556 METAR KPWT 240556Z AUTO 06006KT 10SM FEW028 SCT034 OVC050 12/09 A3013 RMK AO2 SLP223 T01170094 10161 20117 53001=
201906240456 METAR KPWT 240456Z AUTO 06010KT 10SM OVC040 12/09 A3013 RMK AO2 SLP222 T01170094=
201906240356 METAR KPWT 240356Z AUTO 06006KT 10SM FEW041 BKN050 12/09 A3012 RMK AO2 SLP219 T01220094=
201906240256 METAR KPWT 240256Z AUTO 04009KT 10SM FEW027 OVC039 13/09 A3013 RMK AO2 SLP222 T01280094 55004=
201906240206 SPECI KPWT 240206Z AUTO 04010KT 10SM SCT011 OVC041 14/11 A3013 RMK AO2=
201906240156 METAR KPWT 240156Z AUTO 04004KT 10SM BKN011 OVC043 14/11 A3013 RMK AO2 SLP221 T01390106=
201906240056 METAR KPWT 240056Z AUTO 05009KT 10SM OVC041 15/11 A3014 RMK AO2 SLP223 T01500111=
201906232356 METAR KPWT 232356Z AUTO 07007KT 10SM OVC037 16/11 A3014 RMK AO2 SLP224 60000 T01560106 10172 20128 58010=
201906232256 METAR KPWT 232256Z AUTO 04009KT 10SM OVC035 16/11 A3016 RMK AO2 SLP228 T01560106=
201906232156 METAR KPWT 232156Z AUTO VRB05KT 10SM FEW028 BKN036 OVC050 17/11 A3016 RMK AO2 SLP230 T01720111=
201906232140 SPECI KPWT 232140Z AUTO 07006KT 10SM FEW030 BKN036 OVC055 17/11 A3017 RMK AO2=
201906232056 METAR KPWT 232056Z AUTO 06007KT 10SM BKN026 OVC034 14/11 A3017 RMK AO2 RAB16E29 SLP234 P0000 60000 T01440111 56005=
201906232054 SPECI KPWT 232054Z AUTO 05007KT 10SM BKN026 OVC034 15/11 A3017 RMK AO2 RAB16E29 P0000=
201906232045 SPECI KPWT 232045Z AUTO 04006KT 10SM SCT024 BKN030 OVC034 15/11 A3017 RMK AO2 RAB16E29 P0000=
201906231956 METAR KPWT 231956Z AUTO 08004KT 10SM BKN020 OVC026 15/10 A3018 RMK AO2 SLP237 T01500100=
201906231856 METAR KPWT 231856Z AUTO VRB03KT 10SM OVC016 14/10 A3019 RMK AO2 SLP239 T01390100=
201906231853 SPECI KPWT 231853Z AUTO 20005KT 10SM OVC016 14/10 A3019 RMK AO2=
201906231756 METAR KPWT 231756Z AUTO 21004KT 10SM OVC012 13/10 A3019 RMK AO2 SLP240 T01280100 10128 20111 51004=
201906231656 METAR KPWT 231656Z AUTO 00000KT 10SM OVC012 12/09 A3019 RMK AO2 SLP239 T01220094=
201906231608 SPECI KPWT 231608Z AUTO 18003KT 10SM OVC010 12/09 A3018 RMK AO2=
201906231556 METAR KPWT 231556Z AUTO 00000KT 10SM OVC008 12/09 A3018 RMK AO2 SLP239 T01170094=
201906231456 METAR KPWT 231456Z AUTO 19004KT 10SM OVC008 11/09 A3018 RMK AO2 SLP236 T01110094 53002=
201906231437 SPECI KPWT 231437Z AUTO 19003KT 10SM OVC008 11/09 A3017 RMK AO2=
201906231356 METAR KPWT 231356Z AUTO 20003KT 10SM OVC010 11/09 A3017 RMK AO2 SLP234 T01110094=
201906231256 METAR KPWT 231256Z AUTO 21004KT 10SM OVC010 11/09 A3017 RMK AO2 SLP233 T01110094=
201906231243 SPECI KPWT 231243Z AUTO 19004KT 10SM OVC010 11/09 A3017 RMK AO2=
201906231156 METAR KPWT 231156Z AUTO VRB04KT 10SM OVC008 12/10 A3017 RMK AO2 SLP232 7//// T01170100 10139 20117 58002=
201906231056 METAR KPWT 231056Z AUTO 21004KT 10SM OVC008 13/11 A3017 RMK AO2 SLP232 T01280111=
201906231003 SPECI KPWT 231003Z AUTO 00000KT 10SM OVC008 13/11 A3017 RMK AO2=
201906230956 METAR KPWT 230956Z AUTO 20003KT 10SM OVC010 13/11 A3017 RMK AO2 SLP235 T01280111=
201906230856 METAR KPWT 230856Z AUTO 00000KT 10SM OVC012 13/12 A3017 RMK AO2 SLP235 T01330117 58002=
201906230815 SPECI KPWT 230815Z AUTO 00000KT 10SM BKN012 OVC021 14/12 A3018 RMK AO2=
201906230756 METAR KPWT 230756Z AUTO 09003KT 10SM BKN023 14/12 A3018 RMK AO2 SLP237 T01390117 401940106=
201906230656 METAR KPWT 230656Z AUTO 00000KT 10SM OVC028 14/12 A3018 RMK AO2 SLP236 T01390117=
201906230647 SPECI KPWT 230647Z AUTO 00000KT 10SM BKN028 14/12 A3018 RMK AO2=
201906230556 METAR KPWT 230556Z AUTO 07003KT 10SM BKN044 14/11 A3018 RMK AO2 SLP237 T01390111 10194 20139 50001=
201906230456 METAR KPWT 230456Z AUTO 05006KT 10SM SCT024 OVC040 15/11 A3018 RMK AO2 SLP238 T01500106=
201906230356 METAR KPWT 230356Z AUTO 05005KT 10SM OVC026 16/10 A3018 RMK AO2 SLP236 T01560100=
201906230325 SPECI KPWT 230325Z AUTO 06007KT 10SM OVC029 16/10 A3018 RMK AO2=
201906230256 METAR KPWT 230256Z AUTO 07005KT 10SM OVC031 16/10 A3018 RMK AO2 SLP236 T01560100 56004=
201906230216 SPECI KPWT 230216Z AUTO 05007KT 10SM OVC029 16/10 A3018 RMK AO2=
201906230156 METAR KPWT 230156Z AUTO 06005KT 10SM OVC031 16/11 A3018 RMK AO2 SLP238 T01610106=
201906230056 METAR KPWT 230056Z AUTO 05009KT 10SM OVC033 17/11 A3019 RMK AO2 SLP240 T01670106=
201906222356 METAR KPWT 222356Z AUTO 00000KT 10SM BKN031 18/11 A3020 RMK AO2 SLP242 6//// T01830106 10189 20122 56014=
201906222256 METAR KPWT 222256Z AUTO 28005KT 10SM FEW032 OVC041 18/11 A3021 RMK AO2 SLP245 T01830106=
201906222156 METAR KPWT 222156Z AUTO 00000KT 10SM SCT022 OVC033 16/10 A3022 RMK AO2 SLP249 T01560100=
201906222056 METAR KPWT 222056Z AUTO 22007KT 10SM OVC016 14/10 A3024 RMK AO2 SLP257 6//// T01440100 56004=
201906222048 SPECI KPWT 222048Z AUTO 19006KT 10SM OVC016 14/10 A3024 RMK AO2=
201906221956 METAR KPWT 221956Z AUTO 19007KT 10SM OVC012 13/10 A3024 RMK AO2 SLP259 T01330100=
201906221856 METAR KPWT 221856Z AUTO 16006KT 10SM OVC012 13/10 A3024 RMK AO2 SLP260 T01330100=
201906221756 METAR KPWT 221756Z AUTO 19007KT 10SM OVC010 12/10 A3025 RMK AO2 SLP263 60000 T01220100 10128 20111 53002=
201906221656 METAR KPWT 221656Z AUTO 21007KT 10SM OVC010 12/10 A3025 RMK AO2 RAB02E17 SLP262 P0000 T01220100=
201906221556 METAR KPWT 221556Z AUTO 19006KT 10SM SCT008 OVC014 12/10 A3024 RMK AO2 SLP258 T01220100=
201906221526 SPECI KPWT 221526Z AUTO 20006KT 10SM BKN008 OVC016 12/10 A3023 RMK AO2 CIG 007V012=
201906221520 SPECI KPWT 221520Z AUTO 21005KT 10SM FEW008 OVC016 12/10 A3024 RMK AO2=
201906221456 METAR KPWT 221456Z AUTO 18005KT 10SM FEW007 OVC014 12/10 A3024 RMK AO2 SLP258 T01170100 51003=
201906221356 METAR KPWT 221356Z AUTO 15003KT 10SM OVC010 11/10 A3024 RMK AO2 SLP257 T01110100=
201906221326 SPECI KPWT 221326Z AUTO 20004KT 9SM OVC010 11/10 A3025 RMK AO2 CIG 007V011=
201906221308 SPECI KPWT 221308Z AUTO 17003KT 6SM BR OVC008 11/10 A3024 RMK AO2 CIG 006V011=
201906221256 METAR KPWT 221256Z AUTO 20003KT 8SM OVC010 11/10 A3025 RMK AO2 CIG 006V011 SLP258 T01110100=
201906221156 METAR KPWT 221156Z AUTO 19005KT 10SM OVC012 11/09 A3024 RMK AO2 SLP255 6//// 7//// T01110094 10117 20100 53006=
201906221115 SPECI KPWT 221115Z AUTO 21007KT 10SM OVC010 11/10 A3023 RMK AO2=
201906221056 METAR KPWT 221056Z AUTO 20007KT 10SM OVC008 12/09 A3023 RMK AO2 SLP252 T01170094=
201906220956 METAR KPWT 220956Z AUTO 21008KT 10SM OVC008 12/10 A3022 RMK AO2 SLP251 T01170100=
201906220856 METAR KPWT 220856Z AUTO 20008KT 10SM OVC008 12/10 A3022 RMK AO2 SLP249 6//// T01170100 53005=
201906220849 SPECI KPWT 220849Z AUTO 21005KT 10SM OVC008 11/10 A3022 RMK AO2=
201906220809 SPECI KPWT 220809Z AUTO 20005KT 10SM BKN010 11/09 A3022 RMK AO2=
201906220756 METAR KPWT 220756Z AUTO 19004KT 10SM FEW010 11/09 A3021 RMK AO2 SLP249 T01060094 402000100=
201906220656 METAR KPWT 220656Z AUTO 21005KT 10SM CLR 10/09 A3020 RMK AO2 SLP246 T01000089=
201906220556 METAR KPWT 220556Z AUTO 22005KT 10SM CLR 11/09 A3020 RMK AO2 SLP245 T01110094 10200 20111 53006=
201906220456 METAR KPWT 220456Z AUTO 22005KT 10SM CLR 12/10 A3020 RMK AO2 SLP244 T01220100=
201906220356 METAR KPWT 220356Z AUTO 24008KT 10SM SCT065 15/11 A3019 RMK AO2 SLP239 T01500106=
201906220256 METAR KPWT 220256Z AUTO 24009KT 10SM FEW070 17/11 A3018 RMK AO2 SLP238 T01670106 53003=
201906220156 METAR KPWT 220156Z AUTO 24011KT 10SM FEW038 19/11 A3017 RMK AO2 SLP233 T01890111=
201906220056 METAR KPWT 220056Z AUTO 20008KT 160V220 10SM BKN040 20/11 A3017 RMK AO2 SLP233 T02000106=
201906212356 METAR KPWT 212356Z AUTO 20005KT 10SM FEW040 BKN070 19/10 A3017 RMK AO2 SLP234 6//// T01890100 10200 20144 58002=
201906212256 METAR KPWT 212256Z AUTO 18006KT 10SM BKN038 19/10 A3018 RMK AO2 SLP236 T01890100=
201906212056 METAR KPWT 212056Z AUTO 22006KT 10SM OVC036 18/09 A3018 RMK AO2 SLP236 T01830094 50000=
201906211956 METAR KPWT 211956Z AUTO 20007KT 10SM OVC034 17/09 A3018 RMK AO2 SLP237 T01720094=
201906211920 SPECI KPWT 211920Z AUTO VRB06KT 10SM SCT028 SCT035 18/10 A3018 RMK AO2=
201906211856 METAR KPWT 211856Z AUTO 21006KT 10SM BKN026 BKN036 16/09 A3018 RMK AO2 SLP237 T01610094=
201906211832 SPECI KPWT 211832Z AUTO 26006KT 10SM BKN026 16/10 A3018 RMK AO2=
201906211811 SPECI KPWT 211811Z AUTO VRB05KT 10SM SCT022 16/09 A3017 RMK AO2=
201906211756 METAR KPWT 211756Z AUTO 23005KT 10SM BKN022 14/09 A3018 RMK AO2 SLP237 T01440094 10156 20106 51004=
201906211656 METAR KPWT 211656Z AUTO 22009KT 10SM OVC016 13/09 A3018 RMK AO2 SLP236 T01330094=
201906211644 SPECI KPWT 211644Z AUTO 24007KT 10SM BKN016 14/09 A3017 RMK AO2=
201906211556 METAR KPWT 211556Z AUTO 23008KT 10SM OVC010 12/09 A3017 RMK AO2 SLP235 T01170089=
201906211537 SPECI KPWT 211537Z AUTO 20003KT 10SM OVC010 11/09 A3017 RMK AO2=
201906211456 METAR KPWT 211456Z AUTO 22005KT 10SM OVC008 11/09 A3017 RMK AO2 SLP232 T01110089 51013=
201906211356 METAR KPWT 211356Z AUTO 24005KT 10SM OVC008 11/09 A3016 RMK AO2 SLP229 T01060089=
201906211334 SPECI KPWT 211334Z AUTO 22005KT 10SM OVC008 11/09 A3015 RMK AO2=
201906211256 METAR KPWT 211256Z AUTO 19004KT 10SM OVC010 11/08 A3014 RMK AO2 SLP224 T01060083=
201906211156 METAR KPWT 211156Z AUTO 21005KT 10SM OVC012 11/08 A3013 RMK AO2 SLP218 6//// 7//// T01060083 10117 20100 53006=
201906211056 METAR KPWT 211056Z AUTO 20003KT 10SM OVC012 11/08 A3012 RMK AO2 SLP216 T01060083=
201906210956 METAR KPWT 210956Z AUTO 22004KT 10SM OVC014 10/08 A3011 RMK AO2 SLP213 T01000083=
201906210908 SPECI KPWT 210908Z AUTO 20004KT 10SM BKN014 OVC095 10/08 A3011 RMK AO2=
201906210856 METAR KPWT 210856Z AUTO 21004KT 10SM SCT014 BKN100 BKN120 10/08 A3011 RMK AO2 SLP212 6//// T01000078 53013=
201906210756 METAR KPWT 210756Z AUTO 19005KT 10SM CLR 11/08 A3009 RMK AO2 SLP208 T01060078 401940083=
201906210656 METAR KPWT 210656Z AUTO 20008KT 10SM CLR 11/08 A3008 RMK AO2 SLP204 T01110078=
201906210556 METAR KPWT 210556Z AUTO 20007KT 10SM BKN120 12/08 A3007 RMK AO2 SLP200 60001 T01170078 10178 20117 53006=
201906210456 METAR KPWT 210456Z AUTO 20009KT 10SM BKN120 13/08 A3006 RMK AO2 SLP197 T01280078=
201906210356 METAR KPWT 210356Z AUTO 22011KT 10SM CLR 14/08 A3005 RMK AO2 SLP194 T01390078=
201906210256 METAR KPWT 210256Z AUTO 22012G16KT 10SM CLR 16/08 A3005 RMK AO2 RAB07E22 SLP194 P0000 60001 T01610083 56006=
201906210156 METAR KPWT 210156Z AUTO 22011KT 10SM FEW090 16/09 A3005 RMK AO2 RAE50 SLP195 P0001 T01610089=
201906210056 METAR KPWT 210056Z AUTO 23012KT 10SM -RA BKN034 OVC040 16/09 A3007 RMK AO2 RAE2359B23 SLP199 P0000 T01610089=
201906202356 METAR KPWT 202356Z AUTO 17006KT 10SM -RA BKN050 18/09 A3007 RMK AO2 RAB39 SLP200 P0000 6//// T01780094 10194 20144=
201906202256 METAR KPWT 202256Z AUTO 22008G15KT 10SM BKN045 OVC050 18/08 RMK AO2 SLPNO T01780078 $=
201906202156 METAR KPWT 202156Z AUTO 20008KT 10SM OVC049 18/07 A3009 RMK AO2 SLP205 T01780072=
201906202056 METAR KPWT 202056Z AUTO VRB04KT 10SM BKN045 BKN055 OVC070 18/07 A3009 RMK AO2 SLP205 6//// T01830067 58008=
201906201956 METAR KPWT 201956Z AUTO VRB03KT 10SM OVC055 17/06 A3010 RMK AO2 SLP210 T01720061=
201906201856 METAR KPWT 201856Z AUTO 19008KT 150V220 10SM SCT037 BKN060 17/07 A3010 RMK AO2 SLP211 T01670072=
201906201756 METAR KPWT 201756Z AUTO 20007KT 150V220 10SM SCT036 BKN060 16/07 A3011 RMK AO2 SLP215 6//// T01560072 10161 20083 58004=
201906201656 METAR KPWT 201656Z AUTO 10SM FEW022 BKN040 13/08 A3012 RMK AO2 SLP219 T01330078=
201906201652 SPECI KPWT 201652Z AUTO 18004KT 10SM FEW022 SCT029 BKN040 13/08 A3012 RMK AO2=
201906201629 SPECI KPWT 201629Z AUTO 20003KT 10SM BKN022 BKN027 13/08 A3013 RMK AO2=
201906201556 METAR KPWT 201556Z AUTO 15004KT 10SM SCT016 13/08 A3013 RMK AO2 SLP219 T01280078=
201906201517 SPECI KPWT 201517Z AUTO 00000KT 10SM FEW009 SCT070 12/09 A3013 RMK AO2=
201906201456 METAR KPWT 201456Z AUTO 00000KT 10SM BKN065 11/09 RMK AO2 SLPNO 6//// T01110089 $=
201906201356 METAR KPWT 201356Z AUTO 00000KT 10SM BKN055 10/08 A3012 RMK AO2 SLP216 T01000083=
201906201256 METAR KPWT 201256Z AUTO 06003KT 10SM FEW046 BKN060 09/08 A3011 RMK AO2 RAB01E18 SLP213 P0000 T00890078=
201906201156 METAR KPWT 201156Z AUTO 00000KT 10SM OVC050 10/08 A3011 RMK AO2 SLP212 60000 7//// T01000083 10111 20089 53009=
201906201056 METAR KPWT 201056Z AUTO 03004KT 10SM FEW005 SCT015 BKN055 09/08 A3010 RMK AO2 SLP208 T00940083=
201906201048 SPECI KPWT 201048Z AUTO 03004KT 10SM FEW005 BKN017 BKN055 09/08 A3009 RMK AO2=
201906201017 SPECI KPWT 201017Z AUTO 05003KT 10SM BKN005 09/08 A3009 RMK AO2=
201906200956 METAR KPWT 200956Z AUTO 05005KT 10SM FEW007 BKN035 10/08 A3009 RMK AO2 SLP205 T01000083=
201906200944 SPECI KPWT 200944Z AUTO 05005KT 10SM SCT007 BKN033 10/08 A3009 RMK AO2=
201906200856 METAR KPWT 200856Z AUTO 06005KT 10SM FEW039 SCT055 BKN080 11/08 A3008 RMK AO2 RAB07E31 SLP203 P0000 60000 T01060083 56008=
201906200756 METAR KPWT 200756Z AUTO 05005KT 10SM BKN065 BKN100 11/08 A3008 RMK AO2 SLP205 T01060078 401890106=
201906200656 METAR KPWT 200656Z AUTO 07006KT 10SM FEW036 BKN050 BKN095 11/08 A3010 RMK AO2 SLP209 T01060078=
201906200556 METAR KPWT 200556Z AUTO 07006KT 10SM FEW036 SCT110 11/09 A3011 RMK AO2 SLP213 6//// T01110089 10189 20111 50002=
201906200456 METAR KPWT 200456Z AUTO 09004KT 10SM FEW040 12/08 A3011 RMK AO2 SLP215 T01170078=
201906200356 METAR KPWT 200356Z AUTO 08007KT 10SM BKN037 OVC055 14/07 A3011 RMK AO2 SLP213 T01390072=
201906200256 METAR KPWT 200256Z AUTO 09005KT 10SM BKN044 BKN085 15/08 A3010 RMK AO2 SLP210 T01500078 55001=
201906200156 METAR KPWT 200156Z AUTO 04008KT 10SM SCT046 BKN090 17/08 A3009 RMK AO2 SLP208 T01720083=
201906200056 METAR KPWT 200056Z AUTO 05011KT 10SM FEW050 SCT075 17/08 A3010 RMK AO2 SLP211 T01720083=
201906192356 METAR KPWT 192356Z AUTO VRB05KT 10SM BKN055 18/08 A3010 RMK AO2 RAE09 SLP211 P0000 60000 T01780083 10189 20128 56017=
201906192256 METAR KPWT 192256Z AUTO 07006KT 10SM -RA SCT060 18/09 A3011 RMK AO2 RAB56 SLP214 P0000 T01780089=
201906192156 METAR KPWT 192156Z AUTO 03010KT 10SM FEW060 18/09 A3013 RMK AO2 SLP219 T01830089=
201906192056 METAR KPWT 192056Z AUTO 08005KT 10SM SCT038 BKN047 OVC055 17/08 A3015 RMK AO2 SLP228 T01720083 58019=
201906191956 METAR KPWT 191956Z AUTO 06005KT 10SM SCT038 17/09 A3017 RMK AO2 SLP234 T01670089=
201906191915 SPECI KPWT 191915Z AUTO 33004KT 10SM SCT023 17/09 A3019 RMK AO2=
201906191856 METAR KPWT 191856Z AUTO 36005KT 10SM BKN023 17/09 A3020 RMK AO2 SLP243 T01670094=
201906191756 METAR KPWT 191756Z AUTO 00000KT 10SM OVC017 13/09 A3021 RMK AO2 SLP248 T01280089 10128 20106 56002=
201906191656 METAR KPWT 191656Z AUTO VRB03KT 10SM OVC013 12/08 A3022 RMK AO2 SLP250 T01170083=
201906191556 METAR KPWT 191556Z AUTO 19003KT 10SM OVC013 11/08 A3022 RMK AO2 SLP250 T01110083=
201906191456 METAR KPWT 191456Z AUTO 11003KT 10SM OVC013 11/08 A3021 RMK AO2 SLP250 T01110078 53004=
201906191356 METAR KPWT 191356Z AUTO 12003KT 10SM OVC013 11/08 A3020 RMK AO2 SLP246 T01110083=
201906191352 SPECI KPWT 191352Z AUTO 00000KT 10SM OVC013 11/08 A3020 RMK AO2=
201906191256 METAR KPWT 191256Z AUTO 00000KT 10SM OVC017 11/08 A3020 RMK AO2 SLP245 T01060083=
201906191156 METAR KPWT 191156Z AUTO 00000KT 10SM OVC019 11/08 A3020 RMK AO2 SLP244 6//// 7//// T01060083 10133 20106 53003=
201906191056 METAR KPWT 191056Z AUTO 14003KT 10SM OVC015 11/08 A3019 RMK AO2 SLP241 T01110083=
201906191029 SPECI KPWT 191029Z AUTO 16003KT 10SM BKN015 OVC035 11/08 A3019 RMK AO2=
201906191022 SPECI KPWT 191022Z AUTO VRB04KT 10SM BKN013 BKN018 OVC035 11/08 A3019 RMK AO2=
201906190956 METAR KPWT 190956Z AUTO 00000KT 10SM OVC035 11/08 A3019 RMK AO2 SLP240 T01110083=
201906190916 SPECI KPWT 190916Z AUTO 16003KT 10SM OVC031 12/09 A3019 RMK AO2=
201906190856 METAR KPWT 190856Z AUTO 00000KT 10SM FEW017 OVC029 12/09 A3019 RMK AO2 SLP240 6//// T01170089=
201906190756 METAR KPWT 190756Z AUTO 19005KT 10SM OVC015 12/09 A3019 RMK AO2 SLP241 T01170089 401890117=
201906190739 SPECI KPWT 190739Z AUTO 19005KT 10SM OVC015 12/09 A3019 RMK AO2=
201906190656 METAR KPWT 190656Z AUTO 17004KT 10SM BKN013 OVC041 13/09 RMK AO2 SLPNO T01280094 $=
201906190556 METAR KPWT 190556Z AUTO VRB03KT 10SM OVC033 13/11 A3019 RMK AO2 SLP241 T01330106 10183 20133 50002=
201906190533 SPECI KPWT 190533Z AUTO 12003KT 10SM SCT023 OVC033 14/12 A3020 RMK AO2=
201906190512 SPECI KPWT 190512Z AUTO 10004KT 10SM BKN023 OVC041 14/12 A3020 RMK AO2=
201906190456 METAR KPWT 190456Z AUTO 07006KT 10SM FEW025 OVC041 13/12 A3019 RMK AO2 SLP242 T01330122=
201906190356 METAR KPWT 190356Z AUTO 05008KT 10SM BKN045 14/12 A3018 RMK AO2 SLP239 T01390122=
201906190256 METAR KPWT 190256Z AUTO 05008KT 10SM OVC037 14/12 A3018 RMK AO2 SLP238 T01440122 56005=
201906190156 METAR KPWT 190156Z AUTO 04012KT 10SM BKN041 OVC050 16/12 A3018 RMK AO2 SLP238 T01560122=
201906190106 SPECI KPWT 190106Z AUTO 05011KT 10SM FEW016 SCT020 OVC050 17/12 A3019 RMK AO2=
201906190056 METAR KPWT 190056Z AUTO 03010KT 10SM SCT022 BKN029 OVC050 17/13 A3019 RMK AO2 SLP240 T01720128=
201906182356 METAR KPWT 182356Z AUTO 04011KT 10SM SCT020 BKN027 BKN041 18/13 A3020 RMK AO2 SLP242 T01780133 10189 20139 58008=
201906182327 SPECI KPWT 182327Z AUTO 05007KT 10SM SCT026 OVC036 17/13 A3021 RMK AO2=
201906182256 METAR KPWT 182256Z AUTO 04007KT 10SM BKN023 OVC030 17/13 A3021 RMK AO2 SLP248 T01670133=
201906182156 METAR KPWT 182156Z AUTO 04009KT 10SM OVC025 18/13 A3022 RMK AO2 SLP248 T01830128=
201906182056 METAR KPWT 182056Z AUTO VRB03KT 10SM OVC021 18/12 A3022 RMK AO2 SLP251 T01830122=
201906181956 METAR KPWT 181956Z AUTO 23007KT 10SM BKN019 17/12 A3023 RMK AO2 SLP252 T01720122=
201906181923 SPECI KPWT 181923Z AUTO 22007KT 10SM BKN015 17/12 A3023 RMK AO2=
201906181856 METAR KPWT 181856Z AUTO VRB05KT 10SM BKN011 BKN019 OVC047 16/12 RMK AO2 SLPNO T01560122 $=
201906181827 SPECI KPWT 181827Z AUTO 22008KT 10SM BKN011 OVC019 16/13 A3024 RMK AO2=
201906181756 METAR KPWT 181756Z AUTO 19005KT 8SM OVC009 14/13 A3024 RMK AO2 RAE02 CIG 006V012 SLP256 P0000 60000 T01440128 10144 20128 51005=
201906181656 METAR KPWT 181656Z AUTO 19005KT 6SM -RA BR OVC006 14/13 A3024 RMK AO2 RAE25B46 CIG 004V009 SLP255 P0000 T01390128=
201906181611 SPECI KPWT 181611Z AUTO 18004KT 3SM -RA BR OVC006 14/13 A3023 RMK AO2 CIG 004V010 P0000=
201906181605 SPECI KPWT 181605Z AUTO 17003KT 1 1/2SM -RA BR OVC006 14/13 A3023 RMK AO2 CIG 004V010 P0000=
201906181556 METAR KPWT 181556Z AUTO 13004KT 2 1/2SM -RA BR OVC006 14/13 A3023 RMK AO2 RAB55 CIG 005V010 SLP251 P0000 T01390128=
201906181456 METAR KPWT 181456Z AUTO 11003KT 10SM OVC008 13/12 A3022 RMK AO2 RAB05E26 CIG 004V011 SLP249 P0000 60000 T01330122 53019=
201906181440 SPECI KPWT 181440Z AUTO 00000KT 7SM OVC008 13/13 A3021 RMK AO2 RAB05E26 CIG 003V010 P0000=
201906181426 SPECI KPWT 181426Z AUTO 14003KT 3SM BR OVC003 13/13 A3021 RMK AO2 RAB05E26 P0000=
201906181416 SPECI KPWT 181416Z AUTO 00000KT 2SM -RA BR OVC003 13/13 A3021 RMK AO2 VIS 1 1/2V3 RAB05 P0000=
201906181406 SPECI KPWT 181406Z AUTO 11003KT 1 3/4SM -RA BR OVC005 13/12 A3021 RMK AO2 RAB05 CIG 003V009 P0000=
201906181356 METAR KPWT 181356Z AUTO 00000KT 2 1/2SM BR OVC005 13/12 A3021 RMK AO2 CIG 003V009 SLP242 T01330122=
201906181354 SPECI KPWT 181354Z AUTO 12003KT 2 1/2SM BR OVC005 13/12 A3020 RMK AO2 CIG 003V009=
201906181328 SPECI KPWT 181328Z AUTO 00000KT 6SM BR OVC003 13/12 A3019 RMK AO2=
201906181256 METAR KPWT 181256Z AUTO 00000KT 6SM BR OVC005 13/12 A3018 RMK AO2 CIG 003V009 SLP235 T01280122=
201906181156 METAR KPWT 181156Z AUTO 20004KT 10SM OVC005 13/12 A3017 RMK AO2 SLP229 6//// 7//// T01330122 10161 20133 53005=
201906181056 METAR KPWT 181056Z AUTO 18003KT 10SM OVC005 13/12 A3016 RMK AO2 SLP227 T01330122=
201906181013 SPECI KPWT 181013Z AUTO 20004KT 10SM OVC005 13/12 A3015 RMK AO2=
201906180956 METAR KPWT 180956Z AUTO 00000KT 10SM OVC007 13/12 A3015 RMK AO2 SLP224 T01330122=
201906180856 METAR KPWT 180856Z AUTO VRB04KT 10SM OVC009 14/12 A3015 RMK AO2 SLP225 T01390122 55001=
201906180819 SPECI KPWT 180819Z AUTO 21006KT 10SM BKN009 OVC013 14/12 A3015 RMK AO2=
201906180811 SPECI KPWT 180811Z AUTO 20004KT 10SM BKN011 OVC049 14/13 A3015 RMK AO2=
201906180756 METAR KPWT 180756Z AUTO 18004KT 10SM FEW013 OVC049 15/13 A3015 RMK AO2 SLP223 T01500128 402390106=
201906180656 METAR KPWT 180656Z AUTO 21004KT 10SM OVC045 16/13 A3015 RMK AO2 SLP224 T01560128=
201906180556 METAR KPWT 180556Z AUTO 21005KT 10SM OVC045 16/13 A3016 RMK AO2 SLP228 T01610133 10239 20161 53011=
201906180456 METAR KPWT 180456Z AUTO 20005KT 10SM SCT045 17/13 A3014 RMK AO2 SLP224 T01670133=
201906180356 METAR KPWT 180356Z AUTO 21005KT 10SM FEW042 19/14 A3013 RMK AO2 SLP217 T01890139=
201906180256 METAR KPWT 180256Z AUTO 20006KT 10SM OVC038 22/14 A3012 RMK AO2 SLP215 T02170144 55002=
201906180156 METAR KPWT 180156Z AUTO 19006KT 10SM OVC044 23/14 A3012 RMK AO2 SLP214 T02280144=
201906180056 METAR KPWT 180056Z AUTO 24006KT 10SM OVC040 23/14 A3012 RMK AO2 SLP215 T02280144=
201906172356 METAR KPWT 172356Z AUTO 22006KT 10SM OVC045 24/13 A3013 RMK AO2 SLP217 6//// T02390133 10239 20150 56007=
201906172256 METAR KPWT 172256Z AUTO VRB06KT 10SM CLR 23/14 A3013 RMK AO2 SLP218 T02330139=
201906172156 METAR KPWT 172156Z AUTO VRB05KT 10SM CLR 22/14 A3015 RMK AO2 SLP223 T02220139=
201906172056 METAR KPWT 172056Z AUTO VRB06KT 10SM CLR 21/13 A3015 RMK AO2 SLP225 6//// T02110133 58004=
201906171956 METAR KPWT 171956Z AUTO 26004KT 10SM CLR 19/13 A3016 RMK AO2 SLP230 T01940133=
201906171934 SPECI KPWT 171934Z AUTO VRB04KT 10SM SCT016 18/13 A3017 RMK AO2=
201906171856 METAR KPWT 171856Z AUTO 00000KT 10SM OVC012 17/12 A3016 RMK AO2 SLP230 T01670122=
201906171814 SPECI KPWT 171814Z AUTO 22004KT 10SM OVC010 16/12 A3016 RMK AO2=
201906171756 METAR KPWT 171756Z AUTO 25004KT 10SM OVC008 14/12 A3016 RMK AO2 SLP230 T01440117 10150 20122 51008=
201906171656 METAR KPWT 171656Z AUTO 21004KT 10SM OVC006 13/12 A3016 RMK AO2 SLP228 T01330117=
201906171625 SPECI KPWT 171625Z AUTO 20004KT 10SM OVC004 13/12 A3015 RMK AO2=
201906171556 METAR KPWT 171556Z AUTO 20003KT 7SM OVC002 12/12 A3014 RMK AO2 SLP223 T01220117=
201906171456 METAR KPWT 171456Z AUTO VRB03KT 5SM BR OVC002 12/12 A3014 RMK AO2 SLP221 T01220117=
201906171356 METAR KPWT 171356Z AUTO 17004KT 6SM BR OVC002 12/12 RMK AO2 SLPNO T01220117 $=
201906171347 SPECI KPWT 171347Z AUTO 19004KT 4SM BR OVC002 12/12 A3013 RMK AO2=
201906171256 METAR KPWT 171256Z AUTO 19004KT 10SM OVC004 12/12 A3011 RMK AO2 SLP211 T01220117=
201906171156 METAR KPWT 171156Z AUTO 20005KT 10SM OVC004 12/12 A3011 RMK AO2 SLP209 7//// T01220117 10156 20106 52012=
201906171114 SPECI KPWT 171114Z AUTO 00000KT 10SM OVC004 12/11 A3009 RMK AO2=
201906171056 METAR KPWT 171056Z AUTO 23004KT 10SM OVC006 12/11 A3009 RMK AO2 SLP205 T01170111=
201906171040 SPECI KPWT 171040Z AUTO 21003KT 10SM BKN006 BKN060 12/11 A3009 RMK AO2=
201906171032 SPECI KPWT 171032Z AUTO 21004KT 10SM SCT006 BKN060 11/11 A3009 RMK AO2=
201906170956 METAR KPWT 170956Z AUTO 22003KT 10SM BKN060 11/11 A3008 RMK AO2 SLP202 T01110106=
201906170856 METAR KPWT 170856Z AUTO 00000KT 10SM CLR 12/11 A3007 RMK AO2 SLP198 T01170106 53008=
201906170756 METAR KPWT 170756Z AUTO 00000KT 10SM CLR 13/12 A3006 RMK AO2 SLP195 T01280117 402560072=
201906170656 METAR KPWT 170656Z AUTO 20003KT 10SM CLR 14/12 A3005 RMK AO2 SLP192 T01390117=
201906170556 METAR KPWT 170556Z AUTO 20003KT 10SM CLR 16/12 A3005 RMK AO2 SLP191 T01560122 10256 20156 51009=
201906170456 METAR KPWT 170456Z AUTO VRB03KT 10SM CLR 18/13 A3004 RMK AO2 SLP189 T01780133=
201906170356 METAR KPWT 170356Z AUTO 18003KT 10SM CLR 19/12 A3003 RMK AO2 SLP183 T01940122=
201906170256 METAR KPWT 170256Z AUTO 05008KT 10SM FEW045 20/12 A3002 RMK AO2 SLP181 T02000122 55000=
201906170156 METAR KPWT 170156Z AUTO 05009KT 10SM SCT045 22/12 A3001 RMK AO2 SLP178 T02220122=
201906170056 METAR KPWT 170056Z AUTO VRB05KT 10SM BKN047 24/14 A3001 RMK AO2 SLP177 T02440139=
201906162356 METAR KPWT 162356Z AUTO VRB04KT 10SM CLR 24/13 A3002 RMK AO2 SLP180 T02440133 10250 20139 57010=
201906162256 METAR KPWT 162256Z AUTO 27007KT 10SM CLR 24/13 A3003 RMK AO2 SLP185 T02390133=
201906162156 METAR KPWT 162156Z AUTO VRB06KT 10SM CLR 23/13 A3004 RMK AO2 SLP188 T02330133=
201906162056 METAR KPWT 162056Z AUTO 21007KT 170V260 10SM CLR 22/13 A3005 RMK AO2 SLP192 T02220133 58011=
201906161956 METAR KPWT 161956Z AUTO VRB04KT 10SM CLR 21/13 A3007 RMK AO2 SLP197 T02060128=
201906161856 METAR KPWT 161856Z AUTO VRB03KT 10SM CLR 17/12 A3007 RMK AO2 SLP200 T01720122=
201906161828 SPECI KPWT 161828Z AUTO VRB03KT 10SM SCT009 15/12 A3008 RMK AO2=
201906161756 METAR KPWT 161756Z AUTO 23006KT 10SM OVC009 14/12 A3009 RMK AO2 SLP204 6//// T01440117 10144 20100 55001=
201906161656 METAR KPWT 161656Z AUTO 00000KT 10SM OVC009 13/11 A3008 RMK AO2 SLP203 T01330111=
201906161556 METAR KPWT 161556Z AUTO VRB04KT 10SM OVC007 13/11 A3009 RMK AO2 SLP204 T01280111=
201906161522 SPECI KPWT 161522Z AUTO 00000KT 10SM OVC007 12/11 A3009 RMK AO2 CIG 005V009=
201906161506 SPECI KPWT 161506Z AUTO 00000KT 10SM OVC005 12/11 A3009 RMK AO2 CIG 004V007=
201906161456 METAR KPWT 161456Z AUTO 00000KT 10SM OVC003 12/11 A3009 RMK AO2 SLP204 6//// T01170106 51007=
201906161432 SPECI KPWT 161432Z AUTO 00000KT 9SM OVC003 11/11 A3009 RMK AO2=
201906161412 SPECI KPWT 161412Z AUTO 00000KT 7SM OVC005 11/11 A3009 RMK AO2 CIG 002V007=
201906161358 SPECI KPWT 161358Z AUTO 00000KT 4SM BR BKN003 OVC006 11/11 A3009 RMK AO2=
201906161356 METAR KPWT 161356Z AUTO 00000KT 1 1/4SM BR OVC003 11/11 A3009 RMK AO2 SLP203 T01110106=
201906161353 SPECI KPWT 161353Z AUTO 00000KT 1SM BR OVC003 11/11 A3009 RMK AO2=
201906161348 SPECI KPWT 161348Z AUTO 00000KT 1/2SM FG OVC003 11/11 A3009 RMK AO2=
201906161256 METAR KPWT 161256Z AUTO 00000KT 1/4SM FG OVC003 11/11 A3008 RMK AO2 SLP202 T01060106=
201906161203 SPECI KPWT 161203Z AUTO 00000KT 1/4SM FG OVC003 11/10 A3007 RMK AO2=
201906161156 METAR KPWT 161156Z AUTO 00000KT 1/2SM FG OVC003 11/10 A3007 RMK AO2 SLP197 7//// T01060100 10150 20072 53006=
201906161143 SPECI KPWT 161143Z AUTO 00000KT 1/2SM FG OVC003 10/10 A3007 RMK AO2=
201906161135 SPECI KPWT 161135Z AUTO 00000KT 3/4SM BR OVC003 10/09 A3006 RMK AO2=
201906161131 SPECI KPWT 161131Z AUTO 00000KT 1 3/4SM BR OVC003 10/09 A3006 RMK AO2=
201906161129 SPECI KPWT 161129Z AUTO 00000KT 3SM BR OVC003 10/09 A3006 RMK AO2=
201906161120 SPECI KPWT 161120Z AUTO 00000KT 2SM BR BKN003 09/09 A3006 RMK AO2=
201906161113 SPECI KPWT 161113Z AUTO 00000KT 1 3/4SM BR BKN003 09/08 A3007 RMK AO2=
201906161109 SPECI KPWT 161109Z AUTO 00000KT 2 1/2SM BR SCT003 08/08 A3006 RMK AO2=
201906161056 METAR KPWT 161056Z AUTO 00000KT 9SM CLR 08/07 A3006 RMK AO2 SLP195 T00780072=
201906160956 METAR KPWT 160956Z AUTO 00000KT 10SM CLR 09/09 A3006 RMK AO2 SLP193 T00940089=
201906160856 METAR KPWT 160856Z AUTO 00000KT 10SM CLR 09/08 A3005 RMK AO2 SLP192 T00890083 58001=
201906160756 METAR KPWT 160756Z AUTO 00000KT 10SM CLR 11/10 A3005 RMK AO2 SLP192 T01110100 402390067=
201906160656 METAR KPWT 160656Z AUTO 20003KT 10SM CLR 12/11 A3005 RMK AO2 SLP194 T01220106=
201906160556 METAR KPWT 160556Z AUTO 00000KT 10SM CLR 15/12 A3005 RMK AO2 SLP193 T01500122 10239 20139 51008=
201906160456 METAR KPWT 160456Z AUTO 00000KT 10SM CLR 17/11 A3005 RMK AO2 SLP191 T01670111=
201906160356 METAR KPWT 160356Z AUTO 06003KT 10SM CLR 19/11 A3004 RMK AO2 SLP186 T01890111=
201906160256 METAR KPWT 160256Z AUTO 05006KT 10SM CLR 21/12 A3003 RMK AO2 SLP184 T02110117 55003=
201906160156 METAR KPWT 160156Z AUTO 06004KT 10SM CLR 23/12 A3003 RMK AO2 SLP183 T02330122=
201906160056 METAR KPWT 160056Z AUTO VRB03KT 10SM FEW044 23/12 A3003 RMK AO2 SLP185 T02280122=
201906152356 METAR KPWT 152356Z AUTO 07005KT 10SM OVC042 22/12 A3004 RMK AO2 SLP188 6//// T02220117 10233 20150 58011=
201906152256 METAR KPWT 152256Z AUTO 00000KT 10SM BKN040 23/12 A3005 RMK AO2 SLP193 T02280122=
201906152156 METAR KPWT 152156Z AUTO VRB03KT 10SM SCT038 22/12 A3006 RMK AO2 SLP196 T02220122=
201906152056 METAR KPWT 152056Z AUTO VRB03KT 10SM CLR 21/12 A3007 RMK AO2 SLP200 6//// T02060117 58012=
201906151956 METAR KPWT 151956Z AUTO 00000KT 10SM CLR 19/12 A3010 RMK AO2 SLP208 T01940117=
201906151856 METAR KPWT 151856Z AUTO 10SM SCT017 17/11 A3010 RMK AO2 SLP211 T01670111 $=
201906151817 SPECI KPWT 151817Z AUTO 00000KT 10SM SCT013 16/11 A3011 RMK AO2=
201906151756 METAR KPWT 151756Z AUTO 26004KT 10SM OVC011 16/12 A3011 RMK AO2 SLP212 T01560117 10156 20089 51001=
201906151754 SPECI KPWT 151754Z AUTO VRB05KT 10SM OVC011 15/12 A3011 RMK AO2=
201906151656 METAR KPWT 151656Z AUTO 29005KT 10SM OVC007 13/11 A3011 RMK AO2 SLP213 T01330111=
201906151611 SPECI KPWT 151611Z AUTO 26004KT 10SM OVC007 12/11 A3011 RMK AO2=
201906151556 METAR KPWT 151556Z AUTO 20004KT 10SM OVC005 12/11 A3010 RMK AO2 SLP211 T01220106=
201906151456 METAR KPWT 151456Z AUTO 27003KT 10SM OVC005 12/11 A3010 RMK AO2 SLP211 T01220106 51004=
201906151356 METAR KPWT 151356Z AUTO 00000KT 10SM OVC005 11/10 A3010 RMK AO2 SLP209 T01110100=
201906151353 SPECI KPWT 151353Z AUTO 00000KT 10SM OVC005 11/10 A3010 RMK AO2=
201906151256 METAR KPWT 151256Z AUTO 00000KT 10SM OVC007 11/10 A3009 RMK AO2 CIG 005V008 SLP207 T01060100=
201906151211 SPECI KPWT 151211Z AUTO 00000KT 10SM OVC005 09/09 A3010 RMK AO2=
201906151156 METAR KPWT 151156Z AUTO 00000KT 10SM OVC007 09/08 A3010 RMK AO2 SLP209 6//// 7//// T00890083 10117 20067 52003=
201906151125 SPECI KPWT 151125Z AUTO 00000KT 10SM BKN009 08/07 A3010 RMK AO2=
201906151116 SPECI KPWT 151116Z AUTO 00000KT 10SM SCT009 07/07 A3009 RMK AO2=
201906151056 METAR KPWT 151056Z AUTO 00000KT 10SM CLR 07/06 A3009 RMK AO2 SLP208 T00720061=
201906151008 SPECI KPWT 151008Z AUTO 00000KT 10SM CLR 07/06 A3009 RMK AO2=
201906150956 METAR KPWT 150956Z AUTO 00000KT 2 1/2SM BR CLR 07/07 A3009 RMK AO2 VIS 1V5 SLP207 T00670067=
201906150856 METAR KPWT 150856Z AUTO 00000KT 10SM CLR 07/07 A3009 RMK AO2 SLP206 6//// T00720067 53001=
201906150756 METAR KPWT 150756Z AUTO 19003KT 10SM CLR 09/09 A3008 RMK AO2 SLP205 T00940089 401780078=
201906150656 METAR KPWT 150656Z AUTO 20003KT 10SM CLR 09/09 A3008 RMK AO2 SLP204 T00940089=
201906150556 METAR KPWT 150556Z AUTO 21004KT 10SM CLR 12/10 A3008 RMK AO2 SLP205 6//// T01170100 10178 20117 51002=
201906150456 METAR KPWT 150456Z AUTO 21004KT 10SM CLR 12/11 A3008 RMK AO2 SLP205 T01220106=
201906150356 METAR KPWT 150356Z AUTO 20004KT 10SM CLR 14/11 A3008 RMK AO2 SLP204 T01390111=
201906150256 METAR KPWT 150256Z AUTO 21005KT 10SM OVC033 17/11 A3008 RMK AO2 SLP201 6//// T01670106 55003=
201906150156 METAR KPWT 150156Z AUTO 20006KT 10SM OVC033 17/11 A3008 RMK AO2 SLP201 T01720106=
201906150056 METAR KPWT 150056Z AUTO VRB05KT 10SM OVC033 18/11 A3008 RMK AO2 SLP201 T01780106=
201906150012 SPECI KPWT 150012Z AUTO 22005KT 10SM OVC031 18/11 A3008 RMK AO2=
201906142356 METAR KPWT 142356Z AUTO 23006KT 10SM OVC029 18/11 A3008 RMK AO2 SLP204 T01780106 10178 20144 58008=
201906142256 METAR KPWT 142256Z AUTO 21008KT 10SM OVC027 18/11 A3009 RMK AO2 SLP207 T01780106=
201906142156 METAR KPWT 142156Z AUTO 26008KT 10SM OVC027 17/11 A3010 RMK AO2 SLP210 T01720106=
201906142056 METAR KPWT 142056Z AUTO 22007KT 10SM OVC025 17/11 A3011 RMK AO2 SLP212 T01720106 50000=
201906141956 METAR KPWT 141956Z AUTO VRB04KT 10SM OVC023 17/11 A3011 RMK AO2 SLP213 T01670106=
201906141856 METAR KPWT 141856Z AUTO 24007KT 10SM BKN019 OVC026 16/11 A3011 RMK AO2 SLP214 T01610106=
201906141803 SPECI KPWT 141803Z AUTO 23005KT 10SM FEW014 OVC020 15/11 A3011 RMK AO2=
201906141756 METAR KPWT 141756Z AUTO 23003KT 10SM BKN014 OVC020 14/11 A3011 RMK AO2 SLP212 T01440106 10144 20117 53006=
201906141656 METAR KPWT 141656Z AUTO 20003KT 10SM OVC012 13/11 A3010 RMK AO2 SLP210 T01330106=
201906141604 SPECI KPWT 141604Z AUTO 18005KT 10SM OVC012 13/10 A3010 RMK AO2=
201906141556 METAR KPWT 141556Z AUTO 17004KT 10SM OVC016 13/10 A3009 RMK AO2 SLP207 T01330100=
201906141521 SPECI KPWT 141521Z AUTO 19004KT 10SM FEW013 OVC020 13/10 A3009 RMK AO2=
201906141456 METAR KPWT 141456Z AUTO 16004KT 10SM OVC013 12/10 A3009 RMK AO2 SLP205 T01220100 53014=
201906141356 METAR KPWT 141356Z AUTO 00000KT 10SM OVC011 12/10 A3008 RMK AO2 SLP199 T01220100=
201906141256 METAR KPWT 141256Z AUTO 19003KT 10SM OVC011 12/10 A3005 RMK AO2 SLP191 T01170100=
201906141156 METAR KPWT 141156Z AUTO 16003KT 10SM OVC011 12/10 A3005 RMK AO2 SLP189 7//// T01170100 10128 20111 53009=
201906141056 METAR KPWT 141056Z AUTO 00000KT 10SM OVC013 12/10 A3003 RMK AO2 SLP185 T01170100=
201906141013 SPECI KPWT 141013Z AUTO 00000KT 10SM BKN013 11/09 A3003 RMK AO2=
201906140956 METAR KPWT 140956Z AUTO 00000KT 10SM SCT013 11/09 A3003 RMK AO2 SLP183 T01110094=
201906140917 SPECI KPWT 140917Z AUTO 00000KT 10SM BKN013 11/09 A3003 RMK AO2=
201906140856 METAR KPWT 140856Z AUTO 00000KT 10SM OVC015 12/09 A3002 RMK AO2 SLP180 T01170094 51009=
201906140841 SPECI KPWT 140841Z AUTO 00000KT 10SM OVC015 12/09 A3002 RMK AO2=
201906140756 METAR KPWT 140756Z AUTO 00000KT 10SM BKN013 OVC045 12/09 A3001 RMK AO2 SLP178 T01220094 402500111=
201906140753 SPECI KPWT 140753Z AUTO 00000KT 10SM BKN013 OVC045 13/10 A3001 RMK AO2 402500111=
201906140656 METAR KPWT 140656Z AUTO 00000KT 10SM OVC041 12/09 A2999 RMK AO2 SLP172 T01220094=
201906140556 METAR KPWT 140556Z AUTO 00000KT 10SM BKN050 13/09 A2998 RMK AO2 SLP168 6//// T01280094 10244 20128 51021=
201906140456 METAR KPWT 140456Z AUTO 18005KT 10SM CLR 14/09 A2996 RMK AO2 SLP163 T01390094=
201906140356 METAR KPWT 140356Z AUTO 20005KT 10SM CLR 16/09 A2994 RMK AO2 SLP154 T01610094=
201906140256 METAR KPWT 140256Z AUTO 18007KT 10SM CLR 18/11 A2992 RMK AO2 SLP147 T01830106 53002=
201906140156 METAR KPWT 140156Z AUTO 19011KT 10SM CLR 21/11 A2991 RMK AO2 SLP142 T02110111=
201906140056 METAR KPWT 140056Z AUTO 22009KT 10SM CLR 23/13 A2991 RMK AO2 SLP140 T02330128=
201906132356 METAR KPWT 132356Z AUTO 21008KT 10SM CLR 24/13 A2991 RMK AO2 SLP143 6//// T02390128 10250 20172 58010=
201906132256 METAR KPWT 132256Z AUTO 19009KT 10SM CLR 24/13 A2993 RMK AO2 SLP147 T02440133=
201906132156 METAR KPWT 132156Z AUTO 24006KT 10SM CLR 24/14 A2993 RMK AO2 SLP149 T02440139=
201906132056 METAR KPWT 132056Z AUTO VRB03KT 10SM CLR 23/14 A2994 RMK AO2 SLP153 6//// T02330139 57001=
201906131956 METAR KPWT 131956Z AUTO 24005KT 10SM CLR 22/14 A2995 RMK AO2 SLP153 T02170139=
201906131856 METAR KPWT 131856Z AUTO 25007KT 9SM CLR 20/13 A2995 RMK AO2 SLP154 T02000133=
201906131756 METAR KPWT 131756Z AUTO 21006KT 10SM CLR 18/13 A2995 RMK AO2 SLP154 6//// T01780128 10178 20111 51008=
201906131747 SPECI KPWT 131747Z AUTO 22007KT 10SM SCT011 17/13 A2995 RMK AO2=
201906131731 SPECI KPWT 131731Z AUTO 24009KT 10SM BKN011 16/12 A2995 RMK AO2=
201906131656 METAR KPWT 131656Z AUTO 22007KT 10SM OVC009 15/12 A2995 RMK AO2 SLP155 T01500122=
201906131556 METAR KPWT 131556Z AUTO 21008KT 10SM OVC007 14/12 A2994 RMK AO2 SLP150 T01390122=
201906131524 SPECI KPWT 131524Z AUTO 19006KT 10SM OVC007 14/12 A2993 RMK AO2=
201906131456 METAR KPWT 131456Z AUTO 23006KT 10SM OVC005 14/12 A2992 RMK AO2 SLP144 6//// T01390122 51015=
201906131356 METAR KPWT 131356Z AUTO 22007KT 10SM OVC005 13/12 A2991 RMK AO2 SLP140 T01330122=
201906131304 SPECI KPWT 131304Z AUTO 21004KT 9SM OVC005 13/12 A2989 RMK AO2=
201906131256 METAR KPWT 131256Z AUTO 21005KT 9SM BKN007 13/12 A2989 RMK AO2 CIG 004V007 SLP134 T01280122=
201906131247 SPECI KPWT 131247Z AUTO 21004KT 9SM SCT007 12/12 A2989 RMK AO2=
201906131156 METAR KPWT 131156Z AUTO 21003KT 10SM CLR 12/12 A2988 RMK AO2 SLP128 7//// T01220117 10200 20122 51005=
201906131056 METAR KPWT 131056Z AUTO 21005KT 10SM CLR 13/12 A2987 RMK AO2 SLP124 T01330122=
201906130956 METAR KPWT 130956Z AUTO 21003KT 10SM CLR 14/12 A2987 RMK AO2 SLP125 T01440122=
201906130856 METAR KPWT 130856Z AUTO 00000KT 10SM CLR 15/13 A2986 RMK AO2 SLP122 T01500128 51007=
201906130756 METAR KPWT 130756Z AUTO 00000KT 10SM CLR 19/13 A2986 RMK AO2 SLP120 T01940133 403500178=
201906130656 METAR KPWT 130656Z AUTO 00000KT 10SM CLR 18/14 A2985 RMK AO2 SLP117 T01830144=
201906130556 METAR KPWT 130556Z AUTO 00000KT 10SM CLR 20/15 A2984 RMK AO2 SLP114 T02000150 10333 20200 53005=
201906130456 METAR KPWT 130456Z AUTO 22006KT 10SM CLR 21/15 A2984 RMK AO2 SLP113 T02110150=
201906130356 METAR KPWT 130356Z AUTO 05003KT 10SM CLR 26/16 A2983 RMK AO2 SLP108 T02560156=
201906130256 METAR KPWT 130256Z AUTO 05004KT 10SM CLR 28/14 A2982 RMK AO2 SLP107 T02830144 58007=
201906130156 METAR KPWT 130156Z AUTO 06008KT 10SM CLR 31/15 A2983 RMK AO2 SLP110 T03060150=
201906130056 METAR KPWT 130056Z AUTO 05008KT 10SM CLR 32/14 A2984 RMK AO2 SLP112 T03170144=
201906122356 METAR KPWT 122356Z AUTO 06005KT 10SM CLR 33/14 A2984 RMK AO2 SLP114 T03330139 10350 20272 58022=
201906122256 METAR KPWT 122256Z AUTO 00000KT 10SM CLR 34/11 A2987 RMK AO2 SLP122 T03390106=
201906122156 METAR KPWT 122156Z AUTO 26010KT 10SM CLR 33/09 A2989 RMK AO2 SLP129 T03330094=
201906122056 METAR KPWT 122056Z AUTO 36007KT 10SM CLR 32/14 A2991 RMK AO2 SLP136 T03220144 58018=
201906121956 METAR KPWT 121956Z AUTO VRB05KT 10SM CLR 32/13 A2993 RMK AO2 SLP144 T03170133=
201906121856 METAR KPWT 121856Z AUTO 08004KT 10SM CLR 28/13 A2994 RMK AO2 SLP149 T02830128=
201906121756 METAR KPWT 121756Z AUTO 04005KT 10SM CLR 28/13 A2996 RMK AO2 SLP155 6//// T02780133 10278 20206 58009=
201906121656 METAR KPWT 121656Z AUTO VRB05KT 10SM CLR 27/12 A2997 RMK AO2 SLP159 T02670122=
201906121556 METAR KPWT 121556Z AUTO 04007KT 10SM CLR 25/11 A2998 RMK AO2 SLP162 T02500106=
201906121456 METAR KPWT 121456Z AUTO 05007KT 10SM CLR 24/09 A2999 RMK AO2 SLP164 6//// T02390094 58004=
201906121356 METAR KPWT 121356Z AUTO 05009KT 10SM CLR 22/08 A3000 RMK AO2 SLP166 T02220078=
201906121256 METAR KPWT 121256Z AUTO 05009KT 10SM CLR 21/08 A3000 RMK AO2 SLP168 T02060078=
201906121156 METAR KPWT 121156Z AUTO 05008KT 10SM CLR 21/08 A3000 RMK AO2 SLP168 6//// 7//// T02110078 10222 20206 56008=
201906121056 METAR KPWT 121056Z AUTO 05009KT 10SM CLR 21/08 A3001 RMK AO2 SLP170 T02110083=
201906120956 METAR KPWT 120956Z AUTO 06008KT 10SM CLR 22/08 A3001 RMK AO2 SLP172 T02170083=
201906120856 METAR KPWT 120856Z AUTO 06007KT 10SM CLR 22/09 A3003 RMK AO2 SLP177 6//// T02170089 56011=
201906120756 METAR KPWT 120756Z AUTO 04009KT 10SM CLR 21/10 A3003 RMK AO2 SLP180 T02110100 403000111=
201906120656 METAR KPWT 120656Z AUTO 05010KT 10SM CLR 21/11 A3004 RMK AO2 SLP184 T02060106=
201906120556 METAR KPWT 120556Z AUTO 05010KT 10SM CLR 21/11 A3006 RMK AO2 SLP190 T02110111 10294 20211 56003=
201906120456 METAR KPWT 120456Z AUTO 05009KT 10SM CLR 22/12 A3006 RMK AO2 SLP192 T02170117=
201906120356 METAR KPWT 120356Z AUTO 05009KT 10SM CLR 23/12 A3006 RMK AO2 SLP191 T02280117=
201906120256 METAR KPWT 120256Z AUTO 05010KT 10SM CLR 26/12 A3007 RMK AO2 SLP194 T02560117 56015=
201906120156 METAR KPWT 120156Z AUTO 05012KT 10SM CLR 27/12 A3008 RMK AO2 SLP197 T02720122=
201906120056 METAR KPWT 120056Z AUTO 04010KT 10SM CLR 28/13 A3009 RMK AO2 SLP203 T02830133=
201906112356 METAR KPWT 112356Z AUTO 07011G16KT 10SM CLR 29/14 A3011 RMK AO2 SLP209 6//// T02940139 10300 20233 57024=
201906112256 METAR KPWT 112256Z AUTO 05011KT 10SM CLR 29/13 A3014 RMK AO2 SLP217 T02940133=
201906112156 METAR KPWT 112156Z AUTO 03010KT 10SM CLR 29/13 A3016 RMK AO2 SLP225 T02890133=
201906112056 METAR KPWT 112056Z AUTO 05012KT 10SM CLR 28/13 A3019 RMK AO2 SLP233 T02780133 58018=
201906111956 METAR KPWT 111956Z AUTO 04012KT 10SM CLR 27/13 A3021 RMK AO2 SLP242 T02670133=
201906111856 METAR KPWT 111856Z AUTO 05014KT 10SM CLR 25/13 A3023 RMK AO2 SLP248 T02500128=
201906111756 METAR KPWT 111756Z AUTO 04015G20KT 10SM CLR 23/13 A3024 RMK AO2 SLP253 T02330133 10233 20111 58012=
201906111656 METAR KPWT 111656Z AUTO 04014G20KT 10SM CLR 22/13 A3026 RMK AO2 SLP258 T02170133=
201906111556 METAR KPWT 111556Z AUTO 05012G17KT 10SM CLR 21/13 A3027 RMK AO2 SLP263 T02060128=
201906111456 METAR KPWT 111456Z AUTO 05007KT 10SM CLR 18/12 A3027 RMK AO2 SLP264 T01780122 58005=
201906111356 METAR KPWT 111356Z AUTO 03005KT 10SM CLR 16/12 A3029 RMK AO2 SLP270 T01560122=
201906111256 METAR KPWT 111256Z AUTO 00000KT 10SM CLR 11/10 A3029 RMK AO2 SLP273 T01110100=
201906111156 METAR KPWT 111156Z AUTO 11003KT 10SM CLR 13/11 A3029 RMK AO2 SLP271 7//// T01280111 10183 20122 58001=
201906111056 METAR KPWT 111056Z AUTO 06005KT 10SM CLR 13/12 A3029 RMK AO2 SLP273 T01280117=
201906110956 METAR KPWT 110956Z AUTO 06008KT 10SM CLR 14/12 A3029 RMK AO2 SLP272 T01390117=
201906110856 METAR KPWT 110856Z AUTO 05005KT 10SM CLR 15/12 A3029 RMK AO2 SLP272 T01500117 50003=
201906110756 METAR KPWT 110756Z AUTO 11004KT 10SM CLR 15/11 A3030 RMK AO2 SLP273 T01500111 402440089=
201906110656 METAR KPWT 110656Z AUTO 05006KT 10SM CLR 17/11 A3029 RMK AO2 SLP272 T01670111=
201906110556 METAR KPWT 110556Z AUTO 05008KT 10SM CLR 18/11 A3029 RMK AO2 SLP270 T01780111 10244 20178 53005=
201906110456 METAR KPWT 110456Z AUTO 03012KT 10SM CLR 19/11 A3028 RMK AO2 SLP268 T01890111=
201906110356 METAR KPWT 110356Z AUTO 03008KT 10SM CLR 19/12 A3027 RMK AO2 SLP265 T01940117=
201906110256 METAR KPWT 110256Z AUTO 04009KT 10SM CLR 22/12 A3027 RMK AO2 SLP264 T02170117 56006=
201906110156 METAR KPWT 110156Z AUTO 05007KT 10SM CLR 22/12 A3027 RMK AO2 SLP266 T02220122=
201906110056 METAR KPWT 110056Z AUTO 01010KT 10SM CLR 24/12 A3028 RMK AO2 SLP268 T02440117=
201906102356 METAR KPWT 102356Z AUTO 04008KT 020V080 10SM CLR 24/11 A3029 RMK AO2 SLP271 6//// T02390106 10244 20200 58009=
201906102256 METAR KPWT 102256Z AUTO 02009KT 10SM CLR 24/10 A3031 RMK AO2 SLP277 T02390100=
201906102156 METAR KPWT 102156Z AUTO 05007G14KT 10SM CLR 23/09 A3031 RMK AO2 SLP278 T02330094=
201906102056 METAR KPWT 102056Z AUTO 03007KT 10SM CLR 23/08 A3032 RMK AO2 SLP281 6//// T02280078 55001=
201906101956 METAR KPWT 101956Z AUTO 35007KT 10SM CLR 23/08 A3032 RMK AO2 SLP280 T02280078=
201906101856 METAR KPWT 101856Z AUTO 08008KT 10SM CLR 22/06 A3032 RMK AO2 SLP281 T02170056=
201906101756 METAR KPWT 101756Z AUTO 07005KT 10SM CLR 20/08 A3032 RMK AO2 SLP282 T02000078 10200 20100 58001=
201906101656 METAR KPWT 101656Z AUTO 00000KT 10SM CLR 18/08 A3033 RMK AO2 SLP284 T01830078=
201906101556 METAR KPWT 101556Z AUTO VRB03KT 10SM CLR 16/08 A3032 RMK AO2 SLP284 T01560083=
201906101456 METAR KPWT 101456Z AUTO 00000KT 10SM CLR 14/08 A3032 RMK AO2 SLP284 T01440078 52004=
201906101356 METAR KPWT 101356Z AUTO 00000KT 10SM CLR 12/07 A3032 RMK AO2 SLP284 T01170072=
201906101256 METAR KPWT 101256Z AUTO 00000KT 10SM CLR 11/07 A3031 RMK AO2 SLP280 T01060072=
201906101156 METAR KPWT 101156Z AUTO 05004KT 10SM CLR 10/08 A3031 RMK AO2 SLP280 6//// 7//// T01000078 10139 20089=
201906101056 METAR KPWT 101056Z AUTO 00000KT 10SM CLR 09/07 RMK AO2 SLPNO T00940072 $=
201906100956 METAR KPWT 100956Z AUTO 05004KT 10SM CLR 11/08 A3032 RMK AO2 SLP282 T01110078=
201906100856 METAR KPWT 100856Z AUTO 00000KT 10SM CLR 11/08 A3032 RMK AO2 SLP283 T01110078 58001=
201906100756 METAR KPWT 100756Z AUTO 06009KT 10SM CLR 13/08 A3032 RMK AO2 SLP284 T01280078 402280067=
201906100656 METAR KPWT 100656Z AUTO 06008KT 10SM CLR 13/07 A3032 RMK AO2 SLP282 T01330072=
201906100556 METAR KPWT 100556Z AUTO 06006KT 10SM CLR 14/07 A3032 RMK AO2 SLP284 T01390067 10222 20139 53004=
201906100456 METAR KPWT 100456Z AUTO 06007KT 10SM CLR 15/06 A3032 RMK AO2 SLP283 T01500061=
201906100356 METAR KPWT 100356Z AUTO 05008KT 10SM CLR 16/05 A3031 RMK AO2 SLP279 T01610050=
201906100256 METAR KPWT 100256Z AUTO 04010KT 10SM CLR 18/06 A3031 RMK AO2 SLP280 T01780061 55004=
201906100156 METAR KPWT 100156Z AUTO 04011G18KT 10SM CLR 19/06 A3030 RMK AO2 SLP279 T01940061=
201906100056 METAR KPWT 100056Z AUTO 05009KT 10SM CLR 21/07 A3031 RMK AO2 SLP280 T02110067=
201906092356 METAR KPWT 092356Z AUTO 05006KT 10SM CLR 22/07 A3032 RMK AO2 SLP284 T02170067 10228 20172 56010=
201906092256 METAR KPWT 092256Z AUTO 05006KT 10SM CLR 22/07 A3033 RMK AO2 SLP287 T02170067=
201906092156 METAR KPWT 092156Z AUTO 03007KT 10SM CLR 22/08 A3034 RMK AO2 SLP290 T02170078=
201906092056 METAR KPWT 092056Z AUTO VRB05KT 10SM CLR 20/08 A3035 RMK AO2 SLP296 T02000078 56011=
201906091956 METAR KPWT 091956Z AUTO 05007KT 10SM CLR 20/08 A3036 RMK AO2 SLP298 T02000078=
201906091856 METAR KPWT 091856Z AUTO VRB03KT 10SM CLR 19/09 A3037 RMK AO2 SLP302 T01940089=
201906091756 METAR KPWT 091756Z AUTO 06007KT 10SM CLR 18/09 A3039 RMK AO2 SLP306 T01780089 10178 20078 58006=
201906091656 METAR KPWT 091656Z AUTO VRB05KT 10SM CLR 16/08 A3040 RMK AO2 SLP310 T01560083=
201906091556 METAR KPWT 091556Z AUTO 06004KT 10SM CLR 14/08 A3041 RMK AO2 SLP314 T01440083=
201906091456 METAR KPWT 091456Z AUTO 08004KT 10SM CLR 12/09 A3040 RMK AO2 SLP313 T01220089 51001=
201906091356 METAR KPWT 091356Z AUTO 05004KT 10SM CLR 11/08 A3040 RMK AO2 SLP313 T01060083=
201906091256 METAR KPWT 091256Z AUTO 05004KT 10SM CLR 09/08 A3040 RMK AO2 SLP313 T00890078=
201906091156 METAR KPWT 091156Z AUTO 05005KT 10SM CLR 08/07 A3040 RMK AO2 SLP313 6//// 7//// T00780072 10117 20067 56007=
201906091056 METAR KPWT 091056Z AUTO 06006KT 10SM CLR 09/07 A3041 RMK AO2 SLP315 T00890072=
201906090956 METAR KPWT 090956Z AUTO 06005KT 10SM CLR 09/08 A3041 RMK AO2 SLP315 T00940078=
201906090856 METAR KPWT 090856Z AUTO 00000KT 10SM CLR 07/06 A3042 RMK AO2 SLP320 T00720061 50002=
201906090756 METAR KPWT 090756Z AUTO 00000KT 10SM CLR 08/07 A3042 RMK AO2 SLP321 T00780067 402000078=
201906090656 METAR KPWT 090656Z AUTO 06004KT 10SM CLR 11/08 A3042 RMK AO2 SLP319 T01110083=
201906090556 METAR KPWT 090556Z AUTO 04004KT 10SM CLR 12/08 A3042 RMK AO2 SLP319 T01170083 10200 20117 53010=
201906090456 METAR KPWT 090456Z AUTO 05007KT 10SM CLR 13/08 A3041 RMK AO2 SLP316 T01280083=
201906090356 METAR KPWT 090356Z AUTO 05007KT 10SM CLR 14/09 A3039 RMK AO2 SLP308 T01440089=
201906090256 METAR KPWT 090256Z AUTO 02006KT 10SM OVC047 17/08 A3039 RMK AO2 SLP308 T01670083 53003=
201906090156 METAR KPWT 090156Z AUTO 34005KT 10SM BKN049 18/08 A3037 RMK AO2 SLP303 T01830083=
201906090056 METAR KPWT 090056Z AUTO 03005KT 10SM FEW050 17/08 A3038 RMK AO2 SLP304 T01720083=
201906082356 METAR KPWT 082356Z AUTO VRB05KT 10SM OVC050 19/07 A3038 RMK AO2 SLP304 T01890072 10194 20111 56002=
201906082256 METAR KPWT 082256Z AUTO VRB03KT 10SM BKN050 OVC070 18/07 A3038 RMK AO2 SLP304 T01830072=
201906082156 METAR KPWT 082156Z AUTO VRB03KT 10SM SCT047 19/06 A3038 RMK AO2 SLP305 T01890061=
201906082056 METAR KPWT 082056Z AUTO VRB05KT 10SM CLR 18/08 A3038 RMK AO2 SLP306 T01830083 58005=
201906081956 METAR KPWT 081956Z AUTO 27006KT 10SM SCT031 17/07 A3039 RMK AO2 SLP309 T01670072=
201906081912 SPECI KPWT 081912Z AUTO 18004KT 10SM SCT019 15/09 A3040 RMK AO2=
201906081856 METAR KPWT 081856Z AUTO VRB03KT 10SM BKN017 14/08 A3040 RMK AO2 SLP313 T01440083=
201906081849 SPECI KPWT 081849Z AUTO VRB05KT 10SM SCT014 SCT019 13/09 A3040 RMK AO2=
201906081756 METAR KPWT 081756Z AUTO VRB03KT 10SM OVC010 11/08 A3040 RMK AO2 SLP314 T01110078 10111 20089 53014=
201906081732 SPECI KPWT 081732Z AUTO VRB04KT 10SM OVC010 11/08 A3039 RMK AO2=
201906081656 METAR KPWT 081656Z AUTO VRB03KT 10SM OVC008 10/08 A3038 RMK AO2 SLP310 T01000078=
201906081556 METAR KPWT 081556Z AUTO 22004KT 10SM OVC006 09/08 A3037 RMK AO2 SLP305 T00940078=
201906081510 SPECI KPWT 081510Z AUTO 22004KT 10SM BKN008 OVC011 09/08 A3036 RMK AO2 CIG 006V010=
201906081456 METAR KPWT 081456Z AUTO 20005KT 10SM OVC010 09/08 A3036 RMK AO2 CIG 007V013 SLP300 T00940078 51017=
201906081356 METAR KPWT 081356Z AUTO 00000KT 10SM OVC012 09/08 A3035 RMK AO2 SLP296 T00940078=
201906081316 SPECI KPWT 081316Z AUTO 00000KT 10SM OVC010 09/08 A3033 RMK AO2=
201906081256 METAR KPWT 081256Z AUTO 24003KT 10SM OVC008 09/08 A3033 RMK AO2 SLP290 T00890078=
201906081156 METAR KPWT 081156Z AUTO 22003KT 10SM OVC006 09/08 A3031 RMK AO2 CIG 004V010 SLP283 7//// T00890078 10100 20089 51014=
201906081056 METAR KPWT 081056Z AUTO 18004KT 10SM OVC006 09/08 A3029 RMK AO2 SLP277 T00890078=
201906081026 SPECI KPWT 081026Z AUTO 00000KT 10SM BKN006 OVC010 09/08 A3029 RMK AO2 CIG 004V008=
201906081013 SPECI KPWT 081013Z AUTO 00000KT 10SM OVC010 09/08 A3029 RMK AO2=
201906080956 METAR KPWT 080956Z AUTO 15003KT 10SM OVC008 09/08 A3028 RMK AO2 SLP273 T00940083=
201906080856 METAR KPWT 080856Z AUTO 15003KT 10SM OVC008 09/08 A3027 RMK AO2 SLP268 T00940083 53011=
201906080756 METAR KPWT 080756Z AUTO 20003KT 10SM OVC006 09/09 A3025 RMK AO2 SLP262 T00940089 401560056=
201906080656 METAR KPWT 080656Z AUTO 21006KT 10SM OVC008 10/09 A3023 RMK AO2 SLP256 T01000089=
201906080556 METAR KPWT 080556Z AUTO 17004KT 10SM OVC010 10/09 A3022 RMK AO2 CIG 007V013 SLP252 6//// T01000089 10111 20078 51014=
201906080517 SPECI KPWT 080517Z AUTO 12003KT 10SM BKN012 OVC060 09/08 A3021 RMK AO2=
201906080456 METAR KPWT 080456Z AUTO 13003KT 10SM OVC055 08/08 A3020 RMK AO2 SLP247 T00830083=
201906080453 SPECI KPWT 080453Z AUTO 00000KT 10SM OVC055 08/07 A3020 RMK AO2=
201906080446 SPECI KPWT 080446Z AUTO 00000KT 2 1/2SM BR BKN055 08/08 A3020 RMK AO2=
201906080443 SPECI KPWT 080443Z AUTO 00000KT 1SM BR BKN055 08/08 A3020 RMK AO2=
201906080436 SPECI KPWT 080436Z AUTO 00000KT 1/2SM FG BKN055 08/08 A3019 RMK AO2 VIS 1/4V5=
201906080433 SPECI KPWT 080433Z AUTO 00000KT 1SM BR BKN055 08/08 A3019 RMK AO2 VIS 1/4V5=
201906080356 METAR KPWT 080356Z AUTO 00000KT 10SM BKN060 10/09 A3018 RMK AO2 SLP239 T01000089=
201906080256 METAR KPWT 080256Z AUTO 00000KT 10SM SCT060 11/08 A3017 RMK AO2 RAE17 SLP235 P0000 60004 T01060083 53014=
201906080156 METAR KPWT 080156Z AUTO 32004KT 10SM -RA SCT055 10/09 A3016 RMK AO2 SLP232 P0000 T01000089=
201906080056 METAR KPWT 080056Z AUTO 15004KT 10SM -RA BKN060 09/08 A3013 RMK AO2 SLP222 P0004 T00940083=
201906080013 SPECI KPWT 080013Z AUTO 09003KT 10SM -RA FEW024 SCT029 OVC049 10/08 A3013 RMK AO2 P0003=
201906080003 SPECI KPWT 080003Z AUTO 08003KT 4SM RA FEW021 BKN027 OVC039 10/07 A3012 RMK AO2 P0002=
201906072356 METAR KPWT 072356Z AUTO VRB03KT 8SM RA FEW021 SCT026 OVC034 11/07 A3012 RMK AO2 RAB42 SLP220 P0002 60002 T01060072 10156 20106 53018=
201906072256 METAR KPWT 072256Z AUTO 21012G18KT 10SM FEW032 15/07 A3009 RMK AO2 SLP208 T01500067=
201906072156 METAR KPWT 072156Z AUTO 24016G21KT 10SM FEW027 14/06 A3007 RMK AO2 SLP203 T01390061=
201906072056 METAR KPWT 072056Z AUTO 23016KT 10SM CLR 14/07 A3007 RMK AO2 SLP202 60000 T01390067 53002=
201906071956 METAR KPWT 071956Z AUTO 22015G21KT 10SM FEW060 14/07 A3006 RMK AO2 LTG DSNT SE RAB03E15 SLP197 P0000 T01440067=
201906071856 METAR KPWT 071856Z AUTO 23005KT 10SM FEW045 BKN055 15/06 A3006 RMK AO2 RAB37E50 SLP197 P0000 T01500061=
201906071756 METAR KPWT 071756Z AUTO VRB05KT 10SM FEW036 14/06 A3006 RMK AO2 SLP199 T01440061 10144 20056 50003=
201906071738 SPECI KPWT 071738Z AUTO 24007KT 10SM SCT029 BKN036 13/06 A3006 RMK AO2=
201906071712 SPECI KPWT 071712Z AUTO 23006KT 10SM BKN027 BKN034 14/07 A3007 RMK AO2=
201906071656 METAR KPWT 071656Z AUTO 25009KT 10SM SCT026 BKN080 14/07 A3007 RMK AO2 SLP200 T01390067=
201906071556 METAR KPWT 071556Z AUTO 23004KT 10SM FEW013 BKN038 BKN075 12/08 A3007 RMK AO2 SLP201 T01170078=
201906071525 SPECI KPWT 071525Z AUTO 24004KT 10SM FEW009 BKN038 10/07 A3006 RMK AO2=
201906071456 METAR KPWT 071456Z AUTO VRB05KT 10SM OVC007 10/08 A3006 RMK AO2 SLP197 T01000078 51009=
201906071420 SPECI KPWT 071420Z AUTO 00000KT 10SM BKN005 08/07 A3006 RMK AO2=
201906071405 SPECI KPWT 071405Z AUTO 18003KT 10SM FEW005 09/08 A3005 RMK AO2=
201906071356 METAR KPWT 071356Z AUTO 21004KT 10SM FEW031 08/08 A3005 RMK AO2 SLP195 T00830078=
201906071303 SPECI KPWT 071303Z AUTO 00000KT 10SM SCT028 07/06 A3004 RMK AO2=
201906071256 METAR KPWT 071256Z AUTO 00000KT 10SM BKN028 07/06 A3004 RMK AO2 SLP191 T00670061=
201906071243 SPECI KPWT 071243Z AUTO 00000KT 10SM BKN028 06/05 A3004 RMK AO2=
201906071233 SPECI KPWT 071233Z AUTO 18003KT 10SM SCT028 06/06 A3003 RMK AO2=
201906071218 SPECI KPWT 071218Z AUTO 14003KT 10SM SCT008 BKN028 06/05 A3003 RMK AO2=
201906071156 METAR KPWT 071156Z AUTO 00000KT 10SM OVC008 06/06 A3003 RMK AO2 SLP187 7//// T00610056 10089 20056 53012=
201906071142 SPECI KPWT 071142Z AUTO 00000KT 10SM OVC008 07/06 A3002 RMK AO2=
201906071056 METAR KPWT 071056Z AUTO 00000KT 10SM OVC010 06/06 A3001 RMK AO2 SLP182 T00610056=
201906071039 SPECI KPWT 071039Z AUTO 00000KT 10SM BKN010 07/06 A3001 RMK AO2=
201906071003 SPECI KPWT 071003Z AUTO 00000KT 10SM BKN008 BKN100 07/07 A3001 RMK AO2 CIG 005V010=
201906070956 METAR KPWT 070956Z AUTO 00000KT 10SM SCT008 BKN100 07/07 A3000 RMK AO2 SLP178 T00720067=
201906070932 SPECI KPWT 070932Z AUTO 23003KT 10SM FEW010 07/07 A3000 RMK AO2=
201906070914 SPECI KPWT 070914Z AUTO 21004KT 10SM BKN010 08/07 A2999 RMK AO2 CIG 005V013=
201906070856 METAR KPWT 070856Z AUTO 20005KT 10SM OVC006 08/07 A2999 RMK AO2 CIG 005V010 SLP174 T00830072 53002=
201906070828 SPECI KPWT 070828Z AUTO 19005KT 10SM BKN008 08/07 A2999 RMK AO2 CIG 006V010=
201906070756 METAR KPWT 070756Z AUTO 19005KT 10SM SCT010 08/07 A2999 RMK AO2 SLP174 T00830072 401780039=
201906070717 SPECI KPWT 070717Z AUTO 19006KT 10SM OVC010 08/07 A2999 RMK AO2=
201906070656 METAR KPWT 070656Z AUTO 20006KT 10SM OVC008 08/08 A2999 RMK AO2 SLP173 T00830078=
201906070556 METAR KPWT 070556Z AUTO 20009KT 10SM BKN008 09/08 A2999 RMK AO2 CIG 006V011 SLP174 60000 T00890078 10178 20089 53002=
201906070547 SPECI KPWT 070547Z AUTO 21008KT 10SM BKN008 09/08 A2999 RMK AO2 CIG 006V011=
201906070527 SPECI KPWT 070527Z AUTO 20008KT 10SM FEW008 09/08 A2999 RMK AO2=
201906070456 METAR KPWT 070456Z AUTO 20010KT 10SM CLR 09/07 A2998 RMK AO2 SLP173 T00890072=
201906070356 METAR KPWT 070356Z AUTO 20010KT 10SM CLR 10/07 A2998 RMK AO2 SLP169 T01000072=
201906070256 METAR KPWT 070256Z AUTO 23011KT 10SM FEW029 SCT046 SCT060 11/07 A2998 RMK AO2 PK WND 22026/0223 LTG DSNT NE RAB31E49 SLP172 P0000 60000 T01110072=
201906070156 METAR KPWT 070156Z AUTO 23015G21KT 10SM SCT065 SCT080 13/04 RMK AO2 SLPNO T01330044 $=
201906070056 METAR KPWT 070056Z AUTO 25011G19KT 220V280 10SM CLR 16/03 A2996 RMK AO2 SLP166 T01610028=
201906062356 METAR KPWT 062356Z AUTO 23013G23KT 10SM SCT055 17/04 A2995 RMK AO2 SLP161 6//// T01720044 10178 20133 56003=
201906062256 METAR KPWT 062256Z AUTO 23017G21KT 10SM FEW060 18/04 A2996 RMK AO2 SLP162 T01780039=
201906062156 METAR KPWT 062156Z AUTO 23018G24KT 10SM FEW090 17/05 A2996 RMK AO2 SLP163 T01720050=
201906062056 METAR KPWT 062056Z AUTO 22019G28KT 10SM FEW045 17/04 A2996 RMK AO2 PK WND 22028/2053 SLP164 T01670039 55006=
201906061956 METAR KPWT 061956Z AUTO 20010KT 150V230 10SM FEW047 SCT060 SCT085 17/05 A2996 RMK AO2 SLP162 T01670050=
201906061856 METAR KPWT 061856Z AUTO 19009KT 10SM SCT044 SCT060 16/06 A2997 RMK AO2 SLP168 T01560056=
201906061756 METAR KPWT 061756Z AUTO 00000KT 10SM BKN040 OVC050 13/04 A2998 RMK AO2 SLP170 6//// T01330044 10139 20039 58006=
201906061656 METAR KPWT 061656Z AUTO VRB05KT 10SM FEW027 OVC048 13/06 A2999 RMK AO2 SLP174 T01280061=
201906061634 SPECI KPWT 061634Z AUTO 00000KT 10SM SCT019 BKN050 13/06 A2999 RMK AO2=
201906061556 METAR KPWT 061556Z AUTO VRB03KT 10SM BKN017 12/07 A2999 RMK AO2 SLP175 T01220067=
201906061456 METAR KPWT 061456Z AUTO VRB04KT 10SM CLR 10/07 A3000 RMK AO2 SLP176 6//// T01000072 56002=
201906061423 SPECI KPWT 061423Z AUTO 00000KT 10SM SCT013 08/07 A3000 RMK AO2=
201906061356 METAR KPWT 061356Z AUTO 24003KT 10SM OVC013 07/07 A3000 RMK AO2 SLP178 T00720067=
201906061321 SPECI KPWT 061321Z AUTO 00000KT 9SM BKN013 04/03 A3000 RMK AO2=
201906061256 METAR KPWT 061256Z AUTO 00000KT 10SM CLR 05/04 A3000 RMK AO2 SLP178 T00500044=
201906061208 SPECI KPWT 061208Z AUTO 00000KT 10SM SCT016 07/06 A3001 RMK AO2=
201906061156 METAR KPWT 061156Z AUTO 00000KT 10SM BKN014 07/06 A3000 RMK AO2 SLP179 6//// 7//// T00720061 10089 20050 56003=
201906061056 METAR KPWT 061056Z AUTO 00000KT 10SM OVC012 06/05 A3001 RMK AO2 SLP180 T00610050=
201906061037 SPECI KPWT 061037Z AUTO 00000KT 10SM BKN012 06/04 A3001 RMK AO2=
201906060956 METAR KPWT 060956Z AUTO 00000KT 10SM FEW012 06/06 A3001 RMK AO2 SLP180 T00610056=
201906060947 SPECI KPWT 060947Z AUTO 14003KT 10SM SCT012 06/06 A3001 RMK AO2=
201906060856 METAR KPWT 060856Z AUTO 00000KT 10SM BKN012 07/06 A3001 RMK AO2 SLP182 T00670056 50002=
201906060845 SPECI KPWT 060845Z AUTO 00000KT 10SM BKN012 07/06 A3001 RMK AO2=
201906060756 METAR KPWT 060756Z AUTO 00000KT 10SM CLR 06/05 A3001 RMK AO2 SLP182 T00610050 401780050=
201906060656 METAR KPWT 060656Z AUTO 19003KT 10SM CLR 08/07 A3001 RMK AO2 SLP179 T00830067=
201906060556 METAR KPWT 060556Z AUTO 21005KT 10SM CLR 09/07 A3001 RMK AO2 SLP179 T00940072 10178 20089 53010=
201906060456 METAR KPWT 060456Z AUTO 20010KT 10SM CLR 11/07 A2999 RMK AO2 SLP172 T01060072=
201906060356 METAR KPWT 060356Z AUTO 20012KT 10SM CLR 12/08 A2997 RMK AO2 SLP167 T01220078=
201906060256 METAR KPWT 060256Z AUTO 21012KT 10SM CLR 14/09 A2997 RMK AO2 SLP168 T01440089 56005=
201906060156 METAR KPWT 060156Z AUTO 23016G22KT 10SM CLR 16/10 A2997 RMK AO2 SLP168 T01610100=
201906060056 METAR KPWT 060056Z AUTO 22015G21KT 10SM FEW029 BKN070 17/11 A2998 RMK AO2 SLP168 T01720111=
201906060023 SPECI KPWT 060023Z AUTO 25013G19KT 10SM SCT021 SCT027 SCT065 17/11 A2998 RMK AO2=
201906060011 SPECI KPWT 060011Z AUTO 24012G18KT 10SM BKN021 BKN060 17/12 A2999 RMK AO2=
201906052356 METAR KPWT 052356Z AUTO 23011G16KT 10SM FEW021 BKN060 16/11 A2999 RMK AO2 RAB18E31 SLP174 P0000 60000 T01610111 10178 20139 58005=
201906052334 SPECI KPWT 052334Z AUTO 20013KT 10SM SCT025 SCT044 OVC060 16/12 A3000 RMK AO2 RAB18E31 P0000=
201906052319 SPECI KPWT 052319Z AUTO 22018KT 8SM -RA BKN025 OVC060 16/11 A3000 RMK AO2 RAB18 P0000=
201906052256 METAR KPWT 052256Z AUTO 23015G21KT 10SM FEW025 SCT031 OVC060 17/11 A3000 RMK AO2 SLP177 T01670106=
201906052249 SPECI KPWT 052249Z AUTO 23016G21KT 10SM SCT025 SCT031 BKN060 17/11 A3000 RMK AO2=
201906052156 METAR KPWT 052156Z AUTO 20010KT 10SM OVC025 16/10 A3000 RMK AO2 SLP178 T01610100=
201906052056 METAR KPWT 052056Z AUTO 22011G16KT 10SM BKN025 BKN055 16/10 A3000 RMK AO2 SLP178 T01560100 58002=
201906052046 SPECI KPWT 052046Z AUTO 22012KT 10SM BKN025 BKN040 BKN055 16/10 A3001 RMK AO2=
201906051956 METAR KPWT 051956Z AUTO 20010G17KT 10SM CLR 16/09 A3001 RMK AO2 SLP180 T01560089=
201906051856 METAR KPWT 051856Z AUTO 19010KT 10SM FEW060 14/08 A3001 RMK AO2 SLP180 T01440078=
201906051756 METAR KPWT 051756Z AUTO 20008KT 10SM CLR 14/07 A3001 RMK AO2 SLP180 T01390072 10144 20078 58005=
201906051656 METAR KPWT 051656Z AUTO 20009KT 10SM FEW029 14/07 A3002 RMK AO2 SLP182 T01440072=
201906051604 SPECI KPWT 051604Z AUTO 21007KT 10SM FEW022 BKN031 12/07 A3003 RMK AO2=
201906051556 METAR KPWT 051556Z AUTO 21009KT 10SM BKN022 BKN033 12/07 A3003 RMK AO2 SLP185 T01220067=
201906051530 SPECI KPWT 051530Z AUTO 20011G19KT 10SM BKN024 BKN029 OVC050 12/07 A3003 RMK AO2=
201906051456 METAR KPWT 051456Z AUTO 22012G16KT 10SM BKN055 12/06 A3002 RMK AO2 SLP183 T01170056 55003=
201906051356 METAR KPWT 051356Z AUTO 20005KT 10SM FEW070 SCT080 10/07 A3002 RMK AO2 SLP182 T01000067=
201906051256 METAR KPWT 051256Z AUTO 20004KT 10SM OVC070 09/07 A3002 RMK AO2 SLP183 T00890067=
201906051156 METAR KPWT 051156Z AUTO 20005KT 10SM OVC085 08/06 A3003 RMK AO2 SLP186 T00780061 10111 20050 58005=
201906051056 METAR KPWT 051056Z AUTO 23003KT 10SM CLR 07/05 A3004 RMK AO2 SLP190 T00670050=
201906050956 METAR KPWT 050956Z AUTO 00000KT 10SM CLR 08/05 A3004 RMK AO2 SLP191 T00780050=
201906050856 METAR KPWT 050856Z AUTO 00000KT 10SM FEW050 09/06 A3005 RMK AO2 SLP191 T00940056 58005=
201906050756 METAR KPWT 050756Z AUTO 00000KT 10SM SCT055 11/06 A3005 RMK AO2 SLP194 T01110056 402170044=
201906050656 METAR KPWT 050656Z AUTO 00000KT 10SM OVC060 11/06 A3006 RMK AO2 SLP197 T01060061=
201906050556 METAR KPWT 050556Z AUTO 00000KT 10SM FEW070 11/06 A3006 RMK AO2 SLP198 T01060061 10217 20106 53001=
201906050456 METAR KPWT 050456Z AUTO 00000KT 10SM CLR 11/05 A3006 RMK AO2 SLP199 T01110050=
201906050356 METAR KPWT 050356Z AUTO 21006KT 10SM FEW075 SCT100 15/03 A3005 RMK AO2 SLP193 T01500033=
201906050256 METAR KPWT 050256Z AUTO 25007KT 10SM CLR 18/03 A3006 RMK AO2 SLP195 T01830028 56011=
201906050156 METAR KPWT 050156Z AUTO 25012G17KT 10SM CLR 21/06 A3006 RMK AO2 SLP197 T02060056=
201906050056 METAR KPWT 050056Z AUTO 21006KT 10SM CLR 21/06 A3007 RMK AO2 SLP201 T02110056=
201906042356 METAR KPWT 042356Z AUTO 19007KT 160V230 10SM CLR 21/06 A3009 RMK AO2 SLP208 T02110061 10211 20144 56018=
201906042256 METAR KPWT 042256Z AUTO 24008KT 10SM CLR 21/07 A3011 RMK AO2 SLP214 T02110072=
201906042156 METAR KPWT 042156Z AUTO VRB04KT 10SM CLR 20/09 A3013 RMK AO2 SLP220 T02000089=
201906042056 METAR KPWT 042056Z AUTO 23007KT 10SM CLR 19/08 A3015 RMK AO2 SLP227 T01890083 58013=
201906041956 METAR KPWT 041956Z AUTO 00000KT 10SM SCT036 17/08 A3017 RMK AO2 SLP234 T01720083=
201906041856 METAR KPWT 041856Z AUTO 16005KT 10SM BKN034 16/08 A3018 RMK AO2 SLP237 T01610078=
201906041756 METAR KPWT 041756Z AUTO 00000KT 10SM BKN030 OVC035 15/07 A3019 RMK AO2 SLP239 T01500072 10150 20050 58002=
201906041656 METAR KPWT 041656Z AUTO VRB03KT 10SM SCT028 14/07 A3019 RMK AO2 SLP239 T01390067=
201906041616 SPECI KPWT 041616Z AUTO VRB03KT 10SM SCT024 14/06 A3019 RMK AO2=
201906041605 SPECI KPWT 041605Z AUTO VRB03KT 10SM BKN024 13/07 A3019 RMK AO2=
201906041556 METAR KPWT 041556Z AUTO 00000KT 10SM SCT022 13/07 A3019 RMK AO2 SLP242 T01330067=
201906041456 METAR KPWT 041456Z AUTO 13004KT 10SM CLR 12/07 A3019 RMK AO2 SLP241 T01170072 51008=
201906041356 METAR KPWT 041356Z AUTO 00000KT 10SM OVC037 09/07 A3019 RMK AO2 SLP239 T00940072=
201906041256 METAR KPWT 041256Z AUTO 00000KT 10SM OVC037 07/06 A3018 RMK AO2 SLP238 T00670061=
201906041156 METAR KPWT 041156Z AUTO 00000KT 10SM SCT037 05/04 A3017 RMK AO2 SLP234 7//// T00500044 10117 20044 51005=
201906041056 METAR KPWT 041056Z AUTO 00000KT 5SM BR CLR 05/04 A3017 RMK AO2 SLP234 T00500039=
201906040956 METAR KPWT 040956Z AUTO 00000KT 10SM CLR 06/05 A3016 RMK AO2 SLP230 T00610050=
201906040856 METAR KPWT 040856Z AUTO 00000KT 10SM FEW050 07/06 A3015 RMK AO2 SLP229 T00670056 53006=
201906040756 METAR KPWT 040756Z AUTO 00000KT 10SM BKN050 08/06 A3014 RMK AO2 SLP225 T00830061 402000078=
201906040656 METAR KPWT 040656Z AUTO 00000KT 10SM CLR 09/07 A3014 RMK AO2 SLP225 T00940072=
201906040556 METAR KPWT 040556Z AUTO 11003KT 10SM CLR 12/07 A3014 RMK AO2 SLP223 6//// T01170072 10194 20111 53012=
201906040456 METAR KPWT 040456Z AUTO 05006KT 10SM CLR 13/07 A3012 RMK AO2 SLP218 T01330072=
201906040356 METAR KPWT 040356Z AUTO 06006KT 10SM OVC055 15/08 A3010 RMK AO2 SLP212 T01500083=
201906040256 METAR KPWT 040256Z AUTO 03005KT 10SM OVC048 16/09 A3010 RMK AO2 SLP210 T01610089 56004=
201906040156 METAR KPWT 040156Z AUTO 05006KT 10SM BKN050 18/09 A3010 RMK AO2 SLP210 T01780089=
201906040056 METAR KPWT 040056Z AUTO 04007KT 10SM BKN046 18/08 A3011 RMK AO2 SLP213 T01780083=
201906032356 METAR KPWT 032356Z AUTO 07006KT 10SM FEW046 19/09 A3011 RMK AO2 SLP213 T01940089 10200 20128 58009=
201906032256 METAR KPWT 032256Z AUTO VRB04KT 10SM OVC043 18/09 A3013 RMK AO2 SLP218 T01830089=
201906032156 METAR KPWT 032156Z AUTO 02005KT 10SM OVC041 18/09 A3013 RMK AO2 SLP221 T01780089=
201906032056 METAR KPWT 032056Z AUTO 01007KT 10SM OVC041 18/08 A3014 RMK AO2 SLP224 T01780083 58001=
201906031956 METAR KPWT 031956Z AUTO 00000KT 10SM SCT031 16/08 A3015 RMK AO2 SLP228 T01560083=
201906031931 SPECI KPWT 031931Z AUTO 03004KT 10SM FEW024 OVC031 15/09 A3015 RMK AO2=
201906031856 METAR KPWT 031856Z AUTO 02003KT 10SM BKN025 OVC029 14/08 A3015 RMK AO2 SLP229 T01440083=
201906031756 METAR KPWT 031756Z AUTO 00000KT 10SM OVC021 13/08 A3014 RMK AO2 SLP225 T01330083 10133 20106 51013=
201906031656 METAR KPWT 031656Z AUTO 00000KT 10SM OVC018 12/08 A3013 RMK AO2 SLP220 T01170083=
201906031556 METAR KPWT 031556Z AUTO 15004KT 10SM OVC010 11/08 A3012 RMK AO2 SLP217 T01110083=
201906031456 METAR KPWT 031456Z AUTO 13003KT 10SM OVC010 11/08 A3010 RMK AO2 SLP211 T01060083 53019=
201906031428 SPECI KPWT 031428Z AUTO 08003KT 10SM OVC012 11/09 A3009 RMK AO2=
201906031356 METAR KPWT 031356Z AUTO 00000KT 10SM OVC008 11/09 A3009 RMK AO2 SLP205 T01060089=
201906031256 METAR KPWT 031256Z AUTO 00000KT 10SM OVC008 11/09 A3006 RMK AO2 SLP195 T01060089=
201906031214 SPECI KPWT 031214Z AUTO 00000KT 10SM OVC008 11/09 A3005 RMK AO2=
201906031156 METAR KPWT 031156Z AUTO 20003KT 10SM OVC010 11/09 A3005 RMK AO2 SLP190 7//// T01060089 10117 20100 51015=
201906031056 METAR KPWT 031056Z AUTO VRB03KT 10SM OVC010 11/09 A3003 RMK AO2 SLP185 T01060089=
201906030956 METAR KPWT 030956Z AUTO 00000KT 10SM OVC010 11/09 A3002 RMK AO2 SLP181 T01060089=
201906030929 SPECI KPWT 030929Z AUTO 00000KT 10SM BKN010 BKN040 OVC070 10/08 A3001 RMK AO2=
201906030856 METAR KPWT 030856Z AUTO 20003KT 10SM FEW040 BKN070 10/08 A3000 RMK AO2 SLP175 T01000083 51012=
201906030756 METAR KPWT 030756Z AUTO 19003KT 10SM SCT070 10/08 A2999 RMK AO2 SLP172 T01000083 402330072=
201906030656 METAR KPWT 030656Z AUTO 17004KT 10SM SCT046 11/08 A2998 RMK AO2 SLP167 T01110083=
201906030556 METAR KPWT 030556Z AUTO 19004KT 10SM CLR 12/08 A2997 RMK AO2 SLP164 T01170083 10217 20117 53017=
201906030456 METAR KPWT 030456Z AUTO 16003KT 10SM CLR 14/09 A2995 RMK AO2 SLP157 T01390089=
201906030356 METAR KPWT 030356Z AUTO 20005KT 10SM CLR 14/09 A2993 RMK AO2 SLP151 T01440089=
201906030256 METAR KPWT 030256Z AUTO 19007KT 10SM CLR 17/09 A2992 RMK AO2 SLP147 T01720089 53006=
201906030156 METAR KPWT 030156Z AUTO 21007KT 10SM CLR 19/09 A2990 RMK AO2 SLP143 T01940094=
201906030056 METAR KPWT 030056Z AUTO 21009KT 10SM CLR 22/09 A2990 RMK AO2 SLP142 T02170094=
201906022356 METAR KPWT 022356Z AUTO 22011KT 10SM CLR 22/12 A2990 RMK AO2 SLP140 T02170122 10233 20183 56007=
201906022256 METAR KPWT 022256Z AUTO 25010G17KT 10SM CLR 22/13 A2990 RMK AO2 SLP141 T02220133=
201906022156 METAR KPWT 022156Z AUTO 21010G16KT 10SM CLR 22/14 A2991 RMK AO2 SLP145 T02220139=
201906022056 METAR KPWT 022056Z AUTO 19007KT 10SM CLR 21/13 A2992 RMK AO2 SLP147 T02110133 56005=
201906021956 METAR KPWT 021956Z AUTO 24010G14KT 10SM CLR 21/13 A2993 RMK AO2 SLP148 T02060128=
201906021856 METAR KPWT 021856Z AUTO 23006KT 10SM CLR 19/12 A2993 RMK AO2 SLP149 T01940122=
201906021756 METAR KPWT 021756Z AUTO VRB05KT 10SM CLR 18/12 A2993 RMK AO2 SLP152 6//// T01780122 10183 20072 58006=
201906021656 METAR KPWT 021656Z AUTO 23005KT 10SM CLR 17/12 A2994 RMK AO2 SLP153 T01670117=
201906021606 SPECI KPWT 021606Z AUTO VRB04KT 10SM SCT004 13/11 A2995 RMK AO2=
201906021556 METAR KPWT 021556Z AUTO 19004KT 10SM BKN004 13/11 A2995 RMK AO2 SLP158 T01280111=
201906021530 SPECI KPWT 021530Z AUTO 21005KT 10SM OVC004 13/12 A2995 RMK AO2=
201906021456 METAR KPWT 021456Z AUTO 20004KT 7SM OVC002 11/11 A2995 RMK AO2 SLP158 6//// T01110111 51006=
201906021452 SPECI KPWT 021452Z AUTO 24004KT 4SM BR OVC002 11/11 A2995 RMK AO2=
201906021446 SPECI KPWT 021446Z AUTO 24005KT 1 1/4SM BR OVC002 11/11 A2995 RMK AO2 VIS 1/4V3=
201906021443 SPECI KPWT 021443Z AUTO 25003KT 3/4SM BR OVC002 11/11 A2995 RMK AO2 VIS 1/4V3=
201906021356 METAR KPWT 021356Z AUTO 22003KT M1/4SM FG OVC002 10/10 A2995 RMK AO2 SLP157 T01000100=
201906021256 METAR KPWT 021256Z AUTO 00000KT 1/4SM FG OVC002 09/09 A2995 RMK AO2 SLP156 T00940089=
201906021247 SPECI KPWT 021247Z AUTO 20003KT 1/2SM FG BKN002 08/08 A2994 RMK AO2=
201906021240 SPECI KPWT 021240Z AUTO 21003KT 3/4SM BR BKN002 08/08 A2994 RMK AO2=
201906021231 SPECI KPWT 021231Z AUTO 00000KT 1/2SM FG VV002 08/08 A2994 RMK AO2=
201906021220 SPECI KPWT 021220Z AUTO 00000KT 1/2SM FG CLR 07/07 A2994 RMK AO2=
201906021213 SPECI KPWT 021213Z AUTO 00000KT 3/4SM BR CLR 08/08 A2994 RMK AO2=
201906021201 SPECI KPWT 021201Z AUTO 00000KT 1 1/2SM BR CLR 08/07 A2993 RMK AO2 VIS 1/2V5=
201906021156 METAR KPWT 021156Z AUTO 00000KT 8SM CLR 08/08 A2993 RMK AO2 SLP151 T00830078 10139 20083 58005=
201906021056 METAR KPWT 021056Z AUTO 00000KT 4SM BR CLR 09/08 A2994 RMK AO2 SLP155 T00890083=
201906020956 METAR KPWT 020956Z AUTO 00000KT 3SM BR CLR 08/08 A2995 RMK AO2 SLP157 T00830078=
201906020856 METAR KPWT 020856Z AUTO 00000KT 10SM CLR 10/09 A2995 RMK AO2 SLP158 T01000094 58004=
201906020756 METAR KPWT 020756Z AUTO 00000KT 10SM CLR 12/11 A2995 RMK AO2 SLP159 T01220106 402500089=
201906020656 METAR KPWT 020656Z AUTO 00000KT 10SM CLR 12/11 A2996 RMK AO2 SLP161 T01220106=
201906020556 METAR KPWT 020556Z AUTO 00000KT 10SM CLR 13/12 A2996 RMK AO2 SLP163 T01330117 10244 20128 50007=
201906020456 METAR KPWT 020456Z AUTO 00000KT 10SM CLR 16/12 A2996 RMK AO2 SLP163 T01610122=
201906020356 METAR KPWT 020356Z AUTO 06005KT 10SM CLR 18/13 A2995 RMK AO2 SLP157 T01780128=
201906020256 METAR KPWT 020256Z AUTO 06007KT 10SM CLR 21/12 A2994 RMK AO2 SLP154 T02060122 56008=
201906020156 METAR KPWT 020156Z AUTO 05008KT 10SM CLR 22/13 A2995 RMK AO2 SLP155 T02170128=
201906020056 METAR KPWT 020056Z AUTO 05010KT 10SM CLR 22/13 A2995 RMK AO2 SLP158 T02220128=
201906012356 METAR KPWT 012356Z AUTO 00000KT 10SM CLR 24/11 A2996 RMK AO2 SLP161 T02440111 10250 20128 56017=
201906012256 METAR KPWT 012256Z AUTO 00000KT 10SM CLR 23/12 A2998 RMK AO2 SLP167 T02280117=
201906012156 METAR KPWT 012156Z AUTO VRB03KT 10SM CLR 23/13 A3000 RMK AO2 SLP172 T02280133=
201906012056 METAR KPWT 012056Z AUTO VRB03KT 10SM CLR 21/13 A3002 RMK AO2 SLP179 T02110128 58012=
201906011956 METAR KPWT 011956Z AUTO 00000KT 10SM CLR 18/13 A3003 RMK AO2 SLP186 T01830128=
201906011916 SPECI KPWT 011916Z AUTO 23004KT 10SM FEW012 17/12 A3005 RMK AO2=
201906011856 METAR KPWT 011856Z AUTO VRB03KT 10SM BKN010 15/12 A3005 RMK AO2 SLP193 T01500117=
201906011854 SPECI KPWT 011854Z AUTO 09004KT 10SM OVC010 15/12 A3005 RMK AO2 CIG 008V012=
201906011756 METAR KPWT 011756Z AUTO VRB04KT 10SM OVC006 13/11 A3006 RMK AO2 SLP198 60000 T01280111 10128 20100 58000=
201906011724 SPECI KPWT 011724Z AUTO 21005KT 10SM OVC004 12/11 A3006 RMK AO2=
201906011656 METAR KPWT 011656Z AUTO 00000KT 10SM OVC002 12/11 A3007 RMK AO2 SLP199 T01220111=
201906011556 METAR KPWT 011556Z AUTO 00000KT 5SM BR OVC002 11/11 A3007 RMK AO2 SLP199 T01110111=
201906011551 SPECI KPWT 011551Z AUTO 21003KT 3SM BR OVC002 11/11 A3007 RMK AO2=
201906011547 SPECI KPWT 011547Z AUTO 22003KT 1 1/4SM BR OVC002 11/11 A3007 RMK AO2=
201906011535 SPECI KPWT 011535Z AUTO 00000KT 3/4SM BR OVC002 11/11 A3007 RMK AO2 VIS 1/4V2=
201906011529 SPECI KPWT 011529Z AUTO 00000KT 1 1/4SM BR OVC002 11/11 A3007 RMK AO2 VIS 1/2V3=
201906011526 SPECI KPWT 011526Z AUTO 00000KT 3/4SM BR OVC002 11/11 A3007 RMK AO2=
201906011521 SPECI KPWT 011521Z AUTO 00000KT 1/4SM FG OVC002 11/11 A3007 RMK AO2=
201906011511 SPECI KPWT 011511Z AUTO 00000KT 1/2SM FG OVC002 11/11 A3006 RMK AO2=
201906011456 METAR KPWT 011456Z AUTO 28003KT 1/4SM FG OVC002 11/11 A3006 RMK AO2 SLP196 60000 T01110106 53008=
201906011356 METAR KPWT 011356Z AUTO 00000KT 1/4SM FG OVC002 11/11 A3005 RMK AO2 RAB16E42 SLP192 P0000 T01060106=
201906011256 METAR KPWT 011256Z AUTO 21004KT 1/4SM FG OVC002 11/10 A3005 RMK AO2 SLP189 T01060100=
201906011225 SPECI KPWT 011225Z AUTO 22003KT 1/4SM FG OVC002 10/10 A3005 RMK AO2=
201906011214 SPECI KPWT 011214Z AUTO 20003KT 1/2SM FG OVC002 10/10 A3004 RMK AO2=
201906011210 SPECI KPWT 011210Z AUTO 00000KT 3/4SM BR OVC004 10/10 A3004 RMK AO2=
201906011156 METAR KPWT 011156Z AUTO 21004KT 1 1/4SM BR OVC004 10/09 A3004 RMK AO2 SLP187 T01000094 10144 20089 53001=
201906011151 SPECI KPWT 011151Z AUTO 21004KT 1 3/4SM BR OVC004 10/10 A3004 RMK AO2=
201906011146 SPECI KPWT 011146Z AUTO 21003KT 3SM BR OVC004 10/10 A3004 RMK AO2=
201906011117 SPECI KPWT 011117Z AUTO 00000KT 1 3/4SM BR BKN004 10/10 A3004 RMK AO2 CIG 002V006=
201906011115 SPECI KPWT 011115Z AUTO 00000KT 3SM BR BKN004 09/09 A3004 RMK AO2 CIG 002V006=
201906011105 SPECI KPWT 011105Z AUTO 18003KT 10SM SCT006 09/09 A3004 RMK AO2=
201906011056 METAR KPWT 011056Z AUTO 14003KT 10SM CLR 09/09 A3004 RMK AO2 SLP186 T00940089=
201906011017 SPECI KPWT 011017Z AUTO 00000KT 3SM BR CLR 09/09 A3004 RMK AO2=
201906011008 SPECI KPWT 011008Z AUTO 00000KT 1 1/2SM BR CLR 09/08 A3004 RMK AO2 VIS 1/2V5=
201906010956 METAR KPWT 010956Z AUTO 00000KT 7SM CLR 10/09 A3004 RMK AO2 SLP186 T01000094=
201906010856 METAR KPWT 010856Z AUTO 21004KT 10SM CLR 11/11 A3004 RMK AO2 SLP186 T01060106 50002=
201906010756 METAR KPWT 010756Z AUTO 21004KT 10SM CLR 12/11 A3004 RMK AO2 SLP186 T01220111 402610094=
201906010656 METAR KPWT 010656Z AUTO 22003KT 10SM CLR 13/12 A3004 RMK AO2 SLP187 T01330122=
201906010556 METAR KPWT 010556Z AUTO 00000KT 10SM CLR 14/13 A3003 RMK AO2 SLP186 T01440128 10244 20133 53010=
201906010456 METAR KPWT 010456Z AUTO 00000KT 10SM CLR 16/13 A3002 RMK AO2 SLP183 T01560128=
201906010356 METAR KPWT 010356Z AUTO 00000KT 10SM CLR 19/13 A3001 RMK AO2 SLP176 T01940133=
201906010256 METAR KPWT 010256Z AUTO 05006KT 10SM CLR 21/13 A3000 RMK AO2 SLP173 T02110133 55005=
201906010156 METAR KPWT 010156Z AUTO 05007KT 10SM CLR 23/14 A3000 RMK AO2 SLP172 T02280139=
201906010056 METAR KPWT 010056Z AUTO 04007KT 10SM CLR 24/14 A3000 RMK AO2 SLP174 T02390144=

# No short TAF reports from KPWT in databse.

###################################
#  large TAF from KPWT
###################################
201906302320 TAF KPWT 302320Z 0100/0124 35008KT P6SM FEW050 FM010600 VRB03KT
                       P6SM SKC FM012000 35008KT P6SM SCT040 SCT120=
201906301720 TAF KPWT 301720Z 3018/0118 04005KT P6SM SCT100 SCT200 FM302200
                       03008KT P6SM SCT050 SCT200 FM010400 04004KT
                       P6SM SCT200=
201906301159 TAF KPWT 301159Z 3012/0112 00000KT P6SM SKC FM302200 03008KT P6SM
                       SCT050 SCT200 FM010400 04004KT P6SM SCT200=
201906300520 TAF KPWT 300520Z 3006/0106 02007KT P6SM SCT200 FM301200 VRB03KT
                       P6SM SCT200 FM302200 03008KT P6SM SCT050
                       SCT200 FM010400 04004KT P6SM SCT200=
201906292320 TAF KPWT 292320Z 3000/3024 01008KT P6SM SCT050 SCT200
                      TEMPO 3000/3003 BKN050 FM300600 02007KT P6SM
                       SCT200 FM301200 VRB03KT P6SM SCT200 FM302200
                       36008KT P6SM SCT050 SCT200=
201906291720 TAF KPWT 291720Z 2918/3018 VRB04KT P6SM FEW040 SCT120 BKN200 FM292200
                       36007KT P6SM FEW060 SCT120 SCT200 FM300600
                       02005KT P6SM SCT200=
201906291501 KPWT 291501Z 2915/3012 00000KT P6SM BKN200 FM292000 02005KT P6SM
                       BKN200 FM300300 VRB03KT P6SM SCT250=
201906291136 TAF KPWT 291136Z 2912/3012 00000KT P6SM SKC FM291400 00000KT P6SM
                       BKN008 OVC015 FM291700 03004KT P6SM BKN015
                       OVC020 FM292000 02005KT P6SM BKN250 FM300300
                       VRB03KT P6SM SCT250=
201906291003 KPWT 291003Z 2910/3006 VRB03KT P6SM FEW070 BKN250 FM291200 VRB02KT
                       P6SM BKN008 OVC015 FM291700 03004KT P6SM
                       BKN015 OVC020 FM292000 02005KT P6SM BKN250
                       FM300300 VRB03KT P6SM SCT250=
201906290530 TAF KPWT 290530Z 2906/3006 VRB03KT P6SM SCT070 FM290900 VRB02KT
                       P6SM BKN008 OVC015 FM291700 03004KT P6SM
                       BKN015 OVC020 FM292000 02005KT P6SM BKN250
                       FM300300 VRB03KT P6SM SCT250=
201906282335 TAF KPWT 282335Z 2900/2924 22006KT P6SM BKN070 FM290300 VRB03KT
                       P6SM BKN070 FM290900 VRB02KT P6SM BKN008
                       OVC015 FM291700 17004KT P6SM BKN015 OVC020
                       FM292000 17005KT P6SM BKN250=
201906281735 TAF KPWT 281735Z 2818/2918 20005KT P6SM FEW025 BKN050 FM290000
                       22006KT P6SM BKN070 FM290300 VRB03KT P6SM
                       BKN070 FM290900 VRB02KT P6SM BKN008 OVC015
                       FM291700 17004KT P6SM BKN015 OVC020=
201906281307 KPWT 281307Z 2813/2912 19005KT P6SM BKN070
                      TEMPO 2813/2816 1SM BR OVC002 FM281700 20005KT
                       P6SM BKN050 FM290000 22006KT P6SM BKN070
                       FM290300 VRB04KT P6SM BKN070=
201906281138 TAF KPWT 281138Z 2812/2912 19005KT P6SM BKN070
                      TEMPO 2812/2816 BKN002 FM281700 20005KT P6SM
                       BKN050 FM290000 22006KT P6SM BKN070 FM290300
                       VRB04KT P6SM BKN070=
201906280534 TAF KPWT 280534Z 2806/2906 20008KT P6SM VCSH BKN090
                      TEMPO 2806/2808 -RA FM281000 19003KT P6SM
                       BKN030 FM281900 23006KT P6SM BKN050=
201906280327 KPWT 280327Z 2803/2824 23010KT P6SM VCSH SCT035 BKN060 FM281000
                       19003KT P6SM OVC025 FM281900 20006KT P6SM
                       OVC050=
201906272326 TAF KPWT 272326Z 2800/2824 20010G15KT P6SM VCSH SCT035 BKN060 FM281000
                       19003KT P6SM OVC025 FM281900 20006KT P6SM
                       OVC050=
201906271722 TAF KPWT 271722Z 2718/2818 20010KT P6SM SCT015 BKN025 FM272000
                       20007KT P6SM VCSH OVC050 FM280700 19003KT
                       P6SM OVC025=
201906271324 KPWT 271324Z 2713/2812 21007KT P6SM BKN070 BKN080
                      TEMPO 2713/2717 -SHRA BKN010 FM271800 19006KT
                       P6SM -SHRA OVC015 FM272000 20007KT P6SM
                       VCSH OVC050 FM280700 19003KT P6SM OVC025=
201906271133 TAF KPWT 271133Z 2712/2812 21007KT P6SM BKN030
                      TEMPO 2712/2716 -SHRA OVC005 FM271800 19006KT
                       P6SM OVC015 FM272000 20007KT P6SM VCSH OVC050
                       FM280700 19003KT P6SM OVC025=
201906270901 KPWT 270901Z 2709/2806 20006KT P6SM BKN030
                      TEMPO 2709/2713 OVC006 FM271300 20003KT P6SM
                       VCSH OVC015 FM271500 21006KT P6SM OVC025
                       FM271800 20005KT P6SM OVC050=
201906270536 TAF KPWT 270536Z 2706/2806 19003KT P6SM -SHRA BKN100 FM271000 20004KT
                       P6SM VCSH OVC050 FM271200 20003KT P6SM VCSH
                       OVC015 FM271500 21006KT P6SM OVC025 FM271800
                       20005KT P6SM OVC050=
201906270025 KPWT 270025Z 2700/2724 VRB06KT P6SM -SHRA BKN050 OVC090
                      TEMPO 2700/2702 12012G20KT -TSRA SCT040 BKN060CB
                       FM270400 18004KT P6SM -SHRA OVC040 FM271000
                       19007KT P6SM VCSH OVC015 FM272000 19010KT
                       P6SM -SHRA BKN035 OVC060=
201906262321 TAF KPWT 262321Z 2700/2724 VRB06KT P6SM -SHRA BKN050 OVC090 FM270400
                       18004KT P6SM -SHRA OVC040 FM271000 19007KT
                       P6SM VCSH OVC015 FM272000 19010KT P6SM -SHRA
                       BKN035 OVC060=
201906261737 TAF KPWT 261737Z 2618/2718 VRB04KT P6SM SCT030 BKN080 FM262000
                       VRB05KT P6SM VCSH BKN060 OVC100 FM262300
                       04005KT P6SM -SHRA BKN040 OVC070 FM270400
                       21004KT P6SM -SHRA OVC035 FM270800 17002KT
                       P6SM -SHRA OVC015=
201906261509 KPWT 261509Z 2615/2712 VRB04KT P6SM SCT020 SCT040 SCT060 FM262000
                       VRB05KT P6SM VCSH BKN060 OVC100 FM262300
                       04005KT P6SM -SHRA BKN050 OVC080 FM270100
                       21004KT P6SM -SHRA OVC050 FM270600 17002KT
                       P6SM -SHRA OVC015=
201906261312 KPWT 261312Z 2613/2712 VRB04KT P6SM SCT020 SCT050
                      TEMPO 2613/2616 OVC003 FM262000 VRB05KT P6SM
                       VCSH BKN060 OVC100 FM262300 04005KT P6SM
                       -SHRA BKN050 OVC080 FM270100 21004KT P6SM
                       -SHRA OVC050 FM270600 17002KT P6SM -SHRA
                       OVC015=
201906261139 TAF KPWT 261139Z 2612/2712 VRB04KT P6SM SCT020 SCT050
                      TEMPO 2612/2616 BKN005 OVC050 FM262000 20005KT
                       P6SM VCSH BKN060 OVC100 FM262300 20007KT
                       P6SM -SHRA BKN050 OVC080 FM270100 21004KT
                       P6SM -SHRA OVC050=
201906260537 TAF KPWT 260537Z 2606/2706 20005KT P6SM BKN070 OVC100 FM261200
                       VRB04KT P6SM SCT020 BKN050 OVC090 FM262000
                       20005KT P6SM VCSH BKN060 OVC100 FM262300
                       20007KT P6SM -SHRA BKN050 OVC080 FM270100
                       21004KT P6SM -SHRA OVC050=
201906252322 TAF KPWT 252322Z 2600/2624 VRB06KT P6SM VCSH SCT045 BKN070 BKN120
                       FM260400 19005KT P6SM BKN060 OVC100 FM261200
                       VRB04KT P6SM SCT020 BKN050 OVC090 FM262000
                       20005KT P6SM VCSH BKN060 OVC100 FM262300
                       20007KT P6SM -SHRA BKN050 OVC080=
201906251723 TAF KPWT 251723Z 2518/2618 VRB04KT P6SM SCT120 BKN200 FM252100
                       21007KT P6SM BKN120 OVC200 FM260400 19005KT
                       P6SM BKN090 OVC100 FM261200 19004KT P6SM
                       SCT020 BKN060 OVC100=
201906251130 TAF KPWT 251130Z 2512/2612 VRB03KT P6SM SCT200 FM251800 17004KT
                       P6SM SCT120 BKN200 FM252300 21007KT P6SM
                       BKN120 OVC200 FM260500 19004KT P6SM BKN050
                       OVC100=
201906250523 TAF KPWT 250523Z 2506/2606 VRB03KT P6SM SCT050 SCT200 FM251200
                       VRB03KT P6SM SCT005 SCT200 FM251700 20004KT
                       P6SM SCT120 BKN200 FM252300 21007KT P6SM
                       BKN120 OVC200 FM260400 19004KT P6SM BKN050
                       OVC100=
201906242320 TAF KPWT 242320Z 2500/2524 VRB05KT P6SM BKN045 BKN200 FM250600
                       VRB03KT P6SM SCT050 SCT200 FM251200 VRB03KT
                       P6SM SCT005 SCT200 FM251700 18004KT P6SM
                       SCT120 BKN200 FM252300 20007KT P6SM BKN120
                       OVC200=
201906241723 TAF KPWT 241723Z 2418/2518 VRB04KT P6SM BKN027 BKN040
                      TEMPO 2418/2421 SCT030 BKN050 FM242100 VRB05KT
                       P6SM BKN050 FM250000 03005KT P6SM SCT050
                       FM250700 00000KT P6SM SCT050 SCT200 FM251700
                       18004KT P6SM SCT120 BKN200=
201906241131 TAF KPWT 241131Z 2412/2512 07003KT P6SM VCSH BKN012 OVC020 FM241800
                       13004KT P6SM OVC030 FM242100 19007KT P6SM
                       BKN040 FM250000 03005KT P6SM SCT040 FM250700
                       00000KT P6SM SCT040 SCT250=
201906240523 TAF KPWT 240523Z 2406/2506 06008KT P6SM VCSH SCT025 OVC040
                      TEMPO 2406/2410 VRB04KT -RA BKN015 OVC020
                       FM241000 17006KT P6SM VCSH OVC012 FM241800
                       19005KT P6SM BKN020 FM242100 19007KT P6SM
                       BKN030 FM250000 24005KT P6SM SCT040=
201906232333 TAF KPWT 232333Z 2400/2424 04008KT P6SM VCSH BKN035 OVC050 FM240100
                       06007KT P6SM VCSH BKN040 FM240600 12005KT
                       P6SM VCSH OVC025 FM241100 VRB03KT P6SM OVC012
                       FM241900 23005KT P6SM BKN020 FM242100 23005KT
                       P6SM BKN030=
201906232149 KPWT 232149Z 2322/2418 20010KT P6SM BKN035 OVC050 FM240100 06007KT
                       P6SM VCSH BKN040 FM240600 12005KT P6SM VCSH
                       OVC025 FM241100 VRB03KT P6SM OVC012=
201906231736 TAF KPWT 231736Z 2318/2418 VRB05KT P6SM OVC015 FM232100 20010KT
                       P6SM OVC030 FM240100 06007KT P6SM VCSH BKN040
                       FM240600 12005KT P6SM VCSH OVC025 FM241100
                       VRB03KT P6SM OVC012=
201906231342 KPWT 231342Z 2314/2412 21004KT P6SM OVC010
                      TEMPO 2314/2316 -DZ FM231800 19007KT P6SM
                       OVC020 FM232100 20010KT P6SM OVC030 FM240100
                       20011KT P6SM VCSH BKN040 FM240600 14005KT
                       P6SM VCSH OVC025 FM241100 VRB03KT P6SM OVC012=
201906231131 TAF KPWT 231131Z 2312/2412 VRB04KT P6SM OVC008
                      TEMPO 2312/2316 -DZ FM231800 19007KT P6SM
                       OVC020 FM232100 20010KT P6SM OVC030 FM240100
                       20011KT P6SM VCSH BKN040 FM240600 14005KT
                       P6SM VCSH OVC025 FM241100 VRB03KT P6SM OVC012=
201906230530 TAF KPWT 230530Z 2306/2406 VRB05KT P6SM VCSH SCT025 OVC040 FM230900
                       VRB04KT P6SM VCSH OVC012 FM231800 20008KT
                       P6SM OVC022 FM232100 18010KT P6SM SCT030
                       BKN035 FM240000 18008KT P6SM BKN040=
201906222336 TAF KPWT 222336Z 2300/2324 VRB05KT P6SM SCT030 OVC040 FM230300
                       VRB05KT P6SM OVC020 FM230800 VRB04KT P6SM
                       -DZ OVC009 FM231500 16005KT P6SM OVC015
                       FM231800 22008KT P6SM OVC022 FM232100 23010KT
                       P6SM SCT030 BKN035=
201906222041 KPWT 222041Z 2221/2318 20009KT P6SM BKN015 BKN025 FM230300 11007KT
                       P6SM OVC020 FM230800 VRB04KT P6SM -DZ OVC009
                       FM231500 16005KT P6SM OVC015=
201906221739 TAF KPWT 221739Z 2218/2318 20007KT P6SM BKN010 BKN200 FM222000
                       20009KT P6SM SCT015 BKN025 FM222200 19009KT
                       P6SM BKN035 BKN200 FM230300 11007KT P6SM
                       OVC020 FM230800 VRB04KT P6SM -DZ OVC009
                       FM231500 16005KT P6SM OVC015=
201906221130 TAF KPWT 221130Z 2212/2312 20007KT P6SM OVC008 FM222000 20009KT
                       P6SM OVC018 FM222200 19009KT P6SM BKN035
                       FM230500 15007KT P6SM OVC020 FM230800 17006KT
                       P6SM -DZ OVC009=
201906220855 KPWT 220855Z 2209/2306 21005KT P6SM OVC008 FM222000 22009KT P6SM
                       BKN015 FM222200 24009KT P6SM BKN025 FM230000
                       20010KT P6SM SCT030=
201906220520 TAF KPWT 220520Z 2206/2306 23007KT P6SM FEW050 SCT250 FM220900
                       21006KT P6SM OVC012 FM222000 22009KT P6SM
                       BKN015 FM222200 24009KT P6SM BKN025 FM230000
                       20010KT P6SM SCT030=
201906212331 TAF KPWT 212331Z 2200/2224 18006KT P6SM SCT040 FM220800 20005KT
                       P6SM OVC015 FM222200 20008G14KT P6SM SCT025=
201906212004 KPWT 212004Z 2120/2218 20007KT P6SM OVC035 FM220100 22006KT P6SM
                       SCT050 FM220800 19004KT P6SM OVC015=
201906211738 TAF KPWT 211738Z 2118/2218 22009KT P6SM OVC016 FM211900 21005KT
                       P6SM BKN021 FM220100 22006KT P6SM SCT050
                       FM220800 19004KT P6SM OVC015=
201906211501 KPWT 211501Z 2115/2212 22005KT P6SM OVC008 FM212000 20007KT P6SM
                       BKN040 FM220200 20005KT P6SM SCT050 SCT100
                       FM220900 19004KT P6SM OVC015=
201906211339 KPWT 211339Z 2114/2212 20004KT P6SM OVC010 FM212000 20007KT P6SM
                       BKN040 FM220200 20005KT P6SM SCT050 SCT100
                       FM220900 19004KT P6SM OVC015=
201906211129 TAF KPWT 211129Z 2112/2212 20004KT P6SM OVC012 FM212000 20007KT
                       P6SM BKN040 FM220200 20005KT P6SM SCT050
                       SCT100 FM220900 19004KT P6SM OVC015=
201906210859 KPWT 210859Z 2109/2206 20005KT P6SM VCSH SCT015 BKN100 FM211100
                       18008KT P6SM BKN015 BKN070 FM211900 VRB04KT
                       P6SM SCT025 BKN050 FM212200 VRB04KT P6SM
                       SCT050 BKN120=
201906210520 TAF KPWT 210520Z 2106/2206 20010KT P6SM SCT070 BKN100 FM211000
                       18008KT P6SM BKN015 BKN070 FM211900 VRB04KT
                       P6SM SCT025 BKN050 FM212200 VRB04KT P6SM
                       SCT050 BKN120=
201906202323 TAF KPWT 202323Z 2100/2124 22008G15KT P6SM BKN045 OVC050 FM211000
                       20002KT P6SM OVC012 FM212000 19005KT P6SM
                       BKN045=
201906201735 TAF KPWT 201735Z 2018/2118 20005KT P6SM FEW022 BKN040 FM202100
                       20005KT P6SM BKN100 FM210900 19005KT P6SM
                       OVC050 FM211200 20002KT P6SM OVC007=
201906201607 KPWT 201607Z 2016/2112 15004KT P6SM VCSH SCT016 BKN120 FM201800
                       17003KT P6SM BKN050 FM202200 19009KT P6SM
                       BKN050 FM210900 VRB03KT P6SM SCT007 OVC015=
201906201338 KPWT 201338Z 2014/2112 VRB03KT P6SM VCSH OVC040
                      TEMPO 2014/2016 -SHRA BKN010 FM201600 VRB03KT
                       P6SM SCT007 BKN015 FM201800 17003KT P6SM
                       BKN020 FM202200 19009KT P6SM BKN050 FM210900
                       VRB03KT P6SM SCT007 OVC015=
201906201133 TAF KPWT 201133Z 2012/2112 03004KT P6SM VCSH FEW005 SCT015 BKN050
                       TEMPO 2012/2015 -SHRA BKN010 FM201500 00000KT
                       P6SM SCT007 BKN015 FM201800 17003KT P6SM
                       BKN020 FM202200 19009KT P6SM BKN050 FM210900
                       VRB03KT P6SM SCT007 OVC015=
201906200859 KPWT 200859Z 2009/2106 06005KT P6SM VCSH SCT040 BKN080 FM201300
                       00000KT P6SM OVC025 FM201800 17003KT P6SM
                       OVC050=
201906200524 TAF KPWT 200524Z 2006/2106 09004KT P6SM FEW040 FM201300 00000KT
                       P6SM OVC025 FM201800 17003KT P6SM OVC050=
201906192325 TAF KPWT 192325Z 2000/2024 07006KT P6SM FEW025 BKN060
                      TEMPO 2000/2004 -SHRA BKN025 OVC060 FM200600
                       13005KT P6SM OVC020 FM201200 VRB03KT P6SM
                       OVC013 FM201700 19003KT P6SM SCT015 BKN025
                       FM201900 21006KT P6SM SCT025 BKN060=
201906192057 KPWT 192057Z 1921/2018 06005KT P6SM SCT035 BKN070 FM200600 18006KT
                       P6SM OVC020 FM201200 VRB03KT P6SM BKN007
                       OVC015=
201906191722 TAF KPWT 191722Z 1918/2018 VRB03KT P6SM OVC015 FM192200 18012KT
                       P6SM SCT020 OVC050 FM200600 18006KT P6SM
                       OVC020 FM201200 VRB03KT P6SM BKN007 OVC015=
201906191140 TAF KPWT 191140Z 1912/2012 16006KT P6SM OVC015 FM191800 18010KT
                       P6SM OVC020 FM192200 18012KT P6SM SCT020
                       OVC035 FM200600 18012KT P6SM OVC020=
201906190538 TAF KPWT 190538Z 1906/2006 VRB05KT P6SM BKN020 OVC040 FM191000
                       16006KT P6SM OVC025 FM191600 18010KT P6SM
                       OVC020 FM192000 19012KT P6SM VCSH BKN030
                       OVC050 FM200000 29016KT P6SM BKN050=
201906182345 TAF KPWT 182345Z 1900/1924 04006KT P6SM SCT022 BKN035 BKN060 FM190900
                       18009KT P6SM OVC015 FM191600 18010KT P6SM
                       OVC020 FM192000 19012KT P6SM VCSH BKN030
                       OVC050=
201906181724 TAF KPWT 181724Z 1818/1918 19006KT 6SM -DZ BR OVC006
                      TEMPO 1818/1821 BKN015 OVC025 FM182100 18006KT
                       P6SM SCT022 BKN035 BKN060 FM190900 18009KT
                       P6SM OVC015 FM191600 18010KT P6SM OVC020=
201906181139 TAF KPWT 181139Z 1812/1912 VRB04KT P6SM OVC004
                      TEMPO 1814/1817 3SM -DZ FM181700 21006KT
                       P6SM OVC006 FM181900 21006KT P6SM BKN012
                       BKN030 FM182100 21006KT P6SM SCT025 BKN040
                       BKN060 FM190900 21006KT P6SM OVC015=
201906180908 KPWT 180908Z 1809/1906 VRB04KT P6SM OVC006
                      TEMPO 1813/1817 3SM -DZ FM181900 21006KT
                       P6SM OVC012 FM182100 21006KT P6SM SCT025
                       BKN040 BKN060=
201906180536 TAF KPWT 180536Z 1806/1906 20005KT P6SM SCT045 BKN200 FM180800
                       18005KT P6SM SCT025 OVC050 FM181200 VRB06KT
                       6SM -DZ BR OVC015 FM181800 21005KT P6SM
                       OVC025 FM182100 20006KT P6SM SCT025 OVC050
                       FM182300 04009KT P6SM SCT025 BKN050=
201906172329 TAF KPWT 172329Z 1800/1824 VRB05KT P6SM SCT020 SCT050 BKN200 FM180800
                       20008KT P6SM OVC010 FM181200 VRB06KT 6SM
                       -DZ BR OVC008 FM182000 19008KT P6SM OVC015
                       FM182300 04009KT P6SM SCT022 BKN050=
201906171721 TAF KPWT 171721Z 1718/1818 20005KT P6SM OVC006 FM172000 20009KT
                       P6SM BKN010 FM172200 20012KT P6SM SCT020
                       SCT050 BKN200 FM180900 20006KT P6SM OVC008
                       FM181300 VRB06KT 6SM -DZ BR OVC008=
201906171126 TAF KPWT 171126Z 1712/1812 23004KT P6SM OVC004 FM171600 VRB03KT
                       P6SM OVC008 FM171800 VRB03KT P6SM OVC012
                       FM172100 VRB03KT P6SM SCT050 BKN200 FM180900
                       20006KT P6SM OVC008=
201906170539 TAF KPWT 170539Z 1706/1806 VRB05KT P6SM SCT200 FM171200 VRB05KT
                       P6SM OVC025 FM171400 VRB03KT P6SM OVC010
                       FM172100 19006KT P6SM SCT020 SCT050 BKN200
                       FM180500 13006KT P6SM BKN025=
201906162320 TAF KPWT 162320Z 1700/1724 VRB06KT P6SM BKN200 FM170500 VRB05KT
                       P6SM SCT200 FM170900 17007KT P6SM OVC009
                       FM172100 19008KT P6SM SCT020 SCT050 BKN200=
201906161725 TAF KPWT 161725Z 1618/1718 VRB03KT P6SM BKN010
                      TEMPO 1618/1620 SCT012 FM162000 03006KT P6SM
                       SCT025 SCT200 FM170500 00000KT P6SM SCT200
                       FM170900 17007KT P6SM OVC008=
201906161135 TAF KPWT 161135Z 1612/1712 00000KT 2SM BR OVC003 FM161600 00000KT
                       P6SM BKN005 FM161800 VRB03KT P6SM SCT015
                       FM162100 05006KT P6SM SCT200 FM170500 00000KT
                       P6SM SCT200=
201906160538 TAF KPWT 160538Z 1606/1706 VRB04KT P6SM FEW250 FM161100 VRB05KT
                       6SM BR BKN005 FM161700 VRB05KT P6SM BKN025
                       FM162100 VRB06KT P6SM SCT250=
201906152327 TAF KPWT 152327Z 1600/1624 04006KT P6SM SCT040 FM160400 VRB04KT
                       P6SM SKC FM161100 17005KT 6SM BR BKN005
                       FM161700 VRB05KT P6SM SCT200=
201906151726 TAF KPWT 151726Z 1518/1618 VRB03KT P6SM OVC009
                      TEMPO 1518/1520 SCT011 FM152000 01006KT P6SM
                       FEW020 SCT040 FM160000 04007KT P6SM SKC
                       FM161100 17005KT 6SM BR BKN004 FM161700
                       VRB05KT P6SM SCT200=
201906151642 KPWT 151642Z 1517/1612 VRB03KT P6SM OVC008
                      TEMPO 1518/1520 SCT010 FM152000 01006KT P6SM
                       SKC=
201906151137 TAF KPWT 151137Z 1512/1612 00000KT P6SM BKN003 FM151600 00000KT
                       P6SM SCT010 FM151900 01006KT P6SM SKC=
201906150520 TAF KPWT 150520Z 1506/1606 VRB04KT P6SM FEW040 FM151200 VRB04KT
                       P6SM SCT025 BKN040
                      TEMPO 1512/1516 BKN025 BKN040 FM151800 36006KT
                       P6SM SCT040 FM160500 04006KT P6SM SKC=
201906142320 TAF KPWT 142320Z 1500/1524 21008KT P6SM OVC025 FM150500 VRB03KT
                       P6SM BKN025 FM151200 18003KT P6SM OVC020
                       FM152000 04007KT P6SM SCT030 FM152100 04008KT
                       P6SM FEW030 SCT120=
201906141720 TAF KPWT 141720Z 1418/1518 22008KT P6SM OVC012 FM142000 23007KT
                       P6SM BKN020 FM142200 25007KT P6SM SCT040
                       FM150500 35004KT P6SM SCT030 FM151200 35004KT
                       P6SM BKN015=
201906141127 TAF KPWT 141127Z 1412/1512 VRB03KT P6SM SCT015 BKN035
                      TEMPO 1412/1416 BKN010 OVC015 FM141900 21004KT
                       P6SM BKN030 FM142100 VRB04KT P6SM SCT040
                       FM150500 00000KT P6SM BKN050=
201906140520 TAF KPWT 140520Z 1406/1506 18006KT P6SM BKN035 FM140900 18006KT
                       P6SM SCT015 BKN035
                      TEMPO 1412/1416 BKN015 OVC030 FM141900 18006KT
                       P6SM BKN030 FM142100 18006KT P6SM SCT040
                       FM150300 VRB04KT P6SM SCT040=
201906132320 TAF KPWT 132320Z 1400/1424 20010KT P6SM BKN250 FM140300 20009KT
                       P6SM FEW250 FM140900 20008KT P6SM SCT008
                       FM141100 18006KT P6SM OVC005 FM142000 19005KT
                       P6SM SCT012 BKN018 FM142100 20007KT P6SM
                       SCT030=
201906131728 TAF KPWT 131728Z 1318/1418 22008KT P6SM BKN009 FM131900 22008KT
                       P6SM FEW015 FEW250 FM132000 22008KT P6SM
                       FEW250 FM132200 23010G18KT P6SM FEW250 FM140900
                       20008KT P6SM BKN008 FM141100 20006KT P6SM
                       OVC005=
201906131341 KPWT 131341Z 1314/1412 21005KT P6SM SCT250
                      TEMPO 1314/1316 OVC005 FM132000 21010G22KT
                       P6SM SCT250 FM140600 17006KT P6SM BKN050
                       FM140800 18005KT P6SM OVC025=
201906131130 TAF KPWT 131130Z 1312/1412 21005KT P6SM SCT250
                      TEMPO 1312/1315 BKN009 FM132000 21010G22KT
                       P6SM SCT250 FM140600 17006KT P6SM BKN050
                       FM140800 18005KT P6SM OVC025=
201906130526 TAF KPWT 130526Z 1306/1406 20005KT P6SM SCT150 SCT250 FM131200
                       19008KT P6SM SCT010 SCT250
                      TEMPO 1312/1315 BKN009 FM131800 19012KT P6SM
                       SCT250=
201906122320 TAF KPWT 122320Z 1300/1324 04005KT P6SM BKN250 FM130500 18005KT
                       P6SM SCT250 FM131200 19008KT P6SM BKN009
                       FM131800 19012KT P6SM SCT250=
201906121720 TAF KPWT 121720Z 1218/1318 04005KT P6SM BKN250 FM130500 18005KT
                       P6SM SCT250 FM131200 19008KT P6SM BKN009=
201906121125 TAF KPWT 121125Z 1212/1312 05009KT P6SM SKC FM122000 08010KT P6SM
                       SCT250 FM122200 15010KT P6SM SCT250 FM130500
                       16004KT P6SM BKN250=
201906120523 TAF KPWT 120523Z 1206/1306 05009KT P6SM SKC FM122100 14005KT P6SM
                       SCT250=
201906112331 TAF KPWT 112331Z 1200/1224 05011KT P6SM FEW250 FM120300 04006KT
                       P6SM SKC=
201906111729 TAF KPWT 111729Z 1118/1218 04014G20KT P6SM FEW250 FM120300 04008KT
                       P6SM SKC=
201906111120 TAF KPWT 111120Z 1112/1212 06005KT P6SM SCT250 FM111700 03010G16KT
                       P6SM SKC FM120500 03008KT P6SM SKC=
201906110529 TAF KPWT 110529Z 1106/1206 03010KT P6SM SCT250 FM111700 03010G15KT
                       P6SM SKC FM120500 03008KT P6SM SKC=
201906102335 TAF KPWT 102335Z 1100/1124 03008KT P6SM SCT250 FM110500 05003KT
                       P6SM FEW250 FM111700 03010KT P6SM SKC=
201906101720 TAF KPWT 101720Z 1018/1118 05008KT P6SM FEW120 SCT250=
201906101120 TAF KPWT 101120Z 1012/1112 05008KT P6SM BKN200 FM110600 05005KT
                       P6SM SCT200=
201906100520 TAF KPWT 100520Z 1006/1106 05007KT P6SM SCT200=
201906092322 TAF KPWT 092322Z 1000/1024 05006KT P6SM BKN250 FM100600 03005KT
                       P6SM SCT200=
201906091722 TAF KPWT 091722Z 0918/1018 22005KT P6SM BKN250 FM092100 22005KT
                       P6SM BKN200 FM100600 VRB03KT P6SM SCT200=
201906091120 TAF KPWT 091120Z 0912/1012 03005KT P6SM SCT250=
201906090520 TAF KPWT 090520Z 0906/1006 03005KT P6SM SCT250=
201906082336 TAF KPWT 082336Z 0900/0924 VRB03KT P6SM SCT050 SCT070 FM090200
                       17006KT P6SM SCT200 FM090500 11003KT P6SM
                       SCT200 FM090700 00000KT P6SM SCT200 FM091500
                       04003KT P6SM SCT250=
201906081732 TAF KPWT 081732Z 0818/0918 VRB03KT P6SM BKN012 BKN050
                      TEMPO 0818/0820 OVC008 FM082000 22005KT P6SM
                       SCT015 BKN050 FM090000 22004KT P6SM BKN050
                       FM090200 03006KT P6SM BKN200 FM090400 07004KT
                       P6SM BKN200=
201906081324 KPWT 081324Z 0813/0912 18006KT P6SM OVC010 FM081500 18006KT P6SM
                       BKN012 BKN050 FM081900 21005KT P6SM SCT015
                       BKN050 FM090000 VRB04KT P6SM BKN050 FM090600
                       04004KT P6SM SCT050 BKN200=
201906081120 TAF KPWT 081120Z 0812/0912 18006KT P6SM OVC006 FM081500 18006KT
                       P6SM BKN010 BKN050 FM081900 21005KT P6SM
                       SCT015 BKN050 FM090000 VRB04KT P6SM BKN050
                       FM090600 04004KT P6SM SCT050 BKN200=
201906080803 KPWT 080803Z 0808/0906 VRB03KT P6SM OVC006 FM081200 18006KT P6SM
                       OVC012 FM081800 18006KT P6SM SCT015 BKN040
                       FM090000 VRB03KT P6SM BKN050=
201906080523 TAF KPWT 080523Z 0806/0906 VRB04KT P6SM OVC050 FM081000 VRB03KT
                       P6SM OVC015 FM081800 VRB05KT P6SM BKN050
                       FM090200 02003KT P6SM SCT250=
201906072333 TAF KPWT 072333Z 0800/0824 21012G20KT P6SM VCSH FEW030 BKN060 FM080300
                       22010KT P6SM VCSH BKN035 FM080500 21005KT
                       P6SM OVC050 FM081000 20004KT P6SM OVC015
                       FM081700 22003KT P6SM BKN050=
201906071738 TAF KPWT 071738Z 0718/0818 23008KT P6SM VCSH BKN020 BKN030 FM072100
                       21012G20KT P6SM -SHRA OVC015 FM080300 21005KT
                       P6SM VCSH OVC030 FM080500 17003KT P6SM OVC025
                       FM080900 19002KT P6SM OVC015=
201906071120 TAF KPWT 071120Z 0712/0812 20006KT P6SM OVC010 FM071600 20010KT
                       P6SM VCSH BKN015 BKN040 FM072100 20012G20KT
                       P6SM -SHRA BKN025 BKN050 FM080300 18005KT
                       P6SM VCSH BKN030=
201906070708 KPWT 070708Z 0707/0806 20006KT P6SM OVC008 FM071000 20006KT P6SM
                       VCSH BKN012 BKN040 FM071600 20010KT P6SM
                       VCSH SCT015 BKN040 FM072100 20012G20KT P6SM
                       -SHRA BKN025 BKN050 FM080300 18005KT P6SM
                       VCSH BKN030=
201906070521 TAF KPWT 070521Z 0706/0806 20010KT P6SM SCT040 FM071200 19007KT
                       P6SM -SHRA BKN020 FM071900 20010G18KT 5SM
                       -RA BR OVC015 FM080300 18005KT P6SM OVC025=
201906062320 TAF KPWT 062320Z 0700/0724 22015G24KT P6SM VCSH SCT060
                      TEMPO 0700/0704 -SHRA SCT025 BKN045 FM070400
                       18006KT P6SM VCSH BKN035 FM071000 VRB04KT
                       P6SM -SHRA BKN020 FM071600 20010KT 5SM -RA
                       BR OVC010=
201906061731 TAF KPWT 061731Z 0618/0718 22008KT P6SM VCSH SCT025 BKN045 FM070400
                       VRB04KT P6SM VCSH BKN035 FM071000 VRB04KT
                       P6SM -SHRA BKN020=
201906061220 KPWT 061220Z 0612/0712 18006KT P6SM BKN015 BKN040
                      TEMPO 0612/0616 SCT015 SCT040 FM061600 20008KT
                       P6SM VCSH SCT020 BKN040 FM070400 VRB04KT
                       P6SM VCSH BKN035 FM071000 VRB04KT P6SM -SHRA
                       BKN030=
201906061120 TAF KPWT 061120Z 0612/0712 18006KT P6SM BKN015 BKN040 FM061700
                       20008KT P6SM VCSH SCT020 BKN040 FM070400
                       VRB04KT P6SM VCSH BKN035 FM071000 VRB04KT
                       P6SM -SHRA BKN030=
201906060903 KPWT 060903Z 0609/0706 18006KT P6SM SCT012
                      TEMPO 0609/0612 BKN012 FM061200 18008KT P6SM
                       BKN015 BKN040 FM061600 20008KT P6SM SCT025
                       BKN040 FM062000 20012G20KT P6SM SCT030 BKN040=
201906060520 TAF KPWT 060520Z 0606/0706 20010KT P6SM SCT050 FM061100 18005KT
                       P6SM BKN025 OVC040 FM061600 VRB03KT P6SM
                       SCT025 BKN040 FM062000 20012G20KT P6SM SCT030
                       BKN040=
201906052320 TAF KPWT 052320Z 0600/0624 21012G19KT P6SM VCSH BKN030 OVC060 FM060600
                       17009KT P6SM -SHRA BKN030 OVC050 FM061100
                       18005KT P6SM BKN025 OVC040 FM061600 VRB03KT
                       P6SM SCT025 BKN040 FM062000 20012G20KT P6SM
                       SCT030 BKN040=
201906051720 TAF KPWT 051720Z 0518/0618 19007KT P6SM SCT025 OVC030 FM051900
                       19011KT P6SM OVC025 FM060100 20012G18KT
                       P6SM VCSH BKN035 OVC050 FM060600 17009KT
                       P6SM -SHRA BKN030 OVC050 FM061100 18005KT
                       P6SM BKN025 OVC040 FM061600 VRB03KT P6SM
                       SCT025 BKN040=
201906051120 TAF KPWT 051120Z 0512/0612 20006KT P6SM BKN060 BKN100 FM051400
                       19007KT P6SM BKN050 OVC080 FM051900 19011KT
                       P6SM OVC050 FM060100 20012G18KT P6SM VCSH
                       BKN035 OVC050 FM060600 17009KT P6SM -SHRA
                       BKN030 OVC050 FM061100 18005KT P6SM BKN027
                       OVC040=
201906050539 TAF KPWT 050539Z 0506/0606 20006KT P6SM BKN100 BKN200 FM051300
                       19007KT P6SM BKN060 OVC100 FM051700 19012G18KT
                       P6SM OVC050 FM060200 20015G20KT P6SM VCSH
                       BKN035 OVC050=
201906042320 TAF KPWT 042320Z 0500/0524 23005KT P6SM SCT050 SCT200 FM050400
                       18008KT P6SM BKN200 FM050900 19005KT P6SM
                       BKN120 OVC200 FM051200 20007KT P6SM BKN040
                       OVC120 FM051700 20016G24KT P6SM OVC040=
201906041726 TAF KPWT 041726Z 0418/0518 VRB04KT P6SM SCT025 SCT050 FM042000
                       20005KT P6SM SCT050 SCT200 FM050400 18008KT
                       P6SM BKN200 FM050900 19005KT P6SM BKN120
                       OVC200 FM051200 20007KT P6SM BKN040 OVC120=
201906041303 KPWT 041303Z 0413/0512 18004KT P6SM BKN040 FM041700 19005KT P6SM
                       SCT025 SCT050 FM042000 20005KT P6SM SCT050
                       SCT200 FM050400 18008KT P6SM BKN200 FM050900
                       19007KT P6SM BKN120 OVC200=
201906041131 TAF KPWT 041131Z 0412/0512 18004KT P6SM FEW015 SCT050
                      TEMPO 0412/0416 4SM BR FM041600 19005KT P6SM
                       SCT020 SCT050 FM042000 20005KT P6SM SCT050
                       SCT200 FM050400 18008KT P6SM BKN200 FM050900
                       19007KT P6SM BKN120 OVC200=
201906040537 TAF KPWT 040537Z 0406/0506 04007KT P6SM SCT050 FM041000 18004KT
                       P6SM BKN015 FM041600 19005KT P6SM BKN015
                       OVC020 FM042000 20005KT P6SM SCT025 SCT200
                       FM050000 18008KT P6SM BKN250=
201906032332 TAF KPWT 032332Z 0400/0424 VRB05KT P6SM OVC040 FM040100 04007KT
                       P6SM SCT050 FM040900 18004KT P6SM BKN010
                       FM041600 19005KT P6SM BKN015 OVC020 FM042000
                       20005KT P6SM SCT025 SCT200=
201906032146 KPWT 032146Z 0322/0418 18007KT P6SM OVC040 FM040100 04007KT P6SM
                       SCT050 FM040900 18004KT P6SM BKN009 FM041600
                       20005KT P6SM BKN015 OVC020=
201906031748 TAF KPWT 031748Z 0318/0418 VRB03KT P6SM OVC018 FM032000 17003KT
                       P6SM BKN022 OVC030 FM032200 18007KT P6SM
                       SCT025 SCT200 FM040100 04007KT P6SM SCT050
                       FM040900 18004KT P6SM BKN009 FM041600 20005KT
                       P6SM BKN015 OVC020=
201906031121 TAF KPWT 031121Z 0312/0412 19006KT P6SM SCT020 BKN050
                      TEMPO 0312/0316 BKN010 FM031700 18007KT P6SM
                       SCT022 BKN050 FM032100 18007KT P6SM SCT050
                       SCT200 FM040100 04007KT P6SM SCT050 FM040900
                       18004KT P6SM BKN009=
201906030849 KPWT 030849Z 0309/0406 17006KT P6SM BKN045 BKN200 FM031200 19008KT
                       P6SM SCT020 BKN040 FM031700 18007KT P6SM
                       SCT022 BKN050 FM032100 18007KT P6SM SCT050
                       SCT200 FM040100 04007KT P6SM SCT050=
201906030537 TAF KPWT 030537Z 0306/0406 19010KT P6SM SCT200 FM030900 17009KT
                       6SM BR OVC009 FM031700 18007KT P6SM SCT012
                       BKN035 FM032000 18008KT P6SM BKN050 FM040000
                       04012KT P6SM SCT050=
201906022320 TAF KPWT 022320Z 0300/0324 23010KT P6SM FEW030 BKN200 FM030500
                       19010KT P6SM SCT200 FM030900 17009KT 6SM
                       BR OVC009 FM031700 18007KT P6SM SCT012 BKN035
                       FM032000 18008KT P6SM BKN050=
201906021724 TAF KPWT 021724Z 0218/0318 22006KT P6SM SCT200 FM030300 19010KT
                       P6SM SCT200 FM030900 17009KT 6SM BR OVC009=
201906021610 KPWT 021610Z 0216/0312 VRB04KT P6SM SCT005 SCT200
                      TEMPO 0216/0218 BKN005 FM021900 21006KT P6SM
                       SCT200 FM030300 19012KT P6SM SCT200 FM030900
                       17009KT 6SM BR OVC009=
201906021317 KPWT 021317Z 0213/0312 VRB04KT 1/2SM FG OVC002
                      TEMPO 0213/0216 1/4SM FG VV001 FM021600 19004KT
                       4SM BR OVC004 FM021700 20005KT P6SM OVC008
                       FM021900 21006KT P6SM SCT200 FM030300 19012KT
                       P6SM SCT200 FM030900 17009KT 6SM BR OVC009=
201906021120 TAF KPWT 021120Z 0212/0312 VRB04KT P6SM SCT005 SCT050
                      TEMPO 0212/0214 3SM BR OVC004 FM021400 19004KT
                       4SM BR OVC004 FM021700 20005KT P6SM OVC008
                       FM021900 21006KT P6SM SCT200 FM030300 19012KT
                       P6SM SCT200 FM030900 17009KT 6SM BR OVC009=
201906020907 KPWT 020907Z 0209/0306 VRB04KT P6SM FEW006 SCT200
                      TEMPO 0211/0213 6SM BR BKN005 FM021300 19004KT
                       5SM BR OVC005 FM021700 20005KT P6SM OVC008
                       FM021900 21006KT P6SM SCT200 FM030300 19012KT
                       P6SM SCT200=
201906020538 TAF KPWT 020538Z 0206/0306 VRB04KT P6SM SCT250 FM021000 19004KT
                       5SM BR OVC005 FM021700 20005KT P6SM OVC008
                       FM021900 21006KT P6SM SCT200 FM030300 19012KT
                       P6SM SCT250=
201906012320 TAF KPWT 012320Z 0200/0224 VRB04KT P6SM SCT250 FM021000 19004KT
                       5SM BR OVC005 FM021700 20005KT P6SM OVC008
                       FM021900 21006KT P6SM SCT200=
201906011720 TAF KPWT 011720Z 0118/0218 00000KT P6SM OVC002 FM011900 20005KT
                       P6SM SCT200 FM020000 07007KT P6SM SCT200
                       FM021000 19004KT 5SM BR OVC005=
201906011126 TAF KPWT 011126Z 0112/0212 VRB03KT 3SM BR SCT001
                      TEMPO 0112/0114 1/2SM FG VV001 FM011400 19004KT
                       1/2SM FG VV001 FM011700 19005KT P6SM OVC004
                       FM011900 20005KT P6SM SCT200 FM020000 07007KT
                       P6SM SCT200 FM021000 19004KT 5SM BR OVC005=
201906010904 KPWT 010904Z 0109/0206 20003KT 6SM BR SCT003
                      TEMPO 0109/0111 3SM BR BKN002 FM011100 18004KT
                       1SM BR OVC001 FM011700 19005KT P6SM OVC004
                       FM011900 20005KT P6SM SKC FM020000 09007KT
                       P6SM SKC FM020500 15004KT P6SM SKC=
201906010539 TAF KPWT 010539Z 0106/0206 20004KT P6SM SKC FM010900 20003KT 1/4SM
                       FG OVC001 FM011700 19005KT P6SM OVC004 FM011900
                       20005KT P6SM SKC FM020000 09007KT P6SM SKC
                       FM020500 15004KT P6SM SKC=