##########################################################
# Query made at 02/16/2025 00:19:01 UTC
# Time interval: from 04/01/2019 00:00  to 04/30/2019 23:59  UTC
##########################################################

##########################################################
# KPWT, Bremerton National Automatic Weather Observing / Reporting System (United States)
# WMO index: -----. WIGOS ID: Unknown
# Latitude 47-30N. Longitude 122-45W. Altitude 147 m.
##########################################################

###################################
#  METAR/SPECI from KPWT
###################################
201904302356 METAR KPWT 302356Z AUTO VRB04KT 10SM CLR 19/M05 A3008 RMK AO2 SLP205 T01891050 10189 20150 56010=
201904302256 METAR KPWT 302256Z AUTO 06008KT 10SM CLR 19/M04 A3009 RMK AO2 SLP208 T01891044=
201904302156 METAR KPWT 302156Z AUTO 06008KT 10SM CLR 18/M03 A3011 RMK AO2 SLP213 T01831028=
201904302056 METAR KPWT 302056Z AUTO 08009KT 10SM CLR 18/M04 A3011 RMK AO2 SLP216 T01781039 58009=
201904301956 METAR KPWT 301956Z AUTO 04009KT 10SM CLR 17/M02 A3012 RMK AO2 SLP219 T01721017=
201904301856 METAR KPWT 301856Z AUTO VRB06KT 10SM CLR 16/00 A3014 RMK AO2 SLP224 T01610000=
201904301756 METAR KPWT 301756Z AUTO 06009G14KT 10SM CLR 16/02 A3014 RMK AO2 SLP225 6//// T01560017 10156 20061 53001=
201904301656 METAR KPWT 301656Z AUTO 06009KT 10SM CLR 13/03 A3014 RMK AO2 SLP224 T01330028=
201904301556 METAR KPWT 301556Z AUTO 06006KT 10SM CLR 11/03 A3014 RMK AO2 SLP225 T01110028=
201904301456 METAR KPWT 301456Z AUTO 07007KT 10SM CLR 09/02 A3014 RMK AO2 SLP225 6//// T00940017 53010=
201904301356 METAR KPWT 301356Z AUTO 05009KT 10SM CLR 07/01 A3012 RMK AO2 SLP219 T00720006=
201904301256 METAR KPWT 301256Z AUTO 03004KT 10SM CLR 06/01 A3011 RMK AO2 SLP216 T00610011=
201904301156 METAR KPWT 301156Z AUTO 04006KT 10SM CLR 06/02 A3011 RMK AO2 SLP213 7//// T00610017 10089 20061 52004=
201904301056 METAR KPWT 301056Z AUTO 06005KT 10SM CLR 07/01 A3010 RMK AO2 SLP212 T00670011=
201904300956 METAR KPWT 300956Z AUTO 05005KT 10SM CLR 06/00 A3010 RMK AO2 SLP210 T00610000=
201904300856 METAR KPWT 300856Z AUTO 06006KT 10SM CLR 08/M01 A3009 RMK AO2 SLP208 T00781006 50003=
201904300756 METAR KPWT 300756Z AUTO 06008KT 10SM CLR 08/M01 A3010 RMK AO2 SLP209 T00831006 401720061=
201904300656 METAR KPWT 300656Z AUTO 05006KT 10SM CLR 09/00 A3009 RMK AO2 SLP206 T00890000=
201904300556 METAR KPWT 300556Z AUTO 05004KT 10SM CLR 08/01 A3008 RMK AO2 SLP206 T00780006 10167 20078 51004=
201904300456 METAR KPWT 300456Z AUTO 06005KT 10SM CLR 09/01 A3008 RMK AO2 SLP205 T00940006=
201904300356 METAR KPWT 300356Z AUTO 00000KT 10SM CLR 09/02 A3008 RMK AO2 SLP204 T00940017=
201904300256 METAR KPWT 300256Z AUTO 05005KT 10SM CLR 12/01 A3007 RMK AO2 SLP201 T01220006 52005=
201904300156 METAR KPWT 300156Z AUTO 06012KT 10SM CLR 14/01 A3006 RMK AO2 SLP199 T01390006=
201904300056 METAR KPWT 300056Z AUTO 03014G21KT 10SM CLR 16/M04 A3006 RMK AO2 SLP198 T01611039=
201904292356 METAR KPWT 292356Z AUTO 06014G19KT 10SM CLR 17/M02 A3005 RMK AO2 SLP195 T01671022 10172 20144 56017=
201904292256 METAR KPWT 292256Z AUTO 05010G18KT 10SM CLR 17/M02 A3006 RMK AO2 SLP196 T01671017=
201904292156 METAR KPWT 292156Z AUTO 02010KT 360V060 10SM CLR 17/00 A3008 RMK AO2 SLP204 T01720000=
201904292056 METAR KPWT 292056Z AUTO 03010KT 10SM CLR 16/00 A3010 RMK AO2 SLP212 T01610000 58015=
201904291956 METAR KPWT 291956Z AUTO 05011G14KT 10SM CLR 16/02 A3012 RMK AO2 SLP218 T01610017=
201904291856 METAR KPWT 291856Z AUTO 02009G16KT 10SM CLR 16/02 A3014 RMK AO2 SLP224 T01560017=
201904291756 METAR KPWT 291756Z AUTO 04009G15KT 10SM CLR 14/02 A3015 RMK AO2 SLP227 6//// T01440022 10144 20061 57005=
201904291656 METAR KPWT 291656Z AUTO 04009KT 10SM CLR 13/02 A3015 RMK AO2 SLP229 T01330017=
201904291556 METAR KPWT 291556Z AUTO 05011KT 10SM CLR 11/02 A3016 RMK AO2 SLP232 T01110017=
201904291456 METAR KPWT 291456Z AUTO 05011KT 10SM CLR 09/01 A3016 RMK AO2 SLP234 T00940011 53001=
201904291356 METAR KPWT 291356Z AUTO 04008KT 10SM CLR 08/M01 A3016 RMK AO2 SLP232 T00781006=
201904291256 METAR KPWT 291256Z AUTO 02007KT 10SM CLR 07/01 A3016 RMK AO2 SLP232 T00670006=
201904291156 METAR KPWT 291156Z AUTO 04010KT 10SM CLR 07/00 A3016 RMK AO2 SLP232 7//// T00720000 10089 20061 55006=
201904291056 METAR KPWT 291056Z AUTO 04010KT 10SM CLR 07/02 A3016 RMK AO2 SLP231 T00720017=
201904290956 METAR KPWT 290956Z AUTO 04007KT 10SM CLR 07/02 A3016 RMK AO2 SLP233 T00670017=
201904290856 METAR KPWT 290856Z AUTO 05007KT 10SM CLR 08/02 A3018 RMK AO2 SLP238 T00780017 58003=
201904290756 METAR KPWT 290756Z AUTO 05009KT 10SM CLR 08/00 A3019 RMK AO2 SLP241 T00830000 401611011=
201904290656 METAR KPWT 290656Z AUTO 03006KT 10SM CLR 07/M01 A3018 RMK AO2 SLP239 T00721011=
201904290556 METAR KPWT 290556Z AUTO 04006KT 10SM CLR 08/M02 A3019 RMK AO2 SLP242 6//// T00831017 10156 20072 50001=
201904290456 METAR KPWT 290456Z AUTO 05007KT 10SM CLR 09/M02 A3020 RMK AO2 SLP246 T00891022=
201904290356 METAR KPWT 290356Z AUTO 07006KT 10SM CLR 10/M03 A3019 RMK AO2 SLP245 T01001028=
201904290256 METAR KPWT 290256Z AUTO 04007KT 10SM CLR 11/M03 A3019 RMK AO2 SLP241 T01111028 56006=
201904290156 METAR KPWT 290156Z AUTO 04013G18KT 10SM CLR 14/M04 A3019 RMK AO2 SLP241 T01391039=
201904290056 METAR KPWT 290056Z AUTO 02013G19KT 10SM CLR 14/M03 A3020 RMK AO2 SLP247 T01441028=
201904282356 METAR KPWT 282356Z AUTO 03014G20KT 10SM CLR 15/M04 A3020 RMK AO2 SLP248 T01501039 10161 20122 57015=
201904282256 METAR KPWT 282256Z AUTO 03012G18KT 10SM CLR 15/M02 A3022 RMK AO2 SLP253 T01501017=
201904282156 METAR KPWT 282156Z AUTO 03011KT 10SM CLR 14/01 A3023 RMK AO2 SLP258 T01440011=
201904282056 METAR KPWT 282056Z AUTO 05010KT 10SM CLR 14/04 A3025 RMK AO2 SLP263 T01440044 56016=
201904281956 METAR KPWT 281956Z AUTO 06009KT 10SM CLR 13/04 A3026 RMK AO2 SLP267 T01330039=
201904281856 METAR KPWT 281856Z AUTO 05009KT 10SM CLR 13/04 A3028 RMK AO2 SLP273 T01330044=
201904281756 METAR KPWT 281756Z AUTO 02005KT 10SM CLR 12/03 A3030 RMK AO2 SLP279 T01220028 10122 21011 58003=
201904281656 METAR KPWT 281656Z AUTO 04007KT 10SM CLR 10/03 A3030 RMK AO2 SLP281 T01000033=
201904281556 METAR KPWT 281556Z AUTO 00000KT 10SM CLR 09/04 A3030 RMK AO2 SLP281 T00890039=
201904281456 METAR KPWT 281456Z AUTO 16003KT 10SM CLR 05/03 A3030 RMK AO2 SLP282 T00500033 53008=
201904281356 METAR KPWT 281356Z AUTO 00000KT 10SM CLR 01/01 A3030 RMK AO2 SLP278 T00110006 FZRANO=
201904281256 METAR KPWT 281256Z AUTO 00000KT 10SM CLR M01/M02 A3028 RMK AO2 SLP273 T10111017 FZRANO=
201904281156 METAR KPWT 281156Z AUTO 00000KT 10SM CLR M01/M02 A3028 RMK AO2 SLP273 70013 T10111017 10022 21011 53010 FZRANO=
201904281145 SPECI KPWT 281145Z AUTO 00000KT 3SM BR CLR M01/M01 A3028 RMK AO2 FZRANO=
201904281124 SPECI KPWT 281124Z AUTO 00000KT 1 1/2SM BR CLR 00/M01 A3028 RMK AO2 FZRANO=
201904281056 METAR KPWT 281056Z AUTO 00000KT 10SM CLR M01/M01 A3027 RMK AO2 SLP269 T10061006 FZRANO=
201904281009 SPECI KPWT 281009Z AUTO 21003KT 10SM CLR M01/M01 A3026 RMK AO2 FZRANO=
201904280956 METAR KPWT 280956Z AUTO 00000KT 2SM BR CLR 00/M01 A3026 RMK AO2 VIS 3/4V5 SLP265 T00001006 FZRANO=
201904280856 METAR KPWT 280856Z AUTO 00000KT 10SM CLR 00/M01 A3025 RMK AO2 SLP262 T00001006 51008 FZRANO=
201904280756 METAR KPWT 280756Z AUTO 00000KT 10SM CLR 01/M01 A3025 RMK AO2 SLP262 T00061006 401220006 FZRANO=
201904280656 METAR KPWT 280656Z AUTO 15003KT 10SM CLR 02/01 A3024 RMK AO2 SLP260 T00220011 FZRANO=
201904280556 METAR KPWT 280556Z AUTO 00000KT 10SM CLR 01/00 A3023 RMK AO2 SLP254 60000 T00110000 10111 20011 51021 FZRANO=
201904280456 METAR KPWT 280456Z AUTO 00000KT 10SM CLR 03/01 A3021 RMK AO2 SLP250 T00330011=
201904280256 METAR KPWT 280256Z AUTO 00000KT 10SM CLR 09/01 A3016 RMK AO2 SLP234 60000 T00890011 51010=
201904280156 METAR KPWT 280156Z AUTO 00000KT 10SM CLR 10/00 A3016 RMK AO2 SLP232 T01000000=
201904280056 METAR KPWT 280056Z AUTO 06003KT 10SM FEW110 10/01 A3015 RMK AO2 RAB2359E16 SLP227 P0000 T01000011=
201904272356 METAR KPWT 272356Z AUTO 04006G19KT 10SM FEW043 SCT050 SCT060 09/01 A3013 RMK AO2 SLP222 60000 T00940011 10122 20089 53013=
201904272256 METAR KPWT 272256Z AUTO 07012G16KT 10SM SCT032 11/01 A3012 RMK AO2 RAB16E54 SLP219 P0000 T01110006=
201904272156 METAR KPWT 272156Z AUTO 05012G17KT 10SM SCT060 11/01 A3009 RMK AO2 SLP209 T01110006=
201904272056 METAR KPWT 272056Z AUTO 10009G16KT 10SM CLR 11/01 A3009 RMK AO2 SLP209 60000 T01110006 58014=
201904271956 METAR KPWT 271956Z AUTO 05011KT 10SM SCT050 10/02 A3012 RMK AO2 RAB30E54 SLP217 P0000 T01000022=
201904271856 METAR KPWT 271856Z AUTO VRB06KT 10SM BKN050 11/00 A3012 RMK AO2 SLP219 T01110000=
201904271756 METAR KPWT 271756Z AUTO 15006KT 10SM CLR 10/03 A3013 RMK AO2 SLP224 60013 T01000033 10100 20006 58001=
201904271656 METAR KPWT 271656Z AUTO 00000KT 10SM SCT015 08/05 A3014 RMK AO2 SLP226 T00830050=
201904271556 METAR KPWT 271556Z AUTO 28005KT 10SM FEW022 BKN085 06/04 A3014 RMK AO2 RAE46 SLP224 P0004 T00610044=
201904271552 SPECI KPWT 271552Z AUTO 29003KT 10SM FEW021 BKN085 06/04 A3014 RMK AO2 RAE46 P0004=
201904271504 SPECI KPWT 271504Z AUTO 09003KT 3SM -RA BR FEW019 BKN026 OVC031 06/05 A3014 RMK AO2 P0002=
201904271456 METAR KPWT 271456Z AUTO 07003KT 1 1/2SM -RA BR BKN019 BKN025 OVC031 05/04 A3014 RMK AO2 VIS 1V3 RAB37 SLP227 P0009 60009 T00500044 55001=
201904271452 SPECI KPWT 271452Z AUTO 09003KT 1 3/4SM -RA BR BKN019 BKN024 OVC030 06/04 A3014 RMK AO2 VIS 1V5 RAB37 P0007=
201904271408 SPECI KPWT 271408Z AUTO 00000KT 10SM BKN018 OVC030 04/04 A3014 RMK AO2=
201904271356 METAR KPWT 271356Z AUTO 00000KT 10SM FEW018 BKN032 OVC044 04/03 A3014 RMK AO2 SLP224 T00390033=
201904271256 METAR KPWT 271256Z AUTO 00000KT 10SM OVC037 02/02 A3014 RMK AO2 SLP224 T00220017 FZRANO=
201904271156 METAR KPWT 271156Z AUTO 19003KT 9SM CLR 01/01 A3015 RMK AO2 SLP227 T00110006 10083 20011 58008 FZRANO=
201904271056 METAR KPWT 271056Z AUTO 13003KT 10SM CLR 02/02 A3016 RMK AO2 SLP234 T00220017 FZRANO=
201904270956 METAR KPWT 270956Z AUTO 00000KT 10SM BKN035 05/03 A3017 RMK AO2 SLP235 T00500033=
201904270856 METAR KPWT 270856Z AUTO 00000KT 10SM CLR 04/03 A3017 RMK AO2 SLP237 T00390028 58005=
201904270756 METAR KPWT 270756Z AUTO 00000KT 10SM CLR 07/03 A3018 RMK AO2 SLP239 T00670033 401780039=
201904270656 METAR KPWT 270656Z AUTO 12003KT 10SM OVC034 08/04 A3018 RMK AO2 SLP239 T00830039=
201904270556 METAR KPWT 270556Z AUTO 10003KT 10SM OVC034 08/04 A3019 RMK AO2 SLP242 T00830039 10167 20083 50007=
201904270456 METAR KPWT 270456Z AUTO 08004KT 10SM FEW043 09/05 A3019 RMK AO2 SLP245 T00890050=
201904270356 METAR KPWT 270356Z AUTO 08006KT 10SM FEW070 09/05 A3018 RMK AO2 SLP239 T00940050=
201904270256 METAR KPWT 270256Z AUTO 08008KT 10SM CLR 11/06 A3017 RMK AO2 SLP236 T01110056 53002=
201904270156 METAR KPWT 270156Z AUTO 06007KT 10SM FEW044 13/06 A3016 RMK AO2 SLP235 T01330061=
201904270056 METAR KPWT 270056Z AUTO 22009KT 10SM CLR 16/05 A3016 RMK AO2 SLP234 T01560050=
201904262356 METAR KPWT 262356Z AUTO 23010KT 10SM FEW060 17/04 A3016 RMK AO2 SLP232 T01670044 10178 20111 58006=
201904262256 METAR KPWT 262256Z AUTO 26011KT 10SM CLR 17/04 A3017 RMK AO2 SLP234 T01720044=
201904262156 METAR KPWT 262156Z AUTO 15007KT 10SM BKN050 17/04 A3017 RMK AO2 SLP236 T01670044=
201904262056 METAR KPWT 262056Z AUTO 20007KT 10SM OVC042 16/06 A3018 RMK AO2 SLP237 T01560056 58005=
201904261956 METAR KPWT 261956Z AUTO VRB06KT 10SM BKN036 14/06 A3019 RMK AO2 SLP240 T01440061=
201904261920 SPECI KPWT 261920Z AUTO VRB05KT 10SM BKN032 13/06 A3019 RMK AO2=
201904261856 METAR KPWT 261856Z AUTO 20004KT 10SM OVC026 13/06 A3020 RMK AO2 SLP245 T01280061=
201904261810 SPECI KPWT 261810Z AUTO 22006KT 10SM BKN020 12/06 A3019 RMK AO2=
201904261756 METAR KPWT 261756Z AUTO 23007KT 10SM SCT020 11/06 A3019 RMK AO2 SLP244 T01110061 10117 20039 51007=
201904261721 SPECI KPWT 261721Z AUTO 22009KT 10SM BKN018 11/06 A3019 RMK AO2=
201904261709 SPECI KPWT 261709Z AUTO 19005KT 10SM SCT016 11/06 A3019 RMK AO2=
201904261656 METAR KPWT 261656Z AUTO 20007KT 10SM BKN016 11/07 A3018 RMK AO2 SLP240 T01110067=
201904261654 SPECI KPWT 261654Z AUTO 21007KT 10SM BKN014 11/07 A3018 RMK AO2=
201904261623 SPECI KPWT 261623Z AUTO 22005KT 10SM SCT012 09/06 A3017 RMK AO2=
201904261614 SPECI KPWT 261614Z AUTO VRB05KT 10SM BKN010 09/07 A3017 RMK AO2=
201904261556 METAR KPWT 261556Z AUTO 22006KT 10SM BKN008 08/06 A3017 RMK AO2 SLP237 T00830061=
201904261456 METAR KPWT 261456Z AUTO 20005KT 10SM BKN006 07/06 A3016 RMK AO2 SLP232 T00720056 51013=
201904261454 SPECI KPWT 261454Z AUTO 20005KT 10SM BKN006 07/06 A3016 RMK AO2=
201904261445 SPECI KPWT 261445Z AUTO 20005KT 10SM SCT006 07/06 A3015 RMK AO2=
201904261356 METAR KPWT 261356Z AUTO 20003KT 10SM CLR 05/04 A3013 RMK AO2 SLP221 T00500044=
201904261256 METAR KPWT 261256Z AUTO 22003KT 10SM CLR 04/03 A3012 RMK AO2 SLP217 T00390033=
201904261156 METAR KPWT 261156Z AUTO 22004KT 10SM BKN055 06/04 A3011 RMK AO2 SLP216 T00610044 10100 20061 53005=
201904261056 METAR KPWT 261056Z AUTO 00000KT 10SM OVC050 07/05 A3010 RMK AO2 SLP211 T00720050=
201904260956 METAR KPWT 260956Z AUTO 00000KT 10SM CLR 07/04 A3010 RMK AO2 SLP211 T00720044=
201904260856 METAR KPWT 260856Z AUTO 00000KT 10SM SCT110 08/04 A3009 RMK AO2 SLP209 T00830044 51007=
201904260756 METAR KPWT 260756Z AUTO 00000KT 10SM CLR 09/04 A3009 RMK AO2 SLP208 T00940044 401610050=
201904260656 METAR KPWT 260656Z AUTO 00000KT 10SM FEW090 10/04 A3009 RMK AO2 SLP206 T01000039=
201904260556 METAR KPWT 260556Z AUTO 00000KT 10SM BKN110 10/04 A3007 RMK AO2 SLP203 T01000039 10150 20089 50005=
201904260456 METAR KPWT 260456Z AUTO 01003KT 10SM FEW110 10/04 A3008 RMK AO2 SLP206 T01000039=
201904260356 METAR KPWT 260356Z AUTO 06003KT 10SM SCT120 11/04 A3007 RMK AO2 SLP201 T01110039=
201904260256 METAR KPWT 260256Z AUTO 06005KT 10SM CLR 12/03 A3006 RMK AO2 SLP199 T01170033 56006=
201904260156 METAR KPWT 260156Z AUTO 05007KT 10SM CLR 13/03 A3006 RMK AO2 SLP199 T01280033=
201904260056 METAR KPWT 260056Z AUTO 04007KT 10SM CLR 14/04 A3007 RMK AO2 SLP202 T01390044=
201904252356 METAR KPWT 252356Z AUTO 03010KT 10SM CLR 15/04 A3008 RMK AO2 SLP204 T01500039 10161 20128 58016=
201904252256 METAR KPWT 252256Z AUTO 03008KT 10SM CLR 16/04 A3009 RMK AO2 SLP209 T01610044=
201904252156 METAR KPWT 252156Z AUTO 06010KT 10SM CLR 15/04 A3011 RMK AO2 SLP216 T01500039=
201904252056 METAR KPWT 252056Z AUTO 05010KT 10SM CLR 16/04 A3012 RMK AO2 SLP219 T01560044 58018=
201904251956 METAR KPWT 251956Z AUTO 03009KT 10SM CLR 15/04 A3014 RMK AO2 SLP226 T01500044=
201904251856 METAR KPWT 251856Z AUTO 05010G15KT 10SM CLR 14/04 A3017 RMK AO2 SLP234 T01390039=
201904251756 METAR KPWT 251756Z AUTO 03008KT 10SM CLR 13/03 A3018 RMK AO2 SLP238 T01280033 10128 20067 58011=
201904251656 METAR KPWT 251656Z AUTO 05015G20KT 10SM CLR 11/03 A3018 RMK AO2 SLP241 T01110028=
201904251556 METAR KPWT 251556Z AUTO 04011G17KT 10SM CLR 10/04 A3020 RMK AO2 SLP248 T01000039=
201904251456 METAR KPWT 251456Z AUTO 04008KT 10SM CLR 08/04 A3021 RMK AO2 SLP250 T00830039 56004=
201904251356 METAR KPWT 251356Z AUTO 06005KT 10SM CLR 07/03 A3021 RMK AO2 SLP250 T00670033=
201904251256 METAR KPWT 251256Z AUTO 07008KT 10SM CLR 07/02 A3021 RMK AO2 SLP249 T00670022=
201904251156 METAR KPWT 251156Z AUTO 05009KT 10SM CLR 07/02 A3022 RMK AO2 SLP254 6//// 7//// T00670022 10089 20050 58009=
201904251056 METAR KPWT 251056Z AUTO 06005KT 10SM CLR 06/03 A3024 RMK AO2 SLP259 T00610028=
201904250956 METAR KPWT 250956Z AUTO 08006KT 10SM CLR 07/02 A3024 RMK AO2 SLP261 T00670022=
201904250856 METAR KPWT 250856Z AUTO 06007KT 10SM CLR 07/02 A3025 RMK AO2 SLP264 6//// T00720022 56011=
201904250756 METAR KPWT 250756Z AUTO 07007KT 10SM CLR 07/02 A3026 RMK AO2 SLP267 T00720022 401560033=
201904250656 METAR KPWT 250656Z AUTO 05010KT 10SM CLR 08/02 A3027 RMK AO2 SLP271 T00780022=
201904250556 METAR KPWT 250556Z AUTO 03008KT 10SM CLR 08/02 A3029 RMK AO2 SLP276 T00830017 10156 20083 51001=
201904250456 METAR KPWT 250456Z AUTO 04010KT 10SM CLR 09/02 A3028 RMK AO2 SLP276 T00940022=
201904250356 METAR KPWT 250356Z AUTO 05008KT 10SM CLR 11/03 A3029 RMK AO2 SLP276 T01060033=
201904250256 METAR KPWT 250256Z AUTO 03008KT 10SM CLR 12/03 A3028 RMK AO2 SLP274 T01170033 58009=
201904250156 METAR KPWT 250156Z AUTO 02008KT 10SM CLR 14/05 A3029 RMK AO2 SLP279 T01390050=
201904250056 METAR KPWT 250056Z AUTO 03008KT 10SM CLR 15/04 A3030 RMK AO2 SLP281 T01500044=
201904242356 METAR KPWT 242356Z AUTO 05008KT 10SM CLR 15/04 A3031 RMK AO2 SLP284 T01500044 10156 20111 58012=
201904242256 METAR KPWT 242256Z AUTO 05006KT 10SM BKN046 14/04 A3032 RMK AO2 SLP288 T01440044=
201904242156 METAR KPWT 242156Z AUTO 00000KT 10SM OVC046 14/03 A3034 RMK AO2 SLP294 T01440033=
201904242056 METAR KPWT 242056Z AUTO 02004KT 10SM OVC042 13/03 A3034 RMK AO2 SLP295 T01330033 58005=
201904241956 METAR KPWT 241956Z AUTO 03005KT 10SM OVC040 13/04 A3035 RMK AO2 SLP298 T01280039=
201904241856 METAR KPWT 241856Z AUTO 00000KT 10SM BKN032 OVC042 11/04 A3036 RMK AO2 SLP302 T01110039=
201904241811 SPECI KPWT 241811Z AUTO 09005KT 10SM OVC030 12/04 A3036 RMK AO2=
201904241756 METAR KPWT 241756Z AUTO VRB03KT 10SM OVC028 12/05 A3036 RMK AO2 SLP301 T01170050 10117 20033 51002=
201904241703 SPECI KPWT 241703Z AUTO 00000KT 10SM SCT024 BKN031 11/05 A3037 RMK AO2=
201904241656 METAR KPWT 241656Z AUTO 32004KT 10SM SCT024 BKN029 BKN034 11/05 A3036 RMK AO2 SLP301 T01060050=
201904241616 SPECI KPWT 241616Z AUTO 00000KT 10SM SCT022 09/04 A3036 RMK AO2=
201904241556 METAR KPWT 241556Z AUTO 00000KT 10SM OVC022 09/04 A3037 RMK AO2 SLP303 T00890044=
201904241518 SPECI KPWT 241518Z AUTO 00000KT 10SM BKN022 08/04 A3036 RMK AO2=
201904241456 METAR KPWT 241456Z AUTO 00000KT 10SM SCT022 BKN035 08/05 A3035 RMK AO2 SLP299 T00780050 53012=
201904241356 METAR KPWT 241356Z AUTO 00000KT 10SM BKN022 OVC039 06/04 A3034 RMK AO2 SLP292 T00560044=
201904241321 SPECI KPWT 241321Z AUTO 00000KT 10SM FEW021 BKN026 OVC034 05/04 A3033 RMK AO2=
201904241256 METAR KPWT 241256Z AUTO 00000KT 10SM OVC036 04/04 A3032 RMK AO2 SLP287 T00440039=
201904241156 METAR KPWT 241156Z AUTO 00000KT 10SM FEW040 OVC049 04/03 A3032 RMK AO2 SLP285 6//// 7//// T00440033 10083 20033 53010=
201904241056 METAR KPWT 241056Z AUTO 00000KT 10SM FEW021 04/03 A3030 RMK AO2 SLP279 T00390028=
201904241004 SPECI KPWT 241004Z AUTO 00000KT 10SM BKN021 06/04 A3029 RMK AO2=
201904240956 METAR KPWT 240956Z AUTO 00000KT 10SM SCT021 BKN047 06/04 A3029 RMK AO2 SLP276 T00610044=
201904240943 SPECI KPWT 240943Z AUTO 21003KT 10SM BKN021 BKN047 06/04 A3029 RMK AO2=
201904240856 METAR KPWT 240856Z AUTO 00000KT 10SM BKN038 OVC047 08/05 A3028 RMK AO2 SLP272 6//// T00780050 52009=
201904240756 METAR KPWT 240756Z AUTO 06004KT 10SM OVC036 08/04 A3027 RMK AO2 SLP269 T00830044 401780083=
201904240656 METAR KPWT 240656Z AUTO 08003KT 10SM FEW027 OVC036 08/05 A3026 RMK AO2 SLP266 T00830050=
201904240647 SPECI KPWT 240647Z AUTO 00000KT 10SM SCT027 OVC036 08/05 A3026 RMK AO2=
201904240636 SPECI KPWT 240636Z AUTO 00000KT 10SM BKN027 OVC036 08/05 A3026 RMK AO2=
201904240556 METAR KPWT 240556Z AUTO 00000KT 10SM OVC034 08/05 A3025 RMK AO2 SLP263 T00830050 10122 20083 51018=
201904240456 METAR KPWT 240456Z AUTO 13003KT 10SM OVC030 09/06 A3024 RMK AO2 SLP258 T00890056=
201904240422 SPECI KPWT 240422Z AUTO 13003KT 10SM OVC028 09/06 A3023 RMK AO2=
201904240356 METAR KPWT 240356Z AUTO 08004KT 10SM OVC033 09/06 A3022 RMK AO2 SLP253 T00940056=
201904240256 METAR KPWT 240256Z AUTO 07007KT 10SM OVC038 11/06 A3020 RMK AO2 SLP245 T01060056 53002=
201904240156 METAR KPWT 240156Z AUTO 06007KT 10SM OVC038 12/06 A3019 RMK AO2 SLP244 T01170061=
201904240056 METAR KPWT 240056Z AUTO 06008KT 10SM BKN038 OVC048 12/07 A3019 RMK AO2 SLP243 T01220067=
201904232356 METAR KPWT 232356Z AUTO 05009KT 10SM BKN037 OVC045 12/08 A3019 RMK AO2 SLP243 T01220078 10178 20122 51003=
201904232319 SPECI KPWT 232319Z AUTO 06010KT 10SM FEW027 OVC037 13/08 A3019 RMK AO2=
201904232256 METAR KPWT 232256Z AUTO 04009KT 10SM FEW019 BKN025 OVC038 13/08 A3019 RMK AO2 SLP242 T01280083=
201904232243 SPECI KPWT 232243Z AUTO VRB04KT 10SM FEW019 BKN024 OVC038 13/09 A3019 RMK AO2=
201904232156 METAR KPWT 232156Z AUTO 21011KT 10SM BKN040 BKN049 OVC055 17/07 A3019 RMK AO2 SLP240 T01670072=
201904232056 METAR KPWT 232056Z AUTO 21012G20KT 10SM CLR 17/08 A3018 RMK AO2 SLP238 T01720078 53001=
201904231956 METAR KPWT 231956Z AUTO 21013KT 10SM BKN050 17/08 A3017 RMK AO2 SLP236 T01670078=
201904231803 SPECI KPWT 231803Z AUTO 23011KT 10SM SCT024 15/08 A3018 RMK AO2=
201904231756 METAR KPWT 231756Z AUTO 22011KT 10SM BKN024 14/08 A3018 RMK AO2 SLP239 T01390083 10150 20089 51004=
201904231656 METAR KPWT 231656Z AUTO 20012G16KT 10SM BKN015 BKN020 14/09 A3017 RMK AO2 SLP237 T01390094=
201904231628 SPECI KPWT 231628Z AUTO 20010KT 10SM OVC011 13/10 A3018 RMK AO2=
201904231556 METAR KPWT 231556Z AUTO 21006KT 10SM OVC007 12/09 A3018 RMK AO2 CIG 006V010 SLP239 T01170094=
201904231456 METAR KPWT 231456Z AUTO 22008KT 10SM OVC005 10/09 A3017 RMK AO2 SLP236 T01000094 53002=
201904231356 METAR KPWT 231356Z AUTO 21009KT 10SM OVC005 09/09 A3016 RMK AO2 SLP233 T00940089=
201904231256 METAR KPWT 231256Z AUTO 20005KT 10SM OVC005 09/08 A3017 RMK AO2 SLP235 T00940083=
201904231156 METAR KPWT 231156Z AUTO 21011KT 10SM OVC005 09/08 A3016 RMK AO2 SLP234 7//// T00890083 10089 20089 56009=
201904231114 SPECI KPWT 231114Z AUTO 21009KT 10SM OVC005 09/08 A3017 RMK AO2=
201904231056 METAR KPWT 231056Z AUTO 20011KT 10SM OVC007 09/08 A3017 RMK AO2 SLP237 T00890083=
201904231046 SPECI KPWT 231046Z AUTO 20010KT 10SM BKN007 OVC120 09/08 A3016 RMK AO2=
201904231010 SPECI KPWT 231010Z AUTO 20011G18KT 10SM FEW007 BKN120 09/08 A3017 RMK AO2=
201904230956 METAR KPWT 230956Z AUTO 20011KT 10SM BKN120 09/08 A3017 RMK AO2 SLP238 T00890078=
201904230919 SPECI KPWT 230919Z AUTO 21014G19KT 10SM FEW008 SCT110 09/08 A3017 RMK AO2=
201904230856 METAR KPWT 230856Z AUTO 21012KT 10SM BKN008 BKN110 09/08 A3019 RMK AO2 SLP243 T00890078 55002=
201904230756 METAR KPWT 230756Z AUTO 21012KT 10SM OVC006 09/08 A3018 RMK AO2 SLP241 T00890078 401440028=
201904230656 METAR KPWT 230656Z AUTO 22010KT 10SM OVC006 09/08 A3019 RMK AO2 SLP241 T00890083=
201904230610 SPECI KPWT 230610Z AUTO 21010KT 10SM BKN006 OVC110 09/08 A3019 RMK AO2=
201904230556 METAR KPWT 230556Z AUTO 22011KT 10SM FEW006 BKN120 09/08 A3019 RMK AO2 SLP244 6//// T00890078 10100 20089 58009=
201904230546 SPECI KPWT 230546Z AUTO 22013KT 10SM FEW006 BKN120 09/08 A3019 RMK AO2=
201904230517 SPECI KPWT 230517Z AUTO 23011KT 10SM SCT020 OVC120 09/08 A3020 RMK AO2=
201904230456 METAR KPWT 230456Z AUTO 23011KT 10SM OVC020 09/08 A3021 RMK AO2 SLP249 T00940078=
201904230427 SPECI KPWT 230427Z AUTO 23011KT 10SM FEW007 BKN018 OVC110 09/08 A3021 RMK AO2=
201904230356 METAR KPWT 230356Z AUTO 21010KT 10SM OVC016 09/08 A3021 RMK AO2 SLP250 T00890078=
201904230313 SPECI KPWT 230313Z AUTO 21008KT 10SM FEW009 BKN012 BKN022 09/08 A3022 RMK AO2=
201904230256 METAR KPWT 230256Z AUTO 21010KT 10SM SCT008 BKN022 09/08 A3022 RMK AO2 SLP253 60000 T00940078 58012=
201904230221 SPECI KPWT 230221Z AUTO 21011KT 10SM SCT008 09/08 A3023 RMK AO2=
201904230156 METAR KPWT 230156Z AUTO 20011KT 10SM BKN008 09/08 A3024 RMK AO2 RAE0057 SLP258 T00940083=
201904230148 SPECI KPWT 230148Z AUTO 20012KT 10SM BKN008 09/08 A3024 RMK AO2 RAE0057=
201904230103 SPECI KPWT 230103Z AUTO 20009KT 10SM FEW008 10/08 A3024 RMK AO2 RAE0057=
201904230056 METAR KPWT 230056Z AUTO 20012KT 10SM -RA FEW010 10/08 A3025 RMK AO2 SLP261 P0000 T01000083=
201904222356 METAR KPWT 222356Z AUTO 21009KT 10SM -RA FEW033 OVC065 09/08 A3026 RMK AO2 RAB2259 SLP266 P0000 60000 T00940078 10144 20094 58003=
201904222256 METAR KPWT 222256Z AUTO 22018KT 10SM BKN040 OVC050 09/07 A3027 RMK AO2 SLP270 T00940067=
201904222156 METAR KPWT 222156Z AUTO 22017G22KT 10SM BKN030 OVC046 09/07 A3027 RMK AO2 PK WND 23027/2059 SLP270 T00940067=
201904222056 METAR KPWT 222056Z AUTO 23020G25KT 10SM BKN048 10/06 A3027 RMK AO2 PK WND 23026/2033 RAE46 SLP269 P0000 60000 T01000061 51009=
201904221956 METAR KPWT 221956Z AUTO 23018G25KT 10SM -RA FEW035 BKN047 OVC055 11/02 A3026 RMK AO2 PK WND 23031/1931 RAB40 SLP267 P0000 T01110017=
201904221856 METAR KPWT 221856Z AUTO 22014KT 10SM FEW055 BKN070 13/06 A3025 RMK AO2 SLP263 T01330056=
201904221756 METAR KPWT 221756Z AUTO 21009KT 10SM SCT070 12/07 A3024 RMK AO2 SLP261 T01170067 10117 20033 56013=
201904221656 METAR KPWT 221656Z AUTO 20013KT 10SM CLR 11/06 A3024 RMK AO2 SLP259 T01060061=
201904221556 METAR KPWT 221556Z AUTO 22008KT 10SM CLR 09/06 A3026 RMK AO2 SLP269 T00890056=
201904221456 METAR KPWT 221456Z AUTO 19005KT 10SM FEW070 SCT080 07/05 A3028 RMK AO2 SLP274 T00720050 51002=
201904221356 METAR KPWT 221356Z AUTO 21006KT 10SM BKN090 06/04 A3028 RMK AO2 SLP273 T00610044=
201904221256 METAR KPWT 221256Z AUTO 20006KT 10SM BKN070 OVC085 06/04 A3027 RMK AO2 SLP272 T00560044=
201904221156 METAR KPWT 221156Z AUTO 22005KT 10SM FEW095 04/03 A3027 RMK AO2 SLP271 T00390028 10067 20028 56008=
201904221056 METAR KPWT 221056Z AUTO 00000KT 10SM FEW090 03/03 A3028 RMK AO2 SLP273 T00330028=
201904220956 METAR KPWT 220956Z AUTO 00000KT 10SM CLR 04/03 A3028 RMK AO2 SLP273 T00440033=
201904220856 METAR KPWT 220856Z AUTO 00000KT 10SM CLR 04/03 A3030 RMK AO2 SLP280 T00440033 58001=
201904220756 METAR KPWT 220756Z AUTO 00000KT 10SM CLR 04/04 A3031 RMK AO2 SLP282 T00440039 401610033=
201904220656 METAR KPWT 220656Z AUTO 00000KT 10SM CLR 05/04 A3031 RMK AO2 SLP282 T00500039=
201904220556 METAR KPWT 220556Z AUTO 00000KT 10SM CLR 07/04 A3030 RMK AO2 SLP279 T00670039 10156 20061 50003=
201904220456 METAR KPWT 220456Z AUTO 24004KT 10SM CLR 07/04 A3031 RMK AO2 SLP281 T00720044=
201904220356 METAR KPWT 220356Z AUTO 20005KT 10SM SCT120 09/04 A3030 RMK AO2 SLP279 T00940044=
201904220256 METAR KPWT 220256Z AUTO 22004KT 10SM CLR 11/06 A3029 RMK AO2 SLP278 T01110056 53003=
201904220156 METAR KPWT 220156Z AUTO 25007KT 10SM CLR 14/05 A3028 RMK AO2 SLP274 T01390050=
201904220056 METAR KPWT 220056Z AUTO 22009KT 10SM CLR 14/05 A3028 RMK AO2 SLP274 T01440050=
201904212356 METAR KPWT 212356Z AUTO 20008KT 170V230 10SM BKN055 15/05 A3028 RMK AO2 SLP274 T01500050 10161 20111 57008=
201904212256 METAR KPWT 212256Z AUTO 20008KT 10SM CLR 16/06 A3029 RMK AO2 SLP276 T01560056=
201904212156 METAR KPWT 212156Z AUTO 21007G14KT 10SM SCT039 15/06 A3030 RMK AO2 SLP282 T01500056=
201904212056 METAR KPWT 212056Z AUTO 23010KT 10SM BKN033 14/06 A3031 RMK AO2 SLP283 T01390061=
201904211956 METAR KPWT 211956Z AUTO 21008KT 10SM OVC031 12/06 RMK AO2 SLPNO T01220056 $=
201904211944 SPECI KPWT 211944Z AUTO VRB06KT 10SM OVC031 13/06 A3031 RMK AO2=
201904211856 METAR KPWT 211856Z AUTO 24007KT 10SM OVC027 12/06 A3032 RMK AO2 SLP285 T01220061=
201904211756 METAR KPWT 211756Z AUTO VRB05KT 10SM OVC021 11/07 A3031 RMK AO2 SLP284 T01110072 10117 20067 53004=
201904211731 SPECI KPWT 211731Z AUTO 20006KT 10SM OVC017 11/07 A3031 RMK AO2=
201904211656 METAR KPWT 211656Z AUTO 22006KT 10SM OVC011 09/07 A3031 RMK AO2 SLP282 T00940067=
201904211556 METAR KPWT 211556Z AUTO 20006KT 10SM OVC009 08/07 A3030 RMK AO2 SLP281 T00830067=
201904211539 SPECI KPWT 211539Z AUTO 21006KT 10SM OVC009 08/07 A3030 RMK AO2=
201904211456 METAR KPWT 211456Z AUTO 22006KT 10SM OVC011 08/07 A3029 RMK AO2 SLP276 T00780067 53016=
201904211356 METAR KPWT 211356Z AUTO 00000KT 10SM OVC007 07/07 A3025 RMK AO2 SLP265 T00720067=
201904211326 SPECI KPWT 211326Z AUTO 22003KT 10SM OVC007 07/07 A3026 RMK AO2=
201904211308 SPECI KPWT 211308Z AUTO 22005KT 10SM OVC005 07/07 A3026 RMK AO2 CIG 002V007=
201904211256 METAR KPWT 211256Z AUTO 20004KT 10SM OVC003 07/07 A3025 RMK AO2 CIG 002V006 SLP264 T00670067=
201904211215 SPECI KPWT 211215Z AUTO 20004KT 3SM BR OVC003 07/07 A3024 RMK AO2=
201904211207 SPECI KPWT 211207Z AUTO 21004KT 1 1/4SM BR OVC003 07/07 A3024 RMK AO2=
201904211156 METAR KPWT 211156Z AUTO 21004KT 3/4SM BR OVC003 07/07 A3024 RMK AO2 RAE42 SLP259 P0000 60000 7//// T00670067 10067 20033 52015=
201904211107 SPECI KPWT 211107Z AUTO 19003KT 1/2SM -RA FG OVC003 07/07 A3023 RMK AO2 P0000=
201904211056 METAR KPWT 211056Z AUTO 20003KT 1/4SM -RA FG OVC003 07/07 A3023 RMK AO2 RAB54 SLP256 P0000 T00670067=
201904211011 SPECI KPWT 211011Z AUTO 20003KT 1/4SM FG OVC003 06/05 A3021 RMK AO2=
201904211005 SPECI KPWT 211005Z AUTO 22003KT 3/4SM BR OVC003 05/04 A3021 RMK AO2 VIS 1/2V5=
201904210956 METAR KPWT 210956Z AUTO 00000KT 1 1/2SM BR OVC003 04/03 A3021 RMK AO2 SLP247 T00390033=
201904210949 SPECI KPWT 210949Z AUTO 00000KT 1SM BR BKN003 04/04 A3021 RMK AO2=
201904210940 SPECI KPWT 210940Z AUTO 00000KT 1/2SM FG BKN003 04/03 A3020 RMK AO2=
201904210932 SPECI KPWT 210932Z AUTO 00000KT 3/4SM BR VV003 04/04 A3020 RMK AO2=
201904210920 SPECI KPWT 210920Z AUTO 00000KT 1 1/2SM BR CLR 03/03 A3020 RMK AO2 VIS 3/4V5=
201904210916 SPECI KPWT 210916Z AUTO 00000KT 5SM BR CLR 04/03 A3020 RMK AO2=
201904210908 SPECI KPWT 210908Z AUTO 00000KT 1 1/4SM BR CLR 04/04 A3020 RMK AO2=
201904210856 METAR KPWT 210856Z AUTO 00000KT 3/4SM BR CLR 04/04 A3019 RMK AO2 SLP243 T00440039 51011=
201904210847 SPECI KPWT 210847Z AUTO 00000KT 3/4SM BR CLR 04/04 A3019 RMK AO2=
201904210845 SPECI KPWT 210845Z AUTO 00000KT 1 1/2SM BR CLR 04/04 A3019 RMK AO2=
201904210756 METAR KPWT 210756Z AUTO 00000KT 10SM CLR 05/05 A3018 RMK AO2 SLP238 T00500050 401670039=
201904210752 SPECI KPWT 210752Z AUTO 00000KT 4SM BR CLR 04/04 A3018 RMK AO2 401670039=
201904210749 SPECI KPWT 210749Z AUTO 00000KT 1 1/4SM BR CLR 04/04 A3018 RMK AO2=
201904210741 SPECI KPWT 210741Z AUTO 00000KT 3/4SM BR CLR 04/04 A3018 RMK AO2=
201904210738 SPECI KPWT 210738Z AUTO 00000KT 1 3/4SM BR CLR 04/04 A3017 RMK AO2=
201904210723 SPECI KPWT 210723Z AUTO 00000KT 3SM BR CLR 05/04 A3017 RMK AO2=
201904210714 SPECI KPWT 210714Z AUTO 00000KT 1 3/4SM BR CLR 05/04 A3017 RMK AO2=
201904210656 METAR KPWT 210656Z AUTO 00000KT 10SM CLR 05/04 A3016 RMK AO2 SLP233 T00500044=
201904210631 SPECI KPWT 210631Z AUTO 00000KT 10SM CLR 06/06 A3016 RMK AO2=
201904210622 SPECI KPWT 210622Z AUTO 00000KT 2SM BR FEW031 06/04 A3016 RMK AO2=
201904210556 METAR KPWT 210556Z AUTO 00000KT 10SM BKN031 07/06 A3015 RMK AO2 SLP227 6//// T00670061 10167 20056 52018=
201904210456 METAR KPWT 210456Z AUTO 00000KT 10SM CLR 07/06 A3013 RMK AO2 SLP221 T00670061=
201904210356 METAR KPWT 210356Z AUTO 00000KT 10SM CLR 08/07 A3011 RMK AO2 SLP217 T00830067=
201904210256 METAR KPWT 210256Z AUTO 00000KT 10SM BKN033 12/08 A3009 RMK AO2 SLP210 T01170078 53011=
201904210156 METAR KPWT 210156Z AUTO 11003KT 10SM CLR 14/08 A3008 RMK AO2 SLP204 T01390078=
201904210056 METAR KPWT 210056Z AUTO 00000KT 10SM CLR 16/07 A3007 RMK AO2 SLP201 T01610072=
201904202356 METAR KPWT 202356Z AUTO 00000KT 10SM FEW043 15/07 A3006 RMK AO2 SLP198 T01500072 10150 20106 58001=
201904202256 METAR KPWT 202256Z AUTO 10003KT 10SM BKN034 14/07 A3006 RMK AO2 SLP198 T01390072=
201904202156 METAR KPWT 202156Z AUTO 00000KT 10SM OVC033 14/07 A3007 RMK AO2 SLP201 T01390067=
201904202112 SPECI KPWT 202112Z AUTO 00000KT 10SM OVC033 13/06 A3007 RMK AO2=
201904202056 METAR KPWT 202056Z AUTO 08005KT 10SM OVC029 13/07 A3006 RMK AO2 SLP199 T01280067 50001=
201904202038 SPECI KPWT 202038Z AUTO 06004KT 10SM BKN027 OVC033 12/06 A3007 RMK AO2=
201904202030 SPECI KPWT 202030Z AUTO 00000KT 10SM SCT026 OVC033 13/06 A3007 RMK AO2=
201904201956 METAR KPWT 201956Z AUTO 00000KT 10SM OVC024 13/07 A3007 RMK AO2 SLP200 T01280067=
201904201856 METAR KPWT 201856Z AUTO 03003KT 10SM OVC026 11/06 A3007 RMK AO2 SLP203 T01110061=
201904201756 METAR KPWT 201756Z AUTO 05004KT 10SM OVC024 11/06 A3006 RMK AO2 SLP199 T01060061 10106 20072 53010=
201904201656 METAR KPWT 201656Z AUTO 05009KT 10SM OVC022 10/06 A3004 RMK AO2 SLP193 T01000061=
201904201635 SPECI KPWT 201635Z AUTO 01009KT 10SM FEW016 BKN023 10/06 A3004 RMK AO2=
201904201556 METAR KPWT 201556Z AUTO 03008KT 10SM CLR 10/06 A3003 RMK AO2 SLP189 T01000061=
201904201456 METAR KPWT 201456Z AUTO 03004KT 10SM FEW019 09/06 A3003 RMK AO2 SLP189 T00890061=
201904201356 METAR KPWT 201356Z AUTO 00000KT 10SM CLR 08/06 A3002 RMK AO2 SLP183 T00780056=
201904201256 METAR KPWT 201256Z AUTO 03011KT 10SM CLR 08/06 RMK AO2 SLPNO T00780056 $=
201904201156 METAR KPWT 201156Z AUTO 04009KT 10SM SCT060 BKN080 08/07 A2999 RMK AO2 RAE41 SLP176 P0001 60005 7//// T00830067 10100 20083 55000=
201904201056 METAR KPWT 201056Z AUTO 05005KT 10SM -RA FEW049 SCT060 09/07 A2999 RMK AO2 RAE05B26 SLP175 P0000 T00890072=
201904200956 METAR KPWT 200956Z AUTO 00000KT 10SM -RA BKN049 OVC060 09/08 A2999 RMK AO2 RAB04 SLP175 P0001 T00890083=
201904200856 METAR KPWT 200856Z AUTO 00000KT 10SM SCT037 BKN050 09/08 A2999 RMK AO2 RAE50 SLP176 P0001 60003 T00940083 50003=
201904200819 SPECI KPWT 200819Z AUTO 06003KT 10SM -RA FEW028 SCT038 OVC050 09/08 A2999 RMK AO2 P0001=
201904200756 METAR KPWT 200756Z AUTO 00000KT 10SM -RA FEW010 BKN028 OVC050 09/09 A2999 RMK AO2 SLP175 P0001 T00940089 401330094=
201904200754 SPECI KPWT 200754Z AUTO 00000KT 10SM -RA FEW010 BKN028 OVC050 09/09 A2999 RMK AO2 P0001 401330094=
201904200726 SPECI KPWT 200726Z AUTO 00000KT 10SM -RA SCT006 BKN044 OVC055 09/09 A2999 RMK AO2 P0000=
201904200656 METAR KPWT 200656Z AUTO 00000KT 10SM -RA BKN006 OVC045 09/09 A2998 RMK AO2 RAB17 SLP172 P0001 T00940094=
201904200648 SPECI KPWT 200648Z AUTO 00000KT 9SM -RA BKN006 OVC045 09/09 A2998 RMK AO2 RAB17 P0001=
201904200639 SPECI KPWT 200639Z AUTO 00000KT 7SM -RA SCT006 OVC045 09/09 A2998 RMK AO2 RAB17 P0001=
201904200556 METAR KPWT 200556Z AUTO 00000KT 9SM OVC043 09/09 A2997 RMK AO2 SLP167 60001 T00940094 10106 20094 51004=
201904200456 METAR KPWT 200456Z AUTO 00000KT 7SM OVC037 10/09 A2997 RMK AO2 SLP167 T01000094=
201904200356 METAR KPWT 200356Z AUTO 00000KT 9SM SCT004 OVC037 10/09 A2996 RMK AO2 RAB17E28 SLP163 P0000 T01000094=
201904200353 SPECI KPWT 200353Z AUTO 00000KT 9SM SCT004 OVC037 10/09 A2995 RMK AO2 RAB17E28 P0000=
201904200256 METAR KPWT 200256Z AUTO 00000KT 8SM OVC004 10/09 A2995 RMK AO2 RAB0157E31 SLP162 P0000 60001 T01000094 58008=
201904200241 SPECI KPWT 200241Z AUTO 03005KT 10SM BKN004 OVC029 10/09 A2995 RMK AO2 RAB0157E31 P0000=
201904200156 METAR KPWT 200156Z AUTO 07003KT 10SM FEW004 OVC025 10/09 A2996 RMK AO2 RAE09 SLP166 P0001 T01000094=
201904200056 METAR KPWT 200056Z AUTO 06009KT 6SM -RA BR FEW004 SCT010 OVC019 10/09 A2997 RMK AO2 RAB33 SLP168 P0000 T01000094=
201904200042 SPECI KPWT 200042Z AUTO 06010KT 8SM -RA SCT006 BKN010 OVC015 10/09 A2997 RMK AO2 RAB33 P0000=
201904200011 SPECI KPWT 200011Z AUTO 06008KT 10SM BKN006 OVC015 11/09 A2997 RMK AO2=
201904192356 METAR KPWT 192356Z AUTO 06008KT 10SM SCT006 OVC013 11/10 A2998 RMK AO2 RAE07 SLP169 P0000 60012 T01060100 10133 20106 56005=
201904192352 SPECI KPWT 192352Z AUTO 07007KT 10SM SCT006 OVC013 11/10 A2998 RMK AO2 RAE07 P0000=
201904192256 METAR KPWT 192256Z AUTO 05009KT 10SM -RA OVC006 11/11 A2998 RMK AO2 SLP170 P0003 T01110106=
201904192204 SPECI KPWT 192204Z AUTO 04005KT 10SM -RA BKN006 OVC018 11/11 A2999 RMK AO2 CIG 004V010 P0000=
201904192156 METAR KPWT 192156Z AUTO 07004KT 10SM -RA SCT008 OVC016 11/11 A2999 RMK AO2 SLP175 P0004 T01110106=
201904192112 SPECI KPWT 192112Z AUTO 08007KT 10SM -RA SCT006 OVC012 11/11 A2999 RMK AO2 P0001=
201904192056 METAR KPWT 192056Z AUTO 07006KT 6SM -RA BR BKN006 OVC010 11/11 A2999 RMK AO2 CIG 004V008 SLP176 P0003 60005 T01110106 58002=
201904192034 SPECI KPWT 192034Z AUTO 07006KT 10SM -RA BKN004 OVC013 12/11 A2999 RMK AO2 CIG 004V008 P0000=
201904192023 SPECI KPWT 192023Z AUTO 06009KT 10SM -RA BKN006 OVC013 12/11 A3000 RMK AO2 CIG 004V008 P0000=
201904191956 METAR KPWT 191956Z AUTO 04007KT 10SM -RA SCT015 BKN022 OVC028 12/12 A3000 RMK AO2 RAB1859 SLP177 P0002 T01220117=
201904191856 METAR KPWT 191856Z AUTO 21003KT 10SM OVC015 13/10 A3000 RMK AO2 SLP178 T01280100=
201904191852 SPECI KPWT 191852Z AUTO 20003KT 10SM OVC015 13/10 A3000 RMK AO2=
201904191756 METAR KPWT 191756Z AUTO 22007KT 10SM OVC011 13/10 A2999 RMK AO2 SLP174 6//// T01280100 10128 20106 51001=
201904191717 SPECI KPWT 191717Z AUTO 24008KT 10SM OVC011 12/10 A2999 RMK AO2=
201904191656 METAR KPWT 191656Z AUTO 22007KT 10SM OVC009 12/11 A2999 RMK AO2 SLP173 T01220106=
201904191556 METAR KPWT 191556Z AUTO 20005KT 10SM OVC007 11/10 A3000 RMK AO2 SLP176 T01110100=
201904191521 SPECI KPWT 191521Z AUTO 20006KT 10SM BKN007 11/10 A2999 RMK AO2 CIG 005V010=
201904191456 METAR KPWT 191456Z AUTO 20008KT 10SM FEW007 11/10 A2999 RMK AO2 RAB1358E20 SLP174 P0000 60000 T01060100 55005=
201904191356 METAR KPWT 191356Z AUTO 21011KT 10SM FEW090 11/10 A2999 RMK AO2 RAB04E47 SLP172 P0000 T01060100=
201904191342 SPECI KPWT 191342Z AUTO 21013KT 10SM -RA FEW008 BKN090 11/10 A2999 RMK AO2 RAB04 P0000=
201904191256 METAR KPWT 191256Z AUTO 20009G15KT 10SM OVC070 11/10 A2998 RMK AO2 SLP171 T01110100=
201904191212 SPECI KPWT 191212Z AUTO 22013KT 10SM SCT008 BKN045 OVC055 11/10 A3000 RMK AO2=
201904191156 METAR KPWT 191156Z AUTO 22011KT 10SM BKN008 OVC043 11/10 A3000 RMK AO2 RAB13E39 SLP178 P0000 60000 7//// T01110100 10111 20106 55006=
201904191056 METAR KPWT 191056Z AUTO 23011KT 10SM BKN008 OVC043 11/10 A3000 RMK AO2 SLP177 T01110100=
201904190956 METAR KPWT 190956Z AUTO 22006KT 10SM OVC006 11/10 A3000 RMK AO2 SLP177 T01110100=
201904190856 METAR KPWT 190856Z AUTO 19007KT 10SM OVC006 11/10 A3002 RMK AO2 SLP184 60000 T01110100 58015=
201904190756 METAR KPWT 190756Z AUTO 18003KT 10SM BKN006 OVC055 11/10 A3004 RMK AO2 RAE02 SLP189 P0000 T01110100 401560089=
201904190705 SPECI KPWT 190705Z AUTO 19004KT 10SM BKN006 OVC039 11/10 A3005 RMK AO2 RAE02 P0000=
201904190656 METAR KPWT 190656Z AUTO 20006KT 10SM -RA SCT006 OVC039 11/10 A3005 RMK AO2 RAB37 SLP195 P0000 T01110100=
201904190613 SPECI KPWT 190613Z AUTO 20007KT 10SM SCT006 OVC043 11/10 A3006 RMK AO2=
201904190605 SPECI KPWT 190605Z AUTO 20008KT 10SM BKN006 OVC045 11/10 A3006 RMK AO2=
201904190556 METAR KPWT 190556Z AUTO 21007KT 10SM SCT006 OVC045 11/10 A3006 RMK AO2 RAE08 SLP199 P0000 60001 T01110100 10150 20111 50002=
201904190456 METAR KPWT 190456Z AUTO 20009KT 10SM -RA FEW006 OVC046 11/11 A3008 RMK AO2 RAB55 SLP205 P0000 T01110106=
201904190356 METAR KPWT 190356Z AUTO 21009KT 10SM FEW006 OVC038 12/11 A3007 RMK AO2 RAE22 SLP203 P0000 T01170111=
201904190327 SPECI KPWT 190327Z AUTO 20008KT 10SM FEW006 OVC040 12/11 A3007 RMK AO2 RAE22 P0000=
201904190256 METAR KPWT 190256Z AUTO 19009KT 10SM -RA OVC036 13/11 A3006 RMK AO2 RAB30 SLP197 P0001 60001 T01280111 58019=
201904190156 METAR KPWT 190156Z AUTO 21008KT 10SM OVC036 13/12 A3008 RMK AO2 SLP205 T01330117=
201904190116 SPECI KPWT 190116Z AUTO 21010KT 10SM FEW012 SCT029 OVC034 14/12 A3009 RMK AO2=
201904190056 METAR KPWT 190056Z AUTO 21009KT 10SM FEW014 BKN020 OVC027 14/12 A3010 RMK AO2 SLP210 T01390117=
201904182356 METAR KPWT 182356Z AUTO 23011KT 10SM BKN023 OVC028 15/11 A3011 RMK AO2 SLP215 6//// T01500111 10156 20122 58022=
201904182347 SPECI KPWT 182347Z AUTO 22010KT 10SM BKN023 OVC030 15/11 RMK AO2 $=
201904182334 SPECI KPWT 182334Z AUTO 22011KT 10SM OVC030 15/11 A3012 RMK AO2=
201904182256 METAR KPWT 182256Z AUTO 22010KT 10SM OVC026 15/11 A3014 RMK AO2 SLP224 T01500111=
201904182229 SPECI KPWT 182229Z AUTO 22012KT 10SM BKN026 OVC075 14/11 A3015 RMK AO2=
201904182203 SPECI KPWT 182203Z AUTO 23012G15KT 10SM FEW014 SCT028 BKN075 15/11 A3016 RMK AO2=
201904182156 METAR KPWT 182156Z AUTO 23012KT 10SM BKN028 BKN033 BKN075 14/11 A3016 RMK AO2 SLP233 T01390111=
201904182138 SPECI KPWT 182138Z AUTO 24009KT 10SM FEW018 BKN031 BKN070 14/11 A3017 RMK AO2=
201904182107 SPECI KPWT 182107Z AUTO 23009KT 10SM BKN020 15/11 A3018 RMK AO2=
201904182056 METAR KPWT 182056Z AUTO 24011KT 10SM SCT020 SCT026 15/10 A3018 RMK AO2 SLP238 T01500100 58018=
201904181956 METAR KPWT 181956Z AUTO 24007KT 10SM OVC034 14/10 A3021 RMK AO2 SLP247 T01390100=
201904181856 METAR KPWT 181856Z AUTO 21010KT 10SM OVC039 13/10 A3022 RMK AO2 SLP253 T01330100=
201904181756 METAR KPWT 181756Z AUTO 23007KT 10SM FEW008 BKN037 OVC046 12/10 A3023 RMK AO2 SLP257 60005 T01220100 10122 20094 58004=
201904181708 SPECI KPWT 181708Z AUTO 20007KT 140V220 10SM FEW006 OVC040 12/10 A3024 RMK AO2=
201904181656 METAR KPWT 181656Z AUTO 21007KT 10SM OVC044 11/10 A3024 RMK AO2 SLP260 T01110100=
201904181556 METAR KPWT 181556Z AUTO 18004KT 10SM BKN033 OVC042 11/09 A3025 RMK AO2 SLP262 T01060094=
201904181456 METAR KPWT 181456Z AUTO 20003KT 10SM BKN060 11/09 A3024 RMK AO2 RAE49 SLP261 P0002 60005 T01060094 55003=
201904181356 METAR KPWT 181356Z AUTO 00000KT 5SM RA BR BKN042 BKN050 10/09 A3024 RMK AO2 RAB19 SLP258 P0003 T01000094=
201904181256 METAR KPWT 181256Z AUTO 23004KT 10SM OVC050 10/09 A3024 RMK AO2 SLP260 T01000094=
201904181156 METAR KPWT 181156Z AUTO 22003KT 10SM BKN050 OVC110 10/09 A3025 RMK AO2 SLP262 60000 T01000089 10111 20089 56012=
201904181056 METAR KPWT 181056Z AUTO 20003KT 10SM BKN055 09/08 A3026 RMK AO2 SLP266 T00940083=
201904180956 METAR KPWT 180956Z AUTO 19003KT 10SM OVC070 10/09 A3027 RMK AO2 RAE01 SLP269 P0000 T01000089=
201904180856 METAR KPWT 180856Z AUTO 18004KT 10SM -RA CLR 10/09 A3029 RMK AO2 SLP275 P0000 60000 T01000089 58008=
201904180756 METAR KPWT 180756Z AUTO 16004KT 10SM -RA CLR 11/09 A3030 RMK AO2 RAB35 SLP280 P0000 T01060089 401670078=
201904180656 METAR KPWT 180656Z AUTO 21003KT 10SM BKN055 11/09 A3031 RMK AO2 SLP283 T01060089=
201904180556 METAR KPWT 180556Z AUTO 20004KT 10SM SCT070 BKN100 11/08 A3031 RMK AO2 SLP284 T01110083 10167 20111 51008=
201904180456 METAR KPWT 180456Z AUTO 22008KT 10SM FEW070 SCT085 12/08 A3031 RMK AO2 SLP284 T01170083=
201904180356 METAR KPWT 180356Z AUTO 20007KT 10SM SCT080 OVC120 12/08 A3030 RMK AO2 SLP279 T01170083=
201904180256 METAR KPWT 180256Z AUTO 21009KT 10SM FEW080 OVC120 12/08 A3029 RMK AO2 SLP276 T01220078 50002=
201904180156 METAR KPWT 180156Z AUTO 22010KT 10SM BKN120 14/07 A3029 RMK AO2 SLP277 T01390072=
201904180056 METAR KPWT 180056Z AUTO 23015KT 10SM CLR 16/08 A3029 RMK AO2 SLP274 T01560078=
201904172356 METAR KPWT 172356Z AUTO 22014KT 10SM SCT028 BKN034 17/08 A3028 RMK AO2 SLP273 T01670083 10167 20100 58004=
201904172256 METAR KPWT 172256Z AUTO 21014G18KT 10SM FEW024 SCT029 BKN110 16/09 A3029 RMK AO2 SLP277 T01610094=
201904172156 METAR KPWT 172156Z AUTO 20015G20KT 10SM CLR 15/09 A3030 RMK AO2 SLP279 T01500094=
201904172141 SPECI KPWT 172141Z AUTO 20014G19KT 10SM FEW016 SCT025 SCT120 14/10 A3030 RMK AO2=
201904172118 SPECI KPWT 172118Z AUTO 19014G20KT 10SM BKN016 BKN025 15/10 A3030 RMK AO2=
201904172056 METAR KPWT 172056Z AUTO 19012G23KT 10SM BKN014 BKN020 13/09 A3030 RMK AO2 SLP278 T01330094 58002=
201904171956 METAR KPWT 171956Z AUTO 21013G18KT 10SM OVC012 13/09 A3030 RMK AO2 SLP279 T01330094=
201904171923 SPECI KPWT 171923Z AUTO 20015G20KT 10SM BKN010 BKN015 13/09 A3030 RMK AO2 CIG 007V012=
201904171856 METAR KPWT 171856Z AUTO 18012G20KT 10SM BKN008 OVC013 12/10 A3030 RMK AO2 CIG 007V013 SLP282 T01220100=
201904171853 SPECI KPWT 171853Z AUTO 20011G20KT 10SM BKN008 OVC013 12/09 A3030 RMK AO2=
201904171843 SPECI KPWT 171843Z AUTO 19011G19KT 10SM BKN010 OVC015 12/09 A3031 RMK AO2 CIG 007V013=
201904171756 METAR KPWT 171756Z AUTO 19011KT 6SM BR OVC006 10/09 A3029 RMK AO2 RAB1657E10 CIG 004V008 SLP279 P0000 60000 T01000089 10100 20078 53012=
201904171656 METAR KPWT 171656Z AUTO 20009KT 3SM BR OVC004 09/08 A3028 RMK AO2 SLP271 T00940083=
201904171556 METAR KPWT 171556Z AUTO 21009KT 6SM BR OVC004 09/08 A3027 RMK AO2 SLP269 T00890078=
201904171456 METAR KPWT 171456Z AUTO 20008KT 6SM BR OVC004 08/08 A3026 RMK AO2 SLP264 T00830078 51014=
201904171356 METAR KPWT 171356Z AUTO 19007KT 10SM OVC008 08/07 A3023 RMK AO2 CIG 007V011 SLP258 T00830072=
201904171256 METAR KPWT 171256Z AUTO 19007KT 10SM OVC008 08/07 A3022 RMK AO2 CIG 007V011 SLP250 T00780067=
201904171254 SPECI KPWT 171254Z AUTO 20008KT 10SM OVC008 08/07 A3021 RMK AO2 CIG 007V011=
201904171225 SPECI KPWT 171225Z AUTO 19009KT 10SM BKN010 08/07 A3020 RMK AO2=
201904171212 SPECI KPWT 171212Z AUTO 20011KT 10SM SCT010 08/07 A3020 RMK AO2=
201904171156 METAR KPWT 171156Z AUTO 20013G16KT 10SM BKN012 08/06 A3020 RMK AO2 SLP247 60000 70006 T00780061 10083 20078 53009=
201904171149 SPECI KPWT 171149Z AUTO 19009G16KT 10SM BKN012 08/06 A3020 RMK AO2=
201904171056 METAR KPWT 171056Z AUTO 21014KT 10SM CLR 08/06 A3019 RMK AO2 SLP242 T00780061=
201904171038 SPECI KPWT 171038Z AUTO 21014KT 10SM SCT012 08/07 A3018 RMK AO2=
201904170956 METAR KPWT 170956Z AUTO 21013KT 10SM BKN010 08/07 A3017 RMK AO2 SLP237 T00830072=
201904170856 METAR KPWT 170856Z AUTO 22014G22KT 10SM BKN010 OVC014 08/07 A3017 RMK AO2 SLP237 60000 T00830072 51017=
201904170756 METAR KPWT 170756Z AUTO 21011KT 10SM OVC009 08/07 A3016 RMK AO2 SLP233 T00830072 401220050=
201904170656 METAR KPWT 170656Z AUTO 23013KT 10SM BKN009 08/07 A3014 RMK AO2 RAE05 CIG 008V013 SLP226 P0000 T00830072=
201904170647 SPECI KPWT 170647Z AUTO 23016KT 10SM BKN009 08/07 A3014 RMK AO2 RAE05 CIG 008V015 P0000=
201904170634 SPECI KPWT 170634Z AUTO 23014KT 10SM SCT009 BKN013 BKN050 08/07 A3013 RMK AO2 RAE05 P0000=
201904170556 METAR KPWT 170556Z AUTO 23013KT 7SM -RA BKN009 OVC032 08/07 A3012 RMK AO2 RAB52 CIG 007V013 SLP220 P0000 60006 T00830072 10106 20083 53015=
201904170456 METAR KPWT 170456Z AUTO 20010KT 10SM OVC011 08/07 A3010 RMK AO2 SLP213 T00830072=
201904170409 SPECI KPWT 170409Z AUTO 21008KT 10SM OVC009 09/08 A3010 RMK AO2 CIG 007V011=
201904170356 METAR KPWT 170356Z AUTO 22008KT 10SM OVC011 08/08 A3009 RMK AO2 CIG 008V014 SLP209 T00830078=
201904170330 SPECI KPWT 170330Z AUTO 21009KT 10SM BKN013 OVC110 08/07 A3008 RMK AO2=
201904170304 SPECI KPWT 170304Z AUTO 21012KT 10SM FEW010 SCT023 BKN110 09/07 A3008 RMK AO2=
201904170256 METAR KPWT 170256Z AUTO 22012KT 10SM SCT010 SCT016 BKN023 09/07 A3008 RMK AO2 RAE46 SLP204 P0000 60006 T00890072 51005=
201904170156 METAR KPWT 170156Z AUTO 20011KT 10SM -RA BKN010 OVC016 10/09 A3007 RMK AO2 CIG 005V013 SLP202 P0003 T01000089=
201904170148 SPECI KPWT 170148Z AUTO 20009KT 10SM -RA SCT008 BKN012 OVC016 10/09 A3007 RMK AO2 P0003=
201904170135 SPECI KPWT 170135Z AUTO 20009KT 9SM -RA BKN008 BKN016 OVC033 09/09 A3007 RMK AO2 CIG 005V011 P0003=
201904170125 SPECI KPWT 170125Z AUTO 19006KT 6SM -RA BR SCT013 BKN021 OVC033 09/09 A3007 RMK AO2 P0002=
201904170056 METAR KPWT 170056Z AUTO 20006KT 10SM -RA FEW024 BKN030 BKN037 09/09 A3006 RMK AO2 SLP199 P0003 T00940089=
201904170024 SPECI KPWT 170024Z AUTO 18006KT 10SM -RA SCT022 OVC037 10/09 A3005 RMK AO2 P0002=
201904162356 METAR KPWT 162356Z AUTO 20007KT 10SM -RA BKN025 BKN034 OVC055 11/08 A3005 RMK AO2 RAB49 SLP194 P0000 60000 T01110078 10122 20100 51008=
201904162256 METAR KPWT 162256Z AUTO 22012KT 10SM SCT025 SCT042 12/07 A3004 RMK AO2 RAE09 SLP191 P0000 T01170072=
201904162156 METAR KPWT 162156Z AUTO 23011KT 8SM -RA OVC024 11/07 A3003 RMK AO2 RAB53 SLP186 P0000 T01060072=
201904162056 METAR KPWT 162056Z AUTO 21009KT 10SM BKN024 OVC030 12/07 A3000 RMK AO2 SLP179 T01170067 51000=
201904162044 SPECI KPWT 162044Z AUTO 21010KT 10SM SCT022 BKN029 OVC037 12/07 A3001 RMK AO2=
201904162006 SPECI KPWT 162006Z AUTO 20009KT 10SM SCT023 BKN034 12/06 A3000 RMK AO2=
201904161956 METAR KPWT 161956Z AUTO 20011KT 10SM BKN021 BKN032 BKN050 12/06 A3000 RMK AO2 SLP176 T01170061=
201904161928 SPECI KPWT 161928Z AUTO 19010G16KT 10SM SCT019 OVC050 11/07 A3001 RMK AO2=
201904161856 METAR KPWT 161856Z AUTO 21009KT 10SM OVC019 11/07 A3002 RMK AO2 SLP183 T01060067=
201904161756 METAR KPWT 161756Z AUTO 19009KT 10SM OVC019 10/06 A3000 RMK AO2 SLP178 60000 T01000061 10100 20061 53018=
201904161732 SPECI KPWT 161732Z AUTO 21008KT 10SM BKN017 BKN039 OVC047 10/06 A3000 RMK AO2=
201904161708 SPECI KPWT 161708Z AUTO 20009KT 10SM FEW013 SCT019 BKN045 10/07 A2999 RMK AO2=
201904161656 METAR KPWT 161656Z AUTO 22009KT 10SM SCT011 BKN019 09/06 A2998 RMK AO2 SLP171 T00940061=
201904161642 SPECI KPWT 161642Z AUTO 22008KT 10SM BKN011 BKN016 OVC042 09/06 A2998 RMK AO2=
201904161556 METAR KPWT 161556Z AUTO 22005KT 10SM BKN007 BKN011 OVC043 08/07 A2996 RMK AO2 CIG 004V009 SLP164 T00830067=
201904161528 SPECI KPWT 161528Z AUTO 22004KT 10SM BKN005 OVC035 08/07 A2996 RMK AO2=
201904161519 SPECI KPWT 161519Z AUTO 20003KT 10SM SCT005 OVC035 08/07 A2996 RMK AO2=
201904161456 METAR KPWT 161456Z AUTO 20003KT 10SM OVC037 07/06 A2995 RMK AO2 SLP159 60000 T00720061 51021=
201904161356 METAR KPWT 161356Z AUTO 00000KT 10SM OVC039 07/06 A2993 RMK AO2 SLP154 T00670056=
201904161256 METAR KPWT 161256Z AUTO 00000KT 10SM OVC043 06/06 A2991 RMK AO2 RAB1157E30 SLP146 P0000 T00610056=
201904161156 METAR KPWT 161156Z AUTO 00000KT 10SM FEW047 OVC060 06/06 A2989 RMK AO2 SLP140 T00610056 10072 20050 51019=
201904161056 METAR KPWT 161056Z AUTO 00000KT 10SM OVC050 06/06 A2988 RMK AO2 SLP137 T00610056=
201904160956 METAR KPWT 160956Z AUTO 23003KT 10SM OVC060 06/06 A2985 RMK AO2 SLP128 T00610056=
201904160856 METAR KPWT 160856Z AUTO 00000KT 10SM BKN085 05/04 A2983 RMK AO2 SLP120 T00500044 53013=
201904160756 METAR KPWT 160756Z AUTO 00000KT 10SM BKN080 06/05 A2982 RMK AO2 SLP115 T00610050 401280033=
201904160656 METAR KPWT 160656Z AUTO 00000KT 10SM CLR 07/05 A2980 RMK AO2 SLP110 T00670050=
201904160556 METAR KPWT 160556Z AUTO 18003KT 10SM CLR 07/05 A2979 RMK AO2 RAE21 SLP107 P0000 60000 T00720050 10128 20067 51020=
201904160456 METAR KPWT 160456Z AUTO 00000KT 10SM -RA FEW060 08/06 A2978 RMK AO2 RAE34B56 SLP104 P0000 T00780056=
201904160356 METAR KPWT 160356Z AUTO 00000KT 10SM -RA FEW038 09/05 A2976 RMK AO2 RAB06 SLP095 P0000 T00890050=
201904160256 METAR KPWT 160256Z AUTO 05004KT 10SM FEW049 10/03 A2973 RMK AO2 RAB16E36 SLP088 P0000 60000 T01000033 53006=
201904160156 METAR KPWT 160156Z AUTO 00000KT 10SM FEW060 11/01 A2973 RMK AO2 SLP084 T01110011=
201904160056 METAR KPWT 160056Z AUTO 03007KT 10SM FEW080 12/02 A2972 RMK AO2 SLP081 T01170022=
201904152356 METAR KPWT 152356Z AUTO 01008KT 350V060 10SM CLR 13/01 A2972 RMK AO2 SLP081 T01280011 10128 20089 58014=
201904152256 METAR KPWT 152256Z AUTO 35005KT 10SM CLR 13/01 A2973 RMK AO2 SLP086 T01280011=
201904152156 METAR KPWT 152156Z AUTO 02006KT 10SM CLR 12/01 A2975 RMK AO2 SLP092 T01220006=
201904152056 METAR KPWT 152056Z AUTO VRB06KT 10SM CLR 12/00 A2976 RMK AO2 SLP095 T01220000 58017=
201904151956 METAR KPWT 151956Z AUTO 00000KT 10SM CLR 11/01 A2977 RMK AO2 SLP101 T01110011=
201904151856 METAR KPWT 151856Z AUTO 00000KT 10SM FEW039 09/02 A2980 RMK AO2 SLP109 T00890017=
201904151756 METAR KPWT 151756Z AUTO VRB04KT 10SM FEW028 10/02 A2981 RMK AO2 SLP113 T01000022 10100 20033 58017=
201904151656 METAR KPWT 151656Z AUTO 00000KT 10SM CLR 07/02 A2983 RMK AO2 SLP117 T00720022=
201904151614 SPECI KPWT 151614Z AUTO 00000KT 10SM SCT011 07/03 A2984 RMK AO2=
201904151607 SPECI KPWT 151607Z AUTO 00000KT 10SM BKN011 07/03 A2985 RMK AO2=
201904151556 METAR KPWT 151556Z AUTO 00000KT 10SM BKN009 07/03 A2985 RMK AO2 SLP125 T00720033=
201904151456 METAR KPWT 151456Z AUTO 00000KT 10SM OVC007 05/03 A2986 RMK AO2 CIG 005V009 SLP129 T00500033 58004=
201904151356 METAR KPWT 151356Z AUTO 00000KT 10SM OVC007 04/03 A2987 RMK AO2 CIG 003V010 SLP132 T00440033=
201904151343 SPECI KPWT 151343Z AUTO 19003KT 10SM OVC005 04/03 A2987 RMK AO2 CIG 002V009=
201904151305 SPECI KPWT 151305Z AUTO 00000KT 8SM OVC002 04/03 A2987 RMK AO2=
201904151256 METAR KPWT 151256Z AUTO 00000KT 10SM OVC004 04/03 A2987 RMK AO2 SLP134 T00390033=
201904151156 METAR KPWT 151156Z AUTO 22003KT 10SM OVC004 03/03 A2988 RMK AO2 SLP137 T00330028 10039 20028 56007=
201904151121 SPECI KPWT 151121Z AUTO 21005KT 10SM BKN004 OVC007 04/03 A2989 RMK AO2 CIG 003V006=
201904151056 METAR KPWT 151056Z AUTO 23004KT 10SM OVC006 04/03 A2988 RMK AO2 SLP136 T00390033=
201904150956 METAR KPWT 150956Z AUTO 22004KT 10SM BKN006 BKN014 OVC021 04/03 A2989 RMK AO2 CIG 005V010 SLP141 T00390033=
201904150856 METAR KPWT 150856Z AUTO 23003KT 10SM BKN008 OVC023 03/03 A2990 RMK AO2 CIG 005V010 SLP145 T00330028 58001=
201904150756 METAR KPWT 150756Z AUTO 22005KT 10SM OVC006 04/03 A2991 RMK AO2 SLP149 T00390033 401000028=
201904150656 METAR KPWT 150656Z AUTO 00000KT 10SM OVC008 03/03 A2991 RMK AO2 SLP145 T00330028=
201904150629 SPECI KPWT 150629Z AUTO 00000KT 10SM BKN008 OVC027 03/02 A2991 RMK AO2=
201904150556 METAR KPWT 150556Z AUTO 21003KT 10SM FEW017 BKN025 04/02 A2991 RMK AO2 SLP145 60000 T00390022 10078 20039 51007=
201904150456 METAR KPWT 150456Z AUTO 19007KT 10SM FEW015 BKN023 04/02 A2990 RMK AO2 SLP144 T00440022=
201904150356 METAR KPWT 150356Z AUTO 20005KT 10SM BKN017 BKN029 05/03 A2990 RMK AO2 SLP143 T00500028=
201904150345 SPECI KPWT 150345Z AUTO 20005KT 10SM BKN017 05/03 A2989 RMK AO2=
201904150312 SPECI KPWT 150312Z AUTO 21008KT 10SM SCT017 06/03 A2989 RMK AO2=
201904150256 METAR KPWT 150256Z AUTO 22009KT 10SM BKN017 06/03 A2988 RMK AO2 SLP137 60000 T00610028 56006=
201904150156 METAR KPWT 150156Z AUTO 21010KT 10SM OVC017 07/04 A2989 RMK AO2 SLP138 T00720039=
201904150112 SPECI KPWT 150112Z AUTO 18004KT 10SM BKN017 07/04 A2988 RMK AO2=
201904150056 METAR KPWT 150056Z AUTO 20009KT 10SM SCT015 07/04 A2989 RMK AO2 RAE28 SLP139 P0000 T00720039=
201904142356 METAR KPWT 142356Z AUTO 20008KT 10SM -RA FEW040 07/04 A2990 RMK AO2 RAB01 SLP144 P0000 60000 T00720039 10100 20072 50000=
201904142256 METAR KPWT 142256Z AUTO 21012KT 10SM FEW060 08/03 A2991 RMK AO2 SLP145 T00780028=
201904142156 METAR KPWT 142156Z AUTO 22015G18KT 10SM CLR 10/02 A2990 RMK AO2 SLP144 T01000022=
201904142056 METAR KPWT 142056Z AUTO 20010G21KT 10SM FEW060 09/03 A2990 RMK AO2 SLP144 T00940028 56007=
201904141956 METAR KPWT 141956Z AUTO 22013KT 10SM CLR 09/03 A2990 RMK AO2 SLP145 T00940028=
201904141856 METAR KPWT 141856Z AUTO 23012KT 10SM SCT024 SCT029 09/03 A2992 RMK AO2 SLP150 T00890033=
201904141756 METAR KPWT 141756Z AUTO 22012KT 10SM CLR 08/03 A2992 RMK AO2 SLP152 T00830028 10083 20033 58006=
201904141656 METAR KPWT 141656Z AUTO 22010KT 10SM FEW020 08/04 A2993 RMK AO2 SLP155 T00780039=
201904141556 METAR KPWT 141556Z AUTO 23008KT 10SM FEW011 06/04 A2994 RMK AO2 SLP157 T00610039=
201904141530 SPECI KPWT 141530Z AUTO 21005KT 10SM SCT010 06/03 A2994 RMK AO2=
201904141456 METAR KPWT 141456Z AUTO 00000KT 10SM OVC010 04/03 A2994 RMK AO2 SLP156 T00440028 53004=
201904141411 SPECI KPWT 141411Z AUTO 00000KT 10SM BKN012 04/03 A2994 RMK AO2=
201904141356 METAR KPWT 141356Z AUTO 00000KT 10SM SCT012 03/03 A2994 RMK AO2 SLP157 T00330028=
201904141331 SPECI KPWT 141331Z AUTO 19005KT 10SM SCT011 03/02 A2993 RMK AO2=
201904141256 METAR KPWT 141256Z AUTO 19003KT 10SM OVC011 04/03 A2992 RMK AO2 SLP152 T00390028=
201904141206 SPECI KPWT 141206Z AUTO 22005KT 10SM BKN011 OVC100 04/03 A2992 RMK AO2=
201904141156 METAR KPWT 141156Z AUTO 23003KT 10SM SCT011 OVC100 04/03 A2993 RMK AO2 SLP154 70022 T00390028 10056 20039 50007=
201904141056 METAR KPWT 141056Z AUTO 22008KT 10SM FEW013 04/02 A2993 RMK AO2 SLP153 T00440022=
201904140956 METAR KPWT 140956Z AUTO 24005KT 10SM CLR 05/03 A2992 RMK AO2 SLP150 T00500028=
201904140856 METAR KPWT 140856Z AUTO 23014KT 10SM CLR 06/03 A2991 RMK AO2 SLP147 T00560033 53003=
201904140756 METAR KPWT 140756Z AUTO 23012KT 10SM CLR 06/03 A2990 RMK AO2 SLP142 T00560033 401060050=
201904140656 METAR KPWT 140656Z AUTO 21010KT 10SM CLR 05/03 A2990 RMK AO2 SLP142 T00500033=
201904140556 METAR KPWT 140556Z AUTO 22010KT 10SM CLR 06/03 A2990 RMK AO2 SLP142 T00560033 10106 20050 51008=
201904140456 METAR KPWT 140456Z AUTO 23010KT 10SM CLR 06/03 A2990 RMK AO2 SLP141 T00560033=
201904140356 METAR KPWT 140356Z AUTO 21008KT 10SM CLR 05/03 A2989 RMK AO2 SLP139 T00500028=
201904140256 METAR KPWT 140256Z AUTO 20006KT 10SM CLR 07/03 A2987 RMK AO2 SLP136 T00720028 53019=
201904140156 METAR KPWT 140156Z AUTO 22014KT 10SM CLR 09/03 A2985 RMK AO2 SLP126 T00940033=
201904140056 METAR KPWT 140056Z AUTO 21015G24KT 10SM CLR 11/06 A2982 RMK AO2 SLP117 T01060056=
201904140009 SPECI KPWT 140009Z AUTO 20011G18KT 10SM SCT007 11/08 A2982 RMK AO2=
201904132356 METAR KPWT 132356Z AUTO 19012G18KT 10SM BKN005 10/09 A2982 RMK AO2 RAE08 CIG 003V009 SLP115 P0000 60017 T01000089 10100 20067 56015=
201904132256 METAR KPWT 132256Z AUTO 19014G19KT 10SM -RA OVC005 08/07 A2983 RMK AO2 CIG 004V007 SLP120 P0004 T00780067=
201904132156 METAR KPWT 132156Z AUTO 19014G19KT 6SM -RA BR OVC005 07/07 A2985 RMK AO2 CIG 003V010 SLP127 P0007 T00720067=
201904132105 SPECI KPWT 132105Z AUTO 19013G18KT 7SM -RA OVC005 07/06 A2986 RMK AO2 CIG 004V010 P0001=
201904132056 METAR KPWT 132056Z AUTO 18009G16KT 6SM -RA BR OVC007 07/07 A2986 RMK AO2 CIG 004V011 SLP131 P0004 60006 T00720067 58021=
201904131956 METAR KPWT 131956Z AUTO 20010G18KT 10SM -RA BKN009 BKN014 OVC020 07/06 A2988 RMK AO2 CIG 007V012 SLP137 P0001 T00670056=
201904131856 METAR KPWT 131856Z AUTO 20014G19KT 10SM -RA BKN007 OVC011 07/06 A2991 RMK AO2 CIG 004V010 SLP148 P0001 T00670056=
201904131756 METAR KPWT 131756Z AUTO 21012KT 10SM -RA BKN007 OVC015 07/06 A2992 RMK AO2 CIG 005V012 SLP152 P0001 60005 T00670061 10072 20061 56007=
201904131656 METAR KPWT 131656Z AUTO 20012G18KT 10SM -RA BKN007 BKN015 OVC025 07/06 A2992 RMK AO2 CIG 005V009 SLP152 P0001 T00670056=
201904131556 METAR KPWT 131556Z AUTO 19009G16KT 10SM -RA OVC007 07/06 A2994 RMK AO2 CIG 005V012 SLP156 P0001 T00670056=
201904131521 SPECI KPWT 131521Z AUTO 19010KT 10SM -RA BKN007 OVC026 07/06 A2993 RMK AO2 CIG 005V012 P0000=
201904131506 SPECI KPWT 131506Z AUTO 19010KT 10SM -RA SCT007 BKN028 OVC033 06/06 A2995 RMK AO2 P0000=
201904131456 METAR KPWT 131456Z AUTO 20010G18KT 10SM -RA BKN007 OVC028 06/06 A2994 RMK AO2 CIG 005V012 SLP159 P0001 60002 T00610056 56012=
201904131429 SPECI KPWT 131429Z AUTO 19012G17KT 10SM -RA BKN007 BKN022 OVC027 06/06 A2996 RMK AO2 CIG 005V012 P0001=
201904131410 SPECI KPWT 131410Z AUTO 19011G15KT 10SM -RA FEW009 BKN027 OVC041 06/06 A2995 RMK AO2 P0000=
201904131356 METAR KPWT 131356Z AUTO 19008KT 10SM -RA FEW009 SCT015 OVC039 07/06 A2996 RMK AO2 SLP164 P0001 T00670056=
201904131346 SPECI KPWT 131346Z AUTO 20010KT 10SM -RA FEW009 BKN023 OVC046 07/06 A2996 RMK AO2 P0001=
201904131256 METAR KPWT 131256Z AUTO 19012G19KT 10SM -RA FEW019 BKN060 07/04 A2996 RMK AO2 RAB51 SLP164 P0000 T00720044=
201904131225 SPECI KPWT 131225Z AUTO 19011KT 10SM SCT017 BKN070 BKN085 07/04 A2996 RMK AO2=
201904131156 METAR KPWT 131156Z AUTO 19013KT 10SM BKN017 BKN090 07/05 A2998 RMK AO2 SLP172 70016 T00720050 10083 20067 55007=
201904131056 METAR KPWT 131056Z AUTO 19012G18KT 10SM OVC090 07/05 A2996 RMK AO2 SLP166 T00720050=
201904130956 METAR KPWT 130956Z AUTO 20015G20KT 10SM FEW013 OVC100 07/06 A2998 RMK AO2 SLP173 T00720056=
201904130942 SPECI KPWT 130942Z AUTO 20012G17KT 10SM SCT012 OVC100 07/06 A2998 RMK AO2=
201904130925 SPECI KPWT 130925Z AUTO 20012KT 10SM BKN012 OVC100 07/06 A2999 RMK AO2=
201904130856 METAR KPWT 130856Z AUTO 20010KT 10SM FEW013 OVC095 07/06 A3000 RMK AO2 SLP179 T00720056 58004=
201904130846 SPECI KPWT 130846Z AUTO 20010KT 10SM SCT013 OVC095 07/06 A3000 RMK AO2=
201904130756 METAR KPWT 130756Z AUTO 20009KT 10SM BKN011 OVC100 07/06 A3001 RMK AO2 SLP182 T00720056 401280072=
201904130722 SPECI KPWT 130722Z AUTO 21008KT 10SM SCT015 OVC110 07/06 A3001 RMK AO2=
201904130708 SPECI KPWT 130708Z AUTO 20006KT 10SM BKN015 OVC110 07/06 A3001 RMK AO2=
201904130656 METAR KPWT 130656Z AUTO 20008KT 10SM OVC013 08/06 A3001 RMK AO2 SLP182 T00780061=
201904130556 METAR KPWT 130556Z AUTO 21009KT 10SM OVC013 08/07 A3003 RMK AO2 SLP187 60002 T00830067 10128 20083 55002=
201904130456 METAR KPWT 130456Z AUTO 22009KT 10SM OVC013 09/07 A3003 RMK AO2 RAE0358 SLP188 P0000 T00940072=
201904130453 SPECI KPWT 130453Z AUTO 21010KT 10SM OVC013 09/08 A3003 RMK AO2 RAE0358 P0000=
201904130356 METAR KPWT 130356Z AUTO VRB04KT 10SM -RA BKN017 OVC022 09/08 A3003 RMK AO2 RAB11 SLP189 P0002 T00940083=
201904130256 METAR KPWT 130256Z AUTO 00000KT 10SM BKN027 OVC049 11/08 A3004 RMK AO2 RAB10E22 SLP191 P0000 60000 T01060078 58002=
201904130247 SPECI KPWT 130247Z AUTO 00000KT 10SM BKN025 BKN032 OVC049 11/08 A3004 RMK AO2 RAB10E22 P0000=
201904130240 SPECI KPWT 130240Z AUTO 07003KT 10SM SCT027 OVC047 11/08 A3004 RMK AO2 RAB10E22 P0000=
201904130156 METAR KPWT 130156Z AUTO 02003KT 10SM BKN027 OVC035 12/07 A3005 RMK AO2 SLP194 T01170067=
201904130146 SPECI KPWT 130146Z AUTO 00000KT 10SM BKN028 BKN035 OVC042 12/07 A3005 RMK AO2=
201904130056 METAR KPWT 130056Z AUTO 05005KT 10SM BKN034 OVC048 12/07 A3004 RMK AO2 SLP193 T01220067=
201904122356 METAR KPWT 122356Z AUTO 07006KT 10SM FEW029 OVC048 12/07 A3004 RMK AO2 SLP193 T01170067 10128 20089 56007=
201904122305 SPECI KPWT 122305Z AUTO 00000KT 10SM BKN031 BKN037 OVC044 12/07 A3005 RMK AO2=
201904122256 METAR KPWT 122256Z AUTO 13003KT 10SM BKN029 OVC039 13/07 A3005 RMK AO2 SLP194 T01280072=
201904122254 SPECI KPWT 122254Z AUTO VRB04KT 10SM BKN029 OVC039 13/07 A3005 RMK AO2=
201904122245 SPECI KPWT 122245Z AUTO 00000KT 10SM SCT026 BKN031 OVC039 12/07 A3005 RMK AO2=
201904122222 SPECI KPWT 122222Z AUTO VRB03KT 10SM BKN026 OVC047 13/07 A3005 RMK AO2=
201904122156 METAR KPWT 122156Z AUTO 00000KT 10SM FEW024 OVC045 12/07 A3006 RMK AO2 SLP200 T01220072=
201904122143 SPECI KPWT 122143Z AUTO 10SM SCT025 OVC045 12/07 A3007 RMK AO2=
201904122056 METAR KPWT 122056Z AUTO 00000KT 10SM BKN021 OVC026 12/06 A3007 RMK AO2 SLP202 T01170061 58001=
201904122034 SPECI KPWT 122034Z AUTO 00000KT 10SM BKN018 OVC045 12/07 A3007 RMK AO2=
201904122022 SPECI KPWT 122022Z AUTO 15003KT 10SM SCT020 SCT025 OVC045 12/07 A3007 RMK AO2=
201904121956 METAR KPWT 121956Z AUTO 17003KT 10SM BKN015 OVC025 11/06 A3007 RMK AO2 SLP204 T01060061=
201904121913 SPECI KPWT 121913Z AUTO VRB04KT 10SM SCT013 OVC020 11/07 A3008 RMK AO2=
201904121856 METAR KPWT 121856Z AUTO 06004KT 10SM BKN013 OVC020 10/07 A3008 RMK AO2 SLP206 T01000067=
201904121756 METAR KPWT 121756Z AUTO 07004KT 10SM OVC013 09/07 A3007 RMK AO2 SLP203 60014 T00940067 10094 20078 51008=
201904121656 METAR KPWT 121656Z AUTO 06006KT 10SM OVC011 09/07 A3006 RMK AO2 SLP199 T00890067=
201904121556 METAR KPWT 121556Z AUTO 03005KT 10SM FEW006 OVC011 08/07 A3006 RMK AO2 SLP197 T00780067=
201904121456 METAR KPWT 121456Z AUTO 04007KT 10SM OVC009 08/07 A3005 RMK AO2 RAE50 SLP193 P0001 60014 T00780067 51013=
201904121414 SPECI KPWT 121414Z AUTO 04007KT 10SM -RA SCT004 BKN008 OVC016 08/07 A3004 RMK AO2 CIG 006V012 P0001=
201904121356 METAR KPWT 121356Z AUTO 06005KT 5SM -RA BR SCT008 BKN014 OVC027 08/07 A3004 RMK AO2 SLP193 P0007 T00780072=
201904121342 SPECI KPWT 121342Z AUTO 06004KT 4SM -RA BR SCT007 BKN026 OVC034 08/07 A3003 RMK AO2 P0007=
201904121332 SPECI KPWT 121332Z AUTO 05004KT 2 1/2SM -RA BR FEW007 SCT015 OVC027 08/07 A3003 RMK AO2 VIS 2V3 P0006=
201904121321 SPECI KPWT 121321Z AUTO 05005KT 3SM -RA BR FEW005 BKN019 OVC033 08/07 A3003 RMK AO2 P0005=
201904121314 SPECI KPWT 121314Z AUTO 05005KT 3SM RA BR FEW016 BKN024 OVC033 08/07 A3003 RMK AO2 P0004=
201904121306 SPECI KPWT 121306Z AUTO 03005KT 2 1/2SM RA BR FEW012 BKN019 OVC025 08/07 A3003 RMK AO2 VIS 2V4 P0002=
201904121259 SPECI KPWT 121259Z AUTO 04005KT 3SM RA BR FEW008 BKN013 OVC019 08/07 A3003 RMK AO2 P0001=
201904121256 METAR KPWT 121256Z AUTO 04005KT 3SM RA BR SCT011 OVC019 08/07 A3002 RMK AO2 SLP188 P0006 T00780072=
201904121250 SPECI KPWT 121250Z AUTO 04005KT 3SM RA BR SCT009 OVC018 08/07 A3002 RMK AO2 P0005=
201904121244 SPECI KPWT 121244Z AUTO 05004KT 2 1/2SM -RA BR BKN009 OVC018 08/07 A3002 RMK AO2 CIG 007V012 P0004=
201904121226 SPECI KPWT 121226Z AUTO 06005KT 3SM -RA BR OVC009 08/07 A3002 RMK AO2 CIG 005V011 P0002=
201904121209 SPECI KPWT 121209Z AUTO 00000KT 2SM -RA BR BKN006 OVC011 08/07 A3001 RMK AO2 CIG 003V009 P0001=
201904121156 METAR KPWT 121156Z AUTO 05004KT 2 1/2SM -RA BR OVC004 08/08 A3001 RMK AO2 VIS 1 3/4V5 CIG 003V010 SLP179 P0002 60006 7//// T00780078 10089 20078 53010=
201904121117 SPECI KPWT 121117Z AUTO 15004KT 4SM -RA BR OVC004 08/08 A3000 RMK AO2 P0000=
201904121109 SPECI KPWT 121109Z AUTO 00000KT 2 1/2SM -RA BR OVC004 08/08 A2999 RMK AO2 P0000=
201904121056 METAR KPWT 121056Z AUTO 13004KT 3SM -RA BR OVC004 08/08 A2998 RMK AO2 CIG 003V007 SLP172 P0001 T00780078=
201904121010 SPECI KPWT 121010Z AUTO 00000KT 10SM -RA OVC004 08/08 A2997 RMK AO2 P0000=
201904120956 METAR KPWT 120956Z AUTO 10003KT 8SM -RA OVC006 08/08 A2998 RMK AO2 CIG 004V010 SLP172 P0001 T00830078=
201904120856 METAR KPWT 120856Z AUTO 00000KT 8SM -RA OVC008 08/08 A2997 RMK AO2 SLP168 P0002 60002 T00830078 53006=
201904120840 SPECI KPWT 120840Z AUTO 00000KT 5SM -RA BR BKN008 OVC015 08/08 A2997 RMK AO2 CIG 005V011 P0001=
201904120827 SPECI KPWT 120827Z AUTO 15003KT 7SM -RA SCT005 OVC012 08/08 A2997 RMK AO2 P0001=
201904120820 SPECI KPWT 120820Z AUTO 14004KT 8SM -RA BKN007 BKN010 OVC015 08/08 A2997 RMK AO2 CIG 004V009 P0001=
201904120756 METAR KPWT 120756Z AUTO 19003KT 10SM -RA BKN004 OVC008 08/08 A2997 RMK AO2 SLP168 P0000 T00830078 401170067=
201904120738 SPECI KPWT 120738Z AUTO 00000KT 8SM -RA BKN004 OVC010 08/08 A2996 RMK AO2 P0000=
201904120722 SPECI KPWT 120722Z AUTO 21003KT 10SM -RA FEW004 OVC010 08/08 A2996 RMK AO2 P0000=
201904120656 METAR KPWT 120656Z AUTO 20003KT 10SM -RA OVC012 09/08 A2996 RMK AO2 RAB49 SLP164 P0000 T00890078=
201904120640 SPECI KPWT 120640Z AUTO 20004KT 10SM OVC014 09/08 A2996 RMK AO2=
201904120618 SPECI KPWT 120618Z AUTO 00000KT 10SM FEW007 OVC016 09/08 A2996 RMK AO2=
201904120605 SPECI KPWT 120605Z AUTO 20004KT 10SM SCT009 BKN013 OVC019 09/08 A2996 RMK AO2=
201904120556 METAR KPWT 120556Z AUTO 20004KT 10SM BKN009 OVC013 09/08 A2996 RMK AO2 SLP162 6//// T00890078 10117 20089 51011=
201904120546 SPECI KPWT 120546Z AUTO 00000KT 10SM SCT009 OVC013 09/08 A2995 RMK AO2=
201904120515 SPECI KPWT 120515Z AUTO 20003KT 10SM SCT009 OVC015 09/08 A2995 RMK AO2=
201904120456 METAR KPWT 120456Z AUTO 19003KT 10SM OVC009 09/08 A2995 RMK AO2 SLP159 T00890078=
201904120443 SPECI KPWT 120443Z AUTO 16003KT 10SM OVC009 09/08 A2995 RMK AO2=
201904120356 METAR KPWT 120356Z AUTO 17004KT 10SM OVC013 09/08 A2993 RMK AO2 SLP155 T00940078=
201904120313 SPECI KPWT 120313Z AUTO 20005KT 10SM OVC013 09/08 A2993 RMK AO2=
201904120256 METAR KPWT 120256Z AUTO 21004KT 10SM OVC015 09/08 A2992 RMK AO2 SLP151 6//// T00940083 55003=
201904120156 METAR KPWT 120156Z AUTO 20010KT 10SM OVC015 11/09 A2991 RMK AO2 SLP148 T01110089=
201904120056 METAR KPWT 120056Z AUTO 19007KT 10SM SCT009 OVC017 11/09 A2992 RMK AO2 SLP149 T01110094=
201904120050 SPECI KPWT 120050Z AUTO 18008KT 10SM SCT007 OVC017 11/09 A2992 RMK AO2=
201904112356 METAR KPWT 112356Z AUTO 19010G15KT 10SM OVC007 10/09 A2993 RMK AO2 RAE12 CIG 005V010 SLP155 P0000 60005 T01000094 10106 20083=
201904112256 METAR KPWT 112256Z AUTO 20009KT 9SM -RA BKN007 OVC015 10/09 A2996 RMK AO2 CIG 006V011 SLP162 P0002 T01000089=
201904112156 METAR KPWT 112156Z AUTO 20010KT 6SM -RA BR BKN009 OVC014 10/09 RMK AO2 CIG 005V011 SLPNO P0002 T01000089 $=
201904112056 METAR KPWT 112056Z AUTO 20007KT 7SM -RA BKN007 BKN010 OVC016 09/08 A3000 RMK AO2 RAE00B42 CIG 004V009 SLP177 P0000 60001 T00940083 56017=
201904112051 SPECI KPWT 112051Z AUTO 19010KT 7SM -RA BKN007 OVC016 09/08 A3000 RMK AO2 RAE00B42 CIG 005V009 P0000=
201904112046 SPECI KPWT 112046Z AUTO 20007KT 9SM -RA SCT007 OVC016 09/08 A3000 RMK AO2 RAE00B42 P0000=
201904111956 METAR KPWT 111956Z AUTO 20010KT 10SM -RA BKN009 OVC013 11/09 A3001 RMK AO2 RAB01 CIG 006V010 SLP184 P0001 T01060094=
201904111856 METAR KPWT 111856Z AUTO 20008KT 10SM BKN009 OVC014 09/08 A3003 RMK AO2 RAE01 CIG 007V013 SLP188 P0000 T00940078=
201904111756 METAR KPWT 111756Z AUTO 21005KT 6SM -RA BR SCT006 BKN009 OVC017 08/07 A3005 RMK AO2 RAB48 SLP195 P0000 60001 T00830072 10089 20067 58013=
201904111656 METAR KPWT 111656Z AUTO 22005KT 10SM OVC007 08/07 A3007 RMK AO2 SLP201 T00780067=
201904111556 METAR KPWT 111556Z AUTO 24003KT 10SM BKN007 BKN011 OVC015 07/06 A3008 RMK AO2 CIG 006V009 SLP204 T00720061=
201904111456 METAR KPWT 111456Z AUTO 00000KT 10SM OVC009 07/06 A3009 RMK AO2 SLP208 60001 T00670061 58002=
201904111356 METAR KPWT 111356Z AUTO 00000KT 10SM BKN011 OVC023 07/06 A3010 RMK AO2 RAE39 SLP210 P0000 T00670061=
201904111352 SPECI KPWT 111352Z AUTO 00000KT 10SM BKN011 OVC023 07/06 A3010 RMK AO2 RAE39 P0000=
201904111344 SPECI KPWT 111344Z AUTO 00000KT 10SM BKN008 BKN015 OVC023 07/06 A3010 RMK AO2 RAE39 P0000=
201904111324 SPECI KPWT 111324Z AUTO 00000KT 10SM -RA SCT008 BKN023 07/06 A3010 RMK AO2 P0000=
201904111316 SPECI KPWT 111316Z AUTO 00000KT 10SM -RA FEW008 SCT023 07/06 A3010 RMK AO2 P0000=
201904111256 METAR KPWT 111256Z AUTO 00000KT 10SM -RA SCT021 07/06 A3010 RMK AO2 RAB01 SLP212 P0001 T00670061=
201904111213 SPECI KPWT 111213Z AUTO 00000KT 10SM -RA FEW006 BKN019 07/06 A3011 RMK AO2 RAB01 P0000=
201904111156 METAR KPWT 111156Z AUTO 19004KT 10SM BKN006 OVC021 07/06 A3011 RMK AO2 SLP216 60002 70003 T00670061 10078 20067 56013=
201904111103 SPECI KPWT 111103Z AUTO 18004KT 10SM OVC006 07/07 A3011 RMK AO2 CIG 003V010=
201904111056 METAR KPWT 111056Z AUTO 18003KT 10SM OVC004 07/07 A3012 RMK AO2 CIG 003V010 SLP218 T00720067=
201904110956 METAR KPWT 110956Z AUTO 19003KT 10SM OVC004 08/07 A3013 RMK AO2 RAE54 SLP222 P0000 T00780072=
201904110856 METAR KPWT 110856Z AUTO 19003KT 10SM -RA OVC004 08/07 A3015 RMK AO2 SLP229 P0000 60002 T00780072 57016=
201904110827 SPECI KPWT 110827Z AUTO 00000KT 10SM -RA OVC004 08/07 A3016 RMK AO2 P0000=
201904110756 METAR KPWT 110756Z AUTO 10003KT 10SM -RA OVC008 08/07 A3016 RMK AO2 CIG 005V010 SLP233 P0001 T00780072 401330011=
201904110744 SPECI KPWT 110744Z AUTO 10003KT 10SM OVC009 08/07 A3017 RMK AO2 RAE44 CIG 006V011 P0001=
201904110704 SPECI KPWT 110704Z AUTO 11003KT 10SM -RA OVC013 08/07 A3018 RMK AO2 P0000=
201904110656 METAR KPWT 110656Z AUTO 10003KT 9SM -RA OVC015 08/07 A3018 RMK AO2 RAB04 SLP238 P0001 T00780067=
201904110645 SPECI KPWT 110645Z AUTO 00000KT 8SM -RA OVC015 08/07 A3018 RMK AO2 RAB04 P0001=
201904110556 METAR KPWT 110556Z AUTO 07004KT 10SM OVC013 08/07 A3020 RMK AO2 SLP244 60000 T00780067 10128 20078 53004=
201904110456 METAR KPWT 110456Z AUTO 08005KT 10SM OVC013 08/07 A3019 RMK AO2 SLP242 T00780067=
201904110356 METAR KPWT 110356Z AUTO 06007KT 10SM OVC013 08/07 A3018 RMK AO2 SLP240 T00780067=
201904110344 SPECI KPWT 110344Z AUTO 07005KT 10SM OVC013 08/07 A3018 RMK AO2=
201904110306 SPECI KPWT 110306Z AUTO 06008KT 10SM OVC015 08/07 A3018 RMK AO2=
201904110256 METAR KPWT 110256Z AUTO 05008KT 10SM OVC013 08/07 A3018 RMK AO2 RAB19E32 SLP241 P0000 60000 T00830067 52000=
201904110225 SPECI KPWT 110225Z AUTO 05010KT 10SM -RA FEW009 OVC013 08/07 A3018 RMK AO2 RAB19 P0000=
201904110218 SPECI KPWT 110218Z AUTO 04004KT 10SM OVC011 08/07 A3018 RMK AO2=
201904110208 SPECI KPWT 110208Z AUTO 06005KT 10SM BKN009 BKN018 OVC027 09/07 A3018 RMK AO2 CIG 007V013=
201904110156 METAR KPWT 110156Z AUTO VRB04KT 10SM SCT009 BKN018 OVC029 09/08 A3018 RMK AO2 RAB28E41 SLP240 P0000 T00940078=
201904110153 SPECI KPWT 110153Z AUTO 00000KT 10SM FEW009 SCT018 OVC029 09/08 A3018 RMK AO2 RAB28E41 P0000=
201904110056 METAR KPWT 110056Z AUTO 23012G17KT 10SM OVC020 12/08 A3018 RMK AO2 SLP239 T01220083=
201904102356 METAR KPWT 102356Z AUTO 20013G18KT 10SM BKN020 OVC075 12/08 A3019 RMK AO2 PK WND 23026/2300 SLP242 60001 T01170078 10133 20083 58015=
201904102344 SPECI KPWT 102344Z AUTO 21014G20KT 10SM BKN020 BKN075 12/07 A3019 RMK AO2 PK WND 23026/2300=
201904102256 METAR KPWT 102256Z AUTO 21015G28KT 10SM FEW021 13/07 A3021 RMK AO2 PK WND 23030/2212 SLP247 T01280067=
201904102156 METAR KPWT 102156Z AUTO 22017G25KT 10SM FEW018 12/07 A3022 RMK AO2 PK WND 24030/2104 SLP254 T01220072=
201904102056 METAR KPWT 102056Z AUTO 22021G26KT 10SM FEW015 11/07 A3024 RMK AO2 PK WND 21028/2027 SLP258 60001 T01110067 58024=
201904102045 SPECI KPWT 102045Z AUTO 21022G26KT 10SM SCT015 11/07 A3024 RMK AO2 PK WND 21028/2027=
201904102017 SPECI KPWT 102017Z AUTO 21020G26KT 10SM OVC015 11/07 A3025 RMK AO2 PK WND 22027/2007=
201904102008 SPECI KPWT 102008Z AUTO 21020G27KT 10SM BKN011 OVC017 11/08 A3025 RMK AO2 PK WND 22027/2007=
201904101956 METAR KPWT 101956Z AUTO 21018G24KT 10SM OVC009 10/08 A3026 RMK AO2 RAE35 CIG 006V013 SLP265 P0000 T01000083=
201904101856 METAR KPWT 101856Z AUTO 19011G18KT 10SM -RA OVC007 08/07 A3029 RMK AO2 CIG 005V010 SLP276 P0001 T00830072=
201904101756 METAR KPWT 101756Z AUTO 20010KT 10SM -RA OVC009 08/07 A3031 RMK AO2 RAB41 CIG 008V013 SLP283 P0000 60000 T00830067 10083 20039 58016=
201904101709 SPECI KPWT 101709Z AUTO 20011KT 10SM OVC009 08/06 A3032 RMK AO2=
201904101656 METAR KPWT 101656Z AUTO 20011KT 10SM BKN011 BKN095 08/06 A3033 RMK AO2 SLP290 T00780061=
201904101613 SPECI KPWT 101613Z AUTO 20010KT 10SM BKN011 07/06 A3034 RMK AO2=
201904101556 METAR KPWT 101556Z AUTO 20008KT 10SM CLR 07/06 A3034 RMK AO2 SLP294 T00670056=
201904101456 METAR KPWT 101456Z AUTO 19004KT 10SM FEW100 06/05 A3036 RMK AO2 SLP299 T00610050 58003=
201904101356 METAR KPWT 101356Z AUTO 00000KT 10SM CLR 05/04 A3036 RMK AO2 SLP301 T00500039=
201904101312 SPECI KPWT 101312Z AUTO 23003KT 10SM SCT023 SCT110 05/04 A3037 RMK AO2=
201904101256 METAR KPWT 101256Z AUTO 23003KT 10SM BKN023 OVC110 04/04 A3037 RMK AO2 SLP303 T00440039=
201904101156 METAR KPWT 101156Z AUTO 00000KT 10SM FEW043 04/04 A3036 RMK AO2 SLP301 7//// T00440039 10072 20011 53005=
201904101146 SPECI KPWT 101146Z AUTO 00000KT 10SM SCT020 SCT043 04/03 A3037 RMK AO2=
201904101106 SPECI KPWT 101106Z AUTO 00000KT 10SM BKN020 OVC040 04/04 A3036 RMK AO2=
201904101056 METAR KPWT 101056Z AUTO 00000KT 10SM SCT020 OVC040 04/03 A3036 RMK AO2 SLP301 T00390033=
201904100956 METAR KPWT 100956Z AUTO 16003KT 9SM CLR 02/02 A3035 RMK AO2 SLP296 T00170017 FZRANO=
201904100856 METAR KPWT 100856Z AUTO 00000KT 10SM CLR 04/03 A3035 RMK AO2 SLP296 T00390033 50005=
201904100756 METAR KPWT 100756Z AUTO 00000KT 10SM FEW034 04/03 A3035 RMK AO2 SLP297 T00440033 401560044=
201904100656 METAR KPWT 100656Z AUTO 00000KT 10SM BKN033 OVC050 07/05 A3035 RMK AO2 SLP298 T00670050=
201904100556 METAR KPWT 100556Z AUTO 00000KT 10SM BKN046 06/05 A3034 RMK AO2 SLP292 6//// T00610050 10139 20061 51016=
201904100456 METAR KPWT 100456Z AUTO 00000KT 10SM BKN038 07/06 A3032 RMK AO2 SLP287 T00720056=
201904100428 SPECI KPWT 100428Z AUTO 00000KT 10SM SCT027 OVC034 08/06 A3031 RMK AO2=
201904100356 METAR KPWT 100356Z AUTO 06003KT 10SM OVC023 09/06 A3031 RMK AO2 SLP282 T00890056=
201904100256 METAR KPWT 100256Z AUTO 08004KT 10SM BKN025 09/06 A3029 RMK AO2 SLP275 T00940061 51020=
201904100156 METAR KPWT 100156Z AUTO 07009KT 10SM SCT045 11/06 A3027 RMK AO2 SLP269 T01060061=
201904100056 METAR KPWT 100056Z AUTO 06007KT 10SM SCT042 12/07 A3025 RMK AO2 SLP263 T01220067=
201904092356 METAR KPWT 092356Z AUTO 05012KT 10SM FEW085 12/07 A3023 RMK AO2 WSHFT 2319 SLP256 60000 T01220072 10156 20100 53008=
201904092339 SPECI KPWT 092339Z AUTO 05007KT 10SM SCT050 BKN085 12/07 A3023 RMK AO2 WSHFT 2319=
201904092256 METAR KPWT 092256Z AUTO VRB03KT 10SM OVC048 16/06 A3022 RMK AO2 RAB39E55 SLP251 P0000 T01560056=
201904092156 METAR KPWT 092156Z AUTO 06008KT 10SM SCT036 BKN042 OVC065 13/08 A3021 RMK AO2 SLP249 T01330078=
201904092056 METAR KPWT 092056Z AUTO 07006KT 10SM BKN036 OVC047 13/08 A3020 RMK AO2 SLP246 T01280078 51006=
201904092042 SPECI KPWT 092042Z AUTO 12003KT 10SM SCT028 BKN034 OVC048 13/07 A3020 RMK AO2=
201904092018 SPECI KPWT 092018Z AUTO VRB03KT 10SM BKN028 BKN033 14/07 A3020 RMK AO2=
201904091956 METAR KPWT 091956Z AUTO 32004KT 10SM FEW024 SCT033 13/07 A3020 RMK AO2 SLP246 T01280072=
201904091856 METAR KPWT 091856Z AUTO VRB03KT 10SM FEW015 BKN031 BKN080 12/07 A3020 RMK AO2 SLP247 T01170067=
201904091849 SPECI KPWT 091849Z AUTO 00000KT 10SM FEW015 SCT024 BKN031 11/06 A3020 RMK AO2=
201904091821 SPECI KPWT 091821Z AUTO 13005KT 10SM SCT013 BKN020 BKN026 10/07 A3019 RMK AO2=
201904091806 SPECI KPWT 091806Z AUTO 19005KT 10SM BKN014 OVC020 10/07 A3019 RMK AO2=
201904091756 METAR KPWT 091756Z AUTO 20006KT 10SM BKN017 10/08 A3018 RMK AO2 SLP242 60001 T01000078 10100 20072 52023=
201904091733 SPECI KPWT 091733Z AUTO 18004KT 10SM SCT008 OVC015 09/07 A3018 RMK AO2=
201904091656 METAR KPWT 091656Z AUTO 19005KT 10SM BKN008 OVC012 09/07 A3016 RMK AO2 CIG 005V010 SLP234 T00890072=
201904091636 SPECI KPWT 091636Z AUTO 18007KT 10SM BKN006 BKN010 OVC024 08/07 A3015 RMK AO2 CIG 004V009=
201904091556 METAR KPWT 091556Z AUTO 19007KT 10SM OVC004 08/07 A3014 RMK AO2 RAE16 SLP225 P0000 T00780072=
201904091538 SPECI KPWT 091538Z AUTO VRB04KT 10SM BKN004 OVC008 08/07 A3013 RMK AO2 RAE16 CIG 003V007 P0000=
201904091521 SPECI KPWT 091521Z AUTO 00000KT 10SM BKN006 OVC012 08/07 A3013 RMK AO2 RAE16 CIG 003V010 P0000=
201904091456 METAR KPWT 091456Z AUTO 00000KT 4SM -RA BR OVC005 07/07 A3012 RMK AO2 CIG 003V007 SLP217 P0001 60001 T00720067 53033=
201904091419 SPECI KPWT 091419Z AUTO 19004KT 7SM -RA BKN009 OVC020 07/07 A3009 RMK AO2 CIG 005V011 P0000=
201904091409 SPECI KPWT 091409Z AUTO 00000KT 10SM -RA SCT006 OVC011 07/07 A3009 RMK AO2 P0000=
201904091256 METAR KPWT 091256Z AUTO 06006KT 10SM -RA FEW009 BKN020 OVC026 07/06 A3004 RMK AO2 RAB56 SLP192 P0000 T00720061=
201904091207 SPECI KPWT 091207Z AUTO 04007KT 10SM SCT008 OVC022 07/07 A3002 RMK AO2=
201904091156 METAR KPWT 091156Z AUTO 05008KT 10SM BKN006 OVC022 07/07 A3002 RMK AO2 RAE49 CIG 004V010 SLP184 P0002 60015 70029 T00720067 10089 20072 53008=
201904091137 SPECI KPWT 091137Z AUTO 04008KT 6SM -RA BR BKN006 OVC022 07/07 A3001 RMK AO2 CIG 003V009 P0002=
201904091056 METAR KPWT 091056Z AUTO 04008KT 3SM -RA BR FEW004 BKN015 OVC020 07/07 A3001 RMK AO2 SLP182 P0011 T00720072=
201904091024 SPECI KPWT 091024Z AUTO 04008KT 2 1/2SM -RA BR SCT005 OVC011 08/07 A3000 RMK AO2 P0006=
201904091021 SPECI KPWT 091021Z AUTO 05008KT 3SM -RA BR BKN005 OVC009 08/07 A3000 RMK AO2 CIG 002V008 P0005=
201904090956 METAR KPWT 090956Z AUTO 00000KT 2SM -RA BR OVC003 09/08 A2999 RMK AO2 RAB23 SLP176 P0002 T00890083=
201904090954 SPECI KPWT 090954Z AUTO 00000KT 2SM -RA BR OVC003 09/08 A2999 RMK AO2 RAB23 P0002=
201904090934 SPECI KPWT 090934Z AUTO 00000KT 2SM -RA BR OVC005 09/08 A2999 RMK AO2 RAB23 P0001=
201904090921 SPECI KPWT 090921Z AUTO 00000KT 6SM BR OVC005 09/08 A2999 RMK AO2=
201904090856 METAR KPWT 090856Z AUTO 23004KT 8SM BKN007 OVC010 09/08 A2999 RMK AO2 CIG 006V010 SLP176 T00890083 52008=
201904090814 SPECI KPWT 090814Z AUTO 24003KT 10SM OVC010 09/08 A2999 RMK AO2 CIG 006V014=
201904090756 METAR KPWT 090756Z AUTO 23007KT 10SM OVC008 09/08 A2999 RMK AO2 SLP174 T00890078 401330056=
201904090735 SPECI KPWT 090735Z AUTO 22005KT 10SM OVC008 08/08 A2998 RMK AO2 CIG 007V011=
201904090712 SPECI KPWT 090712Z AUTO 21005KT 10SM BKN010 OVC048 08/08 A2998 RMK AO2 CIG 008V014=
201904090656 METAR KPWT 090656Z AUTO 20007KT 10SM FEW010 SCT036 BKN048 08/08 A2998 RMK AO2 SLP171 T00830078=
201904090640 SPECI KPWT 090640Z AUTO 21008KT 10SM SCT010 SCT026 OVC042 09/08 A2997 RMK AO2=
201904090611 SPECI KPWT 090611Z AUTO 22005KT 10SM BKN012 BKN031 08/08 A2997 RMK AO2=
201904090603 SPECI KPWT 090603Z AUTO 21005KT 10SM FEW008 SCT012 BKN031 08/08 A2997 RMK AO2=
201904090456 METAR KPWT 090456Z AUTO 21009KT 7SM -RA BKN008 OVC018 09/09 A2997 RMK AO2 RAB37 CIG 005V010 SLP168 P0000 T00940089=
201904090432 SPECI KPWT 090432Z AUTO 22006KT 7SM BKN008 BKN018 OVC055 09/09 A2996 RMK AO2 CIG 006V011=
201904090423 SPECI KPWT 090423Z AUTO VRB03KT 10SM BKN010 OVC055 09/08 A2996 RMK AO2=
201904090356 METAR KPWT 090356Z AUTO 23006KT 10SM SCT010 BKN031 BKN045 09/08 A2996 RMK AO2 RAB15E25 SLP164 P0000 T00940083=
201904090347 SPECI KPWT 090347Z AUTO 21006KT 10SM BKN010 BKN035 OVC055 09/08 A2995 RMK AO2 RAB15E25 P0000=
201904090256 METAR KPWT 090256Z AUTO 22006KT 10SM SCT010 BKN045 BKN050 10/09 A2994 RMK AO2 SLP157 60002 T01000089 55002=
201904090156 METAR KPWT 090156Z AUTO 21011KT 10SM OVC043 11/09 A2992 RMK AO2 SLP153 T01110094=
201904090056 METAR KPWT 090056Z AUTO 20007KT 10SM FEW015 SCT031 OVC050 12/11 A2993 RMK AO2 RAE51 SLP154 P0002 T01170106=
201904082356 METAR KPWT 082356Z AUTO 21006KT 5SM -RA BR FEW025 BKN030 OVC041 11/09 A2994 RMK AO2 LTG DSNT SE SLP158 P0009 60011 T01060089 10133 20094 55005=
201904082256 METAR KPWT 082256Z AUTO 23003KT 10SM -RA FEW008 SCT030 BKN038 12/11 A2994 RMK AO2 RAB23 SLP159 P0001 T01170106=
201904082156 METAR KPWT 082156Z AUTO 18004KT 10SM FEW011 BKN041 OVC055 12/09 A2995 RMK AO2 RAB15E40 SLP162 P0001 T01220094=
201904082140 SPECI KPWT 082140Z AUTO 21004KT 10SM FEW013 BKN030 OVC055 12/10 A2995 RMK AO2 RAB15E40 CIG 024V036 P0001=
201904082056 METAR KPWT 082056Z AUTO 22006KT 10SM OVC015 13/09 A2996 RMK AO2 SLP164 T01280094 58008=
201904082038 SPECI KPWT 082038Z AUTO 20006KT 10SM BKN013 OVC050 13/09 A2996 RMK AO2=
201904082020 SPECI KPWT 082020Z AUTO 23008KT 10SM SCT011 OVC050 12/09 A2997 RMK AO2=
201904081956 METAR KPWT 081956Z AUTO 23009KT 10SM OVC011 12/09 A2997 RMK AO2 SLP166 T01170089=
201904081856 METAR KPWT 081856Z AUTO 22006KT 10SM OVC007 10/08 A2998 RMK AO2 SLP171 T01000083=
201904081756 METAR KPWT 081756Z AUTO 23004KT 10SM OVC007 09/08 A2998 RMK AO2 CIG 006V011 SLP171 60001 T00940078 10094 20067 56003=
201904081707 SPECI KPWT 081707Z AUTO 00000KT 6SM BR OVC009 09/07 A2998 RMK AO2 CIG 007V012=
201904081656 METAR KPWT 081656Z AUTO 17003KT 9SM FEW007 OVC012 09/07 A2998 RMK AO2 RAE17 SLP171 P0000 T00890072=
201904081652 SPECI KPWT 081652Z AUTO 17003KT 10SM FEW007 OVC014 09/07 A2998 RMK AO2 RAE17 P0000=
201904081611 SPECI KPWT 081611Z AUTO 00000KT 7SM -RA SCT007 OVC021 09/08 A2999 RMK AO2 P0000=
201904081556 METAR KPWT 081556Z AUTO 00000KT 10SM -RA OVC021 09/07 A2999 RMK AO2 RAB08 SLP174 P0000 T00890072=
201904081525 SPECI KPWT 081525Z AUTO 00000KT 10SM BKN025 OVC030 08/07 A2999 RMK AO2 RAB08E24 P0000=
201904081456 METAR KPWT 081456Z AUTO 00000KT 10SM OVC032 08/07 A2999 RMK AO2 RAE13 SLP174 P0000 60001 T00830067 53003=
201904081356 METAR KPWT 081356Z AUTO 00000KT 10SM -RA OVC036 07/07 A2997 RMK AO2 RAE23B54 SLP168 P0001 T00720067=
201904081256 METAR KPWT 081256Z AUTO 00000KT 10SM -RA OVC044 07/06 A2997 RMK AO2 RAB10 SLP170 P0000 T00720061=
201904081156 METAR KPWT 081156Z AUTO 00000KT 10SM BKN046 OVC075 07/06 A2998 RMK AO2 SLP169 70001 T00720061 10078 20056 56017=
201904081056 METAR KPWT 081056Z AUTO 03004KT 10SM BKN050 OVC060 07/06 A2999 RMK AO2 SLP176 T00720061=
201904080956 METAR KPWT 080956Z AUTO 00000KT 10SM OVC100 07/06 A3001 RMK AO2 SLP179 T00670056=
201904080856 METAR KPWT 080856Z AUTO 00000KT 10SM OVC100 06/05 A3002 RMK AO2 SLP186 T00610050 58004=
201904080756 METAR KPWT 080756Z AUTO 00000KT 10SM SCT110 06/06 A3003 RMK AO2 SLP189 T00610056 401170050=
201904080656 METAR KPWT 080656Z AUTO 00000KT 10SM CLR 06/06 A3003 RMK AO2 SLP189 T00610056=
201904080556 METAR KPWT 080556Z AUTO 00000KT 10SM OVC120 07/06 A3004 RMK AO2 SLP191 T00670056 10111 20061 58007=
201904080456 METAR KPWT 080456Z AUTO 00000KT 10SM CLR 07/06 A3004 RMK AO2 SLP193 T00670061=
201904080356 METAR KPWT 080356Z AUTO 06005KT 10SM CLR 08/06 A3006 RMK AO2 SLP197 T00780056=
201904080256 METAR KPWT 080256Z AUTO 05004KT 10SM OVC043 10/07 A3006 RMK AO2 SLP198 T01000067 56002=
201904080156 METAR KPWT 080156Z AUTO 05003KT 10SM CLR 11/07 A3006 RMK AO2 SLP197 T01060072=
201904080056 METAR KPWT 080056Z AUTO 06003KT 10SM FEW032 SCT039 OVC049 11/07 A3006 RMK AO2 SLP198 T01110072=
201904080048 SPECI KPWT 080048Z AUTO 05005KT 10SM SCT027 BKN036 OVC049 11/07 A3006 RMK AO2=
201904072356 METAR KPWT 072356Z AUTO 05006KT 10SM OVC023 11/07 A3007 RMK AO2 SLP200 T01060072 10117 20083 50006=
201904072256 METAR KPWT 072256Z AUTO 00000KT 10SM BKN023 OVC030 11/07 A3007 RMK AO2 SLP202 T01110067=
201904072156 METAR KPWT 072156Z AUTO 16005KT 10SM OVC026 11/07 A3006 RMK AO2 SLP197 T01110067=
201904072056 METAR KPWT 072056Z AUTO VRB03KT 10SM SCT018 OVC024 11/07 A3005 RMK AO2 SLP194 T01060067 51016=
201904072018 SPECI KPWT 072018Z AUTO 21004KT 10SM SCT014 OVC022 09/06 A3005 RMK AO2=
201904071956 METAR KPWT 071956Z AUTO 23003KT 10SM BKN014 OVC020 09/06 A3004 RMK AO2 SLP193 T00890061=
201904071924 SPECI KPWT 071924Z AUTO 21005KT 10SM OVC014 09/06 A3003 RMK AO2=
201904071856 METAR KPWT 071856Z AUTO 21009KT 10SM OVC014 08/05 A3002 RMK AO2 SLP186 T00830050=
201904071837 SPECI KPWT 071837Z AUTO 24007KT 10SM BKN012 OVC018 08/06 A3002 RMK AO2=
201904071756 METAR KPWT 071756Z AUTO 20008KT 10SM BKN009 OVC021 08/06 A3000 RMK AO2 CIG 006V014 SLP177 60001 T00830061 10083 20050 53038=
201904071721 SPECI KPWT 071721Z AUTO 22007KT 10SM OVC009 07/06 A2998 RMK AO2=
201904071656 METAR KPWT 071656Z AUTO 21004KT 10SM BKN011 07/05 A2996 RMK AO2 SLP163 T00720050=
201904071625 SPECI KPWT 071625Z AUTO VRB03KT 10SM SCT005 OVC011 07/06 A2994 RMK AO2=
201904071605 SPECI KPWT 071605Z AUTO 28003KT 10SM BKN005 OVC011 06/05 A2993 RMK AO2 CIG 003V008=
201904071556 METAR KPWT 071556Z AUTO 00000KT 10SM SCT003 OVC011 06/05 A2992 RMK AO2 SLP152 T00610050=
201904071534 SPECI KPWT 071534Z AUTO 26004KT 10SM FEW003 OVC011 06/05 A2991 RMK AO2=
201904071519 SPECI KPWT 071519Z AUTO 24004KT 10SM BKN011 06/05 A2990 RMK AO2=
201904071456 METAR KPWT 071456Z AUTO 00000KT 10SM CLR 05/04 A2989 RMK AO2 SLP139 60001 T00500044 53033=
201904071404 SPECI KPWT 071404Z AUTO 29003KT 10SM FEW002 OVC030 06/05 A2985 RMK AO2=
201904071356 METAR KPWT 071356Z AUTO 00000KT 10SM OVC032 06/05 A2984 RMK AO2 SLP124 T00560050=
201904071256 METAR KPWT 071256Z AUTO 00000KT 10SM OVC040 06/05 A2982 RMK AO2 RAE22 SLP115 P0001 T00560050=
201904071156 METAR KPWT 071156Z AUTO 00000KT 10SM -RA FEW022 BKN046 OVC055 05/04 A2979 RMK AO2 SLP105 P0001 60030 70065 T00500039 10078 20050 55012=
201904071056 METAR KPWT 071056Z AUTO 32005KT 10SM RA FEW033 OVC045 05/04 A2978 RMK AO2 SLP102 P0005 T00500044=
201904070956 METAR KPWT 070956Z AUTO 31004KT 10SM -RA FEW023 OVC031 06/05 A2979 RMK AO2 SLP107 P0007 T00560050=
201904070919 SPECI KPWT 070919Z AUTO 33003KT 8SM RA FEW020 SCT027 OVC032 06/06 A2980 RMK AO2 P0003=
201904070856 METAR KPWT 070856Z AUTO 00000KT 4SM RA BR BKN020 OVC026 06/06 A2982 RMK AO2 SLP116 P0010 60017 T00610056 56015=
201904070843 SPECI KPWT 070843Z AUTO 00000KT 4SM RA BR FEW008 OVC022 06/06 A2982 RMK AO2 P0008=
201904070756 METAR KPWT 070756Z AUTO 00000KT 5SM RA BR BKN024 BKN030 OVC034 06/06 A2983 RMK AO2 SLP119 P0005 T00610056 401280028=
201904070656 METAR KPWT 070656Z AUTO 18003KT 9SM -RA OVC027 07/05 A2984 RMK AO2 SLP124 P0002 T00670050=
201904070638 SPECI KPWT 070638Z AUTO 21004KT 10SM -RA BKN029 OVC036 07/05 A2986 RMK AO2 P0001=
201904070556 METAR KPWT 070556Z AUTO 18006KT 10SM -RA BKN037 BKN048 08/06 A2986 RMK AO2 RAE03B30 SLP131 P0000 60000 T00780056 10111 20078 51002=
201904070456 METAR KPWT 070456Z AUTO 14004KT 10SM -RA BKN049 BKN060 08/06 A2986 RMK AO2 RAB43 SLP131 P0000 T00830056=
201904070356 METAR KPWT 070356Z AUTO 23007KT 10SM FEW050 09/06 A2987 RMK AO2 SLP132 T00890056=
201904070256 METAR KPWT 070256Z AUTO 23006KT 10SM CLR 09/05 A2986 RMK AO2 SLP129 T00940050 50005=
201904070156 METAR KPWT 070156Z AUTO 21010KT 10SM CLR 10/04 A2986 RMK AO2 SLP130 T01000044=
201904070056 METAR KPWT 070056Z AUTO 21011KT 10SM CLR 11/05 A2986 RMK AO2 SLP130 T01110050=
201904062356 METAR KPWT 062356Z AUTO 22014G22KT 10SM FEW049 11/05 A2984 RMK AO2 PK WND 22028/2318 RAB15E33 SLP125 P0001 60003 T01060050 10128 20083 51022=
201904062256 METAR KPWT 062256Z AUTO 22015G21KT 10SM SCT060 12/06 A2982 RMK AO2 RAB24E38 SLP117 P0000 T01220061=
201904062156 METAR KPWT 062156Z AUTO 21012KT 10SM FEW033 SCT047 11/07 A2981 RMK AO2 PK WND 21027/2135 RAB15E53 SLP113 P0001 T01060072=
201904062128 SPECI KPWT 062128Z AUTO 24015G20KT 10SM -RA FEW021 SCT027 BKN035 10/06 A2980 RMK AO2 RAB15 P0001=
201904062056 METAR KPWT 062056Z AUTO 21014G21KT 10SM BKN023 BKN029 BKN035 12/07 A2978 RMK AO2 PK WND 22026/2012 RAB01E28 SLP102 P0000 60001 T01170072 51031=
201904061956 METAR KPWT 061956Z AUTO 19017G21KT 10SM FEW025 11/07 A2975 RMK AO2 RAB01E21 SLP091 P0001 T01110067=
201904061903 SPECI KPWT 061903Z AUTO 19015G23KT 9SM -RA FEW020 SCT029 BKN036 09/06 A2973 RMK AO2 RAB01 P0000=
201904061856 METAR KPWT 061856Z AUTO 19017G24KT 10SM SCT020 BKN029 BKN036 09/06 A2973 RMK AO2 PK WND 18027/1833 RAB21E53 SLP085 P0000 T00940056=
201904061756 METAR KPWT 061756Z AUTO 19014G24KT 10SM SCT016 SCT045 09/07 A2969 RMK AO2 PK WND 19027/1736 RAE42 SLP071 P0001 60032 T00940067 10094 20044 51016=
201904061754 SPECI KPWT 061754Z AUTO 19012G24KT 10SM SCT016 SCT037 BKN045 09/07 A2968 RMK AO2 PK WND 19027/1736 RAE42 P0001=
201904061729 SPECI KPWT 061729Z AUTO 19014G22KT 10SM -RA FEW011 BKN018 OVC038 09/07 A2967 RMK AO2 P0001=
201904061714 SPECI KPWT 061714Z AUTO 19013G18KT 10SM -RA SCT005 BKN011 OVC030 08/06 A2966 RMK AO2 P0001=
201904061656 METAR KPWT 061656Z AUTO 20010KT 10SM -RA BKN005 OVC028 07/06 A2966 RMK AO2 CIG 003V008 SLP064 P0008 T00670061=
201904061645 SPECI KPWT 061645Z AUTO 21009KT 8SM -RA BKN005 OVC029 07/06 A2966 RMK AO2 CIG 003V008 P0008=
201904061637 SPECI KPWT 061637Z AUTO 24007KT 9SM -RA SCT005 SCT024 OVC029 07/06 A2966 RMK AO2 P0008=
201904061556 METAR KPWT 061556Z AUTO 17003KT 5SM RA BR OVC029 06/06 A2964 RMK AO2 SLP056 P0010 T00610056=
201904061456 METAR KPWT 061456Z AUTO 00000KT 4SM RA BR OVC031 06/05 A2964 RMK AO2 SLP056 P0008 60013 T00610050 58026=
201904061356 METAR KPWT 061356Z AUTO 00000KT 4SM RA BR OVC031 06/05 A2967 RMK AO2 SLP066 P0004 T00560050=
201904061256 METAR KPWT 061256Z AUTO 00000KT 10SM -RA BKN040 BKN049 06/05 A2969 RMK AO2 SLP073 P0001 T00560050=
201904061156 METAR KPWT 061156Z AUTO 00000KT 10SM -RA FEW038 BKN055 04/04 A2972 RMK AO2 RAB38 SLP082 P0000 60003 7//// T00440044 10072 20028 58016=
201904061056 METAR KPWT 061056Z AUTO 00000KT 10SM FEW055 BKN070 04/03 A2973 RMK AO2 SLP088 T00390033=
201904061049 SPECI KPWT 061049Z AUTO 00000KT 10SM FEW055 BKN075 03/03 A2974 RMK AO2=
201904061040 SPECI KPWT 061040Z AUTO 00000KT 2SM BR FEW055 SCT075 03/03 A2974 RMK AO2=
201904061034 SPECI KPWT 061034Z AUTO 00000KT 1SM BR FEW055 03/03 A2975 RMK AO2=
201904061025 SPECI KPWT 061025Z AUTO 00000KT 1/2SM FG FEW055 03/03 A2975 RMK AO2=
201904061016 SPECI KPWT 061016Z AUTO 00000KT 1SM BR FEW055 03/03 A2975 RMK AO2 VIS 1/4V5=
201904061012 SPECI KPWT 061012Z AUTO 00000KT 1/2SM FG FEW045 03/03 A2976 RMK AO2=
201904061004 SPECI KPWT 061004Z AUTO 00000KT 3/4SM BR FEW045 03/03 A2976 RMK AO2=
201904060959 SPECI KPWT 060959Z AUTO 00000KT 1 3/4SM BR FEW045 03/03 A2976 RMK AO2=
201904060956 METAR KPWT 060956Z AUTO 00000KT 3SM BR FEW045 03/03 A2976 RMK AO2 SLP096 T00280028=
201904060951 SPECI KPWT 060951Z AUTO 00000KT 6SM BR FEW045 03/03 A2976 RMK AO2=
201904060943 SPECI KPWT 060943Z AUTO 00000KT 2SM BR FEW002 03/03 A2977 RMK AO2=
201904060941 SPECI KPWT 060941Z AUTO 00000KT 1SM BR VV002 03/03 A2977 RMK AO2=
201904060939 SPECI KPWT 060939Z AUTO 00000KT 3/4SM BR CLR 03/03 A2977 RMK AO2=
201904060932 SPECI KPWT 060932Z AUTO 00000KT 1/4SM FG CLR 04/04 A2977 RMK AO2=
201904060925 SPECI KPWT 060925Z AUTO 00000KT 1/2SM FG CLR 04/03 A2977 RMK AO2=
201904060917 SPECI KPWT 060917Z AUTO 00000KT 3/4SM BR CLR 04/04 A2978 RMK AO2=
201904060913 SPECI KPWT 060913Z AUTO 00000KT 1 3/4SM BR CLR 04/04 A2978 RMK AO2 VIS 3/4V5=
201904060856 METAR KPWT 060856Z AUTO 00000KT 7SM CLR 04/04 A2979 RMK AO2 RAE24 SLP106 P0001 60003 T00440039 58010=
201904060756 METAR KPWT 060756Z AUTO 18004KT 10SM -RA BKN032 OVC055 07/06 A2981 RMK AO2 RAE25B49 SLP113 P0001 T00670056 401170067=
201904060732 SPECI KPWT 060732Z AUTO 19004KT 10SM BKN032 OVC055 07/06 A2981 RMK AO2 RAE25 P0001=
201904060656 METAR KPWT 060656Z AUTO 18006KT 10SM -RA BKN027 BKN037 OVC050 07/06 A2981 RMK AO2 RAB28 SLP113 P0001 T00670056=
201904060629 SPECI KPWT 060629Z AUTO 18006KT 10SM -RA BKN027 07/06 A2982 RMK AO2 RAB28 P0000=
201904060556 METAR KPWT 060556Z AUTO 19008KT 10SM BKN036 OVC046 07/06 A2982 RMK AO2 SLP117 60001 T00720056 10106 20067 50006=
201904060527 SPECI KPWT 060527Z AUTO 19008KT 10SM BKN031 BKN041 OVC048 07/06 A2982 RMK AO2=
201904060456 METAR KPWT 060456Z AUTO 19007KT 10SM BKN029 OVC039 07/05 A2982 RMK AO2 SLP118 T00720050=
201904060431 SPECI KPWT 060431Z AUTO 18007KT 10SM BKN029 BKN035 OVC046 07/05 A2981 RMK AO2=
201904060356 METAR KPWT 060356Z AUTO 19005KT 10SM FEW027 BKN041 07/06 A2981 RMK AO2 SLP112 T00720056=
201904060336 SPECI KPWT 060336Z AUTO 19007KT 10SM SCT029 08/06 A2981 RMK AO2=
201904060321 SPECI KPWT 060321Z AUTO 19008KT 10SM BKN029 08/06 A2980 RMK AO2=
201904060256 METAR KPWT 060256Z AUTO 20006KT 10SM FEW021 SCT030 BKN037 07/06 A2980 RMK AO2 RAB33E56 SLP109 P0001 60001 T00720061 53022=
201904060223 SPECI KPWT 060223Z AUTO 19007KT 10SM SCT026 SCT049 09/06 A2979 RMK AO2=
201904060156 METAR KPWT 060156Z AUTO 19009KT 10SM BKN026 BKN038 09/06 A2978 RMK AO2 RAB02E14 SLP101 P0000 T00940061=
201904060148 SPECI KPWT 060148Z AUTO 19010KT 10SM SCT024 BKN030 BKN046 09/06 A2977 RMK AO2 RAB02E14 P0000=
201904060056 METAR KPWT 060056Z AUTO 20008KT 10SM OVC024 10/06 A2975 RMK AO2 RAB2359E12 SLP095 P0000 T01000061=
201904060046 SPECI KPWT 060046Z AUTO 21010KT 10SM BKN022 BKN027 BKN043 10/07 A2975 RMK AO2 RAB2359E12 P0000=
201904052356 METAR KPWT 052356Z AUTO 23017KT 10SM FEW025 SCT046 11/06 A2973 RMK AO2 PK WND 24029/2344 SLP088 60045 T01060056 10111 20089 53027=
201904052336 SPECI KPWT 052336Z AUTO 23020G28KT 10SM FEW018 SCT045 11/07 A2972 RMK AO2 PK WND 23028/2328=
201904052256 METAR KPWT 052256Z AUTO 22019G26KT 10SM FEW010 BKN018 BKN024 09/07 A2970 RMK AO2 PK WND 21027/2246 RAE50 SLP075 P0001 T00940072=
201904052210 SPECI KPWT 052210Z AUTO 20010KT 10SM -RA SCT008 BKN017 OVC029 09/08 A2968 RMK AO2 P0001=
201904052156 METAR KPWT 052156Z AUTO 21012G18KT 8SM RA FEW013 BKN018 OVC027 09/08 A2968 RMK AO2 SLP071 P0034 T00890078=
201904052129 SPECI KPWT 052129Z AUTO 19016G21KT 6SM +RA BR FEW007 BKN018 OVC037 09/08 A2966 RMK AO2 P0019=
201904052106 SPECI KPWT 052106Z AUTO 20012G19KT 6SM RA BR BKN010 OVC016 10/09 A2966 RMK AO2 CIG 006V012 P0006=
201904052056 METAR KPWT 052056Z AUTO 19010G21KT 10SM RA SCT010 BKN018 OVC026 10/09 A2965 RMK AO2 SLP060 P0003 60010 T01000089 53004=
201904052041 SPECI KPWT 052041Z AUTO 19010G19KT 10SM -RA FEW010 BKN021 OVC050 11/09 A2965 RMK AO2 P0002=
201904052023 SPECI KPWT 052023Z AUTO 19008KT 10SM -RA SCT012 BKN031 OVC050 11/09 A2964 RMK AO2 P0002=
201904052012 SPECI KPWT 052012Z AUTO 20010KT 10SM -RA FEW008 SCT012 BKN017 11/09 A2964 RMK AO2 P0002=
201904051956 METAR KPWT 051956Z AUTO 19009KT 10SM -RA FEW012 BKN029 OVC035 11/09 A2964 RMK AO2 SLP055 P0003 T01060094=
201904051918 SPECI KPWT 051918Z AUTO 20005KT 9SM -RA FEW009 BKN035 OVC047 11/10 A2963 RMK AO2 P0001=
201904051908 SPECI KPWT 051908Z AUTO 18004KT 10SM -RA SCT030 BKN035 OVC049 11/10 A2963 RMK AO2 P0000=
201904051856 METAR KPWT 051856Z AUTO 18003KT 10SM -RA FEW009 BKN029 OVC047 11/09 A2963 RMK AO2 SLP054 P0004 T01110094=
201904051846 SPECI KPWT 051846Z AUTO VRB03KT 9SM -RA FEW009 BKN031 OVC050 11/09 A2964 RMK AO2 P0003=
201904051830 SPECI KPWT 051830Z AUTO VRB04KT 9SM -RA FEW007 BKN029 OVC038 11/09 A2964 RMK AO2 P0001=
201904051756 METAR KPWT 051756Z AUTO 17003KT 10SM -RA SCT030 BKN037 OVC050 11/09 A2964 RMK AO2 RAB21 SLP056 P0001 6//// T01110089 10117 20078 56016=
201904051656 METAR KPWT 051656Z AUTO 14003KT 10SM FEW060 11/09 A2965 RMK AO2 SLP060 T01110089=
201904051556 METAR KPWT 051556Z AUTO 00000KT 10SM FEW034 11/09 A2967 RMK AO2 SLP066 T01060089=
201904051456 METAR KPWT 051456Z AUTO 00000KT 10SM BKN034 OVC041 09/09 A2969 RMK AO2 RAB21E40 SLP072 6//// T00940089=
201904051404 SPECI KPWT 051404Z AUTO 00000KT 5SM BR BKN049 OVC070 08/08 A2970 RMK AO2=
201904051356 METAR KPWT 051356Z AUTO 00000KT 2 1/2SM BR BKN049 BKN070 08/08 A2970 RMK AO2 VIS 1 1/4V5 SLP078 T00830078=
201904051256 METAR KPWT 051256Z AUTO 00000KT 10SM SCT039 BKN048 09/08 RMK AO2 RAE12 SLPNO P0001 T00890083 $=
201904051156 METAR KPWT 051156Z AUTO 16004KT 9SM -RA BKN048 OVC055 09/09 A2973 RMK AO2 SLP084 P0002 60022 70025 T00940089 10100 20089 58016=
201904051122 SPECI KPWT 051122Z AUTO 00000KT 6SM -RA BR FEW005 BKN035 OVC050 09/09 A2974 RMK AO2 P0002=
201904051056 METAR KPWT 051056Z AUTO 15003KT 9SM -RA FEW035 OVC045 09/09 A2975 RMK AO2 SLP091 P0005 T00940089=
201904051031 SPECI KPWT 051031Z AUTO 17003KT 7SM RA FEW003 BKN037 OVC045 09/09 A2976 RMK AO2 P0003=
201904051023 SPECI KPWT 051023Z AUTO 00000KT 2 1/2SM -RA BR FEW003 BKN037 OVC045 09/09 A2976 RMK AO2 P0002=
201904050956 METAR KPWT 050956Z AUTO 00000KT 9SM -RA FEW006 SCT038 OVC047 09/09 A2976 RMK AO2 SLP097 P0004 T00940089=
201904050856 METAR KPWT 050856Z AUTO 00000KT 10SM -RA SCT039 BKN055 09/09 A2978 RMK AO2 SLP101 P0004 60011 T00940089=
201904050756 METAR KPWT 050756Z AUTO 22004KT 7SM RA BKN041 OVC049 09/09 A2979 RMK AO2 SLP106 P0003 T00940089 401780000=
201904050729 SPECI KPWT 050729Z AUTO 21003KT 8SM -RA FEW003 BKN039 OVC048 09/09 A2980 RMK AO2 P0002=
201904050656 METAR KPWT 050656Z AUTO 00000KT 7SM RA FEW013 BKN042 OVC050 09/09 RMK AO2 SLPNO P0004 T00940089 $=
201904050556 METAR KPWT 050556Z AUTO 22003KT 10SM -RA FEW038 OVC049 09/09 A2981 RMK AO2 SLP112 P0002 60003 T00940089 10156 20094 58001=
201904050456 METAR KPWT 050456Z AUTO 00000KT 10SM -RA SCT042 BKN050 10/09 A2982 RMK AO2 SLP116 P0001 T01000089=
201904050356 METAR KPWT 050356Z AUTO 00000KT 10SM -RA CLR 11/09 A2981 RMK AO2 RAB06 SLP115 P0000 T01060089=
201904050256 METAR KPWT 050256Z AUTO 00000KT 10SM CLR 12/08 A2981 RMK AO2 RAE54 SLP113 P0000 60000 T01220078 58009=
201904050156 METAR KPWT 050156Z AUTO 19003KT 10SM -RA BKN050 13/07 A2982 RMK AO2 SLP118 P0000 T01280067=
201904050056 METAR KPWT 050056Z AUTO 00000KT 10SM -RA FEW060 14/06 A2983 RMK AO2 RAB04 SLP120 P0000 T01390056=
201904042356 METAR KPWT 042356Z AUTO 18005KT 10SM SCT075 16/03 A2984 RMK AO2 SLP121 T01560028 10178 20122 56018=
201904042256 METAR KPWT 042256Z AUTO 22007KT 10SM CLR 17/02 A2985 RMK AO2 SLP125 T01670017=
201904042156 METAR KPWT 042156Z AUTO 20004KT 10SM CLR 16/M01 A2987 RMK AO2 SLP132 T01611006=
201904042056 METAR KPWT 042056Z AUTO 20007KT 10SM FEW120 16/04 A2989 RMK AO2 SLP140 T01610039 57024=
201904041956 METAR KPWT 041956Z AUTO 23007KT 10SM CLR 15/04 A2991 RMK AO2 SLP148 T01500044=
201904041856 METAR KPWT 041856Z AUTO VRB05KT 10SM CLR 14/04 A2994 RMK AO2 SLP158 T01440044=
201904041756 METAR KPWT 041756Z AUTO VRB05KT 10SM CLR 12/05 A2996 RMK AO2 SLP166 T01220050 10122 20000 58014=
201904041656 METAR KPWT 041656Z AUTO 15003KT 10SM CLR 10/05 A2998 RMK AO2 SLP170 T01000050=
201904041556 METAR KPWT 041556Z AUTO 00000KT 10SM CLR 09/05 A3000 RMK AO2 SLP178 T00940050=
201904041456 METAR KPWT 041456Z AUTO 00000KT 9SM CLR 03/03 A3001 RMK AO2 SLP179 T00330033 56004=
201904041450 SPECI KPWT 041450Z AUTO 00000KT 5SM BR CLR 03/03 A3000 RMK AO2=
201904041448 SPECI KPWT 041448Z AUTO 00000KT 1 1/4SM BR CLR 03/02 A3001 RMK AO2=
201904041441 SPECI KPWT 041441Z AUTO 00000KT 3/4SM BR CLR 02/02 A3000 RMK AO2 FZRANO=
201904041439 SPECI KPWT 041439Z AUTO 00000KT 1 1/4SM BR CLR 02/02 A3000 RMK AO2 FZRANO=
201904041429 SPECI KPWT 041429Z AUTO 00000KT 3SM BR CLR 01/01 A3001 RMK AO2 FZRANO=
201904041420 SPECI KPWT 041420Z AUTO 00000KT 2SM BR CLR 01/01 A3001 RMK AO2 VIS 3/4V5 FZRANO=
201904041418 SPECI KPWT 041418Z AUTO 00000KT 3/4SM BR CLR 01/01 A3001 RMK AO2 VIS M1/4V5 FZRANO=
201904041356 METAR KPWT 041356Z AUTO 00000KT 1/4SM FG CLR 00/00 A3001 RMK AO2 SLP181 T00000000 FZRANO=
201904041352 SPECI KPWT 041352Z AUTO 00000KT 1/4SM FG CLR 01/00 A3001 RMK AO2 FZRANO=
201904041349 SPECI KPWT 041349Z AUTO 00000KT 3/4SM BR CLR 01/00 A3001 RMK AO2 VIS 1/2V5 FZRANO=
201904041334 SPECI KPWT 041334Z AUTO 00000KT 1 1/4SM BR CLR 01/00 A3001 RMK AO2 VIS 1/4V5 FZRANO=
201904041306 SPECI KPWT 041306Z AUTO 00000KT 3SM BR CLR 02/02 A3001 RMK AO2 FZRANO=
201904041303 SPECI KPWT 041303Z AUTO 00000KT 1 3/4SM BR CLR 02/02 A3001 RMK AO2 FZRANO=
201904041256 METAR KPWT 041256Z AUTO 00000KT 2SM BR CLR 01/01 A3001 RMK AO2 SLP180 T00110006 FZRANO=
201904041215 SPECI KPWT 041215Z AUTO 00000KT 3SM BR CLR 02/02 A3002 RMK AO2 FZRANO=
201904041207 SPECI KPWT 041207Z AUTO 00000KT 1 3/4SM BR CLR 02/02 A3002 RMK AO2 FZRANO=
201904041156 METAR KPWT 041156Z AUTO 00000KT 8SM CLR 02/02 A3002 RMK AO2 SLP185 70006 T00220022 10078 20022 58001 FZRANO=
201904041056 METAR KPWT 041056Z AUTO 00000KT 10SM CLR 05/04 A3002 RMK AO2 SLP184 T00500044=
201904040956 METAR KPWT 040956Z AUTO 17004KT 10SM CLR 06/05 A3002 RMK AO2 SLP185 T00610050=
201904040856 METAR KPWT 040856Z AUTO 19005KT 10SM CLR 07/05 A3002 RMK AO2 SLP184 T00670050 53013=
201904040756 METAR KPWT 040756Z AUTO 21007KT 10SM CLR 07/05 A3001 RMK AO2 SLP182 T00670050 401280067=
201904040656 METAR KPWT 040656Z AUTO 20007KT 10SM CLR 07/06 A2999 RMK AO2 SLP176 T00720056=
201904040556 METAR KPWT 040556Z AUTO 21013KT 10SM CLR 08/06 A2998 RMK AO2 SLP172 60000 T00780056 10106 20078 50007=
201904040456 METAR KPWT 040456Z AUTO 21013KT 10SM FEW014 08/06 A2999 RMK AO2 SLP176 T00780061=
201904040408 SPECI KPWT 040408Z AUTO 22011KT 10SM SCT014 08/06 A2999 RMK AO2=
201904040356 METAR KPWT 040356Z AUTO 22014KT 10SM BKN014 09/06 A2998 RMK AO2 SLP174 T00890061=
201904040327 SPECI KPWT 040327Z AUTO 21014KT 10SM BKN014 09/06 A2997 RMK AO2=
201904040256 METAR KPWT 040256Z AUTO 22017KT 10SM SCT012 09/07 A2996 RMK AO2 SLP166 60000 T00890067 50007=
201904040156 METAR KPWT 040156Z AUTO 23010G20KT 10SM OVC014 09/07 A2996 RMK AO2 SLP167 T00940067=
201904040056 METAR KPWT 040056Z AUTO 22014G22KT 10SM BKN012 11/07 A2995 RMK AO2 PK WND 22027/0018 RAE07 SLP161 P0000 T01060067=
201904040008 SPECI KPWT 040008Z AUTO 22018G24KT 10SM BKN014 BKN035 11/08 A2994 RMK AO2 RAE07 P0000=
201904032356 METAR KPWT 032356Z AUTO 22020G25KT 10SM -RA BKN016 BKN034 11/07 A2994 RMK AO2 PK WND 24027/2336 RAB53 SLP158 P0000 60001 T01060072 10128 20106 51015=
201904032343 SPECI KPWT 032343Z AUTO 23019G27KT 10SM BKN016 BKN033 11/08 A2993 RMK AO2 PK WND 24027/2336=
201904032256 METAR KPWT 032256Z AUTO 21020G24KT 10SM OVC012 11/08 A2993 RMK AO2 PK WND 23028/2241 RAB04E43 SLP155 P0000 T01110078=
201904032219 SPECI KPWT 032219Z AUTO 22020G27KT 10SM -RA BKN012 BKN019 OVC031 11/08 A2992 RMK AO2 PK WND 23027/2215 RAB04 P0000=
201904032211 SPECI KPWT 032211Z AUTO 22015G24KT 10SM -RA SCT012 BKN019 OVC036 11/08 A2993 RMK AO2 RAB04 P0000=
201904032156 METAR KPWT 032156Z AUTO 22018G29KT 10SM SCT021 SCT030 BKN037 12/07 A2992 RMK AO2 PK WND 22030/2124 RAE01 SLP150 P0000 T01170072=
201904032108 SPECI KPWT 032108Z AUTO 22018G25KT 10SM SCT014 BKN033 OVC045 11/07 A2990 RMK AO2 RAE01 P0000=
201904032056 METAR KPWT 032056Z AUTO 21024G29KT 10SM -RA BKN014 BKN027 OVC045 11/07 A2990 RMK AO2 PK WND 22032/2029 RAB49 SLP143 P0000 60001 T01060072 51021=
201904032052 SPECI KPWT 032052Z AUTO 22020G29KT 10SM -RA BKN014 OVC027 11/08 A2989 RMK AO2 PK WND 22032/2029 RAB49 P0000=
201904032024 SPECI KPWT 032024Z AUTO 22024G31KT 10SM FEW017 BKN029 OVC043 12/08 A2988 RMK AO2 PK WND 23031/2024=
201904031956 METAR KPWT 031956Z AUTO 22023G29KT 10SM FEW026 SCT045 12/07 A2986 RMK AO2 PK WND 23032/1934 SLP131 T01220072=
201904031901 SPECI KPWT 031901Z AUTO 22022G28KT 10SM FEW009 SCT013 12/09 A2984 RMK AO2 PK WND 23028/1901=
201904031856 METAR KPWT 031856Z AUTO 22017G26KT 10SM BKN011 12/09 A2983 RMK AO2 PK WND 21026/1854 RAE35 SLP121 P0001 T01170094=
201904031834 SPECI KPWT 031834Z AUTO 21017G22KT 10SM -RA OVC011 12/10 A2983 RMK AO2 CIG 007V015 P0001=
201904031756 METAR KPWT 031756Z AUTO 20011KT 10SM -RA BKN009 OVC015 12/10 A2981 RMK AO2 RAB09E20B48 CIG 006V012 SLP114 P0000 60005 T01170100 10117 20094 53008=
201904031715 SPECI KPWT 031715Z AUTO 20012G17KT 10SM -RA BKN007 OVC013 11/10 A2980 RMK AO2 RAB09 CIG 004V010 P0000=
201904031656 METAR KPWT 031656Z AUTO 19008KT 10SM BKN005 BKN012 OVC024 11/10 A2980 RMK AO2 RAE49 CIG 004V010 SLP110 P0001 T01060100=
201904031646 SPECI KPWT 031646Z AUTO 20010KT 10SM -RA OVC005 11/09 A2980 RMK AO2 CIG 004V008 P0001=
201904031556 METAR KPWT 031556Z AUTO 20007KT 10SM -RA OVC003 10/09 A2979 RMK AO2 CIG 003V008 SLP107 P0003 T01000094=
201904031547 SPECI KPWT 031547Z AUTO 20008KT 10SM -RA OVC003 10/09 A2979 RMK AO2 CIG 003V007 P0003=
201904031512 SPECI KPWT 031512Z AUTO 21007KT 8SM -RA BKN005 BKN013 OVC019 10/09 A2979 RMK AO2 CIG 003V008 P0000=
201904031503 SPECI KPWT 031503Z AUTO 21006KT 9SM -RA SCT005 BKN013 OVC019 10/09 A2979 RMK AO2 P0000=
201904031456 METAR KPWT 031456Z AUTO 20008KT 9SM -RA BKN005 OVC013 10/09 A2979 RMK AO2 RAE29B52 SLP105 P0001 60001 T01000094 53006=
201904031421 SPECI KPWT 031421Z AUTO 21008KT 10SM -RA BKN005 OVC009 09/09 A2978 RMK AO2 CIG 003V007 P0001=
201904031412 SPECI KPWT 031412Z AUTO 21007KT 8SM -RA BKN007 OVC018 09/09 A2978 RMK AO2 CIG 004V011 P0000=
201904031356 METAR KPWT 031356Z AUTO 20008KT 9SM -RA FEW009 OVC021 09/09 A2978 RMK AO2 RAB53 SLP101 P0000 T00940089=
201904031311 SPECI KPWT 031311Z AUTO 21009KT 10SM SCT009 OVC021 09/09 A2977 RMK AO2=
201904031256 METAR KPWT 031256Z AUTO 21007KT 10SM BKN009 OVC025 09/09 A2977 RMK AO2 SLP098 T00940089=
201904031236 SPECI KPWT 031236Z AUTO 21007KT 10SM BKN007 BKN039 OVC050 09/09 A2977 RMK AO2 CIG 005V011=
201904031212 SPECI KPWT 031212Z AUTO 20006KT 10SM SCT007 OVC035 10/09 A2977 RMK AO2=
201904031156 METAR KPWT 031156Z AUTO 21008KT 10SM BKN007 OVC033 10/09 A2977 RMK AO2 CIG 004V009 SLP098 60001 7//// T01000089 10111 20094 58004=
201904031135 SPECI KPWT 031135Z AUTO 21008KT 10SM OVC005 10/09 A2977 RMK AO2 CIG 004V009=
201904031108 SPECI KPWT 031108Z AUTO 21006KT 10SM BKN007 OVC010 09/09 A2977 RMK AO2 CIG 005V010=
201904031056 METAR KPWT 031056Z AUTO 20005KT 10SM OVC010 09/09 A2978 RMK AO2 RAB28E51 CIG 007V014 SLP099 P0000 T00940089=
201904031041 SPECI KPWT 031041Z AUTO 19004KT 10SM -RA BKN013 OVC020 09/09 A2977 RMK AO2 RAB28 P0000=
201904031003 SPECI KPWT 031003Z AUTO 21004KT 10SM SCT018 OVC028 09/09 A2978 RMK AO2=
201904030956 METAR KPWT 030956Z AUTO 21003KT 10SM FEW020 OVC030 09/09 A2978 RMK AO2 RAE47 SLP100 P0001 T00940089=
201904030925 SPECI KPWT 030925Z AUTO 21004KT 10SM -RA SCT022 OVC036 09/09 A2978 RMK AO2 P0000=
201904030856 METAR KPWT 030856Z AUTO 19003KT 10SM -RA BKN022 BKN030 OVC044 10/08 A2978 RMK AO2 RAE03B22 SLP101 P0000 60000 T01000083 54000=
201904030756 METAR KPWT 030756Z AUTO 18003KT 10SM -RA OVC050 10/08 A2978 RMK AO2 SLP101 P0000 T01000083 402000089=
201904030656 METAR KPWT 030656Z AUTO 20004KT 10SM -RA OVC049 10/08 A2978 RMK AO2 RAE17B47 SLP102 P0000 T01000083=
201904030556 METAR KPWT 030556Z AUTO VRB03KT 10SM -RA BKN055 11/08 A2978 RMK AO2 SLP102 P0000 60000 T01110078 10167 20100 50001=
201904030456 METAR KPWT 030456Z AUTO 25005KT 10SM -RA OVC060 12/07 A2979 RMK AO2 SLP106 P0000 T01170072=
201904030356 METAR KPWT 030356Z AUTO 24007KT 10SM -RA FEW047 12/07 A2979 RMK AO2 RAB00 SLP105 P0000 T01220067=
201904030256 METAR KPWT 030256Z AUTO 23009KT 10SM FEW060 13/07 A2978 RMK AO2 SLP101 T01330067 53004=
201904030156 METAR KPWT 030156Z AUTO 25005KT 10SM CLR 15/04 A2977 RMK AO2 SLP098 T01500044=
201904030056 METAR KPWT 030056Z AUTO 23009KT 10SM CLR 16/05 A2977 RMK AO2 SLP097 T01560050=
201904022356 METAR KPWT 022356Z AUTO 23012KT 10SM CLR 17/04 A2977 RMK AO2 WSHFT 2332 SLP096 6//// T01670039 10200 20156=
201904022352 SPECI KPWT 022352Z AUTO 24012KT 10SM CLR 17/04 RMK AO2 WSHFT 2332 $=
201904022256 METAR KPWT 022256Z AUTO 23008KT 10SM CLR 18/03 A2977 RMK AO2 SLP095 T01830033=
201904022156 METAR KPWT 022156Z AUTO 00000KT 10SM FEW090 19/02 A2977 RMK AO2 SLP096 T01890017=
201904022056 METAR KPWT 022056Z AUTO 05004KT 10SM CLR 19/02 A2978 RMK AO2 SLP100 6//// T01890017 58008=
201904021956 METAR KPWT 021956Z AUTO VRB03KT 10SM FEW110 18/01 A2979 RMK AO2 SLP103 T01830011=
201904021856 METAR KPWT 021856Z AUTO 05006KT 10SM CLR 18/02 A2980 RMK AO2 SLP107 T01780017=
201904021756 METAR KPWT 021756Z AUTO 05007KT 10SM CLR 16/01 A2980 RMK AO2 SLP109 T01560011 10156 20117 56002=
201904021656 METAR KPWT 021656Z AUTO 03008KT 10SM CLR 14/01 A2980 RMK AO2 SLP109 T01440011=
201904021556 METAR KPWT 021556Z AUTO 04011KT 10SM FEW110 14/02 A2981 RMK AO2 SLP111 T01390017=
201904021456 METAR KPWT 021456Z AUTO 05009KT 10SM OVC110 13/01 A2981 RMK AO2 SLP111 T01280006 55006=
201904021356 METAR KPWT 021356Z AUTO 04008KT 10SM OVC100 12/02 A2981 RMK AO2 SLP110 T01220017=
201904021256 METAR KPWT 021256Z AUTO 05008KT 10SM OVC100 12/02 A2982 RMK AO2 SLP112 T01220017=
201904021156 METAR KPWT 021156Z AUTO 04006KT 10SM OVC100 12/02 A2983 RMK AO2 SLP115 T01220022 10133 20089 56015=
201904021056 METAR KPWT 021056Z AUTO 03006KT 10SM BKN100 11/02 A2984 RMK AO2 SLP121 T01060022=
201904020956 METAR KPWT 020956Z AUTO 02003KT 10SM CLR 10/02 A2986 RMK AO2 SLP126 T01000022=
201904020856 METAR KPWT 020856Z AUTO 05005KT 10SM CLR 10/02 A2987 RMK AO2 SLP132 T01000022 56008=
201904020756 METAR KPWT 020756Z AUTO 04006KT 10SM CLR 12/02 A2988 RMK AO2 SLP133 T01170022 402060083=
201904020656 METAR KPWT 020656Z AUTO 05008KT 10SM CLR 13/03 A2989 RMK AO2 SLP136 T01280033=
201904020556 METAR KPWT 020556Z AUTO 05009KT 10SM CLR 13/03 A2990 RMK AO2 SLP141 T01330033 10194 20128 58003=
201904020456 METAR KPWT 020456Z AUTO 05007KT 10SM CLR 13/04 A2991 RMK AO2 SLP145 T01330039=
201904020356 METAR KPWT 020356Z AUTO 05007KT 10SM CLR 14/04 A2991 RMK AO2 SLP147 T01390039=
201904020256 METAR KPWT 020256Z AUTO 05009KT 10SM CLR 16/03 A2991 RMK AO2 SLP145 T01560028 56005=
201904020156 METAR KPWT 020156Z AUTO 04009KT 10SM CLR 17/04 A2991 RMK AO2 SLP146 T01720039=
201904020056 METAR KPWT 020056Z AUTO 03009KT 10SM SCT100 19/03 A2992 RMK AO2 SLP148 T01890033=
201904012356 METAR KPWT 012356Z AUTO 04009KT 10SM CLR 19/04 A2992 RMK AO2 SLP149 T01940039 10206 20144 56022=
201904012256 METAR KPWT 012256Z AUTO 03006KT 10SM CLR 20/03 A2994 RMK AO2 SLP155 T02000033=
201904012156 METAR KPWT 012156Z AUTO 04007KT 10SM CLR 20/04 A2997 RMK AO2 SLP164 T02000039=
201904012056 METAR KPWT 012056Z AUTO 03008KT 10SM CLR 18/04 A2999 RMK AO2 SLP172 T01830039 58015=
201904011956 METAR KPWT 011956Z AUTO 06009KT 10SM CLR 17/04 A3001 RMK AO2 SLP179 T01670039=
201904011856 METAR KPWT 011856Z AUTO 05010KT 10SM CLR 16/04 A3003 RMK AO2 SLP186 T01560039=
201904011756 METAR KPWT 011756Z AUTO 05012KT 10SM SCT120 14/04 A3003 RMK AO2 SLP188 T01440044 10144 20083 56005=
201904011656 METAR KPWT 011656Z AUTO 05015KT 10SM CLR 12/04 A3003 RMK AO2 SLP189 T01170039=
201904011556 METAR KPWT 011556Z AUTO 04012KT 10SM CLR 09/03 A3004 RMK AO2 SLP193 T00940033=
201904011456 METAR KPWT 011456Z AUTO 04010KT 10SM CLR 09/03 A3005 RMK AO2 SLP195 T00890033 56004=
201904011356 METAR KPWT 011356Z AUTO 04012KT 10SM CLR 08/03 A3005 RMK AO2 SLP195 T00830028=
201904011256 METAR KPWT 011256Z AUTO 05008KT 10SM CLR 08/02 A3006 RMK AO2 SLP195 T00830022=
201904011156 METAR KPWT 011156Z AUTO 05010KT 10SM CLR 09/02 A3006 RMK AO2 SLP197 6//// 7//// T00940017 10111 20089 58010=
201904011056 METAR KPWT 011056Z AUTO 05008KT 10SM CLR 09/01 A3007 RMK AO2 SLP201 T00940011=
201904010956 METAR KPWT 010956Z AUTO 04006KT 10SM CLR 09/02 A3009 RMK AO2 SLP205 T00890017=
201904010856 METAR KPWT 010856Z AUTO 05008KT 10SM CLR 09/03 A3009 RMK AO2 SLP208 6//// T00940028 58008=
201904010756 METAR KPWT 010756Z AUTO 06008KT 10SM CLR 10/02 A3011 RMK AO2 SLP212 T01000022 401940006=
201904010656 METAR KPWT 010656Z AUTO 06005KT 10SM CLR 10/02 A3012 RMK AO2 SLP217 T01000017=
201904010556 METAR KPWT 010556Z AUTO 06007KT 10SM CLR 11/02 A3012 RMK AO2 SLP218 T01110017 10183 20106 58001=
201904010456 METAR KPWT 010456Z AUTO 05005KT 10SM CLR 11/01 A3013 RMK AO2 SLP221 T01110011=
201904010356 METAR KPWT 010356Z AUTO 05006KT 10SM CLR 11/01 A3013 RMK AO2 SLP222 T01110011=
201904010256 METAR KPWT 010256Z AUTO 04003KT 10SM CLR 12/01 A3012 RMK AO2 SLP220 T01220006 58007=
201904010156 METAR KPWT 010156Z AUTO 04008KT 10SM CLR 16/M01 A3013 RMK AO2 SLP222 T01611006=
201904010056 METAR KPWT 010056Z AUTO 03007KT 10SM CLR 18/00 A3014 RMK AO2 SLP227 T01780000=

# No short TAF reports from KPWT in databse.

###################################
#  large TAF from KPWT
###################################
201904302320 TAF KPWT 302320Z 0100/0124 06008KT P6SM FEW050 FEW250 FM010600
                       VRB04KT P6SM SKC FM011200 18007KT P6SM SCT007
                       FM011700 21007KT P6SM SCT040 SCT200=
201904301720 TAF KPWT 301720Z 3018/0118 06008KT P6SM SKC FM010600 VRB04KT P6SM
                       SKC FM011200 18007KT P6SM SCT007 FM011700
                       21007KT P6SM SCT040 SCT200=
201904301133 TAF KPWT 301133Z 3012/0112 03008KT P6SM SKC FM010600 18006KT P6SM
                       SKC=
201904300535 TAF KPWT 300535Z 3006/0106 06005KT P6SM FEW120 SCT250 FM302000
                       03008KT P6SM FEW050 SCT250=
201904292320 TAF KPWT 292320Z 3000/3024 05012KT P6SM FEW050 SCT250 FM300500
                       05008KT P6SM SCT250 FM302000 05012KT P6SM
                       FEW050 SCT250=
201904291720 TAF KPWT 291720Z 2918/3018 04012KT P6SM SCT250 FM300500 04008KT
                       P6SM SCT250=
201904291135 TAF KPWT 291135Z 2912/3012 04008KT P6SM SCT250 FM291900 03010KT
                       P6SM SCT250 FM300300 03005KT P6SM SCT250=
201904290520 TAF KPWT 290520Z 2906/3006 01006KT P6SM FEW050 FM290900 03006KT
                       P6SM SCT100 FM291900 03010KT P6SM FEW060=
201904282320 TAF KPWT 282320Z 2900/2924 03012KT P6SM SKC FM290300 03005KT P6SM
                       SKC FM291800 03010KT P6SM FEW250=
201904281720 TAF KPWT 281720Z 2818/2918 03008KT P6SM SKC FM290300 03005KT P6SM
                       SKC=
201904281132 TAF KPWT 281132Z 2812/2912 00000KT P6SM SKC
                      TEMPO 2812/2815 2SM BR FM281500 03008KT P6SM
                       SCT250 FM290300 03005KT P6SM SKC=
201904280527 TAF KPWT 280527Z 2806/2906 03005KT P6SM SKC FM281000 03005KT P6SM
                       SKC FM281800 03010KT P6SM SKC FM290300 03007KT
                       P6SM SKC=
201904272321 TAF KPWT 272321Z 2800/2824 04010G17KT P6SM VCSH SCT040 BKN100 FM280300
                       03005KT P6SM SCT250=
201904271728 TAF KPWT 271728Z 2718/2818 27010G18KT P6SM SCT030 FM280000 02010KT
                       P6SM BKN050 BKN250 FM280300 02005KT P6SM
                       SCT250=
201904271137 TAF KPWT 271137Z 2712/2812 14005KT P6SM SCT030 BKN035 FM271500
                       15012KT P6SM BKN050 FM280000 02010KT P6SM
                       BKN050 BKN250 FM280300 02008KT P6SM SCT040
                       SCT250=
201904270532 TAF KPWT 270532Z 2706/2806 08005KT P6SM BKN040 FM270900 08005KT
                       P6SM OVC030 FM271100 VRB05KT P6SM SCT030
                       OVC035 FM271500 VRB05KT P6SM SCT030 BKN050
                       FM280000 02010KT P6SM BKN050 FM280300 02008KT
                       P6SM BKN040=
201904270202 KPWT 270202Z 2702/2724 VRB05KT P6SM SCT040 BKN250 FM270700 19012KT
                       P6SM BKN040 FM271400 15015G23KT P6SM OVC050=
201904262320 TAF KPWT 262320Z 2700/2724 23013KT P6SM SCT040 BKN250 FM270700
                       19012KT P6SM BKN040 FM271400 15015G23KT
                       P6SM OVC050=
201904261720 TAF KPWT 261720Z 2618/2718 20009KT P6SM SCT015 SCT200 FM262200
                       19015G25KT P6SM SCT040 FM270700 19012KT
                       P6SM BKN040 FM271400 15015G23KT P6SM OVC050=
201904261138 TAF KPWT 261138Z 2612/2712 17003KT P6SM FEW025 BKN050 FM261700
                       19009KT P6SM SCT200 FM262200 19015G25KT
                       P6SM SCT040 FM270700 19012KT P6SM BKN040=
201904260521 TAF KPWT 260521Z 2606/2706 03004KT P6SM BKN150 OVC200 FM261200
                       17005KT P6SM FEW025 SCT200 FM261700 19009KT
                       P6SM SCT200 FM262200 19015G25KT P6SM SCT040
                       FM270300 19012KT P6SM BKN040=
201904252329 TAF KPWT 252329Z 2600/2624 03008KT P6SM BKN150 OVC200 FM260700
                       03004KT P6SM BKN070 OVC100 FM261400 17005KT
                       P6SM FEW025 BKN100 FM261700 19009KT P6SM
                       SCT250 FM262200 19015G25KT P6SM SCT250=
201904251720 TAF KPWT 251720Z 2518/2618 05015G20KT P6SM SKC FM252000 04008KT
                       P6SM SCT120 BKN200 FM260700 03004KT P6SM
                       BKN070 OVC100 FM261400 17005KT P6SM BKN100
                       FM261700 19009KT P6SM SCT250=
201904251130 TAF KPWT 251130Z 2512/2612 04010KT P6SM SCT200 FM252000 03010KT
                       P6SM SCT120 BKN200 FM260700 03004KT P6SM
                       BKN070 OVC100=
201904250520 TAF KPWT 250520Z 2506/2606 04010KT P6SM SCT200 FM252000 03010KT
                       P6SM SCT120 BKN200 FM260400 03005KT P6SM
                       BKN100 OVC200=
201904242320 TAF KPWT 242320Z 2500/2524 05006KT P6SM SCT045 FM250500 04003KT
                       P6SM SCT200 FM252000 03005KT P6SM SCT100
                       BKN200=
201904241720 TAF KPWT 241720Z 2418/2518 32004KT P6SM SCT024 BKN029 BKN035 FM241900
                       03005KT P6SM BKN035 FM242000 03005KT P6SM
                       FEW040 FEW250 FM242100 03006KT P6SM FEW250
                       FM250500 04003KT P6SM SCT200=
201904241126 TAF KPWT 241126Z 2412/2512 VRB03KT P6SM SCT020 BKN040
                      TEMPO 2412/2415 BKN020 FM241800 03004KT P6SM
                       SCT040 FM242200 03006KT P6SM FEW250 FM250500
                       04003KT P6SM SCT200=
201904240520 TAF KPWT 240520Z 2406/2506 VRB04KT P6SM OVC030 FM241800 36006KT
                       P6SM SCT040=
201904240302 KPWT 240302Z 2403/2424 07008KT P6SM BKN035 FM241000 VRB04KT P6SM
                       BKN035 FM241800 36006KT P6SM SCT040=
201904232334 TAF KPWT 232334Z 2400/2424 04010KT P6SM FEW020 BKN025 OVC035 FM240600
                       06009KT P6SM BKN030 FM241000 00000KT P6SM
                       BKN035 FM241600 00000KT P6SM SCT250=
201904231730 TAF KPWT 231730Z 2318/2418 21012G18KT P6SM BKN015 BKN020 FM232100
                       22010G16KT P6SM BKN050 FM232300 19014G21KT
                       P6SM BKN035 FM240600 08009KT P6SM BKN030
                       FM241000 00000KT P6SM BKN025=
201904231128 TAF KPWT 231128Z 2312/2412 22010KT P6SM SCT007 OVC020
                      TEMPO 2312/2315 BKN005 FM231900 20012G19KT
                       P6SM SCT015 BKN025 FM232300 19014G21KT P6SM
                       BKN040 FM240600 08009KT P6SM BKN040 FM241000
                       00000KT P6SM BKN025=
201904230528 TAF KPWT 230528Z 2306/2406 22010KT P6SM SCT007 OVC015
                      TEMPO 2306/2309 BKN007 FM231900 19012G19KT
                       P6SM BKN025 FM232300 20014G21KT P6SM BKN035
                       FM240400 08009KT P6SM BKN050=
201904222325 TAF KPWT 222325Z 2300/2324 22018KT P6SM VCSH BKN035 OVC050 FM230300
                       20011KT P6SM VCSH OVC020 FM230700 19010KT
                       P6SM VCSH OVC009 FM231500 20005KT P6SM OVC015
                       FM231900 19012G19KT P6SM BKN025=
201904222231 KPWT 222231Z 2223/2318 22017G22KT P6SM -SHRA BKN030 OVC045 FM230200
                       19012KT P6SM -RA OVC030 FM231100 19005KT
                       P6SM VCSH OVC015 FM231400 20007KT P6SM OVC010=
201904221720 TAF KPWT 221720Z 2218/2318 19011KT P6SM VCSH SCT050 BKN070 FM222000
                       20012G20KT 6SM -RA OVC040 FM230200 19012KT
                       P6SM -RA OVC030 FM231100 19005KT P6SM VCSH
                       OVC015 FM231400 20007KT P6SM OVC010=
201904221124 TAF KPWT 221124Z 2212/2312 00000KT P6SM BKN100 FM221700 19011KT
                       P6SM VCSH BKN050 OVC070 FM222000 20012G20KT
                       6SM -RA OVC040 FM230200 19012KT P6SM -RA
                       OVC030 FM231100 19005KT P6SM VCSH OVC015=
201904220520 TAF KPWT 220520Z 2206/2306 VRB04KT P6SM SCT050 BKN200 FM221200
                       19006KT P6SM BKN050 OVC120 FM222100 21012KT
                       P6SM VCSH BKN040 OVC070 FM230000 19012KT
                       P6SM -RA OVC030=
201904212320 TAF KPWT 212320Z 2200/2224 22008KT P6SM FEW030 BKN250 FM220800
                       19006KT P6SM BKN050 OVC120 FM221500 18006KT
                       P6SM OVC070 FM222100 21012KT P6SM VCSH BKN040
                       OVC070=
201904211724 TAF KPWT 211724Z 2118/2218 21005KT P6SM BKN011 BKN030 FM211900
                       22006KT P6SM SCT018 BKN030 FM212100 20008KT
                       P6SM SCT030 BKN150 FM220600 19004KT P6SM
                       BKN040 OVC100=
201904211504 KPWT 211504Z 2115/2212 21006KT P6SM OVC011 FM211800 21005KT P6SM
                       BKN020 BKN040 FM212200 20008KT P6SM SCT040
                       BKN150 FM220600 19004KT P6SM BKN040 OVC100=
201904211325 KPWT 211325Z 2113/2212 21004KT P6SM BKN005
                      TEMPO 2113/2115 2SM BR OVC004 FM211800 21005KT
                       P6SM BKN020 BKN040 FM212200 20008KT P6SM
                       SCT040 BKN150 FM220600 19004KT P6SM BKN040
                       OVC100=
201904211126 TAF KPWT 211126Z 2112/2212 VRB03KT 2SM BR BKN003
                      TEMPO 2112/2115 1/4SM FG OVC003 FM211800
                       21005KT P6SM BKN020 BKN040 FM212200 20008KT
                       P6SM SCT040 BKN150 FM220600 19004KT P6SM
                       BKN040 OVC100=
201904210958 KPWT 210958Z 2110/2206 00000KT 3SM BR BKN003
                      TEMPO 2110/2113 1SM BR OVC003 FM211300 18006KT
                       P6SM BKN012 FM211800 21006KT P6SM SCT020
                       SCT150 FM220300 21008KT P6SM SCT050 BKN150=
201904210852 KPWT 210852Z 2109/2206 00000KT P6SM SCT050
                      TEMPO 2109/2112 1SM BR BKN050 FM211200 18006KT
                       P6SM BKN012 FM211800 21006KT P6SM SCT020
                       SCT150 FM220300 21008KT P6SM SCT050 BKN150=
201904210520 TAF KPWT 210520Z 2106/2206 00000KT P6SM SKC FM210900 18006KT P6SM
                       SCT012 BKN040
                      TEMPO 2109/2112 BKN012 BKN040 FM211200 18006KT
                       P6SM BKN012 FM211800 21006KT P6SM SCT020
                       SCT150 FM220300 21008KT P6SM SCT050 BKN150=
201904202320 TAF KPWT 202320Z 2100/2124 02004KT P6SM SCT030
                      TEMPO 2100/2102 BKN030 FM210600 18006KT P6SM
                       FEW020 FM211200 20006KT P6SM BKN018 FM211900
                       22008KT P6SM SCT030 BKN150=
201904202015 KPWT 202015Z 2020/2118 03007KT P6SM BKN025 FM202200 32008KT P6SM
                       SCT040 FM210700 19006KT P6SM FEW025 FM211200
                       19006KT P6SM BKN018=
201904201738 TAF KPWT 201738Z 2018/2118 05009KT P6SM BKN022 FM202000 03007KT
                       P6SM SCT025 SCT100 FM202200 32008KT P6SM
                       SCT040 FM210700 19006KT P6SM FEW025 FM211200
                       19006KT P6SM BKN018=
201904201509 KPWT 201509Z 2015/2112 03004KT P6SM SCT020 SCT100 FM201800 04004KT
                       P6SM SCT025 FM202300 03006KT P6SM SCT035
                       FM210700 00000KT P6SM BKN025 BKN200=
201904201129 TAF KPWT 201129Z 2012/2112 00000KT P6SM VCSH SCT015 OVC050
                      TEMPO 2012/2015 3SM -RA BR BKN012 FM201500
                       00000KT 2SM BR BKN006 FM201800 04004KT P6SM
                       BKN025 FM202300 03006KT P6SM SCT035 FM210700
                       00000KT P6SM BKN025 BKN200=
201904200917 KPWT 200917Z 2009/2106 VRB03KT P6SM VCSH SCT030 OVC050
                      TEMPO 2009/2012 -RA BKN015 FM201200 02005KT
                       P6SM BKN015 BKN030 FM201800 36006KT P6SM
                       SCT040=
201904200526 TAF KPWT 200526Z 2006/2106 VRB03KT P6SM VCSH SCT015 BKN035
                      TEMPO 2006/2010 -SHRA BKN015 OVC035 FM201000
                       02005KT P6SM BKN015 BKN030 FM201800 36006KT
                       P6SM SCT040=
201904200311 KPWT 200311Z 2003/2024 02006KT P6SM BKN004 OVC030 FM201900 02006KT
                       P6SM SCT030=
201904192320 TAF KPWT 192320Z 2000/2024 05008KT P6SM -SHRA SCT006 OVC018
                      TEMPO 2000/2003 BKN006 FM200500 02006KT P6SM
                       VCSH SCT012 BKN020 OVC070 FM200900 03005KT
                       P6SM OVC012 FM201900 33006KT P6SM SCT030=
201904192003 KPWT 192003Z 1920/2018 VRB04KT P6SM -SHRA SCT015 BKN022 OVC030
                       FM192300 20008KT P6SM -SHRA SCT018 OVC025
                       FM200200 VRB03KT P6SM SCT025 BKN050 FM200700
                       00000KT P6SM OVC015=
201904191723 TAF KPWT 191723Z 1918/2018 22008KT P6SM BKN011 OVC030 FM192000
                       20008KT P6SM SCT015 OVC030 FM192300 20008KT
                       P6SM -SHRA SCT018 OVC025 FM200200 VRB03KT
                       P6SM SCT025 BKN050 FM200700 00000KT P6SM
                       OVC015=
201904191124 TAF KPWT 191124Z 1912/2012 21010KT P6SM BKN008 OVC045
                      TEMPO 1912/1915 SCT008 BKN045 FM191500 19008KT
                       P6SM -RA BKN007 OVC030 FM192300 20008KT
                       P6SM -SHRA SCT012 OVC020 FM200200 VRB03KT
                       P6SM SCT025 BKN050 FM200700 00000KT P6SM
                       OVC015=
201904190809 KPWT 190809Z 1908/2006 18003KT P6SM BKN006 OVC060 FM191400 19008KT
                       P6SM -RA SCT008 OVC015 FM192200 19008KT
                       P6SM VCSH SCT020 OVC030 FM200300 03005KT
                       P6SM OVC050=
201904190539 TAF KPWT 190539Z 1906/2006 19008KT P6SM VCSH FEW006 OVC040 FM190900
                       19009KT P6SM VCSH OVC015 FM191400 19008KT
                       P6SM -RA SCT008 OVC015 FM192200 19008KT
                       P6SM VCSH SCT020 OVC030 FM200300 03005KT
                       P6SM OVC050=
201904182320 TAF KPWT 182320Z 1900/1924 22010KT P6SM OVC026 FM190200 20007KT
                       P6SM -RA OVC050 FM190600 19008KT P6SM -RA
                       OVC015 FM191800 19008KT P6SM VCSH OVC018=
201904181739 TAF KPWT 181739Z 1818/1918 20007KT P6SM FEW006 OVC040 FM182200
                       21011G17KT P6SM OVC040 FM190200 21009G16KT
                       6SM -RA OVC040 FM190600 20008KT 4SM -RA
                       OVC015 FM191700 18011G18KT P6SM -SHRA OVC015=
201904181120 TAF KPWT 181120Z 1812/1912 19004KT P6SM OVC060 FM190200 19013KT
                       P6SM -RA BKN025 OVC045 FM190800 19008KT
                       5SM -RA BR BKN007 OVC015=
201904180520 TAF KPWT 180520Z 1806/1906 22008KT P6SM BKN080 FM181200 18009KT
                       P6SM VCSH SCT020 OVC040 FM182100 19013KT
                       P6SM -RA BKN020 OVC040 FM190300 20010KT
                       5SM -RA BR BKN007 OVC015=
201904180341 KPWT 180341Z 1804/1824 21009KT P6SM BKN080 OVC120 FM181200 18009KT
                       P6SM VCSH OVC040 FM182100 19013KT P6SM -RA
                       BKN020 OVC040=
201904172328 TAF KPWT 172328Z 1800/1824 20013KT P6SM SCT025 BKN120 FM180300
                       20007KT P6SM BKN040 FM181200 18009KT P6SM
                       VCSH OVC040 FM182100 19013KT P6SM -RA BKN020
                       OVC040=
201904171734 TAF KPWT 171734Z 1718/1818 20009KT 3SM BR OVC004 FM171900 21011G17KT
                       P6SM BKN015 FM172200 21011G17KT P6SM SCT015
                       OVC040 FM181200 19008KT 6SM -RA BR SCT020
                       OVC040=
201904171501 KPWT 171501Z 1715/1812 20008KT 6SM BR OVC004 FM171800 20014G23KT
                       P6SM SCT010 OVC025 FM172100 21014G23KT P6SM
                       SCT025 BKN050 FM180300 19010KT P6SM SCT050
                       BKN100=
201904171120 TAF KPWT 171120Z 1712/1812 20014KT P6SM SCT010 BKN100
                      TEMPO 1712/1714 OVC010 FM171400 20014KT P6SM
                       OVC008 FM171800 20014G23KT P6SM SCT010 OVC025
                       FM172100 21014G23KT P6SM SCT025 BKN050 FM180300
                       19010KT P6SM SCT050 BKN100=
201904170539 TAF KPWT 170539Z 1706/1806 20012KT P6SM BKN010 OVC020 FM171800
                       20014G23KT P6SM SCT010 OVC025 FM180300 19009KT
                       P6SM OVC050=
201904170049 KPWT 170049Z 1701/1724 19009KT P6SM VCSH SCT025 OVC040
                      TEMPO 1701/1705 P6SM -RA BKN025 OVC040 FM170600
                       20012KT P6SM BKN010 OVC020 FM171800 20014G23KT
                       P6SM SCT010 OVC020=
201904162320 TAF KPWT 162320Z 1700/1724 22012KT P6SM VCSH BKN025 BKN040 FM170600
                       20010KT P6SM BKN010 OVC020
                      TEMPO 1706/1710 -RA OVC010 FM171800 20014G23KT
                       P6SM SCT010 OVC020=
201904161720 TAF KPWT 161720Z 1618/1718 20006KT P6SM SCT010 BKN020 BKN100 FM162200
                       22012KT P6SM BKN030 BKN100 FM170600 20010KT
                       P6SM BKN015 OVC030=
201904161536 KPWT 161536Z 1616/1712 00000KT P6SM BKN005 OVC035 FM161700 20006KT
                       P6SM BKN040 BKN100 FM162200 22012KT P6SM
                       BKN050 BKN100 FM170600 20010KT P6SM BKN015
                       OVC030=
201904161120 TAF KPWT 161120Z 1612/1712 00000KT P6SM BKN050 BKN100 FM161600
                       20006KT P6SM BKN050 BKN100 FM162200 22012KT
                       P6SM BKN050 BKN100 FM170600 20010KT P6SM
                       BKN015 OVC030=
201904160539 TAF KPWT 160539Z 1606/1706 00000KT P6SM BKN040 OVC070
                      TEMPO 1606/1608 P6SM -RA OVC040 FM161400
                       19005KT P6SM BKN035 OVC050 FM161800 20010KT
                       P6SM SCT040 BKN050 OVC080 FM170200 19008KT
                       P6SM BKN040 OVC080=
201904152320 TAF KPWT 152320Z 1600/1624 03006KT P6SM SCT050 BKN200 FM160100
                       03005KT P6SM BKN040 OVC100 FM160500 00000KT
                       P6SM OVC040 FM161400 VRB03KT P6SM OVC030
                       FM161800 20010KT P6SM OVC030=
201904151722 TAF KPWT 151722Z 1518/1618 VRB03KT P6SM SCT025 SCT200 FM152000
                       03006KT P6SM SCT050 BKN200 FM160000 03005KT
                       P6SM BKN040 OVC100 FM160500 00000KT P6SM
                       OVC040 FM161600 20004KT P6SM OVC030=
201904151130 TAF KPWT 151130Z 1512/1612 22004KT P6SM BKN003 OVC006 FM151400
                       22004KT P6SM SCT003 OVC006 FM151700 VRB03KT
                       P6SM SCT008 BKN025 BKN100 FM152000 03006KT
                       P6SM SCT050 BKN200=
201904150529 TAF KPWT 150529Z 1506/1606 20006KT P6SM VCSH SCT015 OVC025
                      TEMPO 1506/1510 BKN015 FM151500 05005KT P6SM
                       OVC025 FM152000 03006KT P6SM BKN030 FM152300
                       02007KT P6SM SCT050 BKN200=
201904142320 TAF KPWT 142320Z 1500/1524 21012KT P6SM VCSH FEW060 OVC120
                      TEMPO 1500/1503 P6SM -SHRA BKN020 OVC060
                       FM150300 19004KT P6SM VCSH OVC050 FM151200
                       15005KT P6SM OVC015 FM151500 07005KT P6SM
                       BKN050 FM152100 03007KT P6SM SCT050=
201904141733 TAF KPWT 141733Z 1418/1518 22008KT P6SM SCT020 OVC050 FM142000
                       22008G15KT P6SM VCSH BKN020 OVC050 FM150500
                       VRB03KT P6SM BKN050=
201904141500 KPWT 141500Z 1415/1512 00000KT P6SM OVC010 FM141800 20008KT P6SM
                       -SHRA BKN030 BKN050 FM150600 18008KT P6SM
                       SCT018 OVC030=
201904141130 TAF KPWT 141130Z 1412/1512 20008KT P6SM SCT020 FM141800 20008KT
                       P6SM -SHRA BKN030 BKN050 FM150600 18008KT
                       P6SM SCT018 OVC030=
201904140529 TAF KPWT 140529Z 1406/1506 22008KT P6SM VCSH SCT025 BKN050 BKN080
                       FM141000 20008KT P6SM SCT025 BKN050 FM142000
                       20012G18KT P6SM VCSH OVC040 FM150300 20006KT
                       P6SM OVC030=
201904132334 TAF KPWT 132334Z 1400/1424 19014G19KT P6SM -SHRA OVC005 FM140200
                       19013G19KT P6SM OVC015 FM140900 20008G15KT
                       P6SM OVC003 FM141800 20013G19KT P6SM BKN015
                       FM142200 20012G18KT P6SM OVC040=
201904132105 KPWT 132105Z 1321/1418 18009G16KT 6SM -RA BR OVC007 FM132300 22017G24KT
                       5SM -RA BR OVC006 FM140200 19011G18KT P6SM
                       VCSH BKN015 OVC030 FM141200 19007KT P6SM
                       OVC025=
201904131740 TAF KPWT 131740Z 1318/1418 20012G18KT P6SM -RA BKN007 BKN015 OVC025
                       FM131900 21016G23KT P6SM -RA OVC007 FM132300
                       22017G24KT 3SM -RA BR OVC006 FM140200 19011G18KT
                       P6SM -RA BKN015 OVC030 FM141200 19007KT
                       P6SM OVC025=
201904131532 KPWT 131532Z 1316/1412 19010KT P6SM -RA BKN007 OVC026 FM140000
                       22014G24KT P6SM -SHRA BKN020 OVC030 FM140400
                       22014G24KT P6SM VCSH SCT025 BKN040 BKN060
                       FM140800 18010KT P6SM SCT030 OVC045=
201904131429 KPWT 131429Z 1314/1412 19012G20KT P6SM -RA FEW009 BKN027 OVC040
                       FM140000 22014G24KT P6SM -SHRA BKN020 OVC030
                       FM140400 22014G24KT P6SM VCSH SCT025 BKN040
                       BKN060 FM140800 18010KT P6SM SCT030 OVC045=
201904131140 TAF KPWT 131140Z 1312/1412 19014G24KT P6SM SCT030 OVC070 FM131500
                       19014G24KT P6SM -RA SCT020 BKN035 OVC050
                       FM140000 22014G24KT P6SM -SHRA BKN020 OVC030
                       FM140400 22014G24KT P6SM VCSH SCT025 BKN040
                       BKN060 FM140800 18010KT P6SM SCT030 OVC045=
201904130526 TAF KPWT 130526Z 1306/1406 22010KT P6SM OVC015 FM131200 19009KT
                       P6SM SCT008 OVC012 FM131500 20013G23KT 4SM
                       -RA BR BKN007 OVC010 FM132300 19015G25KT
                       6SM -SHRA OVC007 FM140400 20013G20KT P6SM
                       OVC012=
201904130215 KPWT 130215Z 1302/1324 VRB03KT P6SM VCSH BKN028 BKN035 FM130900
                       19006KT P6SM OVC015 FM131200 19007KT P6SM
                       -RA OVC012 FM131800 19016KT 3SM -RA BR OVC012=
201904122321 TAF KPWT 122321Z 1300/1324 00000KT P6SM SCT030 BKN045 FM130900
                       19006KT P6SM OVC015 FM131200 19007KT P6SM
                       -RA OVC012 FM131800 19016KT 3SM -RA BR OVC012=
201904121735 TAF KPWT 121735Z 1218/1318 06006KT P6SM OVC012 FM122200 19006KT
                       P6SM SCT020 BKN040 FM130900 19007KT P6SM
                       OVC015 FM131200 19008KT P6SM -RA OVC007
                       FM131500 19011KT P6SM -RA OVC015=
201904121136 TAF KPWT 121136Z 1212/1312 VRB03KT 3SM -RA OVC004 FM121400 VRB03KT
                       P6SM OVC006 FM121800 VRB03KT P6SM SCT008
                       OVC015 FM122100 VRB03KT P6SM SCT015 BKN025
                       OVC040 FM130000 VRB03KT P6SM SCT025 BKN040=
201904120534 TAF KPWT 120534Z 1206/1306 20003KT P6SM VCSH BKN009 OVC015
                      TEMPO 1206/1210 -RA OVC009 FM121000 VRB03KT
                       P6SM VCSH OVC007 FM121900 VRB05KT P6SM SCT009
                       OVC018 FM122300 19006KT P6SM SCT025 BKN050
                       FM130400 18004KT P6SM SCT020 OVC050=
201904120258 KPWT 120258Z 1203/1224 20008KT P6SM VCSH SCT007 OVC015 FM120500
                       VRB05KT P6SM BKN007 OVC010 FM121900 17005KT
                       P6SM OVC015=
201904112338 TAF KPWT 112338Z 1200/1224 20006KT P6SM VCSH BKN007 OVC015 FM120500
                       VRB05KT P6SM BKN007 OVC010 FM121900 17005KT
                       P6SM OVC015=
201904111730 TAF KPWT 111730Z 1118/1218 22005KT P6SM SCT006 OVC015
                      TEMPO 1118/1120 OVC007 FM112000 20006KT P6SM
                       -RA SCT012 OVC020 FM120100 VRB03KT P6SM
                       -SHRA OVC012 FM120500 VRB03KT P6SM BKN006
                       OVC010=
201904111145 TAF KPWT 111145Z 1112/1212 18004KT P6SM OVC006 FM111600 18006KT
                       P6SM SCT006 OVC015 FM112000 18006KT P6SM
                       -RA SCT012 OVC020 FM120100 VRB03KT P6SM
                       -SHRA OVC012 FM120500 VRB03KT P6SM OVC006=
201904110527 TAF KPWT 110527Z 1106/1206 08005KT P6SM VCSH SCT008 OVC012 FM110900
                       16004KT P6SM -RA OVC007 FM111600 18007KT
                       4SM -RA BKN007 OVC015 FM111900 18012KT P6SM
                       -RA SCT009 OVC018 FM120500 08005KT P6SM
                       -SHRA OVC012=
201904102339 TAF KPWT 102339Z 1100/1124 20012G20KT P6SM BKN025 FM110500 19008KT
                       P6SM OVC020 FM110900 18006KT P6SM -RA OVC020
                       FM111200 16007KT 4SM -RA OVC015=
201904101733 TAF KPWT 101733Z 1018/1118 20010KT P6SM SCT020 BKN040
                      TEMPO 1018/1022 -SHRA SCT009 BKN010 FM102200
                       20012G20KT P6SM OVC025 FM110400 18010KT
                       P6SM OVC020 FM110900 20010KT P6SM -RA OVC020=
201904101123 TAF KPWT 101123Z 1012/1112 VRB03KT P6SM SCT020 BKN040
                      TEMPO 1012/1016 BKN018 OVC030 FM101600 18008KT
                       P6SM SCT025 BKN040
                      TEMPO 1017/1021 -SHRA BKN025 OVC040 FM110000
                       20010KT P6SM VCSH BKN040 FM110400 20010KT
                       P6SM OVC030 FM110900 20010KT P6SM -RA OVC025=
201904100520 TAF KPWT 100520Z 1006/1106 00000KT P6SM BKN040 FM100900 18003KT
                       P6SM BKN015 OVC035 FM101200 18005KT P6SM
                       BKN005 OVC015 FM101600 19012KT P6SM -RA
                       BKN005 OVC013 FM102100 20014KT P6SM -RA
                       BKN013 OVC025=
201904092337 TAF KPWT 092337Z 1000/1024 VRB05KT P6SM BKN045 BKN080 FM100400
                       18006KT P6SM BKN035 FM101800 20012KT P6SM
                       BKN020=
201904091723 TAF KPWT 091723Z 0918/1018 19005KT P6SM BKN040 BKN080
                      TEMPO 0918/0921 BKN008 BKN010 FM100400 07010KT
                       P6SM BKN040 FM100800 16008KT P6SM BKN020=
201904091120 TAF KPWT 091120Z 0912/1012 04008KT P6SM SCT005 BKN020
                      TEMPO 0912/0915 3SM -SHRA BR BKN005 OVC015
                       FM091500 VRB04KT P6SM SCT015 BKN030
                      TEMPO 0915/0918 -SHRA BKN015 OVC030 FM091800
                       VRB04KT P6SM VCSH BKN040 FM100400 23010KT
                       P6SM BKN040 FM100800 18008KT P6SM BKN025=
201904090520 TAF KPWT 090520Z 0906/1006 19006KT P6SM SCT008 BKN030 OVC050
                      TEMPO 0906/0910 BKN008 OVC020 FM091000 17005KT
                       P6SM BKN006 OVC015 FM091800 06006KT P6SM
                       BKN020 OVC040 FM092100 07008KT P6SM SCT025
                       OVC050=
201904082340 TAF KPWT 082340Z 0900/0924 23005KT P6SM -RA FEW008 SCT030 BKN035
                       FM090300 20006KT P6SM BKN030 FM091200 17005KT
                       P6SM BKN025 FM091800 15010KT P6SM BKN020=
201904081738 TAF KPWT 081738Z 0818/0918 VRB04KT P6SM OVC020
                      TEMPO 0818/0820 6SM -RA BR OVC009 FM082000
                       19008KT P6SM -SHRA OVC025 FM082300 22012KT
                       P6SM BKN035 FM090900 18008KT P6SM BKN020=
201904081120 TAF KPWT 081120Z 0812/0912 VRB04KT P6SM BKN050 OVC100
                      TEMPO 0814/0818 -RA OVC040 FM082000 22012KT
                       P6SM -SHRA BKN040 FM082300 22012KT P6SM
                       BKN040 FM090900 18008KT P6SM BKN020=
201904080524 TAF KPWT 080524Z 0806/0906 00000KT P6SM FEW030 BKN250 FM080900
                       03004KT P6SM SCT050 BKN100 FM081100 03005KT
                       P6SM -RA SCT025 BKN060 FM081400 20008KT
                       4SM -RA SCT012 OVC020 FM082000 20010KT P6SM
                       -SHRA BKN030 FM082300 21010KT P6SM SCT035
                       BKN050=
201904080152 KPWT 080152Z 0802/0824 06003KT P6SM SCT030 OVC050
                      TEMPO 0802/0804 BKN030 OVC050 FM080400 03004KT
                       P6SM SCT050 BKN100 FM080900 03005KT P6SM
                       -RA SCT025 BKN060 FM081500 20008KT 4SM -RA
                       SCT012 OVC020 FM082000 20010KT P6SM -SHRA
                       BKN030=
201904072321 TAF KPWT 072321Z 0800/0824 VRB04KT P6SM BKN025 BKN100 FM080300
                       03004KT P6SM BKN030 OVC080 FM080900 03005KT
                       P6SM -RA OVC022 FM081500 20008KT 4SM -RA
                       SCT012 OVC020 FM082000 20010KT P6SM -SHRA
                       BKN030=
201904072103 KPWT 072103Z 0721/0818 24004KT P6SM SCT018 OVC025 FM080600 03004KT
                       P6SM BKN040 OVC080 FM080900 03005KT P6SM
                       -RA OVC022 FM081500 20008KT 4SM -RA SCT012
                       OVC020=
201904071739 TAF KPWT 071739Z 0718/0818 24004KT P6SM SCT011 BKN030
                      TEMPO 0718/0719 BKN011 FM071900 24005KT P6SM
                       SCT020 BKN030 FM072100 24004KT P6SM SCT030
                       BKN080 FM080600 03004KT P6SM BKN040 OVC080
                       FM080900 03005KT P6SM -RA OVC022 FM081500
                       20008KT 4SM -RA SCT012 OVC020=
201904071614 KPWT 071614Z 0716/0812 VRB04KT P6SM SCT005 BKN011
                      TEMPO 0716/0718 BKN005 FM071800 VRB04KT P6SM
                       SCT040 BKN080 FM080800 VRB04KT P6SM -RA
                       OVC040=
201904071122 TAF KPWT 071122Z 0712/0812 33006KT P6SM -RA OVC040 FM071600 VRB04KT
                       P6SM BKN040 FM072000 VRB04KT P6SM SCT040
                       BKN080 FM080800 VRB04KT P6SM -RA OVC040=
201904070807 KPWT 070807Z 0708/0806 00000KT 5SM RA BR OVC025 FM071500 VRB03KT
                       P6SM BKN040 FM072000 21003KT P6SM SCT050=
201904070520 TAF KPWT 070520Z 0706/0806 14004KT P6SM -RA BKN040 OVC070 FM071000
                       06004KT 5SM -RA BR SCT020 OVC040 FM071500
                       VRB03KT P6SM BKN040 FM072000 21003KT P6SM
                       SCT050=
201904070249 KPWT 070249Z 0703/0724 21010KT P6SM FEW030 SCT060 BKN120 FM070600
                       17006KT P6SM -RA SCT020 OVC050 FM071000
                       VRB03KT 5SM -RA BR BKN015 FM072000 VRB04KT
                       P6SM BKN020=
201904062320 TAF KPWT 062320Z 0700/0724 20015G25KT P6SM SCT030 BKN060 FM070100
                       20012KT P6SM BKN030 FM070400 18008KT P6SM
                       -RA BKN020 FM071000 VRB03KT 5SM -RA BR BKN015
                       FM072000 VRB04KT P6SM BKN020=
201904061803 KPWT 061803Z 0618/0718 20010KT P6SM -RA SCT015 BKN040 FM062000
                       20015G25KT P6SM -SHRA BKN010 BKN030 FM070000
                       20012KT P6SM BKN040 FM070400 18008KT P6SM
                       -RA BKN020 FM071000 VRB03KT 5SM -RA BR BKN030=
201904061729 TAF KPWT 061729Z 0618/0718 20010KT P6SM -RA BKN005 OVC030 FM062000
                       20015G25KT P6SM -SHRA BKN010 BKN030 FM070000
                       20012KT P6SM BKN040 FM070400 18008KT P6SM
                       -RA BKN020 FM071000 VRB03KT 5SM -RA BR BKN030=
201904061120 TAF KPWT 061120Z 0612/0712 VRB04KT P6SM -RA BKN050 OVC100 FM061600
                       18018G28KT P6SM -RA OVC025 FM062000 20023G35KT
                       P6SM -SHRA BKN030 FM070000 20018G28KT P6SM
                       BKN040 FM070400 20012KT P6SM SCT040 BKN070=
201904060522 TAF KPWT 060522Z 0606/0706 19007KT P6SM SCT025 BKN040 OVC060
                      TEMPO 0606/0609 BKN025 OVC040 FM061200 16008KT
                       P6SM -RA BKN025 OVC050 FM061700 18018G28KT
                       P6SM -RA OVC025 FM062100 20023G35KT P6SM
                       -SHRA BKN035 BKN050 FM070000 20018G28KT
                       P6SM SCT040 SCT070 FM070300 20014KT P6SM
                       SCT040 BKN070=
201904052329 TAF KPWT 052329Z 0600/0624 19017G26KT P6SM VCSH BKN020 OVC030 FM060200
                       20010KT P6SM -SHRA BKN030 OVC040 FM060600
                       19010KT P6SM VCSH BKN040 OVC060 FM061300
                       08011KT 4SM BR VCSH BKN035 OVC050 FM061700
                       19020G30KT 4SM -RA BR BKN030 OVC040=
201904051747 KPWT 051747Z 0518/0618 15005KT P6SM SCT035 BKN060 FM051900 19010KT
                       P6SM -SHRA BKN030 OVC040 FM052200 19015G25KT
                       P6SM -RA BKN030 OVC040
                      TEMPO 0522/0602 RA BKN020 OVC030 FM060200
                       20010KT P6SM -SHRA BKN030 OVC040 FM060600
                       19010KT P6SM VCSH BKN040 OVC060 FM061300
                       08011KT 4SM BR VCSH BKN035 OVC050=
201904051739 TAF KPWT 051739Z 0518/0618 15005KT P6SM -SHRA BKN035 OVC050 FM051900
                       19010KT P6SM -SHRA BKN030 OVC040 FM052200
                       19015G25KT P6SM -RA BKN030 OVC040
                      TEMPO 0522/0524 RA BKN020 OVC030 FM060200
                       20010KT P6SM -SHRA BKN030 OVC040 FM060600
                       19010KT P6SM VCSH BKN040 OVC060=
201904051120 TAF KPWT 051120Z 0512/0612 15005KT P6SM -SHRA BKN035 OVC050 FM051700
                       19010KT P6SM -SHRA BKN030 OVC040 FM052000
                       19015G25KT P6SM -RA BKN030 OVC040
                      TEMPO 0520/0524 RA BKN020 OVC030 FM060200
                       20010KT P6SM -SHRA BKN030 OVC040 FM060600
                       19010KT P6SM VCSH BKN040 OVC060=
201904050544 TAF KPWT 050544Z 0506/0606 00000KT P6SM -RA BKN050 OVC090 FM051000
                       19008KT P6SM -SHRA BKN040 OVC060 FM051700
                       19010KT P6SM -SHRA BKN030 OVC040 FM052000
                       19015G25KT P6SM -RA BKN030 OVC040
                      TEMPO 0520/0524 RA BKN020 OVC030 FM060200
                       20010KT P6SM -SHRA BKN030 OVC040=
201904050053 KPWT 050053Z 0501/0524 20005KT P6SM -RA BKN060 OVC120 FM050600
                       17006KT P6SM -SHRA BKN040 OVC080 FM051000
                       19008KT P6SM -SHRA BKN040 OVC060 FM051700
                       15012KT P6SM -SHRA BKN030 OVC040=
201904042338 TAF KPWT 042338Z 0500/0524 21005KT P6SM BKN060 OVC120 FM050600
                       17006KT P6SM BKN040 OVC080 FM051000 19008KT
                       P6SM -SHRA BKN040 OVC060 FM051700 15012KT
                       P6SM -SHRA BKN030 OVC040=
201904041738 TAF KPWT 041738Z 0418/0518 15005KT P6SM FEW100 FM042200 VRB04KT
                       P6SM BKN060 OVC120 FM050600 17006KT P6SM
                       -SHRA BKN040 OVC080 FM051000 19010KT P6SM
                       -SHRA BKN040 OVC060=
201904041403 KPWT 041403Z 0414/0512 15005KT P6SM SCT035 BKN200
                      TEMPO 0414/0416 1/4SM FG FM042200 VRB04KT
                       P6SM BKN060 OVC120 FM050400 16006KT P6SM
                       -SHRA BKN040 OVC080=
201904041211 KPWT 041211Z 0412/0512 15005KT P6SM SCT035 BKN200
                      TEMPO 0412/0416 2SM BR FM042200 VRB04KT P6SM
                       BKN060 OVC120 FM050400 16006KT P6SM -SHRA
                       BKN040 OVC080=
201904041120 TAF KPWT 041120Z 0412/0512 15005KT P6SM SCT035 BKN200 FM042200
                       VRB04KT P6SM BKN060 OVC120 FM050400 16006KT
                       P6SM -SHRA BKN040 OVC080=
201904040520 TAF KPWT 040520Z 0406/0506 21013KT P6SM FEW014 BKN150 FM041000
                       17007KT P6SM SCT025 BKN080 FM041700 15007KT
                       P6SM OVC200 FM050000 20006KT P6SM OVC060=
201904032337 TAF KPWT 032337Z 0400/0424 21017G25KT P6SM VCSH SCT015 BKN035
                      TEMPO 0400/0403 -SHRA BKN014 OVC030 FM040300
                       20012G18KT P6SM SCT022 BKN040 FM040800 18008KT
                       P6SM SCT030 BKN060 FM041300 VRB05KT P6SM
                       SCT010 BKN070 FM041800 20005KT P6SM BKN100
                       OVC200=
201904031952 KPWT 031952Z 0320/0418 21017G25KT P6SM VCSH SCT015 BKN035 FM040300
                       20011KT P6SM SCT022 BKN040 FM040900 18006KT
                       P6SM SCT030 BKN060 FM041300 VRB05KT P6SM
                       SCT010 BKN070=
201904031726 TAF KPWT 031726Z 0318/0418 20011KT P6SM VCSH SCT005 BKN015 OVC040
                       TEMPO 0318/0321 BKN005 OVC022 FM032100 21012G20KT
                       P6SM VCSH SCT012 BKN025 FM040300 20011KT
                       P6SM SCT022 BKN040 FM040900 18006KT P6SM
                       SCT030 BKN060 FM041300 VRB05KT P6SM SCT010
                       BKN070=
201904031435 KPWT 031435Z 0315/0412 20008KT P6SM VCSH SCT010 OVC020
                      TEMPO 0315/0318 6SM -RA BR BKN005 OVC012
                       FM031800 20012KT P6SM VCSH BKN015 OVC040
                       FM032000 21012G20KT P6SM VCSH SCT025 BKN050
                       FM041000 18008KT P6SM BKN025=
201904031120 TAF KPWT 031120Z 0312/0412 20008KT P6SM BKN010 OVC030 FM031600
                       20012KT P6SM VCSH BKN015 OVC040 FM031900
                       21012G20KT P6SM VCSH SCT025 BKN050 FM041000
                       18008KT P6SM BKN025=
201904030908 KPWT 030908Z 0309/0406 20007KT P6SM -SHRA BKN022 OVC040 FM031500
                       21010G18KT P6SM VCSH BKN015 OVC030 FM032100
                       20012G20KT P6SM VCSH SCT020 BKN040=
201904030530 TAF KPWT 030530Z 0306/0406 25005KT P6SM -SHRA OVC060 FM030900 20008KT
                       P6SM -SHRA OVC035 FM031500 21011G18KT P6SM
                       -SHRA OVC009 FM040100 20013G19KT P6SM VCSH
                       BKN035 BKN060=
201904022321 TAF KPWT 022321Z 0300/0324 22007KT P6SM OVC080 FM030300 20006KT
                       P6SM VCSH OVC050 FM030800 19008KT P6SM -SHRA
                       OVC035 FM031200 19010KT 6SM -SHRA BR BKN017
                       OVC030 FM031700 20012G18KT 6SM -SHRA BR
                       BKN012 OVC025 FM032300 20014G20KT P6SM VCSH
                       BKN030 BKN050=
201904021740 TAF KPWT 021740Z 0218/0318 03006KT P6SM BKN100 OVC200 FM022100
                       VRB06KT P6SM OVC080 FM030300 20006KT P6SM
                       VCSH OVC050 FM030800 19008KT P6SM -SHRA
                       OVC040 FM031200 19010KT 6SM -SHRA BR BKN017
                       OVC030 FM031700 20012G18KT 6SM -SHRA BR
                       BKN012 OVC025=
201904021122 TAF KPWT 021122Z 0212/0312 03006KT P6SM OVC100 FM022100 03006KT
                       P6SM OVC070 FM030000 20007KT P6SM OVC050
                       FM030500 20005KT P6SM -SHRA OVC040=
201904020856 KPWT 020856Z 0209/0306 04006KT P6SM OVC090 FM022100 03006KT P6SM
                       OVC070 FM030000 20006KT P6SM OVC050=
201904020520 TAF KPWT 020520Z 0206/0306 05007KT P6SM FEW110 BKN200 FM020800
                       04005KT P6SM OVC090 FM022100 03006KT P6SM
                       OVC070 FM030000 20006KT P6SM OVC050=
201904012339 TAF KPWT 012339Z 0200/0224 03009KT P6SM BKN120 BKN250 FM021800
                       03007KT P6SM BKN120 OVC150=
201904011735 TAF KPWT 011735Z 0118/0218 04012KT P6SM BKN200 FM012100 03014G18KT
                       P6SM BKN100 OVC150 FM020200 04004KT P6SM
                       BKN150=
201904011120 TAF KPWT 011120Z 0112/0212 04007KT P6SM OVC200 FM012100 03010KT
                       P6SM BKN100 OVC150 FM020200 04004KT P6SM
                       BKN100=
201904010520 TAF KPWT 010520Z 0106/0206 05005KT P6SM BKN200 FM011200 02005KT
                       P6SM OVC200 FM012100 03010KT P6SM BKN100
                       OVC150=