##########################################################
# Query made at 02/16/2025 00:25:56 UTC
# Time interval: from 10/01/2019 00:00  to 10/31/2019 23:59  UTC
##########################################################

##########################################################
# KPWT, Bremerton National Automatic Weather Observing / Reporting System (United States)
# WMO index: -----. WIGOS ID: Unknown
# Latitude 47-30N. Longitude 122-45W. Altitude 147 m.
##########################################################

###################################
#  METAR/SPECI from KPWT
###################################
201910312356 METAR KPWT 312356Z AUTO 06005KT 10SM CLR 10/03 A3037 RMK AO2 SLP303 6//// T01000028 10117 20078 53002 PNO $=
201910312256 METAR KPWT 312256Z AUTO 04004KT 10SM CLR 11/02 A3037 RMK AO2 SLP302 T01110022 PNO $=
201910312156 METAR KPWT 312156Z AUTO VRB03KT 10SM CLR 12/01 A3036 RMK AO2 SLP301 T01170011 PNO $=
201910312056 METAR KPWT 312056Z AUTO 00000KT 10SM CLR 11/01 A3036 RMK AO2 SLP301 6//// T01060011 58004 PNO $=
201910311956 METAR KPWT 311956Z AUTO 03003KT 10SM CLR 11/01 A3037 RMK AO2 SLP302 T01110006 PNO $=
201910311856 METAR KPWT 311856Z AUTO 01003KT 10SM CLR 09/01 A3038 RMK AO2 SLP305 T00940011 PNO $=
201910311756 METAR KPWT 311756Z AUTO 00000KT 10SM CLR 08/01 A3037 RMK AO2 SLP306 6//// T00830011 10083 21022 51009 PNO $=
201910311656 METAR KPWT 311656Z AUTO 00000KT 10SM CLR 05/02 A3036 RMK AO2 SLP301 T00500022 PNO $=
201910311556 METAR KPWT 311556Z AUTO 00000KT 10SM CLR 01/M01 A3036 RMK AO2 SLP299 T00061006 FZRANO PNO $=
201910311456 METAR KPWT 311456Z AUTO 00000KT 10SM CLR M01/M02 A3035 RMK AO2 SLP294 6//// T10061017 53003 FZRANO PNO $=
201910311356 METAR KPWT 311356Z AUTO 00000KT 10SM CLR M01/M02 A3034 RMK AO2 SLP293 T10061017 FZRANO PNO $=
201910311256 METAR KPWT 311256Z AUTO 00000KT 10SM CLR M01/M02 A3034 RMK AO2 SLP295 T10111022 FZRANO PNO $=
201910311056 METAR KPWT 311056Z AUTO 00000KT 10SM CLR M03/M04 A3034 RMK AO2 SLP294 T10281039 FZRANO PNO $=
201910310956 METAR KPWT 310956Z AUTO 02003KT 10SM CLR M02/M03 A3035 RMK AO2 SLP296 T10221033 FZRANO PNO $=
201910310856 METAR KPWT 310856Z AUTO 00000KT 10SM CLR M02/M04 A3033 RMK AO2 SLP291 6//// T10221039 51004 FZRANO PNO $=
201910310756 METAR KPWT 310756Z AUTO 00000KT 10SM CLR 00/M03 A3033 RMK AO2 SLP289 T00001033 401061028 FZRANO PNO $=
201910310656 METAR KPWT 310656Z AUTO 00000KT 10SM CLR 02/M03 A3032 RMK AO2 SLP287 T00221028 FZRANO PNO $=
201910310556 METAR KPWT 310556Z AUTO 05006KT 10SM CLR 05/M01 A3032 RMK AO2 SLP285 6//// T00501011 10094 20044 55001 PNO $=
201910310456 METAR KPWT 310456Z AUTO 06006KT 10SM CLR 05/M02 A3032 RMK AO2 SLP286 T00501017 PNO $=
201910310356 METAR KPWT 310356Z AUTO 06007KT 10SM CLR 05/M03 A3032 RMK AO2 SLP287 T00501028 PNO $=
201910310256 METAR KPWT 310256Z AUTO 04008KT 10SM CLR 06/M06 A3032 RMK AO2 SLP287 6//// T00611056 55000 PNO $=
201910310156 METAR KPWT 310156Z AUTO 05008KT 10SM CLR 06/M03 A3031 RMK AO2 SLP285 T00611033 PNO $=
201910310056 METAR KPWT 310056Z AUTO 04008KT 10SM CLR 07/M03 A3032 RMK AO2 SLP285 T00721028 PNO $=
201910302356 METAR KPWT 302356Z AUTO 03008KT 10SM CLR 09/M03 A3032 RMK AO2 SLP286 6//// T00941028 10106 20067 55008 PNO $=
201910302256 METAR KPWT 302256Z AUTO 03008KT 10SM CLR 10/M04 A3032 RMK AO2 SLP286 T01001039 PNO $=
201910302156 METAR KPWT 302156Z AUTO 05009KT 10SM CLR 11/M05 A3033 RMK AO2 SLP289 T01061050 PNO $=
201910302056 METAR KPWT 302056Z AUTO 05010KT 10SM CLR 10/M03 A3035 RMK AO2 SLP294 6//// T01001033 58014 PNO $=
201910301956 METAR KPWT 301956Z AUTO 05009KT 10SM CLR 10/M04 A3036 RMK AO2 SLP300 T01001044 PNO $=
201910301856 METAR KPWT 301856Z AUTO 03009KT 10SM CLR 09/M04 A3038 RMK AO2 SLP307 T00891039 PNO $=
201910301756 METAR KPWT 301756Z AUTO 06009KT 10SM CLR 07/M01 A3039 RMK AO2 SLP308 6//// T00671011 10067 20011 58000 PNO $=
201910301656 METAR KPWT 301656Z AUTO 05009KT 10SM CLR 05/M01 A3039 RMK AO2 SLP312 T00501011 PNO $=
201910301556 METAR KPWT 301556Z AUTO 08005KT 10SM CLR 03/M03 A3039 RMK AO2 SLP310 T00281033 PNO $=
201910301456 METAR KPWT 301456Z AUTO 05006KT 10SM CLR 01/M04 A3039 RMK AO2 SLP310 6//// T00111044 55005 FZRANO PNO $=
201910301356 METAR KPWT 301356Z AUTO 05006KT 10SM CLR 02/M04 A3038 RMK AO2 SLP309 T00171039 FZRANO PNO $=
201910301256 METAR KPWT 301256Z AUTO 05006KT 10SM CLR 02/M03 A3039 RMK AO2 SLP313 T00171028 FZRANO PNO $=
201910301156 METAR KPWT 301156Z AUTO 06005KT 10SM CLR 02/M07 A3040 RMK AO2 SLP314 6//// 7//// T00221067 10028 21028 FZRANO PNO $=
201910301056 METAR KPWT 301056Z AUTO 05008KT 10SM CLR 02/M07 A3040 RMK AO2 SLP314 T00221067 FZRANO PNO $=
201910300956 METAR KPWT 300956Z AUTO 03006KT 10SM CLR 01/M06 RMK AO2 SLPNO T00111061 FZRANO PNO $=
201910300856 METAR KPWT 300856Z AUTO 04004KT 10SM CLR 02/M05 A3042 RMK AO2 SLP322 6//// T00221050 58008 FZRANO PNO $=
201910300756 METAR KPWT 300756Z AUTO 04003KT 10SM CLR M01/M06 A3043 RMK AO2 SLP327 T10061061 400831022 FZRANO PNO $=
201910300656 METAR KPWT 300656Z AUTO 00000KT 10SM CLR M02/M05 A3044 RMK AO2 SLP327 T10171050 FZRANO PNO $=
201910300556 METAR KPWT 300556Z AUTO 00000KT 10SM CLR M02/M06 A3045 RMK AO2 SLP330 6//// T10171056 10078 21022 55002 FZRANO PNO $=
201910300456 METAR KPWT 300456Z AUTO 00000KT 10SM OVC120 M02/M05 A3045 RMK AO2 SLP330 T10171050 FZRANO PNO $=
201910300356 METAR KPWT 300356Z AUTO 00000KT 10SM BKN110 M01/M06 A3045 RMK AO2 SLP332 T10111061 FZRANO PNO $=
201910300256 METAR KPWT 300256Z AUTO 00000KT 10SM CLR 01/M08 A3045 RMK AO2 SLP332 6//// T00061078 56004 FZRANO PNO $=
201910300156 METAR KPWT 300156Z AUTO 00000KT 10SM CLR 01/M07 A3046 RMK AO2 SLP333 T00061072 FZRANO PNO $=
201910300056 METAR KPWT 300056Z AUTO 00000KT 10SM CLR 04/M11 A3046 RMK AO2 SLP334 T00441106 PNO $=
201910292256 METAR KPWT 292256Z AUTO 36005KT 10SM CLR 08/M13 A3048 RMK AO2 SLP339 T00831133 PNO $=
201910292056 METAR KPWT 292056Z AUTO 07004KT 10SM CLR 07/M16 A3050 RMK AO2 SLP349 6//// T00721156 58004 PNO $=
201910291956 METAR KPWT 291956Z AUTO 03005KT 10SM CLR 07/M14 A3051 RMK AO2 SLP349 T00671139 PNO $=
201910291856 METAR KPWT 291856Z AUTO 05008KT 10SM CLR 07/M15 A3051 RMK AO2 SLP351 T00671150 PNO $=
201910291756 METAR KPWT 291756Z AUTO 05007KT 10SM CLR 05/M17 A3051 RMK AO2 SLP351 6//// T00501172 10056 20000 50005 PNO $=
201910291656 METAR KPWT 291656Z AUTO 06009G16KT 10SM CLR 04/M17 A3051 RMK AO2 SLP353 T00391172 PNO $=
201910291556 METAR KPWT 291556Z AUTO 07007KT 10SM CLR 03/M17 A3051 RMK AO2 SLP351 T00281167 PNO $=
201910291356 METAR KPWT 291356Z AUTO 07007KT 10SM CLR 02/M13 A3048 RMK AO2 SLP341 T00221133 FZRANO PNO $=
201910291156 METAR KPWT 291156Z AUTO 09009G17KT 10SM CLR 04/M10 A3043 RMK AO2 SLP325 6//// 7//// T00391100 10056 20033 51021 PNO $=
201910291056 METAR KPWT 291056Z AUTO 08008KT 10SM CLR 04/M08 A3042 RMK AO2 SLP322 T00391078 PNO $=
201910290956 METAR KPWT 290956Z AUTO 09006KT 10SM FEW041 05/M06 A3040 RMK AO2 SLP315 T00501061 PNO $=
201910290856 METAR KPWT 290856Z AUTO 09006KT 10SM SCT039 06/04 A3037 RMK AO2 SLP303 6//// T00560039 53034 PNO $=
201910290756 METAR KPWT 290756Z AUTO 06007KT 10SM CLR 05/02 A3032 RMK AO2 SLP287 T00500017 401111033 PNO $=
201910290656 METAR KPWT 290656Z AUTO 05008KT 10SM CLR 05/03 A3028 RMK AO2 SLP274 T00500028 PNO $=
201910290556 METAR KPWT 290556Z AUTO 07009KT 10SM CLR 06/02 A3027 RMK AO2 SLP269 6//// T00560022 10094 20044 53016 PNO $=
201910290456 METAR KPWT 290456Z AUTO 05007KT 10SM CLR 05/03 A3025 RMK AO2 SLP262 T00500028 PNO $=
201910290356 METAR KPWT 290356Z AUTO 05009KT 10SM CLR 06/03 A3023 RMK AO2 SLP256 T00560033 PNO $=
201910290256 METAR KPWT 290256Z AUTO 02004KT 10SM CLR 05/03 A3022 RMK AO2 SLP252 6//// T00500028 53013 PNO $=
201910290156 METAR KPWT 290156Z AUTO 07006KT 10SM CLR 06/03 A3021 RMK AO2 SLP248 T00610033 PNO $=
201910290056 METAR KPWT 290056Z AUTO 05005KT 10SM CLR 07/03 A3018 RMK AO2 SLP240 T00670033 PNO $=
201910282356 METAR KPWT 282356Z AUTO 07006KT 10SM CLR 09/03 A3018 RMK AO2 SLP240 6//// T00940033 10111 20089 55003 PNO $=
201910282256 METAR KPWT 282256Z AUTO VRB04KT 10SM CLR 10/03 A3017 RMK AO2 SLP237 T01000028 PNO $=
201910282156 METAR KPWT 282156Z AUTO 07003KT 10SM CLR 11/01 A3018 RMK AO2 SLP239 T01060006 PNO $=
201910282056 METAR KPWT 282056Z AUTO 04006KT 10SM CLR 11/00 A3019 RMK AO2 SLP242 6//// T01060000 58015 PNO $=
201910281956 METAR KPWT 281956Z AUTO 00000KT 10SM CLR 10/M01 A3022 RMK AO2 SLP252 T01001006 PNO $=
201910281856 METAR KPWT 281856Z AUTO 00000KT 10SM CLR 11/M01 A3023 RMK AO2 SLP256 T01061006 PNO $=
201910281756 METAR KPWT 281756Z AUTO 00000KT 10SM CLR 09/M01 A3023 RMK AO2 SLP257 6//// T00891006 10089 21033 58001 PNO $=
201910281656 METAR KPWT 281656Z AUTO 00000KT 10SM CLR 06/01 A3023 RMK AO2 SLP257 T00560006 PNO $=
201910281556 METAR KPWT 281556Z AUTO 00000KT 10SM CLR 02/02 A3024 RMK AO2 SLP260 T00220022 FZRANO PNO $=
201910281456 METAR KPWT 281456Z AUTO 00000KT 10SM CLR M03/M03 A3023 RMK AO2 SLP258 6//// T10331033 56011 FZRANO PNO $=
201910281356 METAR KPWT 281356Z AUTO 00000KT 10SM CLR M03/M03 A3024 RMK AO2 SLP259 T10281033 FZRANO PNO $=
201910281256 METAR KPWT 281256Z AUTO 00000KT 10SM CLR M03/M03 A3025 RMK AO2 SLP263 T10281033 FZRANO PNO $=
201910281156 METAR KPWT 281156Z AUTO 00000KT 10SM CLR M02/M03 A3027 RMK AO2 SLP269 6//// 7//// T10221028 10006 21022 FZRANO PNO $=
201910281056 METAR KPWT 281056Z AUTO 00000KT 10SM CLR M02/M03 A3029 RMK AO2 SLP278 T10221028 FZRANO PNO $=
201910280956 METAR KPWT 280956Z AUTO 00000KT 10SM CLR M02/M03 A3031 RMK AO2 SLP282 T10221028 FZRANO PNO $=
201910280856 METAR KPWT 280856Z AUTO 00000KT 10SM CLR M02/M02 RMK AO2 SLPNO 6//// T10171022 FZRANO PNO $=
201910280756 METAR KPWT 280756Z AUTO 00000KT 10SM CLR M02/M03 A3033 RMK AO2 SLP291 T10171028 401221017 FZRANO PNO $=
201910280656 METAR KPWT 280656Z AUTO 00000KT 10SM CLR M02/M03 A3035 RMK AO2 SLP297 T10171028 FZRANO PNO $=
201910280556 METAR KPWT 280556Z AUTO 00000KT 10SM CLR 00/M02 A3035 RMK AO2 SLP296 6//// T00001017 10100 21011 58012 FZRANO PNO $=
201910280456 METAR KPWT 280456Z AUTO 00000KT 10SM CLR 02/M02 A3036 RMK AO2 SLP302 T00221017 FZRANO PNO $=
201910280356 METAR KPWT 280356Z AUTO 03005KT 10SM CLR 05/M02 A3038 RMK AO2 SLP305 T00501022 PNO $=
201910280256 METAR KPWT 280256Z AUTO 06008KT 10SM CLR 06/M02 A3038 RMK AO2 SLP308 6//// T00611017 56004 PNO $=
201910280156 METAR KPWT 280156Z AUTO 05009KT 10SM CLR 07/M02 A3039 RMK AO2 SLP310 T00721017 PNO $=
201910280056 METAR KPWT 280056Z AUTO 04008KT 10SM CLR 08/M02 A3039 RMK AO2 SLP311 T00781017 PNO $=
201910272356 METAR KPWT 272356Z AUTO 07006KT 10SM CLR 11/01 A3040 RMK AO2 SLP314 6//// T01060011 10122 20094 56014 PNO $=
201910272256 METAR KPWT 272256Z AUTO 05007KT 10SM CLR 12/01 A3041 RMK AO2 SLP317 T01170011 PNO $=
201910272156 METAR KPWT 272156Z AUTO 08007KT 10SM CLR 12/M01 A3042 RMK AO2 SLP323 T01171011 PNO $=
201910272056 METAR KPWT 272056Z AUTO 07010KT 10SM CLR 12/M01 A3044 RMK AO2 SLP327 6//// T01171006 58014 PNO $=
201910271956 METAR KPWT 271956Z AUTO 05009G18KT 10SM CLR 12/M01 A3046 RMK AO2 SLP334 T01171011 PNO $=
201910271856 METAR KPWT 271856Z AUTO 05014KT 10SM CLR 11/M01 A3047 RMK AO2 SLP339 T01111006 PNO $=
201910271756 METAR KPWT 271756Z AUTO 06008KT 10SM CLR 10/02 A3048 RMK AO2 SLP342 6//// T01000017 10100 20039 50008 PNO $=
201910271656 METAR KPWT 271656Z AUTO 05006KT 10SM CLR 08/02 A3049 RMK AO2 SLP344 T00780022 PNO $=
201910271556 METAR KPWT 271556Z AUTO 00000KT 10SM CLR 06/02 A3048 RMK AO2 SLP340 T00560022 PNO $=
201910271456 METAR KPWT 271456Z AUTO 05007KT 10SM CLR 05/01 A3046 RMK AO2 SLP333 6//// T00500006 58007 PNO $=
201910271356 METAR KPWT 271356Z AUTO 05007KT 10SM CLR 06/M01 A3047 RMK AO2 SLP336 T00611011 PNO $=
201910271256 METAR KPWT 271256Z AUTO 02006KT 10SM CLR 08/M03 A3047 RMK AO2 SLP337 T00781033 PNO $=
201910271156 METAR KPWT 271156Z AUTO 02009G16KT 10SM CLR 08/M03 A3048 RMK AO2 SLP341 6//// 7//// T00831033 10100 20083 50004 PNO $=
201910271056 METAR KPWT 271056Z AUTO 01011G18KT 10SM CLR 09/M03 A3048 RMK AO2 SLP342 T00891033 PNO $=
201910270956 METAR KPWT 270956Z AUTO 01011G17KT 10SM CLR 08/M03 A3048 RMK AO2 SLP340 T00831028 PNO $=
201910270856 METAR KPWT 270856Z AUTO 01011G18KT 10SM CLR 09/M03 A3047 RMK AO2 SLP337 6//// T00891028 51007 PNO $=
201910270756 METAR KPWT 270756Z AUTO 01012G16KT 10SM CLR 09/M03 A3046 RMK AO2 SLP335 T00891028 401280006 PNO $=
201910270656 METAR KPWT 270656Z AUTO 01010KT 10SM CLR 09/M03 A3045 RMK AO2 SLP333 T00941028 PNO $=
201910270556 METAR KPWT 270556Z AUTO 01011G19KT 10SM CLR 10/M02 A3045 RMK AO2 PK WND 01027/0505 SLP331 6//// T01001022 10111 20100 53007 PNO $=
201910270456 METAR KPWT 270456Z AUTO 01014G23KT 10SM CLR 10/M01 A3043 RMK AO2 SLP323 T01001011 PNO $=
201910270356 METAR KPWT 270356Z AUTO 36016G23KT 10SM CLR 10/M01 A3042 RMK AO2 SLP322 T01001006 PNO $=
201910270256 METAR KPWT 270256Z AUTO 01012G19KT 10SM CLR 10/M01 A3042 RMK AO2 SLP321 6//// T01001006 53019 PNO $=
201910270156 METAR KPWT 270156Z AUTO 36010KT 10SM CLR 10/00 A3041 RMK AO2 SLP316 T01000000 PNO $=
201910270056 METAR KPWT 270056Z AUTO 01012G24KT 10SM CLR 10/00 A3038 RMK AO2 SLP305 T01000000 PNO $=
201910262356 METAR KPWT 262356Z AUTO 36016G23KT 10SM CLR 11/01 A3037 RMK AO2 SLP303 6//// T01110011 10128 20089 53003 PNO $=
201910262256 METAR KPWT 262256Z AUTO 01017G28KT 10SM CLR 12/02 A3036 RMK AO2 PK WND 36028/2251 SLP301 T01170017 PNO $=
201910262156 METAR KPWT 262156Z AUTO 02015G23KT 10SM CLR 13/02 A3035 RMK AO2 SLP298 T01280022 PNO $=
201910262056 METAR KPWT 262056Z AUTO 03015G20KT 10SM CLR 12/04 A3036 RMK AO2 SLP300 6//// T01220044 55000 PNO $=
201910261956 METAR KPWT 261956Z AUTO 04015G19KT 10SM CLR 12/06 A3035 RMK AO2 SLP295 T01170056 PNO $=
201910261856 METAR KPWT 261856Z AUTO 02011KT 10SM CLR 11/06 A3035 RMK AO2 SLP297 T01060061 PNO $=
201910261756 METAR KPWT 261756Z AUTO 02009G14KT 350V050 10SM FEW020 09/06 A3036 RMK AO2 SLP299 6//// T00890061 10089 20006 51009 PNO $=
201910261656 METAR KPWT 261656Z AUTO 05005KT 10SM CLR 07/06 A3035 RMK AO2 SLP297 T00720061 PNO $=
201910261556 METAR KPWT 261556Z AUTO 00000KT 10SM FEW024 BKN034 BKN043 03/03 A3035 RMK AO2 SLP297 T00330033 PNO $=
201910261505 SPECI KPWT 261505Z AUTO 00000KT 3SM BR CLR 02/02 A3033 RMK AO2 FZRANO PNO $=
201910261500 SPECI KPWT 261500Z AUTO 00000KT 1 1/4SM BR FEW001 02/02 A3033 RMK AO2 FZRANO PNO $=
201910261456 METAR KPWT 261456Z AUTO 00000KT 3/4SM BR VV001 02/02 A3033 RMK AO2 SLP291 6//// T00170017 51004 FZRANO PNO $=
201910261442 SPECI KPWT 261442Z AUTO 00000KT 3/4SM BR VV001 02/02 A3033 RMK AO2 FZRANO PNO $=
201910261432 SPECI KPWT 261432Z AUTO 00000KT 1 1/4SM BR FEW001 02/02 A3033 RMK AO2 FZRANO PNO $=
201910261424 SPECI KPWT 261424Z AUTO 00000KT 3/4SM BR CLR 02/02 A3032 RMK AO2 FZRANO PNO $=
201910261418 SPECI KPWT 261418Z AUTO 00000KT 1/4SM FG CLR 02/02 A3032 RMK AO2 FZRANO PNO $=
201910261356 METAR KPWT 261356Z AUTO 00000KT 1/4SM FG VV001 02/02 A3032 RMK AO2 SLP286 T00220022 FZRANO PNO $=
201910261352 SPECI KPWT 261352Z AUTO 00000KT 1/4SM FG VV001 02/02 A3032 RMK AO2 FZRANO PNO $=
201910261335 SPECI KPWT 261335Z AUTO 00000KT 1/2SM FG VV001 02/02 A3031 RMK AO2 FZRANO PNO $=
201910261330 SPECI KPWT 261330Z AUTO 00000KT 1SM BR VV001 02/02 A3031 RMK AO2 FZRANO PNO $=
201910261310 SPECI KPWT 261310Z AUTO 00000KT 3/4SM BR CLR 01/01 A3031 RMK AO2 FZRANO PNO $=
201910261256 METAR KPWT 261256Z AUTO 00000KT 1 1/2SM BR CLR 02/02 A3031 RMK AO2 SLP281 T00220022 FZRANO PNO $=
201910261237 SPECI KPWT 261237Z AUTO 00000KT 1 3/4SM BR SCT033 03/03 A3031 RMK AO2 VIS 3/4V3 PNO $=
201910261232 SPECI KPWT 261232Z AUTO 00000KT 4SM BR SCT033 03/03 A3030 RMK AO2 PNO $=
201910261156 METAR KPWT 261156Z AUTO 00000KT 2SM BR OVC031 03/03 A3031 RMK AO2 SLP283 6//// 7//// T00330028 10078 20017 52000 PNO $=
201910261137 SPECI KPWT 261137Z AUTO 00000KT 1 1/4SM BR SCT031 02/02 A3031 RMK AO2 VIS 3/4V3 FZRANO PNO $=
201910261135 SPECI KPWT 261135Z AUTO 00000KT 3/4SM BR SCT031 02/02 A3031 RMK AO2 FZRANO PNO $=
201910261126 SPECI KPWT 261126Z AUTO 00000KT 1/4SM FG VV002 03/03 A3031 RMK AO2 PNO $=
201910261116 SPECI KPWT 261116Z AUTO 00000KT 3/4SM BR VV002 03/03 A3031 RMK AO2 PNO $=
201910261109 SPECI KPWT 261109Z AUTO 00000KT 1/2SM FG FEW001 03/02 A3031 RMK AO2 PNO $=
201910261105 SPECI KPWT 261105Z AUTO 00000KT 3/4SM BR VV001 02/02 A3031 RMK AO2 FZRANO PNO $=
201910261103 SPECI KPWT 261103Z AUTO 00000KT 1SM BR CLR 02/02 A3031 RMK AO2 VIS 1/2V5 FZRANO PNO $=
201910261056 METAR KPWT 261056Z AUTO 00000KT 2SM BR FEW032 03/02 A3031 RMK AO2 VIS 1V5 SLP281 T00280022 PNO $=
201910261043 SPECI KPWT 261043Z AUTO 00000KT 2SM BR FEW032 02/02 A3031 RMK AO2 VIS 3/4V5 FZRANO PNO $=
201910261035 SPECI KPWT 261035Z AUTO 00000KT 1SM BR FEW001 SCT032 03/03 A3031 RMK AO2 PNO $=
201910261031 SPECI KPWT 261031Z AUTO 00000KT 1/2SM FG FEW001 SCT032 03/02 A3031 RMK AO2 PNO $=
201910261019 SPECI KPWT 261019Z AUTO 00000KT 1/4SM FG FEW001 03/03 A3031 RMK AO2 PNO $=
201910261011 SPECI KPWT 261011Z AUTO 00000KT 1/2SM FG VV001 02/02 A3031 RMK AO2 FZRANO PNO $=
201910261006 SPECI KPWT 261006Z AUTO 25003KT 1SM BR VV001 03/03 RMK AO2 PNO $=
201910261000 SPECI KPWT 261000Z AUTO 00000KT 1 1/4SM BR CLR 03/03 A3031 RMK AO2 VIS 1/2V5 PNO $=
201910260956 METAR KPWT 260956Z AUTO 00000KT 3/4SM BR CLR 03/03 A3031 RMK AO2 SLP283 T00330033 PNO $=
201910260950 SPECI KPWT 260950Z AUTO 00000KT 3/4SM BR CLR 03/03 A3031 RMK AO2 PNO $=
201910260947 SPECI KPWT 260947Z AUTO 00000KT 1 1/2SM BR CLR 03/03 A3031 RMK AO2 PNO $=
201910260921 SPECI KPWT 260921Z AUTO 10003KT 10SM SCT023 04/04 A3030 RMK AO2 PNO $=
201910260910 SPECI KPWT 260910Z AUTO 00000KT 10SM BKN023 04/04 A3030 RMK AO2 PNO $=
201910260900 SPECI KPWT 260900Z AUTO 00000KT 3SM BR SCT023 04/04 A3031 RMK AO2 PNO $=
201910260856 METAR KPWT 260856Z AUTO 00000KT 1 1/2SM BR FEW021 SCT029 04/04 A3031 RMK AO2 SLP283 6//// T00440044 51016 PNO $=
201910260846 SPECI KPWT 260846Z AUTO 00000KT 1SM BR FEW001 SCT031 04/04 A3030 RMK AO2 PNO $=
201910260838 SPECI KPWT 260838Z AUTO 00000KT 1SM BR SCT021 SCT031 04/04 A3030 RMK AO2 PNO $=
201910260831 SPECI KPWT 260831Z AUTO 00000KT 1SM BR VV020 05/04 A3030 RMK AO2 VIS 1/2V5 PNO $=
201910260813 SPECI KPWT 260813Z AUTO 00000KT 1/2SM FG VV016 06/05 A3030 RMK AO2 PNO $=
201910260756 METAR KPWT 260756Z AUTO 00000KT 3/4SM BR FEW002 BKN015 06/06 A3030 RMK AO2 SLP279 T00560056 401330033 PNO $=
201910260751 SPECI KPWT 260751Z AUTO 00000KT 1SM BR VV002 06/06 A3029 RMK AO2 VIS 1/2V3 401330033 PNO $=
201910260743 SPECI KPWT 260743Z AUTO 00000KT 1 3/4SM BR BKN002 07/07 A3029 RMK AO2 VIS 3/4V5 PNO $=
201910260713 SPECI KPWT 260713Z AUTO 00000KT 3SM BR BKN002 OVC007 08/08 A3028 RMK AO2 PNO $=
201910260702 SPECI KPWT 260702Z AUTO 00000KT 2SM BR OVC005 08/08 A3028 RMK AO2 CIG 002V007 PNO $=
201910260658 SPECI KPWT 260658Z AUTO 00000KT 1 1/4SM BR OVC003 08/08 A3028 RMK AO2 CIG 002V007 PNO $=
201910260656 METAR KPWT 260656Z AUTO 00000KT 3/4SM BR OVC003 08/08 A3028 RMK AO2 CIG 002V007 SLP275 T00780078 PNO $=
201910260637 SPECI KPWT 260637Z AUTO 00000KT 1/2SM FG OVC003 08/08 A3027 RMK AO2 PNO $=
201910260628 SPECI KPWT 260628Z AUTO 16003KT 3/4SM BR OVC003 08/08 A3027 RMK AO2 PNO $=
201910260623 SPECI KPWT 260623Z AUTO 00000KT 1 3/4SM BR OVC003 08/08 A3027 RMK AO2 PNO $=
201910260613 SPECI KPWT 260613Z AUTO 00000KT 3SM BR OVC003 08/08 RMK AO2 CIG 002V007 PNO $=
201910260559 SPECI KPWT 260559Z AUTO 00000KT 1 1/2SM BR OVC003 08/08 A3026 RMK AO2 PNO $=
201910260551 METAR KPWT 260551Z AUTO 08004KT 1SM BR OVC003 08/08 A3026 RMK AO2 SLP267 6//// T00830078 10100 20033 53017 PNO $=
201910260550 SPECI KPWT 260550Z AUTO 08004KT 1SM BR OVC003 08/08 A3026 RMK AO2 PNO $=
201910260540 SPECI KPWT 260540Z AUTO 08004KT 1/2SM FG BKN003 08/08 A3025 RMK AO2 PNO $=
201910260536 SPECI KPWT 260536Z AUTO 07005KT 1SM BR BKN003 BKN016 08/08 A3025 RMK AO2 PNO $=
201910260532 SPECI KPWT 260532Z AUTO 06005KT 2SM BR BKN003 BKN016 07/07 A3025 RMK AO2 PNO $=
201910260526 SPECI KPWT 260526Z AUTO 00000KT 10SM SCT003 BKN016 06/06 A3024 RMK AO2 PNO $=
201910260512 SPECI KPWT 260512Z AUTO 00000KT 3SM BR FEW016 05/05 A3025 RMK AO2 PNO $=
201910260509 SPECI KPWT 260509Z AUTO 00000KT 1 1/2SM BR FEW016 05/05 A3024 RMK AO2 VIS 1/2V5 PNO $=
201910260456 METAR KPWT 260456Z AUTO 00000KT 3/4SM BR SCT021 05/04 A3024 RMK AO2 VIS 1/2V1 3/4 LTG DSNT E SLP257 T00500044 PNO $=
201910260450 SPECI KPWT 260450Z AUTO 00000KT 1 3/4SM BR SCT021 05/04 A3023 RMK AO2 LTG DSNT E PNO $=
201910260442 SPECI KPWT 260442Z AUTO 00000KT 3SM BR BKN021 05/05 A3023 RMK AO2 PNO $=
201910260438 SPECI KPWT 260438Z AUTO 00000KT 1 1/4SM BR SCT021 05/05 A3023 RMK AO2 PNO $=
201910260436 SPECI KPWT 260436Z AUTO 00000KT 1SM BR VV020 05/05 A3023 RMK AO2 PNO $=
201910260428 SPECI KPWT 260428Z AUTO 00000KT 1/2SM FG VV020 04/04 A3023 RMK AO2 PNO $=
201910260421 SPECI KPWT 260421Z AUTO 02004KT 1/4SM FG CLR 04/04 A3022 RMK AO2 LTG DSNT E PNO $=
201910260417 SPECI KPWT 260417Z AUTO 00000KT 1/2SM FG VV001 04/04 A3022 RMK AO2 LTG DSNT E PNO $=
201910260341 SPECI KPWT 260341Z AUTO 00000KT 1/4SM FG CLR 05/05 A3022 RMK AO2 PNO $=
201910260302 SPECI KPWT 260302Z AUTO 00000KT 1/2SM FG CLR 06/06 A3021 RMK AO2 PNO $=
201910260256 METAR KPWT 260256Z AUTO 00000KT 1SM BR CLR 07/07 A3021 RMK AO2 VIS 1/2V5 SLP248 6//// T00720067 52005 PNO $=
201910260254 SPECI KPWT 260254Z AUTO 00000KT 3/4SM BR CLR 07/07 A3021 RMK AO2 VIS 1/4V5 PNO $=
201910260242 SPECI KPWT 260242Z AUTO 00000KT 1/4SM FG CLR 06/06 A3020 RMK AO2 PNO $=
201910260238 SPECI KPWT 260238Z AUTO 00000KT 3/4SM BR CLR 07/06 A3020 RMK AO2 PNO $=
201910260236 SPECI KPWT 260236Z AUTO 00000KT 1 1/4SM BR FEW033 07/07 A3020 RMK AO2 PNO $=
201910260223 SPECI KPWT 260223Z AUTO 00000KT 4SM BR SCT028 SCT033 08/08 A3021 RMK AO2 PNO $=
201910260207 SPECI KPWT 260207Z AUTO 00000KT 8SM OVC028 09/08 A3020 RMK AO2 PNO $=
201910260153 METAR KPWT 260153Z AUTO 00000KT 2 1/2SM BR BKN026 BKN033 OVC050 09/08 A3020 RMK AO2 VIS 1 1/4V5 SLP246 T00890083 PNO $=
201910260152 SPECI KPWT 260152Z AUTO 00000KT 2 1/2SM BR BKN026 BKN033 OVC050 09/08 A3020 RMK AO2 VIS 1 1/4V5 PNO $=
201910260112 SPECI KPWT 260112Z AUTO 00000KT 10SM SCT006 SCT036 OVC045 09/09 A3020 RMK AO2 PNO $=
201910260056 METAR KPWT 260056Z AUTO 00000KT 10SM BKN006 09/09 A3020 RMK AO2 SLP246 T00940089 PNO $=
201910260049 SPECI KPWT 260049Z AUTO 00000KT 10SM BKN006 09/09 A3020 RMK AO2 PNO $=
201910260006 SPECI KPWT 260006Z AUTO 00000KT 10SM FEW007 BKN034 10/09 A3020 RMK AO2 PNO $=
201910252356 METAR KPWT 252356Z AUTO 10SM SCT005 BKN027 OVC034 10/09 A3019 RMK AO2 RAE43 SLP244 6//// T01000089 10128 20094 50007 PNO $=
201910252349 SPECI KPWT 252349Z AUTO 00000KT 10SM SCT005 SCT027 BKN034 10/09 A3020 RMK AO2 RAE43 PNO $=
201910252343 SPECI KPWT 252343Z AUTO 00000KT 10SM FEW003 BKN007 BKN027 10/09 A3020 RMK AO2 RAE43 CIG 005V009 PNO $=
201910252335 SPECI KPWT 252335Z AUTO 01005KT 9SM -RA SCT005 BKN027 OVC037 10/09 A3020 RMK AO2 PNO $=
201910252256 METAR KPWT 252256Z AUTO 13004KT 5SM -RA BR OVC029 09/09 A3019 RMK AO2 SLP244 P0000 T00940089=
201910252243 SPECI KPWT 252243Z AUTO 11004KT 10SM -RA SCT022 OVC031 09/09 A3019 RMK AO2 P0000=
201910252220 SPECI KPWT 252220Z AUTO 09006KT 3SM -RA BR SCT005 OVC020 09/09 A3019 RMK AO2 P0000=
201910252156 METAR KPWT 252156Z AUTO 09005KT 7SM -RA BKN005 OVC020 09/09 A3019 RMK AO2 RAB07E33B56 SLP242 P0000 T00940089=
201910252056 METAR KPWT 252056Z AUTO 08008KT 6SM BR OVC005 10/09 A3017 RMK AO2 RAE50 SLP236 P0000 60000 T01000089 53018=
201910252018 SPECI KPWT 252018Z AUTO 07008KT 4SM -RA BR BKN005 BKN011 OVC018 10/09 A3015 RMK AO2 CIG 003V009 P0000=
201910252005 SPECI KPWT 252005Z AUTO 07006KT 2SM -RA BR BKN005 BKN011 OVC018 10/09 A3015 RMK AO2 CIG 003V009 P0000=
201910251958 SPECI KPWT 251958Z AUTO 07009KT 1 3/4SM -RA BR SCT005 BKN008 OVC018 10/09 A3015 RMK AO2 CIG 006V010 P0000=
201910251956 METAR KPWT 251956Z AUTO 07010KT 2SM -RA BR BKN005 BKN010 OVC018 10/09 A3015 RMK AO2 VIS 1 1/4V5 RAB43 SLP230 P0000 T01000094=
201910251941 SPECI KPWT 251941Z AUTO 05010KT 10SM BKN005 OVC008 11/09 A3015 RMK AO2 CIG 003V008=
201910251856 METAR KPWT 251856Z AUTO 05008KT 10SM OVC008 11/10 A3012 RMK AO2 SLP220 T01110100=
201910251756 METAR KPWT 251756Z AUTO 24004KT 10SM OVC006 13/12 A3012 RMK AO2 SLP218 60000 T01280117 10133 20050 53010=
201910251656 METAR KPWT 251656Z AUTO 20013KT 10SM OVC006 13/12 A3009 RMK AO2 CIG 003V008 SLP210 T01280117=
201910251556 METAR KPWT 251556Z AUTO 20013KT 10SM BKN004 12/11 A3008 RMK AO2 SLP205 T01170111=
201910251539 SPECI KPWT 251539Z AUTO 20012KT 10SM BKN004 11/11 A3008 RMK AO2 CIG 003V007=
201910251512 SPECI KPWT 251512Z AUTO 20011KT 10SM BKN006 10/09 A3008 RMK AO2 CIG 004V008=
201910251418 SPECI KPWT 251418Z AUTO 22006KT 10SM SCT001 08/08 A3009 RMK AO2 RAE12 P0000=
201910251410 SPECI KPWT 251410Z AUTO 21006KT 4SM -RA BR BKN001 08/08 A3010 RMK AO2 P0000=
201910251408 SPECI KPWT 251408Z AUTO 22006KT 1 1/2SM -RA BR BKN001 08/08 A3010 RMK AO2 P0000=
201910251406 SPECI KPWT 251406Z AUTO 23005KT 3/4SM -RA BR BKN001 08/07 A3010 RMK AO2 P0000=
201910251356 METAR KPWT 251356Z AUTO 00000KT 1/4SM -RA FG OVC001 07/07 A3010 RMK AO2 RAB1257E12B50 SLP211 P0000 T00720072=
201910251352 SPECI KPWT 251352Z AUTO 00000KT 1/4SM -RA FG OVC001 08/07 A3010 RMK AO2 RAB1257E12B50 P0000=
201910251340 SPECI KPWT 251340Z AUTO 28003KT 1/2SM FG OVC001 08/08 A3011 RMK AO2 RAB1257E12 P0000=
201910251331 SPECI KPWT 251331Z AUTO 26003KT 3/4SM BR OVC001 08/08 A3012 RMK AO2 RAB1257E12 P0000=
201910251256 METAR KPWT 251256Z AUTO 00000KT 1/2SM FG OVC001 07/06 A3012 RMK AO2 RAE27 SLP220 P0000 T00670061=
201910251240 SPECI KPWT 251240Z AUTO 00000KT 1/2SM FG OVC001 06/06 A3013 RMK AO2 RAE27 P0000=
201910251229 SPECI KPWT 251229Z AUTO 00000KT 3/4SM BR OVC001 06/05 A3013 RMK AO2 RAE27 P0000=
201910251225 SPECI KPWT 251225Z AUTO 00000KT 1 1/2SM -RA BR OVC001 06/05 A3014 RMK AO2 P0000=
201910251218 SPECI KPWT 251218Z AUTO 00000KT 1SM -RA BR BKN001 06/05 A3015 RMK AO2 P0000=
201910251203 SPECI KPWT 251203Z AUTO 00000KT 1/2SM -RA FG VV001 05/04 A3016 RMK AO2 P0000=
201910251156 METAR KPWT 251156Z AUTO 00000KT 1/4SM -RA FG VV001 05/05 A3015 RMK AO2 RAE11B52 SLP230 P0000 6//// 7//// T00500050 10106 20044 56018=
201910251154 SPECI KPWT 251154Z AUTO 00000KT 1/4SM -RA FG VV001 05/05 A3015 RMK AO2 RAE11B52 P0000=
201910251148 SPECI KPWT 251148Z AUTO 00000KT 3/4SM BR VV001 05/04 A3015 RMK AO2 RAE11 P0000=
201910251121 SPECI KPWT 251121Z AUTO 00000KT 4SM BR FEW002 05/05 A3016 RMK AO2 RAE11 P0000=
201910251114 SPECI KPWT 251114Z AUTO 00000KT 10SM CLR 05/05 A3016 RMK AO2 RAE11 P0000=
201910251107 SPECI KPWT 251107Z AUTO 00000KT 2SM -RA BR CLR 06/05 A3016 RMK AO2 P0000=
201910251104 SPECI KPWT 251104Z AUTO 00000KT 1SM -RA BR CLR 06/05 A3016 RMK AO2 P0000=
201910251056 METAR KPWT 251056Z AUTO 00000KT 1/2SM -RA FG CLR 06/05 A3017 RMK AO2 RAB19E30B51 SLP235 T00560050=
201910251052 SPECI KPWT 251052Z AUTO 00000KT 3/4SM -RA BR CLR 06/05 A3017 RMK AO2 VIS 1/4V1 3/4 RAB19E30B51=
201910251046 SPECI KPWT 251046Z AUTO 00000KT 1 3/4SM BR CLR 05/05 A3017 RMK AO2 RAB19E30=
201910251026 SPECI KPWT 251026Z AUTO 00000KT 3SM -RA BR CLR 06/06 A3018 RMK AO2 RAB19=
201910251018 SPECI KPWT 251018Z AUTO 00000KT 1 3/4SM BR CLR 06/06 A3018 RMK AO2 VIS 3/4V5=
201910250956 METAR KPWT 250956Z AUTO 00000KT 7SM CLR 07/06 A3019 RMK AO2 RAB21E46 SLP242 T00670061 PNO $=
201910250943 SPECI KPWT 250943Z AUTO 00000KT 5SM -RA BR CLR 06/06 A3020 RMK AO2 RAB21 PNO $=
201910250940 SPECI KPWT 250940Z AUTO 23003KT 1 1/4SM -RA BR CLR 06/06 A3020 RMK AO2 RAB21 PNO $=
201910250925 SPECI KPWT 250925Z AUTO 00000KT 3/4SM -RA BR CLR 07/06 A3020 RMK AO2 VIS 1/2V3 RAB21 PNO $=
201910250918 SPECI KPWT 250918Z AUTO 00000KT 1 3/4SM BR CLR 07/06 A3020 RMK AO2 VIS 3/4V5 PNO $=
201910250856 METAR KPWT 250856Z AUTO 00000KT 10SM CLR 07/07 A3021 RMK AO2 RAB34E52 SLP247 6//// T00670067 58020 PNO $=
201910250849 SPECI KPWT 250849Z AUTO 00000KT 4SM -RA BR CLR 07/07 A3021 RMK AO2 RAB34 PNO $=
201910250845 SPECI KPWT 250845Z AUTO 00000KT 1 1/4SM -RA BR CLR 07/07 A3021 RMK AO2 VIS 1/2V5 RAB34 PNO $=
201910250835 SPECI KPWT 250835Z AUTO 00000KT 3/4SM -RA BR CLR 07/07 A3022 RMK AO2 VIS 1/2V5 RAB34 PNO $=
201910250829 SPECI KPWT 250829Z AUTO 00000KT 1 1/2SM BR FEW050 08/07 A3022 RMK AO2 VIS 1/2V5 PNO $=
201910250656 METAR KPWT 250656Z AUTO 00000KT 10SM BKN050 09/09 A3025 RMK AO2 SLP262 T00940089 PNO $=
201910250556 METAR KPWT 250556Z AUTO 00000KT 10SM OVC050 11/09 A3027 RMK AO2 SLP269 6//// T01060094 10156 20078 PNO $=
201910250456 METAR KPWT 250456Z AUTO 00000KT 10SM OVC050 09/08 A3027 RMK AO2 SLP273 T00940083 PNO $=
201910250356 METAR KPWT 250356Z AUTO 00000KT 10SM CLR 08/08 A3029 RMK AO2 SLP276 T00830078 PNO $=
201910250256 METAR KPWT 250256Z AUTO 00000KT 10SM FEW065 09/08 RMK AO2 SLPNO 6//// T00890078 PNO $=
201910250156 METAR KPWT 250156Z AUTO 00000KT 10SM CLR 10/08 A3030 RMK AO2 SLP280 T01000083 PNO $=
201910250056 METAR KPWT 250056Z AUTO 00000KT 10SM CLR 14/09 A3030 RMK AO2 SLP280 T01390089 PNO $=
201910242356 METAR KPWT 242356Z AUTO 04005KT 10SM CLR 16/09 A3031 RMK AO2 SLP284 6//// T01560089 10172 20111 58013 PNO $=
201910242256 METAR KPWT 242256Z AUTO 03004KT 10SM CLR 17/09 A3033 RMK AO2 SLP289 T01670094 PNO $=
201910242156 METAR KPWT 242156Z AUTO 05004KT 10SM CLR 17/09 A3034 RMK AO2 SLP293 T01670094 PNO $=
201910242056 METAR KPWT 242056Z AUTO VRB03KT 10SM CLR 17/09 A3035 RMK AO2 SLP297 6//// T01720089 58014 PNO $=
201910241956 METAR KPWT 241956Z AUTO 00000KT 10SM CLR 16/09 A3037 RMK AO2 SLP304 T01560089 PNO $=
201910241856 METAR KPWT 241856Z AUTO 00000KT 10SM CLR 13/08 A3038 RMK AO2 SLP307 T01280078 PNO $=
201910241756 METAR KPWT 241756Z AUTO 21003KT 10SM CLR 11/07 A3039 RMK AO2 SLP310 6//// T01110072 10111 20022 58001 PNO $=
201910241656 METAR KPWT 241656Z AUTO 23004KT 10SM CLR 09/07 A3040 RMK AO2 SLP314 T00890072 PNO $=
201910241556 METAR KPWT 241556Z AUTO 00000KT 10SM CLR 06/06 A3040 RMK AO2 SLP315 T00610056 PNO $=
201910241526 SPECI KPWT 241526Z AUTO 18003KT 3SM BR CLR 04/04 A3040 RMK AO2 PNO $=
201910241522 SPECI KPWT 241522Z AUTO 00000KT 1 1/4SM BR CLR 04/03 A3040 RMK AO2 PNO $=
201910241518 SPECI KPWT 241518Z AUTO 00000KT 3/4SM BR CLR 03/03 A3040 RMK AO2 PNO $=
201910241509 SPECI KPWT 241509Z AUTO 22003KT 1SM BR CLR 02/02 A3040 RMK AO2 FZRANO TSNO PNO $=
201910241500 SPECI KPWT 241500Z AUTO 00000KT 1/2SM FG CLR 02/02 A3039 RMK AO2 VIS 1/4V5 FZRANO TSNO PNO $=
201910241456 METAR KPWT 241456Z AUTO 00000KT 1 1/4SM BR CLR 02/02 A3039 RMK AO2 VIS 1/2V5 SLP311 6//// T00220022 58008 FZRANO TSNO PNO $=
201910241449 SPECI KPWT 241449Z AUTO 23003KT 1SM BR VV001 03/02 A3040 RMK AO2 PNO $=
201910241418 SPECI KPWT 241418Z AUTO 00000KT 9SM CLR 03/03 A3040 RMK AO2 PNO $=
201910241411 SPECI KPWT 241411Z AUTO 00000KT 2 1/2SM BR FEW110 03/03 A3041 RMK AO2 VIS 3/4V5 PNO $=
201910241356 METAR KPWT 241356Z AUTO 00000KT 8SM SCT110 04/03 A3040 RMK AO2 SLP313 T00390033 PNO $=
201910241335 SPECI KPWT 241335Z AUTO 20003KT 4SM BR CLR 03/03 A3041 RMK AO2 PNO $=
201910241331 SPECI KPWT 241331Z AUTO 22003KT 1 1/4SM BR CLR 03/03 A3041 RMK AO2 PNO $=
201910241326 SPECI KPWT 241326Z AUTO 23003KT 3/4SM BR FEW090 04/03 A3041 RMK AO2 PNO $=
201910241322 SPECI KPWT 241322Z AUTO 00000KT 1 3/4SM BR FEW090 04/04 A3041 RMK AO2 PNO $=
201910241256 METAR KPWT 241256Z AUTO 00000KT 10SM CLR 04/03 A3042 RMK AO2 SLP320 T00390033 PNO $=
201910241156 METAR KPWT 241156Z AUTO 03004KT 10SM CLR 07/06 A3042 RMK AO2 SLP322 6//// 7//// T00670061 10072 20033 58001 PNO $=
201910241056 METAR KPWT 241056Z AUTO 06006KT 10SM CLR 06/06 A3042 RMK AO2 SLP324 T00610056 PNO $=
201910240956 METAR KPWT 240956Z AUTO 00000KT 7SM CLR 04/04 A3043 RMK AO2 SLP324 T00390039 PNO $=
201910240856 METAR KPWT 240856Z AUTO 00000KT 9SM CLR 04/04 A3042 RMK AO2 SLP321 6//// T00440039 56011 PNO $=
201910240756 METAR KPWT 240756Z AUTO 00000KT 10SM CLR 05/04 A3043 RMK AO2 SLP324 T00500044 401330022 PNO $=
201910240656 METAR KPWT 240656Z AUTO 00000KT 10SM CLR 04/04 A3044 RMK AO2 SLP329 T00440039 PNO $=
201910240556 METAR KPWT 240556Z AUTO 00000KT 10SM CLR 06/04 A3045 RMK AO2 SLP332 6//// T00560044 10122 20056 57003 PNO $=
201910240456 METAR KPWT 240456Z AUTO 07005KT 10SM CLR 07/06 A3045 RMK AO2 SLP331 T00720061 PNO $=
201910240356 METAR KPWT 240356Z AUTO 00000KT 10SM CLR 07/06 A3047 RMK AO2 SLP337 T00670056 PNO $=
201910240256 METAR KPWT 240256Z AUTO 05006KT 10SM CLR 08/06 A3046 RMK AO2 SLP334 6//// T00830061 56004 PNO $=
201910240156 METAR KPWT 240156Z AUTO 06005KT 10SM CLR 08/07 A3046 RMK AO2 SLP334 T00830067 PNO $=
201910240056 METAR KPWT 240056Z AUTO 04007KT 10SM CLR 10/07 A3047 RMK AO2 SLP338 T01000072 PNO $=
201910232356 METAR KPWT 232356Z AUTO 02006KT 10SM CLR 12/08 A3048 RMK AO2 SLP340 6//// T01220078 10133 20111 PNO $=
201910232256 METAR KPWT 232256Z AUTO 04007KT 10SM CLR 12/07 A3048 RMK AO2 SLP340 T01220072 PNO $=
201910232156 METAR KPWT 232156Z AUTO 02005KT 10SM CLR 13/07 A3048 RMK AO2 SLP341 T01280072 PNO $=
201910232056 METAR KPWT 232056Z AUTO 05008KT 10SM CLR 13/07 RMK AO2 SLPNO 6//// T01280072 PNO $=
201910231956 METAR KPWT 231956Z AUTO 05007KT 10SM CLR 12/07 A3050 RMK AO2 SLP350 T01170072 PNO $=
201910231856 METAR KPWT 231856Z AUTO 06008KT 10SM FEW019 11/08 A3052 RMK AO2 SLP356 T01110078 PNO $=
201910231756 METAR KPWT 231756Z AUTO 03010KT 10SM CLR 11/08 A3051 RMK AO2 SLP351 6//// T01110078 10111 20022 50005 PNO $=
201910231656 METAR KPWT 231656Z AUTO 03008KT 10SM CLR 09/08 A3051 RMK AO2 SLP353 T00890078 PNO $=
201910231556 METAR KPWT 231556Z AUTO 08004KT 10SM CLR 08/07 A3051 RMK AO2 SLP350 T00780072 PNO $=
201910231523 SPECI KPWT 231523Z AUTO 00000KT 10SM CLR 05/05 A3051 RMK AO2 PNO $=
201910231516 SPECI KPWT 231516Z AUTO 00000KT 2SM BR CLR 04/04 A3050 RMK AO2 PNO $=
201910231514 SPECI KPWT 231514Z AUTO 00000KT 1SM BR CLR 04/03 A3050 RMK AO2 PNO $=
201910231510 SPECI KPWT 231510Z AUTO 00000KT 1/2SM FG CLR 03/03 A3050 RMK AO2 PNO $=
201910231456 METAR KPWT 231456Z AUTO 00000KT 3/4SM BR CLR 04/03 A3049 RMK AO2 VIS 1/4V4 SLP345 6//// T00390033 51008 PNO $=
201910231441 SPECI KPWT 231441Z AUTO 00000KT 1/4SM FG CLR 03/03 A3049 RMK AO2 PNO $=
201910231434 SPECI KPWT 231434Z AUTO 00000KT 3/4SM BR CLR 03/02 A3049 RMK AO2 VIS 1/4V5 PNO $=
201910231426 SPECI KPWT 231426Z AUTO 00000KT 1 3/4SM BR CLR 03/03 A3048 RMK AO2 PNO $=
201910231424 SPECI KPWT 231424Z AUTO 00000KT 3SM BR CLR 03/03 A3048 RMK AO2 PNO $=
201910231413 SPECI KPWT 231413Z AUTO 00000KT 1 3/4SM BR CLR 04/03 A3049 RMK AO2 PNO $=
201910231356 METAR KPWT 231356Z AUTO 00000KT 10SM CLR 03/03 A3048 RMK AO2 SLP343 T00330028 PNO $=
201910231306 SPECI KPWT 231306Z AUTO 22003KT 10SM BKN045 04/04 A3048 RMK AO2 PNO $=
201910231256 METAR KPWT 231256Z AUTO 00000KT 2SM BR BKN045 04/04 A3048 RMK AO2 VIS 1 1/4V5 SLP341 T00440039 PNO $=
201910231221 SPECI KPWT 231221Z AUTO 00000KT 10SM BKN045 04/03 A3047 RMK AO2 PNO $=
201910231214 SPECI KPWT 231214Z AUTO 00000KT 2SM BR SCT043 04/04 A3047 RMK AO2 PNO $=
201910231212 SPECI KPWT 231212Z AUTO 00000KT 1SM BR SCT043 04/04 A3047 RMK AO2 PNO $=
201910231204 SPECI KPWT 231204Z AUTO 00000KT 1 1/2SM BR FEW043 04/04 A3047 RMK AO2 PNO $=
201910231156 METAR KPWT 231156Z AUTO 00000KT 8SM FEW043 04/04 A3047 RMK AO2 SLP337 6//// 7//// T00390039 10100 20039 51004 PNO $=
201910231132 SPECI KPWT 231132Z AUTO 00000KT 4SM BR CLR 05/04 A3047 RMK AO2 PNO $=
201910231129 SPECI KPWT 231129Z AUTO 00000KT 1 1/2SM BR CLR 04/04 A3047 RMK AO2 PNO $=
201910231121 SPECI KPWT 231121Z AUTO 00000KT 3/4SM BR CLR 04/04 A3047 RMK AO2 PNO $=
201910231103 SPECI KPWT 231103Z AUTO 00000KT 7SM CLR 05/05 A3046 RMK AO2 PNO $=
201910231056 METAR KPWT 231056Z AUTO 00000KT 2 1/2SM BR CLR 06/06 A3047 RMK AO2 VIS 1 1/4V5 SLP336 T00560056 PNO $=
201910231045 SPECI KPWT 231045Z AUTO 00000KT 1 1/2SM BR CLR 05/04 A3046 RMK AO2 PNO $=
201910230956 METAR KPWT 230956Z AUTO 00000KT 10SM FEW037 06/06 A3046 RMK AO2 SLP336 T00610056 PNO $=
201910230922 SPECI KPWT 230922Z AUTO 00000KT 3SM BR FEW037 07/07 A3046 RMK AO2 PNO $=
201910230919 SPECI KPWT 230919Z AUTO 11003KT 1SM BR CLR 07/07 A3046 RMK AO2 PNO $=
201910230912 SPECI KPWT 230912Z AUTO 00000KT 1/2SM FG CLR 06/06 A3046 RMK AO2 PNO $=
201910230904 SPECI KPWT 230904Z AUTO 00000KT 3/4SM BR CLR 06/06 A3046 RMK AO2 PNO $=
201910230900 SPECI KPWT 230900Z AUTO 00000KT 1 3/4SM BR CLR 07/06 A3045 RMK AO2 VIS 1/2V5 PNO $=
201910230856 METAR KPWT 230856Z AUTO 00000KT 4SM BR CLR 07/06 A3045 RMK AO2 SLP334 6//// T00670061 54000 PNO $=
201910230756 METAR KPWT 230756Z AUTO 06005KT 10SM BKN035 09/08 A3045 RMK AO2 SLP332 T00890083 401440089 PNO $=
201910230656 METAR KPWT 230656Z AUTO 06005KT 9SM FEW002 OVC037 09/09 A3046 RMK AO2 SLP333 T00940094 PNO $=
201910230654 SPECI KPWT 230654Z AUTO 06006KT 9SM FEW002 BKN037 09/09 A3046 RMK AO2 PNO $=
201910230623 SPECI KPWT 230623Z AUTO 05003KT 9SM SCT010 BKN037 09/09 A3044 RMK AO2 PNO $=
201910230613 SPECI KPWT 230613Z AUTO 06003KT 10SM BKN010 OVC037 10/09 A3044 RMK AO2 PNO $=
201910230556 METAR KPWT 230556Z AUTO 05004KT 10SM SCT010 OVC037 10/09 A3044 RMK AO2 SLP327 6//// T01000094 10117 20100 53001 PNO $=
201910230456 METAR KPWT 230456Z AUTO 05003KT 10SM OVC037 11/09 A3044 RMK AO2 SLP327 T01060094 PNO $=
201910230356 METAR KPWT 230356Z AUTO 00000KT 10SM OVC037 10/09 A3042 RMK AO2 SLP322 T01000094 PNO $=
201910230313 SPECI KPWT 230313Z AUTO 06003KT 9SM SCT025 OVC034 11/10 A3044 RMK AO2 PNO $=
201910230256 METAR KPWT 230256Z AUTO 04004KT 8SM OVC023 11/10 A3044 RMK AO2 SLP326 6//// T01110100 53006 PNO $=
201910230156 METAR KPWT 230156Z AUTO 06004KT 10SM OVC021 11/10 A3043 RMK AO2 SLP324 T01110100 PNO $=
201910230056 METAR KPWT 230056Z AUTO 04004KT 8SM OVC021 12/11 A3042 RMK AO2 SLP319 T01170106 PNO $=
201910230026 SPECI KPWT 230026Z AUTO 05005KT 10SM FEW006 BKN018 OVC023 12/11 A3042 RMK AO2 PNO $=
201910222356 METAR KPWT 222356Z AUTO 06005KT 10SM OVC009 12/11 A3042 RMK AO2 CIG 006V011 SLP320 6//// T01170106 10128 20106 51006 PNO $=
201910222256 METAR KPWT 222256Z AUTO 06005KT 10SM OVC009 11/10 A3041 RMK AO2 RAE2159 SLP318 T01110100 PNO $=
201910222203 SPECI KPWT 222203Z AUTO 06006KT 4SM BR OVC007 11/10 A3041 RMK AO2 RAE2159 CIG 004V010 PNO $=
201910222156 METAR KPWT 222156Z AUTO 06007KT 4SM -RA BR OVC005 11/10 A3041 RMK AO2 RAB02 CIG 004V009 SLP316 T01060100 PNO $=
201910222119 SPECI KPWT 222119Z AUTO 05008KT 9SM -RA BKN005 OVC013 11/11 A3040 RMK AO2 RAB02 PNO $=
201910222056 METAR KPWT 222056Z AUTO 09004KT 7SM BKN009 OVC017 12/11 A3040 RMK AO2 CIG 007V012 SLP313 6//// T01220111 51011 PNO $=
201910222021 SPECI KPWT 222021Z AUTO VRB04KT 10SM BKN009 OVC014 12/11 A3040 RMK AO2 CIG 007V011 PNO $=
201910221956 METAR KPWT 221956Z AUTO 11005KT 10SM SCT009 BKN014 OVC021 13/11 A3039 RMK AO2 SLP308 T01280111 PNO $=
201910221951 SPECI KPWT 221951Z AUTO 11004KT 10SM SCT009 BKN016 OVC021 13/11 A3039 RMK AO2 PNO $=
201910221856 METAR KPWT 221856Z AUTO VRB03KT 8SM BKN007 OVC012 12/12 A3039 RMK AO2 CIG 005V010 SLP308 T01220117 PNO $=
201910221835 SPECI KPWT 221835Z AUTO 00000KT 10SM BKN007 BKN010 OVC039 12/11 A3039 RMK AO2 CIG 004V009 PNO $=
201910221826 SPECI KPWT 221826Z AUTO 00000KT 10SM SCT007 BKN010 OVC039 12/11 A3038 RMK AO2 PNO $=
201910221756 METAR KPWT 221756Z AUTO 09004KT 8SM OVC007 12/11 A3037 RMK AO2 CIG 004V010 SLP302 6//// T01220111 10122 20111 51032 PNO $=
201910221740 SPECI KPWT 221740Z AUTO 12004KT 8SM BKN007 OVC017 12/11 A3037 RMK AO2 CIG 005V013 PNO $=
201910221722 SPECI KPWT 221722Z AUTO 11004KT 9SM SCT005 BKN010 OVC016 12/11 A3036 RMK AO2 CIG 007V011 PNO $=
201910221656 METAR KPWT 221656Z AUTO 12004KT 6SM BR BKN005 OVC008 12/12 A3034 RMK AO2 CIG 003V006 SLP292 T01220117 PNO $=
201910221556 METAR KPWT 221556Z AUTO 07005KT 3SM BR OVC003 12/11 A3032 RMK AO2 SLP285 T01170111 PNO $=
201910221456 METAR KPWT 221456Z AUTO 06005KT 4SM BR OVC003 12/11 A3027 RMK AO2 RAE49 SLP270 6//// T01170111 53014 PNO $=
201910221356 METAR KPWT 221356Z AUTO 04008KT 5SM -RA BR OVC003 11/11 A3026 RMK AO2 SLP265 T01110111 PNO $=
201910221349 SPECI KPWT 221349Z AUTO 05008KT 3SM -RA BR BKN003 OVC007 12/11 A3026 RMK AO2 PNO $=
201910221256 METAR KPWT 221256Z AUTO 00000KT 2 1/2SM -RA BR OVC003 12/12 A3023 RMK AO2 SLP256 T01220117 PNO $=
201910221253 SPECI KPWT 221253Z AUTO 00000KT 2 1/2SM -RA BR OVC003 12/12 A3023 RMK AO2 PNO $=
201910221231 SPECI KPWT 221231Z AUTO 00000KT 3SM -RA BR OVC003 12/12 A3021 RMK AO2 CIG 003V007 PNO $=
201910221219 SPECI KPWT 221219Z AUTO 22003KT 4SM -RA BR BKN005 OVC013 12/12 A3021 RMK AO2 CIG 003V007 PNO $=
201910221206 SPECI KPWT 221206Z AUTO 00000KT 3SM -RA BR BKN007 OVC013 12/12 A3020 RMK AO2 CIG 004V008 PNO $=
201910221156 METAR KPWT 221156Z AUTO 20003KT 2 1/2SM -RA BR BKN007 OVC013 12/12 A3020 RMK AO2 RAB53 SLP244 6//// 7//// T01220117 10144 20122 53020 PNO $=
201910221132 SPECI KPWT 221132Z AUTO 19003KT 10SM SCT009 OVC015 12/12 A3018 RMK AO2 PNO $=
201910221107 SPECI KPWT 221107Z AUTO 00000KT 10SM BKN009 BKN017 13/12 A3017 RMK AO2 PNO $=
201910221056 METAR KPWT 221056Z AUTO 00000KT 10SM SCT009 BKN017 13/12 A3016 RMK AO2 SLP232 T01280117 PNO $=
201910221028 SPECI KPWT 221028Z AUTO 19005KT 10SM SCT011 OVC020 13/12 A3016 RMK AO2 PNO $=
201910220956 METAR KPWT 220956Z AUTO 24005KT 10SM OVC007 13/12 A3015 RMK AO2 CIG 005V010 SLP229 T01330122 PNO $=
201910220856 METAR KPWT 220856Z AUTO 21008KT 10SM OVC005 14/13 A3014 RMK AO2 RAE0757 CIG 004V008 SLP224 6//// T01390133 51011 PNO $=
201910220656 METAR KPWT 220656Z AUTO 19013G16KT 10SM -RA OVC004 14/13 A3011 RMK AO2 SLP215 T01390133 PNO $=
201910220556 METAR KPWT 220556Z AUTO 19012G20KT 10SM -RA OVC004 14/13 A3011 RMK AO2 SLP213 6//// T01390133 10144 20128 58001 PNO $=
201910220456 METAR KPWT 220456Z AUTO 19012G19KT 10SM -RA OVC004 14/14 A3011 RMK AO2 SLP216 T01440139 PNO $=
201910220356 METAR KPWT 220356Z AUTO 19011G17KT 10SM -RA BKN004 OVC008 14/13 A3011 RMK AO2 SLP214 T01390133 PNO $=
201910220256 METAR KPWT 220256Z AUTO 20009KT 10SM -RA OVC004 13/13 A3011 RMK AO2 RAE28B56 SLP214 6//// T01330133 55003 PNO $=
201910220156 METAR KPWT 220156Z AUTO 19012G16KT 10SM -RA OVC004 13/13 A3010 RMK AO2 SLP210 T01330128 PNO $=
201910220056 METAR KPWT 220056Z AUTO 18011G18KT 6SM RA BR OVC004 13/12 A3011 RMK AO2 SLP215 T01280122 PNO $=
201910220043 SPECI KPWT 220043Z AUTO 18012G18KT 10SM -RA OVC004 13/12 A3011 RMK AO2 CIG 003V008 PNO $=
201910212356 METAR KPWT 212356Z AUTO 20010G16KT 4SM RA BR BKN006 OVC018 13/12 A3012 RMK AO2 CIG 004V009 SLP217 6//// T01280117 10128 20106 53005 PNO $=
201910212347 SPECI KPWT 212347Z AUTO 19011G17KT 4SM RA BR BKN006 OVC018 12/12 A3012 RMK AO2 CIG 004V008 PNO $=
201910212256 METAR KPWT 212256Z AUTO 20012KT 7SM -RA OVC004 12/12 A3011 RMK AO2 SLP215 P0000 T01220117=
201910212156 METAR KPWT 212156Z AUTO 20015G20KT 6SM -RA BR OVC004 12/11 A3009 RMK AO2 SLP209 P0000 T01170111=
201910212126 SPECI KPWT 212126Z AUTO 20017G20KT 6SM -RA BR OVC004 12/11 A3011 RMK AO2 P0000=
201910212056 METAR KPWT 212056Z AUTO 20014G18KT 7SM -RA OVC006 12/11 A3010 RMK AO2 CIG 004V009 SLP212 P0000 60000 T01170111 56018=
201910212054 SPECI KPWT 212054Z AUTO 20012G18KT 7SM -RA OVC006 12/11 A3010 RMK AO2 CIG 004V009 P0000=
201910211956 METAR KPWT 211956Z AUTO 19009G16KT 7SM -RA OVC004 11/11 A3013 RMK AO2 SLP222 P0000 T01110106=
201910211907 SPECI KPWT 211907Z AUTO 19008KT 4SM -RA BR OVC004 11/11 A3016 RMK AO2 CIG 003V008 P0000=
201910211830 SPECI KPWT 211830Z AUTO 20010KT 7SM -RA BKN008 BKN013 OVC024 11/10 A3016 RMK AO2 RAB24 CIG 005V012 P0000=
201910211756 METAR KPWT 211756Z AUTO 20011KT 8SM FEW006 OVC017 11/10 A3016 RMK AO2 RAE44 SLP233 P0000 60000 T01060100 10106 20100 50004=
201910211747 SPECI KPWT 211747Z AUTO 19009KT 8SM FEW004 OVC017 11/10 A3016 RMK AO2 RAE44 P0000=
201910211732 SPECI KPWT 211732Z AUTO 19008KT 7SM -RA SCT006 BKN014 OVC018 11/09 A3017 RMK AO2 P0000=
201910211714 SPECI KPWT 211714Z AUTO 19007KT 7SM -RA BKN006 OVC011 10/09 A3017 RMK AO2 CIG 003V010 P0000=
201910211706 SPECI KPWT 211706Z AUTO 20009KT 6SM -RA BR BKN004 OVC011 10/09 A3017 RMK AO2 CIG 003V010 P0000=
201910211656 METAR KPWT 211656Z AUTO 20008KT 4SM -RA BR BKN007 OVC011 10/09 A3017 RMK AO2 RAB07 CIG 003V010 SLP237 P0000 T01000094=
201910211641 SPECI KPWT 211641Z AUTO 20009KT 10SM -RA BKN007 OVC011 10/09 A3017 RMK AO2 RAB07 CIG 004V009 P0000=
201910211556 METAR KPWT 211556Z AUTO 20008KT 7SM OVC004 11/09 A3016 RMK AO2 RAB36E45 SLP233 P0000 T01060094=
201910211527 SPECI KPWT 211527Z AUTO 20009KT 5SM BR BKN004 OVC008 11/10 A3016 RMK AO2 CIG 003V006=
201910211504 SPECI KPWT 211504Z AUTO 20009KT 9SM BKN008 BKN015 11/09 A3015 RMK AO2 CIG 005V011=
201910211456 METAR KPWT 211456Z AUTO 19011KT 9SM SCT008 11/09 A3015 RMK AO2 SLP229 T01060094 51004=
201910211356 METAR KPWT 211356Z AUTO 20009KT 9SM CLR 11/09 A3016 RMK AO2 SLP232 T01060094=
201910211256 METAR KPWT 211256Z AUTO 20009KT 10SM CLR 10/09 A3014 RMK AO2 SLP224 T01000089=
201910211156 METAR KPWT 211156Z AUTO 20012KT 9SM CLR 10/09 A3014 RMK AO2 SLP225 7//// T01000094 10106 20089 53009=
201910211056 METAR KPWT 211056Z AUTO 21013KT 9SM CLR 10/09 A3012 RMK AO2 SLP218 T01000094=
201910210956 METAR KPWT 210956Z AUTO 20012KT 9SM FEW008 11/09 A3011 RMK AO2 SLP216 T01060089=
201910210940 SPECI KPWT 210940Z AUTO 22010KT 9SM BKN008 BKN120 10/09 A3011 RMK AO2=
201910210856 METAR KPWT 210856Z AUTO 21009KT 8SM FEW007 BKN120 10/09 A3011 RMK AO2 SLP217 T01000089 53005=
201910210756 METAR KPWT 210756Z AUTO 22009KT 8SM FEW008 10/09 A3010 RMK AO2 SLP214 T01000094 401110028=
201910210751 SPECI KPWT 210751Z AUTO 22008KT 8SM SCT008 10/09 A3010 RMK AO2 401110028=
201910210656 METAR KPWT 210656Z AUTO 00000KT 8SM OVC010 09/09 A3010 RMK AO2 CIG 007V013 SLP212 T00940089=
201910210646 SPECI KPWT 210646Z AUTO 00000KT 8SM OVC010 09/09 A3009 RMK AO2=
201910210556 METAR KPWT 210556Z AUTO 00000KT 9SM OVC008 09/09 A3007 RMK AO2 SLP200 60000 T00890089 10111 20089 51023=
201910210514 SPECI KPWT 210514Z AUTO 00000KT 10SM OVC008 09/08 A3005 RMK AO2 CIG 007V011=
201910210456 METAR KPWT 210456Z AUTO 00000KT 10SM OVC010 09/09 A3006 RMK AO2 CIG 005V012 SLP197 T00890089=
201910210434 SPECI KPWT 210434Z AUTO 00000KT 10SM BKN012 09/09 A3005 RMK AO2=
201910210420 SPECI KPWT 210420Z AUTO 23004KT 10SM FEW003 09/08 A3004 RMK AO2=
201910210413 SPECI KPWT 210413Z AUTO 22004KT 10SM SCT003 BKN014 09/09 A3003 RMK AO2=
201910210406 SPECI KPWT 210406Z AUTO 23006KT 10SM SCT003 BKN016 BKN023 09/09 A3003 RMK AO2=
201910210356 METAR KPWT 210356Z AUTO 23007KT 10SM BKN003 BKN023 BKN028 09/09 A3003 RMK AO2 RAE03 SLP187 P0000 T00940094=
201910210350 SPECI KPWT 210350Z AUTO 22006KT 10SM BKN003 BKN011 OVC028 10/09 A3003 RMK AO2 RAE03 CIG 002V007 P0000=
201910210256 METAR KPWT 210256Z AUTO 12003KT 10SM -RA SCT007 OVC018 10/09 A3000 RMK AO2 RAB29 SLP176 P0000 60000 T01000089 53036=
201910210224 SPECI KPWT 210224Z AUTO 08003KT 10SM BKN007 OVC011 11/09 A2997 RMK AO2 CIG 005V010=
201910210203 SPECI KPWT 210203Z AUTO 16003KT 10SM OVC011 11/09 A2996 RMK AO2=
201910210156 METAR KPWT 210156Z AUTO 19005KT 10SM BKN009 OVC014 11/09 A2995 RMK AO2 CIG 006V012 SLP159 T01060094=
201910210124 SPECI KPWT 210124Z AUTO 00000KT 10SM OVC007 11/10 A2994 RMK AO2 CIG 004V010=
201910210056 METAR KPWT 210056Z AUTO VRB03KT 10SM OVC005 11/10 A2992 RMK AO2 SLP150 T01060100=
201910210046 SPECI KPWT 210046Z AUTO 24005KT 10SM OVC005 11/10 A2992 RMK AO2=
201910202356 METAR KPWT 202356Z AUTO 20010KT 10SM OVC003 11/10 A2989 RMK AO2 RAE24 SLP140 P0000 6//// T01060100 10106 20083 51002=
201910202353 SPECI KPWT 202353Z AUTO 19008KT 10SM OVC003 11/10 A2989 RMK AO2 RAE24 P0000=
201910202256 METAR KPWT 202256Z AUTO 20013G22KT 8SM -RA OVC005 10/09 A2989 RMK AO2 SLP140 T01000094=
201910202156 METAR KPWT 202156Z AUTO 21014G19KT 8SM -RA OVC005 10/09 A2989 RMK AO2 CIG 004V008 SLP140 T01000094 PNO $=
201910202056 METAR KPWT 202056Z AUTO 22009KT 7SM -RA OVC005 10/09 A2990 RMK AO2 SLP143 6//// T01000089 58031 PNO $=
201910202024 SPECI KPWT 202024Z AUTO 19005KT 3SM -RA BR OVC005 09/09 A2991 RMK AO2 CIG 003V009 PNO $=
201910201956 METAR KPWT 201956Z AUTO 20004KT 2 1/2SM -RA BR OVC005 09/08 A2993 RMK AO2 VIS 1 3/4V3 SLP155 T00890083 PNO $=
201910201924 SPECI KPWT 201924Z AUTO 20007KT 2 1/2SM -RA BR OVC005 09/08 A2995 RMK AO2 CIG 003V008 PNO $=
201910201856 METAR KPWT 201856Z AUTO 20007KT 5SM -RA BR OVC005 09/08 A2996 RMK AO2 CIG 003V008 SLP164 T00890083 PNO $=
201910201828 SPECI KPWT 201828Z AUTO 20006KT 6SM -RA BR BKN005 OVC009 08/08 A2997 RMK AO2 PNO $=
201910201815 SPECI KPWT 201815Z AUTO 19006KT 9SM -RA FEW005 BKN011 OVC014 08/08 A2998 RMK AO2 PNO $=
201910201756 METAR KPWT 201756Z AUTO 19006KT 5SM -RA BR BKN013 BKN023 OVC034 08/07 A2999 RMK AO2 SLP175 6//// T00830072 10083 20067 58009 PNO $=
201910201746 SPECI KPWT 201746Z AUTO 18004KT 6SM -RA BR FEW013 BKN026 OVC034 08/08 A3000 RMK AO2 PNO $=
201910201656 METAR KPWT 201656Z AUTO 21004KT 9SM -RA FEW022 BKN033 OVC042 08/07 A3001 RMK AO2 SLP180 T00780072 PNO $=
201910201628 SPECI KPWT 201628Z AUTO 00000KT 5SM -RA BR BKN026 OVC034 07/07 A3002 RMK AO2 PNO $=
201910201556 METAR KPWT 201556Z AUTO 24003KT 9SM -RA SCT030 BKN037 07/07 A3002 RMK AO2 RAE08B24 SLP183 T00720067 PNO $=
201910201456 METAR KPWT 201456Z AUTO 00000KT 10SM -RA FEW050 SCT055 SCT090 07/07 A3002 RMK AO2 RAB07 SLP185 6//// T00720067 58012 PNO $=
201910201356 METAR KPWT 201356Z AUTO 21004KT 10SM SCT100 07/06 A3003 RMK AO2 SLP190 T00720061 PNO $=
201910201256 METAR KPWT 201256Z AUTO 18007KT 10SM BKN110 07/07 A3004 RMK AO2 SLP192 T00720067 PNO $=
201910201213 SPECI KPWT 201213Z AUTO 19006KT 10SM SCT004 OVC110 07/06 A3005 RMK AO2 PNO $=
201910201156 METAR KPWT 201156Z AUTO 22005KT 10SM OVC004 07/06 A3005 RMK AO2 SLP195 6//// 7//// T00670061 10067 20028 55001 PNO $=
201910201114 SPECI KPWT 201114Z AUTO 22003KT 10SM OVC004 07/06 A3004 RMK AO2 CIG 003V008 PNO $=
201910201056 METAR KPWT 201056Z AUTO 00000KT 10SM OVC008 07/06 A3004 RMK AO2 CIG 005V009 SLP194 T00670061 PNO $=
201910201023 SPECI KPWT 201023Z AUTO 20005KT 9SM BKN008 04/04 A3005 RMK AO2 PNO $=
201910201014 SPECI KPWT 201014Z AUTO 20004KT 6SM BR SCT008 04/04 A3005 RMK AO2 PNO $=
201910200956 METAR KPWT 200956Z AUTO 00000KT 10SM CLR 04/03 A3006 RMK AO2 SLP197 T00390033 PNO $=
201910200944 SPECI KPWT 200944Z AUTO 00000KT 3SM BR CLR 03/03 A3006 RMK AO2 PNO $=
201910200937 SPECI KPWT 200937Z AUTO 00000KT 1 3/4SM BR CLR 03/03 A3006 RMK AO2 VIS 1V5 PNO $=
201910200856 METAR KPWT 200856Z AUTO 00000KT 10SM CLR 04/03 A3006 RMK AO2 SLP198 6//// T00390033 53009 PNO $=
201910200827 SPECI KPWT 200827Z AUTO 00000KT 3SM BR CLR 04/04 A3005 RMK AO2 PNO $=
201910200819 SPECI KPWT 200819Z AUTO 00000KT 1 3/4SM BR CLR 04/04 A3005 RMK AO2 VIS 1V5 PNO $=
201910200756 METAR KPWT 200756Z AUTO 00000KT 10SM CLR 05/04 A3005 RMK AO2 SLP194 T00500044 401170022 PNO $=
201910200725 SPECI KPWT 200725Z AUTO 00000KT 10SM SCT008 06/05 A3004 RMK AO2 PNO $=
201910200656 METAR KPWT 200656Z AUTO 00000KT 10SM OVC008 07/06 A3003 RMK AO2 CIG 007V011 SLP189 T00670061 PNO $=
201910200556 METAR KPWT 200556Z AUTO 28003KT 10SM BKN008 04/04 A3003 RMK AO2 SLP189 6//// T00440039 10106 20022 51018 PNO $=
201910200552 SPECI KPWT 200552Z AUTO 00000KT 10SM BKN008 04/03 A3003 RMK AO2 CIG 006V010 PNO $=
201910200544 SPECI KPWT 200544Z AUTO 00000KT 3SM BR BKN010 03/03 A3002 RMK AO2 PNO $=
201910200537 SPECI KPWT 200537Z AUTO 00000KT 3SM BR FEW010 03/02 A3002 RMK AO2 PNO $=
201910200523 SPECI KPWT 200523Z AUTO 00000KT 1 1/2SM BR CLR 03/02 A3001 RMK AO2 VIS 1/2V5 PNO $=
201910200456 METAR KPWT 200456Z AUTO 00000KT 6SM BR CLR 03/03 A3000 RMK AO2 SLP177 T00330033 PNO $=
201910200356 METAR KPWT 200356Z AUTO 00000KT 10SM CLR 04/04 A2998 RMK AO2 SLP169 T00440044 PNO $=
201910200331 SPECI KPWT 200331Z AUTO 14004KT 10SM FEW009 05/04 A2997 RMK AO2 PNO $=
201910200256 METAR KPWT 200256Z AUTO 00000KT 10SM CLR 06/05 A2995 RMK AO2 SLP162 6//// T00560050 PNO $=
201910200156 METAR KPWT 200156Z AUTO 00000KT 10SM CLR 07/07 A2992 RMK AO2 SLP152 T00720067 PNO $=
201910200056 METAR KPWT 200056Z AUTO 05004KT 10SM CLR 10/08 RMK AO2 SLPNO T01000083 PNO $=
201910192256 METAR KPWT 192256Z AUTO 06005KT 10SM FEW035 12/09 A2984 RMK AO2 SLP124 T01170089 PNO $=
201910192156 METAR KPWT 192156Z AUTO 05007KT 10SM FEW012 SCT021 BKN033 10/08 A2981 RMK AO2 SLP113 T01000083 PNO $=
201910192056 METAR KPWT 192056Z AUTO 11003KT 10SM BKN015 OVC020 11/08 A2979 RMK AO2 SLP108 6//// T01110083 51018 PNO $=
201910191956 METAR KPWT 191956Z AUTO 16003KT 10SM SCT010 BKN025 10/07 A2978 RMK AO2 SLP105 T01000072 PNO $=
201910191944 SPECI KPWT 191944Z AUTO 17004KT 10SM BKN012 10/08 A2978 RMK AO2 PNO $=
201910191856 METAR KPWT 191856Z AUTO 00000KT 10SM SCT045 09/08 A2976 RMK AO2 RAE46 SLP098 T00940078 PNO $=
201910191841 SPECI KPWT 191841Z AUTO 12003KT 10SM -RA FEW007 BKN045 09/08 A2975 RMK AO2 PNO $=
201910191811 SPECI KPWT 191811Z AUTO 00000KT 10SM -RA OVC007 08/07 A2974 RMK AO2 CIG 004V012 PNO $=
201910191756 METAR KPWT 191756Z AUTO 19004KT 10SM -RA OVC005 08/07 A2974 RMK AO2 CIG 004V009 SLP087 6//// T00830072 10083 20072 53029 PNO $=
201910191734 SPECI KPWT 191734Z AUTO 21003KT 10SM -RA BKN005 OVC036 08/07 A2973 RMK AO2 CIG 003V008 PNO $=
201910191726 SPECI KPWT 191726Z AUTO 00000KT 10SM -RA SCT005 BKN009 OVC036 08/07 A2972 RMK AO2 CIG 008V012 PNO $=
201910191656 METAR KPWT 191656Z AUTO 00000KT 10SM -RA FEW004 BKN033 BKN042 08/07 A2970 RMK AO2 SLP076 T00780067 PNO $=
201910191556 METAR KPWT 191556Z AUTO 00000KT 10SM -RA FEW003 BKN037 07/07 A2968 RMK AO2 SLP067 T00720067 PNO $=
201910191546 SPECI KPWT 191546Z AUTO 00000KT 10SM SCT005 OVC037 07/07 A2967 RMK AO2 RAE42 PNO $=
201910191529 SPECI KPWT 191529Z AUTO 00000KT 10SM -RA BKN005 OVC011 07/07 A2966 RMK AO2 CIG 003V006 PNO $=
201910191456 METAR KPWT 191456Z AUTO 21004KT 10SM -RA OVC009 07/07 A2965 RMK AO2 CIG 003V012 SLP059 6//// T00720067 53016 PNO $=
201910191448 SPECI KPWT 191448Z AUTO 22004KT 10SM -RA BKN007 OVC013 07/07 A2965 RMK AO2 CIG 005V009 PNO $=
201910191436 SPECI KPWT 191436Z AUTO 23004KT 10SM -RA FEW007 BKN013 OVC031 07/07 A2964 RMK AO2 PNO $=
201910191419 SPECI KPWT 191419Z AUTO 22004KT 10SM -RA FEW006 BKN015 BKN027 07/07 A2963 RMK AO2 PNO $=
201910191356 METAR KPWT 191356Z AUTO 21003KT 10SM -RA SCT004 BKN008 OVC030 07/07 A2963 RMK AO2 CIG 006V012 SLP050 T00720067 PNO $=
201910191346 SPECI KPWT 191346Z AUTO 21003KT 10SM -RA BKN004 BKN023 OVC040 07/07 A2962 RMK AO2 PNO $=
201910191338 SPECI KPWT 191338Z AUTO 00000KT 8SM -RA FEW006 SCT016 OVC032 07/07 A2962 RMK AO2 PNO $=
201910191305 SPECI KPWT 191305Z AUTO 00000KT 7SM -RA SCT009 BKN028 08/07 A2961 RMK AO2 PNO $=
201910191256 METAR KPWT 191256Z AUTO 00000KT 6SM -RA BR SCT028 08/07 A2961 RMK AO2 SLP044 T00780072 PNO $=
201910191156 METAR KPWT 191156Z AUTO 04004KT 6SM RA BR FEW014 08/07 A2960 RMK AO2 SLP041 6//// 7//// T00780072 10089 20078 56024 PNO $=
201910191148 SPECI KPWT 191148Z AUTO 03004KT 6SM RA BR FEW019 SCT028 08/07 A2960 RMK AO2 PNO $=
201910191134 SPECI KPWT 191134Z AUTO 05003KT 6SM RA BR SCT019 SCT024 BKN028 08/07 A2961 RMK AO2 PNO $=
201910191056 METAR KPWT 191056Z AUTO 07004KT 8SM RA FEW031 08/07 A2962 RMK AO2 SLP049 T00780072 PNO $=
201910190956 METAR KPWT 190956Z AUTO VRB03KT 6SM -RA BR FEW007 SCT013 OVC035 08/08 A2963 RMK AO2 SLP053 T00830078 PNO $=
201910190937 SPECI KPWT 190937Z AUTO VRB04KT 4SM -RA BR SCT005 BKN018 OVC039 09/08 A2965 RMK AO2 PNO $=
201910190924 SPECI KPWT 190924Z AUTO VRB04KT 5SM -RA BR BKN005 BKN020 OVC027 09/08 A2965 RMK AO2 CIG 003V008 PNO $=
201910190810 SPECI KPWT 190810Z AUTO 03004KT 10SM -RA BKN003 BKN011 OVC049 09/08 A2970 RMK AO2 PNO $=
201910190804 SPECI KPWT 190804Z AUTO 00000KT 10SM -RA FEW003 BKN016 OVC049 09/08 A2971 RMK AO2 PNO $=
201910190756 METAR KPWT 190756Z AUTO 00000KT 10SM -RA FEW011 BKN038 OVC049 09/09 A2971 RMK AO2 SLP080 T00890089 401000067 PNO $=
201910190716 SPECI KPWT 190716Z AUTO 17004KT 10SM -RA SCT010 SCT029 BKN034 09/08 A2973 RMK AO2 PNO $=
201910190656 METAR KPWT 190656Z AUTO 16003KT 6SM -RA BR FEW014 BKN029 OVC034 09/08 A2975 RMK AO2 RAB0557 SLP094 T00890083 PNO $=
201910190629 SPECI KPWT 190629Z AUTO 20005KT 6SM RA BR FEW017 BKN030 OVC045 09/08 A2977 RMK AO2 RAB0557 PNO $=
201910190608 SPECI KPWT 190608Z AUTO 20006KT 10SM -RA FEW012 BKN024 OVC048 09/08 A2977 RMK AO2 RAB0557 PNO $=
201910190556 METAR KPWT 190556Z AUTO 19006KT 10SM FEW004 BKN012 OVC048 09/08 A2977 RMK AO2 RAE02 SLP100 6//// T00890083 10094 20078 56016 PNO $=
201910190552 SPECI KPWT 190552Z AUTO 18007KT 10SM SCT004 BKN012 OVC048 09/08 A2977 RMK AO2 RAE02 PNO $=
201910190456 METAR KPWT 190456Z AUTO 18006KT 10SM -RA BKN004 BKN022 09/08 A2979 RMK AO2 RAB10 SLP105 T00890083 PNO $=
201910190445 SPECI KPWT 190445Z AUTO 17004KT 10SM -RA BKN006 BKN013 OVC022 09/08 A2980 RMK AO2 RAB10 CIG 003V008 PNO $=
201910190427 SPECI KPWT 190427Z AUTO 18004KT 10SM -RA SCT008 BKN013 OVC047 09/08 A2981 RMK AO2 RAB10 PNO $=
201910190410 SPECI KPWT 190410Z AUTO 16005KT 10SM -RA SCT029 OVC047 08/08 A2981 RMK AO2 RAB10 PNO $=
201910190356 METAR KPWT 190356Z AUTO 17005KT 10SM BKN029 OVC055 09/08 A2981 RMK AO2 SLP114 T00890078 PNO $=
201910190347 SPECI KPWT 190347Z AUTO 18007KT 10SM BKN029 08/08 A2982 RMK AO2 PNO $=
201910190256 METAR KPWT 190256Z AUTO 19005KT 10SM SCT050 08/08 A2983 RMK AO2 SLP119 6//// T00830078 57011 PNO $=
201910190156 METAR KPWT 190156Z AUTO 19006KT 10SM FEW041 SCT048 SCT060 08/08 A2983 RMK AO2 TSB12E27RAE25 SLP121 T00780078 PNO $=
201910190133 SPECI KPWT 190133Z AUTO 18006KT 10SM FEW060 08/08 A2983 RMK AO2 LTG DSNT E TSB12E27RAE25 PNO $=
201910190118 SPECI KPWT 190118Z AUTO 20006KT 10SM VCTS -RA FEW026 SCT033 BKN050 09/08 A2984 RMK AO2 LTG DSNT E TSB12 PNO $=
201910190056 METAR KPWT 190056Z AUTO 21005KT 5SM RA BR SCT034 BKN046 OVC055 09/08 A2985 RMK AO2 LTG DSNT E SLP127 T00890083 PNO $=
201910182356 METAR KPWT 182356Z AUTO 20006KT 7SM -RA FEW017 SCT032 BKN039 09/08 A2986 RMK AO2 SLP130 6//// T00940083 10100 20089 58009 PNO $=
201910182343 SPECI KPWT 182343Z AUTO 23004KT 5SM -RA BR FEW003 BKN034 OVC047 09/08 A2986 RMK AO2 PNO $=
201910182327 SPECI KPWT 182327Z AUTO 17005KT 2 1/2SM RA BR FEW006 BKN019 OVC034 09/09 A2987 RMK AO2 PNO $=
201910182316 SPECI KPWT 182316Z AUTO 17005KT 5SM RA BR SCT006 BKN011 OVC031 09/09 A2987 RMK AO2 PNO $=
201910182256 METAR KPWT 182256Z AUTO 20005KT 7SM RA BKN006 OVC011 09/09 A2987 RMK AO2 RAB00 CIG 004V009 SLP134 P0000 T00940089=
201910182213 SPECI KPWT 182213Z AUTO 17009KT 7SM -RA BKN006 BKN012 OVC042 09/08 A2987 RMK AO2 RAB00 CIG 005V008 P0000=
201910182156 METAR KPWT 182156Z AUTO 19007KT 10SM SCT006 BKN010 OVC040 09/08 A2988 RMK AO2 RAE15 CIG 008V012 SLP136 P0000 T00940083=
201910182127 SPECI KPWT 182127Z AUTO 18008KT 10SM BKN008 OVC018 09/09 A2988 RMK AO2 RAE15 CIG 004V012 P0000=
201910182112 SPECI KPWT 182112Z AUTO 19008KT 10SM -RA SCT006 BKN011 OVC016 09/08 A2989 RMK AO2 P0000=
201910182056 METAR KPWT 182056Z AUTO 18011G17KT 9SM -RA BKN006 BKN012 OVC047 09/09 A2989 RMK AO2 RAE16B54 CIG 004V008 SLP139 P0000 60000 T00940089=
201910182034 SPECI KPWT 182034Z AUTO 19009KT 10SM BKN006 BKN010 BKN018 10/09 A2989 RMK AO2 RAE16 CIG 004V008 P0000=
201910182007 SPECI KPWT 182007Z AUTO 19009G15KT 10SM -RA SCT005 BKN011 BKN055 10/09 A2990 RMK AO2 P0000=
201910181956 METAR KPWT 181956Z AUTO 20012G18KT 10SM -RA SCT005 BKN009 OVC055 09/08 A2990 RMK AO2 CIG 007V014 SLP142 P0000 T00940083=
201910181909 SPECI KPWT 181909Z AUTO 20013G20KT 10SM -RA OVC005 09/08 A2990 RMK AO2 CIG 004V009 P0000=
201910181856 METAR KPWT 181856Z AUTO 19010KT 10SM -RA OVC007 09/08 A2990 RMK AO2 RAB32 CIG 004V011 SLP144 P0000 T00940083=
201910181833 SPECI KPWT 181833Z AUTO 20012G21KT 10SM -RA BKN007 OVC039 09/08 A2991 RMK AO2 RAB32 CIG 004V011 P0000=
201910181756 METAR KPWT 181756Z AUTO 20011G15KT 10SM BKN005 09/09 RMK AO2 RAE52 CIG 004V008 SLPNO P0000 60000 T00940089 10094 20067 $=
201910181715 SPECI KPWT 181715Z AUTO 20010KT 10SM -RA BKN005 BKN011 OVC024 08/08 A2991 RMK AO2 CIG 003V007 P0000=
201910181656 METAR KPWT 181656Z AUTO 18009KT 10SM -RA BKN007 OVC027 08/08 A2991 RMK AO2 RAB1559 CIG 004V015 SLP146 P0000 T00830078=
201910181631 SPECI KPWT 181631Z AUTO 19007KT 10SM -RA BKN007 BKN033 OVC055 08/08 A2991 RMK AO2 RAB1559 CIG 004V010 P0000=
201910181606 SPECI KPWT 181606Z AUTO 19007KT 8SM -RA BKN005 BKN026 08/07 A2990 RMK AO2 RAB1559 P0000=
201910181556 METAR KPWT 181556Z AUTO 20008KT 10SM SCT005 BKN025 08/07 A2990 RMK AO2 RAB23E42 SLP144 P0000 T00780072=
201910181553 SPECI KPWT 181553Z AUTO 21008KT 10SM SCT005 SCT027 BKN034 08/07 A2990 RMK AO2 RAB23E42 P0000=
201910181456 METAR KPWT 181456Z AUTO 19009KT 10SM CLR 07/06 A2989 RMK AO2 RAE33 SLP140 P0000 60000 T00670061 50007=
201910181356 METAR KPWT 181356Z AUTO 21009KT 9SM -RA BKN043 BKN050 08/07 A2989 RMK AO2 RAB39 SLP142 P0000 T00780067=
201910181308 SPECI KPWT 181308Z AUTO 22010KT 10SM FEW006 07/07 A2987 RMK AO2=
201910181256 METAR KPWT 181256Z AUTO 21007KT 10SM CLR 07/07 A2987 RMK AO2 SLP136 T00720067=
201910181156 METAR KPWT 181156Z AUTO 22007KT 10SM FEW080 07/06 A2987 RMK AO2 SLP134 60000 7//// T00670061 10089 20067 51019=
201910181056 METAR KPWT 181056Z AUTO 21008KT 10SM CLR 07/07 A2985 RMK AO2 SLP127 T00720067=
201910180956 METAR KPWT 180956Z AUTO 19004KT 10SM FEW011 07/06 A2983 RMK AO2 SLP122 T00720061=
201910180856 METAR KPWT 180856Z AUTO 00000KT 10SM FEW010 07/06 A2981 RMK AO2 SLP114 60000 T00720061 53026=
201910180756 METAR KPWT 180756Z AUTO 21014KT 10SM CLR 08/07 A2978 RMK AO2 SLP103 T00830072 401220083=
201910180656 METAR KPWT 180656Z AUTO 20010KT 10SM CLR 08/07 A2976 RMK AO2 RAB0558E14 SLP096 P0000 T00830072=
201910180556 METAR KPWT 180556Z AUTO 24010KT 10SM CLR 09/08 A2973 RMK AO2 PRESRR SLP087 6//// T00890078 10117 20083 51026=
201910180456 METAR KPWT 180456Z AUTO 19009KT 10SM SCT008 09/08 A2971 RMK AO2 SLP082 T00890083=
201910180434 SPECI KPWT 180434Z AUTO 21012KT 10SM SCT008 08/08 A2971 RMK AO2=
201910180407 SPECI KPWT 180407Z AUTO 21012KT 10SM BKN008 08/08 A2969 RMK AO2 CIG 005V009=
201910180356 METAR KPWT 180356Z AUTO 21013KT 10SM SCT008 08/08 A2968 RMK AO2 SLP070 T00830078=
201910180347 SPECI KPWT 180347Z AUTO 20013KT 10SM FEW008 08/08 A2968 RMK AO2=
201910180256 METAR KPWT 180256Z AUTO 21010KT 10SM CLR 09/07 A2965 RMK AO2 SLP061 6//// T00890072 53010=
201910180203 SPECI KPWT 180203Z AUTO 19011G20KT 10SM FEW008 SCT018 OVC060 11/09 A2962 RMK AO2=
201910180156 METAR KPWT 180156Z AUTO 19014G23KT 10SM SCT006 BKN018 OVC060 11/09 A2961 RMK AO2 RAE51 SLP047 T01110094=
201910180109 SPECI KPWT 180109Z AUTO 21011G18KT 10SM -RA OVC008 11/10 A2962 RMK AO2 CIG 007V012 PNO $=
201910180056 METAR KPWT 180056Z AUTO 19011G20KT 10SM -RA OVC010 11/10 A2962 RMK AO2 CIG 007V014 SLP048 T01110100 PNO $=
201910180052 SPECI KPWT 180052Z AUTO 19013G20KT 10SM -RA OVC008 11/10 A2962 RMK AO2 CIG 007V014 PNO $=
201910172356 METAR KPWT 172356Z AUTO 17008G16KT 140V200 10SM -RA FEW009 BKN013 OVC035 12/10 A2964 RMK AO2 RAB37 SLP056 6//// T01170100 10122 20106 58015 PNO $=
201910172323 SPECI KPWT 172323Z AUTO 19008G17KT 10SM BKN011 BKN021 BKN049 12/10 A2965 RMK AO2 PNO $=
201910172310 SPECI KPWT 172310Z AUTO 20012G17KT 10SM SCT011 SCT021 BKN032 12/10 A2965 RMK AO2 PNO $=
201910172303 SPECI KPWT 172303Z AUTO 18011G18KT 10SM FEW007 BKN013 BKN021 12/10 A2966 RMK AO2 PNO $=
201910172256 METAR KPWT 172256Z AUTO 18012G18KT 10SM BKN007 BKN013 BKN049 12/11 A2965 RMK AO2 RAB46E56 CIG 005V010 SLP060 T01220106 PNO $=
201910172215 SPECI KPWT 172215Z AUTO 19010G18KT 10SM BKN007 BKN017 OVC024 12/11 A2967 RMK AO2 CIG 005V010 PNO $=
201910172156 METAR KPWT 172156Z AUTO 19012KT 10SM FEW009 BKN025 BKN046 12/10 A2968 RMK AO2 RAB12E36 SLP068 T01170100 PNO $=
201910172141 SPECI KPWT 172141Z AUTO 19010G17KT 10SM SCT008 BKN029 BKN042 12/10 A2968 RMK AO2 RAB12E36 PNO $=
201910172110 SPECI KPWT 172110Z AUTO 18013G17KT 10SM BKN008 OVC029 12/11 A2968 RMK AO2 CIG 006V015 PNO $=
201910172056 METAR KPWT 172056Z AUTO 19012G18KT 10SM BKN010 BKN028 OVC046 12/10 A2968 RMK AO2 SLP070 6//// T01170100 50002 PNO $=
201910172041 SPECI KPWT 172041Z AUTO 19012G18KT 10SM SCT008 BKN014 BKN048 12/11 A2968 RMK AO2 PNO $=
201910171956 METAR KPWT 171956Z AUTO 20016G20KT 10SM OVC006 12/11 A2969 RMK AO2 RAE09 SLP071 T01170106 PNO $=
201910171953 SPECI KPWT 171953Z AUTO 20013G18KT 10SM OVC006 12/11 A2969 RMK AO2 RAE09 CIG 005V009 PNO $=
201910171856 METAR KPWT 171856Z AUTO 20012G18KT 10SM -RA OVC004 11/10 A2968 RMK AO2 RAB52 SLP069 T01060100 PNO $=
201910171820 SPECI KPWT 171820Z AUTO 20014G18KT 10SM OVC004 11/10 A2968 RMK AO2 PNO $=
201910171756 METAR KPWT 171756Z AUTO 19012G20KT 10SM OVC006 11/10 A2968 RMK AO2 RAE53 CIG 004V008 SLP068 6//// T01060100 10106 20094 51005 PNO $=
201910171743 SPECI KPWT 171743Z AUTO 20014G24KT 10SM -RA OVC006 11/09 A2968 RMK AO2 CIG 004V008 PNO $=
201910171727 SPECI KPWT 171727Z AUTO 19012G19KT 10SM -RA OVC004 10/09 A2968 RMK AO2 PNO $=
201910171656 METAR KPWT 171656Z AUTO 19011G22KT 10SM -RA OVC006 10/09 A2967 RMK AO2 SLP067 T01000094 PNO $=
201910171556 METAR KPWT 171556Z AUTO 19012G18KT 5SM RA BR OVC006 09/09 A2967 RMK AO2 CIG 004V009 SLP065 T00940089 PNO $=
201910171511 SPECI KPWT 171511Z AUTO 19011G16KT 8SM -RA OVC006 09/09 A2966 RMK AO2 CIG 004V010 PNO $=
201910171456 METAR KPWT 171456Z AUTO 19010G16KT 10SM -RA OVC004 09/09 A2966 RMK AO2 CIG 003V008 SLP063 6//// T00940089 58005 PNO $=
201910171437 SPECI KPWT 171437Z AUTO 19014G20KT 10SM -RA OVC004 09/09 A2966 RMK AO2 PNO $=
201910171356 METAR KPWT 171356Z AUTO 19008KT 8SM RA OVC008 09/09 A2966 RMK AO2 CIG 004V013 SLP064 T00940089 PNO $=
201910171256 METAR KPWT 171256Z AUTO 19008KT 10SM -RA BKN006 BKN026 OVC050 09/09 A2968 RMK AO2 CIG 004V014 SLP068 T00940089 PNO $=
201910171156 METAR KPWT 171156Z AUTO 18010G17KT 7SM RA FEW007 BKN034 OVC048 10/09 A2968 RMK AO2 RAB09 SLP068 6//// 7//// T01000094 10106 20094 58004 PNO $=
201910171134 SPECI KPWT 171134Z AUTO 19010KT 10SM -RA SCT006 BKN032 BKN045 10/09 A2968 RMK AO2 RAB09 P0000=
201910171124 SPECI KPWT 171124Z AUTO 19009G14KT 10SM -RA BKN006 BKN050 BKN060 10/09 A2968 RMK AO2 RAB09 CIG 004V009 P0000=
201910171056 METAR KPWT 171056Z AUTO 17006KT 10SM OVC004 10/09 A2968 RMK AO2 RAB11E28 CIG 003V008 SLP068 P0000 T01000094=
201910170956 METAR KPWT 170956Z AUTO 19007KT 10SM BKN004 OVC015 10/09 A2969 RMK AO2 RAE00 CIG 004V009 SLP072 P0000 T01000094=
201910170856 METAR KPWT 170856Z AUTO 23007KT 10SM -RA OVC004 11/10 A2969 RMK AO2 RAB42 SLP072 P0000 60000 T01060100 51002=
201910170847 SPECI KPWT 170847Z AUTO 24005KT 10SM -RA OVC004 11/10 A2969 RMK AO2 RAB42 CIG 003V007 P0000=
201910170832 SPECI KPWT 170832Z AUTO 18008KT 10SM BKN006 OVC012 11/10 A2969 RMK AO2 CIG 003V009=
201910170756 METAR KPWT 170756Z AUTO 20008KT 10SM FEW008 BKN012 OVC055 10/09 A2969 RMK AO2 RAE36 SLP072 P0000 T01000094 401280083=
201910170753 SPECI KPWT 170753Z AUTO 20009KT 10SM FEW009 BKN012 OVC050 10/09 A2969 RMK AO2 RAE36 P0000 401280083=
201910170745 SPECI KPWT 170745Z AUTO 20008KT 10SM SCT009 BKN015 OVC038 10/09 A2969 RMK AO2 RAE36 P0000=
201910170720 SPECI KPWT 170720Z AUTO 21008KT 10SM -RA FEW007 BKN011 OVC039 10/09 A2969 RMK AO2 P0000=
201910170714 SPECI KPWT 170714Z AUTO 20011KT 10SM -RA SCT011 BKN017 OVC039 10/09 A2969 RMK AO2 P0000=
201910170656 METAR KPWT 170656Z AUTO 21013KT 10SM -RA FEW021 BKN036 OVC045 10/09 A2968 RMK AO2 SLP070 P0000 T01000089=
201910170654 SPECI KPWT 170654Z AUTO 21011KT 10SM -RA SCT021 BKN036 BKN045 10/09 A2968 RMK AO2 P0000=
201910170643 SPECI KPWT 170643Z AUTO 19010KT 10SM -RA FEW019 BKN023 OVC047 10/09 A2968 RMK AO2 P0000=
201910170556 METAR KPWT 170556Z AUTO 20011KT 10SM -RA FEW005 BKN060 11/10 A2969 RMK AO2 RAB29 SLP072 P0000 60000 T01060100 10122 20106 51008=
201910170553 SPECI KPWT 170553Z AUTO 20010KT 10SM -RA SCT005 SCT036 BKN060 11/10 A2969 RMK AO2 RAB29 P0000=
201910170456 METAR KPWT 170456Z AUTO 22007KT 10SM OVC005 11/10 A2968 RMK AO2 RAB00E39 SLP069 P0000 T01060100=
201910170421 SPECI KPWT 170421Z AUTO 22008KT 10SM -RA BKN007 BKN010 OVC025 11/10 A2967 RMK AO2 RAB00 CIG 005V009 P0000=
201910170409 SPECI KPWT 170409Z AUTO 22012G18KT 10SM -RA SCT006 BKN011 OVC025 11/10 RMK AO2 RAB00 P0000 $=
201910170356 METAR KPWT 170356Z AUTO 21010KT 10SM BKN006 BKN011 OVC017 11/10 A2966 RMK AO2 CIG 004V008 SLP063 T01110100=
201910170256 METAR KPWT 170256Z AUTO 22010KT 10SM BKN008 OVC012 11/10 A2965 RMK AO2 RAE27 CIG 005V009 SLP060 P0000 60000 T01110100 55001=
201910170230 SPECI KPWT 170230Z AUTO 21013G18KT 10SM BKN006 BKN010 OVC049 11/11 A2965 RMK AO2 RAE27 CIG 003V007 P0000=
201910170219 SPECI KPWT 170219Z AUTO 22011G20KT 10SM -RA OVC004 11/11 A2964 RMK AO2 CIG 003V008 P0000=
201910170156 METAR KPWT 170156Z AUTO 20014G19KT 7SM -RA OVC006 12/11 A2964 RMK AO2 CIG 004V010 SLP056 P0000 T01170111=
201910170147 SPECI KPWT 170147Z AUTO 20013KT 10SM -RA BKN006 BKN045 12/11 A2964 RMK AO2 CIG 005V010 P0000=
201910170124 SPECI KPWT 170124Z AUTO 20014G19KT 10SM -RA SCT006 12/11 A2963 RMK AO2 P0000=
201910170056 METAR KPWT 170056Z AUTO 20012KT 10SM -RA OVC008 12/11 A2964 RMK AO2 CIG 005V011 SLP056 P0000 T01170111=
201910170041 SPECI KPWT 170041Z AUTO 20012G17KT 10SM -RA OVC008 12/11 A2965 RMK AO2 CIG 005V011 P0000=
201910170020 SPECI KPWT 170020Z AUTO 20015G21KT 10SM -RA BKN010 OVC014 12/11 A2966 RMK AO2 CIG 007V011 P0000=
201910162356 METAR KPWT 162356Z AUTO 19011KT 10SM -RA OVC015 12/11 A2966 RMK AO2 RAB28 SLP061 P0000 6//// T01220111 10128 20100 55017=
201910162256 METAR KPWT 162256Z AUTO 20011G17KT 10SM OVC015 13/11 A2965 RMK AO2 SLP059 T01280111=
201910162207 SPECI KPWT 162207Z AUTO 19010G18KT 10SM BKN015 OVC031 12/11 A2966 RMK AO2=
201910162145 SPECI KPWT 162145Z AUTO 20013G19KT 10SM SCT010 OVC031 12/11 A2968 RMK AO2=
201910162115 SPECI KPWT 162115Z AUTO 20014G22KT 10SM FEW007 BKN010 OVC027 12/11 A2970 RMK AO2=
201910162056 METAR KPWT 162056Z AUTO 20010G18KT 10SM BKN006 OVC011 12/11 A2971 RMK AO2 CIG 004V009 SLP079 6//// T01170106 58021=
201910162027 SPECI KPWT 162027Z AUTO 20009KT 10SM BKN006 OVC018 12/11 A2972 RMK AO2 CIG 004V010=
201910161956 METAR KPWT 161956Z AUTO 21008KT 10SM BKN004 OVC025 11/11 A2973 RMK AO2 RAB00E35 SLP087 T01110106 PNO $=
201910161856 METAR KPWT 161856Z AUTO 21007KT 10SM OVC004 11/10 A2975 RMK AO2 RAB17E37 SLP095 T01060100 PNO $=
201910161756 METAR KPWT 161756Z AUTO 20005KT 10SM OVC004 10/09 A2977 RMK AO2 RAE55 SLP100 6//// T01000094 10100 20089 58002 PNO $=
201910161747 SPECI KPWT 161747Z AUTO 20007KT 10SM -RA OVC004 10/09 A2977 RMK AO2 PNO $=
201910161656 METAR KPWT 161656Z AUTO 22008KT 3SM -RA BR BKN006 OVC025 09/09 A2978 RMK AO2 CIG 003V011 SLP104 T00940089 PNO $=
201910161648 SPECI KPWT 161648Z AUTO 21007KT 2 1/2SM -RA BR BKN006 OVC025 09/09 A2978 RMK AO2 VIS 2 1/2V5 CIG 003V010 PNO $=
201910161618 SPECI KPWT 161618Z AUTO 23007KT 4SM -RA BR SCT004 OVC028 09/09 A2978 RMK AO2 PNO $=
201910161609 SPECI KPWT 161609Z AUTO 23006KT 5SM -RA BR BKN004 OVC028 09/09 A2977 RMK AO2 CIG 003V009 PNO $=
201910161559 SPECI KPWT 161559Z AUTO 23004KT 2 1/2SM -RA BR BKN004 OVC028 09/09 A2977 RMK AO2 CIG 003V009 PNO $=
201910161556 METAR KPWT 161556Z AUTO 22005KT 3SM -RA BR BKN004 OVC028 09/09 A2978 RMK AO2 CIG 003V007 SLP102 T00940089 PNO $=
201910161546 SPECI KPWT 161546Z AUTO 23006KT 3SM -RA BR SCT004 SCT007 OVC028 09/09 A2978 RMK AO2 PNO $=
201910161540 SPECI KPWT 161540Z AUTO 22006KT 2 1/2SM -RA BR BKN004 OVC028 09/09 A2979 RMK AO2 CIG 002V008 PNO $=
201910161519 SPECI KPWT 161519Z AUTO 24005KT 5SM -RA BR BKN004 OVC007 09/09 A2979 RMK AO2 PNO $=
201910161510 SPECI KPWT 161510Z AUTO 26006KT 5SM -RA BR OVC002 09/09 A2979 RMK AO2 PNO $=
201910161456 METAR KPWT 161456Z AUTO 25004KT 2SM -RA BR OVC002 09/09 A2979 RMK AO2 SLP107 6//// T00890089 58008 PNO $=
201910161435 SPECI KPWT 161435Z AUTO 26005KT 2 1/2SM -RA BR BKN002 09/09 A2979 RMK AO2 PNO $=
201910161417 SPECI KPWT 161417Z AUTO 28005KT 6SM -RA BR BKN004 BKN029 OVC036 09/09 A2980 RMK AO2 CIG 003V008 PNO $=
201910161405 SPECI KPWT 161405Z AUTO 27005KT 5SM -RA BR SCT006 OVC036 09/09 A2980 RMK AO2 PNO $=
201910161356 METAR KPWT 161356Z AUTO 23005KT 7SM -RA OVC036 09/09 A2980 RMK AO2 SLP111 T00940089 PNO $=
201910161256 METAR KPWT 161256Z AUTO 25003KT 8SM -RA BKN050 BKN060 OVC070 09/09 A2980 RMK AO2 RAE24B46 SLP111 T00940089 PNO $=
201910161156 METAR KPWT 161156Z AUTO 22003KT 5SM RA BR BKN035 OVC047 10/09 A2982 RMK AO2 SLP115 6//// 7//// T01000089 10106 20078 58017 PNO $=
201910161056 METAR KPWT 161056Z AUTO 21004KT 10SM -RA FEW033 SCT040 BKN048 10/09 A2984 RMK AO2 SLP123 T01000094 PNO $=
201910160956 METAR KPWT 160956Z AUTO 22005KT 10SM -RA SCT034 11/09 A2987 RMK AO2 RAB24 SLP132 T01060094 PNO $=
201910160856 METAR KPWT 160856Z AUTO 22005KT 10SM SCT044 BKN100 09/09 A2987 RMK AO2 SLP133 6//// T00940089 56016 PNO $=
201910160756 METAR KPWT 160756Z AUTO 22003KT 8SM BKN110 08/08 A2988 RMK AO2 SLP136 T00830083 401440039 PNO $=
201910160656 METAR KPWT 160656Z AUTO 23004KT 10SM CLR 08/08 A2989 RMK AO2 RAE0559B16E30 SLP141 T00830078 PNO $=
201910160556 METAR KPWT 160556Z AUTO 21004KT 10SM -RA SCT049 BKN095 10/09 A2992 RMK AO2 RAE20B40 SLP149 6//// T01000094 10133 20100 58012 PNO $=
201910160456 METAR KPWT 160456Z AUTO 26006KT 10SM -RA SCT038 OVC047 11/09 A2994 RMK AO2 RAB05 SLP158 T01060094 PNO $=
201910160356 METAR KPWT 160356Z AUTO 21004KT 10SM SCT036 OVC049 11/09 A2995 RMK AO2 RAB01E56 SLP160 T01060094 PNO $=
201910160256 METAR KPWT 160256Z AUTO 24006KT 10SM FEW039 OVC047 12/08 A2995 RMK AO2 SLP161 6//// T01220083 56003 PNO $=
201910160156 METAR KPWT 160156Z AUTO 22003KT 10SM OVC036 12/08 A2995 RMK AO2 SLP161 T01220083 PNO $=
201910160056 METAR KPWT 160056Z AUTO 20006KT 10SM OVC060 13/08 A2995 RMK AO2 SLP163 T01280083 PNO $=
201910152356 METAR KPWT 152356Z AUTO 21008KT 10SM OVC070 13/08 A2996 RMK AO2 SLP166 6//// T01330078 10144 20117 56016 PNO $=
201910152256 METAR KPWT 152256Z AUTO 24011KT 10SM CLR 13/08 A2996 RMK AO2 SLP166 T01330078 PNO $=
201910152156 METAR KPWT 152156Z AUTO 20006KT 10SM CLR 13/08 A2996 RMK AO2 RAB17E44 SLP167 T01280083 PNO $=
201910152056 METAR KPWT 152056Z AUTO 20008KT 10SM FEW080 13/08 A3001 RMK AO2 SLP180 6//// T01280083 53003 PNO $=
201910151956 METAR KPWT 151956Z AUTO 21008KT 10SM CLR 14/08 A2999 RMK AO2 SLP175 T01390078 PNO $=
201910151856 METAR KPWT 151856Z AUTO 23011G18KT 10SM CLR 14/07 A3000 RMK AO2 SLP180 T01440072 PNO $=
201910151756 METAR KPWT 151756Z AUTO 21008KT 10SM CLR 12/07 A3000 RMK AO2 SLP176 6//// T01170072 10117 20039 53015 PNO $=
201910151656 METAR KPWT 151656Z AUTO 23006KT 10SM CLR 09/08 A2998 RMK AO2 SLP171 T00940078 PNO $=
201910151625 SPECI KPWT 151625Z AUTO 23006KT 9SM SCT003 08/08 A2997 RMK AO2 PNO $=
201910151611 SPECI KPWT 151611Z AUTO 22004KT 3SM BR BKN003 08/08 A2997 RMK AO2 PNO $=
201910151601 SPECI KPWT 151601Z AUTO 21006KT 1 3/4SM BR BKN003 08/07 A2997 RMK AO2 PNO $=
201910151556 METAR KPWT 151556Z AUTO 22006KT 5SM BR SCT003 07/07 A2997 RMK AO2 SLP167 T00720067 PNO $=
201910151456 METAR KPWT 151456Z AUTO 00000KT 4SM BR CLR 04/04 A2995 RMK AO2 SLP161 6//// T00440044 56007 PNO $=
201910151356 METAR KPWT 151356Z AUTO 00000KT 10SM CLR 05/05 A2996 RMK AO2 SLP164 T00500050 PNO $=
201910151316 SPECI KPWT 151316Z AUTO 00000KT 3SM BR CLR 04/04 A2996 RMK AO2 PNO $=
201910151308 SPECI KPWT 151308Z AUTO 00000KT 2 1/2SM BR CLR 05/04 A2996 RMK AO2 VIS 3/4V5 PNO $=
201910151256 METAR KPWT 151256Z AUTO 00000KT 10SM CLR 06/05 A2996 RMK AO2 SLP165 T00560050 PNO $=
201910151156 METAR KPWT 151156Z AUTO 00000KT 10SM CLR 06/05 A2997 RMK AO2 SLP169 6//// 7//// T00560050 10061 20039 56015 PNO $=
201910151056 METAR KPWT 151056Z AUTO 00000KT 10SM CLR 05/04 A2998 RMK AO2 SLP173 T00500044 PNO $=
201910150956 METAR KPWT 150956Z AUTO 00000KT 10SM CLR 06/05 A3000 RMK AO2 SLP178 T00560050 PNO $=
201910150856 METAR KPWT 150856Z AUTO 00000KT 7SM CLR 05/04 A3002 RMK AO2 SLP184 6//// T00500044 56008 TSNO PNO $=
201910150656 METAR KPWT 150656Z AUTO 00000KT 10SM CLR 06/05 A3003 RMK AO2 SLP188 T00560050 PNO $=
201910150556 METAR KPWT 150556Z AUTO 00000KT 9SM CLR 06/05 A3004 RMK AO2 SLP193 6//// T00560050 10150 20044 58009 PNO $=
201910150456 METAR KPWT 150456Z AUTO 00000KT 10SM CLR 07/06 A3006 RMK AO2 SLP198 T00720061 PNO $=
201910150356 METAR KPWT 150356Z AUTO 00000KT 10SM CLR 07/06 A3007 RMK AO2 SLP201 T00720061 PNO $=
201910150256 METAR KPWT 150256Z AUTO 00000KT 10SM CLR 07/06 A3007 RMK AO2 SLP200 6//// T00670056 53002 PNO $=
201910150156 METAR KPWT 150156Z AUTO 00000KT 10SM CLR 09/07 A3005 RMK AO2 SLP197 T00940067 PNO $=
201910150056 METAR KPWT 150056Z AUTO 06005KT 10SM CLR 13/07 A3005 RMK AO2 SLP195 T01330072 PNO $=
201910142356 METAR KPWT 142356Z AUTO 09003KT 10SM CLR 15/05 A3007 RMK AO2 SLP201 6//// T01500050 10161 20078 56009 PNO $=
201910142256 METAR KPWT 142256Z AUTO 00000KT 10SM CLR 15/04 A3007 RMK AO2 SLP203 T01500044 PNO $=
201910142156 METAR KPWT 142156Z AUTO 19003KT 10SM CLR 15/07 A3008 RMK AO2 SLP205 T01500067 PNO $=
201910142056 METAR KPWT 142056Z AUTO 25004KT 10SM CLR 14/08 A3009 RMK AO2 SLP208 6//// T01440078 58010 PNO $=
201910141956 METAR KPWT 141956Z AUTO 00000KT 10SM CLR 12/08 A3011 RMK AO2 SLP214 T01170078 PNO $=
201910141929 SPECI KPWT 141929Z AUTO 00000KT 10SM SCT007 11/08 A3011 RMK AO2 PNO $=
201910141856 METAR KPWT 141856Z AUTO 00000KT 10SM OVC005 09/08 A3012 RMK AO2 SLP219 T00890078 PNO $=
201910141831 SPECI KPWT 141831Z AUTO 00000KT 10SM OVC005 08/07 A3012 RMK AO2 PNO $=
201910141756 METAR KPWT 141756Z AUTO 00000KT 10SM OVC003 08/07 A3012 RMK AO2 SLP220 6//// T00780072 10083 20033 52004 PNO $=
201910141733 SPECI KPWT 141733Z AUTO 24003KT 9SM OVC003 08/07 A3012 RMK AO2 PNO $=
201910141725 SPECI KPWT 141725Z AUTO 00000KT 4SM BR OVC001 08/07 A3012 RMK AO2 PNO $=
201910141716 SPECI KPWT 141716Z AUTO 00000KT 1 3/4SM BR OVC001 08/07 A3012 RMK AO2 PNO $=
201910141709 SPECI KPWT 141709Z AUTO 20003KT 3SM BR OVC001 08/07 A3012 RMK AO2 PNO $=
201910141702 SPECI KPWT 141702Z AUTO 1 1/4SM BR OVC001 08/07 A3012 RMK AO2 PNO $=
201910141656 METAR KPWT 141656Z AUTO 00000KT 3/4SM BR OVC001 07/07 A3012 RMK AO2 SLP218 T00720072 PNO $=
201910141646 SPECI KPWT 141646Z AUTO 00000KT 1SM BR OVC001 07/07 A3012 RMK AO2 PNO $=
201910141635 SPECI KPWT 141635Z AUTO 00000KT 1/2SM FG OVC001 07/07 A3012 RMK AO2 PNO $=
201910141503 SPECI KPWT 141503Z AUTO 00000KT 1/4SM FG OVC001 06/05 A3011 RMK AO2 PNO $=
201910141456 METAR KPWT 141456Z AUTO 00000KT 1/2SM FG OVC001 05/05 A3011 RMK AO2 SLP215 6//// T00500050 51011 PNO $=
201910141453 SPECI KPWT 141453Z AUTO 00000KT 1/2SM FG OVC001 05/04 A3011 RMK AO2 VIS 1/4V5 PNO $=
201910141450 SPECI KPWT 141450Z AUTO 00000KT 1SM BR OVC001 04/04 A3011 RMK AO2 VIS 1/2V5 PNO $=
201910141412 SPECI KPWT 141412Z AUTO 00000KT 4SM BR BKN001 04/03 A3010 RMK AO2 PNO $=
201910141405 SPECI KPWT 141405Z AUTO 00000KT 5SM BR OVC003 04/04 A3010 RMK AO2 CIG 001V005 PNO $=
201910141356 METAR KPWT 141356Z AUTO 00000KT 2SM BR BKN003 04/04 A3010 RMK AO2 CIG 001V005 SLP212 T00440044 PNO $=
201910141352 SPECI KPWT 141352Z AUTO 00000KT 1 1/4SM BR BKN003 04/04 A3010 RMK AO2 CIG 001V005 PNO $=
201910141341 SPECI KPWT 141341Z AUTO 00000KT 3/4SM BR OVC003 05/04 A3010 RMK AO2 CIG 002V005 PNO $=
201910141335 SPECI KPWT 141335Z AUTO 00000KT 1 3/4SM BR OVC003 05/04 A3010 RMK AO2 VIS 3/4V5 PNO $=
201910141256 METAR KPWT 141256Z AUTO 00000KT 9SM BKN003 05/04 A3009 RMK AO2 RAE16 SLP207 T00500044 PNO $=
201910141217 SPECI KPWT 141217Z AUTO 00000KT 3SM BR OVC001 04/04 A3008 RMK AO2 RAE16 PNO $=
201910141213 SPECI KPWT 141213Z AUTO 00000KT 1 1/4SM -RA BR OVC001 04/04 A3008 RMK AO2 PNO $=
201910141209 SPECI KPWT 141209Z AUTO 00000KT 3/4SM -RA BR OVC001 04/04 A3008 RMK AO2 PNO $=
201910141156 METAR KPWT 141156Z AUTO 00000KT 1/4SM -RA FG OVC001 05/05 A3008 RMK AO2 SLP205 6//// 7//// T00500050 10056 20022 51005 PNO $=
201910141131 SPECI KPWT 141131Z AUTO 00000KT 1/4SM -RA FG OVC001 06/05 A3008 RMK AO2 PNO $=
201910141122 SPECI KPWT 141122Z AUTO 00000KT 1/2SM -RA FG OVC001 06/05 A3008 RMK AO2 PNO $=
201910141056 METAR KPWT 141056Z AUTO 00000KT 1/4SM -RA FG OVC001 05/04 A3007 RMK AO2 RAB00 SLP204 T00500044 PNO $=
201910141030 SPECI KPWT 141030Z AUTO 00000KT 1/4SM FG OVC001 03/03 A3008 RMK AO2 RAB00E23 PNO $=
201910141022 SPECI KPWT 141022Z AUTO 00000KT 1/2SM -RA FG OVC001 03/03 A3007 RMK AO2 RAB00 PNO $=
201910141012 SPECI KPWT 141012Z AUTO 00000KT 3/4SM -RA BR OVC001 03/03 A3007 RMK AO2 RAB00 PNO $=
201910140956 METAR KPWT 140956Z AUTO 00000KT 1 1/4SM BR OVC001 02/02 A3007 RMK AO2 RAB02E50 SLP201 T00220022 FZRANO PNO $=
201910140943 SPECI KPWT 140943Z AUTO 00000KT 2SM -RA BR BKN001 02/02 A3007 RMK AO2 RAB02 FZRANO PNO $=
201910140940 SPECI KPWT 140940Z AUTO 12003KT 1SM -RA BR BKN001 03/03 A3007 RMK AO2 RAB02 PNO $=
201910140925 SPECI KPWT 140925Z AUTO 00000KT 1/2SM FG VV001 03/02 A3007 RMK AO2 RAB02E25 PNO $=
201910140921 SPECI KPWT 140921Z AUTO 00000KT 3/4SM -RA BR BKN002 03/03 A3007 RMK AO2 RAB02 PNO $=
201910140905 SPECI KPWT 140905Z AUTO 00000KT 1/4SM -RA FG BKN002 03/03 A3006 RMK AO2 RAB02 PNO $=
201910140900 SPECI KPWT 140900Z AUTO 00000KT 3/4SM BR BKN002 04/03 A3006 RMK AO2 PNO $=
201910140856 METAR KPWT 140856Z AUTO 00000KT 5SM BR BKN002 03/03 A3006 RMK AO2 SLP198 6//// T00330028 53009 PNO $=
201910140841 SPECI KPWT 140841Z AUTO 00000KT 3SM BR FEW002 03/03 A3005 RMK AO2 PNO $=
201910140838 SPECI KPWT 140838Z AUTO 13003KT 1 1/4SM BR CLR 03/03 A3005 RMK AO2 PNO $=
201910140831 SPECI KPWT 140831Z AUTO 00000KT 3/4SM BR CLR 03/03 A3005 RMK AO2 PNO $=
201910140817 SPECI KPWT 140817Z AUTO 00000KT 4SM BR CLR 03/03 A3005 RMK AO2 PNO $=
201910140756 METAR KPWT 140756Z AUTO 00000KT 10SM CLR 03/03 A3005 RMK AO2 SLP194 T00330028 401560033 PNO $=
201910140656 METAR KPWT 140656Z AUTO 00000KT 10SM CLR 04/04 A3004 RMK AO2 SLP192 T00440039 PNO $=
201910140556 METAR KPWT 140556Z AUTO 00000KT 10SM CLR 05/04 A3003 RMK AO2 SLP189 6//// T00500044 10133 20044 53010 PNO $=
201910140456 METAR KPWT 140456Z AUTO 00000KT 10SM CLR 07/06 A3002 RMK AO2 SLP185 T00670061 PNO $=
201910140356 METAR KPWT 140356Z AUTO 00000KT 10SM BKN055 09/07 A3001 RMK AO2 SLP179 T00890072 PNO $=
201910140256 METAR KPWT 140256Z AUTO 00000KT 10SM OVC049 11/08 A3000 RMK AO2 SLP180 6//// T01110078 53012 PNO $=
201910140156 METAR KPWT 140156Z AUTO 00000KT 10SM BKN049 OVC060 12/08 A2999 RMK AO2 SLP174 T01170078 PNO $=
201910140056 METAR KPWT 140056Z AUTO 07005KT 10SM OVC047 13/08 A2997 RMK AO2 SLP170 T01280078 PNO $=
201910132356 METAR KPWT 132356Z AUTO 08005KT 10SM SCT037 OVC085 13/07 A2997 RMK AO2 SLP167 6//// T01330072 10156 20111 53002 PNO $=
201910132256 METAR KPWT 132256Z AUTO 00000KT 10SM FEW043 OVC080 14/05 A2997 RMK AO2 SLP166 T01440050 PNO $=
201910132156 METAR KPWT 132156Z AUTO 25003KT 10SM CLR 15/06 A2996 RMK AO2 SLP164 T01500056 PNO $=
201910132056 METAR KPWT 132056Z AUTO 00000KT 10SM SCT080 14/07 A2996 RMK AO2 SLP164 6//// T01440067 50000 PNO $=
201910131956 METAR KPWT 131956Z AUTO VRB03KT 10SM FEW027 BKN070 13/07 A2997 RMK AO2 SLP166 T01330072 PNO $=
201910131856 METAR KPWT 131856Z AUTO 24004KT 10SM CLR 13/07 A2996 RMK AO2 SLP164 T01330072 PNO $=
201910131756 METAR KPWT 131756Z AUTO 00000KT 10SM BKN070 11/07 A2996 RMK AO2 SLP165 6//// T01110072 10117 20072 PNO $=
201910131656 METAR KPWT 131656Z AUTO 00000KT 10SM OVC070 11/07 A2996 RMK AO2 SLP165 T01060067 PNO $=
201910131556 METAR KPWT 131556Z AUTO 00000KT 10SM SCT010 BKN065 09/07 RMK AO2 SLPNO T00890067 PNO $=
201910131456 METAR KPWT 131456Z AUTO 00000KT 10SM OVC070 08/07 A2996 RMK AO2 SLP164 6//// T00830067 51005 PNO $=
201910131356 METAR KPWT 131356Z AUTO 00000KT 10SM OVC065 07/07 A2995 RMK AO2 SLP164 T00720067 PNO $=
201910131256 METAR KPWT 131256Z AUTO 00000KT 10SM OVC070 08/06 A2995 RMK AO2 RAB05E18 SLP162 T00780061 PNO $=
201910131156 METAR KPWT 131156Z AUTO 00000KT 10SM OVC075 08/07 A2994 RMK AO2 SLP158 6//// 7//// T00830067 10100 20078 55000 PNO $=
201910131056 METAR KPWT 131056Z AUTO 00000KT 10SM OVC075 08/06 A2993 RMK AO2 SLP155 T00830061 PNO $=
201910130956 METAR KPWT 130956Z AUTO 00000KT 10SM BKN085 08/06 A2994 RMK AO2 SLP156 T00830061 PNO $=
201910130856 METAR KPWT 130856Z AUTO 05003KT 10SM OVC075 09/06 A2994 RMK AO2 SLP157 6//// T00940056 51002 PNO $=
201910130756 METAR KPWT 130756Z AUTO 05003KT 10SM OVC070 10/06 A2994 RMK AO2 SLP156 T01000056 401560022 PNO $=
201910130656 METAR KPWT 130656Z AUTO 04005KT 10SM OVC080 10/06 A2994 RMK AO2 SLP158 T01000056 PNO $=
201910130556 METAR KPWT 130556Z AUTO 05007KT 10SM OVC070 10/05 A2994 RMK AO2 SLP156 6//// T01000050 10133 20094 58004 PNO $=
201910130456 METAR KPWT 130456Z AUTO 00000KT 10SM OVC075 09/06 A2995 RMK AO2 SLP162 T00940061 PNO $=
201910130356 METAR KPWT 130356Z AUTO 00000KT 10SM BKN085 11/06 A2995 RMK AO2 RAB27E44 SLP162 T01060056 PNO $=
201910130256 METAR KPWT 130256Z AUTO 06007KT 10SM OVC085 11/06 A2995 RMK AO2 SLP159 6//// T01110056 52001 PNO $=
201910130156 METAR KPWT 130156Z AUTO 05007KT 10SM OVC095 11/05 A2995 RMK AO2 SLP159 T01110050 PNO $=
201910130056 METAR KPWT 130056Z AUTO 05007KT 10SM OVC090 12/06 A2995 RMK AO2 SLP160 T01170061 PNO $=
201910122356 METAR KPWT 122356Z AUTO 04005KT 10SM BKN095 13/05 A2995 RMK AO2 RAE09 SLP161 6//// T01330050 10156 20106 56010 PNO $=
201910122256 METAR KPWT 122256Z AUTO 08003KT 10SM -RA BKN095 14/04 A2995 RMK AO2 RAB56 SLP164 T01440039 PNO $=
201910122156 METAR KPWT 122156Z AUTO 00000KT 10SM SCT100 15/03 A2996 RMK AO2 SLP166 T01500028 PNO $=
201910122056 METAR KPWT 122056Z AUTO VRB03KT 10SM FEW090 14/01 A2998 RMK AO2 SLP169 6//// T01440006 58009 PNO $=
201910121956 METAR KPWT 121956Z AUTO 01005KT 10SM BKN110 15/04 A2999 RMK AO2 SLP174 T01500039 PNO $=
201910121856 METAR KPWT 121856Z AUTO VRB03KT 10SM CLR 12/04 A3001 RMK AO2 SLP181 T01170039 PNO $=
201910121756 METAR KPWT 121756Z AUTO 00000KT 10SM CLR 11/04 A3000 RMK AO2 SLP179 6//// T01110039 10111 20039 58001 PNO $=
201910121656 METAR KPWT 121656Z AUTO 08003KT 10SM CLR 10/03 A3001 RMK AO2 SLP183 T01000033 PNO $=
201910121556 METAR KPWT 121556Z AUTO 00000KT 10SM CLR 08/04 A3002 RMK AO2 SLP185 T00830044 PNO $=
201910121456 METAR KPWT 121456Z AUTO 00000KT 10SM CLR 07/03 A3001 RMK AO2 SLP179 6//// T00670033 55001 PNO $=
201910121356 METAR KPWT 121356Z AUTO 00000KT 10SM FEW110 05/03 A3001 RMK AO2 SLP181 T00500028 PNO $=
201910121256 METAR KPWT 121256Z AUTO 00000KT 10SM CLR 04/02 A3001 RMK AO2 SLP182 T00440017 PNO $=
201910121156 METAR KPWT 121156Z AUTO 00000KT 10SM CLR 05/02 A3001 RMK AO2 SLP181 6//// 7//// T00500022 10050 20022 58008 PNO $=
201910121056 METAR KPWT 121056Z AUTO 00000KT 10SM CLR 04/02 A3002 RMK AO2 SLP185 T00390017 PNO $=
201910120956 METAR KPWT 120956Z AUTO 00000KT 10SM CLR 03/01 A3003 RMK AO2 SLP189 T00330011 PNO $=
201910120856 METAR KPWT 120856Z AUTO 00000KT 10SM CLR 03/01 A3004 RMK AO2 SLP191 6//// T00330006 58004 PNO $=
201910120756 METAR KPWT 120756Z AUTO 00000KT 10SM CLR 03/01 A3004 RMK AO2 SLP192 T00280006 401670022 PNO $=
201910120656 METAR KPWT 120656Z AUTO 00000KT 10SM CLR 03/01 A3004 RMK AO2 SLP192 T00330006 PNO $=
201910120556 METAR KPWT 120556Z AUTO 00000KT 10SM CLR 04/01 A3005 RMK AO2 SLP194 6//// T00390011 10167 20039 58001 PNO $=
201910120456 METAR KPWT 120456Z AUTO 00000KT 10SM CLR 04/02 A3005 RMK AO2 SLP195 T00390017 PNO $=
201910120356 METAR KPWT 120356Z AUTO 00000KT 10SM CLR 05/02 A3005 RMK AO2 SLP196 T00500022 PNO $=
201910120256 METAR KPWT 120256Z AUTO 00000KT 10SM CLR 06/02 A3005 RMK AO2 SLP194 6//// T00560022 56006 PNO $=
201910120156 METAR KPWT 120156Z AUTO 00000KT 10SM CLR 08/03 A3005 RMK AO2 SLP197 T00780028 PNO $=
201910120056 METAR KPWT 120056Z AUTO 00000KT 10SM CLR 16/01 A3006 RMK AO2 SLP198 T01560011 PNO $=
201910112356 METAR KPWT 112356Z AUTO 05005KT 10SM CLR 17/M01 A3007 RMK AO2 SLP202 6//// T01671006 10167 20111 56020 PNO $=
201910112256 METAR KPWT 112256Z AUTO 04005KT 10SM CLR 17/M02 A3009 RMK AO2 SLP207 T01671017 PNO $=
201910112156 METAR KPWT 112156Z AUTO 06006KT 10SM CLR 17/M01 A3011 RMK AO2 SLP214 T01671006 PNO $=
201910112056 METAR KPWT 112056Z AUTO 04006KT 10SM CLR 15/00 A3013 RMK AO2 SLP222 6//// T01500000 58020 PNO $=
201910111956 METAR KPWT 111956Z AUTO 05008KT 10SM CLR 14/M01 A3015 RMK AO2 SLP231 T01441011 PNO $=
201910111856 METAR KPWT 111856Z AUTO 07007KT 10SM CLR 13/M01 A3017 RMK AO2 SLP237 T01281006 PNO $=
201910111756 METAR KPWT 111756Z AUTO 04007KT 10SM CLR 11/01 A3019 RMK AO2 SLP241 6//// T01110011 10111 20033 58007 PNO $=
201910111556 METAR KPWT 111556Z AUTO 04008KT 10SM CLR 08/02 A3021 RMK AO2 SLP248 T00830017 PNO $=
201910111456 METAR KPWT 111456Z AUTO 06009KT 10SM CLR 07/02 A3021 RMK AO2 SLP250 6//// T00670017 56009 PNO $=
201910111356 METAR KPWT 111356Z AUTO 04008KT 10SM CLR 05/02 A3022 RMK AO2 SLP252 T00500017 PNO $=
201910111256 METAR KPWT 111256Z AUTO 05009KT 10SM CLR 06/02 A3022 RMK AO2 SLP252 T00610022 PNO $=
201910111156 METAR KPWT 111156Z AUTO 03005KT 10SM CLR 04/01 A3024 RMK AO2 SLP258 6//// 7//// T00440011 10067 20028 56009 PNO $=
201910111056 METAR KPWT 111056Z AUTO 05006KT 10SM CLR 06/02 A3024 RMK AO2 SLP262 T00560017 PNO $=
201910110956 METAR KPWT 110956Z AUTO 05008KT 10SM CLR 06/02 A3025 RMK AO2 SLP265 T00610017 PNO $=
201910110856 METAR KPWT 110856Z AUTO 06004KT 10SM CLR 05/01 A3027 RMK AO2 SLP267 6//// T00500006 55011 PNO $=
201910110756 METAR KPWT 110756Z AUTO 05005KT 10SM CLR 06/00 A3026 RMK AO2 SLP266 T00610000 401331028 PNO $=
201910110656 METAR KPWT 110656Z AUTO 03004KT 10SM CLR 06/00 A3028 RMK AO2 SLP273 T00560000 PNO $=
201910110556 METAR KPWT 110556Z AUTO 04008KT 10SM CLR 07/00 A3030 RMK AO2 SLP279 6//// T00670000 10133 20067 58005 PNO $=
201910110456 METAR KPWT 110456Z AUTO 05008KT 10SM CLR 07/01 A3031 RMK AO2 SLP283 T00720006 PNO $=
201910110356 METAR KPWT 110356Z AUTO 04006KT 10SM CLR 07/00 A3031 RMK AO2 SLP285 T00720000 PNO $=
201910110256 METAR KPWT 110256Z AUTO 05008KT 10SM CLR 08/M01 A3031 RMK AO2 SLP284 6//// T00781006 56013 PNO $=
201910110156 METAR KPWT 110156Z AUTO 05007KT 10SM CLR 08/M01 A3032 RMK AO2 SLP287 T00831006 PNO $=
201910110056 METAR KPWT 110056Z AUTO 02005KT 10SM CLR 11/M01 A3034 RMK AO2 SLP293 T01111006 PNO $=
201910102356 METAR KPWT 102356Z AUTO 02007KT 10SM CLR 13/M01 A3035 RMK AO2 SLP297 6//// T01331006 10133 20083 56017 PNO $=
201910102256 METAR KPWT 102256Z AUTO 04007KT 10SM CLR 13/01 A3037 RMK AO2 SLP302 T01280006 PNO $=
201910102156 METAR KPWT 102156Z AUTO 04008KT 10SM CLR 13/01 A3038 RMK AO2 SLP307 T01280011 PNO $=
201910102056 METAR KPWT 102056Z AUTO 05007KT 10SM CLR 12/01 A3040 RMK AO2 SLP314 6//// T01220006 58015 PNO $=
201910101956 METAR KPWT 101956Z AUTO 07006KT 10SM CLR 11/02 A3042 RMK AO2 SLP320 T01110017 PNO $=
201910101856 METAR KPWT 101856Z AUTO 02008KT 10SM CLR 11/02 A3044 RMK AO2 SLP327 T01060017 PNO $=
201910101756 METAR KPWT 101756Z AUTO 05010KT 10SM CLR 08/02 A3045 RMK AO2 SLP330 6//// T00830017 10089 21028 58002 PNO $=
201910101656 METAR KPWT 101656Z AUTO 05008KT 10SM CLR 07/02 A3045 RMK AO2 SLP333 T00720022 PNO $=
201910101556 METAR KPWT 101556Z AUTO 04006KT 10SM CLR 06/03 A3046 RMK AO2 SLP333 T00560028 PNO $=
201910101456 METAR KPWT 101456Z AUTO 06006KT 10SM CLR 03/02 A3045 RMK AO2 SLP331 6//// T00330017 50000 PNO $=
201910101356 METAR KPWT 101356Z AUTO 06005KT 10SM CLR 03/00 A3045 RMK AO2 SLP333 T00280000 PNO $=
201910101256 METAR KPWT 101256Z AUTO 07006KT 10SM CLR 03/M02 A3046 RMK AO2 SLP332 T00281017 PNO $=
201910101156 METAR KPWT 101156Z AUTO 00000KT 10SM CLR M03/M03 A3045 RMK AO2 SLP333 6//// 7//// T10281033 10006 21028 58002 FZRANO PNO $=
201910101056 METAR KPWT 101056Z AUTO 00000KT 10SM CLR M03/M04 A3046 RMK AO2 SLP334 T10281039 FZRANO PNO $=
201910100956 METAR KPWT 100956Z AUTO 00000KT 10SM CLR M02/M04 A3046 RMK AO2 SLP335 T10221039 FZRANO PNO $=
201910100856 METAR KPWT 100856Z AUTO 00000KT 10SM CLR M01/M02 A3046 RMK AO2 SLP334 6//// T10111022 57001 FZRANO PNO $=
201910100756 METAR KPWT 100756Z AUTO 00000KT 10SM CLR M01/M04 A3046 RMK AO2 SLP335 T10111039 401061028 FZRANO PNO $=
201910100656 METAR KPWT 100656Z AUTO 00000KT 10SM CLR M01/M03 A3046 RMK AO2 SLP334 T10061028 FZRANO PNO $=
201910100556 METAR KPWT 100556Z AUTO 00000KT 10SM CLR 01/M03 A3046 RMK AO2 SLP334 6//// T00061033 10094 21011 51010 FZRANO PNO $=
201910100456 METAR KPWT 100456Z AUTO 00000KT 10SM CLR 00/M04 A3045 RMK AO2 SLP333 T00001039 FZRANO PNO $=
201910100356 METAR KPWT 100356Z AUTO 00000KT 10SM CLR 00/M03 A3044 RMK AO2 SLP330 T00001028 FZRANO PNO $=
201910100256 METAR KPWT 100256Z AUTO 00000KT 10SM CLR 01/M03 A3043 RMK AO2 SLP325 6//// T00111028 51010 FZRANO PNO $=
201910100156 METAR KPWT 100156Z AUTO 04005KT 10SM CLR 04/M04 A3043 RMK AO2 SLP323 T00441039 PNO $=
201910100056 METAR KPWT 100056Z AUTO 02006KT 10SM CLR 08/M05 A3041 RMK AO2 SLP317 T00831050 PNO $=
201910092356 METAR KPWT 092356Z AUTO 04007KT 10SM CLR 09/M06 A3040 RMK AO2 SLP315 6//// T00941056 10106 20083 53002 PNO $=
201910092256 METAR KPWT 092256Z AUTO 05008KT 10SM CLR 10/M06 A3040 RMK AO2 SLP313 T01001056 PNO $=
201910092156 METAR KPWT 092156Z AUTO 03008KT 10SM CLR 10/M05 A3040 RMK AO2 SLP313 T01001050 PNO $=
201910092056 METAR KPWT 092056Z AUTO 04016KT 10SM CLR 10/M06 A3040 RMK AO2 SLP313 6//// T01001056 50009 PNO $=
201910091956 METAR KPWT 091956Z AUTO 03012G17KT 10SM CLR 09/M04 A3040 RMK AO2 SLP312 T00941039 PNO $=
201910091856 METAR KPWT 091856Z AUTO 02012G17KT 10SM CLR 09/M03 A3039 RMK AO2 SLP311 T00941028 PNO $=
201910091756 METAR KPWT 091756Z AUTO 05011G16KT 10SM CLR 09/M04 A3037 RMK AO2 SLP304 6//// T00891039 10089 20039 51015 PNO $=
201910091656 METAR KPWT 091656Z AUTO 06013G22KT 10SM CLR 08/M05 A3036 RMK AO2 SLP300 T00781050 PNO $=
201910091556 METAR KPWT 091556Z AUTO 02010G16KT 350V070 10SM CLR 07/M05 A3035 RMK AO2 SLP295 T00671050 PNO $=
201910091456 METAR KPWT 091456Z AUTO 03007G14KT 10SM CLR 05/M04 A3032 RMK AO2 SLP289 6//// T00501044 53025 PNO $=
201910091356 METAR KPWT 091356Z AUTO 03005KT 10SM CLR 04/M06 A3030 RMK AO2 SLP279 T00441056 PNO $=
201910091256 METAR KPWT 091256Z AUTO 03007KT 350V060 10SM CLR 04/M05 A3027 RMK AO2 SLP272 T00391050 PNO $=
201910091156 METAR KPWT 091156Z AUTO 35006KT 10SM CLR 06/M06 A3025 RMK AO2 SLP263 6//// 7//// T00611056 10061 20011 53019 PNO $=
201910091056 METAR KPWT 091056Z AUTO 02008KT 340V050 10SM CLR 06/M04 A3023 RMK AO2 SLP255 T00561044 PNO $=
201910090956 METAR KPWT 090956Z AUTO 01009G14KT 330V050 10SM CLR 06/M03 A3021 RMK AO2 SLP250 T00561033 PNO $=
201910090856 METAR KPWT 090856Z AUTO 01010G14KT 10SM CLR 04/01 A3019 RMK AO2 SLP245 6//// T00390011 51025 PNO $=
201910090756 METAR KPWT 090756Z AUTO 00000KT 10SM CLR 02/01 A3017 RMK AO2 SLP236 T00170011 401390006 FZRANO PNO $=
201910090656 METAR KPWT 090656Z AUTO 22005KT 10SM SCT070 02/01 A3014 RMK AO2 SLP227 T00170011 FZRANO PNO $=
201910090556 METAR KPWT 090556Z AUTO 00000KT 10SM BKN065 BKN080 04/04 A3012 RMK AO2 SLP219 6//// T00440044 10094 20006 51022 PNO $=
201910090456 METAR KPWT 090456Z AUTO 00000KT 10SM SCT075 01/01 A3010 RMK AO2 SLP213 T00110011 FZRANO PNO $=
201910090440 SPECI KPWT 090440Z AUTO 23004KT 3SM BR CLR 01/01 A3010 RMK AO2 FZRANO PNO $=
201910090433 SPECI KPWT 090433Z AUTO 00000KT 1 3/4SM BR CLR 02/01 A3009 RMK AO2 FZRANO PNO $=
201910090419 SPECI KPWT 090419Z AUTO 00000KT 3SM BR CLR 03/03 A3009 RMK AO2 PNO $=
201910090408 SPECI KPWT 090408Z AUTO 00000KT 1 3/4SM BR CLR 02/02 A3009 RMK AO2 VIS 3/4V5 FZRANO PNO $=
201910090351 SPECI KPWT 090351Z AUTO 00000KT 1 1/4SM BR CLR 03/02 A3008 RMK AO2 PNO $=
201910090345 SPECI KPWT 090345Z AUTO 00000KT 3/4SM BR CLR 02/02 A3008 RMK AO2 FZRANO PNO $=
201910090339 SPECI KPWT 090339Z AUTO 00000KT 1 1/2SM BR CLR 03/02 A3007 RMK AO2 VIS 1V5 PNO $=
201910090326 SPECI KPWT 090326Z AUTO 00000KT 1SM BR VV001 03/02 A3007 RMK AO2 VIS 1/4V5 PNO $=
201910090307 SPECI KPWT 090307Z AUTO 00000KT 1SM BR VV001 03/02 A3006 RMK AO2 PNO $=
201910090256 METAR KPWT 090256Z AUTO 21003KT 1 1/4SM BR CLR 03/02 A3005 RMK AO2 SLP197 6//// T00280022 51024 PNO $=
201910090249 SPECI KPWT 090249Z AUTO 00000KT 3/4SM BR CLR 03/02 A3005 RMK AO2 PNO $=
201910090244 SPECI KPWT 090244Z AUTO 00000KT 1 3/4SM BR CLR 04/03 A3005 RMK AO2 PNO $=
201910090156 METAR KPWT 090156Z AUTO 21003KT 10SM CLR 04/04 A3003 RMK AO2 RAE33 SLP190 T00440039 PNO $=
201910090056 METAR KPWT 090056Z AUTO 04007KT 10SM -RA FEW036 BKN046 09/04 A3001 RMK AO2 RAB50 SLP181 T00940039 PNO $=
201910082356 METAR KPWT 082356Z AUTO 00000KT 10SM CLR 09/04 A2998 RMK AO2 RAB10E42 SLP172 6//// T00890044 10139 20067 51021 PNO $=
201910082256 METAR KPWT 082256Z AUTO 05008KT 10SM FEW070 10/04 A2996 RMK AO2 SLP163 T01000044 PNO $=
201910082156 METAR KPWT 082156Z AUTO 05009KT 10SM FEW055 09/04 A2994 RMK AO2 SLP158 T00890044 PNO $=
201910082056 METAR KPWT 082056Z AUTO 05010KT 10SM BKN060 09/07 A2992 RMK AO2 RAE42 SLP149 6//// T00940067 53010 PNO $=
201910081956 METAR KPWT 081956Z AUTO 05014KT 10SM -RA FEW031 BKN055 OVC065 09/04 A2990 RMK AO2 RAB47 SLP144 P0000 T00890044=
201910081856 METAR KPWT 081856Z AUTO 20006KT 10SM CLR 12/03 A2988 RMK AO2 SLP138 T01220028=
201910081756 METAR KPWT 081756Z AUTO 22007KT 10SM CLR 10/05 A2989 RMK AO2 LTG DSNT E SLP141 T01000050 10106 20033 50009=
201910081656 METAR KPWT 081656Z AUTO 19006KT 10SM CLR 09/06 A2989 RMK AO2 SLP142 T00890056=
201910081556 METAR KPWT 081556Z AUTO 00000KT 10SM CLR 07/05 A2989 RMK AO2 SLP140 T00670050=
201910081456 METAR KPWT 081456Z AUTO VRB03KT 10SM SCT110 05/04 A2986 RMK AO2 SLP132 T00500044 58007=
201910081356 METAR KPWT 081356Z AUTO 21003KT 10SM OVC110 04/04 A2987 RMK AO2 SLP133 T00390039=
201910081330 SPECI KPWT 081330Z AUTO 21003KT 6SM BR FEW001 BKN110 03/03 A2988 RMK AO2=
201910081316 SPECI KPWT 081316Z AUTO 16003KT 2 1/2SM BR FEW001 SCT007 BKN110 04/04 A2987 RMK AO2 VIS 1 1/2V5=
201910081300 SPECI KPWT 081300Z AUTO 00000KT 6SM BR FEW001 BKN007 BKN029 05/04 A2988 RMK AO2=
201910081256 METAR KPWT 081256Z AUTO 13003KT 6SM BR FEW001 SCT007 SCT026 05/04 A2988 RMK AO2 SLP137 T00500044=
201910081232 SPECI KPWT 081232Z AUTO 20005KT 10SM FEW006 SCT027 06/05 A2988 RMK AO2=
201910081219 SPECI KPWT 081219Z AUTO 00000KT 10SM SCT006 BKN027 06/05 A2988 RMK AO2=
201910081208 SPECI KPWT 081208Z AUTO 00000KT 10SM SCT025 SCT030 06/06 A2989 RMK AO2=
201910081156 METAR KPWT 081156Z AUTO 00000KT 10SM BKN023 BKN031 07/07 A2988 RMK AO2 SLP139 7//// T00670067 10111 20056 53009=
201910081124 SPECI KPWT 081124Z AUTO 00000KT 10SM FEW011 06/06 A2987 RMK AO2=
201910081006 SPECI KPWT 081006Z AUTO 00000KT 10SM BKN011 BKN016 BKN027 08/07 A2987 RMK AO2=
201910080956 METAR KPWT 080956Z AUTO 00000KT 10SM FEW014 SCT027 07/07 A2987 RMK AO2 SLP134 T00720067=
201910080856 METAR KPWT 080856Z AUTO 07003KT 10SM CLR 08/08 A2986 RMK AO2 SLP130 T00830078 51004=
201910080756 METAR KPWT 080756Z AUTO 13005KT 10SM FEW015 10/09 A2986 RMK AO2 SLP129 T01000089 401440050=
201910080742 SPECI KPWT 080742Z AUTO 12005KT 10SM FEW015 10/09 A2986 RMK AO2=
201910080716 SPECI KPWT 080716Z AUTO 12005KT 10SM OVC011 11/10 A2986 RMK AO2=
201910080656 METAR KPWT 080656Z AUTO 11005KT 10SM OVC009 11/11 A2986 RMK AO2 SLP128 T01110106=
201910080649 SPECI KPWT 080649Z AUTO 11004KT 10SM OVC009 11/11 RMK AO2 $=
201910080624 SPECI KPWT 080624Z AUTO 12003KT 9SM BKN011 11/11 A2985 RMK AO2 CIG 008V013=
201910080605 SPECI KPWT 080605Z AUTO 10004KT 10SM FEW009 11/10 A2985 RMK AO2=
201910080556 METAR KPWT 080556Z AUTO 11004KT 10SM CLR 10/09 A2985 RMK AO2 SLP126 T01000094 10144 20094 53008=
201910080519 SPECI KPWT 080519Z AUTO 00000KT 10SM FEW007 BKN120 11/11 A2983 RMK AO2=
201910080456 METAR KPWT 080456Z AUTO 00000KT 10SM BKN007 11/11 A2983 RMK AO2 CIG 005V011 SLP119 T01110106=
201910080356 METAR KPWT 080356Z AUTO 21009KT 10SM SCT007 13/12 A2982 RMK AO2 SLP116 T01280117=
201910080256 METAR KPWT 080256Z AUTO 20011KT 10SM OVC007 13/13 A2982 RMK AO2 CIG 005V009 SLP117 T01330128 55006=
201910080247 SPECI KPWT 080247Z AUTO 20012G18KT 10SM OVC007 13/13 A2982 RMK AO2=
201910080156 METAR KPWT 080156Z AUTO 20011G19KT 10SM OVC005 14/13 A2982 RMK AO2 CIG 004V009 SLP116 T01390128=
201910080144 SPECI KPWT 080144Z AUTO 19012G18KT 10SM OVC005 14/13 A2982 RMK AO2 CIG 005V010=
201910080056 METAR KPWT 080056Z AUTO 20013KT 10SM BKN007 OVC011 14/13 A2984 RMK AO2 CIG 004V009 SLP122 T01440133=
201910080054 SPECI KPWT 080054Z AUTO 20013KT 10SM BKN007 OVC011 14/13 A2984 RMK AO2 CIG 004V011=
201910080042 SPECI KPWT 080042Z AUTO 19013G19KT 10SM SCT004 OVC011 14/13 A2985 RMK AO2=
201910072356 METAR KPWT 072356Z AUTO 19012G24KT 10SM OVC004 14/14 A2987 RMK AO2 RAB32E50 SLP133 P0000 60000 T01440139 10144 20122 56021=
201910072256 METAR KPWT 072256Z AUTO 18013G22KT 10SM OVC004 14/14 A2989 RMK AO2 RAE49 SLP139 P0000 T01440139=
201910072156 METAR KPWT 072156Z AUTO 19011G18KT 8SM -RA OVC004 14/13 A2991 RMK AO2 SLP146 P0000 T01390133=
201910072130 SPECI KPWT 072130Z AUTO 19010G18KT 10SM -RA OVC004 13/13 A2991 RMK AO2 CIG 003V007 P0000=
201910072056 METAR KPWT 072056Z AUTO 19011KT 10SM -RA OVC009 13/12 A2993 RMK AO2 RAB10 CIG 006V011 SLP156 P0000 60000 T01280122 58018=
201910071956 METAR KPWT 071956Z AUTO 20010KT 10SM OVC011 13/11 A2995 RMK AO2 SLP163 T01330111=
201910071934 SPECI KPWT 071934Z AUTO 21011G17KT 10SM OVC011 14/11 A2996 RMK AO2=
201910071856 METAR KPWT 071856Z AUTO 22013KT 10SM OVC009 13/11 A2997 RMK AO2 SLP167 T01280106=
201910071837 SPECI KPWT 071837Z AUTO 22016KT 10SM OVC009 13/10 A2998 RMK AO2=
201910071756 METAR KPWT 071756Z AUTO 22015KT 10SM OVC011 12/09 A2999 RMK AO2 SLP175 6//// T01220094 10122 20089 58013=
201910071656 METAR KPWT 071656Z AUTO 22015G20KT 10SM OVC011 12/09 A3001 RMK AO2 SLP181 T01170094=
201910071636 SPECI KPWT 071636Z AUTO 22014G21KT 10SM BKN011 BKN017 12/09 A3001 RMK AO2=
201910071627 SPECI KPWT 071627Z AUTO 22018G24KT 10SM SCT011 BKN017 12/09 A3001 RMK AO2=
201910071556 METAR KPWT 071556Z AUTO 21021G26KT 10SM FEW015 11/08 A3001 RMK AO2 PK WND 20026/1554 SLP181 T01110083=
201910071537 SPECI KPWT 071537Z AUTO 21017G24KT 10SM SCT015 11/09 A3001 RMK AO2=
201910071456 METAR KPWT 071456Z AUTO 22008KT 10SM BKN015 11/08 A3003 RMK AO2 SLP188 T01060078 58006=
201910071356 METAR KPWT 071356Z AUTO 18004KT 10SM CLR 09/07 A3004 RMK AO2 SLP193 T00940072=
201910071256 METAR KPWT 071256Z AUTO 22004KT 10SM CLR 09/07 A3004 RMK AO2 SLP190 T00940067=
201910071156 METAR KPWT 071156Z AUTO 25003KT 10SM CLR 09/08 A3004 RMK AO2 SLP191 7//// T00890078 10089 20044 56018=
201910071130 SPECI KPWT 071130Z AUTO 20004KT 10SM SCT003 BKN120 08/08 A3006 RMK AO2=
201910071103 SPECI KPWT 071103Z AUTO 21006KT 10SM BKN003 OVC100 08/08 A3006 RMK AO2=
201910071054 SPECI KPWT 071054Z AUTO 22005KT 10SM SCT003 OVC100 08/07 A3006 RMK AO2=
201910070956 METAR KPWT 070956Z AUTO 00000KT 10SM SCT085 06/06 A3010 RMK AO2 SLP211 T00610056=
201910070856 METAR KPWT 070856Z AUTO 00000KT 10SM CLR 06/05 A3011 RMK AO2 SLP216 T00560050 58018=
201910070756 METAR KPWT 070756Z AUTO 00000KT 10SM CLR 05/04 A3013 RMK AO2 SLP223 T00500044 401670022=
201910070656 METAR KPWT 070656Z AUTO 00000KT 10SM CLR 05/04 A3015 RMK AO2 SLP229 T00500044=
201910070556 METAR KPWT 070556Z AUTO 00000KT 10SM CLR 06/05 A3016 RMK AO2 SLP234 6//// T00610050 10161 20056 56010=
201910070456 METAR KPWT 070456Z AUTO 00000KT 10SM CLR 07/06 A3017 RMK AO2 SLP235 T00720056=
201910070356 METAR KPWT 070356Z AUTO 00000KT 10SM CLR 07/06 A3017 RMK AO2 SLP237 T00720056=
201910070256 METAR KPWT 070256Z AUTO 00000KT 10SM CLR 08/06 A3019 RMK AO2 SLP242 6//// T00830061=
201910070156 METAR KPWT 070156Z AUTO 04003KT 10SM CLR 12/07 A3020 RMK AO2 SLP245 T01170067=
201910070056 METAR KPWT 070056Z AUTO 05005KT 10SM CLR 14/06 RMK AO2 SLPNO T01440061 $=
201910062356 METAR KPWT 062356Z AUTO 05007KT 10SM CLR 16/07 A3022 RMK AO2 SLP254 6//// T01610067 10167 20128 56020=
201910062256 METAR KPWT 062256Z AUTO 02006KT 10SM CLR 16/07 A3024 RMK AO2 SLP260 T01610067=
201910062156 METAR KPWT 062156Z AUTO 05007KT 10SM CLR 16/08 A3026 RMK AO2 SLP267 T01610078=
201910062056 METAR KPWT 062056Z AUTO VRB05KT 10SM CLR 16/08 A3028 RMK AO2 SLP274 6//// T01560078 58021=
201910061956 METAR KPWT 061956Z AUTO 04007KT 10SM CLR 15/08 A3031 RMK AO2 SLP283 T01500078=
201910061856 METAR KPWT 061856Z AUTO VRB06KT 10SM CLR 14/08 A3033 RMK AO2 SLP290 T01440083=
201910061756 METAR KPWT 061756Z AUTO 05007KT 10SM CLR 13/08 A3035 RMK AO2 SLP296 T01280078 10128 20022 58003=
201910061656 METAR KPWT 061656Z AUTO 05008KT 10SM CLR 11/08 A3035 RMK AO2 SLP296 T01060078=
201910061556 METAR KPWT 061556Z AUTO 03005KT 10SM CLR 09/08 A3036 RMK AO2 SLP300 T00940083=
201910061529 SPECI KPWT 061529Z AUTO 23003KT 5SM BR CLR 04/04 A3036 RMK AO2=
201910061525 SPECI KPWT 061525Z AUTO 00000KT 1 1/4SM BR CLR 04/04 A3036 RMK AO2=
201910061519 SPECI KPWT 061519Z AUTO 00000KT 3/4SM BR CLR 03/03 A3035 RMK AO2 VIS 1/2V4=
201910061513 SPECI KPWT 061513Z AUTO 00000KT 1 3/4SM BR CLR 03/03 A3035 RMK AO2 VIS 1/2V5=
201910061456 METAR KPWT 061456Z AUTO 00000KT 8SM CLR 04/03 A3035 RMK AO2 SLP297 T00390033 58004=
201910061450 SPECI KPWT 061450Z AUTO 00000KT 5SM BR CLR 03/03 A3035 RMK AO2=
201910061445 SPECI KPWT 061445Z AUTO 00000KT 1 1/4SM BR CLR 03/03 A3035 RMK AO2 VIS 1/2V5=
201910061435 SPECI KPWT 061435Z AUTO 00000KT 3/4SM BR CLR 03/03 A3036 RMK AO2=
201910061433 SPECI KPWT 061433Z AUTO 00000KT 1 1/4SM BR CLR 03/03 A3036 RMK AO2=
201910061423 SPECI KPWT 061423Z AUTO 00000KT 3SM BR CLR 03/03 A3036 RMK AO2=
201910061421 SPECI KPWT 061421Z AUTO 00000KT 1 1/4SM BR CLR 03/03 A3036 RMK AO2=
201910061416 SPECI KPWT 061416Z AUTO 00000KT 3/4SM BR CLR 03/03 A3036 RMK AO2 VIS 1/4V5=
201910061404 SPECI KPWT 061404Z AUTO 00000KT 1/4SM FG CLR 02/02 A3036 RMK AO2 FZRANO=
201910061358 SPECI KPWT 061358Z AUTO 00000KT 3/4SM BR CLR 02/02 A3036 RMK AO2 VIS 1/2V5 FZRANO=
201910061356 METAR KPWT 061356Z AUTO 00000KT 1 1/4SM BR CLR 02/02 A3036 RMK AO2 VIS 1/2V5 SLP302 T00220022 FZRANO=
201910061354 SPECI KPWT 061354Z AUTO 00000KT 2SM BR CLR 03/02 A3036 RMK AO2 VIS 3/4V5=
201910061344 SPECI KPWT 061344Z AUTO 00000KT 1 1/4SM BR CLR 03/02 A3036 RMK AO2=
201910061340 SPECI KPWT 061340Z AUTO 00000KT 3/4SM BR CLR 03/03 A3036 RMK AO2=
201910061307 SPECI KPWT 061307Z AUTO 00000KT 1/2SM FG CLR 03/02 A3037 RMK AO2=
201910061304 SPECI KPWT 061304Z AUTO 00000KT 1SM BR CLR 03/03 A3037 RMK AO2=
201910061258 SPECI KPWT 061258Z AUTO 00000KT 3SM BR CLR 03/03 A3037 RMK AO2=
201910061256 METAR KPWT 061256Z AUTO 00000KT 1 1/2SM BR CLR 03/03 A3037 RMK AO2 VIS 1/2V5 SLP304 T00330033=
201910061254 SPECI KPWT 061254Z AUTO 00000KT 1SM BR CLR 03/03 A3037 RMK AO2 VIS 1/2V5=
201910061246 SPECI KPWT 061246Z AUTO 00000KT 1 1/2SM BR CLR 04/04 A3037 RMK AO2=
201910061230 SPECI KPWT 061230Z AUTO 00000KT 3SM BR CLR 04/04 A3038 RMK AO2=
201910061222 SPECI KPWT 061222Z AUTO 00000KT 1 1/4SM BR CLR 03/03 A3038 RMK AO2 VIS 1/2V5=
201910061209 SPECI KPWT 061209Z AUTO 00000KT 3/4SM BR CLR 04/03 A3038 RMK AO2 VIS 1/4V2=
201910061204 SPECI KPWT 061204Z AUTO 00000KT 1 3/4SM BR CLR 04/03 A3038 RMK AO2 VIS 1V5=
201910061156 METAR KPWT 061156Z AUTO 00000KT 5SM BR CLR 06/05 A3039 RMK AO2 SLP310 6//// 7//// T00560050 10089 20044 58009=
201910061126 SPECI KPWT 061126Z AUTO 00000KT 10SM CLR 04/04 A3039 RMK AO2=
201910061118 SPECI KPWT 061118Z AUTO 00000KT 2 1/2SM BR CLR 06/05 A3040 RMK AO2=
201910061056 METAR KPWT 061056Z AUTO 00000KT 10SM CLR 04/04 A3040 RMK AO2 SLP315 T00440044=
201910061052 SPECI KPWT 061052Z AUTO 00000KT 2SM BR CLR 05/04 A3041 RMK AO2=
201910061050 SPECI KPWT 061050Z AUTO 00000KT 1SM BR CLR 05/04 A3041 RMK AO2=
201910061042 SPECI KPWT 061042Z AUTO 00000KT 1/2SM FG CLR 06/05 A3041 RMK AO2=
201910061033 SPECI KPWT 061033Z AUTO 00000KT 3/4SM BR CLR 04/04 A3041 RMK AO2 VIS 1/2V5=
201910061030 SPECI KPWT 061030Z AUTO 00000KT 1 3/4SM BR CLR 05/04 A3041 RMK AO2 VIS 1/2V5=
201910060956 METAR KPWT 060956Z AUTO 00000KT 10SM CLR 05/04 A3041 RMK AO2 SLP319 T00500044=
201910060856 METAR KPWT 060856Z AUTO 00000KT 10SM CLR 06/06 A3042 RMK AO2 SLP320 6//// T00610056 51001=
201910060756 METAR KPWT 060756Z AUTO 00000KT 10SM CLR 06/05 A3041 RMK AO2 SLP319 T00610050 401720044=
201910060656 METAR KPWT 060656Z AUTO 00000KT 10SM CLR 07/06 A3042 RMK AO2 SLP321 T00670056=
201910060556 METAR KPWT 060556Z AUTO 00000KT 10SM CLR 08/07 A3041 RMK AO2 SLP319 6//// T00830067 10161 20078 53008=
201910060456 METAR KPWT 060456Z AUTO 00000KT 10SM OVC046 11/08 A3041 RMK AO2 SLP317 T01060083=
201910060356 METAR KPWT 060356Z AUTO 00000KT 10SM CLR 09/07 A3039 RMK AO2 SLP313 T00890072=
201910060256 METAR KPWT 060256Z AUTO 00000KT 10SM CLR 08/07 A3039 RMK AO2 SLP310 T00830072 53004=
201910060156 METAR KPWT 060156Z AUTO 00000KT 10SM CLR 12/08 A3038 RMK AO2 SLP308 T01170083=
201910060056 METAR KPWT 060056Z AUTO 05005KT 10SM CLR 15/08 A3038 RMK AO2 SLP306 T01500078=
201910052356 METAR KPWT 052356Z AUTO 03006KT 10SM FEW047 16/07 A3038 RMK AO2 SLP307 6//// T01610072 10172 20122 53001=
201910052256 METAR KPWT 052256Z AUTO 02004KT 10SM SCT048 16/07 A3038 RMK AO2 SLP306 T01610067=
201910052156 METAR KPWT 052156Z AUTO 03004KT 10SM FEW043 BKN065 16/07 A3037 RMK AO2 SLP305 T01560067=
201910052056 METAR KPWT 052056Z AUTO 07005KT 10SM SCT025 BKN042 BKN070 14/09 A3038 RMK AO2 SLP306 T01440089 50001=
201910052034 SPECI KPWT 052034Z AUTO 05005KT 10SM BKN025 OVC075 16/09 A3038 RMK AO2=
201910051956 METAR KPWT 051956Z AUTO 13004KT 10SM SCT022 15/09 A3038 RMK AO2 SLP306 T01500094=
201910051856 METAR KPWT 051856Z AUTO 24003KT 10SM FEW016 13/09 A3038 RMK AO2 SLP308 T01330094=
201910051823 SPECI KPWT 051823Z AUTO 00000KT 10SM SCT012 13/09 A3037 RMK AO2=
201910051756 METAR KPWT 051756Z AUTO 00000KT 10SM BKN010 12/09 A3037 RMK AO2 CIG 007V012 SLP305 T01220094 10128 20050 53014=
201910051729 SPECI KPWT 051729Z AUTO 00000KT 10SM OVC006 12/10 A3037 RMK AO2 CIG 003V010=
201910051656 METAR KPWT 051656Z AUTO 00000KT 10SM OVC004 10/09 A3036 RMK AO2 SLP300 T01000094=
201910051556 METAR KPWT 051556Z AUTO 24004KT 9SM OVC004 09/09 A3034 RMK AO2 SLP296 T00940089=
201910051456 METAR KPWT 051456Z AUTO 00000KT 10SM OVC004 09/09 A3033 RMK AO2 SLP292 T00940089 53008=
201910051356 METAR KPWT 051356Z AUTO 00000KT 10SM OVC004 08/07 A3032 RMK AO2 SLP289 T00780072=
201910051310 SPECI KPWT 051310Z AUTO 00000KT 10SM OVC004 06/06 A3031 RMK AO2=
201910051256 METAR KPWT 051256Z AUTO 00000KT 10SM OVC006 06/06 A3031 RMK AO2 SLP285 T00610056=
201910051221 SPECI KPWT 051221Z AUTO 00000KT 10SM BKN006 06/05 A3031 RMK AO2=
201910051156 METAR KPWT 051156Z AUTO 00000KT 10SM SCT006 05/04 A3031 RMK AO2 SLP283 6//// 7//// T00500044 10094 20044 52005=
201910051129 SPECI KPWT 051129Z AUTO 00000KT 10SM BKN006 06/05 A3031 RMK AO2=
201910051120 SPECI KPWT 051120Z AUTO 00000KT 10SM SCT006 05/05 A3031 RMK AO2=
201910051056 METAR KPWT 051056Z AUTO 00000KT 10SM CLR 05/05 A3030 RMK AO2 SLP281 T00500050=
201910051042 SPECI KPWT 051042Z AUTO 00000KT 3SM BR CLR 05/04 A3030 RMK AO2=
201910051032 SPECI KPWT 051032Z AUTO 00000KT 1 1/2SM BR FEW020 06/05 A3030 RMK AO2 VIS 3/4V5=
201910050956 METAR KPWT 050956Z AUTO 00000KT 10SM CLR 06/06 A3030 RMK AO2 SLP281 T00610056=
201910050856 METAR KPWT 050856Z AUTO 00000KT 10SM CLR 07/07 A3029 RMK AO2 SLP278 P0001 60001 T00720067 51008=
201910050756 METAR KPWT 050756Z AUTO 00000KT 10SM CLR 08/08 A3029 RMK AO2 SLP276 T00830078 401560078=
201910050656 METAR KPWT 050656Z AUTO 00000KT 10SM CLR 08/07 A3028 RMK AO2 SLP275 T00830072=
201910050556 METAR KPWT 050556Z AUTO 35003KT 10SM CLR 09/08 A3027 RMK AO2 SLP269 T00940078 10144 20089 51015=
201910050456 METAR KPWT 050456Z AUTO 18004KT 10SM CLR 10/08 A3026 RMK AO2 SLP268 T01000078=
201910050356 METAR KPWT 050356Z AUTO 22003KT 10SM CLR 09/08 A3025 RMK AO2 SLP263 T00890078=
201910050256 METAR KPWT 050256Z AUTO 00000KT 10SM CLR 09/07 A3022 RMK AO2 SLP253 T00890072 51018=
201910050156 METAR KPWT 050156Z AUTO 23003KT 10SM CLR 11/08 A3021 RMK AO2 SLP250 T01110078=
201910050056 METAR KPWT 050056Z AUTO 21010KT 10SM CLR 12/08 A3020 RMK AO2 SLP245 T01220078=
201910042356 METAR KPWT 042356Z AUTO 22015KT 10SM CLR 14/08 A3017 RMK AO2 SLP235 6//// T01440078 10156 20117 53009=
201910042256 METAR KPWT 042256Z AUTO 22012G24KT 10SM CLR 16/08 A3016 RMK AO2 SLP230 T01560078=
201910042156 METAR KPWT 042156Z AUTO 23015G20KT 10SM CLR 15/09 A3015 RMK AO2 SLP226 T01500089=
201910042056 METAR KPWT 042056Z AUTO 21014G20KT 10SM CLR 14/10 A3014 RMK AO2 RAE1959 SLP226 P0000 60000 T01390100 51011=
201910041956 METAR KPWT 041956Z AUTO 20011KT 10SM -RA FEW007 SCT014 BKN025 12/11 A3014 RMK AO2 RAB02 SLP225 P0000 T01220111=
201910041944 SPECI KPWT 041944Z AUTO 21010KT 9SM -RA FEW009 BKN025 OVC034 12/11 A3014 RMK AO2 RAB02 P0000=
201910041933 SPECI KPWT 041933Z AUTO 22010KT 10SM -RA SCT013 BKN022 OVC034 12/11 A3014 RMK AO2 RAB02 P0000=
201910041918 SPECI KPWT 041918Z AUTO 21009KT 6SM -RA BR BKN014 OVC021 12/11 A3014 RMK AO2 RAB02 P0000=
201910041856 METAR KPWT 041856Z AUTO 24009KT 10SM BKN016 BKN029 OVC038 13/09 A3013 RMK AO2 SLP220 T01280094=
201910041827 SPECI KPWT 041827Z AUTO 22011G19KT 10SM OVC016 13/09 A3012 RMK AO2=
201910041756 METAR KPWT 041756Z AUTO 19009KT 10SM BKN013 OVC018 12/09 A3011 RMK AO2 SLP216 60000 T01220094 10122 20083 51013=
201910041734 SPECI KPWT 041734Z AUTO 19013KT 10SM BKN012 BKN018 12/09 A3010 RMK AO2=
201910041656 METAR KPWT 041656Z AUTO 20010KT 10SM OVC008 10/09 A3010 RMK AO2 CIG 006V011 SLP213 T01000089=
201910041556 METAR KPWT 041556Z AUTO 20010KT 10SM OVC006 09/08 A3009 RMK AO2 SLP208 T00940083=
201910041456 METAR KPWT 041456Z AUTO 19007KT 10SM OVC006 09/08 A3007 RMK AO2 SLP202 60000 T00890083 53010=
201910041403 SPECI KPWT 041403Z AUTO 20009KT 10SM BKN008 BKN035 OVC048 09/08 A3006 RMK AO2 CIG 005V013=
201910041356 METAR KPWT 041356Z AUTO 20009KT 10SM FEW005 BKN010 OVC048 09/08 A3006 RMK AO2 RAB10E29 CIG 007V013 SLP198 P0000 T00890078=
201910041256 METAR KPWT 041256Z AUTO 19006KT 10SM OVC005 08/08 A3005 RMK AO2 RAE12 SLP195 P0000 T00830078=
201910041232 SPECI KPWT 041232Z AUTO 19005KT 10SM OVC005 08/08 A3004 RMK AO2 RAE12 P0000=
201910041203 SPECI KPWT 041203Z AUTO 18005KT 10SM -RA BKN007 BKN020 OVC050 09/08 A3004 RMK AO2 P0000=
201910041156 METAR KPWT 041156Z AUTO 19004KT 10SM -RA SCT007 BKN020 OVC050 09/08 A3004 RMK AO2 RAB08 SLP192 P0001 60001 7//// T00890078 10089 20083=
201910041143 SPECI KPWT 041143Z AUTO 19006KT 10SM -RA SCT007 BKN020 OVC050 09/08 A3004 RMK AO2 RAB08 P0001=
201910041108 SPECI KPWT 041108Z AUTO 20006KT 10SM -RA BKN007 BKN022 OVC027 09/08 A3004 RMK AO2 RAB08 CIG 005V009 P0000=
201910041056 METAR KPWT 041056Z AUTO 19005KT 10SM SCT007 BKN029 OVC038 09/08 RMK AO2 RAE17 SLPNO P0000 T00890078 $=
201910041008 SPECI KPWT 041008Z AUTO 19004KT 10SM -RA SCT007 OVC021 08/08 A3003 RMK AO2 P0000=
201910040956 METAR KPWT 040956Z AUTO 21005KT 10SM -RA BKN019 BKN024 OVC032 09/08 A3003 RMK AO2 RAB01 SLP191 P0000 T00890078=
201910040942 SPECI KPWT 040942Z AUTO 19007KT 10SM -RA FEW007 SCT024 BKN029 09/08 A3003 RMK AO2 RAB01 P0000=
201910040926 SPECI KPWT 040926Z AUTO 19005KT 10SM -RA FEW007 SCT046 08/08 A3003 RMK AO2 RAB01 P0000=
201910040856 METAR KPWT 040856Z AUTO 21005KT 10SM FEW031 SCT060 08/08 A3003 RMK AO2 SLP187 T00830078 53001=
201910040829 SPECI KPWT 040829Z AUTO 19004KT 10SM SCT027 SCT037 SCT055 09/08 A3002 RMK AO2=
201910040756 METAR KPWT 040756Z AUTO 19006KT 10SM FEW011 BKN027 OVC055 09/08 A3002 RMK AO2 SLP185 T00890078 401390083=
201910040747 SPECI KPWT 040747Z AUTO 19007KT 10SM FEW011 BKN029 OVC055 09/08 A3002 RMK AO2=
201910040740 SPECI KPWT 040740Z AUTO 20004KT 10SM FEW011 SCT029 OVC055 09/08 A3002 RMK AO2=
201910040727 SPECI KPWT 040727Z AUTO 24004KT 10SM BKN029 OVC055 09/08 A3002 RMK AO2=
201910040656 METAR KPWT 040656Z AUTO 20003KT 10SM OVC055 09/08 A3001 RMK AO2 SLP183 T00890083=
201910040632 SPECI KPWT 040632Z AUTO 16003KT 10SM FEW009 BKN030 OVC055 09/08 A3001 RMK AO2=
201910040625 SPECI KPWT 040625Z AUTO 18004KT 10SM FEW009 SCT023 BKN028 09/08 A3002 RMK AO2=
201910040615 SPECI KPWT 040615Z AUTO 20005KT 10SM FEW009 SCT026 BKN060 09/08 A3002 RMK AO2=
201910040556 METAR KPWT 040556Z AUTO 19005KT 10SM BKN060 09/08 A3002 RMK AO2 SLP186 6//// T00890083 10117 20083 52008=
201910040456 METAR KPWT 040456Z AUTO 21004KT 10SM FEW015 BKN045 OVC055 09/08 A3001 RMK AO2 SLP182 T00940083=
201910040446 SPECI KPWT 040446Z AUTO 21003KT 10SM SCT015 BKN047 OVC055 09/08 A3001 RMK AO2=
201910040356 METAR KPWT 040356Z AUTO 19004KT 10SM BKN019 BKN031 OVC044 09/08 A3001 RMK AO2 SLP181 T00940083=
201910040306 SPECI KPWT 040306Z AUTO 16003KT 10SM SCT023 BKN028 BKN034 09/08 A3000 RMK AO2=
201910040256 METAR KPWT 040256Z AUTO 00000KT 10SM SCT026 BKN034 08/08 A3000 RMK AO2 SLP178 T00830078 53004=
201910040156 METAR KPWT 040156Z AUTO 00000KT 10SM CLR 09/08 A2999 RMK AO2 SLP175 T00940083=
201910040056 METAR KPWT 040056Z AUTO 21006KT 10SM OVC046 11/09 A2999 RMK AO2 SLP174 T01060089=
201910032356 METAR KPWT 032356Z AUTO 22008KT 10SM CLR 12/09 A2999 RMK AO2 SLP173 P0001 6//// T01170094 10139 20100 51002=
201910032256 METAR KPWT 032256Z AUTO 25004KT 10SM SCT055 BKN080 11/09 A2998 RMK AO2 RAE40 SLP172 P0000 T01110094=
201910032238 SPECI KPWT 032238Z AUTO 00000KT 10SM -RA SCT029 BKN060 11/09 A2998 RMK AO2 P0000=
201910032228 SPECI KPWT 032228Z AUTO VRB03KT 8SM -RA BKN029 BKN036 BKN055 11/09 A2999 RMK AO2 P0000=
201910032214 SPECI KPWT 032214Z AUTO 20003KT 10SM -RA FEW019 SCT029 BKN060 10/09 A2999 RMK AO2 P0000=
201910032156 METAR KPWT 032156Z AUTO 23011G18KT 8SM -RA FEW016 BKN029 OVC036 10/08 A2999 RMK AO2 RAE09B44 SLP176 P0000 T01000083=
201910032135 SPECI KPWT 032135Z AUTO 24005KT 10SM BKN029 BKN035 BKN050 12/09 A2998 RMK AO2 RAE09 P0000=
201910032056 METAR KPWT 032056Z AUTO 26008G18KT 10SM -RA SCT031 BKN038 12/09 A2998 RMK AO2 RAE29B53 SLP171 P0001 6//// T01220089 55006=
201910031956 METAR KPWT 031956Z AUTO 25006KT 9SM RA FEW028 BKN036 OVC050 12/10 A2998 RMK AO2 RAB07 SLP169 P0000 T01220100=
201910031932 SPECI KPWT 031932Z AUTO 25007KT 10SM -RA FEW024 BKN039 OVC050 12/11 A2998 RMK AO2 RAB07 P0000=
201910031856 SPECI KPWT 031856Z AUTO 27005KT 10SM SCT022 BKN028 BKN036 12/10 A2999 RMK AO2 RAE45 SLP174 T01170100=
201910031856 METAR KPWT 031856Z AUTO 27005KT 10SM SCT022 BKN028 BKN036 12/10 A2999 RMK AO2 RAE45 SLP174 T01170100=
201910031848 SPECI KPWT 031848Z AUTO 27004KT 10SM FEW020 SCT026 BKN030 11/10 A2999 RMK AO2 RAE45=
201910031756 METAR KPWT 031756Z AUTO 19004KT 10SM -RA FEW014 BKN025 OVC030 12/10 A3000 RMK AO2 RAB30 SLP177 6//// T01170100 10128 20100 50007=
201910031742 SPECI KPWT 031742Z AUTO 19007KT 7SM RA BKN016 BKN024 OVC029 11/09 A3000 RMK AO2 RAB30 P0000=
201910031730 SPECI KPWT 031730Z AUTO 21011KT 10SM -RA BKN014 BKN020 BKN045 13/09 A3000 RMK AO2 RAB30 P0000=
201910031656 METAR KPWT 031656Z AUTO 19010KT 10SM FEW010 12/09 A3000 RMK AO2 RAB20E54 SLP177 P0000 T01170094=
201910031556 METAR KPWT 031556Z AUTO 20010KT 10SM FEW025 SCT034 11/09 A3000 RMK AO2 SLP176 T01110089=
201910031456 METAR KPWT 031456Z AUTO 19012G16KT 10SM SCT019 SCT055 10/08 A2998 RMK AO2 SLP170 60000 T01000083=
201910031454 SPECI KPWT 031454Z AUTO 19010G15KT 10SM SCT019 BKN055 10/08 A2998 RMK AO2=
201910031426 SPECI KPWT 031426Z AUTO 19012KT 10SM SCT011 BKN021 BKN055 10/08 A2997 RMK AO2=
201910031356 METAR KPWT 031356Z AUTO 19008KT 10SM BKN013 OVC021 10/08 RMK AO2 SLPNO T01000083 $=
201910031256 METAR KPWT 031256Z AUTO 19010KT 10SM SCT016 OVC025 10/08 A2995 RMK AO2 RAB13E50 SLP160 P0000 T01000083=
201910031156 METAR KPWT 031156Z AUTO 20007KT 10SM BKN027 OVC034 10/08 A2996 RMK AO2 RAE15 SLP162 P0000 60001 7//// T01000078 10111 20089 58002=
201910031056 METAR KPWT 031056Z AUTO 21005KT 9SM -RA FEW021 OVC028 10/08 A2996 RMK AO2 RAB30 SLP163 P0001 T01000078=
201910031049 SPECI KPWT 031049Z AUTO 20007KT 10SM -RA FEW019 OVC028 10/08 A2996 RMK AO2 RAB30 P0000=
201910030956 METAR KPWT 030956Z AUTO 20007KT 10SM OVC032 10/08 A2996 RMK AO2 RAE44 SLP164 P0000 T01000078=
201910030856 METAR KPWT 030856Z AUTO 00000KT 10SM -RA OVC042 09/08 A2996 RMK AO2 SLP164 P0000 60000 T00940078 50002=
201910030756 METAR KPWT 030756Z AUTO 22009KT 10SM -RA FEW042 BKN055 11/07 A2997 RMK AO2 RAB40 SLP166 P0000 T01110072 401670011=
201910030656 METAR KPWT 030656Z AUTO 23003KT 10SM FEW065 09/07 A2997 RMK AO2 SLP165 T00940067=
201910030556 METAR KPWT 030556Z AUTO 00000KT 10SM BKN090 10/07 A2995 RMK AO2 SLP162 60000 T01000072 10144 20094 56005=
201910030456 METAR KPWT 030456Z AUTO 00000KT 10SM CLR 10/07 A2996 RMK AO2 SLP165 T01000072=
201910030356 METAR KPWT 030356Z AUTO 17003KT 10SM CLR 11/06 A2996 RMK AO2 RAE16 SLP166 P0000 T01110061=
201910030256 METAR KPWT 030256Z AUTO 00000KT 10SM -RA SCT044 BKN055 11/07 A2997 RMK AO2 RAB30 SLP168 P0000 60000 T01110072 55003=
201910030156 METAR KPWT 030156Z AUTO 26005KT 10SM CLR 12/07 A2997 RMK AO2 SLP167 T01170067=
201910030056 METAR KPWT 030056Z AUTO 19004KT 10SM CLR 13/07 A2998 RMK AO2 SLP170 T01330067=
201910022356 METAR KPWT 022356Z AUTO 20005KT 10SM FEW095 14/05 A2998 RMK AO2 SLP171 T01440050 10167 20133 56007=
201910022256 METAR KPWT 022256Z AUTO 23004KT 10SM CLR 15/04 A2999 RMK AO2 SLP172 T01500044=
201910022156 METAR KPWT 022156Z AUTO 24006KT 10SM CLR 16/05 A2999 RMK AO2 SLP177 T01560050=
201910022056 METAR KPWT 022056Z AUTO 00000KT 10SM CLR 16/03 A3000 RMK AO2 SLP180 T01560033 56018=
201910021956 METAR KPWT 021956Z AUTO 22006KT 10SM CLR 16/03 A3002 RMK AO2 SLP186 T01560028=
201910021856 METAR KPWT 021856Z AUTO 00000KT 10SM CLR 15/04 A3004 RMK AO2 SLP192 T01500039=
201910021756 METAR KPWT 021756Z AUTO 15003KT 10SM CLR 13/05 A3006 RMK AO2 SLP198 6//// T01330050 10133 20011 58008=
201910021656 METAR KPWT 021656Z AUTO 29003KT 8SM CLR 11/07 A3007 RMK AO2 SLP202 T01110072=
201910021556 METAR KPWT 021556Z AUTO 00000KT 10SM CLR 07/07 A3007 RMK AO2 SLP203 T00720067=
201910021456 METAR KPWT 021456Z AUTO 00000KT 7SM CLR 03/03 A3008 RMK AO2 SLP204 T00330028 55003=
201910021356 METAR KPWT 021356Z AUTO 00000KT 10SM CLR 01/01 A3008 RMK AO2 SLP205 T00110006 FZRANO=
201910021256 METAR KPWT 021256Z AUTO 00000KT 10SM CLR 02/02 A3008 RMK AO2 SLP206 T00220017 FZRANO=
201910021156 METAR KPWT 021156Z AUTO 00000KT 10SM CLR 02/01 A3009 RMK AO2 SLP209 7//// T00220011 10056 20017 58012 FZRANO=
201910021056 METAR KPWT 021056Z AUTO 00000KT 10SM CLR 03/02 A3010 RMK AO2 SLP212 T00280017=
201910020956 METAR KPWT 020956Z AUTO 00000KT 10SM CLR 03/02 A3012 RMK AO2 SLP219 T00280017=
201910020856 METAR KPWT 020856Z AUTO 00000KT 10SM CLR 03/02 A3012 RMK AO2 SLP221 T00280017 53001=
201910020756 METAR KPWT 020756Z AUTO 00000KT 10SM CLR 03/02 A3012 RMK AO2 SLP218 T00330022 401781006=
201910020656 METAR KPWT 020656Z AUTO 00000KT 10SM CLR 04/02 A3012 RMK AO2 SLP218 T00390022=
201910020556 METAR KPWT 020556Z AUTO 00000KT 10SM CLR 05/02 A3012 RMK AO2 SLP220 T00500022 10167 20044 57001=
201910020456 METAR KPWT 020456Z AUTO 00000KT 10SM CLR 05/03 A3012 RMK AO2 SLP220 T00500028=
201910020356 METAR KPWT 020356Z AUTO 00000KT 10SM CLR 07/03 A3013 RMK AO2 SLP221 T00670033=
201910020256 METAR KPWT 020256Z AUTO 00000KT 10SM CLR 07/04 A3013 RMK AO2 SLP220 T00720044 53000=
201910020156 METAR KPWT 020156Z AUTO 06003KT 10SM CLR 12/04 A3012 RMK AO2 SLP219 T01170044=
201910020056 METAR KPWT 020056Z AUTO 00000KT 10SM CLR 16/02 A3012 RMK AO2 SLP220 T01560017=
201910012356 METAR KPWT 012356Z AUTO 24004KT 10SM CLR 17/03 A3013 RMK AO2 SLP220 T01670028 10178 20106 56012=
201910012256 METAR KPWT 012256Z AUTO VRB03KT 10SM CLR 16/03 A3013 RMK AO2 SLP223 T01610028=
201910012156 METAR KPWT 012156Z AUTO VRB03KT 10SM CLR 16/02 A3015 RMK AO2 SLP229 T01610022=
201910012056 METAR KPWT 012056Z AUTO VRB03KT 10SM CLR 16/03 A3016 RMK AO2 SLP232 T01560028 58013=
201910011956 METAR KPWT 011956Z AUTO 17003KT 7SM CLR 14/03 A3018 RMK AO2 SLP239 T01440033=
201910011856 METAR KPWT 011856Z AUTO 25004KT 10SM CLR 13/04 A3019 RMK AO2 SLP243 T01330039=
201910011756 METAR KPWT 011756Z AUTO 23003KT 10SM CLR 11/05 A3020 RMK AO2 SLP246 6//// T01060050 10111 21006=
201910011656 METAR KPWT 011656Z AUTO 00000KT 10SM CLR 08/04 A3021 RMK AO2 SLP247 T00830044=
201910011556 METAR KPWT 011556Z AUTO 21005KT 10SM CLR 07/04 A3020 RMK AO2 SLP248 T00720044=
201910011456 METAR KPWT 011456Z AUTO 10SM CLR 03/02 RMK AO2 SLPNO 6//// T00280022 $=
201910011356 METAR KPWT 011356Z AUTO 00000KT 10SM CLR M01/M01 A3019 RMK AO2 SLP243 T10061011 FZRANO=
201910011256 METAR KPWT 011256Z AUTO 00000KT 10SM CLR 00/M01 A3019 RMK AO2 SLP243 T00001006 FZRANO=
201910011156 METAR KPWT 011156Z AUTO 00000KT 10SM CLR 01/01 A3018 RMK AO2 SLP238 6//// 7//// T00110006 10028 20000 55001 FZRANO=
201910011056 METAR KPWT 011056Z AUTO 00000KT 10SM CLR 00/M01 A3017 RMK AO2 SLP236 T00001006 FZRANO=
201910010956 METAR KPWT 010956Z AUTO 00000KT 10SM CLR 01/00 A3018 RMK AO2 SLP240 T00060000 FZRANO=
201910010856 METAR KPWT 010856Z AUTO 00000KT 10SM CLR 01/00 A3018 RMK AO2 SLP239 6//// T00110000 53004 FZRANO=
201910010756 METAR KPWT 010756Z AUTO 00000KT 10SM CLR 01/M01 A3017 RMK AO2 SLP235 T00061006 401440006 FZRANO=
201910010656 METAR KPWT 010656Z AUTO 00000KT 10SM CLR 02/01 A3017 RMK AO2 SLP234 T00220006 FZRANO=
201910010556 METAR KPWT 010556Z AUTO 00000KT 10SM CLR 03/01 A3017 RMK AO2 SLP236 T00280006 10144 20022 53007=
201910010456 METAR KPWT 010456Z AUTO 21003KT 10SM CLR 03/01 A3016 RMK AO2 SLP233 T00330011=
201910010356 METAR KPWT 010356Z AUTO 05003KT 10SM CLR 06/01 A3015 RMK AO2 SLP230 T00610011=
201910010256 METAR KPWT 010256Z AUTO 04003KT 10SM CLR 06/01 A3015 RMK AO2 SLP227 T00560011 53011=
201910010156 METAR KPWT 010156Z AUTO 05003KT 10SM CLR 10/01 A3013 RMK AO2 SLP224 T01000011=
201910010056 METAR KPWT 010056Z AUTO 04005KT 10SM CLR 13/M01 A3012 RMK AO2 SLP219 T01331011=

# No short TAF reports from KPWT in databse.

###################################
#  large TAF from KPWT
###################################
201910312334 TAF KPWT 312334Z 0100/0124 04005KT P6SM SCT250 FM010100 00000KT
                       P6SM SCT250 FM011200 03002KT P6SM SCT250=
201910311723 TAF KPWT 311723Z 3118/0118 VRB03KT P6SM BKN250 FM311900 04005KT
                       P6SM SCT250 FM010100 00000KT P6SM SCT250
                       FM011200 03002KT P6SM SCT250=
201910311120 TAF KPWT 311120Z 3112/0112 VRB03KT P6SM BKN250 FM311900 06005KT
                       P6SM SCT250=
201910310534 TAF KPWT 310534Z 3106/0106 06006KT P6SM SCT250 FM311200 00000KT
                       P6SM SCT004 SCT250 FM311800 02002KT P6SM
                       BKN250=
201910302329 TAF KPWT 302329Z 3100/3124 05009KT P6SM FEW250 FM310300 VRB03KT
                       P6SM BKN250 FM311500 05004KT P6SM SCT250=
201910301720 TAF KPWT 301720Z 3018/3118 05009KT P6SM FEW250 FM310300 VRB03KT
                       P6SM BKN250=
201910301120 TAF KPWT 301120Z 3012/3112 03005KT P6SM FEW250 FM301900 03008KT
                       P6SM SCT250 FM310300 VRB03KT P6SM BKN250=
201910300528 TAF KPWT 300528Z 3006/3106 00000KT P6SM OVC120 FM301800 05004KT
                       P6SM FEW200=
201910292323 TAF KPWT 292323Z 3000/3024 VRB05KT P6SM FEW250 FM300400 VRB03KT
                       P6SM FEW150 FM301800 04007KT P6SM FEW200=
201910292114 KPWT 292114Z 2921/3018 06006KT P6SM FEW250 FM300200 VRB03KT P6SM
                       FEW150=
201910291728 TAF KPWT 291728Z 2918/3018 06010KT P6SM SKC
                      TEMPO 2918/2920 06010G15KT FM292000 05006KT
                       P6SM SKC FM300200 VRB03KT P6SM FEW150=
201910291120 TAF KPWT 291120Z 2912/3012 06010KT P6SM SKC FM292200 03005KT P6SM
                       SKC=
201910290521 TAF KPWT 290521Z 2906/3006 05007KT P6SM SKC FM291200 04011KT P6SM
                       SKC FM291500 03005KT P6SM SKC=
201910282331 TAF KPWT 282331Z 2900/2924 04007KT P6SM SKC FM291900 05009KT P6SM
                       SKC=
201910281735 TAF KPWT 281735Z 2818/2918 04004KT P6SM SCT250 FM282200 03007KT
                       P6SM SKC=
201910281121 TAF KPWT 281121Z 2812/2912 00000KT P6SM SCT120 BKN250 FM281800
                       06004KT P6SM FEW120 SCT250 FM282200 03006KT
                       P6SM SKC=
201910280532 TAF KPWT 280532Z 2806/2906 VRB04KT P6SM SCT200 FM282100 36008KT
                       P6SM SCT120=
201910272320 TAF KPWT 272320Z 2800/2824 04007KT P6SM SKC FM280200 VRB03KT P6SM
                       FEW250 FM281800 04005KT P6SM FEW250=
201910271720 TAF KPWT 271720Z 2718/2818 04007KT P6SM SKC FM280200 00000KT P6SM
                       FEW250=
201910271124 TAF KPWT 271124Z 2712/2812 01010G18KT P6SM SCT250 FM271600 03008KT
                       P6SM SKC FM280200 00000KT P6SM FEW250=
201910270520 TAF KPWT 270520Z 2706/2806 02012KT P6SM SKC=
201910262320 TAF KPWT 262320Z 2700/2724 02015G24KT P6SM SKC FM270600 02005KT
                       P6SM SKC=
201910261720 TAF KPWT 261720Z 2618/2718 02008KT P6SM SCT250 FM262100 02013KT
                       P6SM SKC FM270600 02005KT P6SM SKC=
201910261559 KPWT 261559Z 2616/2712 VRB03KT P6SM SCT025 BKN035 OVC050
                      TEMPO 2616/2618 3/4SM BR BKN020 FM261800
                       02008KT P6SM SCT250 FM262100 02013KT P6SM
                       SKC FM270600 02005KT P6SM SKC=
201910261124 TAF KPWT 261124Z 2612/2712 00000KT 3/4SM BR VV002 FM261600 02002KT
                       1/2SM FG OVC050 FM261800 02008KT 4SM BR
                       SCT250 FM262100 02013KT P6SM SKC FM270600
                       02005KT P6SM SKC=
201910261024 KPWT 261024Z 2610/2706 00000KT 1/4SM FG FEW001
                      TEMPO 2612/2616 1/2SM FG OVC001 FM261600
                       36006KT P6SM SCT020 FM262000 36010KT P6SM
                       SCT040=
201910260520 TAF KPWT 260520Z 2606/2706 VRB03KT P6SM SCT020
                      TEMPO 2606/2610 1SM BR BKN020 FM261000 VRB03KT
                       2SM BR SCT002 BKN015
                      TEMPO 2612/2616 1/2SM FG BKN002 BKN015 FM261600
                       36006KT P6SM SCT020 FM262000 36010KT P6SM
                       SCT040=
201910260301 KPWT 260301Z 2603/2624 00000KT P6SM SCT040
                      TEMPO 2603/2606 1SM MIFG FM260600 VRB03KT
                       P6SM BKN040 FM261200 04004KT 4SM BR BKN004
                       FM261900 04008KT P6SM SKC=
201910252320 TAF KPWT 252320Z 2600/2624 12005KT P6SM BKN035 BKN250
                      TEMPO 2600/2603 4SM -RA BR OVC025 FM260300
                       36007KT P6SM BKN050 FM260600 VRB03KT P6SM
                       OVC100 FM260900 VRB03KT P6SM OVC050 FM261200
                       VRB03KT 4SM BR OVC005 FM261900 02009KT P6SM
                       FEW250=
201910252004 KPWT 252004Z 2520/2618 07010KT P6SM SCT005 OVC010
                      TEMPO 2520/2523 32017G27KT 1 1/2SM -RA BR
                       OVC005 FM260000 34011KT P6SM BKN250 FM260300
                       36007KT P6SM BKN050 FM260600 VRB03KT P6SM
                       OVC100 FM260900 VRB03KT P6SM OVC050 FM261200
                       VRB03KT 4SM BR OVC005=
201910251720 TAF KPWT 251720Z 2518/2618 19013KT P6SM OVC007 FM252100 32017G27KT
                       P6SM BKN020 FM260000 34011KT P6SM BKN250
                       FM260300 36007KT P6SM BKN050 FM260600 VRB03KT
                       P6SM OVC100 FM260900 VRB03KT P6SM OVC050
                       FM261200 VRB03KT 4SM BR OVC005=
201910251301 KPWT 251301Z 2513/2612 00000KT P6SM OVC050
                      TEMPO 2513/2515 1/4SM FG OVC001 FM251500
                       19011KT P6SM OVC007
                      TEMPO 2515/2518 P6SM -RA OVC007 FM251800
                       19018KT P6SM OVC007 FM252100 32021KT P6SM
                       BKN250 FM260000 34011KT P6SM BKN250 FM260300
                       36003KT P6SM BKN050 FM260600 33003KT P6SM
                       OVC100 FM260900 06003KT P6SM OVC050=
201910251127 TAF KPWT 251127Z 2512/2612 00000KT P6SM OVC050
                      TEMPO 2512/2515 4SM -RA BR OVC004 FM251500
                       19011KT P6SM OVC007
                      TEMPO 2515/2518 P6SM -RA OVC007 FM251800
                       19018KT P6SM OVC007 FM252100 32021KT P6SM
                       BKN250 FM260000 34011KT P6SM BKN250 FM260300
                       36003KT P6SM BKN050 FM260600 33003KT P6SM
                       OVC100 FM260900 06003KT P6SM OVC050=
201910250928 KPWT 250928Z 2509/2606 VRB03KT P6SM BKN120
                      TEMPO 2509/2512 2SM BR SCT004 BKN120 FM251200
                       18008KT P6SM SCT020 BKN040
                      TEMPO 2515/2518 -RA BKN020 BKN040 FM251800
                       34008KT P6SM VCSH BKN025 BKN050 FM252100
                       36012G22KT P6SM SCT030 BKN050 FM260300 02008KT
                       P6SM SCT030=
201910250520 TAF KPWT 250520Z 2506/2606 VRB03KT P6SM BKN050 FM251200 18008KT
                       P6SM SCT020 BKN040
                      TEMPO 2515/2518 -RA BKN020 BKN040 FM251800
                       34008KT P6SM VCSH BKN025 BKN050 FM252100
                       36012G22KT P6SM SCT030 BKN050 FM260300 02008KT
                       P6SM SCT030=
201910242320 TAF KPWT 242320Z 2500/2524 VRB03KT P6SM BKN100 FM250300 00000KT
                       P6SM OVC050 FM250600 19002KT P6SM OVC004
                       FM250900 19004KT 4SM BR OVC004 FM251600
                       19016G25KT P6SM VCSH OVC010 FM252100 20016G24KT
                       P6SM SCT015 OVC030=
201910241725 TAF KPWT 241725Z 2418/2518 VRB03KT P6SM SCT004 BKN200 FM242100
                       16002KT P6SM BKN200 FM250300 00000KT P6SM
                       OVC050 FM250600 19002KT P6SM OVC004 FM250900
                       19002KT 4SM BR OVC004=
201910241429 KPWT 241429Z 2414/2512 VRB03KT P6SM SCT100
                      TEMPO 2414/2418 1/2SM FG OVC004 FM241800
                       19003KT 4SM BR OVC004 FM242100 12002KT P6SM
                       BKN100 FM250300 00000KT P6SM OVC050 FM250600
                       19002KT P6SM OVC004 FM250900 19002KT 4SM
                       BR OVC004=
201910241335 KPWT 241335Z 2414/2512 22003KT 1SM BR BKN200 FM241500 17002KT 1/2SM
                       FG OVC004 FM241800 19003KT 4SM BR OVC004
                       FM242100 12002KT P6SM BKN100 FM250300 00000KT
                       P6SM OVC050 FM250600 19002KT P6SM OVC004
                       FM250900 19002KT 4SM BR OVC004=
201910241126 TAF KPWT 241126Z 2412/2512 06006KT P6SM VCFG BKN200 FM241500 17002KT
                       1/2SM FG OVC004 FM241800 19003KT 4SM BR
                       OVC004 FM242100 12002KT P6SM BKN100 FM250300
                       00000KT P6SM OVC050 FM250600 19002KT P6SM
                       OVC004 FM250900 19002KT 4SM BR OVC004=
201910240520 TAF KPWT 240520Z 2406/2506 07005KT P6SM SKC FM240900 00000KT 4SM
                       BR SCT004 SCT250 FM241200 00000KT 2SM BR
                       OVC004 FM241700 00000KT 2SM BR SCT004 OVC007
                       FM241900 00000KT P6SM BKN250=
201910232324 TAF KPWT 232324Z 2400/2424 03007KT P6SM SCT250 FM240900 00000KT
                       4SM BR SCT004 SCT250 FM241200 00000KT 2SM
                       BR OVC004 FM241700 00000KT 2SM BR SCT004
                       OVC007 FM241900 00000KT P6SM SCT004 BKN250=
201910231720 TAF KPWT 231720Z 2318/2418 03007KT P6SM SCT250 FM240600 04002KT
                       4SM BR BKN007 FM240900 00000KT 2SM BR BKN004
                       FM241700 00000KT 2SM BR SCT004 OVC007=
201910231240 KPWT 231240Z 2313/2412 00000KT P6SM BKN045
                      TEMPO 2313/2317 1/2SM FG OVC004 FM231700
                       03005KT P6SM SCT250 FM240600 04002KT 4SM
                       BR BKN007 FM240900 00000KT 2SM BR BKN001=
201910231133 TAF KPWT 231133Z 2312/2412 00000KT 1SM BR OVC004 FM231900 02004KT
                       P6SM SCT004 FM232100 03005KT P6SM OVC250
                       FM240600 04002KT 4SM BR BKN007 FM240900
                       00000KT 2SM BR BKN001=
201910230902 KPWT 230902Z 2309/2406 00000KT 2SM BR SKC FM231100 00000KT 1/2SM
                       FG OVC004 FM231900 03004KT P6SM SCT004 SCT250
                       FM232100 03005KT P6SM SCT250=
201910230845 KPWT 230845Z 2309/2406 06005KT P6SM BKN035 FM231400 00000KT 1/2SM
                       FG OVC004 FM231900 03004KT P6SM SCT004 SCT250
                       FM232100 03005KT P6SM SCT250=
201910230520 TAF KPWT 230520Z 2306/2406 VRB02KT P6SM OVC025 FM230800 00000KT
                       6SM BR OVC007 FM231000 00000KT 4SM BR OVC004
                       FM231900 03004KT P6SM SCT004 SCT250 FM232100
                       03005KT P6SM SCT250=
201910222335 TAF KPWT 222335Z 2300/2324 08005KT P6SM SCT008 OVC015 FM230300
                       00000KT 6SM BR OVC015 FM230800 00000KT 6SM
                       BR OVC007 FM231000 00000KT 4SM BR OVC004
                       FM231900 03004KT P6SM SCT004 SCT250=
201910221957 KPWT 221957Z 2220/2318 14009KT P6SM SCT009 OVC015 FM222300 08005KT
                       P6SM BKN050 FM230300 00000KT 6SM BR OVC015
                       FM230800 00000KT 6SM BR OVC007 FM231000
                       00000KT 6SM BR OVC003=
201910221251 KPWT 221251Z 2213/2312 20007KT P6SM VCSH BKN009 BKN017
                      TEMPO 2213/2215 3SM -RA BR OVC003 FM221700
                       16010KT P6SM OVC015 FM222300 08005KT P6SM
                       BKN050 FM230300 00000KT 6SM BR OVC015 FM230800
                       00000KT 6SM BR OVC007 FM231000 00000KT 6SM
                       BR OVC003=
201910221125 TAF KPWT 221125Z 2212/2312 20007KT P6SM VCSH BKN009 BKN017 FM221700
                       16010KT P6SM OVC015 FM222300 08005KT P6SM
                       BKN050 FM230300 00000KT 6SM BR OVC015 FM230800
                       00000KT 6SM BR OVC007 FM231000 00000KT 6SM
                       BR OVC003=
201910220520 TAF KPWT 220520Z 2206/2306 20012G20KT P6SM -RA OVC004 FM221000
                       19011G18KT P6SM OVC007 FM221700 10012KT
                       P6SM SCT007 OVC010 FM222200 09011KT P6SM
                       BKN030 FM230000 04005KT P6SM SCT250=
201910212323 TAF KPWT 212323Z 2200/2224 20015G20KT 5SM -RA BR OVC005 FM221200
                       19011G18KT 3SM -SHRA BR OVC003 FM221700
                       10012KT P6SM SCT005 OVC010 FM222200 09011KT
                       P6SM BKN030=
201910211727 TAF KPWT 211727Z 2118/2218 20010KT 5SM -RA BR BKN007 OVC010 FM212300
                       19012G18KT 4SM RA BR OVC008 FM220400 19014G20KT
                       4SM RA BR OVC005 FM221200 19011KT 3SM -SHRA
                       BR OVC003=
201910211459 KPWT 211459Z 2115/2212 20010KT P6SM SCT008 OVC050
                      TEMPO 2115/2116 -SHRA BKN012 OVC035 FM211600
                       19008KT 6SM -RA BR OVC012 FM211800 20011KT
                       5SM -RA BR OVC010 FM212300 19012G18KT 4SM
                       RA BR OVC008 FM220400 19014G20KT 4SM RA
                       BR OVC005=
201910211137 TAF KPWT 211137Z 2112/2212 22009KT P6SM SCT012 BKN060
                      TEMPO 2112/2116 6SM -RA BR BKN012 OVC035
                       FM211600 19008KT 6SM -RA BR OVC012 FM211800
                       20011KT 5SM -RA BR OVC010 FM212300 19012G18KT
                       4SM RA BR OVC008 FM220400 19014G20KT 4SM
                       RA BR OVC005=
201910210835 KPWT 210835Z 2109/2206 22009KT P6SM SCT008 BKN070
                      TEMPO 2110/2114 -RA BKN012 OVC040 FM211400
                       19008KT 6SM -RA BR OVC010 FM211800 20010KT
                       4SM -RA BR OVC007 FM212000 19010G18KT 2SM
                       -RA BR OVC007=
201910210523 TAF KPWT 210523Z 2106/2206 VRB05KT P6SM OVC008 FM211800 20010KT
                       4SM -RA BR OVC007 FM212000 19010G18KT 2SM
                       -RA BR OVC007=
201910202322 TAF KPWT 202322Z 2100/2124 20012G18KT 6SM -RA BKN005 OVC020 FM210300
                       19010KT P6SM BKN015 BKN050 FM211200 19006KT
                       P6SM VCSH OVC007 FM211400 20010KT 4SM -RA
                       BR OVC004 FM211900 19010G18KT 2SM -RA BR
                       OVC004=
201910201945 KPWT 201945Z 2020/2118 20005KT 6SM -RA SCT005 OVC010
                      TEMPO 2020/2022 2SM BR OVC005 FM210000 20008KT
                       P6SM VCSH BKN020 BKN050 FM210500 18007KT
                       P6SM OVC012 FM211200 19006KT P6SM VCSH OVC007
                       FM211400 20010KT 4SM -RA OVC007=
201910201843 KPWT 201843Z 2019/2118 20005KT 6SM -RA SCT005 OVC010 FM210000 20008KT
                       P6SM VCSH BKN020 BKN050 FM210500 18007KT
                       P6SM OVC012 FM211200 19006KT P6SM VCSH OVC007
                       FM211400 20010KT 4SM -RA OVC007=
201910201728 TAF KPWT 201728Z 2018/2118 20005KT 6SM -RA SCT020 OVC035 FM202000
                       18007KT 5SM -RA BR OVC020 FM210000 20008KT
                       P6SM VCSH BKN020 BKN050 FM210500 18007KT
                       P6SM OVC012 FM211200 19006KT P6SM VCSH OVC007
                       FM211400 20010KT 4SM -RA OVC007=
201910201459 KPWT 201459Z 2015/2112 19005KT 6SM -RA BKN020 OVC050 FM201900 18009KT
                       5SM -RA BR OVC012 FM210000 19011KT P6SM
                       VCSH BKN020 BKN050 FM210500 18008KT P6SM
                       OVC009=
201910201136 TAF KPWT 201136Z 2012/2112 19005KT P6SM SCT010 BKN030 OVC090
                      TEMPO 2012/2016 BKN005 OVC022 FM201600 17007KT
                       6SM -RA BR BKN014 OVC040 FM201900 18009KT
                       5SM -RA BR OVC012 FM210000 19011KT P6SM
                       VCSH BKN020 BKN050 FM210500 18008KT P6SM
                       OVC009=
201910200555 KPWT 200555Z 2006/2106 15005KT P6SM SCT008 BKN200
                      TEMPO 2006/2009 4SM BR BKN008 FM200900 17007KT
                       P6SM BKN010 OVC200 FM201500 17007KT P6SM
                       -RA BKN025 OVC050 FM201900 18012KT 3SM -RA
                       BR OVC015 FM210000 21012KT P6SM VCSH BKN020
                       BKN050 FM210500 18008KT P6SM OVC015=
201910200520 TAF KPWT 200520Z 2006/2106 15005KT P6SM SCT030 SCT080 BKN200
                      TEMPO 2006/2009 4SM BR FM200900 17007KT P6SM
                       BKN030 BKN080 OVC200 FM201500 17007KT P6SM
                       -RA BKN025 OVC050 FM201900 18012KT 3SM -RA
                       BR OVC015 FM210000 21012KT P6SM VCSH BKN020
                       BKN050 FM210500 18008KT P6SM OVC015=
201910192337 TAF KPWT 192337Z 2000/2024 VRB05KT P6SM FEW030 BKN040 FM200300
                       20011KT P6SM SCT030 BKN050 FM200700 20004KT
                       P6SM OVC050 FM201000 20002KT 6SM BR OVC025
                       FM201600 19004KT 4SM BR OVC025 FM201800
                       18006KT 2SM -RA BR OVC007=
201910191732 TAF KPWT 191732Z 1918/2018 18011KT 6SM -SHRA BR BKN025 BKN050 FM192000
                       19008KT P6SM VCSH BKN015 FM200300 20011KT
                       P6SM SCT030 BKN050 FM200700 20003KT 6SM
                       BR OVC050 FM201000 20002KT 6SM BR OVC025
                       FM201300 19002KT 6SM BR OVC015=
201910191126 TAF KPWT 191126Z 1912/2012 VRB05KT 6SM -RA BR SCT015 OVC030
                      TEMPO 1912/1916 4SM RA BR OVC015 FM191700
                       18011KT 6SM -SHRA BR BKN025 BKN050 FM192000
                       19014G20KT P6SM VCSH BKN030 BKN050 FM200300
                       20011KT P6SM SCT030 BKN050 FM200800 19005KT
                       P6SM BKN025=
201910190523 TAF KPWT 190523Z 1906/2006 17007KT P6SM VCSH SCT005 BKN022 OVC040
                       TEMPO 1906/1910 -SHRA BKN005 OVC020 FM191000
                       17007KT 5SM -RA BR BKN012 OVC030 FM192000
                       21012KT P6SM -SHRA BKN025 BKN050=
201910190204 KPWT 190204Z 1902/1924 18006KT P6SM VCSH SCT020 BKN040 FM190600
                       18008KT P6SM VCSH BKN020 BKN040 FM191200
                       18008KT 5SM -RA BR OVC015 FM191900 20010KT
                       P6SM -SHRA BKN025 BKN050=
201910182325 TAF KPWT 182325Z 1900/1924 20008KT P6SM -RA OVC010
                      TEMPO 1900/1904 4SM RA BKN006 FM190400 18004KT
                       6SM -RA BR OVC007 FM191000 15004KT 4SM -RA
                       BR OVC003 FM191700 14010G18KT 4SM -RA BR
                       OVC007=
201910181735 TAF KPWT 181735Z 1818/1918 20010KT P6SM -RA BKN010 OVC025
                      TEMPO 1818/1820 RA BKN005 FM182000 19010G16KT
                       P6SM -RA OVC010 FM190100 19005KT 4SM -RA
                       SCT025 OVC070 FM190700 19004KT 4SM -RA BR
                       BKN010 OVC025=
201910181120 TAF KPWT 181120Z 1812/1912 20010KT P6SM FEW010 BKN100 FM181700
                       19010KT P6SM -RA SCT010 OVC050 FM181900
                       19010KT 3SM -RA BR OVC010 FM190200 19005KT
                       P6SM SCT025 OVC070 FM190700 19004KT 4SM
                       -RA BR BKN010 OVC025=
201910180522 TAF KPWT 180522Z 1806/1906 19010KT P6SM SCT008 OVC080 FM181400
                       19006KT P6SM -RA OVC025 FM181700 18015G24KT
                       4SM -RA OVC025 FM182300 19009KT P6SM -RA
                       OVC015=
201910180312 KPWT 180312Z 1803/1824 21010G18KT P6SM FEW012 BKN030 BKN080 FM180900
                       19006KT 4SM BR VCSH OVC010 FM181700 18015G24KT
                       P6SM -RA OVC010=
201910172321 KPWT 172321Z 1723/1824 17013G20KT P6SM -RA SCT010 BKN020 OVC035
                       TEMPO 1800/1802 3SM RA BR BKN007 OVC015
                       FM180300 20008KT 4SM -RA BR OVC007 FM180800
                       19006KT 4SM BR VCSH OVC010 FM181700 18015G24KT
                       P6SM -RA OVC010=
201910172320 TAF KPWT 172320Z 1800/1824 17013G20KT P6SM -RA BKN007 OVC015
                      TEMPO 1800/1802 3SM RA BR OVC005 FM180300
                       20008KT 4SM -RA BR OVC007 FM180800 19006KT
                       4SM BR VCSH OVC010 FM181700 18015G24KT P6SM
                       -RA OVC010=
201910171732 TAF KPWT 171732Z 1718/1818 19010KT P6SM -RA BKN008 OVC020 FM172100
                       17013G20KT P6SM -RA SCT010 OVC025
                      TEMPO 1722/1802 3SM RA BR OVC010 FM180300
                       20008KT 4SM -RA BR OVC010 FM180800 19006KT
                       4SM BR VCSH OVC007=
201910171138 KPWT 171138Z 1712/1812 19010KT P6SM SCT006 BKN030 BKN045
                      TEMPO 1712/1716 -RA BKN006 OVC030 FM171600
                       19010KT P6SM -RA BKN008 OVC020 FM172100
                       17013G20KT P6SM -RA SCT010 OVC025
                      TEMPO 1722/1802 3SM RA BR OVC010 FM180500
                       19008KT P6SM SCT020 BKN050=
201910171126 TAF KPWT 171126Z 1712/1812 19006KT P6SM BKN004 OVC015 FM171600
                       19010KT P6SM -RA BKN008 OVC020 FM172100
                       17013G20KT P6SM -RA SCT010 OVC025
                      TEMPO 1722/1802 3SM RA BR OVC010 FM180500
                       19008KT P6SM SCT020 BKN050=
201910170634 KPWT 170634Z 1707/1806 20010KT P6SM FEW005 BKN060
                      TEMPO 1707/1711 -SHRA BKN005 OVC060 FM171600
                       19010KT P6SM -RA BKN008 OVC020 FM172100
                       17010G20KT P6SM -SHRA OVC030 FM180500 19010KT
                       P6SM -SHRA OVC015=
201910170530 TAF KPWT 170530Z 1706/1806 21008KT P6SM -SHRA OVC005 FM171600 19010KT
                       P6SM -RA BKN008 OVC020 FM172100 17010G20KT
                       P6SM -SHRA OVC030 FM180500 19010KT P6SM
                       -SHRA OVC015=
201910162320 TAF KPWT 162320Z 1700/1724 19010G18KT 3SM -RA SCT006 BKN015 OVC030
                       FM170200 20008KT P6SM -SHRA SCT015 BKN025
                       BKN040 FM171200 20009KT P6SM -SHRA BKN010
                       OVC020 FM171600 19010KT P6SM -RA BKN008
                       OVC020 FM172100 17010G18KT P6SM -SHRA OVC030=
201910161755 TAF KPWT 161755Z 1618/1718 22008KT 3SM -RA BR BKN006 OVC025 FM161900
                       21006KT P6SM VCSH SCT030 OVC060 FM162100
                       19010KT 3SM -RA SCT006 BKN011 OVC020 FM170300
                       19008KT P6SM -SHRA SCT015 BKN025 BKN040
                       FM171200 19010KT P6SM -SHRA BKN010 OVC020
                       FM171600 19012KT P6SM -RA BKN008 OVC020=
201910161619 KPWT 161619Z 1616/1712 21006KT P6SM -RA OVC030
                      TEMPO 1616/1617 2SM RA BR BKN004 FM162100
                       19010KT 3SM -RA SCT006 BKN011 OVC020 FM170300
                       19010KT P6SM -SHRA SCT015 BKN025 BKN040=
201910161452 KPWT 161452Z 1615/1712 21006KT P6SM -RA OVC045
                      TEMPO 1615/1617 2SM RA BR BKN002 FM162100
                       19010KT 3SM -RA SCT006 BKN011 OVC020 FM170300
                       19010KT P6SM -SHRA SCT015 BKN025 BKN040=
201910161128 TAF KPWT 161128Z 1612/1712 21006KT P6SM -RA OVC045
                      TEMPO 1612/1616 5SM RA FM162100 19010KT 3SM
                       -RA SCT006 BKN011 OVC020 FM170300 19010KT
                       P6SM -SHRA SCT015 BKN025 BKN040=
201910160533 TAF KPWT 160533Z 1606/1706 21006KT P6SM -RA OVC045 FM162200 19010KT
                       3SM -RA SCT006 BKN011 OVC020 FM170300 19010KT
                       P6SM -SHRA SCT015 BKN025 BKN040=
201910152339 TAF KPWT 152339Z 1600/1624 19010KT P6SM VCSH OVC090 FM160300 19004KT
                       P6SM -RA OVC040 FM161400 19004KT 2SM -RA
                       BR SCT007 OVC015 FM161900 18009KT P6SM SCT007
                       OVC025=
201910151731 TAF KPWT 151731Z 1518/1618 23008KT P6SM OVC200 FM160000 19010KT
                       P6SM VCSH OVC040 FM160300 19004KT P6SM -RA
                       OVC040 FM161400 19004KT 2SM -RA BR SCT007
                       OVC015=
201910151616 KPWT 151616Z 1516/1612 22005KT 4SM BR SCT003 SCT120 OVC200
                      TEMPO 1516/1518 2SM BR BKN003 FM151800 16008KT
                       P6SM OVC100 FM160000 19010KT P6SM -RA OVC040=
201910151120 TAF KPWT 151120Z 1512/1612 VRB03KT P6SM SCT120 OVC200 FM151800
                       16008KT P6SM OVC100 FM160000 19010KT P6SM
                       -RA OVC040=
201910150520 TAF KPWT 150520Z 1506/1606 VRB04KT P6SM BKN250 FM151600 18005KT
                       P6SM OVC100 FM152000 16010KT P6SM -RA OVC050
                       FM160100 20005KT P6SM -RA OVC050=
201910142320 TAF KPWT 142320Z 1500/1524 VRB04KT P6SM BKN250 FM151600 12007KT
                       P6SM OVC200 FM152200 16010KT P6SM OVC090=
201910141720 TAF KPWT 141720Z 1418/1518 00000KT 3SM BR BKN003 FM142000 VRB04KT
                       P6SM SCT200 FM151600 13008KT P6SM BKN200=
201910141508 KPWT 141508Z 1415/1512 00000KT 2SM BR BKN002
                      TEMPO 1415/1417 1/4SM FG VV001 FM141800 VRB03KT
                       P6SM SCT005 BKN200 FM141900 05005KT P6SM
                       BKN200 FM150300 VRB03KT P6SM SCT200=
201910141303 KPWT 141303Z 1413/1512 00000KT P6SM SCT003 BKN250
                      TEMPO 1413/1417 3/4SM BR BKN002 BKN250 FM141800
                       VRB03KT P6SM SCT010 BKN200 FM141900 05005KT
                       P6SM BKN200 FM150300 VRB03KT P6SM SCT200=
201910141122 TAF KPWT 141122Z 1412/1512 00000KT 1/4SM FG VV001
                      TEMPO 1413/1417 2SM BR BKN002 BKN060 FM141700
                       VRB03KT 5SM BR BKN004 FM141800 VRB03KT P6SM
                       SCT010 BKN200 FM141900 05005KT P6SM BKN200
                       FM150300 VRB03KT P6SM SCT200=
201910140936 KPWT 140936Z 1410/1506 00000KT 1/2SM FG VV001 FM141700 VRB03KT
                       5SM BR BKN004 FM141800 VRB03KT P6SM SCT010
                       SCT200 FM141900 05005KT P6SM SCT200 FM150300
                       VRB03KT P6SM BKN200=
201910140901 KPWT 140901Z 1409/1506 00000KT 5SM BR SCT002
                      TEMPO 1409/1411 2SM BR BKN002 FM141100 00000KT
                       3SM BR OVC003
                      TEMPO 1412/1416 1/2SM FG VV002 FM141700 VRB03KT
                       P6SM SCT010 SCT200 FM141900 05005KT P6SM
                       SCT200 FM150300 VRB03KT P6SM BKN200=
201910140527 TAF KPWT 140527Z 1406/1506 VRB03KT P6SM SCT050 FM141000 00000KT
                       P6SM BKN005 FM141200 00000KT 3SM BR OVC003
                       TEMPO 1412/1416 1/2SM FG VV002 FM141700
                       VRB03KT P6SM SCT010 SCT200 FM141900 05005KT
                       P6SM SCT200 FM150300 VRB03KT P6SM BKN200=
201910132320 TAF KPWT 132320Z 1400/1424 VRB03KT P6SM SCT040 BKN070 FM140600
                       VRB03KT P6SM SCT050 FM141000 00000KT P6SM
                       BKN003 FM141200 00000KT 3SM BR OVC003
                      TEMPO 1412/1416 1/2SM FG VV002 FM141700 VRB03KT
                       P6SM SCT010 SCT150 FM141900 30005KT P6SM
                       BKN150=
201910131723 TAF KPWT 131723Z 1318/1418 VRB03KT P6SM OVC060 FM132100 34005KT
                       P6SM BKN060 FM140000 34007KT P6SM SCT050
                       FM141000 VRB03KT P6SM BKN003 FM141200 VRB03KT
                       3SM BR OVC003
                      TEMPO 1412/1416 1/2SM FG VV002 FM141700 36006KT
                       P6SM SCT010=
201910131132 TAF KPWT 131132Z 1312/1412 00000KT P6SM OVC080 FM132000 04005KT
                       P6SM BKN050 BKN090 FM140400 VRB04KT P6SM
                       BKN030 FM140900 00000KT P6SM BKN005 OVC015=
201910130522 TAF KPWT 130522Z 1306/1406 VRB04KT P6SM VCSH BKN070 OVC120 FM131000
                       VRB03KT P6SM VCSH BKN035 BKN070 FM132000
                       04005KT P6SM BKN050 BKN090 FM140400 VRB04KT
                       P6SM BKN030=
201910122320 TAF KPWT 122320Z 1300/1324 VRB04KT P6SM VCSH BKN090 OVC150 FM131000
                       VRB03KT P6SM VCSH BKN040 BKN090 FM132000
                       32007KT P6SM BKN040 BKN090=
201910121720 TAF KPWT 121720Z 1218/1318 04004KT P6SM BKN090 OVC150 FM131200
                       VRB03KT P6SM BKN050 BKN090=
201910121124 TAF KPWT 121124Z 1212/1312 00000KT P6SM BKN250 FM121700 04003KT
                       P6SM BKN100 OVC200 FM130100 VRB03KT P6SM
                       OVC080=
201910120520 TAF KPWT 120520Z 1206/1306 09005KT P6SM BKN250 FM121200 VRB03KT
                       P6SM BKN120 OVC200 FM121700 VRB03KT P6SM
                       OVC090 FM122300 04005KT P6SM OVC070=
201910112320 TAF KPWT 112320Z 1200/1224 04007KT P6SM SCT250 FM120600 09005KT
                       P6SM BKN250 FM121200 VRB03KT P6SM BKN120
                       OVC200 FM121700 VRB03KT P6SM OVC090=
201910111720 TAF KPWT 111720Z 1118/1218 04007KT P6SM SCT250 FM120600 09005KT
                       P6SM BKN250 FM121200 VRB03KT P6SM BKN120
                       OVC200 FM121700 VRB03KT P6SM OVC090=
201910111121 TAF KPWT 111121Z 1112/1212 05006KT P6SM FEW250 FM120400 VRB03KT
                       P6SM SCT250=
201910110520 TAF KPWT 110520Z 1106/1206 01006KT P6SM SCT250=
201910102320 TAF KPWT 102320Z 1100/1124 04007KT P6SM SCT250=
201910101720 TAF KPWT 101720Z 1018/1118 03006KT P6SM SKC=
201910101120 TAF KPWT 101120Z 1012/1112 00000KT P6SM SKC FM101800 03006KT P6SM
                       SKC=
201910100524 TAF KPWT 100524Z 1006/1106 VRB03KT P6SM SKC FM101800 03006KT P6SM
                       SKC=
201910092320 TAF KPWT 092320Z 1000/1024 04007KT P6SM SKC=
201910091720 TAF KPWT 091720Z 0918/1018 06012G20KT P6SM SKC FM100000 04007KT
                       P6SM SKC=
201910091525 KPWT 091525Z 0915/1012 03010KT P6SM SKC FM100100 02005KT P6SM SKC=
201910091137 TAF KPWT 091137Z 0912/1012 00000KT P6SM SCT250
                      TEMPO 0912/0916 1SM BR OVC003 FM091800 03010KT
                       P6SM SKC FM100100 02005KT P6SM SKC=
201910090523 TAF KPWT 090523Z 0906/1006 VRB03KT P6SM BKN060 FM090800 00000KT
                       3SM BR SCT250
                      TEMPO 0912/0916 1SM BR OVC003 FM091800 03008KT
                       P6SM SCT250=
201910082320 TAF KPWT 082320Z 0900/0924 05008KT P6SM SCT070 FM090600 VRB03KT
                       5SM BR SCT250
                      TEMPO 0912/0916 1SM BR OVC003 FM091800 03008KT
                       P6SM SCT005 SCT250=
201910081726 TAF KPWT 081726Z 0818/0918 19005KT P6SM VCSH BKN050 FM081900 05010KT
                       P6SM SCT250 FM082200 02008KT P6SM SCT250
                       FM090000 02005KT P6SM SCT250 FM090600 VRB03KT
                       5SM BR SCT250
                      TEMPO 0912/0916 1SM BR OVC003=
201910081138 TAF KPWT 081138Z 0812/0912 21007KT P6SM BKN010 BKN015 BKN025 FM081500
                       19005KT P6SM -SHRA BKN050 FM081900 05010G16KT
                       P6SM SCT250 FM082200 02008KT P6SM SCT250
                       FM090000 02005KT P6SM SCT250=
201910080529 TAF KPWT 080529Z 0806/0906 21007KT P6SM BKN007 FM081700 13012KT
                       P6SM -SHRA OVC007 FM081900 05010G18KT P6SM
                       -SHRA BKN010 FM082200 02010KT P6SM BKN050
                       FM090000 02005KT P6SM SCT250=
201910072326 TAF KPWT 072326Z 0800/0824 20012G20KT P6SM -RA OVC005 FM080500
                       19010KT 4SM BR VCSH BKN010 FM081700 13012KT
                       P6SM -SHRA OVC007 FM081900 05010KT P6SM
                       -SHRA BKN010=
201910072209 KPWT 072209Z 0722/0818 20012G20KT 5SM -RA BR OVC010 FM080500 19010KT
                       4SM BR VCSH BKN015=
201910071720 TAF KPWT 071720Z 0718/0818 21013G22KT P6SM -RA OVC010 FM072200
                       20012G20KT 2SM -RA BR OVC010 FM080500 19010KT
                       4SM BR VCSH BKN015=
201910071139 TAF KPWT 071139Z 0712/0812 21006KT P6SM OVC100
                      TEMPO 0712/0715 BKN003 FM071500 19004KT 6SM
                       BR OVC050 FM071700 19010G18KT P6SM -RA OVC015
                       FM072200 20012G20KT 2SM -RA BR OVC010=
201910070531 TAF KPWT 070531Z 0706/0806 VRB02KT P6SM BKN200 FM070900 18002KT
                       P6SM OVC100 FM071200 19005KT P6SM OVC040
                       FM071800 19013G20KT P6SM -RA OVC025=
201910062327 TAF KPWT 062327Z 0700/0724 02006KT P6SM SCT120 BKN220 FM070900
                       18002KT P6SM OVC100 FM071200 19003KT P6SM
                       VCSH OVC040 FM071500 19006KT P6SM -RA SCT020
                       OVC040 FM071800 19013KT P6SM -RA OVC025=
201910061731 TAF KPWT 061731Z 0618/0718 05008KT P6SM SCT250 FM070900 18003KT
                       P6SM OVC100 FM071200 19004KT P6SM VCSH OVC040
                       FM071500 19009KT P6SM -RA OVC040=
201910061345 KPWT 061345Z 0614/0712 00000KT P6SM SKC
                      TEMPO 0614/0616 3/4SM BR BKN001 FM061800
                       03004KT P6SM SKC FM062300 03003KT P6SM FEW250
                       FM070800 12003KT P6SM OVC050=
201910061135 TAF KPWT 061135Z 0612/0712 00000KT P6SM SKC
                      TEMPO 0612/0616 2SM BR BKN001 FM061800 03004KT
                       P6SM SKC FM062300 03003KT P6SM FEW250 FM070800
                       12003KT P6SM OVC050=
201910060521 TAF KPWT 060521Z 0606/0706 00000KT P6SM OVC045 FM061200 00000KT
                       1/2SM FG BKN001 FM061800 03004KT P6SM BKN004
                       FM062000 03005KT P6SM SCT250=
201910052324 TAF KPWT 052324Z 0600/0624 02004KT P6SM SCT050 FM061200 03002KT
                       1/2SM FG BKN001 FM061800 03004KT P6SM BKN004
                       FM062100 03005KT P6SM SCT250=
201910052203 TAF KPWT 052203Z 0522/0618 03004KT P6SM FEW045 BKN070 FM060600
                       00000KT P6SM SCT200 FM061200 00000KT 4SM
                       BR BKN004 FM061500 02003KT 1/2SM FG OVC001=
201910051459 KPWT 051459Z 0515/0612 00000KT P6SM VCSH OVC004 FM051800 18004KT
                       P6SM VCSH SCT025 BKN050 FM052200 02004KT
                       P6SM SCT250 FM060600 03003KT P6SM SCT250=
201910051314 KPWT 051314Z 0513/0612 VRB05KT P6SM BKN250
                      TEMPO 0513/0514 OVC004 FM051400 18003KT P6SM
                       BKN025 FM051800 18004KT P6SM VCSH SCT025
                       BKN050 FM052200 02004KT P6SM SCT250 FM060600
                       03003KT P6SM SCT250=
201910051129 TAF KPWT 051129Z 0512/0612 VRB05KT P6SM BKN250
                      TEMPO 0512/0514 3SM BR FM051400 18003KT P6SM
                       BKN025 FM051800 18004KT P6SM VCSH SCT025
                       BKN050 FM052200 02004KT P6SM SCT250 FM060600
                       03003KT P6SM SCT250=
201910050520 TAF KPWT 050520Z 0506/0606 19005KT P6SM BKN250 FM051400 18003KT
                       P6SM BKN025 FM051800 18004KT P6SM VCSH SCT025
                       BKN050 FM052200 02004KT P6SM SCT250=
201910042334 TAF KPWT 042334Z 0500/0524 22012G24KT P6SM VCSH BKN250 FM050200
                       20005KT P6SM BKN250 FM051400 18003KT P6SM
                       BKN025 FM051800 18004KT P6SM VCSH SCT025
                       BKN050 FM052200 02004KT P6SM SCT250=
201910041726 TAF KPWT 041726Z 0418/0518 20010KT P6SM OVC008 FM042100 19008KT
                       P6SM BKN035 BKN050 FM050900 19006KT P6SM
                       BKN008 OVC015=
201910041141 TAF KPWT 041141Z 0412/0512 19008KT P6SM -SHRA SCT007 BKN020 OVC035
                       TEMPO 0412/0416 BKN007 OVC020 FM042100 19008KT
                       P6SM BKN035 BKN050 FM050900 19006KT P6SM
                       BKN008 OVC015=
201910040539 TAF KPWT 040539Z 0406/0506 19005KT P6SM VCSH SCT015 OVC040
                      TEMPO 0406/0410 -SHRA BKN015 FM041000 18005KT
                       P6SM -SHRA BKN017 BKN030 FM041800 18009KT
                       P6SM -SHRA OVC025 FM042200 18009KT P6SM
                       VCSH BKN035 BKN070 FM050500 18006KT P6SM
                       BKN025=
201910040117 TAF KPWT 040117Z 0401/0424 20008KT P6SM VCSH BKN035 OVC100
                      TEMPO 0401/0403 P6SM -SHRA OVC035 FM040300
                       19005KT P6SM VCSH OVC050 FM041500 18005KT
                       P6SM VCSH OVC025=
201910031727 TAF KPWT 031727Z 0318/0418 19010KT P6SM VCSH FEW010 BKN050
                      TEMPO 0319/0323 P6SM -SHRA BKN025 OVC050
                       FM032300 20008KT P6SM VCSH BKN035 OVC100
                       TEMPO 0323/0403 P6SM -SHRA OVC035 FM040300
                       19005KT P6SM VCSH OVC050 FM041500 18005KT
                       P6SM VCSH OVC025=
201910031502 KPWT 031502Z 0315/0412 19012G16KT P6SM SCT019 SCT060
                      TEMPO 0316/0320 -SHRA BKN020 OVC050 FM032000
                       18006KT P6SM -SHRA SCT025 OVC040 FM040400
                       18006KT P6SM SCT030 BKN045 FM041000 18006KT
                       P6SM BKN008 OVC015=
201910031138 TAF KPWT 031138Z 0312/0412 21006KT P6SM -SHRA BKN025 OVC035 FM032000
                       18006KT P6SM -SHRA SCT025 OVC040 FM040400
                       18006KT P6SM SCT030 BKN045 FM041000 18006KT
                       P6SM BKN008 OVC015=
201910030538 TAF KPWT 030538Z 0306/0406 17004KT P6SM OVC080 FM031200 16004KT
                       P6SM VCSH OVC040 FM031500 18005KT P6SM -RA
                       OVC035 FM031700 17011KT P6SM -RA OVC025
                       FM032100 19009KT P6SM -SHRA SCT025 OVC040
                       FM040400 18006KT P6SM VCSH BKN030=
201910022334 TAF KPWT 022334Z 0300/0324 23004KT P6SM BKN120 OVC200 FM031000
                       00000KT P6SM VCSH OVC040 FM031400 19002KT
                       P6SM -RA OVC035 FM031700 17009KT P6SM -RA
                       OVC025 FM031900 19006KT P6SM VCSH BKN035=
201910021731 TAF KPWT 021731Z 0218/0318 29003KT P6SM FEW150 BKN250 FM030200
                       00000KT P6SM OVC100 FM030900 00000KT P6SM
                       VCSH BKN030 OVC050 FM031300 19004KT 4SM
                       -RA BR OVC025=
201910021132 TAF KPWT 021132Z 0212/0312 VRB03KT P6SM SCT200 FM021400 00000KT
                       4SM BR SCT003 SCT120 BKN200 FM021700 VRB03KT
                       P6SM BKN120 OVC200 FM022300 20006KT P6SM
                       OVC090 FM030500 19004KT P6SM VCSH OVC050=
201910020531 TAF KPWT 020531Z 0206/0306 VRB03KT P6SM SCT200 FM021300 00000KT
                       4SM BR SCT003 SCT120 BKN200 FM021700 VRB03KT
                       P6SM BKN120 OVC200 FM022300 20006KT P6SM
                       OVC090 FM030500 19004KT P6SM VCSH OVC050=
201910012332 TAF KPWT 012332Z 0200/0224 VRB04KT P6SM FEW120 FM020400 00000KT
                       P6SM FEW120 FM021300 00000KT 4SM BR SCT003
                       SCT100 FM021700 VRB03KT P6SM BKN120 FM022300
                       20006KT P6SM OVC090=
201910011724 TAF KPWT 011724Z 0118/0218 VRB04KT P6SM SCT150 FM012100 19006KT
                       P6SM SCT120 FM020400 00000KT P6SM SCT100
                       FM021300 00000KT 4SM BR SCT003 SCT100 FM021700
                       VRB03KT P6SM BKN120=
201910011132 TAF KPWT 011132Z 0112/0212 VRB03KT P6SM SCT250 FM011400 14003KT
                       6SM BCFG SCT250 FM011700 VRB03KT P6SM SCT200
                       FM012300 03004KT P6SM SCT200=
201910010537 TAF KPWT 010537Z 0106/0206 VRB04KT P6SM SKC FM011200 VRB03KT 6SM
                       BCFG SCT001 FM011700 VRB03KT P6SM SCT200
                       FM012300 03006KT P6SM SCT200=