##########################################################
# Query made at 02/16/2025 00:15:31 UTC
# Time interval: from 01/01/2019 00:00  to 01/31/2019 23:59  UTC
##########################################################

##########################################################
# KPWT, Bremerton National Automatic Weather Observing / Reporting System (United States)
# WMO index: -----. WIGOS ID: Unknown
# Latitude 47-30N. Longitude 122-45W. Altitude 147 m.
##########################################################

###################################
#  METAR/SPECI from KPWT
###################################
201901312356 METAR KPWT 312356Z AUTO 20007KT 10SM OVC075 11/04 A2976 RMK AO2 SLP097 6//// T01060039 10117 20050 56016=
201901312256 METAR KPWT 312256Z AUTO 21007KT 10SM BKN090 11/04 A2978 RMK AO2 SLP102 T01110039=
201901312156 METAR KPWT 312156Z AUTO 21006KT 10SM CLR 11/03 A2979 RMK AO2 SLP107 T01060033=
201901312056 METAR KPWT 312056Z AUTO 21009KT 10SM CLR 09/03 A2981 RMK AO2 SLP115 6//// T00940028 58018=
201901311956 METAR KPWT 311956Z AUTO 23010KT 10SM CLR 09/03 A2984 RMK AO2 SLP121 T00890028=
201901311856 METAR KPWT 311856Z AUTO 19006KT 10SM CLR 07/03 A2985 RMK AO2 SLP128 T00720028=
201901311756 METAR KPWT 311756Z AUTO 22006KT 10SM CLR 05/02 A2987 RMK AO2 SLP132 6//// T00500022 10050 21006 51003=
201901311656 METAR KPWT 311656Z AUTO 00000KT 10SM CLR 03/01 A2986 RMK AO2 SLP132 T00330011=
201901311556 METAR KPWT 311556Z AUTO 00000KT 10SM CLR 00/M01 A2986 RMK AO2 SLP130 T00001006 FZRANO=
201901311456 METAR KPWT 311456Z AUTO 00000KT 10SM CLR 00/M01 A2986 RMK AO2 SLP130 6//// T00001006 58006 FZRANO=
201901311356 METAR KPWT 311356Z AUTO 00000KT 10SM CLR M01/M01 A2986 RMK AO2 SLP131 T10061011 FZRANO=
201901311256 METAR KPWT 311256Z AUTO 00000KT 10SM CLR 00/M01 A2988 RMK AO2 SLP138 T00001011 FZRANO=
201901311156 METAR KPWT 311156Z AUTO 00000KT 10SM CLR 01/00 A2987 RMK AO2 SLP135 7//// T00110000 10050 20011 57014 FZRANO=
201901311056 METAR KPWT 311056Z AUTO 00000KT 10SM BKN120 03/01 A2989 RMK AO2 SLP139 T00280011=
201901310956 METAR KPWT 310956Z AUTO 00000KT 10SM CLR 03/01 A2990 RMK AO2 SLP145 T00280011=
201901310856 METAR KPWT 310856Z AUTO 00000KT 10SM CLR 03/01 A2991 RMK AO2 SLP149 T00330011 56006=
201901310756 METAR KPWT 310756Z AUTO 00000KT 10SM CLR 03/01 A2992 RMK AO2 SLP149 T00280011 401171033=
201901310656 METAR KPWT 310656Z AUTO 00000KT 10SM CLR 03/01 A2992 RMK AO2 SLP150 T00280011=
201901310556 METAR KPWT 310556Z AUTO 00000KT 10SM CLR 04/01 A2993 RMK AO2 SLP154 T00440011 10089 20044 51001=
201901310456 METAR KPWT 310456Z AUTO 05005KT 10SM CLR 06/02 A2993 RMK AO2 SLP155 T00560022=
201901310356 METAR KPWT 310356Z AUTO 04003KT 10SM CLR 06/02 A2993 RMK AO2 SLP155 T00560022=
201901310256 METAR KPWT 310256Z AUTO 00000KT 10SM CLR 06/02 A2993 RMK AO2 SLP154 T00610017 56006=
201901310156 METAR KPWT 310156Z AUTO 00000KT 10SM CLR 06/01 A2993 RMK AO2 SLP154 T00610011=
201901310056 METAR KPWT 310056Z AUTO 06003KT 10SM CLR 08/01 A2994 RMK AO2 SLP156 T00780011=
201901302356 METAR KPWT 302356Z AUTO 04004KT 10SM CLR 09/02 A2995 RMK AO2 SLP161 6//// T00890017 10117 20061 56009=
201901302256 METAR KPWT 302256Z AUTO 04006KT 10SM CLR 09/02 A2996 RMK AO2 SLP164 T00890022=
201901302156 METAR KPWT 302156Z AUTO 03004KT 10SM CLR 10/01 A2996 RMK AO2 SLP164 T01000011=
201901302056 METAR KPWT 302056Z AUTO VRB03KT 10SM CLR 12/00 A2998 RMK AO2 SLP169 6//// T01170000 58012=
201901301956 METAR KPWT 301956Z AUTO 02003KT 10SM CLR 09/02 A3000 RMK AO2 SLP177 T00890017=
201901301856 METAR KPWT 301856Z AUTO VRB03KT 10SM CLR 08/01 A3001 RMK AO2 SLP180 T00830011=
201901301756 METAR KPWT 301756Z AUTO 00000KT 10SM CLR 06/02 A3001 RMK AO2 SLP183 6//// T00560017 10056 21033 51005=
201901301656 METAR KPWT 301656Z AUTO 00000KT 10SM CLR 02/02 A3001 RMK AO2 SLP181 T00220017 FZRANO=
201901301556 METAR KPWT 301556Z AUTO 00000KT 10SM CLR M03/M04 A3000 RMK AO2 SLP180 T10331039 FZRANO=
201901301456 METAR KPWT 301456Z AUTO 00000KT 10SM CLR M03/M04 A3000 RMK AO2 SLP176 T10281039 58004 FZRANO=
201901301356 METAR KPWT 301356Z AUTO 00000KT 10SM CLR M03/M03 A3000 RMK AO2 SLP178 T10281033 FZRANO=
201901301256 METAR KPWT 301256Z AUTO 00000KT 10SM CLR M03/M04 A3001 RMK AO2 SLP181 T10281039 FZRANO=
201901301156 METAR KPWT 301156Z AUTO 00000KT 10SM CLR M03/M04 A3001 RMK AO2 SLP182 6//// 7//// T10281039 10039 21028 FZRANO=
201901301056 METAR KPWT 301056Z AUTO 00000KT 10SM CLR M01/M03 A3002 RMK AO2 SLP184 T10061028 FZRANO=
201901300956 METAR KPWT 300956Z AUTO 00000KT 10SM CLR M01/M02 A3002 RMK AO2 SLP185 T10111022 FZRANO=
201901300856 METAR KPWT 300856Z AUTO 06003KT 10SM CLR 01/M02 RMK AO2 SLPNO 6//// T00061022 FZRANO $=
201901300756 METAR KPWT 300756Z AUTO 03003KT 10SM CLR 02/M02 A3004 RMK AO2 SLP189 T00221022 401170011 FZRANO=
201901300656 METAR KPWT 300656Z AUTO 00000KT 10SM CLR 03/M02 A3003 RMK AO2 SLP188 T00281017=
201901300556 METAR KPWT 300556Z AUTO 00000KT 10SM CLR 02/M02 A3004 RMK AO2 SLP190 6//// T00171022 10111 20011 56004 FZRANO=
201901300456 METAR KPWT 300456Z AUTO 00000KT 10SM CLR 03/M01 A3004 RMK AO2 SLP192 T00331011=
201901300356 METAR KPWT 300356Z AUTO 04004KT 10SM CLR 06/M01 A3004 RMK AO2 SLP192 T00561011=
201901300256 METAR KPWT 300256Z AUTO 00000KT 10SM CLR 02/M02 A3005 RMK AO2 SLP193 T00171017 56004 FZRANO=
201901300156 METAR KPWT 300156Z AUTO 00000KT 6SM HZ CLR 03/M01 A3005 RMK AO2 SLP195 T00331011=
201901300056 METAR KPWT 300056Z AUTO 00000KT 10SM CLR 08/M02 A3005 RMK AO2 SLP195 T00831017=
201901292356 METAR KPWT 292356Z AUTO 04005KT 10SM CLR 11/M02 A3006 RMK AO2 SLP198 T01111022 10117 20072 56016=
201901292256 METAR KPWT 292256Z AUTO 06006KT 10SM CLR 11/M02 A3007 RMK AO2 SLP203 T01111022=
201901292156 METAR KPWT 292156Z AUTO 08004KT 10SM CLR 11/M02 A3008 RMK AO2 SLP206 T01111017=
201901292056 METAR KPWT 292056Z AUTO 05008KT 10SM CLR 11/M02 A3011 RMK AO2 SLP215 T01061017 58017=
201901291956 METAR KPWT 291956Z AUTO 03007KT 10SM CLR 10/M02 A3013 RMK AO2 SLP222 T01001017=
201901291856 METAR KPWT 291856Z AUTO 05009KT 10SM CLR 08/M01 A3015 RMK AO2 SLP228 T00831011=
201901291756 METAR KPWT 291756Z AUTO 04007KT 10SM CLR 07/00 A3016 RMK AO2 SLP231 6//// T00720000 10072 20039 50005=
201901291656 METAR KPWT 291656Z AUTO 05007KT 10SM CLR 06/00 A3016 RMK AO2 SLP232 T00560000=
201901291556 METAR KPWT 291556Z AUTO 05010KT 10SM CLR 04/00 A3015 RMK AO2 SLP230 T00390000=
201901291456 METAR KPWT 291456Z AUTO 03010KT 10SM CLR 04/M01 A3014 RMK AO2 SLP227 6//// T00391006=
201901291356 METAR KPWT 291356Z AUTO 05009KT 10SM CLR 04/M01 A3014 RMK AO2 SLP227 T00391011=
201901291256 METAR KPWT 291256Z AUTO 07009KT 10SM CLR 04/M01 RMK AO2 SLPNO T00391006 $=
201901291156 METAR KPWT 291156Z AUTO 04009KT 10SM CLR 04/M01 A3015 RMK AO2 SLP229 6//// 7//// T00391006 10044 20033 58007=
201901291056 METAR KPWT 291056Z AUTO 05008KT 10SM CLR 04/M01 A3016 RMK AO2 SLP232 T00391006=
201901290956 METAR KPWT 290956Z AUTO 07006KT 10SM CLR 04/00 A3017 RMK AO2 SLP235 T00390000=
201901290856 METAR KPWT 290856Z AUTO 05007KT 10SM CLR 04/M01 A3017 RMK AO2 SLP236 T00391006 58003=
201901290756 METAR KPWT 290756Z AUTO 05007KT 10SM CLR 04/M01 A3017 RMK AO2 SLP237 T00441011 401060039=
201901290656 METAR KPWT 290656Z AUTO 04007KT 10SM CLR 04/M01 A3018 RMK AO2 SLP237 T00391011=
201901290556 METAR KPWT 290556Z AUTO 05007KT 10SM CLR 04/M02 A3018 RMK AO2 SLP238 T00441017 10089 20044 58007=
201901290456 METAR KPWT 290456Z AUTO 05008KT 10SM CLR 04/M02 A3019 RMK AO2 SLP242 T00441017=
201901290356 METAR KPWT 290356Z AUTO 06008KT 10SM CLR 05/M02 A3019 RMK AO2 SLP244 T00501017=
201901290256 METAR KPWT 290256Z AUTO 05008KT 10SM CLR 06/M02 A3020 RMK AO2 SLP245 T00561017 56014=
201901290156 METAR KPWT 290156Z AUTO 05007KT 10SM CLR 06/M02 A3021 RMK AO2 SLP249 T00561017=
201901290056 METAR KPWT 290056Z AUTO 04009KT 10SM CLR 07/M01 A3022 RMK AO2 SLP252 T00721011=
201901282356 METAR KPWT 282356Z AUTO 04009KT 10SM CLR 09/01 A3024 RMK AO2 SLP261 6//// T00890011 10106 20067 56016=
201901282256 METAR KPWT 282256Z AUTO 03009KT 10SM CLR 09/02 A3025 RMK AO2 SLP264 T00940017=
201901282156 METAR KPWT 282156Z AUTO 04008KT 10SM CLR 10/02 A3027 RMK AO2 SLP269 T01000022=
201901282056 METAR KPWT 282056Z AUTO 04008KT 10SM CLR 10/02 A3029 RMK AO2 SLP276 6//// T01000022 58017=
201901281956 METAR KPWT 281956Z AUTO 05009KT 10SM CLR 09/02 A3031 RMK AO2 SLP284 T00890017=
201901281856 METAR KPWT 281856Z AUTO 05009KT 10SM CLR 08/01 A3033 RMK AO2 SLP292 T00780011=
201901281756 METAR KPWT 281756Z AUTO 05007KT 10SM CLR 07/01 A3034 RMK AO2 SLP292 6//// T00670011 10067 20039 56002=
201901281656 METAR KPWT 281656Z AUTO 05010KT 10SM CLR 06/01 A3034 RMK AO2 SLP293 T00560006=
201901281556 METAR KPWT 281556Z AUTO 06010KT 10SM CLR 04/01 A3034 RMK AO2 SLP293 T00440006=
201901281456 METAR KPWT 281456Z AUTO 03007KT 10SM CLR 04/01 A3034 RMK AO2 SLP295 6//// T00390011 58005=
201901281356 METAR KPWT 281356Z AUTO 06009KT 10SM CLR 04/02 A3035 RMK AO2 SLP297 T00390022=
201901281256 METAR KPWT 281256Z AUTO 05011KT 10SM CLR 04/03 A3036 RMK AO2 SLP299 T00440033=
201901281156 METAR KPWT 281156Z AUTO 05010KT 10SM FEW010 04/03 A3036 RMK AO2 SLP300 6//// 7//// T00440033 10056 20044 58000=
201901281151 SPECI KPWT 281151Z AUTO 04011KT 10SM FEW010 04/03 A3036 RMK AO2=
201901281056 METAR KPWT 281056Z AUTO 05014KT 10SM OVC010 05/03 A3037 RMK AO2 SLP303 T00500033=
201901281014 SPECI KPWT 281014Z AUTO 06009KT 10SM OVC010 05/03 A3037 RMK AO2=
201901280956 METAR KPWT 280956Z AUTO 04010KT 10SM OVC008 06/03 A3036 RMK AO2 SLP300 T00560033=
201901280856 METAR KPWT 280856Z AUTO 04011G20KT 10SM OVC008 06/04 A3036 RMK AO2 SLP299 6//// T00560039 58005=
201901280756 METAR KPWT 280756Z AUTO 04013KT 10SM OVC008 05/04 A3037 RMK AO2 SLP304 T00500039 400561006=
201901280656 METAR KPWT 280656Z AUTO 06014G19KT 10SM OVC008 05/04 A3036 RMK AO2 SLP301 T00500039=
201901280607 SPECI KPWT 280607Z AUTO 03010G18KT 10SM OVC008 05/03 A3037 RMK AO2=
201901280556 METAR KPWT 280556Z AUTO 02011G17KT 10SM OVC010 05/03 A3037 RMK AO2 SLP305 6//// T00500033 10056 20050 52011=
201901280456 METAR KPWT 280456Z AUTO 03011KT 10SM OVC010 06/04 A3036 RMK AO2 SLP301 T00560039=
201901280356 METAR KPWT 280356Z AUTO 02007KT 10SM OVC010 06/04 A3035 RMK AO2 SLP298 T00560039=
201901280256 METAR KPWT 280256Z AUTO 03008KT 10SM OVC010 06/04 A3034 RMK AO2 SLP294 6//// T00560039=
201901280156 METAR KPWT 280156Z AUTO 04004KT 10SM OVC010 05/04 A3035 RMK AO2 CIG 006V012 SLP298 T00500039=
201901280129 SPECI KPWT 280129Z AUTO 04003KT 10SM OVC008 05/04 A3036 RMK AO2 CIG 005V010=
201901280056 METAR KPWT 280056Z AUTO 04008KT 10SM OVC005 05/04 A3035 RMK AO2 SLP297 T00500044=
201901272356 METAR KPWT 272356Z AUTO 05008KT 10SM OVC005 06/04 RMK AO2 SLPNO 6//// T00560044 10056 20050 $=
201901272256 METAR KPWT 272256Z AUTO 03005KT 10SM OVC005 06/04 A3037 RMK AO2 SLP303 T00560044=
201901272156 METAR KPWT 272156Z AUTO 03007KT 10SM OVC005 06/04 A3038 RMK AO2 SLP307 T00560044=
201901272056 METAR KPWT 272056Z AUTO 03006KT 10SM OVC005 06/04 A3038 RMK AO2 SLP308 6//// T00560044=
201901271956 METAR KPWT 271956Z AUTO 04006KT 10SM OVC005 06/04 A3039 RMK AO2 SLP310 T00560044=
201901271856 METAR KPWT 271856Z AUTO 9SM OVC003 05/04 RMK AO2 SLPNO T00500044 $=
201901271756 METAR KPWT 271756Z AUTO 36004KT 8SM OVC003 05/04 A3038 RMK AO2 SLP307 6//// T00500044 10050 20022 51009=
201901271656 METAR KPWT 271656Z AUTO 04005KT 10SM OVC003 04/04 A3037 RMK AO2 SLP305 T00440039=
201901271556 METAR KPWT 271556Z AUTO 03004KT 10SM OVC003 04/04 A3036 RMK AO2 SLP299 T00440039=
201901271456 METAR KPWT 271456Z AUTO 36004KT 4SM BR OVC003 03/03 A3035 RMK AO2 SLP297 T00330033 55000=
201901271444 SPECI KPWT 271444Z AUTO 34005KT 3SM BR OVC003 03/03 A3036 RMK AO2=
201901271415 SPECI KPWT 271415Z AUTO 33004KT 2SM BR OVC003 03/03 A3035 RMK AO2=
201901271356 METAR KPWT 271356Z AUTO 00000KT 3SM BR OVC003 03/03 A3034 RMK AO2 SLP292 T00330033=
201901271256 METAR KPWT 271256Z AUTO 05005KT 6SM BR OVC003 04/04 A3036 RMK AO2 SLP299 T00390039=
201901271222 SPECI KPWT 271222Z AUTO 6SM BR OVC003 04/04 A3035 RMK AO2=
201901271205 SPECI KPWT 271205Z AUTO 02004KT 6SM BR OVC005 03/03 A3035 RMK AO2 CIG 003V006=
201901271156 METAR KPWT 271156Z AUTO 04007KT 6SM BR OVC007 02/02 A3035 RMK AO2 SLP297 6//// 7//// T00220022 10050 21006 58005 FZRANO=
201901271129 SPECI KPWT 271129Z AUTO 00000KT 5SM BR BKN007 03/03 A3037 RMK AO2=
201901271058 SPECI KPWT 271058Z AUTO 04003KT 3SM BR FEW007 01/00 A3036 RMK AO2 FZRANO=
201901271056 METAR KPWT 271056Z AUTO 00000KT 1 1/4SM BR FEW007 01/00 A3036 RMK AO2 VIS 1/4V5 SLP301 T00060000 FZRANO=
201901271045 SPECI KPWT 271045Z AUTO 00000KT 1/4SM FZFG VV007 M01/M01 RMK AO2 FZRANO $=
201901271021 SPECI KPWT 271021Z AUTO 00000KT 1/2SM FG CLR 01/00 A3037 RMK AO2 FZRANO=
201901271017 SPECI KPWT 271017Z AUTO 00000KT 1/4SM FG VV002 01/00 A3037 RMK AO2 FZRANO=
201901271009 SPECI KPWT 271009Z AUTO 21004KT 1/2SM FG VV002 01/00 A3037 RMK AO2 FZRANO=
201901271007 SPECI KPWT 271007Z AUTO 21005KT 1SM BR CLR 01/00 A3037 RMK AO2 FZRANO=
201901270956 METAR KPWT 270956Z AUTO 00000KT 2 1/2SM BR CLR 02/01 A3036 RMK AO2 SLP300 T00170011 FZRANO=
201901270856 METAR KPWT 270856Z AUTO 04004KT 6SM BR CLR 03/03 A3037 RMK AO2 SLP302 6//// T00330028 58008=
201901270756 METAR KPWT 270756Z AUTO 02004KT 6SM BR CLR 04/03 A3038 RMK AO2 SLP307 T00390033 400941017=
201901270656 METAR KPWT 270656Z AUTO 03003KT 9SM CLR 04/03 A3039 RMK AO2 SLP309 T00440033=
201901270556 METAR KPWT 270556Z AUTO 05008KT 10SM CLR 05/04 A3039 RMK AO2 SLP310 6//// T00500039 10083 20050 58011=
201901270456 METAR KPWT 270456Z AUTO 07005KT 10SM CLR 06/03 A3041 RMK AO2 SLP316 T00560033=
201901270356 METAR KPWT 270356Z AUTO 03009KT 10SM CLR 06/04 A3042 RMK AO2 SLP320 T00560039=
201901270256 METAR KPWT 270256Z AUTO 05006KT 10SM CLR 06/04 A3042 RMK AO2 SLP322 6//// T00610039 55012=
201901270156 METAR KPWT 270156Z AUTO 05010KT 10SM CLR 07/04 A3042 RMK AO2 SLP320 T00670044=
201901270056 METAR KPWT 270056Z AUTO 04007KT 10SM CLR 07/05 A3044 RMK AO2 SLP328 T00720050=
201901262356 METAR KPWT 262356Z AUTO 04008KT 10SM CLR 08/05 A3046 RMK AO2 SLP335 T00830050 10094 20067 56015=
201901262256 METAR KPWT 262256Z AUTO 05010KT 10SM CLR 09/05 A3048 RMK AO2 SLP341 T00890050=
201901262156 METAR KPWT 262156Z AUTO 02010KT 10SM CLR 09/06 A3049 RMK AO2 SLP345 T00940056=
201901262056 METAR KPWT 262056Z AUTO 04009KT 10SM CLR 08/05 A3051 RMK AO2 SLP350 T00830050 58013=
201901261956 METAR KPWT 261956Z AUTO 05009KT 10SM CLR 08/05 A3052 RMK AO2 SLP355 T00830050=
201901261856 METAR KPWT 261856Z AUTO 06008KT 10SM CLR 08/05 A3054 RMK AO2 SLP361 T00780050=
201901261756 METAR KPWT 261756Z AUTO 03007KT 10SM CLR 07/04 A3054 RMK AO2 SLP364 6//// T00670044 10067 20028 53000=
201901261656 METAR KPWT 261656Z AUTO 04004KT 10SM CLR 05/04 A3054 RMK AO2 SLP363 T00500044=
201901261556 METAR KPWT 261556Z AUTO 05004KT 5SM BR CLR 03/02 A3054 RMK AO2 SLP362 T00280022=
201901261509 SPECI KPWT 261509Z AUTO 06006KT 5SM BR FEW002 03/03 A3055 RMK AO2=
201901261456 METAR KPWT 261456Z AUTO 05007KT 6SM BR CLR 03/03 A3054 RMK AO2 SLP361 6//// T00330028 51001=
201901261356 METAR KPWT 261356Z AUTO 04007KT 9SM CLR 04/03 A3054 RMK AO2 SLP363 T00390033=
201901261256 METAR KPWT 261256Z AUTO 04006KT 10SM CLR 04/03 A3054 RMK AO2 SLP363 T00390028=
201901261156 METAR KPWT 261156Z AUTO 03009KT 10SM CLR 04/03 A3054 RMK AO2 SLP361 6//// 7//// T00440033 10044 21017 58001=
201901261056 METAR KPWT 261056Z AUTO 02008KT 10SM CLR 04/03 A3056 RMK AO2 SLP366 T00390033=
201901260956 METAR KPWT 260956Z AUTO 03007KT 10SM CLR 03/03 A3055 RMK AO2 SLP363 T00330028=
201901260856 METAR KPWT 260856Z AUTO 00000KT 10SM CLR M01/M02 A3054 RMK AO2 SLP364 6//// T10111017 58001 FZRANO=
201901260756 METAR KPWT 260756Z AUTO 00000KT 10SM CLR M01/M01 A3055 RMK AO2 SLP365 T10061011 400831011 FZRANO=
201901260656 METAR KPWT 260656Z AUTO 00000KT 10SM CLR M01/M02 A3055 RMK AO2 SLP363 T10111017 FZRANO=
201901260619 SPECI KPWT 260619Z AUTO 00000KT 4SM BR CLR 00/M01 A3054 RMK AO2 FZRANO=
201901260609 SPECI KPWT 260609Z AUTO 00000KT 2SM BR CLR 00/M01 A3054 RMK AO2 VIS 1V5 FZRANO=
201901260556 METAR KPWT 260556Z AUTO 00000KT 7SM CLR M01/M01 A3055 RMK AO2 SLP364 6//// T10061011 10072 21006 50006 FZRANO=
201901260456 METAR KPWT 260456Z AUTO 00000KT 10SM CLR 01/01 A3055 RMK AO2 SLP364 T00110006 FZRANO=
201901260356 METAR KPWT 260356Z AUTO 00000KT 10SM CLR 01/00 A3054 RMK AO2 SLP363 T00110000 FZRANO=
201901260256 METAR KPWT 260256Z AUTO 04003KT 10SM CLR 02/01 A3053 RMK AO2 SLP357 T00170011 53005 FZRANO=
201901260156 METAR KPWT 260156Z AUTO 00000KT 10SM CLR 02/02 A3052 RMK AO2 SLP357 T00220017 FZRANO=
201901260056 METAR KPWT 260056Z AUTO 00000KT 10SM CLR 04/03 A3052 RMK AO2 SLP353 T00440028=
201901260026 SPECI KPWT 260026Z AUTO 00000KT 10SM SCT022 07/03 A3052 RMK AO2=
201901260015 SPECI KPWT 260015Z AUTO 02003KT 10SM BKN022 07/03 A3052 RMK AO2=
201901252356 METAR KPWT 252356Z AUTO 36005KT 10SM CLR 07/03 A3051 RMK AO2 SLP351 T00720033 10083 20061 53002=
201901252339 SPECI KPWT 252339Z AUTO 02004KT 10SM SCT022 07/03 A3051 RMK AO2=
201901252328 SPECI KPWT 252328Z AUTO 01008KT 10SM BKN022 07/03 A3051 RMK AO2=
201901252256 METAR KPWT 252256Z AUTO 01006KT 10SM SCT022 07/03 A3051 RMK AO2 SLP349 T00720033=
201901252056 METAR KPWT 252056Z AUTO 04009KT 10SM OVC022 08/04 A3051 RMK AO2 SLP351 T00830039 58001=
201901251956 METAR KPWT 251956Z AUTO 06004KT 10SM OVC028 07/04 A3052 RMK AO2 SLP354 T00720044=
201901251917 SPECI KPWT 251917Z AUTO 00000KT 10SM BKN028 07/04 A3051 RMK AO2=
201901251856 METAR KPWT 251856Z AUTO 00000KT 10SM BKN030 07/04 A3051 RMK AO2 SLP349 T00670044=
201901251756 METAR KPWT 251756Z AUTO 06004KT 10SM OVC032 06/05 A3051 RMK AO2 SLP351 T00610050 10061 20006 51014=
201901251656 METAR KPWT 251656Z AUTO 00000KT 3SM BR OVC034 04/04 A3050 RMK AO2 SLP347 T00390039=
201901251635 SPECI KPWT 251635Z AUTO 00000KT 2 1/2SM BR OVC034 03/02 A3048 RMK AO2=
201901251622 SPECI KPWT 251622Z AUTO 00000KT 1 1/2SM BR OVC034 02/02 A3048 RMK AO2 FZRANO=
201901251609 SPECI KPWT 251609Z AUTO 00000KT 2SM BR BKN034 01/01 A3048 RMK AO2 FZRANO=
201901251607 SPECI KPWT 251607Z AUTO 00000KT 1SM BR BKN036 01/01 A3048 RMK AO2 FZRANO=
201901251556 METAR KPWT 251556Z AUTO 00000KT 1/4SM FG SCT036 01/01 A3049 RMK AO2 SLP344 T00060006 FZRANO=
201901251552 SPECI KPWT 251552Z AUTO 00000KT 1SM BR FEW036 01/00 A3048 RMK AO2 PRESRR FZRANO=
201901251456 METAR KPWT 251456Z AUTO 00000KT 5SM BR BKN030 03/03 A3047 RMK AO2 SLP338 T00330028 55001=
201901251356 METAR KPWT 251356Z AUTO 00000KT 10SM OVC032 04/04 A3047 RMK AO2 SLP336 T00440039=
201901251256 METAR KPWT 251256Z AUTO 00000KT 10SM OVC030 05/04 A3047 RMK AO2 SLP336 T00500039=
201901251156 METAR KPWT 251156Z AUTO 00000KT 10SM OVC030 05/04 A3047 RMK AO2 SLP340 7//// T00500044 10056 20044 52000=
201901251056 METAR KPWT 251056Z AUTO 00000KT 10SM OVC030 04/04 A3047 RMK AO2 SLP338 T00440039=
201901250956 METAR KPWT 250956Z AUTO 00000KT 10SM OVC030 04/04 A3047 RMK AO2 SLP337 T00440039=
201901250856 METAR KPWT 250856Z AUTO 28004KT 10SM OVC030 05/04 A3047 RMK AO2 SLP340 T00500039 53010=
201901250756 METAR KPWT 250756Z AUTO 05003KT 10SM OVC030 05/04 A3046 RMK AO2 SLP332 T00500044 400780017=
201901250656 METAR KPWT 250656Z AUTO 04006KT 10SM OVC032 06/04 A3045 RMK AO2 SLP329 T00560044=
201901250556 METAR KPWT 250556Z AUTO 05004KT 10SM OVC032 05/04 A3044 RMK AO2 SLP328 6//// T00500044 10078 20017=
201901250456 METAR KPWT 250456Z AUTO 10004KT 5SM BR OVC034 04/04 A3044 RMK AO2 SLP326 T00390039=
201901250408 SPECI KPWT 250408Z AUTO 00000KT 6SM BR SCT009 OVC034 02/02 A3046 RMK AO2 FZRANO=
201901250349 SPECI KPWT 250349Z AUTO 00000KT 3SM BR SCT009 02/02 A3046 RMK AO2 FZRANO=
201901250340 SPECI KPWT 250340Z AUTO 00000KT 2SM BR FEW009 03/02 A3046 RMK AO2=
201901250325 SPECI KPWT 250325Z AUTO 00000KT 1 1/4SM BR CLR 03/02 A3045 RMK AO2=
201901250317 SPECI KPWT 250317Z AUTO 00000KT 3/4SM BR CLR 03/03 A3045 RMK AO2=
201901250309 SPECI KPWT 250309Z AUTO 00000KT 1/2SM FG VV011 03/03 A3045 RMK AO2=
201901250306 SPECI KPWT 250306Z AUTO 00000KT 3/4SM BR FEW001 03/03 A3045 RMK AO2=
201901250303 SPECI KPWT 250303Z AUTO 10003KT 2 1/2SM BR FEW001 SCT011 03/03 A3045 RMK AO2=
201901250300 SPECI KPWT 250300Z AUTO 10003KT 1SM BR FEW001 SCT011 03/03 A3045 RMK AO2=
201901250256 METAR KPWT 250256Z AUTO 10003KT 1/2SM FG SCT001 BKN011 03/03 RMK AO2 SLPNO T00330033 $=
201901250253 SPECI KPWT 250253Z AUTO 00000KT 1/2SM FG SCT001 BKN011 03/03 A3046 RMK AO2=
201901250243 SPECI KPWT 250243Z AUTO 00000KT 1/4SM FG BKN001 BKN011 OVC033 04/04 A3046 RMK AO2=
201901250239 SPECI KPWT 250239Z AUTO 00000KT 3/4SM BR BKN001 OVC033 04/04 A3046 RMK AO2=
201901250236 SPECI KPWT 250236Z AUTO 00000KT 2 1/2SM BR BKN001 OVC033 04/03 A3047 RMK AO2=
201901250216 SPECI KPWT 250216Z AUTO 00000KT 10SM FEW001 SCT033 04/04 A3047 RMK AO2=
201901250156 METAR KPWT 250156Z AUTO 00000KT 10SM CLR 04/04 A3047 RMK AO2 SLP339 T00440044=
201901250056 METAR KPWT 250056Z AUTO 00000KT 10SM CLR 07/06 A3046 RMK AO2 SLP333 T00670061=
201901242356 METAR KPWT 242356Z AUTO 00000KT 10SM FEW012 08/06 A3048 RMK AO2 SLP343 T00780056 10078 20061 55003=
201901242312 SPECI KPWT 242312Z AUTO 00000KT 10SM FEW028 08/06 A3048 RMK AO2=
201901242256 METAR KPWT 242256Z AUTO 00000KT 10SM BKN026 08/06 A3047 RMK AO2 SLP340 T00780056=
201901242156 METAR KPWT 242156Z AUTO 00000KT 10SM FEW011 BKN019 OVC025 07/06 A3047 RMK AO2 SLP339 T00720056=
201901242056 METAR KPWT 242056Z AUTO 00000KT 10SM OVC020 08/04 A3049 RMK AO2 SLP346 T00780044 58003=
201901242027 SPECI KPWT 242027Z AUTO 00000KT 10SM BKN016 OVC023 07/05 A3050 RMK AO2=
201901241956 METAR KPWT 241956Z AUTO 34003KT 10SM FEW007 OVC012 07/06 A3050 RMK AO2 SLP348 T00720056=
201901241949 SPECI KPWT 241949Z AUTO 00000KT 10SM SCT007 OVC012 07/06 A3049 RMK AO2=
201901241928 SPECI KPWT 241928Z AUTO 00000KT 10SM OVC009 07/06 A3049 RMK AO2 CIG 006V011=
201901241856 METAR KPWT 241856Z AUTO 04003KT 10SM FEW005 OVC011 07/06 A3050 RMK AO2 SLP349 T00670056=
201901241807 SPECI KPWT 241807Z AUTO 04003KT 9SM OVC011 06/05 A3051 RMK AO2=
201901241756 METAR KPWT 241756Z AUTO 05004KT 10SM OVC009 06/06 A3050 RMK AO2 SLP348 60000 T00610056 10061 20056 50001=
201901241706 SPECI KPWT 241706Z AUTO 00000KT 10SM OVC009 06/05 A3051 RMK AO2=
201901241656 METAR KPWT 241656Z AUTO 00000KT 8SM OVC011 06/05 A3051 RMK AO2 RAB23E38 SLP349 P0000 T00560050=
201901241615 SPECI KPWT 241615Z AUTO 07004KT 10SM OVC011 06/05 A3051 RMK AO2=
201901241556 METAR KPWT 241556Z AUTO 00000KT 10SM OVC009 06/05 A3051 RMK AO2 SLP349 T00560050=
201901241456 METAR KPWT 241456Z AUTO 00000KT 10SM OVC009 06/05 A3050 RMK AO2 SLP347 T00560050 53002=
201901241446 SPECI KPWT 241446Z AUTO 00000KT 7SM OVC009 06/05 A3050 RMK AO2=
201901241356 METAR KPWT 241356Z AUTO 00000KT 10SM OVC011 06/05 A3049 RMK AO2 SLP346 T00560050=
201901241256 METAR KPWT 241256Z AUTO 00000KT 10SM OVC013 06/05 A3049 RMK AO2 SLP344 T00560050=
201901241219 SPECI KPWT 241219Z AUTO 06003KT 10SM OVC013 06/05 A3048 RMK AO2=
201901241156 METAR KPWT 241156Z AUTO 04004KT 10SM OVC015 06/05 A3049 RMK AO2 SLP346 60006 70007 T00560050 10067 20056 51002=
201901241056 METAR KPWT 241056Z AUTO 00000KT 10SM OVC022 06/05 A3049 RMK AO2 RAE17 SLP346 P0001 T00560050=
201901240956 METAR KPWT 240956Z AUTO 09003KT 4SM -RA BR OVC016 06/06 A3051 RMK AO2 SLP352 P0003 T00610056=
201901240944 SPECI KPWT 240944Z AUTO 00000KT 3SM -RA BR OVC016 06/06 A3051 RMK AO2 P0003=
201901240937 SPECI KPWT 240937Z AUTO 11003KT 2 1/2SM -RA BR OVC014 06/06 A3051 RMK AO2 P0002=
201901240932 SPECI KPWT 240932Z AUTO 00000KT 3SM -RA BR OVC011 06/06 A3050 RMK AO2 P0002=
201901240922 SPECI KPWT 240922Z AUTO 00000KT 2 1/2SM -RA BR OVC011 06/06 A3050 RMK AO2 P0002=
201901240911 SPECI KPWT 240911Z AUTO 06003KT 2 1/2SM -RA BR BKN009 OVC013 06/06 A3050 RMK AO2 VIS 2V4 CIG 007V010 P0001=
201901240906 SPECI KPWT 240906Z AUTO 03003KT 3SM -RA BR SCT009 OVC013 06/06 A3050 RMK AO2 P0000=
201901240856 METAR KPWT 240856Z AUTO 00000KT 2 1/2SM -RA BR OVC013 06/06 A3049 RMK AO2 SLP344 P0002 60002 T00610056 50013=
201901240836 SPECI KPWT 240836Z AUTO 00000KT 2 1/2SM -RA BR BKN013 OVC020 06/06 A3049 RMK AO2 P0001=
201901240829 SPECI KPWT 240829Z AUTO 00000KT 3SM -RA BR BKN013 OVC022 06/06 A3049 RMK AO2 P0001=
201901240756 METAR KPWT 240756Z AUTO 00000KT 5SM -RA BR BKN022 OVC029 06/06 A3050 RMK AO2 SLP347 P0000 T00610056 401060056=
201901240745 SPECI KPWT 240745Z AUTO 00000KT 6SM BR FEW013 BKN024 OVC031 06/06 A3050 RMK AO2 RAE44 P0000=
201901240656 METAR KPWT 240656Z AUTO 00000KT 4SM -RA BR OVC013 06/06 A3047 RMK AO2 RAB46 SLP339 P0000 T00610056=
201901240556 METAR KPWT 240556Z AUTO 00000KT 10SM FEW011 OVC029 06/06 A3045 RMK AO2 SLP331 T00610056 10083 20056 53011=
201901240547 SPECI KPWT 240547Z AUTO 00000KT 10SM FEW011 OVC029 06/06 A3045 RMK AO2=
201901240456 METAR KPWT 240456Z AUTO 00000KT 10SM OVC034 06/06 A3043 RMK AO2 SLP324 T00610056=
201901240356 METAR KPWT 240356Z AUTO 00000KT 10SM OVC033 06/06 A3043 RMK AO2 SLP325 T00610056=
201901240256 METAR KPWT 240256Z AUTO 00000KT 10SM OVC031 06/05 A3042 RMK AO2 SLP320 T00560050 53013=
201901240224 SPECI KPWT 240224Z AUTO 00000KT 10SM BKN031 06/05 A3041 RMK AO2=
201901240156 METAR KPWT 240156Z AUTO 00000KT 10SM OVC025 07/06 A3040 RMK AO2 SLP313 T00720056=
201901240056 METAR KPWT 240056Z AUTO 00000KT 10SM OVC025 08/06 A3039 RMK AO2 SLP309 T00830056=
201901232356 METAR KPWT 232356Z AUTO 07004KT 10SM OVC023 08/06 A3038 RMK AO2 SLP305 T00830056 10089 20072 53009=
201901232304 SPECI KPWT 232304Z AUTO 07005KT 10SM SCT023 BKN028 08/06 A3036 RMK AO2=
201901232256 METAR KPWT 232256Z AUTO 10004KT 10SM SCT023 BKN030 BKN037 08/05 A3036 RMK AO2 SLP299 T00830050=
201901232227 SPECI KPWT 232227Z AUTO 04006KT 10SM SCT022 SCT037 09/06 A3035 RMK AO2=
201901232156 METAR KPWT 232156Z AUTO 04008KT 10SM OVC022 09/06 A3035 RMK AO2 SLP297 T00890056=
201901232056 METAR KPWT 232056Z AUTO 04006KT 10SM FEW012 OVC026 08/06 A3035 RMK AO2 SLP298 T00830056 53017=
201901231956 METAR KPWT 231956Z AUTO 04007KT 10SM FEW010 OVC028 08/06 A3032 RMK AO2 SLP290 T00830061=
201901231856 METAR KPWT 231856Z AUTO 04008KT 10SM FEW008 OVC024 08/06 A3030 RMK AO2 SLP280 T00780061=
201901231756 METAR KPWT 231756Z AUTO 04011KT 10SM OVC022 07/06 A3025 RMK AO2 PRESRR SLP264 60001 T00720056 10089 20067 53036=
201901231656 METAR KPWT 231656Z AUTO 04012KT 10SM OVC020 07/06 A3020 RMK AO2 RAE15 SLP246 P0000 T00670056=
201901231626 SPECI KPWT 231626Z AUTO 05009KT 5SM BR OVC016 07/06 A3017 RMK AO2 RAE15 P0000=
201901231556 METAR KPWT 231556Z AUTO 05008KT 3SM -RA BR OVC010 07/06 A3015 RMK AO2 RAB41 PRESRR SLP227 P0001 T00670061=
201901231553 SPECI KPWT 231553Z AUTO 06009KT 2 1/2SM -RA BR BKN010 OVC017 07/06 A3014 RMK AO2 RAB41 PRESRR P0001=
201901231546 SPECI KPWT 231546Z AUTO 04009KT 6SM -RA BR BKN008 OVC017 07/06 A3013 RMK AO2 RAB41 CIG 007V012 P0000=
201901231503 SPECI KPWT 231503Z AUTO 00000KT 10SM OVC010 08/07 A3009 RMK AO2=
201901231456 METAR KPWT 231456Z AUTO 23003KT 10SM OVC008 08/07 A3008 RMK AO2 SLP206 T00830072 53040=
201901231441 SPECI KPWT 231441Z AUTO 25005KT 10SM OVC008 09/08 A3007 RMK AO2=
201901231356 METAR KPWT 231356Z AUTO 23005KT 10SM BKN012 08/07 A3003 RMK AO2 PRESRR SLP189 T00830072=
201901231256 METAR KPWT 231256Z AUTO 21014G22KT 10SM SCT060 09/07 A2999 RMK AO2 PK WND 22027/1202 SLP174 T00890072=
201901231217 SPECI KPWT 231217Z AUTO 22018G25KT 10SM SCT010 09/07 A2996 RMK AO2 PK WND 22027/1202=
201901231156 METAR KPWT 231156Z AUTO 22016KT 10SM BKN010 09/08 A2996 RMK AO2 PK WND 21027/1101 SLP166 60009 70111 T00940078 10106 20072 51023=
201901231056 METAR KPWT 231056Z AUTO 22025G32KT 10SM BKN012 09/08 A2994 RMK AO2 PK WND 22032/1056 SLP157 T00940078=
201901231024 SPECI KPWT 231024Z AUTO 22023G30KT 10SM BKN012 BKN016 09/08 A2993 RMK AO2 PK WND 21031/1012=
201901230956 METAR KPWT 230956Z AUTO 22022G32KT 10SM OVC009 10/09 A2992 RMK AO2 PK WND 22032/0947 CIG 008V012 SLP152 T01000089=
201901230856 METAR KPWT 230856Z AUTO 22022G28KT 10SM OVC009 11/09 A2990 RMK AO2 PK WND 22033/0803 SLP142 60009 T01060094 58031=
201901230808 SPECI KPWT 230808Z AUTO 22018G33KT 10SM OVC007 11/09 A2992 RMK AO2 PK WND 22033/0803 CIG 004V009=
201901230756 METAR KPWT 230756Z AUTO 21018G25KT 10SM OVC005 10/09 A2993 RMK AO2 RAE51 CIG 003V009 SLP154 P0003 T01000094 401000039=
201901230656 METAR KPWT 230656Z AUTO 18010G20KT 7SM -RA OVC003 07/07 A2996 RMK AO2 SLP162 P0006 T00720067=
201901230623 SPECI KPWT 230623Z AUTO 19013G22KT 8SM -RA OVC003 07/07 A2997 RMK AO2 P0002=
201901230556 METAR KPWT 230556Z AUTO 19014G21KT 10SM -RA OVC005 07/07 A2999 RMK AO2 SLP173 P0014 60079 T00720067 10072 20050 58021=
201901230456 METAR KPWT 230456Z AUTO 19010KT 7SM RA OVC005 07/06 A3002 RMK AO2 SLP183 P0023 T00670061=
201901230356 METAR KPWT 230356Z AUTO 19012KT 8SM RA OVC005 06/05 A3002 RMK AO2 SLP185 P0018 T00560050=
201901230256 METAR KPWT 230256Z AUTO 19011KT 9SM -RA OVC005 06/05 A3005 RMK AO2 PRESFR SLP195 P0013 60024 T00560050 58046=
201901230156 METAR KPWT 230156Z AUTO 20011G16KT 5SM RA BR OVC005 05/04 A3012 RMK AO2 SLP218 P0007 T00500044=
201901230056 METAR KPWT 230056Z AUTO 19010KT 4SM -RA BR OVC005 05/04 A3015 RMK AO2 SLP229 P0004 T00500044=
201901230023 SPECI KPWT 230023Z AUTO 19010G17KT 4SM -RA BR OVC005 05/04 A3017 RMK AO2 P0002=
201901222256 METAR KPWT 222256Z AUTO 20010KT 7SM -RA OVC005 06/04 A3022 RMK AO2 SLP252 P0004 T00560044=
201901222246 SPECI KPWT 222246Z AUTO 19008KT 7SM -RA OVC005 06/05 A3023 RMK AO2 CIG 004V009 P0003=
201901222230 SPECI KPWT 222230Z AUTO 19009KT 6SM -RA BR OVC007 06/05 A3023 RMK AO2 CIG 004V009 P0002=
201901222156 METAR KPWT 222156Z AUTO 19012G17KT 7SM -RA OVC005 06/04 A3025 RMK AO2 SLP261 P0003 T00560044=
201901222056 METAR KPWT 222056Z AUTO 20010G18KT 7SM -RA OVC005 05/04 A3027 RMK AO2 SLP269 P0000 60003 T00500044=
201901221956 METAR KPWT 221956Z AUTO 19012KT 4SM -RA BR OVC005 05/04 RMK AO2 SLPNO P0002 T00500044 $=
201901221856 METAR KPWT 221856Z AUTO 20015G22KT 4SM -RA BR OVC005 05/04 A3031 RMK AO2 CIG 004V008 SLP283 P0001 T00500044=
201901221756 METAR KPWT 221756Z AUTO 19011G16KT 7SM -RA OVC005 05/04 A3033 RMK AO2 CIG 003V008 SLP291 P0002 60009 T00500044 10050 20044 56009=
201901221656 METAR KPWT 221656Z AUTO 19010KT 8SM -RA OVC005 05/04 A3034 RMK AO2 SLP292 P0003 T00500044=
201901221556 METAR KPWT 221556Z AUTO 19009KT 5SM -RA BR OVC005 04/04 A3035 RMK AO2 SLP295 P0004 T00440039=
201901221503 SPECI KPWT 221503Z AUTO 21006KT 6SM -RA BR BKN005 BKN022 OVC033 04/04 A3036 RMK AO2 CIG 004V009 P0000=
201901221456 METAR KPWT 221456Z AUTO 21008KT 9SM -RA SCT007 BKN024 OVC033 04/04 A3036 RMK AO2 SLP299 P0000 60000 T00440039 55002=
201901221438 SPECI KPWT 221438Z AUTO 20008KT 10SM -RA FEW007 BKN026 OVC031 04/04 A3035 RMK AO2 P0000=
201901221424 SPECI KPWT 221424Z AUTO 19008KT 10SM -RA BKN027 OVC035 05/04 A3035 RMK AO2 P0000=
201901221356 METAR KPWT 221356Z AUTO 19009G18KT 10SM -RA BKN036 05/04 A3035 RMK AO2 RAE10B28 SLP299 P0000 T00500039=
201901221332 SPECI KPWT 221332Z AUTO 20012KT 10SM -RA SCT007 05/04 A3035 RMK AO2 RAE10B28 P0000=
201901221256 METAR KPWT 221256Z AUTO 20010KT 10SM -RA BKN007 OVC024 04/04 A3035 RMK AO2 RAE02B30 SLP298 P0000 T00440039=
201901221231 SPECI KPWT 221231Z AUTO 22009KT 10SM -RA BKN009 BKN030 OVC042 04/04 A3037 RMK AO2 RAE02B30 CIG 007V011 P0000=
201901221156 METAR KPWT 221156Z AUTO 20011KT 10SM -RA FEW009 BKN036 BKN046 05/04 A3037 RMK AO2 RAB39 SLP301 P0000 6//// 7//// T00500039 10050 20011 58007=
201901221141 SPECI KPWT 221141Z AUTO 20010G15KT 10SM -RA SCT009 BKN033 OVC049 05/04 A3038 RMK AO2 RAB39 P0000=
201901221056 METAR KPWT 221056Z AUTO 20009KT 10SM BKN007 OVC027 05/04 A3039 RMK AO2 CIG 006V011 SLP308 T00500039=
201901221053 SPECI KPWT 221053Z AUTO 19010KT 10SM BKN007 OVC027 04/04 A3039 RMK AO2 CIG 006V011=
201901220956 METAR KPWT 220956Z AUTO 19007KT 9SM FEW003 BKN027 BKN046 04/04 A3039 RMK AO2 SLP309 T00390039=
201901220949 SPECI KPWT 220949Z AUTO 20008KT 9SM SCT003 BKN027 04/04 A3039 RMK AO2=
201901220856 METAR KPWT 220856Z AUTO 20005KT 5SM BR OVC003 04/03 A3040 RMK AO2 SLP315 6//// T00390033 58001=
201901220846 SPECI KPWT 220846Z AUTO 20005KT 3SM BR OVC003 04/03 A3040 RMK AO2=
201901220816 SPECI KPWT 220816Z AUTO 20006KT 1 1/4SM BR OVC003 04/03 A3040 RMK AO2=
201901220807 SPECI KPWT 220807Z AUTO 20005KT 3/4SM BR OVC003 04/03 A3041 RMK AO2=
201901220716 SPECI KPWT 220716Z AUTO 20006KT 1/2SM FG OVC003 03/03 A3041 RMK AO2=
201901220656 METAR KPWT 220656Z AUTO 20006KT 3/4SM BR OVC003 03/03 A3042 RMK AO2 SLP320 T00330033=
201901220643 SPECI KPWT 220643Z AUTO 20006KT 1SM BR OVC003 03/03 A3041 RMK AO2=
201901220632 SPECI KPWT 220632Z AUTO 19005KT 1 3/4SM BR OVC003 03/03 A3041 RMK AO2=
201901220624 SPECI KPWT 220624Z AUTO 19004KT 4SM BR BKN003 03/02 A3041 RMK AO2=
201901220614 SPECI KPWT 220614Z AUTO 20004KT 8SM SCT003 02/01 A3041 RMK AO2 FZRANO=
201901220556 METAR KPWT 220556Z AUTO 00000KT 10SM CLR 01/01 A3041 RMK AO2 SLP315 6//// T00110006 10067 20006 51005 FZRANO=
201901220456 METAR KPWT 220456Z AUTO 00000KT 9SM CLR 01/01 A3040 RMK AO2 SLP314 T00060006 FZRANO=
201901220356 METAR KPWT 220356Z AUTO 00000KT 10SM CLR 01/00 A3041 RMK AO2 SLP315 T00060000 FZRANO=
201901220310 SPECI KPWT 220310Z AUTO 00000KT 3SM BR CLR 01/00 A3039 RMK AO2 FZRANO=
201901220306 SPECI KPWT 220306Z AUTO 00000KT 1 3/4SM BR CLR 01/00 A3039 RMK AO2 VIS 1V5 FZRANO=
201901220256 METAR KPWT 220256Z AUTO 00000KT 7SM CLR 01/00 A3039 RMK AO2 SLP310 T00060000 50004 FZRANO=
201901220156 METAR KPWT 220156Z AUTO 00000KT 9SM CLR 01/01 A3040 RMK AO2 SLP314 T00110006 FZRANO=
201901220056 METAR KPWT 220056Z AUTO 00000KT 10SM CLR 03/02 A3039 RMK AO2 SLP311 T00280017=
201901212356 METAR KPWT 212356Z AUTO 00000KT 10SM SCT050 07/03 A3038 RMK AO2 SLP307 60000 T00670028 10072 20044 53012=
201901212256 METAR KPWT 212256Z AUTO 00000KT 10SM CLR 07/02 A3036 RMK AO2 SLP302 T00720022=
201901212156 METAR KPWT 212156Z AUTO 19005KT 10SM FEW011 SCT020 SCT046 07/03 A3035 RMK AO2 SLP294 T00670033=
201901212119 SPECI KPWT 212119Z AUTO 00000KT 10SM FEW009 SCT027 BKN035 06/03 A3034 RMK AO2=
201901212056 METAR KPWT 212056Z AUTO 25003KT 10SM FEW009 BKN027 OVC034 06/04 A3035 RMK AO2 RAB05E37 SLP295 P0000 60000 T00610044 51024=
201901212019 SPECI KPWT 212019Z AUTO 00000KT 7SM -RA BKN026 OVC033 05/04 A3034 RMK AO2 RAB05 P0000=
201901211956 METAR KPWT 211956Z AUTO 20003KT 10SM BKN034 OVC044 05/03 A3033 RMK AO2 SLP290 T00500033=
201901211920 SPECI KPWT 211920Z AUTO 00000KT 10SM BKN030 BKN035 OVC050 05/03 A3032 RMK AO2=
201901211856 METAR KPWT 211856Z AUTO 21003KT 10SM BKN026 OVC050 05/03 A3032 RMK AO2 SLP286 T00500033=
201901211756 METAR KPWT 211756Z AUTO 02003KT 10SM SCT029 BKN036 04/03 A3027 RMK AO2 UPB23E35RAB35E53 SLP271 P0000 6//// T00440033 10044 21017 51028=
201901211749 SPECI KPWT 211749Z AUTO 02005KT 10SM -RA FEW025 BKN033 04/04 A3027 RMK AO2 UPB23E35RAB35 P0000=
201901211706 SPECI KPWT 211706Z AUTO 00000KT 9SM BKN027 OVC044 01/01 A3025 RMK AO2 FZRANO=
201901211556 METAR KPWT 211556Z AUTO 00000KT 10SM OVC046 M01/M01 A3022 RMK AO2 SLP252 T10061011 FZRANO=
201901211518 SPECI KPWT 211518Z AUTO 00000KT 3SM BR BKN035 BKN046 M02/M02 A3020 RMK AO2 FZRANO=
201901211514 SPECI KPWT 211514Z AUTO 00000KT 1 1/4SM BR BKN035 M02/M02 A3020 RMK AO2 FZRANO=
201901211508 SPECI KPWT 211508Z AUTO 00000KT 3/4SM BR BKN035 M02/M02 A3020 RMK AO2 FZRANO=
201901211456 METAR KPWT 211456Z AUTO 00000KT 1SM BR CLR M01/M02 A3019 RMK AO2 VIS 1/2V5 SLP241 T10111017 53024 FZRANO=
201901211449 SPECI KPWT 211449Z AUTO 00000KT 2SM BR CLR M01/M01 A3019 RMK AO2 FZRANO=
201901211438 SPECI KPWT 211438Z AUTO 00000KT 1SM BR CLR M01/M02 A3018 RMK AO2 FZRANO=
201901211427 SPECI KPWT 211427Z AUTO 00000KT 1 3/4SM BR CLR M01/M01 A3017 RMK AO2 FZRANO=
201901211356 METAR KPWT 211356Z AUTO 00000KT 10SM FEW044 M01/M01 A3016 RMK AO2 SLP232 T10061006 FZRANO=
201901211256 METAR KPWT 211256Z AUTO 00000KT 10SM OVC044 M01/M01 A3014 RMK AO2 SLP224 T10061006 FZRANO=
201901211156 METAR KPWT 211156Z AUTO 00000KT 10SM OVC041 M01/M01 A3012 RMK AO2 SLP217 6//// 7//// T10111011 11006 21028 51020 FZRANO=
201901211056 METAR KPWT 211056Z AUTO 00000KT 10SM BKN045 M01/M01 A3010 RMK AO2 SLP213 T10111011 FZRANO=
201901211034 SPECI KPWT 211034Z AUTO 00000KT 10SM SCT025 M01/M02 A3009 RMK AO2 FZRANO=
201901210956 METAR KPWT 210956Z AUTO 00000KT 10SM BKN025 M02/M02 A3008 RMK AO2 SLP204 T10171017 FZRANO=
201901210913 SPECI KPWT 210913Z AUTO 00000KT 10SM BKN025 M02/M02 A3006 RMK AO2 FZRANO=
201901210856 METAR KPWT 210856Z AUTO 00000KT 10SM CLR M03/M03 A3006 RMK AO2 SLP197 6//// T10281028 53021 FZRANO=
201901210756 METAR KPWT 210756Z AUTO 00000KT 10SM CLR M02/M02 A3004 RMK AO2 SLP189 T10221022 400781022 FZRANO=
201901210556 METAR KPWT 210556Z AUTO 00000KT 8SM CLR M02/M02 A3000 RMK AO2 SLP176 T10171017 10067 21017 53016 FZRANO=
201901210508 SPECI KPWT 210508Z AUTO 00000KT 10SM SCT027 SCT037 M01/M01 A2998 RMK AO2 FZRANO=
201901210456 METAR KPWT 210456Z AUTO 00000KT 10SM BKN027 BKN037 M01/M01 A2997 RMK AO2 SLP168 T10061011 FZRANO=
201901210447 SPECI KPWT 210447Z AUTO 00000KT 9SM SCT027 SCT037 M01/M01 A2997 RMK AO2 FZRANO=
201901210440 SPECI KPWT 210440Z AUTO 00000KT 7SM BKN027 M01/M01 A2996 RMK AO2 FZRANO=
201901210356 METAR KPWT 210356Z AUTO 00000KT 9SM CLR M01/M01 A2996 RMK AO2 SLP162 T10061011 FZRANO=
201901210348 SPECI KPWT 210348Z AUTO 00000KT 2SM BR CLR M01/M01 A2996 RMK AO2 VIS 3/4V5 FZRANO=
201901210256 METAR KPWT 210256Z AUTO 00000KT 10SM CLR 01/00 A2995 RMK AO2 SLP160 T00060000 53007 FZRANO=
201901210156 METAR KPWT 210156Z AUTO 00000KT 10SM FEW032 03/01 A2994 RMK AO2 SLP158 T00280011=
201901210056 METAR KPWT 210056Z AUTO 04003KT 10SM FEW028 04/02 A2993 RMK AO2 SLP154 T00440022=
201901210051 SPECI KPWT 210051Z AUTO 00000KT 10SM SCT028 05/02 A2993 RMK AO2=
201901202356 METAR KPWT 202356Z AUTO 35003KT 10SM OVC022 07/03 A2991 RMK AO2 SLP149 T00670033 10078 20056 53007=
201901202316 SPECI KPWT 202316Z AUTO 36006KT 10SM BKN020 07/03 A2990 RMK AO2=
201901202256 METAR KPWT 202256Z AUTO 03009KT 10SM FEW022 08/03 A2989 RMK AO2 SLP141 T00780033=
201901202156 METAR KPWT 202156Z AUTO 03004KT 10SM SCT021 07/03 A2989 RMK AO2 SLP141 T00720033=
201901202130 SPECI KPWT 202130Z AUTO 01008KT 10SM BKN021 07/03 A2989 RMK AO2=
201901202056 METAR KPWT 202056Z AUTO 34004KT 10SM SCT021 08/04 A2989 RMK AO2 SLP141 T00780039 58004=
201901201956 METAR KPWT 201956Z AUTO 26003KT 10SM CLR 06/04 A2989 RMK AO2 SLP142 T00610044=
201901201856 METAR KPWT 201856Z AUTO 05004KT 10SM CLR 06/03 A2991 RMK AO2 SLP149 T00610033=
201901201756 METAR KPWT 201756Z AUTO 03005KT 10SM CLR 06/04 A2990 RMK AO2 SLP146 6//// T00560039 10056 20011=
201901201656 METAR KPWT 201656Z AUTO 06008KT 10SM CLR 05/03 RMK AO2 SLPNO T00500033 $=
201901201556 METAR KPWT 201556Z AUTO 05007KT 10SM BKN110 04/04 A2992 RMK AO2 SLP150 T00440039=
201901201456 METAR KPWT 201456Z AUTO 05008KT 10SM CLR 04/04 A2992 RMK AO2 SLP152 6//// T00440039 56032=
201901201420 SPECI KPWT 201420Z AUTO 02006KT 10SM FEW007 04/03 A2994 RMK AO2=
201901201356 METAR KPWT 201356Z AUTO 02007KT 10SM CLR 04/03 A2995 RMK AO2 SLP159 T00390033=
201901201256 METAR KPWT 201256Z AUTO 04003KT 10SM CLR 02/02 A2998 RMK AO2 SLP170 T00220022 FZRANO=
201901201156 METAR KPWT 201156Z AUTO 00000KT 3SM BR CLR 01/01 A3002 RMK AO2 SLP185 6//// 7//// T00110011 10044 20011 58027 FZRANO=
201901201056 METAR KPWT 201056Z AUTO 00000KT 7SM CLR 02/01 A3005 RMK AO2 SLP196 T00170011 FZRANO=
201901200956 METAR KPWT 200956Z AUTO 00000KT 10SM CLR 02/02 A3007 RMK AO2 SLP202 T00170017 FZRANO=
201901200856 METAR KPWT 200856Z AUTO 00000KT 10SM CLR 01/01 A3010 RMK AO2 SLP212 6//// T00110011 58019 FZRANO=
201901200849 SPECI KPWT 200849Z AUTO 00000KT 10SM CLR 01/01 A3011 RMK AO2 FZRANO=
201901200840 SPECI KPWT 200840Z AUTO 00000KT 2 1/2SM BR CLR 01/01 A3011 RMK AO2 VIS 1 1/4V5 FZRANO=
201901200833 SPECI KPWT 200833Z AUTO 00000KT 1 3/4SM BR CLR 01/01 A3011 RMK AO2 VIS 1V5 FZRANO=
201901200825 SPECI KPWT 200825Z AUTO 00000KT 1SM BR CLR 01/01 A3012 RMK AO2 FZRANO=
201901200812 SPECI KPWT 200812Z AUTO 00000KT 1/2SM FG CLR 01/01 A3013 RMK AO2 FZRANO=
201901200756 METAR KPWT 200756Z AUTO 00000KT 1/4SM FG CLR 02/02 A3013 RMK AO2 SLP223 T00220017 400890017 FZRANO=
201901200753 SPECI KPWT 200753Z AUTO 00000KT 1/2SM FG CLR 02/02 A3013 RMK AO2 400890017 FZRANO=
201901200749 SPECI KPWT 200749Z AUTO 00000KT 1 3/4SM BR CLR 02/01 A3013 RMK AO2 FZRANO=
201901200745 SPECI KPWT 200745Z AUTO 00000KT 3SM BR CLR 02/02 A3013 RMK AO2 FZRANO=
201901200739 SPECI KPWT 200739Z AUTO 00000KT 1 1/4SM BR FEW001 02/02 A3014 RMK AO2 FZRANO=
201901200733 SPECI KPWT 200733Z AUTO 00000KT 3/4SM BR VV001 02/02 A3014 RMK AO2 FZRANO=
201901200727 SPECI KPWT 200727Z AUTO 00000KT 1/2SM FG VV002 02/02 A3014 RMK AO2 FZRANO=
201901200713 SPECI KPWT 200713Z AUTO 00000KT 1/4SM FG BKN001 02/02 A3015 RMK AO2 FZRANO=
201901200706 SPECI KPWT 200706Z AUTO 00000KT 1/2SM FG OVC001 03/02 A3015 RMK AO2=
201901200656 METAR KPWT 200656Z AUTO 03003KT 3/4SM BR OVC001 03/03 A3015 RMK AO2 SLP228 T00280028=
201901200649 SPECI KPWT 200649Z AUTO 05003KT 1 3/4SM BR BKN001 03/02 A3015 RMK AO2=
201901200643 SPECI KPWT 200643Z AUTO 00000KT 5SM BR BKN001 03/02 A3015 RMK AO2=
201901200634 SPECI KPWT 200634Z AUTO 00000KT 9SM SCT001 03/02 A3015 RMK AO2=
201901200556 METAR KPWT 200556Z AUTO 00000KT 5SM BR CLR 02/02 A3016 RMK AO2 SLP231 6//// T00220017 10078 20017 55003 FZRANO=
201901200516 SPECI KPWT 200516Z AUTO 00000KT 9SM FEW005 02/02 A3015 RMK AO2 FZRANO=
201901200456 METAR KPWT 200456Z AUTO 00000KT 10SM CLR 02/02 A3015 RMK AO2 SLP229 T00220022 FZRANO=
201901200356 METAR KPWT 200356Z AUTO 00000KT 10SM CLR 05/04 A3015 RMK AO2 SLP229 T00500039=
201901200156 METAR KPWT 200156Z AUTO 20008KT 10SM FEW080 06/05 A3016 RMK AO2 SLP234 T00560050=
201901200056 METAR KPWT 200056Z AUTO 10SM SCT100 07/05 A3016 RMK AO2 SLP234 T00670050=
201901200021 SPECI KPWT 200021Z AUTO 21009KT 10SM FEW016 BKN110 07/06 A3016 RMK AO2=
201901192356 METAR KPWT 192356Z AUTO 20008KT 10SM BKN016 OVC023 08/07 A3016 RMK AO2 RAE49 SLP232 P0004 6//// T00780067 10089 20072 53006=
201901192320 SPECI KPWT 192320Z AUTO 21006KT 8SM -RA BKN023 BKN031 OVC048 08/07 A3015 RMK AO2 P0000=
201901192256 METAR KPWT 192256Z AUTO 19006KT 10SM -RA FEW014 SCT027 BKN055 08/07 A3015 RMK AO2 RAB42 SLP228 P0000 T00830072=
201901192239 SPECI KPWT 192239Z AUTO 20009KT 10SM SCT010 BKN018 08/07 A3015 RMK AO2=
201901192156 METAR KPWT 192156Z AUTO 19007KT 10SM OVC012 08/07 A3014 RMK AO2 RAE14 SLP226 P0000 T00830072=
201901192151 SPECI KPWT 192151Z AUTO 20007KT 10SM OVC012 08/07 A3014 RMK AO2 RAE14 P0000=
201901192056 METAR KPWT 192056Z AUTO 20006KT 10SM -RA FEW012 BKN029 OVC036 08/07 A3014 RMK AO2 RAB37 SLP228 P0000 6//// T00780067 51005=
201901192046 SPECI KPWT 192046Z AUTO 21006KT 10SM -RA SCT014 BKN036 OVC043 08/07 A3014 RMK AO2 RAB37 P0000=
201901191956 METAR KPWT 191956Z AUTO 20008KT 10SM OVC015 08/07 A3013 RMK AO2 SLP223 T00830067=
201901191856 METAR KPWT 191856Z AUTO 21006KT 10SM OVC018 08/06 A3014 RMK AO2 SLP227 T00780061=
201901191810 SPECI KPWT 191810Z AUTO 20005KT 10SM BKN023 OVC031 08/06 A3014 RMK AO2=
201901191756 METAR KPWT 191756Z AUTO 19007KT 10SM FEW026 BKN031 BKN040 07/06 A3013 RMK AO2 SLP220 6//// T00720061 10078 20067=
201901191656 METAR KPWT 191656Z AUTO 20007KT 9SM FEW013 07/06 A3010 RMK AO2 RAE36 SLP212 P0001 T00670061=
201901191646 SPECI KPWT 191646Z AUTO 20008KT 9SM SCT014 07/06 A3010 RMK AO2 RAE36 P0001=
201901191610 SPECI KPWT 191610Z AUTO 22004KT 7SM -RA BKN022 BKN027 BKN033 07/06 A3008 RMK AO2 P0000=
201901191556 METAR KPWT 191556Z AUTO 18006KT 6SM -RA BR FEW022 BKN035 BKN043 07/06 RMK AO2 RAB41 SLPNO T00720061 $=
201901191456 METAR KPWT 191456Z AUTO 20008KT 10SM FEW014 07/06 A3006 RMK AO2 SLP198 T00670056 53028=
201901191356 METAR KPWT 191356Z AUTO 20009KT 8SM CLR 07/06 A3003 RMK AO2 SLP187 T00720061=
201901191256 METAR KPWT 191256Z AUTO 20012KT 8SM CLR 08/07 A3000 RMK AO2 SLP177 T00780067=
201901191156 METAR KPWT 191156Z AUTO 20013KT 8SM CLR 08/07 A2997 RMK AO2 SLP169 6//// 7//// T00780072 10083 20050=
201901191118 SPECI KPWT 191118Z AUTO 21014G21KT 9SM SCT009 08/07 A2994 RMK AO2=
201901191056 METAR KPWT 191056Z AUTO 20016G22KT 10SM BKN009 OVC055 08/08 A2993 RMK AO2 RAB04E17 CIG 005V012 SLP154 P0000 T00830078=
201901191035 SPECI KPWT 191035Z AUTO 19012KT 10SM FEW004 BKN009 OVC055 08/08 A2992 RMK AO2 RAB04E17 CIG 007V016 P0000=
201901191025 SPECI KPWT 191025Z AUTO 19011G17KT 10SM BKN004 OVC011 08/08 A2992 RMK AO2 RAB04E17 CIG 003V009 P0000=
201901190956 METAR KPWT 190956Z AUTO 21010KT 10SM OVC003 07/07 A2990 RMK AO2 RAE45 SLP143 P0005 T00720072=
201901190856 METAR KPWT 190856Z AUTO 21006KT 10SM -RA OVC003 06/05 RMK AO2 SLPNO P0003 60015 T00560050 $=
201901190840 SPECI KPWT 190840Z AUTO 21005KT 4SM -RA BR BKN003 OVC007 06/05 A2986 RMK AO2 CIG 002V006 P0003=
201901190756 METAR KPWT 190756Z AUTO 21006KT 3SM -RA BR OVC009 06/05 A2986 RMK AO2 CIG 005V012 SLP130 P0006 T00560050 400780050=
201901190710 SPECI KPWT 190710Z AUTO 00000KT 4SM -RA BR FEW003 BKN007 OVC020 06/05 A2984 RMK AO2 P0002=
201901190704 SPECI KPWT 190704Z AUTO 00000KT 4SM -RA BR FEW003 SCT007 OVC019 06/05 A2984 RMK AO2 P0002=
201901190656 METAR KPWT 190656Z AUTO 19003KT 4SM -RA BR SCT003 BKN007 OVC019 06/05 A2984 RMK AO2 CIG 006V010 SLP123 P0006 T00560050=
201901190653 SPECI KPWT 190653Z AUTO 20004KT 3SM -RA BR SCT003 BKN007 OVC017 06/05 A2984 RMK AO2 P0006=
201901190640 SPECI KPWT 190640Z AUTO 00000KT 2SM -RA BR OVC006 06/05 A2984 RMK AO2 CIG 003V011 P0005=
201901190610 SPECI KPWT 190610Z AUTO 00000KT 3SM -RA BR SCT004 OVC009 06/05 A2983 RMK AO2 CIG 007V011 P0002=
201901190556 METAR KPWT 190556Z AUTO 00000KT 4SM -RA BR FEW002 BKN011 OVC029 05/05 A2983 RMK AO2 SLP120 P0009 60058 T00500050 10067 20050 58009=
201901190542 SPECI KPWT 190542Z AUTO 18003KT 2 1/2SM -RA BR FEW002 OVC011 06/05 A2983 RMK AO2 CIG 008V014 P0007=
201901190430 SPECI KPWT 190430Z AUTO 00000KT 7SM -RA BKN009 BKN018 OVC034 05/04 A2985 RMK AO2 P0004=
201901190356 METAR KPWT 190356Z AUTO 31003KT 7SM -RA FEW003 BKN024 OVC029 05/04 A2986 RMK AO2 PRESFR SLP129 P0006 T00500044=
201901190319 SPECI KPWT 190319Z AUTO VRB04KT 6SM -RA BR BKN027 BKN032 OVC041 06/05 A2988 RMK AO2 P0001=
201901190256 METAR KPWT 190256Z AUTO 34003KT 10SM -RA FEW030 OVC044 06/06 A2988 RMK AO2 SLP137 P0012 60034 T00610056 58035=
201901190156 METAR KPWT 190156Z AUTO 32003KT 9SM RA OVC033 07/06 A2994 RMK AO2 SLP157 P0010 T00670061=
201901190117 SPECI KPWT 190117Z AUTO 29004KT 10SM -RA OVC031 07/06 A2996 RMK AO2 P0002=
201901190056 METAR KPWT 190056Z AUTO 30004KT 7SM -RA FEW009 BKN026 OVC031 07/06 A2997 RMK AO2 SLP170 P0012 T00670061=
201901190037 SPECI KPWT 190037Z AUTO 00000KT 3SM RA BR FEW002 SCT009 OVC028 07/06 A2998 RMK AO2 P0008=
201901190026 SPECI KPWT 190026Z AUTO 00000KT 2 1/2SM RA BR FEW002 OVC030 07/06 A2999 RMK AO2 P0005=
201901182356 METAR KPWT 182356Z AUTO 00000KT 4SM -RA BR FEW026 OVC032 07/06 A2999 RMK AO2 SLP174 P0005 6//// T00670061 10078 20067 58027=
201901182256 METAR KPWT 182256Z AUTO 25003KT 10SM -RA FEW030 OVC041 07/06 A3003 RMK AO2 RAB30 SLP189 P0000 T00720061=
201901182216 SPECI KPWT 182216Z AUTO 00000KT 10SM FEW005 SCT070 08/06 A3004 RMK AO2=
201901182156 METAR KPWT 182156Z AUTO 00000KT 10SM OVC065 08/06 A3004 RMK AO2 RAB01E20 SLP193 P0000 T00780061=
201901182056 METAR KPWT 182056Z AUTO 23004KT 10SM BKN040 OVC050 07/06 A3007 RMK AO2 SLP201 6//// T00720061 58014=
201901181956 METAR KPWT 181956Z AUTO 23006KT 10SM FEW055 07/06 A3010 RMK AO2 SLP211 T00720061=
201901181907 SPECI KPWT 181907Z AUTO 22009KT 10SM SCT008 SCT050 07/06 A3012 RMK AO2=
201901181856 METAR KPWT 181856Z AUTO 22009KT 10SM CLR 07/06 A3012 RMK AO2 SLP218 T00720061=
201901181756 METAR KPWT 181756Z AUTO 21014KT 10SM FEW044 07/06 A3011 RMK AO2 SLP215 60005 T00670056 10067 20056 50006=
201901181656 METAR KPWT 181656Z AUTO 20008KT 10SM SCT008 SCT013 BKN031 06/05 A3011 RMK AO2 RAE31 SLP217 P0001 T00610050=
201901181654 SPECI KPWT 181654Z AUTO 20008KT 10SM SCT008 BKN013 OVC050 06/05 A3011 RMK AO2 RAE31 P0001=
201901181647 SPECI KPWT 181647Z AUTO 21008KT 10SM SCT008 BKN027 OVC050 06/05 A3011 RMK AO2 RAE31 P0001=
201901181610 SPECI KPWT 181610Z AUTO 18008KT 10SM -RA SCT007 BKN037 06/05 A3010 RMK AO2 P0000=
201901181556 METAR KPWT 181556Z AUTO 19007KT 10SM -RA BKN007 BKN031 06/05 A3009 RMK AO2 RAB24 CIG 005V013 SLP209 P0002 T00560050=
201901181552 SPECI KPWT 181552Z AUTO 19008KT 10SM -RA BKN007 BKN033 06/05 RMK AO2 RAB24 CIG 005V009 P0002 $=
201901181518 SPECI KPWT 181518Z AUTO 19009KT 10SM SCT007 BKN032 BKN039 06/05 A3008 RMK AO2=
201901181456 METAR KPWT 181456Z AUTO 19009G17KT 10SM BKN007 OVC029 06/05 A3008 RMK AO2 RAB09E41 CIG 005V011 SLP206 P0000 60002 T00610050 51012=
201901181428 SPECI KPWT 181428Z AUTO 18008G14KT 10SM BKN007 BKN021 06/06 A3008 RMK AO2 RAB09E25 CIG 005V009 P0000=
201901181424 SPECI KPWT 181424Z AUTO 19009KT 10SM -RA SCT007 SCT021 06/06 A3008 RMK AO2 RAB09 P0000=
201901181356 METAR KPWT 181356Z AUTO 18009KT 10SM SCT007 BKN027 BKN048 06/06 A3007 RMK AO2 RAB1258E51 SLP201 P0000 T00610056=
201901181353 SPECI KPWT 181353Z AUTO 19009KT 10SM SCT007 BKN027 OVC048 06/06 A3007 RMK AO2 RAB1258E51 P0000=
201901181256 METAR KPWT 181256Z AUTO 19009KT 10SM BKN009 BKN023 OVC031 06/06 A3005 RMK AO2 RAE10B26E48 CIG 006V012 SLP193 P0002 T00610056=
201901181227 SPECI KPWT 181227Z AUTO 19010KT 10SM -RA SCT007 BKN023 BKN029 07/06 A3003 RMK AO2 RAE10B26 P0001=
201901181202 SPECI KPWT 181202Z AUTO 21005KT 7SM -RA BKN007 BKN013 OVC034 06/06 A3002 RMK AO2 CIG 004V010 P0001=
201901181156 METAR KPWT 181156Z AUTO 20006KT 7SM -RA SCT007 BKN023 OVC034 07/06 A3002 RMK AO2 RAE33B55 SLP183 P0002 6//// 7//// T00670056 10078 20067=
201901181153 SPECI KPWT 181153Z AUTO 21008KT 10SM FEW007 BKN023 OVC080 07/06 A3002 RMK AO2 RAE33 P0002=
201901181132 SPECI KPWT 181132Z AUTO 21010KT 10SM -RA FEW014 BKN042 OVC080 07/05 A3001 RMK AO2 P0002=
201901181110 SPECI KPWT 181110Z AUTO 20010KT 10SM -RA SCT009 BKN016 OVC033 07/06 A3000 RMK AO2 P0001=
201901181056 METAR KPWT 181056Z AUTO 20012G17KT 10SM -RA BKN009 BKN012 OVC038 07/06 A2999 RMK AO2 RAB34 CIG 005V012 SLP175 P0001 T00720061=
201901180956 METAR KPWT 180956Z AUTO 19010G18KT 10SM OVC007 07/07 RMK AO2 SLPNO T00720067 $=
201901180856 METAR KPWT 180856Z AUTO 20013G17KT 10SM OVC007 08/07 A2991 RMK AO2 CIG 005V011 SLP148 6//// T00780067 51046=
201901180842 SPECI KPWT 180842Z AUTO 19012G18KT 10SM OVC007 08/07 A2990 RMK AO2 CIG 005V009=
201901180756 METAR KPWT 180756Z AUTO 19009G18KT 10SM BKN005 BKN013 OVC025 08/07 A2987 RMK AO2 RAE05 CIG 004V009 SLP135 P0000 T00780067 401000028=
201901180719 SPECI KPWT 180719Z AUTO 19015G19KT 10SM BKN005 OVC009 08/07 A2985 RMK AO2 RAE05 CIG 004V007 P0000=
201901180707 SPECI KPWT 180707Z AUTO 19011KT 10SM OVC007 08/07 A2983 RMK AO2 RAE05 CIG 004V011 P0000=
201901180656 METAR KPWT 180656Z AUTO 19015G20KT 10SM -RA OVC005 08/07 A2982 RMK AO2 CIG 004V009 SLP118 P0009 T00780072=
201901180556 METAR KPWT 180556Z AUTO 19015G19KT 8SM -RA OVC005 08/07 A2977 RMK AO2 SLP101 P0008 60024 T00780067 10089 20078 53024=
201901180456 METAR KPWT 180456Z AUTO 20013G18KT 9SM -RA OVC005 08/07 A2974 RMK AO2 SLP090 P0009 T00780067=
201901180451 SPECI KPWT 180451Z AUTO 20012G16KT 8SM RA OVC005 08/07 A2973 RMK AO2 P0009=
201901180356 METAR KPWT 180356Z AUTO 19009G19KT 10SM -RA OVC007 08/07 A2970 RMK AO2 CIG 005V011 SLP077 P0005 T00780067=
201901180314 SPECI KPWT 180314Z AUTO 20011G17KT 10SM -RA FEW009 BKN012 OVC027 08/07 A2968 RMK AO2 P0001=
201901180303 SPECI KPWT 180303Z AUTO 19013G18KT 10SM -RA FEW008 BKN021 OVC026 08/07 A2967 RMK AO2 P0000=
201901180256 METAR KPWT 180256Z AUTO 20011G17KT 10SM -RA SCT010 BKN013 OVC021 08/07 A2966 RMK AO2 SLP063 P0001 60002 T00780072 53034=
201901180248 SPECI KPWT 180248Z AUTO 20012KT 10SM -RA FEW008 BKN013 OVC036 08/07 A2966 RMK AO2 P0001=
201901180239 SPECI KPWT 180239Z AUTO 20011G18KT 9SM -RA BKN011 BKN023 OVC038 08/07 A2965 RMK AO2 P0001=
201901180156 METAR KPWT 180156Z AUTO 19012G22KT 10SM -RA FEW021 BKN030 OVC035 09/06 A2962 RMK AO2 SLP050 P0001 T00890061=
201901180111 SPECI KPWT 180111Z AUTO 19013G21KT 10SM -RA FEW028 BKN040 OVC048 09/06 A2960 RMK AO2 P0001=
201901180056 METAR KPWT 180056Z AUTO 19011G21KT 10SM -RA BKN028 BKN035 OVC047 09/06 A2959 RMK AO2 RAB20 SLP038 P0000 T00890061=
201901172356 METAR KPWT 172356Z AUTO 20012G20KT 10SM OVC048 10/06 A2956 RMK AO2 RAE2259 SLP028 P0000 60004 T01000056 10100 20061 53019=
201901172256 METAR KPWT 172256Z AUTO 20009G16KT 10SM -RA OVC047 09/07 A2953 RMK AO2 RAE05B41 SLP018 P0000 T00940067=
201901172156 METAR KPWT 172156Z AUTO 00000KT 10SM -RA OVC039 08/07 A2951 RMK AO2 RAB04 SLP013 P0002 T00780067=
201901172056 METAR KPWT 172056Z AUTO 00000KT 10SM OVC050 08/06 A2950 RMK AO2 RAE42 SLP009 P0001 60002 T00830061 51003=
201901171956 METAR KPWT 171956Z AUTO 00000KT 10SM -RA OVC050 07/07 A2950 RMK AO2 RAB39 SLP006 P0001 T00720067=
201901171856 METAR KPWT 171856Z AUTO 00000KT 10SM OVC048 07/06 A2952 RMK AO2 SLP014 T00670056=
201901171756 METAR KPWT 171756Z AUTO 23003KT 10SM OVC050 06/06 A2949 RMK AO2 RAE44 SLP005 P0000 60001 T00610056 10067 20028 53013=
201901171656 METAR KPWT 171656Z AUTO 00000KT 10SM -RA SCT036 BKN050 06/05 A2947 RMK AO2 SLP998 P0001 T00560050=
201901171556 METAR KPWT 171556Z AUTO 00000KT 10SM -RA OVC065 05/04 A2947 RMK AO2 RAB41 SLP995 P0000 T00500039=
201901171456 METAR KPWT 171456Z AUTO 00000KT 10SM OVC100 05/04 A2945 RMK AO2 RAB1358E14 SLP992 P0000 60000 T00500044 55006=
201901171356 METAR KPWT 171356Z AUTO 07009KT 10SM SCT060 OVC080 06/04 A2945 RMK AO2 SLP990 T00610039=
201901171256 METAR KPWT 171256Z AUTO 00000KT 10SM FEW070 03/03 A2947 RMK AO2 SLP996 T00330028=
201901171203 SPECI KPWT 171203Z AUTO 00000KT 10SM FEW100 04/04 A2947 RMK AO2=
201901171156 METAR KPWT 171156Z AUTO 00000KT 2SM BR SCT100 04/04 A2947 RMK AO2 SLP998 60022 7//// T00390039 10083 20039=
201901171147 SPECI KPWT 171147Z AUTO 00000KT 1 3/4SM BR BKN110 04/04 A2947 RMK AO2=
201901171131 SPECI KPWT 171131Z AUTO 00000KT 3SM BR BKN110 04/04 A2948 RMK AO2=
201901171126 SPECI KPWT 171126Z AUTO 04003KT 1 3/4SM BR BKN110 04/04 A2948 RMK AO2 VIS 1 1/4V5=
201901171056 METAR KPWT 171056Z AUTO 34003KT 10SM BKN060 05/04 RMK AO2 RAE53 SLPNO P0004 T00500044 $=
201901170956 METAR KPWT 170956Z AUTO 22003KT 9SM -RA SCT036 OVC047 06/05 A2952 RMK AO2 SLP013 P0007 T00560050=
201901170856 METAR KPWT 170856Z AUTO 00000KT 6SM -RA BR OVC037 05/04 A2952 RMK AO2 SLP015 P0006 60011 T00500044 58015=
201901170756 METAR KPWT 170756Z AUTO 01003KT 9SM -RA SCT035 OVC046 05/04 A2954 RMK AO2 SLP023 P0005 T00500044 401061028=
201901170656 METAR KPWT 170656Z AUTO 23003KT 10SM -RA OVC050 06/03 A2956 RMK AO2 SLP030 P0000 T00610028=
201901170556 METAR KPWT 170556Z AUTO 05004KT 10SM -RA OVC060 08/01 A2956 RMK AO2 RAE07B25E37B53 SLP029 P0000 60000 T00780011 10089 20067 56015=
201901170456 METAR KPWT 170456Z AUTO 01006KT 10SM -RA OVC060 08/01 A2956 RMK AO2 RAB56 SLP030 P0000 T00830006=
201901170356 METAR KPWT 170356Z AUTO 03005KT 10SM OVC090 07/01 A2958 RMK AO2 SLP035 T00720011=
201901170256 METAR KPWT 170256Z AUTO 04007KT 10SM OVC085 08/01 A2961 RMK AO2 SLP045 T00780011 56025=
201901170156 METAR KPWT 170156Z AUTO 05007KT 10SM SCT090 07/01 A2963 RMK AO2 SLP054 T00670011=
201901170056 METAR KPWT 170056Z AUTO 06004KT 10SM CLR 07/01 A2965 RMK AO2 SLP059 T00670011=
201901162356 METAR KPWT 162356Z AUTO 04004KT 10SM CLR 09/02 A2968 RMK AO2 SLP071 6//// T00890022 10106 20033 56019=
201901162256 METAR KPWT 162256Z AUTO 03004KT 10SM CLR 09/02 A2970 RMK AO2 SLP076 T00940017=
201901162156 METAR KPWT 162156Z AUTO 01003KT 10SM CLR 09/01 A2972 RMK AO2 SLP083 T00940011=
201901162056 METAR KPWT 162056Z AUTO 35004KT 10SM BKN095 09/02 A2974 RMK AO2 SLP091 6//// T00890017 58019=
201901161956 METAR KPWT 161956Z AUTO 00000KT 10SM FEW095 08/01 A2977 RMK AO2 SLP100 T00830006=
201901161856 METAR KPWT 161856Z AUTO 00000KT 10SM OVC100 07/00 A2979 RMK AO2 SLP106 T00670000=
201901161756 METAR KPWT 161756Z AUTO 00000KT 10SM CLR 03/01 A2980 RMK AO2 SLP109 6//// T00330006 10044 21028 51013=
201901161656 METAR KPWT 161656Z AUTO 00000KT 10SM OVC110 00/M01 A2979 RMK AO2 SLP104 T00001006 FZRANO=
201901161556 METAR KPWT 161556Z AUTO 00000KT 10SM CLR M02/M02 A2977 RMK AO2 SLP099 T10171022 FZRANO=
201901161456 METAR KPWT 161456Z AUTO 00000KT 10SM CLR M02/M02 A2976 RMK AO2 SLP095 6//// T10171022 53001 FZRANO=
201901161356 METAR KPWT 161356Z AUTO 03003KT 10SM FEW100 M01/M01 A2974 RMK AO2 SLP087 T10061011 FZRANO=
201901161256 METAR KPWT 161256Z AUTO 00000KT 10SM CLR M02/M02 A2975 RMK AO2 SLP092 T10221022 FZRANO=
201901161156 METAR KPWT 161156Z AUTO 00000KT 10SM CLR M02/M02 A2976 RMK AO2 SLP095 6//// 7//// T10171022 11011 21028 58004 FZRANO=
201901161056 METAR KPWT 161056Z AUTO 00000KT 10SM CLR M02/M03 A2977 RMK AO2 SLP099 T10221028 FZRANO=
201901160956 METAR KPWT 160956Z AUTO 00000KT 10SM CLR M02/M02 A2977 RMK AO2 SLP099 T10221022 FZRANO=
201901160856 METAR KPWT 160856Z AUTO 00000KT 10SM CLR M03/M03 A2977 RMK AO2 SLP099 6//// T10281028 58003 FZRANO=
201901160800 SPECI KPWT 160800Z AUTO 00000KT 3SM BR CLR M03/M03 A2978 RMK AO2 FZRANO=
201901160756 METAR KPWT 160756Z AUTO 00000KT 1 3/4SM BR CLR M02/M03 A2978 RMK AO2 VIS 3/4V5 SLP104 T10221028 400671039 FZRANO=
201901160751 SPECI KPWT 160751Z AUTO 00000KT 1 3/4SM BR CLR M02/M03 A2978 RMK AO2 VIS 3/4V5 400671039 FZRANO=
201901160656 METAR KPWT 160656Z AUTO 10SM CLR M02/M03 A2979 RMK AO2 SLP105 T10221028 FZRANO=
201901160556 METAR KPWT 160556Z AUTO 00000KT 10SM CLR M01/M02 A2978 RMK AO2 SLP103 6//// T10111017 10061 21011 55001 FZRANO=
201901160456 METAR KPWT 160456Z AUTO 00000KT 7SM CLR 00/M01 A2977 RMK AO2 SLP099 T00001011 FZRANO=
201901160356 METAR KPWT 160356Z AUTO 00000KT 10SM CLR 01/00 A2977 RMK AO2 SLP099 T00110000 FZRANO=
201901160256 METAR KPWT 160256Z AUTO 00000KT 10SM CLR 00/M01 A2978 RMK AO2 SLP104 T00001006 58007 FZRANO=
201901160156 METAR KPWT 160156Z AUTO 00000KT 10SM CLR 00/M01 A2979 RMK AO2 SLP107 T00001011 FZRANO=
201901160056 METAR KPWT 160056Z AUTO 00000KT 10SM CLR 03/01 A2980 RMK AO2 SLP107 T00280006=
201901152356 METAR KPWT 152356Z AUTO 00000KT 10SM CLR 06/M01 A2980 RMK AO2 SLP110 T00611006 10067 20028 56010=
201901152256 METAR KPWT 152256Z AUTO 00000KT 10SM CLR 07/M01 A2981 RMK AO2 SLP113 T00671006=
201901152156 METAR KPWT 152156Z AUTO 23004KT 10SM CLR 06/01 A2982 RMK AO2 SLP116 T00610011=
201901152056 METAR KPWT 152056Z AUTO 21005KT 10SM CLR 06/00 A2983 RMK AO2 SLP121 T00610000 58020=
201901151956 METAR KPWT 151956Z AUTO 00000KT 10SM CLR 06/01 A2986 RMK AO2 SLP129 T00560011=
201901151856 METAR KPWT 151856Z AUTO 00000KT 10SM CLR 04/01 A2988 RMK AO2 SLP138 T00390011=
201901151756 METAR KPWT 151756Z AUTO 00000KT 10SM CLR 03/02 A2989 RMK AO2 SLP142 6//// T00330022 10033 21039 53002=
201901151656 METAR KPWT 151656Z AUTO 00000KT 10SM CLR M01/M01 A2988 RMK AO2 SLP138 T10061011 FZRANO=
201901151556 METAR KPWT 151556Z AUTO 00000KT 10SM CLR M04/M04 A2988 RMK AO2 SLP138 T10391044 FZRANO=
201901151456 METAR KPWT 151456Z AUTO 00000KT 10SM CLR M03/M04 A2989 RMK AO2 SLP139 6//// T10331039 55003 FZRANO=
201901151256 METAR KPWT 151256Z AUTO 00000KT 10SM CLR M03/M03 A2988 RMK AO2 SLP139 T10281033 FZRANO=
201901151156 METAR KPWT 151156Z AUTO 00000KT 10SM CLR M02/M03 A2989 RMK AO2 SLP141 7//// T10221028 11011 21028 58004 FZRANO=
201901151056 METAR KPWT 151056Z AUTO 00000KT 10SM CLR M01/M02 A2990 RMK AO2 SLP145 T10111017 FZRANO=
201901150956 METAR KPWT 150956Z AUTO 22003KT 10SM CLR M01/M02 A2991 RMK AO2 SLP147 T10111017 FZRANO=
201901150856 METAR KPWT 150856Z AUTO 00000KT 10SM CLR M02/M02 A2991 RMK AO2 SLP146 T10171022 58009 FZRANO=
201901150756 METAR KPWT 150756Z AUTO 00000KT 10SM CLR M02/M02 A2992 RMK AO2 SLP151 T10171022 401171028 FZRANO=
201901150656 METAR KPWT 150656Z AUTO 00000KT 10SM CLR M02/M02 A2993 RMK AO2 SLP156 T10171022 FZRANO=
201901150556 METAR KPWT 150556Z AUTO 00000KT 8SM CLR M03/M03 A2993 RMK AO2 SLP155 T10281028 10072 21028 56006 FZRANO=
201901150512 SPECI KPWT 150512Z AUTO 00000KT 10SM CLR M02/M02 RMK AO2 FZRANO $=
201901150505 SPECI KPWT 150505Z AUTO 00000KT 2 1/2SM BR CLR M02/M02 A2993 RMK AO2 FZRANO=
201901150456 METAR KPWT 150456Z AUTO 00000KT 1SM BR CLR M02/M02 A2994 RMK AO2 VIS 3/4V5 SLP157 T10221022 FZRANO=
201901150451 SPECI KPWT 150451Z AUTO 00000KT 1 3/4SM BR CLR M02/M02 A2993 RMK AO2 VIS 3/4V5 FZRANO=
201901150359 SPECI KPWT 150359Z AUTO 00000KT 3SM BR CLR M02/M02 A2994 RMK AO2 FZRANO=
201901150356 METAR KPWT 150356Z AUTO 00000KT 1 1/2SM BR CLR M02/M02 A2994 RMK AO2 SLP158 T10221022 FZRANO=
201901150349 SPECI KPWT 150349Z AUTO 00000KT 1 3/4SM BR CLR M02/M02 A2994 RMK AO2 VIS 1/2V5 FZRANO=
201901150332 SPECI KPWT 150332Z AUTO 00000KT 8SM CLR M02/M02 A2994 RMK AO2 FZRANO=
201901150316 SPECI KPWT 150316Z AUTO 21003KT 1 1/2SM BR CLR M01/M02 A2995 RMK AO2 VIS 1/4V5 FZRANO=
201901150256 METAR KPWT 150256Z AUTO 00000KT 9SM CLR M01/M01 A2995 RMK AO2 SLP161 T10061011 55006 FZRANO=
201901150156 METAR KPWT 150156Z AUTO 00000KT 10SM CLR 01/00 A2995 RMK AO2 SLP160 T00060000 FZRANO=
201901150056 METAR KPWT 150056Z AUTO 00000KT 10SM CLR 03/02 A2996 RMK AO2 SLP164 T00330022=
201901142356 METAR KPWT 142356Z AUTO 22004KT 10SM CLR 07/03 A2997 RMK AO2 SLP167 6//// T00720033 10117 20061 56008=
201901142256 METAR KPWT 142256Z AUTO 25005KT 10SM CLR 09/04 A2998 RMK AO2 SLP171 T00940039=
201901142156 METAR KPWT 142156Z AUTO 26003KT 10SM CLR 11/04 A2998 RMK AO2 SLP171 T01060039=
201901142056 METAR KPWT 142056Z AUTO 01003KT 10SM CLR 10/03 A3000 RMK AO2 SLP177 T01000028 58019=
201901141956 METAR KPWT 141956Z AUTO 05007KT 10SM CLR 09/03 A3001 RMK AO2 SLP182 T00890028=
201901141856 METAR KPWT 141856Z AUTO 05010KT 10SM CLR 08/02 A3004 RMK AO2 SLP192 T00830022=
201901141756 METAR KPWT 141756Z AUTO 07008KT 10SM CLR 06/03 A3005 RMK AO2 SLP195 6//// T00610028 10061 20039 58002=
201901141656 METAR KPWT 141656Z AUTO 05011KT 10SM CLR 04/03 A3006 RMK AO2 SLP198 T00440028=
201901141556 METAR KPWT 141556Z AUTO 06009KT 10SM CLR 04/02 A3006 RMK AO2 SLP198 T00390017=
201901141456 METAR KPWT 141456Z AUTO 07007KT 10SM CLR 04/01 A3006 RMK AO2 SLP199 T00440011 56011=
201901141356 METAR KPWT 141356Z AUTO 05008KT 10SM CLR 04/01 A3007 RMK AO2 SLP201 T00440011=
201901141256 METAR KPWT 141256Z AUTO 04009KT 10SM CLR 06/01 A3007 RMK AO2 SLP200 T00560006=
201901141156 METAR KPWT 141156Z AUTO 05007KT 10SM CLR 04/01 A3009 RMK AO2 SLP210 7//// T00440011 10061 21022 58005=
201901141056 METAR KPWT 141056Z AUTO 05009KT 10SM CLR 05/02 A3010 RMK AO2 SLP212 T00500017=
201901140956 METAR KPWT 140956Z AUTO 05010KT 10SM CLR 06/02 A3010 RMK AO2 SLP213 T00560017=
201901140856 METAR KPWT 140856Z AUTO 00000KT 10SM CLR M02/M03 A3011 RMK AO2 SLP215 T10221033 58006 FZRANO=
201901140756 METAR KPWT 140756Z AUTO 00000KT 10SM CLR 00/M01 A3012 RMK AO2 SLP220 T00001011 401111011 FZRANO=
201901140656 METAR KPWT 140656Z AUTO 07006KT 10SM CLR 05/02 A3013 RMK AO2 SLP223 T00500017=
201901140556 METAR KPWT 140556Z AUTO 05007KT 10SM CLR 06/01 A3013 RMK AO2 SLP221 T00560011 10100 20011 52002=
201901140456 METAR KPWT 140456Z AUTO 05006KT 10SM CLR 04/01 A3012 RMK AO2 SLP219 T00390006=
201901140356 METAR KPWT 140356Z AUTO 04003KT 10SM CLR 02/00 A3012 RMK AO2 SLP220 T00220000 FZRANO=
201901140256 METAR KPWT 140256Z AUTO 00000KT 10SM CLR 03/01 A3012 RMK AO2 SLP219 T00280006 56001=
201901140156 METAR KPWT 140156Z AUTO 00000KT 10SM CLR 03/01 A3012 RMK AO2 SLP219 T00280011=
201901140056 METAR KPWT 140056Z AUTO 00000KT 10SM CLR 06/01 A3012 RMK AO2 SLP219 T00610011=
201901132356 METAR KPWT 132356Z AUTO 05007KT 10SM CLR 10/03 A3012 RMK AO2 SLP219 T01000028 10111 20083 55003=
201901132256 METAR KPWT 132256Z AUTO 05005KT 10SM CLR 11/02 A3012 RMK AO2 SLP218 T01110022=
201901132156 METAR KPWT 132156Z AUTO 06006KT 10SM CLR 11/03 A3012 RMK AO2 SLP220 T01110033=
201901132056 METAR KPWT 132056Z AUTO 04007KT 10SM CLR 11/03 A3013 RMK AO2 SLP222 T01110028 58015=
201901131956 METAR KPWT 131956Z AUTO 05008KT 10SM CLR 10/01 A3015 RMK AO2 SLP228 T01000006=
201901131856 METAR KPWT 131856Z AUTO 04009KT 10SM CLR 09/01 A3017 RMK AO2 SLP236 T00890011=
201901131756 METAR KPWT 131756Z AUTO 06009KT 10SM CLR 08/00 A3018 RMK AO2 SLP238 6//// T00830000 10083 21011 53014=
201901131656 METAR KPWT 131656Z AUTO 06007KT 10SM CLR 07/M01 A3016 RMK AO2 SLP232 T00671006=
201901131556 METAR KPWT 131556Z AUTO 04006KT 10SM CLR 04/00 A3014 RMK AO2 SLP226 T00440000=
201901131456 METAR KPWT 131456Z AUTO 03003KT 10SM CLR M01/M01 A3014 RMK AO2 SLP224 6//// T10061011 55001 FZRANO=
201901131356 METAR KPWT 131356Z AUTO 00000KT 10SM CLR 00/M01 A3013 RMK AO2 SLP223 T00001011 FZRANO=
201901131256 METAR KPWT 131256Z AUTO 04004KT 10SM CLR 00/M01 A3014 RMK AO2 SLP224 T00001006 FZRANO=
201901131156 METAR KPWT 131156Z AUTO 00000KT 10SM CLR M01/M02 A3014 RMK AO2 SLP225 6//// 7//// T10111017 10022 21011 50006 FZRANO=
201901131056 METAR KPWT 131056Z AUTO 00000KT 10SM CLR 00/M01 A3015 RMK AO2 SLP229 T00001006 FZRANO=
201901130956 METAR KPWT 130956Z AUTO 00000KT 10SM CLR M01/M01 A3014 RMK AO2 SLP225 T10111011 FZRANO=
201901130856 METAR KPWT 130856Z AUTO 00000KT 10SM CLR 00/M01 A3012 RMK AO2 SLP218 6//// T00001006 51009 FZRANO=
201901130756 METAR KPWT 130756Z AUTO 00000KT 10SM CLR 01/00 A3011 RMK AO2 SLP215 T00060000 401391017 FZRANO=
201901130656 METAR KPWT 130656Z AUTO 00000KT 10SM CLR 01/00 A3010 RMK AO2 SLP213 T00110000 FZRANO=
201901130556 METAR KPWT 130556Z AUTO 14003KT 10SM CLR 01/01 A3009 RMK AO2 SLP211 T00110006 10117 20006 53010 FZRANO=
201901130456 METAR KPWT 130456Z AUTO 15003KT 10SM CLR 01/01 A3008 RMK AO2 SLP206 T00110006 FZRANO=
201901130256 METAR KPWT 130256Z AUTO 00000KT 10SM CLR 03/02 A3006 RMK AO2 SLP200 T00280022 51017=
201901130156 METAR KPWT 130156Z AUTO 00000KT 10SM CLR 03/03 A3006 RMK AO2 SLP196 T00330028=
201901130056 METAR KPWT 130056Z AUTO 00000KT 10SM CLR 07/04 A3004 RMK AO2 SLP192 T00720039=
201901122356 METAR KPWT 122356Z AUTO 00000KT 10SM CLR 12/04 A3001 RMK AO2 SLP181 T01170039 10139 20056 51007=
201901122256 METAR KPWT 122256Z AUTO 00000KT 10SM CLR 13/02 A3001 RMK AO2 SLP181 T01280017=
201901122156 METAR KPWT 122156Z AUTO 20003KT 10SM CLR 13/02 A3000 RMK AO2 SLP178 T01280017=
201901122056 METAR KPWT 122056Z AUTO 11005KT 10SM CLR 12/03 A2999 RMK AO2 SLP175 T01170028 58005=
201901121956 METAR KPWT 121956Z AUTO 13003KT 10SM CLR 11/03 A3001 RMK AO2 SLP182 T01110028=
201901121856 METAR KPWT 121856Z AUTO 00000KT 10SM CLR 09/04 A3001 RMK AO2 SLP180 T00940039=
201901121756 METAR KPWT 121756Z AUTO 00000KT 10SM CLR 06/04 A3001 RMK AO2 SLP180 T00560039 10067 21017 53020=
201901121656 METAR KPWT 121656Z AUTO 00000KT 10SM CLR 02/02 A2998 RMK AO2 SLP169 T00220022 FZRANO=
201901121556 METAR KPWT 121556Z AUTO 00000KT 10SM CLR M02/M02 A2996 RMK AO2 SLP166 T10171017 FZRANO=
201901121456 METAR KPWT 121456Z AUTO 00000KT 10SM CLR M01/M01 A2995 RMK AO2 SLP160 T10111011 58000 FZRANO=
201901121356 METAR KPWT 121356Z AUTO 00000KT 10SM CLR 00/M01 A2995 RMK AO2 SLP161 T00001006 FZRANO=
201901121256 METAR KPWT 121256Z AUTO 00000KT 10SM CLR M01/M01 A2995 RMK AO2 SLP160 T10061011 FZRANO=
201901121156 METAR KPWT 121156Z AUTO 00000KT 10SM CLR 00/M01 A2995 RMK AO2 SLP159 6//// 7//// T00001006 10028 20000 50003 FZRANO=
201901121056 METAR KPWT 121056Z AUTO 00000KT 10SM CLR 01/00 A2996 RMK AO2 SLP162 T00060000 FZRANO=
201901120956 METAR KPWT 120956Z AUTO 00000KT 10SM CLR 00/M01 A2995 RMK AO2 SLP159 T00001006 FZRANO=
201901120856 METAR KPWT 120856Z AUTO 00000KT 10SM CLR 02/01 A2994 RMK AO2 SLP158 6//// T00170006 53000 FZRANO=
201901120756 METAR KPWT 120756Z AUTO 00000KT 10SM CLR 02/01 A2993 RMK AO2 SLP156 T00220011 401280011 FZRANO=
201901120656 METAR KPWT 120656Z AUTO 00000KT 10SM CLR 02/01 A2994 RMK AO2 SLP157 T00170011 FZRANO=
201901120556 METAR KPWT 120556Z AUTO 00000KT 10SM CLR 02/02 A2994 RMK AO2 SLP156 T00220017 10111 20022 51004 FZRANO=
201901120456 METAR KPWT 120456Z AUTO 00000KT 10SM CLR 03/02 A2993 RMK AO2 SLP155 T00280017=
201901120356 METAR KPWT 120356Z AUTO 00000KT 10SM CLR 03/02 A2993 RMK AO2 SLP154 T00280022=
201901120256 METAR KPWT 120256Z AUTO 21004KT 10SM CLR 03/03 A2993 RMK AO2 SLP153 T00330028 53002=
201901120156 METAR KPWT 120156Z AUTO 00000KT 10SM CLR 07/04 A2992 RMK AO2 SLP149 T00720044=
201901120056 METAR KPWT 120056Z AUTO 05006KT 10SM CLR 10/05 A2992 RMK AO2 SLP150 T01000050=
201901112356 METAR KPWT 112356Z AUTO 06004KT 10SM CLR 11/06 A2992 RMK AO2 SLP151 6//// T01110061 10128 20089 56003=
201901112256 METAR KPWT 112256Z AUTO 04005KT 10SM CLR 12/06 A2992 RMK AO2 SLP151 T01170061=
201901112156 METAR KPWT 112156Z AUTO 04005KT 10SM CLR 12/06 A2992 RMK AO2 SLP152 T01220061=
201901112056 METAR KPWT 112056Z AUTO 03004KT 10SM CLR 12/06 A2993 RMK AO2 SLP153 6//// T01170061 58026=
201901111956 METAR KPWT 111956Z AUTO 03005KT 10SM CLR 12/06 A2996 RMK AO2 SLP164 T01170061=
201901111856 METAR KPWT 111856Z AUTO 05005KT 10SM CLR 11/07 A2999 RMK AO2 SLP173 T01110067=
201901111756 METAR KPWT 111756Z AUTO 00000KT 10SM CLR 09/07 A3001 RMK AO2 SLP180 6//// T00890067 10089 20022 50006=
201901111656 METAR KPWT 111656Z AUTO 00000KT 10SM CLR 06/05 A3001 RMK AO2 SLP181 T00560050=
201901111556 METAR KPWT 111556Z AUTO 00000KT 10SM OVC110 04/04 A3000 RMK AO2 SLP180 T00440044=
201901111456 METAR KPWT 111456Z AUTO 00000KT 10SM SCT100 04/04 A2999 RMK AO2 SLP174 6//// T00440044 58004=
201901111356 METAR KPWT 111356Z AUTO 00000KT 10SM CLR 04/04 A3000 RMK AO2 SLP177 T00390039=
201901111256 METAR KPWT 111256Z AUTO 00000KT 7SM CLR 03/03 A3000 RMK AO2 SLP177 T00330028=
201901111253 SPECI KPWT 111253Z AUTO 00000KT 4SM BR CLR 03/03 A3000 RMK AO2=
201901111245 SPECI KPWT 111245Z AUTO 00000KT 2 1/2SM BR CLR 03/03 A3000 RMK AO2 VIS 1 1/4V5=
201901111237 SPECI KPWT 111237Z AUTO 00000KT 1 3/4SM BR FEW120 03/03 A3000 RMK AO2 VIS 1 1/4V3=
201901111223 SPECI KPWT 111223Z AUTO 00000KT 3SM BR CLR 02/02 A3001 RMK AO2 FZRANO=
201901111206 SPECI KPWT 111206Z AUTO 00000KT 1 3/4SM BR CLR 03/03 A3001 RMK AO2=
201901111156 METAR KPWT 111156Z AUTO 00000KT 10SM CLR 03/02 A3002 RMK AO2 SLP184 6//// 7//// T00280022 10061 20022 58008=
201901111131 SPECI KPWT 111131Z AUTO 00000KT 3SM BR CLR 03/03 A3002 RMK AO2=
201901111125 SPECI KPWT 111125Z AUTO 00000KT 1 1/2SM BR CLR 03/02 A3003 RMK AO2=
201901111111 SPECI KPWT 111111Z AUTO 00000KT 2 1/2SM BR CLR 02/02 A3003 RMK AO2 FZRANO=
201901111056 METAR KPWT 111056Z AUTO 00000KT 10SM CLR 03/03 A3003 RMK AO2 SLP191 T00330033=
201901110956 METAR KPWT 110956Z AUTO 00000KT 10SM CLR 04/04 A3004 RMK AO2 SLP192 T00390039=
201901110856 METAR KPWT 110856Z AUTO 00000KT 10SM CLR 06/06 A3004 RMK AO2 SLP191 6//// T00560056 58006=
201901110756 METAR KPWT 110756Z AUTO 00000KT 10SM CLR 06/05 A3005 RMK AO2 SLP194 T00560050 401000050=
201901110656 METAR KPWT 110656Z AUTO 00000KT 5SM BR FEW070 06/06 A3006 RMK AO2 SLP197 T00610056=
201901110648 SPECI KPWT 110648Z AUTO 00000KT 2SM BR SCT070 06/06 A3006 RMK AO2 VIS 3/4V5=
201901110619 SPECI KPWT 110619Z AUTO 00000KT 4SM BR BKN070 06/06 A3006 RMK AO2=
201901110607 SPECI KPWT 110607Z AUTO 00000KT 1 3/4SM BR BKN070 06/06 A3006 RMK AO2 VIS 1/2V5=
201901110601 SPECI KPWT 110601Z AUTO 00000KT 3SM BR BKN065 06/06 A3006 RMK AO2=
201901110556 METAR KPWT 110556Z AUTO 00000KT 1 1/4SM BR BKN065 06/06 A3006 RMK AO2 VIS 1/2V5 SLP198 6//// T00610056 10100 20061 58002=
201901110544 SPECI KPWT 110544Z AUTO 00000KT 3/4SM BR BKN065 06/06 A3006 RMK AO2=
201901110537 SPECI KPWT 110537Z AUTO 00000KT 1 3/4SM BR BKN065 07/06 A3006 RMK AO2 VIS 3/4V5=
201901110530 SPECI KPWT 110530Z AUTO 00000KT 3SM BR BKN065 07/07 A3006 RMK AO2=
201901110522 SPECI KPWT 110522Z AUTO 00000KT 1 3/4SM BR SCT065 07/07 A3006 RMK AO2 VIS 1V5=
201901110456 METAR KPWT 110456Z AUTO 00000KT 10SM BKN060 08/08 A3006 RMK AO2 SLP197 T00780078=
201901110436 SPECI KPWT 110436Z AUTO 00000KT 3SM BR OVC060 08/08 A3006 RMK AO2=
201901110427 SPECI KPWT 110427Z AUTO 00000KT 1 3/4SM BR OVC060 08/08 A3007 RMK AO2=
201901110356 METAR KPWT 110356Z AUTO 00000KT 10SM FEW049 OVC060 08/08 A3007 RMK AO2 SLP201 T00830078=
201901110256 METAR KPWT 110256Z AUTO 00000KT 10SM OVC047 08/08 A3006 RMK AO2 SLP199 T00830078 56009=
201901110203 SPECI KPWT 110203Z AUTO 00000KT 6SM BR BKN042 OVC055 09/09 A3007 RMK AO2=
201901110156 METAR KPWT 110156Z AUTO 00000KT 2 1/2SM BR BKN046 OVC055 09/08 A3007 RMK AO2 VIS 1V5 SLP200 T00890083=
201901110152 SPECI KPWT 110152Z AUTO VRB03KT 1 1/4SM BR SCT046 OVC055 08/08 A3007 RMK AO2=
201901110143 SPECI KPWT 110143Z AUTO 00000KT 3/4SM BR OVC050 08/08 A3007 RMK AO2=
201901110139 SPECI KPWT 110139Z AUTO 00000KT 1 1/2SM BR OVC055 08/08 A3007 RMK AO2 VIS 1/2V5=
201901110056 METAR KPWT 110056Z AUTO 00000KT 10SM OVC043 09/09 A3008 RMK AO2 SLP204 T00890089=
201901102356 METAR KPWT 102356Z AUTO 8SM BKN033 OVC042 10/09 A3009 RMK AO2 RAE14 SLP209 P0000 60001 T01000094 10100 20089 50001=
201901102256 METAR KPWT 102256Z AUTO 00000KT 8SM -RA FEW005 SCT027 OVC036 10/09 A3009 RMK AO2 RAB46 SLP210 P0000 T01000094=
201901102251 SPECI KPWT 102251Z AUTO 00000KT 7SM -RA FEW005 BKN026 OVC035 10/09 A3009 RMK AO2 RAB46 P0000=
201901102237 SPECI KPWT 102237Z AUTO 20004KT 10SM SCT007 OVC037 10/09 A3009 RMK AO2=
201901102156 METAR KPWT 102156Z AUTO 19004KT 5SM BR BKN007 OVC027 10/09 A3009 RMK AO2 RAE05 CIG 005V012 SLP209 P0001 T01000089=
201901102143 SPECI KPWT 102143Z AUTO 18005KT 10SM BKN009 OVC029 10/09 A3009 RMK AO2 RAE05 CIG 006V012 P0001=
201901102128 SPECI KPWT 102128Z AUTO 19005KT 10SM FEW009 BKN028 OVC036 10/09 A3009 RMK AO2 RAE05 P0001=
201901102056 METAR KPWT 102056Z AUTO 19010KT 8SM -RA FEW020 BKN027 OVC034 09/08 A3009 RMK AO2 RAB34 SLP209 P0000 60000 T00940083 50000=
201901102046 SPECI KPWT 102046Z AUTO 19010KT 10SM -RA FEW008 SCT024 OVC029 09/08 A3009 RMK AO2 RAB34 P0000=
201901102038 SPECI KPWT 102038Z AUTO 20010KT 8SM -RA SCT008 BKN033 OVC046 09/08 A3009 RMK AO2 RAB34 P0000=
201901101956 METAR KPWT 101956Z AUTO 20009KT 10SM BKN008 BKN035 OVC050 10/09 A3009 RMK AO2 SLP210 T01000089=
201901101856 METAR KPWT 101856Z AUTO 20008KT 9SM BKN006 OVC055 10/09 A3009 RMK AO2 RAE06 SLP209 P0000 T01000089=
201901101848 SPECI KPWT 101848Z AUTO 20009KT 7SM SCT006 BKN055 10/09 A3010 RMK AO2 RAE06 P0000=
201901101756 METAR KPWT 101756Z AUTO 20010G17KT 8SM -RA BKN008 BKN020 OVC033 09/08 A3009 RMK AO2 RAB1658 CIG 004V014 SLP209 P0002 60006 T00940083 10094 20083 53022=
201901101707 SPECI KPWT 101707Z AUTO 20009KT 9SM -RA SCT008 BKN014 OVC027 09/08 A3007 RMK AO2 RAB1658 P0001=
201901101656 METAR KPWT 101656Z AUTO 19012G17KT 8SM BKN008 OVC027 09/08 A3007 RMK AO2 CIG 006V010 SLP200 T00890078=
201901101626 SPECI KPWT 101626Z AUTO 21009KT 10SM OVC006 08/08 A3005 RMK AO2 CIG 004V009=
201901101556 METAR KPWT 101556Z AUTO 22009KT 10SM OVC004 08/08 A3004 RMK AO2 SLP190 T00830078=
201901101456 METAR KPWT 101456Z AUTO 20012KT 10SM OVC004 08/08 A3002 RMK AO2 RAB18E48 SLP184 P0000 60004 T00830083 51015=
201901101356 METAR KPWT 101356Z AUTO 19010G14KT 10SM OVC004 09/08 A3001 RMK AO2 RAE11B35E53 SLP182 P0001 T00890083=
201901101256 METAR KPWT 101256Z AUTO 20010KT 10SM -RA OVC004 09/ A2999 RMK AO2 SLP175 P0003 T0089=
201901101156 METAR KPWT 101156Z AUTO 19011G19KT 5SM -RA BR BKN004 OVC016 09/09 A2998 RMK AO2 RAB30 SLP169 P0008 60039 7//// T00940089 10094 20089 51029=
201901101056 METAR KPWT 101056Z AUTO 19012G16KT 10SM OVC004 09/09 A2995 RMK AO2 RAE39 SLP162 P0008 T00940089=
201901100956 METAR KPWT 100956Z AUTO 19012KT 8SM -RA OVC004 09/08 A2993 RMK AO2 SLP153 P0010 T00890083=
201901100856 METAR KPWT 100856Z AUTO 19011G19KT 10SM -RA OVC004 09/08 A2989 RMK AO2 SLP140 P0003 60013 T00940083 53024=
201901100756 METAR KPWT 100756Z AUTO 20016G21KT 10SM -RA OVC004 09/09 A2987 RMK AO2 SLP132 P0004 T00940089 400940044=
201901100656 METAR KPWT 100656Z AUTO 19013G20KT 10SM -RA OVC004 09/09 A2983 RMK AO2 PK WND 19027/0640 SLP120 P0006 T00940089=
201901100635 SPECI KPWT 100635Z AUTO 20014G23KT 10SM -RA OVC004 09/08 A2982 RMK AO2 CIG 003V009 P0005=
201901100556 METAR KPWT 100556Z AUTO 20016G22KT 8SM -RA OVC006 09/08 A2982 RMK AO2 CIG 004V009 SLP116 P0002 60012 T00890083 10089 20067 53024=
201901100456 METAR KPWT 100456Z AUTO 19010G16KT 10SM -RA OVC006 09/08 A2979 RMK AO2 RAE34B52 CIG 004V009 SLP107 P0002 T00890083=
201901100437 SPECI KPWT 100437Z AUTO 19010KT 10SM BKN006 BKN029 OVC037 09/08 A2978 RMK AO2 RAE34 CIG 004V010 P0001=
201901100429 SPECI KPWT 100429Z AUTO 19010G18KT 10SM -RA SCT006 BKN010 OVC029 09/08 A2978 RMK AO2 CIG 008V015 P0001=
201901100417 SPECI KPWT 100417Z AUTO 19011G16KT 10SM -RA SCT008 BKN028 OVC043 09/08 A2978 RMK AO2 P0001=
201901100410 SPECI KPWT 100410Z AUTO 18013KT 10SM -RA FEW007 BKN013 OVC035 09/08 A2977 RMK AO2 CIG 009V021 P0001=
201901100356 METAR KPWT 100356Z AUTO 19012KT 10SM -RA SCT016 BKN029 OVC039 09/08 A2976 RMK AO2 SLP098 P0003 T00890083=
201901100345 SPECI KPWT 100345Z AUTO 19010KT 10SM -RA BKN016 BKN029 OVC037 09/08 A2976 RMK AO2 P0002=
201901100256 METAR KPWT 100256Z AUTO 20011KT 10SM -RA SCT038 OVC046 09/08 A2975 RMK AO2 RAB04 SLP093 P0004 60005 T00890078 53020=
201901100230 SPECI KPWT 100230Z AUTO 20011KT 10SM -RA FEW016 SCT023 OVC038 09/08 A2973 RMK AO2 RAB04 P0002=
201901100222 SPECI KPWT 100222Z AUTO 20009G16KT 10SM -RA SCT017 BKN023 OVC042 09/08 A2973 RMK AO2 RAB04 P0001=
201901100156 METAR KPWT 100156Z AUTO 20006KT 10SM FEW025 OVC044 08/07 A2972 RMK AO2 RAE34 SLP084 P0000 T00780072=
201901100056 METAR KPWT 100056Z AUTO 22005KT 10SM -RA OVC050 07/07 A2971 RMK AO2 RAE24B45 SLP077 P0001 T00720067=
201901092356 METAR KPWT 092356Z AUTO 22004KT 10SM -RA FEW035 OVC050 07/07 A2969 RMK AO2 SLP071 P0003 60014 T00670067 10072 20061=
201901092256 METAR KPWT 092256Z AUTO 21003KT 7SM -RA OVC035 07/07 RMK AO2 SLPNO P0007 T00720067 $=
201901092156 METAR KPWT 092156Z AUTO 24003KT 8SM -RA BKN041 OVC048 07/06 A2968 RMK AO2 RAB31 SLP067 P0002 T00670061=
201901092056 METAR KPWT 092056Z AUTO 00000KT 10SM SCT043 OVC055 07/07 A2969 RMK AO2 RAE56 SLP071 P0001 60002 T00720067 56010=
201901091956 METAR KPWT 091956Z AUTO 00000KT 10SM -RA FEW037 OVC055 07/07 A2970 RMK AO2 RAB20 SLP074 P0001 T00720067=
201901091856 METAR KPWT 091856Z AUTO 00000KT 10SM BKN080 06/06 A2971 RMK AO2 RAB05E28 SLP077 P0000 T00610056=
201901091756 METAR KPWT 091756Z AUTO 00000KT 10SM SCT060 SCT075 06/06 A2972 RMK AO2 RAB1657E36 SLP082 P0000 6//// T00610056 10061 20044 50004=
201901091656 METAR KPWT 091656Z AUTO 11005KT 10SM SCT055 OVC070 05/04 A2972 RMK AO2 SLP083 T00500044=
201901091556 METAR KPWT 091556Z AUTO 00000KT 10SM FEW049 BKN055 BKN070 06/05 A2971 RMK AO2 RAE54 SLP079 P0002 T00560050=
201901091456 METAR KPWT 091456Z AUTO 21003KT 10SM -RA OVC060 06/05 A2971 RMK AO2 SLP078 P0001 60006 T00560050 53005=
201901091356 METAR KPWT 091356Z AUTO 00000KT 10SM -RA BKN055 05/05 A2968 RMK AO2 SLP069 P0002 T00500050=
201901091256 METAR KPWT 091256Z AUTO 00000KT 9SM -RA FEW036 OVC050 05/05 A2969 RMK AO2 SLP074 P0003 T00500050=
201901091156 METAR KPWT 091156Z AUTO 00000KT 10SM -RA CLR 05/04 A2969 RMK AO2 SLP073 P0003 60011 70041 T00500044 10050 20044 58005=
201901091056 METAR KPWT 091056Z AUTO 00000KT 9SM -RA FEW040 05/04 A2971 RMK AO2 SLP080 P0004 T00500044=
201901090956 METAR KPWT 090956Z AUTO 00000KT 10SM -RA SCT040 05/04 A2972 RMK AO2 SLP082 P0002 T00500044=
201901090856 METAR KPWT 090856Z AUTO 00000KT 10SM -RA CLR 04/04 A2971 RMK AO2 SLP079 P0001 60002 T00440044 58023=
201901090756 METAR KPWT 090756Z AUTO 00000KT 10SM -RA OVC065 04/04 A2974 RMK AO2 RAB20 SLP088 P0000 T00440044 400500017=
201901090656 METAR KPWT 090656Z AUTO 00000KT 10SM OVC065 04/04 A2976 RMK AO2 RAE38 SLP096 P0001 T00440039=
201901090556 METAR KPWT 090556Z AUTO 03004KT 10SM -RA BKN065 05/04 A2978 RMK AO2 SLP103 P0000 60010 T00500039 10050 20044 58016=
201901090456 METAR KPWT 090456Z AUTO 04003KT 10SM -RA FEW035 SCT046 BKN055 04/04 A2980 RMK AO2 SLP110 P0005 T00440039=
201901090356 METAR KPWT 090356Z AUTO 00000KT 10SM -RA FEW060 04/04 A2982 RMK AO2 SLP116 P0001 T00440039=
201901090256 METAR KPWT 090256Z AUTO 00000KT 10SM -RA FEW048 BKN060 04/04 A2983 RMK AO2 SLP118 P0001 60004 T00440039 55009=
201901090156 METAR KPWT 090156Z AUTO 04007KT 10SM -RA OVC048 04/04 A2982 RMK AO2 SLP115 P0002 T00440039=
201901090056 METAR KPWT 090056Z AUTO 02003KT 10SM -RA SCT055 04/04 A2983 RMK AO2 SLP122 P0001 T00440039=
201901082356 METAR KPWT 082356Z AUTO 00000KT 10SM -RA BKN060 04/04 A2985 RMK AO2 SLP128 P0000 60010 T00440039 10044 20033 56021=
201901082256 METAR KPWT 082256Z AUTO 36004KT 10SM -RA BKN060 04/03 A2986 RMK AO2 SLP132 P0001 T00440033=
201901082156 METAR KPWT 082156Z AUTO 03005KT 10SM -RA BKN050 OVC065 04/03 A2989 RMK AO2 SLP140 P0002 T00440028=
201901082056 METAR KPWT 082056Z AUTO 03005KT 10SM -RA SCT043 BKN050 04/03 A2992 RMK AO2 SLP150 P0005 60007 T00390028 58033=
201901081956 METAR KPWT 081956Z AUTO 02005KT 10SM -RA OVC043 04/02 A2995 RMK AO2 SLP160 P0002 T00390022=
201901081856 METAR KPWT 081856Z AUTO 36004KT 10SM -RA OVC040 04/02 A3000 RMK AO2 SLP176 P0000 T00390022=
201901081756 METAR KPWT 081756Z AUTO 03006KT 10SM -RA OVC046 03/02 A3002 RMK AO2 SLP182 P0000 60010 T00330022 10039 20022 58004=
201901081656 METAR KPWT 081656Z AUTO 03003KT 10SM -RA CLR 03/02 A3003 RMK AO2 SLP188 P0007 T00280017=
201901081637 SPECI KPWT 081637Z AUTO 03003KT 10SM -RA SCT026 SCT035 03/01 A3003 RMK AO2 P0006=
201901081556 METAR KPWT 081556Z AUTO 02006KT 9SM -RA OVC026 02/01 A3003 RMK AO2 SLP190 P0003 T00220011 FZRANO=
201901081540 SPECI KPWT 081540Z AUTO 04003KT 10SM -RA BKN028 OVC032 03/01 A3004 RMK AO2 P0001=
201901081456 METAR KPWT 081456Z AUTO 05004KT 10SM -RA BKN035 OVC050 04/M02 A3003 RMK AO2 RAB30 SLP186 P0000 60000 T00391017=
201901081356 METAR KPWT 081356Z AUTO 02004KT 10SM OVC060 03/M02 A3004 RMK AO2 SLP191 T00331017=
201901081256 METAR KPWT 081256Z AUTO 10SM BKN080 03/M02 RMK AO2 SLPNO T00281017 $=
201901081156 METAR KPWT 081156Z AUTO 04007KT 10SM OVC090 02/M01 A3009 RMK AO2 SLP209 6//// 7//// T00221011 10022 20017 58014 FZRANO=
201901081056 METAR KPWT 081056Z AUTO 04010KT 10SM FEW085 02/M01 A3011 RMK AO2 SLP214 T00221011 FZRANO=
201901080956 METAR KPWT 080956Z AUTO 03010KT 10SM SCT090 02/01 A3012 RMK AO2 SLP219 T00170006 FZRANO=
201901080856 METAR KPWT 080856Z AUTO 04011KT 10SM CLR 02/00 A3013 RMK AO2 SLP223 6//// T00220000 56020 FZRANO=
201901080756 METAR KPWT 080756Z AUTO 04008KT 10SM SCT100 02/01 A3014 RMK AO2 SLP225 T00170011 400561022 FZRANO=
201901080656 METAR KPWT 080656Z AUTO 02008KT 10SM CLR 02/01 A3017 RMK AO2 SLP236 T00170011 FZRANO=
201901080556 METAR KPWT 080556Z AUTO 04006KT 10SM CLR 02/01 A3019 RMK AO2 SLP242 6//// T00170011 10044 21011 58008 FZRANO=
201901080456 METAR KPWT 080456Z AUTO 05006KT 10SM CLR 02/01 A3021 RMK AO2 SLP249 T00170011 FZRANO=
201901080356 METAR KPWT 080356Z AUTO 05003KT 10SM CLR 00/M01 A3022 RMK AO2 SLP253 T00001006 FZRANO=
201901080256 METAR KPWT 080256Z AUTO 02003KT 9SM CLR M01/M01 A3022 RMK AO2 SLP251 6//// T10111011 50009 FZRANO=
201901080156 METAR KPWT 080156Z AUTO 00000KT 9SM CLR M01/M01 A3022 RMK AO2 SLP251 T10061011 FZRANO=
201901080056 METAR KPWT 080056Z AUTO 00000KT 10SM CLR 02/01 A3021 RMK AO2 SLP249 T00170011 FZRANO=
201901072356 METAR KPWT 072356Z AUTO 00000KT 10SM CLR 04/02 A3019 RMK AO2 SLP241 T00440022 10056 20022 51022=
201901072256 METAR KPWT 072256Z AUTO 16005KT 10SM FEW014 BKN035 OVC042 06/03 A3017 RMK AO2 SLP237 T00560028=
201901072240 SPECI KPWT 072240Z AUTO 18004KT 10SM FEW014 BKN025 OVC033 06/03 A3017 RMK AO2=
201901072227 SPECI KPWT 072227Z AUTO 13004KT 10SM BKN014 BKN020 OVC025 05/03 A3017 RMK AO2=
201901072220 SPECI KPWT 072220Z AUTO 15004KT 10SM SCT014 OVC025 05/03 A3017 RMK AO2=
201901072156 METAR KPWT 072156Z AUTO 16004KT 10SM BKN014 OVC019 05/03 A3015 RMK AO2 SLP231 T00500028=
201901072056 METAR KPWT 072056Z AUTO VRB03KT 10SM BKN012 OVC017 05/03 A3012 RMK AO2 SLP220 T00500028 51018=
201901071956 METAR KPWT 071956Z AUTO 00000KT 10SM OVC010 04/02 A3011 RMK AO2 CIG 008V012 SLP215 T00390017=
201901071923 SPECI KPWT 071923Z AUTO 24003KT 10SM BKN012 03/02 A3011 RMK AO2=
201901071903 SPECI KPWT 071903Z AUTO 20006KT 10SM SCT006 03/01 A3010 RMK AO2=
201901071856 METAR KPWT 071856Z AUTO 21006KT 10SM BKN006 03/02 A3010 RMK AO2 SLP212 T00330017=
201901071827 SPECI KPWT 071827Z AUTO 00000KT 10SM BKN006 03/03 A3009 RMK AO2=
201901071805 SPECI KPWT 071805Z AUTO 24004KT 10SM FEW004 03/03 A3008 RMK AO2=
201901071756 METAR KPWT 071756Z AUTO 22005KT 10SM FEW006 BKN010 03/03 A3007 RMK AO2 SLP201 6//// T00280028 10028 21022=
201901071747 SPECI KPWT 071747Z AUTO 21004KT 10SM BKN010 03/02 A3006 RMK AO2 CIG 005V012=
201901071737 SPECI KPWT 071737Z AUTO 24003KT 10SM BKN008 03/03 A3006 RMK AO2 CIG 005V011=
201901071656 METAR KPWT 071656Z AUTO 20003KT 10SM FEW005 01/01 A3002 RMK AO2 SLP186 T00060006 FZRANO=
201901071647 SPECI KPWT 071647Z AUTO 00000KT 10SM SCT007 00/M01 A3002 RMK AO2 FZRANO=
201901071632 SPECI KPWT 071632Z AUTO 20003KT 10SM BKN007 BKN120 M01/M01 A3001 RMK AO2 FZRANO=
201901071623 SPECI KPWT 071623Z AUTO 22004KT 10SM SCT007 BKN120 M02/M02 A3000 RMK AO2 FZRANO=
201901071556 METAR KPWT 071556Z AUTO 00000KT 10SM CLR M02/M03 A2998 RMK AO2 SLP169 T10221028 FZRANO=
201901071456 METAR KPWT 071456Z AUTO 00000KT 10SM CLR M02/M02 RMK AO2 SLPNO 6//// T10171022 FZRANO $=
201901071356 METAR KPWT 071356Z AUTO 00000KT 10SM CLR M02/M02 A2990 RMK AO2 SLP144 T10171022 FZRANO=
201901071317 SPECI KPWT 071317Z AUTO 00000KT 4SM BR CLR M01/M02 A2987 RMK AO2 FZRANO=
201901071301 SPECI KPWT 071301Z AUTO 00000KT 1 1/4SM BR SCT001 M01/M02 A2985 RMK AO2 FZRANO=
201901071256 METAR KPWT 071256Z AUTO 00000KT 3/4SM BR VV001 M01/M02 A2985 RMK AO2 SLP127 T10111017 FZRANO=
201901071241 SPECI KPWT 071241Z AUTO 00000KT 1/2SM FZFG OVC001 M01/M01 A2984 RMK AO2 FZRANO=
201901071219 SPECI KPWT 071219Z AUTO 22003KT 1/4SM FG OVC003 01/00 A2983 RMK AO2 FZRANO=
201901071210 SPECI KPWT 071210Z AUTO 20003KT 3/4SM BR OVC003 01/00 A2983 RMK AO2 FZRANO=
201901071206 SPECI KPWT 071206Z AUTO 00000KT 1 3/4SM BR OVC003 01/00 A2983 RMK AO2 FZRANO=
201901071156 METAR KPWT 071156Z AUTO 00000KT 10SM OVC003 01/01 A2982 RMK AO2 SLP115 6//// 7//// T00060006 10017 20006 51022 FZRANO=
201901071056 METAR KPWT 071056Z AUTO 21008KT 10SM OVC005 02/01 A2978 RMK AO2 SLP101 T00170011 FZRANO=
201901071040 SPECI KPWT 071040Z AUTO 21010KT 10SM OVC005 02/02 A2977 RMK AO2 CIG 002V007 FZRANO=
201901070956 METAR KPWT 070956Z AUTO 21007KT 10SM OVC003 02/01 A2975 RMK AO2 SLP094 T00170011 FZRANO=
201901070856 METAR KPWT 070856Z AUTO 19005KT 10SM OVC003 02/01 A2972 RMK AO2 SLP084 6//// T00170011 51028 FZRANO=
201901070756 METAR KPWT 070756Z AUTO 00000KT 9SM BKN003 OVC006 01/01 A2970 RMK AO2 SLP075 T00060006 400610006 FZRANO=
201901070656 METAR KPWT 070656Z AUTO 21008KT 10SM OVC003 01/01 A2967 RMK AO2 SLP067 T00110011 FZRANO=
201901070556 METAR KPWT 070556Z AUTO 19004KT 10SM OVC003 01/01 A2964 RMK AO2 SLP054 6//// T00110011 10039 20011 53024 FZRANO=
201901070456 METAR KPWT 070456Z AUTO 21004KT 10SM OVC005 02/01 A2961 RMK AO2 RAB00E14 SLP045 P0000 T00170011 FZRANO=
201901070356 METAR KPWT 070356Z AUTO 21006KT 10SM OVC005 02/02 A2959 RMK AO2 UPE01RAB01E22 CIG 004V007 SLP039 P0000 T00220017 FZRANO=
201901070256 METAR KPWT 070256Z AUTO 20006KT 10SM UP BKN003 BKN027 BKN046 02/02 A2957 RMK AO2 RAE36UPB14 SLP032 P0000 60008 T00220022 53001 FZRANO=
201901070251 SPECI KPWT 070251Z AUTO 20007KT 10SM UP SCT003 BKN027 BKN039 02/02 A2957 RMK AO2 RAE36UPB14 P0000 FZRANO=
201901070243 SPECI KPWT 070243Z AUTO 20005KT 10SM UP FEW003 SCT008 BKN037 02/02 A2956 RMK AO2 RAE36UPB14 P0000 FZRANO=
201901070208 SPECI KPWT 070208Z AUTO 21003KT 10SM -RA SCT031 BKN055 02/02 A2956 RMK AO2 P0000 FZRANO=
201901070156 METAR KPWT 070156Z AUTO 00000KT 10SM -RA BKN029 OVC033 02/02 A2956 RMK AO2 SLP029 P0004 T00220017 FZRANO=
201901070056 METAR KPWT 070056Z AUTO 29003KT 5SM -RA BR FEW006 BKN023 OVC029 03/02 A2957 RMK AO2 SLP031 P0004 T00280022=
201901070039 SPECI KPWT 070039Z AUTO 27003KT 10SM -RA SCT004 OVC028 03/02 A2957 RMK AO2 P0002=
201901070026 SPECI KPWT 070026Z AUTO 28004KT 10SM -RA BKN004 BKN007 BKN033 03/03 A2957 RMK AO2 P0001=
201901070017 SPECI KPWT 070017Z AUTO 25007KT 10SM -RA SCT004 BKN007 BKN015 04/03 A2957 RMK AO2 P0000=
201901070013 SPECI KPWT 070013Z AUTO 25004KT 10SM -RA SCT007 SCT015 BKN030 04/03 A2957 RMK AO2 P0000=
201901062356 METAR KPWT 062356Z AUTO 26004KT 10SM -RA SCT026 BKN033 04/03 A2956 RMK AO2 SLP029 P0003 60013 T00390028 10056 20039 56003=
201901062334 SPECI KPWT 062334Z AUTO 23004KT 10SM -RA FEW008 SCT016 OVC026 04/03 A2957 RMK AO2 P0003=
201901062310 SPECI KPWT 062310Z AUTO 22007KT 10SM -RA FEW006 BKN010 OVC016 04/03 A2957 RMK AO2 CIG 007V012 P0001=
201901062256 METAR KPWT 062256Z AUTO 22008KT 10SM -RA BKN010 OVC019 04/03 A2956 RMK AO2 CIG 007V014 SLP030 P0006 T00390033=
201901062248 SPECI KPWT 062248Z AUTO 21005KT 10SM -RA SCT010 OVC019 04/03 A2956 RMK AO2 P0006=
201901062229 SPECI KPWT 062229Z AUTO 22005KT 9SM -RA SCT004 OVC010 04/03 A2956 RMK AO2 CIG 007V012 P0005=
201901062221 SPECI KPWT 062221Z AUTO 20006KT 3SM RA BR BKN004 OVC010 04/03 A2956 RMK AO2 CIG 003V008 P0004=
201901062210 SPECI KPWT 062210Z AUTO 23004KT 9SM -RA BKN006 OVC012 04/03 A2956 RMK AO2 CIG 004V010 P0001=
201901062156 METAR KPWT 062156Z AUTO 22003KT 7SM -RA BKN012 OVC019 04/03 A2956 RMK AO2 SLP028 P0001 T00440033=
201901062136 SPECI KPWT 062136Z AUTO 24005KT 10SM -RA BKN014 OVC021 04/03 A2957 RMK AO2 P0000=
201901062056 METAR KPWT 062056Z AUTO 23005KT 10SM -RA BKN021 BKN029 OVC035 04/03 A2957 RMK AO2 RAE23B39 SLP032 P0002 60003 T00440033 58002=
201901062018 SPECI KPWT 062018Z AUTO 22009KT 9SM -RA SCT007 BKN018 OVC030 04/03 A2958 RMK AO2 P0002=
201901061956 METAR KPWT 061956Z AUTO 22009KT 10SM -RA OVC009 05/04 A2958 RMK AO2 RAB19 CIG 005V011 SLP034 P0001 T00500039=
201901061856 METAR KPWT 061856Z AUTO 19008KT 10SM OVC009 05/04 A2959 RMK AO2 SLP036 T00500039=
201901061846 SPECI KPWT 061846Z AUTO 18008KT 10SM BKN007 05/03 A2959 RMK AO2=
201901061820 SPECI KPWT 061820Z AUTO 19009KT 10SM FEW007 04/03 A2958 RMK AO2=
201901061756 METAR KPWT 061756Z AUTO 18010KT 10SM CLR 04/03 A2958 RMK AO2 RAB25E40 SLP033 P0000 6//// T00440028 10044 20039=
201901061723 SPECI KPWT 061723Z AUTO 20013KT 10SM SCT007 SCT027 04/03 A2958 RMK AO2=
201901061715 SPECI KPWT 061715Z AUTO 20011G17KT 10SM BKN007 BKN027 04/03 A2958 RMK AO2 CIG 005V011=
201901061710 SPECI KPWT 061710Z AUTO 20009G17KT 10SM SCT005 BKN027 04/03 A2957 RMK AO2=
201901061656 METAR KPWT 061656Z AUTO 18009KT 10SM BKN005 04/03 A2957 RMK AO2 SLP031 T00390033=
201901061640 SPECI KPWT 061640Z AUTO 18008KT 10SM FEW005 04/03 A2956 RMK AO2=
201901061556 METAR KPWT 061556Z AUTO 20009KT 10SM SCT110 04/02 RMK AO2 SLPNO T00390022 $=
201901061507 SPECI KPWT 061507Z AUTO 19010G16KT 10SM SCT012 SCT120 04/03 A2951 RMK AO2=
201901061456 METAR KPWT 061456Z AUTO 19010KT 10SM BKN014 04/03 A2951 RMK AO2 SLP010 60000 T00390028 51037=
201901061444 SPECI KPWT 061444Z AUTO 19008KT 10SM BKN014 04/03 A2951 RMK AO2=
201901061427 SPECI KPWT 061427Z AUTO 20009KT 10SM SCT011 BKN016 04/03 A2950 RMK AO2=
201901061356 METAR KPWT 061356Z AUTO 20011G17KT 10SM BKN011 04/03 A2948 RMK AO2 SLP000 T00390033=
201901061308 SPECI KPWT 061308Z AUTO 19010G15KT 10SM BKN007 BKN011 04/03 A2945 RMK AO2 CIG 006V011=
201901061256 METAR KPWT 061256Z AUTO 20009KT 10SM FEW007 BKN011 04/03 A2945 RMK AO2 RAB13E25 SLP989 P0000 T00390028=
201901061243 SPECI KPWT 061243Z AUTO 19012G19KT 10SM SCT009 04/03 A2943 RMK AO2 RAB13E25 P0000=
201901061205 SPECI KPWT 061205Z AUTO 20018G23KT 10SM BKN009 BKN015 OVC110 04/03 A2940 RMK AO2 CIG 006V012=
201901061156 METAR KPWT 061156Z AUTO 20015G24KT 10SM SCT009 BKN015 OVC110 04/03 A2940 RMK AO2 SLP972 6//// 7//// T00390028 10061 20039 53082=
201901061056 METAR KPWT 061056Z AUTO 22027G37KT 10SM FEW009 SCT020 BKN100 04/02 A2929 RMK AO2 PK WND 22038/1034 RAE42 SLP937 P0004 T00440022=
201901061045 SPECI KPWT 061045Z AUTO 22027G35KT 10SM SCT009 BKN020 04/03 A2926 RMK AO2 PK WND 22038/1034 RAE42 P0004=
201901060956 METAR KPWT 060956Z AUTO 21015KT 10SM -RA BKN009 OVC013 06/06 A2918 RMK AO2 CIG 007V011 SLP900 P0015 T00610056=
201901060935 SPECI KPWT 060935Z AUTO 23005KT 7SM RA BKN010 OVC017 06/06 A2917 RMK AO2 CIG 008V013 P0011=
201901060856 METAR KPWT 060856Z AUTO 00000KT 4SM RA BR OVC025 06/06 A2915 RMK AO2 SLP889 P0013 60026 T00560056=
201901060846 SPECI KPWT 060846Z AUTO 00000KT 4SM RA BR OVC028 06/05 A2915 RMK AO2 P0011=
201901060756 METAR KPWT 060756Z AUTO 31003KT 5SM RA BR OVC030 06/06 RMK AO2 SLPNO P0011 T00560056 400940028 $=
201901060656 METAR KPWT 060656Z AUTO 00000KT 8SM -RA OVC042 06/05 A2918 RMK AO2 SLP900 P0002 T00560050=
201901060556 METAR KPWT 060556Z AUTO 00000KT 10SM -RA BKN050 BKN060 06/05 A2918 RMK AO2 SLP897 P0003 60010 T00560050 10072 20050 58023=
201901060456 METAR KPWT 060456Z AUTO 26005KT 10SM -RA BKN048 BKN055 06/05 A2921 RMK AO2 RAB01 SLP909 P0000 T00610050=
201901060356 METAR KPWT 060356Z AUTO 00000KT 10SM BKN060 05/05 A2922 RMK AO2 RAB33E46 SLP911 P0000 T00500050=
201901060256 METAR KPWT 060256Z AUTO 00000KT 10SM OVC080 06/05 A2925 RMK AO2 SLP921 60007 T00560050 58040=
201901060156 METAR KPWT 060156Z AUTO 27005KT 10SM FEW049 SCT070 BKN085 06/05 A2928 RMK AO2 RAE44 SLP933 P0001 T00610050=
201901060056 METAR KPWT 060056Z AUTO 00000KT 9SM -RA OVC037 06/06 A2934 RMK AO2 SLP952 P0006 T00610056=
201901052356 METAR KPWT 052356Z AUTO 21005KT 10SM -RA BKN045 OVC060 07/06 A2937 RMK AO2 RAB01 SLP961 P0000 60000 T00670056 10094 20050 56017=
201901052256 METAR KPWT 052256Z AUTO VRB03KT 10SM FEW004 BKN050 BKN060 07/07 A2937 RMK AO2 RAB34E52 SLP962 P0000 T00720067=
201901052156 METAR KPWT 052156Z AUTO 00000KT 10SM CLR 07/07 A2940 RMK AO2 SLP971 T00720067=
201901052056 METAR KPWT 052056Z AUTO 00000KT 10SM CLR 09/06 A2942 RMK AO2 SLP980 T00940061 58032=
201901051956 METAR KPWT 051956Z AUTO 00000KT 10SM FEW095 08/06 A2945 RMK AO2 SLP992 T00830061=
201901051856 METAR KPWT 051856Z AUTO 36003KT 10SM OVC120 07/06 A2949 RMK AO2 SLP004 T00720061=
201901051756 METAR KPWT 051756Z AUTO 00000KT 10SM OVC120 05/04 A2951 RMK AO2 SLP011 T00500044 10050 20028 58022=
201901051656 METAR KPWT 051656Z AUTO 00000KT 9SM CLR 03/03 A2954 RMK AO2 SLP021 T00280028=
201901051556 METAR KPWT 051556Z AUTO 00000KT 10SM CLR 03/03 A2956 RMK AO2 SLP028 T00330028=
201901051456 METAR KPWT 051456Z AUTO 00000KT 7SM FEW120 04/03 A2958 RMK AO2 SLP033 T00390033 56032=
201901051356 METAR KPWT 051356Z AUTO 00000KT 7SM CLR 03/03 A2961 RMK AO2 SLP045 T00330028=
201901051320 SPECI KPWT 051320Z AUTO 00000KT 3SM BR FEW110 04/04 A2963 RMK AO2=
201901051317 SPECI KPWT 051317Z AUTO 00000KT 1 1/4SM BR FEW110 04/04 A2963 RMK AO2 VIS 1/2V5=
201901051305 SPECI KPWT 051305Z AUTO 00000KT 3/4SM BR BKN110 04/04 A2963 RMK AO2=
201901051256 METAR KPWT 051256Z AUTO 00000KT 1 1/4SM BR BKN110 04/04 A2963 RMK AO2 VIS 3/4V4 SLP051 T00440044=
201901051253 SPECI KPWT 051253Z AUTO 00000KT 1 3/4SM BR BKN110 04/04 A2963 RMK AO2 VIS 3/4V4=
201901051240 SPECI KPWT 051240Z AUTO 00000KT 3SM BR BKN110 04/04 A2964 RMK AO2=
201901051234 SPECI KPWT 051234Z AUTO 00000KT 1 3/4SM BR BKN110 04/04 A2964 RMK AO2 VIS 1 1/4V3=
201901051156 METAR KPWT 051156Z AUTO 00000KT 6SM BR FEW100 04/04 A2967 RMK AO2 SLP066 70011 T00390039 10061 20039 58014=
201901051144 SPECI KPWT 051144Z AUTO 00000KT 6SM BR SCT100 04/04 A2968 RMK AO2=
201901051137 SPECI KPWT 051137Z AUTO 00000KT 2 1/2SM BR SCT110 04/04 A2969 RMK AO2 VIS 3/4V5=
201901051128 SPECI KPWT 051128Z AUTO 00000KT 1SM BR FEW110 04/04 A2968 RMK AO2=
201901051115 SPECI KPWT 051115Z AUTO 00000KT 2 1/2SM BR FEW110 04/04 A2970 RMK AO2=
201901051103 SPECI KPWT 051103Z AUTO 00000KT 3SM BR CLR 04/04 A2970 RMK AO2=
201901051056 METAR KPWT 051056Z AUTO 00000KT 2 1/2SM BR CLR 04/04 A2970 RMK AO2 SLP077 T00440044=
201901051052 SPECI KPWT 051052Z AUTO 00000KT 2SM BR CLR 04/04 A2970 RMK AO2=
201901051034 SPECI KPWT 051034Z AUTO 00000KT 1SM BR CLR 04/04 A2971 RMK AO2=
201901051017 SPECI KPWT 051017Z AUTO 00000KT 1 1/4SM BR CLR 04/04 A2972 RMK AO2 VIS 1/2V5=
201901051004 SPECI KPWT 051004Z AUTO 00000KT 3/4SM BR FEW120 04/04 A2972 RMK AO2=
201901050956 METAR KPWT 050956Z AUTO 00000KT 1 3/4SM BR FEW120 05/05 A2972 RMK AO2 SLP082 T00500050=
201901050948 SPECI KPWT 050948Z AUTO 00000KT 3SM BR FEW120 05/05 A2972 RMK AO2=
201901050936 SPECI KPWT 050936Z AUTO 00000KT 1 3/4SM BR FEW120 05/04 A2973 RMK AO2=
201901050914 SPECI KPWT 050914Z AUTO 00000KT 3SM BR FEW044 SCT120 06/05 A2973 RMK AO2=
201901050903 SPECI KPWT 050903Z AUTO 00000KT 2SM BR SCT044 06/06 A2974 RMK AO2=
201901050856 METAR KPWT 050856Z AUTO 00000KT 4SM BR BKN044 06/06 A2974 RMK AO2 SLP089 T00610056 58023=
201901050756 METAR KPWT 050756Z AUTO 00000KT 8SM BKN039 OVC050 06/06 A2976 RMK AO2 SLP098 T00610056 401000044=
201901050656 METAR KPWT 050656Z AUTO 00000KT 7SM SCT022 OVC065 06/06 A2979 RMK AO2 SLP106 T00610056=
201901050620 SPECI KPWT 050620Z AUTO 00000KT 10SM BKN022 BKN029 OVC060 06/06 A2980 RMK AO2=
201901050556 METAR KPWT 050556Z AUTO 00000KT 10SM FEW022 BKN070 OVC085 06/06 A2981 RMK AO2 SLP113 60001 T00560056 10078 20044 58013=
201901050513 SPECI KPWT 050513Z AUTO 00000KT 4SM BR BKN090 05/05 A2981 RMK AO2=
201901050501 SPECI KPWT 050501Z AUTO 00000KT 2SM BR FEW025 SCT050 BKN085 05/04 A2982 RMK AO2=
201901050456 METAR KPWT 050456Z AUTO 00000KT 1SM BR FEW025 SCT050 BKN085 04/04 A2982 RMK AO2 SLP116 T00440044=
201901050448 SPECI KPWT 050448Z AUTO 00000KT 1 3/4SM BR FEW025 BKN050 05/05 A2982 RMK AO2=
201901050356 METAR KPWT 050356Z AUTO 00000KT 10SM FEW028 SCT034 BKN050 06/06 A2984 RMK AO2 RAE16 SLP124 P0000 T00610056=
201901050256 METAR KPWT 050256Z AUTO 25003KT 10SM -RA FEW026 BKN037 OVC047 08/07 A2985 RMK AO2 RAE24B44 SLP125 P0000 60001 T00780067 53005=
201901050215 SPECI KPWT 050215Z AUTO 19004KT 10SM -RA SCT020 SCT028 OVC039 08/07 A2984 RMK AO2 P0000=
201901050156 METAR KPWT 050156Z AUTO 19005KT 10SM -RA SCT020 BKN027 OVC039 08/07 A2984 RMK AO2 RAB17 SLP124 P0001 T00780072=
201901050145 SPECI KPWT 050145Z AUTO 18008KT 10SM SCT023 BKN031 OVC039 08/07 A2984 RMK AO2 RAB17E39 P0001=
201901050056 METAR KPWT 050056Z AUTO 18008KT 10SM FEW008 BKN020 OVC043 08/07 A2983 RMK AO2 RAB39E54 CIG 016V028 SLP120 P0000 T00780067=
201901050034 SPECI KPWT 050034Z AUTO 18006KT 10SM SCT008 BKN019 OVC026 08/07 A2982 RMK AO2=
201901050022 SPECI KPWT 050022Z AUTO 19008KT 10SM BKN008 OVC019 08/07 A2983 RMK AO2=
201901042356 METAR KPWT 042356Z AUTO 19009KT 10SM FEW008 BKN019 BKN023 08/07 A2983 RMK AO2 SLP120 60003 T00780067 10100 20078 53006=
201901042338 SPECI KPWT 042338Z AUTO 19008KT 10SM FEW008 SCT012 BKN028 08/07 A2983 RMK AO2=
201901042256 METAR KPWT 042256Z AUTO 19013KT 10SM SCT023 08/07 A2982 RMK AO2 SLP117 T00830067=
201901042156 METAR KPWT 042156Z AUTO 20011G18KT 10SM FEW012 BKN023 10/07 A2981 RMK AO2 SLP113 T01000072=
201901042151 SPECI KPWT 042151Z AUTO 21013KT 10SM FEW012 BKN020 BKN026 10/07 A2981 RMK AO2=
201901042056 METAR KPWT 042056Z AUTO 20016G24KT 10SM FEW043 08/07 A2979 RMK AO2 RAB09E19 SLP107 P0000 60003 T00830067 58015=
201901041956 METAR KPWT 041956Z AUTO 21019G23KT 10SM FEW026 08/07 A2982 RMK AO2 PK WND 21026/1938 SLP115 T00830067=
201901041920 SPECI KPWT 041920Z AUTO 20017G24KT 10SM FEW008 SCT029 09/07 A2982 RMK AO2=
201901041906 SPECI KPWT 041906Z AUTO 20016G23KT 10SM SCT008 BKN029 08/07 A2983 RMK AO2=
201901041856 METAR KPWT 041856Z AUTO 20015G23KT 10SM BKN008 OVC029 08/07 A2984 RMK AO2 RAE44 CIG 007V012 SLP122 P0003 T00830072=
201901041823 SPECI KPWT 041823Z AUTO 20016G19KT 8SM -RA BKN010 OVC027 08/07 A2984 RMK AO2 CIG 007V014 P0003=
201901041816 SPECI KPWT 041816Z AUTO 21015G19KT 8SM -RA SCT010 BKN027 OVC038 08/07 A2984 RMK AO2 P0002=
201901041806 SPECI KPWT 041806Z AUTO 20015G22KT 8SM -RA BKN010 BKN026 OVC042 08/07 A2984 RMK AO2 CIG 007V014 P0001=
201901041756 METAR KPWT 041756Z AUTO 20013G19KT 7SM -RA FEW010 SCT026 OVC040 08/07 A2984 RMK AO2 RAB40 SLP122 P0003 60007 T00780067 10078 20072 53019=
201901041738 SPECI KPWT 041738Z AUTO 19011G16KT 10SM SCT010 BKN040 OVC050 08/07 A2983 RMK AO2=
201901041725 SPECI KPWT 041725Z AUTO 20011G17KT 10SM SCT008 BKN025 OVC055 08/07 A2983 RMK AO2=
201901041656 METAR KPWT 041656Z AUTO 20010KT 10SM OVC008 08/07 A2982 RMK AO2 PK WND 18026/1632 RAE04B35E54 CIG 006V012 SLP117 P0000 T00780067=
201901041604 SPECI KPWT 041604Z AUTO 20010KT 10SM BKN008 BKN035 BKN045 07/07 A2980 RMK AO2 LTG DSNT W RAE04 CIG 005V013 P0000=
201901041556 METAR KPWT 041556Z AUTO 19010G18KT 10SM -RA SCT008 SCT011 BKN041 07/07 A2979 RMK AO2 RAB52 SLP105 P0000 T00720067=
201901041534 SPECI KPWT 041534Z AUTO 18010G17KT 10SM SCT006 SCT029 07/06 A2978 RMK AO2=
201901041456 METAR KPWT 041456Z AUTO 19011G18KT 10SM OVC006 07/07 A2978 RMK AO2 RAB19E31 SLP103 P0000 60004 T00720067 53012=
201901041356 METAR KPWT 041356Z AUTO 20012G20KT 10SM OVC006 08/07 A2977 RMK AO2 RAE13 SLP099 P0000 T00780067=
201901041256 METAR KPWT 041256Z AUTO 20015G20KT 10SM -RA BKN006 OVC010 08/07 A2974 RMK AO2 CIG 004V009 SLP091 P0004 T00780067=
201901041156 METAR KPWT 041156Z AUTO 19013G20KT 10SM -RA BKN006 OVC011 08/07 A2974 RMK AO2 RAE01B23 CIG 005V010 SLP090 P0005 60042 70160 T00780067 10089 20078 51008=
201901041056 METAR KPWT 041056Z AUTO 20012KT 10SM -RA OVC006 08/07 A2974 RMK AO2 RAE21B48 SLP089 P0000 T00780067=
201901040956 METAR KPWT 040956Z AUTO 20012G19KT 10SM -RA OVC004 08/07 A2974 RMK AO2 CIG 004V009 SLP087 P0004 T00780067=
201901040920 SPECI KPWT 040920Z AUTO 18011KT 7SM -RA OVC004 08/07 A2972 RMK AO2 CIG 003V008 P0002=
201901040856 METAR KPWT 040856Z AUTO 19009G16KT 10SM -RA BKN006 OVC013 08/07 A2972 RMK AO2 SLP082 P0005 60033 T00780072 51026=
201901040756 METAR KPWT 040756Z AUTO 20010KT 7SM RA OVC006 08/07 A2971 RMK AO2 CIG 004V008 SLP078 P0012 T00830072 401000044=
201901040744 SPECI KPWT 040744Z AUTO 20008KT 8SM RA BKN006 OVC010 08/08 A2971 RMK AO2 CIG 004V007 P0009=
201901040721 SPECI KPWT 040721Z AUTO 19010KT 10SM -RA SCT008 BKN014 OVC043 08/07 A2971 RMK AO2 P0003=
201901040714 SPECI KPWT 040714Z AUTO 20012G17KT 10SM -RA FEW011 BKN023 OVC043 08/07 A2970 RMK AO2 P0003=
201901040703 SPECI KPWT 040703Z AUTO 20013G20KT 10SM -RA FEW006 BKN035 OVC043 08/07 A2970 RMK AO2 P0001=
201901040656 METAR KPWT 040656Z AUTO 19015G22KT 10SM -RA FEW006 BKN024 OVC043 08/07 A2969 RMK AO2 SLP073 P0016 T00830067=
201901040642 SPECI KPWT 040642Z AUTO 21018G24KT 6SM -RA BR SCT006 BKN024 OVC043 08/07 A2969 RMK AO2 P0014=
201901040556 METAR KPWT 040556Z AUTO 18010G17KT 10SM -RA BKN028 OVC040 09/07 A2964 RMK AO2 SLP056 P0011 60033 T00890072 10100 20083 56025=
201901040456 METAR KPWT 040456Z AUTO 19012G18KT 10SM -RA OVC028 10/07 A2965 RMK AO2 RAB11 SLP059 P0000 T01000067=
201901040356 METAR KPWT 040356Z AUTO 20013G18KT 10SM OVC024 09/08 A2971 RMK AO2 SLP078 T00940078=
201901040256 METAR KPWT 040256Z AUTO 20012G19KT 10SM OVC018 09/08 A2972 RMK AO2 RAB34E52 SLP082 P0000 60022 T00940078 58020=
201901040156 METAR KPWT 040156Z AUTO 20010KT 10SM SCT006 OVC016 09/08 A2973 RMK AO2 RAE51 SLP088 P0005 T00890078=
201901040113 SPECI KPWT 040113Z AUTO 20010KT 5SM RA BR BKN006 OVC013 09/08 A2976 RMK AO2 CIG 004V011 P0003=
201901040056 METAR KPWT 040056Z AUTO 20013G19KT 4SM -RA BR OVC004 09/08 A2976 RMK AO2 SLP097 P0017 T00890078=
201901032356 METAR KPWT 032356Z AUTO 20015G20KT 5SM -RA BR OVC004 09/08 A2978 RMK AO2 SLP102 P0012 60037 T00890083 10089 20072 58006=
201901032347 SPECI KPWT 032347Z AUTO 20013G21KT 4SM -RA BR OVC004 09/08 A2977 RMK AO2 P0011=
201901032336 SPECI KPWT 032336Z AUTO 20015G23KT 2 1/2SM -RA BR OVC004 09/08 A2978 RMK AO2 VIS 2V3 P0008=
201901032307 SPECI KPWT 032307Z AUTO 20017G22KT 3SM -RA BR OVC006 09/08 A2978 RMK AO2 CIG 004V009 P0002=
201901032256 METAR KPWT 032256Z AUTO 20020G26KT 3SM -RA BR OVC004 09/08 A2979 RMK AO2 PK WND 21027/2229 CIG 004V008 SLP106 P0010 T00890078=
201901032242 SPECI KPWT 032242Z AUTO 21018G25KT 2SM -RA BR OVC004 08/08 A2979 RMK AO2 PK WND 21027/2229 CIG 004V008 P0006=
201901032156 METAR KPWT 032156Z AUTO 20015G26KT 3SM -RA BR OVC004 08/08 A2978 RMK AO2 PK WND 19026/2153 SLP105 P0005 T00830078=
201901032056 METAR KPWT 032056Z AUTO 20013G21KT 5SM RA BR OVC004 08/07 A2979 RMK AO2 PK WND 20028/1957 SLP109 P0009 60010 T00830072 58019=
201901031956 METAR KPWT 031956Z AUTO 19017G23KT 4SM -RA BR OVC004 08/07 A2982 RMK AO2 PK WND 20030/1944 SLP116 P0000 T00780072=
201901031856 METAR KPWT 031856Z AUTO 19019G25KT 3SM -RA BR OVC004 08/07 A2984 RMK AO2 PK WND 20028/1810 SLP122 P0001 T00780072=
201901031826 SPECI KPWT 031826Z AUTO 19017G24KT 3SM -RA BR OVC004 07/07 A2985 RMK AO2 PK WND 20028/1810 P0001=
201901031816 SPECI KPWT 031816Z AUTO 20014G28KT 2 1/2SM -RA BR OVC004 07/07 RMK AO2 PK WND 20028/1810 VIS 1 1/2V4 P0001 $=
201901031756 METAR KPWT 031756Z AUTO 20017G24KT 3SM -RA BR OVC004 07/07 A2985 RMK AO2 SLP126 P0001 60048 T00720067 10072 20056 56005=
201901031656 METAR KPWT 031656Z AUTO 20019G24KT 3SM -RA BR OVC004 07/06 A2986 RMK AO2 PK WND 20026/1645 SLP129 P0007 T00670061=
201901031648 SPECI KPWT 031648Z AUTO 20015G26KT 3SM -RA BR OVC004 07/06 A2986 RMK AO2 PK WND 20026/1645 P0007=
201901031556 METAR KPWT 031556Z AUTO 20017G22KT 6SM -RA BR OVC006 06/06 A2986 RMK AO2 PK WND 20027/1533 SLP128 P0014 T00610056=
201901031456 METAR KPWT 031456Z AUTO 20011G20KT 7SM -RA OVC006 06/06 A2987 RMK AO2 CIG 004V010 SLP132 P0011 60026 T00610056 56017=
201901031356 METAR KPWT 031356Z AUTO 20015G22KT 6SM -RA BR OVC006 06/06 A2987 RMK AO2 CIG 004V010 SLP134 P0010 T00610056=
201901031256 METAR KPWT 031256Z AUTO 20014G18KT 7SM -RA BKN008 OVC012 06/05 A2990 RMK AO2 CIG 005V009 SLP142 P0005 T00560050=
201901031231 SPECI KPWT 031231Z AUTO 20012G19KT 7SM -RA FEW008 OVC017 06/05 A2991 RMK AO2 P0003=
201901031156 METAR KPWT 031156Z AUTO 21013KT 8SM -RA OVC017 06/04 A2992 RMK AO2 SLP149 P0007 60025 7//// T00560044 10056 20039 56015=
201901031123 SPECI KPWT 031123Z AUTO 21015G21KT 10SM -RA SCT008 OVC019 05/04 A2992 RMK AO2 P0001=
201901031056 METAR KPWT 031056Z AUTO 21009KT 6SM -RA BR BKN008 OVC019 05/04 A2993 RMK AO2 CIG 004V010 SLP153 P0002 T00500044=
201901030956 METAR KPWT 030956Z AUTO 21006KT 9SM -RA FEW006 OVC021 04/04 A2994 RMK AO2 SLP156 P0003 T00440039=
201901030934 SPECI KPWT 030934Z AUTO 21007KT 5SM -RA BR FEW006 OVC023 04/04 A2994 RMK AO2 P0002=
201901030856 METAR KPWT 030856Z AUTO 26008KT 10SM -RA OVC023 04/03 A2996 RMK AO2 SLP164 P0004 60013 T00440033 58018=
201901030756 METAR KPWT 030756Z AUTO 23008KT 5SM -RA BR SCT009 OVC023 04/03 A2998 RMK AO2 SLP173 P0005 T00440033 400611033=
201901030730 SPECI KPWT 030730Z AUTO 22010KT 4SM -RA BR FEW007 OVC027 04/03 A2999 RMK AO2 P0004=
201901030656 METAR KPWT 030656Z AUTO 24005KT 4SM -RA BR FEW019 OVC027 04/03 A3000 RMK AO2 SLP178 P0004 T00390033=
201901030606 SPECI KPWT 030606Z AUTO 26005KT 6SM -RA BR FEW002 OVC027 04/03 A3001 RMK AO2 P0000=
201901030556 METAR KPWT 030556Z AUTO 24005KT 7SM -RA OVC027 04/03 A3001 RMK AO2 SLP182 P0000 60000 T00390033 10061 20039 58020=
201901030514 SPECI KPWT 030514Z AUTO 22007KT 10SM FEW003 BKN026 OVC032 04/03 A3003 RMK AO2 RAE05 P0000=
201901030456 METAR KPWT 030456Z AUTO 23006KT 10SM -RA FEW003 SCT011 OVC030 04/03 A3003 RMK AO2 SLP188 P0000 T00390033=
201901030432 SPECI KPWT 030432Z AUTO 25006KT 10SM -RA FEW003 OVC030 04/03 A3004 RMK AO2 P0000=
201901030415 SPECI KPWT 030415Z AUTO 24004KT 10SM -RA OVC028 04/03 A3005 RMK AO2 P0000=
201901030356 METAR KPWT 030356Z AUTO 22006KT 10SM -RA OVC030 04/03 A3006 RMK AO2 SLP198 P0000 T00390033=
201901030256 METAR KPWT 030256Z AUTO 23007KT 10SM -RA OVC035 05/02 A3007 RMK AO2 RAB56 SLP202 P0000 60000 T00500022 50001=
201901030156 METAR KPWT 030156Z AUTO 23008KT 10SM BKN037 OVC045 05/01 A3008 RMK AO2 SLP205 T00500011=
201901030056 METAR KPWT 030056Z AUTO 22006KT 10SM SCT036 OVC046 06/M01 A3008 RMK AO2 SLP203 T00561006=
201901022356 METAR KPWT 022356Z AUTO 21006KT 10SM OVC037 06/M01 A3007 RMK AO2 SLP201 6//// T00611011 10061 20017 56013=
201901022256 METAR KPWT 022256Z AUTO 20010KT 10SM OVC043 06/M02 A3007 RMK AO2 SLP202 T00611017=
201901022156 METAR KPWT 022156Z AUTO 21011G17KT 10SM FEW060 06/M02 A3008 RMK AO2 SLP206 T00611017=
201901022056 METAR KPWT 022056Z AUTO 20010G16KT 10SM SCT046 BKN060 06/M01 A3011 RMK AO2 SLP215 6//// T00561011=
201901021956 METAR KPWT 021956Z AUTO 21010KT 10SM OVC048 03/01 A3014 RMK AO2 SLP223 T00330011=
201901021856 METAR KPWT 021856Z AUTO 10SM BKN046 02/02 RMK AO2 SLPNO T00220017 FZRANO $=
201901021756 METAR KPWT 021756Z AUTO 23005KT 10SM BKN050 OVC070 02/01 A3017 RMK AO2 SLP234 6//// T00170011 10017 21006 58010 FZRANO=
201901021656 METAR KPWT 021656Z AUTO VRB03KT 10SM SCT003 01/01 A3018 RMK AO2 SLP239 T00110006 FZRANO=
201901021649 SPECI KPWT 021649Z AUTO 22003KT 10SM BKN003 01/00 A3018 RMK AO2 FZRANO=
201901021612 SPECI KPWT 021612Z AUTO 21004KT 4SM BR FEW003 00/M01 A3019 RMK AO2 FZRANO=
201901021603 SPECI KPWT 021603Z AUTO 20003KT 1 3/4SM BR SCT003 00/00 A3019 RMK AO2 FZRANO=
201901021600 SPECI KPWT 021600Z AUTO 21003KT 3SM BR BKN003 01/00 A3020 RMK AO2 FZRANO=
201901021556 METAR KPWT 021556Z AUTO 23004KT 1 1/4SM BR BKN003 01/00 A3020 RMK AO2 SLP246 T00060000 FZRANO=
201901021547 SPECI KPWT 021547Z AUTO 25003KT 3/4SM BR OVC003 01/00 A3020 RMK AO2 FZRANO=
201901021541 SPECI KPWT 021541Z AUTO 26003KT 1 3/4SM BR OVC003 01/00 A3020 RMK AO2 FZRANO=
201901021456 METAR KPWT 021456Z AUTO 26004KT 8SM BKN003 OVC110 01/00 A3020 RMK AO2 SLP244 T00060000 55014 FZRANO=
201901021419 SPECI KPWT 021419Z AUTO 22003KT 9SM SCT001 OVC100 00/00 A3019 RMK AO2 FZRANO=
201901021400 SPECI KPWT 021400Z AUTO 26003KT 3SM BR OVC001 00/00 A3019 RMK AO2 FZRANO=
201901021358 SPECI KPWT 021358Z AUTO 26003KT 1 1/2SM BR OVC001 00/00 A3019 RMK AO2 FZRANO TSNO=
201901021356 METAR KPWT 021356Z AUTO 26003KT 3/4SM BR OVC001 00/M01 A3019 RMK AO2 SLP243 T00001006 FZRANO=
201901021256 METAR KPWT 021256Z AUTO 00000KT 1/4SM FG OVC001 00/M01 A3021 RMK AO2 SLP251 T00001006 FZRANO=
201901021156 METAR KPWT 021156Z AUTO 00000KT 1/4SM FZFG OVC001 M01/M01 A3024 RMK AO2 SLP259 6//// 7//// T10061006 10000 21033 58014 FZRANO=
201901021056 METAR KPWT 021056Z AUTO 28003KT 1/4SM FZFG OVC001 M01/M01 A3028 RMK AO2 SLP272 T10061006 FZRANO=
201901021038 SPECI KPWT 021038Z AUTO 00000KT 1/4SM FZFG OVC001 M01/M01 A3027 RMK AO2 PRESFR FZRANO=
201901021029 SPECI KPWT 021029Z AUTO 21003KT 1/2SM FZFG OVC003 M01/M01 A3029 RMK AO2 FZRANO TSNO=
201901021026 SPECI KPWT 021026Z AUTO 22004KT 1SM BR OVC003 M01/M01 A3029 RMK AO2 FZRANO=
201901021022 SPECI KPWT 021022Z AUTO 26003KT 2 1/2SM BR BKN003 M01/M01 A3030 RMK AO2 FZRANO=
201901021015 SPECI KPWT 021015Z AUTO 24005KT 3SM BR BKN003 M02/M02 A3030 RMK AO2 FZRANO=
201901021006 SPECI KPWT 021006Z AUTO 00000KT 10SM SCT003 M03/M03 A3029 RMK AO2 FZRANO=
201901020956 METAR KPWT 020956Z AUTO 00000KT 10SM CLR M03/M03 A3029 RMK AO2 SLP275 T10331033 FZRANO=
201901020856 METAR KPWT 020856Z AUTO 00000KT 10SM CLR M03/M03 A3028 RMK AO2 SLP273 6//// T10281028 58007 FZRANO=
201901020756 METAR KPWT 020756Z AUTO 00000KT 9SM CLR M03/M03 A3030 RMK AO2 SLP280 T10331033 400611033 FZRANO=
201901020656 METAR KPWT 020656Z AUTO 00000KT 8SM CLR M03/M03 A3030 RMK AO2 SLP280 T10281033 FZRANO=
201901020642 SPECI KPWT 020642Z AUTO 00000KT 9SM CLR M03/M03 A3031 RMK AO2 FZRANO=
201901020635 SPECI KPWT 020635Z AUTO 00000KT 2 1/2SM BR CLR M03/M03 A3031 RMK AO2 FZRANO=
201901020625 SPECI KPWT 020625Z AUTO 00000KT 5SM BR CLR M03/M03 A3032 RMK AO2 FZRANO=
201901020609 SPECI KPWT 020609Z AUTO 00000KT 1 3/4SM BR CLR M03/M03 A3031 RMK AO2 FZRANO=
201901020556 METAR KPWT 020556Z AUTO 00000KT 7SM CLR M02/M03 A3030 RMK AO2 SLP279 6//// T10221028 10033 21022 58020 FZRANO=
201901020456 METAR KPWT 020456Z AUTO 00000KT 6SM BR CLR M02/M03 A3033 RMK AO2 SLP290 T10221028 FZRANO=
201901020411 SPECI KPWT 020411Z AUTO 00000KT 7SM CLR M02/M02 A3034 RMK AO2 FZRANO=
201901020404 SPECI KPWT 020404Z AUTO 00000KT 2 1/2SM BR CLR M02/M02 A3034 RMK AO2 FZRANO=
201901020356 METAR KPWT 020356Z AUTO 00000KT 1SM BR CLR M02/M02 A3035 RMK AO2 VIS 1/2V5 SLP297 T10171022 FZRANO=
201901020345 SPECI KPWT 020345Z AUTO 00000KT 3/4SM BR CLR M02/M02 A3035 RMK AO2 VIS 1/2V2 FZRANO=
201901020341 SPECI KPWT 020341Z AUTO 00000KT 1 1/2SM BR CLR M02/M02 A3035 RMK AO2 VIS 3/4V5 FZRANO=
201901020256 METAR KPWT 020256Z AUTO 00000KT 8SM CLR M01/M02 A3036 RMK AO2 SLP300 T10111017 58006 FZRANO=
201901020156 METAR KPWT 020156Z AUTO 00000KT 9SM CLR M01/M01 A3037 RMK AO2 SLP301 T10061011 FZRANO=
201901020056 METAR KPWT 020056Z AUTO 00000KT 9SM CLR 01/M01 A3038 RMK AO2 SLP307 T00061006 FZRANO=
201901012356 METAR KPWT 012356Z AUTO 00000KT 10SM CLR 03/02 A3038 RMK AO2 SLP307 T00330017 10061 20022 56005=
201901012256 METAR KPWT 012256Z AUTO 23003KT 10SM CLR 04/02 A3038 RMK AO2 SLP307 T00390022=
201901012156 METAR KPWT 012156Z AUTO 24005KT 10SM CLR 05/02 A3038 RMK AO2 SLP308 T00500022=
201901012056 METAR KPWT 012056Z AUTO 00000KT 10SM CLR 05/01 A3039 RMK AO2 SLP312 T00500006 58019=
201901011956 METAR KPWT 011956Z AUTO 04004KT 10SM FEW007 05/02 A3042 RMK AO2 SLP321 T00500017=
201901011929 SPECI KPWT 011929Z AUTO 00000KT 10SM FEW007 04/02 A3043 RMK AO2=
201901011856 METAR KPWT 011856Z AUTO 8SM BKN060 03/03 A3043 RMK AO2 SLP325 T00280028=
201901011756 METAR KPWT 011756Z AUTO 00000KT 10SM BKN070 BKN120 02/02 A3045 RMK AO2 SLP330 6//// T00220017 10022 21017 51007 FZRANO=
201901011656 METAR KPWT 011656Z AUTO 00000KT 4SM BR BKN120 00/M01 A3045 RMK AO2 SLP330 T00001006 FZRANO=
201901011642 SPECI KPWT 011642Z AUTO 00000KT 3SM BR CLR M01/M01 A3045 RMK AO2 FZRANO=
201901011636 SPECI KPWT 011636Z AUTO 00000KT 1 1/2SM BR CLR M01/M01 A3045 RMK AO2 FZRANO=
201901011625 SPECI KPWT 011625Z AUTO 1SM BR CLR M01/M01 RMK AO2 FZRANO $=
201901011621 SPECI KPWT 011621Z AUTO 00000KT 3/4SM BR VV001 M01/M01 A3045 RMK AO2 FZRANO=
201901011556 METAR KPWT 011556Z AUTO 00000KT M1/4SM FZFG OVC001 M01/M01 A3044 RMK AO2 SLP327 T10061006 FZRANO=
201901011521 SPECI KPWT 011521Z AUTO 00000KT 1/4SM FG OVC001 00/M01 A3043 RMK AO2 FZRANO=
201901011513 SPECI KPWT 011513Z AUTO 00000KT 1/2SM FG OVC001 00/M01 A3043 RMK AO2 FZRANO TSNO=
201901011510 SPECI KPWT 011510Z AUTO 00000KT 3/4SM BR OVC003 00/M01 A3042 RMK AO2 FZRANO=
201901011507 SPECI KPWT 011507Z AUTO 14003KT 1 3/4SM BR OVC003 00/M01 A3042 RMK AO2 FZRANO=
201901011456 METAR KPWT 011456Z AUTO 00000KT 10SM OVC003 00/M01 A3043 RMK AO2 SLP324 T00001006 55005 FZRANO=
201901011356 METAR KPWT 011356Z AUTO 00000KT 10SM OVC003 M01/M01 A3042 RMK AO2 CIG 001V005 SLP320 T10061011 FZRANO=
201901011334 SPECI KPWT 011334Z AUTO 00000KT 9SM SCT005 BKN080 M01/M01 A3043 RMK AO2 FZRANO=
201901011256 METAR KPWT 011256Z AUTO 00000KT 10SM OVC075 M01/M01 A3044 RMK AO2 SLP327 T10061011 FZRANO=
201901011156 METAR KPWT 011156Z AUTO 00000KT 10SM FEW075 SCT090 M01/M02 A3045 RMK AO2 SLP330 6//// 7//// T10111017 11006 21028 50001 FZRANO=
201901011056 METAR KPWT 011056Z AUTO 00000KT 10SM SCT070 M01/M01 A3045 RMK AO2 SLP331 T10061011 FZRANO=
201901010956 METAR KPWT 010956Z AUTO 00000KT 9SM FEW070 SCT095 M01/M01 A3045 RMK AO2 SLP330 T10061011 FZRANO=
201901010856 METAR KPWT 010856Z AUTO 00000KT 10SM FEW090 M02/M02 A3044 RMK AO2 SLP329 6//// T10171017 53002 FZRANO=
201901010756 METAR KPWT 010756Z AUTO 00000KT 10SM CLR M02/M02 A3044 RMK AO2 SLP327 T10221022 400611028 FZRANO=
201901010656 METAR KPWT 010656Z AUTO 00000KT 10SM CLR M02/M03 A3044 RMK AO2 SLP328 T10221028 FZRANO=
201901010556 METAR KPWT 010556Z AUTO 00000KT 10SM CLR M02/M03 A3044 RMK AO2 SLP328 6//// T10221028 10044 21022 56013 FZRANO=
201901010456 METAR KPWT 010456Z AUTO 00000KT 10SM CLR M02/M02 A3045 RMK AO2 SLP329 T10221022 FZRANO=
201901010356 METAR KPWT 010356Z AUTO 00000KT 10SM CLR M02/M02 A3046 RMK AO2 SLP336 T10171022 FZRANO=
201901010256 METAR KPWT 010256Z AUTO 00000KT 10SM CLR M02/M02 A3048 RMK AO2 SLP341 T10171022 58002 FZRANO=
201901010156 METAR KPWT 010156Z AUTO 00000KT 10SM CLR M01/M02 A3048 RMK AO2 SLP342 T10111017 FZRANO=
201901010056 METAR KPWT 010056Z AUTO 00000KT 10SM CLR 01/00 A3049 RMK AO2 SLP343 T00110000 FZRANO=

# No short TAF reports from KPWT in databse.

###################################
#  large TAF from KPWT
###################################
201901312326 TAF KPWT 312326Z 0100/0124 21006KT P6SM BKN120 BKN200 FM010600
                       18010KT P6SM BKN050 OVC100 FM011000 18010KT
                       P6SM -RA OVC025 FM011600 18012KT 5SM -RA
                       BR OVC015 FM012100 20010KT P6SM -SHRA BKN020
                       OVC040=
201901311720 TAF KPWT 311720Z 3118/0118 00000KT P6SM BKN100 FM312000 20006KT
                       P6SM OVC100 FM010300 19006KT P6SM OVC050
                       FM010800 19008KT 5SM -RA BR SCT010 OVC035
                       FM011000 19008KT 4SM -RA BR OVC008=
201901311120 TAF KPWT 311120Z 3112/0112 00000KT P6SM BKN120 FM312000 20006KT
                       P6SM OVC100 FM010300 19006KT P6SM OVC050
                       FM010800 19008KT 5SM -RA BR SCT010 OVC035
                       FM011000 19008KT 4SM -RA BR OVC008=
201901310533 TAF KPWT 310533Z 3106/0106 05005KT P6SM BKN180 FM311000 14003KT
                       P6SM OVC150 FM312000 18006KT P6SM OVC100
                       FM010300 19005KT P6SM OVC050=
201901302320 TAF KPWT 302320Z 3100/3124 VRB03KT P6SM BKN150 BKN250 FM312000
                       18006KT P6SM BKN120 BKN200=
201901301720 TAF KPWT 301720Z 3018/3118 VRB03KT P6SM SCT120 BKN250 FM311000
                       VRB03KT P6SM BKN120 BKN200=
201901301120 TAF KPWT 301120Z 3012/3112 VRB03KT P6SM BKN200 FM310300 00000KT
                       P6SM OVC100=
201901300520 TAF KPWT 300520Z 3006/3106 04004KT P6SM FEW250 FM301200 VRB03KT
                       P6SM BKN200 FM310300 00000KT P6SM OVC100=
201901292320 TAF KPWT 292320Z 3000/3024 06006KT P6SM SCT250 FM300600 00000KT
                       P6SM BKN250 FM301200 VRB03KT P6SM BKN200=
201901291720 TAF KPWT 291720Z 2918/3018 04006KT P6SM SCT250=
201901291120 TAF KPWT 291120Z 2912/3012 04006KT P6SM SCT250=
201901290520 TAF KPWT 290520Z 2906/3006 04006KT P6SM SCT250=
201901282320 TAF KPWT 282320Z 2900/2924 03008KT P6SM SCT250=
201901281720 TAF KPWT 281720Z 2818/2918 05010KT P6SM BKN250=
201901281359 KPWT 281359Z 2814/2912 04008KT P6SM FEW250=
201901281123 TAF KPWT 281123Z 2812/2912 04012KT P6SM OVC010 FM281700 03007KT
                       P6SM FEW250=
201901280858 KPWT 280858Z 2809/2906 03012KT P6SM OVC008 FM281700 03006KT P6SM
                       FEW250=
201901280522 TAF KPWT 280522Z 2806/2906 03005KT P6SM OVC010 FM281000 03010KT
                       P6SM SCT010 SCT250
                      TEMPO 2810/2814 4SM BR OVC003 FM281700 03006KT
                       P6SM FEW250=
201901272336 TAF KPWT 272336Z 2800/2824 03005KT P6SM OVC005 FM280400 03008KT
                       P6SM SCT008 SCT250
                      TEMPO 2810/2814 4SM BR OVC003 FM281700 03006KT
                       P6SM FEW250=
201901272138 KPWT 272138Z 2722/2818 03006KT P6SM OVC005 FM280200 03008KT P6SM
                       SCT008 SCT250
                      TEMPO 2810/2814 4SM BR OVC003 FM281700 03006KT
                       P6SM FEW250=
201901271728 TAF KPWT 271728Z 2718/2818 04005KT P6SM OVC003 FM272100 03005KT
                       P6SM SCT250 FM280900 03007KT 4SM BR OVC003
                       FM281700 03006KT P6SM FEW250=
201901271608 KPWT 271608Z 2716/2812 03004KT P6SM OVC003 FM271800 02004KT P6SM
                       SCT004 SCT250 FM272100 02005KT P6SM SCT250
                       FM281000 03006KT 4SM BR SCT250=
201901271120 TAF KPWT 271120Z 2712/2812 00000KT 1/4SM FG OVC004 FM271800 02004KT
                       P6SM SCT004 SCT250 FM272100 02005KT P6SM
                       SCT250 FM281000 03006KT 4SM BR SCT250=
201901270520 TAF KPWT 270520Z 2706/2806 05007KT P6SM BKN250 FM271200 00000KT
                       1/4SM FG OVC004 FM271900 02004KT P6SM SCT004
                       SCT250 FM272100 02005KT P6SM SCT250=
201901262329 TAF KPWT 262329Z 2700/2724 05010KT P6SM BKN250 FM271200 00000KT
                       1/4SM FG OVC004 FM271900 02004KT P6SM SCT004
                       SCT250=
201901261736 TAF KPWT 261736Z 2618/2718 04004KT P6SM SCT250 FM271300 00000KT
                       1/4SM FG OVC004=
201901261411 KPWT 261411Z 2614/2712 03007KT P6SM SKC
                      TEMPO 2614/2618 1/2SM FG OVC001 FM261800
                       VRB03KT P6SM SCT120=
201901261120 TAF KPWT 261120Z 2612/2712 00000KT 2SM BR SKC
                      TEMPO 2612/2616 1/2SM FG OVC001 FM261800
                       VRB03KT P6SM SCT120=
201901260520 TAF KPWT 260520Z 2606/2706 00000KT P6SM SCT250 FM261100 00000KT
                       2SM BR OVC001
                      TEMPO 2612/2616 1/2SM FG OVC001 FM261800
                       VRB03KT P6SM SCT030 SCT120=
201901252320 TAF KPWT 252320Z 2600/2624 01006KT P6SM SCT022 SCT200 FM260400
                       00000KT P6SM SCT250 FM261100 00000KT 2SM
                       BR OVC001
                      TEMPO 2612/2616 1/2SM FG OVC001 FM261800
                       VRB03KT P6SM SCT030 SCT120=
201901251724 TAF KPWT 251724Z 2518/2618 00000KT 3SM BR OVC035 FM252000 05002KT
                       P6SM BKN035 BKN070 FM252200 00000KT P6SM
                       SCT035 BKN150 FM260500 00000KT P6SM FEW250
                       FM260700 00000KT 5SM BR OVC030 FM261200
                       00000KT 1/4SM FG SCT004=
201901251628 KPWT 251628Z 2516/2612 00000KT 2SM BR OVC035 FM252000 04004KT P6SM
                       SCT035 BKN150 FM260400 04003KT P6SM OVC030
                       FM261100 03003KT P6SM OVC022=
201901251125 TAF KPWT 251125Z 2512/2612 02003KT P6SM OVC030 FM252200 04004KT
                       P6SM SCT035 BKN150 FM260400 04003KT P6SM
                       OVC030 FM261100 03003KT P6SM OVC022=
201901250904 KPWT 250904Z 2509/2606 VRB04KT P6SM OVC030 FM252200 03003KT P6SM
                       BKN035 FM260000 03003KT P6SM SCT035 BKN150
                       FM260500 00000KT 4SM BR OVC030=
201901250522 TAF KPWT 250522Z 2506/2606 10004KT 5SM BR SCT015 OVC035
                      TEMPO 2506/2507 3SM BR FM250700 00000KT 3SM
                       BR OVC025 FM251000 00000KT 2SM BR OVC007
                       FM251900 04003KT 5SM BR BKN010 OVC030 FM252200
                       03003KT P6SM BKN035 FM260000 03003KT P6SM
                       SCT035 BKN150 FM260500 00000KT 4SM BR OVC030=
201901250255 KPWT 250255Z 2503/2524 00000KT 3SM BR SCT001 BKN035
                      TEMPO 2503/2507 1/2SM FG OVC001 FM250800
                       00000KT 1/2SM FG OVC001 FM251900 04003KT
                       5SM BR BKN007 OVC030 FM252200 03003KT P6SM
                       BKN030=
201901242324 TAF KPWT 242324Z 2500/2524 00000KT P6SM SCT025 BKN040
                      TEMPO 2500/2502 BKN025 OVC040 FM250500 00000KT
                       5SM BR BKN025 OVC040 FM250800 00000KT 2SM
                       BR OVC004 FM251900 04003KT 5SM BR BKN007
                       OVC030 FM252200 03003KT P6SM BKN030=
201901242201 KPWT 242201Z 2422/2518 00000KT P6SM FEW011 SCT019 OVC030
                      TEMPO 2422/2424 SCT011 BKN019 OVC030 FM250800
                       04003KT 4SM BR OVC004=
201901241720 TAF KPWT 241720Z 2418/2518 00000KT P6SM OVC010 FM242200 36003KT
                       P6SM SCT020 BKN035
                      TEMPO 2422/2502 SCT020 SCT035 FM250800 04003KT
                       4SM BR OVC004=
201901241610 KPWT 241610Z 2416/2512 00000KT P6SM OVC009 FM241800 00000KT P6SM
                       BKN013 OVC030 FM242200 36003KT P6SM SCT025
                       BKN030 FM250800 04003KT 4SM BR OVC004=
201901241120 TAF KPWT 241120Z 2412/2512 00000KT P6SM SCT008 BKN015 OVC020
                      TEMPO 2412/2416 3SM -DZ BR BKN008 FM241800
                       00000KT P6SM BKN018 OVC030 FM242200 36003KT
                       P6SM SCT025 BKN030 FM250800 04003KT 4SM
                       BR OVC004=
201901240903 KPWT 240903Z 2409/2506 00000KT P6SM VCSH SCT006 OVC013
                      TEMPO 2409/2413 2SM -DZ OVC004 FM241300 00000KT
                       2SM BR OVC002 FM241800 VRB03KT 4SM BR OVC006
                       FM242100 VRB03KT P6SM SCT006 BKN015 OVC030=
201901240536 TAF KPWT 240536Z 2406/2506 00000KT P6SM OVC035 FM240800 00000KT
                       P6SM SCT006 OVC025 FM241000 00000KT 2SM
                       BR OVC002 FM241800 VRB03KT 4SM BR OVC006
                       FM242100 VRB03KT P6SM SCT006 BKN015 OVC030=
201901232323 TAF KPWT 232323Z 2400/2424 09003KT P6SM SCT020 BKN040
                      TEMPO 2400/2403 BKN020 BKN040 FM240300 00000KT
                       P6SM SCT009 BKN020 OVC035 FM240600 00000KT
                       6SM BR BKN009 OVC020 FM240900 00000KT 3SM
                       BR OVC003 FM242100 VRB03KT P6SM BKN010 BKN030=
201901231724 TAF KPWT 231724Z 2318/2418 04007KT P6SM OVC020 FM240300 14003KT
                       P6SM OVC009 FM240900 00000KT 3SM BR OVC003=
201901231442 KPWT 231442Z 2315/2412 22010KT P6SM VCSH OVC012 FM231800 17008KT
                       P6SM OVC015 FM240300 14003KT P6SM OVC009=
201901231120 TAF KPWT 231120Z 2312/2412 19020G30KT P6SM VCSH OVC012 FM231800
                       17008KT P6SM OVC015 FM240300 14003KT P6SM
                       OVC009=
201901230528 TAF KPWT 230528Z 2306/2406 19012G23KT P6SM VCSH OVC005 FM231400
                       19010KT 4SM BR OVC005 FM231800 17008KT 6SM
                       BR OVC007 FM240000 14003KT P6SM OVC007=
201901222324 TAF KPWT 222324Z 2300/2324 19008KT 5SM -RA BR OVC005 FM231200 19010KT
                       2SM BR OVC003 FM231800 19005KT 4SM BR OVC005=
201901221837 TAF KPWT 221837Z 2219/2318 19010KT P6SM -RA OVC005 FM222000 18012KT
                       3SM -RA BR BKN007 OVC015 FM230000 19020G30KT
                       4SM -RA OVC007 FM231200 19010KT 2SM BR OVC003=
201901221723 TAF KPWT 221723Z 2218/2318 19010KT P6SM -RA OVC005 FM222000 18012KT
                       3SM -RA BR BKN007 OVC015 FM230000 19020G30KT
                       4SM -RA OVC007 FM231200 19010KT 2SM BR OVC003=
201901221600 KPWT 221600Z 2216/2312 19009KT 5SM -RA BR OVC005 FM222000 18012KT
                       3SM -RA BR BKN007 OVC015 FM230000 19020G30KT
                       4SM -SHRA OVC007=
201901221120 TAF KPWT 221120Z 2212/2312 19006KT P6SM VCSH BKN007 OVC027 FM221400
                       17006KT P6SM -RA SCT020 OVC050 FM222000
                       18012KT 3SM -RA BR BKN007 OVC015 FM230000
                       19020G30KT 4SM -SHRA OVC007=
201901220635 KPWT 220635Z 2207/2306 19006KT 2SM BR BKN003 BKN100 OVC200 FM221400
                       17006KT P6SM -RA OVC050 FM222000 18012KT
                       3SM -RA BR BKN007 OVC015 FM230000 19020G30KT
                       4SM -SHRA OVC007=
201901220520 TAF KPWT 220520Z 2206/2306 00000KT P6SM OVC250 FM220700 14006KT
                       P6SM SCT060 BKN100 OVC200 FM221400 17006KT
                       P6SM -RA OVC050 FM222000 18012KT 3SM -RA
                       BR BKN007 OVC015 FM230000 19020G30KT 4SM
                       -SHRA OVC007=
201901212320 TAF KPWT 212320Z 2200/2224 18003KT P6SM SCT060 BKN250 FM220700
                       14006KT P6SM SCT060 BKN100 OVC200 FM221400
                       17006KT P6SM -RA OVC050 FM222000 18012KT
                       3SM -RA BR BKN007 OVC015=
201901211721 TAF KPWT 211721Z 2118/2218 00000KT P6SM FEW025 OVC045
                      TEMPO 2118/2122 BKN025 OVC045 FM220000 00000KT
                       P6SM SCT040 SCT200 FM220700 14006KT P6SM
                       SCT050 BKN100 OVC200 FM221400 17006KT P6SM
                       -RA BKN050 OVC080=
201901211132 TAF KPWT 211132Z 2112/2212 00000KT P6SM SCT025 OVC045
                      TEMPO 2112/2114 4SM BR FM211600 00000KT P6SM
                       BKN025 OVC040 FM212100 00000KT P6SM SCT025
                       BKN045 FM220000 00000KT P6SM SCT040 SCT200
                       FM220700 14006KT P6SM SCT050 BKN100 OVC200=
201901210534 TAF KPWT 210534Z 2106/2206 VRB03KT P6SM SCT025 BKN035 FM211100
                       00000KT 1SM BR OVC002 FM212000 VRB03KT P6SM
                       SCT005 SCT025=
201901202324 TAF KPWT 202324Z 2100/2124 03004KT P6SM SCT020 BKN200 FM211100
                       00000KT 1SM BR OVC002 FM212000 VRB03KT P6SM
                       SCT005 SCT015 SCT100=
201901201720 TAF KPWT 201720Z 2018/2118 04007KT P6SM OVC150 FM201900 05006KT
                       P6SM BKN100 OVC150 FM210000 VRB03KT P6SM
                       SCT100 BKN200 FM211100 00000KT 1SM BR OVC002=
201901201132 TAF KPWT 201132Z 2012/2112 00000KT P6SM OVC150 FM201800 VRB03KT
                       P6SM BKN100 OVC150 FM210000 VRB03KT P6SM
                       SCT100 BKN200 FM211100 00000KT 1SM BR OVC002=
201901200520 TAF KPWT 200520Z 2006/2106 VRB03KT P6SM SCT020 BKN140 FM200800
                       VRB03KT 5SM BR SCT010 OVC040 FM201200 VRB03KT
                       3SM BR OVC005 FM202000 03005KT P6SM SCT007
                       BKN020=
201901192320 TAF KPWT 192320Z 2000/2024 19008KT P6SM VCSH SCT015 SCT025 BKN050
                       FM200400 VRB03KT P6SM SCT020 BKN040 FM200800
                       VRB03KT 5SM BR SCT010 OVC040 FM201200 VRB03KT
                       3SM BR OVC005 FM202000 03004KT P6SM SCT007
                       BKN015=
201901191721 TAF KPWT 191721Z 1918/2018 19008KT P6SM VCSH SCT015 BKN060 FM192100
                       21015KT P6SM SCT060 BKN200 FM200400 VRB03KT
                       P6SM SCT040 BKN100 FM200800 VRB03KT 5SM
                       BR SCT010 OVC040 FM201200 VRB03KT 3SM BR
                       OVC005=
201901191403 KPWT 191403Z 1914/2012 20010KT P6SM -SHRA SCT009 BKN050 FM191600
                       19010KT P6SM VCSH BKN020 BKN060 FM192100
                       21015KT P6SM SCT060 FM200400 VRB03KT P6SM
                       SCT040 BKN100=
201901191133 TAF KPWT 191133Z 1912/2012 20014G20KT P6SM -SHRA SCT009 OVC050
                       FM191500 19010KT P6SM VCSH BKN020 BKN060
                       FM192100 21015KT P6SM SCT060 FM200400 VRB03KT
                       P6SM SCT040 BKN100=
201901190720 KPWT 190720Z 1907/2006 00000KT 4SM -RA BR FEW003 BKN007 OVC020
                       FM190900 20012G20KT 4SM -RA BR BKN009 OVC015
                       FM191500 20012G20KT P6SM -SHRA BKN025 OVC050
                       FM191800 20012G20KT P6SM VCSH SCT025 OVC050
                       FM200200 20003KT P6SM SCT025 BKN050=
201901190520 TAF KPWT 190520Z 1906/2006 00000KT P6SM -RA BKN009 BKN018 OVC035
                       FM190900 20012G20KT 4SM -RA BR SCT009 OVC015
                       FM191500 20012G20KT P6SM -SHRA BKN025 OVC050
                       FM191800 20012G20KT P6SM VCSH SCT025 OVC050
                       FM200200 20003KT P6SM SCT025 BKN050=
201901190159 KPWT 190159Z 1902/1924 32003KT P6SM RA OVC035 FM190300 16012KT
                       3SM -RA BR OVC007 FM191200 20016G25KT 4SM
                       BR OVC007 FM191700 20020G29KT P6SM SCT010
                       OVC025=
201901190056 KPWT 190056Z 1901/1924 00000KT 3SM RA BR FEW002 SCT009 OVC028 FM190300
                       16012KT 3SM -RA BR OVC007 FM191200 20016G25KT
                       4SM BR OVC007 FM191700 20020G29KT P6SM SCT010
                       OVC025=
201901182320 TAF KPWT 182320Z 1900/1924 VRB03KT P6SM -RA SCT025 OVC040 FM190300
                       16012KT 4SM -RA BR OVC007 FM191200 20016G25KT
                       4SM BR OVC007=
201901181724 TAF KPWT 181724Z 1818/1918 20008KT P6SM SCT010 BKN020 OVC050 FM181900
                       12006KT P6SM SCT020 BKN050 FM182300 12008KT
                       P6SM -RA SCT015 BKN025 OVC040 FM190300 16012KT
                       4SM -RA BR OVC007 FM191200 20016G25KT 4SM
                       BR OVC007=
201901181139 TAF KPWT 181139Z 1812/1912 20012KT P6SM SCT015 BKN035 BKN050
                      TEMPO 1812/1815 -SHRA BKN015 OVC035 FM181600
                       18008KT P6SM SCT020 BKN030 OVC050 FM181800
                       12006KT P6SM SCT030 BKN050 FM182300 12008KT
                       P6SM -RA SCT015 BKN025 OVC040 FM190300 16010KT
                       4SM -RA BR OVC007=
201901180520 TAF KPWT 180520Z 1806/1906 20013G18KT P6SM -RA OVC005 FM181600
                       12006KT P6SM SCT030 OVC050 FM182300 08008KT
                       4SM -RA BR OVC007 WS020/18045KT=
201901180306 KPWT 180306Z 1803/1824 20011G17KT P6SM -RA SCT010 BKN013 OVC021
                       FM180800 18012KT P6SM VCSH BKN011 OVC020
                       FM181600 VRB03KT P6SM SCT030 OVC080 FM182200
                       14012KT P6SM -RA OVC050=
201901172320 TAF KPWT 172320Z 1800/1824 18012G20KT P6SM -RA OVC040
                      TEMPO 1804/1808 5SM -RA OVC025 FM180800 18012KT
                       P6SM VCSH BKN025 BKN050 FM181600 VRB03KT
                       P6SM SCT030 OVC080 FM182200 14012KT P6SM
                       -RA OVC050=
201901171739 TAF KPWT 171739Z 1718/1818 00000KT P6SM SCT035 BKN050 FM180000
                       15010KT P6SM -RA BKN045 OVC070 FM180600
                       18012KT P6SM -RA BKN015 OVC030=
201901171131 TAF KPWT 171131Z 1712/1812 03006KT 5SM BR SCT070 BKN120
                      TEMPO 1712/1715 1SM BR FM171700 03006KT P6SM
                       SCT070 BKN120 FM180000 15010KT P6SM -RA
                       BKN045 OVC070 FM180600 18012KT P6SM -RA
                       BKN015 OVC030=
201901170525 TAF KPWT 170525Z 1706/1806 01006KT P6SM -RA OVC060 FM170800 03003KT
                       P6SM -RA OVC050 FM171200 04008KT P6SM -RA
                       OVC050 WS020/18030KT FM172000 15010G18KT
                       P6SM -SHRA SCT015 OVC035 FM180100 18018G28KT
                       5SM -SHRA BR BKN007 OVC015=
201901162344 TAF KPWT 162344Z 1700/1724 03004KT P6SM BKN120 OVC200 FM170800
                       03003KT 5SM -RA OVC060 FM172300 19008G16KT
                       5SM BR VCSH OVC030=
201901161740 TAF KPWT 161740Z 1618/1718 00000KT P6SM OVC110 FM162100 03004KT
                       P6SM BKN100 BKN200 FM170700 03005KT P6SM
                       -RA BKN060 OVC100=
201901161122 TAF KPWT 161122Z 1612/1712 00000KT P6SM BKN090 BKN250 FM162100
                       03004KT P6SM SCT100 BKN250 FM170700 03005KT
                       P6SM -RA BKN060 OVC100=
201901160524 TAF KPWT 160524Z 1606/1706 VRB03KT P6SM BKN120 OVC200 FM161200
                       04006KT P6SM OVC090 FM170000 04006KT P6SM
                       OVC050=
201901152340 TAF KPWT 152340Z 1600/1624 00000KT P6SM BKN120 OVC200 FM161200
                       VRB03KT P6SM OVC090=
201901151726 TAF KPWT 151726Z 1518/1618 00000KT P6SM SCT180 SCT250 FM161200
                       04004KT P6SM OVC120=
201901151121 TAF KPWT 151121Z 1512/1612 00000KT P6SM VCFG FEW001 BKN250
                      TEMPO 1512/1516 1/2SM FZFG VV001 FM152000
                       04004KT P6SM BKN250=
201901151017 KPWT 151017Z 1510/1606 VRB03KT P6SM VCFG FEW001 SCT250
                      TEMPO 1512/1516 3/4SM BR BKN001 FM152000
                       04004KT P6SM BKN250=
201901150705 KPWT 150705Z 1507/1606 00000KT P6SM VCFG FEW001 SCT250
                      TEMPO 1507/1510 1/2SM FG BKN001 FM151000
                       04002KT 1/2SM FG VV001 FM152000 04004KT
                       P6SM BKN250=
201901150524 TAF KPWT 150524Z 1506/1606 04003KT 1SM BR BKN001
                      TEMPO 1506/1509 1/2SM FG BKN001 FM150900
                       04002KT 1/2SM FG VV001 FM152000 04004KT
                       P6SM BKN250=
201901150300 KPWT 150300Z 1503/1524 04003KT P6SM VCFG SKC
                      TEMPO 1503/1505 1/2SM FG BKN001 FM150500
                       04002KT 1/2SM FG VV001 FM151800 04003KT
                       P6SM BKN250=
201901142334 TAF KPWT 142334Z 1500/1524 25005KT P6SM FEW250 FM150900 36002KT
                       4SM BR SCT001 FM151800 04003KT P6SM BKN250=
201901141723 TAF KPWT 141723Z 1418/1518 05011KT P6SM SKC FM150800 14004KT P6SM
                       FEW003 SCT250
                      TEMPO 1510/1514 2SM BR SKC=
201901141125 TAF KPWT 141125Z 1412/1512 05006KT P6SM SKC FM150800 00000KT P6SM
                       SCT002
                      TEMPO 1508/1512 1SM BR BKN002=
201901140520 TAF KPWT 140520Z 1406/1506 03004KT P6SM SKC=
201901132331 TAF KPWT 132331Z 1400/1424 05005KT P6SM SKC FM140300 03004KT P6SM
                       SKC=
201901131720 TAF KPWT 131720Z 1318/1418 03004KT P6SM SKC FM140300 00000KT P6SM
                       SKC=
201901131125 TAF KPWT 131125Z 1312/1412 00000KT P6SM SKC FM131800 03004KT P6SM
                       SKC FM140300 00000KT P6SM SKC=
201901130520 TAF KPWT 130520Z 1306/1406 15003KT P6SM SCT200 FM131000 03005KT
                       P6SM FEW200 FM131800 03004KT P6SM SKC=
201901122336 TAF KPWT 122336Z 1300/1324 VRB02KT P6SM SCT200 FM130300 03003KT
                       P6SM SCT200 FM131000 02004KT P6SM SKC=
201901121720 TAF KPWT 121720Z 1218/1318 VRB03KT P6SM SCT200 FM130300 03003KT
                       P6SM SKC=
201901121123 TAF KPWT 121123Z 1212/1312 00000KT P6SM BKN250 FM121800 VRB03KT
                       P6SM SCT250 FM130300 03003KT P6SM SKC=
201901120521 TAF KPWT 120521Z 1206/1306 VRB03KT P6SM BKN250 FM121200 00000KT
                       1/2SM FG SCT250 FM121700 VRB02KT 3SM BR
                       SCT250 FM121900 12006KT P6SM SCT250=
201901112320 TAF KPWT 112320Z 1200/1224 VRB03KT P6SM BKN120 FM120600 VRB03KT
                       P6SM SCT200 FM121200 VRB02KT 1/2SM FG SCT200
                       FM121700 VRB02KT 3SM BR SCT200 FM121800
                       20004KT P6SM BKN200=
201901111730 TAF KPWT 111730Z 1118/1218 VRB03KT P6SM BKN120 FM120600 VRB03KT
                       P6SM SCT200 FM121200 VRB02KT 1/2SM FG SCT200=
201901111124 TAF KPWT 111124Z 1112/1212 00000KT P6SM BKN120
                      TEMPO 1112/1114 2SM BR FM111600 VRB03KT P6SM
                       BKN100 FM120600 VRB03KT P6SM SCT200=
201901111010 KPWT 111010Z 1110/1206 00000KT P6SM BKN100 FM111600 VRB03KT P6SM
                       BKN200=
201901110529 TAF KPWT 110529Z 1106/1206 00000KT 4SM BR SCT002 BKN060
                      TEMPO 1106/1110 1SM BR BKN002 OVC060 FM111000
                       00000KT 1SM BR OVC002 FM111600 VRB03KT P6SM
                       BKN200=
201901102320 TAF KPWT 102320Z 1100/1124 VRB03KT P6SM BKN050 BKN150
                      TEMPO 1100/1104 5SM -SHRA OVC030 FM111600
                       VRB03KT P6SM SCT010 BKN120 FM112200 VRB03KT
                       P6SM SCT200=
201901102117 KPWT 102117Z 1021/1118 19010KT P6SM -SHRA BKN027 OVC035 FM110400
                       19005KT P6SM BKN040 BKN120 FM111600 VRB04KT
                       P6SM BKN120=
201901101721 TAF KPWT 101721Z 1018/1118 19012G17KT P6SM VCSH SCT015 BKN035
                      TEMPO 1018/1021 -RA SCT008 BKN015 OVC030
                       FM110100 19005KT P6SM BKN040 BKN120 FM111100
                       VRB04KT P6SM BKN120=
201901101121 TAF KPWT 101121Z 1012/1112 19012KT P6SM -RA OVC004 FM101700 19007KT
                       P6SM VCSH SCT007 BKN015 OVC030 FM110100
                       19005KT P6SM BKN040 BKN120 FM111100 VRB04KT
                       P6SM BKN120=
201901100539 TAF KPWT 100539Z 1006/1106 20010KT P6SM -SHRA BKN006 OVC020 FM101200
                       20006KT P6SM VCSH SCT006 BKN020 OVC035 FM101800
                       20006KT P6SM SCT020 BKN035 OVC050 FM110100
                       VRB03KT P6SM SCT050 BKN100 OVC200=
201901092320 TAF KPWT 092320Z 1000/1024 24003KT P6SM -RA OVC040 WS020/18040KT
                       FM100200 20010KT P6SM -RA OVC015 FM101000
                       20007KT P6SM VCSH BKN007 OVC015 FM101800
                       20006KT P6SM SCT015 BKN035 FM102200 20006KT
                       P6SM SCT050 BKN100=
201901091723 TAF KPWT 091723Z 0918/1018 11005KT P6SM -SHRA OVC060 FM091900 12006KT
                       P6SM -SHRA OVC040 WS020/18040KT FM100200
                       20012G20KT P6SM -RA OVC015 FM101000 20007KT
                       P6SM VCSH SCT007 OVC015=
201901091121 TAF KPWT 091121Z 0912/1012 00000KT P6SM -RA OVC040 FM091900 12006KT
                       P6SM -RA OVC040 WS020/18040KT FM100200 17012G20KT
                       P6SM -RA OVC030 FM100500 19012KT P6SM -RA
                       SCT010 OVC020=
201901090535 TAF KPWT 090535Z 0906/1006 04004KT P6SM -RA OVC050 FM091900 12006KT
                       P6SM -RA OVC040 FM100100 17012G18KT P6SM
                       -RA OVC035 FM100500 19012KT P6SM -RA BKN025
                       OVC040=
201901082340 TAF KPWT 082340Z 0900/0924 36004KT P6SM -RA BKN060 OVC090 FM090400
                       14003KT P6SM -RA OVC050
                      TEMPO 0913/0917 2SM -RA BR OVC050 FM092200
                       20007G14KT P6SM -RA OVC050=
201901081730 TAF KPWT 081730Z 0818/0918 03003KT P6SM -RA FEW025 OVC050 FM090200
                       03006KT P6SM FEW025 OVC040 FM090700 02004KT
                       P6SM SCT025 OVC040=
201901081130 TAF KPWT 081130Z 0812/0912 04010KT P6SM OVC080 FM081400 05012KT
                       P6SM -RA BKN050 OVC070 FM081700 05012KT
                       P6SM -RA OVC040 FM090200 03006KT P6SM FEW025
                       OVC040 FM090700 02004KT P6SM SCT025 OVC040=
201901080545 TAF KPWT 080545Z 0806/0906 05008KT P6SM FEW120 BKN200 FM081000
                       05008KT P6SM BKN120 OVC200 FM081400 05012KT
                       P6SM BKN050 OVC100 FM081700 05012KT P6SM
                       -RA OVC040=
201901072320 TAF KPWT 072320Z 0800/0824 19005KT P6SM SCT030 BKN200 FM080200
                       03005KT P6SM SCT120 BKN200 FM080800 03006KT
                       6SM BR BCFG FEW002 BKN120 BKN200 FM081800
                       VRB03KT 4SM -RA BR SCT003 OVC010=
201901071724 TAF KPWT 071724Z 0718/0818 VRB03KT P6SM SCT005 FM071900 20005KT
                       P6SM SCT020 FM072200 19005KT P6SM SCT030
                       BKN200 FM080200 03005KT P6SM SCT120 BKN200
                       FM080800 03006KT 6SM BR BCFG FEW002 BKN120
                       BKN200=
201901071435 KPWT 071435Z 0715/0812 19005KT P6SM SCT015
                      TEMPO 0715/0717 5SM BR FM071800 20007KT P6SM
                       SCT025 FM072200 19005KT P6SM SCT030 BKN200
                       FM080200 03005KT P6SM SCT120 BKN200 FM080800
                       03006KT 6SM BR BCFG FEW002 BKN120 BKN200=
201901071125 TAF KPWT 071125Z 0712/0812 19009KT P6SM BKN005 BKN015
                      TEMPO 0714/0718 SCT007 BKN020 FM071800 20007KT
                       P6SM SCT012 BKN025 FM072200 19005KT P6SM
                       SCT030 BKN200 FM080200 03005KT P6SM SCT120
                       BKN200 FM080800 03006KT 6SM BR BCFG FEW002
                       BKN120 BKN200=
201901070539 TAF KPWT 070539Z 0706/0806 22008KT P6SM OVC005 FM070800 19009KT
                       P6SM -SHRA OVC005 FM071200 19009KT P6SM
                       BKN015 FM071800 20008KT P6SM BKN025 FM072200
                       20008KT P6SM SCT040 SCT200 FM080300 05005KT
                       P6SM SCT150=
201901062327 TAF KPWT 062327Z 0700/0724 22008KT P6SM -SHRA BKN010 OVC020 FM070800
                       19009KT P6SM VCSH OVC010 FM071200 19009KT
                       P6SM BKN015 FM071800 20008KT P6SM BKN025
                       FM072200 20008KT P6SM SCT040 SCT200=
201901062204 KPWT 062204Z 0622/0718 20006KT P6SM -SHRA BKN015 OVC020 FM070000
                       19006KT P6SM -SHRA BKN022 BKN040 FM070800
                       19009KT P6SM VCSH BKN018 FM071200 19009KT
                       P6SM BKN015=
201901061722 TAF KPWT 061722Z 0618/0718 18010KT P6SM -SHRA FEW005 BKN020 BKN045
                       TEMPO 0618/0620 BKN005 FM062100 20010KT
                       P6SM -SHRA SCT025 BKN045 FM070000 19006KT
                       P6SM -SHRA BKN022 BKN040 FM070800 19009KT
                       P6SM VCSH BKN018 FM071200 19009KT P6SM BKN015=
201901061302 KPWT 061302Z 0613/0712 22012G18KT P6SM -SHRA BKN020 BKN040 FM061400
                       20012KT P6SM -SHRA BKN025 FM061700 18010KT
                       P6SM VCSH BKN030 FM062100 20008KT P6SM SCT030
                       BKN050 FM070300 19006KT P6SM -SHRA OVC022=
201901061135 TAF KPWT 061135Z 0612/0712 22020G30KT P6SM -SHRA BKN030 BKN050
                       FM061400 20015G25KT P6SM -SHRA BKN035 FM061700
                       18010KT P6SM VCSH BKN030 FM062100 20008KT
                       P6SM SCT030 BKN050 FM070300 19006KT P6SM
                       -SHRA OVC022=
201901060540 TAF KPWT 060540Z 0606/0706 VRB06KT P6SM -RA OVC050 FM060900 18025G40KT
                       P6SM -RA BKN018 OVC040 FM061200 20012G22KT
                       P6SM -RA OVC015 FM061700 18010KT P6SM VCSH
                       BKN020 FM062100 20008KT P6SM SCT030 BKN050
                       FM070000 19006KT P6SM -SHRA OVC025=
201901052331 TAF KPWT 052331Z 0600/0624 06006KT P6SM -RA FEW004 BKN050 OVC150
                       FM060300 11010KT P6SM -RA BKN040 OVC100
                       TEMPO 0608/0609 18020KT FM060900 18025G40KT
                       P6SM -RA BKN018 OVC040 FM061200 20012G22KT
                       P6SM -RA OVC015 FM061800 18010KT P6SM VCSH
                       BKN020 FM062100 20008KT P6SM SCT040 BKN050=
201901051736 TAF KPWT 051736Z 0518/0618 06005KT P6SM SCT120 BKN150 FM052100
                       06010KT P6SM BKN070 OVC120 FM060000 11010KT
                       P6SM -RA BKN040 OVC100 FM060900 18020G30KT
                       P6SM -RA BKN020 OVC040 FM061300 20012G22KT
                       P6SM -RA OVC020=
201901051133 TAF KPWT 051133Z 0512/0612 00000KT 6SM BR FEW008 SCT050 SCT120
                       TEMPO 0512/0516 3SM BR FM051800 03006KT
                       P6SM SCT100 FM052100 05010KT P6SM VCSH BKN070
                       FM052300 08008KT P6SM -RA BKN020 OVC035
                       FM060800 18015G25KT P6SM -RA BKN015 OVC030=
201901050532 TAF KPWT 050532Z 0506/0606 00000KT 6SM BR VCSH SCT025 BKN080
                      TEMPO 0506/0509 2SM BR SCT008 FM050900 00000KT
                       6SM BR FEW008 SCT050 SCT200 FM051800 03006KT
                       P6SM SCT100 FM052100 05010KT P6SM VCSH BKN070
                       FM052300 08008KT P6SM -RA BKN020 OVC035=
201901042320 TAF KPWT 042320Z 0500/0524 22012KT P6SM VCSH SCT025 BKN050 BKN200
                       FM050300 14008KT P6SM SCT035 SCT070 BKN200
                       FM050900 04005KT P6SM FEW070 SCT200 FM051800
                       04006KT P6SM SCT200 FM052100 05010KT P6SM
                       SCT060 BKN120=
201901041723 TAF KPWT 041723Z 0418/0518 20012G20KT P6SM VCSH SCT008 SCT035 SCT070
                       TEMPO 0418/0422 -SHRA BKN008 BKN035 FM042200
                       19010KT P6SM SCT040 SCT100 FM050400 14008KT
                       P6SM SCT070 BKN150 FM050900 04005KT P6SM
                       FEW070 SCT200=
201901041139 TAF KPWT 041139Z 0412/0512 18012G18KT P6SM -SHRA OVC010 FM041800
                       18015G22KT P6SM VCSH SCT018 BKN030 FM042200
                       19008KT P6SM SCT030 BKN070 FM050400 16005KT
                       P6SM SCT060 SCT150=
201901040539 TAF KPWT 040539Z 0406/0506 19015G22KT 6SM -RA SCT010 OVC025 WS020/18040KT
                       TEMPO 0406/0408 3SM RA BKN007 FM040800 19014G20KT
                       P6SM -RA OVC007 WS020/18040KT FM041200 18012KT
                       P6SM -SHRA OVC010 FM041800 18010KT P6SM
                       VCSH SCT018 BKN030 FM042200 19008KT P6SM
                       SCT030 BKN070 FM050400 16005KT P6SM SCT080
                       SCT150=
201901032336 TAF KPWT 032336Z 0400/0424 18015G22KT 3SM -RA BKN006 OVC020 WS020/18040KT
                       FM040900 19012KT 4SM -RA BKN010 OVC018 FM041200
                       18012KT P6SM -SHRA OVC010 FM041800 18010KT
                       P6SM VCSH SCT018 BKN030 FM042200 19008KT
                       P6SM SCT030 BKN050=
201901032005 KPWT 032005Z 0320/0418 18018G25KT 4SM -RA BR SCT006 OVC011 WS020/18040KT
                       TEMPO 0320/0322 BKN004 FM032200 18020G28KT
                       P6SM -RA OVC020 WS020/18040KT FM040200 19014G21KT
                       4SM -RA BKN015 OVC025 WS020/18040KT FM040400
                       19012G18KT 4SM -RA OVC008 FM040900 18012KT
                       P6SM -SHRA OVC012=
201901031725 TAF KPWT 031725Z 0318/0418 18018G25KT 3SM -RA BR SCT006 OVC011
                       WS020/18040KT
                      TEMPO 0318/0320 BKN004 FM032200 18020G28KT
                       P6SM -RA OVC020 WS020/18040KT FM040200 19014G21KT
                       4SM -RA BKN015 OVC025 WS020/18040KT FM040400
                       19012G18KT 4SM -RA OVC008 FM040900 18012KT
                       P6SM -SHRA OVC012=
201901031138 TAF KPWT 031138Z 0312/0412 19012G18KT 6SM -RA BR OVC007 WS020/18040KT
                       FM032000 18015G25KT P6SM -SHRA BKN008 OVC040
                       WS020/18040KT FM040000 19024G32KT 6SM -RA
                       BKN005 OVC007 WS020/18040KT=
201901030540 TAF KPWT 030540Z 0306/0406 22007KT P6SM VCSH SCT004 BKN018 OVC030
                       FM030700 19009KT P6SM -RA BKN005 OVC010
                       WS020/18030KT FM031000 19012G18KT 5SM -RA
                       BR OVC007 WS020/18040KT FM032000 18015G25KT
                       P6SM -SHRA BKN008 OVC040 WS020/18040KT FM040000
                       19018G27KT 6SM -RA BKN005 OVC007 WS020/18040KT=
201901022320 TAF KPWT 022320Z 0300/0324 19010KT P6SM BKN045 OVC150 FM030700
                       19009KT P6SM -RA OVC035 FM031000 19012G18KT
                       5SM -RA BR OVC015 WS020/18040KT FM031800
                       18015G25KT P6SM -RA BKN018 OVC040 WS020/18040KT=
201901021720 TAF KPWT 021720Z 0218/0318 22006KT P6SM SCT003 BKN090 OVC150 FM022000
                       19008KT P6SM BKN060 OVC120 FM030400 19009KT
                       P6SM -RA OVC035 FM031000 19012G18KT 5SM
                       -RA BR OVC015 WS020/18040KT=
201901021425 KPWT 021425Z 0214/0312 00000KT P6SM FEW002 BKN100 BKN200 FM021600
                       18006KT P6SM BKN090 OVC150 FM022000 19008KT
                       P6SM BKN060 OVC120 FM030400 19009KT P6SM
                       -RA OVC035 FM031000 19012G18KT 5SM -RA BR
                       OVC015 WS020/18040KT=
201901021127 TAF KPWT 021127Z 0212/0312 00000KT 3SM BR SCT004 SCT100 BKN200
                       TEMPO 0212/0216 1/4SM FG VV001 FM021600
                       18006KT P6SM FEW002 BKN090 OVC150 FM022000
                       19008KT P6SM BKN060 OVC120 FM030400 19009KT
                       P6SM -RA OVC035 FM031000 19012G18KT 5SM
                       -RA BR OVC015 WS020/18040KT=
201901021038 KPWT 021038Z 0211/0306 00000KT 5SM BR SCT004 BKN250
                      TEMPO 0211/0215 1/2SM FG VV002 FM021500 18003KT
                       P6SM FEW002 BKN120 OVC200 FM021800 19005KT
                       P6SM BKN060 OVC120 FM022200 20008KT P6SM
                       BKN060 OVC100=
201901020524 TAF KPWT 020524Z 0206/0306 00000KT P6SM BKN250
                      TEMPO 0206/0210 3SM BR FM021200 18003KT P6SM
                       FEW002 BKN120 OVC200 FM021600 19005KT P6SM
                       BKN080 OVC200 FM022200 20008KT P6SM BKN060
                       OVC100=
201901012320 TAF KPWT 012320Z 0200/0224 23003KT P6SM SCT080 BKN250 FM020900
                       18004KT 6SM BR BCFG FEW002 BKN120 OVC200
                       FM021200 20003KT 1/2SM FG VV001 FM021600
                       20003KT P6SM OVC070 FM022200 20008KT P6SM
                       OVC050=
201901011720 TAF KPWT 011720Z 0118/0218 00000KT 4SM BR SCT004 BKN120 FM012000
                       VRB03KT P6SM BKN120 OVC200 FM020900 18004KT
                       6SM BR BCFG FEW002 BKN120 OVC200 FM021200
                       20003KT 1/2SM FG VV001=
201901011526 KPWT 011526Z 0115/0212 00000KT 1/4SM FZFG VV001 FM011900 VRB03KT
                       P6SM BKN120 OVC200 FM020900 18004KT 6SM
                       BR BCFG FEW002 BKN120 OVC200=
201901011410 KPWT 011410Z 0114/0212 00000KT P6SM SCT005 BKN080 OVC120
                      TEMPO 0114/0118 BKN003 FM011900 VRB03KT P6SM
                       BKN120 OVC200 FM020900 18004KT 6SM BR BCFG
                       FEW002 BKN120 OVC200=
201901011132 TAF KPWT 011132Z 0112/0212 00000KT P6SM BKN080 OVC120 FM011900
                       VRB03KT P6SM BKN120 OVC200 FM020900 18004KT
                       6SM BR BCFG FEW002 BKN120 OVC200=
201901010522 TAF KPWT 010522Z 0106/0206 00000KT P6SM SCT200 FM011300 VRB02KT
                       3SM BR BKN003 FM011900 VRB03KT P6SM BKN200=