##########################################################
# Query made at 02/16/2025 00:37:34 UTC
# Time interval: from 08/01/2020 00:00  to 08/31/2020 23:59  UTC
##########################################################

##########################################################
# KPWT, Bremerton National Automatic Weather Observing / Reporting System (United States)
# WMO index: -----. WIGOS ID: Unknown
# Latitude 47-30N. Longitude 122-45W. Altitude 147 m.
##########################################################

###################################
#  METAR/SPECI from KPWT
###################################
202008312356 METAR KPWT 312356Z AUTO 00000KT 10SM BKN039 19/11 A3016 RMK AO2 SLP215 6//// T01890111 10200 20139 56004=
202008312256 METAR KPWT 312256Z AUTO 24004KT 10SM OVC032 19/12 A3016 RMK AO2 SLP217 T01890117=
202008312156 METAR KPWT 312156Z AUTO 00000KT 10SM OVC034 18/11 A3016 RMK AO2 SLP217 T01780111=
202008312137 SPECI KPWT 312137Z AUTO 04006KT 10SM OVC030 18/11 A3017 RMK AO2=
202008312056 METAR KPWT 312056Z AUTO 35004KT 10SM OVC028 18/11 A3017 RMK AO2 SLP219 T01780111 53002=
202008312017 SPECI KPWT 312017Z AUTO 36005KT 10SM BKN028 BKN035 18/11 A3017 RMK AO2=
202008311956 METAR KPWT 311956Z AUTO 02004KT 10SM FEW024 BKN035 19/12 A3016 RMK AO2 SLP218 T01890117=
202008311856 METAR KPWT 311856Z AUTO 01004KT 10SM FEW015 OVC033 16/12 A3017 RMK AO2 SLP218 T01610117=
202008311854 SPECI KPWT 311854Z AUTO 00000KT 10SM FEW015 OVC033 16/11 A3017 RMK AO2=
202008311829 SPECI KPWT 311829Z AUTO 32003KT 10SM BKN015 OVC035 15/11 A3017 RMK AO2=
202008311756 METAR KPWT 311756Z AUTO 07003KT 10SM BKN013 OVC018 14/11 RMK AO2 SLPNO 6//// T01390111 10144 20111 $=
202008311754 SPECI KPWT 311754Z AUTO 07003KT 10SM BKN013 OVC018 14/11 A3017 RMK AO2=
202008311656 METAR KPWT 311656Z AUTO 04003KT 10SM BKN016 13/11 A3015 RMK AO2 SLP212 T01330111=
202008311615 SPECI KPWT 311615Z AUTO 07004KT 10SM FEW007 13/11 A3013 RMK AO2=
202008311556 METAR KPWT 311556Z AUTO 09003KT 10SM CLR 13/11 A3012 RMK AO2 SLP204 T01280111=
202008311456 METAR KPWT 311456Z AUTO 11003KT 10SM CLR 12/11 A3011 RMK AO2 SLP199 6//// T01170111 53014=
202008311356 METAR KPWT 311356Z AUTO 00000KT 10SM CLR 12/11 A3010 RMK AO2 SLP195 T01170106=
202008311256 METAR KPWT 311256Z AUTO 00000KT 10SM FEW010 11/11 A3008 RMK AO2 SLP191 T01110106=
202008311220 SPECI KPWT 311220Z AUTO 04007KT 10SM SCT013 11/11 A3007 RMK AO2=
202008311211 SPECI KPWT 311211Z AUTO 04006KT 10SM BKN013 11/11 A3007 RMK AO2=
202008311156 METAR KPWT 311156Z AUTO 04008KT 10SM CLR 11/11 A3007 RMK AO2 RAE1059 SLP186 P0000 6//// 7//// T01110106 10128 20111 51008=
202008311056 METAR KPWT 311056Z AUTO 06006KT 10SM -RA SCT012 12/11 A3007 RMK AO2 RAB08 SLP185 T01170106=
202008311018 SPECI KPWT 311018Z AUTO 04006KT 7SM -RA BKN012 12/11 A3006 RMK AO2 RAB08=
202008310956 METAR KPWT 310956Z AUTO 05005KT 10SM CLR 12/11 A3005 RMK AO2 SLP179 T01220106=
202008310856 METAR KPWT 310856Z AUTO 05006KT 10SM SCT027 12/11 A3005 RMK AO2 SLP177 T01220106 56004=
202008310838 SPECI KPWT 310838Z AUTO 07005KT 10SM BKN027 13/11 A3005 RMK AO2=
202008310756 METAR KPWT 310756Z AUTO 06006KT 10SM BKN031 13/11 A3005 RMK AO2 SLP179 T01280111 402330056=
202008310656 METAR KPWT 310656Z AUTO 06004KT 10SM BKN039 13/11 A3005 RMK AO2 SLP178 T01280111=
202008310556 METAR KPWT 310556Z AUTO 06006KT 10SM CLR 13/11 A3006 RMK AO2 SLP182 6//// T01330111 10222 20133 58001=
202008310456 METAR KPWT 310456Z AUTO 05011KT 10SM CLR 14/11 A3007 RMK AO2 SLP184 T01390111=
202008310356 METAR KPWT 310356Z AUTO 07004KT 10SM BKN060 16/11 A3007 RMK AO2 RAE51 SLP184 P0000 T01610111=
202008310256 METAR KPWT 310256Z AUTO 21005KT 10SM -RA CLR 18/09 A3006 RMK AO2 RAB44 SLP182 6//// T01780094 55010=
202008310156 METAR KPWT 310156Z AUTO 22007KT 10SM CLR 20/09 A3005 RMK AO2 SLP180 T02000094=
202008310056 METAR KPWT 310056Z AUTO 22007KT 10SM CLR 21/09 A3008 RMK AO2 SLP187 T02110094=
202008302356 METAR KPWT 302356Z AUTO VRB06KT 10SM CLR 22/09 A3009 RMK AO2 SLP192 T02220094 10233 20172 56023=
202008302256 METAR KPWT 302256Z AUTO 21006KT 10SM CLR 23/09 A3011 RMK AO2 SLP198 T02280094=
202008302156 METAR KPWT 302156Z AUTO 22009KT 10SM CLR 22/09 A3013 RMK AO2 SLP206 T02220089=
202008302056 METAR KPWT 302056Z AUTO VRB03KT 10SM CLR 21/09 A3016 RMK AO2 SLP216 T02110089 56011=
202008301956 METAR KPWT 301956Z AUTO 21007KT 10SM CLR 20/09 A3016 RMK AO2 SLP217 T02000094=
202008301856 METAR KPWT 301856Z AUTO 23005KT 10SM CLR 19/10 A3018 RMK AO2 SLP224 T01890100=
202008301756 METAR KPWT 301756Z AUTO 20005KT 10SM CLR 17/11 A3019 RMK AO2 SLP226 6//// T01720106 10172 20056 58002=
202008301656 METAR KPWT 301656Z AUTO VRB04KT 10SM CLR 15/10 A3020 RMK AO2 SLP231 T01500100=
202008301556 METAR KPWT 301556Z AUTO 25003KT 10SM CLR 13/10 A3020 RMK AO2 SLP230 T01280100=
202008301456 METAR KPWT 301456Z AUTO 00000KT 10SM CLR 10/09 A3020 RMK AO2 SLP228 T01000089 53011=
202008301356 METAR KPWT 301356Z AUTO 00000KT 9SM CLR 06/06 A3018 RMK AO2 SLP224 T00610056=
202008301256 METAR KPWT 301256Z AUTO 14003KT 10SM CLR 07/06 A3017 RMK AO2 SLP220 T00670061=
202008301156 METAR KPWT 301156Z AUTO 00000KT 10SM CLR 07/07 A3016 RMK AO2 SLP217 7//// T00720067 10117 20061 51009=
202008301056 METAR KPWT 301056Z AUTO 00000KT 10SM CLR 07/07 A3015 RMK AO2 SLP214 T00720067 TSNO=
202008300956 METAR KPWT 300956Z AUTO 00000KT 10SM CLR 07/07 A3015 RMK AO2 SLP214 T00720067=
202008300856 METAR KPWT 300856Z AUTO 00000KT 10SM CLR 10/08 A3014 RMK AO2 SLP208 T01000083 51015=
202008300756 METAR KPWT 300756Z AUTO 00000KT 10SM FEW045 10/08 A3012 RMK AO2 SLP204 T01000078 402060089=
202008300656 METAR KPWT 300656Z AUTO 00000KT 10SM CLR 09/08 A3011 RMK AO2 SLP199 T00940078=
202008300556 METAR KPWT 300556Z AUTO 00000KT 10SM CLR 12/09 A3009 RMK AO2 SLP192 6//// T01170094 10206 20117 51015=
202008300456 METAR KPWT 300456Z AUTO 00000KT 10SM CLR 14/11 A3008 RMK AO2 SLP189 T01440106=
202008300356 METAR KPWT 300356Z AUTO 00000KT 10SM CLR 15/12 A3006 RMK AO2 SLP183 T01500117=
202008300256 METAR KPWT 300256Z AUTO 08004KT 10SM CLR 17/12 A3005 RMK AO2 SLP179 6//// T01720117 53004=
202008300156 METAR KPWT 300156Z AUTO 03007KT 10SM CLR 19/12 A3004 RMK AO2 SLP175 T01890122=
202008300056 METAR KPWT 300056Z AUTO 02010KT 10SM CLR 21/12 A3003 RMK AO2 SLP172 T02060122=
202008292356 METAR KPWT 292356Z AUTO 02006KT 10SM SCT037 BKN046 20/12 A3004 RMK AO2 SLP174 6//// T02000122 10206 20161=
202008292256 METAR KPWT 292256Z AUTO 13004KT 10SM SCT050 20/13 A3004 RMK AO2 SLP175 T02000128=
202008292156 METAR KPWT 292156Z AUTO 05003KT 10SM FEW026 SCT035 OVC050 19/13 RMK AO2 SLPNO T01890128 $=
202008292114 SPECI KPWT 292114Z AUTO 05004KT 10SM SCT022 SCT041 BKN048 18/12 RMK AO2 $=
202008292056 METAR KPWT 292056Z AUTO 33004KT 10SM BKN022 18/12 A3006 RMK AO2 SLP183 6//// T01780122=
202008291956 METAR KPWT 291956Z AUTO 10SM BKN020 17/12 RMK AO2 SLPNO T01720117 $=
202008291856 METAR KPWT 291856Z AUTO 06005KT 10SM BKN020 16/12 A3006 RMK AO2 SLP182 T01610122=
202008291756 METAR KPWT 291756Z AUTO 20003KT 10SM BKN015 BKN020 16/13 A3006 RMK AO2 SLP183 T01610128 10161 20139 53009=
202008291707 SPECI KPWT 291707Z AUTO 00000KT 10SM FEW007 BKN016 15/13 A3005 RMK AO2=
202008291656 METAR KPWT 291656Z AUTO 00000KT 9SM SCT007 14/13 A3004 RMK AO2 SLP177 T01440133=
202008291556 METAR KPWT 291556Z AUTO 20003KT 10SM CLR 14/13 A3003 RMK AO2 SLP174 T01440133=
202008291456 METAR KPWT 291456Z AUTO 00000KT 10SM FEW006 14/13 A3003 RMK AO2 SLP172 T01390133 53011=
202008291356 METAR KPWT 291356Z AUTO 00000KT 10SM CLR 14/13 A3001 RMK AO2 SLP165 T01390133=
202008291256 METAR KPWT 291256Z AUTO 00000KT 10SM CLR 14/13 A3001 RMK AO2 SLP163 T01440133=
202008291156 METAR KPWT 291156Z AUTO 00000KT 10SM CLR 14/13 A3000 RMK AO2 SLP160 T01390133 10156 20100 50001=
202008291056 METAR KPWT 291056Z AUTO 00000KT 10SM CLR 14/13 A3000 RMK AO2 SLP161 T01390133=
202008290956 METAR KPWT 290956Z AUTO 00000KT 10SM CLR 12/11 A3000 RMK AO2 SLP159 T01170111=
202008290942 SPECI KPWT 290942Z AUTO 00000KT 10SM CLR 12/11 A3000 RMK AO2=
202008290934 SPECI KPWT 290934Z AUTO 00000KT 2 1/2SM BR CLR 11/11 A3000 RMK AO2=
202008290856 METAR KPWT 290856Z AUTO 00000KT 10SM CLR 11/10 A3000 RMK AO2 SLP160 T01110100 55001=
202008290756 METAR KPWT 290756Z AUTO 00000KT 10SM CLR 12/12 A2999 RMK AO2 SLP159 T01220117 402560094=
202008290656 METAR KPWT 290656Z AUTO 00000KT 10SM CLR 13/12 A2999 RMK AO2 SLP159 T01330117=
202008290556 METAR KPWT 290556Z AUTO 00000KT 10SM CLR 16/13 A3000 RMK AO2 SLP161 T01560128 10250 20144 52004=
202008290456 METAR KPWT 290456Z AUTO 05005KT 10SM CLR 16/12 A3000 RMK AO2 SLP161 T01560122=
202008290356 METAR KPWT 290356Z AUTO 08004KT 10SM CLR 18/13 A2999 RMK AO2 SLP158 T01780128=
202008290256 METAR KPWT 290256Z AUTO 08004KT 10SM CLR 20/13 A2999 RMK AO2 SLP157 T02000128 53000=
202008290156 METAR KPWT 290156Z AUTO 08007KT 10SM CLR 23/12 A2999 RMK AO2 SLP158 T02280122=
202008290056 METAR KPWT 290056Z AUTO 07007KT 10SM CLR 25/12 A2999 RMK AO2 SLP156 T02500117=
202008282356 METAR KPWT 282356Z AUTO 04008KT 10SM CLR 25/12 A2999 RMK AO2 SLP156 T02500122 10256 20194 56018=
202008282256 METAR KPWT 282256Z AUTO 36003KT 10SM CLR 25/13 A3000 RMK AO2 SLP162 T02500128=
202008282156 METAR KPWT 282156Z AUTO 06008KT 10SM CLR 24/13 A3002 RMK AO2 SLP167 T02440128=
202008282056 METAR KPWT 282056Z AUTO 00000KT 10SM CLR 24/13 A3004 RMK AO2 SLP174 T02390128 58013=
202008281956 METAR KPWT 281956Z AUTO VRB03KT 5SM HZ CLR 22/13 A3005 RMK AO2 SLP180 T02170128=
202008281856 METAR KPWT 281856Z AUTO 04005KT 10SM CLR 22/12 A3007 RMK AO2 SLP186 T02170122=
202008281756 METAR KPWT 281756Z AUTO 07005KT 10SM CLR 19/13 A3008 RMK AO2 SLP187 T01940128 10200 20094 51002=
202008281656 METAR KPWT 281656Z AUTO 05004KT 10SM CLR 19/13 A3008 RMK AO2 SLP187 T01890133=
202008281556 METAR KPWT 281556Z AUTO 07004KT 10SM CLR 17/13 A3008 RMK AO2 SLP188 T01670133=
202008281456 METAR KPWT 281456Z AUTO 05005KT 10SM CLR 15/13 A3007 RMK AO2 SLP185 T01500133 53005=
202008281356 METAR KPWT 281356Z AUTO 00000KT 10SM CLR 09/09 A3007 RMK AO2 SLP184 T00940089=
202008281334 SPECI KPWT 281334Z AUTO 00000KT 10SM CLR 10/09 A3006 RMK AO2=
202008281327 SPECI KPWT 281327Z AUTO 00000KT 2SM BR CLR 10/09 A3006 RMK AO2=
202008281323 SPECI KPWT 281323Z AUTO 00000KT 3/4SM BR CLR 10/09 A3006 RMK AO2=
202008281316 SPECI KPWT 281316Z AUTO 00000KT 1 1/4SM BR CLR 10/09 A3006 RMK AO2 VIS 1/4V5=
202008281301 SPECI KPWT 281301Z AUTO 00000KT 3SM BR CLR 09/09 A3006 RMK AO2=
202008281256 METAR KPWT 281256Z AUTO 00000KT 1 1/4SM BR CLR 10/09 A3006 RMK AO2 VIS 1/2V5 SLP181 T01000094=
202008281250 SPECI KPWT 281250Z AUTO 00000KT 1 3/4SM BR CLR 10/09 A3006 RMK AO2=
202008281235 SPECI KPWT 281235Z AUTO 00000KT 10SM CLR 10/09 A3006 RMK AO2=
202008281228 SPECI KPWT 281228Z AUTO 00000KT 2 1/2SM BR CLR 11/10 A3006 RMK AO2=
202008281219 SPECI KPWT 281219Z AUTO 00000KT 1SM BR CLR 10/09 A3006 RMK AO2=
202008281156 METAR KPWT 281156Z AUTO 00000KT 10SM CLR 11/10 A3006 RMK AO2 SLP180 6//// 7//// T01110100 10167 20111 51002=
202008281056 METAR KPWT 281056Z AUTO 05003KT 10SM CLR 13/12 A3006 RMK AO2 SLP179 T01280117=
202008280956 METAR KPWT 280956Z AUTO 05004KT 10SM CLR 13/12 A3005 RMK AO2 SLP178 T01280117=
202008280856 METAR KPWT 280856Z AUTO 00000KT 10SM CLR 13/11 A3005 RMK AO2 SLP177 T01280106 52002=
202008280756 METAR KPWT 280756Z AUTO 00000KT 10SM CLR 14/11 A3004 RMK AO2 SLP175 T01390111 402670072=
202008280656 METAR KPWT 280656Z AUTO 00000KT 10SM CLR 14/11 A3005 RMK AO2 SLP176 T01390111=
202008280556 METAR KPWT 280556Z AUTO 00000KT 10SM CLR 17/12 A3004 RMK AO2 SLP175 6//// T01670117 10256 20167 51008=
202008280456 METAR KPWT 280456Z AUTO 05006KT 10SM CLR 18/11 A3003 RMK AO2 SLP171 T01780111=
202008280356 METAR KPWT 280356Z AUTO 06004KT 10SM CLR 19/11 A3003 RMK AO2 SLP170 T01890111=
202008280256 METAR KPWT 280256Z AUTO 07005KT 10SM CLR 21/12 A3002 RMK AO2 SLP167 T02110117 53001=
202008280156 METAR KPWT 280156Z AUTO 04007KT 10SM CLR 24/12 A3001 RMK AO2 SLP165 T02390117=
202008280056 METAR KPWT 280056Z AUTO 02006KT 10SM CLR 25/12 A3001 RMK AO2 SLP165 T02500117=
202008272356 METAR KPWT 272356Z AUTO 05006KT 10SM SCT055 24/12 A3002 RMK AO2 SLP167 6//// T02390117 10267 20211 56009=
202008272256 METAR KPWT 272256Z AUTO 06005KT 10SM SCT055 26/12 A3002 RMK AO2 SLP167 T02610122=
202008272156 METAR KPWT 272156Z AUTO VRB04KT 10SM CLR 26/12 A3003 RMK AO2 SLP170 T02610122=
202008272056 METAR KPWT 272056Z AUTO 03005KT 10SM CLR 24/12 A3004 RMK AO2 SLP176 T02440122 58002=
202008271956 METAR KPWT 271956Z AUTO 01005KT 10SM CLR 24/12 A3005 RMK AO2 SLP177 T02440122=
202008271856 METAR KPWT 271856Z AUTO 04005KT 10SM CLR 22/12 A3005 RMK AO2 SLP178 T02220117=
202008271756 METAR KPWT 271756Z AUTO 00000KT 10SM CLR 22/12 A3005 RMK AO2 SLP178 6//// T02170117 10222 20072 50003=
202008271656 METAR KPWT 271656Z AUTO 00000KT 10SM CLR 20/11 A3005 RMK AO2 SLP178 T02000111=
202008271556 METAR KPWT 271556Z AUTO 00000KT 10SM CLR 17/11 A3005 RMK AO2 SLP177 T01720111=
202008271456 METAR KPWT 271456Z AUTO 00000KT 10SM CLR 14/12 A3004 RMK AO2 SLP175 T01440117 53008=
202008271356 METAR KPWT 271356Z AUTO 00000KT 10SM CLR 09/08 A3003 RMK AO2 SLP172 T00890078=
202008271256 METAR KPWT 271256Z AUTO 00000KT 10SM CLR 08/07 A3002 RMK AO2 SLP169 T00780072=
202008271156 METAR KPWT 271156Z AUTO 00000KT 10SM CLR 09/08 A3002 RMK AO2 SLP167 6//// 7//// T00890078 10133 20083 51006=
202008271056 METAR KPWT 271056Z AUTO 00000KT 10SM CLR 10/09 A3001 RMK AO2 SLP166 T01000089=
202008270956 METAR KPWT 270956Z AUTO 00000KT 10SM CLR 11/09 A3001 RMK AO2 SLP164 T01060094=
202008270856 METAR KPWT 270856Z AUTO 00000KT 10SM CLR 11/09 A3000 RMK AO2 SLP161 6//// T01110089 50006=
202008270756 METAR KPWT 270756Z AUTO 00000KT 10SM CLR 11/08 A3000 RMK AO2 SLP162 T01060083 402440094=
202008270656 METAR KPWT 270656Z AUTO 00000KT 10SM CLR 12/09 A2998 RMK AO2 SLP156 T01170089=
202008270556 METAR KPWT 270556Z AUTO 00000KT 10SM CLR 13/09 A2998 RMK AO2 SLP155 6//// T01330094 10244 20133 53005=
202008270456 METAR KPWT 270456Z AUTO 00000KT 10SM CLR 17/09 A2997 RMK AO2 SLP152 T01670094=
202008270356 METAR KPWT 270356Z AUTO 05008KT 10SM CLR 19/09 A2997 RMK AO2 SLP152 T01890094=
202008270256 METAR KPWT 270256Z AUTO 04006KT 10SM CLR 20/09 A2996 RMK AO2 SLP149 6//// T02000089 55001=
202008270156 METAR KPWT 270156Z AUTO 04006KT 10SM CLR 22/09 A2995 RMK AO2 SLP146 T02220094=
202008270056 METAR KPWT 270056Z AUTO 07007KT 10SM CLR 24/11 A2996 RMK AO2 SLP147 T02390106=
202008262356 METAR KPWT 262356Z AUTO 06009KT 030V090 10SM CLR 24/11 A2997 RMK AO2 SLP149 T02390111 10244 20200 56013=
202008262256 METAR KPWT 262256Z AUTO 04004KT 10SM CLR 24/11 A2998 RMK AO2 SLP154 T02440106=
202008262156 METAR KPWT 262156Z AUTO 04008KT 10SM CLR 24/11 A2999 RMK AO2 SLP157 T02390111=
202008262056 METAR KPWT 262056Z AUTO 07007KT 10SM CLR 23/12 A3000 RMK AO2 SLP163 T02330117 56013=
202008261956 METAR KPWT 261956Z AUTO VRB04KT 10SM CLR 22/12 A3001 RMK AO2 SLP166 T02220117=
202008261856 METAR KPWT 261856Z AUTO 36005KT 10SM CLR 22/12 A3003 RMK AO2 SLP170 T02220117=
202008261756 METAR KPWT 261756Z AUTO 00000KT 10SM CLR 20/12 A3004 RMK AO2 SLP174 6//// T02000117 10211 20100 57001=
202008261656 METAR KPWT 261656Z AUTO 00000KT 10SM CLR 19/12 A3004 RMK AO2 SLP175 T01890117=
202008261556 METAR KPWT 261556Z AUTO 05005KT 10SM CLR 16/11 A3004 RMK AO2 SLP176 T01610111=
202008261456 METAR KPWT 261456Z AUTO 04004KT 10SM CLR 14/12 A3004 RMK AO2 SLP176 T01390117 53008=
202008261356 METAR KPWT 261356Z AUTO 00000KT 10SM CLR 11/10 A3003 RMK AO2 SLP173 T01110100=
202008261256 METAR KPWT 261256Z AUTO 00000KT 10SM CLR 11/09 A3002 RMK AO2 SLP169 T01060094=
202008261156 METAR KPWT 261156Z AUTO 05004KT 10SM CLR 12/11 A3002 RMK AO2 SLP166 7//// T01220106 10161 20094 53004=
202008261056 METAR KPWT 261056Z AUTO 00000KT 10SM CLR 11/09 A3001 RMK AO2 SLP165 T01060094=
202008260956 METAR KPWT 260956Z AUTO 00000KT 10SM CLR 10/09 A3001 RMK AO2 SLP164 T01000089=
202008260856 METAR KPWT 260856Z AUTO 00000KT 10SM CLR 10/09 A3000 RMK AO2 SLP163 T01000089 50002=
202008260756 METAR KPWT 260756Z AUTO 00000KT 10SM CLR 12/10 A3001 RMK AO2 SLP165 T01170100 402560061=
202008260656 METAR KPWT 260656Z AUTO 00000KT 10SM CLR 14/11 A3001 RMK AO2 SLP164 T01390106=
202008260556 METAR KPWT 260556Z AUTO 00000KT 10SM FEW060 16/12 A3000 RMK AO2 SLP161 6//// T01610117 10244 20161 50008=
202008260456 METAR KPWT 260456Z AUTO 00000KT 10SM SCT060 17/12 A3000 RMK AO2 SLP162 T01720117=
202008260356 METAR KPWT 260356Z AUTO 07004KT 10SM SCT060 19/10 A2999 RMK AO2 SLP158 T01940100=
202008260256 METAR KPWT 260256Z AUTO 07005KT 10SM CLR 21/10 A2997 RMK AO2 SLP153 T02060100 52003=
202008260156 METAR KPWT 260156Z AUTO 07006KT 10SM CLR 23/11 A2997 RMK AO2 SLP153 T02280111=
202008260056 METAR KPWT 260056Z AUTO 06007KT 10SM CLR 23/12 A2997 RMK AO2 SLP150 T02330122=
202008252356 METAR KPWT 252356Z AUTO 02008KT 10SM CLR 24/12 A2996 RMK AO2 SLP150 T02440122 10256 20194 56007=
202008252256 METAR KPWT 252256Z AUTO 04005KT 10SM CLR 24/12 A2997 RMK AO2 SLP150 T02440117=
202008252156 METAR KPWT 252156Z AUTO VRB03KT 10SM CLR 24/12 A2998 RMK AO2 SLP154 T02390122=
202008252056 METAR KPWT 252056Z AUTO 07005KT 10SM CLR 23/12 A2999 RMK AO2 SLP158 T02280122 58010=
202008251956 METAR KPWT 251956Z AUTO VRB04KT 10SM CLR 22/12 A3000 RMK AO2 SLP162 T02170122=
202008251856 METAR KPWT 251856Z AUTO 03007KT 10SM CLR 21/12 A3001 RMK AO2 SLP167 T02060122=
202008251756 METAR KPWT 251756Z AUTO VRB04KT 10SM CLR 19/12 A3002 RMK AO2 SLP167 6//// T01940117 10194 20061 51004=
202008251656 METAR KPWT 251656Z AUTO VRB04KT 10SM CLR 18/12 A3001 RMK AO2 SLP166 T01830117=
202008251556 METAR KPWT 251556Z AUTO 00000KT 10SM CLR 16/11 A3002 RMK AO2 SLP167 T01610111=
202008251456 METAR KPWT 251456Z AUTO 00000KT 10SM CLR 14/11 A3001 RMK AO2 SLP164 T01390111 53008=
202008251356 METAR KPWT 251356Z AUTO 00000KT 10SM CLR 08/07 A2999 RMK AO2 SLP158 T00780072=
202008251259 SPECI KPWT 251259Z AUTO 00000KT 3SM BR CLR 06/06 A2999 RMK AO2=
202008251256 METAR KPWT 251256Z AUTO 00000KT 1 1/2SM BR CLR 07/06 A2999 RMK AO2 VIS 1/2V5 SLP157 T00670061=
202008251250 SPECI KPWT 251250Z AUTO 00000KT 1 3/4SM BR CLR 07/06 A2998 RMK AO2=
202008251208 SPECI KPWT 251208Z AUTO 00000KT 3SM BR CLR 08/07 A2998 RMK AO2=
202008251159 SPECI KPWT 251159Z AUTO 00000KT 1 3/4SM BR CLR 07/07 A2998 RMK AO2=
202008251156 METAR KPWT 251156Z AUTO 00000KT 9SM CLR 07/07 A2998 RMK AO2 SLP156 7//// T00720067 10144 20067 52002=
202008251056 METAR KPWT 251056Z AUTO 00000KT 10SM CLR 09/09 A2998 RMK AO2 SLP156 T00940089=
202008250956 METAR KPWT 250956Z AUTO 00000KT 10SM CLR 09/07 A2998 RMK AO2 SLP155 T00890072=
202008250856 METAR KPWT 250856Z AUTO 00000KT 10SM CLR 09/07 A2998 RMK AO2 SLP154 T00940072 50001=
202008250756 METAR KPWT 250756Z AUTO 00000KT 10SM CLR 10/08 A2998 RMK AO2 SLP155 T01000078 402330094=
202008250656 METAR KPWT 250656Z AUTO 00000KT 10SM CLR 12/09 A2998 RMK AO2 SLP154 T01170089=
202008250556 METAR KPWT 250556Z AUTO 15003KT 10SM CLR 14/11 A2997 RMK AO2 SLP152 6//// T01390106 10228 20133 51006=
202008250456 METAR KPWT 250456Z AUTO 00000KT 10SM FEW050 15/11 A2997 RMK AO2 SLP151 T01500111=
202008250356 METAR KPWT 250356Z AUTO 00000KT 10SM CLR 17/11 A2996 RMK AO2 SLP149 T01720111=
202008250256 METAR KPWT 250256Z AUTO 05005KT 10SM BKN050 20/11 A2996 RMK AO2 SLP147 T02000106 58004=
202008250156 METAR KPWT 250156Z AUTO 06006KT 10SM BKN050 21/11 A2996 RMK AO2 SLP149 T02110106=
202008250056 METAR KPWT 250056Z AUTO 05006KT 10SM CLR 22/11 A2997 RMK AO2 SLP151 T02220106=
202008242356 METAR KPWT 242356Z AUTO 03006KT 10SM BKN049 22/12 A2997 RMK AO2 SLP152 6//// T02220117 10233 20194=
202008242256 METAR KPWT 242256Z AUTO 10SM BKN049 22/12 RMK AO2 SLPNO T02220117 $=
202008242156 METAR KPWT 242156Z AUTO 02006KT 10SM OVC049 23/12 A2998 RMK AO2 SLP154 T02280117=
202008242056 METAR KPWT 242056Z AUTO VRB03KT 10SM SCT045 23/11 A2998 RMK AO2 SLP156 6//// T02330111 58006=
202008241956 METAR KPWT 241956Z AUTO 07003KT 10SM OVC043 21/11 A2999 RMK AO2 SLP159 T02060111=
202008241856 METAR KPWT 241856Z AUTO VRB03KT 10SM SCT037 SCT046 21/11 A3000 RMK AO2 SLP161 T02110111=
202008241756 METAR KPWT 241756Z AUTO VRB05KT 10SM CLR 20/12 A3000 RMK AO2 SLP162 6//// T02000117 10200 20094=
202008241656 METAR KPWT 241656Z AUTO 00000KT 10SM CLR 18/11 A3001 RMK AO2 SLP164 T01780111=
202008241556 METAR KPWT 241556Z AUTO VRB03KT 10SM CLR 17/11 RMK AO2 SLPNO T01670106 $=
202008241456 METAR KPWT 241456Z AUTO 00000KT 10SM BKN045 15/11 A3000 RMK AO2 SLP163 T01500111 53008=
202008241356 METAR KPWT 241356Z AUTO 00000KT 10SM CLR 11/09 A3000 RMK AO2 SLP161 T01060094=
202008241256 METAR KPWT 241256Z AUTO 00000KT 10SM CLR 10/09 A2998 RMK AO2 SLP156 T01000089=
202008241156 METAR KPWT 241156Z AUTO 00000KT 10SM CLR 09/09 A2998 RMK AO2 SLP154 6//// 7//// T00940089 10156 20094 51005=
202008241056 METAR KPWT 241056Z AUTO 00000KT 10SM CLR 10/09 A2997 RMK AO2 SLP152 T01000089=
202008240956 METAR KPWT 240956Z AUTO 00000KT 10SM CLR 11/09 A2997 RMK AO2 SLP151 T01060089=
202008240856 METAR KPWT 240856Z AUTO 13003KT 10SM CLR 11/09 A2996 RMK AO2 SLP149 6//// T01060094 50001=
202008240756 METAR KPWT 240756Z AUTO 00000KT 10SM CLR 11/09 A2997 RMK AO2 SLP150 T01110094 402440067=
202008240656 METAR KPWT 240656Z AUTO 00000KT 10SM CLR 13/09 A2997 RMK AO2 SLP152 T01330094=
202008240556 METAR KPWT 240556Z AUTO 07005KT 10SM CLR 16/11 A2996 RMK AO2 SLP148 6//// T01560106 10239 20156 50001=
202008240456 METAR KPWT 240456Z AUTO 06004KT 10SM CLR 16/10 A2997 RMK AO2 SLP151 T01610100=
202008240356 METAR KPWT 240356Z AUTO 05005KT 10SM CLR 17/11 A2997 RMK AO2 SLP150 T01720106=
202008240256 METAR KPWT 240256Z AUTO 06005KT 10SM CLR 19/10 A2996 RMK AO2 SLP146 6//// T01940100 55001=
202008240156 METAR KPWT 240156Z AUTO 05009KT 10SM CLR 22/09 A2995 RMK AO2 SLP143 T02170094=
202008240056 METAR KPWT 240056Z AUTO 03010KT 10SM CLR 23/11 A2995 RMK AO2 SLP144 T02280106=
202008232356 METAR KPWT 232356Z AUTO 04009KT 10SM CLR 24/11 A2996 RMK AO2 SLP149 6//// T02390106 10244 20189 58010=
202008232256 METAR KPWT 232256Z AUTO 04008KT 10SM CLR 24/12 A2997 RMK AO2 SLP152 T02390117=
202008232156 METAR KPWT 232156Z AUTO VRB04KT 10SM CLR 24/13 A2998 RMK AO2 SLP154 T02390128=
202008232056 METAR KPWT 232056Z AUTO 06007KT 030V090 10SM CLR 23/13 A2999 RMK AO2 SLP158 6//// T02280128 58015=
202008231956 METAR KPWT 231956Z AUTO VRB04KT 10SM CLR 22/12 A3000 RMK AO2 SLP162 T02170122=
202008231856 METAR KPWT 231856Z AUTO VRB04KT 10SM CLR 20/12 A3002 RMK AO2 SLP169 T02000122=
202008231756 METAR KPWT 231756Z AUTO VRB06KT 10SM CLR 19/12 A3003 RMK AO2 SLP173 T01890122 10189 20067 56005=
202008231656 METAR KPWT 231656Z AUTO 06008KT 10SM CLR 18/12 A3004 RMK AO2 SLP175 T01780117=
202008231556 METAR KPWT 231556Z AUTO 06009KT 10SM CLR 16/11 A3004 RMK AO2 SLP176 T01610111=
202008231456 METAR KPWT 231456Z AUTO 00000KT 10SM CLR 13/11 A3005 RMK AO2 SLP179 T01330106 53005=
202008231356 METAR KPWT 231356Z AUTO 00000KT 10SM CLR 08/08 A3004 RMK AO2 SLP174 T00830078=
202008231256 METAR KPWT 231256Z AUTO 00000KT 8SM CLR 08/07 A3003 RMK AO2 SLP172 T00780072=
202008231156 METAR KPWT 231156Z AUTO 00000KT 10SM CLR 08/08 A3003 RMK AO2 SLP174 6//// 7//// T00830078 10150 20083 53001=
202008231056 METAR KPWT 231056Z AUTO 21004KT 10SM CLR 08/08 A3003 RMK AO2 SLP172 T00830078=
202008230956 METAR KPWT 230956Z AUTO 05006KT 10SM CLR 12/10 A3003 RMK AO2 SLP172 T01220100=
202008230856 METAR KPWT 230856Z AUTO 05004KT 10SM CLR 11/10 A3003 RMK AO2 SLP172 6//// T01110100 56006=
202008230756 METAR KPWT 230756Z AUTO 07005KT 10SM CLR 12/10 A3004 RMK AO2 SLP176 T01220100 402330122=
202008230656 METAR KPWT 230656Z AUTO 06004KT 10SM CLR 13/09 A3004 RMK AO2 SLP175 T01330089=
202008230556 METAR KPWT 230556Z AUTO 07005KT 10SM CLR 15/09 A3005 RMK AO2 SLP179 6//// T01500089 10228 20150=
202008230456 METAR KPWT 230456Z AUTO 07004KT 10SM CLR 16/08 A3005 RMK AO2 SLP181 T01560083=
202008230356 METAR KPWT 230356Z AUTO 05007KT 10SM CLR 17/08 A3006 RMK AO2 SLP183 T01670078=
202008230256 METAR KPWT 230256Z AUTO 03007KT 10SM CLR 18/09 RMK AO2 SLPNO 6//// T01830089 $=
202008230156 METAR KPWT 230156Z AUTO 05010KT 10SM CLR 21/09 A3006 RMK AO2 SLP183 T02060089=
202008230056 METAR KPWT 230056Z AUTO 01008KT 10SM CLR 22/11 A3007 RMK AO2 SLP186 T02220111=
202008222356 METAR KPWT 222356Z AUTO 07007KT 10SM CLR 22/12 A3008 RMK AO2 SLP189 T02220122 10233 20172 57014=
202008222256 METAR KPWT 222256Z AUTO 04009KT 10SM CLR 23/12 A3010 RMK AO2 SLP193 T02280117=
202008222156 METAR KPWT 222156Z AUTO 00000KT 10SM CLR 21/11 A3012 RMK AO2 SLP201 T02060106=
202008222056 METAR KPWT 222056Z AUTO 01006KT 10SM SCT037 22/12 A3013 RMK AO2 SLP203 T02220117 56014=
202008221956 METAR KPWT 221956Z AUTO 10SM FEW034 20/11 A3013 RMK AO2 SLP207 T02000111=
202008221856 METAR KPWT 221856Z AUTO 07004KT 10SM FEW022 SCT049 19/13 A3015 RMK AO2 SLP213 T01940128=
202008221756 METAR KPWT 221756Z AUTO 03004KT 10SM FEW016 SCT049 17/14 A3017 RMK AO2 SLP220 6//// T01720139 10172 20128 53013=
202008221656 METAR KPWT 221656Z AUTO 08005KT 10SM FEW011 16/14 A3016 RMK AO2 SLP215 T01560139=
202008221556 METAR KPWT 221556Z AUTO 05006KT 10SM SCT020 SCT025 14/14 A3014 RMK AO2 RAE15 SLP210 P0001 T01440139=
202008221525 SPECI KPWT 221525Z AUTO 04006KT 10SM SCT005 SCT013 BKN021 14/13 A3014 RMK AO2 RAE15 P0001=
202008221503 SPECI KPWT 221503Z AUTO 05006KT 4SM -RA BR OVC005 14/13 A3013 RMK AO2 P0001=
202008221456 METAR KPWT 221456Z AUTO 05007KT 2 1/2SM -RA BR OVC005 14/13 A3013 RMK AO2 VIS 1 3/4V4 RAB09 CIG 003V009 SLP206 P0003 60003 T01390133 53014=
202008221425 SPECI KPWT 221425Z AUTO 06007KT 3SM -RA BR BKN005 OVC011 14/13 A3012 RMK AO2 RAB09 CIG 003V009 P0001=
202008221415 SPECI KPWT 221415Z AUTO 07008KT 3SM -RA BR BKN003 14/13 A3012 RMK AO2 RAB09 CIG 003V007 P0000=
202008221356 METAR KPWT 221356Z AUTO 05006KT 8SM FEW006 14/14 A3011 RMK AO2 SLP199 T01440139=
202008221335 SPECI KPWT 221335Z AUTO 00000KT 6SM BR FEW006 14/14 A3011 RMK AO2=
202008221256 METAR KPWT 221256Z AUTO 00000KT 10SM CLR 13/13 A3010 RMK AO2 SLP194 T01330128=
202008221156 METAR KPWT 221156Z AUTO 00000KT 10SM CLR 15/14 A3009 RMK AO2 SLP191 6//// 7//// T01500139 10150 20144 51018=
202008221056 METAR KPWT 221056Z AUTO 00000KT 10SM CLR 14/14 A3008 RMK AO2 SLP187 T01440139=
202008220956 METAR KPWT 220956Z AUTO 17003KT 10SM CLR 14/14 A3005 RMK AO2 SLP179 T01440139=
202008220856 METAR KPWT 220856Z AUTO 21003KT 10SM CLR 14/14 A3004 RMK AO2 SLP173 6//// T01440139 52020=
202008220756 METAR KPWT 220756Z AUTO 18003KT 10SM CLR 15/14 A3002 RMK AO2 SLP169 T01500139 402110144=
202008220656 METAR KPWT 220656Z AUTO 20005KT 10SM CLR 15/14 A2999 RMK AO2 SLP158 T01500139=
202008220556 METAR KPWT 220556Z AUTO 18003KT 10SM CLR 15/14 A2997 RMK AO2 SLP153 6//// T01500139 10211 20150 51024=
202008220456 METAR KPWT 220456Z AUTO 19009G15KT 10SM CLR 16/14 A2996 RMK AO2 SLP148 T01610144=
202008220356 METAR KPWT 220356Z AUTO 21010KT 10SM OVC120 17/14 A2993 RMK AO2 SLP138 T01720144=
202008220256 METAR KPWT 220256Z AUTO 21012KT 10SM BKN110 18/14 A2990 RMK AO2 SLP128 6//// T01830139 53009=
202008220156 METAR KPWT 220156Z AUTO 21014G20KT 10SM CLR 20/14 A2988 RMK AO2 SLP121 T02000144=
202008220056 METAR KPWT 220056Z AUTO 20015G22KT 10SM CLR 21/15 A2988 RMK AO2 SLP120 T02060150=
202008212356 METAR KPWT 212356Z AUTO 22014G22KT 10SM FEW050 20/17 A2988 RMK AO2 SLP118 60029 T02000167 10206 20172 50003=
202008212256 METAR KPWT 212256Z AUTO 20010KT 10SM FEW008 SCT012 SCT021 18/17 A2988 RMK AO2 RAE56 SLP121 P0002 T01830172=
202008212252 SPECI KPWT 212252Z AUTO 21009KT 10SM -RA FEW008 SCT012 SCT021 18/17 A2988 RMK AO2 P0002=
202008212240 SPECI KPWT 212240Z AUTO 9SM -RA BKN008 BKN015 18/17 RMK AO2 CIG 006V011 P0001 $=
202008212229 SPECI KPWT 212229Z AUTO 19010G16KT 150V230 8SM -RA SCT008 BKN011 BKN016 18/17 A2987 RMK AO2 P0001=
202008212222 SPECI KPWT 212222Z AUTO 19009G16KT 10SM -RA BKN008 BKN013 18/17 A2987 RMK AO2 CIG 006V011 P0000=
202008212207 SPECI KPWT 212207Z AUTO 19009KT 10SM -RA SCT008 SCT012 BKN019 18/17 A2987 RMK AO2 P0000=
202008212200 SPECI KPWT 212200Z AUTO 19010G15KT 8SM -RA SCT008 BKN011 BKN021 18/17 A2987 RMK AO2 P0000=
202008212156 METAR KPWT 212156Z AUTO 19011G19KT 8SM -RA FEW008 SCT011 BKN032 18/17 A2987 RMK AO2 RAE31B53 SLP115 P0000 T01830172=
202008212056 METAR KPWT 212056Z AUTO 21011G16KT 10SM -RA FEW026 19/18 A2986 RMK AO2 RAE28B47 SLP113 P0001 60027 T01890178 51009=
202008212012 SPECI KPWT 212012Z AUTO 22011KT 10SM -RA FEW005 SCT013 SCT023 18/17 A2985 RMK AO2 P0001=
202008212002 SPECI KPWT 212002Z AUTO 23011G19KT 5SM -RA BR FEW004 SCT010 BKN017 17/17 A2985 RMK AO2 P0001=
202008211956 METAR KPWT 211956Z AUTO 23014G19KT 3SM -RA BR BKN006 BKN010 OVC023 17/16 A2985 RMK AO2 RAB13 CIG 003V007 SLP110 P0026 T01720161=
202008211953 SPECI KPWT 211953Z AUTO 23015G19KT 3SM -RA BR BKN006 BKN010 OVC016 17/16 A2985 RMK AO2 RAB13 CIG 003V007 P0025=
202008211941 SPECI KPWT 211941Z AUTO 26012G17KT 1 3/4SM +RA BR BKN006 OVC012 17/17 A2985 RMK AO2 RAB13 CIG 003V008 P0012=
202008211937 SPECI KPWT 211937Z AUTO 24013KT 2SM RA BR SCT004 BKN010 OVC017 18/17 A2985 RMK AO2 RAB13 CIG 007V014 P0005=
202008211925 SPECI KPWT 211925Z AUTO 19009KT 6SM -RA BR BKN008 BKN015 OVC038 18/17 A2984 RMK AO2 RAB13 CIG 006V012 P0000=
202008211919 SPECI KPWT 211919Z AUTO 21010KT 8SM -RA SCT010 BKN017 BKN029 18/17 A2984 RMK AO2 RAB13 P0000=
202008211856 METAR KPWT 211856Z AUTO 20008KT 10SM FEW012 SCT038 BKN045 19/17 A2984 RMK AO2 SLP104 T01890172=
202008211756 METAR KPWT 211756Z AUTO 23008KT 10SM CLR 18/17 A2982 RMK AO2 RAE44 SLP098 P0000 6//// T01830172 10183 20161 51003=
202008211754 SPECI KPWT 211754Z AUTO 22007KT 10SM FEW008 18/17 A2982 RMK AO2 RAE44 P0000=
202008211656 METAR KPWT 211656Z AUTO 20007KT 10SM -RA CLR 17/16 A2981 RMK AO2 RAE39B56 SLP096 P0001 T01720161=
202008211556 METAR KPWT 211556Z AUTO 23008KT 10SM -RA CLR 17/17 A2981 RMK AO2 RAE09B41 SLP096 P0000 T01720167=
202008211456 METAR KPWT 211456Z AUTO 21005KT 10SM -RA FEW110 17/16 A2980 RMK AO2 RAB49 SLP091 P0000 6//// T01670161 55001=
202008211356 METAR KPWT 211356Z AUTO 20006KT 10SM BKN110 16/16 A2979 RMK AO2 SLP087 T01610156=
202008211256 METAR KPWT 211256Z AUTO 21007KT 10SM BKN048 17/16 A2980 RMK AO2 SLP091 T01670156=
202008211156 METAR KPWT 211156Z AUTO 21007KT 10SM FEW047 17/16 A2980 RMK AO2 SLP091 6//// 7//// T01670161 10183 20167 50002=
202008211056 METAR KPWT 211056Z AUTO 21009KT 10SM SCT007 17/17 A2980 RMK AO2 RAB0957E49 SLP091 P0004 T01720167=
202008211047 SPECI KPWT 211047Z AUTO 21010KT 10SM -RA SCT007 17/17 A2980 RMK AO2 RAB0957 P0004=
202008211004 SPECI KPWT 211004Z AUTO 21009KT 3SM -RA BR BKN004 BKN008 18/17 A2980 RMK AO2 RAB0957 P0001=
202008210956 METAR KPWT 210956Z AUTO 21008KT 6SM BR SCT004 18/17 A2980 RMK AO2 SLP090 T01780172=
202008210951 SPECI KPWT 210951Z AUTO 20011KT 10SM FEW006 18/17 A2979 RMK AO2=
202008210856 METAR KPWT 210856Z AUTO 19008KT 10SM CLR 18/17 A2979 RMK AO2 SLP090 P0001 6//// T01830172 57001=
202008210756 METAR KPWT 210756Z AUTO 17003KT 10SM FEW032 18/18 A2980 RMK AO2 RAB17E28 SLP090 T01780178 402500156=
202008210718 SPECI KPWT 210718Z AUTO 21004KT 8SM -RA FEW004 SCT009 18/17 A2980 RMK AO2 RAB17=
202008210656 METAR KPWT 210656Z AUTO 18005KT 10SM SCT013 18/17 A2980 RMK AO2 RAE52 SLP091 P0002 T01780172=
202008210652 SPECI KPWT 210652Z AUTO 20003KT 10SM SCT013 SCT022 18/17 A2980 RMK AO2 RAE52 P0002=
202008210639 SPECI KPWT 210639Z AUTO 17004KT 10SM -RA SCT011 BKN017 BKN024 18/17 A2980 RMK AO2 P0002=
202008210630 SPECI KPWT 210630Z AUTO 17004KT 10SM -RA FEW009 SCT019 BKN042 18/17 A2980 RMK AO2 P0002=
202008210610 SPECI KPWT 210610Z AUTO 19003KT 10SM -RA SCT019 BKN028 OVC036 18/17 A2981 RMK AO2 P0000=
202008210556 METAR KPWT 210556Z AUTO 00000KT 10SM -RA FEW025 SCT030 BKN036 18/17 A2981 RMK AO2 SLP095 P0001 60014 T01780172 10239 20178 58004=
202008210456 METAR KPWT 210456Z AUTO 24004KT 10SM -RA FEW027 BKN045 18/18 A2982 RMK AO2 RAB01 SLP099 P0006 T01830178=
202008210452 SPECI KPWT 210452Z AUTO 00000KT 10SM -RA FEW027 SCT033 BKN060 18/18 A2982 RMK AO2 RAB01 P0005=
202008210418 SPECI KPWT 210418Z AUTO 26006KT 5SM -RA BR BKN029 BKN060 18/18 A2982 RMK AO2 RAB01 P0003=
202008210356 METAR KPWT 210356Z AUTO 23006KT 10SM FEW041 SCT060 18/18 A2982 RMK AO2 RAE55 SLP100 P0007 T01830178=
202008210256 METAR KPWT 210256Z AUTO 23006KT 10SM RA FEW039 BKN050 20/17 A2981 RMK AO2 RAE02B51 SLP097 P0000 60000 T02000172 55006=
202008210156 METAR KPWT 210156Z AUTO VRB03KT 10SM -RA CLR 21/18 A2981 RMK AO2 RAB18 SLP095 P0000 T02110178=
202008210056 METAR KPWT 210056Z AUTO 22007KT 10SM CLR 23/17 A2982 RMK AO2 SLP101 T02280167=
202008202356 METAR KPWT 202356Z AUTO 22007KT 10SM FEW034 24/16 A2983 RMK AO2 SLP102 6//// T02390156 10250 20189 58015=
202008202256 METAR KPWT 202256Z AUTO 22007KT 10SM CLR 24/16 A2984 RMK AO2 SLP106 T02390161=
202008202156 METAR KPWT 202156Z AUTO 21008KT 10SM FEW029 23/16 A2986 RMK AO2 SLP114 T02330161=
202008202056 METAR KPWT 202056Z AUTO 23006KT 10SM CLR 22/16 A2987 RMK AO2 SLP118 6//// T02170161 56015=
202008201956 METAR KPWT 201956Z AUTO 23008KT 10SM CLR 22/16 A2989 RMK AO2 SLP122 T02220161=
202008201856 METAR KPWT 201856Z AUTO 24011KT 10SM CLR 21/16 A2990 RMK AO2 SLP128 T02110156=
202008201756 METAR KPWT 201756Z AUTO 21009KT 10SM BKN040 BKN048 19/16 A2992 RMK AO2 SLP133 P0001 60003 T01890161 10194 20156 55004=
202008201656 METAR KPWT 201656Z AUTO 22007KT 10SM FEW014 18/17 A2992 RMK AO2 RAB02E19 SLP132 P0000 T01780167=
202008201618 SPECI KPWT 201618Z AUTO 23004KT 10SM -RA FEW005 SCT009 SCT024 17/16 A2992 RMK AO2 RAB02 P0000=
202008201614 SPECI KPWT 201614Z AUTO 8SM -RA SCT007 BKN012 BKN024 17/16 A2992 RMK AO2 RAB02 P0000=
202008201607 SPECI KPWT 201607Z AUTO 00000KT 2 1/2SM -RA BR BKN007 BKN010 OVC031 17/16 A2992 RMK AO2 RAB02 CIG 005V009 P0000=
202008201556 METAR KPWT 201556Z AUTO 23006KT 4SM BR BKN007 17/16 A2992 RMK AO2 CIG 005V009 SLP134 T01670161=
202008201544 SPECI KPWT 201544Z AUTO 22006KT 10SM SCT007 17/16 A2992 RMK AO2=
202008201456 METAR KPWT 201456Z AUTO 23006KT 10SM FEW033 SCT049 16/16 A2993 RMK AO2 SLP138 60002 T01610156 50003=
202008201445 SPECI KPWT 201445Z AUTO 21006KT 10SM SCT027 BKN049 16/16 A2993 RMK AO2=
202008201430 SPECI KPWT 201430Z AUTO 21004KT 10SM BKN027 16/16 A2993 RMK AO2=
202008201356 METAR KPWT 201356Z AUTO 20004KT 10SM CLR 16/15 A2994 RMK AO2 RAE1258 SLP138 P0000 T01560150=
202008201256 METAR KPWT 201256Z AUTO 19006KT 10SM -RA FEW007 SCT016 16/15 A2993 RMK AO2 SLP136 P0002 T01560150=
202008201156 METAR KPWT 201156Z AUTO 20007KT 10SM -RA CLR 16/15 A2993 RMK AO2 RAB18 SLP135 P0000 6//// 7//// T01560150 10172 20156 55000=
202008201056 METAR KPWT 201056Z AUTO 19007KT 10SM CLR 16/15 A2992 RMK AO2 RAE56 SLP133 P0000 T01560150=
202008200956 METAR KPWT 200956Z AUTO 16003KT 10SM -RA FEW100 16/14 A2990 RMK AO2 RAB0857 SLP127 P0000 T01560144=
202008200856 METAR KPWT 200856Z AUTO 19005KT 10SM CLR 16/14 A2993 RMK AO2 SLP135 6//// T01610144 53004=
202008200756 METAR KPWT 200756Z AUTO 21005KT 10SM CLR 16/14 A2992 RMK AO2 SLP132 T01610139 402780100=
202008200656 METAR KPWT 200656Z AUTO 19006KT 10SM CLR 16/13 A2991 RMK AO2 SLP129 T01610133=
202008200556 METAR KPWT 200556Z AUTO 19005KT 10SM CLR 17/13 A2991 RMK AO2 SLP131 6//// T01720128 10272 20172 53010=
202008200456 METAR KPWT 200456Z AUTO 22008KT 10SM CLR 19/13 A2990 RMK AO2 SLP127 T01890133=
202008200356 METAR KPWT 200356Z AUTO 22007KT 10SM CLR 21/13 A2989 RMK AO2 SLP123 T02110128=
202008200256 METAR KPWT 200256Z AUTO 24010KT 10SM CLR 23/13 A2988 RMK AO2 SLP120 6//// T02280128 55002=
202008200156 METAR KPWT 200156Z AUTO 25008KT 10SM CLR 24/13 A2988 RMK AO2 SLP119 T02440133=
202008200056 METAR KPWT 200056Z AUTO 23009KT 10SM CLR 26/12 A2988 RMK AO2 SLP119 T02610122=
202008192356 METAR KPWT 192356Z AUTO 17003KT 10SM CLR 27/13 A2989 RMK AO2 SLP123 T02670128 10278 20206 56019=
202008192256 METAR KPWT 192256Z AUTO 22006KT 10SM CLR 27/13 A2991 RMK AO2 SLP129 T02720133=
202008192156 METAR KPWT 192156Z AUTO 26007KT 10SM CLR 27/13 A2993 RMK AO2 SLP137 T02720128=
202008192056 METAR KPWT 192056Z AUTO 23007KT 10SM CLR 26/15 A2995 RMK AO2 SLP143 T02560150 56016=
202008191956 METAR KPWT 191956Z AUTO 23007KT 10SM CLR 24/14 A2996 RMK AO2 SLP147 T02440144=
202008191856 METAR KPWT 191856Z AUTO 22005KT 10SM FEW029 24/16 A2998 RMK AO2 SLP154 T02390156=
202008191756 METAR KPWT 191756Z AUTO 00000KT 10SM FEW024 21/14 A3000 RMK AO2 SLP159 6//// T02060144 10217 20100 58013=
202008191656 METAR KPWT 191656Z AUTO 00000KT 10SM CLR 19/14 A3001 RMK AO2 SLP164 T01940139=
202008191556 METAR KPWT 191556Z AUTO 00000KT 10SM CLR 19/14 A3003 RMK AO2 SLP171 T01890144=
202008191456 METAR KPWT 191456Z AUTO 00000KT 10SM CLR 17/14 A3004 RMK AO2 SLP173 6//// T01720144 51002=
202008191356 METAR KPWT 191356Z AUTO 00000KT 10SM CLR 12/11 A3003 RMK AO2 SLP172 T01220111=
202008191256 METAR KPWT 191256Z AUTO 00000KT 10SM CLR 12/11 A3003 RMK AO2 SLP172 T01170111=
202008191156 METAR KPWT 191156Z AUTO 00000KT 10SM CLR 11/11 A3003 RMK AO2 SLP171 7//// T01110106 10156 20106 58006=
202008191056 METAR KPWT 191056Z AUTO 00000KT 10SM CLR 12/11 A3004 RMK AO2 SLP174 T01170106=
202008190956 METAR KPWT 190956Z AUTO 00000KT 10SM CLR 12/11 A3004 RMK AO2 SLP174 T01170111=
202008190856 METAR KPWT 190856Z AUTO 00000KT 10SM CLR 13/12 A3005 RMK AO2 SLP176 T01280117 56008=
202008190756 METAR KPWT 190756Z AUTO 00000KT 10SM CLR 13/12 A3006 RMK AO2 SLP180 T01280117 402720122=
202008190656 METAR KPWT 190656Z AUTO 00000KT 10SM CLR 14/12 A3006 RMK AO2 SLP180 T01390122=
202008190556 METAR KPWT 190556Z AUTO 00000KT 10SM CLR 16/13 A3007 RMK AO2 SLP184 6//// T01560133 10267 20156=
202008190456 METAR KPWT 190456Z AUTO 07004KT 10SM CLR 18/14 RMK AO2 SLPNO T01780139 $=
202008190356 METAR KPWT 190356Z AUTO 07004KT 10SM CLR 19/14 A3006 RMK AO2 SLP182 T01890144=
202008190256 METAR KPWT 190256Z AUTO 06007KT 10SM CLR 21/15 A3005 RMK AO2 SLP178 T02110150 55009=
202008190156 METAR KPWT 190156Z AUTO 03007KT 10SM CLR 24/15 A3005 RMK AO2 SLP176 T02440150=
202008190056 METAR KPWT 190056Z AUTO 00000KT 10SM CLR 27/13 A3006 RMK AO2 SLP181 T02670133=
202008182356 METAR KPWT 182356Z AUTO 22006KT 10SM CLR 26/13 A3008 RMK AO2 SLP187 6//// T02560133 10272 20206 56015=
202008182256 METAR KPWT 182256Z AUTO VRB05KT 10SM CLR 27/13 A3009 RMK AO2 SLP190 T02670133=
202008182156 METAR KPWT 182156Z AUTO 29006KT 10SM CLR 26/14 A3011 RMK AO2 SLP195 T02610139=
202008182056 METAR KPWT 182056Z AUTO VRB04G14KT 10SM CLR 25/13 A3012 RMK AO2 SLP201 6//// T02500133 58009=
202008181956 METAR KPWT 181956Z AUTO 24006G14KT 10SM CLR 24/14 A3013 RMK AO2 SLP205 T02440139=
202008181856 METAR KPWT 181856Z AUTO 24005KT 10SM FEW029 22/14 A3015 RMK AO2 SLP210 T02220144=
202008181756 METAR KPWT 181756Z AUTO 23007KT 10SM SCT026 21/14 A3015 RMK AO2 SLP210 6//// T02110144 10211 20128=
202008181717 SPECI KPWT 181717Z AUTO 22008KT 10SM BKN024 21/14 A3014 RMK AO2=
202008181656 METAR KPWT 181656Z AUTO 10SM CLR 21/14 RMK AO2 SLPNO T02110144 $=
202008181556 METAR KPWT 181556Z AUTO 26005KT 10SM FEW018 19/14 A3013 RMK AO2 SLP204 T01940144=
202008181456 METAR KPWT 181456Z AUTO 21005KT 10SM FEW009 17/14 A3012 RMK AO2 SLP202 6//// T01670144 52019=
202008181412 SPECI KPWT 181412Z AUTO 00000KT 10SM FEW009 16/14 A3011 RMK AO2=
202008181356 METAR KPWT 181356Z AUTO 00000KT 10SM CLR 16/14 A3011 RMK AO2 SLP195 T01560144=
202008181312 SPECI KPWT 181312Z AUTO 21004KT 10SM FEW007 15/14 A3009 RMK AO2=
202008181256 METAR KPWT 181256Z AUTO 22006KT 10SM CLR 15/14 A3008 RMK AO2 SLP188 T01500144=
202008181156 METAR KPWT 181156Z AUTO 22005KT 9SM CLR 13/12 A3007 RMK AO2 SLP182 6//// 7//// T01280122 10194 20122 53004=
202008181148 SPECI KPWT 181148Z AUTO 23003KT 2SM BR CLR 13/13 A3007 RMK AO2 VIS 3/4V5=
202008181056 METAR KPWT 181056Z AUTO 00000KT 10SM CLR 14/13 A3005 RMK AO2 SLP176 T01390128=
202008180956 METAR KPWT 180956Z AUTO 00000KT 10SM CLR 13/12 A3005 RMK AO2 SLP177 T01330122=
202008180856 METAR KPWT 180856Z AUTO 00000KT 10SM CLR 14/13 A3005 RMK AO2 SLP177 6//// T01440133 51009=
202008180756 METAR KPWT 180756Z AUTO 13003KT 10SM CLR 14/13 A3005 RMK AO2 SLP177 T01440128 403170144=
202008180656 METAR KPWT 180656Z AUTO 14003KT 10SM CLR 16/14 A3004 RMK AO2 SLP173 T01560139=
202008180556 METAR KPWT 180556Z AUTO 04004KT 10SM CLR 19/16 A3003 RMK AO2 SLP169 6//// T01940156 10311 20189 51003=
202008180456 METAR KPWT 180456Z AUTO 00000KT 10SM CLR 20/16 A3002 RMK AO2 SLP167 T02000156=
202008180356 METAR KPWT 180356Z AUTO 00000KT 10SM CLR 22/16 A3002 RMK AO2 SLP167 T02170161=
202008180256 METAR KPWT 180256Z AUTO 10SM CLR 25/16 A3002 RMK AO2 SLP166 6//// T02500161 55004=
202008180156 METAR KPWT 180156Z AUTO 22006KT 10SM CLR 29/13 A3001 RMK AO2 SLP162 T02940133=
202008180056 METAR KPWT 180056Z AUTO 22008KT 10SM CLR 31/12 A3001 RMK AO2 SLP164 T03060122=
202008172356 METAR KPWT 172356Z AUTO 20007KT 10SM CLR 31/14 A3003 RMK AO2 SLP168 6//// T03110139 10317 20228 56013=
202008172256 METAR KPWT 172256Z AUTO 23008KT 10SM CLR 31/14 A3004 RMK AO2 SLP172 T03110144=
202008172156 METAR KPWT 172156Z AUTO VRB05KT 10SM CLR 30/16 A3005 RMK AO2 SLP175 T03000156=
202008172056 METAR KPWT 172056Z AUTO VRB06KT 10SM CLR 29/16 A3007 RMK AO2 SLP180 6//// T02940161 58009=
202008171956 METAR KPWT 171956Z AUTO 22008KT 10SM CLR 28/16 A3008 RMK AO2 SLP184 T02780161=
202008171856 METAR KPWT 171856Z AUTO 21007KT 170V230 10SM CLR 25/16 A3008 RMK AO2 SLP188 T02500161=
202008171756 METAR KPWT 171756Z AUTO 21007KT 10SM CLR 23/16 A3009 RMK AO2 SLP190 6//// T02330156 10233 20150 51002=
202008171656 METAR KPWT 171656Z AUTO 20007KT 10SM CLR 21/16 A3009 RMK AO2 SLP190 T02110156=
202008171556 METAR KPWT 171556Z AUTO 19006KT 10SM CLR 19/15 A3009 RMK AO2 SLP190 T01890150=
202008171456 METAR KPWT 171456Z AUTO 20007KT 10SM CLR 17/14 A3009 RMK AO2 SLP189 T01720144 51027=
202008171356 METAR KPWT 171356Z AUTO 20005KT 10SM CLR 16/14 A3007 RMK AO2 SLP182 T01560139=
202008171256 METAR KPWT 171256Z AUTO 20007KT 10SM FEW110 16/13 A3005 RMK AO2 SLP174 T01560133=
202008171156 METAR KPWT 171156Z AUTO 22004KT 10SM FEW120 16/11 A3001 RMK AO2 SLP161 6//// 7//// T01610111 10228 20161 53013=
202008171056 METAR KPWT 171056Z AUTO 00000KT 10SM CLR 18/09 A2999 RMK AO2 SLP154 T01830089=
202008170956 METAR KPWT 170956Z AUTO 00000KT 10SM OVC110 20/08 A2998 RMK AO2 SLP150 T02000078=
202008170856 METAR KPWT 170856Z AUTO 00000KT 10SM CLR 20/08 A2997 RMK AO2 SLP147 6//// T02000078 53005=
202008170756 METAR KPWT 170756Z AUTO 22004KT 10SM CLR 21/09 A2996 RMK AO2 SLP145 T02060089 403720122=
202008170656 METAR KPWT 170656Z AUTO 23006KT 10SM CLR 20/10 A2995 RMK AO2 SLP142 T02000100=
202008170556 METAR KPWT 170556Z AUTO 21004KT 10SM CLR 23/11 A2995 RMK AO2 SLP141 6//// T02280106 10367 20222 51018=
202008170456 METAR KPWT 170456Z AUTO 19006KT 10SM CLR 25/13 A2994 RMK AO2 SLP137 T02500133=
202008170356 METAR KPWT 170356Z AUTO 28004KT 10SM CLR 28/13 A2993 RMK AO2 LTG DSNT NW SLP134 T02780128=
202008170256 METAR KPWT 170256Z AUTO 22008KT 10SM CLR 29/12 A2990 RMK AO2 LTG DSNT NE SLP123 T02940122 53014=
202008170156 METAR KPWT 170156Z AUTO 22009KT 10SM CLR 32/14 A2988 RMK AO2 SLP118 T03220139=
202008170056 METAR KPWT 170056Z AUTO 23009KT 10SM CLR 34/14 A2987 RMK AO2 SLP114 T03440139=
202008162356 METAR KPWT 162356Z AUTO 24013KT 10SM CLR 37/14 A2985 RMK AO2 SLP108 T03670139 10372 20289 56008=
202008162256 METAR KPWT 162256Z AUTO 20010KT 10SM CLR 37/14 A2986 RMK AO2 SLP110 T03670144=
202008162156 METAR KPWT 162156Z AUTO 22009KT 10SM CLR 37/13 A2986 RMK AO2 SLP112 T03670133=
202008162056 METAR KPWT 162056Z AUTO VRB03KT 10SM CLR 34/14 A2988 RMK AO2 SLP116 T03440139 58007=
202008161956 METAR KPWT 161956Z AUTO 22006KT 10SM CLR 33/14 A2989 RMK AO2 SLP121 T03330139=
202008161856 METAR KPWT 161856Z AUTO 19008KT 10SM CLR 31/14 A2990 RMK AO2 SLP124 T03110144=
202008161756 METAR KPWT 161756Z AUTO 00000KT 10SM CLR 29/14 A2990 RMK AO2 SLP124 6//// T02890139 10294 20122 58003=
202008161656 METAR KPWT 161656Z AUTO 00000KT 10SM CLR 26/13 A2990 RMK AO2 SLP126 T02610128=
202008161556 METAR KPWT 161556Z AUTO 23005KT 10SM CLR 23/12 A2991 RMK AO2 SLP128 T02330122=
202008161456 METAR KPWT 161456Z AUTO 00000KT 10SM CLR 19/12 A2991 RMK AO2 SLP128 T01940122 50005=
202008161356 METAR KPWT 161356Z AUTO 00000KT 10SM CLR 13/11 A2991 RMK AO2 SLP128 T01330106=
202008161256 METAR KPWT 161256Z AUTO 00000KT 10SM CLR 12/10 A2990 RMK AO2 SLP127 T01220100=
202008161156 METAR KPWT 161156Z AUTO 00000KT 10SM CLR 12/10 A2989 RMK AO2 SLP123 6//// 7//// T01220100 10217 20122 58002=
202008161056 METAR KPWT 161056Z AUTO 00000KT 10SM CLR 14/11 A2990 RMK AO2 SLP125 T01390106=
202008160956 METAR KPWT 160956Z AUTO 00000KT 10SM CLR 14/11 A2990 RMK AO2 SLP126 T01440106=
202008160856 METAR KPWT 160856Z AUTO 00000KT 10SM CLR 20/11 A2990 RMK AO2 SLP124 6//// T02000106 55002=
202008160756 METAR KPWT 160756Z AUTO 05006KT 10SM CLR 21/11 A2989 RMK AO2 SLP120 T02060106 403060122=
202008160656 METAR KPWT 160656Z AUTO 00000KT 10SM CLR 17/11 A2990 RMK AO2 SLP127 T01720106=
202008160556 METAR KPWT 160556Z AUTO 00000KT 10SM CLR 19/12 A2990 RMK AO2 SLP126 T01890117 10294 20189 53001=
202008160456 METAR KPWT 160456Z AUTO 06006KT 10SM CLR 21/12 A2990 RMK AO2 SLP127 T02110122=
202008160356 METAR KPWT 160356Z AUTO 07005KT 10SM CLR 23/12 A2990 RMK AO2 SLP126 T02280117=
202008160256 METAR KPWT 160256Z AUTO 06005KT 10SM CLR 26/12 A2990 RMK AO2 SLP127 T02560117 56012=
202008160156 METAR KPWT 160156Z AUTO 05008KT 10SM CLR 28/12 A2990 RMK AO2 SLP127 T02780122=
202008160056 METAR KPWT 160056Z AUTO 05009KT 10SM CLR 29/13 A2992 RMK AO2 SLP134 T02890128=
202008152356 METAR KPWT 152356Z AUTO 05009G16KT 10SM CLR 29/13 A2994 RMK AO2 SLP139 6//// T02940128 10306 20250 56018=
202008152256 METAR KPWT 152256Z AUTO 03007KT 10SM CLR 30/13 A2995 RMK AO2 SLP143 T03000128=
202008152156 METAR KPWT 152156Z AUTO 04010G19KT 10SM CLR 30/13 A2997 RMK AO2 SLP149 T03000133=
202008152056 METAR KPWT 152056Z AUTO 06012KT 10SM CLR 29/14 A2999 RMK AO2 SLP156 6//// T02890139 58019=
202008151956 METAR KPWT 151956Z AUTO 03011G20KT 10SM CLR 28/13 A3002 RMK AO2 SLP165 T02830133=
202008151856 METAR KPWT 151856Z AUTO 05011KT 10SM CLR 26/14 A3004 RMK AO2 SLP172 T02610139=
202008151756 METAR KPWT 151756Z AUTO 03008KT 360V080 10SM CLR 25/14 A3005 RMK AO2 SLP176 6//// T02500139 10250 20133 56013=
202008151656 METAR KPWT 151656Z AUTO 06008KT 10SM CLR 22/13 A3006 RMK AO2 SLP179 T02220133=
202008151556 METAR KPWT 151556Z AUTO 06010KT 10SM CLR 20/13 A3007 RMK AO2 SLP183 T02000128=
202008151456 METAR KPWT 151456Z AUTO 08005KT 10SM CLR 17/12 A3008 RMK AO2 SLP188 T01720122 56002=
202008151356 METAR KPWT 151356Z AUTO 09003KT 10SM CLR 15/12 A3009 RMK AO2 SLP188 T01500117=
202008151256 METAR KPWT 151256Z AUTO 06007KT 10SM CLR 14/12 A3008 RMK AO2 SLP187 T01440117=
202008151156 METAR KPWT 151156Z AUTO 00000KT 10SM CLR 13/11 A3009 RMK AO2 SLP190 6//// 7//// T01280111 10178 20122 58009=
202008151056 METAR KPWT 151056Z AUTO 07003KT 10SM CLR 14/12 A3011 RMK AO2 SLP196 T01440117=
202008150956 METAR KPWT 150956Z AUTO 03009KT 10SM CLR 15/12 A3011 RMK AO2 SLP196 T01500117=
202008150856 METAR KPWT 150856Z AUTO 03008KT 10SM CLR 16/12 A3012 RMK AO2 SLP200 6//// T01560117 56006=
202008150756 METAR KPWT 150756Z AUTO 04009KT 10SM CLR 17/11 A3013 RMK AO2 SLP202 T01670111 402670083=
202008150656 METAR KPWT 150656Z AUTO 04009KT 10SM CLR 17/11 A3013 RMK AO2 SLP205 T01720106=
202008150556 METAR KPWT 150556Z AUTO 02004KT 10SM CLR 18/09 A3014 RMK AO2 SLP208 6//// T01780089 10261 20178 50001=
202008150456 METAR KPWT 150456Z AUTO 03008KT 10SM CLR 19/08 A3014 RMK AO2 SLP208 T01890083=
202008150356 METAR KPWT 150356Z AUTO 02009KT 10SM CLR 21/09 A3014 RMK AO2 SLP207 T02060089=
202008150256 METAR KPWT 150256Z AUTO 02007KT 10SM CLR 23/08 A3014 RMK AO2 SLP207 T02280083 56011=
202008150156 METAR KPWT 150156Z AUTO 05010G14KT 10SM CLR 24/09 A3014 RMK AO2 SLP210 T02440089=
202008150056 METAR KPWT 150056Z AUTO 04011KT 10SM CLR 26/09 A3016 RMK AO2 SLP214 T02560094=
202008142356 METAR KPWT 142356Z AUTO 04009KT 10SM CLR 27/10 A3017 RMK AO2 SLP218 T02670100 10267 20206 56013=
202008142256 METAR KPWT 142256Z AUTO 04008KT 010V070 10SM CLR 26/09 A3018 RMK AO2 SLP221 T02610089=
202008142156 METAR KPWT 142156Z AUTO 04008KT 10SM CLR 26/09 A3020 RMK AO2 SLP227 T02610089=
202008142056 METAR KPWT 142056Z AUTO 05009KT 10SM CLR 25/08 A3021 RMK AO2 SLP232 T02500083 58007=
202008141956 METAR KPWT 141956Z AUTO 03009KT 10SM CLR 23/09 A3022 RMK AO2 SLP236 T02330094=
202008141856 METAR KPWT 141856Z AUTO VRB05KT 10SM CLR 22/10 A3022 RMK AO2 SLP238 T02170100=
202008141756 METAR KPWT 141756Z AUTO 07008KT 040V100 10SM CLR 21/09 A3023 RMK AO2 SLP240 T02060089 10206 20083 58000=
202008141656 METAR KPWT 141656Z AUTO 03004KT 10SM CLR 19/09 A3023 RMK AO2 SLP241 T01890089=
202008141556 METAR KPWT 141556Z AUTO 07004KT 10SM CLR 16/09 A3024 RMK AO2 SLP241 T01610094=
202008141456 METAR KPWT 141456Z AUTO 05005KT 10SM CLR 14/09 A3023 RMK AO2 SLP240 T01440094 53007=
202008141356 METAR KPWT 141356Z AUTO 00000KT 10SM CLR 08/07 A3022 RMK AO2 SLP237 T00830072=
202008141256 METAR KPWT 141256Z AUTO 00000KT 10SM CLR 09/07 A3022 RMK AO2 SLP236 T00890072=
202008141156 METAR KPWT 141156Z AUTO 05004KT 10SM CLR 10/08 A3021 RMK AO2 SLP233 T01000083 10133 20089 50001=
202008141056 METAR KPWT 141056Z AUTO 06004KT 10SM CLR 11/09 A3022 RMK AO2 SLP235 T01110089=
202008140956 METAR KPWT 140956Z AUTO 00000KT 10SM CLR 11/08 A3021 RMK AO2 SLP234 T01060083=
202008140756 METAR KPWT 140756Z AUTO 05003KT 10SM CLR 11/08 A3021 RMK AO2 SLP233 T01060078 402440050=
202008140656 METAR KPWT 140656Z AUTO 00000KT 10SM CLR 12/08 A3020 RMK AO2 SLP232 T01220078=
202008140556 METAR KPWT 140556Z AUTO 00000KT 10SM CLR 13/08 A3020 RMK AO2 SLP229 T01330078 10233 20133 51010=
202008140456 METAR KPWT 140456Z AUTO 36003KT 10SM CLR 16/08 A3019 RMK AO2 SLP226 T01560083=
202008140356 METAR KPWT 140356Z AUTO 05006KT 10SM CLR 17/09 A3017 RMK AO2 SLP222 T01720094=
202008140256 METAR KPWT 140256Z AUTO 06006KT 10SM CLR 19/08 A3016 RMK AO2 SLP218 T01940078 53004=
202008140156 METAR KPWT 140156Z AUTO 04008KT 10SM CLR 22/08 A3016 RMK AO2 SLP214 T02170078=
202008140056 METAR KPWT 140056Z AUTO 04009KT 10SM CLR 22/07 A3016 RMK AO2 SLP214 T02220072=
202008132356 METAR KPWT 132356Z AUTO 05007KT 020V080 10SM FEW060 23/08 A3015 RMK AO2 SLP213 T02330078 10244 20172 55001=
202008132256 METAR KPWT 132256Z AUTO 04010KT 10SM BKN055 23/09 A3015 RMK AO2 SLP211 T02330089=
202008132156 METAR KPWT 132156Z AUTO 00000KT 10SM CLR 22/09 A3015 RMK AO2 SLP214 T02220089=
202008132056 METAR KPWT 132056Z AUTO 24007KT 10SM FEW050 23/08 A3016 RMK AO2 SLP215 T02280083 58002=
202008131956 METAR KPWT 131956Z AUTO 07003KT 10SM CLR 21/08 A3016 RMK AO2 SLP218 T02060078=
202008131856 METAR KPWT 131856Z AUTO 00000KT 10SM CLR 20/09 A3016 RMK AO2 SLP217 T02000089=
202008131756 METAR KPWT 131756Z AUTO 00000KT 10SM CLR 17/09 A3016 RMK AO2 SLP216 T01720089 10183 20050 53001=
202008131656 METAR KPWT 131656Z AUTO 00000KT 10SM CLR 16/09 A3016 RMK AO2 SLP215 T01610094=
202008131556 METAR KPWT 131556Z AUTO 08003KT 10SM CLR 14/09 A3016 RMK AO2 SLP214 T01390094=
202008131456 METAR KPWT 131456Z AUTO 06003KT 10SM CLR 13/09 A3016 RMK AO2 SLP215 T01280094 51011=
202008131356 METAR KPWT 131356Z AUTO 00000KT 10SM CLR 06/05 A3015 RMK AO2 SLP214 T00610050=
202008131256 METAR KPWT 131256Z AUTO 00000KT 10SM CLR 06/05 A3014 RMK AO2 SLP209 T00610050=
202008131156 METAR KPWT 131156Z AUTO 00000KT 10SM CLR 06/04 A3012 RMK AO2 SLP205 7//// T00560044 10111 20056 53003=
202008131112 SPECI KPWT 131112Z AUTO 00000KT 10SM CLR 07/07 A3012 RMK AO2=
202008131056 METAR KPWT 131056Z AUTO 00000KT 2 1/2SM BR CLR 06/05 A3012 RMK AO2 VIS 1/2V5 SLP202 T00610050=
202008130956 METAR KPWT 130956Z AUTO 00000KT 10SM CLR 07/07 A3012 RMK AO2 SLP203 T00720067=
202008130856 METAR KPWT 130856Z AUTO 00000KT 10SM CLR 08/07 A3011 RMK AO2 SLP201 T00830072 51005=
202008130756 METAR KPWT 130756Z AUTO 00000KT 10SM CLR 10/08 A3011 RMK AO2 SLP200 T01000078 402060089=
202008130656 METAR KPWT 130656Z AUTO 00000KT 10SM CLR 10/08 A3011 RMK AO2 SLP198 T01000078=
202008130556 METAR KPWT 130556Z AUTO 13003KT 10SM CLR 11/08 A3010 RMK AO2 SLP195 6//// T01060078 10206 20100=
202008130456 METAR KPWT 130456Z AUTO 11003KT 10SM CLR 14/08 A3010 RMK AO2 SLP194 T01390083=
202008130356 METAR KPWT 130356Z AUTO 06004KT 10SM FEW060 16/08 A3009 RMK AO2 SLP192 T01560083=
202008130256 METAR KPWT 130256Z AUTO 05004KT 10SM CLR 17/07 RMK AO2 SLPNO T01720072 $=
202008130156 METAR KPWT 130156Z AUTO 10SM SCT055 19/07 RMK AO2 SLPNO T01890072 $=
202008130056 METAR KPWT 130056Z AUTO VRB04KT 10SM FEW055 20/08 A3008 RMK AO2 SLP187 T02000078=
202008122356 METAR KPWT 122356Z AUTO 04006KT 10SM FEW060 19/08 A3008 RMK AO2 SLP189 6//// T01940078 10200 20161 50000=
202008122256 METAR KPWT 122256Z AUTO 04005KT 10SM FEW048 BKN055 BKN070 19/08 A3009 RMK AO2 SLP190 T01940083=
202008122156 METAR KPWT 122156Z AUTO 00000KT 10SM FEW039 SCT055 SCT070 18/08 A3009 RMK AO2 SLP191 T01830083=
202008122056 METAR KPWT 122056Z AUTO 04006KT 10SM SCT042 BKN060 18/09 A3008 RMK AO2 SLP189 6//// T01780089 51008=
202008121956 METAR KPWT 121956Z AUTO VRB04KT 10SM BKN036 BKN060 18/08 A3008 RMK AO2 SLP189 T01780083=
202008121856 METAR KPWT 121856Z AUTO VRB05KT 10SM OVC055 17/08 A3007 RMK AO2 SLP185 T01670083=
202008121756 METAR KPWT 121756Z AUTO VRB04KT 10SM FEW060 17/08 A3006 RMK AO2 SLP182 T01670083 10167 20089 53008=
202008121656 METAR KPWT 121656Z AUTO 00000KT 10SM CLR 15/08 A3005 RMK AO2 SLP177 T01500078=
202008121556 METAR KPWT 121556Z AUTO 00000KT 10SM CLR 14/08 A3004 RMK AO2 SLP176 T01440078=
202008121456 METAR KPWT 121456Z AUTO 00000KT 10SM CLR 12/09 A3004 RMK AO2 SLP174 T01170089 52013=
202008121356 METAR KPWT 121356Z AUTO 00000KT 10SM CLR 09/08 A3003 RMK AO2 SLP170 T00940078 TSNO=
202008121256 METAR KPWT 121256Z AUTO 00000KT 10SM CLR 09/07 A3001 RMK AO2 SLP165 T00940072 TSNO=
202008121156 METAR KPWT 121156Z AUTO 00000KT 10SM SCT049 11/08 A3000 RMK AO2 SLP161 6//// 7//// T01060078 10144 20100 51008 TSNO=
202008121056 METAR KPWT 121056Z AUTO 00000KT 10SM CLR 11/08 A3000 RMK AO2 SLP160 T01060078 TSNO=
202008120956 METAR KPWT 120956Z AUTO 00000KT 10SM FEW027 12/08 A2998 RMK AO2 SLP155 T01170083 TSNO=
202008120856 METAR KPWT 120856Z AUTO 00000KT 10SM CLR 12/08 A2997 RMK AO2 SLP153 6//// T01170083 51012=
202008120756 METAR KPWT 120756Z AUTO 10003KT 10SM CLR 13/09 A2996 RMK AO2 SLP150 T01280094 402440089=
202008120656 METAR KPWT 120656Z AUTO 08004KT 10SM CLR 13/09 A2995 RMK AO2 SLP145 T01280094=
202008120556 METAR KPWT 120556Z AUTO 07005KT 10SM FEW055 14/08 A2994 RMK AO2 SLP140 T01440078 10239 20144=
202008120456 METAR KPWT 120456Z AUTO 15003KT 10SM CLR 15/07 RMK AO2 SLPNO T01500072 $=
202008120356 METAR KPWT 120356Z AUTO 17003KT 10SM CLR 16/07 A2990 RMK AO2 SLP128 T01610072=
202008120256 METAR KPWT 120256Z AUTO 20005KT 10SM CLR 18/08 A2990 RMK AO2 SLP126 T01780083 56001=
202008120156 METAR KPWT 120156Z AUTO 17007KT 10SM CLR 19/08 A2990 RMK AO2 SLP126 T01940083=
202008120056 METAR KPWT 120056Z AUTO 23009G15KT 10SM CLR 22/09 A2989 RMK AO2 SLP125 T02220089=
202008112356 METAR KPWT 112356Z AUTO 23010KT 10SM CLR 23/09 A2990 RMK AO2 SLP127 6//// T02330094 10244 20144 56014=
202008112256 METAR KPWT 112256Z AUTO 19008KT 10SM CLR 24/11 A2991 RMK AO2 SLP130 T02390106=
202008112156 METAR KPWT 112156Z AUTO VRB04KT 10SM CLR 23/11 A2993 RMK AO2 SLP136 T02280111=
202008112056 METAR KPWT 112056Z AUTO 00000KT 10SM CLR 20/12 A2994 RMK AO2 SLP142 6//// T02000122 58010=
202008112020 SPECI KPWT 112020Z AUTO VRB04KT 10SM SCT023 19/12 A2995 RMK AO2=
202008112011 SPECI KPWT 112011Z AUTO 19010G14KT 160V240 10SM BKN023 19/12 A2995 RMK AO2=
202008111956 METAR KPWT 111956Z AUTO 10SM FEW019 18/12 A2996 RMK AO2 SLP148 T01780117 $=
202008111913 SPECI KPWT 111913Z AUTO 25007KT 10SM SCT017 17/12 A2997 RMK AO2=
202008111856 METAR KPWT 111856Z AUTO 22010KT 10SM BKN015 17/12 A2997 RMK AO2 SLP153 T01670117=
202008111853 SPECI KPWT 111853Z AUTO 24009G14KT 10SM BKN015 16/11 A2997 RMK AO2=
202008111808 SPECI KPWT 111808Z AUTO 22007KT 10SM BKN011 14/11 A2997 RMK AO2=
202008111756 METAR KPWT 111756Z AUTO 23008KT 10SM BKN009 14/11 A2997 RMK AO2 SLP152 6//// T01440111 10144 20089 58004=
202008111741 SPECI KPWT 111741Z AUTO 21008KT 10SM BKN009 14/11 A2998 RMK AO2=
202008111656 METAR KPWT 111656Z AUTO 20005KT 10SM SCT003 12/11 A2998 RMK AO2 SLP155 T01220111=
202008111630 SPECI KPWT 111630Z AUTO 23007KT 10SM OVC003 12/11 A2998 RMK AO2=
202008111556 METAR KPWT 111556Z AUTO 20006KT 4SM BR OVC001 11/11 A2999 RMK AO2 SLP157 T01110111=
202008111542 SPECI KPWT 111542Z AUTO 21007KT 1 1/4SM BR OVC001 11/11 A2999 RMK AO2 VIS 3/4V3=
202008111531 SPECI KPWT 111531Z AUTO 19006KT 1SM BR OVC001 11/11 A2998 RMK AO2 VIS 1/2V1 1/2=
202008111513 SPECI KPWT 111513Z AUTO 22005KT 1/2SM FG OVC001 11/11 A2998 RMK AO2=
202008111456 METAR KPWT 111456Z AUTO 21004KT 1/4SM FG OVC001 11/11 A2998 RMK AO2 SLP156 6//// T01060106 51006=
202008111356 METAR KPWT 111356Z AUTO 20003KT 1/4SM FG OVC001 11/11 A2998 RMK AO2 SLP154 T01060106=
202008111354 SPECI KPWT 111354Z AUTO 21004KT M1/4SM FG OVC001 11/11 A2998 RMK AO2=
202008111314 SPECI KPWT 111314Z AUTO 21004KT 1/4SM FG OVC003 11/10 A2997 RMK AO2=
202008111305 SPECI KPWT 111305Z AUTO 20005KT 3/4SM BR OVC003 11/10 A2997 RMK AO2=
202008111303 SPECI KPWT 111303Z AUTO 20004KT 1 1/2SM BR OVC003 11/10 A2997 RMK AO2=
202008111256 METAR KPWT 111256Z AUTO 21003KT 7SM BKN003 10/09 A2997 RMK AO2 SLP151 T01000094=
202008111254 SPECI KPWT 111254Z AUTO 21003KT 7SM BKN003 10/09 A2997 RMK AO2=
202008111246 SPECI KPWT 111246Z AUTO 22003KT 9SM SCT003 09/09 A2997 RMK AO2=
202008111156 METAR KPWT 111156Z AUTO 23003KT 10SM CLR 09/09 A2996 RMK AO2 SLP149 6//// 7//// T00940089 10156 20094 56002=
202008111056 METAR KPWT 111056Z AUTO 00000KT 10SM CLR 11/09 A2997 RMK AO2 SLP149 T01060094=
202008110956 METAR KPWT 110956Z AUTO 00000KT 10SM SCT050 13/11 A2997 RMK AO2 SLP148 T01330106=
202008110856 METAR KPWT 110856Z AUTO 00000KT 10SM OVC050 13/11 A2997 RMK AO2 SLP151 6//// T01330111 58003=
202008110756 METAR KPWT 110756Z AUTO 00000KT 10SM BKN050 13/11 A2998 RMK AO2 SLP152 T01330106 402720089=
202008110656 METAR KPWT 110656Z AUTO 00000KT 10SM CLR 14/11 A2998 RMK AO2 SLP154 T01390111=
202008110556 METAR KPWT 110556Z AUTO 00000KT 10SM CLR 16/11 A2998 RMK AO2 SLP154 6//// T01560111 10261 20150 58001=
202008110456 METAR KPWT 110456Z AUTO 06006KT 10SM CLR 18/12 A2998 RMK AO2 SLP155 T01830117=
202008110356 METAR KPWT 110356Z AUTO 05008KT 10SM CLR 20/12 A2998 RMK AO2 SLP153 T02000117=
202008110256 METAR KPWT 110256Z AUTO 03007KT 10SM CLR 22/12 A2998 RMK AO2 SLP154 T02220117 56008=
202008110156 METAR KPWT 110156Z AUTO 02009KT 10SM CLR 24/14 A2999 RMK AO2 SLP157 T02440139=
202008110056 METAR KPWT 110056Z AUTO 06009KT 10SM CLR 25/14 A3000 RMK AO2 SLP161 T02500144=
202008102356 METAR KPWT 102356Z AUTO 05010KT 10SM CLR 26/14 A3001 RMK AO2 SLP163 T02610144 10272 20217 56016=
202008102256 METAR KPWT 102256Z AUTO 06007KT 10SM CLR 27/14 A3002 RMK AO2 SLP167 T02720144=
202008102156 METAR KPWT 102156Z AUTO 07007KT 10SM SCT050 26/14 A3005 RMK AO2 SLP176 T02610139=
202008102056 METAR KPWT 102056Z AUTO 07009KT 10SM CLR 26/13 A3006 RMK AO2 SLP179 T02560133 58022=
202008101956 METAR KPWT 101956Z AUTO VRB06KT 10SM CLR 24/13 A3008 RMK AO2 SLP187 T02440133=
202008101856 METAR KPWT 101856Z AUTO 00000KT 10SM CLR 23/13 A3011 RMK AO2 SLP195 T02330128=
202008101756 METAR KPWT 101756Z AUTO 07005KT 10SM CLR 21/12 A3012 RMK AO2 SLP202 T02110122 10217 20089 56010=
202008101656 METAR KPWT 101656Z AUTO 08005KT 10SM CLR 21/12 A3013 RMK AO2 SLP205 T02060117=
202008101556 METAR KPWT 101556Z AUTO VRB04KT 10SM CLR 19/11 A3014 RMK AO2 SLP209 T01940111=
202008101456 METAR KPWT 101456Z AUTO 05004KT 10SM CLR 17/11 A3015 RMK AO2 SLP212 T01720106=
202008101356 METAR KPWT 101356Z AUTO 00000KT 10SM CLR 11/09 A3016 RMK AO2 SLP216 T01060089=
202008101256 METAR KPWT 101256Z AUTO 00000KT 10SM CLR 11/09 RMK AO2 SLPNO T01060089 $=
202008101156 METAR KPWT 101156Z AUTO 00000KT 10SM CLR 11/09 A3017 RMK AO2 SLP219 7//// T01110089 10178 20094=
202008101056 METAR KPWT 101056Z AUTO 00000KT 10SM CLR 11/08 A3018 RMK AO2 SLP222 T01110083=
202008100956 METAR KPWT 100956Z AUTO 00000KT 10SM CLR 12/09 A3018 RMK AO2 SLP224 T01220089=
202008100856 METAR KPWT 100856Z AUTO 02003KT 10SM CLR 14/09 RMK AO2 SLPNO T01440089 $=
202008100756 METAR KPWT 100756Z AUTO 06004KT 10SM CLR 17/08 A3021 RMK AO2 SLP233 T01670083 402440072=
202008100656 METAR KPWT 100656Z AUTO 05007KT 10SM CLR 17/08 A3022 RMK AO2 SLP236 T01720083=
202008100556 METAR KPWT 100556Z AUTO 05003KT 10SM CLR 18/07 A3023 RMK AO2 SLP239 6//// T01780072 10244 20172 58002=
202008100456 METAR KPWT 100456Z AUTO 04007KT 10SM CLR 18/06 A3024 RMK AO2 SLP240 T01780061=
202008100356 METAR KPWT 100356Z AUTO 06008KT 10SM CLR 18/07 A3023 RMK AO2 SLP241 T01830072=
202008100256 METAR KPWT 100256Z AUTO 02005KT 10SM CLR 22/07 A3024 RMK AO2 SLP241 T02170072 56005=
202008100156 METAR KPWT 100156Z AUTO 03006KT 10SM CLR 23/09 A3024 RMK AO2 SLP242 T02330089=
202008100056 METAR KPWT 100056Z AUTO 03008KT 10SM CLR 24/10 A3025 RMK AO2 SLP247 T02390100=
202008092356 METAR KPWT 092356Z AUTO 04009G17KT 10SM CLR 24/11 A3025 RMK AO2 SLP248 T02390111 10244 20200 58010=
202008092256 METAR KPWT 092256Z AUTO 03011G16KT 10SM CLR 24/12 A3026 RMK AO2 SLP250 T02440117=
202008092156 METAR KPWT 092156Z AUTO 05010G14KT 10SM CLR 23/11 A3028 RMK AO2 SLP256 T02330111=
202008092056 METAR KPWT 092056Z AUTO 08008KT 10SM CLR 23/11 A3028 RMK AO2 SLP258 T02280111 58007=
202008091956 METAR KPWT 091956Z AUTO VRB06KT 10SM CLR 22/11 A3030 RMK AO2 SLP263 T02170111=
202008091856 METAR KPWT 091856Z AUTO 06008KT 10SM CLR 22/09 A3030 RMK AO2 SLP264 T02170094=
202008091756 METAR KPWT 091756Z AUTO 05007KT 10SM CLR 20/11 A3030 RMK AO2 SLP265 6//// T02000111 10200 20072 51002=
202008091656 METAR KPWT 091656Z AUTO VRB04KT 10SM CLR 18/12 A3030 RMK AO2 SLP263 T01830117=
202008091556 METAR KPWT 091556Z AUTO 00000KT 10SM CLR 16/12 A3031 RMK AO2 SLP267 T01560117=
202008091456 METAR KPWT 091456Z AUTO 04004KT 10SM CLR 14/12 A3029 RMK AO2 SLP262 6//// T01440117 51009=
202008091356 METAR KPWT 091356Z AUTO 00000KT 10SM CLR 09/08 A3029 RMK AO2 SLP260 T00940083=
202008091256 METAR KPWT 091256Z AUTO 00000KT 3SM BR CLR 07/07 A3027 RMK AO2 SLP255 T00720072=
202008091219 SPECI KPWT 091219Z AUTO 00000KT 5SM BR CLR 08/08 A3027 RMK AO2=
202008091209 SPECI KPWT 091209Z AUTO 00000KT 1 1/2SM BR CLR 07/07 A3027 RMK AO2=
202008091156 METAR KPWT 091156Z AUTO 00000KT 10SM CLR 08/08 A3027 RMK AO2 SLP253 7//// T00780078 10122 20072 53006=
202008091108 SPECI KPWT 091108Z AUTO 00000KT 4SM BR CLR 08/07 A3026 RMK AO2=
202008091106 SPECI KPWT 091106Z AUTO 00000KT 1SM BR CLR 08/08 A3026 RMK AO2=
202008091056 METAR KPWT 091056Z AUTO 00000KT 1/2SM FG CLR 08/07 A3026 RMK AO2 SLP250 T00780067=
202008091054 SPECI KPWT 091054Z AUTO 00000KT 1SM BR CLR 08/07 A3026 RMK AO2=
202008091046 SPECI KPWT 091046Z AUTO 00000KT 5SM BR CLR 08/07 A3026 RMK AO2=
202008091039 SPECI KPWT 091039Z AUTO 00000KT 2 1/2SM BR CLR 08/07 A3026 RMK AO2 VIS 3/4V5=
202008091036 SPECI KPWT 091036Z AUTO 00000KT 1SM BR CLR 08/07 A3026 RMK AO2=
202008091033 SPECI KPWT 091033Z AUTO 00000KT 1/2SM FG CLR 08/08 A3026 RMK AO2=
202008091026 SPECI KPWT 091026Z AUTO 00000KT 3/4SM BR CLR 08/07 A3026 RMK AO2=
202008091024 SPECI KPWT 091024Z AUTO 00000KT 1 1/2SM BR CLR 08/07 A3026 RMK AO2=
202008090956 METAR KPWT 090956Z AUTO 00000KT 10SM CLR 08/07 A3025 RMK AO2 SLP248 T00780072=
202008090856 METAR KPWT 090856Z AUTO 00000KT 9SM CLR 09/09 A3025 RMK AO2 SLP247 T00940089 51003=
202008090756 METAR KPWT 090756Z AUTO 00000KT 10SM CLR 09/09 A3025 RMK AO2 SLP247 T00940089 401890094=
202008090656 METAR KPWT 090656Z AUTO 00000KT 10SM CLR 11/10 A3025 RMK AO2 SLP245 T01060100=
202008090556 METAR KPWT 090556Z AUTO 00000KT 10SM CLR 12/11 A3024 RMK AO2 SLP243 6//// T01170111 10189 20111 53007=
202008090456 METAR KPWT 090456Z AUTO 00000KT 10SM FEW055 15/12 A3024 RMK AO2 SLP242 T01500122=
202008090356 METAR KPWT 090356Z AUTO 00000KT 10SM OVC043 17/12 A3022 RMK AO2 SLP238 T01670117=
202008090256 METAR KPWT 090256Z AUTO 02003KT 10SM BKN048 17/12 A3022 RMK AO2 SLP237 6//// T01720117=
202008090156 METAR KPWT 090156Z AUTO 03005KT 10SM BKN055 17/12 A3022 RMK AO2 SLP236 T01720117=
202008090056 METAR KPWT 090056Z AUTO 10SM BKN042 18/13 RMK AO2 SLPNO T01780128 $=
202008082356 METAR KPWT 082356Z AUTO 01008KT 10SM SCT038 BKN047 BKN060 19/13 A3023 RMK AO2 SLP239 6//// T01890133 10189 20156 56002=
202008082256 METAR KPWT 082256Z AUTO 04005KT 10SM FEW030 SCT036 BKN046 18/13 A3023 RMK AO2 SLP240 T01830128=
202008082243 SPECI KPWT 082243Z AUTO 04005KT 10SM BKN030 18/12 A3023 RMK AO2=
202008082156 METAR KPWT 082156Z AUTO VRB03KT 10SM OVC028 17/13 A3023 RMK AO2 RAE21 SLP241 P0001 T01670133=
202008082056 METAR KPWT 082056Z AUTO 05005KT 10SM -RA BKN022 BKN027 16/14 A3023 RMK AO2 RAB37 SLP242 P0000 6//// T01610139 51007=
202008082015 SPECI KPWT 082015Z AUTO VRB03KT 10SM FEW017 BKN025 BKN035 17/13 A3022 RMK AO2=
202008081956 METAR KPWT 081956Z AUTO VRB03KT 10SM FEW018 BKN035 17/13 A3023 RMK AO2 SLP239 T01720133=
202008081856 METAR KPWT 081856Z AUTO 08004KT 10SM BKN018 BKN027 17/13 A3022 RMK AO2 SLP238 T01670128=
202008081756 METAR KPWT 081756Z AUTO 13004KT 10SM SCT012 BKN019 BKN026 17/14 A3021 RMK AO2 SLP234 6//// T01670139 10167 20133 53006=
202008081739 SPECI KPWT 081739Z AUTO 11005KT 10SM BKN010 BKN017 17/14 RMK AO2 $=
202008081708 SPECI KPWT 081708Z AUTO 00000KT 10SM FEW008 BKN017 16/13 A3020 RMK AO2=
202008081656 METAR KPWT 081656Z AUTO 15003KT 10SM BKN008 16/14 A3020 RMK AO2 CIG 006V011 SLP229 T01560139=
202008081640 SPECI KPWT 081640Z AUTO 17003KT 10SM BKN008 BKN016 16/14 A3020 RMK AO2 CIG 006V012=
202008081615 SPECI KPWT 081615Z AUTO 00000KT 10SM FEW005 15/14 A3020 RMK AO2=
202008081556 METAR KPWT 081556Z AUTO 00000KT 10SM CLR 14/13 A3020 RMK AO2 SLP229 T01440133=
202008081511 SPECI KPWT 081511Z AUTO 00000KT 10SM FEW021 BKN032 14/13 A3019 RMK AO2=
202008081456 METAR KPWT 081456Z AUTO 00000KT 4SM BR SCT004 SCT008 BKN021 13/13 A3019 RMK AO2 RAE48 SLP227 P0000 60000 T01330133 51010=
202008081433 SPECI KPWT 081433Z AUTO 02003KT 2 1/2SM BR BKN004 OVC013 13/13 A3019 RMK AO2 RAE23 CIG 002V007 P0000=
202008081405 SPECI KPWT 081405Z AUTO 04003KT 2 1/2SM -RA BR SCT004 OVC011 13/13 A3018 RMK AO2 P0000=
202008081356 METAR KPWT 081356Z AUTO 05003KT 3SM -RA BR FEW004 OVC011 13/13 A3018 RMK AO2 RAB41 SLP224 P0000 T01330128=
202008081346 SPECI KPWT 081346Z AUTO 05003KT 2 1/2SM -RA BR FEW004 OVC011 13/13 A3018 RMK AO2 VIS 1 1/2V5 RAB41 P0000=
202008081256 METAR KPWT 081256Z AUTO 05003KT 3SM BR FEW004 OVC011 13/13 A3016 RMK AO2 SLP217 T01330128=
202008081241 SPECI KPWT 081241Z AUTO 05004KT 5SM BR SCT008 OVC013 13/13 A3016 RMK AO2=
202008081229 SPECI KPWT 081229Z AUTO 06004KT 7SM OVC013 13/13 A3016 RMK AO2=
202008081203 SPECI KPWT 081203Z AUTO 06003KT 10SM BKN015 14/13 A3016 RMK AO2=
202008081156 METAR KPWT 081156Z AUTO 07003KT 10SM SCT015 14/12 A3016 RMK AO2 SLP215 6//// 7//// T01390122 10144 20139 51006=
202008081123 SPECI KPWT 081123Z AUTO 05005KT 10SM SCT017 14/12 A3015 RMK AO2=
202008081056 METAR KPWT 081056Z AUTO 06004KT 10SM BKN017 14/12 A3015 RMK AO2 SLP213 T01390122=
202008080956 METAR KPWT 080956Z AUTO 04005KT 10SM FEW019 14/12 A3015 RMK AO2 SLP212 T01390122=
202008080856 METAR KPWT 080856Z AUTO 00000KT 10SM FEW060 14/12 A3014 RMK AO2 SLP209 6//// T01440122 50000=
202008080756 METAR KPWT 080756Z AUTO 03003KT 10SM CLR 14/13 A3014 RMK AO2 SLP210 T01440128 402280072=
202008080656 METAR KPWT 080656Z AUTO 05004KT 10SM CLR 14/13 A3014 RMK AO2 SLP210 T01440128=
202008080556 METAR KPWT 080556Z AUTO 05006KT 10SM CLR 14/13 A3014 RMK AO2 SLP210 60002 T01440128 10222 20144 58001=
202008080456 METAR KPWT 080456Z AUTO 04004KT 10SM CLR 14/13 A3015 RMK AO2 RAE43 SLP212 P0001 T01440128=
202008080356 METAR KPWT 080356Z AUTO 06004KT 10SM -RA CLR 15/13 A3014 RMK AO2 SLP211 P0001 T01500128=
202008080256 METAR KPWT 080256Z AUTO 04006KT 10SM -RA CLR 16/13 A3014 RMK AO2 SLP210 P0000 60000 T01610133 55001=
202008080156 METAR KPWT 080156Z AUTO 06005KT 10SM -RA CLR 18/13 A3014 RMK AO2 RAB23 SLP208 P0000 T01830133=
202008080056 METAR KPWT 080056Z AUTO 20004KT 10SM FEW060 22/10 A3014 RMK AO2 SLP209 T02170100=
202008072356 METAR KPWT 072356Z AUTO 22005KT 10SM BKN060 22/11 A3015 RMK AO2 SLP212 T02170106 10228 20167 58011=
202008072256 METAR KPWT 072256Z AUTO 29006KT 10SM FEW049 BKN065 22/11 A3016 RMK AO2 SLP216 T02170106=
202008072156 METAR KPWT 072156Z AUTO VRB05KT 10SM BKN055 22/11 A3017 RMK AO2 SLP220 T02220106=
202008072056 METAR KPWT 072056Z AUTO VRB04KT 10SM CLR 21/09 A3018 RMK AO2 SLP222 T02110089 58009=
202008071956 METAR KPWT 071956Z AUTO 26005KT 10SM FEW030 19/12 A3019 RMK AO2 SLP225 T01890117=
202008071937 SPECI KPWT 071937Z AUTO 00000KT 10SM BKN030 19/11 A3019 RMK AO2=
202008071856 METAR KPWT 071856Z AUTO VRB04KT 10SM BKN023 19/12 A3020 RMK AO2 SLP229 T01890117=
202008071840 SPECI KPWT 071840Z AUTO 00000KT 10SM BKN021 18/12 A3020 RMK AO2=
202008071805 SPECI KPWT 071805Z AUTO VRB03KT 6SM HZ SCT015 17/12 A3021 RMK AO2=
202008071756 METAR KPWT 071756Z AUTO 10SM BKN013 17/12 A3020 RMK AO2 SLP231 6//// T01670117 10167 20094 51004=
202008071710 SPECI KPWT 071710Z AUTO 12005KT 10SM BKN011 14/12 A3020 RMK AO2=
202008071656 METAR KPWT 071656Z AUTO 12005KT 10SM BKN009 14/12 A3020 RMK AO2 CIG 007V012 SLP230 T01440117=
202008071651 SPECI KPWT 071651Z AUTO 13003KT 10SM SCT009 14/12 A3020 RMK AO2=
202008071622 SPECI KPWT 071622Z AUTO 24003KT 10SM BKN009 13/12 A3020 RMK AO2=
202008071556 METAR KPWT 071556Z AUTO 00000KT 10SM FEW009 13/11 A3019 RMK AO2 SLP227 T01330111=
202008071456 METAR KPWT 071456Z AUTO 06004KT 10SM SCT002 12/12 A3018 RMK AO2 SLP222 6//// T01220117 51009=
202008071427 SPECI KPWT 071427Z AUTO 00000KT 3SM BR OVC002 12/11 A3018 RMK AO2=
202008071418 SPECI KPWT 071418Z AUTO 00000KT 1 1/4SM BR OVC002 11/11 A3018 RMK AO2=
202008071415 SPECI KPWT 071415Z AUTO 00000KT 3/4SM BR OVC002 11/11 RMK AO2 $=
202008071356 METAR KPWT 071356Z AUTO 00000KT 1/4SM FG OVC002 11/11 A3017 RMK AO2 SLP220 T01110111=
202008071307 SPECI KPWT 071307Z AUTO 14004KT 1/4SM FG OVC002 11/11 A3016 RMK AO2=
202008071256 METAR KPWT 071256Z AUTO 00000KT 1/2SM FG BKN002 OVC006 11/11 A3016 RMK AO2 CIG 001V005 SLP215 T01110111=
202008071252 SPECI KPWT 071252Z AUTO 00000KT 1SM BR OVC002 11/11 A3016 RMK AO2 VIS 1/4V3 CIG 001V006=
202008071246 SPECI KPWT 071246Z AUTO 00000KT 2 1/2SM BR OVC002 11/11 A3016 RMK AO2=
202008071234 SPECI KPWT 071234Z AUTO 00000KT 10SM BKN004 11/11 A3015 RMK AO2=
202008071156 METAR KPWT 071156Z AUTO 00000KT 10SM SCT008 10/09 A3015 RMK AO2 SLP214 7//// T01000094 10117 20072 51009=
202008071125 SPECI KPWT 071125Z AUTO 12003KT 10SM BKN008 10/09 A3015 RMK AO2=
202008071109 SPECI KPWT 071109Z AUTO 12003KT 10SM FEW008 08/07 A3015 RMK AO2=
202008071056 METAR KPWT 071056Z AUTO 00000KT 10SM CLR 08/08 A3015 RMK AO2 SLP212 T00830078=
202008070956 METAR KPWT 070956Z AUTO 00000KT 10SM CLR 09/09 A3014 RMK AO2 SLP209 T00940089=
202008070856 METAR KPWT 070856Z AUTO 00000KT 10SM CLR 08/08 A3012 RMK AO2 SLP205 T00830078 51011=
202008070756 METAR KPWT 070756Z AUTO 00000KT 8SM CLR 09/08 A3012 RMK AO2 SLP202 T00890083 401890083=
202008070656 METAR KPWT 070656Z AUTO 00000KT 10SM CLR 08/07 A3010 RMK AO2 SLP198 T00830072=
202008070556 METAR KPWT 070556Z AUTO 00000KT 10SM CLR 11/09 A3009 RMK AO2 SLP194 6//// T01060094 10172 20100 51013=
202008070456 METAR KPWT 070456Z AUTO 06003KT 10SM CLR 12/11 A3009 RMK AO2 SLP190 T01220111=
202008070356 METAR KPWT 070356Z AUTO 08004KT 10SM CLR 13/11 A3007 RMK AO2 SLP185 T01330111=
202008070256 METAR KPWT 070256Z AUTO 09004KT 10SM CLR 16/11 A3005 RMK AO2 SLP180 6//// T01560106 51006=
202008070156 METAR KPWT 070156Z AUTO 07005KT 10SM CLR 17/11 A3005 RMK AO2 SLP178 T01720111=
202008070056 METAR KPWT 070056Z AUTO 05010KT 10SM FEW030 SCT037 16/11 A3004 RMK AO2 SLP177 T01610111=
202008062356 METAR KPWT 062356Z AUTO 05009KT 10SM CLR 16/11 A3004 RMK AO2 SLP175 6//// T01610111 10189 20128=
202008062256 METAR KPWT 062256Z AUTO 05008KT 10SM FEW034 SCT070 16/12 A3002 RMK AO2 SLP170 T01560122=
202008062156 METAR KPWT 062156Z AUTO 06008KT 10SM FEW075 17/11 A3000 RMK AO2 SLP160 T01670111=
202008062056 METAR KPWT 062056Z AUTO 10SM FEW018 18/12 RMK AO2 SLPNO 6//// T01780117 $=
202008061956 METAR KPWT 061956Z AUTO 04010KT 10SM BKN055 17/13 A2995 RMK AO2 SLP144 T01720128=
202008061856 METAR KPWT 061856Z AUTO 06010KT 10SM FEW028 SCT036 BKN050 16/12 A2994 RMK AO2 SLP142 T01560122=
202008061844 SPECI KPWT 061844Z AUTO 05012KT 10SM FEW026 BKN035 15/12 A2994 RMK AO2=
202008061756 METAR KPWT 061756Z AUTO 04011KT 10SM BKN016 13/12 A2992 RMK AO2 WSHFT 1737 SLP136 60003 T01280117 10156 20128 53024=
202008061753 SPECI KPWT 061753Z AUTO 05012KT 10SM BKN016 13/12 A2992 RMK AO2 WSHFT 1737=
202008061710 SPECI KPWT 061710Z AUTO 20006KT 10SM OVC010 15/13 A2990 RMK AO2=
202008061656 METAR KPWT 061656Z AUTO 22003KT 10SM OVC008 15/13 A2990 RMK AO2 RAB24E34 CIG 007V012 SLP127 P0000 T01500133=
202008061556 METAR KPWT 061556Z AUTO 21007KT 10SM BKN008 14/14 A2987 RMK AO2 CIG 006V012 SLP119 T01440139=
202008061532 SPECI KPWT 061532Z AUTO 21009KT 10SM BKN006 15/14 A2986 RMK AO2 CIG 005V010=
202008061456 METAR KPWT 061456Z AUTO 19006KT 10SM SCT006 14/14 A2985 RMK AO2 RAE51 SLP111 P0002 60003 T01440139 53003=
202008061439 SPECI KPWT 061439Z AUTO 20007KT 10SM -RA SCT006 14/14 A2985 RMK AO2 P0002=
202008061356 METAR KPWT 061356Z AUTO 19009KT 8SM -RA BKN006 14/14 A2984 RMK AO2 RAB43 SLP107 P0001 T01440139=
202008061256 METAR KPWT 061256Z AUTO 19007KT 7SM OVC006 15/14 A2984 RMK AO2 RAE10 CIG 005V009 SLP105 P0000 T01500144=
202008061156 METAR KPWT 061156Z AUTO 20009KT 8SM -RA OVC006 15/14 A2984 RMK AO2 RAB49 SLP107 P0000 6//// 7//// T01500144 10161 20150 56007=
202008061107 SPECI KPWT 061107Z AUTO 20009KT 10SM OVC008 16/14 A2985 RMK AO2=
202008061056 METAR KPWT 061056Z AUTO 20007KT 10SM OVC010 16/14 A2985 RMK AO2 SLP109 T01610144=
202008060956 METAR KPWT 060956Z AUTO 19008KT 10SM OVC010 16/14 A2986 RMK AO2 SLP111 T01610139=
202008060856 METAR KPWT 060856Z AUTO 22007KT 10SM OVC010 16/14 A2986 RMK AO2 SLP113 6//// T01610139 58003=
202008060756 METAR KPWT 060756Z AUTO 22009KT 10SM OVC010 16/14 A2987 RMK AO2 SLP114 T01610139 402780106=
202008060656 METAR KPWT 060656Z AUTO 20007KT 10SM OVC010 16/14 A2988 RMK AO2 SLP118 T01610139=
202008060621 SPECI KPWT 060621Z AUTO 18004KT 10SM BKN012 16/13 A2987 RMK AO2=
202008060556 METAR KPWT 060556Z AUTO 17003KT 10SM CLR 15/13 A2987 RMK AO2 SLP116 6//// T01500133 10272 20150 50005=
202008060456 METAR KPWT 060456Z AUTO 19004KT 10SM CLR 16/13 A2988 RMK AO2 SLP120 T01610133=
202008060356 METAR KPWT 060356Z AUTO 20008KT 10SM CLR 17/13 A2988 RMK AO2 SLP120 T01720133=
202008060256 METAR KPWT 060256Z AUTO 23009KT 10SM CLR 21/14 A2986 RMK AO2 SLP112 6//// T02110139 55003=
202008060156 METAR KPWT 060156Z AUTO 24009KT 10SM CLR 24/13 A2984 RMK AO2 SLP106 T02440133=
202008060056 METAR KPWT 060056Z AUTO 24008G15KT 10SM CLR 26/13 A2985 RMK AO2 SLP109 T02610128=
202008052356 METAR KPWT 052356Z AUTO 22008G14KT 10SM CLR 27/13 A2987 RMK AO2 SLP114 6//// T02720128 10278 20211 58019=
202008052256 METAR KPWT 052256Z AUTO 23009KT 10SM CLR 27/14 A2989 RMK AO2 SLP121 T02670139=
202008052156 METAR KPWT 052156Z AUTO 19005KT 10SM CLR 26/14 A2991 RMK AO2 SLP128 T02560139=
202008052056 METAR KPWT 052056Z AUTO VRB05KT 10SM CLR 24/14 A2992 RMK AO2 SLP134 T02440144 58016=
202008051956 METAR KPWT 051956Z AUTO 21009KT 10SM CLR 24/14 A2994 RMK AO2 SLP140 T02440144=
202008051856 METAR KPWT 051856Z AUTO 22007KT 10SM CLR 23/14 A2996 RMK AO2 SLP146 T02280144=
202008051756 METAR KPWT 051756Z AUTO VRB05KT 10SM CLR 21/14 A2997 RMK AO2 SLP150 6//// T02110139 10211 20106 58003=
202008051656 METAR KPWT 051656Z AUTO 27004KT 10SM CLR 18/15 A2998 RMK AO2 SLP153 T01830150=
202008051637 SPECI KPWT 051637Z AUTO VRB03KT 10SM SCT003 17/14 A2998 RMK AO2=
202008051624 SPECI KPWT 051624Z AUTO 21004KT 10SM BKN003 16/15 A2999 RMK AO2=
202008051556 METAR KPWT 051556Z AUTO 23005KT 4SM BR OVC001 16/14 A2999 RMK AO2 SLP156 T01560144=
202008051551 SPECI KPWT 051551Z AUTO 23005KT 3SM BR OVC001 16/14 A2999 RMK AO2=
202008051535 SPECI KPWT 051535Z AUTO 20004KT 1 1/4SM BR OVC001 15/14 A2999 RMK AO2 VIS 3/4V4=
202008051531 SPECI KPWT 051531Z AUTO 19003KT 3/4SM BR OVC001 14/14 A2998 RMK AO2 VIS 1/2V2=
202008051516 SPECI KPWT 051516Z AUTO 21004KT 1/2SM FG OVC001 14/14 A2998 RMK AO2=
202008051456 METAR KPWT 051456Z AUTO 23005KT 1/4SM FG OVC001 14/14 A2998 RMK AO2 SLP154 6//// T01440139 51002=
202008051454 SPECI KPWT 051454Z AUTO 23004KT 1/4SM FG OVC001 14/14 A2998 RMK AO2=
202008051444 SPECI KPWT 051444Z AUTO 22004KT 1/2SM FG OVC001 14/14 A2998 RMK AO2=
202008051429 SPECI KPWT 051429Z AUTO 20004KT 1/4SM FG BKN001 14/14 RMK AO2 $=
202008051421 SPECI KPWT 051421Z AUTO 21004KT 1/2SM FG VV001 14/14 A2998 RMK AO2 VIS M1/4V5=
202008051419 SPECI KPWT 051419Z AUTO 20004KT 1 3/4SM BR FEW001 14/14 A2998 RMK AO2 VIS 1/4V5=
202008051356 METAR KPWT 051356Z AUTO 20004KT 9SM CLR 12/12 A2998 RMK AO2 SLP153 T01220122=
202008051354 SPECI KPWT 051354Z AUTO 20004KT 8SM CLR 12/12 A2998 RMK AO2=
202008051343 SPECI KPWT 051343Z AUTO 00000KT 1 1/2SM BR CLR 12/11 A2998 RMK AO2 VIS 1/2V5=
202008051332 SPECI KPWT 051332Z AUTO 00000KT 3SM BR CLR 11/10 A2998 RMK AO2=
202008051330 SPECI KPWT 051330Z AUTO 00000KT 1 3/4SM BR CLR 11/11 A2998 RMK AO2 VIS 1/2V5=
202008051328 SPECI KPWT 051328Z AUTO 00000KT 3/4SM BR CLR 11/11 A2998 RMK AO2 VIS M1/4V5=
202008051321 SPECI KPWT 051321Z AUTO 00000KT 1/4SM FG CLR 11/11 A2998 RMK AO2=
202008051306 SPECI KPWT 051306Z AUTO 00000KT 10SM CLR 11/10 A2997 RMK AO2=
202008051258 SPECI KPWT 051258Z AUTO 00000KT 2SM BR CLR 11/10 A2997 RMK AO2=
202008051256 METAR KPWT 051256Z AUTO 00000KT 3/4SM BR CLR 11/10 A2997 RMK AO2 SLP152 T01110100=
202008051250 SPECI KPWT 051250Z AUTO 00000KT 1/4SM FG CLR 11/11 A2997 RMK AO2=
202008051246 SPECI KPWT 051246Z AUTO 00000KT 3/4SM BR CLR 11/11 A2997 RMK AO2=
202008051156 METAR KPWT 051156Z AUTO 00000KT 10SM CLR 12/11 A2998 RMK AO2 SLP151 6//// 7//// T01220111 10161 20106 50002=
202008051056 METAR KPWT 051056Z AUTO 00000KT 10SM CLR 12/11 A2998 RMK AO2 SLP152 T01220111=
202008050956 METAR KPWT 050956Z AUTO 00000KT 10SM CLR 13/12 A2998 RMK AO2 SLP152 T01280117=
202008050856 METAR KPWT 050856Z AUTO 00000KT 10SM CLR 13/11 A2997 RMK AO2 SLP149 6//// T01330111 56004=
202008050756 METAR KPWT 050756Z AUTO 00000KT 10SM CLR 14/12 A2997 RMK AO2 SLP151 T01390122 402830111=
202008050656 METAR KPWT 050656Z AUTO 00000KT 10SM CLR 14/12 A2997 RMK AO2 SLP152 T01440117=
202008050556 METAR KPWT 050556Z AUTO 00000KT 10SM CLR 16/12 A2998 RMK AO2 SLP154 T01560122 10278 20150 50002=
202008050456 METAR KPWT 050456Z AUTO 00000KT 10SM CLR 18/12 A2998 RMK AO2 SLP154 T01830122=
202008050356 METAR KPWT 050356Z AUTO 00000KT 10SM CLR 22/12 A2998 RMK AO2 SLP154 T02170122=
202008050256 METAR KPWT 050256Z AUTO 06007KT 10SM CLR 24/13 A2998 RMK AO2 SLP151 T02390128 56015=
202008050156 METAR KPWT 050156Z AUTO 06011KT 10SM CLR 26/13 A2999 RMK AO2 SLP156 T02610133=
202008050056 METAR KPWT 050056Z AUTO 06008KT 10SM CLR 27/14 A3000 RMK AO2 SLP160 T02720139=
202008042356 METAR KPWT 042356Z AUTO 06008KT 10SM CLR 28/14 A3002 RMK AO2 SLP167 T02780144 10283 20222 58018=
202008042256 METAR KPWT 042256Z AUTO 05006KT 10SM CLR 27/16 A3004 RMK AO2 SLP173 T02720156=
202008042156 METAR KPWT 042156Z AUTO 07006KT 10SM CLR 27/16 A3006 RMK AO2 SLP180 T02670156=
202008042056 METAR KPWT 042056Z AUTO 05005KT 10SM CLR 26/16 A3007 RMK AO2 SLP185 T02610161 58013=
202008041956 METAR KPWT 041956Z AUTO 04006KT 10SM CLR 25/16 A3009 RMK AO2 SLP190 T02500161=
202008041856 METAR KPWT 041856Z AUTO VRB03KT 10SM CLR 24/16 A3010 RMK AO2 SLP193 T02390156=
202008041756 METAR KPWT 041756Z AUTO VRB06KT 10SM CLR 22/16 A3011 RMK AO2 SLP197 6//// T02220156 10228 20111 58005=
202008041656 METAR KPWT 041656Z AUTO 07007KT 10SM CLR 21/15 A3012 RMK AO2 SLP199 T02110150=
202008041556 METAR KPWT 041556Z AUTO 00000KT 10SM CLR 20/15 A3013 RMK AO2 SLP203 T02000150=
202008041456 METAR KPWT 041456Z AUTO 00000KT 10SM CLR 17/15 A3013 RMK AO2 SLP202 T01720150 53003=
202008041403 SPECI KPWT 041403Z AUTO 00000KT 10SM CLR 14/13 A3012 RMK AO2=
202008041356 METAR KPWT 041356Z AUTO 00000KT 1 1/4SM BR CLR 13/12 A3012 RMK AO2 SLP202 T01280122=
202008041346 SPECI KPWT 041346Z AUTO 00000KT 1/4SM FG CLR 12/11 A3012 RMK AO2=
202008041343 SPECI KPWT 041343Z AUTO 00000KT 3/4SM BR CLR 12/11 A3012 RMK AO2=
202008041256 METAR KPWT 041256Z AUTO 00000KT 8SM CLR 12/12 A3012 RMK AO2 SLP201 T01220117=
202008041156 METAR KPWT 041156Z AUTO 00000KT 10SM CLR 11/11 A3012 RMK AO2 SLP201 7//// T01110106 10183 20111 56002=
202008041056 METAR KPWT 041056Z AUTO 00000KT 3SM BR CLR 11/11 A3012 RMK AO2 SLP202 T01110106=
202008040956 METAR KPWT 040956Z AUTO 00000KT 10SM CLR 12/12 A3012 RMK AO2 SLP201 T01220117=
202008040856 METAR KPWT 040856Z AUTO 00000KT 10SM CLR 13/12 A3012 RMK AO2 SLP203 T01280122 58004=
202008040756 METAR KPWT 040756Z AUTO 00000KT 10SM CLR 14/13 A3013 RMK AO2 SLP205 T01440133 402560111=
202008040656 METAR KPWT 040656Z AUTO 06004KT 10SM CLR 17/14 A3013 RMK AO2 SLP204 T01720144=
202008040556 METAR KPWT 040556Z AUTO 07004KT 10SM CLR 18/14 A3014 RMK AO2 SLP206 6//// T01830144 10256 20183 50002=
202008040456 METAR KPWT 040456Z AUTO 05007KT 10SM CLR 19/14 A3014 RMK AO2 SLP207 T01940139=
202008040356 METAR KPWT 040356Z AUTO 04006KT 10SM CLR 21/14 A3013 RMK AO2 SLP205 T02060144=
202008040256 METAR KPWT 040256Z AUTO 02007KT 10SM CLR 23/15 A3013 RMK AO2 SLP205 6//// T02330150 56010=
202008040156 METAR KPWT 040156Z AUTO 03006KT 10SM CLR 24/14 A3014 RMK AO2 SLP208 T02440144=
202008040056 METAR KPWT 040056Z AUTO 06006KT 10SM CLR 25/15 A3015 RMK AO2 SLP211 T02500150=
202008032356 METAR KPWT 032356Z AUTO 05007KT 10SM SCT048 24/16 A3016 RMK AO2 SLP216 6//// T02390156 10256 20211 57004=
202008032256 METAR KPWT 032256Z AUTO 08006KT 10SM FEW049 24/16 A3016 RMK AO2 RAB37E53 SLP216 P0000 T02390161=
202008032156 METAR KPWT 032156Z AUTO 06003KT 10SM CLR 24/15 A3017 RMK AO2 SLP218 T02440150=
202008032056 METAR KPWT 032056Z AUTO 00000KT 10SM BKN037 BKN045 BKN060 23/15 A3017 RMK AO2 SLP219 6//// T02330150 56003=
202008031956 METAR KPWT 031956Z AUTO 17005KT 10SM FEW031 BKN043 24/15 A3018 RMK AO2 SLP219 T02390150=
202008031856 METAR KPWT 031856Z AUTO VRB04KT 10SM SCT033 23/14 A3018 RMK AO2 SLP220 T02280144=
202008031756 METAR KPWT 031756Z AUTO 00000KT 10SM CLR 21/15 A3018 RMK AO2 SLP221 T02110150 10211 20111 50002=
202008031656 METAR KPWT 031656Z AUTO 16003KT 10SM FEW006 17/15 A3019 RMK AO2 SLP224 T01720150=
202008031556 METAR KPWT 031556Z AUTO 18003KT 10SM FEW004 16/14 A3019 RMK AO2 SLP225 T01560144=
202008031456 METAR KPWT 031456Z AUTO 00000KT 10SM SCT002 14/14 A3018 RMK AO2 SLP221 T01440139 53009=
202008031448 SPECI KPWT 031448Z AUTO 00000KT 10SM SCT002 14/14 A3018 RMK AO2=
202008031440 SPECI KPWT 031440Z AUTO 00000KT 8SM BKN002 14/14 A3018 RMK AO2=
202008031407 SPECI KPWT 031407Z AUTO 18003KT 10SM SCT002 13/13 A3017 RMK AO2=
202008031356 METAR KPWT 031356Z AUTO 00000KT 3SM BR BKN002 13/13 A3016 RMK AO2 SLP216 T01330133=
202008031353 SPECI KPWT 031353Z AUTO 00000KT 1 1/2SM BR BKN002 13/13 A3016 RMK AO2 VIS 1/2V5=
202008031351 SPECI KPWT 031351Z AUTO 00000KT 3/4SM BR BKN002 13/13 A3016 RMK AO2 VIS 1/4V2=
202008031322 SPECI KPWT 031322Z AUTO 00000KT 1/4SM FG BKN002 13/13 A3016 RMK AO2=
202008031317 SPECI KPWT 031317Z AUTO 00000KT 3/4SM BR VV002 13/12 A3016 RMK AO2=
202008031315 SPECI KPWT 031315Z AUTO 00000KT 2SM BR FEW001 12/12 A3016 RMK AO2=
202008031256 METAR KPWT 031256Z AUTO 00000KT 10SM CLR 11/11 A3016 RMK AO2 SLP214 T01110106=
202008031156 METAR KPWT 031156Z AUTO 00000KT 10SM CLR 12/11 A3015 RMK AO2 SLP211 6//// 7//// T01170111 10183 20111 53010=
202008031056 METAR KPWT 031056Z AUTO 00000KT 10SM CLR 12/12 A3014 RMK AO2 SLP207 T01220122=
202008030956 METAR KPWT 030956Z AUTO 00000KT 10SM CLR 13/12 A3013 RMK AO2 SLP204 T01280117=
202008030856 METAR KPWT 030856Z AUTO 00000KT 10SM CLR 14/12 A3012 RMK AO2 SLP201 6//// T01390122 53006=
202008030756 METAR KPWT 030756Z AUTO 00000KT 10SM CLR 16/13 A3011 RMK AO2 SLP197 T01560128 402670094=
202008030656 METAR KPWT 030656Z AUTO 11004KT 10SM CLR 17/13 A3010 RMK AO2 SLP196 T01720128=
202008030556 METAR KPWT 030556Z AUTO 08003KT 10SM CLR 18/13 A3010 RMK AO2 SLP196 6//// T01830128 10267 20178 51008=
202008030456 METAR KPWT 030456Z AUTO 00000KT 10SM CLR 19/13 A3010 RMK AO2 SLP195 T01890128=
202008030356 METAR KPWT 030356Z AUTO 20003KT 10SM CLR 20/12 A3009 RMK AO2 SLP190 T02000122=
202008030256 METAR KPWT 030256Z AUTO 22009KT 10SM CLR 22/12 A3008 RMK AO2 SLP188 T02220117 53002=
202008030156 METAR KPWT 030156Z AUTO 21011KT 10SM CLR 24/12 A3007 RMK AO2 SLP184 T02440122=
202008030114 SPECI KPWT 030114Z AUTO 23010KT 10SM FEW002 26/12 A3006 RMK AO2=
202008030056 METAR KPWT 030056Z AUTO 24010KT 10SM CLR 26/12 A3006 RMK AO2 SLP182 T02610122=
202008022356 METAR KPWT 022356Z AUTO 26009KT 10SM CLR 26/12 A3007 RMK AO2 SLP184 6//// T02610117 10267 20161 56003=
202008022256 METAR KPWT 022256Z AUTO 24009KT 10SM CLR 26/11 A3007 RMK AO2 SLP184 T02560111=
202008022156 METAR KPWT 022156Z AUTO 18010G15KT 10SM CLR 26/13 A3008 RMK AO2 SLP186 T02560128=
202008022056 METAR KPWT 022056Z AUTO VRB06KT 10SM CLR 24/13 A3008 RMK AO2 SLP188 6//// T02440128 56005=
202008021956 METAR KPWT 021956Z AUTO VRB05KT 10SM CLR 23/14 A3008 RMK AO2 SLP188 T02280139=
202008021856 METAR KPWT 021856Z AUTO 21008KT 10SM SCT015 21/14 A3009 RMK AO2 SLP192 T02060144=
202008021833 SPECI KPWT 021833Z AUTO VRB04KT 10SM OVC011 18/15 A3009 RMK AO2=
202008021813 SPECI KPWT 021813Z AUTO 24005KT 10SM BKN007 17/14 A3009 RMK AO2 CIG 004V010=
202008021805 SPECI KPWT 021805Z AUTO VRB03KT 10SM BKN005 16/14 A3009 RMK AO2 CIG 004V008=
202008021756 METAR KPWT 021756Z AUTO 20006KT 10SM BKN003 16/14 A3010 RMK AO2 CIG 003V006 SLP195 6//// T01610144 10161 20094 51003=
202008021656 METAR KPWT 021656Z AUTO 22007KT 10SM BKN003 15/14 A3010 RMK AO2 SLP195 T01500139=
202008021646 SPECI KPWT 021646Z AUTO 21006KT 10SM OVC003 15/14 A3010 RMK AO2=
202008021620 SPECI KPWT 021620Z AUTO 19005KT 3SM BR OVC001 14/14 A3009 RMK AO2=
202008021616 SPECI KPWT 021616Z AUTO 18004KT 1 1/2SM BR OVC001 14/14 A3009 RMK AO2 VIS 1V5=
202008021605 SPECI KPWT 021605Z AUTO VRB03KT 1SM BR OVC001 14/13 A3009 RMK AO2 VIS 3/4V1 3/4=
202008021556 METAR KPWT 021556Z AUTO 23004KT 1 1/4SM BR OVC001 14/13 A3010 RMK AO2 SLP194 T01390133=
202008021544 SPECI KPWT 021544Z AUTO 19004KT 1 3/4SM BR OVC001 13/13 A3010 RMK AO2 VIS 3/4V4=
202008021541 SPECI KPWT 021541Z AUTO 18005KT 3SM BR OVC001 13/13 A3010 RMK AO2=
202008021536 SPECI KPWT 021536Z AUTO 20005KT 1 1/4SM BR OVC001 13/13 A3010 RMK AO2 VIS 1/2V5=
202008021526 SPECI KPWT 021526Z AUTO 19003KT 3/4SM BR OVC001 13/13 A3010 RMK AO2=
202008021516 SPECI KPWT 021516Z AUTO 19005KT 1/2SM FG OVC001 13/13 A3009 RMK AO2=
202008021456 METAR KPWT 021456Z AUTO 18004KT 1/4SM FG OVC001 13/13 A3009 RMK AO2 SLP191 6//// T01280128 53000=
202008021428 SPECI KPWT 021428Z AUTO 22004KT 1/4SM FG OVC001 13/13 A3008 RMK AO2=
202008021415 SPECI KPWT 021415Z AUTO 21004KT 1/2SM FG OVC001 13/13 A3008 RMK AO2=
202008021356 METAR KPWT 021356Z AUTO 24003KT 1/4SM FG OVC001 13/13 A3008 RMK AO2 SLP189 T01280128=
202008021345 SPECI KPWT 021345Z AUTO 00000KT 1/4SM FG OVC001 13/13 A3008 RMK AO2=
202008021334 SPECI KPWT 021334Z AUTO 00000KT 1/2SM FG OVC001 13/12 A3008 RMK AO2=
202008021331 SPECI KPWT 021331Z AUTO 00000KT 1SM BR OVC001 12/12 A3008 RMK AO2=
202008021324 SPECI KPWT 021324Z AUTO 00000KT 2SM BR OVC001 12/12 A3008 RMK AO2=
202008021322 SPECI KPWT 021322Z AUTO 00000KT 1SM BR OVC001 12/12 A3008 RMK AO2=
202008021256 METAR KPWT 021256Z AUTO 00000KT 1/4SM FG BKN001 11/10 A3009 RMK AO2 SLP191 T01060100=
202008021254 SPECI KPWT 021254Z AUTO 00000KT 1/2SM FG BKN001 11/10 A3009 RMK AO2=
202008021252 SPECI KPWT 021252Z AUTO 00000KT 1SM BR BKN001 11/10 A3009 RMK AO2=
202008021249 SPECI KPWT 021249Z AUTO 00000KT 2 1/2SM BR BKN001 11/10 A3009 RMK AO2=
202008021243 SPECI KPWT 021243Z AUTO 00000KT 10SM SCT001 11/10 A3009 RMK AO2=
202008021156 METAR KPWT 021156Z AUTO 00000KT 8SM CLR 11/10 A3009 RMK AO2 SLP191 6//// 7//// T01060100 10156 20100=
202008021056 METAR KPWT 021056Z AUTO 00000KT 5SM BR CLR 11/11 A3009 RMK AO2 SLP192 T01060106=
202008021027 SPECI KPWT 021027Z AUTO 00000KT 3SM BR CLR 11/11 A3009 RMK AO2=
202008021025 SPECI KPWT 021025Z AUTO 00000KT 1 3/4SM BR CLR 11/11 A3009 RMK AO2=
202008021016 SPECI KPWT 021016Z AUTO 00000KT 3/4SM BR CLR 11/10 A3009 RMK AO2 VIS 1/4V5=
202008021014 SPECI KPWT 021014Z AUTO 21003KT 1 1/4SM BR CLR 11/10 A3009 RMK AO2 VIS 1/4V5=
202008020956 METAR KPWT 020956Z AUTO 00000KT 10SM CLR 12/11 A3008 RMK AO2 SLP190 T01170106=
202008020656 METAR KPWT 020656Z AUTO 00000KT 10SM CLR 13/12 A3008 RMK AO2 SLP191 T01330122=
202008020556 METAR KPWT 020556Z AUTO 00000KT 10SM CLR 16/13 A3008 RMK AO2 SLP191 6//// T01560128 10250 20144 51004=
202008020456 METAR KPWT 020456Z AUTO 18003KT 10SM CLR 16/13 A3008 RMK AO2 SLP191 T01560128=
202008020356 METAR KPWT 020356Z AUTO 00000KT 10SM CLR 19/14 A3008 RMK AO2 SLP187 T01890139=
202008020256 METAR KPWT 020256Z AUTO 05007KT 10SM CLR 22/14 A3007 RMK AO2 SLP185 T02220139 56007=
202008020156 METAR KPWT 020156Z AUTO 04006KT 10SM CLR 24/14 A3008 RMK AO2 SLP186 T02390144=
202008020056 METAR KPWT 020056Z AUTO 00000KT 10SM CLR 25/14 A3008 RMK AO2 SLP187 T02500139=
202008012356 METAR KPWT 012356Z AUTO VRB05KT 10SM CLR 25/14 A3009 RMK AO2 SLP192 6//// T02500139 10256 20167 56017=
202008012256 METAR KPWT 012256Z AUTO 26006KT 10SM CLR 24/14 A3011 RMK AO2 SLP197 T02440139=
202008012156 METAR KPWT 012156Z AUTO 19005KT 10SM CLR 22/13 A3013 RMK AO2 SLP203 T02220133=
202008012133 SPECI KPWT 012133Z AUTO 00000KT 10SM SCT026 21/13 A3014 RMK AO2=
202008012056 METAR KPWT 012056Z AUTO 22008KT 10SM OVC028 21/14 A3015 RMK AO2 SLP211 6//// T02060139 55002=
202008012039 SPECI KPWT 012039Z AUTO 22007KT 10SM BKN026 21/14 A3015 RMK AO2=
202008011956 METAR KPWT 011956Z AUTO 00000KT 10SM SCT023 19/13 A3014 RMK AO2 SLP210 T01940133=
202008011856 METAR KPWT 011856Z AUTO VRB03KT 10SM OVC017 19/13 A3015 RMK AO2 SLP213 T01890133=
202008011824 SPECI KPWT 011824Z AUTO 00000KT 10SM FEW012 BKN017 17/14 A3016 RMK AO2=
202008011806 SPECI KPWT 011806Z AUTO VRB03KT 10SM BKN011 BKN018 17/14 A3016 RMK AO2=
202008011756 METAR KPWT 011756Z AUTO 16003KT 10SM BKN009 17/14 A3016 RMK AO2 SLP216 6//// T01670139 10167 20139 51004=
202008011656 METAR KPWT 011656Z AUTO 19004KT 10SM BKN009 BKN012 16/14 A3015 RMK AO2 CIG 005V012 SLP215 T01560139=
202008011647 SPECI KPWT 011647Z AUTO 16003KT 10SM BKN006 16/14 A3016 RMK AO2 CIG 004V010=
202008011556 METAR KPWT 011556Z AUTO 21003KT 6SM BR OVC004 14/14 A3015 RMK AO2 SLP214 T01440139=
202008011539 SPECI KPWT 011539Z AUTO 20004KT 4SM BR OVC004 14/14 A3015 RMK AO2=
202008011526 SPECI KPWT 011526Z AUTO 22004KT 2SM BR OVC004 14/14 A3015 RMK AO2 VIS 1 3/4V3=
202008011456 METAR KPWT 011456Z AUTO 20003KT 3SM BR OVC004 14/14 A3014 RMK AO2 SLP210 6//// T01440139 53012=
202008011447 SPECI KPWT 011447Z AUTO 20003KT 2 1/2SM BR OVC004 14/14 A3014 RMK AO2=
202008011356 METAR KPWT 011356Z AUTO 00000KT 4SM BR OVC004 14/14 A3013 RMK AO2 SLP205 T01390139=
202008011256 METAR KPWT 011256Z AUTO 00000KT 6SM BR OVC004 14/13 A3011 RMK AO2 SLP199 T01390133=
202008011204 SPECI KPWT 011204Z AUTO 00000KT 7SM OVC004 14/13 A3011 RMK AO2=
202008011156 METAR KPWT 011156Z AUTO 15003KT 9SM OVC006 14/13 A3011 RMK AO2 SLP196 6//// 7//// T01390133 10156 20133 53005=
202008011056 METAR KPWT 011056Z AUTO 20003KT 10SM OVC006 14/13 A3010 RMK AO2 SLP193 T01390133=
202008010956 METAR KPWT 010956Z AUTO 21003KT 10SM OVC008 14/13 A3009 RMK AO2 SLP190 T01440133=
202008010856 METAR KPWT 010856Z AUTO 21003KT 10SM OVC008 14/13 A3009 RMK AO2 SLP191 6//// T01440133 51005=
202008010822 SPECI KPWT 010822Z AUTO 21003KT 10SM BKN008 14/13 A3009 RMK AO2=
202008010803 SPECI KPWT 010803Z AUTO 22003KT 10SM FEW008 14/13 A3009 RMK AO2=
202008010756 METAR KPWT 010756Z AUTO 18004KT 10SM CLR 13/12 A3009 RMK AO2 SLP192 T01330122 402720133=
202008010656 METAR KPWT 010656Z AUTO 20003KT 10SM CLR 15/13 A3009 RMK AO2 SLP189 T01500133=
202008010556 METAR KPWT 010556Z AUTO 18003KT 10SM CLR 16/13 A3008 RMK AO2 SLP188 6//// T01560133 10267 20156 50011=
202008010456 METAR KPWT 010456Z AUTO 20005KT 10SM CLR 16/13 A3008 RMK AO2 SLP189 T01610133=
202008010356 METAR KPWT 010356Z AUTO 17003KT 10SM CLR 17/14 A3005 RMK AO2 SLP180 T01720139=
202008010256 METAR KPWT 010256Z AUTO 19005KT 10SM CLR 19/14 A3004 RMK AO2 SLP177 6//// T01940139 51009=
202008010156 METAR KPWT 010156Z AUTO 23009KT 10SM CLR 22/14 A3003 RMK AO2 SLP173 T02170139=
202008010056 METAR KPWT 010056Z AUTO 25009KT 10SM CLR 24/14 A3003 RMK AO2 SLP171 T02390144=

# No short TAF reports from KPWT in databse.

###################################
#  large TAF from KPWT
###################################
202008312323 TAF KPWT 312323Z 0100/0124 04005KT P6SM BKN250 FM010900 00000KT
                       P6SM OVC030=
202008311720 TAF KPWT 311720Z 3118/0118 VRB05KT P6SM BKN015 FM312000 03004KT
                       P6SM OVC050 FM312200 04005KT P6SM BKN250
                       FM010900 00000KT P6SM OVC100=
202008311126 TAF KPWT 311126Z 3112/0112 VRB05KT P6SM BKN012 FM312000 03004KT
                       P6SM OVC050 FM312200 04005KT P6SM BKN250=
202008310524 TAF KPWT 310524Z 3106/0106 VRB05KT P6SM BKN060 FM311000 00000KT
                       P6SM OVC015 FM312000 03004KT P6SM OVC050
                       FM312200 04005KT P6SM BKN250=
202008302320 TAF KPWT 302320Z 3100/3124 21006KT P6SM FEW040 BKN250 FM310300
                       VRB03KT P6SM BKN070 BKN120 FM310600 VRB03KT
                       P6SM OVC050 FM311000 00000KT P6SM OVC010
                       FM311900 03004KT P6SM OVC025 FM312200 04005KT
                       P6SM BKN040=
202008301720 TAF KPWT 301720Z 3018/3118 20004KT P6SM SKC FM310000 15005KT P6SM
                       SCT120 BKN250 FM310300 VRB03KT P6SM BKN070
                       BKN120 FM310600 VRB03KT P6SM OVC050 FM311000
                       00000KT P6SM OVC010=
202008301339 KPWT 301339Z 3014/3112 VRB03KT P6SM SKC FM301800 19004KT P6SM SCT250
                       FM302000 17005KT P6SM SCT060 BKN250 FM310500
                       15003KT P6SM OVC050 FM310900 18002KT P6SM
                       -SHRA OVC015=
202008301123 TAF KPWT 301123Z 3012/3112 00000KT P6SM SCT020 FM301300 00000KT
                       P6SM OVC015 FM301800 19004KT P6SM SCT010
                       SCT250 FM302000 17005KT P6SM SCT060 BKN250
                       FM310500 15003KT P6SM OVC050 FM310900 18002KT
                       P6SM -SHRA OVC015=
202008300520 TAF KPWT 300520Z 3006/3106 VRB03KT P6SM SKC FM301300 00000KT P6SM
                       OVC015 FM301800 19004KT P6SM SCT010 SCT250
                       FM302000 17005KT P6SM SCT060 BKN250 FM310500
                       15003KT P6SM OVC050=
202008292320 TAF KPWT 292320Z 3000/3024 05004KT P6SM SCT050 BKN250 FM300600
                       VRB03KT P6SM SCT250 FM301300 00000KT P6SM
                       OVC007 FM301800 19004KT P6SM SCT010 BKN050
                       FM302000 19005KT P6SM SCT060 BKN250=
202008292105 KPWT 292105Z 2921/3018 33004KT P6SM SCT025 BKN060
                      TEMPO 2921/3001 BKN025 BKN060 FM300100 05005KT
                       P6SM SCT060 SCT250 FM300600 VRB03KT P6SM
                       BKN250 FM301300 00000KT P6SM OVC007=
202008291720 TAF KPWT 291720Z 2918/3018 00000KT P6SM SCT016 BKN050
                      TEMPO 2918/2920 BKN016 BKN050 FM292100 16005KT
                       P6SM SCT050 SCT250 FM300000 05005KT P6SM
                       SCT250 FM300600 VRB03KT P6SM BKN250 FM301300
                       00000KT P6SM OVC007=
202008291120 TAF KPWT 291120Z 2912/3012 00000KT P6SM SCT250
                      TEMPO 2912/2916 4SM BR OVC010 FM291800 17004KT
                       P6SM BKN015 FM292100 16005KT P6SM SCT040
                       SCT250 FM300000 05005KT P6SM SKC FM300600
                       VRB03KT P6SM BKN250=
202008290520 TAF KPWT 290520Z 2906/3006 02004KT P6SM SKC FM291000 00000KT P6SM
                       BKN050 FM291200 00000KT P6SM OVC010 FM291800
                       17004KT P6SM BKN015 FM292100 16005KT P6SM
                       SCT040 FM300000 05005KT P6SM SKC=
202008282322 TAF KPWT 282322Z 2900/2924 02004KT P6SM SKC FM291000 00000KT P6SM
                       BKN050 FM291200 00000KT P6SM OVC010 FM291800
                       17004KT P6SM BKN015 FM292100 16005KT P6SM
                       SCT040=
202008281721 TAF KPWT 281721Z 2818/2918 05006KT P6SM SKC FM291000 17004KT P6SM
                       BKN050 FM291200 17004KT P6SM OVC010=
202008281255 KPWT 281255Z 2813/2912 VRB03KT P6SM SKC
                      TEMPO 2813/2817 2SM BR FM281700 05005KT P6SM
                       SKC FM290300 VRB03KT P6SM FEW250 FM291000
                       VRB03KT P6SM BKN025=
202008281120 TAF KPWT 281120Z 2812/2912 VRB03KT P6SM SKC FM281700 05005KT P6SM
                       SKC FM290300 VRB03KT P6SM FEW250 FM291000
                       VRB03KT P6SM BKN025=
202008280520 TAF KPWT 280520Z 2806/2906 06005KT P6SM SKC FM280800 VRB03KT P6SM
                       SKC FM281700 05005KT P6SM SKC FM290300 VRB03KT
                       P6SM FEW250=
202008272320 TAF KPWT 272320Z 2800/2824 06005KT P6SM SCT060 FM280300 VRB03KT
                       P6SM SKC FM281800 05005KT P6SM SKC=
202008271729 TAF KPWT 271729Z 2718/2818 00000KT P6SM FEW250 FM280000 04005KT
                       P6SM SKC FM280300 VRB03KT P6SM SKC=
202008271449 KPWT 271449Z 2715/2812 VRB02KT P6SM SKC FM271800 04005KT P6SM FEW250
                       FM280300 VRB03KT P6SM SKC=
202008271120 TAF KPWT 271120Z 2712/2812 VRB03KT P6SM SKC FM271400 VRB02KT P6SM
                       SKC
                      TEMPO 2714/2718 OVC015 FM271800 04005KT P6SM
                       FEW250 FM280300 VRB03KT P6SM SKC=
202008270521 TAF KPWT 270521Z 2706/2806 VRB03KT P6SM SKC FM271400 VRB02KT P6SM
                       SKC
                      TEMPO 2714/2718 OVC015 FM271800 05004KT P6SM
                       FEW250 FM280300 VRB03KT P6SM SKC=
202008262328 TAF KPWT 262328Z 2700/2724 04004KT P6SM SKC FM270300 VRB03KT P6SM
                       SKC FM271400 VRB02KT P6SM OVC015 FM271700
                       09004KT P6SM FEW250=
202008261720 TAF KPWT 261720Z 2618/2718 00000KT P6SM SKC FM261900 05004KT P6SM
                       SCT250 FM262300 03006KT P6SM SKC FM270300
                       VRB03KT P6SM SKC FM271400 VRB02KT P6SM OVC015=
202008261447 KPWT 261447Z 2615/2712 00000KT P6SM SKC FM261900 05004KT P6SM SCT250
                       FM262300 03006KT P6SM SKC FM270300 VRB03KT
                       P6SM SKC=
202008261120 TAF KPWT 261120Z 2612/2712 00000KT P6SM SKC FM261900 05004KT P6SM
                       SCT250 FM262300 03006KT P6SM SKC FM270300
                       VRB03KT P6SM SKC=
202008260520 TAF KPWT 260520Z 2606/2706 VRB05KT P6SM SCT060 FM261200 VRB02KT
                       P6SM OVC010 FM261500 00000KT P6SM OVC005
                       FM261900 07004KT P6SM OVC250 FM262300 03006KT
                       P6SM SKC FM270300 VRB03KT P6SM SKC=
202008252320 TAF KPWT 252320Z 2600/2624 VRB05KT P6SM SKC FM261200 VRB02KT P6SM
                       OVC100 FM261500 00000KT P6SM OVC005 FM261900
                       07004KT P6SM OVC250 FM262300 03006KT P6SM
                       SKC=
202008251720 TAF KPWT 251720Z 2518/2618 VRB03KT P6SM FEW250 FM251900 04005KT
                       P6SM SKC FM261200 VRB02KT P6SM OVC100 FM261500
                       00000KT P6SM OVC005=
202008251457 KPWT 251457Z 2515/2612 00000KT P6SM FEW250 FM251800 VRB03KT P6SM
                       BKN010 FM251900 04005KT P6SM SKC=
202008251257 KPWT 251257Z 2513/2612 00000KT 2SM BR SCT006 FM251800 VRB03KT P6SM
                       BKN010 FM251900 04005KT P6SM SKC=
202008251126 TAF KPWT 251126Z 2512/2612 00000KT P6SM SCT009 FM251300 00000KT
                       5SM BR OVC005 FM251800 VRB03KT P6SM BKN010
                       FM251900 04005KT P6SM SKC=
202008250526 TAF KPWT 250526Z 2506/2606 00000KT P6SM FEW250 FM251300 00000KT
                       P6SM OVC005 FM251800 VRB03KT P6SM BKN010
                       FM251900 04005KT P6SM FEW250=
202008242320 TAF KPWT 242320Z 2500/2524 04005KT P6SM BKN050 FM250500 00000KT
                       P6SM FEW250 FM251300 00000KT P6SM OVC005
                       FM251800 VRB03KT P6SM BKN010 FM251900 04005KT
                       P6SM FEW250=
202008241725 TAF KPWT 241725Z 2418/2518 VRB03KT P6SM BKN150 FM242100 04005KT
                       P6SM SCT250 FM250500 00000KT P6SM FEW250
                       FM251300 00000KT P6SM BKN005=
202008241331 KPWT 241331Z 2414/2512 VRB02KT P6SM SCT010 BKN150 FM241700 05005KT
                       P6SM SCT010 BKN100=
202008241129 TAF KPWT 241129Z 2412/2512 VRB02KT P6SM SCT100 FM241300 00000KT
                       6SM BR SCT010 FM241400 00000KT 4SM BR OVC009
                       FM241700 05005KT P6SM SCT010 BKN100=
202008240522 TAF KPWT 240522Z 2406/2506 06004KT P6SM SCT100 FM240700 VRB02KT
                       P6SM FEW250 FM241100 00000KT 6SM BR SCT010
                       FM241400 00000KT 4SM BR OVC009 FM241700
                       05005KT P6SM SCT010 BKN100=
202008232335 TAF KPWT 232335Z 2400/2424 04008KT P6SM FEW220 FM240700 VRB02KT
                       P6SM FEW250 FM241100 00000KT 6SM BR SCT010=
202008231721 TAF KPWT 231721Z 2318/2418 06008KT P6SM SKC FM232200 04006KT P6SM
                       FEW100 FM240300 VRB03KT P6SM SCT100 FM241000
                       00000KT 6SM BR SCT010=
202008231134 TAF KPWT 231134Z 2312/2412 04004KT P6SM SCT100 FM232200 04006KT
                       P6SM SCT100 FM240300 VRB03KT P6SM SCT100
                       FM241000 00000KT 6SM BR SCT010=
202008230535 TAF KPWT 230535Z 2306/2406 07004KT P6SM SKC=
202008222331 TAF KPWT 222331Z 2300/2324 04008KT P6SM SCT250 FM230400 VRB03KT
                       P6SM SKC=
202008221729 TAF KPWT 221729Z 2218/2318 07005KT P6SM FEW011 SCT250 FM222000
                       04005KT P6SM BKN250 FM230400 VRB03KT P6SM
                       SCT250=
202008221120 TAF KPWT 221120Z 2212/2312 VRB03KT P6SM SCT250
                      TEMPO 2212/2216 OVC005 FM221600 05003KT P6SM
                       SCT010 SCT250 FM222000 03005KT P6SM SCT250
                       FM230400 VRB03KT P6SM FEW250=
202008220520 TAF KPWT 220520Z 2206/2306 20010KT P6SM VCSH SCT018 SCT050 FM220800
                       17006KT 6SM BR VCSH BKN018 BKN040 FM221100
                       VRB03KT P6SM OVC005 FM221600 05003KT P6SM
                       OVC010 FM222000 03004KT P6SM BKN050 FM222200
                       03005KT P6SM FEW250=
202008220202 KPWT 220202Z 2202/2224 20012G18KT P6SM VCSH SCT018 BKN050 FM220800
                       17006KT 6SM BR VCSH BKN018 BKN040 FM221700
                       05003KT P6SM OVC015 FM222000 03004KT P6SM
                       BKN050 FM222200 03005KT P6SM FEW250=
202008212339 TAF KPWT 212339Z 2200/2224 20010KT P6SM -SHRA FEW008 OVC015 FM220300
                       20008KT P6SM BKN050 FM220800 VRB04KT 6SM
                       -DZ BR OVC007 FM221700 05003KT P6SM OVC015
                       FM222000 03004KT P6SM BKN050 FM222200 03005KT
                       P6SM FEW250=
202008211733 TAF KPWT 211733Z 2118/2218 20009KT P6SM -RA BKN015 OVC040 FM212200
                       19008G14KT 6SM -RA BR OVC015 FM220300 19007KT
                       P6SM BKN050 FM221000 VRB04KT 6SM BR OVC007=
202008211130 TAF KPWT 211130Z 2112/2212 20010KT P6SM VCSH SCT007 OVC035
                      TEMPO 2112/2116 BKN007 FM211800 20013G20KT
                       4SM -RA BR OVC007 FM212200 19008G14KT 6SM
                       -RA BR OVC015 FM220300 19007KT P6SM BKN050
                       FM221000 VRB04KT P6SM OVC007=
202008210523 TAF KPWT 210523Z 2106/2206 VRB04KT P6SM -SHRA FEW025 OVC050 FM210900
                       21007KT P6SM -SHRA OVC025 FM211200 20010KT
                       4SM -SHRA OVC015 FM211600 20013G20KT 4SM
                       -RA OVC007 FM212100 19008G14KT P6SM -RA
                       OVC015 FM220200 19007KT P6SM OVC050=
202008202336 TAF KPWT 202336Z 2100/2124 23008KT P6SM SCT070 BKN100 FM210400
                       20007KT P6SM OVC050 FM210900 21007KT P6SM
                       OVC025 FM211200 20010KT 4SM -SHRA OVC015
                       FM211600 20012G19KT 4SM -SHRA OVC007=
202008201735 TAF KPWT 201735Z 2018/2118 22007KT P6SM -SHRA FEW015 OVC025 FM202000
                       20016G20KT P6SM OVC050 FM210200 21005KT
                       P6SM OVC050 FM210900 21006KT P6SM -RA OVC025
                       FM211100 20010KT 4SM -DZ OVC015=
202008201139 TAF KPWT 201139Z 2012/2112 20007KT P6SM -RA BKN070 FM201400 20006KT
                       P6SM -SHRA OVC025 FM202000 20016G20KT P6SM
                       OVC050 FM210200 21005KT P6SM OVC050 FM211000
                       21006KT P6SM -RA OVC025=
202008200523 TAF KPWT 200523Z 2006/2106 21008KT P6SM BKN150 OVC200 FM201000
                       20007KT 6SM -RA BKN020 OVC050 FM201600 20006KT
                       4SM -RA BR OVC007 FM202000 20016G20KT P6SM
                       OVC050 FM210200 21005KT P6SM OVC050=
202008192320 TAF KPWT 192320Z 2000/2024 26007KT P6SM SCT250 FM200200 20008KT
                       P6SM BKN100 OVC200 FM201000 20007KT 6SM
                       -RA BKN020 OVC050 FM201600 20006KT 4SM -RA
                       BR OVC007 FM202000 20016G20KT P6SM OVC050=
202008191720 TAF KPWT 191720Z 1918/2018 VRB03KT P6SM FEW250 FM192000 22006KT
                       P6SM SCT250 FM200200 20008KT P6SM BKN100
                       OVC200 FM201000 20007KT 6SM -RA BKN020 OVC100
                       FM201600 20006KT 6SM -RA BR OVC050=
202008191126 TAF KPWT 191126Z 1912/2012 VRB03KT P6SM FEW200 FM191400 VRB03KT
                       P6SM BKN015 FM192000 22006KT P6SM SCT250
                       FM200200 20008KT P6SM BKN100 OVC200 FM201000
                       20007KT 6SM -RA BKN040 OVC100=
202008190524 TAF KPWT 190524Z 1906/2006 VRB04KT P6SM SCT100 FM191200 VRB03KT
                       P6SM OVC015 FM192000 22006KT P6SM SCT250
                       FM200200 20008KT P6SM BKN100 OVC200=
202008182320 TAF KPWT 182320Z 1900/1924 VRB05KT P6SM SKC FM190700 21002KT P6SM
                       BKN150 FM191300 22003KT P6SM OVC010 FM191800
                       22004KT P6SM OVC250 FM192000 22006KT P6SM
                       BKN250=
202008181738 TAF KPWT 181738Z 1818/1918 20006KT P6SM BKN025 FM181900 20008KT
                       P6SM SCT250 FM190700 21002KT P6SM OVC007
                       FM191500 22003KT P6SM BKN015=
202008181133 TAF KPWT 181133Z 1812/1912 23008KT P6SM SKC FM181300 20004KT P6SM
                       SCT019 FM181400 20006KT P6SM OVC019 FM181800
                       20006KT P6SM BKN015 FM181900 20008KT P6SM
                       SKC=
202008180526 TAF KPWT 180526Z 1806/1906 23008KT P6SM SKC FM180900 20004KT P6SM
                       SCT009 FM181200 20006KT P6SM OVC007 FM181800
                       20006KT P6SM BKN015 FM181900 20008KT P6SM
                       SKC=
202008172322 TAF KPWT 172322Z 1800/1824 23008KT P6SM SKC FM180900 20004KT P6SM
                       SCT009 FM181200 20006KT P6SM OVC007 FM181800
                       20006KT P6SM BKN015 FM181900 20008KT P6SM
                       SKC=
202008171724 TAF KPWT 171724Z 1718/1818 20007KT P6SM SKC FM180900 20004KT P6SM
                       SCT009 FM181200 20006KT P6SM OVC007=
202008171544 KPWT 171544Z 1716/1812 21006KT P6SM SKC FM180900 20004KT P6SM SCT009=
202008171132 TAF KPWT 171132Z 1712/1812 20006KT P6SM SKC FM171400 21006KT 4SM
                       BR BKN007 FM171800 20002KT P6SM SKC FM180900
                       20004KT P6SM SCT009=
202008170527 TAF KPWT 170527Z 1706/1806 20006KT P6SM SKC FM171300 21006KT 4SM
                       BR OVC004 FM171600 21006KT P6SM SKC=
202008162323 TAF KPWT 162323Z 1700/1724 21010KT P6SM SKC FM171300 21006KT 4SM
                       BR OVC004 FM171600 21006KT P6SM SKC=
202008161729 TAF KPWT 161729Z 1618/1718 00000KT P6SM SKC FM170400 21010KT P6SM
                       SKC FM171200 21006KT 4SM BR OVC004 FM171600
                       21006KT P6SM SKC=
202008161135 TAF KPWT 161135Z 1612/1712 00000KT P6SM SKC FM162200 21010KT P6SM
                       SKC FM170000 24008KT P6SM FEW150=
202008160539 TAF KPWT 160539Z 1606/1706 04008KT P6SM SKC FM162200 21010KT P6SM
                       SKC FM170000 24008KT P6SM FEW150=
202008152332 TAF KPWT 152332Z 1600/1624 04008KT P6SM SKC FM162200 21006KT P6SM
                       SKC=
202008151733 TAF KPWT 151733Z 1518/1618 04010KT P6SM SKC=
202008151135 TAF KPWT 151135Z 1512/1612 06006KT P6SM SKC FM151900 03012KT P6SM
                       SKC FM160300 03005KT P6SM SKC=
202008150528 TAF KPWT 150528Z 1506/1606 04006KT P6SM SKC=
202008142320 TAF KPWT 142320Z 1500/1524 04006KT P6SM SKC=
202008141723 TAF KPWT 141723Z 1418/1518 04006KT P6SM SKC=
202008141134 TAF KPWT 141134Z 1412/1512 06004KT P6SM SKC FM142300 03006KT P6SM
                       SKC=
202008140540 TAF KPWT 140540Z 1406/1506 36003KT P6SM SKC=
202008132322 TAF KPWT 132322Z 1400/1424 VRB05KT P6SM FEW050=
202008131731 TAF KPWT 131731Z 1318/1418 VRB03KT P6SM SKC=
202008131459 KPWT 131459Z 1315/1412 00000KT P6SM SCT250 FM132000 03005KT P6SM
                       SCT060=
202008131127 TAF KPWT 131127Z 1312/1412 00000KT P6SM SCT200
                      TEMPO 1312/1316 4SM BR SCT015 SCT200 FM132000
                       03005KT P6SM SCT060=
202008130535 TAF KPWT 130535Z 1306/1406 00000KT P6SM BKN250 FM131300 VRB02KT
                       P6SM OVC015 FM131600 VRB04KT P6SM SCT025
                       BKN250 FM132100 03005KT P6SM SKC=
202008122320 TAF KPWT 122320Z 1300/1324 VRB05KT P6SM BKN050 FM130400 00000KT
                       P6SM BKN250 FM131200 VRB02KT P6SM OVC015
                       FM131600 21003KT P6SM BKN250=
202008121726 TAF KPWT 121726Z 1218/1318 00000KT P6SM SCT250 FM122100 21005KT
                       P6SM FEW250 FM130400 00000KT P6SM BKN250
                       FM131200 VRB02KT P6SM OVC015=
202008121502 KPWT 121502Z 1215/1312 18003KT P6SM BKN060 FM121800 20005KT P6SM
                       SCT060 FM122100 21005KT P6SM SCT250 FM130400
                       00000KT P6SM BKN250=
202008121120 TAF KPWT 121120Z 1212/1312 18003KT P6SM OVC012 FM121800 20005KT
                       P6SM SCT020 BKN040 FM122100 21005KT P6SM
                       SCT250 FM130400 00000KT P6SM BKN250=
202008120609 TAF KPWT 120609Z 1206/1306 19008KT P6SM BKN250 FM120800 18003KT
                       6SM BR OVC002 FM121800 20005KT P6SM BKN010=
202008112322 TAF KPWT 112322Z 1200/1224 19008KT P6SM BKN250 FM120800 18003KT
                       6SM BR OVC002 FM121800 20005KT P6SM BKN010=
202008111740 TAF KPWT 111740Z 1118/1218 22010KT P6SM SCT020 FM112000 22010G15KT
                       P6SM BKN250 FM120800 18003KT 6SM BR OVC002=
202008111455 KPWT 111455Z 1115/1212 21006KT 1/4SM FG OVC002 FM111800 22010KT
                       P6SM SCT020 SCT250 FM120800 00000KT P6SM
                       OVC250=
202008111333 KPWT 111333Z 1114/1212 20003KT 1SM BR OVC003 FM111500 21006KT P6SM
                       OVC004 FM111800 22010KT P6SM SCT020 SCT250
                       FM120800 00000KT P6SM OVC250=
202008111301 KPWT 111301Z 1113/1212 20003KT P6SM BKN005 OVC250 FM111800 22010KT
                       P6SM SCT020 SCT250 FM120800 00000KT P6SM
                       OVC250=
202008111127 TAF KPWT 111127Z 1112/1212 20003KT P6SM BKN015 OVC250 FM111800
                       22010KT P6SM SCT020 SCT250 FM120800 00000KT
                       P6SM OVC250=
202008110521 TAF KPWT 110521Z 1106/1206 VRB03KT P6SM SCT250 FM111200 20003KT
                       P6SM BKN015 OVC250 FM111800 20007KT P6SM
                       SCT020 SCT250=
202008102320 TAF KPWT 102320Z 1100/1124 05008KT P6SM SCT250 FM110500 VRB03KT
                       P6SM SCT250 FM111200 20003KT P6SM BKN015
                       OVC250 FM111800 20007KT P6SM SCT020 SCT250=
202008101720 TAF KPWT 101720Z 1018/1118 VRB04KT P6SM SKC FM102100 05009KT P6SM
                       SCT250 FM110500 VRB03KT P6SM SCT250 FM111200
                       20003KT P6SM BKN015 OVC250=
202008101126 TAF KPWT 101126Z 1012/1112 00000KT P6SM SKC FM102100 05009KT P6SM
                       SCT250 FM110500 00000KT P6SM SCT250=
202008100524 TAF KPWT 100524Z 1006/1106 04010G15KT P6SM SKC FM100700 00000KT
                       P6SM SKC FM102100 05009KT P6SM SCT250 FM110500
                       00000KT P6SM SCT250=
202008092330 TAF KPWT 092330Z 1000/1024 04010G15KT P6SM SKC FM100700 VRB03KT
                       P6SM SKC FM102100 05009KT P6SM SCT250=
202008091721 TAF KPWT 091721Z 0918/1018 04006KT P6SM SKC FM100700 00000KT P6SM
                       SKC=
202008091358 KPWT 091358Z 0914/1012 00000KT P6SM FEW250
                      TEMPO 0914/0916 4SM BR FM092000 03007KT P6SM
                       FEW250 FM100500 00000KT P6SM FEW250=
202008091123 TAF KPWT 091123Z 0912/1012 00000KT P6SM FEW250
                      TEMPO 0912/0914 2SM BR FM092000 03007KT P6SM
                       FEW250 FM100500 00000KT P6SM FEW250=
202008091029 KPWT 091029Z 0910/1006 00000KT P6SM FEW250
                      TEMPO 0910/0914 2SM BR FM092000 03007KT P6SM
                       FEW250 FM100500 00000KT P6SM FEW250=
202008090520 TAF KPWT 090520Z 0906/1006 00000KT P6SM FEW250 FM091200 00000KT
                       6SM BR FEW250 FM092000 03007KT P6SM FEW250
                       FM100500 00000KT P6SM FEW250=
202008082322 TAF KPWT 082322Z 0900/0924 04006KT P6SM BKN040 OVC060 FM090600
                       00000KT P6SM FEW250 FM091200 00000KT 6SM
                       BR FEW250 FM092000 03007KT P6SM FEW250=
202008081952 KPWT 081952Z 0820/0918 08006KT P6SM VCSH SCT015 OVC028
                      TEMPO 0820/0821 6SM -SHRA FM082200 04010KT
                       P6SM BKN040 FM090600 00000KT P6SM FEW250
                       FM091200 00000KT 6SM BR FEW250=
202008081725 TAF KPWT 081725Z 0818/0918 VRB03KT P6SM VCSH SCT008 OVC018 FM082000
                       06006KT P6SM SCT015 OVC028 FM082200 04010KT
                       P6SM BKN040 FM090600 00000KT P6SM FEW250
                       FM091200 00000KT 6SM BR FEW250=
202008081502 KPWT 081502Z 0815/0912 VRB03KT 4SM BR VCSH SCT004 OVC018 FM082000
                       04008KT P6SM OVC050 FM090400 00000KT P6SM
                       SCT050=
202008081325 KPWT 081325Z 0813/0912 11003KT P6SM OVC015
                      TEMPO 0813/0815 4SM BR FM082000 04008KT P6SM
                       OVC050 FM090400 00000KT P6SM SCT050=
202008081120 TAF KPWT 081120Z 0812/0912 11003KT P6SM OVC015 FM082000 04008KT
                       P6SM OVC050 FM090400 00000KT P6SM SCT050=
202008080520 TAF KPWT 080520Z 0806/0906 00000KT P6SM OVC050 FM081000 11003KT
                       P6SM OVC015 FM082000 04008KT P6SM OVC050
                       FM090400 00000KT P6SM SCT050=
202008072339 TAF KPWT 072339Z 0800/0824 29006KT P6SM SCT050 BKN080 FM080500
                       00000KT P6SM OVC050 FM081000 11003KT P6SM
                       OVC015 FM081900 06006KT P6SM OVC050=
202008071737 TAF KPWT 071737Z 0718/0818 19005KT P6SM BKN010 BKN020 BKN100 FM071900
                       19007KT P6SM BKN050 FM072100 20007KT P6SM
                       SCT050 OVC100 FM080100 04004KT P6SM SCT050
                       OVC100 FM080600 02004KT P6SM OVC025=
202008071302 KPWT 071302Z 0713/0812 19005KT P6SM BKN008 BKN020 BKN100
                      TEMPO 0713/0717 1/2SM FG BKN002 FM071900
                       19007KT P6SM BKN050 FM072100 20007KT P6SM
                       SCT050 OVC100 FM080100 04004KT P6SM SCT050
                       OVC100 FM080600 02004KT P6SM OVC025=
202008071121 TAF KPWT 071121Z 0712/0812 19005KT P6SM FEW008 BKN020 BKN100 FM071900
                       19007KT P6SM BKN050 FM072100 20007KT P6SM
                       SCT050 OVC100 FM080100 04004KT P6SM SCT050
                       OVC100 FM080600 02004KT P6SM OVC025=
202008070520 TAF KPWT 070520Z 0706/0806 06003KT P6SM SCT070 FM070900 18005KT
                       P6SM OVC020 FM071200 18004KT P6SM OVC007
                       FM071800 19007KT P6SM BKN050 FM080000 03004KT
                       P6SM SCT050 OVC100=
202008062336 TAF KPWT 062336Z 0700/0724 05010KT P6SM VCSH SCT030 OVC070 FM070400
                       19005KT P6SM BKN050 FM070900 18005KT P6SM
                       OVC020 FM071200 18004KT P6SM OVC007 FM071800
                       19007KT P6SM BKN050=
202008061735 TAF KPWT 061735Z 0618/0718 19008KT P6SM VCSH SCT010 OVC015 FM062000
                       19012G18KT P6SM VCSH BKN030 FM062200 VRB05KT
                       P6SM VCSH BKN050 FM070900 18005KT P6SM OVC020
                       FM071200 18004KT P6SM OVC007=
202008061120 TAF KPWT 061120Z 0612/0712 22007KT P6SM OVC010
                      TEMPO 0612/0614 -SHRA FM061400 19008KT 4SM
                       -SHRA OVC007 FM061900 19012KT P6SM OVC050
                       FM062100 VRB05KT P6SM BKN050 FM070900 18005KT
                       P6SM OVC020=
202008060902 KPWT 060902Z 0609/0706 22007KT P6SM OVC010 FM061100 19008KT 4SM
                       -SHRA OVC007 FM061900 19012KT P6SM OVC050
                       FM062100 VRB05KT P6SM BKN050=
202008060522 TAF KPWT 060522Z 0606/0706 19004KT P6SM FEW050 SCT150 FM060800
                       20009KT 4SM BR OVC015 FM061100 19008KT 4SM
                       -SHRA OVC007 FM061900 19012KT P6SM OVC050
                       FM062100 VRB05KT P6SM BKN050=
202008060301 KPWT 060301Z 0603/0624 24009KT P6SM FEW050 SCT150 FM060800 20009KT
                       4SM BR OVC015 FM061100 19008KT 4SM -SHRA
                       OVC007 FM061900 19012KT P6SM OVC050=
202008052323 TAF KPWT 052323Z 0600/0624 24009KT P6SM SCT250 FM060900 20009KT
                       4SM BR OVC015 FM061200 19008KT 4SM -SHRA
                       OVC007 FM061900 19012KT P6SM OVC050=
202008051723 TAF KPWT 051723Z 0518/0618 34004KT P6SM SKC FM052200 24009KT P6SM
                       SCT250 FM060900 20009KT 4SM BR SCT004 OVC015
                       FM061200 19008KT 4SM -SHRA SCT004 OVC007=
202008051325 KPWT 051325Z 0513/0612 20004KT P6SM SCT006
                      TEMPO 0513/0516 1/2SM FG BKN006 FM051700
                       23004KT P6SM SKC FM052200 24010KT P6SM SCT250
                       FM060900 20010KT P6SM BKN050 OVC100=
202008051120 TAF KPWT 051120Z 0512/0612 20004KT P6SM SCT006
                      TEMPO 0512/0516 BKN006 FM051700 23004KT P6SM
                       SKC FM052200 24010KT P6SM SCT250 FM060900
                       20010KT P6SM BKN050 OVC100=
202008050520 TAF KPWT 050520Z 0506/0606 VRB04KT P6SM SKC FM051200 20004KT P6SM
                       BKN012 FM051700 23004KT P6SM SKC FM052200
                       24010KT P6SM SCT250=
202008042327 TAF KPWT 042327Z 0500/0524 04006KT P6SM SKC FM051300 20003KT P6SM
                       OVC015 FM052000 20008KT P6SM SCT250=
202008041729 TAF KPWT 041729Z 0418/0518 04006KT P6SM SKC FM051300 20003KT P6SM
                       OVC015=
202008041508 KPWT 041508Z 0415/0512 03006KT P6SM SKC=
202008041120 TAF KPWT 041120Z 0412/0512 03003KT 3SM BR OVC004 FM041700 04004KT
                       P6SM BKN015 FM041900 04007KT P6SM SKC=
202008040520 TAF KPWT 040520Z 0406/0506 04006KT P6SM SKC FM041000 VRB03KT 3SM
                       BR OVC004 FM041900 04005KT P6SM SCT250=
202008032330 TAF KPWT 032330Z 0400/0424 04006KT P6SM SCT050 FM041200 VRB03KT
                       3SM BR OVC004 FM041700 VRB03KT P6SM SCT050=
202008031732 TAF KPWT 031732Z 0318/0418 VRB04KT P6SM SCT050 FM032300 02006KT
                       P6SM BKN050 FM040400 02006KT P6SM SCT050
                       FM041200 VRB03KT 3SM BR OVC004 FM041700
                       VRB03KT P6SM SCT050=
202008031604 KPWT 031604Z 0316/0412 00000KT P6SM SCT005 FM031800 VRB04KT P6SM
                       SCT015 BKN050 FM040100 03005KT P6SM SCT060=
202008031331 KPWT 031331Z 0314/0412 00000KT 1/4SM FG BKN002 FM031500 00000KT
                       P6SM SCT005 BKN060
                      TEMPO 0315/0318 OVC005 FM032100 VRB04KT P6SM
                       SCT015 BKN060 FM040100 03005KT P6SM SCT060=
202008031120 TAF KPWT 031120Z 0312/0412 00000KT P6SM FEW060 FM031400 VRB03KT
                       P6SM FEW010 BKN060
                      TEMPO 0314/0318 OVC010 FM032100 VRB04KT P6SM
                       SCT015 BKN060 FM040100 03005KT P6SM SCT060=
202008030901 KPWT 030901Z 0309/0406 00000KT P6SM FEW050 BKN100 FM031200 18006KT
                       P6SM SCT015 BKN050
                      TEMPO 0312/0316 3SM -DZ BR OVC015 FM032100
                       VRB04KT P6SM SCT025 BKN040=
202008030522 TAF KPWT 030522Z 0306/0406 00000KT P6SM FEW050 BKN100 FM030900
                       18006KT P6SM BKN020 BKN050 FM031200 18006KT
                       P6SM OVC015
                      TEMPO 0312/0316 3SM -DZ BR OVC010 FM032100
                       VRB04KT P6SM SCT025 BKN040=
202008022320 TAF KPWT 022320Z 0300/0324 23008KT P6SM SCT050 BKN120 BKN200 FM030600
                       21007KT P6SM BKN050 BKN100 FM030900 18006KT
                       P6SM BKN020 BKN050 FM031200 18006KT P6SM
                       OVC015
                      TEMPO 0312/0316 3SM -DZ BR OVC010 FM032100
                       VRB04KT P6SM SCT025 BKN040=
202008021723 TAF KPWT 021723Z 0218/0318 22007KT P6SM BKN007 FM021900 22007KT
                       P6SM SCT015 SCT200 FM022200 22007KT P6SM
                       SCT040 BKN120 BKN200 FM031000 22007KT P6SM
                       BKN010 OVC030
                      TEMPO 0312/0316 3SM -DZ BR OVC005=
202008021704 KPWT 021704Z 0217/0312 22007KT P6SM BKN003 FM021800 22007KT P6SM
                       SCT150 FM030000 22007KT P6SM BKN120 FM031000
                       18008KT P6SM BKN020 OVC050=
202008021504 KPWT 021504Z 0215/0312 VRB03KT 3SM BR BKN003
                      TEMPO 0215/0217 1/4SM FG VV001 FM021700 19005KT
                       P6SM SCT010 SCT150 FM021800 21008KT P6SM
                       SCT150 FM030000 20006KT P6SM BKN120=
202008021258 KPWT 021258Z 0213/0312 00000KT 1/2SM FG BKN001 FM021500 VRB03KT
                       4SM BR BKN005 FM021700 19005KT P6SM SCT010
                       SCT150 FM021800 21008KT P6SM SCT150 FM030000
                       20006KT P6SM BKN120=
202008021124 TAF KPWT 021124Z 0212/0312 00000KT P6SM SKC
                      TEMPO 0212/0216 2SM BR FM021800 21008KT P6SM
                       SCT150 FM030000 20006KT P6SM BKN120=
202008020520 TAF KPWT 020520Z 0206/0306 18003KT P6SM FEW250 FM021200 20005KT
                       P6SM BKN012 FM021800 21006KT P6SM SCT025
                       BKN150 FM022000 21008KT P6SM SCT030 BKN120=
202008012320 TAF KPWT 012320Z 0200/0224 VRB04KT P6SM SCT120 SCT200 FM021200
                       20005KT P6SM SCT015
                      TEMPO 0213/0216 BKN012 FM022000 VRB04KT P6SM
                       SCT030 BKN120 BKN200=
202008012223 KPWT 012223Z 0122/0218 VRB04KT P6SM SCT200 FM021200 18005KT P6SM
                       BKN015 FM021700 VRB04KT P6SM SCT020 SCT200=
202008012104 KPWT 012104Z 0121/0218 22008KT P6SM BKN028 FM012300 VRB04KT P6SM
                       SCT030 SCT200 FM020400 VRB04KT P6SM SCT200
                       FM021200 18005KT P6SM BKN015 FM021700 VRB04KT
                       P6SM SCT020 SCT200=
202008011720 TAF KPWT 011720Z 0118/0218 VRB04KT P6SM BKN012 OVC120 FM012000
                       30005KT P6SM SCT020 BKN150 FM020000 33005KT
                       P6SM SCT150 FM020400 VRB03KT P6SM SCT200
                       FM021100 15005KT P6SM BKN018
                      TEMPO 0213/0217 OVC015=
202008011508 KPWT 011508Z 0115/0212 20005KT P6SM BKN004 OVC012
                      TEMPO 0115/0118 3SM BR OVC004 FM011800 21006KT
                       P6SM SCT005 OVC015 FM012000 27006KT P6SM
                       SCT020 SCT120 FM020000 35005KT P6SM SCT250
                       FM021000 VRB03KT P6SM OVC015=
202008011120 TAF KPWT 011120Z 0112/0212 20003KT P6SM OVC006 FM011800 21004KT
                       P6SM OVC012 FM012000 21007KT P6SM SCT250
                       FM020300 VRB04KT P6SM SCT250 FM021100 18003KT
                       P6SM OVC008=
202008010521 TAF KPWT 010521Z 0106/0206 20005KT P6SM BKN250 FM010900 19005KT
                       P6SM BKN015 FM011200 21002KT P6SM OVC007
                       FM011700 21003KT P6SM OVC015 FM012000 21007KT
                       P6SM SCT250=