##########################################################
# Query made at 02/16/2025 00:42:11 UTC
# Time interval: from 12/01/2020 00:00  to 12/31/2020 23:59  UTC
##########################################################

##########################################################
# KPWT, Bremerton National Automatic Weather Observing / Reporting System (United States)
# WMO index: -----. WIGOS ID: Unknown
# Latitude 47-30N. Longitude 122-45W. Altitude 147 m.
##########################################################

###################################
#  METAR/SPECI from KPWT
###################################
202012312356 METAR KPWT 312356Z AUTO 20012G18KT 10SM BKN011 08/07 A3009 RMK AO2 SLP195 T00830067 10100 20083 53011 $=
202012312256 METAR KPWT 312256Z AUTO 20011KT 10SM OVC013 08/07 A3008 RMK AO2 SLP192 T00830067 $=
202012312241 SPECI KPWT 312241Z AUTO 21010KT 10SM OVC013 09/07 A3008 RMK AO2 $=
202012312156 METAR KPWT 312156Z AUTO 20008G17KT 10SM OVC017 09/07 A3007 RMK AO2 SLP187 T00890067 $=
202012312056 METAR KPWT 312056Z AUTO 24013KT 10SM BKN015 09/06 A3006 RMK AO2 SLP184 T00940061 51002 $=
202012311956 METAR KPWT 311956Z AUTO 22010KT 10SM OVC011 09/07 A3006 RMK AO2 SLP184 T00890072 $=
202012311952 SPECI KPWT 311952Z AUTO 22011G18KT 10SM OVC011 09/07 A3006 RMK AO2 $=
202012311856 METAR KPWT 311856Z AUTO 21010KT 10SM OVC009 09/07 A3005 RMK AO2 CIG 008V013 SLP182 T00890072 $=
202012311835 SPECI KPWT 311835Z AUTO 22008KT 10SM BKN009 08/07 A3005 RMK AO2 $=
202012311815 SPECI KPWT 311815Z AUTO 21009KT 10SM SCT009 08/07 A3005 RMK AO2 $=
202012311756 METAR KPWT 311756Z AUTO 21009KT 10SM OVC009 08/07 A3004 RMK AO2 CIG 008V013 SLP177 60000 T00830072 10083 20072 51045 $=
202012311728 SPECI KPWT 311728Z AUTO 21007KT 10SM BKN009 08/07 A3002 RMK AO2 $=
202012311720 SPECI KPWT 311720Z AUTO 20007KT 10SM SCT009 08/07 A3002 RMK AO2 $=
202012311656 METAR KPWT 311656Z AUTO 21006KT 10SM SCT011 07/07 A3000 RMK AO2 SLP163 T00720067 $=
202012311556 METAR KPWT 311556Z AUTO 23016KT 10SM BKN011 08/07 A2995 RMK AO2 RAE28 CIG 008V013 SLP147 P0000 T00780067 $=
202012311456 METAR KPWT 311456Z AUTO 21009KT 10SM -RA OVC007 08/07 A2990 RMK AO2 RAB42 SLP131 P0000 60000 T00780072 53035 $=
202012311356 METAR KPWT 311356Z AUTO 21009KT 10SM OVC007 08/08 A2986 RMK AO2 SLP119 T00830078 $=
202012311256 METAR KPWT 311256Z AUTO 20013G18KT 10SM OVC007 08/07 A2982 RMK AO2 CIG 005V011 SLP104 T00830072 $=
202012311156 METAR KPWT 311156Z AUTO 20014G22KT 10SM BKN007 OVC013 08/07 A2980 RMK AO2 PK WND 20028/1058 CIG 006V010 SLP095 60008 70117 T00780072 10078 20072 53019 $=
202012311056 METAR KPWT 311056Z AUTO 20016G25KT 10SM OVC009 08/07 A2977 RMK AO2 RAE49 CIG 007V013 SLP088 P0001 T00780072 $=
202012311005 SPECI KPWT 311005Z AUTO 20014G25KT 10SM -RA BKN007 OVC014 08/07 A2975 RMK AO2 CIG 006V010 P0000 $=
202012310956 METAR KPWT 310956Z AUTO 19017G25KT 10SM -RA SCT009 BKN012 OVC017 08/07 A2974 RMK AO2 SLP076 P0002 T00780072 $=
202012310856 METAR KPWT 310856Z AUTO 20014G21KT 10SM -RA OVC007 08/07 A2974 RMK AO2 CIG 006V010 SLP077 P0002 60005 T00780072 53006 $=
202012310806 SPECI KPWT 310806Z AUTO 19015G22KT 10SM -RA OVC007 08/07 A2973 RMK AO2 CIG 004V011 P0000 $=
202012310756 METAR KPWT 310756Z AUTO 17014G20KT 10SM -RA OVC005 08/07 A2972 RMK AO2 PK WND 21031/0701 CIG 004V008 SLP071 P0001 T00780072 400780039 $=
202012310656 METAR KPWT 310656Z AUTO 20015G20KT 10SM -RA OVC005 08/07 A2973 RMK AO2 CIG 004V007 SLP071 P0002 T00780072 $=
202012310556 METAR KPWT 310556Z AUTO 19013G20KT 10SM -RA OVC005 07/07 A2972 RMK AO2 CIG 004V008 SLP071 P0003 60037 T00720067 10072 20061 53002 $=
202012310456 METAR KPWT 310456Z AUTO 18008G15KT 5SM -RA BR OVC005 07/06 A2971 RMK AO2 SLP068 P0006 T00670061 $=
202012310356 METAR KPWT 310356Z AUTO 20012G16KT 10SM -RA OVC005 07/06 A2972 RMK AO2 SLP072 P0007 T00670061 $=
202012310319 SPECI KPWT 310319Z AUTO 19011G17KT 10SM -RA OVC005 07/06 A2972 RMK AO2 P0002 $=
202012310256 METAR KPWT 310256Z AUTO 18009G20KT 10SM -RA OVC007 07/06 A2972 RMK AO2 SLP069 P0008 60021 T00670056 55004 $=
202012310245 SPECI KPWT 310245Z AUTO 18011G19KT 10SM -RA OVC007 07/06 A2972 RMK AO2 CIG 003V011 P0007 $=
202012310221 SPECI KPWT 310221Z AUTO 21012KT 6SM -RA BR OVC005 06/06 A2972 RMK AO2 CIG 003V009 P0005 $=
202012310156 METAR KPWT 310156Z AUTO 22006KT 6SM -RA BR BKN007 OVC015 06/06 A2971 RMK AO2 CIG 005V010 SLP068 P0010 T00610056 $=
202012310126 SPECI KPWT 310126Z AUTO 00000KT 6SM -RA BR BKN007 BKN017 OVC023 06/06 A2970 RMK AO2 CIG 004V009 P0004 $=
202012310115 SPECI KPWT 310115Z AUTO 23005KT 8SM -RA SCT007 BKN017 OVC025 06/06 A2970 RMK AO2 P0002 $=
202012310056 METAR KPWT 310056Z AUTO VRB04KT 9SM -RA OVC025 06/06 A2971 RMK AO2 SLP065 P0003 T00610056 $=
202012302356 METAR KPWT 302356Z AUTO 19007KT 10SM -RA OVC019 06/05 A2973 RMK AO2 SLP073 P0002 60020 T00610050 10061 20050 56025 $=
202012302259 SPECI KPWT 302259Z AUTO 19007G15KT 10SM -RA FEW009 BKN015 OVC027 06/05 A2975 RMK AO2 P0000 $=
202012302256 METAR KPWT 302256Z AUTO 19009G18KT 10SM -RA SCT013 BKN017 OVC027 06/05 A2975 RMK AO2 SLP080 P0003 T00610050 $=
202012302249 SPECI KPWT 302249Z AUTO 20010G18KT 10SM -RA OVC013 06/05 A2975 RMK AO2 P0003 $=
202012302236 SPECI KPWT 302236Z AUTO 19010G22KT 9SM -RA SCT010 OVC015 06/05 A2976 RMK AO2 P0002 $=
202012302227 SPECI KPWT 302227Z AUTO 19011G18KT 10SM -RA BKN010 OVC015 06/05 A2976 RMK AO2 CIG 007V012 P0001 $=
202012302211 SPECI KPWT 302211Z AUTO 19008KT 10SM -RA SCT009 OVC015 06/05 A2977 RMK AO2 P0000 $=
202012302156 METAR KPWT 302156Z AUTO 19008G14KT 10SM -RA BKN009 OVC017 06/05 A2977 RMK AO2 CIG 006V013 SLP089 P0004 T00560050 $=
202012302128 SPECI KPWT 302128Z AUTO 20010G17KT 10SM -RA OVC009 06/05 A2979 RMK AO2 CIG 005V014 P0001 $=
202012302056 METAR KPWT 302056Z AUTO 21010G18KT 10SM -RA OVC011 06/05 A2980 RMK AO2 SLP098 P0002 60011 T00560050 57031 $=
202012302018 SPECI KPWT 302018Z AUTO 20011G19KT 10SM -RA OVC011 06/05 A2982 RMK AO2 P0001 $=
202012301956 METAR KPWT 301956Z AUTO 20013G16KT 10SM -RA OVC009 06/05 A2984 RMK AO2 CIG 005V012 SLP110 P0004 T00560050 $=
202012301856 METAR KPWT 301856Z AUTO 22011KT 10SM -RA OVC007 05/04 A2986 RMK AO2 CIG 005V009 SLP120 P0005 T00500044 $=
202012301756 METAR KPWT 301756Z AUTO 21016G25KT 5SM -RA BR BKN009 OVC014 05/04 A2990 RMK AO2 CIG 005V012 SLP132 P0021 60052 T00500039 10056 20039 56027 $=
202012301703 SPECI KPWT 301703Z AUTO 24005KT 9SM RA FEW004 BKN011 OVC016 04/04 A2990 RMK AO2 P0002 $=
202012301656 METAR KPWT 301656Z AUTO 25005KT 10SM -RA FEW004 BKN009 OVC013 05/04 A2990 RMK AO2 CIG 007V011 SLP131 P0003 T00500044 $=
202012301645 SPECI KPWT 301645Z AUTO 25004KT 10SM -RA SCT004 BKN011 OVC017 04/04 A2989 RMK AO2 P0002 $=
202012301635 SPECI KPWT 301635Z AUTO 22003KT 10SM -RA BKN004 BKN011 OVC022 04/04 A2989 RMK AO2 CIG 003V008 P0002 $=
202012301608 SPECI KPWT 301608Z AUTO 00000KT 4SM -RA BR SCT004 OVC016 04/04 A2993 RMK AO2 PRESFR P0001 $=
202012301556 METAR KPWT 301556Z AUTO 23004KT 5SM -RA BR BKN004 BKN010 OVC014 04/04 A2996 RMK AO2 CIG 003V007 SLP149 P0005 T00440039 $=
202012301456 METAR KPWT 301456Z AUTO 22006KT 7SM -RA OVC004 04/04 A2998 RMK AO2 SLP157 P0003 60023 T00390039 58027 $=
202012301439 SPECI KPWT 301439Z AUTO 21008KT 9SM -RA OVC004 04/04 A2998 RMK AO2 P0003 $=
202012301422 SPECI KPWT 301422Z AUTO 21008KT 7SM -RA BKN006 OVC011 04/04 A2999 RMK AO2 CIG 004V007 P0002 $=
202012301409 SPECI KPWT 301409Z AUTO 21009KT 6SM -RA BR SCT007 BKN012 OVC017 04/04 A3001 RMK AO2 P0002 $=
202012301356 METAR KPWT 301356Z AUTO 22009KT 8SM -RA BKN013 OVC018 04/04 A3002 RMK AO2 SLP171 P0010 T00440039 $=
202012301339 SPECI KPWT 301339Z AUTO 21008KT 8SM -RA FEW008 BKN014 OVC019 04/03 A3003 RMK AO2 P0008 $=
202012301256 METAR KPWT 301256Z AUTO 20012G17KT 8SM -RA FEW009 SCT020 OVC026 04/03 A3004 RMK AO2 SLP178 P0010 T00390033 $=
202012301229 SPECI KPWT 301229Z AUTO 22009KT 8SM -RA FEW005 BKN021 OVC027 04/03 A3005 RMK AO2 P0006 $=
202012301207 SPECI KPWT 301207Z AUTO 23010KT 10SM -RA SCT005 BKN010 OVC030 04/03 A3007 RMK AO2 P0002 $=
202012301156 METAR KPWT 301156Z AUTO 20008KT 10SM -RA BKN005 BKN013 OVC032 04/03 A3006 RMK AO2 SLP184 P0004 60015 70029 T00390033 10044 20033 58017 $=
202012301128 SPECI KPWT 301128Z AUTO 21007KT 7SM -RA BKN005 OVC028 04/03 A3008 RMK AO2 CIG 004V009 P0002 $=
202012301113 SPECI KPWT 301113Z AUTO 22008KT 7SM -RA BKN007 BKN012 OVC028 04/04 A3009 RMK AO2 CIG 005V009 P0002 $=
202012301106 SPECI KPWT 301106Z AUTO 20009KT 9SM -RA SCT007 SCT012 OVC030 04/04 A3009 RMK AO2 P0001 $=
202012301056 METAR KPWT 301056Z AUTO 21009KT 10SM -RA BKN007 BKN028 OVC036 04/04 A3009 RMK AO2 CIG 004V013 SLP196 P0003 T00390039 $=
202012301053 SPECI KPWT 301053Z AUTO 20008KT 10SM -RA BKN007 BKN012 OVC036 04/04 A3009 RMK AO2 CIG 004V009 P0003 $=
202012301015 SPECI KPWT 301015Z AUTO 20010KT 10SM -RA OVC005 04/04 A3011 RMK AO2 P0001 $=
202012300956 METAR KPWT 300956Z AUTO 21012KT 9SM -RA OVC007 04/04 A3011 RMK AO2 CIG 004V009 SLP204 P0001 T00440039 $=
202012300856 METAR KPWT 300856Z AUTO 22014KT 5SM -RA BR OVC007 04/03 A3012 RMK AO2 CIG 005V010 SLP205 P0003 60007 T00390033 58016 $=
202012300756 METAR KPWT 300756Z AUTO 22011G15KT 10SM -RA BKN007 OVC011 04/03 A3014 RMK AO2 CIG 005V009 SLP212 P0002 T00390033 400560028 $=
202012300712 SPECI KPWT 300712Z AUTO 19004KT 6SM -RA BR BKN006 BKN010 OVC027 03/03 A3015 RMK AO2 CIG 005V009 P0001 $=
202012300706 SPECI KPWT 300706Z AUTO 22007KT 7SM -RA SCT009 BKN017 OVC027 03/03 A3016 RMK AO2 P0001 $=
202012300656 METAR KPWT 300656Z AUTO 23009KT 10SM -RA FEW019 OVC027 03/03 A3017 RMK AO2 SLP221 P0002 T00330028 $=
202012300612 SPECI KPWT 300612Z AUTO 22009KT 10SM -RA FEW004 BKN027 OVC032 03/03 A3016 RMK AO2 P0001 $=
202012300604 SPECI KPWT 300604Z AUTO 21009KT 10SM -RA SCT004 SCT011 OVC031 03/03 A3017 RMK AO2 P0001 $=
202012300556 METAR KPWT 300556Z AUTO 22004KT 10SM -RA BKN004 OVC031 03/03 A3017 RMK AO2 CIG 003V008 SLP221 P0001 60014 T00330028 10033 20028 58016 $=
202012300543 SPECI KPWT 300543Z AUTO 22003KT 9SM -RA BKN004 OVC033 03/03 A3017 RMK AO2 P0001 $=
202012300506 SPECI KPWT 300506Z AUTO 22005KT 6SM -RA BR OVC002 03/03 A3019 RMK AO2 P0000 $=
202012300456 METAR KPWT 300456Z AUTO 22005KT 5SM -RA BR OVC004 03/03 A3019 RMK AO2 SLP228 P0003 T00330028 $=
202012300356 METAR KPWT 300356Z AUTO 00000KT 5SM -RA BR BKN004 OVC029 03/03 A3020 RMK AO2 SLP233 P0003 T00280028 $=
202012300346 SPECI KPWT 300346Z AUTO 22003KT 7SM -RA FEW006 OVC029 03/03 A3020 RMK AO2 P0002 $=
202012300256 METAR KPWT 300256Z AUTO 22003KT 5SM -RA BR OVC029 03/03 A3021 RMK AO2 SLP237 P0004 60007 T00330028 58011 $=
202012300207 SPECI KPWT 300207Z AUTO 00000KT 8SM -RA BKN029 OVC035 03/02 A3022 RMK AO2 P0001 $=
202012300156 METAR KPWT 300156Z AUTO 00000KT 7SM -RA OVC035 03/02 A3023 RMK AO2 UPB10E18 SLP243 P0003 T00280022 $=
202012300056 METAR KPWT 300056Z AUTO 00000KT 10SM -RA BKN041 03/02 A3025 RMK AO2 RAB02 SLP249 P0000 T00330022 $=
202012292356 METAR KPWT 292356Z AUTO 00000KT 6SM BR SCT049 BKN060 03/02 A3025 RMK AO2 RAB25E50 SLP251 P0000 60000 T00330017 10044 20033 56008 $=
202012292256 METAR KPWT 292256Z AUTO 20003KT 10SM SCT060 BKN070 03/01 A3025 RMK AO2 SLP251 T00330011 $=
202012292156 METAR KPWT 292156Z AUTO 21004KT 10SM OVC080 04/01 A3025 RMK AO2 SLP253 T00390011 $=
202012292056 METAR KPWT 292056Z AUTO 21008KT 10SM FEW011 03/01 A3027 RMK AO2 SLP259 T00330011 57006 $=
202012291956 METAR KPWT 291956Z AUTO 22005KT 10SM CLR 03/01 A3028 RMK AO2 SLP262 T00330011 $=
202012291856 METAR KPWT 291856Z AUTO VRB04KT 10SM FEW006 04/03 A3028 RMK AO2 SLP261 T00390028 $=
202012291840 SPECI KPWT 291840Z AUTO 20006KT 10SM SCT004 04/03 A3029 RMK AO2 $=
202012291756 METAR KPWT 291756Z AUTO 23007KT 10SM OVC004 04/03 A3029 RMK AO2 CIG 004V007 SLP264 T00440033 10050 20039 53009 $=
202012291703 SPECI KPWT 291703Z AUTO 18004KT 10SM BKN004 OVC011 04/03 A3028 RMK AO2 $=
202012291656 METAR KPWT 291656Z AUTO 17003KT 10SM BKN006 OVC011 04/03 A3027 RMK AO2 SLP257 T00440033 $=
202012291636 SPECI KPWT 291636Z AUTO 00000KT 10SM FEW004 OVC011 04/03 A3027 RMK AO2 $=
202012291556 METAR KPWT 291556Z AUTO 12003KT 10SM OVC013 04/03 A3027 RMK AO2 SLP258 T00440033 $=
202012291456 METAR KPWT 291456Z AUTO 00000KT 10SM OVC013 04/03 A3026 RMK AO2 SLP255 T00440033 53012 $=
202012291356 METAR KPWT 291356Z AUTO 00000KT 10SM OVC013 04/03 A3024 RMK AO2 SLP247 T00440033 $=
202012291256 METAR KPWT 291256Z AUTO 00000KT 10SM OVC013 04/03 A3024 RMK AO2 SLP246 T00440028 $=
202012291156 METAR KPWT 291156Z AUTO 05004KT 10SM OVC013 05/03 A3023 RMK AO2 SLP243 T00500028 10056 20044 51006 $=
202012291056 METAR KPWT 291056Z AUTO 02003KT 10SM OVC013 05/03 A3023 RMK AO2 SLP242 T00500033 $=
202012290956 METAR KPWT 290956Z AUTO 05005KT 10SM OVC011 05/03 A3022 RMK AO2 SLP239 T00500033 $=
202012290856 METAR KPWT 290856Z AUTO 00000KT 10SM OVC011 05/03 A3021 RMK AO2 SLP237 T00500033 51010 $=
202012290756 METAR KPWT 290756Z AUTO 36004KT 10SM OVC011 06/03 A3021 RMK AO2 SLP237 T00560033 400611011 $=
202012290656 METAR KPWT 290656Z AUTO 06004KT 10SM OVC013 06/04 A3019 RMK AO2 SLP230 T00560039 $=
202012290646 SPECI KPWT 290646Z AUTO 01005KT 10SM OVC013 06/04 A3020 RMK AO2 $=
202012290556 METAR KPWT 290556Z AUTO 04006KT 10SM OVC015 06/04 A3018 RMK AO2 SLP227 T00560039 10061 20056 50008 $=
202012290456 METAR KPWT 290456Z AUTO 04004KT 10SM OVC015 06/04 A3018 RMK AO2 SLP227 T00560039 $=
202012290356 METAR KPWT 290356Z AUTO 04005KT 10SM OVC017 06/04 A3017 RMK AO2 SLP224 T00560039 $=
202012290256 METAR KPWT 290256Z AUTO 03005KT 10SM OVC015 06/04 A3016 RMK AO2 SLP220 T00560039 51010 $=
202012290156 METAR KPWT 290156Z AUTO 03006KT 10SM OVC017 06/03 A3015 RMK AO2 SLP217 T00560033 $=
202012290056 METAR KPWT 290056Z AUTO 02006KT 10SM OVC019 06/03 A3014 RMK AO2 SLP214 T00610033 $=
202012282356 METAR KPWT 282356Z AUTO 02006KT 10SM OVC015 06/04 A3012 RMK AO2 SLP209 T00610039 10061 20039 53006 $=
202012282315 SPECI KPWT 282315Z AUTO 02005KT 10SM OVC015 06/04 A3012 RMK AO2 $=
202012282256 METAR KPWT 282256Z AUTO 02007KT 10SM OVC013 06/04 A3012 RMK AO2 SLP204 T00610044 $=
202012282156 METAR KPWT 282156Z AUTO 04007KT 10SM OVC011 06/04 A3011 RMK AO2 SLP201 T00610044 $=
202012282130 SPECI KPWT 282130Z AUTO 03007KT 10SM OVC011 06/04 A3011 RMK AO2 CIG 008V014 $=
202012282056 METAR KPWT 282056Z AUTO 04008KT 10SM OVC009 06/04 A3011 RMK AO2 CIG 007V013 SLP202 T00610044 58002 $=
202012281956 METAR KPWT 281956Z AUTO 03007KT 10SM OVC007 06/04 A3011 RMK AO2 SLP203 T00560044 $=
202012281856 METAR KPWT 281856Z AUTO 03008KT 10SM OVC007 05/04 A3011 RMK AO2 SLP205 T00500039 $=
202012281756 METAR KPWT 281756Z AUTO 04010G15KT 10SM OVC005 04/04 A3010 RMK AO2 SLP202 T00390039 10039 20022 53007 $=
202012281749 SPECI KPWT 281749Z AUTO 04011KT 10SM BKN005 04/04 A3010 RMK AO2 CIG 003V008 $=
202012281656 METAR KPWT 281656Z AUTO 04011KT 10SM OVC003 04/03 A3009 RMK AO2 SLP199 T00390033 $=
202012281556 METAR KPWT 281556Z AUTO 04010KT 4SM BR OVC003 03/03 A3008 RMK AO2 SLP195 T00330033 $=
202012281554 SPECI KPWT 281554Z AUTO 04010KT 3SM BR OVC003 03/03 A3008 RMK AO2 $=
202012281533 SPECI KPWT 281533Z AUTO 04013KT 2SM BR BKN003 03/03 A3008 RMK AO2 $=
202012281530 SPECI KPWT 281530Z AUTO 04012KT 3SM BR SCT003 03/03 A3008 RMK AO2 $=
202012281456 METAR KPWT 281456Z AUTO 05009KT 10SM CLR 03/02 A3008 RMK AO2 SLP195 T00280022 51006 $=
202012281356 METAR KPWT 281356Z AUTO 05009KT 10SM CLR 03/02 A3008 RMK AO2 SLP193 T00280022 $=
202012281256 METAR KPWT 281256Z AUTO 05008KT 10SM CLR 03/03 A3007 RMK AO2 SLP189 T00280028 $=
202012281156 METAR KPWT 281156Z AUTO 04007KT 10SM CLR 03/03 A3006 RMK AO2 SLP187 7//// T00280028 10028 21011 50003 $=
202012281056 METAR KPWT 281056Z AUTO 04004KT 10SM CLR 02/02 A3006 RMK AO2 SLP188 T00170017 FZRANO $=
202012280956 METAR KPWT 280956Z AUTO 05007KT 10SM CLR 01/01 A3005 RMK AO2 SLP185 T00110011 FZRANO $=
202012280856 METAR KPWT 280856Z AUTO 04003KT 10SM CLR M01/M01 A3005 RMK AO2 SLP184 T10061006 58001 FZRANO $=
202012280812 SPECI KPWT 280812Z AUTO 00000KT 4SM BR CLR M01/M01 A3006 RMK AO2 FZRANO $=
202012280810 SPECI KPWT 280810Z AUTO 04003KT 1 1/2SM BR CLR M01/M01 A3006 RMK AO2 FZRANO $=
202012280803 SPECI KPWT 280803Z AUTO 04003KT 3/4SM BR CLR M01/M01 A3006 RMK AO2 VIS 1/4V4 FZRANO $=
202012280800 SPECI KPWT 280800Z AUTO 00000KT 1 1/2SM BR CLR M01/M01 A3006 RMK AO2 VIS 1/4V4 FZRANO $=
202012280758 SPECI KPWT 280758Z AUTO 00000KT 3SM BR CLR M01/M01 A3006 RMK AO2 FZRANO $=
202012280756 METAR KPWT 280756Z AUTO 00000KT 1 3/4SM BR CLR M01/M01 A3006 RMK AO2 SLP186 T10061006 400831011 FZRANO $=
202012280753 SPECI KPWT 280753Z AUTO 00000KT 3/4SM BR CLR M01/M01 A3006 RMK AO2 400831011 FZRANO $=
202012280746 SPECI KPWT 280746Z AUTO 00000KT 1SM BR CLR M01/M01 A3006 RMK AO2 VIS 1/4V5 FZRANO $=
202012280719 SPECI KPWT 280719Z AUTO 00000KT 3SM BR CLR M01/M01 A3006 RMK AO2 FZRANO $=
202012280717 SPECI KPWT 280717Z AUTO 00000KT 1 1/4SM BR CLR M01/M01 A3006 RMK AO2 FZRANO $=
202012280715 SPECI KPWT 280715Z AUTO 00000KT 3/4SM BR CLR M01/M01 A3006 RMK AO2 FZRANO $=
202012280708 SPECI KPWT 280708Z AUTO 00000KT 1/4SM FZFG CLR M01/M01 A3006 RMK AO2 FZRANO $=
202012280702 SPECI KPWT 280702Z AUTO 00000KT 3/4SM BR CLR M01/M01 A3006 RMK AO2 FZRANO $=
202012280656 METAR KPWT 280656Z AUTO 00000KT 1 3/4SM BR CLR M01/M01 A3006 RMK AO2 VIS 1/2V5 SLP185 T10111011 FZRANO $=
202012280647 SPECI KPWT 280647Z AUTO 00000KT 4SM BR CLR 00/00 A3005 RMK AO2 FZRANO $=
202012280645 SPECI KPWT 280645Z AUTO 00000KT 1 1/4SM BR CLR 01/01 A3005 RMK AO2 FZRANO $=
202012280639 SPECI KPWT 280639Z AUTO 00000KT 3/4SM BR CLR 01/01 A3005 RMK AO2 VIS 1/4V5 FZRANO $=
202012280628 SPECI KPWT 280628Z AUTO 00000KT 1/4SM FZFG CLR M01/M01 A3005 RMK AO2 FZRANO $=
202012280556 METAR KPWT 280556Z AUTO 00000KT 1/2SM FZFG CLR M01/M01 A3005 RMK AO2 SLP182 6//// T10061006 10067 21006 51000 FZRANO $=
202012280554 SPECI KPWT 280554Z AUTO 00000KT 1/2SM FZFG CLR M01/M01 A3005 RMK AO2 FZRANO $=
202012280547 SPECI KPWT 280547Z AUTO 00000KT 3/4SM BR CLR M01/M01 A3005 RMK AO2 FZRANO $=
202012280542 SPECI KPWT 280542Z AUTO 00000KT 1 3/4SM BR CLR M01/M01 A3005 RMK AO2 FZRANO $=
202012280536 SPECI KPWT 280536Z AUTO 00000KT 6SM BR CLR M01/M01 A3005 RMK AO2 FZRANO $=
202012280528 SPECI KPWT 280528Z AUTO 00000KT 2SM BR CLR 00/00 A3005 RMK AO2 FZRANO $=
202012280525 SPECI KPWT 280525Z AUTO 00000KT 3/4SM BR CLR 00/00 A3005 RMK AO2 FZRANO $=
202012280456 METAR KPWT 280456Z AUTO 00000KT 1/4SM FG CLR 00/00 A3005 RMK AO2 SLP182 T00000000 FZRANO $=
202012280453 SPECI KPWT 280453Z AUTO 00000KT 1/4SM FG CLR 00/00 A3005 RMK AO2 FZRANO $=
202012280442 SPECI KPWT 280442Z AUTO 00000KT 1/2SM FZFG CLR M01/M01 A3005 RMK AO2 VIS 1/4V2 1/2 FZRANO $=
202012280437 SPECI KPWT 280437Z AUTO 00000KT 1 3/4SM BR CLR M01/M01 A3005 RMK AO2 VIS 1/2V5 FZRANO $=
202012280424 SPECI KPWT 280424Z AUTO 00000KT 10SM CLR M01/M01 A3005 RMK AO2 FZRANO $=
202012280415 SPECI KPWT 280415Z AUTO 00000KT 2SM BR CLR M01/M01 A3005 RMK AO2 FZRANO $=
202012280405 SPECI KPWT 280405Z AUTO 00000KT 1SM BR CLR 00/M01 A3004 RMK AO2 VIS 1/2V5 FZRANO $=
202012280356 METAR KPWT 280356Z AUTO 00000KT 1/2SM FG CLR 00/00 A3004 RMK AO2 SLP180 T00000000 FZRANO $=
202012280353 SPECI KPWT 280353Z AUTO 00000KT 1/2SM FG CLR 00/00 A3004 RMK AO2 FZRANO $=
202012280314 SPECI KPWT 280314Z AUTO 00000KT 1/4SM FG CLR 02/02 A3004 RMK AO2 FZRANO $=
202012280305 SPECI KPWT 280305Z AUTO 00000KT 1/2SM FG CLR 01/01 A3004 RMK AO2 FZRANO $=
202012280301 SPECI KPWT 280301Z AUTO 00000KT 1SM BR CLR 02/01 A3004 RMK AO2 VIS 1/2V5 FZRANO $=
202012280256 METAR KPWT 280256Z AUTO 00000KT 2 1/2SM BR CLR 02/02 A3003 RMK AO2 VIS 1V5 SLP177 T00170017 55001 FZRANO $=
202012280251 SPECI KPWT 280251Z AUTO 00000KT 2 1/2SM BR CLR 02/02 A3003 RMK AO2 VIS 1V5 FZRANO $=
202012280245 SPECI KPWT 280245Z AUTO 00000KT 3/4SM BR CLR 02/02 A3003 RMK AO2 VIS 1/4V5 FZRANO $=
202012280223 SPECI KPWT 280223Z AUTO 00000KT 1/4SM FG CLR 02/02 A3004 RMK AO2 FZRANO $=
202012280215 SPECI KPWT 280215Z AUTO 00000KT 1/2SM FG CLR 02/02 A3003 RMK AO2 FZRANO $=
202012280156 METAR KPWT 280156Z AUTO 00000KT 1/4SM FG CLR 02/02 A3003 RMK AO2 SLP176 T00220022 FZRANO $=
202012280142 SPECI KPWT 280142Z AUTO 00000KT 1/4SM FG CLR 02/02 A3003 RMK AO2 FZRANO $=
202012280131 SPECI KPWT 280131Z AUTO 00000KT 1/2SM FG CLR 02/02 A3003 RMK AO2 FZRANO $=
202012280122 SPECI KPWT 280122Z AUTO 00000KT 1/4SM FG CLR 03/03 A3004 RMK AO2 $=
202012280056 METAR KPWT 280056Z AUTO 00000KT 1/4SM FG VV001 04/04 A3004 RMK AO2 SLP178 T00440039 $=
202012280033 SPECI KPWT 280033Z AUTO 00000KT 1/2SM FG VV001 04/04 A3004 RMK AO2 $=
202012280027 SPECI KPWT 280027Z AUTO 01003KT 3/4SM BR CLR 04/04 A3004 RMK AO2 $=
202012280025 SPECI KPWT 280025Z AUTO 00000KT 1 1/2SM BR CLR 04/04 A3004 RMK AO2 $=
202012280023 SPECI KPWT 280023Z AUTO 00000KT 3SM BR CLR 04/04 A3004 RMK AO2 $=
202012280014 SPECI KPWT 280014Z AUTO 00000KT 2SM BR FEW060 06/05 A3003 RMK AO2 $=
202012272356 METAR KPWT 272356Z AUTO 00000KT 10SM SCT060 07/06 A3004 RMK AO2 SLP178 60003 T00670061 10083 20056 55005 $=
202012272256 METAR KPWT 272256Z AUTO 00000KT 10SM FEW060 08/07 A3004 RMK AO2 RAB08E49 SLP177 P0001 T00780067 $=
202012272156 METAR KPWT 272156Z AUTO 00000KT 10SM OVC060 07/06 A3004 RMK AO2 RAB29E45 SLP179 P0000 T00720061 $=
202012272056 METAR KPWT 272056Z AUTO 33003KT 10SM BKN060 07/06 A3005 RMK AO2 SLP183 60002 T00720056 56015 $=
202012271956 METAR KPWT 271956Z AUTO 30003KT 10SM OVC055 06/06 A3006 RMK AO2 RAE12 SLP187 P0000 T00610056 $=
202012271856 METAR KPWT 271856Z AUTO 32006KT 10SM -RA FEW036 06/06 A3008 RMK AO2 SLP194 P0002 T00610056 $=
202012271756 METAR KPWT 271756Z AUTO 32004KT 10SM -RA CLR 06/06 A3010 RMK AO2 SLP199 P0008 60021 T00560056 10061 20050 51006 $=
202012271731 SPECI KPWT 271731Z AUTO 01003KT 7SM -RA SCT024 BKN034 06/06 A3010 RMK AO2 P0005 $=
202012271710 SPECI KPWT 271710Z AUTO 00000KT 9SM -RA BKN024 OVC032 06/05 A3010 RMK AO2 P0002 $=
202012271656 METAR KPWT 271656Z AUTO 00000KT 8SM -RA FEW024 OVC032 06/06 A3010 RMK AO2 SLP199 P0007 T00560056 $=
202012271638 SPECI KPWT 271638Z AUTO 00000KT 6SM -RA BR OVC030 06/05 A3010 RMK AO2 P0004 $=
202012271621 SPECI KPWT 271621Z AUTO 21003KT 9SM -RA BKN028 OVC033 06/05 A3009 RMK AO2 P0002 $=
202012271556 METAR KPWT 271556Z AUTO 00000KT 10SM -RA BKN032 OVC041 06/06 A3009 RMK AO2 SLP196 P0004 T00560056 $=
202012271456 METAR KPWT 271456Z AUTO 00000KT 5SM -RA BR CLR 05/05 A3008 RMK AO2 SLP193 P0002 60002 T00500050 55000 $=
202012271356 METAR KPWT 271356Z AUTO 00000KT 9SM -RA OVC030 06/05 A3008 RMK AO2 RAB46 SLP192 P0000 T00560050 $=
202012271344 SPECI KPWT 271344Z AUTO 00000KT 10SM OVC030 06/05 A3008 RMK AO2 $=
202012271337 SPECI KPWT 271337Z AUTO 06003KT 2SM BR OVC030 05/05 A3007 RMK AO2 $=
202012271334 SPECI KPWT 271334Z AUTO 05003KT 1SM BR OVC030 05/05 A3007 RMK AO2 $=
202012271326 SPECI KPWT 271326Z AUTO 00000KT 1 1/2SM BR OVC030 05/05 A3007 RMK AO2 $=
202012271315 SPECI KPWT 271315Z AUTO 00000KT 8SM OVC030 06/05 RMK AO2 $=
202012271256 METAR KPWT 271256Z AUTO 00000KT 4SM BR OVC028 06/05 A3008 RMK AO2 SLP191 T00560050 $=
202012271156 METAR KPWT 271156Z AUTO 20003KT 10SM BKN026 OVC034 06/06 A3008 RMK AO2 RAE02B27E40 SLP193 P0001 60015 70032 T00610056 10061 20050 58000 $=
202012271056 METAR KPWT 271056Z AUTO 00000KT 10SM -RA OVC027 06/05 A3009 RMK AO2 RAB0959E23B47 SLP194 P0000 T00560050 $=
202012271030 SPECI KPWT 271030Z AUTO 00000KT 9SM FEW004 OVC027 06/06 A3008 RMK AO2 RAB0959E23 P0000 $=
202012270956 METAR KPWT 270956Z AUTO 00000KT 10SM BKN018 BKN029 OVC033 06/06 A3008 RMK AO2 RAE44 SLP192 P0001 T00560056 $=
202012270856 METAR KPWT 270856Z AUTO 00000KT 10SM -RA BKN018 OVC031 06/06 A3008 RMK AO2 RAB48 SLP193 P0001 60013 T00560056 58001 $=
202012270810 SPECI KPWT 270810Z AUTO 00000KT 8SM FEW003 BKN015 OVC020 06/06 A3009 RMK AO2 P0001 $=
202012270802 SPECI KPWT 270802Z AUTO 00000KT 8SM BKN003 BKN007 OVC024 06/06 A3009 RMK AO2 CIG 003V006 $=
202012270756 METAR KPWT 270756Z AUTO 22003KT 6SM BR FEW003 BKN016 OVC024 06/06 A3009 RMK AO2 RAE47 SLP195 P0002 T00560056 400940044 $=
202012270738 SPECI KPWT 270738Z AUTO 23003KT 6SM -RA BR SCT004 BKN016 OVC036 06/06 A3009 RMK AO2 P0002 $=
202012270708 SPECI KPWT 270708Z AUTO 21003KT 5SM -RA BR BKN004 BKN009 OVC027 06/06 A3009 RMK AO2 P0001 $=
202012270656 METAR KPWT 270656Z AUTO 22003KT 5SM -RA BR SCT006 BKN024 OVC031 06/06 A3009 RMK AO2 SLP196 P0010 T00560056 $=
202012270648 SPECI KPWT 270648Z AUTO 22005KT 5SM -RA BR FEW006 BKN022 OVC027 06/06 A3010 RMK AO2 P0009 $=
202012270618 SPECI KPWT 270618Z AUTO 22004KT 9SM -RA FEW016 BKN026 OVC033 05/05 A3009 RMK AO2 P0002 $=
202012270556 METAR KPWT 270556Z AUTO 23003KT 10SM -RA OVC035 06/05 A3009 RMK AO2 SLP195 P0001 60002 T00560050 10078 20044 55001 $=
202012270456 METAR KPWT 270456Z AUTO 18003KT 10SM -RA SCT043 BKN060 06/05 A3008 RMK AO2 RAB0357E11B50 SLP194 P0000 T00560050 $=
202012270356 METAR KPWT 270356Z AUTO 17004KT 8SM FEW024 SCT028 BKN035 06/05 A3008 RMK AO2 RAE08 SLP193 P0000 T00560050 $=
202012270321 SPECI KPWT 270321Z AUTO 00000KT 10SM FEW024 BKN030 BKN037 05/04 A3008 RMK AO2 RAE08 P0000 $=
202012270303 SPECI KPWT 270303Z AUTO 00000KT 10SM -RA BKN024 BKN029 BKN034 05/04 A3009 RMK AO2 P0000 $=
202012270256 METAR KPWT 270256Z AUTO 16003KT 5SM -RA BR SCT022 SCT026 BKN036 05/04 A3009 RMK AO2 RAB43 SLP196 P0001 60001 T00500044 51013 $=
202012270156 METAR KPWT 270156Z AUTO 17004KT 10SM CLR 05/04 A3008 RMK AO2 SLP193 T00500039 $=
202012270056 METAR KPWT 270056Z AUTO 19005KT 10SM CLR 06/04 A3007 RMK AO2 SLP189 T00560039 $=
202012262356 METAR KPWT 262356Z AUTO 20011G18KT 10SM FEW025 SCT060 08/04 A3005 RMK AO2 RAB45E56 SLP182 P0000 60002 T00780044 10094 20056 53026 $=
202012262256 METAR KPWT 262256Z AUTO 21011KT 10SM CLR 08/05 A3002 RMK AO2 SLP172 T00780050 $=
202012262156 METAR KPWT 262156Z AUTO 21013G18KT 10SM FEW017 SCT031 SCT055 08/05 A2999 RMK AO2 RAB37E52 SLP161 P0001 T00780050 $=
202012262056 METAR KPWT 262056Z AUTO 21014G20KT 10SM CLR 09/06 A2997 RMK AO2 SLP155 60001 T00890061 53016 $=
202012262041 SPECI KPWT 262041Z AUTO 21013KT 10SM FEW009 SCT014 08/07 A2997 RMK AO2 $=
202012261956 METAR KPWT 261956Z AUTO 19015G22KT 10SM BKN007 BKN011 OVC016 07/07 A2995 RMK AO2 RAB00E54 CIG 003V010 SLP148 P0001 T00720067 $=
202012261944 SPECI KPWT 261944Z AUTO 20012G20KT 10SM -RA BKN007 OVC011 07/06 A2995 RMK AO2 RAB00 CIG 003V009 P0001 $=
202012261856 METAR KPWT 261856Z AUTO 19011G16KT 10SM OVC004 07/06 A2994 RMK AO2 RAE19B38E55 SLP144 P0000 T00670061 $=
202012261844 SPECI KPWT 261844Z AUTO 19011KT 10SM -RA BKN004 OVC023 07/06 A2993 RMK AO2 RAE19B38 P0000 $=
202012261837 SPECI KPWT 261837Z AUTO 20008G16KT 10SM SCT006 BKN020 OVC026 07/06 A2993 RMK AO2 RAE19 P0000 $=
202012261823 SPECI KPWT 261823Z AUTO 19009KT 10SM BKN026 BKN034 OVC041 06/06 A2993 RMK AO2 RAE19 P0000 $=
202012261807 SPECI KPWT 261807Z AUTO 20009KT 10SM -RA FEW009 SCT026 BKN033 06/06 A2993 RMK AO2 P0000 $=
202012261756 METAR KPWT 261756Z AUTO 22013G19KT 5SM -RA BR SCT007 BKN022 OVC035 06/05 A2993 RMK AO2 RAB00 SLP140 P0011 60013 T00560050 10067 20056 53040 $=
202012261732 SPECI KPWT 261732Z AUTO 23010KT 6SM -RA BR BKN007 OVC021 06/06 A2991 RMK AO2 RAB00 CIG 006V011 P0002 $=
202012261723 SPECI KPWT 261723Z AUTO 23010KT 9SM -RA SCT007 BKN021 07/06 A2991 RMK AO2 RAB00 P0000 $=
202012261656 METAR KPWT 261656Z AUTO 20013KT 10SM FEW020 BKN026 OVC034 07/06 A2988 RMK AO2 SLP124 T00670056 $=
202012261611 SPECI KPWT 261611Z AUTO 19011G17KT 10SM FEW016 BKN022 OVC033 07/06 A2984 RMK AO2 $=
202012261556 METAR KPWT 261556Z AUTO 20011KT 10SM FEW011 SCT026 OVC033 06/06 A2983 RMK AO2 RAB01E11 SLP108 P0001 T00610056 $=
202012261524 SPECI KPWT 261524Z AUTO 19011G16KT 10SM SCT010 BKN015 OVC026 07/06 A2981 RMK AO2 RAB01E11 P0001 $=
202012261508 SPECI KPWT 261508Z AUTO 19011G16KT 10SM -RA BKN008 OVC015 07/06 A2981 RMK AO2 RAB01 CIG 007V012 P0001 $=
202012261456 METAR KPWT 261456Z AUTO 19009KT 10SM BKN010 BKN015 OVC024 07/06 A2981 RMK AO2 RAE1358 CIG 007V012 SLP099 P0000 60001 T00670061 53024 $=
202012261446 SPECI KPWT 261446Z AUTO 19009G16KT 10SM FEW008 BKN013 OVC026 07/06 A2980 RMK AO2 RAE1358 P0000 $=
202012261434 SPECI KPWT 261434Z AUTO 19011KT 10SM BKN008 BKN014 OVC026 07/06 A2979 RMK AO2 RAE1358 CIG 005V011 P0000 $=
202012261356 METAR KPWT 261356Z AUTO 18014G20KT 10SM -RA FEW007 SCT011 OVC022 07/06 A2977 RMK AO2 RAE06B45 SLP087 P0000 T00670061 $=
202012261303 SPECI KPWT 261303Z AUTO 19008G17KT 10SM -RA BKN007 OVC013 07/06 A2974 RMK AO2 CIG 004V011 P0000 $=
202012261256 METAR KPWT 261256Z AUTO 19010G17KT 10SM -RA SCT007 BKN010 OVC015 07/06 A2974 RMK AO2 CIG 008V012 SLP076 P0001 T00670061 $=
202012261242 SPECI KPWT 261242Z AUTO 20010G20KT 8SM -RA BKN009 BKN015 OVC020 07/06 A2973 RMK AO2 CIG 005V012 P0001 $=
202012261206 SPECI KPWT 261206Z AUTO 19011G18KT 10SM -RA SCT006 BKN020 OVC044 07/06 A2971 RMK AO2 P0000 $=
202012261156 METAR KPWT 261156Z AUTO 19013G21KT 10SM -RA BKN006 BKN022 OVC033 07/06 A2970 RMK AO2 RAB1057 CIG 003V009 SLP065 P0008 60012 70093 T00670061 10072 20044 53023 $=
202012261056 METAR KPWT 261056Z AUTO 20015G21KT 7SM BKN008 OVC016 07/07 A2968 RMK AO2 RAE32 CIG 006V011 SLP055 P0001 T00720067 $=
202012261023 SPECI KPWT 261023Z AUTO 19011G20KT 9SM -RA BKN008 BKN012 OVC027 07/07 A2967 RMK AO2 CIG 005V009 P0001 $=
202012261010 SPECI KPWT 261010Z AUTO 19013KT 10SM SCT008 BKN012 OVC029 07/07 A2967 RMK AO2 RAE09 P0000 $=
202012260956 METAR KPWT 260956Z AUTO 19011G18KT 10SM -RA SCT010 BKN028 OVC033 07/07 A2966 RMK AO2 RAB22 SLP049 P0000 T00720067 $=
202012260946 SPECI KPWT 260946Z AUTO 19011G20KT 10SM -RA SCT010 SCT023 OVC032 07/06 A2966 RMK AO2 RAB22 P0000 $=
202012260856 METAR KPWT 260856Z AUTO 19011G17KT 10SM OVC008 07/06 A2964 RMK AO2 CIG 005V012 SLP041 60003 T00670061 53001 $=
202012260756 METAR KPWT 260756Z AUTO 19009KT 10SM OVC006 06/05 A2963 RMK AO2 RAB09E28 CIG 003V010 SLP039 P0000 T00560050 400721017 $=
202012260749 SPECI KPWT 260749Z AUTO 19005KT 10SM BKN006 BKN016 OVC040 06/05 A2962 RMK AO2 RAB09E28 CIG 003V010 P0000 $=
202012260739 SPECI KPWT 260739Z AUTO 18005KT 10SM SCT004 BKN016 OVC038 05/05 A2963 RMK AO2 RAB09E28 P0000 $=
202012260656 METAR KPWT 260656Z AUTO 00000KT 10SM SCT003 SCT020 OVC040 05/04 A2963 RMK AO2 RAE50 SLP040 P0003 T00500044 $=
202012260652 SPECI KPWT 260652Z AUTO 18003KT 10SM FEW003 SCT022 OVC040 04/04 A2963 RMK AO2 RAE50 P0003 $=
202012260556 METAR KPWT 260556Z AUTO 00000KT 8SM -RA FEW007 OVC020 04/04 A2963 RMK AO2 SLP039 P0002 60055 T00440039 10056 20039 53005 $=
202012260542 SPECI KPWT 260542Z AUTO 00000KT 3SM -RA BR SCT007 OVC020 04/04 A2962 RMK AO2 P0002 $=
202012260456 METAR KPWT 260456Z AUTO 00000KT 8SM -RA OVC024 04/04 A2962 RMK AO2 SLP036 P0003 T00440039 $=
202012260356 METAR KPWT 260356Z AUTO 00000KT 3SM -RA BR SCT020 BKN027 04/04 A2961 RMK AO2 SLP033 P0011 T00440039 $=
202012260315 SPECI KPWT 260315Z AUTO 36003KT 6SM -RA BR SCT024 04/04 A2961 RMK AO2 P0004 $=
202012260256 METAR KPWT 260256Z AUTO 04003KT 4SM -RA BR FEW006 BKN026 OVC032 04/04 A2961 RMK AO2 SLP033 P0015 60039 T00440039 56017 $=
202012260238 SPECI KPWT 260238Z AUTO 07004KT 5SM RA BR FEW004 BKN027 OVC033 04/04 A2961 RMK AO2 P0011 $=
202012260156 METAR KPWT 260156Z AUTO 04006KT 5SM RA BR FEW029 SCT037 04/04 A2962 RMK AO2 SLP036 P0014 T00390039 $=
202012260056 METAR KPWT 260056Z AUTO 36004KT 10SM -RA FEW030 SCT038 04/03 A2964 RMK AO2 SLP043 P0010 T00390033 $=
202012252356 METAR KPWT 252356Z AUTO 09004KT 7SM -RA BKN038 05/04 A2966 RMK AO2 SLP050 P0010 60021 T00500044 10072 20044 56026 $=
202012252256 METAR KPWT 252256Z AUTO 33003KT 10SM -RA OVC039 04/04 A2968 RMK AO2 SLP058 P0010 T00440044 $=
202012252156 METAR KPWT 252156Z AUTO 21003KT 10SM -RA OVC045 06/04 A2971 RMK AO2 SLP065 P0001 T00560039 $=
202012252056 METAR KPWT 252056Z AUTO 12003KT 10SM -RA FEW055 06/05 A2974 RMK AO2 RAE07B54 SLP076 P0000 60000 T00610050 58030 $=
202012251956 METAR KPWT 251956Z AUTO 00000KT 10SM -RA FEW060 06/05 A2978 RMK AO2 RAB24 SLP091 P0000 T00560050 $=
202012251856 METAR KPWT 251856Z AUTO 00000KT 10SM CLR 05/04 A2981 RMK AO2 SLP103 T00500044 $=
202012251756 METAR KPWT 251756Z AUTO 00000KT 10SM CLR 05/04 A2983 RMK AO2 SLP108 60005 T00500044 10050 20006 55012 $=
202012251656 METAR KPWT 251656Z AUTO 13003KT 10SM CLR 04/04 A2981 RMK AO2 RAE22 SLP103 P0001 T00440039 $=
202012251556 METAR KPWT 251556Z AUTO 00000KT 10SM -RA FEW038 03/03 A2983 RMK AO2 SLP111 P0002 T00280028 $=
202012251456 METAR KPWT 251456Z AUTO 18003KT 8SM -RA SCT038 OVC049 02/02 A2986 RMK AO2 SLP121 P0002 60002 T00220017 56010 FZRANO $=
202012251356 METAR KPWT 251356Z AUTO 00000KT 8SM -RA FEW028 SCT043 BKN049 02/01 A2986 RMK AO2 RAB38 SLP121 P0000 T00170011 FZRANO $=
202012251256 METAR KPWT 251256Z AUTO 00000KT 10SM OVC048 01/01 A2988 RMK AO2 SLP127 T00110006 FZRANO $=
202012251156 METAR KPWT 251156Z AUTO 00000KT 10SM SCT050 BKN075 01/00 A2989 RMK AO2 SLP130 T00060000 10006 21022 58015 FZRANO $=
202012251056 METAR KPWT 251056Z AUTO 19004KT 10SM BKN070 00/M01 A2992 RMK AO2 SLP139 T00001006 FZRANO $=
202012250956 METAR KPWT 250956Z AUTO 21004KT 10SM BKN110 01/00 A2994 RMK AO2 SLP145 T00060000 FZRANO $=
202012250856 METAR KPWT 250856Z AUTO 00000KT 10SM CLR M01/M02 A2993 RMK AO2 SLP145 T10111017 56009 FZRANO $=
202012250756 METAR KPWT 250756Z AUTO 00000KT 10SM CLR M02/M02 A2994 RMK AO2 SLP147 T10171022 400721056 FZRANO $=
202012250656 METAR KPWT 250656Z AUTO 00000KT 10SM CLR M01/M02 A2995 RMK AO2 SLP149 T10111017 FZRANO $=
202012250556 METAR KPWT 250556Z AUTO 00000KT 10SM CLR M02/M02 A2996 RMK AO2 SLP155 T10171022 10039 21022 58019 FZRANO $=
202012250456 METAR KPWT 250456Z AUTO 00000KT 10SM CLR M02/M02 A2999 RMK AO2 SLP166 T10171022 FZRANO $=
202012250356 METAR KPWT 250356Z AUTO 00000KT 10SM CLR M02/M02 A3000 RMK AO2 SLP170 T10221022 FZRANO $=
202012250256 METAR KPWT 250256Z AUTO 00000KT 10SM CLR M01/M02 A3002 RMK AO2 SLP175 T10111017 58017 FZRANO $=
202012250156 METAR KPWT 250156Z AUTO 00000KT 10SM CLR M01/M02 A3004 RMK AO2 SLP181 T10111017 FZRANO $=
202012250056 METAR KPWT 250056Z AUTO 00000KT 10SM CLR M01/M01 A3006 RMK AO2 SLP187 T10061011 FZRANO $=
202012242356 METAR KPWT 242356Z AUTO 00000KT 10SM CLR 04/01 A3007 RMK AO2 SLP191 T00390006 10072 20017 56017 $=
202012242256 METAR KPWT 242256Z AUTO 00000KT 10SM CLR 06/01 A3008 RMK AO2 SLP194 T00560011 $=
202012242156 METAR KPWT 242156Z AUTO 23005KT 10SM CLR 07/M01 A3010 RMK AO2 SLP199 T00721006 $=
202012242056 METAR KPWT 242056Z AUTO 00000KT 10SM CLR 04/01 A3012 RMK AO2 SLP208 T00440006 58017 $=
202012241956 METAR KPWT 241956Z AUTO 00000KT 10SM CLR 04/01 A3015 RMK AO2 SLP217 T00440011 $=
202012241856 METAR KPWT 241856Z AUTO 00000KT 10SM CLR 03/02 A3017 RMK AO2 SLP225 T00330017 $=
202012241756 METAR KPWT 241756Z AUTO 00000KT 10SM CLR 03/02 A3017 RMK AO2 SLP226 T00280017 10028 21056 55004 $=
202012241656 METAR KPWT 241656Z AUTO 00000KT 10SM CLR M02/M02 A3017 RMK AO2 SLP226 T10171017 FZRANO $=
202012241556 METAR KPWT 241556Z AUTO 15003KT 10SM CLR M05/M06 A3017 RMK AO2 SLP225 T10501056 FZRANO $=
202012241456 METAR KPWT 241456Z AUTO 00000KT 10SM CLR M06/M06 A3018 RMK AO2 SLP230 T10561061 56012 FZRANO $=
202012241356 METAR KPWT 241356Z AUTO 00000KT 10SM CLR M05/M05 A3019 RMK AO2 SLP232 T10501050 FZRANO $=
202012241256 METAR KPWT 241256Z AUTO 00000KT 10SM CLR M04/M05 A3020 RMK AO2 SLP238 T10441050 FZRANO $=
202012241250 SPECI KPWT 241250Z AUTO 00000KT 2SM BR CLR M04/M05 A3021 RMK AO2 FZRANO $=
202012241245 SPECI KPWT 241245Z AUTO 18003KT 1SM BR CLR M04/M05 A3021 RMK AO2 FZRANO $=
202012241240 SPECI KPWT 241240Z AUTO 00000KT 1/2SM FZFG CLR M04/M05 A3021 RMK AO2 FZRANO $=
202012241212 SPECI KPWT 241212Z AUTO 00000KT 1/4SM FZFG BKN001 M04/M05 A3021 RMK AO2 FZRANO $=
202012241210 SPECI KPWT 241210Z AUTO 00000KT 3/4SM BR VV001 M04/M05 A3021 RMK AO2 FZRANO $=
202012241208 SPECI KPWT 241208Z AUTO 00000KT 2SM BR SCT001 M04/M05 A3022 RMK AO2 FZRANO $=
202012241156 METAR KPWT 241156Z AUTO 00000KT 3SM BR CLR M04/M05 A3022 RMK AO2 SLP241 T10441050 11022 21050 50001 FZRANO $=
202012241150 SPECI KPWT 241150Z AUTO 00000KT 3SM BR CLR M04/M05 A3022 RMK AO2 FZRANO $=
202012241147 SPECI KPWT 241147Z AUTO 00000KT 1SM BR CLR M04/M05 A3022 RMK AO2 VIS 1/4V5 FZRANO $=
202012241139 SPECI KPWT 241139Z AUTO 24003KT 1/2SM FZFG CLR M04/M04 A3022 RMK AO2 FZRANO $=
202012241135 SPECI KPWT 241135Z AUTO 00000KT 1SM BR CLR M04/M04 A3022 RMK AO2 FZRANO $=
202012241056 METAR KPWT 241056Z AUTO 35004KT 10SM CLR M02/M02 A3023 RMK AO2 SLP246 T10221022 FZRANO $=
202012240956 METAR KPWT 240956Z AUTO 03004KT 10SM CLR M04/M04 A3022 RMK AO2 SLP242 T10391044 FZRANO $=
202012240856 METAR KPWT 240856Z AUTO 00000KT 10SM CLR M04/M04 A3021 RMK AO2 SLP240 T10391044 56023 FZRANO $=
202012240756 METAR KPWT 240756Z AUTO 00000KT 10SM CLR M03/M03 A3022 RMK AO2 SLP244 T10331033 400441039 FZRANO $=
202012240656 METAR KPWT 240656Z AUTO 00000KT 10SM CLR M03/M04 A3025 RMK AO2 SLP253 T10331039 FZRANO $=
202012240556 METAR KPWT 240556Z AUTO 00000KT 10SM CLR M02/M03 A3028 RMK AO2 SLP264 T10221028 10033 21022 58021 FZRANO $=
202012240456 METAR KPWT 240456Z AUTO 00000KT 10SM CLR M01/M03 A3030 RMK AO2 SLP270 T10111028 FZRANO $=
202012240356 METAR KPWT 240356Z AUTO 03003KT 10SM CLR 01/M01 A3034 RMK AO2 SLP282 T00061011 FZRANO $=
202012240256 METAR KPWT 240256Z AUTO 05009KT 10SM CLR 02/M01 A3035 RMK AO2 SLP285 T00171011 58014 FZRANO $=
202012240156 METAR KPWT 240156Z AUTO 05005KT 10SM CLR 02/M02 A3036 RMK AO2 SLP290 T00171022 FZRANO $=
202012240056 METAR KPWT 240056Z AUTO 04004KT 10SM CLR 02/M01 A3039 RMK AO2 SLP299 T00171011 FZRANO $=
202012232356 METAR KPWT 232356Z AUTO 06003KT 10SM CLR 03/01 A3039 RMK AO2 SLP299 T00330006 10044 20006 56026 $=
202012232256 METAR KPWT 232256Z AUTO 04005KT 10SM CLR 04/01 A3041 RMK AO2 SLP306 T00440011 $=
202012232156 METAR KPWT 232156Z AUTO 04008KT 10SM CLR 04/01 A3043 RMK AO2 SLP314 T00390011 $=
202012232056 METAR KPWT 232056Z AUTO 05011KT 10SM FEW003 03/01 A3047 RMK AO2 SLP325 T00280011 58019 $=
202012232035 SPECI KPWT 232035Z AUTO 06007KT 10SM FEW003 02/01 A3048 RMK AO2 FZRANO $=
202012231956 METAR KPWT 231956Z AUTO 05009KT 10SM CLR 03/01 A3050 RMK AO2 SLP335 T00280011 $=
202012231856 METAR KPWT 231856Z AUTO 36003KT 10SM CLR 03/03 A3052 RMK AO2 SLP342 T00330028 $=
202012231810 SPECI KPWT 231810Z AUTO 00000KT 8SM SCT001 01/01 A3052 RMK AO2 FZRANO $=
202012231756 METAR KPWT 231756Z AUTO 32003KT 9SM CLR 01/00 A3052 RMK AO2 SLP346 T00060000 10006 21028 56002 FZRANO $=
202012231656 METAR KPWT 231656Z AUTO 00000KT 10SM CLR 01/00 A3052 RMK AO2 SLP346 T00060000 FZRANO $=
202012231556 METAR KPWT 231556Z AUTO 02003KT 10SM CLR M02/M02 A3051 RMK AO2 SLP344 T10221022 FZRANO $=
202012231548 SPECI KPWT 231548Z AUTO 05004KT 9SM CLR M02/M02 A3052 RMK AO2 FZRANO $=
202012231540 SPECI KPWT 231540Z AUTO 00000KT 2SM BR CLR M02/M02 A3052 RMK AO2 FZRANO $=
202012231536 SPECI KPWT 231536Z AUTO 00000KT 1SM BR CLR M02/M02 A3053 RMK AO2 FZRANO $=
202012231528 SPECI KPWT 231528Z AUTO 00000KT 1/2SM FZFG CLR M02/M02 A3052 RMK AO2 FZRANO $=
202012231519 SPECI KPWT 231519Z AUTO 00000KT 3/4SM BR CLR M02/M03 A3053 RMK AO2 FZRANO $=
202012231515 SPECI KPWT 231515Z AUTO 00000KT 1 3/4SM BR CLR M02/M03 A3053 RMK AO2 FZRANO $=
202012231456 METAR KPWT 231456Z AUTO 00000KT 10SM CLR M02/M02 A3053 RMK AO2 SLP347 T10221022 56008 FZRANO $=
202012231454 SPECI KPWT 231454Z AUTO 00000KT 8SM CLR M02/M02 A3053 RMK AO2 FZRANO $=
202012231444 SPECI KPWT 231444Z AUTO 00000KT 2SM BR CLR M02/M02 A3053 RMK AO2 VIS 1 1/4V5 FZRANO $=
202012231411 SPECI KPWT 231411Z AUTO 00000KT 5SM BR CLR M02/M02 A3054 RMK AO2 FZRANO $=
202012231356 METAR KPWT 231356Z AUTO 00000KT 2 1/2SM BR FEW001 M02/M02 A3053 RMK AO2 SLP347 T10221022 FZRANO $=
202012231346 SPECI KPWT 231346Z AUTO 00000KT 5SM BR FEW001 M02/M02 A3053 RMK AO2 FZRANO $=
202012231338 SPECI KPWT 231338Z AUTO 01004KT 2 1/2SM BR CLR M03/M03 A3053 RMK AO2 FZRANO $=
202012231326 SPECI KPWT 231326Z AUTO 00000KT 4SM BR CLR M02/M02 A3053 RMK AO2 FZRANO $=
202012231323 SPECI KPWT 231323Z AUTO 00000KT 1 1/2SM BR CLR M02/M02 A3053 RMK AO2 FZRANO $=
202012231320 SPECI KPWT 231320Z AUTO 00000KT 3/4SM BR CLR M03/M03 A3053 RMK AO2 PRESFR FZRANO $=
202012231308 SPECI KPWT 231308Z AUTO 00000KT 1/4SM FZFG CLR M03/M03 A3054 RMK AO2 FZRANO $=
202012231256 METAR KPWT 231256Z AUTO 00000KT 1/2SM FZFG CLR M03/M03 A3055 RMK AO2 SLP355 T10281028 FZRANO $=
202012231236 SPECI KPWT 231236Z AUTO 00000KT 1/2SM FZFG CLR M02/M02 A3055 RMK AO2 FZRANO $=
202012231233 SPECI KPWT 231233Z AUTO 00000KT 1SM BR CLR M02/M02 A3055 RMK AO2 VIS 1/2V5 FZRANO $=
202012231225 SPECI KPWT 231225Z AUTO 00000KT 2SM BR CLR M02/M03 A3056 RMK AO2 VIS 3/4V5 FZRANO $=
202012231221 SPECI KPWT 231221Z AUTO 00000KT 1SM BR CLR M02/M02 A3056 RMK AO2 FZRANO $=
202012231218 SPECI KPWT 231218Z AUTO 00000KT 1/2SM FZFG CLR M02/M02 A3056 RMK AO2 FZRANO $=
202012231210 SPECI KPWT 231210Z AUTO 00000KT 3/4SM BR CLR M02/M02 A3055 RMK AO2 FZRANO $=
202012231207 SPECI KPWT 231207Z AUTO 00000KT 1 1/2SM BR CLR M02/M02 A3055 RMK AO2 FZRANO $=
202012231156 METAR KPWT 231156Z AUTO 00000KT 10SM CLR M02/M02 A3056 RMK AO2 SLP356 T10171022 10000 21022 53005 FZRANO $=
202012231056 METAR KPWT 231056Z AUTO 00000KT 10SM CLR M02/M02 A3054 RMK AO2 SLP351 T10221022 FZRANO $=
202012230956 METAR KPWT 230956Z AUTO 00000KT 4SM BR CLR M01/M02 A3055 RMK AO2 SLP351 T10111017 FZRANO $=
202012230942 SPECI KPWT 230942Z AUTO 00000KT 2 1/2SM BR CLR M01/M01 A3054 RMK AO2 FZRANO $=
202012230939 SPECI KPWT 230939Z AUTO 00000KT 1SM BR CLR M01/M01 A3054 RMK AO2 FZRANO $=
202012230930 SPECI KPWT 230930Z AUTO 00000KT 1/2SM FZFG CLR M01/M01 A3054 RMK AO2 FZRANO $=
202012230927 SPECI KPWT 230927Z AUTO 00000KT 1SM BR CLR M01/M01 A3055 RMK AO2 FZRANO $=
202012230856 METAR KPWT 230856Z AUTO 00000KT 10SM BKN032 00/00 A3054 RMK AO2 SLP350 T00000000 51007 FZRANO $=
202012230756 METAR KPWT 230756Z AUTO 00000KT 10SM OVC032 00/00 A3054 RMK AO2 SLP349 T00000000 400671022 FZRANO $=
202012230656 METAR KPWT 230656Z AUTO 00000KT 10SM OVC030 M01/M01 A3055 RMK AO2 SLP353 T10111011 FZRANO $=
202012230633 SPECI KPWT 230633Z AUTO 00000KT 10SM BKN030 M02/M02 A3054 RMK AO2 FZRANO $=
202012230626 SPECI KPWT 230626Z AUTO 00000KT 10SM BKN028 M02/M02 A3054 RMK AO2 FZRANO $=
202012230556 METAR KPWT 230556Z AUTO 00000KT 10SM CLR M02/M02 A3052 RMK AO2 SLP345 T10171017 10033 21017 51016 FZRANO $=
202012230456 METAR KPWT 230456Z AUTO 00000KT 10SM CLR M01/M02 A3051 RMK AO2 SLP342 T10111017 FZRANO $=
202012230356 METAR KPWT 230356Z AUTO 00000KT 10SM FEW040 M01/M01 A3050 RMK AO2 SLP337 T10061011 FZRANO $=
202012230256 METAR KPWT 230256Z AUTO 00000KT 10SM OVC040 01/01 A3047 RMK AO2 SLP328 T00110006 51024 FZRANO $=
202012230156 METAR KPWT 230156Z AUTO 00000KT 10SM SCT038 02/01 A3045 RMK AO2 SLP321 T00170011 FZRANO $=
202012230056 METAR KPWT 230056Z AUTO 00000KT 10SM OVC040 02/02 A3044 RMK AO2 SLP316 T00220022 FZRANO $=
202012222356 METAR KPWT 222356Z AUTO 00000KT 10SM SCT036 03/02 A3040 RMK AO2 SLP303 T00330022 10067 20017 53020 $=
202012222256 METAR KPWT 222256Z AUTO 00000KT 10SM CLR 06/01 A3038 RMK AO2 SLP294 T00560011 $=
202012222156 METAR KPWT 222156Z AUTO 08006KT 10SM CLR 06/01 A3036 RMK AO2 SLP289 T00610011 $=
202012222056 METAR KPWT 222056Z AUTO 08003KT 10SM FEW020 06/02 A3034 RMK AO2 SLP281 T00560022 53026 $=
202012222038 SPECI KPWT 222038Z AUTO 10003KT 10SM SCT018 05/02 A3033 RMK AO2 $=
202012222027 SPECI KPWT 222027Z AUTO 00000KT 10SM BKN018 06/03 A3032 RMK AO2 $=
202012221956 METAR KPWT 221956Z AUTO 00000KT 10SM CLR 06/03 A3030 RMK AO2 SLP270 T00560028 $=
202012221856 METAR KPWT 221856Z AUTO 00000KT 10SM CLR 05/03 A3029 RMK AO2 SLP263 T00500028 $=
202012221756 METAR KPWT 221756Z AUTO 00000KT 9SM CLR 02/02 A3026 RMK AO2 SLP256 T00170017 10044 21022 51039 FZRANO $=
202012221656 METAR KPWT 221656Z AUTO 00000KT 10SM CLR 01/01 A3022 RMK AO2 SLP243 T00060006 FZRANO $=
202012221650 SPECI KPWT 221650Z AUTO 00000KT 2 1/2SM BR CLR 00/00 A3022 RMK AO2 FZRANO $=
202012221646 SPECI KPWT 221646Z AUTO 00000KT 3/4SM BR CLR M01/M01 A3022 RMK AO2 FZRANO $=
202012221623 SPECI KPWT 221623Z AUTO 00000KT 1/4SM FZFG CLR M01/M01 A3020 RMK AO2 FZRANO $=
202012221612 SPECI KPWT 221612Z AUTO 00000KT 1/2SM FZFG CLR M02/M02 A3020 RMK AO2 FZRANO $=
202012221606 SPECI KPWT 221606Z AUTO 00000KT 1SM BR CLR M02/M02 A3020 RMK AO2 VIS 3/4V4 FZRANO $=
202012221556 METAR KPWT 221556Z AUTO 00000KT 2 1/2SM BR FEW002 M02/M02 A3019 RMK AO2 SLP234 T10221022 FZRANO $=
202012221456 METAR KPWT 221456Z AUTO 00000KT 10SM FEW003 M02/M02 A3015 RMK AO2 SLP218 T10171017 51038 FZRANO $=
202012221443 SPECI KPWT 221443Z AUTO 00000KT 10SM CLR M01/M02 A3014 RMK AO2 FZRANO $=
202012221436 SPECI KPWT 221436Z AUTO 00000KT 2SM BR FEW001 M01/M01 A3014 RMK AO2 FZRANO $=
202012221433 SPECI KPWT 221433Z AUTO 00000KT 1SM BR VV001 M01/M01 A3014 RMK AO2 FZRANO $=
202012221430 SPECI KPWT 221430Z AUTO 00000KT 1/4SM FZFG VV001 M01/M01 A3014 RMK AO2 FZRANO $=
202012221356 METAR KPWT 221356Z AUTO 00000KT 1/4SM FZFG OVC002 M01/M01 A3012 RMK AO2 PRESRR SLP207 T10111011 FZRANO $=
202012221342 SPECI KPWT 221342Z AUTO 00000KT 1/4SM FZFG OVC002 M01/M01 A3010 RMK AO2 FZRANO $=
202012221333 SPECI KPWT 221333Z AUTO 00000KT 1/2SM FZFG OVC002 M01/M01 A3009 RMK AO2 FZRANO $=
202012221331 SPECI KPWT 221331Z AUTO 00000KT 1 1/4SM BR OVC002 M01/M01 A3009 RMK AO2 FZRANO $=
202012221306 SPECI KPWT 221306Z AUTO 00000KT 3SM BR BKN002 M01/M02 A3007 RMK AO2 FZRANO $=
202012221259 SPECI KPWT 221259Z AUTO 00000KT 1 1/4SM BR SCT002 M02/M02 A3008 RMK AO2 FZRANO $=
202012221256 METAR KPWT 221256Z AUTO 00000KT 3/4SM BR VV002 M02/M02 A3008 RMK AO2 SLP194 T10171017 FZRANO $=
202012221254 SPECI KPWT 221254Z AUTO 00000KT 3/4SM BR VV001 M01/M02 A3008 RMK AO2 FZRANO $=
202012221217 SPECI KPWT 221217Z AUTO 00000KT 1/4SM FZFG OVC001 M01/M01 A3005 RMK AO2 FZRANO $=
202012221209 SPECI KPWT 221209Z AUTO 00000KT 1/2SM FZFG BKN001 M01/M01 A3004 RMK AO2 FZRANO $=
202012221207 SPECI KPWT 221207Z AUTO 00000KT 1 1/4SM BR BKN001 M01/M01 A3004 RMK AO2 FZRANO $=
202012221205 SPECI KPWT 221205Z AUTO 00000KT 4SM BR BKN001 M01/M01 A3004 RMK AO2 FZRANO $=
202012221156 METAR KPWT 221156Z AUTO 22005KT 8SM SCT001 M01/M01 A3004 RMK AO2 SLP178 70200 T10111011 10028 21011 51044 FZRANO $=
202012221134 SPECI KPWT 221134Z AUTO 00000KT 5SM BR SCT001 M01/M01 A3002 RMK AO2 FZRANO $=
202012221132 SPECI KPWT 221132Z AUTO 00000KT 1 1/2SM BR SCT001 M01/M01 A3001 RMK AO2 FZRANO $=
202012221130 SPECI KPWT 221130Z AUTO 00000KT 3/4SM BR BKN002 M01/M01 A3001 RMK AO2 FZRANO $=
202012221056 METAR KPWT 221056Z AUTO 00000KT 1/4SM FG OVC002 00/00 A3000 RMK AO2 SLP167 T00000000 FZRANO $=
202012221053 SPECI KPWT 221053Z AUTO 00000KT 3/4SM BR BKN002 00/M01 A3000 RMK AO2 VIS 1/4V4 FZRANO $=
202012221051 SPECI KPWT 221051Z AUTO 00000KT 1 1/2SM BR BKN002 00/M01 A3000 RMK AO2 VIS 1/2V5 FZRANO $=
202012221045 SPECI KPWT 221045Z AUTO 00000KT 6SM BR BKN002 M01/M01 A3000 RMK AO2 FZRANO $=
202012221006 SPECI KPWT 221006Z AUTO 20003KT 10SM FEW001 00/00 A2996 RMK AO2 FZRANO $=
202012220956 METAR KPWT 220956Z AUTO 00000KT 2SM BR FEW001 00/00 A2995 RMK AO2 PRESRR SLP150 T00000000 FZRANO $=
202012220948 SPECI KPWT 220948Z AUTO 00000KT 7SM FEW001 01/00 A2995 RMK AO2 PRESRR FZRANO $=
202012220856 METAR KPWT 220856Z AUTO 00000KT 10SM FEW011 OVC075 02/02 A2990 RMK AO2 SLP132 T00220017 53041 FZRANO $=
202012220849 SPECI KPWT 220849Z AUTO 00000KT 10SM SCT011 OVC080 02/02 A2990 RMK AO2 FZRANO $=
202012220807 SPECI KPWT 220807Z AUTO 00000KT 10SM FEW005 OVC011 03/02 A2987 RMK AO2 $=
202012220756 METAR KPWT 220756Z AUTO 05003KT 10SM SCT003 OVC009 03/02 A2985 RMK AO2 SLP115 T00280022 401220011 $=
202012220709 SPECI KPWT 220709Z AUTO 11003KT 10SM FEW003 OVC009 02/02 A2982 RMK AO2 FZRANO $=
202012220656 METAR KPWT 220656Z AUTO 11003KT 10SM BKN003 OVC009 02/02 A2981 RMK AO2 SLP099 T00220022 FZRANO $=
202012220556 METAR KPWT 220556Z AUTO 21005KT 10SM OVC003 02/02 A2978 RMK AO2 UPE10 SLP090 P0001 60027 T00220022 10106 20011 51043 FZRANO $=
202012220456 METAR KPWT 220456Z AUTO 19006KT 10SM UP OVC003 02/01 A2976 RMK AO2 RAE47UPB22E25B47 SLP083 P0000 T00170011 FZRANO $=
202012220449 SPECI KPWT 220449Z AUTO 19005KT 10SM UP OVC003 02/01 A2976 RMK AO2 RAE47UPB22E25B47 P0000 FZRANO $=
202012220356 METAR KPWT 220356Z AUTO 22003KT 10SM -RA BKN005 OVC026 01/01 A2972 RMK AO2 UPB06E16 PRESRR SLP070 P0007 T00110011 FZRANO $=
202012220347 SPECI KPWT 220347Z AUTO 00000KT 10SM -RA BKN005 OVC026 01/01 A2970 RMK AO2 UPB06E16 PRESRR P0007 FZRANO $=
202012220336 SPECI KPWT 220336Z AUTO 11005KT 10SM -RA SCT005 SCT008 OVC024 01/01 A2969 RMK AO2 UPB06E16 PRESRR P0006 FZRANO $=
202012220320 SPECI KPWT 220320Z AUTO 10006KT 5SM -RA BR BKN005 OVC020 01/01 A2967 RMK AO2 UPB06E16 CIG 004V008 P0005 FZRANO $=
202012220311 SPECI KPWT 220311Z AUTO VRB05KT 2 1/2SM UP BR OVC005 01/01 A2966 RMK AO2 VIS 1 3/4V4 RAE06UPB06 CIG 004V009 P0004 FZRANO $=
202012220256 METAR KPWT 220256Z AUTO 08006KT 3SM -RA BR BKN005 OVC010 02/02 A2965 RMK AO2 RAE12B32UPB12E32 CIG 004V009 SLP046 P0006 60019 T00220017 53041 FZRANO $=
202012220246 SPECI KPWT 220246Z AUTO 07006KT 2 1/2SM -RA BR BKN007 OVC010 02/02 A2964 RMK AO2 RAE12B32UPB12E32 CIG 005V009 P0004 FZRANO $=
202012220225 SPECI KPWT 220225Z AUTO 05012KT 8SM UP FEW005 BKN010 OVC028 02/02 A2962 RMK AO2 RAE12UPB12 P0001 FZRANO $=
202012220156 METAR KPWT 220156Z AUTO 07009G17KT 8SM -RA OVC005 02/01 A2959 RMK AO2 PK WND 04026/0127 UPB43E50 SLP027 P0012 T00170011 FZRANO $=
202012220146 SPECI KPWT 220146Z AUTO 13010G16KT 10SM UP BKN005 OVC022 02/02 A2959 RMK AO2 PK WND 04026/0127 RAE43UPB43 P0012 FZRANO $=
202012220137 SPECI KPWT 220137Z AUTO 11008G21KT 080V150 9SM -RA SCT005 OVC022 02/02 A2958 RMK AO2 PK WND 04026/0127 PRESRR P0012 FZRANO $=
202012220122 SPECI KPWT 220122Z AUTO 05018G26KT 3SM -RA BR SCT012 OVC020 02/02 A2956 RMK AO2 PK WND 04026/0117 P0011 FZRANO $=
202012220113 SPECI KPWT 220113Z AUTO 04018G25KT 2 1/2SM RA BR BKN012 OVC018 03/02 RMK AO2 P0006 $=
202012220056 METAR KPWT 220056Z AUTO 05016G22KT 10SM -RA OVC009 03/02 A2955 RMK AO2 CIG 004V011 SLP012 P0001 T00280022 $=
202012220047 SPECI KPWT 220047Z AUTO 07011G23KT 10SM -RA OVC007 03/02 A2955 RMK AO2 CIG 004V010 P0001 $=
202012220039 SPECI KPWT 220039Z AUTO 05014G22KT 10SM -RA BKN005 OVC010 03/03 A2954 RMK AO2 CIG 003V008 P0001 $=
202012220032 SPECI KPWT 220032Z AUTO 05016G22KT 10SM -RA BKN003 OVC007 03/03 A2953 RMK AO2 CIG 003V006 P0001 $=
202012220030 SPECI KPWT 220030Z AUTO 06014G19KT 10SM -RA SCT003 OVC007 03/03 A2953 RMK AO2 P0001 $=
202012220018 SPECI KPWT 220018Z AUTO 05008KT 10SM -RA BKN003 OVC009 04/03 A2953 RMK AO2 P0000 $=
202012212356 METAR KPWT 212356Z AUTO 23004KT 10SM -RA OVC009 11/10 A2953 RMK AO2 CIG 006V012 SLP003 P0011 60104 T01060100 10122 20056 51011 $=
202012212348 SPECI KPWT 212348Z AUTO 23008G22KT 10SM -RA SCT007 OVC012 11/10 A2953 RMK AO2 P0010 $=
202012212341 SPECI KPWT 212341Z AUTO 23015G22KT 9SM -RA BKN009 BKN015 OVC028 11/10 A2952 RMK AO2 CIG 006V012 P0010 $=
202012212333 SPECI KPWT 212333Z AUTO 22015G21KT 9SM -RA SCT009 BKN015 OVC033 11/10 A2951 RMK AO2 P0008 $=
202012212309 SPECI KPWT 212309Z AUTO 23017G25KT 6SM -RA BR BKN011 BKN017 OVC028 11/11 A2950 RMK AO2 P0004 $=
202012212256 METAR KPWT 212256Z AUTO 24013G22KT 7SM RA BKN009 OVC014 12/11 A2950 RMK AO2 PK WND 22026/2239 CIG 006V013 SLP994 P0021 T01170111 $=
202012212233 SPECI KPWT 212233Z AUTO 22015G23KT 8SM -RA BKN007 OVC012 12/12 A2950 RMK AO2 CIG 004V009 P0018 $=
202012212223 SPECI KPWT 212223Z AUTO 22017G22KT 5SM -RA BR BKN005 OVC010 12/11 A2950 RMK AO2 P0016 $=
202012212216 SPECI KPWT 212216Z AUTO 22014G25KT 2 1/2SM -RA BR OVC005 12/11 A2950 RMK AO2 P0014 $=
202012212205 SPECI KPWT 212205Z AUTO 20016KT 3SM RA BR OVC005 12/11 A2950 RMK AO2 P0006 $=
202012212156 METAR KPWT 212156Z AUTO 21014G22KT 2 1/2SM RA BR OVC005 12/11 A2950 RMK AO2 VIS 1 3/4V3 SLP992 P0037 T01170111 $=
202012212153 SPECI KPWT 212153Z AUTO 21014G22KT 2 1/2SM RA BR OVC005 12/11 A2950 RMK AO2 P0034 $=
202012212146 SPECI KPWT 212146Z AUTO 20015G22KT 3SM RA BR OVC005 12/11 A2951 RMK AO2 CIG 004V008 P0027 $=
202012212119 SPECI KPWT 212119Z AUTO 20013G25KT 4SM RA BR OVC007 12/12 A2952 RMK AO2 CIG 005V010 P0013 $=
202012212056 METAR KPWT 212056Z AUTO 20014G21KT 4SM RA BR OVC005 12/12 A2953 RMK AO2 PK WND 21027/2037 CIG 004V008 SLP005 P0015 60035 T01170117 56046 $=
202012211956 METAR KPWT 211956Z AUTO 20019G25KT 10SM -RA OVC005 12/12 A2956 RMK AO2 PK WND 21027/1942 PRESFR SLP016 P0011 T01170117 $=
202012211939 SPECI KPWT 211939Z AUTO 19015G26KT 6SM -RA BR OVC005 12/12 A2959 RMK AO2 PK WND 20026/1933 P0009 $=
202012211856 METAR KPWT 211856Z AUTO 20012G19KT 6SM -RA BR OVC003 11/11 A2963 RMK AO2 SLP039 P0009 T01060106 $=
202012211803 SPECI KPWT 211803Z AUTO 22006KT 5SM -RA BR BKN003 OVC007 06/06 A2967 RMK AO2 CIG 002V006 P0000 $=
202012211756 METAR KPWT 211756Z AUTO 23005KT 2 1/2SM -RA BR OVC005 06/06 A2967 RMK AO2 CIG 003V008 SLP052 P0008 60069 T00560056 10056 20050 56024 $=
202012211753 SPECI KPWT 211753Z AUTO 23005KT 2SM -RA BR OVC005 06/06 A2967 RMK AO2 CIG 003V008 P0008 $=
202012211746 SPECI KPWT 211746Z AUTO 23005KT 2SM -RA BR OVC007 06/06 A2968 RMK AO2 CIG 003V008 P0007 $=
202012211730 SPECI KPWT 211730Z AUTO 24005KT 3SM -RA BR OVC007 06/05 A2969 RMK AO2 CIG 003V010 P0004 $=
202012211723 SPECI KPWT 211723Z AUTO 23003KT 2SM -RA BR BKN005 OVC010 05/05 A2970 RMK AO2 CIG 003V007 P0004 $=
202012211712 SPECI KPWT 211712Z AUTO 22003KT 2SM -RA BR OVC010 05/05 A2971 RMK AO2 CIG 005V015 P0003 $=
202012211656 METAR KPWT 211656Z AUTO 19004KT 1 1/2SM -RA BR OVC010 05/04 A2972 RMK AO2 CIG 005V014 SLP071 P0013 T00500044 $=
202012211643 SPECI KPWT 211643Z AUTO 24003KT 1 1/2SM -RA BR BKN010 OVC013 05/04 A2973 RMK AO2 CIG 003V011 P0009 $=
202012211635 SPECI KPWT 211635Z AUTO 00000KT 1 1/4SM -RA BR BKN007 OVC012 05/04 A2973 RMK AO2 CIG 003V010 P0007 $=
202012211623 SPECI KPWT 211623Z AUTO 29005KT 2SM -RA BR BKN009 OVC016 05/05 A2974 RMK AO2 CIG 006V012 P0004 $=
202012211615 SPECI KPWT 211615Z AUTO 00000KT 2 1/2SM -RA BR BKN014 OVC019 05/05 A2974 RMK AO2 VIS 2V3 P0003 $=
202012211556 METAR KPWT 211556Z AUTO 00000KT 3SM -RA BR FEW013 OVC019 05/04 A2974 RMK AO2 SLP078 P0023 T00500044 $=
202012211536 SPECI KPWT 211536Z AUTO 26004KT 3SM RA BR FEW004 SCT014 OVC024 05/04 A2976 RMK AO2 P0018 $=
202012211522 SPECI KPWT 211522Z AUTO 15005KT 1 3/4SM RA BR FEW004 BKN017 OVC022 05/05 A2976 RMK AO2 PRESFR P0011 $=
202012211512 SPECI KPWT 211512Z AUTO 30003KT 2SM RA BR SCT006 BKN011 OVC017 05/04 A2978 RMK AO2 P0006 $=
202012211456 METAR KPWT 211456Z AUTO 31003KT 2SM -RA BR FEW003 BKN017 OVC027 05/05 A2979 RMK AO2 SLP094 P0009 60025 T00500050 56045 $=
202012211447 SPECI KPWT 211447Z AUTO 00000KT 2 1/2SM -RA BR FEW003 BKN015 OVC027 05/05 A2979 RMK AO2 P0008 $=
202012211441 SPECI KPWT 211441Z AUTO 00000KT 3SM -RA BR FEW012 BKN018 OVC027 05/05 A2980 RMK AO2 P0007 $=
202012211433 SPECI KPWT 211433Z AUTO 00000KT 2 1/2SM -RA BR SCT014 OVC027 05/05 A2980 RMK AO2 P0007 $=
202012211429 SPECI KPWT 211429Z AUTO 00000KT 1 3/4SM -RA BR FEW003 BKN014 OVC029 05/05 A2980 RMK AO2 P0007 $=
202012211419 SPECI KPWT 211419Z AUTO 00000KT 2 1/2SM RA BR BKN014 OVC020 05/05 A2981 RMK AO2 P0004 $=
202012211356 METAR KPWT 211356Z AUTO 00000KT 3SM -RA BR BKN016 OVC020 05/05 A2982 RMK AO2 SLP106 P0012 T00500050 $=
202012211346 SPECI KPWT 211346Z AUTO 00000KT 2SM RA BR BKN018 OVC026 05/05 A2983 RMK AO2 P0010 $=
202012211303 SPECI KPWT 211303Z AUTO 00000KT 3SM -RA BR OVC027 05/05 A2987 RMK AO2 P0002 $=
202012211256 METAR KPWT 211256Z AUTO 32003KT 5SM -RA BR SCT023 OVC031 05/05 A2988 RMK AO2 SLP122 P0004 T00500050 $=
202012211156 METAR KPWT 211156Z AUTO 35003KT 6SM -RA BR FEW012 OVC022 06/05 A2992 RMK AO2 PRESFR SLP138 P0011 60021 70021 T00560050 10072 20056 58042 $=
202012211106 SPECI KPWT 211106Z AUTO 00000KT 4SM RA BR OVC028 06/05 A2996 RMK AO2 P0002 $=
202012211056 METAR KPWT 211056Z AUTO 00000KT 6SM -RA BR OVC030 06/05 A2997 RMK AO2 SLP156 P0005 T00560050 $=
202012210956 METAR KPWT 210956Z AUTO 00000KT 9SM -RA BKN041 06/05 A3000 RMK AO2 SLP166 P0001 T00560050 $=
202012210856 METAR KPWT 210856Z AUTO 04006KT 6SM -RA BR OVC038 06/05 A3005 RMK AO2 SLP180 P0003 60004 T00610050 58021 $=
202012210756 METAR KPWT 210756Z AUTO 03005KT 7SM -RA BKN038 07/06 A3009 RMK AO2 SLP193 P0001 T00670056 401110061 $=
202012210656 METAR KPWT 210656Z AUTO 04006KT 10SM -RA FEW055 07/06 A3010 RMK AO2 RAB52 SLP196 P0000 T00720056 $=
202012210556 METAR KPWT 210556Z AUTO 05006KT 10SM FEW014 07/06 A3011 RMK AO2 SLP201 T00720061 10089 20061 58009 $=
202012210456 METAR KPWT 210456Z AUTO 07005KT 10SM FEW013 07/07 A3012 RMK AO2 SLP204 T00720067 $=
202012210439 SPECI KPWT 210439Z AUTO 08004KT 10SM SCT011 07/07 A3012 RMK AO2 $=
202012210407 SPECI KPWT 210407Z AUTO 00000KT 10SM BKN009 BKN015 07/07 A3014 RMK AO2 $=
202012210356 METAR KPWT 210356Z AUTO 00000KT 10SM SCT007 BKN015 BKN100 07/07 A3014 RMK AO2 SLP213 T00670067 $=
202012210354 SPECI KPWT 210354Z AUTO 00000KT 10SM FEW007 BKN015 BKN100 07/07 A3014 RMK AO2 $=
202012210334 SPECI KPWT 210334Z AUTO 00000KT 7SM SCT017 BKN100 06/06 A3012 RMK AO2 $=
202012210322 SPECI KPWT 210322Z AUTO 00000KT 10SM BKN017 BKN100 06/06 A3013 RMK AO2 $=
202012210256 METAR KPWT 210256Z AUTO 00000KT 9SM OVC110 06/06 A3014 RMK AO2 SLP212 T00610061 51000 $=
202012210156 METAR KPWT 210156Z AUTO 00000KT 10SM BKN110 07/06 A3014 RMK AO2 SLP211 T00670061 $=
202012210056 METAR KPWT 210056Z AUTO 00000KT 10SM BKN120 08/07 A3014 RMK AO2 SLP212 T00780067 $=
202012202356 METAR KPWT 202356Z AUTO 20006KT 10SM CLR 09/07 A3014 RMK AO2 SLP211 T00890067 10100 20089 58002 $=
202012202256 METAR KPWT 202256Z AUTO 20010KT 10SM CLR 09/07 A3014 RMK AO2 SLP213 T00940067 $=
202012202156 METAR KPWT 202156Z AUTO 22010KT 10SM CLR 10/07 A3015 RMK AO2 SLP215 T01000067 $=
202012202056 METAR KPWT 202056Z AUTO 22014G19KT 10SM CLR 10/07 A3014 RMK AO2 SLP213 T01000067 50001 $=
202012201956 METAR KPWT 201956Z AUTO 21013KT 10SM CLR 09/07 A3016 RMK AO2 SLP218 T00940072 $=
202012201856 METAR KPWT 201856Z AUTO 23011KT 10SM CLR 09/08 A3016 RMK AO2 SLP216 T00890078 $=
202012201829 SPECI KPWT 201829Z AUTO 22009KT 10SM FEW012 09/08 A3015 RMK AO2 $=
202012201756 METAR KPWT 201756Z AUTO 22009KT 10SM BKN010 09/08 A3014 RMK AO2 SLP211 T00890078 10094 20078 53030 $=
202012201715 SPECI KPWT 201715Z AUTO 21009KT 10SM BKN012 08/08 A3012 RMK AO2 $=
202012201656 METAR KPWT 201656Z AUTO 21010KT 10SM CLR 08/07 A3011 RMK AO2 SLP202 T00830072 $=
202012201556 METAR KPWT 201556Z AUTO 19007KT 10SM FEW024 08/07 A3007 RMK AO2 SLP188 T00830072 $=
202012201545 SPECI KPWT 201545Z AUTO 19007KT 10SM SCT010 SCT024 BKN029 08/07 A3007 RMK AO2 $=
202012201456 METAR KPWT 201456Z AUTO 20005KT 10SM OVC010 08/08 A3005 RMK AO2 SLP180 T00830078 53013 $=
202012201425 SPECI KPWT 201425Z AUTO 18003KT 10SM BKN010 08/08 A3003 RMK AO2 $=
202012201356 METAR KPWT 201356Z AUTO 21005KT 10SM FEW010 09/08 A3002 RMK AO2 SLP170 T00890078 $=
202012201351 SPECI KPWT 201351Z AUTO 20007KT 10SM SCT010 09/08 A3001 RMK AO2 $=
202012201256 METAR KPWT 201256Z AUTO 24005KT 10SM BKN010 09/08 A3001 RMK AO2 SLP167 T00890083 $=
202012201219 SPECI KPWT 201219Z AUTO VRB04KT 10SM BKN010 09/09 A3001 RMK AO2 CIG 008V013 $=
202012201156 METAR KPWT 201156Z AUTO 20011G18KT 10SM CLR 09/08 A2999 RMK AO2 SLP159 60000 7//// T00940083 10111 20094 53025 $=
202012201056 METAR KPWT 201056Z AUTO 21013G20KT 10SM CLR 10/09 A2995 RMK AO2 SLP148 T01000089 $=
202012200956 METAR KPWT 200956Z AUTO 20017KT 10SM FEW014 11/10 A2991 RMK AO2 PK WND 21026/0914 SLP133 T01060100 $=
202012200937 SPECI KPWT 200937Z AUTO 21015G21KT 10SM FEW010 11/10 A2991 RMK AO2 PK WND 21026/0914 $=
202012200856 METAR KPWT 200856Z AUTO 21020G26KT 10SM BKN010 11/11 A2991 RMK AO2 PK WND 21028/0759 SLP133 60000 T01110106 51021 $=
202012200756 METAR KPWT 200756Z AUTO 21019G25KT 10SM FEW008 11/10 A2989 RMK AO2 PK WND 21034/0701 RAE01 SLP126 P0000 T01060100 401060056 $=
202012200734 SPECI KPWT 200734Z AUTO 21019G27KT 10SM OVC006 11/10 A2987 RMK AO2 PK WND 21034/0701 RAE01 CIG 004V011 P0000 $=
202012200713 SPECI KPWT 200713Z AUTO 20023G28KT 9SM OVC004 11/10 A2985 RMK AO2 PK WND 21034/0701 RAE01 P0000 $=
202012200656 METAR KPWT 200656Z AUTO 21021G29KT 4SM -RA BR OVC002 10/10 A2985 RMK AO2 PK WND 20029/0651 RAE08B51 CIG 002V006 SLP112 P0000 T01000100 $=
202012200646 SPECI KPWT 200646Z AUTO 21020G26KT 3SM BR OVC002 10/09 A2984 RMK AO2 PK WND 21027/0620 RAE08 P0000 $=
202012200556 METAR KPWT 200556Z AUTO 20013KT 10SM -RA OVC004 09/09 A2987 RMK AO2 SLP120 P0005 60085 T00940089 10094 20072 55005 $=
202012200456 METAR KPWT 200456Z AUTO 21015G22KT 7SM -RA OVC004 09/08 A2986 RMK AO2 SLP118 P0013 T00890083 $=
202012200356 METAR KPWT 200356Z AUTO 21014KT 5SM RA BR OVC004 08/08 A2987 RMK AO2 SLP120 P0022 T00830078 $=
202012200256 METAR KPWT 200256Z AUTO 21011KT 5SM -RA BR OVC004 08/08 A2989 RMK AO2 CIG 003V007 SLP125 P0020 60045 T00830083 58025 $=
202012200246 SPECI KPWT 200246Z AUTO 22008KT 3SM -RA BR OVC002 08/08 A2989 RMK AO2 PRESFR P0018 $=
202012200156 METAR KPWT 200156Z AUTO 23009KT 2SM -RA BR OVC002 08/07 A2993 RMK AO2 VIS 1 3/4V2 1/2 SLP140 P0014 T00780072 $=
202012200151 SPECI KPWT 200151Z AUTO 22007KT 2SM -RA BR OVC002 08/07 A2993 RMK AO2 P0012 $=
202012200139 SPECI KPWT 200139Z AUTO 22009KT 4SM -RA BR OVC002 08/08 A2993 RMK AO2 P0010 $=
202012200056 METAR KPWT 200056Z AUTO 20009G16KT 8SM -RA OVC004 08/08 A2996 RMK AO2 SLP151 P0011 T00780078 $=
202012192356 METAR KPWT 192356Z AUTO 20010G17KT 8SM -RA OVC004 07/07 A3003 RMK AO2 SLP174 P0012 60014 T00720067 10072 20067 56046 $=
202012192256 METAR KPWT 192256Z AUTO 20010KT 7SM -RA OVC004 07/07 A3005 RMK AO2 RAE02B28 SLP182 P0001 T00720067 $=
202012192212 SPECI KPWT 192212Z AUTO 21010KT 10SM BKN004 OVC009 07/06 A3010 RMK AO2 RAE02 P0000 $=
202012192156 METAR KPWT 192156Z AUTO 19007KT 10SM -RA BKN008 OVC020 07/06 A3011 RMK AO2 RAB28 CIG 005V010 SLP201 P0001 T00670061 $=
202012192105 SPECI KPWT 192105Z AUTO 19006KT 10SM SCT020 BKN028 OVC034 07/06 A3016 RMK AO2 $=
202012192056 METAR KPWT 192056Z AUTO 19007KT 10SM SCT028 BKN036 07/06 A3016 RMK AO2 RAE33 SLP220 P0000 60000 T00670056 58013 $=
202012192019 SPECI KPWT 192019Z AUTO 21006KT 10SM -RA FEW023 BKN035 07/06 A3019 RMK AO2 P0000 $=
202012191956 METAR KPWT 191956Z AUTO 19007KT 10SM -RA OVC026 07/06 A3019 RMK AO2 RAB48 SLP230 P0000 T00670056 $=
202012191914 SPECI KPWT 191914Z AUTO 21010KT 10SM BKN029 07/06 A3020 RMK AO2 $=
202012191856 METAR KPWT 191856Z AUTO 21007KT 10SM FEW021 07/06 A3019 RMK AO2 SLP229 T00670056 $=
202012191846 SPECI KPWT 191846Z AUTO 22007KT 10SM FEW021 SCT026 BKN032 07/06 A3019 RMK AO2 $=
202012191832 SPECI KPWT 191832Z AUTO 22008KT 10SM FEW009 SCT021 BKN026 07/06 A3020 RMK AO2 $=
202012191756 METAR KPWT 191756Z AUTO 19008KT 10SM FEW120 07/06 A3020 RMK AO2 SLP233 6//// T00670056 10067 20056 56007 $=
202012191751 SPECI KPWT 191751Z AUTO 19008KT 10SM FEW007 SCT120 07/06 A3021 RMK AO2 $=
202012191743 SPECI KPWT 191743Z AUTO 20005KT 10SM SCT011 BKN120 07/06 A3021 RMK AO2 $=
202012191717 SPECI KPWT 191717Z AUTO 18008KT 10SM BKN011 07/06 A3020 RMK AO2 CIG 007V013 $=
202012191656 METAR KPWT 191656Z AUTO 21008KT 10SM CLR 06/06 A3020 RMK AO2 SLP234 T00610056 $=
202012191556 METAR KPWT 191556Z AUTO 22011KT 10SM FEW110 06/05 A3022 RMK AO2 SLP240 T00610050 $=
202012191514 SPECI KPWT 191514Z AUTO 20010G15KT 10SM SCT012 BKN110 06/06 A3023 RMK AO2 $=
202012191456 METAR KPWT 191456Z AUTO 20009KT 10SM OVC012 07/06 A3023 RMK AO2 SLP243 6//// T00670056 51019 $=
202012191420 SPECI KPWT 191420Z AUTO 21009KT 10SM BKN012 07/05 A3023 RMK AO2 $=
202012191356 METAR KPWT 191356Z AUTO 20010KT 10SM CLR 06/05 A3023 RMK AO2 SLP242 T00610050 $=
202012191256 METAR KPWT 191256Z AUTO 18006KT 10SM CLR 06/05 A3020 RMK AO2 SLP232 T00610050 $=
202012191156 METAR KPWT 191156Z AUTO 23004KT 10SM CLR 06/04 A3017 RMK AO2 SLP223 70059 T00560044 10083 20056 51038 $=
202012191056 METAR KPWT 191056Z AUTO 18006KT 10SM CLR 06/05 A3015 RMK AO2 SLP217 T00610050 $=
202012190956 METAR KPWT 190956Z AUTO 24010KT 10SM CLR 07/06 A3012 RMK AO2 PRESRR SLP205 T00670056 $=
202012190933 SPECI KPWT 190933Z AUTO 22005KT 10SM FEW014 07/06 A3009 RMK AO2 $=
202012190911 SPECI KPWT 190911Z AUTO 20004KT 10SM OVC012 07/07 A3007 RMK AO2 $=
202012190856 METAR KPWT 190856Z AUTO 18003KT 10SM OVC009 08/07 A3006 RMK AO2 CIG 007V014 SLP185 T00780067 51053 $=
202012190825 SPECI KPWT 190825Z AUTO 23013G16KT 10SM BKN007 OVC011 08/07 A3004 RMK AO2 CIG 005V010 $=
202012190756 METAR KPWT 190756Z AUTO 23004KT 10SM OVC005 08/08 A3001 RMK AO2 SLP169 T00830078 400830061 $=
202012190656 METAR KPWT 190656Z AUTO 19011KT 10SM OVC003 08/08 A2995 RMK AO2 SLP147 T00830078 $=
202012190608 SPECI KPWT 190608Z AUTO 20011KT 10SM OVC003 07/07 A2992 RMK AO2 $=
202012190556 METAR KPWT 190556Z AUTO 20010G18KT 10SM OVC005 07/07 A2990 RMK AO2 RAE48 SLP131 P0002 60028 T00720067 10078 20067 50002 $=
202012190528 SPECI KPWT 190528Z AUTO 20012G18KT 9SM -RA OVC005 07/07 A2992 RMK AO2 CIG 004V009 P0001 $=
202012190456 METAR KPWT 190456Z AUTO 20013G24KT 7SM -RA OVC007 07/06 A2990 RMK AO2 CIG 004V009 SLP132 P0005 T00670061 $=
202012190356 METAR KPWT 190356Z AUTO 21012G21KT 10SM -RA OVC007 07/06 A2990 RMK AO2 CIG 006V011 SLP129 P0007 T00720061 $=
202012190322 SPECI KPWT 190322Z AUTO 21015G19KT 7SM -RA OVC009 07/06 A2990 RMK AO2 CIG 007V014 P0003 $=
202012190256 METAR KPWT 190256Z AUTO 21012G17KT 10SM -RA BKN010 OVC015 07/06 A2990 RMK AO2 CIG 006V011 SLP129 P0002 60014 T00720061 56019 $=
202012190156 METAR KPWT 190156Z AUTO 20015G22KT 10SM -RA BKN008 OVC014 07/06 A2991 RMK AO2 RAB0059 CIG 006V012 SLP135 P0012 T00720061 $=
202012190143 SPECI KPWT 190143Z AUTO 21015G21KT 6SM -RA BR BKN008 OVC014 07/07 A2993 RMK AO2 RAB0059 CIG 007V010 P0010 $=
202012190136 SPECI KPWT 190136Z AUTO 22013KT 5SM RA BR FEW009 OVC015 07/06 A2993 RMK AO2 RAB0059 P0007 $=
202012190056 METAR KPWT 190056Z AUTO 22015G19KT 10SM OVC020 07/06 A2992 RMK AO2 SLP136 T00720061 $=
202012182356 METAR KPWT 182356Z AUTO 21011KT 10SM OVC018 07/06 A2995 RMK AO2 RAE35 SLP149 P0001 60015 T00720061 10072 20061 58042 $=
202012182256 METAR KPWT 182256Z AUTO 21009KT 7SM -RA OVC016 07/06 A3000 RMK AO2 SLP165 P0004 T00670061 $=
202012182237 SPECI KPWT 182237Z AUTO 20007KT 5SM -RA BR SCT012 OVC017 07/06 A3001 RMK AO2 P0003 $=
202012182156 METAR KPWT 182156Z AUTO 20010KT 7SM -RA OVC010 07/06 A3004 RMK AO2 CIG 005V014 SLP179 P0002 T00670061 $=
202012182056 METAR KPWT 182056Z AUTO 19009KT 8SM -RA OVC006 07/06 A3008 RMK AO2 CIG 004V011 SLP191 P0004 60008 T00670061 58026 $=
202012182042 SPECI KPWT 182042Z AUTO 20010KT 6SM -RA BR BKN006 OVC009 07/06 A3009 RMK AO2 CIG 004V007 P0003 $=
202012181956 METAR KPWT 181956Z AUTO 21010KT 5SM -RA BR OVC004 07/06 A3011 RMK AO2 SLP204 P0003 T00670061 $=
202012181932 SPECI KPWT 181932Z AUTO 20009KT 6SM -RA BR OVC004 07/06 A3012 RMK AO2 P0001 $=
202012181856 METAR KPWT 181856Z AUTO 20009KT 8SM -RA OVC006 07/06 A3014 RMK AO2 CIG 004V009 SLP215 P0001 T00670061 $=
202012181756 METAR KPWT 181756Z AUTO 19011KT 10SM -RA OVC006 06/06 A3016 RMK AO2 CIG 003V009 SLP219 P0003 60016 T00610056 10061 20061 55009 $=
202012181656 METAR KPWT 181656Z AUTO 19009G15KT 10SM -RA OVC006 06/06 A3016 RMK AO2 CIG 004V008 SLP218 P0003 T00610056 $=
202012181556 METAR KPWT 181556Z AUTO 19008KT 10SM -RA OVC006 06/06 A3016 RMK AO2 CIG 004V008 SLP221 P0002 T00610056 $=
202012181456 METAR KPWT 181456Z AUTO 19008KT 10SM -RA BKN006 BKN021 OVC027 06/06 A3018 RMK AO2 CIG 005V009 SLP228 P0003 60008 T00610056 53000 $=
202012181356 METAR KPWT 181356Z AUTO 20008KT 7SM -RA BKN008 OVC028 06/06 A3019 RMK AO2 RAB02 CIG 005V011 SLP229 P0005 T00610056 $=
202012181334 SPECI KPWT 181334Z AUTO 19007KT 8SM -RA BKN008 OVC036 06/06 A3018 RMK AO2 RAB02 CIG 005V013 P0002 $=
202012181326 SPECI KPWT 181326Z AUTO 18008KT 9SM -RA SCT008 SCT013 OVC036 06/06 A3018 RMK AO2 RAB02 P0001 $=
202012181319 SPECI KPWT 181319Z AUTO 19009KT 10SM -RA SCT006 BKN015 OVC036 06/06 A3018 RMK AO2 RAB02 P0000 $=
202012181307 SPECI KPWT 181307Z AUTO 19008KT 10SM -RA BKN006 BKN038 06/06 A3018 RMK AO2 RAB02 CIG 005V008 P0000 $=
202012181256 METAR KPWT 181256Z AUTO 19011KT 10SM OVC004 06/06 A3017 RMK AO2 CIG 004V008 SLP224 T00610056 $=
202012181156 METAR KPWT 181156Z AUTO 21006KT 10SM OVC004 06/06 A3018 RMK AO2 RAE03 SLP227 P0000 60002 70002 T00610056 10061 20056 58005 $=
202012181056 METAR KPWT 181056Z AUTO 20010KT 10SM -RA OVC004 06/06 A3020 RMK AO2 CIG 003V006 SLP231 P0001 T00610056 $=
202012180956 METAR KPWT 180956Z AUTO 21009KT 10SM -RA BKN004 OVC008 06/06 A3020 RMK AO2 CIG 003V008 SLP232 P0000 T00610056 $=
202012180927 SPECI KPWT 180927Z AUTO 21011KT 10SM -RA BKN008 OVC038 06/06 A3020 RMK AO2 CIG 005V011 P0000 $=
202012180904 SPECI KPWT 180904Z AUTO 20011KT 10SM -RA BKN010 BKN040 06/06 A3020 RMK AO2 CIG 005V011 P0000 $=
202012180856 METAR KPWT 180856Z AUTO 20007KT 10SM -RA SCT010 BKN040 06/06 A3020 RMK AO2 RAE12B43 SLP231 P0000 60001 T00610056 50004 $=
202012180756 METAR KPWT 180756Z AUTO 20008KT 10SM -RA CLR 06/05 A3020 RMK AO2 SLP231 P0001 T00560050 401110039 $=
202012180714 SPECI KPWT 180714Z AUTO 19004KT 10SM -RA FEW008 BKN039 06/05 A3019 RMK AO2 P0000 $=
202012180656 METAR KPWT 180656Z AUTO 20003KT 10SM -RA SCT016 SCT022 OVC039 06/05 A3019 RMK AO2 RAB19 SLP228 P0000 T00560050 $=
202012180653 SPECI KPWT 180653Z AUTO 19003KT 10SM -RA FEW006 BKN016 OVC039 06/05 A3019 RMK AO2 RAB19 P0000 $=
202012180631 SPECI KPWT 180631Z AUTO 22004KT 10SM -RA FEW007 OVC012 06/05 A3018 RMK AO2 RAB19 P0000 $=
202012180556 METAR KPWT 180556Z AUTO VRB03KT 10SM OVC010 06/05 A3017 RMK AO2 SLP222 T00560050 10089 20039 53017 $=
202012180456 METAR KPWT 180456Z AUTO 18004KT 10SM OVC010 06/05 A3015 RMK AO2 SLP214 T00560050 $=
202012180356 METAR KPWT 180356Z AUTO 00000KT 10SM BKN010 04/04 A3012 RMK AO2 SLP205 T00390039 $=
202012180344 SPECI KPWT 180344Z AUTO 00000KT 10SM SCT010 BKN034 04/04 A3011 RMK AO2 $=
202012180317 SPECI KPWT 180317Z AUTO 13003KT 10SM BKN012 04/04 A3009 RMK AO2 $=
202012180256 METAR KPWT 180256Z AUTO 00000KT 10SM CLR 04/04 A3008 RMK AO2 SLP194 T00440039 53027 $=
202012180156 METAR KPWT 180156Z AUTO 00000KT 10SM CLR 04/04 A3004 RMK AO2 SLP181 T00440039 $=
202012180056 METAR KPWT 180056Z AUTO 00000KT 10SM CLR 07/06 A3003 RMK AO2 SLP175 T00670056 $=
202012172356 METAR KPWT 172356Z AUTO 16004KT 10SM CLR 09/06 A3000 RMK AO2 SLP166 T00890061 10111 20089 53025 $=
202012172256 METAR KPWT 172256Z AUTO 21007KT 10SM FEW029 10/06 A2997 RMK AO2 SLP153 T01000061 $=
202012172228 SPECI KPWT 172228Z AUTO 22008KT 10SM SCT029 11/06 A2995 RMK AO2 $=
202012172156 METAR KPWT 172156Z AUTO 22009KT 10SM BKN029 11/06 A2994 RMK AO2 SLP143 T01110061 $=
202012172137 SPECI KPWT 172137Z AUTO 22008KT 10SM SCT022 BKN029 11/06 A2994 RMK AO2 $=
202012172056 METAR KPWT 172056Z AUTO 21005KT 10SM FEW022 11/06 A2993 RMK AO2 SLP139 T01060061 51027 $=
202012172005 SPECI KPWT 172005Z AUTO 00000KT 10SM BKN020 10/06 A2991 RMK AO2 $=
202012171956 METAR KPWT 171956Z AUTO 24004KT 10SM SCT020 11/06 A2991 RMK AO2 SLP132 T01060061 $=
202012171856 METAR KPWT 171856Z AUTO 26007KT 10SM CLR 09/06 A2989 RMK AO2 SLP127 T00940061 $=
202012171829 SPECI KPWT 171829Z AUTO 26003KT 10SM SCT013 09/06 A2988 RMK AO2 $=
202012171814 SPECI KPWT 171814Z AUTO 23003KT 10SM BKN013 BKN018 09/06 A2986 RMK AO2 $=
202012171756 METAR KPWT 171756Z AUTO 07003KT 10SM OVC015 07/06 A2985 RMK AO2 SLP112 60000 T00720061 10072 20061 53042 $=
202012171656 METAR KPWT 171656Z AUTO 25009G16KT 10SM BKN011 07/06 A2980 RMK AO2 PRESRR SLP095 T00720056 $=
202012171603 SPECI KPWT 171603Z AUTO 21011KT 10SM OVC011 07/06 A2975 RMK AO2 $=
202012171556 METAR KPWT 171556Z AUTO 21010KT 10SM OVC009 07/06 A2975 RMK AO2 SLP079 T00670056 $=
202012171456 METAR KPWT 171456Z AUTO 20013G19KT 10SM OVC007 07/06 A2972 RMK AO2 SLP069 60000 T00670056 53023 $=
202012171356 METAR KPWT 171356Z AUTO 20015G21KT 10SM OVC009 06/06 A2969 RMK AO2 SLP058 T00610056 $=
202012171304 SPECI KPWT 171304Z AUTO 19012G22KT 10SM OVC009 06/05 A2967 RMK AO2 CIG 008V014 $=
202012171256 METAR KPWT 171256Z AUTO 20013G22KT 10SM OVC011 06/05 A2966 RMK AO2 RAE03 CIG 008V013 SLP049 P0000 T00610050 $=
202012171221 SPECI KPWT 171221Z AUTO 20016G22KT 10SM BKN014 OVC021 06/05 A2966 RMK AO2 RAE03 P0000 $=
202012171156 METAR KPWT 171156Z AUTO 20018G23KT 10SM -RA SCT014 BKN019 BKN023 06/05 A2965 RMK AO2 PK WND 20026/1143 SLP045 P0003 60004 7//// T00610050 10072 20061 53013 $=
202012171144 SPECI KPWT 171144Z AUTO 20018G26KT 10SM -RA BKN014 OVC020 06/05 A2965 RMK AO2 PK WND 20026/1143 P0003 $=
202012171056 METAR KPWT 171056Z AUTO 20015G20KT 9SM -RA SCT018 BKN023 OVC028 07/05 A2964 RMK AO2 PK WND 19029/1014 RAB24 SLP043 P0001 T00670050 $=
202012170956 METAR KPWT 170956Z AUTO 20017G22KT 10SM FEW017 SCT023 BKN028 07/05 A2961 RMK AO2 PK WND 18029/0913 SLP033 T00670050 $=
202012170930 SPECI KPWT 170930Z AUTO 20018G25KT 10SM SCT014 SCT019 06/05 A2961 RMK AO2 PK WND 18029/0913 $=
202012170856 METAR KPWT 170856Z AUTO 20015G24KT 10SM BKN013 OVC019 06/05 A2961 RMK AO2 SLP032 T00610050 52018 $=
202012170808 SPECI KPWT 170808Z AUTO 21018G24KT 10SM OVC013 07/05 A2960 RMK AO2 $=
202012170756 METAR KPWT 170756Z AUTO 21020G28KT 10SM BKN015 OVC019 07/05 A2960 RMK AO2 PK WND 20032/0719 SLP027 T00670050 400830067 $=
202012170739 SPECI KPWT 170739Z AUTO 22021G28KT 10SM FEW010 OVC017 07/05 A2959 RMK AO2 PK WND 20032/0719 $=
202012170656 METAR KPWT 170656Z AUTO 21019G27KT 10SM BKN014 OVC018 07/06 A2957 RMK AO2 PK WND 21028/0638 SLP018 T00670056 $=
202012170649 SPECI KPWT 170649Z AUTO 21021G27KT 10SM BKN012 BKN019 OVC023 07/06 A2957 RMK AO2 PK WND 21028/0638 $=
202012170633 SPECI KPWT 170633Z AUTO 21016G23KT 10SM SCT012 BKN019 07/06 A2958 RMK AO2 $=
202012170556 METAR KPWT 170556Z AUTO 21016G29KT 10SM SCT012 07/06 A2956 RMK AO2 PK WND 21030/0534 RAE02 SLP014 P0000 60040 T00720056 10083 20067 53020 $=
202012170506 SPECI KPWT 170506Z AUTO 21016G24KT 10SM SCT006 BKN012 08/07 A2953 RMK AO2 RAE02 P0000 $=
202012170456 METAR KPWT 170456Z AUTO 20019G28KT 10SM -RA BKN006 BKN010 OVC015 08/08 A2952 RMK AO2 PK WND 21028/0451 RAB31 CIG 004V007 SLP003 P0004 T00830078 $=
202012170356 METAR KPWT 170356Z AUTO 19014G23KT 10SM OVC006 08/08 A2950 RMK AO2 RAE54 SLP996 P0002 T00830078 $=
202012170256 METAR KPWT 170256Z AUTO 19015G23KT 10SM -RA OVC008 08/08 A2950 RMK AO2 SLP993 P0005 60034 T00830078 56028 $=
202012170156 METAR KPWT 170156Z AUTO 19003KT 5SM -RA BR BKN008 OVC014 07/07 A2950 RMK AO2 CIG 005V011 SLP994 P0014 T00720067 $=
202012170140 SPECI KPWT 170140Z AUTO VRB03KT 3SM -RA BR BKN006 OVC014 07/07 A2950 RMK AO2 CIG 004V009 P0011 $=
202012170130 SPECI KPWT 170130Z AUTO 00000KT 2 1/2SM -RA BR BKN006 OVC012 07/07 A2951 RMK AO2 CIG 004V009 P0009 $=
202012170110 SPECI KPWT 170110Z AUTO 00000KT 6SM -RA BR BKN009 OVC024 07/07 A2952 RMK AO2 CIG 006V012 P0003 $=
202012170056 METAR KPWT 170056Z AUTO 00000KT 5SM -RA BR FEW011 OVC024 07/07 A2952 RMK AO2 SLP003 P0015 T00720067 $=
202012170048 SPECI KPWT 170048Z AUTO 07003KT 4SM -RA BR SCT012 SCT016 OVC024 07/07 A2953 RMK AO2 PRESFR P0014 $=
202012170034 SPECI KPWT 170034Z AUTO 00000KT 2SM -RA BR FEW010 SCT016 OVC024 07/07 A2955 RMK AO2 VIS 1 3/4V3 P0010 $=
202012170024 SPECI KPWT 170024Z AUTO 00000KT 3SM -RA BR SCT010 SCT014 OVC026 07/07 A2956 RMK AO2 P0007 $=
202012170014 SPECI KPWT 170014Z AUTO 00000KT 4SM -RA BR FEW008 BKN012 OVC026 07/07 A2956 RMK AO2 P0004 $=
202012162356 METAR KPWT 162356Z AUTO VRB03KT 6SM RA BR FEW010 BKN023 OVC028 07/07 A2958 RMK AO2 SLP022 P0014 6//// T00720067 10078 20067 56037 $=
202012162256 METAR KPWT 162256Z AUTO 15005KT 4SM -RA BR OVC032 07/07 A2962 RMK AO2 SLP034 P0011 T00720067 $=
202012162156 METAR KPWT 162156Z AUTO VRB03KT 5SM -RA BR OVC034 07/07 A2969 RMK AO2 SLP059 P0013 T00720067 $=
202012162147 SPECI KPWT 162147Z AUTO 00000KT 5SM -RA BR SCT030 OVC037 07/07 A2970 RMK AO2 P0012 $=
202012162117 SPECI KPWT 162117Z AUTO 00000KT 3SM -RA BR BKN026 OVC039 07/07 A2974 RMK AO2 PRESFR P0006 $=
202012162114 SPECI KPWT 162114Z AUTO 00000KT 2 1/2SM -RA BR SCT026 OVC039 07/07 A2975 RMK AO2 PRESFR P0005 $=
202012162056 METAR KPWT 162056Z AUTO 00000KT 5SM -RA BR FEW004 SCT009 OVC039 07/07 A2977 RMK AO2 SLP087 P0008 6//// T00720072 58061 $=
202012162007 SPECI KPWT 162007Z AUTO 00000KT 10SM -RA FEW004 OVC035 08/07 A2983 RMK AO2 P0000 $=
202012161956 METAR KPWT 161956Z AUTO 00000KT 10SM -RA BKN035 OVC042 08/07 A2984 RMK AO2 RAB56 PRESFR SLP109 P0000 T00780067 $=
202012161856 METAR KPWT 161856Z AUTO 21004KT 10SM OVC055 08/07 A2990 RMK AO2 SLP130 T00780072 $=
202012161756 METAR KPWT 161756Z AUTO 21006KT 10SM FEW006 OVC041 07/07 A2995 RMK AO2 SLP149 60006 T00720067 10072 20072 56024 $=
202012161743 SPECI KPWT 161743Z AUTO 21006KT 10SM SCT006 OVC039 07/07 A2996 RMK AO2 $=
202012161722 SPECI KPWT 161722Z AUTO 21007KT 10SM BKN006 OVC037 07/07 A2998 RMK AO2 CIG 004V010 $=
202012161656 METAR KPWT 161656Z AUTO 19004KT 10SM OVC004 07/07 A2998 RMK AO2 SLP158 P0001 T00720067 $=
202012161556 METAR KPWT 161556Z AUTO 19005KT 7SM OVC004 07/07 A3000 RMK AO2 SLP163 T00720067 $=
202012161456 METAR KPWT 161456Z AUTO 20005KT 10SM OVC004 07/07 A3003 RMK AO2 SLP173 60005 T00720067 58025 $=
202012161356 METAR KPWT 161356Z AUTO 19007KT 10SM OVC004 07/07 A3006 RMK AO2 RAB14E55 SLP184 P0001 T00720067 $=
202012161256 METAR KPWT 161256Z AUTO 18008KT 10SM OVC004 07/07 A3008 RMK AO2 RAB1158E48 SLP192 P0004 T00720067 $=
202012161156 METAR KPWT 161156Z AUTO 18007KT 7SM OVC004 07/07 A3010 RMK AO2 RAE39 SLP199 P0002 60006 70040 T00720067 10072 20067 58007 $=
202012161056 METAR KPWT 161056Z AUTO 19007KT 10SM -RA OVC004 07/07 A3012 RMK AO2 RAB45 SLP204 P0000 T00720072 $=
202012160956 METAR KPWT 160956Z AUTO 20010KT 10SM OVC004 07/07 A3012 RMK AO2 RAE06 SLP206 P0000 T00720067 $=
202012160856 METAR KPWT 160856Z AUTO 20010KT 10SM -RA OVC004 07/07 A3012 RMK AO2 RAB34 CIG 003V007 SLP206 P0001 60004 T00720072 58003 $=
202012160803 SPECI KPWT 160803Z AUTO 19010G16KT 10SM BKN004 BKN008 OVC012 07/07 A3013 RMK AO2 $=
202012160756 METAR KPWT 160756Z AUTO 19012G18KT 10SM BKN006 OVC012 07/07 A3013 RMK AO2 RAB18E32 CIG 003V008 SLP208 P0001 T00720067 400830050 $=
202012160656 METAR KPWT 160656Z AUTO 19009KT 10SM OVC004 07/07 A3013 RMK AO2 RAE42 CIG 003V010 SLP209 P0002 T00720067 $=
202012160634 SPECI KPWT 160634Z AUTO 21009KT 7SM -RA BKN004 OVC009 07/07 A3013 RMK AO2 CIG 003V007 P0002 $=
202012160627 SPECI KPWT 160627Z AUTO 20009KT 7SM -RA BKN007 OVC012 07/07 A3013 RMK AO2 CIG 003V009 P0002 $=
202012160607 SPECI KPWT 160607Z AUTO 19009KT 6SM -RA BR FEW007 BKN014 OVC036 07/07 A3012 RMK AO2 P0002 $=
202012160556 METAR KPWT 160556Z AUTO 20010KT 8SM -RA SCT007 BKN024 OVC043 07/06 A3012 RMK AO2 RAB28 SLP207 P0000 60000 T00720061 10072 20067 53009 $=
202012160551 SPECI KPWT 160551Z AUTO 20009KT 10SM -RA FEW009 SCT026 BKN037 07/06 A3012 RMK AO2 RAB28 P0000 $=
202012160456 METAR KPWT 160456Z AUTO 19012KT 10SM SCT050 BKN060 07/06 A3010 RMK AO2 RAB35E53 SLP200 P0000 T00670061 $=
202012160416 SPECI KPWT 160416Z AUTO 19011KT 10SM SCT011 OVC065 07/06 A3010 RMK AO2 $=
202012160356 METAR KPWT 160356Z AUTO 20012G19KT 10SM OVC011 07/06 A3010 RMK AO2 SLP198 T00720056 $=
202012160256 METAR KPWT 160256Z AUTO 19012G20KT 10SM BKN011 07/06 A3007 RMK AO2 SLP189 T00720061 51017 $=
202012160243 SPECI KPWT 160243Z AUTO 20012G18KT 10SM BKN011 07/06 A3007 RMK AO2 $=
202012160156 METAR KPWT 160156Z AUTO 19013KT 10SM FEW009 SCT110 07/06 A3005 RMK AO2 SLP182 T00720061 $=
202012160143 SPECI KPWT 160143Z AUTO 19011KT 10SM FEW009 SCT015 BKN075 07/06 A3006 RMK AO2 $=
202012160056 METAR KPWT 160056Z AUTO 20012G19KT 10SM FEW075 07/06 A3005 RMK AO2 SLP182 T00720061 $=
202012152356 METAR KPWT 152356Z AUTO 20011G18KT 10SM BKN075 07/06 A3002 RMK AO2 RAB26E36 SLP173 P0000 60003 T00720056 10083 20061 53012 $=
202012152256 METAR KPWT 152256Z AUTO 20013G16KT 10SM SCT008 OVC070 08/07 A3000 RMK AO2 SLP164 T00780072 $=
202012152254 SPECI KPWT 152254Z AUTO 20013G16KT 10SM SCT008 OVC070 08/07 A3000 RMK AO2 $=
202012152240 SPECI KPWT 152240Z AUTO 18009G15KT 10SM BKN008 BKN070 BKN080 08/07 A2999 RMK AO2 CIG 005V011 $=
202012152233 SPECI KPWT 152233Z AUTO 19010G17KT 10SM FEW008 SCT017 BKN070 08/07 A2999 RMK AO2 $=
202012152217 SPECI KPWT 152217Z AUTO 19012G17KT 10SM SCT006 BKN017 BKN070 08/07 A2999 RMK AO2 $=
202012152156 METAR KPWT 152156Z AUTO 18009KT 10SM BKN006 OVC012 08/07 A2999 RMK AO2 RAB37E52 CIG 004V009 SLP160 P0000 T00780072 $=
202012152144 SPECI KPWT 152144Z AUTO 20009KT 10SM -RA BKN006 OVC010 08/07 A2999 RMK AO2 RAB37 CIG 004V007 P0000 $=
202012152134 SPECI KPWT 152134Z AUTO 20010G16KT 10SM OVC004 08/07 A2998 RMK AO2 CIG 004V009 $=
202012152124 SPECI KPWT 152124Z AUTO 19009KT 10SM OVC006 08/07 A2998 RMK AO2 CIG 003V009 $=
202012152056 METAR KPWT 152056Z AUTO 18011G18KT 10SM BKN004 BKN008 BKN013 07/07 A2998 RMK AO2 RAE09 SLP157 P0000 60003 T00720067 51004 $=
202012151956 METAR KPWT 151956Z AUTO 20011G17KT 10SM -RA OVC004 07/06 A2997 RMK AO2 RAB20 SLP157 P0001 T00670061 $=
202012151952 SPECI KPWT 151952Z AUTO 19013G17KT 10SM -RA OVC004 07/06 A2997 RMK AO2 RAB20 CIG 004V009 P0001 $=
202012151856 METAR KPWT 151856Z AUTO 19011KT 10SM OVC006 06/06 A2997 RMK AO2 RAE32 SLP154 P0002 T00610056 $=
202012151756 METAR KPWT 151756Z AUTO 20009G16KT 7SM -RA OVC006 06/06 A2996 RMK AO2 SLP152 P0003 60031 T00610056 10061 20050 53006 $=
202012151656 METAR KPWT 151656Z AUTO 20011G17KT 10SM -RA OVC006 06/06 A2995 RMK AO2 SLP147 P0003 T00560056 $=
202012151556 METAR KPWT 151556Z AUTO 21014G20KT 7SM -RA OVC006 06/05 A2994 RMK AO2 CIG 004V008 SLP144 P0005 T00560050 $=
202012151456 METAR KPWT 151456Z AUTO 20012G21KT 7SM -RA OVC006 06/05 A2994 RMK AO2 CIG 004V008 SLP146 P0006 60020 T00560050 56022 $=
202012151356 METAR KPWT 151356Z AUTO 19013G21KT 5SM -RA BR OVC006 06/05 A2996 RMK AO2 CIG 004V011 SLP151 P0006 T00560050 $=
202012151335 SPECI KPWT 151335Z AUTO 20010G18KT 4SM -RA BR OVC006 06/05 A2996 RMK AO2 CIG 004V008 P0004 $=
202012151313 SPECI KPWT 151313Z AUTO 21012KT 5SM -RA BR OVC004 05/05 A2997 RMK AO2 P0002 $=
202012151256 METAR KPWT 151256Z AUTO 21008KT 4SM -RA BR BKN006 OVC010 05/05 A2998 RMK AO2 SLP159 P0008 T00500050 $=
202012151234 SPECI KPWT 151234Z AUTO 21009KT 4SM -RA BR BKN006 OVC013 05/05 A2999 RMK AO2 CIG 003V010 P0006 $=
202012151209 SPECI KPWT 151209Z AUTO 23007KT 4SM -RA BR OVC004 05/05 A3000 RMK AO2 P0002 $=
202012151156 METAR KPWT 151156Z AUTO 23005KT 2SM -RA BR BKN004 BKN007 OVC026 05/05 A3001 RMK AO2 SLP169 P0008 60012 70013 T00500050 10061 20050 56031 $=
202012151154 SPECI KPWT 151154Z AUTO 24006KT 2 1/2SM -RA BR BKN004 BKN007 OVC026 05/05 A3001 RMK AO2 P0007 $=
202012151144 SPECI KPWT 151144Z AUTO 24005KT 2 1/2SM -RA BR FEW004 SCT021 OVC026 05/05 A3002 RMK AO2 P0006 $=
202012151120 SPECI KPWT 151120Z AUTO 25004KT 4SM -RA BR BKN028 OVC036 05/05 A3003 RMK AO2 P0003 $=
202012151056 METAR KPWT 151056Z AUTO 23005KT 10SM -RA FEW038 BKN048 05/05 A3004 RMK AO2 RAE23B50 SLP179 P0000 T00500050 $=
202012151021 SPECI KPWT 151021Z AUTO 22006KT 10SM -RA SCT005 SCT010 BKN031 05/05 A3005 RMK AO2 P0000 $=
202012151013 SPECI KPWT 151013Z AUTO 22005KT 10SM -RA BKN005 BKN010 OVC032 06/05 A3005 RMK AO2 CIG 003V009 P0000 $=
202012151003 SPECI KPWT 151003Z AUTO 21007KT 10SM -RA SCT005 BKN009 BKN016 06/05 A3007 RMK AO2 CIG 008V013 P0000 $=
202012150956 METAR KPWT 150956Z AUTO 21006KT 10SM -RA SCT005 BKN016 BKN055 05/05 A3007 RMK AO2 SLP189 P0001 T00500050 $=
202012150906 SPECI KPWT 150906Z AUTO 20006KT 10SM -RA SCT009 OVC038 06/05 A3010 RMK AO2 P0001 $=
202012150856 METAR KPWT 150856Z AUTO 19006KT 10SM -RA SCT007 BKN013 OVC038 06/05 A3010 RMK AO2 SLP200 P0001 60003 T00560050 58027 $=
202012150838 SPECI KPWT 150838Z AUTO 19008KT 10SM -RA SCT007 SCT015 OVC036 06/05 A3012 RMK AO2 P0001 $=
202012150756 METAR KPWT 150756Z AUTO 21007KT 10SM -RA OVC009 06/05 A3015 RMK AO2 CIG 006V012 SLP215 P0000 T00560050 400940050 $=
202012150724 SPECI KPWT 150724Z AUTO 19005KT 10SM -RA BKN009 OVC029 06/05 A3016 RMK AO2 CIG 006V012 P0000 $=
202012150717 SPECI KPWT 150717Z AUTO 19007KT 10SM -RA SCT009 BKN029 06/05 A3016 RMK AO2 P0000 $=
202012150703 SPECI KPWT 150703Z AUTO 20007KT 10SM -RA BKN009 OVC028 06/05 A3017 RMK AO2 CIG 007V012 P0000 $=
202012150656 METAR KPWT 150656Z AUTO 20009KT 10SM -RA BKN011 BKN030 06/05 A3017 RMK AO2 RAB00 CIG 007V013 SLP224 P0002 T00560050 $=
202012150622 SPECI KPWT 150622Z AUTO 20006KT 10SM -RA BKN011 OVC037 06/05 A3018 RMK AO2 RAB00 P0000 $=
202012150556 METAR KPWT 150556Z AUTO 19009G15KT 10SM SCT039 SCT049 06/04 A3019 RMK AO2 SLP229 60001 T00610044 10061 20050 58010 $=
202012150456 METAR KPWT 150456Z AUTO 19011KT 10SM SCT034 OVC110 06/04 A3020 RMK AO2 SLP233 T00610044 $=
202012150435 SPECI KPWT 150435Z AUTO 20009KT 10SM SCT009 BKN034 OVC110 06/05 A3020 RMK AO2 $=
202012150356 METAR KPWT 150356Z AUTO 20007KT 10SM BKN007 OVC011 06/05 A3022 RMK AO2 SLP239 T00560050 $=
202012150333 SPECI KPWT 150333Z AUTO 20005KT 10SM BKN009 BKN032 OVC120 06/05 A3022 RMK AO2 CIG 006V011 $=
202012150309 SPECI KPWT 150309Z AUTO 19006KT 10SM SCT009 SCT032 BKN120 06/05 A3021 RMK AO2 $=
202012150256 METAR KPWT 150256Z AUTO 20005KT 10SM BKN009 BKN050 06/05 A3022 RMK AO2 RAB34E56 CIG 007V015 SLP240 P0000 60001 T00560050 56005 $=
202012150212 SPECI KPWT 150212Z AUTO 18004KT 10SM FEW009 SCT027 06/05 A3022 RMK AO2 $=
202012150156 METAR KPWT 150156Z AUTO 20004KT 10SM FEW009 SCT016 BKN027 06/06 A3022 RMK AO2 RAE12 SLP242 P0000 T00560056 $=
202012150152 SPECI KPWT 150152Z AUTO 19003KT 10SM FEW017 SCT021 BKN027 06/06 A3022 RMK AO2 RAE12 P0000 $=
202012150104 SPECI KPWT 150104Z AUTO 18004KT 10SM -RA FEW008 SCT017 BKN042 06/06 A3024 RMK AO2 P0000 $=
202012150056 METAR KPWT 150056Z AUTO 18006KT 9SM -RA FEW008 SCT020 BKN026 06/06 A3023 RMK AO2 RAB42 SLP245 P0001 T00610056 $=
202012150032 SPECI KPWT 150032Z AUTO 18005KT 10SM BKN024 BKN032 06/06 A3024 RMK AO2 $=
202012142356 METAR KPWT 142356Z AUTO 19007KT 10SM FEW032 06/05 A3025 RMK AO2 SLP249 T00610050 10094 20056 53001 $=
202012142256 METAR KPWT 142256Z AUTO 18004KT 10SM CLR 07/06 A3024 RMK AO2 SLP246 T00720056 $=
202012142156 METAR KPWT 142156Z AUTO 19007KT 10SM CLR 07/05 A3024 RMK AO2 SLP245 T00720050 $=
202012142138 SPECI KPWT 142138Z AUTO 20008KT 10SM SCT016 09/06 A3023 RMK AO2 $=
202012142122 SPECI KPWT 142122Z AUTO 22011KT 10SM BKN016 09/06 A3024 RMK AO2 $=
202012142056 METAR KPWT 142056Z AUTO 23007KT 10SM BKN012 OVC017 09/07 A3024 RMK AO2 SLP247 T00890067 58007 $=
202012142048 SPECI KPWT 142048Z AUTO 26006KT 10SM OVC012 09/07 A3024 RMK AO2 $=
202012142041 SPECI KPWT 142041Z AUTO 24005KT 10SM SCT009 OVC016 08/07 A3024 RMK AO2 $=
202012142014 SPECI KPWT 142014Z AUTO 23005KT 10SM OVC007 07/06 A3025 RMK AO2 $=
202012141956 METAR KPWT 141956Z AUTO 24007KT 10SM OVC005 07/06 A3026 RMK AO2 CIG 005V009 SLP251 T00670056 $=
202012141933 SPECI KPWT 141933Z AUTO 22008KT 10SM OVC005 07/06 A3026 RMK AO2 CIG 002V008 $=
202012141856 METAR KPWT 141856Z AUTO 21006KT 10SM OVC003 06/06 A3026 RMK AO2 SLP255 T00610056 $=
202012141756 METAR KPWT 141756Z AUTO 21005KT 4SM BR OVC003 06/06 A3026 RMK AO2 SLP254 T00560056 10061 20056 53024 $=
202012141656 METAR KPWT 141656Z AUTO 24004KT 10SM OVC003 06/06 A3023 RMK AO2 SLP244 T00560056 $=
202012141644 SPECI KPWT 141644Z AUTO 24004KT 10SM OVC003 06/05 A3022 RMK AO2 $=
202012141626 SPECI KPWT 141626Z AUTO 24004KT 10SM OVC005 06/06 A3022 RMK AO2 CIG 003V007 $=
202012141556 METAR KPWT 141556Z AUTO 00000KT 10SM OVC007 06/05 A3020 RMK AO2 CIG 005V010 SLP234 T00560050 $=
202012141456 METAR KPWT 141456Z AUTO 22003KT 10SM OVC007 06/06 A3019 RMK AO2 SLP230 T00610056 52011 $=
202012141356 METAR KPWT 141356Z AUTO 00000KT 10SM OVC007 06/06 A3017 RMK AO2 CIG 005V009 SLP223 T00610056 $=
202012141352 SPECI KPWT 141352Z AUTO 21003KT 10SM OVC007 06/06 A3017 RMK AO2 CIG 004V009 $=
202012141326 SPECI KPWT 141326Z AUTO 21004KT 10SM OVC005 06/06 A3017 RMK AO2 CIG 003V008 $=
202012141256 METAR KPWT 141256Z AUTO 21004KT 10SM OVC003 06/06 A3016 RMK AO2 SLP218 T00610061 $=
202012141156 METAR KPWT 141156Z AUTO 21005KT 5SM BR OVC003 06/06 A3014 RMK AO2 RAB14E36 SLP214 P0000 60002 70040 T00610061 10061 20056 53016 $=
202012141056 METAR KPWT 141056Z AUTO 23005KT 7SM OVC003 06/06 A3013 RMK AO2 SLP210 T00610056 $=
202012140956 METAR KPWT 140956Z AUTO 20010KT 9SM OVC003 06/06 A3010 RMK AO2 SLP201 T00560056 $=
202012140856 METAR KPWT 140856Z AUTO 20006KT 10SM OVC003 06/06 A3010 RMK AO2 SLP198 60002 T00610056 51014 $=
202012140756 METAR KPWT 140756Z AUTO 20008KT 10SM OVC003 06/06 A3008 RMK AO2 RAB25E39 SLP194 P0000 T00610056 400670011 $=
202012140656 METAR KPWT 140656Z AUTO 21008KT 9SM OVC003 06/06 A3008 RMK AO2 RAE48 SLP191 P0002 T00610056 $=
202012140632 SPECI KPWT 140632Z AUTO 20005KT 10SM -RA BKN003 BKN014 OVC037 06/06 A3007 RMK AO2 P0001 $=
202012140626 SPECI KPWT 140626Z AUTO 20007KT 8SM -RA SCT005 BKN014 OVC037 06/06 A3007 RMK AO2 P0001 $=
202012140618 SPECI KPWT 140618Z AUTO 20007KT 9SM -RA BKN014 BKN028 OVC038 06/06 A3006 RMK AO2 P0001 $=
202012140611 SPECI KPWT 140611Z AUTO 20008KT 9SM -RA FEW005 BKN030 OVC038 06/06 A3006 RMK AO2 P0001 $=
202012140556 METAR KPWT 140556Z AUTO 20007KT 10SM -RA SCT005 BKN018 OVC027 06/06 A3005 RMK AO2 RAB48 SLP184 P0000 60000 T00610056 10067 20056 53017 $=
202012140514 SPECI KPWT 140514Z AUTO 20007KT 10SM SCT003 OVC020 06/06 A3004 RMK AO2 $=
202012140456 METAR KPWT 140456Z AUTO 20004KT 6SM BR OVC003 06/06 A3004 RMK AO2 SLP180 T00560056 $=
202012140420 SPECI KPWT 140420Z AUTO 22004KT 10SM OVC003 06/06 A3003 RMK AO2 $=
202012140356 METAR KPWT 140356Z AUTO 20006KT 10SM OVC005 06/06 A3002 RMK AO2 SLP172 T00610056 $=
202012140316 SPECI KPWT 140316Z AUTO 21003KT 10SM OVC005 06/06 A3001 RMK AO2 CIG 004V008 $=
202012140256 METAR KPWT 140256Z AUTO 23004KT 10SM OVC007 06/06 A3000 RMK AO2 CIG 004V009 SLP168 T00610056 53008 $=
202012140247 SPECI KPWT 140247Z AUTO 20004KT 10SM OVC007 06/06 A3000 RMK AO2 CIG 004V009 $=
202012140231 SPECI KPWT 140231Z AUTO 22004KT 10SM OVC005 06/06 A3000 RMK AO2 CIG 004V008 $=
202012140156 METAR KPWT 140156Z AUTO 20007KT 10SM OVC007 07/06 A2998 RMK AO2 SLP160 T00670061 $=
202012140056 METAR KPWT 140056Z AUTO 20004KT 10SM OVC007 07/06 A2998 RMK AO2 SLP159 T00670061 $=
202012132356 METAR KPWT 132356Z AUTO 19006KT 10SM OVC005 06/06 A2997 RMK AO2 RAE50 CIG 003V007 SLP155 P0001 60014 T00610061 10061 20039 53009 $=
202012132324 SPECI KPWT 132324Z AUTO 19005KT 10SM OVC005 06/06 A2995 RMK AO2 RAE23 CIG 003V008 P0000 $=
202012132256 METAR KPWT 132256Z AUTO 19004KT 6SM -RA BR OVC003 06/06 A2995 RMK AO2 RAE16B52 SLP149 P0002 T00610056 $=
202012132156 METAR KPWT 132156Z AUTO 20005KT 10SM -RA OVC003 06/06 A2994 RMK AO2 SLP143 P0001 T00560056 $=
202012132056 METAR KPWT 132056Z AUTO 18005KT 7SM -RA OVC003 05/05 A2994 RMK AO2 SLP143 P0001 60010 T00500050 58002 $=
202012131956 METAR KPWT 131956Z AUTO 21004KT 4SM -RA BR OVC003 04/04 A2994 RMK AO2 SLP144 P0003 T00440044 $=
202012131935 SPECI KPWT 131935Z AUTO VRB03KT 3SM -RA BR BKN003 OVC006 04/04 A2994 RMK AO2 P0002 $=
202012131914 SPECI KPWT 131914Z AUTO 00000KT 2 1/2SM -RA BR OVC008 04/03 A2995 RMK AO2 CIG 004V011 P0001 $=
202012131856 METAR KPWT 131856Z AUTO 19004KT 10SM -RA OVC010 04/03 A2995 RMK AO2 CIG 007V014 SLP151 P0006 T00390033 $=
202012131756 METAR KPWT 131756Z AUTO 00000KT 6SM -RA BR OVC014 04/03 A2994 RMK AO2 SLP148 P0009 60024 T00390033 10039 20028 51009 $=
202012131752 SPECI KPWT 131752Z AUTO 00000KT 7SM -RA OVC014 04/03 A2994 RMK AO2 P0009 $=
202012131656 METAR KPWT 131656Z AUTO 00000KT 6SM -RA BR BKN018 OVC025 03/03 A2992 RMK AO2 RAB1559 SLP140 P0006 T00330028 $=
202012131556 METAR KPWT 131556Z AUTO 00000KT 6SM BR OVC020 03/03 A2992 RMK AO2 RAE32UPB32E40 SLP138 P0003 T00330028 $=
202012131456 METAR KPWT 131456Z AUTO 00000KT 5SM -RA BR OVC020 03/02 A2991 RMK AO2 UPB15E37RAB37 SLP137 P0003 60006 T00280022 $=
202012131425 SPECI KPWT 131425Z AUTO 00000KT 3SM UP BR BKN020 OVC026 03/02 A2991 RMK AO2 UPB15 P0000 $=
202012131410 SPECI KPWT 131410Z AUTO 00000KT 1 3/4SM BR OVC022 03/03 A2992 RMK AO2 $=
202012131356 METAR KPWT 131356Z AUTO 00000KT 5SM BR OVC022 03/02 A2991 RMK AO2 UPE43 SLP136 P0002 T00280022 $=
202012131348 SPECI KPWT 131348Z AUTO 00000KT 3SM BR SCT016 OVC022 03/02 A2991 RMK AO2 UPE43 P0002 $=
202012131335 SPECI KPWT 131335Z AUTO 00000KT 2 1/2SM UP BR OVC018 03/02 A2992 RMK AO2 P0001 $=
202012131317 SPECI KPWT 131317Z AUTO 00000KT 1 3/4SM UP BR OVC016 03/02 A2992 RMK AO2 P0001 $=
202012131256 METAR KPWT 131256Z AUTO 00000KT 4SM UP BR OVC018 03/02 RMK AO2 RAE02UPB02 SLPNO P0001 T00280022 $=
202012131247 SPECI KPWT 131247Z AUTO 00000KT 4SM UP BR OVC018 03/02 A2993 RMK AO2 RAE02UPB02 P0001 $=
202012131240 SPECI KPWT 131240Z AUTO 00000KT 2 1/2SM UP BR FEW011 OVC020 03/02 A2993 RMK AO2 RAE02UPB02 P0001 $=
202012131213 SPECI KPWT 131213Z AUTO 34003KT 5SM UP BR SCT011 OVC022 03/02 A2994 RMK AO2 RAE02UPB02 P0001 $=
202012131156 METAR KPWT 131156Z AUTO 33004KT 2 1/2SM -RA BR OVC024 03/02 A2994 RMK AO2 UPB17E24 SLP145 P0002 60007 7//// T00280022 10028 20006 50001 $=
202012131131 SPECI KPWT 131131Z AUTO 31004KT 4SM -RA BR SCT014 OVC026 03/02 A2994 RMK AO2 UPB17E24 P0001 $=
202012131123 SPECI KPWT 131123Z AUTO 00000KT 5SM UP BR BKN014 BKN021 OVC026 03/02 A2995 RMK AO2 RAE17UPB17 P0001 $=
202012131056 METAR KPWT 131056Z AUTO 07003KT 5SM -RA BR FEW016 BKN021 OVC028 03/02 A2995 RMK AO2 SLP149 P0002 T00280022 $=
202012130956 METAR KPWT 130956Z AUTO 00000KT 10SM -RA OVC025 02/02 A2994 RMK AO2 UPB04E13 SLP148 P0003 T00220017 FZRANO $=
202012130929 SPECI KPWT 130929Z AUTO 29004KT 10SM -RA BKN027 OVC033 02/02 A2995 RMK AO2 UPB04E13 P0001 FZRANO $=
202012130856 METAR KPWT 130856Z AUTO 00000KT 10SM -RA FEW024 SCT031 BKN042 02/02 A2994 RMK AO2 RAB26 SLP144 P0000 60000 T00220017 56005 FZRANO $=
202012130756 METAR KPWT 130756Z AUTO 00000KT 10SM FEW080 OVC110 01/01 A2995 RMK AO2 SLP147 T00110006 400611022 FZRANO $=
202012130656 METAR KPWT 130656Z AUTO 00000KT 10SM CLR 01/00 A2994 RMK AO2 SLP146 T00060000 FZRANO $=
202012130556 METAR KPWT 130556Z AUTO 00000KT 10SM CLR 01/00 A2995 RMK AO2 SLP151 6//// T00060000 10044 21017 56033 FZRANO $=
202012130456 METAR KPWT 130456Z AUTO 00000KT 10SM CLR 01/01 A2997 RMK AO2 SLP158 T00110011 FZRANO $=
202012130356 METAR KPWT 130356Z AUTO 03003KT 10SM CLR 00/00 A3002 RMK AO2 SLP173 T00000000 FZRANO $=
202012130256 METAR KPWT 130256Z AUTO 00000KT 10SM CLR M01/M01 A3005 RMK AO2 SLP186 T10061006 58017 FZRANO $=
202012130217 SPECI KPWT 130217Z AUTO 00000KT 10SM CLR M02/M02 A3007 RMK AO2 FZRANO $=
202012130208 SPECI KPWT 130208Z AUTO 00000KT 2 1/2SM BR CLR M02/M02 A3007 RMK AO2 FZRANO $=
202012130156 METAR KPWT 130156Z AUTO 00000KT 10SM CLR M01/M02 A3008 RMK AO2 SLP194 T10111017 FZRANO $=
202012130056 METAR KPWT 130056Z AUTO 00000KT 10SM CLR 01/00 A3010 RMK AO2 SLP201 T00060000 FZRANO $=
202012122356 METAR KPWT 122356Z AUTO 00000KT 10SM CLR 04/02 A3010 RMK AO2 SLP202 T00440017 10061 20028 56017 $=
202012122256 METAR KPWT 122256Z AUTO 06006KT 10SM CLR 06/02 A3011 RMK AO2 SLP203 T00560022 $=
202012122156 METAR KPWT 122156Z AUTO 04007KT 10SM CLR 06/02 A3013 RMK AO2 SLP208 T00610022 $=
202012122056 METAR KPWT 122056Z AUTO 05004KT 10SM CLR 06/03 A3015 RMK AO2 SLP218 T00560028 58025 $=
202012121956 METAR KPWT 121956Z AUTO 07003KT 10SM CLR 06/03 A3018 RMK AO2 SLP228 T00560028 $=
202012121856 METAR KPWT 121856Z AUTO 04005KT 10SM CLR 04/02 A3021 RMK AO2 SLP236 T00390022 $=
202012121756 METAR KPWT 121756Z AUTO 06003KT 10SM SCT007 03/03 A3023 RMK AO2 SLP243 T00280028 10033 21011 58005 $=
202012121714 SPECI KPWT 121714Z AUTO 01003KT 10SM OVC007 03/03 A3025 RMK AO2 CIG 004V010 $=
202012121707 SPECI KPWT 121707Z AUTO 36005KT 10SM OVC005 03/03 A3024 RMK AO2 CIG 003V010 $=
202012121656 METAR KPWT 121656Z AUTO 00000KT 9SM OVC003 03/02 A3025 RMK AO2 CIG 003V007 SLP251 T00280022 $=
202012121603 SPECI KPWT 121603Z AUTO 00000KT 10SM OVC003 02/02 A3025 RMK AO2 FZRANO $=
202012121556 METAR KPWT 121556Z AUTO 00000KT 9SM OVC005 02/02 A3025 RMK AO2 SLP253 T00170017 FZRANO $=
202012121456 METAR KPWT 121456Z AUTO 00000KT 9SM OVC005 01/01 A3025 RMK AO2 SLP251 T00110011 53004 FZRANO $=
202012121439 SPECI KPWT 121439Z AUTO 00000KT 10SM OVC005 01/01 A3025 RMK AO2 FZRANO $=
202012121356 METAR KPWT 121356Z AUTO 00000KT 10SM BKN009 OVC014 01/01 A3024 RMK AO2 CIG 006V010 SLP248 T00060006 FZRANO $=
202012121256 METAR KPWT 121256Z AUTO 22003KT 10SM OVC008 00/00 A3023 RMK AO2 CIG 006V011 SLP247 T00000000 FZRANO $=
202012121252 SPECI KPWT 121252Z AUTO 22004KT 10SM BKN008 OVC012 00/00 A3023 RMK AO2 FZRANO $=
202012121156 METAR KPWT 121156Z AUTO 28003KT 10SM BKN013 M01/M01 A3022 RMK AO2 SLP242 T10111011 10022 21022 51021 FZRANO $=
202012121150 SPECI KPWT 121150Z AUTO 26004KT 9SM FEW009 BKN013 M01/M01 A3022 RMK AO2 FZRANO $=
202012121135 SPECI KPWT 121135Z AUTO 00000KT 10SM SCT011 00/M01 A3021 RMK AO2 FZRANO $=
202012121056 METAR KPWT 121056Z AUTO 21005KT 10SM OVC011 00/00 A3022 RMK AO2 SLP239 T00000000 FZRANO $=
202012121047 SPECI KPWT 121047Z AUTO 22005KT 10SM BKN011 00/00 A3021 RMK AO2 FZRANO $=
202012120956 METAR KPWT 120956Z AUTO 06005KT 10SM CLR 02/02 A3017 RMK AO2 SLP223 T00170017 FZRANO $=
202012120856 METAR KPWT 120856Z AUTO 03004KT 8SM SCT010 M01/M01 A3016 RMK AO2 SLP220 T10061006 51007 FZRANO $=
202012120847 SPECI KPWT 120847Z AUTO 07003KT 4SM BR BKN010 00/M01 A3016 RMK AO2 FZRANO $=
202012120844 SPECI KPWT 120844Z AUTO 00000KT 1 1/4SM BR BKN010 M01/M01 A3016 RMK AO2 FZRANO $=
202012120842 SPECI KPWT 120842Z AUTO 00000KT 3/4SM BR BKN010 M01/M01 A3016 RMK AO2 FZRANO $=
202012120824 SPECI KPWT 120824Z AUTO 00000KT 1/4SM FZFG VV011 M02/M02 A3016 RMK AO2 FZRANO $=
202012120805 SPECI KPWT 120805Z AUTO 00000KT 1/4SM FZFG CLR M02/M02 A3015 RMK AO2 FZRANO $=
202012120756 METAR KPWT 120756Z AUTO 00000KT 1/2SM FZFG CLR M01/M02 A3015 RMK AO2 SLP217 T10111017 400561017 FZRANO $=
202012120753 SPECI KPWT 120753Z AUTO 00000KT 3/4SM BR CLR M01/M01 A3015 RMK AO2 VIS M1/4V5 400561017 FZRANO $=
202012120749 SPECI KPWT 120749Z AUTO 00000KT 1 1/4SM BR CLR M01/M01 A3015 RMK AO2 VIS 1/2V5 FZRANO $=
202012120741 SPECI KPWT 120741Z AUTO 00000KT 3/4SM BR CLR M01/M02 A3015 RMK AO2 FZRANO $=
202012120736 SPECI KPWT 120736Z AUTO 00000KT 1 1/2SM BR CLR M01/M01 A3015 RMK AO2 VIS 1/2V5 FZRANO $=
202012120656 METAR KPWT 120656Z AUTO 00000KT 10SM CLR 02/01 A3014 RMK AO2 SLP212 T00170011 FZRANO $=
202012120616 SPECI KPWT 120616Z AUTO 07003KT 10SM SCT027 02/02 A3014 RMK AO2 FZRANO $=
202012120556 METAR KPWT 120556Z AUTO 06007KT 10SM BKN025 02/02 A3014 RMK AO2 SLP212 T00220022 10050 21017 53016 FZRANO $=
202012120546 SPECI KPWT 120546Z AUTO 07006KT 10SM BKN023 02/02 A3013 RMK AO2 FZRANO $=
202012120456 METAR KPWT 120456Z AUTO 05005KT 10SM CLR 01/01 A3012 RMK AO2 SLP207 T00110011 FZRANO $=
202012120356 METAR KPWT 120356Z AUTO 04004KT 10SM CLR M01/M01 A3010 RMK AO2 SLP203 T10111011 FZRANO $=
202012120349 SPECI KPWT 120349Z AUTO 00000KT 2SM BR CLR M02/M02 A3010 RMK AO2 FZRANO $=
202012120336 SPECI KPWT 120336Z AUTO 00000KT 1SM BR CLR M02/M02 A3010 RMK AO2 FZRANO $=
202012120256 METAR KPWT 120256Z AUTO 00000KT 6SM BR CLR M02/M02 A3009 RMK AO2 SLP198 T10171017 51012 FZRANO $=
202012120156 METAR KPWT 120156Z AUTO 00000KT 10SM CLR 00/00 A3008 RMK AO2 SLP192 T00000000 FZRANO $=
202012120056 METAR KPWT 120056Z AUTO 03003KT 10SM CLR 01/01 A3007 RMK AO2 SLP190 T00110011 FZRANO $=
202012120022 SPECI KPWT 120022Z AUTO 00000KT 10SM FEW031 04/03 A3006 RMK AO2 $=
202012112356 METAR KPWT 112356Z AUTO 35005KT 10SM BKN025 05/03 A3005 RMK AO2 SLP184 T00500033 10056 20039 53003 $=
202012112256 METAR KPWT 112256Z AUTO 04005KT 10SM SCT017 OVC026 05/04 A3005 RMK AO2 SLP183 T00500039 $=
202012112225 SPECI KPWT 112225Z AUTO 01003KT 10SM OVC015 06/04 A3005 RMK AO2 $=
202012112156 METAR KPWT 112156Z AUTO 04004KT 10SM BKN009 OVC015 06/04 A3004 RMK AO2 SLP180 T00560039 $=
202012112139 SPECI KPWT 112139Z AUTO 00000KT 10SM OVC009 06/04 A3004 RMK AO2 CIG 007V013 $=
202012112054 METAR KPWT 112054Z AUTO 21003KT 10SM BKN011 BKN019 06/04 A3004 RMK AO2 SLP180 T00560039 58010 $=
202012112053 SPECI KPWT 112053Z AUTO 21004KT 10SM BKN011 BKN019 06/04 A3004 RMK AO2 $=
202012112032 SPECI KPWT 112032Z AUTO 00000KT 10SM SCT012 06/04 A3005 RMK AO2 $=
202012112015 SPECI KPWT 112015Z AUTO 17003KT 10SM SCT008 BKN014 05/04 A3006 RMK AO2 $=
202012111956 METAR KPWT 111956Z AUTO VRB03KT 10SM BKN008 OVC012 05/04 A3006 RMK AO2 CIG 006V010 SLP188 T00500039 $=
202012111934 SPECI KPWT 111934Z AUTO 22005KT 10SM BKN006 BKN050 04/04 A3007 RMK AO2 $=
202012111915 SPECI KPWT 111915Z AUTO 20006KT 10SM FEW006 SCT050 04/03 A3008 RMK AO2 $=
202012111856 METAR KPWT 111856Z AUTO 20006KT 10SM BKN006 04/03 A3007 RMK AO2 SLP191 T00440033 $=
202012111819 SPECI KPWT 111819Z AUTO 21004KT 10SM BKN007 04/03 A3008 RMK AO2 CIG 004V012 $=
202012111756 METAR KPWT 111756Z AUTO 22004KT 10SM BKN005 04/03 A3007 RMK AO2 SLP190 T00390028 10039 20022 53009 $=
202012111713 SPECI KPWT 111713Z AUTO 21005KT 10SM OVC005 03/03 A3007 RMK AO2 $=
202012111656 METAR KPWT 111656Z AUTO 21003KT 10SM OVC003 03/03 A3006 RMK AO2 SLP185 T00330033 $=
202012111614 SPECI KPWT 111614Z AUTO 22004KT 10SM OVC003 03/03 A3005 RMK AO2 $=
202012111556 METAR KPWT 111556Z AUTO 23005KT 10SM BKN005 02/02 A3005 RMK AO2 SLP182 T00220022 FZRANO $=
202012111547 SPECI KPWT 111547Z AUTO 22005KT 10SM SCT005 SCT120 02/02 A3005 RMK AO2 FZRANO $=
202012111456 METAR KPWT 111456Z AUTO 21007KT 10SM CLR 03/02 A3005 RMK AO2 SLP180 T00280022 53004 $=
202012111404 SPECI KPWT 111404Z AUTO 22005KT 10SM SCT008 03/02 A3004 RMK AO2 $=
202012111356 METAR KPWT 111356Z AUTO 21007KT 10SM FEW010 03/02 A3004 RMK AO2 SLP180 T00330022 $=
202012111347 SPECI KPWT 111347Z AUTO 20008KT 10SM SCT009 03/03 A3004 RMK AO2 $=
202012111318 SPECI KPWT 111318Z AUTO 20009KT 10SM FEW007 BKN012 03/03 A3003 RMK AO2 $=
202012111256 METAR KPWT 111256Z AUTO 19009KT 10SM FEW005 03/03 A3004 RMK AO2 SLP177 T00330028 $=
202012111156 METAR KPWT 111156Z AUTO 21009KT 10SM OVC005 04/03 A3004 RMK AO2 SLP179 60000 70006 T00390033 10044 20039 50001 $=
202012111056 METAR KPWT 111056Z AUTO 21006KT 10SM BKN005 OVC011 04/03 A3004 RMK AO2 CIG 004V009 SLP179 T00390033 $=
202012110956 METAR KPWT 110956Z AUTO 20007KT 10SM OVC005 04/03 A3004 RMK AO2 RAE11 SLP179 P0000 T00390033 $=
202012110906 SPECI KPWT 110906Z AUTO 19007KT 10SM -RA BKN005 BKN015 04/03 A3003 RMK AO2 CIG 003V009 P0000 $=
202012110856 METAR KPWT 110856Z AUTO 19007KT 10SM -RA SCT005 BKN015 BKN020 04/03 A3003 RMK AO2 RAB56 SLP177 P0000 60000 T00390033 50008 $=
202012110836 SPECI KPWT 110836Z AUTO 20009KT 10SM FEW005 OVC019 04/03 A3004 RMK AO2 $=
202012110756 METAR KPWT 110756Z AUTO 20008KT 10SM OVC005 04/03 A3003 RMK AO2 SLP178 T00390033 400610022 $=
202012110656 METAR KPWT 110656Z AUTO 20012KT 10SM OVC005 04/04 A3002 RMK AO2 SLP174 T00440039 $=
202012110556 METAR KPWT 110556Z AUTO 20009KT 10SM BKN005 04/04 A3001 RMK AO2 CIG 003V009 SLP168 60006 T00390039 10050 20039 51007 $=
202012110525 SPECI KPWT 110525Z AUTO 20008KT 10SM OVC005 04/04 A3001 RMK AO2 CIG 003V011 $=
202012110503 SPECI KPWT 110503Z AUTO 20010KT 10SM OVC007 04/04 A3001 RMK AO2 CIG 004V010 $=
202012110456 METAR KPWT 110456Z AUTO 20010G15KT 10SM BKN005 OVC009 04/04 A3001 RMK AO2 SLP166 T00440039 $=
202012110429 SPECI KPWT 110429Z AUTO 20008KT 10SM OVC007 04/04 A3000 RMK AO2 CIG 004V012 $=
202012110356 METAR KPWT 110356Z AUTO 19009KT 10SM BKN005 OVC010 04/04 A2999 RMK AO2 RAE36 SLP160 P0000 T00440039 $=
202012110308 SPECI KPWT 110308Z AUTO 16008KT 9SM -RA OVC005 04/04 A2998 RMK AO2 CIG 004V009 P0000 $=
202012110256 METAR KPWT 110256Z AUTO 16006KT 8SM -RA OVC007 04/04 A2998 RMK AO2 CIG 004V009 SLP159 P0003 60006 T00440039 51007 $=
202012110204 SPECI KPWT 110204Z AUTO 18007KT 9SM -RA BKN007 BKN011 OVC017 05/04 A2998 RMK AO2 CIG 005V009 P0001 $=
202012110156 METAR KPWT 110156Z AUTO 17004KT 8SM -RA SCT009 OVC013 05/04 A2998 RMK AO2 RAB03 SLP157 P0003 T00500044 $=
202012110142 SPECI KPWT 110142Z AUTO 18005KT 7SM -RA FEW009 BKN014 OVC028 05/04 A2998 RMK AO2 RAB03 P0002 $=
202012110125 SPECI KPWT 110125Z AUTO 17004KT 8SM -RA SCT018 BKN029 OVC045 05/04 A2997 RMK AO2 RAB03 P0000 $=
202012110056 METAR KPWT 110056Z AUTO 18003KT 10SM FEW041 BKN065 04/04 A2997 RMK AO2 SLP156 T00440039 $=
202012102356 METAR KPWT 102356Z AUTO 18003KT 10SM SCT070 05/04 A2996 RMK AO2 SLP152 T00500044 10061 20039 55004 $=
202012102256 METAR KPWT 102256Z AUTO 00000KT 10SM CLR 06/05 A2994 RMK AO2 SLP145 T00610050 $=
202012102156 METAR KPWT 102156Z AUTO 24004KT 10SM SCT002 05/04 A2994 RMK AO2 SLP145 T00500044 $=
202012102056 METAR KPWT 102056Z AUTO 24005KT 6SM BR OVC002 05/04 A2997 RMK AO2 SLP156 T00500044 56025 $=
202012102047 SPECI KPWT 102047Z AUTO VRB05KT 3SM BR OVC002 04/04 A2997 RMK AO2 $=
202012102041 SPECI KPWT 102041Z AUTO 24006KT 1 1/4SM BR OVC002 05/04 A2998 RMK AO2 VIS 1/2V4 $=
202012102029 SPECI KPWT 102029Z AUTO 23006KT 3/4SM BR OVC002 04/04 A2998 RMK AO2 $=
202012102024 SPECI KPWT 102024Z AUTO 25005KT 1 3/4SM BR OVC002 04/04 A2998 RMK AO2 VIS 1V4 $=
202012101956 METAR KPWT 101956Z AUTO 20003KT 8SM OVC002 05/04 A3000 RMK AO2 SLP165 T00500044 $=
202012101925 SPECI KPWT 101925Z AUTO 00000KT 5SM BR OVC002 04/04 A3000 RMK AO2 $=
202012101916 SPECI KPWT 101916Z AUTO 00000KT 2SM BR OVC002 04/04 A3000 RMK AO2 VIS 3/4V5 $=
202012101912 SPECI KPWT 101912Z AUTO 00000KT 1SM BR OVC002 04/04 A3000 RMK AO2 $=
202012101903 SPECI KPWT 101903Z AUTO 10003KT 1/2SM FG OVC002 04/04 A3001 RMK AO2 $=
202012101856 METAR KPWT 101856Z AUTO 00000KT 1/4SM FG OVC002 04/04 A3001 RMK AO2 SLP169 T00390039 $=
202012101814 SPECI KPWT 101814Z AUTO 00000KT 1/2SM FG OVC002 04/04 A3004 RMK AO2 $=
202012101810 SPECI KPWT 101810Z AUTO 00000KT 1SM BR OVC002 04/04 A3004 RMK AO2 $=
202012101756 METAR KPWT 101756Z AUTO 00000KT 2 1/2SM BR BKN002 04/04 A3004 RMK AO2 SLP181 T00390039 10050 20028 55008 $=
202012101748 SPECI KPWT 101748Z AUTO 22003KT 6SM BR BKN002 04/04 A3005 RMK AO2 $=
202012101741 SPECI KPWT 101741Z AUTO 00000KT 2 1/2SM BR BKN002 04/03 A3005 RMK AO2 $=
202012101737 SPECI KPWT 101737Z AUTO 22003KT 1SM BR BKN002 03/03 A3005 RMK AO2 $=
202012101719 SPECI KPWT 101719Z AUTO 00000KT 1/2SM FG OVC002 04/03 A3004 RMK AO2 $=
202012101715 SPECI KPWT 101715Z AUTO 00000KT 1SM BR OVC002 04/03 A3003 RMK AO2 VIS 1/2V3 $=
202012101710 SPECI KPWT 101710Z AUTO 00000KT 2SM BR OVC002 04/03 A3003 RMK AO2 VIS 1 1/4V5 $=
202012101703 SPECI KPWT 101703Z AUTO 00000KT 1 1/2SM BR BKN002 04/03 A3004 RMK AO2 $=
202012101701 SPECI KPWT 101701Z AUTO 24004KT 3/4SM BR BKN002 04/03 A3004 RMK AO2 $=
202012101656 METAR KPWT 101656Z AUTO 24005KT 1/4SM FG BKN002 03/03 A3004 RMK AO2 SLP181 T00330033 $=
202012101643 SPECI KPWT 101643Z AUTO 23004KT 1/2SM FG OVC002 03/03 A3004 RMK AO2 $=
202012101636 SPECI KPWT 101636Z AUTO 00000KT 3/4SM BR BKN002 03/03 A3004 RMK AO2 $=
202012101628 SPECI KPWT 101628Z AUTO 00000KT 1SM BR BKN002 03/03 A3004 RMK AO2 VIS 1/2V3 $=
202012101626 SPECI KPWT 101626Z AUTO 00000KT 1 3/4SM BR SCT002 03/03 A3004 RMK AO2 VIS 1/2V5 $=
202012101620 SPECI KPWT 101620Z AUTO 00000KT 4SM BR SCT002 SCT110 03/03 A3004 RMK AO2 $=
202012101556 METAR KPWT 101556Z AUTO 22005KT 3SM BR BKN110 03/03 A3006 RMK AO2 SLP186 T00280028 $=
202012101551 SPECI KPWT 101551Z AUTO 21005KT 2 1/2SM BR OVC110 03/03 A3006 RMK AO2 VIS 1V3 $=
202012101547 SPECI KPWT 101547Z AUTO 22005KT 1SM BR BKN110 03/03 A3006 RMK AO2 VIS 1/4V3 $=
202012101528 SPECI KPWT 101528Z AUTO 00000KT 1 1/2SM BR SCT110 03/03 A3006 RMK AO2 VIS 3/4V5 $=
202012101456 METAR KPWT 101456Z AUTO 00000KT 10SM SCT006 OVC110 04/04 A3007 RMK AO2 SLP189 T00440039 56034 $=
202012101356 METAR KPWT 101356Z AUTO 00000KT 10SM OVC008 05/04 A3010 RMK AO2 SLP199 T00500044 $=
202012101256 METAR KPWT 101256Z AUTO 00000KT 10SM OVC008 04/04 A3013 RMK AO2 SLP211 T00390039 $=
202012101239 SPECI KPWT 101239Z AUTO 00000KT 10SM OVC008 04/04 A3014 RMK AO2 $=
202012101208 SPECI KPWT 101208Z AUTO 00000KT 10SM OVC010 03/03 A3016 RMK AO2 $=
202012101156 METAR KPWT 101156Z AUTO 00000KT 10SM OVC008 03/03 A3017 RMK AO2 CIG 007V011 SLP223 60000 7//// T00330033 10061 20022 58030 $=
202012101139 SPECI KPWT 101139Z AUTO 00000KT 10SM OVC008 03/03 A3018 RMK AO2 CIG 007V011 $=
202012101125 SPECI KPWT 101125Z AUTO 00000KT 3SM BR OVC010 03/03 A3020 RMK AO2 CIG 008V011 $=
202012101115 SPECI KPWT 101115Z AUTO 00000KT 1 1/4SM BR BKN010 02/02 A3020 RMK AO2 FZRANO $=
202012101103 SPECI KPWT 101103Z AUTO 00000KT 3/4SM BR VV010 02/02 A3021 RMK AO2 FZRANO $=
202012101101 SPECI KPWT 101101Z AUTO 00000KT 1SM BR VV009 02/02 A3021 RMK AO2 FZRANO $=
202012101056 METAR KPWT 101056Z AUTO 00000KT 1/2SM FG CLR 02/02 A3021 RMK AO2 SLP237 T00220022 FZRANO $=
202012101049 SPECI KPWT 101049Z AUTO 00000KT 1SM BR CLR 02/02 A3021 RMK AO2 VIS 1/2V4 FZRANO $=
202012101042 SPECI KPWT 101042Z AUTO 00000KT 2SM BR CLR 02/02 A3022 RMK AO2 VIS 1V4 FZRANO $=
202012101034 SPECI KPWT 101034Z AUTO 00000KT 1 3/4SM BR CLR 02/02 A3022 RMK AO2 VIS 1V5 FZRANO $=
202012101013 SPECI KPWT 101013Z AUTO 00000KT 3SM BR CLR 03/02 A3023 RMK AO2 $=
202012101009 SPECI KPWT 101009Z AUTO 00000KT 1 1/4SM BR CLR 02/02 A3023 RMK AO2 FZRANO $=
202012101007 SPECI KPWT 101007Z AUTO 00000KT 3/4SM BR CLR 02/02 A3023 RMK AO2 FZRANO $=
202012100956 METAR KPWT 100956Z AUTO 00000KT 1/4SM FG CLR 02/02 A3023 RMK AO2 SLP244 T00220022 FZRANO $=
202012100918 SPECI KPWT 100918Z AUTO 00000KT 1/4SM FG CLR 03/02 A3025 RMK AO2 $=
202012100856 METAR KPWT 100856Z AUTO 00000KT 1/2SM FG FEW050 03/03 A3026 RMK AO2 RAB01E14 SLP253 P0000 60000 T00330033 58018 $=
202012100852 SPECI KPWT 100852Z AUTO 00000KT 1/2SM FG SCT050 04/04 A3026 RMK AO2 VIS 1/4V1 3/4 RAB01E14 P0000 $=
202012100846 SPECI KPWT 100846Z AUTO 00000KT 1SM BR BKN050 04/04 A3026 RMK AO2 VIS 1/2V5 RAB01E14 P0000 $=
202012100836 SPECI KPWT 100836Z AUTO 00000KT 5SM BR BKN050 04/04 A3027 RMK AO2 RAB01E14 P0000 $=
202012100828 SPECI KPWT 100828Z AUTO 00000KT 1 1/4SM BR FEW001 BKN050 04/04 A3028 RMK AO2 RAB01E14 P0000 $=
202012100820 SPECI KPWT 100820Z AUTO 00000KT 1 1/4SM BR FEW045 BKN050 04/04 A3028 RMK AO2 VIS 1/4V4 RAB01E14 P0000 $=
202012100756 METAR KPWT 100756Z AUTO 00000KT 6SM BR OVC045 05/05 A3029 RMK AO2 SLP263 T00500050 401000050 $=
202012100656 METAR KPWT 100656Z AUTO 00000KT 10SM BKN045 06/05 A3030 RMK AO2 SLP269 T00560050 $=
202012100556 METAR KPWT 100556Z AUTO 07004KT 10SM BKN043 06/06 A3031 RMK AO2 SLP271 60002 T00560056 10072 20050 58007 $=
202012100456 METAR KPWT 100456Z AUTO 00000KT 10SM OVC033 06/06 A3033 RMK AO2 SLP277 T00560056 $=
202012100356 METAR KPWT 100356Z AUTO 07004KT 10SM CLR 06/05 A3033 RMK AO2 RAE40 SLP276 P0001 T00560050 $=
202012100256 METAR KPWT 100256Z AUTO 05006KT 10SM -RA BKN032 BKN039 07/06 A3033 RMK AO2 RAB43 SLP277 P0001 60001 T00670056 51002 $=
202012100156 METAR KPWT 100156Z AUTO 06004KT 10SM BKN039 07/06 A3033 RMK AO2 SLP276 T00670061 $=
202012100056 METAR KPWT 100056Z AUTO 04004KT 10SM OVC031 07/06 A3033 RMK AO2 SLP277 T00670061 $=
202012092356 METAR KPWT 092356Z AUTO 03005KT 10SM FEW008 07/06 A3033 RMK AO2 SLP275 T00670061 10100 20061 51006 $=
202012092329 SPECI KPWT 092329Z AUTO 00000KT 10SM FEW008 SCT039 BKN050 08/07 A3033 RMK AO2 $=
202012092256 METAR KPWT 092256Z AUTO 05005KT 10SM OVC036 08/07 A3032 RMK AO2 SLP272 T00780067 $=
202012092214 SPECI KPWT 092214Z AUTO 06008KT 10SM SCT013 OVC034 08/07 A3032 RMK AO2 $=
202012092156 METAR KPWT 092156Z AUTO 07005KT 10SM OVC013 07/07 A3032 RMK AO2 SLP273 T00720067 $=
202012092135 SPECI KPWT 092135Z AUTO 04010KT 10SM BKN013 OVC029 08/07 A3032 RMK AO2 $=
202012092107 SPECI KPWT 092107Z AUTO 00000KT 10SM BKN019 09/07 A3031 RMK AO2 $=
202012092056 METAR KPWT 092056Z AUTO 21003KT 10SM SCT019 08/07 A3031 RMK AO2 SLP268 T00830072 55007 $=
202012092036 SPECI KPWT 092036Z AUTO 23005KT 10SM SCT015 08/07 A3031 RMK AO2 $=
202012092023 SPECI KPWT 092023Z AUTO 23008KT 10SM BKN013 08/07 A3031 RMK AO2 $=
202012091956 METAR KPWT 091956Z AUTO 24006KT 10SM OVC007 08/07 A3031 RMK AO2 CIG 004V012 SLP269 T00780072 $=
202012091929 SPECI KPWT 091929Z AUTO 25004KT 10SM OVC005 07/07 A3032 RMK AO2 CIG 003V009 $=
202012091856 METAR KPWT 091856Z AUTO 24003KT 7SM OVC003 07/06 A3033 RMK AO2 SLP276 T00670061 $=
202012091756 METAR KPWT 091756Z AUTO 22005KT 7SM OVC003 06/06 A3033 RMK AO2 SLP275 6//// T00610056 10078 20056 53020 $=
202012091722 SPECI KPWT 091722Z AUTO 22007KT 4SM BR OVC003 06/06 A3032 RMK AO2 $=
202012091720 SPECI KPWT 091720Z AUTO 22007KT 1 1/4SM BR OVC003 06/06 A3032 RMK AO2 $=
202012091718 SPECI KPWT 091718Z AUTO 22007KT 3/4SM BR OVC003 06/06 A3032 RMK AO2 $=
202012091656 METAR KPWT 091656Z AUTO 20006KT 1/4SM FG OVC003 06/06 A3030 RMK AO2 SLP268 T00560056 $=
202012091650 SPECI KPWT 091650Z AUTO 20005KT 3/4SM BR OVC003 06/06 A3030 RMK AO2 $=
202012091642 SPECI KPWT 091642Z AUTO 21006KT 1 1/4SM BR OVC003 06/06 A3030 RMK AO2 $=
202012091628 SPECI KPWT 091628Z AUTO 21005KT 3/4SM BR OVC003 06/06 A3030 RMK AO2 $=
202012091612 SPECI KPWT 091612Z AUTO 21005KT 1/4SM FG OVC003 06/06 A3029 RMK AO2 $=
202012091601 SPECI KPWT 091601Z AUTO 21005KT 1/2SM FG OVC003 06/06 A3029 RMK AO2 $=
202012091556 METAR KPWT 091556Z AUTO 21004KT 1SM BR OVC003 06/06 A3028 RMK AO2 SLP261 T00610056 $=
202012091547 SPECI KPWT 091547Z AUTO 21004KT 1SM BR OVC003 06/06 A3028 RMK AO2 $=
202012091526 SPECI KPWT 091526Z AUTO 20004KT 1 3/4SM BR OVC003 06/06 A3028 RMK AO2 VIS 1 1/4V4 $=
202012091456 METAR KPWT 091456Z AUTO 19004KT 10SM OVC003 06/06 A3027 RMK AO2 SLP256 T00610061 51013 $=
202012091424 SPECI KPWT 091424Z AUTO 19005KT 10SM OVC005 06/06 A3026 RMK AO2 CIG 004V008 $=
202012091356 METAR KPWT 091356Z AUTO 00000KT 10SM OVC003 06/06 A3024 RMK AO2 SLP247 T00610061 $=
202012091338 SPECI KPWT 091338Z AUTO VRB04KT 4SM BR OVC003 06/06 A3024 RMK AO2 $=
202012091326 SPECI KPWT 091326Z AUTO 20007KT 2 1/2SM BR OVC003 07/06 A3024 RMK AO2 $=
202012091313 SPECI KPWT 091313Z AUTO 19005KT 3SM BR OVC003 07/07 A3024 RMK AO2 $=
202012091301 SPECI KPWT 091301Z AUTO 19005KT 2SM BR OVC003 07/07 A3023 RMK AO2 $=
202012091256 METAR KPWT 091256Z AUTO 17004KT 1SM BR OVC003 07/07 A3023 RMK AO2 SLP242 T00720067 $=
202012091243 SPECI KPWT 091243Z AUTO 16004KT 1/2SM FG OVC003 07/07 A3023 RMK AO2 $=
202012091235 SPECI KPWT 091235Z AUTO 17004KT 3/4SM BR OVC003 07/07 A3023 RMK AO2 $=
202012091232 SPECI KPWT 091232Z AUTO 18005KT 1 1/2SM BR OVC003 07/07 A3023 RMK AO2 VIS 1/2V5 $=
202012091156 METAR KPWT 091156Z AUTO 18003KT 10SM OVC003 08/08 A3022 RMK AO2 SLP238 60005 70048 T00780078 10083 20078 53012 $=
202012091056 METAR KPWT 091056Z AUTO 20004KT 10SM OVC003 08/08 A3021 RMK AO2 SLP236 T00780078 $=
202012090956 METAR KPWT 090956Z AUTO 19005KT 10SM BKN003 OVC012 08/07 A3018 RMK AO2 RAE18 SLP226 P0000 T00780072 $=
202012090952 SPECI KPWT 090952Z AUTO 17004KT 10SM BKN003 OVC012 08/08 A3018 RMK AO2 RAE18 P0000 $=
202012090943 SPECI KPWT 090943Z AUTO 18003KT 10SM SCT003 OVC012 08/08 A3018 RMK AO2 RAE18 P0000 $=
202012090908 SPECI KPWT 090908Z AUTO 19003KT 9SM -RA OVC006 08/08 A3017 RMK AO2 CIG 003V010 P0000 $=
202012090856 METAR KPWT 090856Z AUTO 21003KT 9SM -RA BKN003 OVC008 08/08 A3017 RMK AO2 CIG 003V007 SLP223 P0004 60005 T00780078 51012 $=
202012090851 SPECI KPWT 090851Z AUTO 23003KT 6SM -RA BR BKN003 BKN008 OVC025 08/08 A3017 RMK AO2 P0004 $=
202012090834 SPECI KPWT 090834Z AUTO 23004KT 5SM -RA BR SCT003 BKN008 OVC027 08/08 A3016 RMK AO2 P0003 $=
202012090823 SPECI KPWT 090823Z AUTO 17003KT 3SM -RA BR BKN003 OVC008 08/08 A3016 RMK AO2 P0002 $=
202012090810 SPECI KPWT 090810Z AUTO 00000KT 2 1/2SM -RA BR OVC008 08/08 A3017 RMK AO2 VIS 2 1/2V3 CIG 006V011 P0002 $=
202012090756 METAR KPWT 090756Z AUTO 00000KT 6SM -RA BR OVC006 08/08 A3017 RMK AO2 RAB56 CIG 005V010 SLP220 P0000 T00780078 401000078 $=
202012090722 SPECI KPWT 090722Z AUTO 00000KT 10SM BKN008 OVC025 08/08 A3015 RMK AO2 $=
202012090656 METAR KPWT 090656Z AUTO 00000KT 10SM FEW006 OVC027 08/08 A3014 RMK AO2 RAE40 SLP211 P0001 T00780078 $=
202012090649 SPECI KPWT 090649Z AUTO 12003KT 10SM FEW006 BKN027 OVC038 08/08 A3013 RMK AO2 RAE40 P0001 $=
202012090626 SPECI KPWT 090626Z AUTO 00000KT 9SM -RA BKN008 BKN012 OVC038 08/08 A3014 RMK AO2 CIG 002V009 P0001 $=
202012090608 SPECI KPWT 090608Z AUTO 00000KT 3SM -RA BR SCT003 BKN010 OVC023 08/08 A3014 RMK AO2 CIG 007V014 P0001 $=
202012090603 SPECI KPWT 090603Z AUTO 11003KT 2 1/2SM -RA BR BKN003 BKN014 OVC021 08/08 A3013 RMK AO2 CIG 002V008 P0001 $=
202012090556 METAR KPWT 090556Z AUTO 00000KT 1 3/4SM -RA BR BKN003 OVC011 08/08 A3014 RMK AO2 RAE03B41 CIG 002V008 SLP211 P0003 60031 T00830078 10094 20078 53014 $=
202012090541 SPECI KPWT 090541Z AUTO 26004KT 1 1/4SM -RA BR OVC003 08/08 A3013 RMK AO2 RAE03B41 CIG 002V007 P0001 $=
202012090533 SPECI KPWT 090533Z AUTO 24004KT 2SM BR OVC003 08/08 A3013 RMK AO2 RAE03 CIG 002V008 P0001 $=
202012090526 SPECI KPWT 090526Z AUTO 24003KT 3SM BR OVC003 08/08 A3012 RMK AO2 RAE03 CIG 002V008 P0001 $=
202012090506 SPECI KPWT 090506Z AUTO 00000KT 3SM BR SCT004 BKN008 OVC025 08/08 A3012 RMK AO2 RAE03 P0001 $=
202012090456 METAR KPWT 090456Z AUTO 00000KT 3SM -RA BR SCT008 BKN022 OVC026 08/08 A3011 RMK AO2 RAE11B34 SLP202 P0000 T00780078 $=
202012090438 SPECI KPWT 090438Z AUTO 00000KT 2 1/2SM -RA BR BKN010 OVC028 08/08 A3012 RMK AO2 RAE11B34 CIG 007V014 P0000 $=
202012090429 SPECI KPWT 090429Z AUTO 03003KT 3SM BR BKN010 OVC028 08/08 A3012 RMK AO2 RAE11 P0000 $=
202012090356 METAR KPWT 090356Z AUTO 00000KT 10SM -RA OVC028 08/08 A3011 RMK AO2 SLP199 P0002 T00830078 $=
202012090334 SPECI KPWT 090334Z AUTO 08003KT 10SM -RA FEW003 BKN028 08/08 A3011 RMK AO2 P0002 $=
202012090323 SPECI KPWT 090323Z AUTO 04003KT 8SM -RA SCT003 BKN030 08/08 A3010 RMK AO2 P0002 $=
202012090256 METAR KPWT 090256Z AUTO 04005KT 10SM -RA BKN003 BKN007 OVC035 08/08 A3010 RMK AO2 SLP197 P0012 60026 T00830078 50002 $=
202012090248 SPECI KPWT 090248Z AUTO 06005KT 6SM -RA BR BKN003 OVC007 08/08 A3010 RMK AO2 P0012 $=
202012090204 SPECI KPWT 090204Z AUTO 05006KT 8SM -RA BKN005 OVC030 08/08 A3010 RMK AO2 CIG 004V010 P0001 $=
202012090156 METAR KPWT 090156Z AUTO 06008KT 7SM -RA SCT005 BKN010 OVC030 08/08 A3010 RMK AO2 CIG 007V011 SLP198 P0009 T00830078 $=
202012090148 SPECI KPWT 090148Z AUTO 06008KT 4SM -RA BR FEW007 SCT010 OVC030 08/08 A3010 RMK AO2 P0008 $=
202012090112 SPECI KPWT 090112Z AUTO 05007KT 5SM -RA BR BKN007 BKN025 OVC036 08/08 A3010 RMK AO2 CIG 005V011 P0001 $=
202012090103 SPECI KPWT 090103Z AUTO 03008KT 4SM -RA BR SCT007 BKN021 OVC036 09/08 A3012 RMK AO2 P0001 $=
202012090056 METAR KPWT 090056Z AUTO 04008KT 3SM -RA BR BKN007 OVC023 09/08 A3011 RMK AO2 CIG 004V014 SLP200 P0005 T00890083 $=
202012090054 SPECI KPWT 090054Z AUTO 04007KT 3SM -RA BR SCT007 BKN010 OVC021 09/08 A3011 RMK AO2 CIG 008V014 P0005 $=
202012082356 METAR KPWT 082356Z AUTO 04007KT 10SM -RA BKN007 BKN010 OVC030 09/09 A3009 RMK AO2 CIG 004V008 SLP194 P0001 60011 T00940089 10100 20089 56016 $=
202012082256 METAR KPWT 082256Z AUTO 03005KT 5SM -RA BR BKN007 OVC024 09/09 A3011 RMK AO2 CIG 003V011 SLP200 P0001 T00940089 $=
202012082229 SPECI KPWT 082229Z AUTO 03003KT 4SM -RA BR OVC005 10/09 A3011 RMK AO2 CIG 003V008 P0001 $=
202012082156 METAR KPWT 082156Z AUTO 08004KT 4SM -RA BR OVC003 10/10 A3012 RMK AO2 RAE25B52 SLP204 P0001 T01000100 $=
202012082135 SPECI KPWT 082135Z AUTO 00000KT 5SM BR BKN003 OVC008 10/09 A3013 RMK AO2 RAE25 P0001 $=
202012082106 SPECI KPWT 082106Z AUTO 00000KT 3SM -RA BR FEW004 SCT009 BKN014 10/09 A3014 RMK AO2 P0001 $=
202012082056 METAR KPWT 082056Z AUTO 00000KT 2SM -RA BR SCT004 BKN009 OVC014 10/09 A3014 RMK AO2 CIG 007V011 SLP211 P0002 60008 T01000094 56013 $=
202012082052 SPECI KPWT 082052Z AUTO 00000KT 1 3/4SM -RA BR BKN004 BKN009 OVC014 10/09 A3014 RMK AO2 P0002 $=
202012082044 SPECI KPWT 082044Z AUTO 00000KT 2SM -RA BR BKN004 BKN009 OVC014 10/09 A3015 RMK AO2 P0001 $=
202012082008 SPECI KPWT 082008Z AUTO 22003KT 4SM -RA BR BKN004 OVC013 09/09 A3016 RMK AO2 CIG 002V008 P0001 $=
202012081956 METAR KPWT 081956Z AUTO 26004KT 3SM -RA BR OVC002 09/09 A3016 RMK AO2 SLP219 P0004 T00940094 $=
202012081918 SPECI KPWT 081918Z AUTO 22006KT 3SM -RA BR OVC002 09/09 A3017 RMK AO2 P0001 $=
202012081856 METAR KPWT 081856Z AUTO 23006KT 2 1/2SM -RA BR OVC002 09/09 A3018 RMK AO2 RAB18 SLP224 P0002 T00890089 $=
202012081815 SPECI KPWT 081815Z AUTO 22004KT 2 1/2SM BR OVC002 09/09 A3019 RMK AO2 $=
202012081756 METAR KPWT 081756Z AUTO 19004KT 1 1/2SM BR OVC002 09/08 A3019 RMK AO2 SLP228 60001 T00890083 10089 20078 51003 $=
202012081751 SPECI KPWT 081751Z AUTO 21004KT 2SM BR OVC002 09/08 A3019 RMK AO2 $=
202012081656 METAR KPWT 081656Z AUTO 21005KT 7SM OVC002 08/08 A3019 RMK AO2 SLP227 T00830083 $=
202012081556 METAR KPWT 081556Z AUTO 19005KT 7SM OVC002 08/08 A3018 RMK AO2 SLP225 T00830078 $=
202012081456 METAR KPWT 081456Z AUTO 19006KT 5SM BR OVC002 08/08 A3019 RMK AO2 SLP228 60001 T00830078 53002 $=
202012081430 SPECI KPWT 081430Z AUTO 18009KT 6SM BR OVC002 08/08 A3019 RMK AO2 $=
202012081356 METAR KPWT 081356Z AUTO 18008KT 8SM OVC004 08/08 A3017 RMK AO2 SLP223 T00780078 $=
202012081256 METAR KPWT 081256Z AUTO 19011KT 6SM BR BKN004 OVC009 08/08 A3018 RMK AO2 RAE30 SLP225 P0001 T00780078 $=
202012081156 METAR KPWT 081156Z AUTO 18006KT 8SM -RA BKN004 OVC009 08/08 A3018 RMK AO2 UPB31E33 SLP226 P0002 60017 70017 T00830078 10100 20083 50001 $=
202012081056 METAR KPWT 081056Z AUTO 19006KT 6SM -RA BR FEW004 OVC009 08/08 A3019 RMK AO2 SLP227 P0003 T00830078 $=
202012080956 METAR KPWT 080956Z AUTO 19006KT 7SM -RA OVC007 08/08 A3018 RMK AO2 CIG 004V010 SLP226 P0002 T00830078 $=
202012080954 SPECI KPWT 080954Z AUTO 19006KT 7SM -RA BKN007 OVC012 08/08 A3018 RMK AO2 CIG 004V010 P0002 $=
202012080924 SPECI KPWT 080924Z AUTO 21006KT 6SM -RA BR SCT004 OVC012 08/08 A3018 RMK AO2 P0001 $=
202012080856 METAR KPWT 080856Z AUTO 23008KT 5SM -RA BR BKN004 OVC014 08/08 A3018 RMK AO2 CIG 003V009 SLP227 P0004 60010 T00830078 58001 $=
202012080827 SPECI KPWT 080827Z AUTO 22006KT 4SM -RA BR BKN006 BKN010 OVC026 08/08 A3019 RMK AO2 CIG 003V008 P0003 $=
202012080756 METAR KPWT 080756Z AUTO 24008KT 3SM -RA BR FEW008 OVC026 08/08 A3019 RMK AO2 SLP229 P0006 T00830078 401220028 $=
202012080733 SPECI KPWT 080733Z AUTO 24007KT 3SM -RA BR SCT023 OVC028 08/08 A3020 RMK AO2 P0003 $=
202012080456 METAR KPWT 080456Z AUTO 22007KT 10SM OVC036 10/06 A3019 RMK AO2 SLP228 T01000061 $=
202012080356 METAR KPWT 080356Z AUTO 24006KT 10SM OVC036 10/06 A3020 RMK AO2 SLP230 T01000056 $=
202012080256 METAR KPWT 080256Z AUTO 25003KT 10SM OVC036 10/06 A3020 RMK AO2 SLP231 T01000056 58007 $=
202012080156 METAR KPWT 080156Z AUTO 19006KT 10SM OVC042 11/04 A3021 RMK AO2 SLP235 T01110044 $=
202012080056 METAR KPWT 080056Z AUTO 19005KT 10SM OVC048 11/04 A3022 RMK AO2 SLP238 T01060044 $=
202012072356 METAR KPWT 072356Z AUTO 19007KT 10SM OVC060 11/05 A3022 RMK AO2 SLP239 T01060050 10122 20078 56008 $=
202012072256 METAR KPWT 072256Z AUTO 20006KT 10SM BKN095 11/05 A3023 RMK AO2 SLP242 T01060050 $=
202012072156 METAR KPWT 072156Z AUTO 21007KT 10SM OVC100 11/06 A3023 RMK AO2 SLP243 T01110056 $=
202012072056 METAR KPWT 072056Z AUTO 21008KT 10SM FEW120 12/06 A3025 RMK AO2 SLP248 T01170056 58031 $=
202012071956 METAR KPWT 071956Z AUTO 22008KT 10SM OVC110 10/06 A3028 RMK AO2 SLP259 T01000056 $=
202012071856 METAR KPWT 071856Z AUTO 21005KT 10SM OVC110 08/06 A3032 RMK AO2 SLP272 T00830061 $=
202012071756 METAR KPWT 071756Z AUTO 20005KT 10SM OVC095 08/06 A3034 RMK AO2 SLP280 T00780056 10078 20056 55003 $=
202012071656 METAR KPWT 071656Z AUTO 00000KT 10SM FEW075 OVC095 07/06 A3034 RMK AO2 SLP279 T00720056 $=
202012071556 METAR KPWT 071556Z AUTO 21007KT 10SM BKN095 07/05 A3033 RMK AO2 SLP277 T00670050 $=
202012071456 METAR KPWT 071456Z AUTO 22008KT 10SM OVC090 06/05 A3035 RMK AO2 SLP283 T00610050 56007 $=
202012071356 METAR KPWT 071356Z AUTO 19004KT 10SM BKN090 BKN110 06/05 A3035 RMK AO2 SLP284 T00610050 $=
202012071256 METAR KPWT 071256Z AUTO 20006KT 10SM OVC100 06/06 A3036 RMK AO2 SLP286 T00610056 $=
202012071230 SPECI KPWT 071230Z AUTO 20005KT 6SM BR SCT003 BKN095 06/06 A3035 RMK AO2 $=
202012071156 METAR KPWT 071156Z AUTO 23005KT 5SM BR BKN003 BKN100 06/06 A3037 RMK AO2 SLP290 T00560056 10067 20028 56010 $=
202012071143 SPECI KPWT 071143Z AUTO 23005KT 9SM SCT003 OVC100 06/06 A3037 RMK AO2 $=
202012071056 METAR KPWT 071056Z AUTO 20003KT 10SM BKN100 06/06 A3037 RMK AO2 SLP291 T00560056 $=
202012071008 SPECI KPWT 071008Z AUTO 21005KT 10SM SCT002 OVC100 06/06 A3040 RMK AO2 $=
202012070956 METAR KPWT 070956Z AUTO 21005KT 3SM BR BKN002 OVC110 06/06 A3039 RMK AO2 SLP298 T00560056 $=
202012070952 SPECI KPWT 070952Z AUTO 21004KT 1SM BR BKN002 OVC110 06/06 A3039 RMK AO2 $=
202012070937 SPECI KPWT 070937Z AUTO 19004KT 1/2SM FG BKN002 OVC110 05/05 A3040 RMK AO2 $=
202012070935 SPECI KPWT 070935Z AUTO 20004KT 1SM BR BKN002 OVC110 05/05 A3040 RMK AO2 $=
202012070932 SPECI KPWT 070932Z AUTO 21005KT 2SM BR BKN002 OVC110 04/04 A3040 RMK AO2 $=
202012070922 SPECI KPWT 070922Z AUTO 22003KT 3SM BR FEW002 BKN110 03/03 A3040 RMK AO2 $=
202012070916 SPECI KPWT 070916Z AUTO 00000KT 1 1/4SM BR FEW002 BKN120 04/03 A3039 RMK AO2 VIS 3/4V5 $=
202012070907 SPECI KPWT 070907Z AUTO 00000KT 2SM BR SCT120 03/03 A3039 RMK AO2 $=
202012070901 SPECI KPWT 070901Z AUTO 00000KT 1SM BR FEW120 03/03 A3040 RMK AO2 $=
202012070856 METAR KPWT 070856Z AUTO 00000KT 1/2SM FG CLR 03/03 A3040 RMK AO2 SLP301 T00330028 58014 $=
202012070850 SPECI KPWT 070850Z AUTO 00000KT 1SM BR CLR 03/03 A3040 RMK AO2 VIS 1/4V5 $=
202012070848 SPECI KPWT 070848Z AUTO 00000KT 2SM BR CLR 03/03 A3041 RMK AO2 VIS 3/4V5 $=
202012070841 SPECI KPWT 070841Z AUTO 00000KT 1SM BR CLR 03/03 A3041 RMK AO2 $=
202012070830 SPECI KPWT 070830Z AUTO 00000KT 1/2SM FG CLR 04/03 A3042 RMK AO2 $=
202012070822 SPECI KPWT 070822Z AUTO 00000KT 3/4SM BR CLR 03/03 A3043 RMK AO2 $=
202012070814 SPECI KPWT 070814Z AUTO 00000KT 1 1/2SM BR CLR 04/04 A3042 RMK AO2 VIS 1/2V5 $=
202012070756 METAR KPWT 070756Z AUTO 00000KT 3/4SM BR CLR 04/04 A3043 RMK AO2 SLP310 T00440039 401110039 $=
202012070750 SPECI KPWT 070750Z AUTO 00000KT 3/4SM BR CLR 04/04 A3043 RMK AO2 VIS 1/2V5 401110039 $=
202012070746 SPECI KPWT 070746Z AUTO 00000KT 1 3/4SM BR CLR 04/04 A3043 RMK AO2 VIS 1/2V5 $=
202012070741 SPECI KPWT 070741Z AUTO 00000KT 3SM BR CLR 04/04 A3043 RMK AO2 $=
202012070730 SPECI KPWT 070730Z AUTO 00000KT 1 3/4SM BR CLR 04/04 A3044 RMK AO2 VIS 1/2V5 $=
202012070656 METAR KPWT 070656Z AUTO 17003KT 10SM CLR 06/06 A3043 RMK AO2 SLP312 T00610056 $=
202012070556 METAR KPWT 070556Z AUTO 00000KT 10SM CLR 06/06 A3044 RMK AO2 SLP315 T00610061 10094 20061 58007 $=
202012070456 METAR KPWT 070456Z AUTO 18003KT 10SM CLR 07/07 A3045 RMK AO2 SLP319 T00670067 $=
202012070356 METAR KPWT 070356Z AUTO 22005KT 10SM CLR 07/07 A3046 RMK AO2 SLP321 T00720067 $=
202012070256 METAR KPWT 070256Z AUTO 19009KT 10SM SCT026 08/07 A3046 RMK AO2 SLP322 T00780067 56002 $=
202012070205 SPECI KPWT 070205Z AUTO 22007KT 10SM BKN026 08/07 A3047 RMK AO2 $=
202012070156 METAR KPWT 070156Z AUTO 20008KT 10SM SCT026 08/07 A3047 RMK AO2 SLP324 T00830072 $=
202012070056 METAR KPWT 070056Z AUTO 20007KT 10SM SCT028 SCT037 09/08 A3047 RMK AO2 SLP324 T00890078 $=
202012062356 METAR KPWT 062356Z AUTO 18009KT 10SM FEW021 09/08 A3047 RMK AO2 SLP324 T00940078 10111 20083 50007 $=
202012062256 METAR KPWT 062256Z AUTO 18010KT 10SM CLR 11/08 A3048 RMK AO2 SLP327 T01060078 $=
202012062156 METAR KPWT 062156Z AUTO 19008G16KT 10SM CLR 11/08 A3046 RMK AO2 SLP322 T01110083 $=
202012062127 SPECI KPWT 062127Z AUTO 19010KT 10SM SCT014 11/08 A3045 RMK AO2 $=
202012062056 METAR KPWT 062056Z AUTO 20010KT 10SM OVC014 11/08 A3045 RMK AO2 SLP317 T01060083 53002 $=
202012062018 SPECI KPWT 062018Z AUTO 20012G16KT 10SM OVC011 10/08 A3044 RMK AO2 $=
202012061956 METAR KPWT 061956Z AUTO 20011G16KT 10SM BKN007 10/08 A3043 RMK AO2 SLP311 T01000078 $=
202012061856 METAR KPWT 061856Z AUTO 19008G14KT 10SM BKN007 OVC012 09/08 A3044 RMK AO2 SLP315 T00890078 $=
202012061854 SPECI KPWT 061854Z AUTO 20006KT 10SM BKN007 OVC012 09/08 A3044 RMK AO2 $=
202012061822 SPECI KPWT 061822Z AUTO 20008KT 10SM OVC005 08/08 A3044 RMK AO2 $=
202012061756 METAR KPWT 061756Z AUTO 21007KT 10SM OVC003 08/08 A3042 RMK AO2 SLP309 T00830078 10083 20072 51025 $=
202012061656 METAR KPWT 061656Z AUTO 22007KT 10SM OVC003 07/07 A3040 RMK AO2 SLP302 T00720072 $=
202012061556 METAR KPWT 061556Z AUTO 21008KT 10SM OVC003 07/07 A3038 RMK AO2 SLP294 T00720072 $=
202012061456 METAR KPWT 061456Z AUTO 20007KT 5SM BR OVC003 07/07 A3035 RMK AO2 SLP284 T00720072 53024 $=
202012061356 METAR KPWT 061356Z AUTO 18009KT 140V210 10SM OVC003 07/07 A3031 RMK AO2 SLP271 T00720072 $=
202012061256 METAR KPWT 061256Z AUTO 17009KT 9SM OVC003 07/07 A3028 RMK AO2 SLP259 T00720067 $=
202012061252 SPECI KPWT 061252Z AUTO 18008KT 10SM OVC003 07/07 A3028 RMK AO2 $=
202012061212 SPECI KPWT 061212Z AUTO 19009KT 10SM OVC005 07/07 A3026 RMK AO2 $=
202012061156 METAR KPWT 061156Z AUTO 19009KT 10SM OVC003 07/07 A3026 RMK AO2 RAE39 SLP251 P0001 60001 7//// T00720067 10094 20056 51027 $=
202012061118 SPECI KPWT 061118Z AUTO 18008KT 10SM OVC003 07/07 A3025 RMK AO2 RAE18 P0000 $=
202012061056 METAR KPWT 061056Z AUTO 19013KT 9SM -RA BKN005 BKN022 OVC029 08/07 A3024 RMK AO2 RAB23 SLP244 P0000 T00780072 $=
202012061031 SPECI KPWT 061031Z AUTO 18013G20KT 9SM -RA FEW007 SCT022 OVC031 08/07 A3023 RMK AO2 RAB23 P0000 $=
202012061022 SPECI KPWT 061022Z AUTO 18013G20KT 9SM FEW019 SCT024 OVC031 08/07 A3022 RMK AO2 $=
202012060956 METAR KPWT 060956Z AUTO 20014G20KT 10SM OVC021 09/05 A3021 RMK AO2 SLP236 T00890050 $=
202012060926 SPECI KPWT 060926Z AUTO 22009KT 10SM BKN028 OVC042 09/04 A3019 RMK AO2 $=
202012060856 METAR KPWT 060856Z AUTO 23013KT 10SM BKN046 OVC060 09/04 A3018 RMK AO2 SLP224 60000 T00940039 53015 $=
202012060756 METAR KPWT 060756Z AUTO 24005KT 10SM OVC065 08/04 A3015 RMK AO2 SLP214 T00780044 401331022 $=
202012060656 METAR KPWT 060656Z AUTO 00000KT 10SM OVC060 06/04 A3013 RMK AO2 RAE26 SLP208 P0000 T00610044 $=
202012060556 METAR KPWT 060556Z AUTO 21003KT 10SM -RA BKN050 07/04 A3013 RMK AO2 RAB08 SLP209 P0000 60000 T00670044 10106 20022 53022 $=
202012060456 METAR KPWT 060456Z AUTO 00000KT 10SM SCT070 06/05 A3008 RMK AO2 RAE38 SLP193 P0000 T00610050 $=
202012060356 METAR KPWT 060356Z AUTO 21003KT 10SM -RA OVC060 05/04 A3009 RMK AO2 RAB51 SLP196 P0000 T00500039 $=
202012060256 METAR KPWT 060256Z AUTO 00000KT 10SM BKN070 05/03 A3006 RMK AO2 SLP189 T00500028 51014 $=
202012060156 METAR KPWT 060156Z AUTO 14003KT 10SM CLR 02/02 A3006 RMK AO2 SLP190 T00220017 FZRANO $=
202012060056 METAR KPWT 060056Z AUTO 00000KT 10SM CLR 07/02 A3004 RMK AO2 SLP179 T00670017 $=
202012052356 METAR KPWT 052356Z AUTO 17003KT 10SM CLR 11/02 A3002 RMK AO2 SLP174 6//// T01060022 10133 20078 $=
202012052256 METAR KPWT 052256Z AUTO 21006KT 10SM CLR 13/03 A3002 RMK AO2 SLP173 T01280028 $=
202012052156 METAR KPWT 052156Z AUTO 21007KT 10SM CLR 13/02 A3003 RMK AO2 SLP175 T01330022 $=
202012052056 METAR KPWT 052056Z AUTO 23006KT 10SM CLR 12/02 RMK AO2 SLPNO 6//// T01220022 $=
202012051956 METAR KPWT 051956Z AUTO 21005KT 10SM CLR 11/02 A3007 RMK AO2 SLP190 T01060022 $=
202012051856 METAR KPWT 051856Z AUTO 27003KT 10SM CLR 11/03 A3010 RMK AO2 SLP198 T01110028 $=
202012051756 METAR KPWT 051756Z AUTO 00000KT 10SM CLR 08/03 A3010 RMK AO2 SLP199 T00780028 10078 21022 50002 $=
202012051656 METAR KPWT 051656Z AUTO 02003KT 10SM CLR 02/01 A3010 RMK AO2 SLP201 T00170011 FZRANO $=
202012051556 METAR KPWT 051556Z AUTO 21004KT 10SM CLR M02/M02 A3010 RMK AO2 SLP201 T10171022 FZRANO $=
202012051456 METAR KPWT 051456Z AUTO 00000KT 10SM CLR M02/M02 A3009 RMK AO2 SLP198 T10171022 56014 FZRANO $=
202012051356 METAR KPWT 051356Z AUTO 00000KT 10SM CLR M01/M01 A3010 RMK AO2 SLP203 T10111011 FZRANO $=
202012051256 METAR KPWT 051256Z AUTO 00000KT 10SM CLR 00/00 A3011 RMK AO2 SLP204 T00000000 FZRANO $=
202012051156 METAR KPWT 051156Z AUTO 00000KT 10SM CLR M01/M01 A3013 RMK AO2 SLP212 7//// T10061006 10000 21017 58030 FZRANO $=
202012051056 METAR KPWT 051056Z AUTO 00000KT 10SM CLR M01/M01 A3017 RMK AO2 SLP223 T10111011 FZRANO $=
202012050956 METAR KPWT 050956Z AUTO 00000KT 10SM CLR M01/M01 A3020 RMK AO2 SLP235 T10061006 FZRANO $=
202012050856 METAR KPWT 050856Z AUTO 00000KT 10SM CLR M01/M01 A3023 RMK AO2 SLP242 T10061011 58027 FZRANO $=
202012050756 METAR KPWT 050756Z AUTO 00000KT 10SM CLR M02/M02 A3025 RMK AO2 SLP252 T10171017 401221017 FZRANO $=
202012050656 METAR KPWT 050656Z AUTO 00000KT 10SM CLR M01/M01 A3029 RMK AO2 SLP265 T10111011 FZRANO $=
202012050556 METAR KPWT 050556Z AUTO 00000KT 10SM CLR M01/M01 A3030 RMK AO2 SLP268 T10061006 10094 21006 58012 FZRANO $=
202012050456 METAR KPWT 050456Z AUTO 22003KT 10SM CLR 01/M01 A3032 RMK AO2 SLP273 T00061006 FZRANO $=
202012050356 METAR KPWT 050356Z AUTO 35004KT 10SM CLR 06/02 A3033 RMK AO2 SLP278 T00560022 $=
202012050256 METAR KPWT 050256Z AUTO 05009KT 10SM CLR 07/04 A3034 RMK AO2 SLP281 T00720039 58000 $=
202012050156 METAR KPWT 050156Z AUTO 01003KT 10SM CLR 02/01 A3034 RMK AO2 SLP283 T00220011 FZRANO $=
202012050056 METAR KPWT 050056Z AUTO 00000KT 10SM CLR 06/04 A3035 RMK AO2 SLP285 T00560039 $=
202012042356 METAR KPWT 042356Z AUTO 04003KT 10SM CLR 09/04 A3034 RMK AO2 SLP280 6//// T00940044 10122 20083 56022 $=
202012042256 METAR KPWT 042256Z AUTO 04006KT 10SM CLR 12/04 A3035 RMK AO2 SLP285 T01170044 $=
202012042156 METAR KPWT 042156Z AUTO 06006KT 10SM CLR 12/04 A3038 RMK AO2 SLP292 T01220044 $=
202012042056 METAR KPWT 042056Z AUTO 05005KT 10SM CLR 12/04 A3041 RMK AO2 SLP304 6//// T01170044 $=
202012041956 METAR KPWT 041956Z AUTO 10SM CLR 12/06 RMK AO2 SLPNO T01170056 $=
202012041856 METAR KPWT 041856Z AUTO 23003KT 10SM CLR 10/06 A3046 RMK AO2 SLP322 T01000061 $=
202012041756 METAR KPWT 041756Z AUTO 00000KT 10SM CLR 08/05 A3048 RMK AO2 SLP330 T00830050 10083 20017 58003 $=
202012041656 METAR KPWT 041656Z AUTO 00000KT 10SM FEW032 07/04 A3049 RMK AO2 SLP334 T00670044 $=
202012041640 SPECI KPWT 041640Z AUTO 04003KT 10SM FEW025 BKN033 07/04 A3049 RMK AO2 $=
202012041615 SPECI KPWT 041615Z AUTO 00000KT 10SM BKN027 OVC033 06/04 A3050 RMK AO2 $=
202012041605 SPECI KPWT 041605Z AUTO 00000KT 10SM FEW009 SCT021 OVC032 05/03 A3050 RMK AO2 $=
202012041556 METAR KPWT 041556Z AUTO 00000KT 10SM SCT009 BKN021 OVC034 05/03 A3050 RMK AO2 SLP335 T00500033 $=
202012041542 SPECI KPWT 041542Z AUTO 00000KT 10SM SCT003 BKN009 OVC022 04/04 A3049 RMK AO2 $=
202012041456 METAR KPWT 041456Z AUTO 02004KT 10SM OVC003 04/03 A3049 RMK AO2 SLP333 T00390033 53014 $=
202012041411 SPECI KPWT 041411Z AUTO 00000KT 10SM BKN005 OVC031 03/02 A3048 RMK AO2 $=
202012041356 METAR KPWT 041356Z AUTO 14003KT 10SM FEW005 OVC029 02/02 A3047 RMK AO2 SLP326 T00170017 FZRANO $=
202012041256 METAR KPWT 041256Z AUTO 00000KT 8SM OVC027 03/03 A3045 RMK AO2 SLP320 T00330028 $=
202012041156 METAR KPWT 041156Z AUTO 00000KT 10SM BKN015 OVC021 03/03 A3045 RMK AO2 SLP318 7//// T00330033 10039 21006 58002 $=
202012041145 SPECI KPWT 041145Z AUTO 00000KT 5SM BR BKN015 OVC021 03/03 A3045 RMK AO2 $=
202012041127 SPECI KPWT 041127Z AUTO 00000KT 2 1/2SM BR OVC017 03/03 A3046 RMK AO2 $=
202012041056 METAR KPWT 041056Z AUTO 00000KT 10SM OVC017 03/03 A3046 RMK AO2 SLP323 T00280028 $=
202012040956 METAR KPWT 040956Z AUTO 00000KT 10SM BKN021 01/00 A3046 RMK AO2 SLP321 T00060000 FZRANO $=
202012040951 SPECI KPWT 040951Z AUTO 00000KT 10SM BKN021 00/00 A3045 RMK AO2 FZRANO $=
202012040856 METAR KPWT 040856Z AUTO 00000KT 10SM CLR 00/M01 A3045 RMK AO2 SLP320 T00001006 51010 FZRANO $=
202012040756 METAR KPWT 040756Z AUTO 00000KT 10SM CLR M01/M01 A3045 RMK AO2 SLP318 T10061006 400671022 FZRANO $=
202012040656 METAR KPWT 040656Z AUTO 00000KT 10SM CLR M01/M01 A3044 RMK AO2 SLP316 T10061011 FZRANO $=
202012040556 METAR KPWT 040556Z AUTO 00000KT 10SM CLR 00/M01 A3043 RMK AO2 SLP311 T00001006 10067 20000 51016 FZRANO $=
202012040456 METAR KPWT 040456Z AUTO 00000KT 10SM CLR 02/01 A3042 RMK AO2 SLP309 T00170011 FZRANO $=
202012040356 METAR KPWT 040356Z AUTO 00000KT 10SM CLR 03/01 A3041 RMK AO2 SLP304 T00330011 $=
202012040256 METAR KPWT 040256Z AUTO 00000KT 10SM FEW042 SCT060 SCT075 06/02 A3038 RMK AO2 SLP294 T00610022 53016 $=
202012040156 METAR KPWT 040156Z AUTO 00000KT 10SM OVC055 07/03 A3036 RMK AO2 SLP289 T00670028 $=
202012040056 METAR KPWT 040056Z AUTO 00000KT 10SM OVC075 06/03 A3034 RMK AO2 SLP280 T00610028 $=
202012032356 METAR KPWT 032356Z AUTO 00000KT 10SM BKN080 07/03 A3033 RMK AO2 SLP277 T00670028 10067 20044 53007 $=
202012032256 METAR KPWT 032256Z AUTO 20003KT 10SM CLR 07/03 A3032 RMK AO2 SLP274 T00670028 $=
202012032156 METAR KPWT 032156Z AUTO 27005KT 10SM CLR 06/03 A3031 RMK AO2 SLP272 T00610033 $=
202012032056 METAR KPWT 032056Z AUTO 25006KT 10SM FEW120 06/03 A3031 RMK AO2 SLP269 T00610028 51003 $=
202012031956 METAR KPWT 031956Z AUTO 00000KT 10SM CLR 06/03 A3030 RMK AO2 SLP268 T00610033 $=
202012031856 METAR KPWT 031856Z AUTO 00000KT 10SM CLR 06/03 A3031 RMK AO2 SLP271 T00560033 $=
202012031756 METAR KPWT 031756Z AUTO 00000KT 10SM CLR 04/04 A3030 RMK AO2 SLP268 6//// T00440039 10044 21022 53022 $=
202012031656 METAR KPWT 031656Z AUTO 00000KT 10SM CLR 04/03 A3027 RMK AO2 SLP260 T00390033 $=
202012031556 METAR KPWT 031556Z AUTO 00000KT 10SM CLR 00/00 A3025 RMK AO2 SLP251 T00000000 FZRANO $=
202012031456 METAR KPWT 031456Z AUTO 00000KT 10SM CLR M01/M01 A3023 RMK AO2 SLP246 T10111011 53005 FZRANO $=
202012031356 METAR KPWT 031356Z AUTO 00000KT 10SM CLR M02/M02 A3022 RMK AO2 SLP243 T10171022 FZRANO $=
202012031256 METAR KPWT 031256Z AUTO 00000KT 10SM CLR M01/M01 A3021 RMK AO2 SLP239 T10111011 FZRANO $=
202012031156 METAR KPWT 031156Z AUTO 00000KT 10SM CLR 00/00 A3022 RMK AO2 SLP239 7//// T00000000 10006 21011 58000 FZRANO $=
202012031056 METAR KPWT 031056Z AUTO 00000KT 10SM CLR 00/00 A3023 RMK AO2 SLP242 T00000000 FZRANO $=
202012030956 METAR KPWT 030956Z AUTO 00000KT 10SM CLR M01/M02 A3023 RMK AO2 SLP241 T10111017 FZRANO $=
202012030856 METAR KPWT 030856Z AUTO 00000KT 10SM CLR M01/M01 A3022 RMK AO2 SLP238 T10111011 53005 FZRANO $=
202012030756 METAR KPWT 030756Z AUTO 00000KT 10SM CLR M01/M01 A3021 RMK AO2 SLP236 T10111011 401501011 FZRANO $=
202012030656 METAR KPWT 030656Z AUTO 00000KT 10SM CLR M01/M01 A3021 RMK AO2 SLP236 T10061006 FZRANO $=
202012030556 METAR KPWT 030556Z AUTO 00000KT 10SM CLR M01/M01 A3020 RMK AO2 SLP234 T10061011 10089 21011 50009 FZRANO $=
202012030456 METAR KPWT 030456Z AUTO 00000KT 4SM BR CLR M01/M01 A3020 RMK AO2 SLP235 T10061011 FZRANO $=
202012030356 METAR KPWT 030356Z AUTO 00000KT 10SM CLR 00/M01 A3019 RMK AO2 SLP231 T00001006 FZRANO $=
202012030256 METAR KPWT 030256Z AUTO 00000KT 10SM CLR 01/00 A3018 RMK AO2 SLP226 T00110000 FZRANO $=
202012030156 METAR KPWT 030156Z AUTO 13004KT 10SM CLR 03/02 A3018 RMK AO2 SLP225 T00280017 $=
202012030056 METAR KPWT 030056Z AUTO 00000KT 10SM CLR 04/02 A3017 RMK AO2 SLP223 T00390017 $=
202012022356 METAR KPWT 022356Z AUTO 00000KT 10SM CLR 09/03 RMK AO2 SLPNO 6//// T00940028 10150 20089 $=
202012022256 METAR KPWT 022256Z AUTO 14003KT 10SM CLR 14/M01 A3018 RMK AO2 SLP224 T01391006 $=
202012022156 METAR KPWT 022156Z AUTO 00000KT 10SM CLR 15/M01 A3018 RMK AO2 SLP226 T01501006 $=
202012022056 METAR KPWT 022056Z AUTO 02003KT 10SM CLR 14/M01 A3020 RMK AO2 SLP231 6//// T01391006 56013 $=
202012021956 METAR KPWT 021956Z AUTO 00000KT 10SM CLR 12/M02 A3021 RMK AO2 SLP234 T01221022 $=
202012021856 METAR KPWT 021856Z AUTO 04006KT 10SM CLR 12/M02 A3022 RMK AO2 SLP238 T01171017 $=
202012021756 METAR KPWT 021756Z AUTO 04004KT 10SM CLR 11/M02 A3024 RMK AO2 SLP245 T01061022 10106 21006 58007 $=
202012021656 METAR KPWT 021656Z AUTO 00000KT 10SM CLR 05/01 A3024 RMK AO2 SLP249 T00500006 $=
202012021556 METAR KPWT 021556Z AUTO 00000KT 10SM CLR 01/M02 A3025 RMK AO2 SLP250 T00111017 FZRANO $=
202012021456 METAR KPWT 021456Z AUTO 00000KT 10SM CLR 02/M01 A3026 RMK AO2 SLP252 T00221011 56015 FZRANO $=
202012021356 METAR KPWT 021356Z AUTO 07007KT 10SM CLR 03/00 A3026 RMK AO2 SLP255 T00330000 $=
202012021256 METAR KPWT 021256Z AUTO 07003KT 10SM CLR 03/00 A3028 RMK AO2 SLP262 T00330000 $=
202012021156 METAR KPWT 021156Z AUTO 04005KT 10SM CLR 03/01 A3030 RMK AO2 SLP267 7//// T00280006 10056 20022 58023 $=
202012021056 METAR KPWT 021056Z AUTO 05007KT 10SM CLR 04/01 A3032 RMK AO2 SLP275 T00440011 $=
202012020956 METAR KPWT 020956Z AUTO 05006KT 10SM CLR 04/01 A3035 RMK AO2 SLP284 T00390011 $=
202012020856 METAR KPWT 020856Z AUTO 04008KT 10SM CLR 04/02 A3037 RMK AO2 SLP289 T00440022 58020 $=
202012020756 METAR KPWT 020756Z AUTO 04014KT 10SM CLR 05/02 A3038 RMK AO2 SLP296 T00500017 400831028 $=
202012020656 METAR KPWT 020656Z AUTO 04011KT 10SM CLR 05/02 A3041 RMK AO2 SLP306 T00500022 $=
202012020556 METAR KPWT 020556Z AUTO 04010KT 10SM CLR 04/02 A3043 RMK AO2 SLP310 T00440022 10067 20039 58016 $=
202012020456 METAR KPWT 020456Z AUTO 04008KT 10SM CLR 04/02 A3045 RMK AO2 SLP317 T00390022 $=
202012020356 METAR KPWT 020356Z AUTO 04010KT 10SM CLR 04/02 A3046 RMK AO2 SLP322 T00440017 $=
202012020256 METAR KPWT 020256Z AUTO 06011KT 10SM CLR 04/01 A3047 RMK AO2 SLP327 T00440006 56010 $=
202012020156 METAR KPWT 020156Z AUTO 04012KT 10SM CLR 06/01 A3048 RMK AO2 SLP329 T00560006 $=
202012020056 METAR KPWT 020056Z AUTO 04013KT 10SM CLR 06/01 A3049 RMK AO2 SLP333 T00560011 $=
202012012356 METAR KPWT 012356Z AUTO 04011KT 10SM CLR 07/02 A3050 RMK AO2 SLP337 6//// T00670017 10083 20056 56021 $=
202012012256 METAR KPWT 012256Z AUTO 03009KT 10SM CLR 08/02 A3052 RMK AO2 SLP341 T00780022 $=
202012012156 METAR KPWT 012156Z AUTO 04010KT 10SM CLR 08/03 A3054 RMK AO2 SLP350 T00830028 $=
202012012056 METAR KPWT 012056Z AUTO 04010KT 10SM CLR 08/03 A3056 RMK AO2 SLP357 T00830033 58019 $=
202012011956 METAR KPWT 011956Z AUTO 04010KT 10SM CLR 07/04 A3059 RMK AO2 SLP364 T00720039 $=
202012011856 METAR KPWT 011856Z AUTO 02008KT 10SM CLR 07/04 A3061 RMK AO2 SLP372 T00720039 $=
202012011756 METAR KPWT 011756Z AUTO 04004KT 10SM CLR 06/03 A3062 RMK AO2 SLP377 T00560028 10056 21028 $=
202012011656 METAR KPWT 011656Z AUTO 00000KT 10SM CLR 02/02 A3061 RMK AO2 SLP373 T00220022 FZRANO $=
202012011556 METAR KPWT 011556Z AUTO 00000KT 10SM CLR M01/M02 RMK AO2 SLPNO T10111017 FZRANO $=
202012011456 METAR KPWT 011456Z AUTO 00000KT 10SM SCT037 M02/M02 A3060 RMK AO2 SLP371 T10171017 50006 FZRANO $=
202012011356 METAR KPWT 011356Z AUTO 00000KT 10SM CLR M02/M02 A3060 RMK AO2 SLP371 T10171017 FZRANO $=
202012011256 METAR KPWT 011256Z AUTO 00000KT 9SM CLR M03/M03 A3059 RMK AO2 SLP366 T10281028 FZRANO $=
202012011156 METAR KPWT 011156Z AUTO 00000KT 10SM CLR M02/M03 A3058 RMK AO2 SLP362 70016 T10221028 11006 21022 51005 FZRANO $=
202012011153 SPECI KPWT 011153Z AUTO 00000KT 9SM CLR M02/M03 A3058 RMK AO2 FZRANO $=
202012011137 SPECI KPWT 011137Z AUTO 00000KT 1 1/4SM BR CLR M02/M02 A3058 RMK AO2 VIS 1/4V5 FZRANO $=
202012011113 SPECI KPWT 011113Z AUTO 00000KT 4SM BR CLR M02/M02 A3058 RMK AO2 FZRANO $=
202012011111 SPECI KPWT 011111Z AUTO 00000KT 1 1/2SM BR CLR M02/M02 A3058 RMK AO2 FZRANO $=
202012011058 SPECI KPWT 011058Z AUTO 00000KT 3/4SM BR CLR M02/M02 A3058 RMK AO2 FZRANO $=
202012011056 METAR KPWT 011056Z AUTO 00000KT 1 1/4SM BR CLR M02/M02 A3058 RMK AO2 VIS 1/2V5 SLP361 T10221022 FZRANO $=
202012011051 SPECI KPWT 011051Z AUTO 00000KT 1 1/2SM BR CLR M02/M02 A3057 RMK AO2 FZRANO $=
202012010956 METAR KPWT 010956Z AUTO 00000KT 10SM CLR M02/M02 A3056 RMK AO2 SLP358 T10171017 FZRANO $=
202012010856 METAR KPWT 010856Z AUTO 00000KT 10SM CLR M02/M02 A3053 RMK AO2 SLP347 T10221022 51021 FZRANO $=
202012010756 METAR KPWT 010756Z AUTO 00000KT 10SM CLR M02/M02 A3052 RMK AO2 SLP343 T10171022 401061022 FZRANO $=
202012010656 METAR KPWT 010656Z AUTO 00000KT 10SM CLR M01/M02 A3050 RMK AO2 SLP335 T10111017 FZRANO $=
202012010556 METAR KPWT 010556Z AUTO 07003KT 10SM CLR M02/M02 A3047 RMK AO2 SLP325 T10171017 10072 21017 53032 FZRANO $=
202012010456 METAR KPWT 010456Z AUTO 00000KT 10SM CLR M01/M01 A3043 RMK AO2 SLP313 T10061006 FZRANO $=
202012010356 METAR KPWT 010356Z AUTO 00000KT 10SM CLR 00/M01 A3040 RMK AO2 SLP302 T00001006 FZRANO $=
202012010256 METAR KPWT 010256Z AUTO 00000KT 10SM CLR 01/01 A3037 RMK AO2 SLP291 T00110006 53026 FZRANO $=
202012010156 METAR KPWT 010156Z AUTO 16003KT 10SM CLR 04/01 A3034 RMK AO2 SLP282 T00390006 $=
202012010056 METAR KPWT 010056Z AUTO 24008KT 10SM CLR 06/02 A3032 RMK AO2 SLP273 T00610017 $=

# No short TAF reports from KPWT in databse.

###################################
#  large TAF from KPWT
###################################
202012312323 TAF KPWT 312323Z 0100/0124 21010KT P6SM SCT012 OVC025 FM010600
                       20004KT 5SM -RA BR OVC005 FM011200 19003KT
                       4SM -RA BR OVC007 FM012000 20009KT 4SM -RA
                       BR OVC050=
202012311720 TAF KPWT 311720Z 3118/0118 23016KT P6SM BKN012 FM312200 19006KT
                       P6SM SCT012 OVC025 FM010600 20004KT 5SM
                       -RA BR OVC005 FM011200 19003KT 4SM -RA BR
                       OVC007=
202012311137 TAF KPWT 311137Z 3112/0112 20012G20KT P6SM VCSH SCT005 BKN009 OVC015
                       FM311800 19010KT P6SM VCSH BKN012 OVC025
                       FM312200 19006KT P6SM SCT012 OVC025 FM010800
                       19004KT 6SM -RA BR OVC011=
202012310859 KPWT 310859Z 3109/0106 19014G20KT 6SM -RA OVC007 FM311200 19010KT
                       P6SM VCSH SCT005 BKN009 OVC015 FM312000
                       19006KT P6SM SCT006 BKN011 OVC020=
202012310520 TAF KPWT 310520Z 3106/0106 19014G20KT 5SM -RA OVC005 FM310800 19010KT
                       P6SM VCSH SCT005 BKN009 OVC015 FM312000
                       19006KT P6SM SCT006 BKN011 OVC020=
202012302320 TAF KPWT 302320Z 3100/3124 20010G18KT 6SM -SHRA BR OVC010 FM310200
                       19012KT 6SM -RA BR OVC005 FM311200 19008KT
                       P6SM VCSH BKN010 OVC040 FM311600 VRB05KT
                       P6SM SCT010 BKN015 OVC040=
202012301720 TAF KPWT 301720Z 3018/3118 19012G18KT 6SM -RA BR SCT004 OVC010
                       FM301900 20012G18KT 6SM -SHRA BR OVC010
                       FM310200 19012KT 6SM -RA BR OVC005 FM311200
                       19010KT P6SM VCSH BKN010 OVC040=
202012301132 TAF KPWT 301132Z 3012/3112 19010KT 6SM -RA BR SCT008 OVC027
                      TEMPO 3012/3016 5SM -RA BR OVC007 FM301600
                       19012G18KT 6SM -RA BR OVC007 FM301900 20012G18KT
                       6SM -RA BR OVC010 FM310200 19012KT 6SM -RA
                       BR OVC009=
202012300639 KPWT 300639Z 3007/3106 21010KT P6SM -RA SCT005 OVC025
                      TEMPO 3007/3011 5SM -RA BR BKN004 OVC020
                       FM301100 19011KT 6SM -RA BR OVC012 FM301700
                       19012G18KT 5SM -RA BR OVC010=
202012300522 TAF KPWT 300522Z 3006/3106 18010KT 6SM -RA BR OVC003 FM301200 19010G15KT
                       4SM -RA BR OVC007 FM301700 19013G24KT 2SM
                       -RA BR OVC007=
202012292320 TAF KPWT 292320Z 3000/3024 21004KT P6SM OVC080 FM300500 18008KT
                       P6SM -RA OVC012 FM300700 18010KT 6SM -RA
                       BR OVC007 FM301200 19010G15KT 4SM -RA BR
                       OVC007 FM301700 19013G24KT 2SM -RA BR OVC007=
202012291847 KPWT 291847Z 2919/3018 20006KT P6SM SCT004 OVC200 FM292200 20005KT
                       P6SM OVC030 FM300300 18008KT P6SM -RA OVC012
                       FM300700 18010KT 6SM -RA BR OVC007 FM301200
                       19010G15KT 4SM -RA BR OVC007=
202012291726 TAF KPWT 291726Z 2918/3018 18004KT P6SM BKN004 OVC011 FM292200
                       20005KT P6SM OVC030 FM300300 18008KT P6SM
                       -RA OVC012 FM300700 18010KT 6SM -RA BR OVC007
                       FM301200 19010G15KT 4SM -RA BR OVC007=
202012291128 TAF KPWT 291128Z 2912/3012 VRB03KT P6SM OVC012 FM291900 VRB03KT
                       P6SM BKN015 OVC050 FM292200 20005KT P6SM
                       OVC030 FM300300 18008KT P6SM -RA OVC012
                       FM300700 18010KT 6SM -RA BR OVC007=
202012290911 KPWT 290911Z 2909/3006 VRB03KT P6SM OVC010 FM291200 00000KT P6SM
                       OVC009 FM291900 VRB03KT P6SM BKN015 OVC060
                       FM292200 20005KT P6SM OVC030 FM300300 18008KT
                       P6SM -RA OVC014=
202012290520 TAF KPWT 290520Z 2906/3006 04006KT P6SM OVC015 FM291000 00000KT
                       1/2SM FG VV002 FM291900 VRB03KT 3SM BR OVC003
                       FM292200 20005KT P6SM OVC007=
202012282325 TAF KPWT 282325Z 2900/2924 03007KT P6SM OVC015 FM290300 00000KT
                       5SM BR OVC010 FM290600 00000KT 1/2SM FG
                       VV002 FM291900 VRB03KT 3SM BR OVC003 FM292200
                       20005KT P6SM OVC007=
202012282028 KPWT 282028Z 2820/2918 03007KT P6SM OVC007 FM290200 00000KT 5SM
                       BR SCT010 SCT250 FM290600 00000KT 1/2SM
                       FG VV002 FM291700 VRB03KT 3SM BR OVC003=
202012281724 TAF KPWT 281724Z 2818/2918 04011KT P6SM OVC003 FM290200 00000KT
                       5SM BR SCT010 SCT250 FM290600 00000KT 1/2SM
                       FG VV002 FM291700 VRB03KT 3SM BR OVC003=
202012281125 TAF KPWT 281125Z 2812/2912 04004KT P6SM SCT250
                      TEMPO 2812/2816 1SM BR FM290200 00000KT 5SM
                       BR SCT010 SCT250 FM290600 00000KT 1/2SM
                       FG VV002=
202012280905 KPWT 280905Z 2809/2906 04003KT P6SM VCFG SCT250
                      TEMPO 2809/2812 1/2SM FG VV002 FM281200 00000KT
                       1/2SM FG VV002 FM281700 00000KT 4SM BR SCT004
                       FM281900 03004KT P6SM SCT015 SCT250 FM290200
                       00000KT 5SM BR SCT010 SCT250=
202012280523 TAF KPWT 280523Z 2806/2906 00000KT 1/4SM FG VV001
                      TEMPO 2806/2810 2SM BR SCT001 SCT250 FM281700
                       00000KT 4SM BR SCT004 FM281900 03004KT P6SM
                       SCT015 SCT250 FM290200 00000KT 5SM BR SCT010
                       SCT250=
202012280050 KPWT 280050Z 2801/2824 00000KT P6SM SCT004
                      TEMPO 2801/2804 1/2SM FG VV001 FM280400 00000KT
                       4SM BR SCT200 FM281200 03002KT 4SM BR SCT004
                       FM281900 03004KT P6SM SCT015 SCT250=
202012272330 TAF KPWT 272330Z 2800/2824 00000KT P6SM SCT040 BKN100 FM280300
                       00000KT P6SM SCT200 FM281200 03002KT 4SM
                       BR SCT004 FM281900 03004KT P6SM SCT015 SCT250=
202012271726 TAF KPWT 271726Z 2718/2818 04004KT P6SM -RA BKN025 OVC030 FM271900
                       VRB03KT P6SM SCT030 OVC035 FM272200 02003KT
                       P6SM SCT040 BKN100 FM280300 02003KT P6SM
                       SCT200 FM281200 03002KT 4SM BR SCT004=
202012271124 TAF KPWT 271124Z 2712/2812 00000KT P6SM -RA SCT010 OVC025
                      TEMPO 2713/2717 5SM -RA BR OVC010 FM271800
                       04004KT P6SM SCT010 OVC030 FM272200 VRB03KT
                       P6SM SCT030 BKN100 FM280300 VRB03KT P6SM
                       SCT200=
202012270807 KPWT 270807Z 2708/2806 20004KT P6SM SCT003 BKN007 OVC025
                      TEMPO 2708/2712 BKN003 OVC007 FM271800 04004KT
                       P6SM SCT010 OVC030 FM272200 VRB03KT P6SM
                       SCT030 BKN100 FM280300 VRB03KT P6SM SCT200=
202012270528 TAF KPWT 270528Z 2706/2806 VRB04KT P6SM -SHRA SCT025 BKN040 FM270700
                       19004KT P6SM -SHRA BKN010 OVC025 FM271400
                       VRB03KT 5SM BR OVC010 FM271800 04004KT P6SM
                       SCT010 OVC030 FM272200 VRB03KT P6SM SCT030
                       BKN100 FM280300 VRB03KT P6SM SCT200=
202012262328 TAF KPWT 262328Z 2700/2724 21011G20KT P6SM SCT025 BKN150 FM270600
                       19004KT P6SM -SHRA BKN010 OVC025 FM271400
                       09004KT P6SM OVC015 FM271800 04002KT P6SM
                       SCT020 OVC050=
202012261936 KPWT 261936Z 2620/2718 20015G23KT P6SM SCT004 BKN015 OVC020
                      TEMPO 2620/2622 OVC004 FM262200 20013G20KT
                       P6SM SCT025 BKN050 FM270600 19004KT P6SM
                       -SHRA BKN010 OVC025 FM271400 09004KT P6SM
                       OVC015=
202012261727 TAF KPWT 261727Z 2618/2718 20015G23KT P6SM SCT020 BKN025 OVC035
                       FM261900 20015G23KT P6SM BKN015 OVC050 FM262200
                       20013G20KT P6SM SCT025 BKN050 FM270600 19004KT
                       P6SM -SHRA BKN010 OVC025 FM271400 09004KT
                       P6SM OVC015=
202012261125 TAF KPWT 261125Z 2612/2712 20015G23KT P6SM BKN008 OVC015 FM261900
                       20015G23KT P6SM BKN015 OVC050 FM262200 20013G20KT
                       P6SM SCT025 BKN050 FM270600 19004KT P6SM
                       -SHRA BKN010 OVC025=
202012260701 KPWT 260701Z 2607/2706 00000KT P6SM SCT007 SCT020 OVC040
                      TEMPO 2607/2611 4SM -RA BR BKN007 OVC020
                       FM261100 19012G20KT 4SM -RA BR OVC015 FM261900
                       20017G25KT 4SM -SHRA OVC025 FM262200 20017G22KT
                       P6SM BKN050 FM270100 20008KT P6SM OVC025=
202012260520 TAF KPWT 260520Z 2606/2706 VRB05KT 5SM -RA BR OVC030 FM260700 16012KT
                       4SM -RA BR OVC020 FM260900 19012G20KT 2SM
                       -RA BR OVC015 FM261900 20017G25KT 4SM -SHRA
                       OVC025 FM262200 20017G22KT P6SM BKN050 FM270100
                       20008KT P6SM OVC025=
202012252324 TAF KPWT 252324Z 2600/2624 VRB05KT P6SM -RA OVC040 FM260300 16012KT
                       4SM -RA BR OVC020 FM260900 19012G20KT 4SM
                       -RA OVC015 FM261900 20017G25KT 4SM -SHRA
                       OVC025 FM262200 20017G22KT P6SM BKN050=
202012251720 TAF KPWT 251720Z 2518/2618 VRB05KT P6SM -RA OVC040 FM260300 16012KT
                       4SM -RA BR OVC020 FM260900 19012G20KT 4SM
                       -RA OVC015=
202012251120 TAF KPWT 251120Z 2512/2612 18005KT P6SM BKN050 OVC120 FM251700
                       16007KT P6SM -RA OVC040 FM260300 16012KT
                       4SM -RA BR OVC020=
202012250520 TAF KPWT 250520Z 2506/2606 VRB03KT P6SM OVC250 FM251000 17004KT
                       P6SM OVC120 FM251500 00000KT P6SM VCSH OVC040
                       FM251900 03004KT P6SM -RA OVC030 FM252300
                       04006KT 3SM -RA BR OVC007=
202012250013 TAF KPWT 250013Z 2500/2524 VRB03KT P6SM OVC250 FM251000 16006KT
                       P6SM OVC120 FM251500 00000KT P6SM OVC040
                       FM251900 23003KT P6SM -RA OVC030=
202012241748 TAF KPWT 241748Z 2418/2518 VRB03KT P6SM SCT250 FM250000 10004KT
                       P6SM OVC250 FM251000 16006KT P6SM OVC120=
202012241120 TAF KPWT 241120Z 2412/2512 VRB03KT P6SM SKC
                      TEMPO 2412/2416 2SM BR FM241800 VRB03KT P6SM
                       SCT250 FM250000 10004KT P6SM OVC250 FM251000
                       16006KT P6SM OVC120=
202012240520 TAF KPWT 240520Z 2406/2506 04005KT P6SM SKC FM241200 VRB02KT 4SM
                       BR SKC FM241500 VRB03KT 1/2SM FZFG SKC FM241900
                       12005KT P6SM SCT250 FM250000 20003KT P6SM
                       OVC250=
202012232330 TAF KPWT 232330Z 2400/2424 04005KT P6SM SKC FM241200 VRB02KT 4SM
                       BR SKC FM241500 14003KT 1/2SM FZFG SKC FM241900
                       17005KT P6SM SKC=
202012231720 TAF KPWT 231720Z 2318/2418 VRB03KT P6SM SKC FM232300 04005KT P6SM
                       SKC FM241200 VRB02KT 4SM BR SKC FM241500
                       14003KT 1/2SM FZFG SKC=
202012231120 TAF KPWT 231120Z 2312/2412 00000KT P6SM BKN250
                      TEMPO 2312/2316 1SM BR BKN003 FM231800 02004KT
                       P6SM SCT250 FM232300 04005KT P6SM SKC=
202012230528 TAF KPWT 230528Z 2306/2406 VRB04KT P6SM FEW040 FEW250 FM231000
                       VRB02KT 2SM BR FEW250 FM231200 00000KT 1/2SM
                       FZFG OVC001 FM231700 03004KT P6SM FEW250=
202012222337 TAF KPWT 222337Z 2300/2324 VRB04KT P6SM FEW250 FM231000 VRB02KT
                       2SM BR BKN250 FM231500 00000KT 1/2SM FZFG
                       OVC001 FM232200 03004KT 6SM BR OVC250=
202012221724 TAF KPWT 221724Z 2218/2318 VRB03KT P6SM SKC FM222200 VRB04KT P6SM
                       SCT040 FM230400 04006KT P6SM SKC FM231500
                       VRB02KT 2SM BR BKN250=
202012221645 KPWT 221645Z 2217/2312 00000KT 1/4SM FZFG SKC FM221900 VRB04KT
                       P6SM SCT010 SCT040 FM222200 VRB04KT P6SM
                       SCT040 FM230400 04006KT P6SM SKC=
202012221206 KPWT 221206Z 2212/2312 00000KT P6SM SCT002 SCT050
                      TEMPO 2212/2216 1/2SM FG VV002 FM221800 VRB04KT
                       P6SM SCT010 SCT040 FM222200 VRB04KT P6SM
                       SCT040 FM230400 04006KT P6SM SKC=
202012221120 TAF KPWT 221120Z 2212/2312 00000KT 2SM BR BKN002
                      TEMPO 2212/2216 1/4SM FG VV001 FM221800 VRB04KT
                       P6SM SCT010 SCT040 FM222200 VRB04KT P6SM
                       SCT040 FM230400 04006KT P6SM SKC=
202012220909 KPWT 220909Z 2209/2306 VRB04KT P6SM SCT012 BKN060
                      TEMPO 2210/2214 BKN012 BKN060 FM221600 18006KT
                       P6SM BKN040 FM222200 VRB04KT P6SM SCT040
                       FM230400 04006KT P6SM SKC=
202012220520 TAF KPWT 220520Z 2206/2306 22005KT P6SM -SHRA BKN005 OVC025 FM220900
                       VRB04KT 2SM BR OVC009 FM221200 VRB03KT 4SM
                       BR OVC015=
202012212327 TAF KPWT 212327Z 2200/2224 24013G22KT 6SM RA BKN009 OVC014 FM220300
                       36010G20KT 4SM RA BR OVC007 FM221200 VRB03KT
                       4SM BR OVC015=
202012211736 TAF KPWT 211736Z 2118/2218 20010G15KT 2SM RA BR OVC006 FM212100
                       04008KT 4SM RA BR OVC005 FM220000 07006KT
                       2SM -SHRA BR OVC003 FM220600 20008KT P6SM
                       OVC007 FM221500 VRB03KT 4SM BR OVC015=
202012211133 TAF KPWT 211133Z 2112/2212 00000KT 6SM -RA BR OVC025 FM211700 18015G20KT
                       4SM RA BR OVC006 FM212100 04008KT 4SM RA
                       BR OVC005 FM220000 07006KT 2SM -SHRA BR
                       OVC003 FM220600 20008KT P6SM OVC007=
202012210523 TAF KPWT 210523Z 2106/2206 07005KT P6SM -RA SCT012 OVC100 FM210700
                       VRB04KT 5SM RA BR OVC008 FM211200 20004KT
                       5SM RA BR OVC006 FM211700 18015G20KT 4SM
                       RA BR OVC006 FM212100 04008KT 4SM RA BR
                       OVC005 FM220000 07006KT 2SM -RA BR OVC003=
202012202336 TAF KPWT 202336Z 2100/2124 20008KT P6SM BKN035 OVC060 FM210300
                       VRB04KT 6SM -RA BR OVC025 FM210700 VRB04KT
                       5SM RA BR OVC008 FM211200 20004KT 5SM RA
                       BR OVC006 FM211700 18011KT 4SM RA BR OVC006
                       FM212100 04008KT 4SM RA BR OVC005=
202012201740 TAF KPWT 201740Z 2018/2118 21009KT P6SM BKN015 OVC035 FM202100
                       20008KT P6SM OVC027 FM210100 18004KT 6SM
                       -RA BR OVC015 FM210700 03004KT 5SM RA BR
                       OVC008 FM211200 20004KT 5SM RA BR OVC006=
202012201126 TAF KPWT 201126Z 2012/2112 21013G20KT P6SM SCT025 BKN035 FM201800
                       19012KT P6SM SCT025 BKN050 FM202100 20011G17KT
                       P6SM OVC050 FM202200 20009KT P6SM OVC025
                       FM210100 18004KT 4SM -RA BR OVC007=
202012200520 TAF KPWT 200520Z 2006/2106 21014KT 5SM RA BR OVC004 FM200900 21010KT
                       P6SM -SHRA OVC007 FM201700 19009KT P6SM
                       BKN012 OVC025 FM202100 20012KT P6SM OVC040
                       FM210200 VRB04KT 6SM -RA BR OVC007=
202012192320 TAF KPWT 192320Z 2000/2024 18015G25KT 6SM -RA BR OVC006 FM200200
                       18020G30KT 4SM RA BR OVC008 FM200900 21012G18KT
                       P6SM -SHRA OVC005 FM201700 19009KT P6SM
                       VCSH BKN012 BKN035=
202012192215 KPWT 192215Z 1922/2018 21010KT 6SM -RA BR OVC006 FM200200 18013G22KT
                       4SM RA BR OVC008 FM201000 20012KT P6SM -SHRA
                       OVC005 FM201700 19009KT P6SM VCSH BKN012
                       BKN035=
202012191739 TAF KPWT 191739Z 1918/2018 18010KT P6SM SCT035 OVC070 FM192100
                       19012KT 6SM -RA BR OVC025 FM200200 18013G25KT
                       4SM RA BR OVC008 FM201000 20012KT P6SM -SHRA
                       OVC005 FM201700 19009KT P6SM VCSH BKN012
                       BKN035=
202012191124 TAF KPWT 191124Z 1912/2012 18006KT P6SM SCT020 BKN200 FM191800
                       18010KT P6SM OVC025 FM192200 19012KT 6SM
                       -RA BR OVC025 FM200200 18013G25KT 4SM -RA
                       BR OVC008 FM201000 20012KT P6SM OVC005=
202012190520 TAF KPWT 190520Z 1906/2006 21012G20KT 6SM -RA BR OVC007 FM190800
                       19012KT P6SM -SHRA OVC007 FM191300 19012KT
                       P6SM VCSH OVC015 FM192000 19012G18KT 6SM
                       -RA BR OVC010 FM200200 19014G25KT 4SM -RA
                       BR OVC005=
202012182337 TAF KPWT 182337Z 1900/1924 19012G20KT 6SM -RA OVC012 FM190200 20015G25KT
                       6SM -RA BR OVC007 FM190800 20014G22KT P6SM
                       -SHRA BKN012 OVC025 FM191400 19010KT P6SM
                       VCSH OVC015 FM192100 19012G18KT 6SM RA BR
                       OVC009=
202012181732 TAF KPWT 181732Z 1818/1918 18010KT P6SM -RA BKN008 OVC035 FM182100
                       19015G25KT P6SM SCT012 OVC035 FM190200 22015G30KT
                       6SM -RA BR OVC007 FM190900 20012KT P6SM
                       VCSH OVC012=
202012181131 TAF KPWT 181131Z 1812/1912 20010KT P6SM -RA OVC004 FM181500 18010KT
                       P6SM BKN010 BKN050 OVC070 FM182100 19015G25KT
                       P6SM SCT015 OVC050 FM190200 22015G30KT 6SM
                       -SHRA OVC007 FM190900 22012KT P6SM OVC012=
202012180725 KPWT 180725Z 1807/1906 19004KT P6SM -RA FEW008 BKN040 FM181100
                       19007KT P6SM -RA OVC007 FM181800 18015G25KT
                       P6SM OVC015 FM182200 20020G30KT 6SM -RA
                       BR OVC010 FM190400 19018G28KT 4SM -SHRA
                       BR OVC007=
202012180520 TAF KPWT 180520Z 1806/1906 VRB03KT P6SM OVC010 FM181100 19007KT
                       P6SM VCSH OVC007 FM181800 18015G25KT P6SM
                       OVC015 FM182200 20020G30KT 6SM -RA BR OVC010
                       FM190400 19018G28KT 4SM -SHRA BR OVC007=
202012172320 TAF KPWT 172320Z 1800/1824 21007KT P6SM BKN030 FM180800 19004KT
                       P6SM OVC015 FM181000 19005KT 6SM -SHRA OVC010
                       FM181600 20010G20KT P6SM VCSH OVC015 FM182200
                       20020G30KT 6SM -RA BR OVC010=
202012171751 TAF KPWT 171751Z 1718/1818 20012G20KT P6SM OVC010 FM172200 22009G15KT
                       P6SM OVC020 FM180100 21007KT P6SM BKN025
                       FM180800 19004KT P6SM -SHRA OVC015=
202012171123 TAF KPWT 171123Z 1712/1812 20015G20KT P6SM -SHRA SCT018 BKN023
                       OVC028 FM171700 20012KT P6SM OVC020 FM172200
                       22009KT P6SM OVC025 FM180100 21007KT P6SM
                       BKN035 FM180800 19010KT P6SM OVC020=
202012170520 TAF KPWT 170520Z 1706/1806 19015G22KT 6SM -SHRA BR OVC007 FM171200
                       20016G24KT 4SM -RA BR OVC005 FM171700 21012G18KT
                       6SM BR VCSH OVC007 FM172200 20012KT P6SM
                       OVC012 FM180200 19006KT P6SM BKN030=
202012162321 TAF KPWT 162321Z 1700/1724 VRB03KT 5SM -RA BR OVC030 FM170300 19008G19KT
                       4SM -RA BR OVC010 FM170900 20013G21KT 4SM
                       -RA BR OVC005 FM171500 20016G24KT 4SM -RA
                       BR OVC007 FM172000 21008KT 6SM BR OVC015=
202012162052 KPWT 162052Z 1621/1718 VRB03KT 5SM -RA FEW004 OVC030 FM170100 19008G19KT
                       4SM -RA BR OVC003 FM171500 20016G24KT 4SM
                       -RA BR OVC007=
202012161724 TAF KPWT 161724Z 1618/1718 19006KT P6SM OVC004 FM162100 17006G15KT
                       5SM -RA OVC004 FM170100 23008G23KT 4SM -RA
                       BR OVC003 FM171500 19016G24KT 4SM -RA BR
                       OVC007=
202012161128 TAF KPWT 161128Z 1612/1712 19007KT P6SM OVC004
                      TEMPO 1612/1614 5SM -SHRA BR OVC004 FM161600
                       19006KT P6SM BKN015 OVC030 FM162100 15006KT
                       P6SM -RA OVC007 FM170100 19014G23KT 4SM
                       -RA BR OVC003=
202012160528 TAF KPWT 160528Z 1606/1706 19010KT P6SM SCT030 OVC060
                      TEMPO 1606/1609 -SHRA BKN030 OVC060 FM160900
                       19007G14KT P6SM OVC015 FM161400 18003KT
                       6SM BR OVC007 FM162100 15006KT 4SM -RA OVC007=
202012152327 TAF KPWT 152327Z 1600/1624 20015G20KT P6SM SCT008 OVC070 FM160600
                       20006KT P6SM OVC015 FM161400 18003KT 6SM
                       BR OVC007 FM161900 18005KT P6SM OVC015 FM162100
                       15006KT 4SM -RA OVC007=
202012152059 KPWT 152059Z 1521/1618 18010G20KT P6SM OVC004 FM152300 20008KT
                       P6SM SCT025 OVC050 FM160600 20004KT P6SM
                       OVC015 FM161400 18003KT P6SM OVC007=
202012151721 TAF KPWT 151721Z 1518/1618 20011G20KT P6SM -RA OVC006 FM152300
                       20008KT P6SM SCT025 OVC050 FM160600 20004KT
                       P6SM OVC015 FM161400 18003KT P6SM OVC007=
202012151125 TAF KPWT 151125Z 1512/1612 21005KT P6SM -RA SCT010 BKN050
                      TEMPO 1512/1514 -RA OVC010 FM151400 20008G15KT
                       4SM -RA BR OVC007 FM152300 20008KT P6SM
                       SCT025 OVC050 FM160600 20004KT P6SM OVC015=
202012151008 KPWT 151008Z 1510/1606 21007KT P6SM -RA SCT009 BKN015 OVC060
                      TEMPO 1510/1512 -RA BKN009 OVC015 FM151200
                       19005KT 4SM -RA BR OVC007 FM151800 20015G20KT
                       P6SM OVC015 FM160100 19009KT 6SM BR OVC015=
202012150522 TAF KPWT 150522Z 1506/1606 19003KT P6SM SCT009 BKN035 OVC110 FM150700
                       14006KT P6SM VCSH BKN010 OVC060 FM150900
                       19004KT P6SM -RA BKN010 OVC035 FM151200
                       19005KT 4SM -RA BR OVC007 FM151800 20015G20KT
                       P6SM OVC015 FM160100 19009KT 6SM BR OVC015=
202012142333 TAF KPWT 142333Z 1500/1524 18004KT P6SM SKC FM150500 19003KT P6SM
                       BKN050 FM150900 19004KT P6SM -RA BKN010
                       OVC035 FM151200 19005KT 4SM -RA BR OVC007
                       FM151700 20015G20KT P6SM OVC015=
202012141737 TAF KPWT 141737Z 1418/1518 24004KT P6SM OVC003 FM142000 19006KT
                       P6SM BKN007 OVC015 FM142300 19006KT P6SM
                       BKN050 FM150900 19004KT P6SM -RA BKN010
                       OVC035 FM151200 19005KT 4SM -RA BR OVC007=
202012141126 TAF KPWT 141126Z 1412/1512 23005KT P6SM OVC003
                      TEMPO 1412/1416 4SM -SHRA BR OVC003 FM142000
                       19006KT P6SM BKN007 OVC015 FM142300 19006KT
                       P6SM BKN050 FM150900 19004KT P6SM -RA BKN020
                       OVC035=
202012140524 TAF KPWT 140524Z 1406/1506 22004KT P6SM VCSH SCT003 OVC020
                      TEMPO 1406/1410 4SM BR OVC003 FM141000 20004KT
                       4SM BR OVC003 FM142200 19006KT P6SM BKN005
                       OVC010=
202012132330 TAF KPWT 132330Z 1400/1424 19005KT 6SM -SHRA BR OVC005 FM140300
                       19003KT 5SM BR VCSH OVC007 FM141100 20004KT
                       4SM BR OVC003 FM142200 21006KT P6SM BKN005
                       OVC010=
202012132015 KPWT 132015Z 1320/1418 20007KT 3SM -SHRA BR OVC007 FM140500 19003KT
                       5SM BR VCSH OVC007 FM141500 20004KT 4SM
                       BR OVC005=
202012131726 TAF KPWT 131726Z 1318/1418 VRB05KT 5SM -RA BR OVC022 FM132200 20007KT
                       2SM -SHRA BR OVC007 FM140500 19003KT 5SM
                       BR VCSH OVC007 FM141500 20004KT 4SM BR OVC005=
202012131122 TAF KPWT 131122Z 1312/1412 07003KT 5SM -RA BR BKN020 OVC030 FM131400
                       VRB05KT 5SM -RA BR OVC010 FM132100 20005KT
                       2SM -SHRA BR OVC005 FM140400 19003KT 5SM
                       BR OVC007=
202012131020 KPWT 131020Z 1310/1406 00000KT P6SM -RA OVC025 FM131400 VRB05KT
                       5SM -RA OVC010 FM132100 20005KT 2SM -RA
                       OVC005=
202012130522 TAF KPWT 130522Z 1306/1406 03003KT P6SM BKN070 OVC150 FM130900
                       05006KT P6SM -RA BKN040 OVC070 FM131400
                       VRB05KT 5SM -RA OVC010 FM132100 20005KT
                       2SM -RA OVC005=
202012122328 TAF KPWT 122328Z 1300/1324 05006KT P6SM SCT250 FM130300 03005KT
                       P6SM BKN250 FM130600 04004KT P6SM BKN070
                       OVC150 FM130900 05006KT P6SM -RA BKN040
                       OVC070 FM131400 VRB05KT 6SM -RA OVC020=
202012121725 TAF KPWT 121725Z 1218/1318 VRB03KT P6SM OVC007
                      TEMPO 1218/1220 BKN007 FM122000 03004KT P6SM
                       SCT250 FM130300 03005KT P6SM BKN250 FM130700
                       06004KT P6SM BKN070 OVC150 FM131000 09006KT
                       P6SM -RA BKN040 OVC070=
202012121122 TAF KPWT 121122Z 1212/1312 VRB03KT P6SM OVC010 FM121800 02003KT
                       P6SM SCT015 FM122000 03004KT P6SM FEW250
                       FM130600 03004KT P6SM BKN250 FM130900 06004KT
                       P6SM BKN070 OVC150=
202012121004 KPWT 121004Z 1210/1306 06005KT P6SM SCT002
                      TEMPO 1210/1214 1/2SM FZFG VV002 FM121900
                       02002KT P6SM SCT015=
202012120815 KPWT 120815Z 1208/1306 00000KT 3SM BR SCT001 SCT025
                      TEMPO 1208/1212 1/4SM FZFG VV001 FM121200
                       00000KT 1SM BR OVC005 FM121900 02002KT P6SM
                       SCT015=
202012120520 TAF KPWT 120520Z 1206/1306 03004KT P6SM SKC
                      TEMPO 1206/1208 3SM BR BKN005 FM120900 00000KT
                       1 1/2SM BR OVC002 FM121300 00000KT 1SM BR
                       OVC002 FM121900 02002KT P6SM SCT015=
202012112328 TAF KPWT 112328Z 1200/1224 02004KT P6SM SCT030 FM120800 00000KT
                       3SM BR BKN004 FM121300 00000KT 1SM BR OVC002=
202012112102 KPWT 112102Z 1121/1218 20004KT P6SM VCSH SCT012 BKN020 FM120000
                       02003KT P6SM SCT050 FM120800 00000KT 3SM
                       BR BKN004 FM121300 00000KT 1SM BR OVC002=
202012111731 TAF KPWT 111731Z 1118/1218 22004KT P6SM VCSH OVC004
                      TEMPO 1118/1119 -SHRA FM111900 22005KT P6SM
                       VCSH SCT010 BKN070 FM112100 20004KT P6SM
                       BKN050 FM120000 02003KT P6SM SCT050 FM120800
                       00000KT 3SM BR BKN004 FM121300 00000KT 1SM
                       BR OVC002=
202012111128 TAF KPWT 111128Z 1112/1212 21007KT 6SM BR BKN005 OVC012 FM111800
                       18007KT P6SM VCSH SCT015 OVC025 FM112100
                       20004KT P6SM BKN050 FM120000 02003KT P6SM
                       SCT050 BKN100=
202012110533 TAF KPWT 110533Z 1106/1206 21007KT 2SM BR OVC005 FM111800 18007KT
                       P6SM VCSH SCT015 OVC025 FM112100 20004KT
                       P6SM BKN050 FM120000 02003KT P6SM SCT050
                       BKN100=
202012110216 KPWT 110216Z 1102/1124 18007KT P6SM -RA BKN007 BKN011 OVC017 FM110400
                       19008G14KT 4SM -RA BR OVC011 FM111000 21003KT
                       2SM BR OVC005 FM111600 18007KT 4SM -SHRA
                       BR OVC007=
202012102326 TAF KPWT 102326Z 1100/1124 VRB04KT P6SM SCT030 OVC060 FM110400
                       19008G14KT 4SM -RA BR OVC015 FM111000 21003KT
                       2SM BR OVC005 FM111600 18007KT 4SM -SHRA
                       BR OVC007=
202012102116 KPWT 102116Z 1021/1118 VRB05KT 5SM BR OVC002 FM102300 18005KT P6SM
                       SCT030 OVC060 FM110400 19008G14KT 4SM BR
                       OVC015 FM111200 21003KT P6SM -RA OVC010=
202012101913 KPWT 101913Z 1019/1118 20003KT P6SM SCT030 OVC100
                      TEMPO 1019/1021 1/2SM FG OVC002 FM102100
                       18005KT P6SM SCT030 OVC060 FM110400 19008G14KT
                       4SM BR OVC015 FM111200 21003KT P6SM -RA
                       OVC010=
202012101905 KPWT 101905Z 1019/1118 20003KT P6SM SCT030 OVC100
                      TEMPO 1019/1021 1SM BR FM102100 18005KT P6SM
                       SCT030 OVC060 FM110400 19008G14KT 4SM BR
                       OVC015 FM111200 21003KT P6SM -RA OVC010=
202012101735 TAF KPWT 101735Z 1018/1118 VRB02KT P6SM SCT010 SCT100
                      TEMPO 1018/1019 1SM BR OVC007 FM101900 20003KT
                       P6SM SCT030 OVC100 FM102100 18005KT P6SM
                       SCT030 OVC060 FM110400 19008G14KT 4SM BR
                       OVC015 FM111200 21003KT P6SM -RA OVC010=
202012101533 KPWT 101533Z 1016/1112 VRB02KT P6SM BKN008
                      TEMPO 1016/1018 1SM BR FM101800 12003KT P6SM
                       SCT010 OVC030 FM102100 18005KT P6SM SCT030
                       OVC060 FM110400 19008G14KT 4SM BR OVC015=
202012101408 KPWT 101408Z 1014/1112 VRB02KT P6SM BKN008 FM101800 12003KT P6SM
                       SCT010 OVC030 FM102100 18005KT P6SM SCT030
                       OVC060 FM110400 19008G14KT 4SM BR OVC015=
202012101138 TAF KPWT 101138Z 1012/1112 VRB02KT 3SM BR BKN010
                      TEMPO 1012/1015 1SM BR FM101800 12003KT P6SM
                       SCT010 OVC030 FM102100 18005KT P6SM SCT030
                       OVC060 FM110400 19008G14KT 4SM BR OVC015=
202012100923 KPWT 100923Z 1009/1106 VRB02KT 1/2SM FG SCT003 FM101800 18005KT
                       P6SM SCT010 OVC030 FM102100 18005KT P6SM
                       SCT050 OVC100=
202012100541 TAF KPWT 100541Z 1006/1106 07004KT P6SM FEW025
                      TEMPO 1006/1009 1SM BR FEW003 FM100900 VRB03KT
                       1/2SM FG OVC003 FM101800 18005KT P6SM SCT010
                       OVC030 FM102100 18005KT P6SM SCT050 OVC100=
202012092320 TAF KPWT 092320Z 1000/1024 08005KT P6SM OVC035 FM100400 VRB03KT
                       2SM BR OVC007 FM100800 VRB03KT 1/2SM FG
                       OVC003 FM101800 18005KT P6SM SCT010 OVC030=
202012091721 TAF KPWT 091721Z 0918/1018 20006KT P6SM OVC008
                      TEMPO 0918/0921 1/2SM FG OVC003 FM100000
                       18005KT P6SM OVC015 FM100400 00000KT 2SM
                       BR OVC007 FM100800 VRB03KT 1/2SM FG OVC003=
202012091622 KPWT 091622Z 0916/1012 24003KT 6SM BR OVC003
                      TEMPO 0916/0918 1/2SM FG FM091800 20011KT
                       P6SM OVC008 FM100000 18005KT P6SM OVC015
                       FM100800 00000KT 2SM BR OVC003=
202012091140 TAF KPWT 091140Z 0912/1012 24003KT 6SM BR OVC003 FM091800 20011KT
                       P6SM OVC008 FM100000 18005KT P6SM OVC015
                       FM100800 00000KT 2SM BR OVC003=
202012090540 TAF KPWT 090540Z 0906/1006 24003KT 2SM BR OVC003 FM091200 19008KT
                       4SM BR OVC005 FM091800 20011KT P6SM OVC008=
202012082323 TAF KPWT 082323Z 0900/0924 VRB04KT 4SM -RA BR OVC007 FM090600 13007KT
                       3SM BR OVC010 FM091200 19008KT 4SM BR OVC005
                       FM091700 20011KT 5SM BR OVC010=
202012081725 TAF KPWT 081725Z 0818/0918 20006KT 5SM -RA BR OVC004 FM082100 VRB04KT
                       2SM -RA BR OVC007 FM090600 16007KT 3SM BR
                       OVC010 FM091200 19008KT 4SM BR OVC005=
202012081147 TAF KPWT 081147Z 0812/0912 23008KT 5SM -RA BR BKN009 FM081300 17006KT
                       2SM -RA OVC009 FM082100 VRB04KT 2SM -RA
                       BR OVC007=
202012080915 KPWT 080915Z 0809/0906 23008KT 5SM -RA BR BKN004 OVC015 FM081300
                       17006KT 2SM -RA BKN005 OVC010 FM082100 VRB04KT
                       2SM -RA BR OVC007=
202012080533 TAF KPWT 080533Z 0806/0906 24006KT P6SM OVC035 FM080900 17008KT
                       P6SM -RA OVC035 FM081300 17006KT 2SM -RA
                       BKN005 OVC010 FM082100 VRB04KT 2SM -RA BR
                       OVC007=
202012072320 TAF KPWT 072320Z 0800/0824 20006KT P6SM OVC100 FM080700 17008KT
                       P6SM -RA OVC040 FM081300 17006KT 2SM -RA
                       BKN005 OVC010=
202012071721 TAF KPWT 071721Z 0718/0818 17004KT P6SM OVC100 FM080700 17006KT
                       P6SM -RA OVC040 FM081300 17006KT 2SM -RA
                       BKN005 OVC010=
202012071134 TAF KPWT 071134Z 0712/0812 17004KT P6SM OVC100 FM080700 17006KT
                       P6SM -RA OVC040 FM081000 17006KT 2SM -RA
                       BKN005 OVC010=
202012070535 TAF KPWT 070535Z 0706/0806 19005KT P6SM FEW025 SCT050 BKN250 FM070900
                       VRB03KT 6SM BR SCT004 BKN250
                      TEMPO 0709/0713 1SM BR BKN004 BKN250 FM071300
                       19002KT P6SM OVC100=
202012070228 KPWT 070228Z 0702/0724 22007KT P6SM SCT025 BKN050
                      TEMPO 0702/0704 BKN025 BKN050 FM070600 VRB03KT
                       P6SM SCT100 BKN250 FM070900 VRB03KT 1SM
                       BR OVC004 FM071300 19002KT P6SM OVC100=
202012062341 TAF KPWT 062341Z 0700/0724 18010KT P6SM BKN050 FM070400 VRB03KT
                       P6SM SCT100 BKN250 FM070900 VRB03KT 1SM
                       BR OVC004 FM071300 19002KT P6SM OVC100=
202012061737 TAF KPWT 061737Z 0618/0718 22007KT P6SM BKN003 OVC015 FM061900
                       18008KT P6SM BKN007 OVC015 FM062200 18008KT
                       P6SM BKN025 BKN050 FM070400 VRB03KT P6SM
                       SCT100 BKN250 FM070900 VRB03KT 1SM BR OVC004=
202012061138 TAF KPWT 061138Z 0612/0712 18008KT P6SM OVC003 FM061700 18008KT
                       P6SM SCT004 BKN008 OVC015 FM061900 18008KT
                       P6SM SCT008 BKN015 OVC025 FM062200 18008KT
                       P6SM BKN030 BKN050 FM070400 VRB03KT P6SM
                       SCT100 BKN250 FM070900 VRB03KT 1SM BR OVC004=
202012060531 TAF KPWT 060531Z 0606/0706 21003KT P6SM -RA OVC060 FM061100 18008KT
                       6SM BR BKN015 OVC025 FM070000 18005KT P6SM
                       BKN030 BKN050=
202012052339 TAF KPWT 052339Z 0600/0624 21006KT P6SM SKC FM060200 12008KT P6SM
                       SCT100 OVC200 FM060700 15008KT P6SM -RA
                       BKN035 OVC060 FM061100 18008KT 6SM BR BKN015
                       OVC025=
202012051720 TAF KPWT 051720Z 0518/0618 VRB03KT P6SM SKC FM060200 12008KT P6SM
                       SCT100 OVC200 FM060700 15008KT P6SM -RA
                       BKN035 OVC060 FM061100 18008KT 6SM BR BKN015
                       OVC025=
202012051127 TAF KPWT 051127Z 0512/0612 VRB03KT P6SM SKC
                      TEMPO 0513/0516 3SM BR SCT001 FM051700 VRB03KT
                       P6SM SKC FM060200 12008KT P6SM SCT100 OVC200
                       FM060700 15008KT P6SM -RA BKN035 OVC060
                       FM061100 18008KT P6SM BKN015 OVC025=
202012050544 TAF KPWT 050544Z 0506/0606 VRB03KT P6SM SKC FM051100 VRB03KT 3SM
                       BR SCT001 FM051700 VRB03KT P6SM SKC FM060200
                       12008KT P6SM SCT100 OVC200=
202012042343 TAF KPWT 042343Z 0500/0524 04006KT P6SM SKC FM051000 10003KT 4SM
                       BR FEW002 SCT030 FM051800 19004KT P6SM SCT050
                       SCT250=
202012041724 TAF KPWT 041724Z 0418/0518 03004KT P6SM FEW030 FM042000 05002KT
                       P6SM SKC=
202012041133 TAF KPWT 041133Z 0412/0512 00000KT 5SM BR SCT006 OVC015
                      TEMPO 0413/0417 2SM BR BKN006 OVC015 FM041800
                       03004KT P6SM SKC=
202012041013 KPWT 041013Z 0410/0506 00000KT P6SM BKN022 FM041700 03004KT P6SM
                       FEW250=
202012040537 TAF KPWT 040537Z 0406/0506 00000KT P6SM SCT150 FM041000 00000KT
                       4SM BR BKN004 FM041400 00000KT 2SM BR OVC002
                       FM041800 03004KT P6SM FEW250=
202012032329 TAF KPWT 032329Z 0400/0424 20003KT P6SM BKN100 OVC150 FM040300
                       VRB03KT P6SM BKN060 BKN100 FM041700 03004KT
                       P6SM FEW250=
202012031723 TAF KPWT 031723Z 0318/0418 00000KT P6SM SCT150 BKN250 FM032200
                       19006KT P6SM BKN120 OVC200 FM040600 VRB03KT
                       P6SM BKN040 BKN100=
202012031131 TAF KPWT 031131Z 0312/0412 00000KT P6SM BKN250 FM032200 19006KT
                       P6SM BKN120 OVC200 FM040800 VRB03KT P6SM
                       BKN250=
202012030520 TAF KPWT 030520Z 0306/0406 00000KT P6SM BKN250 FM031200 VRB03KT
                       P6SM BKN120 BKN250 FM040000 00000KT P6SM
                       OVC060=
202012022322 TAF KPWT 022322Z 0300/0324 00000KT P6SM BKN250 FM031200 00000KT
                       P6SM BKN120 BKN250=
202012021721 TAF KPWT 021721Z 0218/0318 00000KT P6SM SKC FM030000 03004KT P6SM
                       SKC FM030200 00000KT P6SM SCT250 FM031200
                       00000KT P6SM BKN100 BKN250=
202012021120 TAF KPWT 021120Z 0212/0312 04008KT P6SM SKC FM021700 05006KT P6SM
                       SKC FM030000 12004KT P6SM SKC FM030600 VRB03KT
                       P6SM SCT250=
202012020604 TAF KPWT 020604Z 0206/0306 04008KT P6SM SKC FM021400 04004KT 2SM
                       BR SKC FM021700 02004KT P6SM SKC=
202012012327 TAF KPWT 012327Z 0200/0224 03009KT P6SM SCT250 FM020300 04008KT
                       P6SM SKC FM021400 04004KT 2SM BR SKC FM021700
                       02004KT P6SM SKC=
202012011723 TAF KPWT 011723Z 0118/0218 03004KT P6SM SCT250 FM020300 02004KT
                       P6SM SKC=
202012011302 KPWT 011302Z 0113/0212 00000KT 5SM BR SKC FM011800 03006KT P6SM
                       SCT250 FM020300 02004KT P6SM SKC=
202012011120 TAF KPWT 011120Z 0112/0212 00000KT 1SM BR BKN003 FM011500 00000KT
                       2SM BR OVC003 FM012000 03006KT P6SM SCT250
                       FM020300 02004KT P6SM SKC=
202012010520 TAF KPWT 010520Z 0106/0206 19005KT P6SM SCT050 FM010700 VRB03KT
                       P6SM SCT040 FM011100 00000KT 4SM BR BKN004
                       FM011500 00000KT 2SM BR OVC003 FM012000
                       03006KT P6SM SCT250=