##########################################################
# Query made at 02/16/2025 00:34:07 UTC
# Time interval: from 05/01/2020 00:00  to 05/31/2020 23:59  UTC
##########################################################

##########################################################
# KPWT, Bremerton National Automatic Weather Observing / Reporting System (United States)
# WMO index: -----. WIGOS ID: Unknown
# Latitude 47-30N. Longitude 122-45W. Altitude 147 m.
##########################################################

###################################
#  METAR/SPECI from KPWT
###################################
202005312356 METAR KPWT 312356Z AUTO 04008KT 10SM FEW019 SCT070 14/10 A3012 RMK AO2 SLP203 60007 T01440100 10150 20106 58000=
202005312256 METAR KPWT 312256Z AUTO 04008KT 10SM FEW050 OVC060 14/11 A3012 RMK AO2 SLP204 T01390106=
202005312215 SPECI KPWT 312215Z AUTO 06007KT 10SM SCT020 BKN043 OVC055 13/11 A3012 RMK AO2=
202005312156 METAR KPWT 312156Z AUTO 07006KT 10SM FEW015 BKN020 OVC025 13/11 A3012 RMK AO2 SLP204 T01280106=
202005312128 SPECI KPWT 312128Z AUTO 04005KT 10SM SCT016 BKN022 OVC027 13/10 A3012 RMK AO2=
202005312056 METAR KPWT 312056Z AUTO VRB03KT 10SM SCT045 OVC060 13/10 A3012 RMK AO2 SLP203 60007 T01330100 51013=
202005312005 SPECI KPWT 312005Z AUTO 05006KT 10SM FEW007 OVC041 12/10 A3011 RMK AO2=
202005311956 METAR KPWT 311956Z AUTO 05008KT 10SM FEW032 OVC040 12/11 A3011 RMK AO2 RAE42 SLP202 P0007 T01170106=
202005311946 SPECI KPWT 311946Z AUTO 03007KT 10SM FEW021 SCT028 OVC036 12/11 A3011 RMK AO2 RAE42 P0007=
202005311938 SPECI KPWT 311938Z AUTO 02008KT 10SM -RA FEW008 BKN029 OVC034 11/11 A3011 RMK AO2 P0007=
202005311928 SPECI KPWT 311928Z AUTO 03010KT 5SM -RA BR FEW006 BKN013 OVC031 11/10 A3011 RMK AO2 P0007=
202005311920 SPECI KPWT 311920Z AUTO 05007KT 2 1/2SM -RA BR SCT008 BKN013 OVC025 11/09 A3011 RMK AO2 VIS 1 1/4V4 P0007=
202005311910 SPECI KPWT 311910Z AUTO 00000KT 1 3/4SM -RA BR BKN008 OVC012 11/09 A3011 RMK AO2 CIG 006V010 P0001=
202005311856 METAR KPWT 311856Z AUTO 06005KT 5SM -RA BR BKN008 OVC012 11/10 A3010 RMK AO2 RAB50 CIG 006V010 SLP198 P0000 T01110100=
202005311830 SPECI KPWT 311830Z AUTO 02004KT 8SM OVC010 11/09 A3009 RMK AO2 CIG 007V014=
202005311756 METAR KPWT 311756Z AUTO 03004KT 10SM OVC007 11/10 A3008 RMK AO2 CIG 005V010 SLP190 60007 T01110100 10111 20089 53010=
202005311742 SPECI KPWT 311742Z AUTO 36006KT 9SM OVC007 11/09 A3008 RMK AO2 CIG 005V010=
202005311656 METAR KPWT 311656Z AUTO 02006KT 8SM OVC005 10/09 A3006 RMK AO2 RAE37 CIG 003V008 SLP184 P0001 T01000094=
202005311652 SPECI KPWT 311652Z AUTO 01009KT 8SM OVC005 10/09 A3006 RMK AO2 RAE37 CIG 003V008 P0001=
202005311645 SPECI KPWT 311645Z AUTO 02008KT 2 1/2SM BR OVC005 10/09 A3006 RMK AO2 RAE37 P0001=
202005311607 SPECI KPWT 311607Z AUTO 03005KT 3SM -RA BR OVC005 10/09 A3005 RMK AO2 CIG 003V007 P0000=
202005311556 METAR KPWT 311556Z AUTO 36007KT 2 1/2SM -RA BR OVC005 10/09 A3005 RMK AO2 VIS 2V5 SLP180 P0003 T01000094=
202005311532 SPECI KPWT 311532Z AUTO 01007KT 3SM -RA BR OVC005 10/09 A3004 RMK AO2 CIG 003V007 P0001=
202005311522 SPECI KPWT 311522Z AUTO 05008KT 2 1/2SM -RA BR OVC005 10/09 A3003 RMK AO2 VIS 2V4 CIG 003V007 P0001=
202005311508 SPECI KPWT 311508Z AUTO 00000KT 4SM -RA BR OVC003 09/09 A3003 RMK AO2 P0001=
202005311456 METAR KPWT 311456Z AUTO VRB03KT 2SM -RA BR OVC003 09/09 A3002 RMK AO2 RAE1359B28 SLP171 P0001 60003 T00940089 53008=
202005311424 SPECI KPWT 311424Z AUTO 00000KT 1 3/4SM BR OVC003 09/09 A3001 RMK AO2 RAE1359 P0000=
202005311356 METAR KPWT 311356Z AUTO 00000KT 4SM -RA BR OVC003 09/09 A3000 RMK AO2 SLP166 P0002 T00890089=
202005311353 SPECI KPWT 311353Z AUTO 00000KT 4SM -RA BR OVC003 09/09 A3000 RMK AO2 P0002=
202005311337 SPECI KPWT 311337Z AUTO 00000KT 2SM -RA BR OVC003 09/09 A3000 RMK AO2 P0002=
202005311327 SPECI KPWT 311327Z AUTO 19003KT 3SM -RA BR OVC003 09/09 A3000 RMK AO2 P0001=
202005311256 METAR KPWT 311256Z AUTO 00000KT 1 1/4SM -RA BR OVC003 09/09 A3000 RMK AO2 RAB07 SLP163 P0000 T00890089=
202005311251 SPECI KPWT 311251Z AUTO 00000KT 1 3/4SM BR OVC003 09/09 A2999 RMK AO2 VIS 1V5 RAB07E40 P0000=
202005311240 SPECI KPWT 311240Z AUTO VRB03KT 6SM BR OVC003 09/09 A2998 RMK AO2 RAB07E40 P0000=
202005311231 SPECI KPWT 311231Z AUTO 19003KT 2 1/2SM -RA BR OVC003 09/09 A2998 RMK AO2 VIS 1 3/4V5 RAB07 P0000=
202005311156 METAR KPWT 311156Z AUTO 20004KT 4SM BR OVC003 09/09 A2997 RMK AO2 RAE10 SLP155 P0001 60010 70074 T00890089 10100 20089 51016=
202005311056 METAR KPWT 311056Z AUTO 19003KT 5SM -RA BR OVC003 09/09 A2996 RMK AO2 SLP149 P0001 T00940089=
202005310956 METAR KPWT 310956Z AUTO 20004KT 6SM -RA BR OVC003 09/09 A2995 RMK AO2 RAE21B44 SLP146 P0000 T00940094=
202005310856 METAR KPWT 310856Z AUTO 00000KT 10SM -RA OVC003 10/09 A2993 RMK AO2 SLP138 P0003 60008 T01000094 51007=
202005310756 METAR KPWT 310756Z AUTO 24003KT 5SM -RA BR OVC003 10/09 A2992 RMK AO2 SLP137 P0003 T01000094 401220094=
202005310656 METAR KPWT 310656Z AUTO 00000KT 6SM -RA BR OVC003 10/09 A2992 RMK AO2 SLP136 P0002 T01000094=
202005310556 METAR KPWT 310556Z AUTO 16003KT 8SM -RA OVC005 10/09 A2991 RMK AO2 CIG 003V008 SLP131 P0003 60040 T01000094 10117 20100 51005=
202005310456 METAR KPWT 310456Z AUTO 12004KT 10SM -RA OVC003 11/10 A2990 RMK AO2 SLP131 P0003 T01060100=
202005310356 METAR KPWT 310356Z AUTO 18003KT 7SM -RA OVC005 11/10 A2989 RMK AO2 SLP126 P0002 T01060100=
202005310256 METAR KPWT 310256Z AUTO 17003KT 10SM -RA BKN005 OVC010 11/10 A2986 RMK AO2 SLP116 P0003 60032 T01060100 58003=
202005310246 SPECI KPWT 310246Z AUTO VRB04KT 10SM -RA BKN005 OVC010 11/10 A2985 RMK AO2 CIG 003V008 P0003=
202005310208 SPECI KPWT 310208Z AUTO 15003KT 10SM -RA BKN008 OVC014 11/10 A2986 RMK AO2 CIG 006V010 P0001=
202005310156 METAR KPWT 310156Z AUTO 16004KT 5SM -RA BR SCT006 BKN011 OVC016 11/10 A2988 RMK AO2 SLP123 P0020 T01060100=
202005310056 METAR KPWT 310056Z AUTO 17009G14KT 140V200 9SM -RA OVC006 11/11 A2989 RMK AO2 CIG 004V008 SLP128 P0009 T01110106=
202005310011 SPECI KPWT 310011Z AUTO 19005KT 7SM -RA OVC006 12/11 A2987 RMK AO2 CIG 003V009 P0002=
202005302356 METAR KPWT 302356Z AUTO 18006KT 6SM -RA BR OVC004 12/11 A2987 RMK AO2 CIG 003V008 SLP119 P0005 60015 T01170111 10122 20111 51017=
202005302354 SPECI KPWT 302354Z AUTO 17006KT 6SM -RA BR OVC004 12/11 A2987 RMK AO2 LTG DSNT E CIG 003V007 P0005=
202005302333 SPECI KPWT 302333Z AUTO 15004KT 6SM -RA BR OVC006 12/11 A2985 RMK AO2 CIG 003V010 P0002=
202005302319 SPECI KPWT 302319Z AUTO 00000KT 10SM -RA SCT006 OVC011 12/11 A2983 RMK AO2 P0001=
202005302304 SPECI KPWT 302304Z AUTO 18003KT 10SM -RA BKN011 BKN028 OVC050 12/11 A2983 RMK AO2 P0001=
202005302256 METAR KPWT 302256Z AUTO 00000KT 9SM -RA FEW011 BKN036 OVC050 12/11 A2982 RMK AO2 RAE02B18 SLP104 P0002 T01170111=
202005302235 SPECI KPWT 302235Z AUTO 18003KT 6SM -RA BR FEW007 BKN036 OVC046 12/11 A2983 RMK AO2 RAE02B18 P0001=
202005302222 SPECI KPWT 302222Z AUTO 18003KT 10SM -RA BKN010 OVC046 12/11 A2982 RMK AO2 RAE02B18 CIG 007V011 P0000=
202005302156 METAR KPWT 302156Z AUTO 00000KT 10SM -RA BKN007 BKN035 OVC044 12/11 A2982 RMK AO2 CIG 004V011 SLP100 P0004 T01220111=
202005302152 SPECI KPWT 302152Z AUTO 21004KT 10SM -RA SCT005 BKN009 OVC044 12/11 A2982 RMK AO2 P0004=
202005302145 SPECI KPWT 302145Z AUTO 19004KT 10SM -RA SCT007 BKN033 OVC044 12/11 A2983 RMK AO2 P0004=
202005302107 SPECI KPWT 302107Z AUTO 25006KT 10SM -RA SCT011 OVC042 12/11 A2982 RMK AO2 P0001=
202005302056 METAR KPWT 302056Z AUTO 27005KT 10SM -RA SCT006 BKN011 OVC044 12/11 A2983 RMK AO2 RAB08 SLP103 P0001 60004 T01220111 55005=
202005302040 SPECI KPWT 302040Z AUTO 23010KT 10SM -RA BKN006 BKN009 OVC046 12/11 A2984 RMK AO2 RAB08 CIG 004V007 P0000=
202005302031 SPECI KPWT 302031Z AUTO 22005KT 10SM -RA SCT004 OVC046 12/12 A2983 RMK AO2 RAB08 P0000=
202005301956 METAR KPWT 301956Z AUTO 23004KT 10SM FEW110 12/11 A2981 RMK AO2 RAE47 SLP099 P0003 T01220111=
202005301856 METAR KPWT 301856Z AUTO 00000KT 10SM -RA FEW006 12/10 A2984 RMK AO2 RAB33 SLP107 P0000 T01170100=
202005301756 METAR KPWT 301756Z AUTO 00000KT 10SM FEW004 11/11 A2984 RMK AO2 RAE07 SLP109 P0001 60009 T01110106 10117 20100 51007=
202005301656 METAR KPWT 301656Z AUTO 34003KT 10SM -RA FEW034 11/09 A2984 RMK AO2 PRESFR SLP106 P0006 T01060094=
202005301556 METAR KPWT 301556Z AUTO 25005KT 10SM -RA FEW015 BKN110 10/09 A2989 RMK AO2 LTG DSNT NE AND E TSB07E26 SLP125 P0002 T01000094=
202005301532 SPECI KPWT 301532Z AUTO VRB03KT 10SM -RA FEW015 10/09 A2987 RMK AO2 LTG DSNT NE-SE TSB07E26 P0001=
202005301513 SPECI KPWT 301513Z AUTO VRB05KT 10SM VCTS -RA BKN110 11/09 A2986 RMK AO2 LTG DSNT N-SE TSB07 PRESRR P0000=
202005301456 METAR KPWT 301456Z AUTO 22003KT 9SM -RA BKN110 11/09 A2982 RMK AO2 LTG DSNT SE AND S TSB31E54RAB40 SLP100 P0000 60000 T01060094 51001=
202005301437 SPECI KPWT 301437Z AUTO 21007KT 10SM VCTS FEW100 11/09 A2985 RMK AO2 LTG DSNT S TSB31 PRESRR=
202005301356 METAR KPWT 301356Z AUTO 00000KT 10SM SCT100 11/09 A2982 RMK AO2 SLP102 T01110089=
202005301256 METAR KPWT 301256Z AUTO 00000KT 10SM CLR 11/09 A2982 RMK AO2 SLP102 T01060089=
202005301156 METAR KPWT 301156Z AUTO 00000KT 10SM CLR 10/08 A2982 RMK AO2 SLP101 7//// T01000083 10139 20094 56010=
202005301056 METAR KPWT 301056Z AUTO 19003KT 10SM CLR 11/09 A2982 RMK AO2 SLP101 T01060089=
202005300956 METAR KPWT 300956Z AUTO 00000KT 10SM CLR 12/09 A2983 RMK AO2 SLP103 T01170089=
202005300856 METAR KPWT 300856Z AUTO 00000KT 10SM CLR 12/09 A2985 RMK AO2 SLP109 T01220089 57004=
202005300756 METAR KPWT 300756Z AUTO 06004KT 10SM CLR 12/08 A2985 RMK AO2 SLP110 T01220083 402560089=
202005300656 METAR KPWT 300656Z AUTO 06003KT 10SM CLR 13/09 A2986 RMK AO2 SLP113 T01280089=
202005300556 METAR KPWT 300556Z AUTO 00000KT 10SM CLR 14/09 A2986 RMK AO2 SLP113 6//// T01390094 10222 20133 56003=
202005300456 METAR KPWT 300456Z AUTO 06004KT 10SM CLR 15/09 A2987 RMK AO2 SLP116 T01500094=
202005300356 METAR KPWT 300356Z AUTO 00000KT 10SM CLR 16/09 A2986 RMK AO2 SLP113 T01560094=
202005300256 METAR KPWT 300256Z AUTO 06005KT 10SM CLR 18/09 A2987 RMK AO2 SLP117 6//// T01780089=
202005300156 METAR KPWT 300156Z AUTO 10SM CLR 20/09 RMK AO2 SLPNO T02000089 $=
202005300056 METAR KPWT 300056Z AUTO 06010KT 10SM CLR 22/10 A2989 RMK AO2 SLP124 T02170100=
202005292356 METAR KPWT 292356Z AUTO 10SM CLR 22/11 RMK AO2 SLPNO T02220111 10256 20222 $=
202005292256 METAR KPWT 292256Z AUTO 06007KT 10SM CLR 23/13 A2990 RMK AO2 SLP126 T02330133=
202005292156 METAR KPWT 292156Z AUTO 06006KT 10SM CLR 25/14 A2990 RMK AO2 SLP126 T02500139=
202005292056 METAR KPWT 292056Z AUTO 06006KT 10SM CLR 24/12 A2991 RMK AO2 SLP129 T02440117 57012=
202005291956 METAR KPWT 291956Z AUTO VRB05KT 10SM CLR 24/11 A2992 RMK AO2 SLP133 T02390111=
202005291856 METAR KPWT 291856Z AUTO 00000KT 10SM CLR 23/09 A2994 RMK AO2 SLP138 T02280089=
202005291756 METAR KPWT 291756Z AUTO 00000KT 10SM CLR 23/09 A2995 RMK AO2 SLP142 T02280094 10228 20089 58012=
202005291656 METAR KPWT 291656Z AUTO 00000KT 10SM CLR 20/09 A2996 RMK AO2 SLP148 T02000094=
202005291556 METAR KPWT 291556Z AUTO 00000KT 10SM CLR 18/09 A2998 RMK AO2 SLP153 T01780094=
202005291456 METAR KPWT 291456Z AUTO 03004KT 10SM CLR 17/10 A2998 RMK AO2 SLP154 T01670100 50007=
202005291356 METAR KPWT 291356Z AUTO 00000KT 10SM CLR 13/11 A2999 RMK AO2 SLP156 T01330106=
202005291256 METAR KPWT 291256Z AUTO 00000KT 10SM CLR 09/08 A2997 RMK AO2 SLP152 T00940078=
202005291156 METAR KPWT 291156Z AUTO 00000KT 10SM CLR 10/08 A2996 RMK AO2 SLP147 6//// 7//// T01000078 10172 20100 51004=
202005291056 METAR KPWT 291056Z AUTO 00000KT 10SM CLR 11/09 A2995 RMK AO2 SLP145 T01060089=
202005290956 METAR KPWT 290956Z AUTO 00000KT 10SM CLR 13/09 A2995 RMK AO2 SLP144 T01330094=
202005290856 METAR KPWT 290856Z AUTO 00000KT 10SM CLR 14/10 A2995 RMK AO2 SLP141 T01390100 56004=
202005290756 METAR KPWT 290756Z AUTO 00000KT 10SM CLR 15/10 A2995 RMK AO2 SLP143 T01500100 402670111=
202005290656 METAR KPWT 290656Z AUTO 00000KT 10SM CLR 16/08 A2994 RMK AO2 SLP140 T01610083=
202005290556 METAR KPWT 290556Z AUTO 24003KT 10SM FEW120 16/10 A2996 RMK AO2 SLP146 6//// T01610100 10267 20161 53004=
202005290456 METAR KPWT 290456Z AUTO 00000KT 10SM CLR 17/09 A2994 RMK AO2 SLP140 T01720089=
202005290356 METAR KPWT 290356Z AUTO 00000KT 10SM CLR 19/07 A2994 RMK AO2 SLP140 T01890072=
202005290256 METAR KPWT 290256Z AUTO 07005KT 10SM CLR 22/07 A2995 RMK AO2 SLP141 6//// T02220067 55006=
202005290156 METAR KPWT 290156Z AUTO 04008KT 10SM CLR 23/08 A2994 RMK AO2 SLP142 T02330078=
202005290056 METAR KPWT 290056Z AUTO 04007KT 10SM CLR 26/10 A2995 RMK AO2 SLP145 T02560100=
202005282356 METAR KPWT 282356Z AUTO 04009KT 10SM CLR 27/09 A2997 RMK AO2 SLP148 T02670094 10267 20222 56014=
202005282256 METAR KPWT 282256Z AUTO 04008KT 10SM CLR 27/11 A2998 RMK AO2 SLP153 T02670106=
202005282156 METAR KPWT 282156Z AUTO 05009KT 10SM CLR 26/11 A2999 RMK AO2 SLP158 T02610111=
202005282056 METAR KPWT 282056Z AUTO 03009KT 10SM CLR 26/10 A3001 RMK AO2 SLP162 T02560100 58011=
202005281956 METAR KPWT 281956Z AUTO 05007KT 10SM CLR 24/11 A3002 RMK AO2 SLP167 T02390106=
202005281856 METAR KPWT 281856Z AUTO 06008KT 10SM CLR 23/09 A3004 RMK AO2 SLP171 T02330094=
202005281756 METAR KPWT 281756Z AUTO 04007KT 10SM CLR 22/08 A3004 RMK AO2 SLP174 T02220083 10222 20111 58005=
202005281656 METAR KPWT 281656Z AUTO 05007KT 10SM CLR 21/08 A3005 RMK AO2 SLP178 T02060078=
202005281556 METAR KPWT 281556Z AUTO 05010KT 10SM CLR 18/07 A3005 RMK AO2 SLP179 T01780067=
202005281456 METAR KPWT 281456Z AUTO 05006KT 10SM CLR 18/06 A3006 RMK AO2 SLP179 T01780056 51005=
202005281356 METAR KPWT 281356Z AUTO 22004KT 10SM CLR 13/08 A3006 RMK AO2 SLP180 T01330083=
202005281256 METAR KPWT 281256Z AUTO 00000KT 10SM CLR 13/04 A3005 RMK AO2 SLP177 T01330039=
202005281156 METAR KPWT 281156Z AUTO 06005KT 10SM CLR 13/04 A3004 RMK AO2 SLP174 7//// T01280039 10167 20117 56003=
202005281056 METAR KPWT 281056Z AUTO 36003KT 10SM CLR 16/01 A3004 RMK AO2 SLP176 T01610011=
202005280956 METAR KPWT 280956Z AUTO 05007KT 10SM CLR 16/01 A3004 RMK AO2 SLP175 T01610006=
202005280856 METAR KPWT 280856Z AUTO 05008KT 10SM CLR 16/00 A3005 RMK AO2 SLP177 T01610000 56011=
202005280756 METAR KPWT 280756Z AUTO 06008KT 10SM CLR 16/M01 A3006 RMK AO2 SLP180 T01611006 402390056=
202005280656 METAR KPWT 280656Z AUTO 05009KT 10SM CLR 16/02 A3007 RMK AO2 SLP184 T01610017=
202005280556 METAR KPWT 280556Z AUTO 05009KT 10SM CLR 16/01 A3008 RMK AO2 SLP189 T01610006 10239 20161=
202005280456 METAR KPWT 280456Z AUTO 06010KT 10SM CLR 17/02 A3009 RMK AO2 SLP192 T01670017=
202005280356 METAR KPWT 280356Z AUTO 10SM CLR 17/04 RMK AO2 SLPNO T01670039 $=
202005280256 METAR KPWT 280256Z AUTO 03006KT 10SM CLR 19/05 A3009 RMK AO2 SLP195 T01940050 55007=
202005280156 METAR KPWT 280156Z AUTO 05010KT 10SM CLR 22/04 A3009 RMK AO2 SLP192 T02220044=
202005280056 METAR KPWT 280056Z AUTO 04008KT 10SM CLR 23/03 A3010 RMK AO2 SLP196 T02330033=
202005272356 METAR KPWT 272356Z AUTO 04010KT 10SM CLR 23/02 A3012 RMK AO2 SLP200 T02330017 10233 20178 58016=
202005272256 METAR KPWT 272256Z AUTO 03008G14KT 10SM CLR 23/03 A3013 RMK AO2 SLP206 T02280033=
202005272156 METAR KPWT 272156Z AUTO 03011KT 10SM CLR 22/04 A3015 RMK AO2 SLP213 T02170044=
202005272056 METAR KPWT 272056Z AUTO 02009KT 10SM CLR 22/04 A3016 RMK AO2 SLP216 T02170044 58004=
202005271956 METAR KPWT 271956Z AUTO 05007G15KT 10SM CLR 21/06 A3017 RMK AO2 SLP219 T02060056=
202005271856 METAR KPWT 271856Z AUTO 02012G17KT 10SM CLR 20/06 A3017 RMK AO2 SLP220 T02000061=
202005271756 METAR KPWT 271756Z AUTO 05007KT 10SM CLR 18/09 A3018 RMK AO2 SLP221 6//// T01780089 10183 20089 58003=
202005271656 METAR KPWT 271656Z AUTO 05012KT 10SM CLR 17/09 A3018 RMK AO2 SLP221 T01670089=
202005271556 METAR KPWT 271556Z AUTO 05010KT 10SM CLR 14/08 A3019 RMK AO2 SLP225 T01440083=
202005271456 METAR KPWT 271456Z AUTO 05009KT 10SM CLR 13/08 A3018 RMK AO2 SLP224 T01280078 51006=
202005271356 METAR KPWT 271356Z AUTO 04007KT 10SM CLR 11/07 A3018 RMK AO2 SLP223 T01110072=
202005271256 METAR KPWT 271256Z AUTO 06006KT 10SM CLR 09/08 A3018 RMK AO2 SLP222 T00940078=
202005271156 METAR KPWT 271156Z AUTO 07007KT 10SM CLR 09/08 A3016 RMK AO2 SLP219 7//// T00940083 10100 20056 58002=
202005271056 METAR KPWT 271056Z AUTO 06006KT 10SM CLR 10/09 A3017 RMK AO2 SLP220 T01000089=
202005270956 METAR KPWT 270956Z AUTO 00000KT 10SM CLR 06/06 A3017 RMK AO2 SLP221 T00610056=
202005270856 METAR KPWT 270856Z AUTO 00000KT 10SM CLR 07/07 A3017 RMK AO2 SLP221 T00720067 58003=
202005270756 METAR KPWT 270756Z AUTO 00000KT 10SM CLR 07/06 A3017 RMK AO2 SLP222 T00720061 401780072=
202005270656 METAR KPWT 270656Z AUTO 00000KT 10SM CLR 08/07 A3018 RMK AO2 SLP224 T00830072=
202005270556 METAR KPWT 270556Z AUTO 00000KT 10SM CLR 09/09 A3018 RMK AO2 SLP224 T00940089 10178 20089 53007=
202005270456 METAR KPWT 270456Z AUTO 00000KT 10SM CLR 11/09 A3017 RMK AO2 SLP222 T01060094=
202005270356 METAR KPWT 270356Z AUTO 00000KT 10SM CLR 13/11 A3016 RMK AO2 SLP217 T01280111=
202005270256 METAR KPWT 270256Z AUTO 00000KT 10SM CLR 16/12 A3016 RMK AO2 SLP216 T01610117 56005=
202005270156 METAR KPWT 270156Z AUTO 01004KT 10SM BKN060 17/11 A3016 RMK AO2 SLP217 T01670106=
202005270056 METAR KPWT 270056Z AUTO 32004KT 10SM FEW032 BKN060 18/11 A3016 RMK AO2 SLP217 T01780111=
202005262356 METAR KPWT 262356Z AUTO 24004KT 10SM FEW024 BKN042 17/12 A3017 RMK AO2 SLP220 6//// T01720117 10172 20122 58003=
202005262329 SPECI KPWT 262329Z AUTO 32003KT 10SM SCT022 OVC040 17/12 A3018 RMK AO2=
202005262311 SPECI KPWT 262311Z AUTO 32005KT 10SM BKN022 BKN031 OVC040 17/12 A3018 RMK AO2=
202005262256 METAR KPWT 262256Z AUTO VRB04KT 10SM SCT022 BKN030 OVC040 17/11 A3018 RMK AO2 SLP222 T01670111=
202005262156 METAR KPWT 262156Z AUTO 00000KT 10SM FEW024 OVC036 16/10 A3018 RMK AO2 SLP224 T01560100=
202005262056 METAR KPWT 262056Z AUTO 01003KT 10SM SCT020 OVC036 15/11 A3018 RMK AO2 SLP224 T01500111 55001=
202005261956 METAR KPWT 261956Z AUTO 05006KT 10SM BKN019 OVC025 14/11 A3018 RMK AO2 SLP223 T01390111=
202005261934 SPECI KPWT 261934Z AUTO 05004KT 10SM SCT015 BKN022 OVC028 14/11 A3018 RMK AO2=
202005261926 SPECI KPWT 261926Z AUTO 05005KT 10SM BKN013 OVC019 13/11 A3018 RMK AO2=
202005261908 SPECI KPWT 261908Z AUTO 06006KT 10SM SCT013 BKN019 OVC025 14/11 A3018 RMK AO2=
202005261856 METAR KPWT 261856Z AUTO 04005KT 10SM BKN011 OVC017 13/11 A3018 RMK AO2 SLP224 T01330111=
202005261843 SPECI KPWT 261843Z AUTO 05006KT 10SM SCT011 BKN016 OVC021 13/11 A3019 RMK AO2=
202005261756 METAR KPWT 261756Z AUTO VRB04KT 10SM OVC007 13/11 A3018 RMK AO2 CIG 005V012 SLP225 60001 T01280111 10128 20100 53006=
202005261722 SPECI KPWT 261722Z AUTO 06004KT 10SM OVC007 12/11 A3018 RMK AO2 CIG 004V011=
202005261656 METAR KPWT 261656Z AUTO 02005KT 10SM OVC005 11/11 A3018 RMK AO2 SLP223 T01110106=
202005261556 METAR KPWT 261556Z AUTO 07004KT 5SM BR OVC005 11/10 A3017 RMK AO2 CIG 003V008 SLP222 T01060100=
202005261456 METAR KPWT 261456Z AUTO 07004KT 10SM OVC005 11/10 A3017 RMK AO2 CIG 003V007 SLP219 60001 T01060100 51014=
202005261356 METAR KPWT 261356Z AUTO 06005KT 6SM BR OVC003 10/10 A3015 RMK AO2 SLP214 P0001 T01000100=
202005261324 SPECI KPWT 261324Z AUTO 07005KT 3SM BR OVC003 10/09 A3014 RMK AO2 P0001=
202005261316 SPECI KPWT 261316Z AUTO 07006KT 2 1/2SM BR OVC003 10/09 A3014 RMK AO2 P0001=
202005261256 METAR KPWT 261256Z AUTO 07006KT 5SM BR OVC003 10/09 A3014 RMK AO2 SLP210 T01000094=
202005261204 SPECI KPWT 261204Z AUTO 07005KT 6SM BR OVC003 10/10 A3013 RMK AO2=
202005261156 METAR KPWT 261156Z AUTO 07006KT 8SM OVC005 10/10 A3012 RMK AO2 SLP205 6//// 7//// T01000100 10117 20100 53002=
202005261104 SPECI KPWT 261104Z AUTO 06006KT 6SM BR OVC005 11/10 RMK AO2 CIG 003V007 $=
202005261056 METAR KPWT 261056Z AUTO 06007KT 6SM BR BKN003 OVC008 11/10 A3012 RMK AO2 RAB24E46 SLP201 P0002 T01060100=
202005260956 METAR KPWT 260956Z AUTO 05006KT 6SM BR OVC003 11/11 A3011 RMK AO2 SLP200 T01110106=
202005260918 SPECI KPWT 260918Z AUTO 06004KT 5SM BR OVC003 11/11 A3011 RMK AO2=
202005260856 METAR KPWT 260856Z AUTO 07003KT 5SM BR OVC005 11/11 A3012 RMK AO2 RAE02B19E54 CIG 003V007 SLP201 P0001 6//// T01110106 50004=
202005260832 SPECI KPWT 260832Z AUTO 06005KT 4SM -RA BR OVC005 11/11 A3012 RMK AO2 RAE02B19 CIG 003V007 P0000=
202005260805 SPECI KPWT 260805Z AUTO 06004KT 7SM OVC007 11/11 A3012 RMK AO2 RAE02 CIG 002V008 P0000=
202005260756 METAR KPWT 260756Z AUTO 06005KT 5SM -RA BR BKN003 OVC007 11/11 A3012 RMK AO2 RAB50 CIG 002V006 SLP202 P0000 T01110106 401780111=
202005260713 SPECI KPWT 260713Z AUTO 06005KT 5SM BR BKN003 OVC006 12/11 A3011 RMK AO2=
202005260656 METAR KPWT 260656Z AUTO 06007KT 10SM OVC006 12/11 A3011 RMK AO2 CIG 003V007 SLP200 T01170111=
202005260611 SPECI KPWT 260611Z AUTO 06004KT 10SM BKN004 OVC008 12/11 A3011 RMK AO2=
202005260556 METAR KPWT 260556Z AUTO 08005KT 10SM OVC008 12/11 A3010 RMK AO2 CIG 005V010 SLP198 T01170111 10172 20117 53007=
202005260544 SPECI KPWT 260544Z AUTO 06006KT 10SM SCT004 OVC010 12/11 A3010 RMK AO2=
202005260505 SPECI KPWT 260505Z AUTO 05005KT 10SM BKN004 OVC011 12/11 A3010 RMK AO2=
202005260456 METAR KPWT 260456Z AUTO 05006KT 10SM SCT004 OVC011 12/11 A3009 RMK AO2 SLP195 T01220111=
202005260423 SPECI KPWT 260423Z AUTO 04008KT 10SM SCT008 OVC011 12/11 A3009 RMK AO2=
202005260404 SPECI KPWT 260404Z AUTO 05006KT 10SM BKN009 OVC014 12/11 A3009 RMK AO2 CIG 007V012=
202005260356 METAR KPWT 260356Z AUTO 06006KT 10SM OVC014 12/11 A3009 RMK AO2 SLP192 T01220111=
202005260343 SPECI KPWT 260343Z AUTO 04008KT 10SM OVC014 12/11 A3009 RMK AO2=
202005260256 METAR KPWT 260256Z AUTO 06005KT 10SM BKN020 OVC027 14/12 A3008 RMK AO2 SLP190 T01440122 53006=
202005260156 METAR KPWT 260156Z AUTO 23011KT 10SM BKN020 OVC033 17/13 A3007 RMK AO2 SLP186 T01670128=
202005260130 SPECI KPWT 260130Z AUTO 23013KT 10SM BKN020 OVC033 17/13 A3007 RMK AO2=
202005260111 SPECI KPWT 260111Z AUTO 23011G19KT 10SM SCT020 OVC035 17/13 A3007 RMK AO2=
202005260056 METAR KPWT 260056Z AUTO 21012KT 10SM BKN020 BKN024 OVC055 17/13 A3007 RMK AO2 SLP186 T01670128=
202005252356 METAR KPWT 252356Z AUTO 18007G17KT 10SM BKN020 BKN029 OVC036 17/13 A3006 RMK AO2 SLP183 60000 T01670133 10178 20139 57003=
202005252256 METAR KPWT 252256Z AUTO 20012KT 10SM OVC019 17/13 A3007 RMK AO2 SLP185 T01720133=
202005252156 METAR KPWT 252156Z AUTO 22009G15KT 10SM BKN019 BKN024 17/13 A3007 RMK AO2 RAE54 SLP184 P0000 T01670128=
202005252104 SPECI KPWT 252104Z AUTO 22010KT 10SM -RA OVC018 17/13 A3007 RMK AO2 P0000=
202005252056 METAR KPWT 252056Z AUTO 21008KT 10SM -RA OVC014 16/13 A3007 RMK AO2 RAB50 SLP186 P0000 60000 T01610133 51001=
202005251956 METAR KPWT 251956Z AUTO 20009KT 10SM OVC012 15/13 A3007 RMK AO2 SLP185 T01500128=
202005251856 METAR KPWT 251856Z AUTO 20010KT 10SM OVC010 15/13 A3008 RMK AO2 CIG 007V013 SLP187 T01500128=
202005251824 SPECI KPWT 251824Z AUTO 20007G14KT 10SM OVC010 14/13 A3007 RMK AO2 CIG 007V012=
202005251756 METAR KPWT 251756Z AUTO 19009KT 10SM OVC006 14/12 A3007 RMK AO2 SLP185 60004 T01390122 10139 20111 53002=
202005251656 METAR KPWT 251656Z AUTO 20009KT 10SM BKN006 13/12 A3007 RMK AO2 RAE1559 CIG 005V008 SLP184 P0000 T01330122=
202005251629 SPECI KPWT 251629Z AUTO 21009KT 10SM OVC006 13/12 A3007 RMK AO2 RAE1559 CIG 004V008 P0000=
202005251556 METAR KPWT 251556Z AUTO 20008KT 10SM -RA OVC004 12/12 A3006 RMK AO2 SLP183 P0001 T01220117=
202005251456 METAR KPWT 251456Z AUTO 20006KT 10SM -RA OVC004 12/12 A3006 RMK AO2 SLP183 P0002 60003 T01220117=
202005251410 SPECI KPWT 251410Z AUTO 20006KT 10SM -RA OVC004 12/11 A3007 RMK AO2 P0000=
202005251356 METAR KPWT 251356Z AUTO 20007KT 10SM -RA OVC006 12/11 A3006 RMK AO2 SLP184 P0001 T01170111=
202005251341 SPECI KPWT 251341Z AUTO 20006KT 10SM -RA BKN006 OVC034 12/11 A3006 RMK AO2 P0001=
202005251332 SPECI KPWT 251332Z AUTO 20005KT 10SM -RA SCT006 OVC034 12/11 A3007 RMK AO2 P0001=
202005251256 METAR KPWT 251256Z AUTO 20005KT 10SM -RA OVC038 11/11 RMK AO2 SLPNO P0000 T01110106 $=
202005251156 METAR KPWT 251156Z AUTO 19003KT 10SM -RA BKN042 12/10 A3007 RMK AO2 RAB01 SLP186 P0001 6//// 7//// T01170100 10156 20117 56009=
202005251056 METAR KPWT 251056Z AUTO 00000KT 10SM BKN044 13/09 A3007 RMK AO2 SLP187 T01280094=
202005250956 METAR KPWT 250956Z AUTO 00000KT 10SM OVC048 13/10 A3008 RMK AO2 SLP189 T01330100=
202005250856 METAR KPWT 250856Z AUTO 00000KT 10SM BKN048 OVC110 13/11 A3010 RMK AO2 SLP194 T01330106 57007=
202005250756 METAR KPWT 250756Z AUTO 00000KT 10SM BKN048 OVC110 13/11 A3010 RMK AO2 SLP197 T01330106 402110067=
202005250656 METAR KPWT 250656Z AUTO 00000KT 10SM FEW044 SCT060 14/11 A3011 RMK AO2 SLP200 T01440106=
202005250556 METAR KPWT 250556Z AUTO 00000KT 10SM FEW080 16/10 A3012 RMK AO2 SLP202 T01560100 10206 20150=
202005250456 METAR KPWT 250456Z AUTO 00000KT 10SM BKN070 16/09 A3012 RMK AO2 SLP203 T01560094=
202005250356 METAR KPWT 250356Z AUTO 00000KT 10SM BKN070 17/09 A3011 RMK AO2 SLP199 T01670089=
202005250256 METAR KPWT 250256Z AUTO 00000KT 10SM BKN085 18/09 RMK AO2 SLPNO T01780094 $=
202005250156 METAR KPWT 250156Z AUTO 05007KT 10SM FEW060 BKN080 19/09 A3012 RMK AO2 SLP202 T01890094=
202005250056 METAR KPWT 250056Z AUTO 28004KT 10SM OVC070 21/09 A3013 RMK AO2 SLP206 T02060094=
202005242356 METAR KPWT 242356Z AUTO 23006KT 10SM BKN075 20/09 A3014 RMK AO2 SLP210 6//// T02000094 10211 20144 56012=
202005242256 METAR KPWT 242256Z AUTO 21006KT 10SM FEW080 21/09 A3015 RMK AO2 SLP214 T02060094=
202005242156 METAR KPWT 242156Z AUTO VRB05KT 10SM CLR 19/08 A3017 RMK AO2 SLP218 T01940083=
202005242056 METAR KPWT 242056Z AUTO VRB06KT 10SM FEW055 19/08 A3018 RMK AO2 SLP222 6//// T01940078 58013=
202005241956 METAR KPWT 241956Z AUTO 21006KT 10SM CLR 18/08 A3019 RMK AO2 SLP227 T01780083=
202005241856 METAR KPWT 241856Z AUTO 25005KT 10SM FEW028 16/09 A3021 RMK AO2 SLP234 T01610094=
202005241842 SPECI KPWT 241842Z AUTO VRB04KT 10SM FEW027 SCT031 15/09 A3022 RMK AO2=
202005241833 SPECI KPWT 241833Z AUTO VRB03KT 10SM BKN027 15/08 A3022 RMK AO2=
202005241756 METAR KPWT 241756Z AUTO VRB04KT 10SM FEW022 15/09 A3022 RMK AO2 RAB14E37 SLP236 P0000 60000 T01500094 10150 20067 50003=
202005241656 METAR KPWT 241656Z AUTO 00000KT 10SM CLR 13/09 A3022 RMK AO2 SLP237 T01330094=
202005241556 METAR KPWT 241556Z AUTO 00000KT 10SM CLR 12/08 A3021 RMK AO2 SLP234 T01220083=
202005241456 METAR KPWT 241456Z AUTO 00000KT 10SM CLR 11/08 A3021 RMK AO2 SLP233 T01060078 51003=
202005241356 METAR KPWT 241356Z AUTO 00000KT 10SM CLR 09/08 A3021 RMK AO2 SLP233 T00890078=
202005241256 METAR KPWT 241256Z AUTO 00000KT 10SM CLR 07/06 A3020 RMK AO2 SLP233 T00720061=
202005241156 METAR KPWT 241156Z AUTO 00000KT 10SM CLR 08/07 A3020 RMK AO2 SLP231 7//// T00780067 10122 20078 51001=
202005241056 METAR KPWT 241056Z AUTO 05005KT 10SM SCT075 10/07 A3020 RMK AO2 SLP230 T01000072=
202005240956 METAR KPWT 240956Z AUTO 06005KT 10SM BKN100 10/07 A3020 RMK AO2 SLP230 T01000072=
202005240856 METAR KPWT 240856Z AUTO 05004KT 10SM SCT100 10/07 A3020 RMK AO2 SLP229 T01000072 58000=
202005240756 METAR KPWT 240756Z AUTO 00000KT 10SM SCT110 10/08 A3020 RMK AO2 SLP232 T01000078 401670083=
202005240656 METAR KPWT 240656Z AUTO 07004KT 10SM FEW120 11/08 A3020 RMK AO2 SLP232 T01110078=
202005240556 METAR KPWT 240556Z AUTO 06003KT 10SM CLR 12/08 A3020 RMK AO2 SLP229 6//// T01170083 10156 20100 53006=
202005240456 METAR KPWT 240456Z AUTO 13004KT 10SM SCT055 11/09 A3018 RMK AO2 SLP226 T01110089=
202005240356 METAR KPWT 240356Z AUTO 00000KT 10SM OVC055 13/09 A3018 RMK AO2 SLP225 T01330089=
202005240256 METAR KPWT 240256Z AUTO 00000KT 10SM OVC055 15/07 A3018 RMK AO2 SLP224 6//// T01500072 55006=
202005240156 METAR KPWT 240156Z AUTO 00000KT 10SM OVC050 15/07 A3018 RMK AO2 SLP224 T01500067=
202005240056 METAR KPWT 240056Z AUTO 21003KT 10SM BKN042 OVC050 16/07 A3019 RMK AO2 SLP228 T01560072=
202005232356 METAR KPWT 232356Z AUTO 21004KT 10SM OVC049 15/07 A3020 RMK AO2 SLP230 6//// T01500072 10167 20128 51002=
202005232256 METAR KPWT 232256Z AUTO 20004KT 10SM OVC049 15/06 A3020 RMK AO2 SLP229 T01500056=
202005232156 METAR KPWT 232156Z AUTO 10004KT 10SM OVC049 16/06 A3019 RMK AO2 SLP227 T01560061=
202005232056 METAR KPWT 232056Z AUTO VRB06KT 10SM BKN045 OVC055 16/06 A3019 RMK AO2 SLP227 T01560061 58005=
202005231956 METAR KPWT 231956Z AUTO 23005KT 10SM FEW049 15/07 A3020 RMK AO2 SLP229 T01500067=
202005231856 METAR KPWT 231856Z AUTO 28004KT 10SM SCT032 BKN043 BKN055 13/07 A3020 RMK AO2 SLP232 T01330072=
202005231834 SPECI KPWT 231834Z AUTO VRB05KT 10SM SCT029 SCT042 14/07 A3020 RMK AO2=
202005231756 METAR KPWT 231756Z AUTO 24003KT 10SM BKN021 OVC029 13/08 A3020 RMK AO2 SLP233 60002 T01330078 10133 20083 50000=
202005231656 METAR KPWT 231656Z AUTO VRB03KT 10SM OVC015 11/08 A3021 RMK AO2 SLP235 T01060078=
202005231556 METAR KPWT 231556Z AUTO 11004KT 10SM FEW007 BKN011 OVC041 09/08 A3021 RMK AO2 RAE31 SLP235 P0000 T00940078=
202005231532 SPECI KPWT 231532Z AUTO 09003KT 10SM OVC009 09/08 A3021 RMK AO2 RAE31 CIG 005V014 P0000=
202005231507 SPECI KPWT 231507Z AUTO 00000KT 7SM -RA SCT007 BKN012 08/08 A3021 RMK AO2 P0000=
202005231456 METAR KPWT 231456Z AUTO 00000KT 4SM -RA BR BKN007 BKN012 08/08 A3020 RMK AO2 RAB28 CIG 004V009 SLP234 P0002 60002 T00830078 53009=
202005231438 SPECI KPWT 231438Z AUTO 07003KT 5SM -RA BR BKN007 OVC012 08/08 A3020 RMK AO2 RAB28 P0000=
202005231427 SPECI KPWT 231427Z AUTO 00000KT 5SM BR BKN011 OVC016 08/08 A3020 RMK AO2=
202005231356 METAR KPWT 231356Z AUTO 12003KT 7SM SCT005 OVC016 08/08 A3019 RMK AO2 SLP229 T00830078=
202005231256 METAR KPWT 231256Z AUTO 00000KT 10SM OVC007 08/07 A3019 RMK AO2 SLP227 T00830072=
202005231156 METAR KPWT 231156Z AUTO 15003KT 10SM OVC007 08/07 A3018 RMK AO2 SLP224 60000 7//// T00830072 10100 20083 53002=
202005231056 METAR KPWT 231056Z AUTO 00000KT 10SM OVC009 09/07 A3017 RMK AO2 SLP222 T00890072=
202005231024 SPECI KPWT 231024Z AUTO 00000KT 10SM BKN009 OVC013 09/07 A3017 RMK AO2=
202005231013 SPECI KPWT 231013Z AUTO 00000KT 10SM SCT009 BKN013 OVC029 09/07 A3017 RMK AO2=
202005230956 METAR KPWT 230956Z AUTO 15003KT 10SM BKN017 OVC029 09/07 A3017 RMK AO2 SLP220 T00890072=
202005230918 SPECI KPWT 230918Z AUTO 00000KT 10SM SCT006 OVC023 09/08 A3018 RMK AO2=
202005230856 METAR KPWT 230856Z AUTO 15003KT 10SM FEW010 OVC023 09/08 A3017 RMK AO2 RAE0759 SLP221 P0000 60000 T00940083 58000=
202005230756 METAR KPWT 230756Z AUTO 14003KT 10SM -RA OVC010 09/08 A3018 RMK AO2 RAB30 CIG 008V011 SLP222 P0000 T00940078 401610033=
202005230741 SPECI KPWT 230741Z AUTO 16003KT 10SM -RA OVC008 09/08 A3018 RMK AO2 RAB30 CIG 007V011 P0000=
202005230720 SPECI KPWT 230720Z AUTO 00000KT 10SM OVC012 09/08 A3018 RMK AO2=
202005230656 METAR KPWT 230656Z AUTO 09003KT 10SM OVC015 09/08 A3018 RMK AO2 RAB03E28 SLP223 P0000 T00940083=
202005230556 METAR KPWT 230556Z AUTO 10004KT 10SM OVC017 10/08 A3017 RMK AO2 SLP223 60000 T01000083 10144 20100 51017=
202005230456 METAR KPWT 230456Z AUTO 07005KT 10SM OVC023 11/08 A3016 RMK AO2 SLP219 T01060083=
202005230403 SPECI KPWT 230403Z AUTO 08004KT 10SM BKN023 OVC030 11/08 A3014 RMK AO2=
202005230356 METAR KPWT 230356Z AUTO 08004KT 10SM SCT023 OVC030 11/08 A3014 RMK AO2 SLP212 T01060083=
202005230256 METAR KPWT 230256Z AUTO 07007KT 10SM OVC034 11/08 A3012 RMK AO2 RAB0159E32 SLP205 P0000 60000 T01110083 51012=
202005230156 METAR KPWT 230156Z AUTO 04009KT 10SM OVC032 12/08 A3011 RMK AO2 SLP202 T01220078=
202005230056 METAR KPWT 230056Z AUTO 23008KT 10SM SCT032 SCT047 BKN060 14/08 A3010 RMK AO2 SLP198 T01390078=
202005222356 METAR KPWT 222356Z AUTO 23012G18KT 10SM OVC049 14/07 A3009 RMK AO2 RAB38E51 SLP194 P0000 60000 T01440072 10161 20133 53010=
202005222256 METAR KPWT 222256Z AUTO 22012G17KT 10SM OVC048 15/08 A3007 RMK AO2 SLP188 T01500078=
202005222156 METAR KPWT 222156Z AUTO 20012G18KT 10SM FEW039 OVC050 15/07 A3007 RMK AO2 SLP186 T01500072=
202005222056 METAR KPWT 222056Z AUTO 19005KT 10SM BKN041 OVC048 14/07 A3006 RMK AO2 SLP183 T01440072 53003=
202005221956 METAR KPWT 221956Z AUTO 20005KT 10SM FEW037 OVC050 15/07 A3005 RMK AO2 SLP181 T01500067=
202005221856 METAR KPWT 221856Z AUTO 22004KT 10SM OVC033 14/06 A3005 RMK AO2 SLP182 T01390061=
202005221756 METAR KPWT 221756Z AUTO VRB04KT 10SM FEW029 SCT036 13/07 A3005 RMK AO2 SLP180 6//// T01330072 10139 20056 50005=
202005221723 SPECI KPWT 221723Z AUTO 00000KT 10SM FEW019 12/08 A3005 RMK AO2=
202005221656 METAR KPWT 221656Z AUTO 34005KT 10SM OVC017 12/08 A3006 RMK AO2 SLP182 T01170083=
202005221644 SPECI KPWT 221644Z AUTO 23005KT 10SM BKN015 11/08 A3005 RMK AO2=
202005221618 SPECI KPWT 221618Z AUTO 24004KT 10SM BKN011 10/07 A3005 RMK AO2=
202005221609 SPECI KPWT 221609Z AUTO VRB03KT 10SM BKN009 09/07 A3005 RMK AO2 CIG 006V013=
202005221556 METAR KPWT 221556Z AUTO VRB03KT 10SM BKN005 OVC011 09/07 A3005 RMK AO2 CIG 004V009 SLP179 T00890072=
202005221536 SPECI KPWT 221536Z AUTO 19005KT 10SM OVC005 08/07 A3005 RMK AO2=
202005221456 METAR KPWT 221456Z AUTO 16004KT 10SM OVC003 07/07 A3003 RMK AO2 SLP175 T00670067 51010=
202005221427 SPECI KPWT 221427Z AUTO 19004KT 9SM OVC003 06/06 A3003 RMK AO2=
202005221417 SPECI KPWT 221417Z AUTO 16003KT 2SM BR OVC003 06/06 A3003 RMK AO2 VIS 1 1/4V5=
202005221409 SPECI KPWT 221409Z AUTO 00000KT 1SM BR OVC003 06/06 A3003 RMK AO2 VIS 1/2V5=
202005221356 METAR KPWT 221356Z AUTO 00000KT 1/2SM FG OVC003 06/06 A3003 RMK AO2 SLP172 T00610056=
202005221349 SPECI KPWT 221349Z AUTO 00000KT 1/2SM FG OVC003 06/06 A3002 RMK AO2=
202005221256 METAR KPWT 221256Z AUTO 00000KT 1/4SM FG OVC003 06/06 A3002 RMK AO2 SLP169 T00560056=
202005221242 SPECI KPWT 221242Z AUTO 21003KT 1/4SM FG OVC003 06/06 A3001 RMK AO2=
202005221219 SPECI KPWT 221219Z AUTO 00000KT 1/2SM FG OVC003 06/06 A3001 RMK AO2=
202005221210 SPECI KPWT 221210Z AUTO 00000KT 1SM BR OVC003 06/06 A3000 RMK AO2=
202005221203 SPECI KPWT 221203Z AUTO 21003KT 3/4SM BR OVC003 06/06 A3000 RMK AO2=
202005221156 METAR KPWT 221156Z AUTO 00000KT 1/2SM FG OVC003 06/06 A3000 RMK AO2 SLP165 7//// T00560056 10061 20033 53004=
202005221118 SPECI KPWT 221118Z AUTO 00000KT 1/2SM FG OVC003 06/06 A3000 RMK AO2=
202005221105 SPECI KPWT 221105Z AUTO 00000KT 3/4SM BR OVC003 06/06 A3000 RMK AO2=
202005221056 METAR KPWT 221056Z AUTO 00000KT 1 1/4SM BR OVC003 06/06 A2999 RMK AO2 SLP162 T00560056=
202005221050 SPECI KPWT 221050Z AUTO 00000KT 1 3/4SM BR OVC003 06/06 A3000 RMK AO2=
202005221020 SPECI KPWT 221020Z AUTO 00000KT 10SM BKN003 BKN070 04/04 A3000 RMK AO2=
202005221005 SPECI KPWT 221005Z AUTO 00000KT 10SM FEW003 BKN070 04/04 A2999 RMK AO2=
202005220956 METAR KPWT 220956Z AUTO 00000KT 10SM BKN070 04/04 A2999 RMK AO2 SLP163 T00390039=
202005220946 SPECI KPWT 220946Z AUTO 00000KT 3SM BR FEW003 SCT070 04/03 A3000 RMK AO2=
202005220935 SPECI KPWT 220935Z AUTO 00000KT 1 3/4SM BR FEW003 03/03 A2999 RMK AO2=
202005220924 SPECI KPWT 220924Z AUTO 00000KT 10SM FEW003 04/03 A2999 RMK AO2=
202005220856 METAR KPWT 220856Z AUTO 00000KT 10SM CLR 04/04 A2999 RMK AO2 SLP161 T00440039 55000=
202005220756 METAR KPWT 220756Z AUTO 00000KT 10SM CLR 06/05 A2999 RMK AO2 SLP159 T00560050 401390039=
202005220717 SPECI KPWT 220717Z AUTO 00000KT 7SM SCT009 06/06 A2998 RMK AO2=
202005220656 METAR KPWT 220656Z AUTO 00000KT 4SM BR OVC009 06/06 A2999 RMK AO2 SLP160 T00610056=
202005220638 SPECI KPWT 220638Z AUTO 00000KT 10SM FEW001 BKN009 06/06 A2999 RMK AO2=
202005220625 SPECI KPWT 220625Z AUTO 18003KT 3SM BR SCT001 05/05 A2999 RMK AO2=
202005220622 SPECI KPWT 220622Z AUTO 00000KT 1 1/4SM BR SCT001 04/04 A2999 RMK AO2 VIS 1/4V5=
202005220615 SPECI KPWT 220615Z AUTO 22004KT 1 1/2SM BR CLR 05/04 A2999 RMK AO2=
202005220600 SPECI KPWT 220600Z AUTO 14003KT 3SM BR CLR 06/05 A2999 RMK AO2=
202005220556 METAR KPWT 220556Z AUTO 00000KT 1 1/2SM BR CLR 04/04 A2999 RMK AO2 SLP162 60001 T00440044 10122 20044 50004=
202005220551 SPECI KPWT 220551Z AUTO 00000KT 1 3/4SM BR CLR 05/04 A2999 RMK AO2 VIS 3/4V5=
202005220518 SPECI KPWT 220518Z AUTO 00000KT 4SM BR CLR 07/06 A2999 RMK AO2=
202005220508 SPECI KPWT 220508Z AUTO 00000KT 1 1/2SM BR CLR 06/06 A2999 RMK AO2=
202005220456 METAR KPWT 220456Z AUTO 00000KT 3SM BR CLR 07/06 A2999 RMK AO2 SLP161 T00670061=
202005220356 METAR KPWT 220356Z AUTO 00000KT 10SM BKN047 09/08 A2999 RMK AO2 RAB16E44 SLP159 P0001 T00940083=
202005220256 METAR KPWT 220256Z AUTO 05003KT 10SM OVC042 10/08 A2998 RMK AO2 SLP157 T01000078 52004=
202005220156 METAR KPWT 220156Z AUTO 04006KT 10SM BKN040 OVC055 11/08 A2998 RMK AO2 SLP156 T01110078=
202005220056 METAR KPWT 220056Z AUTO 04006KT 10SM BKN047 BKN055 11/08 A2997 RMK AO2 TSB04E19RAE2357 SLP155 T01110078=
202005220025 SPECI KPWT 220025Z AUTO 04006KT 10SM SCT045 BKN055 12/08 A2997 RMK AO2 TSB04E19RAE2357=
202005220010 SPECI KPWT 220010Z AUTO 04007KT 10SM VCTS SCT045 12/08 A2997 RMK AO2 TSB04RAE2357=
202005212356 METAR KPWT 212356Z AUTO 06008KT 10SM -RA FEW021 SCT043 SCT050 12/09 A2997 RMK AO2 RAB18 SLP154 P0000 60012 T01170089 10139 20100 57001=
202005212256 METAR KPWT 212256Z AUTO 04012KT 10SM SCT015 13/09 A2997 RMK AO2 RAB18E42 SLP154 P0001 T01280094=
202005212156 METAR KPWT 212156Z AUTO 05008KT 10SM FEW025 BKN042 OVC055 11/09 A2997 RMK AO2 RAB15E53 SLP154 P0007 T01060089=
202005212056 METAR KPWT 212056Z AUTO 04009KT 10SM FEW038 BKN060 12/09 A2997 RMK AO2 RAE43 SLP155 P0003 60004 T01170094 56010=
202005211956 METAR KPWT 211956Z AUTO 03009KT 10SM -RA OVC032 11/08 A2998 RMK AO2 RAB39 SLP157 P0001 T01110078=
202005211915 SPECI KPWT 211915Z AUTO VRB03KT 10SM FEW026 BKN035 OVC055 14/06 A2998 RMK AO2=
202005211856 METAR KPWT 211856Z AUTO VRB04KT 10SM FEW023 BKN028 OVC035 12/07 A2999 RMK AO2 SLP159 T01220067=
202005211803 SPECI KPWT 211803Z AUTO 00000KT 10SM FEW020 SCT028 BKN044 11/07 A3000 RMK AO2=
202005211756 METAR KPWT 211756Z AUTO VRB04KT 10SM SCT020 BKN028 BKN044 11/07 A3000 RMK AO2 SLP165 6//// T01060067 10111 20078 56008=
202005211753 SPECI KPWT 211753Z AUTO 17005KT 10SM SCT022 BKN028 OVC044 11/07 A3000 RMK AO2=
202005211725 SPECI KPWT 211725Z AUTO 00000KT 10SM FEW027 BKN035 OVC044 10/06 A3001 RMK AO2=
202005211656 METAR KPWT 211656Z AUTO 08004KT 10SM SCT017 OVC023 10/06 A3002 RMK AO2 SLP170 T01000056=
202005211609 SPECI KPWT 211609Z AUTO 01003KT 10SM SCT012 BKN017 OVC032 10/07 A3003 RMK AO2=
202005211556 METAR KPWT 211556Z AUTO 36003KT 10SM BKN013 OVC030 09/07 A3003 RMK AO2 SLP173 T00940067=
202005211520 SPECI KPWT 211520Z AUTO 00000KT 10SM SCT007 BKN015 BKN020 09/08 A3002 RMK AO2=
202005211456 METAR KPWT 211456Z AUTO 03005KT 10SM OVC009 08/07 A3002 RMK AO2 CIG 006V011 SLP171 T00830072 53006=
202005211431 SPECI KPWT 211431Z AUTO 02005KT 10SM BKN009 OVC015 08/07 A3002 RMK AO2 CIG 005V012=
202005211420 SPECI KPWT 211420Z AUTO 00000KT 10SM SCT007 BKN012 OVC017 08/07 A3002 RMK AO2=
202005211356 METAR KPWT 211356Z AUTO 02005KT 10SM BKN005 BKN010 OVC017 08/07 A3001 RMK AO2 SLP168 T00830072=
202005211349 SPECI KPWT 211349Z AUTO 02003KT 10SM BKN005 OVC010 08/07 A3002 RMK AO2 CIG 004V009=
202005211308 SPECI KPWT 211308Z AUTO 00000KT 10SM SCT004 BKN014 OVC023 08/07 A3001 RMK AO2=
202005211256 METAR KPWT 211256Z AUTO 00000KT 10SM BKN004 BKN018 OVC023 08/08 A3001 RMK AO2 SLP167 T00780078=
202005211245 SPECI KPWT 211245Z AUTO 00000KT 10SM BKN004 BKN012 OVC020 08/08 A3001 RMK AO2 CIG 002V008=
202005211201 SPECI KPWT 211201Z AUTO 26003KT 10SM SCT004 SCT010 OVC017 08/08 A3001 RMK AO2=
202005211156 METAR KPWT 211156Z AUTO 24003KT 10SM BKN004 BKN010 OVC017 08/08 A3001 RMK AO2 SLP165 60004 70004 T00780078 10100 20078 56004=
202005211144 SPECI KPWT 211144Z AUTO 24003KT 10SM OVC004 08/08 A3000 RMK AO2 CIG 002V007=
202005211123 SPECI KPWT 211123Z AUTO 23003KT 10SM BKN006 OVC010 08/07 A3000 RMK AO2 CIG 002V008=
202005211106 SPECI KPWT 211106Z AUTO 22003KT 9SM FEW003 OVC010 08/07 A3001 RMK AO2=
202005211056 METAR KPWT 211056Z AUTO 20003KT 8SM OVC010 08/07 A3001 RMK AO2 SLP166 P0001 T00780072=
202005210956 METAR KPWT 210956Z AUTO 00000KT 10SM OVC014 08/07 A3001 RMK AO2 RAE53 SLP168 P0002 T00780072=
202005210947 SPECI KPWT 210947Z AUTO 00000KT 9SM -RA OVC014 08/07 A3001 RMK AO2 P0002=
202005210856 METAR KPWT 210856Z AUTO 21003KT 7SM -RA OVC016 08/07 A3002 RMK AO2 RAB31 SLP169 P0001 60001 T00830072 56002=
202005210756 METAR KPWT 210756Z AUTO VRB04KT 10SM BKN020 OVC024 09/07 A3002 RMK AO2 SLP169 T00940067 401500094=
202005210730 SPECI KPWT 210730Z AUTO 19006KT 10SM BKN026 OVC034 09/06 A3002 RMK AO2=
202005210656 METAR KPWT 210656Z AUTO 20007KT 10SM OVC036 10/06 A3002 RMK AO2 SLP169 T01000056=
202005210556 METAR KPWT 210556Z AUTO 20008KT 10SM CLR 10/06 A3002 RMK AO2 SLP172 T01000061 10150 20100 58001=
202005210456 METAR KPWT 210456Z AUTO 20008KT 10SM FEW036 11/07 A3003 RMK AO2 SLP175 T01060067=
202005210356 METAR KPWT 210356Z AUTO 21010KT 10SM BKN033 12/07 A3003 RMK AO2 SLP175 T01170067=
202005210256 METAR KPWT 210256Z AUTO 22017G21KT 10SM SCT035 13/07 A3003 RMK AO2 SLP173 T01280067 53003=
202005210156 METAR KPWT 210156Z AUTO 22017G21KT 10SM OVC032 14/08 A3002 RMK AO2 SLP170 T01440078=
202005210056 METAR KPWT 210056Z AUTO 22014G22KT 10SM OVC047 15/09 A3002 RMK AO2 SLP168 T01500094=
202005202356 METAR KPWT 202356Z AUTO 22016G24KT 10SM SCT028 OVC035 15/10 A3002 RMK AO2 SLP169 60000 T01500100 10150 20122 58011=
202005202319 SPECI KPWT 202319Z AUTO 22012G21KT 10SM OVC030 15/10 A3003 RMK AO2=
202005202256 METAR KPWT 202256Z AUTO 22010KT 10SM OVC025 15/10 A3003 RMK AO2 SLP173 T01500100=
202005202156 METAR KPWT 202156Z AUTO VRB04KT 10SM BKN029 OVC036 14/10 A3004 RMK AO2 SLP178 T01440100=
202005202148 SPECI KPWT 202148Z AUTO 15003KT 10SM FEW023 BKN030 OVC036 14/10 A3005 RMK AO2=
202005202056 METAR KPWT 202056Z AUTO 18003KT 10SM OVC021 13/10 A3005 RMK AO2 SLP182 60000 T01330100 58005=
202005202027 SPECI KPWT 202027Z AUTO 09004KT 10SM BKN026 OVC031 14/10 A3005 RMK AO2=
202005202003 SPECI KPWT 202003Z AUTO VRB05KT 10SM FEW016 SCT021 OVC030 13/11 A3006 RMK AO2=
202005201956 METAR KPWT 201956Z AUTO 13003KT 10SM BKN018 OVC030 13/11 A3006 RMK AO2 RAB32E49 SLP182 P0000 T01330106=
202005201856 METAR KPWT 201856Z AUTO 00000KT 10SM BKN016 BKN023 OVC032 13/09 A3007 RMK AO2 SLP186 T01330094=
202005201851 SPECI KPWT 201851Z AUTO 22003KT 10SM BKN016 BKN024 OVC032 13/09 A3007 RMK AO2=
202005201843 SPECI KPWT 201843Z AUTO 00000KT 10SM SCT016 SCT024 OVC032 13/09 A3007 RMK AO2=
202005201756 METAR KPWT 201756Z AUTO 00000KT 10SM OVC010 12/09 A3007 RMK AO2 SLP187 T01220094 10122 20094 58001=
202005201745 SPECI KPWT 201745Z AUTO VRB03KT 10SM BKN010 OVC013 12/09 A3007 RMK AO2 CIG 007V012=
202005201656 METAR KPWT 201656Z AUTO 00000KT 8SM OVC006 11/09 A3008 RMK AO2 SLP190 T01060094=
202005201624 SPECI KPWT 201624Z AUTO 24003KT 7SM BKN008 OVC011 11/09 A3008 RMK AO2 CIG 006V009=
202005201615 SPECI KPWT 201615Z AUTO 23003KT 8SM OVC010 11/09 A3008 RMK AO2 CIG 007V013=
202005201556 METAR KPWT 201556Z AUTO 23004KT 10SM BKN006 OVC011 11/09 A3008 RMK AO2 SLP190 T01060089=
202005201456 METAR KPWT 201456Z AUTO 00000KT 10SM OVC006 10/09 A3007 RMK AO2 SLP188 T01000089 53006=
202005201356 METAR KPWT 201356Z AUTO 19003KT 10SM OVC006 09/08 A3006 RMK AO2 SLP182 T00940083=
202005201306 SPECI KPWT 201306Z AUTO 19004KT 10SM OVC008 09/08 A3005 RMK AO2 CIG 004V010=
202005201256 METAR KPWT 201256Z AUTO 19003KT 10SM BKN005 OVC010 09/08 A3005 RMK AO2 CIG 004V008 SLP180 T00940083=
202005201238 SPECI KPWT 201238Z AUTO 18003KT 9SM BKN005 OVC010 09/08 A3005 RMK AO2 CIG 004V008=
202005201156 METAR KPWT 201156Z AUTO 17004KT 10SM OVC007 09/09 A3005 RMK AO2 SLP180 6//// 7//// T00940089 10106 20094 53001=
202005201056 METAR KPWT 201056Z AUTO 15005KT 10SM OVC009 10/09 A3004 RMK AO2 SLP176 T01000089=
202005200956 METAR KPWT 200956Z AUTO 19005KT 10SM OVC009 10/09 A3004 RMK AO2 SLP177 T01000089=
202005200856 METAR KPWT 200856Z AUTO 21007KT 10SM OVC009 10/09 A3005 RMK AO2 SLP179 T01000089 50002=
202005200756 METAR KPWT 200756Z AUTO 20006KT 10SM OVC007 11/09 A3006 RMK AO2 SLP181 T01060089 401830089=
202005200656 METAR KPWT 200656Z AUTO 20006KT 10SM OVC007 11/09 A3005 RMK AO2 SLP179 T01060089=
202005200556 METAR KPWT 200556Z AUTO 21005KT 10SM BKN009 10/09 A3004 RMK AO2 SLP178 T01000089 10167 20094 50001=
202005200551 SPECI KPWT 200551Z AUTO 22004KT 10SM BKN009 10/09 A3005 RMK AO2=
202005200536 SPECI KPWT 200536Z AUTO 22005KT 10SM FEW009 SCT050 10/09 A3005 RMK AO2=
202005200456 METAR KPWT 200456Z AUTO 22007KT 10SM OVC050 11/09 A3005 RMK AO2 SLP181 T01060094=
202005200356 METAR KPWT 200356Z AUTO 23011KT 10SM OVC050 12/09 A3004 RMK AO2 SLP176 T01220094=
202005200256 METAR KPWT 200256Z AUTO 22009KT 10SM CLR 13/10 A3004 RMK AO2 SLP178 T01280100 53010=
202005200156 METAR KPWT 200156Z AUTO 23011KT 10SM CLR 16/11 A3003 RMK AO2 SLP172 T01560111=
202005200056 METAR KPWT 200056Z AUTO 21009KT 10SM BKN034 OVC041 16/11 A3002 RMK AO2 SLP168 T01610106=
202005192356 METAR KPWT 192356Z AUTO 21006KT 10SM BKN033 BKN043 OVC050 17/11 A3001 RMK AO2 SLP166 6//// T01670106 10183 20128 55003=
202005192256 METAR KPWT 192256Z AUTO VRB04KT 10SM SCT034 OVC043 18/11 A3001 RMK AO2 SLP164 T01830106=
202005192225 SPECI KPWT 192225Z AUTO 00000KT 10SM OVC032 17/10 A3001 RMK AO2=
202005192209 SPECI KPWT 192209Z AUTO 20006KT 10SM BKN029 OVC037 17/11 A3002 RMK AO2=
202005192156 METAR KPWT 192156Z AUTO 20006KT 10SM SCT029 OVC037 17/11 A3002 RMK AO2 SLP169 T01670106=
202005192136 SPECI KPWT 192136Z AUTO VRB04KT 10SM SCT025 OVC035 17/11 A3002 RMK AO2=
202005192056 METAR KPWT 192056Z AUTO 21005KT 10SM OVC023 16/11 A3002 RMK AO2 SLP170 6//// T01560106 58004=
202005192003 SPECI KPWT 192003Z AUTO VRB05KT 10SM OVC029 14/11 RMK AO2 $=
202005191956 METAR KPWT 191956Z AUTO 19007KT 10SM BKN031 16/11 A3003 RMK AO2 SLP174 T01560111=
202005191932 SPECI KPWT 191932Z AUTO VRB05KT 10SM FEW019 SCT023 SCT038 14/11 A3004 RMK AO2=
202005191856 METAR KPWT 191856Z AUTO VRB06KT 10SM FEW014 BKN023 OVC027 14/10 A3004 RMK AO2 SLP176 T01390100=
202005191845 SPECI KPWT 191845Z AUTO 21007KT 10SM SCT014 OVC021 14/10 A3004 RMK AO2=
202005191831 SPECI KPWT 191831Z AUTO 27003KT 10SM BKN014 OVC021 13/09 A3004 RMK AO2=
202005191756 METAR KPWT 191756Z AUTO 21007KT 10SM OVC017 13/10 A3004 RMK AO2 SLP175 T01280100 10133 20106 51005=
202005191705 SPECI KPWT 191705Z AUTO 18007KT 10SM OVC016 13/10 A3003 RMK AO2=
202005191656 METAR KPWT 191656Z AUTO 20005KT 10SM OVC014 12/10 A3003 RMK AO2 SLP173 T01220100=
202005191614 SPECI KPWT 191614Z AUTO VRB03KT 10SM BKN010 OVC017 12/09 A3003 RMK AO2 CIG 007V012=
202005191556 METAR KPWT 191556Z AUTO 15003KT 10SM SCT008 OVC017 12/09 A3003 RMK AO2 SLP172 T01170094=
202005191456 METAR KPWT 191456Z AUTO VRB03KT 10SM BKN006 OVC013 11/10 A3002 RMK AO2 CIG 005V009 SLP169 T01060100 51015=
202005191356 METAR KPWT 191356Z AUTO 00000KT 10SM BKN006 BKN010 OVC013 11/10 A3000 RMK AO2 SLP163 T01060100=
202005191327 SPECI KPWT 191327Z AUTO 14003KT 10SM FEW006 OVC013 11/09 A3000 RMK AO2=
202005191256 METAR KPWT 191256Z AUTO 00000KT 9SM OVC011 11/09 A2999 RMK AO2 SLP159 T01060094=
202005191239 SPECI KPWT 191239Z AUTO 00000KT 10SM SCT008 OVC013 11/09 A2999 RMK AO2=
202005191223 SPECI KPWT 191223Z AUTO 00000KT 10SM OVC009 11/09 A2999 RMK AO2 CIG 007V011=
202005191156 METAR KPWT 191156Z AUTO 18003KT 10SM OVC011 11/09 A2998 RMK AO2 SLP153 6//// 7//// T01060089 10117 20089 51005=
202005191056 METAR KPWT 191056Z AUTO 19003KT 10SM OVC011 11/09 A2998 RMK AO2 SLP153 T01060089=
202005191045 SPECI KPWT 191045Z AUTO 00000KT 10SM OVC011 11/09 A2997 RMK AO2=
202005190956 METAR KPWT 190956Z AUTO 21003KT 10SM OVC007 10/09 A2997 RMK AO2 SLP151 T01000094=
202005190856 METAR KPWT 190856Z AUTO 19005KT 10SM OVC009 10/09 A2996 RMK AO2 SLP148 T01000089 51013=
202005190822 SPECI KPWT 190822Z AUTO 00000KT 10SM OVC009 09/08 A2996 RMK AO2=
202005190815 SPECI KPWT 190815Z AUTO 23003KT 10SM BKN011 09/08 A2996 RMK AO2=
202005190756 METAR KPWT 190756Z AUTO 21003KT 10SM FEW070 09/08 A2996 RMK AO2 SLP148 T00890083 401940050=
202005190656 METAR KPWT 190656Z AUTO 18004KT 10SM OVC065 11/09 A2994 RMK AO2 SLP143 T01110094=
202005190556 METAR KPWT 190556Z AUTO 20004KT 10SM SCT070 12/09 A2992 RMK AO2 SLP136 T01170094 10194 20117 53021=
202005190456 METAR KPWT 190456Z AUTO 20004KT 10SM SCT065 13/09 A2990 RMK AO2 SLP129 T01280094=
202005190356 METAR KPWT 190356Z AUTO 19005KT 10SM FEW085 13/10 A2988 RMK AO2 SLP121 T01330100=
202005190256 METAR KPWT 190256Z AUTO 20003KT 10SM SCT060 16/11 A2986 RMK AO2 SLP115 T01610106 53011=
202005190156 METAR KPWT 190156Z AUTO 21007KT 10SM BKN049 OVC080 18/11 A2984 RMK AO2 SLP109 T01780106=
202005190056 METAR KPWT 190056Z AUTO VRB05KT 10SM OVC060 19/11 A2983 RMK AO2 SLP104 T01940106=
202005182356 METAR KPWT 182356Z AUTO 00000KT 10SM FEW080 18/09 A2983 RMK AO2 RAB04E19 SLP104 P0000 6//// T01830094 10183 20150 50001=
202005182256 METAR KPWT 182256Z AUTO 00000KT 10SM BKN038 18/10 A2983 RMK AO2 SLP105 T01780100=
202005182156 METAR KPWT 182156Z AUTO VRB03KT 10SM BKN032 OVC042 18/11 A2983 RMK AO2 SLP103 T01780106=
202005182151 SPECI KPWT 182151Z AUTO 25004KT 10SM OVC032 18/11 A2982 RMK AO2=
202005182134 SPECI KPWT 182134Z AUTO 00000KT 10SM BKN029 18/11 A2982 RMK AO2=
202005182056 METAR KPWT 182056Z AUTO 04003KT 10SM SCT049 17/11 A2982 RMK AO2 SLP100 6//// T01720111 51006=
202005181956 METAR KPWT 181956Z AUTO VRB03KT 10SM SCT029 BKN036 18/11 A2982 RMK AO2 SLP099 T01780111=
202005181856 METAR KPWT 181856Z AUTO 02005KT 10SM FEW023 16/11 A2981 RMK AO2 SLP097 T01610106=
202005181756 METAR KPWT 181756Z AUTO 02007KT 10SM CLR 15/10 A2980 RMK AO2 SLP094 T01500100 10150 20056 52003=
202005181656 METAR KPWT 181656Z AUTO 03008KT 10SM CLR 13/09 A2979 RMK AO2 SLP093 T01280094=
202005181556 METAR KPWT 181556Z AUTO 07005KT 10SM CLR 11/09 A2979 RMK AO2 SLP093 T01110094=
202005181456 METAR KPWT 181456Z AUTO 02005KT 10SM CLR 11/09 A2979 RMK AO2 SLP091 T01060094 50010=
202005181356 METAR KPWT 181356Z AUTO 00000KT 10SM CLR 08/07 A2979 RMK AO2 SLP092 T00780072=
202005181256 METAR KPWT 181256Z AUTO 00000KT 10SM CLR 06/05 A2978 RMK AO2 SLP088 T00560050=
202005181239 SPECI KPWT 181239Z AUTO 00000KT 4SM BR CLR 06/06 A2977 RMK AO2=
202005181230 SPECI KPWT 181230Z AUTO 20003KT 1 3/4SM BR CLR 06/05 A2977 RMK AO2 VIS 1/2V5=
202005181156 METAR KPWT 181156Z AUTO 01004KT 10SM CLR 07/06 A2976 RMK AO2 SLP082 7//// T00670061 10111 20050 55002=
202005181059 SPECI KPWT 181059Z AUTO 00000KT 3SM BR CLR 06/06 A2975 RMK AO2=
202005181056 METAR KPWT 181056Z AUTO 00000KT 1 1/4SM BR CLR 06/06 A2975 RMK AO2 VIS 1/2V5 SLP080 T00610061=
202005181048 SPECI KPWT 181048Z AUTO 00000KT 3/4SM BR CLR 06/06 A2976 RMK AO2=
202005181044 SPECI KPWT 181044Z AUTO 00000KT 1 3/4SM BR CLR 07/07 A2976 RMK AO2=
202005180956 METAR KPWT 180956Z AUTO 00000KT 10SM CLR 07/07 A2976 RMK AO2 SLP080 T00670067=
202005180938 SPECI KPWT 180938Z AUTO 00000KT 3SM BR CLR 07/06 A2976 RMK AO2=
202005180928 SPECI KPWT 180928Z AUTO 00000KT 1 3/4SM BR CLR 07/07 A2976 RMK AO2=
202005180856 METAR KPWT 180856Z AUTO 00000KT 10SM CLR 08/08 A2976 RMK AO2 SLP082 T00780078 50005=
202005180756 METAR KPWT 180756Z AUTO 00000KT 10SM CLR 10/09 A2977 RMK AO2 SLP085 T01000089 401890094=
202005180656 METAR KPWT 180656Z AUTO 07007KT 10SM CLR 11/09 A2975 RMK AO2 SLP078 T01110094=
202005180556 METAR KPWT 180556Z AUTO 06006KT 10SM CLR 11/09 A2975 RMK AO2 SLP078 6//// T01110094 10167 20106 50005=
202005180456 METAR KPWT 180456Z AUTO 05003KT 10SM CLR 11/09 A2976 RMK AO2 SLP082 T01110094=
202005180356 METAR KPWT 180356Z AUTO 03003KT 10SM FEW055 12/10 A2975 RMK AO2 SLP077 T01170100=
202005180256 METAR KPWT 180256Z AUTO 04005KT 10SM CLR 14/10 A2973 RMK AO2 SLP072 6//// T01440100 53003=
202005180156 METAR KPWT 180156Z AUTO 03004KT 10SM CLR 16/11 A2973 RMK AO2 SLP070 T01560111=
202005180056 METAR KPWT 180056Z AUTO 01006KT 10SM FEW036 SCT043 SCT055 14/12 A2973 RMK AO2 TSB31E49RAB02E50 SLP069 P0003 T01440117=
202005180037 SPECI KPWT 180037Z AUTO 34006KT 10SM VCTS -RA BKN039 OVC046 14/12 A2972 RMK AO2 TSB31RAB02 P0003=
202005172356 METAR KPWT 172356Z AUTO 05007KT 10SM OVC080 17/09 A2971 RMK AO2 SLP062 T01670089 10189 20144 55001=
202005172256 METAR KPWT 172256Z AUTO 02007KT 10SM SCT045 BKN055 OVC080 17/09 A2971 RMK AO2 SLP062 T01720094=
202005172156 METAR KPWT 172156Z AUTO 00000KT 10SM SCT047 17/08 A2971 RMK AO2 SLP063 T01720078=
202005172056 METAR KPWT 172056Z AUTO 25009KT 200V280 10SM FEW049 SCT070 SCT085 18/08 A2971 RMK AO2 SLP064 T01830078 58008=
202005171956 METAR KPWT 171956Z AUTO 00000KT 10SM SCT042 BKN065 17/08 A2972 RMK AO2 SLP068 T01670078=
202005171856 METAR KPWT 171856Z AUTO VRB05KT 10SM CLR 17/09 A2973 RMK AO2 SLP071 T01670094=
202005171756 METAR KPWT 171756Z AUTO 19005KT 10SM FEW020 SCT050 SCT060 14/09 A2974 RMK AO2 SLP073 6//// T01440094 10156 20094 58001=
202005171725 SPECI KPWT 171725Z AUTO VRB05KT 10SM SCT018 15/10 A2974 RMK AO2=
202005171656 METAR KPWT 171656Z AUTO VRB04KT 10SM BKN016 BKN035 14/11 A2974 RMK AO2 SLP073 T01440106=
202005171648 SPECI KPWT 171648Z AUTO VRB04KT 10SM OVC016 14/11 A2974 RMK AO2=
202005171556 METAR KPWT 171556Z AUTO 19007KT 10SM OVC010 13/11 A2974 RMK AO2 SLP074 T01280111=
202005171543 SPECI KPWT 171543Z AUTO 20006KT 10SM BKN010 13/11 A2974 RMK AO2 CIG 007V014=
202005171456 METAR KPWT 171456Z AUTO 21008KT 10SM BKN008 12/11 A2974 RMK AO2 CIG 005V010 SLP074 60001 T01170106 51007=
202005171437 SPECI KPWT 171437Z AUTO 19007KT 10SM BKN008 BKN050 12/11 A2974 RMK AO2 CIG 005V010=
202005171356 METAR KPWT 171356Z AUTO 21007KT 10SM BKN010 OVC050 11/11 A2974 RMK AO2 SLP073 P0001 T01110106=
202005171309 SPECI KPWT 171309Z AUTO 20008KT 10SM SCT008 BKN046 11/10 A2973 RMK AO2 P0001=
202005171256 METAR KPWT 171256Z AUTO 20009KT 10SM CLR 10/10 A2973 RMK AO2 SLP070 T01000100=
202005171156 METAR KPWT 171156Z AUTO 19006KT 10SM FEW075 11/09 A2972 RMK AO2 SLP067 60009 70056 T01060094 10122 20106 53004=
202005171056 METAR KPWT 171056Z AUTO 19008KT 10SM FEW008 11/10 A2971 RMK AO2 SLP066 T01060100=
202005171029 SPECI KPWT 171029Z AUTO 19009KT 10SM FEW006 OVC050 11/10 A2971 RMK AO2=
202005170956 METAR KPWT 170956Z AUTO 19008KT 10SM BKN050 11/11 A2971 RMK AO2 SLP063 T01110106=
202005170924 SPECI KPWT 170924Z AUTO 19009KT 10SM FEW004 BKN046 11/11 A2971 RMK AO2=
202005170856 METAR KPWT 170856Z AUTO 17006KT 10SM OVC044 11/11 A2971 RMK AO2 RAE19 SLP062 P0000 60009 T01110106 53000=
202005170833 SPECI KPWT 170833Z AUTO 19005KT 10SM SCT006 OVC044 11/11 A2970 RMK AO2 RAE19 P0000=
202005170759 SPECI KPWT 170759Z AUTO 18008KT 10SM -RA BKN008 OVC038 12/11 A2970 RMK AO2 CIG 006V010 P0000=
202005170756 METAR KPWT 170756Z AUTO 19006KT 10SM -RA SCT010 OVC038 12/11 A2970 RMK AO2 RAE14B53 SLP061 P0000 T01170111 401560089=
202005170740 SPECI KPWT 170740Z AUTO 19005KT 10SM SCT027 OVC036 12/11 A2970 RMK AO2 RAE14 P0000=
202005170656 METAR KPWT 170656Z AUTO 00000KT 9SM -RA FEW008 BKN017 BKN034 12/12 A2969 RMK AO2 SLP058 P0009 T01220122=
202005170629 SPECI KPWT 170629Z AUTO 00000KT 6SM -RA BR FEW003 BKN035 12/12 A2970 RMK AO2 P0007=
202005170556 METAR KPWT 170556Z AUTO 00000KT 7SM -RA BKN035 OVC046 12/12 A2970 RMK AO2 SLP062 P0014 60035 T01220122 10156 20122 58001=
202005170545 SPECI KPWT 170545Z AUTO 00000KT 7SM -RA FEW003 OVC035 12/12 A2972 RMK AO2 P0011=
202005170456 METAR KPWT 170456Z AUTO 22004KT 9SM -RA SCT026 BKN035 OVC045 13/12 A2972 RMK AO2 SLP067 P0012 T01280122=
202005170356 METAR KPWT 170356Z AUTO 00000KT 10SM -RA SCT037 BKN044 BKN055 13/12 A2971 RMK AO2 SLP064 P0008 T01280122=
202005170256 METAR KPWT 170256Z AUTO 00000KT 10SM -RA SCT038 BKN049 BKN065 13/12 A2971 RMK AO2 RAB09 SLP063 P0001 60001 T01330122 56015=
202005170156 METAR KPWT 170156Z AUTO 28004KT 10SM SCT055 BKN070 15/13 A2971 RMK AO2 SLP063 T01500133=
202005170056 METAR KPWT 170056Z AUTO 00000KT 10SM CLR 15/13 A2973 RMK AO2 RAE02 SLP070 P0000 T01500128=
202005162356 METAR KPWT 162356Z AUTO 29004KT 10SM -RA SCT005 BKN060 14/13 A2975 RMK AO2 SLP078 P0001 60009 T01440133 10144 20133 58014=
202005162256 METAR KPWT 162256Z AUTO 03005KT 10SM -RA FEW007 BKN065 14/12 A2977 RMK AO2 RAE07B53 SLP083 P0000 T01390122=
202005162242 SPECI KPWT 162242Z AUTO 04006KT 10SM FEW007 BKN065 14/13 A2976 RMK AO2 RAE07 P0000=
202005162156 METAR KPWT 162156Z AUTO 02003KT 10SM -RA CLR 14/12 A2978 RMK AO2 SLP088 P0001 T01390117=
202005162056 METAR KPWT 162056Z AUTO 02004KT 10SM -RA CLR 13/12 A2979 RMK AO2 SLP093 P0004 60007 T01330117 58014=
202005162019 SPECI KPWT 162019Z AUTO 33003KT 10SM -RA FEW027 BKN034 13/12 A2981 RMK AO2 P0002=
202005162008 SPECI KPWT 162008Z AUTO 00000KT 10SM -RA BKN027 OVC035 13/12 A2982 RMK AO2 P0002=
202005161956 METAR KPWT 161956Z AUTO 27003KT 10SM -RA BKN030 OVC035 13/12 A2983 RMK AO2 SLP104 P0002 T01330117=
202005161856 METAR KPWT 161856Z AUTO 29004KT 10SM -RA FEW065 13/11 A2983 RMK AO2 SLP105 P0001 T01330111=
202005161756 METAR KPWT 161756Z AUTO 33003KT 10SM -RA SCT070 14/11 A2983 RMK AO2 SLP107 P0001 60003 T01390111 10139 20100 58016=
202005161656 METAR KPWT 161656Z AUTO 00000KT 10SM -RA SCT033 BKN046 OVC055 13/11 A2986 RMK AO2 SLP116 P0002 T01330106=
202005161556 METAR KPWT 161556Z AUTO 26003KT 10SM -RA BKN065 13/10 A2987 RMK AO2 RAE00B39 SLP118 P0000 T01280100=
202005161456 METAR KPWT 161456Z AUTO 00000KT 10SM -RA FEW050 12/09 A2988 RMK AO2 RAB05 SLP122 P0000 60000 T01170094 56018=
202005161356 METAR KPWT 161356Z AUTO 00000KT 10SM BKN070 12/08 A2990 RMK AO2 SLP128 T01170083=
202005161256 METAR KPWT 161256Z AUTO 02003KT 10SM FEW075 11/09 A2991 RMK AO2 PRESFR SLP129 T01110089=
202005161156 METAR KPWT 161156Z AUTO 23004KT 10SM FEW090 10/09 A2994 RMK AO2 SLP140 6//// 7//// T01000089 10106 20072 56013=
202005161056 METAR KPWT 161056Z AUTO 00000KT 10SM CLR 11/08 A2995 RMK AO2 SLP144 T01060083=
202005160956 METAR KPWT 160956Z AUTO 00000KT 10SM CLR 10/08 A2996 RMK AO2 SLP147 T01000083=
202005160856 METAR KPWT 160856Z AUTO 00000KT 10SM CLR 10/08 A2997 RMK AO2 SLP153 6//// T01000078 56019=
202005160756 METAR KPWT 160756Z AUTO 00000KT 10SM CLR 09/07 A2998 RMK AO2 SLP157 T00890072 401890061=
202005160656 METAR KPWT 160656Z AUTO 00000KT 10SM CLR 08/06 A3001 RMK AO2 SLP166 T00780061=
202005160556 METAR KPWT 160556Z AUTO 00000KT 10SM CLR 09/07 A3003 RMK AO2 SLP174 T00890072 10189 20083 58005=
202005160456 METAR KPWT 160456Z AUTO 00000KT 10SM CLR 10/07 A3004 RMK AO2 SLP178 T01000072=
202005160356 METAR KPWT 160356Z AUTO 00000KT 10SM CLR 12/09 A3004 RMK AO2 SLP177 T01170089=
202005160256 METAR KPWT 160256Z AUTO 19004KT 10SM CLR 16/07 A3005 RMK AO2 SLP178 T01610067 56016=
202005160156 METAR KPWT 160156Z AUTO 19004KT 10SM CLR 18/06 A3005 RMK AO2 SLP181 T01830061=
202005160056 METAR KPWT 160056Z AUTO 22005KT 10SM CLR 18/07 A3007 RMK AO2 SLP187 T01830072=
202005152356 METAR KPWT 152356Z AUTO 22008KT 10SM OVC055 18/07 A3010 RMK AO2 SLP195 6//// T01830067 10189 20144 56014=
202005152256 METAR KPWT 152256Z AUTO 22009KT 10SM OVC055 18/06 A3011 RMK AO2 SLP199 T01780061=
202005152156 METAR KPWT 152156Z AUTO VRB06KT 10SM BKN060 18/06 A3011 RMK AO2 SLP201 T01780061=
202005152056 METAR KPWT 152056Z AUTO 20009KT 10SM BKN055 17/08 A3014 RMK AO2 SLP209 6//// T01720078 58008=
202005151956 METAR KPWT 151956Z AUTO 21009KT 10SM SCT041 17/08 A3015 RMK AO2 SLP214 T01670078=
202005151856 METAR KPWT 151856Z AUTO 23003KT 10SM FEW034 17/09 A3016 RMK AO2 SLP215 T01670089=
202005151756 METAR KPWT 151756Z AUTO 00000KT 10SM FEW021 14/10 A3016 RMK AO2 SLP217 6//// T01440100 10144 20078 58001=
202005151731 SPECI KPWT 151731Z AUTO 00000KT 10SM FEW015 13/09 A3016 RMK AO2=
202005151715 SPECI KPWT 151715Z AUTO 00000KT 10SM SCT008 BKN015 12/09 A3017 RMK AO2=
202005151656 METAR KPWT 151656Z AUTO 19004KT 10SM OVC008 12/09 A3017 RMK AO2 SLP222 T01170094=
202005151607 SPECI KPWT 151607Z AUTO 16003KT 10SM BKN006 OVC015 11/09 A3017 RMK AO2=
202005151556 METAR KPWT 151556Z AUTO 20004KT 10SM BKN004 OVC014 11/09 A3017 RMK AO2 SLP220 T01060094=
202005151543 SPECI KPWT 151543Z AUTO 20003KT 10SM BKN004 OVC014 10/09 A3016 RMK AO2=
202005151529 SPECI KPWT 151529Z AUTO 15003KT 10SM SCT002 OVC014 09/09 A3016 RMK AO2=
202005151456 METAR KPWT 151456Z AUTO VRB03KT 9SM OVC002 09/09 A3016 RMK AO2 SLP219 6//// T00890089 53008=
202005151446 SPECI KPWT 151446Z AUTO 00000KT 7SM BKN002 OVC010 09/09 A3016 RMK AO2=
202005151434 SPECI KPWT 151434Z AUTO 20004KT 2SM BR OVC002 08/08 A3017 RMK AO2 VIS 1 3/4V2 1/2=
202005151356 METAR KPWT 151356Z AUTO 00000KT 10SM OVC002 08/08 A3016 RMK AO2 SLP216 T00830083=
202005151343 SPECI KPWT 151343Z AUTO 00000KT 10SM OVC002 08/08 A3016 RMK AO2=
202005151256 METAR KPWT 151256Z AUTO 00000KT 10SM OVC004 08/08 A3014 RMK AO2 SLP211 T00830078=
202005151156 METAR KPWT 151156Z AUTO 21004KT 10SM OVC004 08/08 A3014 RMK AO2 SLP210 60000 70014 T00780078 10117 20061 53010=
202005151118 SPECI KPWT 151118Z AUTO 00000KT 10SM BKN004 OVC009 07/07 A3013 RMK AO2=
202005151056 METAR KPWT 151056Z AUTO 00000KT 7SM BKN009 07/07 A3013 RMK AO2 SLP207 T00670067=
202005151053 SPECI KPWT 151053Z AUTO 00000KT 5SM BR BKN009 07/07 A3013 RMK AO2=
202005151046 SPECI KPWT 151046Z AUTO 00000KT 3SM BR FEW011 06/06 A3013 RMK AO2=
202005151010 SPECI KPWT 151010Z AUTO 00000KT 1 3/4SM BR CLR 07/06 A3012 RMK AO2 VIS 3/4V5=
202005150956 METAR KPWT 150956Z AUTO 00000KT 5SM BR CLR 07/06 A3011 RMK AO2 SLP202 T00670061=
202005150856 METAR KPWT 150856Z AUTO 00000KT 10SM BKN060 08/08 A3011 RMK AO2 SLP200 60000 T00830083 53013=
202005150756 METAR KPWT 150756Z AUTO 00000KT 10SM OVC055 10/09 A3010 RMK AO2 SLP196 T01000094 401830094=
202005150656 METAR KPWT 150656Z AUTO 00000KT 10SM FEW060 11/09 A3008 RMK AO2 RAE00 SLP190 P0000 T01060094=
202005150556 METAR KPWT 150556Z AUTO 00000KT 10SM -RA BKN055 12/11 A3007 RMK AO2 SLP187 P0002 60010 T01170111 10172 20111 51020=
202005150456 METAR KPWT 150456Z AUTO 00000KT 10SM -RA FEW029 BKN037 12/11 A3006 RMK AO2 SLP183 P0007 T01170111=
202005150356 METAR KPWT 150356Z AUTO 00000KT 8SM -RA SCT036 BKN050 OVC060 13/11 A3003 RMK AO2 RAB23 SLP173 P0001 T01280106=
202005150256 METAR KPWT 150256Z AUTO 19004KT 10SM FEW041 OVC055 13/10 A3001 RMK AO2 RAB06E41 SLP167 P0000 60000 T01330100 53012=
202005150156 METAR KPWT 150156Z AUTO 18005KT 10SM OVC047 16/07 A2999 RMK AO2 SLP160 T01560072=
202005150056 METAR KPWT 150056Z AUTO 08004KT 10SM SCT050 BKN060 BKN080 17/07 A2998 RMK AO2 SLP157 T01720072=
202005142356 METAR KPWT 142356Z AUTO 07005KT 10SM SCT049 OVC065 17/07 A2998 RMK AO2 SLP154 T01670067 10183 20122 55002=
202005142256 METAR KPWT 142256Z AUTO 11003KT 10SM BKN070 17/04 A2997 RMK AO2 SLP153 T01670044=
202005142156 METAR KPWT 142156Z AUTO 18006KT 10SM BKN065 OVC075 16/06 A2998 RMK AO2 SLP155 T01610061=
202005142056 METAR KPWT 142056Z AUTO 00000KT 10SM FEW036 BKN060 16/07 A2998 RMK AO2 SLP156 T01560067 58004=
202005141956 METAR KPWT 141956Z AUTO 22005KT 10SM FEW027 BKN060 14/07 A2999 RMK AO2 SLP158 T01440072=
202005141856 METAR KPWT 141856Z AUTO 21006KT 10SM FEW023 SCT037 OVC060 13/08 A2999 RMK AO2 SLP161 T01330083=
202005141820 SPECI KPWT 141820Z AUTO 23007KT 10SM SCT021 BKN037 BKN043 13/09 A2999 RMK AO2=
202005141812 SPECI KPWT 141812Z AUTO 23007KT 10SM SCT019 BKN025 BKN060 12/09 A2999 RMK AO2=
202005141756 METAR KPWT 141756Z AUTO 20007KT 10SM FEW015 SCT022 13/09 A2999 RMK AO2 SLP161 60004 T01280089 10128 20094 54000=
202005141752 SPECI KPWT 141752Z AUTO 22005KT 10SM SCT015 BKN024 13/09 A2999 RMK AO2=
202005141742 SPECI KPWT 141742Z AUTO 21008KT 10SM SCT013 SCT021 12/09 A2999 RMK AO2=
202005141656 METAR KPWT 141656Z AUTO 22008KT 10SM FEW006 BKN012 BKN060 11/09 A2999 RMK AO2 RAE24 SLP161 P0000 T01110089=
202005141652 SPECI KPWT 141652Z AUTO VRB06KT 10SM FEW006 BKN010 OVC060 11/09 A2999 RMK AO2 RAE24 P0000=
202005141556 METAR KPWT 141556Z AUTO 25004KT 10SM -RA OVC008 10/09 A2999 RMK AO2 CIG 005V011 SLP160 P0001 T01000089=
202005141547 SPECI KPWT 141547Z AUTO 25004KT 10SM -RA BKN008 OVC016 10/09 A2999 RMK AO2 CIG 005V012 P0001=
202005141505 SPECI KPWT 141505Z AUTO 24004KT 10SM -RA FEW007 OVC013 10/08 A2998 RMK AO2 P0000=
202005141456 METAR KPWT 141456Z AUTO 25003KT 10SM -RA FEW007 OVC015 10/08 A2998 RMK AO2 SLP157 P0001 60003 T01000083 53008=
202005141449 SPECI KPWT 141449Z AUTO 00000KT 10SM -RA FEW006 OVC017 10/08 A2998 RMK AO2 P0001=
202005141413 SPECI KPWT 141413Z AUTO 18003KT 10SM -RA BKN019 OVC033 09/08 A2997 RMK AO2 P0000=
202005141356 METAR KPWT 141356Z AUTO 00000KT 10SM -RA FEW022 BKN033 OVC045 09/08 A2997 RMK AO2 SLP153 P0001 T00940083=
202005141326 SPECI KPWT 141326Z AUTO 28003KT 10SM -RA FEW003 SCT045 BKN055 09/09 A2996 RMK AO2 P0001=
202005141256 METAR KPWT 141256Z AUTO 28003KT 10SM -RA BKN033 BKN042 OVC050 09/09 A2996 RMK AO2 SLP149 P0001 T00940089=
202005141156 METAR KPWT 141156Z AUTO 20003KT 10SM -RA FEW003 OVC037 09/09 A2996 RMK AO2 RAB05 SLP148 P0001 60001 70002 T00940089 10106 20089 53002=
202005141153 SPECI KPWT 141153Z AUTO 20004KT 10SM -RA FEW003 SCT010 OVC037 09/09 A2996 RMK AO2 RAB05 P0001=
202005141056 METAR KPWT 141056Z AUTO 00000KT 10SM BKN003 BKN044 09/09 A2995 RMK AO2 CIG 003V007 SLP146 T00940094=
202005141052 SPECI KPWT 141052Z AUTO 00000KT 10SM BKN003 BKN046 09/09 A2995 RMK AO2 CIG 003V007=
202005141035 SPECI KPWT 141035Z AUTO 00000KT 10SM BKN005 BKN046 10/09 A2995 RMK AO2 CIG 003V007=
202005141005 SPECI KPWT 141005Z AUTO 00000KT 10SM OVC003 10/09 A2995 RMK AO2=
202005140956 METAR KPWT 140956Z AUTO 00000KT 10SM BKN005 OVC070 10/09 A2995 RMK AO2 SLP145 T01000094=
202005140924 SPECI KPWT 140924Z AUTO 00000KT 10SM SCT004 OVC070 10/09 A2994 RMK AO2=
202005140856 METAR KPWT 140856Z AUTO 00000KT 10SM OVC004 10/09 A2994 RMK AO2 SLP143 T01000094 51004=
202005140756 METAR KPWT 140756Z AUTO 00000KT 10SM OVC004 10/09 A2994 RMK AO2 SLP142 T01000094 401720083=
202005140705 SPECI KPWT 140705Z AUTO 00000KT 10SM BKN004 OVC100 09/09 A2994 RMK AO2=
202005140656 METAR KPWT 140656Z AUTO 00000KT 10SM SCT004 BKN100 09/09 A2994 RMK AO2 SLP142 T00940089=
202005140556 METAR KPWT 140556Z AUTO 00000KT 10SM CLR 09/08 A2993 RMK AO2 SLP140 60000 T00890078 10161 20083 52014=
202005140456 METAR KPWT 140456Z AUTO 17003KT 10SM CLR 10/08 A2992 RMK AO2 SLP136 T01000083=
202005140356 METAR KPWT 140356Z AUTO 00000KT 10SM SCT120 11/08 A2990 RMK AO2 SLP130 T01110083=
202005140256 METAR KPWT 140256Z AUTO 21006KT 10SM SCT060 12/07 A2989 RMK AO2 RAE10 SLP126 P0000 60000 T01170072 53004=
202005140156 METAR KPWT 140156Z AUTO 24006KT 10SM -RA FEW060 14/08 A2988 RMK AO2 RAB54 SLP123 P0000 T01390078=
202005140056 METAR KPWT 140056Z AUTO 23010KT 10SM SCT060 15/09 A2988 RMK AO2 RAB27E41 SLP122 P0000 T01500089=
202005132356 METAR KPWT 132356Z AUTO 24010KT 10SM BKN070 15/09 A2988 RMK AO2 SLP121 60000 T01500089 10172 20122 53000=
202005132256 METAR KPWT 132256Z AUTO 20010KT 10SM OVC065 16/07 A2987 RMK AO2 SLP119 T01610067=
202005132156 METAR KPWT 132156Z AUTO 23015KT 10SM CLR 17/06 A2987 RMK AO2 SLP119 T01670061=
202005132056 METAR KPWT 132056Z AUTO 23010KT 10SM SCT040 OVC060 15/07 A2988 RMK AO2 SLP121 60000 T01500072 58004=
202005131956 METAR KPWT 131956Z AUTO 24009KT 10SM SCT046 BKN060 14/09 A2988 RMK AO2 RAB20E40 SLP123 P0000 T01390089=
202005131856 METAR KPWT 131856Z AUTO 21008KT 10SM OVC050 13/09 A2989 RMK AO2 SLP127 T01330089=
202005131756 METAR KPWT 131756Z AUTO 21012G17KT 10SM FEW023 SCT055 13/09 A2989 RMK AO2 SLP124 60001 T01330089 10139 20100 53003=
202005131735 SPECI KPWT 131735Z AUTO 21010KT 10SM SCT016 BKN055 12/09 A2989 RMK AO2=
202005131656 METAR KPWT 131656Z AUTO 18010KT 10SM BKN016 OVC039 13/09 A2988 RMK AO2 SLP124 T01280094=
202005131648 SPECI KPWT 131648Z AUTO 21012G16KT 10SM BKN012 BKN019 OVC039 13/09 A2988 RMK AO2=
202005131556 METAR KPWT 131556Z AUTO 20012KT 10SM FEW008 OVC043 11/09 A2988 RMK AO2 SLP122 T01110094=
202005131552 SPECI KPWT 131552Z AUTO 21012KT 10SM FEW008 OVC043 11/09 A2988 RMK AO2=
202005131544 SPECI KPWT 131544Z AUTO 22010KT 10SM FEW026 BKN039 OVC045 11/09 A2988 RMK AO2=
202005131524 SPECI KPWT 131524Z AUTO 21011KT 10SM BKN026 BKN033 11/09 A2987 RMK AO2=
202005131504 SPECI KPWT 131504Z AUTO 21009KT 10SM FEW026 SCT030 SCT035 11/09 A2986 RMK AO2=
202005131456 METAR KPWT 131456Z AUTO 22010KT 10SM BKN026 BKN033 BKN048 11/09 A2986 RMK AO2 SLP116 60001 T01060089 53011=
202005131442 SPECI KPWT 131442Z AUTO 21010KT 10SM BKN026 11/09 A2986 RMK AO2=
202005131356 METAR KPWT 131356Z AUTO 20010KT 10SM CLR 10/09 A2984 RMK AO2 SLP110 P0001 T01000089=
202005131332 SPECI KPWT 131332Z AUTO 20011KT 10SM FEW005 SCT027 10/09 A2984 RMK AO2 P0001=
202005131318 SPECI KPWT 131318Z AUTO 20009KT 10SM SCT003 BKN008 BKN110 10/09 A2983 RMK AO2=
202005131304 SPECI KPWT 131304Z AUTO 20009KT 10SM BKN003 BKN110 10/09 A2983 RMK AO2=
202005131256 METAR KPWT 131256Z AUTO 21010KT 10SM SCT003 BKN110 10/09 A2983 RMK AO2 RAE16 SLP104 P0000 T01000094=
202005131206 SPECI KPWT 131206Z AUTO 22009KT 9SM -RA BKN003 OVC007 10/10 A2983 RMK AO2 P0000=
202005131156 METAR KPWT 131156Z AUTO 22008KT 4SM -RA BR OVC005 10/10 A2983 RMK AO2 CIG 003V007 SLP104 P0004 60004 70014 T01000100 10106 20094 53006=
202005131131 SPECI KPWT 131131Z AUTO 20007KT 8SM -RA OVC005 10/10 A2983 RMK AO2 CIG 004V009 P0001=
202005131056 METAR KPWT 131056Z AUTO 19004KT 10SM -RA OVC009 10/09 A2982 RMK AO2 CIG 005V012 SLP102 P0000 T01000094=
202005131036 SPECI KPWT 131036Z AUTO 19004KT 10SM -RA BKN011 OVC032 10/09 A2981 RMK AO2 P0000=
202005130956 METAR KPWT 130956Z AUTO 22004KT 10SM -RA BKN036 BKN050 10/09 A2981 RMK AO2 RAB17 SLP098 P0000 T01000094=
202005130856 METAR KPWT 130856Z AUTO 19004KT 10SM SCT037 BKN120 09/09 A2981 RMK AO2 SLP096 T00940089 53006=
202005130819 SPECI KPWT 130819Z AUTO 21006KT 10SM SCT022 OVC100 10/09 A2980 RMK AO2=
202005130756 METAR KPWT 130756Z AUTO 20007KT 10SM OVC024 10/09 A2980 RMK AO2 SLP094 T01000094 401610078=
202005130745 SPECI KPWT 130745Z AUTO 21008KT 10SM BKN024 BKN032 OVC039 10/09 A2980 RMK AO2=
202005130656 METAR KPWT 130656Z AUTO 21009KT 10SM FEW060 10/09 A2979 RMK AO2 SLP091 T01000094=
202005130556 METAR KPWT 130556Z AUTO 22009KT 10SM FEW005 SCT048 BKN090 11/10 A2979 RMK AO2 RAE0458B15E32 SLP090 P0000 60002 T01060100 10144 20106 51009=
202005130544 SPECI KPWT 130544Z AUTO 22010KT 10SM FEW007 BKN048 OVC090 11/09 A2979 RMK AO2 RAE0458B15E32 P0000=
202005130530 SPECI KPWT 130530Z AUTO 22008KT 10SM -RA FEW007 BKN019 OVC050 11/10 A2978 RMK AO2 RAE0458B15 P0000=
202005130456 METAR KPWT 130456Z AUTO 21008KT 10SM -RA FEW012 BKN021 OVC029 11/10 A2978 RMK AO2 RAB34 SLP090 P0001 T01060100=
202005130451 SPECI KPWT 130451Z AUTO 21008KT 10SM -RA SCT012 BKN019 OVC029 11/10 A2978 RMK AO2 RAB34 P0001=
202005130439 SPECI KPWT 130439Z AUTO 21010KT 10SM -RA BKN012 BKN020 OVC027 11/10 A2978 RMK AO2 RAB34 P0001=
202005130403 SPECI KPWT 130403Z AUTO 21006KT 10SM BKN009 OVC018 11/11 A2976 RMK AO2 CIG 006V014=
202005130356 METAR KPWT 130356Z AUTO 21007KT 10SM BKN011 BKN018 OVC050 11/11 A2976 RMK AO2 RAE42 CIG 006V012 SLP082 P0001 T01110106=
202005130333 SPECI KPWT 130333Z AUTO 22009KT 10SM -RA BKN011 OVC050 11/11 A2975 RMK AO2 P0001=
202005130256 METAR KPWT 130256Z AUTO 22010KT 10SM -RA FEW018 BKN044 OVC050 11/11 A2974 RMK AO2 RAB23 SLP076 P0000 60000 T01110106 53014=
202005130245 SPECI KPWT 130245Z AUTO 22013G19KT 10SM -RA SCT015 BKN034 OVC055 12/11 A2974 RMK AO2 RAB23 P0000=
202005130220 SPECI KPWT 130220Z AUTO 22016G22KT 8SM FEW012 SCT018 BKN026 13/11 A2973 RMK AO2=
202005130156 METAR KPWT 130156Z AUTO 22010KT 10SM BKN065 BKN080 13/11 A2972 RMK AO2 SLP068 T01330106=
202005130056 METAR KPWT 130056Z AUTO 22010KT 10SM BKN060 14/11 A2970 RMK AO2 SLP062 T01390111=
202005122356 METAR KPWT 122356Z AUTO 22008KT 10SM FEW032 BKN060 OVC080 13/11 A2970 RMK AO2 RAE46 SLP062 P0005 60007 T01280111 10161 20117 52002=
202005122256 METAR KPWT 122256Z AUTO 25012G23KT 10SM -RA FEW025 BKN030 OVC065 12/10 A2971 RMK AO2 WSHFT 2238 RAB43 SLP065 P0000 T01220100=
202005122156 METAR KPWT 122156Z AUTO 21007KT 10SM CLR 16/11 A2969 RMK AO2 SLP056 T01560111=
202005122135 SPECI KPWT 122135Z AUTO 21009G14KT 10SM SCT021 SCT027 BKN060 16/11 A2969 RMK AO2=
202005122116 SPECI KPWT 122116Z AUTO 20008KT 10SM SCT019 BKN027 16/12 A2969 RMK AO2=
202005122056 METAR KPWT 122056Z AUTO 20007KT 10SM SCT016 SCT050 BKN060 16/12 A2970 RMK AO2 RAE53 SLP059 P0000 60002 T01560122 58003=
202005122051 SPECI KPWT 122051Z AUTO VRB06KT 10SM -RA SCT016 BKN055 15/12 A2970 RMK AO2 P0000=
202005122022 SPECI KPWT 122022Z AUTO 21008KT 9SM -RA SCT016 BKN022 BKN060 14/12 A2970 RMK AO2 P0000=
202005121956 METAR KPWT 121956Z AUTO 22008KT 10SM -RA FEW016 BKN060 14/12 A2971 RMK AO2 SLP063 P0001 T01440117=
202005121856 METAR KPWT 121856Z AUTO 24004KT 10SM -RA FEW055 14/12 A2970 RMK AO2 SLP062 P0001 T01390117=
202005121756 METAR KPWT 121756Z AUTO 17004KT 10SM -RA FEW009 SCT047 BKN060 13/11 A2970 RMK AO2 SLP061 P0001 60001 T01330111 10133 20089 53001=
202005121753 SPECI KPWT 121753Z AUTO 19004KT 10SM -RA FEW009 BKN060 13/11 A2970 RMK AO2 P0001=
202005121656 METAR KPWT 121656Z AUTO 23003KT 10SM -RA FEW060 13/11 A2970 RMK AO2 SLP060 P0000 T01280111=
202005121610 SPECI KPWT 121610Z AUTO 00000KT 10SM -RA FEW004 BKN055 12/11 A2970 RMK AO2 P0000=
202005121556 METAR KPWT 121556Z AUTO 29003KT 10SM -RA FEW065 12/11 A2970 RMK AO2 RAB17 SLP061 P0000 T01170111=
202005121456 METAR KPWT 121456Z AUTO 00000KT 10SM OVC060 11/11 A2971 RMK AO2 SLP064 60000 T01110106 55002=
202005121441 SPECI KPWT 121441Z AUTO 00000KT 10SM SCT002 OVC060 11/11 A2971 RMK AO2=
202005121423 SPECI KPWT 121423Z AUTO 12003KT 7SM OVC002 11/11 A2970 RMK AO2=
202005121416 SPECI KPWT 121416Z AUTO 00000KT 2 1/2SM BR OVC002 11/11 A2970 RMK AO2=
202005121356 METAR KPWT 121356Z AUTO 04003KT 4SM BR OVC002 10/10 A2970 RMK AO2 RAB25E53 SLP063 P0000 T01000100=
202005121351 SPECI KPWT 121351Z AUTO 36003KT 3SM -RA BR OVC002 11/10 A2970 RMK AO2 RAB25 P0000=
202005121346 SPECI KPWT 121346Z AUTO 00000KT 1 1/4SM -RA BR OVC002 10/10 A2971 RMK AO2 VIS 1/2V4 RAB25 P0000=
202005121342 SPECI KPWT 121342Z AUTO 00000KT 3/4SM -RA BR OVC002 10/10 A2971 RMK AO2 RAB25 P0000=
202005121256 METAR KPWT 121256Z AUTO 04004KT 1/4SM FG OVC002 10/09 A2970 RMK AO2 SLP061 T01000094=
202005121228 SPECI KPWT 121228Z AUTO 00000KT 1/4SM FG OVC002 09/09 A2971 RMK AO2=
202005121217 SPECI KPWT 121217Z AUTO 00000KT 1/2SM FG OVC002 09/09 A2971 RMK AO2=
202005121209 SPECI KPWT 121209Z AUTO 05003KT 1/4SM FG OVC002 09/09 A2971 RMK AO2=
202005121156 METAR KPWT 121156Z AUTO 00000KT 1/2SM FG BKN002 OVC075 09/09 A2971 RMK AO2 SLP064 60002 70007 T00940094 10106 20078 58004=
202005121153 SPECI KPWT 121153Z AUTO 00000KT 3/4SM BR BKN002 OVC075 09/09 A2971 RMK AO2=
202005121150 SPECI KPWT 121150Z AUTO 00000KT 1 3/4SM BR SCT002 BKN075 09/09 A2971 RMK AO2=
202005121107 SPECI KPWT 121107Z AUTO 00000KT 8SM FEW002 BKN085 09/09 A2971 RMK AO2=
202005121056 METAR KPWT 121056Z AUTO 00000KT 5SM BR BKN002 BKN085 09/09 A2971 RMK AO2 SLP065 T00940094=
202005121037 SPECI KPWT 121037Z AUTO 00000KT 4SM BR OVC002 09/09 A2972 RMK AO2=
202005121007 SPECI KPWT 121007Z AUTO 00000KT 10SM BKN004 BKN007 09/09 A2972 RMK AO2=
202005120956 METAR KPWT 120956Z AUTO 00000KT 10SM BKN007 BKN085 09/09 A2972 RMK AO2 CIG 003V008 SLP067 T00890089=
202005120952 SPECI KPWT 120952Z AUTO 00000KT 9SM BKN007 BKN085 09/09 A2972 RMK AO2 CIG 004V008=
202005120943 SPECI KPWT 120943Z AUTO 00000KT 2SM BR FEW007 SCT085 09/09 A2972 RMK AO2 VIS 1V5=
202005120936 SPECI KPWT 120936Z AUTO 00000KT 1SM BR FEW007 08/08 A2972 RMK AO2=
202005120926 SPECI KPWT 120926Z AUTO 00000KT 3/4SM BR CLR 08/08 A2972 RMK AO2=
202005120917 SPECI KPWT 120917Z AUTO 00000KT 1 3/4SM BR CLR 08/08 A2972 RMK AO2 VIS 1/2V5=
202005120856 METAR KPWT 120856Z AUTO 00000KT 9SM CLR 09/09 A2972 RMK AO2 SLP067 60002 T00940089 56012=
202005120756 METAR KPWT 120756Z AUTO 00000KT 10SM SCT008 10/09 A2973 RMK AO2 RAE24 SLP070 P0001 T01000094 402280094=
202005120749 SPECI KPWT 120749Z AUTO 00000KT 10SM SCT008 10/09 A2973 RMK AO2 RAE24 P0001=
202005120656 METAR KPWT 120656Z AUTO 04004KT 10SM -RA CLR 10/09 A2973 RMK AO2 SLP071 P0001 T01000094=
202005120556 METAR KPWT 120556Z AUTO 00000KT 10SM -RA FEW035 SCT042 BKN050 11/09 A2975 RMK AO2 SLP079 P0001 60005 T01060094 10150 20100 50002=
202005120456 METAR KPWT 120456Z AUTO 18005KT 10SM -RA SCT007 BKN043 11/09 A2976 RMK AO2 SLP079 P0001 T01060094=
202005120454 SPECI KPWT 120454Z AUTO 19005KT 10SM -RA SCT007 BKN041 BKN049 11/09 A2976 RMK AO2 P0001=
202005120434 SPECI KPWT 120434Z AUTO 19003KT 10SM -RA FEW016 SCT026 BKN037 11/09 A2976 RMK AO2 P0000=
202005120412 SPECI KPWT 120412Z AUTO 19003KT 10SM -RA SCT016 BKN024 OVC075 11/09 A2975 RMK AO2 P0000=
202005120356 METAR KPWT 120356Z AUTO 19004KT 10SM -RA FEW017 BKN075 11/09 A2975 RMK AO2 SLP076 P0002 T01060094=
202005120256 METAR KPWT 120256Z AUTO 20005KT 10SM -RA SCT037 SCT046 OVC060 12/09 A2973 RMK AO2 SLP072 P0000 60001 T01170089 53009=
202005120156 METAR KPWT 120156Z AUTO 00000KT 10SM -RA FEW080 13/09 A2972 RMK AO2 SLP066 P0001 T01330089=
202005120056 METAR KPWT 120056Z AUTO 22008KT 10SM -RA CLR 14/08 A2970 RMK AO2 SLP060 P0000 T01440083=
202005112356 METAR KPWT 112356Z AUTO 22012KT 10SM -RA FEW034 15/08 A2971 RMK AO2 RAB36 SLP063 P0000 60000 T01500083 10228 20150 58000=
202005112256 METAR KPWT 112256Z AUTO 21010KT 10SM FEW090 17/11 A2972 RMK AO2 SLP067 T01670106=
202005112156 METAR KPWT 112156Z AUTO 21014G18KT 10SM FEW100 SCT120 18/11 A2972 RMK AO2 SLP065 T01830111=
202005112056 METAR KPWT 112056Z AUTO 23015KT 10SM CLR 22/12 A2971 RMK AO2 SLP062 T02170117 58010=
202005111956 METAR KPWT 111956Z AUTO 25010KT 10SM CLR 22/13 A2972 RMK AO2 SLP065 T02220128=
202005111856 METAR KPWT 111856Z AUTO 22009KT 10SM CLR 22/12 A2973 RMK AO2 SLP068 T02220117=
202005111756 METAR KPWT 111756Z AUTO 22004KT 10SM CLR 21/12 A2974 RMK AO2 SLP070 T02060117 10206 20094 58008=
202005111656 METAR KPWT 111656Z AUTO 19003KT 10SM CLR 17/12 A2975 RMK AO2 SLP075 T01720117=
202005111556 METAR KPWT 111556Z AUTO 20005KT 10SM CLR 14/12 A2976 RMK AO2 SLP080 T01440117=
202005111456 METAR KPWT 111456Z AUTO 22004KT 10SM CLR 13/11 A2976 RMK AO2 SLP079 T01280111 58001=
202005111356 METAR KPWT 111356Z AUTO 19004KT 10SM CLR 11/10 A2976 RMK AO2 SLP079 T01060100=
202005111256 METAR KPWT 111256Z AUTO 18004KT 10SM CLR 10/09 A2976 RMK AO2 LTG DSNT W SLP080 T01000094=
202005111156 METAR KPWT 111156Z AUTO 21004KT 10SM CLR 10/09 A2976 RMK AO2 SLP080 T01000094 10222 20094 53002=
202005111056 METAR KPWT 111056Z AUTO 00000KT 10SM CLR 10/09 A2976 RMK AO2 SLP080 T01000094=
202005110956 METAR KPWT 110956Z AUTO 20003KT 10SM CLR 11/10 A2975 RMK AO2 SLP076 T01110100=
202005110856 METAR KPWT 110856Z AUTO 00000KT 10SM CLR 13/10 A2976 RMK AO2 SLP077 T01280100 50005=
202005110756 METAR KPWT 110756Z AUTO 22003KT 10SM CLR 14/10 A2976 RMK AO2 SLP077 T01440100 402890106=
202005110656 METAR KPWT 110656Z AUTO 07003KT 10SM CLR 21/07 A2975 RMK AO2 SLP075 T02060067=
202005110556 METAR KPWT 110556Z AUTO 02007KT 10SM CLR 20/07 A2974 RMK AO2 SLP071 T02000072 10289 20189 58001=
202005110456 METAR KPWT 110456Z AUTO 04006KT 10SM CLR 22/07 A2975 RMK AO2 SLP073 T02220067=
202005110356 METAR KPWT 110356Z AUTO 04007KT 10SM CLR 23/07 A2974 RMK AO2 SLP071 T02280072=
202005110256 METAR KPWT 110256Z AUTO 05004KT 10SM CLR 23/08 A2974 RMK AO2 SLP072 T02330078 56005=
202005110156 METAR KPWT 110156Z AUTO 04009KT 10SM CLR 27/07 A2974 RMK AO2 SLP072 T02670072=
202005110056 METAR KPWT 110056Z AUTO 03008KT 10SM CLR 28/07 A2974 RMK AO2 SLP073 T02780072=
202005102356 METAR KPWT 102356Z AUTO 01010KT 10SM CLR 29/08 A2976 RMK AO2 SLP077 T02890078 10289 20239 57021=
202005102256 METAR KPWT 102256Z AUTO 04011KT 10SM CLR 28/07 A2978 RMK AO2 SLP084 T02830072=
202005102156 METAR KPWT 102156Z AUTO 05009KT 10SM CLR 28/06 A2980 RMK AO2 SLP092 T02780061=
202005102056 METAR KPWT 102056Z AUTO 01008KT 10SM CLR 28/07 A2982 RMK AO2 SLP099 T02830072 57017=
202005101956 METAR KPWT 101956Z AUTO 05006G14KT 10SM CLR 27/07 A2984 RMK AO2 SLP106 T02670067=
202005101856 METAR KPWT 101856Z AUTO 06010KT 10SM CLR 26/07 A2985 RMK AO2 SLP111 T02560067=
202005101756 METAR KPWT 101756Z AUTO 03009KT 10SM CLR 24/07 A2987 RMK AO2 SLP116 T02390067 10239 20106 58006=
202005101656 METAR KPWT 101656Z AUTO 04009KT 10SM CLR 22/07 A2988 RMK AO2 SLP120 T02220072=
202005101556 METAR KPWT 101556Z AUTO 05006KT 10SM CLR 21/07 A2989 RMK AO2 SLP124 T02110067=
202005101456 METAR KPWT 101456Z AUTO 04009KT 10SM CLR 21/07 A2989 RMK AO2 SLP122 T02060067 58002=
202005101356 METAR KPWT 101356Z AUTO 05007KT 10SM CLR 18/07 A2989 RMK AO2 SLP124 T01780067=
202005101256 METAR KPWT 101256Z AUTO 05007KT 10SM CLR 13/06 A2989 RMK AO2 SLP123 T01330061=
202005101156 METAR KPWT 101156Z AUTO 00000KT 10SM CLR 12/07 A2990 RMK AO2 SLP124 T01220067 10206 20117 58004=
202005101056 METAR KPWT 101056Z AUTO 00000KT 10SM CLR 13/07 A2990 RMK AO2 SLP126 T01330072=
202005100956 METAR KPWT 100956Z AUTO 00000KT 10SM CLR 12/07 A2991 RMK AO2 SLP128 T01170072=
202005100856 METAR KPWT 100856Z AUTO 00000KT 10SM CLR 15/07 A2991 RMK AO2 SLP130 T01500072 56003=
202005100756 METAR KPWT 100756Z AUTO 00000KT 10SM CLR 16/07 A2991 RMK AO2 SLP131 T01610067 402830122=
202005100656 METAR KPWT 100656Z AUTO 03004KT 10SM CLR 18/07 A2991 RMK AO2 SLP131 T01780072=
202005100556 METAR KPWT 100556Z AUTO 06007KT 10SM CLR 20/07 A2992 RMK AO2 SLP131 T02000067 10283 20194 53001=
202005100456 METAR KPWT 100456Z AUTO 03009KT 10SM CLR 21/06 A2992 RMK AO2 SLP131 T02110061=
202005100356 METAR KPWT 100356Z AUTO 05008KT 10SM CLR 22/07 A2991 RMK AO2 SLP131 T02170072=
202005100256 METAR KPWT 100256Z AUTO 04008KT 10SM CLR 24/08 A2991 RMK AO2 SLP131 T02390083 56008=
202005100156 METAR KPWT 100156Z AUTO 04008KT 10SM CLR 26/08 A2991 RMK AO2 SLP130 T02560078=
202005100056 METAR KPWT 100056Z AUTO 02008KT 10SM CLR 27/07 A2992 RMK AO2 SLP134 T02720072=
202005092356 METAR KPWT 092356Z AUTO 01010KT 10SM CLR 27/07 A2994 RMK AO2 SLP139 T02720067 10283 20239 56013=
202005092256 METAR KPWT 092256Z AUTO 01007KT 10SM CLR 27/06 A2995 RMK AO2 SLP143 T02720061=
202005092156 METAR KPWT 092156Z AUTO 03006G14KT 10SM CLR 28/07 A2996 RMK AO2 SLP147 T02780072=
202005092056 METAR KPWT 092056Z AUTO 05008KT 10SM CLR 27/07 A2998 RMK AO2 SLP152 T02670072 58016=
202005091956 METAR KPWT 091956Z AUTO 02010KT 10SM CLR 26/07 A3000 RMK AO2 SLP159 T02610067=
202005091856 METAR KPWT 091856Z AUTO 04010KT 10SM CLR 26/07 A3001 RMK AO2 SLP163 T02560072=
202005091756 METAR KPWT 091756Z AUTO 02006KT 10SM CLR 24/07 A3002 RMK AO2 SLP169 T02390072 10239 20122 58003=
202005091656 METAR KPWT 091656Z AUTO 03006KT 10SM CLR 23/06 A3003 RMK AO2 SLP171 T02280061=
202005091556 METAR KPWT 091556Z AUTO 03007KT 10SM CLR 22/06 A3004 RMK AO2 SLP172 T02170061=
202005091456 METAR KPWT 091456Z AUTO 03004KT 10SM CLR 19/06 A3003 RMK AO2 SLP171 T01940061 58002=
202005091356 METAR KPWT 091356Z AUTO 00000KT 10SM CLR 15/07 A3004 RMK AO2 SLP175 T01500067=
202005091256 METAR KPWT 091256Z AUTO 03007KT 10SM CLR 13/05 A3004 RMK AO2 SLP175 T01330050=
202005091156 METAR KPWT 091156Z AUTO 03004KT 10SM CLR 13/05 A3004 RMK AO2 SLP174 T01330050 10183 20122 56007=
202005091056 METAR KPWT 091056Z AUTO 05005KT 10SM CLR 15/04 A3004 RMK AO2 SLP174 T01500044=
202005090956 METAR KPWT 090956Z AUTO 02005KT 10SM CLR 13/05 A3005 RMK AO2 SLP178 T01330050=
202005090856 METAR KPWT 090856Z AUTO 04004KT 10SM CLR 16/04 A3006 RMK AO2 SLP180 T01560044 58003=
202005090756 METAR KPWT 090756Z AUTO 04007KT 10SM CLR 17/04 A3007 RMK AO2 SLP182 T01670044 402560111=
202005090656 METAR KPWT 090656Z AUTO 05009KT 10SM CLR 18/04 A3007 RMK AO2 SLP184 T01830044=
202005090556 METAR KPWT 090556Z AUTO 05008KT 10SM CLR 18/05 A3007 RMK AO2 SLP185 T01780050 10250 20178 51006=
202005090456 METAR KPWT 090456Z AUTO 05009KT 10SM CLR 18/05 A3007 RMK AO2 SLP184 T01830050=
202005090356 METAR KPWT 090356Z AUTO 06008KT 10SM CLR 19/05 A3006 RMK AO2 SLP180 T01940050=
202005090256 METAR KPWT 090256Z AUTO 04010KT 10SM CLR 22/05 A3005 RMK AO2 SLP178 T02170050 56010=
202005090156 METAR KPWT 090156Z AUTO 05011KT 10SM CLR 24/05 A3005 RMK AO2 SLP179 T02390050=
202005090056 METAR KPWT 090056Z AUTO 03010KT 10SM CLR 24/05 A3007 RMK AO2 SLP183 T02440050=
202005082356 METAR KPWT 082356Z AUTO 02010KT 10SM CLR 25/04 A3008 RMK AO2 SLP189 T02500044 10256 20200 58019=
202005082256 METAR KPWT 082256Z AUTO 01007KT 10SM CLR 25/05 A3011 RMK AO2 SLP197 T02500050=
202005082156 METAR KPWT 082156Z AUTO 03006KT 10SM CLR 24/05 A3013 RMK AO2 SLP203 T02440050=
202005082056 METAR KPWT 082056Z AUTO VRB05KT 10SM CLR 24/04 A3014 RMK AO2 SLP208 T02440044 58010=
202005081956 METAR KPWT 081956Z AUTO 03007KT 10SM CLR 23/04 A3016 RMK AO2 SLP214 T02330044=
202005081856 METAR KPWT 081856Z AUTO 03009KT 10SM CLR 22/04 A3017 RMK AO2 SLP218 T02170044=
202005081756 METAR KPWT 081756Z AUTO 04013KT 10SM CLR 20/05 A3017 RMK AO2 SLP219 T02000050 10200 20111 58005=
202005081656 METAR KPWT 081656Z AUTO 04014G19KT 10SM CLR 19/06 A3018 RMK AO2 SLP222 T01890056=
202005081556 METAR KPWT 081556Z AUTO 04010KT 10SM CLR 17/07 A3018 RMK AO2 SLP225 T01670072=
202005081456 METAR KPWT 081456Z AUTO 02008KT 10SM CLR 15/06 A3019 RMK AO2 SLP225 T01500056 55002=
202005081356 METAR KPWT 081356Z AUTO 04009KT 10SM CLR 13/05 A3018 RMK AO2 SLP225 T01280050=
202005081256 METAR KPWT 081256Z AUTO 05008KT 10SM CLR 12/04 A3019 RMK AO2 SLP225 T01170039=
202005081156 METAR KPWT 081156Z AUTO 04008KT 10SM CLR 12/03 A3019 RMK AO2 SLP227 T01170033 10128 20106 56005=
202005081056 METAR KPWT 081056Z AUTO 07008KT 10SM CLR 12/03 A3020 RMK AO2 SLP229 T01220033=
202005080956 METAR KPWT 080956Z AUTO 05010KT 10SM CLR 12/03 A3020 RMK AO2 SLP230 T01220033=
202005080856 METAR KPWT 080856Z AUTO 04010KT 10SM CLR 12/03 A3021 RMK AO2 SLP232 T01220033 58006=
202005080756 METAR KPWT 080756Z AUTO 04008KT 10SM CLR 11/05 A3022 RMK AO2 SLP236 T01110050 402000028=
202005080656 METAR KPWT 080656Z AUTO 04010KT 10SM CLR 12/05 A3022 RMK AO2 SLP237 T01170050=
202005080556 METAR KPWT 080556Z AUTO 06012KT 10SM CLR 13/05 A3022 RMK AO2 SLP239 T01280050 10194 20128 56002=
202005080456 METAR KPWT 080456Z AUTO 05014KT 10SM CLR 14/03 A3022 RMK AO2 SLP239 T01390033=
202005080356 METAR KPWT 080356Z AUTO 04013KT 10SM CLR 15/02 A3023 RMK AO2 SLP240 T01500022=
202005080256 METAR KPWT 080256Z AUTO 04010KT 10SM CLR 16/03 A3023 RMK AO2 SLP241 T01610033 56015=
202005080156 METAR KPWT 080156Z AUTO 04009KT 10SM CLR 18/05 A3024 RMK AO2 SLP243 T01780050=
202005080056 METAR KPWT 080056Z AUTO 02009KT 10SM CLR 19/05 A3025 RMK AO2 SLP250 T01890050=
202005072356 METAR KPWT 072356Z AUTO 05011KT 10SM CLR 19/04 A3028 RMK AO2 SLP256 T01940044 10200 20139 56025=
202005072256 METAR KPWT 072256Z AUTO 03011KT 10SM CLR 19/05 A3030 RMK AO2 SLP265 T01940050=
202005072156 METAR KPWT 072156Z AUTO 04013G17KT 10SM CLR 18/04 A3032 RMK AO2 SLP272 T01830044=
202005072056 METAR KPWT 072056Z AUTO 02012G17KT 10SM CLR 18/05 A3035 RMK AO2 SLP283 T01780050 58022=
202005071956 METAR KPWT 071956Z AUTO 04015G19KT 10SM CLR 16/04 A3038 RMK AO2 SLP291 T01610044=
202005071856 METAR KPWT 071856Z AUTO 05011KT 10SM CLR 16/06 A3040 RMK AO2 SLP299 T01560056=
202005071756 METAR KPWT 071756Z AUTO 04013G21KT 10SM CLR 14/05 A3042 RMK AO2 SLP305 T01390050 10139 20039 57016=
202005071656 METAR KPWT 071656Z AUTO 03014G21KT 10SM CLR 13/06 A3043 RMK AO2 SLP311 T01280056=
202005071556 METAR KPWT 071556Z AUTO 05010KT 10SM CLR 10/06 A3045 RMK AO2 SLP317 T01000056=
202005071539 SPECI KPWT 071539Z AUTO 07009KT 10SM SCT009 09/06 A3045 RMK AO2=
202005071456 METAR KPWT 071456Z AUTO 05008KT 10SM BKN009 08/06 A3046 RMK AO2 CIG 007V012 SLP322 T00780061 56008=
202005071445 SPECI KPWT 071445Z AUTO 07006KT 10SM BKN009 08/07 A3047 RMK AO2 CIG 007V011=
202005071434 SPECI KPWT 071434Z AUTO 05007KT 10SM SCT007 08/07 A3047 RMK AO2=
202005071420 SPECI KPWT 071420Z AUTO 04005KT 10SM FEW011 07/07 A3047 RMK AO2=
202005071409 SPECI KPWT 071409Z AUTO 05006KT 10SM BKN011 07/06 A3047 RMK AO2=
202005071356 METAR KPWT 071356Z AUTO 05007KT 10SM SCT011 07/06 A3047 RMK AO2 SLP324 T00670056=
202005071256 METAR KPWT 071256Z AUTO 00000KT 10SM CLR 04/04 A3048 RMK AO2 SLP325 T00440039=
202005071156 METAR KPWT 071156Z AUTO 04003KT 10SM CLR 05/04 A3049 RMK AO2 SLP330 70001 T00500044 10078 20028 58004=
202005071056 METAR KPWT 071056Z AUTO 00000KT 10SM CLR 03/02 A3050 RMK AO2 SLP334 T00280022=
202005070956 METAR KPWT 070956Z AUTO 00000KT 10SM FEW055 04/03 A3050 RMK AO2 SLP332 T00390028=
202005070856 METAR KPWT 070856Z AUTO 00000KT 10SM SCT060 05/04 A3050 RMK AO2 SLP334 T00500039 51004=
202005070756 METAR KPWT 070756Z AUTO 05003KT 10SM CLR 07/05 A3050 RMK AO2 SLP333 T00670050 401610061=
202005070656 METAR KPWT 070656Z AUTO 06005KT 10SM CLR 07/05 A3049 RMK AO2 SLP331 T00670050=
202005070556 METAR KPWT 070556Z AUTO 05004KT 10SM CLR 08/05 A3049 RMK AO2 SLP329 T00780050 10156 20078 51013=
202005070456 METAR KPWT 070456Z AUTO 06005KT 10SM CLR 09/06 A3048 RMK AO2 SLP328 T00890056=
202005070356 METAR KPWT 070356Z AUTO 08004KT 10SM FEW065 10/06 A3047 RMK AO2 SLP322 T01000056=
202005070256 METAR KPWT 070256Z AUTO 06006KT 10SM CLR 12/06 A3045 RMK AO2 SLP316 T01220056 51008=
202005070156 METAR KPWT 070156Z AUTO 06006KT 10SM CLR 13/06 A3044 RMK AO2 SLP314 T01330061=
202005070056 METAR KPWT 070056Z AUTO 06009KT 10SM FEW048 SCT065 BKN080 13/06 A3043 RMK AO2 SLP311 T01330061=
202005062356 METAR KPWT 062356Z AUTO 03007KT 10SM FEW060 16/07 A3043 RMK AO2 SLP308 60001 T01560072 10161 20122 51017=
202005062256 METAR KPWT 062256Z AUTO 02006KT 9SM FEW065 15/08 A3042 RMK AO2 SLP306 T01500078=
202005062156 METAR KPWT 062156Z AUTO 05012KT 10SM BKN048 BKN060 13/09 A3041 RMK AO2 RAE54 SLP304 P0000 T01330089=
202005062056 METAR KPWT 062056Z AUTO 26014G19KT 220V280 10SM -RA SCT047 OVC060 14/04 A3037 RMK AO2 LTG DSNT E RAB27 SLP291 P0001 60001 T01390044 53020=
202005061956 METAR KPWT 061956Z AUTO 25010G18KT 10SM BKN055 16/04 A3036 RMK AO2 SLP284 T01560039=
202005061856 METAR KPWT 061856Z AUTO 22015G19KT 10SM FEW055 15/05 A3033 RMK AO2 SLP274 T01500050=
202005061756 METAR KPWT 061756Z AUTO 22012G18KT 10SM CLR 13/06 A3032 RMK AO2 SLP270 T01330056 10133 20078 51025=
202005061656 METAR KPWT 061656Z AUTO 23015G20KT 10SM CLR 13/06 A3030 RMK AO2 SLP263 T01280056=
202005061556 METAR KPWT 061556Z AUTO 23014KT 10SM CLR 11/06 A3027 RMK AO2 SLP256 T01110061=
202005061456 METAR KPWT 061456Z AUTO 22014G19KT 10SM FEW100 10/07 A3024 RMK AO2 SLP246 T01000067 51021=
202005061356 METAR KPWT 061356Z AUTO 22014G19KT 10SM SCT011 08/07 A3021 RMK AO2 SLP234 T00830067=
202005061256 METAR KPWT 061256Z AUTO 21013KT 10SM OVC009 08/07 A3018 RMK AO2 SLP222 T00780067=
202005061212 SPECI KPWT 061212Z AUTO 19015G19KT 10SM BKN011 BKN017 OVC021 08/07 A3017 RMK AO2 CIG 008V014=
202005061156 METAR KPWT 061156Z AUTO 20012G18KT 10SM FEW010 SCT015 BKN023 08/07 A3016 RMK AO2 SLP217 60000 70001 T00780067 10111 20078=
202005061056 METAR KPWT 061056Z AUTO 20016G20KT 10SM OVC060 08/06 A3014 RMK AO2 RAB09E46 SLP209 P0000 T00780061=
202005060956 METAR KPWT 060956Z AUTO 19013KT 10SM BKN050 BKN060 09/05 A3011 RMK AO2 SLP199 T00890050=
202005060929 SPECI KPWT 060929Z AUTO 20010G17KT 10SM SCT013 SCT026 BKN033 09/07 A3011 RMK AO2=
202005060919 SPECI KPWT 060919Z AUTO 19011G19KT 10SM SCT013 BKN026 OVC035 09/07 A3010 RMK AO2=
202005060856 METAR KPWT 060856Z AUTO 21012G19KT 10SM SCT040 09/07 RMK AO2 SLPNO T00940067 $=
202005060756 METAR KPWT 060756Z AUTO 21014G19KT 10SM CLR 10/07 A3008 RMK AO2 SLP188 T01000072 402110061=
202005060656 METAR KPWT 060656Z AUTO 21014G23KT 10SM CLR 11/07 A3006 RMK AO2 SLP182 T01060067=
202005060556 METAR KPWT 060556Z AUTO 21012KT 10SM CLR 11/08 A3005 RMK AO2 SLP180 60001 T01110078 10211 20111 53009=
202005060456 METAR KPWT 060456Z AUTO 22014KT 10SM CLR 12/09 A3004 RMK AO2 SLP177 T01220094=
202005060356 METAR KPWT 060356Z AUTO 22007KT 10SM FEW050 12/11 A3003 RMK AO2 SLP171 T01220106=
202005060256 METAR KPWT 060256Z AUTO 22006KT 10SM FEW040 13/12 A3003 RMK AO2 PK WND 23027/0224 TSB19E34RAB12E48 SLP171 P0001 60001 T01330117 53001=
202005060240 SPECI KPWT 060240Z AUTO 23011KT 10SM -RA FEW027 SCT045 BKN055 14/12 A3003 RMK AO2 PK WND 23027/0224 TSB19E34RAB12 P0001=
202005060225 SPECI KPWT 060225Z AUTO 24022G27KT 10SM -TSRA OVC055 17/10 A3001 RMK AO2 PK WND 23027/0224 TSB19RAB12 P0000=
202005060156 METAR KPWT 060156Z AUTO 21005KT 10SM CLR 19/08 A2999 RMK AO2 SLP158 T01890083=
202005060056 METAR KPWT 060056Z AUTO 22010KT 10SM CLR 21/08 A3001 RMK AO2 SLP164 T02060078=
202005052356 METAR KPWT 052356Z AUTO 21008KT 10SM CLR 21/08 A3002 RMK AO2 SLP169 T02060083 10211 20150 56020=
202005052256 METAR KPWT 052256Z AUTO 21009G15KT 10SM CLR 21/08 A3004 RMK AO2 SLP174 T02060078=
202005052156 METAR KPWT 052156Z AUTO 23008KT 10SM FEW055 20/08 A3006 RMK AO2 SLP181 T02000078=
202005052056 METAR KPWT 052056Z AUTO 16004KT 10SM CLR 18/07 A3008 RMK AO2 SLP190 T01830067 56021=
202005051956 METAR KPWT 051956Z AUTO 04005KT 10SM FEW070 17/07 A3010 RMK AO2 SLP194 T01720067=
202005051856 METAR KPWT 051856Z AUTO 06004KT 10SM SCT060 BKN080 16/08 A3013 RMK AO2 SLP205 T01610083=
202005051756 METAR KPWT 051756Z AUTO VRB05KT 10SM BKN075 15/08 A3014 RMK AO2 SLP211 T01500078 10150 20078 58016=
202005051656 METAR KPWT 051656Z AUTO 04008KT 10SM OVC060 12/07 A3016 RMK AO2 SLP219 T01220072=
202005051556 METAR KPWT 051556Z AUTO 04009KT 10SM SCT070 12/07 A3018 RMK AO2 SLP225 T01170072=
202005051456 METAR KPWT 051456Z AUTO 05008KT 10SM OVC042 11/07 A3019 RMK AO2 SLP228 T01060067 58006=
202005051356 METAR KPWT 051356Z AUTO 06007KT 10SM OVC044 09/08 A3020 RMK AO2 SLP231 T00940078=
202005051156 METAR KPWT 051156Z AUTO 00000KT 10SM BKN030 OVC042 08/07 A3021 RMK AO2 SLP233 60000 T00780072 10100 20061 53001=
202005051056 METAR KPWT 051056Z AUTO 00000KT 10SM SCT031 07/06 A3021 RMK AO2 SLP233 T00670061=
202005050956 METAR KPWT 050956Z AUTO 00000KT 10SM FEW041 09/07 A3020 RMK AO2 SLP231 T00890072=
202005050856 METAR KPWT 050856Z AUTO 21004KT 10SM FEW027 BKN080 08/07 A3020 RMK AO2 SLP232 60000 T00830072 51005=
202005050756 METAR KPWT 050756Z AUTO 24005KT 10SM BKN055 10/08 A3020 RMK AO2 RAB0657E22 SLP231 P0000 T01000078 401830000=
202005050656 METAR KPWT 050656Z AUTO 21003KT 10SM BKN037 BKN075 BKN100 09/08 A3019 RMK AO2 RAE15 SLP229 P0000 T00940078=
202005050556 METAR KPWT 050556Z AUTO 22005KT 10SM -RA BKN095 09/07 A3019 RMK AO2 RAB30 SLP228 P0000 60000 T00940072 10172 20094 50007=
202005050456 METAR KPWT 050456Z AUTO 22004KT 10SM FEW060 BKN100 09/07 A3019 RMK AO2 RAB25E53 SLP228 P0000 T00940072=
202005050356 METAR KPWT 050356Z AUTO 20006KT 10SM BKN110 11/06 A3019 RMK AO2 SLP227 T01110061=
202005050256 METAR KPWT 050256Z AUTO 24005KT 10SM BKN080 13/05 A3017 RMK AO2 SLP220 T01280050 53007=
202005050156 METAR KPWT 050156Z AUTO 22010KT 10SM BKN075 13/07 A3016 RMK AO2 SLP218 T01330072=
202005050056 METAR KPWT 050056Z AUTO 25008KT 10SM CLR 15/06 A3015 RMK AO2 SLP214 T01500061=
202005042356 METAR KPWT 042356Z AUTO 23007KT 10SM BKN090 16/04 A3015 RMK AO2 RAB29E39 SLP213 P0000 60000 T01610039 10183 20122 55000=
202005042256 METAR KPWT 042256Z AUTO VRB05KT 10SM CLR 18/03 A3014 RMK AO2 SLP211 T01780033=
202005042156 METAR KPWT 042156Z AUTO 30005KT 10SM CLR 18/04 A3014 RMK AO2 SLP210 T01830039=
202005042056 METAR KPWT 042056Z AUTO 01004KT 10SM CLR 16/04 A3015 RMK AO2 SLP213 T01610039 58016=
202005041956 METAR KPWT 041956Z AUTO 00000KT 10SM CLR 14/04 A3017 RMK AO2 SLP220 T01390039=
202005041856 METAR KPWT 041856Z AUTO 00000KT 10SM CLR 13/03 A3019 RMK AO2 SLP227 T01280033=
202005041756 METAR KPWT 041756Z AUTO 04007KT 10SM CLR 12/04 A3019 RMK AO2 SLP229 T01220044 10122 20000 58010=
202005041656 METAR KPWT 041656Z AUTO VRB03KT 10SM CLR 11/05 A3020 RMK AO2 SLP233 T01110050=
202005041556 METAR KPWT 041556Z AUTO 02003KT 10SM CLR 10/06 A3022 RMK AO2 SLP237 T01000061=
202005041456 METAR KPWT 041456Z AUTO 00000KT 10SM CLR 10/06 A3022 RMK AO2 SLP240 T01000061 58004=
202005041356 METAR KPWT 041356Z AUTO 00000KT 4SM BR CLR 04/04 A3023 RMK AO2 SLP242 T00440039=
202005041316 SPECI KPWT 041316Z AUTO 00000KT 4SM BR CLR 01/00 A3024 RMK AO2 FZRANO=
202005041309 SPECI KPWT 041309Z AUTO 00000KT 2SM BR CLR 01/00 A3024 RMK AO2 FZRANO=
202005041307 SPECI KPWT 041307Z AUTO 00000KT 3/4SM BR CLR 01/00 A3024 RMK AO2 FZRANO=
202005041253 METAR KPWT 041253Z AUTO 00000KT 1/4SM FG CLR 00/M01 A3024 RMK AO2 VIS M1/4V2 SLP248 T00001006 FZRANO=
202005041252 SPECI KPWT 041252Z AUTO 00000KT 1/4SM FG CLR 00/M01 A3024 RMK AO2 VIS M1/4V5 FZRANO=
202005041246 SPECI KPWT 041246Z AUTO 00000KT 3/4SM BR CLR 01/00 A3024 RMK AO2 FZRANO=
202005041156 METAR KPWT 041156Z AUTO 00000KT 7SM CLR 02/01 A3024 RMK AO2 SLP245 70004 T00170011 10044 20011 57012 FZRANO=
202005041056 METAR KPWT 041056Z AUTO 00000KT 6SM BR CLR 02/02 A3025 RMK AO2 SLP249 T00220017 FZRANO=
202005040956 METAR KPWT 040956Z AUTO 00000KT 10SM CLR 02/02 A3026 RMK AO2 SLP253 T00220017 FZRANO=
202005040856 METAR KPWT 040856Z AUTO 00000KT 10SM CLR 02/02 A3027 RMK AO2 SLP256 T00220022 57003 FZRANO=
202005040756 METAR KPWT 040756Z AUTO 00000KT 10SM CLR 04/03 A3027 RMK AO2 SLP257 T00390033 401330028=
202005040656 METAR KPWT 040656Z AUTO 00000KT 10SM CLR 04/03 A3028 RMK AO2 SLP259 T00390028=
202005040556 METAR KPWT 040556Z AUTO 00000KT 10SM CLR 04/03 A3028 RMK AO2 SLP260 T00440033 10128 20044 50000=
202005040456 METAR KPWT 040456Z AUTO 00000KT 10SM CLR 06/05 A3028 RMK AO2 SLP261 T00610050=
202005040356 METAR KPWT 040356Z AUTO 00000KT 10SM CLR 09/06 A3028 RMK AO2 SLP260 T00890056=
202005040256 METAR KPWT 040256Z AUTO 07003KT 10SM FEW028 SCT039 10/06 A3028 RMK AO2 SLP259 T01000061 51002=
202005040207 SPECI KPWT 040207Z AUTO 05008KT 6SM HZ FEW028 BKN034 11/06 A3028 RMK AO2=
202005040156 METAR KPWT 040156Z AUTO 04008KT 10SM BKN029 BKN070 11/06 A3028 RMK AO2 SLP258 T01060056=
202005040154 SPECI KPWT 040154Z AUTO 05009KT 10SM BKN029 BKN070 11/06 A3028 RMK AO2=
202005040056 METAR KPWT 040056Z AUTO 20006KT 10SM CLR 12/06 A3027 RMK AO2 SLP256 T01220056=
202005032356 METAR KPWT 032356Z AUTO 20013G16KT 10SM CLR 13/05 A3027 RMK AO2 SLP254 60000 T01280050 10133 20089 51000=
202005032256 METAR KPWT 032256Z AUTO 18010G16KT 10SM CLR 12/06 A3026 RMK AO2 SLP252 T01170056=
202005032156 METAR KPWT 032156Z AUTO 19013G18KT 10SM CLR 10/04 A3028 RMK AO2 RAE2059 SLP257 P0000 T01000044=
202005032056 METAR KPWT 032056Z AUTO 20010KT 10SM -RA SCT032 11/06 A3026 RMK AO2 RAB37 SLP253 P0000 60000 T01110056 51004=
202005031956 METAR KPWT 031956Z AUTO 20012G19KT 10SM CLR 12/04 A3026 RMK AO2 SLP252 T01170044=
202005031910 SPECI KPWT 031910Z AUTO 21015G19KT 10SM SCT019 SCT026 10/06 A3026 RMK AO2=
202005031856 METAR KPWT 031856Z AUTO 20013KT 10SM BKN021 BKN029 10/06 A3026 RMK AO2 SLP253 T01000056=
202005031837 SPECI KPWT 031837Z AUTO 19012G19KT 150V210 10SM BKN021 BKN030 11/06 A3026 RMK AO2=
202005031806 SPECI KPWT 031806Z AUTO 20011KT 10SM FEW016 SCT025 10/07 A3025 RMK AO2=
202005031756 METAR KPWT 031756Z AUTO 21010KT 10SM SCT016 BKN023 09/07 A3025 RMK AO2 SLP249 60004 T00940067 10100 20056 50005=
202005031753 SPECI KPWT 031753Z AUTO 19009KT 10SM SCT016 BKN023 09/07 A3025 RMK AO2=
202005031739 SPECI KPWT 031739Z AUTO 20009KT 10SM BKN014 BKN021 BKN026 09/06 A3025 RMK AO2=
202005031729 SPECI KPWT 031729Z AUTO 20010KT 10SM SCT012 BKN019 09/06 A3025 RMK AO2=
202005031656 METAR KPWT 031656Z AUTO 22014KT 10SM BKN012 OVC020 08/06 A3025 RMK AO2 SLP249 T00780061=
202005031556 METAR KPWT 031556Z AUTO 19006KT 10SM SCT006 OVC011 07/06 A3024 RMK AO2 SLP245 T00670056=
202005031552 SPECI KPWT 031552Z AUTO 19010KT 10SM SCT006 OVC011 07/05 A3023 RMK AO2=
202005031510 SPECI KPWT 031510Z AUTO VRB06KT 10SM BKN005 BKN040 06/05 A3021 RMK AO2=
202005031456 METAR KPWT 031456Z AUTO 18009KT 10SM SCT005 BKN040 06/05 A3021 RMK AO2 RAB00E38 SLP234 P0003 60004 T00610050 53022=
202005031446 SPECI KPWT 031446Z AUTO 18007KT 10SM FEW005 BKN038 06/06 A3021 RMK AO2 RAB00E38 P0003=
202005031438 SPECI KPWT 031438Z AUTO 19008KT 10SM SCT032 06/05 A3020 RMK AO2 RAB00E38 P0003=
202005031427 SPECI KPWT 031427Z AUTO 18008KT 10SM -RA BKN029 OVC035 06/05 A3020 RMK AO2 RAB00 P0002=
202005031356 METAR KPWT 031356Z AUTO 20013G20KT 10SM CLR 06/05 A3019 RMK AO2 SLP229 T00560050=
202005031304 SPECI KPWT 031304Z AUTO 19008KT 10SM FEW004 06/05 A3016 RMK AO2=
202005031256 METAR KPWT 031256Z AUTO 19008KT 10SM FEW110 06/05 A3016 RMK AO2 RAE19 SLP217 P0001 T00560050=
202005031211 SPECI KPWT 031211Z AUTO 21010KT 10SM -RA SCT004 OVC033 06/04 A3015 RMK AO2 P0001=
202005031156 METAR KPWT 031156Z AUTO 20009KT 10SM -RA BKN004 OVC013 06/06 A3014 RMK AO2 RAB49 SLP212 P0001 60001 7//// T00610056 10072 20056 53022=
202005031119 SPECI KPWT 031119Z AUTO 20007KT 10SM BKN004 BKN013 06/06 A3013 RMK AO2 CIG 003V008=
202005031112 SPECI KPWT 031112Z AUTO 19009KT 10SM SCT004 BKN010 BKN015 06/06 A3012 RMK AO2 CIG 009V012=
202005031104 SPECI KPWT 031104Z AUTO 19007KT 10SM FEW004 SCT010 BKN035 06/06 A3012 RMK AO2=
202005031056 METAR KPWT 031056Z AUTO 18008KT 10SM FEW012 06/05 A3011 RMK AO2 SLP202 T00610050=
202005030956 METAR KPWT 030956Z AUTO 19009KT 10SM FEW110 06/04 A3009 RMK AO2 SLP196 T00610044=
202005030856 METAR KPWT 030856Z AUTO 21012KT 10SM CLR 06/04 A3008 RMK AO2 SLP190 T00610044 51023=
202005030756 METAR KPWT 030756Z AUTO 20011KT 10SM CLR 07/05 A3006 RMK AO2 SLP184 T00670050 401280061=
202005030656 METAR KPWT 030656Z AUTO 21012KT 10SM CLR 07/06 A3003 RMK AO2 SLP175 T00720056=
202005030556 METAR KPWT 030556Z AUTO 20011KT 10SM CLR 07/05 A3001 RMK AO2 SLP166 6//// T00720050 10122 20072 51029=
202005030456 METAR KPWT 030456Z AUTO 21010KT 10SM CLR 07/05 A2998 RMK AO2 SLP159 T00720050=
202005030356 METAR KPWT 030356Z AUTO 20013G18KT 10SM CLR 08/05 A2995 RMK AO2 SLP149 T00830050=
202005030256 METAR KPWT 030256Z AUTO 21015G22KT 10SM CLR 10/06 A2992 RMK AO2 SLP138 60000 T01000056 53014=
202005030156 METAR KPWT 030156Z AUTO 21017G22KT 10SM CLR 12/07 A2990 RMK AO2 SLP130 T01170072=
202005030056 METAR KPWT 030056Z AUTO 23014G23KT 10SM FEW016 SCT024 12/09 A2988 RMK AO2 RAB05E38 SLP124 P0000 T01220089=
202005030038 SPECI KPWT 030038Z AUTO 23013KT 10SM SCT018 SCT026 BKN055 12/09 A2988 RMK AO2 RAB05E38 P0000=
202005022356 METAR KPWT 022356Z AUTO 21014G19KT 10SM SCT013 BKN017 BKN023 12/09 A2988 RMK AO2 SLP122 60040 T01170094 10122 20100 51022=
202005022339 SPECI KPWT 022339Z AUTO 19011G17KT 10SM BKN011 BKN017 11/09 A2987 RMK AO2=
202005022305 SPECI KPWT 022305Z AUTO 20013G20KT 10SM SCT009 10/09 A2985 RMK AO2=
202005022256 METAR KPWT 022256Z AUTO 20014KT 10SM BKN009 10/09 A2985 RMK AO2 RAE27 CIG 006V011 SLP113 P0001 T01000094=
202005022251 SPECI KPWT 022251Z AUTO 22015KT 10SM BKN009 10/09 A2985 RMK AO2 RAE27 CIG 006V011 P0001=
202005022237 SPECI KPWT 022237Z AUTO 21013G20KT 7SM SCT007 BKN011 BKN034 10/09 A2985 RMK AO2 RAE27 P0001=
202005022230 SPECI KPWT 022230Z AUTO 21017KT 8SM BKN011 BKN016 OVC029 11/09 A2985 RMK AO2 RAE27 CIG 006V013 P0001=
202005022156 METAR KPWT 022156Z AUTO 23014G23KT 10SM -RA FEW009 BKN018 OVC065 11/10 A2981 RMK AO2 SLP100 P0010 T01110100=
202005022149 SPECI KPWT 022149Z AUTO 21018G23KT 9SM -RA FEW009 BKN022 OVC060 12/11 A2981 RMK AO2 PRESRR P0010=
202005022127 SPECI KPWT 022127Z AUTO 18006KT 10SM -RA FEW007 BKN035 BKN060 12/11 A2979 RMK AO2 P0009=
202005022102 SPECI KPWT 022102Z AUTO 19007KT 6SM -RA BR SCT006 BKN029 OVC033 12/11 A2980 RMK AO2 P0003=
202005022056 METAR KPWT 022056Z AUTO 20007KT 7SM -RA BKN006 BKN012 OVC033 12/11 A2980 RMK AO2 CIG 003V008 SLP094 P0012 60029 T01220111 55002=
202005022030 SPECI KPWT 022030Z AUTO 25008KT 5SM -RA BR BKN006 BKN030 OVC045 12/11 A2978 RMK AO2 CIG 005V013 P0004=
202005021956 METAR KPWT 021956Z AUTO 24007KT 10SM -RA FEW008 BKN042 OVC049 12/11 A2978 RMK AO2 SLP088 P0002 T01220111=
202005021920 SPECI KPWT 021920Z AUTO 27003KT 10SM -RA SCT004 BKN045 OVC055 12/11 A2979 RMK AO2 P0001=
202005021856 METAR KPWT 021856Z AUTO 22003KT 6SM -RA BR BKN004 OVC031 12/11 A2980 RMK AO2 CIG 003V009 SLP095 P0015 T01170111=
202005021820 SPECI KPWT 021820Z AUTO 22005KT 8SM -RA BKN004 BKN009 OVC029 12/11 A2981 RMK AO2 P0006=
202005021805 SPECI KPWT 021805Z AUTO 25005KT 5SM -RA BR SCT004 BKN009 OVC034 11/11 A2980 RMK AO2 CIG 006V012 P0004=
202005021756 METAR KPWT 021756Z AUTO 24006KT 6SM -RA BR BKN004 BKN009 OVC022 12/11 A2980 RMK AO2 RAB17 SLP096 P0005 60032 T01170111 10128 20094 55009=
202005021735 SPECI KPWT 021735Z AUTO 25008KT 9SM -RA FEW009 BKN027 BKN040 12/11 A2980 RMK AO2 RAB17 P0001=
202005021656 METAR KPWT 021656Z AUTO 00000KT 10SM SCT070 12/11 A2979 RMK AO2 RAB10E23 SLP092 P0000 T01220106=
202005021556 METAR KPWT 021556Z AUTO 00000KT 10SM FEW055 SCT075 11/11 A2980 RMK AO2 RAE41 SLP097 P0009 T01110106=
202005021456 METAR KPWT 021456Z AUTO 00000KT 10SM -RA FEW027 SCT032 10/09 A2983 RMK AO2 RAB07 SLP105 P0009 60018 T01000094 58019=
202005021446 SPECI KPWT 021446Z AUTO 36004KT 8SM -RA BKN030 10/09 A2984 RMK AO2 RAB07 PRESFR P0009=
202005021431 SPECI KPWT 021431Z AUTO 30004KT 4SM -RA BR BKN028 OVC035 10/09 A2986 RMK AO2 RAB07 P0006=
202005021356 METAR KPWT 021356Z AUTO 07004KT 10SM BKN042 10/09 A2985 RMK AO2 RAE43 SLP112 P0005 T01000094=
202005021309 SPECI KPWT 021309Z AUTO 00000KT 3SM -RA BR SCT023 SCT031 BKN039 09/09 A2986 RMK AO2 P0005=
202005021303 SPECI KPWT 021303Z AUTO 00000KT 1 3/4SM -RA BR SCT023 SCT031 OVC039 09/09 A2987 RMK AO2 VIS 1 1/4V5 P0003=
202005021256 METAR KPWT 021256Z AUTO 00000KT 4SM -RA BR FEW023 BKN037 OVC045 09/09 A2987 RMK AO2 RAB22 SLP117 P0004 T00940089=
202005021156 METAR KPWT 021156Z AUTO 00000KT 10SM SCT030 SCT040 OVC055 10/09 A2989 RMK AO2 SLP123 60002 7//// T01000089 10122 20094 58015=
202005021056 METAR KPWT 021056Z AUTO 19004KT 10SM FEW021 SCT045 BKN060 09/09 A2991 RMK AO2 RAE51 SLP132 P0001 T00940089=
202005020956 METAR KPWT 020956Z AUTO 27003KT 10SM -RA FEW045 BKN060 10/08 A2992 RMK AO2 SLP134 P0001 T01000083=
202005020856 METAR KPWT 020856Z AUTO 27003KT 10SM -RA SCT049 SCT070 11/08 A2993 RMK AO2 RAE23B44 SLP140 P0000 60000 T01110078 56018=
202005020756 METAR KPWT 020756Z AUTO 00000KT 10SM -RA FEW036 BKN065 BKN075 10/08 A2995 RMK AO2 RAB51 SLP146 P0000 T01000083 401720033=
202005020656 METAR KPWT 020656Z AUTO 29004KT 10SM SCT050 BKN065 12/06 A2996 RMK AO2 SLP150 T01170061=
202005020556 METAR KPWT 020556Z AUTO 00000KT 10SM SCT041 OVC055 11/07 A2999 RMK AO2 RAB34E53 SLP158 P0000 6//// T01060072 10172 20094 58007=
202005020456 METAR KPWT 020456Z AUTO 00000KT 10SM FEW049 SCT080 09/05 A3000 RMK AO2 SLP163 T00940050=
202005020356 METAR KPWT 020356Z AUTO 22003KT 10SM FEW050 BKN060 12/03 A3001 RMK AO2 SLP167 T01170028=
202005020256 METAR KPWT 020256Z AUTO 20006KT 10SM OVC060 14/03 A3001 RMK AO2 SLP166 6//// T01440033 55002=
202005020156 METAR KPWT 020156Z AUTO 19006KT 10SM OVC060 16/03 A3000 RMK AO2 SLP165 T01560033=
202005020056 METAR KPWT 020056Z AUTO 21007KT 10SM BKN090 16/04 A3001 RMK AO2 SLP168 T01610039=
202005012356 METAR KPWT 012356Z AUTO 22006KT 10SM SCT085 17/05 A3001 RMK AO2 SLP167 T01720050 10172 20133 56011=
202005012256 METAR KPWT 012256Z AUTO 25008KT 10SM SCT080 SCT095 17/04 A3002 RMK AO2 SLP170 T01670044=
202005012156 METAR KPWT 012156Z AUTO 25008KT 10SM FEW095 16/04 A3003 RMK AO2 SLP173 T01560039=
202005012056 METAR KPWT 012056Z AUTO 20008G16KT 10SM CLR 16/03 A3005 RMK AO2 SLP180 T01560033 56011=
202005011956 METAR KPWT 011956Z AUTO 21010G17KT 10SM CLR 16/03 A3005 RMK AO2 SLP181 T01610033=
202005011856 METAR KPWT 011856Z AUTO 22010KT 10SM CLR 15/04 A3006 RMK AO2 SLP185 T01500044=
202005011756 METAR KPWT 011756Z AUTO VRB04KT 10SM CLR 13/04 A3008 RMK AO2 SLP190 T01330044 10133 20050 56004=
202005011656 METAR KPWT 011656Z AUTO 21004KT 10SM FEW018 12/07 A3008 RMK AO2 SLP191 T01170067=
202005011556 METAR KPWT 011556Z AUTO 14003KT 10SM CLR 10/07 A3008 RMK AO2 SLP190 T01000067=
202005011521 SPECI KPWT 011521Z AUTO 00000KT 10SM SCT004 08/07 A3009 RMK AO2=
202005011504 SPECI KPWT 011504Z AUTO 00000KT 10SM BKN004 08/07 A3009 RMK AO2=
202005011456 METAR KPWT 011456Z AUTO 00000KT 10SM SCT004 08/07 A3009 RMK AO2 SLP194 T00780067 58006=
202005011449 SPECI KPWT 011449Z AUTO 27004KT 10SM SCT004 08/06 A3009 RMK AO2=
202005011356 METAR KPWT 011356Z AUTO 00000KT 10SM CLR 06/06 A3010 RMK AO2 SLP197 T00610056=
202005011306 SPECI KPWT 011306Z AUTO 00000KT 10SM FEW007 06/05 A3010 RMK AO2=
202005011256 METAR KPWT 011256Z AUTO 00000KT 10SM BKN007 06/06 A3010 RMK AO2 SLP198 T00610056=
202005011220 SPECI KPWT 011220Z AUTO 19003KT 10SM OVC007 07/06 A3010 RMK AO2=
202005011156 METAR KPWT 011156Z AUTO 00000KT 10SM OVC005 07/07 A3011 RMK AO2 SLP201 7//// T00670067 10072 20033 58004=
202005011142 SPECI KPWT 011142Z AUTO 00000KT 10SM OVC005 07/07 A3011 RMK AO2 CIG 003V007=
202005011056 METAR KPWT 011056Z AUTO 00000KT 8SM OVC003 07/07 A3011 RMK AO2 SLP203 T00670067=
202005010956 METAR KPWT 010956Z AUTO 00000KT 10SM OVC003 06/06 A3012 RMK AO2 SLP204 T00560056=
202005010944 SPECI KPWT 010944Z AUTO 13003KT 10SM OVC003 05/05 A3012 RMK AO2=
202005010856 METAR KPWT 010856Z AUTO 00000KT 10SM OVC005 04/04 A3012 RMK AO2 SLP204 T00440044 56009=
202005010842 SPECI KPWT 010842Z AUTO 00000KT 10SM BKN005 04/04 A3012 RMK AO2=
202005010817 SPECI KPWT 010817Z AUTO 00000KT 10SM BKN007 04/03 A3012 RMK AO2=
202005010808 SPECI KPWT 010808Z AUTO 00000KT 10SM SCT007 04/04 A3012 RMK AO2=
202005010756 METAR KPWT 010756Z AUTO 00000KT 10SM CLR 04/04 A3012 RMK AO2 SLP206 T00440039 401390039=
202005010728 SPECI KPWT 010728Z AUTO 00000KT 3SM BR CLR 06/06 A3013 RMK AO2=
202005010718 SPECI KPWT 010718Z AUTO 00000KT 1 1/2SM BR CLR 05/04 A3013 RMK AO2=
202005010656 METAR KPWT 010656Z AUTO 00000KT 10SM CLR 06/06 A3013 RMK AO2 SLP209 T00610056=
202005010556 METAR KPWT 010556Z AUTO 19003KT 10SM CLR 07/06 A3015 RMK AO2 SLP213 T00720061 10133 20067 50012=
202005010456 METAR KPWT 010456Z AUTO 20005KT 10SM FEW013 08/06 A3015 RMK AO2 SLP214 T00780061=
202005010356 METAR KPWT 010356Z AUTO 22006KT 10SM CLR 09/06 A3014 RMK AO2 SLP210 T00890061=
202005010256 METAR KPWT 010256Z AUTO 21012KT 10SM CLR 10/06 A3011 RMK AO2 SLP203 T01000061 51006=
202005010156 METAR KPWT 010156Z AUTO 21013KT 10SM CLR 12/07 A3011 RMK AO2 SLP200 T01170067=
202005010056 METAR KPWT 010056Z AUTO 23018KT 10SM CLR 12/06 A3010 RMK AO2 PK WND 23028/0020 SLP198 T01220056=

# No short TAF reports from KPWT in databse.

###################################
#  large TAF from KPWT
###################################
202005312320 TAF KPWT 312320Z 0100/0124 04006KT P6SM SCT050 OVC060 FM010700
                       VRB02KT P6SM BKN050 BKN200=
202005311720 TAF KPWT 311720Z 3118/0118 01006KT P6SM OVC007 FM312100 21006KT
                       P6SM SCT010 SCT020 BKN050 FM010000 04006KT
                       P6SM SCT050 BKN250 FM010700 VRB02KT P6SM
                       BKN050 BKN200=
202005311127 TAF KPWT 311127Z 3112/0112 20004KT 6SM -RA BR OVC006
                      TEMPO 3112/3116 4SM -RA BR OVC003 FM311800
                       19008KT P6SM SCT007 OVC015 FM312100 21006KT
                       P6SM SCT020 BKN050 FM010000 04006KT P6SM
                       SCT050 BKN250 FM010700 VRB02KT P6SM BKN050
                       BKN200=
202005310545 TAF KPWT 310545Z 3106/0106 12004KT P6SM -RA OVC003 FM310800 18010KT
                       P6SM VCSH OVC010 FM311600 19008KT P6SM SCT007
                       OVC015=
202005310321 KPWT 310321Z 3103/3124 17007KT P6SM -SHRA BKN005 OVC010 FM310800
                       18010KT P6SM VCSH OVC010 FM311600 19008KT
                       P6SM SCT007 OVC015=
202005302320 TAF KPWT 302320Z 3100/3124 VRB03KT P6SM -SHRA SCT010 OVC025 FM310200
                       19012KT 4SM -SHRA BR OVC015 FM310800 18010KT
                       P6SM VCSH OVC010 FM311600 19008KT P6SM SCT007
                       OVC015=
202005301726 TAF KPWT 301726Z 3018/3118 VRB05KT P6SM VCSH SCT035 BKN060 OVC100
                       TEMPO 3018/3022 -TSRA SCT025 BKN050CB FM302200
                       VRB03KT P6SM -SHRA OVC030 FM310200 19012KT
                       4SM -SHRA BR OVC015 FM310800 18010KT P6SM
                       VCSH OVC010=
202005301432 KPWT 301432Z 3015/3112 19003KT P6SM VCTS SCT090CB BKN120 OVC250
                       FM301700 VRB05KT P6SM VCTS BKN050CB OVC100
                       FM302200 VRB03KT P6SM -SHRA OVC030 FM310200
                       19012KT 4SM -SHRA BR OVC015=
202005301121 TAF KPWT 301121Z 3012/3112 19003KT P6SM BKN120 OVC250 FM301700
                       VRB05KT P6SM VCSH BKN050 OVC100 FM302200
                       VRB03KT P6SM -SHRA OVC030 FM310200 19012KT
                       4SM -SHRA BR OVC015=
202005300520 TAF KPWT 300520Z 3006/3106 06004KT P6SM SCT150 BKN250 FM301700
                       VRB05KT P6SM VCSH BKN050 OVC100 FM302200
                       VRB03KT P6SM -SHRA OVC030 FM310200 19012KT
                       4SM -SHRA BR OVC015=
202005292321 TAF KPWT 292321Z 3000/3024 06007KT P6SM SCT150 BKN250 FM300400
                       VRB03KT P6SM BKN150 BKN250 FM301700 VRB05KT
                       P6SM VCSH BKN050 OVC100 FM302200 13005KT
                       6SM -RA OVC030=
202005291721 TAF KPWT 291721Z 2918/3018 02007KT P6SM SCT150 BKN250 FM300400
                       VRB03KT P6SM BKN150 BKN250 FM301700 VRB04KT
                       P6SM VCSH BKN050 OVC100=
202005291120 TAF KPWT 291120Z 2912/3012 VRB03KT P6SM BKN250 FM292000 02007KT
                       P6SM BKN250 FM300400 VRB03KT P6SM BKN250=
202005290524 TAF KPWT 290524Z 2906/3006 VRB03KT P6SM BKN200 FM292000 02007KT
                       P6SM BKN200 FM300400 VRB03KT P6SM BKN200=
202005282320 TAF KPWT 282320Z 2900/2924 04008KT P6SM BKN200 FM290600 VRB04KT
                       P6SM BKN200 FM292000 04008KT P6SM BKN200=
202005281721 TAF KPWT 281721Z 2818/2918 04007KT P6SM BKN150 FM290400 03006KT
                       P6SM SCT200 FM290800 00000KT P6SM SKC FM291300
                       21005KT P6SM SCT010 FM291700 25005KT P6SM
                       SCT020=
202005281122 TAF KPWT 281122Z 2812/2912 03006KT P6SM SCT250 FM281800 03008KT
                       P6SM SCT250 FM290300 VRB03KT P6SM FEW250=
202005280520 TAF KPWT 280520Z 2806/2906 03006KT P6SM SCT250 FM281800 03008KT
                       P6SM SCT250 FM290300 VRB03KT P6SM FEW250=
202005272320 TAF KPWT 272320Z 2800/2824 03012KT P6SM BKN250 FM280600 03006KT
                       P6SM SCT250 FM281800 03012KT P6SM SCT250=
202005271720 TAF KPWT 271720Z 2718/2818 05012KT P6SM SCT250 FM280500 05006KT
                       P6SM SKC=
202005271120 TAF KPWT 271120Z 2712/2812 00000KT P6SM SCT250 FM271700 04006KT
                       P6SM SCT250 FM280300 00000KT P6SM FEW250=
202005270605 TAF KPWT 270605Z 2706/2806 04006KT P6SM SCT200 FM271700 36006KT
                       P6SM SCT200=
202005262320 TAF KPWT 262320Z 2700/2724 VRB04KT P6SM BKN035 FM270200 02006KT
                       P6SM SCT040 SCT200 FM270600 04006KT P6SM
                       SCT200 FM271700 36006KT P6SM SCT200=
202005262208 KPWT 262208Z 2622/2718 VRB04KT P6SM BKN035 FM270200 02006KT P6SM
                       SCT040 SCT200 FM270600 04006KT P6SM SCT200
                       FM271700 36006KT P6SM SCT200=
202005261720 TAF KPWT 261720Z 2618/2718 02006KT P6SM OVC010 FM262000 02008KT
                       P6SM BKN020 FM262200 02006KT P6SM BKN030
                       FM270200 02006KT P6SM SCT040 SCT200 FM270600
                       04006KT P6SM SCT200 FM271700 36006KT P6SM
                       SCT200=
202005261120 TAF KPWT 261120Z 2612/2712 06004KT 5SM BR OVC004 FM261800 04005KT
                       P6SM BKN015 BKN030 FM262100 04005KT P6SM
                       SCT030 BKN050 FM270300 00000KT P6SM BKN250=
202005260608 TAF KPWT 260608Z 2606/2706 20010KT P6SM OVC019 FM260900 19004KT
                       P6SM OVC007 FM261700 03003KT P6SM OVC015=
202005252324 TAF KPWT 252324Z 2600/2624 20010KT P6SM OVC019 FM260900 19004KT
                       P6SM OVC007 FM261700 03003KT P6SM OVC015=
202005251720 TAF KPWT 251720Z 2518/2618 20008KT 5SM -SHRA BKN006
                      TEMPO 2518/2520 5SM -RA BR OVC007 FM252300
                       20008KT 6SM -SHRA BR OVC025 FM260700 VRB04KT
                       P6SM VCSH OVC025 FM261000 10003KT P6SM OVC007=
202005251125 TAF KPWT 251125Z 2512/2612 19004KT P6SM -RA SCT020 OVC035
                      TEMPO 2512/2514 BKN017 OVC030 FM251400 17005KT
                       6SM -RA BR OVC015 FM251600 19006KT 5SM -RA
                       BR OVC009 FM252300 20008KT 6SM -SHRA BR
                       BKN012 OVC025 FM260700 VRB04KT P6SM VCSH
                       BKN015 BKN035=
202005250539 TAF KPWT 250539Z 2506/2606 19003KT P6SM OVC060 FM251100 19006KT
                       P6SM -RA OVC035 FM251300 17005KT 6SM -RA
                       BR OVC012 FM251700 19006KT 5SM -RA BR OVC007
                       FM252300 20008KT 6SM -SHRA BR BKN012 OVC025=
202005242328 TAF KPWT 242328Z 2500/2524 20005KT P6SM BKN080 OVC120 FM250400
                       20005KT P6SM BKN060 OVC100 FM251100 19006KT
                       P6SM -RA OVC020 FM251700 17005KT 4SM RA
                       BR OVC010=
202005241720 TAF KPWT 241720Z 2418/2518 VRB03KT P6SM VCSH BKN080 FM242100 20005KT
                       P6SM BKN080 OVC120 FM250400 20005KT P6SM
                       BKN060 OVC100 FM251100 19006KT P6SM -RA
                       OVC020 FM251700 17005KT 4SM RA BR OVC010=
202005241120 TAF KPWT 241120Z 2412/2512 04005KT P6SM BKN070 OVC120 FM241600
                       VRB03KT P6SM BKN060 OVC100 FM242100 20005KT
                       P6SM BKN080 OVC120 FM250400 20005KT P6SM
                       BKN060 OVC100 FM251100 19006KT P6SM -RA
                       OVC020=
202005240550 TAF KPWT 240550Z 2406/2506 VRB04KT P6SM SCT050 SCT120 BKN200 FM241200
                       VRB03KT P6SM OVC120 FM241700 20005KT P6SM
                       BKN100 OVC200 FM250200 21008KT P6SM BKN080
                       OVC120=
202005232338 TAF KPWT 232338Z 2400/2424 22006KT P6SM BKN060 BKN120 FM240400
                       VRB04KT P6SM BKN100 FM241700 20005KT P6SM
                       BKN100=
202005231744 TAF KPWT 231744Z 2318/2418 VRB03KT P6SM OVC020 FM232000 20006KT
                       P6SM BKN035 BKN060 FM240000 22006KT P6SM
                       BKN060 BKN120 FM240400 VRB04KT P6SM BKN100=
202005231121 TAF KPWT 231121Z 2312/2412 VRB03KT P6SM OVC009 FM231600 18004KT
                       P6SM BKN014 BKN025 FM232000 20006KT P6SM
                       BKN035 BKN060 FM240000 22006KT P6SM BKN060
                       BKN120 FM240400 VRB04KT P6SM BKN100=
202005230532 TAF KPWT 230532Z 2306/2406 07007KT P6SM OVC025 FM230900 15004KT
                       P6SM OVC018 FM231200 18005KT P6SM OVC012
                       FM232000 20006KT P6SM BKN030 BKN050 FM240200
                       20005KT P6SM BKN060 BKN120=
202005222327 TAF KPWT 222327Z 2300/2324 20010KT P6SM SCT030 BKN050 FM230700
                       17006KT P6SM BKN030 FM231000 17004KT P6SM
                       OVC020 FM231200 00000KT P6SM OVC020 FM232000
                       20004KT P6SM OVC050=
202005221738 TAF KPWT 221738Z 2218/2318 19005KT P6SM SCT020 BKN050 FM222300
                       20010KT P6SM SCT030 BKN050 FM230700 17006KT
                       P6SM BKN030 FM231000 17004KT P6SM OVC020=
202005221120 TAF KPWT 221120Z 2212/2312 18005KT P6SM SCT005 BKN017 OVC050
                      TEMPO 2212/2216 2SM BR BKN004 OVC012 FM221900
                       19008KT P6SM BKN025 BKN050 FM222300 20010KT
                       P6SM SCT030 BKN050 FM230700 17006KT P6SM
                       BKN030 FM231000 17004KT P6SM OVC020=
202005220522 TAF KPWT 220522Z 2206/2306 VRB03KT P6SM SCT040 BKN090
                      TEMPO 2206/2209 1 1/2SM BR FM220900 18007KT
                       P6SM VCSH SCT022 BKN035 FM221200 18006KT
                       P6SM BKN022 OVC035 FM221900 18010KT P6SM
                       SCT030 BKN050=
202005220302 KPWT 220302Z 2203/2224 VRB03KT P6SM SCT040 BKN090
                      TEMPO 2203/2205 -SHRA OVC040 FM220700 18008KT
                       P6SM SCT012 BKN020 OVC035 FM221900 18008KT
                       P6SM SCT030 BKN045=
202005212334 TAF KPWT 212334Z 2200/2224 03006KT P6SM SCT020 BKN050 FM220300
                       VRB03KT P6SM -SHRA BKN015 OVC025 FM220700
                       18008KT P6SM SCT012 BKN020 OVC035 FM221900
                       18008KT P6SM SCT030 BKN045=
202005212112 KPWT 212112Z 2121/2218 03006KT P6SM SCT020 BKN035 BKN050 FM220300
                       18008KT P6SM -SHRA BKN015 OVC025 FM220700
                       18008KT P6SM SCT012 BKN020 OVC035=
202005211733 TAF KPWT 211733Z 2118/2218 VRB03KT P6SM SCT015 BKN025 OVC040 FM212300
                       18008KT P6SM -SHRA BKN015 OVC025 FM220700
                       18008KT P6SM SCT012 BKN020 OVC035=
202005211133 TAF KPWT 211133Z 2112/2212 20007KT P6SM VCSH OVC010 FM211800 18009KT
                       P6SM -SHRA OVC015 FM212000 19011KT P6SM
                       -SHRA BKN025 OVC040 FM220500 17008KT P6SM
                       VCSH BKN022 OVC040 FM221000 17008KT P6SM
                       VCSH OVC014=
202005210524 TAF KPWT 210524Z 2106/2206 21011KT P6SM VCSH SCT030 BKN060
                      TEMPO 2106/2109 BKN028 OVC040 FM210900 21010KT
                       P6SM VCSH BKN028 OVC045 FM211400 17010KT
                       P6SM -SHRA OVC025 FM212000 19011KT P6SM
                       -SHRA BKN030 OVC050 FM220400 19008KT P6SM
                       VCSH BKN027 OVC045=
202005210306 KPWT 210306Z 2103/2124 22014G22KT P6SM SCT030 BKN060
                      TEMPO 2103/2106 BKN030 OVC060 FM210900 21010KT
                       P6SM BKN025 OVC050 FM211500 17010KT P6SM
                       -SHRA OVC025 FM212000 19009G17KT P6SM -SHRA
                       OVC050=
202005202324 TAF KPWT 202324Z 2100/2124 21012KT P6SM OVC025 FM210300 18010KT
                       P6SM OVC030 FM211100 17010KT P6SM -SHRA
                       OVC025 FM212000 19009G17KT P6SM -SHRA OVC050=
202005202001 KPWT 202001Z 2020/2118 VRB06KT P6SM BKN020 OVC030 FM202300 20014G23KT
                       P6SM SCT025 BKN035 FM210600 18010KT P6SM
                       OVC030 FM211100 17010KT P6SM -SHRA OVC025=
202005201722 TAF KPWT 201722Z 2018/2118 VRB05KT P6SM OVC007 FM202000 21009G16KT
                       P6SM OVC025 FM202300 20014G23KT P6SM SCT025
                       BKN035 FM210600 18010KT P6SM OVC030 FM211100
                       17010KT P6SM -SHRA OVC025=
202005201120 TAF KPWT 201120Z 2012/2112 18008KT P6SM OVC007 FM201900 22014G23KT
                       P6SM BKN020 FM202300 20014G23KT P6SM SCT020
                       BKN035 FM210600 18010KT P6SM OVC020=
202005200650 KPWT 200650Z 2007/2106 23010KT P6SM BKN009 FM200900 18008KT P6SM
                       OVC007 FM201900 22014G23KT P6SM BKN020 FM202300
                       20014G23KT P6SM SCT020 BKN035=
202005200520 TAF KPWT 200520Z 2006/2106 23010KT P6SM BKN050 FM200900 18008KT
                       P6SM OVC010 FM201900 22014G23KT P6SM BKN020
                       FM202300 20014G23KT P6SM SCT020 BKN035=
202005200257 KPWT 200257Z 2003/2024 23010KT P6SM BKN040 FM200800 18008KT P6SM
                       OVC015 FM201900 22014G25KT P6SM BKN030=
202005192320 TAF KPWT 192320Z 2000/2024 VRB04KT P6SM BKN040 FM200800 18008KT
                       P6SM OVC022 FM202200 22007KT P6SM BKN040=
202005192000 KPWT 192000Z 1920/2018 20007KT P6SM BKN035 FM200500 18007KT P6SM
                       BKN025 FM201000 18007KT P6SM OVC020=
202005191720 TAF KPWT 191720Z 1918/2018 18007KT P6SM BKN018 FM192200 22007KT
                       P6SM BKN030 FM200500 18007KT P6SM BKN025
                       FM201000 18007KT P6SM OVC020=
202005191120 TAF KPWT 191120Z 1912/2012 18007KT P6SM OVC010 FM191800 18007KT
                       P6SM BKN010 OVC040 FM192200 21004KT P6SM
                       SCT025 BKN040 FM200600 17003KT P6SM OVC020=
202005190848 KPWT 190848Z 1909/2006 VRB04KT P6SM BKN010 FM191200 18007KT P6SM
                       OVC007 FM191800 18007KT P6SM BKN010 OVC040
                       FM192200 21007KT P6SM SCT025 BKN040=
202005190520 TAF KPWT 190520Z 1906/2006 VRB04KT P6SM SCT050 SCT200 FM190900
                       18007KT P6SM BKN015 FM191200 18007KT P6SM
                       OVC012 FM191800 18007KT P6SM BKN020 OVC040
                       FM192200 21007KT P6SM SCT025 BKN040=
202005182320 TAF KPWT 182320Z 1900/1924 VRB04KT P6SM SCT040 SCT200 FM190900
                       18007KT P6SM BKN015 FM191200 18007KT P6SM
                       OVC012 FM191800 18007KT P6SM BKN020 OVC040
                       FM192200 21007KT P6SM SCT025 BKN040=
202005181720 TAF KPWT 181720Z 1818/1918 03008KT P6SM SCT020 BKN200 FM182100
                       03008KT P6SM SCT040 BKN120 FM190500 21005KT
                       P6SM BKN040 BKN120 FM190900 18008KT P6SM
                       BKN012 OVC040 FM191700 23007KT P6SM BKN018
                       OVC030=
202005181120 TAF KPWT 181120Z 1812/1912 00000KT P6SM SCT090
                      TEMPO 1812/1816 1SM BR FM181800 03005KT P6SM
                       FEW050 BKN200 FM182100 09007KT P6SM BKN050
                       BKN200 FM190000 16005KT P6SM SCT050 BKN200
                       FM190500 VRB03KT P6SM SCT030 BKN050=
202005180932 KPWT 180932Z 1810/1906 00000KT P6SM SCT090
                      TEMPO 1810/1814 1 1/2SM BR FM181800 03005KT
                       P6SM FEW050 BKN200 FM182100 19007KT P6SM
                       BKN050 BKN200 FM190000 18008KT P6SM SCT050
                       BKN200=
202005180524 TAF KPWT 180524Z 1806/1906 00000KT P6SM SCT090 FM181800 03005KT
                       P6SM FEW050 BKN200 FM182100 19007KT P6SM
                       BKN050 BKN200 FM190000 18008KT P6SM SCT050
                       BKN200=
202005172322 TAF KPWT 172322Z 1800/1824 02005KT P6SM FEW050 BKN080 FM180500
                       00000KT P6SM SCT090 FM181800 03005KT P6SM
                       FEW050 BKN200 FM182100 05007KT P6SM BKN050
                       BKN200=
202005171720 TAF KPWT 171720Z 1718/1818 VRB04KT P6SM VCSH SCT016 BKN060
                      TEMPO 1718/1720 BKN016 OVC060 FM172000 20005KT
                       P6SM VCSH SCT040 BKN070 FM180100 VRB03KT
                       P6SM SCT040 BKN070=
202005171504 KPWT 171504Z 1715/1812 21008KT P6SM VCSH SCT008 BKN060
                      TEMPO 1715/1719 BKN008 OVC060 FM172000 20005KT
                       P6SM VCSH SCT040 BKN070 FM180100 VRB03KT
                       P6SM SCT040 BKN070=
202005171120 TAF KPWT 171120Z 1712/1812 20008KT P6SM VCSH SCT007 OVC030 FM171500
                       17003KT P6SM VCSH BKN035 BKN070 FM172000
                       20005KT P6SM VCSH SCT040 BKN070 FM180100
                       VRB03KT P6SM SCT040 BKN070=
202005170525 TAF KPWT 170525Z 1706/1806 22003KT P6SM -SHRA OVC015 FM171500 17003KT
                       P6SM VCSH BKN035 BKN070 FM172000 20005KT
                       P6SM VCSH SCT040 BKN070 FM180100 VRB03KT
                       P6SM SCT040 BKN070=
202005162323 TAF KPWT 162323Z 1700/1724 03005KT P6SM -SHRA BKN070 OVC100 FM170300
                       18004KT P6SM -SHRA OVC040 FM170600 17003KT
                       P6SM -SHRA OVC015 FM171500 17003KT P6SM
                       VCSH BKN035 BKN070 FM172000 20005KT P6SM
                       VCSH SCT040 BKN070=
202005161728 TAF KPWT 161728Z 1618/1718 03006KT P6SM -RA SCT035 BKN045 OVC060
                       FM170400 18004KT P6SM -SHRA OVC035 FM170900
                       20003KT P6SM -SHRA OVC020 FM171700 20005KT
                       P6SM VCSH SCT035 BKN090=
202005161128 TAF KPWT 161128Z 1612/1712 VRB03KT P6SM BKN100 OVC200 FM161400
                       10005KT P6SM BKN060 OVC100 FM161600 06006KT
                       P6SM OVC050 FM162000 16010KT 5SM -RA BR
                       OVC035 FM170200 VRB04KT 4SM -RA BR OVC030
                       FM170600 20003KT 5SM -SHRA BR OVC020=
202005160520 TAF KPWT 160520Z 1606/1706 VRB03KT P6SM FEW060 BKN250 FM161200
                       13003KT P6SM BKN100 OVC200 FM161400 10005KT
                       P6SM BKN060 OVC100 FM161600 06006KT P6SM
                       -RA OVC050 FM162200 22010KT P6SM -RA OVC035
                       FM170200 VRB04KT P6SM -RA OVC030=
202005152323 TAF KPWT 152323Z 1600/1624 22006KT P6SM FEW035 SCT060 BKN250
                      TEMPO 1600/1602 FEW035 BKN060 FM160300 VRB03KT
                       P6SM FEW060 BKN250 FM161200 13003KT P6SM
                       BKN100 OVC200 FM161400 10005KT P6SM BKN060
                       OVC100 FM161600 06006KT P6SM -RA OVC050
                       FM162200 05010KT P6SM -RA OVC035=
202005151728 TAF KPWT 151728Z 1518/1618 19004KT P6SM SCT015 BKN060
                      TEMPO 1518/1519 BKN015 OVC060 FM152000 21006KT
                       P6SM BKN060 FM160100 VRB03KT P6SM SCT060
                       BKN250 FM161200 06003KT P6SM BKN100 OVC200
                       FM161600 06006KT P6SM BKN060 OVC100=
202005151611 KPWT 151611Z 1516/1612 18006KT P6SM SCT007 BKN015 OVC060
                      TEMPO 1516/1518 BKN015 OVC060 FM151800 22006KT
                       P6SM SCT020 BKN060 FM160000 20005KT P6SM
                       BKN100=
202005151402 KPWT 151402Z 1514/1612 00000KT P6SM BKN004 OVC010
                      TEMPO 1514/1516 2SM BR OVC002 FM151600 21002KT
                       P6SM BKN045 FM160000 20005KT P6SM BKN100=
202005151143 TAF KPWT 151143Z 1512/1612 VRB03KT 1 1/2SM BR BKN009 FM151600 21002KT
                       6SM BR BKN045 FM160000 20005KT P6SM BKN100=
202005150522 TAF KPWT 150522Z 1506/1606 VRB04KT P6SM -RA FEW030 BKN040 FM150800
                       21002KT P6SM OVC050 FM151200 20002KT P6SM
                       OVC025 FM160000 19005KT P6SM BKN100=
202005142332 TAF KPWT 142332Z 1500/1524 17005KT P6SM BKN050 FM151200 18002KT
                       P6SM SCT015 OVC025 FM151800 19005KT P6SM
                       BKN050=
202005141723 TAF KPWT 141723Z 1418/1518 22008KT P6SM SCT008 BKN015 BKN060 FM141900
                       19005KT P6SM SCT015 BKN050 FM151200 18002KT
                       P6SM SCT015 OVC025=
202005141556 KPWT 141556Z 1416/1512 25004KT P6SM -SHRA BKN008 OVC015 FM141700
                       VRB04KT P6SM -SHRA SCT008 OVC015 FM141900
                       19003KT P6SM SCT015 OVC050=
202005141141 TAF KPWT 141141Z 1412/1512 VRB03KT 4SM BR BKN003 BKN045 FM141800
                       VRB04KT P6SM OVC010 FM142100 19003KT P6SM
                       -SHRA BKN100=
202005140521 TAF KPWT 140521Z 1406/1506 17003KT P6SM SCT120 FM141400 19002KT
                       6SM -SHRA OVC025 FM141800 VRB04KT P6SM OVC025=
202005140306 KPWT 140306Z 1403/1424 21008KT P6SM VCSH BKN060 FM140600 21007KT
                       P6SM VCSH OVC050 FM141400 19002KT P6SM SCT007
                       OVC015 FM142000 21005KT P6SM OVC050=
202005132322 TAF KPWT 132322Z 1400/1424 20012G16KT P6SM OVC070 FM140600 21007KT
                       P6SM -SHRA OVC050 FM141400 19002KT P6SM
                       SCT007 OVC015 FM142000 21005KT P6SM OVC050=
202005131722 TAF KPWT 131722Z 1318/1418 19009KT P6SM OVC015 FM131900 20008G16KT
                       P6SM SCT015 OVC040 FM140600 21007KT P6SM
                       -SHRA OVC050 FM141200 19002KT P6SM SCT007
                       OVC015=
202005131152 TAF KPWT 131152Z 1312/1412 19004KT 6SM -RA OVC005 FM131400 20008KT
                       6SM -RA OVC015 FM131900 20008G16KT P6SM
                       OVC050 FM140300 21007KT P6SM OVC050=
202005130534 TAF KPWT 130534Z 1306/1406 20008KT P6SM -RA SCT012 BKN020 OVC030
                       FM130900 20008KT 6SM -RA OVC007 FM131400
                       19008KT 6SM -SHRA OVC015 FM132000 21015G22KT
                       P6SM OVC050=
202005122325 TAF KPWT 122325Z 1300/1324 23012G20KT 6SM -RA BR BKN030 OVC060
                       FM130400 20011KT P6SM -SHRA OVC050 FM131100
                       20012KT P6SM -RA OVC025 FM132000 21015G22KT
                       P6SM OVC050=
202005121720 TAF KPWT 121720Z 1218/1318 VRB05KT P6SM -RA BKN060 FM122200 20010G18KT
                       P6SM -RA OVC050 FM130600 20011KT P6SM -SHRA
                       OVC050 FM131200 20012KT P6SM -RA OVC025=
202005121503 KPWT 121503Z 1215/1312 VRB04KT P6SM OVC060 FM121700 18008KT P6SM
                       -RA OVC050 FM122100 20010G18KT P6SM -RA
                       BKN045=
202005121159 TAF KPWT 121159Z 1212/1312 VRB04KT 3/4SM BR OVC002 FM121700 16005KT
                       P6SM OVC025 FM122100 20010G18KT P6SM -RA
                       BKN045=
202005120526 TAF KPWT 120526Z 1206/1306 21008KT P6SM -RA SCT007 BKN045 FM120700
                       18006KT P6SM -RA OVC015 FM121100 VRB04KT
                       P6SM -RA OVC015 FM122000 18006KT P6SM -SHRA
                       BKN045=
202005120232 KPWT 120232Z 1203/1224 21008KT P6SM -SHRA BKN070 OVC120 FM120700
                       18006KT P6SM VCSH BKN060 OVC100 FM121100
                       18006KT P6SM OVC015 FM121700 18006KT P6SM
                       SCT020 BKN040 OVC060 FM122000 18006KT P6SM
                       -SHRA BKN045 OVC070=
202005112332 TAF KPWT 112332Z 1200/1224 21010KT P6SM -SHRA BKN070 OVC120
                      TEMPO 1201/1204 -TSRA OVC050CB FM120700 18006KT
                       P6SM SCT070 BKN120 FM121100 18006KT P6SM
                       OVC015 FM121700 18006KT P6SM SCT020 BKN040
                       OVC060 FM122000 18006KT P6SM -SHRA BKN045
                       OVC070=
202005112222 KPWT 112222Z 1122/1218 22014KT P6SM -SHRA BKN060 OVC100 FM120900
                       19006KT P6SM OVC015 FM121700 19006KT P6SM
                       SCT015 BKN025 OVC040=
202005111740 TAF KPWT 111740Z 1118/1218 VRB03KT P6SM SCT060 BKN150 BKN250 FM112200
                       VRB03KT P6SM -SHRA BKN060 OVC100 FM120900
                       19006KT P6SM OVC015 FM121700 19006KT P6SM
                       SCT015 BKN025 OVC040=
202005111136 TAF KPWT 111136Z 1112/1212 VRB04KT P6SM SCT250 FM112000 20010KT
                       P6SM BKN100 FM112200 20012KT P6SM -SHRA
                       BKN060 OVC100 FM120200 20006KT 4SM -RA BR
                       OVC025=
202005110535 TAF KPWT 110535Z 1106/1206 04006KT P6SM BKN250 FM112000 21010KT
                       P6SM OVC100 FM120000 21007KT 4SM -SHRA BR
                       BKN050 OVC100=
202005102320 TAF KPWT 102320Z 1100/1124 04010KT P6SM SCT250 FM110600 18005KT
                       P6SM BKN250 FM112000 21010G18KT P6SM OVC100=
202005101720 TAF KPWT 101720Z 1018/1118 04007KT P6SM SCT250 FM110600 18005KT
                       P6SM BKN250=
202005101138 TAF KPWT 101138Z 1012/1112 00000KT P6SM SKC FM101700 04007KT P6SM
                       SCT250 FM110600 18005KT P6SM BKN250=
202005100526 TAF KPWT 100526Z 1006/1106 04009KT P6SM SKC FM100800 07006KT P6SM
                       SKC FM101800 04005KT P6SM SKC=
202005092330 TAF KPWT 092330Z 1000/1024 01008KT P6SM FEW250 FM100500 06007KT
                       P6SM SKC=
202005091753 TAF KPWT 091753Z 0918/1018 04010G20KT P6SM FEW250 FM100000 03008KT
                       P6SM FEW250=
202005091136 TAF KPWT 091136Z 0912/1012 05005KT P6SM SKC FM091700 04010G20KT
                       P6SM FEW250 FM100000 03008KT P6SM FEW250=
202005090530 TAF KPWT 090530Z 0906/1006 05009KT P6SM SKC FM091700 05010G20KT
                       P6SM SKC FM092200 04007KT P6SM SKC=
202005082320 TAF KPWT 082320Z 0900/0924 02008KT P6SM SKC FM090600 06007KT P6SM
                       SKC FM091700 03010KT P6SM SKC=
202005081720 TAF KPWT 081720Z 0818/0918 04014G20KT P6SM SKC FM090300 03010KT
                       P6SM SKC=
202005081128 TAF KPWT 081128Z 0812/0912 07008KT P6SM SKC FM081900 03012G20KT
                       P6SM SKC=
202005080525 TAF KPWT 080525Z 0806/0906 04012KT P6SM SKC FM082000 03012G18KT
                       P6SM SKC=
202005072332 TAF KPWT 072332Z 0800/0824 03012G18KT P6SM SKC FM080300 04010KT
                       P6SM SKC FM082000 03012G18KT P6SM SKC=
202005071726 TAF KPWT 071726Z 0718/0818 03014G20KT P6SM SKC FM080300 02009KT
                       P6SM SKC=
202005071504 KPWT 071504Z 0715/0812 05008KT P6SM SCT009
                      TEMPO 0715/0716 BKN009 FM071600 03008KT P6SM
                       SKC FM071900 03012KT P6SM SKC FM080100 02006KT
                       P6SM SKC=
202005071125 TAF KPWT 071125Z 0712/0812 00000KT P6SM SKC FM071600 03008KT P6SM
                       SKC FM071900 03012KT P6SM SKC FM080100 02006KT
                       P6SM SKC=
202005070520 TAF KPWT 070520Z 0706/0806 06005KT P6SM SKC FM071600 03007KT P6SM
                       SKC FM071900 03012KT P6SM SKC=
202005062320 TAF KPWT 062320Z 0700/0724 02006KT P6SM FEW060 FM070500 00000KT
                       P6SM SKC FM071600 03006KT P6SM SKC FM071900
                       03012KT P6SM SKC=
202005061721 TAF KPWT 061721Z 0618/0718 23013G20KT P6SM SCT040 SCT100 FM062000
                       24008KT P6SM FEW025 BKN045 FM070000 VRB04KT
                       P6SM BKN050 FM070500 00000KT P6SM SCT040
                       FM071700 03008KT P6SM SKC=
202005061554 KPWT 061554Z 0616/0712 22014G22KT P6SM FEW050 SCT100 FM062000 22012G22KT
                       P6SM FEW020 BKN050 FM070000 VRB04KT P6SM
                       BKN050 FM070500 04006KT P6SM SCT040=
202005061307 KPWT 061307Z 0613/0712 20014KT P6SM VCSH BKN015 OVC030
                      TEMPO 0613/0615 OVC009 FM061700 22012G22KT
                       P6SM SCT020 BKN040 FM070000 VRB04KT P6SM
                       BKN050 FM070500 04006KT P6SM SCT040=
202005061120 TAF KPWT 061120Z 0612/0712 20015KT P6SM VCSH SCT025 BKN050 FM070000
                       VRB04KT P6SM BKN050 FM070500 04006KT P6SM
                       SCT040=
202005060520 TAF KPWT 060520Z 0606/0706 23012G20KT P6SM VCSH BKN060 BKN100 FM061000
                       21012KT P6SM -SHRA SCT020 OVC040 FM061400
                       21012KT P6SM VCSH BKN040 FM070000 VRB04KT
                       P6SM BKN050 FM070500 04006KT P6SM BKN030=
202005052328 TAF KPWT 052328Z 0600/0624 20010KT P6SM VCSH BKN050 BKN080
                      TEMPO 0601/0604 -SHRA FM061000 20010KT P6SM
                       -SHRA SCT025 OVC040 FM061400 19015KT P6SM
                       VCSH BKN030 FM062300 35007KT P6SM BKN040=
202005051726 TAF KPWT 051726Z 0518/0618 04008KT P6SM SCT060 BKN200 FM052100
                       02009KT P6SM SCT060 SCT200 FM060000 20007KT
                       P6SM VCSH BKN050 BKN100 FM061000 20010KT
                       P6SM -SHRA SCT025 OVC040 FM061400 19015KT
                       P6SM VCSH BKN030=
202005051120 TAF KPWT 051120Z 0512/0612 00000KT P6SM SCT030 BKN200
                      TEMPO 0512/0516 BKN030 BKN200 FM051600 VRB04KT
                       P6SM BKN050 BKN090 FM060000 VRB04KT P6SM
                       VCSH BKN050 BKN090 FM061000 20010KT P6SM
                       -SHRA SCT015 OVC040=
202005050520 TAF KPWT 050520Z 0506/0606 21007KT P6SM VCSH BKN050 OVC090 FM051200
                       18006KT P6SM OVC030 FM051800 VRB04KT P6SM
                       BKN040 FM060000 36006KT P6SM SCT040=
202005042325 TAF KPWT 042325Z 0500/0524 30005KT P6SM BKN100 BKN200 FM050300
                       VRB04KT P6SM -SHRA BKN040 OVC080 FM051200
                       VRB03KT P6SM OVC030 FM051700 VRB03KT P6SM
                       SCT100=
202005041728 TAF KPWT 041728Z 0418/0518 22007KT P6SM BKN100 BKN200 FM050300
                       VRB04KT P6SM -SHRA BKN040 OVC080 FM051200
                       VRB03KT P6SM VCSH OVC030=
202005041618 KPWT 041618Z 0416/0512 00000KT P6SM SCT250 FM041800 VRB04KT P6SM
                       BKN100 BKN200 FM050300 18008KT P6SM -RA
                       BKN040 OVC080 FM050700 21007KT P6SM -SHRA
                       OVC040 FM051100 18006KT P6SM VCSH OVC030=
202005041419 KPWT 041419Z 0414/0512 00000KT 2SM BR SCT250 FM041700 VRB04KT P6SM
                       BKN100 BKN200 FM050300 18008KT P6SM -RA
                       BKN040 OVC080 FM050700 21007KT P6SM -SHRA
                       BKN020 OVC040 FM051100 18006KT P6SM VCSH
                       BKN015 OVC030=
202005041300 KPWT 041300Z 0413/0512 00000KT 2SM BR SCT250
                      TEMPO 0413/0416 1/4SM FG VV001 FM041700 VRB04KT
                       P6SM BKN200 FM042200 VRB04KT P6SM BKN080
                       OVC150 FM050300 18008KT P6SM -RA BKN040
                       OVC080 FM050700 21007KT P6SM -SHRA BKN020
                       OVC040 FM051100 18006KT P6SM VCSH BKN015
                       OVC030=
202005041120 TAF KPWT 041120Z 0412/0512 00000KT P6SM SCT250
                      TEMPO 0412/0416 3SM BR FM041800 VRB04KT P6SM
                       BKN200 FM042200 VRB04KT P6SM BKN080 OVC150
                       FM050300 18008KT P6SM -RA BKN040 OVC080
                       FM050700 21007KT P6SM -SHRA BKN020 OVC040
                       FM051100 18006KT P6SM VCSH BKN015 OVC030=
202005040520 TAF KPWT 040520Z 0406/0506 00000KT P6SM SKC FM040900 00000KT 3SM
                       BR SCT003
                      TEMPO 0410/0414 1/2SM FG VV002 FM041400 00000KT
                       P6SM SCT040 BKN200 FM042200 VRB04KT P6SM
                       BKN080 OVC150 FM050500 17007KT P6SM -RA
                       BKN040 OVC080=
202005032338 TAF KPWT 032338Z 0400/0424 18010KT P6SM VCSH SCT040 FM040400 19008KT
                       P6SM SCT040 FM040600 VRB02KT P6SM SKC FM042100
                       20008KT P6SM SCT040 OVC100=
202005031739 TAF KPWT 031739Z 0318/0418 22014KT P6SM VCSH SCT010 BKN035
                      TEMPO 0318/0320 BKN010 OVC020 FM032000 21008KT
                       P6SM VCSH BKN040 FM040400 19005KT P6SM SCT040
                       FM040900 11002KT P6SM SCT040=
202005031515 KPWT 031515Z 0315/0412 18010KT P6SM VCSH SCT010 BKN035
                      TEMPO 0315/0317 BKN010 FM032000 23008KT P6SM
                       VCSH BKN040 FM040400 VRB03KT P6SM SCT040=
202005031141 TAF KPWT 031141Z 0312/0412 18010KT P6SM VCSH SCT010 BKN035
                      TEMPO 0312/0316 -SHRA BKN010 BKN035 FM032000
                       23008KT P6SM VCSH BKN040 FM040400 VRB03KT
                       P6SM SCT040=
202005030520 TAF KPWT 030520Z 0306/0406 21012KT P6SM SCT025 SCT080 FM031000
                       18008KT P6SM BKN025 BKN050 FM032000 23008KT
                       P6SM VCSH BKN040=
202005022325 TAF KPWT 022325Z 0300/0324 21015G25KT P6SM VCSH SCT009 BKN030 BKN050
                       FM030300 21010KT P6SM VCSH BKN040=
202005021800 KPWT 021800Z 0218/0318 20010KT 5SM RA BR BKN007 BKN015 OVC030 FM022100
                       23015G25KT P6SM -SHRA BKN025 BKN050 FM030200
                       21010KT P6SM VCSH BKN040=
202005021720 TAF KPWT 021720Z 0218/0318 18008KT P6SM -RA BKN050 OVC090 FM021900
                       20012G20KT 5SM RA BR OVC030 FM022100 23015G25KT
                       P6SM -SHRA BKN025 BKN050 FM030200 21010KT
                       P6SM VCSH BKN040=
202005021120 TAF KPWT 021120Z 0212/0312 18008KT P6SM -RA BKN050 OVC090 FM021900
                       16012G20KT 5SM RA BR OVC030 FM022100 21015G25KT
                       P6SM -SHRA BKN025 BKN050 FM030200 21010KT
                       P6SM VCSH BKN040=
202005020520 TAF KPWT 020520Z 0206/0306 VRB04KT P6SM VCSH BKN050 OVC100 FM021200
                       14008KT P6SM -RA OVC040 FM021900 16012G20KT
                       5SM RA BR OVC030 FM022100 21015G25KT P6SM
                       -SHRA BKN025 BKN050 FM030200 21010KT P6SM
                       VCSH BKN040=
202005012327 TAF KPWT 012327Z 0200/0224 19006KT P6SM BKN250 FM020300 19006KT
                       P6SM -SHRA BKN050 OVC100 FM020800 15006KT
                       P6SM -RA OVC035 FM021700 23013G20KT P6SM
                       SHRA OVC035=
202005011735 TAF KPWT 011735Z 0118/0218 VRB03KT P6SM SCT006 BKN250 FM011900
                       19006KT P6SM BKN250 FM020300 19006KT P6SM
                       -SHRA BKN050 OVC100 FM020800 15006KT P6SM
                       -RA OVC035 FM021700 23012G20KT P6SM SHRA
                       OVC035=
202005011527 KPWT 011527Z 0115/0212 VRB03KT P6SM OVC004 FM011600 VRB03KT P6SM
                       SCT006 BKN250 FM011900 19006KT P6SM BKN250
                       FM020100 19006KT P6SM BKN100 OVC200 FM020800
                       15006KT P6SM -RA OVC035=
202005011132 TAF KPWT 011132Z 0112/0212 VRB03KT P6SM OVC004 FM011700 VRB03KT
                       P6SM SCT006 BKN011 FM011900 19006KT P6SM
                       BKN250 FM020100 19006KT P6SM BKN100 OVC200
                       FM020800 15006KT P6SM -RA OVC035=
202005010859 KPWT 010859Z 0109/0206 VRB03KT P6SM OVC005 FM011700 VRB03KT P6SM
                       SCT006 BKN011 FM011900 19009KT P6SM OVC250
                       FM020100 19009KT P6SM BKN100 OVC200=
202005010539 TAF KPWT 010539Z 0106/0206 18008KT P6SM SCT015 FM011200 VRB03KT
                       P6SM OVC009 FM011500 VRB03KT P6SM OVC005
                       FM011900 19009KT P6SM OVC250 FM020100 19009KT
                       P6SM BKN100 OVC200=