##########################################################
# Query made at 02/16/2025 00:35:16 UTC
# Time interval: from 06/01/2020 00:00  to 06/30/2020 23:59  UTC
##########################################################

##########################################################
# KPWT, Bremerton National Automatic Weather Observing / Reporting System (United States)
# WMO index: -----. WIGOS ID: Unknown
# Latitude 47-30N. Longitude 122-45W. Altitude 147 m.
##########################################################

###################################
#  METAR/SPECI from KPWT
###################################
202006302356 METAR KPWT 302356Z AUTO 21011G15KT 10SM BKN047 OVC055 18/10 A2996 RMK AO2 SLP149 6//// T01780100 10183 20150 56005=
202006302256 METAR KPWT 302256Z AUTO 21012KT 10SM BKN037 OVC044 18/11 A2997 RMK AO2 SLP150 T01780106=
202006302156 METAR KPWT 302156Z AUTO 20008KT 160V240 10SM OVC035 17/11 A2997 RMK AO2 SLP152 T01720106=
202006302056 METAR KPWT 302056Z AUTO 17008G14KT 10SM OVC037 17/10 A2998 RMK AO2 SLP154 T01720100 58002=
202006301956 METAR KPWT 301956Z AUTO 21009G15KT 10SM OVC031 18/11 A2998 RMK AO2 SLP156 T01780106=
202006301933 SPECI KPWT 301933Z AUTO 19008KT 10SM BKN029 BKN048 17/11 A2998 RMK AO2=
202006301914 SPECI KPWT 301914Z AUTO 20007KT 10SM SCT027 BKN046 BKN055 17/11 A2998 RMK AO2=
202006301856 METAR KPWT 301856Z AUTO 21011KT 10SM BKN027 BKN040 OVC055 17/11 A2998 RMK AO2 SLP157 T01720106=
202006301756 METAR KPWT 301756Z AUTO 20008KT 10SM OVC023 15/10 A2998 RMK AO2 SLP156 T01500100 10150 20122 50000=
202006301656 METAR KPWT 301656Z AUTO 19006KT 10SM OVC017 14/11 A2999 RMK AO2 SLP157 T01390106=
202006301642 SPECI KPWT 301642Z AUTO 19005KT 10SM OVC015 13/11 A2999 RMK AO2=
202006301556 METAR KPWT 301556Z AUTO 19006KT 10SM OVC011 12/11 A2999 RMK AO2 SLP157 T01220106=
202006301529 SPECI KPWT 301529Z AUTO 20007KT 10SM OVC007 12/11 A2998 RMK AO2 CIG 005V009=
202006301513 SPECI KPWT 301513Z AUTO 20007KT 10SM OVC005 12/11 A2998 RMK AO2=
202006301456 METAR KPWT 301456Z AUTO 20005KT 10SM OVC003 12/11 A2998 RMK AO2 SLP155 T01220111 53006=
202006301356 METAR KPWT 301356Z AUTO 20005KT 10SM OVC003 12/11 A2998 RMK AO2 SLP154 T01220111=
202006301256 METAR KPWT 301256Z AUTO 22005KT 10SM OVC003 12/12 A2997 RMK AO2 SLP151 T01220117=
202006301217 SPECI KPWT 301217Z AUTO 21004KT 10SM OVC003 12/12 A2996 RMK AO2 CIG 003V006=
202006301205 SPECI KPWT 301205Z AUTO 20004KT 10SM BKN005 OVC010 12/11 A2996 RMK AO2 CIG 003V006=
202006301156 METAR KPWT 301156Z AUTO 21003KT 10SM SCT005 OVC010 12/11 A2996 RMK AO2 SLP150 7//// T01220111 10133 20122 53000=
202006301125 SPECI KPWT 301125Z AUTO 18003KT 10SM OVC010 12/11 A2996 RMK AO2 CIG 007V013=
202006301056 METAR KPWT 301056Z AUTO 00000KT 10SM OVC007 12/11 A2996 RMK AO2 SLP150 T01220111=
202006300956 METAR KPWT 300956Z AUTO 20003KT 10SM OVC009 13/11 A2996 RMK AO2 SLP147 T01280111=
202006300942 SPECI KPWT 300942Z AUTO 00000KT 10SM OVC009 13/11 A2996 RMK AO2=
202006300856 METAR KPWT 300856Z AUTO 19003KT 10SM OVC011 13/11 A2996 RMK AO2 SLP150 T01280106 58003=
202006300756 METAR KPWT 300756Z AUTO 20004KT 10SM OVC013 13/11 A2996 RMK AO2 SLP150 T01280106 402000100=
202006300656 METAR KPWT 300656Z AUTO 20006KT 10SM OVC013 13/11 A2997 RMK AO2 SLP151 T01330106=
202006300556 METAR KPWT 300556Z AUTO 19009KT 10SM OVC013 13/11 A2997 RMK AO2 SLP152 T01330111 10189 20133 50002=
202006300456 METAR KPWT 300456Z AUTO 20008KT 10SM OVC013 14/12 A2997 RMK AO2 SLP152 T01390117=
202006300356 METAR KPWT 300356Z AUTO 20010KT 10SM OVC013 14/12 A2997 RMK AO2 SLP150 T01440122=
202006300353 SPECI KPWT 300353Z AUTO 21009KT 10SM OVC013 14/12 A2997 RMK AO2=
202006300256 METAR KPWT 300256Z AUTO 21009KT 10SM OVC017 16/12 A2997 RMK AO2 SLP152 T01560122 55001=
202006300156 METAR KPWT 300156Z AUTO 21014KT 10SM BKN021 BKN065 17/13 A2997 RMK AO2 SLP151 T01720128=
202006300056 METAR KPWT 300056Z AUTO 21010KT 10SM OVC021 18/13 A2997 RMK AO2 SLP152 T01830133=
202006300038 SPECI KPWT 300038Z AUTO 21011KT 10SM BKN023 18/13 A2997 RMK AO2=
202006300018 SPECI KPWT 300018Z AUTO 21011KT 10SM SCT023 19/13 A2997 RMK AO2=
202006292356 METAR KPWT 292356Z AUTO 20012G17KT 10SM OVC025 19/13 A2998 RMK AO2 SLP154 6//// T01890133 10200 20156=
202006292256 METAR KPWT 292256Z AUTO 24013G19KT 10SM OVC025 19/13 RMK AO2 SLPNO T01940133 $=
202006292156 METAR KPWT 292156Z AUTO 21012G16KT 10SM BKN027 20/13 A2999 RMK AO2 SLP159 T02000133=
202006292056 METAR KPWT 292056Z AUTO 21011G16KT 10SM BKN023 19/14 A3000 RMK AO2 SLP162 6//// T01940139 58007=
202006291956 METAR KPWT 291956Z AUTO 21007KT 10SM OVC019 18/13 A3002 RMK AO2 SLP167 T01830128=
202006291856 METAR KPWT 291856Z AUTO 24008KT 10SM OVC015 17/13 A3002 RMK AO2 SLP169 T01670128=
202006291837 SPECI KPWT 291837Z AUTO 19006KT 10SM OVC015 16/13 A3003 RMK AO2=
202006291756 METAR KPWT 291756Z AUTO 24007KT 10SM OVC011 16/12 A3002 RMK AO2 SLP170 6//// T01560122 10156 20122 50000=
202006291656 METAR KPWT 291656Z AUTO 22008KT 10SM OVC011 14/12 A3003 RMK AO2 SLP172 T01440117=
202006291556 METAR KPWT 291556Z AUTO 21006KT 10SM OVC009 14/12 A3003 RMK AO2 SLP172 T01390117=
202006291456 METAR KPWT 291456Z AUTO 21006KT 10SM OVC007 13/12 A3002 RMK AO2 SLP170 6//// T01330117 51011=
202006291356 METAR KPWT 291356Z AUTO 21008KT 10SM OVC007 12/11 A3002 RMK AO2 SLP167 T01220111=
202006291256 METAR KPWT 291256Z AUTO 22004KT 10SM OVC007 12/11 A3000 RMK AO2 SLP162 T01220111=
202006291156 METAR KPWT 291156Z AUTO 21007KT 10SM OVC007 12/11 A2999 RMK AO2 SLP159 7//// T01220111 10133 20100 53008=
202006291146 SPECI KPWT 291146Z AUTO 22007KT 10SM OVC007 12/11 A2999 RMK AO2=
202006291056 METAR KPWT 291056Z AUTO 22005KT 10SM OVC005 12/11 A2998 RMK AO2 SLP156 T01170111=
202006290956 METAR KPWT 290956Z AUTO 21004KT 10SM OVC005 12/11 A2997 RMK AO2 SLP154 T01170111=
202006290904 SPECI KPWT 290904Z AUTO 22004KT 10SM BKN005 11/11 A2996 RMK AO2=
202006290856 METAR KPWT 290856Z AUTO 22003KT 10SM SCT005 11/10 A2997 RMK AO2 SLP150 T01060100 51009=
202006290756 METAR KPWT 290756Z AUTO 20004KT 10SM CLR 11/10 A2996 RMK AO2 SLP147 T01060100 402110106=
202006290656 METAR KPWT 290656Z AUTO 23004KT 10SM CLR 12/11 A2995 RMK AO2 SLP144 T01170106=
202006290556 METAR KPWT 290556Z AUTO 24003KT 10SM CLR 13/11 A2994 RMK AO2 SLP141 6//// T01280111 10211 20117 53011=
202006290456 METAR KPWT 290456Z AUTO 00000KT 10SM CLR 14/12 A2993 RMK AO2 SLP138 T01390122=
202006290356 METAR KPWT 290356Z AUTO 00000KT 10SM CLR 17/12 A2991 RMK AO2 SLP132 T01720117=
202006290256 METAR KPWT 290256Z AUTO 10004KT 10SM FEW036 19/12 A2991 RMK AO2 SLP131 6//// T01940122 53005=
202006290156 METAR KPWT 290156Z AUTO VRB05KT 10SM CLR 21/13 A2989 RMK AO2 SLP125 T02060128=
202006290056 METAR KPWT 290056Z AUTO 00000KT 10SM SCT038 21/12 A2989 RMK AO2 SLP125 T02060122=
202006282356 METAR KPWT 282356Z AUTO 21003KT 10SM BKN034 BKN047 19/13 A2989 RMK AO2 SLP126 6//// T01940128 10206 20144 56003=
202006282256 METAR KPWT 282256Z AUTO 10004KT 10SM BKN032 BKN041 19/12 A2989 RMK AO2 SLP126 T01940122=
202006282156 METAR KPWT 282156Z AUTO 12004KT 10SM OVC032 19/12 A2990 RMK AO2 SLP128 T01890122=
202006282056 METAR KPWT 282056Z AUTO VRB04KT 10SM SCT029 18/12 A2990 RMK AO2 SLP128 6//// T01830117 50002=
202006282048 SPECI KPWT 282048Z AUTO VRB05KT 10SM FEW026 BKN033 18/12 A2991 RMK AO2=
202006282038 SPECI KPWT 282038Z AUTO 07007KT 020V080 10SM FEW024 BKN029 BKN035 18/12 A2990 RMK AO2=
202006281956 METAR KPWT 281956Z AUTO 00000KT 10SM FEW020 BKN034 17/12 A2990 RMK AO2 SLP129 T01720117=
202006281856 METAR KPWT 281856Z AUTO VRB06KT 10SM SCT028 BKN037 OVC045 16/12 A2991 RMK AO2 SLP131 T01560117=
202006281845 SPECI KPWT 281845Z AUTO 07008KT 10SM FEW017 SCT026 BKN037 16/12 A2990 RMK AO2=
202006281756 METAR KPWT 281756Z AUTO 04004KT 10SM BKN017 OVC037 14/11 A2990 RMK AO2 SLP127 60000 T01440111 10150 20106 51003=
202006281656 METAR KPWT 281656Z AUTO 05006KT 10SM SCT019 BKN026 BKN031 14/11 A2990 RMK AO2 SLP127 T01390111=
202006281641 SPECI KPWT 281641Z AUTO 06006KT 10SM SCT026 BKN031 BKN046 14/11 A2989 RMK AO2=
202006281556 METAR KPWT 281556Z AUTO 00000KT 10SM BKN026 OVC049 13/11 A2989 RMK AO2 SLP124 T01280106=
202006281456 METAR KPWT 281456Z AUTO 00000KT 10SM SCT026 OVC065 12/11 A2988 RMK AO2 SLP122 60000 T01220106 53005=
202006281429 SPECI KPWT 281429Z AUTO 00000KT 10SM BKN028 OVC043 12/11 A2988 RMK AO2=
202006281356 METAR KPWT 281356Z AUTO 00000KT 10SM OVC031 11/11 A2988 RMK AO2 SLP121 T01110106=
202006281344 SPECI KPWT 281344Z AUTO 00000KT 10SM OVC029 11/11 A2987 RMK AO2=
202006281256 METAR KPWT 281256Z AUTO 00000KT 10SM OVC035 11/11 A2987 RMK AO2 RAB29E55 SLP119 P0000 T01110106=
202006281230 SPECI KPWT 281230Z AUTO 00000KT 10SM -RA FEW009 OVC037 11/11 A2987 RMK AO2 RAB29 P0000=
202006281156 METAR KPWT 281156Z AUTO 29004KT 10SM BKN036 BKN043 11/11 A2987 RMK AO2 SLP117 60004 70011 T01110106 10117 20106 51004=
202006281116 SPECI KPWT 281116Z AUTO 00000KT 10SM SCT005 OVC034 11/11 A2986 RMK AO2=
202006281106 SPECI KPWT 281106Z AUTO 03004KT 10SM FEW005 BKN009 OVC034 11/11 A2986 RMK AO2 CIG 007V012=
202006281056 METAR KPWT 281056Z AUTO 02003KT 10SM BKN005 OVC009 11/11 A2986 RMK AO2 RAB00E15 SLP116 P0001 T01110106=
202006281026 SPECI KPWT 281026Z AUTO 02003KT 10SM BKN006 OVC010 11/11 A2987 RMK AO2 RAB00E15 CIG 004V008 P0001=
202006280956 METAR KPWT 280956Z AUTO 34004KT 10SM OVC004 11/11 A2986 RMK AO2 RAE36 SLP115 P0001 T01110106=
202006280942 SPECI KPWT 280942Z AUTO 34005KT 10SM BKN004 11/11 A2986 RMK AO2 RAE36 P0001=
202006280906 SPECI KPWT 280906Z AUTO 05005KT 8SM -RA BKN008 BKN035 OVC060 11/10 A2985 RMK AO2 CIG 005V015 P0000=
202006280856 METAR KPWT 280856Z AUTO 03005KT 9SM -RA FEW010 BKN042 OVC055 11/10 A2985 RMK AO2 RAB0759 SLP113 P0001 60002 T01060100 57009=
202006280848 SPECI KPWT 280848Z AUTO 03007KT 10SM -RA SCT005 BKN036 OVC060 11/10 A2986 RMK AO2 RAB0759 P0001=
202006280826 SPECI KPWT 280826Z AUTO 01007KT 10SM -RA BKN005 OVC013 11/10 A2986 RMK AO2 RAB0759 CIG 004V009 P0000=
202006280756 METAR KPWT 280756Z AUTO 03009KT 10SM BKN007 BKN011 OVC021 11/10 A2986 RMK AO2 RAB37E48 SLP116 P0000 T01060100 401610106=
202006280656 METAR KPWT 280656Z AUTO 01006KT 10SM OVC007 11/11 A2987 RMK AO2 RAE05B34E45 CIG 004V008 SLP119 P0001 T01110106=
202006280625 SPECI KPWT 280625Z AUTO 01004KT 8SM BKN007 OVC012 12/11 A2987 RMK AO2 RAE05 P0000=
202006280556 METAR KPWT 280556Z AUTO 04003KT 9SM -RA FEW008 OVC012 12/11 A2988 RMK AO2 RAE32B49 SLP122 P0001 60001 T01170111 10128 20117 56015=
202006280456 METAR KPWT 280456Z AUTO 03006KT 5SM -RA BR SCT006 OVC012 12/11 A2989 RMK AO2 RAB51 SLP127 P0000 T01170111=
202006280414 SPECI KPWT 280414Z AUTO 08003KT 10SM SCT006 OVC014 12/11 A2990 RMK AO2=
202006280406 SPECI KPWT 280406Z AUTO 04005KT 10SM BKN006 BKN011 OVC016 12/11 A2990 RMK AO2 CIG 005V009=
202006280356 METAR KPWT 280356Z AUTO 04005KT 10SM SCT006 OVC016 12/11 A2990 RMK AO2 SLP129 T01170111=
202006280326 SPECI KPWT 280326Z AUTO 05005KT 10SM BKN006 OVC018 12/11 A2991 RMK AO2=
202006280315 SPECI KPWT 280315Z AUTO 05006KT 10SM SCT006 OVC018 12/11 A2992 RMK AO2=
202006280256 METAR KPWT 280256Z AUTO 04007KT 10SM BKN008 OVC020 12/11 A2992 RMK AO2 SLP137 T01220111=
202006280222 SPECI KPWT 280222Z AUTO 04008KT 10SM BKN008 OVC022 12/11 RMK AO2 CIG 006V012 $=
202006280156 METAR KPWT 280156Z AUTO 04008KT 10SM FEW008 OVC022 12/11 A2994 RMK AO2 SLP140 T01220111=
202006280143 SPECI KPWT 280143Z AUTO 04010KT 10SM FEW008 SCT012 OVC022 12/11 A2994 RMK AO2=
202006280056 METAR KPWT 280056Z AUTO 03009KT 10SM OVC008 12/11 RMK AO2 CIG 006V011 SLPNO T01220111 $=
202006280034 SPECI KPWT 280034Z AUTO 04010KT 10SM BKN008 OVC033 13/11 A2995 RMK AO2=
202006280016 SPECI KPWT 280016Z AUTO 04010KT 10SM SCT006 OVC033 13/11 A2995 RMK AO2=
202006272356 METAR KPWT 272356Z AUTO 04012KT 10SM BKN006 OVC033 13/11 A2995 RMK AO2 SLP147 T01280111 10156 20128 58003=
202006272256 METAR KPWT 272256Z AUTO 06007G15KT 030V100 10SM BKN006 OVC040 13/12 A2996 RMK AO2 SLP148 T01330122=
202006272207 SPECI KPWT 272207Z AUTO 05011KT 10SM FEW006 OVC038 14/12 A2996 RMK AO2=
202006272156 METAR KPWT 272156Z AUTO 06011KT 10SM OVC038 14/12 A2996 RMK AO2 SLP149 T01390122=
202006272056 METAR KPWT 272056Z AUTO 05012KT 10SM SCT006 OVC034 14/13 A2997 RMK AO2 SLP152 T01390128 58008=
202006272029 SPECI KPWT 272029Z AUTO 04011KT 10SM SCT008 OVC032 14/13 A2998 RMK AO2=
202006272016 SPECI KPWT 272016Z AUTO VRB05KT 10SM SCT006 OVC029 14/13 A2998 RMK AO2=
202006271956 METAR KPWT 271956Z AUTO 11003KT 10SM OVC027 16/12 A2999 RMK AO2 SLP158 T01560117=
202006271856 METAR KPWT 271856Z AUTO 12004KT 10SM FEW008 OVC022 14/12 A3000 RMK AO2 SLP160 T01440122=
202006271803 SPECI KPWT 271803Z AUTO 00000KT 10SM FEW007 OVC016 13/12 A3000 RMK AO2=
202006271756 METAR KPWT 271756Z AUTO 16003KT 10SM BKN007 OVC016 13/12 A3000 RMK AO2 CIG 005V012 SLP161 60006 T01280117 10133 20117 53001=
202006271732 SPECI KPWT 271732Z AUTO 19003KT 10SM OVC007 12/12 A2999 RMK AO2 CIG 005V012=
202006271656 METAR KPWT 271656Z AUTO 17006KT 7SM OVC010 12/11 A3000 RMK AO2 CIG 005V012 SLP160 T01170111=
202006271654 SPECI KPWT 271654Z AUTO 18006KT 7SM OVC010 12/11 A3000 RMK AO2 CIG 005V012=
202006271603 SPECI KPWT 271603Z AUTO 20006KT 10SM BKN006 OVC012 12/12 A3000 RMK AO2=
202006271556 METAR KPWT 271556Z AUTO 20006KT 8SM BKN004 OVC012 13/12 A3000 RMK AO2 CIG 003V007 SLP160 P0001 T01280122=
202006271456 METAR KPWT 271456Z AUTO 17003KT 3SM BR OVC004 13/12 A2999 RMK AO2 RAB00E12B29E53 SLP160 P0001 60005 T01280122 51001=
202006271447 SPECI KPWT 271447Z AUTO 18003KT 2 1/2SM -RA BR OVC004 13/12 A2999 RMK AO2 VIS 1 1/2V4 RAB00E12B29 P0001=
202006271430 SPECI KPWT 271430Z AUTO 20004KT 1 1/2SM -RA BR OVC004 13/12 A3000 RMK AO2 RAB00E12B29 P0000=
202006271416 SPECI KPWT 271416Z AUTO 00000KT 2 1/2SM BR OVC004 13/13 A3000 RMK AO2 VIS 1 1/2V3 RAB00E12 CIG 003V008 P0000=
202006271356 METAR KPWT 271356Z AUTO 14003KT 1 1/2SM BR OVC004 13/13 A3000 RMK AO2 RAB15E56 CIG 003V010 SLP161 P0003 T01280128=
202006271322 SPECI KPWT 271322Z AUTO 00000KT 1 1/4SM -RA BR OVC004 13/13 A2999 RMK AO2 RAB15 P0001=
202006271306 SPECI KPWT 271306Z AUTO 07004KT 2SM BR OVC004 13/13 A2999 RMK AO2=
202006271256 METAR KPWT 271256Z AUTO 08005KT 3SM BR OVC004 13/13 A2999 RMK AO2 RAE1158 SLP158 P0001 T01280128=
202006271240 SPECI KPWT 271240Z AUTO 08005KT 2SM BR OVC004 13/13 A2999 RMK AO2 RAE1158 P0001=
202006271205 SPECI KPWT 271205Z AUTO 11005KT 2 1/2SM BR OVC006 13/13 A2999 RMK AO2 VIS 1 3/4V5 RAE1158 CIG 004V009 P0000=
202006271156 METAR KPWT 271156Z AUTO 12004KT 4SM -RA BR BKN005 OVC010 13/13 A2999 RMK AO2 RAE02B36 CIG 003V009 SLP159 P0001 60003 7//// T01330128 10161 20133 55002=
202006271143 SPECI KPWT 271143Z AUTO 13005KT 3SM -RA BR OVC005 13/13 A2999 RMK AO2 RAE02B36 CIG 003V008 P0001=
202006271112 SPECI KPWT 271112Z AUTO 14003KT 2 1/2SM BR OVC003 14/13 A2999 RMK AO2 RAE02 P0000=
202006271056 METAR KPWT 271056Z AUTO 13003KT 2SM -RA BR OVC005 14/13 A2999 RMK AO2 SLP157 P0002 T01390133=
202006271048 SPECI KPWT 271048Z AUTO 00000KT 2SM -RA BR OVC005 14/13 A2999 RMK AO2 CIG 003V008 P0001=
202006271029 SPECI KPWT 271029Z AUTO 13003KT 3SM -RA BR BKN005 OVC008 14/13 A3000 RMK AO2 CIG 003V006 P0001=
202006270956 METAR KPWT 270956Z AUTO 00000KT 5SM -RA BR OVC003 14/13 A3000 RMK AO2 RAB26 CIG 003V006 SLP158 P0000 T01390133=
202006270946 SPECI KPWT 270946Z AUTO 03003KT 5SM -RA BR OVC005 14/13 A3000 RMK AO2 RAB26 CIG 004V007 P0000=
202006270918 SPECI KPWT 270918Z AUTO 04004KT 6SM BR OVC009 14/13 A3000 RMK AO2 CIG 007V011=
202006270856 METAR KPWT 270856Z AUTO 05004KT 10SM OVC011 14/13 A3000 RMK AO2 SLP159 T01440128 56001=
202006270756 METAR KPWT 270756Z AUTO 00000KT 10SM OVC013 16/13 A3000 RMK AO2 SLP161 T01560133 402780100=
202006270735 SPECI KPWT 270735Z AUTO 05003KT 10SM OVC013 16/13 A3000 RMK AO2=
202006270656 METAR KPWT 270656Z AUTO 05005KT 10SM OVC017 16/13 A3000 RMK AO2 SLP158 T01560128=
202006270556 METAR KPWT 270556Z AUTO 07005KT 10SM OVC021 16/13 A3000 RMK AO2 SLP161 6//// T01560128 10217 20156 53004=
202006270519 SPECI KPWT 270519Z AUTO 07003KT 10SM BKN023 16/13 A3000 RMK AO2=
202006270456 METAR KPWT 270456Z AUTO 08003KT 10SM CLR 16/13 A2999 RMK AO2 SLP158 T01610128=
202006270356 METAR KPWT 270356Z AUTO 07005KT 10SM CLR 17/13 A2999 RMK AO2 SLP155 T01720133=
202006270256 METAR KPWT 270256Z AUTO 07006KT 10SM SCT095 19/13 A2999 RMK AO2 SLP157 6//// T01940128 56008=
202006270156 METAR KPWT 270156Z AUTO 07003KT 10SM SCT100 21/13 A2999 RMK AO2 SLP158 T02060133=
202006270056 METAR KPWT 270056Z AUTO 07006KT 10SM SCT110 21/13 A3000 RMK AO2 SLP163 T02110128=
202006262356 METAR KPWT 262356Z AUTO 04010KT 10SM FEW050 22/13 A3001 RMK AO2 SLP166 6//// T02170128 10278 20217 56003=
202006262256 METAR KPWT 262256Z AUTO VRB03KT 10SM CLR 27/15 A3001 RMK AO2 SLP165 T02670150=
202006262156 METAR KPWT 262156Z AUTO 27006KT 10SM CLR 27/13 A3001 RMK AO2 SLP164 T02720128=
202006262056 METAR KPWT 262056Z AUTO 20007KT 160V230 10SM CLR 26/08 A3002 RMK AO2 SLP168 6//// T02610078 58004=
202006261956 METAR KPWT 261956Z AUTO VRB03KT 10SM CLR 26/12 A3003 RMK AO2 SLP171 T02610122=
202006261856 METAR KPWT 261856Z AUTO 21005KT 10SM CLR 24/13 A3003 RMK AO2 SLP170 T02440128=
202006261756 METAR KPWT 261756Z AUTO VRB04KT 10SM CLR 23/13 A3004 RMK AO2 SLP172 6//// T02280133 10233 20100 58015=
202006261656 METAR KPWT 261656Z AUTO 00000KT 10SM CLR 22/13 A3007 RMK AO2 SLP183 T02220133=
202006261556 METAR KPWT 261556Z AUTO 00000KT 10SM CLR 19/14 A3008 RMK AO2 SLP185 T01940139=
202006261456 METAR KPWT 261456Z AUTO 00000KT 10SM CLR 18/13 A3008 RMK AO2 SLP188 T01780133 53002=
202006261356 METAR KPWT 261356Z AUTO 00000KT 10SM CLR 15/13 A3007 RMK AO2 SLP183 T01500128=
202006261256 METAR KPWT 261256Z AUTO 00000KT 10SM CLR 11/11 A3008 RMK AO2 SLP188 T01110106=
202006261244 SPECI KPWT 261244Z AUTO 00000KT 4SM BR CLR 11/11 A3008 RMK AO2=
202006261234 SPECI KPWT 261234Z AUTO 00000KT 1 1/2SM BR CLR 11/09 A3008 RMK AO2=
202006261156 METAR KPWT 261156Z AUTO 00000KT 6SM BR CLR 11/10 A3008 RMK AO2 SLP186 6//// 7//// T01110100 10167 20106 50001=
202006261056 METAR KPWT 261056Z AUTO 00000KT 10SM CLR 12/11 A3008 RMK AO2 SLP188 T01170111=
202006260956 METAR KPWT 260956Z AUTO 00000KT 10SM CLR 12/11 A3008 RMK AO2 SLP188 T01220111=
202006260856 METAR KPWT 260856Z AUTO 00000KT 10SM CLR 13/12 A3007 RMK AO2 SLP185 6//// T01280117 52005=
202006260756 METAR KPWT 260756Z AUTO 00000KT 10SM CLR 16/13 A3006 RMK AO2 SLP182 T01560128 402670100=
202006260656 METAR KPWT 260656Z AUTO 00000KT 10SM CLR 16/13 A3007 RMK AO2 SLP183 T01560128=
202006260556 METAR KPWT 260556Z AUTO 00000KT 10SM CLR 16/13 A3006 RMK AO2 SLP181 6//// T01560133 10261 20156 53008=
202006260456 METAR KPWT 260456Z AUTO 07003KT 10SM CLR 19/13 A3005 RMK AO2 SLP178 T01940133=
202006260356 METAR KPWT 260356Z AUTO 07005KT 10SM CLR 21/13 A3003 RMK AO2 SLP172 T02110133=
202006260256 METAR KPWT 260256Z AUTO 05005KT 10SM CLR 24/13 A3003 RMK AO2 SLP171 6//// T02390133 55005=
202006260156 METAR KPWT 260156Z AUTO 08008KT 10SM CLR 24/13 A3003 RMK AO2 SLP171 T02440133=
202006260056 METAR KPWT 260056Z AUTO VRB06KT 10SM CLR 26/14 A3004 RMK AO2 SLP174 T02560139=
202006252356 METAR KPWT 252356Z AUTO 05007KT 10SM CLR 26/15 A3005 RMK AO2 SLP176 6//// T02610150 10267 20194 56013=
202006252256 METAR KPWT 252256Z AUTO VRB05KT 10SM CLR 27/15 A3006 RMK AO2 SLP180 T02670150=
202006252156 METAR KPWT 252156Z AUTO 05006KT 10SM CLR 25/15 A3007 RMK AO2 SLP183 T02500150=
202006252056 METAR KPWT 252056Z AUTO VRB04KT 10SM CLR 25/15 A3009 RMK AO2 SLP189 6//// T02500150 58009=
202006251956 METAR KPWT 251956Z AUTO 00000KT 10SM CLR 22/14 A3009 RMK AO2 SLP193 T02220144=
202006251904 SPECI KPWT 251904Z AUTO VRB05KT 10SM SCT027 22/14 A3011 RMK AO2=
202006251856 METAR KPWT 251856Z AUTO VRB04KT 10SM BKN025 22/15 A3011 RMK AO2 SLP197 T02220150=
202006251830 SPECI KPWT 251830Z AUTO VRB03KT 10SM BKN023 21/14 A3011 RMK AO2=
202006251756 METAR KPWT 251756Z AUTO 00000KT 10SM SCT019 20/14 A3011 RMK AO2 SLP200 60000 T02000144 10200 20122 58004=
202006251711 SPECI KPWT 251711Z AUTO 32003KT 10SM FEW008 SCT017 18/14 A3013 RMK AO2=
202006251656 METAR KPWT 251656Z AUTO VRB05KT 10SM BKN008 16/14 A3013 RMK AO2 CIG 005V011 SLP206 T01610139=
202006251645 SPECI KPWT 251645Z AUTO 00000KT 10SM BKN006 OVC010 16/14 A3013 RMK AO2=
202006251556 METAR KPWT 251556Z AUTO 27003KT 10SM OVC004 14/14 A3012 RMK AO2 SLP204 T01440139=
202006251523 SPECI KPWT 251523Z AUTO 00000KT 6SM BR OVC002 13/13 A3013 RMK AO2=
202006251509 SPECI KPWT 251509Z AUTO 00000KT 2SM BR OVC002 13/13 A3012 RMK AO2 VIS 3/4V5=
202006251506 SPECI KPWT 251506Z AUTO 00000KT 1SM BR OVC002 13/13 A3012 RMK AO2 VIS 1/4V5=
202006251456 METAR KPWT 251456Z AUTO 00000KT 1/2SM FG OVC002 13/13 A3012 RMK AO2 SLP204 60000 T01330128 51008=
202006251454 SPECI KPWT 251454Z AUTO 00000KT 1/2SM FG OVC002 13/13 A3012 RMK AO2=
202006251356 METAR KPWT 251356Z AUTO 28003KT 1/4SM FG OVC002 13/12 A3011 RMK AO2 SLP200 T01280122=
202006251256 METAR KPWT 251256Z AUTO 00000KT M1/4SM FG OVC002 12/12 A3010 RMK AO2 RAB28E53 SLP196 P0000 T01220122=
202006251156 METAR KPWT 251156Z AUTO 00000KT 1/4SM FG OVC002 13/12 A3009 RMK AO2 SLP194 60000 7//// T01280122 10144 20100 53008=
202006251105 SPECI KPWT 251105Z AUTO 22005KT 1/4SM FG OVC002 12/12 A3008 RMK AO2=
202006251056 METAR KPWT 251056Z AUTO 23003KT 1/2SM FG OVC002 12/12 A3008 RMK AO2 SLP189 T01170117=
202006251025 SPECI KPWT 251025Z AUTO 00000KT 1/2SM FG BKN002 12/11 A3008 RMK AO2=
202006251021 SPECI KPWT 251021Z AUTO 00000KT 1SM BR BKN002 12/11 A3008 RMK AO2=
202006251018 SPECI KPWT 251018Z AUTO 00000KT 2SM BR BKN002 11/11 A3008 RMK AO2=
202006251007 SPECI KPWT 251007Z AUTO 00000KT 1SM BR VV002 11/11 A3008 RMK AO2=
202006250956 METAR KPWT 250956Z AUTO 00000KT 10SM FEW049 12/11 A3007 RMK AO2 RAB30E40 SLP187 P0000 T01170111=
202006250939 SPECI KPWT 250939Z AUTO 00000KT 4SM -RA BR FEW049 11/11 A3008 RMK AO2 RAB30 P0000=
202006250935 SPECI KPWT 250935Z AUTO 00000KT 1 1/4SM -RA BR CLR 11/11 A3008 RMK AO2 RAB30 P0000=
202006250919 SPECI KPWT 250919Z AUTO 00000KT 3/4SM BR CLR 11/11 A3008 RMK AO2 VIS 1/2V5=
202006250917 SPECI KPWT 250917Z AUTO 00000KT 1 1/2SM BR CLR 11/11 A3008 RMK AO2 VIS 1/2V5=
202006250856 METAR KPWT 250856Z AUTO 00000KT 10SM CLR 11/11 A3007 RMK AO2 SLP187 T01110106 51013=
202006250756 METAR KPWT 250756Z AUTO 00000KT 10SM CLR 13/12 A3006 RMK AO2 SLP183 T01280122 402390122=
202006250656 METAR KPWT 250656Z AUTO 22003KT 10SM CLR 12/12 A3005 RMK AO2 SLP178 T01220117=
202006250556 METAR KPWT 250556Z AUTO 00000KT 10SM SCT060 14/13 A3003 RMK AO2 SLP172 6//// T01440133 10228 20144 51015=
202006250456 METAR KPWT 250456Z AUTO 00000KT 10SM BKN060 18/14 A3002 RMK AO2 SLP167 T01780144=
202006250356 METAR KPWT 250356Z AUTO 05006KT 10SM BKN050 19/14 A3000 RMK AO2 SLP163 T01940144=
202006250256 METAR KPWT 250256Z AUTO 04008KT 10SM BKN046 OVC055 21/14 A2999 RMK AO2 SLP156 T02110144 53003=
202006250156 METAR KPWT 250156Z AUTO 05008KT 10SM BKN036 OVC060 22/15 A2998 RMK AO2 SLP152 T02170150=
202006250056 METAR KPWT 250056Z AUTO 03007KT 10SM BKN047 22/16 A2997 RMK AO2 SLP152 T02220156=
202006242356 METAR KPWT 242356Z AUTO 03007KT 10SM BKN032 BKN045 23/16 A2998 RMK AO2 SLP153 T02280161 10239 20189=
202006242256 METAR KPWT 242256Z AUTO 10004KT 10SM SCT028 BKN048 23/17 A2998 RMK AO2 SLP153 T02280167=
202006242215 SPECI KPWT 242215Z AUTO 04006KT 10SM BKN028 BKN050 22/16 A2998 RMK AO2=
202006242156 METAR KPWT 242156Z AUTO 10SM FEW030 BKN040 BKN050 22/17 RMK AO2 SLPNO T02220167 $=
202006242145 SPECI KPWT 242145Z AUTO 05008KT 10SM SCT027 OVC040 23/17 A2998 RMK AO2=
202006242117 SPECI KPWT 242117Z AUTO 04010KT 10SM BKN027 BKN033 BKN047 22/17 A2998 RMK AO2=
202006242110 SPECI KPWT 242110Z AUTO 05007KT 10SM SCT027 BKN033 BKN049 22/16 A2998 RMK AO2=
202006242056 METAR KPWT 242056Z AUTO 04008KT 10SM BKN023 BKN029 OVC033 21/16 A2998 RMK AO2 SLP153 T02110161=
202006241956 METAR KPWT 241956Z AUTO 10004KT 10SM OVC021 21/16 A2998 RMK AO2 SLP155 T02060161=
202006241856 METAR KPWT 241856Z AUTO 00000KT 10SM OVC019 19/16 RMK AO2 SLPNO T01940156 TSNO $=
202006241756 METAR KPWT 241756Z AUTO 10SM BKN017 OVC023 19/16 RMK AO2 SLPNO T01940156 10194 20144 $=
202006241734 SPECI KPWT 241734Z AUTO 21005KT 10SM OVC015 18/15 A2996 RMK AO2=
202006241656 METAR KPWT 241656Z AUTO 20004KT 10SM OVC011 17/14 A2996 RMK AO2 SLP148 T01720144=
202006241640 SPECI KPWT 241640Z AUTO 22008KT 10SM OVC011 17/14 A2996 RMK AO2=
202006241556 METAR KPWT 241556Z AUTO 21007KT 10SM OVC009 16/14 A2996 RMK AO2 SLP146 T01610139=
202006241456 METAR KPWT 241456Z AUTO 22006KT 10SM OVC009 15/13 A2994 RMK AO2 SLP142 T01500128 53001=
202006241356 METAR KPWT 241356Z AUTO 20005KT 10SM OVC007 14/13 A2994 RMK AO2 SLP140 T01440133=
202006241256 METAR KPWT 241256Z AUTO 21004KT 10SM OVC007 14/13 A2994 RMK AO2 SLP140 T01440133=
202006241156 METAR KPWT 241156Z AUTO 20003KT 10SM OVC009 14/13 A2994 RMK AO2 CIG 007V010 SLP140 60000 7//// T01440133 10172 20144 51011=
202006241134 SPECI KPWT 241134Z AUTO 18004KT 10SM BKN009 OVC110 14/13 A2993 RMK AO2=
202006241125 SPECI KPWT 241125Z AUTO 19004KT 10SM SCT009 BKN110 15/13 A2993 RMK AO2=
202006241056 METAR KPWT 241056Z AUTO 19004KT 10SM BKN120 16/14 A2993 RMK AO2 SLP135 T01560139=
202006240956 METAR KPWT 240956Z AUTO 20003KT 10SM CLR 17/15 A2993 RMK AO2 SLP134 T01670150=
202006240856 METAR KPWT 240856Z AUTO 00000KT 10SM CLR 16/14 A2991 RMK AO2 RAE06 SLP128 P0000 60000 T01610144 58003=
202006240756 METAR KPWT 240756Z AUTO 00000KT 10SM -RA CLR 17/15 A2991 RMK AO2 RAB55 SLP130 P0000 T01670150 402940106=
202006240656 METAR KPWT 240656Z AUTO 00000KT 10SM CLR 17/14 A2992 RMK AO2 SLP132 T01670144=
202006240556 METAR KPWT 240556Z AUTO 00000KT 10SM CLR 17/14 A2992 RMK AO2 SLP131 6//// T01670144 10250 20161 58007=
202006240456 METAR KPWT 240456Z AUTO 00000KT 10SM CLR 19/15 A2993 RMK AO2 SLP135 T01940150=
202006240356 METAR KPWT 240356Z AUTO 05003KT 10SM CLR 21/15 A2993 RMK AO2 SLP135 T02110150=
202006240256 METAR KPWT 240256Z AUTO 07004KT 10SM CLR 23/15 A2994 RMK AO2 SLP138 T02280150 58008=
202006240156 METAR KPWT 240156Z AUTO 06008KT 10SM CLR 23/15 A2994 RMK AO2 SLP141 T02330150=
202006240056 METAR KPWT 240056Z AUTO 04008KT 10SM CLR 24/16 A2996 RMK AO2 SLP148 T02440156=
202006232356 METAR KPWT 232356Z AUTO 05010G17KT 10SM CLR 24/15 A2996 RMK AO2 SLP149 6//// T02390150 10294 20233 58012=
202006232256 METAR KPWT 232256Z AUTO 02008KT 9SM CLR 27/16 A2999 RMK AO2 SLP155 T02670161=
202006232156 METAR KPWT 232156Z AUTO 06008KT 10SM CLR 28/16 A2999 RMK AO2 SLP156 T02830161=
202006232056 METAR KPWT 232056Z AUTO VRB04KT 10SM CLR 28/14 A3000 RMK AO2 SLP159 6//// T02780144 56016=
202006231956 METAR KPWT 231956Z AUTO 14003KT 10SM CLR 27/14 A3001 RMK AO2 SLP163 T02670144=
202006231856 METAR KPWT 231856Z AUTO 05004KT 10SM CLR 25/14 A3003 RMK AO2 SLP169 T02500144=
202006231756 METAR KPWT 231756Z AUTO VRB04KT 10SM CLR 23/13 A3005 RMK AO2 SLP175 6//// T02330133 10233 20106 58014=
202006231656 METAR KPWT 231656Z AUTO 06005KT 10SM CLR 21/12 A3006 RMK AO2 SLP181 T02110122=
202006231556 METAR KPWT 231556Z AUTO 04005KT 10SM CLR 20/12 A3008 RMK AO2 SLP186 T02000117=
202006231456 METAR KPWT 231456Z AUTO 01003KT 10SM CLR 18/11 A3009 RMK AO2 SLP189 T01830111 56005=
202006231356 METAR KPWT 231356Z AUTO 06003KT 10SM CLR 16/09 A3009 RMK AO2 SLP190 T01610094=
202006231256 METAR KPWT 231256Z AUTO 00000KT 10SM CLR 12/09 A3010 RMK AO2 SLP193 T01170094=
202006231156 METAR KPWT 231156Z AUTO 00000KT 10SM CLR 11/09 A3010 RMK AO2 SLP196 7//// T01060089 10172 20106 55006=
202006231056 METAR KPWT 231056Z AUTO 00000KT 10SM CLR 11/09 A3010 RMK AO2 SLP194 T01110089=
202006230956 METAR KPWT 230956Z AUTO 00000KT 10SM CLR 14/09 A3011 RMK AO2 SLP197 T01390089=
202006230856 METAR KPWT 230856Z AUTO 06004KT 10SM CLR 16/08 A3012 RMK AO2 SLP199 T01560083 55002=
202006230756 METAR KPWT 230756Z AUTO 05006KT 10SM CLR 17/09 A3012 RMK AO2 SLP200 T01670089 402560067=
202006230656 METAR KPWT 230656Z AUTO 05006KT 10SM CLR 17/09 A3012 RMK AO2 SLP200 T01670089=
202006230556 METAR KPWT 230556Z AUTO 05007KT 10SM CLR 17/06 A3012 RMK AO2 SLP202 6//// T01720061 10256 20172 55002=
202006230456 METAR KPWT 230456Z AUTO 05007KT 10SM CLR 18/06 A3012 RMK AO2 SLP202 T01780061=
202006230356 METAR KPWT 230356Z AUTO 05008KT 10SM CLR 20/07 A3012 RMK AO2 SLP202 T02000072=
202006230256 METAR KPWT 230256Z AUTO 05006KT 10SM CLR 23/11 A3013 RMK AO2 SLP205 6//// T02280106 55007=
202006230156 METAR KPWT 230156Z AUTO 05008KT 10SM CLR 24/09 A3013 RMK AO2 SLP204 T02440089=
202006230056 METAR KPWT 230056Z AUTO 05008KT 10SM CLR 25/09 A3014 RMK AO2 SLP208 T02500094=
202006222356 METAR KPWT 222356Z AUTO 06010KT 10SM CLR 25/13 A3015 RMK AO2 SLP214 6//// T02500128 10256 20189 58014=
202006222256 METAR KPWT 222256Z AUTO 03007KT 10SM CLR 25/12 A3017 RMK AO2 SLP218 T02500117=
202006222156 METAR KPWT 222156Z AUTO 02005KT 10SM CLR 24/13 A3018 RMK AO2 SLP223 T02440128=
202006222056 METAR KPWT 222056Z AUTO VRB04KT 10SM CLR 24/13 A3019 RMK AO2 SLP228 6//// T02390128 58012=
202006221956 METAR KPWT 221956Z AUTO 07004KT 10SM CLR 22/13 A3021 RMK AO2 SLP233 T02220128=
202006221856 METAR KPWT 221856Z AUTO VRB03KT 10SM CLR 22/12 A3022 RMK AO2 SLP237 T02170117=
202006221756 METAR KPWT 221756Z AUTO 00000KT 10SM CLR 19/11 A3023 RMK AO2 SLP240 6//// T01940111 10194 20072 58000=
202006221656 METAR KPWT 221656Z AUTO 00000KT 10SM CLR 17/11 A3024 RMK AO2 SLP243 T01720106=
202006221556 METAR KPWT 221556Z AUTO 10SM CLR 16/09 A3024 RMK AO2 SLP243 T01610094 $=
202006221456 METAR KPWT 221456Z AUTO 00000KT 10SM CLR 14/09 A3023 RMK AO2 SLP240 6//// T01390094 53001=
202006221356 METAR KPWT 221356Z AUTO 00000KT 10SM CLR 12/09 A3023 RMK AO2 SLP239 T01170094=
202006221256 METAR KPWT 221256Z AUTO 00000KT 10SM CLR 08/07 A3023 RMK AO2 SLP239 T00780072=
202006221156 METAR KPWT 221156Z AUTO 00000KT 10SM CLR 07/07 A3023 RMK AO2 SLP240 7//// T00720067 10122 20067 55001=
202006221056 METAR KPWT 221056Z AUTO 00000KT 10SM CLR 08/07 A3022 RMK AO2 SLP238 T00780067=
202006220956 METAR KPWT 220956Z AUTO 00000KT 10SM CLR 08/08 A3023 RMK AO2 SLP241 T00830078=
202006220856 METAR KPWT 220856Z AUTO 00000KT 10SM CLR 08/07 A3023 RMK AO2 SLP241 T00830072 53007=
202006220756 METAR KPWT 220756Z AUTO 00000KT 10SM CLR 09/08 A3022 RMK AO2 SLP238 T00890083 401890089=
202006220656 METAR KPWT 220656Z AUTO 00000KT 10SM CLR 10/09 A3022 RMK AO2 SLP236 T01000089=
202006220556 METAR KPWT 220556Z AUTO 07004KT 10SM CLR 12/10 A3021 RMK AO2 SLP233 6//// T01220100 10189 20117 51009=
202006220456 METAR KPWT 220456Z AUTO 05003KT 10SM CLR 12/10 A3021 RMK AO2 SLP232 T01220100=
202006220356 METAR KPWT 220356Z AUTO 06004KT 10SM SCT035 14/11 A3019 RMK AO2 SLP226 T01390111=
202006220256 METAR KPWT 220256Z AUTO 04007KT 10SM OVC042 16/11 A3018 RMK AO2 SLP223 6//// T01560111 53005=
202006220156 METAR KPWT 220156Z AUTO 03009KT 10SM CLR 17/12 A3017 RMK AO2 SLP219 T01670122=
202006220056 METAR KPWT 220056Z AUTO 05007KT 10SM BKN046 17/13 A3017 RMK AO2 SLP219 T01720128=
202006212356 METAR KPWT 212356Z AUTO 05007KT 10SM OVC042 18/13 A3017 RMK AO2 SLP219 T01780133 10189 20144 56000=
202006212256 METAR KPWT 212256Z AUTO 22004KT 10SM OVC038 18/11 A3017 RMK AO2 SLP220 T01830111=
202006212156 METAR KPWT 212156Z AUTO 05007KT 10SM OVC037 18/14 A3016 RMK AO2 SLP216 T01830139=
202006212120 SPECI KPWT 212120Z AUTO 19004KT 10SM OVC033 17/11 A3017 RMK AO2=
202006212056 METAR KPWT 212056Z AUTO 15004KT 10SM BKN029 OVC035 17/12 A3017 RMK AO2 SLP218 T01720117 51006=
202006211956 METAR KPWT 211956Z AUTO VRB05KT 10SM OVC027 17/11 A3017 RMK AO2 SLP218 T01670111=
202006211856 METAR KPWT 211856Z AUTO 01005KT 10SM FEW008 OVC026 16/14 A3015 RMK AO2 SLP214 T01610139=
202006211756 METAR KPWT 211756Z AUTO 05006KT 10SM SCT008 BKN015 OVC022 14/13 A3015 RMK AO2 SLP212 60001 T01440133 10144 20128 51010=
202006211656 METAR KPWT 211656Z AUTO 05005KT 10SM FEW004 BKN016 OVC021 14/13 A3014 RMK AO2 SLP208 T01440133=
202006211653 SPECI KPWT 211653Z AUTO 04004KT 10SM FEW004 BKN016 OVC021 14/13 A3014 RMK AO2=
202006211630 SPECI KPWT 211630Z AUTO 00000KT 3SM BR BKN006 OVC014 14/13 A3013 RMK AO2 CIG 004V008=
202006211604 SPECI KPWT 211604Z AUTO 24003KT 3SM BR SCT004 BKN011 OVC016 13/13 A3012 RMK AO2 CIG 007V013=
202006211556 METAR KPWT 211556Z AUTO 24005KT 4SM BR BKN006 OVC011 13/13 A3012 RMK AO2 RAB33E56 CIG 003V008 SLP202 P0001 T01330128=
202006211545 SPECI KPWT 211545Z AUTO 21004KT 3SM -RA BR OVC006 13/13 A3012 RMK AO2 RAB33 CIG 003V008 P0001=
202006211537 SPECI KPWT 211537Z AUTO 21003KT 1 3/4SM -RA BR OVC006 13/13 A3012 RMK AO2 RAB33 CIG 003V008 P0001=
202006211525 SPECI KPWT 211525Z AUTO 18003KT 2 1/2SM BR OVC006 13/13 A3011 RMK AO2 CIG 003V007=
202006211456 METAR KPWT 211456Z AUTO 18004KT 4SM BR OVC004 13/13 A3011 RMK AO2 SLP198 T01330128 51009=
202006211356 METAR KPWT 211356Z AUTO VRB03KT 10SM OVC006 13/12 A3009 RMK AO2 SLP194 T01330122=
202006211256 METAR KPWT 211256Z AUTO 19004KT 10SM OVC006 13/12 A3008 RMK AO2 SLP188 T01330122=
202006211156 METAR KPWT 211156Z AUTO 16003KT 10SM OVC008 13/12 A3007 RMK AO2 SLP184 70011 T01330122 10144 20122 51007=
202006211124 SPECI KPWT 211124Z AUTO 20003KT 10SM OVC008 13/12 A3006 RMK AO2 CIG 006V011=
202006211056 METAR KPWT 211056Z AUTO 20005KT 10SM OVC010 13/12 A3005 RMK AO2 SLP181 T01330122=
202006210956 METAR KPWT 210956Z AUTO 22004KT 10SM BKN010 12/12 A3006 RMK AO2 SLP181 T01220117=
202006210856 METAR KPWT 210856Z AUTO 21005KT 10SM CLR 13/12 A3004 RMK AO2 SLP177 T01280117 53008=
202006210756 METAR KPWT 210756Z AUTO 20006KT 10SM CLR 13/12 A3003 RMK AO2 SLP173 T01280122 402000128=
202006210656 METAR KPWT 210656Z AUTO 20007KT 10SM CLR 14/12 A3002 RMK AO2 SLP171 T01390122=
202006210556 METAR KPWT 210556Z AUTO 20007KT 10SM CLR 14/12 A3002 RMK AO2 SLP169 T01440122 10200 20144=
202006210456 METAR KPWT 210456Z AUTO 22011G18KT 10SM CLR 16/13 A3001 RMK AO2 SLP166 T01560133=
202006210356 METAR KPWT 210356Z AUTO 20010KT 10SM CLR 16/14 A2999 RMK AO2 SLP160 T01610139=
202006210256 METAR KPWT 210256Z AUTO 22012G20KT 10SM CLR 18/14 RMK AO2 SLPNO T01780144 $=
202006210156 METAR KPWT 210156Z AUTO 22010G19KT 10SM CLR 19/14 A2998 RMK AO2 SLP153 T01890144=
202006210135 SPECI KPWT 210135Z AUTO 22012G20KT 10SM SCT025 19/15 A2997 RMK AO2=
202006210022 SPECI KPWT 210022Z AUTO 21008KT 10SM BKN014 OVC022 19/17 A2998 RMK AO2=
202006202356 METAR KPWT 202356Z AUTO 19008KT 10SM BKN016 BKN023 19/17 A2999 RMK AO2 RAB2259E39 SLP156 P0003 60003 T01940167 10200 20161 51001=
202006202256 METAR KPWT 202256Z AUTO 21013KT 10SM BKN015 OVC023 19/16 A2999 RMK AO2 RAB21E32 SLP156 P0000 T01890156=
202006202156 METAR KPWT 202156Z AUTO 21012KT 10SM BKN015 OVC020 18/16 A2999 RMK AO2 SLP158 T01830156=
202006202139 SPECI KPWT 202139Z AUTO 21011G17KT 10SM OVC015 19/16 A2999 RMK AO2=
202006202056 METAR KPWT 202056Z AUTO 20012KT 10SM FEW008 BKN011 OVC023 18/16 A2998 RMK AO2 SLP156 T01830156=
202006202021 SPECI KPWT 202021Z AUTO 20010G15KT 10SM BKN009 OVC023 17/15 A2999 RMK AO2 CIG 007V011=
202006201956 METAR KPWT 201956Z AUTO 20010G14KT 10SM FEW009 OVC021 17/15 A2999 RMK AO2 SLP156 T01670150=
202006201901 SPECI KPWT 201901Z AUTO 20007KT 10SM SCT007 OVC015 17/15 A2997 RMK AO2=
202006201856 METAR KPWT 201856Z AUTO 19008KT 10SM BKN009 OVC018 17/15 A2997 RMK AO2 CIG 007V013 SLP152 T01670150=
202006201835 SPECI KPWT 201835Z AUTO 21010KT 8SM BKN007 BKN021 OVC038 17/16 A2997 RMK AO2 CIG 007V013=
202006201827 SPECI KPWT 201827Z AUTO 19010KT 10SM SCT007 BKN022 OVC038 17/16 A2997 RMK AO2=
202006201811 SPECI KPWT 201811Z AUTO 19008KT 10SM FEW007 OVC040 17/15 A2996 RMK AO2=
202006201756 METAR KPWT 201756Z AUTO 19009KT 10SM BKN007 OVC042 17/16 RMK AO2 CIG 006V010 SLPNO 60008 T01670156 10167 20144 $=
202006201656 METAR KPWT 201656Z AUTO 21008KT 10SM BKN007 BKN029 16/15 A2997 RMK AO2 CIG 004V012 SLP151 T01610150=
202006201648 SPECI KPWT 201648Z AUTO 20007KT 9SM SCT007 BKN024 BKN031 16/16 A2997 RMK AO2=
202006201619 SPECI KPWT 201619Z AUTO 19008KT 8SM BKN005 OVC025 16/15 A2996 RMK AO2 CIG 003V008=
202006201556 METAR KPWT 201556Z AUTO 19008KT 10SM SCT005 BKN023 OVC028 15/14 A2996 RMK AO2 RAE46 SLP147 P0005 T01500144=
202006201538 SPECI KPWT 201538Z AUTO 20007KT 5SM -RA BR BKN005 OVC022 14/14 A2996 RMK AO2 P0005=
202006201456 METAR KPWT 201456Z AUTO 20007KT 6SM -RA BR BKN007 BKN044 14/14 A2996 RMK AO2 RAB1359 CIG 004V010 SLP146 P0003 60003 T01440139 51013=
202006201443 SPECI KPWT 201443Z AUTO 20006KT 10SM -RA SCT007 SCT035 BKN048 14/14 A2996 RMK AO2 RAB1359 P0002=
202006201356 METAR KPWT 201356Z AUTO 20005KT 10SM FEW080 SCT110 15/14 A2993 RMK AO2 SLP138 T01500139=
202006201256 METAR KPWT 201256Z AUTO 19006KT 10SM FEW090 BKN110 15/13 A2992 RMK AO2 RAE17 SLP133 P0000 T01500133=
202006201156 METAR KPWT 201156Z AUTO 00000KT 10SM -RA BKN100 15/14 A2991 RMK AO2 RAB35 SLP128 P0000 6//// 7//// T01500139 10183 20150 53005=
202006201056 METAR KPWT 201056Z AUTO 15004KT 10SM SCT110 16/13 A2989 RMK AO2 SLP125 T01560133=
202006200956 METAR KPWT 200956Z AUTO 24004KT 10SM BKN085 16/13 A2990 RMK AO2 SLP126 T01610128=
202006200856 METAR KPWT 200856Z AUTO 00000KT 10SM CLR 16/13 A2989 RMK AO2 SLP124 T01560128 58012=
202006200756 METAR KPWT 200756Z AUTO 00000KT 10SM CLR 17/13 A2991 RMK AO2 SLP128 T01720133 402720100=
202006200656 METAR KPWT 200656Z AUTO 31003KT 10SM CLR 18/13 A2992 RMK AO2 SLP133 T01830128=
202006200556 METAR KPWT 200556Z AUTO 22006KT 10SM FEW095 18/12 A2993 RMK AO2 SLP135 6//// T01780122 10261 20178 51006=
202006200456 METAR KPWT 200456Z AUTO 00000KT 10SM CLR 19/12 A2993 RMK AO2 SLP135 T01940122=
202006200356 METAR KPWT 200356Z AUTO 06007KT 10SM CLR 21/13 A2992 RMK AO2 SLP131 T02060128=
202006200256 METAR KPWT 200256Z AUTO 06004KT 10SM CLR 22/14 A2991 RMK AO2 SLP129 6//// T02170139 53003=
202006200156 METAR KPWT 200156Z AUTO 08003KT 7SM CLR 23/13 A2991 RMK AO2 SLP128 T02330133=
202006200056 METAR KPWT 200056Z AUTO 04005KT 10SM CLR 24/14 A2990 RMK AO2 SLP128 T02390139=
202006192356 METAR KPWT 192356Z AUTO 00000KT 10SM CLR 26/13 A2990 RMK AO2 SLP127 T02610128 10272 20222 56014=
202006192256 METAR KPWT 192256Z AUTO 20005KT 10SM CLR 27/13 A2992 RMK AO2 SLP132 T02720133=
202006192156 METAR KPWT 192156Z AUTO VRB03KT 10SM CLR 26/13 A2993 RMK AO2 SLP134 T02610133=
202006192056 METAR KPWT 192056Z AUTO VRB05KT 10SM CLR 26/14 A2994 RMK AO2 SLP141 T02610144 58012=
202006191956 METAR KPWT 191956Z AUTO 00000KT 10SM CLR 25/13 A2996 RMK AO2 SLP146 T02500133=
202006191856 METAR KPWT 191856Z AUTO VRB03KT 10SM CLR 24/13 A2998 RMK AO2 SLP152 T02440133=
202006191756 METAR KPWT 191756Z AUTO 00000KT 10SM CLR 23/12 A2998 RMK AO2 SLP153 6//// T02330122 10239 20100 56010=
202006191656 METAR KPWT 191656Z AUTO 00000KT 10SM CLR 22/12 A2999 RMK AO2 SLP156 T02170122=
202006191556 METAR KPWT 191556Z AUTO VRB03KT 10SM CLR 20/11 A3000 RMK AO2 SLP159 T02000111=
202006191456 METAR KPWT 191456Z AUTO 10SM CLR 17/12 A3001 RMK AO2 SLP163 6//// T01720122 56005=
202006191356 METAR KPWT 191356Z AUTO 00000KT 10SM CLR 14/12 A3001 RMK AO2 SLP164 T01440122=
202006191256 METAR KPWT 191256Z AUTO 00000KT 10SM CLR 11/10 A3002 RMK AO2 SLP167 T01110100=
202006191156 METAR KPWT 191156Z AUTO 00000KT 10SM CLR 11/09 A3002 RMK AO2 SLP169 6//// 7//// T01110094 10144 20106 57010=
202006191056 METAR KPWT 191056Z AUTO 00000KT 10SM CLR 11/09 A3003 RMK AO2 SLP172 T01110094=
202006190956 METAR KPWT 190956Z AUTO 00000KT 10SM CLR 13/10 A3005 RMK AO2 SLP176 T01330100=
202006190856 METAR KPWT 190856Z AUTO 00000KT 10SM CLR 12/10 A3005 RMK AO2 SLP180 6//// T01220100 58010=
202006190756 METAR KPWT 190756Z AUTO 00000KT 10SM CLR 13/11 A3007 RMK AO2 SLP184 T01280106 402440072=
202006190656 METAR KPWT 190656Z AUTO 00000KT 10SM CLR 13/11 A3008 RMK AO2 SLP188 T01280106=
202006190556 METAR KPWT 190556Z AUTO 00000KT 10SM CLR 14/11 A3008 RMK AO2 SLP191 6//// T01440111 10239 20144 58003=
202006190456 METAR KPWT 190456Z AUTO 00000KT 10SM CLR 15/12 A3009 RMK AO2 SLP193 T01500117=
202006190356 METAR KPWT 190356Z AUTO 09003KT 10SM CLR 19/11 A3009 RMK AO2 SLP192 T01940106=
202006190256 METAR KPWT 190256Z AUTO 10SM CLR 22/11 A3009 RMK AO2 SLP194 6//// T02170106 56014=
202006190156 METAR KPWT 190156Z AUTO 06006KT 10SM CLR 22/11 A3010 RMK AO2 SLP196 T02220111=
202006190056 METAR KPWT 190056Z AUTO 06010KT 10SM CLR 23/12 A3012 RMK AO2 SLP202 T02330117=
202006182356 METAR KPWT 182356Z AUTO 07007KT 10SM CLR 24/12 A3014 RMK AO2 SLP208 6//// T02390122 10244 20178 56014=
202006182256 METAR KPWT 182256Z AUTO 00000KT 10SM CLR 23/12 A3014 RMK AO2 SLP210 T02330117=
202006182156 METAR KPWT 182156Z AUTO 00000KT 10SM CLR 24/12 A3016 RMK AO2 SLP216 T02390122=
202006182056 METAR KPWT 182056Z AUTO VRB03KT 10SM CLR 22/11 A3018 RMK AO2 SLP222 6//// T02170111=
202006181956 METAR KPWT 181956Z AUTO 09006KT 10SM CLR 21/11 A3019 RMK AO2 SLP226 T02110111=
202006181856 METAR KPWT 181856Z AUTO 00000KT 10SM 21/11 A3021 RMK AO2 SLP232 T02060111=
202006181756 METAR KPWT 181756Z AUTO 10SM CLR 18/11 RMK AO2 SLPNO T01780106 10183 20072 $=
202006181656 METAR KPWT 181656Z AUTO 10005KT 10SM CLR 16/11 A3025 RMK AO2 SLP245 T01560111=
202006181556 METAR KPWT 181556Z AUTO 06005KT 10SM CLR 15/11 A3026 RMK AO2 SLP251 T01500106=
202006181456 METAR KPWT 181456Z AUTO 03006KT 10SM CLR 13/11 A3027 RMK AO2 SLP253 T01330111 58001=
202006181356 METAR KPWT 181356Z AUTO 05004KT 10SM CLR 12/10 A3027 RMK AO2 SLP255 T01170100=
202006181300 SPECI KPWT 181300Z AUTO 00000KT 3SM BR CLR 09/08 A3027 RMK AO2=
202006181256 METAR KPWT 181256Z AUTO 00000KT 1 1/2SM BR CLR 08/08 A3027 RMK AO2 VIS 1/2V5 SLP254 T00830083=
202006181254 SPECI KPWT 181254Z AUTO 00000KT 1SM BR CLR 08/08 A3027 RMK AO2 VIS 1/2V5=
202006181241 SPECI KPWT 181241Z AUTO 00000KT 1/2SM FG CLR 08/07 A3027 RMK AO2 VIS 1/4V2 1/2=
202006181237 SPECI KPWT 181237Z AUTO 00000KT 1SM BR CLR 07/07 A3027 RMK AO2 VIS 1/4V5=
202006181156 METAR KPWT 181156Z AUTO 00000KT 10SM CLR 09/08 A3027 RMK AO2 SLP253 7//// T00890083 10144 20078 58002=
202006181056 METAR KPWT 181056Z AUTO 00000KT 10SM CLR 09/09 A3028 RMK AO2 SLP256 T00940089=
202006180956 METAR KPWT 180956Z AUTO 05005KT 10SM CLR 11/10 A3028 RMK AO2 SLP255 T01110100=
202006180856 METAR KPWT 180856Z AUTO 05006KT 10SM CLR 12/10 A3028 RMK AO2 SLP256 T01170100 58002=
202006180756 METAR KPWT 180756Z AUTO 05003KT 10SM CLR 12/10 A3028 RMK AO2 SLP257 T01220100 402220067=
202006180656 METAR KPWT 180656Z AUTO 00000KT 10SM CLR 13/11 A3028 RMK AO2 SLP258 T01280106=
202006180556 METAR KPWT 180556Z AUTO 08005KT 10SM CLR 14/11 A3028 RMK AO2 SLP257 6//// T01440111 10211 20133 51005=
202006180456 METAR KPWT 180456Z AUTO 00000KT 10SM CLR 13/12 A3028 RMK AO2 SLP257 T01330117=
202006180356 METAR KPWT 180356Z AUTO 00000KT 10SM CLR 17/12 A3027 RMK AO2 SLP253 T01720122=
202006180256 METAR KPWT 180256Z AUTO 22006KT 10SM BKN050 19/12 A3027 RMK AO2 SLP252 6//// T01890122 56001=
202006180156 METAR KPWT 180156Z AUTO 22005KT 10SM OVC050 19/12 A3027 RMK AO2 SLP252 T01940117=
202006180056 METAR KPWT 180056Z AUTO 21007KT 10SM OVC055 21/12 A3027 RMK AO2 SLP252 T02110117=
202006172356 METAR KPWT 172356Z AUTO 21005KT 10SM OVC050 20/11 A3027 RMK AO2 SLP254 6//// T02000111 10222 20156=
202006172256 METAR KPWT 172256Z AUTO 24008KT 10SM SCT047 OVC055 21/10 A3028 RMK AO2 SLP255 T02110100=
202006172156 METAR KPWT 172156Z AUTO VRB03KT 10SM OVC050 22/11 A3028 RMK AO2 SLP256 T02220106=
202006172056 METAR KPWT 172056Z AUTO 10SM CLR 20/11 RMK AO2 SLPNO 6//// T02000106 $=
202006171956 METAR KPWT 171956Z AUTO 10SM CLR 18/11 RMK AO2 SLPNO T01830111 $=
202006171856 METAR KPWT 171856Z AUTO VRB04KT 10SM CLR 17/11 A3031 RMK AO2 SLP266 T01720111=
202006171756 METAR KPWT 171756Z AUTO 22008KT 10SM CLR 16/11 A3031 RMK AO2 SLP269 T01560111 10156 20067 53008=
202006171656 METAR KPWT 171656Z AUTO 23006KT 10SM FEW010 OVC060 14/11 A3031 RMK AO2 SLP267 T01390111=
202006171556 METAR KPWT 171556Z AUTO 00000KT 10SM OVC060 13/11 A3029 RMK AO2 SLP261 T01280106=
202006171542 SPECI KPWT 171542Z AUTO 23003KT 10SM SCT002 OVC060 12/11 A3030 RMK AO2=
202006171528 SPECI KPWT 171528Z AUTO 25003KT 10SM BKN002 OVC060 11/11 A3029 RMK AO2=
202006171519 SPECI KPWT 171519Z AUTO 22003KT 2SM BR OVC002 11/11 A3029 RMK AO2 VIS 1 1/4V5=
202006171513 SPECI KPWT 171513Z AUTO 00000KT 1SM BR OVC002 11/10 A3029 RMK AO2 VIS 1/2V2=
202006171506 SPECI KPWT 171506Z AUTO 00000KT 1/2SM FG OVC002 10/10 A3029 RMK AO2=
202006171456 METAR KPWT 171456Z AUTO 00000KT 1/4SM FG OVC002 09/09 A3029 RMK AO2 SLP261 T00940094 50008=
202006171452 SPECI KPWT 171452Z AUTO 00000KT 1/4SM FG OVC002 09/09 A3029 RMK AO2=
202006171443 SPECI KPWT 171443Z AUTO 00000KT 1/2SM FG OVC002 09/09 A3029 RMK AO2=
202006171434 SPECI KPWT 171434Z AUTO 00000KT 3/4SM BR OVC002 09/09 A3029 RMK AO2=
202006171428 SPECI KPWT 171428Z AUTO 21004KT 1 3/4SM BR OVC002 09/09 A3029 RMK AO2 VIS 1/2V5=
202006171413 SPECI KPWT 171413Z AUTO 23005KT 3SM BR OVC002 09/09 A3028 RMK AO2=
202006171403 SPECI KPWT 171403Z AUTO 25004KT 1 3/4SM BR OVC002 09/09 A3028 RMK AO2=
202006171356 METAR KPWT 171356Z AUTO 24004KT 8SM OVC002 09/09 A3027 RMK AO2 SLP255 T00940089=
202006171327 SPECI KPWT 171327Z AUTO 21003KT 3SM BR OVC002 09/09 A3027 RMK AO2=
202006171325 SPECI KPWT 171325Z AUTO 20003KT 1 1/2SM BR OVC002 09/09 A3027 RMK AO2 VIS 1/2V5=
202006171322 SPECI KPWT 171322Z AUTO 21004KT 3/4SM BR OVC002 09/09 A3027 RMK AO2=
202006171256 METAR KPWT 171256Z AUTO 00000KT 1/4SM FG OVC002 09/09 A3027 RMK AO2 SLP253 T00890089=
202006171216 SPECI KPWT 171216Z AUTO 20003KT 1/4SM FG BKN002 OVC055 07/07 A3026 RMK AO2=
202006171211 SPECI KPWT 171211Z AUTO 21003KT 3/4SM BR SCT002 BKN055 07/07 A3026 RMK AO2 VIS 1/4V5=
202006171207 SPECI KPWT 171207Z AUTO 20003KT 1 1/4SM BR FEW002 BKN055 07/07 A3026 RMK AO2 VIS 1/4V5=
202006171156 METAR KPWT 171156Z AUTO 00000KT 1/2SM FG BKN055 07/06 A3026 RMK AO2 SLP251 7//// T00670061 10094 20067 52010=
202006171056 METAR KPWT 171056Z AUTO 00000KT 10SM SCT055 07/07 A3025 RMK AO2 SLP247 T00720067=
202006170956 METAR KPWT 170956Z AUTO 00000KT 10SM CLR 07/06 A3024 RMK AO2 SLP244 T00670061=
202006170856 METAR KPWT 170856Z AUTO 00000KT 10SM CLR 07/06 A3023 RMK AO2 SLP240 T00720061 51007=
202006170756 METAR KPWT 170756Z AUTO 00000KT 10SM CLR 08/07 A3022 RMK AO2 SLP240 T00780072 401830072=
202006170656 METAR KPWT 170656Z AUTO 00000KT 10SM CLR 08/07 A3022 RMK AO2 SLP236 T00830072=
202006170556 METAR KPWT 170556Z AUTO 00000KT 10SM BKN060 09/08 A3021 RMK AO2 SLP233 6//// T00940078 10183 20083 51015=
202006170456 METAR KPWT 170456Z AUTO 00000KT 10SM CLR 11/09 A3019 RMK AO2 SLP229 T01110089=
202006170356 METAR KPWT 170356Z AUTO 00000KT 10SM CLR 15/08 A3017 RMK AO2 SLP222 T01500078=
202006170335 SPECI KPWT 170335Z AUTO 07003KT 10SM CLR 16/08 A3017 RMK AO2=
202006170326 SPECI KPWT 170326Z AUTO 08005KT 2 1/2SM HZ CLR 16/08 RMK AO2 $=
202006170256 METAR KPWT 170256Z AUTO 06003KT 10SM BKN080 17/08 A3016 RMK AO2 SLP216 6//// T01670078 53012=
202006170156 METAR KPWT 170156Z AUTO 35005KT 10SM CLR 18/07 A3015 RMK AO2 SLP212 T01780072=
202006170056 METAR KPWT 170056Z AUTO 04007KT 10SM BKN050 BKN070 17/07 A3014 RMK AO2 SLP208 T01670072=
202006162356 METAR KPWT 162356Z AUTO 05006KT 10SM BKN050 OVC060 17/07 A3012 RMK AO2 SLP205 6//// T01670072 10183 20144 53012=
202006162256 METAR KPWT 162256Z AUTO 09004KT 10SM BKN047 BKN065 17/08 A3011 RMK AO2 SLP199 T01720078=
202006162156 METAR KPWT 162156Z AUTO 07006KT 10SM FEW043 SCT055 17/08 A3010 RMK AO2 SLP195 T01670083=
202006162056 METAR KPWT 162056Z AUTO 05011G15KT 10SM FEW032 BKN060 18/09 A3009 RMK AO2 SLP192 6//// T01780094 50005=
202006161956 METAR KPWT 161956Z AUTO 05007KT 10SM OVC055 16/08 A3009 RMK AO2 SLP194 T01560083=
202006161856 METAR KPWT 161856Z AUTO 06008KT 10SM FEW037 BKN047 OVC055 16/09 A3008 RMK AO2 SLP190 T01560089=
202006161813 SPECI KPWT 161813Z AUTO 05009KT 10SM SCT026 BKN050 15/08 A3008 RMK AO2=
202006161756 METAR KPWT 161756Z AUTO 04008KT 10SM BKN026 OVC047 14/09 A3007 RMK AO2 SLP188 T01440089 10144 20094 51009=
202006161656 METAR KPWT 161656Z AUTO 00000KT 10SM OVC049 13/08 A3007 RMK AO2 SLP185 T01280083=
202006161628 SPECI KPWT 161628Z AUTO 00000KT 10SM SCT014 BKN038 OVC047 13/09 A3006 RMK AO2=
202006161619 SPECI KPWT 161619Z AUTO 28003KT 10SM BKN014 BKN039 OVC045 13/09 A3006 RMK AO2=
202006161556 METAR KPWT 161556Z AUTO 00000KT 10SM FEW012 OVC048 12/09 A3006 RMK AO2 SLP182 T01170094=
202006161503 SPECI KPWT 161503Z AUTO 00000KT 10SM SCT007 SCT021 OVC046 11/09 A3005 RMK AO2=
202006161456 METAR KPWT 161456Z AUTO 00000KT 10SM BKN007 BKN021 OVC046 11/09 A3005 RMK AO2 SLP179 T01060094 53009=
202006161435 SPECI KPWT 161435Z AUTO 00000KT 10SM BKN007 OVC050 11/09 A3004 RMK AO2=
202006161426 SPECI KPWT 161426Z AUTO 00000KT 10SM SCT007 BKN050 10/09 A3004 RMK AO2=
202006161356 METAR KPWT 161356Z AUTO 00000KT 10SM FEW050 BKN100 11/09 A3003 RMK AO2 SLP173 T01060089=
202006161256 METAR KPWT 161256Z AUTO 00000KT 10SM SCT005 10/09 A3002 RMK AO2 SLP170 T01000094=
202006161253 SPECI KPWT 161253Z AUTO 00000KT 10SM SCT005 10/09 A3002 RMK AO2=
202006161233 SPECI KPWT 161233Z AUTO 00000KT 10SM BKN005 09/09 A3002 RMK AO2=
202006161225 SPECI KPWT 161225Z AUTO 00000KT 10SM SCT005 09/09 A3001 RMK AO2=
202006161156 METAR KPWT 161156Z AUTO 23003KT 10SM OVC005 10/09 A3001 RMK AO2 CIG 004V007 SLP165 60000 70014 T01000094 10106 20100 52007=
202006161147 SPECI KPWT 161147Z AUTO 24003KT 10SM BKN005 OVC100 10/09 A3001 RMK AO2 CIG 004V007=
202006161140 SPECI KPWT 161140Z AUTO 00000KT 10SM BKN007 BKN060 BKN100 10/09 A3000 RMK AO2=
202006161132 SPECI KPWT 161132Z AUTO 00000KT 10SM SCT007 BKN060 BKN100 10/09 A3000 RMK AO2=
202006161056 METAR KPWT 161056Z AUTO 19003KT 10SM BKN050 10/09 A3000 RMK AO2 SLP163 T01000094=
202006160956 METAR KPWT 160956Z AUTO 00000KT 10SM FEW012 10/09 A2999 RMK AO2 SLP160 T01000094=
202006160940 SPECI KPWT 160940Z AUTO 19003KT 10SM BKN012 10/09 A2999 RMK AO2=
202006160933 SPECI KPWT 160933Z AUTO 19003KT 10SM SCT012 BKN050 BKN100 10/09 A2999 RMK AO2=
202006160856 METAR KPWT 160856Z AUTO 20003KT 10SM BKN012 BKN055 10/09 A2999 RMK AO2 SLP157 60000 T01000094 50001=
202006160756 METAR KPWT 160756Z AUTO 21005KT 10SM BKN060 BKN090 11/09 A2999 RMK AO2 SLP159 T01060094 401830100=
202006160656 METAR KPWT 160656Z AUTO 21004KT 10SM SCT065 10/09 A2999 RMK AO2 RAB20E36 SLP158 P0000 T01000089=
202006160556 METAR KPWT 160556Z AUTO 22004KT 10SM FEW060 11/08 A2998 RMK AO2 SLP158 T01060078 10167 20106 51010=
202006160456 METAR KPWT 160456Z AUTO 20007KT 10SM CLR 11/08 A2998 RMK AO2 SLP155 T01110078=
202006160356 METAR KPWT 160356Z AUTO 21009KT 10SM FEW065 SCT100 13/08 A2997 RMK AO2 SLP151 T01280078=
202006160256 METAR KPWT 160256Z AUTO 21014G21KT 10SM SCT100 14/08 A2995 RMK AO2 SLP147 T01390078 51011=
202006160156 METAR KPWT 160156Z AUTO 22013G17KT 10SM FEW100 14/08 A2994 RMK AO2 SLP142 T01440083=
202006160056 METAR KPWT 160056Z AUTO 23013G18KT 10SM FEW090 15/08 A2993 RMK AO2 PK WND 21026/0004 SLP140 T01500083=
202006152356 METAR KPWT 152356Z AUTO 23020G28KT 10SM CLR 17/08 A2992 RMK AO2 PK WND 24028/2355 SLP134 60000 T01670078 10183 20122 53012=
202006152256 METAR KPWT 152256Z AUTO 22014G24KT 10SM CLR 17/08 A2991 RMK AO2 SLP129 T01670078=
202006152156 METAR KPWT 152156Z AUTO 22016G19KT 10SM SCT050 BKN060 17/09 A2989 RMK AO2 PK WND 23028/2116 SLP125 T01670089=
202006152056 METAR KPWT 152056Z AUTO 21015G22KT 10SM CLR 17/11 A2989 RMK AO2 SLP122 60000 T01720111=
202006152028 SPECI KPWT 152028Z AUTO 22014G23KT 10SM SCT019 17/12 A2988 RMK AO2=
202006152017 SPECI KPWT 152017Z AUTO 22017G22KT 10SM SCT017 BKN021 16/12 A2988 RMK AO2=
202006152006 SPECI KPWT 152006Z AUTO 23016G21KT 8SM SCT015 16/12 A2988 RMK AO2=
202006151956 METAR KPWT 151956Z AUTO 22011KT 10SM BKN013 16/13 A2988 RMK AO2 SLP121 T01610128=
202006151932 SPECI KPWT 151932Z AUTO 21010G18KT 10SM BKN011 14/12 A2988 RMK AO2=
202006151856 METAR KPWT 151856Z AUTO 23011KT 10SM BKN007 OVC014 14/12 RMK AO2 RAB09E48 CIG 004V011 SLPNO P0000 T01390122 $=
202006151832 SPECI KPWT 151832Z AUTO 21010KT 10SM -RA BKN007 OVC011 13/12 A2987 RMK AO2 RAB09 CIG 004V009 P0000=
202006151815 SPECI KPWT 151815Z AUTO 21010KT 10SM -RA BKN005 OVC009 13/12 A2988 RMK AO2 RAB09 CIG 003V008 P0000=
202006151756 METAR KPWT 151756Z AUTO VRB05KT 10SM OVC003 12/12 A2987 RMK AO2 RAB04E41 SLP120 P0001 60014 T01220117 10122 20106 53000=
202006151752 SPECI KPWT 151752Z AUTO 20005KT 10SM OVC003 12/12 A2987 RMK AO2 RAB04E41 P0001=
202006151656 METAR KPWT 151656Z AUTO 20007KT 9SM OVC005 12/11 A2987 RMK AO2 RAB03E32 CIG 004V008 SLP118 P0000 T01170111=
202006151556 METAR KPWT 151556Z AUTO 00000KT 10SM OVC005 12/11 A2987 RMK AO2 RAE54 SLP119 P0001 T01170106=
202006151503 SPECI KPWT 151503Z AUTO 00000KT 4SM -RA BR BKN005 BKN010 OVC015 11/11 A2987 RMK AO2 CIG 003V008 P0000=
202006151456 METAR KPWT 151456Z AUTO 00000KT 7SM -RA SCT005 BKN013 OVC017 11/11 A2987 RMK AO2 SLP117 P0002 60012 T01110106 58007=
202006151448 SPECI KPWT 151448Z AUTO 11003KT 10SM -RA FEW005 SCT011 OVC017 11/11 A2987 RMK AO2 P0002=
202006151437 SPECI KPWT 151437Z AUTO 15004KT 10SM -RA SCT007 BKN011 OVC019 11/11 A2987 RMK AO2 P0002=
202006151421 SPECI KPWT 151421Z AUTO VRB03KT 10SM -RA BKN007 OVC011 11/11 A2987 RMK AO2 CIG 004V009 P0001=
202006151406 SPECI KPWT 151406Z AUTO 00000KT 10SM -RA SCT007 BKN010 BKN015 11/11 A2988 RMK AO2 P0001=
202006151359 SPECI KPWT 151359Z AUTO 28003KT 10SM -RA BKN009 BKN012 11/11 A2988 RMK AO2 CIG 004V011 P0000=
202006151356 METAR KPWT 151356Z AUTO 00000KT 8SM -RA BKN012 11/11 A2988 RMK AO2 SLP122 P0008 T01110106=
202006151342 SPECI KPWT 151342Z AUTO 00000KT 7SM -RA SCT021 11/11 A2988 RMK AO2 P0006=
202006151256 METAR KPWT 151256Z AUTO 00000KT 10SM -RA FEW013 OVC021 11/10 A2988 RMK AO2 SLP120 P0002 T01060100=
202006151156 METAR KPWT 151156Z AUTO 00000KT 10SM -RA SCT017 BKN026 OVC031 11/10 A2989 RMK AO2 SLP123 P0001 60004 7//// T01060100 10122 20106 56009=
202006151056 METAR KPWT 151056Z AUTO 00000KT 10SM -RA FEW039 SCT049 SCT060 11/10 A2990 RMK AO2 SLP126 P0001 T01060100=
202006150956 METAR KPWT 150956Z AUTO 00000KT 10SM -RA BKN045 OVC055 11/10 A2991 RMK AO2 SLP132 P0001 T01110100=
202006150856 METAR KPWT 150856Z AUTO 00000KT 10SM -RA BKN055 11/10 A2992 RMK AO2 SLP134 P0001 60001 T01110100 56015=
202006150756 METAR KPWT 150756Z AUTO 00000KT 10SM -RA BKN043 12/10 A2993 RMK AO2 RAB48 SLP139 P0000 T01170100 401830061=
202006150656 METAR KPWT 150656Z AUTO 13003KT 10SM SCT110 12/09 A2995 RMK AO2 SLP144 T01170094=
202006150556 METAR KPWT 150556Z AUTO 00000KT 10SM OVC110 12/09 A2996 RMK AO2 SLP150 6//// T01220094 10183 20122 56013=
202006150456 METAR KPWT 150456Z AUTO 00000KT 10SM CLR 14/08 A2997 RMK AO2 SLP154 T01390083=
202006150356 METAR KPWT 150356Z AUTO 20003KT 10SM CLR 14/08 A2999 RMK AO2 SLP158 T01390083=
202006150256 METAR KPWT 150256Z AUTO 21004KT 10SM CLR 15/08 A3000 RMK AO2 SLP163 6//// T01500083 58008=
202006150156 METAR KPWT 150156Z AUTO 21009KT 10SM BKN070 16/08 A3001 RMK AO2 SLP166 T01560083=
202006150056 METAR KPWT 150056Z AUTO 22011KT 10SM FEW041 17/08 A3002 RMK AO2 SLP168 T01670078=
202006142356 METAR KPWT 142356Z AUTO VRB05KT 10SM BKN041 BKN075 18/08 A3003 RMK AO2 SLP171 6//// T01830083 10183 20133 58001=
202006142256 METAR KPWT 142256Z AUTO 21009G16KT 10SM BKN044 BKN060 OVC075 18/07 A3003 RMK AO2 SLP172 T01780072=
202006142156 METAR KPWT 142156Z AUTO 20013G19KT 10SM FEW050 BKN065 17/08 A3003 RMK AO2 SLP173 T01720078=
202006142056 METAR KPWT 142056Z AUTO 21010G17KT 10SM BKN070 16/08 A3003 RMK AO2 SLP172 T01610078=
202006141956 METAR KPWT 141956Z AUTO 16008KT 10SM FEW040 16/08 RMK AO2 SLPNO T01610078 $=
202006141856 METAR KPWT 141856Z AUTO 20009KT 10SM FEW050 16/08 A3003 RMK AO2 SLP172 T01560083=
202006141831 SPECI KPWT 141831Z AUTO 18006KT 10SM SCT025 BKN042 BKN050 14/08 A3003 RMK AO2=
202006141756 METAR KPWT 141756Z AUTO 20007KT 160V230 10SM BKN023 13/08 A3003 RMK AO2 SLP172 T01330078 10139 20078 51002=
202006141656 METAR KPWT 141656Z AUTO 20005KT 10SM FEW021 12/08 A3002 RMK AO2 SLP172 T01220083=
202006141647 SPECI KPWT 141647Z AUTO 23005KT 10SM FEW016 SCT022 12/08 A3002 RMK AO2=
202006141638 SPECI KPWT 141638Z AUTO 25006KT 10SM SCT015 BKN022 11/08 A3002 RMK AO2=
202006141620 SPECI KPWT 141620Z AUTO 25008KT 10SM BKN011 BKN018 11/08 A3002 RMK AO2=
202006141556 METAR KPWT 141556Z AUTO 23009KT 10SM OVC007 11/08 A3002 RMK AO2 CIG 006V011 SLP171 T01060083=
202006141456 METAR KPWT 141456Z AUTO 23007KT 10SM OVC005 09/08 A3002 RMK AO2 SLP170 T00890078 53007=
202006141356 METAR KPWT 141356Z AUTO 22007KT 10SM OVC005 08/08 A3001 RMK AO2 SLP166 T00830078=
202006141329 SPECI KPWT 141329Z AUTO 21008KT 10SM OVC005 08/08 A3001 RMK AO2=
202006141256 METAR KPWT 141256Z AUTO 00000KT 10SM OVC003 08/07 A3001 RMK AO2 SLP167 T00780072=
202006141216 SPECI KPWT 141216Z AUTO 00000KT 10SM BKN003 07/07 A3000 RMK AO2=
202006141208 SPECI KPWT 141208Z AUTO 00000KT 10SM BKN005 07/07 A3000 RMK AO2=
202006141156 METAR KPWT 141156Z AUTO 00000KT 10SM FEW005 SCT055 07/06 A3000 RMK AO2 SLP163 7//// T00670061 10094 20061=
202006141137 SPECI KPWT 141137Z AUTO 20003KT 10SM SCT016 BKN055 07/06 A2999 RMK AO2=
202006141103 SPECI KPWT 141103Z AUTO 20004KT 10SM OVC010 07/07 A2999 RMK AO2 CIG 007V012=
202006141056 METAR KPWT 141056Z AUTO 18004KT 10SM OVC008 07/07 A2999 RMK AO2 CIG 007V012 SLP159 T00720067=
202006141044 SPECI KPWT 141044Z AUTO 19003KT 10SM BKN008 BKN060 07/07 A2999 RMK AO2=
202006140956 METAR KPWT 140956Z AUTO 21005KT 10SM FEW007 OVC055 08/08 RMK AO2 SLPNO T00830078 $=
202006140932 SPECI KPWT 140932Z AUTO 20004KT 10SM FEW009 OVC039 08/08 A2998 RMK AO2=
202006140856 METAR KPWT 140856Z AUTO 21003KT 10SM FEW041 SCT055 08/07 A2997 RMK AO2 SLP153 T00780072 51001=
202006140837 SPECI KPWT 140837Z AUTO 21004KT 10SM SCT015 BKN055 08/07 A2997 RMK AO2=
202006140812 SPECI KPWT 140812Z AUTO 20003KT 10SM BKN015 OVC042 09/08 A2997 RMK AO2=
202006140756 METAR KPWT 140756Z AUTO 00000KT 10SM FEW017 OVC042 09/08 A2997 RMK AO2 SLP152 T00940083 401720089=
202006140709 SPECI KPWT 140709Z AUTO 22004KT 10SM SCT025 BKN035 OVC043 09/08 A2997 RMK AO2=
202006140656 METAR KPWT 140656Z AUTO 00000KT 10SM FEW014 BKN025 OVC032 09/08 A2997 RMK AO2 SLP151 T00940078=
202006140615 SPECI KPWT 140615Z AUTO 00000KT 10SM BKN014 09/08 A2997 RMK AO2=
202006140556 METAR KPWT 140556Z AUTO 20003KT 10SM CLR 09/07 A2996 RMK AO2 SLP150 6//// T00940072 10161 20094 50008=
202006140456 METAR KPWT 140456Z AUTO 00000KT 10SM 11/08 A2997 RMK AO2 SLP152 T01060078=
202006140356 METAR KPWT 140356Z AUTO 20007KT 10SM CLR 12/08 A2995 RMK AO2 SLP145 T01170083=
202006140256 METAR KPWT 140256Z AUTO 21008KT 10SM CLR 14/08 A2994 RMK AO2 SLP142 T01390083 53009=
202006140156 METAR KPWT 140156Z AUTO 21014G21KT 10SM CLR 15/09 A2992 RMK AO2 SLP135 T01500089=
202006140056 METAR KPWT 140056Z AUTO 21012G20KT 10SM CLR 14/09 A2992 RMK AO2 SLP135 T01440089=
202006132356 METAR KPWT 132356Z AUTO 20012G18KT 160V220 10SM CLR 14/09 A2991 RMK AO2 PK WND 22026/2305 SLP133 60000 T01440089 10172 20133 51001=
202006132256 METAR KPWT 132256Z AUTO 23014G24KT 10SM CLR 17/09 A2991 RMK AO2 SLP131 T01670089=
202006132156 METAR KPWT 132156Z AUTO 21013G20KT 10SM FEW060 16/09 A2992 RMK AO2 SLP135 T01560094=
202006132134 SPECI KPWT 132134Z AUTO 23017G21KT 10SM FEW028 SCT060 16/08 A2992 RMK AO2=
202006132125 SPECI KPWT 132125Z AUTO 23014G20KT 10SM BKN028 16/09 A2991 RMK AO2=
202006132056 METAR KPWT 132056Z AUTO 20013G20KT 10SM SCT026 16/09 A2991 RMK AO2 RAB04E15 SLP133 P0000 60000 T01560094 55006=
202006131956 METAR KPWT 131956Z AUTO 21011G20KT 180V250 10SM FEW030 SCT036 17/09 A2991 RMK AO2 SLP131 T01670094=
202006131856 METAR KPWT 131856Z AUTO 19009KT 10SM SCT031 BKN039 15/08 A2992 RMK AO2 SLP136 T01500083=
202006131835 SPECI KPWT 131835Z AUTO VRB06KT 10SM FEW023 SCT029 14/09 A2992 RMK AO2=
202006131756 METAR KPWT 131756Z AUTO VRB04KT 10SM BKN023 OVC032 16/09 A2993 RMK AO2 SLP137 6//// T01560094 10156 20100 58004=
202006131709 SPECI KPWT 131709Z AUTO 20007KT 10SM SCT015 BKN020 BKN028 13/09 A2994 RMK AO2=
202006131656 METAR KPWT 131656Z AUTO 19005KT 10SM BKN013 OVC022 13/09 A2994 RMK AO2 SLP142 T01280094=
202006131631 SPECI KPWT 131631Z AUTO 19004KT 10SM OVC011 12/09 A2994 RMK AO2=
202006131556 METAR KPWT 131556Z AUTO 17005KT 10SM BKN007 12/10 A2994 RMK AO2 CIG 006V013 SLP144 T01170100=
202006131456 METAR KPWT 131456Z AUTO 18004KT 10SM BKN007 BKN011 OVC026 11/10 A2994 RMK AO2 RAB20E50 CIG 004V009 SLP144 P0000 60000 T01110100 55000=
202006131452 SPECI KPWT 131452Z AUTO VRB04KT 10SM BKN007 BKN011 OVC026 11/10 A2994 RMK AO2 RAB20E50 CIG 004V009 P0000=
202006131445 SPECI KPWT 131445Z AUTO VRB04KT 10SM -RA BKN004 BKN009 OVC026 11/10 A2994 RMK AO2 RAB20 CIG 004V007 P0000=
202006131356 METAR KPWT 131356Z AUTO 00000KT 10SM FEW005 SCT016 OVC028 11/10 A2994 RMK AO2 SLP142 T01060100=
202006131344 SPECI KPWT 131344Z AUTO 00000KT 10SM SCT005 OVC018 11/10 A2994 RMK AO2=
202006131312 SPECI KPWT 131312Z AUTO 00000KT 10SM BKN005 OVC013 11/10 A2994 RMK AO2 CIG 003V007=
202006131256 METAR KPWT 131256Z AUTO 00000KT 10SM SCT005 OVC013 11/10 A2994 RMK AO2 RAB26E42 SLP141 P0000 T01060100=
202006131238 SPECI KPWT 131238Z AUTO 00000KT 10SM -RA SCT007 OVC011 11/10 A2994 RMK AO2 RAB26 P0000=
202006131224 SPECI KPWT 131224Z AUTO 00000KT 10SM BKN011 BKN027 11/10 A2994 RMK AO2=
202006131206 SPECI KPWT 131206Z AUTO 00000KT 10SM FEW003 SCT012 SCT028 10/09 A2994 RMK AO2=
202006131156 METAR KPWT 131156Z AUTO 22004KT 10SM SCT003 BKN012 BKN028 10/09 A2994 RMK AO2 RAB26E46 SLP144 P0000 60000 70013 T01000094 10117 20100 56006=
202006131148 SPECI KPWT 131148Z AUTO 19003KT 10SM BKN003 OVC012 11/10 A2994 RMK AO2 RAB26E46 P0000=
202006131139 SPECI KPWT 131139Z AUTO 00000KT 10SM -RA BKN005 OVC012 11/10 A2994 RMK AO2 RAB26 CIG 003V009 P0000=
202006131127 SPECI KPWT 131127Z AUTO 25004KT 10SM -RA BKN007 OVC029 11/10 A2994 RMK AO2 RAB26 CIG 004V009 P0000=
202006131118 SPECI KPWT 131118Z AUTO 00000KT 10SM SCT007 OVC029 11/10 A2995 RMK AO2=
202006131056 METAR KPWT 131056Z AUTO 00000KT 10SM OVC029 11/10 A2995 RMK AO2 SLP147 T01110100=
202006130956 METAR KPWT 130956Z AUTO 00000KT 10SM BKN027 OVC065 11/10 A2994 RMK AO2 SLP144 T01110100=
202006130856 METAR KPWT 130856Z AUTO 00000KT 10SM BKN025 OVC032 11/10 A2996 RMK AO2 SLP150 T01110100 56008=
202006130756 METAR KPWT 130756Z AUTO 07004KT 10SM FEW017 BKN025 11/10 A2997 RMK AO2 SLP153 T01110100 401670111=
202006130752 SPECI KPWT 130752Z AUTO 07003KT 10SM FEW017 BKN025 11/10 A2997 RMK AO2 401670111=
202006130730 SPECI KPWT 130730Z AUTO 08003KT 10SM SCT019 11/09 A2998 RMK AO2=
202006130711 SPECI KPWT 130711Z AUTO 05004KT 10SM FEW012 OVC019 11/10 A2998 RMK AO2=
202006130656 METAR KPWT 130656Z AUTO 05004KT 10SM BKN013 OVC019 11/10 A2999 RMK AO2 SLP160 T01110100=
202006130556 METAR KPWT 130556Z AUTO 00000KT 10SM BKN013 12/10 A3001 RMK AO2 SLP166 T01170100 10167 20111 50002=
202006130537 SPECI KPWT 130537Z AUTO 04003KT 10SM BKN013 BKN029 BKN070 11/10 A3002 RMK AO2=
202006130456 METAR KPWT 130456Z AUTO 06005KT 10SM BKN015 BKN075 11/10 A3002 RMK AO2 SLP171 T01110100=
202006130419 SPECI KPWT 130419Z AUTO 06006KT 10SM BKN015 11/10 A3001 RMK AO2=
202006130411 SPECI KPWT 130411Z AUTO 06007KT 10SM SCT015 11/10 A3001 RMK AO2=
202006130356 METAR KPWT 130356Z AUTO 06008KT 10SM BKN015 11/10 A3001 RMK AO2 SLP165 T01110100=
202006130256 METAR KPWT 130256Z AUTO 05003KT 10SM SCT033 12/11 A3000 RMK AO2 SLP163 T01220106 56007=
202006130156 METAR KPWT 130156Z AUTO 18006KT 10SM CLR 16/10 A3001 RMK AO2 SLP164 T01560100=
202006130112 SPECI KPWT 130112Z AUTO 19008KT 10SM FEW023 SCT055 16/11 A3001 RMK AO2=
202006130056 METAR KPWT 130056Z AUTO 17007G14KT 10SM BKN025 BKN055 17/11 A3001 RMK AO2 SLP164 T01670111=
202006130025 SPECI KPWT 130025Z AUTO 19009KT 10SM SCT021 16/11 A3002 RMK AO2=
202006122356 METAR KPWT 122356Z AUTO 19008KT 10SM BKN019 BKN026 16/11 A3002 RMK AO2 SLP169 60010 T01560111 10161 20117 58007=
202006122307 SPECI KPWT 122307Z AUTO 16007KT 10SM BKN015 OVC022 14/11 A3003 RMK AO2=
202006122256 METAR KPWT 122256Z AUTO 17008KT 10SM BKN013 BKN022 14/12 A3003 RMK AO2 SLP173 T01440117=
202006122215 SPECI KPWT 122215Z AUTO 19006KT 10SM BKN013 14/12 A3003 RMK AO2=
202006122156 METAR KPWT 122156Z AUTO 17010KT 10SM SCT011 14/12 A3004 RMK AO2 SLP175 T01440122=
202006122056 METAR KPWT 122056Z AUTO 20006KT 10SM SCT009 13/12 A3004 RMK AO2 RAE35 SLP177 P0000 60010 T01280117 51010=
202006122033 SPECI KPWT 122033Z AUTO 18010KT 10SM -RA BKN007 BKN011 13/12 A3004 RMK AO2 CIG 005V010 P0000=
202006121955 METAR KPWT 121955Z AUTO 20010KT 10SM -RA SCT007 SCT025 BKN030 12/11 A3004 RMK AO2 SLP176 P0003 T01220111=
202006121954 SPECI KPWT 121954Z AUTO 19009KT 10SM -RA SCT007 SCT025 BKN030 12/11 A3004 RMK AO2 P0003=
202006121856 METAR KPWT 121856Z AUTO 19008KT 8SM -RA BKN009 BKN027 OVC032 12/11 A3003 RMK AO2 CIG 007V014 SLP172 P0007 T01170111=
202006121836 SPECI KPWT 121836Z AUTO 19011KT 10SM -RA BKN009 BKN029 OVC035 12/11 A3003 RMK AO2 CIG 007V017 P0003=
202006121821 SPECI KPWT 121821Z AUTO 20008KT 10SM -RA SCT009 BKN026 BKN031 12/12 A3002 RMK AO2 P0002=
202006121756 METAR KPWT 121756Z AUTO 19008KT 10SM -RA BKN009 BKN012 13/12 A3001 RMK AO2 RAE10B37 SLP166 P0000 60003 T01280117 10128 20117 53005=
202006121656 METAR KPWT 121656Z AUTO 19007KT 10SM -RA OVC007 12/11 A3000 RMK AO2 CIG 005V011 SLP163 P0002 T01220111=
202006121604 SPECI KPWT 121604Z AUTO 20007KT 10SM -RA BKN007 OVC055 12/11 A3000 RMK AO2 CIG 004V008 P0001=
202006121556 METAR KPWT 121556Z AUTO 20008KT 10SM -RA SCT007 OVC055 12/11 A3000 RMK AO2 SLP160 P0001 T01170111=
202006121456 METAR KPWT 121456Z AUTO 20006KT 10SM -RA FEW008 OVC045 12/11 A3000 RMK AO2 RAE19B46 SLP161 P0000 60000 T01220106 53008=
202006121356 METAR KPWT 121356Z AUTO 00000KT 10SM -RA OVC039 13/11 A2998 RMK AO2 RAB52 SLP155 P0000 T01280111=
202006121256 METAR KPWT 121256Z AUTO 00000KT 10SM FEW029 OVC044 12/11 A2996 RMK AO2 SLP149 T01220111=
202006121156 METAR KPWT 121156Z AUTO 00000KT 10SM BKN070 12/12 A2997 RMK AO2 SLP153 7//// T01220117 10156 20122 55003=
202006121056 METAR KPWT 121056Z AUTO 15003KT 10SM SCT070 BKN120 13/12 A2997 RMK AO2 SLP150 T01280122=
202006120956 METAR KPWT 120956Z AUTO 00000KT 10SM BKN075 13/12 A2997 RMK AO2 SLP152 T01280117=
202006120856 METAR KPWT 120856Z AUTO 00000KT 10SM CLR 13/12 A2998 RMK AO2 SLP156 T01330122 58004=
202006120756 METAR KPWT 120756Z AUTO 00000KT 10SM OVC110 14/12 A3001 RMK AO2 SLP166 T01440117 402220128=
202006120656 METAR KPWT 120656Z AUTO 06004KT 10SM BKN100 16/12 A3001 RMK AO2 SLP167 T01560117=
202006120556 METAR KPWT 120556Z AUTO 05005KT 10SM CLR 16/12 A3000 RMK AO2 SLP161 T01560117 10217 20156 58012=
202006120456 METAR KPWT 120456Z AUTO 05005KT 10SM SCT110 16/12 A3001 RMK AO2 SLP166 T01610122=
202006120356 METAR KPWT 120356Z AUTO 05005KT 10SM CLR 17/12 A3002 RMK AO2 SLP169 T01720122=
202006120256 METAR KPWT 120256Z AUTO 05007KT 10SM CLR 19/10 A3003 RMK AO2 SLP173 T01890100 56006=
202006120156 METAR KPWT 120156Z AUTO 03008KT 8SM FEW050 19/12 A3003 RMK AO2 SLP173 T01940117=
202006120056 METAR KPWT 120056Z AUTO 10003KT 10SM SCT060 21/11 A3004 RMK AO2 SLP176 T02060106=
202006112356 METAR KPWT 112356Z AUTO VRB03KT 10SM CLR 22/10 A3005 RMK AO2 SLP178 6//// T02170100 10222 20144 58008=
202006112256 METAR KPWT 112256Z AUTO VRB04KT 10SM CLR 22/11 A3006 RMK AO2 SLP182 T02170106=
202006112156 METAR KPWT 112156Z AUTO 22005KT 10SM FEW037 21/11 A3007 RMK AO2 SLP185 T02060111=
202006112056 METAR KPWT 112056Z AUTO 17006KT 10SM FEW031 19/12 A3007 RMK AO2 SLP186 6//// T01940122 58004=
202006111956 METAR KPWT 111956Z AUTO 14006KT 10SM CLR 18/13 A3008 RMK AO2 SLP190 T01780128=
202006111916 SPECI KPWT 111916Z AUTO VRB05KT 10SM SCT012 17/13 A3008 RMK AO2=
202006111856 METAR KPWT 111856Z AUTO VRB05KT 10SM BKN012 16/13 A3009 RMK AO2 SLP192 T01610128=
202006111841 SPECI KPWT 111841Z AUTO 20006KT 10SM SCT008 16/13 A3009 RMK AO2=
202006111806 SPECI KPWT 111806Z AUTO 16006KT 10SM BKN008 14/13 A3009 RMK AO2=
202006111756 METAR KPWT 111756Z AUTO VRB05KT 10SM SCT008 15/13 A3008 RMK AO2 RAE12 SLP190 P0000 6//// T01500128 10150 20128 50003=
202006111656 METAR KPWT 111656Z AUTO 21003KT 10SM -RA SCT006 SCT036 13/12 A3009 RMK AO2 SLP192 P0002 T01330122=
202006111556 METAR KPWT 111556Z AUTO 21004KT 10SM -RA FEW005 SCT032 13/12 A3009 RMK AO2 SLP190 P0003 T01280122=
202006111540 SPECI KPWT 111540Z AUTO 22005KT 10SM -RA FEW007 SCT029 SCT035 13/12 A3008 RMK AO2 P0002=
202006111456 METAR KPWT 111456Z AUTO 17003KT 10SM -RA SCT036 13/12 A3008 RMK AO2 RAB41 SLP187 P0000 6//// T01280117 50003=
202006111356 METAR KPWT 111356Z AUTO 21006KT 10SM OVC032 13/12 A3008 RMK AO2 SLP190 T01280117=
202006111307 SPECI KPWT 111307Z AUTO 19003KT 10SM OVC030 13/11 A3007 RMK AO2=
202006111256 METAR KPWT 111256Z AUTO 00000KT 10SM OVC028 13/11 A3007 RMK AO2 SLP187 T01280111=
202006111156 METAR KPWT 111156Z AUTO 21003KT 10SM OVC024 13/11 A3007 RMK AO2 SLP185 70001 T01330111 10150 20133 58002=
202006111056 METAR KPWT 111056Z AUTO 22006KT 10SM OVC026 13/12 A3008 RMK AO2 SLP189 T01330117=
202006111004 SPECI KPWT 111004Z AUTO 21004KT 10SM OVC028 14/12 A3007 RMK AO2=
202006110956 METAR KPWT 110956Z AUTO 21005KT 10SM OVC030 14/12 A3007 RMK AO2 SLP187 T01390117=
202006110856 METAR KPWT 110856Z AUTO 19006KT 10SM OVC030 14/12 A3007 RMK AO2 SLP186 T01390117 58002=
202006110756 METAR KPWT 110756Z AUTO 20004KT 10SM OVC030 14/12 A3008 RMK AO2 SLP187 T01440122 402060111=
202006110656 METAR KPWT 110656Z AUTO 20003KT 10SM OVC032 15/12 A3008 RMK AO2 SLP189 T01500117=
202006110556 METAR KPWT 110556Z AUTO 23004KT 10SM OVC036 15/12 A3008 RMK AO2 SLP189 T01500122 10194 20150 53007=
202006110456 METAR KPWT 110456Z AUTO 18005KT 10SM OVC038 16/12 A3007 RMK AO2 SLP187 T01560122=
202006110356 METAR KPWT 110356Z AUTO 20005KT 10SM CLR 16/12 A3006 RMK AO2 SLP182 T01560117=
202006110256 METAR KPWT 110256Z AUTO 21008KT 10SM CLR 17/12 A3006 RMK AO2 SLP180 T01720122 56006=
202006110156 METAR KPWT 110156Z AUTO 22009KT 10SM CLR 18/12 A3006 RMK AO2 SLP181 T01780122=
202006110056 METAR KPWT 110056Z AUTO 23010KT 10SM CLR 19/12 A3007 RMK AO2 SLP185 T01940122=
202006102356 METAR KPWT 102356Z AUTO 22010KT 10SM FEW028 19/13 A3007 RMK AO2 SLP188 60000 T01890128 10206 20172 50001=
202006102338 SPECI KPWT 102338Z AUTO 24010KT 10SM BKN028 19/13 A3008 RMK AO2=
202006102256 METAR KPWT 102256Z AUTO 24014G21KT 10SM FEW025 SCT042 19/13 A3008 RMK AO2 RAB2157E08 SLP189 P0000 T01890133=
202006102156 METAR KPWT 102156Z AUTO 22013KT 9SM FEW034 BKN065 BKN080 18/14 A3008 RMK AO2 SLP190 T01830139=
202006102056 METAR KPWT 102056Z AUTO 23011KT 10SM SCT022 20/15 A3007 RMK AO2 SLP187 T02000150 58010=
202006102048 SPECI KPWT 102048Z AUTO 24010KT 10SM SCT022 SCT065 20/14 A3007 RMK AO2=
202006101956 METAR KPWT 101956Z AUTO 25009KT 10SM OVC016 18/14 A3009 RMK AO2 SLP191 T01830144=
202006101927 SPECI KPWT 101927Z AUTO 24009KT 10SM OVC016 18/14 A3009 RMK AO2=
202006101856 METAR KPWT 101856Z AUTO 22007KT 10SM BKN012 BKN017 OVC030 17/14 A3009 RMK AO2 SLP193 T01720144=
202006101756 METAR KPWT 101756Z AUTO 27004KT 10SM BKN010 OVC014 16/14 A3010 RMK AO2 RAE23 CIG 006V012 SLP197 P0001 60001 T01560139 10161 20117=
202006101708 SPECI KPWT 101708Z AUTO 26003KT 5SM -RA BR BKN008 OVC013 14/13 A3011 RMK AO2 CIG 006V012 P0001=
202006101701 SPECI KPWT 101701Z AUTO 21004KT 10SM -RA SCT008 BKN013 OVC029 14/13 A3011 RMK AO2 P0000=
202006101656 METAR KPWT 101656Z AUTO 00000KT 9SM -RA SCT010 BKN015 OVC026 14/13 A3011 RMK AO2 RAB41 SLP200 P0000 T01440128=
202006101634 SPECI KPWT 101634Z AUTO 00000KT 7SM SCT018 BKN026 OVC032 14/12 A3011 RMK AO2=
202006101607 SPECI KPWT 101607Z AUTO 00000KT 10SM FEW018 BKN055 15/12 A3012 RMK AO2=
202006101556 METAR KPWT 101556Z AUTO 10SM FEW008 BKN018 OVC049 15/12 RMK AO2 SLPNO T01500122 $=
202006101546 SPECI KPWT 101546Z AUTO 00000KT 9SM SCT008 BKN018 OVC049 14/12 A3011 RMK AO2=
202006101536 SPECI KPWT 101536Z AUTO 00000KT 10SM BKN008 OVC018 13/12 A3012 RMK AO2=
202006101507 SPECI KPWT 101507Z AUTO 00000KT 10SM FEW006 BKN020 OVC029 13/12 A3012 RMK AO2=
202006101456 METAR KPWT 101456Z AUTO 00000KT 10SM BKN022 BKN029 OVC036 13/12 A3012 RMK AO2 SLP203 T01280122 56004=
202006101356 METAR KPWT 101356Z AUTO 19003KT 10SM FEW003 OVC020 12/12 A3013 RMK AO2 SLP204 T01220117=
202006101345 SPECI KPWT 101345Z AUTO 21004KT 10SM SCT003 OVC020 12/12 A3012 RMK AO2=
202006101307 SPECI KPWT 101307Z AUTO 00000KT 10SM BKN003 OVC022 12/12 A3012 RMK AO2=
202006101256 METAR KPWT 101256Z AUTO 00000KT 10SM SCT003 OVC022 12/12 A3013 RMK AO2 SLP205 T01170117=
202006101229 SPECI KPWT 101229Z AUTO 00000KT 10SM BKN003 BKN024 OVC045 12/11 A3013 RMK AO2=
202006101156 METAR KPWT 101156Z AUTO 00000KT 10SM SCT003 BKN024 OVC043 12/12 A3014 RMK AO2 SLP209 70065 T01170117 10128 20111 56009=
202006101120 SPECI KPWT 101120Z AUTO 00000KT 10SM FEW003 OVC026 12/12 A3014 RMK AO2=
202006101106 SPECI KPWT 101106Z AUTO 00000KT 10SM BKN028 OVC032 12/12 A3014 RMK AO2=
202006101056 METAR KPWT 101056Z AUTO 21003KT 10SM OVC030 12/12 A3014 RMK AO2 SLP211 T01170117=
202006101037 SPECI KPWT 101037Z AUTO 21003KT 10SM BKN026 BKN035 OVC044 12/11 A3015 RMK AO2=
202006100956 METAR KPWT 100956Z AUTO 17003KT 10SM FEW028 SCT047 11/11 A3015 RMK AO2 SLP214 T01110111=
202006100931 SPECI KPWT 100931Z AUTO 00000KT 10SM SCT026 BKN045 11/11 A3016 RMK AO2=
202006100920 SPECI KPWT 100920Z AUTO 00000KT 10SM BKN026 12/11 A3016 RMK AO2=
202006100902 SPECI KPWT 100902Z AUTO 21003KT 10SM SCT005 SCT026 BKN044 12/11 A3016 RMK AO2=
202006100856 METAR KPWT 100856Z AUTO 21003KT 10SM BKN005 BKN026 BKN044 12/12 A3016 RMK AO2 CIG 002V007 SLP218 T01170117 58001=
202006100756 METAR KPWT 100756Z AUTO 21005KT 10SM OVC005 12/12 A3017 RMK AO2 SLP221 T01220117 401500094=
202006100739 SPECI KPWT 100739Z AUTO 21006KT 10SM BKN005 12/12 A3017 RMK AO2=
202006100730 SPECI KPWT 100730Z AUTO 20004KT 10SM SCT005 12/11 A3017 RMK AO2=
202006100656 METAR KPWT 100656Z AUTO 22007KT 10SM BKN043 13/11 A3018 RMK AO2 SLP222 T01280111=
202006100556 METAR KPWT 100556Z AUTO 22009KT 10SM OVC037 13/12 A3017 RMK AO2 SLP220 60007 T01280117 10150 20128 51014=
202006100456 METAR KPWT 100456Z AUTO 19008KT 10SM SCT038 13/12 A3016 RMK AO2 SLP216 T01280122=
202006100356 METAR KPWT 100356Z AUTO 19008KT 10SM OVC044 14/13 A3014 RMK AO2 SLP210 T01390128=
202006100318 SPECI KPWT 100318Z AUTO 19008KT 10SM FEW011 OVC038 14/13 A3013 RMK AO2=
202006100310 SPECI KPWT 100310Z AUTO 19009KT 10SM BKN011 OVC042 14/13 A3013 RMK AO2=
202006100256 METAR KPWT 100256Z AUTO 20008G15KT 10SM SCT013 OVC042 14/13 A3013 RMK AO2 SLP205 60007 T01440133 52010=
202006100248 SPECI KPWT 100248Z AUTO 18008G16KT 10SM BKN013 BKN037 OVC046 14/13 A3012 RMK AO2=
202006100156 METAR KPWT 100156Z AUTO 19008KT 10SM FEW007 OVC035 15/14 A3011 RMK AO2 SLP201 T01500139=
202006100143 SPECI KPWT 100143Z AUTO 20010KT 10SM SCT007 SCT011 OVC035 15/14 A3011 RMK AO2=
202006100056 METAR KPWT 100056Z AUTO 19008KT 10SM OVC007 15/14 A3011 RMK AO2 RAE47 CIG 003V010 SLP199 P0007 T01500139=
202006092356 METAR KPWT 092356Z AUTO 19008G15KT 5SM -RA BR OVC004 14/14 A3010 RMK AO2 SLP195 P0008 60013 T01440139 10144 20122 53008=
202006092308 SPECI KPWT 092308Z AUTO 20010KT 7SM -RA OVC004 14/14 A3009 RMK AO2 CIG 004V008 P0000=
202006092256 METAR KPWT 092256Z AUTO 20009KT 5SM -RA BR OVC006 14/13 A3008 RMK AO2 RAB48 CIG 004V010 SLP192 P0001 T01390133=
202006092156 METAR KPWT 092156Z AUTO 20009KT 10SM BKN008 OVC011 14/13 A3008 RMK AO2 CIG 005V009 SLP190 T01390133=
202006092056 METAR KPWT 092056Z AUTO 20012G15KT 9SM OVC006 14/13 A3007 RMK AO2 RAE05 CIG 004V009 SLP187 P0000 60004 T01390128 51006=
202006091956 METAR KPWT 091956Z AUTO 20011G16KT 9SM -RA OVC006 13/12 A3007 RMK AO2 RAB14 CIG 004V009 SLP188 P0003 T01330122=
202006091856 METAR KPWT 091856Z AUTO 21011G16KT 6SM BR OVC006 13/12 A3006 RMK AO2 RAE56 CIG 004V009 SLP184 P0001 T01280122=
202006091756 METAR KPWT 091756Z AUTO 21012G16KT 6SM -RA BR OVC006 12/12 A3006 RMK AO2 CIG 004V009 SLP182 P0005 60045 T01220117 10122 20094 56002=
202006091656 METAR KPWT 091656Z AUTO 20008KT 6SM -RA BR OVC008 12/11 A3006 RMK AO2 CIG 005V011 SLP183 P0005 T01170111=
202006091605 SPECI KPWT 091605Z AUTO VRB05KT 4SM -RA BR OVC006 11/11 A3006 RMK AO2 CIG 003V011 P0000=
202006091556 METAR KPWT 091556Z AUTO 19004KT 6SM -RA BR BKN004 OVC010 11/11 A3006 RMK AO2 CIG 003V008 SLP183 P0007 T01110106=
202006091534 SPECI KPWT 091534Z AUTO 19005KT 8SM -RA OVC004 11/10 A3005 RMK AO2 CIG 003V009 P0006=
202006091506 SPECI KPWT 091506Z AUTO 19004KT 4SM -RA BR BKN006 BKN015 OVC020 10/10 A3006 RMK AO2 CIG 003V009 P0003=
202006091456 METAR KPWT 091456Z AUTO 19004KT 3SM -RA BR BKN004 OVC015 11/10 A3006 RMK AO2 CIG 003V009 SLP185 P0013 60028 T01060100 55005=
202006091446 SPECI KPWT 091446Z AUTO 20004KT 4SM -RA BR BKN004 OVC015 11/10 A3006 RMK AO2 CIG 003V009 P0011=
202006091435 SPECI KPWT 091435Z AUTO 18003KT 3SM -RA BR SCT004 BKN010 OVC017 10/10 A3006 RMK AO2 P0008=
202006091431 SPECI KPWT 091431Z AUTO 18003KT 2 1/2SM -RA BR FEW004 BKN008 OVC015 10/10 A3006 RMK AO2 CIG 006V010 P0007=
202006091400 SPECI KPWT 091400Z AUTO 19003KT 2 1/2SM -RA BR FEW004 BKN014 OVC023 10/09 A3006 RMK AO2 P0001=
202006091352 METAR KPWT 091352Z AUTO 00000KT 2 1/2SM -RA BR FEW004 BKN016 OVC021 10/09 A3006 RMK AO2 VIS 1 3/4V4 SLP182 P0007 T01000094=
202006091351 SPECI KPWT 091351Z AUTO VRB03KT 2 1/2SM -RA BR SCT004 BKN016 OVC021 10/09 A3006 RMK AO2 P0007=
202006091256 METAR KPWT 091256Z AUTO 00000KT 4SM -RA BR OVC004 09/09 A3006 RMK AO2 SLP183 P0008 T00940089=
202006091156 METAR KPWT 091156Z AUTO VRB03KT 8SM -RA OVC004 09/09 A3008 RMK AO2 SLP189 P0009 60018 7//// T00940089 10111 20094 56020=
202006091149 SPECI KPWT 091149Z AUTO 19004KT 8SM -RA OVC004 09/09 A3008 RMK AO2 P0008=
202006091108 SPECI KPWT 091108Z AUTO 20005KT 9SM -RA OVC008 09/09 A3009 RMK AO2 CIG 005V012 P0001=
202006091056 METAR KPWT 091056Z AUTO 20006KT 10SM -RA BKN010 OVC013 09/09 A3009 RMK AO2 CIG 007V012 SLP194 P0004 T00940089=
202006091044 SPECI KPWT 091044Z AUTO 20004KT 10SM -RA BKN013 OVC023 09/09 A3010 RMK AO2 P0003=
202006091009 SPECI KPWT 091009Z AUTO 18004KT 10SM -RA BKN017 BKN022 BKN050 09/09 A3011 RMK AO2 P0001=
202006090956 METAR KPWT 090956Z AUTO 19004KT 10SM -RA FEW022 SCT041 BKN048 09/09 A3011 RMK AO2 SLP202 P0001 T00940089=
202006090932 SPECI KPWT 090932Z AUTO 19004KT 10SM -RA SCT017 BKN048 09/09 A3012 RMK AO2 P0001=
202006090856 METAR KPWT 090856Z AUTO 19004KT 10SM -RA BKN023 OVC029 10/09 A3014 RMK AO2 RAE17B41 SLP209 P0001 60004 T01000089 58010=
202006090830 SPECI KPWT 090830Z AUTO 19004KT 10SM BKN028 BKN035 10/09 A3014 RMK AO2 RAE17 P0001=
202006090809 SPECI KPWT 090809Z AUTO 18004KT 10SM -RA FEW017 BKN030 OVC035 10/09 A3014 RMK AO2 P0001=
202006090756 METAR KPWT 090756Z AUTO 17003KT 10SM -RA BKN028 OVC035 10/09 A3015 RMK AO2 SLP212 P0003 T01000089 401670067=
202006090721 SPECI KPWT 090721Z AUTO 16004KT 10SM -RA BKN028 OVC040 10/09 A3016 RMK AO2 P0002=
202006090656 METAR KPWT 090656Z AUTO 20004KT 10SM -RA SCT042 10/09 A3016 RMK AO2 RAB09 SLP218 P0000 T01000089=
202006090556 METAR KPWT 090556Z AUTO 18003KT 10SM CLR 11/08 A3017 RMK AO2 SLP220 T01110078 10167 20111 58003=
202006090456 METAR KPWT 090456Z AUTO 20007KT 10SM CLR 11/08 A3018 RMK AO2 SLP225 T01110078=
202006090356 METAR KPWT 090356Z AUTO 21009KT 10SM FEW060 12/07 A3018 RMK AO2 SLP223 T01170072=
202006090256 METAR KPWT 090256Z AUTO 21011KT 10SM BKN055 13/07 A3018 RMK AO2 SLP223 T01280067 58000=
202006090156 METAR KPWT 090156Z AUTO 21013G18KT 10SM CLR 13/07 A3019 RMK AO2 SLP228 T01330067=
202006090056 METAR KPWT 090056Z AUTO 22015G22KT 10SM CLR 16/08 A3018 RMK AO2 SLP226 T01610078=
202006082356 METAR KPWT 082356Z AUTO 22016G23KT 10SM CLR 17/06 A3018 RMK AO2 SLP223 T01670061 10167 20144 58006=
202006082256 METAR KPWT 082256Z AUTO 22017G22KT 10SM CLR 16/06 A3019 RMK AO2 SLP227 T01560061=
202006082156 METAR KPWT 082156Z AUTO 22018G23KT 10SM CLR 17/06 A3019 RMK AO2 PK WND 23027/2109 SLP227 T01670061=
202006082056 METAR KPWT 082056Z AUTO 22015G22KT 10SM CLR 16/06 A3020 RMK AO2 PK WND 24026/2039 SLP229 T01610056 53002=
202006081956 METAR KPWT 081956Z AUTO 23013G21KT 10SM FEW041 SCT060 16/07 A3019 RMK AO2 SLP227 T01560067=
202006081856 METAR KPWT 081856Z AUTO 22016G21KT 10SM SCT070 16/06 A3019 RMK AO2 SLP227 T01560056=
202006081756 METAR KPWT 081756Z AUTO 23011G17KT 10SM BKN045 OVC055 14/04 A3019 RMK AO2 SLP228 6//// T01440044 10150 20067 53004=
202006081656 METAR KPWT 081656Z AUTO 22009KT 10SM FEW050 14/06 A3018 RMK AO2 SLP225 T01390056=
202006081556 METAR KPWT 081556Z AUTO 22009KT 10SM CLR 14/06 A3018 RMK AO2 SLP224 T01390061=
202006081456 METAR KPWT 081456Z AUTO 00000KT 10SM CLR 12/08 A3018 RMK AO2 SLP223 60001 T01170078 51010=
202006081356 METAR KPWT 081356Z AUTO 00000KT 10SM FEW050 09/08 A3017 RMK AO2 SLP220 T00890078=
202006081256 METAR KPWT 081256Z AUTO 00000KT 10SM CLR 07/07 A3016 RMK AO2 SLP217 P0001 T00670067=
202006081156 METAR KPWT 081156Z AUTO 00000KT 10SM SCT048 08/07 A3015 RMK AO2 SLP214 70032 T00780072 10089 20078 51009=
202006081056 METAR KPWT 081056Z AUTO 21003KT 10SM BKN046 08/08 A3014 RMK AO2 SLP212 T00830078=
202006080956 METAR KPWT 080956Z AUTO 00000KT 10SM CLR 08/07 A3014 RMK AO2 SLP210 T00780072=
202006080944 SPECI KPWT 080944Z AUTO 14004KT 10SM SCT023 08/07 A3013 RMK AO2=
202006080920 SPECI KPWT 080920Z AUTO 00000KT 10SM BKN023 BKN035 09/08 A3013 RMK AO2=
202006080856 METAR KPWT 080856Z AUTO 00000KT 10SM OVC033 09/08 A3012 RMK AO2 SLP204 T00890083 50007=
202006080852 SPECI KPWT 080852Z AUTO 00000KT 10SM OVC033 09/08 A3012 RMK AO2=
202006080829 SPECI KPWT 080829Z AUTO 22004KT 10SM OVC029 08/08 A3012 RMK AO2=
202006080756 METAR KPWT 080756Z AUTO 20003KT 10SM SCT035 BKN047 08/07 A3011 RMK AO2 SLP200 T00830072 401560078=
202006080656 METAR KPWT 080656Z AUTO 00000KT 10SM SCT037 08/08 A3010 RMK AO2 SLP197 T00830078=
202006080556 METAR KPWT 080556Z AUTO 15003KT 10SM CLR 08/08 A3008 RMK AO2 SLP190 60009 T00830078 10156 20078 51017=
202006080456 METAR KPWT 080456Z AUTO 00000KT 10SM CLR 10/08 A3007 RMK AO2 SLP186 T01000083=
202006080356 METAR KPWT 080356Z AUTO 17004KT 10SM CLR 13/09 A3004 RMK AO2 SLP178 T01280089=
202006080256 METAR KPWT 080256Z AUTO 20004KT 10SM CLR 15/11 A3003 RMK AO2 SLP171 60009 T01500106 53006=
202006080156 METAR KPWT 080156Z AUTO 00000KT 10SM CLR 15/13 A3002 RMK AO2 SLP170 T01500128=
202006080056 METAR KPWT 080056Z AUTO 00000KT 10SM BKN065 14/12 A3001 RMK AO2 TSE21RAE55 SLP167 P0009 T01440122=
202006080021 SPECI KPWT 080021Z AUTO 16003KT 8SM -RA SCT026 SCT030 BKN041 14/12 A3002 RMK AO2 TSE21 P0009=
202006072356 METAR KPWT 072356Z AUTO 29005KT 9SM VCTS -RA BKN028 OVC033 14/12 A3001 RMK AO2 TSB52RAB43 SLP166 P0001 60022 T01440117 10156 20117 53006=
202006072341 SPECI KPWT 072341Z AUTO VRB03KT 10SM BKN026 OVC047 15/12 A3000 RMK AO2=
202006072256 METAR KPWT 072256Z AUTO 10004KT 10SM SCT055 15/11 A2999 RMK AO2 RAE09 SLP160 P0000 T01500111=
202006072156 METAR KPWT 072156Z AUTO 13005KT 10SM -RA FEW025 SCT060 13/12 A2999 RMK AO2 RAE04B30 SLP161 P0001 T01330117=
202006072056 METAR KPWT 072056Z AUTO 08006KT 10SM -RA FEW033 OVC055 13/11 A2999 RMK AO2 SLP161 P0010 60020 T01330111 53005=
202006072030 SPECI KPWT 072030Z AUTO 09005KT 10SM -RA FEW022 SCT034 OVC048 13/11 A2999 RMK AO2 P0010=
202006071956 METAR KPWT 071956Z AUTO 23006KT 3SM +RA BR FEW020 BKN026 OVC039 12/10 A2998 RMK AO2 RAE05B39 SLP158 P0010 T01220100=
202006071856 METAR KPWT 071856Z AUTO 00000KT 10SM -RA BKN055 14/09 A2998 RMK AO2 RAB53 SLP155 P0000 T01390089=
202006071827 SPECI KPWT 071827Z AUTO 17004KT 10SM SCT018 BKN075 14/09 A2997 RMK AO2=
202006071804 SPECI KPWT 071804Z AUTO VRB06KT 10SM BKN016 BKN075 14/10 A2997 RMK AO2=
202006071756 METAR KPWT 071756Z AUTO 21005KT 10SM BKN014 BKN070 13/09 A2997 RMK AO2 SLP155 60001 T01280094 10133 20089 51011=
202006071704 SPECI KPWT 071704Z AUTO 20003KT 10SM OVC010 12/09 A2997 RMK AO2 CIG 008V013=
202006071656 METAR KPWT 071656Z AUTO 21006KT 10SM OVC008 12/09 A2996 RMK AO2 CIG 007V011 SLP151 T01170094=
202006071627 SPECI KPWT 071627Z AUTO 21005KT 10SM OVC006 11/09 A2996 RMK AO2 CIG 003V008=
202006071556 METAR KPWT 071556Z AUTO VRB03KT 10SM OVC004 10/09 A2996 RMK AO2 SLP149 T01000094=
202006071456 METAR KPWT 071456Z AUTO VRB03KT 10SM OVC004 09/09 A2994 RMK AO2 RAB14E49 SLP143 P0000 60001 T00940089 51010=
202006071356 METAR KPWT 071356Z AUTO 20004KT 10SM OVC002 09/09 A2993 RMK AO2 RAE14 SLP141 P0000 T00890089=
202006071256 METAR KPWT 071256Z AUTO 22005KT 10SM -RA OVC002 09/08 A2992 RMK AO2 SLP137 P0001 T00890083=
202006071156 METAR KPWT 071156Z AUTO 18004KT 10SM -RA OVC002 09/09 A2991 RMK AO2 SLP133 P0004 60007 70009 T00890089 10094 20089 53011=
202006071108 SPECI KPWT 071108Z AUTO 00000KT 8SM -RA OVC002 09/09 A2990 RMK AO2 P0002=
202006071056 METAR KPWT 071056Z AUTO 24003KT 10SM -RA OVC004 09/09 A2990 RMK AO2 SLP129 P0002 T00890089=
202006071011 SPECI KPWT 071011Z AUTO 00000KT 10SM -RA OVC004 09/08 A2989 RMK AO2 P0001=
202006070956 METAR KPWT 070956Z AUTO 00000KT 10SM -RA OVC006 09/08 A2989 RMK AO2 RAB04 SLP125 P0001 T00890083=
202006070856 METAR KPWT 070856Z AUTO 19003KT 10SM OVC006 09/08 A2988 RMK AO2 CIG 006V009 SLP122 T00940083 51006=
202006070851 SPECI KPWT 070851Z AUTO 19003KT 10SM OVC008 09/08 A2987 RMK AO2 CIG 006V011=
202006070828 SPECI KPWT 070828Z AUTO 20003KT 10SM SCT008 BKN013 OVC042 09/08 A2987 RMK AO2=
202006070824 SPECI KPWT 070824Z AUTO 19003KT 10SM FEW008 SCT012 BKN031 09/08 A2987 RMK AO2=
202006070822 SPECI KPWT 070822Z AUTO 20003KT 10SM FEW012 BKN027 BKN033 09/08 A2987 RMK AO2=
202006070756 METAR KPWT 070756Z AUTO 18003KT 10SM OVC010 09/08 A2987 RMK AO2 SLP119 T00940083 401560078=
202006070656 METAR KPWT 070656Z AUTO 20004KT 10SM OVC010 09/08 A2986 RMK AO2 SLP114 T00940083=
202006070612 SPECI KPWT 070612Z AUTO 19003KT 10SM BKN012 09/08 A2985 RMK AO2=
202006070556 METAR KPWT 070556Z AUTO 00000KT 10SM CLR 09/08 A2985 RMK AO2 SLP112 T00890083 10144 20089 51007=
202006070456 METAR KPWT 070456Z AUTO 17004KT 10SM CLR 10/09 A2985 RMK AO2 SLP111 T01000089=
202006070356 METAR KPWT 070356Z AUTO 19004KT 10SM CLR 11/09 A2984 RMK AO2 SLP108 T01060089=
202006070256 METAR KPWT 070256Z AUTO 20005KT 10SM CLR 12/09 A2983 RMK AO2 SLP105 T01170094 53006=
202006070156 METAR KPWT 070156Z AUTO 20009KT 10SM CLR 12/08 A2982 RMK AO2 SLP102 T01220078=
202006070056 METAR KPWT 070056Z AUTO 24011KT 10SM FEW019 SCT025 14/08 A2981 RMK AO2 SLP098 T01440083=
202006062356 METAR KPWT 062356Z AUTO 20007KT 160V220 10SM FEW046 SCT055 13/08 A2981 RMK AO2 RAE53 SLP100 P0000 60002 T01280083 10156 20117 53009=
202006062256 METAR KPWT 062256Z AUTO 20008KT 10SM -RA FEW024 BKN045 OVC055 14/09 A2980 RMK AO2 TSB14E32RAB41 SLP094 P0000 T01390094=
202006062238 SPECI KPWT 062238Z AUTO 22009G15KT 10SM FEW024 SCT029 SCT038 14/09 A2979 RMK AO2 TSB14E32=
202006062220 SPECI KPWT 062220Z AUTO 22010KT 10SM VCTS CLR 16/09 A2979 RMK AO2 TSB14=
202006062156 METAR KPWT 062156Z AUTO 21007KT 10SM CLR 14/08 A2979 RMK AO2 SLP090 T01390083=
202006062056 METAR KPWT 062056Z AUTO 19009KT 10SM FEW060 13/09 A2978 RMK AO2 RAE22 SLP090 P0001 60002 T01280094 55000=
202006061956 METAR KPWT 061956Z AUTO 20008KT 10SM -RA FEW028 BKN055 12/09 A2978 RMK AO2 RAE06B24 SLP090 P0000 T01220089=
202006061856 METAR KPWT 061856Z AUTO 21009KT 10SM -RA FEW060 14/09 A2978 RMK AO2 RAE25B50 SLP086 P0001 T01440094=
202006061756 METAR KPWT 061756Z AUTO 22014G17KT 10SM -RA FEW021 SCT041 SCT065 14/08 A2978 RMK AO2 RAB29 SLP090 P0000 60000 T01390083 10150 20094 56007=
202006061746 SPECI KPWT 061746Z AUTO 20008G15KT 10SM FEW023 SCT029 SCT065 14/09 A2978 RMK AO2 RAB29E42 P0000=
202006061656 METAR KPWT 061656Z AUTO 22010KT 10SM BKN021 BKN029 14/08 A2979 RMK AO2 SLP090 T01390083=
202006061632 SPECI KPWT 061632Z AUTO 20011KT 10SM FEW017 SCT021 BKN027 13/09 A2979 RMK AO2=
202006061556 METAR KPWT 061556Z AUTO 20008KT 10SM SCT017 12/09 A2980 RMK AO2 SLP095 T01220089=
202006061456 METAR KPWT 061456Z AUTO 21011KT 10SM SCT010 SCT050 BKN085 11/09 A2981 RMK AO2 SLP096 T01060089 51010=
202006061432 SPECI KPWT 061432Z AUTO 20009KT 10SM FEW010 SCT014 BKN075 11/08 A2980 RMK AO2=
202006061356 METAR KPWT 061356Z AUTO 19005KT 10SM BKN014 BKN100 11/08 A2980 RMK AO2 SLP094 T01060083=
202006061343 SPECI KPWT 061343Z AUTO 19005KT 10SM BKN014 OVC100 10/08 A2980 RMK AO2=
202006061333 SPECI KPWT 061333Z AUTO 19007KT 10SM SCT014 BKN100 10/08 A2979 RMK AO2=
202006061256 METAR KPWT 061256Z AUTO 20006KT 10SM OVC014 10/08 A2978 RMK AO2 SLP088 T01000078=
202006061156 METAR KPWT 061156Z AUTO 20006KT 10SM OVC014 09/08 A2978 RMK AO2 SLP085 7//// T00940078 10100 20078 51003=
202006061056 METAR KPWT 061056Z AUTO 20006KT 10SM OVC014 09/08 A2977 RMK AO2 SLP084 T00940078=
202006060956 METAR KPWT 060956Z AUTO 19005KT 10SM OVC014 10/08 A2977 RMK AO2 SLP084 T01000083=
202006060932 SPECI KPWT 060932Z AUTO 19003KT 10SM BKN014 OVC036 09/08 A2977 RMK AO2=
202006060856 METAR KPWT 060856Z AUTO 18003KT 10SM OVC038 09/08 A2977 RMK AO2 SLP083 T00940083 52002=
202006060756 METAR KPWT 060756Z AUTO 00000KT 10SM CLR 08/07 A2976 RMK AO2 SLP082 T00830072 401940078=
202006060656 METAR KPWT 060656Z AUTO 00000KT 10SM BKN120 10/08 A2976 RMK AO2 SLP080 T01000083=
202006060556 METAR KPWT 060556Z AUTO 00000KT 10SM FEW070 BKN110 09/08 A2976 RMK AO2 SLP080 6//// T00940078 10194 20094 53009=
202006060456 METAR KPWT 060456Z AUTO 13003KT 10SM SCT033 11/08 A2975 RMK AO2 SLP078 T01060078=
202006060356 METAR KPWT 060356Z AUTO 13004KT 10SM CLR 12/08 A2973 RMK AO2 LTG DSNT E SLP072 T01220078=
202006060256 METAR KPWT 060256Z AUTO 06006KT 10SM CLR 14/08 A2973 RMK AO2 LTG DSNT E SLP071 6//// T01440083 53003=
202006060156 METAR KPWT 060156Z AUTO 05009G20KT 10SM BKN055 17/09 A2972 RMK AO2 SLP066 T01720094=
202006060056 METAR KPWT 060056Z AUTO 22010KT 10SM SCT044 BKN060 18/09 A2972 RMK AO2 LTG DSNT N SLP066 T01830089=
202006052356 METAR KPWT 052356Z AUTO VRB05KT 10SM FEW055 19/11 A2972 RMK AO2 LTG DSNT N AND NW SLP066 6//// T01890106 10189 20156 58002=
202006052256 METAR KPWT 052256Z AUTO 17005KT 10SM OVC037 18/11 A2972 RMK AO2 SLP069 T01780106=
202006052156 METAR KPWT 052156Z AUTO 15005KT 10SM BKN032 OVC042 18/11 A2973 RMK AO2 SLP069 T01780106=
202006052056 METAR KPWT 052056Z AUTO 06006KT 10SM SCT034 OVC046 17/11 A2973 RMK AO2 SLP069 6//// T01720106=
202006051956 METAR KPWT 051956Z AUTO 07005KT 10SM OVC033 17/11 RMK AO2 SLPNO T01720106 $=
202006051856 METAR KPWT 051856Z AUTO 25003KT 10SM SCT033 17/10 A2975 RMK AO2 SLP075 T01720100=
202006051756 METAR KPWT 051756Z AUTO 05003KT 10SM CLR 16/09 A2975 RMK AO2 SLP077 T01560094 10161 20078 58014=
202006051656 METAR KPWT 051656Z AUTO 00000KT 10SM CLR 14/09 A2977 RMK AO2 SLP083 T01440094=
202006051556 METAR KPWT 051556Z AUTO 00000KT 10SM CLR 13/09 A2978 RMK AO2 SLP088 T01280089=
202006051456 METAR KPWT 051456Z AUTO 00000KT 10SM CLR 12/08 A2979 RMK AO2 SLP091 T01170083 58010=
202006051356 METAR KPWT 051356Z AUTO 00000KT 9SM CLR 09/08 A2980 RMK AO2 SLP096 T00940078=
202006051256 METAR KPWT 051256Z AUTO 00000KT 10SM CLR 08/07 A2982 RMK AO2 SLP099 T00830072=
202006051156 METAR KPWT 051156Z AUTO 07003KT 10SM CLR 09/07 A2982 RMK AO2 SLP101 6//// 7//// T00890072 10128 20083 58018=
202006051056 METAR KPWT 051056Z AUTO 05005KT 10SM CLR 09/08 A2985 RMK AO2 SLP111 T00890078=
202006050956 METAR KPWT 050956Z AUTO 03003KT 10SM CLR 09/08 A2987 RMK AO2 SLP118 T00940078=
202006050856 METAR KPWT 050856Z AUTO 06004KT 10SM CLR 11/08 A2988 RMK AO2 SLP120 6//// T01060083 56022=
202006050756 METAR KPWT 050756Z AUTO 05004KT 10SM CLR 11/08 A2989 RMK AO2 SLP123 T01110078 401890083=
202006050656 METAR KPWT 050656Z AUTO 04009KT 10SM CLR 12/08 A2992 RMK AO2 SLP133 T01220078=
202006050556 METAR KPWT 050556Z AUTO 04007KT 10SM CLR 13/08 A2994 RMK AO2 SLP142 6//// T01280083 10189 20128 56009=
202006050456 METAR KPWT 050456Z AUTO 05007KT 10SM CLR 13/09 A2995 RMK AO2 SLP146 T01330089=
202006050356 METAR KPWT 050356Z AUTO 03006KT 10SM CLR 14/09 A2996 RMK AO2 SLP148 T01440089=
202006050256 METAR KPWT 050256Z AUTO 02005KT 10SM CLR 16/09 A2997 RMK AO2 SLP152 6//// T01610089=
202006050156 METAR KPWT 050156Z AUTO 03005KT 10SM BKN043 BKN060 17/09 A2999 RMK AO2 SLP158 T01720089=
202006050056 METAR KPWT 050056Z AUTO 00000KT 10SM FEW050 19/08 A3001 RMK AO2 SLP164 T01890083=
202006042356 METAR KPWT 042356Z AUTO 05005KT 10SM SCT041 BKN060 BKN080 18/09 RMK AO2 SLPNO T01830094 10189 20144 $=
202006042256 METAR KPWT 042256Z AUTO VRB05KT 10SM SCT041 17/09 A3006 RMK AO2 SLP181 T01720089=
202006042156 METAR KPWT 042156Z AUTO 00000KT 10SM SCT045 BKN055 17/08 A3007 RMK AO2 SLP187 T01720078=
202006042056 METAR KPWT 042056Z AUTO VRB05KT 10SM OVC049 17/08 A3009 RMK AO2 SLP192 T01720083 58012=
202006041956 METAR KPWT 041956Z AUTO VRB04KT 10SM OVC041 16/08 A3011 RMK AO2 SLP199 T01610078=
202006041856 METAR KPWT 041856Z AUTO 12007KT 10SM FEW031 OVC042 15/08 A3012 RMK AO2 SLP205 T01500083=
202006041829 SPECI KPWT 041829Z AUTO 19007KT 10SM SCT029 OVC046 15/08 A3013 RMK AO2=
202006041756 METAR KPWT 041756Z AUTO 16005KT 10SM BKN028 OVC039 15/09 A3013 RMK AO2 SLP204 T01500089 10150 20094 50001=
202006041724 SPECI KPWT 041724Z AUTO 00000KT 10SM BKN024 BKN028 OVC040 14/08 A3013 RMK AO2=
202006041656 METAR KPWT 041656Z AUTO VRB03KT 10SM FEW041 14/09 A3013 RMK AO2 SLP207 T01390089=
202006041556 METAR KPWT 041556Z AUTO 22003KT 10SM BKN045 OVC075 12/09 A3013 RMK AO2 SLP207 T01170089=
202006041456 METAR KPWT 041456Z AUTO 20003KT 10SM OVC070 11/09 A3012 RMK AO2 SLP204 T01060089 53004=
202006041356 METAR KPWT 041356Z AUTO 00000KT 10SM OVC060 11/09 A3012 RMK AO2 SLP203 T01060089=
202006041256 METAR KPWT 041256Z AUTO 00000KT 10SM FEW048 OVC070 10/08 A3011 RMK AO2 SLP199 T01000078=
202006041156 METAR KPWT 041156Z AUTO 00000KT 10SM SCT050 OVC070 09/08 A3011 RMK AO2 SLP198 6//// 7//// T00940078 10128 20083 53004=
202006041056 METAR KPWT 041056Z AUTO 00000KT 10SM OVC070 09/08 A3010 RMK AO2 SLP198 T00940078=
202006040956 METAR KPWT 040956Z AUTO 00000KT 10SM BKN070 08/07 A3010 RMK AO2 SLP196 T00830072=
202006040856 METAR KPWT 040856Z AUTO 00000KT 10SM FEW100 11/07 A3010 RMK AO2 SLP194 T01110067 58009=
202006040756 METAR KPWT 040756Z AUTO 06003KT 10SM BKN049 BKN100 12/09 A3011 RMK AO2 SLP199 T01170089 401830094=
202006040656 METAR KPWT 040656Z AUTO 00000KT 10SM BKN047 12/09 A3012 RMK AO2 SLP205 T01170089=
202006040556 METAR KPWT 040556Z AUTO 00000KT 10SM OVC047 13/08 A3012 RMK AO2 SLP205 6//// T01280078 10178 20128 52003=
202006040456 METAR KPWT 040456Z AUTO 05003KT 10SM OVC045 13/07 A3013 RMK AO2 SLP206 T01330067=
202006040356 METAR KPWT 040356Z AUTO 07006KT 10SM OVC045 14/08 A3011 RMK AO2 SLP200 T01440078=
202006040256 METAR KPWT 040256Z AUTO 04005KT 10SM OVC037 15/09 A3012 RMK AO2 SLP201 6//// T01500089 58007=
202006040156 METAR KPWT 040156Z AUTO 04006KT 10SM FEW043 16/09 A3013 RMK AO2 SLP204 T01560089=
202006040056 METAR KPWT 040056Z AUTO 03007KT 10SM CLR 17/09 A3013 RMK AO2 SLP208 T01670089=
202006032356 METAR KPWT 032356Z AUTO 03006KT 10SM OVC042 18/09 A3014 RMK AO2 SLP208 6//// T01780094 10183 20133 56010=
202006032256 METAR KPWT 032256Z AUTO 03005KT 10SM OVC040 17/09 A3015 RMK AO2 SLP212 T01670089=
202006032156 METAR KPWT 032156Z AUTO 36004KT 10SM OVC040 18/09 A3015 RMK AO2 SLP212 T01830089=
202006032056 METAR KPWT 032056Z AUTO VRB04KT 10SM BKN036 17/09 A3017 RMK AO2 SLP218 T01720089 58017=
202006031956 METAR KPWT 031956Z AUTO 00000KT 10SM FEW025 OVC034 16/08 A3019 RMK AO2 SLP228 T01560083=
202006031944 SPECI KPWT 031944Z AUTO 00000KT 10SM FEW025 OVC036 16/09 A3019 RMK AO2=
202006031920 SPECI KPWT 031920Z AUTO 00000KT 10SM BKN025 BKN030 OVC035 14/09 A3020 RMK AO2=
202006031856 METAR KPWT 031856Z AUTO 08005KT 10SM FEW024 BKN034 15/09 A3021 RMK AO2 SLP236 T01500089=
202006031810 SPECI KPWT 031810Z AUTO 05007KT 10SM OVC031 13/09 A3021 RMK AO2=
202006031756 METAR KPWT 031756Z AUTO 05008KT 10SM OVC029 13/09 A3022 RMK AO2 SLP238 T01330089 10139 20100 58002=
202006031656 METAR KPWT 031656Z AUTO 07009KT 10SM OVC027 13/09 A3023 RMK AO2 SLP241 T01280089=
202006031556 METAR KPWT 031556Z AUTO 06008KT 10SM OVC027 13/09 A3023 RMK AO2 SLP241 T01280089=
202006031539 SPECI KPWT 031539Z AUTO 06006KT 10SM BKN027 13/09 A3022 RMK AO2=
202006031456 METAR KPWT 031456Z AUTO 03007KT 10SM CLR 12/09 A3022 RMK AO2 SLP238 T01220094 55000=
202006031356 METAR KPWT 031356Z AUTO 05004KT 10SM CLR 12/09 A3022 RMK AO2 SLP237 T01170089=
202006031256 METAR KPWT 031256Z AUTO 08004KT 10SM BKN050 10/08 A3022 RMK AO2 SLP237 T01000083=
202006031230 SPECI KPWT 031230Z AUTO 06005KT 10SM SCT026 OVC050 10/08 A3022 RMK AO2=
202006031156 METAR KPWT 031156Z AUTO 05006KT 10SM OVC024 10/09 A3022 RMK AO2 SLP238 7//// T01000089 10106 20078 58005=
202006031146 SPECI KPWT 031146Z AUTO 05005KT 10SM BKN024 OVC055 10/09 A3023 RMK AO2=
202006031056 METAR KPWT 031056Z AUTO 08004KT 10SM FEW037 BKN055 10/08 A3023 RMK AO2 SLP241 T01000083=
202006030956 METAR KPWT 030956Z AUTO 07004KT 10SM SCT037 OVC050 10/09 A3024 RMK AO2 SLP242 T01000089=
202006030856 METAR KPWT 030856Z AUTO 05004KT 10SM BKN046 OVC055 10/09 A3024 RMK AO2 SLP242 T01000089 58002=
202006030756 METAR KPWT 030756Z AUTO 00000KT 10SM FEW030 OVC050 10/09 A3024 RMK AO2 SLP245 T01000089 401780067=
202006030656 METAR KPWT 030656Z AUTO 00000KT 10SM SCT049 08/07 A3025 RMK AO2 SLP246 T00780072=
202006030556 METAR KPWT 030556Z AUTO 00000KT 10SM CLR 09/08 A3024 RMK AO2 SLP245 6//// T00890078 10144 20083 51007=
202006030456 METAR KPWT 030456Z AUTO 00000KT 10SM SCT047 10/08 A3024 RMK AO2 SLP243 T01000083=
202006030356 METAR KPWT 030356Z AUTO 00000KT 10SM SCT044 13/09 A3023 RMK AO2 SLP240 T01280089=
202006030256 METAR KPWT 030256Z AUTO 04004KT 10SM FEW032 BKN040 14/09 A3022 RMK AO2 SLP238 T01390089 51001=
202006030156 METAR KPWT 030156Z AUTO 02003KT 10SM CLR 14/09 A3022 RMK AO2 SLP239 T01440089=
202006030123 SPECI KPWT 030123Z AUTO 06005KT 10SM SCT029 14/09 A3022 RMK AO2=
202006030108 SPECI KPWT 030108Z AUTO 07007KT 10SM BKN029 13/09 A3022 RMK AO2=
202006030056 METAR KPWT 030056Z AUTO 06007KT 10SM OVC031 13/09 A3023 RMK AO2 SLP241 T01330089=
202006022356 METAR KPWT 022356Z AUTO 03009KT 10SM SCT060 SCT075 14/09 A3022 RMK AO2 RAE11 SLP238 P0000 60000 T01390094 10178 20133 51018=
202006022256 METAR KPWT 022256Z AUTO 05010KT 10SM -RA OVC045 14/10 A3021 RMK AO2 SLP234 P0000 T01390100=
202006022156 METAR KPWT 022156Z AUTO 23007KT 10SM -RA OVC055 16/07 A3019 RMK AO2 RAB48 SLP226 P0000 T01610072=
202006022056 METAR KPWT 022056Z AUTO VRB05KT 10SM SCT055 18/08 A3017 RMK AO2 SLP219 T01780083 56005=
202006021956 METAR KPWT 021956Z AUTO 20005KT 10SM BKN070 17/09 A3017 RMK AO2 SLP220 T01670094=
202006021856 METAR KPWT 021856Z AUTO 21009KT 10SM CLR 17/09 A3017 RMK AO2 SLP221 T01670089=
202006021756 METAR KPWT 021756Z AUTO 22007KT 10SM CLR 16/09 A3018 RMK AO2 SLP223 T01560094 10156 20067 58008=
202006021656 METAR KPWT 021656Z AUTO 22004KT 10SM CLR 14/09 A3020 RMK AO2 SLP230 T01440089=
202006021556 METAR KPWT 021556Z AUTO 24005KT 10SM CLR 13/08 A3020 RMK AO2 SLP231 T01280078=
202006021456 METAR KPWT 021456Z AUTO 00000KT 10SM CLR 11/08 A3020 RMK AO2 SLP231 T01110078 55002=
202006021356 METAR KPWT 021356Z AUTO 00000KT 10SM CLR 09/08 A3020 RMK AO2 SLP230 T00890078=
202006021256 METAR KPWT 021256Z AUTO 00000KT 10SM CLR 07/06 A3019 RMK AO2 SLP228 T00670061=
202006021156 METAR KPWT 021156Z AUTO 06003KT 10SM CLR 07/06 A3021 RMK AO2 SLP234 7//// T00720061 10122 20067 58004=
202006021056 METAR KPWT 021056Z AUTO 00000KT 10SM CLR 07/06 A3022 RMK AO2 SLP236 T00670061=
202006020956 METAR KPWT 020956Z AUTO 00000KT 10SM CLR 08/07 A3022 RMK AO2 SLP237 T00780067=
202006020856 METAR KPWT 020856Z AUTO 00000KT 10SM CLR 08/07 A3022 RMK AO2 SLP238 T00830067 58001=
202006020756 METAR KPWT 020756Z AUTO 00000KT 10SM CLR 08/07 A3023 RMK AO2 SLP242 T00830072 401940083=
202006020656 METAR KPWT 020656Z AUTO 06005KT 10SM CLR 11/08 A3023 RMK AO2 SLP239 T01110078=
202006020556 METAR KPWT 020556Z AUTO 06006KT 10SM CLR 12/08 A3023 RMK AO2 SLP239 6//// T01220083 10183 20111 51009=
202006020456 METAR KPWT 020456Z AUTO 08004KT 10SM CLR 12/08 A3022 RMK AO2 SLP237 T01170083=
202006020356 METAR KPWT 020356Z AUTO 03005KT 10SM CLR 14/08 A3021 RMK AO2 SLP234 T01390083=
202006020256 METAR KPWT 020256Z AUTO 03006KT 10SM CLR 16/08 A3020 RMK AO2 SLP230 6//// T01610083 53003=
202006020156 METAR KPWT 020156Z AUTO 04006KT 10SM BKN060 18/08 A3019 RMK AO2 SLP225 T01780078=
202006020056 METAR KPWT 020056Z AUTO 04006KT 10SM FEW060 18/08 A3019 RMK AO2 SLP224 T01830078=
202006012356 METAR KPWT 012356Z AUTO 01007KT 10SM SCT049 BKN060 18/08 A3019 RMK AO2 SLP225 T01830083 10194 20150 50002=
202006012256 METAR KPWT 012256Z AUTO 00000KT 10SM SCT045 BKN060 17/07 A3019 RMK AO2 SLP227 T01720072=
202006012156 METAR KPWT 012156Z AUTO 34003KT 10SM SCT049 OVC065 18/07 A3019 RMK AO2 SLP224 T01830067=
202006012056 METAR KPWT 012056Z AUTO VRB03KT 10SM OVC047 17/07 A3018 RMK AO2 SLP224 T01720067 53003=
202006011956 METAR KPWT 011956Z AUTO 00000KT 10SM BKN049 BKN060 17/07 A3017 RMK AO2 SLP221 T01720067=
202006011856 METAR KPWT 011856Z AUTO VRB04KT 10SM CLR 17/06 A3018 RMK AO2 SLP222 T01670061=
202006011756 METAR KPWT 011756Z AUTO VRB05KT 10SM FEW030 15/08 A3018 RMK AO2 SLP222 6//// T01500078 10150 20089 50003=
202006011703 SPECI KPWT 011703Z AUTO 23006KT 10SM SCT019 BKN055 14/08 A3018 RMK AO2=
202006011656 METAR KPWT 011656Z AUTO VRB03KT 10SM BKN019 BKN055 13/08 A3018 RMK AO2 SLP223 T01330083=
202006011628 SPECI KPWT 011628Z AUTO 24003KT 10SM BKN017 OVC060 13/08 A3018 RMK AO2=
202006011613 SPECI KPWT 011613Z AUTO VRB03KT 10SM FEW017 OVC060 13/08 A3018 RMK AO2=
202006011556 METAR KPWT 011556Z AUTO 21004KT 10SM BKN017 OVC060 12/08 A3017 RMK AO2 SLP223 T01170083=
202006011456 METAR KPWT 011456Z AUTO 23003KT 10SM BKN019 OVC060 11/08 A3017 RMK AO2 SLP220 T01060078 51009=
202006011454 SPECI KPWT 011454Z AUTO 00000KT 10SM BKN019 OVC060 11/08 A3016 RMK AO2=
202006011356 METAR KPWT 011356Z AUTO 00000KT 10SM OVC060 09/08 A3015 RMK AO2 SLP214 T00940083=
202006011256 METAR KPWT 011256Z AUTO 00000KT 10SM BKN043 OVC055 09/08 A3014 RMK AO2 SLP211 T00940083=
202006011156 METAR KPWT 011156Z AUTO 00000KT 10SM OVC037 09/08 A3012 RMK AO2 SLP203 70014 T00940083 10100 20089 53003=
202006011056 METAR KPWT 011056Z AUTO 00000KT 10SM OVC034 09/08 A3010 RMK AO2 SLP199 T00940083=
202006010956 METAR KPWT 010956Z AUTO 06004KT 10SM OVC060 09/08 A3010 RMK AO2 SLP199 T00940078=
202006010856 METAR KPWT 010856Z AUTO 04004KT 10SM SCT037 OVC060 10/08 A3011 RMK AO2 SLP201 T01000078 55004=
202006010756 METAR KPWT 010756Z AUTO 05004KT 10SM BKN033 OVC060 10/07 A3011 RMK AO2 SLP200 T01000072 401500089=
202006010656 METAR KPWT 010656Z AUTO 06005KT 10SM CLR 09/06 A3011 RMK AO2 SLP203 T00890061=
202006010556 METAR KPWT 010556Z AUTO 05006KT 10SM CLR 10/07 A3012 RMK AO2 SLP205 T01000067 10150 20100 50003=
202006010456 METAR KPWT 010456Z AUTO 04005KT 10SM FEW035 BKN043 BKN055 11/07 A3012 RMK AO2 SLP206 T01110067=
202006010356 METAR KPWT 010356Z AUTO 03006KT 10SM CLR 11/08 A3012 RMK AO2 SLP203 T01060078=
202006010256 METAR KPWT 010256Z AUTO 03008KT 10SM BKN075 12/08 A3011 RMK AO2 SLP202 T01170083 56001=
202006010156 METAR KPWT 010156Z AUTO 04009KT 10SM OVC060 13/09 A3012 RMK AO2 SLP203 T01280094=
202006010056 METAR KPWT 010056Z AUTO 05010KT 10SM FEW047 BKN065 13/10 A3011 RMK AO2 SLP201 T01330100=

# No short TAF reports from KPWT in databse.

###################################
#  large TAF from KPWT
###################################
202006302331 TAF KPWT 302331Z 0100/0124 21012KT P6SM VCSH BKN035 OVC045 FM010800
                       18008KT P6SM SCT005 OVC015 FM011200 18004KT
                       P6SM SCT005 OVC010 FM012100 19008KT P6SM
                       OVC050=
202006301733 TAF KPWT 301733Z 3018/0118 21008KT P6SM VCSH OVC020 FM302100 21012KT
                       P6SM VCSH BKN020 OVC040
                      TEMPO 3022/0101 SCT025 BKN040 FM010800 18008KT
                       P6SM SCT005 OVC015=
202006301120 TAF KPWT 301120Z 3012/0112 VRB03KT P6SM VCSH OVC007
                      TEMPO 3012/3016 5SM -DZ BR OVC004 FM301800
                       21008KT P6SM VCSH BKN012 OVC025 FM302100
                       21012KT P6SM VCSH BKN020 OVC040
                      TEMPO 3022/0101 SCT025 BKN040 FM010400 18008KT
                       P6SM OVC015=
202006300522 TAF KPWT 300522Z 3006/0106 20008KT P6SM OVC015 FM300900 18008KT
                       P6SM VCSH OVC010 FM301400 18008KT P6SM -SHRA
                       SCT005 OVC010 FM301800 21008KT P6SM VCSH
                       BKN015 OVC030 FM302100 21012KT P6SM VCSH
                       BKN020 OVC040
                      TEMPO 3022/0101 SCT025 BKN040 FM010400 18008KT
                       P6SM OVC015=
202006292333 TAF KPWT 292333Z 3000/3024 22012KT P6SM BKN025 FM300700 20006KT
                       P6SM VCSH OVC010 FM301400 20010KT 6SM -SHRA
                       OVC008 FM302300 19011G18KT P6SM -SHRA OVC020=
202006291728 TAF KPWT 291728Z 2918/3018 21008KT P6SM OVC012 FM292000 21006KT
                       P6SM SCT025 FM292100 21006KT P6SM SKC FM300700
                       20006KT P6SM VCSH OVC009 FM301400 20010KT
                       6SM -SHRA OVC007=
202006291454 KPWT 291454Z 2915/3012 20006KT P6SM OVC007 FM291600 20006KT P6SM
                       SCT006 FM291700 20006KT P6SM SKC FM300700
                       20006KT P6SM OVC009=
202006291125 TAF KPWT 291125Z 2912/3012 20006KT P6SM OVC004 FM291600 20006KT
                       P6SM SCT006 FM291700 20006KT P6SM SKC FM300700
                       20006KT P6SM OVC009=
202006291003 KPWT 291003Z 2910/3006 20006KT 4SM BR OVC003 FM291600 18006KT 4SM
                       BR SCT006 FM291700 18006KT P6SM SKC=
202006290539 TAF KPWT 290539Z 2906/3006 VRB03KT P6SM SKC FM291200 18006KT 4SM
                       BR OVC003 FM291600 18006KT 4SM BR SCT006
                       FM291700 18006KT P6SM SKC=
202006282322 TAF KPWT 282322Z 2900/2924 VRB04KT P6SM BKN040 FM290300 VRB04KT
                       P6SM VCSH SCT045 FM290800 00000KT P6SM FEW250
                       FM291300 00000KT 6SM BR SCT015 FM291800
                       20006KT P6SM FEW250=
202006281729 TAF KPWT 281729Z 2818/2918 05006KT P6SM BKN025 OVC030 FM281900
                       04006KT P6SM BKN050 FM290200 VRB04KT P6SM
                       VCSH SCT060 FM290800 00000KT P6SM FEW250
                       FM291300 00000KT 6SM BR FEW015 FEW250=
202006281140 TAF KPWT 281140Z 2812/2912 VRB03KT P6SM SCT006 OVC030
                      TEMPO 2813/2817 BKN006 OVC030 FM281800 VRB03KT
                       P6SM SCT010 BKN035 OVC050 FM282000 18008KT
                       P6SM SCT035 BKN050 FM290200 18008KT P6SM
                       SCT050 BKN200 FM290800 18008KT P6SM BKN006
                       OVC012=
202006280539 TAF KPWT 280539Z 2806/2906 VRB03KT 6SM -SHRA BKN006 OVC012 FM281000
                       VRB03KT 4SM BR BKN003 OVC006 FM281600 VRB03KT
                       P6SM SCT003 OVC006 FM281800 VRB03KT P6SM
                       SCT006 BKN012 OVC020 FM282000 18008KT P6SM
                       SCT025 BKN040=
202006272323 TAF KPWT 272323Z 2800/2824 05011KT P6SM FEW006 FM280600 18008KT
                       6SM -SHRA BKN006 OVC012=
202006271721 TAF KPWT 271721Z 2718/2818 17006KT 5SM BR BKN006 OVC010 FM272000
                       21008G16KT P6SM OVC020 FM280600 18008KT
                       6SM -SHRA BKN006 OVC012=
202006271138 TAF KPWT 271138Z 2712/2812 16006KT 3SM -SHRA BR OVC003 FM271600
                       18008KT 5SM -SHRA BR SCT004 BKN008 OVC015
                       FM272000 18008KT P6SM -SHRA SCT008 BKN014
                       OVC020 FM280600 18008KT P6SM BKN006 OVC012=
202006270541 TAF KPWT 270541Z 2706/2806 VRB03KT P6SM BKN025 BKN050 FM271000
                       18006KT P6SM BKN012 OVC020 FM271900 19012KT
                       P6SM -SHRA SCT012 BKN020 OVC040=
202006262324 TAF KPWT 262324Z 2700/2724 VRB03KT P6SM SCT100 BKN200 FM270200
                       19006KT P6SM BKN050 OVC080 FM270900 18006KT
                       P6SM BKN012 OVC020 FM271600 19012G19KT P6SM
                       OVC015 FM272100 19011G18KT P6SM BKN050=
202006261729 TAF KPWT 261729Z 2618/2718 VRB03KT P6SM SCT200 FM261900 18006KT
                       P6SM SCT100 BKN200 FM270000 01006KT P6SM
                       BKN050 OVC080 FM270900 18006KT P6SM BKN012
                       OVC020=
202006261131 TAF KPWT 261131Z 2612/2712 VRB03KT P6SM SCT200 FM261900 18006KT
                       P6SM SCT100 BKN200 FM270000 01006KT P6SM
                       BKN050 OVC080 FM270900 18006KT P6SM BKN012
                       OVC020=
202006260536 TAF KPWT 260536Z 2606/2706 02004KT P6SM BKN200 FM261400 19004KT
                       P6SM BKN200 FM261900 24008KT P6SM SCT100
                       BKN200 FM262300 VRB03KT P6SM BKN045 BKN090=
202006252323 TAF KPWT 252323Z 2600/2624 04005KT P6SM SCT250 FM260500 VRB03KT
                       P6SM SKC FM261500 18004KT P6SM SCT250 FM261900
                       19008KT P6SM SCT100 BKN250=
202006251727 TAF KPWT 251727Z 2518/2618 03004KT P6SM SCT008 FM251900 03006KT
                       P6SM FEW250 FM260500 VRB03KT P6SM SKC FM261500
                       18004KT P6SM SCT250=
202006251602 KPWT 251602Z 2516/2612 VRB03KT P6SM OVC004 FM251700 VRB03KT P6SM
                       BKN006 BKN050 FM251800 05006KT P6SM SCT050=
202006251137 TAF KPWT 251137Z 2512/2612 VRB03KT 1/4SM FG OVC002 FM251500 VRB03KT
                       1SM BR BKN004 BKN050 FM251700 VRB03KT 3SM
                       BR BKN004 BKN050 FM251800 05006KT P6SM SCT050=
202006250533 TAF KPWT 250533Z 2506/2606 VRB03KT P6SM BKN050 FM251100 VRB03KT
                       P6SM OVC004 FM251700 VRB03KT P6SM BKN008
                       BKN050 FM251800 05006KT P6SM SCT050=
202006242320 TAF KPWT 242320Z 2500/2524 04006KT P6SM SCT030 BKN050 FM250200
                       03006KT P6SM SCT050
                      TEMPO 2502/2506 BKN050 FM250600 12004KT P6SM
                       SCT050 FM251100 VRB03KT P6SM OVC008 FM251700
                       VRB03KT P6SM BKN013 BKN050 FM251900 05006KT
                       P6SM SCT050=
202006241724 TAF KPWT 241724Z 2418/2518 20004KT P6SM OVC013
                      TEMPO 2419/2421 SCT015 BKN080 FM242100 21006KT
                       P6SM SCT035 BKN050 BKN080 FM250100 02006KT
                       P6SM SCT050 BKN150 FM251100 VRB03KT P6SM
                       BKN008=
202006241136 TAF KPWT 241136Z 2412/2512 19006KT P6SM BKN009 OVC120 FM241600
                       19006KT P6SM SCT015 BKN045 OVC070 FM241800
                       19006KT P6SM -SHRA SCT022 BKN035 OVC050
                       FM242200 21006KT P6SM SCT035 BKN050 BKN080
                       FM250400 02006KT P6SM SCT050 BKN150 FM251100
                       VRB03KT P6SM BKN008=
202006240539 TAF KPWT 240539Z 2406/2506 VRB03KT P6SM SCT150 BKN250 FM241200
                       VRB03KT P6SM SCT030 OVC060 FM241500 19006KT
                       P6SM -SHRA BKN025 BKN040 OVC060 FM242100
                       19008KT P6SM SCT030 BKN045 BKN080 FM250300
                       36006KT P6SM SCT050 BKN100=
202006232324 TAF KPWT 232324Z 2400/2424 04008KT P6SM SCT250 FM240800 17003KT
                       P6SM BKN100 FM241200 20003KT P6SM BKN050
                       FM241800 20005KT P6SM -SHRA BKN020=
202006231720 TAF KPWT 231720Z 2318/2418 04008KT P6SM SCT250 FM240800 17003KT
                       P6SM BKN100 FM241200 20003KT P6SM BKN050
                       FM241400 20005KT P6SM -SHRA BKN020=
202006231140 TAF KPWT 231140Z 2312/2412 00000KT P6SM FEW100 FM231800 04005KT
                       P6SM SCT250 FM240800 17003KT P6SM BKN100
                       FM241159 20002KT P6SM BKN050=
202006230539 TAF KPWT 230539Z 2306/2406 05007KT P6SM FEW250 FM230900 00000KT
                       P6SM FEW250 FM231800 04005KT P6SM SCT250
                       FM240200 02009KT P6SM OVC100=
202006222320 TAF KPWT 222320Z 2300/2324 03006KT P6SM FEW250 FM230900 00000KT
                       P6SM FEW250 FM231800 04005KT P6SM SCT250=
202006221830 TAF KPWT 221830Z 2219/2318 03006KT P6SM FEW250 FM230900 06004KT
                       P6SM SKC=
202006221136 TAF KPWT 221136Z 2212/2312 VRB03KT P6SM SCT250 FM221900 03006KT
                       P6SM FEW250 FM230900 06004KT P6SM SKC=
202006220533 TAF KPWT 220533Z 2206/2306 VRB04KT P6SM SCT040 SCT250 FM221200
                       VRB03KT 4SM BR OVC010 FM221900 03006KT P6SM
                       SCT010 SCT250=
202006212332 TAF KPWT 212332Z 2200/2224 20006KT P6SM OVC040 FM220100 VRB03KT
                       P6SM SCT040 SCT250 FM221200 VRB03KT 4SM
                       BR OVC010 FM221900 03006KT P6SM SCT010 SCT250=
202006211720 TAF KPWT 211720Z 2118/2218 VRB04KT P6SM SCT005 OVC015 FM212100
                       20006KT P6SM SCT015 OVC025 FM220100 VRB03KT
                       P6SM SCT250 FM221200 VRB03KT 4SM BR OVC010=
202006211500 KPWT 211500Z 2115/2212 20005KT P6SM OVC010
                      TEMPO 2115/2118 3SM BR OVC005 FM212100 20006KT
                       P6SM SCT010 OVC050 FM220100 VRB05KT P6SM
                       SCT250=
202006211129 TAF KPWT 211129Z 2112/2212 20005KT P6SM OVC010 FM212100 20006KT
                       P6SM SCT010 OVC050 FM220100 VRB05KT P6SM
                       SCT250=
202006210537 TAF KPWT 210537Z 2106/2206 22010G18KT P6SM BKN035 FM210800 18006KT
                       P6SM BKN015 FM211200 VRB03KT P6SM OVC010
                       FM211900 19006KT P6SM SCT010 OVC025 FM220000
                       15007KT P6SM SCT250=
202006210259 KPWT 210259Z 2103/2124 22010G18KT P6SM BKN035 FM210800 18006KT
                       P6SM BKN015 FM211200 VRB03KT P6SM OVC010
                       FM211900 19006KT P6SM SCT010 OVC025=
202006202320 TAF KPWT 202320Z 2100/2124 22010KT P6SM VCSH BKN015 OVC025 FM210800
                       18006KT P6SM BKN015 FM211200 VRB03KT P6SM
                       OVC010 FM211900 19006KT P6SM SCT010 OVC025=
202006201720 TAF KPWT 201720Z 2018/2118 22008KT P6SM -SHRA BKN020 OVC030 FM210000
                       22010KT P6SM VCSH SCT020 BKN030 FM210800
                       18006KT P6SM BKN020 FM211200 VRB03KT P6SM
                       OVC010=
202006201120 TAF KPWT 201120Z 2012/2112 18006KT P6SM SCT040 OVC070 FM201500
                       18008KT P6SM -RA SCT020 OVC040
                      TEMPO 2015/2019 5SM -RA BR OVC020 FM201900
                       22008KT P6SM -SHRA BKN020 OVC040 FM210000
                       22010KT P6SM VCSH SCT020 BKN040 FM210800
                       18006KT P6SM BKN020=
202006200520 TAF KPWT 200520Z 2006/2106 VRB04KT P6SM BKN050 OVC100
                      TEMPO 2006/2010 5SM -RA BR OVC040 FM201000
                       18008KT P6SM -RA SCT020 OVC040
                      TEMPO 2010/2014 4SM -RA BR OVC020 FM201400
                       18012KT 4SM -RA BR OVC015 FM201900 22008KT
                       P6SM -SHRA SCT015 BKN025 OVC040 FM210000
                       22010KT P6SM VCSH SCT025 BKN050=
202006192325 TAF KPWT 192325Z 2000/2024 VRB04KT P6SM BKN150 OVC250 FM200500
                       17006KT P6SM SCT050 OVC100 FM201100 17008KT
                       P6SM -RA SCT025 OVC045 FM201400 17008KT
                       4SM -RA BR OVC012 FM202000 19008KT P6SM
                       -SHRA SCT012 BKN022 OVC040=
202006191743 TAF KPWT 191743Z 1918/2018 VRB04KT P6SM BKN200 FM200500 17006KT
                       P6SM SCT050 OVC100 FM201100 17008KT P6SM
                       -RA SCT025 OVC045 FM201400 17008KT 5SM -RA
                       BR OVC012=
202006191120 TAF KPWT 191120Z 1912/2012 00000KT P6SM BKN250 FM191800 VRB04KT
                       P6SM OVC200 FM200000 23006KT P6SM OVC150
                       FM200600 16006KT P6SM SCT040 OVC080 FM201000
                       16006KT P6SM -RA SCT020 OVC040=
202006190522 TAF KPWT 190522Z 1906/2006 00000KT P6SM SCT250 FM191200 VRB04KT
                       P6SM BKN200 FM200000 23006KT P6SM OVC150
                       FM200500 18006KT P6SM SCT040 OVC080=
202006182321 TAF KPWT 182321Z 1900/1924 VRB04KT P6SM SKC FM190200 04005KT P6SM
                       FEW250=
202006181720 TAF KPWT 181720Z 1818/1918 10005KT P6SM FEW250 FM182000 05005KT
                       P6SM FEW250=
202006181120 TAF KPWT 181120Z 1812/1912 VRB03KT P6SM SCT250
                      TEMPO 1813/1815 3SM BR SCT003 FM181800 36007KT
                       P6SM SCT250=
202006180520 TAF KPWT 180520Z 1806/1906 VRB03KT P6SM BKN250 FM181800 36007KT
                       P6SM SCT200=
202006172324 TAF KPWT 172324Z 1800/1824 VRB03KT P6SM OVC050 FM180800 04003KT
                       P6SM BKN250 FM181600 03002KT P6SM OVC250=
202006171722 TAF KPWT 171722Z 1718/1818 VRB04KT P6SM OVC060 FM172000 16003KT
                       P6SM BKN050 FM172300 05004KT P6SM BKN200
                       FM180800 VRB03KT 6SM BR OVC010=
202006171211 KPWT 171211Z 1712/1812 VRB04KT 3SM BR SCT003 SCT050
                      TEMPO 1712/1715 1SM BR BKN002 BKN050 FM171500
                       VRB04KT P6SM SCT050 FM171700 VRB04KT P6SM
                       SCT200 FM172100 36008KT P6SM SCT200=
202006171120 TAF KPWT 171120Z 1712/1812 VRB04KT P6SM SCT010 SCT040 SCT200 FM171700
                       VRB04KT P6SM SCT200 FM172100 36008KT P6SM
                       SCT200=
202006170520 TAF KPWT 170520Z 1706/1806 00000KT P6SM SKC FM171100 VRB03KT P6SM
                       SCT006 FM171600 VRB03KT P6SM SCT200=
202006162320 TAF KPWT 162320Z 1700/1724 VRB03KT P6SM BKN045 FM170400 03006KT
                       P6SM SCT050 FM171100 VRB03KT P6SM SCT006
                       FM171600 VRB03KT P6SM SCT200=
202006161738 TAF KPWT 161738Z 1618/1718 VRB03KT P6SM BKN045 FM170600 03006KT
                       P6SM SCT050 FM171100 VRB03KT P6SM SCT006
                       FM171600 VRB03KT P6SM SCT200=
202006161229 KPWT 161229Z 1612/1712 VRB04KT P6SM VCSH SCT005 BKN050
                      TEMPO 1612/1615 BKN005 OVC050 FM161500 VRB04KT
                       P6SM VCSH SCT010 BKN050
                      TEMPO 1615/1618 BKN010 OVC050 FM161800 VRB04KT
                       P6SM SCT015 BKN050 FM162100 34007KT P6SM
                       BKN050 FM170600 03006KT P6SM SCT050 FM171100
                       VRB04KT P6SM SCT015 SCT050=
202006161206 KPWT 161206Z 1612/1712 VRB04KT P6SM VCSH OVC005 FM161500 VRB04KT
                       P6SM VCSH BKN010 BKN050 FM161800 VRB04KT
                       P6SM SCT015 BKN050 FM162100 34007KT P6SM
                       BKN050 FM170600 03006KT P6SM SCT050 FM171100
                       VRB04KT P6SM SCT015 SCT050=
202006161125 TAF KPWT 161125Z 1612/1712 VRB04KT P6SM VCSH SCT025 BKN050 FM162100
                       34007KT P6SM BKN050 FM170600 03006KT P6SM
                       SCT050 FM171100 VRB04KT P6SM SCT015 SCT050=
202006160902 KPWT 160902Z 1609/1706 VRB04KT P6SM SCT012 BKN040
                      TEMPO 1609/1612 BKN012 OVC040 FM161200 VRB04KT
                       P6SM VCSH BKN012 OVC030 FM161800 VRB04KT
                       P6SM SCT015 BKN035 FM162200 03007KT P6SM
                       BKN040 BKN090=
202006160520 TAF KPWT 160520Z 1606/1706 20007KT P6SM VCSH SCT040 BKN080 FM160800
                       16006KT P6SM VCSH BKN040 BKN080 FM161000
                       18003KT P6SM OVC022 FM161800 VRB04KT P6SM
                       BKN035 BKN060 FM162200 03007KT P6SM SCT050
                       BKN120=
202006152320 TAF KPWT 152320Z 1600/1624 22014G20KT P6SM VCSH SCT040 BKN060 BKN100
                       FM160300 20010KT P6SM VCSH BKN045 BKN080
                       FM160900 18003KT P6SM OVC022 FM161800 VRB04KT
                       P6SM BKN035 BKN060 FM162200 03007KT P6SM
                       SCT050 BKN120=
202006151720 TAF KPWT 151720Z 1518/1618 20009KT P6SM -SHRA SCT005 OVC015
                      TEMPO 1518/1520 BKN005 OVC010 FM152100 20012G17KT
                       P6SM -SHRA SCT015 OVC028 FM152300 20012KT
                       P6SM -SHRA BKN030 BKN045 FM160400 20006KT
                       P6SM VCSH BKN035 BKN050 FM160900 18003KT
                       P6SM OVC022=
202006151132 TAF KPWT 151132Z 1512/1612 17007KT 5SM -RA BR SCT040 OVC050 FM151300
                       20008KT 5SM -RA BR SCT015 OVC025 FM151700
                       20009KT P6SM -SHRA OVC015 FM152100 20012G17KT
                       P6SM -SHRA SCT025 OVC050=
202006150523 TAF KPWT 150523Z 1506/1606 18004KT P6SM SCT050 OVC250 FM150900
                       19004KT 6SM -RA BR SCT015 OVC040 FM151200
                       17007KT 5SM -RA BR OVC010 FM151400 20008KT
                       6SM -RA BR OVC007 FM151800 20009KT P6SM
                       -SHRA OVC015 FM152100 20012G18KT P6SM -SHRA
                       SCT025 OVC050=
202006142324 TAF KPWT 142324Z 1500/1524 21011KT P6SM BKN050 BKN100 FM150900
                       19004KT 6SM -RA BR SCT015 OVC035 FM151200
                       17007KT 5SM -RA BR OVC010 FM151600 20008KT
                       6SM -RA BR OVC007 FM152000 20009KT P6SM
                       -SHRA BKN018 OVC035=
202006141726 TAF KPWT 141726Z 1418/1518 20007KT P6SM SCT022 BKN040 FM142200
                       21011KT P6SM BKN050 BKN100 FM150900 19004KT
                       6SM -RA BR SCT015 OVC035 FM151300 17005KT
                       5SM -RA BR OVC010=
202006141549 KPWT 141549Z 1416/1512 22007KT P6SM SCT010 OVC025
                      TEMPO 1416/1418 BKN005 OVC010 FM141800 19008KT
                       P6SM SCT022 BKN040 FM142300 21011G17KT P6SM
                       SCT050 BKN100 FM150700 19004KT 4SM -RA BR
                       SCT015 OVC050=
202006141123 TAF KPWT 141123Z 1412/1512 20004KT P6SM OVC010 FM141500 18008KT
                       P6SM SCT010 OVC020 FM141800 19008KT P6SM
                       BKN050 FM142300 21011G17KT P6SM SCT050 BKN100
                       FM150700 19004KT 4SM -RA BR SCT015 OVC050=
202006140524 TAF KPWT 140524Z 1406/1506 20010KT P6SM SCT040 FM140800 17006KT
                       P6SM SCT020 OVC050 FM141200 20008KT P6SM
                       SCT008 BKN015 OVC030 FM141700 18008KT P6SM
                       SCT015 OVC050 FM142300 21011G17KT P6SM SCT050
                       BKN100=
202006132332 TAF KPWT 132332Z 1400/1424 23012G22KT P6SM -SHRA SCT020 BKN035
                       BKN070 FM140200 20010KT P6SM SCT020 BKN035
                       OVC060 FM140700 17006KT P6SM SCT020 BKN025
                       OVC050 FM141100 20008KT P6SM SCT008 BKN015
                       OVC030 FM141700 18008KT P6SM SCT015 BKN025
                       OVC040=
202006131735 TAF KPWT 131735Z 1318/1418 20008KT P6SM -SHRA SCT010 BKN020 OVC040
                       FM140200 20008KT P6SM SCT020 BKN035 OVC060
                       FM141000 20008KT P6SM SCT008 BKN015 OVC030
                       FM141700 18008KT P6SM SCT015 BKN025 OVC040=
202006131501 KPWT 131501Z 1315/1412 19004KT P6SM -SHRA BKN006 BKN011 OVC025
                       FM131800 20009KT P6SM -SHRA SCT006 BKN012
                       OVC025 FM132000 19007KT P6SM -SHRA SCT015
                       OVC050 FM140300 19007KT P6SM OVC050=
202006131130 TAF KPWT 131130Z 1312/1412 19004KT P6SM VCSH SCT010 OVC025 FM131800
                       20009KT P6SM -SHRA OVC025 FM132000 19007KT
                       P6SM -SHRA SCT015 OVC050 FM140300 19007KT
                       P6SM OVC050=
202006130530 TAF KPWT 130530Z 1306/1406 08004KT P6SM BKN015 OVC070 FM131300
                       19003KT P6SM OVC015 FM131800 20009KT P6SM
                       -SHRA OVC025 FM132000 19007KT P6SM -SHRA
                       SCT015 OVC050 FM140300 19008KT P6SM OVC050=
202006122320 TAF KPWT 122320Z 1300/1324 17008KT P6SM BKN015 OVC025 FM131300
                       19003KT P6SM -SHRA OVC025 FM131800 20009KT
                       P6SM -RA OVC025=
202006121720 TAF KPWT 121720Z 1218/1318 19007KT P6SM -RA OVC007 FM122000 19007KT
                       P6SM -SHRA SCT015 OVC025 FM122300 21010KT
                       P6SM OVC050 FM131300 19003KT P6SM OVC025=
202006121120 TAF KPWT 121120Z 1212/1312 15002KT P6SM -SHRA SCT070 BKN120 FM121400
                       19004KT 4SM -RA BR SCT007 OVC015 FM122000
                       19007KT P6SM -SHRA SCT015 OVC025 FM122300
                       19007KT P6SM OVC050=
202006120528 TAF KPWT 120528Z 1206/1306 04003KT P6SM SCT100 OVC250 FM121200
                       19002KT P6SM -SHRA SCT007 OVC015 FM121400
                       19004KT 4SM -RA BR OVC007 FM122000 19007KT
                       P6SM SCT015 OVC025 FM122300 19007KT P6SM
                       OVC050=
202006112323 TAF KPWT 112323Z 1200/1224 23004KT P6SM FEW035 FM120300 04003KT
                       P6SM OVC250 FM121400 19002KT P6SM -SHRA
                       OVC020=
202006111722 TAF KPWT 111722Z 1118/1218 21004KT P6SM -RA FEW005 SCT035 FM111900
                       23004KT P6SM VCSH BKN050 FM120300 04003KT
                       P6SM OVC100=
202006111126 TAF KPWT 111126Z 1112/1212 19005KT P6SM OVC020 FM111500 22003KT
                       P6SM -SHRA SCT007 OVC015 FM111800 19004KT
                       P6SM VCSH SCT025 OVC050 FM120200 21004KT
                       P6SM OVC050=
202006110523 TAF KPWT 110523Z 1106/1206 VRB04KT P6SM OVC040 FM111000 18005KT
                       P6SM BKN020 OVC040 FM111500 22003KT P6SM
                       VCSH SCT007 OVC015 FM111800 19004KT P6SM
                       VCSH SCT025 OVC050=
202006102320 TAF KPWT 102320Z 1100/1124 24010KT P6SM SCT040 BKN200 FM110600
                       VRB04KT P6SM BKN040 BKN200 FM111000 18005KT
                       P6SM BKN020 OVC040 FM111600 25007KT P6SM
                       VCSH SCT025 BKN050=
202006101720 TAF KPWT 101720Z 1018/1118 VRB04KT P6SM SCT015 BKN030 BKN200
                      TEMPO 1018/1021 5SM -SHRA BR BKN015 OVC030
                       FM110600 18005KT P6SM VCSH BKN015 OVC040
                       FM111700 VRB04KT P6SM VCSH SCT020 BKN050=
202006101136 TAF KPWT 101136Z 1012/1112 VRB03KT P6SM SCT005 OVC025 FM101300
                       00000KT 6SM BR OVC009 FM101700 19005KT P6SM
                       VCSH SCT015 BKN050 FM102300 20007KT P6SM
                       VCSH BKN050 OVC120=
202006100533 TAF KPWT 100533Z 1006/1106 19008KT P6SM VCSH SCT040 OVC060 FM101200
                       VRB03KT P6SM OVC010 FM101800 19005KT P6SM
                       VCSH SCT015 BKN050 FM102300 20007KT P6SM
                       VCSH BKN050 OVC120=
202006100302 KPWT 100302Z 1003/1024 20010KT P6SM VCSH SCT010 SCT014 OVC040 FM100400
                       20008KT P6SM OVC012 FM101200 VRB03KT P6SM
                       OVC008 FM101800 19005KT P6SM SCT015 BKN050
                       FM102300 20007KT P6SM VCSH BKN050 OVC120=
202006092335 TAF KPWT 092335Z 1000/1024 20010KT P6SM VCSH SCT006 BKN014 BKN030
                       TEMPO 1000/1004 6SM -SHRA BR BKN008 OVC014
                       FM100400 20008KT P6SM OVC012 FM101200 VRB03KT
                       P6SM OVC008 FM101800 19005KT P6SM SCT015
                       BKN050 FM102300 20007KT P6SM VCSH BKN050
                       OVC120=
202006091734 TAF KPWT 091734Z 0918/1018 19012KT 6SM -RA BR SCT010 OVC018
                      TEMPO 0918/0921 4SM -RA BR OVC008 FM092100
                       18012G18KT P6SM -SHRA OVC010 FM100300 20008KT
                       P6SM OVC025 FM101200 VRB03KT P6SM BKN012
                       BKN050 FM101600 19005KT P6SM SCT015 BKN060=
202006091329 KPWT 091329Z 0913/1012 20006KT 4SM -RA BR BKN004 FM091500 19012KT
                       P6SM -RA SCT015 OVC022 FM091900 18012G22KT
                       P6SM -SHRA OVC010 FM100100 20010G16KT P6SM
                       OVC025=
202006091136 TAF KPWT 091136Z 0912/1012 20006KT 6SM -RA BKN009 FM091400 19012KT
                       P6SM -RA SCT015 OVC022 FM091900 18012G22KT
                       P6SM -SHRA OVC010 FM100100 20010G16KT P6SM
                       OVC025=
202006090533 TAF KPWT 090533Z 0906/1006 21012KT P6SM BKN060 BKN200 FM090700
                       23009KT 6SM -RA OVC028 FM091000 19012KT
                       P6SM -RA SCT015 OVC022 FM091900 14012G22KT
                       P6SM -SHRA OVC010=
202006090305 KPWT 090305Z 0903/0924 21012KT P6SM BKN060 BKN200 FM090700 23009KT
                       6SM -RA OVC028 FM091000 19012KT P6SM -RA
                       SCT015 OVC022 FM091900 14012G22KT P6SM -SHRA
                       OVC010=
202006082339 TAF KPWT 082339Z 0900/0924 22012G24KT P6SM FEW070 BKN200 FM090500
                       19008KT P6SM BKN050 FM090700 18009KT P6SM
                       -RA OVC025 FM091000 19012KT P6SM -RA SCT015
                       OVC025 FM091700 14012G22KT 4SM -RA BR OVC008=
202006081728 TAF KPWT 081728Z 0818/0918 22010KT P6SM FEW050 BKN070 FM082000
                       20012G18KT P6SM BKN070 FM090400 19007KT
                       P6SM BKN050 FM091000 19010KT P6SM -RA SCT015
                       OVC025 FM091200 16011KT 5SM -RA BR OVC010=
202006081137 TAF KPWT 081137Z 0812/0912 19004KT P6SM SCT025 BKN050 FM082000
                       20013G18KT P6SM BKN050 FM090400 19007KT
                       P6SM OVC050 FM091000 19008KT P6SM -RA SCT015
                       OVC025=
202006080521 TAF KPWT 080521Z 0806/0906 20005KT P6SM SCT050 FM081200 19004KT
                       P6SM SCT015 OVC025 FM081800 20013G22KT P6SM
                       SCT025 OVC050 FM090400 19007KT P6SM OVC050=
202006080308 KPWT 080308Z 0803/0824 20004KT P6SM SCT040 SCT070 FM080600 20005KT
                       P6SM SCT025 BKN040 FM081000 19008KT P6SM
                       OVC025 FM081800 20013G22KT P6SM SCT015 OVC050=
202006080015 KPWT 080015Z 0800/0824 VRB05KT P6SM VCSH SCT025 BKN035
                      TEMPO 0800/0801 -SHRA FM080200 20010KT P6SM
                       SCT025 BKN050 FM080700 18005KT P6SM SCT015
                       OVC025 FM081100 19008KT P6SM OVC010 FM081800
                       20013G22KT P6SM SCT015 OVC050=
202006072320 TAF KPWT 072320Z 0800/0824 VRB04KT P6SM SCT020 SCT050 FM080100
                       20010KT P6SM SCT025 BKN050 FM080700 18005KT
                       P6SM SCT015 OVC025 FM081100 19008KT P6SM
                       OVC010 FM081800 20013G22KT P6SM SCT015 OVC050=
202006071720 TAF KPWT 071720Z 0718/0818 19004KT P6SM OVC008 FM071900 20004KT
                       P6SM SCT010 OVC020 FM072100 20008KT P6SM
                       SCT020 BKN050 FM072300 20010KT P6SM VCSH
                       SCT025 BKN050 FM080700 18005KT P6SM SCT015
                       OVC025 FM081100 19008KT P6SM OVC010=
202006071121 TAF KPWT 071121Z 0712/0812 19004KT P6SM -SHRA OVC004 FM071800 20004KT
                       P6SM SCT015 OVC020 FM072000 20008KT P6SM
                       SCT020 BKN050 FM072200 20012G19KT P6SM VCSH
                       SCT025 BKN050 FM080700 18005KT P6SM SCT015
                       OVC025=
202006070521 TAF KPWT 070521Z 0706/0806 19004KT P6SM VCSH SCT020 SCT050 FM071000
                       19004KT P6SM -SHRA SCT015 OVC025 FM072000
                       20008KT P6SM SCT020 BKN040 FM072200 20012G19KT
                       P6SM SCT025 BKN050=
202006070329 KPWT 070329Z 0703/0724 20006KT P6SM VCSH SCT025 BKN050
                      TEMPO 0703/0706 -SHRA FM070600 19007KT P6SM
                       VCSH OVC020 FM071000 19004KT P6SM OVC015
                       FM071800 20008KT P6SM SCT020 BKN035=
202006062321 TAF KPWT 062321Z 0700/0724 19009KT P6SM -SHRA SCT025 BKN040 OVC050
                       FM070400 19007KT P6SM OVC020 FM071000 19004KT
                       P6SM OVC015 FM071800 20008KT P6SM SCT020
                       BKN035=
202006061735 TAF KPWT 061735Z 0618/0718 19007KT P6SM BKN020 OVC030 FM062100
                       19009KT P6SM -SHRA BKN020 OVC030 FM070400
                       19007KT P6SM OVC020 FM071000 19004KT P6SM
                       OVC015=
202006061121 TAF KPWT 061121Z 0612/0712 18003KT P6SM OVC015 FM061700 19007KT
                       P6SM SCT015 OVC040 FM062100 19009KT P6SM
                       -SHRA SCT020 OVC040 FM070400 19007KT P6SM
                       OVC050 FM071000 19004KT P6SM OVC015=
202006060520 TAF KPWT 060520Z 0606/0706 14003KT P6SM SCT030 OVC100 FM061200
                       18003KT P6SM SCT015 OVC020 FM061700 19007KT
                       4SM -SHRA OVC020 FM062100 19009KT P6SM -SHRA
                       SCT020 OVC040=
202006060336 KPWT 060336Z 0604/0624 06006KT P6SM VCSH BKN050 OVC100 FM060600
                       16003KT P6SM OVC050 FM061200 18003KT P6SM
                       OVC020 FM061700 19007KT 4SM -SHRA OVC015=
202006052339 TAF KPWT 052339Z 0600/0624 17005KT P6SM BKN035 OVC050 FM060200
                       VRB06KT P6SM OVC050 FM060600 16003KT P6SM
                       OVC050 FM061200 18003KT P6SM OVC020 FM061700
                       19007KT 4SM -SHRA OVC015=
202006051735 TAF KPWT 051735Z 0518/0618 04005KT P6SM SCT100 OVC200 FM060100
                       17005KT P6SM OVC100 FM060400 14005KT P6SM
                       OVC050 FM061300 19004KT P6SM OVC025 FM061700
                       20003KT P6SM -SHRA OVC020=
202006051122 TAF KPWT 051122Z 0512/0612 04005KT P6SM BKN250 FM060100 17005KT
                       4SM -SHRA BR OVC050 FM060400 19005KT P6SM
                       OVC050 FM060900 19004KT P6SM OVC025=
202006050521 TAF KPWT 050521Z 0506/0606 03005KT P6SM BKN250 FM051300 04002KT
                       P6SM SCT007 OVC250 FM052200 23005KT 4SM
                       -SHRA BR OVC040=
202006042339 TAF KPWT 042339Z 0500/0524 VRB05KT P6SM SCT040 BKN080 FM050200
                       03005KT P6SM BKN250 FM051300 00000KT P6SM
                       OVC100 FM052200 23005KT 4SM -SHRA BR BKN040=
202006041738 TAF KPWT 041738Z 0418/0518 15003KT P6SM FEW040 OVC070 FM042200
                       21005KT P6SM BKN050 FM050200 03005KT P6SM
                       BKN250 FM051300 00000KT P6SM OVC100=
202006041127 TAF KPWT 041127Z 0412/0512 15003KT P6SM OVC070 FM042200 20005KT
                       P6SM BKN050 FM050200 02005KT P6SM BKN250=
202006040527 TAF KPWT 040527Z 0406/0506 03005KT P6SM OVC050 FM041000 15003KT
                       P6SM OVC050 FM041900 20005KT P6SM BKN050
                       FM050200 02005KT P6SM BKN250=
202006032339 TAF KPWT 032339Z 0400/0424 03005KT P6SM BKN040 BKN200 FM040700
                       06003KT P6SM BKN100 FM041000 15003KT P6SM
                       BKN050 FM041600 20005KT P6SM BKN050=
202006031736 TAF KPWT 031736Z 0318/0418 07008KT P6SM OVC025 FM032100 06005KT
                       P6SM BKN050 BKN150 FM032300 04008KT P6SM
                       SCT050 BKN150 FM040700 07004KT P6SM BKN100
                       FM041100 14002KT P6SM BKN050=
202006031121 TAF KPWT 031121Z 0312/0412 08004KT P6SM FEW035 BKN060 FM031400
                       VRB03KT P6SM OVC020 FM031800 19004KT P6SM
                       BKN025 OVC050 FM032100 19005KT P6SM BKN050
                       BKN150 FM032300 03008KT P6SM SCT050 BKN150
                       FM040700 07004KT P6SM SCT100=
202006030522 TAF KPWT 030522Z 0306/0406 00000KT P6SM BKN050 BKN250 FM031200
                       00000KT P6SM OVC010 FM031800 19004KT P6SM
                       BKN025 OVC040 FM032100 19005KT P6SM BKN050
                       BKN150 FM032300 03008KT P6SM SCT050 BKN150=
202006022321 TAF KPWT 022321Z 0300/0324 22009KT P6SM VCSH OVC040 FM030300 VRB03KT
                       P6SM OVC040 FM031200 VRB03KT P6SM OVC020
                       FM031800 05004KT P6SM SCT020 BKN035=
202006021723 TAF KPWT 021723Z 0218/0318 VRB03KT P6SM SCT080 BKN200 FM022100
                       22009KT P6SM SCT050 OVC080 FM030300 VRB03KT
                       P6SM OVC040 FM031200 VRB03KT P6SM OVC020=
202006021120 TAF KPWT 021120Z 0212/0312 00000KT P6SM BKN250 FM021500 VRB03KT
                       P6SM SCT080 BKN200 FM022100 20012KT P6SM
                       SCT050 OVC080 FM030300 VRB03KT P6SM OVC040=
202006020529 TAF KPWT 020529Z 0206/0306 08004KT P6SM SCT070 FM020800 17004KT
                       P6SM FEW050 FM021300 VRB03KT P6SM BKN070
                       BKN200 FM021900 20012KT P6SM SCT050 OVC070
                       FM030300 VRB03KT P6SM OVC040=
202006012348 KPWT 012348Z 0200/0224 21006KT P6SM SCT050 FM020100 03005KT P6SM
                       FEW050 FM020800 17004KT P6SM FEW050 FM021300
                       VRB03KT P6SM BKN070 BKN200 FM021900 20012KT
                       P6SM OVC050=
202006012344 TAF KPWT 012344Z 0200/0224 21006KT P6SM SCT050 FM020100 03005KT
                       P6SM FEW050 FM020800 17004KT P6SM FEW050
                       FM021300 VRB03KT P6SM BKN070 BKN200=
202006011720 TAF KPWT 011720Z 0118/0218 20005KT P6SM SCT020 BKN050 FM012100
                       21006KT P6SM SCT050 FM020100 03005KT P6SM
                       FEW050 FM020800 17004KT P6SM FEW050 FM021300
                       VRB03KT P6SM BKN070 BKN200=
202006011121 TAF KPWT 011121Z 0112/0212 00000KT P6SM OVC035 FM011800 17005KT
                       P6SM BKN045 FM012100 21006KT P6SM SCT050
                       FM020100 03005KT P6SM FEW050 FM020800 17004KT
                       P6SM FEW050=
202006010535 TAF KPWT 010535Z 0106/0206 04003KT P6SM BKN045 FM011800 17005KT
                       P6SM BKN050 FM012100 21006KT P6SM SCT050
                       FM020100 09005KT P6SM FEW050=