##########################################################
# Query made at 02/16/2025 00:43:22 UTC
# Time interval: from 01/01/2021 00:00  to 01/31/2021 23:59  UTC
##########################################################

##########################################################
# KPWT, Bremerton National Automatic Weather Observing / Reporting System (United States)
# WMO index: -----. WIGOS ID: Unknown
# Latitude 47-30N. Longitude 122-45W. Altitude 147 m.
##########################################################

###################################
#  METAR/SPECI from KPWT
###################################
202101312356 METAR KPWT 312356Z AUTO 21005KT 9SM -RA BKN007 OVC029 06/06 A2989 RMK AO2 CIG 004V010 SLP128 P0002 60023 T00560056 10072 20056 53000 $=
202101312326 SPECI KPWT 312326Z AUTO 19004KT 5SM -RA BR BKN009 OVC031 06/06 A2989 RMK AO2 CIG 005V011 P0001 $=
202101312256 METAR KPWT 312256Z AUTO 18004KT 5SM -RA BR FEW006 OVC027 06/06 A2989 RMK AO2 SLP127 P0005 T00560056 $=
202101312156 METAR KPWT 312156Z AUTO 20004KT 6SM -RA BR OVC027 06/06 A2988 RMK AO2 SLP125 P0005 T00560056 $=
202101312133 SPECI KPWT 312133Z AUTO 22005KT 8SM -RA OVC029 06/06 A2988 RMK AO2 P0003 $=
202101312056 METAR KPWT 312056Z AUTO 22006KT 8SM -RA OVC031 06/06 A2989 RMK AO2 SLP128 P0004 60011 T00610056 50002 $=
202101312046 SPECI KPWT 312046Z AUTO 21005KT 10SM -RA OVC031 06/06 A2990 RMK AO2 P0004 $=
202101311956 METAR KPWT 311956Z AUTO 21007KT 7SM -RA OVC029 06/06 A2990 RMK AO2 SLP133 P0002 T00610056 $=
202101311913 SPECI KPWT 311913Z AUTO 20007KT 9SM -RA FEW008 OVC029 06/06 A2990 RMK AO2 P0000 $=
202101311856 METAR KPWT 311856Z AUTO 21007KT 7SM -RA FEW012 OVC029 07/06 A2990 RMK AO2 SLP131 P0005 T00670061 $=
202101311804 SPECI KPWT 311804Z AUTO 23009KT 10SM -RA FEW004 OVC029 07/07 A2989 RMK AO2 P0000 $=
202101311756 METAR KPWT 311756Z AUTO 23009KT 10SM -RA SCT004 BKN014 OVC029 07/07 A2989 RMK AO2 SLP126 P0003 60004 T00720067 10078 20067 53018 $=
202101311742 SPECI KPWT 311742Z AUTO 23010KT 7SM -RA BKN004 BKN009 OVC027 08/07 A2988 RMK AO2 P0002 $=
202101311705 SPECI KPWT 311705Z AUTO 22008KT 10SM -RA FEW008 SCT011 OVC017 08/07 A2986 RMK AO2 P0000 $=
202101311656 METAR KPWT 311656Z AUTO 21009KT 10SM -RA SCT010 OVC019 08/07 A2986 RMK AO2 RAB21 SLP117 P0000 T00780072 $=
202101311556 METAR KPWT 311556Z AUTO 20003KT 10SM OVC026 08/07 A2984 RMK AO2 RAB28E44 SLP109 P0001 T00780067 $=
202101311510 SPECI KPWT 311510Z AUTO 00000KT 10SM OVC028 07/07 A2983 RMK AO2 $=
202101311456 METAR KPWT 311456Z AUTO 00000KT 10SM OVC030 07/07 A2983 RMK AO2 RAB44E54 SLP107 P0000 60000 T00720067 56012 $=
202101311356 METAR KPWT 311356Z AUTO 00000KT 10SM FEW029 BKN044 OVC065 07/07 A2984 RMK AO2 SLP109 T00720067 $=
202101311256 METAR KPWT 311256Z AUTO 00000KT 10SM FEW034 BKN047 BKN060 07/07 A2985 RMK AO2 RAB24E46 SLP114 P0000 T00720067 $=
202101311156 METAR KPWT 311156Z AUTO 18005KT 10SM BKN050 OVC065 08/07 A2987 RMK AO2 SLP119 60017 70048 T00780067 10078 20056 58004 $=
202101311056 METAR KPWT 311056Z AUTO VRB04KT 10SM SCT016 BKN070 07/07 A2987 RMK AO2 RAE25 SLP122 P0004 T00720067 $=
202101311014 SPECI KPWT 311014Z AUTO 21007KT 8SM -RA SCT020 BKN024 OVC041 07/07 A2988 RMK AO2 P0004 $=
202101310956 METAR KPWT 310956Z AUTO 19005KT 5SM -RA BR FEW029 BKN042 OVC049 07/07 A2988 RMK AO2 SLP124 P0007 T00720067 $=
202101310940 SPECI KPWT 310940Z AUTO 20006KT 10SM -RA FEW003 OVC046 07/07 A2988 RMK AO2 P0005 $=
202101310933 SPECI KPWT 310933Z AUTO 18004KT 6SM -RA BR SCT003 BKN026 OVC042 07/07 A2988 RMK AO2 P0004 $=
202101310856 METAR KPWT 310856Z AUTO 21003KT 9SM -RA OVC003 07/07 A2988 RMK AO2 RAE00B46 SLP123 P0000 60006 T00670067 58002 $=
202101310845 SPECI KPWT 310845Z AUTO 22004KT 10SM BKN003 OVC032 07/07 A2988 RMK AO2 RAE00 P0000 $=
202101310806 SPECI KPWT 310806Z AUTO 00000KT 9SM FEW003 SCT009 OVC036 07/06 A2987 RMK AO2 RAE00 P0000 $=
202101310756 METAR KPWT 310756Z AUTO 00000KT 10SM -RA SCT003 BKN009 OVC036 06/06 A2988 RMK AO2 CIG 007V013 SLP124 P0005 T00610061 400670033 $=
202101310735 SPECI KPWT 310735Z AUTO 00000KT 3SM -RA BR BKN003 06/06 A2988 RMK AO2 P0003 $=
202101310656 METAR KPWT 310656Z AUTO 00000KT 10SM -RA OVC005 06/06 A2989 RMK AO2 RAE31B49 SLP127 P0001 T00610056 $=
202101310642 SPECI KPWT 310642Z AUTO 00000KT 10SM BKN005 OVC034 06/06 A2988 RMK AO2 RAE31 CIG 004V008 P0000 $=
202101310635 SPECI KPWT 310635Z AUTO 00000KT 10SM BKN007 OVC034 06/06 A2988 RMK AO2 RAE31 CIG 004V008 P0000 $=
202101310621 SPECI KPWT 310621Z AUTO 00000KT 9SM -RA FEW007 BKN034 BKN050 06/06 A2989 RMK AO2 P0000 $=
202101310556 METAR KPWT 310556Z AUTO 00000KT 10SM -RA FEW032 BKN043 BKN050 06/06 A2988 RMK AO2 SLP126 P0003 60016 T00560056 10061 20056 50000 $=
202101310504 SPECI KPWT 310504Z AUTO 17003KT 8SM -RA SCT013 BKN033 OVC040 06/06 A2988 RMK AO2 P0001 $=
202101310456 METAR KPWT 310456Z AUTO 00000KT 9SM -RA SCT010 BKN015 OVC040 06/06 A2989 RMK AO2 SLP128 P0005 T00560056 $=
202101310451 SPECI KPWT 310451Z AUTO 00000KT 9SM -RA BKN013 OVC017 06/06 A2989 RMK AO2 P0005 $=
202101310356 METAR KPWT 310356Z AUTO 00000KT 10SM -RA SCT021 BKN029 BKN036 06/05 A2988 RMK AO2 RAE25B56 SLP126 P0001 T00560050 $=
202101310351 SPECI KPWT 310351Z AUTO 00000KT 10SM FEW022 BKN029 BKN036 06/05 A2988 RMK AO2 RAE25 P0001 $=
202101310305 SPECI KPWT 310305Z AUTO 00000KT 8SM -RA FEW014 SCT023 OVC035 06/05 A2989 RMK AO2 P0001 $=
202101310256 METAR KPWT 310256Z AUTO 23003KT 5SM -RA BR SCT014 BKN023 OVC039 06/05 A2989 RMK AO2 SLP129 P0004 60007 T00560050 50001 $=
202101310156 METAR KPWT 310156Z AUTO 22004KT 10SM -RA OVC012 06/06 A2990 RMK AO2 SLP131 P0003 T00560056 $=
202101310139 SPECI KPWT 310139Z AUTO 21004KT 10SM -RA BKN014 OVC019 06/06 A2990 RMK AO2 P0002 $=
202101310056 METAR KPWT 310056Z AUTO 22004KT 10SM -RA OVC015 06/06 A2990 RMK AO2 RAB33 SLP132 P0000 T00610056 $=
202101310012 SPECI KPWT 310012Z AUTO 22004KT 10SM SCT004 OVC027 06/06 A2989 RMK AO2 $=
202101302356 METAR KPWT 302356Z AUTO 22005KT 10SM BKN004 OVC031 06/06 A2989 RMK AO2 RAE47 SLP128 P0002 60010 T00610061 10067 20056 55001 $=
202101302256 METAR KPWT 302256Z AUTO 23005KT 9SM -RA BKN004 BKN012 OVC017 06/06 A2989 RMK AO2 RAE02B34 CIG 003V008 SLP127 P0000 T00610061 $=
202101302238 SPECI KPWT 302238Z AUTO 24007KT 3SM -RA BR BKN004 BKN017 OVC026 06/06 A2989 RMK AO2 RAE02B34 P0000 $=
202101302205 SPECI KPWT 302205Z AUTO 24006KT 10SM FEW004 OVC028 06/06 A2988 RMK AO2 RAE02 P0000 $=
202101302156 METAR KPWT 302156Z AUTO 25007KT 10SM -RA SCT004 OVC030 06/06 A2988 RMK AO2 SLP124 P0002 T00610056 $=
202101302130 SPECI KPWT 302130Z AUTO 24008KT 10SM -RA BKN004 BKN013 OVC028 06/06 A2988 RMK AO2 CIG 003V009 P0001 $=
202101302104 SPECI KPWT 302104Z AUTO 23008KT 10SM -RA BKN007 BKN010 OVC028 06/06 A2989 RMK AO2 CIG 004V007 P0000 $=
202101302056 METAR KPWT 302056Z AUTO 24009KT 10SM -RA BKN005 OVC029 06/06 A2989 RMK AO2 RAB37 CIG 004V010 SLP129 P0000 60006 T00610061 58004 $=
202101302046 SPECI KPWT 302046Z AUTO 23007KT 9SM -RA BKN005 BKN011 OVC029 07/06 A2990 RMK AO2 RAB37 CIG 004V008 P0000 $=
202101302041 SPECI KPWT 302041Z AUTO 23005KT 8SM -RA SCT005 BKN026 OVC031 07/06 A2990 RMK AO2 RAB37 P0000 $=
202101301956 METAR KPWT 301956Z AUTO 23007KT 10SM OVC024 06/06 A2991 RMK AO2 RAE29 SLP136 P0002 T00610056 $=
202101301913 SPECI KPWT 301913Z AUTO 24007KT 8SM -RA SCT004 OVC026 06/05 A2992 RMK AO2 P0002 $=
202101301856 METAR KPWT 301856Z AUTO 24007KT 6SM -RA BR BKN004 OVC028 06/05 A2991 RMK AO2 CIG 003V008 SLP138 P0004 T00560050 $=
202101301825 SPECI KPWT 301825Z AUTO 23007KT 4SM -RA BR BKN004 OVC018 06/05 A2991 RMK AO2 CIG 003V009 P0002 $=
202101301756 METAR KPWT 301756Z AUTO 22007KT 6SM -RA BR FEW006 BKN018 OVC028 06/05 A2990 RMK AO2 SLP134 P0002 60005 T00560050 10056 20039 53016 $=
202101301730 SPECI KPWT 301730Z AUTO 22006KT 5SM -RA BR FEW005 BKN022 OVC029 05/05 A2989 RMK AO2 P0000 $=
202101301656 METAR KPWT 301656Z AUTO 20003KT 8SM -RA BKN022 BKN028 OVC036 05/04 A2988 RMK AO2 RAE05B25 SLP126 P0002 T00500044 $=
202101301556 METAR KPWT 301556Z AUTO 00000KT 5SM -RA BR OVC026 04/04 A2986 RMK AO2 RAB52 SLP119 P0000 T00390039 $=
202101301456 METAR KPWT 301456Z AUTO 00000KT 10SM OVC022 04/03 A2986 RMK AO2 SLP117 60001 T00390033 53001 $=
202101301356 METAR KPWT 301356Z AUTO 24004KT 10SM OVC026 04/03 A2985 RMK AO2 RAE1259 SLP114 P0000 T00390033 $=
202101301256 METAR KPWT 301256Z AUTO 21003KT 10SM -RA OVC022 04/03 A2985 RMK AO2 SLP115 P0001 T00440033 $=
202101301156 METAR KPWT 301156Z AUTO 00000KT 5SM -RA BR OVC018 04/04 A2985 RMK AO2 SLP115 P0003 60023 7//// T00390039 10044 20028 50003 $=
202101301056 METAR KPWT 301056Z AUTO 00000KT 6SM -RA BR OVC016 04/03 A2985 RMK AO2 SLP116 P0007 T00390033 $=
202101300956 METAR KPWT 300956Z AUTO 20005KT 10SM -RA FEW008 OVC016 04/03 A2985 RMK AO2 SLP113 P0007 T00390033 $=
202101300952 SPECI KPWT 300952Z AUTO 19003KT 9SM -RA FEW008 OVC016 04/03 A2984 RMK AO2 P0006 $=
202101300856 METAR KPWT 300856Z AUTO 00000KT 9SM -RA OVC018 03/03 A2984 RMK AO2 SLP112 P0002 60006 T00330033 51003 $=
202101300835 SPECI KPWT 300835Z AUTO 00000KT 9SM -RA SCT005 OVC018 03/03 A2985 RMK AO2 P0001 $=
202101300822 SPECI KPWT 300822Z AUTO 00000KT 10SM -RA BKN005 OVC018 03/03 A2985 RMK AO2 CIG 004V009 P0000 $=
202101300756 METAR KPWT 300756Z AUTO 00000KT 10SM -RA FEW007 OVC014 03/03 A2984 RMK AO2 SLP113 P0002 T00330028 400720000 $=
202101300656 METAR KPWT 300656Z AUTO 18003KT 8SM -RA BKN014 OVC020 03/03 A2984 RMK AO2 SLP109 P0002 T00330028 $=
202101300556 METAR KPWT 300556Z AUTO 22004KT 10SM -RA OVC018 03/03 A2983 RMK AO2 SLP108 P0003 60006 T00330028 10056 20028 53008 $=
202101300456 METAR KPWT 300456Z AUTO 23005KT 10SM -RA OVC018 03/03 A2982 RMK AO2 SLP106 P0003 T00330028 $=
202101300356 METAR KPWT 300356Z AUTO 23008KT 10SM -RA SCT007 BKN016 OVC024 04/03 A2981 RMK AO2 SLP101 P0000 T00440033 $=
202101300322 SPECI KPWT 300322Z AUTO 19003KT 10SM -RA BKN026 BKN034 04/03 A2980 RMK AO2 P0000 $=
202101300256 METAR KPWT 300256Z AUTO 20006KT 10SM -RA SCT024 BKN032 05/03 A2980 RMK AO2 RAB38 SLP097 P0000 60000 T00500028 53004 $=
202101300156 METAR KPWT 300156Z AUTO 00000KT 10SM BKN075 BKN110 03/02 A2978 RMK AO2 SLP092 T00330022 $=
202101300056 METAR KPWT 300056Z AUTO 00000KT 10SM FEW110 05/03 A2978 RMK AO2 SLP092 T00500028 $=
202101292356 METAR KPWT 292356Z AUTO 18005KT 10SM CLR 06/03 A2979 RMK AO2 SLP092 6//// T00560028 10072 20033 53001 $=
202101292256 METAR KPWT 292256Z AUTO 18006KT 10SM CLR 06/03 A2979 RMK AO2 SLP092 T00610033 $=
202101292217 SPECI KPWT 292217Z AUTO 21009KT 10SM SCT015 06/03 A2978 RMK AO2 $=
202101292156 METAR KPWT 292156Z AUTO 21008KT 10SM BKN017 07/03 A2978 RMK AO2 SLP091 T00670033 $=
202101292116 SPECI KPWT 292116Z AUTO 26007KT 10SM BKN015 OVC022 07/04 A2978 RMK AO2 $=
202101292103 SPECI KPWT 292103Z AUTO 21006KT 10SM BKN013 BKN018 OVC038 07/04 A2978 RMK AO2 $=
202101292056 METAR KPWT 292056Z AUTO 26006KT 10SM SCT009 BKN015 OVC038 07/04 A2978 RMK AO2 SLP092 6//// T00670039 58008 $=
202101291956 METAR KPWT 291956Z AUTO 24006KT 10SM BKN009 BKN020 OVC042 06/04 A2980 RMK AO2 SLP099 T00560039 $=
202101291951 SPECI KPWT 291951Z AUTO 22007KT 10SM BKN009 BKN020 OVC042 06/04 A2980 RMK AO2 $=
202101291856 METAR KPWT 291856Z AUTO 23004KT 10SM FEW009 OVC044 04/02 A2981 RMK AO2 SLP101 T00440022 $=
202101291815 SPECI KPWT 291815Z AUTO 21003KT 10SM SCT007 OVC046 04/04 A2981 RMK AO2 $=
202101291756 METAR KPWT 291756Z AUTO 00000KT 10SM OVC007 03/03 A2981 RMK AO2 SLP099 T00330033 10033 20000 55000 $=
202101291710 SPECI KPWT 291710Z AUTO 00000KT 10SM BKN009 OVC014 02/01 A2981 RMK AO2 FZRANO $=
202101291656 METAR KPWT 291656Z AUTO 00000KT 10SM BKN011 BKN044 01/01 A2981 RMK AO2 SLP101 T00110011 FZRANO $=
202101291650 SPECI KPWT 291650Z AUTO 00000KT 10SM BKN009 BKN044 01/01 A2981 RMK AO2 CIG 009V013 FZRANO $=
202101291647 SPECI KPWT 291647Z AUTO 15003KT 10SM SCT009 BKN044 01/01 A2981 RMK AO2 FZRANO $=
202101291638 SPECI KPWT 291638Z AUTO 11004KT 10SM FEW044 00/00 A2980 RMK AO2 FZRANO $=
202101291628 SPECI KPWT 291628Z AUTO 00000KT 2SM BR CLR 00/00 A2980 RMK AO2 FZRANO $=
202101291556 METAR KPWT 291556Z AUTO 00000KT 10SM SCT013 BKN039 02/01 A2980 RMK AO2 SLP098 T00170011 FZRANO $=
202101291522 SPECI KPWT 291522Z AUTO 00000KT 10SM BKN011 BKN047 01/01 A2981 RMK AO2 FZRANO $=
202101291456 METAR KPWT 291456Z AUTO 00000KT 10SM FEW034 BKN045 02/02 A2981 RMK AO2 SLP100 T00170017 55003 FZRANO $=
202101291356 METAR KPWT 291356Z AUTO 00000KT 10SM FEW025 OVC043 02/02 A2980 RMK AO2 SLP097 T00170017 FZRANO $=
202101291326 SPECI KPWT 291326Z AUTO 00000KT 6SM BR OVC045 02/02 A2980 RMK AO2 FZRANO $=
202101291318 SPECI KPWT 291318Z AUTO 00000KT 2SM BR OVC045 02/02 A2980 RMK AO2 VIS 3/4V5 FZRANO $=
202101291305 SPECI KPWT 291305Z AUTO 00000KT 1SM BR FEW025 OVC045 02/02 A2980 RMK AO2 FZRANO $=
202101291256 METAR KPWT 291256Z AUTO 00000KT 1/2SM FG SCT025 OVC045 02/02 A2980 RMK AO2 SLP098 T00170017 FZRANO $=
202101291251 SPECI KPWT 291251Z AUTO 00000KT 1SM BR SCT025 OVC045 02/02 A2981 RMK AO2 FZRANO $=
202101291249 SPECI KPWT 291249Z AUTO 00000KT 1 3/4SM BR BKN025 OVC045 02/02 A2981 RMK AO2 FZRANO $=
202101291156 METAR KPWT 291156Z AUTO 00000KT 4SM BR OVC016 02/02 A2981 RMK AO2 SLP104 70004 T00170017 10044 20011 56000 FZRANO $=
202101291149 SPECI KPWT 291149Z AUTO 00000KT 5SM BR BKN016 OVC042 02/01 A2982 RMK AO2 FZRANO $=
202101291103 SPECI KPWT 291103Z AUTO 00000KT 5SM BR FEW025 SCT030 OVC040 02/02 A2982 RMK AO2 FZRANO $=
202101291056 METAR KPWT 291056Z AUTO 00000KT 2 1/2SM BR FEW020 BKN027 BKN032 01/01 A2982 RMK AO2 SLP102 T00110011 FZRANO $=
202101291048 SPECI KPWT 291048Z AUTO 23003KT 1 3/4SM BR SCT020 BKN029 BKN043 01/01 A2982 RMK AO2 VIS 1V5 FZRANO $=
202101291034 SPECI KPWT 291034Z AUTO 00000KT 3SM BR BKN020 02/02 A2981 RMK AO2 FZRANO $=
202101291030 SPECI KPWT 291030Z AUTO 00000KT 1 1/4SM BR BKN020 02/02 A2981 RMK AO2 FZRANO $=
202101291023 SPECI KPWT 291023Z AUTO 00000KT 2 1/2SM BR BKN020 01/01 A2981 RMK AO2 FZRANO $=
202101290956 METAR KPWT 290956Z AUTO 00000KT 7SM FEW020 BKN047 03/03 A2981 RMK AO2 SLP101 T00280028 $=
202101290915 SPECI KPWT 290915Z AUTO 00000KT 10SM FEW020 SCT026 OVC047 03/03 A2981 RMK AO2 $=
202101290856 METAR KPWT 290856Z AUTO 00000KT 10SM FEW016 BKN023 OVC047 04/03 A2982 RMK AO2 SLP103 T00390033 56001 $=
202101290843 SPECI KPWT 290843Z AUTO 00000KT 10SM FEW016 BKN022 OVC045 04/03 A2982 RMK AO2 $=
202101290756 METAR KPWT 290756Z AUTO 00000KT 10SM FEW026 OVC045 04/03 A2982 RMK AO2 SLP103 T00390033 400720028 $=
202101290752 SPECI KPWT 290752Z AUTO 05003KT 10SM SCT025 OVC045 04/03 A2982 RMK AO2 400720028 $=
202101290656 METAR KPWT 290656Z AUTO 34003KT 10SM BKN015 OVC020 04/04 A2982 RMK AO2 SLP104 T00390039 $=
202101290642 SPECI KPWT 290642Z AUTO 00000KT 10SM OVC015 04/04 A2982 RMK AO2 $=
202101290619 SPECI KPWT 290619Z AUTO 36003KT 10SM BKN013 BKN020 OVC043 04/03 A2981 RMK AO2 $=
202101290556 METAR KPWT 290556Z AUTO 00000KT 9SM SCT020 OVC043 04/04 A2981 RMK AO2 SLP102 T00390039 10061 20028 51007 $=
202101290456 METAR KPWT 290456Z AUTO 00000KT 5SM BR FEW024 OVC041 04/03 A2981 RMK AO2 SLP099 T00390033 $=
202101290421 SPECI KPWT 290421Z AUTO 00000KT 5SM BR BKN022 OVC041 04/04 A2980 RMK AO2 $=
202101290410 SPECI KPWT 290410Z AUTO 00000KT 2 1/2SM BR OVC020 04/03 A2980 RMK AO2 $=
202101290401 SPECI KPWT 290401Z AUTO 00000KT 1 1/4SM BR BKN020 OVC041 04/04 A2980 RMK AO2 $=
202101290356 METAR KPWT 290356Z AUTO 00000KT 3/4SM BR BKN020 OVC041 04/04 A2980 RMK AO2 SLP095 T00390039 $=
202101290351 SPECI KPWT 290351Z AUTO 00000KT 3/4SM BR BKN020 OVC039 03/03 A2980 RMK AO2 $=
202101290342 SPECI KPWT 290342Z AUTO 00000KT 1 1/2SM BR BKN020 OVC039 03/03 A2979 RMK AO2 $=
202101290334 SPECI KPWT 290334Z AUTO 00000KT 1SM BR BKN020 OVC039 04/03 A2979 RMK AO2 VIS 1/2V2 $=
202101290329 SPECI KPWT 290329Z AUTO 00000KT 1/2SM FG BKN020 OVC039 03/03 A2979 RMK AO2 $=
202101290320 SPECI KPWT 290320Z AUTO 00000KT 3/4SM BR BKN020 BKN039 03/03 A2979 RMK AO2 $=
202101290318 SPECI KPWT 290318Z AUTO 00000KT 1/2SM FG SCT020 BKN039 03/03 A2979 RMK AO2 $=
202101290256 METAR KPWT 290256Z AUTO 00000KT 1/4SM FG FEW021 OVC041 03/03 A2979 RMK AO2 SLP094 T00330028 51011 $=
202101290234 SPECI KPWT 290234Z AUTO 00000KT 1/4SM FG OVC041 04/04 A2978 RMK AO2 $=
202101290156 METAR KPWT 290156Z AUTO 00000KT 1/2SM FG OVC043 03/03 A2978 RMK AO2 SLP090 T00330028 $=
202101290153 SPECI KPWT 290153Z AUTO 00000KT 3/4SM BR OVC043 03/03 A2978 RMK AO2 $=
202101290149 SPECI KPWT 290149Z AUTO 00000KT 1 3/4SM BR OVC043 03/03 A2978 RMK AO2 $=
202101290113 SPECI KPWT 290113Z AUTO 00000KT 10SM SCT027 BKN043 05/04 A2977 RMK AO2 $=
202101290056 METAR KPWT 290056Z AUTO 00000KT 10SM BKN027 OVC043 06/05 A2977 RMK AO2 SLP086 T00610050 $=
202101290034 SPECI KPWT 290034Z AUTO 00000KT 10SM BKN027 07/05 A2977 RMK AO2 $=
202101282356 METAR KPWT 282356Z AUTO 00000KT 10SM BKN034 OVC042 07/04 A2975 RMK AO2 RAE12 SLP082 P0000 60002 T00670044 10072 20061 53010 $=
202101282303 SPECI KPWT 282303Z AUTO 00000KT 10SM -RA SCT009 SCT015 OVC032 07/06 A2974 RMK AO2 P0000 $=
202101282256 METAR KPWT 282256Z AUTO 00000KT 10SM -RA BKN009 BKN015 OVC032 06/06 A2974 RMK AO2 RAB34 CIG 007V011 SLP079 P0002 T00610056 $=
202101282220 SPECI KPWT 282220Z AUTO 03003KT 10SM BKN009 BKN014 OVC025 07/05 A2973 RMK AO2 CIG 006V012 $=
202101282210 SPECI KPWT 282210Z AUTO 00000KT 10SM BKN011 OVC025 07/04 A2973 RMK AO2 $=
202101282156 METAR KPWT 282156Z AUTO 00000KT 10SM SCT011 BKN025 OVC030 07/04 A2973 RMK AO2 RAB18E35 SLP073 P0000 T00670044 $=
202101282056 METAR KPWT 282056Z AUTO 00000KT 10SM FEW012 BKN020 OVC031 07/05 A2972 RMK AO2 SLP072 T00670050 50004 $=
202101282048 SPECI KPWT 282048Z AUTO VRB03KT 10SM BKN015 BKN020 OVC031 07/04 A2972 RMK AO2 $=
202101282030 SPECI KPWT 282030Z AUTO 29004KT 10SM BKN014 OVC024 07/05 A2972 RMK AO2 $=
202101282018 SPECI KPWT 282018Z AUTO VRB03KT 10SM SCT014 OVC024 07/04 A2972 RMK AO2 $=
202101282007 SPECI KPWT 282007Z AUTO VRB03KT 10SM BKN014 OVC024 07/04 A2972 RMK AO2 $=
202101281956 METAR KPWT 281956Z AUTO 25003KT 10SM OVC016 07/04 A2973 RMK AO2 SLP072 T00670044 $=
202101281943 SPECI KPWT 281943Z AUTO 00000KT 10SM OVC016 06/04 A2973 RMK AO2 $=
202101281930 SPECI KPWT 281930Z AUTO 00000KT 10SM BKN014 OVC019 07/04 A2972 RMK AO2 $=
202101281856 METAR KPWT 281856Z AUTO 04003KT 10SM BKN026 OVC032 06/04 A2972 RMK AO2 SLP071 T00610044 $=
202101281843 SPECI KPWT 281843Z AUTO 00000KT 10SM FEW021 BKN033 OVC041 06/04 A2972 RMK AO2 $=
202101281756 METAR KPWT 281756Z AUTO 00000KT 8SM FEW016 OVC024 05/04 A2971 RMK AO2 SLP068 60002 T00500044 10050 20028 51017 $=
202101281749 SPECI KPWT 281749Z AUTO 00000KT 8SM FEW003 BKN021 OVC026 05/04 A2971 RMK AO2 $=
202101281656 METAR KPWT 281656Z AUTO 00000KT 9SM BKN017 BKN025 OVC029 04/04 A2970 RMK AO2 SLP061 P0001 T00390039 $=
202101281556 METAR KPWT 281556Z AUTO 00000KT 10SM OVC021 03/03 A2968 RMK AO2 RAE12 SLP055 P0000 T00330033 $=
202101281456 METAR KPWT 281456Z AUTO 06003KT 10SM -RA OVC025 03/03 A2966 RMK AO2 SLP049 P0001 60001 T00330033 53011 $=
202101281356 METAR KPWT 281356Z AUTO 00000KT 10SM -RA OVC029 03/03 A2965 RMK AO2 SLP046 P0000 T00330033 $=
202101281256 METAR KPWT 281256Z AUTO 00000KT 9SM -RA BKN027 OVC031 03/03 A2964 RMK AO2 RAB46 SLP041 P0000 T00330033 $=
202101281233 SPECI KPWT 281233Z AUTO 00000KT 10SM BKN026 OVC034 03/03 A2963 RMK AO2 $=
202101281156 METAR KPWT 281156Z AUTO 00000KT 10SM FEW023 OVC038 03/03 A2963 RMK AO2 UPE1058 SLP040 P0000 60021 70034 T00280028 10039 20028 51005 $=
202101281056 METAR KPWT 281056Z AUTO 00000KT 10SM UP FEW028 BKN040 03/03 A2962 RMK AO2 RAE53UPB53 SLP038 P0004 T00280028 $=
202101281022 SPECI KPWT 281022Z AUTO 00000KT 10SM -RA FEW024 OVC032 03/03 A2962 RMK AO2 P0003 $=
202101280956 METAR KPWT 280956Z AUTO 00000KT 10SM -RA BKN019 OVC029 03/03 A2962 RMK AO2 SLP038 P0003 T00330033 $=
202101280856 METAR KPWT 280856Z AUTO 00000KT 10SM -RA SCT020 OVC025 03/03 A2961 RMK AO2 SLP035 P0003 60014 T00330033 51005 $=
202101280811 SPECI KPWT 280811Z AUTO 32003KT 7SM -RA SCT012 BKN021 OVC025 04/03 A2961 RMK AO2 P0001 $=
202101280756 METAR KPWT 280756Z AUTO 00000KT 7SM -RA BKN013 OVC019 04/03 A2961 RMK AO2 SLP035 P0002 T00390033 400610011 $=
202101280735 SPECI KPWT 280735Z AUTO 00000KT 9SM -RA BKN019 BKN029 OVC034 04/03 A2961 RMK AO2 P0001 $=
202101280720 SPECI KPWT 280720Z AUTO 00000KT 9SM FEW017 SCT022 OVC034 04/03 A2961 RMK AO2 RAE15 P0000 $=
202101280656 METAR KPWT 280656Z AUTO 25003KT 6SM -RA BR OVC019 04/03 A2961 RMK AO2 SLP033 P0009 T00390033 $=
202101280556 METAR KPWT 280556Z AUTO 03003KT 7SM -RA OVC021 04/03 A2960 RMK AO2 SLP030 P0004 60011 T00390033 10056 20033 51000 $=
202101280456 METAR KPWT 280456Z AUTO 04005KT 9SM -RA OVC023 04/03 A2960 RMK AO2 SLP029 P0004 T00390033 $=
202101280356 METAR KPWT 280356Z AUTO 05003KT 8SM -RA BKN024 OVC034 04/03 A2960 RMK AO2 RAB35 SLP031 P0001 T00390033 $=
202101280348 SPECI KPWT 280348Z AUTO 07003KT 9SM -RA SCT022 BKN029 OVC036 04/03 A2960 RMK AO2 RAB35 P0001 $=
202101280256 METAR KPWT 280256Z AUTO 00000KT 10SM SCT038 04/03 A2960 RMK AO2 RAE52 SLP029 P0002 60002 T00390028 50006 $=
202101280227 SPECI KPWT 280227Z AUTO 03004KT 10SM -RA FEW014 SCT026 SCT033 04/03 A2960 RMK AO2 P0002 $=
202101280206 SPECI KPWT 280206Z AUTO 00000KT 7SM -RA FEW017 BKN026 BKN033 04/03 A2960 RMK AO2 P0000 $=
202101280156 METAR KPWT 280156Z AUTO 00000KT 10SM -RA FEW026 BKN035 BKN046 04/03 A2961 RMK AO2 RAB34 SLP032 P0000 T00390033 $=
202101280056 METAR KPWT 280056Z AUTO 00000KT 10SM BKN070 04/03 A2958 RMK AO2 SLP023 T00440028 $=
202101280000 METAR KPWT 262356Z AUTO 00000KT 10SM FEW043 BKN055 04/M02 A2949 RMK AO2 SLP993 T00441017 10044 20017 56022 $=
202101272356 METAR KPWT 272356Z AUTO 00000KT 10SM CLR 06/03 A2958 RMK AO2 SLP022 60001 T00560028 10061 20028 51002 $=
202101272256 METAR KPWT 272256Z AUTO 22003KT 10SM CLR 06/02 A2958 RMK AO2 SLP022 T00560022 $=
202101272156 METAR KPWT 272156Z AUTO 26004KT 10SM FEW014 05/03 A2958 RMK AO2 SLP021 T00500028 $=
202101272131 SPECI KPWT 272131Z AUTO 23004KT 10SM SCT016 06/03 A2958 RMK AO2 $=
202101272056 METAR KPWT 272056Z AUTO 26003KT 10SM FEW009 BKN016 05/03 A2958 RMK AO2 SLP022 60001 T00500028 56004 $=
202101272040 SPECI KPWT 272040Z AUTO 00000KT 10SM SCT011 BKN016 04/03 A2958 RMK AO2 $=
202101272012 SPECI KPWT 272012Z AUTO 29004KT 10SM BKN009 OVC075 04/03 A2958 RMK AO2 CIG 006V014 $=
202101272003 SPECI KPWT 272003Z AUTO 27004KT 10SM SCT007 BKN012 BKN075 04/03 A2958 RMK AO2 $=
202101271956 METAR KPWT 271956Z AUTO 28003KT 10SM BKN007 BKN014 BKN075 04/03 A2958 RMK AO2 RAE15 CIG 004V011 SLP024 P0000 T00440028 $=
202101271949 SPECI KPWT 271949Z AUTO 00000KT 10SM SCT007 SCT010 BKN075 04/03 A2958 RMK AO2 RAE15 P0000 $=
202101271856 METAR KPWT 271856Z AUTO 00000KT 10SM -RA OVC007 04/03 A2959 RMK AO2 UPE1757RAB1757 SLP026 P0001 T00390033 $=
202101271756 METAR KPWT 271756Z AUTO 00000KT 10SM UP OVC009 03/02 A2957 RMK AO2 UPE07B48RAB37E48 SLP020 P0000 60001 T00280022 10028 20017 51019 $=
202101271714 SPECI KPWT 271714Z AUTO 00000KT 10SM BKN009 OVC012 02/02 A2956 RMK AO2 UPE07 CIG 008V012 P0000 FZRANO $=
202101271656 METAR KPWT 271656Z AUTO 00000KT 9SM UP OVC012 02/02 A2956 RMK AO2 RAE06UPB06 SLP016 P0000 T00170017 FZRANO $=
202101271629 SPECI KPWT 271629Z AUTO 14004KT 10SM BKN014 OVC019 02/01 A2955 RMK AO2 RAE06UPB06E29 P0000 FZRANO $=
202101271556 METAR KPWT 271556Z AUTO 13005KT 10SM -RA BKN020 OVC026 02/01 A2953 RMK AO2 UPE00B21E27RAB27 SLP008 P0000 T00170011 FZRANO $=
202101271456 METAR KPWT 271456Z AUTO 00000KT 10SM UP OVC029 02/02 A2951 RMK AO2 UPB15E27B44 SLP000 P0000 60001 T00220017 51012 FZRANO $=
202101271454 SPECI KPWT 271454Z AUTO 00000KT 10SM UP OVC029 02/02 A2951 RMK AO2 UPB15E27B44 P0000 FZRANO $=
202101271356 METAR KPWT 271356Z AUTO 12003KT 10SM BKN041 02/01 A2949 RMK AO2 UPE1258 SLP992 P0000 T00220011 FZRANO $=
202101271256 METAR KPWT 271256Z AUTO 00000KT 10SM UP SCT030 OVC038 02/01 A2948 RMK AO2 RAE49UPB49 SLP987 P0001 T00220011 FZRANO $=
202101271211 SPECI KPWT 271211Z AUTO 00000KT 10SM -RA FEW023 SCT031 02/01 A2947 RMK AO2 P0000 FZRANO $=
202101271156 METAR KPWT 271156Z AUTO 00000KT 10SM -RA BKN025 OVC031 02/01 A2946 RMK AO2 UPB00E11 SLP984 P0000 60000 70002 T00220011 10022 20011 51012 FZRANO $=
202101271114 SPECI KPWT 271114Z AUTO 03006KT 10SM -RA BKN024 BKN030 OVC035 02/01 A2946 RMK AO2 UPB00E11 P0000 FZRANO $=
202101271103 SPECI KPWT 271103Z AUTO 03005KT 10SM UP FEW022 OVC034 02/01 A2946 RMK AO2 RAE00UPB00 P0000 FZRANO $=
202101271056 METAR KPWT 271056Z AUTO 03004KT 10SM -RA SCT022 BKN028 OVC043 02/01 A2945 RMK AO2 RAB42 SLP980 P0000 T00220006 FZRANO $=
202101270956 METAR KPWT 270956Z AUTO 06005KT 10SM OVC043 02/00 A2944 RMK AO2 RAB29E43 SLP976 P0000 T00220000 FZRANO $=
202101270856 METAR KPWT 270856Z AUTO 00000KT 10SM OVC046 01/01 A2943 RMK AO2 SLP972 T00110006 51001 FZRANO $=
202101270756 METAR KPWT 270756Z AUTO 00000KT 10SM OVC049 01/01 A2943 RMK AO2 SLP972 T00110006 400441006 FZRANO $=
202101270656 METAR KPWT 270656Z AUTO 00000KT 10SM BKN045 OVC055 01/01 A2944 RMK AO2 SLP975 T00110006 FZRANO $=
202101270556 METAR KPWT 270556Z AUTO 00000KT 10SM OVC050 01/01 A2943 RMK AO2 SLP972 60002 T00110006 10044 20006 55006 FZRANO $=
202101270456 METAR KPWT 270456Z AUTO 32005KT 10SM OVC055 01/01 A2942 RMK AO2 RAB01E13B39E47SNE39 SLP972 P0000 T00060006 FZRANO $=
202101270440 SPECI KPWT 270440Z AUTO 32005KT 9SM -RA FEW020 SCT026 BKN060 01/00 A2943 RMK AO2 RAB01E13B39SNE39 P0000 FZRANO $=
202101270356 METAR KPWT 270356Z AUTO 02004KT 5SM -SN BR BKN015 BKN031 01/00 A2944 RMK AO2 RAE18SNB18 SLP978 P0002 T00060000 FZRANO $=
202101270351 SPECI KPWT 270351Z AUTO 03004KT 2 1/2SM -SN BR BKN015 01/00 A2945 RMK AO2 RAE18SNB18 P0002 FZRANO $=
202101270335 SPECI KPWT 270335Z AUTO 04004KT 4SM -SN BR OVC015 01/00 A2945 RMK AO2 RAE18SNB18 P0000 FZRANO $=
202101270320 SPECI KPWT 270320Z AUTO 09003KT 4SM -SN BR BKN013 BKN018 OVC028 02/M01 A2945 RMK AO2 RAE18SNB18 P0000 FZRANO $=
202101270305 SPECI KPWT 270305Z AUTO 10003KT 10SM -RA FEW018 SCT023 BKN029 03/M02 A2945 RMK AO2 P0000 $=
202101270256 METAR KPWT 270256Z AUTO 11007KT 10SM -RA BKN032 BKN039 03/M02 A2945 RMK AO2 RAB12 SLP980 P0000 60000 T00331017 56014 $=
202101270156 METAR KPWT 270156Z AUTO 00000KT 10SM SCT029 OVC036 03/M01 A2945 RMK AO2 RAE38 SLP980 P0000 T00281011 $=
202101270134 SPECI KPWT 270134Z AUTO 02004KT 10SM -RA BKN029 OVC034 03/M02 A2946 RMK AO2 P0000 $=
202101270056 METAR KPWT 270056Z AUTO 33007KT 10SM -RA FEW023 SCT029 BKN036 03/M02 A2947 RMK AO2 RAB56 SLP985 P0000 T00331017 $=
202101262356 METAR KPWT 262356Z AUTO 00000KT 10SM FEW043 BKN055 04/M02 A2949 RMK AO2 SLP993 T00441017 10044 20017 56022 $=
202101262256 METAR KPWT 262256Z AUTO 04005KT 10SM SCT055 04/M02 A2950 RMK AO2 SLP997 T00441022 $=
202101262156 METAR KPWT 262156Z AUTO 04004KT 10SM CLR 04/M01 A2953 RMK AO2 SLP007 T00391011 $=
202101262056 METAR KPWT 262056Z AUTO 04006KT 10SM BKN060 04/M01 A2956 RMK AO2 SLP015 T00391006 58025 $=
202101261956 METAR KPWT 261956Z AUTO 05004KT 10SM CLR 03/00 A2959 RMK AO2 SLP027 T00280000 $=
202101261856 METAR KPWT 261856Z AUTO 01004KT 10SM CLR 03/02 A2962 RMK AO2 SLP039 T00280017 $=
202101261756 METAR KPWT 261756Z AUTO 00000KT 10SM CLR 02/01 A2963 RMK AO2 SLP042 60000 T00170011 10017 21006 56013 FZRANO $=
202101261656 METAR KPWT 261656Z AUTO 06003KT 10SM FEW013 01/00 A2965 RMK AO2 SLP049 T00060000 FZRANO $=
202101261652 SPECI KPWT 261652Z AUTO 02003KT 10SM FEW013 01/00 A2965 RMK AO2 FZRANO $=
202101261623 SPECI KPWT 261623Z AUTO 00000KT 10SM BKN011 BKN043 00/M01 A2966 RMK AO2 FZRANO $=
202101261615 SPECI KPWT 261615Z AUTO 00000KT 10SM SCT009 OVC043 00/M01 A2967 RMK AO2 FZRANO $=
202101261556 METAR KPWT 261556Z AUTO 00000KT 10SM BKN043 00/M01 A2967 RMK AO2 SLP056 T00001006 FZRANO $=
202101261456 METAR KPWT 261456Z AUTO 22004KT 10SM FEW037 BKN049 01/01 A2968 RMK AO2 SLP060 60000 T00060006 58023 FZRANO $=
202101261438 SPECI KPWT 261438Z AUTO 22007KT 10SM FEW023 OVC049 01/01 A2969 RMK AO2 FZRANO $=
202101261356 METAR KPWT 261356Z AUTO 19005KT 10SM OVC024 01/01 A2971 RMK AO2 SLP067 T00110011 FZRANO $=
202101261304 SPECI KPWT 261304Z AUTO 00000KT 10SM OVC018 01/01 A2973 RMK AO2 FZRANO $=
202101261256 METAR KPWT 261256Z AUTO 00000KT 10SM BKN014 OVC020 01/01 A2973 RMK AO2 RAB1158E31 SLP076 P0000 T00110006 FZRANO $=
202101261246 SPECI KPWT 261246Z AUTO 00000KT 10SM BKN014 OVC022 01/01 A2974 RMK AO2 RAB1158E31 P0000 FZRANO $=
202101261156 METAR KPWT 261156Z AUTO 25003KT 10SM OVC022 01/01 A2975 RMK AO2 UPB24E37RAB37E46 SLP082 P0000 60000 T00110006 10011 21006 58015 FZRANO $=
202101261124 SPECI KPWT 261124Z AUTO 00000KT 10SM UP BKN024 OVC041 01/01 A2977 RMK AO2 UPB24 P0000 FZRANO $=
202101261056 METAR KPWT 261056Z AUTO 00000KT 10SM SCT019 SCT030 OVC039 01/01 A2977 RMK AO2 SLP087 T00110006 FZRANO $=
202101260956 METAR KPWT 260956Z AUTO 00000KT 10SM OVC026 01/01 A2979 RMK AO2 SLP094 T00110006 FZRANO $=
202101260856 METAR KPWT 260856Z AUTO 20003KT 10SM OVC024 01/01 A2980 RMK AO2 SLP097 T00110006 58014 FZRANO $=
202101260841 SPECI KPWT 260841Z AUTO 22003KT 10SM SCT003 OVC024 01/01 A2981 RMK AO2 FZRANO $=
202101260818 SPECI KPWT 260818Z AUTO 21003KT 10SM BKN003 OVC024 01/01 A2981 RMK AO2 FZRANO $=
202101260809 SPECI KPWT 260809Z AUTO 23005KT 10SM SCT003 OVC024 01/01 A2982 RMK AO2 FZRANO $=
202101260756 METAR KPWT 260756Z AUTO 26004KT 10SM OVC024 01/01 A2982 RMK AO2 SLP104 T00110006 400611006 FZRANO $=
202101260724 SPECI KPWT 260724Z AUTO 00000KT 10SM FEW006 OVC022 01/00 A2983 RMK AO2 FZRANO $=
202101260656 METAR KPWT 260656Z AUTO 00000KT 10SM BKN020 M01/M01 A2983 RMK AO2 SLP109 T10061006 FZRANO $=
202101260646 SPECI KPWT 260646Z AUTO 00000KT 10SM BKN020 BKN024 M01/M01 A2983 RMK AO2 FZRANO $=
202101260614 SPECI KPWT 260614Z AUTO 00000KT 10SM FEW020 01/00 A2984 RMK AO2 FZRANO $=
202101260556 METAR KPWT 260556Z AUTO 21003KT 10SM BKN022 01/01 A2984 RMK AO2 SLP113 T00060006 10039 21006 58003 FZRANO $=
202101260456 METAR KPWT 260456Z AUTO 19003KT 10SM FEW013 BKN020 00/M01 A2985 RMK AO2 SLP114 T00001006 FZRANO $=
202101260451 SPECI KPWT 260451Z AUTO 20003KT 10SM FEW013 BKN020 00/M01 A2985 RMK AO2 FZRANO $=
202101260256 METAR KPWT 260256Z AUTO 00000KT 10SM FEW006 00/M01 A2985 RMK AO2 SLP115 T00001006 58001 FZRANO $=
202101260245 SPECI KPWT 260245Z AUTO 18004KT 10SM FEW006 00/00 A2985 RMK AO2 FZRANO $=
202101260156 METAR KPWT 260156Z AUTO 00000KT 10SM CLR 01/00 A2985 RMK AO2 SLP116 T00060000 FZRANO $=
202101260056 METAR KPWT 260056Z AUTO 22005KT 10SM FEW014 02/01 A2985 RMK AO2 SLP117 T00170006 FZRANO $=
202101260045 SPECI KPWT 260045Z AUTO 22006KT 10SM SCT014 03/01 A2985 RMK AO2 $=
202101260027 SPECI KPWT 260027Z AUTO 22007KT 10SM BKN014 04/02 A2985 RMK AO2 $=
202101260000 METAR KPWT 242356Z AUTO 20005KT 10SM -RA BKN006 OVC010 03/02 A2968 RMK AO2 UPB37E48 SLP058 P0002 60029 T00280022 10033 20022 56007 $=
202101252356 METAR KPWT 252356Z AUTO 21006KT 10SM FEW019 04/01 A2985 RMK AO2 SLP115 T00390011 10061 20022 53004 $=
202101252349 SPECI KPWT 252349Z AUTO 20006KT 10SM SCT019 04/01 A2985 RMK AO2 $=
202101252334 SPECI KPWT 252334Z AUTO 21008KT 10SM BKN019 05/01 A2985 RMK AO2 $=
202101252256 METAR KPWT 252256Z AUTO 19007KT 10SM SCT019 06/01 A2985 RMK AO2 SLP112 T00610011 $=
202101252206 SPECI KPWT 252206Z AUTO 20009KT 10SM FEW011 SCT025 06/02 A2984 RMK AO2 $=
202101252156 METAR KPWT 252156Z AUTO 20008KT 10SM FEW011 BKN018 BKN025 05/02 A2984 RMK AO2 SLP110 T00500022 $=
202101252122 SPECI KPWT 252122Z AUTO 22012KT 10SM BKN015 OVC020 05/02 A2984 RMK AO2 $=
202101252056 METAR KPWT 252056Z AUTO 20009KT 10SM BKN013 OVC019 06/03 A2984 RMK AO2 SLP110 T00560028 50000 $=
202101252010 SPECI KPWT 252010Z AUTO 21009KT 10SM OVC011 04/02 A2984 RMK AO2 $=
202101251956 METAR KPWT 251956Z AUTO 21011KT 10SM OVC009 04/02 A2984 RMK AO2 CIG 009V013 SLP112 T00440022 $=
202101251856 METAR KPWT 251856Z AUTO 22010KT 10SM OVC009 04/02 A2984 RMK AO2 SLP113 T00390022 $=
202101251839 SPECI KPWT 251839Z AUTO 22009KT 10SM OVC007 03/02 A2984 RMK AO2 CIG 005V010 $=
202101251813 SPECI KPWT 251813Z AUTO 22007KT 10SM OVC005 03/02 A2984 RMK AO2 CIG 004V009 $=
202101251756 METAR KPWT 251756Z AUTO 22007KT 10SM OVC003 02/02 A2984 RMK AO2 SLP111 T00220017 10022 20006 53013 FZRANO $=
202101251656 METAR KPWT 251656Z AUTO 23007KT 10SM OVC003 02/01 A2982 RMK AO2 SLP106 T00170011 FZRANO $=
202101251556 METAR KPWT 251556Z AUTO 21003KT 10SM OVC003 02/01 A2981 RMK AO2 CIG 003V006 SLP102 T00170011 FZRANO $=
202101251456 METAR KPWT 251456Z AUTO 21007KT 10SM OVC005 02/01 A2980 RMK AO2 SLP098 T00170011 53012 FZRANO $=
202101251356 METAR KPWT 251356Z AUTO 22007KT 10SM OVC005 02/01 A2978 RMK AO2 CIG 004V008 SLP093 T00170011 FZRANO $=
202101251303 SPECI KPWT 251303Z AUTO 22006KT 10SM OVC005 02/02 A2977 RMK AO2 CIG 004V007 FZRANO $=
202101251256 METAR KPWT 251256Z AUTO 21006KT 10SM OVC007 02/02 A2977 RMK AO2 CIG 004V010 SLP089 T00170017 FZRANO $=
202101251219 SPECI KPWT 251219Z AUTO 21004KT 10SM BKN007 BKN014 01/01 A2977 RMK AO2 FZRANO $=
202101251212 SPECI KPWT 251212Z AUTO 21004KT 10SM SCT007 BKN014 01/01 A2977 RMK AO2 FZRANO $=
202101251156 METAR KPWT 251156Z AUTO 21005KT 10SM BKN007 01/01 A2976 RMK AO2 SLP086 6//// 7//// T00110006 10022 20011 53007 FZRANO $=
202101251056 METAR KPWT 251056Z AUTO 20004KT 10SM OVC007 02/01 A2976 RMK AO2 CIG 005V009 SLP084 T00170011 FZRANO $=
202101250956 METAR KPWT 250956Z AUTO 00000KT 10SM OVC005 02/02 A2974 RMK AO2 SLP078 T00220017 FZRANO $=
202101250952 SPECI KPWT 250952Z AUTO 00000KT 10SM OVC005 02/02 A2974 RMK AO2 CIG 004V008 FZRANO $=
202101250856 METAR KPWT 250856Z AUTO 22003KT 10SM OVC009 02/02 A2974 RMK AO2 CIG 006V011 SLP077 6//// T00170017 51006 FZRANO $=
202101250851 SPECI KPWT 250851Z AUTO 23004KT 10SM OVC009 02/02 A2974 RMK AO2 CIG 005V011 FZRANO $=
202101250836 SPECI KPWT 250836Z AUTO 24003KT 10SM FEW004 OVC011 02/01 A2973 RMK AO2 FZRANO $=
202101250824 SPECI KPWT 250824Z AUTO 23005KT 10SM BKN004 OVC011 02/01 A2973 RMK AO2 CIG 003V009 FZRANO $=
202101250756 METAR KPWT 250756Z AUTO 23006KT 10SM OVC006 02/02 A2973 RMK AO2 SLP073 T00220017 400330017 FZRANO $=
202101250708 SPECI KPWT 250708Z AUTO 24005KT 10SM OVC006 02/02 A2972 RMK AO2 CIG 004V008 FZRANO $=
202101250656 METAR KPWT 250656Z AUTO 22006KT 10SM OVC004 02/02 A2972 RMK AO2 CIG 003V007 SLP069 T00220017 FZRANO $=
202101250556 METAR KPWT 250556Z AUTO 22006KT 10SM OVC004 02/02 A2971 RMK AO2 SLP065 60002 T00220017 10028 20017 53006 FZRANO $=
202101250456 METAR KPWT 250456Z AUTO 21007KT 10SM OVC004 02/02 A2970 RMK AO2 SLP064 T00220017 FZRANO $=
202101250356 METAR KPWT 250356Z AUTO 21004KT 10SM OVC004 02/02 A2969 RMK AO2 SLP063 T00220017 FZRANO $=
202101250256 METAR KPWT 250256Z AUTO 21005KT 10SM OVC004 02/02 A2969 RMK AO2 CIG 003V007 SLP060 60002 T00220017 51001 FZRANO $=
202101250239 SPECI KPWT 250239Z AUTO 21007KT 10SM OVC004 02/02 A2969 RMK AO2 CIG 003V007 FZRANO $=
202101250156 METAR KPWT 250156Z AUTO 19004KT 10SM OVC006 02/02 A2969 RMK AO2 RAE30UPB30E34 CIG 004V010 SLP059 P0001 T00220017 FZRANO $=
202101250143 SPECI KPWT 250143Z AUTO 19005KT 10SM BKN005 BKN010 OVC020 02/02 A2969 RMK AO2 RAE30UPB30E34 CIG 004V008 P0001 FZRANO $=
202101250136 SPECI KPWT 250136Z AUTO 20004KT 10SM FEW004 BKN010 OVC022 02/02 A2969 RMK AO2 RAE30UPB30E34 CIG 007V012 P0001 FZRANO $=
202101250119 SPECI KPWT 250119Z AUTO 20005KT 10SM -RA BKN006 BKN014 OVC022 02/02 A2968 RMK AO2 CIG 004V008 P0001 FZRANO $=
202101250108 SPECI KPWT 250108Z AUTO 21007KT 10SM -RA OVC004 02/02 A2968 RMK AO2 P0001 FZRANO $=
202101250056 METAR KPWT 250056Z AUTO 20004KT 10SM -RA OVC006 03/02 A2968 RMK AO2 CIG 004V008 SLP058 P0001 T00280022 $=
202101242356 METAR KPWT 242356Z AUTO 20005KT 10SM -RA BKN006 OVC010 03/02 A2968 RMK AO2 UPB37E48 SLP058 P0002 60029 T00280022 10033 20022 56007 $=
202101242256 METAR KPWT 242256Z AUTO 18005KT 9SM -RA OVC006 03/02 A2968 RMK AO2 CIG 005V011 SLP059 P0004 T00280022 $=
202101242156 METAR KPWT 242156Z AUTO 20005KT 9SM -RA OVC008 03/03 A2969 RMK AO2 CIG 005V011 SLP061 P0006 T00330028 $=
202101242056 METAR KPWT 242056Z AUTO 20007KT 9SM -RA BKN008 OVC014 03/02 A2971 RMK AO2 CIG 006V010 SLP066 P0006 60017 T00280022 56015 $=
202101242042 SPECI KPWT 242042Z AUTO 22008KT 9SM -RA BKN007 OVC012 03/02 A2971 RMK AO2 CIG 005V010 P0006 $=
202101241956 METAR KPWT 241956Z AUTO 21006KT 9SM -RA OVC005 03/02 A2973 RMK AO2 SLP073 P0006 T00280022 $=
202101241856 METAR KPWT 241856Z AUTO 21007KT 8SM -RA OVC005 03/02 A2975 RMK AO2 SLP081 P0005 T00280022 $=
202101241756 METAR KPWT 241756Z AUTO 19005KT 9SM -RA OVC005 03/02 A2976 RMK AO2 CIG 003V008 SLP085 P0004 60018 T00280022 10028 20022 56013 $=
202101241656 METAR KPWT 241656Z AUTO 21009KT 7SM -RA OVC005 02/02 A2977 RMK AO2 SLP089 P0005 T00220017 FZRANO $=
202101241556 METAR KPWT 241556Z AUTO 20005KT 7SM -RA OVC005 02/02 A2979 RMK AO2 SLP093 P0004 T00220017 FZRANO $=
202101241548 SPECI KPWT 241548Z AUTO 20003KT 8SM -RA OVC005 02/02 A2979 RMK AO2 P0003 FZRANO $=
202101241516 SPECI KPWT 241516Z AUTO 21006KT 8SM -RA OVC009 02/02 A2980 RMK AO2 CIG 007V014 P0002 FZRANO $=
202101241456 METAR KPWT 241456Z AUTO 20005KT 9SM -RA OVC011 02/02 A2980 RMK AO2 CIG 008V013 SLP098 P0002 60005 T00220017 56019 FZRANO $=
202101241405 SPECI KPWT 241405Z AUTO 19004KT 9SM -RA BKN013 BKN019 OVC023 02/02 A2981 RMK AO2 P0000 FZRANO $=
202101241356 METAR KPWT 241356Z AUTO 20004KT 10SM -RA BKN015 OVC023 03/02 A2982 RMK AO2 SLP103 P0002 T00280017 $=
202101241256 METAR KPWT 241256Z AUTO 20005KT 10SM -RA OVC016 03/02 A2983 RMK AO2 UPE50RAB50 SLP109 P0001 T00280022 $=
202101241247 SPECI KPWT 241247Z AUTO 20004KT 10SM UP OVC016 03/02 A2984 RMK AO2 P0000 $=
202101241236 SPECI KPWT 241236Z AUTO 20003KT 10SM UP OVC014 03/02 A2984 RMK AO2 P0000 $=
202101241228 SPECI KPWT 241228Z AUTO 19003KT 10SM UP SCT009 OVC016 03/02 A2985 RMK AO2 P0000 $=
202101241156 METAR KPWT 241156Z AUTO 20004KT 9SM UP OVC009 03/02 A2986 RMK AO2 UPB55 SLP117 P0000 60002 70002 T00280022 10028 20028 58025 $=
202101241114 SPECI KPWT 241114Z AUTO 19004KT 9SM OVC007 03/02 A2988 RMK AO2 CIG 004V009 $=
202101241056 METAR KPWT 241056Z AUTO 19005KT 4SM BR OVC005 03/02 A2989 RMK AO2 UPB28E50 CIG 004V008 SLP127 P0001 T00280022 $=
202101241011 SPECI KPWT 241011Z AUTO 19006KT 4SM BR OVC005 03/02 A2991 RMK AO2 CIG 003V007 P0001 $=
202101240956 METAR KPWT 240956Z AUTO 19006KT 3SM BR OVC003 03/02 A2991 RMK AO2 UPE52 SLP136 P0001 T00280022 $=
202101240911 SPECI KPWT 240911Z AUTO 19006KT 3SM UP BR OVC003 03/02 A2993 RMK AO2 P0001 $=
202101240903 SPECI KPWT 240903Z AUTO 19007KT 2 1/2SM UP BR OVC003 03/02 A2993 RMK AO2 VIS 1 3/4V4 P0001 $=
202101240856 METAR KPWT 240856Z AUTO 19006KT 1 3/4SM UP BR OVC003 03/02 A2993 RMK AO2 VIS 1 1/2V4 UPB21 SLP142 P0000 60000 T00280022 56008 $=
202101240854 SPECI KPWT 240854Z AUTO 19006KT 2SM UP BR OVC003 03/02 A2993 RMK AO2 VIS 1 1/2V4 UPB21 P0000 $=
202101240756 METAR KPWT 240756Z AUTO 19005KT 4SM BR OVC003 03/02 A2996 RMK AO2 SLP151 T00280022 400501061 $=
202101240754 SPECI KPWT 240754Z AUTO 19005KT 4SM BR OVC003 03/02 A2996 RMK AO2 400501061 $=
202101240743 SPECI KPWT 240743Z AUTO 17006KT 5SM BR OVC005 03/02 A2996 RMK AO2 CIG 003V008 $=
202101240703 SPECI KPWT 240703Z AUTO 20003KT 9SM BKN009 OVC013 03/02 A2998 RMK AO2 CIG 006V012 $=
202101240656 METAR KPWT 240656Z AUTO 00000KT 10SM OVC011 03/02 A2998 RMK AO2 UPB21E50 SLP159 P0000 T00280017 $=
202101240632 SPECI KPWT 240632Z AUTO 19003KT 9SM UP OVC013 03/02 A2999 RMK AO2 UPB21 P0000 $=
202101240556 METAR KPWT 240556Z AUTO 20003KT 10SM OVC015 03/01 A3000 RMK AO2 SLP166 T00280011 10044 20028 56018 $=
202101240456 METAR KPWT 240456Z AUTO 00000KT 10SM OVC019 03/01 A3002 RMK AO2 SLP173 T00280011 $=
202101240446 SPECI KPWT 240446Z AUTO 00000KT 10SM BKN019 OVC041 03/01 A3002 RMK AO2 $=
202101240424 SPECI KPWT 240424Z AUTO 24003KT 10SM FEW023 SCT029 OVC039 03/01 A3002 RMK AO2 $=
202101240356 METAR KPWT 240356Z AUTO 21004KT 10SM BKN025 BKN029 OVC042 03/01 A3004 RMK AO2 SLP180 T00280011 $=
202101240318 SPECI KPWT 240318Z AUTO 17004KT 10SM BKN021 BKN039 03/01 A3005 RMK AO2 $=
202101240256 METAR KPWT 240256Z AUTO 18006KT 10SM BKN037 03/01 A3005 RMK AO2 SLP187 T00330006 57015 $=
202101240156 METAR KPWT 240156Z AUTO 00000KT 10SM OVC033 03/00 A3007 RMK AO2 SLP194 T00330000 $=
202101240056 METAR KPWT 240056Z AUTO 00000KT 10SM OVC033 04/00 A3008 RMK AO2 SLP194 T00390000 $=
202101232356 METAR KPWT 232356Z AUTO 00000KT 10SM FEW028 OVC035 04/00 A3010 RMK AO2 SLP201 T00440000 10050 20017 58006 $=
202101232256 METAR KPWT 232256Z AUTO VRB03KT 10SM CLR 05/01 A3011 RMK AO2 SLP206 T00500006 $=
202101232156 METAR KPWT 232156Z AUTO 12004KT 10SM CLR 03/01 A3011 RMK AO2 SLP207 T00330006 $=
202101232136 SPECI KPWT 232136Z AUTO 16006KT 10SM SCT015 04/01 A3013 RMK AO2 $=
202101232129 SPECI KPWT 232129Z AUTO 15006KT 10SM BKN015 04/01 A3012 RMK AO2 $=
202101232056 METAR KPWT 232056Z AUTO 16006KT 10SM FEW015 04/01 A3012 RMK AO2 SLP208 T00440006 58014 $=
202101231956 METAR KPWT 231956Z AUTO 22005KT 10SM CLR 04/00 A3015 RMK AO2 SLP218 T00390000 $=
202101231856 METAR KPWT 231856Z AUTO VRB04KT 10SM CLR 03/01 A3016 RMK AO2 SLP224 T00330006 $=
202101231756 METAR KPWT 231756Z AUTO 00000KT 10SM CLR 03/01 A3016 RMK AO2 SLP221 T00330006 10039 21061 53008 $=
202101231656 METAR KPWT 231656Z AUTO 00000KT 10SM CLR M02/M03 A3015 RMK AO2 SLP218 T10221028 FZRANO $=
202101231556 METAR KPWT 231556Z AUTO 00000KT 10SM CLR M06/M07 A3014 RMK AO2 SLP216 T10611067 FZRANO $=
202101231456 METAR KPWT 231456Z AUTO 00000KT 10SM CLR M06/M06 A3013 RMK AO2 SLP213 T10561061 56000 FZRANO $=
202101231356 METAR KPWT 231356Z AUTO 00000KT 10SM CLR M06/M07 A3014 RMK AO2 SLP214 T10611067 FZRANO $=
202101231256 METAR KPWT 231256Z AUTO 00000KT 10SM CLR M06/M07 A3013 RMK AO2 SLP212 T10561067 FZRANO $=
202101231156 METAR KPWT 231156Z AUTO 00000KT 10SM CLR M06/M07 A3014 RMK AO2 SLP214 T10561067 11028 21056 51005 FZRANO $=
202101231056 METAR KPWT 231056Z AUTO 00000KT 10SM CLR M04/M04 A3013 RMK AO2 SLP211 T10391044 FZRANO $=
202101230956 METAR KPWT 230956Z AUTO 00000KT 10SM CLR M05/M06 A3013 RMK AO2 SLP212 T10501056 FZRANO $=
202101230856 METAR KPWT 230856Z AUTO 00000KT 10SM CLR M04/M04 A3012 RMK AO2 SLP208 T10391044 50004 FZRANO $=
202101230756 METAR KPWT 230756Z AUTO 00000KT 7SM CLR M04/M04 A3012 RMK AO2 SLP209 T10391044 400721044 FZRANO $=
202101230656 METAR KPWT 230656Z AUTO 00000KT 10SM CLR M04/M04 A3012 RMK AO2 SLP207 T10391044 FZRANO $=
202101230556 METAR KPWT 230556Z AUTO 00000KT 10SM CLR M03/M04 A3011 RMK AO2 SLP204 T10281039 10056 21033 53012 FZRANO $=
202101230456 METAR KPWT 230456Z AUTO 00000KT 10SM CLR M02/M03 A3009 RMK AO2 SLP197 T10171028 FZRANO $=
202101230356 METAR KPWT 230356Z AUTO 05004KT 10SM CLR 01/M02 A3008 RMK AO2 SLP193 T00061017 FZRANO $=
202101230256 METAR KPWT 230256Z AUTO 05005KT 10SM CLR 02/M02 A3007 RMK AO2 SLP190 T00171017 53003 FZRANO $=
202101230156 METAR KPWT 230156Z AUTO 05008KT 10SM CLR 03/M01 A3007 RMK AO2 SLP188 T00281011 $=
202101230056 METAR KPWT 230056Z AUTO 05007KT 10SM CLR 04/M02 A3006 RMK AO2 SLP187 T00391017 $=
202101222356 METAR KPWT 222356Z AUTO 03008G17KT 10SM CLR 06/M03 A3006 RMK AO2 SLP187 T00561028 10072 20044 53004 $=
202101222256 METAR KPWT 222256Z AUTO 05011KT 10SM CLR 07/M03 A3005 RMK AO2 SLP183 T00671033 $=
202101222156 METAR KPWT 222156Z AUTO 04009KT 10SM FEW080 07/M04 A3004 RMK AO2 SLP180 T00721039 $=
202101222056 METAR KPWT 222056Z AUTO 04011G18KT 10SM OVC080 07/M03 A3005 RMK AO2 SLP183 T00721033 58002 $=
202101221956 METAR KPWT 221956Z AUTO 05013KT 10SM BKN075 06/M02 A3005 RMK AO2 SLP183 T00611017 $=
202101221856 METAR KPWT 221856Z AUTO 04009KT 10SM OVC080 05/M01 A3006 RMK AO2 SLP187 T00501011 $=
202101221756 METAR KPWT 221756Z AUTO 04010KT 10SM OVC070 04/M02 A3006 RMK AO2 SLP185 T00441017 10044 20039 53013 $=
202101221656 METAR KPWT 221656Z AUTO 05012KT 10SM OVC065 04/M01 A3004 RMK AO2 SLP180 T00441011 $=
202101221556 METAR KPWT 221556Z AUTO 04009KT 10SM OVC065 04/M01 A3003 RMK AO2 SLP176 T00391011 $=
202101221456 METAR KPWT 221456Z AUTO 05009KT 10SM OVC060 04/M01 A3002 RMK AO2 SLP173 T00391006 55002 $=
202101221356 METAR KPWT 221356Z AUTO 04009KT 10SM OVC060 04/M01 A3002 RMK AO2 SLP172 T00391006 $=
202101221256 METAR KPWT 221256Z AUTO 04008KT 10SM OVC060 04/M01 A3002 RMK AO2 SLP174 T00391006 $=
202101221156 METAR KPWT 221156Z AUTO 05011KT 10SM OVC060 04/00 A3002 RMK AO2 SLP174 70001 T00440000 10050 20039 58005 $=
202101221056 METAR KPWT 221056Z AUTO 04009KT 10SM OVC055 04/01 A3004 RMK AO2 SLP178 T00440011 $=
202101220956 METAR KPWT 220956Z AUTO 04008KT 10SM OVC055 04/02 A3004 RMK AO2 SLP178 T00440017 $=
202101220856 METAR KPWT 220856Z AUTO 06006KT 10SM OVC050 04/01 A3004 RMK AO2 SLP180 T00440011 56002 $=
202101220756 METAR KPWT 220756Z AUTO 02005KT 10SM SCT050 BKN120 04/01 A3004 RMK AO2 SLP180 T00390011 400670039 $=
202101220656 METAR KPWT 220656Z AUTO 05007KT 10SM SCT049 04/01 A3004 RMK AO2 SLP180 T00440011 $=
202101220556 METAR KPWT 220556Z AUTO 04010KT 10SM OVC050 05/02 A3005 RMK AO2 SLP181 60000 T00500017 10056 20050 53002 $=
202101220456 METAR KPWT 220456Z AUTO 05009KT 10SM SCT043 OVC050 05/02 A3004 RMK AO2 SLP179 T00500022 $=
202101220356 METAR KPWT 220356Z AUTO 05008KT 10SM OVC041 05/03 A3004 RMK AO2 RAE49 SLP182 P0000 T00500028 $=
202101220256 METAR KPWT 220256Z AUTO 04009KT 10SM -RA OVC037 05/03 A3004 RMK AO2 SLP181 P0000 60000 T00500028 53003 $=
202101220156 METAR KPWT 220156Z AUTO 04009KT 10SM -RA CLR 05/04 A3004 RMK AO2 RAE11B36 SLP179 P0000 T00500039 $=
202101220056 METAR KPWT 220056Z AUTO 04007KT 10SM -RA FEW110 05/03 A3003 RMK AO2 RAB22 SLP177 P0000 T00500033 $=
202101212356 METAR KPWT 212356Z AUTO 03008KT 10SM OVC100 06/04 A3003 RMK AO2 SLP177 60001 T00610039 10067 20050 56007 $=
202101212322 SPECI KPWT 212322Z AUTO 02008KT 10SM SCT019 BKN110 06/04 RMK AO2 $=
202101212256 METAR KPWT 212256Z AUTO 03008KT 10SM OVC019 06/04 A3004 RMK AO2 SLP179 T00610044 $=
202101212156 METAR KPWT 212156Z AUTO 03006KT 10SM FEW012 OVC019 07/04 A3004 RMK AO2 SLP180 T00670044 $=
202101212106 SPECI KPWT 212106Z AUTO 04006KT 10SM FEW009 BKN019 06/04 A3005 RMK AO2 $=
202101212056 METAR KPWT 212056Z AUTO 04005KT 10SM FEW009 SCT019 SCT055 06/05 A3005 RMK AO2 RAE40 SLP183 P0001 60001 T00610050 57005 $=
202101212052 SPECI KPWT 212052Z AUTO 03005KT 10SM FEW009 SCT055 06/05 A3005 RMK AO2 RAE40 P0001 $=
202101211956 METAR KPWT 211956Z AUTO 03006KT 10SM -RA FEW023 BKN038 BKN047 06/04 A3007 RMK AO2 SLP189 P0000 T00560044 $=
202101211954 SPECI KPWT 211954Z AUTO 03006KT 10SM -RA SCT023 BKN043 06/04 A3007 RMK AO2 P0000 $=
202101211856 METAR KPWT 211856Z AUTO 04006KT 9SM -RA FEW006 OVC021 06/04 A3008 RMK AO2 RAB43 SLP193 P0000 T00560044 $=
202101211804 SPECI KPWT 211804Z AUTO 05005KT 9SM FEW004 OVC023 05/04 A3008 RMK AO2 $=
202101211756 METAR KPWT 211756Z AUTO 05005KT 9SM OVC023 05/04 A3008 RMK AO2 SLP194 60000 T00500044 10050 20039 50001 $=
202101211656 METAR KPWT 211656Z AUTO 06003KT 8SM BKN027 OVC032 04/04 A3008 RMK AO2 SLP194 T00440044 $=
202101211652 SPECI KPWT 211652Z AUTO 06004KT 8SM BKN027 OVC033 04/04 A3008 RMK AO2 $=
202101211556 METAR KPWT 211556Z AUTO 00000KT 3SM BR OVC039 04/04 A3008 RMK AO2 RAE06 SLP190 P0000 T00390039 $=
202101211456 METAR KPWT 211456Z AUTO 00000KT 6SM -RA BR FEW019 BKN045 04/04 A3008 RMK AO2 SLP194 P0000 60000 T00390039 56002 $=
202101211449 SPECI KPWT 211449Z AUTO 00000KT 5SM -RA BR FEW019 SCT027 BKN045 04/04 A3008 RMK AO2 P0000 $=
202101211410 SPECI KPWT 211410Z AUTO 00000KT 5SM -RA BR SCT014 BKN019 OVC027 04/04 A3008 RMK AO2 P0000 $=
202101211356 METAR KPWT 211356Z AUTO 00000KT 5SM -RA BR BKN014 OVC027 04/04 A3008 RMK AO2 RAB14 SLP194 P0000 T00390039 $=
202101211256 METAR KPWT 211256Z AUTO 00000KT 10SM BKN027 04/04 A3008 RMK AO2 RAE24 SLP192 P0000 T00390039 $=
202101211156 METAR KPWT 211156Z AUTO 06003KT 10SM -RA BKN029 04/04 A3009 RMK AO2 SLP195 P0001 60001 70001 T00440039 10044 20039 58007 $=
202101211056 METAR KPWT 211056Z AUTO 00000KT 8SM -RA OVC027 04/04 A3011 RMK AO2 SLP201 P0000 T00390039 $=
202101210956 METAR KPWT 210956Z AUTO 00000KT 10SM -RA OVC029 04/04 A3011 RMK AO2 RAB0858E23B53 SLP201 P0000 T00390039 $=
202101210856 METAR KPWT 210856Z AUTO 00000KT 10SM BKN031 04/03 A3011 RMK AO2 SLP202 T00390033 58003 $=
202101210833 SPECI KPWT 210833Z AUTO 00000KT 10SM BKN031 04/03 A3011 RMK AO2 $=
202101210756 METAR KPWT 210756Z AUTO 00000KT 10SM OVC029 04/04 A3011 RMK AO2 SLP204 T00440039 400781006 $=
202101210656 METAR KPWT 210656Z AUTO 00000KT 10SM OVC029 04/04 A3011 RMK AO2 SLP204 T00440039 $=
202101210624 SPECI KPWT 210624Z AUTO 00000KT 10SM BKN029 OVC035 04/03 A3011 RMK AO2 $=
202101210556 METAR KPWT 210556Z AUTO 00000KT 10SM OVC039 04/03 A3012 RMK AO2 SLP206 T00390033 10067 20039 58004 $=
202101210456 METAR KPWT 210456Z AUTO 00000KT 10SM OVC035 04/04 A3012 RMK AO2 SLP207 T00440039 $=
202101210356 METAR KPWT 210356Z AUTO 00000KT 10SM OVC037 04/03 A3013 RMK AO2 SLP211 T00390033 $=
202101210256 METAR KPWT 210256Z AUTO 00000KT 10SM OVC037 04/04 A3013 RMK AO2 SLP210 T00440039 58002 $=
202101210156 METAR KPWT 210156Z AUTO 00000KT 10SM OVC037 05/04 A3014 RMK AO2 SLP212 T00500039 $=
202101210056 METAR KPWT 210056Z AUTO 00000KT 10SM OVC037 06/04 A3014 RMK AO2 SLP214 T00610039 $=
202101202356 METAR KPWT 202356Z AUTO 07005KT 10SM SCT039 07/04 A3014 RMK AO2 SLP212 T00670039 10078 20028 57001 $=
202101202256 METAR KPWT 202256Z AUTO 06005KT 10SM CLR 07/03 A3014 RMK AO2 SLP212 T00720033 $=
202101202156 METAR KPWT 202156Z AUTO 06003KT 10SM CLR 07/03 A3014 RMK AO2 SLP213 T00670033 $=
202101202056 METAR KPWT 202056Z AUTO 04007KT 10SM CLR 07/03 A3014 RMK AO2 SLP212 T00720028 58020 $=
202101201956 METAR KPWT 201956Z AUTO 07005KT 10SM CLR 07/03 A3017 RMK AO2 SLP225 T00720028 $=
202101201856 METAR KPWT 201856Z AUTO 35003KT 10SM CLR 06/04 A3019 RMK AO2 SLP231 T00560039 $=
202101201756 METAR KPWT 201756Z AUTO 22003KT 9SM CLR 03/03 A3020 RMK AO2 SLP235 T00280028 10028 21006 56005 $=
202101201656 METAR KPWT 201656Z AUTO 00000KT 10SM BKN050 03/03 A3020 RMK AO2 SLP236 T00280028 $=
202101201556 METAR KPWT 201556Z AUTO 00000KT 9SM BKN048 01/01 A3020 RMK AO2 SLP234 T00060006 FZRANO $=
202101201456 METAR KPWT 201456Z AUTO 00000KT 5SM BR OVC050 01/01 A3022 RMK AO2 SLP241 T00060006 53001 FZRANO $=
202101201356 METAR KPWT 201356Z AUTO 00000KT 10SM CLR 00/M01 A3021 RMK AO2 SLP238 T00001006 FZRANO $=
202101201256 METAR KPWT 201256Z AUTO 00000KT 7SM OVC050 00/00 A3021 RMK AO2 SLP237 T00000000 FZRANO $=
202101201156 METAR KPWT 201156Z AUTO 00000KT 10SM SCT055 M01/M01 A3021 RMK AO2 SLP238 T10061006 10022 21006 58012 FZRANO $=
202101201056 METAR KPWT 201056Z AUTO 00000KT 10SM OVC055 M01/M01 A3023 RMK AO2 SLP244 T10061006 FZRANO $=
202101200956 METAR KPWT 200956Z AUTO 00000KT 6SM BR FEW070 M01/M01 A3024 RMK AO2 SLP246 T10061006 FZRANO $=
202101200933 SPECI KPWT 200933Z AUTO 00000KT 10SM FEW075 00/M01 A3024 RMK AO2 FZRANO $=
202101200926 SPECI KPWT 200926Z AUTO 00000KT 2 1/2SM BR CLR 00/M01 A3024 RMK AO2 VIS 3/4V5 FZRANO $=
202101200856 METAR KPWT 200856Z AUTO 00000KT 8SM CLR 01/00 A3025 RMK AO2 SLP251 T00060000 58009 FZRANO $=
202101200756 METAR KPWT 200756Z AUTO 00000KT 7SM FEW070 BKN120 02/01 A3027 RMK AO2 SLP258 T00170011 400891011 FZRANO $=
202101200656 METAR KPWT 200656Z AUTO 00000KT 10SM BKN100 02/02 A3028 RMK AO2 SLP260 T00220022 FZRANO $=
202101200556 METAR KPWT 200556Z AUTO 00000KT 9SM OVC100 02/01 A3028 RMK AO2 SLP261 T00170011 10072 20000 58006 FZRANO $=
202101200456 METAR KPWT 200456Z AUTO 00000KT 10SM BKN110 01/01 A3028 RMK AO2 SLP262 T00060006 FZRANO $=
202101200356 METAR KPWT 200356Z AUTO 00000KT 10SM CLR 02/01 A3030 RMK AO2 SLP268 T00170011 FZRANO $=
202101200256 METAR KPWT 200256Z AUTO 00000KT 9SM CLR 00/M01 A3030 RMK AO2 SLP267 T00001006 56018 FZRANO $=
202101200156 METAR KPWT 200156Z AUTO 00000KT 10SM CLR 02/01 A3031 RMK AO2 SLP272 T00170011 FZRANO $=
202101200056 METAR KPWT 200056Z AUTO 00000KT 10SM CLR 04/02 A3034 RMK AO2 SLP281 T00390022 $=
202101192356 METAR KPWT 192356Z AUTO 00000KT 10SM CLR 07/02 A3035 RMK AO2 SLP284 T00670022 10089 20028 56023 $=
202101192256 METAR KPWT 192256Z AUTO 16005KT 10SM CLR 08/03 A3037 RMK AO2 SLP293 T00830028 $=
202101192156 METAR KPWT 192156Z AUTO VRB03KT 10SM CLR 08/03 A3039 RMK AO2 SLP297 T00830033 $=
202101192056 METAR KPWT 192056Z AUTO 31004KT 10SM CLR 08/04 A3042 RMK AO2 SLP308 T00780044 58016 $=
202101191956 METAR KPWT 191956Z AUTO 00000KT 10SM SCT007 06/03 A3045 RMK AO2 SLP317 T00560033 $=
202101191936 SPECI KPWT 191936Z AUTO 25004KT 10SM SCT005 04/03 A3045 RMK AO2 $=
202101191929 SPECI KPWT 191929Z AUTO 24005KT 10SM BKN005 04/03 A3046 RMK AO2 $=
202101191856 METAR KPWT 191856Z AUTO 25003KT 9SM BKN003 04/04 A3047 RMK AO2 SLP326 T00390039 $=
202101191847 SPECI KPWT 191847Z AUTO 21003KT 8SM OVC003 04/03 A3047 RMK AO2 $=
202101191840 SPECI KPWT 191840Z AUTO 24004KT 2 1/2SM BR OVC003 03/03 A3047 RMK AO2 VIS 1V5 $=
202101191836 SPECI KPWT 191836Z AUTO 21003KT 3/4SM BR OVC003 03/03 A3047 RMK AO2 VIS 1/4V5 $=
202101191756 METAR KPWT 191756Z AUTO 20004KT 1/4SM FG OVC003 03/03 A3046 RMK AO2 SLP323 T00280028 10028 21011 56007 $=
202101191656 METAR KPWT 191656Z AUTO 25004KT 1/4SM FG OVC003 02/02 A3047 RMK AO2 SLP325 T00220022 FZRANO $=
202101191556 METAR KPWT 191556Z AUTO 24003KT 1/4SM FG OVC003 02/02 A3047 RMK AO2 SLP327 T00170017 FZRANO $=
202101191517 SPECI KPWT 191517Z AUTO 00000KT 1/2SM FG OVC003 02/02 A3049 RMK AO2 FZRANO $=
202101191456 METAR KPWT 191456Z AUTO 00000KT 1/4SM FG OVC003 02/02 A3048 RMK AO2 SLP330 T00170017 58014 FZRANO $=
202101191419 SPECI KPWT 191419Z AUTO 00000KT 1/4SM FG OVC003 01/01 A3050 RMK AO2 FZRANO $=
202101191411 SPECI KPWT 191411Z AUTO 00000KT 1/2SM FG OVC003 01/01 A3051 RMK AO2 FZRANO $=
202101191404 SPECI KPWT 191404Z AUTO 00000KT 3/4SM BR OVC003 01/01 A3051 RMK AO2 FZRANO $=
202101191356 METAR KPWT 191356Z AUTO 00000KT 1SM BR OVC003 01/01 A3051 RMK AO2 SLP340 T00060006 FZRANO $=
202101191342 SPECI KPWT 191342Z AUTO 00000KT 1 3/4SM BR OVC003 01/00 A3052 RMK AO2 FZRANO $=
202101191256 METAR KPWT 191256Z AUTO 00000KT 10SM OVC003 00/M01 A3052 RMK AO2 SLP344 T00001006 FZRANO $=
202101191244 SPECI KPWT 191244Z AUTO 00000KT 10SM OVC003 M01/M01 A3052 RMK AO2 FZRANO $=
202101191237 SPECI KPWT 191237Z AUTO 00000KT 2 1/2SM BR OVC003 M01/M01 A3053 RMK AO2 FZRANO $=
202101191232 SPECI KPWT 191232Z AUTO 00000KT 1SM BR BKN003 M01/M01 A3053 RMK AO2 FZRANO $=
202101191220 SPECI KPWT 191220Z AUTO 00000KT 1/2SM FZFG OVC003 M01/M01 A3052 RMK AO2 FZRANO $=
202101191204 SPECI KPWT 191204Z AUTO 23003KT 1/4SM FZFG BKN003 M01/M01 A3053 RMK AO2 CIG 001V004 FZRANO $=
202101191156 METAR KPWT 191156Z AUTO 00000KT 1/2SM FZFG VV002 M01/M01 A3053 RMK AO2 VIS 1/4V5 SLP345 T10111011 10044 21011 58002 FZRANO $=
202101191154 SPECI KPWT 191154Z AUTO 21003KT 1SM BR VV002 M01/M01 A3053 RMK AO2 VIS 1/4V5 FZRANO $=
202101191151 SPECI KPWT 191151Z AUTO 00000KT 5SM BR FEW004 M01/M01 A3053 RMK AO2 FZRANO $=
202101191144 SPECI KPWT 191144Z AUTO 21003KT 4SM BR CLR M01/M01 A3053 RMK AO2 FZRANO $=
202101191140 SPECI KPWT 191140Z AUTO 22003KT 1 1/4SM BR CLR M01/M01 A3053 RMK AO2 FZRANO $=
202101191134 SPECI KPWT 191134Z AUTO 21004KT 3/4SM BR CLR M01/M01 A3053 RMK AO2 FZRANO $=
202101191127 SPECI KPWT 191127Z AUTO 00000KT 1/2SM FZFG CLR M01/M01 A3053 RMK AO2 FZRANO $=
202101191111 SPECI KPWT 191111Z AUTO 00000KT 1/4SM FG CLR 00/M01 A3053 RMK AO2 FZRANO $=
202101191056 METAR KPWT 191056Z AUTO 00000KT 1/4SM FG VV001 00/00 A3053 RMK AO2 SLP348 T00000000 FZRANO $=
202101191031 SPECI KPWT 191031Z AUTO 00000KT 1/4SM FG BKN001 01/00 A3054 RMK AO2 FZRANO $=
202101191022 SPECI KPWT 191022Z AUTO 00000KT 1/2SM FG VV001 01/00 A3053 RMK AO2 VIS 1/4V2 1/2 FZRANO $=
202101191020 SPECI KPWT 191020Z AUTO 00000KT 1SM BR VV001 01/00 A3053 RMK AO2 VIS 1/2V5 FZRANO $=
202101191016 SPECI KPWT 191016Z AUTO 00000KT 2 1/2SM BR FEW001 01/00 A3053 RMK AO2 VIS 3/4V5 FZRANO $=
202101190956 METAR KPWT 190956Z AUTO 23003KT 10SM CLR 01/01 A3053 RMK AO2 SLP348 T00110006 FZRANO $=
202101190856 METAR KPWT 190856Z AUTO 04005KT 10SM CLR 03/02 A3052 RMK AO2 SLP343 T00280022 58010 $=
202101190819 SPECI KPWT 190819Z AUTO 04005KT 10SM SCT007 03/03 A3053 RMK AO2 $=
202101190756 METAR KPWT 190756Z AUTO 05008KT 10SM OVC007 04/03 A3054 RMK AO2 SLP349 T00440033 400830028 $=
202101190656 METAR KPWT 190656Z AUTO 04006KT 10SM OVC007 04/04 A3056 RMK AO2 SLP356 T00440039 $=
202101190556 METAR KPWT 190556Z AUTO 07005KT 10SM OVC007 04/03 A3055 RMK AO2 SLP353 T00440033 10072 20039 53002 $=
202101190547 SPECI KPWT 190547Z AUTO 06004KT 10SM BKN007 04/03 A3055 RMK AO2 $=
202101190538 SPECI KPWT 190538Z AUTO 05005KT 10SM SCT009 04/03 A3055 RMK AO2 $=
202101190456 METAR KPWT 190456Z AUTO 06007KT 10SM CLR 04/03 A3055 RMK AO2 SLP354 T00440033 $=
202101190356 METAR KPWT 190356Z AUTO 03015G18KT 10SM CLR 05/03 A3054 RMK AO2 SLP349 T00500033 $=
202101190256 METAR KPWT 190256Z AUTO 03013KT 10SM CLR 05/03 A3055 RMK AO2 SLP353 T00500028 53001 $=
202101190156 METAR KPWT 190156Z AUTO 03012KT 10SM CLR 05/03 A3055 RMK AO2 SLP352 T00500028 $=
202101190056 METAR KPWT 190056Z AUTO 03006KT 10SM CLR 06/03 A3054 RMK AO2 SLP350 T00560028 $=
202101182356 METAR KPWT 182356Z AUTO 04004KT 10SM CLR 07/03 A3055 RMK AO2 SLP351 T00720033 10083 20067 55001 $=
202101182322 SPECI KPWT 182322Z AUTO 01004KT 10SM SCT021 08/03 A3055 RMK AO2 $=
202101182256 METAR KPWT 182256Z AUTO 04009KT 10SM BKN021 08/03 A3054 RMK AO2 SLP348 T00830033 $=
202101182218 SPECI KPWT 182218Z AUTO 01008KT 10SM SCT021 08/03 A3055 RMK AO2 $=
202101182156 METAR KPWT 182156Z AUTO 02008KT 10SM BKN021 08/03 A3055 RMK AO2 SLP352 T00780033 $=
202101182129 SPECI KPWT 182129Z AUTO 04007KT 10SM BKN019 08/04 A3056 RMK AO2 $=
202101182056 METAR KPWT 182056Z AUTO 04014KT 10SM CLR 08/03 A3055 RMK AO2 SLP352 T00780033 58009 $=
202101182016 SPECI KPWT 182016Z AUTO 02012G21KT 10SM SCT019 07/03 A3058 RMK AO2 $=
202101181956 METAR KPWT 181956Z AUTO 03010KT 10SM BKN019 08/04 A3058 RMK AO2 SLP361 T00780044 $=
202101181856 METAR KPWT 181856Z AUTO 03012G19KT 10SM FEW020 08/04 A3057 RMK AO2 SLP360 T00780039 $=
202101181756 METAR KPWT 181756Z AUTO 04009KT 10SM CLR 07/04 A3058 RMK AO2 SLP363 T00670039 10067 20028 53010 $=
202101181656 METAR KPWT 181656Z AUTO 03007KT 10SM FEW026 06/04 A3055 RMK AO2 SLP354 T00560039 $=
202101181648 SPECI KPWT 181648Z AUTO 03007KT 10SM SCT026 06/04 A3055 RMK AO2 $=
202101181556 METAR KPWT 181556Z AUTO 04006KT 10SM BKN026 04/03 A3055 RMK AO2 SLP352 T00440033 $=
202101181552 SPECI KPWT 181552Z AUTO 05005KT 10SM BKN028 04/03 A3055 RMK AO2 $=
202101181456 METAR KPWT 181456Z AUTO 03003KT 10SM CLR 04/03 A3053 RMK AO2 SLP347 T00390028 55008 $=
202101181356 METAR KPWT 181356Z AUTO 05006KT 10SM BKN031 06/04 A3053 RMK AO2 SLP346 T00560039 $=
202101181256 METAR KPWT 181256Z AUTO 00000KT 10SM OVC035 05/04 A3055 RMK AO2 SLP353 T00500044 $=
202101181156 METAR KPWT 181156Z AUTO 03005KT 10SM FEW039 04/03 A3056 RMK AO2 SLP356 7//// T00390033 10061 20028 50003 $=
202101181056 METAR KPWT 181056Z AUTO 05008KT 10SM BKN043 06/04 A3056 RMK AO2 SLP356 T00610039 $=
202101180956 METAR KPWT 180956Z AUTO 05007KT 10SM SCT047 06/04 A3055 RMK AO2 SLP352 T00610044 $=
202101180922 SPECI KPWT 180922Z AUTO 05008KT 10SM SCT030 OVC046 06/05 A3055 RMK AO2 $=
202101180856 METAR KPWT 180856Z AUTO 05006KT 10SM BKN026 OVC042 06/05 A3055 RMK AO2 SLP352 T00610050 58003 $=
202101180832 SPECI KPWT 180832Z AUTO 05007KT 10SM BKN024 OVC040 06/05 A3055 RMK AO2 $=
202101180756 METAR KPWT 180756Z AUTO 05004KT 10SM FEW025 OVC038 05/04 A3056 RMK AO2 SLP354 T00500044 400890017 $=
202101180742 SPECI KPWT 180742Z AUTO 00000KT 10SM SCT023 BKN028 OVC036 06/05 A3056 RMK AO2 $=
202101180728 SPECI KPWT 180728Z AUTO 06003KT 10SM SCT022 BKN030 OVC036 06/05 A3055 RMK AO2 $=
202101180656 METAR KPWT 180656Z AUTO 00000KT 10SM BKN022 BKN028 03/03 A3056 RMK AO2 SLP356 T00280028 $=
202101180646 SPECI KPWT 180646Z AUTO 00000KT 6SM BR BKN024 03/02 A3056 RMK AO2 $=
202101180556 METAR KPWT 180556Z AUTO 00000KT 9SM CLR 02/02 A3056 RMK AO2 SLP356 T00220022 10083 20022 51013 FZRANO $=
202101180509 SPECI KPWT 180509Z AUTO 00000KT 4SM BR CLR 04/04 A3055 RMK AO2 $=
202101180504 SPECI KPWT 180504Z AUTO 00000KT 1 3/4SM BR CLR 03/03 A3055 RMK AO2 VIS 1V5 $=
202101180456 METAR KPWT 180456Z AUTO 00000KT 2SM BR CLR 03/03 A3055 RMK AO2 VIS 1 1/4V4 SLP353 T00330033 $=
202101180451 SPECI KPWT 180451Z AUTO 00000KT 2 1/2SM BR CLR 03/03 A3055 RMK AO2 $=
202101180449 SPECI KPWT 180449Z AUTO 00000KT 1SM BR CLR 04/04 A3055 RMK AO2 $=
202101180440 SPECI KPWT 180440Z AUTO 00000KT 1/2SM FG CLR 03/03 RMK AO2 VIS 1/4V5 $=
202101180437 SPECI KPWT 180437Z AUTO 00000KT 1 3/4SM BR FEW047 03/03 A3055 RMK AO2 VIS 1/2V5 $=
202101180356 METAR KPWT 180356Z AUTO 00000KT 10SM BKN047 06/05 A3055 RMK AO2 SLP351 T00560050 $=
202101180256 METAR KPWT 180256Z AUTO 00000KT 10SM OVC047 07/06 A3052 RMK AO2 SLP341 T00670061 53006 $=
202101180156 METAR KPWT 180156Z AUTO 00000KT 10SM OVC047 07/06 A3051 RMK AO2 SLP338 T00670061 $=
202101180056 METAR KPWT 180056Z AUTO 00000KT 10SM OVC039 08/07 A3050 RMK AO2 SLP336 T00780067 $=
202101180012 SPECI KPWT 180012Z AUTO 30004KT 10SM SCT018 OVC037 08/07 A3050 RMK AO2 $=
202101172356 METAR KPWT 172356Z AUTO 29003KT 10SM FEW012 BKN018 OVC035 08/07 A3050 RMK AO2 SLP335 6//// T00830072 10089 20072 50006 $=
202101172354 SPECI KPWT 172354Z AUTO 29003KT 10SM SCT012 BKN018 OVC035 08/07 A3050 RMK AO2 $=
202101172316 SPECI KPWT 172316Z AUTO 25003KT 10SM FEW007 BKN010 OVC033 08/07 A3049 RMK AO2 $=
202101172256 METAR KPWT 172256Z AUTO 00000KT 10SM FEW008 BKN030 OVC036 09/07 A3049 RMK AO2 SLP331 T00890072 $=
202101172241 SPECI KPWT 172241Z AUTO 00000KT 10SM BKN030 OVC036 09/07 A3049 RMK AO2 $=
202101172156 METAR KPWT 172156Z AUTO 00000KT 10SM FEW007 OVC026 08/07 A3048 RMK AO2 SLP329 T00830072 $=
202101172149 SPECI KPWT 172149Z AUTO 00000KT 10SM FEW007 SCT014 OVC026 08/07 A3049 RMK AO2 $=
202101172140 SPECI KPWT 172140Z AUTO 00000KT 10SM FEW007 BKN014 OVC028 08/07 A3049 RMK AO2 $=
202101172120 SPECI KPWT 172120Z AUTO 00000KT 10SM FEW007 OVC028 08/07 A3048 RMK AO2 $=
202101172056 METAR KPWT 172056Z AUTO 33003KT 10SM FEW010 SCT013 OVC028 09/07 A3048 RMK AO2 SLP329 T00890072 50003 $=
202101172052 SPECI KPWT 172052Z AUTO 00000KT 10SM FEW010 OVC028 09/07 A3049 RMK AO2 $=
202101172039 SPECI KPWT 172039Z AUTO 00000KT 10SM BKN010 OVC026 09/07 A3049 RMK AO2 $=
202101171956 METAR KPWT 171956Z AUTO 21003KT 10SM BKN008 OVC024 08/07 A3048 RMK AO2 SLP327 T00830067 $=
202101171856 METAR KPWT 171856Z AUTO 15004KT 10SM OVC008 08/07 A3047 RMK AO2 CIG 005V011 SLP326 T00780067 $=
202101171807 SPECI KPWT 171807Z AUTO 00000KT 10SM SCT005 OVC010 07/07 A3046 RMK AO2 $=
202101171756 METAR KPWT 171756Z AUTO 00000KT 10SM BKN005 OVC010 07/07 A3045 RMK AO2 CIG 003V007 SLP316 T00720072 10072 20061 53020 $=
202101171749 SPECI KPWT 171749Z AUTO 00000KT 10SM OVC007 07/07 A3044 RMK AO2 CIG 003V009 $=
202101171729 SPECI KPWT 171729Z AUTO 00000KT 8SM OVC005 07/07 A3043 RMK AO2 CIG 001V009 $=
202101171719 SPECI KPWT 171719Z AUTO 00000KT 4SM BR BKN002 OVC007 07/07 A3043 RMK AO2 $=
202101171656 METAR KPWT 171656Z AUTO 00000KT 2SM BR OVC002 07/07 A3042 RMK AO2 SLP307 T00670067 $=
202101171610 SPECI KPWT 171610Z AUTO 00000KT 2SM BR OVC002 07/06 A3040 RMK AO2 $=
202101171556 METAR KPWT 171556Z AUTO 00000KT 5SM BR OVC002 07/06 A3040 RMK AO2 SLP301 T00670061 $=
202101171456 METAR KPWT 171456Z AUTO 00000KT 10SM OVC002 06/06 A3039 RMK AO2 SLP297 T00610061 53010 $=
202101171356 METAR KPWT 171356Z AUTO 20006KT 10SM OVC002 06/06 A3036 RMK AO2 SLP288 T00610061 $=
202101171256 METAR KPWT 171256Z AUTO 20009KT 10SM OVC002 06/06 A3036 RMK AO2 SLP285 T00610061 $=
202101171208 SPECI KPWT 171208Z AUTO 21008KT 10SM BKN004 OVC010 06/06 A3036 RMK AO2 CIG 003V008 $=
202101171156 METAR KPWT 171156Z AUTO 21008KT 10SM BKN006 OVC011 06/06 A3035 RMK AO2 CIG 004V007 SLP283 60001 7//// T00610056 10061 20050 51008 $=
202101171139 SPECI KPWT 171139Z AUTO 21008KT 10SM OVC006 06/06 A3036 RMK AO2 CIG 003V008 $=
202101171126 SPECI KPWT 171126Z AUTO 20008KT 10SM BKN004 BKN012 OVC026 06/06 A3036 RMK AO2 CIG 003V008 $=
202101171118 SPECI KPWT 171118Z AUTO 20006KT 10SM SCT004 BKN022 OVC026 06/06 A3035 RMK AO2 $=
202101171056 METAR KPWT 171056Z AUTO 20010KT 10SM BKN028 06/06 A3034 RMK AO2 RAE30 SLP281 P0001 T00610056 $=
202101170956 METAR KPWT 170956Z AUTO 19009KT 10SM -RA SCT033 SCT042 06/06 A3033 RMK AO2 RAB35 SLP276 P0000 T00560056 $=
202101170856 METAR KPWT 170856Z AUTO 20009KT 10SM BKN080 06/05 A3032 RMK AO2 RAE51 SLP275 P0000 60000 T00560050 50000 $=
202101170756 METAR KPWT 170756Z AUTO 20007KT 10SM -RA BKN060 06/05 A3034 RMK AO2 RAB56 SLP280 P0000 T00560050 400720006 $=
202101170656 METAR KPWT 170656Z AUTO 23003KT 10SM SCT060 BKN110 06/05 A3032 RMK AO2 RAE05 SLP276 P0000 T00560050 $=
202101170556 METAR KPWT 170556Z AUTO 22003KT 10SM -RA FEW070 BKN100 06/05 A3032 RMK AO2 RAB56 SLP275 P0000 60000 T00560050 10067 20050 57006 $=
202101170515 SPECI KPWT 170515Z AUTO 00000KT 3SM BR SCT001 BKN100 06/05 A3032 RMK AO2 $=
202101170509 SPECI KPWT 170509Z AUTO 20003KT 2SM BR BKN001 06/05 A3032 RMK AO2 $=
202101170504 SPECI KPWT 170504Z AUTO 21003KT 1SM BR OVC001 06/06 A3033 RMK AO2 $=
202101170456 METAR KPWT 170456Z AUTO 20003KT 1 1/4SM BR OVC001 06/06 A3033 RMK AO2 RAB21E39 SLP277 P0000 T00560056 $=
202101170443 SPECI KPWT 170443Z AUTO 23004KT 2SM BR OVC001 06/06 A3034 RMK AO2 RAB21E39 P0000 $=
202101170439 SPECI KPWT 170439Z AUTO 24004KT 1SM BR OVC001 06/06 A3034 RMK AO2 RAB21E39 P0000 $=
202101170435 SPECI KPWT 170435Z AUTO 24004KT 1/2SM -RA FG OVC001 06/06 A3034 RMK AO2 RAB21 P0000 $=
202101170356 METAR KPWT 170356Z AUTO 24003KT 1/4SM FG OVC001 06/06 A3033 RMK AO2 SLP279 T00560056 $=
202101170256 METAR KPWT 170256Z AUTO 25003KT 1/4SM FG BKN001 05/05 A3034 RMK AO2 SLP282 T00500050 58016 $=
202101170239 SPECI KPWT 170239Z AUTO 00000KT 1/4SM FG FEW003 05/04 A3034 RMK AO2 VIS M1/4V3 $=
202101170236 SPECI KPWT 170236Z AUTO 00000KT 3/4SM BR FEW120 05/04 A3034 RMK AO2 VIS 1/4V3 $=
202101170234 SPECI KPWT 170234Z AUTO 21003KT 1 1/2SM BR SCT120 05/04 A3034 RMK AO2 VIS 1/2V4 $=
202101170156 METAR KPWT 170156Z AUTO 00000KT 7SM OVC110 06/06 A3036 RMK AO2 SLP286 T00560056 $=
202101170125 SPECI KPWT 170125Z AUTO 00000KT 8SM SCT007 OVC120 06/06 A3036 RMK AO2 $=
202101170056 METAR KPWT 170056Z AUTO 00000KT 9SM OVC007 07/06 A3037 RMK AO2 SLP293 T00670056 $=
202101170032 SPECI KPWT 170032Z AUTO 00000KT 10SM OVC007 07/06 A3039 RMK AO2 CIG 005V009 $=
202101162356 METAR KPWT 162356Z AUTO 00000KT 10SM OVC005 07/06 A3039 RMK AO2 SLP297 6//// T00670061 10072 20044 55001 $=
202101162335 SPECI KPWT 162335Z AUTO 00000KT 10SM OVC005 07/06 A3038 RMK AO2 CIG 003V006 $=
202101162256 METAR KPWT 162256Z AUTO 07004KT 7SM OVC003 07/06 A3038 RMK AO2 SLP296 T00670061 $=
202101162156 METAR KPWT 162156Z AUTO 00000KT 10SM OVC003 07/06 A3037 RMK AO2 SLP291 T00670061 $=
202101162105 SPECI KPWT 162105Z AUTO 00000KT 10SM BKN003 06/06 A3039 RMK AO2 $=
202101162056 METAR KPWT 162056Z AUTO 00000KT 10SM OVC001 06/06 A3039 RMK AO2 CIG 002V005 SLP298 6//// T00610061 55001 $=
202101162028 SPECI KPWT 162028Z AUTO 00000KT 9SM OVC001 06/06 A3038 RMK AO2 $=
202101161956 METAR KPWT 161956Z AUTO 22003KT 2 1/2SM BR OVC001 06/06 A3038 RMK AO2 SLP296 T00560056 $=
202101161947 SPECI KPWT 161947Z AUTO 26003KT 3SM BR OVC001 06/06 A3038 RMK AO2 $=
202101161936 SPECI KPWT 161936Z AUTO 00000KT 1 3/4SM BR OVC001 06/06 A3038 RMK AO2 $=
202101161909 SPECI KPWT 161909Z AUTO 00000KT 3SM BR OVC001 05/05 A3039 RMK AO2 $=
202101161856 METAR KPWT 161856Z AUTO 00000KT 1 1/4SM BR OVC001 05/05 A3039 RMK AO2 VIS 3/4V2 1/2 SLP298 T00500050 $=
202101161837 SPECI KPWT 161837Z AUTO 00000KT 3/4SM BR OVC001 05/05 A3039 RMK AO2 $=
202101161827 SPECI KPWT 161827Z AUTO 00000KT 1 3/4SM BR OVC001 04/04 A3039 RMK AO2 VIS 3/4V5 $=
202101161820 SPECI KPWT 161820Z AUTO 12003KT 1SM BR OVC001 05/05 A3039 RMK AO2 $=
202101161756 METAR KPWT 161756Z AUTO 00000KT 3/4SM BR OVC001 04/04 A3039 RMK AO2 SLP299 60000 T00440044 10056 20028 56001 $=
202101161656 METAR KPWT 161656Z AUTO 00000KT 1/4SM FG OVC001 04/04 A3040 RMK AO2 RAB11E20 SLP300 P0000 T00390039 $=
202101161556 METAR KPWT 161556Z AUTO 00000KT 1/4SM FG OVC001 03/03 A3038 RMK AO2 SLP295 T00280028 $=
202101161456 METAR KPWT 161456Z AUTO 00000KT 1/4SM FG OVC001 04/04 A3040 RMK AO2 SLP300 T00390039 58014 $=
202101161356 METAR KPWT 161356Z AUTO 00000KT 1/4SM FG OVC001 04/04 A3042 RMK AO2 SLP308 T00440044 $=
202101161256 METAR KPWT 161256Z AUTO 00000KT 1/4SM FG OVC001 05/05 A3042 RMK AO2 SLP307 T00500050 $=
202101161156 METAR KPWT 161156Z AUTO 00000KT 1/4SM FG OVC001 04/04 A3044 RMK AO2 SLP312 70001 T00390039 10056 20006 58006 $=
202101161056 METAR KPWT 161056Z AUTO 00000KT 1/4SM FG BKN001 OVC017 04/04 A3045 RMK AO2 SLP317 T00440044 $=
202101161054 SPECI KPWT 161054Z AUTO 00000KT 1/4SM FG BKN001 OVC017 04/04 A3045 RMK AO2 $=
202101161042 SPECI KPWT 161042Z AUTO 00000KT 1/2SM FG FEW001 BKN017 05/04 A3045 RMK AO2 $=
202101161031 SPECI KPWT 161031Z AUTO 07003KT 1SM BR FEW001 BKN019 06/06 A3045 RMK AO2 $=
202101161025 SPECI KPWT 161025Z AUTO 08003KT 1 3/4SM BR FEW001 SCT019 06/06 A3044 RMK AO2 $=
202101160956 METAR KPWT 160956Z AUTO 06005KT 10SM SCT025 06/06 A3044 RMK AO2 SLP314 T00560056 $=
202101160905 SPECI KPWT 160905Z AUTO 00000KT 10SM BKN025 01/01 A3045 RMK AO2 FZRANO $=
202101160901 SPECI KPWT 160901Z AUTO 00000KT 2SM BR SCT025 01/01 A3045 RMK AO2 VIS 1/2V5 FZRANO $=
202101160859 SPECI KPWT 160859Z AUTO 00000KT 1SM BR SCT023 01/01 A3045 RMK AO2 VIS 1/2V5 FZRANO $=
202101160856 METAR KPWT 160856Z AUTO 00000KT 1/2SM FG FEW023 01/01 A3045 RMK AO2 VIS 1/4V5 SLP320 T00060006 50003 FZRANO $=
202101160838 SPECI KPWT 160838Z AUTO 00000KT 1/2SM FG FEW023 02/01 A3045 RMK AO2 FZRANO $=
202101160834 SPECI KPWT 160834Z AUTO 00000KT 1SM BR FEW023 01/01 A3046 RMK AO2 FZRANO $=
202101160830 SPECI KPWT 160830Z AUTO 11003KT 2 1/2SM BR FEW023 01/01 A3046 RMK AO2 VIS 3/4V5 FZRANO $=
202101160824 SPECI KPWT 160824Z AUTO 00000KT 1SM BR FEW023 01/01 A3046 RMK AO2 VIS 1/2V1 3/4 FZRANO $=
202101160812 SPECI KPWT 160812Z AUTO 00000KT 1/2SM FG CLR 01/01 A3046 RMK AO2 FZRANO $=
202101160805 SPECI KPWT 160805Z AUTO 00000KT 3/4SM BR VV015 01/01 A3046 RMK AO2 FZRANO $=
202101160802 SPECI KPWT 160802Z AUTO 00000KT 1 1/2SM BR FEW015 01/01 A3046 RMK AO2 FZRANO $=
202101160756 METAR KPWT 160756Z AUTO 00000KT 7SM FEW015 01/01 A3046 RMK AO2 SLP321 T00110011 401110011 FZRANO $=
202101160753 SPECI KPWT 160753Z AUTO 00000KT 2 1/2SM BR FEW015 01/01 A3046 RMK AO2 401110011 FZRANO $=
202101160750 SPECI KPWT 160750Z AUTO 00000KT 1SM BR VV015 01/01 A3046 RMK AO2 401110011 FZRANO $=
202101160747 SPECI KPWT 160747Z AUTO 00000KT 1/2SM FG VV015 02/02 A3046 RMK AO2 FZRANO $=
202101160740 SPECI KPWT 160740Z AUTO 00000KT 1/2SM FG CLR 02/02 A3046 RMK AO2 FZRANO $=
202101160726 SPECI KPWT 160726Z AUTO 00000KT 1/4SM FG CLR 02/01 A3046 RMK AO2 FZRANO $=
202101160717 SPECI KPWT 160717Z AUTO 00000KT 1/2SM FG CLR 02/02 A3046 RMK AO2 FZRANO $=
202101160715 SPECI KPWT 160715Z AUTO 00000KT 1SM BR CLR 02/01 A3046 RMK AO2 VIS 1/4V4 FZRANO $=
202101160712 SPECI KPWT 160712Z AUTO 00000KT 2 1/2SM BR CLR 01/01 A3046 RMK AO2 VIS 3/4V5 FZRANO $=
202101160709 SPECI KPWT 160709Z AUTO 00000KT 1SM BR CLR 01/01 A3046 RMK AO2 VIS 1/2V5 FZRANO $=
202101160656 METAR KPWT 160656Z AUTO 00000KT 1/2SM FG CLR 02/02 A3046 RMK AO2 SLP322 T00220022 FZRANO $=
202101160556 METAR KPWT 160556Z AUTO 00000KT 1/4SM FG CLR 02/02 A3044 RMK AO2 SLP317 T00170017 10100 20017 58001 FZRANO $=
202101160540 SPECI KPWT 160540Z AUTO 00000KT 1/4SM FG CLR 02/02 A3044 RMK AO2 FZRANO $=
202101160535 SPECI KPWT 160535Z AUTO 00000KT 3/4SM BR CLR 02/02 A3044 RMK AO2 VIS 1/4V5 FZRANO $=
202101160533 SPECI KPWT 160533Z AUTO 00000KT 1 1/4SM BR CLR 02/02 A3044 RMK AO2 VIS 1/2V5 FZRANO $=
202101160523 SPECI KPWT 160523Z AUTO 00000KT 3/4SM BR CLR 02/02 A3044 RMK AO2 FZRANO $=
202101160520 SPECI KPWT 160520Z AUTO 00000KT 1 1/2SM BR CLR 02/02 A3044 RMK AO2 FZRANO $=
202101160508 SPECI KPWT 160508Z AUTO 00000KT 5SM BR CLR 02/02 A3045 RMK AO2 FZRANO $=
202101160501 SPECI KPWT 160501Z AUTO 00000KT 2 1/2SM BR CLR 03/03 A3044 RMK AO2 $=
202101160456 METAR KPWT 160456Z AUTO 00000KT 1SM BR CLR 03/03 A3045 RMK AO2 VIS 1/2V5 SLP317 T00280028 $=
202101160415 SPECI KPWT 160415Z AUTO 00000KT 1/4SM FG CLR 03/03 A3045 RMK AO2 $=
202101160407 SPECI KPWT 160407Z AUTO 00000KT 3/4SM BR CLR 04/04 A3045 RMK AO2 $=
202101160356 METAR KPWT 160356Z AUTO 00000KT 1/4SM FG CLR 04/04 A3045 RMK AO2 SLP319 T00440044 $=
202101160352 SPECI KPWT 160352Z AUTO 00000KT 1/4SM FG CLR 04/04 A3045 RMK AO2 $=
202101160347 SPECI KPWT 160347Z AUTO 00000KT 3/4SM BR FEW055 05/04 A3045 RMK AO2 VIS 1/4V5 $=
202101160340 SPECI KPWT 160340Z AUTO 00000KT 1 3/4SM BR FEW055 04/04 A3045 RMK AO2 $=
202101160326 SPECI KPWT 160326Z AUTO 00000KT 3SM BR FEW049 07/06 A3045 RMK AO2 $=
202101160317 SPECI KPWT 160317Z AUTO 00000KT 1 3/4SM BR BKN049 06/06 A3045 RMK AO2 $=
202101160256 METAR KPWT 160256Z AUTO 00000KT 10SM FEW022 OVC049 07/07 A3045 RMK AO2 SLP316 T00720067 53004 $=
202101160156 METAR KPWT 160156Z AUTO 00000KT 10SM OVC049 07/07 A3044 RMK AO2 SLP315 T00720067 $=
202101160056 METAR KPWT 160056Z AUTO 09003KT 10SM BKN040 OVC047 09/07 A3042 RMK AO2 SLP308 T00890072 $=
202101152356 METAR KPWT 152356Z AUTO 19003KT 10SM OVC036 10/08 A3043 RMK AO2 SLP311 T01000078 10111 20089 53014 $=
202101152316 SPECI KPWT 152316Z AUTO 00000KT 10SM OVC030 10/08 A3042 RMK AO2 $=
202101152256 METAR KPWT 152256Z AUTO 00000KT 10SM BKN028 10/08 A3041 RMK AO2 SLP302 T01000078 $=
202101152215 SPECI KPWT 152215Z AUTO 12003KT 10SM FEW015 BKN028 11/08 A3040 RMK AO2 $=
202101152205 SPECI KPWT 152205Z AUTO 13004KT 10SM FEW015 SCT022 BKN030 11/08 A3040 RMK AO2 $=
202101152156 METAR KPWT 152156Z AUTO 14004KT 10SM SCT014 BKN021 11/08 A3039 RMK AO2 SLP297 T01110078 $=
202101152151 SPECI KPWT 152151Z AUTO VRB04KT 10SM BKN014 BKN021 11/08 A3039 RMK AO2 $=
202101152139 SPECI KPWT 152139Z AUTO 00000KT 10SM SCT014 OVC020 11/08 A3039 RMK AO2 $=
202101152056 METAR KPWT 152056Z AUTO 00000KT 10SM BKN012 OVC020 11/08 A3038 RMK AO2 SLP293 T01060083 56012 $=
202101152029 SPECI KPWT 152029Z AUTO 00000KT 10SM SCT006 BKN014 10/08 A3039 RMK AO2 $=
202101151956 METAR KPWT 151956Z AUTO 24005KT 10SM OVC006 09/08 A3039 RMK AO2 CIG 005V010 SLP297 T00940083 $=
202101151856 METAR KPWT 151856Z AUTO 25004KT 10SM BKN008 BKN031 10/09 A3042 RMK AO2 CIG 005V009 SLP305 T01000089 $=
202101151825 SPECI KPWT 151825Z AUTO 27003KT 10SM BKN006 BKN029 09/08 A3043 RMK AO2 CIG 004V009 $=
202101151756 METAR KPWT 151756Z AUTO 24003KT 10SM FEW002 OVC027 09/08 A3042 RMK AO2 SLP307 60001 T00890083 10089 20078 51006 $=
202101151656 METAR KPWT 151656Z AUTO 00000KT 10SM OVC025 08/08 A3041 RMK AO2 SLP302 T00780078 $=
202101151556 METAR KPWT 151556Z AUTO 00000KT 10SM OVC023 08/08 A3040 RMK AO2 SLP300 T00780078 $=
202101151456 METAR KPWT 151456Z AUTO 08004KT 10SM FEW014 OVC023 08/08 A3038 RMK AO2 RAE46 SLP295 P0001 60001 T00830078 53024 $=
202101151426 SPECI KPWT 151426Z AUTO 10006KT 7SM -RA FEW006 SCT009 OVC021 08/08 A3038 RMK AO2 P0000 $=
202101151416 SPECI KPWT 151416Z AUTO 06007KT 7SM -RA FEW004 BKN010 OVC019 08/08 A3037 RMK AO2 CIG 008V012 P0000 $=
202101151401 SPECI KPWT 151401Z AUTO 07003KT 5SM BR SCT004 BKN008 OVC013 08/08 A3037 RMK AO2 RAE01 CIG 004V009 P0000 $=
202101151356 METAR KPWT 151356Z AUTO 00000KT 5SM -RA BR BKN002 BKN008 OVC013 08/08 A3036 RMK AO2 RAB43 SLP288 P0000 T00830078 $=
202101151329 SPECI KPWT 151329Z AUTO 04005KT 5SM BR OVC002 08/08 A3035 RMK AO2 $=
202101151320 SPECI KPWT 151320Z AUTO 05004KT 2 1/2SM BR OVC002 08/08 A3035 RMK AO2 $=
202101151308 SPECI KPWT 151308Z AUTO 06004KT 1 3/4SM BR OVC002 08/08 A3034 RMK AO2 $=
202101151256 METAR KPWT 151256Z AUTO 04004KT 1SM BR OVC002 08/08 A3033 RMK AO2 SLP278 T00780078 $=
202101151250 SPECI KPWT 151250Z AUTO 03005KT 1 3/4SM BR OVC002 08/08 A3033 RMK AO2 $=
202101151156 METAR KPWT 151156Z AUTO 18006KT 8SM OVC002 08/08 A3031 RMK AO2 SLP269 60006 70006 T00830078 10083 20061 53003 $=
202101151056 METAR KPWT 151056Z AUTO 20007KT 6SM BR OVC002 08/08 A3031 RMK AO2 RAE08 SLP268 P0000 T00780078 $=
202101151037 SPECI KPWT 151037Z AUTO 19008KT 10SM OVC002 08/07 A3030 RMK AO2 RAE08 P0000 $=
202101151008 SPECI KPWT 151008Z AUTO 20008KT 10SM BKN004 OVC008 07/07 A3031 RMK AO2 RAE08 CIG 003V007 P0000 $=
202101150956 METAR KPWT 150956Z AUTO 19006KT 10SM -RA BKN006 OVC011 07/07 A3030 RMK AO2 RAB10 CIG 004V008 SLP266 P0002 T00720067 $=
202101150952 SPECI KPWT 150952Z AUTO 19005KT 7SM -RA BKN008 OVC012 07/07 A3030 RMK AO2 RAB10 CIG 005V010 P0002 $=
202101150936 SPECI KPWT 150936Z AUTO 20004KT 4SM -RA BR OVC013 07/07 A3031 RMK AO2 RAB10 P0001 $=
202101150856 METAR KPWT 150856Z AUTO 00000KT 10SM OVC017 07/07 A3031 RMK AO2 RAE23 SLP270 P0001 60004 T00720067 50007 $=
202101150756 METAR KPWT 150756Z AUTO 19007KT 10SM -RA FEW004 OVC021 07/07 A3032 RMK AO2 RAE21B49 SLP272 P0000 T00720067 401171006 $=
202101150715 SPECI KPWT 150715Z AUTO 21008KT 10SM -RA FEW005 OVC021 07/07 A3031 RMK AO2 P0000 $=
202101150656 METAR KPWT 150656Z AUTO 21009KT 10SM -RA OVC021 07/07 A3030 RMK AO2 RAB03 SLP267 P0003 T00720067 $=
202101150610 SPECI KPWT 150610Z AUTO 23006KT 5SM -RA BR BKN022 OVC030 07/05 A3030 RMK AO2 RAB03 P0000 $=
202101150556 METAR KPWT 150556Z AUTO 23006KT 10SM SCT024 OVC030 07/06 A3029 RMK AO2 RAE36 SLP265 P0000 60000 T00670056 10089 20033 52000 $=
202101150542 SPECI KPWT 150542Z AUTO 23006KT 10SM OVC030 07/05 A3029 RMK AO2 RAE36 P0000 $=
202101150535 SPECI KPWT 150535Z AUTO 22005KT 10SM -RA BKN029 OVC036 07/05 A3029 RMK AO2 P0000 $=
202101150456 METAR KPWT 150456Z AUTO 24004KT 10SM -RA OVC041 08/04 A3029 RMK AO2 RAB53 SLP266 P0000 T00780039 $=
202101150356 METAR KPWT 150356Z AUTO 18003KT 10SM OVC047 07/04 A3029 RMK AO2 SLP266 T00670039 $=
202101150256 METAR KPWT 150256Z AUTO 00000KT 10SM BKN060 OVC075 04/03 A3029 RMK AO2 SLP266 T00440033 58010 $=
202101150156 METAR KPWT 150156Z AUTO 21003KT 10SM FEW075 03/02 A3031 RMK AO2 SLP270 T00330022 $=
202101150056 METAR KPWT 150056Z AUTO 22004KT 10SM CLR 06/04 A3032 RMK AO2 SLP275 T00560039 $=
202101142356 METAR KPWT 142356Z AUTO 20003KT 10SM CLR 09/04 A3032 RMK AO2 SLP275 T00890044 10117 20056 58012 $=
202101142256 METAR KPWT 142256Z AUTO 00000KT 10SM CLR 11/04 A3035 RMK AO2 SLP284 T01060039 $=
202101142156 METAR KPWT 142156Z AUTO 00000KT 10SM CLR 11/01 A3036 RMK AO2 SLP287 T01110011 $=
202101142056 METAR KPWT 142056Z AUTO 16003KT 10SM CLR 11/01 A3036 RMK AO2 SLP287 T01060006 58023 $=
202101141956 METAR KPWT 141956Z AUTO 00000KT 10SM CLR 09/01 A3039 RMK AO2 SLP297 T00940011 $=
202101141856 METAR KPWT 141856Z AUTO 02003KT 10SM CLR 08/03 A3041 RMK AO2 SLP306 T00780028 $=
202101141756 METAR KPWT 141756Z AUTO 00000KT 10SM OVC090 06/02 A3043 RMK AO2 SLP310 T00560017 10061 20017 53007 $=
202101141656 METAR KPWT 141656Z AUTO 00000KT 10SM OVC090 03/02 A3041 RMK AO2 SLP306 T00280022 $=
202101141556 METAR KPWT 141556Z AUTO 00000KT 10SM CLR 02/01 A3041 RMK AO2 SLP305 T00170006 FZRANO $=
202101141456 METAR KPWT 141456Z AUTO 05005KT 10SM CLR 04/02 A3040 RMK AO2 SLP303 T00390017 58023 $=
202101141356 METAR KPWT 141356Z AUTO 04006KT 10SM SCT100 03/03 A3042 RMK AO2 SLP309 T00330033 $=
202101141256 METAR KPWT 141256Z AUTO 00000KT 10SM OVC090 03/03 A3045 RMK AO2 SLP321 T00280028 $=
202101141156 METAR KPWT 141156Z AUTO 05003KT 10SM OVC100 02/02 A3047 RMK AO2 SLP326 7//// T00170017 10017 21006 58010 FZRANO $=
202101141056 METAR KPWT 141056Z AUTO 00000KT 9SM BKN100 01/01 A3049 RMK AO2 SLP333 T00060006 FZRANO $=
202101140956 METAR KPWT 140956Z AUTO 00000KT 10SM SCT110 01/01 A3050 RMK AO2 SLP334 T00060006 FZRANO $=
202101140856 METAR KPWT 140856Z AUTO 00000KT 10SM CLR M01/M01 A3050 RMK AO2 SLP336 T10061011 58003 FZRANO $=
202101140756 METAR KPWT 140756Z AUTO 00000KT 10SM CLR 01/01 A3051 RMK AO2 SLP340 T00060006 401110006 FZRANO $=
202101140656 METAR KPWT 140656Z AUTO 03003KT 10SM CLR 01/00 A3053 RMK AO2 SLP346 T00060000 FZRANO $=
202101140556 METAR KPWT 140556Z AUTO 14004KT 10SM CLR 02/02 A3051 RMK AO2 SLP340 T00170017 10083 20006 53004 FZRANO $=
202101140456 METAR KPWT 140456Z AUTO 00000KT 10SM CLR 01/01 A3051 RMK AO2 SLP338 T00110011 FZRANO $=
202101140356 METAR KPWT 140356Z AUTO 00000KT 10SM CLR 02/02 A3050 RMK AO2 SLP335 T00220017 FZRANO $=
202101140256 METAR KPWT 140256Z AUTO 04003KT 10SM CLR 02/01 A3050 RMK AO2 SLP334 T00220011 51007 FZRANO $=
202101140156 METAR KPWT 140156Z AUTO 16003KT 10SM CLR 03/01 A3050 RMK AO2 SLP336 T00330011 $=
202101140056 METAR KPWT 140056Z AUTO 22006KT 10SM CLR 06/02 A3049 RMK AO2 SLP334 T00560017 $=
202101132356 METAR KPWT 132356Z AUTO 22008KT 10SM CLR 08/02 A3048 RMK AO2 SLP327 T00830022 10106 20067 53032 $=
202101132256 METAR KPWT 132256Z AUTO 22012KT 10SM CLR 09/02 A3045 RMK AO2 SLP317 T00940017 $=
202101132156 METAR KPWT 132156Z AUTO 21008KT 10SM CLR 10/02 A3040 RMK AO2 SLP301 T01000017 $=
202101132056 METAR KPWT 132056Z AUTO 23006KT 10SM CLR 11/02 A3038 RMK AO2 SLP294 T01060017 51024 $=
202101131956 METAR KPWT 131956Z AUTO 23011KT 10SM CLR 09/03 A3037 RMK AO2 SLP289 T00890028 $=
202101131856 METAR KPWT 131856Z AUTO 22018G25KT 10SM CLR 08/02 A3034 RMK AO2 SLP279 T00780022 $=
202101131756 METAR KPWT 131756Z AUTO 23012G17KT 10SM CLR 07/02 A3031 RMK AO2 SLP270 6//// T00670022 10067 20044 51060 $=
202101131656 METAR KPWT 131656Z AUTO 21014KT 10SM CLR 04/03 A3027 RMK AO2 PRESRR SLP256 T00440028 $=
202101131556 METAR KPWT 131556Z AUTO 23016G22KT 10SM CLR 05/03 A3019 RMK AO2 SLP229 T00500028 $=
202101131456 METAR KPWT 131456Z AUTO 22015G20KT 10SM CLR 05/02 A3013 RMK AO2 SLP208 T00500022 51065 $=
202101131356 METAR KPWT 131356Z AUTO 19010G16KT 10SM CLR 06/03 A3008 RMK AO2 PRESRR SLP192 T00560033 $=
202101131256 METAR KPWT 131256Z AUTO 21010KT 10SM CLR 06/03 A3002 RMK AO2 SLP170 T00610028 $=
202101131156 METAR KPWT 131156Z AUTO 22017G22KT 10SM CLR 06/04 A2994 RMK AO2 PRESRR SLP142 60039 70202 T00610039 10128 20061 51123 $=
202101131056 METAR KPWT 131056Z AUTO 22017G25KT 10SM CLR 07/04 A2984 RMK AO2 PK WND 22032/1001 PRESRR SLP110 T00720044 $=
202101130956 METAR KPWT 130956Z AUTO 22022G31KT 10SM CLR 08/05 A2973 RMK AO2 PK WND 23036/0903 PRESRR SLP072 T00780050 $=
202101130856 METAR KPWT 130856Z AUTO 22025G34KT 10SM FEW017 BKN120 09/07 A2957 RMK AO2 PK WND 22037/0800 RAE19 PRESRR SLP018 P0001 60039 T00940067 53048 $=
202101130819 SPECI KPWT 130819Z AUTO 21023G35KT 10SM SCT017 11/09 A2949 RMK AO2 PK WND 22037/0800 RAE19 P0001 $=
202101130756 METAR KPWT 130756Z AUTO 22025G39KT 10SM -RA BKN015 11/10 A2948 RMK AO2 PK WND 22039/0751 SLP985 P0017 T01110100 401280083 $=
202101130744 SPECI KPWT 130744Z AUTO 6SM -RA BR SCT006 BKN013 OVC018 12/11 RMK AO2 P0017 $=
202101130712 SPECI KPWT 130712Z AUTO 20017G25KT 4SM RA BR OVC006 13/12 A2943 RMK AO2 PK WND 19027/0659 CIG 005V009 P0008 $=
202101130656 METAR KPWT 130656Z AUTO 20018G25KT 3SM RA BR OVC004 13/12 A2943 RMK AO2 PK WND 19027/0637 SLP968 P0021 T01280122 $=
202101130556 METAR KPWT 130556Z AUTO 19012G23KT 6SM -RA BR OVC004 13/12 A2945 RMK AO2 SLP977 P0013 60088 T01280122 10128 20117 56040 $=
202101130456 METAR KPWT 130456Z AUTO 19013G21KT 5SM RA BR OVC004 13/12 A2949 RMK AO2 SLP990 P0021 T01280122 $=
202101130356 METAR KPWT 130356Z AUTO 19012KT 3SM RA BR OVC004 12/12 A2953 RMK AO2 SLP005 P0014 T01220122 $=
202101130340 SPECI KPWT 130340Z AUTO 19011G15KT 4SM -RA BR OVC004 12/12 A2954 RMK AO2 PRESFR P0008 $=
202101130331 SPECI KPWT 130331Z AUTO 19006KT 2 1/2SM -RA BR OVC004 12/12 A2955 RMK AO2 VIS 1 3/4V5 P0007 $=
202101130322 SPECI KPWT 130322Z AUTO 19009KT 3SM -RA BR OVC004 12/12 A2956 RMK AO2 P0006 $=
202101130311 SPECI KPWT 130311Z AUTO 20007G15KT 2 1/2SM -RA BR OVC004 12/12 A2957 RMK AO2 VIS 1 3/4V4 P0003 $=
202101130256 METAR KPWT 130256Z AUTO 20008KT 3SM -RA BR OVC004 12/12 A2957 RMK AO2 CIG 004V007 SLP018 P0017 60040 T01220117 56023 $=
202101130251 SPECI KPWT 130251Z AUTO 19007KT 2 1/2SM RA BR OVC004 12/12 A2957 RMK AO2 VIS 2V4 CIG 003V007 P0015 $=
202101130216 SPECI KPWT 130216Z AUTO 21008KT 4SM RA BR OVC004 12/12 A2960 RMK AO2 P0004 $=
202101130156 METAR KPWT 130156Z AUTO 18007KT 150V210 3SM -RA BR OVC006 12/12 A2961 RMK AO2 CIG 004V009 SLP029 P0016 T01220117 $=
202101130056 METAR KPWT 130056Z AUTO 19005KT 4SM RA BR OVC004 12/12 A2964 RMK AO2 RAE03B22 SLP042 P0007 T01170117 $=
202101122356 METAR KPWT 122356Z AUTO 20007KT 5SM -RA BR OVC004 12/11 A2968 RMK AO2 SLP054 P0003 60007 T01170111 10122 20111 58014 $=
202101122323 SPECI KPWT 122323Z AUTO 21007KT 4SM -RA BR BKN004 OVC009 12/11 A2970 RMK AO2 P0002 $=
202101122315 SPECI KPWT 122315Z AUTO 20008KT 7SM -RA BKN006 OVC010 12/11 A2971 RMK AO2 CIG 004V008 P0002 $=
202101122256 METAR KPWT 122256Z AUTO 19010KT 6SM -RA BR OVC004 12/11 A2972 RMK AO2 CIG 003V007 SLP071 P0002 T01170111 $=
202101122156 METAR KPWT 122156Z AUTO 21009KT 6SM -RA BR OVC004 12/11 A2972 RMK AO2 RAB55 CIG 003V008 SLP069 P0000 T01170111 $=
202101122056 METAR KPWT 122056Z AUTO 20014G21KT 10SM OVC006 12/11 A2972 RMK AO2 SLP070 60002 T01170111 50008 $=
202101121956 METAR KPWT 121956Z AUTO 21014KT 10SM OVC006 12/11 A2973 RMK AO2 RAE08 CIG 005V008 SLP072 P0000 T01170111 $=
202101121907 SPECI KPWT 121907Z AUTO 21015G20KT 10SM -RA OVC006 12/11 A2973 RMK AO2 P0000 $=
202101121856 METAR KPWT 121856Z AUTO 21011G19KT 10SM -RA OVC004 12/11 A2973 RMK AO2 CIG 004V008 SLP071 P0002 T01170111 $=
202101121756 METAR KPWT 121756Z AUTO 20009KT 7SM -RA OVC004 11/11 A2970 RMK AO2 SLP061 P0008 60068 T01110106 10111 20089 53025 $=
202101121736 SPECI KPWT 121736Z AUTO 19008KT 8SM -RA BKN004 OVC011 11/11 A2968 RMK AO2 CIG 004V009 P0008 $=
202101121656 METAR KPWT 121656Z AUTO 20012G17KT 4SM -RA BR OVC006 11/11 A2967 RMK AO2 CIG 005V009 SLP050 P0014 T01060106 $=
202101121556 METAR KPWT 121556Z AUTO 20009KT 3SM -RA BR BKN006 OVC012 11/10 A2963 RMK AO2 SLP038 P0008 T01060100 $=
202101121456 METAR KPWT 121456Z AUTO 20013KT 6SM -RA BR OVC006 11/10 A2962 RMK AO2 SLP036 P0008 60038 T01060100 58006 $=
202101121356 METAR KPWT 121356Z AUTO 20012KT 8SM -RA OVC006 10/10 A2963 RMK AO2 SLP039 P0015 T01000100 $=
202101121256 METAR KPWT 121256Z AUTO 20011KT 5SM -RA BR OVC006 10/09 A2964 RMK AO2 CIG 004V010 SLP041 P0015 T01000094 $=
202101121238 SPECI KPWT 121238Z AUTO 20012KT 4SM -RA BR OVC006 10/09 A2964 RMK AO2 CIG 004V008 P0010 $=
202101121156 METAR KPWT 121156Z AUTO 21007KT 4SM -RA BR BKN004 OVC008 09/09 A2964 RMK AO2 SLP042 P0022 60124 70284 T00890089 10089 20072 58013 $=
202101121131 SPECI KPWT 121131Z AUTO 21006KT 4SM -RA BR OVC006 08/08 A2965 RMK AO2 CIG 004V010 P0014 $=
202101121103 SPECI KPWT 121103Z AUTO 00000KT 2 1/2SM RA BR BKN006 OVC010 08/08 A2966 RMK AO2 VIS 1 1/2V3 CIG 003V007 P0003 $=
202101121056 METAR KPWT 121056Z AUTO 00000KT 3SM RA BR BKN006 OVC009 08/08 A2967 RMK AO2 CIG 003V008 SLP050 P0027 T00830078 $=
202101121053 SPECI KPWT 121053Z AUTO 00000KT 3SM RA BR BKN006 OVC009 08/08 A2967 RMK AO2 CIG 003V008 P0026 $=
202101121038 SPECI KPWT 121038Z AUTO 00000KT 2SM RA BR OVC009 08/08 A2967 RMK AO2 CIG 007V014 P0019 $=
202101121027 SPECI KPWT 121027Z AUTO 00000KT 1 3/4SM RA BR OVC009 08/08 A2967 RMK AO2 VIS 1 1/4V3 CIG 007V015 P0014 $=
202101121005 SPECI KPWT 121005Z AUTO 00000KT 2SM RA BR OVC009 08/08 A2968 RMK AO2 CIG 004V013 P0005 $=
202101120956 METAR KPWT 120956Z AUTO 00000KT 1 3/4SM RA BR BKN009 OVC013 08/08 A2968 RMK AO2 CIG 004V009 SLP055 P0032 T00830078 $=
202101120943 SPECI KPWT 120943Z AUTO 00000KT 1 3/4SM RA BR SCT006 BKN009 OVC014 08/08 A2969 RMK AO2 P0026 $=
202101120916 SPECI KPWT 120916Z AUTO 00000KT 1 1/4SM RA BR OVC004 08/08 A2970 RMK AO2 P0011 $=
202101120902 SPECI KPWT 120902Z AUTO 20003KT 2 1/2SM RA BR OVC004 08/08 A2970 RMK AO2 VIS 1 3/4V4 P0003 $=
202101120856 METAR KPWT 120856Z AUTO 21003KT 3SM RA BR OVC006 08/08 A2971 RMK AO2 SLP064 P0021 60043 T00830083 56027 $=
202101120756 METAR KPWT 120756Z AUTO 21006KT 5SM -RA BR OVC008 08/08 A2973 RMK AO2 CIG 005V011 SLP073 P0014 T00830078 400830044 $=
202101120721 SPECI KPWT 120721Z AUTO 21005KT 6SM -RA BR OVC008 08/08 A2975 RMK AO2 CIG 004V011 P0004 $=
202101120702 SPECI KPWT 120702Z AUTO 24003KT 3SM -RA BR BKN005 OVC010 07/07 A2976 RMK AO2 CIG 003V007 P0000 $=
202101120656 METAR KPWT 120656Z AUTO 00000KT 1 3/4SM -RA BR OVC005 07/07 A2976 RMK AO2 CIG 003V007 SLP083 P0008 T00720072 $=
202101120642 SPECI KPWT 120642Z AUTO 00000KT 1 1/2SM -RA BR OVC003 07/07 A2976 RMK AO2 CIG 002V008 P0006 $=
202101120610 SPECI KPWT 120610Z AUTO 00000KT 2SM -RA BR OVC003 07/07 A2978 RMK AO2 P0002 $=
202101120556 METAR KPWT 120556Z AUTO 00000KT 3SM -RA BR OVC003 07/07 A2979 RMK AO2 SLP093 P0009 60075 T00720072 10078 20072 58022 $=
202101120539 SPECI KPWT 120539Z AUTO 22003KT 2 1/2SM -RA BR OVC003 07/07 A2980 RMK AO2 P0007 $=
202101120524 SPECI KPWT 120524Z AUTO 22003KT 6SM -RA BR BKN003 OVC021 07/07 A2980 RMK AO2 CIG 003V008 P0004 $=
202101120514 SPECI KPWT 120514Z AUTO 23003KT 6SM -RA BR SCT003 BKN023 OVC029 07/07 A2980 RMK AO2 P0003 $=
202101120456 METAR KPWT 120456Z AUTO 00000KT 3SM -RA BR FEW014 BKN023 OVC027 07/07 A2981 RMK AO2 SLP101 P0015 T00720072 $=
202101120431 SPECI KPWT 120431Z AUTO 00000KT 4SM RA BR FEW012 BKN023 OVC028 07/07 A2983 RMK AO2 P0008 $=
202101120356 METAR KPWT 120356Z AUTO 00000KT 4SM -RA BR CLR 07/07 A2985 RMK AO2 SLP112 P0016 T00720072 $=
202101120256 METAR KPWT 120256Z AUTO 05005KT 4SM -RA BR CLR 07/07 A2986 RMK AO2 SLP115 P0011 60035 T00720072 58040 $=
202101120156 METAR KPWT 120156Z AUTO 00000KT 7SM -RA FEW033 08/07 A2990 RMK AO2 SLP129 P0010 T00780072 $=
202101120123 SPECI KPWT 120123Z AUTO 05003KT 5SM -RA BR FEW005 SCT028 SCT036 08/07 A2992 RMK AO2 P0005 $=
202101120056 METAR KPWT 120056Z AUTO 00000KT 6SM -RA BR CLR 08/07 A2994 RMK AO2 SLP144 P0014 T00780072 $=
202101120042 SPECI KPWT 120042Z AUTO 05003KT 5SM -RA BR FEW006 SCT025 08/07 A2994 RMK AO2 P0011 $=
202101120010 SPECI KPWT 120010Z AUTO 00000KT 4SM -RA BR SCT007 OVC028 08/08 A2997 RMK AO2 P0003 $=
202101112356 METAR KPWT 112356Z AUTO 00000KT 6SM -RA BR BKN007 BKN019 OVC030 08/08 A2997 RMK AO2 SLP156 P0011 60051 T00780078 10083 20078 56018 $=
202101112351 SPECI KPWT 112351Z AUTO 00000KT 5SM -RA BR BKN007 BKN019 OVC030 08/08 A2997 RMK AO2 P0010 $=
202101112256 METAR KPWT 112256Z AUTO 00000KT 5SM -RA BR OVC005 08/08 A3001 RMK AO2 CIG 004V008 SLP166 P0009 T00780078 $=
202101112239 SPECI KPWT 112239Z AUTO 23003KT 6SM -RA BR OVC005 08/08 A3002 RMK AO2 P0006 $=
202101112156 METAR KPWT 112156Z AUTO 19005KT 10SM -RA OVC003 08/08 A3003 RMK AO2 RAB01 SLP174 P0003 T00830078 $=
202101112126 SPECI KPWT 112126Z AUTO VRB05KT 10SM -RA OVC003 08/08 A3004 RMK AO2 RAB01 P0002 $=
202101112056 METAR KPWT 112056Z AUTO 16005KT 10SM OVC005 08/07 A3005 RMK AO2 RAE15 SLP181 P0000 60028 T00780072 58033 $=
202101112040 SPECI KPWT 112040Z AUTO 15005KT 10SM BKN005 08/07 A3006 RMK AO2 RAE15 P0000 $=
202101112018 SPECI KPWT 112018Z AUTO 20008KT 10SM FEW003 SCT026 08/08 A3006 RMK AO2 RAE15 P0000 $=
202101111956 METAR KPWT 111956Z AUTO 16008KT 8SM -RA FEW003 BKN029 OVC035 08/08 A3007 RMK AO2 PRESFR SLP190 P0010 T00780078 $=
202101111928 SPECI KPWT 111928Z AUTO 00000KT 4SM -RA BR OVC018 08/07 A3012 RMK AO2 P0006 $=
202101111856 METAR KPWT 111856Z AUTO 00000KT 6SM -RA BR SCT007 OVC010 08/07 A3014 RMK AO2 SLP214 P0018 T00780072 $=
202101111841 SPECI KPWT 111841Z AUTO 30005KT 6SM -RA BR FEW004 BKN008 OVC013 08/07 A3015 RMK AO2 P0014 $=
202101111834 SPECI KPWT 111834Z AUTO 29004KT 5SM RA BR FEW004 OVC010 08/07 A3015 RMK AO2 CIG 007V014 P0012 $=
202101111756 METAR KPWT 111756Z AUTO 32004KT 6SM RA BR BKN008 OVC015 08/07 A3015 RMK AO2 CIG 005V012 SLP214 P0016 60034 T00780072 10083 20072 $=
202101111718 SPECI KPWT 111718Z AUTO 25006KT 6SM RA BR BKN008 BKN015 OVC033 08/07 A3014 RMK AO2 CIG 006V011 P0006 $=
202101111705 SPECI KPWT 111705Z AUTO 25005KT 7SM -RA SCT008 BKN013 OVC033 07/07 A3013 RMK AO2 P0002 $=
202101111656 METAR KPWT 111656Z AUTO 24003KT 6SM -RA BR FEW010 OVC035 07/07 A3012 RMK AO2 SLP207 P0010 T00720067 $=
202101111556 METAR KPWT 111556Z AUTO 25005KT 7SM -RA OVC035 07/07 A3010 RMK AO2 SLP197 P0006 T00720067 $=
202101111456 METAR KPWT 111456Z AUTO 20009KT 10SM -RA OVC037 08/07 RMK AO2 SLPNO P0000 60002 T00830067 $=
202101111356 METAR KPWT 111356Z AUTO 19007KT 10SM -RA BKN042 08/07 A3010 RMK AO2 RAB01 SLP200 P0002 T00780067 $=
202101111256 METAR KPWT 111256Z AUTO 19005KT 10SM BKN046 BKN060 07/07 A3012 RMK AO2 RAB06E27 SLP207 P0000 T00720067 $=
202101111156 METAR KPWT 111156Z AUTO 19005KT 10SM CLR 07/07 A3013 RMK AO2 SLP209 60000 70014 T00720067 10078 20044 58013 $=
202101111056 METAR KPWT 111056Z AUTO 21004KT 10SM BKN047 OVC065 06/06 A3016 RMK AO2 SLP220 T00610061 $=
202101110956 METAR KPWT 110956Z AUTO 21003KT 10SM FEW030 06/06 A3017 RMK AO2 SLP222 T00610056 $=
202101110953 SPECI KPWT 110953Z AUTO 20003KT 10SM FEW030 06/06 A3017 RMK AO2 $=
202101110945 SPECI KPWT 110945Z AUTO 21004KT 2SM BR SCT030 05/05 A3017 RMK AO2 $=
202101110940 SPECI KPWT 110940Z AUTO 21003KT 1SM BR BKN030 04/04 A3017 RMK AO2 VIS 1/2V5 $=
202101110928 SPECI KPWT 110928Z AUTO 00000KT 1/2SM FG BKN030 04/04 A3017 RMK AO2 $=
202101110925 SPECI KPWT 110925Z AUTO 00000KT 1SM BR BKN030 04/04 A3017 RMK AO2 $=
202101110917 SPECI KPWT 110917Z AUTO 00000KT 2 1/2SM BR FEW030 SCT080 06/06 A3017 RMK AO2 $=
202101110856 METAR KPWT 110856Z AUTO 00000KT 10SM FEW080 07/06 A3017 RMK AO2 SLP223 60000 T00670061 58012 $=
202101110756 METAR KPWT 110756Z AUTO 22003KT 10SM SCT043 SCT100 07/06 A3019 RMK AO2 SLP228 T00670061 400830028 $=
202101110656 METAR KPWT 110656Z AUTO 22004KT 10SM BKN039 BKN055 07/07 A3021 RMK AO2 RAB02E45 SLP235 P0000 T00720067 $=
202101110556 METAR KPWT 110556Z AUTO 21008KT 10SM SCT035 08/07 A3021 RMK AO2 RAE52 SLP235 P0000 60000 T00780067 10083 20072 53004 $=
202101110456 METAR KPWT 110456Z AUTO 19008KT 10SM -RA OVC033 08/07 A3021 RMK AO2 SLP235 P0000 T00780072 $=
202101110356 METAR KPWT 110356Z AUTO 18007KT 10SM -RA OVC041 08/07 A3019 RMK AO2 RAE08B37 SLP231 P0000 T00780067 $=
202101110256 METAR KPWT 110256Z AUTO 21005KT 10SM -RA OVC034 08/07 A3020 RMK AO2 RAB50 SLP232 P0000 60000 T00780067 56006 $=
202101110156 METAR KPWT 110156Z AUTO 17003KT 10SM FEW014 OVC040 08/07 A3020 RMK AO2 SLP232 T00780067 $=
202101110056 METAR KPWT 110056Z AUTO 18003KT 10SM BKN036 07/07 A3021 RMK AO2 SLP235 T00720067 $=
202101102356 METAR KPWT 102356Z AUTO 19006KT 10SM SCT028 BKN041 08/07 A3021 RMK AO2 SLP238 60000 T00830072 10083 20056 58003 $=
202101102323 SPECI KPWT 102323Z AUTO 20006KT 10SM SCT029 BKN038 OVC048 08/07 A3022 RMK AO2 $=
202101102256 METAR KPWT 102256Z AUTO 20006KT 10SM FEW007 BKN027 OVC036 08/07 A3022 RMK AO2 SLP241 T00780072 $=
202101102231 SPECI KPWT 102231Z AUTO 20007KT 10SM FEW007 BKN031 OVC046 08/07 A3022 RMK AO2 $=
202101102156 METAR KPWT 102156Z AUTO 20006KT 9SM SCT007 BKN027 OVC031 08/07 A3022 RMK AO2 SLP241 T00830072 $=
202101102126 SPECI KPWT 102126Z AUTO 21008KT 10SM BKN007 BKN030 OVC040 08/07 A3022 RMK AO2 CIG 004V010 $=
202101102056 METAR KPWT 102056Z AUTO 20007KT 10SM OVC005 08/07 A3022 RMK AO2 RAB22E35 SLP241 P0000 60000 T00780072 58004 $=
202101102032 SPECI KPWT 102032Z AUTO 21007KT 190V260 10SM -RA OVC005 07/07 A3022 RMK AO2 RAB22 CIG 004V008 P0000 $=
202101102003 SPECI KPWT 102003Z AUTO 22006KT 10SM BKN007 OVC026 07/07 A3022 RMK AO2 CIG 004V011 $=
202101101956 METAR KPWT 101956Z AUTO 22007KT 9SM BKN005 OVC024 07/07 A3022 RMK AO2 CIG 003V009 SLP242 T00720067 $=
202101101856 METAR KPWT 101856Z AUTO 21006KT 10SM OVC005 06/06 A3023 RMK AO2 SLP244 T00610056 $=
202101101756 METAR KPWT 101756Z AUTO 20005KT 10SM OVC005 06/05 A3023 RMK AO2 SLP245 60014 T00560050 10056 20039 51007 $=
202101101721 SPECI KPWT 101721Z AUTO 19003KT 10SM BKN005 OVC010 05/05 A3024 RMK AO2 CIG 003V007 $=
202101101656 METAR KPWT 101656Z AUTO 20004KT 10SM OVC003 05/05 A3023 RMK AO2 SLP244 P0001 T00500050 $=
202101101646 SPECI KPWT 101646Z AUTO 22003KT 7SM OVC003 05/05 A3023 RMK AO2 P0001 $=
202101101614 SPECI KPWT 101614Z AUTO 00000KT 5SM BR OVC005 05/04 A3022 RMK AO2 $=
202101101556 METAR KPWT 101556Z AUTO 00000KT 6SM BR OVC003 05/04 A3022 RMK AO2 RAE33 SLP239 P0001 T00500044 $=
202101101512 SPECI KPWT 101512Z AUTO 00000KT 3SM -RA BR OVC003 04/04 A3021 RMK AO2 CIG 003V006 P0001 $=
202101101502 SPECI KPWT 101502Z AUTO 00000KT 1 3/4SM -RA BR OVC003 04/04 A3021 RMK AO2 P0000 $=
202101101456 METAR KPWT 101456Z AUTO 00000KT 3SM -RA BR OVC003 04/04 A3021 RMK AO2 RAE15B31 SLP236 P0002 60012 T00440044 53016 $=
202101101440 SPECI KPWT 101440Z AUTO 00000KT 3SM -RA BR OVC003 04/04 A3021 RMK AO2 RAE15B31 P0001 $=
202101101426 SPECI KPWT 101426Z AUTO 00000KT 2 1/2SM BR OVC003 04/04 A3020 RMK AO2 RAE15 P0000 $=
202101101416 SPECI KPWT 101416Z AUTO 00000KT 5SM BR BKN005 OVC013 04/04 A3020 RMK AO2 RAE15 P0000 $=
202101101408 SPECI KPWT 101408Z AUTO 00000KT 4SM -RA BR SCT005 OVC013 04/04 A3020 RMK AO2 P0000 $=
202101101356 METAR KPWT 101356Z AUTO 00000KT 3SM -RA BR OVC013 04/04 A3019 RMK AO2 SLP230 P0006 T00440044 $=
202101101256 METAR KPWT 101256Z AUTO 00000KT 2SM -RA BR OVC013 04/04 A3018 RMK AO2 SLP227 P0004 T00390039 $=
202101101214 SPECI KPWT 101214Z AUTO 00000KT 2 1/2SM -RA BR BKN011 OVC025 04/04 A3017 RMK AO2 P0000 $=
202101101203 SPECI KPWT 101203Z AUTO 13003KT 5SM -RA BR FEW013 BKN023 OVC028 04/04 A3017 RMK AO2 P0000 $=
202101101156 METAR KPWT 101156Z AUTO 13003KT 2 1/2SM -RA BR FEW013 BKN025 OVC030 04/03 A3017 RMK AO2 SLP222 P0003 60007 7//// T00390033 10039 20000 51013 $=
202101101147 SPECI KPWT 101147Z AUTO 00000KT 4SM -RA BR BKN028 OVC033 04/03 A3017 RMK AO2 P0001 $=
202101101056 METAR KPWT 101056Z AUTO 00000KT 10SM -RA OVC037 04/03 A3015 RMK AO2 RAB21 SLP218 P0001 T00390033 $=
202101100956 METAR KPWT 100956Z AUTO 00000KT 10SM OVC041 03/03 A3014 RMK AO2 RAE54 SLP213 P0001 T00330033 $=
202101100856 METAR KPWT 100856Z AUTO 00000KT 10SM -RA FEW040 03/03 A3013 RMK AO2 SLP209 P0002 60002 T00330028 53002 $=
202101100756 METAR KPWT 100756Z AUTO 00000KT 10SM -RA SCT049 BKN060 03/02 A3013 RMK AO2 RAB53 SLP208 P0000 T00280022 400721006 $=
202101100656 METAR KPWT 100656Z AUTO 00000KT 10SM OVC060 02/01 A3011 RMK AO2 SLP205 T00170011 FZRANO $=
202101100556 METAR KPWT 100556Z AUTO 00000KT 10SM CLR 01/00 A3012 RMK AO2 SLP207 T00060000 10072 20006 55012 FZRANO $=
202101100456 METAR KPWT 100456Z AUTO 00000KT 10SM CLR 02/01 A3011 RMK AO2 SLP204 T00170011 FZRANO $=
202101100356 METAR KPWT 100356Z AUTO 00000KT 10SM CLR 02/02 A3013 RMK AO2 SLP211 T00220017 FZRANO $=
202101100256 METAR KPWT 100256Z AUTO 00000KT 10SM CLR 03/03 A3015 RMK AO2 SLP219 T00330028 55010 $=
202101100156 METAR KPWT 100156Z AUTO 00000KT 10SM BKN110 05/04 A3015 RMK AO2 SLP217 T00500039 $=
202101100056 METAR KPWT 100056Z AUTO 00000KT 10SM SCT120 06/04 A3017 RMK AO2 SLP222 T00560044 $=
202101092356 METAR KPWT 092356Z AUTO 00000KT 10SM BKN080 07/05 A3018 RMK AO2 SLP227 T00720050 10072 20011 56019 $=
202101092256 METAR KPWT 092256Z AUTO 00000KT 10SM SCT080 07/04 A3020 RMK AO2 SLP233 T00720044 $=
202101092156 METAR KPWT 092156Z AUTO 00000KT 10SM FEW100 07/02 A3021 RMK AO2 SLP236 T00670022 $=
202101092056 METAR KPWT 092056Z AUTO 00000KT 10SM CLR 06/02 A3024 RMK AO2 SLP248 T00560017 58034 $=
202101091956 METAR KPWT 091956Z AUTO 36003KT 10SM CLR 05/04 A3028 RMK AO2 SLP262 T00500039 $=
202101091933 SPECI KPWT 091933Z AUTO 00000KT 10SM FEW002 04/04 A3030 RMK AO2 $=
202101091856 METAR KPWT 091856Z AUTO 03003KT 6SM BR OVC002 03/03 A3032 RMK AO2 SLP273 T00330033 $=
202101091851 SPECI KPWT 091851Z AUTO 04003KT 2SM BR OVC002 03/03 A3032 RMK AO2 VIS 3/4V5 $=
202101091848 SPECI KPWT 091848Z AUTO VRB03KT 1SM BR OVC002 03/03 A3032 RMK AO2 $=
202101091845 SPECI KPWT 091845Z AUTO 02003KT 1/2SM FG OVC002 03/03 A3032 RMK AO2 $=
202101091839 SPECI KPWT 091839Z AUTO 00000KT 1SM BR OVC002 02/02 A3032 RMK AO2 FZRANO $=
202101091828 SPECI KPWT 091828Z AUTO 00000KT 2 1/2SM BR OVC002 02/02 A3033 RMK AO2 VIS 1 1/4V5 FZRANO $=
202101091825 SPECI KPWT 091825Z AUTO 09003KT 1SM BR OVC002 02/01 A3033 RMK AO2 VIS 1/2V4 FZRANO $=
202101091756 METAR KPWT 091756Z AUTO 00000KT 1/2SM FG OVC002 01/01 A3034 RMK AO2 SLP282 6//// T00110011 10022 21006 58009 FZRANO $=
202101091744 SPECI KPWT 091744Z AUTO 00000KT 1/2SM FG OVC002 01/01 A3034 RMK AO2 FZRANO $=
202101091737 SPECI KPWT 091737Z AUTO 00000KT 1/4SM FG OVC002 00/00 A3035 RMK AO2 FZRANO $=
202101091725 SPECI KPWT 091725Z AUTO 00000KT 1/2SM FG OVC002 00/00 A3035 RMK AO2 FZRANO $=
202101091656 METAR KPWT 091656Z AUTO 00000KT 1/4SM FG OVC002 00/00 A3036 RMK AO2 UPB21E45 SLP288 P0000 T00000000 FZRANO $=
202101091556 METAR KPWT 091556Z AUTO 00000KT 1/4SM FZFG OVC002 M01/M01 A3036 RMK AO2 SLP291 T10061006 FZRANO $=
202101091456 METAR KPWT 091456Z AUTO 00000KT M1/4SM FG OVC002 00/00 A3037 RMK AO2 SLP292 60000 T00000000 56016 FZRANO $=
202101091356 METAR KPWT 091356Z AUTO 00000KT 1/4SM FG OVC002 00/00 A3037 RMK AO2 RAE05 SLP293 P0000 T00000000 FZRANO $=
202101091256 METAR KPWT 091256Z AUTO 00000KT 1/4SM -RA FG OVC002 02/02 A3040 RMK AO2 SLP301 P0000 T00170017 FZRANO $=
202101091156 METAR KPWT 091156Z AUTO 05003KT 1/4SM -RA FG OVC002 02/02 A3041 RMK AO2 SLP307 P0000 60000 70029 T00220022 10039 20022 56003 FZRANO $=
202101091056 METAR KPWT 091056Z AUTO 06003KT M1/4SM -RA FG OVC002 03/03 A3042 RMK AO2 RAE07B26 SLP307 P0000 T00280028 $=
202101091018 SPECI KPWT 091018Z AUTO 08003KT 1/4SM FG OVC002 03/03 A3042 RMK AO2 RAE07 P0000 $=
202101091014 SPECI KPWT 091014Z AUTO 00000KT 3/4SM BR OVC002 03/03 A3042 RMK AO2 RAE07 P0000 $=
202101091009 SPECI KPWT 091009Z AUTO VRB03KT 1 1/2SM BR OVC002 04/04 RMK AO2 RAE07 P0000 $=
202101091007 SPECI KPWT 091007Z AUTO 07004KT 3/4SM BR OVC002 04/04 A3042 RMK AO2 RAE07 P0000 $=
202101090956 METAR KPWT 090956Z AUTO 06004KT 1/4SM -RA FG OVC002 04/03 A3042 RMK AO2 RAB17 SLP307 P0000 T00390033 $=
202101090904 SPECI KPWT 090904Z AUTO 00000KT 1/4SM FG OVC002 03/03 A3042 RMK AO2 $=
202101090856 METAR KPWT 090856Z AUTO 03003KT 1/2SM FG OVC002 03/03 A3042 RMK AO2 SLP309 T00330033 58000 $=
202101090839 SPECI KPWT 090839Z AUTO 00000KT 1/2SM FG BKN002 OVC032 03/03 A3043 RMK AO2 $=
202101090831 SPECI KPWT 090831Z AUTO 00000KT 3/4SM BR FEW002 OVC032 03/03 A3043 RMK AO2 $=
202101090826 SPECI KPWT 090826Z AUTO 00000KT 1 3/4SM BR OVC032 03/03 A3043 RMK AO2 $=
202101090811 SPECI KPWT 090811Z AUTO 00000KT 1SM BR OVC032 03/03 A3043 RMK AO2 $=
202101090802 SPECI KPWT 090802Z AUTO 00000KT 1 3/4SM BR OVC032 03/03 A3043 RMK AO2 $=
202101090756 METAR KPWT 090756Z AUTO 00000KT 4SM BR OVC032 03/03 A3044 RMK AO2 SLP314 T00330033 400720006 $=
202101090745 SPECI KPWT 090745Z AUTO 00000KT 4SM BR OVC030 03/03 A3044 RMK AO2 $=
202101090736 SPECI KPWT 090736Z AUTO 00000KT 2SM BR OVC030 03/03 A3044 RMK AO2 $=
202101090730 SPECI KPWT 090730Z AUTO 00000KT 1 1/4SM BR OVC028 03/03 A3044 RMK AO2 $=
202101090723 SPECI KPWT 090723Z AUTO 00000KT 3/4SM BR BKN028 03/03 A3044 RMK AO2 $=
202101090711 SPECI KPWT 090711Z AUTO 00000KT 1/4SM FG SCT002 BKN028 03/03 A3044 RMK AO2 $=
202101090656 METAR KPWT 090656Z AUTO 00000KT 1/4SM FG BKN002 03/03 A3044 RMK AO2 SLP315 T00330028 $=
202101090648 SPECI KPWT 090648Z AUTO 00000KT 1/4SM FG OVC002 03/03 A3044 RMK AO2 $=
202101090638 SPECI KPWT 090638Z AUTO 00000KT 1/2SM FG BKN002 OVC028 03/03 A3044 RMK AO2 $=
202101090635 SPECI KPWT 090635Z AUTO 00000KT 1SM BR BKN002 OVC028 03/03 A3044 RMK AO2 $=
202101090629 SPECI KPWT 090629Z AUTO 00000KT 2 1/2SM BR BKN002 BKN028 03/03 A3044 RMK AO2 VIS 1V5 $=
202101090625 SPECI KPWT 090625Z AUTO 00000KT 3SM BR SCT002 BKN028 03/03 A3044 RMK AO2 $=
202101090601 SPECI KPWT 090601Z AUTO 00000KT 3SM BR BKN028 03/03 A3043 RMK AO2 $=
202101090556 METAR KPWT 090556Z AUTO 00000KT 1 3/4SM BR FEW001 BKN028 03/03 A3042 RMK AO2 VIS 3/4V4 SLP311 60001 T00280028 10067 20006 51011 $=
202101090548 SPECI KPWT 090548Z AUTO 00000KT 1 1/4SM BR SCT001 BKN030 03/03 A3042 RMK AO2 $=
202101090544 SPECI KPWT 090544Z AUTO 00000KT 3/4SM BR SCT001 BKN030 03/03 A3042 RMK AO2 $=
202101090531 SPECI KPWT 090531Z AUTO 00000KT 1/2SM FG BKN001 03/03 A3042 RMK AO2 $=
202101090528 SPECI KPWT 090528Z AUTO 00000KT 1SM BR OVC001 03/03 A3042 RMK AO2 $=
202101090523 SPECI KPWT 090523Z AUTO 00000KT 2 1/2SM BR OVC001 03/03 A3042 RMK AO2 $=
202101090456 METAR KPWT 090456Z AUTO 00000KT 8SM OVC003 03/03 A3042 RMK AO2 SLP308 T00280028 $=
202101090443 SPECI KPWT 090443Z AUTO 00000KT 5SM BR BKN003 OVC023 03/03 A3042 RMK AO2 $=
202101090435 SPECI KPWT 090435Z AUTO 00000KT 2SM BR BKN003 OVC023 02/02 A3042 RMK AO2 FZRANO $=
202101090425 SPECI KPWT 090425Z AUTO 00000KT 1 3/4SM BR FEW003 OVC023 02/02 A3042 RMK AO2 FZRANO $=
202101090416 SPECI KPWT 090416Z AUTO 00000KT 3SM BR OVC023 02/02 A3042 RMK AO2 FZRANO $=
202101090411 SPECI KPWT 090411Z AUTO 00000KT 1 1/4SM BR OVC023 02/02 A3042 RMK AO2 FZRANO $=
202101090409 SPECI KPWT 090409Z AUTO 00000KT 3/4SM BR OVC023 02/02 A3042 RMK AO2 FZRANO $=
202101090356 METAR KPWT 090356Z AUTO 00000KT 1/2SM FG BKN023 01/01 A3041 RMK AO2 SLP306 P0001 T00110011 FZRANO $=
202101090314 SPECI KPWT 090314Z AUTO 00000KT 1/4SM FG CLR 02/02 A3040 RMK AO2 P0001 FZRANO $=
202101090304 SPECI KPWT 090304Z AUTO 00000KT 3/4SM BR CLR 01/01 A3040 RMK AO2 P0001 FZRANO $=
202101090256 METAR KPWT 090256Z AUTO 00000KT 1/4SM FG CLR 01/01 A3039 RMK AO2 RAB20E55 SLP298 P0000 60000 T00110011 51026 FZRANO $=
202101090156 METAR KPWT 090156Z AUTO 00000KT 1/4SM FG FEW001 SCT006 03/02 A3037 RMK AO2 SLP293 T00280022 $=
202101090142 SPECI KPWT 090142Z AUTO 00000KT 1/4SM FG BKN006 04/04 A3037 RMK AO2 $=
202101090132 SPECI KPWT 090132Z AUTO 00000KT 3/4SM BR BKN006 03/03 A3036 RMK AO2 $=
202101090101 SPECI KPWT 090101Z AUTO 00000KT 1/4SM FG VV007 04/04 A3034 RMK AO2 $=
202101090056 METAR KPWT 090056Z AUTO 00000KT 3/4SM BR VV007 04/04 A3034 RMK AO2 VIS 1/4V5 SLP281 T00440039 $=
202101090054 SPECI KPWT 090054Z AUTO 00000KT 3/4SM BR VV007 04/04 A3034 RMK AO2 VIS 1/4V5 $=
202101090049 SPECI KPWT 090049Z AUTO 00000KT 1 3/4SM BR SCT006 04/04 A3034 RMK AO2 VIS 1/2V5 $=
202101090038 SPECI KPWT 090038Z AUTO 00000KT 10SM SCT006 06/05 A3033 RMK AO2 $=
202101090004 SPECI KPWT 090004Z AUTO 09004KT 10SM BKN006 07/06 A3032 RMK AO2 CIG 004V008 $=
202101082356 METAR KPWT 082356Z AUTO 10003KT 10SM SCT006 07/06 A3031 RMK AO2 SLP271 60001 T00670061 10072 20056 51022 $=
202101082256 METAR KPWT 082256Z AUTO 00000KT 10SM OVC039 07/06 A3030 RMK AO2 RAB12E33 SLP267 P0000 T00720061 $=
202101082232 SPECI KPWT 082232Z AUTO 00000KT 10SM -RA FEW020 OVC033 07/06 A3028 RMK AO2 RAB12 P0000 $=
202101082218 SPECI KPWT 082218Z AUTO 00000KT 4SM -RA BR SCT005 BKN023 OVC031 07/06 A3027 RMK AO2 RAB12 P0000 $=
202101082156 METAR KPWT 082156Z AUTO 03005KT 6SM BR OVC005 07/06 A3026 RMK AO2 RAE01 CIG 003V008 SLP255 P0000 T00670061 $=
202101082141 SPECI KPWT 082141Z AUTO 04004KT 7SM BKN005 OVC014 07/06 A3026 RMK AO2 RAE01 CIG 003V008 P0000 $=
202101082131 SPECI KPWT 082131Z AUTO 03004KT 6SM BR BKN003 BKN009 OVC014 07/06 A3025 RMK AO2 RAE01 CIG 003V007 P0000 $=
202101082116 SPECI KPWT 082116Z AUTO 03004KT 3SM BR FEW003 OVC011 07/06 A3025 RMK AO2 RAE01 P0000 $=
202101082106 SPECI KPWT 082106Z AUTO 03005KT 4SM BR SCT003 OVC009 07/06 A3025 RMK AO2 RAE01 CIG 007V013 P0000 $=
202101082056 METAR KPWT 082056Z AUTO 04005KT 4SM -RA BR BKN003 OVC009 07/06 A3025 RMK AO2 SLP249 P0001 60001 T00670061 51015 $=
202101082054 SPECI KPWT 082054Z AUTO 04006KT 4SM -RA BR BKN003 OVC009 07/06 A3025 RMK AO2 P0001 $=
202101082043 SPECI KPWT 082043Z AUTO 04004KT 2SM -RA BR BKN005 OVC009 07/06 A3024 RMK AO2 CIG 002V007 P0000 $=
202101082013 SPECI KPWT 082013Z AUTO 03004KT 3SM -RA BR OVC005 07/06 A3023 RMK AO2 CIG 003V011 P0000 $=
202101081956 METAR KPWT 081956Z AUTO 00000KT 2 1/2SM -RA BR OVC007 07/06 A3023 RMK AO2 RAB51 CIG 004V009 SLP242 P0000 T00670061 $=
202101081948 SPECI KPWT 081948Z AUTO 00000KT 2 1/2SM BR BKN005 OVC012 07/06 A3022 RMK AO2 CIG 004V009 $=
202101081939 SPECI KPWT 081939Z AUTO 00000KT 2 1/2SM BR BKN007 OVC012 07/06 A3022 RMK AO2 CIG 004V009 $=
202101081930 SPECI KPWT 081930Z AUTO 00000KT 8SM SCT007 OVC012 07/06 A3021 RMK AO2 $=
202101081856 METAR KPWT 081856Z AUTO 00000KT 10SM BKN014 OVC019 07/06 A3020 RMK AO2 SLP233 T00670061 $=
202101081810 SPECI KPWT 081810Z AUTO 00000KT 10SM BKN014 OVC026 06/06 A3018 RMK AO2 $=
202101081756 METAR KPWT 081756Z AUTO 00000KT 10SM BKN016 OVC026 06/05 A3017 RMK AO2 SLP225 60027 T00560050 10061 20050 51020 $=
202101081726 SPECI KPWT 081726Z AUTO 00000KT 10SM SCT016 BKN022 OVC031 06/05 A3017 RMK AO2 $=
202101081710 SPECI KPWT 081710Z AUTO 00000KT 10SM SCT014 OVC031 06/05 A3016 RMK AO2 $=
202101081656 METAR KPWT 081656Z AUTO 00000KT 10SM BKN014 OVC033 05/05 A3015 RMK AO2 RAE43 SLP218 P0001 T00500050 $=
202101081653 SPECI KPWT 081653Z AUTO 00000KT 10SM OVC014 05/05 A3015 RMK AO2 RAE43 P0001 $=
202101081556 METAR KPWT 081556Z AUTO 29004KT 10SM -RA SCT018 BKN025 OVC032 05/05 A3012 RMK AO2 SLP206 P0008 T00500050 $=
202101081520 SPECI KPWT 081520Z AUTO VRB03KT 10SM -RA FEW019 BKN028 OVC035 05/05 A3010 RMK AO2 P0003 $=
202101081456 METAR KPWT 081456Z AUTO 28004KT 10SM -RA SCT030 OVC036 06/05 A3008 RMK AO2 SLP193 P0006 60018 T00560050 53005 $=
202101081454 SPECI KPWT 081454Z AUTO 28004KT 10SM -RA SCT030 OVC036 06/05 A3008 RMK AO2 P0006 $=
202101081356 METAR KPWT 081356Z AUTO 25006KT 9SM -RA BKN025 OVC031 06/05 A3007 RMK AO2 SLP190 P0007 T00560050 $=
202101081256 METAR KPWT 081256Z AUTO 21004KT 8SM -RA FEW027 BKN039 06/05 A3005 RMK AO2 SLP182 P0005 T00560050 $=
202101081156 METAR KPWT 081156Z AUTO VRB04KT 10SM -RA FEW030 SCT038 BKN048 06/04 A3003 RMK AO2 SLP175 P0004 60006 70006 T00560044 10056 20006 51016 $=
202101081056 METAR KPWT 081056Z AUTO 00000KT 10SM -RA OVC040 04/03 A3002 RMK AO2 RAB02 SLP173 P0002 T00390033 $=
202101080956 METAR KPWT 080956Z AUTO 00000KT 10SM FEW070 SCT090 BKN110 03/02 A3000 RMK AO2 SLP166 T00330022 $=
202101080856 METAR KPWT 080856Z AUTO 06004KT 10SM CLR 03/02 A2998 RMK AO2 SLP160 T00330017 58012 $=
202101080756 METAR KPWT 080756Z AUTO 00000KT 10SM CLR 01/01 A3000 RMK AO2 SLP165 T00110011 400780000 FZRANO $=
202101080656 METAR KPWT 080656Z AUTO 00000KT 10SM CLR 01/01 A3002 RMK AO2 SLP171 T00110006 FZRANO $=
202101080556 METAR KPWT 080556Z AUTO 00000KT 10SM CLR 01/01 A3002 RMK AO2 SLP170 T00110011 10072 20011 56019 FZRANO $=
202101080456 METAR KPWT 080456Z AUTO 00000KT 10SM CLR 03/02 A3004 RMK AO2 SLP179 T00330022 $=
202101080356 METAR KPWT 080356Z AUTO 03004KT 10SM CLR 03/02 A3005 RMK AO2 SLP182 T00330022 $=
202101080256 METAR KPWT 080256Z AUTO 07004KT 10SM CLR 04/03 A3007 RMK AO2 SLP191 T00440033 56025 $=
202101080156 METAR KPWT 080156Z AUTO 00000KT 10SM CLR 03/02 A3009 RMK AO2 SLP195 T00280022 $=
202101080056 METAR KPWT 080056Z AUTO 04004KT 10SM CLR 05/04 A3012 RMK AO2 SLP206 T00500044 $=
202101072356 METAR KPWT 072356Z AUTO 01004KT 10SM CLR 07/06 A3015 RMK AO2 SLP216 T00720061 10078 20056 56030 $=
202101072256 METAR KPWT 072256Z AUTO 03005KT 10SM CLR 08/07 A3018 RMK AO2 SLP227 T00780072 $=
202101072156 METAR KPWT 072156Z AUTO 04004KT 10SM FEW001 07/07 A3020 RMK AO2 SLP234 T00720072 $=
202101072141 SPECI KPWT 072141Z AUTO 04003KT 8SM SCT001 07/07 A3021 RMK AO2 $=
202101072056 METAR KPWT 072056Z AUTO 00000KT 10SM CLR 07/07 A3024 RMK AO2 SLP246 T00670067 58015 $=
202101072046 SPECI KPWT 072046Z AUTO 00000KT 10SM SCT002 07/07 A3024 RMK AO2 $=
202101072018 SPECI KPWT 072018Z AUTO 00000KT 9SM OVC002 07/07 A3025 RMK AO2 $=
202101072009 SPECI KPWT 072009Z AUTO 00000KT 2SM BR OVC002 07/06 A3025 RMK AO2 VIS 3/4V5 $=
202101071956 METAR KPWT 071956Z AUTO 00000KT 3SM BR OVC002 06/06 A3026 RMK AO2 SLP254 T00610061 $=
202101071953 SPECI KPWT 071953Z AUTO 00000KT 1 3/4SM BR OVC002 06/06 A3026 RMK AO2 $=
202101071946 SPECI KPWT 071946Z AUTO 00000KT 2SM BR OVC002 06/06 A3026 RMK AO2 VIS 3/4V5 $=
202101071934 SPECI KPWT 071934Z AUTO 00000KT 1 3/4SM BR OVC002 06/06 A3027 RMK AO2 VIS 1 1/4V4 $=
202101071927 SPECI KPWT 071927Z AUTO 00000KT 3SM BR OVC002 06/06 A3027 RMK AO2 $=
202101071920 SPECI KPWT 071920Z AUTO 00000KT 2 1/2SM BR OVC002 06/06 A3027 RMK AO2 VIS 1/2V5 $=
202101071918 SPECI KPWT 071918Z AUTO 00000KT 3/4SM BR OVC002 06/06 A3027 RMK AO2 $=
202101071856 METAR KPWT 071856Z AUTO 27004KT 1/4SM FG OVC002 06/06 A3028 RMK AO2 SLP261 T00610061 $=
202101071756 METAR KPWT 071756Z AUTO 00000KT 1/4SM FG OVC002 06/06 A3029 RMK AO2 RAB1657E28 SLP262 P0000 60000 T00610061 10061 20033 50007 $=
202101071656 METAR KPWT 071656Z AUTO 20005KT 1/4SM FG OVC002 06/06 A3029 RMK AO2 SLP265 T00560056 $=
202101071556 METAR KPWT 071556Z AUTO 00000KT 1/4SM FG OVC002 05/05 A3028 RMK AO2 SLP261 T00500050 $=
202101071456 METAR KPWT 071456Z AUTO 00000KT 1/4SM FG OVC002 04/03 A3027 RMK AO2 SLP255 T00390033 53009 $=
202101071446 SPECI KPWT 071446Z AUTO 00000KT 1/4SM FG OVC002 04/03 A3026 RMK AO2 $=
202101071436 SPECI KPWT 071436Z AUTO 00000KT 1/2SM FG OVC002 04/03 A3026 RMK AO2 $=
202101071431 SPECI KPWT 071431Z AUTO 00000KT 3/4SM BR OVC004 04/04 A3026 RMK AO2 CIG 002V007 $=
202101071428 SPECI KPWT 071428Z AUTO 00000KT 1 3/4SM BR OVC004 04/04 A3026 RMK AO2 VIS 1/2V5 CIG 002V006 $=
202101071418 SPECI KPWT 071418Z AUTO 00000KT 10SM OVC004 04/04 A3026 RMK AO2 CIG 003V007 $=
202101071356 METAR KPWT 071356Z AUTO 00000KT 10SM OVC006 04/04 A3026 RMK AO2 SLP254 T00440039 $=
202101071305 SPECI KPWT 071305Z AUTO 00000KT 10SM OVC008 04/04 A3024 RMK AO2 $=
202101071256 METAR KPWT 071256Z AUTO 00000KT 10SM BKN010 OVC044 04/04 A3024 RMK AO2 SLP248 T00390039 $=
202101071248 SPECI KPWT 071248Z AUTO 00000KT 10SM BKN010 OVC044 04/04 A3024 RMK AO2 $=
202101071240 SPECI KPWT 071240Z AUTO 00000KT 10SM SCT010 BKN026 OVC044 04/04 A3024 RMK AO2 $=
202101071233 SPECI KPWT 071233Z AUTO 11003KT 10SM BKN010 BKN026 OVC044 04/04 A3024 RMK AO2 $=
202101071220 SPECI KPWT 071220Z AUTO 00000KT 10SM FEW010 BKN026 OVC045 04/04 A3024 RMK AO2 $=
202101071156 METAR KPWT 071156Z AUTO 00000KT 10SM FEW018 OVC043 04/03 A3024 RMK AO2 SLP247 70001 T00390033 10039 20000 51017 $=
202101071149 SPECI KPWT 071149Z AUTO 00000KT 10SM SCT018 OVC041 03/03 A3024 RMK AO2 $=
202101071120 SPECI KPWT 071120Z AUTO 00000KT 10SM BKN018 OVC039 03/03 A3023 RMK AO2 $=
202101071056 METAR KPWT 071056Z AUTO 00000KT 10SM FEW009 OVC037 03/03 A3023 RMK AO2 SLP245 T00330033 $=
202101071044 SPECI KPWT 071044Z AUTO 00000KT 10SM FEW009 OVC037 03/03 A3023 RMK AO2 $=
202101070956 METAR KPWT 070956Z AUTO 21003KT 10SM OVC037 02/02 A3022 RMK AO2 SLP239 T00220017 FZRANO $=
202101070856 METAR KPWT 070856Z AUTO 00000KT 4SM BR FEW020 BKN041 01/01 A3019 RMK AO2 SLP231 T00110011 51017 FZRANO $=
202101070823 SPECI KPWT 070823Z AUTO 00000KT 10SM OVC037 02/02 A3019 RMK AO2 FZRANO $=
202101070816 SPECI KPWT 070816Z AUTO 00000KT 2SM BR BKN037 01/01 A3018 RMK AO2 FZRANO $=
202101070814 SPECI KPWT 070814Z AUTO 00000KT 1SM BR BKN037 01/01 A3018 RMK AO2 FZRANO $=
202101070808 SPECI KPWT 070808Z AUTO 00000KT 1/2SM FG FEW001 BKN039 01/01 A3018 RMK AO2 FZRANO $=
202101070756 METAR KPWT 070756Z AUTO 00000KT 1/4SM FG FEW001 00/00 A3018 RMK AO2 SLP224 T00000000 400780000 FZRANO $=
202101070754 SPECI KPWT 070754Z AUTO 00000KT 1/4SM FG VV001 00/00 A3017 RMK AO2 400780000 FZRANO $=
202101070744 SPECI KPWT 070744Z AUTO 00000KT 1/4SM FG VV002 00/00 A3016 RMK AO2 FZRANO $=
202101070737 SPECI KPWT 070737Z AUTO 00000KT 1/2SM FG VV001 00/00 A3016 RMK AO2 FZRANO $=
202101070735 SPECI KPWT 070735Z AUTO 00000KT 3/4SM BR CLR 00/00 A3016 RMK AO2 FZRANO $=
202101070730 SPECI KPWT 070730Z AUTO 00000KT 1 1/4SM BR CLR 00/00 A3015 RMK AO2 FZRANO $=
202101070718 SPECI KPWT 070718Z AUTO 22003KT 3/4SM BR CLR 00/00 A3014 RMK AO2 FZRANO $=
202101070706 SPECI KPWT 070706Z AUTO 00000KT 1 3/4SM BR CLR 00/00 A3014 RMK AO2 VIS 1/2V5 FZRANO $=
202101070656 METAR KPWT 070656Z AUTO 00000KT 10SM CLR 01/01 A3014 RMK AO2 SLP212 T00060006 FZRANO $=
202101070632 SPECI KPWT 070632Z AUTO 00000KT 9SM CLR 01/01 A3013 RMK AO2 FZRANO $=
202101070625 SPECI KPWT 070625Z AUTO 00000KT 2 1/2SM BR CLR 02/02 A3013 RMK AO2 FZRANO $=
202101070556 METAR KPWT 070556Z AUTO 00000KT 6SM BR CLR 01/01 A3011 RMK AO2 SLP203 60001 T00110011 10072 20011 53018 FZRANO $=
202101070542 SPECI KPWT 070542Z AUTO 00000KT 4SM BR CLR 01/01 A3010 RMK AO2 FZRANO $=
202101070540 SPECI KPWT 070540Z AUTO 00000KT 3/4SM BR CLR 01/01 A3010 RMK AO2 FZRANO $=
202101070456 METAR KPWT 070456Z AUTO 00000KT 1/4SM FG CLR 02/02 A3008 RMK AO2 SLP193 T00170017 FZRANO $=
202101070432 SPECI KPWT 070432Z AUTO 00000KT 1/4SM FG CLR 02/02 A3007 RMK AO2 FZRANO $=
202101070421 SPECI KPWT 070421Z AUTO 23003KT 3/4SM BR CLR 02/02 A3007 RMK AO2 VIS 1/4V5 FZRANO $=
202101070415 SPECI KPWT 070415Z AUTO 00000KT 4SM BR CLR 02/02 A3007 RMK AO2 FZRANO $=
202101070408 SPECI KPWT 070408Z AUTO 00000KT 2 1/2SM BR CLR 02/02 A3006 RMK AO2 FZRANO $=
202101070406 SPECI KPWT 070406Z AUTO 00000KT 1SM BR CLR 02/02 A3006 RMK AO2 FZRANO $=
202101070356 METAR KPWT 070356Z AUTO 00000KT 1/2SM FG CLR 02/02 A3006 RMK AO2 SLP187 P0001 T00220022 FZRANO $=
202101070353 SPECI KPWT 070353Z AUTO 00000KT 1/2SM FG CLR 02/02 A3006 RMK AO2 P0001 FZRANO $=
202101070256 METAR KPWT 070256Z AUTO 00000KT 1/4SM FG CLR 03/03 A3004 RMK AO2 SLP179 T00330028 53007 $=
202101070253 SPECI KPWT 070253Z AUTO 00000KT 1/4SM FG CLR 03/03 A3004 RMK AO2 $=
202101070249 SPECI KPWT 070249Z AUTO 00000KT 3/4SM BR CLR 03/03 A3004 RMK AO2 VIS 1/4V5 $=
202101070247 SPECI KPWT 070247Z AUTO 00000KT 1 1/2SM BR CLR 03/03 A3004 RMK AO2 VIS 1/2V5 $=
202101070244 SPECI KPWT 070244Z AUTO 00000KT 4SM BR CLR 03/03 A3004 RMK AO2 $=
202101070239 SPECI KPWT 070239Z AUTO 00000KT 1 1/4SM BR CLR 04/03 A3004 RMK AO2 $=
202101070235 SPECI KPWT 070235Z AUTO 00000KT 3/4SM BR CLR 03/03 A3003 RMK AO2 $=
202101070156 METAR KPWT 070156Z AUTO 00000KT 1/2SM FG CLR 04/04 A3002 RMK AO2 SLP173 T00440039 $=
202101070148 SPECI KPWT 070148Z AUTO 00000KT 1/2SM FG CLR 04/03 A3003 RMK AO2 VIS 1/4V2 1/2 $=
202101070143 SPECI KPWT 070143Z AUTO 00000KT 1SM BR CLR 04/04 A3003 RMK AO2 $=
202101070131 SPECI KPWT 070131Z AUTO 00000KT 10SM SCT011 04/04 A3003 RMK AO2 $=
202101070056 METAR KPWT 070056Z AUTO 00000KT 10SM BKN011 05/05 A3002 RMK AO2 SLP172 T00500050 $=
202101070054 SPECI KPWT 070054Z AUTO 00000KT 10SM BKN011 05/05 A3002 RMK AO2 $=
202101070005 SPECI KPWT 070005Z AUTO 35004KT 10SM SCT009 07/06 A3000 RMK AO2 $=
202101062356 METAR KPWT 062356Z AUTO 00000KT 10SM BKN009 07/06 A3000 RMK AO2 SLP164 T00720061 10078 20067 55009 $=
202101062312 SPECI KPWT 062312Z AUTO 09005KT 10SM BKN009 07/06 A3000 RMK AO2 $=
202101062256 METAR KPWT 062256Z AUTO 00000KT 10SM SCT007 07/06 A2999 RMK AO2 SLP161 T00720061 $=
202101062156 METAR KPWT 062156Z AUTO 24004KT 10SM OVC007 08/06 A3001 RMK AO2 SLP169 T00780061 $=
202101062056 METAR KPWT 062056Z AUTO 21004KT 10SM OVC007 08/06 A3003 RMK AO2 SLP174 T00780061 $=
202101062031 SPECI KPWT 062031Z AUTO 21007KT 10SM OVC007 08/07 A3003 RMK AO2 $=
202101061956 METAR KPWT 061956Z AUTO 20006KT 10SM OVC005 08/07 A3003 RMK AO2 SLP176 T00780072 $=
202101061944 SPECI KPWT 061944Z AUTO 22007KT 10SM OVC005 07/07 A3004 RMK AO2 $=
202101061856 METAR KPWT 061856Z AUTO 21008KT 10SM OVC003 07/07 A3005 RMK AO2 SLP180 T00720067 $=
202101061756 METAR KPWT 061756Z AUTO 20006KT 10SM OVC003 07/06 RMK AO2 SLPNO T00670061 10067 20061 $=
202101061656 METAR KPWT 061656Z AUTO 23003KT 10SM OVC003 06/06 A3004 RMK AO2 SLP179 T00610056 $=
202101061630 SPECI KPWT 061630Z AUTO 22003KT 10SM BKN003 OVC070 06/06 A3003 RMK AO2 $=
202101061618 SPECI KPWT 061618Z AUTO 19003KT 10SM SCT003 OVC070 06/06 A3003 RMK AO2 $=
202101061556 METAR KPWT 061556Z AUTO 19005KT 10SM OVC080 06/06 A3002 RMK AO2 SLP173 T00610056 $=
202101061527 SPECI KPWT 061527Z AUTO 20006KT 10SM SCT004 OVC085 06/06 A3001 RMK AO2 $=
202101061456 METAR KPWT 061456Z AUTO 19005KT 10SM BKN004 06/06 A3000 RMK AO2 SLP167 T00610061 53009 $=
202101061356 METAR KPWT 061356Z AUTO 20005KT 10SM OVC004 06/06 A2999 RMK AO2 SLP162 T00610061 $=
202101061256 METAR KPWT 061256Z AUTO 20005KT 10SM OVC004 06/06 A2997 RMK AO2 SLP156 T00610061 $=
202101061233 SPECI KPWT 061233Z AUTO 21007KT 10SM BKN004 OVC020 06/06 A2997 RMK AO2 $=
202101061209 SPECI KPWT 061209Z AUTO 21007KT 10SM SCT004 BKN022 06/06 A2998 RMK AO2 $=
202101061156 METAR KPWT 061156Z AUTO 20007KT 10SM OVC022 06/06 A2997 RMK AO2 RAE26 SLP157 P0000 60052 70165 T00610056 10067 20050 51008 $=
202101061122 SPECI KPWT 061122Z AUTO 20004KT 10SM -RA BKN016 OVC021 06/06 A2997 RMK AO2 P0000 $=
202101061115 SPECI KPWT 061115Z AUTO 21005KT 10SM -RA BKN012 BKN019 BKN025 06/06 A2998 RMK AO2 P0000 $=
202101061056 METAR KPWT 061056Z AUTO 20004KT 10SM -RA FEW003 BKN027 BKN034 06/06 A2997 RMK AO2 SLP156 P0010 T00610056 $=
202101061037 SPECI KPWT 061037Z AUTO 21008KT 10SM -RA SCT005 OVC027 06/06 A2998 RMK AO2 P0006 $=
202101061020 SPECI KPWT 061020Z AUTO 23008KT 8SM -RA BKN005 BKN010 OVC023 06/06 A2997 RMK AO2 CIG 003V007 P0005 $=
202101061005 SPECI KPWT 061005Z AUTO 23009KT 10SM RA SCT005 BKN010 OVC022 07/06 A2996 RMK AO2 P0002 $=
202101060956 METAR KPWT 060956Z AUTO 23009KT 9SM -RA BKN005 OVC010 07/06 A2996 RMK AO2 CIG 003V009 SLP153 P0009 T00670061 $=
202101060903 SPECI KPWT 060903Z AUTO 22012KT 10SM -RA BKN005 OVC010 07/06 A2995 RMK AO2 P0001 $=
202101060856 METAR KPWT 060856Z AUTO 22009KT 10SM -RA SCT004 OVC010 07/06 A2995 RMK AO2 CIG 007V015 SLP149 P0006 60033 T00670061 53012 $=
202101060831 SPECI KPWT 060831Z AUTO 23010KT 10SM -RA OVC004 07/06 A2993 RMK AO2 CIG 003V007 P0003 $=
202101060756 METAR KPWT 060756Z AUTO 21010KT 10SM -RA OVC006 07/06 A2992 RMK AO2 CIG 005V009 SLP139 P0015 T00670061 400670044 $=
202101060656 METAR KPWT 060656Z AUTO 20007KT 5SM -RA BR BKN008 BKN030 OVC034 06/06 A2990 RMK AO2 CIG 005V010 SLP131 P0012 T00610056 $=
202101060651 SPECI KPWT 060651Z AUTO 21008KT 6SM -RA BR BKN008 BKN014 OVC034 06/06 A2990 RMK AO2 CIG 005V010 P0011 $=
202101060635 SPECI KPWT 060635Z AUTO 20008KT 7SM -RA SCT005 SCT014 OVC034 06/06 A2989 RMK AO2 P0008 $=
202101060627 SPECI KPWT 060627Z AUTO VRB03KT 4SM -RA BR BKN005 BKN012 OVC036 05/05 A2988 RMK AO2 CIG 003V007 P0007 $=
202101060620 SPECI KPWT 060620Z AUTO 00000KT 2 1/2SM RA BR BKN005 BKN010 OVC036 05/05 A2988 RMK AO2 CIG 003V009 PRESFR P0006 $=
202101060611 SPECI KPWT 060611Z AUTO 00000KT 3SM -RA BR OVC007 05/05 A2990 RMK AO2 CIG 005V009 P0004 $=
202101060556 METAR KPWT 060556Z AUTO 00000KT 2 1/2SM RA BR BKN007 OVC011 05/05 A2991 RMK AO2 VIS 1 1/4V5 CIG 005V010 SLP136 P0016 60053 T00500050 10050 20044 51006 $=
202101060549 SPECI KPWT 060549Z AUTO 00000KT 4SM RA BR BKN007 OVC013 05/05 A2992 RMK AO2 CIG 005V010 P0014 $=
202101060537 SPECI KPWT 060537Z AUTO 00000KT 6SM RA BR OVC014 05/05 A2991 RMK AO2 P0009 $=
202101060456 METAR KPWT 060456Z AUTO 20003KT 7SM -RA BKN023 OVC030 05/05 A2991 RMK AO2 SLP134 P0012 T00500050 TSNO $=
202101060356 METAR KPWT 060356Z AUTO 22003KT 9SM -RA FEW030 OVC041 05/05 A2991 RMK AO2 SLP135 P0011 T00500050 $=
202101060256 METAR KPWT 060256Z AUTO 24005KT 5SM -RA BR OVC041 04/04 A2989 RMK AO2 SLP130 P0004 60014 T00440044 56018 $=
202101060156 METAR KPWT 060156Z AUTO 25003KT 10SM -RA OVC043 04/04 A2991 RMK AO2 SLP136 P0005 T00440039 $=
202101060056 METAR KPWT 060056Z AUTO 23004KT 9SM -RA FEW004 BKN035 OVC045 04/04 A2992 RMK AO2 SLP138 P0005 T00440039 $=
202101060045 SPECI KPWT 060045Z AUTO 26004KT 10SM -RA SCT004 BKN009 OVC045 04/04 A2992 RMK AO2 CIG 007V014 P0004 $=
202101060031 SPECI KPWT 060031Z AUTO 26004KT 9SM -RA BKN004 OVC007 05/04 A2993 RMK AO2 P0004 $=
202101052356 METAR KPWT 052356Z AUTO 27004KT 7SM -RA OVC007 05/05 A2995 RMK AO2 SLP148 P0013 60059 T00500050 10067 20050 56033 $=
202101052340 SPECI KPWT 052340Z AUTO 28005KT 7SM -RA OVC007 06/05 A2996 RMK AO2 CIG 004V011 P0009 $=
202101052326 SPECI KPWT 052326Z AUTO 28003KT 7SM -RA BKN005 BKN009 OVC020 06/05 A2996 RMK AO2 P0006 $=
202101052256 METAR KPWT 052256Z AUTO 26003KT 7SM -RA BKN007 BKN014 OVC022 06/05 A2998 RMK AO2 CIG 005V011 SLP158 P0012 T00560050 $=
202101052156 METAR KPWT 052156Z AUTO 20005KT 6SM -RA BR BKN009 OVC023 06/05 A3000 RMK AO2 CIG 006V012 SLP165 P0010 T00560050 $=
202101052142 SPECI KPWT 052142Z AUTO VRB06KT 7SM -RA BKN009 BKN013 OVC025 06/05 A3001 RMK AO2 CIG 006V010 P0009 $=
202101052125 SPECI KPWT 052125Z AUTO 20007KT 6SM -RA BR FEW009 SCT019 OVC025 06/04 A3002 RMK AO2 P0006 $=
202101052053 METAR KPWT 052053Z AUTO 19010KT 7SM -RA OVC015 06/04 A3005 RMK AO2 CIG 008V019 SLP182 P0013 60024 T00560044 55011 $=
202101052052 SPECI KPWT 052052Z AUTO 19011KT 7SM -RA FEW009 OVC015 06/04 A3005 RMK AO2 P0013 $=
202101051956 METAR KPWT 051956Z AUTO 20012G18KT 9SM -RA OVC024 06/04 A3005 RMK AO2 SLP181 P0011 T00560044 $=
202101051943 SPECI KPWT 051943Z AUTO 20012G17KT 7SM -RA OVC028 06/04 A3005 RMK AO2 P0008 $=
202101051856 METAR KPWT 051856Z AUTO 19007KT 10SM -RA OVC039 06/04 A3004 RMK AO2 RAB05 SLP181 P0000 T00610044 $=
202101051756 METAR KPWT 051756Z AUTO 19007G14KT 10SM BKN041 06/04 A3008 RMK AO2 SLP193 60001 T00610044 10061 20050 50001 $=
202101051656 METAR KPWT 051656Z AUTO 20007KT 10SM FEW013 OVC041 06/04 A3010 RMK AO2 SLP199 T00560044 $=
202101051646 SPECI KPWT 051646Z AUTO 20006KT 10SM FEW010 OVC043 06/04 A3010 RMK AO2 $=
202101051620 SPECI KPWT 051620Z AUTO 22006KT 10SM BKN012 BKN045 05/04 A3010 RMK AO2 $=
202101051556 METAR KPWT 051556Z AUTO 20007KT 10SM CLR 05/04 A3009 RMK AO2 SLP196 T00500044 $=
202101051456 METAR KPWT 051456Z AUTO 18009KT 10SM BKN036 BKN045 OVC050 05/04 A3008 RMK AO2 SLP192 60001 T00500044 55000 $=
202101051407 SPECI KPWT 051407Z AUTO 18010KT 10SM SCT008 SCT019 OVC038 06/04 A3006 RMK AO2 $=
202101051356 METAR KPWT 051356Z AUTO 19009KT 10SM BKN006 OVC036 06/04 A3006 RMK AO2 CIG 005V010 SLP187 T00560044 $=
202101051256 METAR KPWT 051256Z AUTO 18007G16KT 10SM OVC006 06/05 A3008 RMK AO2 RAB19E48 CIG 004V011 SLP192 P0001 T00560050 $=
202101051156 METAR KPWT 051156Z AUTO 18005KT 10SM BKN006 OVC024 06/05 A3008 RMK AO2 CIG 004V010 SLP191 70062 T00560050 10061 20044 53001 $=
202101051152 SPECI KPWT 051152Z AUTO 18007KT 10SM BKN006 OVC024 06/05 A3008 RMK AO2 CIG 004V010 $=
202101051128 SPECI KPWT 051128Z AUTO 18004KT 10SM OVC004 06/05 A3007 RMK AO2 $=
202101051056 METAR KPWT 051056Z AUTO 20008KT 10SM BKN006 OVC020 06/05 A3007 RMK AO2 CIG 004V010 SLP187 T00560050 $=
202101051042 SPECI KPWT 051042Z AUTO 20008KT 10SM BKN006 BKN018 BKN024 06/05 A3007 RMK AO2 $=
202101051011 SPECI KPWT 051011Z AUTO 21007KT 9SM BKN004 OVC013 06/05 A3007 RMK AO2 $=
202101050956 METAR KPWT 050956Z AUTO 22009KT 10SM BKN006 OVC015 06/05 A3007 RMK AO2 SLP190 T00560050 $=
202101050940 SPECI KPWT 050940Z AUTO 21008KT 10SM BKN006 BKN010 OVC032 06/05 A3007 RMK AO2 $=
202101050919 SPECI KPWT 050919Z AUTO 20009KT 10SM SCT006 BKN012 06/05 A3005 RMK AO2 $=
202101050856 METAR KPWT 050856Z AUTO 19007KT 10SM FEW006 06/05 A3005 RMK AO2 SLP181 T00560050 51021 $=
202101050814 SPECI KPWT 050814Z AUTO 20010KT 10SM SCT007 06/05 A3003 RMK AO2 $=
202101050756 METAR KPWT 050756Z AUTO 21009KT 10SM OVC007 06/05 A3002 RMK AO2 CIG 004V009 SLP171 T00560050 400890044 $=
202101050753 SPECI KPWT 050753Z AUTO 21008KT 10SM OVC007 06/05 A3002 RMK AO2 CIG 004V009 400890044 $=
202101050737 SPECI KPWT 050737Z AUTO 20009G16KT 10SM BKN005 OVC010 06/05 A3001 RMK AO2 CIG 004V008 $=
202101050656 METAR KPWT 050656Z AUTO 21006KT 10SM BKN007 OVC010 05/04 A2999 RMK AO2 CIG 005V010 SLP160 T00500044 $=
202101050647 SPECI KPWT 050647Z AUTO 21006KT 10SM BKN006 BKN010 05/04 A2998 RMK AO2 CIG 005V009 $=
202101050640 SPECI KPWT 050640Z AUTO 20005KT 10SM BKN010 04/04 A2997 RMK AO2 CIG 005V012 $=
202101050556 METAR KPWT 050556Z AUTO 19005KT 10SM CLR 05/04 A2994 RMK AO2 SLP143 T00500039 10072 20044 53035 $=
202101050456 METAR KPWT 050456Z AUTO 20008KT 10SM SCT006 05/04 A2990 RMK AO2 SLP129 T00500044 $=
202101050432 SPECI KPWT 050432Z AUTO 20009KT 10SM BKN008 06/05 A2988 RMK AO2 CIG 005V010 $=
202101050421 SPECI KPWT 050421Z AUTO 20008KT 10SM SCT008 05/04 A2988 RMK AO2 $=
202101050356 METAR KPWT 050356Z AUTO 21012KT 10SM BKN008 06/05 A2986 RMK AO2 CIG 006V011 SLP118 T00560050 $=
202101050346 SPECI KPWT 050346Z AUTO 20010KT 10SM BKN010 06/05 A2986 RMK AO2 CIG 007V012 $=
202101050256 METAR KPWT 050256Z AUTO 20010KT 10SM CLR 06/04 A2983 RMK AO2 SLP108 T00560044 51034 $=
202101050156 METAR KPWT 050156Z AUTO 20011G19KT 10SM FEW090 07/06 A2980 RMK AO2 SLP098 T00670056 $=
202101050056 METAR KPWT 050056Z AUTO 19011KT 10SM CLR 07/06 A2976 RMK AO2 SLP084 T00670056 $=
202101042356 METAR KPWT 042356Z AUTO 21013KT 10SM CLR 07/06 A2973 RMK AO2 SLP074 60011 T00720056 10089 20072 51043 $=
202101042256 METAR KPWT 042256Z AUTO 20010KT 10SM CLR 08/06 A2969 RMK AO2 SLP059 T00780061 $=
202101042156 METAR KPWT 042156Z AUTO 22009KT 10SM CLR 08/06 A2965 RMK AO2 SLP046 T00780056 $=
202101042131 SPECI KPWT 042131Z AUTO 23007KT 10SM SCT017 08/06 A2964 RMK AO2 $=
202101042106 SPECI KPWT 042106Z AUTO VRB04KT 10SM BKN019 08/06 A2961 RMK AO2 PRESRR $=
202101042056 METAR KPWT 042056Z AUTO 00000KT 10SM SCT019 08/06 A2960 RMK AO2 PRESRR SLP029 60011 T00830061 53039 $=
202101042011 SPECI KPWT 042011Z AUTO 22013G17KT 10SM SCT011 SCT120 07/06 A2954 RMK AO2 $=
202101041956 METAR KPWT 041956Z AUTO 22011G19KT 10SM BKN011 07/06 A2953 RMK AO2 RAE23 SLP005 P0001 T00720061 $=
202101041946 SPECI KPWT 041946Z AUTO 21014G19KT 10SM BKN011 07/06 A2953 RMK AO2 RAE23 CIG 009V014 P0001 $=
202101041920 SPECI KPWT 041920Z AUTO 21014G20KT 10SM -RA SCT006 SCT011 08/07 A2951 RMK AO2 P0001 $=
202101041856 METAR KPWT 041856Z AUTO 20011KT 10SM -RA OVC006 09/08 A2951 RMK AO2 CIG 004V011 SLP999 P0010 T00890083 $=
202101041829 SPECI KPWT 041829Z AUTO 20011G15KT 6SM -RA BR SCT006 BKN009 OVC021 09/08 A2950 RMK AO2 P0009 $=
202101041822 SPECI KPWT 041822Z AUTO 20008KT 7SM -RA FEW005 BKN011 OVC021 09/08 A2949 RMK AO2 CIG 008V013 P0008 $=
202101041756 METAR KPWT 041756Z AUTO 28007KT 5SM -RA BR FEW008 BKN021 OVC026 08/08 A2949 RMK AO2 SLP990 P0005 60051 T00830078 10083 20067 55008 $=
202101041734 SPECI KPWT 041734Z AUTO 00000KT 8SM -RA BKN026 08/08 A2947 RMK AO2 P0002 $=
202101041656 METAR KPWT 041656Z AUTO 08003KT 9SM -RA SCT025 08/08 A2947 RMK AO2 SLP986 P0009 T00780078 $=
202101041632 SPECI KPWT 041632Z AUTO 00000KT 9SM -RA SCT025 OVC029 08/08 A2948 RMK AO2 P0005 $=
202101041556 METAR KPWT 041556Z AUTO 22003KT 6SM -RA BR OVC031 08/08 A2950 RMK AO2 SLP993 P0007 T00830078 $=
202101041539 SPECI KPWT 041539Z AUTO VRB03KT 9SM -RA OVC031 08/08 A2950 RMK AO2 P0004 $=
202101041521 SPECI KPWT 041521Z AUTO VRB03KT 7SM -RA BKN029 OVC039 08/08 A2950 RMK AO2 P0003 $=
202101041456 METAR KPWT 041456Z AUTO 00000KT 5SM -RA BR SCT006 BKN036 OVC045 08/08 A2951 RMK AO2 SLP998 P0010 60030 T00830078 56035 $=
202101041441 SPECI KPWT 041441Z AUTO VRB04KT 5SM -RA BR SCT006 BKN035 OVC043 08/08 A2953 RMK AO2 P0008 $=
202101041356 METAR KPWT 041356Z AUTO VRB04KT 6SM -RA BR FEW006 BKN022 OVC028 08/08 A2955 RMK AO2 SLP010 P0009 T00780078 $=
202101041320 SPECI KPWT 041320Z AUTO 20004KT 8SM -RA FEW006 BKN028 OVC041 08/07 A2956 RMK AO2 P0003 $=
202101041256 METAR KPWT 041256Z AUTO VRB05KT 9SM -RA FEW025 OVC036 08/07 A2957 RMK AO2 SLP017 P0011 T00780072 $=
202101041245 SPECI KPWT 041245Z AUTO 15005KT 5SM -RA BR SCT025 OVC037 08/07 A2957 RMK AO2 PRESFR P0010 $=
202101041226 SPECI KPWT 041226Z AUTO 20005KT 5SM -RA BR SCT005 BKN027 OVC043 07/07 A2960 RMK AO2 P0005 $=
202101041204 SPECI KPWT 041204Z AUTO 00000KT 5SM -RA BR BKN005 BKN012 OVC025 07/06 A2961 RMK AO2 CIG 002V008 P0002 $=
202101041156 METAR KPWT 041156Z AUTO 22003KT 7SM -RA SCT003 BKN013 OVC025 07/06 A2962 RMK AO2 SLP034 P0008 60058 70082 T00670061 10067 20056 56038 $=
202101041145 SPECI KPWT 041145Z AUTO 25003KT 6SM -RA BR FEW003 BKN013 OVC032 07/07 A2963 RMK AO2 P0006 $=
202101041056 METAR KPWT 041056Z AUTO 23005KT 10SM -RA OVC024 07/06 A2965 RMK AO2 SLP045 P0005 T00670061 $=
202101040956 METAR KPWT 040956Z AUTO 00000KT 6SM -RA BR OVC026 06/06 A2967 RMK AO2 SLP053 P0009 T00610061 $=
202101040912 SPECI KPWT 040912Z AUTO 00000KT 5SM -RA BR SCT004 OVC028 06/06 A2971 RMK AO2 P0002 $=
202101040856 METAR KPWT 040856Z AUTO 00000KT 5SM -RA BR BKN004 BKN009 OVC028 06/06 A2973 RMK AO2 SLP072 P0013 60036 T00610061 58041 $=
202101040854 SPECI KPWT 040854Z AUTO 00000KT 5SM -RA BR BKN004 BKN009 OVC028 06/06 A2973 RMK AO2 P0012 $=
202101040836 SPECI KPWT 040836Z AUTO 00000KT 5SM -RA BR FEW009 BKN028 OVC033 06/06 A2974 RMK AO2 PRESFR P0009 $=
202101040819 SPECI KPWT 040819Z AUTO 00000KT 4SM -RA BR SCT009 OVC032 06/06 A2976 RMK AO2 P0005 $=
202101040756 METAR KPWT 040756Z AUTO 00000KT 7SM -RA OVC034 06/06 A2978 RMK AO2 SLP089 P0011 T00610056 400890022 $=
202101040656 METAR KPWT 040656Z AUTO 03005KT 4SM -RA BR SCT028 OVC037 06/06 A2981 RMK AO2 PRESFR SLP102 P0012 T00610061 $=
202101040647 SPECI KPWT 040647Z AUTO 02003KT 4SM RA BR SCT028 OVC035 06/06 A2983 RMK AO2 PRESFR P0010 $=
202101040639 SPECI KPWT 040639Z AUTO 00000KT 2 1/2SM RA BR SCT029 OVC036 06/06 A2984 RMK AO2 VIS 1 3/4V5 P0008 $=
202101040556 METAR KPWT 040556Z AUTO 00000KT 6SM -RA BR OVC039 06/06 A2985 RMK AO2 RAB35 SLP115 P0001 60001 T00560056 10078 20050 56031 $=
202101040459 SPECI KPWT 040459Z AUTO 00000KT 4SM BR BKN043 OVC050 05/05 A2988 RMK AO2 $=
202101040456 METAR KPWT 040456Z AUTO 00000KT 1 1/2SM BR BKN043 OVC050 05/05 A2988 RMK AO2 SLP125 T00500050 $=
202101040443 SPECI KPWT 040443Z AUTO 00000KT 1SM BR BKN050 05/05 A2988 RMK AO2 $=
202101040433 SPECI KPWT 040433Z AUTO 00000KT 1 3/4SM BR FEW050 05/05 A2989 RMK AO2 VIS 3/4V5 $=
202101040356 METAR KPWT 040356Z AUTO 05003KT 10SM FEW032 06/05 A2990 RMK AO2 SLP133 T00560050 $=
202101040321 SPECI KPWT 040321Z AUTO 00000KT 10SM OVC030 07/06 A2993 RMK AO2 $=
202101040256 METAR KPWT 040256Z AUTO 00000KT 10SM OVC026 07/07 A2994 RMK AO2 SLP147 T00720067 58010 $=
202101040214 SPECI KPWT 040214Z AUTO 18007KT 10SM BKN028 OVC034 07/06 A2996 RMK AO2 $=
202101040156 METAR KPWT 040156Z AUTO 19006KT 10SM BKN030 OVC036 07/06 A2997 RMK AO2 SLP154 T00720061 $=
202101040141 SPECI KPWT 040141Z AUTO 18005KT 10SM FEW007 BKN030 OVC041 07/07 A2997 RMK AO2 $=
202101040123 SPECI KPWT 040123Z AUTO 18005KT 10SM SCT007 BKN025 OVC041 07/07 A2997 RMK AO2 $=
202101040056 METAR KPWT 040056Z AUTO 17007KT 10SM BKN007 07/07 A2997 RMK AO2 SLP156 T00720067 $=
202101040045 SPECI KPWT 040045Z AUTO 18007KT 10SM BKN007 07/07 A2997 RMK AO2 $=
202101040033 SPECI KPWT 040033Z AUTO 18009KT 10SM SCT007 07/07 A2997 RMK AO2 $=
202101040011 SPECI KPWT 040011Z AUTO 18008KT 10SM BKN009 BKN014 BKN023 08/07 A2998 RMK AO2 $=
202101040004 SPECI KPWT 040004Z AUTO 19009KT 10SM SCT009 SCT014 BKN025 08/07 A2997 RMK AO2 $=
202101032356 METAR KPWT 032356Z AUTO 19008KT 10SM FEW009 BKN014 BKN025 08/07 A2998 RMK AO2 SLP157 60001 T00780067 10089 20056 50008 $=
202101032351 SPECI KPWT 032351Z AUTO 18010KT 10SM SCT009 BKN016 BKN022 08/07 A2998 RMK AO2 $=
202101032316 SPECI KPWT 032316Z AUTO 18010KT 10SM BKN009 BKN021 OVC033 08/07 A2997 RMK AO2 CIG 007V013 $=
202101032256 METAR KPWT 032256Z AUTO 19010G16KT 10SM FEW016 BKN026 OVC033 08/07 A2997 RMK AO2 SLP154 T00830067 $=
202101032156 METAR KPWT 032156Z AUTO 18009G15KT 10SM FEW016 BKN028 OVC036 09/07 A2995 RMK AO2 RAB04E17 SLP148 P0000 T00890072 $=
202101032144 SPECI KPWT 032144Z AUTO 19010KT 10SM SCT018 BKN027 08/08 A2995 RMK AO2 RAB04E17 P0000 $=
202101032119 SPECI KPWT 032119Z AUTO 21010KT 10SM FEW010 SCT019 08/07 A2994 RMK AO2 RAB04E17 P0000 $=
202101032105 SPECI KPWT 032105Z AUTO 21014KT 9SM -RA FEW007 SCT012 BKN019 08/07 A2993 RMK AO2 RAB04 P0000 $=
202101032056 METAR KPWT 032056Z AUTO 21014KT 10SM SCT007 BKN012 BKN019 08/07 A2993 RMK AO2 RAB27E47 SLP143 P0000 60001 T00780067 50005 $=
202101032047 SPECI KPWT 032047Z AUTO 21013G22KT 10SM SCT007 BKN011 OVC023 08/07 A2993 RMK AO2 RAB27E47 P0000 $=
202101031956 METAR KPWT 031956Z AUTO 19010KT 10SM BKN007 OVC014 07/07 A2994 RMK AO2 CIG 006V010 SLP143 T00720067 $=
202101031933 SPECI KPWT 031933Z AUTO 19010G16KT 10SM OVC007 07/07 A2994 RMK AO2 CIG 005V011 $=
202101031856 METAR KPWT 031856Z AUTO 19012G17KT 10SM OVC005 06/06 A2993 RMK AO2 RAE34 SLP143 P0001 T00610061 $=
202101031756 METAR KPWT 031756Z AUTO 17008KT 10SM -RA BKN005 OVC012 06/05 A2992 RMK AO2 CIG 003V008 SLP139 P0008 60022 T00560050 10056 20039 53017 $=
202101031656 METAR KPWT 031656Z AUTO 20011G17KT 8SM -RA BKN005 OVC011 05/05 A2991 RMK AO2 CIG 004V008 SLP133 P0012 T00500050 $=
202101031615 SPECI KPWT 031615Z AUTO 21012KT 6SM -RA BR BKN005 BKN010 OVC021 05/04 A2990 RMK AO2 CIG 004V009 P0003 $=
202101031603 SPECI KPWT 031603Z AUTO 7SM -RA SCT003 BKN015 OVC027 05/04 A2988 RMK AO2 P0001 $=
202101031556 METAR KPWT 031556Z AUTO 18007G14KT 10SM -RA BKN003 BKN009 OVC016 05/04 A2988 RMK AO2 RAE1457B19 SLP124 P0001 T00500044 $=
202101031456 METAR KPWT 031456Z AUTO 19008KT 10SM -RA BKN003 OVC009 04/04 A2987 RMK AO2 RAE01B17 SLP120 P0001 60001 T00440044 53004 $=
202101031454 SPECI KPWT 031454Z AUTO 19007KT 10SM -RA BKN003 OVC009 04/04 A2987 RMK AO2 RAE01B17 P0001 $=
202101031356 METAR KPWT 031356Z AUTO 18005KT 10SM -RA BKN007 BKN024 OVC034 04/04 A2986 RMK AO2 RAB24 CIG 004V011 SLP116 P0000 T00440039 $=
202101031352 SPECI KPWT 031352Z AUTO 18007KT 10SM -RA BKN007 BKN024 OVC034 04/04 A2986 RMK AO2 RAB24 CIG 004V011 P0000 $=
202101031338 SPECI KPWT 031338Z AUTO 18007KT 10SM -RA BKN005 OVC034 04/04 A2986 RMK AO2 RAB24 CIG 002V011 P0000 $=
202101031256 METAR KPWT 031256Z AUTO 20005KT 8SM OVC003 04/04 A2984 RMK AO2 SLP112 T00390039 $=
202101031156 METAR KPWT 031156Z AUTO 21003KT 10SM OVC003 04/03 A2982 RMK AO2 CIG 002V006 SLP103 60014 70226 T00390033 10061 20022 51036 $=
202101031129 SPECI KPWT 031129Z AUTO 00000KT 9SM OVC005 03/03 A2980 RMK AO2 $=
202101031117 SPECI KPWT 031117Z AUTO 00000KT 10SM BKN007 BKN036 02/02 A2980 RMK AO2 FZRANO $=
202101031108 SPECI KPWT 031108Z AUTO 00000KT 10SM SCT007 SCT036 02/02 A2980 RMK AO2 FZRANO $=
202101031056 METAR KPWT 031056Z AUTO 00000KT 10SM FEW036 03/02 A2979 RMK AO2 SLP094 T00280022 $=
202101030956 METAR KPWT 030956Z AUTO 00000KT 10SM FEW007 04/03 A2975 RMK AO2 SLP082 T00390033 $=
202101030941 SPECI KPWT 030941Z AUTO 06003KT 10SM FEW007 04/03 A2975 RMK AO2 $=
202101030905 SPECI KPWT 030905Z AUTO 12004KT 10SM FEW018 04/04 A2971 RMK AO2 $=
202101030856 METAR KPWT 030856Z AUTO 11008KT 10SM FEW009 BKN018 04/04 A2971 RMK AO2 RAE47 SLP067 P0004 60014 T00440039 50015 $=
202101030851 SPECI KPWT 030851Z AUTO 11005KT 10SM FEW009 BKN015 BKN021 04/04 A2972 RMK AO2 RAE47 P0004 $=
202101030819 SPECI KPWT 030819Z AUTO 07005KT 4SM -RA BR BKN007 OVC013 06/05 A2971 RMK AO2 CIG 004V010 P0003 $=
202101030804 SPECI KPWT 030804Z AUTO 06005KT 7SM -RA OVC011 06/05 A2970 RMK AO2 P0001 $=
202101030756 METAR KPWT 030756Z AUTO 00000KT 9SM -RA BKN008 OVC013 06/05 A2970 RMK AO2 CIG 006V012 SLP062 P0003 T00560050 400890056 $=
202101030656 METAR KPWT 030656Z AUTO 14004KT 10SM -RA OVC006 06/05 A2967 RMK AO2 SLP051 P0007 T00560050 $=
202101030556 METAR KPWT 030556Z AUTO 22008KT 8SM -RA BKN006 OVC031 06/06 A2965 RMK AO2 CIG 004V008 SLP045 P0010 60086 T00610056 10089 20061 53015 $=
202101030523 SPECI KPWT 030523Z AUTO 22008KT 10SM -RA BKN006 BKN032 OVC044 07/07 A2964 RMK AO2 CIG 005V011 P0004 $=
202101030456 METAR KPWT 030456Z AUTO 21006KT 10SM -RA FEW008 SCT032 OVC044 07/07 A2963 RMK AO2 SLP040 P0009 T00720067 $=
202101030432 SPECI KPWT 030432Z AUTO 22008KT 10SM -RA SCT006 SCT027 BKN034 08/07 A2963 RMK AO2 P0005 $=
202101030356 METAR KPWT 030356Z AUTO 21011KT 10SM -RA OVC008 08/08 A2962 RMK AO2 CIG 005V011 SLPNO P0011 T00830078 $=
202101030325 SPECI KPWT 030325Z AUTO 20012KT 10SM -RA BKN006 OVC031 09/08 A2961 RMK AO2 CIG 004V011 P0006 $=
202101030308 SPECI KPWT 030308Z AUTO 19013KT 10SM -RA SCT006 BKN017 OVC036 09/08 A2960 RMK AO2 P0002 $=
202101030256 METAR KPWT 030256Z AUTO 19016G22KT 7SM RA BKN006 BKN011 OVC033 09/08 A2960 RMK AO2 CIG 005V010 SLPNO P0019 60056 T00890083 55008 $=
202101030156 METAR KPWT 030156Z AUTO 19016G28KT 6SM -RA BR OVC006 09/08 A2960 RMK AO2 PK WND 20030/0143 CIG 005V009 SLPNO P0019 T00890083 $=
202101030056 METAR KPWT 030056Z AUTO 19014G24KT 5SM -RA BR OVC006 08/08 A2961 RMK AO2 PK WND 16029/0034 CIG 005V010 SLPNO P0018 T00830083 $=
202101022356 METAR KPWT 022356Z AUTO 19014G25KT 8SM -RA OVC006 08/08 A2963 RMK AO2 PK WND 21028/2339 SLP037 P0018 60085 T00830078 10083 20078 58019 $=
202101022256 METAR KPWT 022256Z AUTO 20016G22KT 6SM -RA BR OVC008 08/08 A2965 RMK AO2 PK WND 19026/2201 SLP045 P0020 T00830078 $=
202101022156 METAR KPWT 022156Z AUTO 20018G28KT 5SM -RA BR OVC008 08/07 A2967 RMK AO2 PK WND 20029/2124 CIG 005V012 SLP051 P0015 T00780072 $=
202101022056 METAR KPWT 022056Z AUTO 19016G25KT 10SM -RA OVC006 08/07 A2969 RMK AO2 PK WND 19028/2000 CIG 005V011 SLP058 P0010 60032 T00780072 56038 $=
202101021956 METAR KPWT 021956Z AUTO 20015G28KT 10SM -RA OVC006 08/07 A2971 RMK AO2 PK WND 17028/1948 SLP065 P0011 T00780072 $=
202101021856 METAR KPWT 021856Z AUTO 19016G24KT 10SM -RA OVC006 08/07 A2976 RMK AO2 CIG 005V011 SLP082 P0011 T00780072 $=
202101021756 METAR KPWT 021756Z AUTO 20013G18KT 10SM -RA BKN006 BKN021 OVC036 08/07 A2980 RMK AO2 CIG 004V010 SLP096 P0011 60041 T00780072 56015 $=
202101021656 METAR KPWT 021656Z AUTO 21014G24KT 7SM -RA OVC008 08/07 A2981 RMK AO2 PK WND 19026/1624 CIG 005V011 SLP100 P0012 T00780072 $=
202101021556 METAR KPWT 021556Z AUTO 19013G19KT 10SM -RA BKN006 OVC011 A2981 RMK AO2 CIG 004V010 SLPNO P0007 FZRANO $=
202101021503 SPECI KPWT 021503Z AUTO 20013G19KT 10SM -RA OVC006 A2983 RMK AO2 CIG 004V009 P0001 FZRANO $=
202101021456 METAR KPWT 021456Z AUTO 19013G22KT 10SM -RA BKN004 OVC010 A2984 RMK AO2 SLPNO P0006 60011 53010 FZRANO $=
202101021356 METAR KPWT 021356Z AUTO 20013G23KT 10SM -RA OVC004 A2982 RMK AO2 RAB02UPB37E39 SLPNO P0003 FZRANO $=
202101021256 METAR KPWT 021256Z AUTO 19010G18KT 10SM OVC004 A2982 RMK AO2 RAE52 SLPNO P0002 FZRANO $=
202101021245 SPECI KPWT 021245Z AUTO 20011KT 10SM -RA OVC004 A2982 RMK AO2 P0002 FZRANO $=
202101021156 METAR KPWT 021156Z AUTO 22012KT 10SM -RA OVC006 08/ A2982 RMK AO2 CIG 004V010 SLP101 P0006 60028 70078 T0078 10078 20078 56004 $=
202101021056 METAR KPWT 021056Z AUTO 19014G19KT 10SM -RA OVC006 08/07 A2982 RMK AO2 CIG 004V011 SLP101 P0006 T00780072 $=
202101020956 METAR KPWT 020956Z AUTO 19015G20KT 10SM -RA OVC004 08/07 A2982 RMK AO2 SLP103 P0002 T00780072 $=
202101020856 METAR KPWT 020856Z AUTO 19013KT 8SM -RA OVC004 08/07 A2983 RMK AO2 SLP105 P0008 60014 T00780072 50011 $=
202101020844 SPECI KPWT 020844Z AUTO 19014G19KT 7SM -RA OVC004 08/07 A2983 RMK AO2 P0008 $=
202101020756 METAR KPWT 020756Z AUTO 19013G21KT 7SM -RA OVC006 08/07 A2983 RMK AO2 CIG 004V009 SLP106 P0003 T00780072 400940072 $=
202101020656 METAR KPWT 020656Z AUTO 19011G18KT 10SM -RA OVC004 08/07 A2981 RMK AO2 RAB08 SLP100 P0003 T00780072 $=
202101020556 METAR KPWT 020556Z AUTO 20011KT 10SM OVC004 08/08 A2980 RMK AO2 SLP094 60014 T00780078 10094 20078 53001 $=
202101020456 METAR KPWT 020456Z AUTO 19010G16KT 10SM OVC004 08/08 A2979 RMK AO2 RAE06 CIG 003V008 SLP093 P0000 T00830078 $=
202101020454 SPECI KPWT 020454Z AUTO 19011G17KT 10SM OVC004 08/08 A2979 RMK AO2 RAE06 P0000 $=
202101020438 SPECI KPWT 020438Z AUTO 20012G18KT 10SM BKN006 OVC012 08/08 A2979 RMK AO2 RAE06 CIG 004V008 P0000 $=
202101020431 SPECI KPWT 020431Z AUTO 20011G18KT 10SM FEW004 BKN010 OVC018 08/08 A2979 RMK AO2 RAE06 CIG 006V012 P0000 $=
202101020356 METAR KPWT 020356Z AUTO 20011G20KT 10SM -RA BKN006 OVC010 08/08 A2979 RMK AO2 RAB04 CIG 003V009 SLP094 P0009 T00830078 $=
202101020313 SPECI KPWT 020313Z AUTO 20011G17KT 4SM RA BR OVC004 08/08 A2979 RMK AO2 RAB04 CIG 003V008 P0003 $=
202101020256 METAR KPWT 020256Z AUTO 20009G16KT 10SM BKN006 OVC011 08/08 A2978 RMK AO2 RAB24E56 CIG 004V010 SLP089 P0003 60005 T00830083 53015 $=
202101020224 SPECI KPWT 020224Z AUTO 20013G19KT 8SM -RA OVC008 09/08 A2978 RMK AO2 RAB24 CIG 005V011 P0000 $=
202101020156 METAR KPWT 020156Z AUTO 20012KT 10SM FEW007 BKN011 OVC017 09/08 A2976 RMK AO2 RAE19 SLP081 P0001 T00890078 $=
202101020141 SPECI KPWT 020141Z AUTO 20013G20KT 10SM SCT007 OVC013 09/08 A2975 RMK AO2 RAE19 P0001 $=
202101020110 SPECI KPWT 020110Z AUTO 21013G23KT 9SM -RA BKN009 BKN015 OVC021 09/08 A2975 RMK AO2 CIG 005V010 P0001 $=
202101020056 METAR KPWT 020056Z AUTO 19013KT 10SM -RA FEW009 SCT013 OVC018 09/08 A2974 RMK AO2 SLP075 P0001 T00890083 $=
202101020052 SPECI KPWT 020052Z AUTO 19011KT 10SM -RA FEW009 BKN018 OVC024 09/08 A2974 RMK AO2 CIG 011V021 P0001 $=
202101012356 METAR KPWT 012356Z AUTO 22015G22KT 10SM -RA OVC007 09/09 A2972 RMK AO2 CIG 003V009 SLP068 P0006 60023 T00940089 10094 20083 53010 $=
202101012340 SPECI KPWT 012340Z AUTO 23012KT 10SM -RA BKN005 OVC008 09/09 A2971 RMK AO2 CIG 003V008 P0004 $=
202101012256 METAR KPWT 012256Z AUTO 20016G24KT 10SM -RA BKN008 09/09 A2969 RMK AO2 CIG 005V010 SLP057 P0006 T00940089 $=
202101012200 SPECI KPWT 012200Z AUTO 22010KT 7SM -RA BKN006 BKN011 OVC023 09/09 A2969 RMK AO2 CIG 004V008 P0001 $=
202101012156 METAR KPWT 012156Z AUTO 21012KT 9SM -RA SCT006 OVC023 09/09 A2969 RMK AO2 SLP057 P0004 T00940089 $=
202101012154 SPECI KPWT 012154Z AUTO 21010KT 9SM -RA SCT006 BKN023 OVC046 09/09 A2969 RMK AO2 P0004 $=
202101012143 SPECI KPWT 012143Z AUTO 22010KT 5SM -RA BR BKN021 BKN030 OVC048 09/09 A2969 RMK AO2 P0003 $=
202101012130 SPECI KPWT 012130Z AUTO 22007KT 10SM -RA FEW007 SCT023 OVC048 09/09 A2969 RMK AO2 P0001 $=
202101012056 METAR KPWT 012056Z AUTO 19005KT 7SM -RA FEW007 OVC021 09/08 A2972 RMK AO2 RAB20 SLP069 P0003 60007 T00890083 57018 $=
202101012054 SPECI KPWT 012054Z AUTO 21006KT 6SM -RA BR FEW007 OVC021 09/08 A2972 RMK AO2 RAB20 P0002 $=
202101012018 SPECI KPWT 012018Z AUTO 21007KT 10SM BKN021 OVC036 09/08 A2975 RMK AO2 PRESFR $=
202101011956 METAR KPWT 011956Z AUTO 21007KT 10SM FEW007 OVC036 09/08 A2977 RMK AO2 RAE55 PRESFR SLP086 P0003 T00890083 $=
202101011954 SPECI KPWT 011954Z AUTO 21008KT 10SM -RA SCT007 OVC036 09/08 A2977 RMK AO2 PRESFR P0003 $=
202101011918 SPECI KPWT 011918Z AUTO 21011KT 10SM -RA BKN007 OVC014 09/08 A2981 RMK AO2 CIG 005V011 P0002 $=
202101011856 METAR KPWT 011856Z AUTO 21011KT 4SM -RA BR FEW009 BKN013 OVC018 09/08 A2983 RMK AO2 RAB41 SLP106 P0001 T00890083 $=
202101011837 SPECI KPWT 011837Z AUTO 22010KT 10SM SCT010 OVC017 09/08 A2985 RMK AO2 $=
202101011806 SPECI KPWT 011806Z AUTO 21011KT 10SM SCT009 BKN014 OVC031 08/08 A2987 RMK AO2 $=
202101011756 METAR KPWT 011756Z AUTO 22011KT 10SM SCT009 BKN016 OVC031 08/08 A2987 RMK AO2 SLP121 60013 T00830078 10083 20072 56018 $=
202101011738 SPECI KPWT 011738Z AUTO 22011KT 10SM SCT009 OVC016 08/08 A2987 RMK AO2 $=
202101011656 METAR KPWT 011656Z AUTO 21010KT 10SM BKN009 OVC014 08/07 A2988 RMK AO2 RAE15 CIG 005V011 SLP125 P0001 T00780072 $=
202101011639 SPECI KPWT 011639Z AUTO 21009KT 9SM BKN007 OVC012 08/07 A2989 RMK AO2 RAE15 CIG 005V010 P0001 $=
202101011556 METAR KPWT 011556Z AUTO 21011KT 7SM -RA OVC005 08/07 A2990 RMK AO2 SLP132 P0001 T00780072 $=
202101011456 METAR KPWT 011456Z AUTO 20013G19KT 4SM -RA BR OVC005 08/07 A2992 RMK AO2 CIG 004V008 SLP138 P0003 60011 T00780072 58006 $=
202101011426 SPECI KPWT 011426Z AUTO 20012G20KT 7SM -RA OVC007 08/07 A2993 RMK AO2 CIG 005V011 P0002 $=
202101011356 METAR KPWT 011356Z AUTO 19009KT 9SM -RA OVC005 08/ A2993 RMK AO2 CIG 004V009 SLP142 P0003 T0078 $=
202101011303 SPECI KPWT 011303Z AUTO 20006KT 5SM -RA OVC005 08/ A2994 RMK AO2 P0000 $=
202101011256 METAR KPWT 011256Z AUTO 19005KT 2 1/2SM -RA OVC005 08/ A2994 RMK AO2 CIG 003V008 SLP145 P0005 T0078 $=
202101011220 SPECI KPWT 011220Z AUTO 20007KT 3SM -RA BR OVC005 08/07 A2996 RMK AO2 CIG 003V008 P0002 $=
202101011156 METAR KPWT 011156Z AUTO 20006KT 4SM -RA BR BKN003 OVC013 08/07 A2996 RMK AO2 SLP151 P0004 60019 70020 T00780072 10078 20072 58015 $=
202101011125 SPECI KPWT 011125Z AUTO 20007KT 5SM -RA BR OVC003 08/07 A2998 RMK AO2 P0002 $=
202101011115 SPECI KPWT 011115Z AUTO 20006KT 2 1/2SM -RA BR OVC003 07/07 A2998 RMK AO2 P0001 $=
202101011056 METAR KPWT 011056Z AUTO 20005KT 4SM -RA BR BKN005 OVC019 07/07 A2999 RMK AO2 CIG 003V008 SLP161 P0004 T00720072 $=
202101011043 SPECI KPWT 011043Z AUTO 20006KT 4SM -RA BR BKN005 BKN010 OVC019 07/07 A3000 RMK AO2 P0003 $=
202101011014 SPECI KPWT 011014Z AUTO 21004KT 3SM -RA BR FEW005 BKN027 OVC039 07/07 A3000 RMK AO2 P0000 $=
202101010956 METAR KPWT 010956Z AUTO 21003KT 7SM -RA FEW005 BKN033 OVC041 07/07 A3001 RMK AO2 SLP166 P0003 T00720067 $=
202101010953 SPECI KPWT 010953Z AUTO 21003KT 7SM -RA FEW005 BKN025 OVC039 07/07 A3001 RMK AO2 P0002 $=
202101010945 SPECI KPWT 010945Z AUTO 22003KT 7SM -RA SCT005 BKN035 OVC043 07/07 A3001 RMK AO2 P0002 $=
202101010915 SPECI KPWT 010915Z AUTO 21004KT 5SM -RA BR SCT005 SCT012 OVC021 07/07 A3002 RMK AO2 P0001 $=
202101010856 METAR KPWT 010856Z AUTO 21004KT 6SM -RA BR BKN005 OVC021 07/07 A3003 RMK AO2 SLP174 P0004 60008 T00720067 58020 $=
202101010839 SPECI KPWT 010839Z AUTO 22003KT 4SM -RA BR SCT005 BKN021 OVC042 07/07 A3004 RMK AO2 P0003 $=
202101010829 SPECI KPWT 010829Z AUTO 22004KT 5SM -RA BR FEW005 BKN035 OVC044 07/07 A3004 RMK AO2 P0001 $=
202101010756 METAR KPWT 010756Z AUTO 21007KT 8SM -RA FEW028 BKN037 OVC044 07/07 A3006 RMK AO2 SLP183 P0002 T00720067 401000072 $=
202101010656 METAR KPWT 010656Z AUTO 22007KT 10SM -RA FEW007 BKN035 BKN043 07/07 A3007 RMK AO2 SLP189 P0002 T00720067 $=
202101010622 SPECI KPWT 010622Z AUTO 21006KT 10SM -RA SCT006 OVC031 07/07 A3008 RMK AO2 P0001 $=
202101010556 METAR KPWT 010556Z AUTO 20006KT 10SM -RA BKN006 OVC025 07/07 A3009 RMK AO2 CIG 003V009 SLP194 P0000 60001 T00720072 10083 20072 58010 $=
202101010522 SPECI KPWT 010522Z AUTO 20007KT 10SM -RA BKN006 OVC028 08/07 A3010 RMK AO2 CIG 004V009 P0000 $=
202101010456 METAR KPWT 010456Z AUTO 21008KT 10SM -RA OVC004 08/07 A3011 RMK AO2 RAB41 CIG 003V008 SLP201 P0001 T00780072 $=
202101010421 SPECI KPWT 010421Z AUTO 19009KT 10SM BKN004 OVC024 07/07 A3011 RMK AO2 $=
202101010356 METAR KPWT 010356Z AUTO 21007KT 6SM BR OVC006 07/07 A3012 RMK AO2 CIG 003V008 SLP205 T00720072 $=
202101010341 SPECI KPWT 010341Z AUTO 21008KT 6SM BR BKN004 OVC010 07/07 A3012 RMK AO2 CIG 003V008 $=
202101010316 SPECI KPWT 010316Z AUTO 21009KT 10SM BKN008 BKN015 OVC022 08/07 A3012 RMK AO2 CIG 004V011 $=
202101010256 METAR KPWT 010256Z AUTO 21007KT 10SM SCT006 BKN015 OVC020 07/07 A3011 RMK AO2 SLP202 60000 T00720067 51006 $=
202101010235 SPECI KPWT 010235Z AUTO 20007KT 7SM BKN006 OVC016 07/07 A3011 RMK AO2 $=
202101010214 SPECI KPWT 010214Z AUTO 20008KT 10SM SCT009 OVC014 07/07 A3010 RMK AO2 $=
202101010156 METAR KPWT 010156Z AUTO 20010KT 10SM OVC009 07/07 A3010 RMK AO2 CIG 005V012 SLP200 T00720067 $=
202101010111 SPECI KPWT 010111Z AUTO 20010KT 10SM BKN007 OVC012 08/07 A3010 RMK AO2 CIG 004V010 $=
202101010056 METAR KPWT 010056Z AUTO 20010KT 10SM BKN005 OVC012 08/07 A3010 RMK AO2 RAB31E49 CIG 003V008 SLP199 P0000 T00780072 $=
202101010035 SPECI KPWT 010035Z AUTO 20011KT 5SM -RA BR BKN007 OVC011 08/07 A3010 RMK AO2 RAB31 CIG 004V010 P0000 $=

# No short TAF reports from KPWT in databse.

###################################
#  large TAF from KPWT
###################################
202101312333 TAF KPWT 312333Z 0100/0124 19004KT 5SM -RA BR FEW006 OVC025 FM010200
                       19003KT 5SM -RA BR OVC010 FM011000 06002KT
                       4SM -RA BR OVC009 FM011600 06004KT 2SM -RA
                       BR OVC007=
202101311738 TAF KPWT 311738Z 3118/0118 18006KT P6SM -RA FEW008 SCT010 OVC015
                       FM010000 19004KT 4SM -RA BR OVC008 FM010600
                       16006KT 5SM -RA BR OVC010=
202101311120 TAF KPWT 311120Z 3112/0112 18006KT P6SM -SHRA SCT015 OVC040 FM010600
                       16006KT P6SM -RA BKN015 OVC030=
202101311005 KPWT 311005Z 3110/0106 18006KT P6SM -RA SCT010 OVC040
                      TEMPO 3110/3114 4SM -RA BR BKN010 OVC040
                       FM010300 18008KT P6SM -RA BKN015 OVC040=
202101310714 KPWT 310714Z 3107/0106 00000KT P6SM -RA OVC005 FM311000 VRB03KT
                       5SM -RA BR OVC005 FM311800 16008KT P6SM
                       -RA BKN010 OVC030=
202101310520 TAF KPWT 310520Z 3106/0106 20004KT P6SM -RA OVC015 FM310800 18006KT
                       5SM -RA BR OVC010 FM311700 16009KT 2SM -RA
                       BR OVC007 FM312300 19004KT 4SM -RA BR OVC007=
202101302339 TAF KPWT 302339Z 3100/3124 20004KT P6SM VCSH OVC017
                      TEMPO 3100/3103 5SM -RA BR BKN004 BKN012
                       FM310600 18006KT 5SM -RA BR OVC010 FM311700
                       16009KT 2SM -RA BR OVC007=
202101301731 TAF KPWT 301731Z 3018/3118 20005KT P6SM VCSH BKN020 BKN025 OVC035
                       FM302000 20004KT P6SM VCSH SCT015 OVC025
                       FM310600 18006KT 5SM -RA BR OVC020 FM311200
                       18006KT 4SM -RA BR OVC015=
202101301120 TAF KPWT 301120Z 3012/3112 19003KT P6SM -RA OVC020
                      TEMPO 3012/3016 4SM -RA BR OVC012 FM301800
                       18006KT P6SM VCSH SCT015 OVC025 FM310600
                       18006KT P6SM -RA OVC015=
202101300520 TAF KPWT 300520Z 3006/3106 21007KT 5SM -RA SCT007 OVC015 FM300800
                       19003KT 3SM -RA OVC007 FM301300 19005KT
                       P6SM VCSH OVC015 FM301700 19007KT P6SM VCSH
                       SCT015 OVC025 FM310200 18005KT 4SM BR OVC010=
202101292340 TAF KPWT 292340Z 3000/3024 18006KT P6SM BKN050 FM300100 19004KT
                       P6SM OVC050 FM300600 19007KT 5SM -RA OVC025
                       FM300800 19003KT 3SM -RA OVC007 FM301300
                       19005KT P6SM VCSH OVC015=
202101291730 TAF KPWT 291730Z 2918/3018 19006KT P6SM BKN010 OVC015 FM292100
                       20006KT P6SM BKN050 FM300100 19004KT P6SM
                       OVC050 FM300600 19003KT 4SM -RA OVC025 FM301200
                       19005KT P6SM VCSH OVC015=
202101291127 TAF KPWT 291127Z 2912/3012 00000KT 5SM BR VCSH BKN025 OVC035 FM291300
                       18005KT 2SM BR OVC010 FM291700 19006KT P6SM
                       BKN015 FM292100 20006KT P6SM BKN050 FM300100
                       19004KT P6SM OVC050 FM300500 19003KT 4SM
                       -RA OVC025=
202101290520 TAF KPWT 290520Z 2906/3006 00000KT 5SM BR OVC020 FM291200 00000KT
                       1/4SM FG OVC002 FM291800 18005KT 5SM BR
                       OVC007 FM292000 19006KT P6SM BKN015 FM292100
                       20006KT P6SM BKN050 FM300100 19004KT P6SM
                       OVC050=
202101290300 KPWT 290300Z 2903/2924 00000KT 1/4SM FG FEW020 OVC040 FM290600
                       00000KT 1/4SM FG OVC015 FM291400 00000KT
                       1/4SM FG OVC002 FM291800 18005KT 5SM BR
                       OVC007 FM292000 19006KT P6SM BKN015=
202101282339 TAF KPWT 282339Z 2900/2924 VRB02KT P6SM SCT015 OVC030 FM290200
                       00000KT P6SM OVC025 FM290800 00000KT 4SM
                       BR OVC015 FM291400 05002KT 1/2SM FG OVC003
                       FM291800 18005KT 5SM BR OVC007 FM292000
                       19006KT P6SM BKN015=
202101281734 TAF KPWT 281734Z 2818/2918 VRB04KT P6SM BKN017 OVC029 FM282200
                       VRB02KT P6SM OVC030 FM290800 00000KT 4SM
                       BR OVC015 FM291400 05002KT 2SM BR OVC007=
202101281124 TAF KPWT 281124Z 2812/2912 VRB03KT P6SM -RA SCT020 OVC040 FM281400
                       03004KT P6SM -RA OVC015 FM281900 VRB03KT
                       P6SM SCT010 BKN025 FM282200 VRB02KT P6SM
                       OVC050 FM290800 00000KT 4SM BR OVC015=
202101280520 TAF KPWT 280520Z 2806/2906 VRB03KT P6SM -RA SCT020 OVC030 FM280800
                       03004KT P6SM -RA OVC015 FM281300 VRB03KT
                       4SM -RA BR OVC007 FM281900 VRB03KT P6SM
                       SCT010 BKN025 FM282200 VRB02KT P6SM OVC050=
202101272329 TAF KPWT 272329Z 2800/2824 VRB04KT P6SM SCT040 BKN200 FM280200
                       00000KT P6SM BKN030 FM280800 03004KT P6SM
                       OVC015
                      TEMPO 2808/2812 4SM -RA BR OVC007 FM281300
                       VRB03KT 4SM BR OVC007 FM281900 VRB03KT P6SM
                       SCT010 BKN025=
202101271735 TAF KPWT 271735Z 2718/2818 VRB03KT P6SM BKN008 OVC010 FM272100
                       VRB04KT P6SM SCT010 BKN040 FM280200 00000KT
                       P6SM BKN025 FM280900 03004KT P6SM OVC015
                       FM281300 VRB03KT 4SM BR OVC007=
202101271409 KPWT 271409Z 2714/2812 VRB03KT P6SM -RA SCT020 OVC040
                      TEMPO 2714/2717 -RASN OVC015 FM271700 VRB03KT
                       P6SM OVC020 FM272100 VRB04KT P6SM BKN040
                       FM280200 00000KT P6SM BKN050 FM280900 03004KT
                       P6SM OVC015=
202101271130 TAF KPWT 271130Z 2712/2812 VRB03KT P6SM -RA BKN020 OVC035
                      TEMPO 2713/2716 -RASN OVC015 FM271700 VRB03KT
                       P6SM SCT015 OVC025 FM272100 VRB04KT P6SM
                       BKN040 FM280200 00000KT P6SM BKN050 FM280900
                       03004KT P6SM OVC015=
202101270520 TAF KPWT 270520Z 2706/2806 02004KT 5SM -SN OVC015 FM270800 02004KT
                       P6SM VCSH SCT007 OVC020
                      TEMPO 2708/2712 4SM -SN FM271200 VRB03KT
                       P6SM VCSH OVC010 FM271600 VRB03KT P6SM SCT015
                       OVC025 FM272200 VRB04KT P6SM SCT040 FM280200
                       00000KT P6SM BKN050=
202101262320 TAF KPWT 262320Z 2700/2724 02006KT P6SM SCT040 BKN080 OVC150 FM270200
                       02005KT P6SM SCT025 OVC050 FM270800 VRB03KT
                       P6SM -RA SCT010 OVC020
                      TEMPO 2710/2714 4SM -RASN OVC007 FM271400
                       VRB03KT P6SM OVC010 FM272000 VRB03KT P6SM
                       SCT015 OVC025=
202101261727 TAF KPWT 261727Z 2618/2718 VRB04KT P6SM SCT015 BKN120 FM262200
                       02008KT P6SM SCT030 BKN080 OVC150 FM270200
                       02005KT P6SM SCT025 OVC050 FM270800 VRB03KT
                       P6SM -RA SCT010 OVC020
                      TEMPO 2710/2714 4SM -RASN OVC007 FM271400
                       VRB03KT P6SM SCT010 OVC020=
202101261334 KPWT 261334Z 2614/2712 VRB03KT P6SM OVC020 FM261600 10007KT P6SM
                       BKN050 BKN120 FM262200 02008KT P6SM SCT060
                       BKN080 OVC150 FM270200 02005KT P6SM SCT025
                       OVC050 FM270800 02002KT P6SM -RASN OVC007=
202101261137 TAF KPWT 261137Z 2612/2712 VRB03KT P6SM SCT020 OVC040 FM261600
                       10007KT P6SM BKN050 BKN120 FM262200 02008KT
                       P6SM SCT060 BKN080 OVC150 FM270200 02005KT
                       P6SM SCT025 OVC050 FM270800 02002KT P6SM
                       -RASN OVC007=
202101260520 TAF KPWT 260520Z 2606/2706 VRB03KT P6SM FEW006 SCT030 FM261000
                       VRB03KT 3SM BR SCT003
                      TEMPO 2610/2614 1SM BR BKN001 FM261800 10007KT
                       P6SM SCT010 BKN120 FM262200 09008KT P6SM
                       SCT040 BKN080 OVC150 FM270200 02005KT P6SM
                       OVC050=
202101252340 TAF KPWT 252340Z 2600/2624 18006KT P6SM BKN025 FM260100 VRB03KT
                       P6SM SCT030 FM261000 VRB03KT 3SM BR SCT003
                       TEMPO 2610/2614 1SM BR BKN001 FM261800 10007KT
                       P6SM SCT010 BKN150 FM262200 09008KT P6SM
                       SCT040 BKN080 OVC150=
202101252017 KPWT 252017Z 2520/2618 21008KT P6SM BKN011 FM252200 18006KT P6SM
                       BKN025 FM260100 VRB03KT P6SM SCT030 FM261000
                       VRB03KT 1SM BR OVC002 FM261700 06006KT 3SM
                       BR SCT003 OVC150=
202101251723 TAF KPWT 251723Z 2518/2618 23007KT P6SM OVC003 FM252100 21006KT
                       P6SM BKN011 FM252200 18006KT P6SM BKN040
                       FM260100 VRB03KT P6SM SCT050 FM261000 VRB03KT
                       1SM BR OVC002 FM261700 06006KT 3SM BR SCT003
                       OVC150=
202101251139 TAF KPWT 251139Z 2512/2612 18006KT P6SM OVC006 FM251900 18006KT
                       P6SM BKN011 FM252200 18006KT P6SM BKN040
                       FM260100 VRB03KT P6SM SCT050 FM261000 VRB03KT
                       1SM BR OVC002=
202101250520 TAF KPWT 250520Z 2506/2606 18005KT P6SM VCSH BKN004 OVC010 FM251800
                       18007KT P6SM OVC009 FM252100 19005KT P6SM
                       BKN020=
202101250322 KPWT 250322Z 2503/2524 21005KT P6SM VCSH OVC004 FM250400 18005KT
                       P6SM SCT010 OVC020 FM252000 19006KT P6SM
                       BKN035=
202101242326 TAF KPWT 242326Z 2500/2524 20005KT P6SM -RA OVC006 FM250100 19006KT
                       P6SM VCSH OVC008 FM250400 18005KT P6SM SCT010
                       OVC020 FM252000 19006KT P6SM BKN035=
202101242115 KPWT 242115Z 2421/2518 20008KT P6SM -RA OVC005 FM242200 19006KT
                       P6SM VCSH OVC007 FM250300 18005KT P6SM SCT010
                       OVC020 FM251200 VRB03KT P6SM BKN020=
202101241731 TAF KPWT 241731Z 2418/2518 20008KT P6SM -RA OVC005 FM242100 19006KT
                       P6SM VCSH OVC007 FM250300 18005KT P6SM SCT010
                       OVC020 FM251200 VRB03KT P6SM BKN020=
202101241143 TAF KPWT 241143Z 2412/2512 19006KT P6SM -RA SCT003 OVC006
                      TEMPO 2414/2418 3SM -RA OVC003 FM242100 19006KT
                       P6SM OVC006=
202101240719 KPWT 240719Z 2407/2506 19006KT P6SM -RA BKN007 OVC012 FM241400
                       18005KT 5SM -RA OVC007 FM241900 20007KT
                       2SM BR VCSH OVC003 FM250100 VRB03KT 4SM
                       -RA BR OVC007=
202101240520 TAF KPWT 240520Z 2406/2506 VRB05KT P6SM BKN030 FM241000 19006KT
                       P6SM -RA OVC012 FM241400 18005KT 5SM -RA
                       OVC007 FM241900 20007KT 2SM BR VCSH OVC003
                       FM250100 VRB03KT 4SM -RA BR OVC007=
202101232328 TAF KPWT 232328Z 2400/2424 VRB05KT P6SM BKN030 FM241000 19006KT
                       P6SM -RA OVC012 FM241400 18005KT 5SM -RA
                       OVC007 FM241900 20007KT 3SM BR VCSH OVC003=
202101232101 KPWT 232101Z 2321/2418 VRB05KT P6SM FEW015 FM240300 20005KT P6SM
                       BKN050 OVC100 FM241000 16006KT P6SM -RA
                       OVC015 FM241400 16005KT 5SM -RA OVC007=
202101231726 TAF KPWT 231726Z 2318/2418 VRB03KT P6SM SKC FM240300 20005KT P6SM
                       BKN050 OVC100 FM241000 16006KT P6SM -RA
                       OVC015 FM241400 16005KT 5SM -RA OVC007=
202101231138 TAF KPWT 231138Z 2312/2412 00000KT P6SM SKC FM231800 16006KT P6SM
                       BKN200 FM240300 16006KT P6SM BKN050 OVC100
                       FM240900 16006KT P6SM -RA OVC015=
202101230520 TAF KPWT 230520Z 2306/2406 05011KT P6SM SKC FM231200 00000KT 1/2SM
                       FG OVC003 FM231800 15003KT 4SM BR OVC020
                       FM232100 18005KT P6SM OVC050=
202101222324 TAF KPWT 222324Z 2300/2324 05011KT P6SM SKC FM230900 00000KT 4SM
                       BR FEW003 FM231200 00000KT 1/2SM FZFG OVC003
                       FM231800 15003KT 4SM BR OVC020 FM232100
                       18005KT P6SM OVC050=
202101221720 TAF KPWT 221720Z 2218/2318 05012KT P6SM OVC070 FM222000 02006KT
                       P6SM FEW250 FM230900 00000KT 4SM BR FEW003
                       FM231500 VRB03KT 4SM BR OVC020=
202101221120 TAF KPWT 221120Z 2212/2312 05008KT P6SM OVC050 FM222000 02006KT
                       P6SM FEW250 FM230900 00000KT 4SM BR FEW003=
202101220820 KPWT 220820Z 2208/2306 02005KT P6SM BKN050 BKN120 FM222000 02004KT
                       P6SM FEW250=
202101220520 TAF KPWT 220520Z 2206/2306 03008KT P6SM OVC020 FM220800 VRB03KT
                       P6SM BKN015 OVC025 FM221200 VRB03KT 4SM
                       BR OVC025 FM222000 02004KT P6SM FEW250=
202101212320 TAF KPWT 212320Z 2200/2224 03008KT P6SM OVC020 FM220600 VRB03KT
                       P6SM BKN015 OVC025 FM221200 VRB03KT 4SM
                       BR OVC025 FM222000 02004KT P6SM FEW250=
202101211727 TAF KPWT 211727Z 2118/2218 06003KT P6SM BKN025 OVC030 FM212300
                       01006KT P6SM BKN015 OVC025 FM220600 VRB03KT
                       P6SM BKN015 OVC025 FM221200 VRB03KT 4SM
                       BR OVC025=
202101211120 TAF KPWT 211120Z 2112/2212 00000KT P6SM -SHRA OVC025 FM211500 03003KT
                       P6SM VCSH OVC010 FM212300 01006KT P6SM BKN015
                       OVC025=
202101210520 TAF KPWT 210520Z 2106/2206 00000KT P6SM OVC035 FM210800 00000KT
                       P6SM VCSH OVC020 FM211700 03003KT P6SM VCSH
                       OVC009 FM212300 01006KT P6SM BKN012 OVC025=
202101202331 TAF KPWT 202331Z 2100/2124 VRB03KT P6SM OVC050 FM210300 06003KT
                       P6SM OVC035 FM210800 00000KT P6SM OVC015
                       FM211700 03003KT 6SM BR VCSH OVC009 FM212300
                       03004KT P6SM BKN015 OVC035=
202101201730 TAF KPWT 201730Z 2018/2118 VRB03KT P6SM OVC050 FM210300 06003KT
                       P6SM OVC035 FM210800 00000KT P6SM OVC015
                       FM211700 03003KT 6SM BR VCSH OVC009=
202101201201 TAF KPWT 201201Z 2012/2112 00000KT P6SM OVC120 FM201800 VRB03KT
                       P6SM OVC050 FM210000 06003KT P6SM OVC050=
202101200910 KPWT 200910Z 2009/2106 00000KT P6SM OVC120 FM201800 VRB03KT P6SM
                       OVC050 FM210000 06003KT P6SM OVC050=
202101200520 TAF KPWT 200520Z 2006/2106 00000KT P6SM BKN120 BKN250 FM200700
                       00000KT P6SM SCT006 OVC120 FM200900 00000KT
                       4SM BR OVC004 FM201800 VRB03KT P6SM BKN012
                       OVC040 FM210000 06003KT P6SM OVC020=
202101192330 TAF KPWT 192330Z 2000/2024 VRB04KT P6SM FEW120 BKN200 FM200700
                       00000KT P6SM SCT006 BKN120 OVC200 FM200900
                       00000KT 5SM BR OVC006 FM201700 16003KT P6SM
                       BKN012 OVC040=
202101191730 TAF KPWT 191730Z 1918/2018 00000KT 1/4SM FG OVC002
                      TEMPO 1918/1921 4SM BR SCT003 BKN200 FM192100
                       20006KT P6SM OVC200 FM200300 VRB04KT P6SM
                       BKN070 OVC120 FM201000 00000KT 5SM BR OVC007=
202101191613 KPWT 191613Z 1916/2012 00000KT 1/4SM FG BKN002 FM191800 00000KT
                       4SM BR SCT003 FM192000 20006KT P6SM OVC200
                       FM200300 VRB04KT P6SM BKN070 OVC120=
202101191139 TAF KPWT 191139Z 1912/2012 00000KT 1/4SM FG BKN001 FM191600 00000KT
                       4SM BR SCT003 FM191800 20006KT P6SM OVC200
                       FM200300 VRB04KT P6SM BKN070 OVC120=
202101190520 TAF KPWT 190520Z 1906/2006 03010KT P6SM SCT020 SCT250 FM191000
                       04006KT 6SM BR BKN004 FM191600 19006KT P6SM
                       SCT005 SCT250 FM192000 20007KT P6SM SCT200
                       FM200400 VRB04KT P6SM BKN060 BKN180=
202101182322 TAF KPWT 182322Z 1900/1924 04008KT P6SM BKN020 FM190200 04004KT
                       P6SM SKC FM191200 VRB04KT 6SM BR BKN250=
202101181721 TAF KPWT 181721Z 1818/1918 04006KT P6SM BKN025 FM182200 03004KT
                       P6SM SCT050 FM190000 02006KT P6SM SCT050
                       FM190200 04004KT P6SM SKC FM191200 VRB04KT
                       6SM BR BKN250=
202101181138 TAF KPWT 181138Z 1812/1912 05006KT P6SM BKN040 FM181800 05006KT
                       P6SM SCT050 FM190200 05006KT P6SM SKC=
202101180708 KPWT 180708Z 1807/1906 00000KT P6SM BKN022 FM181100 00000KT 1SM
                       BR OVC003 FM181500 04003KT 1/2SM FG OVC003
                       FM181800 02004KT 4SM BR OVC007 FM182200
                       04006KT P6SM BKN025=
202101180520 TAF KPWT 180520Z 1806/1906 00000KT 1/2SM FG SCT002 OVC040 FM181500
                       04003KT 1/2SM FG OVC003 FM181800 02004KT
                       4SM BR OVC007 FM182200 04006KT P6SM BKN025=
202101180450 KPWT 180450Z 1805/1824 00000KT 1/2SM FG SCT002 OVC040 FM181500
                       04003KT 1/2SM FG OVC003 FM181800 02004KT
                       4SM BR OVC007=
202101172320 TAF KPWT 172320Z 1800/1824 VRB04KT P6SM FEW008 BKN030 OVC040 FM180300
                       02004KT P6SM SCT020 BKN040 FM180800 05004KT
                       2SM BR OVC015 FM181500 04003KT 1/2SM FG
                       OVC003 FM181800 02004KT 4SM BR OVC007=
202101171721 TAF KPWT 171721Z 1718/1818 VRB03KT 2SM BR OVC002 FM172200 23006KT
                       5SM BR OVC006 FM180200 02004KT P6SM SCT020
                       BKN040 FM180800 02004KT 2SM BR OVC003 FM181500
                       04003KT 1/2SM FG OVC003=
202101171138 TAF KPWT 171138Z 1712/1812 20006KT 3SM BR OVC004 FM171800 20008KT
                       5SM BR OVC006 FM172200 23006KT P6SM BKN012
                       FM180200 02004KT P6SM SCT020 BKN040 FM180800
                       02004KT 2SM BR OVC003=
202101170728 KPWT 170728Z 1707/1806 23004KT P6SM SCT040 OVC080 FM170900 23004KT
                       5SM -RA SCT020 BKN040 OVC070 FM171200 19006KT
                       1/2SM FG OVC003 FM171800 20008KT P6SM OVC007=
202101170520 TAF KPWT 170520Z 1706/1806 23004KT 2SM -RA BR OVC003 FM171200 19006KT
                       1/2SM FG OVC003 FM171800 20008KT P6SM OVC007=
202101170330 KPWT 170330Z 1704/1724 VRB02KT 1/4SM FG BKN002 FM170700 18005KT
                       1SM -RA BR OVC003 FM171200 19006KT 1/2SM
                       FG OVC003 FM171800 20008KT P6SM OVC007=
202101162321 TAF KPWT 162321Z 1700/1724 07003KT P6SM OVC003 FM170700 18005KT
                       2SM -RA BR OVC003 FM171200 19006KT 1 1/2SM
                       BR OVC001 FM171800 20008KT P6SM OVC007=
202101161720 TAF KPWT 161720Z 1618/1718 00000KT 1/4SM FG OVC001
                      TEMPO 1618/1620 1SM BR OVC005 FM162100 04002KT
                       5SM BR OVC050 FM170100 14003KT 1/4SM FG
                       OVC010 FM170700 18005KT 2SM -RA OVC009 FM171200
                       19006KT 1 1/2SM BR OVC001=
202101161124 TAF KPWT 161124Z 1612/1712 03002KT 2SM BR OVC003
                      TEMPO 1612/1616 1/4SM FG OVC001 FM161900
                       17003KT P6SM OVC050 FM170000 14003KT P6SM
                       OVC100 FM170500 18005KT P6SM -RA BKN010
                       OVC020=
202101160844 KPWT 160844Z 1609/1706 00000KT 1/2SM FG OVC003 FM161200 03002KT
                       3SM BR OVC003 FM162100 17003KT P6SM OVC060
                       FM170000 14002KT P6SM OVC100=
202101160520 TAF KPWT 160520Z 1606/1706 12002KT 1/4SM FG FEW003 SCT045 FM160800
                       00000KT 1/4SM FG OVC003 FM161200 03002KT
                       3SM BR OVC003 FM162100 17003KT P6SM OVC060
                       FM170000 14002KT P6SM OVC100=
202101160335 KPWT 160335Z 1604/1624 12004KT 3SM BR FEW003 SCT045 FM160800 00000KT
                       3SM BR OVC003 FM161200 05002KT 3SM BR OVC003
                       FM162100 19003KT P6SM OVC050=
202101152321 TAF KPWT 152321Z 1600/1624 12004KT P6SM BKN030 FM160800 00000KT
                       3SM BR OVC003 FM161200 05002KT 3SM BR OVC003
                       FM162100 19003KT P6SM OVC050=
202101151724 TAF KPWT 151724Z 1518/1618 VRB03KT P6SM OVC025 FM152100 18005KT
                       P6SM OVC025 FM160000 17004KT P6SM BKN050
                       FM160800 00000KT 3SM BR OVC003 FM161200
                       05002KT 3SM BR OVC003=
202101151319 KPWT 151319Z 1513/1612 19008KT 2SM BR OVC002 FM151500 17004KT P6SM
                       OVC007 FM151800 20004KT P6SM BKN015 OVC025
                       FM160000 17004KT P6SM BKN050 FM160800 00000KT
                       3SM BR OVC003=
202101151128 TAF KPWT 151128Z 1512/1612 19008KT 6SM BR OVC003 FM151500 17004KT
                       P6SM OVC007 FM151800 20004KT P6SM BKN015
                       OVC025 FM160000 17004KT P6SM BKN050 FM160800
                       00000KT 3SM BR OVC003=
202101150520 TAF KPWT 150520Z 1506/1606 18005KT P6SM BKN040 OVC070 FM150700
                       19009KT P6SM VCSH BKN030 OVC070 FM151000
                       19008KT 6SM -RA BR OVC017 FM151500 17005KT
                       4SM -RA BR OVC009 FM151800 20005KT 6SM BR
                       VCSH BKN012 BKN030 FM160000 17004KT P6SM
                       OVC050=
202101142324 TAF KPWT 142324Z 1500/1524 04005KT P6SM BKN090 BKN200 FM150300
                       18005KT P6SM BKN070 OVC120 FM150700 19009KT
                       P6SM VCSH BKN040 OVC070 FM151000 19008KT
                       6SM -RA BR OVC017 FM151800 20005KT 6SM BR
                       VCSH BKN012 BKN030=
202101141735 TAF KPWT 141735Z 1418/1518 03004KT P6SM BKN120 BKN200 FM142000
                       04005KT P6SM BKN200 FM150200 18005KT P6SM
                       BKN120 BKN200 FM150600 19009KT P6SM BKN070
                       OVC100 FM151000 19008KT 6SM -RA BR OVC018=
202101141127 TAF KPWT 141127Z 1412/1512 03004KT P6SM BKN150 FM142000 04005KT
                       P6SM BKN250 FM150000 18005KT P6SM BKN250
                       FM150800 19004KT P6SM BKN030=
202101140522 TAF KPWT 140522Z 1406/1506 03004KT P6SM BKN150
                      TEMPO 1411/1415 2SM BR BKN150 FM141500 02005KT
                       P6SM BKN250=
202101132320 TAF KPWT 132320Z 1400/1424 22010KT P6SM FEW060 SCT250 FM140300
                       VRB03KT P6SM BKN250 FM140600 03004KT P6SM
                       BKN150
                      TEMPO 1411/1415 2SM BR BKN150 FM141500 02005KT
                       P6SM BKN250=
202101131720 TAF KPWT 131720Z 1318/1418 21014G22KT P6SM FEW020 SCT070 BKN200
                       FM140000 21008KT P6SM FEW070 BKN250 FM140300
                       VRB03KT P6SM BKN250 FM140600 03004KT P6SM
                       BKN150=
202101131120 TAF KPWT 131120Z 1312/1412 21018G30KT P6SM BKN050 FM131400 22018G25KT
                       P6SM SCT015 BKN050 FM131900 21014G20KT P6SM
                       SCT050 SCT250 FM140300 VRB03KT 6SM HZ SCT250=
202101130810 KPWT 130810Z 1308/1406 21028G42KT 3SM -RA BR BKN015 FM131300 22024G35KT
                       P6SM SCT015 BKN050 FM131900 21014G20KT P6SM
                       SCT050 SCT250 FM140300 VRB03KT 6SM HZ SCT250=
202101130520 TAF KPWT 130520Z 1306/1406 19015G25KT 3SM RA BR OVC004 FM130900
                       20019G30KT 4SM -RA BR OVC004 FM131300 22018G32KT
                       P6SM SCT015 BKN050 FM131900 21014G20KT P6SM
                       SCT050 SCT250 FM140300 VRB03KT 6SM HZ SCT250=
202101122324 TAF KPWT 122324Z 1300/1324 21009KT P6SM -RA BKN007 OVC013 FM130300
                       19019G28KT 4SM -RA BR OVC007 FM131300 22018G28KT
                       P6SM SCT015 BKN050 FM131900 21014KT P6SM
                       SCT050 SCT250=
202101121722 TAF KPWT 121722Z 1218/1318 20012G17KT 4SM -RA BR OVC006 FM130000
                       20013G22KT 1 1/2SM -RA BR OVC004 FM130300
                       19019G28KT 4SM -RA BR OVC007 FM131300 22018G28KT
                       P6SM SCT015 BKN050=
202101121120 TAF KPWT 121120Z 1212/1312 VRB05KT 2SM -RA BR BKN005 OVC009 FM121700
                       17008G15KT 2SM -RA BR OVC005 FM130000 20013G22KT
                       1 1/2SM -RA BR OVC004 FM130300 19019G28KT
                       4SM -RA BR OVC007=
202101120857 KPWT 120857Z 1209/1306 20010KT 5SM -RA BR OVC008 FM121700 17019G25KT
                       3SM -RA BR OVC007 FM122100 20013G25KT 1
                       1/2SM -RA BR OVC004 FM130300 19019G28KT
                       4SM -RA BR OVC007=
202101120520 TAF KPWT 120520Z 1206/1306 VRB04KT 4SM -RA BR BKN030 FM120800 16009G18KT
                       5SM -RA BR OVC005 FM121700 17019G25KT 3SM
                       -RA BR OVC007 FM122100 20013G25KT 1 1/2SM
                       -RA BR OVC004 FM130300 19019G28KT 4SM -RA
                       BR OVC007=
202101112320 TAF KPWT 112320Z 1200/1224 18006KT 5SM -RA BR OVC005=
202101111727 TAF KPWT 111727Z 1118/1218 21003KT 6SM -RA BR SCT008 OVC035
                      TEMPO 1118/1119 5SM RA BR BKN008 OVC015 FM111900
                       17004KT 5SM -RA BR OVC010 FM120800 18008KT
                       3SM -RA BR OVC005=
202101111400 KPWT 111400Z 1114/1212 19007KT P6SM -RA BKN040 FM111900 18008KT
                       2SM -RA BR OVC003 FM120300 16008KT 4SM -RA
                       BR OVC007 FM120800 19010G15KT 4SM -RA BR
                       OVC003=
202101111135 TAF KPWT 111135Z 1112/1212 21004KT P6SM BKN045 OVC070 FM111400
                       18008G16KT 3SM -RA BR OVC004 FM111900 18008KT
                       2SM -RA BR OVC003 FM120300 16008KT 4SM -RA
                       BR OVC007 FM120800 19010G15KT 4SM -RA BR
                       OVC003=
202101110520 TAF KPWT 110520Z 1106/1206 18006KT P6SM -RA OVC040 FM110900 20006KT
                       P6SM -RA OVC040 FM111400 18008G16KT 3SM
                       -RA BR OVC004 FM111900 18008KT 2SM -RA BR
                       OVC003 FM120300 16008KT 4SM -RA BR OVC007=
202101102341 TAF KPWT 102341Z 1100/1124 18006KT P6SM SCT020 BKN040 BKN100 FM110900
                       15006KT P6SM -RA OVC040 FM111400 18008KT
                       3SM -RA OVC004 FM111700 18008KT P6SM OVC006
                       FM112100 18008KT P6SM SCT008 BKN015 OVC025
                       FM112300 15008KT P6SM SCT025 BKN040=
202101102118 KPWT 102118Z 1021/1118 19006KT P6SM OVC005 FM110200 16006KT P6SM
                       SCT006 BKN012 OVC040 FM110600 16006KT P6SM
                       SCT020 BKN035 OVC080 FM111100 16006KT P6SM
                       -RA OVC025 FM111400 16006KT 2SM -RA OVC003=
202101101740 TAF KPWT 101740Z 1018/1118 VRB04KT P6SM BKN006 OVC011 FM102000
                       16006KT P6SM SCT006 BKN012 OVC040 FM110000
                       16006KT P6SM SCT020 BKN035 OVC080 FM110600
                       16006KT P6SM -RA OVC025 FM111100 16006KT
                       2SM -RA OVC003=
202101101705 KPWT 101705Z 1017/1112 VRB04KT P6SM OVC003 FM102100 18006KT P6SM
                       SCT006 BKN015 OVC040 FM110900 16008KT P6SM
                       -RA BKN015 OVC040=
202101101440 KPWT 101440Z 1015/1112 00000KT 3SM BR OVC003 FM101700 VRB04KT P6SM
                       BKN010 OVC030 FM101900 18006KT P6SM BKN015
                       OVC040 FM110900 16008KT P6SM -RA BKN015
                       OVC040=
202101101225 KPWT 101225Z 1012/1112 VRB03KT 5SM -RA BR SCT011 OVC035
                      TEMPO 1012/1016 2SM -RA BR BKN011 OVC025
                       FM101800 18006KT P6SM BKN050 BKN120 FM110900
                       16008KT P6SM -RA OVC040=
202101101120 TAF KPWT 101120Z 1012/1112 VRB03KT P6SM -RA OVC035 FM101800 18006KT
                       P6SM BKN050 BKN120 FM110900 16008KT P6SM
                       -RA OVC040=
202101101003 KPWT 101003Z 1010/1106 00000KT P6SM OVC040 FM101300 14008KT 4SM
                       -RA BKN006 OVC012 FM101600 14008KT P6SM
                       SCT006 BKN012 OVC020 FM102100 18008KT P6SM
                       SCT025 BKN040 BKN070 FM110000 20004KT 6SM
                       BR OVC015=
202101100520 TAF KPWT 100520Z 1006/1106 VRB04KT P6SM SKC FM100900 20002KT 2SM
                       BR BKN050 OVC080 FM101300 14008KT 4SM -RA
                       BKN006 OVC012 FM101600 14008KT P6SM SCT006
                       BKN012 OVC020 FM102100 18008KT P6SM SCT025
                       BKN040 BKN070 FM110000 20004KT 6SM BR OVC015=
202101092332 TAF KPWT 092332Z 1000/1024 00000KT P6SM SCT060 OVC090 FM100400
                       12008KT P6SM BKN050 OVC080 FM101000 14008KT
                       P6SM -RA OVC022 FM101300 14008KT 4SM -RA
                       BKN006 OVC012 FM101600 14008KT P6SM SCT006
                       BKN012 OVC020 FM102100 18008KT P6SM SCT025
                       BKN040 BKN070=
202101092121 KPWT 092121Z 0921/1018 00000KT P6SM BKN150 FM100500 12008KT P6SM
                       BKN070 OVC120 FM101100 14008KT P6SM -RA
                       OVC022 FM101600 14008KT P6SM SCT006 BKN012
                       OVC020=
202101091739 TAF KPWT 091739Z 0918/1018 00000KT 1/2SM FG OVC002 FM092000 00000KT
                       2SM BR BKN003 FM092200 00000KT P6SM BKN150
                       FM100500 12008KT P6SM BKN070 OVC120 FM101100
                       14008KT P6SM -RA OVC022 FM101600 14008KT
                       P6SM SCT006 BKN012 OVC020=
202101091523 KPWT 091523Z 0915/1012 00000KT 1/4SM FG VV001 FM091800 00000KT
                       1SM BR OVC002 FM091900 12006KT P6SM BKN150
                       FM100300 16008KT P6SM OVC050 FM101100 18008KT
                       P6SM -RA OVC035=
202101091120 TAF KPWT 091120Z 0912/1012 06003KT 1/4SM FG VV001
                      TEMPO 0912/0916 2SM BR BKN002 FM091600 06006KT
                       3SM BR BKN003 FM091800 12006KT P6SM BKN150
                       FM100300 16008KT P6SM OVC050 FM101100 18008KT
                       P6SM -RA OVC035=
202101090611 KPWT 090611Z 0906/1006 00000KT 1/2SM FG BKN001 BKN028
                      TEMPO 0906/0909 3SM BR SCT003 BKN028 FM090900
                       00000KT 1/4SM FG VV001 FM091700 00000KT
                       1SM BR BKN003 FM092100 04005KT P6SM SCT005
                       BKN070 OVC120 FM100300 17004KT 5SM BR OVC050=
202101090545 KPWT 090545Z 0906/1006 00000KT 1/2SM FG BKN001
                      TEMPO 0906/0909 2SM BR BKN003 FM090900 00000KT
                       1/4SM FG VV001 FM091700 00000KT 1SM BR BKN003
                       FM092100 04005KT P6SM SCT005 BKN070 OVC120
                       FM100300 17004KT 5SM BR OVC050=
202101090520 TAF KPWT 090520Z 0906/1006 VRB04KT 1 1/2SM BR OVC020 FM090900 04003KT
                       1/4SM FG OVC005 FM092100 04005KT P6SM OVC070
                       FM100000 17004KT 1/4SM FG OVC050=
202101090124 KPWT 090124Z 0901/0924 VRB03KT 1/4SM FG VV007
                      TEMPO 0902/0904 1/2SM FG VV007 FM090600 VRB04KT
                       5SM BR OVC004 FM090900 04003KT 2SM BR OVC005
                       FM091900 03004KT 6SM BR OVC007 FM092100
                       04005KT P6SM OVC070=
202101082339 TAF KPWT 082339Z 0900/0924 VRB05KT P6SM OVC040 FM090600 VRB04KT
                       6SM BR BKN025 FM090900 04003KT 2SM BR OVC005
                       FM091900 03004KT 6SM BR OVC007 FM092100
                       04005KT P6SM OVC070=
202101081739 TAF KPWT 081739Z 0818/0918 19004KT P6SM VCSH SCT016 BKN022 OVC030
                       FM082300 21004KT 6SM BR VCSH BKN035 FM090600
                       VRB04KT P6SM BKN025 FM090900 04003KT 5SM
                       BR OVC015 FM091600 03003KT 3SM BR BKN003=
202101081135 TAF KPWT 081135Z 0812/0912 VRB04KT P6SM -RA OVC030 FM081600 19004KT
                       6SM -RA BR SCT003 OVC020 FM082000 20005KT
                       6SM BR VCSH OVC015 FM090200 VRB03KT P6SM
                       BKN025 FM090900 04003KT 5SM BR OVC008=
202101080520 TAF KPWT 080520Z 0806/0906 03005KT P6SM SKC FM080900 14005KT 6SM
                       BR SCT003 OVC035 FM081300 19004KT 4SM -RA
                       BR SCT003 OVC020 FM081700 18004KT 2SM -SHRA
                       BR OVC007 FM082200 19006KT 4SM BR SCT007
                       OVC015 FM090000 20004KT 6SM BR BKN015=
202101072322 TAF KPWT 072322Z 0800/0824 03006KT P6SM OVC250 FM080300 03005KT
                       P6SM OVC250 FM081000 14005KT 4SM -RA SCT003
                       OVC035 FM081300 19004KT 4SM -RA BR SCT003
                       OVC015 FM081900 18004KT 2SM -SHRA BR OVC007
                       FM082200 19006KT 4SM BR VCSH SCT007 OVC015=
202101072038 KPWT 072038Z 0721/0818 VRB03KT P6SM OVC002 FM072200 03006KT P6SM
                       SCT003 OVC250 FM080300 03005KT 2SM BR SCT003
                       OVC250 FM081000 14005KT 4SM -RA SCT003 OVC015=
202101071727 TAF KPWT 071727Z 0718/0818 00000KT 1/4SM FG OVC002 FM072000 VRB03KT
                       6SM BR SCT010 BKN120 OVC250 FM072200 03006KT
                       P6SM OVC250 FM080300 03005KT 2SM BR SCT003
                       OVC250 FM081000 14005KT 4SM -RA SCT003 OVC015=
202101071452 KPWT 071452Z 0715/0812 00000KT 4SM BR SCT008 OVC035
                      TEMPO 0715/0718 1/2SM FG VV002 FM072000 VRB03KT
                       6SM BR SCT010 BKN120 OVC200 FM072200 03006KT
                       P6SM OVC100 FM080300 03005KT P6SM OVC070
                       FM081100 14005KT P6SM -RA OVC035=
202101071130 TAF KPWT 071130Z 0712/0812 00000KT 6SM BR SCT008 OVC035
                      TEMPO 0713/0717 5SM BR BKN005 FM072000 VRB03KT
                       6SM BR SCT010 BKN120 OVC200 FM072200 03006KT
                       P6SM OVC100 FM080300 03005KT P6SM OVC070
                       FM081100 14005KT P6SM -RA OVC035=
202101071002 KPWT 071002Z 0710/0806 00000KT 6SM BR OVC035 FM071400 00000KT 3SM
                       BR BKN003 OVC027 FM072000 VRB03KT 6SM BR
                       SCT010 BKN040 OVC120 FM072200 11008KT P6SM
                       BKN120 OVC200=
202101070529 TAF KPWT 070529Z 0706/0806 00000KT 1/4SM FG SKC FM070900 00000KT
                       1/4SM FG OVC001 FM071700 00000KT 1/2SM FG
                       OVC003 FM072000 VRB03KT 3SM BR BKN003 FM072200
                       11008KT P6SM BKN120 OVC200=
202101070307 KPWT 070307Z 0703/0724 00000KT 1/4SM FG SKC FM070700 00000KT 1/4SM
                       FG OVC001 FM071500 00000KT 1/2SM FG OVC003
                       FM072000 VRB03KT 6SM BR OVC010=
202101062339 TAF KPWT 062339Z 0700/0724 VRB04KT P6SM BKN009 FM070700 VRB03KT
                       6SM BR OVC008 FM071000 VRB02KT 2SM BR OVC003
                       FM071500 VRB02KT 1/2SM FG OVC003 FM072000
                       VRB03KT 6SM BR OVC010=
202101061730 TAF KPWT 061730Z 0618/0718 23003KT P6SM VCSH OVC003 FM062200 18006KT
                       P6SM BKN022 OVC035 FM070700 VRB03KT 6SM
                       BR OVC008 FM071000 VRB02KT 2SM BR OVC003=
202101061403 KPWT 061403Z 0614/0712 20007KT P6SM VCSH SCT005 OVC025
                      TEMPO 0614/0618 BKN005 OVC020 FM061800 18006KT
                       P6SM VCSH BKN014 OVC027 FM062200 18006KT
                       P6SM BKN022 OVC035 FM070700 VRB03KT 6SM
                       BR OVC008=
202101061140 TAF KPWT 061140Z 0612/0712 20007KT P6SM -SHRA SCT012 OVC025
                      TEMPO 0612/0616 BKN012 FM061600 18006KT P6SM
                       VCSH BKN014 OVC027 FM061900 18010KT P6SM
                       BKN015 OVC030 FM062200 18006KT P6SM BKN022
                       OVC035 FM070700 VRB03KT 6SM BR OVC008=
202101060920 KPWT 060920Z 0609/0706 20010KT P6SM -RA OVC009 FM061200 19012KT
                       P6SM -SHRA BKN010 OVC030 FM061500 19012KT
                       P6SM VCSH SCT006 OVC012 FM062100 19008KT
                       P6SM SCT010 BKN020 OVC030=
202101060531 TAF KPWT 060531Z 0606/0706 19006KT 4SM -RA OVC020 FM061000 19012KT
                       3SM -RA OVC010 FM061500 19012KT P6SM BKN006
                       OVC012 FM062100 19008KT P6SM SCT010 BKN020
                       OVC030=
202101060324 KPWT 060324Z 0603/0624 18008KT 5SM -RA OVC040 FM060900 19005KT
                       4SM -RA BR OVC006 FM061300 10003KT 2SM -RA
                       BR OVC004 FM061800 13003KT 6SM BR VCSH OVC015=
202101052339 TAF KPWT 052339Z 0600/0624 VRB06KT 6SM -RA BR BKN007 BKN015 OVC022
                       FM060100 20006KT 4SM -RA OVC009 FM060900
                       19005KT 4SM -RA BR OVC006 FM061300 10003KT
                       2SM -RA BR OVC004 FM061800 13003KT 6SM BR
                       VCSH OVC015=
202101051728 TAF KPWT 051728Z 0518/0618 18008G15KT P6SM FEW015 SCT030 OVC040
                       FM052000 18012G18KT P6SM -RA OVC030 FM060000
                       19012G20KT 4SM -RA OVC010 FM060900 20005KT
                       4SM -RA BR OVC006=
202101051120 TAF KPWT 051120Z 0512/0612 20008KT P6SM OVC006 FM051500 18008G15KT
                       P6SM SCT030 OVC060 FM052000 18012G18KT P6SM
                       -RA OVC040 FM060000 19012G20KT 4SM -RA OVC010
                       FM060900 20005KT 4SM -RA BR OVC006=
202101050523 TAF KPWT 050523Z 0506/0606 20008KT P6SM SCT006 BKN080 FM051000
                       18008KT P6SM BKN010 OVC020 FM051500 18008KT
                       P6SM SCT030 OVC060 FM052100 18012G18KT P6SM
                       -RA OVC040 FM060000 19012G20KT 4SM -RA OVC010=
202101050314 KPWT 050314Z 0503/0524 20010KT P6SM SCT040 BKN080 BKN200 FM051000
                       18008KT P6SM BKN010 OVC020 FM051500 18008KT
                       P6SM SCT030 BKN070 BKN200 FM052100 18012G18KT
                       P6SM -RA OVC040=
202101042333 TAF KPWT 042333Z 0500/0524 20012G18KT P6SM -SHRA SCT015 BKN030
                       FM050600 20004KT 6SM BR SCT015 OVC030 FM051400
                       19004KT P6SM SCT025 OVC050 FM051700 19011G18KT
                       P6SM SCT030 OVC050=
202101041727 TAF KPWT 041727Z 0418/0518 14004KT P6SM -RA SCT030 OVC035 FM042000
                       19009KT P6SM -SHRA SCT015 OVC025 FM050000
                       20012G18KT 4SM -SHRA BR OVC007 FM050600
                       20004KT 6SM BR OVC015 FM051100 19004KT P6SM
                       OVC050=
202101041121 TAF KPWT 041121Z 0412/0512 20005KT 5SM -RA OVC020 FM041500 18012G20KT
                       4SM BR VCSH OVC007 FM050000 20012G18KT 3SM
                       -RA BR OVC007 FM050600 20004KT 6SM BR OVC015=
202101040903 KPWT 040903Z 0409/0506 11004KT 5SM -RA BR BKN004 BKN010 OVC025
                       FM041200 14009G15KT 2SM -RA BR OVC007 FM041900
                       18012G20KT 4SM BR VCSH OVC007 FM050000 20012G18KT
                       3SM -RA BR OVC007=
202101040520 TAF KPWT 040520Z 0406/0506 05003KT 2SM BR SCT005 OVC015 FM040700
                       11004KT 5SM -RA BR SCT005 OVC015 FM041200
                       14009G15KT 2SM -RA BR OVC007 FM041900 18012G20KT
                       4SM BR VCSH OVC007 FM050000 20012G18KT 3SM
                       -RA BR OVC007=
202101032335 TAF KPWT 032335Z 0400/0424 20010KT P6SM VCSH SCT010 BKN020 OVC030
                       FM040600 13003KT 6SM -RA BR SCT005 OVC015
                       FM040900 08008KT 4SM -RA BR OVC007 FM041200
                       14009KT 2SM -RA BR OVC007 FM041900 18012G20KT
                       4SM BR VCSH OVC007=
202101031729 TAF KPWT 031729Z 0318/0418 19012KT P6SM VCSH BKN005 OVC015 FM031900
                       20011G19KT P6SM VCSH SCT005 OVC015 FM032300
                       20010KT P6SM VCSH SCT005 SCT025 OVC050 FM040600
                       15003KT 6SM -RA BR SCT005 OVC015 FM040700
                       12008KT 4SM -RA BR OVC007=
202101031139 TAF KPWT 031139Z 0312/0412 VRB05KT P6SM VCSH BKN007 BKN035 FM031400
                       19012KT P6SM VCSH OVC015 FM031700 19012KT
                       P6SM VCSH BKN020 FM032200 20010KT P6SM VCSH
                       SCT025 OVC050 FM040600 15003KT 6SM -RA BR
                       OVC025 FM040700 15004KT 4SM -RA BR OVC007=
202101030539 TAF KPWT 030539Z 0306/0406 19012KT P6SM -RA FEW008 SCT030 OVC045
                       TEMPO 0306/0309 4SM RA BR BKN006 OVC020
                       FM030900 18010KT P6SM -SHRA OVC004 FM031400
                       19012KT P6SM VCSH OVC015 FM031700 19012G22KT
                       P6SM VCSH BKN020 BKN050 FM032300 19008KT
                       P6SM VCSH OVC050=
202101030313 KPWT 030313Z 0303/0324 19012KT P6SM -RA SCT006 OVC020
                      TEMPO 0304/0308 4SM RA BR BKN006 OVC020 FM030900
                       18010KT P6SM -SHRA OVC004 FM031400 19012KT
                       P6SM VCSH OVC015 FM031800 19012KT P6SM VCSH
                       BKN025 BKN050=
202101022328 TAF KPWT 022328Z 0300/0324 19018G29KT 4SM RA BR OVC008 FM030200
                       21014G24KT 2SM RA BR OVC008 FM030900 18010KT
                       P6SM -SHRA OVC004 FM031400 19012G22KT P6SM
                       VCSH OVC015=
202101021721 TAF KPWT 021721Z 0218/0318 20014G26KT 6SM -RA OVC008 FM022100 19018G29KT
                       3SM RA BR OVC008 FM030200 21014G24KT 1SM
                       RA BR OVC004 FM030900 18010KT P6SM -SHRA
                       BKN008 OVC020 FM031400 19008G18KT P6SM VCSH
                       OVC015=
202101021125 TAF KPWT 021125Z 0212/0312 19012G20KT P6SM -RA BKN006 OVC012 FM021700
                       18016G26KT 6SM -RA BKN006 OVC015 FM022000
                       19018G27KT 4SM RA BR OVC008 FM030300 21014G24KT
                       3SM RA BR OVC008 FM030800 18010KT P6SM -SHRA
                       BKN010 OVC027=
202101020520 TAF KPWT 020520Z 0206/0306 19012G20KT P6SM -RA BKN005 OVC010 FM021700
                       18015G25KT 6SM -RA BKN010 OVC030 FM022000
                       19018G25KT 4SM RA BR OVC012 FM030300 21012G22KT
                       3SM RA BR OVC008=
202101012335 TAF KPWT 012335Z 0200/0224 19014G22KT P6SM -RA OVC009 FM020300
                       20012G19KT 5SM -SHRA BR OVC009 FM021700
                       18022G32KT 2SM -RA BR OVC009=
202101011724 TAF KPWT 011724Z 0118/0218 18008KT 6SM -RA BR BKN010 OVC015 FM012100
                       18012G18KT 2SM -RA BR OVC009 FM020300 20012G19KT
                       5SM -SHRA BR OVC009=
202101011123 TAF KPWT 011123Z 0112/0212 21006KT 6SM -RA BR SCT005 OVC020
                      TEMPO 0112/0116 4SM -RA BR OVC004 FM011600
                       18008KT 6SM -RA BR BKN010 OVC030 FM012200
                       18012KT 5SM -RA BR OVC012 FM020600 20012G18KT
                       P6SM -SHRA BKN012 OVC030=
202101011001 KPWT 011001Z 0110/0206 21006KT 6SM -RA BR SCT005 OVC025 FM011600
                       18010KT P6SM -RA BKN012 OVC030 FM012200
                       18012KT 5SM -RA BR OVC012 FM020500 20010KT
                       P6SM -SHRA BKN015 OVC040=
202101010520 TAF KPWT 010520Z 0106/0206 18008KT P6SM -RA SCT004 OVC025
                      TEMPO 0106/0110 4SM -RA BR BKN004 OVC020
                       FM011000 16006KT 4SM -RA BR BKN004 OVC015
                       FM011600 18010KT P6SM -RA BKN012 OVC030
                       FM012200 18012KT 5SM -RA BR OVC012 FM020500
                       20010KT P6SM -SHRA BKN015 OVC040=
202101010404 KPWT 010404Z 0104/0124 21007KT 5SM -RA BR OVC005 FM011800 18010KT
                       P6SM -RA BKN020 OVC040 FM012200 18012KT
                       4SM -RA BR OVC015=