##########################################################
# Query made at 02/16/2025 00:46:54 UTC
# Time interval: from 04/01/2021 00:00  to 04/30/2021 23:59  UTC
##########################################################

##########################################################
# KPWT, Bremerton National Automatic Weather Observing / Reporting System (United States)
# WMO index: -----. WIGOS ID: Unknown
# Latitude 47-30N. Longitude 122-45W. Altitude 147 m.
##########################################################

###################################
#  METAR/SPECI from KPWT
###################################
202104302356 METAR KPWT 302356Z AUTO 19007G15KT 10SM BKN028 18/11 RMK AO2 SLPNO T01830111 10189 20122 $=
202104302353 SPECI KPWT 302353Z AUTO 21011G16KT 10SM BKN028 18/11 A3013 RMK AO2=
202104302256 METAR KPWT 302256Z AUTO 20010G17KT 10SM FEW026 18/12 A3015 RMK AO2 SLP211 T01780117=
202104302239 SPECI KPWT 302239Z AUTO 22012G18KT 10SM SCT023 18/12 A3015 RMK AO2=
202104302232 SPECI KPWT 302232Z AUTO 19011G18KT 10SM BKN023 18/12 A3016 RMK AO2=
202104302156 METAR KPWT 302156Z AUTO 20008G20KT 160V230 10SM FEW021 18/12 A3016 RMK AO2 SLP217 T01780117=
202104302056 METAR KPWT 302056Z AUTO 20015G22KT 10SM FEW015 17/12 A3016 RMK AO2 SLP218 T01670117 58008=
202104302040 SPECI KPWT 302040Z AUTO 20015G21KT 10SM SCT017 17/12 A3017 RMK AO2=
202104302020 SPECI KPWT 302020Z AUTO 19013G21KT 10SM BKN015 16/12 RMK AO2 $=
202104302006 SPECI KPWT 302006Z AUTO 21015KT 10SM FEW008 BKN014 16/12 A3018 RMK AO2=
202104301956 METAR KPWT 301956Z AUTO 22016G19KT 10SM BKN012 15/12 A3018 RMK AO2 SLP223 T01500122=
202104301936 SPECI KPWT 301936Z AUTO 18009G22KT 10SM BKN010 BKN013 15/13 A3018 RMK AO2 CIG 005V012=
202104301922 SPECI KPWT 301922Z AUTO 20013G21KT 10SM BKN008 14/12 A3019 RMK AO2 CIG 005V011=
202104301856 METAR KPWT 301856Z AUTO 20013G19KT 10SM OVC005 13/12 A3019 RMK AO2 CIG 004V008 SLP229 T01280117=
202104301825 SPECI KPWT 301825Z AUTO 20011KT 10SM OVC007 13/12 A3019 RMK AO2 CIG 004V011=
202104301756 METAR KPWT 301756Z AUTO 20013KT 10SM OVC005 12/12 A3019 RMK AO2 CIG 004V009 SLP227 60010 T01220117 10122 20100 58001=
202104301749 SPECI KPWT 301749Z AUTO 20009KT 10SM OVC005 12/12 A3019 RMK AO2 CIG 003V009=
202104301656 METAR KPWT 301656Z AUTO 18009KT 8SM OVC003 12/11 A3019 RMK AO2 RAE15 SLP228 P0001 T01170111=
202104301556 METAR KPWT 301556Z AUTO 20009KT 7SM -RA OVC003 11/11 A3019 RMK AO2 SLP228 P0003 T01060106=
202104301456 METAR KPWT 301456Z AUTO 19007KT 10SM -RA OVC003 11/10 A3019 RMK AO2 SLP227 P0002 60006 T01060100 55000=
202104301356 METAR KPWT 301356Z AUTO 20008KT 6SM -RA BR OVC003 10/10 A3018 RMK AO2 RAB24 SLP223 P0004 T01000100=
202104301340 SPECI KPWT 301340Z AUTO 20009KT 6SM -RA BR OVC003 10/10 A3018 RMK AO2 RAB24 P0002=
202104301329 SPECI KPWT 301329Z AUTO 20009KT 6SM -RA BR BKN005 BKN010 OVC013 10/09 A3018 RMK AO2 RAB24 P0001=
202104301256 METAR KPWT 301256Z AUTO 20010KT 10SM SCT005 OVC014 10/09 A3019 RMK AO2 SLP226 T01000094=
202104301242 SPECI KPWT 301242Z AUTO 20009KT 10SM BKN007 OVC012 10/09 A3019 RMK AO2 CIG 004V008=
202104301222 SPECI KPWT 301222Z AUTO 20009G17KT 10SM SCT007 BKN014 OVC048 10/09 A3019 RMK AO2=
202104301203 SPECI KPWT 301203Z AUTO 20010KT 10SM SCT007 OVC042 10/09 A3019 RMK AO2=
202104301156 METAR KPWT 301156Z AUTO 20011KT 10SM BKN007 OVC042 10/09 A3019 RMK AO2 SLP226 6//// 7//// T01000094 10111 20100 56006=
202104301110 SPECI KPWT 301110Z AUTO 19011KT 10SM BKN007 OVC050 10/09 A3019 RMK AO2 CIG 004V010=
202104301056 METAR KPWT 301056Z AUTO 19009KT 10SM BKN005 OVC050 10/09 A3019 RMK AO2 CIG 004V010 SLP226 T01000094=
202104301014 SPECI KPWT 301014Z AUTO 20011G15KT 10SM OVC005 10/09 A3019 RMK AO2=
202104300956 METAR KPWT 300956Z AUTO 20010KT 10SM OVC007 10/09 A3019 RMK AO2 RAE39 CIG 005V010 SLP227 P0001 T01000094=
202104300932 SPECI KPWT 300932Z AUTO 20011KT 10SM -RA OVC009 10/09 A3020 RMK AO2 CIG 006V011 P0001=
202104300856 METAR KPWT 300856Z AUTO 19009KT 10SM -RA BKN013 10/09 A3021 RMK AO2 RAB31 SLP233 6//// T01000089 58001=
202104300853 SPECI KPWT 300853Z AUTO 19008KT 10SM -RA BKN013 10/09 A3021 RMK AO2 RAB31=
202104300844 SPECI KPWT 300844Z AUTO 20008KT 10SM -RA BKN015 10/08 A3021 RMK AO2 RAB31=
202104300756 METAR KPWT 300756Z AUTO 21005KT 10SM FEW100 10/08 A3022 RMK AO2 SLP238 T01000078 402330072=
202104300656 METAR KPWT 300656Z AUTO VRB06KT 10SM CLR 11/07 A3021 RMK AO2 SLP233 T01060072=
202104300556 METAR KPWT 300556Z AUTO 20009KT 10SM CLR 11/06 A3021 RMK AO2 SLP231 6//// T01110061 10217 20111 51010=
202104300456 METAR KPWT 300456Z AUTO 21011KT 10SM CLR 12/03 A3020 RMK AO2 SLP231 T01170028=
202104300356 METAR KPWT 300356Z AUTO 22009KT 10SM CLR 13/03 A3018 RMK AO2 SLP225 T01330028=
202104300256 METAR KPWT 300256Z AUTO 22013KT 10SM CLR 15/02 A3017 RMK AO2 SLP222 6//// T01500017=
202104300156 METAR KPWT 300156Z AUTO 22014G20KT 10SM CLR 17/00 A3017 RMK AO2 SLP221 T01720000=
202104300056 METAR KPWT 300056Z AUTO 23013KT 10SM CLR 19/00 RMK AO2 SLPNO T01940000 $=
202104292356 METAR KPWT 292356Z AUTO 23014G19KT 10SM CLR 22/01 A3017 RMK AO2 SLP218 T02170011 10233 20178 56008=
202104292256 METAR KPWT 292256Z AUTO 23011G19KT 10SM CLR 23/05 A3017 RMK AO2 SLP219 T02280050=
202104292156 METAR KPWT 292156Z AUTO 21006KT 10SM CLR 22/08 A3018 RMK AO2 SLP224 T02220083=
202104292056 METAR KPWT 292056Z AUTO 24010G15KT 10SM CLR 21/08 A3019 RMK AO2 SLP226 T02110078 58015=
202104291956 METAR KPWT 291956Z AUTO 20009KT 10SM CLR 21/05 A3021 RMK AO2 SLP233 T02060050=
202104291856 METAR KPWT 291856Z AUTO 23007KT 10SM CLR 19/09 A3022 RMK AO2 SLP238 T01940089=
202104291756 METAR KPWT 291756Z AUTO 00000KT 10SM CLR 17/09 A3023 RMK AO2 SLP240 T01720089 10172 20072 58006=
202104291656 METAR KPWT 291656Z AUTO 24003KT 10SM CLR 15/09 A3025 RMK AO2 SLP246 T01500089=
202104291556 METAR KPWT 291556Z AUTO 00000KT 10SM CLR 12/08 A3025 RMK AO2 SLP249 T01220078=
202104291456 METAR KPWT 291456Z AUTO 00000KT 10SM CLR 11/08 A3025 RMK AO2 SLP248 T01110078 56004=
202104291356 METAR KPWT 291356Z AUTO 00000KT 10SM CLR 08/07 A3025 RMK AO2 SLP250 T00780067=
202104291256 METAR KPWT 291256Z AUTO 00000KT 10SM CLR 08/06 A3026 RMK AO2 SLP250 T00830061=
202104291156 METAR KPWT 291156Z AUTO 05003KT 10SM CLR 10/07 A3026 RMK AO2 SLP251 7//// T01000067 10122 20100 55003=
202104291056 METAR KPWT 291056Z AUTO 05007KT 10SM CLR 11/07 A3026 RMK AO2 SLP249 T01060067=
202104290956 METAR KPWT 290956Z AUTO 05005KT 10SM CLR 10/07 A3028 RMK AO2 SLP255 T01000067=
202104290856 METAR KPWT 290856Z AUTO 05006KT 10SM CLR 11/07 A3027 RMK AO2 SLP255 T01110072 55005=
202104290756 METAR KPWT 290756Z AUTO 05008KT 10SM CLR 12/07 A3027 RMK AO2 SLP254 T01170072 401830044=
202104290656 METAR KPWT 290656Z AUTO 05006KT 10SM CLR 11/07 A3028 RMK AO2 SLP259 T01110072=
202104290556 METAR KPWT 290556Z AUTO 04004KT 10SM CLR 12/07 A3029 RMK AO2 SLP260 T01170067 10178 20117 51004=
202104290456 METAR KPWT 290456Z AUTO 02003KT 10SM CLR 12/07 A3029 RMK AO2 SLP260 T01220072=
202104290356 METAR KPWT 290356Z AUTO 03004KT 10SM CLR 13/07 A3028 RMK AO2 SLP257 T01280067=
202104290256 METAR KPWT 290256Z AUTO 03005KT 10SM CLR 14/07 A3028 RMK AO2 SLP257 T01390072 56004=
202104290156 METAR KPWT 290156Z AUTO 04009KT 10SM CLR 15/07 A3028 RMK AO2 SLP259 T01500072=
202104290056 METAR KPWT 290056Z AUTO 05009KT 10SM CLR 16/07 A3028 RMK AO2 SLP258 T01610072=
202104282356 METAR KPWT 282356Z AUTO 00000KT 10SM CLR 17/03 A3029 RMK AO2 SLP261 6//// T01720033 10183 20133 51001=
202104282256 METAR KPWT 282256Z AUTO 23003KT 10SM CLR 18/06 A3028 RMK AO2 SLP259 T01830056=
202104282156 METAR KPWT 282156Z AUTO 20004KT 10SM CLR 17/05 A3029 RMK AO2 SLP261 T01720050=
202104282056 METAR KPWT 282056Z AUTO 24007KT 10SM CLR 18/04 A3028 RMK AO2 SLP259 T01780044 55009=
202104281956 METAR KPWT 281956Z AUTO 28004KT 10SM CLR 17/07 A3028 RMK AO2 SLP259 T01670067=
202104281856 METAR KPWT 281856Z AUTO 13003KT 10SM CLR 14/08 A3031 RMK AO2 SLP266 T01440078=
202104281818 SPECI KPWT 281818Z AUTO VRB03KT 10SM FEW021 14/08 A3030 RMK AO2=
202104281756 METAR KPWT 281756Z AUTO VRB04KT 10SM BKN021 13/08 A3031 RMK AO2 SLP268 T01330078 10133 20044 56001=
202104281656 METAR KPWT 281656Z AUTO 22003KT 10SM CLR 12/08 A3030 RMK AO2 SLP266 T01220078=
202104281556 METAR KPWT 281556Z AUTO 00000KT 10SM CLR 11/07 A3031 RMK AO2 SLP270 T01110072=
202104281456 METAR KPWT 281456Z AUTO 00000KT 10SM CLR 09/07 A3031 RMK AO2 SLP269 T00890072 53009=
202104281443 SPECI KPWT 281443Z AUTO 00000KT 10SM SCT023 08/07 A3030 RMK AO2=
202104281416 SPECI KPWT 281416Z AUTO 00000KT 10SM BKN023 07/06 A3030 RMK AO2=
202104281356 METAR KPWT 281356Z AUTO 00000KT 10SM CLR 05/05 A3029 RMK AO2 SLP264 T00500050=
202104281256 METAR KPWT 281256Z AUTO 00000KT 10SM OVC100 06/06 A3029 RMK AO2 SLP262 T00610056=
202104281156 METAR KPWT 281156Z AUTO 00000KT 10SM SCT110 05/04 A3028 RMK AO2 SLP261 T00500044 10106 20044 53004=
202104281056 METAR KPWT 281056Z AUTO 00000KT 10SM SCT110 06/05 A3027 RMK AO2 SLP256 T00560050=
202104280956 METAR KPWT 280956Z AUTO 00000KT 10SM BKN100 08/06 A3026 RMK AO2 SLP252 T00780061=
202104280856 METAR KPWT 280856Z AUTO 00000KT 10SM OVC095 08/07 A3027 RMK AO2 SLP255 T00830067 51008=
202104280756 METAR KPWT 280756Z AUTO 00000KT 10SM SCT080 08/06 A3026 RMK AO2 SLP253 T00780061 401560006=
202104280656 METAR KPWT 280656Z AUTO 12003KT 10SM SCT095 10/07 A3025 RMK AO2 SLP250 T01000067=
202104280556 METAR KPWT 280556Z AUTO 00000KT 10SM BKN110 11/07 A3025 RMK AO2 SLP247 T01060072 10150 20106 51016=
202104280456 METAR KPWT 280456Z AUTO 06003KT 10SM OVC100 11/06 A3024 RMK AO2 SLP245 T01110061=
202104280356 METAR KPWT 280356Z AUTO 22004KT 10SM OVC110 12/06 A3022 RMK AO2 SLP238 T01170061=
202104280256 METAR KPWT 280256Z AUTO 20004KT 10SM OVC120 13/05 A3020 RMK AO2 SLP231 T01280050 53008=
202104280156 METAR KPWT 280156Z AUTO 24009KT 10SM CLR 14/04 A3018 RMK AO2 SLP225 T01390044=
202104280056 METAR KPWT 280056Z AUTO 23007KT 10SM CLR 14/04 A3018 RMK AO2 SLP224 T01440044=
202104272356 METAR KPWT 272356Z AUTO 24012KT 10SM CLR 15/05 A3017 RMK AO2 SLP222 T01500050 10156 20106 50001=
202104272256 METAR KPWT 272256Z AUTO 21011KT 10SM CLR 15/05 A3018 RMK AO2 SLP224 T01500050=
202104272156 METAR KPWT 272156Z AUTO 23011G18KT 10SM CLR 16/06 A3017 RMK AO2 SLP223 T01560056=
202104272056 METAR KPWT 272056Z AUTO 23013KT 10SM FEW033 15/06 A3017 RMK AO2 SLP221 T01500061 50003=
202104272027 SPECI KPWT 272027Z AUTO 23009G17KT 10SM SCT031 14/06 A3017 RMK AO2=
202104271956 METAR KPWT 271956Z AUTO 20013G17KT 10SM BKN029 13/07 A3017 RMK AO2 SLP221 T01330067=
202104271856 METAR KPWT 271856Z AUTO 17009G15KT 10SM BKN022 OVC027 13/07 A3016 RMK AO2 SLP219 T01280067=
202104271756 METAR KPWT 271756Z AUTO 21006KT 10SM OVC018 11/07 A3016 RMK AO2 SLP218 T01060067 10106 20011 51005=
202104271710 SPECI KPWT 271710Z AUTO 20008KT 10SM OVC016 10/07 A3016 RMK AO2=
202104271656 METAR KPWT 271656Z AUTO 18007KT 10SM BKN014 BKN025 10/07 A3015 RMK AO2 SLP216 T01000067=
202104271644 SPECI KPWT 271644Z AUTO 21009KT 10SM BKN014 BKN025 10/07 A3016 RMK AO2=
202104271630 SPECI KPWT 271630Z AUTO 20008KT 10SM SCT012 BKN025 10/06 A3016 RMK AO2=
202104271556 METAR KPWT 271556Z AUTO 22007KT 10SM FEW008 08/07 A3015 RMK AO2 SLP216 T00830067=
202104271517 SPECI KPWT 271517Z AUTO 20003KT 10SM SCT002 08/07 A3015 RMK AO2=
202104271456 METAR KPWT 271456Z AUTO 22003KT 7SM BKN002 06/06 A3015 RMK AO2 SLP213 T00610061 51010=
202104271454 SPECI KPWT 271454Z AUTO 00000KT 7SM BKN002 06/06 A3015 RMK AO2=
202104271438 SPECI KPWT 271438Z AUTO 00000KT 10SM FEW002 06/05 A3015 RMK AO2=
202104271413 SPECI KPWT 271413Z AUTO 00000KT 10SM SCT002 OVC018 05/05 A3014 RMK AO2=
202104271356 METAR KPWT 271356Z AUTO 00000KT 10SM OVC002 05/04 A3013 RMK AO2 SLP209 T00500044=
202104271352 SPECI KPWT 271352Z AUTO 00000KT 5SM BR OVC002 04/04 A3013 RMK AO2=
202104271350 SPECI KPWT 271350Z AUTO 00000KT 1 1/2SM BR OVC002 04/04 RMK AO2 VIS 1/4V5 $=
202104271348 SPECI KPWT 271348Z AUTO 00000KT 3/4SM BR OVC002 04/04 A3013 RMK AO2 VIS 1/4V5=
202104271256 METAR KPWT 271256Z AUTO 21003KT 1/4SM FG OVC002 03/03 A3011 RMK AO2 SLP203 T00280028=
202104271239 SPECI KPWT 271239Z AUTO 19003KT 1/4SM FG BKN002 01/01 A3011 RMK AO2 FZRANO=
202104271232 SPECI KPWT 271232Z AUTO 22003KT 3/4SM BR VV002 01/01 A3011 RMK AO2 FZRANO=
202104271227 SPECI KPWT 271227Z AUTO 21003KT 1 1/2SM BR FEW001 02/01 A3011 RMK AO2 FZRANO=
202104271206 SPECI KPWT 271206Z AUTO 00000KT 4SM BR CLR 02/01 A3010 RMK AO2 FZRANO=
202104271203 SPECI KPWT 271203Z AUTO 00000KT 1 1/4SM BR CLR 02/02 A3010 RMK AO2 FZRANO=
202104271156 METAR KPWT 271156Z AUTO 00000KT 3/4SM BR CLR 01/01 A3010 RMK AO2 SLP198 7//// T00110011 10078 20006 53007 FZRANO=
202104271145 SPECI KPWT 271145Z AUTO 00000KT 1 3/4SM BR CLR 01/01 A3010 RMK AO2 VIS 3/4V5 FZRANO=
202104271130 SPECI KPWT 271130Z AUTO 00000KT 4SM BR CLR 03/03 A3009 RMK AO2=
202104271118 SPECI KPWT 271118Z AUTO 00000KT 1 1/2SM BR CLR 02/02 A3009 RMK AO2 FZRANO=
202104271056 METAR KPWT 271056Z AUTO 00000KT 10SM CLR 03/03 A3008 RMK AO2 SLP190 T00330033=
202104271038 SPECI KPWT 271038Z AUTO 00000KT 10SM CLR 02/02 A3009 RMK AO2 FZRANO=
202104271030 SPECI KPWT 271030Z AUTO 00000KT 2SM BR CLR 03/03 A3008 RMK AO2=
202104271027 SPECI KPWT 271027Z AUTO 00000KT 1SM BR CLR 03/03 A3008 RMK AO2=
202104271004 SPECI KPWT 271004Z AUTO 00000KT 1 3/4SM BR CLR 03/03 A3007 RMK AO2 VIS 1V5=
202104270956 METAR KPWT 270956Z AUTO 00000KT 8SM CLR 04/03 A3007 RMK AO2 SLP188 T00390033=
202104270856 METAR KPWT 270856Z AUTO 00000KT 10SM SCT070 07/06 A3008 RMK AO2 SLP191 T00670056 51017=
202104270756 METAR KPWT 270756Z AUTO 00000KT 10SM OVC070 07/06 A3006 RMK AO2 SLP186 T00720061 401500044=
202104270656 METAR KPWT 270656Z AUTO 00000KT 10SM OVC070 07/06 A3005 RMK AO2 SLP181 T00670061=
202104270556 METAR KPWT 270556Z AUTO 00000KT 10SM CLR 07/06 A3003 RMK AO2 SLP175 6//// T00670056 10144 20067 51017=
202104270456 METAR KPWT 270456Z AUTO 16003KT 10SM OVC070 09/07 A3002 RMK AO2 SLP171 T00890072=
202104270356 METAR KPWT 270356Z AUTO 06003KT 10SM FEW070 09/07 A3000 RMK AO2 SLP163 T00890067=
202104270256 METAR KPWT 270256Z AUTO 36003KT 10SM CLR 12/06 A2998 RMK AO2 SLP156 60000 T01170061 51014=
202104270156 METAR KPWT 270156Z AUTO 07003KT 10SM OVC047 13/06 A2997 RMK AO2 RAB44E56 SLP153 P0000 T01330056=
202104270056 METAR KPWT 270056Z AUTO 00000KT 10SM BKN050 14/04 A2996 RMK AO2 SLP149 T01390044=
202104262356 METAR KPWT 262356Z AUTO 13005KT 10SM BKN050 OVC070 14/04 A2994 RMK AO2 SLP143 6//// T01440039 10150 20122 51003=
202104262256 METAR KPWT 262256Z AUTO 00000KT 10SM BKN065 13/04 A2994 RMK AO2 RAB04E21 SLP143 P0000 T01330039=
202104262156 METAR KPWT 262156Z AUTO VRB03KT 10SM OVC044 13/05 A2994 RMK AO2 SLP144 T01280050=
202104262056 METAR KPWT 262056Z AUTO 24004KT 10SM FEW048 SCT070 13/04 A2993 RMK AO2 SLP140 6//// T01280039 51005=
202104261956 METAR KPWT 261956Z AUTO 30007KT 270V340 10SM BKN036 BKN043 BKN060 13/04 A2993 RMK AO2 SLP138 T01280044=
202104261856 METAR KPWT 261856Z AUTO 22005KT 10SM SCT035 BKN050 13/04 A2992 RMK AO2 SLP138 T01330044=
202104261803 SPECI KPWT 261803Z AUTO VRB06KT 10SM BKN030 BKN038 13/06 A2991 RMK AO2=
202104261756 METAR KPWT 261756Z AUTO 19007KT 10SM BKN028 BKN036 13/06 A2991 RMK AO2 SLP134 T01280056 10128 20044 51004=
202104261754 SPECI KPWT 261754Z AUTO 20008KT 10SM BKN028 BKN036 13/06 A2991 RMK AO2=
202104261656 METAR KPWT 261656Z AUTO 20007KT 10SM FEW015 11/06 A2990 RMK AO2 SLP132 T01060056=
202104261621 SPECI KPWT 261621Z AUTO 21007KT 10SM SCT007 09/06 A2990 RMK AO2=
202104261556 METAR KPWT 261556Z AUTO VRB03KT 10SM BKN007 OVC029 08/06 A2990 RMK AO2 SLP129 T00780056=
202104261548 SPECI KPWT 261548Z AUTO 23005KT 10SM BKN005 OVC029 08/06 A2990 RMK AO2=
202104261456 METAR KPWT 261456Z AUTO 20006KT 10SM FEW002 BKN023 07/06 A2988 RMK AO2 SLP124 T00720056 53017=
202104261446 SPECI KPWT 261446Z AUTO 22004KT 10SM FEW002 BKN023 07/06 A2988 RMK AO2=
202104261356 METAR KPWT 261356Z AUTO 00000KT 10SM OVC002 05/04 A2987 RMK AO2 SLP118 T00500044=
202104261343 SPECI KPWT 261343Z AUTO 23003KT 9SM OVC002 05/05 A2986 RMK AO2=
202104261301 SPECI KPWT 261301Z AUTO 00000KT 10SM BKN004 BKN026 04/04 A2985 RMK AO2=
202104261256 METAR KPWT 261256Z AUTO 00000KT 10SM SCT004 SCT026 04/04 A2985 RMK AO2 SLP111 T00440044=
202104261249 SPECI KPWT 261249Z AUTO 22003KT 10SM SCT024 04/04 A2984 RMK AO2=
202104261223 SPECI KPWT 261223Z AUTO 19004KT 10SM SCT004 OVC020 06/05 A2984 RMK AO2=
202104261156 METAR KPWT 261156Z AUTO 20004KT 10SM OVC004 06/05 A2983 RMK AO2 SLP106 70003 T00560050 10089 20056 53011=
202104261056 METAR KPWT 261056Z AUTO 00000KT 10SM OVC004 06/06 A2982 RMK AO2 SLP102 T00610056=
202104260956 METAR KPWT 260956Z AUTO 00000KT 10SM OVC004 07/06 A2980 RMK AO2 SLP097 T00670061=
202104260856 METAR KPWT 260856Z AUTO 00000KT 10SM BKN004 BKN008 OVC017 07/06 A2980 RMK AO2 SLP095 T00670061 51008=
202104260825 SPECI KPWT 260825Z AUTO 00000KT 10SM BKN006 06/05 A2980 RMK AO2 CIG 005V008=
202104260817 SPECI KPWT 260817Z AUTO 00000KT 10SM SCT006 06/06 A2980 RMK AO2=
202104260756 METAR KPWT 260756Z AUTO 00000KT 10SM FEW075 06/06 A2979 RMK AO2 SLP094 T00610056 401390061=
202104260656 METAR KPWT 260656Z AUTO 00000KT 10SM FEW060 07/06 A2979 RMK AO2 SLP092 T00670061=
202104260619 SPECI KPWT 260619Z AUTO 15003KT 10SM SCT017 08/07 A2978 RMK AO2=
202104260604 SPECI KPWT 260604Z AUTO 14003KT 10SM BKN017 BKN055 08/07 A2978 RMK AO2=
202104260556 METAR KPWT 260556Z AUTO 14003KT 10SM SCT017 BKN060 09/07 A2978 RMK AO2 SLP088 T00890067 10139 20078 51015=
202104260545 SPECI KPWT 260545Z AUTO 09003KT 10SM BKN019 OVC060 08/07 A2978 RMK AO2=
202104260507 SPECI KPWT 260507Z AUTO 13003KT 10SM SCT019 OVC050 08/07 A2977 RMK AO2=
202104260456 METAR KPWT 260456Z AUTO 14003KT 10SM BKN021 BKN055 09/07 A2977 RMK AO2 SLP086 T00890067=
202104260418 SPECI KPWT 260418Z AUTO 06004KT 10SM SCT021 BKN025 09/07 A2976 RMK AO2=
202104260356 METAR KPWT 260356Z AUTO 07004KT 10SM SCT050 09/07 A2975 RMK AO2 SLP080 T00890067=
202104260256 METAR KPWT 260256Z AUTO 19003KT 10SM CLR 11/06 A2973 RMK AO2 SLP073 T01060061 53006=
202104260156 METAR KPWT 260156Z AUTO 22010KT 10SM CLR 13/05 A2972 RMK AO2 SLP069 T01280050=
202104260056 METAR KPWT 260056Z AUTO 21010KT 10SM CLR 14/06 A2972 RMK AO2 SLP068 T01390056=
202104252356 METAR KPWT 252356Z AUTO 22012KT 10SM CLR 13/06 A2971 RMK AO2 SLP066 60000 T01330061 10139 20094 58004=
202104252256 METAR KPWT 252256Z AUTO 21008KT 10SM CLR 13/07 A2972 RMK AO2 SLP071 T01280072=
202104252156 METAR KPWT 252156Z AUTO 23012G16KT 10SM CLR 13/08 A2972 RMK AO2 RAB2059E26 SLP070 P0000 T01330078=
202104252056 METAR KPWT 252056Z AUTO 23012G18KT 10SM FEW025 SCT040 BKN055 12/07 A2973 RMK AO2 RAE01B42E53 SLP072 P0000 60000 T01220067 56006=
202104252027 SPECI KPWT 252027Z AUTO 23011KT 10SM SCT025 BKN037 12/07 A2973 RMK AO2 RAE01 P0000=
202104251956 METAR KPWT 251956Z AUTO 23008KT 10SM -RA BKN023 OVC034 12/07 A2973 RMK AO2 RAB50 SLP071 P0000 T01170072=
202104251856 METAR KPWT 251856Z AUTO 21012G16KT 10SM BKN019 BKN026 11/06 A2974 RMK AO2 SLP075 T01060061=
202104251756 METAR KPWT 251756Z AUTO 19012G18KT 10SM BKN015 09/07 A2974 RMK AO2 SLP077 60003 T00940067 10100 20067 53003=
202104251731 SPECI KPWT 251731Z AUTO 19011KT 10SM BKN011 BKN017 BKN022 09/07 A2974 RMK AO2=
202104251712 SPECI KPWT 251712Z AUTO 19010KT 10SM BKN009 BKN022 09/07 A2974 RMK AO2 CIG 007V014=
202104251710 SPECI KPWT 251710Z AUTO 19010KT 10SM FEW009 SCT012 BKN022 09/07 A2974 RMK AO2=
202104251656 METAR KPWT 251656Z AUTO 21012G15KT 10SM BKN009 BKN020 BKN028 09/08 A2974 RMK AO2 CIG 007V012 SLP075 T00890078=
202104251556 METAR KPWT 251556Z AUTO 19009KT 10SM BKN007 OVC011 08/07 A2974 RMK AO2 RAE07 CIG 004V009 SLP076 P0000 T00780072=
202104251456 METAR KPWT 251456Z AUTO 19010KT 10SM -RA BKN007 OVC020 07/07 A2974 RMK AO2 CIG 005V010 SLP075 P0001 60003 T00720067 53007=
202104251356 METAR KPWT 251356Z AUTO 19009KT 10SM -RA BKN009 OVC030 07/06 A2972 RMK AO2 CIG 006V014 SLP071 P0002 T00670061=
202104251330 SPECI KPWT 251330Z AUTO 20009KT 10SM -RA BKN007 BKN014 OVC023 07/06 A2972 RMK AO2 CIG 004V011 P0001=
202104251256 METAR KPWT 251256Z AUTO 20007KT 9SM -RA SCT007 BKN012 OVC023 07/06 A2972 RMK AO2 RAB12 SLP069 P0000 T00670061=
202104251245 SPECI KPWT 251245Z AUTO 20006KT 10SM -RA FEW007 BKN014 OVC029 07/06 A2972 RMK AO2 RAB12 P0000=
202104251210 SPECI KPWT 251210Z AUTO 19006KT 10SM OVC029 07/06 A2972 RMK AO2=
202104251156 METAR KPWT 251156Z AUTO 19006KT 10SM OVC031 07/06 A2972 RMK AO2 SLP067 60020 70040 T00720061 10078 20067 56003=
202104251056 METAR KPWT 251056Z AUTO 00000KT 10SM FEW014 OVC034 07/07 A2972 RMK AO2 RAE05 SLP069 P0001 T00670067=
202104250956 METAR KPWT 250956Z AUTO 00000KT 10SM -RA FEW003 07/07 A2972 RMK AO2 SLP068 P0005 T00720067=
202104250945 SPECI KPWT 250945Z AUTO 27003KT 10SM -RA FEW003 SCT036 07/07 A2972 RMK AO2 P0005=
202104250917 SPECI KPWT 250917Z AUTO VRB03KT 7SM -RA FEW003 BKN013 OVC025 07/07 A2973 RMK AO2 P0004=
202104250905 SPECI KPWT 250905Z AUTO 20004KT 5SM -RA BR FEW005 BKN025 OVC035 07/07 A2973 RMK AO2 P0002=
202104250856 METAR KPWT 250856Z AUTO 22003KT 8SM -RA SCT005 SCT025 OVC035 07/07 A2972 RMK AO2 SLP070 P0005 60014 T00720072 55001=
202104250828 SPECI KPWT 250828Z AUTO 00000KT 10SM -RA FEW007 BKN030 OVC035 07/07 A2972 RMK AO2 P0002=
202104250756 METAR KPWT 250756Z AUTO 00000KT 10SM -RA BKN034 BKN043 07/07 A2972 RMK AO2 SLP069 P0006 T00720067 400940072=
202104250656 METAR KPWT 250656Z AUTO 00000KT 10SM -RA CLR 07/07 A2972 RMK AO2 SLP070 P0003 T00720072=
202104250556 METAR KPWT 250556Z AUTO 00000KT 7SM -RA SCT012 BKN032 OVC044 07/07 A2973 RMK AO2 SLP072 P0003 60005 T00720072 10089 20072 50003=
202104250540 SPECI KPWT 250540Z AUTO 00000KT 10SM -RA BKN012 BKN020 BKN031 07/07 A2973 RMK AO2 P0001=
202104250456 METAR KPWT 250456Z AUTO 19003KT 10SM -RA SCT040 07/07 A2973 RMK AO2 SLP072 P0000 T00720067=
202104250356 METAR KPWT 250356Z AUTO 20003KT 10SM -RA CLR 08/07 A2972 RMK AO2 RAB0259 SLP070 P0001 T00780072=
202104250256 METAR KPWT 250256Z AUTO 19005KT 10SM CLR 08/07 A2972 RMK AO2 RAE32 SLP069 P0000 60001 T00780072 58010=
202104250212 SPECI KPWT 250212Z AUTO 20005KT 10SM -RA FEW014 08/07 A2973 RMK AO2 P0000=
202104250156 METAR KPWT 250156Z AUTO 20006KT 10SM -RA BKN012 08/08 A2973 RMK AO2 SLP072 P0000 T00830078=
202104250140 SPECI KPWT 250140Z AUTO 19008KT 10SM -RA SCT009 BKN012 08/08 A2973 RMK AO2 P0000=
202104250124 SPECI KPWT 250124Z AUTO 19008KT 10SM -RA SCT007 SCT015 09/08 A2974 RMK AO2 P0000=
202104250116 SPECI KPWT 250116Z AUTO 20007KT 10SM -RA SCT007 SCT015 BKN022 09/08 A2974 RMK AO2 P0000=
202104250056 METAR KPWT 250056Z AUTO 19007KT 10SM -RA BKN007 09/08 A2974 RMK AO2 RAB14 CIG 005V011 SLP076 P0001 T00890078=
202104250030 SPECI KPWT 250030Z AUTO 18007KT 10SM -RA BKN007 BKN030 09/08 A2974 RMK AO2 RAB14 CIG 005V010 P0000=
202104250022 SPECI KPWT 250022Z AUTO 19007G14KT 10SM -RA SCT007 BKN011 BKN030 09/08 A2974 RMK AO2 RAB14 P0000=
202104242356 METAR KPWT 242356Z AUTO 19007G14KT 10SM BKN009 OVC030 09/08 A2975 RMK AO2 RAE52 CIG 005V011 SLP078 P0000 60009 T00890078 10094 20083 58009=
202104242328 SPECI KPWT 242328Z AUTO 19009KT 10SM -RA BKN007 BKN014 OVC029 09/08 A2975 RMK AO2 CIG 005V011 P0000=
202104242321 SPECI KPWT 242321Z AUTO 20010KT 10SM -RA SCT007 BKN012 OVC029 09/08 A2975 RMK AO2 P0000=
202104242313 SPECI KPWT 242313Z AUTO 20008KT 10SM -RA BKN010 BKN021 OVC027 09/08 A2975 RMK AO2 CIG 006V015 P0000=
202104242256 METAR KPWT 242256Z AUTO 21009KT 10SM -RA BKN007 OVC013 09/08 A2976 RMK AO2 CIG 005V010 SLP080 P0001 T00890078=
202104242156 METAR KPWT 242156Z AUTO 19008KT 10SM -RA BKN007 BKN011 OVC028 09/08 A2977 RMK AO2 CIG 005V010 SLP085 P0003 T00890078=
202104242056 METAR KPWT 242056Z AUTO 20008KT 10SM -RA BKN007 OVC014 09/08 A2977 RMK AO2 CIG 005V011 SLP087 P0002 60005 T00890078 58006=
202104242043 SPECI KPWT 242043Z AUTO 21010KT 10SM -RA BKN009 BKN016 OVC023 09/08 A2978 RMK AO2 CIG 007V014 P0002=
202104242007 SPECI KPWT 242007Z AUTO 19008G14KT 10SM -RA SCT009 BKN016 09/08 A2978 RMK AO2 P0001=
202104241956 METAR KPWT 241956Z AUTO 19009KT 10SM -RA BKN009 BKN014 BKN026 08/07 A2978 RMK AO2 CIG 007V011 SLP090 P0001 T00830072=
202104241948 SPECI KPWT 241948Z AUTO 21009KT 10SM -RA SCT008 BKN012 OVC030 08/07 A2978 RMK AO2 P0001=
202104241930 SPECI KPWT 241930Z AUTO 20010KT 10SM -RA SCT010 BKN020 BKN028 08/07 A2979 RMK AO2 P0001=
202104241856 METAR KPWT 241856Z AUTO 21009G14KT 10SM -RA FEW009 SCT016 SCT027 08/07 A2979 RMK AO2 SLP093 P0002 T00830072=
202104241845 SPECI KPWT 241845Z AUTO 20009KT 10SM -RA FEW009 SCT014 BKN027 08/07 A2979 RMK AO2 P0001=
202104241822 SPECI KPWT 241822Z AUTO 20008G14KT 10SM -RA FEW009 SCT015 08/07 A2979 RMK AO2 P0001=
202104241811 SPECI KPWT 241811Z AUTO 20009KT 10SM -RA SCT009 BKN015 08/07 A2980 RMK AO2 P0001=
202104241756 METAR KPWT 241756Z AUTO 20009KT 10SM -RA BKN009 BKN013 08/07 A2979 RMK AO2 CIG 007V011 SLP093 P0001 60006 T00830067 10083 20072 56002=
202104241656 METAR KPWT 241656Z AUTO 20009KT 10SM -RA BKN009 08/07 A2979 RMK AO2 CIG 005V012 SLP094 P0001 T00780067=
202104241652 SPECI KPWT 241652Z AUTO 20009KT 10SM -RA BKN007 08/07 A2979 RMK AO2 CIG 005V012 P0001=
202104241645 SPECI KPWT 241645Z AUTO 20007KT 10SM -RA SCT007 BKN011 BKN029 08/07 A2979 RMK AO2 P0001=
202104241638 SPECI KPWT 241638Z AUTO 20009KT 10SM -RA SCT009 BKN031 08/07 A2979 RMK AO2 P0001=
202104241556 METAR KPWT 241556Z AUTO 20008KT 10SM -RA CLR 07/07 A2980 RMK AO2 SLP095 P0001 T00720067=
202104241506 SPECI KPWT 241506Z AUTO 20008KT 10SM -RA FEW027 07/07 A2980 RMK AO2 P0000=
202104241456 METAR KPWT 241456Z AUTO 20008KT 10SM -RA FEW006 BKN027 BKN036 07/07 A2980 RMK AO2 SLP096 P0001 60003 T00720067 55005=
202104241438 SPECI KPWT 241438Z AUTO 20007KT 10SM -RA FEW009 BKN027 07/07 A2980 RMK AO2 P0001=
202104241356 METAR KPWT 241356Z AUTO 19007KT 10SM -RA FEW005 07/07 A2980 RMK AO2 RAE18B40 SLP095 P0001 T00720067=
202104241324 SPECI KPWT 241324Z AUTO 20007KT 10SM FEW005 07/07 A2980 RMK AO2 RAE18 P0001=
202104241256 METAR KPWT 241256Z AUTO 19007KT 10SM -RA 07/07 A2980 RMK AO2 SLP096 P0001 T00720067=
202104241156 METAR KPWT 241156Z AUTO 21006KT 10SM -RA SCT007 07/07 A2982 RMK AO2 SLP101 P0000 60001 7//// T00720067 10083 20072 56013=
202104241056 METAR KPWT 241056Z AUTO 20008KT 10SM -RA BKN009 08/07 A2983 RMK AO2 RAB46 CIG 006V012 SLP104 P0000 T00780067=
202104241035 SPECI KPWT 241035Z AUTO 18005KT 10SM BKN009 08/07 A2983 RMK AO2 CIG 006V011=
202104240956 METAR KPWT 240956Z AUTO 20005KT 10SM FEW007 07/07 A2984 RMK AO2 SLP108 T00720067=
202104240856 METAR KPWT 240856Z AUTO 19005KT 10SM FEW008 07/07 A2985 RMK AO2 RAE01 SLP114 P0000 60001 T00720067 58007=
202104240756 METAR KPWT 240756Z AUTO VRB05KT 10SM -RA CLR 07/07 A2987 RMK AO2 SLP119 P0001 T00720067 401440044=
202104240656 METAR KPWT 240656Z AUTO 19005KT 10SM -RA FEW048 08/07 A2987 RMK AO2 SLP121 P0000 T00780067=
202104240556 METAR KPWT 240556Z AUTO 20005KT 10SM -RA BKN047 08/06 A2988 RMK AO2 RAB35 SLP122 P0000 60000 T00830061 10128 20083 51003=
202104240456 METAR KPWT 240456Z AUTO 22007KT 10SM CLR 09/06 A2987 RMK AO2 SLP122 T00940056=
202104240356 METAR KPWT 240356Z AUTO 19005KT 10SM CLR 09/06 A2987 RMK AO2 SLP119 T00890056=
202104240256 METAR KPWT 240256Z AUTO 22011KT 10SM CLR 10/06 A2987 RMK AO2 SLP118 T01000061 58006=
202104240156 METAR KPWT 240156Z AUTO 23010KT 10SM CLR 11/06 A2988 RMK AO2 SLP124 T01060061=
202104240056 METAR KPWT 240056Z AUTO 24014KT 10SM CLR 12/07 A2988 RMK AO2 SLP123 T01170067=
202104232356 METAR KPWT 232356Z AUTO 24015G19KT 10SM CLR 13/06 A2989 RMK AO2 SLP125 6//// T01330061 10144 20111 56015=
202104232256 METAR KPWT 232256Z AUTO 23013KT 10SM CLR 13/06 A2990 RMK AO2 SLP130 T01330061=
202104232156 METAR KPWT 232156Z AUTO 23012KT 10SM CLR 14/06 A2992 RMK AO2 SLP135 T01390061=
202104232056 METAR KPWT 232056Z AUTO 23014KT 10SM CLR 14/06 A2993 RMK AO2 SLP140 6//// T01440061 56016=
202104231956 METAR KPWT 231956Z AUTO 23010KT 10SM CLR 14/06 A2994 RMK AO2 SLP144 T01390056=
202104231856 METAR KPWT 231856Z AUTO 22010G14KT 10SM CLR 13/06 A2996 RMK AO2 SLP150 T01330056=
202104231756 METAR KPWT 231756Z AUTO 21009KT 10SM FEW022 11/06 A2998 RMK AO2 SLP156 T01110056 10111 20044 58003=
202104231753 SPECI KPWT 231753Z AUTO 22013KT 10SM SCT022 11/06 A2998 RMK AO2=
202104231656 METAR KPWT 231656Z AUTO 21010KT 10SM OVC020 10/05 A2999 RMK AO2 SLP159 T01000050=
202104231632 SPECI KPWT 231632Z AUTO 22011KT 10SM BKN020 09/05 A2998 RMK AO2=
202104231556 METAR KPWT 231556Z AUTO 21010KT 10SM CLR 09/06 A2999 RMK AO2 SLP159 T00890056=
202104231456 METAR KPWT 231456Z AUTO 21010KT 10SM CLR 07/06 A2999 RMK AO2 SLP161 T00720056 53003=
202104231356 METAR KPWT 231356Z AUTO 21005KT 10SM CLR 05/04 A2998 RMK AO2 SLP157 T00500044=
202104231256 METAR KPWT 231256Z AUTO 22007KT 10SM CLR 05/04 A2998 RMK AO2 SLP156 T00500044=
202104231156 METAR KPWT 231156Z AUTO 22004KT 10SM CLR 05/04 A2998 RMK AO2 SLP158 7//// T00500044 10072 20044 52003=
202104231056 METAR KPWT 231056Z AUTO 20005KT 10SM CLR 06/04 A2998 RMK AO2 SLP157 T00560044=
202104230956 METAR KPWT 230956Z AUTO 19003KT 10SM CLR 05/04 A2998 RMK AO2 SLP156 T00500039=
202104230856 METAR KPWT 230856Z AUTO 23003KT 10SM CLR 04/03 A2997 RMK AO2 SLP155 T00440033 50002=
202104230756 METAR KPWT 230756Z AUTO 21005KT 10SM CLR 06/04 A2998 RMK AO2 SLP156 T00560039 401610056=
202104230656 METAR KPWT 230656Z AUTO 22006KT 10SM CLR 06/04 A2997 RMK AO2 SLP154 T00610044=
202104230556 METAR KPWT 230556Z AUTO 21006KT 10SM CLR 07/05 A2997 RMK AO2 SLP153 6//// T00720050 10161 20072 51011=
202104230456 METAR KPWT 230456Z AUTO 21006KT 10SM CLR 08/06 A2996 RMK AO2 SLP151 T00830056=
202104230356 METAR KPWT 230356Z AUTO 21006KT 10SM CLR 09/06 A2995 RMK AO2 SLP147 T00890056=
202104230256 METAR KPWT 230256Z AUTO 20003KT 10SM CLR 12/06 A2994 RMK AO2 SLP143 6//// T01220061 55000=
202104230156 METAR KPWT 230156Z AUTO 23007KT 10SM CLR 14/07 A2993 RMK AO2 SLP140 T01440067=
202104230056 METAR KPWT 230056Z AUTO 19008KT 10SM CLR 16/07 A2994 RMK AO2 SLP142 T01560067=
202104222356 METAR KPWT 222356Z AUTO 24008KT 10SM SCT040 16/07 A2994 RMK AO2 SLP142 6//// T01560067 10161 20111 58009=
202104222256 METAR KPWT 222256Z AUTO VRB05KT 10SM FEW036 16/06 A2995 RMK AO2 SLP145 T01560061=
202104222156 METAR KPWT 222156Z AUTO 23009KT 10SM OVC036 14/06 A2996 RMK AO2 SLP151 T01440061=
202104222056 METAR KPWT 222056Z AUTO 22008KT 10SM OVC032 13/07 A2997 RMK AO2 SLP152 T01330067 55000=
202104222035 SPECI KPWT 222035Z AUTO 21007KT 10SM OVC030 13/07 A2996 RMK AO2=
202104222022 SPECI KPWT 222022Z AUTO VRB03KT 10SM BKN028 OVC034 13/06 A2996 RMK AO2=
202104221956 METAR KPWT 221956Z AUTO 22005KT 10SM FEW025 BKN032 13/07 A2996 RMK AO2 SLP150 T01280067=
202104221856 METAR KPWT 221856Z AUTO 22005KT 10SM SCT023 OVC031 12/07 A2997 RMK AO2 SLP153 T01170067=
202104221756 METAR KPWT 221756Z AUTO 25008KT 10SM SCT013 OVC021 11/08 A2997 RMK AO2 SLP153 6//// T01110078 10111 20078 53004=
202104221719 SPECI KPWT 221719Z AUTO 23006KT 10SM BKN011 OVC021 10/08 A2996 RMK AO2=
202104221656 METAR KPWT 221656Z AUTO 23006KT 10SM BKN009 BKN013 OVC018 10/08 A2996 RMK AO2 CIG 006V011 SLP150 T01000078=
202104221626 SPECI KPWT 221626Z AUTO 17003KT 10SM OVC007 09/08 A2996 RMK AO2 CIG 004V011=
202104221556 METAR KPWT 221556Z AUTO VRB04KT 5SM BR OVC004 08/08 A2996 RMK AO2 SLP150 T00830078=
202104221536 SPECI KPWT 221536Z AUTO 22004KT 3SM BR OVC004 08/08 A2995 RMK AO2=
202104221456 METAR KPWT 221456Z AUTO 00000KT 5SM BR OVC008 08/07 A2995 RMK AO2 CIG 004V009 SLP147 T00780072 53012=
202104221436 SPECI KPWT 221436Z AUTO 00000KT 6SM BR OVC008 08/07 A2995 RMK AO2 CIG 007V013=
202104221408 SPECI KPWT 221408Z AUTO 17003KT 9SM OVC010 08/07 A2994 RMK AO2=
202104221356 METAR KPWT 221356Z AUTO 21004KT 7SM OVC009 08/07 A2994 RMK AO2 CIG 005V013 SLP141 T00780072=
202104221317 SPECI KPWT 221317Z AUTO 21005KT 8SM BKN007 OVC012 08/07 A2993 RMK AO2 CIG 005V011=
202104221256 METAR KPWT 221256Z AUTO 21004KT 8SM OVC005 08/07 A2992 RMK AO2 SLP134 T00780067=
202104221156 METAR KPWT 221156Z AUTO 20005KT 10SM OVC005 08/07 A2992 RMK AO2 SLP134 7//// T00780067 10089 20061 53002=
202104221056 METAR KPWT 221056Z AUTO 20007KT 10SM OVC005 08/07 A2991 RMK AO2 SLP132 T00780072=
202104220956 METAR KPWT 220956Z AUTO 21007KT 10SM OVC005 08/07 A2991 RMK AO2 SLP132 T00780067=
202104220918 SPECI KPWT 220918Z AUTO 21007KT 10SM OVC005 07/07 A2991 RMK AO2=
202104220856 METAR KPWT 220856Z AUTO 21005KT 10SM OVC007 07/07 A2991 RMK AO2 SLP132 T00720067 50000=
202104220830 SPECI KPWT 220830Z AUTO 21005KT 9SM OVC007 07/06 A2992 RMK AO2=
202104220806 SPECI KPWT 220806Z AUTO 22005KT 9SM SCT005 07/06 A2992 RMK AO2=
202104220756 METAR KPWT 220756Z AUTO 20005KT 9SM CLR 06/06 A2992 RMK AO2 SLP135 T00610056 402280017=
202104220656 METAR KPWT 220656Z AUTO 20005KT 10SM CLR 07/06 A2992 RMK AO2 SLP135 T00670061=
202104220556 METAR KPWT 220556Z AUTO 00000KT 10SM CLR 08/07 A2991 RMK AO2 SLP133 6//// T00830067 10217 20083 58001=
202104220456 METAR KPWT 220456Z AUTO 18003KT 10SM CLR 11/07 A2992 RMK AO2 SLP135 T01060067=
202104220356 METAR KPWT 220356Z AUTO 00000KT 10SM CLR 11/06 A2991 RMK AO2 SLP133 T01110061=
202104220256 METAR KPWT 220256Z AUTO 10SM CLR 16/07 A2992 RMK AO2 SLP134 6//// T01610072 58015=
202104220156 METAR KPWT 220156Z AUTO 05003KT 9SM CLR 18/07 A2994 RMK AO2 SLP143 T01830072=
202104220056 METAR KPWT 220056Z AUTO 05008KT 10SM FEW070 20/06 A2996 RMK AO2 SLP147 T02000061=
202104212356 METAR KPWT 212356Z AUTO 03007KT 10SM CLR 22/07 A2996 RMK AO2 SLP149 T02220067 10228 20172 58021=
202104212256 METAR KPWT 212256Z AUTO 07007KT 10SM BKN070 21/07 A2998 RMK AO2 SLP157 T02110067=
202104212156 METAR KPWT 212156Z AUTO 06006KT 10SM FEW070 21/06 A3001 RMK AO2 SLP165 T02110061=
202104212056 METAR KPWT 212056Z AUTO VRB03KT 10SM CLR 21/05 A3003 RMK AO2 SLP171 T02110050 56023=
202104211956 METAR KPWT 211956Z AUTO 32003KT 10SM CLR 21/06 A3005 RMK AO2 SLP177 T02110061=
202104211856 METAR KPWT 211856Z AUTO VRB03KT 10SM CLR 18/06 A3007 RMK AO2 SLP186 T01830061=
202104211756 METAR KPWT 211756Z AUTO 00000KT 10SM CLR 17/06 A3009 RMK AO2 SLP194 T01720061 10172 20017=
202104211656 METAR KPWT 211656Z AUTO 04004KT 10SM CLR 16/06 RMK AO2 SLPNO T01610061 $=
202104211556 METAR KPWT 211556Z AUTO 00000KT 10SM CLR 14/06 RMK AO2 SLPNO T01390061 $=
202104211456 METAR KPWT 211456Z AUTO 00000KT 10SM CLR 10/05 A3013 RMK AO2 SLP205 T01000050 53007=
202104211356 METAR KPWT 211356Z AUTO 00000KT 10SM CLR 04/03 A3011 RMK AO2 SLP202 T00440033=
202104211256 METAR KPWT 211256Z AUTO 00000KT 10SM CLR 04/02 A3011 RMK AO2 SLP198 T00390022=
202104211156 METAR KPWT 211156Z AUTO 00000KT 10SM CLR 04/02 A3011 RMK AO2 SLP198 7//// T00390022 10083 20033 55002=
202104211056 METAR KPWT 211056Z AUTO 00000KT 10SM CLR 04/03 A3010 RMK AO2 SLP198 T00440028=
202104210956 METAR KPWT 210956Z AUTO 13003KT 10SM CLR 04/02 A3011 RMK AO2 SLP199 T00440017=
202104210856 METAR KPWT 210856Z AUTO 00000KT 10SM CLR 06/03 A3011 RMK AO2 SLP200 T00560028 51001=
202104210756 METAR KPWT 210756Z AUTO 12004KT 10SM CLR 07/03 A3011 RMK AO2 SLP200 T00670028 402170028=
202104210656 METAR KPWT 210656Z AUTO 00000KT 10SM CLR 07/02 A3011 RMK AO2 SLP200 T00670022=
202104210556 METAR KPWT 210556Z AUTO 22004KT 10SM CLR 07/02 A3011 RMK AO2 SLP199 6//// T00720022 10211 20072=
202104210456 METAR KPWT 210456Z AUTO 00000KT 10SM CLR 12/02 A3010 RMK AO2 SLP198 T01170022=
202104210356 METAR KPWT 210356Z AUTO 08006KT 10SM CLR 16/02 RMK AO2 SLPNO T01560017 $=
202104210256 METAR KPWT 210256Z AUTO 07004KT 10SM CLR 17/03 A3009 RMK AO2 SLP192 T01720028 58010=
202104210156 METAR KPWT 210156Z AUTO 04009KT 10SM CLR 20/03 A3010 RMK AO2 SLP197 T02000028=
202104210056 METAR KPWT 210056Z AUTO 04005KT 10SM CLR 21/03 A3011 RMK AO2 SLP201 T02060033=
202104202356 METAR KPWT 202356Z AUTO 05008KT 10SM CLR 21/04 A3012 RMK AO2 SLP204 T02110044 10217 20167 58017=
202104202256 METAR KPWT 202256Z AUTO 04007KT 10SM CLR 21/04 A3014 RMK AO2 SLP208 T02110044=
202104202156 METAR KPWT 202156Z AUTO 05009KT 030V090 10SM CLR 21/04 A3016 RMK AO2 SLP216 T02110044=
202104202056 METAR KPWT 202056Z AUTO 11004KT 10SM CLR 20/03 A3017 RMK AO2 SLP221 T02000028 58017=
202104201956 METAR KPWT 201956Z AUTO 02005KT 10SM CLR 20/03 A3019 RMK AO2 SLP226 T02000028=
202104201856 METAR KPWT 201856Z AUTO 00000KT 10SM CLR 18/03 A3021 RMK AO2 SLP234 T01830028=
202104201756 METAR KPWT 201756Z AUTO VRB03KT 10SM CLR 17/03 A3022 RMK AO2 SLP238 T01720033 10178 20028=
202104201656 METAR KPWT 201656Z AUTO VRB04KT 10SM CLR 15/04 A3023 RMK AO2 SLP240 T01500039=
202104201556 METAR KPWT 201556Z AUTO 07004KT 10SM CLR 13/05 RMK AO2 SLPNO T01330050 $=
202104201456 METAR KPWT 201456Z AUTO 00000KT 10SM CLR 11/07 A3023 RMK AO2 SLP239 T01060067 53006=
202104201356 METAR KPWT 201356Z AUTO 00000KT 10SM CLR 05/04 A3022 RMK AO2 SLP237 T00500039=
202104201256 METAR KPWT 201256Z AUTO 22004KT 10SM CLR 03/03 A3021 RMK AO2 SLP234 T00330028=
202104201156 METAR KPWT 201156Z AUTO 00000KT 10SM CLR 06/05 A3021 RMK AO2 SLP234 6//// 7//// T00560050 10150 20050 53003=
202104201056 METAR KPWT 201056Z AUTO 06004KT 10SM CLR 08/05 A3021 RMK AO2 SLP233 T00830050=
202104200956 METAR KPWT 200956Z AUTO 07005KT 10SM CLR 09/06 A3020 RMK AO2 SLP231 T00940056=
202104200856 METAR KPWT 200856Z AUTO 00000KT 10SM CLR 07/05 A3020 RMK AO2 SLP230 T00670050 51006=
202104200756 METAR KPWT 200756Z AUTO 00000KT 10SM SCT090 09/05 A3020 RMK AO2 SLP229 T00890050 402280028=
202104200656 METAR KPWT 200656Z AUTO 00000KT 10SM BKN100 11/06 A3019 RMK AO2 SLP225 T01110056=
202104200556 METAR KPWT 200556Z AUTO 09003KT 10SM SCT095 15/04 A3018 RMK AO2 SLP224 6//// T01500044 10211 20122=
202104200456 METAR KPWT 200456Z AUTO 06008KT 10SM BKN095 15/06 A3018 RMK AO2 SLP221 T01500056=
202104200356 METAR KPWT 200356Z AUTO 05005KT 10SM FEW085 15/05 A3017 RMK AO2 SLP221 T01500050=
202104200256 METAR KPWT 200256Z AUTO 10SM CLR 17/07 RMK AO2 SLPNO 6//// T01670072 $=
202104200156 METAR KPWT 200156Z AUTO 00000KT 10SM SCT090 20/04 A3016 RMK AO2 SLP216 T02000044=
202104200056 METAR KPWT 200056Z AUTO 00000KT 10SM BKN090 21/04 A3017 RMK AO2 SLP220 T02110039=
202104192356 METAR KPWT 192356Z AUTO 21004KT 10SM FEW090 21/03 A3017 RMK AO2 SLP221 6//// T02110033 10228 20156=
202104192256 METAR KPWT 192256Z AUTO 24007KT 10SM CLR 22/04 A3018 RMK AO2 SLP225 T02220044=
202104192156 METAR KPWT 192156Z AUTO 00000KT 10SM CLR 22/03 A3020 RMK AO2 SLP230 T02170033=
202104192056 METAR KPWT 192056Z AUTO 22007KT 10SM CLR 21/04 RMK AO2 SLPNO 6//// T02060039 $=
202104191956 METAR KPWT 191956Z AUTO 13005KT 10SM CLR 20/04 A3025 RMK AO2 SLP245 T02000044=
202104191856 METAR KPWT 191856Z AUTO 26005KT 10SM CLR 18/03 RMK AO2 SLPNO T01780033 $=
202104191756 METAR KPWT 191756Z AUTO 00000KT 10SM CLR 16/04 RMK AO2 SLPNO 60000 T01560044 10156 20033 $=
202104191656 METAR KPWT 191656Z AUTO 00000KT 10SM CLR 12/07 A3027 RMK AO2 SLP253 T01220072=
202104191629 SPECI KPWT 191629Z AUTO 00000KT 10SM SCT003 10/08 A3026 RMK AO2=
202104191610 SPECI KPWT 191610Z AUTO 00000KT 10SM OVC003 09/08 A3026 RMK AO2=
202104191556 METAR KPWT 191556Z AUTO 22003KT 5SM BR OVC001 08/08 A3027 RMK AO2 RAB1458E10 SLP254 P0000 T00780078=
202104191543 SPECI KPWT 191543Z AUTO 22004KT 1 3/4SM BR OVC001 08/07 A3026 RMK AO2 VIS 1V3 RAB1458E10 P0000=
202104191534 SPECI KPWT 191534Z AUTO 24005KT 1SM BR OVC001 08/07 A3026 RMK AO2 VIS 1/2V5 RAB1458E10 P0000=
202104191521 SPECI KPWT 191521Z AUTO VRB03KT 1/2SM FG OVC001 07/07 A3026 RMK AO2 RAB1458E10 P0000=
202104191456 METAR KPWT 191456Z AUTO 23005KT 1/4SM FG OVC001 07/07 RMK AO2 SLPNO T00670067 $=
202104191440 SPECI KPWT 191440Z AUTO 00000KT 1/4SM FG OVC001 07/07 A3025 RMK AO2=
202104191425 SPECI KPWT 191425Z AUTO 00000KT 1/2SM FG BKN001 06/06 A3025 RMK AO2=
202104191417 SPECI KPWT 191417Z AUTO 00000KT 3/4SM BR BKN001 05/05 A3025 RMK AO2=
202104191414 SPECI KPWT 191414Z AUTO 21003KT 1 3/4SM BR BKN001 05/04 A3025 RMK AO2=
202104191410 SPECI KPWT 191410Z AUTO 22005KT 6SM BR SCT001 04/04 A3024 RMK AO2=
202104191356 METAR KPWT 191356Z AUTO 00000KT 10SM CLR 04/04 A3024 RMK AO2 SLP243 T00440039=
202104191256 METAR KPWT 191256Z AUTO 00000KT 10SM CLR 04/03 A3022 RMK AO2 SLP235 T00390033=
202104191207 SPECI KPWT 191207Z AUTO 00000KT 4SM BR CLR 05/04 A3021 RMK AO2=
202104191158 SPECI KPWT 191158Z AUTO 00000KT 1 3/4SM BR CLR 04/03 A3021 RMK AO2=
202104191156 METAR KPWT 191156Z AUTO 00000KT 3SM BR CLR 04/04 A3021 RMK AO2 SLP234 7//// T00440039 10122 20028 51009=
202104191056 METAR KPWT 191056Z AUTO 00000KT 10SM CLR 04/03 A3021 RMK AO2 SLP231 T00390033=
202104190956 METAR KPWT 190956Z AUTO 00000KT 10SM CLR 06/04 A3019 RMK AO2 SLP228 T00560044=
202104190856 METAR KPWT 190856Z AUTO 00000KT 10SM CLR 06/03 A3018 RMK AO2 SLP225 T00610033=
202104190756 METAR KPWT 190756Z AUTO 00000KT 10SM CLR 09/05 A3016 RMK AO2 SLP217 T00890050 402670039=
202104190656 METAR KPWT 190656Z AUTO 00000KT 10SM CLR 10/04 RMK AO2 SLPNO T01000044 $=
202104190556 METAR KPWT 190556Z AUTO 19003KT 10SM CLR 12/04 A3012 RMK AO2 SLP205 6//// T01220039 10261 20100 51017=
202104190456 METAR KPWT 190456Z AUTO 00000KT 10SM CLR 14/03 A3011 RMK AO2 SLP199 T01390028=
202104190356 METAR KPWT 190356Z AUTO 17003KT 10SM CLR 16/03 A3010 RMK AO2 SLP197 T01560028=
202104190256 METAR KPWT 190256Z AUTO 19004KT 10SM CLR 18/02 A3008 RMK AO2 SLP187 6//// T01830022 53000=
202104190156 METAR KPWT 190156Z AUTO 22008KT 10SM CLR 22/03 A3007 RMK AO2 SLP187 T02170028=
202104190056 METAR KPWT 190056Z AUTO 25013KT 10SM CLR 24/03 A3008 RMK AO2 SLP187 T02390028=
202104182356 METAR KPWT 182356Z AUTO 22013G17KT 10SM CLR 26/01 A3007 RMK AO2 SLP188 T02610011 10267 20200 56020=
202104182256 METAR KPWT 182256Z AUTO 23006KT 10SM CLR 26/04 A3009 RMK AO2 SLP193 T02610044=
202104182156 METAR KPWT 182156Z AUTO 00000KT 10SM CLR 26/04 A3011 RMK AO2 SLP201 T02560044=
202104182056 METAR KPWT 182056Z AUTO VRB04KT 10SM CLR 24/06 A3013 RMK AO2 SLP208 T02440061 58011=
202104181956 METAR KPWT 181956Z AUTO VRB04KT 10SM CLR 24/07 A3015 RMK AO2 SLP212 T02440072=
202104181856 METAR KPWT 181856Z AUTO 20004KT 10SM CLR 23/05 A3016 RMK AO2 SLP217 T02330050=
202104181756 METAR KPWT 181756Z AUTO 00000KT 10SM CLR 20/06 A3017 RMK AO2 SLP218 6//// T02000056 10211 20039 56005=
202104181656 METAR KPWT 181656Z AUTO 00000KT 10SM CLR 19/07 A3017 RMK AO2 SLP219 T01890067=
202104181556 METAR KPWT 181556Z AUTO 00000KT 10SM CLR 16/06 A3017 RMK AO2 SLP220 T01610056=
202104181456 METAR KPWT 181456Z AUTO 00000KT 10SM CLR 11/06 A3018 RMK AO2 SLP222 T01110056 53003=
202104181356 METAR KPWT 181356Z AUTO 00000KT 10SM CLR 05/03 A3017 RMK AO2 SLP220 T00500033=
202104181256 METAR KPWT 181256Z AUTO 00000KT 10SM CLR 04/02 A3017 RMK AO2 SLP220 T00440022=
202104181156 METAR KPWT 181156Z AUTO 00000KT 10SM CLR 06/03 A3017 RMK AO2 SLP220 7//// T00560033 10094 20039 58001=
202104181056 METAR KPWT 181056Z AUTO 00000KT 10SM CLR 06/03 A3018 RMK AO2 SLP222 T00610028=
202104180956 METAR KPWT 180956Z AUTO 00000KT 10SM CLR 06/03 A3018 RMK AO2 SLP223 T00560028=
202104180856 METAR KPWT 180856Z AUTO 00000KT 10SM CLR 07/03 A3017 RMK AO2 SLP221 T00670033 53002=
202104180756 METAR KPWT 180756Z AUTO 13004KT 10SM CLR 08/03 A3017 RMK AO2 SLP220 T00780033 402670039=
202104180656 METAR KPWT 180656Z AUTO 00000KT 10SM CLR 08/03 A3017 RMK AO2 SLP218 T00780033=
202104180556 METAR KPWT 180556Z AUTO 00000KT 10SM CLR 08/04 A3017 RMK AO2 SLP218 6//// T00830039 10256 20083 50007=
202104180456 METAR KPWT 180456Z AUTO 00000KT 10SM CLR 11/04 A3017 RMK AO2 SLP218 T01110044=
202104180356 METAR KPWT 180356Z AUTO 04003KT 10SM CLR 16/04 A3016 RMK AO2 SLP218 T01560039=
202104180256 METAR KPWT 180256Z AUTO 00000KT 10SM 18/05 A3015 RMK AO2 SLP212 6//// T01830050 56003=
202104180156 METAR KPWT 180156Z AUTO 07003KT 10SM CLR 24/03 A3015 RMK AO2 SLP211 T02390028=
202104180056 METAR KPWT 180056Z AUTO 06007KT 10SM CLR 24/04 A3015 RMK AO2 SLP213 T02440039=
202104172356 METAR KPWT 172356Z AUTO 04007KT 10SM CLR 26/04 A3016 RMK AO2 SLP214 T02560044 10267 20206 56015=
202104172256 METAR KPWT 172256Z AUTO 05007KT 10SM CLR 26/03 A3016 RMK AO2 SLP216 T02560028=
202104172156 METAR KPWT 172156Z AUTO 00000KT 10SM CLR 26/02 A3019 RMK AO2 SLP223 T02610022=
202104172056 METAR KPWT 172056Z AUTO VRB06KT 10SM CLR 25/03 A3020 RMK AO2 SLP227 T02500033 58011=
202104171956 METAR KPWT 171956Z AUTO VRB05KT 10SM CLR 24/06 A3021 RMK AO2 SLP233 T02440056=
202104171856 METAR KPWT 171856Z AUTO 04007KT 10SM CLR 22/05 A3023 RMK AO2 SLP237 T02170050=
202104171756 METAR KPWT 171756Z AUTO 04006KT 10SM CLR 21/05 A3023 RMK AO2 SLP241 6//// T02060050 10206 20039 53002=
202104171656 METAR KPWT 171656Z AUTO 05008KT 10SM CLR 18/04 A3023 RMK AO2 SLP239 T01830044=
202104171556 METAR KPWT 171556Z AUTO 06006KT 10SM CLR 17/03 A3023 RMK AO2 SLP239 T01670033=
202104171456 METAR KPWT 171456Z AUTO 00000KT 10SM CLR 12/06 A3023 RMK AO2 SLP239 T01220061 53009=
202104171356 METAR KPWT 171356Z AUTO 00000KT 10SM CLR 05/02 A3022 RMK AO2 SLP235 T00500022=
202104171256 METAR KPWT 171256Z AUTO 00000KT 10SM CLR 06/03 A3021 RMK AO2 SLP233 T00560028=
202104171156 METAR KPWT 171156Z AUTO 00000KT 10SM CLR 07/02 A3020 RMK AO2 SLP230 7//// T00720017 10156 20067 53006=
202104171056 METAR KPWT 171056Z AUTO 23005KT 10SM CLR 11/02 A3019 RMK AO2 SLP224 T01110017=
202104170956 METAR KPWT 170956Z AUTO 06007KT 10SM CLR 15/01 A3018 RMK AO2 SLP219 T01500011=
202104170856 METAR KPWT 170856Z AUTO 04006KT 10SM CLR 14/01 A3018 RMK AO2 SLP223 T01440011 50001=
202104170756 METAR KPWT 170756Z AUTO 03007KT 10SM CLR 13/02 A3019 RMK AO2 SLP225 T01330017 402560017=
202104170656 METAR KPWT 170656Z AUTO 03007KT 10SM CLR 14/03 A3018 RMK AO2 SLP222 T01440028=
202104170556 METAR KPWT 170556Z AUTO 05007KT 10SM CLR 15/03 A3018 RMK AO2 SLP222 6//// T01500028 10250 20150 51010=
202104170456 METAR KPWT 170456Z AUTO 05008KT 10SM CLR 16/02 A3017 RMK AO2 SLP220 T01610022=
202104170356 METAR KPWT 170356Z AUTO 06010KT 10SM CLR 17/03 A3016 RMK AO2 SLP217 T01720028=
202104170256 METAR KPWT 170256Z AUTO 05005KT 10SM CLR 18/05 A3015 RMK AO2 SLP212 6//// T01830050 55005=
202104170156 METAR KPWT 170156Z AUTO 03007KT 10SM CLR 23/03 A3014 RMK AO2 SLP211 T02330033=
202104170056 METAR KPWT 170056Z AUTO 03009KT 10SM CLR 25/01 A3015 RMK AO2 SLP214 T02500011=
202104162356 METAR KPWT 162356Z AUTO 03008G14KT 10SM CLR 25/01 A3016 RMK AO2 SLP216 T02500011 10256 20206 56017=
202104162256 METAR KPWT 162256Z AUTO 02008KT 350V050 10SM CLR 25/01 A3017 RMK AO2 SLP220 T02500006=
202104162156 METAR KPWT 162156Z AUTO 04009KT 10SM CLR 24/01 A3019 RMK AO2 SLP227 T02440006=
202104162056 METAR KPWT 162056Z AUTO 05008KT 10SM CLR 24/02 A3021 RMK AO2 SLP234 T02390022 58007=
202104161956 METAR KPWT 161956Z AUTO 06005KT 10SM CLR 23/02 A3022 RMK AO2 SLP238 T02280022=
202104161856 METAR KPWT 161856Z AUTO 05010KT 10SM CLR 22/03 A3023 RMK AO2 SLP237 T02170033=
202104161756 METAR KPWT 161756Z AUTO 05010KT 10SM CLR 21/03 A3023 RMK AO2 SLP240 T02060033 10206 20022 50003=
202104161656 METAR KPWT 161656Z AUTO 04007KT 10SM CLR 18/03 A3024 RMK AO2 SLP243 T01780033=
202104161556 METAR KPWT 161556Z AUTO 05009KT 10SM CLR 16/03 A3023 RMK AO2 SLP241 T01560033=
202104161456 METAR KPWT 161456Z AUTO 06007KT 10SM CLR 13/04 A3022 RMK AO2 SLP239 T01280039 53012=
202104161356 METAR KPWT 161356Z AUTO 00000KT 10SM CLR 03/01 A3020 RMK AO2 SLP232 T00330011=
202104161256 METAR KPWT 161256Z AUTO 00000KT 10SM CLR 04/02 A3020 RMK AO2 SLP230 T00390017=
202104161156 METAR KPWT 161156Z AUTO 00000KT 10SM CLR 05/02 A3019 RMK AO2 SLP225 7//// T00500017 10156 20017 53009=
202104161056 METAR KPWT 161056Z AUTO 00000KT 10SM CLR 04/01 A3018 RMK AO2 SLP222 T00440006=
202104160956 METAR KPWT 160956Z AUTO 22004KT 10SM CLR 06/01 A3016 RMK AO2 SLP217 T00560011=
202104160856 METAR KPWT 160856Z AUTO 00000KT 10SM CLR 06/01 A3016 RMK AO2 SLP216 T00610006 51012=
202104160756 METAR KPWT 160756Z AUTO 00000KT 10SM CLR 09/00 A3016 RMK AO2 SLP216 T00890000 402390006=
202104160656 METAR KPWT 160656Z AUTO 05007KT 10SM CLR 14/00 A3014 RMK AO2 SLP208 T01440000=
202104160556 METAR KPWT 160556Z AUTO 05008KT 10SM CLR 16/M01 A3013 RMK AO2 SLP204 6//// T01561006 10239 20156 51015=
202104160456 METAR KPWT 160456Z AUTO 05011KT 10SM CLR 17/M02 A3012 RMK AO2 SLP202 T01721017=
202104160356 METAR KPWT 160356Z AUTO 05010KT 10SM CLR 17/M01 A3010 RMK AO2 SLP194 T01721011=
202104160256 METAR KPWT 160256Z AUTO 05009KT 10SM CLR 18/01 A3008 RMK AO2 SLP188 T01830006 53001=
202104160156 METAR KPWT 160156Z AUTO 04007KT 10SM CLR 22/02 A3007 RMK AO2 SLP188 T02170017=
202104160056 METAR KPWT 160056Z AUTO 03009KT 10SM CLR 23/01 A3007 RMK AO2 SLP187 T02330011=
202104152356 METAR KPWT 152356Z AUTO 02010KT 10SM CLR 24/00 A3008 RMK AO2 SLP188 T02390000 10239 20178 58013=
202104152256 METAR KPWT 152256Z AUTO 04011KT 10SM CLR 23/01 A3009 RMK AO2 SLP192 T02330006=
202104152156 METAR KPWT 152156Z AUTO 04009G15KT 10SM CLR 23/00 A3011 RMK AO2 SLP198 T02330000=
202104152056 METAR KPWT 152056Z AUTO 03007G14KT 10SM CLR 22/02 A3011 RMK AO2 SLP201 T02170017 56009=
202104151956 METAR KPWT 151956Z AUTO 06007KT 10SM CLR 21/02 A3012 RMK AO2 SLP204 T02110022=
202104151856 METAR KPWT 151856Z AUTO 06008KT 10SM CLR 19/03 A3013 RMK AO2 SLP208 T01890028=
202104151756 METAR KPWT 151756Z AUTO 05009KT 10SM CLR 17/02 A3014 RMK AO2 SLP210 6//// T01720022 10172 20006 51003=
202104151656 METAR KPWT 151656Z AUTO 05012KT 10SM CLR 15/02 A3014 RMK AO2 SLP208 T01500022=
202104151556 METAR KPWT 151556Z AUTO 05012KT 10SM CLR 13/01 A3014 RMK AO2 SLP210 T01280011=
202104151456 METAR KPWT 151456Z AUTO 04010KT 10SM CLR 12/00 A3013 RMK AO2 SLP207 6//// T01170000 52010=
202104151356 METAR KPWT 151356Z AUTO 02006KT 10SM CLR 09/00 A3013 RMK AO2 SLP204 T00940000=
202104151256 METAR KPWT 151256Z AUTO 04004KT 10SM CLR 03/M01 A3011 RMK AO2 SLP202 T00331011=
202104151156 METAR KPWT 151156Z AUTO 00000KT 10SM CLR 03/M01 A3010 RMK AO2 SLP199 7//// T00281006 10122 20011 53002=
202104151056 METAR KPWT 151056Z AUTO 00000KT 10SM CLR 03/M02 A3010 RMK AO2 SLP196 T00281017=
202104150956 METAR KPWT 150956Z AUTO 00000KT 10SM CLR 03/M02 A3010 RMK AO2 SLP196 T00281017=
202104150856 METAR KPWT 150856Z AUTO 00000KT 10SM CLR 04/00 A3010 RMK AO2 SLP196 T00390000 52004=
202104150756 METAR KPWT 150756Z AUTO 00000KT 10SM CLR 04/M01 A3009 RMK AO2 SLP195 T00441006 402060006=
202104150656 METAR KPWT 150656Z AUTO 00000KT 10SM CLR 06/M02 A3009 RMK AO2 SLP193 T00611022=
202104150556 METAR KPWT 150556Z AUTO 01006KT 10SM CLR 12/M04 A3008 RMK AO2 SLP190 6//// T01221039 10206 20122 51005=
202104150456 METAR KPWT 150456Z AUTO 05009KT 10SM CLR 13/M03 A3008 RMK AO2 SLP191 T01281033=
202104150356 METAR KPWT 150356Z AUTO 06008KT 10SM CLR 13/M03 A3008 RMK AO2 SLP191 T01331028=
202104150256 METAR KPWT 150256Z AUTO 10SM CLR 16/M02 A3007 RMK AO2 SLP186 6//// T01561022 55002=
202104150156 METAR KPWT 150156Z AUTO 06010KT 10SM CLR 18/M03 A3006 RMK AO2 SLP186 T01831028=
202104150056 METAR KPWT 150056Z AUTO 05010G17KT 10SM CLR 19/M03 A3007 RMK AO2 SLP186 T01941033=
202104142356 METAR KPWT 142356Z AUTO 02012KT 10SM CLR 20/M04 A3008 RMK AO2 SLP187 6//// T02001044 10206 20156 57018=
202104142256 METAR KPWT 142256Z AUTO 05011KT 10SM CLR 20/M02 A3009 RMK AO2 SLP192 T02001022=
202104142156 METAR KPWT 142156Z AUTO 05013G17KT 10SM CLR 19/M02 A3011 RMK AO2 SLP200 T01941022=
202104142056 METAR KPWT 142056Z AUTO 06011G17KT 10SM CLR 19/M02 A3013 RMK AO2 SLP205 T01891022 58020=
202104141956 METAR KPWT 141956Z AUTO 04012KT 10SM CLR 18/M01 A3015 RMK AO2 SLP214 T01781011=
202104141856 METAR KPWT 141856Z AUTO 05009KT 10SM CLR 17/M01 A3018 RMK AO2 SLP222 T01671006=
202104141756 METAR KPWT 141756Z AUTO 06016G19KT 10SM CLR 16/M02 A3019 RMK AO2 SLP227 T01561017 10161 20006 58013=
202104141656 METAR KPWT 141656Z AUTO 05009KT 10SM CLR 13/01 A3021 RMK AO2 SLP233 T01330011=
202104141556 METAR KPWT 141556Z AUTO 05010KT 10SM CLR 11/02 A3022 RMK AO2 SLP237 T01060022=
202104141456 METAR KPWT 141456Z AUTO 05008KT 10SM CLR 08/02 A3023 RMK AO2 SLP241 T00830017 51003=
202104141356 METAR KPWT 141356Z AUTO 00000KT 10SM CLR 02/M02 A3023 RMK AO2 SLP241 T00171022 FZRANO=
202104141256 METAR KPWT 141256Z AUTO 03004KT 10SM CLR 06/M03 A3022 RMK AO2 SLP238 T00611028=
202104141156 METAR KPWT 141156Z AUTO 03008KT 10SM CLR 08/M02 A3022 RMK AO2 SLP236 7//// T00781022 10100 20078 55003=
202104141056 METAR KPWT 141056Z AUTO 04010KT 10SM CLR 08/M03 A3021 RMK AO2 SLP235 T00781028=
202104140956 METAR KPWT 140956Z AUTO 04010KT 10SM CLR 08/M03 A3022 RMK AO2 SLP237 T00831028=
202104140856 METAR KPWT 140856Z AUTO 05008KT 10SM CLR 09/M03 A3023 RMK AO2 SLP239 T00891028 58005=
202104140756 METAR KPWT 140756Z AUTO 07006KT 10SM CLR 09/M02 A3023 RMK AO2 SLP242 T00891017 401720033=
202104140656 METAR KPWT 140656Z AUTO 07008KT 10SM CLR 09/M02 A3024 RMK AO2 SLP243 T00891017=
202104140556 METAR KPWT 140556Z AUTO 09005KT 10SM CLR 10/M05 A3024 RMK AO2 SLP244 T01001050 10172 20094 53001=
202104140456 METAR KPWT 140456Z AUTO 09006KT 10SM CLR 11/M06 A3024 RMK AO2 SLP245 T01111061=
202104140356 METAR KPWT 140356Z AUTO 08005KT 10SM CLR 12/M08 A3024 RMK AO2 SLP245 T01221078=
202104140256 METAR KPWT 140256Z AUTO 01009KT 10SM CLR 13/M08 A3024 RMK AO2 SLP244 T01331078 56007=
202104140156 METAR KPWT 140156Z AUTO 01011G16KT 10SM CLR 15/M07 A3024 RMK AO2 SLP246 T01501072=
202104140056 METAR KPWT 140056Z AUTO 01010G20KT 10SM CLR 16/M07 A3025 RMK AO2 SLP249 T01611067=
202104132356 METAR KPWT 132356Z AUTO 03010G20KT 10SM CLR 17/M06 A3026 RMK AO2 SLP252 6//// T01721061 10172 20139 56015=
202104132256 METAR KPWT 132256Z AUTO 01013G21KT 10SM CLR 17/M06 A3027 RMK AO2 SLP255 T01671056=
202104132156 METAR KPWT 132156Z AUTO 02013G19KT 10SM CLR 16/M07 A3029 RMK AO2 WSHFT 2102 SLP263 T01611067=
202104132122 SPECI KPWT 132122Z AUTO 03014G24KT 10SM CLR 16/M07 A3030 RMK AO2 WSHFT 2102=
202104132056 METAR KPWT 132056Z AUTO 36013G21KT 10SM CLR 16/M06 A3030 RMK AO2 SLP266 T01611056 58012=
202104131956 METAR KPWT 131956Z AUTO 36013G21KT 10SM CLR 16/M05 A3032 RMK AO2 SLP272 T01561050=
202104131856 METAR KPWT 131856Z AUTO 02012G17KT 10SM CLR 15/M03 A3034 RMK AO2 SLP277 T01501033=
202104131756 METAR KPWT 131756Z AUTO 02013G19KT 10SM CLR 14/M03 A3034 RMK AO2 SLP279 T01391028 10139 20033 53002=
202104131656 METAR KPWT 131656Z AUTO 04012G17KT 10SM CLR 12/M02 A3033 RMK AO2 SLP277 T01221017=
202104131556 METAR KPWT 131556Z AUTO 04011KT 10SM CLR 11/M02 A3033 RMK AO2 SLP275 T01061022=
202104131456 METAR KPWT 131456Z AUTO 02007KT 10SM CLR 09/M03 A3033 RMK AO2 SLP277 T00891028 53006=
202104131356 METAR KPWT 131356Z AUTO 04006KT 10SM CLR 05/M03 A3032 RMK AO2 SLP273 T00501033=
202104131256 METAR KPWT 131256Z AUTO 04003KT 10SM CLR 04/M04 A3031 RMK AO2 SLP269 T00441044=
202104131156 METAR KPWT 131156Z AUTO 03004KT 10SM CLR 04/M04 A3031 RMK AO2 SLP270 T00441044 10089 20044 53004=
202104131056 METAR KPWT 131056Z AUTO 01007KT 10SM CLR 04/M04 A3030 RMK AO2 SLP268 T00441044=
202104130956 METAR KPWT 130956Z AUTO 02007KT 10SM CLR 07/M04 A3030 RMK AO2 SLP265 T00671044=
202104130856 METAR KPWT 130856Z AUTO 03008KT 10SM CLR 08/M04 A3030 RMK AO2 SLP265 T00831044 50003=
202104130756 METAR KPWT 130756Z AUTO 04006KT 10SM CLR 08/M04 A3030 RMK AO2 SLP266 T00781044 401560028=
202104130656 METAR KPWT 130656Z AUTO 01008KT 10SM CLR 09/M04 A3029 RMK AO2 SLP264 T00891039=
202104130556 METAR KPWT 130556Z AUTO 02005KT 10SM CLR 06/M03 A3029 RMK AO2 SLP261 T00611033 10150 20061 51017=
202104130456 METAR KPWT 130456Z AUTO 05006KT 10SM CLR 09/M04 A3028 RMK AO2 SLP257 T00941039=
202104130356 METAR KPWT 130356Z AUTO 36013KT 10SM CLR 11/M04 A3025 RMK AO2 SLP250 T01111044=
202104130256 METAR KPWT 130256Z AUTO 01015G21KT 10SM CLR 11/M03 A3024 RMK AO2 SLP244 T01111028 53000=
202104130156 METAR KPWT 130156Z AUTO 02013G21KT 10SM CLR 13/M03 A3023 RMK AO2 PK WND 01026/0128 SLP243 T01281033=
202104130056 METAR KPWT 130056Z AUTO 36016G23KT 10SM CLR 14/M03 A3024 RMK AO2 PK WND 01026/0018 SLP244 T01391028=
202104122356 METAR KPWT 122356Z AUTO 01012G23KT 10SM CLR 15/M03 A3024 RMK AO2 SLP244 T01501028 10156 20106 56008=
202104122256 METAR KPWT 122256Z AUTO 02014G20KT 10SM CLR 15/M03 A3024 RMK AO2 SLP244 T01501028=
202104122156 METAR KPWT 122156Z AUTO 02011G20KT 10SM CLR 14/M02 A3025 RMK AO2 SLP250 T01441017=
202104122056 METAR KPWT 122056Z AUTO 03010G19KT 10SM CLR 14/00 A3026 RMK AO2 SLP252 T01390000 56011=
202104121956 METAR KPWT 121956Z AUTO 03015G19KT 10SM CLR 12/01 A3027 RMK AO2 SLP256 T01220011=
202104121856 METAR KPWT 121856Z AUTO 06013G19KT 10SM CLR 12/00 A3028 RMK AO2 SLP259 T01170000=
202104121756 METAR KPWT 121756Z AUTO 04012KT 10SM CLR 11/02 A3029 RMK AO2 SLP264 T01060022 10106 20028 58004=
202104121656 METAR KPWT 121656Z AUTO 04016G22KT 10SM CLR 09/01 A3030 RMK AO2 SLP266 T00890006=
202104121556 METAR KPWT 121556Z AUTO 04013KT 10SM CLR 07/01 A3030 RMK AO2 SLP267 T00720011=
202104121456 METAR KPWT 121456Z AUTO 05010KT 10SM CLR 05/M01 A3030 RMK AO2 SLP269 T00501011 53001=
202104121356 METAR KPWT 121356Z AUTO 05011KT 10SM CLR 04/M02 A3030 RMK AO2 SLP265 T00391022=
202104121256 METAR KPWT 121256Z AUTO 05006KT 10SM CLR 03/M03 A3029 RMK AO2 SLP264 T00281028=
202104121156 METAR KPWT 121156Z AUTO 05008KT 10SM CLR 03/M03 A3030 RMK AO2 SLP268 6//// 7//// T00331033 10050 20033 56006=
202104121056 METAR KPWT 121056Z AUTO 05008KT 10SM CLR 04/M03 A3031 RMK AO2 SLP269 T00391033=
202104120956 METAR KPWT 120956Z AUTO 04011KT 10SM CLR 05/M04 A3031 RMK AO2 SLP269 T00501044=
202104120856 METAR KPWT 120856Z AUTO 03008KT 10SM CLR 04/M03 A3032 RMK AO2 SLP274 T00391028 58000=
202104120756 METAR KPWT 120756Z AUTO 05009KT 10SM CLR 04/M03 A3032 RMK AO2 SLP274 T00391028 401171039=
202104120656 METAR KPWT 120656Z AUTO 06007KT 10SM CLR 04/M03 A3033 RMK AO2 SLP276 T00391033=
202104120556 METAR KPWT 120556Z AUTO 05008KT 10SM CLR 04/M03 A3032 RMK AO2 SLP274 T00441033 10106 20044 53005=
202104120456 METAR KPWT 120456Z AUTO 06008KT 10SM CLR 05/M05 A3032 RMK AO2 SLP273 T00501050=
202104120356 METAR KPWT 120356Z AUTO 06011KT 10SM CLR 06/M05 A3031 RMK AO2 SLP270 T00561050=
202104120256 METAR KPWT 120256Z AUTO 05010KT 10SM CLR 07/M03 A3031 RMK AO2 SLP270 T00671028 56006=
202104120156 METAR KPWT 120156Z AUTO 02010KT 10SM CLR 09/M02 A3031 RMK AO2 SLP272 T00891022=
202104120056 METAR KPWT 120056Z AUTO 03010G16KT 10SM CLR 11/M02 A3032 RMK AO2 SLP272 T01061022=
202104112256 METAR KPWT 112256Z AUTO 02010G14KT 10SM CLR 11/M03 A3033 RMK AO2 SLP280 T01061033=
202104112156 METAR KPWT 112156Z AUTO 04013G18KT 10SM CLR 12/M02 A3035 RMK AO2 SLP284 T01171017=
202104112056 METAR KPWT 112056Z AUTO VRB03G14KT 10SM FEW049 10/M02 A3036 RMK AO2 SLP286 T01001017 58010=
202104111956 METAR KPWT 111956Z AUTO 03008KT 360V070 10SM BKN045 09/M01 A3037 RMK AO2 SLP291 T00941011=
202104111856 METAR KPWT 111856Z AUTO 06008KT 10SM CLR 09/01 A3038 RMK AO2 SLP293 T00940006=
202104111756 METAR KPWT 111756Z AUTO 07008KT 040V110 10SM FEW037 08/01 A3039 RMK AO2 SLP296 T00830006 10083 21039 58002=
202104111656 METAR KPWT 111656Z AUTO 05007KT 10SM CLR 07/01 A3039 RMK AO2 SLP298 T00670006=
202104111556 METAR KPWT 111556Z AUTO 05006KT 10SM CLR 06/00 A3039 RMK AO2 SLP299 T00560000=
202104111456 METAR KPWT 111456Z AUTO 00000KT 10SM CLR 03/02 A3039 RMK AO2 SLP299 T00280022 53007=
202104111356 METAR KPWT 111356Z AUTO 00000KT 10SM CLR M03/M04 A3039 RMK AO2 SLP298 T10331039 FZRANO=
202104111256 METAR KPWT 111256Z AUTO 00000KT 10SM CLR M03/M03 A3037 RMK AO2 SLP292 T10281033 FZRANO=
202104111156 METAR KPWT 111156Z AUTO 00000KT 10SM CLR M03/M03 A3037 RMK AO2 SLP292 60000 T10281033 10044 21028 53006 FZRANO=
202104111056 METAR KPWT 111056Z AUTO 00000KT 10SM CLR M02/M02 A3036 RMK AO2 SLP288 T10171022 FZRANO=
202104110956 METAR KPWT 110956Z AUTO 00000KT 10SM CLR M01/M02 A3036 RMK AO2 SLP286 T10061017 FZRANO=
202104110856 METAR KPWT 110856Z AUTO 00000KT 10SM FEW049 02/00 A3035 RMK AO2 SLP286 60000 T00170000 51005 FZRANO=
202104110756 METAR KPWT 110756Z AUTO 00000KT 10SM FEW048 OVC060 03/01 A3035 RMK AO2 RAB33E45 SLP285 P0000 T00280006 401000006=
202104110656 METAR KPWT 110656Z AUTO 00000KT 10SM FEW050 BKN065 03/01 A3034 RMK AO2 SLP282 T00330006=
202104110556 METAR KPWT 110556Z AUTO 06006KT 10SM BKN060 04/00 A3034 RMK AO2 SLP281 T00440000 10089 20044 51016=
202104110456 METAR KPWT 110456Z AUTO 05006KT 10SM BKN060 04/00 A3033 RMK AO2 SLP276 T00440000=
202104110356 METAR KPWT 110356Z AUTO 04008KT 10SM CLR 05/01 A3032 RMK AO2 SLP273 T00500006=
202104110256 METAR KPWT 110256Z AUTO 06007KT 10SM BKN055 07/00 A3029 RMK AO2 SLP265 T00670000 51014=
202104110156 METAR KPWT 110156Z AUTO 07008KT 10SM CLR 08/M01 A3028 RMK AO2 SLP261 T00781011=
202104110056 METAR KPWT 110056Z AUTO 06007KT 10SM CLR 08/M02 A3027 RMK AO2 SLP258 T00781017=
202104102356 METAR KPWT 102356Z AUTO 05011KT 10SM SCT055 SCT070 08/M02 A3025 RMK AO2 RAB09E23 SLP251 P0000 60000 T00831022 10100 20072 52010=
202104102256 METAR KPWT 102256Z AUTO 06007KT 10SM BKN055 09/M02 A3024 RMK AO2 SLP248 T00891017=
202104102156 METAR KPWT 102156Z AUTO 11005KT 10SM CLR 10/M02 A3023 RMK AO2 SLP243 T01001017=
202104102056 METAR KPWT 102056Z AUTO 09008KT 10SM FEW060 10/00 A3022 RMK AO2 SLP240 T01000000 53008=
202104101956 METAR KPWT 101956Z AUTO 11008KT 10SM SCT075 08/M01 A3021 RMK AO2 SLP238 T00781011=
202104101856 METAR KPWT 101856Z AUTO 07006KT 10SM SCT070 08/M01 A3020 RMK AO2 SLP234 T00831011=
202104101756 METAR KPWT 101756Z AUTO 00000KT 10SM FEW039 BKN047 07/M02 A3020 RMK AO2 SLP232 T00671022 10089 20006 53023=
202104101656 METAR KPWT 101656Z AUTO 28003KT 10SM CLR 07/M01 A3017 RMK AO2 SLP224 T00721006=
202104101556 METAR KPWT 101556Z AUTO 23008KT 10SM CLR 05/00 A3015 RMK AO2 SLP216 T00500000=
202104101456 METAR KPWT 101456Z AUTO 22008KT 10SM CLR 03/02 A3013 RMK AO2 SLP210 T00330017 53027=
202104101443 SPECI KPWT 101443Z AUTO VRB04KT 10SM SCT012 03/02 A3013 RMK AO2=
202104101413 SPECI KPWT 101413Z AUTO 00000KT 10SM BKN012 01/00 A3012 RMK AO2 FZRANO=
202104101356 METAR KPWT 101356Z AUTO 07003KT 10SM CLR 02/00 A3010 RMK AO2 PRESRR SLP199 T00170000 FZRANO=
202104101256 METAR KPWT 101256Z AUTO 24010KT 10SM BKN100 03/01 A3007 RMK AO2 SLP188 T00280006=
202104101156 METAR KPWT 101156Z AUTO 22006KT 10SM CLR 02/01 A3004 RMK AO2 SLP182 60001 70007 T00170011 10050 20017 53016 FZRANO=
202104101056 METAR KPWT 101056Z AUTO 21011KT 10SM BKN085 03/02 A3002 RMK AO2 SLP174 T00330017=
202104100956 METAR KPWT 100956Z AUTO 21008KT 10SM BKN075 03/02 A3002 RMK AO2 SLP171 T00330017=
202104100856 METAR KPWT 100856Z AUTO 21014KT 10SM CLR 04/02 A3000 RMK AO2 SLP165 60001 T00390022 53004=
202104100756 METAR KPWT 100756Z AUTO 20012G19KT 10SM CLR 04/04 A2998 RMK AO2 RAE00 SLP159 P0000 T00440039 400941028=
202104100731 SPECI KPWT 100731Z AUTO 21010KT 10SM FEW007 04/04 A2999 RMK AO2 RAE00 P0000=
202104100656 METAR KPWT 100656Z AUTO 20013G18KT 10SM -RA OVC007 05/04 A2998 RMK AO2 CIG 005V010 SLP159 P0001 T00500044=
202104100556 METAR KPWT 100556Z AUTO 18014G19KT 9SM -RA OVC007 05/04 A2999 RMK AO2 CIG 005V010 SLP161 P0003 60006 T00500044 10072 20050 56018=
202104100540 SPECI KPWT 100540Z AUTO 19012G17KT 10SM -RA BKN009 OVC014 05/04 A2998 RMK AO2 CIG 006V011 P0002=
202104100522 SPECI KPWT 100522Z AUTO 19014G17KT 10SM -RA OVC012 05/04 A2999 RMK AO2 P0001=
202104100456 METAR KPWT 100456Z AUTO 19012KT 10SM -RA OVC016 05/04 A3000 RMK AO2 RAB06 SLP167 P0003 T00500044=
202104100437 SPECI KPWT 100437Z AUTO 20008KT 10SM -RA OVC016 05/04 A3001 RMK AO2 RAB06 P0002=
202104100356 METAR KPWT 100356Z AUTO 19009G19KT 10SM OVC014 05/04 A3002 RMK AO2 RAE55 SLP174 P0000 T00500039=
202104100256 METAR KPWT 100256Z AUTO 19012G18KT 10SM -RA BKN012 OVC018 05/04 A3004 RMK AO2 SLP180 P0000 60000 T00500039 58019=
202104100223 SPECI KPWT 100223Z AUTO 21013KT 10SM -RA BKN014 OVC020 05/04 A3006 RMK AO2 P0000=
202104100156 METAR KPWT 100156Z AUTO 21012KT 10SM -RA OVC015 06/04 A3007 RMK AO2 SLP190 P0000 T00560039=
202104100056 METAR KPWT 100056Z AUTO 21013G23KT 10SM -RA BKN020 07/03 A3009 RMK AO2 PK WND 24027/0013 RAB15 SLP195 P0000 T00670028=
202104100048 SPECI KPWT 100048Z AUTO 22018G23KT 10SM -RA BKN022 07/03 A3009 RMK AO2 PK WND 24027/0013 RAB15 P0000=
202104092356 METAR KPWT 092356Z AUTO 22016G28KT 10SM CLR 07/02 A3010 RMK AO2 PK WND 23028/2349 SLP199 60000 T00720017 10094 20067 56019=
202104092256 METAR KPWT 092256Z AUTO 23019G24KT 10SM FEW027 08/02 A3010 RMK AO2 RAB2159E11 SLP201 P0000 T00830017=
202104092223 SPECI KPWT 092223Z AUTO 22014G24KT 10SM FEW020 SCT027 08/03 A3012 RMK AO2 RAB2159E11 P0000=
202104092156 METAR KPWT 092156Z AUTO 20015G22KT 10SM FEW020 BKN029 OVC055 08/03 A3014 RMK AO2 RAB29E39 SLP213 P0000 T00780028=
202104092145 SPECI KPWT 092145Z AUTO 19015G20KT 10SM FEW024 BKN030 OVC075 08/03 A3014 RMK AO2 RAB29E39 P0000=
202104092133 SPECI KPWT 092133Z AUTO 20014G24KT 10SM -RA BKN026 BKN032 OVC055 08/03 A3015 RMK AO2 RAB29 P0000=
202104092056 METAR KPWT 092056Z AUTO 20013KT 10SM FEW033 SCT060 SCT090 08/02 A3016 RMK AO2 RAB1957E07B41E55 SLP217 P0000 60000 T00830022 57010=
202104091956 METAR KPWT 091956Z AUTO 24016G22KT 9SM SCT023 BKN030 BKN050 08/02 A3017 RMK AO2 SLP223 T00780022=
202104091856 METAR KPWT 091856Z AUTO 23015G24KT 9SM FEW028 BKN047 07/02 A3017 RMK AO2 SLP225 T00670017=
202104091756 METAR KPWT 091756Z AUTO 21016G21KT 10SM BKN045 BKN100 07/01 A3019 RMK AO2 SLP228 T00670011 10067 21017 56009=
202104091656 METAR KPWT 091656Z AUTO 20008KT 10SM CLR 06/02 A3019 RMK AO2 SLP230 T00610017=
202104091618 SPECI KPWT 091618Z AUTO 21007KT 10SM SCT008 05/02 A3020 RMK AO2=
202104091556 METAR KPWT 091556Z AUTO 21006KT 10SM BKN006 04/02 A3020 RMK AO2 SLP235 T00390022=
202104091541 SPECI KPWT 091541Z AUTO 21006KT 10SM SCT006 04/03 A3021 RMK AO2=
202104091533 SPECI KPWT 091533Z AUTO 23006KT 10SM SCT006 BKN018 04/03 A3021 RMK AO2=
202104091524 SPECI KPWT 091524Z AUTO 24003KT 10SM FEW008 SCT018 03/03 A3021 RMK AO2=
202104091456 METAR KPWT 091456Z AUTO 22004KT 10SM OVC018 01/01 A3021 RMK AO2 SLP240 T00110006 58002 FZRANO=
202104091445 SPECI KPWT 091445Z AUTO 22004KT 10SM BKN020 01/01 A3022 RMK AO2 FZRANO=
202104091413 SPECI KPWT 091413Z AUTO 00000KT 3SM BR FEW001 SCT036 M01/M01 A3022 RMK AO2 FZRANO=
202104091411 SPECI KPWT 091411Z AUTO 00000KT 1 1/4SM BR SCT001 SCT036 M01/M01 A3022 RMK AO2 FZRANO=
202104091409 SPECI KPWT 091409Z AUTO 00000KT 3/4SM BR SCT001 SCT036 M01/M01 A3022 RMK AO2 FZRANO=
202104091407 SPECI KPWT 091407Z AUTO 00000KT 1/2SM FZFG VV001 M01/M02 A3022 RMK AO2 FZRANO=
202104091356 METAR KPWT 091356Z AUTO 00000KT M1/4SM FZFG BKN002 M01/M01 A3022 RMK AO2 SLP240 T10111011 FZRANO=
202104091336 SPECI KPWT 091336Z AUTO 00000KT 1/4SM FZFG OVC002 M01/M01 A3021 RMK AO2 FZRANO=
202104091333 SPECI KPWT 091333Z AUTO 00000KT 3/4SM BR OVC002 M01/M01 A3021 RMK AO2 FZRANO=
202104091331 SPECI KPWT 091331Z AUTO 00000KT 1 1/2SM BR OVC002 M01/M01 A3022 RMK AO2 FZRANO=
202104091322 SPECI KPWT 091322Z AUTO 00000KT 3SM BR OVC002 M01/M02 A3022 RMK AO2 FZRANO=
202104091319 SPECI KPWT 091319Z AUTO 00000KT 1 3/4SM BR OVC002 M01/M02 A3022 RMK AO2 VIS 1V5 FZRANO=
202104091314 SPECI KPWT 091314Z AUTO 00000KT 1SM BR OVC004 M01/M02 A3022 RMK AO2 FZRANO=
202104091304 SPECI KPWT 091304Z AUTO 00000KT 1 3/4SM BR OVC004 M01/M02 A3022 RMK AO2 FZRANO=
202104091256 METAR KPWT 091256Z AUTO 00000KT 7SM BKN004 M02/M02 A3022 RMK AO2 SLP242 T10171017 FZRANO=
202104091251 SPECI KPWT 091251Z AUTO 00000KT 10SM BKN004 M02/M02 A3022 RMK AO2 FZRANO=
202104091243 SPECI KPWT 091243Z AUTO 00000KT 10SM SCT004 M02/M02 A3022 RMK AO2 FZRANO=
202104091156 METAR KPWT 091156Z AUTO 00000KT 10SM CLR M02/M02 A3023 RMK AO2 SLP246 T10221022 10017 21028 56017 FZRANO=
202104091056 METAR KPWT 091056Z AUTO 00000KT 10SM CLR M03/M03 A3024 RMK AO2 SLP249 T10281028 FZRANO=
202104090956 METAR KPWT 090956Z AUTO 00000KT 10SM CLR M02/M03 A3026 RMK AO2 SLP255 T10221028 FZRANO=
202104090856 METAR KPWT 090856Z AUTO 00000KT 10SM CLR M01/M02 A3028 RMK AO2 SLP262 T10111017 57008 FZRANO=
202104090756 METAR KPWT 090756Z AUTO 00000KT 10SM CLR M01/M02 A3030 RMK AO2 SLP266 T10111017 401221011 FZRANO=
202104090656 METAR KPWT 090656Z AUTO 00000KT 10SM CLR 00/M01 A3030 RMK AO2 SLP267 T00001011 FZRANO=
202104090556 METAR KPWT 090556Z AUTO 15003KT 10SM CLR 01/M01 A3031 RMK AO2 SLP270 T00111006 10106 20011 50007 FZRANO=
202104090456 METAR KPWT 090456Z AUTO 00000KT 10SM CLR 04/M01 A3031 RMK AO2 SLP272 T00441006=
202104090356 METAR KPWT 090356Z AUTO 21007KT 10SM CLR 06/00 A3031 RMK AO2 SLP269 T00610000=
202104090256 METAR KPWT 090256Z AUTO 21008KT 10SM FEW055 BKN070 08/00 A3029 RMK AO2 SLP263 T00780000 56004=
202104090156 METAR KPWT 090156Z AUTO 21009KT 10SM OVC055 09/M01 A3029 RMK AO2 SLP264 T00941006=
202104090056 METAR KPWT 090056Z AUTO 20005KT 10SM OVC055 10/00 A3029 RMK AO2 SLP265 T01000000=
202104082356 METAR KPWT 082356Z AUTO 19005KT 10SM BKN075 11/00 A3030 RMK AO2 SLP267 T01060000 10122 20078 55000=
202104082256 METAR KPWT 082256Z AUTO 20005KT 10SM OVC065 11/M01 A3029 RMK AO2 SLP264 T01111006=
202104082156 METAR KPWT 082156Z AUTO 15008KT 10SM BKN065 11/M01 A3030 RMK AO2 SLP266 T01061011=
202104082056 METAR KPWT 082056Z AUTO VRB04KT 10SM FEW047 SCT060 11/M01 A3030 RMK AO2 SLP266 T01061006 51006=
202104081956 METAR KPWT 081956Z AUTO VRB03KT 10SM CLR 11/M01 A3029 RMK AO2 SLP264 T01061011=
202104081856 METAR KPWT 081856Z AUTO 23004KT 10SM CLR 08/M02 A3029 RMK AO2 SLP264 T00831022=
202104081756 METAR KPWT 081756Z AUTO 18005KT 10SM CLR 08/00 A3028 RMK AO2 SLP261 T00830000 10089 21006 51029=
202104081656 METAR KPWT 081656Z AUTO VRB03KT 10SM CLR 06/02 A3026 RMK AO2 SLP253 T00610022=
202104081556 METAR KPWT 081556Z AUTO 21003KT 10SM FEW020 05/02 A3023 RMK AO2 SLP242 T00500022=
202104081456 METAR KPWT 081456Z AUTO 00000KT 5SM BR CLR 04/03 A3020 RMK AO2 SLP232 T00390033 53021=
202104081356 METAR KPWT 081356Z AUTO 00000KT 4SM BR CLR M01/M01 A3016 RMK AO2 SLP221 T10061006 FZRANO=
202104081341 SPECI KPWT 081341Z AUTO 00000KT 3SM BR CLR 00/00 A3016 RMK AO2 FZRANO=
202104081337 SPECI KPWT 081337Z AUTO 00000KT 1 1/4SM BR CLR 00/M01 A3015 RMK AO2 FZRANO=
202104081333 SPECI KPWT 081333Z AUTO 00000KT 3/4SM BR CLR 00/M01 A3015 RMK AO2 FZRANO=
202104081327 SPECI KPWT 081327Z AUTO 00000KT 1 3/4SM BR CLR 00/00 A3015 RMK AO2 VIS 1/2V5 FZRANO=
202104081307 SPECI KPWT 081307Z AUTO 00000KT 10SM SCT017 01/01 A3014 RMK AO2 FZRANO=
202104081256 METAR KPWT 081256Z AUTO 00000KT 10SM FEW012 BKN017 01/01 A3014 RMK AO2 SLP213 T00110006 FZRANO=
202104081251 SPECI KPWT 081251Z AUTO 22003KT 10SM FEW010 BKN017 01/01 A3013 RMK AO2 FZRANO=
202104081156 METAR KPWT 081156Z AUTO 00000KT 10SM OVC013 01/01 A3011 RMK AO2 SLP204 60002 70007 T00060006 10050 20006 53024 FZRANO=
202104081136 SPECI KPWT 081136Z AUTO 00000KT 8SM BKN011 01/01 A3010 RMK AO2 FZRANO=
202104081056 METAR KPWT 081056Z AUTO 14003KT 10SM CLR 02/01 A3008 RMK AO2 SLP192 T00170011 FZRANO=
202104081029 SPECI KPWT 081029Z AUTO 08003KT 10SM SCT026 03/02 A3007 RMK AO2=
202104080956 METAR KPWT 080956Z AUTO 00000KT 10SM FEW014 OVC024 04/03 A3006 RMK AO2 SLP186 T00390033=
202104080913 SPECI KPWT 080913Z AUTO 21006KT 10SM SCT010 OVC027 04/03 A3004 RMK AO2=
202104080856 METAR KPWT 080856Z AUTO 31003KT 10SM OVC010 04/04 A3004 RMK AO2 CIG 004V013 SLP179 60002 T00440039 51014=
202104080803 SPECI KPWT 080803Z AUTO 22008KT 10SM OVC006 05/04 A3001 RMK AO2=
202104080756 METAR KPWT 080756Z AUTO 21009KT 10SM OVC004 04/04 A3001 RMK AO2 SLP169 T00440044 400890011=
202104080732 SPECI KPWT 080732Z AUTO VRB03KT 10SM BKN004 BKN010 04/04 A3001 RMK AO2=
202104080718 SPECI KPWT 080718Z AUTO 00000KT 10SM BKN008 BKN110 04/04 A3000 RMK AO2 CIG 005V011=
202104080656 METAR KPWT 080656Z AUTO 19007KT 10SM BKN110 04/04 A3000 RMK AO2 RAE43 SLP163 P0002 T00440039=
202104080556 METAR KPWT 080556Z AUTO 21011KT 10SM -RA SCT030 BKN039 OVC047 05/04 A3001 RMK AO2 RAB37 SLP170 P0000 60005 T00500039 10078 20050 55003=
202104080456 METAR KPWT 080456Z AUTO 21010G17KT 10SM FEW120 05/04 A3001 RMK AO2 RAE0358 SLP170 P0000 T00500039=
202104080439 SPECI KPWT 080439Z AUTO 20012G18KT 10SM SCT007 06/04 A3001 RMK AO2 RAE0358 P0000=
202104080416 SPECI KPWT 080416Z AUTO 20013G16KT 10SM BKN007 BKN011 06/05 A3001 RMK AO2 RAE0358 CIG 006V010 P0000=
202104080356 METAR KPWT 080356Z AUTO 21012G18KT 10SM -RA BKN011 06/05 A3001 RMK AO2 RAB04 SLP169 P0005 T00610050=
202104080310 SPECI KPWT 080310Z AUTO 22013G17KT 10SM -RA FEW008 BKN013 06/05 A3002 RMK AO2 RAB04 P0000=
202104080256 METAR KPWT 080256Z AUTO 21013G19KT 10SM BKN013 06/05 A3002 RMK AO2 RAB34E56 SLP173 P0000 60000 T00610050 56006=
202104080221 SPECI KPWT 080221Z AUTO 22014G19KT 10SM BKN013 07/04 A3002 RMK AO2=
202104080156 METAR KPWT 080156Z AUTO 21015G20KT 10SM BKN015 07/05 A3003 RMK AO2 RAB06E51 SLP175 P0000 T00670050=
202104080056 METAR KPWT 080056Z AUTO 22017G26KT 10SM BKN015 07/04 A3004 RMK AO2 PK WND 22026/0051 RAE23 SLP179 P0000 T00720044=
202104080039 SPECI KPWT 080039Z AUTO 23018G24KT 10SM BKN015 BKN020 08/04 A3004 RMK AO2 RAE23 P0000=
202104072356 METAR KPWT 072356Z AUTO 22021G26KT 10SM -RA SCT017 08/04 A3004 RMK AO2 PK WND 21029/2335 RAB49 SLP180 P0000 60000 T00780044 10089 20072 56010=
202104072256 METAR KPWT 072256Z AUTO 22017G25KT 10SM SCT013 SCT065 08/05 A3005 RMK AO2 SLP182 T00830050=
202104072156 METAR KPWT 072156Z AUTO 22012G18KT 10SM BKN017 BKN060 BKN080 08/05 A3006 RMK AO2 RAE22 SLP185 P0000 T00780050=
202104072138 SPECI KPWT 072138Z AUTO 21015KT 10SM SCT013 BKN021 BKN065 08/06 A3007 RMK AO2 RAE22 P0000=
202104072056 METAR KPWT 072056Z AUTO 22010KT 10SM -RA FEW016 BKN038 BKN045 07/05 A3007 RMK AO2 SLP191 P0000 60000 T00720050 53001=
202104072041 SPECI KPWT 072041Z AUTO 21014KT 10SM FEW016 BKN038 07/04 A3007 RMK AO2 RAE41 P0000=
202104071956 METAR KPWT 071956Z AUTO 21011KT 10SM -RA BKN020 BKN027 BKN036 08/05 A3007 RMK AO2 RAB48 SLP189 P0000 T00780050=
202104071926 SPECI KPWT 071926Z AUTO 20011G18KT 10SM BKN020 08/04 A3006 RMK AO2=
202104071856 METAR KPWT 071856Z AUTO 19015G20KT 10SM SCT020 BKN070 08/04 A3007 RMK AO2 SLP188 T00830044=
202104071840 SPECI KPWT 071840Z AUTO 20015G20KT 10SM SCT020 SCT070 08/04 A3007 RMK AO2=
202104071756 METAR KPWT 071756Z AUTO 21011KT 10SM OVC018 08/04 A3007 RMK AO2 SLP188 T00780039 10078 20044 51002=
202104071739 SPECI KPWT 071739Z AUTO 22015G18KT 10SM OVC016 07/04 A3007 RMK AO2=
202104071656 METAR KPWT 071656Z AUTO 22010KT 10SM OVC010 06/04 A3007 RMK AO2 CIG 009V013 SLP188 T00610039=
202104071556 METAR KPWT 071556Z AUTO 23008KT 10SM OVC010 06/04 A3007 RMK AO2 SLP189 T00560039=
202104071456 METAR KPWT 071456Z AUTO 22007KT 10SM OVC010 06/03 A3006 RMK AO2 SLP185 T00560033 51005=
202104071356 METAR KPWT 071356Z AUTO 00000KT 10SM OVC012 05/03 A3006 RMK AO2 SLP185 T00500033=
202104071256 METAR KPWT 071256Z AUTO 19004KT 10SM OVC010 05/03 A3005 RMK AO2 SLP181 T00500033=
202104071238 SPECI KPWT 071238Z AUTO 21006KT 10SM OVC010 04/03 A3005 RMK AO2=
202104071156 METAR KPWT 071156Z AUTO 22007KT 10SM OVC006 04/03 A3005 RMK AO2 SLP181 7//// T00440033 10061 20011 56003=
202104071131 SPECI KPWT 071131Z AUTO 21009KT 10SM OVC006 04/03 A3004 RMK AO2=
202104071056 METAR KPWT 071056Z AUTO 22007KT 10SM OVC004 04/03 A3005 RMK AO2 SLP179 T00390033=
202104070956 METAR KPWT 070956Z AUTO 20006KT 10SM OVC004 04/03 A3005 RMK AO2 SLP179 T00390033=
202104070946 SPECI KPWT 070946Z AUTO 20004KT 10SM OVC004 04/03 A3004 RMK AO2=
202104070916 SPECI KPWT 070916Z AUTO 20003KT 10SM BKN008 02/02 A3005 RMK AO2 FZRANO=
202104070907 SPECI KPWT 070907Z AUTO 00000KT 10SM SCT008 02/02 A3005 RMK AO2 FZRANO=
202104070856 METAR KPWT 070856Z AUTO 00000KT 10SM CLR 02/01 A3006 RMK AO2 SLP184 T00170011 53001 FZRANO=
202104070756 METAR KPWT 070756Z AUTO 00000KT 10SM CLR 01/01 A3005 RMK AO2 SLP181 T00110006 401561022 FZRANO=
202104070656 METAR KPWT 070656Z AUTO 00000KT 10SM CLR 03/02 A3005 RMK AO2 SLP180 T00330022=
202104070556 METAR KPWT 070556Z AUTO 15003KT 10SM CLR 06/03 A3005 RMK AO2 SLP183 6//// T00560033 10156 20044 50005=
202104070456 METAR KPWT 070456Z AUTO 13004KT 10SM CLR 07/03 A3006 RMK AO2 SLP186 T00670033=
202104070356 METAR KPWT 070356Z AUTO 00000KT 10SM CLR 09/02 A3005 RMK AO2 SLP182 T00890022=
202104070256 METAR KPWT 070256Z AUTO 07003KT 10SM CLR 11/03 A3004 RMK AO2 SLP179 6//// T01060033 56007=
202104070156 METAR KPWT 070156Z AUTO 23003KT 10SM CLR 14/04 A3004 RMK AO2 SLP180 T01390039=
202104070056 METAR KPWT 070056Z AUTO 22003KT 10SM CLR 15/03 A3005 RMK AO2 SLP181 T01500028=
202104062356 METAR KPWT 062356Z AUTO 00000KT 10SM CLR 16/02 A3006 RMK AO2 SLP185 T01560017 10156 20089 56016=
202104062256 METAR KPWT 062256Z AUTO 21007KT 10SM CLR 15/02 A3008 RMK AO2 SLP190 T01500022=
202104062156 METAR KPWT 062156Z AUTO 20007KT 160V220 10SM CLR 15/03 A3009 RMK AO2 SLP196 T01500033=
202104062056 METAR KPWT 062056Z AUTO 00000KT 10SM CLR 14/03 A3011 RMK AO2 SLP202 T01390033 56017=
202104061956 METAR KPWT 061956Z AUTO 00000KT 10SM CLR 13/03 A3012 RMK AO2 SLP207 T01280028=
202104061856 METAR KPWT 061856Z AUTO 00000KT 10SM CLR 12/04 A3014 RMK AO2 SLP212 T01170039=
202104061756 METAR KPWT 061756Z AUTO 25003KT 10SM CLR 09/04 A3016 RMK AO2 SLP220 T00890044 10089 21022 58003=
202104061728 SPECI KPWT 061728Z AUTO VRB03KT 10SM SCT003 07/04 A3016 RMK AO2=
202104061656 METAR KPWT 061656Z AUTO 30003KT 9SM OVC003 05/04 A3017 RMK AO2 SLP222 T00500039=
202104061627 SPECI KPWT 061627Z AUTO 24003KT 4SM BR OVC003 04/04 A3017 RMK AO2=
202104061617 SPECI KPWT 061617Z AUTO 21003KT 2SM BR OVC003 04/04 A3016 RMK AO2 VIS 1V4=
202104061556 METAR KPWT 061556Z AUTO 00000KT 8SM OVC003 04/04 A3016 RMK AO2 SLP221 T00440039=
202104061526 SPECI KPWT 061526Z AUTO 00000KT 9SM OVC003 03/03 A3017 RMK AO2=
202104061509 SPECI KPWT 061509Z AUTO 00000KT 10SM OVC005 02/02 A3017 RMK AO2 CIG 003V007 FZRANO=
202104061456 METAR KPWT 061456Z AUTO 00000KT 10SM OVC007 01/01 A3017 RMK AO2 SLP224 T00060006 50000 FZRANO=
202104061356 METAR KPWT 061356Z AUTO 00000KT 10SM BKN007 M02/M02 A3017 RMK AO2 SLP223 T10171022 FZRANO=
202104061339 SPECI KPWT 061339Z AUTO 00000KT 10SM SCT007 M02/M02 A3017 RMK AO2 FZRANO=
202104061256 METAR KPWT 061256Z AUTO 00000KT 10SM CLR M02/M02 A3017 RMK AO2 SLP223 T10171017 FZRANO=
202104061236 SPECI KPWT 061236Z AUTO 00000KT 3SM BR CLR M02/M02 A3017 RMK AO2 FZRANO=
202104061232 SPECI KPWT 061232Z AUTO 00000KT 1 1/2SM BR CLR M02/M02 A3017 RMK AO2 FZRANO=
202104061221 SPECI KPWT 061221Z AUTO 00000KT 3/4SM BR CLR M02/M02 A3017 RMK AO2 FZRANO=
202104061215 SPECI KPWT 061215Z AUTO 00000KT 1 1/2SM BR CLR M02/M02 A3017 RMK AO2 VIS 3/4V5 FZRANO=
202104061156 METAR KPWT 061156Z AUTO 00000KT 10SM CLR M01/M02 A3017 RMK AO2 SLP223 T10111017 10028 21017 52001 FZRANO=
202104061139 SPECI KPWT 061139Z AUTO 00000KT 4SM BR CLR M02/M02 A3017 RMK AO2 FZRANO=
202104061130 SPECI KPWT 061130Z AUTO 00000KT 2 1/2SM BR CLR M02/M02 A3017 RMK AO2 VIS 1V5 FZRANO=
202104061056 METAR KPWT 061056Z AUTO 00000KT 4SM BR CLR M02/M02 A3017 RMK AO2 SLP223 T10171017 FZRANO=
202104060956 METAR KPWT 060956Z AUTO 00000KT 10SM CLR M01/M02 A3017 RMK AO2 SLP222 T10111017 FZRANO=
202104060856 METAR KPWT 060856Z AUTO 00000KT 10SM CLR M01/M02 A3017 RMK AO2 SLP222 T10061017 58000 FZRANO=
202104060756 METAR KPWT 060756Z AUTO 00000KT 10SM CLR 01/00 A3017 RMK AO2 SLP223 T00110000 401391044 FZRANO=
202104060656 METAR KPWT 060656Z AUTO 00000KT 10SM CLR 02/01 A3017 RMK AO2 SLP222 T00220011 FZRANO=
202104060556 METAR KPWT 060556Z AUTO 23003KT 10SM CLR 02/01 A3017 RMK AO2 SLP223 T00220006 10139 20017 50007 FZRANO=
202104060456 METAR KPWT 060456Z AUTO 00000KT 10SM CLR 04/02 A3017 RMK AO2 SLP224 T00440017=
202104060356 METAR KPWT 060356Z AUTO 21004KT 10SM FEW050 07/01 A3017 RMK AO2 SLP222 T00670011=
202104060256 METAR KPWT 060256Z AUTO 04003KT 10SM CLR 08/00 A3014 RMK AO2 SLP216 T00780000 55007=
202104060156 METAR KPWT 060156Z AUTO 14005KT 10SM CLR 12/M01 A3014 RMK AO2 SLP214 T01221011=
202104060056 METAR KPWT 060056Z AUTO 00000KT 10SM CLR 13/M01 A3015 RMK AO2 SLP217 T01281006=
202104052356 METAR KPWT 052356Z AUTO 22008KT 10SM CLR 13/M01 A3017 RMK AO2 SLP222 T01331006 10139 20078 58022=
202104052256 METAR KPWT 052256Z AUTO 16005KT 10SM CLR 13/M01 A3019 RMK AO2 SLP229 T01331006=
202104052156 METAR KPWT 052156Z AUTO 24006KT 10SM CLR 13/01 A3021 RMK AO2 SLP237 T01330011=
202104052056 METAR KPWT 052056Z AUTO 23006KT 10SM CLR 12/01 A3023 RMK AO2 SLP244 T01220011 58012=
202104051956 METAR KPWT 051956Z AUTO VRB03KT 10SM CLR 10/00 A3024 RMK AO2 SLP248 T01000000=
202104051856 METAR KPWT 051856Z AUTO 00000KT 10SM CLR 09/00 A3026 RMK AO2 SLP252 T00940000=
202104051756 METAR KPWT 051756Z AUTO VRB04KT 10SM CLR 09/02 A3027 RMK AO2 SLP257 T00890017 10089 21044 58003=
202104051656 METAR KPWT 051656Z AUTO 26004KT 10SM CLR 07/01 A3027 RMK AO2 SLP258 T00670011=
202104051556 METAR KPWT 051556Z AUTO 19003KT 10SM CLR 04/02 A3028 RMK AO2 SLP260 T00390017=
202104051456 METAR KPWT 051456Z AUTO 21003KT 10SM CLR 01/00 A3028 RMK AO2 SLP260 T00060000 53008 FZRANO=
202104051356 METAR KPWT 051356Z AUTO 00000KT 10SM CLR M04/M04 A3027 RMK AO2 SLP257 T10391039 FZRANO=
202104051256 METAR KPWT 051256Z AUTO 00000KT 10SM CLR M04/M04 A3026 RMK AO2 SLP253 T10391044 FZRANO=
202104051156 METAR KPWT 051156Z AUTO 00000KT 10SM CLR M03/M04 A3025 RMK AO2 SLP251 70002 T10331039 11006 21039 51002 FZRANO=
202104051056 METAR KPWT 051056Z AUTO 00000KT 9SM CLR M03/M03 A3025 RMK AO2 SLP250 T10281033 FZRANO=
202104050956 METAR KPWT 050956Z AUTO 00000KT 8SM CLR M03/M03 A3025 RMK AO2 SLP250 T10281028 FZRANO=
202104050919 SPECI KPWT 050919Z AUTO 00000KT 3SM BR CLR M02/M03 A3024 RMK AO2 FZRANO=
202104050909 SPECI KPWT 050909Z AUTO 00000KT 1 3/4SM BR CLR M02/M02 A3024 RMK AO2 FZRANO=
202104050856 METAR KPWT 050856Z AUTO 00000KT 10SM CLR M02/M02 A3024 RMK AO2 SLP248 T10221022 58002 FZRANO=
202104050817 SPECI KPWT 050817Z AUTO 00000KT 6SM BR CLR M02/M02 A3025 RMK AO2 FZRANO=
202104050808 SPECI KPWT 050808Z AUTO 00000KT 2 1/2SM BR CLR M02/M02 A3025 RMK AO2 FZRANO=
202104050756 METAR KPWT 050756Z AUTO 00000KT 10SM CLR M02/M03 A3025 RMK AO2 SLP250 T10221028 400941022 FZRANO=
202104050656 METAR KPWT 050656Z AUTO 23003KT 10SM CLR M02/M02 A3025 RMK AO2 SLP250 T10171022 FZRANO=
202104050556 METAR KPWT 050556Z AUTO 00000KT 10SM CLR M01/M01 A3025 RMK AO2 SLP250 60001 T10061011 10078 21006 50003 FZRANO=
202104050456 METAR KPWT 050456Z AUTO 00000KT 10SM CLR 00/M01 A3025 RMK AO2 SLP251 T00001006 FZRANO=
202104050356 METAR KPWT 050356Z AUTO 00000KT 10SM CLR 02/01 A3025 RMK AO2 SLP249 T00170006 FZRANO=
202104050256 METAR KPWT 050256Z AUTO 00000KT 10SM CLR 03/01 A3024 RMK AO2 SLP248 P0001 60001 T00330011 55004=
202104050056 METAR KPWT 050056Z AUTO 07005KT 10SM BKN070 07/02 A3024 RMK AO2 RAE11 SLP246 P0000 T00670017=
202104050017 SPECI KPWT 050017Z AUTO 07007KT 10SM SCT027 SCT033 BKN045 06/02 A3025 RMK AO2 RAE11 P0000=
202104042356 METAR KPWT 042356Z AUTO 06010KT 10SM -RA BKN018 OVC026 05/02 A3025 RMK AO2 SLP251 P0001 60001 T00500022 10094 20050 58001=
202104042325 SPECI KPWT 042325Z AUTO 05005KT 10SM -RA BKN024 OVC039 05/02 A3027 RMK AO2 P0000=
202104042256 METAR KPWT 042256Z AUTO 03012G19KT 10SM -RA BKN041 06/02 A3026 RMK AO2 RAB56 SLP254 P0000 T00610022=
202104042226 SPECI KPWT 042226Z AUTO 02012G19KT 10SM FEW021 BKN039 OVC050 07/02 A3026 RMK AO2=
202104042209 SPECI KPWT 042209Z AUTO 03013G19KT 10SM FEW019 BKN029 OVC048 07/03 A3026 RMK AO2=
202104042156 METAR KPWT 042156Z AUTO 03010KT 10SM FEW029 BKN038 OVC047 08/01 A3025 RMK AO2 SLP251 T00830011=
202104042056 METAR KPWT 042056Z AUTO 05008KT 10SM FEW030 SCT037 SCT055 08/02 A3025 RMK AO2 SLP251 60000 T00830022 58008=
202104042021 SPECI KPWT 042021Z AUTO 01008KT 10SM OVC032 08/02 A3026 RMK AO2=
202104041956 METAR KPWT 041956Z AUTO 04007KT 10SM SCT024 BKN029 BKN033 08/01 A3027 RMK AO2 RAE08B29E41 SLP256 P0000 T00780011=
202104041909 SPECI KPWT 041909Z AUTO 04010KT 10SM SCT025 BKN029 BKN037 07/02 A3028 RMK AO2 RAE08 P0000=
202104041856 METAR KPWT 041856Z AUTO 04010KT 10SM -RA SCT025 SCT030 BKN035 07/02 A3028 RMK AO2 RAB37 SLP260 P0000 T00670022=
202104041756 METAR KPWT 041756Z AUTO 04006KT 10SM OVC037 07/02 A3028 RMK AO2 RAE1657 SLP259 60000 T00670017 10067 20050 51012=
202104041656 METAR KPWT 041656Z AUTO 02008KT 10SM -RA OVC033 06/02 A3026 RMK AO2 RAB13 SLP253 P0000 T00560022=
202104041653 SPECI KPWT 041653Z AUTO 02008KT 10SM -RA OVC031 06/02 A3026 RMK AO2 RAB13 P0000=
202104041556 METAR KPWT 041556Z AUTO 05011KT 10SM OVC029 06/01 A3024 RMK AO2 SLP246 T00560011=
202104041456 METAR KPWT 041456Z AUTO 05008KT 10SM OVC025 05/03 A3024 RMK AO2 SLP244 60000 T00500028 51012=
202104041414 SPECI KPWT 041414Z AUTO 08004KT 10SM FEW007 SCT012 OVC019 06/04 A3023 RMK AO2=
202104041356 METAR KPWT 041356Z AUTO 00000KT 6SM BR OVC009 06/05 A3023 RMK AO2 RAE23 CIG 005V011 SLP241 P0000 T00560050=
202104041256 METAR KPWT 041256Z AUTO 06005KT 5SM -RA BR OVC007 06/05 A3021 RMK AO2 RAE05B44 SLP238 P0000 T00560050=
202104041156 METAR KPWT 041156Z AUTO 08005KT 10SM -RA OVC009 07/05 A3020 RMK AO2 RAB34 SLP232 P0000 60000 7//// T00670050 10078 20067 58001=
202104041119 SPECI KPWT 041119Z AUTO 05004KT 10SM BKN011 OVC023 07/05 A3021 RMK AO2=
202104041056 METAR KPWT 041056Z AUTO 06006KT 10SM FEW013 OVC023 07/05 A3021 RMK AO2 SLP234 T00670050=
202104040956 METAR KPWT 040956Z AUTO 05006KT 10SM OVC026 07/05 A3021 RMK AO2 SLP234 T00720050=
202104040856 METAR KPWT 040856Z AUTO 06007KT 10SM OVC024 07/05 A3021 RMK AO2 SLP234 T00720050 53009=
202104040756 METAR KPWT 040756Z AUTO 07006KT 10SM OVC020 07/06 A3020 RMK AO2 SLP230 T00720056 401720006=
202104040656 METAR KPWT 040656Z AUTO 06007KT 10SM BKN020 BKN110 08/06 A3018 RMK AO2 SLP226 T00780061=
202104040556 METAR KPWT 040556Z AUTO 06007KT 10SM BKN110 08/07 A3018 RMK AO2 SLP225 T00830067 10156 20083 51014=
202104040456 METAR KPWT 040456Z AUTO 05008KT 10SM FEW055 09/07 A3017 RMK AO2 SLP222 T00940067=
202104040356 METAR KPWT 040356Z AUTO 22006KT 10SM BKN070 11/07 A3016 RMK AO2 SLP217 T01110067=
202104040256 METAR KPWT 040256Z AUTO 22011KT 10SM FEW070 12/07 A3014 RMK AO2 SLP212 T01220067 53004=
202104040156 METAR KPWT 040156Z AUTO 22009KT 10SM CLR 13/06 A3013 RMK AO2 SLP209 T01330061=
202104040056 METAR KPWT 040056Z AUTO 22013G19KT 10SM FEW100 14/05 A3013 RMK AO2 SLP208 T01440050=
202104032356 METAR KPWT 032356Z AUTO 21016G20KT 10SM CLR 16/05 A3013 RMK AO2 SLP207 6//// T01560050 10172 20117 56002=
202104032256 METAR KPWT 032256Z AUTO 22014G20KT 10SM CLR 16/04 A3013 RMK AO2 SLP207 T01610044=
202104032156 METAR KPWT 032156Z AUTO 23016G21KT 10SM CLR 17/04 A3013 RMK AO2 SLP206 T01670044=
202104032056 METAR KPWT 032056Z AUTO 21012G18KT 10SM CLR 16/06 A3014 RMK AO2 SLP209 T01610056 58004=
202104031956 METAR KPWT 031956Z AUTO 21009KT 10SM FEW080 14/06 A3014 RMK AO2 SLP211 T01440056=
202104031856 METAR KPWT 031856Z AUTO 20009KT 10SM SCT060 13/04 A3015 RMK AO2 SLP213 T01330044=
202104031756 METAR KPWT 031756Z AUTO 19009KT 10SM FEW110 12/05 A3015 RMK AO2 SLP214 T01170050 10117 20006 53004=
202104031656 METAR KPWT 031656Z AUTO 21007KT 10SM FEW110 09/04 A3014 RMK AO2 SLP214 T00890039=
202104031556 METAR KPWT 031556Z AUTO 23004KT 10SM CLR 06/04 A3013 RMK AO2 SLP210 T00610039=
202104031456 METAR KPWT 031456Z AUTO 00000KT 10SM CLR 02/02 A3014 RMK AO2 SLP211 T00220022 53002 FZRANO=
202104031356 METAR KPWT 031356Z AUTO 00000KT 10SM CLR 01/00 A3012 RMK AO2 SLP207 T00060000 FZRANO=
202104031256 METAR KPWT 031256Z AUTO 00000KT 10SM CLR 01/00 A3012 RMK AO2 SLP207 T00060000 FZRANO=
202104031156 METAR KPWT 031156Z AUTO 14003KT 10SM CLR 01/00 A3013 RMK AO2 SLP208 T00060000 10061 20006 58001 FZRANO=
202104031056 METAR KPWT 031056Z AUTO 00000KT 10SM CLR 01/M01 A3013 RMK AO2 SLP209 T00061006 FZRANO=
202104030956 METAR KPWT 030956Z AUTO 00000KT 10SM CLR 01/00 A3014 RMK AO2 SLP211 T00110000 FZRANO=
202104030856 METAR KPWT 030856Z AUTO 00000KT 10SM CLR 02/01 A3013 RMK AO2 SLP209 T00220011 53004 FZRANO=
202104030756 METAR KPWT 030756Z AUTO 00000KT 10SM CLR 03/01 A3012 RMK AO2 SLP207 T00280006 401390000=
202104030656 METAR KPWT 030656Z AUTO 06005KT 10SM CLR 06/02 A3012 RMK AO2 SLP204 T00560017=
202104030556 METAR KPWT 030556Z AUTO 00000KT 10SM CLR 05/02 A3012 RMK AO2 SLP205 T00500017 10139 20044 51008=
202104030456 METAR KPWT 030456Z AUTO 05003KT 10SM CLR 06/03 A3011 RMK AO2 SLP203 T00610028=
202104030356 METAR KPWT 030356Z AUTO 04005KT 10SM CLR 07/03 A3010 RMK AO2 SLP201 T00720033=
202104030256 METAR KPWT 030256Z AUTO 07004KT 10SM CLR 09/04 A3010 RMK AO2 SLP197 T00890039 53003=
202104030156 METAR KPWT 030156Z AUTO 23003KT 10SM CLR 12/01 A3009 RMK AO2 SLP193 T01220006=
202104030056 METAR KPWT 030056Z AUTO 22007KT 10SM CLR 13/01 A3008 RMK AO2 SLP192 T01280006=
202104022356 METAR KPWT 022356Z AUTO 23009KT 10SM CLR 13/01 A3009 RMK AO2 SLP193 T01330006 10139 20089 50001=
202104022256 METAR KPWT 022256Z AUTO 22008KT 10SM CLR 14/01 A3009 RMK AO2 SLP194 T01390011=
202104022156 METAR KPWT 022156Z AUTO VRB05KT 10SM CLR 13/01 A3009 RMK AO2 SLP194 T01280006=
202104022056 METAR KPWT 022056Z AUTO 24010G17KT 10SM CLR 12/01 A3008 RMK AO2 SLP193 T01220006 50004=
202104021956 METAR KPWT 021956Z AUTO 22010KT 10SM SCT042 11/02 A3008 RMK AO2 SLP194 T01110017=
202104021856 METAR KPWT 021856Z AUTO 24011KT 10SM OVC038 11/02 A3008 RMK AO2 SLP192 T01060017=
202104021756 METAR KPWT 021756Z AUTO 24010KT 10SM BKN034 OVC044 09/02 A3007 RMK AO2 SLP189 T00940022 10094 20033 53002=
202104021656 METAR KPWT 021656Z AUTO 23005KT 10SM FEW007 BKN043 07/05 A3006 RMK AO2 SLP187 T00720050=
202104021652 SPECI KPWT 021652Z AUTO 24005KT 10SM SCT005 BKN043 07/05 A3006 RMK AO2=
202104021639 SPECI KPWT 021639Z AUTO 22004KT 10SM BKN005 OVC043 06/05 A3006 RMK AO2 CIG 003V008=
202104021556 METAR KPWT 021556Z AUTO 00000KT 9SM OVC003 04/04 A3006 RMK AO2 SLP187 T00440044=
202104021529 SPECI KPWT 021529Z AUTO 00000KT 6SM BR OVC003 04/04 A3006 RMK AO2=
202104021519 SPECI KPWT 021519Z AUTO 00000KT 2SM BR OVC003 04/04 A3005 RMK AO2=
202104021512 SPECI KPWT 021512Z AUTO 00000KT 1SM BR OVC003 04/04 A3005 RMK AO2=
202104021456 METAR KPWT 021456Z AUTO 00000KT 1/2SM FG OVC003 04/04 A3005 RMK AO2 SLP182 T00390039 51014=
202104021444 SPECI KPWT 021444Z AUTO 00000KT 1/2SM FG OVC003 04/04 A3005 RMK AO2=
202104021437 SPECI KPWT 021437Z AUTO 00000KT 3/4SM BR OVC003 04/03 A3005 RMK AO2 VIS 1/2V2=
202104021423 SPECI KPWT 021423Z AUTO 00000KT 1SM BR OVC003 04/03 A3005 RMK AO2=
202104021415 SPECI KPWT 021415Z AUTO 00000KT 1 1/4SM BR OVC003 04/03 A3005 RMK AO2=
202104021405 SPECI KPWT 021405Z AUTO 00000KT 2SM BR OVC003 04/03 A3004 RMK AO2 VIS 1 1/4V4=
202104021356 METAR KPWT 021356Z AUTO 27004KT 4SM BR OVC003 04/03 A3004 RMK AO2 SLP178 T00390033=
202104021256 METAR KPWT 021256Z AUTO 23005KT 3SM BR OVC003 04/03 A3003 RMK AO2 SLP173 T00390033=
202104021249 SPECI KPWT 021249Z AUTO 22003KT 2SM BR OVC003 04/03 A3002 RMK AO2=
202104021156 METAR KPWT 021156Z AUTO 00000KT 10SM OVC003 03/03 A3001 RMK AO2 SLP167 T00330033 10033 20000=
202104021151 SPECI KPWT 021151Z AUTO 00000KT 10SM OVC003 03/03 A3001 RMK AO2=
202104021128 SPECI KPWT 021128Z AUTO 00000KT 10SM OVC005 02/02 A3001 RMK AO2 FZRANO=
202104021056 METAR KPWT 021056Z AUTO 00000KT 10SM BKN007 01/01 RMK AO2 SLPNO T00110006 FZRANO $=
202104021005 SPECI KPWT 021005Z AUTO 00000KT 10SM FEW006 01/00 A2999 RMK AO2 FZRANO=
202104020956 METAR KPWT 020956Z AUTO 00000KT 10SM CLR 01/01 A2999 RMK AO2 SLP162 T00110006 FZRANO=
202104020938 SPECI KPWT 020938Z AUTO 00000KT 3SM BR CLR 00/M01 A2999 RMK AO2 FZRANO=
202104020926 SPECI KPWT 020926Z AUTO 00000KT 1 3/4SM BR CLR 00/00 A2999 RMK AO2 FZRANO=
202104020856 METAR KPWT 020856Z AUTO 00000KT 9SM CLR 01/00 A2999 RMK AO2 SLP161 T00060000 53009 FZRANO=
202104020842 SPECI KPWT 020842Z AUTO 00000KT 3SM BR CLR 01/00 A2999 RMK AO2 FZRANO=
202104020832 SPECI KPWT 020832Z AUTO 00000KT 1 3/4SM BR CLR 01/01 A2999 RMK AO2 FZRANO=
202104020756 METAR KPWT 020756Z AUTO 00000KT 9SM CLR 01/00 A2998 RMK AO2 SLP159 T00060000 401560006 FZRANO=
202104020656 METAR KPWT 020656Z AUTO 14003KT 10SM CLR 02/02 A2997 RMK AO2 SLP156 T00220017 FZRANO=
202104020556 METAR KPWT 020556Z AUTO 00000KT 10SM CLR 02/02 A2997 RMK AO2 SLP154 T00220017 10133 20022 51012 FZRANO=
202104020456 METAR KPWT 020456Z AUTO 13004KT 10SM CLR 04/03 A2996 RMK AO2 SLP150 T00440028=
202104020356 METAR KPWT 020356Z AUTO 03003KT 10SM CLR 07/02 A2995 RMK AO2 SLP148 T00720022=
202104020256 METAR KPWT 020256Z AUTO 00000KT 10SM CLR 10/02 A2993 RMK AO2 SLP141 T01000022 53002=
202104020156 METAR KPWT 020156Z AUTO 09004KT 10SM CLR 11/03 A2992 RMK AO2 SLP137 T01110033=
202104020056 METAR KPWT 020056Z AUTO 05010KT 10SM CLR 12/04 A2992 RMK AO2 SLP139 T01170044=
202104012356 METAR KPWT 012356Z AUTO 05007KT 10SM CLR 13/05 A2992 RMK AO2 SLP139 T01330050 10156 20083 56009=
202104012256 METAR KPWT 012256Z AUTO 21006KT 10SM CLR 16/02 A2993 RMK AO2 SLP139 T01560017=
202104012156 METAR KPWT 012156Z AUTO 21009KT 10SM CLR 14/03 A2994 RMK AO2 SLP144 T01440033=
202104012056 METAR KPWT 012056Z AUTO VRB04KT 10SM CLR 13/04 A2995 RMK AO2 SLP148 T01280039 58009=
202104011956 METAR KPWT 011956Z AUTO 24005KT 10SM FEW027 12/04 A2996 RMK AO2 SLP153 T01170039=
202104011946 SPECI KPWT 011946Z AUTO 22008KT 10SM SCT025 12/04 A2997 RMK AO2=
202104011924 SPECI KPWT 011924Z AUTO VRB04KT 10SM BKN025 11/04 A2997 RMK AO2=
202104011856 METAR KPWT 011856Z AUTO 08003KT 10SM FEW020 SCT025 09/04 A2997 RMK AO2 SLP156 T00940044=
202104011805 SPECI KPWT 011805Z AUTO 08003KT 10SM SCT016 09/04 A2997 RMK AO2=
202104011756 METAR KPWT 011756Z AUTO 00000KT 10SM BKN016 08/04 A2998 RMK AO2 SLP157 T00830044 10089 20006 52012=
202104011749 SPECI KPWT 011749Z AUTO 07004KT 10SM BKN016 09/05 A2998 RMK AO2=
202104011739 SPECI KPWT 011739Z AUTO 00000KT 10SM BKN014 08/04 A2998 RMK AO2=
202104011656 METAR KPWT 011656Z AUTO 19003KT 10SM FEW008 07/04 A2997 RMK AO2 SLP154 T00670044=
202104011649 SPECI KPWT 011649Z AUTO 22005KT 10SM SCT008 06/04 A2997 RMK AO2=
202104011630 SPECI KPWT 011630Z AUTO 20005KT 10SM BKN008 06/04 A2996 RMK AO2 CIG 006V010=
202104011556 METAR KPWT 011556Z AUTO 20004KT 10SM FEW008 05/04 A2995 RMK AO2 SLP148 T00500039=
202104011548 SPECI KPWT 011548Z AUTO 23003KT 10SM FEW008 06/04 A2995 RMK AO2=
202104011456 METAR KPWT 011456Z AUTO 00000KT 10SM CLR 03/03 A2994 RMK AO2 SLP145 T00280028 53008=
202104011356 METAR KPWT 011356Z AUTO 00000KT 10SM CLR 02/02 A2992 RMK AO2 SLP138 T00220017 FZRANO=
202104011256 METAR KPWT 011256Z AUTO 00000KT 10SM CLR 01/01 A2992 RMK AO2 SLP137 T00060006 FZRANO=
202104011156 METAR KPWT 011156Z AUTO 00000KT 10SM CLR 01/01 A2992 RMK AO2 SLP136 7//// T00110006 10056 20006 56017 FZRANO=
202104011056 METAR KPWT 011056Z AUTO 00000KT 10SM CLR 01/00 A2993 RMK AO2 SLP140 T00060000 FZRANO=
202104010956 METAR KPWT 010956Z AUTO 00000KT 10SM CLR 01/01 A2995 RMK AO2 SLP146 T00110006 FZRANO=
202104010856 METAR KPWT 010856Z AUTO 00000KT 10SM CLR 01/01 A2997 RMK AO2 SLP154 T00110006 56015 FZRANO=
202104010756 METAR KPWT 010756Z AUTO 00000KT 10SM CLR 02/01 A2998 RMK AO2 SLP158 T00220011 401671011 FZRANO=
202104010656 METAR KPWT 010656Z AUTO 00000KT 10SM CLR 03/02 A2999 RMK AO2 SLP163 T00330017=
202104010556 METAR KPWT 010556Z AUTO 00000KT 10SM CLR 04/01 A3002 RMK AO2 SLP170 T00440011 10167 20044 57013=
202104010456 METAR KPWT 010456Z AUTO 04005KT 10SM CLR 08/02 A3003 RMK AO2 SLP175 T00780022=
202104010356 METAR KPWT 010356Z AUTO 00000KT 10SM CLR 08/03 A3004 RMK AO2 SLP178 T00830028=
202104010256 METAR KPWT 010256Z AUTO 00000KT 10SM CLR 10/02 A3005 RMK AO2 SLP183 T01000022 56028=
202104010156 METAR KPWT 010156Z AUTO 02005KT 10SM CLR 13/03 A3008 RMK AO2 SLP189 T01330028=
202104010056 METAR KPWT 010056Z AUTO 07005KT 10SM CLR 15/02 A3010 RMK AO2 SLP199 T01500017=

# No short TAF reports from KPWT in databse.

###################################
#  large TAF from KPWT
###################################
202104302322 TAF KPWT 302322Z 0100/0124 21010G20KT P6SM FEW025 FM010300 21009KT
                       P6SM BKN035 FM010800 18004KT P6SM OVC012
                       FM011200 17002KT P6SM OVC007 FM011800 20008KT
                       P6SM BKN050=
202104301722 TAF KPWT 301722Z 3018/0118 18010KT 6SM -RA OVC003 FM301900 17012KT
                       P6SM -RA OVC020 FM302100 20009KT P6SM OVC020
                       FM010000 21005KT P6SM BKN035 FM010800 18004KT
                       P6SM OVC012 FM011200 17002KT P6SM OVC007=
202104301129 TAF KPWT 301129Z 3012/0112 19009KT P6SM -RA BKN007 OVC050 FM301500
                       18012G18KT 6SM -RA BR OVC010 FM301900 17012KT
                       P6SM -RA OVC020 FM010000 21005KT P6SM BKN020
                       FM010600 18004KT P6SM OVC012=
202104300904 KPWT 300904Z 3009/0106 19009KT P6SM -RA OVC013 FM301500 18012G18KT
                       6SM -RA BR OVC010 FM301900 17007KT P6SM
                       -RA OVC020 FM010100 21005KT P6SM OVC025=
202104300802 KPWT 300802Z 3008/0106 20005KT P6SM SCT040 OVC100 FM300900 18008KT
                       P6SM BKN035 OVC070 FM301200 18010KT P6SM
                       -RA OVC025 FM301500 18012G18KT 6SM -RA BR
                       OVC010 FM301900 17007KT P6SM -RA OVC020
                       FM010100 21005KT P6SM OVC025=
202104300520 TAF KPWT 300520Z 3006/0106 20010KT P6SM SCT080 OVC250 FM300900
                       18008KT P6SM BKN035 OVC070 FM301200 18010KT
                       P6SM -RA OVC025 FM301500 18012G18KT 6SM
                       -RA BR OVC010 FM301900 17007KT P6SM -RA
                       OVC020 FM010100 21005KT P6SM OVC025=
202104292320 TAF KPWT 292320Z 3000/3024 23010G16KT P6SM BKN250 FM300300 20008KT
                       P6SM SCT080 OVC250 FM300900 18008KT P6SM
                       BKN035 OVC070 FM301200 18010KT P6SM -RA
                       OVC025 FM301500 18012G18KT 6SM -RA BR OVC010=
202104291722 TAF KPWT 291722Z 2918/3018 23003KT P6SM BKN250 FM292200 21009KT
                       P6SM BKN250 FM300300 20008KT P6SM SCT080
                       OVC150 FM300900 18008KT P6SM BKN035 OVC070
                       FM301200 18010KT P6SM -RA OVC025 FM301500
                       18012G18KT 6SM -RA BR OVC010=
202104291120 TAF KPWT 291120Z 2912/3012 05005KT P6SM OVC200 FM291500 15003KT
                       P6SM BKN200 FM292200 21009KT P6SM SCT200
                       FM300300 20010KT P6SM SCT080 OVC150 FM300900
                       18010KT P6SM BKN030 OVC070 FM301000 18010KT
                       P6SM -RA OVC025=
202104290525 TAF KPWT 290525Z 2906/3006 02003KT P6SM OVC200 FM291500 15003KT
                       P6SM BKN150 FM292200 21009KT P6SM SCT200
                       FM300300 20010KT P6SM SCT080 OVC150=
202104282339 TAF KPWT 282339Z 2900/2924 23004KT P6SM SCT150 BKN250 FM290200
                       VRB03KT P6SM SCT100 BKN200 FM291200 15003KT
                       P6SM BKN250 FM291600 21003KT P6SM BKN250
                       FM292200 21009KT P6SM BKN250=
202104281732 TAF KPWT 281732Z 2818/2918 21004KT P6SM SCT100 BKN200 FM290400
                       VRB03KT P6SM SCT100 BKN200 FM291200 21001KT
                       P6SM BKN250=
202104281419 KPWT 281419Z 2814/2912 VRB03KT P6SM BKN100 FM281700 VRB03KT P6SM
                       BKN015 BKN100 FM281900 22005KT P6SM BKN100
                       BKN200 FM290400 VRB03KT P6SM SCT100 BKN200=
202104281120 TAF KPWT 281120Z 2812/2912 VRB03KT P6SM BKN100
                      TEMPO 2812/2816 4SM BR OVC004 FM281700 VRB03KT
                       P6SM BKN015 BKN100 FM281900 22005KT P6SM
                       BKN100 BKN200 FM290400 VRB03KT P6SM SCT100
                       BKN200=
202104280520 TAF KPWT 280520Z 2806/2906 21004KT P6SM BKN080 BKN100 FM281100
                       00000KT P6SM OVC004 FM281700 VRB03KT P6SM
                       BKN015 BKN100 FM281900 20005KT P6SM BKN100
                       BKN200=
202104272321 TAF KPWT 272321Z 2800/2824 21010KT P6SM FEW035 BKN250 FM280400
                       VRB03KT P6SM SCT050 BKN100 FM281100 00000KT
                       P6SM OVC004 FM281700 VRB03KT P6SM BKN015
                       BKN100 FM281900 20005KT P6SM BKN100 BKN200=
202104271720 TAF KPWT 271720Z 2718/2818 18007KT P6SM BKN020 FM272000 20007KT
                       P6SM BKN050 OVC100 FM280400 VRB03KT P6SM
                       SCT050 BKN100 FM281100 00000KT P6SM OVC004=
202104271609 KPWT 271609Z 2716/2812 22007KT P6SM SCT010 BKN250
                      TEMPO 2716/2718 BKN010 BKN250 FM271800 21007KT
                       P6SM BKN050 FM280500 00000KT P6SM OVC100=
202104271412 KPWT 271412Z 2714/2812 00000KT P6SM OVC004
                      TEMPO 2714/2716 1SM BR OVC002 FM271600 22004KT
                       P6SM OVC025 FM271900 21007KT P6SM BKN050
                       FM280500 00000KT P6SM OVC100=
202104271241 KPWT 271241Z 2713/2812 VRB03KT 1SM BR OVC001 FM271600 22004KT P6SM
                       OVC025 FM271900 21007KT P6SM BKN050 FM280500
                       00000KT P6SM OVC100=
202104271125 TAF KPWT 271125Z 2712/2812 VRB03KT 2SM BR OVC020 FM271500 VRB03KT
                       P6SM OVC025 FM271800 21007KT P6SM BKN050
                       FM280500 00000KT P6SM OVC100=
202104271035 KPWT 271035Z 2711/2806 VRB03KT 2SM BR OVC020 FM271500 VRB03KT P6SM
                       OVC005 FM272000 21003KT P6SM OVC020 FM272100
                       20007KT P6SM BKN050=
202104270522 TAF KPWT 270522Z 2706/2806 VRB03KT P6SM BKN050 FM271000 VRB03KT
                       P6SM OVC020 FM271500 VRB03KT P6SM OVC005
                       FM272000 21003KT P6SM OVC020 FM272100 20007KT
                       P6SM BKN050=
202104262325 TAF KPWT 262325Z 2700/2724 VRB03KT P6SM BKN050 FM271000 VRB03KT
                       P6SM OVC020 FM271500 VRB03KT P6SM OVC005
                       FM272000 21003KT P6SM OVC020 FM272100 20007KT
                       P6SM BKN050=
202104261728 TAF KPWT 261728Z 2618/2718 20007KT P6SM SCT015 FM262000 21005KT
                       P6SM BKN050 FM270600 16003KT P6SM BKN050
                       FM271500 20005KT P6SM BKN050=
202104261502 KPWT 261502Z 2615/2712 20006KT P6SM FEW002 BKN023 FM262000 21005KT
                       P6SM BKN050=
202104261120 TAF KPWT 261120Z 2612/2712 00000KT P6SM OVC004 FM261800 21004KT
                       P6SM OVC015 FM262000 21005KT P6SM BKN050=
202104260520 TAF KPWT 260520Z 2606/2706 15002KT P6SM OVC030 FM261200 VRB02KT
                       P6SM OVC003 FM261800 21004KT P6SM OVC015
                       FM262200 21005KT P6SM BKN050=
202104252325 TAF KPWT 252325Z 2600/2624 21008KT P6SM VCSH FEW025 BKN050 FM260600
                       15002KT P6SM OVC030 FM261200 VRB02KT P6SM
                       OVC003 FM261800 21004KT P6SM OVC015 FM262200
                       21005KT P6SM BKN050=
202104252058 KPWT 252058Z 2521/2618 22010KT P6SM VCSH BKN020 BKN035 FM260400
                       20003KT P6SM OVC050 FM260600 15002KT P6SM
                       OVC030 FM261200 VRB02KT P6SM OVC003=
202104251729 TAF KPWT 251729Z 2518/2618 19010KT P6SM BKN009 BKN022 FM260400
                       20003KT P6SM OVC050 FM260600 15002KT P6SM
                       OVC030 FM261200 VRB02KT P6SM OVC003=
202104251500 KPWT 251500Z 2515/2612 18005KT P6SM -SHRA BKN010 OVC020 FM251800
                       20007KT P6SM -SHRA OVC025 FM260400 20003KT
                       P6SM OVC050=
202104251132 TAF KPWT 251132Z 2512/2612 18005KT P6SM -SHRA SCT010 OVC020 FM251800
                       20007KT P6SM -SHRA OVC025 FM260400 20003KT
                       P6SM OVC050=
202104250520 TAF KPWT 250520Z 2506/2606 18006KT P6SM -RA OVC012 FM250900 18005KT
                       P6SM -RA OVC007 FM251500 VRB04KT P6SM -RA
                       OVC015=
202104242322 TAF KPWT 242322Z 2500/2524 21009KT P6SM -RA BKN007 BKN020 OVC025
                       FM250200 18006KT 6SM -RA BR OVC012 FM250900
                       18005KT 5SM -RA BR OVC007 FM251500 VRB04KT
                       6SM -RA BR OVC015=
202104241721 TAF KPWT 241721Z 2418/2518 19007KT 6SM -RA BR OVC009 FM250200 18006KT
                       6SM -RA BR OVC012 FM250900 18005KT 5SM -RA
                       BR OVC007 FM251500 VRB04KT 6SM -RA BR OVC015=
202104241122 TAF KPWT 241122Z 2412/2512 20008KT 6SM -RA BR OVC009
                      TEMPO 2412/2415 SCT012 OVC025 FM241500 19007KT
                       6SM -RA BR OVC009 FM250200 18006KT 6SM -RA
                       BR OVC012 FM250900 18005KT 5SM -RA BR OVC007=
202104240528 TAF KPWT 240528Z 2406/2506 20008KT P6SM VCSH SCT035 OVC070 FM240900
                       18006KT 6SM -RA BR OVC020 FM241400 19005KT
                       6SM -RA BR OVC009 FM242100 20007KT 6SM -RA
                       BR OVC015 FM250400 18006KT 6SM -RA BR OVC008=
202104232320 TAF KPWT 232320Z 2400/2424 23013KT P6SM OVC200 FM240500 20008KT
                       P6SM VCSH OVC030 FM240900 18006KT 6SM -RA
                       BR OVC012 FM241500 VRB03KT 4SM -RA BR OVC007
                       FM242100 20007KT 6SM -RA BR OVC015=
202104232058 KPWT 232058Z 2321/2418 23014KT P6SM OVC200 FM232200 21013KT P6SM
                       OVC050 FM240500 20008KT P6SM VCSH OVC025
                       FM240900 18006KT 6SM -RA BR OVC012 FM241500
                       VRB03KT 4SM -RA BR OVC007=
202104231721 TAF KPWT 231721Z 2318/2418 21010KT P6SM OVC020 FM232200 21013KT
                       P6SM OVC050 FM240500 20008KT P6SM VCSH OVC025
                       FM240900 18006KT 6SM -RA BR OVC012 FM241500
                       VRB03KT 4SM -RA BR OVC007=
202104231128 TAF KPWT 231128Z 2312/2412 19008KT P6SM SCT025 BKN200 FM231800
                       20005KT P6SM BKN050 BKN100 FM232200 21010KT
                       P6SM OVC050 FM240500 20008KT P6SM VCSH OVC025
                       FM240900 18006KT 6SM -RA BR OVC012=
202104230524 TAF KPWT 230524Z 2306/2406 21006KT P6SM FEW045 FM231000 19008KT
                       P6SM OVC040 FM231800 20005KT P6SM BKN050
                       BKN100 FM232200 21010KT P6SM OVC050 FM240500
                       20008KT P6SM VCSH OVC035=
202104222325 TAF KPWT 222325Z 2300/2324 22006KT P6SM FEW035 FM230900 19008KT
                       P6SM OVC020 FM231200 19004KT 6SM BR OVC010
                       FM231500 20005KT 6SM BR OVC035 FM232100
                       21010KT P6SM OVC050=
202104222059 KPWT 222059Z 2221/2318 21006KT P6SM BKN020 BKN035 FM222300 20006KT
                       P6SM SCT050 SCT200 FM230900 19008KT P6SM
                       OVC020 FM231200 19004KT 6SM BR OVC020=
202104221730 TAF KPWT 221730Z 2218/2318 23006KT P6SM BKN009 BKN013 OVC018 FM222100
                       21006KT P6SM BKN020 BKN035 FM222300 20006KT
                       P6SM SCT050 SCT200 FM230900 19008KT P6SM
                       OVC020 FM231200 19004KT 6SM BR OVC020=
202104221120 TAF KPWT 221120Z 2212/2312 21007KT P6SM OVC006 FM221900 19006KT
                       P6SM BKN015 BKN040 FM222100 21006KT P6SM
                       BKN035 FM222300 20006KT P6SM SCT050 SCT200
                       FM230900 19008KT P6SM OVC025=
202104220819 KPWT 220819Z 2208/2306 22004KT P6SM BKN005 FM221000 18003KT 6SM
                       BR OVC007 FM221900 19005KT P6SM BKN015 BKN050
                       FM222100 21005KT P6SM SCT035 BKN070 FM230100
                       20005KT P6SM SCT050 SCT200=
202104220536 TAF KPWT 220536Z 2206/2306 18004KT P6SM SCT020 FM221100 18004KT
                       P6SM BKN015 FM221500 18003KT 6SM BR OVC008
                       FM221900 19005KT P6SM BKN025 BKN060 FM222100
                       21005KT P6SM SCT035 BKN070 FM230100 20005KT
                       P6SM SCT050 SCT200=
202104212325 TAF KPWT 212325Z 2200/2224 12007KT P6SM FEW250 FM220400 18004KT
                       P6SM BKN250 FM221100 00000KT P6SM BKN020
                       FM221500 00000KT 6SM BR OVC003=
202104211721 TAF KPWT 211721Z 2118/2218 VRB03KT P6SM FEW250 FM212000 12007KT
                       P6SM FEW250 FM220400 18004KT P6SM BKN250
                       FM221100 00000KT P6SM BKN030=
202104211131 TAF KPWT 211131Z 2112/2212 VRB03KT P6SM FEW250
                      TEMPO 2113/2116 SCT005 FM212000 12007KT P6SM
                       FEW250 FM220400 18004KT P6SM BKN250 FM221100
                       00000KT P6SM BKN030=
202104210525 TAF KPWT 210525Z 2106/2206 VRB05KT P6SM SKC
                      TEMPO 2113/2116 SCT005 FM212000 17009KT P6SM
                       FEW250 FM220400 19004KT P6SM BKN250=
202104202320 TAF KPWT 202320Z 2100/2124 04007KT P6SM FEW050 FM210400 VRB05KT
                       P6SM SKC=
202104201720 TAF KPWT 201720Z 2018/2118 03005KT P6SM SKC FM210600 VRB05KT P6SM
                       SKC=
202104201309 KPWT 201309Z 2013/2112 VRB04KT P6SM SCT004 SCT090 FM201800 03008KT
                       P6SM SKC FM210500 VRB03KT P6SM SKC=
202104201124 TAF KPWT 201124Z 2012/2112 05004KT P6SM FEW005 SCT090 FM201800
                       03008KT P6SM SKC FM210500 VRB03KT P6SM SKC=
202104200524 TAF KPWT 200524Z 2006/2106 05006KT P6SM BKN100 FM201100 VRB03KT
                       P6SM SCT090 FM202000 03008KT P6SM SKC FM210500
                       VRB03KT P6SM SKC=
202104192323 TAF KPWT 192323Z 2000/2024 24007KT P6SM SCT250 FM200300 06003KT
                       P6SM SCT200 FM201200 VRB03KT P6SM SCT120
                       FM201800 02003KT P6SM FEW120=
202104191720 TAF KPWT 191720Z 1918/2018 20004KT P6SM FEW250 FM192000 20006KT
                       P6SM SCT200 FM200200 06005KT P6SM SCT200
                       FM200900 VRB03KT P6SM SCT120=
202104191436 KPWT 191436Z 1915/2012 VRB03KT 1/2SM FG BKN001 FM191800 18005KT
                       P6SM SCT200 FM200200 06005KT P6SM SCT200
                       FM200900 VRB03KT P6SM SCT200=
202104191126 TAF KPWT 191126Z 1912/2012 VRB03KT P6SM SCT200 FM191500 18005KT
                       P6SM SCT200 FM200200 06005KT P6SM SCT200
                       FM200900 VRB03KT P6SM SCT200=
202104190536 TAF KPWT 190536Z 1906/2006 19005KT P6SM SCT200 FM191500 18005KT
                       P6SM SCT200 FM200200 04005KT P6SM SCT200=
202104182320 TAF KPWT 182320Z 1900/1924 23005KT P6SM FEW200 FM190600 34004KT
                       P6SM SCT200 FM191500 15004KT P6SM SCT200=
202104181723 TAF KPWT 181723Z 1818/1918 19005KT P6SM FEW200 FM190500 18004KT
                       P6SM SCT200=
202104181120 TAF KPWT 181120Z 1812/1912 VRB03KT P6SM SKC FM181800 19005KT P6SM
                       FEW200 FM190500 18004KT P6SM SCT200=
202104180522 TAF KPWT 180522Z 1806/1906 VRB03KT P6SM SKC FM181800 20005KT P6SM
                       SKC=
202104172323 TAF KPWT 172323Z 1800/1824 05007KT P6SM SKC FM180800 VRB03KT P6SM
                       SKC FM181800 20005KT P6SM SKC=
202104171721 TAF KPWT 171721Z 1718/1818 05008KT P6SM SKC FM180800 VRB03KT P6SM
                       SKC=
202104171137 TAF KPWT 171137Z 1712/1812 05006KT P6SM SKC FM180800 VRB03KT P6SM
                       SKC=
202104170534 TAF KPWT 170534Z 1706/1806 05007KT P6SM SKC=
202104162340 TAF KPWT 162340Z 1700/1724 03009KT P6SM SKC FM170400 03004KT P6SM
                       SKC=
202104161724 TAF KPWT 161724Z 1618/1718 05009KT P6SM SKC FM170400 05003KT P6SM
                       SKC=
202104161123 TAF KPWT 161123Z 1612/1712 VRB04KT P6SM SKC FM161800 03007KT P6SM
                       SKC=
202104160533 TAF KPWT 160533Z 1606/1706 05007KT P6SM SKC FM161800 03009KT P6SM
                       SKC=
202104152321 TAF KPWT 152321Z 1600/1624 05011KT P6SM SKC FM160600 05003KT P6SM
                       SKC FM161800 03009KT P6SM SKC=
202104151731 TAF KPWT 151731Z 1518/1618 05011KT P6SM SKC FM160600 06003KT P6SM
                       SKC=
202104151127 TAF KPWT 151127Z 1512/1612 VRB03KT P6SM SKC FM151800 03006KT P6SM
                       SKC=
202104150533 TAF KPWT 150533Z 1506/1606 05006KT P6SM SKC FM151800 03006KT P6SM
                       SKC=
202104142323 TAF KPWT 142323Z 1500/1524 04009KT P6SM SKC FM150600 06003KT P6SM
                       SKC FM151600 03006KT P6SM SKC=
202104141738 TAF KPWT 141738Z 1418/1518 04010KT P6SM SKC FM150600 06003KT P6SM
                       SKC=
202104141138 TAF KPWT 141138Z 1412/1512 04010KT P6SM SKC FM141900 03008KT P6SM
                       SKC FM150300 04006KT P6SM SKC=
202104140527 TAF KPWT 140527Z 1406/1506 VRB06KT P6SM SKC FM141100 04003KT P6SM
                       SKC FM141900 03008KT P6SM SKC FM150300 04003KT
                       P6SM SKC=
202104132337 TAF KPWT 132337Z 1400/1424 02012G22KT P6SM SKC FM140300 03008KT
                       P6SM SKC FM141100 04003KT P6SM SKC FM141900
                       03008KT P6SM SKC=
202104131726 TAF KPWT 131726Z 1318/1418 03017G25KT P6SM SKC FM140300 03008KT
                       P6SM SKC FM141000 04005KT P6SM SKC=
202104131122 TAF KPWT 131122Z 1312/1412 02009KT P6SM SKC FM131700 03017G25KT
                       P6SM SKC FM140400 03011KT P6SM SKC FM141000
                       04005KT P6SM SKC=
202104130522 TAF KPWT 130522Z 1306/1406 03008KT P6SM SKC FM131700 03015G25KT
                       P6SM SKC FM140500 03011KT P6SM SKC=
202104122321 TAF KPWT 122321Z 1300/1324 02014G20KT P6SM FEW100 FM130500 02008KT
                       P6SM FEW100 FM131700 03013G22KT P6SM SKC=
202104121720 TAF KPWT 121720Z 1218/1318 04014G23KT P6SM SKC FM130500 02008KT
                       P6SM FEW100 FM131700 03013G22KT P6SM SKC=
202104121122 TAF KPWT 121122Z 1212/1312 04011KT P6SM FEW250 FM121900 03012G18KT
                       P6SM FEW250 FM130500 02008KT P6SM FEW100=
202104120528 TAF KPWT 120528Z 1206/1306 06008KT P6SM SKC FM120800 04004KT P6SM
                       SKC FM121900 03012G18KT P6SM SCT100 FM130500
                       02008KT P6SM FEW100=
202104112320 TAF KPWT 112320Z 1200/1224 02008KT P6SM SKC FM120400 03004KT P6SM
                       SCT250 FM121800 03012G18KT P6SM SKC=
202104111720 TAF KPWT 111720Z 1118/1218 05007KT P6SM SKC FM120400 03004KT P6SM
                       SKC=
202104111125 TAF KPWT 111125Z 1112/1212 00000KT P6SM SCT060 FM111800 03008KT
                       P6SM SKC FM120400 03004KT P6SM SKC=
202104110902 KPWT 110902Z 1109/1206 00000KT P6SM SCT050
                      TEMPO 1112/1116 BKN030 FM111800 03008KT P6SM
                       SKC=
202104110521 TAF KPWT 110521Z 1106/1206 04005KT P6SM SCT060 FM110900 00000KT
                       P6SM SCT060
                      TEMPO 1112/1116 BKN030 FM111800 03008KT P6SM
                       SKC=
202104102321 TAF KPWT 102321Z 1100/1124 07005KT P6SM BKN070 BKN120 FM110300
                       05005KT P6SM SCT120 FM110600 00000KT P6SM
                       SCT150 FM111200 00000KT P6SM SCT004
                      TEMPO 1112/1116 BKN004 FM111800 03006KT P6SM
                       SCT250=
202104101722 TAF KPWT 101722Z 1018/1118 25008KT P6SM FEW050 FM102200 03010G16KT
                       P6SM BKN050 FM110300 05005KT P6SM SCT150
                       FM110600 00000KT P6SM SCT150 FM111200 00000KT
                       P6SM SCT004
                      TEMPO 1112/1116 BKN004=
202104101140 TAF KPWT 101140Z 1012/1112 21011KT P6SM -SHRA BKN080 FM101800 20015G22KT
                       P6SM OVC050 FM102200 03010G16KT P6SM OVC050
                       FM110300 00000KT P6SM SCT030 SCT150=
202104100911 KPWT 100911Z 1009/1106 20013G21KT P6SM -RA SCT015 FM101300 VRB04KT
                       P6SM BKN050 FM102000 05012G20KT P6SM BKN050=
202104100534 TAF KPWT 100534Z 1006/1106 20013G21KT P6SM -RA OVC012 FM101300
                       VRB04KT P6SM BKN050 FM102000 05012G20KT
                       P6SM BKN050=
202104100200 KPWT 100200Z 1002/1024 20013G21KT P6SM -RA OVC015 FM101300 VRB04KT
                       P6SM BKN050 FM102000 05012G20KT P6SM BKN050=
202104092339 TAF KPWT 092339Z 1000/1024 20012G20KT P6SM BKN050 FM100400 20013G21KT
                       6SM -RA BR OVC015 FM101300 VRB04KT P6SM
                       BKN050 FM102000 05012G20KT P6SM BKN050=
202104091720 TAF KPWT 091720Z 0918/1018 00000KT P6SM SCT005 BKN150 FM091900
                       20012G20KT P6SM BKN050 FM100400 20013G21KT
                       6SM -RA BR OVC015=
202104091604 KPWT 091604Z 0916/1012 00000KT P6SM SCT010 BKN150
                      TEMPO 0916/0918 BKN010 FM091900 20012G20KT
                       P6SM BKN050 FM100400 20013G21KT 6SM -RA
                       BR OVC015=
202104091142 TAF KPWT 091142Z 0912/1012 00000KT P6SM SCT005 BKN150
                      TEMPO 0913/0915 2SM BR BKN005 BKN100 FM091900
                       20012G20KT P6SM BKN050 FM100400 20013G21KT
                       6SM -RA BR OVC015=
202104090520 TAF KPWT 090520Z 0906/1006 VRB03KT P6SM FEW050 BKN250 FM091200
                       19003KT P6SM SCT005 BKN100
                      TEMPO 0912/0916 2SM BR BKN005 BKN100 FM091900
                       20012G20KT P6SM BKN050=
202104082330 TAF KPWT 082330Z 0900/0924 15008KT P6SM SCT040 BKN070 FM090300
                       VRB03KT P6SM FEW050 BKN250 FM091200 19003KT
                       P6SM SCT005 BKN100
                      TEMPO 0912/0916 2SM BR BKN005 BKN100 FM091900
                       20012G20KT P6SM BKN050=
202104081729 TAF KPWT 081729Z 0818/0918 VRB03KT P6SM FEW035 FM082200 18007KT
                       P6SM BKN050 FM090300 VRB03KT P6SM SCT060
                       BKN100 FM091200 19003KT P6SM SCT005 BKN100
                       TEMPO 0912/0916 2SM BR BKN005 BKN100=
202104081128 TAF KPWT 081128Z 0812/0912 14004KT P6SM SCT015 FM081400 14005KT
                       P6SM BKN025 FM081700 17005KT P6SM OVC050
                       FM082200 18007KT P6SM BKN050 FM090600 VRB02KT
                       4SM BR SCT015 BKN030=
202104080524 TAF KPWT 080524Z 0806/0906 20015G25KT P6SM -SHRA SCT020 OVC080
                       FM080900 20012KT P6SM BKN040 OVC050 FM082200
                       18007KT P6SM BKN050=
202104072320 TAF KPWT 072320Z 0800/0824 20015G25KT P6SM -RA BKN020 OVC040 FM080600
                       20015G25KT P6SM -SHRA BKN025 OVC050 FM080900
                       20012KT P6SM BKN040 OVC050=
202104071724 TAF KPWT 071724Z 0718/0818 20012G18KT P6SM BKN010 OVC020 FM072000
                       20015G25KT P6SM -RA BKN015 OVC025 FM080200
                       20015G25KT P6SM -SHRA SCT012 BKN020 OVC030
                       FM080900 20012KT P6SM SCT020 BKN030=
202104071537 KPWT 071537Z 0716/0812 20006KT P6SM OVC010 FM071800 20015G25KT
                       P6SM -RA SCT007 BKN012 OVC020 FM080200 20015G25KT
                       P6SM -SHRA SCT012 BKN020 OVC030 FM080900
                       20012KT P6SM SCT020 BKN030=
202104071126 TAF KPWT 071126Z 0712/0812 20006KT P6SM OVC004 FM071600 20006KT
                       P6SM OVC006 FM071800 20015G25KT P6SM -RA
                       SCT006 BKN012 OVC020 FM080200 20015G25KT
                       P6SM -SHRA SCT012 BKN020 OVC030 FM080900
                       20012KT P6SM SCT020 BKN030=
202104071007 KPWT 071007Z 0710/0806 20006KT P6SM OVC004 FM071600 20006KT P6SM
                       OVC006 FM071800 20015G25KT P6SM -RA SCT006
                       BKN012 OVC020 FM080200 20015G25KT P6SM SCT012
                       BKN020 OVC030=
202104070541 TAF KPWT 070541Z 0706/0806 VRB04KT P6SM BKN250 FM071100 20006KT
                       P6SM OVC012 FM071800 20015G25KT P6SM -RA
                       SCT006 BKN012 OVC020 FM080200 20015G25KT
                       P6SM SCT012 BKN020 OVC030=
202104070310 KPWT 070310Z 0703/0724 VRB04KT P6SM BKN250 FM071100 20006KT P6SM
                       SCT007 OVC015 FM071800 20015G25KT P6SM OVC015
                       PROB30 0718/0724 P6SM -RA=
202104062336 TAF KPWT 062336Z 0700/0724 21007KT P6SM BKN250 FM071100 20006KT
                       P6SM OVC015 FM071800 20015G25KT P6SM OVC015
                       PROB30 0718/0724 P6SM -RA OVC015=
202104061732 TAF KPWT 061732Z 0618/0718 00000KT P6SM SKC FM070000 06004KT P6SM
                       BKN250 FM071100 20006KT P6SM OVC015=
202104061507 KPWT 061507Z 0615/0712 00000KT P6SM SKC
                      TEMPO 0615/0618 BKN007 FM062300 18006KT P6SM
                       BKN250 FM071100 18006KT P6SM OVC009=
202104061127 TAF KPWT 061127Z 0612/0712 00000KT P6SM SKC
                      TEMPO 0612/0616 5SM BR SCT002 FM062300 18006KT
                       P6SM BKN250 FM071100 18006KT P6SM OVC009=
202104060532 TAF KPWT 060532Z 0606/0706 00000KT P6SM SKC
                      TEMPO 0613/0616 5SM BR SCT002 FM062300 18006KT
                       P6SM BKN250=
202104060250 KPWT 060250Z 0603/0624 VRB03KT P6SM SKC FM061100 00000KT P6SM FEW015
                       FM061800 17006KT P6SM FEW250=
202104052338 TAF KPWT 052338Z 0600/0624 VRB03KT P6SM SCT250 FM061100 00000KT
                       P6SM BKN250=
202104051726 TAF KPWT 051726Z 0518/0618 21005KT P6SM SKC FM060000 VRB03KT P6SM
                       SKC=
202104051120 TAF KPWT 051120Z 0512/0612 00000KT P6SM SKC
                      TEMPO 0512/0516 5SM BR SCT004 SCT030 FM051700
                       21005KT P6SM SKC FM060000 VRB03KT P6SM SKC=
202104050816 KPWT 050816Z 0508/0606 00000KT P6SM SKC
                      TEMPO 0508/0512 2SM BR FM051400 00000KT 5SM
                       BR SCT004 SCT030 FM051700 21005KT P6SM SKC
                       FM060000 VRB03KT P6SM SKC=
202104050520 TAF KPWT 050520Z 0506/0606 00000KT P6SM SKC FM051400 00000KT 5SM
                       BR SCT004 SCT030 FM051700 21005KT P6SM SKC
                       FM060000 VRB03KT P6SM SKC=
202104042323 TAF KPWT 042323Z 0500/0524 03012G18KT P6SM -RA OVC030 FM050200
                       03009KT P6SM SKC FM050600 00000KT P6SM SKC
                       FM051400 00000KT 5SM BR SCT004 SCT030 FM051700
                       21005KT P6SM SKC=
202104041723 TAF KPWT 041723Z 0418/0518 02008KT P6SM -RA OVC030 FM042300 03008KT
                       P6SM OVC045 FM050500 00000KT P6SM SKC FM051400
                       00000KT 5SM BR BKN030 FM051700 VRB03KT P6SM
                       SKC=
202104041120 TAF KPWT 041120Z 0412/0512 04006KT P6SM SCT010 OVC020
                      TEMPO 0412/0416 5SM BR OVC010 FM042100 05007KT
                       P6SM SCT012 OVC020 FM042300 03006KT P6SM
                       SCT022 BKN030 FM050300 VRB03KT P6SM SCT020
                       SCT250=
202104040520 TAF KPWT 040520Z 0406/0506 08007KT P6SM VCSH SCT012 OVC050 FM041000
                       04006KT 6SM -RA OVC010 FM042100 05007KT
                       P6SM VCSH SCT012 OVC018 FM042300 03006KT
                       P6SM SCT022 BKN030 FM050300 VRB03KT P6SM
                       SCT020 BKN100=
202104032321 TAF KPWT 032321Z 0400/0424 22012G20KT P6SM BKN050 OVC090 FM040200
                       21010G15KT P6SM VCSH BKN040 OVC060 FM040500
                       08007KT P6SM -RA SCT012 OVC015 FM041000
                       04006KT 6SM -RA OVC010 FM042100 05007KT
                       P6SM VCSH SCT012 OVC018 FM042300 03006KT
                       P6SM SCT022 BKN030=
202104031734 TAF KPWT 031734Z 0318/0418 21007KT P6SM BKN100 OVC200 FM032200
                       22008KT P6SM BKN050 OVC090 FM040100 21008KT
                       P6SM VCSH BKN040 OVC060 FM040400 08005KT
                       P6SM -RA SCT012 OVC015 FM041000 04006KT
                       6SM -RA OVC010=
202104031120 TAF KPWT 031120Z 0312/0412 VRB03KT P6SM SCT005 SCT120 BKN200 FM031700
                       18005KT P6SM BKN100 OVC200 FM032200 20006KT
                       P6SM VCSH BKN050 OVC090 FM040500 VRB03KT
                       P6SM VCSH OVC020=
202104030520 TAF KPWT 030520Z 0306/0406 VRB03KT P6SM SCT040 BKN200 FM031000
                       VRB03KT P6SM SCT005 SCT120 BKN200 FM031700
                       18005KT P6SM BKN100 OVC200 FM032200 20006KT
                       P6SM VCSH BKN050 OVC090=
202104022337 TAF KPWT 022337Z 0300/0324 21007KT P6SM SCT050 BKN200 FM030300
                       VRB03KT P6SM SCT040 BKN200 FM031000 VRB03KT
                       P6SM SCT005 SCT120 BKN200 FM031700 18005KT
                       P6SM BKN100 OVC200 FM032200 20006KT P6SM
                       VCSH BKN050 OVC090=
202104021740 TAF KPWT 021740Z 0218/0318 20006KT P6SM SCT010 BKN040 FM022200
                       19005KT P6SM SCT050 SCT200 FM030300 VRB03KT
                       P6SM SCT040 BKN200 FM031000 VRB03KT P6SM
                       SCT005 SCT120 BKN200 FM031700 18005KT P6SM
                       BKN100 OVC200=
202104021506 KPWT 021506Z 0215/0312 VRB03KT 5SM BR OVC007
                      TEMPO 0215/0217 1/2SM FG OVC003 FM021800
                       20006KT P6SM SCT010 BKN040 FM030300 VRB03KT
                       P6SM SCT040 BKN250=
202104021120 TAF KPWT 021120Z 0212/0312 VRB03KT P6SM OVC007 FM021800 20006KT
                       P6SM SCT010 BKN040 FM030300 VRB03KT P6SM
                       SCT040 BKN250=
202104020902 KPWT 020902Z 0209/0306 VRB03KT P6SM SCT090 SCT200 FM021000 18005KT
                       P6SM SCT015 BKN030
                      TEMPO 0212/0216 4SM BR OVC007 FM021800 20006KT
                       P6SM SCT040 FM030300 VRB03KT P6SM BKN250=
202104020843 KPWT 020843Z 0209/0306 VRB03KT 2SM BR SCT007 SCT090 SCT200 FM021000
                       18005KT P6SM SCT015 BKN030
                      TEMPO 0212/0216 4SM BR OVC007 FM021800 20006KT
                       P6SM SCT040 FM030300 VRB03KT P6SM BKN250=
202104020528 TAF KPWT 020528Z 0206/0306 VRB03KT P6SM SCT090 SCT200 FM021000
                       18005KT P6SM SCT015 BKN030
                      TEMPO 0212/0216 4SM BR OVC007 FM021800 20006KT
                       P6SM SCT040 FM030300 VRB03KT P6SM BKN250=
202104012320 TAF KPWT 012320Z 0200/0224 VRB05KT P6SM FEW030 SCT120 BKN200 FM020600
                       VRB03KT P6SM SCT030 BKN090 BKN200 FM021000
                       18005KT P6SM SCT025 BKN060
                      TEMPO 0210/0214 BKN025 BKN060 FM021800 VRB04KT
                       P6SM SCT040=
202104011720 TAF KPWT 011720Z 0118/0218 22007KT P6SM SCT015 SCT070 BKN200
                      TEMPO 0118/0120 BKN015 BKN070 OVC200 FM020600
                       VRB04KT P6SM SCT020 BKN060
                      TEMPO 0210/0214 BKN020 BKN050 FM021700 VRB04KT
                       P6SM SCT050=
202104011641 KPWT 011641Z 0117/0212 20005KT P6SM BKN008 FM011900 18008KT P6SM
                       SCT010 BKN120 OVC200 FM012300 VRB04KT P6SM
                       SCT035 BKN050=
202104011120 TAF KPWT 011120Z 0112/0212 VRB03KT P6SM BKN250 FM011900 18008KT
                       P6SM SCT070 BKN250 FM012300 VRB04KT P6SM
                       SCT035 BKN050=
202104010520 TAF KPWT 010520Z 0106/0206 VRB03KT P6SM SCT250 FM011100 21003KT
                       P6SM BKN250 FM011900 18008KT P6SM SCT070
                       BKN250 FM012300 VRB04KT P6SM SCT035 BKN050=
202104010306 KPWT 010306Z 0103/0124 VRB03KT P6SM SCT150 BKN250 FM011900 18008KT
                       P6SM SCT070 BKN250=