##########################################################
# Query made at 02/16/2025 00:56:15 UTC
# Time interval: from 12/01/2021 00:00  to 12/31/2021 23:59  UTC
##########################################################

##########################################################
# KPWT, Bremerton National Automatic Weather Observing / Reporting System (United States)
# WMO index: -----. WIGOS ID: Unknown
# Latitude 47-30N. Longitude 122-45W. Altitude 147 m.
##########################################################

###################################
#  METAR/SPECI from KPWT
###################################
202112312356 METAR KPWT 312356Z AUTO 04008KT 10SM CLR M02/M12 A3010 RMK AO2 SLP201 T10171122 10017 21022 52024 FZRANO=
202112312256 METAR KPWT 312256Z AUTO 02007KT 10SM CLR M01/M11 A3007 RMK AO2 SLP193 T10111111 FZRANO=
202112312156 METAR KPWT 312156Z AUTO 03012G16KT 10SM CLR M01/M09 A3005 RMK AO2 SLP185 T10111094 FZRANO=
202112312056 METAR KPWT 312056Z AUTO 02011G19KT 10SM CLR M01/M09 A3002 RMK AO2 SLP177 T10111089 51009 FZRANO=
202112311956 METAR KPWT 311956Z AUTO 01011KT 10SM CLR M01/M08 A3002 RMK AO2 SLP173 T10061083 FZRANO=
202112311856 METAR KPWT 311856Z AUTO 35008KT 10SM CLR M01/M07 A3001 RMK AO2 SLP172 T10061067 FZRANO=
202112311756 METAR KPWT 311756Z AUTO 36010KT 10SM CLR 01/M06 A3000 RMK AO2 SNB04E13B31E41 SLP167 P0000 60000 T00111061 10011 21028 53033 FZRANO=
202112311656 METAR KPWT 311656Z AUTO 01014G18KT 10SM OVC070 M02/M05 A2996 RMK AO2 SLP154 T10221050 FZRANO=
202112311556 METAR KPWT 311556Z AUTO 01008KT 10SM FEW060 BKN075 M02/M05 A2993 RMK AO2 SNB33E46 SLP145 P0000 T10221050 FZRANO=
202112311456 METAR KPWT 311456Z AUTO 07003KT 10SM OVC080 M03/M04 A2990 RMK AO2 SLP134 60000 T10281044 53019 FZRANO=
202112311356 METAR KPWT 311356Z AUTO 09005KT 10SM SCT044 OVC075 M02/M04 A2987 RMK AO2 SNB1258E18 SLP124 P0000 T10171039 FZRANO=
202112311256 METAR KPWT 311256Z AUTO 07005KT 10SM BKN040 BKN070 M02/M04 A2985 RMK AO2 SLP118 T10171039 FZRANO=
202112311156 METAR KPWT 311156Z AUTO 06005KT 10SM BKN049 BKN070 M02/M04 A2984 RMK AO2 UPE03 SLP115 P0000 60014 70018 T10171039 11006 21022 51012 FZRANO=
202112311056 METAR KPWT 311056Z AUTO 08003KT 10SM UP OVC034 M02/M03 A2984 RMK AO2 UPE35B53 SLP115 P0003 T10221028 FZRANO=
202112311043 SPECI KPWT 311043Z AUTO 00000KT 10SM SCT020 OVC034 M02/M02 A2984 RMK AO2 UPE35 P0002 FZRANO=
202112310956 METAR KPWT 310956Z AUTO 00000KT 10SM UP FEW004 BKN018 OVC024 M02/M02 A2983 RMK AO2 UPB39SNE39 SLP111 P0004 T10171022 FZRANO=
202112310936 SPECI KPWT 310936Z AUTO 00000KT 3SM -SN BR SCT006 OVC016 M01/M02 A2983 RMK AO2 P0002 FZRANO=
202112310901 SPECI KPWT 310901Z AUTO 00000KT 1 3/4SM -SN BR FEW005 OVC010 M01/M02 A2981 RMK AO2 VIS 1V5 CIG 008V013 P0000 FZRANO=
202112310856 METAR KPWT 310856Z AUTO 00000KT 5SM -SN BR SCT005 OVC010 M01/M02 A2981 RMK AO2 UPE54SNB54 SLP102 P0003 60007 T10111017 53008 FZRANO=
202112310852 SPECI KPWT 310852Z AUTO 00000KT 7SM UP SCT005 OVC010 M01/M02 A2981 RMK AO2 P0003 FZRANO=
202112310818 SPECI KPWT 310818Z AUTO 00000KT 6SM UP BR BKN003 OVC020 M01/M01 A2980 RMK AO2 P0000 FZRANO=
202112310756 METAR KPWT 310756Z AUTO 00000KT 7SM UP FEW005 OVC020 M01/M02 A2979 RMK AO2 SLP097 P0002 T10111017 400061028 FZRANO=
202112310737 SPECI KPWT 310737Z AUTO 00000KT 10SM UP SCT005 OVC020 M01/M02 A2979 RMK AO2 P0001 FZRANO=
202112310720 SPECI KPWT 310720Z AUTO 00000KT 7SM UP OVC005 M01/M01 A2979 RMK AO2 CIG 003V007 P0001 FZRANO=
202112310656 METAR KPWT 310656Z AUTO 00000KT 6SM UP BR OVC003 M01/M01 A2978 RMK AO2 SLP094 P0002 T10061011 FZRANO=
202112310652 SPECI KPWT 310652Z AUTO 00000KT 5SM UP BR OVC003 M01/M01 A2978 RMK AO2 P0002 FZRANO=
202112310630 SPECI KPWT 310630Z AUTO 00000KT 2 1/2SM UP BR OVC003 M01/M01 A2978 RMK AO2 P0001 FZRANO=
202112310556 METAR KPWT 310556Z AUTO 00000KT 4SM UP BR OVC003 M01/M01 A2977 RMK AO2 UPB08 SLP090 P0003 60004 T10111011 11006 21011 53015 FZRANO=
202112310547 SPECI KPWT 310547Z AUTO 00000KT 4SM UP BR BKN003 OVC011 M01/M01 A2977 RMK AO2 UPB08 P0002 FZRANO=
202112310456 METAR KPWT 310456Z AUTO 00000KT 7SM OVC005 M01/M02 A2975 RMK AO2 UPB24E34 SLP084 P0000 T10111017 FZRANO=
202112310436 SPECI KPWT 310436Z AUTO 00000KT 10SM BKN005 OVC019 M01/M02 A2975 RMK AO2 UPB24E34 P0000 FZRANO=
202112310410 SPECI KPWT 310410Z AUTO 00000KT 10SM BKN008 BKN015 OVC037 M01/M02 A2974 RMK AO2 CIG 006V013 FZRANO=
202112310356 METAR KPWT 310356Z AUTO 00000KT 10SM FEW005 OVC037 M01/M02 A2974 RMK AO2 UPE05B22E24SNB05E22 SLP082 P0001 T10111017 FZRANO=
202112310348 SPECI KPWT 310348Z AUTO 00000KT 10SM FEW005 SCT017 OVC039 M01/M02 A2974 RMK AO2 UPE05B22E24SNB05E22 P0001 FZRANO=
202112310319 SPECI KPWT 310319Z AUTO 00000KT 9SM -SN FEW005 BKN018 BKN023 M01/M02 A2973 RMK AO2 UPE05SNB05 P0001 FZRANO=
202112310303 SPECI KPWT 310303Z AUTO 00000KT 10SM UP FEW005 BKN040 M01/M02 A2973 RMK AO2 P0000 FZRANO=
202112310256 METAR KPWT 310256Z AUTO 05004KT 10SM UP BKN038 M01/M02 A2973 RMK AO2 UPB44SNE44 SLP076 P0000 60000 T10111017 53013 FZRANO=
202112310235 SPECI KPWT 310235Z AUTO 05006KT 7SM -SN FEW016 SCT022 BKN038 M01/M02 A2972 RMK AO2 P0000 FZRANO=
202112310159 SPECI KPWT 310159Z AUTO 08004KT 3SM -SN BR FEW006 BKN022 OVC030 M01/M01 A2972 RMK AO2 P0000 FZRANO=
202112310156 METAR KPWT 310156Z AUTO 07005KT 2 1/2SM -SN BR BKN022 BKN030 OVC037 M01/M01 A2972 RMK AO2 VIS 1 1/2V5 SLP072 P0000 T10111011 FZRANO=
202112310147 SPECI KPWT 310147Z AUTO 07005KT 4SM -SN BR SCT022 BKN029 OVC036 M01/M02 A2971 RMK AO2 P0000 FZRANO=
202112310139 SPECI KPWT 310139Z AUTO 06005KT 2 1/2SM -SN BR OVC034 M01/M02 A2971 RMK AO2 VIS 1 1/2V5 P0000 FZRANO=
202112310122 SPECI KPWT 310122Z AUTO 05006KT 6SM -SN BR OVC031 M01/M02 A2971 RMK AO2 P0000 FZRANO=
202112310056 METAR KPWT 310056Z AUTO 05006KT 9SM -SN FEW007 BKN029 M01/M02 A2970 RMK AO2 UPB04E08SNE04B08 SLP067 P0000 T10111017 FZRANO=
202112310045 SPECI KPWT 310045Z AUTO 05005KT 5SM -SN BR FEW007 SCT016 BKN025 M01/M02 A2970 RMK AO2 UPB04E08SNE04B08 P0000 FZRANO=
202112310035 SPECI KPWT 310035Z AUTO 04005KT 2 1/2SM -SN BR FEW007 BKN018 BKN023 M01/M02 A2969 RMK AO2 VIS 1 1/4V5 UPB04E08SNE04B08 P0000 FZRANO=
202112310022 SPECI KPWT 310022Z AUTO 04006KT 2SM -SN BR OVC020 M01/M02 A2969 RMK AO2 VIS 1 1/4V4 UPB04E08SNE04B08 P0000 FZRANO=
202112302356 METAR KPWT 302356Z AUTO 04008KT 7SM -SN BKN027 OVC033 M01/M02 A2969 RMK AO2 UPE54SNB54 SLP064 P0000 60000 T10061017 10000 21006 51018 FZRANO=
202112302256 METAR KPWT 302256Z AUTO 04008KT 10SM UP OVC027 M01/M02 A2968 RMK AO2 UPB02 SLP059 P0000 T10061017 FZRANO=
202112302156 METAR KPWT 302156Z AUTO 03006KT 10SM SCT019 OVC023 00/M02 A2966 RMK AO2 SLP053 T00001022 FZRANO=
202112302056 METAR KPWT 302056Z AUTO 04009KT 10SM OVC016 00/M02 A2964 RMK AO2 SLP045 T00001022 51012 FZRANO=
202112302046 SPECI KPWT 302046Z AUTO 03011KT 10SM OVC016 00/M02 A2963 RMK AO2 FZRANO=
202112301956 METAR KPWT 301956Z AUTO 03008KT 10SM OVC014 00/M02 A2963 RMK AO2 SLP044 T00001022 FZRANO=
202112301856 METAR KPWT 301856Z AUTO 03010KT 10SM OVC012 00/M02 A2962 RMK AO2 SLP039 T00001017 FZRANO=
202112301808 SPECI KPWT 301808Z AUTO 05009KT 10SM BKN014 OVC018 M01/M02 A2961 RMK AO2 FZRANO=
202112301756 METAR KPWT 301756Z AUTO 05007KT 10SM OVC018 00/M02 A2960 RMK AO2 SLP032 60000 T00001022 10006 21022 51034 FZRANO=
202112301716 SPECI KPWT 301716Z AUTO 04007KT 10SM SCT007 OVC022 M02/M02 A2958 RMK AO2 FZRANO=
202112301656 METAR KPWT 301656Z AUTO 03006KT 10SM OVC007 M02/M03 A2957 RMK AO2 SLP021 T10221028 FZRANO=
202112301621 SPECI KPWT 301621Z AUTO 09004KT 10SM SCT003 OVC009 M02/M02 A2955 RMK AO2 FZRANO=
202112301556 METAR KPWT 301556Z AUTO 02004KT 10SM OVC003 M02/M02 A2954 RMK AO2 SNE02 SLP010 P0000 T10171022 FZRANO=
202112301456 METAR KPWT 301456Z AUTO 23011KT 9SM -SN OVC003 M02/M02 A2950 RMK AO2 SLP998 P0000 60000 T10171022 56037 FZRANO=
202112301445 SPECI KPWT 301445Z AUTO 21013KT 9SM -SN OVC003 M02/M02 A2950 RMK AO2 P0000 FZRANO=
202112301410 SPECI KPWT 301410Z AUTO 21009KT 4SM -SN BR OVC005 M02/M02 A2950 RMK AO2 P0000 FZRANO=
202112301356 METAR KPWT 301356Z AUTO 21011KT 2 1/2SM -SN BR OVC005 M02/M02 A2951 RMK AO2 SLP001 P0000 T10171022 FZRANO=
202112301346 SPECI KPWT 301346Z AUTO 21008G16KT 3SM -SN BR OVC005 M01/M02 A2951 RMK AO2 CIG 003V008 P0000 FZRANO=
202112301339 SPECI KPWT 301339Z AUTO 20009KT 2SM -SN BR OVC003 M02/M02 A2952 RMK AO2 VIS 1 1/4V3 CIG 003V008 P0000 FZRANO=
202112301333 SPECI KPWT 301333Z AUTO 22006KT 1SM -SN BR OVC003 M02/M02 A2952 RMK AO2 CIG 003V007 P0000 FZRANO=
202112301323 SPECI KPWT 301323Z AUTO 22010KT 1/2SM SN FZFG OVC003 M02/M02 A2952 RMK AO2 P0000 FZRANO=
202112301256 METAR KPWT 301256Z AUTO 25006KT 1/2SM SN FZFG OVC005 M02/M02 A2954 RMK AO2 SLP013 P0000 T10171022 FZRANO=
202112301245 SPECI KPWT 301245Z AUTO 00000KT 1/2SM SN FZFG OVC005 M02/M02 A2954 RMK AO2 P0000 FZRANO=
202112301234 SPECI KPWT 301234Z AUTO 17004KT 3/4SM -SN BR OVC005 M02/M02 A2955 RMK AO2 P0000 FZRANO=
202112301156 METAR KPWT 301156Z AUTO 20004KT 1SM -SN BR OVC005 M02/M02 A2961 RMK AO2 SLP035 P0002 60003 70003 T10171022 11017 21033 58033 FZRANO=
202112301136 SPECI KPWT 301136Z AUTO 20006KT 1SM -SN BR OVC005 M02/M02 A2963 RMK AO2 PRESFR P0002 FZRANO=
202112301110 SPECI KPWT 301110Z AUTO VRB06KT 1 1/2SM -SN BR OVC009 M02/M03 A2967 RMK AO2 CIG 006V013 P0001 FZRANO=
202112301056 METAR KPWT 301056Z AUTO VRB05KT 1 1/2SM -SN BR SCT007 OVC011 M02/M03 A2968 RMK AO2 VIS 1V2 UPB33E50SNE33B50 SLP060 P0001 T10171028 FZRANO=
202112301032 SPECI KPWT 301032Z AUTO 16005KT 2SM -SN BR BKN007 BKN013 OVC018 M02/M03 A2969 RMK AO2 P0000 FZRANO=
202112301014 SPECI KPWT 301014Z AUTO 19007KT 6SM -SN BR OVC007 M02/M03 A2969 RMK AO2 CIG 005V011 P0000 FZRANO=
202112300956 METAR KPWT 300956Z AUTO 20007KT 9SM -SN OVC005 M02/M03 A2971 RMK AO2 SNB44 SLP069 P0000 T10221028 FZRANO=
202112300856 METAR KPWT 300856Z AUTO 20007KT 10SM BKN005 OVC029 M02/M03 A2973 RMK AO2 SNE33 CIG 004V009 SLP078 P0000 60000 T10221033 56026 FZRANO=
202112300854 SPECI KPWT 300854Z AUTO 19008KT 10SM BKN005 OVC029 M02/M03 A2974 RMK AO2 SNE33 CIG 004V009 P0000 FZRANO=
202112300846 SPECI KPWT 300846Z AUTO 20008KT 10SM BKN007 OVC029 M02/M03 A2974 RMK AO2 SNE33 CIG 005V011 P0000 FZRANO=
202112300826 SPECI KPWT 300826Z AUTO 19012KT 9SM -SN FEW005 OVC029 M03/M03 A2976 RMK AO2 P0000 FZRANO=
202112300812 SPECI KPWT 300812Z AUTO 19012KT 9SM -SN SCT005 OVC031 M03/M04 A2977 RMK AO2 P0000 FZRANO=
202112300756 METAR KPWT 300756Z AUTO 20010KT 9SM -SN BKN005 BKN014 OVC033 M03/M04 A2979 RMK AO2 SLP096 P0000 T10281039 400111044 FZRANO=
202112300733 SPECI KPWT 300733Z AUTO 20008KT 8SM -SN OVC005 M03/M04 A2980 RMK AO2 P0000 FZRANO=
202112300709 SPECI KPWT 300709Z AUTO 21007KT 4SM -SN BR BKN007 OVC012 M03/M05 A2980 RMK AO2 CIG 005V010 P0000 FZRANO=
202112300656 METAR KPWT 300656Z AUTO 20006KT 7SM -SN OVC010 M03/M05 A2981 RMK AO2 CIG 007V013 SLP104 P0000 T10331050 FZRANO=
202112300645 SPECI KPWT 300645Z AUTO 21008KT 4SM -SN BR OVC012 M03/M05 A2982 RMK AO2 P0000 FZRANO=
202112300631 SPECI KPWT 300631Z AUTO 20006KT 2 1/2SM -SN BR OVC014 M03/M05 A2982 RMK AO2 VIS 2V4 P0000 FZRANO=
202112300624 SPECI KPWT 300624Z AUTO 20005KT 4SM -SN BR BKN016 OVC022 M03/M05 A2983 RMK AO2 P0000 FZRANO=
202112300607 SPECI KPWT 300607Z AUTO 19004KT 2 1/2SM -SN BR SCT016 BKN024 BKN029 M03/M05 A2983 RMK AO2 VIS 1 1/2V5 P0000 FZRANO=
202112300556 METAR KPWT 300556Z AUTO 19003KT 8SM -SN FEW030 SCT036 M03/M06 A2984 RMK AO2 SLP112 P0000 60000 T10331061 11028 21044 58019 FZRANO=
202112300456 METAR KPWT 300456Z AUTO 25003KT 9SM -SN FEW034 M03/M07 A2987 RMK AO2 SNB24 SLP124 P0000 T10331067 FZRANO=
202112300424 SPECI KPWT 300424Z AUTO 18004KT 10SM -SN SCT022 OVC034 M04/M07 A2987 RMK AO2 SNB24 P0000 FZRANO=
202112300415 SPECI KPWT 300415Z AUTO 00000KT 10SM BKN022 OVC034 M04/M06 A2988 RMK AO2 FZRANO=
202112300356 METAR KPWT 300356Z AUTO 00000KT 10SM FEW024 OVC032 M03/M07 A2990 RMK AO2 SLP134 T10331067 FZRANO=
202112300256 METAR KPWT 300256Z AUTO 00000KT 10SM OVC034 M04/M06 A2989 RMK AO2 SLP132 T10391061 58015 FZRANO=
202112300156 METAR KPWT 300156Z AUTO 00000KT 10SM OVC030 M04/M07 A2992 RMK AO2 SLP143 T10391072 FZRANO=
202112300056 METAR KPWT 300056Z AUTO 00000KT 10SM CLR M04/M09 A2993 RMK AO2 SLP145 T10441094 FZRANO=
202112292356 METAR KPWT 292356Z AUTO 00000KT 10SM CLR M03/M11 A2994 RMK AO2 SLP148 T10281106 10011 21028 55002 FZRANO=
202112292256 METAR KPWT 292256Z AUTO 09003KT 10SM CLR M02/M11 A2992 RMK AO2 SLP141 T10171106 FZRANO=
202112292156 METAR KPWT 292156Z AUTO 06006KT 10SM CLR M01/M11 A2993 RMK AO2 SLP145 T10061106 FZRANO=
202112292056 METAR KPWT 292056Z AUTO 03007KT 360V060 10SM CLR 00/M12 A2994 RMK AO2 SLP150 T00001117 53004 FZRANO=
202112291956 METAR KPWT 291956Z AUTO 05014G19KT 10SM CLR M02/M11 A2993 RMK AO2 SLP143 T10171106 FZRANO=
202112291856 METAR KPWT 291856Z AUTO 04012G20KT 10SM CLR M01/M12 A2993 RMK AO2 PK WND 01026/1843 SLP144 T10111117 FZRANO=
202112291756 METAR KPWT 291756Z AUTO 03010KT 10SM CLR M02/M10 A2993 RMK AO2 SLP144 T10171100 11017 21044 53030 FZRANO=
202112291656 METAR KPWT 291656Z AUTO 04012KT 10SM CLR M03/M09 A2990 RMK AO2 SLP134 T10331094 FZRANO=
202112291556 METAR KPWT 291556Z AUTO 06007KT 10SM CLR M04/M10 A2987 RMK AO2 SLP124 T10441100 FZRANO=
202112291456 METAR KPWT 291456Z AUTO 05011KT 10SM CLR M03/M08 A2984 RMK AO2 SLP115 T10331083 53014 FZRANO=
202112291356 METAR KPWT 291356Z AUTO 06010KT 10SM CLR M03/M08 A2981 RMK AO2 SLP104 T10331078 FZRANO=
202112291256 METAR KPWT 291256Z AUTO 04011G15KT 10SM CLR M03/M07 A2980 RMK AO2 SLP101 T10331072 FZRANO=
202112291156 METAR KPWT 291156Z AUTO 03009G17KT 10SM CLR M04/M07 A2980 RMK AO2 SLP101 6//// 7//// T10391067 11028 21044 53009 FZRANO=
202112291056 METAR KPWT 291056Z AUTO 04012G18KT 10SM CLR M04/M06 A2979 RMK AO2 SLP098 T10391061 FZRANO=
202112290956 METAR KPWT 290956Z AUTO 05011KT 10SM FEW049 M03/M06 A2978 RMK AO2 SLP092 T10331056 FZRANO=
202112290856 METAR KPWT 290856Z AUTO 04013KT 10SM OVC036 M03/M05 A2977 RMK AO2 SLP091 T10281050 52007 FZRANO=
202112290756 METAR KPWT 290756Z AUTO 03011KT 10SM OVC032 M03/M05 A2976 RMK AO2 SLP087 T10331050 410171056 FZRANO=
202112290656 METAR KPWT 290656Z AUTO 03009KT 10SM BKN038 OVC110 M04/M05 A2976 RMK AO2 SLP087 T10391050 FZRANO=
202112290556 METAR KPWT 290556Z AUTO 04007KT 10SM BKN041 OVC110 M04/M05 A2975 RMK AO2 SLP084 6//// T10391050 11033 21044 53001 FZRANO=
202112290534 SPECI KPWT 290534Z AUTO 02007KT 10SM SCT026 SCT043 BKN110 M04/M05 A2975 RMK AO2 FZRANO=
202112290456 METAR KPWT 290456Z AUTO 03011KT 10SM OVC026 M04/M05 A2975 RMK AO2 SLP083 T10391050 FZRANO=
202112290356 METAR KPWT 290356Z AUTO 04008KT 10SM BKN026 M04/M06 A2975 RMK AO2 SLP082 T10391056 FZRANO=
202112290330 SPECI KPWT 290330Z AUTO 04005KT 10SM SCT024 M04/M06 A2974 RMK AO2 FZRANO=
202112290256 METAR KPWT 290256Z AUTO 03006KT 10SM OVC024 M03/M05 A2975 RMK AO2 SLP083 6//// T10331050 56006 FZRANO=
202112290156 METAR KPWT 290156Z AUTO 03006KT 10SM OVC024 M04/M06 A2975 RMK AO2 SLP085 T10391056 FZRANO=
202112290139 SPECI KPWT 290139Z AUTO 03005KT 10SM BKN024 M04/M06 A2975 RMK AO2 FZRANO=
202112290056 METAR KPWT 290056Z AUTO 06004KT 10SM CLR M04/M06 A2975 RMK AO2 SLP084 T10441056 FZRANO=
202112290029 SPECI KPWT 290029Z AUTO 06003KT 10SM SCT026 M04/M06 A2975 RMK AO2 FZRANO=
202112282356 METAR KPWT 282356Z AUTO 03009KT 10SM FEW020 OVC026 M03/M05 A2977 RMK AO2 SLP089 6//// T10331050 11017 21033 55012 FZRANO=
202112282256 METAR KPWT 282256Z AUTO 03009KT 10SM OVC022 M03/M05 A2977 RMK AO2 SLP089 T10281050 FZRANO=
202112282226 SPECI KPWT 282226Z AUTO 04008KT 10SM OVC016 M03/M05 A2977 RMK AO2 FZRANO=
202112282156 METAR KPWT 282156Z AUTO 04008KT 10SM BKN014 OVC022 M03/M05 A2977 RMK AO2 SLP091 T10281050 FZRANO=
202112282056 METAR KPWT 282056Z AUTO 04007KT 10SM FEW012 OVC022 M02/M05 A2980 RMK AO2 SLP101 6//// T10221050 58011 FZRANO=
202112281956 METAR KPWT 281956Z AUTO 03006KT 10SM OVC024 M02/M04 A2982 RMK AO2 SLP107 T10221044 FZRANO=
202112281856 METAR KPWT 281856Z AUTO 04007KT 10SM FEW012 OVC026 M03/M05 A2983 RMK AO2 SLP112 T10281050 FZRANO=
202112281756 METAR KPWT 281756Z AUTO 04008KT 10SM FEW012 OVC028 M03/M05 A2983 RMK AO2 SNE46 SLP112 P0000 60000 T10331050 11033 21044 53001 FZRANO=
202112281744 SPECI KPWT 281744Z AUTO 04008KT 9SM -SN FEW012 BKN028 BKN050 M03/M05 A2983 RMK AO2 P0000 FZRANO=
202112281728 SPECI KPWT 281728Z AUTO 03007KT 9SM -SN SCT019 BKN050 BKN060 M04/M05 A2984 RMK AO2 P0000 FZRANO=
202112281656 METAR KPWT 281656Z AUTO 03007KT 4SM -SN BR OVC015 M04/M05 A2983 RMK AO2 SNB10 SLP113 P0000 T10391050 FZRANO=
202112281644 SPECI KPWT 281644Z AUTO 04007KT 4SM -SN BR OVC015 M04/M05 A2983 RMK AO2 SNB10 P0000 FZRANO=
202112281630 SPECI KPWT 281630Z AUTO 03005KT 2 1/2SM -SN BR OVC015 M04/M05 A2983 RMK AO2 VIS 1 1/2V5 SNB10 P0000 FZRANO=
202112281556 METAR KPWT 281556Z AUTO 02007KT 10SM OVC011 M04/M05 A2983 RMK AO2 SLP112 T10391050 FZRANO=
202112281532 SPECI KPWT 281532Z AUTO 03008KT 10SM BKN013 OVC022 M04/M05 A2983 RMK AO2 FZRANO=
202112281456 METAR KPWT 281456Z AUTO 01007KT 10SM FEW009 OVC015 M04/M05 A2983 RMK AO2 SLP112 T10391050 53004 FZRANO=
202112281356 METAR KPWT 281356Z AUTO 05006KT 10SM OVC012 M04/M06 A2981 RMK AO2 SLP104 T10391056 FZRANO=
202112281256 METAR KPWT 281256Z AUTO 03006KT 10SM OVC010 M04/M05 A2982 RMK AO2 SLP110 T10441050 FZRANO=
202112281228 SPECI KPWT 281228Z AUTO 03006KT 10SM OVC010 M04/M05 A2982 RMK AO2 FZRANO=
202112281156 METAR KPWT 281156Z AUTO 03006KT 10SM OVC008 M04/M05 A2982 RMK AO2 SLP108 60000 T10441050 11044 21061 50001 FZRANO=
202112281056 METAR KPWT 281056Z AUTO 04006KT 9SM OVC008 M04/M05 A2983 RMK AO2 SNE48 SLP110 P0000 T10441050 FZRANO=
202112281026 SPECI KPWT 281026Z AUTO 03006KT 7SM -SN BKN008 OVC013 M04/M05 A2983 RMK AO2 P0000 FZRANO=
202112281007 SPECI KPWT 281007Z AUTO 04006KT 9SM -SN FEW007 OVC013 M04/M06 A2983 RMK AO2 P0000 FZRANO=
202112280956 METAR KPWT 280956Z AUTO 03005KT 9SM -SN OVC013 M04/M06 A2983 RMK AO2 SLP109 P0000 T10441056 FZRANO=
202112280856 METAR KPWT 280856Z AUTO 04004KT 3SM -SN BR OVC011 M05/M06 A2982 RMK AO2 SLP106 P0000 60000 T10501061 50004 FZRANO=
202112280844 SPECI KPWT 280844Z AUTO 04004KT 5SM -SN BR BKN011 OVC017 M05/M06 A2981 RMK AO2 P0000 FZRANO=
202112280835 SPECI KPWT 280835Z AUTO 02004KT 4SM -SN BR SCT011 OVC015 M05/M06 A2981 RMK AO2 P0000 FZRANO=
202112280827 SPECI KPWT 280827Z AUTO 04003KT 2 1/2SM -SN BR OVC017 M06/M06 A2981 RMK AO2 VIS 1 3/4V4 P0000 FZRANO=
202112280756 METAR KPWT 280756Z AUTO 04004KT 5SM -SN BR FEW021 BKN025 OVC033 M06/M06 A2982 RMK AO2 SLP107 P0000 T10561061 410331089 FZRANO=
202112280742 SPECI KPWT 280742Z AUTO 06003KT 4SM -SN BR BKN021 BKN026 BKN035 M06/M06 A2982 RMK AO2 P0000 FZRANO=
202112280732 SPECI KPWT 280732Z AUTO 00000KT 2 1/2SM -SN BR OVC021 M06/M07 A2982 RMK AO2 P0000 FZRANO=
202112280656 METAR KPWT 280656Z AUTO 06003KT 1 3/4SM -SN BR FEW012 OVC019 M06/M07 A2981 RMK AO2 SLP106 P0000 T10561067 FZRANO=
202112280645 SPECI KPWT 280645Z AUTO 04003KT 1 3/4SM -SN BR SCT012 OVC019 M06/M07 A2981 RMK AO2 P0000 FZRANO=
202112280626 SPECI KPWT 280626Z AUTO 03003KT 2SM -SN BR OVC012 M06/M07 A2982 RMK AO2 P0000 FZRANO=
202112280615 SPECI KPWT 280615Z AUTO 00000KT 1 3/4SM -SN BR OVC012 M06/M07 A2981 RMK AO2 P0000 FZRANO=
202112280556 METAR KPWT 280556Z AUTO 00000KT 9SM -SN OVC012 M06/M07 A2981 RMK AO2 SLP103 P0000 60000 T10611072 11056 21061 53000 FZRANO=
202112280537 SPECI KPWT 280537Z AUTO 00000KT 9SM -SN BKN010 OVC039 M06/M07 A2981 RMK AO2 P0000 FZRANO=
202112280530 SPECI KPWT 280530Z AUTO 00000KT 9SM -SN SCT012 BKN039 M06/M07 A2980 RMK AO2 P0000 FZRANO=
202112280519 SPECI KPWT 280519Z AUTO 00000KT 9SM -SN BKN012 BKN035 M06/M07 A2980 RMK AO2 P0000 FZRANO=
202112280456 METAR KPWT 280456Z AUTO 00000KT 8SM -SN SCT014 M06/M07 A2981 RMK AO2 SLP104 P0000 T10611072 FZRANO=
202112280435 SPECI KPWT 280435Z AUTO 00000KT 4SM -SN BR CLR M06/M08 A2980 RMK AO2 P0000 FZRANO=
202112280412 SPECI KPWT 280412Z AUTO 22003KT 2SM -SN BR CLR M06/M08 A2980 RMK AO2 P0000 FZRANO=
202112280352 METAR KPWT 280352Z AUTO 00000KT 1 3/4SM -SN BR CLR M06/M08 A2980 RMK AO2 SLP100 P0000 T10611078 FZRANO=
202112280351 SPECI KPWT 280351Z AUTO 00000KT 1 3/4SM -SN BR CLR M06/M08 A2980 RMK AO2 P0000 FZRANO=
202112280317 SPECI KPWT 280317Z AUTO 21004KT 3SM -SN BR CLR M06/M08 A2980 RMK AO2 P0000 FZRANO=
202112280256 METAR KPWT 280256Z AUTO 23003KT 1 1/2SM -SN BR CLR M06/M08 A2980 RMK AO2 SLP104 P0000 60000 T10611083 FZRANO=
202112280244 SPECI KPWT 280244Z AUTO 23003KT 1 1/2SM -SN BR CLR M06/M08 A2980 RMK AO2 P0000 FZRANO=
202112280223 SPECI KPWT 280223Z AUTO 00000KT 2SM -SN SCT018 M06/M09 A2981 RMK AO2 P0000 FZRANO=
202112280215 SPECI KPWT 280215Z AUTO 00000KT 2SM -SN BKN018 M06/M09 A2981 RMK AO2 P0000 FZRANO=
202112280156 METAR KPWT 280156Z AUTO 7SM -SN FEW019 M06/M08 RMK AO2 SNB45 SLPNO P0000 T10611083 FZRANO $=
202112280149 SPECI KPWT 280149Z AUTO 00000KT 10SM -SN FEW014 SCT019 M06/M09 A2982 RMK AO2 SNB45 P0000 FZRANO=
202112280056 METAR KPWT 280056Z AUTO 25003KT 10SM OVC017 M06/M09 A2981 RMK AO2 SLP108 T10611094 FZRANO=
202112272356 METAR KPWT 272356Z AUTO 00000KT 10SM OVC019 M06/M09 A2982 RMK AO2 SLP108 T10561094 11033 21067 58002 FZRANO=
202112272306 SPECI KPWT 272306Z AUTO 00000KT 10SM OVC027 M05/M09 A2982 RMK AO2 FZRANO=
202112272256 METAR KPWT 272256Z AUTO 00000KT 10SM OVC030 M05/M09 A2982 RMK AO2 SLP109 T10501094 FZRANO=
202112272156 METAR KPWT 272156Z AUTO 22003KT 10SM OVC034 M04/M09 A2982 RMK AO2 SLP107 T10441094 FZRANO=
202112272145 SPECI KPWT 272145Z AUTO 00000KT 10SM SCT020 OVC034 M04/M09 A2982 RMK AO2 FZRANO=
202112272056 METAR KPWT 272056Z AUTO 00000KT 10SM BKN020 OVC035 M03/M09 A2982 RMK AO2 SLP109 T10331089 56013 FZRANO=
202112271956 METAR KPWT 271956Z AUTO 00000KT 10SM BKN020 M04/M09 A2984 RMK AO2 SLP115 T10391094 FZRANO=
202112271856 METAR KPWT 271856Z AUTO 02007KT 10SM CLR M06/M11 A2986 RMK AO2 SLP122 T10561106 FZRANO=
202112271756 METAR KPWT 271756Z AUTO 05010KT 10SM CLR M07/M11 A2987 RMK AO2 SLP126 T10671111 11061 21089 51024 FZRANO=
202112271656 METAR KPWT 271656Z AUTO 03009KT 10SM CLR M07/M11 A2984 RMK AO2 SLP117 T10671106 FZRANO=
202112271556 METAR KPWT 271556Z AUTO 03008KT 10SM BKN046 M08/M12 A2983 RMK AO2 SLP110 T10831117 FZRANO=
202112271456 METAR KPWT 271456Z AUTO 05011KT 10SM FEW048 M08/M12 A2980 RMK AO2 SLP100 T10781117 51014 FZRANO=
202112271356 METAR KPWT 271356Z AUTO 04013G19KT 10SM CLR M08/M12 A2979 RMK AO2 SLP098 T10781122 FZRANO=
202112271256 METAR KPWT 271256Z AUTO 04012KT 10SM BKN050 M08/M12 A2978 RMK AO2 SLP095 T10781122 FZRANO=
202112271156 METAR KPWT 271156Z AUTO 04014KT 10SM CLR M08/M13 A2976 RMK AO2 SNB1059E19 SLP088 P0000 60000 T10781128 11072 21078 52021 FZRANO=
202112271056 METAR KPWT 271056Z AUTO 05018G22KT 9SM CLR M08/M11 A2973 RMK AO2 SNE0959 SLP080 P0000 T10781111 FZRANO=
202112270956 METAR KPWT 270956Z AUTO 04017KT 8SM -SN CLR M08/M11 A2972 RMK AO2 SLP073 P0000 T10781111 FZRANO=
202112270856 METAR KPWT 270856Z AUTO 04017G23KT 9SM -SN SCT041 M07/M11 A2969 RMK AO2 SNB41 SLP065 P0000 60000 T10721106 51023 FZRANO=
202112270756 METAR KPWT 270756Z AUTO 03014KT 10SM SCT110 M08/M10 A2968 RMK AO2 SNE33 SLP060 P0000 T10781100 410171078 FZRANO=
202112270656 METAR KPWT 270656Z AUTO 04013KT 9SM -SN FEW038 OVC049 M07/M09 A2965 RMK AO2 SLP051 P0000 T10721094 FZRANO=
202112270556 METAR KPWT 270556Z AUTO 04014G19KT 6SM -SN BR SCT047 M07/M09 A2963 RMK AO2 SLP042 P0000 60000 T10721089 11061 21072 51025 FZRANO=
202112270456 METAR KPWT 270456Z AUTO 04014KT 3SM -SN BR CLR M07/M09 A2960 RMK AO2 SLP033 P0000 T10721089 FZRANO=
202112270443 SPECI KPWT 270443Z AUTO 04013KT 3SM -SN BR FEW012 M07/M09 A2960 RMK AO2 P0000 FZRANO=
202112270432 SPECI KPWT 270432Z AUTO 04013G22KT 1 1/2SM -SN BR SCT014 M07/M09 A2960 RMK AO2 P0000 FZRANO=
202112270422 SPECI KPWT 270422Z AUTO 04012KT 2 1/2SM -SN BR BKN014 OVC020 M07/M09 A2959 RMK AO2 P0000 FZRANO=
202112270356 METAR KPWT 270356Z AUTO 05012KT 5SM -SN BR BKN023 BKN036 M07/M09 A2958 RMK AO2 SNB10 SLP028 P0000 T10671089 FZRANO=
202112270256 METAR KPWT 270256Z AUTO 04016G23KT 10SM FEW041 M07/M09 A2955 RMK AO2 SNB36E46 SLP017 P0000 60000 T10671094 51009 FZRANO=
202112270156 METAR KPWT 270156Z AUTO 05015G20KT 10SM OVC035 M07/M09 A2955 RMK AO2 SLP015 T10671089 FZRANO=
202112270056 METAR KPWT 270056Z AUTO 04013G19KT 10SM OVC031 M06/M08 A2954 RMK AO2 SNB26E45 SLP012 P0000 T10611083 FZRANO=
202112262356 METAR KPWT 262356Z AUTO 04012KT 10SM FEW013 OVC033 M06/M08 A2952 RMK AO2 SLP007 60000 T10611078 11044 21061 53021 FZRANO=
202112262256 METAR KPWT 262256Z AUTO 05009KT 10SM FEW013 OVC033 M06/M08 A2950 RMK AO2 SNE41 SLP998 P0000 T10561078 FZRANO=
202112262246 SPECI KPWT 262246Z AUTO 04013KT 9SM SCT011 OVC033 M06/M07 A2949 RMK AO2 SNE41 P0000 FZRANO=
202112262229 SPECI KPWT 262229Z AUTO 03011KT 10SM -SN BKN011 OVC035 M05/M07 A2949 RMK AO2 P0000 FZRANO=
202112262156 METAR KPWT 262156Z AUTO 03010KT 9SM -SN FEW013 OVC035 M05/M07 A2948 RMK AO2 SLP992 P0000 T10501072 FZRANO=
202112262104 SPECI KPWT 262104Z AUTO 03013G18KT 5SM -SN BR FEW011 M05/M07 A2946 RMK AO2 P0000 FZRANO=
202112262056 METAR KPWT 262056Z AUTO 04013KT 2 1/2SM -SN BR SCT011 M05/M07 A2946 RMK AO2 VIS 1 1/2V4 SLP985 P0000 60000 T10501067 53010 FZRANO=
202112262048 SPECI KPWT 262048Z AUTO 04012KT 1 1/4SM -SN BR SCT011 BKN021 BKN030 M05/M07 A2946 RMK AO2 P0000 FZRANO=
202112262037 SPECI KPWT 262037Z AUTO 03014G20KT 1SM -SN BR FEW010 BKN013 OVC021 M05/M07 A2946 RMK AO2 P0000 FZRANO=
202112262026 SPECI KPWT 262026Z AUTO 03016G21KT 1 1/2SM -SN BR BKN017 OVC023 M05/M07 A2946 RMK AO2 VIS 1V2 P0000 FZRANO=
202112261956 METAR KPWT 261956Z AUTO 05013KT 2 1/2SM -SN BR BKN019 BKN025 OVC031 M05/M07 A2945 RMK AO2 SLP982 P0000 T10501072 FZRANO=
202112261940 SPECI KPWT 261940Z AUTO 05013KT 3SM -SN BR SCT019 BKN024 M05/M07 A2945 RMK AO2 P0000 FZRANO=
202112261929 SPECI KPWT 261929Z AUTO 04014KT 2SM -SN BR CLR M05/M07 A2945 RMK AO2 VIS 1 3/4V3 P0000 FZRANO=
202112261905 SPECI KPWT 261905Z AUTO 03017KT 1 1/4SM -SN BR SCT009 M05/M06 A2943 RMK AO2 P0000 FZRANO=
202112261856 METAR KPWT 261856Z AUTO 03015G25KT 3/4SM -SN BR BKN008 M05/M06 A2943 RMK AO2 PK WND 04026/1804 CIG 005V012 SLP975 P0000 T10501061 FZRANO=
202112261854 SPECI KPWT 261854Z AUTO 03018G25KT 3/4SM -SN BR BKN008 M05/M06 A2943 RMK AO2 PK WND 04026/1804 CIG 005V012 P0000 FZRANO=
202112261847 SPECI KPWT 261847Z AUTO 04014G20KT 3/4SM -SN BR SCT005 OVC010 M05/M06 A2943 RMK AO2 PK WND 04026/1804 P0000 FZRANO=
202112261843 SPECI KPWT 261843Z AUTO 04016G19KT 1/2SM SN FZFG BKN005 OVC010 M05/M06 A2943 RMK AO2 PK WND 04026/1804 CIG 003V008 P0000 FZRANO=
202112261806 SPECI KPWT 261806Z AUTO 04022G25KT 1/4SM +SN FZFG BKN005 OVC010 M05/M06 A2940 RMK AO2 PK WND 04026/1804 CIG 004V008 P0000 FZRANO=
202112261756 METAR KPWT 261756Z AUTO 02019KT 1/4SM +SN FZFG OVC008 M05/M06 A2940 RMK AO2 CIG 005V012 SLP963 P0000 60000 T10501061 11017 21050 53013 FZRANO=
202112261748 SPECI KPWT 261748Z AUTO 03020G25KT 1/4SM SN FZFG OVC010 M05/M06 A2940 RMK AO2 CIG 007V013 P0000 FZRANO=
202112261738 SPECI KPWT 261738Z AUTO 04016KT 3/4SM -SN BR OVC012 M04/M06 A2940 RMK AO2 P0000 FZRANO=
202112261731 SPECI KPWT 261731Z AUTO 05015KT 1SM -SN BR OVC012 M04/M06 A2940 RMK AO2 P0000 FZRANO=
202112261722 SPECI KPWT 261722Z AUTO 05013KT 1 1/4SM -SN BR OVC012 M04/M06 A2940 RMK AO2 P0000 FZRANO=
202112261713 SPECI KPWT 261713Z AUTO 04012KT 3/4SM -SN BR OVC012 M04/M06 A2939 RMK AO2 P0000 FZRANO=
202112261702 SPECI KPWT 261702Z AUTO 05013G18KT 1SM -SN BR SCT007 OVC012 M04/M06 A2939 RMK AO2 P0000 FZRANO=
202112261656 METAR KPWT 261656Z AUTO 05011G18KT 3/4SM -SN BR BKN007 OVC012 M04/M06 A2938 RMK AO2 CIG 004V009 SLP959 P0000 T10441056 FZRANO=
202112261627 SPECI KPWT 261627Z AUTO 04015KT 1/2SM -SN FZFG OVC009 M04/M05 A2937 RMK AO2 CIG 004V013 P0000 FZRANO=
202112261619 SPECI KPWT 261619Z AUTO 05015G21KT 3/4SM -SN BR OVC011 M04/M05 A2937 RMK AO2 CIG 007V014 P0000 FZRANO=
202112261556 METAR KPWT 261556Z AUTO 06013G26KT 1SM -SN BR FEW008 BKN013 OVC020 M04/M05 A2936 RMK AO2 PK WND 03027/1546 VIS 1/2V2 SLP951 P0000 T10391050 FZRANO=
202112261549 SPECI KPWT 261549Z AUTO 03020G27KT 1 1/4SM -SN BR FEW007 BKN013 OVC020 M04/M05 A2935 RMK AO2 PK WND 03027/1546 VIS 1/2V2 1/2 P0000 FZRANO=
202112261538 SPECI KPWT 261538Z AUTO 03016G21KT 2 1/2SM -SN BR SCT006 OVC021 M04/M05 A2936 RMK AO2 VIS 1 3/4V3 P0000 FZRANO=
202112261532 SPECI KPWT 261532Z AUTO 06008KT 1 3/4SM -SN BR BKN006 OVC021 M04/M04 A2936 RMK AO2 CIG 005V010 P0000 FZRANO=
202112261522 SPECI KPWT 261522Z AUTO 06013G18KT 1SM -SN BR OVC006 M03/M04 A2936 RMK AO2 CIG 004V010 P0000 FZRANO=
202112261507 SPECI KPWT 261507Z AUTO 04010KT 3/4SM -SN BR OVC004 M03/M04 A2936 RMK AO2 P0000 FZRANO=
202112261456 METAR KPWT 261456Z AUTO 04009G16KT 1/2SM SN FZFG OVC004 M03/M04 A2936 RMK AO2 SLP949 P0000 60000 T10331039 53008 FZRANO=
202112261431 SPECI KPWT 261431Z AUTO 06008KT 1/2SM SN FZFG OVC004 M03/M04 A2935 RMK AO2 CIG 003V007 P0000 FZRANO=
202112261423 SPECI KPWT 261423Z AUTO 07009KT 1/2SM SN FZFG OVC006 M03/M04 A2934 RMK AO2 CIG 003V007 P0000 FZRANO=
202112261410 SPECI KPWT 261410Z AUTO 05010KT 3/4SM -SN BR OVC006 M02/M02 A2934 RMK AO2 CIG 003V009 P0000 FZRANO=
202112261356 METAR KPWT 261356Z AUTO 00000KT 1SM -SN BR OVC008 M02/M02 A2934 RMK AO2 CIG 005V011 SLP943 P0000 T10171022 FZRANO=
202112261345 SPECI KPWT 261345Z AUTO 18005KT 1 1/2SM -SN BR OVC008 M02/M02 A2933 RMK AO2 VIS 1V3 CIG 004V010 P0000 FZRANO=
202112261334 SPECI KPWT 261334Z AUTO 20004KT 2SM -SN BR OVC008 M02/M02 A2933 RMK AO2 VIS 1 1/2V3 CIG 004V010 P0000 FZRANO=
202112261314 SPECI KPWT 261314Z AUTO 19004KT 1 1/4SM -SN BR OVC008 M02/M02 A2933 RMK AO2 CIG 005V011 P0000 FZRANO=
202112261256 METAR KPWT 261256Z AUTO 19006KT 1 3/4SM -SN BR OVC010 M02/M02 A2933 RMK AO2 VIS 1 1/4V3 CIG 005V012 SLP940 P0000 T10171022 FZRANO=
202112261213 SPECI KPWT 261213Z AUTO 17005KT 1 3/4SM -SN BR BKN012 OVC018 M02/M02 A2933 RMK AO2 P0000 FZRANO=
202112261202 SPECI KPWT 261202Z AUTO VRB04KT 1 3/4SM -SN BR SCT012 OVC019 M02/M02 A2933 RMK AO2 VIS 1 1/4V3 P0000 FZRANO=
202112261156 METAR KPWT 261156Z AUTO VRB04KT 3SM -SN BR BKN019 OVC026 M02/M02 A2933 RMK AO2 UPB14E16SNB16 SLP941 P0000 60000 7//// T10171022 11017 21033 58004 FZRANO=
202112261137 SPECI KPWT 261137Z AUTO 17005KT 7SM -SN FEW015 BKN021 OVC026 M02/M02 A2934 RMK AO2 UPB14E16SNB16 P0000 FZRANO=
202112261129 SPECI KPWT 261129Z AUTO 18004KT 2 1/2SM -SN BR SCT015 BKN020 OVC043 M02/M02 A2934 RMK AO2 VIS 3/4V5 UPB14E16SNB16 P0000 FZRANO=
202112261115 SPECI KPWT 261115Z AUTO 17004KT 10SM UP SCT008 BKN025 OVC039 M02/M02 A2934 RMK AO2 UPB14 P0000 FZRANO=
202112261056 METAR KPWT 261056Z AUTO 18004KT 10SM BKN008 BKN013 OVC044 M02/M02 A2934 RMK AO2 CIG 007V011 SLP945 T10171017 FZRANO=
202112261043 SPECI KPWT 261043Z AUTO 16003KT 10SM BKN010 BKN024 OVC044 M02/M02 A2935 RMK AO2 CIG 007V013 FZRANO=
202112261032 SPECI KPWT 261032Z AUTO 18003KT 10SM SCT010 BKN024 OVC044 M02/M02 A2935 RMK AO2 FZRANO=
202112260956 METAR KPWT 260956Z AUTO 00000KT 10SM BKN010 M03/M03 A2934 RMK AO2 SLP944 T10281033 FZRANO=
202112260947 SPECI KPWT 260947Z AUTO 00000KT 10SM BKN012 M03/M03 A2934 RMK AO2 FZRANO=
202112260934 SPECI KPWT 260934Z AUTO 00000KT 10SM FEW008 BKN015 M03/M03 A2934 RMK AO2 FZRANO=
202112260925 SPECI KPWT 260925Z AUTO 22003KT 10SM BKN008 BKN015 M03/M03 A2934 RMK AO2 CIG 006V011 FZRANO=
202112260916 SPECI KPWT 260916Z AUTO 00000KT 10SM SCT008 SCT016 M03/M03 A2934 RMK AO2 FZRANO=
202112260908 SPECI KPWT 260908Z AUTO 23004KT 10SM BKN008 M03/M03 A2935 RMK AO2 FZRANO=
202112260856 METAR KPWT 260856Z AUTO 23004KT 10SM SCT008 M03/M03 A2935 RMK AO2 SLP945 T10281033 58008 FZRANO=
202112260808 SPECI KPWT 260808Z AUTO 21003KT 10SM FEW008 M03/M04 A2936 RMK AO2 FZRANO=
202112260756 METAR KPWT 260756Z AUTO 23003KT 10SM CLR M03/M04 A2936 RMK AO2 SLP951 T10331039 400221033 FZRANO=
202112260656 METAR KPWT 260656Z AUTO 19005KT 10SM BKN110 M02/M02 A2937 RMK AO2 SLP953 T10221022 FZRANO=
202112260556 METAR KPWT 260556Z AUTO 19009KT 10SM CLR M02/M02 A2937 RMK AO2 SLP953 T10171022 10006 21017 50000 FZRANO=
202112260456 METAR KPWT 260456Z AUTO 20009KT 10SM FEW009 SCT120 M02/M02 A2937 RMK AO2 SLP954 T10171022 FZRANO=
202112260446 SPECI KPWT 260446Z AUTO 20008KT 10SM SCT009 BKN120 M02/M02 A2937 RMK AO2 FZRANO=
202112260439 SPECI KPWT 260439Z AUTO 20008KT 10SM BKN009 BKN120 M01/M02 A2937 RMK AO2 CIG 005V010 FZRANO=
202112260428 SPECI KPWT 260428Z AUTO 20009KT 10SM SCT009 M01/M02 A2937 RMK AO2 FZRANO=
202112260356 METAR KPWT 260356Z AUTO 20010KT 10SM SCT110 M01/M02 A2937 RMK AO2 SLP954 T10111017 FZRANO=
202112260256 METAR KPWT 260256Z AUTO 21009KT 10SM BKN110 M01/M02 A2937 RMK AO2 SLP953 T10111017 58011 FZRANO=
202112260156 METAR KPWT 260156Z AUTO 20006KT 10SM SCT085 M01/M01 A2938 RMK AO2 SLP957 T10061011 FZRANO=
202112260120 SPECI KPWT 260120Z AUTO 20007KT 10SM SCT008 00/M01 A2939 RMK AO2 FZRANO=
202112260109 SPECI KPWT 260109Z AUTO 20008KT 10SM BKN008 00/M01 A2939 RMK AO2 FZRANO=
202112260056 METAR KPWT 260056Z AUTO 20006KT 10SM SCT008 00/M01 A2939 RMK AO2 SLP962 T00001011 FZRANO=
202112252356 METAR KPWT 252356Z AUTO 19009KT 10SM FEW009 01/M01 A2940 RMK AO2 SLP963 6//// T00061006 10022 20006 58007 FZRANO=
202112252256 METAR KPWT 252256Z AUTO 21010G16KT 10SM FEW009 02/00 A2941 RMK AO2 SLP967 T00170000 FZRANO=
202112252228 SPECI KPWT 252228Z AUTO 20008KT 10SM SCT009 02/01 A2942 RMK AO2 FZRANO=
202112252156 METAR KPWT 252156Z AUTO 20007KT 10SM BKN007 02/01 A2942 RMK AO2 CIG 005V011 SLP970 T00170006 FZRANO=
202112252153 SPECI KPWT 252153Z AUTO 20009KT 10SM BKN007 02/01 A2942 RMK AO2 CIG 005V011 FZRANO=
202112252138 SPECI KPWT 252138Z AUTO 18007KT 10SM BKN005 02/01 A2942 RMK AO2 FZRANO=
202112252056 METAR KPWT 252056Z AUTO 20011KT 10SM SCT005 02/01 A2943 RMK AO2 UPE21 SLP974 P0000 6//// T00170006 58011 FZRANO=
202112252038 SPECI KPWT 252038Z AUTO 18009KT 10SM BKN005 02/02 A2944 RMK AO2 UPE21 P0000 FZRANO=
202112252018 SPECI KPWT 252018Z AUTO 19009KT 10SM UP SCT007 SCT012 02/01 A2944 RMK AO2 P0000 FZRANO=
202112251956 METAR KPWT 251956Z AUTO 19010KT 10SM UP BKN007 BKN013 02/01 A2945 RMK AO2 UPB10 CIG 005V009 SLP979 P0000 T00170011 FZRANO=
202112251948 SPECI KPWT 251948Z AUTO 20010KT 10SM UP BKN007 02/01 A2945 RMK AO2 UPB10 CIG 005V011 P0000 FZRANO=
202112251856 METAR KPWT 251856Z AUTO 20009G16KT 10SM OVC005 02/01 A2946 RMK AO2 RAB16E26 SLP984 T00170011 FZRANO=
202112251756 METAR KPWT 251756Z AUTO 19012KT 10SM BKN005 OVC009 02/01 A2947 RMK AO2 CIG 003V007 SLP985 60000 T00170011 10017 20011 51007 FZRANO=
202112251752 SPECI KPWT 251752Z AUTO 19011G16KT 10SM OVC005 02/01 A2946 RMK AO2 CIG 003V007 FZRANO=
202112251656 METAR KPWT 251656Z AUTO 18011G15KT 10SM OVC003 01/01 A2945 RMK AO2 RAB10E19UPB19E23 SLP981 P0000 T00110011 FZRANO=
202112251556 METAR KPWT 251556Z AUTO 19009G18KT 10SM OVC003 01/01 A2944 RMK AO2 SLP978 T00110011 FZRANO=
202112251544 SPECI KPWT 251544Z AUTO 20010KT 10SM OVC003 01/01 A2944 RMK AO2 FZRANO=
202112251506 SPECI KPWT 251506Z AUTO 19011G19KT 10SM OVC005 02/01 A2943 RMK AO2 CIG 003V011 FZRANO=
202112251456 METAR KPWT 251456Z AUTO 20012G20KT 10SM BKN003 BKN008 OVC014 01/01 A2943 RMK AO2 SLP973 60000 T00110011 55001 FZRANO=
202112251356 METAR KPWT 251356Z AUTO 20011G21KT 10SM OVC003 02/01 A2942 RMK AO2 RAE53 SLP971 P0000 T00170011 FZRANO=
202112251256 METAR KPWT 251256Z AUTO 20010KT 10SM -RA OVC003 01/01 A2942 RMK AO2 RAE03B19 SLP971 P0000 T00110011 FZRANO=
202112251156 METAR KPWT 251156Z AUTO 19008KT 10SM -RA OVC003 02/01 A2943 RMK AO2 UPB19E21RAB21 SLP974 P0000 6//// 7//// T00170011 10022 20017 51011 FZRANO=
202112251056 METAR KPWT 251056Z AUTO 19011KT 10SM OVC003 02/02 A2943 RMK AO2 SLP973 T00170017 FZRANO=
202112250956 METAR KPWT 250956Z AUTO 20008KT 10SM OVC003 02/02 A2941 RMK AO2 SLP966 T00220017 FZRANO=
202112250911 SPECI KPWT 250911Z AUTO 20008KT 10SM OVC003 02/02 A2941 RMK AO2 CIG 003V008 FZRANO=
202112250856 METAR KPWT 250856Z AUTO 20006KT 10SM OVC005 02/02 A2940 RMK AO2 CIG 003V010 SLP962 6//// T00220022 51028 FZRANO=
202112250833 SPECI KPWT 250833Z AUTO 21008KT 10SM OVC007 02/02 A2940 RMK AO2 CIG 004V011 FZRANO=
202112250756 METAR KPWT 250756Z AUTO 21007KT 10SM OVC005 02/02 A2939 RMK AO2 SLP958 T00220017 400390006 FZRANO=
202112250742 SPECI KPWT 250742Z AUTO 21009KT 10SM OVC005 02/02 A2939 RMK AO2 FZRANO=
202112250656 METAR KPWT 250656Z AUTO 23011KT 3SM BR OVC003 02/02 A2936 RMK AO2 RAE03UPB03E31 SLP950 P0000 T00170017 FZRANO=
202112250629 SPECI KPWT 250629Z AUTO 23010KT 6SM UP BR OVC003 02/02 A2934 RMK AO2 RAE03UPB03 P0000 FZRANO=
202112250617 SPECI KPWT 250617Z AUTO 24008KT 2 1/2SM UP BR OVC003 02/02 A2933 RMK AO2 RAE03UPB03 P0000 FZRANO=
202112250604 SPECI KPWT 250604Z AUTO 24007KT 3SM UP BR OVC003 02/02 A2932 RMK AO2 RAE03UPB03 P0000 FZRANO=
202112250556 METAR KPWT 250556Z AUTO 25008KT 2SM -RA BR OVC005 02/02 A2932 RMK AO2 UPE40RAB40 SLP935 P0004 60024 T00220017 10033 20017 51010 FZRANO=
202112250553 SPECI KPWT 250553Z AUTO 24009KT 2SM -RA BR OVC005 02/02 A2932 RMK AO2 UPE40RAB40 P0004 FZRANO=
202112250456 METAR KPWT 250456Z AUTO 21007KT 4SM UP BR OVC005 02/01 A2930 RMK AO2 RAE22UPB22 CIG 004V009 SLP929 P0008 T00170011 FZRANO=
202112250356 METAR KPWT 250356Z AUTO 18009KT 10SM -RA OVC007 02/02 A2929 RMK AO2 CIG 005V009 SLP925 P0002 T00220017 FZRANO=
202112250256 METAR KPWT 250256Z AUTO 19007KT 10SM -RA OVC007 03/02 A2928 RMK AO2 CIG 006V010 SLP923 P0009 60010 T00280022 53003=
202112250222 SPECI KPWT 250222Z AUTO 18006KT 9SM RA BKN009 OVC018 02/02 A2928 RMK AO2 CIG 006V014 P0005 FZRANO=
202112250212 SPECI KPWT 250212Z AUTO 19006G14KT 9SM -RA FEW007 BKN011 OVC018 03/02 A2928 RMK AO2 P0003=
202112250156 METAR KPWT 250156Z AUTO 18008KT 10SM -RA BKN017 BKN025 03/02 A2928 RMK AO2 RAE26B49 SLP920 P0000 T00280022=
202112250056 METAR KPWT 250056Z AUTO 00000KT 10SM -RA OVC019 03/02 A2927 RMK AO2 RAE28B44UPB28E44 SLP919 P0001 T00280022=
202112242356 METAR KPWT 242356Z AUTO 19003KT 10SM -RA FEW008 BKN020 OVC026 03/02 A2927 RMK AO2 SLP919 P0003 60006 T00280017 10039 20022 51007=
202112242353 SPECI KPWT 242353Z AUTO 21003KT 10SM -RA FEW008 BKN020 OVC026 03/02 A2927 RMK AO2 P0003=
202112242346 SPECI KPWT 242346Z AUTO 21003KT 10SM -RA FEW010 BKN020 OVC026 03/02 A2928 RMK AO2 P0003=
202112242339 SPECI KPWT 242339Z AUTO 20005KT 10SM -RA SCT008 BKN013 OVC026 03/02 A2927 RMK AO2 P0003=
202112242324 SPECI KPWT 242324Z AUTO 19006KT 10SM -RA BKN010 OVC013 03/02 A2927 RMK AO2 CIG 007V011 P0002=
202112242314 SPECI KPWT 242314Z AUTO 19009KT 6SM -RA BR BKN008 OVC015 03/02 A2927 RMK AO2 CIG 007V013 P0002=
202112242256 METAR KPWT 242256Z AUTO 19004KT 10SM RA BKN014 OVC018 03/02 A2927 RMK AO2 RAB51 SLP916 P0001 T00330022=
202112242235 SPECI KPWT 242235Z AUTO 21005KT 10SM BKN011 OVC019 03/02 A2926 RMK AO2=
202112242208 SPECI KPWT 242208Z AUTO 20007KT 10SM SCT009 OVC015 03/02 A2926 RMK AO2=
202112242156 METAR KPWT 242156Z AUTO 21012G16KT 10SM BKN009 OVC015 03/02 A2925 RMK AO2 CIG 006V013 SLP911 T00330022=
202112242056 METAR KPWT 242056Z AUTO 20007KT 10SM BKN007 OVC011 03/02 A2926 RMK AO2 RAE10B31E49 SLP913 P0000 60002 T00280022 58001=
202112241956 METAR KPWT 241956Z AUTO 21011KT 10SM -RA BKN007 03/02 A2926 RMK AO2 RAB00 CIG 005V009 SLP914 P0002 T00280022=
202112241856 METAR KPWT 241856Z AUTO 20008KT 10SM OVC007 03/02 A2927 RMK AO2 RAE36 CIG 006V012 SLP916 P0000 T00280022=
202112241844 SPECI KPWT 241844Z AUTO 19009KT 10SM OVC007 03/02 A2926 RMK AO2 RAE36 CIG 005V010 P0000=
202112241756 METAR KPWT 241756Z AUTO 20007KT 10SM -RA OVC005 02/02 A2926 RMK AO2 UPB1659E18RAB44 SLP914 P0000 60010 T00220022 10022 20006 53006 FZRANO=
202112241656 METAR KPWT 241656Z AUTO 20009KT 10SM OVC005 02/02 A2925 RMK AO2 RAE52 SLP911 P0002 T00220017 FZRANO=
202112241556 METAR KPWT 241556Z AUTO 19011G16KT 10SM -RA OVC005 02/02 A2924 RMK AO2 RAE03B38 SLP909 P0001 T00220017 FZRANO=
202112241456 METAR KPWT 241456Z AUTO 19008KT 10SM -RA OVC005 02/02 A2924 RMK AO2 RAB08SNE08 SLP909 P0001 60007 T00170017 58004 FZRANO=
202112241407 SPECI KPWT 241407Z AUTO 18007KT 7SM -SN OVC005 01/01 A2924 RMK AO2 P0001 FZRANO=
202112241356 METAR KPWT 241356Z AUTO 17005KT 4SM -SN BR OVC003 01/01 A2925 RMK AO2 RAE02B26E45SNB45 SLP911 P0006 T00060006 FZRANO=
202112241256 METAR KPWT 241256Z AUTO 20010KT 10SM -RA OVC003 02/02 A2925 RMK AO2 RAE1158B39UPB48E50 SLP911 P0000 T00170017 FZRANO=
202112241207 SPECI KPWT 241207Z AUTO 18011G16KT 10SM OVC003 02/01 A2925 RMK AO2 RAE1158 P0000 FZRANO=
202112241156 METAR KPWT 241156Z AUTO 19010G18KT 10SM -RA OVC005 02/01 A2925 RMK AO2 CIG 003V007 SLP912 P0001 60028 70028 T00170011 10028 20011 55010 FZRANO=
202112241056 METAR KPWT 241056Z AUTO 20011G17KT 10SM -RA OVC005 02/01 A2925 RMK AO2 UPB0959E05RAB41SNE0959B05E41 SLP911 P0007 T00170011 FZRANO=
202112241012 SPECI KPWT 241012Z AUTO 20010KT 4SM -SN BR OVC005 01/01 A2926 RMK AO2 UPB0959E05SNE0959B05 P0004 FZRANO=
202112240956 METAR KPWT 240956Z AUTO 22012KT 6SM -SN BR OVC007 02/01 A2927 RMK AO2 RAE44UPB44E47SNB47 SLP916 P0014 T00170011 FZRANO=
202112240856 METAR KPWT 240856Z AUTO 19009KT 10SM -RA OVC007 02/02 A2929 RMK AO2 CIG 005V011 SLP924 P0003 60006 T00220017 58032 FZRANO=
202112240756 METAR KPWT 240756Z AUTO 19009KT 10SM -RA OVC005 02/02 A2932 RMK AO2 UPE0658RAB0658 SLP935 P0003 T00220017 400610022 FZRANO=
202112240719 SPECI KPWT 240719Z AUTO 21011G15KT 10SM RA BKN005 OVC009 02/02 A2935 RMK AO2 UPE0658RAB0658 CIG 004V007 P0002 FZRANO=
202112240656 METAR KPWT 240656Z AUTO 19008KT 10SM UP BKN007 BKN013 BKN018 02/02 A2937 RMK AO2 RAE50UPB50 CIG 005V009 SLP950 P0000 T00220022 FZRANO=
202112240612 SPECI KPWT 240612Z AUTO 20011G19KT 10SM -RA SCT009 BKN016 02/02 A2938 RMK AO2 P0000 FZRANO=
202112240605 SPECI KPWT 240605Z AUTO 19012G19KT 10SM -RA SCT009 BKN014 02/02 A2938 RMK AO2 P0000 FZRANO=
202112240556 METAR KPWT 240556Z AUTO 19010G19KT 10SM -RA BKN011 03/02 A2938 RMK AO2 RAB47 SLP955 P0000 60000 T00280017 10033 20022 58008=
202112240544 SPECI KPWT 240544Z AUTO 19009KT 10SM BKN011 03/02 A2939 RMK AO2=
202112240456 METAR KPWT 240456Z AUTO 19009KT 10SM FEW011 02/01 A2939 RMK AO2 SLP961 T00220011 FZRANO=
202112240413 SPECI KPWT 240413Z AUTO 20009KT 10SM SCT010 02/01 A2940 RMK AO2 FZRANO=
202112240356 METAR KPWT 240356Z AUTO 20008KT 10SM BKN010 OVC110 02/01 A2941 RMK AO2 SLP964 T00220011 FZRANO=
202112240329 SPECI KPWT 240329Z AUTO 20009KT 10SM SCT010 BKN110 02/01 A2941 RMK AO2 FZRANO=
202112240256 METAR KPWT 240256Z AUTO 20009KT 10SM BKN010 03/02 A2941 RMK AO2 SLP965 T00280017 57007=
202112240229 SPECI KPWT 240229Z AUTO 21011KT 10SM BKN010 BKN014 03/02 A2942 RMK AO2 CIG 008V013=
202112240156 METAR KPWT 240156Z AUTO 20009KT 10SM FEW110 03/01 A2942 RMK AO2 SLP969 T00280011=
202112240056 METAR KPWT 240056Z AUTO 22009KT 10SM SCT120 03/01 A2942 RMK AO2 SLP968 T00330006=
202112232356 METAR KPWT 232356Z AUTO 21013G20KT 10SM SCT120 03/01 A2943 RMK AO2 SLP971 T00330011 10061 20033 53000=
202112232256 METAR KPWT 232256Z AUTO 22011KT 10SM FEW110 04/02 A2942 RMK AO2 SLP971 T00390017=
202112232156 METAR KPWT 232156Z AUTO 21015G20KT 10SM CLR 04/02 A2942 RMK AO2 SLP971 T00440017=
202112232056 METAR KPWT 232056Z AUTO 22015G19KT 10SM SCT017 06/03 A2943 RMK AO2 SLP972 T00610033 58003=
202112231956 METAR KPWT 231956Z AUTO 23014G20KT 10SM FEW015 05/02 A2944 RMK AO2 SLP974 T00500022=
202112231856 METAR KPWT 231856Z AUTO 23014G22KT 10SM FEW011 04/02 A2945 RMK AO2 SLP978 T00440022=
202112231756 METAR KPWT 231756Z AUTO 22012KT 10SM FEW009 03/02 A2944 RMK AO2 SLP975 60000 T00330022 10039 20022 53010=
202112231721 SPECI KPWT 231721Z AUTO 21013G17KT 10SM SCT009 02/02 A2942 RMK AO2 FZRANO=
202112231656 METAR KPWT 231656Z AUTO 21011KT 10SM BKN009 02/02 A2942 RMK AO2 SLP968 T00220017 FZRANO=
202112231556 METAR KPWT 231556Z AUTO 20010KT 10SM BKN009 03/03 A2940 RMK AO2 RAE1458 CIG 005V012 SLP961 P0000 T00330028=
202112231543 SPECI KPWT 231543Z AUTO 19011KT 10SM BKN009 03/03 A2940 RMK AO2 RAE1458 CIG 006V012 P0000=
202112231456 METAR KPWT 231456Z AUTO 19009KT 10SM -RA FEW007 BKN011 03/03 A2941 RMK AO2 RAE11B36 SLP965 P0000 60000 T00330033 56006=
202112231437 SPECI KPWT 231437Z AUTO 20010KT 10SM -RA FEW005 SCT013 SCT021 03/03 A2941 RMK AO2 RAE11B36 P0000=
202112231430 SPECI KPWT 231430Z AUTO 19010KT 10SM FEW014 SCT021 03/03 A2941 RMK AO2 RAE11 P0000=
202112231412 SPECI KPWT 231412Z AUTO 18010KT 10SM FEW006 SCT012 BKN017 04/03 A2941 RMK AO2 RAE11 P0000=
202112231356 METAR KPWT 231356Z AUTO 20008KT 10SM -RA SCT015 BKN025 03/03 A2941 RMK AO2 SLP967 P0000 T00330028=
202112231351 SPECI KPWT 231351Z AUTO 20010KT 10SM -RA FEW007 BKN015 BKN029 03/03 A2941 RMK AO2 P0000=
202112231256 METAR KPWT 231256Z AUTO 21012KT 10SM -RA SCT009 BKN033 BKN044 04/03 A2943 RMK AO2 RAB41 SLP971 P0000 T00390033=
202112231245 SPECI KPWT 231245Z AUTO 20010KT 10SM -RA BKN009 04/03 A2942 RMK AO2 RAB41 P0000=
202112231156 METAR KPWT 231156Z AUTO 19009G16KT 10SM FEW009 SCT050 BKN110 04/03 A2942 RMK AO2 SLP967 60030 70108 T00390033 10067 20039 51004=
202112231153 SPECI KPWT 231153Z AUTO 20009G16KT 10SM FEW009 SCT050 04/03 A2942 RMK AO2=
202112231056 METAR KPWT 231056Z AUTO 20014G21KT 10SM CLR 04/03 A2942 RMK AO2 SLP967 T00440033=
202112231035 SPECI KPWT 231035Z AUTO 19013KT 10SM FEW009 04/03 A2941 RMK AO2=
202112230956 METAR KPWT 230956Z AUTO 20010KT 10SM CLR 04/04 A2941 RMK AO2 RAE55 SLP963 P0001 T00440039=
202112230856 METAR KPWT 230856Z AUTO 21011KT 10SM -RA FEW010 OVC032 05/04 A2940 RMK AO2 SLP960 P0005 60029 T00500044 55008=
202112230834 SPECI KPWT 230834Z AUTO 22011KT 10SM -RA FEW010 SCT016 OVC038 06/05 A2940 RMK AO2 P0003=
202112230824 SPECI KPWT 230824Z AUTO 22013KT 10SM -RA SCT010 BKN025 OVC035 06/05 A2939 RMK AO2 P0002=
202112230756 METAR KPWT 230756Z AUTO 21010KT 10SM -RA FEW009 OVC033 06/06 A2939 RMK AO2 SLP959 P0011 T00610056 400780056=
202112230737 SPECI KPWT 230737Z AUTO 22010KT 10SM RA FEW007 BKN023 OVC033 06/06 A2940 RMK AO2 P0010=
202112230719 SPECI KPWT 230719Z AUTO 22011KT 8SM RA SCT006 BKN010 OVC021 07/06 A2940 RMK AO2 CIG 008V013 P0007=
202112230656 METAR KPWT 230656Z AUTO 22012KT 8SM RA BKN006 BKN011 OVC024 07/06 A2940 RMK AO2 CIG 004V009 SLP961 P0013 T00670061=
202112230631 SPECI KPWT 230631Z AUTO 20009KT 10SM RA BKN008 BKN014 OVC031 07/06 A2940 RMK AO2 CIG 006V012 P0005=
202112230619 SPECI KPWT 230619Z AUTO 20012G19KT 10SM RA SCT008 BKN014 OVC029 07/06 A2941 RMK AO2 P0003=
202112230556 METAR KPWT 230556Z AUTO 19013KT 7SM RA BKN010 OVC014 07/06 A2942 RMK AO2 RAB0459 CIG 007V012 SLP967 P0017 60021 T00720061 10072 20056 55014=
202112230538 SPECI KPWT 230538Z AUTO 20018G24KT 7SM +RA SCT010 BKN014 OVC043 07/07 A2942 RMK AO2 RAB0459 P0009=
202112230527 SPECI KPWT 230527Z AUTO 19007KT 8SM +RA SCT010 BKN022 OVC047 07/07 A2941 RMK AO2 RAB0459 P0004=
202112230503 SPECI KPWT 230503Z AUTO 19009KT 10SM -RA FEW009 SCT028 BKN048 07/07 A2941 RMK AO2 RAB0459 P0000=
202112230456 METAR KPWT 230456Z AUTO 19010G17KT 10SM SCT028 SCT041 BKN050 07/07 A2942 RMK AO2 RAE45 SLP966 P0001 T00720067=
202112230356 METAR KPWT 230356Z AUTO 18010G20KT 10SM -RA SCT008 BKN034 BKN041 07/07 A2944 RMK AO2 SLP975 P0001 T00720067=
202112230339 SPECI KPWT 230339Z AUTO 19009G16KT 10SM -RA SCT008 BKN034 07/07 A2945 RMK AO2 P0001=
202112230331 SPECI KPWT 230331Z AUTO 19011G17KT 10SM -RA SCT008 BKN013 BKN026 07/07 A2945 RMK AO2 P0001=
202112230317 SPECI KPWT 230317Z AUTO 20012G17KT 10SM -RA FEW006 SCT027 BKN036 07/06 A2945 RMK AO2 P0000=
202112230256 METAR KPWT 230256Z AUTO 20009KT 10SM -RA FEW006 BKN025 BKN033 07/06 A2946 RMK AO2 RAE15B40 SLP981 P0001 60002 T00670061 58019=
202112230230 SPECI KPWT 230230Z AUTO 19010KT 10SM SCT006 SCT017 BKN027 07/06 A2946 RMK AO2 RAE15 P0001=
202112230156 METAR KPWT 230156Z AUTO 19008KT 10SM -RA OVC006 06/06 A2949 RMK AO2 RAB02E14B30 SLP990 P0001 T00610061=
202112230127 SPECI KPWT 230127Z AUTO 20007KT 10SM BKN006 BKN026 OVC037 06/06 A2949 RMK AO2 RAB02E14 CIG 004V015 P0000=
202112230113 SPECI KPWT 230113Z AUTO 19006KT 10SM -RA SCT006 BKN028 OVC034 06/05 A2949 RMK AO2 RAB02 P0000=
202112230056 METAR KPWT 230056Z AUTO 19007KT 10SM FEW020 BKN028 OVC034 06/05 A2950 RMK AO2 RAE13 SLP996 P0000 T00560050=
202112230040 SPECI KPWT 230040Z AUTO 19008KT 10SM SCT020 BKN028 OVC034 06/05 A2951 RMK AO2 RAE13 P0000=
202112222356 METAR KPWT 222356Z AUTO 21008KT 10SM -RA OVC040 06/06 A2952 RMK AO2 SLP001 P0003 60028 T00610056 10078 20061 56020=
202112222317 SPECI KPWT 222317Z AUTO 21009KT 10SM -RA SCT008 OVC038 06/06 A2953 RMK AO2 P0002=
202112222308 SPECI KPWT 222308Z AUTO 21009KT 10SM -RA SCT008 BKN012 OVC042 06/06 A2954 RMK AO2 P0001=
202112222256 METAR KPWT 222256Z AUTO 20010KT 10SM RA SCT010 SCT016 OVC033 06/06 A2954 RMK AO2 SLP009 P0011 T00610056=
202112222251 SPECI KPWT 222251Z AUTO 20010KT 10SM RA SCT010 BKN016 OVC033 06/06 A2954 RMK AO2 P0010=
202112222248 SPECI KPWT 222248Z AUTO 20011G20KT 10SM RA SCT010 BKN013 OVC033 07/06 A2954 RMK AO2 P0010=
202112222225 SPECI KPWT 222225Z AUTO 20010G18KT 10SM RA FEW008 OVC033 07/06 A2954 RMK AO2 P0006=
202112222156 METAR KPWT 222156Z AUTO 20009G18KT 8SM RA FEW023 OVC030 07/05 A2955 RMK AO2 SLP013 P0013 T00670050=
202112222143 SPECI KPWT 222143Z AUTO 19015G21KT 5SM RA BR SCT009 BKN023 OVC029 07/06 A2956 RMK AO2 P0009=
202112222135 SPECI KPWT 222135Z AUTO 18014G21KT 6SM RA BR BKN009 BKN015 OVC029 07/06 A2957 RMK AO2 CIG 007V013 P0005=
202112222126 SPECI KPWT 222126Z AUTO 18012G19KT 10SM -RA BKN012 BKN018 OVC032 07/06 A2957 RMK AO2 P0001=
202112222111 SPECI KPWT 222111Z AUTO 20011G15KT 10SM -RA BKN017 BKN050 07/06 A2957 RMK AO2 P0000=
202112222056 METAR KPWT 222056Z AUTO 19007KT 10SM -RA FEW017 BKN050 07/06 A2958 RMK AO2 RAB06 SLP021 P0001 60001 T00720061 56019=
202112222023 SPECI KPWT 222023Z AUTO 19011G19KT 10SM -RA SCT014 BKN043 OVC055 08/07 A2959 RMK AO2 RAB06 P0001=
202112221956 METAR KPWT 221956Z AUTO 19012G20KT 10SM BKN014 OVC044 08/07 A2960 RMK AO2 SLP029 T00780067=
202112221948 SPECI KPWT 221948Z AUTO 19012G18KT 10SM SCT010 BKN017 OVC044 08/07 A2961 RMK AO2=
202112221917 SPECI KPWT 221917Z AUTO 19010G14KT 10SM BKN010 BKN013 OVC040 08/07 A2963 RMK AO2 CIG 007V011=
202112221856 METAR KPWT 221856Z AUTO 19008G16KT 10SM OVC008 08/07 A2964 RMK AO2 RAE45 CIG 006V011 SLP040 P0000 T00780072=
202112221756 METAR KPWT 221756Z AUTO 19010G16KT 10SM -RA OVC008 08/07 A2965 RMK AO2 RAE35B54 CIG 005V010 SLP044 P0000 60029 T00780072 10078 20061 58018=
202112221721 SPECI KPWT 221721Z AUTO 19011G17KT 10SM -RA OVC006 07/07 A2966 RMK AO2 CIG 004V009 P0000=
202112221656 METAR KPWT 221656Z AUTO 19011KT 10SM -RA OVC004 07/07 A2967 RMK AO2 SLP052 P0001 T00720067=
202112221556 METAR KPWT 221556Z AUTO 18010G18KT 10SM -RA OVC004 07/07 A2968 RMK AO2 RAB02 SLP057 P0002 T00670067=
202112221456 METAR KPWT 221456Z AUTO 19011KT 10SM OVC004 07/06 A2970 RMK AO2 RAB19E48 SLP063 P0000 60026 T00670061 56017=
202112221356 METAR KPWT 221356Z AUTO 18011KT 10SM OVC004 07/06 A2971 RMK AO2 RAE40 SLP069 P0003 T00670061=
202112221320 SPECI KPWT 221320Z AUTO 19010KT 10SM -RA BKN004 OVC009 07/06 A2972 RMK AO2 CIG 003V008 P0002=
202112221313 SPECI KPWT 221313Z AUTO 18009KT 140V210 10SM -RA BKN006 BKN009 OVC018 06/06 A2972 RMK AO2 CIG 004V008 P0001=
202112221306 SPECI KPWT 221306Z AUTO 18009KT 9SM -RA SCT006 BKN012 OVC020 06/06 A2972 RMK AO2 P0001=
202112221256 METAR KPWT 221256Z AUTO 18007KT 5SM RA BR FEW010 BKN020 OVC029 06/06 A2973 RMK AO2 SLP074 P0023 T00610056=
202112221238 SPECI KPWT 221238Z AUTO 18010KT 9SM RA SCT005 BKN022 OVC033 06/06 A2974 RMK AO2 P0014=
202112221156 METAR KPWT 221156Z AUTO 18009KT 9SM RA BKN005 BKN008 OVC018 07/06 A2975 RMK AO2 SLP081 P0011 60028 70042 T00670061 10067 20056 50000=
202112221122 SPECI KPWT 221122Z AUTO 19009G17KT 10SM -RA BKN005 OVC010 06/06 A2976 RMK AO2 CIG 003V007 P0004=
202112221056 METAR KPWT 221056Z AUTO 19012G17KT 10SM -RA OVC003 06/06 A2977 RMK AO2 SLP089 P0004 T00610061=
202112220956 METAR KPWT 220956Z AUTO 19013G21KT 10SM -RA OVC003 06/06 A2976 RMK AO2 SLP085 P0000 T00610056=
202112220906 SPECI KPWT 220906Z AUTO 19014G23KT 9SM -RA OVC003 06/06 A2975 RMK AO2 P0000=
202112220856 METAR KPWT 220856Z AUTO 19015G19KT 10SM -RA OVC005 06/06 A2975 RMK AO2 RAB21 SLP081 P0001 60013 T00560056 56023=
202112220756 METAR KPWT 220756Z AUTO 19014G18KT 10SM OVC005 06/06 A2976 RMK AO2 RAE41 SLP084 P0002 T00560056 400560011=
202112220656 METAR KPWT 220656Z AUTO 20016G23KT 7SM -RA OVC005 06/05 A2978 RMK AO2 SLP091 P0010 T00560050=
202112220628 SPECI KPWT 220628Z AUTO 20018G24KT 8SM -RA OVC005 06/06 A2980 RMK AO2 P0006=
202112220556 METAR KPWT 220556Z AUTO 20011G21KT 6SM -RA BR OVC003 06/05 A2982 RMK AO2 SLP103 P0009 60014 T00560050 10056 20022 58021=
202112220456 METAR KPWT 220456Z AUTO 20007KT 5SM RA BR OVC003 04/04 A2984 RMK AO2 SLP113 P0004 T00390039=
202112220404 SPECI KPWT 220404Z AUTO 22007KT 3SM -RA BR OVC003 03/03 A2987 RMK AO2 P0001=
202112220356 METAR KPWT 220356Z AUTO 22006KT 2 1/2SM -RA BR OVC003 03/03 A2988 RMK AO2 UPE11B31E34RAB11 SLP125 P0001 T00330033=
202112220347 SPECI KPWT 220347Z AUTO 23006KT 1 3/4SM -RA BR OVC003 03/03 A2988 RMK AO2 UPE11B31E34RAB11 P0001=
202112220336 SPECI KPWT 220336Z AUTO 23007KT 2 1/2SM -RA BR OVC003 03/03 A2989 RMK AO2 UPE11B31E34RAB11 P0000=
202112220305 SPECI KPWT 220305Z AUTO 22006KT 1 1/4SM UP BR OVC003 03/03 A2990 RMK AO2 P0000=
202112220256 METAR KPWT 220256Z AUTO 22005KT 1SM UP BR OVC003 03/03 A2990 RMK AO2 RAE00B26E51UPB51 SLP132 P0000 60000 T00280028 58015=
202112220244 SPECI KPWT 220244Z AUTO 21006KT 1SM -RA BR OVC003 03/03 A2990 RMK AO2 RAE00B26 P0000=
202112220231 SPECI KPWT 220231Z AUTO 22007KT 1 1/2SM -RA BR OVC003 03/02 A2991 RMK AO2 RAE00B26 P0000=
202112220221 SPECI KPWT 220221Z AUTO 22006KT 2SM BR OVC003 03/02 A2991 RMK AO2 RAE00 P0000=
202112220156 METAR KPWT 220156Z AUTO 22006KT 5SM -RA BR OVC003 02/02 A2992 RMK AO2 UPB49E51RAB51 SLP139 P0000 T00220022 FZRANO=
202112220056 METAR KPWT 220056Z AUTO 22005KT 8SM OVC003 02/02 A2994 RMK AO2 SLP147 T00220022 FZRANO=
202112220052 SPECI KPWT 220052Z AUTO 22005KT 7SM OVC003 02/02 A2995 RMK AO2 FZRANO=
202112212356 METAR KPWT 212356Z AUTO 20003KT 9SM OVC005 02/02 A2997 RMK AO2 SLP157 T00220017 10028 20011 58031 FZRANO=
202112212256 METAR KPWT 212256Z AUTO 00000KT 10SM OVC005 02/02 A3001 RMK AO2 SLP171 T00220017 FZRANO=
202112212156 METAR KPWT 212156Z AUTO 00000KT 10SM OVC005 02/02 A3004 RMK AO2 SLP180 T00220017 FZRANO=
202112212149 SPECI KPWT 212149Z AUTO 11003KT 10SM OVC005 02/02 A3004 RMK AO2 FZRANO=
202112212056 METAR KPWT 212056Z AUTO 07003KT 10SM OVC007 03/02 A3006 RMK AO2 SLP189 T00280017 58020=
202112212038 SPECI KPWT 212038Z AUTO 00000KT 10SM OVC007 03/02 A3007 RMK AO2=
202112211956 METAR KPWT 211956Z AUTO 01003KT 10SM OVC005 02/01 A3009 RMK AO2 SLP197 T00220011 FZRANO=
202112211946 SPECI KPWT 211946Z AUTO 00000KT 10SM OVC005 02/01 A3010 RMK AO2 FZRANO=
202112211856 METAR KPWT 211856Z AUTO 04003KT 10SM OVC003 02/01 A3012 RMK AO2 SLP206 T00220011 FZRANO=
202112211756 METAR KPWT 211756Z AUTO 07004KT 4SM BR OVC003 01/01 A3012 RMK AO2 SLP208 T00110011 10017 20011 56005 FZRANO=
202112211737 SPECI KPWT 211737Z AUTO 08003KT 2 1/2SM BR OVC003 01/01 A3013 RMK AO2 VIS 2V5 FZRANO=
202112211711 SPECI KPWT 211711Z AUTO 05005KT 3SM BR OVC003 01/01 A3011 RMK AO2 FZRANO=
202112211703 SPECI KPWT 211703Z AUTO 04005KT 1 3/4SM BR OVC003 01/01 A3011 RMK AO2 CIG 002V006 FZRANO=
202112211656 METAR KPWT 211656Z AUTO 03003KT 4SM BR OVC005 01/01 A3012 RMK AO2 CIG 003V007 SLP206 T00110006 FZRANO=
202112211556 METAR KPWT 211556Z AUTO 00000KT 10SM OVC009 01/00 A3014 RMK AO2 SLP213 T00110000 FZRANO=
202112211456 METAR KPWT 211456Z AUTO 03007KT 10SM OVC009 01/00 A3014 RMK AO2 SLP213 T00110000 56010 FZRANO=
202112211356 METAR KPWT 211356Z AUTO 03008KT 10SM OVC009 01/M01 A3015 RMK AO2 SLP216 T00111006 FZRANO=
202112211347 SPECI KPWT 211347Z AUTO 03010KT 10SM BKN009 01/M01 A3014 RMK AO2 FZRANO=
202112211338 SPECI KPWT 211338Z AUTO 03010KT 10SM SCT009 01/M01 A3014 RMK AO2 FZRANO=
202112211256 METAR KPWT 211256Z AUTO 04013KT 10SM SCT014 01/M02 A3015 RMK AO2 SLP217 T00111017 FZRANO=
202112211210 SPECI KPWT 211210Z AUTO 05007KT 10SM BKN014 BKN027 02/M01 A3018 RMK AO2 FZRANO=
202112211156 METAR KPWT 211156Z AUTO 05007KT 10SM SCT014 BKN027 01/M01 A3017 RMK AO2 SLP224 70001 T00111011 10017 20011 50004 FZRANO=
202112211145 SPECI KPWT 211145Z AUTO 04007KT 10SM BKN014 01/M01 A3016 RMK AO2 FZRANO=
202112211056 METAR KPWT 211056Z AUTO 05006KT 10SM OVC025 02/M01 A3018 RMK AO2 SLP229 T00171006 FZRANO=
202112210956 METAR KPWT 210956Z AUTO 03005KT 10SM OVC018 02/M01 A3018 RMK AO2 SLP229 T00171011 FZRANO=
202112210856 METAR KPWT 210856Z AUTO 05009KT 10SM OVC020 02/M02 A3015 RMK AO2 SLP219 T00171017 58005 FZRANO=
202112210814 SPECI KPWT 210814Z AUTO 03012KT 10SM BKN018 OVC023 02/M02 A3017 RMK AO2 FZRANO=
202112210756 METAR KPWT 210756Z AUTO 03010KT 10SM BKN014 OVC023 02/M02 A3017 RMK AO2 SLP226 T00171022 400280011 FZRANO=
202112210748 SPECI KPWT 210748Z AUTO 03008KT 10SM BKN014 OVC023 02/M02 A3018 RMK AO2 FZRANO=
202112210656 METAR KPWT 210656Z AUTO 04005KT 10SM OVC016 02/M02 A3018 RMK AO2 SLP229 T00171022 FZRANO=
202112210556 METAR KPWT 210556Z AUTO 05006KT 10SM OVC020 02/M03 A3017 RMK AO2 SLP224 60000 T00171028 10022 20017 50010 FZRANO=
202112210456 METAR KPWT 210456Z AUTO 02005KT 10SM OVC020 02/M02 A3017 RMK AO2 SLP225 T00171022 FZRANO=
202112210407 SPECI KPWT 210407Z AUTO 04007KT 10SM BKN024 OVC034 02/M02 A3017 RMK AO2 FZRANO=
202112210356 METAR KPWT 210356Z AUTO 04006KT 10SM SCT026 OVC034 02/M02 A3016 RMK AO2 SLP222 T00171022 FZRANO=
202112210256 METAR KPWT 210256Z AUTO 04010KT 10SM OVC039 02/M02 A3014 RMK AO2 SLP214 60000 T00171022 50013 FZRANO=
202112210156 METAR KPWT 210156Z AUTO 03011KT 10SM OVC032 02/M03 A3014 RMK AO2 SLP216 T00171028 FZRANO=
202112210121 SPECI KPWT 210121Z AUTO 03011KT 10SM SCT022 OVC030 02/M03 A3014 RMK AO2 FZRANO=
202112210056 METAR KPWT 210056Z AUTO 02008KT 10SM OVC022 02/M02 A3013 RMK AO2 RAE28 SLP211 P0000 T00171022 FZRANO=
202112210027 SPECI KPWT 210027Z AUTO 03005KT 10SM -RA BKN024 OVC031 02/M01 A3012 RMK AO2 P0000 FZRANO=
202112202356 METAR KPWT 202356Z AUTO 04007KT 10SM -RA OVC031 02/M01 A3010 RMK AO2 RAB32 SLP202 P0000 60000 T00221006 10028 20011 53012 FZRANO=
202112202256 METAR KPWT 202256Z AUTO 03008KT 10SM FEW030 OVC036 03/M01 A3009 RMK AO2 RAE23 SLP194 P0000 T00281011=
202112202156 METAR KPWT 202156Z AUTO 03007KT 10SM -RA BKN030 03/M01 A3007 RMK AO2 RAB50 SLP190 P0000 T00281011=
202112202056 METAR KPWT 202056Z AUTO 04009KT 10SM OVC032 02/M01 A3007 RMK AO2 SLP190 60000 T00221006 51009 FZRANO=
202112201956 METAR KPWT 201956Z AUTO 03008KT 10SM OVC034 02/M01 A3006 RMK AO2 RAB06E46SNE06 SLP186 P0000 T00221006 FZRANO=
202112201932 SPECI KPWT 201932Z AUTO 04007KT 10SM -RA SCT027 BKN036 02/M01 A3006 RMK AO2 RAB06SNE06 P0000 FZRANO=
202112201856 METAR KPWT 201856Z AUTO 04009KT 3SM -SN BR BKN018 OVC025 01/M01 A3006 RMK AO2 RAE09B28E34SNB09 SLP186 P0000 T00111006 FZRANO=
202112201809 SPECI KPWT 201809Z AUTO 04007KT 6SM -SN BR BKN016 BKN029 OVC037 02/M01 A3005 RMK AO2 RAE09SNB09 P0000 FZRANO=
202112201756 METAR KPWT 201756Z AUTO 04008KT 10SM -RA FEW029 BKN037 02/M01 A3004 RMK AO2 RAB1658E29B49SNE1658 SLP180 P0000 60001 T00171006 10022 20011 53017 FZRANO=
202112201722 SPECI KPWT 201722Z AUTO 03011KT 10SM -RA FEW018 SCT024 02/M01 A3003 RMK AO2 RAB1658SNE1658 P0000 FZRANO=
202112201656 METAR KPWT 201656Z AUTO 04009KT 9SM -SN SCT014 BKN024 OVC030 01/M01 A3001 RMK AO2 RAE01SNB01 SLP171 P0001 T00111006 FZRANO=
202112201643 SPECI KPWT 201643Z AUTO 03008KT 4SM -SN BR BKN015 OVC020 01/M01 A3001 RMK AO2 RAE01SNB01 P0001 FZRANO=
202112201625 SPECI KPWT 201625Z AUTO 03010KT 5SM -SN BR BKN013 OVC020 01/M01 A3001 RMK AO2 RAE01SNB01 P0000 FZRANO=
202112201618 SPECI KPWT 201618Z AUTO 03009KT 3SM -SN BR SCT011 BKN018 OVC023 01/M01 A3000 RMK AO2 RAE01SNB01 P0000 FZRANO=
202112201606 SPECI KPWT 201606Z AUTO 03009KT 2SM -SN BR BKN011 OVC023 01/M01 A3000 RMK AO2 VIS 1 1/4V5 RAE01SNB01 P0000 FZRANO=
202112201556 METAR KPWT 201556Z AUTO 03010G16KT 6SM -RA BKN013 BKN023 OVC029 02/M01 A3000 RMK AO2 RAB04 SLP166 P0000 T00171011 FZRANO=
202112201545 SPECI KPWT 201545Z AUTO 03009G16KT 10SM FEW019 BKN024 OVC028 02/M01 A2999 RMK AO2 RAB04E37 P0000 FZRANO=
202112201456 METAR KPWT 201456Z AUTO 04010KT 10SM CLR 02/M01 A2999 RMK AO2 RAB22E36 SLP162 P0000 60000 T00221011 53002 FZRANO=
202112201356 METAR KPWT 201356Z AUTO 05008KT 10SM SCT070 02/M01 A2998 RMK AO2 SLP160 T00221011 FZRANO=
202112201256 METAR KPWT 201256Z AUTO 05011KT 10SM CLR 02/M01 A2998 RMK AO2 SLP159 T00221006 FZRANO=
202112201156 METAR KPWT 201156Z AUTO 05009KT 10SM FEW080 02/M01 A2998 RMK AO2 SLP159 T00221006 10022 20017 58001 FZRANO=
202112201056 METAR KPWT 201056Z AUTO 05009KT 10SM BKN065 02/M01 A2998 RMK AO2 SLP158 T00221006 FZRANO=
202112200956 METAR KPWT 200956Z AUTO 03008KT 10SM SCT060 BKN100 02/M01 A2998 RMK AO2 SLP161 T00221011 FZRANO=
202112200856 METAR KPWT 200856Z AUTO 04010KT 10SM CLR 02/M01 A2998 RMK AO2 SLP161 T00221011 53002 FZRANO=
202112200756 METAR KPWT 200756Z AUTO 05009KT 10SM SCT060 02/M01 A2998 RMK AO2 SLP158 T00221011 400671006 FZRANO=
202112200656 METAR KPWT 200656Z AUTO 03011KT 10SM SCT060 02/M01 A2997 RMK AO2 SLP157 T00171011 FZRANO=
202112200556 METAR KPWT 200556Z AUTO 05012G16KT 10SM BKN055 02/M01 A2998 RMK AO2 SLP158 T00221006 10044 20017 51006 FZRANO=
202112200456 METAR KPWT 200456Z AUTO 04009KT 10SM CLR 02/M01 A2998 RMK AO2 SLP159 T00221006 FZRANO=
202112200356 METAR KPWT 200356Z AUTO 05009KT 10SM FEW055 02/M01 A2998 RMK AO2 SLP158 T00221006 FZRANO=
202112200256 METAR KPWT 200256Z AUTO 03009KT 10SM CLR 02/00 A2996 RMK AO2 SLP153 T00220000 58000 FZRANO=
202112200156 METAR KPWT 200156Z AUTO 04010KT 10SM CLR 03/01 A2997 RMK AO2 SLP156 T00280011=
202112200056 METAR KPWT 200056Z AUTO 05009KT 10SM CLR 03/02 A2996 RMK AO2 SLP153 T00330017=
202112192356 METAR KPWT 192356Z AUTO 03007KT 10SM CLR 04/02 A2996 RMK AO2 SLP151 T00440022 10067 20033 53003=
202112192256 METAR KPWT 192256Z AUTO 04010G15KT 10SM SCT018 06/03 A2995 RMK AO2 SLP151 T00560028=
202112192233 SPECI KPWT 192233Z AUTO 05011G15KT 10SM BKN018 06/03 A2995 RMK AO2=
202112192156 METAR KPWT 192156Z AUTO 05009KT 10SM SCT016 06/03 A2995 RMK AO2 SLP149 T00610033=
202112192056 METAR KPWT 192056Z AUTO 02008KT 10SM CLR 07/04 A2995 RMK AO2 SLP149 T00670044 58012=
202112191956 METAR KPWT 191956Z AUTO 04008KT 10SM SCT007 05/04 A2997 RMK AO2 SLP156 T00500039=
202112191946 SPECI KPWT 191946Z AUTO 05009KT 10SM FEW007 05/04 A2997 RMK AO2=
202112191856 METAR KPWT 191856Z AUTO 04005KT 10SM CLR 05/04 A2998 RMK AO2 SLP157 T00500039=
202112191756 METAR KPWT 191756Z AUTO 03003KT 10SM FEW018 03/03 A2999 RMK AO2 SLP161 T00330033 10033 21006 53006=
202112191656 METAR KPWT 191656Z AUTO 00000KT 8SM CLR 01/01 A2998 RMK AO2 SLP159 T00060006 FZRANO=
202112191620 SPECI KPWT 191620Z AUTO 00000KT 8SM BKN038 01/01 A2996 RMK AO2 FZRANO=
202112191556 METAR KPWT 191556Z AUTO 00000KT 2SM BR OVC036 00/00 A2996 RMK AO2 VIS 1 1/4V5 SLP154 T00000000 FZRANO=
202112191530 SPECI KPWT 191530Z AUTO 00000KT 10SM FEW002 BKN034 M01/M01 A2996 RMK AO2 FZRANO=
202112191456 METAR KPWT 191456Z AUTO 00000KT 10SM FEW015 OVC030 00/00 A2997 RMK AO2 SLP156 T00000000 50008 FZRANO=
202112191453 SPECI KPWT 191453Z AUTO 00000KT 10SM SCT015 BKN030 00/00 A2997 RMK AO2 FZRANO=
202112191429 SPECI KPWT 191429Z AUTO 00000KT 10SM FEW001 BKN015 00/00 A2996 RMK AO2 FZRANO=
202112191416 SPECI KPWT 191416Z AUTO 00000KT 10SM FEW001 00/00 A2996 RMK AO2 FZRANO=
202112191409 SPECI KPWT 191409Z AUTO 00000KT 2SM BR SCT001 00/00 A2996 RMK AO2 FZRANO=
202112191406 SPECI KPWT 191406Z AUTO 00000KT 1SM BR VV001 00/00 A2995 RMK AO2 FZRANO=
202112191356 METAR KPWT 191356Z AUTO 00000KT 1/2SM FG VV001 00/00 A2995 RMK AO2 SLP150 T00000000 FZRANO=
202112191344 SPECI KPWT 191344Z AUTO 00000KT 1/2SM FG CLR 01/00 A2995 RMK AO2 FZRANO=
202112191331 SPECI KPWT 191331Z AUTO 00000KT 3/4SM BR VV017 01/01 A2995 RMK AO2 FZRANO=
202112191324 SPECI KPWT 191324Z AUTO 00000KT 1SM BR VV017 01/01 A2995 RMK AO2 FZRANO=
202112191314 SPECI KPWT 191314Z AUTO 00000KT 1 1/4SM BR BKN016 02/01 A2994 RMK AO2 VIS 1/2V4 FZRANO=
202112191307 SPECI KPWT 191307Z AUTO 00000KT 2 1/2SM BR SCT016 02/02 A2994 RMK AO2 FZRANO=
202112191256 METAR KPWT 191256Z AUTO 00000KT 10SM BKN016 02/02 A2994 RMK AO2 SLP146 T00220017 FZRANO=
202112191247 SPECI KPWT 191247Z AUTO 00000KT 8SM BKN016 03/02 A2994 RMK AO2=
202112191225 SPECI KPWT 191225Z AUTO 00000KT 10SM SCT007 OVC014 03/03 A2994 RMK AO2=
202112191156 METAR KPWT 191156Z AUTO 35003KT 10SM OVC007 03/03 A2993 RMK AO2 SLP144 70109 T00330028 10033 20028 51007=
202112191056 METAR KPWT 191056Z AUTO 00000KT 10SM OVC007 03/03 A2993 RMK AO2 CIG 003V010 SLP144 T00330033=
202112190956 METAR KPWT 190956Z AUTO 18003KT 10SM OVC004 03/03 A2993 RMK AO2 SLP141 T00330033=
202112190917 SPECI KPWT 190917Z AUTO 23004KT 10SM OVC004 03/03 A2992 RMK AO2 CIG 003V007=
202112190856 METAR KPWT 190856Z AUTO 22005KT 10SM OVC006 03/03 A2991 RMK AO2 SLP136 T00330033 50010=
202112190756 METAR KPWT 190756Z AUTO 21008KT 10SM OVC006 03/03 A2992 RMK AO2 CIG 004V010 SLP137 T00330033 400720028=
202112190656 METAR KPWT 190656Z AUTO 21006KT 10SM OVC004 03/03 A2990 RMK AO2 CIG 003V008 SLP131 T00280028=
202112190606 SPECI KPWT 190606Z AUTO 22003KT 10SM BKN004 03/03 A2988 RMK AO2=
202112190556 METAR KPWT 190556Z AUTO 22003KT 10SM BKN006 03/03 A2988 RMK AO2 SLP126 60000 T00330033 10050 20033 51011=
202112190540 SPECI KPWT 190540Z AUTO 21005KT 10SM FEW006 03/03 A2988 RMK AO2=
202112190456 METAR KPWT 190456Z AUTO 21010KT 10SM CLR 04/03 A2987 RMK AO2 SLP123 T00390033=
202112190356 METAR KPWT 190356Z AUTO 21011KT 10SM CLR 03/03 A2986 RMK AO2 SLP119 T00330033=
202112190256 METAR KPWT 190256Z AUTO 22006KT 10SM CLR 03/03 A2985 RMK AO2 SLP114 60000 T00330028 53015=
202112190156 METAR KPWT 190156Z AUTO 20010G16KT 10SM FEW008 04/03 A2983 RMK AO2 SLP108 T00390033=
202112190148 SPECI KPWT 190148Z AUTO 20011G16KT 10SM FEW006 04/04 A2983 RMK AO2=
202112190056 METAR KPWT 190056Z AUTO 21012G18KT 10SM OVC006 05/04 A2981 RMK AO2 RAE2359 CIG 004V009 SLP102 P0000 T00500044=
202112190003 SPECI KPWT 190003Z AUTO 21014G20KT 10SM BKN008 04/04 A2981 RMK AO2 RAE2359 CIG 005V011 P0000=
202112182356 METAR KPWT 182356Z AUTO 20014G20KT 10SM -RA BKN010 BKN065 05/04 A2981 RMK AO2 PK WND 18026/2331 RAE21B38 CIG 006V012 SLP100 P0001 60033 T00500039 10072 20050 51008=
202112182318 SPECI KPWT 182318Z AUTO 20012G20KT 10SM -RA SCT008 BKN035 BKN048 05/04 A2980 RMK AO2 P0000=
202112182256 METAR KPWT 182256Z AUTO 19014G18KT 10SM -RA BKN008 OVC037 05/04 A2980 RMK AO2 CIG 006V011 SLP098 P0003 T00500044=
202112182254 SPECI KPWT 182254Z AUTO 20012KT 10SM -RA BKN008 OVC039 05/05 A2980 RMK AO2 CIG 006V011 P0003=
202112182246 SPECI KPWT 182246Z AUTO 20009KT 10SM -RA SCT008 OVC039 06/05 A2980 RMK AO2 P0003=
202112182210 SPECI KPWT 182210Z AUTO 22014G20KT 10SM -RA SCT010 OVC035 06/06 A2979 RMK AO2 P0002=
202112182156 METAR KPWT 182156Z AUTO 22012KT 10SM -RA SCT010 BKN025 OVC037 07/06 A2978 RMK AO2 SLP091 P0006 T00670061=
202112182153 SPECI KPWT 182153Z AUTO 22013KT 10SM RA SCT010 BKN025 OVC039 07/06 A2978 RMK AO2 P0006=
202112182140 SPECI KPWT 182140Z AUTO 21009KT 10SM RA FEW006 SCT010 OVC039 07/07 A2977 RMK AO2 P0005=
202112182056 METAR KPWT 182056Z AUTO 19013G18KT 10SM -RA OVC006 07/07 A2974 RMK AO2 PK WND 22032/2007 CIG 004V008 SLP079 P0005 60023 T00720067 55011=
202112181956 METAR KPWT 181956Z AUTO 21018G34KT 5SM -RA BR OVC006 07/07 A2971 RMK AO2 PK WND 22034/1949 SLP067 P0006 T00720067=
202112181856 METAR KPWT 181856Z AUTO 21021G28KT 4SM -RA BR OVC008 07/06 A2975 RMK AO2 PK WND 21032/1829 CIG 005V010 PRESFR SLP079 P0012 T00670061=
202112181756 METAR KPWT 181756Z AUTO 20019G26KT 6SM -RA BR OVC006 06/06 A2978 RMK AO2 PK WND 19028/1723 SLP090 P0013 60076 T00610056 10061 20039 56033=
202112181656 METAR KPWT 181656Z AUTO 20016G29KT 9SM -RA OVC006 06/06 A2981 RMK AO2 PK WND 21029/1651 SLP099 P0011 T00610056=
202112181622 SPECI KPWT 181622Z AUTO 20018G26KT 3SM -RA BR OVC006 06/06 A2983 RMK AO2 PK WND 21026/1622 CIG 004V008 P0005=
202112181556 METAR KPWT 181556Z AUTO 20015G23KT 6SM -RA BR OVC004 06/06 A2983 RMK AO2 SLP109 P0012 T00610056=
202112181456 METAR KPWT 181456Z AUTO 20014G22KT 5SM -RA BR OVC004 06/06 A2987 RMK AO2 SLP123 P0013 60040 T00610056 56036=
202112181356 METAR KPWT 181356Z AUTO 21012KT 5SM -RA BR OVC004 06/06 A2991 RMK AO2 SLP135 P0013 T00560056=
202112181256 METAR KPWT 181256Z AUTO 21003KT 4SM RA BR OVC004 04/04 A2994 RMK AO2 PRESFR SLP143 P0014 T00390039=
202112181156 METAR KPWT 181156Z AUTO 20006KT 3SM RA BR OVC004 04/04 A2998 RMK AO2 SLP160 P0008 60040 70063 T00440044 10044 20033 58039=
202112181056 METAR KPWT 181056Z AUTO 20007KT 5SM -RA BR OVC004 04/04 A3002 RMK AO2 SLP174 P0010 T00390039=
202112180956 METAR KPWT 180956Z AUTO 22008KT 10SM RA OVC004 04/04 A3006 RMK AO2 SLP185 P0006 T00390039=
202112180927 SPECI KPWT 180927Z AUTO 22007KT 4SM RA BR OVC004 04/04 A3008 RMK AO2 CIG 003V007 P0002=
202112180856 METAR KPWT 180856Z AUTO 21009KT 5SM -RA BR OVC006 04/03 A3010 RMK AO2 CIG 004V009 SLP199 P0005 60016 T00390033 58022=
202112180756 METAR KPWT 180756Z AUTO 21009KT 7SM RA OVC006 04/03 A3013 RMK AO2 CIG 004V011 SLP211 P0006 T00390033 400501006=
202112180656 METAR KPWT 180656Z AUTO 21006KT 10SM RA FEW002 BKN009 OVC012 03/03 A3016 RMK AO2 CIG 005V010 SLP219 P0005 T00330033=
202112180653 SPECI KPWT 180653Z AUTO 21006KT 10SM RA SCT002 OVC009 03/03 A3016 RMK AO2 CIG 007V015 P0005=
202112180620 SPECI KPWT 180620Z AUTO 22004KT 6SM -RA BR OVC002 03/03 A3018 RMK AO2 P0001=
202112180556 METAR KPWT 180556Z AUTO 21003KT 7SM -RA BKN004 BKN007 OVC012 03/03 A3018 RMK AO2 SLP227 P0004 60023 T00330033 10039 20033 58019=
202112180554 SPECI KPWT 180554Z AUTO 22004KT 7SM -RA SCT004 OVC012 03/03 A3018 RMK AO2 P0004=
202112180546 SPECI KPWT 180546Z AUTO 21004KT 8SM -RA BKN004 OVC012 03/03 A3019 RMK AO2 CIG 002V008 P0003=
202112180526 SPECI KPWT 180526Z AUTO 19003KT 8SM -RA BKN006 OVC012 03/03 A3019 RMK AO2 CIG 005V010 P0002=
202112180512 SPECI KPWT 180512Z AUTO 00000KT 7SM -RA SCT006 OVC010 03/03 A3020 RMK AO2 CIG 008V012 P0002=
202112180456 METAR KPWT 180456Z AUTO 18003KT 7SM -RA OVC013 03/03 A3020 RMK AO2 SLP235 P0004 T00330033=
202112180356 METAR KPWT 180356Z AUTO 00000KT 6SM -RA BR OVC015 03/03 A3022 RMK AO2 SLP242 P0006 T00330028=
202112180341 SPECI KPWT 180341Z AUTO 00000KT 7SM -RA OVC015 03/03 A3023 RMK AO2 P0004=
202112180256 METAR KPWT 180256Z AUTO 00000KT 7SM RA OVC013 03/03 A3024 RMK AO2 SLP248 P0006 60009 T00330028 56007=
202112180254 SPECI KPWT 180254Z AUTO 00000KT 6SM RA BR OVC013 03/03 A3024 RMK AO2 P0006=
202112180156 METAR KPWT 180156Z AUTO 00000KT 10SM -RA BKN025 03/03 A3025 RMK AO2 RAB07 SLP252 P0003 T00330028=
202112180116 SPECI KPWT 180116Z AUTO 00000KT 9SM -RA SCT022 OVC029 03/03 A3026 RMK AO2 RAB07 P0000=
202112180056 METAR KPWT 180056Z AUTO 00000KT 10SM OVC032 04/03 A3026 RMK AO2 SLP255 T00390028=
202112172356 METAR KPWT 172356Z AUTO 00000KT 10SM OVC030 04/03 A3027 RMK AO2 SLP257 T00390033 10050 20028 56007=
202112172256 METAR KPWT 172256Z AUTO 29003KT 10SM BKN042 04/03 A3027 RMK AO2 SLP259 T00440033=
202112172156 METAR KPWT 172156Z AUTO 21006KT 10SM SCT008 05/03 A3028 RMK AO2 SLP260 T00500033=
202112172056 METAR KPWT 172056Z AUTO 22003KT 10SM OVC006 04/04 A3029 RMK AO2 CIG 003V008 SLP264 T00440039 58012=
202112172033 SPECI KPWT 172033Z AUTO 29003KT 10SM FEW004 BKN009 BKN014 04/04 A3030 RMK AO2 CIG 007V012=
202112172025 SPECI KPWT 172025Z AUTO 29003KT 10SM BKN011 04/03 A3031 RMK AO2=
202112172013 SPECI KPWT 172013Z AUTO 21004KT 10SM FEW008 SCT013 04/03 A3030 RMK AO2=
202112171956 METAR KPWT 171956Z AUTO 18004KT 10SM BKN008 BKN013 04/04 A3030 RMK AO2 CIG 005V011 SLP267 T00440039=
202112171941 SPECI KPWT 171941Z AUTO 19005KT 10SM OVC006 04/04 A3031 RMK AO2 CIG 004V011=
202112171856 METAR KPWT 171856Z AUTO 20004KT 10SM OVC004 04/03 A3032 RMK AO2 SLP276 T00390033=
202112171834 SPECI KPWT 171834Z AUTO VRB03KT 10SM BKN004 BKN037 BKN044 03/03 A3033 RMK AO2=
202112171756 METAR KPWT 171756Z AUTO 00000KT 7SM SCT003 03/03 A3032 RMK AO2 SLP275 T00280028 10028 20000 53008=
202112171749 SPECI KPWT 171749Z AUTO 00000KT 2SM BR BKN003 02/02 A3032 RMK AO2 VIS 1/2V5 FZRANO=
202112171746 SPECI KPWT 171746Z AUTO 00000KT 1SM BR BKN003 02/02 A3032 RMK AO2 VIS 1/2V5 FZRANO=
202112171739 SPECI KPWT 171739Z AUTO 24003KT 1/2SM FG OVC003 02/02 A3032 RMK AO2 FZRANO=
202112171715 SPECI KPWT 171715Z AUTO 23003KT 1/4SM FG OVC003 02/02 A3032 RMK AO2 FZRANO=
202112171705 SPECI KPWT 171705Z AUTO 00000KT 3/4SM BR OVC003 02/02 A3032 RMK AO2 FZRANO=
202112171656 METAR KPWT 171656Z AUTO 00000KT 1/4SM FG OVC003 02/02 A3032 RMK AO2 SLP274 T00220017 FZRANO=
202112171654 SPECI KPWT 171654Z AUTO 16003KT 1/4SM FG OVC003 02/02 A3032 RMK AO2 FZRANO=
202112171649 SPECI KPWT 171649Z AUTO 00000KT 3/4SM BR OVC003 02/02 A3031 RMK AO2 VIS 1/4V5 FZRANO=
202112171646 SPECI KPWT 171646Z AUTO 00000KT 1 1/2SM BR OVC003 02/02 A3031 RMK AO2 VIS 3/4V5 FZRANO=
202112171556 METAR KPWT 171556Z AUTO 00000KT 10SM OVC003 02/02 A3030 RMK AO2 SLP267 T00170017 FZRANO=
202112171535 SPECI KPWT 171535Z AUTO 00000KT 10SM BKN003 BKN013 02/02 A3030 RMK AO2 FZRANO=
202112171526 SPECI KPWT 171526Z AUTO 00000KT 10SM SCT003 BKN013 01/01 A3030 RMK AO2 FZRANO=
202112171456 METAR KPWT 171456Z AUTO 00000KT 8SM BKN011 OVC028 01/01 A3030 RMK AO2 SLP268 T00110011 50009 FZRANO=
202112171356 METAR KPWT 171356Z AUTO 00000KT 10SM OVC011 01/01 A3030 RMK AO2 SLP268 T00110006 FZRANO=
202112171310 SPECI KPWT 171310Z AUTO 00000KT 10SM BKN009 00/00 A3028 RMK AO2 FZRANO=
202112171303 SPECI KPWT 171303Z AUTO 00000KT 10SM BKN011 00/00 A3028 RMK AO2 FZRANO=
202112171256 METAR KPWT 171256Z AUTO 00000KT 10SM SCT011 00/00 A3028 RMK AO2 SLP261 T00000000 FZRANO=
202112171236 SPECI KPWT 171236Z AUTO 00000KT 10SM BKN011 00/00 A3028 RMK AO2 FZRANO=
202112171156 METAR KPWT 171156Z AUTO 00000KT 10SM BKN009 BKN049 00/00 A3027 RMK AO2 SLP260 70001 T00000000 10028 21006 50012 FZRANO=
202112171151 SPECI KPWT 171151Z AUTO 00000KT 10SM SCT009 SCT049 00/M01 A3028 RMK AO2 FZRANO=
202112171126 SPECI KPWT 171126Z AUTO 00000KT 3SM BR CLR 00/M01 A3027 RMK AO2 FZRANO=
202112171119 SPECI KPWT 171119Z AUTO 00000KT 1 3/4SM BR CLR 00/00 A3027 RMK AO2 FZRANO=
202112171056 METAR KPWT 171056Z AUTO 00000KT 10SM SCT037 SCT050 01/01 A3026 RMK AO2 SLP255 T00060006 FZRANO=
202112170956 METAR KPWT 170956Z AUTO 00000KT 10SM FEW035 OVC050 01/01 A3024 RMK AO2 SLP247 T00110011 FZRANO=
202112170856 METAR KPWT 170856Z AUTO 00000KT 10SM OVC031 01/01 A3022 RMK AO2 SLP241 T00110011 51016 FZRANO=
202112170821 SPECI KPWT 170821Z AUTO 00000KT 10SM OVC031 01/01 A3022 RMK AO2 FZRANO=
202112170756 METAR KPWT 170756Z AUTO 00000KT 10SM BKN029 OVC034 01/01 A3021 RMK AO2 SLP238 T00060006 400440006 FZRANO=
202112170748 SPECI KPWT 170748Z AUTO 00000KT 10SM BKN029 OVC034 01/01 A3021 RMK AO2 FZRANO=
202112170732 SPECI KPWT 170732Z AUTO 00000KT 3SM BR BKN034 OVC047 01/00 A3020 RMK AO2 FZRANO=
202112170724 SPECI KPWT 170724Z AUTO 00000KT 1 3/4SM BR BKN034 BKN047 01/00 A3020 RMK AO2 VIS 1V4 FZRANO=
202112170656 METAR KPWT 170656Z AUTO 00000KT 10SM CLR 01/01 A3019 RMK AO2 SLP231 T00110011 FZRANO=
202112170637 SPECI KPWT 170637Z AUTO 00000KT 10SM SCT027 02/02 A3018 RMK AO2 FZRANO=
202112170617 SPECI KPWT 170617Z AUTO 00000KT 10SM BKN027 OVC049 03/02 A3018 RMK AO2=
202112170607 SPECI KPWT 170607Z AUTO 04003KT 9SM SCT027 OVC047 03/03 A3017 RMK AO2=
202112170556 METAR KPWT 170556Z AUTO 00000KT 10SM BKN027 OVC047 03/03 A3017 RMK AO2 SLP225 60001 T00280028 10039 20028 51028=
202112170456 METAR KPWT 170456Z AUTO 36004KT 10SM FEW018 BKN023 OVC047 03/03 A3015 RMK AO2 RAE19 SLP216 P0000 T00280028=
202112170446 SPECI KPWT 170446Z AUTO 01004KT 10SM SCT018 BKN023 BKN045 03/02 A3014 RMK AO2 RAE19 P0000=
202112170425 SPECI KPWT 170425Z AUTO 04004KT 10SM FEW010 SCT016 BKN030 03/03 A3013 RMK AO2 RAE19 P0000=
202112170356 METAR KPWT 170356Z AUTO 03005KT 10SM -RA FEW010 BKN016 OVC033 03/03 A3013 RMK AO2 SLP208 P0000 T00330033=
202112170322 SPECI KPWT 170322Z AUTO 03007KT 10SM -RA BKN023 BKN028 BKN035 04/03 A3010 RMK AO2 P0000=
202112170256 METAR KPWT 170256Z AUTO 05006KT 10SM -RA SCT024 BKN033 04/03 A3009 RMK AO2 RAB12 SLP196 P0001 60001 T00390033 51018=
202112170156 METAR KPWT 170156Z AUTO 04007KT 10SM FEW004 OVC026 04/03 A3006 RMK AO2 SLP186 T00390033=
202112170112 SPECI KPWT 170112Z AUTO 08003KT 10SM BKN028 OVC036 03/02 A3004 RMK AO2=
202112170056 METAR KPWT 170056Z AUTO 00000KT 8SM FEW028 BKN036 03/02 A3004 RMK AO2 SLP179 T00280022=
202112170041 SPECI KPWT 170041Z AUTO 02003KT 10SM SCT028 BKN036 03/03 A3003 RMK AO2=
202112170017 SPECI KPWT 170017Z AUTO 00000KT 10SM OVC028 04/03 A3003 RMK AO2=
202112162356 METAR KPWT 162356Z AUTO 00000KT 10SM OVC032 04/03 A3002 RMK AO2 SLP174 T00390033 10044 20033 53015=
202112162256 METAR KPWT 162256Z AUTO 00000KT 10SM SCT004 04/03 A3001 RMK AO2 SLP168 T00390028=
202112162156 METAR KPWT 162156Z AUTO 00000KT 10SM OVC004 04/03 A2999 RMK AO2 SLP162 T00390033=
202112162056 METAR KPWT 162056Z AUTO 24003KT 10SM OVC004 04/04 A2998 RMK AO2 SLP158 T00390039 53006=
202112161956 METAR KPWT 161956Z AUTO 19003KT 10SM OVC004 04/03 A2997 RMK AO2 SLP155 T00390033=
202112161856 METAR KPWT 161856Z AUTO 21003KT 10SM OVC004 03/03 A2996 RMK AO2 SLP152 T00330033=
202112161756 METAR KPWT 161756Z AUTO 20003KT 10SM OVC008 03/03 A2995 RMK AO2 SLP149 T00330028 10033 20017 53016=
202112161718 SPECI KPWT 161718Z AUTO 18004KT 10SM OVC008 03/02 A2993 RMK AO2=
202112161656 METAR KPWT 161656Z AUTO 19004KT 10SM OVC010 03/02 A2993 RMK AO2 SLP142 T00280022=
202112161627 SPECI KPWT 161627Z AUTO 00000KT 10SM SCT004 BKN012 BKN017 02/02 A2992 RMK AO2 FZRANO=
202112161604 SPECI KPWT 161604Z AUTO 20003KT 10SM FEW004 BKN016 02/02 A2991 RMK AO2 FZRANO=
202112161556 METAR KPWT 161556Z AUTO 18003KT 10SM OVC016 02/02 A2991 RMK AO2 SLP135 T00220022 FZRANO=
202112161549 SPECI KPWT 161549Z AUTO 00000KT 10SM OVC016 02/02 A2991 RMK AO2 FZRANO=
202112161538 SPECI KPWT 161538Z AUTO 00000KT 10SM FEW002 BKN014 OVC019 02/02 A2991 RMK AO2 FZRANO=
202112161517 SPECI KPWT 161517Z AUTO 00000KT 9SM SCT002 OVC019 02/02 A2991 RMK AO2 FZRANO=
202112161502 SPECI KPWT 161502Z AUTO 00000KT 3SM BR BKN002 OVC019 02/02 A2990 RMK AO2 FZRANO=
202112161458 SPECI KPWT 161458Z AUTO 00000KT 1 1/4SM BR BKN002 OVC019 02/02 A2990 RMK AO2 FZRANO=
202112161456 METAR KPWT 161456Z AUTO 00000KT 3/4SM BR BKN002 OVC019 02/02 A2990 RMK AO2 SLP133 T00220017 51015 FZRANO=
202112161447 SPECI KPWT 161447Z AUTO 18003KT 3/4SM BR OVC002 02/02 A2990 RMK AO2 FZRANO=
202112161444 SPECI KPWT 161444Z AUTO 18003KT 1 1/2SM BR BKN002 OVC024 02/02 A2990 RMK AO2 FZRANO=
202112161439 SPECI KPWT 161439Z AUTO 00000KT 6SM BR BKN002 BKN024 02/02 A2990 RMK AO2 FZRANO=
202112161428 SPECI KPWT 161428Z AUTO 00000KT 10SM SCT002 BKN024 02/02 A2990 RMK AO2 FZRANO=
202112161356 METAR KPWT 161356Z AUTO 00000KT 10SM FEW014 OVC024 02/02 A2989 RMK AO2 SLP128 T00170017 FZRANO=
202112161329 SPECI KPWT 161329Z AUTO 00000KT 10SM FEW001 SCT014 OVC022 02/02 A2989 RMK AO2 FZRANO=
202112161256 METAR KPWT 161256Z AUTO 29003KT 10SM OVC022 02/02 A2987 RMK AO2 SLP123 T00170017 FZRANO=
202112161156 METAR KPWT 161156Z AUTO 00000KT 10SM OVC026 02/02 A2986 RMK AO2 SLP118 60002 7//// T00170017 10022 20017 51014 FZRANO=
202112161056 METAR KPWT 161056Z AUTO 00000KT 10SM OVC028 02/02 A2985 RMK AO2 SLP115 T00170017 FZRANO=
202112160956 METAR KPWT 160956Z AUTO 00000KT 10SM FEW003 BKN019 OVC028 02/02 A2983 RMK AO2 SLP109 T00170017 FZRANO=
202112160928 SPECI KPWT 160928Z AUTO 00000KT 10SM FEW003 OVC021 02/02 A2983 RMK AO2 FZRANO=
202112160921 SPECI KPWT 160921Z AUTO 00000KT 2 1/2SM BR SCT003 OVC021 02/02 A2983 RMK AO2 FZRANO=
202112160911 SPECI KPWT 160911Z AUTO 27003KT 1 1/2SM BR BKN003 BKN021 02/02 A2982 RMK AO2 FZRANO=
202112160902 SPECI KPWT 160902Z AUTO 32003KT 2 1/2SM BR BKN003 02/02 A2982 RMK AO2 FZRANO=
202112160856 METAR KPWT 160856Z AUTO 33003KT 6SM BR SCT003 02/02 A2982 RMK AO2 UPE04 SLP103 P0000 60002 T00170017 51013 FZRANO=
202112160756 METAR KPWT 160756Z AUTO 00000KT 5SM UP BR CLR 02/02 A2981 RMK AO2 RAE22UPB22 SLP102 P0001 T00220017 400390011 FZRANO=
202112160656 METAR KPWT 160656Z AUTO 00000KT 9SM -RA CLR 02/01 A2980 RMK AO2 SLP098 P0001 T00170011 FZRANO=
202112160556 METAR KPWT 160556Z AUTO 00000KT 9SM -RA CLR 02/01 A2978 RMK AO2 UPB03E08 SLP091 P0002 6//// T00170011 10028 20011 52020 FZRANO=
202112160456 METAR KPWT 160456Z AUTO 00000KT 10SM -RA CLR 02/01 A2976 RMK AO2 SLP085 T00170006 FZRANO=
202112160356 METAR KPWT 160356Z AUTO 03003KT 5SM RA BR CLR 02/01 A2974 RMK AO2 SLP078 P0008 T00170011 FZRANO=
202112160256 METAR KPWT 160256Z AUTO 05003KT 10SM RA CLR 02/02 A2972 RMK AO2 SLP072 P0004 60006 T00220017 53007 FZRANO=
202112160156 METAR KPWT 160156Z AUTO 02003KT 10SM -RA CLR 03/02 A2970 RMK AO2 SLP066 P0001 T00280022=
202112160056 METAR KPWT 160056Z AUTO 02004KT 10SM -RA CLR 02/02 A2970 RMK AO2 SLP063 P0001 T00220017 FZRANO=
202112152356 METAR KPWT 152356Z AUTO 01004KT 10SM -RA CLR 02/02 A2970 RMK AO2 SLP063 P0003 60026 T00220017 10039 20017 56005 FZRANO=
202112152334 SPECI KPWT 152334Z AUTO 04005KT 10SM -RA FEW024 02/02 A2970 RMK AO2 P0002 FZRANO=
202112152307 SPECI KPWT 152307Z AUTO 05004KT 9SM -RA SCT007 SCT019 BKN025 02/01 A2970 RMK AO2 P0001 FZRANO=
202112152256 METAR KPWT 152256Z AUTO 05004KT 7SM -RA BKN007 BKN014 BKN018 02/02 A2970 RMK AO2 SLP063 P0006 T00220017 FZRANO=
202112152219 SPECI KPWT 152219Z AUTO 05004KT 9SM RA FEW009 03/02 A2970 RMK AO2 P0002=
202112152206 SPECI KPWT 152206Z AUTO VRB03KT 5SM -RA BR FEW011 03/02 A2970 RMK AO2 P0001=
202112152156 METAR KPWT 152156Z AUTO 00000KT 7SM RA SCT011 BKN019 03/02 A2970 RMK AO2 SLP064 P0008 T00280017=
202112152146 SPECI KPWT 152146Z AUTO 00000KT 6SM RA BR SCT009 BKN014 BKN019 03/02 A2970 RMK AO2 P0006=
202112152107 SPECI KPWT 152107Z AUTO VRB03KT 8SM RA OVC009 03/02 A2971 RMK AO2 CIG 007V012 P0002=
202112152056 METAR KPWT 152056Z AUTO 00000KT 7SM RA BKN011 03/02 A2971 RMK AO2 CIG 007V012 SLP068 P0005 60009 T00330022 56013=
202112151956 METAR KPWT 151956Z AUTO 35003KT 10SM -RA FEW034 03/02 A2972 RMK AO2 SLP069 P0003 T00330022=
202112151942 SPECI KPWT 151942Z AUTO 04003KT 10SM -RA FEW017 SCT023 BKN034 03/02 A2972 RMK AO2 P0003=
202112151856 METAR KPWT 151856Z AUTO VRB05KT 10SM -RA OVC017 03/02 A2974 RMK AO2 RAB07 SLP078 P0001 T00330017=
202112151825 SPECI KPWT 151825Z AUTO 18007KT 10SM -RA FEW016 BKN021 OVC032 04/02 A2976 RMK AO2 RAB07 P0000=
202112151756 METAR KPWT 151756Z AUTO 04005KT 10SM OVC034 03/02 A2975 RMK AO2 UPB30E42RAB42E43 SLP081 P0000 60000 T00330022 10033 20017 58007=
202112151656 METAR KPWT 151656Z AUTO 00000KT 10SM FEW050 02/02 A2977 RMK AO2 SLP087 T00220022 FZRANO=
202112151556 METAR KPWT 151556Z AUTO 00000KT 10SM CLR 02/02 A2976 RMK AO2 SLP086 T00170017 FZRANO=
202112151456 METAR KPWT 151456Z AUTO 00000KT 10SM CLR 02/01 A2977 RMK AO2 SLP089 T00170011 56004 FZRANO=
202112151356 METAR KPWT 151356Z AUTO 00000KT 10SM BKN039 02/01 A2978 RMK AO2 SLP091 T00170011 FZRANO=
202112151256 METAR KPWT 151256Z AUTO 00000KT 10SM SCT036 BKN055 02/02 A2978 RMK AO2 SLP091 T00220017 FZRANO=
202112151156 METAR KPWT 151156Z AUTO 22005KT 10SM CLR 03/02 A2979 RMK AO2 RAB04E23UPB32E43 SLP093 P0000 60002 7//// T00280022 10028 20022 58005=
202112151056 METAR KPWT 151056Z AUTO 19006KT 10SM FEW030 BKN042 03/02 A2980 RMK AO2 RAE55 SLP096 P0000 T00280022=
202112151037 SPECI KPWT 151037Z AUTO 20005KT 10SM -RA FEW026 SCT033 03/02 A2980 RMK AO2 P0000=
202112151011 SPECI KPWT 151011Z AUTO 19007KT 10SM -RA BKN024 BKN030 OVC035 03/02 A2980 RMK AO2 P0000=
202112150956 METAR KPWT 150956Z AUTO 20006KT 10SM -RA FEW022 OVC033 03/02 A2980 RMK AO2 RAB07 SLP097 P0000 T00280022=
202112150935 SPECI KPWT 150935Z AUTO 20006KT 10SM SCT022 BKN033 OVC043 03/02 A2980 RMK AO2 RAB07E31 P0000=
202112150905 SPECI KPWT 150905Z AUTO 20005KT 10SM BKN022 OVC037 03/02 A2980 RMK AO2=
202112150856 METAR KPWT 150856Z AUTO 20005KT 10SM SCT022 OVC035 03/02 A2980 RMK AO2 RAE12UPB12E27 SLP098 P0000 60002 T00280017 58005=
202112150807 SPECI KPWT 150807Z AUTO 19005KT 10SM -RA SCT019 OVC033 02/02 A2981 RMK AO2 P0000 FZRANO=
202112150756 METAR KPWT 150756Z AUTO 19005KT 10SM -RA BKN019 OVC033 02/02 A2981 RMK AO2 RAE35B53 SLP102 P0001 T00220017 400280000 FZRANO=
202112150720 SPECI KPWT 150720Z AUTO 19005KT 10SM -RA BKN016 OVC020 02/02 A2982 RMK AO2 P0001 FZRANO=
202112150656 METAR KPWT 150656Z AUTO 20005KT 10SM -RA BKN014 OVC021 02/02 A2982 RMK AO2 UPB01E15RAB20 SLP104 P0001 T00220017 FZRANO=
202112150556 METAR KPWT 150556Z AUTO 19006KT 10SM BKN016 BKN028 02/02 A2981 RMK AO2 UPB13E33 SLP104 P0000 60009 T00220022 10028 20011 50001 FZRANO=
202112150554 SPECI KPWT 150554Z AUTO 19006KT 10SM BKN016 BKN028 02/02 A2982 RMK AO2 UPB13E33 P0000 FZRANO=
202112150456 METAR KPWT 150456Z AUTO 20006KT 10SM OVC010 02/02 A2982 RMK AO2 RAE40UPB40E51 SLP104 P0000 T00220022 FZRANO=
202112150448 SPECI KPWT 150448Z AUTO 20005KT 10SM UP BKN010 OVC013 02/02 A2981 RMK AO2 RAE40UPB40 CIG 005V011 P0000 FZRANO=
202112150424 SPECI KPWT 150424Z AUTO 19006KT 10SM -RA OVC007 03/02 A2981 RMK AO2 CIG 005V010 P0000=
202112150356 METAR KPWT 150356Z AUTO 19009G14KT 8SM -RA BKN005 OVC010 02/02 A2981 RMK AO2 CIG 002V008 SLP103 P0003 T00220017 FZRANO=
202112150340 SPECI KPWT 150340Z AUTO 24006KT 10SM -RA OVC007 02/02 A2982 RMK AO2 CIG 002V011 P0001 FZRANO=
202112150331 SPECI KPWT 150331Z AUTO 20007KT 10SM -RA OVC005 02/02 A2981 RMK AO2 CIG 002V008 P0001 FZRANO=
202112150256 METAR KPWT 150256Z AUTO 23004KT 9SM -RA OVC003 02/02 RMK AO2 SLPNO P0002 60006 T00170017 FZRANO $=
202112150156 METAR KPWT 150156Z AUTO 26004KT 8SM -RA OVC003 02/01 A2981 RMK AO2 SLP102 P0002 T00170011 FZRANO=
202112150056 METAR KPWT 150056Z AUTO 23007KT 7SM -RA OVC003 02/01 A2981 RMK AO2 SLP102 P0002 T00170011 FZRANO=
202112150031 SPECI KPWT 150031Z AUTO 22008KT 8SM -RA OVC003 02/02 A2981 RMK AO2 P0001 FZRANO=
202112142356 METAR KPWT 142356Z AUTO 23007KT 6SM -RA BR OVC005 02/02 A2980 RMK AO2 CIG 003V009 SLP099 P0006 60016 T00220022 10022 20017 53005 FZRANO=
202112142256 METAR KPWT 142256Z AUTO 21005KT 9SM -RA OVC007 02/02 A2979 RMK AO2 CIG 005V011 SLP094 P0003 T00220017 FZRANO=
202112142228 SPECI KPWT 142228Z AUTO 18006KT 10SM -RA OVC007 02/02 A2979 RMK AO2 CIG 005V009 P0001 FZRANO=
202112142156 METAR KPWT 142156Z AUTO 17004KT 10SM -RA OVC005 02/02 A2978 RMK AO2 CIG 004V008 SLP093 P0003 T00220017 FZRANO=
202112142141 SPECI KPWT 142141Z AUTO VRB04KT 10SM -RA OVC005 02/02 A2978 RMK AO2 P0002 FZRANO=
202112142056 METAR KPWT 142056Z AUTO 18004KT 10SM -RA OVC007 02/02 A2979 RMK AO2 CIG 005V011 SLP094 P0003 60004 T00220017 50000 FZRANO=
202112141956 METAR KPWT 141956Z AUTO 20006KT 10SM -RA OVC007 02/02 A2979 RMK AO2 CIG 005V011 SLP095 P0001 T00220022 FZRANO=
202112141856 METAR KPWT 141856Z AUTO 20006KT 10SM -RA OVC007 02/02 A2979 RMK AO2 RAB04 CIG 005V011 SLP097 P0000 T00220017 FZRANO=
202112141808 SPECI KPWT 141808Z AUTO 20006KT 10SM -RA OVC007 02/02 A2979 RMK AO2 RAB04 P0000 FZRANO=
202112141756 METAR KPWT 141756Z AUTO 21006KT 10SM OVC005 02/02 A2979 RMK AO2 UPB1657E1659RAB1659E47 CIG 004V009 SLP094 P0000 6//// T00170017 10017 20000 53016 FZRANO=
202112141745 SPECI KPWT 141745Z AUTO 21006KT 10SM -RA OVC005 02/01 A2978 RMK AO2 UPB1657E1659RAB1659 CIG 004V009 P0000 FZRANO=
202112141656 METAR KPWT 141656Z AUTO 20006KT 10SM BKN007 OVC010 01/01 A2977 RMK AO2 CIG 004V008 SLP087 T00110011 FZRANO=
202112141649 SPECI KPWT 141649Z AUTO 20005KT 10SM BKN007 OVC010 01/01 A2977 RMK AO2 CIG 004V008 FZRANO=
202112141639 SPECI KPWT 141639Z AUTO 20005KT 10SM BKN010 OVC014 01/01 A2976 RMK AO2 CIG 004V012 FZRANO=
202112141604 SPECI KPWT 141604Z AUTO 20005KT 10SM FEW003 BKN009 01/00 A2975 RMK AO2 CIG 006V011 FZRANO=
202112141556 METAR KPWT 141556Z AUTO 20006KT 10SM FEW003 SCT009 00/00 A2974 RMK AO2 SLP078 T00000000 FZRANO=
202112141551 SPECI KPWT 141551Z AUTO 20006KT 10SM SCT003 00/M01 A2974 RMK AO2 FZRANO=
202112141522 SPECI KPWT 141522Z AUTO 22004KT 10SM BKN003 00/00 A2973 RMK AO2 FZRANO=
202112141456 METAR KPWT 141456Z AUTO 22006KT 10SM OVC005 01/01 A2972 RMK AO2 SLP072 T00060006 51020 FZRANO=
202112141356 METAR KPWT 141356Z AUTO 22007KT 10SM OVC005 01/01 A2970 RMK AO2 SLP064 T00110011 FZRANO=
202112141256 METAR KPWT 141256Z AUTO 22004KT 10SM OVC005 01/01 A2968 RMK AO2 CIG 003V008 SLP057 T00110011 FZRANO=
202112141208 SPECI KPWT 141208Z AUTO 20003KT 10SM OVC005 01/01 A2967 RMK AO2 CIG 004V008 FZRANO=
202112141156 METAR KPWT 141156Z AUTO 19004KT 10SM BKN007 01/01 A2966 RMK AO2 CIG 004V009 SLP050 60001 7//// T00110006 10028 20011 51022 FZRANO=
202112141146 SPECI KPWT 141146Z AUTO 19005KT 10SM BKN007 01/01 A2966 RMK AO2 FZRANO=
202112141110 SPECI KPWT 141110Z AUTO 20008KT 10SM FEW009 SCT027 BKN100 01/01 A2964 RMK AO2 FZRANO=
202112141056 METAR KPWT 141056Z AUTO 21010KT 10SM FEW029 SCT100 02/01 A2964 RMK AO2 RAB07E47UPB47E54 SLP043 P0000 T00170011 FZRANO=
202112140956 METAR KPWT 140956Z AUTO 20010KT 10SM CLR 02/02 A2962 RMK AO2 UPB07E09RAB09E31 SLP035 P0001 T00170017 FZRANO=
202112140938 SPECI KPWT 140938Z AUTO 21008KT 10SM FEW010 SCT023 02/02 A2961 RMK AO2 UPB07E09RAB09E31 P0001 FZRANO=
202112140931 SPECI KPWT 140931Z AUTO 21010KT 10SM FEW006 SCT010 BKN023 02/02 A2960 RMK AO2 UPB07E09RAB09E31 P0001 FZRANO=
202112140922 SPECI KPWT 140922Z AUTO 20010KT 10SM -RA SCT006 BKN010 OVC022 02/02 A2960 RMK AO2 UPB07E09RAB09 CIG 009V012 P0000 FZRANO=
202112140856 METAR KPWT 140856Z AUTO 23008KT 10SM BKN006 BKN020 BKN031 02/02 A2959 RMK AO2 UPB33E56 CIG 004V007 SLP027 P0000 60000 T00220022 51025 FZRANO=
202112140811 SPECI KPWT 140811Z AUTO 23007KT 10SM BKN006 BKN010 BKN020 02/02 A2959 RMK AO2 FZRANO=
202112140756 METAR KPWT 140756Z AUTO 20008KT 10SM SCT008 BKN015 BKN019 02/02 A2958 RMK AO2 SLP022 T00220022 400440011 FZRANO=
202112140739 SPECI KPWT 140739Z AUTO 21006KT 10SM FEW006 OVC021 02/02 A2957 RMK AO2 FZRANO=
202112140709 SPECI KPWT 140709Z AUTO 20008KT 10SM BKN025 02/02 A2955 RMK AO2 FZRANO=
202112140656 METAR KPWT 140656Z AUTO 20009KT 10SM SCT025 02/02 A2955 RMK AO2 SLP012 T00220022 FZRANO=
202112140626 SPECI KPWT 140626Z AUTO 21009KT 10SM SCT017 SCT025 02/02 A2954 RMK AO2 FZRANO=
202112140610 SPECI KPWT 140610Z AUTO 21012KT 10SM BKN017 02/02 A2953 RMK AO2 FZRANO=
202112140556 METAR KPWT 140556Z AUTO 20011KT 10SM FEW017 02/02 A2952 RMK AO2 RAE05 SLP003 P0000 6//// T00220022 10039 20022 51023 FZRANO=
202112140542 SPECI KPWT 140542Z AUTO 20013KT 10SM FEW014 03/02 A2951 RMK AO2 RAE05 P0000=
202112140510 SPECI KPWT 140510Z AUTO 21012KT 10SM FEW007 OVC014 03/03 A2949 RMK AO2 RAE05 P0000=
202112140456 METAR KPWT 140456Z AUTO 20011G20KT 10SM -RA BKN009 OVC016 03/03 A2949 RMK AO2 CIG 006V012 SLP992 P0001 T00330033=
202112140445 SPECI KPWT 140445Z AUTO 21014G17KT 10SM -RA SCT007 BKN012 OVC018 04/03 A2948 RMK AO2 P0001=
202112140437 SPECI KPWT 140437Z AUTO 20009G17KT 10SM -RA BKN007 BKN011 OVC016 04/03 A2948 RMK AO2 CIG 005V010 P0001=
202112140427 SPECI KPWT 140427Z AUTO 20009KT 10SM SCT007 BKN011 OVC021 04/03 A2947 RMK AO2 RAE24 P0001=
202112140420 SPECI KPWT 140420Z AUTO 19011KT 10SM -RA SCT007 BKN016 OVC025 04/03 A2947 RMK AO2 P0001=
202112140406 SPECI KPWT 140406Z AUTO 19010KT 10SM -RA BKN009 OVC016 04/03 A2946 RMK AO2 CIG 006V014 P0000=
202112140356 METAR KPWT 140356Z AUTO 19010KT 10SM -RA BKN010 OVC015 04/03 A2945 RMK AO2 RAB42 CIG 006V013 SLP979 T00390033=
202112140345 SPECI KPWT 140345Z AUTO 19007KT 10SM -RA BKN010 BKN014 OVC020 04/03 A2944 RMK AO2 RAB42 CIG 006V013=
202112140256 METAR KPWT 140256Z AUTO 19007KT 10SM OVC009 04/03 A2942 RMK AO2 RAE43 CIG 005V013 SLP967 P0001 60005 T00390033 51019=
202112140221 SPECI KPWT 140221Z AUTO 19011G17KT 10SM -RA BKN007 OVC012 04/03 A2941 RMK AO2 CIG 004V009 P0001=
202112140156 METAR KPWT 140156Z AUTO 21006KT 10SM -RA BKN004 OVC008 04/03 A2940 RMK AO2 CIG 002V007 SLP962 P0002 T00390033=
202112140148 SPECI KPWT 140148Z AUTO 21005KT 10SM -RA BKN004 OVC008 04/03 A2940 RMK AO2 CIG 002V006 P0002=
202112140131 SPECI KPWT 140131Z AUTO 22003KT 7SM -RA SCT005 OVC013 04/03 A2939 RMK AO2 P0002=
202112140129 SPECI KPWT 140129Z AUTO 00000KT 7SM -RA BKN005 OVC013 04/03 A2939 RMK AO2 CIG 003V008 P0002=
202112140109 SPECI KPWT 140109Z AUTO 20003KT 9SM -RA FEW004 BKN010 OVC016 03/03 A2939 RMK AO2 CIG 007V012 P0001=
202112140056 METAR KPWT 140056Z AUTO 19003KT 8SM -RA SCT010 OVC016 04/03 A2938 RMK AO2 SLP956 P0002 T00390033=
202112140044 SPECI KPWT 140044Z AUTO 18004KT 5SM -RA BR OVC014 04/03 A2938 RMK AO2 P0001=
202112132356 METAR KPWT 132356Z AUTO 00000KT 10SM -RA BKN022 BKN027 04/03 A2936 RMK AO2 RAE23B53 SLP948 P0000 60001 T00390033 10044 20022 53005=
202112132351 SPECI KPWT 132351Z AUTO 00000KT 10SM SCT022 BKN027 BKN042 04/03 A2935 RMK AO2 RAE23 P0000=
202112132318 SPECI KPWT 132318Z AUTO 04003KT 10SM -RA SCT025 BKN032 BKN045 04/03 A2935 RMK AO2 P0000=
202112132256 METAR KPWT 132256Z AUTO 05005KT 9SM -RA BKN027 OVC033 04/03 A2935 RMK AO2 SLP944 P0001 T00390033=
202112132248 SPECI KPWT 132248Z AUTO 06005KT 10SM -RA BKN029 OVC035 04/03 A2935 RMK AO2 P0001=
202112132238 SPECI KPWT 132238Z AUTO 05006KT 10SM -RA FEW007 OVC033 04/04 A2934 RMK AO2 P0001=
202112132156 METAR KPWT 132156Z AUTO 06006KT 10SM -RA FEW035 04/04 A2934 RMK AO2 RAB04 SLP942 P0000 T00440039=
202112132056 METAR KPWT 132056Z AUTO 00000KT 10SM FEW045 04/04 A2936 RMK AO2 SLP949 T00390039 58022=
202112131956 METAR KPWT 131956Z AUTO 00000KT 10SM CLR 04/03 A2939 RMK AO2 SLP957 T00390033=
202112131856 METAR KPWT 131856Z AUTO 09003KT 10SM CLR 03/03 A2944 RMK AO2 SLP975 T00330028=
202112131756 METAR KPWT 131756Z AUTO 31003KT 10SM CLR 02/02 A2943 RMK AO2 SLP973 60004 T00220022 10022 20011 58021 FZRANO=
202112131656 METAR KPWT 131656Z AUTO 00000KT 10SM FEW050 01/01 A2946 RMK AO2 SLP982 T00110006 FZRANO=
202112131631 SPECI KPWT 131631Z AUTO 00000KT 3SM BR BKN055 01/01 A2946 RMK AO2 FZRANO=
202112131624 SPECI KPWT 131624Z AUTO 00000KT 1 3/4SM BR BKN055 01/01 A2947 RMK AO2 VIS 1/2V4 FZRANO=
202112131622 SPECI KPWT 131622Z AUTO 00000KT 3SM BR BKN055 01/01 A2947 RMK AO2 FZRANO=
202112131608 SPECI KPWT 131608Z AUTO 00000KT 1 3/4SM BR OVC050 01/01 A2947 RMK AO2 VIS 3/4V5 FZRANO=
202112131556 METAR KPWT 131556Z AUTO 00000KT 10SM FEW047 BKN055 01/01 A2947 RMK AO2 SLP987 T00110011 FZRANO=
202112131456 METAR KPWT 131456Z AUTO 00000KT 10SM FEW009 BKN034 BKN060 02/02 A2949 RMK AO2 SLP995 60004 T00220022 53003 FZRANO=
202112131444 SPECI KPWT 131444Z AUTO 00000KT 10SM FEW007 SCT010 OVC032 02/02 A2950 RMK AO2 FZRANO=
202112131425 SPECI KPWT 131425Z AUTO 00000KT 10SM BKN010 OVC033 02/02 A2950 RMK AO2 CIG 008V014 FZRANO=
202112131356 METAR KPWT 131356Z AUTO 00000KT 10SM FEW012 OVC033 02/02 A2948 RMK AO2 RAE19UPB19E32 SLP991 P0001 T00220017 FZRANO=
202112131341 SPECI KPWT 131341Z AUTO 00000KT 10SM SCT014 BKN035 02/02 A2948 RMK AO2 RAE19UPB19E32 P0001 FZRANO=
202112131308 SPECI KPWT 131308Z AUTO 00000KT 10SM -RA SCT004 BKN019 OVC024 02/02 A2949 RMK AO2 P0000 FZRANO=
202112131256 METAR KPWT 131256Z AUTO 00000KT 10SM -RA BKN004 BKN022 02/02 A2949 RMK AO2 SLP994 P0003 T00170017 FZRANO=
202112131235 SPECI KPWT 131235Z AUTO 00000KT 3SM -RA BR FEW004 BKN012 OVC020 02/02 A2949 RMK AO2 P0002 FZRANO=
202112131221 SPECI KPWT 131221Z AUTO 00000KT 2 1/2SM -RA BR BKN012 02/02 A2949 RMK AO2 P0001 FZRANO=
202112131156 METAR KPWT 131156Z AUTO 00000KT 10SM -RA CLR 02/02 A2949 RMK AO2 SLP991 P0005 60029 70061 T00170017 10022 20006 50001 FZRANO=
202112131134 SPECI KPWT 131134Z AUTO 00000KT 10SM -RA SCT012 SCT020 02/01 RMK AO2 P0005 FZRANO $=
202112131121 SPECI KPWT 131121Z AUTO 00000KT 6SM RA BR BKN012 BKN020 02/01 A2948 RMK AO2 P0004 FZRANO=
202112131056 METAR KPWT 131056Z AUTO 22003KT 10SM -RA OVC022 02/02 A2949 RMK AO2 UPE03RAB03 SLP993 P0004 T00170017 FZRANO=
202112130956 METAR KPWT 130956Z AUTO 33003KT 10SM UP FEW011 BKN024 02/02 A2948 RMK AO2 RAE22UPB22 SLP990 P0007 T00220017 FZRANO=
202112130954 SPECI KPWT 130954Z AUTO 32003KT 10SM UP FEW011 SCT024 02/02 A2948 RMK AO2 RAE22UPB22 P0007 FZRANO=
202112130940 SPECI KPWT 130940Z AUTO 03003KT 9SM UP SCT013 BKN022 02/02 A2948 RMK AO2 RAE22UPB22 P0006 FZRANO=
202112130916 SPECI KPWT 130916Z AUTO 07006KT 7SM RA BKN013 BKN020 02/02 A2950 RMK AO2 P0003 FZRANO=
202112130856 METAR KPWT 130856Z AUTO 07004KT 10SM -RA FEW015 02/02 A2951 RMK AO2 SLP000 P0010 60013 T00220017 58020 FZRANO=
202112130835 SPECI KPWT 130835Z AUTO 06003KT 10SM -RA FEW009 02/02 A2952 RMK AO2 PRESFR P0008 FZRANO=
202112130808 SPECI KPWT 130808Z AUTO 12007KT 6SM RA BR SCT019 02/02 A2954 RMK AO2 P0003 FZRANO=
202112130756 METAR KPWT 130756Z AUTO 00000KT 7SM RA BKN019 02/02 A2955 RMK AO2 SLP013 P0003 T00220022 400390006 FZRANO=
202112130731 SPECI KPWT 130731Z AUTO 00000KT 8SM -RA SCT021 BKN026 OVC034 02/02 A2955 RMK AO2 P0000 FZRANO=
202112130656 METAR KPWT 130656Z AUTO 00000KT 10SM -RA BKN038 01/01 A2955 RMK AO2 RAB44 SLP015 P0000 T00110011 FZRANO=
202112130556 METAR KPWT 130556Z AUTO 00000KT 9SM FEW110 01/01 A2957 RMK AO2 RAE08UPB01E07 SLP022 P0001 60016 T00110006 10028 20006 58010 FZRANO=
202112130456 METAR KPWT 130456Z AUTO 00000KT 10SM -RA FEW027 02/02 A2958 RMK AO2 RAB10 SLP024 P0001 T00220022 FZRANO=
202112130356 METAR KPWT 130356Z AUTO 19006KT 10SM BKN015 03/02 A2960 RMK AO2 RAE52 SLP030 P0000 T00280022=
202112130330 SPECI KPWT 130330Z AUTO 19005KT 10SM SCT010 BKN015 BKN039 02/02 A2960 RMK AO2 RAE27 P0000 FZRANO=
202112130325 SPECI KPWT 130325Z AUTO 19004KT 10SM -RA BKN008 BKN039 02/02 A2960 RMK AO2 CIG 007V013 P0000 FZRANO=
202112130306 SPECI KPWT 130306Z AUTO 19003KT 10SM -RA OVC010 02/02 A2960 RMK AO2 CIG 006V014 P0000 FZRANO=
202112130256 METAR KPWT 130256Z AUTO 21004KT 9SM -RA OVC008 02/02 A2961 RMK AO2 UPB50E52 CIG 006V011 SLP032 P0001 60014 T00220017 56003 FZRANO=
202112130226 SPECI KPWT 130226Z AUTO 21003KT 10SM -RA FEW006 BKN012 OVC018 02/02 A2961 RMK AO2 P0000 FZRANO=
202112130156 METAR KPWT 130156Z AUTO 20007KT 10SM -RA OVC006 02/02 A2961 RMK AO2 UPE24RAB24E25B48 SLP035 P0002 T00220017 FZRANO=
202112130130 SPECI KPWT 130130Z AUTO 19007G14KT 10SM OVC006 02/02 A2961 RMK AO2 UPE24RAB24E25 CIG 005V010 P0002 FZRANO=
202112130056 METAR KPWT 130056Z AUTO 20010G15KT 6SM UP BR OVC010 02/02 A2961 RMK AO2 RAE55UPB55 CIG 004V012 SLP035 P0011 T00220017 FZRANO=
202112130049 SPECI KPWT 130049Z AUTO 19007KT 6SM RA BR BKN006 OVC010 03/02 A2961 RMK AO2 CIG 004V010 P0010=
202112130041 SPECI KPWT 130041Z AUTO 22006KT 10SM RA SCT006 OVC010 03/02 A2961 RMK AO2 CIG 008V014 P0008=
202112130024 SPECI KPWT 130024Z AUTO 22004KT 10SM RA BKN010 OVC014 03/02 A2961 RMK AO2 CIG 007V011 P0003=
202112130017 SPECI KPWT 130017Z AUTO 21006KT 10SM RA BKN008 OVC016 03/02 A2961 RMK AO2 CIG 007V013 P0002=
202112122356 METAR KPWT 122356Z AUTO 18008KT 10SM RA OVC010 03/02 A2961 RMK AO2 RAB12 CIG 007V013 SLP032 P0002 60002 T00330022 10039 20028 55005=
202112122256 METAR KPWT 122256Z AUTO 19008KT 10SM OVC014 03/02 A2960 RMK AO2 RAE08 SLP030 P0000 T00330022=
202112122156 METAR KPWT 122156Z AUTO 19008KT 10SM -RA OVC011 03/03 A2961 RMK AO2 RAB28 SLP033 P0000 T00330028=
202112122056 METAR KPWT 122056Z AUTO 19011KT 10SM OVC013 03/02 A2962 RMK AO2 RAE24B44E54 SLP037 P0000 60000 T00330022 58001=
202112121956 METAR KPWT 121956Z AUTO 20007KT 10SM -RA OVC011 03/02 A2962 RMK AO2 RAE06B25 SLP039 P0000 T00330022=
202112121856 METAR KPWT 121856Z AUTO 19006KT 10SM -RA BKN011 BKN016 OVC038 03/02 A2962 RMK AO2 RAB50 SLP038 P0000 T00330022=
202112121756 METAR KPWT 121756Z AUTO 19007G15KT 10SM FEW010 SCT022 OVC028 03/02 A2962 RMK AO2 SLP035 60014 T00280022 10028 20006 53013=
202112121718 SPECI KPWT 121718Z AUTO 18009KT 10SM FEW021 BKN026 BKN034 02/02 A2961 RMK AO2 FZRANO=
202112121656 METAR KPWT 121656Z AUTO 17008KT 10SM SCT021 BKN034 BKN049 02/02 A2960 RMK AO2 RAE08 SLP030 P0001 T00170017 FZRANO=
202112121642 SPECI KPWT 121642Z AUTO 19005KT 10SM FEW009 SCT023 SCT034 01/01 RMK AO2 RAE08 P0001 FZRANO $=
202112121622 SPECI KPWT 121622Z AUTO 14003KT 10SM FEW009 SCT019 BKN023 01/01 A2959 RMK AO2 RAE08 P0001 FZRANO=
202112121556 METAR KPWT 121556Z AUTO 21003KT 10SM -RA FEW010 SCT016 OVC025 01/01 A2958 RMK AO2 RAB07E10B53UPB52E53SNE52 SLP024 P0007 T00060006 FZRANO=
202112121553 SPECI KPWT 121553Z AUTO 20003KT 9SM -RA FEW010 SCT016 OVC025 01/01 A2958 RMK AO2 RAB07E10B53UPB52E53SNE52 P0007 FZRANO=
202112121520 SPECI KPWT 121520Z AUTO 23004KT 6SM -SN BR FEW004 OVC014 01/01 A2958 RMK AO2 RAB07E10 P0004 FZRANO=
202112121508 SPECI KPWT 121508Z AUTO 23006KT 5SM -RA BR FEW004 OVC016 01/01 A2958 RMK AO2 RAB07SNE07 P0002 FZRANO=
202112121456 METAR KPWT 121456Z AUTO 22004KT 4SM -SN BR SCT004 OVC013 01/01 A2957 RMK AO2 RAB14E44SNB44 SLPNO P0006 60006 T00060006 53014 FZRANO=
202112121443 SPECI KPWT 121443Z AUTO 25005KT 3SM -RA BR FEW004 BKN011 OVC018 01/01 A2957 RMK AO2 RAB14 P0004 FZRANO=
202112121427 SPECI KPWT 121427Z AUTO 20008KT 9SM RA SCT014 BKN019 BKN032 03/02 A2956 RMK AO2 RAB14 P0001=
202112121356 METAR KPWT 121356Z AUTO 18007KT 10SM SCT041 02/02 A2955 RMK AO2 RAE02 SLPNO P0000 T00220017 FZRANO=
202112121256 METAR KPWT 121256Z AUTO 19006KT 10SM -RA CLR 02/01 A2954 RMK AO2 UPB48E50RAB50 SLPNO P0000 T00170011 FZRANO=
202112121201 SPECI KPWT 121201Z AUTO 21008KT 10SM SCT012 SCT021 02/01 A2953 RMK AO2 FZRANO=
202112121156 METAR KPWT 121156Z AUTO 20008KT 10SM BKN012 BKN021 02/02 A2953 RMK AO2 RAB19E28UPB28E33 SLPNO 6//// 7//// T00220017 10033 20006 51007 FZRANO=
202112121118 SPECI KPWT 121118Z AUTO 19007G15KT 02/02 A2953 RMK AO2 FZRANO=
202112121056 METAR KPWT 121056Z AUTO 19009KT 10SM BKN013 02/02 A2952 RMK AO2 SLPNO T00220017 FZRANO=
202112121054 SPECI KPWT 121054Z AUTO 20008KT 10SM BKN013 02/02 A2952 RMK AO2 FZRANO=
202112121013 SPECI KPWT 121013Z AUTO 19007KT 10SM OVC015 02/02 A2951 RMK AO2 FZRANO=
202112120956 METAR KPWT 120956Z AUTO 19008KT 10SM FEW006 BKN010 OVC016 02/02 A2951 RMK AO2 CIG 007V013 SLPNO T00220022 FZRANO=
202112120953 SPECI KPWT 120953Z AUTO 19006KT 10SM SCT006 OVC013 02/02 A2951 RMK AO2 FZRANO=
202112120940 SPECI KPWT 120940Z AUTO 19010KT 10SM BKN006 OVC013 02/02 A2950 RMK AO2 CIG 004V008 FZRANO=
202112120927 SPECI KPWT 120927Z AUTO 19011KT 10SM OVC004 02/02 A2950 RMK AO2 FZRANO=
202112120856 METAR KPWT 120856Z AUTO 20011G21KT 10SM OVC006 02/02 A2949 RMK AO2 RAB16E31SNE16 SLPNO P0000 60020 T00170017 50004 FZRANO=
202112120819 SPECI KPWT 120819Z AUTO 19013KT 10SM -RA OVC008 01/01 A2948 RMK AO2 RAB16SNE16 CIG 004V012 P0000 FZRANO=
202112120756 METAR KPWT 120756Z AUTO 21009KT 6SM -SN BR BKN005 OVC010 01/00 A2949 RMK AO2 RAE12UPB12E20SNB20 SLPNO P0016 T00060000 FZRANO=
202112120728 SPECI KPWT 120728Z AUTO 23014G19KT 5SM -SN BR BKN005 BKN010 OVC015 01/01 A2949 RMK AO2 RAE12UPB12E20SNB20 CIG 004V007 P0012 FZRANO=
202112120702 SPECI KPWT 120702Z AUTO 23010KT 6SM -RA BR FEW007 BKN012 OVC023 03/03 A2948 RMK AO2 P0002=
202112120656 METAR KPWT 120656Z AUTO 22007KT 7SM +RA FEW012 BKN020 BKN025 03/03 A2948 RMK AO2 RAB41 SLPNO P0004 T00330028=
202112120652 SPECI KPWT 120652Z AUTO 22007KT 10SM RA FEW017 BKN023 03/03 A2948 RMK AO2 RAB41 P0001=
202112120618 SPECI KPWT 120618Z AUTO 16005KT 10SM SCT021 03/03 A2948 RMK AO2=
202112120556 METAR KPWT 120556Z AUTO 18007KT 10SM BKN021 03/03 A2950 RMK AO2 SLPNO 6//// T00330028=
202112120456 METAR KPWT 120456Z AUTO 18006KT 10SM CLR 03/02 A2951 RMK AO2 SLPNO T00280022=
202112120356 METAR KPWT 120356Z AUTO 18008KT 10SM CLR 03/03 A2952 RMK AO2 SLPNO T00330028=
202112120256 METAR KPWT 120256Z AUTO RMK AO2 SLPNO 6//// PWINO FZRANO $=
202112120156 METAR KPWT 120156Z AUTO RMK AO2 SLPNO PWINO FZRANO $=
202112120056 METAR KPWT 120056Z AUTO RMK AO2 SLPNO PWINO FZRANO $=
202112112356 METAR KPWT 112356Z AUTO RMK AO2 SLPNO 6//// PWINO FZRANO $=
202112112256 METAR KPWT 112256Z AUTO RMK AO2 SLPNO PWINO FZRANO $=
202112112156 METAR KPWT 112156Z AUTO RMK AO2 SLPNO PWINO FZRANO $=
202112112056 METAR KPWT 112056Z AUTO RMK AO2 SLPNO 6//// PWINO FZRANO $=
202112111956 METAR KPWT 111956Z AUTO RMK AO2 SLPNO PWINO FZRANO $=
202112111856 METAR KPWT 111856Z AUTO RMK AO2 SLPNO PWINO FZRANO $=
202112111756 METAR KPWT 111756Z AUTO RMK AO2 SLPNO 6//// PWINO FZRANO $=
202112111656 METAR KPWT 111656Z AUTO RMK AO2 SLPNO PWINO FZRANO $=
202112111556 METAR KPWT 111556Z AUTO RMK AO2 SLPNO PWINO FZRANO $=
202112111456 METAR KPWT 111456Z AUTO RMK AO2 SLPNO 6//// PWINO FZRANO $=
202112111356 METAR KPWT 111356Z AUTO RMK AO2 RAEMM SLPNO P0004 PWINO FZRANO $=
202112111324 SPECI KPWT 111324Z AUTO 06/05 RMK AO2 RAEMM P0004 PWINO $=
202112111256 METAR KPWT 111256Z AUTO 20015G27KT 10SM -RA OVC007 06/04 A2950 RMK AO2 PK WND 19031/1157 CIG 005V010 SLP995 P0008 T00560044=
202112111156 METAR KPWT 111156Z AUTO 20014G27KT 10SM -RA OVC007 05/04 A2953 RMK AO2 PK WND 20027/1156 SLP007 P0005 60093 70150 T00500044 10061 20050=
202112111056 METAR KPWT 111056Z AUTO 19013G18KT 10SM -RA OVC007 05/04 A2957 RMK AO2 PK WND 19026/0959 SLP021 P0016 T00500044=
202112110956 METAR KPWT 110956Z AUTO 20016G22KT 4SM -RA BR OVC007 05/04 A2964 RMK AO2 PK WND 18026/0929 SLP043 P0028 T00500044=
202112110856 METAR KPWT 110856Z AUTO 5SM -RA BR OVC009 05/04 RMK AO2 CIG 005V012 SLPNO P0021 60044 T00500044 $=
202112110756 METAR KPWT 110756Z AUTO 20022G29KT 7SM -RA OVC007 06/05 A2969 RMK AO2 PK WND 20037/0713 SLP060 P0011 T00560050 400610011=
202112110656 METAR KPWT 110656Z AUTO 20018G30KT 8SM RA OVC007 06/06 A2972 RMK AO2 PK WND 21031/0622 SLP070 P0012 T00610056=
202112110632 SPECI KPWT 110632Z AUTO 20020G29KT 9SM -RA OVC007 06/06 A2973 RMK AO2 PK WND 21031/0622 CIG 005V010 P0008=
202112110556 METAR KPWT 110556Z AUTO 20019G30KT 9SM -RA OVC005 06/06 A2975 RMK AO2 PK WND 18032/0519 SLP080 P0010 60044 T00610056 10061 20050 56032=
202112110456 METAR KPWT 110456Z AUTO 20020G31KT 5SM -RA BR OVC005 06/06 A2977 RMK AO2 PK WND 20033/0422 SLP088 P0009 T00610056=
202112110356 METAR KPWT 110356Z AUTO 20017G25KT 10SM -RA OVC005 06/05 A2980 RMK AO2 PK WND 18028/0346 SLP097 P0005 T00560050=
202112110256 METAR KPWT 110256Z AUTO 19012G29KT 9SM -RA OVC005 06/05 A2984 RMK AO2 PK WND 22029/0248 SLP111 P0005 60020 T00560050 58026=
202112110216 SPECI KPWT 110216Z AUTO 19016G21KT 10SM -RA OVC005 05/05 A2986 RMK AO2 P0002=
202112110156 METAR KPWT 110156Z AUTO 20016G23KT 8SM -RA OVC007 05/04 A2988 RMK AO2 SLP126 P0007 T00500044=
202112110056 METAR KPWT 110056Z AUTO 18010G21KT 10SM -RA OVC007 05/04 A2992 RMK AO2 CIG 004V009 SLP138 P0008 T00500044=
202112110047 SPECI KPWT 110047Z AUTO 19013G19KT 10SM -RA OVC005 05/04 A2993 RMK AO2 CIG 004V011 P0008=
202112102356 METAR KPWT 102356Z AUTO 19014G22KT 10SM -RA BKN007 OVC010 05/04 A2996 RMK AO2 CIG 004V008 SLP153 P0004 60013 T00500044 10050 20028 56030=
202112102256 METAR KPWT 102256Z AUTO 20012G17KT 5SM -RA BR BKN007 BKN011 OVC021 05/04 A2999 RMK AO2 CIG 004V008 SLP161 P0008 T00500044=
202112102249 SPECI KPWT 102249Z AUTO 20012G17KT 7SM -RA BKN007 BKN011 OVC021 05/04 A2999 RMK AO2 P0007=
202112102231 SPECI KPWT 102231Z AUTO 20011KT 7SM RA BKN011 BKN014 OVC023 05/04 A3000 RMK AO2 CIG 008V012 P0005=
202112102207 SPECI KPWT 102207Z AUTO 19009KT 10SM -RA FEW006 BKN022 OVC030 05/04 A3001 RMK AO2 P0001=
202112102156 METAR KPWT 102156Z AUTO 18009KT 10SM -RA BKN006 OVC019 05/04 A3001 RMK AO2 CIG 005V010 SLP167 P0001 T00500044=
202112102056 METAR KPWT 102056Z AUTO 20011KT 9SM -RA OVC006 04/04 A3005 RMK AO2 SLP183 P0000 60000 T00440044 58009=
202112101956 METAR KPWT 101956Z AUTO 20007KT 10SM -RA OVC008 04/04 A3007 RMK AO2 RAB44 SLP190 P0000 T00440039=
202112101939 SPECI KPWT 101939Z AUTO 21008KT 10SM BKN008 BKN025 BKN031 04/04 A3007 RMK AO2 CIG 007V011=
202112101856 METAR KPWT 101856Z AUTO 20008KT 10SM SCT007 BKN038 BKN045 03/03 A3008 RMK AO2 SLP195 T00330033=
202112101846 SPECI KPWT 101846Z AUTO 20008KT 10SM SCT007 BKN045 03/03 A3009 RMK AO2=
202112101831 SPECI KPWT 101831Z AUTO 21005KT 10SM BKN007 BKN015 03/03 A3009 RMK AO2 CIG 005V010=
202112101821 SPECI KPWT 101821Z AUTO 21005KT 10SM SCT007 SCT015 03/03 A3009 RMK AO2=
202112101756 METAR KPWT 101756Z AUTO 22003KT 10SM OVC007 03/02 A3008 RMK AO2 CIG 005V010 SLP194 T00280022 10028 20011 50002=
202112101726 SPECI KPWT 101726Z AUTO 23004KT 10SM BKN007 02/02 A3009 RMK AO2 CIG 004V010 FZRANO=
202112101656 METAR KPWT 101656Z AUTO 23007KT 10SM OVC005 02/02 A3008 RMK AO2 SLP194 T00220017 FZRANO=
202112101556 METAR KPWT 101556Z AUTO 19003KT 10SM OVC005 02/02 A3008 RMK AO2 SLP195 T00170017 FZRANO=
202112101532 SPECI KPWT 101532Z AUTO 00000KT 10SM OVC005 02/01 A3008 RMK AO2 CIG 003V007 FZRANO=
202112101513 SPECI KPWT 101513Z AUTO 00000KT 10SM OVC007 01/01 A3008 RMK AO2 FZRANO=
202112101456 METAR KPWT 101456Z AUTO 00000KT 10SM OVC005 02/01 A3007 RMK AO2 SLP191 T00170011 51015 FZRANO=
202112101356 METAR KPWT 101356Z AUTO 00000KT 10SM OVC005 02/02 A3006 RMK AO2 SLP189 T00170017 FZRANO=
202112101342 SPECI KPWT 101342Z AUTO 00000KT 10SM OVC005 02/01 A3007 RMK AO2 FZRANO=
202112101256 METAR KPWT 101256Z AUTO 00000KT 10SM OVC003 02/01 A3005 RMK AO2 SLP184 T00170011 FZRANO=
202112101156 METAR KPWT 101156Z AUTO 20003KT 10SM BKN003 OVC007 02/02 A3003 RMK AO2 CIG 003V006 SLP175 T00170017 10022 21022 51008 FZRANO=
202112101139 SPECI KPWT 101139Z AUTO 18003KT 10SM OVC005 02/02 A3002 RMK AO2 CIG 003V008 FZRANO=
202112101056 METAR KPWT 101056Z AUTO 00000KT 10SM OVC003 02/02 A3002 RMK AO2 SLP173 T00170017 FZRANO=
202112101029 SPECI KPWT 101029Z AUTO 00000KT 10SM OVC003 02/02 A3003 RMK AO2 FZRANO=
202112100956 METAR KPWT 100956Z AUTO 23004KT 10SM OVC005 02/02 A3002 RMK AO2 SLP174 T00220017 FZRANO=
202112100856 METAR KPWT 100856Z AUTO 23010KT 10SM OVC005 02/02 A3001 RMK AO2 SLP167 T00170017 51007 FZRANO=
202112100756 METAR KPWT 100756Z AUTO 21007KT 10SM BKN007 OVC110 01/01 A3000 RMK AO2 SLP165 T00060006 400671022 FZRANO=
202112100723 SPECI KPWT 100723Z AUTO 23005KT 10SM FEW007 BKN110 M02/M02 A3000 RMK AO2 FZRANO=
202112100711 SPECI KPWT 100711Z AUTO 00000KT 10SM BKN100 M02/M02 A3000 RMK AO2 FZRANO=
202112100656 METAR KPWT 100656Z AUTO 00000KT 2 1/2SM BR CLR M02/M02 A3000 RMK AO2 VIS 1V5 SLP166 T10171022 FZRANO=
202112100556 METAR KPWT 100556Z AUTO 00000KT 10SM CLR M01/M01 A2998 RMK AO2 SLP161 T10111011 10044 21011 51008 FZRANO=
202112100456 METAR KPWT 100456Z AUTO 00000KT 10SM BKN120 00/00 A2998 RMK AO2 SLP161 T00000000 FZRANO=
202112100356 METAR KPWT 100356Z AUTO 00000KT 10SM CLR M01/M01 A2997 RMK AO2 SLP158 T10111011 FZRANO=
202112100256 METAR KPWT 100256Z AUTO 00000KT 10SM FEW110 00/00 A2996 RMK AO2 SLP153 T00000000 53019 FZRANO=
202112100156 METAR KPWT 100156Z AUTO 00000KT 10SM CLR 00/M01 A2994 RMK AO2 SLP147 T00001006 FZRANO=
202112100056 METAR KPWT 100056Z AUTO 00000KT 10SM CLR 02/01 A2992 RMK AO2 SLP138 T00170006 FZRANO=
202112092356 METAR KPWT 092356Z AUTO 06006KT 10SM FEW027 04/02 A2990 RMK AO2 SLP133 T00440022 10067 20033 51011=
202112092256 METAR KPWT 092256Z AUTO 09003KT 10SM FEW023 05/02 A2989 RMK AO2 SLP128 T00500022=
202112092156 METAR KPWT 092156Z AUTO 00000KT 10SM OVC019 07/03 A2987 RMK AO2 SLP121 T00670028=
202112092056 METAR KPWT 092056Z AUTO 20006KT 10SM BKN015 04/02 A2987 RMK AO2 SLP123 T00440022 56008=
202112092047 SPECI KPWT 092047Z AUTO 20006KT 10SM BKN015 04/02 A2987 RMK AO2=
202112092013 SPECI KPWT 092013Z AUTO 22007KT 10SM OVC011 04/02 A2987 RMK AO2=
202112091956 METAR KPWT 091956Z AUTO 22010KT 10SM OVC009 04/02 A2987 RMK AO2 CIG 008V012 SLP123 T00440022=
202112091856 METAR KPWT 091856Z AUTO 21007KT 10SM OVC007 03/03 A2988 RMK AO2 SLP126 T00330028=
202112091756 METAR KPWT 091756Z AUTO 22007KT 10SM OVC007 03/02 A2990 RMK AO2 SLP132 T00280022 10028 20011 53004=
202112091749 SPECI KPWT 091749Z AUTO 22009KT 10SM OVC007 03/02 A2989 RMK AO2 CIG 006V010=
202112091720 SPECI KPWT 091720Z AUTO 21008KT 10SM OVC005 03/02 A2989 RMK AO2=
202112091656 METAR KPWT 091656Z AUTO 21010KT 10SM BKN007 BKN010 03/02 A2989 RMK AO2 SLP128 T00280022=
202112091556 METAR KPWT 091556Z AUTO 23009KT 10SM OVC009 03/02 A2989 RMK AO2 CIG 006V011 SLP129 T00280022=
202112091456 METAR KPWT 091456Z AUTO 22010KT 10SM OVC007 02/02 A2988 RMK AO2 SLP127 T00220017 58014 FZRANO=
202112091441 SPECI KPWT 091441Z AUTO 21010G17KT 10SM OVC007 02/02 A2989 RMK AO2 FZRANO=
202112091356 METAR KPWT 091356Z AUTO 21009KT 10SM OVC005 02/02 A2990 RMK AO2 SLP132 T00220017 FZRANO=
202112091256 METAR KPWT 091256Z AUTO 20006KT 10SM OVC005 02/02 A2992 RMK AO2 SLP139 T00170017 FZRANO=
202112091239 SPECI KPWT 091239Z AUTO 20007KT 10SM OVC005 02/02 A2993 RMK AO2 CIG 004V009 FZRANO=
202112091227 SPECI KPWT 091227Z AUTO 20009KT 10SM OVC007 02/02 A2993 RMK AO2 CIG 004V009 FZRANO=
202112091156 METAR KPWT 091156Z AUTO 22006KT 10SM OVC005 01/01 A2993 RMK AO2 SLP140 T00110011 10017 21011 58012 FZRANO=
202112091056 METAR KPWT 091056Z AUTO 23003KT 10SM BKN005 OVC009 01/01 A2995 RMK AO2 CIG 005V008 SLP149 T00060006 FZRANO=
202112090956 METAR KPWT 090956Z AUTO 00000KT 10SM OVC007 01/01 A2995 RMK AO2 SLP149 T00060006 FZRANO=
202112090942 SPECI KPWT 090942Z AUTO 00000KT 10SM OVC007 01/01 A2995 RMK AO2 FZRANO=
202112090926 SPECI KPWT 090926Z AUTO 00000KT 10SM OVC005 01/00 A2995 RMK AO2 CIG 004V008 FZRANO=
202112090856 METAR KPWT 090856Z AUTO 00000KT 10SM OVC007 M01/M01 A2996 RMK AO2 CIG 005V010 SLP152 T10061006 58002 FZRANO=
202112090756 METAR KPWT 090756Z AUTO 13003KT 10SM BKN009 M01/M01 A2997 RMK AO2 SLP157 T10111011 400891011 FZRANO=
202112090742 SPECI KPWT 090742Z AUTO 00000KT 10SM SCT007 M01/M01 A2998 RMK AO2 FZRANO=
202112090709 SPECI KPWT 090709Z AUTO 00000KT 10SM SCT002 BKN009 M01/M01 A2998 RMK AO2 FZRANO=
202112090656 METAR KPWT 090656Z AUTO 00000KT 10SM BKN002 M01/M01 A2998 RMK AO2 SLP157 T10111011 FZRANO=
202112090642 SPECI KPWT 090642Z AUTO 00000KT 10SM BKN002 M01/M01 A2997 RMK AO2 FZRANO=
202112090633 SPECI KPWT 090633Z AUTO 00000KT 10SM SCT002 M01/M01 A2997 RMK AO2 FZRANO=
202112090556 METAR KPWT 090556Z AUTO 00000KT 10SM FEW017 00/M01 A2997 RMK AO2 SLP155 T00001006 10050 21006 57001 FZRANO=
202112090456 METAR KPWT 090456Z AUTO 23005KT 10SM CLR 00/M01 A2997 RMK AO2 SLP156 T00001006 FZRANO=
202112090425 SPECI KPWT 090425Z AUTO 25004KT 10SM SCT020 01/00 A2996 RMK AO2 FZRANO=
202112090356 METAR KPWT 090356Z AUTO 20004KT 10SM OVC020 02/01 A2997 RMK AO2 SLP157 T00170011 FZRANO=
202112090328 SPECI KPWT 090328Z AUTO 00000KT 10SM BKN022 BKN032 01/01 A2998 RMK AO2 FZRANO=
202112090256 METAR KPWT 090256Z AUTO 00000KT 10SM CLR 02/01 A2997 RMK AO2 SLP156 T00170006 51005 FZRANO=
202112090156 METAR KPWT 090156Z AUTO 21006KT 10SM CLR 02/00 A2997 RMK AO2 SLP155 T00170000 FZRANO=
202112090056 METAR KPWT 090056Z AUTO 23005KT 10SM FEW065 04/01 A2996 RMK AO2 SLP153 T00440011=
202112082356 METAR KPWT 082356Z AUTO 21007KT 10SM CLR 06/01 A2996 RMK AO2 SLP150 T00560011 10089 20056 53006=
202112082256 METAR KPWT 082256Z AUTO 22008KT 10SM CLR 06/01 A2995 RMK AO2 SLP148 T00560011=
202112082156 METAR KPWT 082156Z AUTO 24009KT 10SM CLR 08/M01 A2994 RMK AO2 SLP144 T00831006=
202112082056 METAR KPWT 082056Z AUTO 25008KT 10SM FEW090 08/01 A2994 RMK AO2 SLP142 T00830006 51007=
202112081956 METAR KPWT 081956Z AUTO 21007KT 10SM CLR 08/01 A2993 RMK AO2 SLP140 T00780011=
202112081856 METAR KPWT 081856Z AUTO 20005KT 10SM CLR 07/02 A2993 RMK AO2 SLP142 T00670017=
202112081756 METAR KPWT 081756Z AUTO 18003KT 10SM CLR 06/03 A2992 RMK AO2 SLP136 T00610028 10067 20011 51028=
202112081656 METAR KPWT 081656Z AUTO 00000KT 10SM FEW019 03/02 A2989 RMK AO2 SLP130 T00280022=
202112081556 METAR KPWT 081556Z AUTO 00000KT 10SM CLR 02/02 A2986 RMK AO2 SLP119 T00220017 FZRANO=
202112081456 METAR KPWT 081456Z AUTO 00000KT 10SM CLR 04/03 A2983 RMK AO2 SLP107 T00440033 53007=
202112081407 SPECI KPWT 081407Z AUTO 20006KT 10SM FEW009 05/04 A2980 RMK AO2=
202112081356 METAR KPWT 081356Z AUTO 21005KT 10SM BKN009 05/04 A2981 RMK AO2 SLP098 T00500044=
202112081256 METAR KPWT 081256Z AUTO 20009KT 10SM OVC009 07/06 A2981 RMK AO2 CIG 008V013 SLP100 T00670056=
202112081251 SPECI KPWT 081251Z AUTO 19008KT 10SM OVC009 07/06 A2981 RMK AO2 CIG 008V013=
202112081156 METAR KPWT 081156Z AUTO 20009KT 10SM BKN011 BKN090 07/06 A2981 RMK AO2 SLP101 60000 70002 T00670056 10083 20067 51007=
202112081151 SPECI KPWT 081151Z AUTO 20011KT 10SM BKN011 BKN090 07/06 A2981 RMK AO2=
202112081056 METAR KPWT 081056Z AUTO 20013KT 10SM FEW011 07/06 A2981 RMK AO2 SLP100 T00670056=
202112081035 SPECI KPWT 081035Z AUTO 21012G18KT 10SM SCT011 07/06 A2980 RMK AO2=
202112080956 METAR KPWT 080956Z AUTO 20012G19KT 10SM OVC009 07/07 A2979 RMK AO2 CIG 007V013 SLP093 T00720067=
202112080856 METAR KPWT 080856Z AUTO 19013G21KT 10SM BKN007 OVC011 08/07 A2978 RMK AO2 RAE07 CIG 005V010 SLP088 P0000 60000 T00780072 58019=
202112080756 METAR KPWT 080756Z AUTO 21013KT 10SM -RA OVC005 08/08 A2980 RMK AO2 RAB00 SLP097 P0000 T00830078 400890050=
202112080656 METAR KPWT 080656Z AUTO 20013G19KT 10SM OVC005 08/08 A2981 RMK AO2 SLP101 T00830078=
202112080621 SPECI KPWT 080621Z AUTO 21013G18KT 10SM OVC005 08/08 A2982 RMK AO2 CIG 004V008=
202112080556 METAR KPWT 080556Z AUTO 21011G19KT 10SM OVC007 08/08 A2983 RMK AO2 CIG 005V010 SLP107 60001 T00830078 10089 20078 56015=
202112080456 METAR KPWT 080456Z AUTO 21015G21KT 10SM BKN007 08/08 A2984 RMK AO2 CIG 004V010 SLP109 T00830078=
202112080436 SPECI KPWT 080436Z AUTO 20015G21KT 10SM OVC005 08/08 A2985 RMK AO2 CIG 003V008=
202112080356 METAR KPWT 080356Z AUTO 21011KT 10SM OVC003 08/08 A2986 RMK AO2 CIG 002V005 SLP118 T00830083=
202112080308 SPECI KPWT 080308Z AUTO 19009KT 10SM OVC003 09/08 A2986 RMK AO2 PRESFR=
202112080256 METAR KPWT 080256Z AUTO 20010KT 2 1/2SM BR OVC003 09/09 A2988 RMK AO2 SLP123 60001 T00890089 58016=
202112080238 SPECI KPWT 080238Z AUTO 22006KT 10SM BKN003 BKN017 OVC033 09/08 A2988 RMK AO2=
202112080221 SPECI KPWT 080221Z AUTO 19007KT 10SM FEW003 SCT013 OVC033 09/08 A2988 RMK AO2=
202112080203 SPECI KPWT 080203Z AUTO 20008KT 10SM SCT003 BKN013 OVC035 08/08 A2989 RMK AO2=
202112080156 METAR KPWT 080156Z AUTO 18009KT 10SM BKN003 BKN013 OVC035 08/08 A2990 RMK AO2 RAB05E36 SLP129 P0001 T00830083=
202112080116 SPECI KPWT 080116Z AUTO 20008KT 3SM -RA BR OVC003 08/08 A2992 RMK AO2 RAB05 P0000=
202112080112 SPECI KPWT 080112Z AUTO 20007KT 1 1/4SM -RA BR OVC003 08/08 A2992 RMK AO2 VIS 3/4V2 1/2 RAB05 P0000=
202112080107 SPECI KPWT 080107Z AUTO 21007KT 3/4SM -RA BR OVC003 08/08 A2992 RMK AO2 RAB05 P0000=
202112080056 METAR KPWT 080056Z AUTO 22005KT 1SM BR OVC003 08/08 A2992 RMK AO2 VIS 1/2V2 SLP139 T00780078=
202112080053 SPECI KPWT 080053Z AUTO 21005KT 1SM BR OVC003 08/08 A2993 RMK AO2 VIS 1/2V2=
202112080043 SPECI KPWT 080043Z AUTO 21007KT 1 3/4SM BR OVC003 08/08 A2993 RMK AO2=
202112080003 SPECI KPWT 080003Z AUTO 20006KT 5SM BR OVC003 08/08 A2995 RMK AO2=
202112072356 METAR KPWT 072356Z AUTO 20006KT 2 1/2SM BR OVC003 08/08 A2995 RMK AO2 SLP148 60000 T00780078 10078 20061 56016=
202112072256 METAR KPWT 072256Z AUTO 19005KT 9SM OVC003 08/07 A2996 RMK AO2 SLP152 T00780072=
202112072156 METAR KPWT 072156Z AUTO 18007KT 10SM OVC003 08/08 A2999 RMK AO2 SLP159 T00780078=
202112072056 METAR KPWT 072056Z AUTO 21005KT 7SM OVC003 08/08 A3000 RMK AO2 SLP165 60000 T00780078 58012=
202112072004 SPECI KPWT 072004Z AUTO 18003KT 7SM OVC003 07/07 A3001 RMK AO2=
202112071956 METAR KPWT 071956Z AUTO 22003KT 2 1/2SM BR OVC003 07/07 A3002 RMK AO2 SLP171 T00720072=
202112071933 SPECI KPWT 071933Z AUTO 00000KT 1 1/4SM BR OVC003 07/07 A3001 RMK AO2 VIS 3/4V2 1/2=
202112071927 SPECI KPWT 071927Z AUTO 14004KT 3/4SM BR OVC003 07/07 A3001 RMK AO2=
202112071856 METAR KPWT 071856Z AUTO 00000KT 1/4SM FG OVC003 07/07 A3002 RMK AO2 RAE38 SLP174 P0000 T00670067=
202112071756 METAR KPWT 071756Z AUTO 00000KT 1/2SM -RA FG OVC003 06/06 A3004 RMK AO2 RAB55 SLP178 P0000 60001 T00610061 10061 20050 53002=
202112071751 SPECI KPWT 071751Z AUTO 00000KT 1/2SM FG OVC003 06/06 A3003 RMK AO2=
202112071738 SPECI KPWT 071738Z AUTO 00000KT 3/4SM BR OVC003 06/06 A3003 RMK AO2=
202112071732 SPECI KPWT 071732Z AUTO 00000KT 1 1/4SM BR OVC003 06/06 A3003 RMK AO2=
202112071711 SPECI KPWT 071711Z AUTO 00000KT 2SM BR OVC003 06/06 A3003 RMK AO2 CIG 002V006=
202112071656 METAR KPWT 071656Z AUTO 00000KT 1 3/4SM BR BKN003 OVC007 06/06 A3003 RMK AO2 RAE30 CIG 002V005 SLP177 P0000 T00560056=
202112071653 SPECI KPWT 071653Z AUTO 00000KT 1 1/4SM BR OVC003 06/06 A3003 RMK AO2 RAE30 CIG 002V007 P0000=
202112071625 SPECI KPWT 071625Z AUTO 00000KT 3/4SM -RA BR OVC003 06/05 A3003 RMK AO2 P0000=
202112071612 SPECI KPWT 071612Z AUTO 00000KT 1SM -RA BR OVC003 05/05 A3004 RMK AO2 P0000=
202112071556 METAR KPWT 071556Z AUTO 00000KT 3/4SM -RA BR OVC003 06/05 A3003 RMK AO2 RAB45 CIG 002V005 SLP176 P0000 T00560050=
202112071549 SPECI KPWT 071549Z AUTO 00000KT 3/4SM -RA BR OVC003 05/05 A3003 RMK AO2 RAB45 P0000=
202112071540 SPECI KPWT 071540Z AUTO 00000KT 1SM BR OVC003 05/05 A3003 RMK AO2=
202112071525 SPECI KPWT 071525Z AUTO 36003KT 2 1/2SM BR OVC003 05/05 A3003 RMK AO2=
202112071511 SPECI KPWT 071511Z AUTO 00000KT 4SM BR BKN003 OVC006 05/05 A3002 RMK AO2=
202112071456 METAR KPWT 071456Z AUTO 00000KT 6SM BR OVC006 05/05 A3002 RMK AO2 RAE13 CIG 003V008 SLP171 P0001 60001 T00500050 58002=
202112071432 SPECI KPWT 071432Z AUTO 00000KT 10SM OVC008 05/05 A3002 RMK AO2 RAE13 CIG 003V009 P0001=
202112071356 METAR KPWT 071356Z AUTO 04004KT 10SM -RA OVC010 05/05 A3002 RMK AO2 RAB42 SLP173 P0000 T00500050=
202112071256 METAR KPWT 071256Z AUTO 05005KT 10SM OVC012 05/05 A3003 RMK AO2 RAE24 SLP175 P0000 T00500050=
202112071225 SPECI KPWT 071225Z AUTO 04005KT 4SM BR OVC010 06/06 A3002 RMK AO2 RAE24 CIG 003V013 P0000=
202112071207 SPECI KPWT 071207Z AUTO 04004KT 3SM -RA BR OVC006 06/06 A3002 RMK AO2 CIG 003V010 P0000=
202112071156 METAR KPWT 071156Z AUTO 03003KT 2SM -RA BR OVC003 06/06 A3002 RMK AO2 CIG 003V006 SLP173 P0000 60002 70007 T00560056 10056 20050 51018=
202112071151 SPECI KPWT 071151Z AUTO 03003KT 2SM -RA BR OVC003 06/06 A3002 RMK AO2 P0000=
202112071144 SPECI KPWT 071144Z AUTO 03003KT 1 3/4SM -RA BR OVC003 05/05 A3002 RMK AO2 P0000=
202112071114 SPECI KPWT 071114Z AUTO 00000KT 2SM -RA BR OVC003 05/05 A3001 RMK AO2 P0000=
202112071056 METAR KPWT 071056Z AUTO 00000KT 1 1/2SM -RA BR OVC003 05/05 A3001 RMK AO2 SLP168 P0001 T00500050=
202112071019 SPECI KPWT 071019Z AUTO 00000KT 1 3/4SM -RA BR OVC003 06/05 A2998 RMK AO2 P0000=
202112071009 SPECI KPWT 071009Z AUTO 00000KT 2SM -RA BR BKN003 OVC006 05/05 A2998 RMK AO2 P0000=
202112070956 METAR KPWT 070956Z AUTO 00000KT 2SM -RA BR FEW003 OVC008 05/05 A2997 RMK AO2 RAB53 SLP155 P0000 T00500050=
202112070940 SPECI KPWT 070940Z AUTO 16003KT 4SM BR OVC008 05/05 A2998 RMK AO2 CIG 006V011 PRESFR=
202112070856 METAR KPWT 070856Z AUTO 05005KT 9SM OVC010 05/05 A3000 RMK AO2 RAE08 SLP167 P0000 60001 T00500050 50007=
202112070817 SPECI KPWT 070817Z AUTO 05006KT 7SM OVC010 05/05 A3001 RMK AO2 RAE08 CIG 007V011 P0000=
202112070756 METAR KPWT 070756Z AUTO 05006KT 3SM -RA BR OVC008 05/05 A3001 RMK AO2 SLP170 P0000 T00500050 400610006=
202112070736 SPECI KPWT 070736Z AUTO 05005KT 4SM -RA BR OVC008 05/05 A3002 RMK AO2 P0000=
202112070727 SPECI KPWT 070727Z AUTO 04003KT 2 1/2SM -RA BR OVC008 05/05 A3002 RMK AO2 P0000=
202112070656 METAR KPWT 070656Z AUTO 05003KT 3SM -RA BR OVC006 05/05 A3001 RMK AO2 RAE18B52 CIG 003V010 SLP167 P0001 T00500050=
202112070607 SPECI KPWT 070607Z AUTO 00000KT 3SM -RA BR SCT004 BKN007 OVC010 05/05 A2999 RMK AO2 P0000=
202112070556 METAR KPWT 070556Z AUTO 00000KT 2 1/2SM -RA BR SCT004 OVC010 05/05 A2998 RMK AO2 CIG 006V012 SLP161 P0000 60005 T00500050 10061 20050 53004=
202112070537 SPECI KPWT 070537Z AUTO 00000KT 2 1/2SM -RA BR BKN007 OVC013 05/05 A2998 RMK AO2 CIG 005V009 P0000=
202112070532 SPECI KPWT 070532Z AUTO 00000KT 3SM BR BKN010 OVC014 05/05 A2998 RMK AO2 RAE30 CIG 005V012 P0000=
202112070519 SPECI KPWT 070519Z AUTO 00000KT 4SM -RA BR BKN008 OVC014 05/05 A2997 RMK AO2 CIG 005V009 P0000=
202112070510 SPECI KPWT 070510Z AUTO 00000KT 2 1/2SM -RA BR OVC010 05/05 A2997 RMK AO2 CIG 008V013 P0000=
202112070456 METAR KPWT 070456Z AUTO 00000KT 4SM -RA BR OVC008 05/05 A2997 RMK AO2 SLP155 P0001 T00500050=
202112070356 METAR KPWT 070356Z AUTO 05004KT 7SM -RA OVC008 05/05 A2997 RMK AO2 SLP154 P0002 T00500050=
202112070311 SPECI KPWT 070311Z AUTO 04005KT 4SM -RA BR OVC006 05/05 A2998 RMK AO2 CIG 004V008 P0000=
202112070256 METAR KPWT 070256Z AUTO 05005KT 4SM -RA BR OVC004 05/05 A2997 RMK AO2 CIG 002V006 SLP154 P0001 60002 T00500050 52006=
202112070209 SPECI KPWT 070209Z AUTO 00000KT 3SM -RA BR BKN002 OVC015 06/06 A2996 RMK AO2 P0000=
202112070156 METAR KPWT 070156Z AUTO 24003KT 5SM -RA BR FEW004 OVC015 06/06 A2997 RMK AO2 RAB28 SLP153 P0001 T00610061=
202112070056 METAR KPWT 070056Z AUTO 19005KT 10SM OVC021 06/06 A2995 RMK AO2 RAE08 SLP150 P0000 T00560056=
202112070034 SPECI KPWT 070034Z AUTO 20005KT 10SM SCT003 OVC023 06/06 A2995 RMK AO2 RAE08 P0000=
202112062356 METAR KPWT 062356Z AUTO 22005KT 3SM -RA BR BKN003 BKN007 OVC025 06/06 A2995 RMK AO2 SLP149 P0000 60000 T00560056 10056 20039 55007=
202112062345 SPECI KPWT 062345Z AUTO 22007KT 2 1/2SM -RA BR BKN003 BKN007 OVC025 06/06 A2995 RMK AO2 P0000=
202112062333 SPECI KPWT 062333Z AUTO 22009KT 3SM -RA BR BKN003 OVC007 06/06 A2995 RMK AO2 P0000=
202112062256 METAR KPWT 062256Z AUTO 23007KT 1 1/2SM -RA BR OVC003 06/06 A2994 RMK AO2 RAB08 SLP146 P0000 T00560056=
202112062156 METAR KPWT 062156Z AUTO 23006KT 1 3/4SM BR OVC003 05/05 A2996 RMK AO2 RAE39 SLP151 P0000 T00500050=
202112062117 SPECI KPWT 062117Z AUTO 24009KT 2SM -RA BR OVC003 05/05 A2996 RMK AO2 P0000=
202112062056 METAR KPWT 062056Z AUTO 23009KT 1 1/2SM -RA BR OVC003 05/05 A2997 RMK AO2 SLP155 P0000 60000 T00500050 56026=
202112061956 METAR KPWT 061956Z AUTO 23009KT 1 1/2SM -RA BR OVC003 04/04 A2999 RMK AO2 SLP163 P0000 T00440044=
202112061933 SPECI KPWT 061933Z AUTO 23010KT 1 3/4SM -RA BR OVC003 04/04 A3001 RMK AO2 P0000=
202112061856 METAR KPWT 061856Z AUTO 23009KT 2 1/2SM -RA BR OVC003 04/04 A3002 RMK AO2 RAB08 SLP173 P0000 T00440039=
202112061820 SPECI KPWT 061820Z AUTO 23010KT 2 1/2SM -RA BR OVC003 04/04 A3004 RMK AO2 RAB08 P0000=
202112061802 SPECI KPWT 061802Z AUTO 22009KT 2 1/2SM BR BKN005 BKN008 OVC032 04/04 A3005 RMK AO2=
202112061756 METAR KPWT 061756Z AUTO 22009KT 3SM BR BKN003 BKN007 OVC034 04/04 A3005 RMK AO2 SLP182 60000 T00390039 10039 20006 57010=
202112061751 SPECI KPWT 061751Z AUTO 22009KT 3SM BR BKN005 BKN012 OVC034 04/04 A3005 RMK AO2 CIG 003V008=
202112061737 SPECI KPWT 061737Z AUTO 22008KT 3SM BR FEW003 SCT014 OVC038 03/03 A3006 RMK AO2=
202112061656 METAR KPWT 061656Z AUTO 21009KT 10SM BKN038 OVC049 03/03 A3006 RMK AO2 SLP185 T00280028=
202112061556 METAR KPWT 061556Z AUTO 19009KT 10SM OVC047 02/02 A3007 RMK AO2 RAE1458 SLP190 P0000 T00220022 FZRANO=
202112061521 SPECI KPWT 061521Z AUTO 19007KT 10SM FEW011 SCT027 OVC045 02/02 A3007 RMK AO2 RAE1458 P0000 FZRANO=
202112061511 SPECI KPWT 061511Z AUTO 19010KT 10SM SCT011 BKN027 OVC045 02/02 A3008 RMK AO2 RAE1458 P0000 FZRANO=
202112061503 SPECI KPWT 061503Z AUTO 19008KT 10SM BKN009 BKN027 OVC050 02/02 A3008 RMK AO2 RAE1458 CIG 008V014 P0000 FZRANO=
202112061456 METAR KPWT 061456Z AUTO 18006KT 10SM -RA SCT009 BKN012 OVC033 02/02 A3008 RMK AO2 RAE10B31 SLP193 P0000 60000 T00220017 56027 FZRANO=
202112061433 SPECI KPWT 061433Z AUTO 21004KT 10SM -RA BKN009 OVC047 02/02 A3009 RMK AO2 RAE10B31 P0000 FZRANO=
202112061423 SPECI KPWT 061423Z AUTO 20005KT 10SM SCT009 OVC047 02/02 A3010 RMK AO2 RAE10 P0000 FZRANO=
202112061356 METAR KPWT 061356Z AUTO 19005KT 10SM -RA OVC050 02/01 A3009 RMK AO2 RAB45 SLP199 P0000 T00170011 FZRANO=
202112061256 METAR KPWT 061256Z AUTO 25004KT 10SM FEW002 OVC055 01/01 A3012 RMK AO2 SLP208 T00110006 FZRANO=
202112061156 METAR KPWT 061156Z AUTO 00000KT 10SM OVC055 01/01 A3016 RMK AO2 RAB01E11SNE01 SLP221 P0000 60001 70001 T00060006 10028 20006 57043 FZRANO=
202112061056 METAR KPWT 061056Z AUTO 22004KT 7SM -SN FEW003 SCT009 01/01 A3020 RMK AO2 RAE48SNB48 SLP235 P0001 T00060006 FZRANO=
202112061049 SPECI KPWT 061049Z AUTO 22005KT 7SM -SN FEW003 BKN009 01/01 A3021 RMK AO2 RAE48SNB48 P0001 FZRANO=
202112061033 SPECI KPWT 061033Z AUTO 22006KT 10SM -RA SCT003 SCT014 01/01 A3022 RMK AO2 P0001 FZRANO=
202112061029 SPECI KPWT 061029Z AUTO 25005KT 10SM -RA BKN003 BKN014 01/01 A3022 RMK AO2 P0001 FZRANO=
202112061018 SPECI KPWT 061018Z AUTO 25006KT 10SM -RA SCT003 BKN014 BKN020 01/01 A3023 RMK AO2 P0001 FZRANO=
202112060956 METAR KPWT 060956Z AUTO 23006KT 7SM -RA FEW014 BKN023 BKN029 02/01 A3025 RMK AO2 RAB07 SLP249 P0000 T00170006 FZRANO=
202112060942 SPECI KPWT 060942Z AUTO 27004KT 10SM -RA FEW015 SCT026 BKN033 02/02 A3025 RMK AO2 RAB07 P0000 FZRANO=
202112060919 SPECI KPWT 060919Z AUTO 00000KT 10SM -RA SCT015 BKN022 BKN028 02/02 A3027 RMK AO2 RAB07 P0000 FZRANO=
202112060856 METAR KPWT 060856Z AUTO 00000KT 10SM FEW047 02/02 A3029 RMK AO2 RAE31UPB31E34 SLP263 P0000 60000 T00220017 58024 FZRANO=
202112060756 METAR KPWT 060756Z AUTO 00000KT 10SM -RA FEW030 SCT035 02/01 A3032 RMK AO2 RAB50 SLP274 P0000 T00220011 400560006 FZRANO=
202112060656 METAR KPWT 060656Z AUTO 00000KT 10SM CLR 02/01 A3034 RMK AO2 SLP281 T00220011 FZRANO=
202112060556 METAR KPWT 060556Z AUTO 00000KT 10SM CLR 02/02 A3036 RMK AO2 SLP288 T00220017 10039 20022 56033 FZRANO=
202112060456 METAR KPWT 060456Z AUTO 00000KT 10SM CLR 02/02 A3038 RMK AO2 SLP297 T00220017 FZRANO=
202112060356 METAR KPWT 060356Z AUTO 00000KT 10SM CLR 03/01 A3041 RMK AO2 SLP306 T00280011=
202112060256 METAR KPWT 060256Z AUTO 03004KT 10SM FEW110 03/01 A3046 RMK AO2 SLP322 T00280011 56012=
202112060156 METAR KPWT 060156Z AUTO 06004KT 10SM CLR 03/02 A3046 RMK AO2 SLP324 T00280017=
202112060056 METAR KPWT 060056Z AUTO 00000KT 10SM FEW100 03/02 A3048 RMK AO2 SLP327 T00330017=
202112052356 METAR KPWT 052356Z AUTO 00000KT 10SM CLR 04/01 A3049 RMK AO2 SLP333 T00390011 10056 20033 56018=
202112052256 METAR KPWT 052256Z AUTO 02005KT 10SM CLR 05/00 A3050 RMK AO2 SLP334 T00500000=
202112052156 METAR KPWT 052156Z AUTO 03003KT 10SM CLR 05/01 A3052 RMK AO2 SLP343 T00500011=
202112052056 METAR KPWT 052056Z AUTO 02006KT 10SM FEW016 06/01 A3055 RMK AO2 SLP352 T00560011 58008=
202112051956 METAR KPWT 051956Z AUTO 03004KT 10SM CLR 04/01 A3057 RMK AO2 SLP357 T00440006=
202112051856 METAR KPWT 051856Z AUTO 00000KT 10SM FEW050 04/04 A3057 RMK AO2 SLP359 T00440039=
202112051756 METAR KPWT 051756Z AUTO 00000KT 10SM BKN050 03/03 A3057 RMK AO2 SLP358 60000 T00330033 10033 20006 51018=
202112051656 METAR KPWT 051656Z AUTO 00000KT 10SM CLR 02/02 A3056 RMK AO2 SLP354 T00170017 FZRANO=
202112051556 METAR KPWT 051556Z AUTO 00000KT 10SM SCT034 01/01 A3053 RMK AO2 SLP347 T00060006 FZRANO=
202112051546 SPECI KPWT 051546Z AUTO 00000KT 10SM SCT020 SCT034 01/01 A3053 RMK AO2 FZRANO=
202112051512 SPECI KPWT 051512Z AUTO 00000KT 10SM BKN017 OVC049 02/01 A3052 RMK AO2 FZRANO=
202112051456 METAR KPWT 051456Z AUTO 00000KT 10SM FEW017 OVC049 02/01 A3052 RMK AO2 SLP341 60000 T00170011 51013 FZRANO=
202112051426 SPECI KPWT 051426Z AUTO 03003KT 10SM FEW006 BKN049 02/01 A3051 RMK AO2 FZRANO=
202112051404 SPECI KPWT 051404Z AUTO 06007KT 10SM BKN006 OVC011 02/02 A3051 RMK AO2 CIG 003V009 FZRANO=
202112051356 METAR KPWT 051356Z AUTO 04006KT 10SM OVC004 02/02 A3051 RMK AO2 UPB38E53 CIG 003V008 SLP340 P0000 T00220017 FZRANO=
202112051328 SPECI KPWT 051328Z AUTO 05007KT 10SM BKN004 OVC023 02/02 A3050 RMK AO2 FZRANO=
202112051316 SPECI KPWT 051316Z AUTO 06008KT 10SM SCT004 OVC023 02/02 A3050 RMK AO2 FZRANO=
202112051256 METAR KPWT 051256Z AUTO 00000KT 10SM BKN021 OVC028 03/02 A3049 RMK AO2 SLP332 T00280022=
202112051248 SPECI KPWT 051248Z AUTO 00000KT 10SM BKN019 BKN028 BKN060 03/02 A3049 RMK AO2=
202112051156 METAR KPWT 051156Z AUTO 00000KT 10SM OVC030 03/03 A3048 RMK AO2 UPE17 SLP328 P0000 60000 70030 T00280028 10039 20022 53015=
202112051146 SPECI KPWT 051146Z AUTO 00000KT 10SM BKN030 03/03 A3048 RMK AO2 UPE17 P0000=
202112051056 METAR KPWT 051056Z AUTO 08003KT 10SM UP OVC027 03/03 A3046 RMK AO2 RAE0957UPB49 SLP322 P0000 T00280028=
202112050956 METAR KPWT 050956Z AUTO 00000KT 10SM -RA FEW022 OVC029 03/03 A3044 RMK AO2 UPE0858RAB12 SLP314 P0000 T00280028=
202112050954 SPECI KPWT 050954Z AUTO 00000KT 10SM -RA FEW022 BKN029 OVC038 03/03 A3044 RMK AO2 UPE0858RAB12 P0000=
202112050856 METAR KPWT 050856Z AUTO 00000KT 9SM UP SCT017 03/03 A3041 RMK AO2 RAB44E45UPB45 SLP306 P0000 60000 T00280028 51023=
202112050756 METAR KPWT 050756Z AUTO 00000KT 10SM OVC015 03/03 A3040 RMK AO2 SLP302 T00280028 400390028=
202112050713 SPECI KPWT 050713Z AUTO 00000KT 10SM BKN015 BKN036 03/03 A3039 RMK AO2=
202112050656 METAR KPWT 050656Z AUTO 00000KT 10SM FEW017 BKN036 03/03 A3038 RMK AO2 RAE54 SLP293 P0000 T00330028=
202112050616 SPECI KPWT 050616Z AUTO 00000KT 10SM -RA SCT020 BKN039 03/03 A3036 RMK AO2 P0000=
202112050556 METAR KPWT 050556Z AUTO 00000KT 10SM -RA BKN020 OVC027 04/03 A3035 RMK AO2 RAB29 SLP282 P0000 60000 T00390033 10039 20033 51039=
202112050542 SPECI KPWT 050542Z AUTO 00000KT 10SM -RA SCT022 BKN027 OVC041 04/03 A3034 RMK AO2 RAB29 P0000=
202112050456 METAR KPWT 050456Z AUTO 04003KT 10SM FEW015 OVC042 04/03 A3031 RMK AO2 SLP271 T00390028=
202112050356 METAR KPWT 050356Z AUTO 04004KT 10SM SCT040 BKN050 04/03 A3027 RMK AO2 RAB16E41 SLP259 P0000 T00390028=
202112050336 SPECI KPWT 050336Z AUTO 06006KT 10SM -RA FEW012 SCT055 03/03 A3025 RMK AO2 RAB16 P0000=
202112050307 SPECI KPWT 050307Z AUTO 04008KT 10SM BKN010 BKN017 04/03 A3023 RMK AO2 CIG 008V013=
202112050256 METAR KPWT 050256Z AUTO 04010KT 10SM FEW010 BKN017 BKN045 04/03 A3023 RMK AO2 SLP242 60000 T00390028 53031=
202112050230 SPECI KPWT 050230Z AUTO 04009KT 10SM SCT008 OVC045 04/03 A3022 RMK AO2=
202112050156 METAR KPWT 050156Z AUTO 04011KT 10SM SCT007 BKN010 OVC047 04/03 A3019 RMK AO2 SLP231 T00390028=
202112050146 SPECI KPWT 050146Z AUTO 03011G18KT 10SM SCT007 BKN010 OVC047 04/03 A3019 RMK AO2=
202112050134 SPECI KPWT 050134Z AUTO 04010KT 10SM BKN007 BKN010 OVC045 04/03 A3019 RMK AO2 CIG 005V008=
202112050115 SPECI KPWT 050115Z AUTO 04008G17KT 10SM FEW007 SCT010 OVC045 04/03 A3018 RMK AO2=
202112050106 SPECI KPWT 050106Z AUTO 04012KT 10SM BKN010 BKN041 OVC050 04/03 A3017 RMK AO2 CIG 005V013=
202112050056 METAR KPWT 050056Z AUTO 04010KT 10SM SCT008 OVC041 04/03 A3017 RMK AO2 RAE38 SLP221 P0000 T00390033=
202112042356 METAR KPWT 042356Z AUTO 03009KT 10SM -RA SCT029 BKN037 03/03 A3014 RMK AO2 SLP212 P0003 60017 T00330028 10039 20033 53018=
202112042342 SPECI KPWT 042342Z AUTO 02006KT 10SM -RA FEW029 OVC037 03/03 A3014 RMK AO2 P0002=
202112042256 METAR KPWT 042256Z AUTO 03006KT 6SM -RA BR BKN026 OVC032 03/03 A3011 RMK AO2 SLP204 P0004 T00330033=
202112042156 METAR KPWT 042156Z AUTO 04006KT 5SM -RA BR FEW004 SCT016 OVC025 03/03 A3010 RMK AO2 SLP199 P0005 T00330028=
202112042056 METAR KPWT 042056Z AUTO 04004KT 4SM RA BR FEW004 BKN012 04/03 A3008 RMK AO2 SLP192 P0004 60005 T00390033 55004=
202112042054 SPECI KPWT 042054Z AUTO 05005KT 4SM RA BR FEW004 BKN012 04/03 A3008 RMK AO2 P0004=
202112042007 SPECI KPWT 042007Z AUTO 02003KT 10SM -RA SCT005 04/04 A3009 RMK AO2 P0000=
202112041956 METAR KPWT 041956Z AUTO 01004KT 10SM -RA BKN005 04/04 A3009 RMK AO2 SLP196 P0001 T00390039=
202112041938 SPECI KPWT 041938Z AUTO 35004KT 10SM -RA OVC005 04/04 A3010 RMK AO2 P0000=
202112041856 METAR KPWT 041856Z AUTO 00000KT 10SM -RA OVC007 04/03 A3009 RMK AO2 RAB31 SLP196 P0000 T00390033=
202112041828 SPECI KPWT 041828Z AUTO 19003KT 10SM OVC007 04/03 A3009 RMK AO2 CIG 005V009=
202112041756 METAR KPWT 041756Z AUTO 21005KT 10SM BKN005 OVC009 03/03 A3009 RMK AO2 RAE29 SLP194 P0000 60013 T00330033 10033 20028 53012=
202112041730 SPECI KPWT 041730Z AUTO 20007KT 10SM BKN005 BKN010 OVC036 03/03 A3008 RMK AO2 RAE29 CIG 004V009 P0000=
202112041725 SPECI KPWT 041725Z AUTO 19006KT 10SM -RA FEW005 SCT010 OVC036 03/03 A3008 RMK AO2 P0000=
202112041703 SPECI KPWT 041703Z AUTO 20007KT 10SM -RA OVC008 03/03 A3007 RMK AO2 CIG 004V011 P0000=
202112041656 METAR KPWT 041656Z AUTO 19006KT 10SM -RA BKN005 OVC010 03/03 A3007 RMK AO2 CIG 004V008 SLP187 P0002 T00330028=
202112041628 SPECI KPWT 041628Z AUTO 21005KT 8SM -RA BKN005 BKN010 OVC016 03/03 A3006 RMK AO2 CIG 003V009 P0001=
202112041556 METAR KPWT 041556Z AUTO 18004KT 6SM -RA BR OVC007 03/03 A3005 RMK AO2 CIG 005V012 SLP184 P0007 T00280028=
202112041456 METAR KPWT 041456Z AUTO 00000KT 3SM -RA BR OVC009 03/03 A3005 RMK AO2 CIG 007V013 SLP182 P0004 60004 T00330028 50001=
202112041451 SPECI KPWT 041451Z AUTO 00000KT 4SM -RA BR BKN009 OVC014 03/03 A3005 RMK AO2 CIG 008V011 P0004=
202112041426 SPECI KPWT 041426Z AUTO 00000KT 5SM -RA BR BKN011 03/03 A3005 RMK AO2 P0001=
202112041409 SPECI KPWT 041409Z AUTO 00000KT 10SM -RA SCT011 BKN030 03/03 A3005 RMK AO2 P0000=
202112041356 METAR KPWT 041356Z AUTO 34003KT 10SM -RA BKN011 OVC033 03/03 A3005 RMK AO2 SLP182 P0000 T00330028=
202112041256 METAR KPWT 041256Z AUTO 00000KT 10SM -RA FEW060 03/03 A3005 RMK AO2 RAB1159 SLP181 P0000 T00330028=
202112041156 METAR KPWT 041156Z AUTO 32004KT 10SM FEW055 03/02 A3004 RMK AO2 RAE17 SLP177 P0000 60000 7//// T00330022 10039 20028 58010=
202112041056 METAR KPWT 041056Z AUTO 21003KT 10SM -RA FEW075 03/02 A3006 RMK AO2 RAB08E23B47 SLP185 P0000 T00280022=
202112040956 METAR KPWT 040956Z AUTO 00000KT 10SM FEW080 03/02 A3005 RMK AO2 RAB13E24 SLP183 P0000 T00330022=
202112040856 METAR KPWT 040856Z AUTO 00000KT 10SM FEW080 04/02 A3006 RMK AO2 SLP188 T00390017 58017=
202112040756 METAR KPWT 040756Z AUTO 03003KT 10SM BKN080 04/02 A3010 RMK AO2 SLP202 T00390017 400610028=
202112040656 METAR KPWT 040656Z AUTO 05009KT 10SM BKN085 04/02 A3011 RMK AO2 SLP204 T00390017=
202112040556 METAR KPWT 040556Z AUTO 04009KT 10SM CLR 04/01 A3011 RMK AO2 SLP204 6//// T00390011 10044 20039 58015=
202112040456 METAR KPWT 040456Z AUTO 02008KT 10SM BKN095 04/01 A3015 RMK AO2 SLP216 T00390011=
202112040356 METAR KPWT 040356Z AUTO 04010KT 10SM FEW100 04/01 A3013 RMK AO2 PRESFR SLP210 T00390011=
202112040256 METAR KPWT 040256Z AUTO 04010KT 10SM CLR 04/01 A3016 RMK AO2 SLP220 T00390011 58014=
202112040156 METAR KPWT 040156Z AUTO 03007KT 10SM CLR 04/01 A3019 RMK AO2 SLP230 T00390011=
202112040056 METAR KPWT 040056Z AUTO 04008KT 10SM CLR 04/01 A3020 RMK AO2 SLP231 T00390006=
202112032356 METAR KPWT 032356Z AUTO 04010KT 10SM CLR 04/01 A3020 RMK AO2 SLP233 T00440011 10061 20039 58019=
202112032256 METAR KPWT 032256Z AUTO 03012KT 10SM CLR 05/01 A3022 RMK AO2 SLP242 T00500011=
202112032156 METAR KPWT 032156Z AUTO 02012G18KT 10SM CLR 06/02 A3025 RMK AO2 SLP252 T00560017=
202112032056 METAR KPWT 032056Z AUTO 05009KT 10SM CLR 06/02 A3026 RMK AO2 SLP255 T00560017 58021=
202112031956 METAR KPWT 031956Z AUTO 03011KT 10SM FEW016 05/02 A3029 RMK AO2 SLP264 T00500022=
202112031856 METAR KPWT 031856Z AUTO 03010KT 10SM CLR 04/02 A3031 RMK AO2 SLP270 T00440022=
202112031756 METAR KPWT 031756Z AUTO 05011KT 10SM CLR 04/02 A3032 RMK AO2 SLP273 6//// T00390017 10039 20028 56008=
202112031656 METAR KPWT 031656Z AUTO 04006KT 10SM CLR 03/01 A3033 RMK AO2 SLP278 T00330011=
202112031556 METAR KPWT 031556Z AUTO 04007KT 10SM CLR 03/01 A3033 RMK AO2 SLP276 T00280011=
202112031456 METAR KPWT 031456Z AUTO 03008KT 10SM CLR 03/01 A3034 RMK AO2 SLP282 6//// T00280006 56003=
202112031356 METAR KPWT 031356Z AUTO 04010KT 10SM CLR 03/00 A3034 RMK AO2 SLP282 T00280000=
202112031256 METAR KPWT 031256Z AUTO 05014KT 10SM CLR 03/01 A3034 RMK AO2 SLP283 T00330006=
202112031156 METAR KPWT 031156Z AUTO 04014G17KT 10SM CLR 03/00 A3035 RMK AO2 SLP286 70030 T00330000 10039 20028 56004=
202112031056 METAR KPWT 031056Z AUTO 04010KT 10SM CLR 03/M01 A3035 RMK AO2 SLP286 T00331006=
202112030956 METAR KPWT 030956Z AUTO 06009KT 10SM CLR 03/M01 A3036 RMK AO2 SLP288 T00331006=
202112030856 METAR KPWT 030856Z AUTO 05008KT 10SM CLR 03/00 A3037 RMK AO2 SLP290 T00330000 58004=
202112030756 METAR KPWT 030756Z AUTO 04008KT 10SM CLR 04/00 A3037 RMK AO2 SLP291 T00390000 401060028=
202112030656 METAR KPWT 030656Z AUTO 04003KT 10SM CLR 03/02 A3038 RMK AO2 SLP294 T00330017=
202112030556 METAR KPWT 030556Z AUTO 06003KT 10SM FEW055 04/02 A3038 RMK AO2 SLP294 T00390017 10061 20039 51008=
202112030456 METAR KPWT 030456Z AUTO 04006KT 10SM OVC049 05/02 A3038 RMK AO2 SLP293 T00500022=
202112030356 METAR KPWT 030356Z AUTO 04006KT 10SM OVC045 05/01 A3036 RMK AO2 SLP289 T00500011=
202112030256 METAR KPWT 030256Z AUTO 04008KT 10SM OVC045 05/02 A3035 RMK AO2 SLP285 T00500017 53007=
202112030156 METAR KPWT 030156Z AUTO 03005KT 10SM BKN045 BKN065 05/02 A3034 RMK AO2 SLP281 T00500022=
202112030056 METAR KPWT 030056Z AUTO 04008KT 10SM BKN065 05/03 A3034 RMK AO2 SLP280 T00500028=
202112022356 METAR KPWT 022356Z AUTO 05007KT 10SM BKN042 06/04 A3033 RMK AO2 SLP277 60010 T00610044 10072 20061 52005=
202112022307 SPECI KPWT 022307Z AUTO 07004KT 10SM SCT024 OVC040 07/06 A3032 RMK AO2=
202112022256 METAR KPWT 022256Z AUTO 06004KT 10SM BKN021 BKN025 OVC042 07/06 A3032 RMK AO2 RAE13 SLP274 P0000 T00720061=
202112022243 SPECI KPWT 022243Z AUTO 06006KT 10SM FEW007 OVC021 07/06 A3032 RMK AO2 RAE13 P0000=
202112022236 SPECI KPWT 022236Z AUTO 06003KT 10SM FEW011 OVC019 07/06 A3032 RMK AO2 RAE13 P0000=
202112022228 SPECI KPWT 022228Z AUTO 03005KT 10SM FEW007 BKN013 OVC019 07/06 A3032 RMK AO2 RAE13 P0000=
202112022156 METAR KPWT 022156Z AUTO 08004KT 10SM -RA BKN026 BKN034 OVC044 07/06 A3032 RMK AO2 SLP274 P0000 T00720061=
202112022115 SPECI KPWT 022115Z AUTO 09006KT 10SM -RA SCT022 BKN037 BKN046 07/06 A3031 RMK AO2 P0000=
202112022056 METAR KPWT 022056Z AUTO 07005KT 10SM -RA FEW007 BKN022 OVC036 07/07 A3032 RMK AO2 SLP271 P0000 60010 T00720067 51012=
202112022033 SPECI KPWT 022033Z AUTO 06006KT 9SM -RA FEW007 BKN022 OVC036 07/06 A3032 RMK AO2 P0000=
202112022022 SPECI KPWT 022022Z AUTO 09008KT 7SM -RA FEW013 SCT024 OVC036 07/07 A3031 RMK AO2 P0000=
202112021956 METAR KPWT 021956Z AUTO 09008KT 6SM -RA BR SCT009 BKN015 OVC025 07/06 A3031 RMK AO2 SLP268 P0004 T00720061=
202112021915 SPECI KPWT 021915Z AUTO 07006KT 4SM -RA BR SCT008 OVC012 07/06 A3030 RMK AO2 P0001=
202112021856 METAR KPWT 021856Z AUTO 08006KT 4SM -RA BR BKN007 BKN012 OVC018 07/07 A3030 RMK AO2 CIG 005V010 SLP267 P0006 T00720067=
202112021818 SPECI KPWT 021818Z AUTO 05008KT 4SM RA BR BKN005 OVC012 07/06 A3029 RMK AO2 CIG 004V008 P0004=
202112021803 SPECI KPWT 021803Z AUTO VRB04KT 4SM RA BR BKN007 OVC013 07/07 A3029 RMK AO2 CIG 004V010 P0001=
202112021756 METAR KPWT 021756Z AUTO 06008KT 6SM RA BR BKN005 OVC009 07/07 A3028 RMK AO2 SLP259 P0008 60020 T00720067 10089 20072 51015=
202112021742 SPECI KPWT 021742Z AUTO 06010G14KT 5SM RA BR BKN007 OVC012 07/07 A3027 RMK AO2 CIG 004V009 P0006=
202112021706 SPECI KPWT 021706Z AUTO 07007KT 2SM -RA BR BKN007 OVC012 07/07 A3027 RMK AO2 CIG 005V009 P0001=
202112021656 METAR KPWT 021656Z AUTO 07006KT 1 1/2SM -RA BR BKN007 OVC014 07/07 A3026 RMK AO2 CIG 005V009 SLP253 P0007 T00720067=
202112021651 SPECI KPWT 021651Z AUTO 07005KT 1 1/2SM RA BR BKN007 BKN014 OVC019 07/07 A3026 RMK AO2 VIS 1 1/4V2 CIG 005V009 P0007=
202112021642 SPECI KPWT 021642Z AUTO 10007KT 1 3/4SM -RA BR SCT009 OVC017 08/07 A3026 RMK AO2 VIS 1 1/4V4 P0005=
202112021624 SPECI KPWT 021624Z AUTO 09006KT 3SM RA BR FEW006 SCT012 OVC020 08/07 A3024 RMK AO2 P0005=
202112021616 SPECI KPWT 021616Z AUTO 09005KT 3SM RA BR SCT006 BKN012 OVC020 08/07 A3024 RMK AO2 P0003=
202112021612 SPECI KPWT 021612Z AUTO 07006KT 2 1/2SM RA BR BKN006 BKN012 OVC018 08/07 A3024 RMK AO2 CIG 004V008 P0003=
202112021556 METAR KPWT 021556Z AUTO 10005KT 1 3/4SM -RA BR OVC006 07/07 A3024 RMK AO2 CIG 004V009 SLP244 P0003 T00720072=
202112021548 SPECI KPWT 021548Z AUTO 09004KT 1 3/4SM -RA BR OVC006 07/07 A3024 RMK AO2 CIG 004V011 P0002=
202112021541 SPECI KPWT 021541Z AUTO 10003KT 2SM -RA BR BKN006 OVC010 08/07 A3024 RMK AO2 CIG 004V008 P0002=
202112021517 SPECI KPWT 021517Z AUTO 08005KT 3SM -RA BR BKN009 OVC015 08/07 A3023 RMK AO2 CIG 005V011 P0000=
202112021506 SPECI KPWT 021506Z AUTO 07009KT 4SM -RA BR SCT006 OVC013 08/07 A3022 RMK AO2 P0000=
202112021456 METAR KPWT 021456Z AUTO 08006KT 3SM -RA BR OVC010 08/07 A3021 RMK AO2 RAB22 CIG 005V013 SLP235 P0002 60002 T00780072 51009=
202112021452 SPECI KPWT 021452Z AUTO 08004KT 4SM RA BR OVC010 08/07 A3021 RMK AO2 RAB22 CIG 006V013 P0001=
202112021356 METAR KPWT 021356Z AUTO 06004KT 10SM BKN008 OVC015 08/08 A3020 RMK AO2 SLP232 T00830078=
202112021349 SPECI KPWT 021349Z AUTO 06004KT 10SM BKN008 OVC015 08/08 A3020 RMK AO2=
202112021340 SPECI KPWT 021340Z AUTO 06008KT 10SM SCT008 BKN015 08/08 A3020 RMK AO2=
202112021256 METAR KPWT 021256Z AUTO 13005KT 10SM OVC015 09/08 A3018 RMK AO2 SLP227 T00890083=
202112021223 SPECI KPWT 021223Z AUTO 00000KT 10SM OVC015 09/08 A3019 RMK AO2=
202112021156 METAR KPWT 021156Z AUTO 17003KT 10SM OVC013 09/08 A3018 RMK AO2 SLP226 6//// 7//// T00890078 10111 20089 51009=
202112021106 SPECI KPWT 021106Z AUTO 21006KT 10SM BKN013 09/08 A3019 RMK AO2 PRESRR=
202112021056 METAR KPWT 021056Z AUTO 20006KT 10SM SCT013 09/08 A3017 RMK AO2 SLP223 T00940083=
202112021051 SPECI KPWT 021051Z AUTO 20007KT 10SM BKN013 09/08 A3017 RMK AO2=
202112020956 METAR KPWT 020956Z AUTO 24003KT 10SM BKN008 OVC011 10/09 A3016 RMK AO2 SLP217 T01000089=
202112020856 METAR KPWT 020856Z AUTO 24009KT 10SM OVC006 10/09 A3015 RMK AO2 SLP215 6//// T01000094 50001=
202112020756 METAR KPWT 020756Z AUTO 22007KT 10SM OVC008 11/10 A3016 RMK AO2 SLP216 T01060100 401220106=
202112020656 METAR KPWT 020656Z AUTO 23005KT 10SM OVC006 11/10 A3016 RMK AO2 CIG 005V009 SLP217 T01060100=
202112020556 METAR KPWT 020556Z AUTO 23004KT 10SM OVC006 11/11 A3015 RMK AO2 SLP214 6//// T01060106 10111 20106 53020=
202112020456 METAR KPWT 020456Z AUTO 23006KT 10SM OVC006 11/10 A3013 RMK AO2 SLP207 T01110100=
202112020356 METAR KPWT 020356Z AUTO 20014G20KT 10SM OVC006 11/10 A3010 RMK AO2 CIG 005V010 SLP196 T01110100=
202112020256 METAR KPWT 020256Z AUTO 20015G22KT 10SM OVC008 11/10 A3009 RMK AO2 SLP193 6//// T01060100 55001=
202112020211 SPECI KPWT 020211Z AUTO 20014G23KT 10SM BKN008 11/10 A3008 RMK AO2 CIG 006V012=
202112020156 METAR KPWT 020156Z AUTO 20016G26KT 10SM FEW008 11/10 A3008 RMK AO2 PK WND 20027/0132 SLP191 T01060100=
202112020139 SPECI KPWT 020139Z AUTO 20018G27KT 10SM SCT006 11/10 A3008 RMK AO2 PK WND 20027/0132=
202112020056 METAR KPWT 020056Z AUTO 21018G24KT 10SM OVC006 11/10 A3008 RMK AO2 SLP191 T01060100=
202112012356 METAR KPWT 012356Z AUTO 20017G23KT 9SM OVC006 11/11 A3009 RMK AO2 SLP194 T01110106 10122 20111 55013=
202112012256 METAR KPWT 012256Z AUTO 20016G24KT 10SM BKN008 12/11 A3009 RMK AO2 SLP194 T01170106=
202112012219 SPECI KPWT 012219Z AUTO 20014G22KT 10SM BKN008 BKN012 12/11 A3011 RMK AO2 CIG 007V010=
202112012156 METAR KPWT 012156Z AUTO 20014G24KT 10SM FEW010 12/11 A3011 RMK AO2 SLP200 T01170106=
202112012118 SPECI KPWT 012118Z AUTO 20015G22KT 10SM SCT007 12/11 A3012 RMK AO2=
202112012056 METAR KPWT 012056Z AUTO 20016G22KT 9SM BKN007 12/11 A3013 RMK AO2 CIG 005V012 SLP207 T01170111 58010=
202112011956 METAR KPWT 011956Z AUTO 20017G23KT 10SM OVC007 12/11 A3014 RMK AO2 SLP211 T01170106=
202112011931 SPECI KPWT 011931Z AUTO 20015G20KT 10SM OVC007 12/11 A3015 RMK AO2=
202112011856 METAR KPWT 011856Z AUTO 20016G23KT 9SM OVC005 12/11 A3016 RMK AO2 PK WND 20026/1836 SLP216 T01170106=
202112011756 METAR KPWT 011756Z AUTO 19016G24KT 9SM OVC005 11/11 A3016 RMK AO2 PK WND 20027/1738 SLPNO 60000 T01110106 10111 20106 58000=
202112011656 METAR KPWT 011656Z AUTO 19012G18KT 10SM OVC005 11/11 A3016 RMK AO2 RAB1559E16 SLP219 P0000 T01060106=
202112011556 METAR KPWT 011556Z AUTO 19014G21KT 4SM BR OVC005 11/11 A3016 RMK AO2 SLP217 T01110106=
202112011543 SPECI KPWT 011543Z AUTO 19013G17KT 9SM BKN005 OVC008 11/11 A3016 RMK AO2=
202112011521 SPECI KPWT 011521Z AUTO 19014G21KT 10SM BKN007 BKN011 11/11 A3016 RMK AO2=
202112011514 SPECI KPWT 011514Z AUTO 19016G25KT 10SM SCT007 BKN011 11/10 A3016 RMK AO2=
202112011456 METAR KPWT 011456Z AUTO 19017G27KT 10SM SCT007 SCT011 11/10 A3016 RMK AO2 PK WND 19027/1451 SLP218 60000 T01110100 58005=
202112011449 SPECI KPWT 011449Z AUTO 19016G23KT 10SM SCT007 11/11 A3016 RMK AO2=
202112011417 SPECI KPWT 011417Z AUTO 20015G24KT 10SM BKN007 11/11 A3017 RMK AO2 CIG 004V011=
202112011356 METAR KPWT 011356Z AUTO 20013KT 10SM OVC005 11/11 A3018 RMK AO2 RAE36 CIG 004V010 SLP224 P0000 T01110106=
202112011256 METAR KPWT 011256Z AUTO 20012G18KT 4SM -RA BR OVC005 11/11 A3017 RMK AO2 SLP220 P0000 T01110106=
202112011216 SPECI KPWT 011216Z AUTO 20013G18KT 4SM -RA BR OVC003 11/11 A3017 RMK AO2 P0000=
202112011156 METAR KPWT 011156Z AUTO 21014KT 4SM -RA BR OVC005 11/11 A3018 RMK AO2 SLP223 P0001 60001 70018 T01110106 10111 20106 58013=
202112011056 METAR KPWT 011056Z AUTO 21014G18KT 5SM -RA BR OVC005 11/11 A3018 RMK AO2 RAB40 SLP226 P0000 T01110106=
202112010956 METAR KPWT 010956Z AUTO 20012G18KT 6SM BR OVC005 11/11 A3020 RMK AO2 SLP233 T01110111=
202112010856 METAR KPWT 010856Z AUTO 21012G20KT 10SM BKN005 BKN030 11/11 A3021 RMK AO2 SLP236 60000 T01110106 56011=
202112010837 SPECI KPWT 010837Z AUTO 21014KT 10SM SCT005 11/11 A3021 RMK AO2=
202112010823 SPECI KPWT 010823Z AUTO 22013KT 10SM BKN005 11/11 A3021 RMK AO2 CIG 005V009=
202112010813 SPECI KPWT 010813Z AUTO 22012G18KT 10SM SCT005 11/11 A3021 RMK AO2=
202112010756 METAR KPWT 010756Z AUTO 22013KT 10SM BKN005 11/11 A3022 RMK AO2 RAB05E45 CIG 003V009 SLP239 P0000 T01110106 401170094=
202112010656 METAR KPWT 010656Z AUTO 21011KT 10SM OVC003 11/11 A3023 RMK AO2 UPE02 SLP240 P0000 T01060106=
202112010556 METAR KPWT 010556Z AUTO 21010KT 10SM UP OVC003 A3024 RMK AO2 RAB11E22UPB22 SLPNO P0000 60003 51004 FZRANO=
202112010456 METAR KPWT 010456Z AUTO 21013KT 10SM OVC003 11/11 A3024 RMK AO2 RAE35 SLP245 P0000 T01110106=
202112010356 METAR KPWT 010356Z AUTO 22013KT 10SM -RA OVC003 11/11 A3025 RMK AO2 SLP250 P0001 T01110106=
202112010256 METAR KPWT 010256Z AUTO 21013KT 10SM -RA OVC003 11/11 A3023 RMK AO2 RAB03 SLP242 P0000 60002 T01060106 53004=
202112010156 METAR KPWT 010156Z AUTO 21017KT 7SM OVC003 11/11 A3022 RMK AO2 RAE17B43E54UPB17E37 SLP237 P0000 T01060106=
202112010056 METAR KPWT 010056Z AUTO 21015G20KT 5SM -RA BR OVC003 11/10 A3022 RMK AO2 SLP238 P0002 T01060100=

# No short TAF reports from KPWT in databse.

###################################
#  large TAF from KPWT
###################################
202112312325 TAF KPWT 312325Z 0100/0124 03007KT P6SM BKN200 FM010600 06006KT
                       P6SM BKN200 FM011200 VRB03KT P6SM FEW003
                       BKN100 OVC200 FM011900 17008KT P6SM SCT020
                       BKN080 OVC120=
202112312105 KPWT 312105Z 3121/0118 03010G18KT P6SM SCT050 FM010300 04008KT
                       P6SM SCT050 BKN200 FM011200 VRB03KT P6SM
                       SCT003 BKN100 OVC200=
202112311737 TAF KPWT 311737Z 3118/0118 02011KT P6SM SCT050 BKN080 FM312100
                       03007KT P6SM SCT050 FM010300 04004KT P6SM
                       SCT050 BKN200 FM011200 VRB03KT P6SM SCT003
                       BKN100 OVC200=
202112311136 TAF KPWT 311136Z 3112/0112 00000KT P6SM VCSH BKN035 FM311700 02005KT
                       P6SM SCT050 FM010400 00000KT P6SM BKN025=
202112310520 TAF KPWT 310520Z 3106/0106 VRB02KT P6SM BKN008 OVC015 FM310800
                       00000KT 5SM BR SCT004 BKN008 FM311700 02005KT
                       P6SM SCT050=
202112302332 TAF KPWT 302332Z 3100/3124 03007KT P6SM VCSH SCT022 BKN035
                      TEMPO 3100/3104 4SM -SN BR BKN015 OVC030
                       FM310400 03004KT P6SM BKN035 FM310800 02003KT
                       5SM BR SCT004 BKN020 FM311800 02008KT P6SM
                       SCT050=
202112301738 TAF KPWT 301738Z 3018/3118 03007KT P6SM VCSH SCT010 BKN025
                      TEMPO 3018/3020 BKN008 FM302200 03006KT P6SM
                       SCT015 BKN035 FM310200 03004KT P6SM BKN050
                       FM310900 02003KT P6SM SCT004 BKN020=
202112301607 KPWT 301607Z 3016/3112 03006KT 6SM BR VCSH OVC003 FM301900 03003KT
                       P6SM VCSH BKN009 BKN015 FM310100 00000KT
                       P6SM OVC010=
202112301448 KPWT 301448Z 3015/3112 20010KT 1SM -SN BR OVC003 FM301900 03003KT
                       P6SM VCSH OVC015 FM310100 00000KT P6SM OVC010=
202112301140 TAF KPWT 301140Z 3012/3112 VRB03KT 1SM -SN BR OVC007 FM301900 03003KT
                       P6SM VCSH OVC015 FM310100 00000KT P6SM OVC010=
202112300619 KPWT 300619Z 3006/3106 19004KT 1SM -SN BR BKN020 FM301200 VRB03KT
                       1SM -SN BR OVC015 FM301900 03003KT 6SM BR
                       VCSH OVC015=
202112300520 TAF KPWT 300520Z 3006/3106 VRB03KT P6SM VCSH OVC040 FM301300 VRB03KT
                       4SM -SN OVC018 FM301900 03002KT 6SM BR VCSH
                       OVC015=
202112292333 TAF KPWT 292333Z 3000/3024 09004KT P6SM SCT100 BKN200 FM300200
                       17004KT P6SM OVC080 FM300800 VRB03KT P6SM
                       VCSH OVC040 FM301300 VRB03KT 4SM -SN OVC018
                       FM301900 03002KT 6SM BR VCSH OVC015=
202112291731 TAF KPWT 291731Z 2918/3018 04010KT P6SM SKC FM292300 04010KT P6SM
                       SCT100 BKN200 FM300200 17004KT P6SM OVC080
                       FM300800 VRB03KT P6SM VCSH OVC040 FM301300
                       VRB03KT 4SM -SN OVC018=
202112291139 TAF KPWT 291139Z 2912/3012 04010KT P6SM FEW040 OVC050 FM292300
                       03006KT P6SM SCT100 BKN200 FM300200 00000KT
                       P6SM OVC050 FM300700 00000KT P6SM OVC025
                       FM301000 00000KT 3SM -SN OVC015=
202112290520 TAF KPWT 290520Z 2906/3006 03009KT P6SM OVC025 FM290700 VRB03KT
                       P6SM -SN OVC022 FM291200 04003KT P6SM FEW250
                       FM292200 02003KT P6SM SCT250 FM300200 00000KT
                       P6SM OVC025=
202112282324 TAF KPWT 282324Z 2900/2924 03009KT P6SM OVC025 FM290300 VRB03KT
                       P6SM -SN OVC022 FM291200 04003KT P6SM FEW250
                       FM292200 02003KT P6SM SCT250=
202112281139 TAF KPWT 281139Z 2812/2912 04006KT P6SM -SN OVC008 FM281300 03003KT
                       P6SM -SN OVC015 FM290000 00000KT 6SM BR
                       OVC015=
202112280520 TAF KPWT 280520Z 2806/2906 22003KT 3SM -SN OVC020 FM281200 VRB02KT
                       4SM BR OVC025 FM281900 00000KT P6SM OVC015=
202112280231 KPWT 280231Z 2803/2824 00000KT 2SM -SN SCT018 FM280500 VRB04KT
                       6SM -SN OVC020 FM281200 VRB02KT P6SM OVC025=
202112272343 KPWT 272343Z 2800/2824 00000KT P6SM OVC025 FM280500 VRB04KT 6SM
                       -SN OVC020 FM281200 VRB02KT P6SM OVC025=
202112272336 TAF KPWT 272336Z 2800/2824 00000KT P6SM OVC025 FM280200 VRB04KT
                       6SM -SN OVC015 FM281200 VRB02KT P6SM OVC025=
202112272109 KPWT 272109Z 2721/2818 03010KT P6SM BKN020 OVC035 FM280200 VRB04KT
                       6SM -SN OVC015 FM280900 VRB02KT P6SM OVC025=
202112271731 TAF KPWT 271731Z 2718/2818 03010KT P6SM OVC050 FM280200 VRB04KT
                       6SM -SN OVC015 FM280900 VRB02KT P6SM OVC025=
202112271139 TAF KPWT 271139Z 2712/2812 05015G25KT P6SM OVC040 FM271700 03010KT
                       P6SM OVC050 FM280100 07006KT P6SM OVC025
                       FM280700 VRB04KT 6SM -SN OVC015=
202112270520 TAF KPWT 270520Z 2706/2806 04013G22KT 2SM -SN BR SCT014 FM270700
                       03010KT 4SM BR OVC020 FM271700 03005KT P6SM
                       SCT005 OVC025 FM280000 00000KT P6SM OVC025=
202112262333 TAF KPWT 262333Z 2700/2724 03009G16KT P6SM OVC030 FM270700 03005KT
                       4SM BR OVC020 FM271700 03005KT P6SM SCT005
                       OVC025=
202112262010 KPWT 262010Z 2620/2718 05012G27KT 2SM -SN BKN025 OVC030 FM262300
                       03009G16KT 2SM -SN BR OVC025 FM270200 03005KT
                       4SM BR OVC015=
202112261822 KPWT 261822Z 2618/2718 05017G27KT 1/2SM SN OVC005 FM262100 03010G22KT
                       1 1/2SM -SN BR OVC015 FM262300 03009G16KT
                       2SM -SN BR OVC015 FM270200 03005KT 4SM BR
                       OVC015=
202112261742 TAF KPWT 261742Z 2618/2718 05012KT 1SM -SN OVC012 FM261900 03010G20KT
                       1 1/2SM -SN BR OVC015 FM270500 03012KT 4SM
                       BR OVC020=
202112261509 KPWT 261509Z 2615/2712 VRB03KT 1/2SM SN FZFG OVC004 FM261900 03007KT
                       1 1/2SM -SN BR OVC015 FM262200 03006KT 6SM
                       -SN OVC015 FM270500 03007KT P6SM OVC025=
202112261141 TAF KPWT 261141Z 2612/2712 17004KT P6SM -SHSN SCT008 BKN025 OVC040
                       FM261300 03002KT 6SM -SN BR OVC015 FM261500
                       VRB03KT 1/2SM SN OVC010 FM261900 02004KT
                       4SM -SN BR OVC015 FM270000 00000KT P6SM
                       OVC020=
202112260538 TAF KPWT 260538Z 2606/2706 20009KT P6SM FEW009 BKN100 FM260800
                       VRB03KT 3SM -SHSN OVC007 FM261500 VRB03KT
                       5SM -SN BR OVC010 FM261900 02004KT P6SM
                       OVC015=
202112260307 KPWT 260307Z 2603/2624 21006KT P6SM BKN050 BKN100 FM260800 VRB03KT
                       3SM -SHSN OVC007 FM261500 VRB03KT 5SM BR
                       OVC010 FM261900 02004KT P6SM OVC015=
202112252329 TAF KPWT 252329Z 2600/2624 19010KT P6SM -SHRA SCT007 FM260100 VRB03KT
                       5SM -SHRA BR OVC010 FM260800 07005KT 3SM
                       -SHSN OVC007 FM261500 VRB03KT 5SM BR OVC010
                       FM261900 02004KT P6SM OVC015=
202112251722 TAF KPWT 251722Z 2518/2618 19010KT P6SM -RA OVC003 FM252000 19005KT
                       P6SM -SHRA OVC015 FM260000 VRB03KT 5SM -SHRA
                       BR OVC010 FM260800 07005KT 3SM -SHSN OVC007
                       FM261300 VRB03KT 5SM BR OVC010=
202112251138 TAF KPWT 251138Z 2512/2612 19010KT P6SM -RA OVC003 FM251400 19007KT
                       P6SM -RA OVC007 FM251800 19005KT P6SM -SHRA
                       OVC020 FM260000 VRB03KT 5SM -SHRA BR OVC015
                       FM260800 07005KT 3SM -SHSN OVC007=
202112250520 TAF KPWT 250520Z 2506/2606 19009KT 5SM -RA BR OVC008 FM251800 19004KT
                       P6SM -SHRA OVC020 FM260000 VRB03KT 5SM -SHRA
                       BR OVC015 FM260200 07005KT 3SM -SHSN OVC007=
202112242339 TAF KPWT 242339Z 2500/2524 19009KT 6SM RA BR BKN008 OVC015 FM250600
                       VRB04KT P6SM -SHRASN OVC020 FM251000 04010KT
                       3SM -SHSN OVC015 FM251300 VRB04KT 3SM -SHRASN
                       OVC007 FM251900 18003KT 4SM -SN OVC010=
202112241910 KPWT 241910Z 2419/2518 20008KT P6SM -RA OVC007 FM250600 VRB04KT
                       P6SM -SHRASN OVC020 FM251000 04010KT 3SM
                       -SHSN OVC015 FM251300 VRB04KT 3SM -SHRASN
                       OVC007=
202112241738 TAF KPWT 241738Z 2418/2518 20009KT P6SM -RAPL OVC005 FM250600 VRB04KT
                       P6SM -SHRASN OVC020 FM251000 04010KT 3SM
                       -SHSN OVC015 FM251300 VRB04KT 3SM -SHRASN
                       OVC007=
202112241120 TAF KPWT 241120Z 2412/2512 20012G20KT P6SM -SHRA BKN005 OVC015
                       FM241800 20010KT P6SM VCSH BKN012 BKN030
                       FM250600 VRB04KT P6SM -SHRASN OVC020 FM251000
                       04010KT 3SM -SHSN OVC015=
202112240724 KPWT 240724Z 2407/2506 20012KT P6SM -RA SCT005 OVC012
                      TEMPO 2407/2411 5SM -RA BR BKN005 OVC010
                       FM241100 18015KT 4SM -RA BR BKN005 OVC012
                       FM241500 18007KT P6SM -SHRA BKN012 BKN030
                       FM242000 17005KT P6SM VCSH BKN020 BKN040=
202112240520 TAF KPWT 240520Z 2406/2506 20008KT P6SM BKN010 OVC110 FM240800
                       16015KT 4SM -RA BR OVC010 FM241500 18007KT
                       4SM -RA OVC015 FM250000 17005KT 5SM BR OVC020=
202112232322 TAF KPWT 232322Z 2400/2424 22015KT P6SM SCT020 OVC110 FM240900
                       16015KT 4SM -RA BR OVC010 FM241500 18007KT
                       4SM -RA OVC015=
202112232056 KPWT 232056Z 2321/2418 23014G20KT P6SM FEW015 FM240000 18015KT
                       P6SM OVC025 FM240900 16012G22KT 4SM -RA
                       BR OVC010=
202112231740 TAF KPWT 231740Z 2318/2418 21015KT P6SM BKN009 FM240000 18008KT
                       P6SM OVC025 FM240900 16012G22KT 4SM -RA
                       BR OVC010=
202112231554 KPWT 231554Z 2316/2412 19011KT P6SM VCSH BKN009 FM240400 18008KT
                       P6SM BKN025 OVC050 FM241100 16012G22KT P6SM
                       -RA BKN020 OVC040=
202112231120 TAF KPWT 231120Z 2312/2412 21012G22KT P6SM VCSH SCT025 BKN060
                      TEMPO 2316/2320 -SHRA BKN025 OVC050 FM240400
                       18008KT P6SM BKN025 OVC050 FM241100 16012G22KT
                       P6SM -RA BKN020 OVC040=
202112230520 TAF KPWT 230520Z 2306/2406 19012KT P6SM SCT015 OVC035
                      TEMPO 2306/2309 4SM SHRA BR BKN015 OVC030
                       FM230900 19012KT P6SM -SHRA BKN015 OVC030
                       FM231700 21012KT P6SM VCSH SCT015 BKN025
                       OVC040 FM232200 21012KT P6SM SCT025 BKN040=
202112222345 TAF KPWT 222345Z 2300/2324 21010KT P6SM -SHRA SCT010 OVC035 FM230600
                       21010KT P6SM SCT004 BKN008 OVC015 FM232100
                       21010KT P6SM SCT008 BKN015 OVC030=
202112222214 KPWT 222214Z 2222/2318 20009G18KT P6SM -RA FEW023 OVC030 FM230400
                       19012KT 5SM -RA BR OVC007 FM231000 21008KT
                       P6SM VCSH OVC007=
202112222031 KPWT 222031Z 2221/2318 19011G19KT P6SM -RA SCT014 BKN045 OVC060
                       FM230400 19012KT 5SM -RA BR OVC007 FM231000
                       21008KT P6SM VCSH OVC007=
202112221720 TAF KPWT 221720Z 2218/2318 19011KT P6SM -RA OVC004 FM230400 19012KT
                       5SM -RA BR OVC007 FM231000 21008KT P6SM
                       VCSH OVC007=
202112221120 TAF KPWT 221120Z 2212/2312 19012G20KT 5SM -RA BKN003 OVC012 FM221600
                       19012G22KT 6SM -SHRA SCT005 BKN015 OVC040
                       FM230400 19012KT 5SM -RA BR BKN005 OVC015
                       FM231000 22008KT P6SM VCSH BKN015 BKN030=
202112220520 TAF KPWT 220520Z 2206/2306 22007KT 3SM -RA BR OVC003 FM221200 19012KT
                       4SM -RA OVC007 FM221600 19011KT 6SM -SHRA
                       SCT007 OVC010 FM222100 19008KT 5SM -RA OVC015=
202112212331 TAF KPWT 212331Z 2200/2224 07003KT P6SM OVC005 FM220400 22005KT
                       4SM -RA OVC003 FM221200 19012KT 4SM -RA
                       OVC007 FM221600 19011KT 6SM -SHRA SCT007
                       OVC025 FM222000 19008KT 5SM -RA OVC025=
202112212125 KPWT 212125Z 2121/2218 07003KT P6SM OVC007 FM220400 22005KT 4SM
                       -RA OVC007 FM221200 19012KT 4SM -RA OVC007
                       FM221600 19011KT 6SM -SHRA SCT007 BKN025=
202112211735 TAF KPWT 211735Z 2118/2218 03003KT 4SM BR OVC005 FM212100 19002KT
                       P6SM OVC025 FM220400 22005KT 4SM -RA OVC007
                       FM221200 19012KT 4SM -RA OVC007 FM221600
                       19011KT 6SM -SHRA SCT007 BKN025=
202112211402 KPWT 211402Z 2114/2212 03008KT P6SM OVC009 FM211800 03005KT P6SM
                       OVC025 FM220000 19002KT P6SM OVC025 FM220300
                       19002KT 4SM -RA BR OVC007 FM220900 19007KT
                       4SM -RA BR OVC004=
202112211120 TAF KPWT 211120Z 2112/2212 05006KT P6SM OVC025 FM220000 19002KT
                       P6SM OVC025 FM220300 19002KT 4SM -RA BR
                       OVC007 FM220900 19007KT 4SM -RA BR OVC004=
202112210520 TAF KPWT 210520Z 2106/2206 04007KT P6SM BKN025 OVC035 FM210800
                       VRB03KT 4SM BR OVC007 FM211800 VRB03KT P6SM
                       OVC013 FM212200 22003KT P6SM OVC035 FM220300
                       21007KT 5SM -RA BR OVC020=
202112210213 KPWT 210213Z 2102/2124 03010KT P6SM OVC030 FM210700 VRB03KT 4SM
                       BR OVC007 FM211900 VRB03KT P6SM OVC013=
202112202320 TAF KPWT 202320Z 2100/2124 03006KT P6SM SCT025 OVC040
                      TEMPO 2100/2102 5SM -RA BR OVC025 FM210200
                       02004KT P6SM BKN025 OVC040 FM210700 VRB03KT
                       4SM BR OVC007 FM211900 VRB03KT P6SM OVC013=
202112201726 TAF KPWT 201726Z 2018/2118 03008KT P6SM -RASN SCT014 OVC023 FM201900
                       02008KT 5SM -RA BR OVC015 FM210300 02003KT
                       4SM BR OVC007=
202112201120 TAF KPWT 201120Z 2012/2112 05009KT P6SM VCSH SCT035 BKN070
                      TEMPO 2012/2015 BKN035 FM201500 03008KT P6SM
                       -RA OVC030 FM201900 02008KT 5SM -RA BR OVC015
                       FM210300 02003KT 4SM BR OVC007=
202112200520 TAF KPWT 200520Z 2006/2106 05009KT P6SM FEW050 FM200700 02006KT
                       P6SM BKN050 OVC200 FM201500 03008KT P6SM
                       -RA OVC030 FM201900 02010G15KT 5SM -RA BR
                       OVC010=
202112192321 TAF KPWT 192321Z 2000/2024 05010G15KT P6SM FEW018 SCT050
                      TEMPO 2000/2002 BKN018 BKN050 FM200300 02006KT
                       P6SM SCT050 BKN200 FM200700 02006KT P6SM
                       BKN050 OVC200 FM201500 03008KT P6SM -RA
                       OVC030 FM201900 02010G15KT 5SM -RA BR OVC010=
202112191720 TAF KPWT 191720Z 1918/2018 02005KT P6SM SCT050 FM201500 02004KT
                       P6SM -RA OVC030=
202112191629 KPWT 191629Z 1916/2012 00000KT P6SM BKN040 FM192200 02006KT P6SM
                       SCT040 FM200700 04006KT P6SM BKN006=
202112191408 KPWT 191408Z 1914/2012 00000KT P6SM BKN015
                      TEMPO 1914/1916 1/2SM FG BKN001 FM191600
                       03003KT P6SM BKN010 BKN040 FM192200 02006KT
                       P6SM SCT040 FM200700 04006KT P6SM BKN006=
202112191317 KPWT 191317Z 1913/2012 00000KT P6SM BKN015
                      TEMPO 1913/1915 2SM BR FM191500 03003KT P6SM
                       BKN010 BKN040 FM192200 02006KT P6SM SCT040
                       FM200700 04006KT P6SM BKN006=
202112191123 TAF KPWT 191123Z 1912/2012 00000KT P6SM OVC007 FM191500 03003KT
                       P6SM BKN010 BKN040 FM192200 02006KT P6SM
                       SCT040 FM200700 04006KT P6SM BKN006=
202112190904 KPWT 190904Z 1909/2006 22005KT P6SM OVC006 FM191800 03003KT P6SM
                       BKN010 BKN040 FM192300 02006KT P6SM SCT040=
202112190520 TAF KPWT 190520Z 1906/2006 18009KT P6SM OVC010 FM190900 VRB03KT
                       4SM BR OVC003 FM191800 03003KT P6SM BKN010
                       BKN040 FM192300 02006KT P6SM SCT040=
202112182320 TAF KPWT 182320Z 1900/1924 19013G20KT P6SM -RA BKN008 OVC035 FM190200
                       18005KT 6SM BR OVC010 FM190900 VRB03KT 4SM
                       BR OVC003 FM191800 03003KT P6SM BKN010 BKN040
                       FM192300 02006KT P6SM SCT040=
202112182145 KPWT 182145Z 1822/1918 21009KT P6SM -RA FEW006 SCT015 OVC040
                      TEMPO 1822/1901 4SM RA BR BKN006 OVC015 FM190100
                       18005KT 6SM BR OVC010 FM190900 VRB03KT 4SM
                       BR OVC003=
202112181721 TAF KPWT 181721Z 1818/1918 20017G29KT 5SM -RA BR OVC005 WS020/20050KT
                       FM182100 20013G25KT 2SM -RA BR BKN007 OVC012
                       FM190100 18005KT 6SM BR OVC010 FM190900
                       VRB03KT 4SM BR OVC003=
202112181138 TAF KPWT 181138Z 1812/1912 20008KT 5SM -RA BR OVC004 FM181500 19015G25KT
                       2SM -RA BR OVC006 WS020/20050KT FM182100
                       20011G20KT 2SM -RA BR BKN007 OVC012 FM190100
                       18005KT 6SM BR VCSH OVC010 FM190900 VRB03KT
                       4SM BR OVC003=
202112180901 KPWT 180901Z 1809/1906 21010KT 5SM -RA BR OVC006 FM181500 19015G25KT
                       2SM -RA BR OVC007 WS020/20050KT FM181800
                       20011G20KT 1 1/2SM -RA BR OVC007 FM182100
                       20007KT 2SM -RA BR OVC010=
202112180520 TAF KPWT 180520Z 1806/1906 00000KT 6SM -RA BR OVC015 FM181000 15003KT
                       4SM -RA BR OVC007 FM181500 19015G25KT 2SM
                       -RA BR OVC007 FM181800 20011G20KT 1 1/2SM
                       -RA BR OVC007 FM182100 20007KT 2SM -RA BR
                       OVC010=
202112172320 TAF KPWT 172320Z 1800/1824 29003KT P6SM BKN040 OVC120 FM180300
                       20004KT P6SM -RA OVC020 FM180600 18011KT
                       4SM -RA BR OVC012 FM181500 19015G25KT 2SM
                       -RA BR OVC007=
202112171721 TAF KPWT 171721Z 1718/1818 00000KT 1SM BR BKN003 OVC013 FM171900
                       VRB03KT P6SM SCT007 BKN015 OVC080 FM172000
                       VRB03KT P6SM SCT007 BKN040 OVC120 FM180000
                       17005KT P6SM BKN050 OVC080 FM180500 20004KT
                       P6SM -RA OVC020 FM181000 18011KT 6SM -RA
                       OVC012=
202112171125 TAF KPWT 171125Z 1712/1812 00000KT P6SM BKN040
                      TEMPO 1714/1718 1/2SM FG BKN002 FM172000
                       VRB03KT P6SM SCT007 BKN040 OVC120 FM180000
                       17005KT P6SM BKN050 OVC080 FM180500 20004KT
                       P6SM -RA OVC020 FM181000 18011KT 6SM -RA
                       OVC012=
202112170520 TAF KPWT 170520Z 1706/1806 04004KT P6SM FEW010 SCT016 BKN030 FM170800
                       00000KT 4SM BR OVC004 FM171900 18003KT P6SM
                       BKN010 OVC020 FM180000 17005KT P6SM OVC035
                       FM180500 20004KT P6SM -RA OVC020=
202112162325 TAF KPWT 162325Z 1700/1724 VRB03KT P6SM VCSH SCT005 BKN035
                      TEMPO 1700/1704 BKN005 FM170400 VRB03KT P6SM
                       OVC005 FM170800 00000KT 4SM BR OVC004 FM171900
                       18003KT P6SM BKN015 BKN050 OVC120=
202112162113 KPWT 162113Z 1621/1718 VRB03KT P6SM VCSH BKN005 BKN025 FM170400
                       VRB03KT P6SM BKN010 FM170800 00000KT 4SM
                       BR OVC007=
202112161907 KPWT 161907Z 1619/1718 19004KT P6SM VCSH BKN005 OVC020 FM162100
                       VRB03KT P6SM VCSH BKN010 BKN025 FM170400
                       VRB03KT P6SM BKN012 FM170800 00000KT 4SM
                       BR OVC007=
202112161734 TAF KPWT 161734Z 1618/1718 19004KT P6SM VCSH BKN010 OVC020 FM162100
                       VRB03KT P6SM VCSH OVC020 FM170400 VRB03KT
                       P6SM BKN012 FM170800 00000KT 4SM BR OVC007=
202112161128 TAF KPWT 161128Z 1612/1712 00000KT P6SM SCT003 OVC025
                      TEMPO 1612/1616 2SM BR BKN003 FM161700 19004KT
                       P6SM VCSH FEW007 OVC015 FM162100 VRB03KT
                       P6SM OVC020 FM170800 00000KT 4SM BR OVC007=
202112160520 TAF KPWT 160520Z 1606/1706 03003KT P6SM OVC015 FM161200 00000KT
                       6SM BR OVC007 FM161700 VRB03KT P6SM OVC020
                       FM170300 00000KT P6SM OVC010=
202112152320 TAF KPWT 152320Z 1600/1624 05005KT P6SM -RA SCT007 SCT020 BKN025
                       FM160300 05005KT 4SM -RA OVC015 FM160600
                       02003KT P6SM OVC015 FM161200 00000KT 6SM
                       BR OVC007=
202112151720 TAF KPWT 151720Z 1518/1618 00000KT P6SM FEW050 FM152100 21005KT
                       4SM -RA OVC015 FM152300 02005KT 4SM -RA
                       OVC020 FM160300 05005KT 4SM -RA OVC025 FM160600
                       02003KT P6SM OVC015=
202112151426 KPWT 151426Z 1514/1612 20002KT P6SM OVC040 FM151530 15005KT 5SM
                       -RASN SCT020 OVC030 FM151800 09004KT 6SM
                       -RA OVC025 FM160000 09005KT 4SM -RA OVC015=
202112151129 TAF KPWT 151129Z 1512/1612 20002KT P6SM OVC040 FM151400 15005KT
                       5SM -RASN SCT020 OVC030 FM151800 09004KT
                       6SM -RA OVC025 FM160000 09005KT 4SM -RA
                       OVC015=
202112150520 TAF KPWT 150520Z 1506/1606 19007KT P6SM -RA OVC007 FM150900 20004KT
                       P6SM VCSH SCT008 OVC010 FM151200 20002KT
                       P6SM OVC050 FM151800 09004KT 6SM -RA OVC025
                       FM160000 09005KT 4SM -RA OVC015=
202112142320 TAF KPWT 142320Z 1500/1524 17005KT P6SM -RA OVC005 FM150200 20002KT
                       6SM -RA OVC007 FM150900 20004KT P6SM VCSH
                       SCT008 OVC010 FM151200 20002KT P6SM OVC050
                       FM151800 09004KT P6SM -RA OVC025=
202112141720 TAF KPWT 141720Z 1418/1518 20005KT P6SM BKN007 OVC010 FM142000
                       21005KT P6SM OVC007 FM150900 20004KT P6SM
                       VCSH SCT008 OVC010=
202112141315 KPWT 141315Z 1413/1512 22004KT P6SM VCSH OVC005 FM141400 20006KT
                       6SM -SHRASN BR OVC005 FM141800 19005KT P6SM
                       BKN010 FM150900 20004KT P6SM VCSH SCT008
                       OVC010=
202112141134 TAF KPWT 141134Z 1412/1512 20009KT P6SM VCSH SCT010 SCT025 OVC100
                       FM141400 20006KT 6SM -SHRASN BR SCT015 BKN025
                       FM141800 19005KT P6SM BKN010 FM150900 20004KT
                       P6SM VCSH SCT008 OVC010=
202112140520 TAF KPWT 140520Z 1406/1506 VRB04KT 6SM -SHRA BR BKN020 OVC040 FM140800
                       19008KT 5SM -RASN BR BKN013 OVC025 FM141800
                       19005KT P6SM SCT005 BKN030 FM142100 19005KT
                       P6SM BKN040=
202112132322 TAF KPWT 132322Z 1400/1424 05005KT P6SM -SHRA BKN027 OVC035 FM140300
                       VRB04KT 6SM -SHRA BR BKN020 OVC040 FM140800
                       19008KT 5SM -RASN BR BKN013 OVC025 FM141800
                       19005KT P6SM SCT005 BKN030 FM142100 19005KT
                       P6SM BKN040=
202112131721 TAF KPWT 131721Z 1318/1418 03003KT P6SM BKN050 FM132200 03005KT
                       P6SM SCT030 BKN050 FM140300 VRB04KT 6SM
                       -SHRA BR BKN020 OVC040 FM140800 19008KT
                       5SM -RASN BR BKN013 OVC025=
202112131332 KPWT 131332Z 1314/1412 VRB03KT P6SM VCSH BKN022 OVC030
                      TEMPO 1314/1317 -RASN BKN005 OVC025 FM131800
                       VRB04KT P6SM VCSH BKN030 BKN050 FM132200
                       03005KT P6SM SCT030 BKN050 FM140300 VRB04KT
                       6SM -SHRA BR BKN020 OVC040 FM140800 19008KT
                       5SM -RASN BR BKN013 OVC025=
202112131133 TAF KPWT 131133Z 1312/1412 VRB03KT P6SM VCSH BKN022 OVC030
                      TEMPO 1312/1316 -RASN BKN017 OVC025 FM131800
                       VRB04KT P6SM VCSH BKN030 BKN050 FM132200
                       03005KT P6SM SCT030 BKN050 FM140300 VRB04KT
                       6SM -SHRA BR BKN020 OVC040 FM140800 19008KT
                       5SM -RASN BR BKN013 OVC025=
202112130825 KPWT 130825Z 1308/1406 12006KT P6SM VCSH SCT015 OVC030
                      TEMPO 1308/1312 -SHRASN BKN015 OVC030 FM131200
                       VRB03KT P6SM -SHRA OVC015 FM131800 VRB03KT
                       P6SM SCT035 BKN060 FM140000 01006KT P6SM
                       -SHRA BKN015 OVC030 FM140400 20006KT 4SM
                       -SHRA BR BKN007 OVC015=
202112130520 TAF KPWT 130520Z 1306/1406 14004KT P6SM VCSH BKN015 OVC030 FM130900
                       VRB03KT P6SM SCT015 BKN030 FM131200 VRB03KT
                       P6SM -SHRA OVC015 FM131800 VRB03KT P6SM
                       SCT035 BKN060 FM140000 01006KT P6SM -SHRA
                       BKN015 OVC030 FM140400 20006KT 4SM -SHRA
                       BR BKN007 OVC015=
202112122334 TAF KPWT 122334Z 1300/1324 19008KT 6SM -RA OVC015 FM130300 19005KT
                       P6SM VCSH BKN020 BKN040 FM130600 14004KT
                       P6SM SCT020 BKN050 FM131200 VRB04KT P6SM
                       -RA OVC015 FM131700 VRB05KT P6SM VCSH OVC020
                       FM132200 05003KT 4SM -RA BKN007 OVC015=
202112121730 TAF KPWT 121730Z 1218/1318 17008KT P6SM VCSH SCT020 BKN040
                      TEMPO 1218/1222 4SM -SHRA SCT007 BKN015 FM130000
                       19008KT 6SM BR VCSH BKN017 BKN040 FM130600
                       14004KT P6SM BKN012 BKN050 FM131200 07004KT
                       P6SM -RA OVC015 FM131700 18005KT P6SM OVC020=
202112121400 KPWT 121400Z 1214/1312 19010KT P6SM VCSH BKN035 FM121600 19010KT
                       P6SM VCSH BKN025 FM121900 19008KT 6SM -SHRA
                       BKN017 OVC025 FM130200 19006KT P6SM BKN018
                       BKN040 FM130900 04004KT P6SM BKN012 BKN050=
202112121135 TAF KPWT 121135Z 1212/1312 19011KT P6SM VCSH BKN015 FM121500 19010G15KT
                       P6SM VCSH BKN022 FM121900 19008KT 6SM -SHRA
                       BKN017 OVC025 FM130200 19006KT P6SM BKN018
                       BKN040 FM130900 04004KT P6SM BKN012 BKN050=
202112120520 TAF KPWT 120520Z 1206/1306 18008KT P6SM SCT025 BKN090 BKN250
                      TEMPO 1206/1208 -SHRA BKN025 OVC060 FM120800
                       19010G18KT 6SM -SHRA BR BKN007 OVC015 FM121300
                       19010G15KT 6SM -SHRA OVC020 FM121900 19008KT
                       4SM -SHRA OVC010 FM130000 19006KT P6SM OVC007=
202112112334 TAF KPWT 112334Z 1200/1224 20012G22KT P6SM -SHRA BKN015 OVC025
                       FM120300 20012KT P6SM VCSH BKN030 FM120800
                       19012G18KT 6SM -SHRA BR BKN007 OVC015 FM121300
                       19010G15KT 6SM -SHRA OVC020 FM121900 19008KT
                       4SM -SHRA OVC010=
202112111725 TAF KPWT 111725Z 1118/1218 20015G25KT 4SM -SHRA OVC006 FM112100
                       20012G22KT P6SM -SHRA SCT015 BKN025 FM120300
                       20008KT P6SM VCSH BKN030 FM120800 19012G18KT
                       6SM -SHRA BR BKN007 OVC015 FM121700 19008KT
                       6SM -SHRA OVC020=
202112111137 TAF KPWT 111137Z 1112/1212 19015G25KT 6SM -RA BR OVC008 FM111500
                       22012G22KT P6SM -SHRA BKN015 OVC030 FM112000
                       22012G18KT P6SM VCSH BKN025 BKN050 FM120300
                       20008KT P6SM VCSH BKN025 FM120800 19012G18KT
                       6SM -SHRA BR BKN014 OVC025=
202112110520 TAF KPWT 110520Z 1106/1206 19030G40KT 5SM RA BR OVC005 WS020/18045KT
                       FM111500 22012G22KT P6SM -SHRA BKN015 OVC030
                       FM112000 22010KT P6SM VCSH BKN025 BKN050=
202112102320 TAF KPWT 102320Z 1100/1124 19012G22KT 5SM -RA BR SCT007 OVC015
                       TEMPO 1100/1104 3SM -RA BR BKN007 OVC015
                       FM110400 19015G25KT 5SM RA BR BKN007 OVC015
                       WS020/18045KT FM111500 22012G22KT P6SM -SHRA
                       BKN015 OVC030 FM112000 22010KT P6SM VCSH
                       BKN025 BKN050=
202112101721 TAF KPWT 101721Z 1018/1118 21007KT P6SM BKN010 OVC020 FM102200
                       16010G20KT P6SM -RA OVC020 FM110600 19015G25KT
                       5SM RA BR OVC015 WS020/18050KT FM111500
                       22012G22KT P6SM -SHRA BKN015 OVC030=
202112101127 TAF KPWT 101127Z 1012/1112 19007KT P6SM BKN005 OVC025 FM102000
                       19011KT P6SM -RA OVC010 FM110200 19013G20KT
                       6SM -RA BR OVC007 WS020/18040KT FM110700
                       19022G32KT 5SM RA BR OVC009=
202112100831 KPWT 100831Z 1009/1106 21007KT P6SM BKN008 OVC035 FM101900 19008KT
                       5SM -RA OVC007=
202112100520 TAF KPWT 100520Z 1006/1106 00000KT P6SM FEW050 BKN120 FM100900
                       VRB03KT P6SM OVC012 FM101900 19008KT 5SM
                       -RA OVC007=
202112092320 TAF KPWT 092320Z 1000/1024 VRB03KT P6SM SCT025 BKN080 FM100400
                       20004KT P6SM BKN022 OVC070 FM100900 VRB03KT
                       P6SM OVC012 FM101900 19008KT 5SM -RA OVC007=
202112091723 TAF KPWT 091723Z 0918/1018 23009KT P6SM OVC009 FM092000 18006KT
                       P6SM -SHRA BKN010 OVC025 FM100400 20004KT
                       P6SM VCSH BKN012 OVC022 FM100900 VRB03KT
                       P6SM OVC006=
202112091132 TAF KPWT 091132Z 0912/1012 20005KT P6SM OVC006 FM091500 19006KT
                       P6SM -SHRA OVC009 FM092000 18006KT P6SM
                       -SHRA BKN014 OVC025 FM100400 20004KT P6SM
                       VCSH BKN012 OVC022 FM100900 VRB03KT P6SM
                       OVC006=
202112090703 KPWT 090703Z 0907/1006 25004KT P6SM SCT005 SCT020
                      TEMPO 0907/0911 BKN004 FM091100 20008KT P6SM
                       OVC006 FM091500 19008KT P6SM -RA OVC015=
202112090520 TAF KPWT 090520Z 0906/1006 25004KT P6SM SCT020
                      TEMPO 0908/0912 BKN020 FM091200 20008KT P6SM
                       OVC020 FM091500 19008KT P6SM -RA OVC015=
202112082334 TAF KPWT 082334Z 0900/0924 22008KT P6SM VCSH SCT035 SCT100 FM090600
                       20012KT P6SM VCSH BKN020 OVC030 FM091400
                       20008KT P6SM OVC018=
202112081814 KPWT 081814Z 0818/0918 18003KT P6SM SKC FM082100 21010KT P6SM FEW040
                       FM090000 20008KT P6SM BKN040 FM090600 19008KT
                       P6SM OVC014
                      TEMPO 0912/0915 5SM -SHRA BR OVC008=
202112081800 TAF KPWT 081800Z 0818/0918 21015KT P6SM BKN015 OVC040 FM082100
                       21012KT P6SM SCT020 BKN040 FM090600 19008KT
                       P6SM OVC014=
202112081139 TAF KPWT 081139Z 0812/0912 21015KT P6SM SCT015 BKN040 FM081700
                       21015KT P6SM BKN015 OVC040 FM082100 21012KT
                       P6SM SCT020 BKN040 FM090600 19008KT P6SM
                       OVC014=
202112080520 TAF KPWT 080520Z 0806/0906 21011KT P6SM -RA OVC007
                      TEMPO 0806/0807 3SM BR FM080700 20012G22KT
                       6SM -RA OVC007 FM081200 21015G25KT 5SM -RA
                       BKN009 OVC015 FM081800 23010G20KT P6SM VCSH
                       OVC030=
202112080401 KPWT 080401Z 0804/0824 21011KT P6SM -RA OVC003 FM080800 20012G22KT
                       6SM -RA OVC007=
202112080208 KPWT 080208Z 0802/0824 20008KT P6SM SCT003 BKN013 OVC035 FM080800
                       20012G22KT 6SM -RA OVC007=
202112072320 TAF KPWT 072320Z 0800/0824 19007KT P6SM OVC004 FM080800 20012G22KT
                       6SM -RA OVC007=
202112072212 KPWT 072212Z 0722/0818 20003KT 6SM HZ BR OVC004 FM081000 20009G16KT
                       4SM BR OVC007=
202112071720 TAF KPWT 071720Z 0718/0818 00000KT 1SM -RA BR OVC003 FM071900 00000KT
                       4SM BR OVC007 FM072100 20003KT 6SM HZ BR
                       OVC015 FM081000 20009G16KT 4SM BR OVC007=
202112071334 KPWT 071334Z 0714/0812 00000KT 6SM BR OVC010 FM071700 00000KT P6SM
                       OVC007 FM072100 20003KT 6SM HZ BR OVC015
                       FM081000 20009G16KT 4SM BR OVC007=
202112071140 TAF KPWT 071140Z 0712/0812 00000KT 2SM -RA BR OVC003 FM071700 00000KT
                       P6SM OVC007 FM072100 20003KT 6SM HZ BR OVC015
                       FM081000 20009G16KT 4SM BR OVC007=
202112070520 TAF KPWT 070520Z 0706/0806 VRB04KT 4SM -DZ BR OVC008
                      TEMPO 0712/0716 1/4SM FG VV002 FM071700 18004KT
                       P6SM SCT008 BKN015=
202112062320 TAF KPWT 062320Z 0700/0724 23006KT 3SM BR OVC006
                      TEMPO 0700/0704 1SM -DZ BR OVC003 FM070600
                       18006KT P6SM BKN008 OVC015 FM071700 18006KT
                       P6SM SCT008 BKN015=
202112062040 KPWT 062040Z 0621/0718 22008KT 3SM BR SCT003 OVC007
                      TEMPO 0621/0624 1SM -DZ BR OVC003 FM071000
                       18008KT P6SM BKN008 OVC015 FM071700 18008KT
                       P6SM SCT008 BKN015 BKN040=
202112061759 KPWT 061759Z 0618/0718 21010KT 5SM BR SCT003 BKN010 OVC035
                      TEMPO 0618/0622 3SM -DZ BR BKN003 OVC010
                       FM070400 18008KT 5SM BR OVC008 FM071000
                       18008KT P6SM BKN008 OVC015 FM071700 18008KT
                       P6SM SCT008 BKN015 BKN040=
202112061720 TAF KPWT 061720Z 0618/0718 20010KT P6SM SCT010 OVC035
                      TEMPO 0618/0622 5SM -DZ BR BKN010 OVC025
                       FM070400 18008KT 5SM BR OVC008 FM071000
                       18008KT P6SM BKN008 OVC015 FM071700 18008KT
                       P6SM SCT008 BKN015 BKN040=
202112061639 KPWT 061639Z 0617/0712 19008KT P6SM SCT015 OVC040
                      TEMPO 0617/0621 5SM -DZ BR BKN015 OVC030
                       FM062100 19008KT 5SM -RA BR OVC010 FM062300
                       19006KT 4SM BR VCSH OVC007 FM070900 22003KT
                       4SM BR OVC003=
202112061510 KPWT 061510Z 0615/0712 18008KT P6SM SCT007 BKN025 OVC050
                      TEMPO 0615/0619 4SM -RA BKN007 OVC015 FM061900
                       19004KT 3SM -RA BR OVC005 FM062300 19004KT
                       4SM BR VCSH OVC007 FM070900 22003KT 4SM
                       BR OVC003=
202112061135 KPWT 061135Z 0612/0712 20003KT 6SM -SN BR SCT007
                      TEMPO 0612/0614 4SM RASN BR OVC007 FM062000
                       19004KT 3SM -RA BR OVC005 FM062300 19004KT
                       4SM BR VCSH OVC007 FM070900 22003KT 4SM
                       BR OVC003=
202112061134 TAF KPWT 061134Z 0612/0712 20003KT 6SM -SN BR SCT007
                      TEMPO 0612/0614 4SM -RASN BR OVC007 FM062000
                       19004KT 3SM -RA BR OVC005 FM062300 19004KT
                       4SM BR VCSH OVC007 FM070900 22003KT 4SM
                       BR OVC003=
202112060520 TAF KPWT 060520Z 0606/0706 VRB03KT P6SM OVC100 FM060900 VRB02KT
                       P6SM -RA OVC035 FM061200 20003KT 4SM -RASN
                       BR OVC007 FM062000 19004KT 3SM -RA BR OVC005
                       FM062300 19004KT 4SM BR VCSH OVC007=
202112052320 TAF KPWT 052320Z 0600/0624 04004KT P6SM BKN100 FM060800 00000KT
                       4SM -RA BR OVC015
                      TEMPO 0610/0614 1/2SM -RA FG OVC003 FM061600
                       20003KT 4SM -RA BR OVC010 FM062000 VRB03KT
                       3SM BR VCSH OVC007=
202112051720 TAF KPWT 051720Z 0518/0618 VRB03KT P6SM SCT020 FM052300 04004KT
                       P6SM BKN100 FM060800 00000KT 4SM -RA BR
                       OVC015 FM061600 20003KT 4SM -RA BR OVC010=
202112051136 TAF KPWT 051136Z 0512/0612 VRB03KT 6SM -RA BR OVC025
                      TEMPO 0514/0516 1SM BR OVC004 FM051700 VRB03KT
                       P6SM SCT007 FM052300 04004KT P6SM BKN150
                       FM060800 00000KT 4SM -RA BR OVC015=
202112050520 TAF KPWT 050520Z 0506/0606 05005KT P6SM VCSH SCT015 BKN050 FM051200
                       VRB03KT 3SM BR BKN004
                      TEMPO 0514/0516 1SM BR OVC004 FM051700 VRB03KT
                       P6SM SCT007 FM052300 04004KT P6SM BKN150=
202112042320 TAF KPWT 042320Z 0500/0524 02007KT P6SM -RA SCT020 OVC035
                      TEMPO 0500/0503 5SM -RA BR BKN015 OVC020
                       FM050300 36007KT P6SM VCSH BKN020 OVC040
                       FM051000 VRB03KT P6SM OVC012 FM051700 VRB03KT
                       P6SM BKN020=
202112041720 TAF KPWT 041720Z 0418/0518 20007KT P6SM -RA SCT007 OVC015
                      TEMPO 0418/0422 3SM -RA BR BKN007 OVC015
                       FM050200 20007KT P6SM VCSH SCT012 BKN025
                       FM051000 20005KT P6SM OVC012 FM051700 20005KT
                       P6SM BKN015=
202112041456 KPWT 041456Z 0415/0512 VRB03KT 4SM -RA BR OVC006 FM041900 VRB03KT
                       2SM -RA OVC003 FM050100 19006KT P6SM SCT008
                       BKN015 OVC025=
202112041138 TAF KPWT 041138Z 0412/0512 VRB03KT P6SM -RA OVC050 FM041600 VRB03KT
                       P6SM -RA OVC020 FM041800 VRB03KT 4SM -RA
                       BR OVC006 FM050100 19006KT P6SM SCT008 BKN015
                       OVC025=
202112040520 TAF KPWT 040520Z 0406/0506 04010KT P6SM OVC100 FM041000 04004KT
                       P6SM VCSH OVC050 FM041400 VRB03KT P6SM -RA
                       OVC025 FM041700 VRB05KT 3SM -RA BR OVC007
                       FM042300 03010KT P6SM -SHRA OVC012 FM050300
                       VRB03KT P6SM BKN020=
202112032320 TAF KPWT 032320Z 0400/0424 02012KT P6SM FEW015 BKN150 FM040600
                       02006KT P6SM OVC100 FM041000 00000KT P6SM
                       OVC050 FM041500 VRB03KT P6SM -RA OVC025
                       FM041700 02006KT 3SM -RA BR OVC010 FM042300
                       36010KT P6SM -SHRA BKN015 BKN040=
202112031720 TAF KPWT 031720Z 0318/0418 04006KT P6SM OVC150 FM040300 03006KT
                       P6SM OVC100 FM041100 VRB03KT P6SM -RA OVC020=
202112031304 KPWT 031304Z 0313/0412 04011KT P6SM FEW002 BKN200 FM031700 03008KT
                       P6SM BKN120 OVC200 FM040300 03006KT P6SM
                       OVC100 FM041100 VRB03KT P6SM -RA OVC020=
202112031120 TAF KPWT 031120Z 0312/0412 06009KT P6SM BCFG SCT002 BKN200
                      TEMPO 0313/0316 3SM BR BKN002 FM031700 03008KT
                       P6SM BKN120 OVC200 FM040300 03006KT P6SM
                       OVC100 FM041100 VRB03KT P6SM -RA OVC020=
202112031003 KPWT 031003Z 0310/0406 06009KT P6SM SCT002 BKN200
                      TEMPO 0312/0316 1SM BR OVC002 FM031700 03008KT
                       P6SM BKN120 OVC200 FM040300 03006KT P6SM
                       OVC080=
202112030520 TAF KPWT 030520Z 0306/0406 04006KT P6SM BKN050 FM031000 00000KT
                       3SM BR SCT002 BKN200
                      TEMPO 0312/0316 1SM BR OVC002 FM031700 03008KT
                       P6SM BKN120 OVC200 FM040300 03006KT P6SM
                       OVC080=
202112022320 TAF KPWT 022320Z 0300/0324 06006KT P6SM BKN040 BKN200 FM030600
                       03005KT P6SM SCT040 BKN200 FM031000 00000KT
                       3SM BR SCT002
                      TEMPO 0312/0316 1SM BR BKN002 FM031700 VRB03KT
                       P6SM OVC200=
202112022231 KPWT 022231Z 0223/0318 03005KT P6SM BKN020 BKN200 FM030000 03008KT
                       P6SM BKN030 BKN200 FM030600 03005KT P6SM
                       SCT040 SCT200 FM031000 00000KT 3SM BR SCT002
                       TEMPO 0312/0316 1SM BR BKN002 FM031700 VRB03KT
                       P6SM SCT200=
202112021917 KPWT 021917Z 0219/0318 08006KT P6SM SCT008 BKN015 BKN200
                      TEMPO 0219/0222 5SM -SHRA BR BKN008 OVC012
                       FM022200 04005KT P6SM SCT020 BKN200 FM030600
                       04005KT P6SM BKN200 FM031000 00000KT 3SM
                       BR SCT002
                      TEMPO 0312/0316 1SM BR BKN002 FM031700 VRB03KT
                       P6SM SCT200=
202112021916 KPWT 021916Z 0219/0318 08006KT P6SM SCT008 BKN015 BKN200
                      TEMPO 0220/0222 5SM -SHRA BR BKN008 OVC012
                       FM022200 04005KT P6SM SCT020 BKN200 FM030600
                       04005KT P6SM BKN200 FM031000 00000KT 3SM
                       BR SCT002
                      TEMPO 0312/0316 1SM BR BKN002 FM031700 VRB03KT
                       P6SM SCT200=
202112021720 TAF KPWT 021720Z 0218/0318 07005KT P6SM SCT008 BKN015 BKN200
                      TEMPO 0218/0220 5SM -SHRA BR BKN008 OVC012
                       FM022200 04005KT P6SM SCT020 BKN200 FM030600
                       04005KT P6SM BKN200 FM031000 00000KT 3SM
                       BR SCT002
                      TEMPO 0312/0316 1SM BR BKN002 FM031700 VRB03KT
                       P6SM SCT200=
202112021551 KPWT 021551Z 0216/0312 09004KT 2SM -DZ BR OVC006 FM021800 VRB04KT
                       P6SM BKN010 OVC040 FM022100 04009KT P6SM
                       SCT025 BKN045 FM030400 03005KT P6SM SCT050
                       SCT200 FM030900 03004KT 6SM BR BKN007=
202112021447 KPWT 021447Z 0215/0312 05005KT P6SM VCSH BKN013 BKN030 FM021700
                       04005KT P6SM BKN015 OVC040 FM022100 04009KT
                       P6SM SCT025 BKN045 FM030400 03005KT P6SM
                       SCT050 SCT200 FM030900 03004KT 6SM BR BKN007=
202112021130 TAF KPWT 021130Z 0212/0312 21006KT P6SM VCSH BKN013 BKN030 FM021700
                       VRB05KT P6SM BKN015 OVC040 FM022100 04009KT
                       P6SM SCT025 BKN045 FM030400 03005KT P6SM
                       SCT050 SCT200 FM030900 03004KT 6SM BR BKN007=
202112020906 KPWT 020906Z 0209/0306 24008KT P6SM VCSH OVC007 FM021700 03011KT
                       P6SM BKN015 OVC040 FM022200 04012G18KT P6SM
                       BKN050 FM030400 VRB03KT P6SM SCT050 SCT250=
202112020520 TAF KPWT 020520Z 0206/0306 20012G18KT P6SM VCSH BKN007
                      TEMPO 0206/0209 -RA OVC005 FM020900 VRB05KT
                       P6SM VCSH OVC012 FM021700 03011KT P6SM BKN015
                       OVC040 FM022200 04012G18KT P6SM BKN050 FM030400
                       VRB03KT P6SM SCT050 SCT250=
202112012329 TAF KPWT 012329Z 0200/0224 20016G24KT P6SM BKN008 OVC110 FM020300
                       21010KT P6SM VCSH BKN008 BKN025 OVC040 FM020600
                       VRB05KT P6SM -SHRA BKN020 OVC030 FM020900
                       03007KT P6SM BKN020 OVC030 FM021700 03011KT
                       P6SM SCT025 BKN050=
202112011734 TAF KPWT 011734Z 0118/0218 19012G18KT P6SM OVC005 FM012000 20010G20KT
                       P6SM OVC010 FM020300 20008KT P6SM VCSH OVC007
                       FM020900 22009KT 6SM -SHRA BR OVC008 FM021200
                       34005KT P6SM BKN020 OVC035=
202112011126 TAF KPWT 011126Z 0112/0212 20014G22KT 6SM BR VCSH OVC005 FM012000
                       20010G20KT P6SM OVC010 FM020300 20008KT
                       P6SM VCSH OVC007 FM020900 22009KT 6SM -SHRA
                       BR OVC008=
202112010520 TAF KPWT 010520Z 0106/0206 22013KT P6SM -RA OVC003 FM010900 20014G22KT
                       6SM BR OVC003 FM012100 20010G20KT P6SM OVC007
                       FM020000 20008KT P6SM OVC007=