##########################################################
# Query made at 02/16/2025 01:04:31 UTC
# Time interval: from 07/01/2022 00:00  to 07/31/2022 23:59  UTC
##########################################################

##########################################################
# KPWT, Bremerton National Automatic Weather Observing / Reporting System (United States)
# WMO index: -----. WIGOS ID: Unknown
# Latitude 47-30N. Longitude 122-45W. Altitude 147 m.
##########################################################

###################################
#  METAR/SPECI from KPWT
###################################
202207312356 METAR KPWT 312356Z AUTO 07007KT 10SM CLR 34/13 A2988 RMK AO2 SLP117 6//// T03440133 10356 20278 58014=
202207312256 METAR KPWT 312256Z AUTO 06007KT 030V090 10SM CLR 34/14 A2989 RMK AO2 SLP122 T03440139=
202207312156 METAR KPWT 312156Z AUTO 03006KT 10SM CLR 34/14 A2991 RMK AO2 SLP127 T03440139=
202207312056 METAR KPWT 312056Z AUTO VRB04KT 10SM CLR 33/13 A2992 RMK AO2 SLP131 6//// T03330128 58008=
202207311956 METAR KPWT 311956Z AUTO VRB03KT 10SM CLR 32/16 A2993 RMK AO2 SLP133 T03220161=
202207311856 METAR KPWT 311856Z AUTO 02004KT 10SM CLR 30/17 A2994 RMK AO2 SLP138 T03000167=
202207311756 METAR KPWT 311756Z AUTO 08005KT 10SM CLR 28/16 A2994 RMK AO2 SLP139 6//// T02780161 10278 20139 50000=
202207311656 METAR KPWT 311656Z AUTO 06005KT 10SM CLR 27/16 A2995 RMK AO2 SLP140 T02670161=
202207311556 METAR KPWT 311556Z AUTO VRB04KT 10SM CLR 26/15 A2995 RMK AO2 SLP142 T02560150=
202207311456 METAR KPWT 311456Z AUTO 07003KT 10SM CLR 23/14 A2994 RMK AO2 SLP139 T02330144 50005=
202207311356 METAR KPWT 311356Z AUTO 00000KT 10SM CLR 18/15 A2995 RMK AO2 SLP140 T01830150=
202207311256 METAR KPWT 311256Z AUTO 00000KT 10SM CLR 14/13 A2994 RMK AO2 SLP138 T01440128=
202207311156 METAR KPWT 311156Z AUTO 00000KT 10SM CLR 16/14 A2993 RMK AO2 SLP134 6//// 7//// T01560139 10233 20150 51005=
202207311056 METAR KPWT 311056Z AUTO 00000KT 10SM CLR 16/14 A2992 RMK AO2 SLP133 T01610139=
202207310956 METAR KPWT 310956Z AUTO 21003KT 10SM CLR 18/14 A2992 RMK AO2 SLP132 T01830144=
202207310856 METAR KPWT 310856Z AUTO 06007KT 10SM CLR 23/15 A2992 RMK AO2 SLP129 T02280150 53004=
202207310756 METAR KPWT 310756Z AUTO 06004KT 10SM CLR 20/14 A2991 RMK AO2 SLP126 T02000139 403560144=
202207310656 METAR KPWT 310656Z AUTO 00000KT 10SM CLR 19/14 A2990 RMK AO2 SLP126 T01940144=
202207310556 METAR KPWT 310556Z AUTO 00000KT 10SM CLR 21/14 A2990 RMK AO2 SLP125 6//// T02060139 10350 20194 53011=
202207310456 METAR KPWT 310456Z AUTO 06005KT 10SM CLR 25/13 A2989 RMK AO2 SLP122 T02500133=
202207310356 METAR KPWT 310356Z AUTO 00000KT 10SM CLR 27/13 A2988 RMK AO2 SLP117 T02720133=
202207310256 METAR KPWT 310256Z AUTO 05006KT 10SM CLR 31/12 A2987 RMK AO2 SLP115 6//// T03060122 55003=
202207310156 METAR KPWT 310156Z AUTO 03009KT 10SM CLR 33/14 A2987 RMK AO2 SLP112 T03280144=
202207310056 METAR KPWT 310056Z AUTO 06008KT 10SM CLR 34/16 A2987 RMK AO2 SLP115 T03390161=
202207302356 METAR KPWT 302356Z AUTO 04007KT 10SM CLR 35/14 A2988 RMK AO2 SLP116 T03500139 10356 20294 58010=
202207302256 METAR KPWT 302256Z AUTO 05007KT 10SM CLR 35/14 A2989 RMK AO2 SLP120 T03500139=
202207302156 METAR KPWT 302156Z AUTO VRB03KT 10SM CLR 34/16 A2990 RMK AO2 SLP125 T03390156=
202207302056 METAR KPWT 302056Z AUTO 07007KT 020V090 10SM CLR 33/16 A2991 RMK AO2 SLP127 T03330161 58006=
202207301956 METAR KPWT 301956Z AUTO 08007KT 10SM CLR 32/18 A2992 RMK AO2 SLP130 T03170178=
202207301856 METAR KPWT 301856Z AUTO 05006KT 10SM CLR 30/17 A2992 RMK AO2 SLP132 T03000172=
202207301756 METAR KPWT 301756Z AUTO 03005KT 10SM CLR 30/17 A2993 RMK AO2 SLP133 T03000167 10300 20144 58003=
202207301656 METAR KPWT 301656Z AUTO VRB03KT 10SM CLR 28/18 A2994 RMK AO2 SLP136 T02780178=
202207301556 METAR KPWT 301556Z AUTO VRB03KT 10SM CLR 26/18 A2994 RMK AO2 SLP136 T02560183=
202207301456 METAR KPWT 301456Z AUTO 00000KT 10SM CLR 22/18 A2994 RMK AO2 SLP137 T02220183 51010=
202207301356 METAR KPWT 301356Z AUTO 00000KT 10SM CLR 18/17 A2993 RMK AO2 SLP134 T01780167=
202207301256 METAR KPWT 301256Z AUTO 00000KT 10SM CLR 15/14 A2992 RMK AO2 SLP130 T01500144=
202207301156 METAR KPWT 301156Z AUTO 00000KT 10SM CLR 17/16 A2991 RMK AO2 SLP125 7//// T01670156 10217 20161 53007=
202207301056 METAR KPWT 301056Z AUTO 00000KT 10SM CLR 17/16 A2990 RMK AO2 SLP122 T01670156=
202207300956 METAR KPWT 300956Z AUTO 00000KT 10SM CLR 17/16 A2989 RMK AO2 SLP122 T01720156=
202207300856 METAR KPWT 300856Z AUTO 00000KT 10SM CLR 18/16 A2988 RMK AO2 SLP118 T01780161 53003=
202207300756 METAR KPWT 300756Z AUTO 00000KT 10SM CLR 18/16 A2988 RMK AO2 SLP117 T01830161 403500150=
202207300656 METAR KPWT 300656Z AUTO 00000KT 10SM CLR 20/17 A2988 RMK AO2 SLP117 T02000167=
202207300556 METAR KPWT 300556Z AUTO 00000KT 10SM CLR 22/17 A2987 RMK AO2 SLP116 6//// T02220172 10350 20211 51009=
202207300456 METAR KPWT 300456Z AUTO 00000KT 10SM CLR 23/19 A2987 RMK AO2 SLP114 T02280189=
202207300356 METAR KPWT 300356Z AUTO 00000KT 10SM CLR 25/19 A2985 RMK AO2 SLP109 T02500189=
202207300256 METAR KPWT 300256Z AUTO 07003KT 10SM CLR 31/19 A2985 RMK AO2 SLP107 6//// T03060194 56007=
202207300156 METAR KPWT 300156Z AUTO 07004KT 10SM CLR 33/19 A2985 RMK AO2 SLP107 T03280194=
202207300056 METAR KPWT 300056Z AUTO 04006KT 10SM CLR 34/19 A2985 RMK AO2 SLP109 T03440189=
202207292356 METAR KPWT 292356Z AUTO 04006KT 10SM CLR 35/19 A2987 RMK AO2 SLP113 6//// T03500194 10350 20289 56010=
202207292256 METAR KPWT 292256Z AUTO 04007KT 10SM CLR 35/19 A2988 RMK AO2 SLP116 T03500194=
202207292156 METAR KPWT 292156Z AUTO 06006KT 10SM CLR 34/19 A2989 RMK AO2 SLP120 T03390194=
202207292056 METAR KPWT 292056Z AUTO 06005KT 10SM CLR 34/19 A2990 RMK AO2 SLP124 6//// T03390194 58010=
202207291956 METAR KPWT 291956Z AUTO VRB03KT 10SM CLR 33/19 A2991 RMK AO2 SLP129 T03280194=
202207291856 METAR KPWT 291856Z AUTO 00000KT 10SM CLR 31/19 A2993 RMK AO2 SLP133 T03060189=
202207291756 METAR KPWT 291756Z AUTO VRB03KT 10SM CLR 29/19 A2993 RMK AO2 SLP135 6//// T02890189 10294 20150 58003=
202207291709 SPECI KPWT 291709Z AUTO 10SM FEW001 28/17 RMK AO2 $=
202207291656 METAR KPWT 291656Z AUTO 32003KT 10SM CLR 28/18 A2994 RMK AO2 SLP136 T02780178=
202207291556 METAR KPWT 291556Z AUTO 00000KT 9SM CLR 24/16 A2994 RMK AO2 SLP139 T02440161=
202207291456 METAR KPWT 291456Z AUTO 00000KT 10SM CLR 23/17 A2994 RMK AO2 SLP137 T02280172 53003=
202207291356 METAR KPWT 291356Z AUTO 00000KT 10SM CLR 18/16 A2994 RMK AO2 SLP137 T01780161=
202207291256 METAR KPWT 291256Z AUTO 00000KT 10SM CLR 15/14 A2993 RMK AO2 SLP134 T01500144=
202207291156 METAR KPWT 291156Z AUTO 00000KT 10SM CLR 16/14 A2993 RMK AO2 SLP135 7//// T01560144 10217 20150 53005=
202207291056 METAR KPWT 291056Z AUTO 00000KT 10SM CLR 16/14 A2993 RMK AO2 SLP133 T01610144=
202207290956 METAR KPWT 290956Z AUTO 00000KT 10SM CLR 17/14 A2992 RMK AO2 SLP131 T01670144=
202207290856 METAR KPWT 290856Z AUTO 00000KT 10SM CLR 17/16 A2992 RMK AO2 SLP130 T01720156 50001=
202207290756 METAR KPWT 290756Z AUTO 11003KT 10SM CLR 18/16 A2992 RMK AO2 SLP130 T01830161 403500144=
202207290656 METAR KPWT 290656Z AUTO 00000KT 10SM CLR 19/16 A2992 RMK AO2 SLP130 T01890161=
202207290556 METAR KPWT 290556Z AUTO 00000KT 10SM CLR 22/16 A2991 RMK AO2 SLP128 6//// T02170161 10344 20217 53004=
202207290456 METAR KPWT 290456Z AUTO VRB03KT 10SM CLR 24/17 A2990 RMK AO2 SLP126 T02390167=
202207290356 METAR KPWT 290356Z AUTO 07003KT 10SM CLR 26/17 A2990 RMK AO2 SLP125 T02560172=
202207290256 METAR KPWT 290256Z AUTO 08005KT 10SM CLR 29/18 A2990 RMK AO2 SLP124 6//// T02940178 56005=
202207290156 METAR KPWT 290156Z AUTO 06007KT 10SM CLR 32/18 A2990 RMK AO2 SLP124 T03170183=
202207290056 METAR KPWT 290056Z AUTO 06009KT 10SM CLR 33/19 A2990 RMK AO2 SLP126 T03330189=
202207282356 METAR KPWT 282356Z AUTO 06006KT 10SM CLR 34/19 A2991 RMK AO2 SLP129 6//// T03440194 10350 20267 57015=
202207282256 METAR KPWT 282256Z AUTO 04007KT 10SM CLR 34/19 A2993 RMK AO2 SLP134 T03390194=
202207282156 METAR KPWT 282156Z AUTO 05007KT 10SM CLR 34/19 A2994 RMK AO2 SLP138 T03390194=
202207282056 METAR KPWT 282056Z AUTO VRB05KT 10SM CLR 32/19 A2996 RMK AO2 SLP143 6//// T03170189=
202207281956 METAR KPWT 281956Z AUTO 10SM CLR 31/18 RMK AO2 SLPNO T03110183 $=
202207281856 METAR KPWT 281856Z AUTO 07006KT 10SM FEW001 28/18 A2998 RMK AO2 SLP151 T02830183=
202207281756 METAR KPWT 281756Z AUTO 10SM CLR 27/17 A2999 RMK AO2 SLP154 6//// T02670172 10267 20150 58003=
202207281656 METAR KPWT 281656Z AUTO 04007KT 10SM CLR 25/17 A3000 RMK AO2 SLP157 T02500172=
202207281556 METAR KPWT 281556Z AUTO 07006KT 10SM CLR 23/17 A3000 RMK AO2 SLP158 T02330167=
202207281456 METAR KPWT 281456Z AUTO 05004KT 10SM CLR 21/18 A3000 RMK AO2 SLP157 T02110178 50000=
202207281356 METAR KPWT 281356Z AUTO 22003KT 10SM CLR 17/17 A3001 RMK AO2 SLP161 T01720167=
202207281259 SPECI KPWT 281259Z AUTO 00000KT 4SM BR CLR 16/15 A3000 RMK AO2=
202207281256 METAR KPWT 281256Z AUTO 00000KT 1SM BR CLR 15/15 A3000 RMK AO2 SLP158 T01500150=
202207281156 METAR KPWT 281156Z AUTO 00000KT 10SM CLR 16/15 A3000 RMK AO2 SLP157 6//// 7//// T01560150 10211 20144 53002=
202207281056 METAR KPWT 281056Z AUTO 00000KT 10SM CLR 17/16 A2999 RMK AO2 SLP156 T01670161=
202207280956 METAR KPWT 280956Z AUTO 20003KT 10SM CLR 16/15 A2999 RMK AO2 SLP155 T01560150=
202207280856 METAR KPWT 280856Z AUTO 00000KT 10SM CLR 18/17 A2999 RMK AO2 SLP154 6//// T01780167 53002=
202207280756 METAR KPWT 280756Z AUTO 00000KT 10SM CLR 19/17 A2998 RMK AO2 SLP153 T01940172 403440139=
202207280656 METAR KPWT 280656Z AUTO 00000KT 10SM CLR 21/18 A2998 RMK AO2 SLP151 T02060178=
202207280556 METAR KPWT 280556Z AUTO 00000KT 10SM CLR 21/18 A2998 RMK AO2 SLP153 6//// T02110178 10339 20211=
202207280456 METAR KPWT 280456Z AUTO 12003KT 10SM CLR 24/19 A2998 RMK AO2 SLP152 T02390194 TSNO=
202207280356 METAR KPWT 280356Z AUTO 00000KT 10SM 26/19 A2996 RMK AO2 SLP147 T02610189=
202207280256 METAR KPWT 280256Z AUTO 10SM CLR 29/19 RMK AO2 SLPNO 6//// T02940189 $=
202207280156 METAR KPWT 280156Z AUTO 06006KT 10SM CLR 31/19 A2996 RMK AO2 SLP147 T03110189=
202207280056 METAR KPWT 280056Z AUTO 05008KT 10SM CLR 32/19 A2997 RMK AO2 SLP147 T03220189=
202207272356 METAR KPWT 272356Z AUTO 03007KT 10SM CLR 34/19 A2997 RMK AO2 SLP147 6//// T03390194 10344 20244 58009=
202207272256 METAR KPWT 272256Z AUTO VRB04KT 10SM CLR 33/18 A2998 RMK AO2 SLP150 T03330178=
202207272156 METAR KPWT 272156Z AUTO VRB05KT 10SM CLR 32/18 A2999 RMK AO2 SLP154 T03220183=
202207272056 METAR KPWT 272056Z AUTO 00000KT 10SM CLR 32/18 A2999 RMK AO2 SLP156 6//// T03170178 56011=
202207271956 METAR KPWT 271956Z AUTO VRB03KT 10SM CLR 29/18 A3000 RMK AO2 SLP159 T02940183=
202207271856 METAR KPWT 271856Z AUTO 00000KT 10SM CLR 27/17 A3002 RMK AO2 SLP164 T02720172=
202207271756 METAR KPWT 271756Z AUTO 10SM CLR 24/17 A3003 RMK AO2 SLP168 6//// T02440172 10244 20139 53001=
202207271656 METAR KPWT 271656Z AUTO VRB03KT 10SM CLR 22/17 A3002 RMK AO2 SLP168 T02170167=
202207271556 METAR KPWT 271556Z AUTO 21004KT 10SM FEW005 17/16 A3002 RMK AO2 SLP167 T01670156=
202207271553 SPECI KPWT 271553Z AUTO 21004KT 10SM SCT005 17/16 A3002 RMK AO2=
202207271536 SPECI KPWT 271536Z AUTO 20006KT 10SM OVC005 17/16 A3003 RMK AO2=
202207271456 METAR KPWT 271456Z AUTO 22004KT 10SM OVC003 16/16 A3002 RMK AO2 SLP165 T01610156 51012=
202207271425 SPECI KPWT 271425Z AUTO VRB04KT 9SM OVC003 16/16 A3002 RMK AO2=
202207271417 SPECI KPWT 271417Z AUTO 23003KT 2SM BR OVC003 15/15 A3002 RMK AO2=
202207271413 SPECI KPWT 271413Z AUTO 21004KT 1SM BR OVC003 15/15 A3002 RMK AO2 VIS 1/2V2 1/2=
202207271356 METAR KPWT 271356Z AUTO 22007KT 1/2SM FG OVC003 15/15 A3001 RMK AO2 SLP163 T01500150=
202207271349 SPECI KPWT 271349Z AUTO 22006KT 1/4SM FG OVC003 15/14 RMK AO2 $=
202207271340 SPECI KPWT 271340Z AUTO 23007KT 1/2SM FG OVC003 15/15 A3001 RMK AO2=
202207271328 SPECI KPWT 271328Z AUTO 21005KT 3/4SM BR OVC003 14/14 A3001 RMK AO2=
202207271320 SPECI KPWT 271320Z AUTO 21005KT 1/4SM FG OVC003 15/14 A3001 RMK AO2=
202207271305 SPECI KPWT 271305Z AUTO 21004KT 1/2SM FG OVC003 15/15 A3000 RMK AO2=
202207271300 SPECI KPWT 271300Z AUTO 21005KT 1SM BR OVC003 15/15 A3000 RMK AO2 VIS 1/2V5=
202207271256 METAR KPWT 271256Z AUTO 21004KT 2 1/2SM BR OVC003 15/15 A3000 RMK AO2 VIS 1 1/4V5 SLP158 T01500150=
202207271226 SPECI KPWT 271226Z AUTO 21004KT 10SM BKN003 14/14 A2999 RMK AO2=
202207271217 SPECI KPWT 271217Z AUTO 21003KT 10SM SCT003 14/14 A2999 RMK AO2=
202207271156 METAR KPWT 271156Z AUTO 22004KT 10SM CLR 14/14 A2998 RMK AO2 SLP153 6//// 7//// T01390139 10228 20139 51010=
202207271056 METAR KPWT 271056Z AUTO 21005KT 10SM CLR 15/14 A2998 RMK AO2 SLP150 T01500144=
202207270956 METAR KPWT 270956Z AUTO 22005KT 10SM CLR 16/15 A2996 RMK AO2 SLP146 T01610150=
202207270856 METAR KPWT 270856Z AUTO 22004KT 10SM CLR 17/16 A2995 RMK AO2 SLP143 6//// T01720161 51014=
202207270756 METAR KPWT 270756Z AUTO 21005KT 10SM CLR 18/17 A2994 RMK AO2 SLP139 T01830167 403500133=
202207270656 METAR KPWT 270656Z AUTO 00000KT 10SM CLR 21/18 A2992 RMK AO2 SLP133 T02060183=
202207270556 METAR KPWT 270556Z AUTO 00000KT 10SM CLR 22/18 A2991 RMK AO2 SLP129 6//// T02220183 10344 20211 51015=
202207270456 METAR KPWT 270456Z AUTO 00000KT 10SM 21/18 A2990 RMK AO2 SLP126 T02110183=
202207270356 METAR KPWT 270356Z AUTO 00000KT 10SM CLR 28/18 A2988 RMK AO2 SLP117 T02780183=
202207270256 METAR KPWT 270256Z AUTO 07004KT 10SM CLR 31/18 A2987 RMK AO2 SLP113 T03110183 55000=
202207270156 METAR KPWT 270156Z AUTO 05007KT 10SM CLR 33/18 A2986 RMK AO2 SLP110 T03330183=
202207270056 METAR KPWT 270056Z AUTO 05007KT 10SM CLR 34/19 A2986 RMK AO2 SLP111 T03390189=
202207262356 METAR KPWT 262356Z AUTO 07007KT 10SM CLR 34/19 A2987 RMK AO2 SLP113 T03440189 10350 20272 56007=
202207262256 METAR KPWT 262256Z AUTO 06006KT 10SM CLR 34/19 A2987 RMK AO2 SLP115 T03440189=
202207262156 METAR KPWT 262156Z AUTO 36007KT 330V030 10SM CLR 35/19 A2988 RMK AO2 SLP117 T03500194=
202207262056 METAR KPWT 262056Z AUTO VRB06KT 10SM CLR 33/18 A2989 RMK AO2 SLP120 T03330183 58007=
202207261956 METAR KPWT 261956Z AUTO VRB04KT 10SM CLR 32/18 A2990 RMK AO2 SLP125 T03220183=
202207261856 METAR KPWT 261856Z AUTO VRB05KT 10SM CLR 29/18 A2991 RMK AO2 SLP126 T02940178=
202207261756 METAR KPWT 261756Z AUTO 08006KT 10SM CLR 27/17 A2991 RMK AO2 SLP128 6//// T02720172 10278 20133 53001=
202207261656 METAR KPWT 261656Z AUTO 04008KT 10SM CLR 26/17 A2991 RMK AO2 SLP128 T02560167=
202207261556 METAR KPWT 261556Z AUTO 05009KT 10SM CLR 24/16 A2991 RMK AO2 SLP126 T02390156=
202207261456 METAR KPWT 261456Z AUTO 06007KT 10SM CLR 23/16 A2991 RMK AO2 SLP127 6//// T02280156 53008 TSNO=
202207261356 METAR KPWT 261356Z AUTO 00000KT 10SM CLR 18/15 A2990 RMK AO2 SLP126 T01780150 TSNO=
202207261256 METAR KPWT 261256Z AUTO 00000KT 10SM CLR 14/12 A2988 RMK AO2 SLP120 T01440122=
202207261156 METAR KPWT 261156Z AUTO 00000KT 10SM CLR 14/13 A2988 RMK AO2 SLP119 6//// 7//// T01440128 10233 20139 52004=
202207261056 METAR KPWT 261056Z AUTO 00000KT 10SM CLR 15/13 A2988 RMK AO2 SLP119 T01500133=
202207260956 METAR KPWT 260956Z AUTO 00000KT 10SM CLR 16/13 A2987 RMK AO2 SLP116 T01560128=
202207260856 METAR KPWT 260856Z AUTO 21003KT 10SM CLR 14/12 A2987 RMK AO2 SLP117 6//// T01440122 55001=
202207260756 METAR KPWT 260756Z AUTO 00000KT 10SM CLR 18/13 A2987 RMK AO2 SLP114 T01830128 403110117=
202207260656 METAR KPWT 260656Z AUTO 06003KT 10SM CLR 21/13 A2987 RMK AO2 SLP115 T02060128=
202207260556 METAR KPWT 260556Z AUTO 06008KT 10SM CLR 23/13 A2987 RMK AO2 SLP115 6//// T02280128 10306 20228 50003=
202207260456 METAR KPWT 260456Z AUTO 03004KT 10SM CLR 23/13 A2987 RMK AO2 SLP117 T02330133=
202207260356 METAR KPWT 260356Z AUTO 04005KT 10SM CLR 24/14 A2987 RMK AO2 SLP115 T02440144=
202207260256 METAR KPWT 260256Z AUTO 03007KT 10SM CLR 27/16 A2986 RMK AO2 SLP113 T02720156 58011=
202207260156 METAR KPWT 260156Z AUTO 07007KT 10SM CLR 29/16 A2987 RMK AO2 SLP116 T02890161=
202207260056 METAR KPWT 260056Z AUTO 06007KT 10SM CLR 29/16 A2989 RMK AO2 SLP123 T02940161=
202207252356 METAR KPWT 252356Z AUTO 04008KT 10SM CLR 29/16 A2990 RMK AO2 SLP125 T02940161 10311 20250 56015=
202207252256 METAR KPWT 252256Z AUTO 07009KT 10SM CLR 31/17 A2991 RMK AO2 SLP130 T03060167=
202207252156 METAR KPWT 252156Z AUTO 06009KT 10SM CLR 30/17 A2992 RMK AO2 SLP133 T03000172=
202207252056 METAR KPWT 252056Z AUTO VRB03KT 10SM CLR 28/17 A2994 RMK AO2 SLP141 T02830167 58017=
202207251956 METAR KPWT 251956Z AUTO 08005KT 10SM CLR 28/17 A2996 RMK AO2 SLP146 T02780167=
202207251856 METAR KPWT 251856Z AUTO 04007KT 10SM CLR 26/16 A2998 RMK AO2 SLP153 T02560161=
202207251756 METAR KPWT 251756Z AUTO 05011KT 10SM CLR 25/16 A2999 RMK AO2 SLP157 6//// T02500156 10250 20122 58005=
202207251656 METAR KPWT 251656Z AUTO 05010KT 10SM CLR 23/16 A3000 RMK AO2 SLP158 T02330156=
202207251556 METAR KPWT 251556Z AUTO 04007KT 10SM CLR 21/14 A3001 RMK AO2 SLP163 T02110144=
202207251456 METAR KPWT 251456Z AUTO 05006KT 10SM CLR 19/14 A3001 RMK AO2 SLP162 T01940144 55003=
202207251356 METAR KPWT 251356Z AUTO 00000KT 10SM CLR 17/14 A3001 RMK AO2 SLP161 T01720139=
202207251256 METAR KPWT 251256Z AUTO 00000KT 10SM CLR 12/11 A3001 RMK AO2 SLP162 T01220111=
202207251156 METAR KPWT 251156Z AUTO 00000KT 10SM CLR 12/11 A3002 RMK AO2 SLP165 7//// T01220111 10194 20117 57004=
202207251056 METAR KPWT 251056Z AUTO 00000KT 10SM CLR 12/11 A3002 RMK AO2 SLP166 T01220111=
202207250956 METAR KPWT 250956Z AUTO 00000KT 10SM CLR 14/12 A3002 RMK AO2 SLP167 T01390122=
202207250856 METAR KPWT 250856Z AUTO 00000KT 10SM CLR 14/12 A3003 RMK AO2 SLP168 T01390122 58005=
202207250756 METAR KPWT 250756Z AUTO 03005KT 10SM CLR 17/13 A3003 RMK AO2 SLP171 T01670128 402890094=
202207250656 METAR KPWT 250656Z AUTO 03007KT 10SM CLR 19/13 A3004 RMK AO2 SLP174 T01890128=
202207250556 METAR KPWT 250556Z AUTO 03007KT 10SM CLR 19/13 A3004 RMK AO2 SLP174 6//// T01940133 10289 20194 50001=
202207250456 METAR KPWT 250456Z AUTO 03009KT 10SM CLR 21/13 A3004 RMK AO2 SLP174 T02060128=
202207250356 METAR KPWT 250356Z AUTO 06003KT 10SM CLR 22/13 A3004 RMK AO2 SLP172 T02170133=
202207250256 METAR KPWT 250256Z AUTO 06006KT 10SM CLR 24/13 A3004 RMK AO2 SLP173 T02440133 55009=
202207250156 METAR KPWT 250156Z AUTO 04009KT 10SM CLR 27/14 A3004 RMK AO2 SLP172 T02720139=
202207250056 METAR KPWT 250056Z AUTO 03011KT 10SM CLR 28/13 A3005 RMK AO2 SLP178 T02780133=
202207242356 METAR KPWT 242356Z AUTO 02010G14KT 10SM CLR 29/14 A3007 RMK AO2 SLP182 6//// T02890144 10289 20217 58011=
202207242256 METAR KPWT 242256Z AUTO 05008KT 10SM CLR 27/16 A3008 RMK AO2 SLP187 T02720156=
202207242156 METAR KPWT 242156Z AUTO VRB05KT 10SM CLR 27/15 A3009 RMK AO2 SLP190 T02670150=
202207242056 METAR KPWT 242056Z AUTO 07009KT 10SM CLR 26/16 A3010 RMK AO2 SLP194 6//// T02610156=
202207241956 METAR KPWT 241956Z AUTO 01008KT 350V050 10SM CLR 26/16 A3011 RMK AO2 SLP198 T02560156=
202207241856 METAR KPWT 241856Z AUTO VRB05KT 10SM CLR 23/15 A3012 RMK AO2 SLP201 T02330150=
202207241756 METAR KPWT 241756Z AUTO 10SM CLR 22/14 RMK AO2 SLPNO 6//// T02170144 10217 20094 $=
202207241656 METAR KPWT 241656Z AUTO 07007KT 10SM CLR 20/14 A3013 RMK AO2 SLP206 T02000139=
202207241556 METAR KPWT 241556Z AUTO 03004KT 10SM CLR 19/14 A3014 RMK AO2 SLP207 T01890139=
202207241456 METAR KPWT 241456Z AUTO 04004KT 10SM CLR 17/13 A3014 RMK AO2 SLP209 6//// T01720133 53003=
202207241356 METAR KPWT 241356Z AUTO 04004KT 10SM CLR 14/13 A3014 RMK AO2 SLP207 T01440128=
202207241322 SPECI KPWT 241322Z AUTO 00000KT 10SM CLR 11/11 A3014 RMK AO2=
202207241314 SPECI KPWT 241314Z AUTO 00000KT 1SM BR CLR 11/10 A3014 RMK AO2=
202207241256 METAR KPWT 241256Z AUTO 00000KT 8SM CLR 11/11 A3014 RMK AO2 SLP208 T01060106=
202207241156 METAR KPWT 241156Z AUTO 00000KT 9SM CLR 11/11 A3013 RMK AO2 SLP208 7//// T01060106 10139 20094 53003=
202207241141 SPECI KPWT 241141Z AUTO 00000KT 3SM BR CLR 11/11 A3013 RMK AO2=
202207241138 SPECI KPWT 241138Z AUTO 00000KT 1 1/2SM BR CLR 12/12 A3013 RMK AO2=
202207241136 SPECI KPWT 241136Z AUTO 00000KT 3/4SM BR CLR 11/11 A3013 RMK AO2=
202207241130 SPECI KPWT 241130Z AUTO 00000KT 1/4SM FG CLR 11/11 A3013 RMK AO2=
202207241119 SPECI KPWT 241119Z AUTO 00000KT 1/2SM FG CLR 10/10 A3013 RMK AO2 VIS 1/4V3=
202207241112 SPECI KPWT 241112Z AUTO 00000KT 3/4SM BR CLR 09/09 A3013 RMK AO2 VIS 1/4V5=
202207241109 SPECI KPWT 241109Z AUTO 00000KT 1 1/4SM BR CLR 10/09 A3013 RMK AO2 VIS 1/4V5=
202207241056 METAR KPWT 241056Z AUTO 00000KT 4SM BR CLR 11/11 A3013 RMK AO2 SLP208 T01110111=
202207241054 SPECI KPWT 241054Z AUTO 00000KT 1 1/2SM BR CLR 11/11 A3013 RMK AO2=
202207241045 SPECI KPWT 241045Z AUTO 20003KT 3/4SM BR CLR 11/11 A3013 RMK AO2=
202207241043 SPECI KPWT 241043Z AUTO 20003KT 1 1/2SM BR CLR 11/11 A3013 RMK AO2=
202207241037 SPECI KPWT 241037Z AUTO 00000KT 3SM BR CLR 11/11 A3013 RMK AO2=
202207241027 SPECI KPWT 241027Z AUTO 00000KT 1 1/4SM BR CLR 10/10 A3013 RMK AO2 VIS 1/2V5=
202207241023 SPECI KPWT 241023Z AUTO 00000KT 3/4SM BR CLR 09/09 A3013 RMK AO2=
202207241016 SPECI KPWT 241016Z AUTO 00000KT 1SM BR CLR 11/10 A3013 RMK AO2=
202207240956 METAR KPWT 240956Z AUTO 00000KT 10SM CLR 12/12 A3013 RMK AO2 SLP206 T01220117=
202207240856 METAR KPWT 240856Z AUTO 00000KT 5SM BR CLR 12/12 A3013 RMK AO2 SLP206 T01220117 53001=
202207240756 METAR KPWT 240756Z AUTO 00000KT 10SM CLR 12/12 A3012 RMK AO2 SLP203 T01220117 402390122=
202207240656 METAR KPWT 240656Z AUTO 00000KT 10SM CLR 13/12 A3012 RMK AO2 SLP203 T01280117=
202207240556 METAR KPWT 240556Z AUTO 00000KT 10SM CLR 13/12 A3012 RMK AO2 SLP203 T01330122 10239 20128 50004=
202207240456 METAR KPWT 240456Z AUTO 00000KT 10SM CLR 15/13 A3013 RMK AO2 SLP205 T01500133=
202207240356 METAR KPWT 240356Z AUTO 13003KT 10SM CLR 18/14 A3012 RMK AO2 SLP202 T01830144=
202207240256 METAR KPWT 240256Z AUTO 04004KT 10SM CLR 21/14 A3011 RMK AO2 SLP199 T02110144 58004=
202207240156 METAR KPWT 240156Z AUTO 01005KT 10SM CLR 23/14 A3012 RMK AO2 SLP201 T02280144=
202207240056 METAR KPWT 240056Z AUTO VRB03KT 10SM CLR 23/14 A3012 RMK AO2 SLP202 T02280144=
202207232356 METAR KPWT 232356Z AUTO 00000KT 10SM BKN034 22/14 A3012 RMK AO2 SLP203 6//// T02170139 10228 20150 58010=
202207232256 METAR KPWT 232256Z AUTO VRB03KT 10SM BKN032 21/14 A3014 RMK AO2 SLP207 T02060139=
202207232240 SPECI KPWT 232240Z AUTO 00000KT 10SM BKN030 21/14 A3014 RMK AO2=
202207232156 METAR KPWT 232156Z AUTO 00000KT 10SM OVC028 19/13 A3015 RMK AO2 SLP212 T01940133=
202207232106 SPECI KPWT 232106Z AUTO 00000KT 10SM OVC026 19/13 A3015 RMK AO2=
202207232056 METAR KPWT 232056Z AUTO 10003KT 10SM SCT023 OVC030 19/13 A3015 RMK AO2 SLP215 6//// T01890133=
202207231956 METAR KPWT 231956Z AUTO VRB03KT 10SM OVC019 18/13 RMK AO2 SLPNO T01780133 $=
202207231926 SPECI KPWT 231926Z AUTO 29005KT 10SM OVC015 18/14 A3016 RMK AO2=
202207231856 METAR KPWT 231856Z AUTO 24003KT 10SM OVC011 17/13 A3016 RMK AO2 SLP217 T01670128=
202207231827 SPECI KPWT 231827Z AUTO 23003KT 10SM OVC011 16/13 A3017 RMK AO2=
202207231756 METAR KPWT 231756Z AUTO 00000KT 10SM OVC009 15/13 A3017 RMK AO2 SLP218 60000 T01500128 10156 20122 51004=
202207231656 METAR KPWT 231656Z AUTO 16003KT 10SM OVC007 14/13 A3017 RMK AO2 SLP218 T01440128=
202207231639 SPECI KPWT 231639Z AUTO 00000KT 10SM OVC007 14/13 A3016 RMK AO2 CIG 005V009=
202207231623 SPECI KPWT 231623Z AUTO 18003KT 10SM OVC005 14/13 A3016 RMK AO2 CIG 003V008=
202207231556 METAR KPWT 231556Z AUTO 00000KT 4SM BR OVC003 13/13 A3016 RMK AO2 SLP218 T01330128=
202207231456 METAR KPWT 231456Z AUTO 00000KT 3SM BR BKN003 OVC008 13/12 A3015 RMK AO2 RAE54 SLP214 P0000 60000 T01280122 53008=
202207231437 SPECI KPWT 231437Z AUTO 00000KT 3SM BR OVC003 12/12 A3015 RMK AO2 RAE33 P0000=
202207231410 SPECI KPWT 231410Z AUTO 00000KT 2SM -RA BR OVC003 12/12 A3015 RMK AO2 P0000=
202207231356 METAR KPWT 231356Z AUTO 00000KT 2 1/2SM -RA BR OVC005 12/12 A3015 RMK AO2 RAB07 CIG 003V008 SLP211 P0000 T01220117=
202207231308 SPECI KPWT 231308Z AUTO 00000KT 2SM -RA BR OVC005 12/12 A3014 RMK AO2 RAB07 P0000=
202207231256 METAR KPWT 231256Z AUTO 00000KT 5SM BR OVC005 13/12 A3013 RMK AO2 SLP206 T01280117=
202207231156 METAR KPWT 231156Z AUTO 00000KT 10SM OVC005 12/12 A3013 RMK AO2 CIG 005V008 SLP205 7//// T01220117 10144 20117 53001=
202207231056 METAR KPWT 231056Z AUTO 00000KT 10SM OVC007 12/12 A3013 RMK AO2 SLP205 T01220117=
202207230956 METAR KPWT 230956Z AUTO 00000KT 10SM OVC009 13/12 A3012 RMK AO2 SLP203 T01280117=
202207230943 SPECI KPWT 230943Z AUTO 00000KT 10SM OVC009 13/12 A3012 RMK AO2=
202207230856 METAR KPWT 230856Z AUTO 14003KT 10SM OVC011 13/12 A3013 RMK AO2 SLP205 T01280117 51004=
202207230756 METAR KPWT 230756Z AUTO 00000KT 10SM BKN013 12/11 A3012 RMK AO2 SLP202 T01220111 402280117=
202207230751 SPECI KPWT 230751Z AUTO 00000KT 10SM BKN013 12/11 A3012 RMK AO2 402280117=
202207230656 METAR KPWT 230656Z AUTO 00000KT 10SM CLR 13/12 A3011 RMK AO2 SLP200 T01280117=
202207230556 METAR KPWT 230556Z AUTO 20004KT 10SM CLR 14/13 A3011 RMK AO2 SLP200 6//// T01440128 10228 20139 53009=
202207230456 METAR KPWT 230456Z AUTO 21003KT 10SM CLR 16/14 A3010 RMK AO2 SLP197 T01560139=
202207230356 METAR KPWT 230356Z AUTO 10SM CLR 17/14 A3009 RMK AO2 SLP193 T01720144=
202207230256 METAR KPWT 230256Z AUTO 20006KT 10SM CLR 19/14 A3009 RMK AO2 SLP190 6//// T01940144 55004=
202207230156 METAR KPWT 230156Z AUTO 22008KT 10SM CLR 21/14 A3008 RMK AO2 SLP189 T02110144=
202207230056 METAR KPWT 230056Z AUTO 21006KT 10SM CLR 22/14 A3009 RMK AO2 SLP192 T02220144=
202207222356 METAR KPWT 222356Z AUTO 10SM CLR 23/14 A3010 RMK AO2 SLP193 6//// T02280144 10228 20156 56008=
202207222256 METAR KPWT 222256Z AUTO 29004KT 10SM CLR 22/14 A3010 RMK AO2 SLP196 T02170144=
202207222156 METAR KPWT 222156Z AUTO 23007KT 10SM SCT021 21/14 A3011 RMK AO2 SLP199 T02060139=
202207222056 METAR KPWT 222056Z AUTO 22008KT 10SM OVC019 19/13 A3012 RMK AO2 SLP203 T01890133 58001=
202207221956 METAR KPWT 221956Z AUTO 21008KT 10SM OVC017 17/13 A3013 RMK AO2 SLP206 T01720128=
202207221856 METAR KPWT 221856Z AUTO 19007KT 160V220 10SM OVC015 17/12 A3013 RMK AO2 SLP204 T01670122=
202207221756 METAR KPWT 221756Z AUTO 21009KT 10SM OVC015 16/12 A3012 RMK AO2 SLP204 T01560117 10156 20133 53010=
202207221656 METAR KPWT 221656Z AUTO 23009KT 10SM OVC015 15/12 A3011 RMK AO2 SLP200 T01500117=
202207221556 METAR KPWT 221556Z AUTO 20009KT 10SM OVC015 14/11 A3010 RMK AO2 SLP196 T01440111=
202207221456 METAR KPWT 221456Z AUTO 21008KT 10SM OVC011 14/11 A3009 RMK AO2 SLP193 T01390111 51012=
202207221423 SPECI KPWT 221423Z AUTO 21008KT 10SM OVC011 13/12 A3009 RMK AO2=
202207221356 METAR KPWT 221356Z AUTO 20006KT 10SM OVC009 13/12 A3009 RMK AO2 SLP189 T01330117=
202207221256 METAR KPWT 221256Z AUTO 19007KT 10SM OVC009 13/12 A3007 RMK AO2 SLP183 T01330117=
202207221156 METAR KPWT 221156Z AUTO 20007KT 10SM OVC009 13/12 A3006 RMK AO2 SLP179 6//// 7//// T01330117 10139 20128 52010=
202207221056 METAR KPWT 221056Z AUTO 20008KT 10SM OVC009 13/12 A3005 RMK AO2 SLP176 T01330117=
202207220956 METAR KPWT 220956Z AUTO 20009KT 10SM OVC007 13/12 A3004 RMK AO2 SLP174 T01330122=
202207220856 METAR KPWT 220856Z AUTO 20004KT 10SM OVC007 14/12 A3003 RMK AO2 SLP170 6//// T01390122 53004=
202207220756 METAR KPWT 220756Z AUTO 20005KT 10SM BKN009 13/12 A3002 RMK AO2 SLP168 T01330122 402720106=
202207220752 SPECI KPWT 220752Z AUTO 20006KT 10SM BKN009 13/12 A3002 RMK AO2 402720106=
202207220741 SPECI KPWT 220741Z AUTO 21005KT 10SM SCT009 BKN060 13/12 A3002 RMK AO2=
202207220656 METAR KPWT 220656Z AUTO 21004KT 10SM SCT060 13/12 A3002 RMK AO2 SLP168 T01330122=
202207220556 METAR KPWT 220556Z AUTO 21006KT 10SM CLR 13/12 A3001 RMK AO2 SLP167 6//// T01330117 10272 20133 52011=
202207220456 METAR KPWT 220456Z AUTO 20004KT 10SM CLR 16/12 A3000 RMK AO2 SLP162 T01560122=
202207220356 METAR KPWT 220356Z AUTO 20004KT 10SM CLR 18/13 A2999 RMK AO2 SLP159 T01830128=
202207220256 METAR KPWT 220256Z AUTO 23010KT 10SM CLR 22/13 A2998 RMK AO2 SLP154 6//// T02220133 55004=
202207220156 METAR KPWT 220156Z AUTO 24009KT 10SM CLR 24/12 A2997 RMK AO2 SLP151 T02440117=
202207220056 METAR KPWT 220056Z AUTO 21007KT 10SM CLR 26/13 A2998 RMK AO2 SLP154 T02610133=
202207212356 METAR KPWT 212356Z AUTO 23008KT 10SM CLR 27/14 A2999 RMK AO2 SLP158 6//// T02670139 10272 20183 56017=
202207212256 METAR KPWT 212256Z AUTO 23005KT 10SM CLR 26/13 A3001 RMK AO2 SLP163 T02610128=
202207212156 METAR KPWT 212156Z AUTO 21006KT 10SM CLR 26/15 A3003 RMK AO2 SLP169 T02560150=
202207212056 METAR KPWT 212056Z AUTO VRB05KT 10SM CLR 24/14 A3004 RMK AO2 SLP175 6//// T02440144=
202207211956 METAR KPWT 211956Z AUTO 20005KT 10SM CLR 23/14 RMK AO2 SLPNO T02280144 $=
202207211856 METAR KPWT 211856Z AUTO 10SM CLR 21/14 RMK AO2 SLPNO T02110144 $=
202207211756 METAR KPWT 211756Z AUTO 00000KT 10SM FEW009 18/14 A3008 RMK AO2 SLP188 T01830139 10183 20128 58003=
202207211747 SPECI KPWT 211747Z AUTO 27005KT 10SM SCT009 18/14 A3008 RMK AO2=
202207211715 SPECI KPWT 211715Z AUTO 23007KT 10SM OVC007 16/13 A3009 RMK AO2=
202207211656 METAR KPWT 211656Z AUTO 20006KT 10SM OVC005 15/13 A3009 RMK AO2 SLP191 T01500133=
202207211556 METAR KPWT 211556Z AUTO 22007KT 3SM BR OVC003 13/13 A3009 RMK AO2 SLP191 T01330128=
202207211552 SPECI KPWT 211552Z AUTO 21007KT 3SM BR OVC003 13/13 A3009 RMK AO2=
202207211544 SPECI KPWT 211544Z AUTO 23008KT 2 1/2SM BR OVC003 13/13 A3008 RMK AO2 VIS 1V5=
202207211524 SPECI KPWT 211524Z AUTO 22008KT 1 1/4SM BR OVC003 13/13 A3009 RMK AO2 VIS 1/2V5=
202207211516 SPECI KPWT 211516Z AUTO 23006KT 3/4SM BR OVC003 13/13 A3009 RMK AO2 VIS 1/4V2 1/2=
202207211456 METAR KPWT 211456Z AUTO 21007KT 1/4SM FG OVC003 13/13 A3009 RMK AO2 SLP189 T01280128 53005=
202207211356 METAR KPWT 211356Z AUTO 22005KT 1/4SM FG OVC003 13/13 A3007 RMK AO2 SLP185 T01280128=
202207211256 METAR KPWT 211256Z AUTO 23003KT 1/4SM FG OVC003 13/13 A3006 RMK AO2 SLP181 T01280128=
202207211245 SPECI KPWT 211245Z AUTO 24004KT 1/4SM FG OVC003 13/13 A3006 RMK AO2=
202207211234 SPECI KPWT 211234Z AUTO 23005KT 1/2SM FG OVC003 13/13 A3007 RMK AO2=
202207211224 SPECI KPWT 211224Z AUTO 22004KT 3/4SM BR OVC003 12/12 A3007 RMK AO2=
202207211219 SPECI KPWT 211219Z AUTO 22003KT 1 3/4SM BR OVC003 12/12 A3007 RMK AO2=
202207211203 SPECI KPWT 211203Z AUTO 22004KT 5SM BR BKN003 12/12 A3007 RMK AO2=
202207211156 METAR KPWT 211156Z AUTO 21004KT 5SM BR SCT003 11/11 A3007 RMK AO2 SLP183 7//// T01110111 10183 20106 51006=
202207211154 SPECI KPWT 211154Z AUTO 21004KT 5SM BR SCT003 11/11 A3007 RMK AO2=
202207211118 SPECI KPWT 211118Z AUTO 21003KT 6SM BR CLR 12/12 A3006 RMK AO2=
202207211110 SPECI KPWT 211110Z AUTO 21003KT 1 1/4SM BR CLR 11/11 A3006 RMK AO2 VIS 1/4V5=
202207211105 SPECI KPWT 211105Z AUTO 00000KT 3/4SM BR CLR 12/11 A3006 RMK AO2=
202207211101 SPECI KPWT 211101Z AUTO 00000KT 1 1/4SM BR CLR 12/12 A3006 RMK AO2=
202207211058 SPECI KPWT 211058Z AUTO 21003KT 3SM BR CLR 12/12 A3006 RMK AO2=
202207211056 METAR KPWT 211056Z AUTO 21003KT 1 3/4SM BR CLR 12/12 A3006 RMK AO2 VIS 1/2V5 SLP180 T01220122=
202207211052 SPECI KPWT 211052Z AUTO 21003KT 1SM BR CLR 12/12 A3006 RMK AO2 VIS 1/4V5=
202207211046 SPECI KPWT 211046Z AUTO 22003KT 1/2SM FG CLR 11/11 A3006 RMK AO2 VIS 1/4V5=
202207211038 SPECI KPWT 211038Z AUTO 00000KT 3/4SM BR CLR 13/12 A3006 RMK AO2=
202207211035 SPECI KPWT 211035Z AUTO 00000KT 1 3/4SM BR CLR 13/12 A3005 RMK AO2 VIS 1/2V5=
202207210956 METAR KPWT 210956Z AUTO 00000KT 10SM CLR 13/13 A3005 RMK AO2 SLP178 T01330128=
202207210856 METAR KPWT 210856Z AUTO 00000KT 10SM CLR 14/13 A3005 RMK AO2 SLP176 T01440133 55001=
202207210756 METAR KPWT 210756Z AUTO 00000KT 10SM CLR 16/14 A3005 RMK AO2 SLP176 T01560139 402940111=
202207210656 METAR KPWT 210656Z AUTO 00000KT 10SM CLR 17/14 A3005 RMK AO2 SLP177 T01720144=
202207210556 METAR KPWT 210556Z AUTO 22003KT 10SM CLR 16/14 A3005 RMK AO2 SLP177 T01560139 10283 20156 53006=
202207210456 METAR KPWT 210456Z AUTO 06005KT 10SM CLR 21/14 A3005 RMK AO2 SLP175 T02110144=
202207210356 METAR KPWT 210356Z AUTO 06006KT 10SM CLR 23/16 A3003 RMK AO2 SLP171 T02280156=
202207210256 METAR KPWT 210256Z AUTO 06005KT 10SM CLR 26/16 A3003 RMK AO2 SLP172 T02560161 56006=
202207210156 METAR KPWT 210156Z AUTO 05008KT 10SM CLR 27/16 A3003 RMK AO2 SLP172 T02720161=
202207210056 METAR KPWT 210056Z AUTO 07005KT 10SM CLR 28/16 A3004 RMK AO2 SLP175 T02780156=
202207202356 METAR KPWT 202356Z AUTO 05007KT 10SM CLR 28/16 A3005 RMK AO2 SLP177 T02830156 10294 20239 58009=
202207202256 METAR KPWT 202256Z AUTO 05007KT 10SM CLR 29/16 A3006 RMK AO2 SLP182 T02940161=
202207202156 METAR KPWT 202156Z AUTO VRB05KT 10SM CLR 28/16 A3008 RMK AO2 SLP185 T02830156=
202207202056 METAR KPWT 202056Z AUTO VRB05KT 10SM CLR 28/16 A3008 RMK AO2 SLP187 T02780161 58009=
202207201956 METAR KPWT 201956Z AUTO 00000KT 10SM CLR 27/16 A3009 RMK AO2 SLP190 T02670161=
202207201856 METAR KPWT 201856Z AUTO 08004KT 10SM CLR 25/16 A3010 RMK AO2 SLP194 T02500156=
202207201756 METAR KPWT 201756Z AUTO 23003KT 9SM CLR 24/15 A3011 RMK AO2 SLP197 6//// T02390150 10239 20111 50002=
202207201656 METAR KPWT 201656Z AUTO 00000KT 10SM CLR 23/14 A3011 RMK AO2 SLP199 T02280144=
202207201556 METAR KPWT 201556Z AUTO 00000KT 10SM CLR 21/14 A3011 RMK AO2 SLP198 T02060144=
202207201456 METAR KPWT 201456Z AUTO 00000KT 10SM CLR 18/14 A3010 RMK AO2 SLP195 6//// T01780139 53009=
202207201356 METAR KPWT 201356Z AUTO 00000KT 10SM CLR 14/13 A3009 RMK AO2 SLP190 T01440128=
202207201256 METAR KPWT 201256Z AUTO 00000KT 10SM CLR 11/11 A3008 RMK AO2 SLP189 T01110106=
202207201156 METAR KPWT 201156Z AUTO 00000KT 10SM CLR 12/11 A3008 RMK AO2 SLP186 7//// T01170111 10183 20111 53005=
202207201056 METAR KPWT 201056Z AUTO 00000KT 10SM CLR 12/11 A3006 RMK AO2 SLP182 T01220111=
202207200956 METAR KPWT 200956Z AUTO 00000KT 10SM CLR 12/11 A3007 RMK AO2 SLP183 T01220111=
202207200856 METAR KPWT 200856Z AUTO 00000KT 10SM CLR 13/12 A3006 RMK AO2 SLP181 T01280117 51008=
202207200756 METAR KPWT 200756Z AUTO 00000KT 10SM CLR 14/12 A3005 RMK AO2 SLP178 T01390122 402720100=
202207200656 METAR KPWT 200656Z AUTO 00000KT 10SM CLR 17/13 A3005 RMK AO2 SLP176 T01670128=
202207200556 METAR KPWT 200556Z AUTO 06004KT 10SM CLR 18/14 A3004 RMK AO2 SLP172 6//// T01830139 10272 20183=
202207200456 METAR KPWT 200456Z AUTO 05003KT 10SM CLR 19/14 RMK AO2 SLPNO T01890139 $=
202207200356 METAR KPWT 200356Z AUTO 05005KT 10SM CLR 22/14 A3001 RMK AO2 SLP164 T02170139=
202207200256 METAR KPWT 200256Z AUTO 05007KT 10SM CLR 24/14 A3001 RMK AO2 SLP163 T02440144 56006=
202207200156 METAR KPWT 200156Z AUTO 06007KT 10SM CLR 26/14 A3001 RMK AO2 SLP163 T02610144=
202207200056 METAR KPWT 200056Z AUTO 04007KT 10SM CLR 27/14 A3002 RMK AO2 SLP166 T02670144=
202207192356 METAR KPWT 192356Z AUTO 06007KT 10SM CLR 27/14 A3003 RMK AO2 SLP170 6//// T02720144 10272 20211 58008=
202207192256 METAR KPWT 192256Z AUTO VRB05KT 10SM CLR 27/14 A3004 RMK AO2 SLP173 T02670144=
202207192156 METAR KPWT 192156Z AUTO VRB04KT 10SM CLR 27/14 A3005 RMK AO2 SLP175 T02670144=
202207192056 METAR KPWT 192056Z AUTO 11005KT 10SM CLR 25/14 A3005 RMK AO2 SLP179 6//// T02500139=
202207191956 METAR KPWT 191956Z AUTO 02008KT 330V070 10SM CLR 25/14 A3007 RMK AO2 SLP183 T02500144=
202207191856 METAR KPWT 191856Z AUTO VRB05KT 10SM CLR 22/13 A3008 RMK AO2 SLP189 T02220133=
202207191756 METAR KPWT 191756Z AUTO 08006KT 10SM CLR 22/14 RMK AO2 SLPNO P0003 60003 T02170139 10217 20100 $=
202207191708 SPECI KPWT 191708Z AUTO 07007KT 10SM CLR 20/13 A3010 RMK AO2 P0003=
202207191656 METAR KPWT 191656Z AUTO 07006KT 1SM HZ VV002 19/13 A3010 RMK AO2 SLP195 T01940133=
202207191639 SPECI KPWT 191639Z AUTO 05008KT 10SM FEW002 19/13 A3010 RMK AO2=
202207191556 METAR KPWT 191556Z AUTO 06006KT 10SM CLR 18/13 A3011 RMK AO2 SLP198 T01780128=
202207191456 METAR KPWT 191456Z AUTO 05006KT 10SM CLR 16/12 A3010 RMK AO2 SLP197 T01560122 50000=
202207191356 METAR KPWT 191356Z AUTO 00000KT 10SM CLR 14/12 A3011 RMK AO2 SLP198 T01390117=
202207191256 METAR KPWT 191256Z AUTO 00000KT 10SM CLR 11/10 A3010 RMK AO2 SLP197 T01110100=
202207191156 METAR KPWT 191156Z AUTO 12003KT 10SM CLR 12/11 A3010 RMK AO2 SLP198 7//// T01220106 10150 20122 58008=
202207191056 METAR KPWT 191056Z AUTO 07005KT 10SM CLR 13/11 A3011 RMK AO2 SLP199 T01280111=
202207190956 METAR KPWT 190956Z AUTO 09004KT 10SM CLR 13/11 A3012 RMK AO2 SLP203 T01280111=
202207190856 METAR KPWT 190856Z AUTO 05008KT 10SM CLR 13/11 A3013 RMK AO2 SLP206 T01330111 53006=
202207190756 METAR KPWT 190756Z AUTO 03010KT 10SM CLR 14/12 A3012 RMK AO2 SLP201 T01390117 402170111=
202207190656 METAR KPWT 190656Z AUTO 03006KT 10SM CLR 14/12 A3011 RMK AO2 SLP201 T01440122=
202207190556 METAR KPWT 190556Z AUTO 06005KT 10SM CLR 15/13 A3011 RMK AO2 SLP199 6//// T01500128 10217 20139 58007=
202207190456 METAR KPWT 190456Z AUTO 00000KT 10SM CLR 16/13 A3012 RMK AO2 SLP203 T01560128=
202207190356 METAR KPWT 190356Z AUTO 03003KT 10SM CLR 17/13 A3013 RMK AO2 SLP205 T01670128=
202207190256 METAR KPWT 190256Z AUTO 02005KT 10SM CLR 19/13 A3013 RMK AO2 SLP207 6//// T01940133=
202207190156 METAR KPWT 190156Z AUTO 04008KT 10SM CLR 21/13 A3014 RMK AO2 SLP210 T02110133=
202207190056 METAR KPWT 190056Z AUTO 36009KT 10SM FEW035 22/13 RMK AO2 SLPNO T02170133 $=
202207182356 METAR KPWT 182356Z AUTO 04007KT 10SM OVC035 20/13 A3018 RMK AO2 SLP223 6//// T02000128 10206 20172 56008=
202207182256 METAR KPWT 182256Z AUTO 07006KT 10SM OVC035 20/13 A3019 RMK AO2 SLP226 T02000128=
202207182156 METAR KPWT 182156Z AUTO 00000KT 10SM OVC039 21/12 A3019 RMK AO2 SLP227 T02060122=
202207182128 SPECI KPWT 182128Z AUTO VRB03KT 10SM BKN030 OVC037 19/12 A3020 RMK AO2=
202207182056 METAR KPWT 182056Z AUTO 00000KT 10SM OVC028 19/12 A3020 RMK AO2 SLP231 6//// T01890122 55000=
202207182023 SPECI KPWT 182023Z AUTO 21004KT 10SM BKN026 19/13 A3020 RMK AO2=
202207181956 METAR KPWT 181956Z AUTO 17004KT 10SM FEW022 19/12 A3020 RMK AO2 SLP229 T01890122=
202207181856 METAR KPWT 181856Z AUTO 27005KT 10SM BKN016 17/12 A3020 RMK AO2 SLP230 T01720122=
202207181756 METAR KPWT 181756Z AUTO 24005KT 10SM OVC012 14/12 A3020 RMK AO2 SLP230 T01440117 10150 20117 51016=
202207181656 METAR KPWT 181656Z AUTO 23007KT 10SM OVC010 14/11 A3019 RMK AO2 SLP226 T01390111=
202207181611 SPECI KPWT 181611Z AUTO 22007KT 190V250 10SM BKN010 OVC015 13/11 A3017 RMK AO2=
202207181556 METAR KPWT 181556Z AUTO 19005KT 10SM BKN008 OVC015 13/11 A3017 RMK AO2 SLP220 T01280111=
202207181456 METAR KPWT 181456Z AUTO 22004KT 10SM OVC006 12/11 A3015 RMK AO2 SLP214 T01170106 53019=
202207181356 METAR KPWT 181356Z AUTO 20004KT 10SM OVC006 12/11 A3013 RMK AO2 SLP206 T01170111=
202207181256 METAR KPWT 181256Z AUTO 00000KT 10SM OVC008 12/11 A3011 RMK AO2 SLP199 T01170106=
202207181156 METAR KPWT 181156Z AUTO 20003KT 10SM OVC008 12/11 A3010 RMK AO2 SLP194 60000 7//// T01170106 10150 20106 53012=
202207181127 SPECI KPWT 181127Z AUTO 20004KT 10SM BKN008 BKN060 12/11 A3009 RMK AO2=
202207181119 SPECI KPWT 181119Z AUTO 20004KT 10SM SCT008 BKN060 11/11 A3008 RMK AO2=
202207181056 METAR KPWT 181056Z AUTO 19004KT 10SM BKN060 12/11 A3008 RMK AO2 SLP188 T01170106=
202207180956 METAR KPWT 180956Z AUTO 00000KT 10SM CLR 12/11 A3007 RMK AO2 SLP185 T01170111=
202207180856 METAR KPWT 180856Z AUTO 00000KT 10SM FEW031 12/12 A3006 RMK AO2 RAB18E51 SLP183 P0000 60000 T01220117 53006=
202207180756 METAR KPWT 180756Z AUTO 00000KT 10SM SCT110 12/11 A3005 RMK AO2 SLP178 T01170106 401940106=
202207180656 METAR KPWT 180656Z AUTO 13003KT 10SM CLR 13/12 A3005 RMK AO2 RAE13 SLP177 P0000 T01280117=
202207180556 METAR KPWT 180556Z AUTO 08003KT 10SM -RA SCT035 SCT044 15/12 A3004 RMK AO2 RAB52 SLP177 P0000 60000 T01500117 10183 20150 52002=
202207180456 METAR KPWT 180456Z AUTO 06003KT 10SM FEW036 15/12 A3005 RMK AO2 SLP178 T01500117=
202207180356 METAR KPWT 180356Z AUTO 05004KT 10SM BKN039 16/11 A3003 RMK AO2 SLP173 T01610111=
202207180256 METAR KPWT 180256Z AUTO 00000KT 10SM FEW043 18/11 A3004 RMK AO2 SLP175 T01780106 56006=
202207180156 METAR KPWT 180156Z AUTO 35004KT 10SM FEW032 18/11 A3004 RMK AO2 SLP176 T01830111=
202207180056 METAR KPWT 180056Z AUTO VRB04KT 10SM SCT043 18/11 A3004 RMK AO2 SLP177 T01830106=
202207172356 METAR KPWT 172356Z AUTO 00000KT 10SM BKN034 18/11 A3005 RMK AO2 SLP181 6//// T01780106 10194 20156 56009=
202207172256 METAR KPWT 172256Z AUTO 05005KT 10SM SCT034 SCT045 BKN065 18/11 A3006 RMK AO2 SLP184 T01830106=
202207172156 METAR KPWT 172156Z AUTO 00000KT 10SM BKN032 BKN075 19/11 A3007 RMK AO2 SLP186 T01890111=
202207172056 METAR KPWT 172056Z AUTO VRB03KT 10SM OVC044 17/11 A3008 RMK AO2 SLP189 60000 T01670106 58003=
202207171956 METAR KPWT 171956Z AUTO 00000KT 10SM OVC036 16/11 A3009 RMK AO2 RAB13E24 SLP192 P0000 T01610106=
202207171856 METAR KPWT 171856Z AUTO 25003KT 10SM SCT028 BKN037 OVC045 16/11 A3009 RMK AO2 SLP192 T01610106=
202207171834 SPECI KPWT 171834Z AUTO 28003KT 10SM BKN028 OVC045 16/11 A3009 RMK AO2=
202207171756 METAR KPWT 171756Z AUTO 00000KT 10SM OVC040 16/11 A3008 RMK AO2 SLP189 T01610106 10167 20122 53001=
202207171741 SPECI KPWT 171741Z AUTO 00000KT 10SM SCT025 OVC040 16/09 A3008 RMK AO2=
202207171713 SPECI KPWT 171713Z AUTO 18004KT 10SM BKN025 BKN030 OVC044 16/11 A3008 RMK AO2=
202207171656 METAR KPWT 171656Z AUTO VRB03KT 10SM SCT025 BKN030 OVC070 17/11 A3008 RMK AO2 SLP188 T01670106=
202207171556 METAR KPWT 171556Z AUTO 19003KT 9SM FEW019 BKN065 15/11 A3007 RMK AO2 SLP187 T01500106=
202207171456 METAR KPWT 171456Z AUTO 00000KT 10SM SCT065 14/11 A3008 RMK AO2 SLP188 T01390111 51002=
202207171356 METAR KPWT 171356Z AUTO 00000KT 10SM SCT038 13/11 A3007 RMK AO2 SLP187 T01330106=
202207171256 METAR KPWT 171256Z AUTO 00000KT 5SM BR FEW041 BKN060 13/11 A3007 RMK AO2 SLP187 T01280111=
202207171156 METAR KPWT 171156Z AUTO 00000KT 10SM BKN035 13/11 A3007 RMK AO2 RAE33 SLP185 P0000 60000 7//// T01280106 10150 20128 50000=
202207171056 METAR KPWT 171056Z AUTO 05004KT 10SM -RA OVC033 13/11 A3007 RMK AO2 RAB29 SLP185 P0000 T01330106=
202207170956 METAR KPWT 170956Z AUTO 05005KT 10SM OVC035 13/10 A3007 RMK AO2 SLP185 T01330100=
202207170856 METAR KPWT 170856Z AUTO 05003KT 10SM OVC031 13/10 A3007 RMK AO2 SLP185 T01330100 58005=
202207170816 SPECI KPWT 170816Z AUTO 00000KT 10SM BKN031 13/11 A3008 RMK AO2=
202207170756 METAR KPWT 170756Z AUTO 00000KT 10SM BKN029 13/10 A3007 RMK AO2 SLP187 T01280100 402220128=
202207170725 SPECI KPWT 170725Z AUTO 00000KT 10SM SCT029 13/11 A3008 RMK AO2=
202207170656 METAR KPWT 170656Z AUTO 10003KT 10SM OVC029 14/11 A3008 RMK AO2 SLP188 T01390111=
202207170556 METAR KPWT 170556Z AUTO 10003KT 10SM OVC029 15/12 A3008 RMK AO2 SLP190 6//// T01500117 10200 20150 51004=
202207170516 SPECI KPWT 170516Z AUTO 05005KT 10SM BKN029 BKN060 15/11 A3008 RMK AO2=
202207170456 METAR KPWT 170456Z AUTO 06006KT 10SM SCT029 BKN060 15/11 A3008 RMK AO2 SLP190 T01500111=
202207170453 SPECI KPWT 170453Z AUTO 07004KT 10SM BKN029 BKN060 15/11 A3008 RMK AO2=
202207170356 METAR KPWT 170356Z AUTO 05007KT 10SM OVC055 16/12 A3007 RMK AO2 SLP186 T01610117=
202207170256 METAR KPWT 170256Z AUTO 06008KT 10SM BKN035 OVC050 17/12 A3007 RMK AO2 SLP184 6//// T01720122=
202207170156 METAR KPWT 170156Z AUTO 06008KT 10SM OVC049 18/12 A3006 RMK AO2 SLP183 T01830122=
202207170056 METAR KPWT 170056Z AUTO 10SM OVC040 18/13 RMK AO2 SLPNO T01830133 $=
202207162356 METAR KPWT 162356Z AUTO 05006KT 10SM OVC040 20/13 A3008 RMK AO2 SLP189 T02000133 10222 20183 56006=
202207162256 METAR KPWT 162256Z AUTO 15007KT 120V190 10SM FEW042 BKN050 21/12 A3009 RMK AO2 SLP189 T02110117=
202207162156 METAR KPWT 162156Z AUTO 18007KT 10SM OVC043 21/12 A3010 RMK AO2 SLP193 T02060117=
202207162056 METAR KPWT 162056Z AUTO 22005KT 10SM OVC039 21/12 A3010 RMK AO2 SLP194 T02060117 58002=
202207161956 METAR KPWT 161956Z AUTO 24008KT 10SM BKN035 21/13 A3010 RMK AO2 SLP195 T02060128=
202207161922 SPECI KPWT 161922Z AUTO VRB06KT 10SM OVC031 19/12 A3010 RMK AO2=
202207161856 METAR KPWT 161856Z AUTO 23007KT 10SM OVC027 19/13 A3011 RMK AO2 SLP197 T01940128=
202207161845 SPECI KPWT 161845Z AUTO 25009KT 10SM BKN027 19/13 A3011 RMK AO2=
202207161756 METAR KPWT 161756Z AUTO 23005KT 10SM OVC034 18/13 A3011 RMK AO2 SLP197 T01830128 10183 20139 50001=
202207161740 SPECI KPWT 161740Z AUTO 22006KT 8SM SCT022 BKN034 18/13 A3010 RMK AO2=
202207161656 METAR KPWT 161656Z AUTO 23005KT 10SM BKN020 OVC034 18/13 A3011 RMK AO2 SLP198 T01780128=
202207161556 METAR KPWT 161556Z AUTO 22004KT 10SM FEW016 SCT032 17/13 A3010 RMK AO2 SLP197 T01670128=
202207161537 SPECI KPWT 161537Z AUTO 20004KT 10SM SCT014 16/13 A3010 RMK AO2=
202207161456 METAR KPWT 161456Z AUTO 22004KT 10SM BKN010 16/13 A3010 RMK AO2 SLP196 T01560133 53005=
202207161440 SPECI KPWT 161440Z AUTO 23004KT 10SM BKN010 15/13 A3010 RMK AO2 CIG 008V014=
202207161356 METAR KPWT 161356Z AUTO 21005KT 10SM BKN008 OVC032 14/13 A3010 RMK AO2 CIG 007V011 SLP194 T01440133=
202207161339 SPECI KPWT 161339Z AUTO 24005KT 10SM SCT008 BKN032 14/13 A3009 RMK AO2=
202207161256 METAR KPWT 161256Z AUTO 22005KT 10SM OVC008 14/13 A3009 RMK AO2 SLP191 T01440133=
202207161217 SPECI KPWT 161217Z AUTO 21007KT 10SM OVC008 14/13 A3008 RMK AO2=
202207161156 METAR KPWT 161156Z AUTO 21006KT 10SM OVC010 14/13 A3008 RMK AO2 SLP189 7//// T01440133 10167 20144 51003=
202207161104 SPECI KPWT 161104Z AUTO 22005KT 10SM OVC010 15/14 A3009 RMK AO2=
202207161056 METAR KPWT 161056Z AUTO 22008KT 10SM OVC008 15/14 A3008 RMK AO2 SLP189 T01500139=
202207160956 METAR KPWT 160956Z AUTO VRB05KT 10SM OVC008 16/14 A3008 RMK AO2 SLP188 T01560144=
202207160856 METAR KPWT 160856Z AUTO 20004KT 10SM BKN008 16/14 A3008 RMK AO2 SLP187 T01560144 53001=
202207160841 SPECI KPWT 160841Z AUTO 21005KT 10SM SCT008 BKN055 16/14 A3008 RMK AO2=
202207160756 METAR KPWT 160756Z AUTO 19006KT 10SM FEW041 BKN050 16/14 A3007 RMK AO2 SLP186 T01610144 402500100=
202207160656 METAR KPWT 160656Z AUTO 19009KT 10SM FEW039 OVC050 17/14 A3008 RMK AO2 SLP186 T01670144=
202207160556 METAR KPWT 160556Z AUTO 20008KT 10SM OVC055 17/14 A3008 RMK AO2 SLP186 6//// T01720144 10217 20172 53004=
202207160456 METAR KPWT 160456Z AUTO 20007KT 10SM SCT060 18/14 A3007 RMK AO2 SLP185 T01780144=
202207160356 METAR KPWT 160356Z AUTO 22009KT 10SM FEW055 18/14 A3006 RMK AO2 SLP181 T01830144=
202207160256 METAR KPWT 160256Z AUTO 21011KT 10SM SCT048 19/15 A3006 RMK AO2 SLP183 6//// T01890150 55001=
202207160156 METAR KPWT 160156Z AUTO 22011KT 10SM OVC042 21/15 A3006 RMK AO2 SLP182 T02060150=
202207160056 METAR KPWT 160056Z AUTO 22011G19KT 10SM OVC044 21/14 A3007 RMK AO2 SLP185 T02110144=
202207152356 METAR KPWT 152356Z AUTO 24010KT 10SM OVC046 22/14 A3007 RMK AO2 SLP185 6//// T02170139 10250 20194 53000=
202207152256 METAR KPWT 152256Z AUTO 23014G17KT 10SM CLR 24/14 A3006 RMK AO2 SLP181 T02390139=
202207152156 METAR KPWT 152156Z AUTO 22013G16KT 10SM CLR 23/13 A3006 RMK AO2 SLP183 T02330133=
202207152056 METAR KPWT 152056Z AUTO 19009KT 10SM CLR 23/14 A3007 RMK AO2 SLP183 6//// T02330139 56000=
202207151956 METAR KPWT 151956Z AUTO 22010G16KT 190V250 10SM CLR 22/13 A3007 RMK AO2 SLP184 T02220133=
202207151856 METAR KPWT 151856Z AUTO 21008KT 10SM CLR 21/14 A3006 RMK AO2 SLP182 T02110139=
202207151756 METAR KPWT 151756Z AUTO 20010KT 10SM CLR 20/14 A3007 RMK AO2 SLP184 T02000139 10200 20106 58002=
202207151656 METAR KPWT 151656Z AUTO 19008KT 10SM CLR 18/13 A3007 RMK AO2 SLP185 T01780128=
202207151638 SPECI KPWT 151638Z AUTO 20008KT 10SM SCT015 18/13 A3007 RMK AO2=
202207151556 METAR KPWT 151556Z AUTO 22010KT 10SM BKN015 17/12 A3008 RMK AO2 SLP186 T01670122=
202207151456 METAR KPWT 151456Z AUTO 21010KT 10SM CLR 14/12 A3007 RMK AO2 SLP185 T01440117 51006=
202207151356 METAR KPWT 151356Z AUTO 21007KT 10SM CLR 12/11 A3007 RMK AO2 SLP184 T01220111=
202207151307 SPECI KPWT 151307Z AUTO VRB04KT 10SM SCT010 11/11 A3006 RMK AO2=
202207151256 METAR KPWT 151256Z AUTO 20004KT 10SM BKN010 11/10 A3006 RMK AO2 SLP181 T01060100=
202207151227 SPECI KPWT 151227Z AUTO 21003KT 10SM BKN010 11/10 A3006 RMK AO2=
202207151156 METAR KPWT 151156Z AUTO 22004KT 10SM CLR 10/09 A3005 RMK AO2 SLP178 7//// T01000094 10156 20100 51007=
202207151056 METAR KPWT 151056Z AUTO 21005KT 10SM CLR 11/10 A3004 RMK AO2 SLP175 T01060100=
202207150956 METAR KPWT 150956Z AUTO 19004KT 10SM CLR 11/10 A3004 RMK AO2 SLP176 T01060100=
202207150856 METAR KPWT 150856Z AUTO 19003KT 10SM CLR 10/09 A3003 RMK AO2 SLP173 T01000094 51007=
202207150756 METAR KPWT 150756Z AUTO 21003KT 10SM CLR 11/10 A3003 RMK AO2 SLP170 T01110100 402780078=
202207150656 METAR KPWT 150656Z AUTO 14004KT 10SM CLR 14/11 A3002 RMK AO2 SLP167 T01390111=
202207150556 METAR KPWT 150556Z AUTO 18004KT 10SM CLR 16/11 A3001 RMK AO2 SLP165 6//// T01560111 10278 20150 51012=
202207150456 METAR KPWT 150456Z AUTO 15003KT 10SM CLR 17/12 A3000 RMK AO2 SLP162 T01670122=
202207150356 METAR KPWT 150356Z AUTO 00000KT 10SM CLR 20/12 A2999 RMK AO2 SLP157 T02000117=
202207150256 METAR KPWT 150256Z AUTO 07003KT 10SM CLR 22/14 A2998 RMK AO2 SLP152 T02220139 55002=
202207150156 METAR KPWT 150156Z AUTO 05007KT 10SM CLR 24/14 A2997 RMK AO2 SLP149 T02390139=
202207150056 METAR KPWT 150056Z AUTO VRB03KT 10SM CLR 27/11 A2997 RMK AO2 SLP151 T02670106=
202207142356 METAR KPWT 142356Z AUTO 28006KT 10SM CLR 27/11 A2998 RMK AO2 SLP155 T02720111 10272 20189 56016=
202207142256 METAR KPWT 142256Z AUTO 27006KT 10SM CLR 26/11 A3000 RMK AO2 SLP160 T02610111=
202207142156 METAR KPWT 142156Z AUTO 23006KT 10SM CLR 25/13 A3001 RMK AO2 SLP166 T02500128=
202207142056 METAR KPWT 142056Z AUTO VRB05KT 10SM CLR 23/14 A3003 RMK AO2 SLP172 T02280139 58016=
202207141956 METAR KPWT 141956Z AUTO 24007KT 10SM CLR 22/14 A3005 RMK AO2 SLP180 T02170139=
202207141856 METAR KPWT 141856Z AUTO VRB03KT 10SM CLR 19/13 A3007 RMK AO2 SLP185 T01940133=
202207141756 METAR KPWT 141756Z AUTO 22004KT 10SM CLR 19/13 A3008 RMK AO2 SLP189 6//// T01890128 10189 20078 58004=
202207141656 METAR KPWT 141656Z AUTO 00000KT 10SM CLR 17/12 A3009 RMK AO2 SLP192 T01720122=
202207141628 SPECI KPWT 141628Z AUTO VRB03KT 10SM SCT017 17/12 A3009 RMK AO2=
202207141620 SPECI KPWT 141620Z AUTO VRB04KT 10SM BKN017 17/12 A3009 RMK AO2=
202207141556 METAR KPWT 141556Z AUTO 00000KT 10SM CLR 16/12 A3009 RMK AO2 SLP194 T01560117=
202207141456 METAR KPWT 141456Z AUTO 00000KT 10SM CLR 14/11 A3009 RMK AO2 SLP193 T01440111 51002=
202207141356 METAR KPWT 141356Z AUTO 00000KT 10SM CLR 12/11 A3009 RMK AO2 SLP193 T01170106=
202207141256 METAR KPWT 141256Z AUTO 00000KT 10SM CLR 08/08 A3009 RMK AO2 SLP193 T00830078=
202207141156 METAR KPWT 141156Z AUTO 00000KT 10SM CLR 09/09 A3009 RMK AO2 SLP191 7//// T00890089 10156 20083 51001=
202207141154 SPECI KPWT 141154Z AUTO 00000KT 9SM CLR 09/08 A3009 RMK AO2=
202207141145 SPECI KPWT 141145Z AUTO 00000KT 2 1/2SM BR CLR 08/08 A3009 RMK AO2=
202207141111 SPECI KPWT 141111Z AUTO 00000KT 10SM CLR 09/08 A3008 RMK AO2=
202207141056 METAR KPWT 141056Z AUTO 00000KT 2 1/2SM BR CLR 09/08 A3009 RMK AO2 VIS 3/4V5 SLP190 T00890083=
202207140956 METAR KPWT 140956Z AUTO 00000KT 10SM CLR 10/09 A3008 RMK AO2 SLP190 T01000094=
202207140856 METAR KPWT 140856Z AUTO 00000KT 10SM CLR 11/10 A3008 RMK AO2 SLP189 T01110100 51005=
202207140756 METAR KPWT 140756Z AUTO 10003KT 10SM CLR 12/10 A3008 RMK AO2 SLP188 T01220100 402610083=
202207140656 METAR KPWT 140656Z AUTO 00000KT 10SM CLR 13/10 A3007 RMK AO2 SLP186 T01330100=
202207140556 METAR KPWT 140556Z AUTO 06004KT 10SM CLR 15/10 A3007 RMK AO2 SLP184 6//// T01500100 10244 20150 51011=
202207140456 METAR KPWT 140456Z AUTO 05006KT 10SM CLR 17/09 A3006 RMK AO2 SLP183 T01670094=
202207140356 METAR KPWT 140356Z AUTO 05006KT 10SM CLR 18/10 A3004 RMK AO2 SLP176 T01830100=
202207140256 METAR KPWT 140256Z AUTO 05007KT 10SM CLR 21/12 A3003 RMK AO2 SLP173 6//// T02110117 55003=
202207140156 METAR KPWT 140156Z AUTO 06007KT 10SM CLR 23/13 A3003 RMK AO2 SLP171 T02330133=
202207140056 METAR KPWT 140056Z AUTO VRB05KT 10SM CLR 24/13 A3003 RMK AO2 SLP172 T02390133=
202207132356 METAR KPWT 132356Z AUTO 05007KT 10SM SCT049 24/13 A3004 RMK AO2 SLP176 T02390128 10261 20178 56008=
202207132256 METAR KPWT 132256Z AUTO 23006KT 10SM SCT047 24/13 A3005 RMK AO2 SLP178 T02390128=
202207132156 METAR KPWT 132156Z AUTO 00000KT 10SM CLR 23/13 A3006 RMK AO2 SLP180 T02330128=
202207132056 METAR KPWT 132056Z AUTO 00000KT 10SM CLR 23/13 A3007 RMK AO2 SLP184 T02280128 58006=
202207131956 METAR KPWT 131956Z AUTO VRB04KT 10SM FEW033 21/12 A3008 RMK AO2 SLP187 T02110117=
202207131856 METAR KPWT 131856Z AUTO 27005KT 10SM CLR 20/12 A3009 RMK AO2 SLP190 T02000122=
202207131756 METAR KPWT 131756Z AUTO 00000KT 10SM SCT019 18/12 A3008 RMK AO2 SLP190 T01780117 10178 20083 53005=
202207131656 METAR KPWT 131656Z AUTO VRB03KT 10SM OVC017 16/11 A3008 RMK AO2 SLP189 T01560111=
202207131556 METAR KPWT 131556Z AUTO 00000KT 10SM BKN017 15/11 A3007 RMK AO2 SLP186 T01500111=
202207131456 METAR KPWT 131456Z AUTO 03004KT 10SM OVC019 14/11 A3007 RMK AO2 SLP183 T01390111 51011=
202207131413 SPECI KPWT 131413Z AUTO 00000KT 10SM BKN019 12/11 A3006 RMK AO2=
202207131356 METAR KPWT 131356Z AUTO 00000KT 10SM CLR 11/10 A3006 RMK AO2 SLP180 T01060100=
202207131256 METAR KPWT 131256Z AUTO 00000KT 10SM CLR 09/09 A3005 RMK AO2 SLP179 T00940089=
202207131156 METAR KPWT 131156Z AUTO 00000KT 10SM CLR 10/09 A3004 RMK AO2 SLP172 7//// T01000089 10150 20089 53010=
202207131056 METAR KPWT 131056Z AUTO 00000KT 10SM FEW018 09/09 A3003 RMK AO2 SLP169 T00940089=
202207130956 METAR KPWT 130956Z AUTO 00000KT 10SM CLR 11/09 A3001 RMK AO2 SLP163 T01060094=
202207130856 METAR KPWT 130856Z AUTO 00000KT 10SM CLR 12/10 A3001 RMK AO2 SLP162 T01170100 51015=
202207130756 METAR KPWT 130756Z AUTO 00000KT 10SM CLR 12/11 A3000 RMK AO2 SLP159 T01220106 402940100=
202207130656 METAR KPWT 130656Z AUTO 06005KT 10SM CLR 13/11 A2998 RMK AO2 SLP154 T01330111=
202207130556 METAR KPWT 130556Z AUTO 08004KT 10SM CLR 15/12 A2996 RMK AO2 SLP146 6//// T01500122 10289 20150 51023=
202207130456 METAR KPWT 130456Z AUTO 08003KT 10SM CLR 17/13 A2995 RMK AO2 SLP142 T01670133=
202207130356 METAR KPWT 130356Z AUTO 00000KT 10SM 21/12 A2991 RMK AO2 SLP130 T02060117=
202207130328 SPECI KPWT 130328Z AUTO 08003KT 10SM FEW001 22/14 A2990 RMK AO2=
202207130256 METAR KPWT 130256Z AUTO 07004KT 10SM CLR 22/14 A2989 RMK AO2 SLP123 T02220144 53005=
202207130156 METAR KPWT 130156Z AUTO 07006KT 10SM CLR 24/15 A2988 RMK AO2 SLP119 T02390150=
202207130056 METAR KPWT 130056Z AUTO 05009KT 10SM CLR 26/16 A2988 RMK AO2 SLP118 T02610161=
202207122356 METAR KPWT 122356Z AUTO 27007KT 10SM CLR 29/17 A2988 RMK AO2 SLP118 T02890167 10294 20244 57012=
202207122256 METAR KPWT 122256Z AUTO VRB05KT 10SM CLR 29/17 A2989 RMK AO2 SLP122 T02890167=
202207122156 METAR KPWT 122156Z AUTO 22007KT 10SM CLR 27/17 A2990 RMK AO2 SLP126 T02720167=
202207122056 METAR KPWT 122056Z AUTO VRB06KT 10SM CLR 27/16 A2992 RMK AO2 SLP131 T02720156 58009=
202207121956 METAR KPWT 121956Z AUTO 19005KT 10SM CLR 26/14 A2993 RMK AO2 SLP135 T02610144=
202207121856 METAR KPWT 121856Z AUTO 21007KT 10SM CLR 25/14 A2994 RMK AO2 SLP140 T02500144=
202207121756 METAR KPWT 121756Z AUTO VRB03KT 8SM CLR 24/15 A2994 RMK AO2 SLP141 T02440150 10244 20100 58010=
202207121656 METAR KPWT 121656Z AUTO VRB03KT 10SM CLR 22/14 A2996 RMK AO2 SLP145 T02170139=
202207121556 METAR KPWT 121556Z AUTO 00000KT 10SM CLR 21/14 A2997 RMK AO2 SLP149 T02060139=
202207121456 METAR KPWT 121456Z AUTO 00000KT 10SM CLR 18/13 A2997 RMK AO2 SLP150 T01830128 50002=
202207121356 METAR KPWT 121356Z AUTO 04004KT 10SM CLR 16/13 A2997 RMK AO2 SLP150 T01610128=
202207121256 METAR KPWT 121256Z AUTO 00000KT 10SM CLR 11/10 A2997 RMK AO2 SLP149 T01110100=
202207121156 METAR KPWT 121156Z AUTO 00000KT 10SM CLR 11/11 A2996 RMK AO2 SLP147 6//// 7//// T01110106 10183 20111 58002=
202207121056 METAR KPWT 121056Z AUTO 00000KT 10SM CLR 12/11 A2997 RMK AO2 SLP149 T01170106=
202207120956 METAR KPWT 120956Z AUTO 00000KT 10SM CLR 13/11 A2997 RMK AO2 SLP151 T01330111=
202207120856 METAR KPWT 120856Z AUTO 00000KT 10SM CLR 16/12 A2997 RMK AO2 SLP151 6//// T01560122 56009=
202207120756 METAR KPWT 120756Z AUTO 06003KT 10SM CLR 16/12 A2998 RMK AO2 SLP152 T01610117 403060139=
202207120656 METAR KPWT 120656Z AUTO 00000KT 10SM CLR 16/12 A2999 RMK AO2 SLP154 T01560117=
202207120556 METAR KPWT 120556Z AUTO 00000KT 10SM CLR 17/12 A3000 RMK AO2 SLP159 6//// T01720122 10300 20172 58000=
202207120522 SPECI KPWT 120522Z AUTO 09004KT 10SM FEW001 18/13 A3000 RMK AO2=
202207120456 METAR KPWT 120456Z AUTO 00000KT 10SM CLR 18/13 A3000 RMK AO2 SLP161 T01780128=
202207120356 METAR KPWT 120356Z AUTO 05003KT 10SM CLR 23/13 A3000 RMK AO2 SLP160 T02280128=
202207120256 METAR KPWT 120256Z AUTO 07006KT 10SM CLR 26/12 A3000 RMK AO2 SLP161 T02610117 56011=
202207120156 METAR KPWT 120156Z AUTO 05006KT 10SM CLR 28/13 A3001 RMK AO2 SLP163 T02830133=
202207120056 METAR KPWT 120056Z AUTO 07008KT 10SM CLR 29/14 A3002 RMK AO2 SLP167 T02940139=
202207112356 METAR KPWT 112356Z AUTO 05006KT 10SM CLR 30/14 A3003 RMK AO2 SLP171 6//// T03000139 10306 20233 56027=
202207112256 METAR KPWT 112256Z AUTO 05006KT 10SM CLR 29/13 A3006 RMK AO2 SLP180 T02940133=
202207112156 METAR KPWT 112156Z AUTO 05008KT 10SM CLR 28/13 A3008 RMK AO2 SLP189 T02830133=
202207112056 METAR KPWT 112056Z AUTO 06006G14KT 10SM CLR 27/13 A3011 RMK AO2 SLP199 6//// T02720133 58024=
202207111956 METAR KPWT 111956Z AUTO 04008KT 10SM CLR 27/13 A3014 RMK AO2 SLP207 T02670133=
202207111856 METAR KPWT 111856Z AUTO 06008KT 10SM CLR 25/13 A3017 RMK AO2 SLP215 T02500133=
202207111756 METAR KPWT 111756Z AUTO 05008G15KT 10SM CLR 23/13 A3019 RMK AO2 SLP222 6//// T02330128 10233 20139 58017=
202207111656 METAR KPWT 111656Z AUTO 05009G15KT 10SM CLR 21/13 A3021 RMK AO2 SLP231 T02110133=
202207111556 METAR KPWT 111556Z AUTO 05008KT 10SM CLR 19/14 A3022 RMK AO2 SLP236 T01890139=
202207111456 METAR KPWT 111456Z AUTO 06007KT 10SM CLR 17/14 A3024 RMK AO2 SLP241 T01720139 58009=
202207111356 METAR KPWT 111356Z AUTO 06005KT 10SM CLR 15/13 A3025 RMK AO2 SLP246 T01500133=
202207111256 METAR KPWT 111256Z AUTO 06007KT 10SM CLR 14/13 A3026 RMK AO2 SLP249 T01390128=
202207111156 METAR KPWT 111156Z AUTO 05008KT 10SM CLR 14/13 A3026 RMK AO2 SLP250 7//// T01390128 10172 20139 58011=
202207111056 METAR KPWT 111056Z AUTO 07005KT 10SM CLR 14/13 A3028 RMK AO2 SLP256 T01440128=
202207110956 METAR KPWT 110956Z AUTO 05006KT 10SM CLR 15/13 A3029 RMK AO2 SLP257 T01500133=
202207110856 METAR KPWT 110856Z AUTO 05006KT 10SM CLR 15/13 A3030 RMK AO2 SLP261 T01500133 58008=
202207110756 METAR KPWT 110756Z AUTO 00000KT 10SM CLR 16/13 A3031 RMK AO2 SLP265 T01560128 402330128=
202207110656 METAR KPWT 110656Z AUTO 06006KT 10SM CLR 16/12 A3032 RMK AO2 SLP268 T01610122=
202207110556 METAR KPWT 110556Z AUTO 05005KT 10SM CLR 17/13 A3032 RMK AO2 SLP270 6//// T01720128 10233 20150=
202207110456 METAR KPWT 110456Z AUTO 00000KT 10SM CLR 16/13 A3032 RMK AO2 SLP272 T01560128=
202207110444 SPECI KPWT 110444Z AUTO 00000KT 10SM FEW001 17/13 A3032 RMK AO2=
202207110356 METAR KPWT 110356Z AUTO 00000KT 10SM CLR 19/13 RMK AO2 SLPNO T01890128 $=
202207110256 METAR KPWT 110256Z AUTO 03006KT 10SM CLR 22/13 A3032 RMK AO2 SLP270 6//// T02170133 57005=
202207110156 METAR KPWT 110156Z AUTO 02005KT 10SM CLR 23/13 A3033 RMK AO2 SLP271 T02280133=
202207110056 METAR KPWT 110056Z AUTO 04006KT 10SM SCT043 23/14 A3034 RMK AO2 SLP274 T02280139=
202207102356 METAR KPWT 102356Z AUTO 04005KT 10SM OVC046 22/13 A3034 RMK AO2 SLP276 6//// T02220133 10233 20172 58006=
202207102256 METAR KPWT 102256Z AUTO 35003KT 10SM FEW046 22/13 A3035 RMK AO2 SLP278 T02220133=
202207102156 METAR KPWT 102156Z AUTO 05003KT 10SM BKN048 22/14 A3036 RMK AO2 SLP282 T02220139=
202207102056 METAR KPWT 102056Z AUTO VRB03KT 10SM BKN038 OVC046 21/13 A3036 RMK AO2 SLP283 6//// T02110128 53001=
202207101956 METAR KPWT 101956Z AUTO 21005KT 10SM BKN033 OVC040 21/13 A3035 RMK AO2 SLP281 T02110133=
202207101918 SPECI KPWT 101918Z AUTO VRB04KT 10SM SCT025 OVC038 19/13 A3035 RMK AO2=
202207101904 SPECI KPWT 101904Z AUTO 22003KT 10SM BKN025 BKN042 19/13 A3036 RMK AO2=
202207101856 METAR KPWT 101856Z AUTO VRB04KT 10SM SCT023 BKN042 20/14 A3035 RMK AO2 SLP282 T02000139=
202207101824 SPECI KPWT 101824Z AUTO 25003KT 10SM SCT019 18/13 A3035 RMK AO2=
202207101756 METAR KPWT 101756Z AUTO 00000KT 10SM OVC019 17/13 A3035 RMK AO2 SLP282 T01720133 10172 20139 51006=
202207101711 SPECI KPWT 101711Z AUTO 25004KT 10SM OVC015 17/13 A3035 RMK AO2=
202207101656 METAR KPWT 101656Z AUTO VRB03KT 10SM OVC012 16/14 A3035 RMK AO2 SLP281 T01610139=
202207101556 METAR KPWT 101556Z AUTO 21003KT 10SM OVC010 15/13 A3035 RMK AO2 SLP280 T01500133=
202207101538 SPECI KPWT 101538Z AUTO 21003KT 10SM OVC010 15/13 A3034 RMK AO2=
202207101456 METAR KPWT 101456Z AUTO 23004KT 10SM OVC008 14/13 A3034 RMK AO2 CIG 006V011 SLP276 T01440133 53012=
202207101439 SPECI KPWT 101439Z AUTO 22003KT 10SM BKN006 OVC015 14/13 A3033 RMK AO2=
202207101405 SPECI KPWT 101405Z AUTO 18004KT 10SM FEW006 OVC015 14/13 A3032 RMK AO2=
202207101356 METAR KPWT 101356Z AUTO 19003KT 10SM FEW006 OVC013 14/13 A3032 RMK AO2 SLP270 T01440133=
202207101331 SPECI KPWT 101331Z AUTO 00000KT 10SM SCT008 OVC013 14/13 A3032 RMK AO2=
202207101256 METAR KPWT 101256Z AUTO 00000KT 10SM BKN008 OVC013 14/13 A3030 RMK AO2 CIG 006V011 SLP264 T01390128=
202207101156 METAR KPWT 101156Z AUTO 00000KT 10SM OVC008 14/13 A3030 RMK AO2 SLP263 7//// T01390128 10156 20128 51009=
202207101130 SPECI KPWT 101130Z AUTO 00000KT 10SM OVC008 14/13 A3029 RMK AO2=
202207101056 METAR KPWT 101056Z AUTO 00000KT 10SM OVC012 14/13 A3030 RMK AO2 SLP261 T01390128=
202207101006 SPECI KPWT 101006Z AUTO 00000KT 10SM BKN014 13/12 A3029 RMK AO2=
202207100956 METAR KPWT 100956Z AUTO 00000KT 10SM SCT014 13/12 A3028 RMK AO2 SLP257 T01330122=
202207100856 METAR KPWT 100856Z AUTO 00000KT 10SM OVC043 14/12 A3027 RMK AO2 SLP253 T01440122 51009=
202207100756 METAR KPWT 100756Z AUTO 00000KT 10SM FEW045 14/12 A3027 RMK AO2 SLP252 T01390117 402500089=
202207100656 METAR KPWT 100656Z AUTO 12003KT 10SM CLR 14/12 A3027 RMK AO2 SLP252 T01440122=
202207100556 METAR KPWT 100556Z AUTO 12003KT 10SM CLR 16/12 A3025 RMK AO2 SLP246 T01560122 10244 20150 51014=
202207100456 METAR KPWT 100456Z AUTO 00000KT 10SM CLR 17/13 A3024 RMK AO2 SLP241 T01670128=
202207100356 METAR KPWT 100356Z AUTO 00000KT 10SM CLR 18/13 A3022 RMK AO2 SLP236 T01830128=
202207100256 METAR KPWT 100256Z AUTO 20007KT 10SM CLR 20/13 A3021 RMK AO2 SLP230 T02000128 53008=
202207100156 METAR KPWT 100156Z AUTO 22008KT 10SM CLR 22/13 A3020 RMK AO2 SLP227 T02220133=
202207100056 METAR KPWT 100056Z AUTO 22012KT 10SM BKN050 23/13 A3018 RMK AO2 SLP225 T02280128=
202207092356 METAR KPWT 092356Z AUTO 22009KT 10SM CLR 23/12 A3018 RMK AO2 SLP224 6//// T02280122 10250 20189 53002=
202207092256 METAR KPWT 092256Z AUTO 00000KT 10SM SCT047 23/13 A3018 RMK AO2 SLP223 T02280133=
202207092156 METAR KPWT 092156Z AUTO 23009KT 10SM BKN043 23/13 A3018 RMK AO2 SLP222 T02280133=
202207092056 METAR KPWT 092056Z AUTO VRB05KT 10SM FEW044 23/13 A3018 RMK AO2 SLP221 T02280128=
202207091956 METAR KPWT 091956Z AUTO 17005KT 10SM BKN036 22/13 A3018 RMK AO2 SLP222 T02170133=
202207091856 METAR KPWT 091856Z AUTO 24004KT 10SM FEW030 21/13 RMK AO2 SLPNO T02060133 $=
202207091836 SPECI KPWT 091836Z AUTO 24006KT 10SM SCT027 SCT049 20/13 A3019 RMK AO2=
202207091824 SPECI KPWT 091824Z AUTO 25007KT 200V300 10SM BKN027 BKN033 20/14 A3019 RMK AO2=
202207091756 METAR KPWT 091756Z AUTO 00000KT 10SM FEW023 19/13 A3019 RMK AO2 SLP225 T01940133 10200 20089 50003=
202207091656 METAR KPWT 091656Z AUTO VRB04KT 10SM FEW021 SCT046 18/13 A3019 RMK AO2 SLP225 T01830133=
202207091556 METAR KPWT 091556Z AUTO 28003KT 10SM FEW047 18/13 A3018 RMK AO2 SLP222 T01780133=
202207091456 METAR KPWT 091456Z AUTO 00000KT 10SM SCT047 17/13 A3018 RMK AO2 SLP220 T01670128 53010=
202207091356 METAR KPWT 091356Z AUTO 00000KT 10SM CLR 14/12 A3016 RMK AO2 SLP215 T01440122=
202207091256 METAR KPWT 091256Z AUTO 00000KT 10SM CLR 09/09 A3016 RMK AO2 SLP216 T00940089=
202207091156 METAR KPWT 091156Z AUTO 00000KT 10SM FEW047 10/10 A3015 RMK AO2 SLP211 7//// T01000100 10156 20100 51001=
202207091056 METAR KPWT 091056Z AUTO 00000KT 10SM FEW050 11/11 A3014 RMK AO2 SLP210 T01110106=
202207090956 METAR KPWT 090956Z AUTO 00000KT 10SM SCT050 12/11 A3015 RMK AO2 SLP211 T01170106=
202207090856 METAR KPWT 090856Z AUTO 00000KT 10SM FEW049 13/12 A3014 RMK AO2 SLP209 T01330117 58001=
202207090756 METAR KPWT 090756Z AUTO 00000KT 10SM FEW047 12/11 A3015 RMK AO2 SLP211 T01220106 402390122=
202207090656 METAR KPWT 090656Z AUTO 07005KT 10SM CLR 15/12 A3015 RMK AO2 SLP211 T01500122=
202207090556 METAR KPWT 090556Z AUTO 07004KT 10SM CLR 16/13 A3014 RMK AO2 SLP210 6//// T01560128 10233 20156 52008=
202207090456 METAR KPWT 090456Z AUTO 05007KT 10SM CLR 17/13 A3014 RMK AO2 SLP208 T01720128=
202207090356 METAR KPWT 090356Z AUTO 06005KT 10SM CLR 19/14 A3013 RMK AO2 SLP204 T01890139=
202207090256 METAR KPWT 090256Z AUTO 05005KT 10SM CLR 20/14 A3012 RMK AO2 SLP202 6//// T02000144 53000=
202207090156 METAR KPWT 090156Z AUTO 04006KT 10SM FEW038 BKN055 BKN065 23/15 A3011 RMK AO2 SLP199 T02280150=
202207090056 METAR KPWT 090056Z AUTO 10003KT 10SM BKN050 22/14 A3011 RMK AO2 SLP198 T02170144=
202207082356 METAR KPWT 082356Z AUTO 16003KT 10SM BKN060 23/12 A3012 RMK AO2 SLP201 6//// T02280117 10239 20183 58002=
202207082256 METAR KPWT 082256Z AUTO 21008KT 10SM CLR 23/13 A3013 RMK AO2 SLP203 T02330128=
202207082156 METAR KPWT 082156Z AUTO 22008KT 10SM FEW048 SCT065 23/14 A3013 RMK AO2 SLP204 T02330139=
202207082056 METAR KPWT 082056Z AUTO 00000KT 10SM FEW046 23/13 A3012 RMK AO2 SLP202 6//// T02280133 55004=
202207081956 METAR KPWT 081956Z AUTO 26006KT 10SM BKN039 OVC055 21/13 A3012 RMK AO2 SLP203 T02110128=
202207081856 METAR KPWT 081856Z AUTO 22003KT 10SM FEW025 SCT046 20/14 A3013 RMK AO2 SLP206 T02000139=
202207081828 SPECI KPWT 081828Z AUTO 00000KT 10SM SCT018 OVC048 20/14 A3013 RMK AO2=
202207081804 SPECI KPWT 081804Z AUTO 21003KT 10SM BKN016 OVC046 18/15 A3013 RMK AO2=
202207081756 METAR KPWT 081756Z AUTO 26004KT 10SM BKN014 OVC046 18/15 A3014 RMK AO2 SLP209 60000 T01830150 10183 20144 50004=
202207081730 SPECI KPWT 081730Z AUTO 00000KT 10SM SCT011 BKN044 18/14 A3014 RMK AO2=
202207081656 METAR KPWT 081656Z AUTO 00000KT 10SM OVC011 17/14 A3014 RMK AO2 SLP208 T01670144=
202207081556 METAR KPWT 081556Z AUTO 00000KT 10SM OVC007 16/14 A3013 RMK AO2 SLP206 T01610144=
202207081456 METAR KPWT 081456Z AUTO 00000KT 10SM BKN009 15/14 A3012 RMK AO2 SLP203 60000 T01500139 51005=
202207081417 SPECI KPWT 081417Z AUTO 00000KT 10SM OVC007 14/14 A3012 RMK AO2 CIG 005V009=
202207081356 METAR KPWT 081356Z AUTO 00000KT 10SM BKN005 14/14 A3012 RMK AO2 RAE44 SLP201 P0000 T01440139=
202207081307 SPECI KPWT 081307Z AUTO 00000KT 10SM -RA OVC009 14/14 A3012 RMK AO2 P0000=
202207081256 METAR KPWT 081256Z AUTO 00000KT 10SM -RA OVC011 14/13 A3012 RMK AO2 RAB46 SLP200 P0000 T01440133=
202207081156 METAR KPWT 081156Z AUTO 00000KT 10SM BKN011 BKN060 14/13 A3011 RMK AO2 SLP197 7//// T01440133 10156 20133 53006=
202207081056 METAR KPWT 081056Z AUTO 00000KT 10SM OVC011 15/13 A3010 RMK AO2 SLP193 T01500133=
202207080956 METAR KPWT 080956Z AUTO 00000KT 10SM BKN013 14/13 A3010 RMK AO2 SLP193 T01440133=
202207080951 SPECI KPWT 080951Z AUTO 00000KT 10SM BKN013 14/13 A3009 RMK AO2=
202207080856 METAR KPWT 080856Z AUTO 00000KT 10SM CLR 13/13 A3009 RMK AO2 SLP192 T01330128 56000=
202207080756 METAR KPWT 080756Z AUTO 00000KT 10SM CLR 14/13 A3009 RMK AO2 SLP191 T01440133 402330139=
202207080656 METAR KPWT 080656Z AUTO 06003KT 10SM CLR 16/13 A3009 RMK AO2 SLP191 T01560133=
202207080556 METAR KPWT 080556Z AUTO 00000KT 10SM CLR 14/13 A3009 RMK AO2 SLP193 6//// T01390128 10233 20139=
202207080456 METAR KPWT 080456Z AUTO 00000KT 10SM CLR 17/13 A3008 RMK AO2 SLP188 T01720133=
202207080356 METAR KPWT 080356Z AUTO 19003KT 10SM CLR 18/13 A3006 RMK AO2 SLP183 T01780133=
202207080256 METAR KPWT 080256Z AUTO 23009KT 10SM CLR 21/14 RMK AO2 SLPNO 6//// T02060139 $=
202207080156 METAR KPWT 080156Z AUTO 21008KT 10SM CLR 22/14 A3004 RMK AO2 SLP173 T02220144=
202207080056 METAR KPWT 080056Z AUTO 22007KT 10SM CLR 22/14 A3004 RMK AO2 SLP173 T02220144=
202207072356 METAR KPWT 072356Z AUTO VRB03KT 10SM CLR 23/16 A3005 RMK AO2 SLP176 6//// T02330156 10233 20200 58001=
202207072256 METAR KPWT 072256Z AUTO VRB04KT 10SM FEW035 22/14 A3005 RMK AO2 RAB27E46 SLP177 P0000 T02170139=
202207072156 METAR KPWT 072156Z AUTO 21008KT 10SM FEW075 23/14 A3005 RMK AO2 SLP176 T02330139=
202207072056 METAR KPWT 072056Z AUTO VRB04KT 10SM FEW042 BKN065 23/13 A3005 RMK AO2 SLP177 6//// T02280133=
202207071956 METAR KPWT 071956Z AUTO 10SM FEW047 22/13 RMK AO2 SLPNO T02220133 $=
202207071856 METAR KPWT 071856Z AUTO 20005KT 10SM FEW031 21/13 A3006 RMK AO2 SLP179 T02060133=
202207071756 METAR KPWT 071756Z AUTO 26006KT 10SM SCT027 20/13 A3005 RMK AO2 SLP178 T02000133 10206 20139 51006=
202207071656 METAR KPWT 071656Z AUTO 23003KT 10SM CLR 19/14 A3005 RMK AO2 SLP176 T01890139=
202207071556 METAR KPWT 071556Z AUTO 23006KT 10SM CLR 17/14 A3004 RMK AO2 SLP175 T01720139=
202207071456 METAR KPWT 071456Z AUTO 21003KT 10SM SCT009 BKN075 16/14 A3003 RMK AO2 SLP173 T01610139 53009=
202207071427 SPECI KPWT 071427Z AUTO 22004KT 10SM FEW007 SCT075 15/13 A3003 RMK AO2=
202207071356 METAR KPWT 071356Z AUTO 22003KT 10SM BKN007 14/13 A3002 RMK AO2 SLP169 T01440133=
202207071333 SPECI KPWT 071333Z AUTO 21004KT 10SM SCT007 14/13 A3002 RMK AO2=
202207071307 SPECI KPWT 071307Z AUTO 20004KT 10SM OVC007 14/13 A3002 RMK AO2=
202207071256 METAR KPWT 071256Z AUTO 20003KT 10SM OVC005 14/13 A3002 RMK AO2 SLP167 T01390133=
202207071156 METAR KPWT 071156Z AUTO 21004KT 10SM OVC005 14/13 A3001 RMK AO2 SLP163 60000 7//// T01440133 10172 20144 51007=
202207071056 METAR KPWT 071056Z AUTO 21003KT 10SM OVC005 14/14 A3000 RMK AO2 SLP160 T01440139=
202207070956 METAR KPWT 070956Z AUTO 22004KT 10SM OVC005 15/14 A3000 RMK AO2 SLP159 T01500144=
202207070856 METAR KPWT 070856Z AUTO VRB04KT 10SM OVC007 16/14 A2999 RMK AO2 SLP155 60000 T01560144 52001=
202207070756 METAR KPWT 070756Z AUTO 00000KT 10SM BKN009 16/15 A2998 RMK AO2 RAB15E29 SLP156 P0000 T01560150 402330122=
202207070754 SPECI KPWT 070754Z AUTO 21004KT 10SM BKN009 16/15 A2998 RMK AO2 RAB15E29 P0000 402330122=
202207070744 SPECI KPWT 070744Z AUTO 20003KT 10SM SCT009 BKN060 16/15 A2998 RMK AO2 RAB15E29 P0000=
202207070656 METAR KPWT 070656Z AUTO 20004KT 10SM OVC055 16/15 A2998 RMK AO2 RAE14 SLP155 P0000 T01610150=
202207070556 METAR KPWT 070556Z AUTO 00000KT 10SM -RA OVC055 17/15 A2997 RMK AO2 RAB45 SLP153 P0000 6//// T01670150 10222 20167 50009=
202207070456 METAR KPWT 070456Z AUTO 19004KT 10SM BKN050 18/14 A2998 RMK AO2 SLP154 T01780144=
202207070356 METAR KPWT 070356Z AUTO VRB03KT 10SM SCT060 18/15 A2996 RMK AO2 SLP149 T01830150=
202207070256 METAR KPWT 070256Z AUTO 21006KT 10SM FEW075 19/15 A2995 RMK AO2 SLP142 6//// T01940150 53003=
202207070156 METAR KPWT 070156Z AUTO 20005KT 10SM CLR 21/14 A2994 RMK AO2 SLP141 T02060144=
202207070056 METAR KPWT 070056Z AUTO 22010KT 10SM CLR 21/14 A2994 RMK AO2 SLP140 T02110144=
202207062356 METAR KPWT 062356Z AUTO 22012KT 10SM CLR 22/14 A2994 RMK AO2 SLP140 6//// T02220139 10233 20172 56004=
202207062256 METAR KPWT 062256Z AUTO 21008KT 10SM FEW034 SCT049 22/16 A2994 RMK AO2 SLP141 T02170156=
202207062212 SPECI KPWT 062212Z AUTO 26008G14KT 10SM SCT032 BKN040 23/15 A2994 RMK AO2=
202207062156 METAR KPWT 062156Z AUTO 23009KT 10SM BKN029 BKN040 22/15 A2994 RMK AO2 SLP141 T02170150=
202207062140 SPECI KPWT 062140Z AUTO 21007KT 10SM BKN029 BKN036 22/15 A2994 RMK AO2=
202207062056 METAR KPWT 062056Z AUTO 18005KT 10SM BKN055 21/16 A2995 RMK AO2 RAB09E23 SLP144 P0000 60000 T02060156 58002=
202207061956 METAR KPWT 061956Z AUTO 21009KT 10SM FEW016 OVC042 19/16 A2996 RMK AO2 RAB40E51 SLP149 P0000 T01890156=
202207061932 SPECI KPWT 061932Z AUTO 21007KT 10SM SCT016 OVC042 19/16 A2996 RMK AO2=
202207061910 SPECI KPWT 061910Z AUTO 22009KT 10SM BKN016 OVC044 19/16 A2996 RMK AO2=
202207061856 METAR KPWT 061856Z AUTO 22007KT 10SM FEW014 OVC046 19/16 A2996 RMK AO2 RAB04E14 SLP147 P0000 T01890161=
202207061756 METAR KPWT 061756Z AUTO 19003KT 10SM BKN048 OVC060 17/15 A2996 RMK AO2 SLP148 6//// T01720150 10178 20133 53003=
202207061717 SPECI KPWT 061717Z AUTO 20005KT 10SM SCT007 BKN055 17/16 A2995 RMK AO2=
202207061656 METAR KPWT 061656Z AUTO 22004KT 10SM BKN007 OVC060 17/16 A2995 RMK AO2 RAB04E50 SLP145 P0000 T01720161=
202207061642 SPECI KPWT 061642Z AUTO 22003KT 10SM -RA BKN007 BKN032 BKN060 17/16 A2995 RMK AO2 RAB04 P0000=
202207061556 METAR KPWT 061556Z AUTO 21004KT 10SM SCT007 SCT060 17/16 A2995 RMK AO2 SLP144 T01670156=
202207061553 SPECI KPWT 061553Z AUTO 22004KT 10SM SCT007 SCT065 17/16 A2995 RMK AO2=
202207061456 METAR KPWT 061456Z AUTO 00000KT 10SM CLR 17/15 A2994 RMK AO2 SLP140 T01670150 52002=
202207061356 METAR KPWT 061356Z AUTO 00000KT 10SM FEW041 15/14 A2994 RMK AO2 SLP141 T01500144=
202207061256 METAR KPWT 061256Z AUTO 00000KT 10SM BKN049 14/14 A2993 RMK AO2 SLP137 T01440139=
202207061156 METAR KPWT 061156Z AUTO 00000KT 9SM BKN038 13/13 A2993 RMK AO2 SLP138 60000 7//// T01330133 10156 20122 51001=
202207061056 METAR KPWT 061056Z AUTO 00000KT 10SM FEW050 13/13 A2993 RMK AO2 SLP138 T01330133=
202207061028 SPECI KPWT 061028Z AUTO 00000KT 10SM FEW027 BKN050 14/14 A2993 RMK AO2=
202207061005 SPECI KPWT 061005Z AUTO 00000KT 10SM BKN029 BKN042 14/14 A2994 RMK AO2=
202207060956 METAR KPWT 060956Z AUTO 00000KT 10SM OVC031 14/14 A2993 RMK AO2 SLP138 T01390139=
202207060856 METAR KPWT 060856Z AUTO 00000KT 10SM BKN043 13/13 A2993 RMK AO2 SLP136 60000 T01330133 56003=
202207060848 SPECI KPWT 060848Z AUTO 00000KT 3SM BR FEW043 13/13 A2993 RMK AO2=
202207060845 SPECI KPWT 060845Z AUTO 00000KT 1 1/4SM BR CLR 12/12 A2993 RMK AO2=
202207060835 SPECI KPWT 060835Z AUTO 00000KT 3/4SM BR CLR 12/12 A2993 RMK AO2 VIS 1/2V5=
202207060830 SPECI KPWT 060830Z AUTO 00000KT 1 3/4SM BR CLR 13/12 A2993 RMK AO2=
202207060756 METAR KPWT 060756Z AUTO 00000KT 10SM SCT045 13/13 A2993 RMK AO2 RAE00 SLP138 P0000 T01330133 402500067=
202207060656 METAR KPWT 060656Z AUTO 00000KT 10SM -RA FEW049 15/14 A2993 RMK AO2 RAB41 SLP138 P0000 T01500144=
202207060556 METAR KPWT 060556Z AUTO 00000KT 10SM FEW050 SCT060 15/14 A2994 RMK AO2 SLP141 6//// T01500144 10206 20150 52006=
202207060456 METAR KPWT 060456Z AUTO 00000KT 10SM SCT055 16/15 A2993 RMK AO2 RAE45 SLP138 P0000 T01610150=
202207060356 METAR KPWT 060356Z AUTO 07004KT 10SM -RA SCT060 17/15 A2993 RMK AO2 RAB53 SLP137 P0000 T01670150=
202207060256 METAR KPWT 060256Z AUTO 06005KT 10SM SCT060 17/15 A2992 RMK AO2 RAE54 SLP135 P0001 6//// T01720150 53001=
202207060156 METAR KPWT 060156Z AUTO 05003KT 10SM -RA CLR 19/16 A2992 RMK AO2 RAB41 SLP134 T01890161=
202207060056 METAR KPWT 060056Z AUTO 05004KT 10SM CLR 21/14 A2991 RMK AO2 RAE30 SLP130 P0000 T02060139=
202207052356 METAR KPWT 052356Z AUTO 00000KT 10SM -RA CLR 21/15 A2992 RMK AO2 SLP133 P0000 6//// T02060150 10250 20200 56002=
202207052256 METAR KPWT 052256Z AUTO 00000KT 10SM -RA CLR 22/12 A2993 RMK AO2 RAB39 SLP137 P0000 T02170122=
202207052156 METAR KPWT 052156Z AUTO 06005KT 10SM CLR 23/11 A2991 RMK AO2 SLP131 T02330111=
202207052056 METAR KPWT 052056Z AUTO 36004KT 10SM CLR 24/12 A2992 RMK AO2 SLP136 6//// T02390117 57011=
202207051956 METAR KPWT 051956Z AUTO 00000KT 10SM CLR 22/09 A2994 RMK AO2 SLP139 T02220094=
202207051856 METAR KPWT 051856Z AUTO VRB05KT 10SM CLR 22/13 A2995 RMK AO2 SLP143 T02220128=
202207051756 METAR KPWT 051756Z AUTO VRB05KT 10SM CLR 20/13 A2996 RMK AO2 SLP146 6//// T02000128 10200 20067 58007=
202207051656 METAR KPWT 051656Z AUTO VRB05KT 10SM CLR 17/13 A2997 RMK AO2 SLP153 T01670128=
202207051556 METAR KPWT 051556Z AUTO 06006KT 10SM CLR 16/12 A2998 RMK AO2 SLP156 T01560122=
202207051456 METAR KPWT 051456Z AUTO 05006KT 10SM CLR 14/12 A2998 RMK AO2 SLP155 T01390117 58000=
202207051356 METAR KPWT 051356Z AUTO 05005KT 10SM CLR 13/12 A2998 RMK AO2 SLP155 T01280117=
202207051324 SPECI KPWT 051324Z AUTO 00000KT 9SM CLR 09/09 A2998 RMK AO2=
202207051316 SPECI KPWT 051316Z AUTO 00000KT 2SM BR CLR 09/09 A2998 RMK AO2=
202207051313 SPECI KPWT 051313Z AUTO 00000KT 3/4SM BR CLR 09/09 A2998 RMK AO2 VIS 1/4V5=
202207051256 METAR KPWT 051256Z AUTO 00000KT M1/4SM FG CLR 08/08 A2998 RMK AO2 SLP156 T00780078=
202207051203 SPECI KPWT 051203Z AUTO 00000KT 1/4SM FG CLR 07/06 A2998 RMK AO2 VIS M1/4V5=
202207051156 METAR KPWT 051156Z AUTO 00000KT 1 1/2SM BR CLR 08/08 A2998 RMK AO2 VIS 3/4V5 SLP154 7//// T00830083 10139 20078 57001=
202207051147 SPECI KPWT 051147Z AUTO 00000KT 1 1/4SM BR CLR 08/08 A2998 RMK AO2 VIS 1/2V5=
202207051142 SPECI KPWT 051142Z AUTO 00000KT 3/4SM BR CLR 09/09 A2998 RMK AO2 VIS 1/4V5=
202207051056 METAR KPWT 051056Z AUTO 00000KT 7SM CLR 10/10 A2998 RMK AO2 SLP155 T01000100=
202207050956 METAR KPWT 050956Z AUTO 02003KT 5SM BR CLR 09/09 A2998 RMK AO2 SLP156 T00940089=
202207050856 METAR KPWT 050856Z AUTO 00000KT 10SM CLR 11/09 A2998 RMK AO2 SLP156 T01110094 57002=
202207050756 METAR KPWT 050756Z AUTO 04003KT 10SM CLR 12/10 A2998 RMK AO2 SLP156 T01220100 402110111=
202207050656 METAR KPWT 050656Z AUTO 05006KT 10SM CLR 13/10 A2999 RMK AO2 SLP157 T01330100=
202207050556 METAR KPWT 050556Z AUTO 04009KT 10SM CLR 14/11 A2999 RMK AO2 SLP157 6//// T01390106 10211 20139 50004=
202207050456 METAR KPWT 050456Z AUTO 05006KT 10SM CLR 14/12 A2999 RMK AO2 SLP159 T01440122=
202207050356 METAR KPWT 050356Z AUTO 03005KT 10SM CLR 16/12 A2998 RMK AO2 SLP156 T01560122=
202207050256 METAR KPWT 050256Z AUTO 07005KT 10SM BKN043 18/12 A2998 RMK AO2 SLP154 6//// T01780122 55000=
202207050156 METAR KPWT 050156Z AUTO 00000KT 10SM CLR 19/11 A2997 RMK AO2 SLP151 T01940111=
202207050056 METAR KPWT 050056Z AUTO 26006KT 10SM SCT038 21/12 A2997 RMK AO2 SLP152 T02110117=
202207042356 METAR KPWT 042356Z AUTO 31003KT 10SM FEW029 19/12 A2998 RMK AO2 SLP155 6//// T01940122 10194 20150 58007=
202207042256 METAR KPWT 042256Z AUTO 30004KT 10SM FEW027 OVC034 19/12 A2999 RMK AO2 SLP157 T01890122=
202207042241 SPECI KPWT 042241Z AUTO 26005KT 10SM SCT027 OVC032 18/12 A2999 RMK AO2=
202207042232 SPECI KPWT 042232Z AUTO 24007KT 10SM BKN026 BKN032 18/12 A2999 RMK AO2=
202207042156 METAR KPWT 042156Z AUTO VRB03KT 10SM BKN030 17/12 A2999 RMK AO2 RAE23 SLP159 P0000 T01720117=
202207042148 SPECI KPWT 042148Z AUTO 22004KT 10SM SCT023 OVC030 17/12 A3000 RMK AO2 RAE23 P0000=
202207042127 SPECI KPWT 042127Z AUTO 23005KT 10SM BKN021 OVC030 16/12 A3000 RMK AO2 RAE23 P0000=
202207042105 SPECI KPWT 042105Z AUTO VRB04KT 10SM SCT023 OVC032 16/12 A3000 RMK AO2 RAE04 P0000=
202207042056 METAR KPWT 042056Z AUTO 22005KT 10SM -RA BKN023 BKN028 BKN032 16/12 A3000 RMK AO2 RAB41 SLP161 P0000 60000 T01610122 53006=
202207041956 METAR KPWT 041956Z AUTO 22005KT 10SM BKN024 OVC029 15/12 A2999 RMK AO2 SLP159 T01500117=
202207041856 METAR KPWT 041856Z AUTO 17006KT 10SM OVC026 16/11 A2998 RMK AO2 SLP156 T01560111=
202207041756 METAR KPWT 041756Z AUTO 20006KT 10SM FEW019 OVC026 15/11 A2998 RMK AO2 SLP155 T01500111 10150 20117 51001=
202207041656 METAR KPWT 041656Z AUTO 19005KT 10SM FEW015 OVC026 14/11 A2998 RMK AO2 SLP156 T01390111=
202207041556 METAR KPWT 041556Z AUTO 19006KT 10SM FEW012 OVC028 14/11 A2998 RMK AO2 SLP155 T01390111=
202207041546 SPECI KPWT 041546Z AUTO 19004KT 10SM FEW012 OVC028 14/12 A2998 RMK AO2=
202207041516 SPECI KPWT 041516Z AUTO 22006KT 10SM BKN012 OVC028 13/11 A2998 RMK AO2=
202207041456 METAR KPWT 041456Z AUTO 19004KT 10SM FEW010 OVC028 13/12 A2998 RMK AO2 SLP154 T01330117 53004=
202207041356 METAR KPWT 041356Z AUTO 19003KT 10SM OVC026 12/11 A2997 RMK AO2 SLP153 T01220111=
202207041256 METAR KPWT 041256Z AUTO 00000KT 10SM OVC026 12/11 A2997 RMK AO2 SLP151 T01170111=
202207041156 METAR KPWT 041156Z AUTO 00000KT 10SM OVC026 12/11 A2996 RMK AO2 RAB11E34 SLP150 P0000 60000 70002 T01170111 10128 20111 53004=
202207041056 METAR KPWT 041056Z AUTO 19004KT 9SM SCT011 BKN020 OVC025 12/11 A2996 RMK AO2 SLP149 T01170106=
202207040956 METAR KPWT 040956Z AUTO 20003KT 10SM BKN011 12/11 A2995 RMK AO2 SLP146 T01170106=
202207040945 SPECI KPWT 040945Z AUTO 20003KT 10SM BKN011 BKN024 12/11 A2995 RMK AO2=
202207040856 METAR KPWT 040856Z AUTO 19003KT 10SM BKN024 12/11 A2995 RMK AO2 SLP146 T01220111 57002=
202207040756 METAR KPWT 040756Z AUTO 00000KT 10SM OVC024 12/11 A2995 RMK AO2 SLP147 T01220111 401560122=
202207040656 METAR KPWT 040656Z AUTO 00000KT 10SM OVC026 12/11 A2996 RMK AO2 SLP148 T01220111=
202207040556 METAR KPWT 040556Z AUTO 00000KT 10SM OVC020 13/12 A2996 RMK AO2 SLP148 60002 T01280117 10156 20128 50003=
202207040456 METAR KPWT 040456Z AUTO 17003KT 10SM OVC016 13/12 A2996 RMK AO2 SLP150 T01280122=
202207040356 METAR KPWT 040356Z AUTO 00000KT 10SM OVC018 13/13 A2996 RMK AO2 RAE30 SLP149 P0000 T01330128=
202207040256 METAR KPWT 040256Z AUTO 00000KT 4SM RA BR OVC020 13/12 A2995 RMK AO2 RAB33 SLP146 P0002 60002 T01330122 53001=
202207040156 METAR KPWT 040156Z AUTO 18004KT 10SM OVC020 14/11 A2995 RMK AO2 SLP145 T01440111=
202207040056 METAR KPWT 040056Z AUTO 20005KT 10SM OVC024 15/11 A2994 RMK AO2 SLP142 T01500106=
202207032356 METAR KPWT 032356Z AUTO 21006KT 10SM OVC024 15/11 A2995 RMK AO2 SLP144 T01500106 10150 20128 58001=
202207032256 METAR KPWT 032256Z AUTO 20006KT 10SM OVC022 14/11 A2996 RMK AO2 SLP147 T01440106=
202207032156 METAR KPWT 032156Z AUTO 20007KT 10SM OVC020 14/11 A2995 RMK AO2 SLP146 T01440106=
202207032056 METAR KPWT 032056Z AUTO 20007KT 10SM OVC018 14/11 A2995 RMK AO2 SLP144 T01390111 53003=
202207031956 METAR KPWT 031956Z AUTO VRB05KT 10SM OVC016 14/11 A2994 RMK AO2 SLP143 T01390111=
202207031923 SPECI KPWT 031923Z AUTO 20008KT 10SM OVC016 14/11 A2994 RMK AO2=
202207031856 METAR KPWT 031856Z AUTO 19007KT 10SM OVC014 14/11 A2994 RMK AO2 SLP140 T01390111=
202207031756 METAR KPWT 031756Z AUTO 19007KT 160V220 10SM OVC012 13/11 A2994 RMK AO2 SLP141 60000 T01280111 10133 20122 53003=
202207031656 METAR KPWT 031656Z AUTO 21003KT 10SM OVC010 13/11 A2993 RMK AO2 RAE00 SLP138 P0000 T01280111=
202207031556 METAR KPWT 031556Z AUTO 19004KT 10SM -RA OVC010 12/11 A2993 RMK AO2 SLP136 P0000 T01220111=
202207031542 SPECI KPWT 031542Z AUTO 19003KT 10SM -RA OVC010 12/11 A2993 RMK AO2 P0000=
202207031456 METAR KPWT 031456Z AUTO VRB03KT 8SM -RA OVC008 12/11 A2993 RMK AO2 RAB52 SLP138 P0000 60000 T01220111 53002=
202207031409 SPECI KPWT 031409Z AUTO 21004KT 10SM OVC008 12/11 A2993 RMK AO2 CIG 006V010=
202207031356 METAR KPWT 031356Z AUTO 20007KT 10SM OVC010 12/11 A2993 RMK AO2 SLP137 T01220111=
202207031308 SPECI KPWT 031308Z AUTO 20005KT 10SM OVC010 12/11 A2992 RMK AO2=
202207031256 METAR KPWT 031256Z AUTO 19004KT 10SM OVC008 13/11 A2992 RMK AO2 SLP137 T01280111=
202207031156 METAR KPWT 031156Z AUTO 18004KT 10SM OVC008 13/11 A2992 RMK AO2 SLP137 7//// T01280111 10150 20128 53002=
202207031056 METAR KPWT 031056Z AUTO 20005KT 10SM OVC008 13/12 A2992 RMK AO2 SLP134 T01280117=
202207030956 METAR KPWT 030956Z AUTO 20003KT 10SM OVC008 13/12 A2992 RMK AO2 SLP134 T01280117=
202207030919 SPECI KPWT 030919Z AUTO 20004KT 10SM OVC008 13/12 A2991 RMK AO2=
202207030856 METAR KPWT 030856Z AUTO 19003KT 10SM OVC010 13/12 A2992 RMK AO2 SLP134 T01330117 55001=
202207030756 METAR KPWT 030756Z AUTO 21004KT 10SM BKN010 OVC036 13/12 A2992 RMK AO2 SLP134 T01330117 401940100=
202207030656 METAR KPWT 030656Z AUTO 22007KT 10SM OVC034 14/12 A2992 RMK AO2 SLP135 T01390117=
202207030556 METAR KPWT 030556Z AUTO 23007KT 10SM OVC036 15/12 A2992 RMK AO2 SLP135 6//// T01500122 10194 20144 51007=
202207030456 METAR KPWT 030456Z AUTO 22009KT 10SM FEW028 14/12 A2992 RMK AO2 SLP134 T01440122=
202207030413 SPECI KPWT 030413Z AUTO 20005KT 10SM SCT029 16/13 A2991 RMK AO2=
202207030356 METAR KPWT 030356Z AUTO VRB03KT 10SM OVC029 17/14 A2991 RMK AO2 SLP133 T01670139=
202207030256 METAR KPWT 030256Z AUTO 18004KT 10SM BKN027 17/14 A2990 RMK AO2 SLP128 6//// T01720139 56005=
202207030245 SPECI KPWT 030245Z AUTO 19005KT 10SM BKN027 17/14 A2990 RMK AO2=
202207030156 METAR KPWT 030156Z AUTO 16005KT 10SM CLR 18/14 A2990 RMK AO2 SLP129 T01780139=
202207030056 METAR KPWT 030056Z AUTO 18003KT 10SM CLR 18/14 A2990 RMK AO2 SLP130 T01830144=
202207022356 METAR KPWT 022356Z AUTO VRB04KT 10SM FEW018 18/14 A2992 RMK AO2 SLP134 T01830139 10183 20144 56015=
202207022256 METAR KPWT 022256Z AUTO 21007KT 10SM FEW020 18/14 A2993 RMK AO2 SLP139 T01830139=
202207022233 SPECI KPWT 022233Z AUTO 24005KT 10SM SCT020 18/14 A2994 RMK AO2=
202207022156 METAR KPWT 022156Z AUTO 22006KT 10SM OVC016 18/14 A2995 RMK AO2 SLP143 T01780139=
202207022056 METAR KPWT 022056Z AUTO 21005KT 10SM OVC016 16/13 A2996 RMK AO2 SLP148 T01610133 56010=
202207022048 SPECI KPWT 022048Z AUTO 21006KT 10SM OVC014 16/13 A2996 RMK AO2=
202207021956 METAR KPWT 021956Z AUTO 19004KT 10SM BKN016 OVC020 16/13 A2997 RMK AO2 SLP150 T01610133=
202207021916 SPECI KPWT 021916Z AUTO 22005KT 10SM BKN012 OVC018 16/13 A2998 RMK AO2=
202207021856 METAR KPWT 021856Z AUTO 22004KT 10SM BKN009 BKN020 16/13 A2998 RMK AO2 CIG 006V012 SLP155 T01560133=
202207021756 METAR KPWT 021756Z AUTO 18003KT 10SM OVC007 14/13 A2999 RMK AO2 CIG 006V011 SLP158 T01440133 10150 20122 58007=
202207021656 METAR KPWT 021656Z AUTO 24004KT 10SM BKN007 OVC012 14/13 A3000 RMK AO2 CIG 005V009 SLP160 T01440128=
202207021556 METAR KPWT 021556Z AUTO 00000KT 7SM OVC005 14/13 A3001 RMK AO2 SLP166 T01390128=
202207021456 METAR KPWT 021456Z AUTO 00000KT 10SM OVC005 13/12 A3001 RMK AO2 SLP165 T01330122 58003=
202207021444 SPECI KPWT 021444Z AUTO 00000KT 10SM OVC005 13/12 A3001 RMK AO2=
202207021356 METAR KPWT 021356Z AUTO 00000KT 7SM OVC003 13/12 A3002 RMK AO2 SLP167 T01280122=
202207021354 SPECI KPWT 021354Z AUTO 00000KT 8SM OVC003 13/12 A3002 RMK AO2=
202207021256 METAR KPWT 021256Z AUTO 00000KT 5SM BR OVC005 12/12 A3002 RMK AO2 SLP168 T01220122=
202207021252 SPECI KPWT 021252Z AUTO 00000KT 4SM BR OVC005 13/12 A3002 RMK AO2=
202207021245 SPECI KPWT 021245Z AUTO 00000KT 2 1/2SM BR OVC005 13/12 A3002 RMK AO2=
202207021156 METAR KPWT 021156Z AUTO 00000KT 7SM OVC005 12/12 A3002 RMK AO2 SLP169 7//// T01220122 10150 20100 58002=
202207021110 SPECI KPWT 021110Z AUTO 00000KT 10SM OVC005 12/12 A3002 RMK AO2=
202207021056 METAR KPWT 021056Z AUTO 00000KT 10SM OVC007 12/12 A3002 RMK AO2 SLP169 T01220122=
202207021030 SPECI KPWT 021030Z AUTO 00000KT 5SM BR SCT002 OVC009 12/12 A3002 RMK AO2=
202207021024 SPECI KPWT 021024Z AUTO 00000KT 2SM BR BKN002 OVC009 12/12 A3002 RMK AO2=
202207021020 SPECI KPWT 021020Z AUTO 00000KT 1SM BR OVC002 12/12 A3002 RMK AO2=
202207021012 SPECI KPWT 021012Z AUTO 00000KT 1/2SM FG OVC002 12/12 A3002 RMK AO2=
202207021003 SPECI KPWT 021003Z AUTO 00000KT 3/4SM BR BKN002 11/11 A3003 RMK AO2=
202207021001 SPECI KPWT 021001Z AUTO 00000KT 1 1/4SM BR BKN002 11/11 A3003 RMK AO2=
202207020956 METAR KPWT 020956Z AUTO 00000KT 10SM BKN002 11/11 A3003 RMK AO2 SLP170 T01110106=
202207020925 SPECI KPWT 020925Z AUTO 00000KT 10SM FEW007 11/11 A3003 RMK AO2=
202207020856 METAR KPWT 020856Z AUTO 00000KT 10SM CLR 11/11 A3003 RMK AO2 SLP171 T01110106 58002=
202207020756 METAR KPWT 020756Z AUTO 00000KT 10SM CLR 12/12 A3003 RMK AO2 SLP172 T01220117 402280089=
202207020656 METAR KPWT 020656Z AUTO 00000KT 10SM CLR 13/12 A3003 RMK AO2 SLP172 T01280122=
202207020556 METAR KPWT 020556Z AUTO 00000KT 10SM CLR 15/13 A3003 RMK AO2 SLP172 6//// T01500128 10228 20133 53003=
202207020456 METAR KPWT 020456Z AUTO 00000KT 10SM CLR 15/13 A3003 RMK AO2 SLP174 T01500128=
202207020356 METAR KPWT 020356Z AUTO 00000KT 10SM CLR 18/14 A3002 RMK AO2 SLP168 T01780144=
202207020256 METAR KPWT 020256Z AUTO 22004KT 10SM CLR 20/14 A3002 RMK AO2 SLP169 6//// T02000144 55008=
202207020156 METAR KPWT 020156Z AUTO 22008KT 10SM CLR 21/14 A3002 RMK AO2 SLP168 T02110144=
202207020056 METAR KPWT 020056Z AUTO 23008KT 10SM CLR 22/14 A3003 RMK AO2 SLP172 T02220139=
202207012356 METAR KPWT 012356Z AUTO 24007KT 10SM CLR 23/14 A3005 RMK AO2 SLP177 T02280144 10228 20189 57012=
202207012256 METAR KPWT 012256Z AUTO 23008KT 10SM CLR 23/14 A3006 RMK AO2 SLP182 T02280139=
202207012156 METAR KPWT 012156Z AUTO 23008KT 10SM CLR 22/14 A3007 RMK AO2 SLP185 T02220144=
202207012056 METAR KPWT 012056Z AUTO 23008KT 10SM FEW030 22/14 A3008 RMK AO2 SLP190 T02170144 58008=
202207011956 METAR KPWT 011956Z AUTO VRB03KT 10SM FEW028 21/14 A3009 RMK AO2 SLP193 T02110139=
202207011856 METAR KPWT 011856Z AUTO VRB04KT 10SM CLR 20/14 A3010 RMK AO2 SLP196 T02000139=
202207011756 METAR KPWT 011756Z AUTO 21006KT 10SM FEW019 19/14 A3011 RMK AO2 SLP197 T01890144 10189 20106 58005=
202207011656 METAR KPWT 011656Z AUTO 24005KT 10SM CLR 17/13 A3011 RMK AO2 SLP199 T01720133=
202207011600 SPECI KPWT 011600Z AUTO 24005KT 10SM SCT007 16/13 A3012 RMK AO2=
202207011556 METAR KPWT 011556Z AUTO 23003KT 10SM BKN005 16/13 A3012 RMK AO2 SLP202 T01560128=
202207011528 SPECI KPWT 011528Z AUTO 27003KT 10SM OVC005 14/13 A3012 RMK AO2=
202207011456 METAR KPWT 011456Z AUTO 24003KT 10SM OVC003 13/13 A3012 RMK AO2 SLP202 T01330128 53008=
202207011421 SPECI KPWT 011421Z AUTO 29003KT 3SM BR OVC003 13/13 A3011 RMK AO2=
202207011403 SPECI KPWT 011403Z AUTO 23004KT 1 3/4SM BR OVC003 12/12 A3011 RMK AO2 VIS 1V5=
202207011356 METAR KPWT 011356Z AUTO 25003KT 1SM BR OVC003 12/12 A3011 RMK AO2 VIS 3/4V2 SLP199 T01220122=
202207011354 SPECI KPWT 011354Z AUTO 24003KT 3/4SM BR OVC003 12/12 A3011 RMK AO2 VIS 1/4V2=
202207011313 SPECI KPWT 011313Z AUTO 23004KT 1/4SM FG BKN003 12/12 A3011 RMK AO2=
202207011310 SPECI KPWT 011310Z AUTO 22004KT 3/4SM BR BKN003 12/12 A3011 RMK AO2=
202207011308 SPECI KPWT 011308Z AUTO 21003KT 1 1/4SM BR BKN003 12/12 A3011 RMK AO2=
202207011256 METAR KPWT 011256Z AUTO 20003KT 10SM FEW003 11/11 A3010 RMK AO2 SLP196 T01110106=
202207011156 METAR KPWT 011156Z AUTO 00000KT 10SM BKN050 11/10 A3010 RMK AO2 SLP194 7//// T01060100 10150 20089 51003=
202207011056 METAR KPWT 011056Z AUTO 00000KT 10SM CLR 09/09 A3009 RMK AO2 SLP194 T00940089=
202207010956 METAR KPWT 010956Z AUTO 00000KT 10SM CLR 11/09 A3009 RMK AO2 SLP193 T01060094=
202207010856 METAR KPWT 010856Z AUTO 00000KT 10SM CLR 12/11 A3009 RMK AO2 SLP191 T01220106 53000=
202207010756 METAR KPWT 010756Z AUTO 00000KT 10SM BKN045 13/11 A3009 RMK AO2 SLP191 T01330111 402390078=
202207010656 METAR KPWT 010656Z AUTO 00000KT 10SM OVC045 14/12 A3008 RMK AO2 SLP190 T01440117=
202207010556 METAR KPWT 010556Z AUTO 05003KT 10SM CLR 14/11 A3009 RMK AO2 SLP191 T01440106 10239 20139 53005=
202207010456 METAR KPWT 010456Z AUTO 04003KT 10SM CLR 16/11 A3008 RMK AO2 SLP190 T01610111=
202207010356 METAR KPWT 010356Z AUTO 05005KT 10SM CLR 18/11 A3007 RMK AO2 SLP186 T01830111=
202207010256 METAR KPWT 010256Z AUTO 07006KT 10SM CLR 21/11 A3007 RMK AO2 SLP184 T02110111 55006=
202207010156 METAR KPWT 010156Z AUTO 05008KT 10SM CLR 22/12 A3007 RMK AO2 SLP185 T02220122=
202207010056 METAR KPWT 010056Z AUTO 03006KT 10SM CLR 23/12 A3007 RMK AO2 SLP188 T02280122=

# No short TAF reports from KPWT in databse.

###################################
#  large TAF from KPWT
###################################
202207312330 TAF KPWT 312330Z 0100/0124 06007KT P6SM SKC FM010600 21006KT P6SM
                       SKC FM011200 21006KT 3SM BR OVC002 FM012200
                       20015G21KT P6SM SCT150=
202207311734 TAF KPWT 311734Z 3118/0118 VRB03KT P6SM SKC FM312200 05006KT P6SM
                       SKC FM010600 21006KT P6SM SKC FM011200 21006KT
                       3SM BR OVC002=
202207311126 TAF KPWT 311126Z 3112/0112 VRB03KT P6SM SKC FM312200 05006KT P6SM
                       SKC FM010600 21006KT P6SM SKC FM011000 21006KT
                       3SM BR OVC002=
202207310538 TAF KPWT 310538Z 3106/0106 VRB03KT P6SM SKC FM312200 05006KT P6SM
                       SKC=
202207302325 TAF KPWT 302325Z 3100/3124 05007KT P6SM SKC FM310400 VRB03KT P6SM
                       SKC FM312200 05006KT P6SM SKC=
202207301733 TAF KPWT 301733Z 3018/3118 VRB03KT P6SM SKC FM302200 05006KT P6SM
                       SKC FM310400 VRB03KT P6SM SKC=
202207301125 TAF KPWT 301125Z 3012/3112 VRB03KT P6SM SKC FM302200 03006KT P6SM
                       SKC FM310400 VRB03KT P6SM SKC=
202207300539 TAF KPWT 300539Z 3006/3106 VRB03KT P6SM SKC FM302200 03006KT P6SM
                       SKC=
202207292331 TAF KPWT 292331Z 3000/3024 06006KT P6SM SKC FM300600 VRB03KT P6SM
                       SKC FM302000 19006KT P6SM SKC=
202207291737 TAF KPWT 291737Z 2918/3018 06006KT P6SM SKC FM300600 VRB03KT P6SM
                       SKC=
202207291126 TAF KPWT 291126Z 2912/3012 VRB03KT P6SM SKC FM291700 06006KT P6SM
                       SKC FM300600 VRB03KT P6SM SKC=
202207290538 TAF KPWT 290538Z 2906/3006 VRB03KT P6SM SKC FM291700 06006KT P6SM
                       SKC=
202207282320 TAF KPWT 282320Z 2900/2924 07008KT P6SM SKC FM290600 VRB03KT P6SM
                       SKC FM291700 06006KT P6SM SKC=
202207281720 TAF KPWT 281720Z 2818/2918 VRB04KT P6SM SKC FM282100 04006KT P6SM
                       SKC FM290600 VRB04KT P6SM SKC=
202207281121 TAF KPWT 281121Z 2812/2912 VRB04KT P6SM SKC=
202207280534 TAF KPWT 280534Z 2806/2906 VRB04KT P6SM SKC=
202207272322 TAF KPWT 272322Z 2800/2824 VRB04KT P6SM SCT250=
202207271743 TAF KPWT 271743Z 2718/2818 VRB03KT P6SM SKC FM272200 36006KT P6SM
                       SCT200 FM281100 21004KT P6SM SCT003=
202207271558 KPWT 271558Z 2716/2812 21004KT P6SM SCT005 FM271800 VRB04KT P6SM
                       SKC FM272200 36006KT P6SM SCT200 FM281100
                       21004KT P6SM SCT003=
202207271508 KPWT 271508Z 2715/2812 21004KT 5SM BR OVC003 FM271600 22004KT P6SM
                       BKN005 FM271800 VRB04KT P6SM SKC FM272000
                       22007KT P6SM FEW150=
202207271304 KPWT 271304Z 2713/2812 21004KT 1SM BR OVC003 FM271600 22004KT P6SM
                       BKN015 FM272000 22007KT P6SM FEW150=
202207271237 KPWT 271237Z 2713/2812 21004KT P6SM BKN003 FM271600 22004KT P6SM
                       BKN015 FM272000 22007KT P6SM FEW150=
202207271120 TAF KPWT 271120Z 2712/2812 21005KT P6SM SKC FM271300 21004KT P6SM
                       BKN015 FM271600 22004KT P6SM SKC FM272000
                       22007KT P6SM FEW150=
202207270520 TAF KPWT 270520Z 2706/2806 00000KT P6SM SKC FM271300 21004KT P6SM
                       BKN015 FM271600 22004KT P6SM SKC FM272000
                       22007KT P6SM FEW150=
202207262348 TAF KPWT 262348Z 2700/2724 VRB04KT P6SM SKC FM270400 23005KT P6SM
                       SKC FM272000 VRB04KT P6SM FEW150=
202207261720 TAF KPWT 261720Z 2618/2718 04007KT P6SM SKC FM270200 21005KT P6SM
                       SKC=
202207261120 TAF KPWT 261120Z 2612/2712 00000KT P6SM SKC FM261900 VRB03KT P6SM
                       SKC FM270000 21008KT P6SM SKC=
202207260520 TAF KPWT 260520Z 2606/2706 03004KT P6SM SKC FM260800 05005KT P6SM
                       SKC FM261900 23008KT P6SM SKC=
202207252320 TAF KPWT 252320Z 2600/2624 08007KT P6SM SKC FM260800 05005KT P6SM
                       SKC FM261900 07009KT P6SM SKC=
202207251720 TAF KPWT 251720Z 2518/2618 05009KT P6SM SKC FM260800 VRB03KT P6SM
                       SKC=
202207251120 TAF KPWT 251120Z 2512/2612 00000KT P6SM SKC FM251500 05005KT P6SM
                       SKC FM260800 VRB03KT P6SM SKC=
202207250520 TAF KPWT 250520Z 2506/2606 03009KT P6SM SKC FM250900 12003KT P6SM
                       FEW250 FM251500 05005KT P6SM SKC=
202207242320 TAF KPWT 242320Z 2500/2524 05007KT P6SM SKC FM250900 12003KT P6SM
                       FEW250 FM251500 05005KT P6SM SKC=
202207241720 TAF KPWT 241720Z 2418/2518 03006KT P6SM SKC FM250600 16003KT 6SM
                       BR FEW250 FM251500 05005KT P6SM SKC=
202207241120 TAF KPWT 241120Z 2412/2512 VRB03KT 3SM BR SKC
                      TEMPO 2412/2414 1SM BR FM241500 VRB02KT P6SM
                       SCT010 FM241800 03005KT P6SM SKC FM250600
                       01003KT 6SM BR FEW250=
202207240520 TAF KPWT 240520Z 2406/2506 VRB03KT P6SM SKC FM241500 VRB02KT P6SM
                       SCT010 FM241800 03005KT P6SM SKC=
202207232320 TAF KPWT 232320Z 2400/2424 04003KT P6SM SCT030 FM241500 VRB02KT
                       P6SM SCT010 FM241800 03005KT P6SM SKC=
202207232051 KPWT 232051Z 2321/2418 04004KT P6SM BKN020 FM232200 04003KT P6SM
                       SCT030 FM241100 VRB02KT P6SM SCT010=
202207231941 KPWT 231941Z 2320/2418 VRB04KT P6SM BKN015 FM232100 04004KT P6SM
                       SKC FM241100 VRB02KT P6SM SCT010=
202207231720 TAF KPWT 231720Z 2318/2418 VRB03KT P6SM BKN010 FM232000 VRB04KT
                       P6SM SCT025 FM232200 04004KT P6SM SKC FM241100
                       VRB02KT P6SM SCT010=
202207231313 KPWT 231313Z 2313/2412 00000KT 6SM BR OVC005 FM231800 VRB03KT P6SM
                       BKN015 FM232100 VRB04KT P6SM SCT025 FM232300
                       04004KT P6SM SKC FM241100 00000KT P6SM SCT015=
202207231120 TAF KPWT 231120Z 2312/2412 00000KT P6SM OVC007 FM231800 VRB03KT
                       P6SM BKN015 FM232100 VRB04KT P6SM SCT025
                       FM232300 04004KT P6SM SKC FM241100 00000KT
                       P6SM SCT015=
202207230844 KPWT 230844Z 2309/2406 00000KT P6SM OVC012 FM231800 VRB03KT P6SM
                       BKN018 FM232100 VRB03KT P6SM SCT025 FM232300
                       04004KT P6SM SKC=
202207230732 KPWT 230732Z 2308/2406 20005KT P6SM SCT015 FM231000 00000KT P6SM
                       OVC015 FM231800 VRB03KT P6SM BKN018 FM232100
                       VRB03KT P6SM SCT025 FM232300 04004KT P6SM
                       SKC=
202207230520 TAF KPWT 230520Z 2306/2406 20005KT P6SM FEW250 FM231100 00000KT
                       P6SM OVC015 FM231800 VRB03KT P6SM BKN018
                       FM232100 VRB03KT P6SM SCT025 FM232300 04004KT
                       P6SM SKC=
202207222320 TAF KPWT 222320Z 2300/2324 24007KT P6SM SCT050 FM231000 VRB03KT
                       P6SM OVC007 FM231800 20003KT P6SM BKN015
                       FM232000 VRB03KT P6SM BKN020 FM232300 VRB03KT
                       P6SM SCT025=
202207221720 TAF KPWT 221720Z 2218/2318 20007KT P6SM OVC015 FM222000 21008KT
                       P6SM BKN022 BKN040 FM222200 21007KT P6SM
                       SCT050 FM231000 VRB03KT P6SM OVC007=
202207221120 TAF KPWT 221120Z 2212/2312 20005KT P6SM OVC009 FM221800 20007KT
                       P6SM OVC015 FM222000 21008KT P6SM BKN022
                       BKN040 FM222200 21007KT P6SM SCT050 FM231000
                       VRB03KT P6SM OVC012=
202207220802 KPWT 220802Z 2208/2306 20005KT P6SM OVC009 FM221800 20007KT P6SM
                       BKN020 FM222000 21007KT P6SM BKN045 FM222200
                       21007KT P6SM SCT050=
202207220520 TAF KPWT 220520Z 2206/2306 20004KT P6SM SCT250 FM220900 20007KT
                       P6SM OVC009 FM221800 20007KT P6SM BKN020
                       FM222000 21007KT P6SM BKN045 FM222200 21007KT
                       P6SM SCT050=
202207212321 TAF KPWT 212321Z 2200/2224 23005KT P6SM SCT250 FM220900 20007KT
                       P6SM OVC010 FM221800 20007KT P6SM BKN020
                       FM222000 21007KT P6SM BKN045 FM222200 21007KT
                       P6SM SCT050=
202207211728 TAF KPWT 211728Z 2118/2218 20006KT P6SM OVC007 FM211900 21008KT
                       P6SM FEW120 SCT250 FM220900 20007KT P6SM
                       OVC010=
202207211607 KPWT 211607Z 2116/2212 22007KT 5SM BR OVC004 FM211800 22007KT P6SM
                       BKN007 FM211900 21008KT P6SM SCT250 FM220900
                       20007KT P6SM OVC015=
202207211123 TAF KPWT 211123Z 2112/2212 00000KT 3SM BR OVC004
                      TEMPO 2112/2114 3/4SM BR FM211600 VRB03KT
                       P6SM BKN010 FM211900 21008KT P6SM SCT250
                       FM220900 20007KT P6SM OVC015=
202207210520 TAF KPWT 210520Z 2106/2206 06005KT P6SM SCT250 FM211100 00000KT
                       P6SM OVC007 FM211600 VRB03KT P6SM BKN010
                       FM211900 21008KT P6SM SCT250 FM212300 20012KT
                       P6SM SCT250=
202207202320 TAF KPWT 202320Z 2100/2124 06005KT P6SM SKC FM210500 VRB03KT P6SM
                       SKC FM211100 00000KT P6SM OVC007 FM211600
                       VRB03KT P6SM BKN010 FM211800 21006KT P6SM
                       SCT250=
202207201720 TAF KPWT 201720Z 2018/2118 21004KT P6SM SKC FM202300 05004KT P6SM
                       SKC FM210500 VRB03KT P6SM SKC FM211000 00000KT
                       P6SM OVC007=
202207201120 TAF KPWT 201120Z 2012/2112 00000KT P6SM SCT007
                      TEMPO 2013/2017 BKN007 FM201800 20003KT P6SM
                       SKC FM202300 05005KT P6SM SKC FM211000 00000KT
                       P6SM BKN010=
202207200520 TAF KPWT 200520Z 2006/2106 05003KT P6SM SKC FM201300 00000KT P6SM
                       SCT007
                      TEMPO 2013/2017 BKN007 FM201800 20003KT P6SM
                       SKC FM202300 05005KT P6SM SKC=
202207192328 TAF KPWT 192328Z 2000/2024 04006KT P6SM SKC FM200600 19004KT P6SM
                       SKC FM201300 20004KT P6SM SCT007
                      TEMPO 2013/2017 BKN007 FM201800 20003KT P6SM
                       SKC FM202300 03005KT P6SM SKC=
202207191720 TAF KPWT 191720Z 1918/2018 04006KT P6SM SKC FM200600 19004KT P6SM
                       SKC FM201300 20004KT P6SM SCT007
                      TEMPO 2013/2017 BKN007=
202207191120 TAF KPWT 191120Z 1912/2012 07005KT P6SM SKC FM191800 05005KT P6SM
                       SKC=
202207190520 TAF KPWT 190520Z 1906/2006 00000KT P6SM SKC FM191200 VRB03KT P6SM
                       SCT015
                      TEMPO 1912/1916 BKN015 FM191800 05005KT P6SM
                       SKC=
202207182320 TAF KPWT 182320Z 1900/1924 05006KT P6SM BKN035 FM190200 03005KT
                       P6SM FEW040 FM191200 VRB03KT P6SM SCT015
                       TEMPO 1912/1916 BKN015 FM191800 05005KT
                       P6SM FEW040=
202207182105 KPWT 182105Z 1821/1918 19003KT P6SM SCT028 BKN040
                      TEMPO 1821/1823 OVC028 FM182300 21005KT P6SM
                       SCT030 SCT050 FM190100 03005KT P6SM FEW250=
202207181720 TAF KPWT 181720Z 1818/1918 23006KT P6SM BKN012 OVC020 FM182000
                       21005KT P6SM FEW020 SCT050 FM190000 03005KT
                       P6SM FEW250=
202207181411 KPWT 181411Z 1814/1912 20004KT P6SM SCT006 BKN020 OVC060
                      TEMPO 1814/1816 BKN006 OVC030 FM182000 21003KT
                       P6SM SCT050 FM190000 03005KT P6SM FEW250=
202207181206 KPWT 181206Z 1812/1912 19004KT P6SM VCSH OVC008 FM181400 20005KT
                       P6SM BKN015 OVC020 FM181600 20005KT P6SM
                       OVC020 FM182000 21003KT P6SM SCT050 FM190000
                       03005KT P6SM FEW250=
202207181120 TAF KPWT 181120Z 1812/1912 19004KT P6SM VCSH SCT020 BKN060
                      TEMPO 1812/1813 BKN020 FM181300 20005KT P6SM
                       OVC020 FM182000 21003KT P6SM SCT050 FM190000
                       03005KT P6SM FEW250=
202207180904 KPWT 180904Z 1809/1906 VRB03KT P6SM VCSH FEW030 BKN040 FM181100
                       20003KT P6SM OVC015 FM182000 21003KT P6SM
                       SCT050 FM182300 03005KT P6SM FEW150=
202207180521 TAF KPWT 180521Z 1806/1906 06003KT P6SM VCSH FEW035 BKN040 FM180800
                       VRB03KT P6SM BKN040 FM181100 20003KT P6SM
                       OVC015 FM182000 21003KT P6SM SCT050 FM182300
                       03005KT P6SM FEW150=
202207172339 TAF KPWT 172339Z 1800/1824 04005KT P6SM BKN060 FM181100 24001KT
                       P6SM OVC010 FM182000 21003KT P6SM BKN050=
202207171727 TAF KPWT 171727Z 1718/1818 05004KT P6SM VCSH OVC035
                      TEMPO 1718/1720 BKN025 FM172100 04005KT P6SM
                       BKN050 FM181100 24001KT P6SM OVC030=
202207171120 TAF KPWT 171120Z 1712/1812 05004KT P6SM VCSH OVC035
                      TEMPO 1712/1715 -RA FM172100 04005KT P6SM
                       BKN050 FM180900 18008KT P6SM OVC050=
202207170902 KPWT 170902Z 1709/1806 05003KT P6SM OVC030 FM171200 19004KT P6SM
                       OVC030 FM172100 20005KT P6SM BKN050=
202207170520 TAF KPWT 170520Z 1706/1806 06006KT P6SM BKN030 BKN060 FM171200
                       19004KT P6SM OVC030 FM172100 20005KT P6SM
                       BKN050=
202207162324 TAF KPWT 162324Z 1700/1724 20007KT P6SM BKN050 FM171200 19002KT
                       P6SM OVC020 FM171500 19003KT P6SM BKN050=
202207161732 TAF KPWT 161732Z 1618/1718 22005KT P6SM BKN050
                      TEMPO 1618/1619 BKN030 FM161900 21007KT P6SM
                       BKN050 FM171000 17005KT P6SM OVC020 FM171500
                       19003KT P6SM BKN050=
202207161344 KPWT 161344Z 1614/1712 19003KT P6SM FEW010 OVC030
                      TEMPO 1614/1617 BKN010 FM161700 20003KT P6SM
                       BKN035 FM161900 21007KT P6SM BKN050 FM170800
                       17005KT P6SM OVC020=
202207161122 TAF KPWT 161122Z 1612/1712 19003KT P6SM OVC008 FM161700 20003KT
                       P6SM BKN020 FM161900 21007KT P6SM BKN050
                       FM170800 17005KT P6SM OVC020=
202207161001 KPWT 161001Z 1610/1706 19003KT P6SM OVC007 FM161700 20003KT P6SM
                       OVC020 FM161900 21007KT P6SM BKN050=
202207160520 TAF KPWT 160520Z 1606/1706 19006KT P6SM BKN050 FM160900 19003KT
                       P6SM OVC015 FM161700 20003KT P6SM OVC020
                       FM161900 21007KT P6SM BKN050=
202207152321 TAF KPWT 152321Z 1600/1624 23014G17KT P6SM SKC FM160400 19003KT
                       P6SM BKN070 FM160900 VRB03KT P6SM OVC015
                       FM161500 20003KT P6SM OVC020 FM162000 21007KT
                       P6SM SCT050=
202207151731 TAF KPWT 151731Z 1518/1618 19008KT P6SM SKC FM152000 20010KT P6SM
                       BKN100 FM160400 19003KT P6SM BKN070 FM160900
                       VRB03KT P6SM OVC015=
202207151454 KPWT 151454Z 1515/1612 21007KT P6SM SKC FM152000 20010KT P6SM BKN040
                       FM160400 VRB03KT P6SM OVC030 FM160900 VRB03KT
                       P6SM OVC015=
202207151120 TAF KPWT 151120Z 1512/1612 19005KT P6SM SCT004
                      TEMPO 1512/1516 BKN004 FM151700 21004KT P6SM
                       SKC FM152000 20010KT P6SM BKN040 FM160400
                       VRB03KT P6SM OVC030 FM160900 VRB03KT P6SM
                       OVC015=
202207150520 TAF KPWT 150520Z 1506/1606 VRB03KT P6SM SKC FM151300 19008KT P6SM
                       BKN004 FM151700 21004KT P6SM SKC FM152000
                       20008KT P6SM BKN040 FM160400 VRB03KT P6SM
                       OVC030=
202207142320 TAF KPWT 142320Z 1500/1524 27006KT P6SM SCT250 FM150600 VRB03KT
                       P6SM SKC FM151300 19008KT P6SM BKN004 FM151700
                       21004KT P6SM SKC=
202207141732 TAF KPWT 141732Z 1418/1518 VRB04KT P6SM SCT250 FM150600 VRB03KT
                       P6SM SKC=
202207141120 TAF KPWT 141120Z 1412/1512 VRB03KT P6SM SCT010 SCT200
                      TEMPO 1412/1416 2SM BR OVC007 FM141700 21005KT
                       P6SM SCT200 FM150000 18007KT P6SM SKC FM150600
                       VRB03KT P6SM SKC=
202207140520 TAF KPWT 140520Z 1406/1506 03005KT P6SM SCT200 FM140700 VRB03KT
                       P6SM SCT010 SCT200 FM141700 19005KT P6SM
                       SCT200 FM150000 15008KT P6SM SCT200=
202207132320 TAF KPWT 132320Z 1400/1424 03005KT P6SM SCT200 FM140500 VRB03KT
                       P6SM SCT200 FM141300 18004KT P6SM BKN008
                       FM141700 20005KT P6SM FEW010 SCT200=
202207131721 TAF KPWT 131721Z 1318/1418 VRB04KT P6SM SCT017 SCT200
                      TEMPO 1318/1320 BKN015 FM132100 03005KT P6SM
                       SCT200 FM140500 VRB03KT P6SM SCT200 FM141200
                       18004KT P6SM BKN008=
202207131120 TAF KPWT 131120Z 1312/1412 VRB03KT P6SM SCT015
                      TEMPO 1312/1316 OVC007 FM131800 22004KT P6SM
                       SCT015 BKN250 FM132100 03006KT P6SM SCT250
                       FM140500 VRB03KT P6SM SKC=
202207130523 TAF KPWT 130523Z 1306/1406 VRB03KT P6SM SKC FM131100 VRB03KT P6SM
                       OVC007 FM131800 22004KT P6SM SCT010 BKN250
                       FM132100 20005KT P6SM SCT250=
202207122333 TAF KPWT 122333Z 1300/1324 VRB03KT P6SM SKC FM131800 03006KT P6SM
                       SKC=
202207121720 TAF KPWT 121720Z 1218/1318 03006KT P6SM SKC FM130600 VRB03KT P6SM
                       SKC=
202207121120 TAF KPWT 121120Z 1212/1312 VRB03KT P6SM SKC FM121900 15006KT P6SM
                       SKC FM130000 10009KT P6SM SCT250 FM130400
                       14005KT P6SM SCT250 FM130800 18006KT P6SM
                       BKN250=
202207120520 TAF KPWT 120520Z 1206/1306 VRB03KT P6SM SKC FM121900 15006KT P6SM
                       SKC FM130000 10009KT P6SM SKC FM130400 14007KT
                       P6SM SKC=
202207112329 TAF KPWT 112329Z 1200/1224 04008KT P6SM SKC FM120700 VRB05KT P6SM
                       SKC FM121500 05002KT P6SM SKC=
202207111723 TAF KPWT 111723Z 1118/1218 04008KT P6SM SKC FM120700 VRB05KT P6SM
                       SKC FM121400 04002KT P6SM SKC=
202207111121 TAF KPWT 111121Z 1112/1212 07005KT P6SM SKC FM111700 03007KT P6SM
                       SKC FM120600 07004KT P6SM SKC=
202207110537 TAF KPWT 110537Z 1106/1206 00000KT P6SM SKC FM111700 03007KT P6SM
                       SKC=
202207102321 TAF KPWT 102321Z 1100/1124 VRB03KT P6SM SCT045 FM110300 VRB04KT
                       P6SM SKC FM111400 05006KT P6SM BKN250=
202207101736 TAF KPWT 101736Z 1018/1118 VRB03KT P6SM OVC015 FM102000 20005KT
                       P6SM BKN035 FM110300 VRB04KT P6SM SKC FM111400
                       06006KT P6SM BKN250=
202207101131 TAF KPWT 101131Z 1012/1112 00000KT P6SM OVC012 FM101700 20005KT
                       P6SM BKN020 FM101900 01006KT P6SM BKN050
                       FM110300 03005KT P6SM SKC=
202207101037 KPWT 101037Z 1011/1106 00000KT P6SM OVC015 FM101800 20005KT P6SM
                       BKN020 BKN080 FM102000 01006KT P6SM BKN080
                       FM110100 03005KT P6SM SCT080=
202207100523 TAF KPWT 100523Z 1006/1106 00000KT P6SM SCT060 SCT120 FM100700
                       20006KT P6SM BKN120 FM101200 20005KT P6SM
                       OVC007 FM101800 20005KT P6SM BKN020 BKN080
                       FM102000 01006KT P6SM BKN080 FM110100 03005KT
                       P6SM SCT080=
202207100256 KPWT 100256Z 1003/1024 23008KT P6SM FEW050 BKN150 FM100700 20006KT
                       P6SM BKN120 FM101200 20005KT P6SM OVC007
                       FM101800 20005KT P6SM BKN020 BKN080 FM102200
                       01006KT P6SM BKN080=
202207092322 TAF KPWT 092322Z 1000/1024 23008KT P6SM SCT050 BKN200 FM100400
                       19008KT P6SM BKN070 FM101300 20005KT P6SM
                       BKN007 BKN060 FM101800 20005KT P6SM BKN050=
202207091739 TAF KPWT 091739Z 0918/1018 VRB03KT P6SM SCT050 BKN200 FM092300
                       23008G15KT P6SM SCT070 BKN250 FM101000 20005KT
                       P6SM BKN007 BKN060 FM101700 20003KT P6SM
                       BKN015=
202207091120 TAF KPWT 091120Z 0912/1012 00000KT P6SM FEW004 BKN050
                      TEMPO 0912/0916 BKN004 BKN050 FM091800 21007KT
                       P6SM BKN070 FM100000 22009KT P6SM SCT070
                       FM101000 20005KT P6SM BKN007 BKN060=
202207090523 TAF KPWT 090523Z 0906/1006 06005KT P6SM FEW050 FM091100 18004KT
                       P6SM BKN013 FM091300 17003KT P6SM OVC004
                       FM091600 21004KT P6SM BKN015 FM091800 21007KT
                       P6SM BKN070 FM100000 22009KT P6SM SCT070=
202207082320 TAF KPWT 082320Z 0900/0924 21007KT P6SM SKC FM090300 VRB04KT P6SM
                       SCT120 SCT200 FM091100 18004KT P6SM BKN013
                       FM091300 17003KT P6SM OVC004 FM091600 21004KT
                       P6SM BKN015=
202207081722 TAF KPWT 081722Z 0818/0918 20005KT P6SM SCT016 BKN060 BKN120
                      TEMPO 0818/0820 BKN015 BKN060 FM082200 20007KT
                       P6SM BKN100 BKN200 FM090300 07005KT P6SM
                       SCT120 SCT200 FM091100 18004KT P6SM BKN013=
202207081120 TAF KPWT 081120Z 0812/0912 00000KT P6SM OVC010 FM081800 20005KT
                       P6SM BKN060 BKN120 FM082200 20007KT P6SM
                       SCT100 BKN200 FM090300 07005KT P6SM SCT200
                       FM091100 18004KT P6SM BKN013=
202207080522 TAF KPWT 080522Z 0806/0906 00000KT P6SM FEW040 SCT080 FM080900
                       19003KT P6SM SCT010 BKN050
                      TEMPO 0811/0815 BKN009 FM081800 20005KT P6SM
                       BKN060 BKN120 FM082200 20007KT P6SM SCT100
                       BKN200 FM090300 07005KT P6SM BKN100=
202207072321 TAF KPWT 072321Z 0800/0824 VRB04KT P6SM SCT050 BKN120 FM080900
                       19003KT P6SM SCT010 BKN050
                      TEMPO 0811/0815 BKN009 FM081800 20005KT P6SM
                       BKN060 BKN120 FM082200 20007KT P6SM SCT100
                       BKN200=
202207071725 TAF KPWT 071725Z 0718/0818 23004KT P6SM SCT030 BKN100 FM072100
                       21005KT P6SM SCT050 BKN100 FM080000 VRB03KT
                       P6SM SCT050 BKN100 FM080900 19003KT P6SM
                       SCT010 BKN050=
202207071432 KPWT 071432Z 0715/0812 22004KT P6SM OVC005
                      TEMPO 0715/0718 SCT005 BKN050 FM071800 20003KT
                       P6SM OVC050 FM072100 21005KT P6SM SCT050
                       BKN100 FM080000 VRB03KT P6SM SCT050 BKN100
                       FM080900 19003KT P6SM BKN010 BKN050=
202207071127 TAF KPWT 071127Z 0712/0812 21003KT P6SM OVC005 FM071700 21003KT
                       P6SM OVC010 FM071900 20003KT P6SM OVC050
                       FM072100 21005KT P6SM SCT050 BKN100 FM080000
                       VRB03KT P6SM SCT050 BKN100 FM080900 19003KT
                       P6SM BKN010 BKN050=
202207071004 KPWT 071004Z 0710/0806 22003KT P6SM OVC005 FM071700 21003KT P6SM
                       OVC010 FM071900 20003KT P6SM OVC050 FM072100
                       21005KT P6SM SCT050 BKN100 FM080000 VRB03KT
                       P6SM SCT050 BKN100=
202207070522 TAF KPWT 070522Z 0706/0806 19004KT P6SM BKN045 OVC100 FM071100
                       00000KT P6SM OVC010 FM071900 20003KT P6SM
                       OVC050 FM072100 21005KT P6SM SCT050 BKN100
                       FM080000 VRB03KT P6SM SCT050 BKN100=
202207062322 TAF KPWT 062322Z 0700/0724 21007KT P6SM SCT025 OVC060 FM070300
                       19004KT P6SM OVC050 FM071100 20003KT P6SM
                       OVC020=
202207061727 TAF KPWT 061727Z 0618/0718 22004KT P6SM VCSH BKN050 OVC070 FM062100
                       20004KT P6SM SCT025 BKN070 FM070300 19004KT
                       P6SM OVC050 FM071000 20003KT P6SM OVC030=
202207061139 TAF KPWT 061139Z 0612/0712 00000KT P6SM VCSH SCT050 FM061300 00000KT
                       P6SM VCSH OVC025 FM062100 20004KT P6SM VCSH
                       SCT025 OVC040 FM070000 19004KT P6SM OVC050=
202207060535 TAF KPWT 060535Z 0606/0706 22002KT P6SM VCSH SCT050 FM060700 00000KT
                       P6SM OVC050 FM061100 00000KT 6SM BR OVC025=
202207052321 TAF KPWT 052321Z 0600/0624 22002KT P6SM VCSH OVC070 FM060700 00000KT
                       P6SM OVC050 FM061100 00000KT 6SM BR OVC025=
202207051720 TAF KPWT 051720Z 0518/0618 VRB04KT P6SM BKN250 FM060000 22002KT
                       P6SM OVC070 FM060600 00000KT P6SM OVC100
                       FM061100 00000KT 6SM BR OVC025=
202207051500 KPWT 051500Z 0515/0612 05006KT P6SM SCT020 BKN100 FM051600 VRB02KT
                       P6SM SCT035 OVC100 FM060000 22002KT P6SM
                       OVC050 FM060600 00000KT P6SM OVC100 FM061100
                       00000KT 6SM BR OVC025=
202207051316 KPWT 051316Z 0513/0612 05006KT 1SM BR SCT020 BKN100 FM051600 VRB02KT
                       P6SM SCT035 OVC100 FM060000 22002KT P6SM
                       OVC050 FM060600 00000KT P6SM OVC100 FM061100
                       00000KT 6SM BR OVC025=
202207051138 TAF KPWT 051138Z 0512/0612 05006KT 6SM BR SCT020 BKN100 FM051600
                       VRB02KT P6SM SCT035 OVC100 FM060000 22002KT
                       P6SM OVC050 FM060600 00000KT P6SM OVC100
                       FM061100 00000KT 6SM BR OVC025=
202207050520 TAF KPWT 050520Z 0506/0606 05006KT P6SM SCT020 BKN100 FM051400
                       00000KT P6SM BKN015 FM051600 VRB02KT P6SM
                       SCT035 BKN250=
202207042329 TAF KPWT 042329Z 0500/0524 25005KT P6SM SCT020 BKN040 FM050400
                       VRB02KT P6SM SCT020 BKN100 FM051400 00000KT
                       P6SM BKN015 FM051600 VRB02KT P6SM SCT035
                       BKN250=
202207041740 TAF KPWT 041740Z 0418/0518 19005KT P6SM VCSH SCT015 OVC025 FM042000
                       20005KT P6SM SCT020 BKN040 FM050400 00000KT
                       P6SM BKN020 BKN100 FM051300 00000KT P6SM
                       BKN015 FM051500 00000KT P6SM BKN035=
202207041303 KPWT 041303Z 0413/0512 19003KT P6SM VCSH SCT010 OVC025 FM042000
                       20005KT P6SM SCT010 OVC030 FM050400 00000KT
                       P6SM BKN020 BKN100=
202207041137 TAF KPWT 041137Z 0412/0512 19003KT P6SM VCSH SCT010 OVC020 FM041300
                       20004KT P6SM OVC010 FM042000 20005KT P6SM
                       SCT010 OVC030 FM050400 00000KT P6SM BKN020
                       BKN100=
202207040901 TAF AMD KPWT 040901Z 0409/0506 19003KT P6SM VCSH OVC025 FM041100
                       00000KT 6SM BR OVC007 FM041700 20004KT P6SM
                       OVC010 FM042000 20005KT P6SM SCT010 OVC030=
202207040535 TAF KPWT 040535Z 0406/0506 17003KT P6SM VCSH OVC015 FM040900 00000KT
                       6SM BR OVC007 FM041700 20004KT P6SM OVC010
                       FM042000 20005KT P6SM SCT010 OVC030=
202207040258 KPWT 040258Z 0403/0424 19004KT P6SM VCSH OVC025
                      TEMPO 0403/0404 -SHRA FM040900 00000KT 6SM
                       BR OVC007 FM041700 20004KT P6SM OVC010 FM042000
                       20005KT P6SM SCT010 OVC030=
202207032320 TAF KPWT 032320Z 0400/0424 20006KT P6SM VCSH OVC020 FM040300 VRB03KT
                       P6SM OVC030 FM040900 00000KT 6SM BR OVC007
                       FM041700 20004KT P6SM OVC010 FM042000 20005KT
                       P6SM SCT010 OVC030=
202207031720 TAF KPWT 031720Z 0318/0418 20004KT P6SM VCSH OVC010 FM032000 20006KT
                       P6SM VCSH OVC015 FM040300 20003KT P6SM OVC035
                       FM040900 00000KT 6SM BR OVC007 FM041700
                       VRB03KT P6SM OVC010=
202207031139 TAF KPWT 031139Z 0312/0412 19005KT P6SM OVC008 FM031300 20004KT
                       P6SM VCSH OVC005 FM032000 20006KT P6SM VCSH
                       OVC015 FM040300 20003KT P6SM OVC035 FM040900
                       00000KT 6SM BR OVC007=
202207030956 KPWT 030956Z 0310/0406 19005KT P6SM OVC008 FM031300 20004KT P6SM
                       VCSH OVC005 FM032000 20006KT P6SM VCSH OVC015=
202207030540 TAF KPWT 030540Z 0306/0406 19004KT P6SM BKN025 FM030900 19005KT
                       P6SM SCT007 OVC010 FM031300 20004KT P6SM
                       VCSH OVC005 FM032000 20006KT P6SM VCSH OVC015=
202207030257 KPWT 030257Z 0303/0324 19004KT P6SM BKN025 FM030900 19005KT P6SM
                       SCT007 OVC010 FM031300 20004KT P6SM VCSH
                       OVC005 FM032000 20006KT P6SM VCSH OVC015=
202207022320 TAF KPWT 022320Z 0300/0324 20005KT P6SM SCT030 BKN250 FM030600
                       VRB04KT P6SM OVC025 FM030900 19005KT P6SM
                       OVC010 FM032000 20006KT P6SM VCSH OVC015=
202207021722 TAF KPWT 021722Z 0218/0318 00000KT P6SM OVC007 FM022200 VRB03KT
                       P6SM SCT010 BKN035 FM030000 04005KT P6SM
                       SCT030 BKN250 FM030900 19005KT P6SM OVC010=
202207021120 TAF KPWT 021120Z 0212/0312 00000KT P6SM OVC005
                      TEMPO 0215/0218 2SM BR OVC002 FM021900 VRB03KT
                       P6SM SCT010 BKN035 FM022200 04005KT P6SM
                       SCT030 BKN250 FM030900 19005KT P6SM OVC010=
202207021018 KPWT 021018Z 0210/0306 00000KT 2SM BR OVC002 FM021900 VRB03KT P6SM
                       SCT009 BKN035 FM022200 04005KT P6SM SCT030
                       BKN250=
202207020520 TAF KPWT 020520Z 0206/0306 VRB03KT P6SM SCT250 FM020900 00000KT
                       6SM BR OVC007 FM021900 VRB03KT P6SM SCT009
                       BKN035 FM022200 04005KT P6SM SCT030 BKN250=
202207020254 KPWT 020254Z 0203/0224 23008KT P6SM SCT250 FM020600 VRB03KT P6SM
                       SCT250 FM020900 00000KT 6SM BR OVC004 FM021800
                       VRB03KT P6SM SCT009 BKN020 FM022100 04005KT
                       P6SM SCT030 BKN250=
202207012320 TAF KPWT 012320Z 0200/0224 23004KT P6SM SCT250 FM020600 VRB03KT
                       P6SM SCT050 SCT250 FM020900 VRB04KT 6SM
                       BR OVC008 FM021800 01004KT P6SM SCT010 BKN030
                       FM022100 04005KT P6SM SCT030 BKN100=
202207011731 TAF KPWT 011731Z 0118/0218 23004KT P6SM FEW005 SCT040 SCT250 FM012200
                       03006KT P6SM SCT250 FM020900 VRB04KT 6SM
                       BR OVC008=
202207011319 KPWT 011319Z 0113/0212 23004KT P6SM SCT004
                      TEMPO 0113/0116 1/2SM FG BKN003 FM011700
                       20003KT P6SM FEW005 SCT040 SCT250 FM012200
                       03006KT P6SM SCT250 FM020900 17007KT 6SM
                       BR OVC008=
202207011141 TAF KPWT 011141Z 0112/0212 VRB03KT P6SM SCT004
                      TEMPO 0113/0116 4SM BR BKN003 FM011700 20003KT
                       P6SM FEW005 SCT040 SCT250 FM012200 03006KT
                       P6SM SCT250 FM020900 17007KT 6SM BR OVC008=
202207010541 TAF KPWT 010541Z 0106/0206 03006KT P6SM SKC FM011200 VRB03KT P6SM
                       BKN020 FM011600 20003KT P6SM SCT040 SCT250
                       FM012200 19008KT P6SM SCT250=
202207010255 KPWT 010255Z 0103/0124 03007KT P6SM FEW050 FM010600 VRB03KT P6SM
                       SKC FM011200 VRB03KT P6SM BKN020 FM011600
                       20003KT P6SM SCT040 SCT250=