##########################################################
# Query made at 02/16/2025 01:07:57 UTC
# Time interval: from 10/01/2022 00:00  to 10/31/2022 23:59  UTC
##########################################################

##########################################################
# KPWT, Bremerton National Automatic Weather Observing / Reporting System (United States)
# WMO index: -----. WIGOS ID: Unknown
# Latitude 47-30N. Longitude 122-45W. Altitude 147 m.
##########################################################

###################################
#  METAR/SPECI from KPWT
###################################
202210312356 METAR KPWT 312356Z AUTO 26004KT 10SM BKN080 11/07 A2984 RMK AO2 SLP110 6//// T01110067 10133 20100 53005=
202210312256 METAR KPWT 312256Z AUTO 21008KT 10SM CLR 12/07 A2983 RMK AO2 SLP107 T01170072=
202210312156 METAR KPWT 312156Z AUTO 20007KT 10SM FEW022 SCT080 12/08 A2983 RMK AO2 SLP104 T01170083=
202210312056 METAR KPWT 312056Z AUTO 19008KT 10SM CLR 13/09 A2983 RMK AO2 SLP105 T01280089 51013=
202210311956 METAR KPWT 311956Z AUTO VRB03KT 10SM CLR 11/09 A2983 RMK AO2 SLP104 T01110094=
202210311856 METAR KPWT 311856Z AUTO 20012G20KT 10SM CLR 10/09 A2982 RMK AO2 SLP101 T01000089=
202210311756 METAR KPWT 311756Z AUTO 20013G22KT 10SM CLR 11/10 A2979 RMK AO2 SLPNO 60008 T01060100 10117 20100 53006=
202210311732 SPECI KPWT 311732Z AUTO 20014G22KT 10SM SCT007 11/11 A2978 RMK AO2=
202210311656 METAR KPWT 311656Z AUTO 21014G22KT 10SM BKN007 12/12 A2978 RMK AO2 CIG 005V009 SLPNO T01170117=
202210311556 METAR KPWT 311556Z AUTO 19013G18KT 10SM OVC005 12/12 A2977 RMK AO2 RAE41 CIG 004V009 SLP086 P0001 T01170117=
202210311456 METAR KPWT 311456Z AUTO 20013G21KT 10SM -RA OVC005 11/11 A2977 RMK AO2 RAE24B48 SLP087 P0000 60007 T01110111 56016=
202210311446 SPECI KPWT 311446Z AUTO 20011G19KT 10SM OVC005 12/11 A2977 RMK AO2 RAE24 CIG 003V010 P0000=
202210311356 METAR KPWT 311356Z AUTO 20012G17KT 10SM -RA OVC003 11/11 A2978 RMK AO2 SLP088 P0004 T01110111=
202210311301 SPECI KPWT 311301Z AUTO 23010G14KT 10SM -RA BKN003 BKN012 11/11 A2980 RMK AO2 P0000=
202210311256 METAR KPWT 311256Z AUTO 21009KT 10SM -RA SCT005 BKN012 BKN017 11/11 A2981 RMK AO2 SLP099 P0003 T01110111=
202210311252 SPECI KPWT 311252Z AUTO 21010KT 10SM -RA FEW005 BKN012 11/11 A2981 RMK AO2 P0003=
202210311233 SPECI KPWT 311233Z AUTO 19011G16KT 10SM -RA SCT005 SCT010 11/11 A2980 RMK AO2 P0003=
202210311227 SPECI KPWT 311227Z AUTO 19009G15KT 10SM -RA BKN005 BKN010 11/11 A2981 RMK AO2 CIG 002V007 P0002=
202210311212 SPECI KPWT 311212Z AUTO 18007KT 10SM -RA BKN003 OVC008 11/11 A2982 RMK AO2 P0002=
202210311203 SPECI KPWT 311203Z AUTO 18007KT 10SM -RA OVC005 10/10 A2982 RMK AO2 CIG 002V007 P0001=
202210311156 METAR KPWT 311156Z AUTO 20005KT 10SM -RA BKN003 OVC009 10/10 A2982 RMK AO2 RAE1059B20 SLP103 P0000 60077 70194 T01000100 10111 20089 56012=
202210311136 SPECI KPWT 311136Z AUTO 18007KT 150V220 10SM -RA OVC009 09/09 A2983 RMK AO2 RAE1059B20 CIG 004V014 P0000=
202210311114 SPECI KPWT 311114Z AUTO 00000KT 10SM BKN013 OVC019 09/09 A2984 RMK AO2 RAE1059 P0000=
202210311056 METAR KPWT 311056Z AUTO 15006KT 10SM -RA BKN015 BKN050 09/09 A2984 RMK AO2 SLP112 P0000 T00890089=
202210310956 METAR KPWT 310956Z AUTO 11006KT 10SM -RA OVC017 09/09 A2986 RMK AO2 SLP116 P0006 T00940089=
202210310904 SPECI KPWT 310904Z AUTO 05009KT 5SM RA BR OVC015 09/09 A2988 RMK AO2 P0002=
202210310856 METAR KPWT 310856Z AUTO 05008G14KT 5SM RA BR FEW006 OVC012 09/09 A2988 RMK AO2 SLP122 P0020 60071 T00940094 55002=
202210310852 SPECI KPWT 310852Z AUTO 05009G14KT 4SM RA BR SCT006 OVC012 09/09 A2987 RMK AO2 P0019=
202210310837 SPECI KPWT 310837Z AUTO 05008KT 6SM RA BR BKN006 BKN010 09/09 A2987 RMK AO2 CIG 004V009 P0012=
202210310828 SPECI KPWT 310828Z AUTO 07006KT 6SM RA BR BKN004 10/10 A2987 RMK AO2 P0010=
202210310816 SPECI KPWT 310816Z AUTO 07008KT 4SM RA BR SCT004 11/11 A2986 RMK AO2 P0007=
202210310756 METAR KPWT 310756Z AUTO 00000KT 3SM +RA BR OVC004 11/11 A2987 RMK AO2 SLP118 P0024 T01110111 401110089=
202210310656 METAR KPWT 310656Z AUTO 22007KT 4SM +RA BR OVC004 11/11 A2988 RMK AO2 CIG 003V008 SLP124 P0027 T01110111=
202210310556 METAR KPWT 310556Z AUTO 21010KT 6SM RA OVC004 A2989 RMK AO2 SLPNO P0012 60052 56017 FZRANO=
202210310456 METAR KPWT 310456Z AUTO 20013KT 8SM -RA OVC004 A2991 RMK AO2 SLPNO P0009 FZRANO=
202210310356 METAR KPWT 310356Z AUTO 20010G18KT 8SM -RA OVC004 11/11 A2992 RMK AO2 SLP138 P0006 T01110111=
202210310256 METAR KPWT 310256Z AUTO 20013G20KT 10SM -RA OVC004 11/11 A2994 RMK AO2 SLP146 P0011 60025 T01110111 56016=
202210310156 METAR KPWT 310156Z AUTO 20011G20KT 10SM -RA OVC004 11/11 A2995 RMK AO2 SLP148 P0002 T01060106=
202210310056 METAR KPWT 310056Z AUTO 20015G23KT 4SM -RA BR OVC004 11/11 A2997 RMK AO2 SLP153 P0012 T01060106=
202210310037 SPECI KPWT 310037Z AUTO 19015G23KT 3SM -RA BR OVC004 11/11 A2997 RMK AO2 P0009=
202210310025 SPECI KPWT 310025Z AUTO 20013G23KT 2 1/2SM -RA BR OVC004 11/11 A2998 RMK AO2 VIS 1 3/4V3 P0007=
202210310013 SPECI KPWT 310013Z AUTO 21012G21KT 3SM -RA BR OVC004 11/11 A2999 RMK AO2 P0004=
202210302356 METAR KPWT 302356Z AUTO 20012G20KT 2 1/2SM -RA BR OVC004 11/11 A2999 RMK AO2 VIS 2V4 SLP162 P0014 60054 T01060106 10106 20094 56019=
202210302344 SPECI KPWT 302344Z AUTO 20013G20KT 3SM -RA BR OVC004 11/11 A3000 RMK AO2 P0011=
202210302256 METAR KPWT 302256Z AUTO 20012G18KT 4SM RA BR OVC006 11/11 A3003 RMK AO2 CIG 004V009 SLP174 P0012 T01060106=
202210302156 METAR KPWT 302156Z AUTO 19012G17KT 4SM RA BR OVC006 11/11 A3005 RMK AO2 CIG 004V008 SLP182 P0011 T01060106=
202210302056 METAR KPWT 302056Z AUTO 19007KT 4SM -RA BR OVC006 11/11 A3007 RMK AO2 CIG 004V008 SLP189 P0006 60017 T01060106 58020=
202210301956 METAR KPWT 301956Z AUTO 18010KT 4SM -RA BR BKN006 OVC010 11/11 A3010 RMK AO2 CIG 003V007 SLP199 P0006 T01060106=
202210301856 METAR KPWT 301856Z AUTO 19007KT 3SM -RA BR OVC006 10/09 A3013 RMK AO2 CIG 004V010 SLP208 P0005 T01000094=
202210301756 METAR KPWT 301756Z AUTO 19009G16KT 5SM -RA BR BKN006 OVC012 09/09 A3013 RMK AO2 CIG 004V008 SLP210 P0003 60011 T00940089 10094 20089 56008=
202210301723 SPECI KPWT 301723Z AUTO 19012G16KT 5SM -RA BR OVC006 09/09 A3014 RMK AO2 CIG 004V009 P0002=
202210301656 METAR KPWT 301656Z AUTO 19010KT 5SM -RA BR OVC004 09/09 A3014 RMK AO2 SLP211 P0006 T00890089=
202210301556 METAR KPWT 301556Z AUTO 19009KT 6SM -RA BR BKN006 BKN011 OVC020 09/09 A3014 RMK AO2 CIG 005V009 SLP212 P0001 T00890089=
202210301517 SPECI KPWT 301517Z AUTO 19009KT 8SM -RA BKN008 OVC012 09/09 A3015 RMK AO2 CIG 006V010 P0001=
202210301456 METAR KPWT 301456Z AUTO 21008KT 10SM -RA BKN012 BKN017 OVC025 09/08 A3016 RMK AO2 SLP217 P0000 60001 T00890083 58008=
202210301356 METAR KPWT 301356Z AUTO 20006KT 10SM -RA OVC020 09/08 A3017 RMK AO2 RAB27 SLP221 P0001 T00890083=
202210301256 METAR KPWT 301256Z AUTO 21009KT 10SM BKN024 BKN029 OVC036 09/08 A3018 RMK AO2 SLP226 T00890078=
202210301156 METAR KPWT 301156Z AUTO 19007KT 10SM BKN015 OVC023 09/08 A3018 RMK AO2 SLP226 T00940078 10106 20089 58010=
202210301141 SPECI KPWT 301141Z AUTO 19007KT 10SM FEW013 BKN025 OVC036 09/08 A3019 RMK AO2=
202210301056 METAR KPWT 301056Z AUTO 20012KT 10SM SCT120 09/08 A3020 RMK AO2 SLP230 T00940083=
202210300956 METAR KPWT 300956Z AUTO 21012KT 10SM CLR 09/08 A3020 RMK AO2 SLP233 T00940078=
202210300856 METAR KPWT 300856Z AUTO 20012KT 10SM CLR 09/08 A3021 RMK AO2 SLP237 T00940078 58004=
202210300756 METAR KPWT 300756Z AUTO 20008KT 10SM CLR 10/08 A3022 RMK AO2 SLP239 T01000083 401280033=
202210300656 METAR KPWT 300656Z AUTO 19007G14KT 10SM CLR 10/08 A3022 RMK AO2 SLP240 T01000083=
202210300556 METAR KPWT 300556Z AUTO 19008KT 10SM OVC110 11/08 A3023 RMK AO2 SLP241 T01060083 10117 20094=
202210300456 METAR KPWT 300456Z AUTO 20008KT 10SM CLR 11/08 A3022 RMK AO2 SLP239 T01060083=
202210300356 METAR KPWT 300356Z AUTO 19006KT 10SM CLR 10/08 A3023 RMK AO2 SLP240 T01000078=
202210300256 METAR KPWT 300256Z AUTO 21007KT 10SM CLR 09/08 RMK AO2 SLPNO T00940078 $=
202210300156 METAR KPWT 300156Z AUTO 17004KT 10SM CLR 11/08 A3024 RMK AO2 SLP246 T01060078=
202210300056 METAR KPWT 300056Z AUTO 19007KT 10SM CLR 11/08 A3024 RMK AO2 SLP246 T01110078=
202210292356 METAR KPWT 292356Z AUTO 18004KT 10SM CLR 12/09 A3026 RMK AO2 SLP251 T01170089 10128 20083 56012=
202210292256 METAR KPWT 292256Z AUTO 19006KT 10SM CLR 12/09 A3027 RMK AO2 SLP255 T01220089=
202210292156 METAR KPWT 292156Z AUTO 20008KT 10SM CLR 12/09 A3027 RMK AO2 SLP256 T01220094=
202210292056 METAR KPWT 292056Z AUTO 19006KT 10SM SCT008 11/09 A3029 RMK AO2 SLP263 T01060094 56008=
202210292040 SPECI KPWT 292040Z AUTO 20006KT 10SM BKN006 10/09 A3030 RMK AO2 CIG 005V010=
202210291956 METAR KPWT 291956Z AUTO 20006KT 10SM OVC004 09/09 A3030 RMK AO2 SLP267 T00940094=
202210291951 SPECI KPWT 291951Z AUTO 18005KT 10SM OVC004 09/09 A3031 RMK AO2=
202210291856 METAR KPWT 291856Z AUTO 18006KT 7SM OVC002 09/09 A3032 RMK AO2 SLP272 T00890089=
202210291808 SPECI KPWT 291808Z AUTO 20006KT 4SM BR OVC002 08/08 A3031 RMK AO2=
202210291756 METAR KPWT 291756Z AUTO 19004KT 2 1/2SM BR OVC002 08/08 A3031 RMK AO2 VIS 1 1/2V4 SLP272 T00830083 10083 20072 51013=
202210291728 SPECI KPWT 291728Z AUTO 23006KT 4SM BR OVC002 08/08 A3030 RMK AO2=
202210291721 SPECI KPWT 291721Z AUTO 23005KT 2 1/2SM BR OVC002 08/08 A3030 RMK AO2=
202210291710 SPECI KPWT 291710Z AUTO 21007KT 1 1/2SM BR OVC002 08/08 A3030 RMK AO2=
202210291656 METAR KPWT 291656Z AUTO 20006KT 1SM BR OVC002 08/08 A3030 RMK AO2 SLP267 T00780078=
202210291635 SPECI KPWT 291635Z AUTO 21007KT 3/4SM BR OVC002 08/08 A3030 RMK AO2=
202210291556 METAR KPWT 291556Z AUTO 19004KT 1/4SM FG OVC002 08/08 A3029 RMK AO2 SLP264 T00780078=
202210291527 SPECI KPWT 291527Z AUTO 17003KT 1/4SM FG OVC002 08/08 A3029 RMK AO2=
202210291519 SPECI KPWT 291519Z AUTO 21004KT 1/2SM FG OVC002 07/07 A3028 RMK AO2=
202210291509 SPECI KPWT 291509Z AUTO 22004KT 3/4SM BR OVC002 07/07 A3028 RMK AO2=
202210291501 SPECI KPWT 291501Z AUTO 22005KT 1 3/4SM BR OVC002 07/07 A3028 RMK AO2=
202210291456 METAR KPWT 291456Z AUTO 21005KT 4SM BR OVC002 07/07 A3027 RMK AO2 SLP258 T00720072 55000=
202210291444 SPECI KPWT 291444Z AUTO 20006KT 3SM BR OVC002 07/07 A3026 RMK AO2=
202210291431 SPECI KPWT 291431Z AUTO 20004KT 1 1/4SM BR OVC002 07/07 A3027 RMK AO2=
202210291421 SPECI KPWT 291421Z AUTO 22004KT 1SM BR OVC002 07/07 A3027 RMK AO2=
202210291403 SPECI KPWT 291403Z AUTO 22005KT 1 1/2SM BR OVC002 07/07 A3027 RMK AO2=
202210291356 METAR KPWT 291356Z AUTO 22005KT 2SM BR OVC002 07/07 A3027 RMK AO2 SLP255 T00720072=
202210291341 SPECI KPWT 291341Z AUTO 19004KT 3SM BR OVC002 07/07 A3026 RMK AO2=
202210291330 SPECI KPWT 291330Z AUTO 21004KT 1 1/2SM BR OVC002 07/07 A3026 RMK AO2=
202210291321 SPECI KPWT 291321Z AUTO 22005KT 2SM BR OVC002 07/07 A3027 RMK AO2=
202210291256 METAR KPWT 291256Z AUTO 23005KT 6SM BR OVC002 07/07 A3027 RMK AO2 SLP255 T00720072=
202210291248 SPECI KPWT 291248Z AUTO 22005KT 4SM BR OVC002 07/07 A3027 RMK AO2=
202210291240 SPECI KPWT 291240Z AUTO 22004KT 2SM BR OVC002 07/07 A3027 RMK AO2=
202210291236 SPECI KPWT 291236Z AUTO 21004KT 1SM BR OVC002 07/07 A3027 RMK AO2=
202210291232 SPECI KPWT 291232Z AUTO 22003KT 1/2SM FG OVC002 07/07 A3027 RMK AO2=
202210291156 METAR KPWT 291156Z AUTO 00000KT 1/4SM FG OVC002 07/07 A3028 RMK AO2 SLP258 70015 T00720072 10078 20022 50001=
202210291056 METAR KPWT 291056Z AUTO 00000KT 1/4SM FG OVC002 07/07 A3029 RMK AO2 SLP262 T00720072=
202210290956 METAR KPWT 290956Z AUTO 00000KT 1/4SM FG OVC002 08/08 A3028 RMK AO2 SLP260 T00780078=
202210290856 METAR KPWT 290856Z AUTO VRB03KT 1/4SM FG OVC002 06/06 A3027 RMK AO2 SLP256 T00610061 53003=
202210290853 SPECI KPWT 290853Z AUTO 00000KT 1/4SM FG OVC002 06/06 A3027 RMK AO2=
202210290842 SPECI KPWT 290842Z AUTO 00000KT 1/2SM FG OVC002 05/05 A3027 RMK AO2=
202210290815 SPECI KPWT 290815Z AUTO 00000KT 1/4SM FG VV002 03/03 A3026 RMK AO2=
202210290801 SPECI KPWT 290801Z AUTO 00000KT 1/2SM FG VV001 04/04 A3026 RMK AO2=
202210290756 METAR KPWT 290756Z AUTO 00000KT 1/4SM FG VV002 04/04 A3026 RMK AO2 SLP253 T00440044 401280022=
202210290743 SPECI KPWT 290743Z AUTO 00000KT 1/2SM FG VV002 03/03 A3026 RMK AO2=
202210290727 SPECI KPWT 290727Z AUTO 00000KT 1/2SM FG CLR 03/03 A3026 RMK AO2=
202210290656 METAR KPWT 290656Z AUTO 00000KT 1/4SM FG CLR 04/04 A3026 RMK AO2 SLP254 T00390039=
202210290649 SPECI KPWT 290649Z AUTO 00000KT 1/2SM FG CLR 04/04 A3026 RMK AO2=
202210290647 SPECI KPWT 290647Z AUTO 13003KT 1SM BR CLR 03/03 A3026 RMK AO2=
202210290644 SPECI KPWT 290644Z AUTO 00000KT 3SM BR CLR 03/03 A3026 RMK AO2=
202210290635 SPECI KPWT 290635Z AUTO 00000KT 1 1/2SM BR CLR 04/04 A3026 RMK AO2 VIS 3/4V5=
202210290627 SPECI KPWT 290627Z AUTO 00000KT 5SM BR CLR 03/03 A3026 RMK AO2=
202210290620 SPECI KPWT 290620Z AUTO 00000KT 2 1/2SM BR CLR 03/03 A3026 RMK AO2=
202210290616 SPECI KPWT 290616Z AUTO 00000KT 3/4SM BR CLR 04/04 A3026 RMK AO2=
202210290612 SPECI KPWT 290612Z AUTO 00000KT 1/4SM FG CLR 04/04 A3026 RMK AO2=
202210290603 SPECI KPWT 290603Z AUTO 00000KT 1/2SM FG CLR 04/04 A3026 RMK AO2=
202210290556 METAR KPWT 290556Z AUTO 00000KT 3/4SM BR CLR 03/03 A3026 RMK AO2 VIS 1/4V3 SLP252 T00330033 10122 20033 53011=
202210290553 SPECI KPWT 290553Z AUTO 00000KT 3/4SM BR CLR 04/04 A3026 RMK AO2 VIS 1/4V3=
202210290549 SPECI KPWT 290549Z AUTO 00000KT 1 3/4SM BR CLR 03/03 A3026 RMK AO2=
202210290456 METAR KPWT 290456Z AUTO 14003KT 9SM CLR 05/05 A3024 RMK AO2 SLP246 T00500050=
202210290356 METAR KPWT 290356Z AUTO 00000KT 10SM CLR 06/06 A3023 RMK AO2 SLP242 T00560056=
202210290256 METAR KPWT 290256Z AUTO 00000KT 10SM CLR 06/06 A3022 RMK AO2 SLP241 T00610061 53014=
202210290156 METAR KPWT 290156Z AUTO 00000KT 10SM SCT070 07/07 A3021 RMK AO2 SLP234 T00720072=
202210290056 METAR KPWT 290056Z AUTO 16003KT 10SM CLR 11/08 A3019 RMK AO2 SLP229 T01060083=
202210282356 METAR KPWT 282356Z AUTO 18005KT 10SM SCT023 12/09 A3018 RMK AO2 SLP226 T01220089 10128 20106 53001=
202210282351 SPECI KPWT 282351Z AUTO VRB04KT 10SM BKN023 13/09 A3018 RMK AO2=
202210282256 METAR KPWT 282256Z AUTO 19005KT 10SM SCT015 12/09 A3018 RMK AO2 SLP224 T01220089=
202210282248 SPECI KPWT 282248Z AUTO 20005KT 5SM HZ BKN015 13/09 A3018 RMK AO2=
202210282221 SPECI KPWT 282221Z AUTO 17003KT 10SM FEW009 SCT023 12/09 A3018 RMK AO2=
202210282213 SPECI KPWT 282213Z AUTO 14006KT 10SM FEW009 BKN023 12/10 A3018 RMK AO2=
202210282156 METAR KPWT 282156Z AUTO VRB05KT 10SM BKN009 BKN018 OVC023 12/11 A3018 RMK AO2 CIG 008V013 SLP225 T01220106=
202210282149 SPECI KPWT 282149Z AUTO 20005KT 10SM BKN009 BKN018 OVC023 12/09 A3018 RMK AO2 CIG 008V011=
202210282056 METAR KPWT 282056Z AUTO 21005KT 10SM FEW008 OVC018 11/10 A3018 RMK AO2 SLP224 T01110100 51009=
202210282041 SPECI KPWT 282041Z AUTO 21006KT 10SM SCT008 SCT011 OVC018 11/11 A3017 RMK AO2=
202210282030 SPECI KPWT 282030Z AUTO 20004KT 10SM BKN008 OVC018 11/10 A3018 RMK AO2 CIG 007V011=
202210281956 METAR KPWT 281956Z AUTO 17004KT 8SM SCT008 OVC018 11/10 A3018 RMK AO2 SLP224 T01110100=
202210281950 SPECI KPWT 281950Z AUTO 19005KT 10SM SCT008 OVC018 11/10 A3018 RMK AO2=
202210281919 SPECI KPWT 281919Z AUTO 19004KT 10SM BKN008 OVC017 11/10 A3018 RMK AO2=
202210281856 METAR KPWT 281856Z AUTO 23004KT 10SM FEW009 OVC017 11/09 A3018 RMK AO2 SLP224 T01110094=
202210281848 SPECI KPWT 281848Z AUTO 23004KT 10SM SCT009 OVC015 11/09 A3017 RMK AO2=
202210281813 SPECI KPWT 281813Z AUTO 20005KT 10SM BKN009 BKN020 11/09 A3016 RMK AO2 CIG 006V013=
202210281804 SPECI KPWT 281804Z AUTO 22005KT 10SM FEW007 SCT020 11/09 A3015 RMK AO2=
202210281756 METAR KPWT 281756Z AUTO 22006KT 10SM FEW007 BKN020 11/09 A3015 RMK AO2 SLP215 60015 T01060094 10106 20089 52026=
202210281724 SPECI KPWT 281724Z AUTO 19003KT 10SM FEW007 OVC016 09/09 A3014 RMK AO2=
202210281710 SPECI KPWT 281710Z AUTO 21003KT 10SM OVC016 09/09 A3013 RMK AO2=
202210281656 METAR KPWT 281656Z AUTO 19004KT 10SM OVC014 09/09 A3012 RMK AO2 SLP206 T00940094=
202210281637 SPECI KPWT 281637Z AUTO 21003KT 10SM SCT004 BKN011 OVC017 09/09 A3012 RMK AO2=
202210281556 METAR KPWT 281556Z AUTO 00000KT 8SM OVC004 09/09 A3010 RMK AO2 RAE32 SLP198 P0000 T00890089=
202210281456 METAR KPWT 281456Z AUTO 00000KT 5SM -RA BR BKN002 OVC013 09/09 A3007 RMK AO2 SLP188 P0001 60015 T00890089 53017=
202210281356 METAR KPWT 281356Z AUTO 24009KT 10SM -RA OVC002 09/09 A3006 RMK AO2 SLP182 P0008 T00940094=
202210281333 SPECI KPWT 281333Z AUTO 00000KT 9SM -RA BKN004 09/09 A3004 RMK AO2 P0007=
202210281312 SPECI KPWT 281312Z AUTO 09003KT 8SM RA SCT006 09/09 A3003 RMK AO2 P0003=
202210281256 METAR KPWT 281256Z AUTO 06003KT 7SM -RA BKN006 BKN010 09/09 A3003 RMK AO2 CIG 003V009 SLP172 P0006 T00940094=
202210281254 SPECI KPWT 281254Z AUTO 00000KT 7SM RA BKN006 OVC010 09/09 A3002 RMK AO2 CIG 003V009 P0006=
202210281221 SPECI KPWT 281221Z AUTO 00000KT 3SM -RA BR OVC012 09/09 A3001 RMK AO2 P0002=
202210281201 SPECI KPWT 281201Z AUTO 06005KT 2 1/2SM -RA BR SCT004 OVC014 09/09 A3000 RMK AO2 P0000=
202210281156 METAR KPWT 281156Z AUTO 07005KT 3SM -RA BR BKN004 OVC014 09/09 A2999 RMK AO2 RAE14B35 SLP161 P0001 60009 70011 T00940094 10117 20089 51015=
202210281145 SPECI KPWT 281145Z AUTO 06003KT 7SM -RA BKN004 OVC019 09/09 A3000 RMK AO2 RAE14B35 P0001=
202210281056 METAR KPWT 281056Z AUTO 06006KT 10SM -RA FEW003 BKN015 09/09 A2999 RMK AO2 SLP158 P0007 T00940089=
202210281048 SPECI KPWT 281048Z AUTO 04007KT 7SM RA SCT003 SCT009 BKN013 09/09 A2999 RMK AO2 P0007=
202210281033 SPECI KPWT 281033Z AUTO 01006KT 4SM RA BR BKN003 09/09 A2999 RMK AO2 P0003=
202210281022 SPECI KPWT 281022Z AUTO 27004KT 5SM -RA BR OVC005 10/09 A2998 RMK AO2 CIG 003V009 P0001=
202210281005 SPECI KPWT 281005Z AUTO 19008KT 7SM -RA OVC009 10/09 A2997 RMK AO2 CIG 006V011 P0000=
202210280956 METAR KPWT 280956Z AUTO 19009KT 9SM -RA OVC011 10/09 A2997 RMK AO2 CIG 007V012 SLP152 P0001 T01000094=
202210280931 SPECI KPWT 280931Z AUTO 19008G15KT 10SM -RA BKN013 OVC020 11/08 A2996 RMK AO2 P0000=
202210280856 METAR KPWT 280856Z AUTO 20011KT 10SM -RA OVC024 12/07 A2995 RMK AO2 RAB52 SLP146 P0000 60000 T01170072 53003=
202210280756 METAR KPWT 280756Z AUTO 22007KT 10SM OVC028 11/08 A2994 RMK AO2 RAB17E48 SLP143 P0000 T01110078 401280083=
202210280746 SPECI KPWT 280746Z AUTO 21006KT 10SM -RA OVC028 11/08 A2994 RMK AO2 RAB17 P0000=
202210280656 METAR KPWT 280656Z AUTO 19010KT 10SM OVC032 12/07 A2993 RMK AO2 SLP139 T01170072=
202210280556 METAR KPWT 280556Z AUTO 21004KT 10SM OVC030 11/09 A2994 RMK AO2 RAE32 SLP143 P0000 60002 T01060089 10128 20100 58001=
202210280519 SPECI KPWT 280519Z AUTO 20007KT 10SM -RA OVC030 11/08 A2994 RMK AO2 P0000=
202210280456 METAR KPWT 280456Z AUTO 20008KT 10SM -RA OVC028 10/09 A2994 RMK AO2 SLP145 P0002 T01000089=
202210280424 SPECI KPWT 280424Z AUTO 20009KT 10SM -RA OVC028 11/08 A2994 RMK AO2 P0001 TSNO=
202210280410 SPECI KPWT 280410Z AUTO 19010KT 10SM -RA OVC030 11/08 A2995 RMK AO2 P0001 TSNO=
202210280356 METAR KPWT 280356Z AUTO 20011G17KT 10SM -RA OVC028 12/07 A2994 RMK AO2 RAB16 SLP144 P0000 T01220072=
202210280339 SPECI KPWT 280339Z AUTO 20010KT 10SM -RA OVC028 12/08 A2995 RMK AO2 RAB16 P0000=
202210280256 METAR KPWT 280256Z AUTO 20011G17KT 10SM OVC030 13/07 A2994 RMK AO2 SLP144 T01280072 55005=
202210280156 METAR KPWT 280156Z AUTO 20012KT 10SM OVC030 13/07 A2994 RMK AO2 SLP143 T01280072=
202210280056 METAR KPWT 280056Z AUTO 20011G19KT 10SM OVC034 13/07 A2994 RMK AO2 SLP144 T01280072=
202210272356 METAR KPWT 272356Z AUTO 20011KT 10SM OVC036 13/07 A2996 RMK AO2 SLP150 T01280072 10128 20100 56014=
202210272256 METAR KPWT 272256Z AUTO 20011G20KT 10SM OVC032 13/07 A2997 RMK AO2 SLP152 T01280072=
202210272156 METAR KPWT 272156Z AUTO 20016G20KT 10SM OVC036 13/07 A2998 RMK AO2 SLP157 T01280072=
202210272056 METAR KPWT 272056Z AUTO 20013G18KT 10SM OVC034 13/08 A3000 RMK AO2 SLP164 T01280078 58011=
202210271956 METAR KPWT 271956Z AUTO 20014G20KT 10SM BKN036 OVC045 12/08 A3002 RMK AO2 SLP170 T01220078=
202210271856 METAR KPWT 271856Z AUTO 19012G18KT 10SM BKN040 BKN050 OVC070 11/08 A3003 RMK AO2 SLP176 T01110078=
202210271803 SPECI KPWT 271803Z AUTO 20012G19KT 10SM SCT029 OVC035 10/08 A3004 RMK AO2=
202210271756 METAR KPWT 271756Z AUTO 20012G19KT 10SM BKN028 OVC034 10/08 A3003 RMK AO2 RAE19 SLP175 P0000 60000 T01000078 10100 20089 50000=
202210271656 METAR KPWT 271656Z AUTO 19014G19KT 10SM -RA OVC024 09/08 A3004 RMK AO2 RAB45 SLP176 P0000 T00940078=
202210271556 METAR KPWT 271556Z AUTO 19012G18KT 10SM SCT013 OVC022 09/08 A3003 RMK AO2 SLP174 T00940078=
202210271456 METAR KPWT 271456Z AUTO 20014KT 10SM OVC020 09/08 A3003 RMK AO2 RAE05B23E37 SLP175 P0000 60000 T00890078 58012=
202210271356 METAR KPWT 271356Z AUTO 19014G17KT 10SM -RA FEW014 OVC018 09/08 A3005 RMK AO2 RAB13 SLP180 P0000 T00890078=
202210271256 METAR KPWT 271256Z AUTO 19010G15KT 10SM OVC020 09/08 A3006 RMK AO2 RAE35 SLP183 P0000 T00890083=
202210271235 SPECI KPWT 271235Z AUTO 19011G15KT 10SM FEW010 OVC018 09/08 A3006 RMK AO2 RAE35 P0000=
202210271156 METAR KPWT 271156Z AUTO 19008KT 10SM -RA OVC010 09/08 A3007 RMK AO2 SLP187 P0002 60006 70008 T00890083 10089 20083 58010=
202210271127 SPECI KPWT 271127Z AUTO 19008KT 10SM -RA BKN010 OVC018 09/08 A3008 RMK AO2 P0002=
202210271056 METAR KPWT 271056Z AUTO 20009KT 10SM -RA FEW006 OVC016 08/08 A3009 RMK AO2 RAB29 SLP195 P0000 T00830083=
202210271032 SPECI KPWT 271032Z AUTO 21011KT 10SM -RA SCT004 OVC016 08/08 A3010 RMK AO2 RAB29 P0000=
202210270956 METAR KPWT 270956Z AUTO 20010G18KT 10SM OVC004 08/08 A3010 RMK AO2 RAB43E55 SLP196 P0000 T00830083=
202210270947 SPECI KPWT 270947Z AUTO 21013KT 7SM -RA OVC004 08/08 A3010 RMK AO2 RAB43 P0000=
202210270913 SPECI KPWT 270913Z AUTO 20011KT 10SM BKN008 OVC015 09/08 A3010 RMK AO2 CIG 005V011=
202210270856 METAR KPWT 270856Z AUTO 20009KT 10SM SCT010 OVC015 08/08 A3010 RMK AO2 RAE50 SLP197 P0000 60004 T00830083 56010=
202210270835 SPECI KPWT 270835Z AUTO 19009KT 10SM -RA SCT006 SCT010 OVC017 08/08 A3010 RMK AO2 P0000=
202210270756 METAR KPWT 270756Z AUTO 19009KT 5SM -RA BR BKN006 OVC013 08/08 A3011 RMK AO2 CIG 004V011 SLP201 P0002 T00830083 400940039=
202210270741 SPECI KPWT 270741Z AUTO 19008KT 5SM -RA BR BKN008 BKN014 OVC020 08/08 A3011 RMK AO2 CIG 006V011 P0001=
202210270719 SPECI KPWT 270719Z AUTO 20007KT 10SM -RA SCT005 OVC017 08/08 A3011 RMK AO2 P0000=
202210270656 METAR KPWT 270656Z AUTO 19007KT 6SM -RA BR OVC005 08/08 A3012 RMK AO2 CIG 004V010 SLP204 P0002 T00830083=
202210270643 SPECI KPWT 270643Z AUTO 20007KT 7SM -RA OVC007 08/08 A3012 RMK AO2 CIG 005V010 P0001=
202210270628 SPECI KPWT 270628Z AUTO 20007KT 5SM -RA BR SCT007 BKN013 OVC018 08/08 A3012 RMK AO2 P0000=
202210270556 METAR KPWT 270556Z AUTO 20007KT 4SM -RA BR OVC011 08/08 A3013 RMK AO2 RAB05 SLP209 P0002 60002 T00830083 10089 20083 53000=
202210270539 SPECI KPWT 270539Z AUTO 21006KT 9SM -RA OVC011 08/08 A3013 RMK AO2 RAB05 P0001=
202210270519 SPECI KPWT 270519Z AUTO 20007KT 7SM -RA OVC009 08/08 A3012 RMK AO2 RAB05 CIG 007V012 P0000=
202210270456 METAR KPWT 270456Z AUTO 20006KT 10SM BKN013 OVC021 08/08 A3012 RMK AO2 RAE36 SLP206 P0000 T00830083=
202210270356 METAR KPWT 270356Z AUTO 21008KT 8SM -RA OVC018 08/08 A3013 RMK AO2 RAB24 SLP210 P0000 T00830078=
202210270330 SPECI KPWT 270330Z AUTO 21009KT 8SM -RA BKN018 BKN026 OVC032 08/08 A3013 RMK AO2 RAB24 P0000=
202210270256 METAR KPWT 270256Z AUTO 21012KT 10SM BKN014 OVC019 09/08 A3013 RMK AO2 SLP208 T00890078 55000=
202210270243 SPECI KPWT 270243Z AUTO 21014KT 10SM BKN014 08/08 A3013 RMK AO2=
202210270156 METAR KPWT 270156Z AUTO 22009KT 10SM BKN016 BKN026 OVC032 08/07 A3013 RMK AO2 SLP207 T00830072=
202210270152 SPECI KPWT 270152Z AUTO 21008KT 10SM SCT016 BKN026 OVC032 08/07 A3013 RMK AO2=
202210270103 SPECI KPWT 270103Z AUTO 22011KT 10SM SCT016 09/07 A3013 RMK AO2=
202210270056 METAR KPWT 270056Z AUTO 21010KT 10SM BKN016 09/07 A3013 RMK AO2 SLP209 T00890072=
202210262356 METAR KPWT 262356Z AUTO 22006KT 10SM CLR 09/07 A3013 RMK AO2 SLP208 T00890072 10094 20050 55000=
202210262256 METAR KPWT 262256Z AUTO 00000KT 10SM CLR 09/08 A3013 RMK AO2 SLP207 T00890078=
202210262156 METAR KPWT 262156Z AUTO 00000KT 10SM FEW010 09/07 A3013 RMK AO2 SLP208 T00890072=
202210262056 METAR KPWT 262056Z AUTO 00000KT 10SM CLR 08/07 A3013 RMK AO2 SLP208 T00830067=
202210262017 SPECI KPWT 262017Z AUTO 00000KT 10SM SCT005 08/07 A3013 RMK AO2=
202210261956 METAR KPWT 261956Z AUTO 23003KT 10SM OVC005 07/07 A3013 RMK AO2 SLP208 T00720067=
202210261935 SPECI KPWT 261935Z AUTO 21003KT 10SM OVC005 07/07 A3012 RMK AO2 CIG 003V008=
202210261856 METAR KPWT 261856Z AUTO VRB03KT 3SM BR OVC003 06/06 RMK AO2 SLPNO T00610061 $=
202210261809 SPECI KPWT 261809Z AUTO 16004KT 7SM OVC003 06/06 A3011 RMK AO2=
202210261801 SPECI KPWT 261801Z AUTO 20003KT 2SM BR OVC003 06/06 A3011 RMK AO2 VIS 1V5=
202210261756 METAR KPWT 261756Z AUTO 17004KT 1SM BR OVC003 05/05 A3010 RMK AO2 SLP201 T00500050 10056 20039 51024=
202210261742 SPECI KPWT 261742Z AUTO 17004KT 1/2SM FG OVC003 06/06 A3010 RMK AO2=
202210261732 SPECI KPWT 261732Z AUTO 00000KT 1SM BR OVC003 05/05 A3010 RMK AO2 VIS 1/2V3=
202210261726 SPECI KPWT 261726Z AUTO VRB03KT 1/2SM FG OVC003 05/05 A3010 RMK AO2=
202210261656 METAR KPWT 261656Z AUTO 17003KT 1/4SM FG OVC003 04/04 A3009 RMK AO2 SLP197 T00440044=
202210261556 METAR KPWT 261556Z AUTO 00000KT 1/4SM FG OVC003 04/04 A3007 RMK AO2 SLP188 T00440044=
202210261456 METAR KPWT 261456Z AUTO 00000KT 1/4SM FG OVC003 04/04 A3003 RMK AO2 SLP177 T00440044 51023=
202210261356 METAR KPWT 261356Z AUTO 00000KT 1/4SM FG OVC003 04/04 A3001 RMK AO2 SLP170 T00440044=
202210261319 SPECI KPWT 261319Z AUTO 00000KT 1/4SM FG OVC003 05/05 A3001 RMK AO2=
202210261306 SPECI KPWT 261306Z AUTO 00000KT 1/2SM FG OVC003 05/05 A3001 RMK AO2=
202210261256 METAR KPWT 261256Z AUTO 17003KT 1/4SM FG OVC003 05/05 A3000 RMK AO2 SLP165 T00500050=
202210261249 SPECI KPWT 261249Z AUTO 25003KT 1/4SM FG OVC003 05/05 A2999 RMK AO2=
202210261230 SPECI KPWT 261230Z AUTO 00000KT 1/2SM FG OVC003 05/05 A2998 RMK AO2=
202210261226 SPECI KPWT 261226Z AUTO 00000KT 1SM BR OVC003 06/06 A2997 RMK AO2=
202210261221 SPECI KPWT 261221Z AUTO 00000KT 2SM BR OVC003 05/05 A2997 RMK AO2 VIS 1 1/4V5=
202210261207 SPECI KPWT 261207Z AUTO 00000KT 10SM OVC003 06/06 A2997 RMK AO2=
202210261156 METAR KPWT 261156Z AUTO 00000KT 10SM OVC005 06/06 A2997 RMK AO2 SLP153 60001 70063 T00560056 10067 20056 51020=
202210261125 SPECI KPWT 261125Z AUTO 00000KT 10SM OVC005 06/06 A2997 RMK AO2=
202210261056 METAR KPWT 261056Z AUTO 00000KT 10SM OVC007 06/06 A2996 RMK AO2 SLP150 T00610056=
202210260956 METAR KPWT 260956Z AUTO 00000KT 10SM OVC007 06/06 A2993 RMK AO2 SLP141 T00610056=
202210260856 METAR KPWT 260856Z AUTO 00000KT 10SM OVC007 06/06 A2991 RMK AO2 SLP133 60001 T00610061 53015=
202210260756 METAR KPWT 260756Z AUTO 19003KT 10SM OVC007 07/06 A2989 RMK AO2 SLP126 P0001 T00670061 400890011=
202210260656 METAR KPWT 260656Z AUTO 22004KT 10SM OVC007 07/07 A2988 RMK AO2 RAE05 CIG 005V012 SLP123 P0000 T00670067=
202210260556 METAR KPWT 260556Z AUTO 21005KT 10SM -RA OVC007 07/07 A2986 RMK AO2 RAB06 CIG 005V012 SLP117 P0000 60007 T00670067 10083 20067 53007=
202210260456 METAR KPWT 260456Z AUTO 21010KT 10SM OVC008 07/07 A2985 RMK AO2 RAE21 CIG 005V011 SLP113 P0000 T00720067=
202210260356 METAR KPWT 260356Z AUTO 20011G17KT 10SM -RA OVC006 07/07 A2983 RMK AO2 SLP105 P0000 T00720072=
202210260256 METAR KPWT 260256Z AUTO 20013G18KT 9SM -RA OVC008 07/07 A2984 RMK AO2 RAE05B31 CIG 005V012 SLP110 P0000 60007 T00720072 55006=
202210260205 SPECI KPWT 260205Z AUTO 20013KT 10SM SCT008 OVC014 07/07 A2984 RMK AO2 RAE05 P0000=
202210260156 METAR KPWT 260156Z AUTO 20013G18KT 10SM -RA BKN008 OVC017 07/07 A2983 RMK AO2 RAE01B32 CIG 005V012 SLP108 P0000 T00720072=
202210260141 SPECI KPWT 260141Z AUTO 20010G17KT 10SM -RA FEW006 BKN017 BKN024 07/07 A2984 RMK AO2 RAE01B32 P0000=
202210260134 SPECI KPWT 260134Z AUTO 20012G17KT 10SM -RA FEW015 BKN022 07/07 A2983 RMK AO2 RAE01B32 P0000=
202210260111 SPECI KPWT 260111Z AUTO 20010KT 10SM SCT005 07/07 A2982 RMK AO2 RAE01 P0000=
202210260056 METAR KPWT 260056Z AUTO 20011G16KT 10SM -RA BKN007 07/07 A2983 RMK AO2 SLP106 P0007 T00720072=
202210260012 SPECI KPWT 260012Z AUTO 20010KT 7SM +RA BKN009 OVC028 08/08 A2985 RMK AO2 CIG 005V014 P0004=
202210252356 METAR KPWT 252356Z AUTO 20012KT 9SM RA SCT007 BKN013 OVC020 08/08 A2986 RMK AO2 SLP117 P0017 60055 T00830083 10089 20083 56025=
202210252345 SPECI KPWT 252345Z AUTO 20009G18KT 8SM RA SCT005 BKN011 OVC018 08/08 A2986 RMK AO2 P0015=
202210252312 SPECI KPWT 252312Z AUTO 20010KT 10SM RA FEW005 BKN008 OVC013 09/08 A2988 RMK AO2 P0003=
202210252256 METAR KPWT 252256Z AUTO 20015G22KT 8SM RA BKN005 OVC009 09/09 A2989 RMK AO2 CIG 004V007 SLP128 P0015 T00890089=
202210252251 SPECI KPWT 252251Z AUTO 20014G18KT 7SM RA OVC005 09/09 A2989 RMK AO2 P0014=
202210252156 METAR KPWT 252156Z AUTO 19010G16KT 9SM RA OVC007 09/09 A2993 RMK AO2 CIG 004V010 SLP143 P0008 T00890089=
202210252147 SPECI KPWT 252147Z AUTO 19012G16KT 10SM RA OVC007 09/09 A2994 RMK AO2 CIG 004V010 P0007=
202210252116 SPECI KPWT 252116Z AUTO 19008KT 10SM -RA OVC005 09/09 A2997 RMK AO2 P0003=
202210252056 METAR KPWT 252056Z AUTO 19008G14KT 8SM RA BKN007 OVC028 09/08 A2999 RMK AO2 CIG 004V009 SLP161 P0008 60015 T00890083 58039=
202210251956 METAR KPWT 251956Z AUTO 19009KT 10SM -RA OVC007 09/08 A3004 RMK AO2 CIG 004V008 SLP180 P0006 T00890083=
202210251856 METAR KPWT 251856Z AUTO 19010G16KT 10SM -RA OVC009 09/08 A3008 RMK AO2 RAB21 CIG 007V013 SLP191 P0001 T00890083=
202210251838 SPECI KPWT 251838Z AUTO 19009KT 10SM -RA BKN011 OVC025 09/08 A3008 RMK AO2 RAB21 CIG 009V013 P0000=
202210251756 METAR KPWT 251756Z AUTO 19007KT 10SM OVC007 09/08 A3010 RMK AO2 SLP200 60000 T00890083 10089 20039 58012=
202210251656 METAR KPWT 251656Z AUTO 20007KT 10SM BKN005 08/08 A3013 RMK AO2 SLP207 T00830083=
202210251652 SPECI KPWT 251652Z AUTO 19007KT 10SM SCT005 08/08 A3013 RMK AO2=
202210251556 METAR KPWT 251556Z AUTO 20008KT 10SM FEW075 08/07 A3014 RMK AO2 RAE06 SLP212 P0000 T00780072=
202210251456 METAR KPWT 251456Z AUTO 21007KT 10SM -RA SCT010 SCT065 07/07 A3015 RMK AO2 RAB54 SLP216 P0000 60000 T00670067 58007=
202210251417 SPECI KPWT 251417Z AUTO 00000KT 10SM SCT009 SCT070 06/06 A3016 RMK AO2=
202210251356 METAR KPWT 251356Z AUTO 18003KT 10SM BKN009 06/06 A3017 RMK AO2 SLP221 T00560056=
202210251341 SPECI KPWT 251341Z AUTO 00000KT 9SM BKN009 05/05 A3017 RMK AO2 CIG 008V012=
202210251256 METAR KPWT 251256Z AUTO 00000KT 8SM CLR 04/04 A3017 RMK AO2 SLP222 T00440044=
202210251254 SPECI KPWT 251254Z AUTO 22003KT 7SM CLR 04/04 A3017 RMK AO2=
202210251246 SPECI KPWT 251246Z AUTO 20003KT 2SM BR CLR 04/04 A3017 RMK AO2=
202210251241 SPECI KPWT 251241Z AUTO 21003KT 1SM BR CLR 05/05 A3017 RMK AO2=
202210251231 SPECI KPWT 251231Z AUTO 21003KT 3/4SM BR VV010 04/04 A3018 RMK AO2=
202210251226 SPECI KPWT 251226Z AUTO 21003KT 1 3/4SM BR FEW010 05/05 A3018 RMK AO2=
202210251156 METAR KPWT 251156Z AUTO 00000KT 9SM CLR 04/04 A3017 RMK AO2 SLP221 70022 T00390039 10044 20011 58001=
202210251120 SPECI KPWT 251120Z AUTO 00000KT 3SM BR CLR 03/03 A3017 RMK AO2=
202210251116 SPECI KPWT 251116Z AUTO 00000KT 1 3/4SM BR CLR 03/03 A3017 RMK AO2 VIS 3/4V5=
202210251056 METAR KPWT 251056Z AUTO 00000KT 3SM BR CLR 03/03 A3018 RMK AO2 SLP225 T00330033=
202210251030 SPECI KPWT 251030Z AUTO 00000KT 4SM BR CLR 03/03 A3017 RMK AO2=
202210251018 SPECI KPWT 251018Z AUTO 00000KT 1 1/4SM BR CLR 02/02 A3017 RMK AO2 FZRANO=
202210251013 SPECI KPWT 251013Z AUTO 00000KT 3/4SM BR CLR 02/02 A3017 RMK AO2 FZRANO=
202210251008 SPECI KPWT 251008Z AUTO 00000KT 1 3/4SM BR CLR 02/02 A3017 RMK AO2 FZRANO=
202210250956 METAR KPWT 250956Z AUTO 00000KT 7SM CLR 03/03 A3017 RMK AO2 SLP221 T00280028=
202210250904 SPECI KPWT 250904Z AUTO 00000KT 3SM BR CLR 03/03 A3018 RMK AO2=
202210250901 SPECI KPWT 250901Z AUTO 00000KT 1 1/4SM BR CLR 02/02 A3017 RMK AO2 VIS 1/2V5 FZRANO=
202210250856 METAR KPWT 250856Z AUTO 00000KT 3/4SM BR CLR 02/02 A3017 RMK AO2 SLP223 T00170017 51012 FZRANO=
202210250850 SPECI KPWT 250850Z AUTO 00000KT 3/4SM BR CLR 02/02 A3017 RMK AO2 FZRANO=
202210250845 SPECI KPWT 250845Z AUTO 00000KT 1 3/4SM BR CLR 02/02 A3017 RMK AO2 FZRANO=
202210250756 METAR KPWT 250756Z AUTO 00000KT CLR 02/02 A3016 RMK AO2 SLP218 T00220022 401560017 FZRANO=
202210250656 METAR KPWT 250656Z AUTO 00000KT 8SM CLR 03/03 A3015 RMK AO2 SLP217 T00280028=
202210250556 METAR KPWT 250556Z AUTO 00000KT 10SM CLR 04/04 A3013 RMK AO2 SLP210 T00390039 10133 20039 53025=
202210250456 METAR KPWT 250456Z AUTO 00000KT 10SM CLR 06/05 A3011 RMK AO2 SLP202 T00610050=
202210250356 METAR KPWT 250356Z AUTO 21006KT 10SM CLR 06/04 A3007 RMK AO2 SLP189 T00560044=
202210250256 METAR KPWT 250256Z AUTO 21004KT 10SM CLR 07/06 A3006 RMK AO2 SLP185 T00670056 53022=
202210250156 METAR KPWT 250156Z AUTO 23004KT 10SM CLR 09/07 A3004 RMK AO2 SLP177 T00940067=
202210250056 METAR KPWT 250056Z AUTO 22010KT 10SM CLR 12/07 A3001 RMK AO2 SLP166 T01170072=
202210242356 METAR KPWT 242356Z AUTO 25009KT 10SM CLR 13/07 A2999 RMK AO2 SLP161 T01330067 10156 20089 53009=
202210242256 METAR KPWT 242256Z AUTO 22013G16KT 10SM CLR 14/08 A2998 RMK AO2 SLP158 T01440078=
202210242156 METAR KPWT 242156Z AUTO 25005KT 10SM FEW040 16/08 A2997 RMK AO2 SLP154 T01560083=
202210242056 METAR KPWT 242056Z AUTO 04007KT 10SM FEW012 SCT026 SCT032 12/11 A2997 RMK AO2 SLP153 T01170106 51010=
202210242045 SPECI KPWT 242045Z AUTO 05007KT 10SM SCT012 BKN026 BKN031 12/11 A2997 RMK AO2=
202210242026 SPECI KPWT 242026Z AUTO 05006KT 10SM SCT007 BKN014 BKN025 12/11 A2996 RMK AO2=
202210242013 SPECI KPWT 242013Z AUTO 03005KT 10SM BKN007 12/11 A2996 RMK AO2 CIG 004V010=
202210242004 SPECI KPWT 242004Z AUTO 05004KT 10SM SCT005 SCT020 11/11 A2996 RMK AO2=
202210241956 METAR KPWT 241956Z AUTO 05005KT 10SM BKN005 BKN020 11/10 A2996 RMK AO2 CIG 003V008 SLP150 T01110100=
202210241934 SPECI KPWT 241934Z AUTO 00000KT 10SM BKN005 10/09 A2996 RMK AO2 CIG 002V008=
202210241856 METAR KPWT 241856Z AUTO 36006KT 10SM OVC003 09/09 A2996 RMK AO2 SLP148 T00940094=
202210241756 METAR KPWT 241756Z AUTO 21007KT 10SM OVC003 09/09 A2994 RMK AO2 RAE1659 SLP142 P0000 60022 T00890089 10089 20072 53002=
202210241656 METAR KPWT 241656Z AUTO 20011G18KT 10SM -RA OVC003 08/08 A2992 RMK AO2 SLP138 P0001 T00830078=
202210241628 SPECI KPWT 241628Z AUTO 20009G17KT 6SM -RA BR OVC003 08/08 A2992 RMK AO2 P0001=
202210241556 METAR KPWT 241556Z AUTO 20010KT 6SM -RA BR OVC005 08/08 A2992 RMK AO2 SLP135 P0002 T00780078=
202210241456 METAR KPWT 241456Z AUTO 19008KT 4SM -RA BR OVC005 08/08 A2993 RMK AO2 CIG 003V007 SLP140 P0006 60019 T00780078 56008=
202210241356 METAR KPWT 241356Z AUTO 19007KT 5SM -RA BR OVC005 07/07 A2993 RMK AO2 SLP141 P0006 T00720072=
202210241256 METAR KPWT 241256Z AUTO 19008KT 4SM -RA BR OVC005 07/07 A2994 RMK AO2 SLP144 P0007 T00720072=
202210241156 METAR KPWT 241156Z AUTO 18008KT 4SM RA BR OVC005 07/07 A2995 RMK AO2 SLP148 P0007 60014 7//// T00720072 10089 20072 56018=
202210241126 SPECI KPWT 241126Z AUTO 19008G16KT 5SM -RA BR BKN005 OVC009 07/07 A2997 RMK AO2 P0003=
202210241056 METAR KPWT 241056Z AUTO 18008KT 4SM -RA BR BKN007 OVC015 07/07 A2998 RMK AO2 CIG 005V014 SLP157 P0004 T00720072=
202210241051 SPECI KPWT 241051Z AUTO 20007KT 6SM -RA BR SCT007 BKN011 OVC031 07/07 A2998 RMK AO2 P0003=
202210241043 SPECI KPWT 241043Z AUTO 19008KT 7SM -RA SCT009 BKN015 OVC031 08/07 A2999 RMK AO2 P0002=
202210240956 METAR KPWT 240956Z AUTO 20011KT 10SM -RA SCT038 OVC045 08/06 A3001 RMK AO2 RAE32B56 SLP167 P0001 T00780061=
202210240856 METAR KPWT 240856Z AUTO 20010KT 10SM -RA FEW030 BKN047 08/07 A3007 RMK AO2 SLP186 P0001 60002 T00780072 57019=
202210240756 METAR KPWT 240756Z AUTO 21007KT 10SM -RA FEW030 SCT037 BKN044 08/07 A3008 RMK AO2 RAB22 SLP192 P0001 T00780072 401171006=
202210240656 METAR KPWT 240656Z AUTO 20006KT 10SM BKN035 09/07 A3010 RMK AO2 SLP199 T00890067=
202210240556 METAR KPWT 240556Z AUTO 20010KT 10SM FEW030 09/07 A3012 RMK AO2 SLP206 T00890067 10106 20078 56010=
202210240456 METAR KPWT 240456Z AUTO 20007KT 10SM CLR 09/06 A3013 RMK AO2 SLP207 T00890061=
202210240356 METAR KPWT 240356Z AUTO 21011KT 10SM SCT110 09/06 A3014 RMK AO2 SLP212 T00890061=
202210240256 METAR KPWT 240256Z AUTO 20006KT 10SM CLR 09/07 A3015 RMK AO2 SLP218 T00890067 58001=
202210240156 METAR KPWT 240156Z AUTO 21004KT 10SM CLR 08/07 A3016 RMK AO2 SLP220 T00830067=
202210240056 METAR KPWT 240056Z AUTO 19006KT 10SM CLR 09/07 A3017 RMK AO2 SLP222 T00940067=
202210232356 METAR KPWT 232356Z AUTO 19005KT 10SM CLR 11/07 A3016 RMK AO2 SLP219 6//// T01060072 10117 20067 55004=
202210232256 METAR KPWT 232256Z AUTO 20007KT 10SM CLR 11/07 A3015 RMK AO2 SLP217 T01110072=
202210232156 METAR KPWT 232156Z AUTO 20007KT 10SM CLR 12/07 A3016 RMK AO2 SLP219 T01170072=
202210232056 METAR KPWT 232056Z AUTO 22004KT 10SM FEW008 09/07 A3017 RMK AO2 SLP221 T00940072 50007=
202210232040 SPECI KPWT 232040Z AUTO 19005KT 10SM SCT006 09/07 A3017 RMK AO2=
202210231956 METAR KPWT 231956Z AUTO 24004KT 10SM OVC004 08/07 A3017 RMK AO2 SLP223 T00830072=
202210231934 SPECI KPWT 231934Z AUTO 19005KT 10SM OVC004 08/07 A3016 RMK AO2=
202210231856 METAR KPWT 231856Z AUTO 22004KT 10SM OVC002 07/07 A3016 RMK AO2 SLP221 T00720072=
202210231834 SPECI KPWT 231834Z AUTO 24005KT 6SM BR OVC002 07/07 A3016 RMK AO2=
202210231823 SPECI KPWT 231823Z AUTO 23005KT 2SM BR OVC002 07/07 A3016 RMK AO2=
202210231814 SPECI KPWT 231814Z AUTO 21004KT 1SM BR OVC002 07/07 A3016 RMK AO2 VIS 1/2V2 1/2=
202210231812 SPECI KPWT 231812Z AUTO 21004KT 1/2SM FG OVC002 07/07 A3015 RMK AO2 VIS M1/4V2 1/2=
202210231756 METAR KPWT 231756Z AUTO 20004KT 1/4SM FG OVC002 07/07 A3014 RMK AO2 SLP216 T00670067 10072 20000 53019=
202210231725 SPECI KPWT 231725Z AUTO 16004KT 1/4SM FG OVC002 06/06 A3013 RMK AO2=
202210231718 SPECI KPWT 231718Z AUTO 18003KT 3/4SM BR OVC002 06/06 A3013 RMK AO2 VIS 1/4V2 1/2=
202210231715 SPECI KPWT 231715Z AUTO 19003KT 1 1/2SM BR OVC002 07/06 A3013 RMK AO2 VIS 1/2V5=
202210231656 METAR KPWT 231656Z AUTO 00000KT 10SM BKN002 BKN037 07/06 A3012 RMK AO2 SLP206 T00670061=
202210231648 SPECI KPWT 231648Z AUTO 00000KT 10SM SCT002 BKN037 07/06 A3011 RMK AO2=
202210231633 SPECI KPWT 231633Z AUTO 00000KT 10SM SCT026 BKN037 07/07 A3011 RMK AO2=
202210231556 METAR KPWT 231556Z AUTO 00000KT 10SM FEW018 OVC028 03/03 A3011 RMK AO2 SLP202 T00280028=
202210231540 SPECI KPWT 231540Z AUTO 00000KT 5SM BR FEW020 BKN028 01/01 A3010 RMK AO2 FZRANO=
202210231520 SPECI KPWT 231520Z AUTO 00000KT 4SM BR FEW002 01/01 A3010 RMK AO2 FZRANO=
202210231518 SPECI KPWT 231518Z AUTO 00000KT 1SM BR VV001 01/01 A3010 RMK AO2 FZRANO=
202210231515 SPECI KPWT 231515Z AUTO 00000KT 1/2SM FG VV002 00/00 A3010 RMK AO2 FZRANO=
202210231508 SPECI KPWT 231508Z AUTO 00000KT 1/4SM FZFG CLR M01/M01 A3010 RMK AO2 FZRANO=
202210231500 SPECI KPWT 231500Z AUTO 00000KT 1/2SM FG CLR 00/00 A3009 RMK AO2 FZRANO=
202210231457 SPECI KPWT 231457Z AUTO 00000KT 1 1/4SM BR CLR 00/00 A3009 RMK AO2 FZRANO=
202210231454 METAR KPWT 231454Z AUTO 00000KT 5SM BR CLR 01/01 A3009 RMK AO2 SLP194 T00060006 51028 FZRANO=
202210231453 SPECI KPWT 231453Z AUTO 00000KT 4SM BR CLR 01/01 A3008 RMK AO2 FZRANO=
202210231447 SPECI KPWT 231447Z AUTO 00000KT 1 1/4SM BR CLR 01/01 A3008 RMK AO2 VIS 1/2V5 FZRANO=
202210231441 SPECI KPWT 231441Z AUTO 00000KT 1/2SM FG CLR 01/01 A3008 RMK AO2 VIS M1/4V5 FZRANO=
202210231438 SPECI KPWT 231438Z AUTO 00000KT 1/4SM FG VV016 01/01 A3008 RMK AO2 VIS M1/4V5 FZRANO=
202210231433 SPECI KPWT 231433Z AUTO 00000KT 3/4SM BR VV016 01/01 A3008 RMK AO2 FZRANO=
202210231428 SPECI KPWT 231428Z AUTO 00000KT 10SM FEW001 01/01 A3008 RMK AO2 FZRANO=
202210231417 SPECI KPWT 231417Z AUTO 00000KT 10SM SCT015 01/01 A3007 RMK AO2 FZRANO=
202210231411 SPECI KPWT 231411Z AUTO 00000KT 2 1/2SM BR FEW002 BKN015 01/01 A3007 RMK AO2 FZRANO=
202210231356 METAR KPWT 231356Z AUTO 00000KT 5SM BR FEW002 OVC015 01/01 A3007 RMK AO2 SLP190 T00060006 FZRANO=
202210231347 SPECI KPWT 231347Z AUTO 00000KT 3SM BR SCT002 BKN015 00/00 A3006 RMK AO2 FZRANO=
202210231338 SPECI KPWT 231338Z AUTO 00000KT 2 1/2SM BR FEW002 BKN015 00/00 A3006 RMK AO2 VIS 1V5 FZRANO=
202210231333 SPECI KPWT 231333Z AUTO 00000KT 4SM BR SCT015 01/01 A3006 RMK AO2 FZRANO=
202210231326 SPECI KPWT 231326Z AUTO 00000KT 2SM BR FEW015 01/01 A3006 RMK AO2 VIS 3/4V5 FZRANO=
202210231316 SPECI KPWT 231316Z AUTO 00000KT 1SM BR CLR 01/01 A3005 RMK AO2 FZRANO=
202210231305 SPECI KPWT 231305Z AUTO 00000KT 3/4SM BR CLR 01/01 A3004 RMK AO2 FZRANO=
202210231256 METAR KPWT 231256Z AUTO 13003KT 1 1/4SM BR CLR 01/01 A3003 RMK AO2 VIS 1/2V5 SLP177 T00060006 FZRANO=
202210231254 SPECI KPWT 231254Z AUTO 00000KT 1 1/4SM BR CLR 01/01 A3003 RMK AO2 VIS 1/2V5 FZRANO=
202210231244 SPECI KPWT 231244Z AUTO 00000KT 3/4SM BR CLR 01/01 A3003 RMK AO2 FZRANO=
202210231237 SPECI KPWT 231237Z AUTO 00000KT 1 1/2SM BR CLR 00/00 A3003 RMK AO2 FZRANO=
202210231156 METAR KPWT 231156Z AUTO 00000KT 5SM BR CLR 01/01 A3000 RMK AO2 SLP166 7//// T00110011 10044 20011 53021 FZRANO=
202210231151 SPECI KPWT 231151Z AUTO 00000KT 3SM BR CLR 01/01 A3000 RMK AO2 FZRANO=
202210231149 SPECI KPWT 231149Z AUTO 00000KT 1SM BR CLR 01/01 A3000 RMK AO2 FZRANO=
202210231145 SPECI KPWT 231145Z AUTO 00000KT 1/2SM FG CLR 02/02 A2999 RMK AO2 FZRANO=
202210231138 SPECI KPWT 231138Z AUTO 00000KT 3/4SM BR CLR 01/01 A2999 RMK AO2 VIS 1/2V5 FZRANO=
202210231135 SPECI KPWT 231135Z AUTO 00000KT 1 1/2SM BR CLR 01/01 A2999 RMK AO2 VIS 1/2V5 FZRANO=
202210231121 SPECI KPWT 231121Z AUTO 00000KT 3SM BR CLR 02/02 A2999 RMK AO2 FZRANO=
202210231118 SPECI KPWT 231118Z AUTO 00000KT 1 1/4SM BR CLR 02/02 A2999 RMK AO2 FZRANO=
202210231112 SPECI KPWT 231112Z AUTO 00000KT 3/4SM BR CLR 02/02 A2999 RMK AO2 FZRANO=
202210231108 SPECI KPWT 231108Z AUTO 00000KT 1 3/4SM BR CLR 01/01 A2998 RMK AO2 FZRANO=
202210231056 METAR KPWT 231056Z AUTO 00000KT 10SM CLR 02/02 A2998 RMK AO2 SLP157 T00220022 FZRANO=
202210230956 METAR KPWT 230956Z AUTO 00000KT 10SM BKN035 OVC042 04/04 A2996 RMK AO2 SLP151 T00390039=
202210230856 METAR KPWT 230856Z AUTO 00000KT 10SM OVC060 04/04 A2994 RMK AO2 SLP144 T00440044 53010=
202210230756 METAR KPWT 230756Z AUTO 00000KT 10SM OVC060 04/04 A2992 RMK AO2 SLP138 T00390039 401170011=
202210230753 SPECI KPWT 230753Z AUTO 00000KT 9SM OVC060 04/04 A2992 RMK AO2 401170011=
202210230745 SPECI KPWT 230745Z AUTO 00000KT 2SM BR OVC060 03/03 A2992 RMK AO2 VIS 3/4V5=
202210230712 SPECI KPWT 230712Z AUTO 00000KT 3SM BR BKN060 02/02 A2991 RMK AO2 FZRANO=
202210230708 SPECI KPWT 230708Z AUTO 00000KT 1 1/4SM BR SCT060 02/02 A2991 RMK AO2 FZRANO=
202210230700 SPECI KPWT 230700Z AUTO 00000KT 3/4SM BR CLR 02/02 A2991 RMK AO2 VIS 1/2V3 FZRANO=
202210230656 METAR KPWT 230656Z AUTO 00000KT 1 1/2SM BR CLR 02/02 A2991 RMK AO2 VIS 3/4V5 SLP135 T00220022 FZRANO=
202210230652 SPECI KPWT 230652Z AUTO 00000KT 1 3/4SM BR CLR 02/02 A2991 RMK AO2 VIS 3/4V5 FZRANO=
202210230556 METAR KPWT 230556Z AUTO 00000KT 10SM CLR 02/02 A2989 RMK AO2 SLP128 T00220022 10094 20022 53017 FZRANO=
202210230509 SPECI KPWT 230509Z AUTO 00000KT 3SM BR CLR 03/03 A2987 RMK AO2=
202210230507 SPECI KPWT 230507Z AUTO 00000KT 1SM BR CLR 03/03 A2987 RMK AO2=
202210230456 METAR KPWT 230456Z AUTO 00000KT 1/2SM FG CLR 03/03 A2987 RMK AO2 SLP121 T00330033=
202210230449 SPECI KPWT 230449Z AUTO 00000KT 1/2SM FG CLR 04/04 A2987 RMK AO2=
202210230446 SPECI KPWT 230446Z AUTO 00000KT 1SM BR FEW027 03/03 A2987 RMK AO2=
202210230431 SPECI KPWT 230431Z AUTO 00000KT 4SM BR SCT027 04/04 A2986 RMK AO2=
202210230427 SPECI KPWT 230427Z AUTO 00000KT 1 1/4SM BR SCT027 05/05 A2986 RMK AO2=
202210230421 SPECI KPWT 230421Z AUTO 00000KT 3/4SM BR BKN027 BKN050 05/05 A2986 RMK AO2=
202210230417 SPECI KPWT 230417Z AUTO 00000KT 1 3/4SM BR BKN029 BKN055 05/05 A2986 RMK AO2=
202210230356 METAR KPWT 230356Z AUTO 00000KT 10SM BKN055 07/06 A2985 RMK AO2 SLP115 T00670061=
202210230256 METAR KPWT 230256Z AUTO 00000KT 10SM BKN055 07/07 A2984 RMK AO2 LTG DSNT SE SLP110 T00670067 53013=
202210230156 METAR KPWT 230156Z AUTO 00000KT 10SM BKN038 OVC050 08/07 A2983 RMK AO2 SLP105 T00780072=
202210230056 METAR KPWT 230056Z AUTO 06003KT 10SM OVC032 09/07 A2981 RMK AO2 SLP099 T00890072=
202210230015 SPECI KPWT 230015Z AUTO 10004KT 10SM FEW025 OVC032 09/07 A2980 RMK AO2=
202210222356 METAR KPWT 222356Z AUTO 09004KT 10SM BKN027 OVC036 09/07 A2980 RMK AO2 SLP096 6//// T00940067 10117 20083 53008=
202210222349 SPECI KPWT 222349Z AUTO 08005KT 10SM BKN024 OVC036 09/07 A2980 RMK AO2=
202210222338 SPECI KPWT 222338Z AUTO 09004KT 10SM SCT024 OVC036 09/07 A2980 RMK AO2=
202210222317 SPECI KPWT 222317Z AUTO 11007KT 10SM BKN021 BKN029 OVC034 10/07 A2979 RMK AO2=
202210222256 METAR KPWT 222256Z AUTO 00000KT 10SM FEW018 BKN034 11/07 A2979 RMK AO2 SLP091 T01110067=
202210222223 SPECI KPWT 222223Z AUTO 00000KT 10SM FEW018 OVC032 11/07 A2979 RMK AO2=
202210222205 SPECI KPWT 222205Z AUTO VRB04KT 10SM BKN016 BKN028 OVC033 11/08 A2978 RMK AO2=
202210222156 METAR KPWT 222156Z AUTO 27003KT 10SM BKN014 BKN019 OVC028 11/07 A2978 RMK AO2 SLP089 T01060072=
202210222056 METAR KPWT 222056Z AUTO 20006KT 10SM BKN010 OVC015 09/08 A2978 RMK AO2 RAB44E54 SLP089 P0000 60000 T00940078 51003=
202210222016 SPECI KPWT 222016Z AUTO 18005KT 10SM BKN010 BKN018 09/07 A2978 RMK AO2 CIG 008V014=
202210222006 SPECI KPWT 222006Z AUTO 19005KT 10SM SCT010 BKN016 09/08 A2978 RMK AO2=
202210221956 METAR KPWT 221956Z AUTO 18006KT 10SM FEW010 BKN014 BKN020 10/08 A2978 RMK AO2 SLP088 T01000078=
202210221929 SPECI KPWT 221929Z AUTO 20003KT 10SM FEW009 BKN014 OVC055 09/07 RMK AO2 $=
202210221903 SPECI KPWT 221903Z AUTO VRB03KT 10SM BKN009 OVC055 09/08 A2978 RMK AO2 CIG 006V014=
202210221856 METAR KPWT 221856Z AUTO 14006KT 10SM SCT007 BKN012 OVC055 09/08 A2977 RMK AO2 SLP087 T00890078=
202210221804 SPECI KPWT 221804Z AUTO 23003KT 10SM BKN007 BKN011 OVC048 09/08 A2977 RMK AO2 CIG 005V010=
202210221756 METAR KPWT 221756Z AUTO 00000KT 10SM SCT005 SCT011 OVC048 09/08 A2977 RMK AO2 SLP086 60001 T00890078 10089 20061 52010=
202210221748 SPECI KPWT 221748Z AUTO 24004KT 10SM SCT005 OVC048 09/08 A2977 RMK AO2=
202210221656 METAR KPWT 221656Z AUTO 21004KT 10SM BKN005 08/08 A2976 RMK AO2 SLP081 T00830078=
202210221652 SPECI KPWT 221652Z AUTO 21004KT 10SM BKN005 08/08 A2975 RMK AO2=
202210221556 METAR KPWT 221556Z AUTO 6SM BR FEW003 OVC035 08/08 A2974 RMK AO2 SLP076 T00780078=
202210221456 METAR KPWT 221456Z AUTO 00000KT 6SM BR FEW010 BKN037 OVC050 07/07 A2973 RMK AO2 SLP072 60001 T00670067 53013=
202210221413 SPECI KPWT 221413Z AUTO 00000KT 10SM SCT011 OVC037 07/07 RMK AO2 $=
202210221356 METAR KPWT 221356Z AUTO 25003KT 10SM BKN009 OVC037 07/07 A2971 RMK AO2 SLP067 T00720072=
202210221256 METAR KPWT 221256Z AUTO 00000KT 8SM OVC009 07/07 A2970 RMK AO2 RAE12 SLP063 P0001 T00720072=
202210221245 SPECI KPWT 221245Z AUTO 00000KT 4SM BR BKN009 BKN040 07/07 A2970 RMK AO2 RAE12 P0001=
202210221228 SPECI KPWT 221228Z AUTO 00000KT 6SM BR FEW009 BKN040 BKN075 07/07 A2969 RMK AO2 RAE12 P0001=
202210221156 METAR KPWT 221156Z AUTO 00000KT 10SM -RA FEW010 BKN042 07/07 A2969 RMK AO2 RAB55 SLP059 P0000 60010 7//// T00720072 10078 20067 51005=
202210221104 SPECI KPWT 221104Z AUTO VRB03KT 9SM SCT006 BKN042 BKN060 08/07 A2968 RMK AO2=
202210221056 METAR KPWT 221056Z AUTO 30004KT 10SM BKN006 BKN044 08/07 A2968 RMK AO2 RAE40 CIG 004V008 SLP056 P0005 T00780072=
202210221052 SPECI KPWT 221052Z AUTO 00000KT 10SM BKN006 BKN044 08/07 A2968 RMK AO2 RAE40 P0005=
202210221036 SPECI KPWT 221036Z AUTO 35009KT 10SM -RA SCT006 SCT021 BKN046 08/08 A2968 RMK AO2 P0005=
202210220956 METAR KPWT 220956Z AUTO 21010KT 7SM RA FEW025 OVC033 07/07 A2967 RMK AO2 SLP052 P0005 T00720072=
202210220930 SPECI KPWT 220930Z AUTO 00000KT 6SM -RA BR SCT017 OVC035 08/08 A2968 RMK AO2 P0000=
202210220856 METAR KPWT 220856Z AUTO 00000KT 10SM -RA FEW002 SCT008 BKN015 07/07 A2968 RMK AO2 RAB29 SLP056 P0000 60000 T00720072 53006=
202210220840 SPECI KPWT 220840Z AUTO 00000KT 10SM -RA FEW002 BKN012 OVC017 07/07 A2968 RMK AO2 RAB29 P0000=
202210220830 SPECI KPWT 220830Z AUTO 22003KT 10SM -RA SCT002 OVC015 07/07 A2968 RMK AO2 RAB29 P0000=
202210220756 METAR KPWT 220756Z AUTO 20004KT 10SM OVC002 07/07 A2967 RMK AO2 SLP052 T00720072 401060067=
202210220741 SPECI KPWT 220741Z AUTO 20003KT 7SM BKN002 OVC013 07/07 A2967 RMK AO2=
202210220728 SPECI KPWT 220728Z AUTO 22004KT 9SM BKN004 OVC013 08/08 A2967 RMK AO2 CIG 002V006=
202210220721 SPECI KPWT 220721Z AUTO 23003KT 10SM SCT004 OVC013 08/08 A2967 RMK AO2=
202210220656 METAR KPWT 220656Z AUTO 23004KT 10SM OVC004 08/08 A2967 RMK AO2 RAE18 SLP052 P0000 T00780078=
202210220640 SPECI KPWT 220640Z AUTO 20003KT 10SM BKN004 OVC014 07/07 A2967 RMK AO2 RAE18 P0000=
202210220631 SPECI KPWT 220631Z AUTO 00000KT 10SM SCT004 BKN012 OVC017 08/08 A2967 RMK AO2 RAE18 P0000=
202210220556 METAR KPWT 220556Z AUTO 00000KT 10SM -RA OVC014 08/08 A2967 RMK AO2 RAE0457B19 SLP050 P0001 60018 T00780078 10083 20078 55005=
202210220518 SPECI KPWT 220518Z AUTO 00000KT 10SM OVC010 08/07 A2967 RMK AO2 RAE0457=
202210220456 METAR KPWT 220456Z AUTO VRB03KT 10SM -RA BKN006 BKN013 OVC024 08/08 A2966 RMK AO2 RAB04 CIG 004V011 SLP049 P0000 T00780078=
202210220449 SPECI KPWT 220449Z AUTO 07004KT 10SM -RA BKN006 OVC024 08/08 A2966 RMK AO2 RAB04 CIG 004V011 P0000=
202210220423 SPECI KPWT 220423Z AUTO 05005KT 10SM -RA SCT006 OVC022 08/08 A2966 RMK AO2 RAB04 P0000=
202210220356 METAR KPWT 220356Z AUTO 06005KT 10SM OVC006 08/08 A2967 RMK AO2 RAE49 CIG 004V010 SLP050 P0001 T00780078=
202210220256 METAR KPWT 220256Z AUTO 36004KT 10SM -RA BKN009 08/08 A2968 RMK AO2 CIG 005V011 SLP055 P0005 60016 T00780078 56011=
202210220253 SPECI KPWT 220253Z AUTO 02005KT 10SM -RA BKN009 08/08 A2968 RMK AO2 CIG 004V011 P0005=
202210220241 SPECI KPWT 220241Z AUTO 04006KT 4SM RA BR SCT007 BKN011 08/08 A2969 RMK AO2 P0004=
202210220230 SPECI KPWT 220230Z AUTO 00000KT 3SM RA BR BKN005 BKN011 08/08 A2970 RMK AO2 CIG 004V008 P0002=
202210220214 SPECI KPWT 220214Z AUTO 00000KT 10SM -RA SCT005 OVC011 08/08 A2969 RMK AO2 P0000=
202210220156 METAR KPWT 220156Z AUTO 00000KT 10SM -RA OVC011 08/08 A2970 RMK AO2 SLP061 P0006 T00780078=
202210220132 SPECI KPWT 220132Z AUTO 19005KT 7SM -RA BKN006 OVC009 08/08 A2970 RMK AO2 CIG 004V007 P0005=
202210220056 METAR KPWT 220056Z AUTO 17004KT 7SM -RA OVC004 08/08 A2971 RMK AO2 SLP066 P0005 T00830078=
202210220030 SPECI KPWT 220030Z AUTO 19004KT 9SM -RA BKN004 OVC011 08/08 A2972 RMK AO2 CIG 003V008 P0002=
202210220015 SPECI KPWT 220015Z AUTO 19004KT 10SM -RA SCT006 BKN011 BKN034 08/08 A2972 RMK AO2 P0001=
202210212356 METAR KPWT 212356Z AUTO 18005KT 10SM -RA FEW008 SCT028 BKN037 08/08 A2972 RMK AO2 SLP069 P0002 60005 T00830083 10094 20083 58007=
202210212351 SPECI KPWT 212351Z AUTO 18006KT 10SM -RA FEW008 SCT028 BKN037 08/08 A2973 RMK AO2 P0002=
202210212256 METAR KPWT 212256Z AUTO 19005KT 10SM -RA FEW008 SCT019 BKN026 09/08 A2974 RMK AO2 SLP076 P0001 T00890083=
202210212253 SPECI KPWT 212253Z AUTO 19005KT 10SM -RA SCT008 BKN026 09/08 A2975 RMK AO2 P0001=
202210212236 SPECI KPWT 212236Z AUTO 20007KT 10SM -RA BKN008 BKN026 09/08 A2975 RMK AO2 CIG 006V013 P0000=
202210212156 METAR KPWT 212156Z AUTO 18005KT 10SM -RA SCT008 OVC028 09/09 A2977 RMK AO2 RAB18 SLP087 P0000 T00890089=
202210212124 SPECI KPWT 212124Z AUTO 19009KT 10SM -RA BKN008 09/08 A2979 RMK AO2 RAB18 CIG 007V013 P0000=
202210212056 METAR KPWT 212056Z AUTO 20006KT 10SM SCT008 09/08 A2981 RMK AO2 RAE54 SLP099 P0000 60002 T00940083 58025=
202210212006 SPECI KPWT 212006Z AUTO 21009KT 10SM -RA BKN008 09/09 A2983 RMK AO2 CIG 006V012 P0000=
202210211956 METAR KPWT 211956Z AUTO 21009KT 10SM -RA BKN010 09/09 A2984 RMK AO2 CIG 006V013 SLP109 P0002 T00940089=
202210211931 SPECI KPWT 211931Z AUTO 21009KT 10SM -RA FEW012 SCT017 BKN046 09/09 A2985 RMK AO2 P0001=
202210211856 METAR KPWT 211856Z AUTO 21004KT 10SM -RA BKN022 09/08 A2986 RMK AO2 RAE1759B20 SLP118 P0000 T00890078=
202210211756 METAR KPWT 211756Z AUTO 23005KT 10SM -RA BKN022 09/07 A2988 RMK AO2 RAB18 SLP124 P0000 6//// T00940067 10094 20083=
202210211656 METAR KPWT 211656Z AUTO 00000KT 10SM BKN020 09/07 A2991 RMK AO2 RAB21E35 SLP132 P0000 T00940067=
202210211556 METAR KPWT 211556Z AUTO 18003KT 6SM BR OVC018 09/07 RMK AO2 SLPNO T00890067 $=
202210211503 SPECI KPWT 211503Z AUTO 00000KT 10SM BKN018 09/06 A2992 RMK AO2=
202210211456 METAR KPWT 211456Z AUTO 00000KT 10SM SCT018 09/07 A2992 RMK AO2 RAB11E37 SLP137 P0000 60000 T00890067 58006=
202210211423 SPECI KPWT 211423Z AUTO 09005KT 10SM -RA FEW020 09/06 A2991 RMK AO2 RAB11 P0000=
202210211356 METAR KPWT 211356Z AUTO 00000KT 10SM OVC018 09/06 A2995 RMK AO2 SLP145 T00890061=
202210211256 METAR KPWT 211256Z AUTO 21003KT 10SM OVC016 09/06 A2994 RMK AO2 SLP141 T00890061=
202210211245 SPECI KPWT 211245Z AUTO 22003KT 10SM OVC016 09/06 A2994 RMK AO2=
202210211156 METAR KPWT 211156Z AUTO 00000KT 10SM BKN014 09/06 A2994 RMK AO2 SLP142 6//// 7//// T00940061 10117 20094 58014=
202210211056 METAR KPWT 211056Z AUTO 21003KT 10SM OVC014 09/06 A2997 RMK AO2 SLP153 T00940061=
202210210956 METAR KPWT 210956Z AUTO 00000KT 10SM OVC012 10/06 A2999 RMK AO2 SLP159 T01000061=
202210210856 METAR KPWT 210856Z AUTO 20004KT 10SM OVC010 10/06 A2998 RMK AO2 SLP156 T01000056 57001=
202210210756 METAR KPWT 210756Z AUTO 21005KT 10SM OVC010 11/06 A3000 RMK AO2 SLP161 T01060056 401720050=
202210210656 METAR KPWT 210656Z AUTO VRB04KT 10SM OVC006 11/07 A2997 RMK AO2 SLP152 T01110072=
202210210621 SPECI KPWT 210621Z AUTO 00000KT 10SM OVC008 11/08 A3000 RMK AO2 CIG 006V010=
202210210556 METAR KPWT 210556Z AUTO 18005KT 10SM SCT006 OVC010 12/09 A2998 RMK AO2 SLP157 6//// T01170089 10156 20117 58010=
202210210549 SPECI KPWT 210549Z AUTO 20004KT 10SM SCT006 BKN010 12/10 A2999 RMK AO2=
202210210538 SPECI KPWT 210538Z AUTO 21004KT 10SM BKN006 12/11 A2999 RMK AO2=
202210210512 SPECI KPWT 210512Z AUTO 16003KT 8SM SCT006 13/12 A2997 RMK AO2=
202210210456 METAR KPWT 210456Z AUTO 00000KT 7SM CLR 13/12 A2999 RMK AO2 SLP159 T01280122=
202210210356 METAR KPWT 210356Z AUTO 00000KT 6SM BR FEW015 13/12 A3002 RMK AO2 SLP169 T01330122=
202210210306 SPECI KPWT 210306Z AUTO 19003KT 6SM BR SCT028 13/12 A3002 RMK AO2=
202210210256 METAR KPWT 210256Z AUTO 00000KT 6SM BR BKN028 13/12 A3002 RMK AO2 SLP170 6//// T01330122 56011=
202210210156 METAR KPWT 210156Z AUTO 00000KT 6SM BR BKN026 OVC033 14/12 A3003 RMK AO2 SLP173 T01440122=
202210210056 METAR KPWT 210056Z AUTO 19004KT 5SM HZ OVC033 15/12 A3002 RMK AO2 SLP170 T01500122=
202210202356 METAR KPWT 202356Z AUTO 20003KT 5SM HZ OVC035 16/12 A3005 RMK AO2 SLP180 6//// T01560122 10172 20133=
202210202256 METAR KPWT 202256Z AUTO 21005KT 4SM HZ OVC037 16/12 A3004 RMK AO2 SLP177 T01610122=
202210202226 SPECI KPWT 202226Z AUTO 23008KT 4SM HZ FEW019 BKN039 16/13 RMK AO2 $=
202210202204 SPECI KPWT 202204Z AUTO 23007KT 4SM HZ BKN019 17/13 A3005 RMK AO2=
202210202156 METAR KPWT 202156Z AUTO VRB04KT 4SM HZ SCT019 17/13 A3005 RMK AO2 SLP179 T01670128=
202210202056 METAR KPWT 202056Z AUTO 23005KT 4SM HZ CLR 17/13 RMK AO2 SLPNO 60000 T01670133 $=
202210201956 METAR KPWT 201956Z AUTO 04005KT 3SM HZ FEW007 BKN041 16/12 A3011 RMK AO2 SLP201 T01560122=
202210201951 SPECI KPWT 201951Z AUTO 04006KT 3SM HZ SCT007 SCT039 15/12 A3012 RMK AO2=
202210201938 SPECI KPWT 201938Z AUTO 36006KT 4SM BR BKN007 16/13 A3012 RMK AO2 CIG 006V010=
202210201912 SPECI KPWT 201912Z AUTO 26004KT 3SM BR SCT007 14/13 A3013 RMK AO2=
202210201856 METAR KPWT 201856Z AUTO 21003KT 4SM BR CLR 14/13 A3013 RMK AO2 RAE16 SLP206 P0000 T01440128=
202210201756 METAR KPWT 201756Z AUTO 06004KT 4SM -RA BR CLR 13/12 A3013 RMK AO2 RAB18 SLP207 P0000 60000 T01330122 10150 20050 50000=
202210201656 METAR KPWT 201656Z AUTO 00000KT 4SM HZ CLR 14/12 A3014 RMK AO2 SLP209 T01440117=
202210201556 METAR KPWT 201556Z AUTO 00000KT 3SM BR CLR 12/11 A3013 RMK AO2 SLP208 T01170111=
202210201542 SPECI KPWT 201542Z AUTO 00000KT 3SM BR CLR 11/10 A3012 RMK AO2=
202210201456 METAR KPWT 201456Z AUTO 00000KT 2 1/2SM BR CLR 07/07 A3013 RMK AO2 SLP208 T00670067 55005=
202210201454 SPECI KPWT 201454Z AUTO 00000KT 3SM BR CLR 07/07 A3013 RMK AO2=
202210201442 SPECI KPWT 201442Z AUTO 00000KT 2SM BR CLR 06/06 A3011 RMK AO2 VIS 1 1/2V3=
202210201435 SPECI KPWT 201435Z AUTO 00000KT 1SM BR CLR 06/06 A3012 RMK AO2 VIS 1/4V3=
202210201428 SPECI KPWT 201428Z AUTO 00000KT 1/4SM FG CLR 06/06 A3012 RMK AO2=
202210201416 SPECI KPWT 201416Z AUTO 00000KT 1/2SM FG CLR 06/06 A3012 RMK AO2=
202210201413 SPECI KPWT 201413Z AUTO 00000KT 1 1/4SM BR CLR 06/06 A3013 RMK AO2=
202210201404 SPECI KPWT 201404Z AUTO 00000KT 3/4SM BR CLR 05/04 A3013 RMK AO2=
202210201356 METAR KPWT 201356Z AUTO 00000KT 1 1/4SM BR CLR 06/06 A3013 RMK AO2 SLP209 T00610056=
202210201353 SPECI KPWT 201353Z AUTO 00000KT 1SM BR CLR 06/06 A3014 RMK AO2 VIS 1/4V5=
202210201349 SPECI KPWT 201349Z AUTO 00000KT 2 1/2SM BR CLR 06/06 A3014 RMK AO2=
202210201342 SPECI KPWT 201342Z AUTO 00000KT 1 1/2SM BR CLR 06/06 A3014 RMK AO2=
202210201333 SPECI KPWT 201333Z AUTO 00000KT 3/4SM BR CLR 06/06 A3014 RMK AO2 VIS 1/4V4=
202210201331 SPECI KPWT 201331Z AUTO 00000KT 1 1/2SM BR CLR 05/05 A3014 RMK AO2 VIS 1/2V4=
202210201256 METAR KPWT 201256Z AUTO 00000KT 4SM BR CLR 07/07 A3015 RMK AO2 SLP212 T00670067=
202210201247 SPECI KPWT 201247Z AUTO 00000KT 4SM BR CLR 06/06 A3015 RMK AO2=
202210201235 SPECI KPWT 201235Z AUTO 00000KT 2SM BR CLR 06/06 A3015 RMK AO2 VIS 1V3=
202210201156 METAR KPWT 201156Z AUTO 01003KT 5SM BR CLR 07/07 A3016 RMK AO2 SLP218 7//// T00670067 10122 20061 56011=
202210201056 METAR KPWT 201056Z AUTO 00000KT 5SM BR CLR 07/06 A3018 RMK AO2 SLP222 T00670061=
202210200956 METAR KPWT 200956Z AUTO 00000KT 5SM BR CLR 07/07 A3018 RMK AO2 SLP224 T00720072=
202210200856 METAR KPWT 200856Z AUTO 00000KT 5SM BR CLR 08/07 A3020 RMK AO2 SLP229 T00780072 56010=
202210200756 METAR KPWT 200756Z AUTO 00000KT 5SM BR CLR 08/08 A3020 RMK AO2 SLP229 T00830078 402000044=
202210200656 METAR KPWT 200656Z AUTO 00000KT 6SM BR CLR 10/09 A3021 RMK AO2 SLP233 T01000089=
202210200556 METAR KPWT 200556Z AUTO 04004KT 7SM CLR 12/10 A3023 RMK AO2 SLP239 6//// T01220100 10189 20117 58005=
202210200456 METAR KPWT 200456Z AUTO 06006KT 6SM BR CLR 13/11 A3024 RMK AO2 SLP243 T01280106=
202210200356 METAR KPWT 200356Z AUTO 04004KT 6SM HZ CLR 13/10 A3024 RMK AO2 SLP245 T01280100=
202210200256 METAR KPWT 200256Z AUTO 00000KT 3SM HZ CLR 12/09 A3025 RMK AO2 SLP247 6//// T01220094 55002=
202210200156 METAR KPWT 200156Z AUTO 06007KT 3SM HZ CLR 15/11 A3024 RMK AO2 SLP245 T01500106=
202210200115 SPECI KPWT 200115Z AUTO 07003KT 2 1/2SM HZ CLR 16/11 A3024 RMK AO2=
202210200056 METAR KPWT 200056Z AUTO 06006KT 3SM HZ CLR 17/11 A3024 RMK AO2 SLP245 T01720111=
202210192356 METAR KPWT 192356Z AUTO 07007KT 3SM HZ CLR 19/12 A3025 RMK AO2 SLP247 6//// T01940117 10200 20156 58013=
202210192256 METAR KPWT 192256Z AUTO 08005KT 3SM HZ CLR 19/12 A3026 RMK AO2 SLP251 T01940117=
202210192156 METAR KPWT 192156Z AUTO 05006KT 4SM HZ 20/12 A3028 RMK AO2 SLP257 T02000117=
202210192056 METAR KPWT 192056Z AUTO 05008KT 5SM HZ CLR 19/12 A3029 RMK AO2 SLP260 6//// T01940117 58014=
202210191956 METAR KPWT 191956Z AUTO 07004KT 7SM CLR 19/12 A3031 RMK AO2 SLP268 T01890122=
202210191856 METAR KPWT 191856Z AUTO 00000KT 5SM HZ CLR 18/12 A3032 RMK AO2 SLP273 T01780117=
202210191756 METAR KPWT 191756Z AUTO 07006KT 9SM CLR 16/11 A3033 RMK AO2 SLP274 T01560111 10161 20044 50004=
202210191656 METAR KPWT 191656Z AUTO 05006KT 10SM CLR 14/12 A3033 RMK AO2 SLP276 T01390117=
202210191556 METAR KPWT 191556Z AUTO 00000KT 8SM CLR 11/10 A3032 RMK AO2 SLP272 T01060100=
202210191534 SPECI KPWT 191534Z AUTO 00000KT 3SM BR CLR 07/07 A3031 RMK AO2=
202210191531 SPECI KPWT 191531Z AUTO 00000KT 1 1/4SM BR CLR 07/07 A3031 RMK AO2 VIS 1/2V5=
202210191529 SPECI KPWT 191529Z AUTO 00000KT 3/4SM BR CLR 07/07 A3031 RMK AO2 VIS 1/4V5=
202210191456 METAR KPWT 191456Z AUTO 00000KT 1/4SM FG CLR 06/06 A3032 RMK AO2 SLP271 T00560056 53002=
202210191453 SPECI KPWT 191453Z AUTO 00000KT 1/2SM FG CLR 05/05 A3032 RMK AO2=
202210191444 SPECI KPWT 191444Z AUTO 00000KT 2SM BR CLR 06/06 A3031 RMK AO2 VIS 1/2V5=
202210191442 SPECI KPWT 191442Z AUTO 00000KT 3/4SM BR CLR 05/05 A3031 RMK AO2=
202210191426 SPECI KPWT 191426Z AUTO 00000KT 1/4SM FG CLR 05/05 A3031 RMK AO2 VIS M1/4V4=
202210191410 SPECI KPWT 191410Z AUTO 00000KT 1/2SM FG CLR 05/05 A3031 RMK AO2=
202210191403 SPECI KPWT 191403Z AUTO 00000KT 3/4SM BR CLR 05/05 A3031 RMK AO2=
202210191401 SPECI KPWT 191401Z AUTO 00000KT 1 1/2SM BR CLR 05/05 A3031 RMK AO2=
202210191356 METAR KPWT 191356Z AUTO 00000KT 10SM CLR 04/04 A3031 RMK AO2 SLP269 T00440044=
202210191354 SPECI KPWT 191354Z AUTO 00000KT 7SM CLR 04/04 A3031 RMK AO2=
202210191347 SPECI KPWT 191347Z AUTO 00000KT 2 1/2SM BR CLR 04/04 A3031 RMK AO2 VIS 3/4V5=
202210191344 SPECI KPWT 191344Z AUTO 00000KT 1SM BR CLR 05/04 A3031 RMK AO2=
202210191336 SPECI KPWT 191336Z AUTO 00000KT 1/2SM FG CLR 06/06 A3031 RMK AO2=
202210191332 SPECI KPWT 191332Z AUTO 00000KT 1 1/2SM BR CLR 06/06 A3031 RMK AO2=
202210191256 METAR KPWT 191256Z AUTO 00000KT 7SM CLR 06/06 A3031 RMK AO2 SLP268 T00610061=
202210191156 METAR KPWT 191156Z AUTO 00000KT 7SM CLR 06/06 A3031 RMK AO2 SLP268 7//// T00560056 10089 20056 51005=
202210191056 METAR KPWT 191056Z AUTO 00000KT 10SM CLR 07/07 A3031 RMK AO2 SLP267 T00720072=
202210191017 SPECI KPWT 191017Z AUTO 00000KT 3SM BR CLR 08/08 A3032 RMK AO2=
202210191004 SPECI KPWT 191004Z AUTO 00000KT 1 3/4SM BR CLR 06/06 A3031 RMK AO2=
202210190956 METAR KPWT 190956Z AUTO 00000KT 10SM CLR 07/07 A3030 RMK AO2 SLP264 T00720072=
202210190856 METAR KPWT 190856Z AUTO 00000KT 10SM CLR 07/07 A3030 RMK AO2 SLP262 T00670067 53009=
202210190756 METAR KPWT 190756Z AUTO 00000KT 9SM CLR 07/07 A3028 RMK AO2 SLP258 T00720067 402060039=
202210190656 METAR KPWT 190656Z AUTO 00000KT 9SM CLR 08/08 A3027 RMK AO2 SLP255 T00830083=
202210190556 METAR KPWT 190556Z AUTO 00000KT 10SM CLR 08/08 A3027 RMK AO2 SLP254 T00830078 10194 20083 51004=
202210190456 METAR KPWT 190456Z AUTO 00000KT 10SM CLR 09/09 A3027 RMK AO2 SLP255 T00940089=
202210190356 METAR KPWT 190356Z AUTO 00000KT 10SM CLR 11/09 A3027 RMK AO2 SLP255 T01060094=
202210190256 METAR KPWT 190256Z AUTO 00000KT 10SM CLR 11/09 A3026 RMK AO2 SLP252 T01060089 53013=
202210190156 METAR KPWT 190156Z AUTO 00000KT 10SM CLR 12/10 A3024 RMK AO2 SLP245 T01220100=
202210190056 METAR KPWT 190056Z AUTO 05004KT 10SM CLR 18/11 A3023 RMK AO2 SLP242 T01780111=
202210182356 METAR KPWT 182356Z AUTO 07007KT 10SM CLR 19/12 A3022 RMK AO2 SLP237 6//// T01940117 10206 20161 58002=
202210182256 METAR KPWT 182256Z AUTO 06005KT 10SM CLR 20/12 A3022 RMK AO2 SLP238 T02000117=
202210182156 METAR KPWT 182156Z AUTO 03006KT 10SM CLR 20/12 A3023 RMK AO2 SLP240 T02000117=
202210182056 METAR KPWT 182056Z AUTO VRB03KT 10SM CLR 21/12 A3023 RMK AO2 SLP239 6//// T02060117 58002=
202210181956 METAR KPWT 181956Z AUTO VRB03KT 10SM CLR 19/12 A3024 RMK AO2 SLP243 T01890117=
202210181856 METAR KPWT 181856Z AUTO 04005KT 10SM CLR 18/12 A3023 RMK AO2 SLP242 T01780117=
202210181756 METAR KPWT 181756Z AUTO 03003KT 10SM CLR 17/12 A3023 RMK AO2 SLP242 T01670117 10167 20039 51006=
202210181656 METAR KPWT 181656Z AUTO 00000KT 10SM CLR 13/10 A3023 RMK AO2 SLP243 T01280100=
202210181556 METAR KPWT 181556Z AUTO 00000KT 6SM BR CLR 09/09 A3022 RMK AO2 SLP238 T00890089=
202210181552 SPECI KPWT 181552Z AUTO 00000KT 1 1/4SM BR CLR 08/08 A3022 RMK AO2 VIS 1/2V5=
202210181550 SPECI KPWT 181550Z AUTO 00000KT 3/4SM BR CLR 08/08 A3022 RMK AO2 VIS 1/4V5=
202210181522 SPECI KPWT 181522Z AUTO 23003KT 1/4SM FG CLR 04/04 A3022 RMK AO2 VIS M1/4V3=
202210181509 SPECI KPWT 181509Z AUTO 00000KT 1/2SM FG CLR 06/06 A3022 RMK AO2=
202210181507 SPECI KPWT 181507Z AUTO 00000KT 1SM BR CLR 05/05 A3022 RMK AO2=
202210181503 SPECI KPWT 181503Z AUTO 00000KT 1/2SM FG CLR 05/05 A3022 RMK AO2 VIS 1/4V5=
202210181456 METAR KPWT 181456Z AUTO 00000KT 1/4SM FG CLR 04/04 A3021 RMK AO2 VIS M1/4V5 SLP237 T00440044 53011=
202210181429 SPECI KPWT 181429Z AUTO 00000KT 1/4SM FG CLR 06/06 A3021 RMK AO2=
202210181427 SPECI KPWT 181427Z AUTO 00000KT 3/4SM BR CLR 06/06 A3021 RMK AO2 VIS 1/4V2=
202210181413 SPECI KPWT 181413Z AUTO 00000KT 1 3/4SM BR CLR 04/04 A3020 RMK AO2=
202210181410 SPECI KPWT 181410Z AUTO 00000KT 3SM BR CLR 04/04 A3020 RMK AO2=
202210181406 SPECI KPWT 181406Z AUTO 00000KT 1 1/4SM BR CLR 06/06 A3020 RMK AO2=
202210181356 METAR KPWT 181356Z AUTO 00000KT 1/2SM FG CLR 04/04 A3020 RMK AO2 SLP232 T00440044=
202210181352 SPECI KPWT 181352Z AUTO 00000KT 1 1/2SM BR CLR 05/05 A3020 RMK AO2=
202210181342 SPECI KPWT 181342Z AUTO 00000KT 7SM CLR 05/05 A3020 RMK AO2=
202210181334 SPECI KPWT 181334Z AUTO 00000KT 2 1/2SM BR CLR 05/05 A3020 RMK AO2=
202210181314 SPECI KPWT 181314Z AUTO 00000KT 5SM BR CLR 05/05 A3020 RMK AO2=
202210181304 SPECI KPWT 181304Z AUTO 00000KT 1SM BR CLR 05/05 A3019 RMK AO2=
202210181256 METAR KPWT 181256Z AUTO 00000KT 2 1/2SM BR CLR 05/05 A3019 RMK AO2 SLP229 T00500050=
202210181250 SPECI KPWT 181250Z AUTO 00000KT 2SM BR CLR 05/05 A3019 RMK AO2 VIS 1/2V5=
202210181224 SPECI KPWT 181224Z AUTO 00000KT 1SM BR CLR 05/05 A3019 RMK AO2 VIS 1/4V5=
202210181203 SPECI KPWT 181203Z AUTO 00000KT 9SM CLR 06/06 A3018 RMK AO2=
202210181156 METAR KPWT 181156Z AUTO 00000KT 2 1/2SM BR CLR 06/06 A3018 RMK AO2 SLP224 7//// T00560056 10083 20044 53008=
202210181146 SPECI KPWT 181146Z AUTO 00000KT 1 1/2SM BR CLR 06/06 A3018 RMK AO2=
202210181132 SPECI KPWT 181132Z AUTO 00000KT 4SM BR CLR 06/06 A3018 RMK AO2=
202210181122 SPECI KPWT 181122Z AUTO 00000KT 1 3/4SM BR CLR 06/06 A3017 RMK AO2=
202210181056 METAR KPWT 181056Z AUTO 00000KT 3SM BR CLR 06/06 A3017 RMK AO2 SLP220 T00560056=
202210181052 SPECI KPWT 181052Z AUTO 00000KT 2SM BR CLR 06/06 A3017 RMK AO2 VIS 3/4V5=
202210181044 SPECI KPWT 181044Z AUTO 00000KT 1 1/4SM BR CLR 06/06 A3017 RMK AO2=
202210181035 SPECI KPWT 181035Z AUTO 00000KT 3/4SM BR CLR 06/06 A3016 RMK AO2=
202210181032 SPECI KPWT 181032Z AUTO 00000KT 1 1/2SM BR CLR 05/04 A3016 RMK AO2=
202210181030 SPECI KPWT 181030Z AUTO 00000KT 3SM BR CLR 05/05 A3016 RMK AO2=
202210181027 SPECI KPWT 181027Z AUTO 00000KT 1SM BR CLR 06/06 A3016 RMK AO2=
202210181021 SPECI KPWT 181021Z AUTO 00000KT 1/2SM FG CLR 06/06 A3016 RMK AO2=
202210181018 SPECI KPWT 181018Z AUTO 00000KT 1SM BR CLR 06/06 A3016 RMK AO2 VIS 1/2V5=
202210181010 SPECI KPWT 181010Z AUTO 00000KT 4SM BR CLR 06/06 A3016 RMK AO2=
202210181008 SPECI KPWT 181008Z AUTO 00000KT 1SM BR CLR 06/06 A3016 RMK AO2 VIS 1/4V5=
202210181002 SPECI KPWT 181002Z AUTO 00000KT 1/2SM FG CLR 06/06 A3016 RMK AO2 VIS 1/4V5=
202210180958 SPECI KPWT 180958Z AUTO 00000KT 1SM BR CLR 06/06 A3016 RMK AO2 VIS 1/4V5=
202210180956 METAR KPWT 180956Z AUTO 00000KT 3SM BR CLR 06/06 A3016 RMK AO2 SLP217 T00610061=
202210180943 SPECI KPWT 180943Z AUTO 00000KT 10SM CLR 06/06 A3016 RMK AO2=
202210180936 SPECI KPWT 180936Z AUTO 00000KT 2 1/2SM BR CLR 06/06 A3016 RMK AO2 VIS 1 1/4V5=
202210180933 SPECI KPWT 180933Z AUTO 00000KT 1SM BR CLR 06/06 A3016 RMK AO2 VIS 1/2V5=
202210180929 SPECI KPWT 180929Z AUTO 00000KT 1/2SM FG CLR 07/07 A3016 RMK AO2=
202210180923 SPECI KPWT 180923Z AUTO 00000KT 1SM BR CLR 06/06 A3016 RMK AO2 VIS 1/4V5=
202210180856 METAR KPWT 180856Z AUTO 00000KT 9SM CLR 07/06 A3016 RMK AO2 SLP216 T00670061 53003=
202210180830 SPECI KPWT 180830Z AUTO 00000KT 8SM CLR 06/06 A3016 RMK AO2=
202210180823 SPECI KPWT 180823Z AUTO 00000KT 2SM BR CLR 06/06 A3016 RMK AO2=
202210180816 SPECI KPWT 180816Z AUTO 00000KT 1 3/4SM BR CLR 06/06 A3015 RMK AO2 VIS 1/2V5=
202210180756 METAR KPWT 180756Z AUTO 00000KT 9SM CLR 07/07 A3015 RMK AO2 SLP213 T00720067 402000050=
202210180656 METAR KPWT 180656Z AUTO 00000KT 8SM CLR 08/07 A3015 RMK AO2 SLP215 T00780072=
202210180556 METAR KPWT 180556Z AUTO 00000KT 10SM CLR 08/08 A3015 RMK AO2 SLP214 6//// T00830078 10194 20078 51007=
202210180456 METAR KPWT 180456Z AUTO 00000KT 10SM CLR 09/08 A3015 RMK AO2 SLP214 T00890083=
202210180356 METAR KPWT 180356Z AUTO 00000KT 10SM CLR 09/09 A3014 RMK AO2 SLP211 T00940089=
202210180256 METAR KPWT 180256Z AUTO 00000KT 10SM CLR 12/10 A3013 RMK AO2 SLP207 6//// T01170100 53009=
202210180156 METAR KPWT 180156Z AUTO 00000KT 10SM CLR 13/10 A3012 RMK AO2 SLP205 T01280100=
202210180056 METAR KPWT 180056Z AUTO 07004KT 10SM CLR 17/11 A3010 RMK AO2 SLP198 T01670111=
202210172356 METAR KPWT 172356Z AUTO 19003KT 10SM CLR 19/12 A3010 RMK AO2 SLP196 6//// T01940117 10200 20122 56007=
202210172256 METAR KPWT 172256Z AUTO 22006KT 10SM CLR 20/12 A3010 RMK AO2 SLP198 T02000117=
202210172156 METAR KPWT 172156Z AUTO 23003KT 10SM CLR 19/12 A3011 RMK AO2 SLP197 T01940117=
202210172056 METAR KPWT 172056Z AUTO 24006KT 10SM CLR 19/12 A3012 RMK AO2 SLP204 6//// T01890117 58012=
202210171956 METAR KPWT 171956Z AUTO 26003KT 10SM CLR 18/12 A3014 RMK AO2 SLP209 T01780117=
202210171856 METAR KPWT 171856Z AUTO 00000KT 10SM CLR 16/12 A3015 RMK AO2 SLP212 T01560117=
202210171832 SPECI KPWT 171832Z AUTO 22004KT 10SM SCT005 14/12 A3015 RMK AO2=
202210171756 METAR KPWT 171756Z AUTO 00000KT 8SM OVC003 12/12 A3016 RMK AO2 SLP217 T01220117 10122 20050 50002=
202210171711 SPECI KPWT 171711Z AUTO 00000KT 3SM BR OVC003 11/11 A3016 RMK AO2=
202210171705 SPECI KPWT 171705Z AUTO 00000KT 1 1/2SM BR OVC003 11/11 A3016 RMK AO2 VIS 1V2 1/2=
202210171656 METAR KPWT 171656Z AUTO 00000KT 1SM BR OVC003 11/11 A3016 RMK AO2 SLP218 T01110111=
202210171652 SPECI KPWT 171652Z AUTO 00000KT 1SM BR OVC003 11/11 A3016 RMK AO2=
202210171613 SPECI KPWT 171613Z AUTO 23004KT 3/4SM BR OVC003 11/11 A3015 RMK AO2=
202210171556 METAR KPWT 171556Z AUTO 00000KT 1/4SM FG OVC003 11/11 A3015 RMK AO2 SLP215 T01110111=
202210171519 SPECI KPWT 171519Z AUTO 00000KT 1/4SM FG OVC003 09/09 RMK AO2 $=
202210171515 SPECI KPWT 171515Z AUTO 00000KT 3/4SM BR OVC003 08/08 A3014 RMK AO2 VIS 1/4V5=
202210171513 SPECI KPWT 171513Z AUTO 00000KT 1 3/4SM BR OVC003 08/08 A3014 RMK AO2 VIS 1/2V5=
202210171508 SPECI KPWT 171508Z AUTO 00000KT 3SM BR OVC003 08/08 A3014 RMK AO2=
202210171501 SPECI KPWT 171501Z AUTO 00000KT 2 1/2SM BR OVC003 08/08 A3014 RMK AO2 VIS 1V5=
202210171456 METAR KPWT 171456Z AUTO 00000KT 1SM BR BKN003 OVC006 07/07 A3014 RMK AO2 VIS 1/2V5 SLP211 T00720072 53013=
202210171453 SPECI KPWT 171453Z AUTO 00000KT 3/4SM BR BKN003 BKN006 07/07 A3014 RMK AO2 VIS 1/4V5=
202210171444 SPECI KPWT 171444Z AUTO 00000KT 1/4SM FG BKN003 BKN006 06/06 A3013 RMK AO2=
202210171442 SPECI KPWT 171442Z AUTO 00000KT 3/4SM BR SCT003 BKN006 06/06 A3013 RMK AO2=
202210171440 SPECI KPWT 171440Z AUTO 00000KT 2 1/2SM BR SCT003 BKN006 06/06 A3013 RMK AO2=
202210171416 SPECI KPWT 171416Z AUTO 00000KT 5SM BR FEW002 06/06 A3013 RMK AO2=
202210171409 SPECI KPWT 171409Z AUTO 00000KT 2SM BR FEW002 07/07 A3012 RMK AO2 VIS 1/4V5=
202210171407 SPECI KPWT 171407Z AUTO 00000KT 1SM BR VV002 07/07 A3012 RMK AO2=
202210171400 SPECI KPWT 171400Z AUTO 00000KT 1/2SM FG VV002 07/07 A3012 RMK AO2=
202210171358 SPECI KPWT 171358Z AUTO 00000KT 1SM BR VV002 07/07 A3012 RMK AO2=
202210171356 METAR KPWT 171356Z AUTO 00000KT 2SM BR FEW002 07/07 A3012 RMK AO2 SLP204 T00670067=
202210171256 METAR KPWT 171256Z AUTO 00000KT 8SM CLR 07/07 A3011 RMK AO2 SLP200 T00720072=
202210171156 METAR KPWT 171156Z AUTO 00000KT 5SM BR CLR 09/09 A3010 RMK AO2 SLP195 7//// T00940094 10128 20089 53008=
202210171056 METAR KPWT 171056Z AUTO 14004KT 10SM CLR 12/11 A3009 RMK AO2 SLP190 T01220111=
202210170956 METAR KPWT 170956Z AUTO 22003KT 10SM CLR 11/10 A3008 RMK AO2 SLP186 T01060100=
202210170856 METAR KPWT 170856Z AUTO 21005KT 10SM CLR 11/10 A3008 RMK AO2 SLP186 T01060100 53009=
202210170756 METAR KPWT 170756Z AUTO 21004KT 10SM CLR 11/10 A3006 RMK AO2 SLP181 T01110100 403110089=
202210170656 METAR KPWT 170656Z AUTO 18005KT 10SM CLR 13/11 A3006 RMK AO2 SLP179 T01280111=
202210170556 METAR KPWT 170556Z AUTO VRB04KT 10SM CLR 12/11 A3005 RMK AO2 SLP177 T01170106 10283 20111 51018=
202210170456 METAR KPWT 170456Z AUTO 22004KT 10SM CLR 11/10 A3003 RMK AO2 SLP173 T01110100=
202210170356 METAR KPWT 170356Z AUTO 21005KT 10SM CLR 11/09 A3002 RMK AO2 SLP168 T01110094=
202210170256 METAR KPWT 170256Z AUTO 21004KT 10SM CLR 12/10 A3000 RMK AO2 SLP162 T01220100 53027=
202210170156 METAR KPWT 170156Z AUTO 23010KT 10SM CLR 16/11 A2997 RMK AO2 SLP151 T01560111=
202210170056 METAR KPWT 170056Z AUTO 22011KT 10SM CLR 19/11 A2994 RMK AO2 SLP142 T01940111=
202210162356 METAR KPWT 162356Z AUTO 21006KT 10SM CLR 29/05 A2992 RMK AO2 SLP131 T02890050 10311 20267 55007=
202210162256 METAR KPWT 162256Z AUTO 05005KT 10SM CLR 30/03 A2991 RMK AO2 SLP131 T03000033=
202210162156 METAR KPWT 162156Z AUTO 06005KT 10SM CLR 30/04 A2992 RMK AO2 SLP133 T03000039=
202210162056 METAR KPWT 162056Z AUTO 07005KT 10SM CLR 29/04 A2994 RMK AO2 SLP137 T02940039 58010=
202210161956 METAR KPWT 161956Z AUTO VRB03KT 10SM CLR 29/04 A2995 RMK AO2 SLP143 T02890039=
202210161856 METAR KPWT 161856Z AUTO 05005KT 10SM CLR 28/03 A2996 RMK AO2 SLP147 T02780033=
202210161756 METAR KPWT 161756Z AUTO 05003KT 10SM CLR 26/03 A2996 RMK AO2 SLP147 6//// T02610033 10261 20089 51005=
202210161656 METAR KPWT 161656Z AUTO 01005KT 10SM CLR 24/07 A2996 RMK AO2 SLP147 T02390067=
202210161556 METAR KPWT 161556Z AUTO 00000KT 10SM CLR 16/08 A2996 RMK AO2 SLP145 T01610078=
202210161456 METAR KPWT 161456Z AUTO 00000KT 10SM CLR 11/05 A2995 RMK AO2 SLP146 T01060050 52003=
202210161356 METAR KPWT 161356Z AUTO 00000KT 10SM CLR 10/06 A2995 RMK AO2 SLP145 T01000056=
202210161256 METAR KPWT 161256Z AUTO 00000KT 10SM CLR 11/06 A2994 RMK AO2 SLP143 T01110061=
202210161156 METAR KPWT 161156Z AUTO 00000KT 10SM CLR 12/06 A2994 RMK AO2 SLP141 7//// T01220056 10200 20106 58003=
202210161056 METAR KPWT 161056Z AUTO 00000KT 10SM CLR 12/06 A2995 RMK AO2 SLP144 T01170056=
202210160956 METAR KPWT 160956Z AUTO 00000KT 10SM CLR 14/06 A2995 RMK AO2 SLP143 T01440061=
202210160856 METAR KPWT 160856Z AUTO 00000KT 10SM CLR 12/06 A2995 RMK AO2 SLP144 T01170056 53002=
202210160756 METAR KPWT 160756Z AUTO 02004KT 10SM CLR 17/06 A2995 RMK AO2 SLP142 T01670061 402610139=
202210160656 METAR KPWT 160656Z AUTO 06004KT 10SM CLR 15/07 A2994 RMK AO2 SLP141 T01500067=
202210160556 METAR KPWT 160556Z AUTO 00000KT 10SM CLR 15/07 A2995 RMK AO2 SLP143 T01500067 10244 20150 51004=
202210160456 METAR KPWT 160456Z AUTO 06007KT 9SM CLR 20/07 A2994 RMK AO2 SLP141 T02000072=
202210160356 METAR KPWT 160356Z AUTO 05007KT 8SM CLR 20/07 A2994 RMK AO2 SLP140 T02000072=
202210160256 METAR KPWT 160256Z AUTO 05008KT 7SM CLR 21/07 A2993 RMK AO2 SLP137 T02110072 53002=
202210160156 METAR KPWT 160156Z AUTO 05008KT 5SM HZ CLR 22/07 A2992 RMK AO2 SLP134 T02170072=
202210160056 METAR KPWT 160056Z AUTO 06008KT 5SM HZ CLR 23/08 A2992 RMK AO2 SLP134 T02280083=
202210152356 METAR KPWT 152356Z AUTO 05008KT 5SM HZ CLR 24/09 A2993 RMK AO2 SLP134 6//// T02440094 10261 20200 56009=
202210152256 METAR KPWT 152256Z AUTO 04008KT 4SM HZ CLR 26/10 A2993 RMK AO2 SLP136 T02610100=
202210152156 METAR KPWT 152156Z AUTO 05009KT 4SM HZ CLR 26/09 A2993 RMK AO2 SLP137 T02560094=
202210152056 METAR KPWT 152056Z AUTO 05009KT 4SM HZ CLR 26/09 A2995 RMK AO2 SLP143 6//// T02560089 58013=
202210151956 METAR KPWT 151956Z AUTO 05010KT 6SM HZ 24/10 A2997 RMK AO2 SLP150 T02440100=
202210151856 METAR KPWT 151856Z AUTO 05010KT 7SM CLR 22/11 A2999 RMK AO2 SLP156 T02220106=
202210151756 METAR KPWT 151756Z AUTO 05010KT 10SM CLR 20/10 A2999 RMK AO2 SLP159 T02000100 10200 20139 52004=
202210151656 METAR KPWT 151656Z AUTO 04011KT 10SM CLR 18/09 A2999 RMK AO2 SLP157 T01830094=
202210151556 METAR KPWT 151556Z AUTO 05010KT 10SM CLR 16/09 A2998 RMK AO2 SLP156 T01610094=
202210151456 METAR KPWT 151456Z AUTO 05010KT 10SM CLR 15/09 A2998 RMK AO2 SLP156 T01500089 51005=
202210151356 METAR KPWT 151356Z AUTO 04010KT 10SM CLR 14/09 A2998 RMK AO2 SLP154 T01440089=
202210151256 METAR KPWT 151256Z AUTO 05011KT 10SM CLR 14/08 A2998 RMK AO2 SLP154 T01440083=
202210151156 METAR KPWT 151156Z AUTO 05010KT 10SM CLR 15/08 A2996 RMK AO2 SLP148 7//// T01500083 10172 20144 50003=
202210151056 METAR KPWT 151056Z AUTO 05010KT 10SM CLR 15/08 A2997 RMK AO2 SLP149 T01500083=
202210150956 METAR KPWT 150956Z AUTO 04012G17KT 10SM CLR 16/08 A2996 RMK AO2 SLP146 T01560083=
202210150856 METAR KPWT 150856Z AUTO 05013G18KT 10SM CLR 16/08 A2996 RMK AO2 SLP145 T01560083 58011=
202210150756 METAR KPWT 150756Z AUTO 05007KT 10SM CLR 15/08 A2997 RMK AO2 SLP150 T01500083 402390044=
202210150656 METAR KPWT 150656Z AUTO 06007KT 10SM CLR 16/08 A2998 RMK AO2 SLP154 T01560083=
202210150556 METAR KPWT 150556Z AUTO 04005KT 10SM CLR 15/08 A2999 RMK AO2 SLP157 6//// T01500083 10222 20139 53000=
202210150456 METAR KPWT 150456Z AUTO 03009KT 10SM CLR 17/08 A2999 RMK AO2 SLP157 T01670083=
202210150356 METAR KPWT 150356Z AUTO 04013KT 10SM CLR 17/08 A2997 RMK AO2 SLP151 T01670078=
202210150256 METAR KPWT 150256Z AUTO 03004KT 10SM CLR 16/08 A2999 RMK AO2 SLP159 T01560083 55000=
202210150156 METAR KPWT 150156Z AUTO 04006KT 10SM CLR 16/07 A2997 RMK AO2 SLP155 T01560072=
202210150056 METAR KPWT 150056Z AUTO 04006KT 10SM CLR 21/07 A2997 RMK AO2 SLP151 T02110067=
202210142356 METAR KPWT 142356Z AUTO 03005KT 10SM CLR 22/07 A2999 RMK AO2 SLP157 6//// T02170067 10239 20183 56013=
202210142256 METAR KPWT 142256Z AUTO 06009KT 10SM CLR 23/07 A2999 RMK AO2 SLP159 T02330067=
202210142156 METAR KPWT 142156Z AUTO 06008KT 10SM CLR 23/07 A3001 RMK AO2 SLP164 T02330072=
202210142056 METAR KPWT 142056Z AUTO 05010KT 10SM CLR 23/09 A3003 RMK AO2 SLP172 6//// T02330089 58011=
202210141956 METAR KPWT 141956Z AUTO 05007KT 10SM CLR 22/09 A3005 RMK AO2 SLP178 T02170094=
202210141856 METAR KPWT 141856Z AUTO 05010KT 10SM CLR 20/09 A3006 RMK AO2 SLP180 T02000094=
202210141756 METAR KPWT 141756Z AUTO 05012KT 10SM CLR 18/09 A3006 RMK AO2 SLP183 T01830094 10183 20044 58005=
202210141656 METAR KPWT 141656Z AUTO 34003KT 10SM CLR 16/10 A3007 RMK AO2 SLP185 T01610100=
202210141556 METAR KPWT 141556Z AUTO 00000KT 10SM CLR 11/09 A3007 RMK AO2 SLP188 T01110089=
202210141456 METAR KPWT 141456Z AUTO 00000KT 10SM CLR 05/04 A3008 RMK AO2 SLP190 T00500044 55000=
202210141356 METAR KPWT 141356Z AUTO 00000KT 10SM CLR 06/06 A3007 RMK AO2 SLP189 T00560056=
202210141256 METAR KPWT 141256Z AUTO 00000KT 10SM CLR 06/06 A3007 RMK AO2 SLP187 T00610056=
202210141156 METAR KPWT 141156Z AUTO 00000KT 10SM CLR 06/06 A3008 RMK AO2 SLP187 T00610056 10161 20050 58003=
202210141056 METAR KPWT 141056Z AUTO 00000KT 10SM CLR 06/04 A3008 RMK AO2 SLP189 T00560039=
202210140956 METAR KPWT 140956Z AUTO 00000KT 10SM CLR 07/05 A3009 RMK AO2 SLP192 T00670050=
202210140856 METAR KPWT 140856Z AUTO 00000KT 10SM CLR 09/07 A3009 RMK AO2 SLP192 T00890067 56003=
202210140756 METAR KPWT 140756Z AUTO 00000KT 10SM CLR 10/07 A3009 RMK AO2 SLP192 T01000072 402390044=
202210140656 METAR KPWT 140656Z AUTO 00000KT 10SM CLR 13/08 A3009 RMK AO2 SLP193 T01330078=
202210140556 METAR KPWT 140556Z AUTO 04004KT 10SM CLR 13/08 A3010 RMK AO2 SLP195 T01330083 10228 20122 56002=
202210140456 METAR KPWT 140456Z AUTO 05005KT 9SM CLR 14/08 A3010 RMK AO2 SLP195 T01440078=
202210140356 METAR KPWT 140356Z AUTO 00000KT 8SM CLR 12/08 A3009 RMK AO2 SLP196 T01220078=
202210140256 METAR KPWT 140256Z AUTO 00000KT 7SM CLR 15/08 A3010 RMK AO2 SLP198 T01500083 55000=
202210140156 METAR KPWT 140156Z AUTO 00000KT 6SM HZ CLR 17/09 A3009 RMK AO2 SLP195 T01670089=
202210140056 METAR KPWT 140056Z AUTO 06006KT 6SM HZ CLR 21/09 A3010 RMK AO2 SLP195 T02110094=
202210132356 METAR KPWT 132356Z AUTO 05006KT 9SM CLR 23/10 A3010 RMK AO2 SLP196 T02330100 10239 20183 56019=
202210132256 METAR KPWT 132256Z AUTO 08006KT 10SM CLR 24/11 A3012 RMK AO2 SLP201 T02390106=
202210132156 METAR KPWT 132156Z AUTO 04005KT 10SM CLR 24/11 A3013 RMK AO2 SLP207 T02390106=
202210132056 METAR KPWT 132056Z AUTO 03005KT 10SM CLR 23/10 A3016 RMK AO2 SLP215 T02280100 56015=
202210131956 METAR KPWT 131956Z AUTO 02005KT 6SM HZ CLR 21/10 A3017 RMK AO2 SLP219 T02110100=
202210131856 METAR KPWT 131856Z AUTO 04006KT 9SM CLR 20/09 A3019 RMK AO2 SLP225 T02000094=
202210131756 METAR KPWT 131756Z AUTO 00000KT 10SM CLR 18/11 A3020 RMK AO2 SLP230 T01830106 10183 20044 50000=
202210131656 METAR KPWT 131656Z AUTO 00000KT 10SM CLR 15/09 A3021 RMK AO2 SLP232 T01500094=
202210131556 METAR KPWT 131556Z AUTO 00000KT 10SM CLR 10/09 A3021 RMK AO2 SLP233 T01000094=
202210131456 METAR KPWT 131456Z AUTO 00000KT 5SM BR CLR 06/06 A3020 RMK AO2 SLP233 T00560056 50003=
202210131453 SPECI KPWT 131453Z AUTO 00000KT 2 1/2SM BR CLR 05/05 A3020 RMK AO2 VIS 1/2V5=
202210131445 SPECI KPWT 131445Z AUTO 00000KT 1 1/4SM BR CLR 05/05 A3020 RMK AO2 VIS 1/4V5=
202210131428 SPECI KPWT 131428Z AUTO 00000KT 3/4SM BR CLR 05/05 A3020 RMK AO2 VIS M1/4V5=
202210131422 SPECI KPWT 131422Z AUTO 00000KT 1/4SM FG CLR 04/04 A3020 RMK AO2 VIS M1/4V5=
202210131416 SPECI KPWT 131416Z AUTO 00000KT 3/4SM BR CLR 05/04 A3020 RMK AO2=
202210131356 METAR KPWT 131356Z AUTO 00000KT 3SM BR CLR 05/05 A3020 RMK AO2 SLP232 T00500050=
202210131338 SPECI KPWT 131338Z AUTO 00000KT 5SM BR CLR 05/05 A3019 RMK AO2=
202210131329 SPECI KPWT 131329Z AUTO 22003KT 2 1/2SM BR CLR 05/05 A3020 RMK AO2=
202210131256 METAR KPWT 131256Z AUTO 22003KT 10SM CLR 06/06 A3019 RMK AO2 SLP229 T00560056=
202210131156 METAR KPWT 131156Z AUTO 22004KT 9SM CLR 04/04 A3019 RMK AO2 SLP228 7//// T00440044 10111 20044 56005=
202210131056 METAR KPWT 131056Z AUTO 00000KT 7SM CLR 06/06 A3020 RMK AO2 SLP229 T00610061=
202210130956 METAR KPWT 130956Z AUTO 00000KT 10SM CLR 06/06 A3020 RMK AO2 SLP230 T00610056=
202210130856 METAR KPWT 130856Z AUTO 00000KT 10SM CLR 07/06 A3021 RMK AO2 SLP231 T00670056 53001=
202210130756 METAR KPWT 130756Z AUTO 00000KT 10SM CLR 08/07 A3020 RMK AO2 SLP231 T00780067 402110067=
202210130656 METAR KPWT 130656Z AUTO 23003KT 10SM CLR 08/06 A3020 RMK AO2 SLP232 T00780061=
202210130556 METAR KPWT 130556Z AUTO 35003KT 10SM CLR 11/07 A3020 RMK AO2 SLP231 6//// T01060072 10189 20106 55000=
202210130456 METAR KPWT 130456Z AUTO 07003KT 10SM CLR 13/08 A3020 RMK AO2 SLP231 T01280083=
202210130356 METAR KPWT 130356Z AUTO 05005KT 10SM CLR 14/08 A3020 RMK AO2 SLP231 T01390083=
202210130256 METAR KPWT 130256Z AUTO 06004KT 10SM CLR 14/09 A3020 RMK AO2 SLP233 6//// T01390089 53002=
202210130156 METAR KPWT 130156Z AUTO 06005KT 10SM CLR 14/09 A3020 RMK AO2 SLP229 T01440089=
202210130056 METAR KPWT 130056Z AUTO 05006KT 10SM CLR 18/09 A3020 RMK AO2 SLP228 T01780094=
202210122356 METAR KPWT 122356Z AUTO 05007KT 10SM CLR 19/09 A3020 RMK AO2 SLP229 6//// T01890089 10211 20156 57006=
202210122256 METAR KPWT 122256Z AUTO 05007KT 10SM CLR 20/09 A3020 RMK AO2 SLP232 T02000089=
202210122156 METAR KPWT 122156Z AUTO 05010KT 10SM CLR 21/09 A3021 RMK AO2 SLP234 T02110094=
202210122117 SPECI KPWT 122117Z AUTO 06010KT 10SM FEW001 21/09 A3021 RMK AO2=
202210122056 METAR KPWT 122056Z AUTO 05009KT 10SM CLR 21/09 A3022 RMK AO2 SLP235 T02110094 58014=
202210121956 METAR KPWT 121956Z AUTO 05010KT 10SM CLR 19/09 A3024 RMK AO2 SLP242 T01890089=
202210121856 METAR KPWT 121856Z AUTO 05009KT 10SM CLR 18/09 A3025 RMK AO2 SLP248 T01780089=
202210121756 METAR KPWT 121756Z AUTO 05009G15KT 10SM CLR 16/09 A3026 RMK AO2 SLP252 T01560089 10156 20094 50003=
202210121656 METAR KPWT 121656Z AUTO 05012KT 10SM CLR 14/08 A3026 RMK AO2 SLP251 T01390083=
202210121556 METAR KPWT 121556Z AUTO 05007KT 10SM CLR 12/08 A3026 RMK AO2 SLP250 T01220083=
202210121456 METAR KPWT 121456Z AUTO 05004KT 10SM CLR 09/07 A3025 RMK AO2 SLP247 T00940072 51006=
202210121356 METAR KPWT 121356Z AUTO 07005KT 10SM CLR 10/07 A3024 RMK AO2 SLP245 T01000072=
202210121256 METAR KPWT 121256Z AUTO 09003KT 10SM CLR 10/07 A3024 RMK AO2 SLP243 T01000072=
202210121156 METAR KPWT 121156Z AUTO 00000KT 10SM CLR 09/07 A3023 RMK AO2 SLP241 6//// 7//// T00940067 10122 20067 55001=
202210121056 METAR KPWT 121056Z AUTO 04004KT 10SM CLR 11/07 A3023 RMK AO2 SLP238 T01060067=
202210120956 METAR KPWT 120956Z AUTO 07006KT 10SM CLR 12/07 A3023 RMK AO2 SLP241 T01170067=
202210120856 METAR KPWT 120856Z AUTO 04009KT 10SM CLR 12/06 A3024 RMK AO2 SLP243 6//// T01220061 51003=
202210120756 METAR KPWT 120756Z AUTO 06003KT 10SM CLR 11/06 A3023 RMK AO2 SLP241 T01110056 402000039=
202210120656 METAR KPWT 120656Z AUTO 00000KT 10SM CLR 08/05 A3023 RMK AO2 SLP242 T00780050=
202210120556 METAR KPWT 120556Z AUTO 00000KT 10SM CLR 07/04 A3023 RMK AO2 SLP240 6//// T00720044 10194 20072 51008=
202210120456 METAR KPWT 120456Z AUTO 03005KT 10SM CLR 11/06 A3022 RMK AO2 SLP238 T01060061=
202210120356 METAR KPWT 120356Z AUTO 05007KT 10SM CLR 14/07 A3021 RMK AO2 SLP233 T01390067=
202210120256 METAR KPWT 120256Z AUTO 06005KT 10SM CLR 14/07 A3020 RMK AO2 SLP232 6//// T01440067 53004=
202210120156 METAR KPWT 120156Z AUTO 04003KT 10SM CLR 14/08 A3019 RMK AO2 SLP228 T01440078=
202210120056 METAR KPWT 120056Z AUTO 06004KT 10SM CLR 18/08 A3019 RMK AO2 SLP227 T01780083=
202210112356 METAR KPWT 112356Z AUTO 08004KT 10SM CLR 19/08 A3019 RMK AO2 SLP227 6//// T01940078 10200 20156 58007=
202210112256 METAR KPWT 112256Z AUTO 04006KT 10SM CLR 19/08 A3020 RMK AO2 SLP231 T01940083=
202210112156 METAR KPWT 112156Z AUTO 04006KT 10SM CLR 19/08 A3020 RMK AO2 SLP230 T01940083=
202210112056 METAR KPWT 112056Z AUTO 06005KT 10SM 19/07 A3021 RMK AO2 SLP234 6//// T01890072=
202210111956 METAR KPWT 111956Z AUTO VRB05KT 10SM CLR 18/08 RMK AO2 SLPNO T01830083 $=
202210111856 METAR KPWT 111856Z AUTO VRB06KT 10SM CLR 17/08 A3024 RMK AO2 SLP243 T01670078=
202210111756 METAR KPWT 111756Z AUTO 05006KT 10SM CLR 16/08 A3024 RMK AO2 SLP243 T01560083 10156 20039 51014=
202210111656 METAR KPWT 111656Z AUTO 05007KT 10SM CLR 14/08 A3024 RMK AO2 SLP242 T01440078=
202210111556 METAR KPWT 111556Z AUTO 00000KT 10SM CLR 12/10 A3021 RMK AO2 SLP232 T01220100=
202210111523 SPECI KPWT 111523Z AUTO 00000KT 8SM CLR 07/07 A3019 RMK AO2=
202210111516 SPECI KPWT 111516Z AUTO 00000KT 1 3/4SM BR CLR 07/07 A3020 RMK AO2=
202210111514 SPECI KPWT 111514Z AUTO 00000KT 3/4SM BR CLR 07/07 A3020 RMK AO2=
202210111456 METAR KPWT 111456Z AUTO 00000KT 1/4SM FG CLR 04/04 A3020 RMK AO2 SLP231 T00440044 51006=
202210111453 SPECI KPWT 111453Z AUTO 00000KT 1SM BR CLR 05/05 A3020 RMK AO2=
202210111434 SPECI KPWT 111434Z AUTO 00000KT 3SM BR CLR 07/07 A3020 RMK AO2=
202210111432 SPECI KPWT 111432Z AUTO 00000KT 3/4SM BR CLR 06/06 A3020 RMK AO2=
202210111425 SPECI KPWT 111425Z AUTO 00000KT 1/4SM FG CLR 04/04 A3019 RMK AO2=
202210111417 SPECI KPWT 111417Z AUTO 00000KT 1/2SM FG CLR 04/04 A3019 RMK AO2=
202210111415 SPECI KPWT 111415Z AUTO 00000KT 1SM BR CLR 04/04 A3019 RMK AO2=
202210111356 METAR KPWT 111356Z AUTO 00000KT 9SM CLR 07/06 A3020 RMK AO2 SLP231 T00670061=
202210111256 METAR KPWT 111256Z AUTO 00000KT 10SM CLR 06/06 A3020 RMK AO2 SLP231 T00560056=
202210111156 METAR KPWT 111156Z AUTO 00000KT 10SM CLR 07/06 A3018 RMK AO2 SLP223 7//// T00670061 10133 20067 53014=
202210111056 METAR KPWT 111056Z AUTO 00000KT 10SM CLR 07/07 A3016 RMK AO2 SLP214 T00720072=
202210111034 SPECI KPWT 111034Z AUTO 00000KT 10SM SCT029 08/08 A3016 RMK AO2=
202210111019 SPECI KPWT 111019Z AUTO 00000KT 10SM BKN029 08/07 A3015 RMK AO2=
202210110956 METAR KPWT 110956Z AUTO 00000KT 10SM FEW050 10/09 A3015 RMK AO2 SLP212 T01000094=
202210110934 SPECI KPWT 110934Z AUTO 00000KT 10SM SCT011 BKN050 11/10 A3015 RMK AO2=
202210110856 METAR KPWT 110856Z AUTO 18003KT 10SM OVC011 12/09 A3014 RMK AO2 SLP209 T01170094 51025=
202210110810 SPECI KPWT 110810Z AUTO VRB03KT 10SM BKN013 OVC019 12/10 A3013 RMK AO2=
202210110756 METAR KPWT 110756Z AUTO 17003KT 10SM OVC019 12/10 A3012 RMK AO2 SLP202 T01220100 402170061=
202210110656 METAR KPWT 110656Z AUTO 06003KT 10SM OVC021 13/11 A3010 RMK AO2 SLP195 T01330106=
202210110556 METAR KPWT 110556Z AUTO 10003KT 10SM OVC019 13/11 A3007 RMK AO2 SLP184 6//// T01330106 10217 20133 53018=
202210110508 SPECI KPWT 110508Z AUTO 07006KT 10SM BKN019 OVC030 14/11 A3004 RMK AO2=
202210110456 METAR KPWT 110456Z AUTO 09006KT 10SM FEW019 OVC030 14/11 A3004 RMK AO2 SLP175 T01390111=
202210110356 METAR KPWT 110356Z AUTO 07008KT 10SM OVC016 15/13 A3002 RMK AO2 SLP169 T01500128=
202210110256 METAR KPWT 110256Z AUTO 04009KT 10SM OVC022 16/13 A3001 RMK AO2 SLP166 6//// T01610128 53005=
202210110217 SPECI KPWT 110217Z AUTO 07006KT 10SM BKN024 17/13 A3000 RMK AO2=
202210110156 METAR KPWT 110156Z AUTO 08005KT 10SM CLR 17/13 A2999 RMK AO2 SLP160 T01670128=
202210110056 METAR KPWT 110056Z AUTO 05009KT 10SM CLR 19/13 A3000 RMK AO2 SLP163 T01940133=
202210102356 METAR KPWT 102356Z AUTO 05003KT 10SM CLR 21/13 A3000 RMK AO2 SLP161 6//// T02060133 10217 20150 56016=
202210102256 METAR KPWT 102256Z AUTO VRB04KT 10SM CLR 21/13 A3001 RMK AO2 SLP164 T02110133=
202210102156 METAR KPWT 102156Z AUTO 00000KT 4SM HZ CLR 19/13 A3002 RMK AO2 SLP168 T01940128=
202210102056 METAR KPWT 102056Z AUTO 00000KT 10SM CLR 17/12 A3005 RMK AO2 SLP178 6//// T01670122 58006=
202210101956 METAR KPWT 101956Z AUTO 23009KT 10SM FEW012 15/12 A3006 RMK AO2 SLP183 T01500117=
202210101856 METAR KPWT 101856Z AUTO 22010KT 10SM CLR 17/12 A3006 RMK AO2 SLP184 T01670122=
202210101756 METAR KPWT 101756Z AUTO 19008KT 10SM CLR 17/12 A3007 RMK AO2 SLP184 T01670122 10167 20061 55005=
202210101656 METAR KPWT 101656Z AUTO 21004KT 10SM CLR 14/12 A3006 RMK AO2 SLP183 T01440122=
202210101556 METAR KPWT 101556Z AUTO 21004KT 10SM CLR 13/12 A3007 RMK AO2 SLP187 T01280117=
202210101456 METAR KPWT 101456Z AUTO 00000KT 10SM CLR 08/07 A3008 RMK AO2 SLP190 T00780072 53001=
202210101356 METAR KPWT 101356Z AUTO 00000KT 10SM CLR 07/07 A3007 RMK AO2 SLP188 T00720072=
202210101256 METAR KPWT 101256Z AUTO 00000KT 10SM CLR 07/07 A3007 RMK AO2 SLP187 T00720067=
202210101156 METAR KPWT 101156Z AUTO 00000KT 9SM CLR 06/06 A3008 RMK AO2 SLP188 7//// T00610061 10106 20061 58004=
202210101056 METAR KPWT 101056Z AUTO 00000KT 10SM CLR 08/08 A3009 RMK AO2 SLP193 T00830078=
202210100956 METAR KPWT 100956Z AUTO 00000KT 10SM CLR 09/08 A3010 RMK AO2 SLP195 T00890083=
202210100856 METAR KPWT 100856Z AUTO 00000KT 10SM CLR 09/08 A3009 RMK AO2 SLP193 T00890083 56006=
202210100756 METAR KPWT 100756Z AUTO 00000KT 10SM CLR 09/08 A3009 RMK AO2 SLP194 T00890083 402390078=
202210100656 METAR KPWT 100656Z AUTO 00000KT 10SM CLR 10/09 A3010 RMK AO2 SLP195 T01000089=
202210100556 METAR KPWT 100556Z AUTO 00000KT 10SM CLR 11/09 A3011 RMK AO2 SLP198 6//// T01060089 10233 20100 53001=
202210100456 METAR KPWT 100456Z AUTO 00000KT 10SM CLR 11/09 A3011 RMK AO2 SLP197 T01110094=
202210100356 METAR KPWT 100356Z AUTO 00000KT 10SM CLR 13/10 A3011 RMK AO2 SLP197 T01280100=
202210100256 METAR KPWT 100256Z AUTO 00000KT 10SM CLR 14/10 A3011 RMK AO2 SLP198 6//// T01390100 53001=
202210100156 METAR KPWT 100156Z AUTO 00000KT 9SM CLR 16/11 A3010 RMK AO2 SLP196 T01610106=
202210100056 METAR KPWT 100056Z AUTO 07004KT 5SM HZ CLR 22/12 A3010 RMK AO2 SLP195 T02170117=
202210092356 METAR KPWT 092356Z AUTO 05005KT 10SM CLR 23/12 A3010 RMK AO2 SLP196 T02330122 10239 20194 56015=
202210092256 METAR KPWT 092256Z AUTO 07005KT 10SM CLR 24/12 A3012 RMK AO2 SLP202 T02390122=
202210092156 METAR KPWT 092156Z AUTO 07007KT 10SM CLR 23/13 A3013 RMK AO2 SLP205 T02330128=
202210092056 METAR KPWT 092056Z AUTO 04008KT 10SM CLR 23/13 A3015 RMK AO2 SLP212 T02280128=
202210091956 METAR KPWT 091956Z AUTO 05009KT 10SM CLR 22/12 A3016 RMK AO2 SLP217 T02170122=
202210091856 METAR KPWT 091856Z AUTO 06006KT 10SM CLR 21/12 RMK AO2 SLPNO T02110122 $=
202210091756 METAR KPWT 091756Z AUTO 04007KT 10SM CLR 19/12 A3017 RMK AO2 SLP220 T01890117 10189 20078 51005=
202210091656 METAR KPWT 091656Z AUTO 06009KT 10SM CLR 17/12 A3017 RMK AO2 SLP220 T01720117=
202210091556 METAR KPWT 091556Z AUTO 04003KT 10SM CLR 16/12 A3017 RMK AO2 SLP220 T01560122=
202210091456 METAR KPWT 091456Z AUTO 08003KT 10SM CLR 12/11 A3016 RMK AO2 SLP215 T01220106 51005=
202210091356 METAR KPWT 091356Z AUTO 00000KT 10SM CLR 09/08 A3016 RMK AO2 SLP215 T00890083=
202210091256 METAR KPWT 091256Z AUTO 00000KT 10SM CLR 08/08 A3015 RMK AO2 SLP213 T00830078=
202210091156 METAR KPWT 091156Z AUTO 00000KT 10SM CLR 10/09 A3014 RMK AO2 SLP210 6//// 7//// T01000089 10161 20089 53000=
202210091056 METAR KPWT 091056Z AUTO 00000KT 10SM CLR 09/08 A3014 RMK AO2 SLP209 T00940083=
202210090956 METAR KPWT 090956Z AUTO 00000KT 10SM CLR 10/08 A3014 RMK AO2 SLP210 T01000083=
202210090856 METAR KPWT 090856Z AUTO 00000KT 10SM CLR 11/09 A3014 RMK AO2 SLP210 T01060094 53001=
202210090756 METAR KPWT 090756Z AUTO 00000KT 10SM CLR 13/10 A3014 RMK AO2 SLP209 T01280100 402500067=
202210090656 METAR KPWT 090656Z AUTO 00000KT 10SM CLR 12/09 A3014 RMK AO2 SLP209 T01170094=
202210090556 METAR KPWT 090556Z AUTO 00000KT 10SM CLR 17/11 A3014 RMK AO2 SLP209 6//// T01670106 10239 20150 53004=
202210090456 METAR KPWT 090456Z AUTO 01004KT 10SM CLR 15/11 A3013 RMK AO2 SLP207 T01500106=
202210090356 METAR KPWT 090356Z AUTO 03005KT 10SM CLR 16/11 A3013 RMK AO2 SLP204 T01560106=
202210090256 METAR KPWT 090256Z AUTO 04004KT 10SM CLR 17/11 A3013 RMK AO2 SLP205 6//// T01720106 53001=
202210090156 METAR KPWT 090156Z AUTO 07004KT 10SM CLR 18/12 A3012 RMK AO2 SLP203 T01830117=
202210090056 METAR KPWT 090056Z AUTO 06005KT 10SM CLR 22/13 A3012 RMK AO2 SLP202 T02220128=
202210082356 METAR KPWT 082356Z AUTO 05006KT 10SM CLR 24/13 A3012 RMK AO2 SLP204 6//// T02390128 10250 20189 56014=
202210082256 METAR KPWT 082256Z AUTO 03003KT 10SM CLR 24/13 A3013 RMK AO2 SLP205 T02440128=
202210082156 METAR KPWT 082156Z AUTO VRB03KT 10SM CLR 24/13 A3015 RMK AO2 SLP211 T02440128=
202210082056 METAR KPWT 082056Z AUTO VRB05KT 10SM CLR 23/13 A3016 RMK AO2 SLP217 6//// T02330128=
202210081956 METAR KPWT 081956Z AUTO VRB05KT 10SM CLR 22/12 A3018 RMK AO2 SLP225 T02170122=
202210081856 METAR KPWT 081856Z AUTO 07007KT 10SM CLR 21/12 RMK AO2 SLPNO T02060122 $=
202210081756 METAR KPWT 081756Z AUTO 05010KT 10SM CLR 19/12 A3021 RMK AO2 SLP232 T01890117 10189 20067 58001=
202210081656 METAR KPWT 081656Z AUTO 04007KT 10SM CLR 18/12 A3021 RMK AO2 SLP234 T01780117=
202210081556 METAR KPWT 081556Z AUTO 00000KT 10SM CLR 13/12 A3021 RMK AO2 SLP234 T01280117=
202210081456 METAR KPWT 081456Z AUTO 00000KT 10SM CLR 08/07 A3021 RMK AO2 SLP233 T00780072 51003=
202210081448 SPECI KPWT 081448Z AUTO 00000KT 5SM BR CLR 08/08 A3021 RMK AO2=
202210081446 SPECI KPWT 081446Z AUTO 00000KT 3/4SM BR CLR 08/08 A3021 RMK AO2 VIS 1/4V5=
202210081437 SPECI KPWT 081437Z AUTO 00000KT 1/4SM FG CLR 07/07 A3020 RMK AO2=
202210081433 SPECI KPWT 081433Z AUTO 00000KT 3/4SM BR CLR 07/07 RMK AO2 VIS 1/4V5 $=
202210081424 SPECI KPWT 081424Z AUTO 00000KT 1 1/2SM BR CLR 07/07 A3020 RMK AO2 VIS 1/2V5=
202210081356 METAR KPWT 081356Z AUTO 00000KT 9SM CLR 07/07 A3020 RMK AO2 SLP232 T00720067=
202210081256 METAR KPWT 081256Z AUTO 00000KT 4SM BR CLR 08/08 A3020 RMK AO2 SLP231 T00830078=
202210081158 SPECI KPWT 081158Z AUTO 00000KT 3SM BR CLR 08/08 A3020 RMK AO2=
202210081156 METAR KPWT 081156Z AUTO 00000KT 1 1/2SM BR CLR 08/08 A3020 RMK AO2 VIS 1/2V5 SLP229 6//// 7//// T00780078 10122 20072 51000=
202210081145 SPECI KPWT 081145Z AUTO 00000KT 1 3/4SM BR CLR 07/07 A3020 RMK AO2 VIS 3/4V5=
202210081056 METAR KPWT 081056Z AUTO 00000KT 9SM CLR 08/08 A3020 RMK AO2 SLP229 T00830083=
202210080956 METAR KPWT 080956Z AUTO 00000KT 10SM CLR 09/08 A3020 RMK AO2 SLP229 T00890078=
202210080856 METAR KPWT 080856Z AUTO 00000KT 10SM CLR 09/08 A3020 RMK AO2 SLP229 6//// T00940083 53001=
202210080756 METAR KPWT 080756Z AUTO 00000KT 10SM CLR 10/09 A3019 RMK AO2 SLP227 T01000089 402560083=
202210080656 METAR KPWT 080656Z AUTO 21003KT 10SM CLR 10/09 A3020 RMK AO2 SLP228 T01000094=
202210080556 METAR KPWT 080556Z AUTO 00000KT 10SM CLR 11/09 A3020 RMK AO2 SLP229 6//// T01110094 10244 20106 51009=
202210080456 METAR KPWT 080456Z AUTO 00000KT 10SM CLR 12/11 A3019 RMK AO2 SLP227 T01220106=
202210080356 METAR KPWT 080356Z AUTO 00000KT 10SM CLR 15/11 A3018 RMK AO2 SLP222 T01500111=
202210080256 METAR KPWT 080256Z AUTO 07003KT 10SM CLR 18/12 A3017 RMK AO2 SLP218 6//// T01830122 53004=
202210080156 METAR KPWT 080156Z AUTO 00000KT 7SM CLR 19/12 A3016 RMK AO2 SLP215 T01890122=
202210080056 METAR KPWT 080056Z AUTO 06005KT 10SM CLR 23/13 A3015 RMK AO2 SLP214 T02280133=
202210072356 METAR KPWT 072356Z AUTO 05007KT 10SM CLR 25/13 A3016 RMK AO2 SLP214 T02500133 10256 20211 56010=
202210072256 METAR KPWT 072256Z AUTO 07006KT 10SM CLR 26/13 A3016 RMK AO2 SLP216 T02560133=
202210072156 METAR KPWT 072156Z AUTO 05008KT 10SM CLR 26/13 A3017 RMK AO2 SLP220 T02560128=
202210072056 METAR KPWT 072056Z AUTO 07006KT 10SM CLR 25/12 A3019 RMK AO2 SLP225 T02500122 58014=
202210071956 METAR KPWT 071956Z AUTO 08004KT 10SM CLR 24/12 A3021 RMK AO2 SLP231 T02390122=
202210071856 METAR KPWT 071856Z AUTO 04007KT 10SM CLR 23/12 A3022 RMK AO2 SLP236 T02280122=
202210071756 METAR KPWT 071756Z AUTO VRB04KT 10SM CLR 21/12 A3023 RMK AO2 SLP239 6//// T02110122 10211 20083 51004=
202210071656 METAR KPWT 071656Z AUTO VRB03KT 10SM CLR 19/12 A3023 RMK AO2 SLP239 T01940122=
202210071556 METAR KPWT 071556Z AUTO 00000KT 10SM CLR 14/13 A3022 RMK AO2 SLP236 T01390133=
202210071456 METAR KPWT 071456Z AUTO 00000KT 10SM CLR 09/09 A3022 RMK AO2 SLP236 T00940094 51010=
202210071356 METAR KPWT 071356Z AUTO 00000KT 9SM CLR 10/10 A3021 RMK AO2 SLP232 T01000100=
202210071256 METAR KPWT 071256Z AUTO 00000KT 9SM CLR 09/09 A3020 RMK AO2 SLP228 T00940094=
202210071156 METAR KPWT 071156Z AUTO 00000KT 9SM CLR 09/09 A3019 RMK AO2 SLP226 7//// T00890089 10122 20083 51009=
202210071109 SPECI KPWT 071109Z AUTO 00000KT 7SM CLR 09/09 A3018 RMK AO2=
202210071056 METAR KPWT 071056Z AUTO 00000KT 2SM BR CLR 09/09 A3018 RMK AO2 SLP224 T00890089=
202210071030 SPECI KPWT 071030Z AUTO 00000KT 6SM BR CLR 09/09 A3018 RMK AO2=
202210071028 SPECI KPWT 071028Z AUTO 00000KT 1SM BR CLR 09/09 A3018 RMK AO2=
202210071026 SPECI KPWT 071026Z AUTO 00000KT 1/2SM FG CLR 10/09 A3018 RMK AO2=
202210071009 SPECI KPWT 071009Z AUTO 00000KT 1/4SM FG CLR 09/09 A3018 RMK AO2=
202210071001 SPECI KPWT 071001Z AUTO 00000KT 1/2SM FG CLR 09/08 A3018 RMK AO2=
202210070956 METAR KPWT 070956Z AUTO 00000KT 2SM BR CLR 09/09 A3018 RMK AO2 SLP222 T00940089=
202210070954 SPECI KPWT 070954Z AUTO 00000KT 1SM BR CLR 09/09 A3017 RMK AO2=
202210070945 SPECI KPWT 070945Z AUTO 00000KT 1/2SM FG CLR 09/09 A3017 RMK AO2=
202210070943 SPECI KPWT 070943Z AUTO 00000KT 1SM BR CLR 09/09 A3017 RMK AO2=
202210070856 METAR KPWT 070856Z AUTO 00000KT 10SM CLR 10/09 A3016 RMK AO2 SLP217 T01000094 51008=
202210070756 METAR KPWT 070756Z AUTO 00000KT 10SM CLR 11/10 A3015 RMK AO2 SLP214 T01110100 402330056=
202210070656 METAR KPWT 070656Z AUTO 00000KT 10SM CLR 12/11 A3015 RMK AO2 SLP211 T01170106=
202210070556 METAR KPWT 070556Z AUTO 00000KT 10SM CLR 12/11 A3014 RMK AO2 SLP209 6//// T01220106 10228 20111 51007=
202210070456 METAR KPWT 070456Z AUTO 00000KT 10SM CLR 12/11 A3013 RMK AO2 SLP207 T01220106=
202210070356 METAR KPWT 070356Z AUTO 04004KT 10SM CLR 16/12 A3012 RMK AO2 SLP203 T01610122=
202210070256 METAR KPWT 070256Z AUTO 08004KT 10SM CLR 17/13 A3012 RMK AO2 SLP202 6//// T01670128 53004=
202210070156 METAR KPWT 070156Z AUTO 08004KT 10SM CLR 18/13 A3010 RMK AO2 SLP198 T01830133=
202210070056 METAR KPWT 070056Z AUTO 07006KT 10SM CLR 21/14 A3010 RMK AO2 SLP195 T02060139=
202210062356 METAR KPWT 062356Z AUTO 04008KT 10SM CLR 23/14 A3010 RMK AO2 SLP196 6//// T02280139 10233 20144 56013=
202210062256 METAR KPWT 062256Z AUTO 08007KT 10SM CLR 23/14 A3011 RMK AO2 SLP199 T02330144=
202210062156 METAR KPWT 062156Z AUTO 05004KT 10SM CLR 23/14 A3012 RMK AO2 SLP203 T02280144=
202210062056 METAR KPWT 062056Z AUTO 09004KT 10SM CLR 22/14 A3014 RMK AO2 SLP210 6//// T02220139 58014=
202210062020 SPECI KPWT 062020Z AUTO 05003KT 10SM FEW001 21/14 A3015 RMK AO2=
202210061956 METAR KPWT 061956Z AUTO 04007KT 10SM CLR 21/14 A3016 RMK AO2 SLP216 T02060139=
202210061856 METAR KPWT 061856Z AUTO 05005KT 10SM CLR 18/13 A3017 RMK AO2 SLP221 T01780133=
202210061756 METAR KPWT 061756Z AUTO 06005KT 10SM FEW006 14/13 A3018 RMK AO2 SLP225 T01440133 10144 20056 53000=
202210061743 SPECI KPWT 061743Z AUTO 06006KT 10SM SCT004 14/13 A3018 RMK AO2=
202210061720 SPECI KPWT 061720Z AUTO 04007KT 10SM BKN004 13/13 A3019 RMK AO2=
202210061656 METAR KPWT 061656Z AUTO 05006KT 7SM BKN002 13/13 A3018 RMK AO2 SLP225 T01280128=
202210061614 SPECI KPWT 061614Z AUTO 04006KT 3SM BR OVC002 12/12 A3018 RMK AO2=
202210061610 SPECI KPWT 061610Z AUTO 00000KT 1 1/4SM BR OVC002 12/12 A3018 RMK AO2 VIS 1/2V4=
202210061608 SPECI KPWT 061608Z AUTO 00000KT 3/4SM BR OVC002 12/12 A3018 RMK AO2 VIS 1/4V3=
202210061556 METAR KPWT 061556Z AUTO 00000KT 1/4SM FG OVC002 11/11 A3019 RMK AO2 SLP227 T01110111=
202210061456 METAR KPWT 061456Z AUTO 00000KT M1/4SM FG OVC002 10/10 A3018 RMK AO2 SLP226 T01000100 53002=
202210061418 SPECI KPWT 061418Z AUTO 00000KT 1/4SM FG OVC002 09/09 A3018 RMK AO2=
202210061410 SPECI KPWT 061410Z AUTO 00000KT 1/2SM FG OVC002 09/09 A3018 RMK AO2=
202210061408 SPECI KPWT 061408Z AUTO 00000KT 1SM BR OVC002 09/09 A3018 RMK AO2=
202210061402 SPECI KPWT 061402Z AUTO 00000KT 2SM BR OVC002 08/08 A3018 RMK AO2 VIS 1V4=
202210061356 METAR KPWT 061356Z AUTO 00000KT 1SM BR OVC002 08/08 A3018 RMK AO2 SLP224 T00830083=
202210061346 SPECI KPWT 061346Z AUTO 00000KT 1/2SM FG OVC002 08/08 A3018 RMK AO2=
202210061324 SPECI KPWT 061324Z AUTO 00000KT 1/4SM FG VV002 06/06 A3018 RMK AO2=
202210061306 SPECI KPWT 061306Z AUTO 00000KT 1/4SM FG VV001 06/06 A3017 RMK AO2=
202210061259 SPECI KPWT 061259Z AUTO 00000KT 1/4SM FG VV002 07/07 A3017 RMK AO2=
202210061256 METAR KPWT 061256Z AUTO 00000KT 1/2SM FG VV001 07/07 A3017 RMK AO2 SLP221 T00720072=
202210061253 SPECI KPWT 061253Z AUTO 00000KT 3/4SM BR VV001 07/07 A3017 RMK AO2=
202210061249 SPECI KPWT 061249Z AUTO 00000KT 1 1/4SM BR FEW001 07/07 A3017 RMK AO2 VIS 3/4V5=
202210061247 SPECI KPWT 061247Z AUTO 00000KT 1SM BR CLR 07/07 A3017 RMK AO2 VIS 1/4V5=
202210061238 SPECI KPWT 061238Z AUTO 00000KT 1/2SM FG CLR 07/07 A3017 RMK AO2=
202210061236 SPECI KPWT 061236Z AUTO 00000KT 1SM BR CLR 07/07 A3017 RMK AO2 VIS 1/4V4=
202210061232 SPECI KPWT 061232Z AUTO 00000KT 2SM BR CLR 07/07 A3017 RMK AO2 VIS 1V5=
202210061229 SPECI KPWT 061229Z AUTO 00000KT 1SM BR CLR 06/06 A3017 RMK AO2=
202210061213 SPECI KPWT 061213Z AUTO 00000KT 1/2SM FG CLR 06/06 A3017 RMK AO2=
202210061156 METAR KPWT 061156Z AUTO 00000KT 1/4SM FG CLR 07/07 A3018 RMK AO2 SLP223 7//// T00720072 10089 20061 50000=
202210061142 SPECI KPWT 061142Z AUTO 00000KT 1/4SM FG CLR 07/07 A3018 RMK AO2=
202210061138 SPECI KPWT 061138Z AUTO 00000KT 3/4SM BR CLR 07/07 A3018 RMK AO2=
202210061056 METAR KPWT 061056Z AUTO 00000KT 1/4SM FG CLR 06/06 A3018 RMK AO2 SLP224 T00610061=
202210061042 SPECI KPWT 061042Z AUTO 00000KT 1/2SM FG CLR 07/07 A3018 RMK AO2 VIS M1/4V5=
202210061035 SPECI KPWT 061035Z AUTO 00000KT 1 1/4SM BR CLR 07/07 A3018 RMK AO2=
202210061025 SPECI KPWT 061025Z AUTO 00000KT 3/4SM BR CLR 07/07 A3018 RMK AO2=
202210061020 SPECI KPWT 061020Z AUTO 00000KT 1 1/2SM BR CLR 07/07 A3018 RMK AO2 VIS 1/2V5=
202210061003 SPECI KPWT 061003Z AUTO 00000KT 7SM CLR 07/07 A3018 RMK AO2=
202210060956 METAR KPWT 060956Z AUTO 00000KT 1 1/4SM BR CLR 07/07 A3018 RMK AO2 SLP226 T00670067=
202210060945 SPECI KPWT 060945Z AUTO 00000KT 1/2SM FG CLR 06/06 A3018 RMK AO2=
202210060938 SPECI KPWT 060938Z AUTO 00000KT 1SM BR CLR 07/07 A3018 RMK AO2 VIS 1/4V5=
202210060918 SPECI KPWT 060918Z AUTO 00000KT 1/2SM FG CLR 07/07 A3018 RMK AO2=
202210060915 SPECI KPWT 060915Z AUTO 00000KT 1 1/4SM BR CLR 07/07 A3018 RMK AO2=
202210060907 SPECI KPWT 060907Z AUTO 00000KT 7SM CLR 07/07 A3018 RMK AO2=
202210060900 SPECI KPWT 060900Z AUTO 00000KT 2 1/2SM BR CLR 07/07 A3018 RMK AO2 VIS 3/4V5=
202210060856 METAR KPWT 060856Z AUTO 00000KT 1SM BR CLR 08/08 A3018 RMK AO2 VIS 1/2V5 SLP224 T00780078 58003=
202210060851 SPECI KPWT 060851Z AUTO 00000KT 1SM BR CLR 08/08 A3018 RMK AO2 VIS 1/2V5=
202210060839 SPECI KPWT 060839Z AUTO 00000KT 1/2SM FG CLR 07/07 A3018 RMK AO2 VIS M1/4V5=
202210060835 SPECI KPWT 060835Z AUTO 00000KT 1SM BR CLR 07/07 A3018 RMK AO2=
202210060829 SPECI KPWT 060829Z AUTO 00000KT 8SM CLR 07/07 A3018 RMK AO2=
202210060821 SPECI KPWT 060821Z AUTO 00000KT 1 1/4SM BR CLR 08/08 A3018 RMK AO2=
202210060819 SPECI KPWT 060819Z AUTO 00000KT 3/4SM BR CLR 08/08 A3018 RMK AO2=
202210060804 SPECI KPWT 060804Z AUTO 00000KT 1/4SM FG CLR 07/07 A3018 RMK AO2=
202210060756 METAR KPWT 060756Z AUTO 00000KT 1/2SM FG CLR 07/07 A3018 RMK AO2 SLP226 T00720072 401830072=
202210060751 SPECI KPWT 060751Z AUTO 00000KT 3/4SM BR CLR 08/08 A3018 RMK AO2 VIS 1/2V4 401830072=
202210060744 SPECI KPWT 060744Z AUTO 00000KT 1 3/4SM BR CLR 08/08 A3018 RMK AO2 VIS 1/2V5=
202210060735 SPECI KPWT 060735Z AUTO 00000KT 10SM CLR 08/08 A3018 RMK AO2=
202210060728 SPECI KPWT 060728Z AUTO 00000KT 2 1/2SM BR CLR 08/08 A3018 RMK AO2=
202210060717 SPECI KPWT 060717Z AUTO 00000KT 1SM BR CLR 08/08 A3019 RMK AO2 VIS 1/4V5=
202210060714 SPECI KPWT 060714Z AUTO 00000KT 6SM BR CLR 08/08 A3019 RMK AO2=
202210060707 SPECI KPWT 060707Z AUTO 00000KT 2SM BR CLR 08/08 A3019 RMK AO2 VIS 1/2V5=
202210060705 SPECI KPWT 060705Z AUTO 00000KT 1SM BR CLR 08/08 A3019 RMK AO2 VIS 1/4V5=
202210060656 METAR KPWT 060656Z AUTO 00000KT 1/2SM FG CLR 08/08 A3018 RMK AO2 SLP226 T00830083=
202210060653 SPECI KPWT 060653Z AUTO 00000KT 3/4SM BR CLR 08/08 A3019 RMK AO2 VIS 1/4V5=
202210060608 SPECI KPWT 060608Z AUTO 00000KT 10SM CLR 09/09 A3018 RMK AO2=
202210060601 SPECI KPWT 060601Z AUTO 00000KT 2SM BR CLR 09/09 A3018 RMK AO2=
202210060559 SPECI KPWT 060559Z AUTO 12003KT 1SM BR CLR 09/09 A3018 RMK AO2=
202210060556 METAR KPWT 060556Z AUTO 00000KT 1/2SM FG CLR 10/10 A3019 RMK AO2 SLP226 6//// T01000100 10178 20078 50001=
202210060545 SPECI KPWT 060545Z AUTO 00000KT 1/2SM FG CLR 08/08 A3019 RMK AO2=
202210060542 SPECI KPWT 060542Z AUTO 00000KT 1SM BR CLR 08/08 A3019 RMK AO2=
202210060456 METAR KPWT 060456Z AUTO 00000KT 10SM CLR 09/09 A3018 RMK AO2 SLP225 T00890089=
202210060451 SPECI KPWT 060451Z AUTO 00000KT 2 1/2SM BR CLR 09/09 A3018 RMK AO2=
202210060356 METAR KPWT 060356Z AUTO 00000KT 10SM CLR 10/10 A3018 RMK AO2 SLP223 T01000100=
202210060338 SPECI KPWT 060338Z AUTO 00000KT 4SM BR CLR 11/11 A3018 RMK AO2=
202210060326 SPECI KPWT 060326Z AUTO 00000KT 1 3/4SM BR CLR 09/09 A3018 RMK AO2 VIS 1/2V5=
202210060256 METAR KPWT 060256Z AUTO 00000KT 10SM CLR 12/11 A3017 RMK AO2 SLP221 6//// T01170111 53002=
202210060156 METAR KPWT 060156Z AUTO 00000KT 10SM CLR 15/13 A3017 RMK AO2 SLP219 T01500133=
202210060056 METAR KPWT 060056Z AUTO 11004KT 10SM CLR 17/14 A3017 RMK AO2 SLP219 T01670139=
202210052356 METAR KPWT 052356Z AUTO 11004KT 10SM CLR 17/14 A3017 RMK AO2 SLP218 T01720139 10183 20139 56010=
202210052306 SPECI KPWT 052306Z AUTO 06003KT 10SM SCT016 18/14 A3017 RMK AO2=
202210052256 METAR KPWT 052256Z AUTO 05005KT 10SM BKN016 18/14 A3017 RMK AO2 SLP220 T01780139=
202210052156 METAR KPWT 052156Z AUTO 08005KT 10SM OVC012 17/14 A3018 RMK AO2 SLP223 T01670139=
202210052129 SPECI KPWT 052129Z AUTO VRB04KT 10SM OVC010 16/13 A3019 RMK AO2=
202210052056 METAR KPWT 052056Z AUTO 00000KT 10SM OVC008 16/14 A3020 RMK AO2 SLP228 T01560139 58007=
202210051956 METAR KPWT 051956Z AUTO 36004KT 10SM OVC006 16/14 A3021 RMK AO2 SLP232 T01560139=
202210051856 METAR KPWT 051856Z AUTO 08005KT 10SM OVC006 14/14 A3021 RMK AO2 SLP234 T01440139=
202210051828 SPECI KPWT 051828Z AUTO 04006KT 10SM OVC006 14/14 A3021 RMK AO2 CIG 004V008=
202210051818 SPECI KPWT 051818Z AUTO 06003KT 7SM OVC004 14/14 A3022 RMK AO2 CIG 004V008=
202210051756 METAR KPWT 051756Z AUTO 01005KT 9SM OVC006 14/14 A3022 RMK AO2 CIG 003V008 SLP235 60000 T01440139 10144 20122 51008=
202210051710 SPECI KPWT 051710Z AUTO 00000KT 3SM BR OVC004 13/13 A3021 RMK AO2=
202210051656 METAR KPWT 051656Z AUTO 00000KT 1 1/2SM BR OVC004 13/13 A3021 RMK AO2 VIS 3/4V3 SLP234 T01330133=
202210051556 METAR KPWT 051556Z AUTO 23003KT 5SM BR OVC004 13/13 A3020 RMK AO2 SLP229 T01280128=
202210051534 SPECI KPWT 051534Z AUTO 00000KT 3SM BR OVC004 13/13 A3020 RMK AO2 CIG 003V007=
202210051526 SPECI KPWT 051526Z AUTO 00000KT 1 3/4SM BR OVC004 13/13 A3019 RMK AO2 VIS 1V4 CIG 003V007=
202210051519 SPECI KPWT 051519Z AUTO 00000KT 3SM BR OVC004 13/13 A3019 RMK AO2 CIG 003V007=
202210051509 SPECI KPWT 051509Z AUTO 00000KT 2 1/2SM BR OVC004 13/13 A3019 RMK AO2=
202210051456 METAR KPWT 051456Z AUTO 00000KT 1 1/4SM BR OVC004 13/13 A3019 RMK AO2 RAB27E47 SLP227 P0000 60000 T01280128 51007=
202210051447 SPECI KPWT 051447Z AUTO 00000KT 1 3/4SM BR OVC004 12/12 A3019 RMK AO2 RAB27E47 P0000=
202210051425 SPECI KPWT 051425Z AUTO 00000KT 2SM BR OVC004 13/12 A3019 RMK AO2=
202210051411 SPECI KPWT 051411Z AUTO 00000KT 4SM BR OVC004 13/12 A3019 RMK AO2=
202210051356 METAR KPWT 051356Z AUTO 00000KT 4SM BR OVC006 13/13 A3019 RMK AO2 CIG 003V008 SLP226 T01280128=
202210051256 METAR KPWT 051256Z AUTO 00000KT 4SM BR OVC006 12/12 A3018 RMK AO2 RAB18E29 CIG 003V009 SLP222 P0000 T01220122=
202210051156 METAR KPWT 051156Z AUTO 00000KT 7SM OVC006 13/12 A3017 RMK AO2 SLP219 7//// T01280122 10144 20128 51008=
202210051056 METAR KPWT 051056Z AUTO 18003KT 9SM OVC006 13/13 A3016 RMK AO2 SLP217 T01280128=
202210050956 METAR KPWT 050956Z AUTO 19004KT 10SM OVC006 13/13 A3016 RMK AO2 SLP214 T01330128=
202210050856 METAR KPWT 050856Z AUTO 20004KT 10SM OVC006 14/13 A3014 RMK AO2 SLP211 T01390128 51009=
202210050756 METAR KPWT 050756Z AUTO 18003KT 10SM OVC006 14/13 A3014 RMK AO2 SLP208 T01390133 402060106=
202210050656 METAR KPWT 050656Z AUTO 19004KT 10SM OVC006 14/13 A3012 RMK AO2 SLP204 T01390133=
202210050556 METAR KPWT 050556Z AUTO 20004KT 10SM OVC006 14/13 A3012 RMK AO2 SLP201 6//// T01440133 10206 20139 53008=
202210050456 METAR KPWT 050456Z AUTO 21005KT 10SM OVC006 14/13 A3011 RMK AO2 SLP198 T01440133=
202210050356 METAR KPWT 050356Z AUTO 20004KT 10SM OVC006 14/13 A3010 RMK AO2 SLP196 T01440133=
202210050312 SPECI KPWT 050312Z AUTO 22005KT 10SM OVC008 14/14 A3009 RMK AO2 CIG 006V011=
202210050256 METAR KPWT 050256Z AUTO 20005KT 10SM OVC010 14/13 A3009 RMK AO2 SLP193 6//// T01440133 53017=
202210050210 SPECI KPWT 050210Z AUTO 00000KT 9SM BKN013 14/12 A3007 RMK AO2=
202210050156 METAR KPWT 050156Z AUTO 00000KT 10SM CLR 15/13 A3007 RMK AO2 SLP185 T01500128=
202210050056 METAR KPWT 050056Z AUTO 07005KT 10SM CLR 17/13 A3005 RMK AO2 SLP179 T01720133=
202210042356 METAR KPWT 042356Z AUTO VRB03KT 10SM CLR 21/14 A3004 RMK AO2 SLP176 6//// T02060144 10206 20128 56007=
202210042256 METAR KPWT 042256Z AUTO 21006KT 10SM CLR 21/14 A3004 RMK AO2 SLP176 T02060144=
202210042156 METAR KPWT 042156Z AUTO 23006KT 10SM CLR 19/14 A3004 RMK AO2 SLP178 T01940139=
202210042056 METAR KPWT 042056Z AUTO 22007KT 10SM CLR 18/13 A3006 RMK AO2 SLP182 T01830133 58009=
202210042003 SPECI KPWT 042003Z AUTO 00000KT 10SM SCT010 16/13 A3007 RMK AO2=
202210041956 METAR KPWT 041956Z AUTO VRB04KT 10SM BKN010 16/13 A3007 RMK AO2 CIG 009V014 SLP186 T01610133=
202210041948 SPECI KPWT 041948Z AUTO VRB03KT 10SM BKN010 16/13 A3007 RMK AO2=
202210041910 SPECI KPWT 041910Z AUTO 20005KT 10SM OVC006 15/13 A3008 RMK AO2 CIG 004V010=
202210041856 METAR KPWT 041856Z AUTO 23005KT 10SM OVC004 14/13 A3009 RMK AO2 CIG 003V006 SLP192 T01440133=
202210041852 SPECI KPWT 041852Z AUTO 26004KT 10SM OVC004 14/13 A3009 RMK AO2=
202210041756 METAR KPWT 041756Z AUTO 20005KT 5SM BR OVC002 13/13 A3009 RMK AO2 SLP193 T01280128 10128 20117 50001=
202210041747 SPECI KPWT 041747Z AUTO 21004KT 5SM BR OVC002 13/13 A3009 RMK AO2=
202210041737 SPECI KPWT 041737Z AUTO 21004KT 2SM BR OVC002 13/13 A3009 RMK AO2 VIS 1V3=
202210041723 SPECI KPWT 041723Z AUTO 19006KT 1SM BR OVC002 13/13 A3010 RMK AO2=
202210041719 SPECI KPWT 041719Z AUTO 20006KT 1/2SM FG OVC002 13/13 A3010 RMK AO2=
202210041710 SPECI KPWT 041710Z AUTO 20006KT 3/4SM BR OVC002 13/13 A3009 RMK AO2 VIS 1/2V2 1/2=
202210041702 SPECI KPWT 041702Z AUTO 20007KT 1 1/4SM BR OVC002 13/13 A3009 RMK AO2 VIS 1/2V2 1/2=
202210041656 METAR KPWT 041656Z AUTO 21006KT 3/4SM BR OVC002 13/13 A3009 RMK AO2 SLP193 T01280128=
202210041618 SPECI KPWT 041618Z AUTO 22005KT 3/4SM BR OVC002 12/12 A3009 RMK AO2=
202210041608 SPECI KPWT 041608Z AUTO 19005KT 1/2SM FG OVC002 12/12 A3009 RMK AO2=
202210041556 METAR KPWT 041556Z AUTO 22004KT 1/4SM FG OVC002 12/12 A3009 RMK AO2 SLP193 T01220122=
202210041456 METAR KPWT 041456Z AUTO 19004KT 1/4SM FG OVC002 12/12 A3009 RMK AO2 SLP191 T01220122 53007=
202210041356 METAR KPWT 041356Z AUTO 21005KT 1/4SM FG OVC002 12/12 A3008 RMK AO2 SLP189 T01170117=
202210041342 SPECI KPWT 041342Z AUTO 21004KT 1/4SM FG OVC002 12/12 A3007 RMK AO2=
202210041315 SPECI KPWT 041315Z AUTO 22004KT 1/2SM FG OVC002 12/12 A3007 RMK AO2=
202210041256 METAR KPWT 041256Z AUTO 23005KT 1/4SM FG OVC002 12/12 A3007 RMK AO2 SLP184 T01170117=
202210041156 METAR KPWT 041156Z AUTO 20005KT 1/4SM FG OVC002 12/12 A3007 RMK AO2 SLP183 7//// T01170117 10133 20100 55000=
202210041056 METAR KPWT 041056Z AUTO 23005KT 1/4SM FG OVC002 12/12 A3006 RMK AO2 SLP181 T01220122=
202210040956 METAR KPWT 040956Z AUTO 21005KT 1/4SM FG OVC002 12/12 A3006 RMK AO2 SLP181 T01220122=
202210040920 SPECI KPWT 040920Z AUTO 22005KT 1/4SM FG OVC002 12/12 A3006 RMK AO2=
202210040856 METAR KPWT 040856Z AUTO 22006KT 1/2SM FG OVC002 12/12 A3006 RMK AO2 SLP182 T01220122 50003=
202210040817 SPECI KPWT 040817Z AUTO 21004KT 1/2SM FG OVC002 12/12 A3006 RMK AO2=
202210040805 SPECI KPWT 040805Z AUTO 22003KT 1/4SM FG BKN002 11/11 A3007 RMK AO2=
202210040756 METAR KPWT 040756Z AUTO 22004KT 1/2SM FG VV002 11/11 A3007 RMK AO2 SLP184 T01060106 402670072=
202210040749 SPECI KPWT 040749Z AUTO 22004KT 1/2SM FG VV002 11/11 A3007 RMK AO2=
202210040744 SPECI KPWT 040744Z AUTO 21004KT 3/4SM BR CLR 11/11 A3007 RMK AO2=
202210040738 SPECI KPWT 040738Z AUTO 22004KT 1 3/4SM BR CLR 10/10 A3006 RMK AO2 VIS 1V5=
202210040733 SPECI KPWT 040733Z AUTO 23004KT 3SM BR CLR 11/11 A3006 RMK AO2=
202210040730 SPECI KPWT 040730Z AUTO 00000KT 1 1/4SM BR CLR 11/11 A3006 RMK AO2 VIS 1/4V5=
202210040721 SPECI KPWT 040721Z AUTO 23003KT 3/4SM BR CLR 10/10 A3006 RMK AO2 VIS 1/4V5=
202210040718 SPECI KPWT 040718Z AUTO 22003KT 1 3/4SM BR CLR 11/11 A3006 RMK AO2 VIS 1/2V5=
202210040656 METAR KPWT 040656Z AUTO 00000KT 9SM CLR 11/11 A3006 RMK AO2 SLP182 T01110106=
202210040556 METAR KPWT 040556Z AUTO 21005KT 10SM CLR 13/12 A3006 RMK AO2 SLP181 6//// T01280122 10261 20122=
202210040456 METAR KPWT 040456Z AUTO 22005KT 10SM CLR 14/13 A3006 RMK AO2 SLP183 T01440128=
202210040356 METAR KPWT 040356Z AUTO 00000KT 10SM CLR 13/11 A3005 RMK AO2 SLP179 T01330106=
202210040256 METAR KPWT 040256Z AUTO 00000KT 10SM CLR 16/11 RMK AO2 SLPNO 6//// T01560111 $=
202210040156 METAR KPWT 040156Z AUTO 00000KT 7SM CLR 20/12 A3003 RMK AO2 SLP172 T02000122=
202210040056 METAR KPWT 040056Z AUTO 07005KT 10SM CLR 24/12 A3002 RMK AO2 SLP170 T02390122=
202210032356 METAR KPWT 032356Z AUTO 05006KT 10SM CLR 26/13 A3003 RMK AO2 SLP171 6//// T02610128 10267 20206 56012=
202210032256 METAR KPWT 032256Z AUTO VRB03KT 10SM CLR 27/13 A3003 RMK AO2 SLP172 T02670133=
202210032156 METAR KPWT 032156Z AUTO 06005KT 10SM CLR 26/12 A3005 RMK AO2 SLP176 T02610122=
202210032056 METAR KPWT 032056Z AUTO 04008KT 10SM CLR 25/12 A3006 RMK AO2 SLP182 6//// T02500122=
202210031956 METAR KPWT 031956Z AUTO 04006KT 10SM CLR 24/12 A3008 RMK AO2 SLP187 T02390122=
202210031856 METAR KPWT 031856Z AUTO 07004KT 10SM CLR 22/12 A3009 RMK AO2 SLP192 T02170117=
202210031756 METAR KPWT 031756Z AUTO 05003KT 10SM CLR 21/12 RMK AO2 SLPNO T02060122 10206 20072 $=
202210031656 METAR KPWT 031656Z AUTO 00000KT 10SM CLR 18/13 A3010 RMK AO2 SLP197 T01780128=
202210031556 METAR KPWT 031556Z AUTO 00000KT 10SM CLR 13/12 A3010 RMK AO2 SLP195 T01280122=
202210031521 SPECI KPWT 031521Z AUTO 00000KT 5SM BR CLR 10/10 A3009 RMK AO2=
202210031511 SPECI KPWT 031511Z AUTO 00000KT 1SM BR CLR 09/09 A3009 RMK AO2=
202210031506 SPECI KPWT 031506Z AUTO 00000KT 6SM BR CLR 09/09 A3009 RMK AO2=
202210031456 METAR KPWT 031456Z AUTO 00000KT 1 1/4SM BR CLR 09/09 A3009 RMK AO2 SLP194 T00890089 53012=
202210031356 METAR KPWT 031356Z AUTO 00000KT 10SM CLR 08/08 A3008 RMK AO2 SLP188 T00830083=
202210031317 SPECI KPWT 031317Z AUTO 21004KT 4SM BR CLR 07/07 A3007 RMK AO2=
202210031307 SPECI KPWT 031307Z AUTO 21003KT 1 3/4SM BR CLR 08/08 A3007 RMK AO2=
202210031256 METAR KPWT 031256Z AUTO 00000KT 10SM CLR 09/09 A3006 RMK AO2 SLP184 T00890089=
202210031244 SPECI KPWT 031244Z AUTO 06003KT 7SM CLR 09/09 A3007 RMK AO2=
202210031223 SPECI KPWT 031223Z AUTO 00000KT 1 3/4SM BR CLR 09/08 A3006 RMK AO2=
202210031156 METAR KPWT 031156Z AUTO 00000KT 10SM CLR 09/09 A3006 RMK AO2 SLP180 6//// 7//// T00940089 10128 20089 51002=
202210031056 METAR KPWT 031056Z AUTO 00000KT 10SM CLR 09/09 A3006 RMK AO2 SLP179 T00940094=
202210030956 METAR KPWT 030956Z AUTO 00000KT 10SM CLR 10/09 A3006 RMK AO2 SLP180 T01000094=
202210030856 METAR KPWT 030856Z AUTO 00000KT 10SM CLR 12/10 A3005 RMK AO2 SLP177 6//// T01170100 53008=
202210030756 METAR KPWT 030756Z AUTO 00000KT 10SM CLR 11/09 A3004 RMK AO2 SLP176 T01110094 402720100=
202210030656 METAR KPWT 030656Z AUTO 00000KT 10SM CLR 12/10 A3003 RMK AO2 SLP172 T01220100=
202210030556 METAR KPWT 030556Z AUTO 00000KT 10SM CLR 13/10 A3003 RMK AO2 SLP170 6//// T01280100 10267 20111 51012=
202210030456 METAR KPWT 030456Z AUTO 00000KT 10SM CLR 13/09 A3002 RMK AO2 SLP168 T01280094=
202210030356 METAR KPWT 030356Z AUTO 00000KT 10SM CLR 14/10 A3001 RMK AO2 SLP165 T01440100=
202210030256 METAR KPWT 030256Z AUTO 00000KT 10SM CLR 17/11 A2999 RMK AO2 SLP158 6//// T01720111=
202210030156 METAR KPWT 030156Z AUTO 07003KT 10SM CLR 21/12 RMK AO2 SLPNO T02110117 $=
202210030056 METAR KPWT 030056Z AUTO 06005KT 10SM CLR 25/12 A2997 RMK AO2 SLP152 T02500122=
202210022356 METAR KPWT 022356Z AUTO 06007KT 10SM CLR 27/12 A2997 RMK AO2 SLP150 6//// T02670122 10272 20211 56004=
202210022256 METAR KPWT 022256Z AUTO 04008KT 10SM CLR 27/12 A2997 RMK AO2 SLP149 T02720122=
202210022156 METAR KPWT 022156Z AUTO 04008KT 10SM CLR 27/13 A2997 RMK AO2 SLP150 T02670133=
202210022056 METAR KPWT 022056Z AUTO 06007KT 10SM CLR 26/13 A2998 RMK AO2 SLP153 6//// T02610128=
202210021956 METAR KPWT 021956Z AUTO 06009KT 10SM CLR 24/13 A2999 RMK AO2 SLP158 T02440128=
202210021856 METAR KPWT 021856Z AUTO 04007KT 10SM CLR 23/13 A3000 RMK AO2 SLP160 T02280128=
202210021756 METAR KPWT 021756Z AUTO 10SM CLR 22/12 RMK AO2 SLPNO 6//// T02170122 10217 20100 $=
202210021656 METAR KPWT 021656Z AUTO 06009KT 10SM CLR 19/12 A3000 RMK AO2 SLP161 T01940117=
202210021556 METAR KPWT 021556Z AUTO 00000KT 10SM CLR 15/12 A2999 RMK AO2 SLP159 T01500117=
202210021456 METAR KPWT 021456Z AUTO 00000KT 8SM CLR 12/11 A2998 RMK AO2 SLP156 T01170106 53010=
202210021356 METAR KPWT 021356Z AUTO 23004KT 10SM CLR 10/09 A2996 RMK AO2 SLP150 T01000089=
202210021256 METAR KPWT 021256Z AUTO 05006KT 10SM CLR 17/11 A2996 RMK AO2 SLP145 T01670106=
202210021156 METAR KPWT 021156Z AUTO 03004KT 10SM CLR 15/10 A2995 RMK AO2 SLP143 7//// T01500100 10200 20150 53006=
202210021056 METAR KPWT 021056Z AUTO 05007KT 10SM CLR 17/10 A2994 RMK AO2 SLP141 T01720100=
202210020956 METAR KPWT 020956Z AUTO 05012KT 10SM CLR 18/10 A2993 RMK AO2 SLP137 T01830100=
202210020856 METAR KPWT 020856Z AUTO 05010KT 10SM CLR 19/10 A2993 RMK AO2 SLP137 T01890100 58002=
202210020756 METAR KPWT 020756Z AUTO 04009KT 10SM CLR 18/11 A2994 RMK AO2 SLP140 T01780106 402560139=
202210020656 METAR KPWT 020656Z AUTO 04010KT 10SM CLR 19/10 A2994 RMK AO2 SLP139 T01940100=
202210020556 METAR KPWT 020556Z AUTO 05009KT 10SM CLR 19/11 A2994 RMK AO2 SLP139 6//// T01940106 10244 20183 58001=
202210020456 METAR KPWT 020456Z AUTO 03005KT 10SM CLR 18/12 A2995 RMK AO2 SLP143 T01830117=
202210020356 METAR KPWT 020356Z AUTO 04010KT 10SM CLR 19/12 A2995 RMK AO2 SLP144 T01890117=
202210020256 METAR KPWT 020256Z AUTO 05010KT 10SM CLR 19/12 A2994 RMK AO2 SLP141 6//// T01890122 55001=
202210020156 METAR KPWT 020156Z AUTO 05008KT 10SM CLR 20/13 A2994 RMK AO2 SLP140 T02000128=
202210020056 METAR KPWT 020056Z AUTO 06008KT 10SM CLR 23/13 A2994 RMK AO2 SLP140 T02280133=
202210012356 METAR KPWT 012356Z AUTO 05008KT 10SM CLR 24/13 A2995 RMK AO2 SLP141 6//// T02440133 10256 20194 56014=
202210012256 METAR KPWT 012256Z AUTO 05009KT 10SM CLR 26/13 A2995 RMK AO2 SLP143 T02560128=
202210012156 METAR KPWT 012156Z AUTO 05011KT 10SM CLR 26/13 A2997 RMK AO2 SLP148 T02560128=
202210012056 METAR KPWT 012056Z AUTO 04011KT 10SM CLR 25/13 A2999 RMK AO2 SLP155 6//// T02500133=
202210011956 METAR KPWT 011956Z AUTO 10SM CLR 24/13 RMK AO2 SLPNO T02390133 $=
202210011856 METAR KPWT 011856Z AUTO 05011KT 10SM CLR 22/13 A3003 RMK AO2 SLP172 T02170128=
202210011756 METAR KPWT 011756Z AUTO 05012KT 10SM CLR 19/12 A3006 RMK AO2 SLP180 6//// T01940122 10194 20139 58003=
202210011656 METAR KPWT 011656Z AUTO 04010KT 10SM CLR 17/12 A3007 RMK AO2 SLP186 T01720122=
202210011556 METAR KPWT 011556Z AUTO 06011KT 10SM CLR 16/12 A3006 RMK AO2 SLP183 T01610117=
202210011456 METAR KPWT 011456Z AUTO 05012KT 10SM CLR 15/11 A3006 RMK AO2 SLP183 6//// T01500111 50000=
202210011356 METAR KPWT 011356Z AUTO 05010KT 10SM CLR 14/11 A3007 RMK AO2 SLP186 T01390111=
202210011256 METAR KPWT 011256Z AUTO 04009KT 10SM CLR 14/12 A3007 RMK AO2 SLP186 T01390117=
202210011156 METAR KPWT 011156Z AUTO 04014KT 10SM CLR 15/11 A3006 RMK AO2 SLP183 7//// T01500111 10156 20139 57004=
202210011056 METAR KPWT 011056Z AUTO 04016KT 10SM CLR 15/11 A3006 RMK AO2 SLP181 T01500111=
202210010956 METAR KPWT 010956Z AUTO 05012KT 10SM CLR 15/11 A3008 RMK AO2 SLP187 T01500111=
202210010856 METAR KPWT 010856Z AUTO 05009KT 10SM CLR 16/11 A3008 RMK AO2 SLP187 T01560111 58006=
202210010756 METAR KPWT 010756Z AUTO 05006KT 10SM CLR 14/11 A3009 RMK AO2 SLP192 T01390111 402110078=
202210010656 METAR KPWT 010656Z AUTO 10SM CLR 14/11 A3009 RMK AO2 SLP192 T01390111=
202210010556 METAR KPWT 010556Z AUTO 06004KT 10SM CLR 14/12 A3009 RMK AO2 SLP193 6//// T01440117 10211 20089 58002=
202210010456 METAR KPWT 010456Z AUTO 05004KT 10SM CLR 14/12 A3010 RMK AO2 SLP197 T01390117=
202210010356 METAR KPWT 010356Z AUTO 00000KT 10SM CLR 11/10 A3010 RMK AO2 SLP197 T01110100=
202210010256 METAR KPWT 010256Z AUTO 00000KT 10SM CLR 13/11 A3010 RMK AO2 SLP196 6//// T01280106 56003=
202210010156 METAR KPWT 010156Z AUTO 07003KT 10SM CLR 17/12 A3010 RMK AO2 SLP195 T01670122=
202210010056 METAR KPWT 010056Z AUTO 06008KT 10SM CLR 19/12 A3010 RMK AO2 SLP195 T01890122=

# No short TAF reports from KPWT in databse.

###################################
#  large TAF from KPWT
###################################
202210312325 TAF KPWT 312325Z 0100/0124 20005KT P6SM BKN060 BKN200 FM010400
                       VRB02KT P6SM BKN015 BKN060 FM011500 00000KT
                       5SM BR OVC025 FM011800 18002KT P6SM OVC050=
202210311720 TAF KPWT 311720Z 3118/0118 21012G22KT P6SM BKN010 FM311900 19010KT
                       P6SM SCT025 BKN060 FM312300 20006KT P6SM
                       BKN060 BKN200 FM010400 VRB02KT P6SM BKN015
                       BKN060 FM010900 00000KT 2SM -SHRA BR BKN007
                       OVC015=
202210311401 KPWT 311401Z 3114/0112 19011KT P6SM -RA BKN003 OVC015 FM311600
                       20006KT P6SM BKN020 BKN050 FM311900 19010KT
                       P6SM SCT025 BKN060 FM312300 20006KT P6SM
                       SCT060 BKN200 FM010400 00000KT P6SM BKN015
                       BKN060 FM010900 00000KT 2SM BR BKN007 OVC015=
202210311122 TAF KPWT 311122Z 3112/0112 18006KT P6SM -RA BKN015 BKN050 FM311600
                       20006KT P6SM BKN020 BKN050 FM311900 19010KT
                       P6SM SCT025 BKN060 FM312300 20006KT P6SM
                       SCT060 BKN200 FM010400 00000KT P6SM BKN015
                       BKN060 FM010900 00000KT 2SM BR BKN007 OVC015=
202210310524 TAF KPWT 310524Z 3106/0106 20010KT 6SM -RA BR OVC004 FM311600 20006KT
                       P6SM OVC010 FM312000 19010KT P6SM SCT020
                       OVC040 FM010200 VRB03KT P6SM BKN020=
202210310305 KPWT 310305Z 3103/3124 20012G20KT 4SM RA BR OVC004 FM310900 19008KT
                       2SM -RA BR OVC010 FM311500 20006KT 4SM -RA
                       BR OVC010 FM312200 17008KT P6SM VCSH OVC030=
202210302325 TAF KPWT 302325Z 3100/3124 20012G18KT 4SM RA BR OVC006 FM310900
                       19008KT 2SM -RA BR OVC004 FM311500 20006KT
                       4SM -RA BR OVC010 FM312200 17008KT P6SM
                       VCSH OVC030=
202210301730 TAF KPWT 301730Z 3018/3118 19010KT 5SM -RA BR OVC004 FM302000 19010KT
                       3SM -RA BR BKN010 OVC020 FM310000 19006KT
                       2SM -RA BR OVC007 FM311400 20006KT 4SM -RA
                       BR OVC010=
202210301159 KPWT 301159Z 3012/3112 19010KT P6SM SCT020 OVC060
                      TEMPO 3012/3016 -RA OVC020 FM301600 21012G18KT
                       P6SM -RA OVC020 FM302000 19010KT 3SM -RA
                       BR BKN010 OVC020 FM310000 19006KT 2SM -RA
                       BR OVC007=
202210301121 TAF KPWT 301121Z 3012/3112 20012KT P6SM OVC100 FM301400 21012KT
                       P6SM BKN050 OVC080 FM301600 21012G18KT P6SM
                       -RA OVC040 FM302000 19010KT 3SM -RA BR BKN013
                       OVC025 FM310000 19006KT 2SM -RA BR OVC007=
202210300524 TAF KPWT 300524Z 3006/3106 20008KT P6SM BKN200 FM301000 19010KT
                       P6SM SCT025 OVC050 FM301300 19012G20KT 3SM
                       -RA BR BKN007 OVC020 FM310000 19006KT 2SM
                       -RA BR OVC005=
202210292320 TAF KPWT 292320Z 3000/3024 19008KT P6SM SCT040 BKN250 FM300400
                       19005KT P6SM SCT040 BKN120 OVC200 FM301000
                       19010G18KT 5SM -RA BR OVC015 FM301200 19010G18KT
                       2SM -RA BR OVC005=
202210291725 TAF KPWT 291725Z 2918/3018 20006KT 4SM BR OVC002 FM292000 19008KT
                       P6SM SCT040 BKN250 FM300400 19005KT P6SM
                       SCT040 BKN120 OVC200 FM301000 19010G18KT
                       5SM -RA BR OVC015 FM301200 19010G18KT 2SM
                       -RA BR OVC005=
202210291313 KPWT 291313Z 2913/3012 00000KT 1/4SM FG VV002
                      TEMPO 2913/2917 5SM BR SCT002 BKN250 FM291700
                       19003KT 3SM BR BKN003 FM292000 19008KT P6SM
                       SCT040 BKN250 FM300400 19005KT P6SM SCT040
                       BKN120 OVC200 FM301000 19010G18KT 5SM -RA
                       BR OVC015=
202210291120 TAF KPWT 291120Z 2912/3012 00000KT 1/4SM FG VV002 FM291800 19003KT
                       3SM BR BKN005 FM292000 19008KT P6SM SCT040
                       BKN250 FM300400 19005KT P6SM SCT040 BKN120
                       OVC200 FM301000 19010G18KT 5SM -RA BR OVC015=
202210290651 KPWT 290651Z 2907/3006 13003KT 4SM BR SCT002 SCT250
                      TEMPO 2907/2910 1SM BR BKN002 BKN250 FM291000
                       00000KT 3/4SM BR BKN002 FM291800 19003KT
                       P6SM BKN005 FM292000 19008KT P6SM SCT040
                       BKN250 FM300400 19005KT P6SM SCT040 BKN120
                       OVC200=
202210290526 TAF KPWT 290526Z 2906/3006 14003KT P6SM SCT070 FM290800 00000KT
                       4SM BR SCT003 SCT070 FM291000 00000KT 3/4SM
                       BR BKN002 FM291800 19003KT P6SM BKN005 FM292000
                       19008KT P6SM SCT040 BKN250 FM300400 19005KT
                       P6SM SCT040 BKN120 OVC200=
202210282320 TAF KPWT 282320Z 2900/2924 19005KT P6SM SCT015 FM290500 00000KT
                       P6SM SCT250 FM290800 00000KT 6SM BR OVC050
                       FM291200 19003KT 6SM BR OVC003=
202210281720 TAF KPWT 281720Z 2818/2918 19004KT P6SM OVC015 FM282000 18004KT
                       P6SM BKN015 FM282200 VRB04KT P6SM BKN045
                       FM290500 00000KT P6SM SCT250 FM291200 19003KT
                       6SM BR OVC003=
202210281141 TAF KPWT 281141Z 2812/2912 06006KT P6SM -RA BKN015 FM281500 VRB04KT
                       6SM -RA BR OVC008 FM281800 VRB04KT P6SM
                       BKN025 FM282200 VRB04KT P6SM BKN045 FM290500
                       00000KT P6SM SCT250=
202210280541 TAF KPWT 280541Z 2806/2906 20007KT P6SM -RA OVC030 FM281000 18005KT
                       5SM -RA OVC015 FM281500 VRB04KT 4SM -RA
                       BR OVC010 FM281800 VRB04KT P6SM BKN025 FM282100
                       VRB04KT P6SM BKN045=
202210272320 TAF KPWT 272320Z 2800/2824 20015G25KT P6SM OVC030 FM280500 19007KT
                       P6SM -RA OVC020 FM281000 18005KT 6SM -RA
                       OVC015 FM281500 VRB04KT 4SM -RA BR OVC007=
202210271720 TAF KPWT 271720Z 2718/2818 18010G20KT P6SM -RA OVC025 FM280000
                       20015G25KT P6SM -RA OVC035 FM280500 19007KT
                       P6SM -RA OVC020 FM281000 18005KT 6SM -RA
                       OVC015 FM281500 VRB04KT 4SM -RA BR OVC007=
202210271139 TAF KPWT 271139Z 2712/2812 20009KT P6SM FEW005 OVC015 FM271700
                       18020G30KT P6SM OVC018 FM280000 20015G25KT
                       P6SM -RA OVC035 FM280500 19007KT P6SM -RA
                       OVC020=
202210270539 TAF KPWT 270539Z 2706/2806 20006KT P6SM VCSH OVC009 FM270800 20003KT
                       6SM BR OVC015 FM271700 18020G30KT P6SM OVC018
                       FM280000 20019KT P6SM -RA OVC035=
202210262320 TAF KPWT 262320Z 2700/2724 00000KT P6SM SKC FM270300 20007KT P6SM
                       VCSH OVC020 FM270800 20003KT 6SM BR OVC015
                       FM271700 19020G30KT P6SM OVC015=
202210261720 TAF KPWT 261720Z 2618/2718 VRB03KT 1/2SM FG OVC003 FM262000 20008KT
                       P6SM OVC010 FM270300 20007KT 4SM BR VCSH
                       OVC010 FM270800 20014KT 2SM BR OVC004=
202210261444 KPWT 261444Z 2615/2712 VRB03KT 1/2SM FG OVC003 FM262000 20008KT
                       P6SM OVC050 FM270300 20007KT P6SM VCSH BKN020
                       FM270800 20014KT 4SM BR OVC010=
202210261250 KPWT 261250Z 2613/2712 VRB03KT 3SM BR OVC007
                      TEMPO 2613/2615 1/2SM FG OVC003 FM261600
                       VRB03KT P6SM OVC020 FM262100 20008KT P6SM
                       OVC050 FM270300 20007KT P6SM VCSH BKN020
                       FM270800 20014KT P6SM OVC010=
202210261139 TAF KPWT 261139Z 2612/2712 VRB03KT P6SM OVC007 FM261600 VRB03KT
                       P6SM OVC020 FM262100 20008KT P6SM OVC050
                       FM270300 20007KT P6SM VCSH BKN020 FM270800
                       20014KT P6SM OVC010=
202210260540 TAF KPWT 260540Z 2606/2706 21010KT P6SM VCSH OVC015
                      TEMPO 2606/2608 21010KT P6SM OVC008 FM261300
                       VRB03KT P6SM OVC025 FM262000 20008KT P6SM
                       BKN050 FM270400 19008KT P6SM VCSH BKN020=
202210252338 TAF KPWT 252338Z 2600/2624 19012G20KT P6SM RA BKN005 FM260300 21006KT
                       P6SM BKN035 FM260500 19008KT P6SM -SHRA
                       OVC020 FM261300 00000KT P6SM OVC025 FM262000
                       19008KT P6SM BKN050=
202210251737 TAF KPWT 251737Z 2518/2618 20007KT P6SM SCT005 BKN050 FM251900
                       19010G17KT P6SM -SHRA OVC050 FM252100 21013G20KT
                       P6SM -RA OVC030 FM260000 18012G18KT 4SM
                       -RA BR OVC015 FM260300 21006KT P6SM VCSH
                       BKN035 FM261300 00000KT P6SM OVC025=
202210251257 KPWT 251257Z 2513/2612 21003KT P6SM SKC FM251700 19003KT 4SM BR
                       SCT007 SCT030 FM252100 21013G20KT P6SM -RA
                       OVC020 FM260000 18012G18KT 4SM -RA BR OVC015
                       FM260500 21006KT P6SM VCSH BKN035=
202210251139 TAF KPWT 251139Z 2512/2612 VRB03KT 2SM BR SKC
                      TEMPO 2512/2513 3/4SM BR BKN005 FM251700
                       19003KT 4SM BR SCT007 SCT030 FM252100 21013G20KT
                       P6SM -RA OVC020 FM260000 18012G18KT 4SM
                       -RA BR OVC015 FM260500 21006KT P6SM VCSH
                       BKN035=
202210250858 KPWT 250858Z 2509/2606 20003KT 2SM BR BKN035 OVC070
                      TEMPO 2509/2513 3/4SM BR BKN005 FM251700
                       20003KT 4SM BR SCT007 SCT030 FM252100 19013G20KT
                       P6SM -RA OVC022 FM260000 18012G18KT 4SM
                       -RA BR OVC015=
202210250536 TAF KPWT 250536Z 2506/2606 20005KT P6SM VCSH BKN040 FM251300 20003KT
                       4SM BR SCT007 SCT030 FM252100 19013G20KT
                       P6SM -RA OVC022 FM260000 18012G18KT 4SM
                       -RA BR OVC015=
202210242347 TAF KPWT 242347Z 2500/2524 22014G22KT P6SM VCSH SCT150 FM250800
                       20005KT P6SM BKN050 FM252200 19013G20KT
                       P6SM -RA OVC025=
202210241744 TAF KPWT 241744Z 2418/2518 20012G18KT 6SM -SHRA BKN005 FM242100
                       22014G22KT P6SM VCSH BKN025
                      TEMPO 2422/2502 -SHRA OVC025 FM250500 19010KT
                       P6SM BKN030=
202210241126 TAF KPWT 241126Z 2412/2512 19010KT 5SM -RA BR SCT007 OVC012 FM241400
                       19012KT 4SM -RA BR OVC007 FM241700 20012G18KT
                       6SM -SHRA BR SCT008 OVC015 FM242100 22014G22KT
                       P6SM VCSH BKN025
                      TEMPO 2422/2502 -SHRA OVC025 FM250500 19010KT
                       P6SM BKN030=
202210240526 TAF KPWT 240526Z 2406/2506 20007KT P6SM BKN040 OVC100 FM240700
                       19009KT P6SM -RA OVC030 FM241100 19011KT
                       5SM -RA BR OVC012 FM241700 20012G18KT 6SM
                       -SHRA OVC015 FM242100 22014G22KT P6SM VCSH
                       BKN030=
202210240309 KPWT 240309Z 2403/2424 20007KT P6SM BKN040 OVC080 FM240700 19009KT
                       P6SM -RA OVC027 FM241000 19010G16KT 5SM
                       -RA BR OVC012 FM241700 20012G18KT 6SM -SHRA
                       OVC015 FM242100 22014G21KT P6SM VCSH BKN030
                       BKN050=
202210232341 TAF KPWT 232341Z 2400/2424 20007KT P6SM SCT010 BKN200 FM240800
                       VRB03KT P6SM -RA OVC035 FM241000 20002KT
                       4SM -RA OVC015 FM241700 18010KT 6SM -SHRA
                       OVC020 FM242100 20009KT P6SM OVC050=
202210231740 TAF KPWT 231740Z 2318/2418 19003KT 1SM BR OVC002 FM231900 17003KT
                       P6SM SCT002 BKN250 FM240800 VRB03KT P6SM
                       -RA OVC035 FM241700 18010KT 6SM -SHRA OVC020=
202210231127 TAF KPWT 231127Z 2312/2412 00000KT 6SM BR SCT010 BKN030
                      TEMPO 2312/2316 3/4SM BR BKN005 FM231900
                       17003KT P6SM BKN030 BKN250 FM232200 19005KT
                       P6SM SCT040 OVC250 FM240800 VRB03KT P6SM
                       -RA OVC035=
202210230525 TAF KPWT 230525Z 2306/2406 00000KT 3SM BR SCT025 BKN050
                      TEMPO 2306/2310 1/2SM FG BKN003 FM231000
                       00000KT 1/2SM FG OVC002 FM231900 17005KT
                       6SM BR SCT010 BKN020 BKN250 FM232200 19005KT
                       P6SM SCT030 OVC250=
202210230323 KPWT 230323Z 2303/2324 00000KT P6SM BKN050 FM231000 00000KT 6SM
                       BR OVC025 FM231400 00000KT 1/2SM FG BKN003
                       FM231900 17005KT P6SM BKN030=
202210222340 TAF KPWT 222340Z 2300/2324 11006KT P6SM VCSH BKN020 BKN030 OVC035
                       FM230500 00000KT P6SM BKN050 FM231000 00000KT
                       6SM BR OVC025 FM231400 00000KT 1/2SM FG
                       BKN003 FM231900 17005KT P6SM BKN030=
202210221728 TAF KPWT 221728Z 2218/2318 03003KT P6SM VCSH BKN005 OVC035 FM221900
                       03003KT P6SM VCSH BKN010 OVC035 FM222300
                       03004KT P6SM VCSH BKN035 FM230500 00000KT
                       P6SM BKN050 FM231100 00000KT 4SM BR OVC020
                       FM231400 00000KT 1/2SM FG BKN003=
202210221124 TAF KPWT 221124Z 2212/2312 VRB03KT P6SM VCSH BKN006 OVC040
                      TEMPO 2212/2216 6SM -SHRA FM221700 03003KT
                       P6SM VCSH BKN010 OVC035 FM222300 03004KT
                       P6SM VCSH BKN035 FM230500 00000KT P6SM BKN050
                       FM231100 00000KT 4SM BR OVC020=
202210220527 TAF KPWT 220527Z 2206/2306 05003KT 6SM -SHRA BR BKN005 OVC012 FM220800
                       04003KT 4SM -SHRA BR OVC007 FM221700 03003KT
                       6SM -SHRA BR SCT009 OVC015 FM222300 VRB03KT
                       P6SM VCSH OVC025 FM230500 00000KT P6SM BKN050=
202210220034 KPWT 220034Z 2201/2224 20004KT 6SM -SHRA BR SCT007 OVC010
                      TEMPO 2201/2205 BKN004 FM221100 05004KT 4SM
                       BR VCSH OVC007 FM222000 03003KT P6SM VCSH
                       SCT010 OVC020=
202210212320 TAF KPWT 212320Z 2200/2224 20004KT P6SM -RA SCT010 OVC025 FM220500
                       VRB03KT 4SM -SHRA BR SCT007 OVC010 FM221100
                       05004KT 4SM BR VCSH OVC007 FM222000 03003KT
                       P6SM VCSH SCT010 OVC020=
202210211724 TAF KPWT 211724Z 2118/2218 VRB03KT P6SM SCT006 OVC015 FM212000
                       20004KT 3SM -RA BR OVC010 FM220500 VRB03KT
                       4SM -SHRA BR SCT007 OVC010 FM221100 05004KT
                       4SM BR VCSH OVC007=
202210211122 TAF KPWT 211122Z 2112/2212 VRB03KT P6SM SCT006 OVC010 FM211600
                       20004KT 3SM -RA BR OVC010 FM220500 VRB03KT
                       4SM -SHRA BR SCT007 OVC010=
202210210852 KPWT 210852Z 2109/2206 VRB03KT P6SM BKN006 OVC010 FM211600 19005KT
                       3SM -RA BR OVC010=
202210210523 TAF KPWT 210523Z 2106/2206 VRB03KT 6SM BR HZ SCT015 BKN030
                      TEMPO 2106/2110 BKN005 FM211600 19005KT 3SM
                       -RA BR OVC010=
202210210259 KPWT 210259Z 2103/2124 20005KT 6SM BR BKN030 BKN050 FM210800 19004KT
                       4SM BR BKN015 FM211600 19005KT 3SM -RA BR
                       OVC010=
202210202320 TAF KPWT 202320Z 2100/2124 20005KT 4SM HZ OVC035 FM210300 20003KT
                       4SM BR SCT035 BKN050 FM210800 19004KT 4SM
                       BR BKN015 FM211600 19005KT 3SM -RA BR OVC010=
202210201720 TAF KPWT 201720Z 2018/2118 00000KT 3SM BR SKC FM202000 04005KT
                       P6SM SCT030 SCT200 FM210000 07006KT P6SM
                       SCT050 FM210300 19004KT P6SM SCT050 BKN100
                       FM210800 19004KT 5SM BR BKN015 FM211200
                       VRB03KT 5SM -SHRA BR OVC010=
202210201354 KPWT 201354Z 2014/2112 00000KT 3SM BR SKC
                      TEMPO 2014/2017 3/4SM BR FM201800 16005KT
                       P6SM SCT030 BKN100 FM210000 20009KT P6SM
                       SCT050 FM210800 19004KT P6SM BKN015=
202210201233 KPWT 201233Z 2013/2112 01003KT 5SM BR SKC FM201800 16005KT P6SM
                       SCT030 BKN100 FM210000 20009KT P6SM SCT050
                       FM210800 19004KT P6SM BKN015=
202210201120 TAF KPWT 201120Z 2012/2112 00000KT 4SM BR SKC FM201800 16005KT
                       P6SM SCT030 BKN100 FM210000 20009KT P6SM
                       SCT050 FM210800 19004KT P6SM BKN015=
202210200953 KPWT 200953Z 2010/2106 00000KT 5SM BR SKC FM201100 14004KT 1SM
                       BR BKN015 FM201800 18005KT P6SM SCT030 BKN100=
202210200521 TAF KPWT 200521Z 2006/2106 06006KT 6SM BR SKC FM200900 04004KT
                       2SM BR SCT015 FM201100 14004KT 1SM BR BKN015
                       FM201800 18005KT P6SM SCT030 BKN100=
202210192334 TAF KPWT 192334Z 2000/2024 08005KT 3SM HZ SKC FM200100 VRB04KT
                       P6SM FEW250 FM200900 VRB04KT 2SM BR SCT015
                       FM201100 VRB04KT 1SM BR SCT015 FM201800
                       VRB04KT 5SM HZ SCT030=
202210191741 TAF KPWT 191741Z 1918/2018 05006KT P6SM SKC FM200100 00000KT P6SM
                       FEW250 FM200900 VRB04KT 2SM BR SCT015 FM201100
                       VRB04KT 1/2SM FG SCT015 FM201700 16005KT
                       5SM BR OVC020=
202210191120 TAF KPWT 191120Z 1912/2012 00000KT 6SM FU SKC
                      TEMPO 1914/1918 1/4SM FG VV001 FM191800 VRB03KT
                       6SM HZ FEW005 FM192100 04005KT 5SM FU SCT250
                       FM200200 00000KT P6SM FEW250=
202210190520 TAF KPWT 190520Z 1906/2006 00000KT 6SM FU SKC FM190800 00000KT
                       2SM BR SKC FM191200 00000KT 1/2SM FG SKC
                       TEMPO 1914/1918 1/4SM FG VV001 FM191800
                       VRB03KT 6SM HZ FEW005 FM192100 04005KT 4SM
                       FU SCT250=
202210190304 KPWT 190304Z 1903/1924 00000KT 6SM FU SKC FM190800 00000KT 2SM
                       BR SKC FM191200 00000KT 1/2SM FG SKC
                      TEMPO 1914/1918 1/4SM FG VV001 FM191800 VRB03KT
                       6SM HZ FEW005 FM192100 04005KT 4SM FU SCT250=
202210182320 TAF KPWT 182320Z 1900/1924 05004KT 6SM FU SKC FM190200 00000KT
                       6SM FU SKC FM190700 00000KT 1SM BR SKC FM191200
                       00000KT 1/2SM FG SKC
                      TEMPO 1914/1918 1/4SM FG VV001 FM191800 VRB03KT
                       6SM HZ FEW005 FM192100 04005KT 4SM FU SKC=
202210181757 TAF KPWT 181757Z 1818/1918 00000KT P6SM SKC FM181900 05004KT 6SM
                       FU SKC FM190200 00000KT 6SM FU SKC FM190700
                       00000KT 1SM BR SKC FM191200 00000KT 1/2SM
                       FG SKC
                      TEMPO 1914/1918 1/4SM FG VV001=
202210181125 TAF KPWT 181125Z 1812/1912 00000KT 2SM BR SKC
                      TEMPO 1814/1818 1/4SM FG VV001 FM181900 05004KT
                       6SM HZ SKC FM182100 04005KT P6SM SKC FM190200
                       00000KT P6SM SKC FM190700 00000KT 1/4SM
                       FG SKC=
202210180927 KPWT 180927Z 1809/1906 00000KT 2SM BR SKC FM181100 00000KT 2SM
                       BR FEW005 FM181400 00000KT 1SM BR OVC005
                       TEMPO 1814/1818 1/4SM FG VV001 FM181900
                       05004KT P6SM SCT005 FM182100 04005KT P6SM
                       SKC=
202210180520 TAF KPWT 180520Z 1806/1906 00000KT P6SM FEW250 FM181100 00000KT
                       4SM BR FEW005 FM181400 00000KT 1SM BR OVC005
                       TEMPO 1814/1818 1/4SM FG VV001 FM181900
                       05004KT P6SM SCT005 FM182100 04005KT P6SM
                       SKC=
202210180254 KPWT 180254Z 1803/1824 00000KT P6SM FEW250 FM181100 00000KT 4SM
                       BR FEW005 FM181400 00000KT 1SM BR OVC005
                       TEMPO 1814/1818 1/4SM FG VV001 FM181900
                       05004KT P6SM SCT005 FM182100 04005KT P6SM
                       SKC=
202210172320 TAF KPWT 172320Z 1800/1824 23003KT P6SM SKC FM180400 00000KT P6SM
                       SKC FM181100 00000KT 4SM BR FEW005 FM181400
                       00000KT 1SM BR OVC005
                      TEMPO 1814/1818 1/4SM FG VV001 FM181900 05004KT
                       P6SM SCT005 FM182100 04005KT P6SM SKC=
202210171922 KPWT 171922Z 1719/1818 00000KT P6SM SKC FM172000 21004KT P6SM SCT250
                       FM180000 06005KT P6SM SKC FM180400 00000KT
                       P6SM SKC FM181100 00000KT 4SM BR FEW005
                       FM181400 00000KT 1SM BR OVC002=
202210171742 TAF KPWT 171742Z 1718/1818 00000KT 3SM BR OVC003 FM172000 17003KT
                       P6SM SCT250 FM172300 01005KT P6SM SKC FM180400
                       00000KT P6SM SKC FM181100 00000KT 4SM BR
                       FEW005 FM181400 00000KT 1SM BR OVC002=
202210171558 KPWT 171558Z 1716/1812 00000KT 1/4SM FG OVC003
                      TEMPO 1716/1718 3SM BR BKN010 FM171800 17003KT
                       P6SM SCT250 FM172300 01005KT P6SM SKC FM180400
                       00000KT P6SM SKC FM181100 00000KT 4SM BR
                       SKC=
202210171121 TAF KPWT 171121Z 1712/1812 00000KT P6SM SKC
                      TEMPO 1715/1718 BKN005 FM171800 17003KT P6SM
                       SCT250 FM172300 01005KT P6SM SKC FM180400
                       00000KT P6SM SKC FM181100 00000KT 4SM BR
                       SKC=
202210170521 TAF KPWT 170521Z 1706/1806 22004KT 6SM HZ SKC FM171200 00000KT
                       4SM BR BKN004 FM171800 17003KT P6SM SCT250
                       FM172300 01005KT P6SM SKC=
202210162323 TAF KPWT 162323Z 1700/1724 05005KT 6SM HZ SKC FM170400 19005KT
                       6SM HZ SKC FM171200 00000KT 4SM BR BKN004
                       FM171800 17003KT P6SM SCT250=
202210161738 TAF KPWT 161738Z 1618/1718 01005KT 6SM HZ SKC FM170000 19005KT
                       P6SM SKC FM171200 19003KT P6SM BKN004=
202210161302 KPWT 161302Z 1613/1712 00000KT 6SM HZ SKC FM162100 14009KT 5SM
                       BR SKC FM170300 19003KT P6SM SKC FM170800
                       20002KT P6SM SKC=
202210161120 TAF KPWT 161120Z 1612/1712 00000KT 6SM HZ SKC
                      TEMPO 1613/1617 3/4SM BR FM162100 14009KT
                       5SM BR SKC FM170300 19003KT P6SM SKC FM170800
                       20002KT P6SM SKC=
202210160520 TAF KPWT 160520Z 1606/1706 04007KT 6SM HZ SKC FM160900 06005KT
                       4SM HZ SKC
                      TEMPO 1613/1617 3/4SM BR FM162100 14009KT
                       5SM BR SKC FM170300 19003KT P6SM SKC=
202210152321 TAF KPWT 152321Z 1600/1624 05010G15KT 4SM HZ SKC FM160300 04009KT
                       6SM HZ SKC FM160900 06005KT 4SM HZ SKC
                      TEMPO 1613/1617 3/4SM BR FM162100 14007KT
                       5SM BR SKC=
202210151724 TAF KPWT 151724Z 1518/1618 04011KT 6SM HZ SKC FM152100 03011G20KT
                       6SM HZ SKC FM160300 04009KT 6SM HZ SKC FM160900
                       06005KT 6SM HZ SKC=
202210151129 TAF KPWT 151129Z 1512/1612 03010KT P6SM SKC FM151500 02011KT 6SM
                       HZ SKC FM152000 03010KT 4SM BR HZ SKC FM152300
                       03009KT P6SM SKC FM160500 05005KT P6SM SKC=
202210150520 TAF KPWT 150520Z 1506/1606 03009KT P6SM SKC FM151500 02005KT 3SM
                       BR HZ SKC FM152000 03007KT 4SM BR HZ SKC
                       FM152300 03005KT P6SM SKC=
202210142320 TAF KPWT 142320Z 1500/1524 05007KT 6SM HZ SKC FM150300 03003KT
                       P6SM SKC FM151500 02005KT 3SM BR HZ SKC=
202210141721 TAF KPWT 141721Z 1418/1518 02005KT 6SM HZ SKC FM150300 02002KT
                       P6SM SKC FM151500 02003KT 3SM BR HZ SKC=
202210141127 TAF KPWT 141127Z 1412/1512 04006KT P6SM SKC
                      TEMPO 1413/1415 5SM BR=
202210140527 TAF KPWT 140527Z 1406/1506 04006KT P6SM SKC FM141800 04006KT 6SM
                       HZ SKC=
202210132321 TAF KPWT 132321Z 1400/1424 05005KT 6SM HZ SKC FM140300 VRB02KT
                       P6SM SKC FM141500 03002KT 3SM BR SKC FM141800
                       02005KT 6SM HZ SKC=
202210131720 TAF KPWT 131720Z 1318/1418 04005KT P6SM SKC FM141500 03002KT 3SM
                       BR SKC=
202210131423 KPWT 131423Z 1314/1412 04006KT P6SM SKC
                      TEMPO 1314/1316 2SM BR FEW002=
202210131120 TAF KPWT 131120Z 1312/1412 04006KT P6SM SKC=
202210130536 TAF KPWT 130536Z 1306/1406 04006KT P6SM SKC=
202210122321 TAF KPWT 122321Z 1300/1324 05006KT P6SM SKC FM130300 04003KT P6SM
                       SKC FM131500 03002KT 2SM BR SKC FM131800
                       03005KT P6SM SKC=
202210121720 TAF KPWT 121720Z 1218/1318 05009KT P6SM SKC FM130200 04003KT P6SM
                       SKC FM131500 03002KT 2SM BR SKC=
202210121604 KPWT 121604Z 1216/1312 05007KT P6SM SKC FM121800 03003KT P6SM SKC
                       FM130000 04003KT P6SM SKC=
202210121232 KPWT 121232Z 1213/1312 04004KT P6SM SKC FM121600 05003KT 6SM BR
                       BKN020 FM121800 03003KT P6SM SKC FM130000
                       04003KT P6SM SKC=
202210121120 TAF KPWT 121120Z 1212/1312 04004KT P6SM SKC
                      TEMPO 1212/1215 2SM BR FM121600 05003KT 6SM
                       BR BKN020 FM121800 03003KT P6SM SKC FM130000
                       04003KT P6SM SKC=
202210120520 TAF KPWT 120520Z 1206/1306 03005KT P6SM SKC FM121200 03002KT 6SM
                       BR FEW250
                      TEMPO 1212/1215 2SM BR FM121600 05003KT 6SM
                       BR BKN020 FM121800 03003KT P6SM SKC=
202210112320 TAF KPWT 112320Z 1200/1224 03006KT P6SM SKC FM120400 00000KT P6SM
                       SKC FM121200 03002KT 6SM BR FEW250 FM121800
                       03003KT P6SM SKC=
202210111720 TAF KPWT 111720Z 1118/1218 06007KT P6SM SKC FM112100 03004KT P6SM
                       SKC FM120400 00000KT P6SM SKC FM121200 03002KT
                       6SM BR FEW250=
202210111457 KPWT 111457Z 1115/1212 00000KT 3SM BR SKC FM111600 06003KT P6SM
                       BKN015 FM112100 03004KT P6SM SKC=
202210111120 TAF KPWT 111120Z 1112/1212 00000KT P6SM SKC FM111400 00000KT 6SM
                       BR OVC010 FM111600 06003KT P6SM BKN015 FM112100
                       03004KT P6SM SKC=
202210110520 TAF KPWT 110520Z 1106/1206 09006KT P6SM FEW020 OVC030 FM111000
                       00000KT 3SM BR BKN035 FM111500 00000KT 6SM
                       BR OVC010 FM111800 03003KT P6SM FEW250=
202210110232 KPWT 110232Z 1103/1124 VRB03KT P6SM BKN025 FM111000 00000KT 3SM
                       BR BKN035 FM111500 00000KT 6SM BR OVC010
                       FM111800 03003KT P6SM FEW250=
202210102320 TAF KPWT 102320Z 1100/1124 VRB04KT P6SM SCT100 BKN200 FM110500
                       VRB03KT P6SM FEW250 FM110900 00000KT 3SM
                       BR BKN035 FM111500 00000KT 6SM BR OVC010
                       FM111800 03003KT P6SM FEW250=
202210101727 TAF KPWT 101727Z 1018/1118 21004KT P6SM SKC FM101900 19008KT P6SM
                       SCT100 BKN200 FM110100 18012KT P6SM BKN045
                       OVC070 FM110500 VRB03KT P6SM BKN006 OVC011
                       FM110900 00000KT 3SM BR OVC007 FM111500
                       00000KT 6SM BR OVC010=
202210101128 TAF KPWT 101128Z 1012/1112 19004KT P6SM SKC FM101900 19012KT P6SM
                       SCT100 BKN200 FM110100 18006KT P6SM BKN045
                       OVC070 FM110500 VRB03KT P6SM BKN006 OVC011
                       FM110900 00000KT 3SM BR OVC002=
202210100541 TAF KPWT 100541Z 1006/1106 00000KT P6SM SKC FM101200 19004KT P6SM
                       SKC FM101900 19012KT P6SM SCT100 BKN200
                       FM110100 18006KT P6SM BKN045 OVC070 FM110500
                       VRB03KT P6SM BKN006 OVC011=
202210092320 TAF KPWT 092320Z 1000/1024 07005KT P6SM SKC FM100900 19004KT P6SM
                       SKC FM101200 12003KT 6SM BR SKC FM101700
                       12010KT P6SM BKN250 FM102100 20013KT P6SM
                       BKN250=
202210091723 TAF KPWT 091723Z 0918/1018 03008KT P6SM SKC FM092300 04005KT P6SM
                       SKC FM100900 19006KT P6SM SKC FM101200 12003KT
                       6SM BR SKC=
202210091135 TAF KPWT 091135Z 0912/1012 03006KT P6SM SKC FM100900 19006KT P6SM
                       SKC=
202210090526 TAF KPWT 090526Z 0906/1006 03006KT P6SM SKC
                      TEMPO 0913/0916 4SM BR=
202210082320 TAF KPWT 082320Z 0900/0924 03004KT P6SM SKC FM090500 03002KT P6SM
                       SKC FM091400 00000KT 6SM HZ BR SKC FM091800
                       02004KT P6SM SKC=
202210081720 TAF KPWT 081720Z 0818/0918 04006KT P6SM SKC FM090000 03004KT P6SM
                       SKC FM091000 04002KT P6SM SKC FM091400 00000KT
                       6SM HZ BR SKC=
202210081121 TAF KPWT 081121Z 0812/0912 00000KT P6SM SKC
                      TEMPO 0812/0816 4SM HZ FM081800 36006KT P6SM
                       SKC=
202210080520 TAF KPWT 080520Z 0806/0906 00000KT P6SM SKC FM081000 03003KT 6SM
                       BR SCT003
                      TEMPO 0812/0816 3SM BR FM081700 04005KT P6SM
                       SKC=
202210072340 TAF KPWT 072340Z 0800/0824 05007KT P6SM SCT250 FM080400 04004KT
                       P6SM SKC FM080700 03003KT 6SM BR SCT003
                       FM081800 04005KT P6SM SKC=
202210071723 TAF KPWT 071723Z 0718/0818 VRB03KT P6SM BKN250 FM072100 05007KT
                       P6SM SCT250 FM080200 04004KT P6SM SKC FM080700
                       03003KT 6SM BR SCT003=
202210071128 TAF KPWT 071128Z 0712/0812 00000KT 6SM BR SCT002 SCT250
                      TEMPO 0712/0716 2SM BR FM071600 VRB02KT 4SM
                       BR SCT001 SCT250 FM071900 05007KT P6SM SKC
                       FM080700 03003KT 6SM BR SCT003=
202210071006 KPWT 071006Z 0710/0806 00000KT 1SM BR SCT002 SCT250
                      TEMPO 0710/0714 1/4SM FG FM071400 VRB02KT
                       1/2SM FG SCT001 SCT250 FM071700 03005KT
                       3SM BR SCT004 SCT250 FM071900 05007KT P6SM
                       SCT250=
202210070528 TAF KPWT 070528Z 0706/0806 04003KT P6SM BKN250 FM070800 VRB02KT
                       5SM BR SCT003 SCT250 FM071000 00000KT 1SM
                       BR BKN002
                      TEMPO 0712/0716 1/4SM FG VV002 FM071700 03005KT
                       3SM BR BKN004 FM071900 05007KT P6SM SCT250=
202210062320 TAF KPWT 062320Z 0700/0724 06006KT P6SM BKN250 FM070700 VRB02KT
                       4SM BR SCT003 SCT250 FM071000 00000KT 1SM
                       BR BKN002 FM071200 00000KT 1/4SM FG VV002
                       FM071700 03005KT 3SM BR BKN004 FM071900
                       05007KT P6SM SCT250=
202210061818 KPWT 061818Z 0618/0718 06005KT P6SM FEW006 BKN250 FM062000 03006KT
                       P6SM SCT250 FM070700 VRB02KT 4SM BR SCT003
                       FM071000 00000KT 1SM BR BKN002 FM071200
                       00000KT 1/4SM FG VV002 FM071700 03005KT
                       3SM BR BKN004=
202210061720 TAF KPWT 061720Z 0618/0718 05006KT P6SM BKN003 BKN250 FM062000
                       03006KT P6SM SCT010 SCT250 FM070700 VRB02KT
                       4SM BR SCT003 FM071000 00000KT 1SM BR BKN002
                       FM071200 00000KT 1/4SM FG VV002 FM071700
                       03005KT 3SM BR BKN004=
202210061638 KPWT 061638Z 0617/0712 04005KT 3SM BR OVC002 FM061800 04005KT 4SM
                       BR BKN005 FM062000 03005KT P6SM SCT010 SCT250
                       FM070700 VRB02KT 4SM BR SCT003 FM071000
                       00000KT 1SM BR BKN002=
202210061131 TAF KPWT 061131Z 0612/0712 VRB02KT 2SM BR SCT002
                      TEMPO 0612/0616 1/4SM FG VV001 FM061800 04003KT
                       3SM BR BKN003 FM062000 03005KT P6SM SCT010
                       SCT250 FM070700 VRB02KT 4SM BR SCT003 FM071000
                       00000KT 1SM BR BKN002=
202210061018 KPWT 061018Z 0610/0706 VRB02KT 6SM BR SCT002
                      TEMPO 0611/0615 1SM BR BKN001 FM061500 04003KT
                       3SM BR OVC002 FM061900 03005KT P6SM SCT010
                       SCT250=
202210060812 KPWT 060812Z 0608/0706 VRB02KT 1/2SM FG VV002 FM061200 04003KT
                       3SM BR OVC002 FM061900 03005KT P6SM SCT010
                       SCT250=
202210060538 TAF KPWT 060538Z 0606/0706 VRB02KT 6SM BR SCT010
                      TEMPO 0607/0611 4SM BR BKN008 FM061100 04003KT
                       4SM BR OVC006 FM061900 03005KT P6SM SCT010
                       SCT250=
202210052331 TAF KPWT 052331Z 0600/0624 02004KT P6SM SCT015 SCT200 FM060600
                       03002KT 5SM BCFG BKN005 FM061100 04003KT
                       4SM BCFG OVC005 FM061500 05004KT 2SM BR
                       OVC003 FM061900 03005KT P6SM SCT015 SCT250=
202210051733 TAF KPWT 051733Z 0518/0618 VRB04KT 4SM BR OVC004 FM052000 03004KT
                       P6SM OVC009 FM052100 02007KT P6SM FEW010
                       SCT200 FM060800 03002KT 5SM BR BKN005=
202210051459 KPWT 051459Z 0515/0612 18003KT 6SM BR OVC006
                      TEMPO 0515/0516 1 1/2SM BR OVC004 FM051800
                       VRB04KT P6SM OVC009 FM052100 02007KT P6SM
                       FEW010 SCT200 FM060800 03004KT 5SM BR BKN005=
202210051121 TAF KPWT 051121Z 0512/0612 18003KT 6SM BR OVC006 FM051800 VRB04KT
                       P6SM OVC009 FM052100 02007KT P6SM FEW010
                       SCT200 FM060800 03004KT 5SM BR BKN005=
202210050707 KPWT 050707Z 0507/0606 20006KT 6SM BR OVC006 FM050900 VRB03KT 5SM
                       BR OVC005 FM051800 02004KT 6SM BR OVC008
                       FM052100 02008KT P6SM FEW010 SCT250=
202210050520 TAF KPWT 050520Z 0506/0606 20006KT 6SM BR OVC005 FM050900 VRB03KT
                       5SM BR OVC004 FM051200 03002KT 3SM BR OVC003
                       FM051800 02004KT 6SM BR OVC006 FM052100
                       02008KT P6SM FEW010 SCT250=
202210050428 KPWT 050428Z 0504/0524 19004KT 5SM BR OVC004 FM051200 03002KT 1/4SM
                       BCFG VV001=
202210042328 TAF KPWT 042328Z 0500/0524 19004KT P6SM BKN200 FM050600 17003KT
                       2SM BR OVC050 FM050800 00000KT 2SM BR OVC004
                       FM051200 03002KT 1/4SM BCFG VV001=
202210041959 KPWT 041959Z 0420/0518 18007KT P6SM BKN015 FM042200 19004KT P6SM
                       SCT011 BKN200 FM050800 17003KT 2SM BR OVC005
                       FM051200 03002KT 1/4SM BCFG OVC003=
202210041725 TAF KPWT 041725Z 0418/0518 18006KT 1SM BR OVC002 FM042000 18007KT
                       P6SM SCT011 BKN200 FM050800 17003KT 2SM
                       BR OVC005 FM051200 03002KT 1/4SM BCFG OVC003=
202210041120 TAF KPWT 041120Z 0412/0512 21004KT 1/4SM FG VV002 FM041600 19003KT
                       3SM BR OVC003 FM041800 18006KT 6SM BR BKN006
                       FM042000 18007KT P6SM SCT011 BKN200 FM050800
                       17003KT 4SM BR OVC005=
202210040813 KPWT 040813Z 0408/0506 20004KT 1/2SM FG BKN002 FM041500 19003KT
                       3SM BR OVC003 FM041800 18004KT 6SM BR BKN006
                       FM042000 18005KT P6SM SCT011 BKN200=
202210040520 TAF KPWT 040520Z 0406/0506 VRB03KT P6SM FEW004
                      TEMPO 0407/0410 5SM BR BKN004 FM041000 20004KT
                       4SM BR BKN003 FM041500 19003KT 4SM BR OVC003
                       FM041800 18004KT 6SM BR BKN006 FM042000
                       18005KT P6SM SCT011 BKN200=
202210032320 TAF KPWT 032320Z 0400/0424 VRB03KT P6SM SKC FM041200 20004KT 2SM
                       BR BKN003 FM041500 00000KT 1/2SM FG OVC002
                       FM042200 18005KT 4SM BR SCT030=
202210031727 TAF KPWT 031727Z 0318/0418 00000KT P6SM SKC FM032100 33005KT P6SM
                       SKC FM041200 20004KT 2SM BR BKN003 FM041500
                       00000KT 1/2SM FG OVC002=
202210031612 KPWT 031612Z 0316/0412 00000KT P6SM SKC
                      TEMPO 0316/0317 5SM BR FM031700 03003KT P6SM
                       SKC FM041100 14004KT 2SM BR BKN003=
202210031137 TAF KPWT 031137Z 0312/0412 00000KT P6SM SKC FM031500 00000KT 1/2SM
                       FG SCT250 FM031700 03003KT P6SM SKC FM041100
                       14004KT 2SM BR BKN003=
202210030540 TAF KPWT 030540Z 0306/0406 00000KT P6SM SKC FM031500 00000KT 1/2SM
                       FG SCT250 FM031700 03003KT P6SM SKC=
202210022320 TAF KPWT 022320Z 0300/0324 04008KT P6SM SKC FM030500 00000KT P6SM
                       SKC FM031500 03004KT P6SM SKC=
202210021726 TAF KPWT 021726Z 0218/0318 06009KT P6SM SKC FM022100 05005KT P6SM
                       SKC FM030500 00000KT P6SM SKC FM031500 03004KT
                       P6SM SKC=
202210021124 TAF KPWT 021124Z 0212/0312 05007KT P6SM SKC FM022100 05005KT P6SM
                       SKC=
202210020527 TAF KPWT 020527Z 0206/0306 04007KT P6SM SKC FM022100 05005KT P6SM
                       SKC=
202210012326 TAF KPWT 012326Z 0200/0224 05009KT P6SM SKC FM020500 04005KT P6SM
                       SKC FM021000 07005KT P6SM SKC FM022100 05005KT
                       6SM BR SKC=
202210011720 TAF KPWT 011720Z 0118/0218 04010KT P6SM SKC FM020500 04005KT P6SM
                       SKC FM021000 07005KT P6SM SKC=
202210011142 TAF KPWT 011142Z 0112/0212 04012KT P6SM SKC FM011800 04010KT P6SM
                       SKC FM020200 04005KT P6SM SKC=
202210010536 TAF KPWT 010536Z 0106/0206 05004KT P6SM SKC FM010900 08008KT P6SM
                       FEW250 FM011500 03004KT 6SM BCFG SKC=