##########################################################
# Query made at 02/16/2025 01:10:16 UTC
# Time interval: from 12/01/2022 00:00  to 12/31/2022 23:59  UTC
##########################################################

##########################################################
# KPWT, Bremerton National Automatic Weather Observing / Reporting System (United States)
# WMO index: -----. WIGOS ID: Unknown
# Latitude 47-30N. Longitude 122-45W. Altitude 147 m.
##########################################################

###################################
#  METAR/SPECI from KPWT
###################################
202212261356 METAR KPWT 261356Z AUTO 19015G23KT 5SM -RA BR OVC005 12/12 A2971 RMK AO2 SLP066 P0006 T01170117=
202212261339 SPECI KPWT 261339Z AUTO 20016G21KT 7SM -RA OVC005 12/12 A2971 RMK AO2 P0003=
202212261256 METAR KPWT 261256Z AUTO 19014G19KT 10SM -RA BKN006 OVC016 12/12 A2973 RMK AO2 CIG 004V012 SLP070 P0005 T01170117=
202212261243 SPECI KPWT 261243Z AUTO 19012G19KT 10SM RA OVC006 12/12 A2973 RMK AO2 CIG 004V010 P0005=
202212261156 METAR KPWT 261156Z AUTO 20010G18KT 7SM RA OVC004 12/12 A2975 RMK AO2 SLP079 P0008 60053 70149 T01170117 10117 20100 56042=
202212261056 METAR KPWT 261056Z AUTO 22008KT 8SM RA OVC004 11/11 A2979 RMK AO2 SLP093 P0007 T01110111=
202212260956 METAR KPWT 260956Z AUTO 19006KT 10SM -RA OVC004 11/11 A2983 RMK AO2 SLP105 P0013 T01110111=
202212260856 METAR KPWT 260856Z AUTO 21008KT 10SM RA OVC004 11/11 A2988 RMK AO2 SLP121 P0008 60025 T01110111 57028=
202212260756 METAR KPWT 260756Z AUTO 20006KT 9SM -RA BKN004 OVC011 11/11 A2990 RMK AO2 CIG 003V006 SLP128 P0009 T01110111 401110072=
202212260729 SPECI KPWT 260729Z AUTO 19003KT 5SM RA BR BKN004 BKN011 OVC019 11/11 A2991 RMK AO2 CIG 002V007 P0006=
202212260720 SPECI KPWT 260720Z AUTO 21004KT 10SM -RA SCT004 BKN011 OVC026 11/11 A2992 RMK AO2 P0003=
202212260656 METAR KPWT 260656Z AUTO 21005KT 10SM -RA OVC004 11/11 A2994 RMK AO2 SLP144 P0008 T01060106=
202212260556 METAR KPWT 260556Z AUTO 20006KT 7SM -RA OVC004 10/10 A2996 RMK AO2 SLP150 P0010 60051 T01000100 10106 20089 56018=
202212260527 SPECI KPWT 260527Z AUTO 18006KT 4SM -RA BR BKN004 OVC008 11/11 A2997 RMK AO2 CIG 003V007 P0008=
202212260456 METAR KPWT 260456Z AUTO 19004KT 4SM RA BR BKN002 OVC007 10/10 A2998 RMK AO2 SLP157 P0020 T01000100=
202212260449 SPECI KPWT 260449Z AUTO 19003KT 5SM RA BR BKN002 OVC009 10/10 A2998 RMK AO2 P0017=
202212260428 SPECI KPWT 260428Z AUTO 22003KT 4SM RA BR SCT002 OVC009 09/09 A2999 RMK AO2 CIG 006V013 P0010=
202212260356 METAR KPWT 260356Z AUTO 00000KT 6SM -RA BR OVC002 09/09 A2999 RMK AO2 RAB54 SLP159 P0000 T00940094=
202212260256 METAR KPWT 260256Z AUTO 18005KT 9SM BKN002 OVC026 09/09 A3001 RMK AO2 SLP168 60021 T00940094 58008=
202212260244 SPECI KPWT 260244Z AUTO 18005KT 10SM SCT002 BKN026 09/09 A3002 RMK AO2=
202212260232 SPECI KPWT 260232Z AUTO 21005KT 9SM BKN002 BKN019 09/09 A3001 RMK AO2=
202212260225 SPECI KPWT 260225Z AUTO 23004KT 10SM SCT002 BKN019 BKN029 09/09 A3001 RMK AO2=
202212260205 SPECI KPWT 260205Z AUTO 20004KT 10SM BKN002 BKN019 09/09 A3003 RMK AO2=
202212260156 METAR KPWT 260156Z AUTO 20004KT 10SM BKN004 BKN019 09/09 A3004 RMK AO2 RAE37 CIG 002V007 SLP176 P0002 T00890089=
202212260124 SPECI KPWT 260124Z AUTO 23003KT 6SM -RA BR OVC006 09/09 A3004 RMK AO2 CIG 003V011 P0002=
202212260109 SPECI KPWT 260109Z AUTO 20004KT 3SM -RA BR BKN004 OVC010 09/09 A3005 RMK AO2 CIG 002V008 P0001=
202212260056 METAR KPWT 260056Z AUTO 24006KT 2 1/2SM -RA BR FEW004 BKN008 OVC018 09/09 A3006 RMK AO2 CIG 006V012 SLP183 P0019 T00940094=
202212260037 SPECI KPWT 260037Z AUTO 22005KT 3SM RA BR SCT007 BKN012 OVC019 09/09 A3006 RMK AO2 P0016=
202212260031 SPECI KPWT 260031Z AUTO 24005KT 2SM +RA BR FEW004 BKN009 OVC013 10/10 A3006 RMK AO2 CIG 006V011 P0014=
202212260023 SPECI KPWT 260023Z AUTO 27006KT 1 1/4SM RA BR FEW004 SCT009 OVC013 10/10 A3006 RMK AO2 P0008=
202212260011 SPECI KPWT 260011Z AUTO 27004KT 2SM -RA BR OVC013 10/10 A3007 RMK AO2 P0002=
202212260004 SPECI KPWT 260004Z AUTO 00000KT 1 1/4SM -RA BR OVC015 10/10 A3006 RMK AO2 P0002=
202212252356 METAR KPWT 252356Z AUTO 00000KT 1SM RA BR OVC015 10/10 A3007 RMK AO2 SLP186 P0008 60042 T01000100 10106 20089 56035=
202212252335 SPECI KPWT 252335Z AUTO 25003KT 1 3/4SM -RA BR FEW005 SCT009 OVC017 10/10 A3008 RMK AO2 P0005=
202212252325 SPECI KPWT 252325Z AUTO 00000KT 2SM RA BR FEW005 BKN011 OVC019 10/10 A3008 RMK AO2 CIG 008V012 P0005=
202212252319 SPECI KPWT 252319Z AUTO 26003KT 1 1/2SM -RA BR BKN007 OVC011 10/10 A3009 RMK AO2 CIG 003V010 P0003=
202212252256 METAR KPWT 252256Z AUTO 25003KT 1 3/4SM -RA BR BKN004 OVC013 10/10 A3009 RMK AO2 CIG 003V010 SLP195 P0007 T01000100=
202212252226 SPECI KPWT 252226Z AUTO 00000KT 1 1/2SM RA BR OVC004 11/11 A3011 RMK AO2 P0003=
202212252217 SPECI KPWT 252217Z AUTO 00000KT 2 1/2SM -RA BR OVC004 11/11 A3011 RMK AO2 CIG 002V007 P0001=
202212252208 SPECI KPWT 252208Z AUTO 00000KT 2 1/2SM -RA BR OVC006 11/11 A3012 RMK AO2 VIS 1 3/4V3 CIG 002V012 P0000=
202212252156 METAR KPWT 252156Z AUTO 00000KT 1 1/2SM -RA BR OVC006 11/11 A3013 RMK AO2 CIG 003V010 SLP208 P0004 T01060106=
202212252118 SPECI KPWT 252118Z AUTO 14003KT 1 1/2SM -RA BR SCT003 BKN007 OVC012 10/10 A3016 RMK AO2 CIG 006V010 P0001=
202212252111 SPECI KPWT 252111Z AUTO 00000KT 1 1/2SM -RA BR SCT007 OVC012 10/10 A3017 RMK AO2 P0001=
202212252104 SPECI KPWT 252104Z AUTO 00000KT 1 1/4SM -RA BR BKN010 OVC016 10/10 A3017 RMK AO2 CIG 006V014 P0000=
202212252056 METAR KPWT 252056Z AUTO 00000KT 1 1/4SM -RA BR SCT011 BKN016 OVC022 10/10 A3017 RMK AO2 SLP222 P0012 60023 T01000100 58018=
202212252048 SPECI KPWT 252048Z AUTO 00000KT 1 3/4SM -RA BR FEW008 BKN011 OVC023 10/10 A3017 RMK AO2 P0011=
202212252028 SPECI KPWT 252028Z AUTO 00000KT 2SM -RA BR FEW002 BKN020 OVC024 09/09 A3018 RMK AO2 VIS 1 1/2V4 P0007=
202212252004 SPECI KPWT 252004Z AUTO 28003KT 3SM +RA BR SCT002 BKN020 OVC032 09/09 A3019 RMK AO2 P0002=
202212251956 METAR KPWT 251956Z AUTO 28003KT 3SM RA BR BKN002 BKN016 OVC026 09/09 A3020 RMK AO2 CIG 001V006 SLP230 P0004 T00940094=
202212251905 SPECI KPWT 251905Z AUTO 00000KT 4SM -RA BR FEW002 BKN025 OVC032 09/09 A3021 RMK AO2 P0000=
202212251856 METAR KPWT 251856Z AUTO 20003KT 5SM -RA BR SCT020 SCT026 OVC032 09/09 A3021 RMK AO2 SLP236 P0007 T00940094=
202212251829 SPECI KPWT 251829Z AUTO 23003KT 4SM -RA BR BKN027 OVC035 09/09 A3022 RMK AO2 P0005=
202212251810 SPECI KPWT 251810Z AUTO 00000KT 6SM -RA BR BKN030 OVC036 09/09 A3023 RMK AO2 P0000=
202212251756 METAR KPWT 251756Z AUTO 00000KT 7SM -RA BKN029 OVC034 09/09 A3022 RMK AO2 SLP239 P0001 60003 T00890089 10089 20072 56002=
202212251707 SPECI KPWT 251707Z AUTO 00000KT 4SM -RA BR SCT035 08/08 A3022 RMK AO2 P0000=
202212251656 METAR KPWT 251656Z AUTO 00000KT 1 1/4SM -RA BR CLR 08/08 A3022 RMK AO2 SLP239 P0002 T00830083=
202212251654 SPECI KPWT 251654Z AUTO 00000KT 1 3/4SM -RA BR CLR 08/08 A3022 RMK AO2 P0002=
202212251628 SPECI KPWT 251628Z AUTO 31003KT 5SM -RA BR SCT027 08/08 A3022 RMK AO2 P0001=
202212251621 SPECI KPWT 251621Z AUTO 35003KT 3SM -RA BR FEW002 BKN027 08/08 A3021 RMK AO2 P0001=
202212251618 SPECI KPWT 251618Z AUTO 00000KT 1 1/4SM -RA BR FEW002 BKN027 08/08 A3021 RMK AO2 P0001=
202212251616 SPECI KPWT 251616Z AUTO 00000KT 3/4SM -RA BR FEW002 BKN027 08/08 A3020 RMK AO2 P0001=
202212251608 SPECI KPWT 251608Z AUTO 05005KT 1/4SM -RA FG SCT002 OVC027 08/08 A3021 RMK AO2 P0000=
202212251601 SPECI KPWT 251601Z AUTO 00000KT 1/2SM -RA FG BKN002 BKN027 08/08 A3022 RMK AO2 P0000=
202212251556 METAR KPWT 251556Z AUTO 00000KT 1SM -RA BR OVC002 08/08 A3022 RMK AO2 RAB27 SLP240 P0000 T00830083=
202212251547 SPECI KPWT 251547Z AUTO 02004KT 3/4SM -RA BR OVC002 08/08 A3022 RMK AO2 RAB27 P0000=
202212251534 SPECI KPWT 251534Z AUTO 01003KT 1 3/4SM -RA BR OVC002 08/08 A3023 RMK AO2 VIS 1 1/4V3 RAB27 P0000=
202212251505 SPECI KPWT 251505Z AUTO 00000KT 6SM BR BKN002 09/09 A3023 RMK AO2=
202212251456 METAR KPWT 251456Z AUTO 09003KT 10SM SCT002 08/08 A3023 RMK AO2 RAB21E55 SLP241 P0000 60000 T00830083 58011=
202212251421 SPECI KPWT 251421Z AUTO 13003KT 3SM -RA BR FEW024 BKN110 08/08 A3025 RMK AO2 RAB21 P0000=
202212251416 SPECI KPWT 251416Z AUTO 00000KT 1 3/4SM BR BKN110 08/08 A3025 RMK AO2 VIS 1 1/2V2 1/2=
202212251356 METAR KPWT 251356Z AUTO 17003KT 9SM SCT120 08/08 A3024 RMK AO2 RAB33E45 SLP244 P0000 T00780078=
202212251340 SPECI KPWT 251340Z AUTO 00000KT 3SM -RA BR FEW002 SCT120 08/08 A3023 RMK AO2 RAB33 P0000=
202212251327 SPECI KPWT 251327Z AUTO 19003KT 1 3/4SM BR SCT002 08/08 A3024 RMK AO2 VIS 1V5=
202212251318 SPECI KPWT 251318Z AUTO 23003KT 10SM FEW002 08/08 A3025 RMK AO2=
202212251256 METAR KPWT 251256Z AUTO 25006KT 10SM CLR 09/09 A3026 RMK AO2 SLP250 T00890089=
202212251247 SPECI KPWT 251247Z AUTO 23005KT 10SM SCT003 09/09 A3025 RMK AO2=
202212251235 SPECI KPWT 251235Z AUTO 22006KT 3SM BR BKN003 08/08 A3025 RMK AO2=
202212251229 SPECI KPWT 251229Z AUTO 22008KT 1 1/4SM BR OVC003 08/08 A3025 RMK AO2=
202212251206 SPECI KPWT 251206Z AUTO 23008KT 3/4SM BR OVC003 08/08 A3026 RMK AO2=
202212251156 METAR KPWT 251156Z AUTO 22008KT 1SM BR OVC003 08/08 A3026 RMK AO2 SLP252 60010 70164 T00830083 10094 20083 58002=
202212251149 SPECI KPWT 251149Z AUTO 23008KT 1 3/4SM BR OVC003 08/08 A3026 RMK AO2=
202212251130 SPECI KPWT 251130Z AUTO 22007KT 3SM BR OVC003 09/09 A3026 RMK AO2=
202212251122 SPECI KPWT 251122Z AUTO 21008KT 1 1/4SM BR OVC003 09/09 A3026 RMK AO2=
202212251112 SPECI KPWT 251112Z AUTO 20009KT 3/4SM BR OVC003 09/09 A3026 RMK AO2=
202212251103 SPECI KPWT 251103Z AUTO 21009KT 1SM BR OVC003 09/09 A3026 RMK AO2=
202212251056 METAR KPWT 251056Z AUTO 21009KT 3/4SM BR OVC003 09/09 A3026 RMK AO2 SLP253 T00890089=
202212251014 SPECI KPWT 251014Z AUTO 21006KT 1SM BR OVC003 09/09 A3027 RMK AO2=
202212251003 SPECI KPWT 251003Z AUTO 23007KT 1 3/4SM BR OVC003 09/09 A3027 RMK AO2=
202212250956 METAR KPWT 250956Z AUTO 24006KT 5SM BR OVC003 09/09 A3027 RMK AO2 RAB04E50 SLP255 P0001 T00890089=
202212250856 METAR KPWT 250856Z AUTO 20007KT 8SM OVC003 09/09 A3027 RMK AO2 RAE50 SLP254 P0000 60009 T00940094 51021=
202212250756 METAR KPWT 250756Z AUTO 20009KT 4SM -RA BR OVC003 09/09 A3024 RMK AO2 SLP246 P0001 T00940094 400940028=
202212250656 METAR KPWT 250656Z AUTO 18008KT 4SM -RA BR OVC003 09/09 A3023 RMK AO2 SLP242 P0008 T00940094=
202212250556 METAR KPWT 250556Z AUTO 18010KT 5SM -RA BR OVC003 09/09 A3020 RMK AO2 RAE0457B34 SLP233 P0001 60006 T00940094 10094 20083 53024=
202212250456 METAR KPWT 250456Z AUTO 16006KT 7SM -RA OVC003 09/09 A3019 RMK AO2 SLP227 P0001 T00890089=
202212250356 METAR KPWT 250356Z AUTO 19008G15KT 8SM -RA OVC003 09/09 A3015 RMK AO2 SLP213 P0001 T00890089=
202212250256 METAR KPWT 250256Z AUTO 18010G17KT 8SM -RA OVC003 09/09 A3013 RMK AO2 RAE08B32 SLP209 P0001 60003 T00890089 53028=
202212250156 METAR KPWT 250156Z AUTO 20013KT 10SM -RA OVC003 08/08 A3008 RMK AO2 SLP193 P0001 T00830083=
202212250056 METAR KPWT 250056Z AUTO 18008KT 8SM -RA OVC003 09/09 A3008 RMK AO2 SLP192 P0001 T00890089=
202212242356 METAR KPWT 242356Z AUTO 19013KT 10SM -RA OVC003 09/09 A3005 RMK AO2 SLP180 P0002 60064 T00890089 10089 20083 53020=
202212242256 METAR KPWT 242256Z AUTO 20012G19KT 7SM -RA OVC003 08/08 A3001 RMK AO2 SLP170 P0001 T00830083=
202212242216 SPECI KPWT 242216Z AUTO 19013G20KT 7SM -RA OVC003 08/08 A3001 RMK AO2 P0001=
202212242156 METAR KPWT 242156Z AUTO 20013G20KT 6SM -RA BR OVC005 08/08 A3001 RMK AO2 SLP168 P0020 T00830083=
202212242127 SPECI KPWT 242127Z AUTO 20011KT 5SM RA BR BKN005 OVC011 08/08 A3002 RMK AO2 CIG 003V007 P0014=
202212242056 METAR KPWT 242056Z AUTO 20013G19KT 10SM -RA OVC003 08/08 A2999 RMK AO2 SLP161 P0006 60041 T00830083 55012=
202212242052 SPECI KPWT 242052Z AUTO 21012G19KT 10SM -RA OVC003 08/08 A2998 RMK AO2 P0006=
202212241956 METAR KPWT 241956Z AUTO 19012G21KT 10SM -RA OVC005 08/08 A2997 RMK AO2 PRESFR SLP155 P0015 T00830083=
202212241930 SPECI KPWT 241930Z AUTO 19012G19KT 8SM RA OVC005 08/08 A3002 RMK AO2 P0008=
202212241856 METAR KPWT 241856Z AUTO 19015G26KT 7SM -RA OVC007 08/08 A3002 RMK AO2 PK WND 21028/1846 SLP173 P0020 T00830083=
202212241813 SPECI KPWT 241813Z AUTO 21016G25KT 4SM RA BR OVC007 08/08 A3002 RMK AO2 CIG 004V009 P0008=
202212241756 METAR KPWT 241756Z AUTO 23013KT 6SM RA BR OVC005 08/08 A3003 RMK AO2 CIG 003V008 SLP175 P0034 60084 T00830083 10083 20056 53004=
202212241711 SPECI KPWT 241711Z AUTO 22013G17KT 5SM RA BR OVC005 08/08 A3001 RMK AO2 CIG 003V009 P0009=
202212241656 METAR KPWT 241656Z AUTO 24006KT 7SM +RA OVC007 07/07 A3001 RMK AO2 CIG 003V008 SLP169 P0017 T00720072=
202212241621 SPECI KPWT 241621Z AUTO 23007KT 10SM -RA OVC007 07/07 A3001 RMK AO2 CIG 004V010 P0003=
202212241556 METAR KPWT 241556Z AUTO 23009KT 10SM -RA OVC005 07/07 A3001 RMK AO2 RAB1457 CIG 004V009 SLP167 P0010 T00720072=
202212241456 METAR KPWT 241456Z AUTO 22011KT 10SM OVC005 07/07 A3001 RMK AO2 RAE52 SLP171 P0003 60023 T00670067 58017=
202212241356 METAR KPWT 241356Z AUTO 20008KT 7SM -RA OVC003 06/06 A3004 RMK AO2 SLP179 P0007 T00560056=
202212241332 SPECI KPWT 241332Z AUTO 20010KT 6SM RA BR OVC003 06/06 A3005 RMK AO2 P0005=
202212241256 METAR KPWT 241256Z AUTO 19008KT 4SM -RA BR OVC005 06/06 A3006 RMK AO2 CIG 003V008 SLP187 P0013 T00610061=
202212241221 SPECI KPWT 241221Z AUTO 21010KT 3SM -RA BR OVC003 06/06 A3008 RMK AO2 P0004=
202212241213 SPECI KPWT 241213Z AUTO 20007KT 2 1/2SM RA BR OVC003 06/06 A3008 RMK AO2 P0003=
202212241203 SPECI KPWT 241203Z AUTO 20006KT 3SM RA BR OVC003 06/06 A3008 RMK AO2 P0001=
202212241156 METAR KPWT 241156Z AUTO 20005KT 2 1/2SM RA BR OVC003 06/06 A3008 RMK AO2 VIS 1 3/4V4 SLP193 P0010 60022 70065 T00560056 10056 20022 56010=
202212241133 SPECI KPWT 241133Z AUTO 22004KT 1 3/4SM RA BR BKN003 04/04 A3010 RMK AO2 P0006=
202212241110 SPECI KPWT 241110Z AUTO VRB06KT 3SM -RA BR BKN003 05/05 A3010 RMK AO2 P0002=
202212241105 SPECI KPWT 241105Z AUTO 20007KT 1 1/4SM -RA BR BKN003 03/03 A3011 RMK AO2 P0001=
202212241101 SPECI KPWT 241101Z AUTO 00000KT 3/4SM -RA BR BKN003 03/03 A3010 RMK AO2 P0001=
202212241056 METAR KPWT 241056Z AUTO 00000KT 1 1/2SM -RA BR OVC003 04/04 A3011 RMK AO2 SLP203 P0008 T00390039=
202212241052 SPECI KPWT 241052Z AUTO 00000KT 1 3/4SM -RA BR OVC003 04/04 A3011 RMK AO2 P0008=
202212241031 SPECI KPWT 241031Z AUTO 23004KT 1SM RA BR OVC003 03/03 A3011 RMK AO2 P0006=
202212240956 METAR KPWT 240956Z AUTO 22003KT 3/4SM -RA BR OVC003 03/03 A3011 RMK AO2 RAE16B45UPB03E34 SLP204 P0000 T00280028=
202212240924 SPECI KPWT 240924Z AUTO 00000KT 3/4SM UP BR OVC003 03/03 A3011 RMK AO2 RAE16UPB03 P0000=
202212240917 SPECI KPWT 240917Z AUTO 00000KT 1/2SM UP FG OVC003 03/03 A3011 RMK AO2 RAE16UPB03 P0000=
202212240906 SPECI KPWT 240906Z AUTO 00000KT 3/4SM -RA BR OVC003 03/03 A3011 RMK AO2 UPB03E06 P0000=
202212240856 METAR KPWT 240856Z AUTO 00000KT 1 1/4SM -RA BR OVC003 03/03 A3011 RMK AO2 RAE28B45UPB0758E03 SLP204 P0001 60004 T00330033 50000=
202212240849 SPECI KPWT 240849Z AUTO 00000KT 1SM -RA BR OVC003 03/03 A3011 RMK AO2 RAE28B45UPB0758E03 P0001=
202212240827 SPECI KPWT 240827Z AUTO VRB04KT 2 1/2SM -RA BR OVC003 03/03 A3011 RMK AO2 VIS 1 1/2V5 UPB0758E03 P0001=
202212240807 SPECI KPWT 240807Z AUTO 00000KT 3SM -RA BR OVC003 03/03 A3011 RMK AO2 UPB0758E03 P0001=
202212240803 SPECI KPWT 240803Z AUTO 25003KT 1 3/4SM -RA BR OVC003 03/03 A3012 RMK AO2 UPB0758E03 P0001=
202212240754 METAR KPWT 240754Z AUTO 24004KT 1SM -RA BR OVC003 03/03 A3012 RMK AO2 UPB33E37 SLP208 P0002 T00280028 400281044=
202212240753 SPECI KPWT 240753Z AUTO 23004KT 1SM -RA BR OVC003 03/03 A3012 RMK AO2 UPB33E37 P0002 400281044=
202212240738 SPECI KPWT 240738Z AUTO 22003KT 1/2SM -RA FG OVC003 03/03 A3012 RMK AO2 UPB33E37 P0002=
202212240731 SPECI KPWT 240731Z AUTO 22004KT 1SM -RA BR OVC003 03/03 A3012 RMK AO2 P0002=
202212240714 SPECI KPWT 240714Z AUTO 24006KT 2 1/2SM -RA BR BKN003 BKN009 OVC017 03/03 A3013 RMK AO2 VIS 1 1/2V5 P0002=
202212240710 SPECI KPWT 240710Z AUTO 24006KT 2SM -RA BR SCT003 SCT009 OVC017 03/03 A3013 RMK AO2 P0002=
202212240656 METAR KPWT 240656Z AUTO 21006KT 6SM -RA BR FEW008 OVC019 03/03 A3012 RMK AO2 RAE10B43UPB21E43 SLP207 P0001 T00280028=
202212240605 SPECI KPWT 240605Z AUTO 22006KT 3SM -RA BR FEW002 BKN023 OVC042 02/02 A3011 RMK AO2 P0000 FZRANO=
202212240601 SPECI KPWT 240601Z AUTO 22005KT 1 1/4SM -RA BR FEW002 BKN025 OVC042 02/02 A3011 RMK AO2 P0000 FZRANO=
202212240556 METAR KPWT 240556Z AUTO 23005KT 3/4SM -RA BR SCT002 BKN025 BKN032 02/02 A3011 RMK AO2 RAB0457UPB21E54 SLP204 P0000 60001 T00220022 10022 20011 50000 FZRANO=
202212240546 SPECI KPWT 240546Z AUTO 22004KT 3/4SM UP BR BKN002 BKN033 OVC042 02/02 A3011 RMK AO2 RAB0457E45UPB21 P0000 FZRANO=
202212240540 SPECI KPWT 240540Z AUTO 22004KT 1 3/4SM -RA BR BKN002 02/02 A3011 RMK AO2 RAB0457UPB21E36 P0000 FZRANO=
202212240532 SPECI KPWT 240532Z AUTO 22004KT 5SM UP BR BKN002 02/02 A3011 RMK AO2 RAB0457E21UPB21 P0000 FZRANO=
202212240511 SPECI KPWT 240511Z AUTO 25006KT 3SM -RA BR FEW002 02/02 A3011 RMK AO2 RAB0457 P0000 FZRANO=
202212240502 SPECI KPWT 240502Z AUTO 22005KT 1 1/4SM -RA BR SCT002 01/01 A3011 RMK AO2 RAB0457 P0000 FZRANO=
202212240456 METAR KPWT 240456Z AUTO 22004KT 3/4SM BR BKN002 02/02 A3011 RMK AO2 SLP206 T00170017 FZRANO=
202212240408 SPECI KPWT 240408Z AUTO 00000KT 3/4SM BR OVC002 02/02 A3011 RMK AO2 FZRANO=
202212240404 SPECI KPWT 240404Z AUTO 00000KT 1 1/2SM BR OVC002 02/02 A3011 RMK AO2 FZRANO=
202212240356 METAR KPWT 240356Z AUTO 00000KT 3SM BR OVC002 02/02 A3011 RMK AO2 RAE08UPB08E37 SLP205 P0001 T00220022 FZRANO=
202212240352 SPECI KPWT 240352Z AUTO 00000KT 2 1/2SM BR OVC002 02/02 A3011 RMK AO2 RAE08UPB08E37 P0001 FZRANO=
202212240256 METAR KPWT 240256Z AUTO 26005KT 7SM -RA OVC002 02/02 A3012 RMK AO2 UPE44RAB44 SLP207 P0000 60000 T00220022 53012 FZRANO=
202212240156 METAR KPWT 240156Z AUTO 22008KT 3SM UP BR OVC002 02/02 A3010 RMK AO2 SLP203 P0000 T00220022 FZRANO=
202212240056 METAR KPWT 240056Z AUTO 20008KT 3SM UP BR OVC002 02/02 A3008 RMK AO2 SLP195 P0000 T00170017 FZRANO=
202212240054 SPECI KPWT 240054Z AUTO 20008KT 3SM UP BR OVC002 02/02 A3008 RMK AO2 P0000 FZRANO=
202212240045 SPECI KPWT 240045Z AUTO 20009KT 2 1/2SM UP BR OVC002 02/02 A3008 RMK AO2 VIS 1 1/2V3 P0000 FZRANO=
202212240019 SPECI KPWT 240019Z AUTO 20009KT 1 1/2SM UP BR OVC002 02/02 A3007 RMK AO2 P0000 FZRANO=
202212232356 METAR KPWT 232356Z AUTO 21007KT 2SM UP BR OVC002 02/02 A3006 RMK AO2 SLP188 P0000 60011 T00170017 10017 20000 53023 FZRANO=
202212232343 SPECI KPWT 232343Z AUTO 20007KT 2 1/2SM UP BR OVC002 02/02 A3005 RMK AO2 VIS 1 3/4V4 P0000 FZRANO=
202212232318 SPECI KPWT 232318Z AUTO 20012KT 3SM UP BR OVC002 02/01 A3005 RMK AO2 P0000 FZRANO=
202212232308 SPECI KPWT 232308Z AUTO 20010KT 1 1/2SM UP BR OVC002 01/01 A3005 RMK AO2 P0000 FZRANO=
202212232256 METAR KPWT 232256Z AUTO 22008KT 2 1/2SM UP BR OVC002 01/01 A3004 RMK AO2 UPE01B18RAB01E36 SLP183 P0000 T00110006 FZRANO=
202212232238 SPECI KPWT 232238Z AUTO 20011KT 6SM BR OVC002 01/01 A3001 RMK AO2 UPE01B18E27RAB01E36 P0000 FZRANO=
202212232156 METAR KPWT 232156Z AUTO 21012KT 7SM UP OVC004 01/01 A3000 RMK AO2 RAE46UPB46 SLP167 P0002 T00060006 FZRANO=
202212232056 METAR KPWT 232056Z AUTO 20010KT 4SM -RA BR OVC004 01/00 A2999 RMK AO2 UPE52RAB52 SLP165 P0003 60009 T00060000 50005 FZRANO=
202212232007 SPECI KPWT 232007Z AUTO 22009KT 3SM UP BR OVC004 00/00 A3000 RMK AO2 P0000 FZRANO=
202212231956 METAR KPWT 231956Z AUTO 23011KT 1 1/2SM UP BR OVC004 00/00 A3000 RMK AO2 UPB56SNE56 SLP167 P0003 T00000000 FZRANO=
202212231948 SPECI KPWT 231948Z AUTO 23010KT 2SM -SN BR OVC004 00/00 A3000 RMK AO2 P0003 FZRANO=
202212231856 METAR KPWT 231856Z AUTO 22011KT 1 1/2SM -SN BR OVC004 00/M01 A2999 RMK AO2 SLP164 P0003 T00001006 FZRANO=
202212231848 SPECI KPWT 231848Z AUTO 22009KT 1 1/2SM -SN BR OVC004 00/M01 A2999 RMK AO2 P0003 FZRANO=
202212231830 SPECI KPWT 231830Z AUTO 21008KT 2SM -SN BR OVC004 00/M01 A2999 RMK AO2 P0002 FZRANO=
202212231756 METAR KPWT 231756Z AUTO 21007KT 3SM -SN BR OVC004 00/M01 A2998 RMK AO2 UPB12E20SNE12B20 CIG 003V008 SLP160 P0004 60031 T00001006 10000 21028 50014 FZRANO=
202212231752 SPECI KPWT 231752Z AUTO 21008KT 3SM -SN BR OVC004 00/M01 A2998 RMK AO2 UPB12E20SNE12B20 CIG 003V008 P0004 FZRANO=
202212231743 SPECI KPWT 231743Z AUTO 20008KT 2 1/2SM -SN BR OVC004 00/M01 A2998 RMK AO2 UPB12E20SNE12B20 CIG 003V008 P0003 FZRANO=
202212231720 SPECI KPWT 231720Z AUTO 21007KT 5SM -SN BR OVC004 M01/M01 A2997 RMK AO2 UPB12E20SNE12B20 CIG 003V008 P0002 FZRANO=
202212231712 SPECI KPWT 231712Z AUTO 20006KT 2 1/2SM UP BR BKN004 OVC011 M01/M01 A2997 RMK AO2 UPB12SNE12 CIG 003V008 P0002 FZRANO=
202212231656 METAR KPWT 231656Z AUTO 21007KT 6SM -SN BR BKN004 OVC013 M01/M01 A2996 RMK AO2 UPB26E49SNE26B49 CIG 003V008 SLP155 P0007 T10061011 FZRANO=
202212231645 SPECI KPWT 231645Z AUTO 21006KT 3SM UP BR OVC004 M01/M01 A2996 RMK AO2 UPB26SNE26 P0007 FZRANO=
202212231637 SPECI KPWT 231637Z AUTO 20006KT 1 1/2SM UP BR OVC004 M01/M01 A2995 RMK AO2 VIS 1V3 UPB26SNE26 P0006 FZRANO=
202212231626 SPECI KPWT 231626Z AUTO VRB04KT 2 1/2SM UP BR OVC004 M01/M02 A2995 RMK AO2 UPB26SNE26 P0004 FZRANO=
202212231615 SPECI KPWT 231615Z AUTO 00000KT 1 3/4SM -SN BR OVC004 M02/M02 A2994 RMK AO2 P0003 FZRANO=
202212231556 METAR KPWT 231556Z AUTO 18004KT 2SM -SN BR OVC004 M02/M02 A2994 RMK AO2 SLP147 P0003 T10171017 FZRANO=
202212231549 SPECI KPWT 231549Z AUTO 14005KT 1 3/4SM -SN BR OVC004 M02/M02 A2993 RMK AO2 VIS 1V4 P0003 FZRANO=
202212231507 SPECI KPWT 231507Z AUTO 19004KT 3SM -SN BR OVC004 M02/M02 A2993 RMK AO2 CIG 003V007 P0001 FZRANO=
202212231456 METAR KPWT 231456Z AUTO VRB03KT 2 1/2SM -SN BR OVC004 M02/M02 A2993 RMK AO2 UPB43E50SNE43B50 CIG 003V007 SLP146 P0004 60017 T10171022 55005 FZRANO=
202212231437 SPECI KPWT 231437Z AUTO 18006KT 3SM -SN BR OVC004 M02/M02 A2994 RMK AO2 P0003 FZRANO=
202212231426 SPECI KPWT 231426Z AUTO 15005KT 2SM -SN BR OVC004 M02/M02 A2993 RMK AO2 P0003 FZRANO=
202212231356 METAR KPWT 231356Z AUTO 19006KT 5SM -SN BR OVC004 M02/M02 A2993 RMK AO2 UPB17E51SNE17B27E39B51 SLP144 P0003 T10171022 FZRANO=
202212231319 SPECI KPWT 231319Z AUTO 20006KT 3SM UP BR OVC004 M01/M02 A2994 RMK AO2 UPB17SNE17 P0001 FZRANO=
202212231303 SPECI KPWT 231303Z AUTO 20004KT 2SM -SN BR OVC004 M02/M02 A2995 RMK AO2 P0000 FZRANO=
202212231256 METAR KPWT 231256Z AUTO 19005KT 3SM -SN BR OVC004 M02/M02 A2995 RMK AO2 UPB43E53SNE43B53 SLP151 P0010 T10171022 FZRANO=
202212231239 SPECI KPWT 231239Z AUTO 00000KT 3SM -SN BR BKN004 OVC022 M01/M02 A2995 RMK AO2 P0008 FZRANO=
202212231227 SPECI KPWT 231227Z AUTO 1 3/4SM -SN BR BKN004 BKN022 OVC027 M02/M02 A2995 RMK AO2 P0006 FZRANO=
202212231224 SPECI KPWT 231224Z AUTO 00000KT 2 1/2SM -SN BR SCT004 BKN022 OVC027 M02/M02 A2995 RMK AO2 P0006 FZRANO=
202212231213 SPECI KPWT 231213Z AUTO 12003KT 5SM -SN BR BKN004 BKN011 OVC026 M03/M03 A2995 RMK AO2 CIG 003V008 P0003 FZRANO=
202212231205 SPECI KPWT 231205Z AUTO 00000KT 2 1/2SM -SN BR BKN004 BKN009 OVC026 M03/M03 A2995 RMK AO2 VIS 1 1/4V5 CIG 004V008 P0002 FZRANO=
202212231156 METAR KPWT 231156Z AUTO 07003KT 4SM -SN BR SCT004 BKN009 OVC024 M03/M03 A2995 RMK AO2 CIG 007V010 SLP152 P0007 60011 70011 T10281033 11028 21044 56021 FZRANO=
202212231151 SPECI KPWT 231151Z AUTO 08003KT 5SM -SN BR BKN004 BKN009 OVC022 M03/M03 A2996 RMK AO2 P0007 FZRANO=
202212231142 SPECI KPWT 231142Z AUTO 00000KT 1 1/4SM -SN BR BKN004 BKN008 OVC022 M03/M03 A2996 RMK AO2 VIS 1/4V4 P0006 FZRANO=
202212231135 SPECI KPWT 231135Z AUTO VRB03KT 1 1/2SM -SN BR SCT004 OVC022 M03/M04 A2996 RMK AO2 VIS 1/4V4 P0005 FZRANO=
202212231056 METAR KPWT 231056Z AUTO 08005KT 4SM -SN BR FEW007 OVC024 M04/M04 A2999 RMK AO2 SLP166 P0001 T10391044 FZRANO=
202212231040 SPECI KPWT 231040Z AUTO 06005KT 5SM -SN BR FEW007 OVC024 M04/M04 A2999 RMK AO2 P0001 FZRANO=
202212230956 METAR KPWT 230956Z AUTO VRB05KT 7SM -SN OVC024 M04/M05 A3001 RMK AO2 SLP173 P0002 T10391050 FZRANO=
202212230856 METAR KPWT 230856Z AUTO 05006KT 8SM -SN OVC028 M04/M06 A3004 RMK AO2 SLP185 P0001 60001 T10441056 56023 FZRANO=
202212230852 SPECI KPWT 230852Z AUTO 05006KT 7SM -SN OVC028 M04/M06 A3005 RMK AO2 P0001 FZRANO=
202212230756 METAR KPWT 230756Z AUTO 05005KT 10SM -SN OVC036 M04/M07 A3008 RMK AO2 UPB15E50SNE15B50 SLP198 P0000 T10441067 410441083 FZRANO=
202212230656 METAR KPWT 230656Z AUTO 06004KT 9SM -SN OVC038 M04/M08 A3011 RMK AO2 SNB02 SLP208 P0000 T10441083 FZRANO=
202212230556 METAR KPWT 230556Z AUTO 05006KT 10SM SCT047 M04/M09 A3013 RMK AO2 SLP214 T10441094 11044 21050 58023 FZRANO=
202212230456 METAR KPWT 230456Z AUTO 05005KT 10SM FEW041 M04/M08 A3015 RMK AO2 SLP222 T10441078 FZRANO=
202212230356 METAR KPWT 230356Z AUTO 04005KT 10SM CLR M05/M09 A3018 RMK AO2 SLP233 T10501089 FZRANO=
202212230256 METAR KPWT 230256Z AUTO 03006KT 10SM CLR M05/M09 A3020 RMK AO2 SLP237 T10501089 56017 FZRANO=
202212230156 METAR KPWT 230156Z AUTO 05007KT 10SM SCT075 M05/M09 A3022 RMK AO2 SLP244 T10501089 FZRANO=
202212230056 METAR KPWT 230056Z AUTO 04008KT 10SM OVC075 M05/M09 A3023 RMK AO2 SLP249 T10501094 FZRANO=
202212222356 METAR KPWT 222356Z AUTO 01006KT 10SM BKN080 M05/M09 A3025 RMK AO2 SLP255 T10501089 11044 21061 56024 FZRANO=
202212222256 METAR KPWT 222256Z AUTO 02006KT 10SM SCT080 M05/M09 A3027 RMK AO2 SLP262 T10501094 FZRANO=
202212222156 METAR KPWT 222156Z AUTO 03007KT 10SM SCT090 M05/M09 A3029 RMK AO2 SLP269 T10501094 FZRANO=
202212222056 METAR KPWT 222056Z AUTO 06011KT 10SM CLR M06/M12 A3032 RMK AO2 SLP280 T10561122 58034 FZRANO=
202212221956 METAR KPWT 221956Z AUTO 04010KT 10SM CLR M06/M12 A3035 RMK AO2 SLP291 T10561122 FZRANO=
202212221856 METAR KPWT 221856Z AUTO 06005KT 10SM CLR M06/M11 A3040 RMK AO2 SLP306 T10611111 FZRANO=
202212221756 METAR KPWT 221756Z AUTO 03006KT 10SM CLR M06/M12 A3042 RMK AO2 SLP314 T10611117 11061 21083 56012 FZRANO=
202212221656 METAR KPWT 221656Z AUTO 03006KT 10SM CLR M07/M11 A3043 RMK AO2 SLP317 T10721111 FZRANO=
202212221556 METAR KPWT 221556Z AUTO 04006KT 10SM FEW120 M08/M11 A3044 RMK AO2 SLP320 T10781106 FZRANO=
202212221456 METAR KPWT 221456Z AUTO 03007KT 10SM CLR M08/M10 A3046 RMK AO2 SLP326 T10781100 56016 FZRANO=
202212221356 METAR KPWT 221356Z AUTO 03009KT 10SM CLR M08/M11 A3047 RMK AO2 SLP330 T10831106 FZRANO=
202212221256 METAR KPWT 221256Z AUTO 03008KT 10SM CLR M08/M10 A3048 RMK AO2 SLP334 T10831100 FZRANO=
202212221156 METAR KPWT 221156Z AUTO 01010KT 10SM CLR M07/M09 A3051 RMK AO2 SLP342 7//// T10721094 11072 21083 58008 FZRANO=
202212221056 METAR KPWT 221056Z AUTO 02010KT 10SM CLR M08/M10 A3052 RMK AO2 SLP346 T10781100 FZRANO=
202212220956 METAR KPWT 220956Z AUTO 02009KT 10SM CLR M08/M11 A3052 RMK AO2 SLP348 T10831106 FZRANO=
202212220917 SPECI KPWT 220917Z AUTO 02012KT 10SM SCT021 M08/M11 A3053 RMK AO2 FZRANO=
202212220856 METAR KPWT 220856Z AUTO 02010KT 10SM BKN021 M08/M10 A3053 RMK AO2 SLP350 T10781100 56001 FZRANO=
202212220851 SPECI KPWT 220851Z AUTO 01009G20KT 10SM BKN021 M08/M10 A3053 RMK AO2 FZRANO=
202212220756 METAR KPWT 220756Z AUTO 03011KT 10SM CLR M08/M10 A3053 RMK AO2 SLP349 T10781100 410171078 FZRANO=
202212220724 SPECI KPWT 220724Z AUTO 02013G19KT 10SM SCT021 M08/M09 A3055 RMK AO2 FZRANO=
202212220713 SPECI KPWT 220713Z AUTO 03014KT 10SM BKN021 M08/M09 A3054 RMK AO2 FZRANO=
202212220656 METAR KPWT 220656Z AUTO 04014G21KT 10SM CLR M07/M09 A3054 RMK AO2 SLP352 T10721094 FZRANO=
202212220556 METAR KPWT 220556Z AUTO 04011KT 10SM CLR M08/M09 A3051 RMK AO2 SLP344 T10781094 11050 21078 50003 FZRANO=
202212220456 METAR KPWT 220456Z AUTO 03008G14KT 10SM CLR M08/M10 A3052 RMK AO2 SLP345 T10781100 FZRANO=
202212220356 METAR KPWT 220356Z AUTO 03009KT 10SM CLR M07/M10 A3051 RMK AO2 SLP343 T10721100 FZRANO=
202212220256 METAR KPWT 220256Z AUTO 04011G17KT 10SM CLR M07/M11 A3050 RMK AO2 SLP340 T10721106 50004 FZRANO=
202212220156 METAR KPWT 220156Z AUTO 07008KT 10SM CLR M07/M10 A3050 RMK AO2 SLP341 T10671100 FZRANO=
202212220056 METAR KPWT 220056Z AUTO 05013KT 10SM CLR M07/M09 A3050 RMK AO2 SLP341 T10671094 FZRANO=
202212212356 METAR KPWT 212356Z AUTO 04014G20KT 10SM CLR M05/M08 A3049 RMK AO2 SLP335 6//// T10501083 11028 21050 53008 FZRANO=
202212212256 METAR KPWT 212256Z AUTO 04012KT 10SM CLR M04/M08 A3048 RMK AO2 SLP331 T10391078 FZRANO=
202212212156 METAR KPWT 212156Z AUTO 04014KT 10SM FEW046 M03/M06 A3046 RMK AO2 SLP325 T10281061 FZRANO=
202212212056 METAR KPWT 212056Z AUTO 04010KT 10SM BKN046 M04/M07 A3047 RMK AO2 SLP326 T10391067 50003 FZRANO=
202212211956 METAR KPWT 211956Z AUTO 03013KT 10SM OVC046 M04/M07 A3047 RMK AO2 SLP327 T10391067 FZRANO=
202212211856 METAR KPWT 211856Z AUTO 03013KT 10SM BKN048 M04/M07 A3047 RMK AO2 SLP327 T10441067 FZRANO=
202212211756 METAR KPWT 211756Z AUTO 03012G18KT 10SM OVC046 M04/M07 A3046 RMK AO2 SNE11 SLP323 P0000 60000 T10441067 11028 21050 53018 FZRANO=
202212211656 METAR KPWT 211656Z AUTO 03014KT 9SM -SN OVC046 M04/M06 A3044 RMK AO2 SLP317 P0000 T10441061 FZRANO=
202212211556 METAR KPWT 211556Z AUTO 03010G18KT 9SM -SN SCT034 OVC048 M04/M06 A3042 RMK AO2 SLP312 P0000 T10441056 FZRANO=
202212211456 METAR KPWT 211456Z AUTO 04011KT 9SM -SN OVC032 M04/M05 A3041 RMK AO2 SLP306 P0000 60000 T10391050 51017 FZRANO=
202212211424 SPECI KPWT 211424Z AUTO 03009G18KT 9SM -SN BKN030 BKN040 OVC049 M04/M04 A3040 RMK AO2 P0000 FZRANO=
202212211356 METAR KPWT 211356Z AUTO 04012KT 9SM -SN OVC028 M03/M04 A3039 RMK AO2 SLP301 P0000 T10331044 FZRANO=
202212211256 METAR KPWT 211256Z AUTO 04011KT 9SM -SN OVC028 M03/M04 A3038 RMK AO2 SLP298 P0000 T10331039 FZRANO=
202212211235 SPECI KPWT 211235Z AUTO 03010KT 9SM -SN OVC028 M03/M04 A3038 RMK AO2 P0000 FZRANO=
202212211156 METAR KPWT 211156Z AUTO 04011KT 9SM -SN OVC030 M03/M04 A3035 RMK AO2 SNB1058 SLP288 P0000 60000 70051 T10281039 11017 21028 51021 FZRANO=
202212211140 SPECI KPWT 211140Z AUTO 03010KT 9SM -SN OVC030 M03/M04 A3035 RMK AO2 SNB1058 P0000 FZRANO=
202212211056 METAR KPWT 211056Z AUTO 04011KT 10SM OVC026 M03/M03 A3033 RMK AO2 SNE34 SLP281 P0000 T10281033 FZRANO=
202212210956 METAR KPWT 210956Z AUTO 04010KT 9SM -SN OVC024 M02/M03 A3032 RMK AO2 SNE17B33 SLP277 P0000 T10221033 FZRANO=
202212210938 SPECI KPWT 210938Z AUTO 05009KT 9SM -SN SCT016 OVC022 M02/M03 A3031 RMK AO2 SNE17B33 P0000 FZRANO=
202212210856 METAR KPWT 210856Z AUTO 03009KT 9SM -SN BKN010 OVC023 M02/M03 A3029 RMK AO2 SLP266 P0000 60000 T10221028 51022 FZRANO=
202212210832 SPECI KPWT 210832Z AUTO 03006KT 9SM -SN SCT010 BKN015 BKN023 M02/M02 A3028 RMK AO2 P0000 FZRANO=
202212210820 SPECI KPWT 210820Z AUTO 03008KT 9SM -SN BKN010 OVC013 M02/M02 A3028 RMK AO2 CIG 007V011 P0000 FZRANO=
202212210756 METAR KPWT 210756Z AUTO 04008KT 7SM -SN BKN008 OVC012 M02/M02 A3027 RMK AO2 SLP260 P0000 T10171022 400111017 FZRANO=
202212210732 SPECI KPWT 210732Z AUTO 04007KT 9SM -SN BKN012 OVC024 M02/M02 A3026 RMK AO2 P0000 FZRANO=
202212210725 SPECI KPWT 210725Z AUTO 04007KT 9SM -SN SCT012 OVC024 M02/M02 A3026 RMK AO2 P0000 FZRANO=
202212210656 METAR KPWT 210656Z AUTO 04007KT 9SM -SN OVC012 M02/M02 A3025 RMK AO2 SLP254 P0000 T10171017 FZRANO=
202212210643 SPECI KPWT 210643Z AUTO 03006KT 9SM -SN BKN012 BKN022 OVC033 M02/M02 A3025 RMK AO2 P0000 FZRANO=
202212210613 SPECI KPWT 210613Z AUTO 05005KT 9SM -SN SCT004 OVC021 M02/M02 A3023 RMK AO2 P0000 FZRANO=
202212210556 METAR KPWT 210556Z AUTO 04005KT 10SM -SN BKN021 OVC027 M02/M02 A3023 RMK AO2 UPB04E23SNE04B29 SLP245 P0000 60001 T10171017 11017 21017 52018 FZRANO=
202212210456 METAR KPWT 210456Z AUTO 03003KT 9SM -SN OVC021 M02/M02 A3021 RMK AO2 UPE25SNB25 SLP238 P0000 T10171017 FZRANO=
202212210440 SPECI KPWT 210440Z AUTO 00000KT 9SM -SN SCT010 OVC021 M02/M02 A3020 RMK AO2 UPE25SNB25 P0000 FZRANO=
202212210356 METAR KPWT 210356Z AUTO 00000KT 10SM UP BKN010 BKN014 OVC027 M02/M02 A3019 RMK AO2 UPB56SNE01 SLP232 P0000 T10171017 FZRANO=
202212210348 SPECI KPWT 210348Z AUTO 00000KT 10SM BKN010 OVC027 M02/M02 A3019 RMK AO2 SNE01 P0000 FZRANO=
202212210329 SPECI KPWT 210329Z AUTO 03003KT 10SM SCT008 OVC027 M02/M02 A3018 RMK AO2 SNE01 P0000 FZRANO=
202212210306 SPECI KPWT 210306Z AUTO 03004KT 7SM OVC008 M02/M02 A3017 RMK AO2 SNE01 CIG 005V011 P0000 FZRANO=
202212210256 METAR KPWT 210256Z AUTO 04003KT 7SM -SN BKN010 BKN027 M02/M02 A3017 RMK AO2 SLP226 P0000 60001 T10171017 51012 FZRANO=
202212210204 SPECI KPWT 210204Z AUTO 04004KT 4SM -SN BR CLR M02/M02 A3017 RMK AO2 P0000 FZRANO=
202212210156 METAR KPWT 210156Z AUTO 03003KT 2 1/2SM -SN BR CLR M02/M02 A3016 RMK AO2 SLP223 P0001 T10171022 FZRANO=
202212210139 SPECI KPWT 210139Z AUTO 00000KT 2 1/2SM -SN BR CLR M02/M02 A3016 RMK AO2 P0000 FZRANO=
202212210100 SPECI KPWT 210100Z AUTO 04005KT 3SM -SN BR SCT012 M02/M02 A3015 RMK AO2 P0000 FZRANO=
202212210056 METAR KPWT 210056Z AUTO 04005KT 1 3/4SM -SN BR SCT012 M02/M02 A3015 RMK AO2 UPE12SNB12 SLP220 P0000 T10171022 FZRANO=
202212210054 SPECI KPWT 210054Z AUTO 05004KT 1 1/4SM -SN BR SCT012 M02/M02 A3015 RMK AO2 UPE12SNB12 P0000 FZRANO=
202212210038 SPECI KPWT 210038Z AUTO 05006KT 1SM -SN BR FEW006 OVC012 M02/M02 A3015 RMK AO2 UPE12SNB12 P0000 FZRANO=
202212210031 SPECI KPWT 210031Z AUTO 05006KT 2SM -SN BR FEW006 OVC012 M02/M02 A3015 RMK AO2 VIS 1 1/2V2 1/2 UPE12SNB12 P0000 FZRANO=
202212210011 SPECI KPWT 210011Z AUTO 04006KT 4SM UP BR SCT006 BKN012 OVC020 M02/M02 A3014 RMK AO2 P0000 FZRANO=
202212202356 METAR KPWT 202356Z AUTO 06008KT 4SM UP BR BKN006 OVC012 M02/M02 A3013 RMK AO2 SLP213 P0000 60001 T10171022 11006 21017 53015 FZRANO=
202212202332 SPECI KPWT 202332Z AUTO 06006KT 3SM UP BR OVC006 M02/M02 A3013 RMK AO2 CIG 003V009 P0000 FZRANO=
202212202325 SPECI KPWT 202325Z AUTO 05008KT 2 1/2SM UP BR OVC004 M02/M02 A3012 RMK AO2 CIG 003V009 P0000 FZRANO=
202212202256 METAR KPWT 202256Z AUTO 05008KT 2 1/2SM UP BR OVC006 M02/M02 A3012 RMK AO2 CIG 004V009 SLP208 P0000 T10171022 FZRANO=
202212202156 METAR KPWT 202156Z AUTO 04011KT 2SM UP BR OVC006 M02/M02 A3009 RMK AO2 SNB43E55 SLP199 P0000 T10171022 FZRANO=
202212202151 SPECI KPWT 202151Z AUTO 03010KT 2SM -SN BR OVC006 M02/M02 A3009 RMK AO2 UPE43SNB43 P0000 FZRANO=
202212202142 SPECI KPWT 202142Z AUTO 04011KT 3SM UP BR OVC006 M02/M02 A3008 RMK AO2 P0000 FZRANO=
202212202123 SPECI KPWT 202123Z AUTO 04013G18KT 2SM UP BR BKN006 OVC009 M02/M02 A3007 RMK AO2 P0000 FZRANO=
202212202056 METAR KPWT 202056Z AUTO 04014KT 2SM UP BR OVC004 M01/M02 A3006 RMK AO2 UPB24SNB08E24 CIG 003V009 SLP190 P0000 60001 T10111017 53008 FZRANO=
202212202021 SPECI KPWT 202021Z AUTO 03013KT 2SM -SN BR OVC004 M01/M01 A3004 RMK AO2 SNB08 CIG 003V008 P0000 FZRANO=
202212201956 METAR KPWT 201956Z AUTO 04012G18KT 5SM BR BKN004 OVC012 M01/M01 A3004 RMK AO2 UPB12E14SNE12B22E39 CIG 003V007 SLP182 P0000 T10111011 FZRANO=
202212201918 SPECI KPWT 201918Z AUTO 05012KT 5SM BR BKN004 OVC012 M01/M01 A3004 RMK AO2 UPB12E14SNE12 P0000 FZRANO=
202212201856 METAR KPWT 201856Z AUTO 06011G17KT 9SM -SN SCT004 OVC012 M01/M01 A3004 RMK AO2 UPB06E38SNE06B17E31B38 SLP182 P0001 T10111011 FZRANO=
202212201852 SPECI KPWT 201852Z AUTO 06010G17KT 9SM -SN SCT004 OVC012 M01/M01 A3004 RMK AO2 UPB06E38SNE06B17E31B38 P0001 FZRANO=
202212201805 SPECI KPWT 201805Z AUTO 05014KT 6SM -SN BR OVC010 M01/M01 A3003 RMK AO2 CIG 008V012 P0001 FZRANO=
202212201756 METAR KPWT 201756Z AUTO 05014KT 3SM -SN BR FEW003 OVC008 M01/M01 A3003 RMK AO2 UPB09E54SNE09B54 SLP176 P0007 60049 T10061006 10011 21006 53007 FZRANO=
202212201711 SPECI KPWT 201711Z AUTO 06008KT 3SM UP BR BKN008 01/01 A3000 RMK AO2 UPB09SNE09 P0003 FZRANO=
202212201706 SPECI KPWT 201706Z AUTO 07009KT 2 1/2SM -SN BR SCT008 01/01 A3000 RMK AO2 VIS 2V3 P0002 FZRANO=
202212201656 METAR KPWT 201656Z AUTO 07006KT 3SM -SN BR CLR 01/01 A3000 RMK AO2 UPE09SNB09 SLP169 P0015 T00110011 FZRANO=
202212201654 SPECI KPWT 201654Z AUTO 07005KT 3SM -SN BR CLR 01/01 A3000 RMK AO2 UPE09SNB09 P0014 FZRANO=
202212201647 SPECI KPWT 201647Z AUTO 06005KT 1 1/4SM -SN BR CLR 01/01 A3000 RMK AO2 VIS 1/2V4 UPE09SNB09 P0013 FZRANO=
202212201638 SPECI KPWT 201638Z AUTO 03003KT 1/2SM -SN FG CLR 01/01 A3000 RMK AO2 UPE09SNB09 P0011 FZRANO=
202212201634 SPECI KPWT 201634Z AUTO 36003KT 1 1/2SM -SN BR CLR 01/01 A3000 RMK AO2 UPE09SNB09 P0010 FZRANO=
202212201631 SPECI KPWT 201631Z AUTO 35004KT 3SM -SN BR CLR 01/01 A3000 RMK AO2 UPE09SNB09 P0009 FZRANO=
202212201624 SPECI KPWT 201624Z AUTO 33004KT 3/4SM -SN BR CLR 01/01 A3000 RMK AO2 VIS M1/4V4 UPE09SNB09 P0007 FZRANO=
202212201615 SPECI KPWT 201615Z AUTO 00000KT 1/4SM -SN FG VV003 01/01 A2999 RMK AO2 UPE09SNB09 P0004 FZRANO=
202212201609 SPECI KPWT 201609Z AUTO 00000KT 1 1/2SM -SN BR SCT003 01/01 A2999 RMK AO2 VIS 3/4V2 1/2 UPE09SNB09 P0003 FZRANO=
202212201600 SPECI KPWT 201600Z AUTO 00000KT 3/4SM UP BR BKN003 01/01 A2998 RMK AO2 P0001 FZRANO=
202212201556 METAR KPWT 201556Z AUTO 00000KT 1 1/4SM UP BR OVC003 01/01 A2998 RMK AO2 VIS 1/4V5 RAE07UPB07E08B34SNB08E34B38E48 SLP160 P0010 T00110006 FZRANO=
202212201547 SPECI KPWT 201547Z AUTO 00000KT 1 1/2SM -SN BR OVC003 01/01 A2998 RMK AO2 VIS 1/4V5 RAE07UPB07E08B34E38SNB08E34B38 P0009 FZRANO=
202212201530 SPECI KPWT 201530Z AUTO 29005KT 4SM -SN BR OVC003 01/01 A2999 RMK AO2 RAE07UPB07E08SNB08 P0005 FZRANO=
202212201519 SPECI KPWT 201519Z AUTO 00000KT 2 1/2SM -SN BR OVC003 01/01 A2999 RMK AO2 VIS 1V4 RAE07UPB07E08SNB08 P0004 FZRANO=
202212201456 METAR KPWT 201456Z AUTO 31003KT 5SM -RA BR OVC003 01/00 A3000 RMK AO2 RAE26B54UPB26E54SNB41E52 SLP169 P0007 60017 T00060000 56023 FZRANO=
202212201356 METAR KPWT 201356Z AUTO 24003KT 6SM -RA BR OVC003 01/00 A3002 RMK AO2 UPE45RAB00E05B25SNB08E21 SLP175 P0005 T00060000 FZRANO=
202212201256 METAR KPWT 201256Z AUTO 22005KT 6SM UP BR OVC003 01/00 A3005 RMK AO2 UPE03B45SNB03E45 SLP184 P0005 T00060000 FZRANO=
202212201211 SPECI KPWT 201211Z AUTO 20007KT 7SM -SN OVC003 00/00 A3007 RMK AO2 UPE03SNB03 P0001 FZRANO=
202212201156 METAR KPWT 201156Z AUTO 20009KT 10SM UP OVC005 00/00 A3007 RMK AO2 UPB09SNE09B17E28 SLP192 P0003 60021 70024 T00000000 10000 21011 58015 FZRANO=
202212201134 SPECI KPWT 201134Z AUTO 21010KT 10SM UP OVC005 00/00 A3008 RMK AO2 UPB09SNE09B17E28 P0002 FZRANO=
202212201056 METAR KPWT 201056Z AUTO 18006KT 4SM -SN BR OVC007 M01/M01 A3010 RMK AO2 SLP202 P0003 T10061006 FZRANO=
202212201037 SPECI KPWT 201037Z AUTO 25003KT 2SM -SN BR OVC007 M01/M01 A3011 RMK AO2 VIS 1 3/4V4 CIG 003V010 P0002 FZRANO=
202212201021 SPECI KPWT 201021Z AUTO 27003KT 3SM -SN BR SCT002 BKN009 OVC014 M01/M01 A3011 RMK AO2 P0002 FZRANO=
202212201011 SPECI KPWT 201011Z AUTO 00000KT 2 1/2SM -SN BR BKN002 BKN009 OVC014 M01/M01 A3011 RMK AO2 VIS 1 3/4V4 P0001 FZRANO=
202212201004 SPECI KPWT 201004Z AUTO 00000KT 3SM -SN BR SCT002 OVC014 M01/M01 A3012 RMK AO2 P0001 FZRANO=
202212200956 METAR KPWT 200956Z AUTO 00000KT 3SM -SN BR OVC014 M01/M01 A3012 RMK AO2 SLP208 P0005 T10061011 FZRANO=
202212200947 SPECI KPWT 200947Z AUTO 00000KT 2SM -SN BR FEW010 OVC014 M01/M01 A3012 RMK AO2 P0003 FZRANO=
202212200856 METAR KPWT 200856Z AUTO 00000KT 1 1/2SM -SN BR FEW005 BKN014 OVC020 M01/M01 A3015 RMK AO2 SLP218 P0004 60010 T10111011 58021 FZRANO=
202212200848 SPECI KPWT 200848Z AUTO 00000KT 1 3/4SM -SN BR OVC018 M01/M01 A3015 RMK AO2 P0003 FZRANO=
202212200839 SPECI KPWT 200839Z AUTO 00000KT 2SM -SN BR OVC018 M01/M01 A3016 RMK AO2 CIG 012V022 P0003 FZRANO=
202212200829 SPECI KPWT 200829Z AUTO 00000KT 1 3/4SM -SN BR OVC015 M01/M01 A3016 RMK AO2 P0002 FZRANO=
202212200756 METAR KPWT 200756Z AUTO 00000KT 1 1/2SM -SN BR OVC012 M01/M01 A3018 RMK AO2 SLP229 P0005 T10111011 410061033 FZRANO=
202212200744 SPECI KPWT 200744Z AUTO 00000KT 1 1/2SM -SN BR BKN010 M01/M01 A3019 RMK AO2 CIG 008V013 P0003 FZRANO=
202212200656 METAR KPWT 200656Z AUTO 00000KT 1 1/2SM -SN BR OVC009 M01/M01 A3019 RMK AO2 SLP234 P0001 T10111011 FZRANO=
202212200635 SPECI KPWT 200635Z AUTO 00000KT 2 1/2SM -SN BR OVC009 M01/M01 A3020 RMK AO2 VIS 1 3/4V3 P0001 FZRANO=
202212200627 SPECI KPWT 200627Z AUTO 00000KT 1 3/4SM -SN BR OVC009 M01/M01 A3020 RMK AO2 VIS 1 1/4V2 1/2 P0001 FZRANO=
202212200556 METAR KPWT 200556Z AUTO 00000KT 2SM -SN BR OVC009 M01/M02 A3021 RMK AO2 SLP240 P0001 60003 T10111017 11011 21017 56008 FZRANO=
202212200542 SPECI KPWT 200542Z AUTO 00000KT 2 1/2SM -SN BR OVC009 M01/M02 A3021 RMK AO2 P0001 FZRANO=
202212200522 SPECI KPWT 200522Z AUTO 00000KT 4SM -SN BR OVC009 M01/M02 A3021 RMK AO2 CIG 008V011 P0000 FZRANO=
202212200509 SPECI KPWT 200509Z AUTO 00000KT 4SM -SN BR OVC011 M01/M02 A3022 RMK AO2 P0000 FZRANO=
202212200456 METAR KPWT 200456Z AUTO 03003KT 2 1/2SM -SN BR OVC011 M01/M02 A3022 RMK AO2 UPB28E40SNE28B40 SLP243 P0001 T10111017 FZRANO=
202212200454 SPECI KPWT 200454Z AUTO 02003KT 2 1/2SM -SN BR OVC011 M01/M02 A3022 RMK AO2 UPB28E40SNE28B40 P0001 FZRANO=
202212200356 METAR KPWT 200356Z AUTO 00000KT 3SM -SN BR OVC013 M01/M02 A3023 RMK AO2 SLP248 P0001 T10111017 FZRANO=
202212200349 SPECI KPWT 200349Z AUTO 00000KT 2SM -SN BR OVC013 M01/M02 A3023 RMK AO2 P0001 FZRANO=
202212200328 SPECI KPWT 200328Z AUTO 00000KT 1 1/2SM -SN BR OVC013 M01/M02 A3024 RMK AO2 P0000 FZRANO=
202212200303 SPECI KPWT 200303Z AUTO 36003KT 2SM -SN BR OVC013 M01/M02 A3024 RMK AO2 P0000 FZRANO=
202212200256 METAR KPWT 200256Z AUTO 01003KT 3SM -SN BR OVC013 M01/M02 A3024 RMK AO2 SLP249 P0000 60000 T10111017 58011 FZRANO=
202212200240 SPECI KPWT 200240Z AUTO 02003KT 3SM -SN BR OVC013 M01/M02 A3024 RMK AO2 P0000 FZRANO=
202212200212 SPECI KPWT 200212Z AUTO 04005KT 2SM -SN BR OVC015 M02/M02 A3025 RMK AO2 VIS 1 1/2V3 P0000 FZRANO=
202212200205 SPECI KPWT 200205Z AUTO 04005KT 3SM -SN BR OVC017 M02/M02 A3025 RMK AO2 P0000 FZRANO=
202212200156 METAR KPWT 200156Z AUTO 04005KT 2 1/2SM -SN BR OVC017 M02/M02 A3025 RMK AO2 VIS 2V4 SLP254 P0000 T10171017 FZRANO=
202212200148 SPECI KPWT 200148Z AUTO 05005KT 2 1/2SM -SN BR OVC017 M02/M02 A3026 RMK AO2 VIS 1 3/4V4 P0000 FZRANO=
202212200056 METAR KPWT 200056Z AUTO 06004KT 4SM -SN BR BKN019 M01/M02 A3027 RMK AO2 SLP259 P0000 T10111017 FZRANO=
202212200046 SPECI KPWT 200046Z AUTO 05006KT 4SM -SN BR BKN019 M01/M02 A3027 RMK AO2 P0000 FZRANO=
202212200033 SPECI KPWT 200033Z AUTO 05006KT 3SM -SN BR SCT021 M01/M02 A3027 RMK AO2 P0000 FZRANO=
202212200023 SPECI KPWT 200023Z AUTO 05006KT 2SM -SN BR FEW014 BKN021 M01/M02 A3027 RMK AO2 P0000 FZRANO=
202212200013 SPECI KPWT 200013Z AUTO 05005KT 3SM -SN BR SCT014 OVC021 M01/M02 A3027 RMK AO2 P0000 FZRANO=
202212200004 SPECI KPWT 200004Z AUTO 05005KT 2 1/2SM -SN BR BKN016 OVC023 M01/M02 A3027 RMK AO2 P0000 FZRANO=
202212192356 METAR KPWT 192356Z AUTO 05005KT 3SM -SN BR OVC013 M01/M02 A3027 RMK AO2 UPE03SNB03 SLP260 P0000 60000 T10111017 11006 21017 51004 FZRANO=
202212192353 SPECI KPWT 192353Z AUTO 05005KT 3SM -SN BR OVC013 M01/M02 A3027 RMK AO2 UPE03SNB03 P0000 FZRANO=
202212192337 SPECI KPWT 192337Z AUTO 05005KT 2SM -SN BR SCT006 OVC013 M01/M02 A3027 RMK AO2 VIS 1 3/4V4 UPE03SNB03 P0000 FZRANO=
202212192330 SPECI KPWT 192330Z AUTO 06004KT 3SM -SN BR SCT006 OVC013 M01/M02 A3027 RMK AO2 UPE03SNB03 P0000 FZRANO=
202212192327 SPECI KPWT 192327Z AUTO 05005KT 2 1/2SM -SN BR BKN006 OVC013 M01/M01 A3027 RMK AO2 UPE03SNB03 CIG 004V010 P0000 FZRANO=
202212192310 SPECI KPWT 192310Z AUTO 05004KT 2 1/2SM -SN BR SCT006 OVC013 M01/M01 A3027 RMK AO2 VIS 2V5 UPE03SNB03 P0000 FZRANO=
202212192256 METAR KPWT 192256Z AUTO 04005KT 10SM UP BKN006 OVC013 M01/M01 A3026 RMK AO2 UPB44 SLP257 P0000 T10061011 FZRANO=
202212192243 SPECI KPWT 192243Z AUTO 03004KT 10SM BKN006 BKN015 OVC019 M01/M01 A3026 RMK AO2 FZRANO=
202212192228 SPECI KPWT 192228Z AUTO 05003KT 10SM FEW006 OVC021 M01/M01 A3026 RMK AO2 FZRANO=
202212192156 METAR KPWT 192156Z AUTO 06003KT 10SM OVC023 M01/M02 A3026 RMK AO2 UPE03 SLP257 P0000 T10061017 FZRANO=
202212192056 METAR KPWT 192056Z AUTO 05003KT 10SM UP OVC028 M01/M02 A3026 RMK AO2 SLP257 P0000 60000 T10111022 58002 FZRANO=
202212191956 METAR KPWT 191956Z AUTO 03003KT 10SM UP OVC038 M01/M03 A3027 RMK AO2 UPB39SNE39 SLP260 P0000 T10111028 FZRANO=
202212191856 METAR KPWT 191856Z AUTO 05005KT 9SM -SN FEW036 OVC050 M02/M03 A3027 RMK AO2 SLP261 P0000 T10171028 FZRANO=
202212191828 SPECI KPWT 191828Z AUTO 05004KT 9SM -SN SCT015 OVC050 M02/M03 A3028 RMK AO2 P0000 FZRANO=
202212191807 SPECI KPWT 191807Z AUTO 05005KT 9SM BKN017 BKN033 OVC055 M02/M03 A3027 RMK AO2 SNE07 P0000 FZRANO=
202212191756 METAR KPWT 191756Z AUTO 05004KT 9SM -SN SCT017 SCT033 OVC055 M02/M03 A3027 RMK AO2 SLP259 P0000 60000 T10171028 11017 21022 53018 FZRANO=
202212191712 SPECI KPWT 191712Z AUTO 05007KT 9SM -SN SCT015 SCT034 BKN050 M02/M03 A3025 RMK AO2 P0000 FZRANO=
202212191656 METAR KPWT 191656Z AUTO 04005KT 9SM -SN BKN015 M02/M03 A3025 RMK AO2 SLP253 P0000 T10171028 FZRANO=
202212191556 METAR KPWT 191556Z AUTO 03005KT 9SM -SN OVC015 M02/M03 A3024 RMK AO2 SNE1458B20 SLP248 P0000 T10171028 FZRANO=
202212191456 METAR KPWT 191456Z AUTO 04005KT 9SM -SN BKN015 OVC055 M02/M03 A3022 RMK AO2 SNB12 SLP242 P0000 60000 T10221033 51007 FZRANO=
202212191415 SPECI KPWT 191415Z AUTO 04004KT 10SM -SN BKN017 OVC055 M02/M03 A3022 RMK AO2 SNB12 P0000 FZRANO=
202212191356 METAR KPWT 191356Z AUTO 05004KT 10SM OVC055 M02/M03 A3022 RMK AO2 SLP241 T10221033 FZRANO=
202212191328 SPECI KPWT 191328Z AUTO 06003KT 10SM SCT018 OVC055 M02/M03 A3021 RMK AO2 FZRANO=
202212191316 SPECI KPWT 191316Z AUTO 00000KT 10SM BKN018 BKN023 OVC050 M02/M03 A3021 RMK AO2 FZRANO=
202212191256 METAR KPWT 191256Z AUTO 36003KT 10SM FEW018 OVC050 M02/M03 A3021 RMK AO2 SLP239 T10221033 FZRANO=
202212191156 METAR KPWT 191156Z AUTO 05006KT 10SM FEW017 OVC055 M02/M03 A3019 RMK AO2 SNB09E22 SLP233 P0000 60000 T10221033 11017 21033 51016 FZRANO=
202212191112 SPECI KPWT 191112Z AUTO 06007KT 10SM -SN SCT020 OVC055 M02/M03 A3019 RMK AO2 SNB09 P0000 FZRANO=
202212191056 METAR KPWT 191056Z AUTO 05005KT 10SM OVC020 M02/M03 A3019 RMK AO2 SNB16E34 SLP232 P0000 T10221033 FZRANO=
202212191004 SPECI KPWT 191004Z AUTO 05005KT 10SM BKN020 OVC055 M02/M03 A3017 RMK AO2 FZRANO=
202212190956 METAR KPWT 190956Z AUTO 05006KT 10SM SCT022 SCT027 BKN055 M02/M03 A3016 RMK AO2 SLP223 T10221033 FZRANO=
202212190856 METAR KPWT 190856Z AUTO 05005KT 10SM CLR M03/M04 A3014 RMK AO2 SNE23 SLP216 P0000 60000 T10281039 51021 FZRANO=
202212190829 SPECI KPWT 190829Z AUTO 05006KT 10SM FEW015 SCT021 SCT050 M03/M04 A3014 RMK AO2 SNE23 P0000 FZRANO=
202212190756 METAR KPWT 190756Z AUTO 02004KT 9SM -SN FEW012 BKN016 OVC022 M02/M03 A3014 RMK AO2 SNE08B31 SLP214 P0000 T10171028 400561022 FZRANO=
202212190710 SPECI KPWT 190710Z AUTO 06006KT 9SM OVC016 M02/M02 A3012 RMK AO2 SNE08 P0000 FZRANO=
202212190656 METAR KPWT 190656Z AUTO 04007KT 5SM -SN BR OVC014 M02/M02 A3011 RMK AO2 SLP204 P0000 T10171022 FZRANO=
202212190612 SPECI KPWT 190612Z AUTO 04007KT 5SM -SN BR SCT008 BKN013 BKN023 M02/M02 A3009 RMK AO2 P0000 FZRANO=
202212190556 METAR KPWT 190556Z AUTO 04005KT 3SM -SN BR BKN013 BKN020 BKN026 M02/M02 A3008 RMK AO2 SLP195 P0000 60000 T10171017 10022 21017 53017 FZRANO=
202212190550 SPECI KPWT 190550Z AUTO 05006KT 3SM -SN BR BKN013 BKN022 BKN026 M02/M02 A3008 RMK AO2 P0000 FZRANO=
202212190547 SPECI KPWT 190547Z AUTO 04006KT 2 1/2SM -SN BR SCT013 BKN022 BKN026 M02/M02 A3008 RMK AO2 P0000 FZRANO=
202212190527 SPECI KPWT 190527Z AUTO 05008KT 3SM -SN BR FEW011 BKN023 M01/M02 A3007 RMK AO2 P0000 FZRANO=
202212190518 SPECI KPWT 190518Z AUTO 05007KT 4SM -SN BR BKN011 M01/M02 A3006 RMK AO2 P0000 FZRANO=
202212190504 SPECI KPWT 190504Z AUTO 05008KT 4SM -SN BR BKN009 M01/M02 A3006 RMK AO2 CIG 007V012 P0000 FZRANO=
202212190456 METAR KPWT 190456Z AUTO 05007KT 2 1/2SM -SN BR BKN009 M01/M02 A3005 RMK AO2 CIG 006V012 SLP186 P0000 T10111017 FZRANO=
202212190424 SPECI KPWT 190424Z AUTO 05007KT 8SM -SN BKN007 BKN011 OVC017 M01/M01 A3004 RMK AO2 CIG 004V011 P0000 FZRANO=
202212190415 SPECI KPWT 190415Z AUTO 07006KT 7SM -SN BKN005 BKN011 OVC017 M01/M01 A3003 RMK AO2 CIG 005V008 P0000 FZRANO=
202212190356 METAR KPWT 190356Z AUTO 06008KT 5SM -SN BR SCT005 BKN014 OVC023 00/M01 A3003 RMK AO2 UPB19E22B41E47SNB22E41B47 SLP177 P0000 T00001006 FZRANO=
202212190353 SPECI KPWT 190353Z AUTO 06006KT 5SM -SN BR SCT005 BKN014 BKN023 00/M01 A3003 RMK AO2 UPB19E22B41E47SNB22E41B47 P0000 FZRANO=
202212190345 SPECI KPWT 190345Z AUTO 06005KT 9SM UP BKN014 BKN023 M01/M01 A3003 RMK AO2 UPB19E22B41SNB22E41 P0000 FZRANO=
202212190303 SPECI KPWT 190303Z AUTO 09006KT 10SM SCT010 BKN041 00/M01 A3000 RMK AO2 FZRANO=
202212190256 METAR KPWT 190256Z AUTO 08007KT 10SM BKN010 BKN041 00/M01 A3000 RMK AO2 SLP168 T00001011 53017 FZRANO=
202212190156 METAR KPWT 190156Z AUTO 02003KT 10SM OVC013 01/M01 A2998 RMK AO2 SLP160 T00061006 FZRANO=
202212190056 METAR KPWT 190056Z AUTO 06008KT 10SM BKN022 01/M01 A2995 RMK AO2 SLP150 T00111006 FZRANO=
202212190051 SPECI KPWT 190051Z AUTO 07007KT 10SM SCT022 01/M01 A2995 RMK AO2 FZRANO=
202212190039 SPECI KPWT 190039Z AUTO 07005KT 10SM BKN022 02/00 A2995 RMK AO2 FZRANO=
202212190030 SPECI KPWT 190030Z AUTO 07006KT 10SM SCT022 02/00 A2994 RMK AO2 FZRANO=
202212190019 SPECI KPWT 190019Z AUTO 06008KT 10SM BKN022 02/00 A2993 RMK AO2 FZRANO=
202212182356 METAR KPWT 182356Z AUTO 08003KT 10SM SCT022 BKN080 02/M01 A2992 RMK AO2 SLP140 T00221006 10056 20022 53016 FZRANO=
202212182256 METAR KPWT 182256Z AUTO 23003KT 10SM SCT085 04/M01 A2990 RMK AO2 SLP132 T00391011=
202212182156 METAR KPWT 182156Z AUTO 22013G19KT 10SM CLR 04/M02 A2988 RMK AO2 SLP126 T00391022=
202212182056 METAR KPWT 182056Z AUTO 23017G22KT 10SM CLR 05/M02 A2987 RMK AO2 SLP122 T00501017 56011=
202212181956 METAR KPWT 181956Z AUTO 22015G23KT 10SM CLR 04/01 A2988 RMK AO2 SLP125 T00440006=
202212181856 METAR KPWT 181856Z AUTO 20008KT 10SM CLR 04/02 A2989 RMK AO2 SLP130 T00390017=
202212181805 SPECI KPWT 181805Z AUTO 20007KT 10SM SCT010 03/03 A2991 RMK AO2=
202212181756 METAR KPWT 181756Z AUTO 20009G15KT 10SM SCT008 BKN012 02/02 A2991 RMK AO2 SLP135 T00220022 10022 20006 56005 FZRANO=
202212181656 METAR KPWT 181656Z AUTO 21010KT 10SM OVC006 02/02 A2991 RMK AO2 SLP135 T00220022 FZRANO=
202212181556 METAR KPWT 181556Z AUTO 22007KT 10SM OVC006 02/02 A2990 RMK AO2 SLP134 T00170017 FZRANO=
202212181505 SPECI KPWT 181505Z AUTO 00000KT 10SM OVC006 01/01 A2992 RMK AO2 CIG 003V011 FZRANO=
202212181456 METAR KPWT 181456Z AUTO 00000KT 10SM BKN004 OVC008 01/01 A2992 RMK AO2 CIG 003V006 SLP140 T00060006 56011 FZRANO=
202212181436 SPECI KPWT 181436Z AUTO 00000KT 7SM OVC002 01/01 A2992 RMK AO2 FZRANO=
202212181428 SPECI KPWT 181428Z AUTO 02003KT 2 1/2SM BR OVC002 01/01 A2993 RMK AO2 FZRANO=
202212181356 METAR KPWT 181356Z AUTO 01004KT 1 1/2SM BR OVC002 01/01 A2993 RMK AO2 VIS 1V4 SLP144 T00060006 FZRANO=
202212181353 SPECI KPWT 181353Z AUTO 36004KT 1 1/4SM BR OVC002 01/01 A2993 RMK AO2 VIS 3/4V4 FZRANO=
202212181341 SPECI KPWT 181341Z AUTO 00000KT 3/4SM BR OVC002 01/01 A2993 RMK AO2 FZRANO=
202212181331 SPECI KPWT 181331Z AUTO 00000KT 1/2SM FG OVC002 01/01 A2994 RMK AO2 FZRANO=
202212181319 SPECI KPWT 181319Z AUTO 35003KT 3/4SM BR OVC002 01/01 A2994 RMK AO2 FZRANO=
202212181314 SPECI KPWT 181314Z AUTO 34004KT 1 1/2SM BR OVC002 01/01 A2994 RMK AO2 VIS 3/4V4 FZRANO=
202212181256 METAR KPWT 181256Z AUTO 30003KT 7SM OVC002 01/01 A2994 RMK AO2 SLP146 T00110011 FZRANO=
202212181248 SPECI KPWT 181248Z AUTO 28004KT 8SM OVC002 01/01 A2994 RMK AO2 FZRANO=
202212181156 METAR KPWT 181156Z AUTO 26004KT 10SM OVC004 01/01 A2995 RMK AO2 SLP151 70002 T00110011 10028 20011 58004 FZRANO=
202212181056 METAR KPWT 181056Z AUTO 27003KT 10SM OVC004 02/02 A2997 RMK AO2 CIG 003V007 SLP157 T00170017 FZRANO=
202212180956 METAR KPWT 180956Z AUTO 25004KT 10SM OVC006 02/02 A2996 RMK AO2 CIG 003V008 SLP155 T00220022 FZRANO=
202212180953 SPECI KPWT 180953Z AUTO 25003KT 10SM OVC006 02/02 A2997 RMK AO2 CIG 003V008 FZRANO=
202212180932 SPECI KPWT 180932Z AUTO 00000KT 10SM OVC004 02/02 A2997 RMK AO2 CIG 003V009 FZRANO=
202212180856 METAR KPWT 180856Z AUTO 27003KT 10SM OVC007 03/03 A2997 RMK AO2 CIG 004V009 SLP157 T00280028 57002=
202212180756 METAR KPWT 180756Z AUTO 22004KT 10SM OVC007 03/03 A2998 RMK AO2 CIG 004V010 SLP158 T00280028 400280011=
202212180733 SPECI KPWT 180733Z AUTO 23006KT 10SM OVC005 03/03 A2998 RMK AO2=
202212180656 METAR KPWT 180656Z AUTO 00000KT 9SM OVC003 02/02 A2998 RMK AO2 SLP159 T00170017 FZRANO=
202212180634 SPECI KPWT 180634Z AUTO 00000KT 9SM OVC005 02/02 A2998 RMK AO2 CIG 003V008 FZRANO=
202212180556 METAR KPWT 180556Z AUTO 00000KT 8SM OVC003 02/02 A2998 RMK AO2 SLP160 60000 T00170017 10022 20017 56003 FZRANO=
202212180536 SPECI KPWT 180536Z AUTO 28003KT 5SM BR OVC003 02/02 A2998 RMK AO2 FZRANO=
202212180529 SPECI KPWT 180529Z AUTO 26003KT 2 1/2SM BR OVC003 02/02 A2998 RMK AO2 FZRANO=
202212180522 SPECI KPWT 180522Z AUTO 27003KT 1SM BR OVC003 02/02 A2998 RMK AO2 FZRANO=
202212180511 SPECI KPWT 180511Z AUTO VRB03KT 1/2SM FG OVC003 02/02 A2998 RMK AO2 FZRANO=
202212180502 SPECI KPWT 180502Z AUTO 00000KT 1/4SM FG OVC003 02/02 A2998 RMK AO2 FZRANO=
202212180456 METAR KPWT 180456Z AUTO 29003KT 3/4SM BR OVC003 02/02 A2998 RMK AO2 VIS 1/4V5 SLP161 T00170017 FZRANO=
202212180452 SPECI KPWT 180452Z AUTO 29003KT 1 3/4SM BR OVC003 02/02 A2998 RMK AO2 VIS 3/4V5 FZRANO=
202212180429 SPECI KPWT 180429Z AUTO 27005KT 9SM BKN003 02/02 A2999 RMK AO2 FZRANO=
202212180413 SPECI KPWT 180413Z AUTO 20005KT 10SM FEW003 02/02 A2998 RMK AO2 FZRANO=
202212180406 SPECI KPWT 180406Z AUTO 18005KT 9SM SCT003 SCT011 BKN027 02/02 A2998 RMK AO2 FZRANO=
202212180356 METAR KPWT 180356Z AUTO 18006KT 3SM BR BKN003 BKN011 02/02 A2998 RMK AO2 UPB00E23RAB03E12 SLP160 P0000 T00220022 FZRANO=
202212180352 SPECI KPWT 180352Z AUTO 19004KT 1 1/4SM BR OVC003 02/02 A2998 RMK AO2 UPB00E23RAB03E12 P0000 FZRANO=
202212180348 SPECI KPWT 180348Z AUTO 19004KT 3/4SM BR OVC003 02/02 A2998 RMK AO2 UPB00E23RAB03E12 P0000 FZRANO=
202212180339 SPECI KPWT 180339Z AUTO 00000KT 1SM BR OVC003 02/02 A2999 RMK AO2 UPB00E23RAB03E12 P0000 FZRANO=
202212180307 SPECI KPWT 180307Z AUTO 00000KT 2 1/2SM -RA BR OVC003 02/02 A2999 RMK AO2 UPB00E03RAB03 P0000 FZRANO=
202212180256 METAR KPWT 180256Z AUTO 00000KT 3SM BR OVC003 02/02 A2999 RMK AO2 UPB42E53RAB53E54 SLP163 P0000 60000 T00170017 56013 FZRANO=
202212180156 METAR KPWT 180156Z AUTO 00000KT 5SM BR OVC003 02/02 A3000 RMK AO2 UPB15E52 SLP166 P0000 T00170017 FZRANO=
202212180056 METAR KPWT 180056Z AUTO 00000KT 8SM OVC003 02/02 A3002 RMK AO2 UPE10RAB10E21 SLP172 P0000 T00170017 FZRANO=
202212180024 SPECI KPWT 180024Z AUTO 00000KT 10SM OVC003 02/02 A3003 RMK AO2 UPE10RAB10E21 P0000 FZRANO=
202212172356 METAR KPWT 172356Z AUTO 28005KT 8SM UP BKN005 OVC029 02/01 A3003 RMK AO2 RAB35E49UPB49 SLP176 P0000 60001 T00170011 10022 20011 58002 FZRANO=
202212172348 SPECI KPWT 172348Z AUTO 27004KT 10SM -RA BKN005 OVC029 02/01 A3003 RMK AO2 RAB35 P0000 FZRANO=
202212172344 SPECI KPWT 172344Z AUTO 28003KT 10SM -RA SCT007 OVC029 02/01 A3003 RMK AO2 RAB35 P0000 FZRANO=
202212172326 SPECI KPWT 172326Z AUTO 22003KT 10SM OVC029 02/01 A3003 RMK AO2 FZRANO=
202212172256 METAR KPWT 172256Z AUTO 00000KT 10SM FEW007 OVC031 02/02 A3004 RMK AO2 SLP179 T00170017 FZRANO=
202212172253 SPECI KPWT 172253Z AUTO 00000KT 10SM SCT007 OVC031 02/02 A3004 RMK AO2 FZRANO=
202212172200 SPECI KPWT 172200Z AUTO 00000KT 10SM BKN007 OVC029 02/02 A3004 RMK AO2 CIG 006V010 FZRANO=
202212172156 METAR KPWT 172156Z AUTO 00000KT 10SM SCT009 OVC031 02/02 A3004 RMK AO2 SLP179 T00220022 FZRANO=
202212172131 SPECI KPWT 172131Z AUTO 00000KT 10SM SCT005 BKN009 OVC040 02/02 A3004 RMK AO2 FZRANO=
202212172118 SPECI KPWT 172118Z AUTO 28003KT 10SM BKN005 OVC009 02/02 A3004 RMK AO2 FZRANO=
202212172106 SPECI KPWT 172106Z AUTO 21003KT 10SM OVC007 02/02 A3005 RMK AO2 CIG 004V012 FZRANO=
202212172056 METAR KPWT 172056Z AUTO 22003KT 10SM BKN005 OVC010 02/02 A3005 RMK AO2 UPE07RAB07E33 SLP185 P0000 60001 T00220017 58010 FZRANO=
202212172042 SPECI KPWT 172042Z AUTO 22004KT 10SM OVC005 02/02 A3006 RMK AO2 UPE07RAB07E33 CIG 003V008 P0000 FZRANO=
202212171956 METAR KPWT 171956Z AUTO 00000KT 4SM UP BR OVC003 01/01 A3007 RMK AO2 UPE24B49RAB10E49 SLP189 P0001 T00110011 FZRANO=
202212171929 SPECI KPWT 171929Z AUTO 00000KT 2SM -RA BR OVC003 01/01 A3008 RMK AO2 UPE24RAB10 P0000 FZRANO=
202212171918 SPECI KPWT 171918Z AUTO 00000KT 3SM -RA BR OVC003 01/01 A3008 RMK AO2 UPE10RAB10 P0000 FZRANO=
202212171856 METAR KPWT 171856Z AUTO 14003KT 2 1/2SM UP BR OVC003 01/01 A3008 RMK AO2 VIS 2V3 SLP195 P0000 T00110011 FZRANO=
202212171852 SPECI KPWT 171852Z AUTO 16003KT 2 1/2SM UP BR OVC003 01/01 A3009 RMK AO2 VIS 1 1/2V3 P0000 FZRANO=
202212171843 SPECI KPWT 171843Z AUTO 17003KT 3SM BR OVC003 01/01 A3009 RMK AO2 UPE42 P0000 FZRANO=
202212171831 SPECI KPWT 171831Z AUTO 00000KT 2SM UP BR OVC003 01/01 A3009 RMK AO2 P0000 FZRANO=
202212171823 SPECI KPWT 171823Z AUTO 16003KT 3SM UP BR OVC003 01/01 A3009 RMK AO2 P0000 FZRANO=
202212171756 METAR KPWT 171756Z AUTO 00000KT 2 1/2SM UP BR OVC003 01/01 A3009 RMK AO2 VIS 1 3/4V3 UPB24 SLP198 P0000 60001 T00110011 10011 20011 53000 FZRANO=
202212171745 SPECI KPWT 171745Z AUTO 16004KT 2SM UP BR OVC003 01/01 A3009 RMK AO2 VIS 1 1/4V3 UPB24 CIG 002V007 P0000 FZRANO=
202212171740 SPECI KPWT 171740Z AUTO VRB03KT 1 3/4SM UP BR OVC005 01/01 A3009 RMK AO2 VIS 1 1/4V3 UPB24 CIG 002V008 P0000 FZRANO=
202212171718 SPECI KPWT 171718Z AUTO 20003KT 8SM BKN005 OVC011 01/01 A3008 RMK AO2 CIG 002V009 FZRANO=
202212171708 SPECI KPWT 171708Z AUTO 00000KT 9SM FEW003 OVC011 01/01 A3008 RMK AO2 CIG 006V013 FZRANO=
202212171656 METAR KPWT 171656Z AUTO 00000KT 5SM BR BKN003 OVC011 01/01 A3008 RMK AO2 UPE43 SLP194 P0001 T00110011 FZRANO=
202212171646 SPECI KPWT 171646Z AUTO 21003KT 5SM BR BKN003 OVC011 01/01 A3008 RMK AO2 UPE43 P0001 FZRANO=
202212171633 SPECI KPWT 171633Z AUTO 20003KT 2SM UP BR OVC003 01/01 A3007 RMK AO2 P0001 FZRANO=
202212171613 SPECI KPWT 171613Z AUTO 20003KT 3SM UP BR OVC003 01/01 A3008 RMK AO2 P0000 FZRANO=
202212171556 METAR KPWT 171556Z AUTO 00000KT 2 1/2SM UP BR OVC003 01/01 A3008 RMK AO2 VIS 1 1/2V5 SLP195 P0000 T00110011 FZRANO=
202212171516 SPECI KPWT 171516Z AUTO 00000KT 2 1/2SM UP BR OVC003 01/01 A3009 RMK AO2 P0000 FZRANO=
202212171506 SPECI KPWT 171506Z AUTO 00000KT 3SM UP BR OVC003 01/01 A3009 RMK AO2 P0000 FZRANO=
202212171456 METAR KPWT 171456Z AUTO 00000KT 2 1/2SM UP BR OVC003 01/01 A3009 RMK AO2 UPB13 SLP197 P0000 60000 T00110011 56018 FZRANO=
202212171419 SPECI KPWT 171419Z AUTO 00000KT 2SM UP BR OVC003 01/01 A3011 RMK AO2 UPB13 CIG 002V006 P0000 FZRANO=
202212171405 SPECI KPWT 171405Z AUTO 00000KT 2 1/2SM BR OVC005 01/01 A3010 RMK AO2 CIG 002V008 FZRANO=
202212171356 METAR KPWT 171356Z AUTO 00000KT 3SM BR SCT002 OVC007 01/01 A3011 RMK AO2 CIG 005V009 SLP202 T00110011 FZRANO=
202212171333 SPECI KPWT 171333Z AUTO 00000KT 4SM BR SCT004 OVC007 01/01 A3011 RMK AO2 FZRANO=
202212171256 METAR KPWT 171256Z AUTO 28003KT 6SM BR OVC005 01/01 A3012 RMK AO2 SLP207 T00110011 FZRANO=
202212171218 SPECI KPWT 171218Z AUTO 23003KT 4SM BR OVC005 01/01 A3013 RMK AO2 CIG 002V007 FZRANO=
202212171204 SPECI KPWT 171204Z AUTO 23003KT 3SM BR OVC003 01/01 A3014 RMK AO2 FZRANO=
202212171156 METAR KPWT 171156Z AUTO 23003KT 1 3/4SM BR OVC003 01/01 A3014 RMK AO2 SLP215 T00110011 10011 21033 58010 FZRANO=
202212171147 SPECI KPWT 171147Z AUTO 22004KT 1 1/4SM BR OVC003 01/01 A3014 RMK AO2 FZRANO=
202212171113 SPECI KPWT 171113Z AUTO 22004KT 3/4SM BR OVC003 01/01 A3015 RMK AO2 FZRANO=
202212171056 METAR KPWT 171056Z AUTO 19003KT 1 1/2SM BR OVC003 01/01 A3016 RMK AO2 SLP220 T00110011 FZRANO=
202212171043 SPECI KPWT 171043Z AUTO 26003KT 1 3/4SM BR OVC003 01/01 A3016 RMK AO2 FZRANO=
202212170956 METAR KPWT 170956Z AUTO 00000KT 6SM BR OVC003 01/01 A3016 RMK AO2 SLP221 T00110011 FZRANO=
202212170856 METAR KPWT 170856Z AUTO 00000KT 6SM BR OVC003 01/01 A3017 RMK AO2 SLP225 T00110011 56014 FZRANO=
202212170756 METAR KPWT 170756Z AUTO 00000KT 5SM BR OVC003 01/01 A3019 RMK AO2 SLP230 T00110011 400671033 FZRANO=
202212170656 METAR KPWT 170656Z AUTO 03003KT 5SM BR OVC003 M01/M01 A3020 RMK AO2 SLP235 T10111011 FZRANO=
202212170644 SPECI KPWT 170644Z AUTO 00000KT 5SM BR OVC003 M02/M02 A3021 RMK AO2 FZRANO=
202212170638 SPECI KPWT 170638Z AUTO 00000KT 2SM BR OVC005 M02/M02 A3021 RMK AO2 VIS 3/4V5 FZRANO=
202212170634 SPECI KPWT 170634Z AUTO 00000KT 1SM BR OVC005 M02/M02 A3021 RMK AO2 FZRANO=
202212170607 SPECI KPWT 170607Z AUTO 00000KT 1/2SM FZFG VV005 M03/M03 A3022 RMK AO2 FZRANO=
202212170600 SPECI KPWT 170600Z AUTO 00000KT 1/4SM FZFG VV005 M03/M03 A3022 RMK AO2 FZRANO=
202212170556 METAR KPWT 170556Z AUTO 00000KT 1/2SM FZFG CLR M03/M03 A3022 RMK AO2 SLP241 T10281028 10050 21028 57003 FZRANO=
202212170553 SPECI KPWT 170553Z AUTO 00000KT 1/2SM FZFG CLR M03/M03 A3022 RMK AO2 FZRANO=
202212170529 SPECI KPWT 170529Z AUTO 00000KT 1/4SM FZFG CLR M03/M03 A3022 RMK AO2 FZRANO=
202212170523 SPECI KPWT 170523Z AUTO 00000KT 3/4SM BR CLR M02/M02 A3022 RMK AO2 VIS 1/4V4 FZRANO=
202212170521 SPECI KPWT 170521Z AUTO 00000KT 1 3/4SM BR CLR M02/M02 A3022 RMK AO2 VIS 3/4V4 FZRANO=
202212170456 METAR KPWT 170456Z AUTO 00000KT 3SM BR FEW005 M02/M02 A3022 RMK AO2 SLP245 T10171017 FZRANO=
202212170451 SPECI KPWT 170451Z AUTO 00000KT 4SM BR SCT005 M01/M01 A3023 RMK AO2 FZRANO=
202212170417 SPECI KPWT 170417Z AUTO 00000KT 8SM BKN005 M02/M02 A3024 RMK AO2 FZRANO=
202212170406 SPECI KPWT 170406Z AUTO 00000KT 9SM SCT005 M01/M01 A3024 RMK AO2 FZRANO=
202212170356 METAR KPWT 170356Z AUTO 00000KT 7SM CLR M01/M01 A3025 RMK AO2 SLP252 T10061006 FZRANO=
202212170256 METAR KPWT 170256Z AUTO 05005KT 10SM FEW008 01/01 A3026 RMK AO2 SLP256 T00110011 58001 FZRANO=
202212170254 SPECI KPWT 170254Z AUTO 07005KT 10SM SCT008 01/01 A3026 RMK AO2 FZRANO=
202212170238 SPECI KPWT 170238Z AUTO 08003KT 10SM BKN008 00/00 A3026 RMK AO2 FZRANO=
202212170217 SPECI KPWT 170217Z AUTO 00000KT 9SM BKN010 00/00 A3027 RMK AO2 FZRANO=
202212170156 METAR KPWT 170156Z AUTO 00000KT 10SM FEW012 01/01 A3026 RMK AO2 SLP257 T00060006 FZRANO=
202212170154 SPECI KPWT 170154Z AUTO 00000KT 10SM SCT012 01/01 A3026 RMK AO2 FZRANO=
202212170056 METAR KPWT 170056Z AUTO 00000KT 10SM OVC014 02/02 A3029 RMK AO2 SLP265 T00220017 FZRANO=
202212170028 SPECI KPWT 170028Z AUTO 00000KT 10SM BKN014 02/02 A3029 RMK AO2 FZRANO=
202212162356 METAR KPWT 162356Z AUTO 00000KT 10SM CLR 05/02 A3030 RMK AO2 SLP268 T00500022 10067 20028 56015=
202212162256 METAR KPWT 162256Z AUTO 00000KT 10SM CLR 06/02 A3031 RMK AO2 SLP269 T00560022=
202212162156 METAR KPWT 162156Z AUTO 06003KT 10SM CLR 06/02 A3033 RMK AO2 SLP275 T00560022=
202212162122 SPECI KPWT 162122Z AUTO 06005KT 10SM SCT008 04/03 A3034 RMK AO2=
202212162056 METAR KPWT 162056Z AUTO 06006KT 10SM OVC008 04/03 A3034 RMK AO2 SLP282 T00390028 58017=
202212161956 METAR KPWT 161956Z AUTO 03006KT 10SM OVC006 04/03 A3036 RMK AO2 SLP290 T00390033=
202212161856 METAR KPWT 161856Z AUTO 03008KT 9SM BKN006 03/03 A3038 RMK AO2 SLP296 T00330028=
202212161847 SPECI KPWT 161847Z AUTO 04008KT 10SM BKN006 03/03 A3039 RMK AO2=
202212161825 SPECI KPWT 161825Z AUTO 05011KT 10SM FEW006 03/02 A3039 RMK AO2=
202212161756 METAR KPWT 161756Z AUTO 05009KT 10SM CLR 03/03 A3039 RMK AO2 SLP299 T00330033 10033 21028 56003=
202212161713 SPECI KPWT 161713Z AUTO 00000KT 4SM BR CLR 00/00 A3039 RMK AO2 FZRANO=
202212161706 SPECI KPWT 161706Z AUTO 00000KT 2 1/2SM BR CLR M01/M01 A3039 RMK AO2 FZRANO=
202212161656 METAR KPWT 161656Z AUTO 00000KT 1SM BR CLR M01/M01 A3039 RMK AO2 VIS 1/2V5 SLP300 T10061006 FZRANO=
202212161649 SPECI KPWT 161649Z AUTO 00000KT 1/2SM FZFG CLR M01/M01 A3039 RMK AO2 FZRANO=
202212161640 SPECI KPWT 161640Z AUTO 00000KT 1/4SM FZFG CLR M02/M02 RMK AO2 FZRANO $=
202212161629 SPECI KPWT 161629Z AUTO 00000KT 1/2SM FZFG CLR M02/M02 A3039 RMK AO2 FZRANO=
202212161622 SPECI KPWT 161622Z AUTO 00000KT 1SM BR CLR M02/M02 A3039 RMK AO2 VIS 1/2V3 FZRANO=
202212161611 SPECI KPWT 161611Z AUTO 00000KT 2 1/2SM BR CLR M02/M02 A3039 RMK AO2 VIS 3/4V4 FZRANO=
202212161607 SPECI KPWT 161607Z AUTO 00000KT 3/4SM BR CLR M02/M02 A3039 RMK AO2 VIS M1/4V4 FZRANO=
202212161556 METAR KPWT 161556Z AUTO 20003KT 1/4SM FZFG CLR M03/M03 A3040 RMK AO2 SLP303 T10281028 FZRANO=
202212161548 SPECI KPWT 161548Z AUTO 22003KT 1/4SM FZFG CLR M03/M03 A3040 RMK AO2 FZRANO=
202212161537 SPECI KPWT 161537Z AUTO 21003KT 1/2SM FZFG CLR M03/M03 A3040 RMK AO2 FZRANO=
202212161527 SPECI KPWT 161527Z AUTO 21003KT 1/4SM FZFG CLR M02/M02 A3040 RMK AO2 FZRANO=
202212161521 SPECI KPWT 161521Z AUTO 23004KT 3/4SM BR CLR M02/M02 A3040 RMK AO2 FZRANO=
202212161519 SPECI KPWT 161519Z AUTO 22003KT 1 1/4SM BR CLR M02/M02 A3040 RMK AO2 FZRANO=
202212161509 SPECI KPWT 161509Z AUTO 00000KT 9SM CLR M01/M01 A3040 RMK AO2 FZRANO=
202212161456 METAR KPWT 161456Z AUTO 00000KT 2 1/2SM BR CLR M02/M02 A3040 RMK AO2 SLP303 T10171017 58010 FZRANO=
202212161356 METAR KPWT 161356Z AUTO 00000KT 10SM CLR M02/M02 A3042 RMK AO2 SLP309 T10221022 FZRANO=
202212161331 SPECI KPWT 161331Z AUTO 00000KT 10SM CLR M02/M02 A3042 RMK AO2 FZRANO=
202212161324 SPECI KPWT 161324Z AUTO 00000KT 2SM BR CLR M02/M02 A3042 RMK AO2 FZRANO=
202212161311 SPECI KPWT 161311Z AUTO 00000KT 1SM BR CLR M02/M02 A3043 RMK AO2 FZRANO=
202212161256 METAR KPWT 161256Z AUTO 00000KT 1/2SM FZFG CLR M02/M02 A3043 RMK AO2 SLP312 T10171017 FZRANO=
202212161250 SPECI KPWT 161250Z AUTO 00000KT 1/2SM FZFG VV009 M01/M01 A3043 RMK AO2 FZRANO=
202212161246 SPECI KPWT 161246Z AUTO 00000KT 3/4SM BR CLR M01/M01 A3043 RMK AO2 FZRANO=
202212161241 SPECI KPWT 161241Z AUTO 00000KT 1 3/4SM BR CLR M01/M01 A3044 RMK AO2 VIS 1/2V5 FZRANO=
202212161156 METAR KPWT 161156Z AUTO 00000KT 10SM CLR M01/M01 A3043 RMK AO2 SLP314 T10061006 10028 21006 58013 FZRANO=
202212161056 METAR KPWT 161056Z AUTO 03005KT 10SM CLR 02/02 A3045 RMK AO2 SLP317 T00170017 FZRANO=
202212160956 METAR KPWT 160956Z AUTO 02006KT 10SM CLR 02/02 A3046 RMK AO2 SLP321 T00220022 FZRANO=
202212160937 SPECI KPWT 160937Z AUTO 03008KT 10SM SCT006 02/02 A3046 RMK AO2 FZRANO=
202212160928 SPECI KPWT 160928Z AUTO 03008KT 10SM BKN006 02/02 A3046 RMK AO2 FZRANO=
202212160907 SPECI KPWT 160907Z AUTO 03008KT 10SM FEW006 02/02 A3047 RMK AO2 FZRANO=
202212160856 METAR KPWT 160856Z AUTO 03005KT 10SM CLR 01/01 A3047 RMK AO2 SLP326 T00110011 58004 FZRANO=
202212160824 SPECI KPWT 160824Z AUTO 04004KT 10SM SCT008 02/02 A3047 RMK AO2 FZRANO=
202212160756 METAR KPWT 160756Z AUTO 05007KT 10SM CLR 02/02 A3048 RMK AO2 SLP328 T00220022 400610022 FZRANO=
202212160656 METAR KPWT 160656Z AUTO 03006KT 10SM CLR 02/02 A3049 RMK AO2 SLP332 T00220022 FZRANO=
202212160556 METAR KPWT 160556Z AUTO 05007KT 10SM CLR 02/02 A3048 RMK AO2 SLP330 T00220022 10050 20022 51006 FZRANO=
202212160456 METAR KPWT 160456Z AUTO 05005KT 10SM CLR 02/02 A3048 RMK AO2 SLP330 T00220022 FZRANO=
202212160356 METAR KPWT 160356Z AUTO 03009KT 10SM CLR 03/02 A3047 RMK AO2 SLP326 T00280022=
202212160256 METAR KPWT 160256Z AUTO 05011KT 10SM CLR 03/03 A3046 RMK AO2 SLP324 T00330028 56004=
202212160156 METAR KPWT 160156Z AUTO 04009KT 10SM CLR 03/02 A3046 RMK AO2 SLP323 T00330022=
202212160056 METAR KPWT 160056Z AUTO 03010KT 10SM CLR 03/02 A3047 RMK AO2 SLP324 T00330022=
202212160034 SPECI KPWT 160034Z AUTO 05010KT 10SM SCT014 04/02 A3047 RMK AO2=
202212152356 METAR KPWT 152356Z AUTO 04005KT 10SM BKN016 05/03 A3048 RMK AO2 SLP328 T00500028 10061 20033 53003=
202212152256 METAR KPWT 152256Z AUTO 05006KT 10SM CLR 06/03 A3046 RMK AO2 SLP323 T00560028=
202212152156 METAR KPWT 152156Z AUTO 04010G15KT 10SM CLR 06/03 A3046 RMK AO2 SLP323 T00560028=
202212152056 METAR KPWT 152056Z AUTO 05013KT 10SM CLR 06/03 A3047 RMK AO2 SLP325 T00560028 58012=
202212152028 SPECI KPWT 152028Z AUTO 05012KT 10SM SCT010 05/03 A3047 RMK AO2=
202212152019 SPECI KPWT 152019Z AUTO 05011KT 10SM BKN010 05/03 A3048 RMK AO2=
202212151956 METAR KPWT 151956Z AUTO 05010KT 10SM SCT010 05/03 A3049 RMK AO2 SLP332 T00500028=
202212151951 SPECI KPWT 151951Z AUTO 04010KT 10SM SCT010 05/03 A3049 RMK AO2=
202212151856 METAR KPWT 151856Z AUTO 05009KT 10SM OVC010 04/02 A3050 RMK AO2 SLP337 T00440022=
202212151756 METAR KPWT 151756Z AUTO 04009KT 10SM OVC010 03/02 A3051 RMK AO2 SLP337 T00330022 10039 20028 53004=
202212151706 SPECI KPWT 151706Z AUTO 04008KT 10SM OVC008 03/02 A3050 RMK AO2=
202212151656 METAR KPWT 151656Z AUTO 06005KT 10SM OVC010 03/02 A3049 RMK AO2 SLP334 T00280022=
202212151556 METAR KPWT 151556Z AUTO 04008KT 10SM OVC010 03/02 A3049 RMK AO2 SLP332 T00280017=
202212151456 METAR KPWT 151456Z AUTO 04008KT 10SM OVC010 03/02 A3049 RMK AO2 SLP332 T00330022 56001=
202212151356 METAR KPWT 151356Z AUTO 03007KT 10SM OVC014 03/02 A3049 RMK AO2 SLP332 T00330017=
202212151256 METAR KPWT 151256Z AUTO 04006G17KT 10SM OVC014 03/02 A3049 RMK AO2 SLP332 T00330022=
202212151156 METAR KPWT 151156Z AUTO 03003KT 10SM OVC012 04/02 A3050 RMK AO2 SLP335 T00390022 10039 20039 50000=
202212151129 SPECI KPWT 151129Z AUTO 04004KT 10SM OVC014 04/02 A3050 RMK AO2=
202212151056 METAR KPWT 151056Z AUTO 04006KT 10SM OVC016 04/02 A3051 RMK AO2 SLP339 T00390017=
202212150956 METAR KPWT 150956Z AUTO 04006KT 10SM OVC016 04/02 A3050 RMK AO2 SLP338 T00390017=
202212150856 METAR KPWT 150856Z AUTO 03009KT 10SM OVC016 04/02 A3050 RMK AO2 SLP335 T00390022 50002=
202212150844 SPECI KPWT 150844Z AUTO 04009KT 10SM OVC016 04/02 A3049 RMK AO2=
202212150812 SPECI KPWT 150812Z AUTO 03004KT 10SM OVC014 04/02 A3050 RMK AO2=
202212150756 METAR KPWT 150756Z AUTO 03005KT 10SM OVC016 04/02 A3050 RMK AO2 SLP337 T00390022 400500028=
202212150656 METAR KPWT 150656Z AUTO 04004KT 10SM OVC016 04/02 A3049 RMK AO2 SLP335 T00390017=
202212150556 METAR KPWT 150556Z AUTO 05004KT 10SM OVC018 04/02 A3049 RMK AO2 SLP333 T00390022 10050 20028 53009=
202212150456 METAR KPWT 150456Z AUTO VRB05KT 10SM OVC018 04/02 A3047 RMK AO2 SLP326 T00390022=
202212150356 METAR KPWT 150356Z AUTO 04007KT 10SM OVC018 04/02 A3047 RMK AO2 SLP325 T00390017=
202212150256 METAR KPWT 150256Z AUTO 03003KT 10SM OVC020 04/02 A3046 RMK AO2 SLP322 T00390022 53007=
202212150156 METAR KPWT 150156Z AUTO 04006KT 10SM BKN020 04/02 A3045 RMK AO2 SLP317 T00390017=
202212150056 METAR KPWT 150056Z AUTO 04007KT 10SM OVC022 04/02 A3045 RMK AO2 SLP319 T00440017=
202212142356 METAR KPWT 142356Z AUTO 04007KT 10SM OVC020 05/02 A3044 RMK AO2 SLP314 T00500022 10050 20044 53006=
202212142256 METAR KPWT 142256Z AUTO 02007KT 10SM BKN022 OVC027 05/02 A3043 RMK AO2 SLP310 T00500022=
202212142156 METAR KPWT 142156Z AUTO 04005KT 10SM OVC020 05/03 A3042 RMK AO2 SLP308 T00500028=
202212142139 SPECI KPWT 142139Z AUTO 05005KT 10SM SCT015 OVC022 05/03 A3042 RMK AO2=
202212142056 METAR KPWT 142056Z AUTO 05006KT 10SM OVC014 04/03 A3042 RMK AO2 SLP308 T00440028 50004=
202212142021 SPECI KPWT 142021Z AUTO 07006KT 10SM OVC014 05/03 A3042 RMK AO2=
202212141956 METAR KPWT 141956Z AUTO 03005KT 10SM BKN018 OVC024 04/03 A3042 RMK AO2 SLP308 T00440028=
202212141856 METAR KPWT 141856Z AUTO 04004KT 10SM BKN016 OVC024 04/03 A3042 RMK AO2 SLP308 T00440028=
202212141756 METAR KPWT 141756Z AUTO 05008KT 10SM SCT011 OVC025 05/03 A3041 RMK AO2 SLP304 60000 T00500033 10050 20028 51014=
202212141656 METAR KPWT 141656Z AUTO 03005KT 10SM OVC011 03/03 A3040 RMK AO2 SLP301 T00330033=
202212141556 METAR KPWT 141556Z AUTO 05004KT 9SM BKN011 OVC026 03/03 A3038 RMK AO2 RAE32 CIG 008V013 SLP296 P0000 T00330033=
202212141548 SPECI KPWT 141548Z AUTO 04003KT 9SM OVC011 03/03 A3038 RMK AO2 RAE32 CIG 006V013 P0000=
202212141456 METAR KPWT 141456Z AUTO 03006KT 10SM -RA BKN007 OVC013 03/03 A3037 RMK AO2 CIG 005V009 SLP290 P0000 60000 T00330033 53011=
202212141438 SPECI KPWT 141438Z AUTO 04008KT 10SM -RA BKN007 OVC011 03/03 A3037 RMK AO2 CIG 004V009 P0000=
202212141356 METAR KPWT 141356Z AUTO 00000KT 6SM -RA BR OVC005 03/03 A3036 RMK AO2 RAB27 CIG 004V008 SLP287 P0000 T00330033=
202212141341 SPECI KPWT 141341Z AUTO 00000KT 8SM -RA BKN007 OVC014 03/03 A3035 RMK AO2 RAB27 P0000=
202212141332 SPECI KPWT 141332Z AUTO 00000KT 10SM -RA FEW007 OVC016 03/03 RMK AO2 RAB27 P0000 $=
202212141256 METAR KPWT 141256Z AUTO 05003KT 10SM OVC018 03/03 A3034 RMK AO2 SLP280 T00330028=
202212141156 METAR KPWT 141156Z AUTO 00000KT 10SM OVC022 03/03 A3033 RMK AO2 SLP278 T00280028 10033 20028 51009=
202212141056 METAR KPWT 141056Z AUTO 00000KT 10SM OVC022 03/02 A3033 RMK AO2 SLP277 T00280022=
202212140956 METAR KPWT 140956Z AUTO 00000KT 10SM OVC022 03/03 A3031 RMK AO2 SLP271 T00280028=
202212140856 METAR KPWT 140856Z AUTO 00000KT 10SM OVC026 03/02 A3031 RMK AO2 SLP268 T00280022 51006=
202212140756 METAR KPWT 140756Z AUTO 00000KT 10SM OVC028 03/03 A3030 RMK AO2 SLP268 T00280028 400501033=
202212140656 METAR KPWT 140656Z AUTO 00000KT 10SM OVC028 03/03 A3030 RMK AO2 SLP266 T00280028=
202212140624 SPECI KPWT 140624Z AUTO 00000KT 10SM OVC028 03/03 A3029 RMK AO2=
202212140556 METAR KPWT 140556Z AUTO 00000KT 10SM OVC030 03/03 A3029 RMK AO2 SLP263 T00280028 10050 20028 51010=
202212140456 METAR KPWT 140456Z AUTO 00000KT 10SM OVC032 03/02 A3028 RMK AO2 SLP263 T00280022=
202212140356 METAR KPWT 140356Z AUTO 00000KT 10SM OVC032 03/02 A3027 RMK AO2 SLP257 T00280022=
202212140256 METAR KPWT 140256Z AUTO 00000KT 10SM OVC030 03/02 A3026 RMK AO2 SLP254 T00330022 50000=
202212140156 METAR KPWT 140156Z AUTO 00000KT 10SM OVC030 03/03 A3027 RMK AO2 SLP258 T00330028=
202212140056 METAR KPWT 140056Z AUTO 00000KT 10SM OVC032 04/03 A3027 RMK AO2 SLP258 T00390028=
202212132356 METAR KPWT 132356Z AUTO 00000KT 10SM OVC034 04/01 A3026 RMK AO2 SLP255 T00440006 10050 20022 53005=
202212132256 METAR KPWT 132256Z AUTO 00000KT 10SM OVC034 04/03 A3025 RMK AO2 SLP251 T00440028=
202212132156 METAR KPWT 132156Z AUTO 00000KT 10SM OVC030 04/03 A3025 RMK AO2 SLP250 T00440028=
202212132056 METAR KPWT 132056Z AUTO 00000KT 10SM OVC030 04/03 A3024 RMK AO2 SLP249 T00440033 58001=
202212131956 METAR KPWT 131956Z AUTO 00000KT 10SM OVC032 04/03 A3025 RMK AO2 SLP251 T00390028=
202212131856 METAR KPWT 131856Z AUTO 00000KT 10SM OVC030 03/03 A3025 RMK AO2 SLP253 T00330033=
202212131756 METAR KPWT 131756Z AUTO 00000KT 10SM OVC030 02/02 A3025 RMK AO2 SLP250 T00220022 10022 21033 53008 FZRANO=
202212131709 SPECI KPWT 131709Z AUTO 00000KT 10SM OVC030 01/01 A3024 RMK AO2 FZRANO=
202212131656 METAR KPWT 131656Z AUTO 00000KT 10SM OVC028 01/01 A3024 RMK AO2 SLP248 T00060006 FZRANO=
202212131556 METAR KPWT 131556Z AUTO 00000KT 10SM OVC028 00/00 A3022 RMK AO2 SLP244 T00000000 FZRANO=
202212131456 METAR KPWT 131456Z AUTO 00000KT 10SM OVC028 M01/M01 A3022 RMK AO2 SLP243 T10111011 53006 FZRANO=
202212131356 METAR KPWT 131356Z AUTO 00000KT 10SM OVC028 M03/M03 A3021 RMK AO2 SLP240 T10281028 FZRANO=
202212131349 SPECI KPWT 131349Z AUTO 00000KT 2SM BR BKN028 M03/M03 A3021 RMK AO2 VIS 1V5 FZRANO=
202212131341 SPECI KPWT 131341Z AUTO 00000KT 1 1/2SM BR BKN028 M03/M03 A3021 RMK AO2 FZRANO=
202212131328 SPECI KPWT 131328Z AUTO 00000KT 1 1/4SM BR FEW028 M03/M03 A3021 RMK AO2 VIS 1/2V5 FZRANO=
202212131323 SPECI KPWT 131323Z AUTO 00000KT 3/4SM BR FEW028 M03/M03 A3021 RMK AO2 FZRANO=
202212131318 SPECI KPWT 131318Z AUTO 00000KT 1 1/2SM BR FEW028 M03/M03 A3021 RMK AO2 FZRANO=
202212131256 METAR KPWT 131256Z AUTO 00000KT 10SM CLR M03/M03 A3020 RMK AO2 SLP237 T10331033 FZRANO=
202212131210 SPECI KPWT 131210Z AUTO 00000KT 3SM BR CLR M03/M03 A3020 RMK AO2 FZRANO=
202212131206 SPECI KPWT 131206Z AUTO 00000KT 1 1/2SM BR CLR M03/M03 A3020 RMK AO2 FZRANO=
202212131156 METAR KPWT 131156Z AUTO 00000KT 3/4SM BR CLR M03/M03 A3020 RMK AO2 SLP236 T10331033 10000 21033 53007 FZRANO=
202212131153 SPECI KPWT 131153Z AUTO 00000KT 1 1/2SM BR CLR M03/M03 A3020 RMK AO2 FZRANO=
202212131138 SPECI KPWT 131138Z AUTO 00000KT 3SM BR CLR M03/M03 A3020 RMK AO2 FZRANO=
202212131127 SPECI KPWT 131127Z AUTO 20003KT 1 3/4SM BR CLR M03/M03 A3019 RMK AO2 FZRANO=
202212131056 METAR KPWT 131056Z AUTO 00000KT 10SM CLR M03/M03 A3020 RMK AO2 SLP234 T10281028 FZRANO=
202212130956 METAR KPWT 130956Z AUTO 00000KT 10SM CLR M02/M02 A3018 RMK AO2 SLP228 T10171017 FZRANO=
202212130856 METAR KPWT 130856Z AUTO 00000KT 10SM OVC032 00/00 A3018 RMK AO2 SLP228 T00000000 50007 FZRANO=
202212130818 SPECI KPWT 130818Z AUTO 00000KT 10SM OVC030 00/00 A3019 RMK AO2 FZRANO=
202212130756 METAR KPWT 130756Z AUTO 00000KT 10SM OVC028 M01/M01 A3019 RMK AO2 SLP229 T10061006 400721017 FZRANO=
202212130704 SPECI KPWT 130704Z AUTO 00000KT 10SM BKN028 M01/M01 A3017 RMK AO2 FZRANO=
202212130656 METAR KPWT 130656Z AUTO 00000KT 10SM SCT028 M01/M01 A3017 RMK AO2 SLP224 T10111011 FZRANO=
202212130556 METAR KPWT 130556Z AUTO 00000KT 10SM BKN028 M01/M01 A3016 RMK AO2 SLP220 T10061006 10050 21017 51008 FZRANO=
202212130539 SPECI KPWT 130539Z AUTO 00000KT 10SM BKN028 BKN033 M01/M01 A3016 RMK AO2 FZRANO=
202212130456 METAR KPWT 130456Z AUTO 00000KT 10SM BKN031 M02/M02 A3016 RMK AO2 SLP220 T10171017 FZRANO=
202212130356 METAR KPWT 130356Z AUTO 00000KT 10SM CLR M02/M02 A3014 RMK AO2 SLP215 T10171017 FZRANO=
202212130256 METAR KPWT 130256Z AUTO 00000KT 10SM CLR 01/01 A3014 RMK AO2 SLP212 T00110006 51009 FZRANO=
202212130156 METAR KPWT 130156Z AUTO 06003KT 10SM FEW038 02/01 A3014 RMK AO2 SLP212 T00170011 FZRANO=
202212130056 METAR KPWT 130056Z AUTO 04004KT 10SM FEW036 03/01 A3013 RMK AO2 SLP209 T00280011=
202212122356 METAR KPWT 122356Z AUTO 04005KT 10SM BKN036 05/03 A3011 RMK AO2 SLP203 T00500028 10072 20050 53007=
202212122256 METAR KPWT 122256Z AUTO 04005KT 10SM OVC032 06/03 A3010 RMK AO2 SLP200 T00610028=
202212122156 METAR KPWT 122156Z AUTO 04007KT 10SM OVC036 06/03 A3009 RMK AO2 SLP197 T00610028=
202212122056 METAR KPWT 122056Z AUTO 04007KT 10SM FEW015 OVC036 07/04 A3009 RMK AO2 SLP196 T00670039 51005=
202212122009 SPECI KPWT 122009Z AUTO 05007KT 10SM SCT016 OVC036 06/03 A3009 RMK AO2=
202212121956 METAR KPWT 121956Z AUTO 05008KT 10SM BKN016 OVC036 06/03 A3009 RMK AO2 SLP196 T00560033=
202212121903 SPECI KPWT 121903Z AUTO 04009KT 10SM BKN018 OVC035 06/03 A3008 RMK AO2=
202212121856 METAR KPWT 121856Z AUTO 05009KT 10SM SCT018 OVC035 07/04 A3008 RMK AO2 SLP193 T00720039=
202212121756 METAR KPWT 121756Z AUTO 04008KT 10SM BKN041 07/03 A3007 RMK AO2 SLP191 T00670028 10067 20033 51017=
202212121656 METAR KPWT 121656Z AUTO 01007KT 10SM OVC039 05/03 A3006 RMK AO2 SLP186 T00500028=
202212121556 METAR KPWT 121556Z AUTO 00000KT 10SM OVC043 04/03 A3004 RMK AO2 SLP179 T00390028=
202212121456 METAR KPWT 121456Z AUTO 00000KT 10SM OVC043 04/03 A3002 RMK AO2 SLP173 T00440028 53016=
202212121356 METAR KPWT 121356Z AUTO 05006KT 10SM BKN045 03/03 A3000 RMK AO2 SLP166 T00330028=
202212121256 METAR KPWT 121256Z AUTO 05006KT 10SM SCT046 03/02 A2999 RMK AO2 SLP162 T00330022=
202212121156 METAR KPWT 121156Z AUTO 04008KT 10SM OVC044 04/03 A2998 RMK AO2 SLP157 60000 70004 T00440033 10056 20044 53016=
202212121056 METAR KPWT 121056Z AUTO 04009KT 10SM OVC042 05/03 A2996 RMK AO2 SLP151 T00500033=
202212120956 METAR KPWT 120956Z AUTO 04008KT 10SM OVC040 05/03 A2994 RMK AO2 RAE14 SLP144 P0000 T00500033=
202212120856 METAR KPWT 120856Z AUTO 35003KT 10SM -RA BKN038 05/04 A2993 RMK AO2 SLP141 P0000 60000 T00500044 51012=
202212120756 METAR KPWT 120756Z AUTO 00000KT 10SM -RA FEW026 BKN036 04/04 A2992 RMK AO2 SLP139 P0000 T00440044 400780044=
202212120737 SPECI KPWT 120737Z AUTO 00000KT 10SM -RA SCT013 OVC036 04/04 A2992 RMK AO2 P0000=
202212120726 SPECI KPWT 120726Z AUTO 00000KT 10SM -RA FEW002 BKN013 OVC038 05/05 A2992 RMK AO2 P0000=
202212120719 SPECI KPWT 120719Z AUTO 00000KT 2 1/2SM -RA BR FEW002 BKN013 OVC036 05/05 A2992 RMK AO2 P0000=
202212120715 SPECI KPWT 120715Z AUTO 23003KT 1SM -RA BR FEW002 BKN013 BKN036 05/05 A2992 RMK AO2 P0000=
202212120708 SPECI KPWT 120708Z AUTO 20004KT 3/4SM -RA BR FEW002 SCT013 OVC034 04/04 A2992 RMK AO2 P0000=
202212120704 SPECI KPWT 120704Z AUTO 21005KT 1 3/4SM -RA BR FEW002 SCT013 OVC034 04/04 A2992 RMK AO2 P0000=
202212120656 METAR KPWT 120656Z AUTO 00000KT 10SM -RA OVC036 05/05 A2992 RMK AO2 RAB36 SLP137 P0000 T00500050=
202212120556 METAR KPWT 120556Z AUTO 05005KT 10SM OVC041 06/05 A2989 RMK AO2 SLP129 T00560050 10067 20056 51017=
202212120456 METAR KPWT 120456Z AUTO 04006KT 10SM OVC037 06/05 A2988 RMK AO2 SLP125 T00610050=
202212120356 METAR KPWT 120356Z AUTO 04007KT 10SM OVC037 06/06 A2986 RMK AO2 SLP118 T00610056=
202212120256 METAR KPWT 120256Z AUTO 04009KT 10SM OVC041 06/06 A2984 RMK AO2 SLP112 T00610056 51015=
202212120224 SPECI KPWT 120224Z AUTO 03008KT 10SM OVC032 06/06 A2984 RMK AO2=
202212120156 METAR KPWT 120156Z AUTO 02007KT 10SM OVC028 06/06 A2984 RMK AO2 SLP111 T00610056=
202212120125 SPECI KPWT 120125Z AUTO 04011KT 10SM OVC028 06/06 A2983 RMK AO2=
202212120056 METAR KPWT 120056Z AUTO 04009KT 10SM OVC030 06/06 A2982 RMK AO2 SLP104 T00610056=
202212112356 METAR KPWT 112356Z AUTO 03007KT 10SM FEW012 SCT036 BKN047 07/05 A2980 RMK AO2 SLP097 T00670050 10078 20061 51018=
202212112309 SPECI KPWT 112309Z AUTO 05005KT 10SM SCT013 OVC040 07/06 A2979 RMK AO2=
202212112256 METAR KPWT 112256Z AUTO 04006KT 10SM BKN013 BKN042 OVC080 07/06 A2978 RMK AO2 SLP091 T00720061=
202212112244 SPECI KPWT 112244Z AUTO 02006KT 10SM BKN015 BKN042 BKN080 07/06 A2978 RMK AO2=
202212112219 SPECI KPWT 112219Z AUTO 02008KT 10SM BKN013 OVC080 07/06 A2977 RMK AO2=
202212112209 SPECI KPWT 112209Z AUTO 02008KT 10SM SCT013 SCT055 BKN080 07/07 A2977 RMK AO2=
202212112156 METAR KPWT 112156Z AUTO 03008KT 10SM BKN013 BKN019 BKN055 08/06 A2976 RMK AO2 SLP084 T00780061=
202212112056 METAR KPWT 112056Z AUTO 02007KT 10SM OVC013 07/07 A2974 RMK AO2 SLP078 T00720067 53002=
202212112051 SPECI KPWT 112051Z AUTO 02007KT 10SM BKN009 OVC016 07/07 A2974 RMK AO2 CIG 007V013=
202212112042 SPECI KPWT 112042Z AUTO 03008KT 10SM FEW007 OVC011 07/07 A2974 RMK AO2=
202212111956 METAR KPWT 111956Z AUTO 03005KT 10SM OVC009 07/07 A2974 RMK AO2 CIG 006V013 SLP076 T00720067=
202212111948 SPECI KPWT 111948Z AUTO 02005KT 10SM OVC009 07/07 A2974 RMK AO2 CIG 007V011=
202212111924 SPECI KPWT 111924Z AUTO 01006KT 10SM BKN011 OVC045 07/07 A2974 RMK AO2 CIG 007V013=
202212111910 SPECI KPWT 111910Z AUTO 04004KT 10SM FEW009 SCT020 OVC045 08/07 A2974 RMK AO2=
202212111856 METAR KPWT 111856Z AUTO 03004KT 10SM FEW011 SCT019 BKN026 07/07 A2974 RMK AO2 SLP076 T00720067=
202212111844 SPECI KPWT 111844Z AUTO 36003KT 10SM FEW011 SCT021 BKN026 07/07 A2974 RMK AO2=
202212111835 SPECI KPWT 111835Z AUTO 00000KT 10SM FEW011 SCT026 BKN040 07/07 A2974 RMK AO2=
202212111809 SPECI KPWT 111809Z AUTO 00000KT 10SM BKN026 OVC040 07/07 A2973 RMK AO2=
202212111756 METAR KPWT 111756Z AUTO 00000KT 10SM FEW012 BKN033 OVC043 06/06 A2974 RMK AO2 SLP075 60004 T00610061 10061 20044 51020=
202212111747 SPECI KPWT 111747Z AUTO 00000KT 10SM FEW002 BKN026 OVC033 06/06 A2973 RMK AO2=
202212111729 SPECI KPWT 111729Z AUTO 00000KT 10SM FEW002 BKN013 06/06 A2973 RMK AO2=
202212111718 SPECI KPWT 111718Z AUTO 00000KT 10SM BKN002 OVC013 06/06 A2972 RMK AO2=
202212111711 SPECI KPWT 111711Z AUTO 00000KT 2SM BR BKN002 OVC013 06/06 A2972 RMK AO2 VIS 3/4V5=
202212111707 SPECI KPWT 111707Z AUTO 00000KT 1SM BR BKN002 OVC013 06/06 A2972 RMK AO2 VIS 1/2V4=
202212111656 METAR KPWT 111656Z AUTO 00000KT 1/2SM FG OVC002 06/06 A2972 RMK AO2 SLP070 T00560056=
202212111644 SPECI KPWT 111644Z AUTO 00000KT 3/4SM BR BKN002 OVC013 06/06 A2972 RMK AO2=
202212111638 SPECI KPWT 111638Z AUTO 00000KT 1 3/4SM BR BKN002 OVC013 06/06 A2971 RMK AO2=
202212111636 SPECI KPWT 111636Z AUTO 00000KT 3SM BR BKN002 BKN013 OVC024 06/06 A2971 RMK AO2=
202212111626 SPECI KPWT 111626Z AUTO 00000KT 10SM SCT002 BKN011 OVC024 06/06 A2971 RMK AO2=
202212111556 METAR KPWT 111556Z AUTO 00000KT 10SM OVC011 06/06 A2970 RMK AO2 RAE1459 SLP062 P0001 T00560056=
202212111518 SPECI KPWT 111518Z AUTO 00000KT 10SM FEW001 OVC013 06/06 A2968 RMK AO2 RAE1459 P0001=
202212111510 SPECI KPWT 111510Z AUTO 00000KT 10SM OVC013 06/06 A2968 RMK AO2 RAE1459 P0000=
202212111456 METAR KPWT 111456Z AUTO 00000KT 10SM -RA OVC015 06/06 A2968 RMK AO2 SLP056 P0002 60003 T00560056 53016=
202212111439 SPECI KPWT 111439Z AUTO 00000KT 4SM -RA BR BKN015 OVC025 06/06 A2967 RMK AO2 P0002=
202212111413 SPECI KPWT 111413Z AUTO 00000KT 2 1/2SM -RA BR FEW012 OVC029 05/05 A2966 RMK AO2 P0000=
202212111356 METAR KPWT 111356Z AUTO 02003KT 6SM -RA BR OVC031 05/05 A2965 RMK AO2 RAE12B34 SLP048 P0000 T00500050=
202212111303 SPECI KPWT 111303Z AUTO 00000KT 4SM -RA BR OVC031 04/04 A2964 RMK AO2 P0000=
202212111256 METAR KPWT 111256Z AUTO 00000KT 4SM -RA BR OVC029 04/04 A2964 RMK AO2 RAB38 SLP043 P0001 T00440044=
202212111216 SPECI KPWT 111216Z AUTO 00000KT 3SM BR BKN022 04/04 A2963 RMK AO2=
202212111213 SPECI KPWT 111213Z AUTO 00000KT 1 3/4SM BR BKN022 04/04 A2963 RMK AO2 VIS 3/4V5=
202212111209 SPECI KPWT 111209Z AUTO 00000KT 1SM BR SCT025 04/04 A2963 RMK AO2=
202212111156 METAR KPWT 111156Z AUTO 00000KT 1/2SM FG FEW017 04/04 A2963 RMK AO2 RAE1059 SLP039 P0000 60001 70045 T00440044 10067 20044 51010=
202212111145 SPECI KPWT 111145Z AUTO 00000KT 1/2SM FG FEW017 SCT048 04/04 A2963 RMK AO2 RAE1059 P0000=
202212111136 SPECI KPWT 111136Z AUTO 00000KT 3/4SM BR SCT017 BKN048 05/05 A2962 RMK AO2 RAE1059 P0000=
202212111127 SPECI KPWT 111127Z AUTO 00000KT 1 1/4SM BR FEW017 BKN048 05/05 A2962 RMK AO2 RAE1059 P0000=
202212111105 SPECI KPWT 111105Z AUTO 00000KT 3/4SM BR FEW001 BKN050 06/06 A2962 RMK AO2 RAE1059 P0000=
202212111101 SPECI KPWT 111101Z AUTO 02003KT 1SM BR BKN050 06/06 A2962 RMK AO2 RAE1059 P0000=
202212111056 METAR KPWT 111056Z AUTO 00000KT 2 1/2SM -RA BR FEW036 BKN050 06/06 A2962 RMK AO2 RAB21 SLP035 P0000 T00560056=
202212111054 SPECI KPWT 111054Z AUTO 00000KT 4SM -RA BR FEW001 BKN050 06/06 A2962 RMK AO2 RAB21 P0000=
202212111013 SPECI KPWT 111013Z AUTO 00000KT 10SM FEW015 SCT023 OVC031 06/06 A2961 RMK AO2=
202212110956 METAR KPWT 110956Z AUTO 00000KT 8SM BKN022 OVC029 06/06 A2960 RMK AO2 SLP029 T00610061=
202212110951 SPECI KPWT 110951Z AUTO 14003KT 7SM FEW001 BKN022 OVC027 06/06 A2960 RMK AO2=
202212110926 SPECI KPWT 110926Z AUTO 00000KT 3SM BR BKN025 OVC031 06/06 A2959 RMK AO2=
202212110916 SPECI KPWT 110916Z AUTO 00000KT 1 1/4SM BR SCT003 SCT021 OVC029 06/06 A2959 RMK AO2=
202212110901 SPECI KPWT 110901Z AUTO 00000KT 1 1/4SM BR BKN003 OVC020 06/06 A2959 RMK AO2=
202212110856 METAR KPWT 110856Z AUTO 00000KT 3/4SM BR OVC003 06/06 A2959 RMK AO2 RAE04 SLP025 P0000 60001 T00610061 51010=
202212110846 SPECI KPWT 110846Z AUTO 00000KT 3/4SM BR BKN003 06/06 A2959 RMK AO2 RAE04 P0000=
202212110842 SPECI KPWT 110842Z AUTO 36003KT 1 1/4SM BR BKN003 06/06 A2958 RMK AO2 RAE04 P0000=
202212110833 SPECI KPWT 110833Z AUTO 00000KT 2 1/2SM BR BKN003 BKN018 06/06 A2958 RMK AO2 RAE04 P0000=
202212110756 METAR KPWT 110756Z AUTO 00000KT 10SM -RA SCT006 OVC018 06/06 A2957 RMK AO2 RAB37 SLP019 P0000 T00610061 400780028=
202212110736 SPECI KPWT 110736Z AUTO 00000KT 10SM OVC006 06/06 A2957 RMK AO2 CIG 004V008=
202212110656 METAR KPWT 110656Z AUTO 00000KT 10SM OVC004 07/07 A2956 RMK AO2 RAE09 SLP014 P0001 T00670067=
202212110556 METAR KPWT 110556Z AUTO 20005KT 10SM -RA BKN004 07/07 A2953 RMK AO2 SLP005 P0000 60006 T00670067 10072 20061 51015=
202212110551 SPECI KPWT 110551Z AUTO 20004KT 10SM -RA BKN004 07/07 A2953 RMK AO2 P0000=
202212110525 SPECI KPWT 110525Z AUTO 19004KT 10SM -RA OVC008 07/07 A2951 RMK AO2 CIG 004V011 P0000=
202212110456 METAR KPWT 110456Z AUTO 18004KT 10SM -RA OVC012 07/07 A2951 RMK AO2 RAB37 SLP999 P0000 T00670067=
202212110440 SPECI KPWT 110440Z AUTO 18004KT 6SM -RA BR OVC014 07/07 A2951 RMK AO2 RAB37 P0000=
202212110356 METAR KPWT 110356Z AUTO 18005KT 10SM BKN018 OVC026 07/07 A2949 RMK AO2 SLP990 T00720067=
202212110256 METAR KPWT 110256Z AUTO 00000KT 10SM SCT018 OVC024 07/07 A2946 RMK AO2 RAE37 SLP982 P0000 60006 T00670067 51020=
202212110156 METAR KPWT 110156Z AUTO 00000KT 8SM -RA FEW006 OVC015 07/07 A2945 RMK AO2 SLP977 P0003 T00670067=
202212110146 SPECI KPWT 110146Z AUTO 00000KT 6SM -RA BR FEW006 OVC015 07/07 A2945 RMK AO2 P0003=
202212110056 METAR KPWT 110056Z AUTO 00000KT 7SM -RA OVC021 07/07 A2943 RMK AO2 SLP972 P0003 T00670067=
202212102356 METAR KPWT 102356Z AUTO 15003KT 6SM -RA BR OVC020 07/07 A2940 RMK AO2 SLP963 P0002 60011 T00720072 10078 20072 53015=
202212102256 METAR KPWT 102256Z AUTO 18003KT 6SM -RA BR OVC020 07/07 A2938 RMK AO2 SLP956 P0004 T00720072=
202212102156 METAR KPWT 102156Z AUTO 19003KT 10SM -RA OVC020 07/07 A2936 RMK AO2 SLP950 P0003 T00720072=
202212102056 METAR KPWT 102056Z AUTO 00000KT 10SM -RA OVC024 07/07 A2936 RMK AO2 SLP948 P0001 60002 T00720067 51005=
202212101956 METAR KPWT 101956Z AUTO 19005KT 10SM -RA OVC022 07/06 A2935 RMK AO2 RAB30 SLP946 P0001 T00720061=
202212101856 METAR KPWT 101856Z AUTO 18008KT 10SM BKN024 OVC038 08/06 A2935 RMK AO2 SLP944 T00780061=
202212101756 METAR KPWT 101756Z AUTO 19006KT 10SM OVC024 07/06 A2934 RMK AO2 RAE11 SLP942 P0001 60027 T00720061 10072 20039 53012=
202212101656 METAR KPWT 101656Z AUTO 18005KT 9SM -RA OVC022 06/06 A2932 RMK AO2 SLP936 P0000 T00610061=
202212101556 METAR KPWT 101556Z AUTO 00000KT 10SM -RA OVC026 06/06 A2931 RMK AO2 SLP932 P0006 T00610061=
202212101456 METAR KPWT 101456Z AUTO 00000KT 7SM RA SCT015 SCT019 OVC024 06/06 A2931 RMK AO2 SLP931 P0010 60020 T00610061 55000=
202212101356 METAR KPWT 101356Z AUTO 00000KT 7SM RA OVC021 06/06 A2930 RMK AO2 SLP928 P0004 T00610061=
202212101344 SPECI KPWT 101344Z AUTO 00000KT 9SM -RA BKN021 06/06 A2929 RMK AO2 P0002=
202212101256 METAR KPWT 101256Z AUTO 00000KT 9SM -RA FEW021 05/05 A2930 RMK AO2 SLP928 P0006 T00500050=
202212101228 SPECI KPWT 101228Z AUTO 00000KT 9SM -RA BKN024 04/04 A2930 RMK AO2 P0002=
202212101156 METAR KPWT 101156Z AUTO 00000KT 10SM -RA CLR 04/04 A2931 RMK AO2 SLP929 P0004 60042 70146 T00390039 10039 20028 56010=
202212101146 SPECI KPWT 101146Z AUTO 00000KT 10SM RA SCT023 04/04 A2931 RMK AO2 P0004=
202212101121 SPECI KPWT 101121Z AUTO 00000KT 9SM -RA BKN023 03/03 A2931 RMK AO2 P0001=
202212101056 METAR KPWT 101056Z AUTO 04003KT 10SM -RA CLR 03/03 A2932 RMK AO2 SLP932 P0001 T00330033=
202212100956 METAR KPWT 100956Z AUTO 00000KT 10SM -RA CLR 03/03 A2932 RMK AO2 SLP934 P0007 T00280028=
202212100915 SPECI KPWT 100915Z AUTO 00000KT 6SM -RA BR FEW004 SCT008 SCT015 03/03 A2933 RMK AO2 P0002=
202212100856 METAR KPWT 100856Z AUTO 00000KT 5SM RA BR BKN004 03/03 A2934 RMK AO2 SLP941 P0005 60030 T00280028 58010=
202212100843 SPECI KPWT 100843Z AUTO 00000KT 7SM -RA BKN004 03/03 A2934 RMK AO2 P0003=
202212100756 METAR KPWT 100756Z AUTO 00000KT 6SM RA BR SCT004 03/03 A2936 RMK AO2 SLP946 P0015 T00280028 400440017=
202212100754 SPECI KPWT 100754Z AUTO 00000KT 6SM RA BR SCT004 03/03 A2936 RMK AO2 P0015 400440017=
202212100745 SPECI KPWT 100745Z AUTO 00000KT 7SM RA BKN004 03/03 A2936 RMK AO2 P0012=
202212100735 SPECI KPWT 100735Z AUTO 00000KT 7SM RA BKN002 03/03 A2936 RMK AO2 P0010=
202212100708 SPECI KPWT 100708Z AUTO 34003KT 9SM RA SCT002 03/03 A2937 RMK AO2 P0004=
202212100656 METAR KPWT 100656Z AUTO 00000KT 8SM RA BKN002 03/03 A2937 RMK AO2 SLP951 P0010 T00280028=
202212100644 SPECI KPWT 100644Z AUTO 28003KT 7SM RA BKN002 03/03 A2937 RMK AO2 P0008=
202212100635 SPECI KPWT 100635Z AUTO 00000KT 6SM RA BR SCT002 03/03 A2938 RMK AO2 P0006=
202212100556 METAR KPWT 100556Z AUTO 03004KT 6SM -RA BR CLR 03/03 A2939 RMK AO2 SLP957 P0012 60072 T00330033 10039 20028 58030=
202212100456 METAR KPWT 100456Z AUTO 05004KT 10SM RA FEW017 03/03 A2942 RMK AO2 SLP970 P0014 T00330033=
202212100449 SPECI KPWT 100449Z AUTO 05003KT 8SM RA SCT017 03/03 A2943 RMK AO2 P0012=
202212100430 SPECI KPWT 100430Z AUTO 04004KT 8SM RA BKN017 03/03 A2943 RMK AO2 P0007=
202212100356 METAR KPWT 100356Z AUTO 01004KT 8SM RA FEW020 03/03 A2945 RMK AO2 SLP979 P0009 T00330033=
202212100348 SPECI KPWT 100348Z AUTO 00000KT 8SM RA SCT020 03/03 A2945 RMK AO2 P0008=
202212100331 SPECI KPWT 100331Z AUTO 02004KT 10SM RA BKN020 03/03 A2946 RMK AO2 P0005=
202212100256 METAR KPWT 100256Z AUTO 02004KT 10SM RA CLR 03/03 A2948 RMK AO2 SLP988 P0009 60037 T00280028 56047=
202212100244 SPECI KPWT 100244Z AUTO 36004KT 10SM -RA SCT022 03/03 A2949 RMK AO2 P0008=
202212100212 SPECI KPWT 100212Z AUTO 03004KT 10SM RA BKN022 03/03 A2951 RMK AO2 P0002=
202212100156 METAR KPWT 100156Z AUTO 03006KT 10SM RA CLR 03/03 A2952 RMK AO2 SLP001 P0014 T00280028=
202212100122 SPECI KPWT 100122Z AUTO 06005KT 10SM RA SCT013 03/03 A2955 RMK AO2 PRESFR P0008=
202212100056 METAR KPWT 100056Z AUTO 12005KT 6SM RA BR OVC013 04/03 A2958 RMK AO2 SLP022 P0014 T00390028=
202212092356 METAR KPWT 092356Z AUTO 00000KT 6SM RA BR OVC017 04/04 A2962 RMK AO2 SLP036 P0008 60023 T00390039 10044 20033 58046=
202212092329 SPECI KPWT 092329Z AUTO 00000KT 7SM -RA BKN019 04/04 A2964 RMK AO2 P0003=
202212092256 METAR KPWT 092256Z AUTO 00000KT 7SM RA CLR 04/04 A2967 RMK AO2 SLP052 P0006 T00390039=
202212092241 SPECI KPWT 092241Z AUTO 00000KT 8SM -RA SCT020 04/04 A2967 RMK AO2 P0004=
202212092156 METAR KPWT 092156Z AUTO 00000KT 9SM -RA OVC018 04/03 A2971 RMK AO2 SLP068 P0006 T00440033=
202212092122 SPECI KPWT 092122Z AUTO VRB04KT 7SM -RA BKN020 04/04 RMK AO2 P0003 $=
202212092113 SPECI KPWT 092113Z AUTO 00000KT 9SM -RA SCT022 04/03 A2974 RMK AO2 P0001=
202212092056 METAR KPWT 092056Z AUTO 00000KT 10SM -RA BKN022 BKN029 04/04 A2976 RMK AO2 SLP083 P0002 60003 T00390039 58043=
202212092020 SPECI KPWT 092020Z AUTO 15004KT 10SM -RA BKN022 04/03 A2978 RMK AO2 P0001=
202212092009 SPECI KPWT 092009Z AUTO VRB03KT 10SM -RA FEW017 SCT024 BKN031 04/03 A2979 RMK AO2 P0000=
202212091956 METAR KPWT 091956Z AUTO 00000KT 10SM -RA FEW010 BKN020 BKN025 04/03 A2981 RMK AO2 RAB07 SLP100 P0001 T00440033=
202212091930 SPECI KPWT 091930Z AUTO 20003KT 10SM -RA SCT008 BKN024 BKN029 04/03 A2983 RMK AO2 RAB07 P0000=
202212091916 SPECI KPWT 091916Z AUTO 20003KT 10SM -RA FEW008 SCT037 SCT050 04/03 A2984 RMK AO2 RAB07 P0000=
202212091856 METAR KPWT 091856Z AUTO 20004KT 10SM FEW041 BKN055 04/03 A2986 RMK AO2 RAB28E54 SLP117 P0000 T00390033=
202212091756 METAR KPWT 091756Z AUTO 19005KT 10SM FEW011 BKN043 OVC050 03/03 A2989 RMK AO2 SLP127 60009 T00330028 10033 20022 58008=
202212091709 SPECI KPWT 091709Z AUTO 19006KT 10SM SCT008 OVC041 03/03 A2990 RMK AO2=
202212091656 METAR KPWT 091656Z AUTO 20007KT 10SM FEW005 BKN009 OVC039 03/03 A2990 RMK AO2 RAE21 CIG 005V011 SLP132 P0000 T00280028=
202212091603 SPECI KPWT 091603Z AUTO 19007KT 10SM -RA OVC005 03/03 A2990 RMK AO2 CIG 003V007 P0000=
202212091556 METAR KPWT 091556Z AUTO 19007KT 10SM -RA OVC003 03/03 A2990 RMK AO2 RAE30B55 SLP133 P0003 T00280028=
202212091456 METAR KPWT 091456Z AUTO 20007KT 9SM RA OVC003 03/03 A2991 RMK AO2 RAB1357 SLP135 P0006 60006 T00280028 56003=
202212091356 METAR KPWT 091356Z AUTO 19007KT 10SM OVC003 03/02 A2991 RMK AO2 RAE1258B17E39UPB15E17 SLP134 P0000 T00280022=
202212091327 SPECI KPWT 091327Z AUTO 19005KT 10SM -RA OVC003 02/02 A2991 RMK AO2 RAE1258B17UPB15E17 P0000 FZRANO=
202212091256 METAR KPWT 091256Z AUTO 20012G15KT 10SM -RA OVC005 02/02 A2991 RMK AO2 RAB23 SLP136 P0000 T00220022 FZRANO=
202212091236 SPECI KPWT 091236Z AUTO 19011G16KT 10SM -RA OVC003 03/03 A2992 RMK AO2 RAB23 P0000=
202212091156 METAR KPWT 091156Z AUTO 20008KT 10SM OVC005 03/03 A2992 RMK AO2 RAB01E35 CIG 003V008 SLP136 P0001 60002 70010 T00280028 10033 20017 57007=
202212091142 SPECI KPWT 091142Z AUTO 19007KT 10SM OVC005 03/03 A2992 RMK AO2 RAB01E35 CIG 003V008 P0001=
202212091056 METAR KPWT 091056Z AUTO 20006KT 10SM OVC003 02/02 A2992 RMK AO2 RAE34 SLP139 P0001 T00220022 FZRANO=
202212091043 SPECI KPWT 091043Z AUTO 22006KT 10SM BKN003 OVC018 02/02 A2993 RMK AO2 RAE34 P0001 FZRANO=
202212091032 SPECI KPWT 091032Z AUTO 20006KT 10SM -RA BKN005 OVC018 02/02 A2993 RMK AO2 P0001 FZRANO=
202212091015 SPECI KPWT 091015Z AUTO 20006KT 10SM -RA SCT005 OVC017 02/02 A2993 RMK AO2 P0001 FZRANO=
202212090956 METAR KPWT 090956Z AUTO 19009KT 10SM -RA BKN005 OVC011 02/02 A2993 RMK AO2 UPB39E41RAB41 CIG 004V009 SLP141 P0000 T00220017 FZRANO=
202212090924 SPECI KPWT 090924Z AUTO 20008KT 10SM BKN005 02/02 A2993 RMK AO2 FZRANO=
202212090856 METAR KPWT 090856Z AUTO 19007KT 10SM FEW007 SCT055 02/02 A2994 RMK AO2 SLP143 T00220022 50000 FZRANO=
202212090847 SPECI KPWT 090847Z AUTO 19008KT 10SM SCT007 BKN055 02/02 A2994 RMK AO2 FZRANO=
202212090815 SPECI KPWT 090815Z AUTO 20011KT 10SM BKN007 BKN010 03/03 A2995 RMK AO2 CIG 005V008=
202212090756 METAR KPWT 090756Z AUTO 20009KT 10SM SCT007 02/02 A2994 RMK AO2 SLP144 T00220022 400560022 FZRANO=
202212090720 SPECI KPWT 090720Z AUTO 21006KT 10SM FEW006 02/02 A2994 RMK AO2 FZRANO=
202212090710 SPECI KPWT 090710Z AUTO 20007KT 10SM SCT006 BKN010 BKN080 02/02 A2993 RMK AO2 FZRANO=
202212090656 METAR KPWT 090656Z AUTO 20005KT 10SM BKN006 BKN010 02/02 A2994 RMK AO2 CIG 003V007 SLP143 T00220022 FZRANO=
202212090556 METAR KPWT 090556Z AUTO 21005KT 10SM OVC006 03/03 A2994 RMK AO2 CIG 005V009 SLP143 T00330028 10050 20028 53005=
202212090515 SPECI KPWT 090515Z AUTO 22007KT 10SM OVC008 03/03 A2993 RMK AO2 CIG 006V011=
202212090456 METAR KPWT 090456Z AUTO 19006KT 10SM BKN010 03/03 A2993 RMK AO2 CIG 008V012 SLP140 T00280028=
202212090451 SPECI KPWT 090451Z AUTO 19006KT 10SM BKN010 BKN120 03/03 A2993 RMK AO2 CIG 008V012=
202212090356 METAR KPWT 090356Z AUTO 20005KT 10SM SCT009 03/03 A2992 RMK AO2 SLP138 T00330033=
202212090327 SPECI KPWT 090327Z AUTO 20003KT 10SM BKN007 04/04 A2992 RMK AO2 CIG 005V010=
202212090318 SPECI KPWT 090318Z AUTO 20004KT 10SM BKN005 04/03 A2992 RMK AO2 CIG 005V009=
202212090256 METAR KPWT 090256Z AUTO 20004KT 10SM OVC007 04/04 A2991 RMK AO2 SLP135 T00390039 53000=
202212090156 METAR KPWT 090156Z AUTO 21007KT 10SM OVC009 04/04 A2991 RMK AO2 CIG 007V012 SLP137 T00440039=
202212090136 SPECI KPWT 090136Z AUTO 21005KT 10SM OVC009 04/04 A2992 RMK AO2=
202212090056 METAR KPWT 090056Z AUTO 21007KT 10SM OVC011 04/04 A2991 RMK AO2 SLP137 T00440039=
202212082356 METAR KPWT 082356Z AUTO 20008KT 10SM BKN011 OVC017 05/04 A2991 RMK AO2 SLP136 60000 T00500044 10056 20044 53001=
202212082333 SPECI KPWT 082333Z AUTO 21008KT 10SM OVC011 06/04 A2991 RMK AO2=
202212082308 SPECI KPWT 082308Z AUTO 19006KT 10SM BKN009 OVC017 06/05 A2991 RMK AO2 CIG 007V014=
202212082256 METAR KPWT 082256Z AUTO 20006KT 10SM SCT009 OVC017 06/05 A2991 RMK AO2 SLP135 T00560050=
202212082237 SPECI KPWT 082237Z AUTO 19007KT 10SM SCT009 OVC017 06/05 A2991 RMK AO2=
202212082226 SPECI KPWT 082226Z AUTO 19006KT 10SM BKN011 OVC021 06/05 A2991 RMK AO2=
202212082156 METAR KPWT 082156Z AUTO 19005KT 10SM BKN007 OVC013 05/05 A2991 RMK AO2 RAB17E35 CIG 005V010 SLP135 P0000 T00500050=
202212082154 SPECI KPWT 082154Z AUTO 19004KT 10SM BKN007 OVC013 05/05 A2991 RMK AO2 RAB17E35 CIG 005V010 P0000=
202212082144 SPECI KPWT 082144Z AUTO 21005KT 10SM SCT007 OVC013 05/05 A2991 RMK AO2 RAB17E35 P0000=
202212082126 SPECI KPWT 082126Z AUTO 20006KT 10SM -RA BKN009 OVC013 05/05 A2992 RMK AO2 RAB17 CIG 005V011 P0000=
202212082118 SPECI KPWT 082118Z AUTO 21007KT 10SM -RA OVC011 05/04 A2992 RMK AO2 RAB17 CIG 006V012 P0000=
202212082100 SPECI KPWT 082100Z AUTO 19006KT 10SM BKN007 OVC014 05/05 A2992 RMK AO2 CIG 006V011=
202212082056 METAR KPWT 082056Z AUTO 19005KT 10SM OVC010 06/05 A2992 RMK AO2 CIG 006V014 SLP139 T00560050 58014=
202212082036 SPECI KPWT 082036Z AUTO 19005KT 10SM SCT009 OVC014 06/05 A2993 RMK AO2=
202212082024 SPECI KPWT 082024Z AUTO 20006KT 10SM BKN013 BKN017 OVC028 06/05 A2994 RMK AO2=
202212082002 SPECI KPWT 082002Z AUTO 18006KT 10SM SCT005 SCT012 BKN029 06/05 A2994 RMK AO2=
202212081956 METAR KPWT 081956Z AUTO 19007KT 10SM BKN005 BKN012 OVC029 06/05 A2994 RMK AO2 CIG 004V009 SLP147 T00560050=
202212081856 METAR KPWT 081856Z AUTO 20006KT 10SM OVC005 05/05 A2996 RMK AO2 CIG 004V010 SLP152 T00500050=
202212081825 SPECI KPWT 081825Z AUTO 20006KT 10SM BKN005 05/05 A2996 RMK AO2 CIG 003V008=
202212081756 METAR KPWT 081756Z AUTO 20007KT 10SM BKN003 BKN042 04/04 A2996 RMK AO2 SLP154 60008 T00440044 10044 20039 53007=
202212081746 SPECI KPWT 081746Z AUTO 20007KT 10SM BKN003 OVC042 04/04 A2996 RMK AO2=
202212081706 SPECI KPWT 081706Z AUTO 21006KT 10SM BKN005 OVC060 04/04 A2995 RMK AO2=
202212081656 METAR KPWT 081656Z AUTO 21005KT 10SM SCT005 OVC060 04/04 A2995 RMK AO2 SLP149 T00390039=
202212081606 SPECI KPWT 081606Z AUTO 20008KT 10SM SCT006 SCT043 04/04 A2994 RMK AO2=
202212081556 METAR KPWT 081556Z AUTO 19008KT 10SM BKN006 BKN043 04/04 A2995 RMK AO2 CIG 004V007 SLP148 T00390039=
202212081541 SPECI KPWT 081541Z AUTO 20007KT 10SM OVC006 04/04 A2994 RMK AO2=
202212081509 SPECI KPWT 081509Z AUTO 21006KT 10SM OVC004 04/04 A2994 RMK AO2 CIG 003V007=
202212081456 METAR KPWT 081456Z AUTO 24005KT 10SM OVC006 04/04 A2994 RMK AO2 SLP145 60008 T00390039 53008=
202212081356 METAR KPWT 081356Z AUTO 23005KT 10SM BKN006 04/04 A2993 RMK AO2 RAE50 CIG 005V009 SLP139 P0004 T00390039=
202212081330 SPECI KPWT 081330Z AUTO 20009G16KT 10SM -RA FEW008 BKN032 04/03 A2991 RMK AO2 P0003=
202212081322 SPECI KPWT 081322Z AUTO 19010G18KT 10SM -RA SCT008 OVC029 04/03 A2991 RMK AO2 P0003=
202212081256 METAR KPWT 081256Z AUTO 21013G19KT 10SM -RA OVC008 04/04 A2992 RMK AO2 CIG 005V013 SLP138 P0004 T00440044=
202212081225 SPECI KPWT 081225Z AUTO 21016G25KT 10SM -RA OVC008 05/04 A2991 RMK AO2 CIG 006V011 P0002=
202212081203 SPECI KPWT 081203Z AUTO 21015G19KT 10SM -RA BKN010 OVC014 05/04 A2991 RMK AO2 CIG 007V012 P0000=
202212081152 METAR KPWT 081152Z AUTO 20011G19KT 10SM -RA BKN009 OVC015 05/05 A2991 RMK AO2 CIG 007V012 SLP135 P0005 60030 70030 T00500050 10050 20033 58001=
202212081151 SPECI KPWT 081151Z AUTO 20013G19KT 10SM -RA BKN009 OVC015 05/05 A2991 RMK AO2 CIG 007V012 P0005=
202212081145 SPECI KPWT 081145Z AUTO 20013G19KT 10SM -RA SCT009 OVC015 05/05 A2991 RMK AO2 P0004=
202212081131 SPECI KPWT 081131Z AUTO 20015G21KT 10SM -RA SCT007 BKN012 OVC018 05/05 A2991 RMK AO2 P0003=
202212081114 SPECI KPWT 081114Z AUTO 20008KT 10SM -RA BKN006 OVC016 05/05 A2991 RMK AO2 CIG 005V009 P0001=
202212081056 METAR KPWT 081056Z AUTO 21009KT 10SM -RA OVC016 05/05 A2991 RMK AO2 SLP136 P0007 T00500050=
202212081045 SPECI KPWT 081045Z AUTO 21009KT 10SM -RA OVC016 05/05 A2991 RMK AO2 P0005=
202212081034 SPECI KPWT 081034Z AUTO 20007KT 10SM -RA FEW007 BKN014 OVC019 05/04 A2991 RMK AO2 P0004=
202212080956 METAR KPWT 080956Z AUTO 19008KT 10SM RA BKN011 OVC017 05/05 A2991 RMK AO2 SLP136 P0007 T00500050=
202212080954 SPECI KPWT 080954Z AUTO 19009KT 10SM RA BKN011 OVC018 05/05 A2991 RMK AO2 P0007=
202212080856 METAR KPWT 080856Z AUTO 20009KT 10SM -RA OVC017 05/04 A2993 RMK AO2 SLP142 P0005 60011 T00500044 58022=
202212080756 METAR KPWT 080756Z AUTO 25004KT 10SM -RA OVC021 04/04 A2996 RMK AO2 SLP150 P0003 T00390039 400560033=
202212080656 METAR KPWT 080656Z AUTO 22003KT 10SM -RA BKN025 OVC032 04/04 A2998 RMK AO2 SLP161 P0003 T00390039=
202212080639 SPECI KPWT 080639Z AUTO 21004KT 10SM -RA BKN028 OVC034 04/03 A2999 RMK AO2 P0002=
202212080556 METAR KPWT 080556Z AUTO 20005KT 10SM -RA OVC034 04/03 A3000 RMK AO2 RAB45 SLP165 P0000 60000 T00440033 10044 20033 58013=
202212080516 SPECI KPWT 080516Z AUTO 22006KT 10SM FEW027 OVC055 04/03 A3001 RMK AO2=
202212080503 SPECI KPWT 080503Z AUTO 21007KT 10SM BKN029 OVC055 04/03 A3002 RMK AO2=
202212080456 METAR KPWT 080456Z AUTO 21008KT 10SM SCT029 BKN039 OVC060 04/03 A3002 RMK AO2 RAB06E53 SLP173 P0000 T00440033=
202212080356 METAR KPWT 080356Z AUTO 22008KT 10SM SCT012 BKN048 OVC060 04/04 A3003 RMK AO2 SLP174 T00440039=
202212080320 SPECI KPWT 080320Z AUTO 20008KT 10SM BKN014 OVC050 04/03 A3003 RMK AO2=
202212080303 SPECI KPWT 080303Z AUTO 21005KT 10SM BKN016 OVC050 04/03 A3004 RMK AO2=
202212080256 METAR KPWT 080256Z AUTO 21005KT 10SM SCT016 OVC050 04/04 A3004 RMK AO2 SLP177 60000 T00390039 56006=
202212080156 METAR KPWT 080156Z AUTO 00000KT 10SM BKN045 OVC050 03/03 A3004 RMK AO2 RAE11 SLP178 P0000 T00330033=
202212080056 METAR KPWT 080056Z AUTO 20003KT 10SM -RA OVC036 04/03 A3005 RMK AO2 RAB47 SLP181 P0000 T00390033=
202212072356 METAR KPWT 072356Z AUTO 10SM BKN037 OVC047 05/04 A3005 RMK AO2 RAE2257 SLP185 60000 T00500039 10056 20044 56011=
202212072256 METAR KPWT 072256Z AUTO 19006KT 10SM -RA BKN040 05/04 A3006 RMK AO2 RAB19 SLP188 P0000 T00500039=
202212072156 METAR KPWT 072156Z AUTO 19006KT 10SM BKN040 06/04 A3007 RMK AO2 SLP190 T00560039=
202212072056 METAR KPWT 072056Z AUTO 21005KT 10SM CLR 06/04 A3009 RMK AO2 RAE10 SLP195 P0000 60000 T00560044 58015=
202212071956 METAR KPWT 071956Z AUTO 20007KT 10SM -RA BKN038 BKN045 06/04 A3011 RMK AO2 RAB46 SLP203 P0000 T00560039=
202212071856 METAR KPWT 071856Z AUTO 20003KT 10SM FEW007 OVC040 05/04 A3013 RMK AO2 SLP210 T00500044=
202212071851 SPECI KPWT 071851Z AUTO 19004KT 10SM FEW007 OVC040 05/04 A3013 RMK AO2=
202212071756 METAR KPWT 071756Z AUTO 17004KT 10SM OVC036 04/04 A3013 RMK AO2 RAE39 SLP210 P0000 60000 T00440044 10044 20033 51001=
202212071656 METAR KPWT 071656Z AUTO 17003KT 10SM -RA SCT030 BKN040 04/04 A3013 RMK AO2 RAB45 SLP210 P0000 T00390039=
202212071613 SPECI KPWT 071613Z AUTO 00000KT 10SM FEW004 SCT007 OVC032 03/03 A3013 RMK AO2=
202212071556 METAR KPWT 071556Z AUTO 19004KT 3SM BR BKN005 BKN010 OVC032 03/03 A3013 RMK AO2 CIG 003V007 SLP211 T00330033=
202212071553 SPECI KPWT 071553Z AUTO 20003KT 2SM BR OVC005 03/03 A3013 RMK AO2 CIG 003V011=
202212071545 SPECI KPWT 071545Z AUTO 00000KT 1 3/4SM BR BKN003 OVC008 03/03 A3013 RMK AO2 VIS 1 1/4V3 CIG 003V007=
202212071456 METAR KPWT 071456Z AUTO 20004KT 5SM BR OVC003 03/03 A3013 RMK AO2 RAE29 SLP209 P0000 60000 T00330033 56005=
202212071356 METAR KPWT 071356Z AUTO 20006KT 10SM -RA BKN003 OVC028 04/04 A3013 RMK AO2 RAB44 SLP210 P0000 T00390039=
202212071306 SPECI KPWT 071306Z AUTO 19005KT 10SM BKN003 OVC018 04/04 A3014 RMK AO2=
202212071256 METAR KPWT 071256Z AUTO 19007KT 10SM SCT003 OVC018 04/04 A3014 RMK AO2 RAE01 SLP211 P0000 T00390039=
202212071156 METAR KPWT 071156Z AUTO 19006KT 10SM -RA SCT003 OVC016 04/04 A3014 RMK AO2 RAB47 SLP213 P0000 60000 T00390039 10039 20033 58003=
202212071106 SPECI KPWT 071106Z AUTO 20008KT 7SM BKN003 OVC012 04/04 A3015 RMK AO2=
202212071056 METAR KPWT 071056Z AUTO 19007KT 7SM SCT003 OVC012 04/04 A3015 RMK AO2 SLP216 T00390039=
202212071053 SPECI KPWT 071053Z AUTO 19006KT 8SM SCT003 OVC012 04/04 A3015 RMK AO2=
202212070956 METAR KPWT 070956Z AUTO 19006KT 8SM OVC003 04/04 A3015 RMK AO2 RAE54 CIG 002V009 SLP217 P0000 T00390039=
202212070856 METAR KPWT 070856Z AUTO 19005KT 5SM -RA BR OVC003 04/04 A3016 RMK AO2 RAB40 SLP219 P0000 60000 T00390039 58002=
202212070850 SPECI KPWT 070850Z AUTO 20006KT 3SM -RA BR OVC003 03/03 A3016 RMK AO2 RAB40 P0000=
202212070833 SPECI KPWT 070833Z AUTO 22005KT 1 1/4SM BR OVC003 03/03 A3016 RMK AO2=
202212070829 SPECI KPWT 070829Z AUTO 22005KT 3/4SM BR OVC003 03/03 A3016 RMK AO2=
202212070821 SPECI KPWT 070821Z AUTO 22003KT 1/4SM FG OVC003 03/03 A3016 RMK AO2=
202212070806 SPECI KPWT 070806Z AUTO 21004KT 1/2SM FG OVC003 03/03 A3017 RMK AO2=
202212070756 METAR KPWT 070756Z AUTO 21004KT 1/4SM FG OVC003 03/03 A3017 RMK AO2 SLP222 T00330033 400390006=
202212070722 SPECI KPWT 070722Z AUTO 00000KT 1/2SM FG OVC003 03/03 A3017 RMK AO2=
202212070714 SPECI KPWT 070714Z AUTO 00000KT 3/4SM BR OVC003 03/03 A3017 RMK AO2=
202212070702 SPECI KPWT 070702Z AUTO 23003KT 1SM BR OVC003 03/03 A3017 RMK AO2=
202212070656 METAR KPWT 070656Z AUTO 23003KT 2 1/2SM BR OVC003 04/04 A3017 RMK AO2 SLP223 T00390039=
202212070602 SPECI KPWT 070602Z AUTO 22005KT 3SM BR OVC003 04/04 A3016 RMK AO2=
202212070556 METAR KPWT 070556Z AUTO 24005KT 1 1/2SM BR OVC003 03/03 A3016 RMK AO2 VIS 1V4 SLP220 T00330033 10039 20028 51006=
202212070551 SPECI KPWT 070551Z AUTO 26004KT 1SM BR OVC003 03/03 A3016 RMK AO2=
202212070528 SPECI KPWT 070528Z AUTO 00000KT 1/2SM FG OVC003 03/03 A3016 RMK AO2=
202212070521 SPECI KPWT 070521Z AUTO 00000KT 3/4SM BR OVC003 03/03 A3015 RMK AO2=
202212070512 SPECI KPWT 070512Z AUTO 00000KT 1SM BR OVC003 03/03 A3016 RMK AO2=
202212070456 METAR KPWT 070456Z AUTO 00000KT 1 1/2SM BR OVC003 03/03 A3015 RMK AO2 SLP218 T00330033=
202212070441 SPECI KPWT 070441Z AUTO 00000KT 1 3/4SM BR OVC003 03/03 A3015 RMK AO2 VIS 1V4=
202212070429 SPECI KPWT 070429Z AUTO 00000KT 3SM BR OVC003 03/03 A3015 RMK AO2=
202212070420 SPECI KPWT 070420Z AUTO 24004KT 2SM BR OVC003 03/03 A3015 RMK AO2 VIS 1V5=
202212070416 SPECI KPWT 070416Z AUTO 00000KT 1SM BR OVC003 03/03 A3015 RMK AO2 VIS 1/2V3=
202212070411 SPECI KPWT 070411Z AUTO 00000KT 1/2SM FG OVC003 03/03 A3015 RMK AO2=
202212070400 SPECI KPWT 070400Z AUTO 00000KT 3/4SM BR OVC003 03/03 A3015 RMK AO2=
202212070356 METAR KPWT 070356Z AUTO 21003KT 1 1/4SM BR OVC003 03/03 A3015 RMK AO2 SLP217 T00280028=
202212070353 SPECI KPWT 070353Z AUTO 21003KT 1 3/4SM BR OVC003 03/03 A3015 RMK AO2=
202212070342 SPECI KPWT 070342Z AUTO 00000KT 5SM BR OVC003 03/03 A3015 RMK AO2=
202212070317 SPECI KPWT 070317Z AUTO 22003KT 8SM BKN005 OVC011 03/03 A3014 RMK AO2 CIG 003V009=
202212070256 METAR KPWT 070256Z AUTO 20005KT 10SM OVC009 04/04 A3014 RMK AO2 CIG 005V014 SLP215 T00390039 51005=
202212070156 METAR KPWT 070156Z AUTO 22003KT 10SM BKN009 OVC014 03/03 A3014 RMK AO2 CIG 007V011 SLP213 T00330033=
202212070136 SPECI KPWT 070136Z AUTO 21003KT 10SM FEW006 OVC012 04/04 A3014 RMK AO2=
202212070056 METAR KPWT 070056Z AUTO 18003KT 9SM BKN008 OVC015 03/03 A3013 RMK AO2 CIG 006V010 SLP211 T00330033=
202212070038 SPECI KPWT 070038Z AUTO 00000KT 5SM BR BKN008 BKN012 OVC019 03/03 A3013 RMK AO2=
202212070031 SPECI KPWT 070031Z AUTO 00000KT 2SM BR BKN008 BKN012 OVC018 03/03 A3013 RMK AO2 VIS 1/2V5 CIG 006V009=
202212070028 SPECI KPWT 070028Z AUTO 00000KT 1SM BR BKN008 OVC014 03/03 A3013 RMK AO2 VIS 1/4V5 CIG 006V010=
202212070025 SPECI KPWT 070025Z AUTO 00000KT 1/2SM FG BKN008 OVC012 03/03 A3013 RMK AO2 CIG 006V010=
202212070017 SPECI KPWT 070017Z AUTO 00000KT 3/4SM BR BKN008 OVC011 03/03 A3013 RMK AO2 VIS 1/4V4=
202212070013 SPECI KPWT 070013Z AUTO 00000KT 1 3/4SM BR BKN008 OVC011 03/03 A3013 RMK AO2 VIS 3/4V5 CIG 006V009=
202212062356 METAR KPWT 062356Z AUTO 00000KT 10SM OVC008 04/04 A3013 RMK AO2 CIG 007V012 SLP208 T00390039 10039 20022 53002=
202212062335 SPECI KPWT 062335Z AUTO 00000KT 10SM OVC008 04/04 A3013 RMK AO2 CIG 007V012=
202212062303 SPECI KPWT 062303Z AUTO 15004KT 10SM SCT007 OVC012 04/04 A3012 RMK AO2=
202212062256 METAR KPWT 062256Z AUTO 14004KT 10SM BKN007 OVC012 04/04 A3012 RMK AO2 CIG 004V009 SLP207 T00390039=
202212062254 SPECI KPWT 062254Z AUTO 14003KT 10SM BKN007 OVC012 04/04 A3012 RMK AO2 CIG 004V009=
202212062213 SPECI KPWT 062213Z AUTO 21004KT 10SM OVC010 04/04 A3012 RMK AO2 CIG 005V012=
202212062156 METAR KPWT 062156Z AUTO 20006KT 10SM OVC008 04/04 A3012 RMK AO2 CIG 005V011 SLP206 T00390039=
202212062119 SPECI KPWT 062119Z AUTO 22007KT 10SM OVC006 03/03 A3012 RMK AO2=
202212062056 METAR KPWT 062056Z AUTO 22006KT 10SM OVC004 03/03 A3013 RMK AO2 CIG 003V007 SLP209 T00330033 58006=
202212062030 SPECI KPWT 062030Z AUTO 23004KT 9SM OVC004 03/03 A3013 RMK AO2=
202212061956 METAR KPWT 061956Z AUTO 22005KT 4SM BR OVC002 03/03 A3013 RMK AO2 SLP212 T00280028=
202212061940 SPECI KPWT 061940Z AUTO 24003KT 2SM BR OVC002 03/03 A3014 RMK AO2=
202212061937 SPECI KPWT 061937Z AUTO 23003KT 1SM BR OVC002 03/03 A3014 RMK AO2 VIS 1/2V2 1/2=
202212061929 SPECI KPWT 061929Z AUTO 22004KT 1/2SM FG OVC002 03/03 A3014 RMK AO2=
202212061856 METAR KPWT 061856Z AUTO 22005KT 1/4SM FG OVC002 02/02 A3014 RMK AO2 SLP216 T00220022 FZRANO=
202212061842 SPECI KPWT 061842Z AUTO 21006KT 1/2SM FG OVC002 02/02 A3014 RMK AO2 FZRANO=
202212061756 METAR KPWT 061756Z AUTO 22005KT 1/4SM FG OVC002 02/02 A3014 RMK AO2 SLP215 T00220022 10022 20006 52014 FZRANO=
202212061710 SPECI KPWT 061710Z AUTO 00000KT 1/4SM FG OVC002 02/02 A3014 RMK AO2 FZRANO=
202212061656 METAR KPWT 061656Z AUTO 00000KT 1/2SM FG OVC002 02/02 A3013 RMK AO2 SLP211 T00170017 FZRANO=
202212061649 SPECI KPWT 061649Z AUTO 35003KT 3/4SM BR OVC002 02/02 A3013 RMK AO2 VIS 1/2V3 FZRANO=
202212061641 SPECI KPWT 061641Z AUTO 00000KT 1 3/4SM BR OVC002 02/02 A3013 RMK AO2 FZRANO=
202212061630 SPECI KPWT 061630Z AUTO 00000KT 6SM BR OVC002 02/02 A3012 RMK AO2 FZRANO=
202212061556 METAR KPWT 061556Z AUTO 23003KT 3SM BR OVC004 01/01 A3011 RMK AO2 SLP204 T00060006 FZRANO=
202212061549 SPECI KPWT 061549Z AUTO 00000KT 1 1/4SM BR BKN004 01/01 A3011 RMK AO2 FZRANO=
202212061535 SPECI KPWT 061535Z AUTO 00000KT 3/4SM BR BKN004 01/01 A3010 RMK AO2 CIG 001V008 FZRANO=
202212061529 SPECI KPWT 061529Z AUTO 00000KT 1/2SM FG SCT001 BKN006 01/01 A3010 RMK AO2 FZRANO=
202212061516 SPECI KPWT 061516Z AUTO 21003KT 1/2SM FG OVC001 01/01 A3010 RMK AO2 FZRANO=
202212061512 SPECI KPWT 061512Z AUTO 00000KT 1SM BR OVC001 01/01 A3010 RMK AO2 FZRANO=
202212061503 SPECI KPWT 061503Z AUTO 00000KT 2SM BR OVC001 01/01 A3010 RMK AO2 FZRANO=
202212061456 METAR KPWT 061456Z AUTO 00000KT 1SM BR OVC001 01/01 A3010 RMK AO2 SLP200 T00060006 51002 FZRANO=
202212061453 SPECI KPWT 061453Z AUTO 00000KT 3/4SM BR OVC001 01/01 A3010 RMK AO2 FZRANO=
202212061416 SPECI KPWT 061416Z AUTO 21003KT 1/2SM FG BKN001 01/01 A3009 RMK AO2 FZRANO=
202212061356 METAR KPWT 061356Z AUTO 00000KT 1/4SM FG OVC003 01/01 A3010 RMK AO2 SLP199 T00110011 FZRANO=
202212061349 SPECI KPWT 061349Z AUTO 00000KT 1/4SM FG OVC003 01/01 RMK AO2 FZRANO $=
202212061313 SPECI KPWT 061313Z AUTO 00000KT 1/2SM FG OVC003 01/01 A3009 RMK AO2 FZRANO=
202212061256 METAR KPWT 061256Z AUTO 26003KT 1SM BR OVC003 01/01 A3009 RMK AO2 SLP199 T00110011 FZRANO=
202212061246 SPECI KPWT 061246Z AUTO 25004KT 1/2SM FG OVC003 02/01 A3009 RMK AO2 FZRANO=
202212061237 SPECI KPWT 061237Z AUTO 26004KT 3/4SM BR OVC003 01/01 A3009 RMK AO2 FZRANO=
202212061232 SPECI KPWT 061232Z AUTO 26004KT 1 3/4SM BR OVC003 01/01 A3009 RMK AO2 VIS 3/4V5 FZRANO=
202212061156 METAR KPWT 061156Z AUTO 30004KT 3SM BR OVC003 01/01 A3009 RMK AO2 SLP198 60000 T00110011 10017 20006 51003 FZRANO=
202212061154 SPECI KPWT 061154Z AUTO 31003KT 2 1/2SM BR OVC003 01/01 A3009 RMK AO2 FZRANO=
202212061150 SPECI KPWT 061150Z AUTO 30004KT 1SM BR OVC003 01/01 A3009 RMK AO2 FZRANO=
202212061123 SPECI KPWT 061123Z AUTO 28004KT 1/2SM FG OVC003 01/01 A3009 RMK AO2 FZRANO=
202212061113 SPECI KPWT 061113Z AUTO 27003KT 3/4SM BR OVC003 01/01 A3009 RMK AO2 FZRANO=
202212061109 SPECI KPWT 061109Z AUTO 00000KT 1 1/2SM BR OVC003 01/01 A3009 RMK AO2 FZRANO=
202212061106 SPECI KPWT 061106Z AUTO 23003KT 3SM BR OVC003 01/01 A3009 RMK AO2 FZRANO=
202212061056 METAR KPWT 061056Z AUTO 21004KT 7SM OVC005 01/01 A3009 RMK AO2 RAE22 SLP198 P0000 T00110011 FZRANO=
202212061039 SPECI KPWT 061039Z AUTO 21004KT 6SM BR BKN005 BKN046 01/01 A3009 RMK AO2 RAE22 P0000 FZRANO=
202212061031 SPECI KPWT 061031Z AUTO 21004KT 2SM BR SCT005 BKN046 01/01 A3009 RMK AO2 RAE22 P0000 FZRANO=
202212061026 SPECI KPWT 061026Z AUTO 21003KT 1SM BR SCT003 SCT046 01/01 A3009 RMK AO2 RAE22 P0000 FZRANO=
202212061022 SPECI KPWT 061022Z AUTO 21003KT 3/4SM BR VV003 01/01 A3009 RMK AO2 RAE22 P0000 FZRANO=
202212061010 SPECI KPWT 061010Z AUTO 00000KT 1SM -RA BR VV002 01/01 A3009 RMK AO2 P0000 FZRANO=
202212060956 METAR KPWT 060956Z AUTO 00000KT 1 1/4SM -RA BR BKN002 BKN029 01/01 A3009 RMK AO2 RAB38 SLP197 P0000 T00110011 FZRANO=
202212060947 SPECI KPWT 060947Z AUTO 00000KT 1SM -RA BR BKN002 OVC029 01/01 A3009 RMK AO2 RAB38 P0000 FZRANO=
202212060939 SPECI KPWT 060939Z AUTO 00000KT 2 1/2SM -RA BR BKN002 OVC029 01/01 A3009 RMK AO2 RAB38 P0000 FZRANO=
202212060905 SPECI KPWT 060905Z AUTO 00000KT 7SM FEW002 OVC027 01/01 A3008 RMK AO2 FZRANO=
202212060856 METAR KPWT 060856Z AUTO 00000KT 9SM OVC027 01/01 A3008 RMK AO2 UPE04 SLP194 P0000 60000 T00110011 51006 FZRANO=
202212060756 METAR KPWT 060756Z AUTO 00000KT 10SM UP OVC027 02/02 A3008 RMK AO2 RAB25E46 SLP193 P0000 T00170017 400441006 FZRANO=
202212060656 METAR KPWT 060656Z AUTO 04003KT 8SM UP OVC023 02/02 A3007 RMK AO2 RAE08UPB08 SLP192 P0000 T00170017 FZRANO=
202212060556 METAR KPWT 060556Z AUTO 04004KT 8SM -RA BKN017 OVC023 01/01 A3007 RMK AO2 UPB17E49RAB49 SLP189 P0000 60000 T00110011 10022 20011 53010 FZRANO=
202212060456 METAR KPWT 060456Z AUTO 05005KT 10SM BKN021 OVC028 02/01 A3005 RMK AO2 SLP184 T00170011 FZRANO=
202212060356 METAR KPWT 060356Z AUTO 04005KT 10SM BKN021 OVC025 02/02 A3004 RMK AO2 UPB39E54 SLP180 P0000 T00170017 FZRANO=
202212060317 SPECI KPWT 060317Z AUTO 04004KT 10SM BKN016 OVC024 02/02 A3004 RMK AO2 FZRANO=
202212060256 METAR KPWT 060256Z AUTO 00000KT 10SM OVC014 02/02 A3004 RMK AO2 SLP179 T00170017 53005 FZRANO=
202212060156 METAR KPWT 060156Z AUTO 00000KT 10SM OVC014 01/01 A3003 RMK AO2 SLP176 T00110011 FZRANO=
202212060056 METAR KPWT 060056Z AUTO 00000KT 8SM OVC014 02/01 A3002 RMK AO2 SLP174 T00170011 FZRANO=
202212052356 METAR KPWT 052356Z AUTO 00000KT 10SM OVC012 02/02 A3002 RMK AO2 SLP173 T00220017 10044 20022 53003 FZRANO=
202212052305 SPECI KPWT 052305Z AUTO 05004KT 9SM SCT007 OVC012 03/02 A3002 RMK AO2=
202212052256 METAR KPWT 052256Z AUTO 00000KT 6SM BR BKN007 OVC012 03/03 A3001 RMK AO2 CIG 005V009 SLP171 T00330028=
202212052234 SPECI KPWT 052234Z AUTO 00000KT 5SM BR BKN009 OVC013 03/02 A3001 RMK AO2 CIG 008V011=
202212052215 SPECI KPWT 052215Z AUTO 00000KT 8SM BKN013 04/02 A3001 RMK AO2=
202212052156 METAR KPWT 052156Z AUTO 00000KT 7SM BKN015 04/03 A3001 RMK AO2 SLP169 T00390033=
202212052131 SPECI KPWT 052131Z AUTO 00000KT 3SM BR BKN015 OVC031 04/03 A3001 RMK AO2=
202212052118 SPECI KPWT 052118Z AUTO 00000KT 2SM BR FEW017 BKN031 04/03 A3001 RMK AO2=
202212052108 SPECI KPWT 052108Z AUTO 00000KT 1SM BR FEW017 BKN031 04/03 A3001 RMK AO2 VIS 1/2V2 1/2=
202212052100 SPECI KPWT 052100Z AUTO 00000KT 1 3/4SM BR SCT017 BKN029 04/04 A3001 RMK AO2=
202212052056 METAR KPWT 052056Z AUTO 00000KT 3SM BR FEW003 SCT017 BKN029 04/03 A3001 RMK AO2 SLP171 T00390033 58006=
202212052003 SPECI KPWT 052003Z AUTO 00000KT 8SM FEW005 OVC019 04/03 A3002 RMK AO2=
202212051956 METAR KPWT 051956Z AUTO 00000KT 8SM OVC019 04/04 A3002 RMK AO2 SLP173 T00390039=
202212051856 METAR KPWT 051856Z AUTO 00000KT 7SM FEW004 BKN025 OVC030 02/02 A3003 RMK AO2 SLP177 T00220022 FZRANO=
202212051849 SPECI KPWT 051849Z AUTO 00000KT 5SM BR FEW004 BKN025 OVC030 02/02 A3003 RMK AO2 FZRANO=
202212051842 SPECI KPWT 051842Z AUTO 00000KT 4SM BR SCT025 OVC030 02/02 A3003 RMK AO2 FZRANO=
202212051756 METAR KPWT 051756Z AUTO 00000KT 7SM OVC025 02/02 A3003 RMK AO2 SLP177 T00220022 10022 20000 53004 FZRANO=
202212051656 METAR KPWT 051656Z AUTO 33003KT 10SM BKN025 OVC035 02/02 A3002 RMK AO2 SLP173 T00170017 FZRANO=
202212051654 SPECI KPWT 051654Z AUTO 00000KT 10SM BKN025 OVC035 02/02 A3002 RMK AO2 FZRANO=
202212051609 SPECI KPWT 051609Z AUTO 00000KT 10SM FEW024 OVC035 01/01 A3001 RMK AO2 FZRANO=
202212051556 METAR KPWT 051556Z AUTO 00000KT 10SM BKN024 OVC035 01/01 A3002 RMK AO2 SLP173 T00110011 FZRANO=
202212051456 METAR KPWT 051456Z AUTO 03003KT 6SM BR FEW003 OVC024 01/01 A3002 RMK AO2 SLP172 T00110011 53002 FZRANO=
202212051438 SPECI KPWT 051438Z AUTO 01003KT 3SM BR FEW003 OVC024 01/01 A3002 RMK AO2 FZRANO=
202212051435 SPECI KPWT 051435Z AUTO 36003KT 2 1/2SM BR OVC024 01/01 A3002 RMK AO2 FZRANO=
202212051411 SPECI KPWT 051411Z AUTO 00000KT 1 1/4SM BR SCT002 OVC024 01/01 A3001 RMK AO2 FZRANO=
202212051404 SPECI KPWT 051404Z AUTO 00000KT 1 3/4SM BR BKN002 BKN024 01/01 A3001 RMK AO2 FZRANO=
202212051356 METAR KPWT 051356Z AUTO 00000KT 3SM BR BKN002 BKN026 01/01 A3001 RMK AO2 SLP172 T00060006 FZRANO=
202212051349 SPECI KPWT 051349Z AUTO 35003KT 3SM BR SCT002 BKN026 01/01 A3001 RMK AO2 FZRANO=
202212051340 SPECI KPWT 051340Z AUTO 00000KT 2SM BR FEW002 SCT026 01/01 A3001 RMK AO2 FZRANO=
202212051306 SPECI KPWT 051306Z AUTO 00000KT 2 1/2SM BR OVC026 01/01 A3001 RMK AO2 FZRANO=
202212051256 METAR KPWT 051256Z AUTO 00000KT 4SM BR OVC026 01/01 A3000 RMK AO2 SLP168 T00110011 FZRANO=
202212051209 SPECI KPWT 051209Z AUTO 02003KT 4SM BR FEW005 BKN026 01/01 A3001 RMK AO2 FZRANO=
202212051156 METAR KPWT 051156Z AUTO 01003KT 6SM BR SCT005 00/00 A3001 RMK AO2 SLP171 70022 T00000000 10006 21006 57002 FZRANO=
202212051121 SPECI KPWT 051121Z AUTO 00000KT 7SM SCT005 BKN031 00/00 A3002 RMK AO2 FZRANO=
202212051056 METAR KPWT 051056Z AUTO 00000KT 5SM BR FEW020 BKN031 00/00 A3002 RMK AO2 SLP173 T00000000 FZRANO=
202212051044 SPECI KPWT 051044Z AUTO 14003KT 6SM BR FEW020 BKN031 00/00 A3002 RMK AO2 FZRANO=
202212051036 SPECI KPWT 051036Z AUTO 00000KT 2SM BR FEW031 00/00 A3002 RMK AO2 VIS 3/4V5 FZRANO=
202212051032 SPECI KPWT 051032Z AUTO 00000KT 1SM BR CLR 00/00 A3002 RMK AO2 FZRANO=
202212051023 SPECI KPWT 051023Z AUTO 00000KT 1/2SM FG CLR 00/00 A3002 RMK AO2 FZRANO=
202212051005 SPECI KPWT 051005Z AUTO 00000KT 1/2SM FG VV004 00/00 A3001 RMK AO2 FZRANO=
202212050959 SPECI KPWT 050959Z AUTO 00000KT 1SM BR VV003 00/00 A3001 RMK AO2 FZRANO=
202212050956 METAR KPWT 050956Z AUTO 00000KT 1 1/2SM BR BKN003 00/00 A3001 RMK AO2 CIG 001V005 SLP172 T00000000 FZRANO=
202212050948 SPECI KPWT 050948Z AUTO 00000KT 5SM BR BKN003 BKN033 00/00 A3002 RMK AO2 CIG 001V005 FZRANO=
202212050935 SPECI KPWT 050935Z AUTO 00000KT 7SM SCT001 OVC033 00/00 A3002 RMK AO2 FZRANO=
202212050905 SPECI KPWT 050905Z AUTO 00000KT 7SM SCT020 BKN033 00/00 A3002 RMK AO2 FZRANO=
202212050856 METAR KPWT 050856Z AUTO 00000KT 7SM BKN020 00/00 A3002 RMK AO2 SLP174 T00000000 50005 FZRANO=
202212050756 METAR KPWT 050756Z AUTO 00000KT 7SM OVC036 00/00 A3002 RMK AO2 SLP174 T00000000 400220000 FZRANO=
202212050656 METAR KPWT 050656Z AUTO 00000KT 6SM BR OVC036 00/00 A3001 RMK AO2 SLP170 T00000000 FZRANO=
202212050623 SPECI KPWT 050623Z AUTO 00000KT 7SM FEW025 OVC036 01/01 A3001 RMK AO2 FZRANO=
202212050556 METAR KPWT 050556Z AUTO 00000KT 8SM OVC023 01/01 A3000 RMK AO2 SLP168 60000 T00060006 10006 20000 51007 FZRANO=
202212050543 SPECI KPWT 050543Z AUTO 00000KT 7SM BKN023 OVC037 01/01 A3000 RMK AO2 FZRANO=
202212050456 METAR KPWT 050456Z AUTO 00000KT 5SM BR SCT025 OVC039 01/01 A3000 RMK AO2 RAE17UPB02E06 SLP166 P0000 T00060006 FZRANO=
202212050440 SPECI KPWT 050440Z AUTO 00000KT 7SM FEW005 BKN025 01/01 A3000 RMK AO2 RAE17UPB02E06 P0000 FZRANO=
202212050410 SPECI KPWT 050410Z AUTO 00000KT 9SM -RA BKN005 OVC021 01/01 A3000 RMK AO2 UPB02E06 P0000 FZRANO=
202212050356 METAR KPWT 050356Z AUTO 08003KT 10SM -RA FEW005 BKN021 01/01 A3000 RMK AO2 RAB14 SLP166 P0000 T00060006 FZRANO=
202212050342 SPECI KPWT 050342Z AUTO 00000KT 9SM -RA SCT005 OVC021 01/01 A2999 RMK AO2 RAB14 P0000 FZRANO=
202212050313 SPECI KPWT 050313Z AUTO 28003KT 10SM BKN005 BKN025 01/01 A2999 RMK AO2 FZRANO=
202212050256 METAR KPWT 050256Z AUTO 00000KT 9SM FEW005 BKN025 01/01 A2998 RMK AO2 SLP161 60000 T00060006 51001 FZRANO=
202212050251 SPECI KPWT 050251Z AUTO 00000KT 10SM SCT007 BKN025 01/01 A2998 RMK AO2 FZRANO=
202212050229 SPECI KPWT 050229Z AUTO 00000KT 10SM OVC007 01/01 A2998 RMK AO2 FZRANO=
202212050213 SPECI KPWT 050213Z AUTO 00000KT 10SM OVC005 01/01 A2999 RMK AO2 CIG 003V007 FZRANO=
202212050156 METAR KPWT 050156Z AUTO 00000KT 10SM OVC003 01/01 A2999 RMK AO2 SLP162 T00060006 FZRANO=
202212050121 SPECI KPWT 050121Z AUTO 00000KT 7SM BKN003 00/00 A2998 RMK AO2 FZRANO=
202212050056 METAR KPWT 050056Z AUTO 00000KT 8SM FEW003 01/00 A2998 RMK AO2 RAE22 SLP160 P0000 T00060000 FZRANO=
202212042356 METAR KPWT 042356Z AUTO 27003KT 8SM -RA CLR 01/00 A2997 RMK AO2 UPE01RAB01 SLP156 P0001 60022 T00060000 10022 20006 55002 FZRANO=
202212042256 METAR KPWT 042256Z AUTO 00000KT 7SM UP CLR 01/01 A2997 RMK AO2 UPB35SNE35B44E56 SLP156 P0002 T00060006 FZRANO=
202212042230 SPECI KPWT 042230Z AUTO VRB03KT 4SM -SN BR CLR 01/01 A2997 RMK AO2 P0002 FZRANO=
202212042208 SPECI KPWT 042208Z AUTO 00000KT 2SM -SN BR CLR 01/01 A2996 RMK AO2 VIS 1 1/2V3 P0001 FZRANO=
202212042156 METAR KPWT 042156Z AUTO 00000KT 1 3/4SM -SN BR FEW005 01/00 A2996 RMK AO2 VIS 1 1/4V3 SLP154 P0008 T00060000 FZRANO=
202212042142 SPECI KPWT 042142Z AUTO 00000KT 1 1/4SM -SN BR SCT005 SCT009 01/00 A2996 RMK AO2 P0007 FZRANO=
202212042137 SPECI KPWT 042137Z AUTO 01003KT 1SM -SN BR SCT005 BKN011 01/00 A2997 RMK AO2 P0006 FZRANO=
202212042128 SPECI KPWT 042128Z AUTO 03004KT 3/4SM -SN BR FEW005 SCT009 01/01 A2997 RMK AO2 P0005 FZRANO=
202212042056 METAR KPWT 042056Z AUTO 00000KT 1 3/4SM -SN BR CLR 01/01 A2997 RMK AO2 UPB08E54SNE08B54 SLP158 P0005 60011 T00060006 51003 FZRANO=
202212042020 SPECI KPWT 042020Z AUTO 00000KT 6SM UP BR CLR 01/01 A2997 RMK AO2 UPB08SNE08 P0002 FZRANO=
202212042013 SPECI KPWT 042013Z AUTO 00000KT 2 1/2SM UP BR CLR 01/01 A2997 RMK AO2 VIS 3/4V5 UPB08SNE08 P0001 FZRANO=
202212042003 SPECI KPWT 042003Z AUTO 00000KT 1 3/4SM -SN BR CLR 01/01 A2997 RMK AO2 VIS 1/4V5 P0000 FZRANO=
202212041956 METAR KPWT 041956Z AUTO 00000KT 4SM -SN BR FEW012 01/01 A2997 RMK AO2 RAE20UPB20E50SNB50 SLP158 P0006 T00060006 FZRANO=
202212041934 SPECI KPWT 041934Z AUTO 00000KT 5SM UP BR CLR 01/01 A2997 RMK AO2 RAE20UPB20 P0003 FZRANO=
202212041924 SPECI KPWT 041924Z AUTO 00000KT 2 1/2SM UP BR CLR 02/00 A2997 RMK AO2 VIS 3/4V5 RAE20UPB20 P0002 FZRANO=
202212041856 METAR KPWT 041856Z AUTO 00000KT 10SM -RA SCT029 02/M01 A2997 RMK AO2 RAB31 SLP158 P0000 T00171006 FZRANO=
202212041756 METAR KPWT 041756Z AUTO 05009KT 10SM BKN055 BKN065 02/M01 A2996 RMK AO2 SLP154 T00221006 10022 20011 55002 FZRANO=
202212041656 METAR KPWT 041656Z AUTO 04006KT 10SM BKN055 02/M01 A2996 RMK AO2 SLP153 T00221006 FZRANO=
202212041556 METAR KPWT 041556Z AUTO 04012KT 10SM FEW090 02/M01 A2996 RMK AO2 SLP152 T00171006 FZRANO=
202212041456 METAR KPWT 041456Z AUTO 05011KT 10SM CLR 02/M01 A2997 RMK AO2 SLP157 T00221011 55004 FZRANO=
202212041356 METAR KPWT 041356Z AUTO 05008KT 10SM BKN100 02/M02 A2995 RMK AO2 SLP150 T00171017 FZRANO=
202212041256 METAR KPWT 041256Z AUTO 05012KT 10SM CLR 01/M02 A2996 RMK AO2 SLP153 T00111017 FZRANO=
202212041156 METAR KPWT 041156Z AUTO 03010KT 10SM CLR 02/M02 A2998 RMK AO2 SLP160 70033 T00171022 10022 20006 58026 FZRANO=
202212041056 METAR KPWT 041056Z AUTO 02010KT 10SM CLR 02/M02 A3002 RMK AO2 SLP171 T00171022 FZRANO=
202212040956 METAR KPWT 040956Z AUTO 02012KT 10SM CLR 02/M03 A3003 RMK AO2 SLP177 T00221028 FZRANO=
202212040856 METAR KPWT 040856Z AUTO 02007KT 10SM CLR 01/M03 A3006 RMK AO2 SLP188 T00111028 58016 FZRANO=
202212040756 METAR KPWT 040756Z AUTO 05008KT 10SM CLR 01/M02 A3009 RMK AO2 SLP197 T00061022 400440000 FZRANO=
202212040656 METAR KPWT 040656Z AUTO 03009KT 10SM CLR 02/M02 A3010 RMK AO2 SLP201 T00171022 FZRANO=
202212040556 METAR KPWT 040556Z AUTO 03009KT 10SM CLR 01/M02 A3011 RMK AO2 SLP203 T00111017 10033 20006 58006 FZRANO=
202212040456 METAR KPWT 040456Z AUTO 05007KT 10SM CLR 01/M02 A3012 RMK AO2 SLP207 T00111017 FZRANO=
202212040356 METAR KPWT 040356Z AUTO 04010KT 10SM CLR 01/M01 A3012 RMK AO2 SLP207 T00111006 FZRANO=
202212040256 METAR KPWT 040256Z AUTO 04008KT 10SM CLR 01/00 A3013 RMK AO2 SLP210 T00110000 51009 FZRANO=
202212040156 METAR KPWT 040156Z AUTO 04007KT 10SM CLR 02/00 A3012 RMK AO2 SLP206 T00170000 FZRANO=
202212040056 METAR KPWT 040056Z AUTO 04009KT 10SM CLR 02/01 A3011 RMK AO2 SLP205 T00220011 FZRANO=
202212032356 METAR KPWT 032356Z AUTO 05011KT 10SM CLR 03/02 A3010 RMK AO2 SLP201 T00330017 10044 20028 56005=
202212032256 METAR KPWT 032256Z AUTO 03010KT 10SM CLR 03/02 A3010 RMK AO2 SLPNO T00330017=
202212032156 METAR KPWT 032156Z AUTO 02008G16KT 10SM CLR 04/02 A3010 RMK AO2 SLPNO T00390017=
202212032056 METAR KPWT 032056Z AUTO 03009KT 10SM CLR 03/02 A3012 RMK AO2 SLPNO T00330017 50001=
202212031956 METAR KPWT 031956Z AUTO 03011KT 10SM CLR 03/02 A3012 RMK AO2 SLPNO T00330017=
202212031856 METAR KPWT 031856Z AUTO 04010KT 10SM CLR 03/01 A3013 RMK AO2 SLPNO T00280011=
202212031756 METAR KPWT 031756Z AUTO 04008KT 10SM CLR 03/01 A3011 RMK AO2 SLPNO P0002 60033 T00330011 10033 20000 53015=
202212031656 METAR KPWT 031656Z AUTO 03005KT 10SM CLR 02/02 A3009 RMK AO2 SLP197 P0003 T00220022 FZRANO=
202212031556 METAR KPWT 031556Z AUTO 00000KT 10SM FEW049 BKN080 01/01 A3007 RMK AO2 SLP193 P0005 T00060006 FZRANO=
202212031456 METAR KPWT 031456Z AUTO 02005KT 10SM OVC055 01/01 A3007 RMK AO2 UPB11E36 SLP190 P0007 60023 T00110011 51007 FZRANO=
202212031356 METAR KPWT 031356Z AUTO 04008KT 10SM FEW048 01/01 A3006 RMK AO2 RAE32 SLP187 P0009 T00110011 FZRANO=
202212031256 METAR KPWT 031256Z AUTO 04010KT 10SM -RA FEW007 BKN049 01/01 A3006 RMK AO2 UPB03E13 SLP187 P0007 T00060006 FZRANO=
202212031228 SPECI KPWT 031228Z AUTO 04010KT 10SM -RA FEW005 SCT014 OVC035 01/01 A3005 RMK AO2 UPB03E13 P0004 FZRANO=
202212031206 SPECI KPWT 031206Z AUTO 04008KT 10SM UP FEW023 OVC035 01/01 A3005 RMK AO2 RAE03UPB03 P0002 FZRANO=
202212031156 METAR KPWT 031156Z AUTO 03009KT 10SM -RA FEW009 BKN023 OVC033 00/00 A3005 RMK AO2 UPB09E54RAB54SNE09 SLP183 P0009 60029 70044 T00000000 50004 FZRANO=
202212031143 SPECI KPWT 031143Z AUTO 04010KT 10SM UP SCT007 BKN023 OVC027 00/00 A3005 RMK AO2 UPB09SNE09 P0008 FZRANO=
202212031103 SPECI KPWT 031103Z AUTO 04007KT 7SM -SN SCT005 BKN010 BKN024 00/00 A3005 RMK AO2 CIG 010V013 P0002 FZRANO=
202212031056 METAR KPWT 031056Z AUTO 03007KT 6SM -SN FEW003 SCT010 SCT024 A3005 RMK AO2 SLPNO P0004 FZRANO=
202212031045 SPECI KPWT 031045Z AUTO 04007KT 4SM -SN CLR A3005 RMK AO2 P0003 FZRANO=
202212031012 SPECI KPWT 031012Z AUTO 04009KT 2 1/2SM -SN CLR A3004 RMK AO2 VIS 2V4 P0001 FZRANO=
202212030956 METAR KPWT 030956Z AUTO 04008KT 1 3/4SM -SN CLR A3004 RMK AO2 VIS 1V3 SLPNO P0007 FZRANO=
202212030936 SPECI KPWT 030936Z AUTO 04007KT 2SM -SN CLR A3003 RMK AO2 VIS 1 1/2V4 P0004 FZRANO=
202212030856 METAR KPWT 030856Z AUTO 04007KT 1 1/2SM -SN CLR A3003 RMK AO2 VIS 1 1/4V2 1/2 SLPNO P0005 60009 53007 FZRANO=
202212030842 SPECI KPWT 030842Z AUTO 05007KT 1 1/2SM -SN CLR A3003 RMK AO2 P0003 FZRANO=
202212030756 METAR KPWT 030756Z AUTO 05008KT 2 1/2SM -SN FEW003 A3002 RMK AO2 SLPNO P0003 400171056 FZRANO=
202212030748 SPECI KPWT 030748Z AUTO 04008KT 2 1/2SM -SN SCT003 A3002 RMK AO2 VIS 2V3 P0002 FZRANO=
202212030743 SPECI KPWT 030743Z AUTO 04009KT 2SM -SN BKN003 BKN007 A3002 RMK AO2 VIS 1 1/4V3 P0002 FZRANO=
202212030656 METAR KPWT 030656Z AUTO 04007KT 1 1/2SM -SN BKN003 BKN009 A3001 RMK AO2 SLPNO P0001 FZRANO=
202212030637 SPECI KPWT 030637Z AUTO 04006KT 1 1/2SM -SN SCT003 BKN009 A3001 RMK AO2 P0001 FZRANO=
202212030619 SPECI KPWT 030619Z AUTO 04008KT 1 1/2SM -SN BKN003 BKN009 A3001 RMK AO2 VIS 1 1/4V2 1/2 P0000 FZRANO=
202212030606 SPECI KPWT 030606Z AUTO 03006KT 1SM -SN VV003 A3001 RMK AO2 P0000 FZRANO=
202212030556 METAR KPWT 030556Z AUTO 03006KT 1 1/4SM -SN FEW002 A3001 RMK AO2 SLPNO P0001 60013 10011 20000 51007 FZRANO=
202212030554 SPECI KPWT 030554Z AUTO 03007KT 1 1/4SM -SN FEW002 A3001 RMK AO2 P0000 FZRANO=
202212030533 SPECI KPWT 030533Z AUTO 03006KT 1SM -SN BR VV004 00/00 A3000 RMK AO2 P0000 FZRANO=
202212030526 SPECI KPWT 030526Z AUTO 03006KT 3/4SM -SN BR BKN007 00/00 A3000 RMK AO2 CIG 002V009 P0000 FZRANO=
202212030507 SPECI KPWT 030507Z AUTO 02005KT 1SM -SN BR BKN007 00/00 A3000 RMK AO2 CIG 002V009 P0000 FZRANO=
202212030456 METAR KPWT 030456Z AUTO 01004KT 1 1/4SM -SN BR OVC007 00/00 A3000 RMK AO2 CIG 002V009 SLP169 P0002 T00000000 FZRANO=
202212030448 SPECI KPWT 030448Z AUTO 02005KT 1SM -SN BR SCT002 OVC007 00/00 A3000 RMK AO2 P0001 FZRANO=
202212030437 SPECI KPWT 030437Z AUTO 02004KT 3/4SM -SN BR BKN002 OVC007 00/00 A3000 RMK AO2 CIG 002V006 P0001 FZRANO=
202212030356 METAR KPWT 030356Z AUTO 03006KT 1 3/4SM -SN BR BKN002 BKN010 00/00 A3000 RMK AO2 SLP166 P0002 T00000000 FZRANO=
202212030352 SPECI KPWT 030352Z AUTO 03005KT 1 3/4SM -SN BR BKN002 BKN010 00/00 A2999 RMK AO2 P0002 FZRANO=
202212030341 SPECI KPWT 030341Z AUTO 03004KT 1 3/4SM -SN BR FEW002 00/00 A2999 RMK AO2 VIS 1V4 P0002 FZRANO=
202212030316 SPECI KPWT 030316Z AUTO 04005KT 2 1/2SM -SN BR CLR 00/00 A2999 RMK AO2 VIS 1 1/4V4 P0001 FZRANO=
202212030309 SPECI KPWT 030309Z AUTO 04004KT 1 3/4SM -SN BR CLR 00/00 A2999 RMK AO2 P0001 FZRANO=
202212030256 METAR KPWT 030256Z AUTO 03004KT 1SM -SN BR CLR 01/01 A3000 RMK AO2 RAE33SNB33 SLP167 P0007 60008 T00060006 55001 FZRANO=
202212030247 SPECI KPWT 030247Z AUTO 03003KT 1 3/4SM -SN BR CLR 01/01 A3000 RMK AO2 RAE33SNB33 P0006 FZRANO=
202212030156 METAR KPWT 030156Z AUTO 00000KT 9SM -RA CLR 01/01 A3000 RMK AO2 RAB07 SLP166 P0001 T00060006 FZRANO=
202212030056 METAR KPWT 030056Z AUTO 00000KT 10SM BKN036 01/01 A2999 RMK AO2 SLP166 T00060006 FZRANO=
202212022356 METAR KPWT 022356Z AUTO 00000KT 10SM BKN060 BKN075 01/01 A3000 RMK AO2 SLP168 60002 T00110011 10017 20006 58012 FZRANO=
202212022256 METAR KPWT 022256Z AUTO 00000KT 10SM BKN038 BKN070 02/02 A3001 RMK AO2 SLP173 T00170017 FZRANO=
202212022156 METAR KPWT 022156Z AUTO 00000KT 10SM OVC036 01/01 A3003 RMK AO2 RAB03E24 SLP177 P0000 T00110011 FZRANO=
202212022056 METAR KPWT 022056Z AUTO 26003KT 10SM FEW003 BKN034 01/01 A3004 RMK AO2 UPE40RAB40E54 SLP180 P0000 60002 T00110011 58010 FZRANO=
202212022031 SPECI KPWT 022031Z AUTO 00000KT 10SM UP FEW003 SCT022 SCT027 02/01 A3005 RMK AO2 P0000 FZRANO=
202212022016 SPECI KPWT 022016Z AUTO 00000KT 6SM UP BR FEW014 OVC022 02/01 A3005 RMK AO2 P0000 FZRANO=
202212022006 SPECI KPWT 022006Z AUTO 33003KT 2SM UP BR SCT014 BKN022 OVC032 01/01 A3005 RMK AO2 P0000 FZRANO=
202212021956 METAR KPWT 021956Z AUTO 00000KT 5SM UP BR SCT017 BKN024 OVC032 01/01 A3005 RMK AO2 UPE27B45SNB27E45 SLP185 P0001 T00110011 FZRANO=
202212021946 SPECI KPWT 021946Z AUTO 00000KT 7SM UP SCT017 BKN024 OVC032 01/01 A3005 RMK AO2 UPE27B45SNB27E45 P0001 FZRANO=
202212021931 SPECI KPWT 021931Z AUTO 00000KT 2SM -SN BR BKN017 OVC022 01/01 A3005 RMK AO2 VIS 1 1/2V3 UPE27SNB27 P0000 FZRANO=
202212021914 SPECI KPWT 021914Z AUTO 00000KT 3SM UP BR BKN018 BKN024 01/01 A3006 RMK AO2 P0000 FZRANO=
202212021907 SPECI KPWT 021907Z AUTO 00000KT 2 1/2SM UP BR BKN018 01/01 A3006 RMK AO2 VIS 1 1/4V4 P0000 FZRANO=
202212021900 SPECI KPWT 021900Z AUTO 00000KT 3SM UP BR SCT016 01/01 A3006 RMK AO2 P0000 FZRANO=
202212021856 METAR KPWT 021856Z AUTO 00000KT 2 1/2SM UP BR SCT016 BKN021 01/01 A3006 RMK AO2 VIS 1V5 RAE05UPB15E24B47SNB05E15B24E47 SLP189 P0001 T00110011 FZRANO=
202212021809 SPECI KPWT 021809Z AUTO 00000KT 1 3/4SM -SN BR SCT016 OVC023 01/01 A3007 RMK AO2 RAE05SNB05 P0000 FZRANO=
202212021756 METAR KPWT 021756Z AUTO 00000KT 6SM -RA BR OVC023 01/01 A3007 RMK AO2 UPE20RAB36 SLP192 P0000 60000 T00060006 10006 21022 53009 FZRANO=
202212021710 SPECI KPWT 021710Z AUTO 00000KT 4SM UP BR FEW011 OVC019 00/00 A3006 RMK AO2 P0000 FZRANO=
202212021658 SPECI KPWT 021658Z AUTO 00000KT 2SM UP BR SCT011 OVC019 00/00 A3006 RMK AO2 VIS 1 1/2V3 P0000 FZRANO=
202212021656 METAR KPWT 021656Z AUTO 00000KT 1 3/4SM UP BR BKN011 OVC019 00/00 A3006 RMK AO2 VIS 1 1/2V3 UPB02 SLP187 P0000 T00000000 FZRANO=
202212021653 SPECI KPWT 021653Z AUTO 00000KT 1 3/4SM UP BR BKN011 OVC019 00/00 A3005 RMK AO2 VIS 1 1/4V3 UPB02 P0000 FZRANO=
202212021628 SPECI KPWT 021628Z AUTO 00000KT 8SM UP FEW007 BKN013 OVC021 00/00 A3005 RMK AO2 UPB02 P0000 FZRANO=
202212021606 SPECI KPWT 021606Z AUTO 00000KT 10SM UP SCT014 BKN021 OVC032 M01/M01 A3004 RMK AO2 UPB02 P0000 FZRANO=
202212021556 METAR KPWT 021556Z AUTO 22003KT 10SM SCT008 BKN014 OVC030 M01/M01 A3004 RMK AO2 UPE45 SLP183 P0000 T10061006 FZRANO=
202212021519 SPECI KPWT 021519Z AUTO 00000KT 5SM UP BR OVC008 M01/M01 A3004 RMK AO2 CIG 007V010 P0000 FZRANO=
202212021456 METAR KPWT 021456Z AUTO 00000KT 3SM UP BR OVC010 M01/M01 A3003 RMK AO2 UPB00E24B52SNB24E52 CIG 009V015 SLP180 P0000 60000 T10111011 51005 FZRANO=
202212021452 SPECI KPWT 021452Z AUTO 00000KT 3SM UP BR OVC010 M01/M01 A3003 RMK AO2 UPB00E24B52SNB24E52 CIG 010V013 P0000 FZRANO=
202212021431 SPECI KPWT 021431Z AUTO 00000KT 2 1/2SM -SN BR OVC014 M01/M01 A3004 RMK AO2 VIS 1 1/4V5 UPB00E24SNB24 P0000 FZRANO=
202212021356 METAR KPWT 021356Z AUTO 00000KT 10SM OVC016 M02/M02 A3003 RMK AO2 UPE46 SLP179 P0000 T10171017 FZRANO=
202212021325 SPECI KPWT 021325Z AUTO 00000KT 3SM UP BR FEW008 OVC016 M02/M02 A3003 RMK AO2 P0000 FZRANO=
202212021312 SPECI KPWT 021312Z AUTO 00000KT 8SM UP OVC016 M02/M02 A3002 RMK AO2 P0000 FZRANO=
202212021256 METAR KPWT 021256Z AUTO 00000KT 10SM UP OVC014 M02/M02 A3002 RMK AO2 UPB27 SLP175 P0000 T10171017 FZRANO=
202212021230 SPECI KPWT 021230Z AUTO 00000KT 8SM UP OVC014 M02/M02 A3002 RMK AO2 UPB27 P0000 FZRANO=
202212021156 METAR KPWT 021156Z AUTO 00000KT 10SM OVC018 M02/M02 A3002 RMK AO2 SLP175 T10221022 11022 21056 51010 FZRANO=
202212021056 METAR KPWT 021056Z AUTO 00000KT 10SM OVC020 M04/M04 A3002 RMK AO2 SLP173 T10391044 FZRANO=
202212021032 SPECI KPWT 021032Z AUTO 00000KT 10SM BKN020 M05/M05 A3001 RMK AO2 FZRANO=
202212020956 METAR KPWT 020956Z AUTO 00000KT 10SM BKN060 M06/M06 A3001 RMK AO2 SLP171 T10561056 FZRANO=
202212020919 SPECI KPWT 020919Z AUTO 00000KT 3SM BR CLR M06/M06 A3000 RMK AO2 FZRANO=
202212020910 SPECI KPWT 020910Z AUTO 00000KT 1 1/2SM BR CLR M06/M06 A2999 RMK AO2 FZRANO=
202212020856 METAR KPWT 020856Z AUTO 00000KT 10SM CLR M05/M05 A2999 RMK AO2 SLP164 T10501050 51020 FZRANO=
202212020831 SPECI KPWT 020831Z AUTO 00000KT 4SM BR CLR M06/M06 A2998 RMK AO2 FZRANO=
202212020821 SPECI KPWT 020821Z AUTO 00000KT 1 3/4SM BR CLR M06/M06 A2998 RMK AO2 FZRANO=
202212020756 METAR KPWT 020756Z AUTO 00000KT 10SM CLR M06/M06 A2997 RMK AO2 SLP159 T10561056 400111056 FZRANO=
202212020656 METAR KPWT 020656Z AUTO 00000KT 10SM CLR M04/M04 A2996 RMK AO2 SLP152 T10441044 FZRANO=
202212020556 METAR KPWT 020556Z AUTO 00000KT 10SM FEW035 M03/M03 A2993 RMK AO2 SLP144 T10281028 11006 21028 51018 FZRANO=
202212020456 METAR KPWT 020456Z AUTO 00000KT 10SM OVC035 M01/M02 A2991 RMK AO2 SLP138 T10111022 FZRANO=
202212020356 METAR KPWT 020356Z AUTO 00000KT 10SM OVC033 M01/M02 A2990 RMK AO2 SLP134 T10111022 FZRANO=
202212020256 METAR KPWT 020256Z AUTO 00000KT 10SM OVC031 M01/M03 A2988 RMK AO2 SLP125 T10111028 51021 FZRANO=
202212020249 SPECI KPWT 020249Z AUTO 00000KT 10SM OVC031 M01/M02 A2987 RMK AO2 FZRANO=
202212020156 METAR KPWT 020156Z AUTO 05003KT 10SM OVC027 M01/M03 A2986 RMK AO2 SLP119 T10061028 FZRANO=
202212020136 SPECI KPWT 020136Z AUTO 07003KT 10SM BKN029 OVC034 M01/M03 A2985 RMK AO2 FZRANO=
202212020056 METAR KPWT 020056Z AUTO 04003KT 10SM OVC034 M01/M02 A2983 RMK AO2 SLP111 T10061022 FZRANO=
202212012356 METAR KPWT 012356Z AUTO 03005KT 10SM BKN050 M01/M02 A2981 RMK AO2 SLP104 60000 T10061022 10011 21006 53023 FZRANO=
202212012256 METAR KPWT 012256Z AUTO 03006KT 10SM BKN050 01/M02 A2979 RMK AO2 SLP095 T00061017 FZRANO=
202212012156 METAR KPWT 012156Z AUTO 03005KT 10SM BKN060 01/M01 A2976 RMK AO2 SLP087 T00111011 FZRANO=
202212012056 METAR KPWT 012056Z AUTO 04007KT 10SM OVC060 01/M01 A2974 RMK AO2 SLP080 60000 T00111011 51019 FZRANO=
202212011956 METAR KPWT 011956Z AUTO 03007KT 10SM CLR 00/M01 A2972 RMK AO2 RAE1858UPB25E27SNB1858E25 SLP074 P0000 T00001006 FZRANO=
202212011856 METAR KPWT 011856Z AUTO 02009G21KT 10SM -RA BKN060 01/M01 A2972 RMK AO2 RAB49 SLP072 P0000 T00111006 FZRANO=
202212011756 METAR KPWT 011756Z AUTO 02013G19KT 10SM BKN060 00/M01 A2969 RMK AO2 SLPNO 60000 T00001011 10000 21011 51021 FZRANO=
202212011656 METAR KPWT 011656Z AUTO 03009KT 10SM FEW060 BKN080 M01/M02 A2967 RMK AO2 SLP056 T10061017 FZRANO=
202212011556 METAR KPWT 011556Z AUTO 03007KT 10SM BKN060 M01/M01 A2965 RMK AO2 UPE08 SLP047 P0000 T10061006 FZRANO=
202212011456 METAR KPWT 011456Z AUTO 03005KT 10SM UP FEW065 00/00 A2962 RMK AO2 SLP040 P0000 60000 T00000000 51024 FZRANO=
202212011356 METAR KPWT 011356Z AUTO 00000KT 8SM UP SCT025 M01/M01 A2960 RMK AO2 UPB56 SLP032 P0000 T10061006 FZRANO=
202212011256 METAR KPWT 011256Z AUTO 24003KT 10SM CLR M01/M01 A2958 RMK AO2 SLP025 T10111011 FZRANO=
202212011156 METAR KPWT 011156Z AUTO 00000KT 10SM CLR M01/M01 A2955 RMK AO2 SLP015 70008 T10111011 10000 21022 50003 FZRANO=
202212011056 METAR KPWT 011056Z AUTO 00000KT 10SM CLR M02/M02 A2956 RMK AO2 SLP017 T10171017 FZRANO=
202212010956 METAR KPWT 010956Z AUTO 00000KT 10SM BKN075 M02/M02 A2955 RMK AO2 SLP014 T10221022 FZRANO=
202212010856 METAR KPWT 010856Z AUTO 00000KT 10SM CLR M02/M02 A2954 RMK AO2 SLP013 T10171017 58003 FZRANO=
202212010824 SPECI KPWT 010824Z AUTO 00000KT 10SM CLR M01/M01 A2955 RMK AO2 FZRANO=
202212010817 SPECI KPWT 010817Z AUTO 00000KT 2 1/2SM BR CLR M02/M02 A2955 RMK AO2 FZRANO=
202212010813 SPECI KPWT 010813Z AUTO 00000KT 1SM BR CLR M02/M02 A2955 RMK AO2 FZRANO=
202212010804 SPECI KPWT 010804Z AUTO 00000KT 1/2SM FZFG CLR M02/M02 A2955 RMK AO2 FZRANO=
202212010756 METAR KPWT 010756Z AUTO 00000KT 3/4SM BR CLR M01/M01 A2955 RMK AO2 SLP014 T10111011 400441017 FZRANO=
202212010751 SPECI KPWT 010751Z AUTO 00000KT 1SM BR CLR M01/M01 A2955 RMK AO2 400441017 FZRANO=
202212010731 SPECI KPWT 010731Z AUTO 00000KT 3/4SM BR VV012 M01/M01 A2956 RMK AO2 VIS 1/2V3 FZRANO=
202212010726 SPECI KPWT 010726Z AUTO 00000KT 1 1/2SM BR FEW007 BKN012 M01/M01 A2956 RMK AO2 FZRANO=
202212010706 SPECI KPWT 010706Z AUTO 00000KT 9SM FEW007 BKN012 M01/M01 A2956 RMK AO2 FZRANO=
202212010656 METAR KPWT 010656Z AUTO 00000KT 10SM BKN010 M01/M01 A2955 RMK AO2 SLP015 T10061006 FZRANO=
202212010629 SPECI KPWT 010629Z AUTO 00000KT 10SM BKN010 00/00 A2955 RMK AO2 CIG 006V012 FZRANO=
202212010556 METAR KPWT 010556Z AUTO 00000KT 6SM HZ OVC006 A2955 RMK AO2 CIG 003V008 SLPNO 60007 53003 FZRANO=
202212010456 METAR KPWT 010456Z AUTO 00000KT 4SM HZ OVC004 00/ A2955 RMK AO2 SLP014 T0000 FZRANO=
202212010442 SPECI KPWT 010442Z AUTO 00000KT 1 3/4SM BR OVC004 00/ A2955 RMK AO2 VIS 3/4V5 FZRANO=
202212010431 SPECI KPWT 010431Z AUTO 00000KT 3SM BR OVC004 00/ A2955 RMK AO2 CIG 002V007 FZRANO=
202212010426 SPECI KPWT 010426Z AUTO 00000KT 1 1/4SM BR OVC004 00/ A2955 RMK AO2 CIG 002V007 FZRANO=
202212010419 SPECI KPWT 010419Z AUTO 23003KT 3/4SM BR OVC004 00/ A2955 RMK AO2 CIG 002V007 FZRANO=
202212010413 SPECI KPWT 010413Z AUTO 21003KT 1 1/2SM BR OVC004 00/00 A2955 RMK AO2 CIG 002V006 FZRANO=
202212010406 SPECI KPWT 010406Z AUTO 23003KT 3SM BR OVC004 00/00 A2955 RMK AO2 CIG 002V006 FZRANO=
202212010356 METAR KPWT 010356Z AUTO 22003KT 1 1/2SM BR OVC004 00/00 A2955 RMK AO2 CIG 002V006 SLP012 T00000000 FZRANO=
202212010346 SPECI KPWT 010346Z AUTO 00000KT 2 1/2SM BR OVC004 00/00 A2954 RMK AO2 CIG 002V007 FZRANO=
202212010323 SPECI KPWT 010323Z AUTO 20003KT 3SM BR SCT003 OVC006 00/00 A2954 RMK AO2 FZRANO=
202212010311 SPECI KPWT 010311Z AUTO 23003KT 1 1/4SM BR SCT003 BKN008 OVC041 00/00 A2954 RMK AO2 FZRANO=
202212010306 SPECI KPWT 010306Z AUTO 21004KT 1SM BR BKN003 BKN008 OVC039 00/00 A2954 RMK AO2 FZRANO=
202212010300 SPECI KPWT 010300Z AUTO 21004KT 1 3/4SM BR SCT003 OVC039 00/00 A2954 RMK AO2 FZRANO=
202212010256 METAR KPWT 010256Z AUTO 22004KT 3SM BR FEW003 OVC039 00/00 A2954 RMK AO2 UPE26 SLP009 P0000 60007 T00000000 51004 FZRANO=
202212010156 METAR KPWT 010156Z AUTO 03003KT 7SM UP FEW016 SCT026 00/00 A2953 RMK AO2 UPB56SNE56 SLP008 P0004 T00000000 FZRANO=
202212010154 SPECI KPWT 010154Z AUTO 00000KT 8SM -SN SCT016 BKN026 00/00 A2953 RMK AO2 P0004 FZRANO=
202212010146 SPECI KPWT 010146Z AUTO 00000KT 5SM -SN BR BKN014 BKN026 00/00 A2953 RMK AO2 P0003 FZRANO=
202212010139 SPECI KPWT 010139Z AUTO 07005KT 2 1/2SM -SN BR BKN014 BKN019 OVC026 01/01 A2952 RMK AO2 P0003 FZRANO=
202212010113 SPECI KPWT 010113Z AUTO 08005KT 1 1/4SM -SN BR OVC012 00/00 A2952 RMK AO2 P0002 FZRANO=
202212010104 SPECI KPWT 010104Z AUTO 08005KT 1SM -SN BR OVC012 00/00 A2953 RMK AO2 P0000 FZRANO=
202212010056 METAR KPWT 010056Z AUTO 08005KT 1 1/4SM -SN BR OVC012 01/00 A2952 RMK AO2 SLP004 P0003 T00060000 FZRANO=
202212010030 SPECI KPWT 010030Z AUTO 04009KT 1 3/4SM -SN BR SCT003 OVC012 01/01 A2952 RMK AO2 VIS 1V3 P0002 FZRANO=
202212010015 SPECI KPWT 010015Z AUTO 05010KT 2SM -SN BR SCT005 OVC014 01/01 A2952 RMK AO2 VIS 1V5 P0001 FZRANO=

# No short TAF reports from KPWT in databse.

###################################
#  large TAF from KPWT
###################################
202212312329 TAF KPWT 312329Z 0100/0124 19004KT P6SM BKN015 BKN050 FM010500
                       00000KT P6SM OVC003 FM012100 04002KT P6SM
                       OVC007=
202212311731 TAF KPWT 311731Z 3118/0118 19004KT P6SM BKN025 BKN050 FM312300
                       18004KT P6SM BKN035 BKN050 FM010000 19005KT
                       P6SM OVC007 FM010500 00000KT P6SM OVC003=
202212311120 TAF KPWT 311120Z 3112/0112 19006KT P6SM VCSH OVC015 FM311800 19004KT
                       P6SM BKN025 BKN050 FM010000 18004KT P6SM
                       BKN035 BKN050=
202212310526 TAF KPWT 310526Z 3106/0106 20009G16KT P6SM VCSH BKN025 BKN040 FM311000
                       19006KT P6SM VCSH OVC015 FM311800 19004KT
                       P6SM BKN025 BKN050 FM010000 18004KT P6SM
                       BKN035 BKN050=
202212302334 TAF KPWT 302334Z 3100/3124 20009G16KT P6SM VCSH BKN025 BKN040 FM311000
                       19006KT P6SM VCSH OVC015 FM311800 19004KT
                       P6SM BKN025 BKN050=
202212301721 TAF KPWT 301721Z 3018/3118 20012G20KT P6SM -SHRA BKN030 FM310000
                       20009G16KT P6SM OVC007 FM311500 19003KT
                       P6SM OVC015=
202212301121 TAF KPWT 301121Z 3012/3112 12012KT 4SM RA BR OVC015 FM301600 20012G20KT
                       P6SM -SHRA BKN020 BKN040 FM302000 22012G22KT
                       P6SM VCSH BKN025 BKN050=
202212300525 TAF KPWT 300525Z 3006/3106 12012KT 4SM RA BR OVC015 FM301600 20012G20KT
                       P6SM -SHRA BKN020 BKN040 FM302000 22012G22KT
                       P6SM VCSH BKN025 BKN050=
202212292320 TAF KPWT 292320Z 3000/3024 14005KT P6SM OVC025 FM300600 12008KT
                       P6SM -RA OVC020 FM300900 12012KT 4SM RA
                       BR OVC015 FM301600 20012G20KT P6SM -SHRA
                       BKN020 BKN040 FM302000 22012G22KT P6SM VCSH
                       BKN025 BKN050=
202212291722 TAF KPWT 291722Z 2918/3018 VRB04KT P6SM BKN025 OVC050
                      TEMPO 2918/2922 4SM -RA BR OVC020 FM292200
                       VRB04KT P6SM VCSH BKN015 BKN030 FM300800
                       11006KT P6SM -RA OVC015 FM301700 20012KT
                       P6SM -SHRA BKN020 BKN040=
202212291128 TAF KPWT 291128Z 2912/3012 18010KT P6SM BKN030 FM291500 14008KT
                       P6SM -RA OVC030
                      TEMPO 2918/2921 4SM -RA BR OVC020 FM292300
                       14004KT P6SM VCSH BKN020 BKN040=
202212290520 TAF KPWT 290520Z 2906/3006 18010KT P6SM BKN030 FM291500 14008KT
                       P6SM -RA OVC030
                      TEMPO 2918/2921 4SM -RA BR OVC020 FM292300
                       14004KT P6SM VCSH BKN020 BKN040=
202212282320 TAF KPWT 282320Z 2900/2924 18010KT P6SM BKN030 FM291500 14008KT
                       P6SM -RA OVC030
                      TEMPO 2918/2921 4SM -RA BR OVC020 FM292300
                       14004KT P6SM VCSH BKN020 BKN040=
202212281738 TAF KPWT 281738Z 2818/2918 21012KT P6SM SCT015 BKN040
                      TEMPO 2818/2821 BKN015 OVC040 FM290000 22007KT
                       P6SM SCT025 BKN050 FM290800 16006KT P6SM
                       BKN030 FM291600 14007KT P6SM -RA OVC025=
202212281122 TAF KPWT 281122Z 2812/2912 22015G25KT P6SM VCSH BKN020 BKN040 FM281800
                       22012KT P6SM VCSH SCT025 BKN040=
202212280520 TAF KPWT 280520Z 2806/2906 22025G35KT P6SM VCSH OVC080 FM281000
                       22015G25KT P6SM VCSH BKN020 BKN040 FM281800
                       22012KT P6SM VCSH SCT025 BKN040=
202212272320 TAF KPWT 272320Z 2800/2824 20020G30KT P6SM -SHRA BKN020 OVC040
                       TEMPO 2800/2803 3SM SHRA BR OVC015 FM280300
                       22025G35KT P6SM -SHRA BKN012 OVC025
                      TEMPO 2803/2807 3SM SHRA OVC010 FM281000
                       22015G25KT P6SM VCSH BKN020 BKN040 FM281800
                       22012KT P6SM VCSH SCT025 BKN040=
202212271720 TAF KPWT 271720Z 2718/2818 17015G25KT P6SM -RA SCT012 OVC025
                      TEMPO 2718/2722 3SM RA BR BKN012 OVC025 FM272200
                       19015G25KT P6SM -SHRA SCT012 OVC025
                      TEMPO 2722/2802 3SM SHRA BR BKN012 OVC025
                       FM280200 20020G30KT P6SM -SHRA BKN012 OVC025
                       FM280800 22022G34KT P6SM -SHRA BKN015 BKN040
                       FM281200 22015G25KT P6SM VCSH BKN015 FM281700
                       22012KT P6SM VCSH BKN020=
202212271136 TAF KPWT 271136Z 2712/2812 NIL=
202212270541 TAF KPWT 270541Z 2706/2806 00000KT 4SM RA BR OVC015 FM271200 18010G20KT
                       4SM RA BR OVC015 FM271500 17020G30KT 2SM
                       RA BR OVC007 FM272100 18010G20KT 2SM -RA
                       BR OVC015=
202212262320 TAF KPWT 262320Z 2700/2724 VRB04KT P6SM BKN030 OVC100 FM270200
                       00000KT 4SM -RA BR OVC015 FM271200 18010G20KT
                       4SM -RA BR OVC015 FM271500 17020G30KT 2SM
                       -RA BR OVC007 FM272100 18010G20KT 2SM -RA
                       BR OVC015=
202212261720 TAF KPWT 261720Z 2618/2718 19015KT P6SM OVC020 FM262000 19012KT
                       P6SM -RA OVC025 FM270000 17003KT 4SM -RA
                       BR OVC015 FM271200 18010G20KT 4SM -RA BR
                       OVC015 FM271500 17020G30KT 2SM -RA BR OVC007=
202212261140 TAF KPWT 261140Z 2612/2712 22008G20KT P6SM -RA OVC004 FM261400
                       19014G22KT 4SM -RA OVC007 FM262000 19008KT
                       P6SM -RA OVC025 FM270000 04003KT 4SM -RA
                       BR OVC015=
202212260535 TAF KPWT 260535Z 2606/2706 19005KT 4SM -RA BR OVC009
                      TEMPO 2606/2608 BKN002 FM261200 21010G20KT
                       4SM -RA BR OVC007 FM261800 19010KT 6SM -RA
                       BR OVC015=
202212252320 TAF KPWT 252320Z 2600/2624 VRB03KT 2SM -RA BR BKN004 OVC013 FM260200
                       20006KT 4SM -RA BR OVC015 FM260600 19005G15KT
                       4SM -RA BR OVC009 FM261200 21010G20KT 4SM
                       -RA BR OVC007=
202212251720 TAF KPWT 251720Z 2518/2618 00000KT 1SM -RA BR OVC007 FM252000 19005KT
                       6SM -SHRA BR OVC025 FM260200 20006KT 4SM
                       BR VCSH OVC007 FM260600 19005G15KT 4SM -RA
                       BR OVC020=
202212251403 KPWT 251403Z 2514/2612 17005KT P6SM -RA BKN120 FM251600 19005KT
                       4SM -RA BR OVC007 FM252000 19005KT 6SM -SHRA
                       BR OVC015 FM260200 20006KT 4SM BR VCSH OVC007=
202212251140 TAF KPWT 251140Z 2512/2612 22007KT 3SM -RA BR OVC003 FM260000 18005KT
                       6SM -SHRA BR OVC003 FM260400 20006KT 4SM
                       -SHRA BR OVC007=
202212250538 TAF KPWT 250538Z 2506/2606 18007KT 6SM -SHRA BR OVC003 FM251800
                       05005KT 4SM -RA BR OVC003 FM260000 18005KT
                       4SM BR OVC007 FM260300 19006KT 4SM BR OVC003=
202212242320 TAF KPWT 242320Z 2500/2524 20012G20KT 6SM -RA OVC003 FM250500 20007KT
                       6SM BR OVC003 FM250900 18005KT 1SM BR OVC003
                       FM251500 10003KT 4SM BR OVC003=
202212242047 KPWT 242047Z 2421/2518 19014G22KT 6SM -RA OVC005 FM250500 20007KT
                       4SM BR OVC003 FM251500 10003KT 4SM BR OVC003=
202212241720 TAF KPWT 241720Z 2418/2518 23007KT 6SM RA OVC007 FM242100 19014G22KT
                       4SM -SHRA BR OVC007 FM250500 20007KT 4SM
                       BR OVC003=
202212241140 TAF KPWT 241140Z 2412/2512 19007KT 3SM -RA BR OVC003 FM241600 20008G16KT
                       2SM RA BR OVC005 FM242100 19014G22KT 4SM
                       -SHRA BR OVC007 FM250500 20007KT 1SM BR
                       OVC003=
202212240534 TAF KPWT 240534Z 2406/2506 19007KT 3SM BR VCSH OVC004 FM241600
                       20008G15KT 2SM RA BR OVC005 FM242100 19014G22KT
                       4SM -SHRA BR OVC007 FM250500 20007KT 2SM
                       BR OVC003=
202212232321 TAF KPWT 232321Z 2400/2424 19009KT 3SM -RA BR OVC003 FM240600 19007KT
                       3SM -RA BR OVC007 FM241600 20008G15KT 2SM
                       RA BR OVC005 FM242100 19014G22KT 4SM -SHRA
                       BR OVC007=
202212231936 KPWT 231936Z 2320/2418 20009KT 3SM -FZDZ BR OVC004 FM232200 22006KT
                       4SM -DZ BR OVC007 FM240000 19009KT 3SM -RA
                       BR OVC005 FM240600 19007KT 3SM -RA BR OVC015
                       FM241600 20008G15KT 2SM -RA BR OVC015=
202212231741 TAF KPWT 231741Z 2318/2418 20006KT 3SM -FZDZ BR OVC004 FM232000
                       19006KT 6SM -DZ BR OVC007 FM240000 19009KT
                       3SM -RA BR OVC005 FM240600 19007KT 3SM -RA
                       BR OVC015 FM241600 20008G15KT 2SM -RA BR
                       OVC015=
202212231519 KPWT 231519Z 2315/2412 19004KT 3SM -FZDZ BR OVC004 FM231800 15006KT
                       5SM -FZDZ BR OVC007 FM232000 19006KT P6SM
                       -RA OVC010 FM240000 20009KT 3SM -RA BR OVC005
                       FM240900 20007KT 3SM -RA BR OVC004=
202212231146 TAF KPWT 231146Z 2312/2412 08005KT 4SM -FZRA BR OVC025 FM231400
                       VRB03KT P6SM FZRA OVC015 FM231600 15006KT
                       5SM -FZRA BR OVC008 FM232000 19006KT P6SM
                       -RA OVC010 FM240000 20009KT 3SM -RA BR OVC005
                       FM240900 20007KT 3SM -RA BR OVC004=
202212230520 TAF KPWT 230520Z 2306/2406 03006KT P6SM -SN OVC040 FM231000 03006KT
                       P6SM -FZRA OVC030 FM231600 15006KT 5SM -FZRA
                       BR OVC010 FM232000 17006KT P6SM -RA OVC010=
202212222323 TAF KPWT 222323Z 2300/2324 02006KT P6SM OVC080 FM230600 03006KT
                       5SM -SN BR OVC050 FM230800 03006KT P6SM
                       -FZRA OVC030 FM231100 17004KT 5SM -FZRA
                       BR OVC010 FM232000 17006KT P6SM -RA OVC010=
202212221727 TAF KPWT 221727Z 2218/2318 03008KT P6SM BKN200 FM222200 03010KT
                       P6SM BKN100 OVC200 FM230600 03006KT 5SM
                       -SN BR OVC050 FM230800 03006KT P6SM -FZRA
                       OVC030 FM231100 17004KT 5SM -FZRA BR OVC010=
202212221148 TAF KPWT 221148Z 2212/2312 02010KT P6SM SCT250 FM221600 03011G17KT
                       P6SM SCT020 BKN100 FM222000 03015KT P6SM
                       OVC080 FM230600 03006KT 5SM -SN OVC050 FM230800
                       03006KT 4SM -FZRA OVC030=
202212220535 TAF KPWT 220535Z 2206/2306 03010KT P6SM FEW015 SCT250 FM221500
                       04012KT P6SM SCT020 BKN100 FM222000 03015KT
                       P6SM OVC080=
202212212320 TAF KPWT 212320Z 2200/2224 03012KT P6SM SCT050 FM220200 02008KT
                       P6SM SCT040 BKN250 FM221000 03008KT P6SM
                       SCT030 BKN250 FM221400 03006KT P6SM SCT025
                       OVC100=
202212211721 TAF KPWT 211721Z 2118/2218 03011KT P6SM SCT025 BKN045
                      TEMPO 2118/2122 -SN SCT015 BKN030 FM212200
                       03008KT P6SM SCT025 BKN050 FM220200 02005KT
                       P6SM BKN040 BKN250 FM221000 03004KT P6SM
                       SCT030 BKN250 FM221400 VRB03KT P6SM SCT025
                       OVC100=
202212211144 TAF KPWT 211144Z 2112/2212 VRB03KT P6SM OVC026 FM211800 03009KT
                       P6SM SCT015 BKN025 FM212200 03008KT P6SM
                       SCT025 BKN040 FM220200 02005KT P6SM BKN040
                       BKN250=
202212210859 KPWT 210859Z 2109/2206 03009KT P6SM VCSH SCT010 OVC020
                      TEMPO 2109/2110 6SM -SN BR BKN010 FM211200
                       VRB03KT P6SM VCSH OVC015 FM211900 02009KT
                       P6SM SCT015 BKN025 FM212200 03008KT P6SM
                       SCT025 BKN040 FM220400 02005KT P6SM BKN040
                       BKN250=
202212210533 TAF KPWT 210533Z 2106/2206 03003KT P6SM VCSH SCT010 OVC020
                      TEMPO 2106/2110 4SM -SN BR BKN010 FM211200
                       VRB03KT P6SM VCSH OVC015 FM211900 02009KT
                       P6SM SCT015 BKN025 FM212200 03008KT P6SM
                       SCT025 BKN040 FM220400 02005KT P6SM BKN040
                       BKN250=
202212210043 KPWT 210043Z 2101/2124 03006KT 4SM BR SCT005 OVC010
                      TEMPO 2101/2105 1SM -SN BR FM210800 03006KT
                       2SM BR OVC004 FM211200 VRB03KT 2SM BR OVC002
                       FM211900 03006KT P6SM SCT005 OVC015=
202212210024 KPWT 210024Z 2100/2124 03006KT 4SM BR SCT005 OVC010 FM210800 03006KT
                       2SM BR OVC004 FM211200 VRB03KT 2SM BR OVC002
                       FM211900 03006KT P6SM SCT005 OVC015=
202212202320 TAF KPWT 202320Z 2100/2124 03008KT 2SM -SN BR OVC005 FM210200 03006KT
                       4SM BR SCT005 OVC010 FM210800 03006KT 2SM
                       BR OVC004 FM211200 VRB03KT 2SM BR OVC002
                       FM211900 03006KT P6SM SCT005 OVC015=
202212201811 KPWT 201811Z 2018/2118 03008KT 5SM -SN BR OVC010
                      TEMPO 2018/2022 2SM -SN BR OVC005 FM210100
                       03006KT 4SM BR SCT005 OVC010 FM210800 03006KT
                       2SM BR OVC004 FM211200 VRB03KT 2SM BR OVC002=
202212201720 TAF KPWT 201720Z 2018/2118 03008KT 2SM -SN OVC005 FM210100 03006KT
                       4SM BR SCT005 OVC010 FM210800 03006KT 2SM
                       BR OVC004 FM211200 VRB03KT 2SM BR OVC002=
202212201550 KPWT 201550Z 2016/2112 18006KT 5SM -SN OVC006
                      TEMPO 2016/2018 1SM -SN BR OVC003 FM201800
                       03008KT 2SM -SN OVC005 FM210100 03006KT
                       4SM BR SCT005 OVC010 FM210800 03006KT 2SM
                       BR OVC004=
202212201143 TAF KPWT 201143Z 2012/2112 18006KT 5SM -SN OVC006 FM201800 03008KT
                       2SM -SN OVC005 FM210100 03006KT 4SM BR SCT005
                       OVC010 FM210800 03006KT 2SM BR OVC004=
202212200535 TAF KPWT 200535Z 2006/2106 03004KT 2SM -SN BR SCT005 OVC010
                      TEMPO 2006/2010 BKN005 FM201000 VRB03KT 2SM
                       -SN BR OVC007 FM201500 16010KT 2SM -RASN
                       BR OVC010 FM201900 03008KT 2SM -SN OVC005
                       FM210300 03003KT 4SM BR VCSH SCT005 OVC010=
202212192333 TAF KPWT 192333Z 2000/2024 05004KT 4SM -SN BR SCT006 OVC015 FM200300
                       03003KT 1 1/2SM -SN BR OVC025 FM200600 05006KT
                       2SM -SN OVC008 FM201400 02003KT 2SM -SN
                       BR SCT006 BKN012 OVC020 FM201800 16010KT
                       2SM -SN BR OVC015=
202212191747 TAF KPWT 191747Z 1918/2018 05006KT P6SM SCT020 OVC040
                      TEMPO 1918/1920 6SM -SN BKN030 OVC050 FM192000
                       05006KT P6SM BKN015 OVC030 FM200600 05006KT
                       2SM -SN OVC008 FM201400 02003KT 2SM -SN
                       SCT006 BKN012 OVC020=
202212191412 KPWT 191412Z 1914/2012 05006KT P6SM SCT020 OVC040
                      TEMPO 1914/1918 5SM -SN BKN020 OVC040 FM192000
                       05006KT P6SM BKN015 OVC030 FM200600 05006KT
                       2SM -SN OVC008=
202212191137 TAF KPWT 191137Z 1912/2012 05006KT P6SM SCT020 OVC040 FM191500
                       05006KT 5SM -SN BKN020 OVC040 FM192000 05006KT
                       P6SM BKN015 OVC030=
202212190523 TAF KPWT 190523Z 1906/2006 05007KT P6SM SCT007 BKN015 OVC030
                      TEMPO 1906/1910 2SM -SN BR BKN007 OVC015
                       FM191000 05007KT 2SM -SN BR BKN010 OVC020
                       FM192100 05007KT P6SM BKN015 OVC030=
202212190307 KPWT 190307Z 1903/1924 06008KT P6SM SCT012 BKN040
                      TEMPO 1903/1907 BKN012 OVC040 FM190700 04005KT
                       P6SM OVC015 FM191200 02003KT P6SM OVC007=
202212190135 KPWT 190135Z 1902/1924 06008KT P6SM BKN022 BKN050 FM190900 04005KT
                       P6SM OVC015 FM191200 02003KT P6SM OVC007=
202212182342 TAF KPWT 182342Z 1900/1924 21006KT P6SM SCT035 BKN050 FM190900
                       00000KT P6SM OVC015 FM191200 02003KT P6SM
                       OVC007=
202212181739 TAF KPWT 181739Z 1818/1918 21008KT P6SM OVC004 FM190200 03008KT
                       P6SM SCT004 OVC010 FM191200 03010KT P6SM
                       SCT010 OVC025=
202212181133 TAF KPWT 181133Z 1812/1912 VRB03KT P6SM OVC004
                      TEMPO 1814/1818 3SM BR FM190000 03008KT P6SM
                       OVC006=
202212180529 TAF KPWT 180529Z 1806/1906 19003KT 4SM BR OVC003
                      TEMPO 1806/1810 1/2SM FG VV002 FM190000 01007KT
                       P6SM OVC007=
202212172344 TAF KPWT 172344Z 1800/1824 VRB03KT 6SM BR BKN007 FM180400 13005KT
                       P6SM OVC003 FM182100 20007KT P6SM OVC007=
202212171736 TAF KPWT 171736Z 1718/1818 19003KT 2SM BR OVC005 FM180000 18003KT
                       6SM BR OVC007=
202212171300 KPWT 171300Z 1713/1812 28003KT 6SM BR OVC005 FM171700 19003KT 4SM
                       BR OVC003 FM172000 20005KT 6SM BR OVC007
                       FM180000 18003KT 6SM BR OVC007=
202212171120 TAF KPWT 171120Z 1712/1812 00000KT 1SM BR OVC003
                      TEMPO 1712/1716 1/2SM FG OVC003 FM171700
                       19003KT 1/2SM FG OVC003 FM172000 20005KT
                       6SM BR OVC007 FM180000 18003KT 6SM BR OVC007=
202212170521 TAF KPWT 170521Z 1706/1806 00000KT 3SM BR BKN005 FM170900 00000KT
                       1/4SM FZFG OVC001 FM172000 20005KT 6SM BR
                       OVC007=
202212170042 KPWT 170042Z 1701/1724 VRB03KT P6SM BKN015 FM170500 00000KT 2SM
                       BR BKN003 FM170900 00000KT 1/4SM FG OVC001
                       FM172000 20005KT 6SM BR OVC007=
202212162340 TAF KPWT 162340Z 1700/1724 VRB03KT P6SM SCT250 FM170500 00000KT
                       2SM BR BKN003 FM170900 00000KT 1/4SM FG
                       OVC001 FM172000 20005KT 6SM BR OVC007=
202212161738 TAF KPWT 161738Z 1618/1718 00000KT 2SM BR OVC002 FM161900 03003KT
                       4SM BR BKN010 BKN250 FM162000 VRB03KT P6SM
                       SCT250 FM171000 21002KT 4SM BR BKN005=
202212161311 KPWT 161311Z 1613/1712 04005KT P6SM SCT250
                      TEMPO 1613/1615 1/2SM FG OVC005 FM161500
                       00000KT 1/2SM FG OVC002 FM161900 03003KT
                       4SM BR BKN010 BKN250 FM162200 VRB03KT P6SM
                       SCT250 FM171000 21002KT 5SM BR BKN005=
202212161120 TAF KPWT 161120Z 1612/1712 04005KT P6SM SCT250
                      TEMPO 1612/1615 4SM BR OVC005 FM161500 00000KT
                       1/2SM FG OVC002 FM161900 03003KT 4SM BR
                       BKN010 BKN250 FM162200 VRB03KT P6SM SCT250
                       FM171000 21002KT 5SM BR BKN005=
202212160933 KPWT 160933Z 1610/1706 05005KT P6SM BKN006 FM161200 04003KT 4SM
                       BR OVC002 FM161500 00000KT 1/2SM FG OVC001
                       FM161900 03003KT 4SM BR BKN010 BKN250 FM162200
                       VRB03KT P6SM SCT250=
202212160527 TAF KPWT 160527Z 1606/1706 05005KT P6SM SCT250 FM161200 04003KT
                       4SM BR OVC002 FM161500 00000KT 1/2SM FG
                       OVC001 FM161900 03003KT 4SM BR BKN010 BKN250
                       FM162200 VRB03KT P6SM SCT250=
202212152340 TAF KPWT 152340Z 1600/1624 05009KT P6SM SCT250 FM160100 04006KT
                       P6SM SCT250 FM161200 04003KT 4SM BR OVC002
                       FM161500 00000KT 1/2SM FG OVC001 FM161900
                       03003KT 4SM BR BKN010 BKN250=
202212151739 TAF KPWT 151739Z 1518/1618 04008KT P6SM OVC015 FM152000 03006KT
                       P6SM SCT250 FM160100 03003KT P6SM SCT250
                       FM161200 04003KT 4SM BR OVC001 FM161500
                       00000KT 1/2SM FG OVC001=
202212151120 TAF KPWT 151120Z 1512/1612 04008KT P6SM OVC015
                      TEMPO 1512/1516 2SM BR BKN010 FM152000 03006KT
                       P6SM SCT250 FM160100 VRB03KT P6SM SCT250=
202212150520 TAF KPWT 150520Z 1506/1606 02005KT P6SM BKN018 FM151000 02008KT
                       5SM BR BKN015
                      TEMPO 1510/1514 2SM BR BKN010 FM152100 02008KT
                       P6SM SCT250=
202212142323 TAF KPWT 142323Z 1500/1524 02007KT P6SM OVC025 FM150700 04004KT
                       P6SM BKN030
                      TEMPO 1511/1515 4SM BR SCT007 FM152100 04007KT
                       P6SM FEW030 SCT250=
202212141840 KPWT 141840Z 1419/1518 04008KT P6SM OVC025 FM150000 02007KT P6SM
                       BKN035 FM150700 VRB03KT 6SM BR SCT250 FM151100
                       00000KT 2SM BR BKN007=
202212141721 TAF KPWT 141721Z 1418/1518 04004KT P6SM BKN012 BKN030 FM142000
                       05006KT P6SM BKN035 FM150000 02007KT P6SM
                       SCT040 FM150700 VRB03KT 6SM BR SCT250 FM151100
                       00000KT 2SM BR BKN007=
202212141426 KPWT 141426Z 1414/1512 VRB03KT P6SM OVC020
                      TEMPO 1414/1416 3SM BR OVC005 FM141800 34006KT
                       P6SM BKN040 FM150000 02007KT P6SM SCT040
                       FM150700 VRB03KT P6SM SCT250=
202212141120 TAF KPWT 141120Z 1412/1512 VRB03KT P6SM OVC020
                      TEMPO 1412/1416 3SM BR SCT005 BKN015 FM141800
                       34006KT P6SM BKN040 FM150000 02007KT P6SM
                       SCT040 FM150700 VRB03KT P6SM SCT250=
202212140520 TAF KPWT 140520Z 1406/1506 VRB03KT P6SM OVC030 FM141200 00000KT
                       3SM BR SCT005 BKN030 FM141800 34006KT P6SM
                       BKN040 FM150000 02007KT P6SM SCT040=
202212132321 TAF KPWT 132321Z 1400/1424 VRB03KT P6SM BKN035 FM140500 00000KT
                       6SM BR BKN016 OVC025 FM140900 00000KT 5SM
                       BR OVC010 FM142100 03004KT P6SM BKN022 BKN050=
202212131723 TAF KPWT 131723Z 1318/1418 VRB03KT P6SM BKN030 BKN200 FM132100
                       VRB03KT P6SM SCT035 BKN050 FM140000 VRB03KT
                       P6SM SCT040 BKN120 FM140500 00000KT 4SM
                       BR OVC012=
202212131132 KPWT 131132Z 1312/1412 00000KT P6SM OVC030
                      TEMPO 1312/1316 1 1/2SM BR SCT015 BKN025
                       FM131700 VRB03KT P6SM BKN030 BKN200 FM140000
                       VRB03KT P6SM SCT040 BKN120 FM140500 00000KT
                       4SM BR OVC015=
202212131120 TAF KPWT 131120Z 1312/1412 00000KT P6SM OVC030
                      TEMPO 1312/1316 3SM BR SCT015 BKN025 FM131700
                       VRB03KT P6SM BKN030 BKN200 FM140000 VRB03KT
                       P6SM SCT040 BKN120 FM140500 00000KT 4SM
                       BR OVC015=
202212130520 TAF KPWT 130520Z 1306/1406 00000KT P6SM BKN030 FM130900 00000KT
                       5SM BR BKN025 FM131200 00000KT 3SM BR SCT015
                       BKN025 FM131700 VRB03KT P6SM BKN030 BKN200
                       FM140000 VRB03KT P6SM SCT040 BKN120=
202212122323 TAF KPWT 122323Z 1300/1324 04005KT P6SM BKN035 FM130400 00000KT
                       P6SM FEW015 OVC027 FM130800 00000KT 6SM
                       BR OVC012 FM131200 00000KT 4SM BR OVC008
                       FM131800 VRB03KT P6SM BKN015 BKN030=
202212121740 TAF KPWT 121740Z 1218/1318 02006KT P6SM SCT007 BKN035 FM122200
                       04007KT P6SM BKN040 FM130500 00000KT 6SM
                       BR OVC010 FM130900 00000KT 5SM BR OVC005=
202212121127 TAF KPWT 121127Z 1212/1312 03007KT P6SM SCT010 OVC040 FM121400
                       02002KT P6SM OVC025 FM122200 04007KT P6SM
                       SCT040 FM130500 00000KT 6SM BR OVC015=
202212120540 TAF KPWT 120540Z 1206/1306 04006KT P6SM OVC035 FM121200 03007KT
                       6SM BR BKN012 OVC025 FM121800 04007KT P6SM
                       SCT015 BKN030 FM122200 04007KT P6SM SCT040
                       FM130300 02006KT P6SM BKN017=
202212120254 KPWT 120254Z 1203/1224 03008KT P6SM OVC035 FM120700 03007KT 6SM
                       BR BKN012 OVC025 FM121700 04007KT P6SM SCT015
                       BKN030 FM122200 04007KT P6SM SCT035=
202212112320 TAF KPWT 112320Z 1200/1224 04007KT P6SM VCSH SCT012 OVC040
                      TEMPO 1200/1204 BKN012 OVC030 FM120400 04007KT
                       P6SM BKN012 OVC030 FM121700 04007KT P6SM
                       SCT015 BKN030 FM122200 04007KT P6SM SCT035=
202212111727 TAF KPWT 111727Z 1118/1218 00000KT P6SM SCT002 BKN012 OVC030
                      TEMPO 1118/1121 2SM -SHRA BR BKN002 OVC012
                       FM112200 36006KT P6SM BKN020 BKN040 FM120600
                       00000KT P6SM BKN015 FM121700 02008KT P6SM
                       SCT020 SCT040=
202212111537 KPWT 111537Z 1116/1212 00000KT P6SM OVC013 FM112000 36006KT P6SM
                       BKN020 BKN040 FM120800 00000KT 4SM BR OVC007=
202212111133 TAF KPWT 111133Z 1112/1212 VRB02KT 4SM BR SCT020 BKN050
                      TEMPO 1112/1115 3/4SM BR FM111700 00000KT
                       2SM BR OVC015 FM111900 00000KT 4SM BR OVC015
                       FM120800 00000KT 4SM BR OVC007=
202212110919 KPWT 110919Z 1109/1206 20005KT 1 1/2SM BR VCSH BKN004 FM111200
                       02006KT P6SM BKN020 FM111800 03007KT P6SM
                       SCT025 BKN040 FM112200 36007KT P6SM BKN030
                       FM120300 00000KT 6SM BR OVC015=
202212110606 KPWT 110606Z 1106/1206 20005KT 6SM -RA BR BKN004 FM111200 02006KT
                       P6SM BKN020 FM111800 03007KT P6SM SCT025
                       BKN040 FM112200 36007KT P6SM BKN030 FM120300
                       00000KT 6SM BR OVC015=
202212110535 TAF KPWT 110535Z 1106/1206 18004KT P6SM VCSH OVC012 FM111200 02006KT
                       P6SM BKN020 FM111800 03007KT P6SM SCT025
                       BKN040 FM112200 36007KT P6SM BKN030 FM120300
                       00000KT 6SM BR OVC015=
202212110308 KPWT 110308Z 1103/1124 VRB03KT P6SM OVC025 FM110400 VRB03KT P6SM
                       BKN020 OVC030 FM111800 VRB03KT P6SM SCT025
                       BKN040 FM112200 36007KT P6SM BKN050=
202212102320 TAF KPWT 102320Z 1100/1124 18005KT P6SM -RA OVC030
                      TEMPO 1100/1104 4SM -RA BR OVC020 FM110400
                       VRB03KT P6SM VCSH BKN020 OVC040 FM111800
                       VRB03KT P6SM SCT025 BKN040 FM112200 36007KT
                       P6SM BKN050=
202212101720 TAF KPWT 101720Z 1018/1118 18005KT P6SM -RA OVC022 FM110400 00000KT
                       4SM BR OVC015=
202212101403 KPWT 101403Z 1014/1112 04005KT 6SM -RA BKN025 FM101500 18004KT
                       4SM -RA BR OVC025 FM110400 00000KT 4SM BR
                       OVC015=
202212101126 TAF KPWT 101126Z 1012/1112 04005KT 6SM -RA BKN050 FM101500 18004KT
                       4SM -RA BR OVC025 FM110400 00000KT 4SM BR
                       OVC015=
202212100534 TAF KPWT 100534Z 1006/1106 05005KT P6SM -RA OVC015 FM101200 16010KT
                       6SM -RA BR OVC015 FM101900 17010KT P6SM
                       VCSH BKN012 OVC025 FM110300 19004KT 6SM
                       BR BKN017=
202212092339 TAF KPWT 092339Z 1000/1024 VRB04KT P6SM -RA OVC022 FM100200 06009KT
                       6SM -RA BR OVC014 FM100500 05011KT 5SM -RA
                       BR OVC010 FM101100 15010KT 6SM -RA BR OVC009
                       FM101900 18009KT P6SM VCSH BKN012 OVC025=
202212091731 TAF KPWT 091731Z 0918/1018 18007KT P6SM SCT012 OVC035
                      TEMPO 0918/0920 BKN010 FM092200 09006KT P6SM
                       VCSH BKN035 OVC060 FM100200 06009KT 6SM
                       -RA BR OVC025 FM100500 05011KT 5SM -RA BR
                       OVC010 FM101100 15010KT 6SM -RA BR OVC009=
202212091135 TAF KPWT 091135Z 0912/1012 20006KT 6SM -SHRA BR BKN003 OVC015 FM091500
                       19005KT P6SM VCSH BKN005 OVC010 FM091800
                       19007KT P6SM BKN015 OVC025 FM100000 07006KT
                       5SM -RA BR OVC015 FM100500 10008KT 3SM -RA
                       BR OVC007=
202212090532 TAF KPWT 090532Z 0906/1006 19006KT P6SM BKN010 FM090800 20003KT
                       5SM BR VCSH OVC007 FM091900 18005KT P6SM
                       OVC015 FM100000 07005KT 5SM RA BR OVC015
                       FM100500 06006KT 3SM RA BR OVC010=
202212082332 TAF KPWT 082332Z 0900/0924 19007KT P6SM VCSH BKN010 OVC020 FM090300
                       19005KT P6SM -SHRA BKN007 OVC020 FM090900
                       20003KT 5SM BR VCSH OVC007 FM091900 18005KT
                       P6SM SCT015 BKN030=
202212081732 TAF KPWT 081732Z 0818/0918 20008KT P6SM SCT008 OVC015
                      TEMPO 0818/0821 -SHRA BKN006 OVC012 FM082100
                       19008KT P6SM -SHRA BKN018 OVC025 FM090300
                       19005KT P6SM -SHRA BKN012 OVC020 FM090900
                       20003KT 5SM BR VCSH OVC007=
202212081553 KPWT 081553Z 0816/0912 20008KT P6SM SCT008 OVC015
                      TEMPO 0816/0820 -SHRA BKN006 OVC012 FM082000
                       19008KT P6SM -SHRA BKN018 OVC025 FM090300
                       19005KT P6SM -SHRA BKN012 OVC020 FM090900
                       20003KT 5SM BR VCSH OVC007=
202212081137 TAF KPWT 081137Z 0812/0912 21010KT P6SM -RA OVC015 FM081600 19010KT
                       4SM -SHRA BR SCT008 OVC012 FM082100 19008KT
                       P6SM -SHRA BKN018 OVC025 FM090300 19005KT
                       P6SM -SHRA BKN012 OVC020 FM090900 20003KT
                       5SM BR VCSH OVC007=
202212080540 TAF KPWT 080540Z 0806/0906 19006KT P6SM BKN035 OVC050 FM080800
                       19010KT P6SM -RA BKN020 OVC040 FM081600
                       19010KT P6SM -SHRA BKN012 OVC025 FM082100
                       19010KT P6SM VCSH BKN025=
202212072336 TAF KPWT 072336Z 0800/0824 18006KT P6SM BKN035 OVC050 FM080800
                       18010KT P6SM -RA BKN020 OVC040 FM081600
                       19008KT P6SM -SHRA BKN012 OVC025 FM082100
                       19007KT P6SM VCSH BKN025=
202212071720 TAF KPWT 071720Z 0718/0818 19006KT P6SM VCSH SCT022 OVC035 FM071900
                       19005KT P6SM SCT025 OVC040 FM072300 18006KT
                       P6SM BKN035 OVC050 FM080800 18010KT P6SM
                       -RA BKN020 OVC040 FM081500 19008KT P6SM
                       -SHRA BKN014 OVC025=
202212071130 TAF KPWT 071130Z 0712/0812 19006KT 6SM BR VCSH BKN003 OVC012 FM071900
                       19005KT P6SM SCT006 BKN012 OVC020 FM072300
                       18006KT P6SM BKN035 OVC050 FM080800 18010KT
                       P6SM -RA BKN020 OVC040=
202212070857 KPWT 070857Z 0709/0806 20005KT 1/2SM FG VCSH OVC003
                      TEMPO 0709/0711 -RA FM071700 18006KT 3SM
                       BR OVC004 FM071900 18006KT P6SM SCT006 BKN012
                       OVC020 FM080000 18006KT P6SM SCT020 BKN035
                       OVC050=
202212070540 TAF KPWT 070540Z 0706/0806 00000KT 1/2SM FG OVC002 FM071700 18006KT
                       3SM BR OVC004 FM071900 18006KT P6SM SCT006
                       BKN012 OVC020 FM080000 18006KT P6SM SCT020
                       BKN035 OVC050=
202212062320 TAF KPWT 062320Z 0700/0724 14006KT P6SM BKN008 OVC015 FM071800
                       18012KT P6SM BKN015 BKN040 OVC080=
202212062158 KPWT 062158Z 0622/0718 20006KT P6SM OVC008 FM070000 20006KT P6SM
                       BKN012 OVC040 FM070900 18008KT 5SM BR BKN005
                       OVC012=
202212062011 KPWT 062011Z 0620/0718 21005KT 5SM BR BKN005 OVC015
                      TEMPO 0620/0622 3SM BR OVC002 FM070000 21005KT
                       P6SM SCT005 BKN015 OVC040 FM070900 16008KT
                       5SM BR BKN005 OVC012=
202212061722 TAF KPWT 061722Z 0618/0718 00000KT 1/2SM FG OVC002 FM062000 15005KT
                       3SM BR BKN005 OVC030 FM062200 15005KT P6SM
                       SCT008 BKN018 OVC045 FM070300 16007KT P6SM
                       SCT005 BKN015 OVC040 FM071200 16008KT 5SM
                       BR BKN005 OVC012=
202212061404 KPWT 061404Z 0614/0712 21004KT P6SM VCSH OVC005
                      TEMPO 0614/0616 1/2SM FG OVC003 FM061800
                       19004KT P6SM SCT006 OVC011=
202212061123 KPWT 061123Z 0611/0712 21004KT P6SM VCSH OVC005
                      TEMPO 0612/0616 1SM -RA BR OVC003 FM061800
                       19004KT P6SM SCT006 OVC011=
202212061120 TAF KPWT 061120Z 0612/0712 21004KT P6SM VCSH OVC005
                      TEMPO 0612/0616 -RA FM061800 19004KT P6SM
                       SCT006 OVC011=
202212061000 KPWT 061000Z 0610/0706 00000KT P6SM VCSH OVC030
                      TEMPO 0610/0612 2SM -RA BR BKN002 FM061200
                       VRB03KT 3SM BR BKN006 OVC011 FM061900 19006KT
                       P6SM SCT006 OVC011=
202212060532 TAF KPWT 060532Z 0606/0706 05006KT P6SM OVC020 FM061200 VRB03KT
                       3SM BR BKN006 OVC011 FM061900 19006KT P6SM
                       SCT006 OVC011=
202212052325 TAF KPWT 052325Z 0600/0624 00000KT 5SM BR BKN007 OVC012 FM060300
                       00000KT 2SM BR BKN005 OVC010 FM061800 19006KT
                       P6SM BKN007 OVC015=
202212051721 TAF KPWT 051721Z 0518/0618 33003KT P6SM BKN025 OVC035 FM052100
                       03003KT P6SM BKN015 OVC025 FM060300 00000KT
                       2SM BR BKN007 OVC015=
202212051408 KPWT 051408Z 0514/0612 00000KT 4SM BR SCT002 OVC024
                      TEMPO 0514/0516 2SM BR BKN002 FM051600 00000KT
                       3SM BR OVC007 FM060300 00000KT 2SM BR OVC004=
202212051303 KPWT 051303Z 0513/0612 00000KT 4SM BR OVC026 FM051500 00000KT 3SM
                       BR OVC007 FM060300 00000KT 2SM BR OVC004=
202212051126 TAF KPWT 051126Z 0512/0612 00000KT 5SM BR SCT005 BKN030 FM051500
                       00000KT 4SM BR OVC007 FM060300 00000KT 2SM
                       BR OVC004=
202212050903 KPWT 050903Z 0509/0606 00000KT P6SM BKN020 FM051000 00000KT 2SM
                       BR OVC003 FM051400 00000KT 4SM BR OVC010=
202212050705 KPWT 050705Z 0507/0606 00000KT 6SM BR OVC035 FM051000 00000KT 2SM
                       BR OVC003 FM051400 00000KT 4SM BR OVC010=
202212050520 TAF KPWT 050520Z 0506/0606 08003KT P6SM -RA FEW005 BKN020 FM050700
                       00000KT 4SM BR OVC009 FM051000 00000KT 2SM
                       BR OVC003 FM051400 00000KT 4SM BR OVC010=
202212042330 TAF KPWT 042330Z 0500/0524 02003KT P6SM VCSH SCT030 OVC060 FM050300
                       VRB03KT 6SM BR OVC010 FM050600 VRB02KT 2SM
                       BR OVC007 FM051000 00000KT 1 1/2SM BR OVC003=
202212042205 KPWT 042205Z 0422/0518 02007KT P6SM -RASN OVC030
                      TEMPO 0422/0423 2SM -SN BR FEW005 FM042300
                       02003KT P6SM VCSH SCT030 OVC060 FM050200
                       VRB03KT P6SM OVC015 FM050600 VRB02KT 6SM
                       BR OVC007=
202212042106 KPWT 042106Z 0421/0518 02007KT P6SM -RASN OVC060
                      TEMPO 0421/0422 2SM -SN BR FEW010 FM042200
                       02003KT P6SM VCSH SCT030 OVC060 FM050200
                       VRB03KT P6SM OVC015 FM050600 VRB02KT 6SM
                       BR OVC007=
202212042010 KPWT 042010Z 0420/0518 02007KT P6SM -RASN OVC060
                      TEMPO 0420/0421 2SM -SN BR FEW010 FM042100
                       02003KT P6SM VCSH SCT030 OVC060 FM050200
                       VRB03KT P6SM OVC015 FM050600 VRB02KT 6SM
                       BR OVC007=
202212042002 KPWT 042002Z 0420/0518 02007KT P6SM -RASN OVC060
                      TEMPO 0420/0421 4SM -SN BR FEW010 FM042100
                       02003KT P6SM VCSH SCT030 OVC060 FM050200
                       VRB03KT P6SM OVC015 FM050600 VRB02KT 6SM
                       BR OVC007=
202212041723 TAF KPWT 041723Z 0418/0518 02006KT P6SM OVC100 FM041900 02007KT
                       P6SM OVC060 FM042100 02003KT P6SM VCSH SCT030
                       OVC060 FM050200 VRB03KT P6SM OVC015 FM050600
                       VRB02KT 6SM BR OVC007=
202212041120 TAF KPWT 041120Z 0412/0512 02010KT P6SM SCT100 BKN200 FM041900
                       02004KT P6SM OVC060 FM042100 02003KT P6SM
                       VCSH SCT030 OVC060
                      TEMPO 0421/0501 -SN OVC030 FM050200 VRB03KT
                       P6SM OVC015=
202212040520 TAF KPWT 040520Z 0406/0506 04010KT P6SM SKC FM041000 03003KT P6SM
                       SKC FM041600 VRB02KT 6SM BR BKN100 FM042200
                       03002KT P6SM OVC025 FM050000 00000KT P6SM
                       VCSH OVC015=
202212032320 TAF KPWT 032320Z 0400/0424 02010KT P6SM SCT150 FM040600 02003KT
                       P6SM SKC FM041000 03002KT P6SM SKC FM041600
                       00000KT 6SM BR BKN100=
202212031720 TAF KPWT 031720Z 0318/0418 03007KT P6SM BKN100 FM032100 02004KT
                       P6SM SCT250 FM040600 02003KT P6SM SCT120
                       FM041000 03002KT P6SM SKC=
202212031123 TAF KPWT 031123Z 0312/0412 04007KT 6SM -SHSN SCT010 BKN025 FM031500
                       03007KT P6SM BKN050 FM032100 02012KT P6SM
                       SCT250 FM040600 02009KT P6SM SCT120=
202212030520 TAF KPWT 030520Z 0306/0406 02005KT 2SM -SN BR BKN005 OVC008
                      TEMPO 0306/0308 3/4SM -SN BR BKN002 FM030900
                       03007KT 3SM -SN OVC015 FM031200 04002KT
                       5SM -SN OVC020 FM031500 03003KT P6SM OVC050
                       FM032100 02009KT P6SM FEW240=
202212030425 KPWT 030425Z 0304/0324 03005KT 1SM -SN BR BKN002 BKN010 FM030700
                       04007KT 3SM -SN OVC015 FM031200 04002KT
                       5SM -SN OVC020 FM031500 03003KT P6SM OVC040=
202212030255 KPWT 030255Z 0303/0324 03003KT 2SM -SN BR OVC025 FM030700 04007KT
                       3SM -SN OVC015 FM031200 04002KT 5SM -SN
                       OVC020 FM031500 03003KT P6SM OVC040=
202212022324 TAF KPWT 022324Z 0300/0324 00000KT P6SM BKN050 BKN070 FM030200
                       04002KT 6SM -SN BR OVC040 FM030700 04007KT
                       4SM -SN OVC015 FM031200 04002KT 6SM -SN
                       OVC020 FM031500 03003KT P6SM OVC040=
202212021944 KPWT 021944Z 0220/0318 18003KT 2SM -SN BR BKN015 OVC020 FM022100
                       09004KT P6SM VCSH OVC040 FM030200 04003KT
                       6SM -RASN OVC025 FM030700 04007KT 4SM -SN
                       OVC015 FM031200 04002KT 6SM -SN OVC020=
202212021725 TAF KPWT 021725Z 0218/0318 18003KT 5SM BR FEW015 OVC020 FM022100
                       09004KT P6SM VCSH OVC040 FM030200 04003KT
                       6SM -RASN OVC025 FM030700 04007KT 4SM -SN
                       OVC015 FM031200 04002KT 6SM -SN OVC020=
202212021452 KPWT 021452Z 0215/0312 00000KT P6SM VCSH OVC020
                      TEMPO 0215/0217 3SM -SN BR OVC013 FM021700
                       18003KT P6SM VCSH OVC030 FM022100 09004KT
                       P6SM VCSH OVC040 FM030300 04005KT 6SM -RASN
                       OVC027 FM030700 04007KT 4SM -SN OVC015=
202212021133 TAF KPWT 021133Z 0212/0312 00000KT P6SM OVC020 FM021600 18003KT
                       P6SM VCSH OVC030 FM022100 09004KT P6SM VCSH
                       OVC040 FM030300 04005KT 6SM -RASN OVC027
                       FM030700 04007KT 4SM -SN OVC015=
202212020520 TAF KPWT 020520Z 0206/0306 00000KT P6SM BKN050 FM021000 00000KT
                       6SM BR OVC050 FM021600 18003KT P6SM OVC030
                       FM022100 09004KT P6SM OVC050=
202212012320 TAF KPWT 012320Z 0200/0224 03005KT P6SM BKN050 FM020500 00000KT
                       P6SM BKN050 FM021000 00000KT 6SM BR OVC050
                       FM021600 18003KT P6SM OVC050=
202212012127 KPWT 012127Z 0121/0218 03007KT P6SM OVC050 FM020000 03005KT P6SM
                       SCT040 BKN050 FM020500 00000KT P6SM BKN050
                       FM021000 00000KT 6SM BR OVC020=
202212011723 TAF KPWT 011723Z 0118/0218 03006KT P6SM FEW050 BKN070 FM012100
                       03004KT P6SM SCT015 OVC025 FM020000 03005KT
                       P6SM SCT040 BKN050 FM020500 00000KT P6SM
                       BKN050 FM021000 00000KT 6SM BR OVC020=
202212011132 TAF KPWT 011132Z 0112/0212 03006KT P6SM SCT020 OVC035
                      TEMPO 0113/0117 4SM -SN BKN015 OVC030 FM011700
                       03006KT 6SM BR SCT008 BKN022 OVC040 FM012100
                       03006KT P6SM SCT015 OVC025 FM020000 03006KT
                       P6SM SCT040 BKN050 FM020600 VRB03KT 6SM
                       BR BKN010=
202212010951 KPWT 010951Z 0110/0206 VRB03KT 3SM BR SCT008 OVC035
                      TEMPO 0110/0112 4SM -SHSN BR BKN010 FM011200
                       03006KT 3SM -SHSN SCT003 BKN006 OVC012 FM011600
                       03006KT 4SM BR SCT006 BKN012 OVC020 FM012100
                       03006KT P6SM SCT015 OVC025 FM020000 03006KT
                       P6SM SCT050 BKN100=
202212010747 KPWT 010747Z 0108/0206 VRB03KT 3SM BR SCT003 OVC008
                      TEMPO 0108/0111 1SM BR FM011100 03006KT 1SM
                       -SHSN SCT003 BKN006 OVC012 FM011600 03006KT
                       4SM BR SCT006 BKN012 OVC020 FM012100 03006KT
                       P6SM SCT015 OVC025 FM020000 03006KT P6SM
                       SCT050 BKN100=
202212010633 KPWT 010633Z 0107/0206 VRB03KT 6SM BR SCT003 OVC008 FM011000 03006KT
                       1SM -SHSN SCT003 BKN006 OVC012 FM011600
                       03006KT 4SM BR SCT006 BKN012 OVC020 FM012100
                       03006KT P6SM SCT015 OVC025 FM020000 03006KT
                       P6SM SCT050 BKN100=
202212010520 TAF KPWT 010520Z 0106/0206 VRB03KT 3SM BR BKN003 OVC008 FM011000
                       03006KT 1SM -SHSN SCT003 BKN006 OVC012 FM011600
                       03006KT 4SM BR SCT006 BKN012 OVC020 FM012100
                       03006KT P6SM SCT015 OVC025 FM020000 03006KT
                       P6SM SCT050 BKN100=
202212010325 KPWT 010325Z 0103/0124 VRB03KT 1SM BR BKN003 OVC008 FM011000 03006KT
                       2SM -SHSN SCT003 BKN006 OVC012 FM011600
                       03006KT 4SM BR SCT006 BKN012 OVC020 FM012100
                       03006KT P6SM SCT015 OVC025=
202212010106 KPWT 010106Z 0101/0124 23003KT P6SM VCSH OVC030
                      TEMPO 0101/0103 1SM -SN BR BKN005 OVC010
                       FM010300 02004KT P6SM VCSH OVC025 FM010800
                       03003KT P6SM -SHSN BKN015 OVC030 FM011600
                       00000KT P6SM OVC030=
202212010002 KPWT 010002Z 0100/0124 23003KT P6SM VCSH OVC030
                      TEMPO 0100/0101 2SM -SN BR BKN005 OVC010
                       FM010300 02004KT P6SM VCSH OVC025 FM010800
                       03003KT P6SM -SHSN BKN015 OVC030 FM011600
                       00000KT P6SM OVC030=