##########################################################
# Query made at 02/16/2025 00:59:48 UTC
# Time interval: from 03/01/2022 00:00  to 03/31/2022 23:59  UTC
##########################################################

##########################################################
# KPWT, Bremerton National Automatic Weather Observing / Reporting System (United States)
# WMO index: -----. WIGOS ID: Unknown
# Latitude 47-30N. Longitude 122-45W. Altitude 147 m.
##########################################################

###################################
#  METAR/SPECI from KPWT
###################################
202203312356 METAR KPWT 312356Z AUTO 05007KT 10SM SCT045 BKN060 11/02 A3018 RMK AO2 SLP224 T01110022 10117 20072 58013=
202203312256 METAR KPWT 312256Z AUTO 00000KT 10SM OVC065 11/01 A3019 RMK AO2 SLP229 T01060006=
202203312156 METAR KPWT 312156Z AUTO VRB05KT 10SM BKN041 OVC065 12/02 A3020 RMK AO2 SLP232 T01170022=
202203312056 METAR KPWT 312056Z AUTO 20005KT 10SM BKN035 OVC045 10/02 A3021 RMK AO2 SLP237 T01000022 56009=
202203311956 METAR KPWT 311956Z AUTO 20007KT 150V230 10SM BKN032 OVC046 11/03 A3022 RMK AO2 SLP239 T01060028=
202203311927 SPECI KPWT 311927Z AUTO 00000KT 10SM FEW027 OVC044 09/02 A3022 RMK AO2=
202203311920 SPECI KPWT 311920Z AUTO VRB05KT 10SM BKN027 OVC042 08/03 A3022 RMK AO2=
202203311856 METAR KPWT 311856Z AUTO 23006KT 10SM SCT027 SCT034 BKN040 08/03 A3023 RMK AO2 SLP242 T00830033=
202203311827 SPECI KPWT 311827Z AUTO VRB05KT 10SM FEW021 SCT045 08/03 A3023 RMK AO2=
202203311756 METAR KPWT 311756Z AUTO 00000KT 10SM OVC016 08/04 A3024 RMK AO2 SLP247 T00780039 10078 20044 51002=
202203311754 SPECI KPWT 311754Z AUTO 00000KT 10SM BKN016 OVC020 07/04 A3024 RMK AO2=
202203311656 METAR KPWT 311656Z AUTO 00000KT 10SM OVC010 06/03 A3024 RMK AO2 CIG 007V012 SLP249 T00560033=
202203311556 METAR KPWT 311556Z AUTO 14003KT 10SM OVC008 05/04 A3024 RMK AO2 CIG 006V009 SLP246 T00500039=
202203311456 METAR KPWT 311456Z AUTO 20003KT 10SM OVC006 05/04 A3023 RMK AO2 SLP245 T00500039 53003=
202203311423 SPECI KPWT 311423Z AUTO 00000KT 10SM OVC006 05/04 A3023 RMK AO2=
202203311356 METAR KPWT 311356Z AUTO 00000KT 10SM OVC004 04/04 A3022 RMK AO2 SLP242 T00440039=
202203311309 SPECI KPWT 311309Z AUTO 10003KT 10SM OVC004 04/04 A3022 RMK AO2=
202203311256 METAR KPWT 311256Z AUTO 00000KT 10SM OVC006 04/04 A3022 RMK AO2 SLP241 T00440039=
202203311213 SPECI KPWT 311213Z AUTO 00000KT 10SM BKN008 OVC040 04/04 A3022 RMK AO2=
202203311205 SPECI KPWT 311205Z AUTO 00000KT 10SM SCT008 OVC040 04/04 A3022 RMK AO2=
202203311156 METAR KPWT 311156Z AUTO 00000KT 10SM FEW029 OVC040 04/04 A3022 RMK AO2 SLP241 60000 70001 T00440039 10061 20033 50001=
202203311145 SPECI KPWT 311145Z AUTO 00000KT 10SM FEW009 OVC040 04/04 A3022 RMK AO2=
202203311117 SPECI KPWT 311117Z AUTO 00000KT 10SM SCT009 OVC017 04/04 A3023 RMK AO2=
202203311056 METAR KPWT 311056Z AUTO 17003KT 10SM OVC009 04/04 A3022 RMK AO2 CIG 007V012 SLP241 T00440039=
202203310956 METAR KPWT 310956Z AUTO 00000KT 10SM OVC009 04/04 A3023 RMK AO2 SLP241 T00440039=
202203310923 SPECI KPWT 310923Z AUTO 00000KT 9SM BKN009 03/03 A3022 RMK AO2=
202203310856 METAR KPWT 310856Z AUTO 00000KT 10SM SCT009 SCT041 04/04 A3022 RMK AO2 RAB42E52 SLP238 P0000 60000 T00440039 51003=
202203310817 SPECI KPWT 310817Z AUTO 00000KT 10SM SCT011 BKN041 06/05 A3022 RMK AO2=
202203310756 METAR KPWT 310756Z AUTO 05003KT 10SM OVC011 06/05 A3022 RMK AO2 SLP238 T00610050 401330056=
202203310744 SPECI KPWT 310744Z AUTO 04003KT 10SM BKN011 OVC035 06/05 A3022 RMK AO2=
202203310716 SPECI KPWT 310716Z AUTO 05004KT 10SM SCT011 BKN035 06/05 A3022 RMK AO2=
202203310656 METAR KPWT 310656Z AUTO 03003KT 10SM BKN011 BKN023 OVC029 06/05 A3022 RMK AO2 SLP238 T00610050=
202203310631 SPECI KPWT 310631Z AUTO 05004KT 10SM BKN011 OVC019 06/05 A3022 RMK AO2=
202203310556 METAR KPWT 310556Z AUTO 07005KT 10SM OVC017 06/05 A3021 RMK AO2 SLP237 60000 T00610050 10106 20061 50001=
202203310503 SPECI KPWT 310503Z AUTO 05005KT 10SM BKN017 OVC043 06/05 A3022 RMK AO2=
202203310456 METAR KPWT 310456Z AUTO 06005KT 10SM SCT017 OVC043 06/05 A3022 RMK AO2 SLP238 T00610050=
202203310447 SPECI KPWT 310447Z AUTO 05005KT 10SM SCT015 BKN024 OVC043 06/05 A3022 RMK AO2=
202203310437 SPECI KPWT 310437Z AUTO 05007KT 10SM FEW015 SCT024 OVC041 06/05 A3022 RMK AO2=
202203310422 SPECI KPWT 310422Z AUTO 05005KT 10SM SCT015 BKN024 OVC037 07/05 A3021 RMK AO2=
202203310413 SPECI KPWT 310413Z AUTO 06006KT 10SM SCT017 SCT024 OVC039 07/05 A3021 RMK AO2=
202203310356 METAR KPWT 310356Z AUTO 06007KT 10SM BKN021 OVC026 07/05 A3021 RMK AO2 SLP236 T00670050=
202203310322 SPECI KPWT 310322Z AUTO 07004KT 10SM BKN023 OVC037 07/05 A3021 RMK AO2=
202203310256 METAR KPWT 310256Z AUTO 08004KT 10SM SCT037 06/04 A3020 RMK AO2 RAE0158 SLP232 P0000 60000 T00610044 50006=
202203310156 METAR KPWT 310156Z AUTO 02006KT 10SM -RA FEW037 SCT046 BKN055 07/05 A3020 RMK AO2 SLP232 P0000 T00720050=
202203310056 METAR KPWT 310056Z AUTO 04009KT 10SM -RA FEW034 SCT042 BKN050 08/06 A3019 RMK AO2 RAB00E27B54 SLP231 P0000 T00830056=
202203302356 METAR KPWT 302356Z AUTO VRB06KT 10SM OVC039 11/03 A3018 RMK AO2 RAE40 SLP224 P0000 60001 T01060033 10133 20083 53002=
202203302256 METAR KPWT 302256Z AUTO 22013KT 10SM -RA FEW040 BKN047 BKN055 11/03 A3018 RMK AO2 RAB23 SLP224 P0001 T01060033=
202203302156 METAR KPWT 302156Z AUTO 22018G26KT 10SM FEW031 BKN050 OVC070 12/02 A3017 RMK AO2 PK WND 21026/2154 RAE48 SLP221 P0000 T01220022=
202203302056 METAR KPWT 302056Z AUTO 23017KT 10SM -RA CLR 12/02 A3017 RMK AO2 RAB04E15B55 SLP222 P0000 60000 T01170017 50000=
202203301956 METAR KPWT 301956Z AUTO 22011KT 10SM FEW044 SCT075 12/02 A3018 RMK AO2 SLP223 T01170017=
202203301856 METAR KPWT 301856Z AUTO 00000KT 10SM FEW021 BKN036 10/04 A3018 RMK AO2 SLP226 T01000039=
202203301848 SPECI KPWT 301848Z AUTO VRB03KT 10SM SCT021 OVC036 10/04 A3018 RMK AO2=
202203301756 METAR KPWT 301756Z AUTO 23003KT 10SM FEW015 BKN022 BKN027 08/06 A3017 RMK AO2 SLP223 T00830056 10089 20056 53010=
202203301656 METAR KPWT 301656Z AUTO 22007KT 10SM FEW010 OVC022 08/06 A3016 RMK AO2 SLP219 T00780061=
202203301636 SPECI KPWT 301636Z AUTO 23005KT 10SM SCT008 OVC020 08/06 A3016 RMK AO2=
202203301556 METAR KPWT 301556Z AUTO 22005KT 10SM OVC008 07/06 A3015 RMK AO2 CIG 007V012 SLP216 T00720061=
202203301547 SPECI KPWT 301547Z AUTO 21004KT 10SM OVC010 07/06 A3015 RMK AO2 CIG 007V014=
202203301456 METAR KPWT 301456Z AUTO 21007KT 10SM OVC007 07/06 A3014 RMK AO2 CIG 006V012 SLP213 T00670056 51005=
202203301356 METAR KPWT 301356Z AUTO 20005KT 10SM OVC009 06/05 A3014 RMK AO2 CIG 007V012 SLP211 T00610050=
202203301352 SPECI KPWT 301352Z AUTO 20005KT 10SM OVC009 06/05 A3014 RMK AO2 CIG 007V012=
202203301256 METAR KPWT 301256Z AUTO 22008KT 10SM OVC011 06/05 A3013 RMK AO2 SLP207 T00610050=
202203301243 SPECI KPWT 301243Z AUTO 23006KT 10SM BKN013 OVC110 06/05 A3013 RMK AO2=
202203301156 METAR KPWT 301156Z AUTO 22009KT 10SM OVC110 06/04 A3012 RMK AO2 RAB20E31 SLP204 P0000 60000 70002 T00610044 10067 20056 52009=
202203301056 METAR KPWT 301056Z AUTO 20007KT 10SM FEW020 07/04 A3011 RMK AO2 SLP202 T00670044=
202203300956 METAR KPWT 300956Z AUTO 20012G19KT 10SM BKN120 07/04 A3010 RMK AO2 SLP198 T00670044=
202203300856 METAR KPWT 300856Z AUTO 20010G18KT 10SM SCT120 06/05 A3009 RMK AO2 SLP195 T00610050 53003=
202203300756 METAR KPWT 300756Z AUTO 20008G15KT 10SM CLR 06/04 A3009 RMK AO2 SLP193 T00560044 401440017=
202203300656 METAR KPWT 300656Z AUTO 19007KT 10SM CLR 06/04 A3008 RMK AO2 SLP191 T00610039=
202203300556 METAR KPWT 300556Z AUTO 21010KT 10SM CLR 06/04 A3008 RMK AO2 SLP191 T00610039 10133 20061 51006=
202203300456 METAR KPWT 300456Z AUTO 22013KT 10SM CLR 07/04 A3008 RMK AO2 SLP191 T00720039=
202203300356 METAR KPWT 300356Z AUTO 22013KT 10SM CLR 08/06 A3007 RMK AO2 SLP188 T00780056=
202203300256 METAR KPWT 300256Z AUTO 21009KT 10SM SCT027 08/06 A3006 RMK AO2 SLP186 T00830056 51003=
202203300251 SPECI KPWT 300251Z AUTO 20008KT 10SM SCT027 08/06 A3006 RMK AO2=
202203300233 SPECI KPWT 300233Z AUTO 21009KT 10SM FEW018 BKN027 09/06 A3006 RMK AO2=
202203300226 SPECI KPWT 300226Z AUTO 21011KT 10SM FEW018 SCT029 09/06 A3006 RMK AO2=
202203300216 SPECI KPWT 300216Z AUTO 21009KT 10SM FEW018 BKN029 09/07 A3006 RMK AO2=
202203300156 METAR KPWT 300156Z AUTO 21011KT 10SM FEW018 10/07 A3006 RMK AO2 SLP185 T01000067=
202203300122 SPECI KPWT 300122Z AUTO 20008KT 10SM SCT029 SCT035 12/07 A3005 RMK AO2=
202203300056 METAR KPWT 300056Z AUTO 21010KT 10SM BKN026 13/07 A3006 RMK AO2 SLP182 T01280072=
202203300038 SPECI KPWT 300038Z AUTO 20013KT 10SM BKN024 13/07 A3005 RMK AO2=
202203300024 SPECI KPWT 300024Z AUTO 21013KT 10SM SCT025 BKN030 13/07 A3005 RMK AO2=
202203292356 METAR KPWT 292356Z AUTO 22011KT 10SM FEW021 OVC028 12/08 A3006 RMK AO2 SLP183 60002 T01220078 10144 20100 58003=
202203292256 METAR KPWT 292256Z AUTO 19009KT 10SM OVC026 13/07 A3006 RMK AO2 SLP185 T01280072=
202203292156 METAR KPWT 292156Z AUTO 23011KT 10SM OVC028 12/07 A3007 RMK AO2 SLP187 T01220072=
202203292103 SPECI KPWT 292103Z AUTO 20008KT 10SM BKN028 13/07 A3006 RMK AO2=
202203292056 METAR KPWT 292056Z AUTO 21009KT 1 3/4SM HZ BKN028 13/07 A3007 RMK AO2 SLP186 P0002 60002 T01330072 53001=
202203292036 SPECI KPWT 292036Z AUTO 18007KT OVC028 14/07 A3006 RMK AO2 P0002 PWINO $=
202203292028 SPECI KPWT 292028Z AUTO 18007KT 3/4SM HZ BKN028 OVC034 13/07 A3006 RMK AO2 P0002=
202203292022 SPECI KPWT 292022Z AUTO 20008KT 160V220 10SM BKN028 BKN034 13/07 A3006 RMK AO2 P0002=
202203291956 METAR KPWT 291956Z AUTO 23007KT BKN030 BKN036 13/07 A3007 RMK AO2 SLP186 T01330072 PWINO $=
202203291856 METAR KPWT 291856Z AUTO VRB05KT 12/08 A3006 RMK AO2 SLP185 T01220078 PWINO $=
202203291756 METAR KPWT 291756Z AUTO 21005KT 10SM FEW031 10/08 A3006 RMK AO2 SLP186 T01000083 10100 20039 51009=
202203291656 METAR KPWT 291656Z AUTO 22006KT 10SM CLR 08/08 A3006 RMK AO2 SLP184 T00830078=
202203291626 SPECI KPWT 291626Z AUTO 25004KT 10SM SCT001 08/08 A3005 RMK AO2=
202203291618 SPECI KPWT 291618Z AUTO 22003KT 9SM BKN001 07/07 A3005 RMK AO2=
202203291610 SPECI KPWT 291610Z AUTO 22003KT 2SM BR BKN001 07/07 A3005 RMK AO2 VIS 1V5=
202203291556 METAR KPWT 291556Z AUTO 22003KT 1SM BR BKN001 06/06 A3005 RMK AO2 SLP182 T00610061=
202203291550 SPECI KPWT 291550Z AUTO 22003KT 2SM BR BKN001 06/06 A3005 RMK AO2=
202203291548 SPECI KPWT 291548Z AUTO 23003KT 1SM BR BKN001 06/06 A3005 RMK AO2=
202203291545 SPECI KPWT 291545Z AUTO 26003KT 1/2SM FG BKN001 06/06 A3005 RMK AO2=
202203291519 SPECI KPWT 291519Z AUTO 20004KT 1/4SM FG VV001 06/06 A3004 RMK AO2=
202203291508 SPECI KPWT 291508Z AUTO 00000KT 1/2SM FG VV001 05/05 A3004 RMK AO2=
202203291456 METAR KPWT 291456Z AUTO 19003KT 1SM BR VV001 05/05 A3004 RMK AO2 SLP177 T00500050 53010=
202203291447 SPECI KPWT 291447Z AUTO 21004KT 1 1/4SM BR SCT001 04/04 A3003 RMK AO2=
202203291434 SPECI KPWT 291434Z AUTO 21004KT 3/4SM BR VV001 04/04 A3003 RMK AO2=
202203291356 METAR KPWT 291356Z AUTO 00000KT 1/4SM FG OVC001 04/04 A3002 RMK AO2 SLP170 T00440044=
202203291304 SPECI KPWT 291304Z AUTO 21004KT 1/2SM FG OVC001 04/04 A3001 RMK AO2=
202203291256 METAR KPWT 291256Z AUTO 21004KT 1/4SM FG OVC001 05/05 A3001 RMK AO2 SLP166 T00500050=
202203291156 METAR KPWT 291156Z AUTO 21003KT 1/4SM FG OVC001 06/06 A3000 RMK AO2 SLP162 T00560056 10056 20017 58000=
202203291054 METAR KPWT 291054Z AUTO 00000KT 1/4SM FG BKN001 03/03 A3000 RMK AO2 SLP165 T00280028=
202203291053 SPECI KPWT 291053Z AUTO 00000KT 1/4SM FG BKN001 03/03 A3000 RMK AO2=
202203291047 SPECI KPWT 291047Z AUTO 00000KT 3/4SM BR BKN001 02/02 A3000 RMK AO2 VIS 1/4V4 FZRANO=
202203291044 SPECI KPWT 291044Z AUTO 00000KT 1 1/2SM BR BKN001 02/02 A3000 RMK AO2 VIS 3/4V4 FZRANO=
202203291035 SPECI KPWT 291035Z AUTO 00000KT 1SM BR VV001 03/03 A3000 RMK AO2=
202203291030 SPECI KPWT 291030Z AUTO 00000KT 3/4SM BR CLR 03/03 A3000 RMK AO2=
202203291014 SPECI KPWT 291014Z AUTO 00000KT 1 1/2SM BR CLR 03/03 A3001 RMK AO2 VIS 3/4V5=
202203291005 SPECI KPWT 291005Z AUTO 00000KT 1SM BR CLR 03/03 A3000 RMK AO2=
202203290956 METAR KPWT 290956Z AUTO 00000KT 2 1/2SM BR CLR 03/03 A3000 RMK AO2 VIS 1V5 SLP164 T00280028=
202203290945 SPECI KPWT 290945Z AUTO 00000KT 1 3/4SM BR CLR 02/02 A3000 RMK AO2 FZRANO=
202203290904 SPECI KPWT 290904Z AUTO 00000KT 3SM BR CLR 03/03 A3000 RMK AO2=
202203290900 SPECI KPWT 290900Z AUTO 00000KT 1 1/4SM BR CLR 03/03 A3000 RMK AO2=
202203290856 METAR KPWT 290856Z AUTO 00000KT 3/4SM BR CLR 03/03 A3000 RMK AO2 SLP164 T00330033 53007=
202203290845 SPECI KPWT 290845Z AUTO 00000KT 1SM BR CLR 03/03 A2999 RMK AO2=
202203290838 SPECI KPWT 290838Z AUTO 00000KT 1/2SM FG CLR 03/03 A2999 RMK AO2=
202203290830 SPECI KPWT 290830Z AUTO 00000KT 3/4SM BR CLR 03/02 A2999 RMK AO2=
202203290820 SPECI KPWT 290820Z AUTO 00000KT 1 3/4SM BR CLR 02/02 A2999 RMK AO2 FZRANO=
202203290756 METAR KPWT 290756Z AUTO 00000KT 10SM CLR 03/03 A2998 RMK AO2 SLP159 T00280028 401170028=
202203290751 SPECI KPWT 290751Z AUTO 00000KT 10SM CLR 03/03 A2999 RMK AO2 401170028=
202203290744 SPECI KPWT 290744Z AUTO 00000KT 2SM BR CLR 04/04 A2998 RMK AO2 VIS 1/2V5=
202203290734 SPECI KPWT 290734Z AUTO 00000KT 1SM BR CLR 03/03 A2998 RMK AO2=
202203290656 METAR KPWT 290656Z AUTO 00000KT 4SM BR CLR 04/04 A2998 RMK AO2 SLP156 T00390039=
202203290556 METAR KPWT 290556Z AUTO 00000KT 6SM BR CLR 04/04 A2996 RMK AO2 SLP150 60000 T00440044 10117 20044 51022=
202203290456 METAR KPWT 290456Z AUTO 02003KT 10SM CLR 06/05 A2994 RMK AO2 SLP144 T00560050=
202203290356 METAR KPWT 290356Z AUTO 00000KT 10SM CLR 06/06 A2992 RMK AO2 SLP136 T00610056=
202203290256 METAR KPWT 290256Z AUTO 00000KT 10SM CLR 09/08 A2989 RMK AO2 SLP126 60000 T00890078 53017=
202203290156 METAR KPWT 290156Z AUTO 02005KT 10SM FEW048 11/08 A2987 RMK AO2 SLP119 T01110083=
202203290056 METAR KPWT 290056Z AUTO 03005KT 10SM FEW012 11/08 A2985 RMK AO2 RAE00 SLP112 P0000 T01110083=
202203290011 SPECI KPWT 290011Z AUTO 05007KT 10SM SCT010 SCT017 OVC038 11/09 A2984 RMK AO2 RAE00 P0000=
202203282356 METAR KPWT 282356Z AUTO 04010KT 10SM -RA SCT010 BKN017 OVC037 11/09 A2984 RMK AO2 RAB33 SLP109 P0000 60000 T01110094 10117 20100 53005=
202203282344 SPECI KPWT 282344Z AUTO 04008KT 8SM -RA SCT010 BKN019 OVC026 11/09 A2984 RMK AO2 RAB33 P0000=
202203282330 SPECI KPWT 282330Z AUTO 04007KT 9SM BKN010 BKN014 OVC024 11/09 A2984 RMK AO2=
202203282323 SPECI KPWT 282323Z AUTO 04007KT 10SM SCT010 BKN016 OVC023 11/09 A2984 RMK AO2=
202203282256 METAR KPWT 282256Z AUTO 03010KT 10SM BKN014 BKN019 OVC035 12/09 A2983 RMK AO2 RAE27 SLP106 P0000 T01170089=
202203282247 SPECI KPWT 282247Z AUTO 05011KT 10SM BKN014 BKN030 BKN034 12/09 A2983 RMK AO2 RAE27 P0000=
202203282232 SPECI KPWT 282232Z AUTO 04009KT 10SM FEW012 SCT021 BKN034 12/09 A2983 RMK AO2 RAE27 P0000=
202203282156 METAR KPWT 282156Z AUTO 04008KT 10SM -RA BKN020 OVC031 11/09 A2983 RMK AO2 RAE02B43 SLP106 P0000 T01110089=
202203282123 SPECI KPWT 282123Z AUTO 04007KT 10SM FEW007 OVC016 11/09 A2983 RMK AO2 RAE02 P0000=
202203282056 METAR KPWT 282056Z AUTO 05007KT 10SM -RA SCT007 OVC012 10/09 A2983 RMK AO2 RAB04E15B44 SLP104 P0000 60000 T01000089 53013=
202203282028 SPECI KPWT 282028Z AUTO 05009KT 10SM SCT007 BKN012 OVC018 10/09 A2982 RMK AO2 RAB04E15 P0000=
202203282012 SPECI KPWT 282012Z AUTO 05008KT 10SM -RA SCT009 OVC015 11/09 A2981 RMK AO2 RAB04 P0000=
202203281956 METAR KPWT 281956Z AUTO 03006KT 10SM BKN009 OVC015 11/09 A2981 RMK AO2 RAB1858E38 CIG 007V012 SLP099 P0000 T01110094=
202203281951 SPECI KPWT 281951Z AUTO 05005KT 10SM SCT009 BKN013 11/09 A2981 RMK AO2 RAB1858E38 P0000=
202203281940 SPECI KPWT 281940Z AUTO 02004KT 10SM BKN015 12/09 A2981 RMK AO2 RAB1858E38 P0000=
202203281928 SPECI KPWT 281928Z AUTO VRB03KT 10SM -RA FEW015 12/10 A2980 RMK AO2 RAB1858 P0000=
202203281916 SPECI KPWT 281916Z AUTO 01003KT 10SM -RA FEW009 BKN015 11/09 A2980 RMK AO2 RAB1858 P0000=
202203281856 METAR KPWT 281856Z AUTO 00000KT 10SM FEW009 OVC013 11/09 A2980 RMK AO2 RAB22E54 SLP095 P0000 T01110094=
202203281845 SPECI KPWT 281845Z AUTO 00000KT 10SM -RA FEW007 OVC013 11/09 A2980 RMK AO2 RAB22 P0000=
202203281808 SPECI KPWT 281808Z AUTO 00000KT 9SM OVC007 10/09 A2979 RMK AO2 CIG 005V010=
202203281756 METAR KPWT 281756Z AUTO 00000KT 8SM OVC005 10/09 A2979 RMK AO2 CIG 004V008 SLP092 T01000089 10100 20094 53015=
202203281720 SPECI KPWT 281720Z AUTO 21004KT 10SM OVC005 09/09 A2978 RMK AO2 CIG 004V007=
202203281656 METAR KPWT 281656Z AUTO 00000KT 6SM BR OVC003 09/09 A2977 RMK AO2 CIG 003V006 SLP086 T00940089=
202203281556 METAR KPWT 281556Z AUTO 00000KT 4SM BR OVC003 09/09 A2975 RMK AO2 SLP080 T00940094=
202203281521 SPECI KPWT 281521Z AUTO 00000KT 4SM BR OVC003 09/09 A2975 RMK AO2=
202203281504 SPECI KPWT 281504Z AUTO 16003KT 2SM BR OVC003 09/09 A2975 RMK AO2=
202203281456 METAR KPWT 281456Z AUTO 00000KT 1 3/4SM BR OVC003 09/09 A2974 RMK AO2 SLP077 T00940094 53009=
202203281442 SPECI KPWT 281442Z AUTO 00000KT 1 3/4SM BR OVC003 09/09 A2974 RMK AO2 VIS 1 1/4V3=
202203281356 METAR KPWT 281356Z AUTO 15003KT 8SM OVC003 09/09 A2973 RMK AO2 SLP072 T00940089=
202203281343 SPECI KPWT 281343Z AUTO 12003KT 5SM BR BKN003 OVC008 09/09 A2973 RMK AO2=
202203281333 SPECI KPWT 281333Z AUTO 13003KT 7SM BKN006 OVC010 09/09 A2973 RMK AO2 CIG 003V008=
202203281256 METAR KPWT 281256Z AUTO 12003KT 10SM OVC012 09/09 A2972 RMK AO2 SLP069 T00940089=
202203281156 METAR KPWT 281156Z AUTO 00000KT 10SM SCT005 OVC014 09/09 A2972 RMK AO2 SLP066 T00940089 10100 20072 51008=
202203281152 SPECI KPWT 281152Z AUTO 00000KT 10SM BKN005 OVC014 09/09 A2971 RMK AO2=
202203281056 METAR KPWT 281056Z AUTO 06004KT 10SM FEW003 BKN014 09/09 A2969 RMK AO2 SLP058 T00940089=
202203281042 SPECI KPWT 281042Z AUTO 08004KT 10SM SCT005 BKN014 09/09 A2969 RMK AO2=
202203281025 SPECI KPWT 281025Z AUTO 07005KT 10SM SCT005 BKN100 09/08 A2969 RMK AO2=
202203280956 METAR KPWT 280956Z AUTO 06005KT 10SM OVC110 09/08 A2969 RMK AO2 SLP058 T00940083=
202203280922 SPECI KPWT 280922Z AUTO 06006KT 10SM SCT014 BKN100 10/08 A2969 RMK AO2=
202203280909 SPECI KPWT 280909Z AUTO 07006KT 10SM BKN014 BKN100 10/09 A2969 RMK AO2=
202203280856 METAR KPWT 280856Z AUTO 00000KT 10SM SCT014 BKN100 08/08 A2969 RMK AO2 SLP059 T00830078 56001=
202203280814 SPECI KPWT 280814Z AUTO 00000KT 10SM BKN014 BKN110 08/07 A2970 RMK AO2=
202203280756 METAR KPWT 280756Z AUTO 00000KT 10SM SCT110 08/08 A2969 RMK AO2 SLP059 T00780078 401830056=
202203280732 SPECI KPWT 280732Z AUTO 03004KT 10SM SCT017 BKN100 08/08 A2969 RMK AO2=
202203280719 SPECI KPWT 280719Z AUTO 04004KT 10SM BKN017 BKN100 07/07 A2970 RMK AO2=
202203280656 METAR KPWT 280656Z AUTO 00000KT 6SM BR FEW100 08/07 A2970 RMK AO2 SLP062 T00780072=
202203280556 METAR KPWT 280556Z AUTO 00000KT 10SM CLR 09/08 A2969 RMK AO2 SLP058 T00940083 10167 20094 53006=
202203280456 METAR KPWT 280456Z AUTO 00000KT 10SM OVC110 11/09 A2968 RMK AO2 SLP055 T01110094=
202203280356 METAR KPWT 280356Z AUTO 05005KT 10SM CLR 12/09 A2968 RMK AO2 SLP053 T01170094=
202203280256 METAR KPWT 280256Z AUTO 07004KT 10SM SCT029 13/11 A2967 RMK AO2 SLP053 T01280106 53006=
202203280156 METAR KPWT 280156Z AUTO 00000KT 10SM CLR 14/11 A2965 RMK AO2 SLP046 T01440111=
202203280056 METAR KPWT 280056Z AUTO 24005KT 10SM CLR 16/11 A2964 RMK AO2 SLP042 T01610111=
202203272356 METAR KPWT 272356Z AUTO 21004KT 10SM CLR 17/11 A2965 RMK AO2 SLP044 T01670111 10183 20117 56010=
202203272256 METAR KPWT 272256Z AUTO 24005KT 10SM CLR 18/12 A2966 RMK AO2 SLP045 T01830117=
202203272156 METAR KPWT 272156Z AUTO 29004KT 10SM CLR 17/11 A2966 RMK AO2 SLP048 T01720106=
202203272056 METAR KPWT 272056Z AUTO 23005KT 10SM CLR 16/11 A2968 RMK AO2 SLP055 T01610106 56013=
202203271956 METAR KPWT 271956Z AUTO 00000KT 10SM CLR 14/10 A2970 RMK AO2 SLP060 T01390100=
202203271856 METAR KPWT 271856Z AUTO 23004KT 10SM CLR 12/10 A2971 RMK AO2 SLP064 T01220100=
202203271756 METAR KPWT 271756Z AUTO VRB05KT 10SM SCT009 12/09 A2972 RMK AO2 SLP069 T01170094 10117 20056 54000=
202203271746 SPECI KPWT 271746Z AUTO 00000KT 10SM FEW009 11/09 A2972 RMK AO2=
202203271656 METAR KPWT 271656Z AUTO 27003KT 10SM CLR 11/09 A2972 RMK AO2 SLP070 T01060089=
202203271556 METAR KPWT 271556Z AUTO 00000KT 10SM CLR 09/08 A2972 RMK AO2 SLP070 T00940083=
202203271503 SPECI KPWT 271503Z AUTO 00000KT 10SM CLR 07/07 A2972 RMK AO2=
202203271456 METAR KPWT 271456Z AUTO 00000KT 2SM BR CLR 07/07 A2972 RMK AO2 VIS 1/2V5 SLP069 T00670067 58002=
202203271454 SPECI KPWT 271454Z AUTO 00000KT 1SM BR CLR 07/07 A2972 RMK AO2 VIS 1/4V5=
202203271451 SPECI KPWT 271451Z AUTO 00000KT 1/2SM FG CLR 07/07 A2972 RMK AO2=
202203271443 SPECI KPWT 271443Z AUTO 00000KT 3/4SM BR CLR 06/06 A2973 RMK AO2 VIS 1/4V4=
202203271441 SPECI KPWT 271441Z AUTO 00000KT 1 3/4SM BR CLR 06/06 A2973 RMK AO2 VIS 1/2V5=
202203271435 SPECI KPWT 271435Z AUTO 00000KT 3SM BR CLR 06/06 A2973 RMK AO2=
202203271426 SPECI KPWT 271426Z AUTO 00000KT 1 3/4SM BR FEW001 06/06 A2973 RMK AO2 VIS 1/2V5=
202203271356 METAR KPWT 271356Z AUTO 22003KT 10SM BKN060 06/06 A2973 RMK AO2 SLP073 T00610061=
202203271333 SPECI KPWT 271333Z AUTO 22003KT 3SM BR CLR 06/06 A2973 RMK AO2=
202203271324 SPECI KPWT 271324Z AUTO 00000KT 1 1/2SM BR CLR 07/06 A2973 RMK AO2 VIS 1/2V5=
202203271256 METAR KPWT 271256Z AUTO 00000KT 10SM CLR 07/07 A2973 RMK AO2 SLP073 T00720067=
202203271156 METAR KPWT 271156Z AUTO 04004KT 10SM CLR 09/07 A2974 RMK AO2 SLP074 60000 70003 T00890072 10100 20089 55010=
202203271056 METAR KPWT 271056Z AUTO 04007KT 10SM CLR 09/08 A2973 RMK AO2 SLP072 T00940078=
202203270956 METAR KPWT 270956Z AUTO 05009KT 10SM CLR 09/08 A2975 RMK AO2 RAE06 SLP080 P0000 T00940078=
202203270856 METAR KPWT 270856Z AUTO 05006KT 10SM -RA CLR 10/08 A2977 RMK AO2 RAB34 SLP085 P0000 60000 T01000083 58013=
202203270756 METAR KPWT 270756Z AUTO 06004KT 10SM CLR 09/08 A2978 RMK AO2 RAB16E48 SLP091 P0000 T00940083 401330056=
202203270656 METAR KPWT 270656Z AUTO 05004KT 10SM CLR 09/08 A2980 RMK AO2 SLP095 T00940083=
202203270556 METAR KPWT 270556Z AUTO 00000KT 10SM CLR 09/09 A2980 RMK AO2 SLP097 60001 T00940089 10133 20094 58013=
202203270456 METAR KPWT 270456Z AUTO 05005KT 10SM FEW070 10/09 A2982 RMK AO2 SLP102 T01000094=
202203270356 METAR KPWT 270356Z AUTO 05005KT 10SM CLR 11/10 A2984 RMK AO2 RAE26 SLP107 P0000 T01060100=
202203270256 METAR KPWT 270256Z AUTO 03003KT 10SM -RA FEW060 11/11 A2984 RMK AO2 SLP110 P0001 60001 T01110106 56015=
202203270156 METAR KPWT 270156Z AUTO 00000KT 10SM -RA CLR 12/11 A2986 RMK AO2 RAB33 SLP115 P0000 T01220106=
202203270056 METAR KPWT 270056Z AUTO 25003KT 10SM CLR 13/10 A2987 RMK AO2 RAB08E25 SLP119 P0000 T01280100=
202203262356 METAR KPWT 262356Z AUTO 00000KT 10SM BKN060 12/10 A2989 RMK AO2 SLP126 60001 T01220100 10128 20094 56018=
202203262256 METAR KPWT 262256Z AUTO 23004KT 10SM BKN037 BKN060 12/09 A2991 RMK AO2 SLP134 T01170094=
202203262239 SPECI KPWT 262239Z AUTO 23004KT 10SM SCT009 BKN037 BKN060 12/10 A2992 RMK AO2=
202203262156 METAR KPWT 262156Z AUTO VRB03KT 10SM BKN007 OVC035 11/09 A2992 RMK AO2 RAE08 CIG 006V012 SLP136 P0000 T01110094=
202203262113 SPECI KPWT 262113Z AUTO 00000KT 7SM BKN009 BKN012 OVC026 10/09 A2994 RMK AO2 RAE08 CIG 005V011 P0000=
202203262056 METAR KPWT 262056Z AUTO 28004KT 4SM -RA BR SCT007 BKN011 OVC018 10/09 A2994 RMK AO2 SLP144 P0001 60001 T01000094 58006=
202203262011 SPECI KPWT 262011Z AUTO 26004KT 8SM BKN009 OVC022 10/09 A2995 RMK AO2 RAE10 CIG 006V012 P0000=
202203261956 METAR KPWT 261956Z AUTO 00000KT 8SM -RA SCT007 OVC024 10/08 A2995 RMK AO2 SLP147 P0000 T01000083=
202203261947 SPECI KPWT 261947Z AUTO 24003KT 10SM -RA BKN007 OVC026 09/08 A2995 RMK AO2 CIG 006V011 P0000=
202203261918 SPECI KPWT 261918Z AUTO 29004KT 8SM -RA SCT007 OVC028 09/08 A2996 RMK AO2 P0000=
202203261856 METAR KPWT 261856Z AUTO 28006KT 3SM -RA BR OVC028 09/08 A2996 RMK AO2 RAB38 SLP152 P0000 T00940078=
202203261847 SPECI KPWT 261847Z AUTO 28005KT 4SM -RA BR OVC028 10/08 A2997 RMK AO2 RAB38 P0000=
202203261756 METAR KPWT 261756Z AUTO 00000KT 10SM OVC030 09/06 A2996 RMK AO2 RAE10 SLP151 P0000 60001 T00940061 10100 20061 56005=
202203261656 METAR KPWT 261656Z AUTO 00000KT 9SM -RA OVC029 09/07 A2997 RMK AO2 RAE10B54 SLP154 P0001 T00890067=
202203261647 SPECI KPWT 261647Z AUTO 00000KT 10SM BKN029 OVC035 09/07 A2997 RMK AO2 RAE10 P0001=
202203261556 METAR KPWT 261556Z AUTO 00000KT 10SM -RA OVC037 08/07 A2997 RMK AO2 SLP155 P0000 T00780067=
202203261456 METAR KPWT 261456Z AUTO 00000KT 10SM -RA BKN034 OVC043 07/07 A2998 RMK AO2 RAB22 SLP155 P0000 60000 T00720067 55004=
202203261356 METAR KPWT 261356Z AUTO 00000KT 10SM OVC046 07/06 A2997 RMK AO2 SLP155 T00670061=
202203261256 METAR KPWT 261256Z AUTO 00000KT 10SM OVC050 06/06 A2998 RMK AO2 RAE38 SLP157 P0000 T00610056=
202203261156 METAR KPWT 261156Z AUTO 00000KT 10SM -RA CLR 06/05 A2999 RMK AO2 RAB26 SLP160 P0000 60000 T00610050 10072 20056 58006=
202203261056 METAR KPWT 261056Z AUTO 00000KT 10SM CLR 06/05 A3000 RMK AO2 SLP163 T00610050=
202203260956 METAR KPWT 260956Z AUTO 00000KT 10SM CLR 07/05 A3001 RMK AO2 SLP167 T00670050=
202203260856 METAR KPWT 260856Z AUTO 00000KT 10SM FEW090 07/06 A3001 RMK AO2 SLP167 T00670056 56007=
202203260756 METAR KPWT 260756Z AUTO 00000KT 10SM FEW110 07/05 A3001 RMK AO2 SLP167 T00670050 401500022=
202203260656 METAR KPWT 260656Z AUTO 00000KT 10SM BKN120 06/05 A3002 RMK AO2 SLP172 T00560050=
202203260556 METAR KPWT 260556Z AUTO 14003KT 10SM BKN120 06/05 A3003 RMK AO2 SLP175 T00610050 10144 20061 58003=
202203260456 METAR KPWT 260456Z AUTO 00000KT 10SM SCT095 07/04 A3003 RMK AO2 SLP176 T00670044=
202203260356 METAR KPWT 260356Z AUTO 00000KT 10SM OVC075 09/04 A3004 RMK AO2 SLP178 T00890044=
202203260256 METAR KPWT 260256Z AUTO 25003KT 10SM OVC070 11/04 A3004 RMK AO2 SLP178 T01110039 56004=
202203260156 METAR KPWT 260156Z AUTO 21005KT 10SM OVC080 13/03 A3004 RMK AO2 SLP178 T01280033=
202203260056 METAR KPWT 260056Z AUTO 20008KT 10SM CLR 14/03 A3005 RMK AO2 SLP179 T01390028=
202203252356 METAR KPWT 252356Z AUTO 20007KT 10SM FEW110 14/03 A3005 RMK AO2 SLP181 T01440033 10150 20089 56006=
202203252256 METAR KPWT 252256Z AUTO 21007KT 10SM CLR 14/04 A3005 RMK AO2 SLP182 T01440044=
202203252156 METAR KPWT 252156Z AUTO 20007KT 10SM BKN080 13/04 A3006 RMK AO2 SLP185 T01330044=
202203252056 METAR KPWT 252056Z AUTO 20009G15KT 160V230 10SM SCT085 13/04 A3007 RMK AO2 SLP187 T01330039 58006=
202203251956 METAR KPWT 251956Z AUTO 21005KT 10SM FEW090 12/06 A3009 RMK AO2 SLP194 T01170061=
202203251856 METAR KPWT 251856Z AUTO 22008KT 10SM FEW100 10/06 A3009 RMK AO2 SLP194 T01000061=
202203251756 METAR KPWT 251756Z AUTO 20006KT 10SM SCT050 SCT110 09/06 A3009 RMK AO2 SLP194 T00890061 10089 20028 53004=
202203251656 METAR KPWT 251656Z AUTO 22007KT 10SM FEW060 09/06 A3008 RMK AO2 SLP190 T00890061=
202203251556 METAR KPWT 251556Z AUTO 22005KT 10SM FEW060 BKN120 07/06 A3008 RMK AO2 SLP191 T00670056=
202203251456 METAR KPWT 251456Z AUTO 00000KT 10SM BKN060 04/04 A3007 RMK AO2 SLP190 T00440044 53006=
202203251424 SPECI KPWT 251424Z AUTO 00000KT 3SM BR SCT055 03/03 A3007 RMK AO2=
202203251421 SPECI KPWT 251421Z AUTO 00000KT 1 1/2SM BR SCT055 03/03 A3007 RMK AO2=
202203251412 SPECI KPWT 251412Z AUTO 00000KT 1SM BR SCT050 03/02 A3007 RMK AO2=
202203251356 METAR KPWT 251356Z AUTO 00000KT 10SM SCT050 03/03 A3006 RMK AO2 SLP186 T00330028=
202203251256 METAR KPWT 251256Z AUTO 00000KT 10SM OVC055 04/04 A3006 RMK AO2 SLP182 T00440039=
202203251156 METAR KPWT 251156Z AUTO 00000KT 10SM FEW050 04/04 A3005 RMK AO2 SLP181 70001 T00390039 10044 20022 57002=
202203251056 METAR KPWT 251056Z AUTO 00000KT 10SM FEW110 02/02 A3005 RMK AO2 SLP183 T00220022 FZRANO=
202203250956 METAR KPWT 250956Z AUTO 00000KT 10SM CLR 03/03 A3006 RMK AO2 SLP183 T00330028=
202203250856 METAR KPWT 250856Z AUTO 00000KT 10SM CLR 04/03 A3006 RMK AO2 SLP184 T00390033 58005=
202203250756 METAR KPWT 250756Z AUTO 00000KT 10SM CLR 03/03 A3007 RMK AO2 SLP188 T00330028 401390017=
202203250656 METAR KPWT 250656Z AUTO 00000KT 10SM CLR 03/02 A3007 RMK AO2 SLP188 T00330022=
202203250556 METAR KPWT 250556Z AUTO 00000KT 10SM CLR 04/02 A3007 RMK AO2 SLP190 T00390022 10139 20033 53003=
202203250456 METAR KPWT 250456Z AUTO 08005KT 10SM CLR 07/03 A3005 RMK AO2 SLP183 T00720028=
202203250356 METAR KPWT 250356Z AUTO 00000KT 10SM CLR 05/03 A3006 RMK AO2 SLP186 T00500028=
202203250256 METAR KPWT 250256Z AUTO 00000KT 10SM CLR 08/02 A3006 RMK AO2 SLP187 T00780022 56017=
202203250156 METAR KPWT 250156Z AUTO 06006KT 10SM CLR 11/04 A3007 RMK AO2 SLP188 T01060039=
202203250056 METAR KPWT 250056Z AUTO 04009KT 10SM CLR 12/03 A3009 RMK AO2 SLP195 T01220033=
202203242356 METAR KPWT 242356Z AUTO 05007KT 10SM CLR 13/02 A3011 RMK AO2 SLP201 T01330022 10139 20067 56032=
202203242256 METAR KPWT 242256Z AUTO 05008KT 10SM CLR 13/02 A3014 RMK AO2 SLP211 T01330017=
202203242156 METAR KPWT 242156Z AUTO 04009KT 10SM CLR 13/02 A3017 RMK AO2 SLP221 T01280022=
202203242056 METAR KPWT 242056Z AUTO 05009KT 10SM CLR 11/03 A3021 RMK AO2 SLP235 T01110033 58020=
202203241956 METAR KPWT 241956Z AUTO 05011G18KT 10SM CLR 10/04 A3023 RMK AO2 SLP242 T01000039=
202203241856 METAR KPWT 241856Z AUTO 05012KT 10SM CLR 08/06 A3025 RMK AO2 SLP249 T00830056=
202203241756 METAR KPWT 241756Z AUTO 05010KT 10SM FEW007 07/05 A3027 RMK AO2 SLP255 60001 T00670050 10072 20017 55018=
202203241741 SPECI KPWT 241741Z AUTO 05009KT 10SM FEW007 06/06 A3026 RMK AO2=
202203241656 METAR KPWT 241656Z AUTO 05007KT 10SM CLR 07/05 A3026 RMK AO2 SLP252 P0001 T00670050=
202203241556 METAR KPWT 241556Z AUTO 03005KT 10SM CLR 06/04 A3029 RMK AO2 SLP263 T00560044=
202203241456 METAR KPWT 241456Z AUTO 04003KT 10SM FEW015 04/04 A3032 RMK AO2 SLP274 T00390039 56007=
202203241454 SPECI KPWT 241454Z AUTO 03003KT 10SM SCT015 04/03 A3032 RMK AO2=
202203241430 SPECI KPWT 241430Z AUTO 00000KT 10SM BKN015 03/03 A3033 RMK AO2=
202203241356 METAR KPWT 241356Z AUTO 06004KT 10SM SCT017 04/04 A3032 RMK AO2 SLP275 T00440039=
202203241256 METAR KPWT 241256Z AUTO 06004KT 10SM BKN015 03/03 A3034 RMK AO2 SLP281 T00280028=
202203241247 SPECI KPWT 241247Z AUTO 00000KT 7SM BKN015 03/02 A3034 RMK AO2=
202203241156 METAR KPWT 241156Z AUTO 05004KT 10SM CLR 03/03 A3033 RMK AO2 SLP278 70010 T00330033 10072 20022 58008=
202203241056 METAR KPWT 241056Z AUTO 06003KT 10SM FEW014 03/03 A3034 RMK AO2 SLP279 T00330033=
202203240956 METAR KPWT 240956Z AUTO 05003KT 10SM CLR 03/03 A3036 RMK AO2 SLP288 T00280028=
202203240856 METAR KPWT 240856Z AUTO 06004KT 10SM CLR 04/04 A3036 RMK AO2 SLP286 T00440039 53009=
202203240756 METAR KPWT 240756Z AUTO 00000KT 10SM FEW016 04/04 A3035 RMK AO2 SLP283 T00440039 401330044=
202203240656 METAR KPWT 240656Z AUTO 00000KT 10SM FEW036 06/05 A3034 RMK AO2 SLP278 T00560050=
202203240556 METAR KPWT 240556Z AUTO 04004KT 10SM OVC032 07/07 A3033 RMK AO2 SLP277 60005 T00720067 10094 20072 51022=
202203240456 METAR KPWT 240456Z AUTO 00000KT 10SM OVC022 07/07 A3033 RMK AO2 RAB06E22 SLP276 P0000 T00720067=
202203240356 METAR KPWT 240356Z AUTO 07006KT 9SM OVC018 07/06 A3030 RMK AO2 RAE20 SLP266 P0000 T00720061=
202203240256 METAR KPWT 240256Z AUTO 06006KT 10SM -RA OVC018 07/07 A3027 RMK AO2 RAE09B47 SLP254 P0000 60005 T00720067 51036=
202203240156 METAR KPWT 240156Z AUTO 08008G14KT 6SM -RA BR FEW005 OVC016 08/08 A3022 RMK AO2 SLP240 P0005 T00780078=
202203240139 SPECI KPWT 240139Z AUTO 07008KT 7SM -RA FEW005 OVC016 08/08 A3022 RMK AO2 P0004=
202203240056 METAR KPWT 240056Z AUTO 07008KT 10SM -RA OVC016 09/08 A3020 RMK AO2 RAB51 SLP234 P0000 T00940078=
202203240004 SPECI KPWT 240004Z AUTO 19009KT 10SM FEW014 BKN021 OVC026 12/10 A3016 RMK AO2=
202203232356 METAR KPWT 232356Z AUTO 18007KT 10SM BKN014 OVC023 12/10 A3016 RMK AO2 SLP218 60005 T01170100 10133 20094 58001=
202203232256 METAR KPWT 232256Z AUTO 19011G18KT 10SM BKN012 12/10 A3017 RMK AO2 SLP220 T01220100=
202203232211 SPECI KPWT 232211Z AUTO 21010G18KT 10SM OVC010 12/11 A3017 RMK AO2 CIG 007V014=
202203232156 METAR KPWT 232156Z AUTO 20011KT 10SM OVC008 11/10 A3017 RMK AO2 RAE09 CIG 007V013 SLP220 P0000 T01110100=
202203232056 METAR KPWT 232056Z AUTO 20011KT 10SM -RA BKN008 OVC014 11/10 A3016 RMK AO2 RAE17B37 CIG 006V011 SLP219 P0001 60005 T01060100 50010=
202203232024 SPECI KPWT 232024Z AUTO 22014G20KT 10SM BKN008 11/10 A3017 RMK AO2 RAE17 CIG 006V011 P0001=
202203232009 SPECI KPWT 232009Z AUTO 21011KT 10SM -RA FEW008 11/10 A3017 RMK AO2 P0001=
202203231956 METAR KPWT 231956Z AUTO 22014G21KT 10SM -RA CLR 10/09 A3017 RMK AO2 SLP220 P0004 T01000089=
202203231856 METAR KPWT 231856Z AUTO 22017G24KT 10SM -RA FEW022 BKN034 OVC043 11/08 A3016 RMK AO2 PK WND 22027/1825 RAB55 SLP216 P0000 T01060083=
202203231756 METAR KPWT 231756Z AUTO 21020G25KT 10SM CLR 13/08 A3013 RMK AO2 PK WND 22026/1745 SLP209 T01280078 10128 20094 50004=
202203231656 METAR KPWT 231656Z AUTO 21012KT 10SM FEW013 11/08 A3014 RMK AO2 SLP209 T01110083=
202203231556 METAR KPWT 231556Z AUTO 21011KT 10SM SCT009 OVC039 10/09 A3013 RMK AO2 SLP208 T01000089=
202203231456 METAR KPWT 231456Z AUTO 20011G18KT 10SM OVC007 09/09 A3012 RMK AO2 CIG 004V011 SLP205 T00940089 53002=
202203231441 SPECI KPWT 231441Z AUTO 20012KT 10SM OVC005 09/09 A3012 RMK AO2 CIG 004V008=
202203231356 METAR KPWT 231356Z AUTO 20009G15KT 10SM OVC003 09/09 A3012 RMK AO2 SLP203 T00940094=
202203231256 METAR KPWT 231256Z AUTO 20009KT 10SM OVC003 10/10 A3011 RMK AO2 SLP200 T01000100=
202203231156 METAR KPWT 231156Z AUTO 20006KT 10SM OVC003 10/10 A3012 RMK AO2 SLP201 T01000100 10106 20067 56006=
202203231145 SPECI KPWT 231145Z AUTO 20006KT 10SM BKN003 OVC037 10/10 A3012 RMK AO2=
202203231133 SPECI KPWT 231133Z AUTO 20006KT 10SM SCT003 OVC037 10/10 A3012 RMK AO2=
202203231056 METAR KPWT 231056Z AUTO VRB04KT 10SM FEW029 OVC035 11/10 A3012 RMK AO2 SLP202 T01060100=
202203230956 METAR KPWT 230956Z AUTO 18003KT 10SM OVC037 10/10 A3013 RMK AO2 SLP205 T01000100=
202203230904 SPECI KPWT 230904Z AUTO 00000KT 10SM OVC033 08/08 A3014 RMK AO2=
202203230856 METAR KPWT 230856Z AUTO 14003KT 2 1/2SM BR BKN033 08/08 A3013 RMK AO2 SLP209 T00780078 55010=
202203230836 SPECI KPWT 230836Z AUTO 00000KT 5SM BR FEW035 07/07 A3013 RMK AO2=
202203230822 SPECI KPWT 230822Z AUTO 00000KT 1 1/2SM BR CLR 07/07 A3014 RMK AO2=
202203230815 SPECI KPWT 230815Z AUTO 00000KT 3SM BR CLR 07/07 A3013 RMK AO2=
202203230805 SPECI KPWT 230805Z AUTO 00000KT 1SM BR CLR 07/07 A3013 RMK AO2=
202203230756 METAR KPWT 230756Z AUTO 00000KT 3SM BR CLR 08/08 A3013 RMK AO2 SLP209 T00780078 401720067=
202203230733 SPECI KPWT 230733Z AUTO 00000KT 1SM BR CLR 07/07 A3014 RMK AO2 VIS 1/2V4=
202203230717 SPECI KPWT 230717Z AUTO 00000KT 3SM BR CLR 09/09 A3015 RMK AO2=
202203230703 SPECI KPWT 230703Z AUTO 00000KT 1 3/4SM BR CLR 07/07 A3015 RMK AO2 VIS 1/2V5=
202203230656 METAR KPWT 230656Z AUTO 00000KT 3SM BR CLR 07/07 A3016 RMK AO2 SLP217 T00720072=
202203230649 SPECI KPWT 230649Z AUTO 00000KT 3SM BR CLR 08/08 A3016 RMK AO2=
202203230639 SPECI KPWT 230639Z AUTO 00000KT 1 1/2SM BR CLR 07/07 A3017 RMK AO2=
202203230630 SPECI KPWT 230630Z AUTO 00000KT 1SM BR CLR 08/08 A3016 RMK AO2 VIS 1/2V5=
202203230620 SPECI KPWT 230620Z AUTO 00000KT 1/2SM FG CLR 08/08 A3016 RMK AO2=
202203230612 SPECI KPWT 230612Z AUTO 00000KT 3/4SM BR CLR 08/08 A3016 RMK AO2=
202203230609 SPECI KPWT 230609Z AUTO 00000KT 1 1/2SM BR CLR 08/08 A3016 RMK AO2=
202203230603 SPECI KPWT 230603Z AUTO 00000KT 3SM BR CLR 08/08 A3016 RMK AO2=
202203230600 SPECI KPWT 230600Z AUTO 00000KT 1 1/4SM BR CLR 08/08 A3016 RMK AO2=
202203230556 METAR KPWT 230556Z AUTO 00000KT 3/4SM BR CLR 08/08 A3017 RMK AO2 SLP220 T00830083 10172 20078 58016=
202203230553 SPECI KPWT 230553Z AUTO 00000KT 3/4SM BR CLR 09/08 A3017 RMK AO2=
202203230540 SPECI KPWT 230540Z AUTO 00000KT 1 3/4SM BR CLR 09/09 A3017 RMK AO2 VIS 3/4V5=
202203230456 METAR KPWT 230456Z AUTO 00000KT 7SM CLR 09/09 A3018 RMK AO2 SLP225 T00940094=
202203230446 SPECI KPWT 230446Z AUTO 00000KT 5SM BR CLR 09/09 A3018 RMK AO2=
202203230438 SPECI KPWT 230438Z AUTO 00000KT 1 1/2SM BR CLR 09/09 A3019 RMK AO2=
202203230430 SPECI KPWT 230430Z AUTO 22004KT 1SM BR CLR 08/08 A3019 RMK AO2=
202203230422 SPECI KPWT 230422Z AUTO 00000KT 1/2SM FG CLR 08/08 A3019 RMK AO2=
202203230418 SPECI KPWT 230418Z AUTO 00000KT 1SM BR CLR 09/08 A3019 RMK AO2=
202203230408 SPECI KPWT 230408Z AUTO 00000KT 2 1/2SM BR CLR 09/09 A3019 RMK AO2 VIS 1V5=
202203230356 METAR KPWT 230356Z AUTO 00000KT 1SM BR CLR 09/09 A3020 RMK AO2 SLP231 T00890089=
202203230352 SPECI KPWT 230352Z AUTO 00000KT 1 1/2SM BR CLR 09/09 A3020 RMK AO2=
202203230256 METAR KPWT 230256Z AUTO 00000KT 10SM CLR 12/11 A3021 RMK AO2 SLP236 T01170106 56025=
202203230156 METAR KPWT 230156Z AUTO 26004KT 10SM CLR 16/12 A3024 RMK AO2 SLP243 T01610117=
202203230056 METAR KPWT 230056Z AUTO 23004KT 10SM CLR 17/12 A3026 RMK AO2 SLP251 T01670122=
202203222356 METAR KPWT 222356Z AUTO 21007KT 10SM CLR 17/12 A3029 RMK AO2 SLP260 T01720122 10172 20122 58020=
202203222318 SPECI KPWT 222318Z AUTO VRB06KT 10SM SCT016 17/12 A3031 RMK AO2=
202203222256 METAR KPWT 222256Z AUTO 20007G16KT 10SM OVC016 17/12 A3031 RMK AO2 SLP269 T01670122=
202203222232 SPECI KPWT 222232Z AUTO 21008KT 10SM BKN016 17/12 A3032 RMK AO2=
202203222156 METAR KPWT 222156Z AUTO 19007KT 10SM FEW014 16/12 A3033 RMK AO2 SLP274 T01560117=
202203222103 SPECI KPWT 222103Z AUTO 20011G15KT 160V230 10SM SCT014 16/12 A3034 RMK AO2=
202203222056 METAR KPWT 222056Z AUTO 20009KT 10SM BKN014 16/12 A3035 RMK AO2 SLP280 T01560117 56012=
202203221956 METAR KPWT 221956Z AUTO 20008KT 10SM BKN010 14/12 A3036 RMK AO2 SLP287 T01440117=
202203221954 SPECI KPWT 221954Z AUTO 20010KT 10SM BKN010 14/12 A3036 RMK AO2=
202203221909 SPECI KPWT 221909Z AUTO 19008KT 10SM SCT010 14/11 A3038 RMK AO2=
202203221856 METAR KPWT 221856Z AUTO 20008KT 10SM BKN010 14/11 A3038 RMK AO2 SLP293 T01390111=
202203221803 SPECI KPWT 221803Z AUTO 21007KT 10SM SCT006 12/11 A3039 RMK AO2=
202203221756 METAR KPWT 221756Z AUTO 21008KT 10SM FEW050 12/11 A3039 RMK AO2 SLP299 60000 T01220111 10122 20089 58001=
202203221720 SPECI KPWT 221720Z AUTO 22009KT 10SM SCT004 OVC050 11/11 A3040 RMK AO2=
202203221656 METAR KPWT 221656Z AUTO 22008KT 10SM BKN004 OVC010 11/11 A3040 RMK AO2 RAB38E56 SLP300 P0000 T01110106=
202203221640 SPECI KPWT 221640Z AUTO 22007KT 4SM -RA BR BKN004 OVC012 11/11 A3040 RMK AO2 RAB38 CIG 003V007 P0000=
202203221625 SPECI KPWT 221625Z AUTO 20007KT 10SM SCT004 BKN014 OVC024 11/10 A3040 RMK AO2=
202203221556 METAR KPWT 221556Z AUTO 21005KT 10SM OVC004 10/10 A3040 RMK AO2 SLP300 T01000100=
202203221456 METAR KPWT 221456Z AUTO 23005KT 10SM OVC002 09/09 A3040 RMK AO2 SLP298 T00940094 51005=
202203221356 METAR KPWT 221356Z AUTO 21006KT 10SM OVC002 09/09 A3040 RMK AO2 SLP298 T00890089=
202203221256 METAR KPWT 221256Z AUTO 20008KT 9SM OVC002 09/09 A3038 RMK AO2 SLP294 T00890089=
202203221156 METAR KPWT 221156Z AUTO 20008KT 10SM OVC002 09/08 A3038 RMK AO2 RAE00 SLP293 P0000 60001 70008 T00890083 10089 20078 53003=
202203221056 METAR KPWT 221056Z AUTO 19010KT 5SM -RA BR OVC002 09/08 A3037 RMK AO2 RAB33 SLP290 P0000 T00890083=
202203220956 METAR KPWT 220956Z AUTO 19010KT 10SM OVC002 08/08 A3037 RMK AO2 SLP291 T00830083=
202203220856 METAR KPWT 220856Z AUTO 20008KT 10SM OVC002 08/08 A3037 RMK AO2 SLP290 60001 T00830083 53002=
202203220756 METAR KPWT 220756Z AUTO 20009KT 7SM OVC002 08/08 A3037 RMK AO2 RAE22 SLP289 P0001 T00830083 400890044=
202203220656 METAR KPWT 220656Z AUTO 21005KT 3SM -RA BR OVC002 08/08 A3037 RMK AO2 RAB0557 SLP289 P0000 T00780078=
202203220654 SPECI KPWT 220654Z AUTO 21006KT 3SM -RA BR OVC002 08/08 A3036 RMK AO2 RAB0557 P0000=
202203220643 SPECI KPWT 220643Z AUTO 21005KT 2SM -RA BR OVC002 08/08 A3036 RMK AO2 RAB0557 P0000=
202203220630 SPECI KPWT 220630Z AUTO 21004KT 1 1/4SM -RA BR OVC002 08/08 A3036 RMK AO2 RAB0557 P0000=
202203220621 SPECI KPWT 220621Z AUTO 22006KT 2SM -RA BR OVC002 08/08 A3036 RMK AO2 RAB0557 P0000=
202203220607 SPECI KPWT 220607Z AUTO 22007KT 3SM BR OVC002 08/08 A3035 RMK AO2 RAB0557E06 P0000=
202203220556 METAR KPWT 220556Z AUTO 22006KT 2 1/2SM BR OVC002 08/08 A3035 RMK AO2 SLP283 60001 T00780078 10083 20072 53002=
202203220456 METAR KPWT 220456Z AUTO 21005KT 5SM BR OVC002 08/08 A3035 RMK AO2 SLP283 T00780078=
202203220356 METAR KPWT 220356Z AUTO 20003KT 6SM BR OVC004 07/07 A3034 RMK AO2 RAE12 SLP280 P0000 T00720072=
202203220304 SPECI KPWT 220304Z AUTO 21005KT 5SM -RA BR BKN004 BKN007 OVC022 07/07 A3034 RMK AO2 P0000=
202203220256 METAR KPWT 220256Z AUTO 21004KT 7SM -RA SCT004 BKN007 OVC022 07/07 A3034 RMK AO2 RAE0159B45 CIG 006V010 SLPNO P0000 60001 T00720072 51004=
202203220156 METAR KPWT 220156Z AUTO 19006KT 10SM -RA FEW006 BKN022 BKN033 07/07 A3033 RMK AO2 SLP279 P0001 T00720072=
202203220147 SPECI KPWT 220147Z AUTO 19005KT 10SM -RA SCT006 SCT022 07/07 A3034 RMK AO2 P0001=
202203220056 METAR KPWT 220056Z AUTO 20007KT 10SM -RA OVC006 08/07 A3034 RMK AO2 CIG 005V009 SLP281 P0000 T00780072=
202203220028 SPECI KPWT 220028Z AUTO 21009KT 10SM -RA OVC008 08/07 A3033 RMK AO2 CIG 006V011 P0000=
202203212356 METAR KPWT 212356Z AUTO 21007KT 10SM -RA OVC012 08/07 A3033 RMK AO2 RAB12 SLP278 P0000 60000 T00780067 10089 20056 53001=
202203212256 METAR KPWT 212256Z AUTO 20009KT 10SM OVC012 08/07 A3033 RMK AO2 SLP276 T00830067=
202203212156 METAR KPWT 212156Z AUTO 22010G16KT 10SM BKN012 OVC022 08/06 A3032 RMK AO2 SLP274 T00830061=
202203212056 METAR KPWT 212056Z AUTO 20010KT 10SM FEW009 BKN014 OVC022 08/06 A3033 RMK AO2 SLP277 60000 T00780061 53001=
202203212023 SPECI KPWT 212023Z AUTO 21010KT 10SM OVC010 07/06 A3033 RMK AO2=
202203211956 METAR KPWT 211956Z AUTO 20011G15KT 10SM OVC008 07/06 A3032 RMK AO2 CIG 005V011 SLP275 T00670056=
202203211856 METAR KPWT 211856Z AUTO 21008KT 8SM OVC006 06/06 A3032 RMK AO2 RAE50 CIG 004V011 SLP276 P0000 T00610056=
202203211756 METAR KPWT 211756Z AUTO 20007KT 5SM -RA BR OVC006 06/05 A3032 RMK AO2 CIG 004V011 SLP276 P0001 60006 T00560050 10056 20044 52007=
202203211725 SPECI KPWT 211725Z AUTO 21006KT 5SM -RA BR BKN006 OVC012 06/05 A3032 RMK AO2 CIG 005V010 P0000=
202203211656 METAR KPWT 211656Z AUTO 22009KT 7SM -RA SCT008 BKN014 OVC018 05/04 A3031 RMK AO2 SLP273 P0001 T00500044=
202203211653 SPECI KPWT 211653Z AUTO 21008KT 8SM -RA SCT008 OVC014 05/04 A3031 RMK AO2 P0001=
202203211556 METAR KPWT 211556Z AUTO 23008KT 10SM -RA OVC006 04/04 A3030 RMK AO2 CIG 004V010 SLP269 P0001 T00440044=
202203211456 METAR KPWT 211456Z AUTO 21007KT 9SM -RA OVC006 A3028 RMK AO2 CIG 005V010 SLPNO P0001 60003 53002 FZRANO=
202203211356 METAR KPWT 211356Z AUTO 21010KT 10SM -RA OVC006 04/04 A3028 RMK AO2 SLP260 P0000 T00440044=
202203211256 METAR KPWT 211256Z AUTO 20008G17KT 9SM -RA OVC006 04/04 A3028 RMK AO2 SLP261 P0002 T00440039=
202203211156 METAR KPWT 211156Z AUTO 21009KT 10SM -RA BKN006 OVC010 04/04 A3028 RMK AO2 CIG 004V008 SLP260 P0003 60016 70024 T00440044 10050 20044 58002=
202203211056 METAR KPWT 211056Z AUTO 20009G15KT 9SM -RA OVC006 05/04 A3028 RMK AO2 CIG 004V009 SLP262 P0002 T00500044=
202203211032 SPECI KPWT 211032Z AUTO 21007KT 7SM -RA OVC004 05/04 A3028 RMK AO2 P0001=
202203210956 METAR KPWT 210956Z AUTO 22012KT 9SM -RA OVC006 05/04 A3028 RMK AO2 CIG 003V009 SLP262 P0002 T00500044=
202203210952 SPECI KPWT 210952Z AUTO 21011KT 10SM -RA OVC006 05/04 A3028 RMK AO2 CIG 003V009 P0001=
202203210922 SPECI KPWT 210922Z AUTO 21007KT 8SM -RA OVC004 04/04 A3029 RMK AO2 P0001=
202203210856 METAR KPWT 210856Z AUTO 22009KT 6SM -RA BR OVC006 04/04 A3029 RMK AO2 CIG 004V010 SLP265 P0004 60009 T00440044 58002=
202203210829 SPECI KPWT 210829Z AUTO 20009KT 7SM -RA OVC006 04/04 A3030 RMK AO2 CIG 004V010 P0003=
202203210756 METAR KPWT 210756Z AUTO 21008KT 8SM -RA BKN004 OVC009 05/04 A3030 RMK AO2 CIG 003V007 SLP267 P0003 T00500044 400720000=
202203210723 SPECI KPWT 210723Z AUTO 22009KT 10SM -RA OVC004 05/05 A3030 RMK AO2 CIG 003V007 P0001=
202203210656 METAR KPWT 210656Z AUTO 21010KT 10SM -RA BKN006 BKN013 OVC019 05/05 A3030 RMK AO2 CIG 005V011 SLP267 P0002 T00500050=
202203210556 METAR KPWT 210556Z AUTO 20007KT 10SM -RA OVC006 05/05 A3030 RMK AO2 CIG 003V008 SLP267 P0002 60004 T00500050 10067 20050 53007=
202203210456 METAR KPWT 210456Z AUTO 20010KT 10SM -RA OVC008 06/05 A3029 RMK AO2 SLP263 P0000 T00560050=
202203210417 SPECI KPWT 210417Z AUTO 20008KT 10SM -RA BKN008 OVC011 06/05 A3028 RMK AO2 CIG 004V009 P0000=
202203210356 METAR KPWT 210356Z AUTO 20011KT 10SM -RA OVC004 06/05 A3028 RMK AO2 CIG 003V009 SLP260 P0001 T00560050=
202203210256 METAR KPWT 210256Z AUTO 22008KT 10SM -RA OVC006 06/05 A3028 RMK AO2 CIG 004V011 SLP259 P0001 60001 T00560050 50001=
202203210252 SPECI KPWT 210252Z AUTO 24010KT 10SM -RA BKN006 OVC017 06/05 A3028 RMK AO2 CIG 004V010 P0001=
202203210226 SPECI KPWT 210226Z AUTO 23013KT 6SM -RA BR OVC004 06/05 A3027 RMK AO2 CIG 003V008 P0001=
202203210156 METAR KPWT 210156Z AUTO 22007KT 10SM -RA BKN006 OVC011 06/06 A3027 RMK AO2 CIG 005V009 SLP258 P0000 T00560056=
202203210152 SPECI KPWT 210152Z AUTO 22008KT 10SM -RA BKN008 OVC011 06/05 A3027 RMK AO2 CIG 005V009 P0000=
202203210141 SPECI KPWT 210141Z AUTO 21008KT 10SM -RA BKN010 06/05 A3028 RMK AO2 CIG 006V013 P0000=
202203210056 METAR KPWT 210056Z AUTO 21008KT 10SM -RA FEW014 06/05 A3028 RMK AO2 RAB13 SLP260 P0000 T00610050=
202203210045 SPECI KPWT 210045Z AUTO 21010KT 10SM -RA FEW012 06/05 A3029 RMK AO2 RAB13 P0000=
202203202356 METAR KPWT 202356Z AUTO 20011KT 10SM BKN012 07/06 A3028 RMK AO2 RAE35 SLP263 P0000 60004 T00670056 10072 20050 56003=
202203202313 SPECI KPWT 202313Z AUTO 20008KT 10SM -RA BKN027 07/06 A3028 RMK AO2 P0000=
202203202256 METAR KPWT 202256Z AUTO 20008KT 10SM -RA FEW015 SCT029 BKN034 06/05 A3029 RMK AO2 SLP263 P0002 T00610050=
202203202253 SPECI KPWT 202253Z AUTO 20008KT 10SM -RA FEW015 SCT029 BKN034 06/05 A3029 RMK AO2 P0002=
202203202237 SPECI KPWT 202237Z AUTO 20007KT 10SM -RA SCT008 SCT016 BKN029 07/06 A3029 RMK AO2 P0002=
202203202210 SPECI KPWT 202210Z AUTO 22007KT 10SM -RA BKN008 BKN014 07/06 A3030 RMK AO2 P0000=
202203202156 METAR KPWT 202156Z AUTO 20006KT 10SM -RA FEW017 SCT037 07/06 A3029 RMK AO2 RAB2058 SLP266 P0002 T00670056=
202203202146 SPECI KPWT 202146Z AUTO 20009KT 10SM -RA FEW013 SCT029 BKN037 07/06 A3029 RMK AO2 RAB2058 P0002=
202203202056 METAR KPWT 202056Z AUTO 21006KT 10SM BKN017 OVC023 07/04 A3028 RMK AO2 RAE06 CIG 012V021 SLP260 P0000 60000 T00720044 51002=
202203202015 SPECI KPWT 202015Z AUTO 21013KT 10SM BKN017 07/04 A3027 RMK AO2 RAE06 P0000=
202203201956 METAR KPWT 201956Z AUTO 19011G16KT 10SM -RA BKN014 OVC019 07/04 A3028 RMK AO2 RAB53 SLP259 P0000 T00670044=
202203201911 SPECI KPWT 201911Z AUTO 21009KT 10SM BKN014 BKN022 BKN027 06/04 A3028 RMK AO2=
202203201903 SPECI KPWT 201903Z AUTO 21010KT 10SM SCT014 BKN022 06/04 A3029 RMK AO2=
202203201856 METAR KPWT 201856Z AUTO 20012KT 10SM BKN012 BKN024 BKN029 06/04 A3029 RMK AO2 SLP263 T00610039=
202203201756 METAR KPWT 201756Z AUTO 20008KT 10SM BKN012 05/03 A3027 RMK AO2 SLP259 T00500033 10056 20011 53005=
202203201656 METAR KPWT 201656Z AUTO 19007KT 10SM OVC010 05/03 A3027 RMK AO2 SLP256 T00500033=
202203201643 SPECI KPWT 201643Z AUTO 20011KT 10SM OVC010 05/03 A3027 RMK AO2=
202203201556 METAR KPWT 201556Z AUTO 21007KT 10SM BKN008 04/03 A3026 RMK AO2 CIG 005V011 SLP255 T00390033=
202203201456 METAR KPWT 201456Z AUTO 20004KT 10SM OVC008 02/02 A3026 RMK AO2 SLP254 T00220022 52015 FZRANO=
202203201356 METAR KPWT 201356Z AUTO 21003KT 10SM OVC008 02/02 A3024 RMK AO2 SLP248 T00170017 FZRANO=
202203201256 METAR KPWT 201256Z AUTO 21004KT 10SM OVC008 01/01 A3023 RMK AO2 SLP244 T00110011 FZRANO=
202203201156 METAR KPWT 201156Z AUTO 21004KT 10SM OVC008 02/01 A3022 RMK AO2 SLP239 70010 T00170011 10017 21006 53014 FZRANO=
202203201132 SPECI KPWT 201132Z AUTO 20005KT 10SM OVC008 01/01 A3021 RMK AO2 FZRANO=
202203201108 SPECI KPWT 201108Z AUTO 21004KT 10SM BKN010 01/01 A3020 RMK AO2 FZRANO=
202203201056 METAR KPWT 201056Z AUTO 21003KT 10SM SCT010 01/01 A3020 RMK AO2 SLP235 T00060006 FZRANO=
202203200956 METAR KPWT 200956Z AUTO 20009KT 10SM CLR 02/02 A3018 RMK AO2 SLP229 T00170017 FZRANO=
202203200856 METAR KPWT 200856Z AUTO 21006KT 10SM CLR 01/01 A3017 RMK AO2 SLP224 T00060006 51010 FZRANO=
202203200756 METAR KPWT 200756Z AUTO 18005KT 10SM BKN100 01/01 A3017 RMK AO2 SLP224 T00110006 401171006 FZRANO=
202203200656 METAR KPWT 200656Z AUTO 00000KT 10SM CLR 00/00 A3016 RMK AO2 SLP221 T00000000 FZRANO=
202203200556 METAR KPWT 200556Z AUTO 00000KT 10SM CLR 01/01 A3014 RMK AO2 SLP214 T00060006 10056 20000 53018 FZRANO=
202203200456 METAR KPWT 200456Z AUTO 00000KT 9SM CLR 01/01 A3012 RMK AO2 SLP204 T00060006 FZRANO=
202203200356 METAR KPWT 200356Z AUTO 00000KT 10SM CLR 03/02 A3010 RMK AO2 SLP200 T00280022=
202203200303 SPECI KPWT 200303Z AUTO 00000KT 10SM SCT023 03/03 A3009 RMK AO2=
202203200256 METAR KPWT 200256Z AUTO 00000KT 10SM BKN023 04/03 A3009 RMK AO2 SLP196 T00390028 51012=
202203200251 SPECI KPWT 200251Z AUTO 00000KT 10SM BKN023 04/03 A3009 RMK AO2=
202203200205 SPECI KPWT 200205Z AUTO 08003KT 10SM FEW010 SCT027 04/03 A3007 RMK AO2=
202203200156 METAR KPWT 200156Z AUTO 08004KT 10SM FEW010 BKN027 05/03 A3007 RMK AO2 SLP189 T00500033=
202203200147 SPECI KPWT 200147Z AUTO 09006KT 10SM SCT010 BKN029 05/03 A3007 RMK AO2=
202203200056 METAR KPWT 200056Z AUTO VRB03KT 10SM BKN010 OVC033 06/04 A3005 RMK AO2 CIG 009V013 SLP184 T00560039=
202203200046 SPECI KPWT 200046Z AUTO 04006KT 10SM SCT010 OVC033 06/03 A3005 RMK AO2=
202203200015 SPECI KPWT 200015Z AUTO 06006KT 10SM BKN010 OVC028 05/03 A3004 RMK AO2=
202203200003 SPECI KPWT 200003Z AUTO VRB05KT 10SM SCT010 BKN028 OVC041 06/04 A3004 RMK AO2=
202203192356 METAR KPWT 192356Z AUTO 05006KT 10SM FEW010 BKN030 BKN045 05/04 A3004 RMK AO2 RAE05 SLP179 P0000 60006 T00500039 10117 20039 53024=
202203192312 SPECI KPWT 192312Z AUTO 07011KT 10SM FEW008 BKN038 06/04 A3002 RMK AO2 RAE05 P0000=
202203192256 METAR KPWT 192256Z AUTO 06011KT 10SM -RA FEW012 SCT029 BKN042 05/04 A3001 RMK AO2 RAB20 SLP169 P0006 T00500044=
202203192156 METAR KPWT 192156Z AUTO 05019G23KT 10SM FEW014 BKN025 OVC048 07/04 A2998 RMK AO2 WSHFT 2136 SLP158 T00670039=
202203192150 SPECI KPWT 192150Z AUTO 05017G22KT 10SM FEW014 BKN022 OVC050 07/04 A2999 RMK AO2 WSHFT 2136=
202203192056 METAR KPWT 192056Z AUTO 22016G21KT 10SM CLR 11/03 A2997 RMK AO2 SLP153 T01110033 53020=
202203191956 METAR KPWT 191956Z AUTO 21013KT 10SM CLR 11/02 A2995 RMK AO2 SLP145 T01110017=
202203191856 METAR KPWT 191856Z AUTO 20011KT 10SM BKN030 BKN038 11/04 A2993 RMK AO2 SLP139 T01060044=
202203191824 SPECI KPWT 191824Z AUTO 24009KT 10SM SCT025 10/04 A2992 RMK AO2=
202203191756 METAR KPWT 191756Z AUTO VRB06KT 10SM FEW011 BKN022 09/05 A2991 RMK AO2 SLP133 60004 T00890050 10089 20050 53031=
202203191656 METAR KPWT 191656Z AUTO 23005KT 10SM OVC010 07/06 A2988 RMK AO2 SLP123 T00720056=
202203191616 SPECI KPWT 191616Z AUTO 20005KT 10SM BKN010 06/05 A2986 RMK AO2 CIG 008V013=
202203191556 METAR KPWT 191556Z AUTO 19004KT 10SM SCT008 05/04 A2985 RMK AO2 SLP113 T00500044=
202203191456 METAR KPWT 191456Z AUTO 21007KT 10SM OVC008 06/06 A2982 RMK AO2 CIG 006V011 SLP102 60004 T00610056 53010=
202203191446 SPECI KPWT 191446Z AUTO 19007KT 10SM BKN008 06/06 A2982 RMK AO2=
202203191410 SPECI KPWT 191410Z AUTO 20007KT 10SM SCT006 07/06 A2980 RMK AO2=
202203191356 METAR KPWT 191356Z AUTO 20010KT 10SM BKN006 07/06 A2979 RMK AO2 RAB06E29 SLP093 P0000 T00670061=
202203191331 SPECI KPWT 191331Z AUTO 20012KT 10SM BKN008 07/06 A2979 RMK AO2 RAB06E29 CIG 005V010 P0000=
202203191316 SPECI KPWT 191316Z AUTO 21008KT 10SM -RA SCT008 07/06 A2979 RMK AO2 RAB06 P0000=
202203191256 METAR KPWT 191256Z AUTO 20010KT 10SM CLR 07/06 A2979 RMK AO2 RAE45 SLP091 P0004 T00670061=
202203191156 METAR KPWT 191156Z AUTO 21007KT 10SM -RA FEW013 SCT028 OVC039 07/06 A2979 RMK AO2 SLP092 P0007 60044 70055 T00670061 10072 20061 56014=
202203191149 SPECI KPWT 191149Z AUTO 20004KT 10SM -RA FEW014 SCT028 OVC039 06/06 A2979 RMK AO2 P0007=
202203191056 METAR KPWT 191056Z AUTO 23005KT 9SM RA BKN017 OVC027 07/06 A2979 RMK AO2 SLP094 P0013 T00670061=
202203191031 SPECI KPWT 191031Z AUTO 23005KT 10SM RA SCT003 OVC015 07/07 A2980 RMK AO2 P0007=
202203191018 SPECI KPWT 191018Z AUTO 25005KT 8SM RA BKN003 OVC008 07/07 A2980 RMK AO2 CIG 002V006 P0004=
202203190956 METAR KPWT 190956Z AUTO 00000KT 7SM -RA BKN005 OVC009 07/06 A2981 RMK AO2 CIG 003V007 SLP099 P0004 T00670061=
202203190940 SPECI KPWT 190940Z AUTO 00000KT 8SM -RA SCT003 OVC009 07/06 A2982 RMK AO2 CIG 007V016 P0004=
202203190856 METAR KPWT 190856Z AUTO 21004KT 6SM RA BR OVC013 07/06 A2983 RMK AO2 SLP106 P0007 60020 T00670061 56013=
202203190851 SPECI KPWT 190851Z AUTO 20004KT 7SM -RA OVC013 07/06 A2983 RMK AO2 P0007=
202203190820 SPECI KPWT 190820Z AUTO 23005KT 10SM -RA BKN019 BKN028 07/07 A2983 RMK AO2 P0001=
202203190810 SPECI KPWT 190810Z AUTO 23005KT 10SM -RA FEW024 SCT030 BKN035 07/07 A2984 RMK AO2 P0001=
202203190756 METAR KPWT 190756Z AUTO 23006KT 10SM -RA BKN029 BKN035 BKN046 07/07 A2984 RMK AO2 SLP111 P0006 T00670067 401170050=
202203190739 SPECI KPWT 190739Z AUTO 22005KT 10SM -RA SCT025 BKN035 BKN046 07/07 A2985 RMK AO2 P0005=
202203190656 METAR KPWT 190656Z AUTO 24008KT 5SM -RA BR FEW008 BKN026 OVC032 07/07 A2987 RMK AO2 SLP120 P0007 T00720067=
202203190636 SPECI KPWT 190636Z AUTO 23005KT 10SM -RA FEW006 OVC036 07/07 A2987 RMK AO2 P0005=
202203190610 SPECI KPWT 190610Z AUTO 21006KT 8SM RA SCT008 BKN013 OVC021 07/07 A2988 RMK AO2 P0002=
202203190556 METAR KPWT 190556Z AUTO 21004KT 9SM -RA FEW010 BKN015 OVC032 07/07 A2989 RMK AO2 SLP125 P0004 60011 T00720072 10106 20072 58012=
202203190456 METAR KPWT 190456Z AUTO 20006KT 8SM RA BKN021 OVC030 08/07 A2990 RMK AO2 SLP131 P0006 T00780067=
202203190444 SPECI KPWT 190444Z AUTO 18003KT 10SM -RA SCT021 BKN025 OVC033 08/07 A2990 RMK AO2 P0004=
202203190356 METAR KPWT 190356Z AUTO 19004KT 10SM -RA SCT029 BKN037 OVC044 08/07 A2991 RMK AO2 RAB06 SLP134 P0001 T00780067=
202203190256 METAR KPWT 190256Z AUTO 21005KT 10SM FEW042 OVC050 08/07 A2992 RMK AO2 SLP137 T00780067 56020=
202203190156 METAR KPWT 190156Z AUTO 22006KT 10SM SCT060 09/07 A2994 RMK AO2 SLP144 T00890072=
202203190056 METAR KPWT 190056Z AUTO 21005KT 10SM SCT047 BKN055 10/07 A2995 RMK AO2 SLP148 T01000067=
202203182356 METAR KPWT 182356Z AUTO 21006KT 10SM FEW015 BKN031 10/07 A2998 RMK AO2 RAE40 SLP158 P0000 60000 T01000067 10117 20072 57021=
202203182256 METAR KPWT 182256Z AUTO 23007KT 200V260 10SM -RA SCT022 SCT048 BKN060 11/07 A3000 RMK AO2 RAB17 SLP165 P0000 T01110072=
202203182156 METAR KPWT 182156Z AUTO 25008KT 10SM FEW020 SCT050 11/07 A3002 RMK AO2 RAE17 SLP171 P0000 T01110067=
202203182117 SPECI KPWT 182117Z AUTO 22006KT 10SM FEW025 SCT034 11/07 A3004 RMK AO2 RAE17 P0000=
202203182056 METAR KPWT 182056Z AUTO 24008KT 10SM -RA FEW023 BKN028 OVC040 10/07 A3005 RMK AO2 RAB36 SLP179 P0000 60000 T01000067 58013=
202203181956 METAR KPWT 181956Z AUTO 19007KT 160V220 10SM BKN017 BKN025 OVC050 10/07 A3006 RMK AO2 SLP185 T01000067=
202203181933 SPECI KPWT 181933Z AUTO 21005KT 10SM SCT013 BKN019 OVC045 09/07 A3007 RMK AO2=
202203181910 SPECI KPWT 181910Z AUTO 23006KT 10SM OVC011 08/07 A3008 RMK AO2 CIG 009V014=
202203181856 METAR KPWT 181856Z AUTO 23007KT 10SM BKN009 BKN013 OVC038 08/06 A3008 RMK AO2 SLP192 T00830061=
202203181844 SPECI KPWT 181844Z AUTO 24007KT 10SM SCT009 OVC038 08/07 A3008 RMK AO2=
202203181756 METAR KPWT 181756Z AUTO 22007KT 10SM OVC009 07/06 A3009 RMK AO2 CIG 006V013 SLP196 T00720061 10072 20050 55003=
202203181734 SPECI KPWT 181734Z AUTO 21009KT 10SM BKN009 BKN014 OVC036 07/06 A3010 RMK AO2 CIG 007V011=
202203181726 SPECI KPWT 181726Z AUTO 21009KT 10SM BKN011 BKN015 OVC036 07/06 A3009 RMK AO2=
202203181713 SPECI KPWT 181713Z AUTO 22009KT 10SM FEW008 OVC036 07/06 A3009 RMK AO2=
202203181656 METAR KPWT 181656Z AUTO 23007KT 10SM BKN036 07/06 A3009 RMK AO2 SLP195 T00720061=
202203181637 SPECI KPWT 181637Z AUTO 24010G17KT 10SM SCT027 BKN034 07/06 A3009 RMK AO2=
202203181603 SPECI KPWT 181603Z AUTO 22008KT 10SM BKN029 07/06 A3010 RMK AO2=
202203181556 METAR KPWT 181556Z AUTO 22010KT 10SM SCT029 07/06 A3010 RMK AO2 SLP198 T00670056=
202203181545 SPECI KPWT 181545Z AUTO 22008KT 10SM SCT027 06/06 A3010 RMK AO2=
202203181456 METAR KPWT 181456Z AUTO 18005KT 10SM OVC023 06/06 A3010 RMK AO2 SLP200 T00560056 50000=
202203181356 METAR KPWT 181356Z AUTO 22009KT 9SM FEW013 OVC021 06/05 A3010 RMK AO2 SLP200 T00610050=
202203181328 SPECI KPWT 181328Z AUTO 20009KT 10SM BKN021 06/05 A3011 RMK AO2=
202203181256 METAR KPWT 181256Z AUTO 19009KT 10SM CLR 06/05 A3011 RMK AO2 SLP201 T00560050=
202203181206 SPECI KPWT 181206Z AUTO 21007KT 10SM FEW009 05/05 A3010 RMK AO2=
202203181156 METAR KPWT 181156Z AUTO 21007KT 10SM SCT011 05/05 A3010 RMK AO2 SLP198 60003 70008 T00500050 10067 20050 56005=
202203181056 METAR KPWT 181056Z AUTO 20009KT 10SM SCT008 06/06 A3010 RMK AO2 SLP199 T00610056=
202203181043 SPECI KPWT 181043Z AUTO 19008KT 10SM SCT006 SCT012 06/06 A3010 RMK AO2=
202203180956 METAR KPWT 180956Z AUTO 21010KT 10SM OVC006 07/07 A3011 RMK AO2 RAB14E41 CIG 003V009 SLP202 P0001 T00670067=
202203180856 METAR KPWT 180856Z AUTO 19007KT 7SM OVC003 07/07 A3011 RMK AO2 RAE55 SLP203 P0000 60002 T00670067 56002=
202203180756 METAR KPWT 180756Z AUTO 19006KT 4SM -RA BR OVC003 07/07 A3011 RMK AO2 RAB04 SLP203 P0000 T00670067 400890044=
202203180656 METAR KPWT 180656Z AUTO 20005KT 5SM BR BKN005 OVC010 07/07 A3012 RMK AO2 RAE50 CIG 003V007 SLP205 P0002 T00670067=
202203180621 SPECI KPWT 180621Z AUTO 21004KT 3SM -RA BR BKN005 BKN014 OVC019 07/07 A3013 RMK AO2 CIG 004V010 P0001=
202203180616 SPECI KPWT 180616Z AUTO 21004KT 3SM -RA BR FEW005 BKN015 OVC019 07/07 A3013 RMK AO2 P0001=
202203180556 METAR KPWT 180556Z AUTO 21004KT 4SM -RA BR OVC019 07/07 A3013 RMK AO2 RAB47 SLP209 P0000 60000 T00670067 10078 20067 51004=
202203180456 METAR KPWT 180456Z AUTO 21004KT 10SM FEW019 OVC029 07/07 A3013 RMK AO2 SLP208 T00670067=
202203180415 SPECI KPWT 180415Z AUTO 21003KT 10SM FEW005 OVC027 07/07 A3013 RMK AO2=
202203180356 METAR KPWT 180356Z AUTO 21005KT 10SM BKN005 OVC029 07/07 A3013 RMK AO2 RAB18E53 CIG 004V009 SLP210 P0000 T00670067=
202203180332 SPECI KPWT 180332Z AUTO 22005KT 10SM -RA BKN005 OVC022 07/07 A3013 RMK AO2 RAB18 CIG 004V009 P0000=
202203180309 SPECI KPWT 180309Z AUTO 22005KT 10SM SCT005 OVC022 07/07 A3012 RMK AO2=
202203180256 METAR KPWT 180256Z AUTO 21007KT 10SM BKN005 BKN020 07/07 A3012 RMK AO2 SLP205 60000 T00670067 53002=
202203180250 SPECI KPWT 180250Z AUTO 21008KT 10SM BKN005 BKN020 07/06 A3012 RMK AO2=
202203180246 SPECI KPWT 180246Z AUTO 21008KT 10SM SCT005 SCT020 07/06 A3012 RMK AO2=
202203180219 SPECI KPWT 180219Z AUTO 20010KT 7SM SCT007 BKN016 07/07 A3012 RMK AO2=
202203180210 SPECI KPWT 180210Z AUTO 20011KT 8SM BKN007 BKN013 07/07 A3011 RMK AO2 CIG 004V010=
202203180156 METAR KPWT 180156Z AUTO 21012KT 5SM BR SCT007 BKN013 BKN022 07/07 A3011 RMK AO2 RAE07 SLP203 P0000 T00720067=
202203180154 SPECI KPWT 180154Z AUTO 20010KT 6SM BR SCT007 SCT013 BKN022 07/07 A3011 RMK AO2 RAE07 P0000=
202203180122 SPECI KPWT 180122Z AUTO 22007KT 10SM OVC018 07/07 A3011 RMK AO2 RAE07 CIG 012V022 P0000=
202203180104 SPECI KPWT 180104Z AUTO 21007KT 10SM -RA BKN014 OVC021 07/07 A3011 RMK AO2 P0000=
202203180056 METAR KPWT 180056Z AUTO 21011KT 10SM -RA FEW009 BKN016 OVC021 07/07 A3011 RMK AO2 RAE09B33 SLP203 P0000 T00720067=
202203180033 SPECI KPWT 180033Z AUTO 21012KT 6SM -RA BR SCT009 BKN020 OVC026 08/07 A3011 RMK AO2 RAE09B33 P0000=
202203172356 METAR KPWT 172356Z AUTO 21007KT 8SM -RA BKN006 BKN010 08/08 A3011 RMK AO2 CIG 003V007 SLP203 P0001 60005 T00780078 10089 20072 57006=
202203172256 METAR KPWT 172256Z AUTO 20009KT 10SM -RA BKN008 OVC027 08/08 A3012 RMK AO2 CIG 005V011 SLP205 P0001 T00830078=
202203172218 SPECI KPWT 172218Z AUTO 20010KT 10SM -RA BKN008 OVC018 08/07 A3012 RMK AO2 P0000=
202203172156 METAR KPWT 172156Z AUTO 20008KT 10SM -RA FEW008 BKN021 OVC034 08/07 A3012 RMK AO2 SLP207 P0002 T00780072=
202203172145 SPECI KPWT 172145Z AUTO 20007KT 10SM -RA FEW008 BKN029 OVC034 08/07 A3013 RMK AO2 P0002=
202203172113 SPECI KPWT 172113Z AUTO 19008KT 10SM -RA SCT023 BKN029 OVC041 08/06 A3013 RMK AO2 P0000=
202203172056 METAR KPWT 172056Z AUTO 19006KT 10SM -RA FEW021 BKN032 OVC041 08/06 A3013 RMK AO2 RAB15 SLP209 P0001 60001 T00780061 55001=
202203172036 SPECI KPWT 172036Z AUTO 20008KT 9SM -RA FEW020 BKN028 BKN055 08/06 A3013 RMK AO2 RAB15 P0001=
202203171956 METAR KPWT 171956Z AUTO 20009KT 10SM FEW060 08/05 A3013 RMK AO2 SLP207 T00830050=
202203171856 METAR KPWT 171856Z AUTO 19006KT 10SM CLR 08/05 A3013 RMK AO2 SLP210 T00780050=
202203171756 METAR KPWT 171756Z AUTO 21007KT 10SM FEW008 07/06 A3013 RMK AO2 SLP210 60000 T00720056 10072 20050 53004=
202203171752 SPECI KPWT 171752Z AUTO 22007KT 10SM FEW008 07/06 A3013 RMK AO2=
202203171656 METAR KPWT 171656Z AUTO 19003KT 10SM FEW038 06/05 A3012 RMK AO2 SLP205 T00610050=
202203171556 METAR KPWT 171556Z AUTO 22004KT 10SM FEW100 06/06 A3012 RMK AO2 SLP206 T00560056=
202203171456 METAR KPWT 171456Z AUTO 22003KT 10SM FEW028 05/05 A3012 RMK AO2 SLP208 60000 T00500050 56013=
202203171411 SPECI KPWT 171411Z AUTO 00000KT 10SM FEW002 05/05 A3013 RMK AO2=
202203171356 METAR KPWT 171356Z AUTO 23003KT 10SM CLR 05/05 A3013 RMK AO2 RAB03E19 SLP209 P0000 T00500050=
202203171256 METAR KPWT 171256Z AUTO 00000KT 9SM CLR 05/05 A3015 RMK AO2 SLP215 T00500050=
202203171156 METAR KPWT 171156Z AUTO 00000KT 10SM SCT110 04/04 A3016 RMK AO2 SLP220 T00440044 10061 20044 56021=
202203171056 METAR KPWT 171056Z AUTO 00000KT 10SM CLR 05/05 A3018 RMK AO2 SLP225 T00500050=
202203170956 METAR KPWT 170956Z AUTO 00000KT 10SM FEW100 06/05 A3021 RMK AO2 SLP235 T00560050=
202203170856 METAR KPWT 170856Z AUTO 00000KT 10SM CLR 06/05 A3023 RMK AO2 SLP242 T00560050 57014=
202203170756 METAR KPWT 170756Z AUTO VRB03KT 10SM FEW046 06/05 A3024 RMK AO2 SLP247 T00610050 401110044=
202203170656 METAR KPWT 170656Z AUTO 16005KT 10SM CLR 06/06 A3025 RMK AO2 SLP251 T00610056=
202203170556 METAR KPWT 170556Z AUTO 16003KT 10SM SCT050 05/04 A3027 RMK AO2 SLP257 60000 T00500044 10100 20044 58006=
202203170456 METAR KPWT 170456Z AUTO 24004KT 10SM BKN050 05/04 A3028 RMK AO2 SLP261 T00500044=
202203170356 METAR KPWT 170356Z AUTO 19003KT 10SM CLR 06/04 A3028 RMK AO2 SLP261 T00560044=
202203170256 METAR KPWT 170256Z AUTO 17004KT 10SM CLR 07/06 A3029 RMK AO2 SLP263 60000 T00720056 56008=
202203170156 METAR KPWT 170156Z AUTO 20007KT 10SM BKN039 BKN055 08/06 A3029 RMK AO2 SLP264 T00830056=
202203170056 METAR KPWT 170056Z AUTO 19004KT 10SM CLR 09/06 A3029 RMK AO2 RAB04E36 SLP264 P0000 T00890061=
202203170041 SPECI KPWT 170041Z AUTO 20005KT 10SM FEW016 SCT024 09/06 A3030 RMK AO2 RAB04E36 P0000=
202203170021 SPECI KPWT 170021Z AUTO 22010KT 10SM -RA SCT022 BKN027 OVC037 09/07 A3031 RMK AO2 RAB04 P0000=
202203162356 METAR KPWT 162356Z AUTO 20008KT 10SM SCT039 10/05 A3031 RMK AO2 SLP270 60000 T01000050 10111 20072 56007=
202203162256 METAR KPWT 162256Z AUTO 21013KT 10SM SCT026 11/04 A3032 RMK AO2 RAB06E17 SLP272 P0000 T01110044=
202203162208 SPECI KPWT 162208Z AUTO 21010G17KT 10SM -RA FEW027 SCT035 BKN044 10/06 A3032 RMK AO2 RAB06 P0000=
202203162156 METAR KPWT 162156Z AUTO 22013G18KT 10SM BKN027 BKN033 BKN044 09/04 A3032 RMK AO2 SLP274 T00940044=
202203162056 METAR KPWT 162056Z AUTO 20010KT 10SM BKN027 BKN034 10/04 A3033 RMK AO2 SLP277 T01000044 58010=
202203162045 SPECI KPWT 162045Z AUTO 19010KT 10SM BKN027 11/05 A3033 RMK AO2=
202203161956 METAR KPWT 161956Z AUTO 17010G15KT 10SM SCT027 09/04 A3035 RMK AO2 SLP283 T00890044=
202203161944 SPECI KPWT 161944Z AUTO 19007G15KT 10SM SCT026 08/04 A3035 RMK AO2=
202203161856 METAR KPWT 161856Z AUTO 23010KT 10SM SCT019 OVC026 09/04 A3035 RMK AO2 SLP284 T00890039=
202203161804 SPECI KPWT 161804Z AUTO 23006KT 10SM BKN015 OVC020 07/04 A3036 RMK AO2=
202203161756 METAR KPWT 161756Z AUTO 24006KT 10SM OVC013 07/04 A3036 RMK AO2 SLP288 T00720044 10072 20044 53008=
202203161740 SPECI KPWT 161740Z AUTO 23006KT 10SM OVC011 07/04 A3036 RMK AO2=
202203161656 METAR KPWT 161656Z AUTO 21005KT 10SM OVC007 06/04 A3035 RMK AO2 CIG 005V011 SLP285 T00610044=
202203161556 METAR KPWT 161556Z AUTO 21007KT 10SM OVC005 05/04 A3034 RMK AO2 SLP282 T00500044=
202203161456 METAR KPWT 161456Z AUTO 23005KT 10SM OVC005 04/04 A3034 RMK AO2 SLP280 T00440039 53017=
202203161356 METAR KPWT 161356Z AUTO 24004KT 10SM OVC005 04/04 A3032 RMK AO2 CIG 004V007 SLP273 T00440044=
202203161256 METAR KPWT 161256Z AUTO 21003KT 10SM OVC005 04/04 A3030 RMK AO2 SLP267 T00440039=
202203161221 SPECI KPWT 161221Z AUTO 20003KT 10SM OVC005 04/04 A3029 RMK AO2 CIG 004V009=
202203161156 METAR KPWT 161156Z AUTO 18004KT 10SM OVC007 04/04 A3029 RMK AO2 CIG 005V011 SLP262 70011 T00440044 10056 20044 51008=
202203161056 METAR KPWT 161056Z AUTO 00000KT 10SM OVC009 05/04 A3028 RMK AO2 CIG 005V013 SLP260 T00500044=
202203160956 METAR KPWT 160956Z AUTO 00000KT 10SM OVC009 05/04 A3028 RMK AO2 SLP260 T00500044=
202203160911 SPECI KPWT 160911Z AUTO 23003KT 10SM OVC009 05/04 A3027 RMK AO2 CIG 007V011=
202203160856 METAR KPWT 160856Z AUTO 22004KT 10SM BKN011 05/04 A3026 RMK AO2 SLP254 T00500044 53009=
202203160842 SPECI KPWT 160842Z AUTO 20006KT 10SM BKN011 05/04 A3026 RMK AO2=
202203160756 METAR KPWT 160756Z AUTO 18006KT 10SM BKN009 04/04 A3024 RMK AO2 SLP247 T00440044 401170044=
202203160753 SPECI KPWT 160753Z AUTO 18005KT 10SM BKN009 04/04 A3024 RMK AO2 401170044=
202203160743 SPECI KPWT 160743Z AUTO 21004KT 10SM SCT007 04/04 A3024 RMK AO2=
202203160708 SPECI KPWT 160708Z AUTO 21007KT 10SM BKN009 05/04 A3024 RMK AO2 CIG 007V012=
202203160656 METAR KPWT 160656Z AUTO 20008KT 10SM SCT011 05/04 A3024 RMK AO2 SLP245 T00500044=
202203160556 METAR KPWT 160556Z AUTO 21010KT 10SM CLR 05/04 A3022 RMK AO2 SLP240 T00500044 10094 20050 53010=
202203160511 SPECI KPWT 160511Z AUTO 20010KT 10SM SCT009 06/05 A3021 RMK AO2=
202203160456 METAR KPWT 160456Z AUTO 20012KT 10SM BKN009 06/05 A3020 RMK AO2 SLP234 T00610050=
202203160444 SPECI KPWT 160444Z AUTO 20011KT 10SM BKN009 06/06 A3021 RMK AO2=
202203160411 SPECI KPWT 160411Z AUTO 19010KT 10SM SCT008 06/05 A3020 RMK AO2=
202203160356 METAR KPWT 160356Z AUTO 18006KT 10SM BKN008 06/05 A3019 RMK AO2 SLP229 T00560050=
202203160352 SPECI KPWT 160352Z AUTO 19004KT 10SM SCT008 06/05 A3019 RMK AO2=
202203160256 METAR KPWT 160256Z AUTO 20008KT 10SM CLR 06/04 A3017 RMK AO2 SLP224 T00560044 53016=
202203160156 METAR KPWT 160156Z AUTO 21011KT 10SM CLR 07/04 A3015 RMK AO2 SLP215 T00720044=
202203160056 METAR KPWT 160056Z AUTO 21013G19KT 10SM CLR 08/06 A3014 RMK AO2 SLP212 T00830056=
202203152356 METAR KPWT 152356Z AUTO 21013KT 10SM CLR 09/07 A3012 RMK AO2 RAE20 SLP207 P0000 60002 T00890067 10117 20078 50006=
202203152256 METAR KPWT 152256Z AUTO 23013G24KT 10SM -RA FEW033 SCT040 08/06 A3013 RMK AO2 RAE11B46 SLP208 P0001 T00780061=
202203152156 METAR KPWT 152156Z AUTO 21014G22KT 9SM -RA FEW023 BKN030 08/06 A3013 RMK AO2 PK WND 21026/2057 RAE11B28 SLP208 P0001 T00780056=
202203152056 METAR KPWT 152056Z AUTO 22017G22KT 10SM -RA SCT035 10/06 A3011 RMK AO2 PK WND 23026/2029 RAB53 SLP200 P0000 60000 T01000056 51017=
202203151956 METAR KPWT 151956Z AUTO 23016G22KT 10SM CLR 11/07 A3008 RMK AO2 SLP192 T01110067=
202203151856 METAR KPWT 151856Z AUTO 21016G22KT 10SM CLR 10/06 A3008 RMK AO2 SLP191 T01000061=
202203151756 METAR KPWT 151756Z AUTO 21014G20KT 10SM CLR 09/07 A3005 RMK AO2 RAE12 SLP183 P0000 60009 T00940072 10094 20061 51020=
202203151656 METAR KPWT 151656Z AUTO 21008KT 10SM -RA FEW003 SCT008 BKN034 07/06 A3004 RMK AO2 RAB01 SLP181 P0006 T00720061=
202203151651 SPECI KPWT 151651Z AUTO 22008KT 10SM -RA FEW003 SCT008 BKN015 07/06 A3004 RMK AO2 RAB01 P0006=
202203151631 SPECI KPWT 151631Z AUTO 21009KT 10SM -RA BKN008 BKN014 08/07 A3004 RMK AO2 RAB01 CIG 005V011 P0000=
202203151556 METAR KPWT 151556Z AUTO 20013G18KT 10SM FEW007 BKN012 07/07 A3001 RMK AO2 SLP170 T00720067=
202203151548 SPECI KPWT 151548Z AUTO 20012G19KT 10SM SCT006 OVC012 07/07 A3001 RMK AO2=
202203151456 METAR KPWT 151456Z AUTO 20010G17KT 10SM OVC009 07/07 A2999 RMK AO2 RAB02E28 CIG 006V011 SLP163 P0000 60003 T00670067 53010=
202203151407 SPECI KPWT 151407Z AUTO 20009KT 10SM -RA BKN009 OVC013 07/06 A2999 RMK AO2 RAB02 CIG 006V010 P0000=
202203151356 METAR KPWT 151356Z AUTO 20009KT 9SM FEW007 BKN012 OVC020 07/06 A2999 RMK AO2 SLP161 T00670061=
202203151350 SPECI KPWT 151350Z AUTO 20006KT 9SM FEW007 BKN014 OVC025 07/06 A2999 RMK AO2=
202203151338 SPECI KPWT 151338Z AUTO 21007KT 10SM FEW011 BKN021 BKN029 06/06 A2998 RMK AO2=
202203151256 METAR KPWT 151256Z AUTO 21010KT 10SM FEW008 07/06 A2997 RMK AO2 RAE48 SLP154 P0003 T00670061=
202203151208 SPECI KPWT 151208Z AUTO 20013G20KT 10SM -RA BKN006 BKN010 07/07 A2995 RMK AO2 CIG 003V008 P0001=
202203151156 METAR KPWT 151156Z AUTO 19012G16KT 10SM -RA BKN004 OVC009 07/07 A2994 RMK AO2 RAB1058E09B34 SLP144 P0001 60027 70097 T00670067 10067 20050 53001=
202203151137 SPECI KPWT 151137Z AUTO 21011KT 10SM -RA BKN004 OVC009 07/07 A2994 RMK AO2 RAB1058E09B34 P0000=
202203151056 METAR KPWT 151056Z AUTO 21010KT 9SM BKN002 OVC009 07/07 A2992 RMK AO2 RAE21 SLP137 P0000 T00670067=
202203151028 SPECI KPWT 151028Z AUTO 21009KT 10SM OVC002 07/07 A2992 RMK AO2 RAE21 P0000=
202203150956 METAR KPWT 150956Z AUTO 22009KT 9SM -RA BKN004 BKN024 06/06 A2993 RMK AO2 SLP141 P0005 T00610061=
202203150948 SPECI KPWT 150948Z AUTO 22009KT 9SM -RA BKN006 BKN024 BKN065 07/06 A2993 RMK AO2 CIG 003V009 P0004=
202203150918 SPECI KPWT 150918Z AUTO 19007KT 10SM -RA FEW004 SCT008 BKN034 06/06 A2993 RMK AO2 P0004=
202203150856 METAR KPWT 150856Z AUTO 27007KT 7SM RA OVC004 06/06 A2994 RMK AO2 CIG 002V008 SLP143 P0012 60021 T00560056 56008=
202203150756 METAR KPWT 150756Z AUTO 22003KT 7SM -RA OVC004 05/05 A2994 RMK AO2 SLP144 P0005 T00500050 400780044=
202203150656 METAR KPWT 150656Z AUTO 22003KT 5SM -RA BR OVC004 05/05 A2995 RMK AO2 SLP148 P0004 T00500050=
202203150633 SPECI KPWT 150633Z AUTO 22003KT 4SM -RA BR OVC004 05/05 A2996 RMK AO2 P0003=
202203150556 METAR KPWT 150556Z AUTO 00000KT 2 1/2SM -RA BR OVC004 05/05 A2996 RMK AO2 SLP152 P0000 60024 T00500050 10061 20044 56008=
202203150522 SPECI KPWT 150522Z AUTO 21003KT 5SM -RA BR OVC004 05/04 A2996 RMK AO2 CIG 003V009 P0000=
202203150456 METAR KPWT 150456Z AUTO 22004KT 10SM -RA OVC008 04/04 A2996 RMK AO2 RAB10 CIG 006V011 SLP153 P0001 T00440044=
202203150439 SPECI KPWT 150439Z AUTO 22004KT 8SM -RA BKN010 OVC019 05/04 A2996 RMK AO2 RAB10 CIG 008V011 P0000=
202203150356 METAR KPWT 150356Z AUTO 26004KT 10SM FEW003 BKN028 OVC034 04/04 A2997 RMK AO2 RAE53 SLP155 P0001 T00440044=
202203150345 SPECI KPWT 150345Z AUTO 26004KT 10SM -RA FEW003 BKN025 OVC034 05/04 RMK AO2 P0001 $=
202203150332 SPECI KPWT 150332Z AUTO 26005KT 10SM -RA SCT007 BKN011 OVC034 05/04 A2996 RMK AO2 P0001=
202203150305 SPECI KPWT 150305Z AUTO 21005KT 10SM -RA OVC014 05/04 A2998 RMK AO2 P0000=
202203150256 METAR KPWT 150256Z AUTO 23005KT 10SM -RA OVC016 05/04 A2999 RMK AO2 SLP161 P0005 60022 T00500044 58019=
202203150213 SPECI KPWT 150213Z AUTO 24006KT 8SM -RA SCT006 BKN015 OVC021 05/05 A3000 RMK AO2 P0001=
202203150153 METAR KPWT 150153Z AUTO 23007KT 8SM -RA BKN008 OVC020 06/05 A3002 RMK AO2 CIG 005V012 SLPNO P0007 T00560050=
202203150152 SPECI KPWT 150152Z AUTO 23006KT 8SM -RA BKN008 OVC020 06/05 A3002 RMK AO2 CIG 005V012 P0007=
202203150130 SPECI KPWT 150130Z AUTO 23006KT 10SM RA FEW009 OVC020 06/05 A3002 RMK AO2 P0005=
202203150056 METAR KPWT 150056Z AUTO 26005KT 9SM RA OVC025 06/05 A3002 RMK AO2 SLP172 P0010 T00560050=
202203142356 METAR KPWT 142356Z AUTO 24010KT 9SM RA OVC025 06/06 A3004 RMK AO2 SLP180 P0009 60035 T00610056 10078 20061 58013=
202203142322 SPECI KPWT 142322Z AUTO 24011KT 7SM -RA SCT007 SCT020 OVC029 07/06 A3005 RMK AO2 P0003=
202203142311 SPECI KPWT 142311Z AUTO 24009KT 6SM RA BR BKN007 BKN011 OVC031 07/06 A3006 RMK AO2 P0002=
202203142256 METAR KPWT 142256Z AUTO 24011KT 8SM RA SCT007 BKN012 OVC026 07/07 A3006 RMK AO2 SLP185 P0014 T00720067=
202203142156 METAR KPWT 142156Z AUTO 20009KT 9SM RA BKN009 OVC014 07/07 A3007 RMK AO2 CIG 006V011 SLP188 P0006 T00720067=
202203142056 METAR KPWT 142056Z AUTO 20007KT 10SM -RA BKN009 OVC015 08/07 A3008 RMK AO2 CIG 005V012 SLP192 P0003 60006 T00780067 58008=
202203141956 METAR KPWT 141956Z AUTO 22009KT 9SM -RA BKN007 OVC033 08/07 A3010 RMK AO2 CIG 004V010 SLP199 P0002 T00780067=
202203141954 SPECI KPWT 141954Z AUTO 21008KT 8SM -RA BKN007 OVC033 08/07 A3010 RMK AO2 CIG 004V010 P0002=
202203141943 SPECI KPWT 141943Z AUTO 22008KT 7SM -RA BKN005 OVC031 08/07 A3010 RMK AO2 CIG 004V009 P0001=
202203141856 METAR KPWT 141856Z AUTO 22006KT 10SM -RA SCT007 OVC031 07/07 A3011 RMK AO2 SLP201 P0001 T00720067=
202203141846 SPECI KPWT 141846Z AUTO 22008KT 8SM -RA SCT009 OVC031 08/07 A3011 RMK AO2 P0001=
202203141834 SPECI KPWT 141834Z AUTO 21007KT 10SM -RA BKN009 OVC029 07/07 A3011 RMK AO2 CIG 006V013 P0001=
202203141822 SPECI KPWT 141822Z AUTO 21009KT 10SM -RA FEW007 BKN022 OVC029 07/06 A3011 RMK AO2 P0001=
202203141814 SPECI KPWT 141814Z AUTO 20008KT 9SM -RA BKN007 BKN020 OVC027 07/06 A3012 RMK AO2 CIG 005V013 P0001=
202203141756 METAR KPWT 141756Z AUTO 20007KT 6SM -RA BR SCT007 OVC027 07/07 A3012 RMK AO2 SLP206 P0001 60011 T00670067 55000=
202203141656 METAR KPWT 141656Z AUTO 21008KT 6SM -RA BR FEW007 OVC026 07/06 A3011 RMK AO2 SLP203 P0001 T00670061=
202203141640 SPECI KPWT 141640Z AUTO 21007KT 7SM -RA SCT007 SCT011 OVC026 07/06 A3011 RMK AO2 P0001=
202203141556 METAR KPWT 141556Z AUTO 19005KT 4SM -RA BR BKN007 BKN015 OVC019 06/06 A3012 RMK AO2 CIG 004V010 SLP206 P0001 T00560056=
202203141528 SPECI KPWT 141528Z AUTO 19005KT 5SM -RA BR FEW006 BKN018 OVC025 06/05 A3012 RMK AO2 P0000=
202203141516 SPECI KPWT 141516Z AUTO 19007KT 6SM -RA BR SCT006 BKN011 OVC025 06/05 A3012 RMK AO2 P0000=
202203141456 METAR KPWT 141456Z AUTO 18007KT 4SM -RA BR BKN006 OVC012 06/05 A3012 RMK AO2 UPB14E18 CIG 004V009 SLP206 P0003 60008 T00560050 50001=
202203141356 METAR KPWT 141356Z AUTO 20008KT 6SM -RA OVC006 A3012 RMK AO2 CIG 004V010 SLPNO P0002 FZRANO=
202203141256 METAR KPWT 141256Z AUTO 19010KT 7SM -RA OVC006 06/06 A3014 RMK AO2 CIG 004V009 SLP211 P0003 T00560056=
202203141227 SPECI KPWT 141227Z AUTO 20013G18KT 6SM -RA BR OVC006 06/06 A3013 RMK AO2 CIG 004V009 P0001=
202203141213 SPECI KPWT 141213Z AUTO 21010KT 5SM -RA BR OVC004 06/06 A3013 RMK AO2 CIG 004V009 P0000=
202203141156 METAR KPWT 141156Z AUTO 19010KT 5SM -RA BR OVC006 06/06 A3012 RMK AO2 CIG 004V010 SLP205 P0003 60012 70021 T00560056 10061 20056 56015=
202203141056 METAR KPWT 141056Z AUTO 20011KT 8SM -RA OVC006 06/05 A3013 RMK AO2 CIG 004V009 SLP208 P0002 T00560050=
202203140956 METAR KPWT 140956Z AUTO 19010KT 10SM -RA BKN008 OVC012 06/05 A3015 RMK AO2 CIG 005V008 SLP217 P0001 T00560050=
202203140856 METAR KPWT 140856Z AUTO 20010KT 10SM -RA OVC008 06/06 A3016 RMK AO2 CIG 005V011 SLP220 P0002 60006 T00610056 51013=
202203140812 SPECI KPWT 140812Z AUTO 20012G18KT 10SM -RA OVC006 06/06 A3016 RMK AO2 CIG 003V010 P0001=
202203140756 METAR KPWT 140756Z AUTO 20011KT 10SM -RA BKN004 OVC009 06/06 A3016 RMK AO2 SLP217 P0003 T00610056 400940044=
202203140738 SPECI KPWT 140738Z AUTO 19010KT 10SM -RA BKN004 BKN011 OVC021 06/06 A3015 RMK AO2 CIG 003V008 P0002=
202203140715 SPECI KPWT 140715Z AUTO 21009KT 10SM -RA BKN006 OVC021 06/06 A3015 RMK AO2 CIG 004V008 P0001=
202203140707 SPECI KPWT 140707Z AUTO 20009KT 10SM -RA FEW006 SCT013 OVC021 06/06 A3015 RMK AO2 P0001=
202203140656 METAR KPWT 140656Z AUTO 21010KT 10SM -RA FEW010 OVC023 06/06 A3015 RMK AO2 SLP215 P0001 T00610056=
202203140632 SPECI KPWT 140632Z AUTO 21013KT 10SM -RA FEW007 BKN023 OVC035 06/05 A3014 RMK AO2 P0001=
202203140623 SPECI KPWT 140623Z AUTO 22014G21KT 10SM -RA FEW007 SCT012 OVC035 06/05 A3014 RMK AO2 P0000=
202203140616 SPECI KPWT 140616Z AUTO 21013KT 10SM -RA SCT007 BKN011 OVC035 06/06 A3013 RMK AO2 P0000=
202203140556 METAR KPWT 140556Z AUTO 21014KT 10SM -RA OVC009 06/06 A3013 RMK AO2 RAB09 CIG 007V011 SLP207 P0001 60002 T00610056 10089 20061 51027=
202203140538 SPECI KPWT 140538Z AUTO 21012KT 10SM -RA OVC009 06/06 A3012 RMK AO2 RAB09 CIG 007V014 P0000=
202203140521 SPECI KPWT 140521Z AUTO 22013KT 10SM -RA BKN011 BKN021 06/06 A3012 RMK AO2 RAB09 P0000=
202203140508 SPECI KPWT 140508Z AUTO 21013G20KT 10SM SCT013 BKN021 06/06 A3011 RMK AO2=
202203140456 METAR KPWT 140456Z AUTO 21014G22KT 10SM SCT013 07/05 A3011 RMK AO2 PK WND 20026/0416 RAE33 SLP201 P0000 T00670050=
202203140403 SPECI KPWT 140403Z AUTO 20017G22KT 10SM -RA OVC011 07/06 A3009 RMK AO2 P0000=
202203140356 METAR KPWT 140356Z AUTO 22018G22KT 10SM -RA BKN009 OVC013 07/07 A3008 RMK AO2 RAB05 CIG 006V011 SLP192 P0001 T00720067=
202203140256 METAR KPWT 140256Z AUTO 21014G20KT 10SM BKN009 OVC120 08/07 A3005 RMK AO2 CIG 006V014 SLP180 60000 T00780072 53025=
202203140243 SPECI KPWT 140243Z AUTO 21014G21KT 10SM BKN009 OVC110 08/07 A3004 RMK AO2 CIG 007V014=
202203140222 SPECI KPWT 140222Z AUTO 21016KT 10SM SCT012 BKN110 08/07 A3003 RMK AO2=
202203140156 METAR KPWT 140156Z AUTO 21018KT 10SM BKN010 OVC014 08/07 A3001 RMK AO2 CIG 008V012 SLP167 T00780072=
202203140056 METAR KPWT 140056Z AUTO 21014KT 10SM FEW007 OVC014 09/08 A2998 RMK AO2 RAE01 SLP158 P0000 T00890078=
202203140034 SPECI KPWT 140034Z AUTO 22014KT 10SM FEW005 OVC013 08/08 A2998 RMK AO2 RAE01 P0000=
202203132356 METAR KPWT 132356Z AUTO 21010KT 10SM -RA SCT004 BKN019 OVC038 08/08 A2997 RMK AO2 CIG 014V024 SLP155 P0005 60007 T00830078 10094 20078 53013=
202203132342 SPECI KPWT 132342Z AUTO 22009KT 3SM -RA BR BKN004 OVC022 08/08 A2997 RMK AO2 CIG 003V008 P0004=
202203132333 SPECI KPWT 132333Z AUTO 24006KT 1 3/4SM -RA BR OVC006 08/08 A2997 RMK AO2 VIS 1 1/4V3 CIG 003V008 P0001=
202203132329 SPECI KPWT 132329Z AUTO 23009KT 2 1/2SM -RA BR BKN003 OVC006 08/08 A2996 RMK AO2 VIS 1 3/4V4 P0001=
202203132319 SPECI KPWT 132319Z AUTO 22007KT 3SM -RA BR OVC006 08/08 A2996 RMK AO2 CIG 003V008 P0000=
202203132256 METAR KPWT 132256Z AUTO 20006KT 4SM -RA BR OVC004 08/08 A2995 RMK AO2 RAE2157B16 CIG 003V008 SLP149 P0001 T00830083=
202203132242 SPECI KPWT 132242Z AUTO 22006KT 3SM -RA BR OVC004 08/08 A2995 RMK AO2 RAE2157B16 CIG 003V009 P0000=
202203132224 SPECI KPWT 132224Z AUTO 20007KT 3SM -RA BR OVC008 08/08 A2995 RMK AO2 RAE2157B16 CIG 003V010 P0000=
202203132218 SPECI KPWT 132218Z AUTO 21006KT 2 1/2SM -RA BR BKN005 OVC008 08/08 A2995 RMK AO2 VIS 1 1/2V5 RAE2157B16 CIG 003V007 P0000=
202203132211 SPECI KPWT 132211Z AUTO 19006KT 5SM BR OVC008 08/07 A2994 RMK AO2 RAE2157 CIG 005V012=
202203132156 METAR KPWT 132156Z AUTO 20006KT 10SM -RA BKN010 OVC017 08/07 A2994 RMK AO2 CIG 005V012 SLP143 P0001 T00780072=
202203132112 SPECI KPWT 132112Z AUTO 22008KT 3SM -RA BR OVC012 08/07 A2993 RMK AO2 P0000=
202203132056 METAR KPWT 132056Z AUTO 21009KT 5SM -RA BR SCT010 OVC016 08/06 A2993 RMK AO2 RAB00E11B53 SLP141 P0000 60000 T00780061 51025=
202203131956 METAR KPWT 131956Z AUTO 23008KT 10SM BKN022 OVC031 09/05 A2991 RMK AO2 RAB27E39 SLP134 P0000 T00890050=
202203131856 METAR KPWT 131856Z AUTO 24009KT 10SM OVC027 09/04 A2989 RMK AO2 SLP126 T00940044=
202203131842 SPECI KPWT 131842Z AUTO 22010KT 10SM BKN029 OVC035 09/04 A2988 RMK AO2=
202203131756 METAR KPWT 131756Z AUTO 22009KT 10SM OVC035 09/04 A2986 RMK AO2 SLP116 T00890044 10089 20044 53023=
202203131656 METAR KPWT 131656Z AUTO VRB04KT 10SM CLR 08/06 A2983 RMK AO2 SLP107 T00830056=
202203131556 METAR KPWT 131556Z AUTO 27006KT 10SM OVC060 07/06 A2981 RMK AO2 SLP099 T00720056=
202203131456 METAR KPWT 131456Z AUTO 29004KT 10SM BKN049 06/05 A2979 RMK AO2 SLP093 T00560050 53020=
202203131356 METAR KPWT 131356Z AUTO 00000KT 10SM BKN045 05/04 A2976 RMK AO2 SLP085 T00500044=
202203131256 METAR KPWT 131256Z AUTO 26005KT 10SM FEW018 BKN045 06/05 A2975 RMK AO2 SLP079 T00560050=
202203131156 METAR KPWT 131156Z AUTO 20006KT 10SM FEW016 BKN042 06/05 A2973 RMK AO2 RAB09E26 SLP073 P0001 60011 7//// T00560050 10067 20056 51008=
202203131127 SPECI KPWT 131127Z AUTO 20008KT 10SM FEW007 BKN032 OVC040 06/06 A2973 RMK AO2 RAB09E26 P0001=
202203131119 SPECI KPWT 131119Z AUTO 19008KT 10SM -RA FEW007 BKN020 OVC034 06/06 A2972 RMK AO2 RAB09 CIG 015V024 P0000=
202203131056 METAR KPWT 131056Z AUTO 19007KT 10SM FEW007 SCT023 BKN030 06/06 A2972 RMK AO2 RAE03 SLP071 P0000 T00610056=
202203131001 SPECI KPWT 131001Z AUTO 22007KT 10SM -RA FEW009 BKN040 OVC048 06/06 A2972 RMK AO2 P0000=
202203130956 METAR KPWT 130956Z AUTO 22006KT 10SM -RA SCT012 BKN017 OVC043 06/06 A2972 RMK AO2 SLP068 P0004 T00610056=
202203130937 SPECI KPWT 130937Z AUTO 20011KT 10SM -RA BKN014 BKN020 OVC036 06/06 A2971 RMK AO2 P0004=
202203130908 SPECI KPWT 130908Z AUTO 19008KT 10SM RA FEW021 SCT026 OVC036 06/06 A2971 RMK AO2 P0002=
202203130856 METAR KPWT 130856Z AUTO 22008KT 8SM RA FEW021 BKN026 OVC034 06/06 A2970 RMK AO2 SLP063 P0004 60006 T00610061 53008=
202203130756 METAR KPWT 130756Z AUTO 00000KT 10SM -RA BKN023 OVC033 06/06 A2967 RMK AO2 SLP052 P0001 T00610056 401220039=
202203130656 METAR KPWT 130656Z AUTO 00000KT 10SM -RA OVC023 06/06 A2967 RMK AO2 SLP052 P0001 T00610056=
202203130556 METAR KPWT 130556Z AUTO 00000KT 6SM RA BR BKN021 OVC037 06/06 A2968 RMK AO2 RAE09B50 SLP056 P0000 60007 T00560056 10072 20056 56012=
202203130456 METAR KPWT 130456Z AUTO 00000KT 10SM -RA OVC023 06/06 A2969 RMK AO2 RAB26 SLP061 P0000 T00560056=
202203130356 METAR KPWT 130356Z AUTO 04003KT 10SM OVC025 06/05 A2970 RMK AO2 RAE54 SLP064 P0001 T00560050=
202203130256 METAR KPWT 130256Z AUTO 32003KT 9SM -RA FEW008 SCT016 OVC025 06/06 A2972 RMK AO2 SLP069 P0001 60006 T00560056 56021=
202203130220 SPECI KPWT 130220Z AUTO VRB03KT 4SM -RA BR FEW003 BKN021 OVC026 06/05 A2972 RMK AO2 P0000=
202203130156 METAR KPWT 130156Z AUTO 26003KT 9SM -RA BKN028 OVC035 06/05 A2973 RMK AO2 SLP074 P0003 T00560050=
202203130056 METAR KPWT 130056Z AUTO 26005KT 10SM RA OVC034 06/05 A2976 RMK AO2 SLP083 P0002 T00610050=
202203122356 METAR KPWT 122356Z AUTO 24005KT 10SM -RA BKN034 07/04 A2978 RMK AO2 WSHFT 2257 SLP090 P0003 60003 T00670044 10122 20067 56013=
202203122317 SPECI KPWT 122317Z AUTO 25016G20KT 10SM -RA FEW023 BKN036 OVC047 07/03 A2978 RMK AO2 WSHFT 2257 P0001=
202203122256 METAR KPWT 122256Z AUTO 21014G18KT 10SM -RA FEW029 BKN033 OVC060 09/01 A2980 RMK AO2 RAB45 SLP095 P0000 T00890006=
202203122156 METAR KPWT 122156Z AUTO 24010KT 10SM BKN070 11/M03 A2978 RMK AO2 SLP089 T01111033=
202203122056 METAR KPWT 122056Z AUTO 23011KT 10SM CLR 12/M01 A2982 RMK AO2 SLP102 T01171011 58043=
202203121956 METAR KPWT 121956Z AUTO 24008KT 10SM CLR 11/00 A2988 RMK AO2 SLP123 T01060000=
202203121856 METAR KPWT 121856Z AUTO 19004KT 10SM CLR 09/01 A2991 RMK AO2 SLP135 T00890011=
202203121756 METAR KPWT 121756Z AUTO 21005KT 10SM CLR 08/03 A2995 RMK AO2 SLP147 6//// T00780028 10078 20039 58022=
202203121656 METAR KPWT 121656Z AUTO 15003KT 10SM CLR 07/03 A2998 RMK AO2 SLP156 T00670033=
202203121556 METAR KPWT 121556Z AUTO 18006KT 10SM CLR 05/04 A2999 RMK AO2 SLP163 T00500039=
202203121456 METAR KPWT 121456Z AUTO 20005KT 10SM CLR 04/03 A3001 RMK AO2 SLP170 T00440033 58019=
202203121356 METAR KPWT 121356Z AUTO 21006KT 10SM SCT034 BKN049 05/04 A3003 RMK AO2 SLP175 T00500039=
202203121256 METAR KPWT 121256Z AUTO 20006KT 10SM FEW018 OVC040 06/04 A3005 RMK AO2 SLP182 T00560039=
202203121156 METAR KPWT 121156Z AUTO 20005KT 10SM OVC042 06/04 A3007 RMK AO2 SLP187 T00560039 10067 20039 56022=
202203121056 METAR KPWT 121056Z AUTO 17003KT 10SM OVC044 05/03 A3009 RMK AO2 SLP194 T00500028=
202203120956 METAR KPWT 120956Z AUTO 18003KT 10SM OVC046 06/02 A3011 RMK AO2 SLP201 T00560022=
202203120856 METAR KPWT 120856Z AUTO 00000KT 10SM OVC048 04/M01 A3014 RMK AO2 SLP211 T00441011 58009=
202203120756 METAR KPWT 120756Z AUTO 00000KT 10SM OVC055 04/M03 A3015 RMK AO2 SLP216 T00441028 401280017=
202203120656 METAR KPWT 120656Z AUTO 19005KT 10SM SCT055 06/M06 A3016 RMK AO2 SLP218 T00611061=
202203120556 METAR KPWT 120556Z AUTO 20004KT 10SM FEW055 06/M04 A3016 RMK AO2 SLP221 T00611044 10128 20061 53000=
202203120456 METAR KPWT 120456Z AUTO 21007KT 10SM CLR 07/M03 A3015 RMK AO2 SLP217 T00671033=
202203120356 METAR KPWT 120356Z AUTO 19005KT 10SM OVC050 08/M03 A3015 RMK AO2 SLP216 T00781028=
202203120256 METAR KPWT 120256Z AUTO 20006KT 10SM SCT055 07/M02 A3016 RMK AO2 SLP220 T00721022 56017=
202203120156 METAR KPWT 120156Z AUTO 21006KT 10SM SCT055 09/00 A3018 RMK AO2 SLP227 T00940000=
202203120056 METAR KPWT 120056Z AUTO 21010KT 10SM BKN060 12/M01 A3019 RMK AO2 SLP229 T01171011=
202203112356 METAR KPWT 112356Z AUTO 22006KT 10SM CLR 13/M01 A3021 RMK AO2 SLP236 T01281006 10128 20061 58023=
202203112256 METAR KPWT 112256Z AUTO 00000KT 10SM CLR 12/M01 A3024 RMK AO2 SLP246 T01171011=
202203112156 METAR KPWT 112156Z AUTO 20005KT 10SM SCT060 SCT075 11/M01 A3026 RMK AO2 SLP253 T01061006=
202203112056 METAR KPWT 112056Z AUTO VRB03KT 10SM OVC055 09/M01 A3028 RMK AO2 SLP260 T00941011 58012=
202203111956 METAR KPWT 111956Z AUTO 00000KT 10SM OVC045 08/M01 A3030 RMK AO2 SLP268 T00781006=
202203111856 METAR KPWT 111856Z AUTO 00000KT 10SM OVC047 07/M01 A3031 RMK AO2 SLP271 T00671006=
202203111756 METAR KPWT 111756Z AUTO 00000KT 10SM OVC047 06/M01 A3032 RMK AO2 SLP274 T00611006 10061 20017 56001=
202203111656 METAR KPWT 111656Z AUTO 00000KT 10SM BKN045 BKN070 06/00 A3032 RMK AO2 SLP275 T00560000=
202203111556 METAR KPWT 111556Z AUTO 00000KT 10SM FEW050 03/00 A3030 RMK AO2 SLP268 T00330000=
202203111456 METAR KPWT 111456Z AUTO 00000KT 10SM BKN070 02/00 A3032 RMK AO2 SLP274 T00220000 55001 FZRANO=
202203111356 METAR KPWT 111356Z AUTO 00000KT 10SM FEW060 SCT100 02/M01 A3032 RMK AO2 SLP273 T00171006 FZRANO=
202203111256 METAR KPWT 111256Z AUTO 00000KT 10SM BKN055 02/M01 A3032 RMK AO2 SLP276 T00221011 FZRANO=
202203111156 METAR KPWT 111156Z AUTO 00000KT 10SM FEW060 02/M01 A3032 RMK AO2 SLP277 T00221006 10039 20017 56008 FZRANO=
202203111056 METAR KPWT 111056Z AUTO 00000KT 10SM FEW075 02/M01 A3033 RMK AO2 SLP276 T00221011 FZRANO=
202203110956 METAR KPWT 110956Z AUTO 05004KT 10SM CLR 03/M02 A3034 RMK AO2 SLP281 T00331017=
202203110856 METAR KPWT 110856Z AUTO 06004KT 10SM FEW043 04/M02 A3035 RMK AO2 SLP283 T00391017 58002=
202203110756 METAR KPWT 110756Z AUTO 05005KT 10SM CLR 04/M02 A3035 RMK AO2 SLP285 T00391022 400831067=
202203110656 METAR KPWT 110656Z AUTO 00000KT 10SM SCT046 03/M02 A3036 RMK AO2 SLP287 T00281017=
202203110556 METAR KPWT 110556Z AUTO 00000KT 10SM CLR 03/M02 A3035 RMK AO2 SLP287 T00281017 10067 20022 53006=
202203110456 METAR KPWT 110456Z AUTO 00000KT 10SM CLR 03/M02 A3035 RMK AO2 SLP283 T00331017=
202203110356 METAR KPWT 110356Z AUTO 00000KT 10SM CLR 04/M01 A3034 RMK AO2 SLP281 T00391011=
202203110256 METAR KPWT 110256Z AUTO 00000KT 10SM CLR 04/00 A3033 RMK AO2 SLP281 T00390000 55004=
202203110156 METAR KPWT 110156Z AUTO 00000KT 10SM CLR 06/M04 A3033 RMK AO2 SLP279 T00611039=
202203110056 METAR KPWT 110056Z AUTO 00000KT 10SM BKN075 07/M06 A3034 RMK AO2 SLP282 T00671056=
202203102356 METAR KPWT 102356Z AUTO 00000KT 10SM BKN100 07/M07 A3035 RMK AO2 SLP285 T00671072 10083 20050 56003=
202203102256 METAR KPWT 102256Z AUTO 20004KT 10SM CLR 07/M08 A3035 RMK AO2 SLP285 T00721078=
202203102156 METAR KPWT 102156Z AUTO 19004KT 10SM CLR 07/M08 A3034 RMK AO2 SLP282 T00721083=
202203102056 METAR KPWT 102056Z AUTO 23006KT 10SM CLR 08/M06 A3036 RMK AO2 SLP288 T00781056 58008=
202203101956 METAR KPWT 101956Z AUTO 23006KT 10SM CLR 08/M07 A3037 RMK AO2 SLP293 T00781072=
202203101856 METAR KPWT 101856Z AUTO 16003KT 10SM CLR 07/M06 A3038 RMK AO2 SLP297 T00671061=
202203101756 METAR KPWT 101756Z AUTO VRB04KT 10SM CLR 06/M06 A3038 RMK AO2 SLP295 T00561061 10056 21061 51011=
202203101656 METAR KPWT 101656Z AUTO 24003KT 10SM CLR 03/M05 A3037 RMK AO2 SLP293 T00331050=
202203101556 METAR KPWT 101556Z AUTO 00000KT 10SM CLR 00/M02 A3036 RMK AO2 SLP290 T00001017 FZRANO=
202203101456 METAR KPWT 101456Z AUTO 00000KT 10SM CLR M04/M05 A3035 RMK AO2 SLP286 T10441050 55000 FZRANO=
202203101356 METAR KPWT 101356Z AUTO 00000KT 10SM CLR M05/M06 A3035 RMK AO2 SLP285 T10501056 FZRANO=
202203101256 METAR KPWT 101256Z AUTO 00000KT 10SM CLR M06/M07 A3035 RMK AO2 SLP285 T10561067 FZRANO=
202203101156 METAR KPWT 101156Z AUTO 00000KT 10SM CLR M06/M07 A3035 RMK AO2 SLP285 T10561067 10011 21067 56003 FZRANO=
202203101056 METAR KPWT 101056Z AUTO 00000KT 10SM CLR M07/M07 A3035 RMK AO2 SLP285 T10671072 FZRANO=
202203100956 METAR KPWT 100956Z AUTO 00000KT 10SM CLR M05/M07 A3035 RMK AO2 SLP285 T10501067 FZRANO=
202203100856 METAR KPWT 100856Z AUTO 00000KT 10SM CLR M04/M06 A3036 RMK AO2 SLP289 T10441061 51015 FZRANO=
202203100756 METAR KPWT 100756Z AUTO 00000KT 10SM CLR M04/M06 A3034 RMK AO2 SLP282 T10391061 400831039 FZRANO=
202203100656 METAR KPWT 100656Z AUTO 00000KT 10SM CLR M04/M07 A3033 RMK AO2 SLP280 T10391067 FZRANO=
202203100556 METAR KPWT 100556Z AUTO 00000KT 10SM CLR 01/M11 A3031 RMK AO2 SLP271 T00111106 10072 20006 53009 FZRANO=
202203100456 METAR KPWT 100456Z AUTO 03004KT 10SM CLR 01/M11 A3030 RMK AO2 SLP267 T00061111 FZRANO=
202203100356 METAR KPWT 100356Z AUTO 02008KT 10SM CLR 02/M12 A3029 RMK AO2 SLP265 T00221117 FZRANO=
202203100256 METAR KPWT 100256Z AUTO 05008KT 10SM CLR 03/M12 A3029 RMK AO2 SLP263 T00331122 53013=
202203100156 METAR KPWT 100156Z AUTO 05010KT 10SM CLR 04/M12 A3027 RMK AO2 SLP258 T00441117=
202203100056 METAR KPWT 100056Z AUTO 02011KT 10SM CLR 07/M12 A3026 RMK AO2 SLP252 T00671122=
202203092356 METAR KPWT 092356Z AUTO 03013KT 10SM CLR 07/M13 A3025 RMK AO2 SLP250 T00721128 10083 20067 53000=
202203092256 METAR KPWT 092256Z AUTO 02012G21KT 10SM CLR 08/M11 A3025 RMK AO2 SLP250 T00831111=
202203092156 METAR KPWT 092156Z AUTO 36011KT 10SM CLR 08/M12 A3024 RMK AO2 SLP248 T00781122=
202203092056 METAR KPWT 092056Z AUTO 03013G24KT 10SM CLR 08/M09 A3025 RMK AO2 SLP249 T00781094 51008=
202203091956 METAR KPWT 091956Z AUTO 04014G22KT 10SM CLR 07/M07 A3025 RMK AO2 SLP250 T00721072=
202203091856 METAR KPWT 091856Z AUTO 04012KT 10SM CLR 07/M07 A3024 RMK AO2 SLP247 T00721067=
202203091756 METAR KPWT 091756Z AUTO 04013G21KT 10SM CLR 07/M06 A3022 RMK AO2 SLP241 T00671056 10067 21022 50006=
202203091656 METAR KPWT 091656Z AUTO 06007KT 030V090 10SM CLR 05/M06 A3022 RMK AO2 SLP241 T00501061=
202203091556 METAR KPWT 091556Z AUTO 05009KT 10SM CLR 03/M05 A3022 RMK AO2 SLP241 T00331050=
202203091456 METAR KPWT 091456Z AUTO 06008KT 10SM CLR 02/M03 A3021 RMK AO2 SLP235 T00171033 53009 FZRANO=
202203091356 METAR KPWT 091356Z AUTO 07009KT 10SM BKN100 02/M02 A3019 RMK AO2 SLP229 T00221022 FZRANO=
202203091256 METAR KPWT 091256Z AUTO 08004KT 10SM FEW024 BKN095 00/M01 A3018 RMK AO2 SLP229 T00001006 FZRANO=
202203091156 METAR KPWT 091156Z AUTO 14003KT 10SM CLR M02/M02 A3018 RMK AO2 SLP226 70002 T10221022 10006 21039 53002 FZRANO=
202203091056 METAR KPWT 091056Z AUTO 00000KT 10SM CLR M02/M02 A3017 RMK AO2 SLP225 T10221022 FZRANO=
202203091050 SPECI KPWT 091050Z AUTO 00000KT 1 3/4SM BR CLR M02/M02 A3017 RMK AO2 FZRANO=
202203091048 SPECI KPWT 091048Z AUTO 00000KT 3/4SM BR CLR M02/M02 A3017 RMK AO2 FZRANO=
202203091041 SPECI KPWT 091041Z AUTO 00000KT 1/4SM FZFG CLR M03/M03 A3018 RMK AO2 FZRANO=
202203091031 SPECI KPWT 091031Z AUTO 00000KT 1/2SM FZFG CLR M03/M03 A3017 RMK AO2 FZRANO=
202203091022 SPECI KPWT 091022Z AUTO 00000KT 3/4SM BR CLR M03/M03 A3017 RMK AO2 VIS 1/4V5 FZRANO=
202203091018 SPECI KPWT 091018Z AUTO 00000KT 1 1/4SM BR CLR M02/M02 A3017 RMK AO2 VIS 1/2V5 FZRANO=
202203091015 SPECI KPWT 091015Z AUTO 00000KT 3/4SM BR CLR M02/M02 A3017 RMK AO2 FZRANO=
202203091008 SPECI KPWT 091008Z AUTO 00000KT 1SM BR CLR M02/M02 A3017 RMK AO2 VIS 1/4V5 FZRANO=
202203090956 METAR KPWT 090956Z AUTO 00000KT 4SM BR CLR M02/M02 A3017 RMK AO2 SLP224 T10221022 FZRANO=
202203090954 SPECI KPWT 090954Z AUTO 00000KT 2 1/2SM BR CLR M02/M02 A3017 RMK AO2 FZRANO=
202203090936 SPECI KPWT 090936Z AUTO 00000KT 3SM BR CLR M02/M02 A3017 RMK AO2 FZRANO=
202203090932 SPECI KPWT 090932Z AUTO 00000KT 1 1/4SM BR CLR M02/M02 A3017 RMK AO2 FZRANO=
202203090926 SPECI KPWT 090926Z AUTO 00000KT 3/4SM BR CLR M02/M02 A3017 RMK AO2 FZRANO=
202203090915 SPECI KPWT 090915Z AUTO 00000KT 1/4SM FZFG CLR M02/M02 A3017 RMK AO2 FZRANO=
202203090905 SPECI KPWT 090905Z AUTO 00000KT 1/2SM FZFG VV001 M02/M02 A3017 RMK AO2 FZRANO=
202203090856 METAR KPWT 090856Z AUTO 00000KT 3/4SM BR VV001 M01/M01 A3017 RMK AO2 SLP222 T10111011 55001 FZRANO=
202203090850 SPECI KPWT 090850Z AUTO 00000KT 1SM BR VV001 M01/M01 A3016 RMK AO2 FZRANO=
202203090846 SPECI KPWT 090846Z AUTO 00000KT 1/2SM FZFG VV001 M01/M01 A3016 RMK AO2 FZRANO=
202203090816 SPECI KPWT 090816Z AUTO 00000KT 1/4SM FZFG CLR M01/M01 A3016 RMK AO2 FZRANO=
202203090756 METAR KPWT 090756Z AUTO 00000KT 1/4SM FZFG VV001 M01/M01 A3016 RMK AO2 SLP220 T10061006 400941006 FZRANO=
202203090740 SPECI KPWT 090740Z AUTO 00000KT 1/4SM FG VV001 00/00 A3016 RMK AO2 FZRANO=
202203090732 SPECI KPWT 090732Z AUTO 00000KT 1/2SM FG BKN001 00/00 A3016 RMK AO2 FZRANO=
202203090710 SPECI KPWT 090710Z AUTO 00000KT 1/4SM FG BKN001 00/00 A3017 RMK AO2 FZRANO=
202203090702 SPECI KPWT 090702Z AUTO 00000KT 1/2SM FG BKN001 00/00 A3017 RMK AO2 FZRANO=
202203090656 METAR KPWT 090656Z AUTO 00000KT 1SM BR BKN001 00/00 A3017 RMK AO2 SLP222 T00000000 FZRANO=
202203090654 SPECI KPWT 090654Z AUTO 00000KT 1 1/4SM BR SCT001 00/00 A3017 RMK AO2 FZRANO=
202203090650 SPECI KPWT 090650Z AUTO 00000KT 3/4SM BR VV001 00/00 A3017 RMK AO2 FZRANO=
202203090645 SPECI KPWT 090645Z AUTO 00000KT 1 3/4SM BR FEW001 00/00 A3016 RMK AO2 FZRANO=
202203090636 SPECI KPWT 090636Z AUTO 00000KT 4SM BR FEW001 00/00 A3017 RMK AO2 FZRANO=
202203090633 SPECI KPWT 090633Z AUTO VRB03KT 1 1/4SM BR CLR 00/00 A3017 RMK AO2 FZRANO=
202203090630 SPECI KPWT 090630Z AUTO 15003KT 3/4SM BR CLR 00/00 A3017 RMK AO2 FZRANO=
202203090619 SPECI KPWT 090619Z AUTO 00000KT 1/2SM FG VV001 00/00 A3017 RMK AO2 FZRANO=
202203090609 SPECI KPWT 090609Z AUTO 00000KT 1SM BR VV001 01/01 A3017 RMK AO2 FZRANO=
202203090558 SPECI KPWT 090558Z AUTO 00000KT 3/4SM BR CLR 01/01 A3017 RMK AO2 FZRANO=
202203090556 METAR KPWT 090556Z AUTO 00000KT 1/2SM FG VV001 00/00 A3017 RMK AO2 SLP223 T00000000 10094 20000 52001 FZRANO=
202203090550 SPECI KPWT 090550Z AUTO 00000KT 1/2SM FG VV001 00/00 A3017 RMK AO2 FZRANO=
202203090545 SPECI KPWT 090545Z AUTO 00000KT 3/4SM BR CLR 01/01 A3017 RMK AO2 VIS 1/4V5 FZRANO=
202203090541 SPECI KPWT 090541Z AUTO 00000KT 1 3/4SM BR CLR 01/01 A3017 RMK AO2 VIS 1/2V5 FZRANO=
202203090535 SPECI KPWT 090535Z AUTO 16003KT 7SM FEW001 01/01 A3017 RMK AO2 FZRANO=
202203090456 METAR KPWT 090456Z AUTO 00000KT 4SM BR SCT013 02/02 A3017 RMK AO2 SLP223 T00170017 FZRANO=
202203090423 SPECI KPWT 090423Z AUTO 00000KT 3SM BR CLR 03/03 A3017 RMK AO2=
202203090420 SPECI KPWT 090420Z AUTO 00000KT 1 3/4SM BR CLR 03/03 A3016 RMK AO2=
202203090356 METAR KPWT 090356Z AUTO 00000KT 8SM FEW080 03/03 A3016 RMK AO2 SLP222 T00330033=
202203090256 METAR KPWT 090256Z AUTO 00000KT 10SM SCT080 04/04 A3017 RMK AO2 SLP222 T00440044 56009=
202203090156 METAR KPWT 090156Z AUTO 00000KT 10SM FEW028 06/05 A3018 RMK AO2 SLP225 T00560050=
202203090056 METAR KPWT 090056Z AUTO 00000KT 10SM FEW070 09/05 A3018 RMK AO2 SLP227 T00890050=
202203082356 METAR KPWT 082356Z AUTO 00000KT 10SM SCT023 SCT030 OVC075 09/06 A3019 RMK AO2 SLP230 60000 T00890061 10089 20061 56011=
202203082256 METAR KPWT 082256Z AUTO 00000KT 10SM FEW029 SCT049 BKN080 08/06 A3021 RMK AO2 RAE02 SLP235 P0000 T00780056=
202203082251 SPECI KPWT 082251Z AUTO 05004KT 10SM FEW013 SCT029 BKN049 08/06 A3021 RMK AO2 RAE02 P0000=
202203082212 SPECI KPWT 082212Z AUTO 07004KT 10SM FEW008 BKN024 OVC035 08/06 A3022 RMK AO2 RAE02 P0000=
202203082156 METAR KPWT 082156Z AUTO 00000KT 10SM -RA SCT016 BKN024 BKN035 07/06 A3023 RMK AO2 RAB20 SLP241 P0000 T00720056=
202203082138 SPECI KPWT 082138Z AUTO 06004KT 10SM -RA FEW009 OVC017 08/06 A3023 RMK AO2 RAB20 P0000=
202203082056 METAR KPWT 082056Z AUTO 00000KT 10SM OVC011 08/06 A3024 RMK AO2 SLP246 60000 T00780056 58013=
202203081956 METAR KPWT 081956Z AUTO 21003KT 10SM OVC011 07/06 A3026 RMK AO2 SLP251 T00720061=
202203081918 SPECI KPWT 081918Z AUTO 25003KT 10SM OVC011 07/06 A3026 RMK AO2=
202203081903 SPECI KPWT 081903Z AUTO 00000KT 5SM BR OVC008 07/05 A3027 RMK AO2 CIG 005V011=
202203081856 METAR KPWT 081856Z AUTO 00000KT 4SM BR SCT006 OVC010 07/06 A3027 RMK AO2 RAE49 CIG 009V015 SLP256 P0000 T00670056=
202203081829 SPECI KPWT 081829Z AUTO 23003KT 4SM -RA BR BKN006 BKN020 07/06 A3028 RMK AO2 CIG 004V008 P0000=
202203081756 METAR KPWT 081756Z AUTO 00000KT 9SM -RA OVC004 06/06 A3028 RMK AO2 SLP260 P0001 60002 T00610056 10061 20050 55006=
202203081735 SPECI KPWT 081735Z AUTO 27003KT 9SM -RA OVC004 06/06 A3027 RMK AO2 CIG 003V007 P0001=
202203081656 METAR KPWT 081656Z AUTO 00000KT 5SM -RA BR BKN002 OVC023 06/06 A3028 RMK AO2 SLP260 P0001 T00560056=
202203081647 SPECI KPWT 081647Z AUTO 00000KT 8SM -RA BKN002 BKN023 06/06 A3028 RMK AO2 P0001=
202203081619 SPECI KPWT 081619Z AUTO 00000KT 4SM -RA BR SCT002 BKN025 06/05 A3028 RMK AO2 P0000=
202203081556 METAR KPWT 081556Z AUTO 00000KT 3SM -RA BR BKN002 BKN035 06/05 A3029 RMK AO2 SLP264 P0000 T00560050=
202203081547 SPECI KPWT 081547Z AUTO 00000KT 3SM -RA BR BKN002 BKN029 05/05 A3029 RMK AO2 P0000=
202203081537 SPECI KPWT 081537Z AUTO 00000KT 5SM -RA BR FEW002 SCT008 SCT029 05/05 A3029 RMK AO2 P0000=
202203081527 SPECI KPWT 081527Z AUTO 00000KT 6SM -RA BR SCT009 BKN029 05/05 A3029 RMK AO2 P0000=
202203081456 METAR KPWT 081456Z AUTO 00000KT 6SM -RA BR BKN009 05/05 A3030 RMK AO2 SLP265 P0000 60000 T00500050 56011=
202203081414 SPECI KPWT 081414Z AUTO 00000KT 10SM -RA BKN009 05/05 A3030 RMK AO2 P0000=
202203081405 SPECI KPWT 081405Z AUTO 00000KT 7SM -RA SCT009 05/04 A3030 RMK AO2 P0000=
202203081356 METAR KPWT 081356Z AUTO 06003KT 7SM -RA CLR 05/04 A3030 RMK AO2 SLP269 P0000 T00500044=
202203081343 SPECI KPWT 081343Z AUTO 05003KT 7SM -RA SCT010 05/04 A3031 RMK AO2 P0000=
202203081323 SPECI KPWT 081323Z AUTO 04003KT 10SM -RA OVC010 05/05 A3031 RMK AO2 P0000=
202203081256 METAR KPWT 081256Z AUTO 06003KT 10SM -RA OVC008 05/05 A3032 RMK AO2 RAB18 SLP272 P0000 T00500050=
202203081156 METAR KPWT 081156Z AUTO 00000KT 9SM OVC008 05/04 A3033 RMK AO2 SLP278 T00500044 10061 20050 56012=
202203081056 METAR KPWT 081056Z AUTO 00000KT 10SM OVC008 06/05 A3034 RMK AO2 SLP281 T00560050=
202203081023 SPECI KPWT 081023Z AUTO 00000KT 10SM OVC008 06/04 A3034 RMK AO2=
202203080956 METAR KPWT 080956Z AUTO 00000KT 10SM OVC010 06/05 A3035 RMK AO2 SLP284 T00560050=
202203080856 METAR KPWT 080856Z AUTO 00000KT 10SM FEW007 OVC012 06/05 A3037 RMK AO2 SLP290 T00560050 56012=
202203080842 SPECI KPWT 080842Z AUTO 00000KT 10SM FEW007 OVC012 06/05 A3036 RMK AO2=
202203080756 METAR KPWT 080756Z AUTO 22004KT 10SM OVC009 06/05 A3037 RMK AO2 SLP293 T00560050 400781006=
202203080723 SPECI KPWT 080723Z AUTO 23003KT 10SM OVC009 06/06 A3038 RMK AO2=
202203080656 METAR KPWT 080656Z AUTO 20006KT 10SM OVC013 06/05 A3038 RMK AO2 SLP295 T00610050=
202203080633 SPECI KPWT 080633Z AUTO 19004KT 10SM OVC015 06/05 A3039 RMK AO2=
202203080615 SPECI KPWT 080615Z AUTO 00000KT 10SM OVC013 06/04 A3040 RMK AO2=
202203080556 METAR KPWT 080556Z AUTO 00000KT 10SM OVC015 06/04 A3040 RMK AO2 SLP302 T00560044 10078 20022 56012=
202203080456 METAR KPWT 080456Z AUTO 00000KT 10SM OVC019 04/04 A3041 RMK AO2 SLP307 T00440039=
202203080356 METAR KPWT 080356Z AUTO 00000KT 10SM OVC019 03/03 A3042 RMK AO2 SLP308 T00330028=
202203080256 METAR KPWT 080256Z AUTO 14003KT 10SM CLR 03/02 A3044 RMK AO2 SLP314 T00280022 56009=
202203080156 METAR KPWT 080156Z AUTO 00000KT 10SM CLR 06/04 A3044 RMK AO2 SLP315 T00610039=
202203080109 SPECI KPWT 080109Z AUTO 00000KT 10SM SCT014 07/04 A3044 RMK AO2=
202203080056 METAR KPWT 080056Z AUTO 19004KT 10SM BKN014 08/04 A3045 RMK AO2 SLP317 T00780044=
202203072356 METAR KPWT 072356Z AUTO 20004KT 10SM OVC014 07/04 A3046 RMK AO2 SLP323 T00720044 10072 20044 56017=
202203072256 METAR KPWT 072256Z AUTO 20004KT 10SM OVC012 07/05 A3048 RMK AO2 SLP329 T00720050=
202203072156 METAR KPWT 072156Z AUTO 20004KT 10SM BKN007 OVC012 06/05 A3050 RMK AO2 CIG 004V009 SLP334 T00610050=
202203072140 SPECI KPWT 072140Z AUTO 18003KT 10SM OVC005 06/06 A3050 RMK AO2 CIG 004V008=
202203072056 METAR KPWT 072056Z AUTO 20006KT 8SM OVC003 06/05 A3051 RMK AO2 SLP340 T00560050 57007=
202203071956 METAR KPWT 071956Z AUTO 20006KT 4SM BR OVC003 05/05 A3052 RMK AO2 SLP343 T00500050=
202203071856 METAR KPWT 071856Z AUTO 20007KT 3SM BR OVC003 05/04 A3053 RMK AO2 SLP344 T00500044=
202203071756 METAR KPWT 071756Z AUTO 22005KT 4SM BR OVC003 04/04 A3053 RMK AO2 SLP347 60000 T00440044 10044 21006 50002=
202203071746 SPECI KPWT 071746Z AUTO 20004KT 2 1/2SM BR OVC003 04/04 A3053 RMK AO2 VIS 1 1/2V3=
202203071719 SPECI KPWT 071719Z AUTO 22004KT 1 1/4SM BR OVC003 04/04 A3053 RMK AO2=
202203071710 SPECI KPWT 071710Z AUTO 21005KT 3/4SM BR OVC003 04/04 A3053 RMK AO2=
202203071656 METAR KPWT 071656Z AUTO 00000KT 1/2SM FG OVC003 04/04 A3053 RMK AO2 RAB28E41 SLP347 P0000 T00440044=
202203071649 SPECI KPWT 071649Z AUTO 00000KT 1/2SM FG OVC003 04/04 A3053 RMK AO2 RAB28E41 P0000=
202203071556 METAR KPWT 071556Z AUTO 23003KT 1/4SM FG OVC003 03/03 A3053 RMK AO2 SLP344 T00330033=
202203071456 METAR KPWT 071456Z AUTO 00000KT 1/4SM FG OVC003 02/02 A3052 RMK AO2 SLP343 T00220022 56004 FZRANO=
202203071448 SPECI KPWT 071448Z AUTO 00000KT 1/4SM FG OVC003 02/02 A3052 RMK AO2 FZRANO=
202203071356 METAR KPWT 071356Z AUTO 00000KT 1/4SM FG OVC001 01/01 A3053 RMK AO2 SLP344 T00110011 FZRANO=
202203071343 SPECI KPWT 071343Z AUTO 00000KT 1/4SM FG OVC001 01/01 A3052 RMK AO2 FZRANO=
202203071336 SPECI KPWT 071336Z AUTO 00000KT 1/2SM FG OVC001 01/01 A3052 RMK AO2 FZRANO=
202203071329 SPECI KPWT 071329Z AUTO 00000KT 3/4SM BR OVC001 00/00 A3052 RMK AO2 FZRANO=
202203071317 SPECI KPWT 071317Z AUTO 00000KT 1SM BR OVC001 00/00 A3052 RMK AO2 FZRANO=
202203071256 METAR KPWT 071256Z AUTO 00000KT 1/2SM FG OVC001 00/00 A3053 RMK AO2 SLP346 T00000000 FZRANO=
202203071231 SPECI KPWT 071231Z AUTO 00000KT 1/2SM FZFG BKN001 M01/M01 A3053 RMK AO2 FZRANO=
202203071214 SPECI KPWT 071214Z AUTO 00000KT 1/4SM FZFG BKN001 M01/M01 A3053 RMK AO2 FZRANO=
202203071156 METAR KPWT 071156Z AUTO 00000KT 1/2SM FZFG BKN001 M01/M01 A3053 RMK AO2 SLP347 T10061006 10011 21006 50001 FZRANO=
202203071130 SPECI KPWT 071130Z AUTO 00000KT 1/2SM FG VV001 00/M01 A3053 RMK AO2 FZRANO=
202203071119 SPECI KPWT 071119Z AUTO 00000KT 3/4SM BR VV001 00/M01 A3053 RMK AO2 FZRANO=
202203071106 SPECI KPWT 071106Z AUTO 00000KT 1/2SM FZFG VV001 M01/M01 A3053 RMK AO2 FZRANO=
202203071056 METAR KPWT 071056Z AUTO 00000KT 1/4SM FZFG VV001 M01/M01 A3054 RMK AO2 SLP348 T10061006 FZRANO=
202203071026 SPECI KPWT 071026Z AUTO 00000KT 1/4SM FZFG OVC001 M01/M01 A3054 RMK AO2 FZRANO=
202203071023 SPECI KPWT 071023Z AUTO 00000KT 3/4SM BR BKN001 M01/M01 A3054 RMK AO2 VIS 1/4V5 FZRANO=
202203071021 SPECI KPWT 071021Z AUTO 00000KT 1 1/2SM BR BKN001 M01/M01 A3053 RMK AO2 VIS 1/4V5 FZRANO=
202203071016 SPECI KPWT 071016Z AUTO 00000KT 9SM BKN001 M01/M01 A3053 RMK AO2 FZRANO=
202203071008 SPECI KPWT 071008Z AUTO 00000KT 10SM SCT001 M01/M01 A3053 RMK AO2 FZRANO=
202203070956 METAR KPWT 070956Z AUTO 00000KT 10SM CLR 01/01 A3053 RMK AO2 SLP347 T00060006 FZRANO=
202203070917 SPECI KPWT 070917Z AUTO 14003KT 6SM BR CLR 00/M01 A3053 RMK AO2 FZRANO=
202203070907 SPECI KPWT 070907Z AUTO 00000KT 1 1/4SM BR CLR M01/M01 A3054 RMK AO2 FZRANO=
202203070856 METAR KPWT 070856Z AUTO 00000KT 9SM CLR 00/00 A3053 RMK AO2 SLP347 T00000000 50001 FZRANO=
202203070851 SPECI KPWT 070851Z AUTO 00000KT 9SM CLR M01/M01 A3053 RMK AO2 FZRANO=
202203070844 SPECI KPWT 070844Z AUTO 00000KT 2 1/2SM BR CLR 00/00 A3053 RMK AO2 FZRANO=
202203070836 SPECI KPWT 070836Z AUTO 00000KT 1SM BR CLR M01/M01 A3053 RMK AO2 FZRANO=
202203070828 SPECI KPWT 070828Z AUTO 00000KT 2 1/2SM BR CLR 00/M01 A3053 RMK AO2 FZRANO=
202203070756 METAR KPWT 070756Z AUTO 00000KT 10SM CLR 00/00 A3053 RMK AO2 SLP344 T00000000 401171033 FZRANO=
202203070656 METAR KPWT 070656Z AUTO 00000KT 10SM CLR 01/00 A3053 RMK AO2 SLP344 T00060000 FZRANO=
202203070556 METAR KPWT 070556Z AUTO 00000KT 10SM CLR 01/00 A3053 RMK AO2 SLP345 T00060000 10117 20006 53010 FZRANO=
202203070456 METAR KPWT 070456Z AUTO 00000KT 10SM CLR 02/02 A3052 RMK AO2 SLP341 T00220017 FZRANO=
202203070356 METAR KPWT 070356Z AUTO 00000KT 10SM CLR 04/03 A3051 RMK AO2 SLP340 T00390028=
202203070256 METAR KPWT 070256Z AUTO 00000KT 10SM CLR 04/03 A3050 RMK AO2 SLP337 T00440033 52007=
202203070156 METAR KPWT 070156Z AUTO 08003KT 10SM CLR 08/04 A3050 RMK AO2 SLP334 T00830044=
202203070106 SPECI KPWT 070106Z AUTO 00000KT 10SM SCT029 11/04 A3049 RMK AO2=
202203070056 METAR KPWT 070056Z AUTO 21004KT 10SM BKN029 11/04 A3049 RMK AO2 SLP331 T01060044=
202203062356 METAR KPWT 062356Z AUTO 00000KT 10SM CLR 12/04 A3048 RMK AO2 SLP329 T01170044 10117 20067 56003=
202203062256 METAR KPWT 062256Z AUTO 03003KT 10SM CLR 11/04 A3048 RMK AO2 SLP330 T01110044=
202203062230 SPECI KPWT 062230Z AUTO 00000KT 10SM SCT023 10/04 A3049 RMK AO2=
202203062156 METAR KPWT 062156Z AUTO 10SM BKN021 10/04 A3048 RMK AO2 SLP331 T01000044=
202203062148 SPECI KPWT 062148Z AUTO 10SM BKN021 10/04 A3048 RMK AO2 $=
202203062128 SPECI KPWT 062128Z AUTO 00000KT 10SM SCT021 09/04 A3048 RMK AO2=
202203062056 METAR KPWT 062056Z AUTO 04006KT 10SM OVC021 08/04 A3049 RMK AO2 SLP331 T00830044 51005=
202203061956 METAR KPWT 061956Z AUTO 09006KT 10SM OVC023 08/04 A3049 RMK AO2 SLP330 T00780044=
202203061903 SPECI KPWT 061903Z AUTO 05007KT 10SM BKN019 08/04 A3048 RMK AO2=
202203061856 METAR KPWT 061856Z AUTO 05007KT 10SM SCT021 07/04 A3048 RMK AO2 SLP329 T00720039=
202203061756 METAR KPWT 061756Z AUTO 05008KT 010V070 10SM FEW016 07/04 A3047 RMK AO2 SLP327 T00670039 10067 21033 51020=
202203061656 METAR KPWT 061656Z AUTO 00000KT 10SM SCT019 04/03 A3047 RMK AO2 SLP324 T00440033=
202203061556 METAR KPWT 061556Z AUTO 00000KT 10SM CLR 02/02 A3044 RMK AO2 SLP315 T00220022 FZRANO=
202203061456 METAR KPWT 061456Z AUTO 00000KT 10SM CLR M03/M03 A3041 RMK AO2 SLP308 T10281033 53012 FZRANO=
202203061441 SPECI KPWT 061441Z AUTO 00000KT 5SM BR CLR M03/M03 A3041 RMK AO2 FZRANO=
202203061437 SPECI KPWT 061437Z AUTO 00000KT 1 1/4SM BR CLR M03/M03 A3041 RMK AO2 FZRANO=
202203061427 SPECI KPWT 061427Z AUTO 00000KT 3/4SM BR CLR M03/M03 A3040 RMK AO2 FZRANO=
202203061425 SPECI KPWT 061425Z AUTO 00000KT 1 1/4SM BR CLR M03/M03 A3040 RMK AO2 FZRANO=
202203061356 METAR KPWT 061356Z AUTO 13003KT 10SM CLR M02/M02 A3040 RMK AO2 SLP301 T10221022 FZRANO=
202203061328 SPECI KPWT 061328Z AUTO 00000KT 10SM CLR M03/M03 A3039 RMK AO2 FZRANO=
202203061321 SPECI KPWT 061321Z AUTO 00000KT 1 3/4SM BR CLR M02/M02 A3039 RMK AO2 FZRANO=
202203061311 SPECI KPWT 061311Z AUTO 00000KT 3/4SM BR CLR M03/M03 A3038 RMK AO2 VIS 1/4V5 FZRANO=
202203061309 SPECI KPWT 061309Z AUTO 00000KT 1 1/2SM BR CLR M03/M03 A3038 RMK AO2 VIS 1/2V5 FZRANO=
202203061256 METAR KPWT 061256Z AUTO 00000KT 10SM CLR M02/M02 A3038 RMK AO2 SLP294 T10221022 FZRANO=
202203061252 SPECI KPWT 061252Z AUTO 00000KT 10SM CLR M02/M02 A3038 RMK AO2 FZRANO=
202203061244 SPECI KPWT 061244Z AUTO 00000KT 2SM BR CLR M02/M02 A3038 RMK AO2 FZRANO=
202203061242 SPECI KPWT 061242Z AUTO 00000KT 1SM BR CLR M02/M02 A3038 RMK AO2 VIS 1/4V5 FZRANO=
202203061227 SPECI KPWT 061227Z AUTO 00000KT 1/2SM FZFG CLR M03/M03 A3037 RMK AO2 FZRANO=
202203061225 SPECI KPWT 061225Z AUTO 00000KT 1SM BR CLR M03/M03 A3037 RMK AO2 FZRANO=
202203061156 METAR KPWT 061156Z AUTO 00000KT 10SM CLR M02/M02 A3036 RMK AO2 SLP291 T10221022 10000 21022 51007 FZRANO=
202203061056 METAR KPWT 061056Z AUTO 00000KT 6SM BR CLR M02/M02 A3036 RMK AO2 SLP287 T10171017 FZRANO=
202203061016 SPECI KPWT 061016Z AUTO 00000KT 3SM BR CLR M02/M02 A3035 RMK AO2 FZRANO=
202203061012 SPECI KPWT 061012Z AUTO 00000KT 1 1/4SM BR CLR M02/M02 A3035 RMK AO2 FZRANO=
202203061004 SPECI KPWT 061004Z AUTO 00000KT 3/4SM BR CLR M02/M02 A3035 RMK AO2 VIS 1/4V3 FZRANO=
202203061000 SPECI KPWT 061000Z AUTO 00000KT 1 1/4SM BR CLR M02/M02 A3035 RMK AO2 VIS 1/2V3 FZRANO=
202203060956 METAR KPWT 060956Z AUTO 00000KT 3/4SM BR CLR M02/M02 A3035 RMK AO2 SLP287 T10171017 FZRANO=
202203060942 SPECI KPWT 060942Z AUTO 00000KT 1/2SM FZFG CLR M01/M01 A3035 RMK AO2 FZRANO=
202203060939 SPECI KPWT 060939Z AUTO 00000KT 1SM BR CLR M01/M01 A3035 RMK AO2 FZRANO=
202203060856 METAR KPWT 060856Z AUTO 00000KT 10SM CLR M01/M01 A3034 RMK AO2 SLP283 T10061006 53004 FZRANO=
202203060756 METAR KPWT 060756Z AUTO 00000KT 10SM CLR M01/M01 A3034 RMK AO2 SLP281 T10061006 401061022 FZRANO=
202203060732 SPECI KPWT 060732Z AUTO 00000KT 5SM BR CLR M01/M01 A3033 RMK AO2 FZRANO=
202203060723 SPECI KPWT 060723Z AUTO 00000KT 1 3/4SM BR CLR M01/M01 A3034 RMK AO2 FZRANO=
202203060656 METAR KPWT 060656Z AUTO 00000KT 10SM CLR 00/M01 A3033 RMK AO2 SLP277 T00001006 FZRANO=
202203060556 METAR KPWT 060556Z AUTO 00000KT 10SM CLR M01/M01 A3033 RMK AO2 SLP278 T10061006 10106 21006 53007 FZRANO=
202203060526 SPECI KPWT 060526Z AUTO 00000KT 10SM CLR 01/00 A3033 RMK AO2 FZRANO=
202203060518 SPECI KPWT 060518Z AUTO 00000KT 2SM BR CLR 01/00 A3033 RMK AO2 FZRANO=
202203060510 SPECI KPWT 060510Z AUTO 00000KT 1SM BR CLR 01/00 A3032 RMK AO2 VIS 1/4V5 FZRANO=
202203060456 METAR KPWT 060456Z AUTO 00000KT 10SM CLR 01/00 A3032 RMK AO2 SLP275 T00060000 FZRANO=
202203060356 METAR KPWT 060356Z AUTO 00000KT 10SM CLR 02/02 A3031 RMK AO2 SLP272 T00220017 FZRANO=
202203060256 METAR KPWT 060256Z AUTO 00000KT 10SM CLR 03/02 A3031 RMK AO2 SLP270 T00330022 53008=
202203060156 METAR KPWT 060156Z AUTO 00000KT 10SM CLR 08/03 A3029 RMK AO2 SLP266 T00780028=
202203060056 METAR KPWT 060056Z AUTO 10SM CLR 09/02 A3029 RMK AO2 SLP264 T00940022=
202203052356 METAR KPWT 052356Z AUTO 06007KT 10SM CLR 11/03 A3028 RMK AO2 SLP263 T01060028 10106 20067 56003=
202203052256 METAR KPWT 052256Z AUTO 07007KT 10SM CLR 10/04 A3029 RMK AO2 SLP265 T01000039=
202203052156 METAR KPWT 052156Z AUTO 05007KT 10SM FEW031 10/03 A3029 RMK AO2 SLP264 T01000028=
202203052056 METAR KPWT 052056Z AUTO 08005KT 10SM CLR 09/03 A3030 RMK AO2 SLP267 T00940028 58004=
202203052004 SPECI KPWT 052004Z AUTO VRB04KT 10SM SCT025 09/03 A3030 RMK AO2=
202203051956 METAR KPWT 051956Z AUTO 01004KT 10SM BKN025 09/04 A3030 RMK AO2 SLP269 T00940039=
202203051856 METAR KPWT 051856Z AUTO 03006KT 10SM BKN023 BKN031 08/03 A3031 RMK AO2 SLP268 T00780033=
202203051830 SPECI KPWT 051830Z AUTO 04006KT 10SM SCT020 BKN027 08/04 A3031 RMK AO2=
202203051813 SPECI KPWT 051813Z AUTO 01006KT 10SM FEW023 SCT027 08/04 A3031 RMK AO2=
202203051756 METAR KPWT 051756Z AUTO 04007KT 10SM BKN027 07/04 A3031 RMK AO2 SLP269 T00670039 10072 21022 51018=
202203051656 METAR KPWT 051656Z AUTO 36007KT 10SM OVC021 06/03 A3030 RMK AO2 SLP265 T00560033=
202203051556 METAR KPWT 051556Z AUTO 04005KT 10SM OVC023 04/03 A3027 RMK AO2 SLP259 T00440033=
202203051513 SPECI KPWT 051513Z AUTO 05006KT 10SM BKN025 03/02 A3026 RMK AO2=
202203051456 METAR KPWT 051456Z AUTO 03004KT 10SM FEW027 02/02 A3025 RMK AO2 SLP251 T00220017 53016 FZRANO=
202203051439 SPECI KPWT 051439Z AUTO 03005KT 10SM SCT026 02/02 A3024 RMK AO2 FZRANO=
202203051356 METAR KPWT 051356Z AUTO 05005KT 10SM BKN024 OVC031 03/03 A3023 RMK AO2 SLP245 T00280028=
202203051256 METAR KPWT 051256Z AUTO 00000KT 10SM BKN024 01/01 A3022 RMK AO2 SLP240 T00060006 FZRANO=
202203051249 SPECI KPWT 051249Z AUTO 00000KT 10SM BKN024 M01/M01 A3022 RMK AO2 FZRANO=
202203051156 METAR KPWT 051156Z AUTO 00000KT 10SM CLR M02/M02 A3020 RMK AO2 SLP234 T10171017 10011 21017 50004 FZRANO=
202203051110 SPECI KPWT 051110Z AUTO 00000KT 6SM BR CLR M01/M01 A3020 RMK AO2 FZRANO=
202203051100 SPECI KPWT 051100Z AUTO 00000KT 1 3/4SM BR FEW028 M02/M02 A3020 RMK AO2 FZRANO=
202203051056 METAR KPWT 051056Z AUTO 00000KT 10SM CLR M02/M02 A3020 RMK AO2 SLP234 T10171017 FZRANO=
202203051042 SPECI KPWT 051042Z AUTO 00000KT 3SM BR CLR M01/M01 A3020 RMK AO2 FZRANO=
202203051037 SPECI KPWT 051037Z AUTO 00000KT 1 1/4SM BR FEW031 M02/M02 A3020 RMK AO2 FZRANO=
202203051026 SPECI KPWT 051026Z AUTO 00000KT 3/4SM BR FEW031 M01/M01 A3020 RMK AO2 FZRANO=
202203051023 SPECI KPWT 051023Z AUTO 00000KT 1 1/2SM BR FEW031 M01/M01 A3020 RMK AO2 FZRANO=
202203050956 METAR KPWT 050956Z AUTO 00000KT 4SM BR CLR M01/M01 A3020 RMK AO2 SLP235 T10111011 FZRANO=
202203050856 METAR KPWT 050856Z AUTO 00000KT 10SM CLR M01/M01 A3019 RMK AO2 SLP231 T10111011 51009 FZRANO=
202203050756 METAR KPWT 050756Z AUTO 00000KT 10SM CLR 00/M01 A3018 RMK AO2 SLP229 T00001006 401001006 FZRANO=
202203050656 METAR KPWT 050656Z AUTO 00000KT 3SM BR CLR M01/M01 A3018 RMK AO2 SLP224 T10061006 FZRANO=
202203050647 SPECI KPWT 050647Z AUTO 00000KT 1 1/2SM BR CLR 00/M01 A3017 RMK AO2 FZRANO=
202203050556 METAR KPWT 050556Z AUTO 00000KT 10SM SCT080 01/01 A3016 RMK AO2 SLP220 T00110006 10094 20011 51015 FZRANO=
202203050456 METAR KPWT 050456Z AUTO 22004KT 10SM CLR 02/01 A3015 RMK AO2 SLP216 T00170006 FZRANO=
202203050356 METAR KPWT 050356Z AUTO 00000KT 10SM FEW075 02/02 A3013 RMK AO2 SLP210 T00220017 FZRANO=
202203050256 METAR KPWT 050256Z AUTO 00000KT 10SM CLR 03/02 A3012 RMK AO2 SLP207 T00330017 53008=
202203050156 METAR KPWT 050156Z AUTO 07005KT 10SM CLR 07/03 A3010 RMK AO2 SLP201 T00720028=
202203050056 METAR KPWT 050056Z AUTO 03009G16KT 10SM CLR 09/03 A3009 RMK AO2 SLP196 T00890028=
202203042356 METAR KPWT 042356Z AUTO 05010KT 10SM CLR 09/04 A3009 RMK AO2 SLP196 T00890039 10100 20061 53000=
202203042256 METAR KPWT 042256Z AUTO 04014G23KT 10SM CLR 09/03 A3009 RMK AO2 SLP195 T00940033=
202203042156 METAR KPWT 042156Z AUTO 04014G17KT 10SM BKN032 09/04 A3009 RMK AO2 SLP194 T00940039=
202203042117 SPECI KPWT 042117Z AUTO 05012G17KT 10SM FEW026 OVC036 08/04 A3009 RMK AO2=
202203042108 SPECI KPWT 042108Z AUTO 04012G16KT 10SM BKN028 OVC034 09/04 A3009 RMK AO2=
202203042056 METAR KPWT 042056Z AUTO 04011KT 10SM FEW028 BKN035 09/04 A3009 RMK AO2 SLP196 T00940039 58005=
202203041956 METAR KPWT 041956Z AUTO 04011KT 10SM FEW022 BKN040 09/04 A3010 RMK AO2 SLP198 T00890044=
202203041856 METAR KPWT 041856Z AUTO 03009KT 10SM BKN038 08/05 A3011 RMK AO2 SLP202 T00780050=
202203041838 SPECI KPWT 041838Z AUTO 04012KT 10SM SCT009 BKN038 07/05 A3010 RMK AO2=
202203041805 SPECI KPWT 041805Z AUTO 03007KT 10SM BKN009 BKN014 06/05 A3011 RMK AO2 CIG 006V011=
202203041756 METAR KPWT 041756Z AUTO 01008KT 10SM SCT007 BKN012 06/05 A3011 RMK AO2 SLP203 60000 T00610050 10061 20039 50002=
202203041656 METAR KPWT 041656Z AUTO 04008KT 10SM BKN007 OVC065 06/05 A3011 RMK AO2 CIG 004V011 SLP203 T00560050=
202203041556 METAR KPWT 041556Z AUTO 04007KT 10SM FEW006 OVC060 05/04 A3011 RMK AO2 SLP201 T00500044=
202203041543 SPECI KPWT 041543Z AUTO 05004KT 10SM FEW006 SCT020 OVC060 05/04 A3010 RMK AO2=
202203041531 SPECI KPWT 041531Z AUTO 04005KT 10SM FEW006 BKN020 OVC060 05/04 A3010 RMK AO2=
202203041511 SPECI KPWT 041511Z AUTO 04005KT 10SM OVC016 05/04 A3010 RMK AO2=
202203041456 METAR KPWT 041456Z AUTO 03006KT 10SM FEW004 OVC012 05/04 A3010 RMK AO2 RAE1358 SLP200 P0000 60000 T00500044 53000=
202203041443 SPECI KPWT 041443Z AUTO 03004KT 10SM FEW004 BKN012 OVC021 05/04 A3010 RMK AO2 RAE1358 P0000=
202203041356 METAR KPWT 041356Z AUTO 04005KT 10SM -RA BKN006 OVC010 04/04 A3010 RMK AO2 RAB22 CIG 003V008 SLP199 P0000 T00440044=
202203041256 METAR KPWT 041256Z AUTO 04005KT 10SM BKN005 OVC023 04/04 A3010 RMK AO2 CIG 003V009 SLP200 T00440044=
202203041212 SPECI KPWT 041212Z AUTO 03004KT 10SM BKN003 OVC017 04/04 A3010 RMK AO2 CIG 001V005=
202203041205 SPECI KPWT 041205Z AUTO 05004KT 7SM SCT001 SCT005 OVC016 04/04 A3010 RMK AO2=
202203041201 SPECI KPWT 041201Z AUTO 04004KT 4SM BR SCT001 BKN005 BKN014 04/04 A3010 RMK AO2=
202203041156 METAR KPWT 041156Z AUTO 05005KT 2 1/2SM BR BKN001 BKN005 BKN040 04/04 A3010 RMK AO2 SLP199 70014 T00390039 10050 20033 57005=
202203041132 SPECI KPWT 041132Z AUTO 05004KT 8SM BKN003 OVC040 04/04 A3010 RMK AO2 CIG 001V005=
202203041128 SPECI KPWT 041128Z AUTO 07003KT 2SM BR BKN001 OVC040 04/04 A3010 RMK AO2=
202203041125 SPECI KPWT 041125Z AUTO 00000KT 1SM BR BKN001 OVC040 04/04 A3010 RMK AO2=
202203041121 SPECI KPWT 041121Z AUTO 10003KT 1/2SM FG OVC001 04/04 A3010 RMK AO2=
202203041056 METAR KPWT 041056Z AUTO 00000KT 1/4SM FG OVC001 05/05 A3010 RMK AO2 SLP198 T00500050=
202203040956 METAR KPWT 040956Z AUTO 00000KT 1/4SM FG OVC001 05/05 A3011 RMK AO2 SLP203 T00500050=
202203040952 SPECI KPWT 040952Z AUTO 00000KT 1/2SM FG OVC001 05/05 A3011 RMK AO2=
202203040856 METAR KPWT 040856Z AUTO 00000KT 1/4SM FG OVC001 05/05 A3011 RMK AO2 SLP204 T00500050 56003=
202203040756 METAR KPWT 040756Z AUTO 15003KT 1/4SM FG OVC001 05/05 A3012 RMK AO2 SLP205 T00500050 400890017=
202203040719 SPECI KPWT 040719Z AUTO 00000KT 1/4SM FG OVC001 05/05 A3012 RMK AO2=
202203040656 METAR KPWT 040656Z AUTO 00000KT 1/4SM FG OVC003 05/05 A3012 RMK AO2 SLP205 T00500050=
202203040649 SPECI KPWT 040649Z AUTO 00000KT 1/4SM FG OVC003 04/04 A3012 RMK AO2=
202203040619 SPECI KPWT 040619Z AUTO 00000KT 1/2SM FG OVC003 04/04 A3012 RMK AO2=
202203040606 SPECI KPWT 040606Z AUTO 00000KT 3/4SM BR OVC003 03/03 A3012 RMK AO2=
202203040601 SPECI KPWT 040601Z AUTO 00000KT 1 3/4SM BR OVC003 03/03 A3012 RMK AO2=
202203040556 METAR KPWT 040556Z AUTO 00000KT 4SM BR OVC003 03/03 A3012 RMK AO2 SLP208 60002 T00330033 10083 20017 51005=
202203040539 SPECI KPWT 040539Z AUTO 00000KT 10SM BKN003 02/02 A3012 RMK AO2 FZRANO=
202203040526 SPECI KPWT 040526Z AUTO 00000KT 10SM SCT003 02/02 A3012 RMK AO2 FZRANO=
202203040505 SPECI KPWT 040505Z AUTO 00000KT 4SM BR CLR 02/02 A3012 RMK AO2 FZRANO=
202203040502 SPECI KPWT 040502Z AUTO 00000KT 1 1/4SM BR CLR 02/02 A3012 RMK AO2 VIS 1/2V5 FZRANO=
202203040456 METAR KPWT 040456Z AUTO 00000KT 3/4SM BR CLR 02/02 A3012 RMK AO2 SLP206 T00170017 FZRANO=
202203040454 SPECI KPWT 040454Z AUTO 00000KT 3/4SM BR CLR 02/02 A3012 RMK AO2 FZRANO=
202203040450 SPECI KPWT 040450Z AUTO 00000KT 1 1/2SM BR CLR 02/02 A3012 RMK AO2 FZRANO=
202203040401 SPECI KPWT 040401Z AUTO 00000KT 3SM BR CLR 03/03 A3011 RMK AO2=
202203040356 METAR KPWT 040356Z AUTO 00000KT 1 1/4SM BR CLR 03/03 A3012 RMK AO2 VIS 1/2V5 SLP204 T00280028=
202203040349 SPECI KPWT 040349Z AUTO 00000KT 1 3/4SM BR CLR 03/03 A3012 RMK AO2 VIS 1/2V4=
202203040319 SPECI KPWT 040319Z AUTO 00000KT 4SM BR CLR 03/03 A3011 RMK AO2=
202203040316 SPECI KPWT 040316Z AUTO 00000KT 1 1/4SM BR CLR 03/03 A3011 RMK AO2 VIS 1/2V5=
202203040306 SPECI KPWT 040306Z AUTO 00000KT 3/4SM BR CLR 04/04 A3011 RMK AO2 VIS 1/2V3=
202203040303 SPECI KPWT 040303Z AUTO 00000KT 1 1/2SM BR CLR 04/04 A3011 RMK AO2 VIS 1/2V5=
202203040256 METAR KPWT 040256Z AUTO 00000KT 3SM BR CLR 04/04 A3011 RMK AO2 SLP202 60002 T00440044 53003=
202203040254 SPECI KPWT 040254Z AUTO 00000KT 3SM BR CLR 04/04 A3011 RMK AO2=
202203040243 SPECI KPWT 040243Z AUTO 00000KT 1 3/4SM BR CLR 04/04 A3011 RMK AO2 VIS 1/2V5=
202203040156 METAR KPWT 040156Z AUTO 00000KT 10SM CLR 07/06 A3010 RMK AO2 RAE33 SLP200 P0000 T00670061=
202203040056 METAR KPWT 040056Z AUTO 08003KT 10SM -RA FEW034 08/06 A3010 RMK AO2 RAB01 SLP198 P0002 T00780061=
202203040043 SPECI KPWT 040043Z AUTO 04004KT 10SM -RA FEW014 SCT020 BKN034 07/06 A3010 RMK AO2 RAB01 P0001=
202203040006 SPECI KPWT 040006Z AUTO VRB05KT 10SM -RA SCT020 BKN027 OVC040 08/06 A3010 RMK AO2 RAB01 P0000=
202203032356 METAR KPWT 032356Z AUTO 15003KT 10SM FEW018 SCT027 BKN033 08/06 A3010 RMK AO2 SLP198 60006 T00830056 10089 20056 56007=
202203032345 SPECI KPWT 032345Z AUTO 00000KT 10SM FEW018 BKN027 08/06 A3010 RMK AO2=
202203032256 METAR KPWT 032256Z AUTO 12003KT 10SM FEW027 SCT036 08/06 A3010 RMK AO2 RAB05E47 SLP199 P0006 T00830056=
202203032249 SPECI KPWT 032249Z AUTO 13004KT 10SM SCT029 BKN037 08/06 A3010 RMK AO2 RAB05E47 P0006=
202203032156 METAR KPWT 032156Z AUTO 00000KT 10SM SCT022 BKN029 08/04 A3010 RMK AO2 SLP200 T00780044=
202203032148 SPECI KPWT 032148Z AUTO 00000KT 10SM FEW022 BKN029 08/05 A3011 RMK AO2=
202203032115 SPECI KPWT 032115Z AUTO VRB03KT 10SM FEW015 SCT024 BKN030 08/06 A3011 RMK AO2=
202203032056 METAR KPWT 032056Z AUTO VRB03KT 10SM OVC024 07/05 A3012 RMK AO2 RAE18 SLP205 P0000 60000 T00720050 58004=
202203032027 SPECI KPWT 032027Z AUTO VRB03KT 10SM SCT009 OVC017 07/05 A3013 RMK AO2 RAE18 P0000=
202203031956 METAR KPWT 031956Z AUTO VRB03KT 5SM -RA BR OVC007 06/06 A3014 RMK AO2 RAB27 CIG 005V009 SLP212 P0000 T00610056=
202203031856 METAR KPWT 031856Z AUTO 15004KT 10SM BKN007 OVC026 06/05 A3014 RMK AO2 RAE55 CIG 005V011 SLP212 P0000 T00560050=
202203031848 SPECI KPWT 031848Z AUTO 14003KT 8SM -RA BKN007 OVC028 06/05 A3014 RMK AO2 CIG 004V009 P0000=
202203031836 SPECI KPWT 031836Z AUTO 16005KT 5SM -RA BR BKN005 OVC010 06/05 A3014 RMK AO2 CIG 004V008 P0000=
202203031756 METAR KPWT 031756Z AUTO VRB04KT 10SM -RA OVC009 06/05 A3013 RMK AO2 RAB30 CIG 005V012 SLP210 P0000 60006 T00560050 10056 20050 53008=
202203031729 SPECI KPWT 031729Z AUTO VRB03KT 10SM BKN007 BKN015 BKN030 06/05 A3013 RMK AO2 CIG 005V008=
202203031712 SPECI KPWT 031712Z AUTO 13004KT 7SM OVC005 05/04 A3013 RMK AO2 CIG 004V008=
202203031704 SPECI KPWT 031704Z AUTO 15004KT 2 1/2SM BR OVC005 05/05 A3012 RMK AO2=
202203031656 METAR KPWT 031656Z AUTO 14004KT 4SM BR OVC005 05/05 A3012 RMK AO2 RAB10E56 SLP208 P0001 T00500050=
202203031611 SPECI KPWT 031611Z AUTO 00000KT 3SM -RA BR OVC005 05/05 A3011 RMK AO2 RAB10 CIG 003V008 P0000=
202203031556 METAR KPWT 031556Z AUTO 00000KT 10SM OVC007 05/05 A3011 RMK AO2 RAE55 CIG 005V012 SLP202 P0001 T00500050=
202203031552 SPECI KPWT 031552Z AUTO 00000KT 7SM -RA BKN007 OVC012 05/05 A3011 RMK AO2 CIG 004V010 P0001=
202203031542 SPECI KPWT 031542Z AUTO 10003KT 2SM -RA BR OVC007 05/05 A3011 RMK AO2 CIG 004V011 P0001=
202203031505 SPECI KPWT 031505Z AUTO 00000KT 1 3/4SM -RA BR BKN005 OVC009 05/05 A3010 RMK AO2 P0000=
202203031456 METAR KPWT 031456Z AUTO 10005KT 1 1/2SM -RA BR OVC007 05/05 A3010 RMK AO2 CIG 004V010 SLP197 P0001 60004 T00500050 51006=
202203031447 SPECI KPWT 031447Z AUTO 08008KT 1 3/4SM -RA BR BKN005 OVC009 05/05 A3009 RMK AO2 CIG 003V008 P0001=
202203031418 SPECI KPWT 031418Z AUTO 12003KT 3SM -RA BR OVC005 05/05 A3009 RMK AO2 CIG 003V009 P0001=
202203031408 SPECI KPWT 031408Z AUTO 12004KT 3SM -RA BR BKN003 OVC011 05/05 A3009 RMK AO2 CIG 003V007 P0001=
202203031356 METAR KPWT 031356Z AUTO 08005KT 2 1/2SM -RA BR OVC003 05/05 A3009 RMK AO2 VIS 2 1/2V3 RAB18 CIG 002V007 SLP194 P0002 T00500050=
202203031338 SPECI KPWT 031338Z AUTO 12004KT 2SM -RA BR OVC003 05/05 A3009 RMK AO2 RAB18 P0001=
202203031256 METAR KPWT 031256Z AUTO 16003KT 5SM BR OVC003 06/05 A3008 RMK AO2 RAE45 SLP191 P0001 T00560050=
202203031228 SPECI KPWT 031228Z AUTO 17003KT 3SM -RA BR OVC003 06/06 A3008 RMK AO2 P0001=
202203031156 METAR KPWT 031156Z AUTO 18003KT 2 1/2SM -RA BR OVC003 06/06 A3007 RMK AO2 SLP188 P0001 60001 70018 T00560056 10067 20056 52002=
202203031145 SPECI KPWT 031145Z AUTO 00000KT 2 1/2SM -RA BR OVC003 06/06 A3007 RMK AO2 P0001=
202203031137 SPECI KPWT 031137Z AUTO 00000KT 1 3/4SM -RA BR OVC003 06/06 A3007 RMK AO2 P0001=
202203031123 SPECI KPWT 031123Z AUTO 00000KT 2 1/2SM -RA BR OVC003 06/06 A3007 RMK AO2 P0001=
202203031107 SPECI KPWT 031107Z AUTO 18003KT 3SM -RA BR OVC003 06/06 A3007 RMK AO2 P0001=
202203031056 METAR KPWT 031056Z AUTO 00000KT 2 1/2SM -RA BR OVC003 06/06 A3006 RMK AO2 VIS 2V4 SLP187 P0000 T00560056=
202203031029 SPECI KPWT 031029Z AUTO 22005KT 3SM -RA BR OVC003 06/06 A3006 RMK AO2 P0000=
202203031016 SPECI KPWT 031016Z AUTO 00000KT 2SM -RA BR OVC003 06/06 A3007 RMK AO2 P0000=
202203030956 METAR KPWT 030956Z AUTO 00000KT 2SM -RA BR OVC005 06/06 A3007 RMK AO2 RAB17 SLP187 P0000 T00610061=
202203030856 METAR KPWT 030856Z AUTO 21004KT 9SM OVC005 06/06 A3006 RMK AO2 CIG 003V008 SLP185 T00610056 53001=
202203030756 METAR KPWT 030756Z AUTO 22006KT 10SM OVC005 06/06 A3005 RMK AO2 SLP183 T00610056 401060061=
202203030746 SPECI KPWT 030746Z AUTO 23004KT 10SM OVC005 07/06 A3006 RMK AO2=
202203030656 METAR KPWT 030656Z AUTO 19005KT 10SM OVC007 07/06 A3006 RMK AO2 SLP183 T00670061=
202203030556 METAR KPWT 030556Z AUTO 19006KT 10SM BKN009 07/06 A3006 RMK AO2 CIG 006V011 SLP184 T00670061 10100 20067 51012=
202203030544 SPECI KPWT 030544Z AUTO 19004KT 10SM BKN009 BKN120 07/06 A3006 RMK AO2 CIG 007V012=
202203030537 SPECI KPWT 030537Z AUTO 20006KT 10SM SCT011 SCT120 07/06 A3006 RMK AO2=
202203030519 SPECI KPWT 030519Z AUTO 17004KT 10SM BKN013 BKN120 07/06 A3005 RMK AO2=
202203030456 METAR KPWT 030456Z AUTO 18003KT 10SM BKN110 07/06 A3005 RMK AO2 SLP181 T00720061=
202203030356 METAR KPWT 030356Z AUTO 18004KT 10SM BKN110 07/06 A3004 RMK AO2 SLP177 T00670061=
202203030256 METAR KPWT 030256Z AUTO 22005KT 10SM BKN110 08/07 A3002 RMK AO2 SLP173 T00780067 53001=
202203030156 METAR KPWT 030156Z AUTO 20010KT 10SM FEW120 08/07 A3001 RMK AO2 SLP167 T00830072=
202203030056 METAR KPWT 030056Z AUTO 22011KT 10SM CLR 09/08 A3002 RMK AO2 SLP169 T00940078=
202203022356 METAR KPWT 022356Z AUTO 22009KT 10SM FEW060 10/09 A3002 RMK AO2 RAE32 SLP170 P0000 60013 T01000089 10106 20094 56008=
202203022256 METAR KPWT 022256Z AUTO 19009KT 10SM -RA FEW010 SCT049 SCT060 10/09 A3002 RMK AO2 RAB02 SLP171 P0000 T01000089=
202203022228 SPECI KPWT 022228Z AUTO 19009KT 10SM FEW007 SCT011 BKN055 11/09 A3003 RMK AO2 RAB02E22 P0000=
202203022224 SPECI KPWT 022224Z AUTO 20009KT 10SM FEW007 BKN011 BKN018 11/09 A3003 RMK AO2 RAB02E22 P0000=
202203022214 SPECI KPWT 022214Z AUTO 19008KT 10SM -RA SCT007 BKN015 BKN049 10/09 A3003 RMK AO2 RAB02 P0000=
202203022156 METAR KPWT 022156Z AUTO 19007KT 10SM BKN007 BKN014 10/09 A3003 RMK AO2 RAE15 CIG 006V012 SLP173 P0001 T01000094=
202203022105 SPECI KPWT 022105Z AUTO 20007KT 10SM -RA BKN007 10/09 A3004 RMK AO2 CIG 004V009 P0001=
202203022056 METAR KPWT 022056Z AUTO 20007KT 10SM -RA BKN005 10/09 A3004 RMK AO2 CIG 003V009 SLP178 P0000 60012 T01000094 58001=
202203022042 SPECI KPWT 022042Z AUTO 20008KT 10SM -RA OVC005 10/09 A3004 RMK AO2 CIG 003V009 P0000=
202203022030 SPECI KPWT 022030Z AUTO 20008KT 10SM OVC003 09/09 A3005 RMK AO2 RAE30 CIG 003V007 P0000=
202203022012 SPECI KPWT 022012Z AUTO 18006KT 10SM -RA BKN005 BKN026 BKN033 09/09 A3005 RMK AO2 CIG 004V012 P0000=
202203021956 METAR KPWT 021956Z AUTO 21007KT 10SM -RA SCT007 SCT020 BKN026 09/09 A3006 RMK AO2 SLP184 P0012 T00940089=
202203021945 SPECI KPWT 021945Z AUTO 20006KT 10SM RA FEW007 BKN020 OVC032 09/09 A3006 RMK AO2 P0011=
202203021937 SPECI KPWT 021937Z AUTO 20006KT 10SM RA SCT005 BKN008 OVC023 09/09 A3006 RMK AO2 P0010=
202203021856 METAR KPWT 021856Z AUTO 21008KT 10SM -RA OVC005 10/09 A3005 RMK AO2 SLP181 P0000 T01000094=
202203021817 SPECI KPWT 021817Z AUTO 19007KT 10SM -RA OVC005 10/09 A3005 RMK AO2 CIG 003V008 P0000=
202203021756 METAR KPWT 021756Z AUTO 20005KT 10SM -RA BKN003 OVC007 09/09 A3005 RMK AO2 SLP179 P0001 60004 T00940089 10094 20078 53003=
202203021656 METAR KPWT 021656Z AUTO 00000KT 6SM -RA BR OVC003 09/09 A3004 RMK AO2 SLP178 P0001 T00890089=
202203021623 SPECI KPWT 021623Z AUTO 23003KT 8SM -RA BKN003 BKN030 08/08 A3004 RMK AO2 P0000=
202203021556 METAR KPWT 021556Z AUTO 00000KT 7SM -RA FEW003 BKN030 08/08 A3004 RMK AO2 RAB28 SLP176 P0000 T00830083=
202203021549 SPECI KPWT 021549Z AUTO 00000KT 7SM -RA SCT003 SCT030 08/08 A3004 RMK AO2 RAB28 P0000=
202203021538 SPECI KPWT 021538Z AUTO 00000KT 9SM -RA BKN003 08/08 A3003 RMK AO2 RAB28 P0000=
202203021530 SPECI KPWT 021530Z AUTO 20003KT 2SM -RA BR OVC003 08/08 A3003 RMK AO2 RAB28 P0000=
202203021526 SPECI KPWT 021526Z AUTO 00000KT 1SM BR OVC003 08/08 A3003 RMK AO2=
202203021519 SPECI KPWT 021519Z AUTO 22004KT 1/2SM FG OVC003 08/08 A3004 RMK AO2=
202203021504 SPECI KPWT 021504Z AUTO 22003KT 3/4SM BR OVC003 08/08 A3004 RMK AO2=
202203021459 SPECI KPWT 021459Z AUTO 23003KT 1 3/4SM BR BKN003 08/08 A3004 RMK AO2=
202203021456 METAR KPWT 021456Z AUTO 22004KT 3SM BR BKN003 08/08 A3004 RMK AO2 RAB1358E22 SLP176 P0000 60002 T00780078 57003=
202203021452 SPECI KPWT 021452Z AUTO 20003KT 4SM BR BKN003 08/08 A3004 RMK AO2 RAB1358E22 P0000=
202203021426 SPECI KPWT 021426Z AUTO 23003KT 9SM SCT003 08/08 A3004 RMK AO2 RAB1358E22 P0000=
202203021408 SPECI KPWT 021408Z AUTO 19003KT 8SM -RA BKN003 08/08 A3004 RMK AO2 RAB1358 P0000=
202203021356 METAR KPWT 021356Z AUTO 24005KT 10SM SCT003 SCT041 08/08 A3005 RMK AO2 RAE52 SLP179 P0001 T00830083=
202203021322 SPECI KPWT 021322Z AUTO 20003KT 10SM -RA SCT004 BKN049 08/08 A3004 RMK AO2 P0000=
202203021314 SPECI KPWT 021314Z AUTO 20003KT 10SM -RA BKN004 BKN049 08/08 A3004 RMK AO2 P0000=
202203021256 METAR KPWT 021256Z AUTO 00000KT 10SM -RA FEW004 BKN050 08/08 A3004 RMK AO2 SLP180 P0001 T00780078=
202203021156 METAR KPWT 021156Z AUTO 17003KT 10SM -RA FEW045 SCT055 08/08 A3004 RMK AO2 SLP179 P0002 60002 70015 T00830078 10089 20072 58012=
202203021141 SPECI KPWT 021141Z AUTO 19004KT 10SM -RA FEW018 SCT028 BKN045 08/08 A3005 RMK AO2 P0002=
202203021126 SPECI KPWT 021126Z AUTO 15004KT 4SM -RA BR SCT018 BKN027 OVC035 08/08 A3005 RMK AO2 P0002=
202203021056 METAR KPWT 021056Z AUTO 26003KT 10SM -RA BKN032 OVC040 08/08 A3006 RMK AO2 RAB05E23B51 SLP185 P0000 T00830078=
202203020956 METAR KPWT 020956Z AUTO 20004KT 10SM OVC055 08/08 A3007 RMK AO2 RAB10E25 SLP188 P0000 T00830078=
202203020856 METAR KPWT 020856Z AUTO 22003KT 10SM SCT030 BKN038 OVC060 08/08 A3008 RMK AO2 SLP190 T00830078 55001=
202203020756 METAR KPWT 020756Z AUTO 22004KT 10SM FEW029 BKN055 08/08 A3007 RMK AO2 SLP187 T00830078 401390067=
202203020656 METAR KPWT 020656Z AUTO 18003KT 10SM OVC055 09/08 A3007 RMK AO2 SLP188 T00890078=
202203020556 METAR KPWT 020556Z AUTO 00000KT 10SM OVC055 07/07 A3008 RMK AO2 SLP191 T00720067 10133 20067 53000=
202203020456 METAR KPWT 020456Z AUTO 00000KT 10SM CLR 07/07 A3007 RMK AO2 SLP188 T00720067=
202203020356 METAR KPWT 020356Z AUTO 18003KT 10SM CLR 08/07 A3007 RMK AO2 SLP189 T00780067=
202203020256 METAR KPWT 020256Z AUTO 23004KT 10SM CLR 08/07 A3008 RMK AO2 SLP191 T00830067 51003=
202203020156 METAR KPWT 020156Z AUTO 21006KT 10SM CLR 09/07 A3008 RMK AO2 SLP190 T00940072=
202203020056 METAR KPWT 020056Z AUTO 21006KT 10SM CLR 12/08 A3008 RMK AO2 SLP190 T01220078=
202203012356 METAR KPWT 012356Z AUTO 22013KT 10SM CLR 13/08 A3007 RMK AO2 SLP188 T01330078 10139 20106 51002=
202203012256 METAR KPWT 012256Z AUTO 23014KT 10SM CLR 14/08 A3007 RMK AO2 SLP186 T01390083=
202203012156 METAR KPWT 012156Z AUTO 22014KT 10SM CLR 13/09 A3007 RMK AO2 SLP188 T01330089=
202203012056 METAR KPWT 012056Z AUTO 22017G23KT 10SM CLR 13/09 A3007 RMK AO2 SLP186 T01280089 50002=
202203011956 METAR KPWT 011956Z AUTO 22015G19KT 10SM CLR 13/10 A3007 RMK AO2 SLP186 T01280100=
202203011919 SPECI KPWT 011919Z AUTO 21014KT 10SM SCT008 SCT035 12/10 A3007 RMK AO2=
202203011856 METAR KPWT 011856Z AUTO 22013KT 10SM BKN008 12/10 A3007 RMK AO2 CIG 007V012 SLP187 T01170100=
202203011756 METAR KPWT 011756Z AUTO 22014G18KT 9SM OVC006 11/10 A3006 RMK AO2 RAB02E13 CIG 005V010 SLP183 P0000 60013 T01060100 10106 20100 51014=
202203011656 METAR KPWT 011656Z AUTO 21010KT 6SM BR OVC006 10/10 A3005 RMK AO2 RAB28E50 CIG 004V010 SLP181 P0000 T01000100=
202203011556 METAR KPWT 011556Z AUTO 20010KT 9SM OVC006 10/10 A3004 RMK AO2 RAE09 CIG 004V008 SLP176 P0000 T01000100=
202203011549 SPECI KPWT 011549Z AUTO 21012KT 10SM OVC006 10/09 A3004 RMK AO2 RAE09 CIG 004V008 P0000=
202203011524 SPECI KPWT 011524Z AUTO 21011KT 10SM OVC004 10/ A3003 RMK AO2 RAE09 P0000=
202203011456 METAR KPWT 011456Z AUTO 20009KT 7SM -RA BKN006 OVC013 10/09 A3002 RMK AO2 CIG 004V009 SLP169 P0003 60013 T01000094 53005=
202203011438 SPECI KPWT 011438Z AUTO 21012KT 8SM -RA OVC006 10/09 A3002 RMK AO2 CIG 003V009 P0000=
202203011356 METAR KPWT 011356Z AUTO 20010KT 8SM -RA BKN004 OVC008 10/09 A3001 RMK AO2 RAE12B31 CIG 003V007 SLP166 P0001 T01000094=
202203011333 SPECI KPWT 011333Z AUTO 20010KT 3SM -RA BR BKN004 OVC014 10/09 A3000 RMK AO2 RAE12B31 CIG 003V008 P0000=
202203011256 METAR KPWT 011256Z AUTO 20008KT 9SM RA BKN008 BKN014 OVC019 10/09 A3000 RMK AO2 CIG 005V011 SLP163 P0009 T01000094=
202203011251 SPECI KPWT 011251Z AUTO 19009G15KT 8SM RA SCT008 BKN014 OVC019 10/09 A3000 RMK AO2 P0008=
202203011209 SPECI KPWT 011209Z AUTO 20011KT 10SM -RA BKN006 BKN010 OVC015 10/09 A2998 RMK AO2 CIG 003V008 P0000=
202203011156 METAR KPWT 011156Z AUTO 19008KT 10SM -RA SCT006 BKN010 OVC029 10/09 A2999 RMK AO2 RAB25 CIG 008V011 SLP159 P0001 60007 70275 T01000094 10100 20100 51006=
202203011137 SPECI KPWT 011137Z AUTO 20013G17KT 10SM -RA BKN007 OVC013 10/09 A2999 RMK AO2 RAB25 CIG 005V012 P0000=
202203011121 SPECI KPWT 011121Z AUTO 20012KT 10SM SCT006 OVC013 10/09 A2999 RMK AO2=
202203011056 METAR KPWT 011056Z AUTO 20010KT 10SM BKN008 OVC013 10/09 A2998 RMK AO2 RAE41 CIG 005V010 SLP158 P0000 T01000094=
202203010956 METAR KPWT 010956Z AUTO 20008KT 7SM -RA OVC006 10/10 A2999 RMK AO2 CIG 004V009 SLP159 P0001 T01000100=
202203010856 METAR KPWT 010856Z AUTO 21012KT 5SM -RA BR OVC006 10/10 A2997 RMK AO2 CIG 005V009 SLP153 P0001 60005 T01000100 53011=
202203010810 SPECI KPWT 010810Z AUTO 21010KT 10SM -RA BKN006 OVC012 10/10 A2995 RMK AO2 CIG 003V009 P0001=
202203010756 METAR KPWT 010756Z AUTO 21011KT 6SM -RA BKN004 OVC008 10/ A2995 RMK AO2 CIG 003V006 SLP148 P0002 T0100 401110094=
202203010656 METAR KPWT 010656Z AUTO 21011KT 5SM -RA BR OVC004 10/10 A2994 RMK AO2 CIG 003V008 SLP145 P0002 T01000100=
202203010556 METAR KPWT 010556Z AUTO 21010KT 6SM -RA BR OVC004 10/10 A2993 RMK AO2 SLP141 P0008 60063 T01000100 10111 20100 53013=
202203010456 METAR KPWT 010456Z AUTO 21012KT 7SM -RA OVC004 11/10 A2992 RMK AO2 CIG 003V007 SLP136 P0008 T01060100=
202203010356 METAR KPWT 010356Z AUTO 21012G19KT 8SM -RA OVC006 11/10 A2990 RMK AO2 CIG 004V010 SLP130 P0006 T01060100=
202203010256 METAR KPWT 010256Z AUTO 20013KT 8SM -RA OVC006 11/11 A2990 RMK AO2 CIG 004V011 SLP129 P0009 60041 T01060106 53005=
202203010156 METAR KPWT 010156Z AUTO 22013G19KT 6SM RA BR BKN006 OVC009 11/11 A2989 RMK AO2 CIG 004V008 SLP126 P0013 T01060106=
202203010116 SPECI KPWT 010116Z AUTO 22012KT 4SM RA BR BKN006 OVC011 11/11 A2988 RMK AO2 CIG 004V007 P0005=
202203010056 METAR KPWT 010056Z AUTO 22009KT 4SM RA BR OVC004 11/11 A2988 RMK AO2 CIG 004V008 SLP121 P0019 T01110111=
202203010032 SPECI KPWT 010032Z AUTO 22010KT 4SM RA BR OVC004 11/11 A2988 RMK AO2 CIG 003V008 P0012=

# No short TAF reports from KPWT in databse.

###################################
#  large TAF from KPWT
###################################
202203312320 TAF KPWT 312320Z 0100/0124 VRB03KT P6SM OVC060 FM010300 VRB03KT
                       P6SM OVC050 FM010600 00000KT 4SM BR OVC015
                       FM011200 VRB03KT 3SM BR OVC005 FM011800
                       19006KT P6SM SCT010 OVC030=
202203311720 TAF KPWT 311720Z 3118/0118 12004KT P6SM OVC010 FM312000 10006KT
                       P6SM SCT010 BKN025 FM312300 19006KT P6SM
                       OVC050 FM010300 VRB02KT P6SM OVC050 FM010600
                       00000KT 4SM BR OVC015=
202203311324 KPWT 311324Z 3113/0112 12004KT P6SM OVC005 FM311600 10006KT P6SM
                       SCT020 BKN030 FM312300 19006KT P6SM OVC050
                       FM010300 VRB02KT P6SM OVC050 FM010600 00000KT
                       4SM BR OVC015=
202203311125 TAF KPWT 311125Z 3112/0112 12004KT P6SM SCT010 BKN015 OVC020 FM311800
                       10006KT P6SM SCT020 BKN030 FM312300 19006KT
                       P6SM OVC050 FM010300 VRB02KT P6SM OVC050
                       FM010600 00000KT 4SM BR OVC015=
202203310520 TAF KPWT 310520Z 3106/0106 05005KT P6SM VCSH BKN015 OVC040 FM311200
                       19006KT P6SM SCT010 OVC020 FM311800 10006KT
                       P6SM SCT020 BKN030 FM312300 19006KT P6SM
                       OVC050 FM010300 VRB02KT P6SM OVC050=
202203302322 TAF KPWT 302322Z 3100/3124 22012KT P6SM -SHRA SCT030 BKN040 FM310500
                       18004KT P6SM OVC025 FM311200 19006KT P6SM
                       SCT010 OVC020 FM312000 21006KT P6SM SCT020
                       BKN030=
202203301727 TAF KPWT 301727Z 3018/3118 22010KT P6SM VCSH BKN020 OVC030 FM302100
                       02008KT P6SM -SHRA OVC020 FM310500 18004KT
                       P6SM OVC025 FM311200 19006KT P6SM SCT010
                       OVC020=
202203301132 TAF KPWT 301132Z 3012/3112 20010KT P6SM VCSH BKN025 OVC050
                      TEMPO 3012/3016 5SM -RA BR SCT007 OVC015
                       FM302000 02008KT P6SM VCSH OVC015 FM310500
                       18004KT P6SM OVC022=
202203300527 TAF KPWT 300527Z 3006/3106 22010KT P6SM BKN025 OVC050 FM301200
                       19008KT P6SM -RA SCT008 OVC020 FM302000
                       02008KT P6SM VCSH OVC015 FM310500 18004KT
                       P6SM OVC022=
202203292342 TAF KPWT 292342Z 3000/3024 19008KT P6SM OVC030 FM300500 19008KT
                       P6SM OVC050 FM301200 19008KT P6SM SCT008
                       BKN015 OVC030 FM301700 19008KT P6SM SCT020
                       BKN035 BKN050 FM302200 VRB03KT P6SM SCT010
                       BKN018 OVC030=
202203291733 TAF KPWT 291733Z 2918/3018 22005KT P6SM SCT005 BKN015 FM292100
                       20007KT P6SM OVC030 FM300500 VRB03KT P6SM
                       OVC050 FM301200 19007KT P6SM VCSH SCT001
                       OVC015=
202203291132 TAF KPWT 291132Z 2912/3012 00000KT 1/2SM FG OVC002 FM291700 19004KT
                       P6SM SCT007 OVC015 FM292100 20007KT P6SM
                       OVC030 FM300500 VRB03KT P6SM OVC050=
202203290859 KPWT 290859Z 2909/3006 00000KT 2SM BR OVC005
                      TEMPO 2909/2912 1/2SM FG FM291200 00000KT
                       1/2SM FG OVC002 FM291700 19004KT P6SM SCT007
                       OVC015 FM292100 20007KT P6SM OVC030 FM300500
                       VRB03KT P6SM OVC050=
202203290530 TAF KPWT 290530Z 2906/3006 03003KT P6SM SCT020 FM290800 00000KT
                       4SM BR SCT007 OVC015 FM291200 00000KT 2SM
                       BR OVC004 FM291700 19004KT P6SM SCT007 OVC015
                       FM292100 20007KT P6SM OVC030 FM300500 VRB03KT
                       P6SM OVC050=
202203282331 TAF KPWT 282331Z 2900/2924 05011KT P6SM BKN014 OVC035 FM290300
                       03005KT P6SM BKN020 FM291100 00000KT 3SM
                       BR OVC007 FM291700 17005KT P6SM OVC015=
202203282227 KPWT 282227Z 2822/2918 04006KT P6SM VCSH FEW007 BKN020 OVC030
                      TEMPO 2822/2824 -SHRA BKN007 OVC020 FM290300
                       00000KT P6SM SCT025 BKN050 FM290700 00000KT
                       P6SM BKN015 OVC030 FM291100 00000KT 3SM
                       BR OVC007 FM291700 17005KT P6SM OVC015=
202203281721 TAF KPWT 281721Z 2818/2918 00000KT 6SM BR OVC003 FM281900 VRB02KT
                       P6SM VCSH BKN005 OVC015 FM290500 00000KT
                       P6SM BKN020 FM291100 00000KT 3SM BR OVC007
                       FM291700 17005KT P6SM OVC015=
202203281125 TAF KPWT 281125Z 2812/2912 06004KT P6SM BKN005 OVC015 FM282200
                       05005KT 6SM -RA BR BKN022 OVC040 FM290500
                       00000KT P6SM BKN020 FM291100 00000KT 3SM
                       BR OVC007=
202203280856 KPWT 280856Z 2809/2906 00000KT P6SM SCT015 BKN120 FM281200 00000KT
                       P6SM BKN006 OVC015 FM282200 05005KT P6SM
                       BKN022 OVC040 FM290500 00000KT P6SM OVC020=
202203280527 TAF KPWT 280527Z 2806/2906 00000KT P6SM BKN120 FM281200 00000KT
                       P6SM BKN006 OVC015 FM282200 05005KT P6SM
                       BKN022 OVC040 FM290500 00000KT P6SM OVC020=
202203272321 TAF KPWT 272321Z 2800/2824 24005KT P6SM FEW030 SCT120 BKN200 FM280500
                       00000KT P6SM SCT060 BKN120 FM281200 00000KT
                       P6SM OVC015 FM282200 03005KT P6SM BKN030
                       OVC050=
202203271722 TAF KPWT 271722Z 2718/2818 VRB03KT P6SM FEW040 BKN120 FM280500
                       00000KT P6SM BKN060 BKN120 FM281200 00000KT
                       P6SM OVC015=
202203271127 TAF KPWT 271127Z 2712/2812 05007KT P6SM OVC100
                      TEMPO 2713/2717 1SM BR BKN003 FM271700 VRB03KT
                       P6SM FEW005 BKN120 FM272000 08006KT P6SM
                       BKN120 FM280500 VRB03KT P6SM BKN060 BKN120=
202203270534 TAF KPWT 270534Z 2706/2806 05005KT P6SM VCSH OVC070 FM270900 00000KT
                       P6SM VCSH SCT060 BKN150
                      TEMPO 2713/2717 1SM BR BKN003 FM271700 VRB03KT
                       P6SM FEW005 SCT060 BKN120 FM272000 04005KT
                       P6SM SCT060 BKN120 FM280500 00000KT P6SM
                       BKN060 BKN120=
202203270258 KPWT 270258Z 2703/2724 03003KT P6SM -RA FEW060 FM270900 00000KT
                       P6SM VCSH SCT060 BKN150 FM271300 00000KT
                       1SM BR BKN003 FM271700 VRB03KT P6SM FEW005
                       SCT060 BKN120 FM272000 04005KT P6SM SCT060
                       BKN120=
202203262325 TAF KPWT 262325Z 2700/2724 23004KT P6SM FEW010 BKN035 BKN060
                      TEMPO 2700/2703 -SHRA BKN010 OVC035 FM270300
                       03003KT P6SM SCT035 BKN060 OVC100 FM270900
                       00000KT P6SM SCT060 BKN150 FM271300 00000KT
                       1SM BR BKN003 FM271700 VRB03KT P6SM FEW005
                       SCT060 BKN120 FM272000 04005KT P6SM SCT060
                       BKN120=
202203261720 TAF KPWT 261720Z 2618/2718 VRB03KT P6SM SCT030 OVC050
                      TEMPO 2618/2622 -RA OVC030 FM270300 03003KT
                       P6SM SCT035 BKN060 OVC100 FM270900 00000KT
                       P6SM SCT060 BKN150 FM271300 00000KT 1SM
                       BR BKN003 FM271700 VRB03KT P6SM FEW005 SCT060
                       BKN120=
202203261124 TAF KPWT 261124Z 2612/2712 VRB03KT P6SM SKC FM261300 18002KT P6SM
                       VCSH FEW030 OVC050 FM261700 19003KT P6SM
                       VCSH BKN020 OVC040 FM262200 22003KT P6SM
                       OVC040 FM270200 03003KT P6SM OVC040=
202203260520 TAF KPWT 260520Z 2606/2706 00000KT P6SM OVC070 FM261100 VRB03KT
                       P6SM -RA FEW030 OVC050 FM261700 04003KT
                       P6SM -RA BKN020 OVC040 FM262200 03003KT
                       P6SM OVC040=
202203252320 TAF KPWT 252320Z 2600/2624 21006KT P6SM FEW050 BKN090 FM260300
                       00000KT P6SM FEW050 BKN120 FM261100 VRB03KT
                       P6SM -RA FEW030 OVC050 FM261700 04003KT
                       P6SM -RA BKN020 OVC040=
202203251720 TAF KPWT 251720Z 2518/2618 22006KT P6SM SCT060 BKN120
                      TEMPO 2518/2522 BKN060 OVC120 FM260300 00000KT
                       P6SM SCT060 BKN120 FM261100 VRB03KT P6SM
                       -RA FEW030 OVC050 FM261500 04003KT P6SM
                       -RA BKN020 OVC040=
202203251120 TAF KPWT 251120Z 2512/2612 VRB03KT P6SM BKN110 FM251600 19005KT
                       P6SM BKN070 FM260300 VRB03KT P6SM BKN040
                       OVC070=
202203250520 TAF KPWT 250520Z 2506/2606 VRB03KT P6SM BKN200 FM251600 19005KT
                       P6SM BKN100 FM260300 VRB03KT P6SM BKN040
                       OVC100=
202203242320 TAF KPWT 242320Z 2500/2524 04009KT P6SM BKN200 FM250200 VRB03KT
                       P6SM BKN200 FM251600 19005KT P6SM BKN100=
202203241720 TAF KPWT 241720Z 2418/2518 04007KT P6SM OVC200 FM250200 VRB03KT
                       P6SM BKN200 FM251600 19005KT P6SM BKN100=
202203241120 TAF KPWT 241120Z 2412/2512 VRB03KT P6SM SCT010
                      TEMPO 2412/2416 3SM BR BKN005 FM241700 03006KT
                       P6SM SCT010 BKN200 FM242200 03008KT P6SM
                       BKN200 FM250200 VRB03KT P6SM BKN200=
202203240522 TAF KPWT 240522Z 2406/2506 VRB03KT P6SM OVC022 FM240700 VRB03KT
                       P6SM SCT022 SCT200 FM241000 VRB03KT 3SM
                       BR BKN005 FM241700 03006KT P6SM SCT010 BKN200
                       FM242200 03008KT P6SM BKN200=
202203240216 KPWT 240216Z 2402/2424 VRB05KT P6SM -SHRA FEW005 OVC016
                      TEMPO 2402/2404 08008G16KT 6SM -SHRA BR FM240600
                       VRB03KT P6SM SCT022 SCT200 FM241000 VRB03KT
                       3SM BR BKN005 FM241700 03006KT P6SM SCT010
                       BKN200 FM242200 03008KT P6SM BKN200=
202203232325 TAF KPWT 232325Z 2400/2424 19010G16KT P6SM SCT018 BKN035
                      TEMPO 2400/2404 -SHRA BKN012 OVC025 FM240600
                       VRB03KT P6SM SCT022 SCT200 FM241000 VRB03KT
                       3SM BR BKN005 FM241700 03006KT P6SM SCT010
                       BKN200 FM242200 03008KT P6SM BKN200=
202203231720 TAF KPWT 231720Z 2318/2418 20010KT P6SM BKN025 FM232000 20013G20KT
                       5SM -SHRA BR BKN010 OVC020 FM240200 16006KT
                       P6SM SCT020 OVC040 FM240600 VRB03KT P6SM
                       SCT040 SCT250 FM241000 VRB03KT 1/2SM FG
                       BKN005=
202203231429 KPWT 231429Z 2314/2412 20010KT P6SM OVC003 FM231700 20010KT 6SM
                       -RA BR OVC010 FM232000 20013G20KT 5SM -SHRA
                       BR BKN011 OVC020 FM240200 16006KT P6SM SCT020
                       OVC040 FM240600 VRB03KT P6SM SCT040 SCT250=
202203231150 KPWT 231150Z 2312/2412 VRB03KT P6SM BKN003 FM231400 20005KT P6SM
                       OVC011 FM231700 19009KT 6SM -RA BR OVC010
                       FM232000 20013G20KT 5SM -SHRA BR BKN011
                       OVC020 FM240200 16006KT P6SM SCT020 OVC040
                       FM240600 VRB03KT P6SM SCT040 SCT250=
202203231121 TAF KPWT 231121Z 2312/2412 VRB03KT P6SM SCT020 BKN035 FM231400
                       20005KT P6SM OVC011 FM231700 19009KT 6SM
                       -RA BR OVC010 FM232000 20013G20KT 5SM -SHRA
                       BR BKN011 OVC020 FM240200 16006KT P6SM SCT020
                       OVC040 FM240600 VRB03KT P6SM SCT040 SCT250=
202203230531 TAF KPWT 230531Z 2306/2406 00000KT P6SM SKC
                      TEMPO 2306/2309 1 1/2SM BR FM230900 VRB03KT
                       P6SM BKN020 BKN050 FM231300 20005KT P6SM
                       OVC011 FM231600 19009KT 6SM -RA BR OVC010
                       FM232100 20013G20KT 5SM -SHRA BR BKN011
                       OVC020 FM240200 16006KT P6SM SCT020 OVC040=
202203230356 KPWT 230356Z 2304/2324 00000KT P6SM SKC
                      TEMPO 2304/2306 1 1/2SM BR FM230600 VRB03KT
                       P6SM BKN020 BKN050 FM230900 19002KT P6SM
                       OVC011 FM231600 19006KT 6SM -RA BR OVC010
                       FM232100 20013G20KT 5SM -SHRA BR BKN011
                       OVC020=
202203222322 TAF KPWT 222322Z 2300/2324 21007KT P6SM BKN020 BKN120
                      TEMPO 2300/2304 SCT025 BKN120 FM230400 VRB03KT
                       P6SM BKN020 BKN050 FM230900 19002KT P6SM
                       OVC011 FM231600 19006KT 6SM -RA BR OVC010
                       FM232100 20013G20KT 5SM -SHRA BR BKN011
                       OVC020=
202203221845 KPWT 221845Z 2219/2318 21007KT P6SM SCT005 BKN040 FM222000 17006KT
                       P6SM SCT007 BKN040 FM230000 VRB05KT P6SM
                       BKN030 BKN045 FM230400 VRB03KT 5SM BR OVC007
                       FM231600 19006KT 6SM -RA BR OVC011=
202203221721 TAF KPWT 221721Z 2218/2318 21007KT P6SM SCT004 OVC010
                      TEMPO 2218/2220 4SM BR BKN004 OVC010 FM222000
                       17004KT P6SM BKN011 OVC030 FM222200 VRB05KT
                       P6SM BKN022 BKN045 FM230400 VRB03KT 5SM
                       BR OVC007 FM231600 19006KT 6SM -RA BR OVC011=
202203221120 TAF KPWT 221120Z 2212/2312 17008KT 3SM BR VCSH OVC001 FM221800
                       18003KT P6SM OVC010 FM222200 VRB05KT P6SM
                       BKN015 BKN045 FM230200 VRB03KT 5SM BR OVC007=
202203220520 TAF KPWT 220520Z 2206/2306 VRB04KT 4SM BR VCSH OVC003 FM221000
                       17005KT 3SM BR VCSH OVC001 FM221800 18003KT
                       P6SM OVC010 FM222200 VRB05KT P6SM BKN015
                       BKN045 FM230200 VRB03KT 5SM BR OVC007=
202203212340 TAF KPWT 212340Z 2200/2224 22009KT P6SM VCSH BKN014 OVC025
                      TEMPO 2200/2204 6SM -SHRA BR BKN010 OVC020
                       FM220400 VRB04KT 6SM BR VCSH OVC008 FM221000
                       17005KT 5SM BR VCSH OVC006 FM221800 18003KT
                       P6SM OVC012 FM222200 VRB05KT P6SM BKN025
                       BKN045=
202203211744 TAF KPWT 211744Z 2118/2218 22009KT 6SM -RA SCT008 OVC018 FM212100
                       21007KT 4SM -RA OVC010 FM220000 20007KT
                       2SM -RA BR OVC010 FM220300 VRB04KT 3SM BR
                       VCSH OVC007=
202203211139 TAF KPWT 211139Z 2112/2212 20009KT 6SM -RA BR OVC006 FM211300 21008KT
                       4SM -RA OVC006 FM212100 21007KT 4SM -RA
                       OVC010 FM220000 20007KT 2SM -RA BR OVC007
                       FM220300 VRB04KT 3SM BR VCSH OVC007=
202203210536 TAF KPWT 210536Z 2106/2206 22006KT P6SM -RA BKN008 OVC015 FM210900
                       20004KT 4SM -RA OVC007 FM220000 19005KT
                       2SM -RA BR OVC007=
202203210323 KPWT 210323Z 2103/2124 22006KT 4SM -RA BKN007 OVC015 FM210900 20004KT
                       4SM -RA OVC007=
202203202320 TAF KPWT 202320Z 2100/2124 20008KT P6SM -RA SCT008 BKN015 OVC030
                       FM210400 20006KT 4SM -RA BKN007 OVC015 FM210900
                       20004KT 4SM -RA OVC007=
202203201734 TAF KPWT 201734Z 2018/2118 19010KT P6SM VCSH BKN010 OVC060 FM202100
                       20011KT 6SM -RA OVC015 FM210400 20007KT
                       4SM -RA SCT007 OVC012 FM210900 20005KT 4SM
                       -RA BKN007 OVC010=
202203201139 TAF KPWT 201139Z 2012/2112 21007KT P6SM -SHRA BKN010 FM201600 19006KT
                       P6SM -SHRA OVC020 FM202100 20008KT 4SM -RA
                       OVC015 FM210600 20003KT 6SM -RA OVC015=
202203200527 TAF KPWT 200527Z 2006/2106 VRB03KT P6SM VCSH SCT020 BKN040 FM201000
                       18008KT P6SM -SHRA OVC020 FM201700 20009KT
                       P6SM -SHRA OVC015 FM202300 19008KT 4SM -RA
                       OVC015=
202203192326 TAF KPWT 192326Z 2000/2024 02015G22KT P6SM VCSH BKN025 OVC050 FM200300
                       16010KT P6SM VCSH SCT020 BKN040 FM201000
                       18008KT P6SM -SHRA OVC020 FM201700 20010KT
                       P6SM -SHRA OVC015 FM202300 19011KT 4SM -RA
                       OVC015=
202203192100 KPWT 192100Z 1921/2018 02015G22KT P6SM VCSH FEW020 BKN045
                      TEMPO 1921/1924 4SM -RA OVC030 FM200100 20010KT
                       P6SM VCSH SCT020 BKN040 FM200900 20006KT
                       P6SM -SHRA OVC020=
202203191723 TAF KPWT 191723Z 1918/2018 23008KT P6SM VCSH BKN010 BKN080
                      TEMPO 1918/1919 6SM -RA OVC012 FM191900 02015G22KT
                       4SM -RA OVC015 FM200100 20010KT P6SM VCSH
                       SCT020 BKN040 FM200900 20006KT P6SM -SHRA
                       OVC020=
202203191126 KPWT 191126Z 1912/2012 23005KT P6SM -RA OVC015 FM191800 20013G22KT
                       P6SM BKN050=
202203191125 TAF KPWT 191125Z 1912/2012 19008G16KT P6SM -RA OVC015 FM191800
                       20013G22KT P6SM BKN050=
202203190526 TAF KPWT 190526Z 1906/2006 20007KT 6SM -RA OVC025 FM191200 19008G16KT
                       6SM -RA OVC015 FM191800 20013G22KT P6SM
                       BKN050=
202203182320 TAF KPWT 182320Z 1900/1924 23008KT P6SM SCT022 BKN060 FM190700
                       20007KT 6SM -RA OVC025 FM191200 19008G16KT
                       6SM -RA OVC015 FM191800 20013G22KT P6SM
                       BKN050=
202203181720 TAF KPWT 181720Z 1818/1918 23008KT P6SM BKN035 FM182000 21010KT
                       P6SM OVC035 FM190700 20007KT 6SM -RA OVC025
                       FM191200 19008G16KT 6SM -RA OVC015=
202203181130 TAF KPWT 181130Z 1812/1912 19005KT P6SM OVC006 FM181600 18008KT
                       6SM BR OVC010 FM182000 17010KT P6SM OVC035
                       FM190700 17007KT 6SM -RA OVC025=
202203180840 KPWT 180840Z 1809/1906 19005KT 4SM BR OVC004 FM181600 18008KT 6SM
                       BR OVC010 FM182000 17010KT P6SM OVC035=
202203180523 TAF KPWT 180523Z 1806/1906 19005KT 6SM BR OVC015 FM181700 17010KT
                       P6SM OVC035=
202203172341 TAF KPWT 172341Z 1800/1824 20009KT 5SM -RA OVC027 FM180200 19005KT
                       6SM BR OVC015 FM181700 17010KT P6SM OVC035=
202203171736 TAF KPWT 171736Z 1718/1818 19004KT P6SM FEW040 FM172000 19007KT
                       5SM BR OVC040 FM180000 20005KT 5SM -RA OVC015=
202203171130 TAF KPWT 171130Z 1712/1812 18004KT P6SM BKN050 OVC120 FM171500
                       18004KT 6SM -RA BR OVC020 FM172000 19007KT
                       5SM -RA BR OVC011=
202203170522 TAF KPWT 170522Z 1706/1806 20005KT P6SM BKN040 BKN200 FM170700
                       18004KT P6SM BKN050 OVC120 FM171600 18004KT
                       6SM -RA BR OVC020 FM172000 19007KT 5SM -RA
                       BR OVC011=
202203170304 KPWT 170304Z 1703/1724 20005KT P6SM BKN040 BKN200 FM170700 18004KT
                       P6SM BKN050 OVC120 FM171600 18004KT 6SM
                       -RA BR OVC020 FM172000 19007KT 5SM -RA BR
                       OVC011=
202203162320 TAF KPWT 162320Z 1700/1724 21010KT P6SM SCT030 BKN200 FM170500
                       18006KT P6SM BKN080 OVC120 FM171600 18004KT
                       6SM -RA BR OVC020 FM172000 19007KT 5SM -RA
                       BR OVC011=
202203161741 TAF KPWT 161741Z 1618/1718 21005KT P6SM BKN009 OVC030
                      TEMPO 1618/1620 SCT012 BKN035 FM162000 18006KT
                       P6SM BKN035 BKN100 FM170000 20006KT P6SM
                       SCT040 BKN120 FM170500 18003KT P6SM BKN080
                       OVC120 FM171500 18004KT 6SM -RA BR OVC020=
202203161337 KPWT 161337Z 1614/1712 19004KT P6SM OVC005 FM161900 18006KT P6SM
                       BKN027 BKN050 FM162200 18006KT P6SM SCT035
                       BKN100=
202203161141 TAF KPWT 161141Z 1612/1712 19004KT P6SM OVC010 FM161900 18006KT
                       P6SM BKN027 BKN050 FM162200 18006KT P6SM
                       SCT035 BKN100=
202203160523 TAF KPWT 160523Z 1606/1706 19009KT P6SM BKN010 FM161200 19004KT
                       P6SM OVC010 FM161900 18006KT P6SM BKN027
                       BKN050 FM162200 18006KT P6SM SCT035 BKN100=
202203160349 KPWT 160349Z 1604/1624 19009KT P6SM BKN035 BKN060 FM160900 21008KT
                       P6SM BKN014 OVC025 FM161200 19004KT P6SM
                       OVC011 FM161900 18006KT P6SM BKN027 BKN050
                       FM162200 18006KT P6SM SCT035 BKN100=
202203152324 TAF KPWT 152324Z 1600/1624 22013G21KT P6SM VCSH SCT025 BKN040 FM160500
                       19009KT P6SM BKN035 BKN060 FM160900 21008KT
                       P6SM BKN014 OVC025 FM161200 19004KT P6SM
                       OVC011 FM161900 18006KT P6SM BKN027 BKN050
                       FM162200 18006KT P6SM SCT035 BKN100=
202203151900 KPWT 151900Z 1519/1618 21014G22KT P6SM VCSH SCT012 BKN020 BKN040
                       TEMPO 1519/1521 BKN010 FM152100 21010KT
                       P6SM VCSH SCT025 BKN040 FM160900 21008KT
                       P6SM BKN011 OVC020 FM161200 19004KT P6SM
                       OVC009=
202203151721 TAF KPWT 151721Z 1518/1618 21011KT P6SM VCSH SCT012 BKN020 BKN040
                       TEMPO 1518/1521 BKN010 FM152100 21008KT
                       P6SM VCSH SCT025 BKN040 FM160900 21008KT
                       P6SM BKN011 OVC020 FM161200 19004KT P6SM
                       OVC009=
202203151139 TAF KPWT 151139Z 1512/1612 21010KT 4SM -RA BKN003 OVC008 FM151500
                       21012G20KT P6SM VCSH SCT012 BKN020 BKN040
                       FM152100 21008KT P6SM SCT030 BKN050 FM160900
                       21008KT P6SM BKN011 OVC020=
202203150539 TAF KPWT 150539Z 1506/1606 21006KT 4SM -RA BR OVC004 FM151000 21006KT
                       5SM -RA SCT004 OVC008 FM151500 21012G20KT
                       P6SM VCSH BKN015 BKN030 FM152000 21008KT
                       P6SM SCT020 BKN040=
202203142321 TAF KPWT 142321Z 1500/1524 21012KT 5SM -RA BR BKN012 OVC025 FM150600
                       21012KT 4SM -RA BR OVC012 FM151500 21012G20KT
                       P6SM VCSH BKN015 BKN030 FM152000 21008KT
                       P6SM SCT020 BKN040=
202203141724 TAF KPWT 141724Z 1418/1518 20010KT 6SM -RA BR OVC025
                      TEMPO 1418/1422 3SM -RA BR OVC015 FM142200
                       20012KT 3SM -RA BR OVC015 FM150900 20012KT
                       P6SM -SHRA BKN020 OVC040 FM151500 20014G20KT
                       P6SM VCSH BKN025 BKN050=
202203141139 TAF KPWT 141139Z 1412/1512 20010KT P6SM -RA OVC006 FM141900 18010KT
                       3SM -RA BKN004 OVC008 FM150300 18010KT 5SM
                       -RA SCT006 BKN012 OVC020=
202203140541 TAF KPWT 140541Z 1406/1506 20010KT P6SM -RA OVC012 FM141800 18010KT
                       3SM -RA BKN006 OVC012 FM150300 18010KT 5SM
                       -RA SCT006 BKN012 OVC020=
202203132320 TAF KPWT 132320Z 1400/1424 20008KT P6SM -SHRA SCT005 OVC015
                      TEMPO 1400/1404 3SM -SHRA BR BKN005 OVC015
                       FM140600 18010KT P6SM -RA OVC012 FM141200
                       18010KT 5SM -RA OVC018 FM142000 18010KT
                       P6SM -RA OVC020=
202203131935 KPWT 131935Z 1320/1418 23010KT P6SM -SHRA BKN025 OVC040 FM140400
                       18012KT P6SM -RA OVC025 FM141200 18012KT
                       5SM -RA OVC015=
202203131720 TAF KPWT 131720Z 1318/1418 VRB04KT P6SM VCSH BKN060 BKN120 FM140300
                       18006KT P6SM -SHRA OVC040 FM141200 17012KT
                       5SM -RA OVC015=
202203131135 TAF KPWT 131135Z 1312/1412 19008KT P6SM BKN035 BKN100 FM131400
                       19008KT P6SM -SHRA SCT025 BKN040 BKN060
                       TEMPO 1314/1318 BKN025 OVC040 FM132000 19008KT
                       P6SM SCT030 BKN060 FM140400 19012KT P6SM
                       -RA OVC040 FM140800 19012KT 4SM -RA BKN012
                       OVC020=
202203130520 TAF KPWT 130520Z 1306/1406 VRB05KT P6SM -RA OVC025 FM130800 19006KT
                       P6SM -SHRA SCT015 OVC022 FM131600 VRB04KT
                       P6SM VCSH BKN015 OVC030 FM132100 19006KT
                       P6SM BKN035 BKN060 FM140400 20008KT P6SM
                       -RA OVC035=
202203122320 TAF KPWT 122320Z 1300/1324 20014G22KT P6SM -RA BKN035 OVC060 FM130400
                       18012G22KT P6SM -RA OVC030 FM130800 18012KT
                       P6SM -SHRA OVC025 FM131600 VRB04KT P6SM
                       VCSH BKN025 BKN050 FM132100 VRB04KT P6SM
                       BKN040 BKN080=
202203121720 TAF KPWT 121720Z 1218/1318 VRB03KT P6SM BKN120 OVC200 FM122200
                       15005KT P6SM BKN050 OVC100 FM130100 18012KT
                       P6SM -RA OVC030 FM130400 18012KT P6SM -RA
                       OVC025 FM131200 VRB04KT P6SM -SHRA OVC020=
202203121129 TAF KPWT 121129Z 1212/1312 17005KT P6SM OVC050 FM121700 19006KT
                       P6SM SCT050 BKN150 BKN250 FM130000 19010G16KT
                       P6SM -RA OVC040 FM130600 19007KT P6SM -RA
                       OVC015=
202203120520 TAF KPWT 120520Z 1206/1306 19005KT P6SM OVC050 FM121500 VRB03KT
                       P6SM SCT050 BKN150 BKN250 FM130000 19010KT
                       P6SM -RA OVC040 FM130300 19010KT P6SM -RA
                       OVC015=
202203112320 TAF KPWT 112320Z 1200/1224 VRB03KT P6SM BKN060 OVC120 FM121000
                       18006KT P6SM BKN040 OVC090 FM122100 18010KT
                       P6SM -RA OVC040=
202203111720 TAF KPWT 111720Z 1118/1218 VRB03KT P6SM BKN050 OVC090 FM121000
                       15006KT P6SM BKN050 OVC090=
202203111129 TAF KPWT 111129Z 1112/1212 VRB03KT P6SM BKN080 OVC120 FM112300
                       19005KT P6SM OVC100 FM120200 VRB03KT P6SM
                       BKN120 OVC200 FM120600 00000KT P6SM OVC050=
202203110520 TAF KPWT 110520Z 1106/1206 VRB04KT P6SM OVC150 FM111200 18007KT
                       P6SM BKN080 OVC120 FM112300 21005KT P6SM
                       OVC100 FM120300 20005KT P6SM SCT150=
202203102320 TAF KPWT 102320Z 1100/1124 VRB04KT P6SM OVC150 FM111200 18007KT
                       P6SM BKN080 OVC120=
202203101720 TAF KPWT 101720Z 1018/1118 VRB04KT P6SM SCT120 BKN200 FM111200
                       15005KT P6SM BKN080 OVC120=
202203101130 TAF KPWT 101130Z 1012/1112 VRB03KT P6SM BKN200 FM102100 17005KT
                       P6SM BKN150 FM110200 00000KT P6SM BKN120
                       FM110900 00000KT P6SM OVC080=
202203100520 TAF KPWT 100520Z 1006/1106 02008KT P6SM SKC FM100900 VRB03KT P6SM
                       SCT250 FM101200 VRB03KT P6SM BKN200 FM102100
                       08004KT P6SM BKN150 FM110100 00000KT P6SM
                       BKN120=
202203092332 TAF KPWT 092332Z 1000/1024 04012G20KT P6SM SKC FM100300 05009KT
                       P6SM SKC FM100800 VRB03KT P6SM SKC FM101500
                       VRB03KT P6SM BKN200=
202203091738 TAF KPWT 091738Z 0918/1018 04012G20KT P6SM SKC FM100200 05009KT
                       P6SM SKC FM100800 VRB03KT P6SM SKC FM101500
                       VRB03KT P6SM BKN200=
202203091120 TAF KPWT 091120Z 0912/1012 04004KT P6SM SCT001 BKN100
                      TEMPO 0912/0916 1SM BR FM091800 03010KT P6SM
                       SCT100 FM100000 03005KT P6SM SKC FM100700
                       VRB03KT P6SM BCFG SKC=
202203090622 KPWT 090622Z 0906/1006 00000KT 5SM BR SCT002
                      TEMPO 0906/0910 1/2SM FG VV001 FM091000 04004KT
                       2SM BR BKN001 FM091500 04008KT P6SM FEW001
                       SCT200 FM091800 03012G18KT P6SM SCT200 FM100000
                       03005KT P6SM SKC=
202203090520 TAF KPWT 090520Z 0906/1006 00000KT P6SM BKN080 FM090900 04007KT
                       P6SM SCT250 FM091800 03012G18KT P6SM SCT250
                       FM100000 03005KT P6SM SKC=
202203082338 TAF KPWT 082338Z 0900/0924 05004KT P6SM VCSH SCT025 BKN040 FM090300
                       VRB03KT P6SM BKN040 FM090900 04007KT P6SM
                       SCT250 FM091800 03012G18KT P6SM SCT250=
202203081738 TAF KPWT 081738Z 0818/0918 VRB04KT 5SM -RA BR BKN008 OVC022 FM082200
                       04004KT P6SM VCSH BKN010 OVC020 FM090300
                       03004KT P6SM BKN025 FM090900 04007KT P6SM
                       SCT250=
202203081134 TAF KPWT 081134Z 0812/0912 00000KT P6SM OVC008 FM081500 19006KT
                       6SM -RA BR OVC007 FM081900 VRB03KT 5SM -RA
                       SCT004 BKN008 OVC015 FM082200 04004KT P6SM
                       VCSH SCT008 BKN015 OVC025 FM090300 04005KT
                       P6SM BKN020 FM091000 04007KT P6SM SCT020
                       BKN040=
202203080520 TAF KPWT 080520Z 0806/0906 00000KT P6SM OVC015 FM080900 00000KT
                       4SM BR OVC009 FM081500 19006KT 2SM -RA BKN003
                       OVC006 FM081900 VRB03KT 5SM -RA SCT004 BKN008
                       OVC015 FM082200 01006KT P6SM SCT008 BKN015
                       OVC025=
202203080309 KPWT 080309Z 0803/0824 VRB03KT P6SM BKN250 FM080800 VRB03KT 1/2SM
                       FG OVC001 FM081100 19006KT 3SM BR SCT003
                       BKN006 OVC010 FM081500 19006KT 2SM -RA BKN003
                       OVC006 FM081900 VRB03KT 5SM -RA SCT004 BKN008
                       OVC015 FM082200 01006KT P6SM SCT008 BKN015
                       OVC025=
202203072325 TAF KPWT 072325Z 0800/0824 20004KT P6SM OVC012 FM080500 14004KT
                       P6SM BKN050 OVC080 FM081000 VRB03KT 4SM
                       BR VCSH BKN007 OVC015 FM081500 00000KT 1/2SM
                       FG VCSH OVC007 FM082200 03003KT 4SM -RA
                       BR OVC015=
202203072102 KPWT 072102Z 0721/0818 20006KT P6SM OVC003 FM080500 14004KT P6SM
                       BKN050 OVC080 FM081000 VRB03KT 4SM BR VCSH
                       BKN007 OVC015 FM081500 00000KT 1/2SM FG
                       VCSH OVC007=
202203071801 KPWT 071801Z 0718/0818 22005KT 4SM BR OVC003 FM072000 17008KT P6SM
                       BKN100 FM080500 14004KT P6SM BKN050 OVC080
                       FM081000 VRB03KT 4SM BR VCSH BKN007 OVC015
                       FM081500 00000KT 1/2SM FG VCSH OVC007=
202203071728 TAF KPWT 071728Z 0718/0818 21005KT 3/4SM BR OVC003 FM072000 17008KT
                       P6SM BKN100 FM080500 14004KT P6SM BKN050
                       OVC080 FM081000 VRB03KT 4SM BR VCSH BKN007
                       OVC015 FM081500 00000KT 1/2SM FG VCSH OVC007=
202203071605 KPWT 071605Z 0716/0812 23003KT 1/4SM FG OVC003 FM071800 00000KT
                       4SM BR OVC011 FM072000 17008KT P6SM BKN100
                       FM080500 14004KT P6SM BKN050 OVC080 FM081100
                       15005KT P6SM VCSH BKN007 OVC015=
202203071511 TAF AMD KPWT 071511Z 0715/0812 00000KT 1/4SM FG OVC003 FM071600
                       00000KT 2SM BR OVC006 FM071800 00000KT 6SM
                       BR OVC011 FM072000 17008KT P6SM BKN100 FM080500
                       14004KT P6SM BKN050 OVC080 FM081100 15005KT
                       P6SM VCSH BKN007 OVC015=
202203071131 TAF KPWT 071131Z 0712/0812 00000KT 1/2SM FG OVC001 FM071600 00000KT
                       2SM BR OVC006 FM071800 00000KT P6SM OVC011
                       FM072000 17008KT P6SM BKN100 FM080500 14004KT
                       P6SM BKN050 OVC080 FM081100 15005KT P6SM
                       VCSH BKN007 OVC015=
202203070520 TAF KPWT 070520Z 0706/0806 00000KT P6SM BKN250
                      TEMPO 0708/0711 4SM BR BKN250 FM071100 00000KT
                       1/2SM FG OVC001 FM071600 00000KT 4SM BR
                       OVC006 FM071800 00000KT P6SM OVC011 FM072000
                       19008KT P6SM BKN100 FM080500 19008KT P6SM
                       BKN040 OVC080=
202203062338 TAF KPWT 062338Z 0700/0724 03003KT P6SM SCT250 FM070500 VRB02KT
                       5SM BR SCT050 FM071000 25003KT 1SM BR BKN025
                       FM071200 00000KT 1/2SM FG BKN001 FM071900
                       09004KT 6SM BR OVC015 FM072000 12005KT P6SM
                       SCT050=
202203061737 TAF KPWT 061737Z 0618/0718 00000KT P6SM SCT020 FM062000 04004KT
                       P6SM SCT250 FM070500 VRB02KT 5SM BR SCT250
                       FM071000 25003KT 1SM BR BKN010 FM071200
                       00000KT 1/2SM FG BKN001=
202203061403 KPWT 061403Z 0614/0712 00000KT 5SM BR SKC
                      TEMPO 0614/0616 1/2SM FZFG OVC002 FM061900
                       04004KT P6SM SCT250 FM070500 VRB02KT 5SM
                       BR SCT250 FM071000 25003KT 3SM BR BKN015=
202203061156 TAF KPWT 061156Z 0612/0712 00000KT 3SM BR SKC
                      TEMPO 0612/0616 1/2SM FZFG OVC002 FM061900
                       04004KT P6SM SCT250 FM070500 VRB02KT 5SM
                       BR SCT250 FM071000 25003KT 3SM BR BKN015=
202203060959 KPWT 060959Z 0610/0706 VRB03KT P6SM SKC
                      TEMPO 0610/0612 1/2SM FZFG FM061200 VRB02KT
                       1/2SM FZFG OVC002 FM061900 04004KT P6SM
                       SCT250 FM070500 VRB02KT 5SM BR SCT250=
202203060520 TAF KPWT 060520Z 0606/0706 VRB03KT P6SM SKC FM061200 VRB02KT 1SM
                       BR OVC005 FM061900 04004KT P6SM SCT250 FM070500
                       VRB02KT 5SM BR SCT250=
202203052335 TAF KPWT 052335Z 0600/0624 07007KT P6SM SCT030 FM060200 04005KT
                       P6SM SKC FM061300 02001KT 5SM BR OVC007
                       FM061900 04004KT P6SM SCT015=
202203051739 TAF KPWT 051739Z 0518/0618 35007KT P6SM OVC020 FM052000 02007KT
                       P6SM SCT050 FM060200 04005KT P6SM SKC FM061300
                       02001KT 5SM BR OVC007=
202203051409 KPWT 051409Z 0514/0612 00000KT 5SM BR BKN025 OVC030
                      TEMPO 0514/0517 1/2SM FG OVC005 FM052000
                       02007KT P6SM SCT050 FM060200 02002KT P6SM
                       SKC=
202203051315 KPWT 051315Z 0513/0612 00000KT 5SM BR BKN025 FM051400 05002KT 1/2SM
                       FG OVC005 FM052000 02007KT P6SM SCT050 FM060200
                       02002KT P6SM SKC=
202203051145 TAF KPWT 051145Z 0512/0612 00000KT 5SM BR SKC FM051400 05002KT
                       1/2SM FG OVC005 FM052000 02007KT P6SM SCT050
                       FM060200 02002KT P6SM SKC=
202203050751 KPWT 050751Z 0508/0606 00000KT 3SM BR SCT070 FM050900 05004KT 2SM
                       BR SCT005 FM051400 05002KT 1/2SM FG OVC005
                       FM052000 02007KT P6SM SCT050 FM060200 02002KT
                       P6SM SKC=
202203050750 KPWT 050750Z 0508/0606 00000KT 2SM BR SCT070 FM050900 05004KT 3SM
                       BR SCT005 FM051400 05002KT 1/2SM FG OVC005
                       FM052000 02007KT P6SM SCT050 FM060200 02002KT
                       P6SM SKC=
202203050520 TAF KPWT 050520Z 0506/0606 VRB03KT P6SM SCT070 FM050900 05004KT
                       3SM BR SCT005 FM051400 05002KT 1/2SM FG
                       OVC005 FM052000 02007KT P6SM SCT050 FM060200
                       02002KT P6SM SKC=
202203050303 KPWT 050303Z 0503/0524 VRB03KT P6SM SCT035 FM050900 05004KT 3SM
                       BR SCT005 FM051400 05002KT 1/2SM FG OVC002
                       FM052000 04005KT P6SM BKN050=
202203042335 TAF KPWT 042335Z 0500/0524 04012KT P6SM SCT020 BKN035 FM050600
                       VRB03KT P6SM SCT050 FM050900 05004KT 3SM
                       BR BKN004 FM051400 05002KT 1/4SM FG OVC001
                       FM052000 04005KT P6SM BKN050=
202203041738 TAF KPWT 041738Z 0418/0518 04008KT P6SM BKN007 BKN025 FM042000
                       02006KT P6SM SCT008 BKN030 FM042200 02010KT
                       P6SM SCT020 BKN040 FM050600 VRB03KT P6SM
                       SCT050 FM050900 00000KT 3SM BR BKN004=
202203041340 KPWT 041340Z 0414/0512 04004KT P6SM VCSH SCT005 OVC025
                      TEMPO 0414/0416 4SM -RA BKN004 FM041800 VRB03KT
                       6SM BR BKN004 FM042000 02006KT P6SM SCT008
                       BKN014 FM042200 02010KT P6SM SCT020 BKN040
                       FM050600 VRB03KT P6SM SCT050 FM050900 00000KT
                       3SM BR BKN004=
202203041224 KPWT 041224Z 0412/0512 VRB03KT 6SM BR VCSH BKN003 OVC015
                      TEMPO 0412/0415 4SM -RA FM041800 VRB03KT
                       6SM BR BKN004 FM042000 02006KT P6SM SCT008
                       BKN014 FM042200 02010KT P6SM SCT020 BKN040
                       FM050600 VRB03KT P6SM SCT050 FM050900 00000KT
                       3SM BR BKN004=
202203041126 TAF KPWT 041126Z 0412/0512 VRB03KT 1/4SM FG VV001 FM041800 VRB03KT
                       3SM BR BKN004 FM042000 02006KT P6SM SCT008
                       BKN014 FM042200 02010KT P6SM SCT020 BKN040
                       FM050600 VRB03KT P6SM SCT050 FM050900 00000KT
                       3SM BR BKN004=
202203040817 KPWT 040817Z 0408/0506 VRB03KT 1/4SM FG VV001 FM041800 00000KT
                       5SM BR BKN008 FM042000 02006KT P6SM SCT008
                       BKN014 FM042200 02006KT P6SM SCT020 BKN040=
202203040521 TAF KPWT 040521Z 0406/0506 00000KT 4SM BR SKC
                      TEMPO 0406/0409 1SM BR SKC FM040900 00000KT
                       3SM BR OVC004 FM041800 00000KT 5SM BR BKN008
                       FM042000 02006KT P6SM SCT008 BKN014 FM042200
                       02006KT P6SM SCT020 BKN040=
202203040418 KPWT 040418Z 0404/0424 00000KT 4SM BR SKC
                      TEMPO 0404/0408 1SM BR SKC FM040800 00000KT
                       3SM BR OVC004 FM041800 00000KT 5SM BR BKN008
                       FM042000 02006KT P6SM SCT008 BKN014 FM042200
                       02006KT P6SM SCT020 BKN040=
202203032329 TAF KPWT 032329Z 0400/0424 12004KT P6SM VCSH FEW025 BKN035 FM040500
                       00000KT P6SM BKN025 FM040900 00000KT 5SM
                       BR OVC010 FM041400 03003KT 4SM BR OVC008
                       FM041800 02005KT P6SM OVC015 FM042200 02008KT
                       P6SM BKN050=
202203031737 TAF KPWT 031737Z 0318/0418 VRB03KT 6SM -RA OVC005 FM032000 20004KT
                       P6SM VCSH SCT006 OVC010 FM032200 18004KT
                       P6SM BKN022 FM040500 00000KT P6SM BKN025
                       FM040900 00000KT 5SM BR OVC010=
202203031134 TAF KPWT 031134Z 0312/0412 VRB03KT 3SM -RA OVC003 FM031900 20004KT
                       P6SM VCSH SCT006 OVC010 FM032200 18004KT
                       P6SM BKN022 FM040500 00000KT P6SM BKN025
                       FM040900 00000KT P6SM OVC010=
202203030707 KPWT 030707Z 0307/0406 19005KT P6SM VCSH OVC008 FM030800 18003KT
                       5SM BR OVC005 FM032200 20006KT 6SM BR OVC015=
202203030523 TAF KPWT 030523Z 0306/0406 16002KT P6SM BKN100 FM030800 18003KT
                       5SM BR OVC010 FM032200 20006KT 6SM BR OVC015=
202203022335 TAF KPWT 022335Z 0300/0324 19009KT P6SM -RA FEW010 BKN050 OVC060
                       FM030500 16002KT 6SM BR OVC020 FM030800
                       18003KT 5SM BR OVC010 FM032200 20006KT 6SM
                       BR OVC015=
202203021739 TAF KPWT 021739Z 0218/0318 19006KT 6SM -RA BR BKN003 OVC025 FM022300
                       20006KT P6SM VCSH OVC025 FM030500 18004KT
                       6SM BR OVC012 FM031200 17003KT 4SM BR OVC007=
202203021421 KPWT 021421Z 0214/0312 VRB03KT 6SM -RA SCT003 OVC040 FM021600 19006KT
                       5SM -RA BKN004 OVC025 FM022300 17006KT P6SM
                       VCSH OVC025 FM030500 18004KT P6SM OVC012=
202203021133 TAF KPWT 021133Z 0212/0312 VRB03KT 6SM -RA BKN030 OVC040 FM021600
                       19006KT 5SM -RA OVC025 FM022300 17006KT
                       P6SM VCSH OVC025 FM030500 18004KT P6SM OVC012=
202203020904 KPWT 020904Z 0209/0306 20003KT P6SM -RA BKN030 OVC050 FM021400
                       18006KT 3SM -RA BR SCT003 BKN006 OVC012
                       FM022000 18006KT 5SM -RA SCT006 BKN012 OVC020
                       FM022300 18006KT P6SM SCT012 BKN020 OVC030
                       FM030200 18006KT P6SM SCT020 BKN030 OVC045=
202203020543 TAF KPWT 020543Z 0206/0306 00000KT P6SM OVC200 FM021000 00000KT
                       1SM BR OVC002 FM021400 18006KT 3SM -RA BR
                       SCT003 BKN006 OVC012 FM022000 18006KT 5SM
                       -RA SCT006 BKN012 OVC020 FM022300 18006KT
                       P6SM SCT012 BKN020 OVC030 FM030200 18006KT
                       P6SM SCT020 BKN030 OVC045=
202203012320 TAF KPWT 012320Z 0200/0224 20010G17KT P6SM FEW035 BKN070 FM020600
                       19006KT P6SM OVC015 FM021700 20012KT P6SM
                       -SHRA OVC015 FM022100 20010KT P6SM -SHRA
                       BKN020=
202203011734 TAF KPWT 011734Z 0118/0218 20010KT P6SM OVC006 FM012000 20010G17KT
                       P6SM BKN020 FM020300 19006KT P6SM OVC015=
202203011124 TAF KPWT 011124Z 0112/0212 20010KT P6SM -RA BKN008 OVC013 FM011500
                       20012KT P6SM VCSH OVC015 FM012100 20012KT
                       P6SM OVC035 FM012300 19011G19KT P6SM SCT025
                       OVC035 FM020900 19004KT P6SM OVC015=
202203010520 TAF KPWT 010520Z 0106/0206 21012G18KT 5SM -RA BR OVC007 FM010800
                       20007KT 5SM -SHRA BR OVC007 FM011800 19011KT
                       P6SM OVC015 FM012300 19012KT P6SM SCT025
                       OVC035=
202203010214 KPWT 010214Z 0102/0124 21012G18KT 5SM -RA BR OVC007 FM010800 20007KT
                       5SM -SHRA BR OVC007 FM011800 19011KT P6SM
                       OVC015 FM012300 19012KT P6SM OVC025=