##########################################################
# Query made at 02/16/2025 01:23:00 UTC
# Time interval: from 11/01/2023 00:00  to 11/30/2023 23:59  UTC
##########################################################

##########################################################
# KPWT, Bremerton National Automatic Weather Observing / Reporting System (United States)
# WMO index: -----. WIGOS ID: Unknown
# Latitude 47-30N. Longitude 122-45W. Altitude 147 m.
##########################################################

###################################
#  METAR/SPECI from KPWT
###################################
202311302356 METAR KPWT 302356Z AUTO VRB03KT 4SM -RA BR SCT004 OVC012 04/04 A2979 RMK AO2 SLP095 P0002 60007 T00440044 10050 20039 56006=
202311302341 SPECI KPWT 302341Z AUTO 00000KT 4SM -RA BR SCT004 BKN010 OVC014 04/04 A2979 RMK AO2 CIG 008V012 P0001=
202311302318 SPECI KPWT 302318Z AUTO 00000KT 7SM -RA BKN004 BKN014 OVC020 04/04 A2979 RMK AO2 CIG 004V008 P0001=
202311302303 SPECI KPWT 302303Z AUTO 00000KT 8SM -RA FEW006 BKN013 OVC021 04/04 A2979 RMK AO2 P0000=
202311302256 METAR KPWT 302256Z AUTO 00000KT 7SM -RA FEW006 SCT013 OVC021 04/04 A2979 RMK AO2 SLP096 P0003 T00440044=
202311302236 SPECI KPWT 302236Z AUTO 20003KT 10SM -RA FEW006 BKN021 OVC031 04/04 A2979 RMK AO2 P0002=
202311302156 METAR KPWT 302156Z AUTO 25006KT 7SM -RA OVC030 04/04 A2980 RMK AO2 SLP097 P0002 T00440044=
202311302056 METAR KPWT 302056Z AUTO VRB04KT 10SM -RA CLR 04/04 A2981 RMK AO2 RAB07 SLP101 P0000 60000 T00440044 58018=
202311301956 METAR KPWT 301956Z AUTO 24003KT 10SM FEW030 04/03 A2983 RMK AO2 SLP108 T00440028=
202311301856 METAR KPWT 301856Z AUTO 23005KT 6SM BR SCT055 04/04 A2986 RMK AO2 SLP118 T00390039=
202311301756 METAR KPWT 301756Z AUTO 23003KT 7SM SCT060 04/04 A2986 RMK AO2 SLP120 60000 T00390039 10039 20000 56014=
202311301723 SPECI KPWT 301723Z AUTO 00000KT 4SM BR CLR 02/02 A2986 RMK AO2 FZRANO=
202311301656 METAR KPWT 301656Z AUTO 00000KT 2SM BR CLR 01/01 A2987 RMK AO2 SLP122 T00110011 FZRANO=
202311301629 SPECI KPWT 301629Z AUTO 00000KT 2SM BR CLR 01/01 A2987 RMK AO2 FZRANO=
202311301623 SPECI KPWT 301623Z AUTO 00000KT 1SM BR CLR 00/00 A2987 RMK AO2 FZRANO=
202311301611 SPECI KPWT 301611Z AUTO 00000KT 1/2SM FG FEW055 01/01 A2988 RMK AO2 FZRANO=
202311301607 SPECI KPWT 301607Z AUTO 00000KT 1SM BR FEW055 01/01 A2988 RMK AO2 FZRANO=
202311301556 METAR KPWT 301556Z AUTO 00000KT 2 1/2SM BR SCT055 SCT070 01/01 A2988 RMK AO2 SLP126 T00060006 FZRANO=
202311301529 SPECI KPWT 301529Z AUTO 00000KT 2SM BR BKN055 OVC070 01/01 A2989 RMK AO2 FZRANO=
202311301515 SPECI KPWT 301515Z AUTO 00000KT 3SM BR BKN060 01/01 A2989 RMK AO2 FZRANO=
202311301507 SPECI KPWT 301507Z AUTO 00000KT 2 1/2SM BR SCT060 01/01 A2990 RMK AO2 FZRANO=
202311301456 METAR KPWT 301456Z AUTO 00000KT 3SM BR SCT055 01/01 A2990 RMK AO2 SLP133 60000 T00060006 56016 FZRANO=
202311301438 SPECI KPWT 301438Z AUTO 22003KT 2 1/2SM BR FEW060 SCT080 01/01 A2991 RMK AO2 FZRANO=
202311301422 SPECI KPWT 301422Z AUTO 00000KT 1 3/4SM BR FEW080 SCT110 01/01 A2991 RMK AO2 FZRANO=
202311301356 METAR KPWT 301356Z AUTO 00000KT 3SM BR FEW055 SCT110 01/01 A2991 RMK AO2 UPE04RAB04E46 SLP137 P0000 T00110011 FZRANO=
202311301256 METAR KPWT 301256Z AUTO 00000KT 4SM UP BR FEW050 BKN060 00/00 A2993 RMK AO2 UPB56 SLP141 P0000 T00000000 FZRANO=
202311301156 METAR KPWT 301156Z AUTO 00000KT 4SM BR FEW110 00/00 A2995 RMK AO2 SLP150 7//// T00000000 10006 21006 57013 FZRANO=
202311301125 SPECI KPWT 301125Z AUTO 00000KT 6SM BR FEW065 OVC110 M01/M01 A2996 RMK AO2 FZRANO=
202311301117 SPECI KPWT 301117Z AUTO 00000KT 2 1/2SM BR FEW065 BKN110 M01/M01 A2996 RMK AO2 VIS 1 3/4V5 FZRANO=
202311301056 METAR KPWT 301056Z AUTO 00000KT 5SM BR OVC110 00/00 A2996 RMK AO2 SLP154 T00000000 FZRANO=
202311300956 METAR KPWT 300956Z AUTO 00000KT 5SM BR CLR 00/00 A2998 RMK AO2 SLP160 T00000000 FZRANO=
202311300856 METAR KPWT 300856Z AUTO 00000KT 5SM BR SCT100 00/00 A2999 RMK AO2 SLP163 T00000000 58016 FZRANO=
202311300756 METAR KPWT 300756Z AUTO 00000KT 5SM BR BKN100 01/01 A3001 RMK AO2 SLP170 T00060006 400391044 FZRANO=
202311300656 METAR KPWT 300656Z AUTO 00000KT 5SM BR FEW100 01/01 A3003 RMK AO2 SLP176 T00060006 FZRANO=
202311300556 METAR KPWT 300556Z AUTO 00000KT 6SM BR BKN110 01/01 A3004 RMK AO2 SLP180 T00060006 10022 20006 58008 FZRANO=
202311300456 METAR KPWT 300456Z AUTO 00000KT 3SM BR FEW012 01/01 A3005 RMK AO2 SLP184 T00060006 FZRANO=
202311300356 METAR KPWT 300356Z AUTO 00000KT 7SM CLR 01/01 A3005 RMK AO2 SLP186 T00060006 FZRANO=
202311300256 METAR KPWT 300256Z AUTO 00000KT 4SM BR SCT090 01/01 A3006 RMK AO2 SLP189 T00110011 58008 FZRANO=
202311300156 METAR KPWT 300156Z AUTO 00000KT 5SM BR FEW095 01/01 A3007 RMK AO2 SLP192 T00110011 FZRANO=
202311300056 METAR KPWT 300056Z AUTO 00000KT 6SM BR CLR 02/02 A3008 RMK AO2 SLP196 T00170017 FZRANO=
202311292356 METAR KPWT 292356Z AUTO 00000KT 6SM BR CLR 02/02 A3009 RMK AO2 SLP198 6//// T00220022 10039 21006 55008 FZRANO=
202311292256 METAR KPWT 292256Z AUTO 00000KT 10SM SCT090 03/03 A3009 RMK AO2 SLP197 T00280028=
202311292207 SPECI KPWT 292207Z AUTO 28003KT 10SM FEW006 BKN090 03/03 A3010 RMK AO2=
202311292156 METAR KPWT 292156Z AUTO 27003KT 10SM BKN090 03/03 A3010 RMK AO2 SLP202 T00330033=
202311292056 METAR KPWT 292056Z AUTO 00000KT 9SM BKN090 03/03 A3011 RMK AO2 SLP206 6//// T00280028 58012=
202311291956 METAR KPWT 291956Z AUTO 00000KT 6SM BR OVC085 02/02 A3013 RMK AO2 SLP214 T00220022 FZRANO=
202311291856 METAR KPWT 291856Z AUTO 00000KT 8SM BKN090 03/03 A3014 RMK AO2 SLP217 T00330033=
202311291833 SPECI KPWT 291833Z AUTO 00000KT 7SM FEW001 BKN090 03/03 A3015 RMK AO2=
202311291817 SPECI KPWT 291817Z AUTO 00000KT 2 1/2SM BR FEW001 BKN090 01/01 A3015 RMK AO2 VIS 1 1/2V5 FZRANO=
202311291756 METAR KPWT 291756Z AUTO 00000KT 3SM BR FEW015 M01/M01 A3015 RMK AO2 SLP218 T10061006 11006 21044 53002 FZRANO=
202311291748 SPECI KPWT 291748Z AUTO 00000KT 3SM BR CLR M01/M01 A3015 RMK AO2 FZRANO=
202311291745 SPECI KPWT 291745Z AUTO 00000KT 1 1/2SM BR CLR M01/M01 A3015 RMK AO2 FZRANO=
202311291743 SPECI KPWT 291743Z AUTO 00000KT 1SM BR VV015 M01/M01 A3015 RMK AO2 FZRANO=
202311291734 SPECI KPWT 291734Z AUTO 00000KT 3/4SM BR FEW001 M01/M01 A3015 RMK AO2 FZRANO=
202311291718 SPECI KPWT 291718Z AUTO 00000KT 1 1/2SM BR SCT001 M01/M01 A3014 RMK AO2 FZRANO=
202311291714 SPECI KPWT 291714Z AUTO 00000KT 1SM BR BKN001 M01/M01 A3015 RMK AO2 FZRANO=
202311291709 SPECI KPWT 291709Z AUTO 00000KT 1/2SM FZFG BKN001 M01/M01 A3014 RMK AO2 FZRANO=
202311291700 SPECI KPWT 291700Z AUTO 00000KT 3/4SM BR OVC001 M02/M02 A3014 RMK AO2 FZRANO=
202311291656 METAR KPWT 291656Z AUTO 00000KT 1 1/4SM BR OVC001 M02/M02 A3015 RMK AO2 SLP217 T10171017 FZRANO=
202311291646 SPECI KPWT 291646Z AUTO 00000KT 1 1/4SM BR OVC001 M02/M02 A3015 RMK AO2 VIS 1/2V2 1/2 FZRANO=
202311291641 SPECI KPWT 291641Z AUTO 00000KT 3/4SM BR OVC001 M02/M02 A3015 RMK AO2 FZRANO=
202311291631 SPECI KPWT 291631Z AUTO 00000KT 1/4SM FZFG OVC001 M03/M03 A3014 RMK AO2 FZRANO=
202311291608 SPECI KPWT 291608Z AUTO 00000KT 1/2SM FZFG BKN001 M02/M02 A3014 RMK AO2 FZRANO=
202311291556 METAR KPWT 291556Z AUTO 00000KT 1/4SM FZFG VV001 M02/M02 A3014 RMK AO2 SLP214 T10221022 FZRANO=
202311291456 METAR KPWT 291456Z AUTO 00000KT 1/4SM FZFG OVC001 M02/M02 A3014 RMK AO2 SLP215 T10171017 51001 FZRANO=
202311291356 METAR KPWT 291356Z AUTO 00000KT 1/4SM FZFG OVC001 M03/M03 A3014 RMK AO2 SLP215 T10281028 FZRANO=
202311291333 SPECI KPWT 291333Z AUTO 00000KT 1/4SM FZFG OVC001 M03/M03 A3014 RMK AO2 FZRANO=
202311291328 SPECI KPWT 291328Z AUTO 00000KT 3/4SM BR OVC003 M03/M03 A3014 RMK AO2 FZRANO=
202311291326 SPECI KPWT 291326Z AUTO 00000KT 1 1/2SM BR OVC003 M04/M04 A3014 RMK AO2 FZRANO=
202311291314 SPECI KPWT 291314Z AUTO 00000KT 3SM BR BKN003 M04/M04 A3014 RMK AO2 FZRANO=
202311291310 SPECI KPWT 291310Z AUTO 00000KT 1 1/2SM BR BKN003 M04/M04 A3014 RMK AO2 VIS 1/2V5 CIG 001V005 FZRANO=
202311291307 SPECI KPWT 291307Z AUTO 00000KT 3/4SM BR BKN003 M04/M04 A3014 RMK AO2 VIS 1/4V5 FZRANO=
202311291302 SPECI KPWT 291302Z AUTO 00000KT 1/2SM FZFG SCT003 M04/M04 A3014 RMK AO2 FZRANO=
202311291256 METAR KPWT 291256Z AUTO 00000KT 3/4SM BR VV003 M04/M04 A3014 RMK AO2 SLP216 T10441044 FZRANO=
202311291253 SPECI KPWT 291253Z AUTO 00000KT 3/4SM BR VV004 M04/M04 A3014 RMK AO2 FZRANO=
202311291234 SPECI KPWT 291234Z AUTO 00000KT 1/2SM FZFG CLR M04/M04 A3014 RMK AO2 FZRANO=
202311291231 SPECI KPWT 291231Z AUTO 00000KT 1SM BR CLR M04/M04 A3014 RMK AO2 FZRANO=
202311291203 SPECI KPWT 291203Z AUTO 00000KT 7SM SCT014 M04/M04 A3014 RMK AO2 FZRANO=
202311291156 METAR KPWT 291156Z AUTO 00000KT 7SM BKN014 M03/M03 A3014 RMK AO2 SLP215 T10331033 11028 21044 57005 FZRANO=
202311291126 SPECI KPWT 291126Z AUTO 00000KT 3SM BR BKN012 M03/M03 A3014 RMK AO2 FZRANO=
202311291116 SPECI KPWT 291116Z AUTO 00000KT 1 3/4SM BR BKN012 M04/M04 A3015 RMK AO2 VIS 3/4V5 FZRANO=
202311291109 SPECI KPWT 291109Z AUTO 00000KT 9SM BKN012 M04/M04 A3015 RMK AO2 FZRANO=
202311291103 SPECI KPWT 291103Z AUTO 00000KT 2SM BR SCT012 M04/M04 A3014 RMK AO2 FZRANO=
202311291101 SPECI KPWT 291101Z AUTO 00000KT 3/4SM BR VV012 M04/M04 A3014 RMK AO2 FZRANO=
202311291056 METAR KPWT 291056Z AUTO 00000KT 1/4SM FZFG VV012 M04/M04 A3014 RMK AO2 SLP217 T10441044 FZRANO=
202311291046 SPECI KPWT 291046Z AUTO 00000KT 1/2SM FZFG VV012 M04/M04 A3015 RMK AO2 FZRANO=
202311291037 SPECI KPWT 291037Z AUTO 00000KT 3/4SM BR VV011 M04/M04 A3015 RMK AO2 FZRANO=
202311291033 SPECI KPWT 291033Z AUTO 00000KT 1 1/2SM BR FEW011 M04/M04 A3015 RMK AO2 FZRANO=
202311290956 METAR KPWT 290956Z AUTO 00000KT 8SM FEW011 M04/M04 A3015 RMK AO2 SLP217 T10391039 FZRANO=
202311290939 SPECI KPWT 290939Z AUTO 00000KT 9SM SCT009 M04/M04 A3015 RMK AO2 FZRANO=
202311290910 SPECI KPWT 290910Z AUTO 00000KT 10SM BKN009 M04/M04 A3015 RMK AO2 FZRANO=
202311290856 METAR KPWT 290856Z AUTO 00000KT 10SM FEW009 M04/M04 A3015 RMK AO2 SLP220 T10441044 50002 FZRANO=
202311290756 METAR KPWT 290756Z AUTO 00000KT 10SM CLR M04/M04 A3016 RMK AO2 SLP222 T10441044 400501056 FZRANO=
202311290656 METAR KPWT 290656Z AUTO 00000KT 10SM CLR M04/M04 A3015 RMK AO2 SLP221 T10391039 FZRANO=
202311290644 SPECI KPWT 290644Z AUTO 00000KT 10SM CLR M03/M03 A3015 RMK AO2 FZRANO=
202311290635 SPECI KPWT 290635Z AUTO 00000KT 2 1/2SM BR CLR M03/M03 A3015 RMK AO2 VIS 3/4V5 FZRANO=
202311290614 SPECI KPWT 290614Z AUTO 00000KT 1SM BR CLR M03/M03 A3015 RMK AO2 FZRANO=
202311290603 SPECI KPWT 290603Z AUTO 00000KT 9SM CLR M03/M03 A3015 RMK AO2 FZRANO=
202311290556 METAR KPWT 290556Z AUTO 00000KT 2SM BR CLR M03/M03 A3015 RMK AO2 VIS 1V5 SLP219 T10331033 10033 21033 53000 FZRANO=
202311290552 SPECI KPWT 290552Z AUTO 00000KT 1SM BR CLR M03/M03 A3015 RMK AO2 FZRANO=
202311290543 SPECI KPWT 290543Z AUTO 00000KT 1/2SM FZFG CLR M03/M03 A3015 RMK AO2 FZRANO=
202311290540 SPECI KPWT 290540Z AUTO 00000KT 1SM BR CLR M03/M03 A3015 RMK AO2 VIS 1/2V5 FZRANO=
202311290534 SPECI KPWT 290534Z AUTO 00000KT 2 1/2SM BR CLR M03/M03 A3015 RMK AO2 VIS 1 1/2V5 FZRANO=
202311290524 SPECI KPWT 290524Z AUTO 00000KT 1 1/2SM BR CLR M03/M03 A3014 RMK AO2 FZRANO=
202311290512 SPECI KPWT 290512Z AUTO 00000KT 2SM BR CLR M02/M02 A3014 RMK AO2 VIS 3/4V5 FZRANO=
202311290456 METAR KPWT 290456Z AUTO 00000KT 3SM BR CLR M02/M02 A3014 RMK AO2 SLP215 T10221022 FZRANO=
202311290443 SPECI KPWT 290443Z AUTO 00000KT 4SM BR CLR M02/M02 A3014 RMK AO2 FZRANO=
202311290412 SPECI KPWT 290412Z AUTO 00000KT 1 3/4SM BR CLR M02/M02 A3014 RMK AO2 VIS 3/4V5 FZRANO=
202311290356 METAR KPWT 290356Z AUTO 00000KT 10SM CLR M02/M02 A3014 RMK AO2 SLP216 T10171017 FZRANO=
202311290256 METAR KPWT 290256Z AUTO 00000KT 10SM CLR M02/M02 A3015 RMK AO2 SLP218 T10221022 58004 FZRANO=
202311290156 METAR KPWT 290156Z AUTO 00000KT 10SM CLR M01/M01 A3015 RMK AO2 SLP220 T10111011 FZRANO=
202311290056 METAR KPWT 290056Z AUTO 00000KT 10SM CLR 00/00 A3016 RMK AO2 SLP221 T00000000 FZRANO=
202311282356 METAR KPWT 282356Z AUTO 00000KT 10SM CLR 03/02 A3016 RMK AO2 SLP221 T00330022 10050 20006 56008=
202311282256 METAR KPWT 282256Z AUTO 00000KT 10SM CLR 04/03 A3016 RMK AO2 SLP222 T00390028=
202311282156 METAR KPWT 282156Z AUTO 00000KT 10SM CLR 03/03 A3017 RMK AO2 SLP225 T00330028=
202311282056 METAR KPWT 282056Z AUTO VRB03KT 10SM FEW001 04/04 A3018 RMK AO2 SLP230 T00390039 58011=
202311282041 SPECI KPWT 282041Z AUTO 21003KT 9SM SCT001 03/03 A3019 RMK AO2=
202311282023 SPECI KPWT 282023Z AUTO 00000KT 3SM BR BKN001 03/03 A3019 RMK AO2=
202311282009 SPECI KPWT 282009Z AUTO 00000KT 1 1/2SM BR BKN001 02/02 A3020 RMK AO2 FZRANO=
202311281956 METAR KPWT 281956Z AUTO 00000KT 6SM BR BKN001 02/02 A3020 RMK AO2 SLP236 T00220022 FZRANO=
202311281935 SPECI KPWT 281935Z AUTO 00000KT 3SM BR OVC001 02/02 A3021 RMK AO2 FZRANO=
202311281928 SPECI KPWT 281928Z AUTO 00000KT 1 1/4SM BR OVC001 02/02 A3021 RMK AO2 VIS 1/2V2 FZRANO=
202311281915 SPECI KPWT 281915Z AUTO 00000KT 2SM BR OVC001 02/02 A3021 RMK AO2 FZRANO=
202311281910 SPECI KPWT 281910Z AUTO 00000KT 1SM BR OVC001 02/02 A3021 RMK AO2 FZRANO=
202311281904 SPECI KPWT 281904Z AUTO 00000KT 1/2SM FG OVC001 01/01 A3021 RMK AO2 FZRANO=
202311281856 METAR KPWT 281856Z AUTO 00000KT 3/4SM BR OVC001 01/01 A3021 RMK AO2 SLP241 T00110011 FZRANO=
202311281846 SPECI KPWT 281846Z AUTO 00000KT 3/4SM BR OVC001 01/01 A3022 RMK AO2 FZRANO=
202311281756 METAR KPWT 281756Z AUTO 00000KT 1/4SM FG BKN001 01/01 A3022 RMK AO2 SLP241 T00060006 10006 21056 53001 FZRANO=
202311281656 METAR KPWT 281656Z AUTO 00000KT M1/4SM FZFG OVC001 M02/M02 A3021 RMK AO2 SLP239 T10221022 FZRANO=
202311281606 SPECI KPWT 281606Z AUTO 00000KT 1/4SM FZFG BKN001 M04/M04 A3021 RMK AO2 FZRANO=
202311281556 METAR KPWT 281556Z AUTO 00000KT M1/4SM FZFG VV002 M04/M04 A3021 RMK AO2 SLP241 T10441044 FZRANO=
202311281551 SPECI KPWT 281551Z AUTO 00000KT M1/4SM FZFG VV002 M04/M04 A3021 RMK AO2 FZRANO=
202311281517 SPECI KPWT 281517Z AUTO 00000KT 1/4SM FZFG BKN001 M06/M06 A3021 RMK AO2 FZRANO=
202311281510 SPECI KPWT 281510Z AUTO 00000KT 1 1/4SM BR BKN001 M05/M05 A3021 RMK AO2 FZRANO=
202311281456 METAR KPWT 281456Z AUTO 00000KT 3/4SM BR VV001 M05/M05 A3020 RMK AO2 SLP238 T10501050 53001 FZRANO=
202311281423 SPECI KPWT 281423Z AUTO 00000KT 1/2SM FZFG BKN001 M06/M06 A3020 RMK AO2 FZRANO=
202311281414 SPECI KPWT 281414Z AUTO 00000KT 3/4SM BR BKN001 M06/M06 A3020 RMK AO2 FZRANO=
202311281356 METAR KPWT 281356Z AUTO 00000KT 1/2SM FZFG VV001 M05/M05 A3020 RMK AO2 SLP235 T10501050 FZRANO=
202311281325 SPECI KPWT 281325Z AUTO 00000KT 1/4SM FZFG OVC001 M05/M05 A3020 RMK AO2 FZRANO=
202311281320 SPECI KPWT 281320Z AUTO 00000KT 3/4SM BR OVC001 M05/M05 A3020 RMK AO2 FZRANO=
202311281317 SPECI KPWT 281317Z AUTO 00000KT 1 3/4SM BR OVC001 M05/M05 A3020 RMK AO2 FZRANO=
202311281305 SPECI KPWT 281305Z AUTO 00000KT 5SM BR BKN001 M05/M05 A3020 RMK AO2 FZRANO=
202311281256 METAR KPWT 281256Z AUTO 00000KT 5SM BR SCT001 M05/M05 A3020 RMK AO2 SLP237 T10501050 FZRANO=
202311281253 SPECI KPWT 281253Z AUTO 00000KT 1 1/2SM BR SCT001 M05/M05 A3020 RMK AO2 VIS 1/4V5 FZRANO=
202311281250 SPECI KPWT 281250Z AUTO 00000KT 3/4SM BR VV001 M05/M05 A3020 RMK AO2 FZRANO=
202311281241 SPECI KPWT 281241Z AUTO 00000KT 1/2SM FZFG CLR M05/M05 A3020 RMK AO2 FZRANO=
202311281231 SPECI KPWT 281231Z AUTO 00000KT 1/2SM FZFG VV001 M05/M05 A3020 RMK AO2 FZRANO=
202311281223 SPECI KPWT 281223Z AUTO 00000KT 1/2SM FZFG CLR M04/M04 A3020 RMK AO2 FZRANO=
202311281209 SPECI KPWT 281209Z AUTO 00000KT 3/4SM BR VV001 M04/M04 A3020 RMK AO2 FZRANO=
202311281156 METAR KPWT 281156Z AUTO 00000KT 1/4SM FZFG BKN001 M04/M04 A3020 RMK AO2 SLP235 T10391039 11033 21056 55003 FZRANO=
202311281152 SPECI KPWT 281152Z AUTO 00000KT 1/4SM FZFG OVC001 M04/M04 A3020 RMK AO2 FZRANO=
202311281144 SPECI KPWT 281144Z AUTO 00000KT 1/2SM FZFG OVC001 M04/M04 A3020 RMK AO2 FZRANO=
202311281136 SPECI KPWT 281136Z AUTO 00000KT 3/4SM BR OVC001 M04/M04 A3020 RMK AO2 FZRANO=
202311281133 SPECI KPWT 281133Z AUTO 00000KT 1 3/4SM BR OVC001 M04/M04 A3020 RMK AO2 FZRANO=
202311281103 SPECI KPWT 281103Z AUTO 00000KT 10SM BKN001 M04/M04 A3021 RMK AO2 FZRANO=
202311281056 METAR KPWT 281056Z AUTO 00000KT 10SM SCT001 M06/M06 A3021 RMK AO2 SLP238 T10561056 FZRANO=
202311281052 SPECI KPWT 281052Z AUTO 00000KT 10SM SCT001 M06/M06 A3021 RMK AO2 FZRANO=
202311280956 METAR KPWT 280956Z AUTO 00000KT 10SM CLR M04/M04 A3021 RMK AO2 SLP236 T10391039 FZRANO=
202311280944 SPECI KPWT 280944Z AUTO 00000KT 3SM BR CLR M03/M03 A3020 RMK AO2 FZRANO=
202311280941 SPECI KPWT 280941Z AUTO 00000KT 1 1/4SM BR CLR M04/M04 A3020 RMK AO2 FZRANO=
202311280933 SPECI KPWT 280933Z AUTO 00000KT 3/4SM BR CLR M04/M04 A3021 RMK AO2 FZRANO=
202311280928 SPECI KPWT 280928Z AUTO 00000KT 1 3/4SM BR FEW001 M04/M04 A3021 RMK AO2 VIS 3/4V5 FZRANO=
202311280924 SPECI KPWT 280924Z AUTO 00000KT 3SM BR FEW001 M04/M04 A3021 RMK AO2 FZRANO=
202311280917 SPECI KPWT 280917Z AUTO 00000KT 1 3/4SM BR FEW001 M04/M04 A3021 RMK AO2 VIS 1 1/4V4 FZRANO=
202311280910 SPECI KPWT 280910Z AUTO 00000KT 1SM BR CLR M04/M04 A3021 RMK AO2 VIS 1/2V3 FZRANO=
202311280903 SPECI KPWT 280903Z AUTO 00000KT 2 1/2SM BR FEW001 M04/M04 A3021 RMK AO2 FZRANO=
202311280856 METAR KPWT 280856Z AUTO 00000KT 10SM CLR M04/M04 A3021 RMK AO2 SLP237 T10391039 56001 FZRANO=
202311280843 SPECI KPWT 280843Z AUTO 00000KT 2 1/2SM BR CLR M03/M03 A3021 RMK AO2 FZRANO=
202311280840 SPECI KPWT 280840Z AUTO 00000KT 1SM BR CLR M03/M03 A3020 RMK AO2 FZRANO=
202311280825 SPECI KPWT 280825Z AUTO 00000KT 1/2SM FZFG CLR M04/M04 A3021 RMK AO2 FZRANO=
202311280822 SPECI KPWT 280822Z AUTO 00000KT 1SM BR CLR M04/M04 A3021 RMK AO2 VIS 1/4V5 FZRANO=
202311280817 SPECI KPWT 280817Z AUTO 00000KT 2 1/2SM BR CLR M04/M04 A3021 RMK AO2 VIS 1/2V5 FZRANO=
202311280756 METAR KPWT 280756Z AUTO 00000KT 10SM CLR M04/M04 A3021 RMK AO2 SLP238 T10391039 400831044 FZRANO=
202311280656 METAR KPWT 280656Z AUTO 00000KT 9SM CLR M04/M04 A3021 RMK AO2 SLP238 T10391039 FZRANO=
202311280632 SPECI KPWT 280632Z AUTO 00000KT 3SM BR CLR M03/M03 A3021 RMK AO2 FZRANO=
202311280630 SPECI KPWT 280630Z AUTO 00000KT 1 1/2SM BR CLR M03/M03 A3021 RMK AO2 VIS 1/2V5 FZRANO=
202311280623 SPECI KPWT 280623Z AUTO 00000KT 3/4SM BR CLR M03/M03 A3021 RMK AO2 FZRANO=
202311280620 SPECI KPWT 280620Z AUTO 00000KT 1 1/4SM BR CLR M04/M04 A3021 RMK AO2 VIS 1/2V5 FZRANO=
202311280556 METAR KPWT 280556Z AUTO 00000KT 10SM CLR M04/M04 A3021 RMK AO2 SLP240 T10391039 10061 21039 51003 FZRANO=
202311280535 SPECI KPWT 280535Z AUTO 00000KT 3SM BR CLR M04/M04 A3021 RMK AO2 FZRANO=
202311280528 SPECI KPWT 280528Z AUTO 00000KT 2SM BR CLR M04/M04 A3021 RMK AO2 VIS 1/2V5 FZRANO=
202311280525 SPECI KPWT 280525Z AUTO 00000KT 1SM BR CLR M04/M04 A3021 RMK AO2 VIS 1/2V5 FZRANO=
202311280519 SPECI KPWT 280519Z AUTO 00000KT 1/2SM FZFG CLR M03/M03 A3021 RMK AO2 FZRANO=
202311280510 SPECI KPWT 280510Z AUTO 00000KT 1/4SM FZFG CLR M03/M03 A3021 RMK AO2 FZRANO=
202311280456 METAR KPWT 280456Z AUTO 00000KT 1/2SM FZFG CLR M03/M03 A3021 RMK AO2 SLP238 T10331033 FZRANO=
202311280452 SPECI KPWT 280452Z AUTO 00000KT 1/2SM FZFG CLR M03/M03 A3020 RMK AO2 FZRANO=
202311280439 SPECI KPWT 280439Z AUTO 00000KT 3/4SM BR CLR M03/M03 A3020 RMK AO2 VIS 1/2V2 1/2 FZRANO=
202311280422 SPECI KPWT 280422Z AUTO 00000KT 1 1/2SM BR CLR M03/M03 A3020 RMK AO2 VIS 1/2V5 FZRANO=
202311280416 SPECI KPWT 280416Z AUTO 00000KT 8SM CLR M03/M03 A3020 RMK AO2 FZRANO=
202311280409 SPECI KPWT 280409Z AUTO 00000KT 2 1/2SM BR CLR M03/M03 A3020 RMK AO2 FZRANO=
202311280405 SPECI KPWT 280405Z AUTO 00000KT 1SM BR CLR M03/M03 A3020 RMK AO2 FZRANO=
202311280356 METAR KPWT 280356Z AUTO 00000KT 1/2SM FZFG CLR M03/M03 A3020 RMK AO2 SLP236 T10281028 FZRANO=
202311280353 SPECI KPWT 280353Z AUTO 00000KT 3/4SM BR CLR M03/M03 A3020 RMK AO2 FZRANO=
202311280349 SPECI KPWT 280349Z AUTO 00000KT 1 3/4SM BR CLR M03/M03 A3020 RMK AO2 FZRANO=
202311280256 METAR KPWT 280256Z AUTO 00000KT 7SM CLR M02/M02 A3020 RMK AO2 SLP236 T10171017 50002 FZRANO=
202311280251 SPECI KPWT 280251Z AUTO 00000KT 9SM CLR M02/M02 A3020 RMK AO2 FZRANO=
202311280241 SPECI KPWT 280241Z AUTO 00000KT 1 1/4SM BR CLR M02/M02 A3020 RMK AO2 FZRANO=
202311280156 METAR KPWT 280156Z AUTO 00000KT 10SM CLR M01/M01 A3020 RMK AO2 SLP237 T10111011 FZRANO=
202311280140 SPECI KPWT 280140Z AUTO 00000KT 4SM BR CLR M01/M01 A3020 RMK AO2 FZRANO=
202311280137 SPECI KPWT 280137Z AUTO 00000KT 1 1/4SM BR CLR M01/M02 A3020 RMK AO2 FZRANO=
202311280135 SPECI KPWT 280135Z AUTO 00000KT 3/4SM BR CLR M01/M02 A3020 RMK AO2 FZRANO=
202311280129 SPECI KPWT 280129Z AUTO 00000KT 1/4SM FZFG CLR M01/M01 A3020 RMK AO2 FZRANO=
202311280120 SPECI KPWT 280120Z AUTO 22003KT 1/2SM FZFG CLR M01/M01 A3020 RMK AO2 FZRANO=
202311280118 SPECI KPWT 280118Z AUTO 22003KT 1 1/4SM BR CLR M01/M01 A3020 RMK AO2 FZRANO=
202311280056 METAR KPWT 280056Z AUTO 00000KT 10SM CLR 01/00 A3019 RMK AO2 SLP235 T00060000 FZRANO=
202311272356 METAR KPWT 272356Z AUTO 00000KT 10SM CLR 06/04 A3019 RMK AO2 SLP231 T00610039 10083 20011 55006=
202311272256 METAR KPWT 272256Z AUTO 33003KT 10SM CLR 08/04 A3019 RMK AO2 SLP229 T00780044=
202311272156 METAR KPWT 272156Z AUTO 00000KT 10SM CLR 07/04 A3020 RMK AO2 SLP234 T00720039=
202311272056 METAR KPWT 272056Z AUTO 00000KT 10SM CLR 06/04 A3021 RMK AO2 SLP237 T00610039 58009=
202311271956 METAR KPWT 271956Z AUTO 00000KT 10SM CLR 03/03 A3022 RMK AO2 SLP243 T00330028=
202311271942 SPECI KPWT 271942Z AUTO 17003KT 10SM FEW002 03/03 A3022 RMK AO2=
202311271908 SPECI KPWT 271908Z AUTO 00000KT 3SM BR OVC002 03/03 A3023 RMK AO2=
202311271901 SPECI KPWT 271901Z AUTO 00000KT 1 1/4SM BR OVC002 03/03 A3023 RMK AO2=
202311271856 METAR KPWT 271856Z AUTO 00000KT 3/4SM BR OVC002 03/03 A3023 RMK AO2 SLP247 T00280028=
202311271843 SPECI KPWT 271843Z AUTO 00000KT 1/2SM FG OVC002 02/02 A3023 RMK AO2 FZRANO=
202311271756 METAR KPWT 271756Z AUTO 00000KT 1/4SM FG OVC002 01/01 A3024 RMK AO2 SLP248 T00110011 10011 21044 53012 FZRANO=
202311271656 METAR KPWT 271656Z AUTO 00000KT M1/4SM FG OVC002 00/00 A3022 RMK AO2 SLP243 T00000000 FZRANO=
202311271639 SPECI KPWT 271639Z AUTO 00000KT 1/4SM FZFG BKN002 M01/M01 A3022 RMK AO2 FZRANO=
202311271637 SPECI KPWT 271637Z AUTO 00000KT 1/2SM FZFG VV001 M01/M01 A3022 RMK AO2 FZRANO=
202311271634 SPECI KPWT 271634Z AUTO 00000KT 1SM BR VV001 M01/M01 A3022 RMK AO2 FZRANO=
202311271632 SPECI KPWT 271632Z AUTO 00000KT 2SM BR FEW001 M01/M01 A3022 RMK AO2 FZRANO=
202311271556 METAR KPWT 271556Z AUTO 00000KT 10SM CLR M04/M04 A3021 RMK AO2 SLP239 T10391039 FZRANO=
202311271542 SPECI KPWT 271542Z AUTO 00000KT 8SM CLR M04/M04 A3021 RMK AO2 FZRANO=
202311271535 SPECI KPWT 271535Z AUTO 00000KT 2 1/2SM BR CLR M04/M04 A3020 RMK AO2 FZRANO=
202311271533 SPECI KPWT 271533Z AUTO 00000KT 3/4SM BR CLR M04/M04 A3020 RMK AO2 FZRANO=
202311271521 SPECI KPWT 271521Z AUTO 00000KT 1/4SM FZFG CLR M04/M04 A3020 RMK AO2 FZRANO=
202311271518 SPECI KPWT 271518Z AUTO 00000KT 1SM BR CLR M04/M04 A3020 RMK AO2 FZRANO=
202311271456 METAR KPWT 271456Z AUTO 00000KT 6SM BR CLR M04/M04 A3020 RMK AO2 SLP236 T10441044 53002 FZRANO=
202311271454 SPECI KPWT 271454Z AUTO 00000KT 3SM BR CLR M04/M04 A3020 RMK AO2 FZRANO=
202311271442 SPECI KPWT 271442Z AUTO 00000KT 1 1/2SM BR CLR M04/M04 A3020 RMK AO2 FZRANO=
202311271436 SPECI KPWT 271436Z AUTO 00000KT 3SM BR CLR M04/M04 A3020 RMK AO2 FZRANO=
202311271426 SPECI KPWT 271426Z AUTO 00000KT 1 3/4SM BR CLR M04/M04 A3020 RMK AO2 VIS 1/2V5 FZRANO=
202311271356 METAR KPWT 271356Z AUTO 00000KT 10SM CLR M04/M04 A3020 RMK AO2 SLP235 T10391039 FZRANO=
202311271256 METAR KPWT 271256Z AUTO 00000KT 10SM CLR M03/M03 A3019 RMK AO2 SLP234 T10331033 FZRANO=
202311271253 SPECI KPWT 271253Z AUTO 00000KT 10SM CLR M03/M03 A3020 RMK AO2 FZRANO=
202311271246 SPECI KPWT 271246Z AUTO 00000KT 2SM BR CLR M03/M03 A3020 RMK AO2 VIS 3/4V5 FZRANO=
202311271244 SPECI KPWT 271244Z AUTO 00000KT 1SM BR CLR M03/M03 A3020 RMK AO2 VIS 1/4V5 FZRANO=
202311271215 SPECI KPWT 271215Z AUTO 00000KT 1/2SM FZFG CLR M03/M03 A3020 RMK AO2 FZRANO=
202311271156 METAR KPWT 271156Z AUTO 00000KT 1/4SM FZFG CLR M03/M03 A3020 RMK AO2 SLP234 T10281028 11017 21033 50000 FZRANO=
202311271056 METAR KPWT 271056Z AUTO 00000KT 1/4SM FZFG CLR M03/M03 A3021 RMK AO2 SLP236 T10281028 FZRANO=
202311271011 SPECI KPWT 271011Z AUTO 00000KT 1/4SM FZFG CLR M03/M03 A3020 RMK AO2 FZRANO=
202311270956 METAR KPWT 270956Z AUTO 00000KT 1/2SM FZFG CLR M03/M03 A3020 RMK AO2 SLP234 T10331033 FZRANO=
202311270943 SPECI KPWT 270943Z AUTO 00000KT 1/2SM FZFG CLR M03/M03 A3020 RMK AO2 FZRANO=
202311270924 SPECI KPWT 270924Z AUTO 00000KT 1/4SM FZFG CLR M03/M03 A3020 RMK AO2 FZRANO=
202311270915 SPECI KPWT 270915Z AUTO 00000KT 1/2SM FZFG CLR M03/M03 A3020 RMK AO2 FZRANO=
202311270913 SPECI KPWT 270913Z AUTO 00000KT 1SM BR CLR M03/M03 A3020 RMK AO2 VIS 1/4V5 FZRANO=
202311270908 SPECI KPWT 270908Z AUTO 00000KT 2SM BR CLR M03/M03 A3020 RMK AO2 VIS 1/2V5 FZRANO=
202311270906 SPECI KPWT 270906Z AUTO 00000KT 1SM BR CLR M03/M03 A3020 RMK AO2 VIS 1/4V5 FZRANO=
202311270856 METAR KPWT 270856Z AUTO 00000KT 1/2SM FZFG CLR M03/M03 A3020 RMK AO2 SLP234 T10331033 57001 FZRANO=
202311270847 SPECI KPWT 270847Z AUTO 00000KT 3/4SM BR CLR M03/M03 A3020 RMK AO2 VIS 1/2V4 FZRANO=
202311270844 SPECI KPWT 270844Z AUTO 00000KT 1 1/4SM BR CLR M03/M03 A3020 RMK AO2 VIS 1/2V4 FZRANO=
202311270841 SPECI KPWT 270841Z AUTO 00000KT 3/4SM BR CLR M03/M03 A3020 RMK AO2 VIS 1/4V4 FZRANO=
202311270833 SPECI KPWT 270833Z AUTO 00000KT 1 3/4SM BR CLR M03/M03 A3020 RMK AO2 FZRANO=
202311270827 SPECI KPWT 270827Z AUTO 00000KT 4SM BR CLR M03/M03 A3020 RMK AO2 FZRANO=
202311270822 SPECI KPWT 270822Z AUTO 00000KT 1 1/4SM BR CLR M03/M03 A3020 RMK AO2 VIS 1/2V5 FZRANO=
202311270759 SPECI KPWT 270759Z AUTO 00000KT 3/4SM BR CLR M03/M03 A3020 RMK AO2 FZRANO=
202311270756 METAR KPWT 270756Z AUTO 00000KT 1 1/4SM BR CLR M03/M03 A3020 RMK AO2 SLP234 T10331033 400941033 FZRANO=
202311270749 SPECI KPWT 270749Z AUTO 00000KT 2 1/2SM BR CLR M03/M03 A3020 RMK AO2 VIS 3/4V5 FZRANO=
202311270747 SPECI KPWT 270747Z AUTO 00000KT 1SM BR CLR M03/M03 A3020 RMK AO2 VIS 1/4V5 FZRANO=
202311270724 SPECI KPWT 270724Z AUTO 00000KT 1/2SM FZFG CLR M03/M03 A3021 RMK AO2 FZRANO=
202311270719 SPECI KPWT 270719Z AUTO 00000KT 1SM BR CLR M03/M03 A3021 RMK AO2 FZRANO=
202311270714 SPECI KPWT 270714Z AUTO 00000KT 2SM BR CLR M03/M03 A3021 RMK AO2 FZRANO=
202311270656 METAR KPWT 270656Z AUTO 00000KT 10SM CLR M02/M02 A3021 RMK AO2 SLP237 T10221022 FZRANO=
202311270648 SPECI KPWT 270648Z AUTO 00000KT 2 1/2SM BR CLR M02/M02 A3021 RMK AO2 VIS 3/4V5 FZRANO=
202311270632 SPECI KPWT 270632Z AUTO 00000KT 1SM BR CLR M02/M02 A3021 RMK AO2 FZRANO=
202311270622 SPECI KPWT 270622Z AUTO 00000KT 1/2SM FZFG CLR M02/M02 A3021 RMK AO2 FZRANO=
202311270613 SPECI KPWT 270613Z AUTO 00000KT 1/4SM FZFG CLR M02/M02 A3021 RMK AO2 FZRANO=
202311270603 SPECI KPWT 270603Z AUTO 00000KT 1/2SM FZFG CLR M02/M02 A3021 RMK AO2 FZRANO=
202311270556 METAR KPWT 270556Z AUTO 00000KT 1/4SM FZFG CLR M02/M02 A3021 RMK AO2 SLP238 T10221022 10078 21022 53001 FZRANO=
202311270547 SPECI KPWT 270547Z AUTO 00000KT 1/4SM FZFG CLR M02/M02 A3021 RMK AO2 FZRANO=
202311270538 SPECI KPWT 270538Z AUTO 00000KT 1/2SM FZFG CLR M02/M03 A3021 RMK AO2 FZRANO=
202311270535 SPECI KPWT 270535Z AUTO 00000KT 1SM BR CLR M02/M02 A3021 RMK AO2 VIS 1/4V5 FZRANO=
202311270500 SPECI KPWT 270500Z AUTO 00000KT 3SM BR CLR M01/M01 A3021 RMK AO2 FZRANO=
202311270458 SPECI KPWT 270458Z AUTO 00000KT 1 1/2SM BR CLR M01/M01 A3020 RMK AO2 VIS 1/4V5 FZRANO=
202311270456 METAR KPWT 270456Z AUTO 00000KT 3/4SM BR CLR M01/M01 A3021 RMK AO2 VIS 1/4V5 SLP237 T10061006 FZRANO=
202311270447 SPECI KPWT 270447Z AUTO 22003KT 1/4SM FG CLR 00/00 A3021 RMK AO2 FZRANO=
202311270442 SPECI KPWT 270442Z AUTO 00000KT 3/4SM BR CLR 00/00 A3020 RMK AO2 FZRANO=
202311270440 SPECI KPWT 270440Z AUTO 00000KT 1 1/4SM BR CLR 01/00 A3020 RMK AO2 FZRANO=
202311270356 METAR KPWT 270356Z AUTO 04003KT 10SM CLR 04/03 A3021 RMK AO2 SLP236 T00390033=
202311270256 METAR KPWT 270256Z AUTO 00000KT 8SM CLR 00/00 A3021 RMK AO2 SLP238 T00000000 53002 FZRANO=
202311270156 METAR KPWT 270156Z AUTO 00000KT 10SM CLR 01/01 A3020 RMK AO2 SLP236 T00110011 FZRANO=
202311270056 METAR KPWT 270056Z AUTO 00000KT 10SM CLR 04/03 A3019 RMK AO2 SLP232 T00390033=
202311262356 METAR KPWT 262356Z AUTO 06004KT 10SM CLR 08/04 A3020 RMK AO2 SLP233 T00780044 10094 20044 56013=
202311262256 METAR KPWT 262256Z AUTO 05005KT 10SM CLR 09/04 A3020 RMK AO2 SLP233 T00940044=
202311262156 METAR KPWT 262156Z AUTO 07004KT 10SM CLR 09/04 A3022 RMK AO2 SLP238 T00890039=
202311262056 METAR KPWT 262056Z AUTO VRB04KT 10SM CLR 09/04 A3024 RMK AO2 SLP246 T00890044 58017=
202311261956 METAR KPWT 261956Z AUTO VRB03KT 10SM CLR 08/05 A3026 RMK AO2 SLP254 T00830050=
202311261856 METAR KPWT 261856Z AUTO 03003KT 10SM CLR 06/04 A3028 RMK AO2 SLP261 T00610044=
202311261756 METAR KPWT 261756Z AUTO 00000KT 4SM BR SCT001 04/04 A3029 RMK AO2 SLP263 T00440044 10044 21006 55000=
202311261746 SPECI KPWT 261746Z AUTO 00000KT 2SM BR OVC001 03/03 A3029 RMK AO2=
202311261741 SPECI KPWT 261741Z AUTO 00000KT 1SM BR OVC001 02/02 A3029 RMK AO2 FZRANO=
202311261735 SPECI KPWT 261735Z AUTO 00000KT 1/2SM FG OVC001 02/02 A3029 RMK AO2 FZRANO=
202311261656 METAR KPWT 261656Z AUTO 00000KT 1/4SM FG OVC001 00/00 A3029 RMK AO2 SLP265 T00000000 FZRANO=
202311261649 SPECI KPWT 261649Z AUTO 00000KT 1/4SM FG OVC001 00/00 A3029 RMK AO2 FZRANO=
202311261616 SPECI KPWT 261616Z AUTO 00000KT 3/4SM BR VV001 M01/M01 A3029 RMK AO2 FZRANO=
202311261613 SPECI KPWT 261613Z AUTO 00000KT 1/4SM FZFG VV001 M01/M01 A3029 RMK AO2 FZRANO=
202311261607 SPECI KPWT 261607Z AUTO 00000KT 1/4SM FZFG CLR M01/M01 A3029 RMK AO2 FZRANO=
202311261556 METAR KPWT 261556Z AUTO 23003KT M1/4SM FG VV002 00/00 A3029 RMK AO2 SLP264 T00000000 FZRANO=
202311261456 METAR KPWT 261456Z AUTO 00000KT 1/4SM FG OVC002 01/01 A3029 RMK AO2 SLP266 T00060006 55004 FZRANO=
202311261434 SPECI KPWT 261434Z AUTO 00000KT 1/4SM FG OVC002 01/01 A3029 RMK AO2 FZRANO=
202311261414 SPECI KPWT 261414Z AUTO 00000KT 1/2SM FG OVC002 00/00 A3029 RMK AO2 FZRANO=
202311261403 SPECI KPWT 261403Z AUTO 00000KT 3/4SM BR OVC002 00/00 A3029 RMK AO2 FZRANO=
202311261356 METAR KPWT 261356Z AUTO 00000KT 1/2SM FG OVC002 00/00 A3029 RMK AO2 SLP265 T00000000 FZRANO=
202311261349 SPECI KPWT 261349Z AUTO 00000KT 1/2SM FG OVC002 00/00 A3029 RMK AO2 FZRANO=
202311261327 SPECI KPWT 261327Z AUTO 00000KT 1/4SM FZFG VV002 M01/M01 A3029 RMK AO2 FZRANO=
202311261256 METAR KPWT 261256Z AUTO 21003KT 1/4SM FZFG CLR M01/M01 A3029 RMK AO2 SLP266 T10061006 FZRANO=
202311261243 SPECI KPWT 261243Z AUTO 21004KT 1/2SM FG CLR 00/00 A3029 RMK AO2 FZRANO=
202311261240 SPECI KPWT 261240Z AUTO 21004KT 1SM BR CLR 00/00 A3029 RMK AO2 FZRANO=
202311261236 SPECI KPWT 261236Z AUTO 22004KT 2SM BR CLR 01/01 A3029 RMK AO2 FZRANO=
202311261156 METAR KPWT 261156Z AUTO 35004KT 7SM FEW004 03/03 A3030 RMK AO2 SLP268 T00330033 10039 20017 58001=
202311261151 SPECI KPWT 261151Z AUTO 01005KT 8SM SCT004 03/03 A3030 RMK AO2=
202311261056 METAR KPWT 261056Z AUTO 03006KT 8SM OVC004 04/04 A3031 RMK AO2 SLP271 T00390039=
202311261006 SPECI KPWT 261006Z AUTO 04007KT 10SM BKN004 04/04 A3031 RMK AO2=
202311260956 METAR KPWT 260956Z AUTO 03008KT 10SM SCT004 04/04 A3030 RMK AO2 SLP269 T00390039=
202311260954 SPECI KPWT 260954Z AUTO 04007KT 10SM SCT004 04/04 A3030 RMK AO2=
202311260856 METAR KPWT 260856Z AUTO 01004KT 8SM CLR 02/02 A3031 RMK AO2 SLP272 T00170017 58004 FZRANO=
202311260808 SPECI KPWT 260808Z AUTO 03004KT 10SM SCT005 03/03 A3032 RMK AO2=
202311260756 METAR KPWT 260756Z AUTO 02003KT 10SM BKN003 03/03 A3032 RMK AO2 CIG 003V006 SLP275 T00330033 400781028=
202311260704 SPECI KPWT 260704Z AUTO 03006KT 10SM BKN003 04/04 A3032 RMK AO2=
202311260656 METAR KPWT 260656Z AUTO 04006KT 10SM SCT003 04/04 A3032 RMK AO2 SLP276 T00390039=
202311260556 METAR KPWT 260556Z AUTO 04005KT 10SM CLR 03/03 A3033 RMK AO2 SLP277 T00280028 10067 21006 57004=
202311260456 METAR KPWT 260456Z AUTO 03006KT 10SM CLR 03/03 A3034 RMK AO2 SLP280 T00280028=
202311260356 METAR KPWT 260356Z AUTO 04006KT 10SM CLR 02/02 A3034 RMK AO2 SLP283 T00170017 FZRANO=
202311260256 METAR KPWT 260256Z AUTO 00000KT 10SM CLR 00/00 A3034 RMK AO2 SLP284 T00000000 53004 FZRANO=
202311260156 METAR KPWT 260156Z AUTO 00000KT 10SM CLR 01/01 A3034 RMK AO2 SLP282 T00060006 FZRANO=
202311260056 METAR KPWT 260056Z AUTO 00000KT 10SM CLR 03/03 A3033 RMK AO2 SLP279 T00280028=
202311252356 METAR KPWT 252356Z AUTO 03004KT 10SM CLR 07/04 A3033 RMK AO2 SLP277 T00670039 10078 20044 56010=
202311252256 METAR KPWT 252256Z AUTO 04005KT 10SM CLR 08/04 A3034 RMK AO2 SLP279 T00780039=
202311252156 METAR KPWT 252156Z AUTO 03006KT 10SM CLR 08/04 A3035 RMK AO2 SLP284 T00780039=
202311252104 SPECI KPWT 252104Z AUTO 06006KT 10SM SCT012 07/04 A3036 RMK AO2=
202311252056 METAR KPWT 252056Z AUTO 03008KT 10SM BKN012 07/04 A3036 RMK AO2 SLP289 T00670039 58010=
202311251956 METAR KPWT 251956Z AUTO 05003KT 10SM OVC012 06/04 A3038 RMK AO2 SLP296 T00560039=
202311251918 SPECI KPWT 251918Z AUTO 05009KT 10SM OVC010 05/04 A3039 RMK AO2 CIG 008V012=
202311251856 METAR KPWT 251856Z AUTO VRB04KT 10SM OVC008 05/04 A3039 RMK AO2 CIG 007V012 SLP300 T00500044=
202311251756 METAR KPWT 251756Z AUTO 03004KT 10SM OVC008 04/04 A3039 RMK AO2 CIG 005V011 SLP300 T00440044 10044 20006 51006=
202311251741 SPECI KPWT 251741Z AUTO 06004KT 10SM OVC006 04/04 A3039 RMK AO2 CIG 003V009=
202311251711 SPECI KPWT 251711Z AUTO 08003KT 9SM BKN004 BKN013 03/03 A3039 RMK AO2=
202311251702 SPECI KPWT 251702Z AUTO 00000KT 10SM FEW004 SCT013 02/02 A3039 RMK AO2 FZRANO=
202311251656 METAR KPWT 251656Z AUTO 00000KT 10SM BKN013 02/02 A3039 RMK AO2 SLP300 T00220022 FZRANO=
202311251556 METAR KPWT 251556Z AUTO 00000KT 10SM OVC013 02/02 A3038 RMK AO2 SLP297 T00170017 FZRANO=
202311251517 SPECI KPWT 251517Z AUTO 00000KT 10SM OVC013 02/02 A3038 RMK AO2 FZRANO=
202311251456 METAR KPWT 251456Z AUTO 00000KT 10SM OVC015 02/02 A3037 RMK AO2 SLP295 T00220022 50003 FZRANO=
202311251356 METAR KPWT 251356Z AUTO 00000KT 10SM OVC015 02/02 A3038 RMK AO2 SLP294 T00170017 FZRANO=
202311251256 METAR KPWT 251256Z AUTO 00000KT 10SM OVC015 01/01 A3038 RMK AO2 SLP294 T00110011 FZRANO=
202311251218 SPECI KPWT 251218Z AUTO 00000KT 10SM OVC015 01/01 A3037 RMK AO2 FZRANO=
202311251156 METAR KPWT 251156Z AUTO 00000KT 10SM OVC013 01/01 A3037 RMK AO2 SLP289 T00060006 10006 21028 58001 FZRANO=
202311251056 METAR KPWT 251056Z AUTO 00000KT 10SM OVC013 M01/M01 A3037 RMK AO2 SLP290 T10061006 FZRANO=
202311251017 SPECI KPWT 251017Z AUTO 00000KT 10SM BKN013 M02/M02 A3037 RMK AO2 FZRANO=
202311251008 SPECI KPWT 251008Z AUTO 00000KT 10SM SCT013 M02/M02 A3037 RMK AO2 FZRANO=
202311250956 METAR KPWT 250956Z AUTO 00000KT 8SM BKN013 M02/M02 A3037 RMK AO2 SLP292 T10171017 FZRANO=
202311250927 SPECI KPWT 250927Z AUTO 00000KT 10SM OVC013 M01/M01 A3037 RMK AO2 FZRANO=
202311250856 METAR KPWT 250856Z AUTO 00000KT 10SM OVC015 M01/M01 A3037 RMK AO2 SLP290 T10111011 50000 FZRANO=
202311250829 SPECI KPWT 250829Z AUTO 14003KT 3SM BR OVC015 M02/M02 A3037 RMK AO2 FZRANO=
202311250816 SPECI KPWT 250816Z AUTO 00000KT 1 3/4SM BR BKN015 M02/M02 A3037 RMK AO2 VIS 1 1/4V5 FZRANO=
202311250811 SPECI KPWT 250811Z AUTO 00000KT 3SM BR BKN015 M02/M02 A3037 RMK AO2 FZRANO=
202311250756 METAR KPWT 250756Z AUTO 00000KT 10SM CLR M03/M03 A3037 RMK AO2 SLP292 T10281028 400891039 FZRANO=
202311250754 SPECI KPWT 250754Z AUTO 00000KT 10SM FEW001 M03/M03 A3037 RMK AO2 400891039 FZRANO=
202311250747 SPECI KPWT 250747Z AUTO 00000KT 2 1/2SM BR FEW001 M03/M03 A3037 RMK AO2 VIS 1V5 FZRANO=
202311250739 SPECI KPWT 250739Z AUTO 00000KT 1 3/4SM BR CLR M03/M03 A3037 RMK AO2 VIS 1V4 FZRANO=
202311250728 SPECI KPWT 250728Z AUTO 00000KT 3SM BR CLR M03/M03 A3037 RMK AO2 FZRANO=
202311250723 SPECI KPWT 250723Z AUTO 00000KT 1 1/4SM BR CLR M03/M03 A3037 RMK AO2 VIS 1/2V5 FZRANO=
202311250712 SPECI KPWT 250712Z AUTO 00000KT 3/4SM BR CLR M03/M03 A3037 RMK AO2 VIS 1/2V5 FZRANO=
202311250708 SPECI KPWT 250708Z AUTO 00000KT 1 1/2SM BR CLR M03/M03 A3037 RMK AO2 FZRANO=
202311250656 METAR KPWT 250656Z AUTO 00000KT 10SM CLR M02/M02 A3037 RMK AO2 SLP291 T10221022 FZRANO=
202311250627 SPECI KPWT 250627Z AUTO 00000KT 10SM CLR M02/M02 A3037 RMK AO2 FZRANO=
202311250620 SPECI KPWT 250620Z AUTO 00000KT 2 1/2SM BR CLR M03/M03 A3037 RMK AO2 FZRANO=
202311250556 METAR KPWT 250556Z AUTO 00000KT 10SM CLR M02/M02 A3037 RMK AO2 SLP291 T10221022 10067 21022 50001 FZRANO=
202311250456 METAR KPWT 250456Z AUTO 00000KT 10SM CLR M02/M02 A3037 RMK AO2 SLP293 T10171017 FZRANO=
202311250356 METAR KPWT 250356Z AUTO 00000KT 10SM SCT016 M01/M01 A3037 RMK AO2 SLP292 T10111011 FZRANO=
202311250256 METAR KPWT 250256Z AUTO 00000KT 10SM CLR M02/M02 A3036 RMK AO2 SLP291 T10171017 51005 FZRANO=
202311250156 METAR KPWT 250156Z AUTO 00000KT 10SM CLR 01/01 A3036 RMK AO2 SLP291 T00060006 FZRANO=
202311250056 METAR KPWT 250056Z AUTO 13003KT 10SM CLR 02/02 A3036 RMK AO2 SLP289 T00220017 FZRANO=
202311242356 METAR KPWT 242356Z AUTO 07003KT 10SM CLR 07/01 A3035 RMK AO2 SLP284 T00670011 10089 20050 55003=
202311242256 METAR KPWT 242256Z AUTO 08005KT 10SM CLR 08/01 A3035 RMK AO2 SLP282 T00830011=
202311242156 METAR KPWT 242156Z AUTO VRB04KT 10SM CLR 08/02 A3035 RMK AO2 SLP286 T00830017=
202311242056 METAR KPWT 242056Z AUTO 07006KT 10SM CLR 08/02 A3036 RMK AO2 SLP287 T00830022 56018=
202311241956 METAR KPWT 241956Z AUTO 05008KT 10SM CLR 08/01 A3037 RMK AO2 SLP290 T00830006=
202311241856 METAR KPWT 241856Z AUTO VRB04KT 10SM CLR 07/03 A3040 RMK AO2 SLP299 T00720028=
202311241756 METAR KPWT 241756Z AUTO 26003KT 10SM CLR 05/02 A3041 RMK AO2 SLP305 T00500017 10050 21039 50004=
202311241656 METAR KPWT 241656Z AUTO 23003KT 10SM CLR 02/01 A3042 RMK AO2 SLP306 T00220006 FZRANO=
202311241556 METAR KPWT 241556Z AUTO 00000KT 10SM CLR M03/M03 A3040 RMK AO2 SLP303 T10331033 FZRANO=
202311241456 METAR KPWT 241456Z AUTO 20003KT 10SM CLR M03/M03 A3040 RMK AO2 SLP303 T10281028 53000 FZRANO=
202311241356 METAR KPWT 241356Z AUTO 00000KT 10SM CLR M03/M04 A3040 RMK AO2 SLP302 T10331039 FZRANO=
202311241256 METAR KPWT 241256Z AUTO 00000KT 10SM CLR M02/M03 A3040 RMK AO2 SLP303 T10171028 FZRANO=
202311241156 METAR KPWT 241156Z AUTO 03007KT 10SM CLR 03/00 A3040 RMK AO2 SLP301 T00280000 10061 20017 56002=
202311241056 METAR KPWT 241056Z AUTO 04008KT 10SM CLR 04/00 A3040 RMK AO2 SLP302 T00440000=
202311240956 METAR KPWT 240956Z AUTO 05008KT 10SM CLR 04/M01 A3040 RMK AO2 SLP300 T00391006=
202311240856 METAR KPWT 240856Z AUTO 03007KT 10SM CLR 04/M01 A3041 RMK AO2 SLP303 T00391011 53002=
202311240756 METAR KPWT 240756Z AUTO 04009KT 10SM CLR 06/M01 A3040 RMK AO2 SLP301 T00561011 400940044=
202311240656 METAR KPWT 240656Z AUTO 03007KT 10SM CLR 06/M02 A3040 RMK AO2 SLP300 T00561017=
202311240556 METAR KPWT 240556Z AUTO 03007KT 10SM CLR 06/M02 A3040 RMK AO2 SLP300 T00561017 10078 20044 51004=
202311240456 METAR KPWT 240456Z AUTO 07004KT 10SM CLR 06/M02 A3040 RMK AO2 SLP299 T00561017=
202311240356 METAR KPWT 240356Z AUTO VRB03KT 10SM CLR 06/M01 A3039 RMK AO2 SLP298 T00561011=
202311240256 METAR KPWT 240256Z AUTO 08003KT 10SM CLR 05/M01 A3039 RMK AO2 SLP297 T00501011 50004=
202311240156 METAR KPWT 240156Z AUTO 05004KT 10SM CLR 05/M01 A3039 RMK AO2 SLP297 T00501006=
202311240056 METAR KPWT 240056Z AUTO 04006KT 10SM CLR 06/00 A3038 RMK AO2 SLP296 T00610000=
202311232356 METAR KPWT 232356Z AUTO 03009G17KT 10SM CLR 08/00 A3037 RMK AO2 SLP292 T00780000 10094 20078 55002=
202311232256 METAR KPWT 232256Z AUTO 03012G17KT 10SM CLR 09/00 A3036 RMK AO2 SLP288 T00890000=
202311232156 METAR KPWT 232156Z AUTO 03014G19KT 10SM CLR 09/01 A3037 RMK AO2 SLP291 T00890011=
202311232056 METAR KPWT 232056Z AUTO 03011G23KT 10SM CLR 09/01 A3038 RMK AO2 SLP294 T00890011 58010=
202311231956 METAR KPWT 231956Z AUTO 02016G21KT 10SM CLR 09/01 A3039 RMK AO2 SLP298 T00890011=
202311231856 METAR KPWT 231856Z AUTO 04015G23KT 10SM CLR 08/02 A3041 RMK AO2 PK WND 01026/1846 SLP304 T00830022=
202311231756 METAR KPWT 231756Z AUTO 02013G22KT 10SM CLR 08/02 A3041 RMK AO2 SLP306 T00780017 10078 20044 51005=
202311231656 METAR KPWT 231656Z AUTO 03008G18KT 10SM CLR 07/02 A3041 RMK AO2 SLP306 T00720017=
202311231556 METAR KPWT 231556Z AUTO 03011G17KT 10SM CLR 06/03 A3041 RMK AO2 SLP304 T00560028=
202311231456 METAR KPWT 231456Z AUTO 03009KT 10SM CLR 06/03 A3040 RMK AO2 SLP301 T00560033 53002=
202311231356 METAR KPWT 231356Z AUTO 04007KT 10SM CLR 05/03 A3039 RMK AO2 SLP300 T00500033=
202311231256 METAR KPWT 231256Z AUTO 02012G17KT 10SM CLR 06/04 A3038 RMK AO2 SLP296 T00610039=
202311231156 METAR KPWT 231156Z AUTO 02010KT 10SM OVC035 06/04 A3039 RMK AO2 SLP298 T00610039 10061 20039 56003=
202311231056 METAR KPWT 231056Z AUTO 02009KT 10SM OVC033 06/04 A3040 RMK AO2 SLP301 T00610044=
202311230956 METAR KPWT 230956Z AUTO 04006KT 10SM OVC033 06/04 A3039 RMK AO2 SLP298 T00560044=
202311230856 METAR KPWT 230856Z AUTO 05006KT 10SM CLR 04/04 A3040 RMK AO2 SLP301 T00440039 58003=
202311230756 METAR KPWT 230756Z AUTO 01007KT 10SM CLR 05/03 A3041 RMK AO2 SLP304 T00500033 400830028=
202311230656 METAR KPWT 230656Z AUTO 10004KT 10SM CLR 04/03 A3042 RMK AO2 SLP307 T00440033=
202311230556 METAR KPWT 230556Z AUTO 05007KT 10SM FEW030 04/03 A3041 RMK AO2 SLP305 T00440033 10072 20028 53006=
202311230456 METAR KPWT 230456Z AUTO 07004KT 10SM CLR 04/04 A3040 RMK AO2 SLP302 T00390039=
202311230432 SPECI KPWT 230432Z AUTO 10003KT 10SM SCT021 04/04 A3039 RMK AO2=
202311230409 SPECI KPWT 230409Z AUTO 00000KT 10SM BKN021 03/03 A3040 RMK AO2=
202311230356 METAR KPWT 230356Z AUTO 05003KT 10SM FEW021 04/04 A3040 RMK AO2 SLP301 T00440039=
202311230256 METAR KPWT 230256Z AUTO 04008KT 10SM CLR 06/04 A3039 RMK AO2 SLP298 T00560044 56002=
202311230056 METAR KPWT 230056Z AUTO 04006KT 10SM CLR 06/04 A3039 RMK AO2 SLP298 T00560039=
202311222356 METAR KPWT 222356Z AUTO 03009KT 10SM CLR 07/04 A3040 RMK AO2 SLP300 T00720044 10083 20072 51005=
202311222256 METAR KPWT 222256Z AUTO 04012KT 10SM SCT046 08/04 A3039 RMK AO2 SLP297 T00780044=
202311222156 METAR KPWT 222156Z AUTO 02007KT 10SM OVC040 08/05 A3040 RMK AO2 SLP298 T00830050 TSNO=
202311222056 METAR KPWT 222056Z AUTO 04008KT 10SM OVC036 08/06 A3038 RMK AO2 SLP294 T00830056 55004=
202311221956 METAR KPWT 221956Z AUTO 04010KT 10SM OVC034 08/06 A3038 RMK AO2 SLP293 T00830061=
202311221856 METAR KPWT 221856Z AUTO 05009KT 10SM OVC034 08/07 A3040 RMK AO2 SLP299 T00780067=
202311221756 METAR KPWT 221756Z AUTO 05008KT 10SM OVC032 08/07 A3040 RMK AO2 SLP299 60000 T00780072 10078 20078 53006=
202311221712 SPECI KPWT 221712Z AUTO 04006KT 10SM SCT016 OVC030 08/07 A3039 RMK AO2=
202311221656 METAR KPWT 221656Z AUTO 05006KT 10SM SCT016 OVC028 08/07 A3039 RMK AO2 SLP297 T00780072=
202311221556 METAR KPWT 221556Z AUTO 03008KT 10SM FEW009 BKN015 OVC024 08/08 A3038 RMK AO2 SLP292 T00780078=
202311221554 SPECI KPWT 221554Z AUTO 04006KT 10SM FEW009 BKN015 OVC024 08/08 A3038 RMK AO2=
202311221524 SPECI KPWT 221524Z AUTO 05006KT 10SM FEW007 BKN012 OVC022 08/08 A3037 RMK AO2=
202311221456 METAR KPWT 221456Z AUTO 03005KT 10SM BKN008 OVC012 08/08 A3036 RMK AO2 CIG 004V010 SLP286 60000 T00780078 53015=
202311221412 SPECI KPWT 221412Z AUTO 04007KT 10SM OVC007 08/08 A3035 RMK AO2 CIG 005V010=
202311221356 METAR KPWT 221356Z AUTO 04008KT 10SM OVC005 08/08 A3034 RMK AO2 CIG 003V008 SLP280 T00780078=
202311221319 SPECI KPWT 221319Z AUTO 04008KT 10SM BKN005 OVC009 08/08 A3034 RMK AO2 CIG 004V007=
202311221256 METAR KPWT 221256Z AUTO 06007KT 10SM OVC009 08/08 A3033 RMK AO2 RAE03 CIG 005V013 SLP276 P0000 T00780078=
202311221239 SPECI KPWT 221239Z AUTO 05007KT 10SM BKN009 OVC014 08/08 A3033 RMK AO2 RAE03 CIG 005V011 P0000=
202311221224 SPECI KPWT 221224Z AUTO 05003KT 10SM SCT003 OVC014 08/08 A3032 RMK AO2 RAE03 P0000=
202311221156 METAR KPWT 221156Z AUTO 07004KT 9SM -RA OVC003 08/08 A3032 RMK AO2 RAB52 SLP272 P0000 60009 70020 T00780078 10078 20072 53014=
202311221144 SPECI KPWT 221144Z AUTO 06004KT 10SM BKN003 OVC010 08/08 A3032 RMK AO2=
202311221110 SPECI KPWT 221110Z AUTO 04006KT 10SM SCT002 OVC010 08/08 A3030 RMK AO2=
202311221056 METAR KPWT 221056Z AUTO 06004KT 10SM BKN002 OVC010 08/08 A3029 RMK AO2 RAE00 SLP263 P0000 T00780078=
202311221043 SPECI KPWT 221043Z AUTO 05005KT 9SM BKN002 OVC008 08/08 A3029 RMK AO2 RAE00 P0000=
202311221033 SPECI KPWT 221033Z AUTO 05005KT 2 1/2SM BR BKN002 OVC006 08/08 A3029 RMK AO2 RAE00 P0000=
202311220956 METAR KPWT 220956Z AUTO 05004KT 5SM -RA BR BKN006 OVC011 08/08 A3029 RMK AO2 CIG 005V009 SLP261 P0002 T00780078=
202311220948 SPECI KPWT 220948Z AUTO 08003KT 3SM -RA BR BKN006 OVC011 08/08 A3028 RMK AO2 CIG 004V010 P0002=
202311220938 SPECI KPWT 220938Z AUTO 13005KT 2 1/2SM -RA BR OVC006 08/08 A3028 RMK AO2 CIG 002V008 P0002=
202311220923 SPECI KPWT 220923Z AUTO 04004KT 3SM -RA BR BKN004 08/08 A3028 RMK AO2 CIG 002V006 P0001=
202311220856 METAR KPWT 220856Z AUTO 00000KT 2SM -RA BR BKN004 08/08 A3028 RMK AO2 SLP258 P0003 60007 T00780078 53005=
202311220835 SPECI KPWT 220835Z AUTO 20003KT 2 1/2SM -RA BR OVC004 08/08 A3028 RMK AO2 P0002=
202311220756 METAR KPWT 220756Z AUTO 21005KT 4SM -RA BR OVC004 08/08 A3026 RMK AO2 CIG 003V008 SLP253 P0003 T00780078 401110000=
202311220656 METAR KPWT 220656Z AUTO 00000KT 10SM -RA OVC006 08/08 A3026 RMK AO2 CIG 003V009 SLP252 P0001 T00780078=
202311220654 SPECI KPWT 220654Z AUTO 00000KT 10SM -RA OVC006 08/08 A3026 RMK AO2 CIG 003V010 P0001=
202311220644 SPECI KPWT 220644Z AUTO 00000KT 10SM -RA BKN004 OVC012 08/08 A3026 RMK AO2 CIG 003V009 P0000=
202311220635 SPECI KPWT 220635Z AUTO 00000KT 7SM -RA SCT004 OVC012 08/08 A3026 RMK AO2 P0000=
202311220625 SPECI KPWT 220625Z AUTO 22003KT 9SM -RA BKN014 OVC022 07/07 A3026 RMK AO2 P0000=
202311220556 METAR KPWT 220556Z AUTO 00000KT 5SM -RA BR BKN016 OVC024 07/07 A3025 RMK AO2 SLP251 P0006 60011 T00720072 10106 20072 53010=
202311220456 METAR KPWT 220456Z AUTO 24006KT 5SM -RA BR OVC026 08/08 A3024 RMK AO2 SLP246 P0000 T00780078=
202311220443 SPECI KPWT 220443Z AUTO 24007KT 10SM -RA OVC028 08/08 A3024 RMK AO2 P0000=
202311220356 METAR KPWT 220356Z AUTO 26008KT 10SM -RA BKN038 08/08 A3023 RMK AO2 SLP243 P0004 T00780078=
202311220256 METAR KPWT 220256Z AUTO 23006KT 10SM -RA BKN045 OVC055 08/07 A3022 RMK AO2 SLP241 P0001 60001 T00830067 51005=
202311220156 METAR KPWT 220156Z AUTO 22005KT 10SM -RA SCT046 BKN055 08/07 A3021 RMK AO2 RAB00 SLP239 P0000 T00830067=
202311220056 METAR KPWT 220056Z AUTO 20006KT 10SM SCT100 11/04 A3022 RMK AO2 SLP239 T01060044=
202311212356 METAR KPWT 212356Z AUTO 21006KT 10SM FEW110 11/04 A3021 RMK AO2 SLP236 T01060044 10111 20056 53000=
202311212256 METAR KPWT 212256Z AUTO 19008KT 10SM CLR 11/05 A3020 RMK AO2 SLP234 T01060050=
202311110756 METAR KPWT 110756Z AUTO 19015G22KT 10SM OVC010 08/08 A2987 RMK AO2 RAE50 SLP119 P0001 T00780078 400890061=
202311110744 SPECI KPWT 110744Z AUTO 20014G20KT 10SM -RA OVC010 08/08 A2987 RMK AO2 CIG 007V014 P0001=
202311110707 SPECI KPWT 110707Z AUTO 19011G16KT 9SM -RA BKN008 OVC013 07/07 A2989 RMK AO2 CIG 006V011 P0001=
202311110656 METAR KPWT 110656Z AUTO 19011G18KT 8SM -RA SCT008 OVC013 07/07 A2990 RMK AO2 SLP131 P0008 T00720072=
202311110649 SPECI KPWT 110649Z AUTO 20012KT 9SM -RA BKN011 OVC017 07/07 A2991 RMK AO2 P0007=
202311110556 METAR KPWT 110556Z AUTO 20012G17KT 10SM -RA BKN022 OVC029 08/08 A2995 RMK AO2 SLP146 P0007 60013 T00780078 10083 20078 56022=
202311110539 SPECI KPWT 110539Z AUTO 20011G18KT 10SM -RA FEW012 BKN028 OVC033 08/08 A2994 RMK AO2 P0004=
202311110531 SPECI KPWT 110531Z AUTO 19012G18KT 10SM -RA SCT010 SCT014 OVC031 08/08 A2994 RMK AO2 P0003=
202311110513 SPECI KPWT 110513Z AUTO 19012G18KT 10SM -RA SCT008 BKN013 OVC017 08/08 A2995 RMK AO2 P0002=
202311110456 METAR KPWT 110456Z AUTO 20012G16KT 10SM -RA BKN010 OVC015 08/08 A2996 RMK AO2 CIG 007V012 SLP150 P0003 T00780078=
202311110420 SPECI KPWT 110420Z AUTO 19011KT 10SM -RA SCT009 OVC014 08/08 A2997 RMK AO2 P0001=
202311110356 METAR KPWT 110356Z AUTO 20011G18KT 10SM -RA OVC014 08/08 A2998 RMK AO2 SLP158 P0001 T00830083=
202311110334 SPECI KPWT 110334Z AUTO 18010G17KT 10SM -RA BKN018 OVC036 08/08 A2999 RMK AO2 P0000=
202311110256 METAR KPWT 110256Z AUTO 19009KT 10SM -RA SCT015 OVC040 08/08 A3001 RMK AO2 SLP168 P0001 60002 T00830083 56008=
202311110254 SPECI KPWT 110254Z AUTO 19011KT 10SM -RA SCT015 OVC040 08/08 A3001 RMK AO2 P0001=
202311110204 SPECI KPWT 110204Z AUTO 19008KT 10SM -RA BKN011 OVC037 08/08 A3003 RMK AO2 P0000=
202311110156 METAR KPWT 110156Z AUTO 19009KT 10SM -RA BKN009 OVC035 08/08 A3003 RMK AO2 CIG 007V015 SLP176 P0001 T00830083=
202311110153 SPECI KPWT 110153Z AUTO 19010KT 10SM -RA BKN009 OVC035 08/08 A3004 RMK AO2 CIG 006V013 P0001=
202311110142 SPECI KPWT 110142Z AUTO 20011KT 10SM -RA SCT007 BKN012 OVC035 08/08 A3004 RMK AO2 P0000=
202311110056 METAR KPWT 110056Z AUTO 21009KT 10SM -RA FEW004 BKN009 OVC019 08/08 A3005 RMK AO2 RAB19 CIG 006V012 SLP181 P0000 T00830083=
202311110053 SPECI KPWT 110053Z AUTO 20010KT 10SM -RA BKN009 BKN019 OVC024 08/08 A3005 RMK AO2 RAB19 CIG 004V012 P0000=
202311110021 SPECI KPWT 110021Z AUTO 20010KT 10SM -RA SCT007 OVC024 08/08 A3007 RMK AO2 RAB19 P0000=
202311102356 METAR KPWT 102356Z AUTO 19008KT 10SM BKN007 BKN011 OVC030 08/08 A3007 RMK AO2 RAE52 SLP190 P0000 60002 T00830083 10089 20078 58009=
202311102256 METAR KPWT 102256Z AUTO 20011G16KT 10SM -RA BKN009 OVC013 09/08 A3009 RMK AO2 RAB56 CIG 007V011 SLP196 P0000 T00890083=
202311102156 METAR KPWT 102156Z AUTO 20010KT 10SM BKN009 BKN012 OVC031 09/08 A3010 RMK AO2 CIG 006V011 SLP198 T00890083=
202311102152 SPECI KPWT 102152Z AUTO 21007KT 10SM BKN009 BKN012 OVC031 09/08 A3010 RMK AO2 CIG 006V011=
202311102143 SPECI KPWT 102143Z AUTO 19007G14KT 10SM SCT007 BKN028 OVC034 09/08 A3011 RMK AO2=
202311102056 METAR KPWT 102056Z AUTO 19010KT 10SM SCT007 SCT085 08/08 A3011 RMK AO2 RAE41 SLP203 P0000 60002 T00830083=
202311102037 SPECI KPWT 102037Z AUTO 19010KT 10SM -RA SCT007 SCT011 08/08 A3012 RMK AO2 P0000=
202311101956 METAR KPWT 101956Z AUTO 19011KT 10SM -RA OVC007 08/08 A3014 RMK AO2 CIG 005V011 SLP211 P0002 T00780078=
202311101932 SPECI KPWT 101932Z AUTO 19011KT 10SM -RA OVC007 08/08 A3014 RMK AO2 CIG 005V009 P0001=
202311101856 METAR KPWT 101856Z AUTO 21008KT 10SM -RA OVC005 08/08 A3014 RMK AO2 RAB37 SLP213 P0000 T00780078=
202311101756 METAR KPWT 101756Z AUTO 19007KT 10SM OVC005 08/08 RMK AO2 RAB27E39 SLPNO P0000 60000 T00780078 10078 20061 $=
202311101742 SPECI KPWT 101742Z AUTO 19008KT 10SM OVC005 07/07 A3013 RMK AO2 RAB27E39 P0000=
202311101656 METAR KPWT 101656Z AUTO 19006KT 8SM OVC003 07/07 A3013 RMK AO2 SLP210 T00720072=
202311101556 METAR KPWT 101556Z AUTO 22008KT 4SM BR OVC003 07/07 A3014 RMK AO2 SLP211 T00670067=
202311101547 SPECI KPWT 101547Z AUTO 20006KT 2 1/2SM BR OVC003 07/07 A3013 RMK AO2=
202311101456 METAR KPWT 101456Z AUTO 20009KT 10SM OVC003 07/07 A3012 RMK AO2 SLP204 T00670067 50008=
202311101356 METAR KPWT 101356Z AUTO 21007KT 10SM OVC003 07/07 A3012 RMK AO2 SLP204 T00670067=
202311101256 METAR KPWT 101256Z AUTO 22005KT 10SM OVC003 07/07 A3011 RMK AO2 SLP201 T00670067=
202311101246 SPECI KPWT 101246Z AUTO 21008KT 10SM OVC003 07/07 A3011 RMK AO2=
202311101156 METAR KPWT 101156Z AUTO 21006KT 10SM OVC005 07/07 A3009 RMK AO2 SLP195 60000 70032 T00670067 10072 20067 50008=
202311101056 METAR KPWT 101056Z AUTO 24004KT 10SM OVC005 07/07 A3009 RMK AO2 SLP196 T00670067=
202311101017 SPECI KPWT 101017Z AUTO 22007KT 10SM OVC005 07/07 A3008 RMK AO2 CIG 003V009=
202311101004 SPECI KPWT 101004Z AUTO 21009KT 10SM BKN007 07/07 A3007 RMK AO2 CIG 004V010=
202311100956 METAR KPWT 100956Z AUTO 21011KT 10SM BKN005 07/07 A3007 RMK AO2 CIG 004V010 SLP188 T00670067=
202311100945 SPECI KPWT 100945Z AUTO 21011G17KT 10SM BKN005 BKN009 07/07 A3007 RMK AO2 CIG 003V007=
202311100856 METAR KPWT 100856Z AUTO 20009KT 10SM OVC003 07/07 A3007 RMK AO2 SLP187 60000 T00670067 53003=
202311100814 SPECI KPWT 100814Z AUTO 20009KT 10SM BKN005 OVC009 07/07 A3006 RMK AO2=
202311100756 METAR KPWT 100756Z AUTO 21011KT 10SM BKN003 OVC011 07/07 A3006 RMK AO2 RAE0659 SLP183 P0000 T00720072 400830000=
202311100752 SPECI KPWT 100752Z AUTO 20011KT 9SM BKN003 OVC011 07/07 A3006 RMK AO2 RAE0659 P0000 400830000=
202311100656 METAR KPWT 100656Z AUTO 19010KT 10SM -RA BKN005 OVC010 07/07 A3006 RMK AO2 RAB45 SLP185 P0000 T00720072=
202311100648 SPECI KPWT 100648Z AUTO 20010KT 10SM -RA SCT005 OVC010 07/07 A3006 RMK AO2 RAB45 P0000=
202311100556 METAR KPWT 100556Z AUTO 20007KT 10SM BKN005 OVC010 07/07 A3006 RMK AO2 CIG 003V008 SLP187 60017 T00720072 10072 20067 53015=
202311100518 SPECI KPWT 100518Z AUTO 20007KT 10SM BKN005 OVC014 07/07 A3005 RMK AO2 CIG 004V008=
202311100456 METAR KPWT 100456Z AUTO 20007G14KT 10SM SCT007 OVC014 07/07 A3005 RMK AO2 SLP181 T00720072=
202311100445 SPECI KPWT 100445Z AUTO 20007KT 10SM BKN007 OVC016 07/07 A3004 RMK AO2 CIG 005V009=
202311100356 METAR KPWT 100356Z AUTO 20011KT 10SM FEW007 BKN020 07/07 A3001 RMK AO2 RAE18 SLP170 P0000 T00670067=
202311100336 SPECI KPWT 100336Z AUTO 19010KT 10SM SCT007 BKN020 07/07 A3001 RMK AO2 RAE18 P0000=
202311100256 METAR KPWT 100256Z AUTO 19010KT 10SM -RA OVC007 07/07 A3002 RMK AO2 CIG 005V009 SLP173 P0001 60017 T00720072 53002=
202311100222 SPECI KPWT 100222Z AUTO 21007KT 10SM -RA BKN007 BKN011 OVC029 07/07 A3001 RMK AO2 CIG 005V009 P0001=
202311100156 METAR KPWT 100156Z AUTO 18005KT 10SM -RA FEW007 BKN028 OVC034 07/07 A3000 RMK AO2 SLP166 P0005 T00670067=
202311100143 SPECI KPWT 100143Z AUTO 19007KT 9SM -RA SCT007 BKN028 OVC033 07/07 A3001 RMK AO2 P0005=
202311100136 SPECI KPWT 100136Z AUTO 19008KT 7SM -RA SCT004 BKN007 OVC033 07/07 A3001 RMK AO2 CIG 007V013 P0004=
202311100107 SPECI KPWT 100107Z AUTO 23007KT 4SM -RA BR BKN004 BKN010 OVC015 07/07 A3001 RMK AO2 P0001=
202311100056 METAR KPWT 100056Z AUTO 24008KT 4SM -RA BR SCT004 BKN010 OVC033 07/07 A3001 RMK AO2 CIG 009V013 SLP170 P0011 T00670067=
202311100029 SPECI KPWT 100029Z AUTO 26006KT 4SM RA BR FEW005 OVC035 07/07 A3000 RMK AO2 P0006=
202311092356 METAR KPWT 092356Z AUTO 21003KT 4SM RA BR BKN032 OVC042 07/07 A3000 RMK AO2 SLP165 P0011 60015 T00670067 10083 20044 58016=
202311092256 METAR KPWT 092256Z AUTO 23006KT 8SM RA FEW028 SCT032 OVC042 07/07 A3003 RMK AO2 SLP176 P0004 T00670067=
202311092156 METAR KPWT 092156Z AUTO 23008KT 10SM -RA FEW025 SCT038 08/06 A3004 RMK AO2 RAB42 SLP178 P0000 T00780061=
202311092056 METAR KPWT 092056Z AUTO 21008KT 10SM CLR 08/06 A3005 RMK AO2 SLP182 T00830056 56022=
202311091956 METAR KPWT 091956Z AUTO 22008KT 10SM CLR 08/07 A3007 RMK AO2 SLP188 T00780067=
202311091856 METAR KPWT 091856Z AUTO 24005KT 10SM CLR 06/06 A3009 RMK AO2 SLP195 T00610061=
202311091837 SPECI KPWT 091837Z AUTO 00000KT 10SM SCT001 05/05 A3009 RMK AO2=
202311091825 SPECI KPWT 091825Z AUTO 26003KT 3SM BR BKN001 05/05 A3010 RMK AO2=
202311091820 SPECI KPWT 091820Z AUTO 00000KT 1 1/4SM BR BKN001 05/05 A3010 RMK AO2 VIS 1/2V3=
202311091816 SPECI KPWT 091816Z AUTO 00000KT 3/4SM BR OVC001 05/05 A3010 RMK AO2 VIS 1/4V2 1/2=
202311091756 METAR KPWT 091756Z AUTO 00000KT 1/4SM FG OVC001 04/04 A3011 RMK AO2 SLP204 T00440044 10044 20000 58010=
202311091656 METAR KPWT 091656Z AUTO 28003KT 1/4SM FG OVC001 04/04 A3012 RMK AO2 SLP208 T00440044=
202311091556 METAR KPWT 091556Z AUTO 00000KT 1/4SM FG OVC001 03/03 A3014 RMK AO2 SLP213 T00280028=
202311091456 METAR KPWT 091456Z AUTO 00000KT 1/4SM FG BKN001 01/01 A3014 RMK AO2 SLP215 T00110011 56012 FZRANO=
202311091451 SPECI KPWT 091451Z AUTO 22003KT 3/4SM BR BKN001 01/01 A3015 RMK AO2 FZRANO=
202311091436 SPECI KPWT 091436Z AUTO 00000KT 1/2SM FG BKN001 02/02 A3014 RMK AO2 FZRANO=
202311091431 SPECI KPWT 091431Z AUTO 14003KT 1SM BR BKN001 02/02 A3014 RMK AO2 FZRANO=
202311091423 SPECI KPWT 091423Z AUTO 00000KT 1 1/2SM BR BKN001 02/02 A3015 RMK AO2 FZRANO=
202311091420 SPECI KPWT 091420Z AUTO 00000KT 7SM BKN001 02/02 A3015 RMK AO2 FZRANO=
202311091412 SPECI KPWT 091412Z AUTO 00000KT 2SM BR FEW001 01/01 A3015 RMK AO2 VIS 3/4V5 FZRANO=
202311091400 SPECI KPWT 091400Z AUTO 00000KT 1 1/4SM BR CLR 02/02 A3016 RMK AO2 VIS 3/4V2 1/2 FZRANO=
202311091356 METAR KPWT 091356Z AUTO 00000KT 3/4SM BR CLR 02/02 A3016 RMK AO2 SLP220 T00170017 FZRANO=
202311091353 SPECI KPWT 091353Z AUTO 00000KT 3/4SM BR CLR 02/02 A3016 RMK AO2 FZRANO=
202311091348 SPECI KPWT 091348Z AUTO 00000KT 1 1/2SM BR CLR 02/02 A3016 RMK AO2 FZRANO=
202311091343 SPECI KPWT 091343Z AUTO 00000KT 4SM BR CLR 02/02 A3017 RMK AO2 FZRANO=
202311091335 SPECI KPWT 091335Z AUTO 00000KT 1 3/4SM BR CLR 02/02 A3017 RMK AO2 FZRANO=
202311091312 SPECI KPWT 091312Z AUTO 08003KT 3SM BR FEW001 02/02 A3017 RMK AO2 FZRANO=
202311091308 SPECI KPWT 091308Z AUTO 00000KT 1 1/4SM BR FEW001 02/02 A3017 RMK AO2 FZRANO=
202311091304 SPECI KPWT 091304Z AUTO 00000KT 3/4SM BR VV001 02/02 A3018 RMK AO2 FZRANO=
202311091256 METAR KPWT 091256Z AUTO 00000KT 1/2SM FG BKN002 02/02 A3018 RMK AO2 SLP228 T00170017 FZRANO=
202311091243 SPECI KPWT 091243Z AUTO 00000KT 1/2SM FG BKN002 01/01 A3018 RMK AO2 FZRANO=
202311091239 SPECI KPWT 091239Z AUTO 00000KT 1SM BR BKN002 01/01 A3018 RMK AO2 FZRANO=
202311091236 SPECI KPWT 091236Z AUTO 00000KT 2SM BR SCT002 01/01 A3018 RMK AO2 FZRANO=
202311091232 SPECI KPWT 091232Z AUTO 00000KT 1SM BR VV002 01/01 A3018 RMK AO2 FZRANO=
202311091224 SPECI KPWT 091224Z AUTO 19003KT 3/4SM BR VV001 00/00 A3018 RMK AO2 FZRANO=
202311091218 SPECI KPWT 091218Z AUTO 20003KT 1 3/4SM BR FEW001 01/01 A3019 RMK AO2 FZRANO=
202311091159 SPECI KPWT 091159Z AUTO 00000KT 1 1/2SM BR CLR 00/00 A3019 RMK AO2 FZRANO=
202311091156 METAR KPWT 091156Z AUTO 00000KT 3SM BR CLR 00/00 A3019 RMK AO2 SLP230 T00000000 10028 20000 58016 FZRANO=
202311091145 SPECI KPWT 091145Z AUTO 00000KT 6SM BR CLR 01/01 A3020 RMK AO2 FZRANO=
202311091137 SPECI KPWT 091137Z AUTO 00000KT 2SM BR CLR 01/01 A3020 RMK AO2 VIS 3/4V5 FZRANO=
202311091133 SPECI KPWT 091133Z AUTO 00000KT 1SM BR CLR 00/00 A3020 RMK AO2 VIS 1/2V5 FZRANO=
202311091125 SPECI KPWT 091125Z AUTO 00000KT 1/2SM FG CLR 00/00 A3020 RMK AO2 FZRANO=
202311091119 SPECI KPWT 091119Z AUTO 00000KT 1SM BR CLR 01/01 A3021 RMK AO2 VIS 1/2V5 FZRANO=
202311091111 SPECI KPWT 091111Z AUTO 00000KT 2SM BR CLR 01/01 A3021 RMK AO2 FZRANO=
202311091109 SPECI KPWT 091109Z AUTO 00000KT 1SM BR CLR 01/01 A3021 RMK AO2 FZRANO=
202311091056 METAR KPWT 091056Z AUTO 00000KT 1/2SM FG CLR 01/01 A3021 RMK AO2 SLP238 T00060006 FZRANO=
202311091051 SPECI KPWT 091051Z AUTO 00000KT 3/4SM BR CLR 01/01 A3022 RMK AO2 FZRANO=
202311091038 SPECI KPWT 091038Z AUTO 00000KT 1 3/4SM BR CLR 01/01 A3022 RMK AO2 VIS 1/2V5 FZRANO=
202311091029 SPECI KPWT 091029Z AUTO 00000KT 3SM BR CLR 01/01 A3022 RMK AO2 FZRANO=
202311091020 SPECI KPWT 091020Z AUTO 00000KT 1 3/4SM BR CLR 01/01 A3022 RMK AO2 FZRANO=
202311091005 SPECI KPWT 091005Z AUTO 00000KT 9SM CLR 01/01 A3023 RMK AO2 FZRANO=
202311090958 SPECI KPWT 090958Z AUTO 00000KT 2 1/2SM BR CLR 01/01 A3023 RMK AO2 FZRANO=
202311090956 METAR KPWT 090956Z AUTO 00000KT 1SM BR CLR 01/01 A3023 RMK AO2 SLP245 T00060006 FZRANO=
202311090951 SPECI KPWT 090951Z AUTO 00000KT 1/2SM FG CLR 01/01 A3024 RMK AO2 FZRANO=
202311090943 SPECI KPWT 090943Z AUTO 00000KT 3/4SM BR CLR 01/01 A3024 RMK AO2 FZRANO=
202311090932 SPECI KPWT 090932Z AUTO 00000KT 1 1/4SM BR CLR 01/01 A3024 RMK AO2 FZRANO=
202311090923 SPECI KPWT 090923Z AUTO 00000KT 3/4SM BR CLR 01/01 A3025 RMK AO2 FZRANO=
202311090919 SPECI KPWT 090919Z AUTO 00000KT 1 1/2SM BR CLR 01/01 A3025 RMK AO2 VIS 1/2V5 FZRANO=
202311090915 SPECI KPWT 090915Z AUTO 00000KT 3SM BR CLR 01/01 A3025 RMK AO2 FZRANO=
202311090913 SPECI KPWT 090913Z AUTO 00000KT 1 1/2SM BR CLR 01/01 A3025 RMK AO2 VIS 1/2V5 FZRANO=
202311090911 SPECI KPWT 090911Z AUTO 00000KT 3/4SM BR CLR 01/01 A3025 RMK AO2 FZRANO=
202311090901 SPECI KPWT 090901Z AUTO 00000KT 1/4SM FG CLR 01/01 A3025 RMK AO2 FZRANO=
202311090856 METAR KPWT 090856Z AUTO 00000KT 3/4SM BR CLR 01/01 A3025 RMK AO2 SLP251 T00060006 58020 FZRANO=
202311090854 SPECI KPWT 090854Z AUTO 00000KT 3/4SM BR CLR 01/01 A3025 RMK AO2 FZRANO=
202311090852 SPECI KPWT 090852Z AUTO 00000KT 1 1/4SM BR CLR 01/01 A3026 RMK AO2 FZRANO=
202311090756 METAR KPWT 090756Z AUTO 00000KT 10SM CLR 02/02 A3028 RMK AO2 SLP259 T00170017 401280011 FZRANO=
202311090656 METAR KPWT 090656Z AUTO 00000KT 10SM CLR 02/02 A3030 RMK AO2 SLP267 T00170017 FZRANO=
202311090556 METAR KPWT 090556Z AUTO 00000KT 10SM CLR 02/02 A3031 RMK AO2 SLP270 T00220022 10111 20017 56015 FZRANO=
202311090544 SPECI KPWT 090544Z AUTO 00000KT CLR 02/02 A3031 RMK AO2 FZRANO=
202311090535 SPECI KPWT 090535Z AUTO 00000KT 3/4SM BR CLR 02/02 A3031 RMK AO2 VIS 1/2V5 FZRANO=
202311090532 SPECI KPWT 090532Z AUTO 00000KT 1 3/4SM BR CLR 02/02 A3032 RMK AO2 VIS 1/2V5 FZRANO=
202311090456 METAR KPWT 090456Z AUTO 00000KT 10SM CLR 02/02 A3032 RMK AO2 SLP274 T00220022 FZRANO=
202311090356 METAR KPWT 090356Z AUTO 00000KT 10SM CLR 03/03 A3034 RMK AO2 SLP280 T00280028=
202311090339 SPECI KPWT 090339Z AUTO 00000KT 3SM BR CLR 04/04 A3034 RMK AO2=
202311090328 SPECI KPWT 090328Z AUTO 00000KT 1 1/2SM BR CLR 04/04 A3035 RMK AO2=
202311090256 METAR KPWT 090256Z AUTO 00000KT 10SM CLR 03/03 A3036 RMK AO2 SLP287 T00330033 56015=
202311090156 METAR KPWT 090156Z AUTO 00000KT 3SM BR CLR 04/04 A3036 RMK AO2 SLP288 T00440044=
202311090056 METAR KPWT 090056Z AUTO 00000KT 10SM CLR 07/07 A3038 RMK AO2 SLP295 T00670067=
202311082356 METAR KPWT 082356Z AUTO 25003KT 10SM CLR 11/07 A3040 RMK AO2 SLP299 T01110067 10128 20056 56009=
202311082256 METAR KPWT 082256Z AUTO 00000KT 10SM CLR 12/07 A3041 RMK AO2 SLP303 T01170067=
202311082156 METAR KPWT 082156Z AUTO 23004KT 10SM CLR 12/07 A3042 RMK AO2 SLP305 T01170067=
202311082056 METAR KPWT 082056Z AUTO 16003KT 10SM CLR 09/07 A3043 RMK AO2 SLP308 T00940067 58014=
202311082014 SPECI KPWT 082014Z AUTO VRB03KT 10SM SCT004 08/07 A3045 RMK AO2=
202311081956 METAR KPWT 081956Z AUTO 18004KT 10SM OVC004 08/08 A3046 RMK AO2 SLP319 T00780078=
202311081937 SPECI KPWT 081937Z AUTO 18003KT 10SM OVC004 07/07 A3046 RMK AO2=
202311081856 METAR KPWT 081856Z AUTO 23003KT 10SM OVC002 07/07 A3047 RMK AO2 SLP323 T00670067=
202311081841 SPECI KPWT 081841Z AUTO VRB03KT 7SM OVC002 06/06 A3047 RMK AO2=
202311081824 SPECI KPWT 081824Z AUTO 22005KT 2SM BR OVC002 06/06 A3047 RMK AO2 VIS 1V5=
202311081819 SPECI KPWT 081819Z AUTO 22003KT 1SM BR OVC002 06/06 A3047 RMK AO2 VIS 1/2V4=
202311081804 SPECI KPWT 081804Z AUTO 00000KT 2SM BR OVC002 06/06 A3047 RMK AO2 VIS 1/2V5=
202311081801 SPECI KPWT 081801Z AUTO VRB03KT 1SM BR OVC002 06/06 A3047 RMK AO2 VIS 1/4V5=
202311081756 METAR KPWT 081756Z AUTO 00000KT 1/2SM FG OVC002 06/06 A3047 RMK AO2 SLP324 T00560056 10061 20028 51012=
202311081744 SPECI KPWT 081744Z AUTO 00000KT 1/4SM FG OVC002 06/06 A3047 RMK AO2=
202311081733 SPECI KPWT 081733Z AUTO 15004KT 1/2SM FG OVC002 06/06 A3047 RMK AO2=
202311081728 SPECI KPWT 081728Z AUTO 16003KT 1SM BR OVC002 06/06 A3046 RMK AO2=
202311081715 SPECI KPWT 081715Z AUTO 00000KT 2SM BR BKN002 06/06 A3047 RMK AO2 VIS 1 1/4V4=
202311081703 SPECI KPWT 081703Z AUTO 16003KT 1 3/4SM BR FEW002 06/06 A3047 RMK AO2=
202311081656 METAR KPWT 081656Z AUTO 00000KT 3SM BR FEW002 06/06 A3047 RMK AO2 SLP323 T00560056=
202311081645 SPECI KPWT 081645Z AUTO 00000KT 3SM BR CLR 05/05 A3046 RMK AO2=
202311081638 SPECI KPWT 081638Z AUTO 00000KT 1 1/4SM BR FEW002 05/05 A3046 RMK AO2 VIS 3/4V2 1/2=
202311081635 SPECI KPWT 081635Z AUTO 00000KT 3/4SM BR VV002 05/05 A3046 RMK AO2=
202311081556 METAR KPWT 081556Z AUTO 00000KT 1/4SM FG BKN002 03/03 A3045 RMK AO2 SLP320 T00330033=
202311081549 SPECI KPWT 081549Z AUTO 00000KT 1/4SM FG VV001 03/03 A3045 RMK AO2=
202311081542 SPECI KPWT 081542Z AUTO 00000KT M1/4SM FG CLR 03/03 A3045 RMK AO2=
202311081456 METAR KPWT 081456Z AUTO 00000KT 1/4SM FG BKN002 03/03 A3043 RMK AO2 SLP312 T00330033 51009=
202311081448 SPECI KPWT 081448Z AUTO 00000KT 1/2SM FG VV002 03/03 A3043 RMK AO2=
202311081443 SPECI KPWT 081443Z AUTO 36003KT 1SM BR VV002 03/03 A3043 RMK AO2=
202311081427 SPECI KPWT 081427Z AUTO 00000KT 1SM BR VV001 04/04 A3043 RMK AO2=
202311081356 METAR KPWT 081356Z AUTO 00000KT 1/2SM FG OVC002 04/04 A3043 RMK AO2 SLP311 T00440044=
202311081349 SPECI KPWT 081349Z AUTO 00000KT 1/2SM FG OVC002 04/04 A3043 RMK AO2=
202311081256 METAR KPWT 081256Z AUTO 00000KT 1/4SM FG OVC002 06/06 A3042 RMK AO2 SLP309 T00560056=
202311081156 METAR KPWT 081156Z AUTO 00000KT 1/4SM FG OVC002 06/06 A3040 RMK AO2 SLP301 7//// T00610061 10078 20061 52000=
202311081139 SPECI KPWT 081139Z AUTO 00000KT 1/2SM FG OVC002 06/06 A3040 RMK AO2=
202311081056 METAR KPWT 081056Z AUTO 00000KT 1/4SM FG OVC002 06/06 A3040 RMK AO2 SLP301 T00610061=
202311081046 SPECI KPWT 081046Z AUTO 00000KT 1/4SM FG OVC002 06/06 A3041 RMK AO2=
202311081039 SPECI KPWT 081039Z AUTO 25004KT 3/4SM BR BKN002 06/06 A3041 RMK AO2=
202311081032 SPECI KPWT 081032Z AUTO 00000KT 1 3/4SM BR BKN002 06/06 A3040 RMK AO2=
202311081028 SPECI KPWT 081028Z AUTO 00000KT 3SM BR BKN002 BKN018 06/06 A3040 RMK AO2=
202311081019 SPECI KPWT 081019Z AUTO 00000KT 7SM FEW002 SCT018 06/06 A3040 RMK AO2=
202311080956 METAR KPWT 080956Z AUTO 16003KT 10SM OVC016 07/07 A3040 RMK AO2 SLP301 T00670067=
202311080954 SPECI KPWT 080954Z AUTO 15003KT 10SM OVC016 07/07 A3040 RMK AO2=
202311080934 SPECI KPWT 080934Z AUTO 16003KT 10SM SCT009 OVC014 07/07 A3040 RMK AO2=
202311080903 SPECI KPWT 080903Z AUTO 00000KT 10SM BKN009 OVC018 07/07 A3039 RMK AO2=
202311080856 METAR KPWT 080856Z AUTO 00000KT 10SM SCT009 BKN015 BKN020 07/07 A3039 RMK AO2 SLP297 T00670067 51016=
202311080849 SPECI KPWT 080849Z AUTO 00000KT 10SM FEW009 SCT015 BKN020 07/07 A3039 RMK AO2=
202311080756 METAR KPWT 080756Z AUTO 00000KT 10SM BKN060 07/07 A3038 RMK AO2 SLP293 T00720072 401390072=
202311080738 SPECI KPWT 080738Z AUTO 00000KT 10SM FEW027 BKN060 07/07 A3037 RMK AO2=
202311080656 METAR KPWT 080656Z AUTO 00000KT 10SM BKN029 OVC060 08/07 A3036 RMK AO2 SLP286 T00780072=
202311080635 SPECI KPWT 080635Z AUTO 00000KT 10SM OVC029 08/07 A3035 RMK AO2=
202311080556 METAR KPWT 080556Z AUTO 00000KT 10SM OVC033 08/07 A3034 RMK AO2 SLP280 T00780072 10106 20072 53026=
202311080456 METAR KPWT 080456Z AUTO 06004KT 10SM SCT023 BKN055 08/07 A3032 RMK AO2 SLP271 T00780072=
202311080356 METAR KPWT 080356Z AUTO 05004KT 10SM SCT035 SCT050 07/06 A3028 RMK AO2 SLP260 T00720061=
202311080256 METAR KPWT 080256Z AUTO 08003KT 10SM FEW046 08/07 A3026 RMK AO2 SLP253 T00830067 53027=
202311080156 METAR KPWT 080156Z AUTO 06005KT 10SM OVC037 09/07 A3024 RMK AO2 SLP244 T00890072=
202311080056 METAR KPWT 080056Z AUTO 05006KT 10SM FEW040 09/07 A3021 RMK AO2 SLP233 T00890067=
202311072356 METAR KPWT 072356Z AUTO 06006KT 10SM SCT040 11/07 A3018 RMK AO2 SLP227 6//// T01060072 10139 20100 52027=
202311072256 METAR KPWT 072256Z AUTO 06007KT 10SM SCT033 11/07 A3016 RMK AO2 SLP217 T01110072=
202311072156 METAR KPWT 072156Z AUTO 07009KT 10SM SCT034 BKN050 12/08 A3013 RMK AO2 SLP208 T01170083=
202311072056 METAR KPWT 072056Z AUTO 08004KT 10SM FEW028 13/08 A3010 RMK AO2 SLP199 T01280078 51026=
202311072020 SPECI KPWT 072020Z AUTO 00000KT 10SM SCT023 13/08 A3009 RMK AO2=
202311071956 METAR KPWT 071956Z AUTO 00000KT 10SM OVC023 13/09 A3008 RMK AO2 SLP191 T01280089=
202311071856 METAR KPWT 071856Z AUTO 22006KT 10SM BKN015 11/08 A3006 RMK AO2 SLP183 T01060078=
202311071846 SPECI KPWT 071846Z AUTO 23005KT 10SM SCT011 11/08 A3005 RMK AO2=
202311071826 SPECI KPWT 071826Z AUTO 23005KT 10SM BKN011 11/09 A3004 RMK AO2=
202311071811 SPECI KPWT 071811Z AUTO 19005KT 10SM BKN009 10/09 A3003 RMK AO2 CIG 006V012=
202311071756 METAR KPWT 071756Z AUTO 19003KT 10SM FEW007 10/09 A3003 RMK AO2 SLP173 T01000094 10100 20089 53018=
202311071656 METAR KPWT 071656Z AUTO 21005KT 10SM FEW005 09/09 A3000 RMK AO2 SLP163 T00940094=
202311071652 SPECI KPWT 071652Z AUTO 20005KT 10SM SCT005 09/09 A2999 RMK AO2=
202311071636 SPECI KPWT 071636Z AUTO 19003KT 10SM BKN005 09/09 A2999 RMK AO2=
202311071556 METAR KPWT 071556Z AUTO 21004KT 7SM OVC003 09/09 A2997 RMK AO2 SLP154 T00890089=
202311071456 METAR KPWT 071456Z AUTO 23003KT 4SM BR OVC003 09/09 A2992 RMK AO2 SLP139 T00940094 53028=
202311071441 SPECI KPWT 071441Z AUTO 21004KT 4SM BR OVC003 09/09 A2991 RMK AO2 CIG 002V006=
202311071356 METAR KPWT 071356Z AUTO 21003KT 10SM BKN005 BKN019 09/09 A2988 RMK AO2 SLP122 T00890089=
202311071353 SPECI KPWT 071353Z AUTO 23003KT 10SM BKN005 BKN019 09/09 A2988 RMK AO2=
202311071318 SPECI KPWT 071318Z AUTO 20003KT 10SM SCT005 SCT012 OVC019 09/09 A2986 RMK AO2=
202311071303 SPECI KPWT 071303Z AUTO 19003KT 10SM BKN005 OVC012 09/09 A2984 RMK AO2=
202311071256 METAR KPWT 071256Z AUTO 00000KT 10SM SCT005 OVC012 09/09 A2984 RMK AO2 SLP110 T00940094=
202311071208 SPECI KPWT 071208Z AUTO 00000KT 10SM SCT005 OVC012 09/09 A2981 RMK AO2=
202311071156 METAR KPWT 071156Z AUTO 22003KT 10SM BKN005 BKN009 OVC012 09/ A2980 RMK AO2 RAE32 SLP098 P0000 60003 70051 T0094 10100 20094 53023=
202311071056 METAR KPWT 071056Z AUTO 19007KT 10SM -RA OVC005 09/09 A2977 RMK AO2 SLP088 P0001 T00940094=
202311071019 SPECI KPWT 071019Z AUTO 21005KT 10SM -RA OVC005 09/09 A2977 RMK AO2 P0000=
202311070956 METAR KPWT 070956Z AUTO 21007KT 10SM -RA OVC007 09/09 A2976 RMK AO2 CIG 004V009 SLP082 P0001 T00940094=
202311070856 METAR KPWT 070856Z AUTO 21010G16KT 10SM -RA BKN006 OVC010 10/10 A2973 RMK AO2 RAB39 CIG 004V007 SLP073 P0000 60001 T01000100 53023=
202311070821 SPECI KPWT 070821Z AUTO 21010KT 10SM OVC006 09/09 A2972 RMK AO2 CIG 005V010=
202311070756 METAR KPWT 070756Z AUTO 21010KT 10SM OVC004 09/09 A2971 RMK AO2 SLP065 T00940094 401060078=
202311070656 METAR KPWT 070656Z AUTO 21008KT 10SM OVC004 10/10 A2969 RMK AO2 RAE32 CIG 003V008 SLP058 P0001 T01000100=
202311070556 METAR KPWT 070556Z AUTO 20008KT 10SM -RA BKN004 BKN033 10/10 A2967 RMK AO2 SLP051 P0011 60026 T01000100 10100 20100 51015=
202311070456 METAR KPWT 070456Z AUTO 19009KT 8SM RA BKN004 OVC031 10/10 A2965 RMK AO2 RAB10 SLP047 P0011 T01000100=
202311070428 SPECI KPWT 070428Z AUTO 20007KT 10SM -RA BKN004 BKN016 OVC044 10/10 A2965 RMK AO2 RAB10 CIG 003V010 P0000=
202311070416 SPECI KPWT 070416Z AUTO 19006KT 9SM -RA SCT004 BKN008 BKN014 10/10 A2964 RMK AO2 RAB10 CIG 006V010 P0000=
202311070404 SPECI KPWT 070404Z AUTO 20007KT 10SM BKN004 BKN013 10/10 A2964 RMK AO2 CIG 003V009=
202311070356 METAR KPWT 070356Z AUTO 18008KT 10SM SCT004 BKN013 10/10 A2964 RMK AO2 RAE21B39E55 SLP041 P0001 T01000100=
202311070256 METAR KPWT 070256Z AUTO 19007KT 10SM -RA OVC004 10/10 A2962 RMK AO2 RAE08B26 SLP035 P0001 60003 T01000100 51013=
202311070212 SPECI KPWT 070212Z AUTO 20007KT 10SM OVC004 10/10 A2961 RMK AO2 RAE08 CIG 003V008 P0000=
202311070156 METAR KPWT 070156Z AUTO 20006KT 10SM -RA BKN006 BKN010 OVC024 10/10 A2960 RMK AO2 RAB34 CIG 004V008 SLP029 P0001 T01000100=
202311070153 SPECI KPWT 070153Z AUTO 20005KT 10SM -RA BKN008 BKN015 OVC027 10/10 A2960 RMK AO2 RAB34 CIG 004V012 P0001=
202311070114 SPECI KPWT 070114Z AUTO 19003KT 10SM FEW003 BKN026 OVC047 10/10 A2959 RMK AO2=
202311070105 SPECI KPWT 070105Z AUTO 18003KT 10SM SCT003 BKN011 OVC047 10/10 A2959 RMK AO2 CIG 008V011=
202311070056 METAR KPWT 070056Z AUTO 19003KT 10SM BKN003 OVC011 10/10 A2958 RMK AO2 RAE51 SLP022 P0001 T01000100=
202311070033 SPECI KPWT 070033Z AUTO 00000KT 10SM -RA OVC003 10/10 A2957 RMK AO2 P0001=
202311070019 SPECI KPWT 070019Z AUTO 23004KT 10SM -RA BKN005 OVC009 10/10 A2957 RMK AO2 CIG 003V007 P0000=
202311062356 METAR KPWT 062356Z AUTO 23006KT 9SM -RA OVC009 10/10 A2957 RMK AO2 CIG 006V013 SLP017 P0002 60011 T01000100 10106 20094 53008=
202311062324 SPECI KPWT 062324Z AUTO 00000KT 10SM -RA FEW006 BKN013 OVC018 10/10 A2956 RMK AO2 P0000=
202311062303 SPECI KPWT 062303Z AUTO 20004KT 10SM -RA FEW006 SCT012 BKN018 10/10 A2955 RMK AO2 P0000=
202311062256 METAR KPWT 062256Z AUTO 20003KT 8SM -RA FEW006 SCT014 BKN041 10/10 A2955 RMK AO2 SLP012 P0002 T01000100=
202311062156 METAR KPWT 062156Z AUTO 22006KT 10SM -RA SCT006 11/11 A2954 RMK AO2 SLP007 P0003 T01060106=
202311062129 SPECI KPWT 062129Z AUTO 21007KT 10SM -RA BKN008 BKN014 BKN035 11/11 A2954 RMK AO2 CIG 005V011 P0002=
202311062107 SPECI KPWT 062107Z AUTO 20006KT 10SM -RA SCT008 BKN013 OVC023 11/11 A2954 RMK AO2 P0001=
202311062056 METAR KPWT 062056Z AUTO 19009KT 10SM -RA SCT008 BKN015 OVC046 11/11 A2954 RMK AO2 SLP009 P0001 60004 T01060106 50004=
202311062008 SPECI KPWT 062008Z AUTO 20010KT 10SM -RA SCT007 SCT015 11/11 A2954 RMK AO2 P0000=
202311061956 METAR KPWT 061956Z AUTO 19009KT 10SM -RA BKN007 BKN015 OVC027 10/10 A2955 RMK AO2 CIG 006V011 SLP010 P0001 T01000100=
202311061856 METAR KPWT 061856Z AUTO 19007KT 10SM -RA BKN007 OVC011 10/10 A2954 RMK AO2 CIG 005V009 SLP007 P0002 T01000100=
202311061845 SPECI KPWT 061845Z AUTO 19007KT 10SM -RA BKN007 BKN012 OVC017 10/10 A2953 RMK AO2 CIG 005V009 P0001=
202311061842 SPECI KPWT 061842Z AUTO 19008KT 10SM -RA BKN010 OVC017 10/10 A2954 RMK AO2 CIG 006V012 P0001=
202311061756 METAR KPWT 061756Z AUTO 00000KT 8SM -RA OVC024 09/09 A2953 RMK AO2 SLP005 P0007 60011 T00940094 10094 20078 51002=
202311061734 SPECI KPWT 061734Z AUTO 00000KT 6SM -RA BR BKN028 OVC034 09/09 A2953 RMK AO2 P0005=
202311061656 METAR KPWT 061656Z AUTO 00000KT 10SM -RA BKN036 OVC044 09/09 A2953 RMK AO2 SLP005 P0001 T00940094=
202311061556 METAR KPWT 061556Z AUTO 00000KT 10SM -RA CLR 09/09 A2953 RMK AO2 RAB20 SLP006 P0000 T00890089=
202311061456 METAR KPWT 061456Z AUTO 20003KT 10SM SCT030 SCT055 09/09 A2953 RMK AO2 RAB01E32 SLP003 P0003 60003 T00890089 56013=
202311061356 METAR KPWT 061356Z AUTO 00000KT 10SM BKN045 BKN055 08/08 A2953 RMK AO2 RAB40E51 SLP005 P0000 T00830083=
202311061309 SPECI KPWT 061309Z AUTO 00000KT 3SM BR SCT060 SCT075 08/08 A2955 RMK AO2=
202311061302 SPECI KPWT 061302Z AUTO 00000KT 1 3/4SM BR FEW060 08/08 A2954 RMK AO2=
202311061256 METAR KPWT 061256Z AUTO 00000KT 7SM FEW060 08/08 A2955 RMK AO2 SLP010 T00830083=
202311061241 SPECI KPWT 061241Z AUTO 00000KT 3SM BR FEW075 08/08 A2955 RMK AO2=
202311061237 SPECI KPWT 061237Z AUTO 00000KT 1 1/4SM BR FEW070 08/08 A2955 RMK AO2=
202311061225 SPECI KPWT 061225Z AUTO 00000KT 3/4SM BR FEW070 08/08 A2955 RMK AO2=
202311061219 SPECI KPWT 061219Z AUTO 00000KT 1 3/4SM BR FEW055 SCT070 08/08 A2955 RMK AO2 VIS 3/4V4=
202311061212 SPECI KPWT 061212Z AUTO 00000KT 4SM BR FEW060 SCT070 08/08 A2956 RMK AO2=
202311061204 SPECI KPWT 061204Z AUTO 00000KT 2SM BR FEW060 08/08 A2956 RMK AO2=
202311061156 METAR KPWT 061156Z AUTO 00000KT 1SM BR FEW060 08/08 A2956 RMK AO2 SLP017 60010 70094 T00830083 10106 20083 56018=
202311061148 SPECI KPWT 061148Z AUTO 00000KT 3/4SM BR FEW060 08/08 A2957 RMK AO2=
202311061142 SPECI KPWT 061142Z AUTO 00000KT 1 3/4SM BR CLR 09/09 A2957 RMK AO2 VIS 3/4V5=
202311061056 METAR KPWT 061056Z AUTO 30003KT 10SM SCT031 SCT049 09/09 A2958 RMK AO2 RAE46 SLP022 P0002 T00940094=
202311060956 METAR KPWT 060956Z AUTO 18005KT 10SM -RA BKN031 BKN037 10/10 A2960 RMK AO2 RAB12 SLP027 P0004 T01000100=
202311060856 METAR KPWT 060856Z AUTO 00000KT 10SM OVC040 10/10 A2962 RMK AO2 RAE11 SLP034 P0000 60004 T01000100 56015=
202311060756 METAR KPWT 060756Z AUTO 19003KT 10SM -RA OVC038 10/10 A2963 RMK AO2 SLP037 P0002 T01000100 401500094=
202311060729 SPECI KPWT 060729Z AUTO 00000KT 10SM -RA FEW023 OVC031 10/10 A2964 RMK AO2 P0001=
202311060656 METAR KPWT 060656Z AUTO 00000KT 10SM -RA OVC025 10/10 A2965 RMK AO2 SLP044 P0002 T01000100=
202311060556 METAR KPWT 060556Z AUTO 19004KT 9SM -RA OVC027 11/11 A2966 RMK AO2 SLP049 P0001 60071 T01060106 10117 20106 56012=
202311060514 SPECI KPWT 060514Z AUTO 16004KT 10SM -RA FEW004 SCT020 OVC027 11/11 A2967 RMK AO2 P0001=
202311060456 METAR KPWT 060456Z AUTO 19003KT 10SM -RA BKN007 BKN021 11/11 A2967 RMK AO2 CIG 004V011 SLP051 P0018 T01060106=
202311060441 SPECI KPWT 060441Z AUTO 16004KT 7SM -RA OVC007 11/11 A2967 RMK AO2 CIG 004V012 P0018=
202311060404 SPECI KPWT 060404Z AUTO 19004KT 6SM +RA BR SCT005 BKN010 OVC020 11/11 A2968 RMK AO2 CIG 007V014 P0004=
202311060356 METAR KPWT 060356Z AUTO 26006KT 6SM RA BR BKN005 BKN013 OVC020 11/11 A2969 RMK AO2 CIG 003V008 SLP057 P0018 T01060106=
202311060320 SPECI KPWT 060320Z AUTO VRB04KT 6SM RA BR SCT004 BKN020 OVC025 11/11 A2969 RMK AO2 P0006=
202311060303 SPECI KPWT 060303Z AUTO VRB03KT 4SM RA BR BKN004 BKN019 OVC055 11/11 A2970 RMK AO2 CIG 003V007 P0003=
202311060256 METAR KPWT 060256Z AUTO 19004KT 6SM RA BR BKN006 BKN012 OVC050 11/11 A2970 RMK AO2 CIG 003V007 SLP062 P0004 60034 T01110111 58008=
202311060249 SPECI KPWT 060249Z AUTO 17003KT 10SM -RA SCT006 BKN012 OVC050 11/11 A2970 RMK AO2 P0003=
202311060241 SPECI KPWT 060241Z AUTO VRB03KT 10SM -RA FEW006 BKN044 OVC055 11/11 A2970 RMK AO2 P0003=
202311060235 SPECI KPWT 060235Z AUTO 00000KT 10SM BKN013 BKN044 OVC055 11/11 A2970 RMK AO2 RAE33 P0003=
202311060214 SPECI KPWT 060214Z AUTO 18005KT 10SM -RA FEW007 BKN033 OVC055 11/11 A2970 RMK AO2 P0002=
202311060204 SPECI KPWT 060204Z AUTO VRB04KT 5SM RA BR SCT007 BKN016 OVC038 11/11 A2971 RMK AO2 P0002=
202311060156 METAR KPWT 060156Z AUTO 16005KT 6SM RA BR FEW009 BKN030 OVC038 11/11 A2971 RMK AO2 SLP065 P0019 T01110111=
202311060145 SPECI KPWT 060145Z AUTO 18005KT 5SM RA BR FEW007 BKN017 OVC039 11/11 A2971 RMK AO2 P0017=
202311060109 SPECI KPWT 060109Z AUTO 18005KT 8SM RA FEW007 SCT013 OVC033 12/12 A2972 RMK AO2 P0003=
202311060056 METAR KPWT 060056Z AUTO 20004KT 6SM RA BR BKN009 OVC015 12/12 A2972 RMK AO2 CIG 006V010 SLP068 P0011 T01170117=
202311060044 SPECI KPWT 060044Z AUTO 25004KT 5SM RA BR BKN009 BKN017 OVC050 12/12 A2972 RMK AO2 CIG 006V013 P0007=
202311060032 SPECI KPWT 060032Z AUTO 26005KT 7SM RA FEW009 SCT019 BKN029 12/12 A2972 RMK AO2 P0002=
202311052356 METAR KPWT 052356Z AUTO 00000KT 7SM -RA FEW031 BKN041 OVC050 12/12 A2972 RMK AO2 SLP070 P0009 60012 T01170117 10150 20111 56020=
202311052256 METAR KPWT 052256Z AUTO 00000KT 5SM RA BR FEW027 BKN035 OVC045 12/12 A2974 RMK AO2 SLP076 P0003 T01220122=
202311052156 METAR KPWT 052156Z AUTO 00000KT 10SM -RA FEW060 13/11 A2976 RMK AO2 RAE16B33 SLP082 P0000 T01330111=
202311052056 METAR KPWT 052056Z AUTO 18004KT 10SM -RA FEW019 13/11 A2978 RMK AO2 RAB47 SLP089 P0000 60000 T01330111 58020=
202311052020 SPECI KPWT 052020Z AUTO 19009G16KT 10SM SCT021 14/11 A2980 RMK AO2=
202311051956 METAR KPWT 051956Z AUTO 20012G21KT 10SM BKN021 14/11 A2981 RMK AO2 SLP099 T01440111=
202311051940 SPECI KPWT 051940Z AUTO 20008KT 10SM BKN019 14/11 A2982 RMK AO2=
202311051856 METAR KPWT 051856Z AUTO 21011KT 10SM FEW017 12/11 A2984 RMK AO2 SLP108 T01220111=
202311051756 METAR KPWT 051756Z AUTO 21006KT 10SM FEW006 11/11 A2985 RMK AO2 SLP111 60001 T01110111 10111 20094 58006=
202311051703 SPECI KPWT 051703Z AUTO 22006KT 10SM FEW008 11/11 A2986 RMK AO2=
202311051656 METAR KPWT 051656Z AUTO 21005KT 10SM FEW036 11/11 A2986 RMK AO2 SLP116 T01060106=
202311051556 METAR KPWT 051556Z AUTO 21004KT 10SM FEW034 SCT044 BKN055 10/10 A2986 RMK AO2 RAB14E47 SLP117 P0001 T01000100=
202311051456 METAR KPWT 051456Z AUTO 22006KT 10SM SCT005 SCT030 BKN036 10/10 A2986 RMK AO2 RAB11E30 SLP117 P0000 60000 T01000100 51002=
202311051416 SPECI KPWT 051416Z AUTO 23006KT 10SM -RA BKN005 BKN040 BKN050 10/10 A2986 RMK AO2 RAB11 P0000=
202311051356 METAR KPWT 051356Z AUTO 21006KT 10SM SCT005 SCT028 BKN040 10/10 A2986 RMK AO2 RAB34E52 SLP117 P0000 T01000100=
202311051256 METAR KPWT 051256Z AUTO 18005KT 10SM OVC005 10/10 A2987 RMK AO2 SLP118 T01000100=
202311051229 SPECI KPWT 051229Z AUTO 19008KT 10SM BKN005 10/10 A2986 RMK AO2=
202311051156 METAR KPWT 051156Z AUTO 18005KT 10SM FEW005 10/10 A2986 RMK AO2 SLP114 70082 T01000100 10117 20100 58002=
202311051145 SPECI KPWT 051145Z AUTO 18005KT 10SM SCT005 10/10 A2986 RMK AO2=
202311051126 SPECI KPWT 051126Z AUTO 17004KT 10SM BKN005 10/10 A2987 RMK AO2=
202311051056 METAR KPWT 051056Z AUTO 18005KT 10SM BKN003 BKN029 10/10 A2987 RMK AO2 SLP119 T01000100=
202311051031 SPECI KPWT 051031Z AUTO 18005KT 10SM FEW003 SCT021 BKN027 11/11 A2987 RMK AO2=
202311050956 METAR KPWT 050956Z AUTO 18006KT 10SM FEW019 SCT060 11/11 A2986 RMK AO2 SLP116 T01060106=
202311050916 SPECI KPWT 050916Z AUTO 18006KT 9SM FEW004 SCT012 11/11 A2986 RMK AO2=
202311050856 METAR KPWT 050856Z AUTO 18006KT 10SM BKN012 11/11 A2986 RMK AO2 SLP116 T01110111 53007=
202311050827 SPECI KPWT 050827Z AUTO 18007KT 10SM FEW005 OVC010 11/11 A2986 RMK AO2=
202311050803 SPECI KPWT 050803Z AUTO 19007KT 9SM OVC007 11/11 A2985 RMK AO2 CIG 003V010=
202311050756 METAR KPWT 050756Z AUTO 19007KT 9SM BKN005 OVC009 11/11 A2985 RMK AO2 CIG 003V008 SLP111 T01110111 401560111=
202311050753 SPECI KPWT 050753Z AUTO 20009KT 9SM BKN005 OVC009 11/11 A2985 RMK AO2 CIG 003V008 401560111=
202311050730 SPECI KPWT 050730Z AUTO 20006KT 7SM OVC003 11/11 A2986 RMK AO2 CIG 003V007=
202311050706 SPECI KPWT 050706Z AUTO 19008KT 8SM BKN005 11/11 A2985 RMK AO2=
202311050656 METAR KPWT 050656Z AUTO 21009KT 9SM FEW007 11/11 A2984 RMK AO2 SLP109 T01110111=
202311050649 SPECI KPWT 050649Z AUTO 20010G17KT 9SM SCT007 11/11 A2984 RMK AO2=
202311050556 METAR KPWT 050556Z AUTO 19012G20KT 9SM BKN007 11/11 A2984 RMK AO2 SLP107 60000 T01110111 10144 20111 53006=
202311050516 SPECI KPWT 050516Z AUTO 20012KT 10SM OVC009 12/12 A2983 RMK AO2 CIG 007V012=
202311050456 METAR KPWT 050456Z AUTO 20011KT 10SM BKN011 12/12 A2983 RMK AO2 SLP104 T01170117=
202311050433 SPECI KPWT 050433Z AUTO 21009KT 10SM BKN011 12/12 A2982 RMK AO2=
202311050356 METAR KPWT 050356Z AUTO 20010G17KT 10SM BKN009 BKN055 12/12 A2982 RMK AO2 RAB12E34 CIG 006V012 SLP100 P0000 T01170117=
202311050344 SPECI KPWT 050344Z AUTO 19009KT 10SM BKN009 BKN050 12/12 A2981 RMK AO2 RAB12E34 CIG 006V015 P0000=
202311050331 SPECI KPWT 050331Z AUTO 20010KT 10SM -RA SCT011 OVC050 12/12 A2982 RMK AO2 RAB12 P0000=
202311050256 METAR KPWT 050256Z AUTO 20010KT 10SM BKN013 12/12 A2982 RMK AO2 SLP100 T01220122 51015=
202311050235 SPECI KPWT 050235Z AUTO 20009KT 10SM BKN013 OVC020 12/12 A2982 RMK AO2=
202311050156 METAR KPWT 050156Z AUTO 20009KT 10SM SCT013 BKN020 BKN028 12/12 A2981 RMK AO2 SLP096 T01220122=
202311050129 SPECI KPWT 050129Z AUTO 20009G15KT 10SM SCT021 BKN028 13/12 A2980 RMK AO2=
202311050056 METAR KPWT 050056Z AUTO 20010KT 10SM FEW018 13/12 A2979 RMK AO2 SLP091 T01280122=
202311050012 SPECI KPWT 050012Z AUTO 21013KT 10SM FEW020 14/12 A2978 RMK AO2=
202311042356 METAR KPWT 042356Z AUTO 20013G20KT 10SM BKN020 14/12 A2977 RMK AO2 SLP084 60001 T01440122 10156 20139 53008=
202311042332 SPECI KPWT 042332Z AUTO 21012KT 10SM BKN018 BKN023 14/13 A2977 RMK AO2=
202311042256 METAR KPWT 042256Z AUTO 21010G19KT 10SM FEW020 14/13 A2976 RMK AO2 SLP081 T01440128=
202311042156 METAR KPWT 042156Z AUTO 22015G22KT 10SM CLR 14/13 A2975 RMK AO2 RAE15 SLP076 P0000 T01440133=
202311042114 SPECI KPWT 042114Z AUTO 20016G23KT 10SM -RA FEW009 SCT029 BKN055 14/14 A2975 RMK AO2 P0000=
202311042056 METAR KPWT 042056Z AUTO 22018G21KT 5SM -RA BR FEW010 BKN016 OVC021 14/14 A2975 RMK AO2 PK WND 22026/2002 RAB29 SLP078 P0001 60001 T01440144 51013=
202311042053 SPECI KPWT 042053Z AUTO 23016KT 6SM -RA BR BKN016 OVC021 14/14 A2975 RMK AO2 PK WND 22026/2002 RAB29 P0001=
202311042026 SPECI KPWT 042026Z AUTO 23016G25KT 6SM BR BKN014 BKN021 15/14 A2975 RMK AO2 PK WND 22026/2002=
202311041956 METAR KPWT 041956Z AUTO 21020G23KT 10SM BKN016 16/14 A2973 RMK AO2 PK WND 22028/1941 SLP071 T01560139=
202311041914 SPECI KPWT 041914Z AUTO 21015G28KT 10SM BKN014 BKN019 15/14 A2972 RMK AO2 PK WND 23028/1905=
202311041856 METAR KPWT 041856Z AUTO 22020G26KT 10SM SCT014 15/14 A2971 RMK AO2 PK WND 22027/1845 SLP064 T01500144=
202311041844 SPECI KPWT 041844Z AUTO 23018G26KT 10SM SCT010 BKN015 15/14 A2971 RMK AO2 PK WND 22026/1842=
202311041827 SPECI KPWT 041827Z AUTO 23019G26KT 10SM BKN009 OVC014 15/15 A2971 RMK AO2 PK WND 24026/1825 CIG 007V011=
202311041809 SPECI KPWT 041809Z AUTO 23018G21KT 10SM SCT010 BKN014 15/15 A2970 RMK AO2=
202311041756 METAR KPWT 041756Z AUTO 22014G21KT 10SM FEW017 15/15 A2970 RMK AO2 RAE33 SLP060 P0001 60081 T01500150 10156 20139 50000=
202311041738 SPECI KPWT 041738Z AUTO 22016KT 10SM FEW008 SCT014 SCT041 14/14 A2970 RMK AO2 LTG DSNT NE AND E RAE33 P0001=
202311041718 SPECI KPWT 041718Z AUTO 23017G25KT 6SM -RA BR SCT006 BKN012 OVC042 15/15 A2970 RMK AO2 LTG DSNT NE AND E P0001=
202311041705 SPECI KPWT 041705Z AUTO 23014G17KT 3SM -RA BR BKN004 OVC009 15/15 A2971 RMK AO2 CIG 003V008 P0001=
202311041656 METAR KPWT 041656Z AUTO 24008KT 2 1/2SM RA BR OVC004 15/15 A2970 RMK AO2 VIS 1 3/4V5 TSB06E21 CIG 003V008 SLP061 P0033 T01500150=
202311041654 SPECI KPWT 041654Z AUTO 24011KT 2SM +RA BR OVC004 15/15 A2971 RMK AO2 VIS 1 1/2V5 TSB06E21 CIG 003V007 P0033=
202311041627 SPECI KPWT 041627Z AUTO 19011KT 9SM -RA BKN004 BKN008 OVC031 15/15 A2969 RMK AO2 LTG DSNT E TSB06E21 P0004=
202311041611 SPECI KPWT 041611Z AUTO 20008KT 10SM -TSRA BKN004 BKN008 BKN032 15/15 A2970 RMK AO2 LTG DSNT E AND SE TSB06 P0001=
202311041602 SPECI KPWT 041602Z AUTO 20010G17KT 8SM RA BKN006 BKN017 15/15 A2970 RMK AO2 LTG DSNT E CIG 004V007 P0001=
202311041556 METAR KPWT 041556Z AUTO 19009G17KT 10SM -RA SCT006 SCT019 BKN040 15/15 A2970 RMK AO2 RAE26B50 SLP059 P0001 T01500150=
202311041545 SPECI KPWT 041545Z AUTO 19010G16KT 10SM FEW004 SCT021 SCT055 15/15 A2969 RMK AO2 RAE26 P0001=
202311041456 METAR KPWT 041456Z AUTO 21012KT 6SM -RA BR OVC004 15/15 A2972 RMK AO2 CIG 003V008 SLP066 P0030 60046 T01500150 55004=
202311041441 SPECI KPWT 041441Z AUTO 22016G21KT 4SM RA BR BKN004 OVC010 15/15 A2971 RMK AO2 CIG 003V008 P0028=
202311041356 METAR KPWT 041356Z AUTO 19011G18KT 6SM RA BR OVC006 15/15 A2969 RMK AO2 CIG 004V009 SLP057 P0012 T01500150=
202311041345 SPECI KPWT 041345Z AUTO 19011G17KT 8SM RA OVC006 15/15 A2969 RMK AO2 P0006=
202311041256 METAR KPWT 041256Z AUTO 18007KT 9SM RA BKN004 BKN010 BKN037 14/14 A2971 RMK AO2 RAB21 CIG 003V008 SLP065 P0004 T01440144=
202311041156 METAR KPWT 041156Z AUTO 18010KT 10SM BKN004 OVC011 14/14 A2973 RMK AO2 SLP070 60034 70087 T01390139 10139 20106 56026=
202311041056 METAR KPWT 041056Z AUTO 19007KT 10SM BKN004 OVC007 14/14 A2974 RMK AO2 RAE41 SLP076 P0002 T01390139=
202311040956 METAR KPWT 040956Z AUTO 18007KT 10SM -RA OVC004 13/13 A2977 RMK AO2 SLP085 P0007 T01330133=
202311040856 METAR KPWT 040856Z AUTO 22005KT 10SM -RA OVC004 12/12 A2981 RMK AO2 SLP096 P0006 60025 T01220122 58012=
202311040756 METAR KPWT 040756Z AUTO 19005KT 9SM -RA OVC004 12/12 A2982 RMK AO2 SLP102 P0008 T01170117 401330094=
202311040743 SPECI KPWT 040743Z AUTO 17003KT 7SM -RA OVC004 11/11 A2982 RMK AO2 P0007=
202311040656 METAR KPWT 040656Z AUTO 00000KT 7SM -RA BKN006 OVC011 11/11 A2983 RMK AO2 CIG 002V010 SLP107 P0011 T01060106=
202311040556 METAR KPWT 040556Z AUTO 00000KT 4SM -RA BR OVC006 11/11 A2984 RMK AO2 CIG 003V009 SLP109 P0019 60053 T01060106 10117 20106 56025=
202311040515 SPECI KPWT 040515Z AUTO 00000KT 4SM RA BR BKN008 OVC017 11/11 A2984 RMK AO2 CIG 006V011 P0008=
202311040456 METAR KPWT 040456Z AUTO 27003KT 4SM RA BR BKN019 OVC024 11/11 A2985 RMK AO2 SLP112 P0024 T01060106=
202311040425 SPECI KPWT 040425Z AUTO 00000KT 4SM RA BR OVC029 11/11 A2985 RMK AO2 P0012=
202311040356 METAR KPWT 040356Z AUTO 00000KT 6SM RA BR BKN033 11/11 A2987 RMK AO2 SLP120 P0006 T01060106=
202311040256 METAR KPWT 040256Z AUTO 00000KT 8SM -RA BKN036 11/11 A2992 RMK AO2 RAB0157 SLP136 P0004 60004 T01060106 56037=
202311040156 METAR KPWT 040156Z AUTO 00000KT 10SM FEW038 BKN100 11/11 A2995 RMK AO2 SLP146 T01060106=
202311040056 METAR KPWT 040056Z AUTO 03003KT 10SM SCT040 BKN120 11/11 A2998 RMK AO2 SLP157 T01110111=
202311032356 METAR KPWT 032356Z AUTO 00000KT 10SM CLR 12/11 A3003 RMK AO2 RAB09E25 SLP173 P0000 60000 T01170111 10133 20106 57022=
202311032256 METAR KPWT 032256Z AUTO 08004KT 10SM CLR 12/11 A3005 RMK AO2 SLP179 T01220111=
202311032156 METAR KPWT 032156Z AUTO 00000KT 10SM CLR 13/11 A3007 RMK AO2 SLP188 T01280111=
202311032056 METAR KPWT 032056Z AUTO 00000KT 10SM CLR 13/11 A3009 RMK AO2 SLP194 T01280106 58025=
202311031956 METAR KPWT 031956Z AUTO 00000KT 10SM CLR 13/11 A3013 RMK AO2 SLP207 T01280111=
202311031856 METAR KPWT 031856Z AUTO 00000KT 10SM CLR 12/11 A3016 RMK AO2 SLP217 T01170106=
202311031846 SPECI KPWT 031846Z AUTO 00000KT 10SM FEW008 11/10 A3016 RMK AO2=
202311031805 SPECI KPWT 031805Z AUTO 00000KT 10SM OVC008 11/10 A3017 RMK AO2 CIG 005V010=
202311031756 METAR KPWT 031756Z AUTO 00000KT 10SM FEW002 OVC010 11/11 A3017 RMK AO2 CIG 005V010 SLP220 T01110106 10111 20094 51000=
202311031753 SPECI KPWT 031753Z AUTO 00000KT 10SM SCT002 OVC010 11/11 A3017 RMK AO2 CIG 005V010=
202311031729 SPECI KPWT 031729Z AUTO 00000KT 4SM BR OVC002 10/10 A3018 RMK AO2=
202311031711 SPECI KPWT 031711Z AUTO 23003KT 1 3/4SM BR OVC002 10/10 A3017 RMK AO2 VIS 3/4V5=
202311031656 METAR KPWT 031656Z AUTO 22003KT 5SM BR OVC002 10/10 A3017 RMK AO2 SLP222 T01000100=
202311031609 SPECI KPWT 031609Z AUTO 22003KT 10SM BKN002 OVC012 10/10 A3017 RMK AO2=
202311031556 METAR KPWT 031556Z AUTO 00000KT 10SM FEW002 OVC012 10/10 A3017 RMK AO2 SLP220 T01000100=
202311031456 METAR KPWT 031456Z AUTO 00000KT 8SM SCT003 BKN012 09/09 A3015 RMK AO2 SLP216 T00940094 55002=
202311031453 SPECI KPWT 031453Z AUTO 00000KT 7SM SCT003 BKN012 09/09 A3015 RMK AO2=
202311031356 METAR KPWT 031356Z AUTO 00000KT 10SM BKN003 OVC009 10/10 A3016 RMK AO2 SLP218 T01000100=
202311031314 SPECI KPWT 031314Z AUTO 00000KT 10SM OVC009 09/09 A3017 RMK AO2 CIG 007V011=
202311031256 METAR KPWT 031256Z AUTO 00000KT 10SM BKN011 OVC017 09/09 A3017 RMK AO2 SLP220 T00940094=
202311031214 SPECI KPWT 031214Z AUTO 00000KT 10SM OVC013 10/10 A3016 RMK AO2=
202311031156 METAR KPWT 031156Z AUTO 00000KT 10SM OVC015 10/10 A3016 RMK AO2 SLPNO 7//// T01000100 10106 20094 51012=
202311031146 SPECI KPWT 031146Z AUTO 00000KT 10SM SCT008 OVC015 10/10 A3016 RMK AO2=
202311031056 METAR KPWT 031056Z AUTO 20003KT 10SM OVC008 10/10 A3015 RMK AO2 SLPNO T01000100=
202311031034 SPECI KPWT 031034Z AUTO 19003KT 10SM BKN008 10/10 A3015 RMK AO2=
202311031025 SPECI KPWT 031025Z AUTO 18005KT 10SM SCT006 09/09 A3014 RMK AO2=
202311030956 METAR KPWT 030956Z AUTO 19004KT 10SM OVC006 10/10 A3014 RMK AO2 SLP210 T01000100=
202311030910 SPECI KPWT 030910Z AUTO 21008KT 10SM BKN008 10/10 A3012 RMK AO2=
202311030856 METAR KPWT 030856Z AUTO 20009KT 10SM SCT008 10/10 A3012 RMK AO2 SLP204 T01000100 51006=
202311030854 SPECI KPWT 030854Z AUTO 20008KT 10SM SCT008 10/10 A3012 RMK AO2=
202311030756 METAR KPWT 030756Z AUTO 20010KT 10SM CLR 10/10 A3011 RMK AO2 SLP200 T01000100 401610089=
202311030707 SPECI KPWT 030707Z AUTO 21012KT 10SM FEW007 10/10 A3010 RMK AO2=
202311030656 METAR KPWT 030656Z AUTO 22015KT 10SM CLR 11/11 A3011 RMK AO2 SLP198 T01060106=
202311030556 METAR KPWT 030556Z AUTO 23011KT 10SM FEW012 SCT045 11/11 A3011 RMK AO2 SLP199 6//// T01060106 10128 20106 53006=
202311030548 SPECI KPWT 030548Z AUTO 22008KT 10SM SCT012 11/11 A3011 RMK AO2=
202311030537 SPECI KPWT 030537Z AUTO 21007KT 10SM FEW005 BKN012 11/11 A3010 RMK AO2=
202311030509 SPECI KPWT 030509Z AUTO 21013KT 10SM SCT005 SCT010 11/11 A3009 RMK AO2=
202311030456 METAR KPWT 030456Z AUTO 20011KT 10SM SCT005 BKN010 11/11 A3009 RMK AO2 CIG 009V013 SLP193 T01110111=
202311030446 SPECI KPWT 030446Z AUTO 20011KT 10SM SCT012 11/11 A3009 RMK AO2=
202311030434 SPECI KPWT 030434Z AUTO 20012KT 10SM BKN012 11/11 A3008 RMK AO2=
202311030356 METAR KPWT 030356Z AUTO 20013KT 10SM FEW032 BKN065 12/12 A3009 RMK AO2 SLP193 T01170117=
202311030333 SPECI KPWT 030333Z AUTO 20013KT 10SM FEW007 BKN032 BKN044 12/12 A3009 RMK AO2=
202311030325 SPECI KPWT 030325Z AUTO 19014G18KT 10SM FEW007 BKN011 BKN030 12/12 A3008 RMK AO2 CIG 008V012=
202311030310 SPECI KPWT 030310Z AUTO 18011KT 10SM BKN007 BKN012 OVC030 12/12 A3008 RMK AO2 CIG 005V010=
202311030256 METAR KPWT 030256Z AUTO 19008KT 10SM BKN010 12/12 A3008 RMK AO2 CIG 007V013 SLP189 6//// T01220122=
202311030247 SPECI KPWT 030247Z AUTO 18007KT 10SM BKN012 12/12 A3007 RMK AO2=
202311030236 SPECI KPWT 030236Z AUTO 19009KT 10SM SCT012 12/12 A3006 RMK AO2=
202311030220 SPECI KPWT 030220Z AUTO 20011KT 10SM BKN012 12/12 A3005 RMK AO2=
202311030156 METAR KPWT 030156Z AUTO 20011KT 10SM FEW012 BKN055 13/12 A3003 RMK AO2 SLP173 T01280122=
202311030056 METAR KPWT 030056Z AUTO 20015G19KT 10SM OVC012 13/12 A3000 RMK AO2 SLP161 T01280122=
202311030046 SPECI KPWT 030046Z AUTO 20013KT 10SM BKN012 BKN065 13/12 A2999 RMK AO2=
202311022356 METAR KPWT 022356Z AUTO RMK AO2 SLPNO 6//// PWINO FZRANO $=
202311022256 METAR KPWT 022256Z AUTO RMK AO2 SLPNO PWINO FZRANO $=
202311022156 METAR KPWT 022156Z AUTO 20016G23KT 10SM FEW015 15/12 A2993 RMK AO2 PK WND 19026/2104 SLP138 T01500122=
202311022122 SPECI KPWT 022122Z AUTO 20017G23KT 10SM SCT014 16/13 A2991 RMK AO2 PK WND 19026/2104=
202311022056 METAR KPWT 022056Z AUTO 21018G24KT 10SM BKN014 16/13 A2990 RMK AO2 PK WND 20026/2002 SLP129 60000 T01610133 51039=
202311022049 SPECI KPWT 022049Z AUTO 21018G24KT 10SM SCT014 16/13 A2990 RMK AO2 PK WND 20026/2002=
202311021956 METAR KPWT 021956Z AUTO 20016G23KT 10SM OVC010 16/14 A2987 RMK AO2 SLP117 T01560144=
202311021856 METAR KPWT 021856Z AUTO 20015G23KT 10SM OVC008 15/15 A2983 RMK AO2 PK WND 20027/1812 RAE08 CIG 006V013 SLP106 P0000 T01500150=
202311021825 SPECI KPWT 021825Z AUTO 20019G24KT 10SM BKN006 OVC010 14/14 A2980 RMK AO2 PK WND 20027/1812 RAE08 CIG 003V008 P0000=
202311021756 METAR KPWT 021756Z AUTO 20014KT 7SM -RA OVC004 14/14 A2979 RMK AO2 SLP091 P0000 60058 T01390139 10139 20111 53027=
202311021656 METAR KPWT 021656Z AUTO 19015G22KT 6SM -RA BR OVC004 14/14 A2975 RMK AO2 SLP080 P0003 T01390139=
202311021556 METAR KPWT 021556Z AUTO 20015G21KT 5SM -RA BR OVC004 13/13 A2973 RMK AO2 CIG 003V008 SLP072 P0014 T01330133=
202311021456 METAR KPWT 021456Z AUTO 21012G17KT 5SM RA BR OVC004 13/13 A2971 RMK AO2 SLP064 P0013 60041 T01330133 55008=
202311021356 METAR KPWT 021356Z AUTO 21010KT 5SM RA BR OVC004 13/13 A2971 RMK AO2 CIG 003V007 SLP063 P0018 T01280128=
202311021305 SPECI KPWT 021305Z AUTO 23008KT 4SM RA BR OVC004 12/12 A2972 RMK AO2 P0002=
202311021256 METAR KPWT 021256Z AUTO 22008KT 2 1/2SM RA BR OVC004 12/12 A2971 RMK AO2 SLP066 P0010 T01220122=
202311021156 METAR KPWT 021156Z AUTO 21006KT 5SM -RA BR OVC004 11/11 A2973 RMK AO2 SLP071 P0012 60086 70117 T01110111 10111 20089 56025=
202311021110 SPECI KPWT 021110Z AUTO 21004KT 4SM RA BR OVC004 10/10 A2975 RMK AO2 P0004=
202311021056 METAR KPWT 021056Z AUTO 00000KT 2 1/2SM +RA BR OVC004 10/10 A2975 RMK AO2 CIG 002V007 SLP080 P0013 T01000100=
202311020956 METAR KPWT 020956Z AUTO 00000KT 10SM -RA OVC004 09/09 A2977 RMK AO2 SLP086 P0010 T00940094=
202311020945 SPECI KPWT 020945Z AUTO 19003KT 6SM RA BR OVC004 09/09 A2978 RMK AO2 P0009=
202311020856 METAR KPWT 020856Z AUTO 00000KT 5SM RA BR BKN006 OVC011 09/09 A2981 RMK AO2 CIG 003V009 SLP098 P0019 60051 T00940094 58030=
202311020827 SPECI KPWT 020827Z AUTO 00000KT 4SM RA BR FEW006 BKN012 OVC017 09/09 A2984 RMK AO2 P0012=
202311020818 SPECI KPWT 020818Z AUTO 00000KT 3SM RA BR BKN009 OVC014 09/09 A2983 RMK AO2 CIG 006V012 P0010=
202311020808 SPECI KPWT 020808Z AUTO 00000KT 5SM +RA BR OVC011 09/09 A2984 RMK AO2 P0006=
202311020756 METAR KPWT 020756Z AUTO 30004KT 4SM RA BR BKN007 OVC011 09/09 A2984 RMK AO2 CIG 004V010 SLP110 P0018 T00890089 401170028=
202311020742 SPECI KPWT 020742Z AUTO 00000KT 2 1/2SM RA BR BKN008 OVC011 09/09 A2984 RMK AO2 CIG 004V010 P0013=
202311020734 SPECI KPWT 020734Z AUTO 00000KT 2 1/2SM RA BR BKN005 OVC008 09/09 A2984 RMK AO2 CIG 004V007 P0010=
202311020656 METAR KPWT 020656Z AUTO 00000KT 3SM RA BR OVC008 09/09 A2987 RMK AO2 CIG 005V013 SLP119 P0014 T00890089=
202311020627 SPECI KPWT 020627Z AUTO 27003KT 4SM RA BR OVC008 09/09 A2989 RMK AO2 CIG 006V010 P0009=
202311020556 METAR KPWT 020556Z AUTO 00000KT 4SM RA BR BKN010 OVC018 09/09 A2990 RMK AO2 SLP128 P0011 60030 T00890089 10100 20089 58021=
202311020514 SPECI KPWT 020514Z AUTO 30003KT 4SM RA BR FEW005 OVC014 09/09 A2992 RMK AO2 P0003=
202311020456 METAR KPWT 020456Z AUTO 00000KT 4SM -RA BR BKN005 OVC016 09/09 A2992 RMK AO2 CIG 004V008 SLP137 P0008 T00890089=
202311020446 SPECI KPWT 020446Z AUTO 00000KT 4SM -RA BR BKN005 OVC016 09/09 A2993 RMK AO2 CIG 004V009 P0006=
202311020356 METAR KPWT 020356Z AUTO 00000KT 3SM -RA BR OVC007 09/09 A2995 RMK AO2 SLP145 P0005 T00890089=
202311020341 SPECI KPWT 020341Z AUTO 23003KT 5SM RA BR BKN007 OVC022 09/09 A2995 RMK AO2 P0003=
202311020325 SPECI KPWT 020325Z AUTO 00000KT 6SM -RA BR SCT007 OVC022 09/09 A2995 RMK AO2 P0002=
202311020256 METAR KPWT 020256Z AUTO 00000KT 6SM -RA BR OVC007 09/09 A2996 RMK AO2 SLP151 P0003 60006 T00890089 58017=
202311020235 SPECI KPWT 020235Z AUTO 00000KT 4SM -RA BR OVC009 09/09 A2997 RMK AO2 CIG 007V012 P0002=
202311020207 SPECI KPWT 020207Z AUTO 00000KT 5SM -RA BR OVC013 09/09 A2998 RMK AO2 P0001=
202311020156 METAR KPWT 020156Z AUTO 20003KT 6SM -RA BR BKN015 OVC020 09/09 A2999 RMK AO2 SLP161 P0003 T00890089=
202311020132 SPECI KPWT 020132Z AUTO 23005KT 7SM -RA BKN021 OVC040 09/09 A3000 RMK AO2 P0002=
202311020056 METAR KPWT 020056Z AUTO 22003KT 10SM -RA OVC040 09/09 A2999 RMK AO2 RAB11 SLP162 P0000 T00940094=
202311012356 METAR KPWT 012356Z AUTO 21003KT 10SM OVC040 10/10 A3001 RMK AO2 RAE35 SLP168 P0001 60001 T01000100 10117 20089 56018=
202311012256 METAR KPWT 012256Z AUTO VRB03KT 10SM -RA OVC047 11/08 A3002 RMK AO2 RAB41 SLP170 P0000 T01110083=
202311012156 METAR KPWT 012156Z AUTO 00000KT 10SM BKN060 11/08 A3003 RMK AO2 SLP174 T01110078=
202311012056 METAR KPWT 012056Z AUTO 26004KT 10SM OVC045 11/07 A3007 RMK AO2 RAB29E48 SLP187 P0000 60000 T01060072 58020=
202311011956 METAR KPWT 011956Z AUTO 25003KT 10SM BKN034 BKN047 OVC055 11/07 A3010 RMK AO2 SLP197 T01060067=
202311011856 METAR KPWT 011856Z AUTO 29003KT 10SM OVC047 10/07 A3011 RMK AO2 SLP202 T01000067=
202311011756 METAR KPWT 011756Z AUTO 20003KT 10SM FEW055 SCT110 09/07 A3012 RMK AO2 SLP207 T00890067 10089 20039 50003=
202311011656 METAR KPWT 011656Z AUTO 00000KT 10SM BKN055 BKN085 08/08 A3014 RMK AO2 SLP214 T00830078=
202311011556 METAR KPWT 011556Z AUTO 00000KT 10SM FEW070 BKN100 07/07 A3013 RMK AO2 SLP210 T00720072=
202311011456 METAR KPWT 011456Z AUTO 00000KT 7SM BKN070 BKN120 06/06 A3011 RMK AO2 SLP205 T00610061 58005=
202311011356 METAR KPWT 011356Z AUTO 00000KT 9SM BKN070 BKN085 06/06 A3013 RMK AO2 SLP209 T00560056=
202311011256 METAR KPWT 011256Z AUTO 00000KT 9SM BKN080 05/05 A3013 RMK AO2 SLP210 T00500050=
202311011156 METAR KPWT 011156Z AUTO 00000KT 10SM CLR 04/04 A3013 RMK AO2 SLP208 T00390039 10044 20022 58001=
202311011129 SPECI KPWT 011129Z AUTO 00000KT 10SM FEW001 04/04 A3013 RMK AO2=
202311011056 METAR KPWT 011056Z AUTO 00000KT 10SM CLR 04/04 A3013 RMK AO2 SLP209 T00390039=
202311010956 METAR KPWT 010956Z AUTO 00000KT 10SM CLR 04/04 A3014 RMK AO2 SLP210 T00440044=
202311010856 METAR KPWT 010856Z AUTO 00000KT 10SM CLR 04/04 A3013 RMK AO2 SLP209 T00390039 56005=
202311010756 METAR KPWT 010756Z AUTO 00000KT 3SM BR CLR 03/03 A3013 RMK AO2 SLP209 T00330033 401281022=
202311010656 METAR KPWT 010656Z AUTO 00000KT 10SM CLR 03/03 A3014 RMK AO2 SLP214 T00280028=
202311010556 METAR KPWT 010556Z AUTO 00000KT 10SM CLR 03/03 A3015 RMK AO2 SLP215 T00280028 10117 20017 53001=
202311010456 METAR KPWT 010456Z AUTO 00000KT 10SM CLR 03/03 A3015 RMK AO2 SLP216 T00280028=
202311010356 METAR KPWT 010356Z AUTO 00000KT 10SM CLR 02/02 A3014 RMK AO2 SLP215 T00220022 FZRANO=
202311010256 METAR KPWT 010256Z AUTO 00000KT 10SM CLR 02/02 A3014 RMK AO2 SLP217 T00220022 53004 FZRANO=
202311010156 METAR KPWT 010156Z AUTO 00000KT 10SM CLR 05/04 A3013 RMK AO2 SLP212 T00500044=
202311010056 METAR KPWT 010056Z AUTO 00000KT 10SM CLR 07/04 A3012 RMK AO2 SLP208 T00670044=

# No short TAF reports from KPWT in databse.

###################################
#  large TAF from KPWT
###################################
202311302344 KPWT 302344Z 0100/0124 20005KT 5SM -RA SCT004 BKN015 OVC020 FM010300
                       20007KT 5SM -RA BR FEW006 OVC014 FM011500
                       20008KT 5SM -RA BR OVC009 FM012200 21008KT
                       P6SM VCSH BKN025 OVC035=
202311302326 TAF KPWT 302326Z 0100/0124 20005KT 6SM -RA BKN004 BKN015 OVC020
                       FM010300 20007KT 5SM -RA BR FEW006 OVC014
                       FM011500 20008KT 5SM -RA BR OVC009 FM012200
                       21008KT P6SM VCSH BKN025 OVC035=
202311302058 KPWT 302058Z 3021/0118 19004KT P6SM -RA BKN040 OVC060 FM302300
                       16004KT P6SM -RA OVC030 FM010100 20005KT
                       6SM -RA BR OVC020 FM010400 20007KT 6SM -RA
                       BR OVC014 FM011500 20010G18KT 6SM -RA BR
                       OVC009=
202311301728 TAF KPWT 301728Z 3018/0118 19004KT 2SM BR BKN050 OVC070 FM301900
                       16004KT P6SM -RA OVC030 FM302300 20005KT
                       6SM -RA BR OVC020 FM010400 20007KT 6SM -RA
                       BR OVC014 FM011500 20010G18KT 6SM -RA BR
                       OVC009=
202311301533 KPWT 301533Z 3016/0112 19004KT 2SM BR BKN050 OVC070 FM301900 16004KT
                       P6SM -RA OVC030 FM302300 20005KT 6SM -RA
                       BR OVC020 FM010400 20007KT 6SM -RA BR OVC014
                       FM011100 20010KT 6SM -RA BR OVC021=
202311301530 KPWT 301530Z 3016/0112 19004KT 3SM BR BKN060 FM301900 16004KT P6SM
                       -RA OVC030 FM302300 20005KT 6SM -RA BR OVC020
                       FM010400 20007KT 6SM -RA BR OVC014 FM011100
                       20010KT 6SM -RA BR OVC021=
202311301130 TAF KPWT 301130Z 3012/0112 19004KT P6SM OVC080 FM301900 16004KT
                       P6SM -RA OVC030 FM302300 20005KT 6SM -RA
                       BR OVC020 FM010400 20007KT 6SM -RA BR OVC014
                       FM011100 20010KT 6SM -RA BR OVC021=
202311300523 TAF KPWT 300523Z 3006/0106 00000KT 4SM BR FEW015 OVC100 FM301100
                       19004KT P6SM VCSH OVC035 FM301500 20004KT
                       P6SM -RA OVC020 FM302100 20005KT 5SM -RA
                       BR OVC015=
202311292320 TAF KPWT 292320Z 3000/3024 VRB02KT P6SM BKN090 FM300400 00000KT
                       P6SM OVC050 FM301100 19004KT P6SM VCSH OVC035
                       FM301500 20004KT P6SM -RA OVC020=
202311291900 KPWT 291900Z 2919/3018 00000KT P6SM BKN090 FM292100 VRB02KT P6SM
                       SCT020 BKN100 FM300400 00000KT P6SM OVC050
                       FM301100 19004KT P6SM VCSH OVC035 FM301500
                       20004KT P6SM -RA OVC020=
202311291753 KPWT 291753Z 2918/3018 00000KT 6SM BR SCT002 BKN012
                      TEMPO 2918/2920 3SM BR SCT001 FM292100 VRB02KT
                       P6SM SCT020 BKN100 FM300400 00000KT P6SM
                       OVC050 FM301100 19004KT P6SM VCSH OVC035
                       FM301500 20004KT P6SM -RA OVC020=
202311291722 KPWT 291722Z 2917/3018 00000KT 6SM BR SCT002 BKN012
                      TEMPO 2918/2920 1 1/2SM BR SCT001 FM292100
                       VRB02KT P6SM SCT020 BKN100 FM300400 00000KT
                       P6SM OVC050 FM301100 19004KT P6SM VCSH OVC035
                       FM301500 20004KT P6SM -RA OVC020=
202311291721 KPWT 291721Z 2917/3018 00000KT 6SM BR SCT002 BKN012
                      TEMPO 2918/2919 1 1/2SM BR BKN001 FM292100
                       VRB02KT P6SM SCT020 BKN100 FM300400 00000KT
                       P6SM OVC050 FM301100 19004KT P6SM VCSH OVC035
                       FM301500 20004KT P6SM -RA OVC020=
202311291525 KPWT 291525Z 2915/3012 00000KT 6SM BR SCT002 BKN012
                      TEMPO 2915/2918 1/2SM FG OVC001 FM291800
                       VRB02KT 6SM BR BKN015 BKN100 FM292100 VRB02KT
                       P6SM SCT018 BKN100 FM300400 00000KT P6SM
                       OVC050 FM301100 19004KT P6SM VCSH OVC035=
202311291131 TAF KPWT 291131Z 2912/3012 00000KT 6SM BR SCT002 BKN012
                      TEMPO 2912/2916 1/2SM FG VV002 FM291800 VRB02KT
                       6SM BR BKN015 BKN100 FM292100 VRB02KT P6SM
                       SCT018 BKN100 FM300400 00000KT P6SM OVC050
                       FM301100 19004KT P6SM VCSH OVC035=
202311290817 KPWT 290817Z 2908/3006 00000KT 6SM BR SCT002
                      TEMPO 2909/2912 1/2SM FG VV002 FM291200 00000KT
                       1/2SM FG VV002 FM291900 VRB02KT 6SM BR BKN100
                       FM292100 VRB02KT P6SM BKN100 FM300400 00000KT
                       6SM BR OVC050=
202311290520 TAF KPWT 290520Z 2906/3006 00000KT 3SM BR SCT003 FM290800 00000KT
                       1/2SM FG VV002 FM291900 VRB02KT 6SM BR BKN100
                       FM292100 VRB02KT P6SM BKN100 FM300400 00000KT
                       6SM BR OVC050=
202311282333 TAF KPWT 282333Z 2900/2924 00000KT P6SM SCT200 FM290300 00000KT
                       3SM BR SCT003 FM290800 00000KT 1/2SM FG
                       VV002 FM292100 VRB02KT 6SM BR BKN100=
202311281720 TAF KPWT 281720Z 2818/2918 00000KT 4SM BCFG SCT001
                      TEMPO 2818/2821 1/4SM FZFG OVC001 FM282100
                       04003KT 6SM BR FEW003 SCT200 FM282300 04004KT
                       P6SM SCT200 FM290400 00000KT 4SM BR SCT003
                       FM290800 00000KT 1SM BR OVC002=
202311281121 TAF KPWT 281121Z 2812/2912 00000KT 4SM BCFG SCT001
                      TEMPO 2812/2814 1/2SM FG VV001 FM281400 00000KT
                       1/2SM FG VV001 FM281800 04003KT 6SM BR FEW003
                       SCT200 FM282000 04004KT P6SM SCT200 FM290400
                       00000KT 4SM BR SCT003 FM290800 00000KT 1SM
                       BR OVC002=
202311280806 KPWT 280806Z 2808/2906 00000KT 6SM BCFG FEW001
                      TEMPO 2809/2812 1/2SM FZFG VV001 FM281200
                       00000KT 1/2SM FZFG VV001 FM282000 VRB03KT
                       P6SM FEW250 FM290400 00000KT 4SM BR SCT001
                       OVC250=
202311280527 TAF KPWT 280527Z 2806/2906 VRB03KT 1/2SM FZFG SCT001 FM282000 VRB03KT
                       P6SM FEW250 FM290400 00000KT 4SM BR SCT001
                       OVC250=
202311272329 TAF KPWT 272329Z 2800/2824 VRB02KT P6SM SKC FM280600 VRB03KT 3SM
                       BR SCT003 FM281000 00000KT 1/2SM FG OVC003
                       FM282000 VRB03KT P6SM FEW250=
202311271720 TAF KPWT 271720Z 2718/2818 00000KT 3SM BR BKN002
                      TEMPO 2718/2719 1/4SM FG VV001 FM271900 06003KT
                       P6SM SCT010 SCT250 FM280700 VRB03KT 3SM
                       BR SCT003 FM281000 00000KT 1/2SM FG OVC003=
202311271425 KPWT 271425Z 2714/2812 00000KT 6SM BR SKC
                      TEMPO 2715/2718 1/4SM FZFG OVC001 FM271900
                       06003KT P6SM SCT010 SCT250 FM280700 VRB03KT
                       3SM BR SCT003 FM281000 00000KT 1/2SM FG
                       OVC003=
202311271155 TAF KPWT 271155Z 2712/2812 00000KT 1/4SM FZFG SKC FM271600 07003KT
                       1/2SM FG OVC001 FM271900 06003KT P6SM SCT010
                       SCT250 FM280700 VRB03KT 3SM BR SCT003 FM281000
                       00000KT 1/2SM FG OVC003=
202311271030 KPWT 271030Z 2711/2806 00000KT 1/4SM FZFG SKC FM271600 07003KT
                       1/2SM FG OVC001 FM271900 06003KT P6SM SCT010
                       SCT250=
202311270529 TAF KPWT 270529Z 2706/2806 05003KT 3SM BR SCT002 FM270800 05003KT
                       1/2SM FG OVC002 FM271200 07003KT 1/4SM FG
                       OVC001 FM271900 06003KT P6SM SCT010 SCT250=
202311262320 TAF KPWT 262320Z 2700/2724 04006KT P6SM FEW250 FM270500 05003KT
                       3SM BR BKN003 FM270800 05003KT 1/2SM FG
                       OVC002 FM271200 07003KT 1/4SM FG OVC001
                       FM271900 06003KT P6SM SCT010 SCT250=
202311261843 KPWT 261843Z 2619/2718 04005KT P6SM SCT005 FM262100 04006KT P6SM
                       FEW250 FM270500 05003KT 3SM BR BKN003 FM270800
                       05003KT 1/2SM FG OVC002 FM271200 07003KT
                       1/4SM FG OVC001=
202311261720 TAF KPWT 261720Z 2618/2718 03005KT 1/4SM FG OVC001
                      TEMPO 2618/2619 1SM BR BKN004 FM261900 04005KT
                       P6SM SCT005 FM262100 04006KT P6SM FEW250
                       FM270500 05003KT 3SM BR BKN003 FM270800
                       05003KT 1/2SM FG OVC002 FM271200 07003KT
                       1/4SM FG OVC001=
202311261255 KPWT 261255Z 2613/2712 03005KT 3SM BR SKC
                      TEMPO 2613/2617 1/2SM FG BKN004 FM261800
                       04005KT P6SM SCT005 FM262000 04006KT P6SM
                       FEW250 FM270500 05003KT 3SM BR BKN003 FM270800
                       05003KT 1/2SM FG OVC002=
202311261214 KPWT 261214Z 2612/2712 03005KT 5SM BR OVC004
                      TEMPO 2612/2616 SCT004 FM261800 04005KT P6SM
                       SCT005 FM262000 04006KT P6SM FEW250 FM270500
                       05003KT 3SM BR BKN003 FM270800 05003KT 1/2SM
                       FG OVC002=
202311261133 TAF KPWT 261133Z 2612/2712 03005KT 5SM BR OVC004
                      TEMPO 2613/2616 1SM BR OVC002 FM261800 04005KT
                       P6SM SCT005 FM262000 04006KT P6SM FEW250
                       FM270500 05003KT 3SM BR BKN003 FM270800
                       05003KT 1/2SM FG OVC002=
202311260932 KPWT 260932Z 2610/2706 03005KT 5SM BR SCT003
                      TEMPO 2610/2612 2SM BR BKN003 FM261200 05004KT
                       1/2SM FG OVC003 FM261800 04005KT P6SM SCT005=
202311260716 KPWT 260716Z 2607/2706 03005KT 5SM BR BKN003 FM261200 05004KT 1/2SM
                       FG OVC003 FM261800 04005KT P6SM SCT005=
202311260533 TAF KPWT 260533Z 2606/2706 03002KT P6SM SKC FM260800 04002KT 2SM
                       BR SCT005 FM261200 05004KT 1/2SM FG OVC003
                       FM261800 04005KT P6SM SCT005=
202311252320 TAF KPWT 252320Z 2600/2624 04005KT P6SM SKC FM260300 03002KT P6SM
                       SKC FM260800 04002KT 2SM BR SCT005 FM261200
                       05004KT 1/2SM FG OVC003 FM261800 04005KT
                       P6SM SCT005 SCT250=
202311251720 TAF KPWT 251720Z 2518/2618 VRB03KT P6SM SCT004 BKN015 FM251900
                       04007KT P6SM SKC FM260300 03002KT P6SM SKC
                       FM260800 03002KT 2SM BR SCT005 FM261200
                       05004KT 1/2SM FG OVC003=
202311251123 TAF KPWT 251123Z 2512/2612 04003KT 5SM BR OVC010
                      TEMPO 2514/2518 2SM BR OVC007 FM251900 04007KT
                       P6SM SKC FM260300 03002KT P6SM SKC FM260800
                       03002KT 2SM BR SCT005=
202311250529 TAF KPWT 250529Z 2506/2606 00000KT P6SM FEW250 FM250800 04003KT
                       3SM BR SCT003 SCT250 FM251900 04007KT P6SM
                       SKC FM260300 VRB02KT P6SM SKC=
202311242320 TAF KPWT 242320Z 2500/2524 08005KT P6SM SKC FM250300 05002KT P6SM
                       SKC FM250800 00000KT 2SM BR SCT003 SCT250
                       FM251800 04005KT P6SM SKC=
202311241722 TAF KPWT 241722Z 2418/2518 04007KT P6SM SKC FM250300 00000KT P6SM
                       SKC FM250800 00000KT 2SM BR SCT003 FM251700
                       04005KT 4SM BR FEW003=
202311241124 TAF KPWT 241124Z 2412/2512 04007KT P6SM FEW005 FM241800 04007KT
                       P6SM SKC FM250300 00000KT P6SM SKC FM250800
                       00000KT 2SM BR SCT003=
202311240520 TAF KPWT 240520Z 2406/2506 07004KT P6SM SKC FM241200 03003KT P6SM
                       SCT010 FM242200 04006KT P6SM SKC FM250200
                       02004KT P6SM SKC=
202311240156 KPWT 240156Z 2402/2424 04006KT P6SM SKC FM241200 04003KT P6SM SCT010
                       FM242200 05004KT P6SM SKC=
202311232320 TAF KPWT 232320Z 2400/2424 03010G18KT P6SM SKC FM240400 03006KT
                       P6SM SKC FM241200 04003KT P6SM SCT010 FM242200
                       05004KT P6SM SKC=
202311231720 TAF KPWT 231720Z 2318/2418 03010G18KT P6SM SKC FM240400 03006KT
                       P6SM SKC FM241200 04003KT P6SM SCT010=
202311231120 TAF KPWT 231120Z 2312/2412 02009KT P6SM OVC030 FM231800 03010KT
                       P6SM SCT030 FM232000 03010KT P6SM SKC FM240400
                       03006KT P6SM SKC=
202311230531 TAF KPWT 230531Z 2306/2406 05006KT P6SM SCT020 FM230700 05006KT
                       5SM BR SCT002 BKN015
                      TEMPO 2309/2313 1SM BR BKN002 OVC015 FM231800
                       03010KT P6SM SKC FM240400 03006KT P6SM SKC=
202311222323 TAF KPWT 222323Z 2300/2324 04012KT P6SM SCT050 FM230600 03005KT
                       P6SM SCT100 FM231000 04003KT 5SM BR OVC008
                       FM231900 04008KT P6SM SCT100=
202311221955 KPWT 221955Z 2220/2318 04009KT P6SM OVC035 FM230000 04007KT P6SM
                       SCT030 BKN050 FM230600 02005KT P6SM OVC007
                       FM231700 04008KT P6SM BKN010 BKN020=
202311221725 TAF KPWT 221725Z 2218/2318 03004KT P6SM SCT015 OVC030 FM230000
                       04007KT P6SM SCT030 BKN050 FM230600 02005KT
                       P6SM OVC007 FM231700 04008KT P6SM BKN010
                       BKN020=
202311221537 KPWT 221537Z 2216/2312 06007KT P6SM FEW007 BKN012 OVC020 FM221800
                       03004KT P6SM SCT006 BKN011 OVC020 FM222100
                       02005KT P6SM OVC015 FM230600 02005KT P6SM
                       OVC007=
202311221303 KPWT 221303Z 2213/2312 06007KT P6SM OVC009 FM221800 03004KT P6SM
                       SCT006 BKN011 OVC020 FM222100 02005KT P6SM
                       OVC015 FM230600 02005KT P6SM OVC007=
202311221120 TAF KPWT 221120Z 2212/2312 06004KT P6SM BKN002 OVC010 FM221500
                       03004KT P6SM OVC004 FM221800 03004KT P6SM
                       SCT006 BKN011 OVC020 FM222100 02005KT P6SM
                       OVC015 FM230600 02005KT P6SM OVC007=
202311220805 KPWT 220805Z 2208/2306 21005KT 4SM -RA BR OVC004 FM220900 03004KT
                       3SM BR OVC004 FM221700 03004KT 5SM BR OVC006
                       FM222100 03004KT P6SM SCT006 BKN011 OVC020=
202311220543 TAF KPWT 220543Z 2206/2306 24006KT 4SM -RA BR OVC022 FM220900 03004KT
                       3SM BR OVC004 FM221700 03004KT 5SM BR OVC006
                       FM222100 03004KT P6SM SCT006 BKN011 OVC020=
202311212328 TAF KPWT 212328Z 2200/2224 18010KT P6SM OVC100 FM220200 21005KT
                       P6SM -RA OVC050 FM220600 20004KT 4SM -RA
                       BR OVC007 FM221100 20007KT 4SM BR OVC005=
202311211728 TAF KPWT 211728Z 2118/2218 18005KT P6SM BKN250 FM212100 20010KT
                       P6SM OVC250 FM220200 21005KT P6SM -RA OVC050
                       FM220600 20004KT 4SM -RA BR OVC007=
202311211124 TAF KPWT 211124Z 2112/2212 18005KT P6SM BKN250 FM212100 20010KT
                       P6SM OVC250 FM220200 21005KT P6SM -RA OVC050
                       FM220600 20004KT 4SM -RA BR OVC007=
202311210529 TAF KPWT 210529Z 2106/2206 00000KT P6SM BKN250 FM211200 00000KT
                       6SM BR SCT003 FM211800 20002KT P6SM OVC200
                       FM220200 21005KT P6SM -RA OVC050=
202311202320 TAF KPWT 202320Z 2100/2124 05008KT P6SM BKN250 FM210300 00000KT
                       P6SM BKN250 FM211400 20002KT P6SM OVC200=
202311201737 TAF KPWT 201737Z 2018/2118 05008KT P6SM SCT250 FM210300 00000KT
                       P6SM SKC FM211400 20002KT P6SM SKC=
202311201120 TAF KPWT 201120Z 2012/2112 04003KT P6SM OVC004 FM201800 05008KT
                       P6SM SCT250=
202311200528 TAF KPWT 200528Z 2006/2106 18005KT P6SM OVC050 FM200800 00000KT
                       6SM BR OVC003 FM201800 05008KT P6SM SCT010
                       BKN050 FM202100 04006KT P6SM SCT250 FM210200
                       VRB02KT P6SM SCT100=
202311192321 TAF KPWT 192321Z 2000/2024 21012KT P6SM FEW030 BKN050 FM200300
                       18005KT P6SM OVC050 FM201000 VRB03KT 6SM
                       BR OVC007 FM201800 05008KT P6SM SCT010 BKN050=
202311191720 TAF KPWT 191720Z 1918/2018 21012G22KT P6SM SCT030 BKN050 FM200300
                       20005KT P6SM OVC050 FM201000 VRB03KT P6SM
                       OVC007=
202311191121 TAF KPWT 191121Z 1912/2012 21015G25KT P6SM VCSH BKN020 BKN120 FM191800
                       21012G22KT P6SM OVC050 FM200300 20005KT
                       P6SM OVC050 FM201000 VRB03KT P6SM OVC007=
202311190538 TAF KPWT 190538Z 1906/2006 17008KT 5SM -RA OVC030 FM190700 20010KT
                       5SM -RA OVC015 FM190900 20012G25KT P6SM
                       -SHRA BKN020 BKN040 FM191200 20015G20KT
                       P6SM OVC040 FM200000 19005KT P6SM BKN050=
202311182322 TAF KPWT 182322Z 1900/1924 18004KT P6SM BKN120 FM190100 19005KT
                       P6SM -SHRA OVC045 FM190400 20008KT P6SM
                       -RA BKN015 OVC030 FM191100 19012G20KT P6SM
                       -SHRA BKN030 BKN040 FM191800 20015G25KT
                       P6SM OVC040=
202311181727 TAF KPWT 181727Z 1818/1918 VRB03KT P6SM BKN200 FM182000 18004KT
                       P6SM BKN120 FM190100 19008KT P6SM -RA OVC045
                       FM191100 19016G28KT P6SM SHRA BKN025 BKN040
                       FM191700 20015G25KT P6SM -SHRA OVC040=
202311181140 TAF KPWT 181140Z 1812/1912 00000KT 1/4SM FG VV002 FM181700 VRB03KT
                       P6SM BKN200 FM182000 14004KT P6SM BKN120
                       FM190100 16008KT P6SM -RA OVC045 FM191100
                       19016G28KT P6SM -SHRA BKN025 BKN040=
202311180533 TAF KPWT 180533Z 1806/1906 00000KT P6SM SCT250 FM181200 00000KT
                       6SM BCFG SCT001 FM181900 20003KT P6SM SCT100
                       FM190200 20005KT P6SM SHRA OVC050=
202311172320 TAF KPWT 172320Z 1800/1824 04002KT P6SM SCT250 FM180600 00000KT
                       P6SM OVC003=
202311171720 TAF KPWT 171720Z 1718/1818 04002KT P6SM SCT250 FM180600 00000KT
                       P6SM OVC003=
202311171121 TAF KPWT 171121Z 1712/1812 04002KT P6SM SKC FM171800 04002KT P6SM
                       SCT250 FM180600 00000KT P6SM OVC003=
202311170527 TAF KPWT 170527Z 1706/1806 04002KT P6SM SKC FM171000 04002KT 6SM
                       BR SCT003 FM171800 04002KT P6SM SCT250=
202311162320 TAF KPWT 162320Z 1700/1724 04006KT P6SM SCT200 FM170600 04002KT
                       P6SM BKN003=
202311161720 TAF KPWT 161720Z 1618/1718 04005KT P6SM SCT007 FM162100 04006KT
                       P6SM SCT200 FM170600 04002KT P6SM BKN003=
202311161125 TAF KPWT 161125Z 1612/1712 04003KT 5SM BR BKN004 FM161700 04005KT
                       P6SM SCT007 FM162100 04006KT P6SM SCT200
                       FM170600 04002KT P6SM BKN003=
202311160529 TAF KPWT 160529Z 1606/1706 04004KT P6SM SCT020 FM160900 04004KT
                       P6SM SCT006 SCT020 FM161100 04003KT 5SM
                       BR BKN004 FM161700 04005KT P6SM SCT007 FM162100
                       04006KT P6SM SCT200=
202311152332 TAF KPWT 152332Z 1600/1624 04004KT P6SM BKN120 OVC200 FM160400
                       04004KT P6SM SCT070 SCT200 FM160700 04005KT
                       P6SM OVC003=
202311151720 TAF KPWT 151720Z 1518/1618 VRB03KT 6SM BR BKN005 BKN100 OVC200
                       FM151900 05003KT P6SM FEW010 BKN100 OVC200
                       FM152300 04004KT P6SM BKN120 OVC200 FM160400
                       04004KT P6SM SCT070 SCT200 FM160700 04005KT
                       P6SM OVC003=
202311151141 TAF KPWT 151141Z 1512/1612 00000KT P6SM BKN004
                      TEMPO 1512/1515 1/2SM FG VV001 FM151800 VRB03KT
                       6SM BR BKN005 BKN100 OVC200 FM151900 05003KT
                       P6SM FEW010 BKN100 OVC200 FM152300 04004KT
                       P6SM BKN120 OVC200 FM160400 04004KT P6SM
                       SCT070 SCT200 FM160700 04005KT P6SM OVC003=
202311150521 TAF KPWT 150521Z 1506/1606 VRB03KT P6SM SCT200 FM150800 00000KT
                       6SM BCFG SCT001 BKN200
                      TEMPO 1511/1515 1/2SM FG VV001 FM151800 VRB03KT
                       6SM BR BKN005 BKN100 OVC200 FM151900 05003KT
                       P6SM FEW010 BKN100 OVC200 FM152300 04004KT
                       P6SM BKN120 OVC200 FM160400 04004KT P6SM
                       SCT070 SCT200=
202311142338 TAF KPWT 142338Z 1500/1524 05004KT P6SM SCT200 FM150500 VRB03KT
                       P6SM BKN200 FM150800 00000KT 6SM BCFG SCT001
                       BKN200
                      TEMPO 1511/1515 1/2SM FG VV001 FM151800 VRB03KT
                       6SM BR BKN005 FM151900 05003KT P6SM FEW010
                       BKN100 OVC200 FM152300 04004KT P6SM BKN120
                       OVC200=
202311141730 TAF KPWT 141730Z 1418/1518 05005KT P6SM SCT005 SCT200 FM142100
                       05004KT P6SM SCT200 FM150300 VRB03KT P6SM
                       BKN200 FM150600 00000KT P6SM BKN007=
202311141143 TAF KPWT 141143Z 1412/1512 05004KT 2SM BR BKN002 FM141800 05005KT
                       P6SM SCT005 SCT200 FM142100 05004KT P6SM
                       SCT200 FM150300 VRB03KT P6SM BKN200 FM150600
                       00000KT P6SM BKN007=
202311140524 TAF KPWT 140524Z 1406/1506 04006KT P6SM SCT200 FM141000 05004KT
                       2SM BR BKN002 FM141800 05005KT P6SM SCT005
                       SCT200 FM142100 05004KT P6SM SCT200 FM150300
                       VRB03KT P6SM BKN200=
202311132320 TAF KPWT 132320Z 1400/1424 04005KT P6SM SCT050 FM140100 03003KT
                       P6SM FEW050 SCT250 FM140900 05006KT 3SM
                       BR BKN003 FM141800 05005KT P6SM SCT250=
202311131726 TAF KPWT 131726Z 1318/1418 VRB04KT 5SM BR OVC007 FM132000 VRB03KT
                       P6SM SCT010 BKN025 FM140100 03003KT P6SM
                       SCT050 SCT200 FM140900 03003KT 2SM BR BKN007=
202311131120 TAF KPWT 131120Z 1312/1412 21004KT P6SM VCSH OVC007 FM132100 20004KT
                       P6SM SCT010 BKN030 FM140300 04003KT P6SM
                       SCT050 SCT200 FM140700 VRB03KT P6SM SCT250=
202311130534 TAF KPWT 130534Z 1306/1406 20010KT P6SM -RA SCT010 OVC027 FM130800
                       21009KT 6SM BR VCSH BKN015 BKN030 FM131200
                       21008KT P6SM VCSH OVC015 FM132100 20004KT
                       P6SM BKN050 FM140300 04003KT P6SM SCT050
                       SCT200=
202311122327 TAF KPWT 122327Z 1300/1324 06003KT P6SM -RA BKN050 OVC070 FM130400
                       16010KT P6SM -RA OVC050 FM130800 18010KT
                       6SM -RA BR OVC015 FM131300 18011KT P6SM
                       OVC015 FM132100 23006KT P6SM BKN050=
202311121942 KPWT 121942Z 1220/1318 20005KT P6SM -SHRA BKN050 BKN180 FM130000
                       18008KT P6SM -RA BKN050 OVC100 FM130400
                       16010KT P6SM -RA OVC050 FM130800 18010KT
                       6SM -RA BR OVC015 FM131300 18011KT P6SM
                       OVC015=
202311121740 TAF KPWT 121740Z 1218/1318 20003KT P6SM BKN050 BKN180 FM130000
                       18008KT P6SM -RA BKN070 OVC100 FM130400
                       16010KT P6SM -RA OVC050 FM130800 18010KT
                       6SM -RA BR OVC015 FM131300 18011KT P6SM
                       OVC015=
202311121120 TAF KPWT 121120Z 1212/1312 VRB03KT P6SM SCT010 OVC040
                      TEMPO 1212/1215 BKN010 FM121500 VRB03KT 5SM
                       BR OVC007 FM122200 VRB04KT P6SM SCT010 BKN040
                       OVC080 FM130200 20007KT P6SM -RA OVC027
                       FM130800 20005KT 4SM -RA BR OVC010=
202311120520 TAF KPWT 120520Z 1206/1306 17007KT P6SM BKN050 OVC080 FM120900
                       17004KT P6SM SCT010 OVC040
                      TEMPO 1210/1214 BKN010 FM121500 04004KT P6SM
                       FEW015 BKN040 OVC100 FM122200 VRB04KT P6SM
                       BKN040 OVC080 FM130200 20007KT P6SM -RA
                       OVC027=
202311112327 TAF KPWT 112327Z 1200/1224 20010G18KT P6SM VCSH SCT030 OVC050 FM120300
                       20008KT P6SM BKN050 OVC080 FM120800 17004KT
                       P6SM BKN010 OVC040 FM121200 03004KT P6SM
                       BKN040 OVC100=
202311111720 TAF KPWT 111720Z 1118/1218 19015G25KT P6SM VCSH SCT025 BKN050 FM112100
                       20010G18KT P6SM VCSH FEW030 OVC050 FM120300
                       20008KT P6SM BKN050 OVC080 FM120800 17004KT
                       P6SM BKN015 OVC040 FM121200 03004KT P6SM
                       BKN007 OVC100=
202311111605 KPWT 111605Z 1116/1212 21015G25KT P6SM -SHRA BKN025 BKN050 FM111800
                       21015G25KT P6SM VCSH OVC015 FM112100 20015G25KT
                       P6SM SCT020 OVC050 FM120300 19007KT P6SM
                       BKN040 OVC060 FM120800 VRB03KT 4SM BR OVC030=
202311111120 TAF KPWT 111120Z 1112/1212 21015G25KT 4SM -RA BR OVC007 FM111800
                       21015G25KT P6SM VCSH OVC015 FM112100 20015G25KT
                       P6SM SCT020 OVC050 FM120300 19007KT P6SM
                       BKN040 OVC060 FM120800 VRB03KT 4SM BR OVC030=
202311110536 TAF KPWT 110536Z 1106/1206 19011G16KT P6SM BKN010 OVC018 FM110900
                       20030G40KT 4SM -RA BR OVC007 FM111300 21015G25KT
                       P6SM -SHRA OVC007 FM111800 21015G25KT P6SM
                       OVC015 FM112100 20015G25KT P6SM OVC050 FM120300
                       19007KT P6SM BKN040 OVC060=
202311102326 TAF KPWT 102326Z 1100/1124 20011G16KT P6SM -RA BKN009 OVC013 FM110900
                       20030G40KT 4SM -RA BR OVC007 FM111300 21015G25KT
                       P6SM -SHRA OVC007 FM111800 21015G25KT P6SM
                       OVC015 FM112100 20015G25KT P6SM OVC050=
202311102102 KPWT 102102Z 1021/1118 19010KT P6SM SCT007 SCT100 FM110200 20012G21KT
                       P6SM -RA SCT007 OVC040 FM110900 20020G30KT
                       4SM -RA BR OVC007 FM111300 21015G25KT P6SM
                       -SHRA OVC007=
202311101737 TAF KPWT 101737Z 1018/1118 19006KT P6SM OVC003 FM102100 22010KT
                       P6SM OVC007 FM110200 20012G21KT P6SM -RA
                       SCT007 OVC040 FM110900 20020G30KT 4SM -RA
                       BR OVC007 FM111300 21015G25KT P6SM -SHRA
                       OVC007=
202311101120 TAF KPWT 101120Z 1012/1112 22004KT P6SM OVC005 FM101700 21010KT
                       P6SM BKN015 OVC040 FM102100 22010KT P6SM
                       -RA OVC045 FM110200 20012G21KT P6SM -RA
                       OVC040 FM110500 20016G25KT P6SM -RA OVC030=
202311100527 TAF KPWT 100527Z 1006/1106 20010KT P6SM SCT007 OVC015 FM100800
                       19004KT P6SM BKN015 OVC025 FM101700 21010KT
                       P6SM BKN035 OVC040 FM102300 22010G18KT P6SM
                       OVC045=
202311100312 KPWT 100312Z 1003/1024 19010KT P6SM -SHRA OVC007 FM100700 19004KT
                       P6SM BKN015 OVC025 FM101700 21010KT P6SM
                       BKN035 OVC040=
202311100114 KPWT 100114Z 1001/1024 23007KT 4SM RA BR BKN004 OVC015 FM100300
                       19008KT P6SM -RA SCT015 BKN025 OVC040 FM100700
                       19004KT P6SM BKN015 OVC025 FM101700 21010KT
                       P6SM BKN035 OVC040=
202311100018 KPWT 100018Z 1000/1024 21008KT 4SM RA BKN030 OVC045 FM100200 19008KT
                       P6SM -RA SCT015 BKN025 OVC040 FM100700 19004KT
                       P6SM BKN015 OVC025 FM101700 21010KT P6SM
                       BKN035 OVC040=
202311092323 TAF KPWT 092323Z 1000/1024 21008KT P6SM RA OVC045 FM100200 19008KT
                       P6SM -RA SCT015 BKN025 OVC040 FM100700 19004KT
                       P6SM BKN015 OVC025 FM101700 21010KT P6SM
                       BKN035 OVC040=
202311091841 KPWT 091841Z 0919/1018 00000KT 6SM BCFG SCT001 OVC140 FM092100
                       19008KT P6SM -RA OVC045 FM100200 19008KT
                       P6SM -RA SCT015 BKN025 OVC040 FM100700 19008KT
                       P6SM BKN015 OVC025 FM101700 21010KT P6SM
                       BKN020 OVC035=
202311091726 TAF KPWT 091726Z 0918/1018 00000KT 1/4SM FG OVC002 FM092100 19008KT
                       P6SM -RA OVC045 FM100200 19008KT P6SM -RA
                       SCT015 BKN025 OVC040 FM100700 19008KT P6SM
                       BKN015 OVC025 FM101700 21010KT P6SM BKN020
                       OVC035=
202311091141 TAF KPWT 091141Z 0912/1012 00000KT 1/4SM FG OVC002 FM091700 00000KT
                       P6SM BKN120 OVC200 FM092100 19008KT P6SM
                       -RA OVC045 FM100200 19008KT P6SM -RA SCT015
                       BKN025 OVC040 FM100700 19008KT P6SM BKN015
                       OVC025=
202311090553 TAF KPWT 090553Z 0906/1006 00000KT P6SM SKC
                      TEMPO 0906/0908 3SM BR FM090800 00000KT 2SM
                       BR BKN003 FM091200 00000KT 1/4SM FG OVC002
                       FM091700 24003KT P6SM BKN250 FM092200 23007KT
                       P6SM -RA OVC060=
202311090317 KPWT 090317Z 0903/0924 00000KT P6SM SKC FM090600 00000KT 2SM BR
                       BKN003 FM090800 00000KT 1/4SM FG OVC002=
202311082320 TAF KPWT 082320Z 0900/0924 00000KT P6SM SKC FM090300 00000KT 2SM
                       BR BKN003 FM090800 00000KT 1/4SM FG OVC002=
202311082031 KPWT 082031Z 0821/0918 00000KT P6SM SCT015 FM090000 04006KT P6SM
                       SCT050 FM090300 00000KT 2SM BR BKN003 FM090800
                       00000KT 1/4SM FG OVC002=
202311081721 TAF KPWT 081721Z 0818/0918 00000KT 1SM BR OVC003 FM081900 00000KT
                       4SM BR BKN004 BKN050 FM090000 04006KT P6SM
                       SCT050 FM090300 00000KT 2SM BR BKN003 FM090800
                       00000KT 1/4SM FG OVC002=
202311081126 TAF KPWT 081126Z 0812/0912 00000KT 1/4SM FG OVC002 FM081700 00000KT
                       1SM BR OVC003 FM081900 00000KT 4SM BR BKN004
                       BKN050 FM082000 00000KT P6SM SCT008 BKN050
                       FM090000 04006KT P6SM SCT050 FM090800 00000KT
                       1/4SM FG OVC002=
202311080541 TAF KPWT 080541Z 0806/0906 06004KT P6SM SCT025 BKN050 FM081400
                       00000KT P6SM OVC010 FM082000 17003KT P6SM
                       OVC050 FM090000 VRB04KT P6SM SCT060=
202311072343 TAF KPWT 072343Z 0800/0824 06006KT P6SM SCT035 FM080400 VRB02KT
                       P6SM BKN035 FM081400 00000KT P6SM OVC010
                       FM082000 17003KT P6SM OVC050=
202311071735 TAF KPWT 071735Z 0718/0818 20006KT P6SM SCT005 FM072100 20006KT
                       P6SM SCT005 BKN009 OVC015 FM080000 20006KT
                       P6SM BKN040 FM080400 17006KT P6SM SCT020
                       OVC035 FM081000 00000KT P6SM OVC007 FM081400
                       00000KT P6SM OVC003=
202311071140 TAF KPWT 071140Z 0712/0812 20006KT P6SM -SHRA OVC005
                      TEMPO 0714/0718 3SM -SHRA FM072100 20006KT
                       P6SM SCT005 BKN009 OVC015 FM080000 20006KT
                       P6SM SCT009 BKN015 OVC030 FM080400 17006KT
                       P6SM SCT020 OVC035=
202311070522 TAF KPWT 070522Z 0706/0806 19008KT P6SM -RA BKN004 OVC030 FM070700
                       21004KT P6SM -SHRA SCT008 OVC015 FM071000
                       22006KT 6SM -SHRA BR BKN010 OVC020 FM071600
                       VRB04KT P6SM -SHRA OVC025 FM072000 VRB04KT
                       P6SM OVC035 FM080300 07004KT P6SM BKN060=
202311070233 KPWT 070233Z 0703/0724 20007KT P6SM -RA FEW006 SCT015 OVC020
                      TEMPO 0703/0706 3SM BR OVC004 FM070700 21004KT
                       P6SM -SHRA SCT008 OVC015 FM071000 22010KT
                       6SM -SHRA BR BKN010 OVC020 FM071700 19012KT
                       P6SM -SHRA OVC025 FM072000 18012KT P6SM
                       OVC035=
202311062339 TAF KPWT 062339Z 0700/0724 16006KT P6SM -RA FEW006 SCT015 OVC020
                       FM070700 21004KT P6SM -SHRA SCT008 OVC015
                       FM071000 22010KT 6SM -SHRA BR BKN010 OVC020
                       FM071700 19012KT P6SM -SHRA OVC025 FM072000
                       18012KT P6SM OVC035=
202311061739 TAF KPWT 061739Z 0618/0718 16006KT P6SM -RA SCT025 BKN040 OVC060
                       FM070700 21004KT P6SM -SHRA SCT008 OVC015
                       FM071000 22012KT 6SM -RA BR BKN010 OVC020
                       FM071700 19008KT P6SM OVC025=
202311061129 TAF KPWT 061129Z 0612/0712 VRB03KT P6SM SCT040 BKN060 FM061700
                       16006KT P6SM -SHRA SCT025 BKN040 OVC060
                       FM070700 18008KT P6SM -SHRA SCT008 OVC015
                       FM071000 22012KT P6SM BKN010 OVC020=
202311060920 KPWT 060920Z 0609/0706 17004KT P6SM -SHRA SCT020 OVC035 FM062100
                       19008KT P6SM -SHRA OVC015=
202311060527 TAF KPWT 060527Z 0606/0706 18005KT 6SM -SHRA BR SCT007 OVC020
                      TEMPO 0606/0609 BKN007 FM060900 17004KT 6SM
                       -SHRA BR OVC007 FM062100 19008KT P6SM -SHRA
                       OVC015=
202311052320 TAF KPWT 052320Z 0600/0624 00000KT 5SM RA BR FEW025 BKN030 OVC050
                       FM060200 18003KT 6SM -RA BR OVC025 FM060700
                       18004KT 6SM -RA BR OVC014 FM061200 21004KT
                       5SM -RA BR OVC015=
202311051720 TAF KPWT 051720Z 0518/0618 21004KT P6SM FEW008 FM052300 18004KT
                       P6SM -RA OVC040 FM060200 18003KT 6SM -RA
                       BR OVC025 FM060700 18004KT 6SM -RA BR OVC014=
202311051516 KPWT 051516Z 0515/0612 22006KT P6SM SCT005 SCT030 BKN040
                      TEMPO 0515/0516 BKN004 OVC030 FM051700 18005KT
                       P6SM OVC050 FM052200 18004KT P6SM -RA OVC040
                       FM060200 18003KT 6SM -RA BR OVC025 FM060700
                       18004KT 6SM -RA BR OVC014=
202311051139 TAF KPWT 051139Z 0512/0612 19006KT P6SM SCT005 BKN030 OVC090
                      TEMPO 0512/0516 BKN004 OVC030 FM051700 18005KT
                       P6SM OVC050 FM052200 18004KT P6SM -RA OVC040
                       FM060200 18003KT 6SM -RA BR OVC025 FM060700
                       18004KT 6SM -RA BR OVC014=
202311050538 TAF KPWT 050538Z 0506/0606 19009KT P6SM VCSH SCT009 BKN050
                      TEMPO 0506/0509 BKN009 FM050900 19006KT P6SM
                       BKN015 FM051800 20005KT P6SM OVC070 FM052200
                       18004KT P6SM -RA OVC040 FM060200 18003KT
                       6SM -RA SCT030 OVC040=
202311042320 TAF KPWT 042320Z 0500/0524 21013G22KT P6SM FEW020 FM050200 20010KT
                       P6SM VCSH BKN035 FM050900 19006KT P6SM BKN015
                       FM051800 20005KT P6SM OVC050=
202311041759 KPWT 041759Z 0418/0518 24010G20KT P6SM FEW015 FM041900 21013G22KT
                       P6SM BKN022 FM050200 20010KT P6SM VCSH BKN035
                       FM050900 19006KT P6SM BKN015=
202311041720 TAF KPWT 041720Z 0418/0518 24010KT 2SM RA BR OVC004 FM041900 21013G22KT
                       P6SM -SHRA BKN022 OVC040 FM050200 20010KT
                       P6SM VCSH BKN035 FM050900 19006KT P6SM BKN015=
202311041617 KPWT 041617Z 0416/0512 20012G18KT 6SM -TSRA BKN006 BKN030CB FM041700
                       20008G16KT 6SM -RA BKN008 BKN040 FM041900
                       21013G22KT P6SM -SHRA BKN022 OVC040 FM050200
                       20010KT P6SM VCSH BKN035 FM050900 19006KT
                       P6SM BKN015=
202311041612 KPWT 041612Z 0416/0512 20012G18KT 6SM RA BKN006 BKN020 FM041900
                       21013G22KT P6SM -SHRA BKN022 OVC040 FM050200
                       20010KT P6SM VCSH BKN035 FM050900 19006KT
                       P6SM BKN015=
202311041132 TAF KPWT 041132Z 0412/0512 20011KT 6SM -RA BR OVC007 FM041500 20012G18KT
                       6SM -RA BR OVC010 FM041900 21013G22KT P6SM
                       -SHRA BKN022 OVC040 FM050200 20010KT P6SM
                       VCSH BKN035 FM050900 19006KT P6SM BKN015=
202311040746 KPWT 040746Z 0408/0506 19008KT 5SM -RA BR OVC005 FM041100 20011G20KT
                       4SM -RA BR OVC010 FM042200 21013G22KT P6SM
                       -SHRA BKN050 FM050200 21005KT P6SM OVC050=
202311040536 TAF KPWT 040536Z 0406/0506 19008KT 5SM -RA BR OVC015 FM041100 20011G20KT
                       4SM -RA BR OVC010 FM042200 21013G22KT P6SM
                       -SHRA BKN050 FM050200 21005KT P6SM OVC050=
202311032333 TAF KPWT 032333Z 0400/0424 16003KT P6SM OVC100 FM040300 10003KT
                       P6SM -RA OVC040 FM040600 19008KT 5SM -RA
                       BR OVC015 FM041100 20011G20KT 4SM -RA BR
                       OVC010 FM041600 20013G23KT 6SM -RA OVC040=
202311031731 TAF KPWT 031731Z 0318/0418 19003KT 2SM BR OVC007 FM031900 05003KT
                       P6SM OVC020 FM032000 16003KT P6SM OVC250
                       FM040300 10003KT P6SM -RA OVC050 FM040600
                       19008KT 5SM -RA BR OVC015 FM041100 20011G20KT
                       4SM -RA BR OVC007=
202311031343 KPWT 031343Z 0314/0412 20002KT P6SM OVC009 FM031800 19003KT P6SM
                       OVC015 FM032000 16003KT P6SM OVC250 FM040300
                       10003KT P6SM -RA OVC050 FM040800 19008KT
                       5SM -RA BR OVC015=
202311031133 TAF KPWT 031133Z 0312/0412 00000KT 6SM BR OVC008 FM031300 20002KT
                       6SM BR OVC003 FM031800 19003KT P6SM OVC015
                       FM032000 16003KT P6SM OVC250 FM040300 10003KT
                       P6SM -RA OVC050 FM040800 19008KT 5SM -RA
                       BR OVC015=
202311030536 TAF KPWT 030536Z 0306/0406 20008KT P6SM BKN010 FM031100 00000KT
                       2SM BR OVC007 FM031300 20002KT 6SM BR OVC003
                       FM031800 19003KT P6SM OVC015 FM032000 16003KT
                       P6SM OVC250 FM040300 04002KT P6SM -RA OVC100=
202311022327 TAF KPWT 022327Z 0300/0324 21012G21KT P6SM SCT030 FM030300 20008KT
                       P6SM OVC050 FM030800 21006KT 5SM BR BKN010
                       FM031100 00000KT 2SM BR OVC007 FM031600
                       00000KT 1/2SM FG OVC003=
202311021726 TAF KPWT 021726Z 0218/0318 20015G23KT 6SM -SHRA BR OVC004 FM021900
                       21010G22KT 6SM BR VCSH BKN010 OVC025 FM022200
                       21012KT P6SM OVC025 FM030100 20008KT P6SM
                       OVC050 FM030800 21004KT 5SM BR BKN010 FM031300
                       00000KT 2SM BR OVC003=
202311021140 TAF KPWT 021140Z 0212/0312 21006KT 4SM RA BR OVC004 FM021400 20010G20KT
                       4SM -SHRA BR OVC010 FM021900 21010G22KT
                       6SM BR VCSH OVC020 FM022200 21012KT P6SM
                       OVC025 FM030100 20008KT P6SM OVC050 FM030800
                       21004KT 5SM BR BKN025=
202311020525 KPWT 020525Z 0205/0306 20005KT 3SM -RA BR SCT005 OVC015 FM021000
                       20008KT 3SM -SHRA BR BKN007 FM021300 20010G22KT
                       4SM -SHRA BR OVC010 FM022200 21011KT 6SM
                       BR OVC015 FM030300 20006KT P6SM OVC050=
202311020523 TAF KPWT 020523Z 0206/0306 20005KT 3SM -RA BR OVC005 FM021000 20008KT
                       3SM -SHRA BR OVC007 FM021300 20010G22KT
                       4SM -SHRA BR OVC010 FM022200 21011KT 6SM
                       BR OVC015 FM030300 20006KT P6SM OVC050=
202311012330 TAF KPWT 012330Z 0200/0224 22005KT P6SM -RA OVC040 FM020200 22003KT
                       4SM -RA BR OVC020 FM020600 20005KT 3SM -RA
                       BR OVC010 FM021000 20008KT 3SM -SHRA BR
                       OVC007 FM021300 20010G22KT 4SM -SHRA BR
                       OVC010=
202311011727 TAF KPWT 011727Z 0118/0218 VRB02KT P6SM BKN080 FM012200 22005KT
                       P6SM -RA OVC040 FM020100 22003KT 4SM -RA
                       BR OVC007 FM020600 20005KT 3SM -RA BR OVC003
                       FM021000 20008KT 4SM -SHRA BR OVC010 FM021300
                       20010G22KT 4SM -SHRA BR OVC010=
202311011136 TAF KPWT 011136Z 0112/0212 VRB02KT P6SM BKN100 FM011500 VRB04KT
                       P6SM BKN080 FM012200 22005KT P6SM -RA OVC050
                       FM020100 22003KT 4SM -RA BR OVC007 FM020600
                       20005KT 3SM -RA BR OVC003 FM021000 20008KT
                       4SM -SHRA BR OVC010=
202311010539 TAF KPWT 010539Z 0106/0206 00000KT P6SM BKN150 FM011100 VRB02KT
                       P6SM BKN100
                      TEMPO 0111/0115 3SM BR SCT005 FM011500 VRB04KT
                       P6SM BKN080 FM012200 22005KT P6SM -RA OVC050
                       FM020300 00000KT 6SM -RA BR OVC015=