##########################################################
# Query made at 02/16/2025 01:24:09 UTC
# Time interval: from 12/01/2023 00:00  to 12/31/2023 23:59  UTC
##########################################################

##########################################################
# KPWT, Bremerton National Automatic Weather Observing / Reporting System (United States)
# WMO index: -----. WIGOS ID: Unknown
# Latitude 47-30N. Longitude 122-45W. Altitude 147 m.
##########################################################

###################################
#  METAR/SPECI from KPWT
###################################
202312312356 METAR KPWT 312356Z AUTO 00000KT 10SM BKN005 06/06 A3018 RMK AO2 SLP228 T00610061 10078 20050 55002=
202312312256 METAR KPWT 312256Z AUTO 00000KT 10SM FEW006 08/07 A3018 RMK AO2 SLP225 T00780072=
202312312227 SPECI KPWT 312227Z AUTO 00000KT 10SM SCT004 07/07 A3018 RMK AO2=
202312312214 SPECI KPWT 312214Z AUTO 15003KT 10SM BKN004 07/07 A3018 RMK AO2=
202312312156 METAR KPWT 312156Z AUTO 00000KT 10SM SCT006 06/06 A3019 RMK AO2 SLP228 T00610061=
202312312148 SPECI KPWT 312148Z AUTO 00000KT 10SM SCT006 06/06 A3018 RMK AO2=
202312312056 METAR KPWT 312056Z AUTO 24003KT 10SM OVC004 07/07 A3019 RMK AO2 SLP229 T00670067 58004=
202312312036 SPECI KPWT 312036Z AUTO 25003KT 10SM BKN004 07/07 A3020 RMK AO2 CIG 002V006=
202312311956 METAR KPWT 311956Z AUTO 23003KT 10SM BKN002 07/07 A3020 RMK AO2 SLP232 T00670067=
202312311937 SPECI KPWT 311937Z AUTO 00000KT 8SM OVC002 06/06 A3020 RMK AO2=
202312311929 SPECI KPWT 311929Z AUTO 00000KT 2SM BR OVC002 06/06 A3020 RMK AO2 VIS 1V5=
202312311921 SPECI KPWT 311921Z AUTO 26003KT 1SM BR OVC002 06/06 A3020 RMK AO2=
202312311906 SPECI KPWT 311906Z AUTO 26003KT 3/4SM BR OVC002 06/06 A3020 RMK AO2=
202312311856 METAR KPWT 311856Z AUTO 26003KT 1/2SM FG OVC002 06/06 A3020 RMK AO2 SLP235 T00560056=
202312311843 SPECI KPWT 311843Z AUTO 25003KT 1/2SM FG OVC002 06/06 A3021 RMK AO2=
202312311831 SPECI KPWT 311831Z AUTO 24003KT 1/4SM FG OVC002 06/06 A3021 RMK AO2=
202312311823 SPECI KPWT 311823Z AUTO 24003KT 1/2SM FG OVC002 05/05 A3021 RMK AO2=
202312311756 METAR KPWT 311756Z AUTO 25003KT 1/4SM FG OVC002 05/05 A3020 RMK AO2 SLP234 T00500050 10056 20050 51016=
202312311718 SPECI KPWT 311718Z AUTO 23003KT 1/2SM FG OVC002 05/05 A3019 RMK AO2=
202312311701 SPECI KPWT 311701Z AUTO 25003KT 3/4SM BR OVC002 05/05 A3019 RMK AO2=
202312311656 METAR KPWT 311656Z AUTO 23003KT 1 1/4SM BR OVC002 05/05 A3019 RMK AO2 SLP229 T00500050=
202312311647 SPECI KPWT 311647Z AUTO 23004KT 1 1/4SM BR OVC002 05/05 A3018 RMK AO2=
202312311643 SPECI KPWT 311643Z AUTO 22005KT 3/4SM BR OVC002 05/05 A3018 RMK AO2=
202312311615 SPECI KPWT 311615Z AUTO 19004KT 1 3/4SM BR OVC004 05/05 A3018 RMK AO2=
202312311556 METAR KPWT 311556Z AUTO 20003KT 10SM OVC004 05/05 A3017 RMK AO2 SLP223 T00500050=
202312311545 SPECI KPWT 311545Z AUTO VRB03KT 3SM BR OVC004 05/05 A3017 RMK AO2=
202312311538 SPECI KPWT 311538Z AUTO 16003KT 1 1/4SM BR BKN004 05/05 A3017 RMK AO2 CIG 001V007=
202312311527 SPECI KPWT 311527Z AUTO 17004KT 2 1/2SM BR BKN004 05/05 A3016 RMK AO2 CIG 001V008=
202312311520 SPECI KPWT 311520Z AUTO 19003KT 3SM BR SCT004 SCT009 05/05 A3016 RMK AO2=
202312311456 METAR KPWT 311456Z AUTO 00000KT 1 1/4SM BR OVC004 06/06 A3016 RMK AO2 CIG 003V007 SLP217 T00560056 52009=
202312311444 SPECI KPWT 311444Z AUTO 00000KT 1 1/4SM BR OVC002 06/06 A3015 RMK AO2=
202312311356 METAR KPWT 311356Z AUTO 00000KT 3/4SM BR OVC002 05/05 A3015 RMK AO2 SLP214 T00500050=
202312311345 SPECI KPWT 311345Z AUTO 20003KT 3/4SM BR OVC002 05/05 A3014 RMK AO2=
202312311337 SPECI KPWT 311337Z AUTO 21003KT 1SM BR OVC002 05/05 A3015 RMK AO2=
202312311321 SPECI KPWT 311321Z AUTO 00000KT 1 1/4SM BR OVC002 05/05 A3014 RMK AO2=
202312311313 SPECI KPWT 311313Z AUTO 22003KT 1SM BR OVC002 06/06 A3014 RMK AO2=
202312311305 SPECI KPWT 311305Z AUTO 22004KT 1 1/4SM BR OVC002 06/06 A3014 RMK AO2=
202312311256 METAR KPWT 311256Z AUTO 23004KT 2 1/2SM BR OVC002 06/06 A3014 RMK AO2 SLP211 T00560056=
202312311254 SPECI KPWT 311254Z AUTO 23005KT 3SM BR OVC002 06/06 A3014 RMK AO2=
202312311248 SPECI KPWT 311248Z AUTO 24004KT 1 1/4SM BR OVC002 06/06 A3014 RMK AO2=
202312311239 SPECI KPWT 311239Z AUTO 23004KT 3/4SM BR OVC002 06/06 A3014 RMK AO2=
202312311222 SPECI KPWT 311222Z AUTO 23004KT 1 1/2SM BR OVC002 06/06 A3013 RMK AO2=
202312311215 SPECI KPWT 311215Z AUTO 23004KT 1SM BR OVC002 06/06 A3013 RMK AO2=
202312311203 SPECI KPWT 311203Z AUTO 22005KT 3/4SM BR OVC002 06/06 A3013 RMK AO2=
202312311156 METAR KPWT 311156Z AUTO 22005KT 1 1/4SM BR OVC002 06/06 A3013 RMK AO2 SLP208 60001 70013 T00560056 10067 20056 50005=
202312311149 SPECI KPWT 311149Z AUTO 21004KT 2SM BR OVC002 06/06 A3013 RMK AO2=
202312311131 SPECI KPWT 311131Z AUTO 20005KT 1 1/4SM BR OVC002 06/06 A3013 RMK AO2=
202312311121 SPECI KPWT 311121Z AUTO 24003KT 3/4SM BR OVC002 06/06 A3013 RMK AO2=
202312311111 SPECI KPWT 311111Z AUTO 23005KT 1 3/4SM BR OVC002 06/06 A3013 RMK AO2 VIS 1V4=
202312311056 METAR KPWT 311056Z AUTO 22006KT 4SM BR OVC002 06/06 A3013 RMK AO2 SLP209 T00610061=
202312310956 METAR KPWT 310956Z AUTO 21005KT 10SM OVC002 07/07 A3012 RMK AO2 SLP204 T00670067=
202312310933 SPECI KPWT 310933Z AUTO 21004KT 5SM BR OVC002 07/07 A3012 RMK AO2=
202312310856 METAR KPWT 310856Z AUTO 19006KT 10SM OVC004 07/07 A3011 RMK AO2 SLP202 60001 T00670067 51002=
202312310852 SPECI KPWT 310852Z AUTO 20006KT 10SM OVC004 07/07 A3011 RMK AO2=
202312310756 METAR KPWT 310756Z AUTO 21007KT 9SM OVC002 07/07 A3011 RMK AO2 SLP201 T00670067 401000056=
202312310733 SPECI KPWT 310733Z AUTO 20006KT 10SM BKN002 07/07 A3011 RMK AO2=
202312310709 SPECI KPWT 310709Z AUTO 19007KT 10SM SCT002 07/07 A3011 RMK AO2=
202312310656 METAR KPWT 310656Z AUTO 20008KT 10SM BKN002 07/07 A3011 RMK AO2 SLP200 P0001 T00670067=
202312310636 SPECI KPWT 310636Z AUTO 20007KT 10SM BKN002 06/06 A3010 RMK AO2 P0001=
202312310629 SPECI KPWT 310629Z AUTO 21005KT 10SM SCT004 06/06 A3010 RMK AO2 P0001=
202312310556 METAR KPWT 310556Z AUTO 22004KT 10SM CLR 07/07 A3009 RMK AO2 SLP194 T00670067 10094 20067 51019=
202312310456 METAR KPWT 310456Z AUTO 20009KT 10SM CLR 07/07 A3007 RMK AO2 SLP187 T00720072=
202312310356 METAR KPWT 310356Z AUTO 21008KT 10SM CLR 08/08 A3005 RMK AO2 SLP181 T00780078=
202312310256 METAR KPWT 310256Z AUTO 18007KT 10SM SCT008 SCT100 08/08 A3003 RMK AO2 SLP174 T00830083 52018=
202312310249 SPECI KPWT 310249Z AUTO 19008KT 10SM SCT008 BKN100 08/08 A3003 RMK AO2=
202312310238 SPECI KPWT 310238Z AUTO 18007KT 10SM BKN008 08/08 A3003 RMK AO2 CIG 005V011=
202312310156 METAR KPWT 310156Z AUTO 20010KT 10SM SCT008 OVC120 09/09 A3001 RMK AO2 SLP167 T00890089=
202312310056 METAR KPWT 310056Z AUTO 18011KT 10SM SCT008 09/09 A3000 RMK AO2 SLP163 T00940094=
202312310047 SPECI KPWT 310047Z AUTO 19010KT 10SM SCT010 09/09 A3000 RMK AO2=
202312310035 SPECI KPWT 310035Z AUTO 19010KT 10SM BKN010 09/09 A2999 RMK AO2 CIG 006V012=
202312302356 METAR KPWT 302356Z AUTO 19009KT 10SM CLR 09/09 A2998 RMK AO2 RAE2257 SLP156 60005 T00940094 10100 20089 53007=
202312302256 METAR KPWT 302256Z AUTO 19008KT 10SM -RA FEW005 09/09 A2996 RMK AO2 RAE2158B25 SLP151 P0000 T00940094=
202312302226 SPECI KPWT 302226Z AUTO 20008KT 10SM -RA SCT006 SCT080 10/10 A2996 RMK AO2 RAE2158B25 P0000=
202312302206 SPECI KPWT 302206Z AUTO 19009KT 10SM BKN008 10/10 A2996 RMK AO2 RAE2158 CIG 005V010 P0000=
202312302156 METAR KPWT 302156Z AUTO 20012KT 10SM -RA SCT008 10/10 A2996 RMK AO2 SLP148 P0001 T01000100=
202312302134 SPECI KPWT 302134Z AUTO 19008KT 10SM -RA FEW004 SCT035 09/09 A2996 RMK AO2 P0001=
202312302127 SPECI KPWT 302127Z AUTO 19007KT 10SM -RA SCT004 SCT010 BKN029 09/09 A2996 RMK AO2 P0001=
202312302056 METAR KPWT 302056Z AUTO 20009KT 10SM -RA OVC004 09/09 A2996 RMK AO2 RAB20 CIG 003V008 SLP149 P0000 60004 T00940094 53001=
202312302048 SPECI KPWT 302048Z AUTO 19008KT 10SM -RA OVC004 09/09 A2996 RMK AO2 RAB20 P0000=
202312302026 SPECI KPWT 302026Z AUTO 20010KT 10SM -RA BKN006 OVC021 09/09 A2995 RMK AO2 RAB20 CIG 005V009 P0000=
202312302011 SPECI KPWT 302011Z AUTO 19008KT 10SM SCT008 BKN023 OVC037 10/10 A2996 RMK AO2=
202312301956 METAR KPWT 301956Z AUTO 18007KT 10SM BKN027 10/10 A2995 RMK AO2 RAE01 SLP147 P0000 T01000100=
202312301856 METAR KPWT 301856Z AUTO 20006KT 10SM -RA OVC025 09/09 A2995 RMK AO2 SLP145 P0004 T00940094=
202312301824 SPECI KPWT 301824Z AUTO 20005KT 8SM -RA FEW006 SCT019 OVC025 09/09 A2995 RMK AO2 P0003=
202312301810 SPECI KPWT 301810Z AUTO 20004KT 4SM RA BR FEW006 BKN014 OVC022 09/09 A2996 RMK AO2 P0002=
202312301756 METAR KPWT 301756Z AUTO 21005KT 5SM -RA BR FEW008 BKN015 OVC031 09/09 A2995 RMK AO2 SLP147 P0004 60007 T00890089 10094 20078 53021=
202312301751 SPECI KPWT 301751Z AUTO 19005KT 5SM -RA BR FEW008 BKN022 OVC029 09/09 A2995 RMK AO2 P0003=
202312301656 METAR KPWT 301656Z AUTO 20004KT 10SM -RA BKN032 09/09 A2993 RMK AO2 SLP140 P0000 T00890089=
202312301556 METAR KPWT 301556Z AUTO 00000KT 8SM -RA FEW027 SCT033 OVC044 09/09 A2990 RMK AO2 SLP130 P0001 T00890089=
202312301456 METAR KPWT 301456Z AUTO 00000KT 10SM -RA BKN039 OVC055 08/08 A2989 RMK AO2 RAE11B50 SLP127 P0001 60002 T00780078 53008=
202312301356 METAR KPWT 301356Z AUTO 00000KT 10SM -RA FEW034 08/08 A2988 RMK AO2 SLP124 P0001 T00830083=
202312301256 METAR KPWT 301256Z AUTO 00000KT 10SM -RA FEW040 BKN055 09/09 A2987 RMK AO2 RAB06E29B47 SLP119 P0000 T00890089=
202312301156 METAR KPWT 301156Z AUTO 22003KT 10SM BKN047 OVC055 08/08 A2987 RMK AO2 SLP119 60003 70004 T00830083 10094 20083 51007=
202312301056 METAR KPWT 301056Z AUTO 00000KT 10SM SCT045 OVC055 09/09 A2986 RMK AO2 SLP117 T00940094=
202312300956 METAR KPWT 300956Z AUTO 00000KT 10SM BKN045 OVC050 09/09 A2986 RMK AO2 RAE43 SLP115 P0000 T00890089=
202312300856 METAR KPWT 300856Z AUTO 25004KT 10SM -RA SCT060 09/09 A2985 RMK AO2 SLP111 P0001 60003 T00890089 51004=
202312300756 METAR KPWT 300756Z AUTO 00000KT 10SM -RA CLR 08/08 A2984 RMK AO2 SLP111 P0001 T00830083 401390067=
202312300656 METAR KPWT 300656Z AUTO 00000KT 10SM -RA SCT110 08/08 A2984 RMK AO2 SLP109 P0001 T00830083=
202312300556 METAR KPWT 300556Z AUTO 00000KT 10SM -RA CLR 08/08 A2983 RMK AO2 SLP107 P0001 60001 T00830083 10117 20083 51010=
202312300456 METAR KPWT 300456Z AUTO 15003KT 10SM -RA FEW060 10/09 A2983 RMK AO2 RAB08 SLP107 P0000 T01000089=
202312300356 METAR KPWT 300356Z AUTO 00000KT 10SM SCT090 10/09 A2982 RMK AO2 SLP103 T01000089=
202312300256 METAR KPWT 300256Z AUTO 23003KT 10SM FEW090 09/09 A2980 RMK AO2 RAE11 SLP097 P0000 60000 T00940094 51021=
202312300156 METAR KPWT 300156Z AUTO 22007KT 10SM -RA FEW080 11/09 A2979 RMK AO2 RAE02B56 SLP093 P0000 T01060094=
202312300056 METAR KPWT 300056Z AUTO 00000KT 10SM -RA FEW090 11/09 A2976 RMK AO2 RAB43 SLP081 P0000 T01060089=
202312292356 METAR KPWT 292356Z AUTO 22003KT 10SM BKN110 11/09 A2974 RMK AO2 SLP076 60000 T01110089 10139 20106 55019=
202312292256 METAR KPWT 292256Z AUTO 04004KT 10SM BKN100 13/08 A2974 RMK AO2 SLP074 T01280078=
202312292156 METAR KPWT 292156Z AUTO 05007KT 10SM CLR 13/07 A2975 RMK AO2 RAB13E30 SLP078 P0000 T01330072=
202312292056 METAR KPWT 292056Z AUTO 03003KT 10SM SCT100 13/08 A2980 RMK AO2 RAB07E17 SLP094 P0000 60000 T01280078 58008=
202312291956 METAR KPWT 291956Z AUTO 05003KT 10SM SCT110 12/09 A2983 RMK AO2 SLP106 T01170089=
202312291856 METAR KPWT 291856Z AUTO 00000KT 10SM SCT090 12/08 A2981 RMK AO2 SLP099 T01170083=
202312291756 METAR KPWT 291756Z AUTO 36004KT 10SM CLR 11/08 A2982 RMK AO2 SLP102 60000 T01060083 10111 20067 56022=
202312291656 METAR KPWT 291656Z AUTO 04003KT 10SM CLR 09/07 A2984 RMK AO2 SLP109 T00890072=
202312291556 METAR KPWT 291556Z AUTO 34004KT 10SM SCT110 11/07 A2986 RMK AO2 RAB25E34 SLP115 P0000 T01060067=
202312291456 METAR KPWT 291456Z AUTO 04004KT 10SM FEW100 11/07 A2988 RMK AO2 SLP125 60000 T01060072 56017=
202312291356 METAR KPWT 291356Z AUTO 00000KT 10SM CLR 08/07 A2990 RMK AO2 SLP129 T00780072=
202312291256 METAR KPWT 291256Z AUTO 00000KT 10SM BKN110 07/07 A2991 RMK AO2 RAE19 SLP132 P0000 T00720072=
202312291156 METAR KPWT 291156Z AUTO 00000KT 10SM -RA FEW120 08/08 A2993 RMK AO2 RAB22 SLP141 P0000 60000 70012 T00830083 10089 20078 56015=
202312291056 METAR KPWT 291056Z AUTO 00000KT 10SM BKN070 08/08 A2994 RMK AO2 SLP145 T00830078=
202312290956 METAR KPWT 290956Z AUTO 00000KT 10SM BKN070 OVC110 08/08 A2995 RMK AO2 SLP148 T00780078=
202312290856 METAR KPWT 290856Z AUTO VRB03KT 10SM OVC060 08/08 A2998 RMK AO2 SLP156 60000 T00830083 58025=
202312290756 METAR KPWT 290756Z AUTO 00000KT 10SM OVC060 08/08 A3001 RMK AO2 RAB32E42 SLP167 P0000 T00830083 401110061=
202312290656 METAR KPWT 290656Z AUTO VRB04KT 10SM OVC055 09/08 A3003 RMK AO2 RAE00 SLP172 P0000 T00890083=
202312290556 METAR KPWT 290556Z AUTO 00000KT 10SM -RA BKN048 BKN060 08/08 A3005 RMK AO2 SLP181 P0001 60003 T00830083 10106 20083 58006=
202312290456 METAR KPWT 290456Z AUTO 00000KT 10SM -RA FEW055 08/08 A3007 RMK AO2 SLP186 P0001 T00830083=
202312290356 METAR KPWT 290356Z AUTO 00000KT 10SM -RA BKN060 09/09 A3006 RMK AO2 SLP185 P0001 T00890089=
202312290256 METAR KPWT 290256Z AUTO 00000KT 10SM -RA SCT055 09/09 A3007 RMK AO2 SLP188 P0000 60000 T00890089 56004=
202312290156 METAR KPWT 290156Z AUTO 00000KT 10SM -RA OVC055 09/09 A3007 RMK AO2 RAB01E12B50 SLP189 P0000 T00940094=
202312290056 METAR KPWT 290056Z AUTO 12005KT 10SM CLR 09/09 A3008 RMK AO2 RAE50 SLP191 P0000 T00940094=
202312282356 METAR KPWT 282356Z AUTO 00000KT 10SM -RA FEW047 11/11 A3008 RMK AO2 RAB44 SLP192 P0000 60001 T01060106 10111 20083 55006=
202312282256 METAR KPWT 282256Z AUTO 00000KT 10SM FEW060 11/11 A3007 RMK AO2 RAE00 SLP188 P0000 T01110106=
202312282156 METAR KPWT 282156Z AUTO 00000KT 10SM -RA FEW060 11/11 A3008 RMK AO2 RAB17 SLP191 P0000 T01110106=
202312282056 METAR KPWT 282056Z AUTO 00000KT 10SM SCT060 11/11 A3010 RMK AO2 RAB03E20 SLP199 P0000 60001 T01060106 58004=
202312281956 METAR KPWT 281956Z AUTO 00000KT 10SM SCT055 10/10 A3011 RMK AO2 RAE1857B19E45 SLP202 P0000 T01000100=
202312281856 METAR KPWT 281856Z AUTO 00000KT 10SM -RA CLR 09/09 A3012 RMK AO2 SLP203 P0001 T00940094=
202312281756 METAR KPWT 281756Z AUTO 01004KT 10SM -RA CLR 08/08 A3011 RMK AO2 SLP203 P0004 60008 T00830083 10083 20061 51015=
202312281656 METAR KPWT 281656Z AUTO 00000KT 4SM RA BR SCT031 BKN039 BKN045 08/08 A3011 RMK AO2 RAB17 SLP202 P0001 T00780078=
202312281556 METAR KPWT 281556Z AUTO 05003KT 8SM BKN039 OVC050 07/07 A3009 RMK AO2 RAE31 SLP194 P0001 T00720072=
202312281506 SPECI KPWT 281506Z AUTO 00000KT 8SM -RA FEW021 SCT027 OVC041 07/07 A3007 RMK AO2 P0000=
202312281456 METAR KPWT 281456Z AUTO 00000KT 8SM -RA FEW021 BKN029 OVC039 07/07 A3007 RMK AO2 RAB26 SLP188 P0001 60002 T00720072 53011=
202312281428 SPECI KPWT 281428Z AUTO 00000KT 10SM -RA OVC039 07/07 A3006 RMK AO2 RAB26 P0000=
202312281421 SPECI KPWT 281421Z AUTO 00000KT 2SM BR OVC039 07/07 A3006 RMK AO2=
202312281417 SPECI KPWT 281417Z AUTO 00000KT 1SM BR OVC039 07/07 A3005 RMK AO2=
202312281413 SPECI KPWT 281413Z AUTO 00000KT 1/2SM FG BKN041 07/07 A3005 RMK AO2=
202312281356 METAR KPWT 281356Z AUTO 00000KT 3/4SM BR BKN043 06/06 A3005 RMK AO2 RAE05 SLP182 P0000 T00610061=
202312281350 SPECI KPWT 281350Z AUTO 00000KT 3/4SM BR BKN043 07/07 A3005 RMK AO2 RAE05 P0000=
202312281346 SPECI KPWT 281346Z AUTO 00000KT 1 3/4SM BR BKN043 07/07 A3005 RMK AO2 VIS 1/2V5 RAE05 P0000=
202312281309 SPECI KPWT 281309Z AUTO 18003KT 10SM FEW004 SCT055 07/07 A3004 RMK AO2 RAE05 P0000=
202312281256 METAR KPWT 281256Z AUTO 21003KT 10SM -RA FEW033 BKN047 BKN060 07/07 A3004 RMK AO2 RAE04B33 SLP178 P0001 T00720072=
202312281156 METAR KPWT 281156Z AUTO 22003KT 10SM -RA FEW006 BKN047 BKN055 08/08 A3003 RMK AO2 RAB01 SLP175 P0001 60036 70042 T00780078 10089 20067 51016=
202312281056 METAR KPWT 281056Z AUTO VRB03KT 10SM FEW049 SCT060 08/08 A3003 RMK AO2 RAE52 SLP173 P0001 T00780078=
202312280956 METAR KPWT 280956Z AUTO 20009KT 10SM -RA BKN060 09/09 A3000 RMK AO2 RAE34B51 SLP164 P0001 T00890089=
202312280856 METAR KPWT 280856Z AUTO 19007G16KT 10SM -RA FEW036 SCT048 09/09 A2999 RMK AO2 SLP159 P0008 60033 T00890089 51030=
202312280756 METAR KPWT 280756Z AUTO 22007KT 10SM -RA FEW030 OVC040 08/08 A2997 RMK AO2 SLP153 P0006 T00830083 401000044=
202312280656 METAR KPWT 280656Z AUTO 20007KT 8SM RA FEW018 OVC034 09/09 A2994 RMK AO2 SLP144 P0019 T00890089=
202312280556 METAR KPWT 280556Z AUTO 17003KT 10SM -RA FEW050 SCT060 BKN110 07/07 A2990 RMK AO2 RAB25 SLP129 P0000 60003 T00720072 10083 20044 52010=
202312280510 SPECI KPWT 280510Z AUTO 00000KT 10SM SCT050 SCT095 06/06 A2989 RMK AO2=
202312280503 SPECI KPWT 280503Z AUTO 14003KT 2SM BR SCT050 06/06 A2988 RMK AO2=
202312280500 SPECI KPWT 280500Z AUTO 14003KT 1SM BR SCT050 05/05 A2989 RMK AO2=
202312280456 METAR KPWT 280456Z AUTO 00000KT 1/2SM FG SCT055 05/05 A2988 RMK AO2 SLP126 T00500050=
202312280451 SPECI KPWT 280451Z AUTO 00000KT 3/4SM BR SCT055 05/05 A2989 RMK AO2=
202312280435 SPECI KPWT 280435Z AUTO 00000KT 1 3/4SM BR SCT050 BKN060 06/06 A2988 RMK AO2 VIS 3/4V5=
202312280356 METAR KPWT 280356Z AUTO 00000KT 6SM BR FEW050 06/06 A2987 RMK AO2 RAE12 SLP123 P0001 T00560056=
202312280317 SPECI KPWT 280317Z AUTO 21003KT 10SM CLR 06/06 A2987 RMK AO2 RAE12 P0001=
202312280310 SPECI KPWT 280310Z AUTO 23003KT 2SM -RA BR CLR 06/06 A2987 RMK AO2 P0001=
202312280307 SPECI KPWT 280307Z AUTO 24003KT 1SM -RA BR CLR 05/05 A2987 RMK AO2 P0001=
202312280256 METAR KPWT 280256Z AUTO 00000KT 1/2SM -RA FG CLR 06/06 A2986 RMK AO2 SLP118 P0000 60002 T00610061 51013=
202312280250 SPECI KPWT 280250Z AUTO 00000KT 3/4SM -RA BR FEW050 06/06 A2987 RMK AO2 P0000=
202312280240 SPECI KPWT 280240Z AUTO 00000KT 1 3/4SM BR FEW050 06/06 A2987 RMK AO2 VIS 1V5 RAE37 P0000=
202312280228 SPECI KPWT 280228Z AUTO 00000KT 4SM -RA BR FEW050 07/07 A2987 RMK AO2 P0000=
202312280223 SPECI KPWT 280223Z AUTO 00000KT 1 1/4SM -RA BR FEW055 07/07 A2986 RMK AO2 VIS 3/4V5 P0000=
202312280218 SPECI KPWT 280218Z AUTO 00000KT 3/4SM -RA BR FEW060 07/07 A2986 RMK AO2 VIS 3/4V2 1/2 P0000=
202312280212 SPECI KPWT 280212Z AUTO 00000KT 1 1/2SM -RA BR FEW039 07/07 A2986 RMK AO2 VIS 3/4V5 P0000=
202312280156 METAR KPWT 280156Z AUTO 00000KT 9SM -RA FEW039 SCT050 07/07 A2986 RMK AO2 RAB06 SLP116 P0002 T00720072=
202312280056 METAR KPWT 280056Z AUTO 10003KT 10SM FEW037 BKN060 08/08 A2987 RMK AO2 RAE47 SLP119 P0000 T00780078=
202312272356 METAR KPWT 272356Z AUTO 00000KT 10SM -RA FEW050 08/08 A2982 RMK AO2 SLP104 P0002 60002 T00830083 10100 20072 53015=
202312272256 METAR KPWT 272256Z AUTO 06003KT 10SM -RA BKN055 08/08 A2980 RMK AO2 SLP096 P0000 T00830083=
202312272156 METAR KPWT 272156Z AUTO VRB04KT 10SM -RA SCT060 09/08 A2978 RMK AO2 RAB19 SLP088 P0000 T00940078=
202312272056 METAR KPWT 272056Z AUTO 00000KT 10SM OVC060 09/08 A2978 RMK AO2 SLP088 60000 T00940083 58006=
202312271956 METAR KPWT 271956Z AUTO 00000KT 10SM OVC065 09/09 A2978 RMK AO2 RAB16E30 SLP090 P0000 T00890089=
202312271856 METAR KPWT 271856Z AUTO 00000KT 10SM CLR 08/08 A2980 RMK AO2 SLP097 T00830083=
202312271756 METAR KPWT 271756Z AUTO 00000KT 10SM FEW085 07/07 A2980 RMK AO2 RAB25E48 SLP095 P0000 60001 T00720072 10089 20067 53023=
202312271656 METAR KPWT 271656Z AUTO 00000KT 10SM SCT100 07/07 A2977 RMK AO2 RAE1557 SLP087 T00670067=
202312271556 METAR KPWT 271556Z AUTO 11003KT 10SM -RA BKN100 07/07 A2973 RMK AO2 RAB35 SLP073 P0000 T00670067=
202312271456 METAR KPWT 271456Z AUTO 00000KT 10SM OVC100 07/07 A2973 RMK AO2 SLP073 60001 T00720067 55004=
202312271356 METAR KPWT 271356Z AUTO 00000KT 10SM CLR 08/06 A2971 RMK AO2 SLP066 T00830061=
202312271256 METAR KPWT 271256Z AUTO 04007KT 10SM FEW110 08/06 A2972 RMK AO2 SLP070 P0001 T00830061=
202312271156 METAR KPWT 271156Z AUTO 05008KT 10SM CLR 09/06 A2974 RMK AO2 RAE50 SLP076 P0000 60000 70001 T00890061 10089 20067 58021=
202312271056 METAR KPWT 271056Z AUTO 12006KT 10SM -RA FEW100 SCT120 08/06 A2979 RMK AO2 RAB19 SLP093 P0000 T00830061=
202312270956 METAR KPWT 270956Z AUTO 00000KT 10SM OVC110 08/06 A2980 RMK AO2 SLP097 T00780056=
202312270856 METAR KPWT 270856Z AUTO 05003KT 10SM FEW110 07/06 A2981 RMK AO2 RAE20 SLP098 P0000 60000 T00720056 58033=
202312270756 METAR KPWT 270756Z AUTO 02005KT 10SM -RA CLR 08/07 A2984 RMK AO2 SLP111 P0000 T00780067 400890050=
202312270656 METAR KPWT 270656Z AUTO 00000KT 10SM -RA CLR 07/07 A2988 RMK AO2 RAB19 SLP125 P0000 T00670067=
202312270556 METAR KPWT 270556Z AUTO 02003KT 10SM SCT070 07/07 A2990 RMK AO2 RAE29 SLP132 P0000 60001 T00670067 10078 20050 58024=
202312270456 METAR KPWT 270456Z AUTO 01003KT 10SM -RA CLR 06/06 A2994 RMK AO2 RAB52 SLP144 P0001 T00610061=
202312270356 METAR KPWT 270356Z AUTO 00000KT 10SM CLR 05/05 A2995 RMK AO2 SLP148 T00500050=
202312270256 METAR KPWT 270256Z AUTO 00000KT 10SM FEW120 05/05 A2997 RMK AO2 SLP157 T00500050 56015=
202312270248 SPECI KPWT 270248Z AUTO 00000KT 3SM BR FEW120 05/05 A2998 RMK AO2=
202312270242 SPECI KPWT 270242Z AUTO 00000KT 1 1/4SM BR FEW120 05/05 A2998 RMK AO2 VIS 1/2V5=
202312270233 SPECI KPWT 270233Z AUTO 00000KT 3/4SM BR CLR 05/05 A2998 RMK AO2 VIS 1/2V5=
202312270224 SPECI KPWT 270224Z AUTO 00000KT 1 1/4SM BR CLR 06/06 A2998 RMK AO2=
202312270211 SPECI KPWT 270211Z AUTO 00000KT 3/4SM BR CLR 05/05 A2998 RMK AO2=
202312270208 SPECI KPWT 270208Z AUTO 00000KT 1 1/2SM BR CLR 05/05 A2998 RMK AO2=
202312270156 METAR KPWT 270156Z AUTO 00000KT 9SM CLR 06/06 A2998 RMK AO2 SLP159 T00610061=
202312270056 METAR KPWT 270056Z AUTO 00000KT 10SM CLR 07/07 A3001 RMK AO2 SLP168 T00670067=
202312262356 METAR KPWT 262356Z AUTO 04004KT 10SM CLR 07/07 A3002 RMK AO2 PRESFR SLP171 T00720072 10089 20072 58021=
202312262256 METAR KPWT 262256Z AUTO 00000KT 10SM CLR 08/08 A3007 RMK AO2 SLP186 T00830083=
202312262156 METAR KPWT 262156Z AUTO 00000KT 10SM FEW005 09/09 A3008 RMK AO2 SLP191 T00890089=
202312262153 SPECI KPWT 262153Z AUTO 00000KT 10SM SCT005 09/08 A3008 RMK AO2=
202312262056 METAR KPWT 262056Z AUTO 27003KT 10SM OVC005 09/08 A3013 RMK AO2 SLP207 T00890083=
202312262017 SPECI KPWT 262017Z AUTO 22003KT 10SM OVC005 08/08 RMK AO2 $=
202312261956 METAR KPWT 261956Z AUTO 26004KT 10SM OVC003 08/08 RMK AO2 SLPNO T00780078 $=
202312261856 METAR KPWT 261856Z AUTO 23005KT 10SM BKN003 08/08 RMK AO2 SLPNO T00780078 $=
202312261804 SPECI KPWT 261804Z AUTO VRB03KT 10SM OVC003 07/07 RMK AO2 $=
202312261756 METAR KPWT 261756Z AUTO 15004KT 2SM BR OVC003 07/07 RMK AO2 SLPNO 60000 T00720072 10078 20067 $=
202312261748 SPECI KPWT 261748Z AUTO 00000KT 1 3/4SM BR OVC003 07/07 RMK AO2 VIS 1V5 $=
202312261656 METAR KPWT 261656Z AUTO 21005KT 6SM BR OVC003 07/07 RMK AO2 SLPNO T00720072 $=
202312261651 SPECI KPWT 261651Z AUTO 21004KT 7SM OVC003 07/07 RMK AO2 $=
202312261643 SPECI KPWT 261643Z AUTO 22003KT 2SM BR OVC003 07/07 RMK AO2 VIS 1V5 $=
202312261637 SPECI KPWT 261637Z AUTO VRB03KT 1SM BR OVC003 07/07 RMK AO2 $=
202312261630 SPECI KPWT 261630Z AUTO 18003KT 1/2SM FG OVC003 07/07 RMK AO2 $=
202312261622 SPECI KPWT 261622Z AUTO 20004KT 3/4SM BR OVC003 07/07 RMK AO2 $=
202312261619 SPECI KPWT 261619Z AUTO 20004KT 1 1/2SM BR OVC003 07/07 RMK AO2 VIS 1/2V5 $=
202312261556 METAR KPWT 261556Z AUTO 20003KT 10SM BKN003 07/07 RMK AO2 SLPNO T00670067 $=
202312261551 SPECI KPWT 261551Z AUTO 19004KT 10SM BKN003 BKN050 07/07 RMK AO2 $=
202312261456 METAR KPWT 261456Z AUTO 16003KT 10SM SCT002 07/07 RMK AO2 SLPNO 60000 T00670067 $=
202312261447 SPECI KPWT 261447Z AUTO 19006KT 10SM SCT002 07/07 RMK AO2 $=
202312261415 SPECI KPWT 261415Z AUTO 18007KT 10SM BKN002 07/07 RMK AO2 $=
202312261356 METAR KPWT 261356Z AUTO 18005KT 10SM OVC004 07/07 RMK AO2 SLPNO T00720072 $=
202312261328 SPECI KPWT 261328Z AUTO 20006KT 10SM BKN004 BKN019 07/07 RMK AO2 CIG 003V008 $=
202312261319 SPECI KPWT 261319Z AUTO 20007KT 10SM BKN006 BKN019 07/07 RMK AO2 $=
202312261256 METAR KPWT 261256Z AUTO 20005KT 10SM SCT004 BKN015 07/07 RMK AO2 RAE13 SLPNO P0000 T00720072 $=
202312261246 SPECI KPWT 261246Z AUTO 21007KT 10SM SCT004 BKN015 07/07 RMK AO2 RAE13 P0000 $=
202312261228 SPECI KPWT 261228Z AUTO 19008KT 10SM BKN004 BKN015 08/08 RMK AO2 RAE13 P0000 $=
202312261215 SPECI KPWT 261215Z AUTO 20005KT 10SM SCT004 BKN013 BKN021 08/08 RMK AO2 RAE13 P0000 $=
202312261208 SPECI KPWT 261208Z AUTO 18008KT 10SM -RA FEW004 SCT013 BKN033 08/08 RMK AO2 P0000 $=
202312261156 METAR KPWT 261156Z AUTO 19006KT 10SM -RA FEW013 SCT022 BKN028 08/08 RMK AO2 RAB1058 SLPNO P0002 60016 70112 T00780078 10083 20056 $=
202312261148 SPECI KPWT 261148Z AUTO 19009KT 10SM -RA BKN030 BKN035 08/08 RMK AO2 RAB1058 P0001 $=
202312261136 SPECI KPWT 261136Z AUTO 19009KT 10SM FEW005 SCT010 OVC028 08/08 RMK AO2 RAB1058E30 P0001 $=
202312261118 SPECI KPWT 261118Z AUTO 18008KT 9SM -RA FEW005 BKN010 OVC019 08/08 RMK AO2 RAB1058 CIG 008V013 P0001 $=
202312261108 SPECI KPWT 261108Z AUTO 19009KT 10SM -RA SCT005 SCT014 OVC019 08/08 RMK AO2 RAB1058 P0001 $=
202312261056 METAR KPWT 261056Z AUTO 19006KT 10SM BKN019 08/08 RMK AO2 RAB00E42 SLPNO P0000 T00780078 $=
202312261044 SPECI KPWT 261044Z AUTO 20008KT 10SM FEW007 BKN021 08/08 RMK AO2 RAB00E42 P0000 $=
202312261035 SPECI KPWT 261035Z AUTO 19006KT 10SM -RA SCT007 08/08 RMK AO2 RAB00 P0000 $=
202312261020 SPECI KPWT 261020Z AUTO 18009KT 10SM -RA BKN007 BKN020 08/08 RMK AO2 RAB00 CIG 004V010 P0000 $=
202312261012 SPECI KPWT 261012Z AUTO 19010KT 10SM -RA SCT007 BKN020 08/08 RMK AO2 RAB00 P0000 $=
202312260956 METAR KPWT 260956Z AUTO 19012G16KT 10SM SCT007 BKN012 OVC018 08/08 RMK AO2 SLPNO T00830083 $=
202312260856 METAR KPWT 260856Z AUTO 19013G22KT 10SM SCT009 BKN020 BKN025 08/08 RMK AO2 RAE21 SLPNO P0001 60014 T00830083 $=
202312260845 SPECI KPWT 260845Z AUTO 20012G21KT 10SM BKN009 BKN014 OVC019 08/08 RMK AO2 RAE21 CIG 005V011 P0001 $=
202312260814 SPECI KPWT 260814Z AUTO 19012G17KT 10SM -RA SCT008 BKN012 OVC025 08/08 RMK AO2 P0001 $=
202312260804 SPECI KPWT 260804Z AUTO 18011G18KT 10SM -RA BKN008 BKN014 OVC029 08/08 RMK AO2 CIG 005V011 P0000 $=
202312260756 METAR KPWT 260756Z AUTO 19012G19KT 10SM -RA SCT008 BKN017 OVC030 08/08 RMK AO2 SLPNO P0002 T00830083 400830017 $=
202312260747 SPECI KPWT 260747Z AUTO 19014G22KT 10SM -RA SCT008 BKN024 OVC032 08/08 RMK AO2 P0002 $=
202312260738 SPECI KPWT 260738Z AUTO 18015G22KT 10SM -RA FEW010 BKN027 OVC045 08/08 RMK AO2 P0002 $=
202312260726 SPECI KPWT 260726Z AUTO 18012G17KT 10SM -RA FEW007 BKN034 OVC044 08/08 RMK AO2 P0002 $=
202312260715 SPECI KPWT 260715Z AUTO 19010G16KT 10SM -RA FEW007 BKN029 OVC037 07/07 RMK AO2 P0001 $=
202312260656 METAR KPWT 260656Z AUTO 21010KT 10SM -RA FEW003 SCT009 OVC033 07/07 A2997 RMK AO2 SLP155 P0011 T00670067=
202312260626 SPECI KPWT 260626Z AUTO 22007KT 7SM RA FEW003 OVC037 06/06 A2995 RMK AO2 P0007=
202312260556 METAR KPWT 260556Z AUTO 25004KT 10SM RA BKN035 OVC047 06/06 A2992 RMK AO2 SLP138 P0005 60020 T00560056 10061 20050 55012=
202312260456 METAR KPWT 260456Z AUTO 00000KT 10SM -RA CLR 06/06 A2991 RMK AO2 RAB07 SLP134 P0001 T00560056=
202312260420 SPECI KPWT 260420Z AUTO 00000KT 5SM -RA BR SCT002 05/05 A2993 RMK AO2 RAB07 P0000=
202312260356 METAR KPWT 260356Z AUTO 00000KT 10SM FEW060 SCT100 05/05 A2994 RMK AO2 SLP144 T00500050=
202312260256 METAR KPWT 260256Z AUTO 00000KT 10SM BKN055 OVC110 05/05 A2995 RMK AO2 RAE13 SLP150 P0001 60014 T00500050 58011=
202312260207 SPECI KPWT 260207Z AUTO 22003KT 10SM -RA FEW007 BKN031 BKN050 06/06 A2997 RMK AO2 P0001=
202312260156 METAR KPWT 260156Z AUTO 00000KT 10SM -RA FEW007 BKN029 06/06 A2998 RMK AO2 SLP159 P0008 T00560056=
202312260124 SPECI KPWT 260124Z AUTO 27003KT 10SM RA FEW005 SCT011 BKN028 06/06 A2998 RMK AO2 P0004=
202312260120 SPECI KPWT 260120Z AUTO 27003KT 8SM RA FEW011 BKN031 06/06 A2998 RMK AO2 P0003=
202312260056 METAR KPWT 260056Z AUTO 00000KT 10SM -RA FEW002 SCT011 BKN023 06/06 A2997 RMK AO2 SLP158 P0005 T00560056=
202312260046 SPECI KPWT 260046Z AUTO 00000KT 8SM -RA FEW002 SCT011 06/06 A2998 RMK AO2 P0004=
202312252356 METAR KPWT 252356Z AUTO 00000KT 8SM -RA CLR 06/06 A2998 RMK AO2 SLP161 P0011 60064 T00560056 10056 20050 58013=
202312252256 METAR KPWT 252256Z AUTO 00000KT 5SM -RA BR FEW019 06/06 A3000 RMK AO2 SLP168 P0012 T00560056=
202312252156 METAR KPWT 252156Z AUTO 00000KT 5SM RA BR SCT017 06/06 A3001 RMK AO2 SLP171 P0009 T00560056=
202312252056 METAR KPWT 252056Z AUTO 06003KT 6SM -RA BR FEW012 OVC017 06/06 A3002 RMK AO2 SLP172 P0012 60032 T00560056 58016=
202312252023 SPECI KPWT 252023Z AUTO 04003KT 3SM RA BR OVC015 06/06 A3004 RMK AO2 P0006=
202312252016 SPECI KPWT 252016Z AUTO 04003KT 2 1/2SM -RA BR OVC013 06/06 A3004 RMK AO2 VIS 2V5 P0004=
202312252016 METAR KPWT 252016Z AUTO 04003KT 2 1/2SM -RA BR OVC013 06/06 A3004 RMK AO2 VIS 2V5 P0004=
202312252010 SPECI KPWT 252010Z AUTO 05003KT 4SM RA BR OVC015 06/06 A3004 RMK AO2 P0004=
202312251956 METAR KPWT 251956Z AUTO 00000KT 4SM -RA BR OVC013 05/05 A3005 RMK AO2 SLP182 P0008 T00500050=
202312251949 SPECI KPWT 251949Z AUTO 00000KT 5SM -RA BR OVC013 05/05 A3005 RMK AO2 P0008=
202312251927 SPECI KPWT 251927Z AUTO 00000KT 2 1/2SM -RA BR OVC013 05/05 A3006 RMK AO2 P0005=
202312251917 SPECI KPWT 251917Z AUTO 03003KT 1 3/4SM RA BR BKN013 05/05 A3006 RMK AO2 P0003=
202312251856 METAR KPWT 251856Z AUTO 00000KT 5SM RA BR FEW003 BKN011 05/05 A3007 RMK AO2 SLP188 P0012 T00500050=
202312251851 SPECI KPWT 251851Z AUTO 02003KT 4SM RA BR BKN013 05/05 A3007 RMK AO2 P0010=
202312251828 SPECI KPWT 251828Z AUTO 00000KT 2 1/2SM -RA BR OVC013 05/05 A3007 RMK AO2 VIS 1 3/4V3 P0005=
202312251819 SPECI KPWT 251819Z AUTO 00000KT 1 3/4SM RA BR OVC015 05/05 A3007 RMK AO2 P0003=
202312251756 METAR KPWT 251756Z AUTO 00000KT 2SM -RA BR OVC019 05/05 A3008 RMK AO2 SLP192 P0008 60012 T00500050 10056 20033 55001=
202312251739 SPECI KPWT 251739Z AUTO 00000KT 2 1/2SM RA BR OVC021 05/05 A3007 RMK AO2 VIS 1 3/4V3 P0005=
202312251656 METAR KPWT 251656Z AUTO 00000KT 7SM -RA OVC029 05/05 A3006 RMK AO2 SLP187 P0004 T00500050=
202312251644 SPECI KPWT 251644Z AUTO 12003KT 9SM -RA BKN029 OVC035 05/05 A3006 RMK AO2 P0004=
202312251556 METAR KPWT 251556Z AUTO 00000KT 10SM -RA FEW027 OVC035 04/04 A3005 RMK AO2 RAB10 SLP183 P0000 T00440044=
202312251516 SPECI KPWT 251516Z AUTO 01003KT 7SM -RA BKN029 OVC034 04/04 A3007 RMK AO2 RAB10 P0000=
202312251456 METAR KPWT 251456Z AUTO 00000KT 10SM FEW027 BKN032 OVC043 04/04 A3008 RMK AO2 RAE1358B14E32 SLP191 P0000 60000 T00390039 58007=
202312251356 METAR KPWT 251356Z AUTO 00000KT 10SM -RA OVC041 03/03 A3009 RMK AO2 RAB1259 SLP196 P0000 T00330033=
202312251256 METAR KPWT 251256Z AUTO 00000KT 10SM OVC032 03/03 A3009 RMK AO2 SLP198 T00330033=
202312251156 METAR KPWT 251156Z AUTO 00000KT 10SM OVC039 03/03 A3010 RMK AO2 SLP199 70010 T00330033 10033 20011 56015=
202312251056 METAR KPWT 251056Z AUTO 00000KT 10SM OVC035 03/03 A3011 RMK AO2 SLP204 T00330033=
202312250956 METAR KPWT 250956Z AUTO 00000KT 10SM OVC039 03/03 A3012 RMK AO2 SLP207 T00280028=
202312250856 METAR KPWT 250856Z AUTO 00000KT 10SM BKN036 02/02 A3014 RMK AO2 SLP214 T00220022 58015 FZRANO=
202312250756 METAR KPWT 250756Z AUTO 00000KT 10SM BKN032 BKN050 02/02 A3016 RMK AO2 SLP222 T00170017 400331028 FZRANO=
202312250721 SPECI KPWT 250721Z AUTO 00000KT 3SM BR BKN039 BKN055 02/02 A3017 RMK AO2 FZRANO=
202312250715 SPECI KPWT 250715Z AUTO 00000KT 1 1/2SM BR BKN039 BKN050 02/02 A3018 RMK AO2 FZRANO=
202312250704 SPECI KPWT 250704Z AUTO 00000KT 2SM BR BKN039 01/01 A3018 RMK AO2 VIS 1 1/4V5 FZRANO=
202312250656 METAR KPWT 250656Z AUTO 00000KT 1SM BR FEW039 01/01 A3018 RMK AO2 SLP228 T00110011 FZRANO=
202312250650 SPECI KPWT 250650Z AUTO 00000KT 1 3/4SM BR CLR 01/01 A3018 RMK AO2 VIS 3/4V5 FZRANO=
202312250636 SPECI KPWT 250636Z AUTO 00000KT 3SM BR FEW055 02/02 A3018 RMK AO2 FZRANO=
202312250623 SPECI KPWT 250623Z AUTO 00000KT 1 3/4SM BR SCT045 BKN055 03/03 A3018 RMK AO2=
202312250556 METAR KPWT 250556Z AUTO 00000KT 10SM FEW029 OVC045 03/03 A3019 RMK AO2 SLP230 60002 T00330033 10033 20028 50002=
202312250549 SPECI KPWT 250549Z AUTO 00000KT 10SM SCT029 OVC043 03/03 A3019 RMK AO2=
202312250456 METAR KPWT 250456Z AUTO 00000KT 10SM OVC027 03/03 A3019 RMK AO2 SLP231 T00330033=
202312250356 METAR KPWT 250356Z AUTO 00000KT 10SM OVC025 03/03 A3018 RMK AO2 RAE03 SLP229 P0000 T00280028=
202312250341 SPECI KPWT 250341Z AUTO 00000KT 10SM BKN025 OVC050 03/03 A3018 RMK AO2 RAE03 P0000=
202312250331 SPECI KPWT 250331Z AUTO 00000KT 10SM SCT025 SCT034 OVC050 03/03 A3018 RMK AO2 RAE03 P0000=
202312250256 METAR KPWT 250256Z AUTO 00000KT 10SM -RA OVC027 03/03 A3018 RMK AO2 SLP229 P0001 60002 T00330033 52006=
202312250156 METAR KPWT 250156Z AUTO 00000KT 8SM -RA BKN027 OVC033 03/03 A3017 RMK AO2 SLP225 P0000 T00330033=
202312250056 METAR KPWT 250056Z AUTO 00000KT 10SM -RA OVC025 03/03 A3018 RMK AO2 SLP226 P0001 T00330033=
202312242356 METAR KPWT 242356Z AUTO 00000KT 10SM -RA OVC027 03/03 A3016 RMK AO2 SLP222 P0001 60008 T00330033 10033 20000 53002=
202312242256 METAR KPWT 242256Z AUTO 30004KT 10SM -RA OVC027 03/03 A3016 RMK AO2 SLP222 P0002 T00330033=
202312242156 METAR KPWT 242156Z AUTO 00000KT 10SM -RA BKN028 OVC034 03/03 A3014 RMK AO2 SLP216 P0003 T00280028=
202312242056 METAR KPWT 242056Z AUTO 27003KT 9SM -RA OVC028 03/03 A3016 RMK AO2 SLP221 P0002 60002 T00280028 50017=
202312242005 SPECI KPWT 242005Z AUTO 25007KT 10SM -RA BKN024 BKN031 03/03 A3016 RMK AO2 P0000=
202312241956 METAR KPWT 241956Z AUTO 22006KT 10SM -RA SCT024 BKN033 03/03 A3016 RMK AO2 RAB21 SLP222 P0000 T00280028=
202312241856 METAR KPWT 241856Z AUTO 22007KT 10SM CLR 01/01 A3014 RMK AO2 SLP215 T00110011 FZRANO=
202312241756 METAR KPWT 241756Z AUTO 00000KT 10SM CLR 00/00 A3011 RMK AO2 SLP204 T00000000 10000 21017 53005 FZRANO=
202312241656 METAR KPWT 241656Z AUTO 00000KT 10SM CLR 00/00 A3010 RMK AO2 SLP201 T00000000 FZRANO=
202312241556 METAR KPWT 241556Z AUTO 00000KT 10SM OVC110 00/00 A3010 RMK AO2 SLP201 T00000000 FZRANO=
202312241456 METAR KPWT 241456Z AUTO 00000KT 10SM CLR M01/M01 A3009 RMK AO2 SLP199 T10061006 50005 FZRANO=
202312241356 METAR KPWT 241356Z AUTO 00000KT 10SM CLR M01/M01 A3010 RMK AO2 SLP201 T10111011 FZRANO=
202312241256 METAR KPWT 241256Z AUTO 00000KT 10SM CLR M01/M01 A3008 RMK AO2 SLP194 T10061006 FZRANO=
202312241156 METAR KPWT 241156Z AUTO 00000KT 10SM CLR 00/00 A3007 RMK AO2 SLP192 T00000000 10006 21028 56027 FZRANO=
202312241056 METAR KPWT 241056Z AUTO 02003KT 10SM CLR 01/01 A3009 RMK AO2 SLP197 T00060006 FZRANO=
202312240956 METAR KPWT 240956Z AUTO 00000KT 10SM CLR M02/M02 A3012 RMK AO2 SLP207 T10171017 FZRANO=
202312240856 METAR KPWT 240856Z AUTO 00000KT 10SM CLR M03/M03 A3016 RMK AO2 SLP220 T10281028 58018 FZRANO=
202312240827 SPECI KPWT 240827Z AUTO 00000KT 4SM BR CLR M02/M02 A3017 RMK AO2 FZRANO=
202312240818 SPECI KPWT 240818Z AUTO 00000KT 2SM BR CLR M02/M02 A3017 RMK AO2 FZRANO=
202312240804 SPECI KPWT 240804Z AUTO 00000KT 1SM BR CLR M03/M03 A3017 RMK AO2 FZRANO=
202312240756 METAR KPWT 240756Z AUTO 00000KT 1/2SM FZFG CLR M03/M03 A3018 RMK AO2 SLP228 T10281028 400441028 FZRANO=
202312240746 SPECI KPWT 240746Z AUTO 00000KT 1/2SM FZFG CLR M03/M03 A3018 RMK AO2 FZRANO=
202312240739 SPECI KPWT 240739Z AUTO 00000KT 3/4SM BR CLR M02/M02 A3018 RMK AO2 FZRANO=
202312240735 SPECI KPWT 240735Z AUTO 00000KT 1 3/4SM BR CLR M02/M02 A3019 RMK AO2 FZRANO=
202312240724 SPECI KPWT 240724Z AUTO 00000KT 3SM BR CLR M02/M02 A3019 RMK AO2 FZRANO=
202312240720 SPECI KPWT 240720Z AUTO 00000KT 1 1/2SM BR CLR M02/M02 A3018 RMK AO2 VIS 3/4V5 FZRANO=
202312240709 SPECI KPWT 240709Z AUTO 00000KT 2SM BR CLR M02/M02 A3019 RMK AO2 FZRANO=
202312240659 SPECI KPWT 240659Z AUTO 00000KT 1SM BR CLR M02/M02 A3020 RMK AO2 VIS 1/2V5 FZRANO=
202312240656 METAR KPWT 240656Z AUTO 00000KT 2SM BR CLR M02/M02 A3019 RMK AO2 VIS 1/2V5 SLP234 T10171017 FZRANO=
202312240644 SPECI KPWT 240644Z AUTO 00000KT 4SM BR CLR M01/M01 A3020 RMK AO2 FZRANO=
202312240637 SPECI KPWT 240637Z AUTO 00000KT 2 1/2SM BR CLR M01/M01 A3020 RMK AO2 VIS 3/4V5 FZRANO=
202312240607 SPECI KPWT 240607Z AUTO 00000KT 1SM BR CLR M01/M01 A3021 RMK AO2 FZRANO=
202312240556 METAR KPWT 240556Z AUTO 00000KT 1/2SM FZFG CLR M01/M01 A3021 RMK AO2 SLP239 T10111011 10033 21011 58024 FZRANO=
202312240544 SPECI KPWT 240544Z AUTO 00000KT 1/4SM FZFG CLR M01/M01 A3022 RMK AO2 FZRANO=
202312240534 SPECI KPWT 240534Z AUTO 00000KT 1/2SM FZFG CLR M01/M01 A3023 RMK AO2 FZRANO=
202312240525 SPECI KPWT 240525Z AUTO 00000KT 3/4SM BR CLR M01/M01 A3023 RMK AO2 FZRANO=
202312240521 SPECI KPWT 240521Z AUTO 00000KT 1 3/4SM BR CLR M01/M01 A3023 RMK AO2 FZRANO=
202312240503 SPECI KPWT 240503Z AUTO 35003KT 3SM BR CLR M01/M01 A3024 RMK AO2 FZRANO=
202312240456 METAR KPWT 240456Z AUTO 36004KT 1 3/4SM BR CLR M01/M01 A3024 RMK AO2 SLP248 T10061006 FZRANO=
202312240450 SPECI KPWT 240450Z AUTO 01003KT 1 1/4SM BR CLR M01/M01 A3024 RMK AO2 FZRANO=
202312240437 SPECI KPWT 240437Z AUTO 04003KT 3/4SM BR CLR M01/M01 A3024 RMK AO2 FZRANO=
202312240433 SPECI KPWT 240433Z AUTO 04003KT 1 1/2SM BR CLR M01/M01 A3024 RMK AO2 FZRANO=
202312240421 SPECI KPWT 240421Z AUTO 00000KT 3SM BR CLR M01/M01 A3025 RMK AO2 FZRANO=
202312240411 SPECI KPWT 240411Z AUTO 01003KT 1 1/4SM BR FEW001 M01/M01 A3025 RMK AO2 FZRANO=
202312240404 SPECI KPWT 240404Z AUTO 01003KT 1SM BR VV001 00/00 A3025 RMK AO2 FZRANO=
202312240356 METAR KPWT 240356Z AUTO 03003KT 1/2SM FG BKN001 00/00 A3026 RMK AO2 SLP255 T00000000 FZRANO=
202312240340 SPECI KPWT 240340Z AUTO 05003KT 1/4SM FG OVC001 01/01 A3027 RMK AO2 FZRANO=
202312240317 SPECI KPWT 240317Z AUTO 00000KT 1/2SM FG OVC001 00/00 A3028 RMK AO2 FZRANO=
202312240256 METAR KPWT 240256Z AUTO 00000KT 1/4SM FG OVC001 01/01 A3028 RMK AO2 SLP263 T00060006 58007 FZRANO=
202312240156 METAR KPWT 240156Z AUTO 00000KT 1/4SM FG OVC001 02/02 A3029 RMK AO2 SLP266 T00220022 FZRANO=
202312240056 METAR KPWT 240056Z AUTO 00000KT 1/4SM FG OVC001 02/02 A3030 RMK AO2 SLP270 T00220022 FZRANO=
202312232356 METAR KPWT 232356Z AUTO 09003KT M1/4SM FG OVC001 03/03 A3030 RMK AO2 SLP270 T00330033 10044 20017 58005=
202312232342 SPECI KPWT 232342Z AUTO 00000KT 1/4SM FG OVC001 03/03 A3031 RMK AO2=
202312232332 SPECI KPWT 232332Z AUTO VRB03KT 1/2SM FG OVC001 04/04 A3031 RMK AO2=
202312232324 SPECI KPWT 232324Z AUTO 36003KT 3/4SM BR OVC001 03/03 A3031 RMK AO2=
202312232320 METAR KPWT 232320Z AUTO 00000KT 1 3/4SM BR OVC001 03/03 A3031 RMK AO2 VIS 1/2V5=
202312232320 SPECI KPWT 232320Z AUTO 00000KT 1 3/4SM BR OVC001 03/03 A3031 RMK AO2 VIS 1/2V5=
202312232306 SPECI KPWT 232306Z AUTO 00000KT 3SM BR OVC001 03/03 A3032 RMK AO2=
202312232256 METAR KPWT 232256Z AUTO 34003KT 1 1/4SM BR OVC001 03/03 A3032 RMK AO2 SLP275 T00330033=
202312232251 SPECI KPWT 232251Z AUTO 03003KT 1SM BR OVC001 04/04 A3032 RMK AO2=
202312232236 SPECI KPWT 232236Z AUTO 05003KT 1/2SM FG OVC001 03/03 A3032 RMK AO2=
202312232221 SPECI KPWT 232221Z AUTO 00000KT 1/4SM FG OVC001 03/03 A3032 RMK AO2=
202312232211 SPECI KPWT 232211Z AUTO 00000KT 3/4SM BR OVC001 03/03 A3032 RMK AO2=
202312232205 SPECI KPWT 232205Z AUTO 00000KT 1/4SM FG OVC001 03/03 A3032 RMK AO2=
202312232156 METAR KPWT 232156Z AUTO 00000KT 1/2SM FG OVC001 03/03 A3032 RMK AO2 SLP275 T00330033=
202312232115 SPECI KPWT 232115Z AUTO 26003KT 1/4SM FG OVC001 03/03 A3032 RMK AO2=
202312232102 SPECI KPWT 232102Z AUTO 00000KT 1/2SM FG OVC001 04/04 A3033 RMK AO2=
202312232056 METAR KPWT 232056Z AUTO 34003KT 1SM BR OVC001 04/04 A3033 RMK AO2 VIS 1/2V1 3/4 SLP278 T00440044 56013=
202312232039 SPECI KPWT 232039Z AUTO 00000KT 3/4SM BR OVC001 04/04 A3034 RMK AO2=
202312231956 METAR KPWT 231956Z AUTO 15003KT 1/4SM FG OVC001 03/03 A3035 RMK AO2 SLP286 T00280028=
202312231856 METAR KPWT 231856Z AUTO 11003KT 1/4SM FG OVC001 02/02 A3037 RMK AO2 SLP293 T00220022 FZRANO=
202312231814 SPECI KPWT 231814Z AUTO 12004KT 1/4SM FG OVC001 02/02 A3037 RMK AO2 FZRANO=
202312231756 METAR KPWT 231756Z AUTO 00000KT 1/4SM FG OVC003 02/02 A3037 RMK AO2 SLP292 T00170017 10022 20000 51013 FZRANO=
202312231656 METAR KPWT 231656Z AUTO 21003KT 1/4SM FG OVC003 02/02 A3036 RMK AO2 SLP288 T00170017 FZRANO=
202312231556 METAR KPWT 231556Z AUTO 00000KT 1/4SM FG OVC003 02/02 A3034 RMK AO2 SLP283 T00170017 FZRANO=
202312231513 SPECI KPWT 231513Z AUTO 28004KT 1/2SM FG OVC003 02/02 A3033 RMK AO2 FZRANO=
202312231505 SPECI KPWT 231505Z AUTO 27004KT 3/4SM BR OVC003 02/02 A3033 RMK AO2 FZRANO=
202312231456 METAR KPWT 231456Z AUTO 00000KT 1/2SM FG OVC003 02/02 A3033 RMK AO2 SLP278 T00170017 53015 FZRANO=
202312231441 SPECI KPWT 231441Z AUTO 00000KT 1/2SM FG OVC003 02/02 A3032 RMK AO2 FZRANO=
202312231356 METAR KPWT 231356Z AUTO 00000KT 1/4SM FG OVC003 01/01 A3031 RMK AO2 SLP272 T00110011 FZRANO=
202312231324 SPECI KPWT 231324Z AUTO 00000KT 1/4SM FG OVC003 01/01 A3030 RMK AO2 FZRANO=
202312231302 SPECI KPWT 231302Z AUTO 00000KT 1/2SM FG OVC003 01/01 A3030 RMK AO2 FZRANO=
202312231256 METAR KPWT 231256Z AUTO 00000KT 1SM BR OVC003 00/00 A3030 RMK AO2 SLP267 T00000000 FZRANO=
202312231253 SPECI KPWT 231253Z AUTO 00000KT 1 3/4SM BR OVC003 00/00 A3029 RMK AO2 FZRANO=
202312231220 SPECI KPWT 231220Z AUTO 00000KT 7SM BKN003 BKN007 M01/M01 A3029 RMK AO2 CIG 003V006 FZRANO=
202312231216 SPECI KPWT 231216Z AUTO 00000KT 10SM BKN007 M01/M01 A3029 RMK AO2 CIG 003V007 FZRANO=
202312231207 SPECI KPWT 231207Z AUTO 00000KT 10SM SCT007 M01/M01 A3029 RMK AO2 FZRANO=
202312231159 SPECI KPWT 231159Z AUTO 00000KT 2SM BR FEW007 M01/M01 A3028 RMK AO2 VIS 3/4V5 FZRANO=
202312231156 METAR KPWT 231156Z AUTO 00000KT 1SM BR CLR M01/M01 A3028 RMK AO2 VIS 3/4V5 SLP263 70028 T10061006 10022 21006 51012 FZRANO=
202312231145 SPECI KPWT 231145Z AUTO 00000KT 1/2SM FZFG CLR M01/M01 A3028 RMK AO2 FZRANO=
202312231056 METAR KPWT 231056Z AUTO 00000KT 1/4SM FG OVC003 01/01 A3028 RMK AO2 SLP260 T00110011 FZRANO=
202312231037 SPECI KPWT 231037Z AUTO 00000KT 1/4SM FG OVC003 01/01 A3027 RMK AO2 FZRANO=
202312231007 SPECI KPWT 231007Z AUTO 00000KT 1/2SM FG OVC003 01/01 A3027 RMK AO2 FZRANO=
202312230956 METAR KPWT 230956Z AUTO 00000KT 1/4SM FG OVC003 01/01 A3027 RMK AO2 SLP256 T00110011 FZRANO=
202312230856 METAR KPWT 230856Z AUTO 00000KT 1/4SM FG OVC001 02/02 A3025 RMK AO2 SLP249 T00170017 51020 FZRANO=
202312230756 METAR KPWT 230756Z AUTO 00000KT 1/4SM FG OVC001 02/02 A3024 RMK AO2 SLP249 T00170017 400781011 FZRANO=
202312230656 METAR KPWT 230656Z AUTO 00000KT 1/4SM FG OVC001 00/00 A3022 RMK AO2 SLP241 T00000000 FZRANO=
202312230631 SPECI KPWT 230631Z AUTO 00000KT 1/4SM FZFG OVC001 M01/M01 A3021 RMK AO2 FZRANO=
202312230621 SPECI KPWT 230621Z AUTO 00000KT 1/2SM FZFG OVC001 M01/M01 A3020 RMK AO2 FZRANO=
202312230611 SPECI KPWT 230611Z AUTO 00000KT 3/4SM BR OVC001 M01/M01 A3020 RMK AO2 VIS 1/4V2 1/2 FZRANO=
202312230607 SPECI KPWT 230607Z AUTO 00000KT 1 1/4SM BR BKN001 M01/M01 A3020 RMK AO2 VIS 1/2V2 1/2 FZRANO=
202312230553 METAR KPWT 230553Z AUTO 00000KT 3/4SM BR VV001 M01/M01 A3019 RMK AO2 SLP231 60001 T10111011 10050 21011 53019 FZRANO=
202312230552 SPECI KPWT 230552Z AUTO 00000KT 3/4SM BR VV001 M01/M01 A3019 RMK AO2 FZRANO=
202312230544 SPECI KPWT 230544Z AUTO 00000KT 1/4SM FZFG VV001 M01/M01 A3019 RMK AO2 FZRANO=
202312230512 SPECI KPWT 230512Z AUTO 00000KT 1/2SM FZFG CLR M01/M01 A3017 RMK AO2 FZRANO=
202312230500 SPECI KPWT 230500Z AUTO 07003KT 1SM BR CLR M01/M01 A3017 RMK AO2 VIS 1/2V5 FZRANO=
202312230456 METAR KPWT 230456Z AUTO 00000KT 1/2SM FZFG CLR M01/M01 A3017 RMK AO2 SLP224 T10061006 FZRANO=
202312230452 SPECI KPWT 230452Z AUTO 00000KT 3/4SM BR CLR M01/M01 A3017 RMK AO2 VIS 1/2V1 3/4 FZRANO=
202312230429 SPECI KPWT 230429Z AUTO 20003KT 1/2SM FZFG VV001 M01/M01 A3016 RMK AO2 FZRANO=
202312230404 SPECI KPWT 230404Z AUTO 00000KT 1/4SM FG VV001 00/00 A3015 RMK AO2 FZRANO=
202312230356 METAR KPWT 230356Z AUTO 00000KT 1/2SM FG VV001 00/00 A3015 RMK AO2 SLP216 T00000000 FZRANO=
202312230352 SPECI KPWT 230352Z AUTO 00000KT 1/4SM FG VV001 00/00 A3015 RMK AO2 FZRANO=
202312230346 SPECI KPWT 230346Z AUTO 00000KT 1/2SM FG CLR 00/00 A3015 RMK AO2 FZRANO=
202312230344 SPECI KPWT 230344Z AUTO 00000KT 1SM BR CLR 00/00 A3015 RMK AO2 FZRANO=
202312230340 SPECI KPWT 230340Z AUTO 00000KT 2SM BR CLR 00/00 A3015 RMK AO2 FZRANO=
202312230332 SPECI KPWT 230332Z AUTO 00000KT 1SM BR CLR 00/00 A3014 RMK AO2 VIS 1/2V2 FZRANO=
202312230321 SPECI KPWT 230321Z AUTO 00000KT 3/4SM BR VV011 01/01 A3014 RMK AO2 FZRANO=
202312230318 SPECI KPWT 230318Z AUTO 00000KT 1 1/2SM BR FEW011 01/01 A3013 RMK AO2 FZRANO=
202312230312 SPECI KPWT 230312Z AUTO 00000KT 6SM BR FEW011 01/01 A3013 RMK AO2 FZRANO=
202312230305 SPECI KPWT 230305Z AUTO 00000KT 2 1/2SM BR FEW011 01/01 A3013 RMK AO2 FZRANO=
202312230301 SPECI KPWT 230301Z AUTO 00000KT 1SM BR VV013 01/01 A3013 RMK AO2 FZRANO=
202312230256 METAR KPWT 230256Z AUTO 00000KT 1/2SM FG FEW001 01/01 A3013 RMK AO2 SLP209 P0001 60001 T00110011 51020 FZRANO=
202312230245 SPECI KPWT 230245Z AUTO 12003KT 1/2SM FG FEW001 SCT013 01/01 A3013 RMK AO2 P0001 FZRANO=
202312230241 SPECI KPWT 230241Z AUTO 00000KT 3/4SM BR VV001 01/01 A3013 RMK AO2 FZRANO=
202312230239 SPECI KPWT 230239Z AUTO 00000KT 1 1/2SM BR SCT001 01/01 A3013 RMK AO2 FZRANO=
202312230231 SPECI KPWT 230231Z AUTO 00000KT 5SM BR SCT001 01/01 A3013 RMK AO2 FZRANO=
202312230227 SPECI KPWT 230227Z AUTO 00000KT 1 1/4SM BR FEW001 01/01 A3012 RMK AO2 FZRANO=
202312230225 SPECI KPWT 230225Z AUTO 00000KT 3/4SM BR VV001 01/01 A3012 RMK AO2 FZRANO=
202312230223 SPECI KPWT 230223Z AUTO 00000KT 1/2SM FG CLR 01/01 A3012 RMK AO2 FZRANO=
202312230214 SPECI KPWT 230214Z AUTO 00000KT 1/2SM FG VV001 01/01 A3011 RMK AO2 FZRANO=
202312230211 SPECI KPWT 230211Z AUTO 00000KT 1SM BR VV001 01/01 A3011 RMK AO2 VIS 1/2V5 FZRANO=
202312230205 SPECI KPWT 230205Z AUTO 00000KT 1 3/4SM BR CLR 01/01 A3011 RMK AO2 VIS 1/2V5 FZRANO=
202312230156 METAR KPWT 230156Z AUTO 00000KT 5SM BR CLR 02/02 A3011 RMK AO2 SLP205 T00170017 FZRANO=
202312230120 SPECI KPWT 230120Z AUTO 13003KT 8SM CLR 02/02 A3010 RMK AO2 FZRANO=
202312230105 SPECI KPWT 230105Z AUTO 00000KT 2SM BR CLR 02/02 A3010 RMK AO2 FZRANO=
202312230101 SPECI KPWT 230101Z AUTO 00000KT 1SM BR CLR 02/02 A3010 RMK AO2 FZRANO=
202312230056 METAR KPWT 230056Z AUTO 00000KT 1/2SM FG CLR 02/02 A3010 RMK AO2 SLP199 T00170017 FZRANO=
202312230052 SPECI KPWT 230052Z AUTO 00000KT 1/2SM FG CLR 02/02 A3009 RMK AO2 FZRANO=
202312230042 SPECI KPWT 230042Z AUTO 00000KT 1SM BR CLR 03/03 A3009 RMK AO2=
202312230030 SPECI KPWT 230030Z AUTO 00000KT 1/2SM FG CLR 03/03 A3009 RMK AO2=
202312230028 SPECI KPWT 230028Z AUTO 00000KT 1SM BR CLR 03/03 A3009 RMK AO2=
202312222356 METAR KPWT 222356Z AUTO 00000KT 10SM CLR 05/05 A3007 RMK AO2 SLP190 60003 T00500050 10061 20050 53018=
202312222313 SPECI KPWT 222313Z AUTO 12003KT 10SM SCT016 06/06 A3005 RMK AO2=
202312222256 METAR KPWT 222256Z AUTO 11003KT 10SM OVC016 06/06 A3004 RMK AO2 SLP180 T00560056=
202312222226 SPECI KPWT 222226Z AUTO 06006KT 10SM FEW006 OVC016 06/06 A3004 RMK AO2=
202312222210 SPECI KPWT 222210Z AUTO 07005KT 10SM SCT006 OVC014 06/06 A3003 RMK AO2=
202312222156 METAR KPWT 222156Z AUTO 05006KT 8SM BKN006 OVC012 05/05 A3003 RMK AO2 RAE41 CIG 003V008 SLP175 P0001 T00500050=
202312222146 SPECI KPWT 222146Z AUTO 04008KT 6SM BR SCT004 OVC012 05/05 A3003 RMK AO2 RAE41 P0001=
202312222133 SPECI KPWT 222133Z AUTO 04007KT 9SM -RA BKN004 OVC010 05/05 A3002 RMK AO2 CIG 003V007 P0001=
202312222125 SPECI KPWT 222125Z AUTO 04007KT 7SM -RA BKN006 OVC010 05/05 A3002 RMK AO2 CIG 003V008 P0001=
202312222113 SPECI KPWT 222113Z AUTO 03008KT 5SM -RA BR BKN004 OVC011 05/05 A3002 RMK AO2 CIG 003V008 P0001=
202312222056 METAR KPWT 222056Z AUTO 05007KT 5SM -RA BR BKN009 OVC013 06/06 A3002 RMK AO2 CIG 004V012 SLP171 P0001 60002 T00560056 51021=
202312222044 SPECI KPWT 222044Z AUTO 07004KT 2 1/2SM -RA BR FEW004 OVC011 06/06 A3001 RMK AO2 P0001=
202312221956 METAR KPWT 221956Z AUTO 07007KT 10SM -RA OVC009 05/05 A3001 RMK AO2 SLP168 P0001 T00500050=
202312221936 SPECI KPWT 221936Z AUTO 10005KT 10SM -RA OVC009 05/05 A3001 RMK AO2 CIG 007V013 P0000=
202312221922 SPECI KPWT 221922Z AUTO VRB05KT 10SM -RA OVC013 05/05 A3001 RMK AO2 P0000=
202312221856 METAR KPWT 221856Z AUTO 13006KT 10SM -RA FEW008 BKN015 OVC021 05/05 A3001 RMK AO2 RAE13B39 SLP168 P0000 T00500050=
202312221845 SPECI KPWT 221845Z AUTO 11005KT 10SM -RA SCT006 SCT011 OVC021 06/06 A3000 RMK AO2 RAE13B39 P0000=
202312221817 SPECI KPWT 221817Z AUTO VRB03KT 10SM BKN006 06/06 A2999 RMK AO2 RAE13 PRESRR P0000=
202312221806 SPECI KPWT 221806Z AUTO 21004KT 10SM -RA SCT008 SCT042 BKN060 06/06 A2997 RMK AO2 PRESRR P0000=
202312221756 METAR KPWT 221756Z AUTO VRB06G15KT 10SM -RA FEW015 SCT032 SCT060 06/06 A2995 RMK AO2 PRESRR SLP150 P0016 60024 T00560056 10072 20056 51028=
202312221754 SPECI KPWT 221754Z AUTO 08007G15KT 050V110 10SM -RA FEW015 SCT032 SCT060 06/06 A2995 RMK AO2 PRESRR P0015=
202312221734 SPECI KPWT 221734Z AUTO 05021KT 3SM -RA BR SCT007 BKN015 BKN022 06/06 A2992 RMK AO2 P0014=
202312221656 METAR KPWT 221656Z AUTO 04003KT 10SM -RA BKN007 OVC012 06/06 A2991 RMK AO2 RAB54 CIG 004V008 PRESRR SLP136 P0001 T00610061=
202312221646 SPECI KPWT 221646Z AUTO 00000KT 10SM SCT004 BKN008 OVC014 06/06 A2990 RMK AO2 CIG 006V012 P0001=
202312221556 METAR KPWT 221556Z AUTO VRB06KT 10SM OVC003 06/06 A2987 RMK AO2 RAB37E49 CIG 003V007 SLP121 P0000 T00610061=
202312221456 METAR KPWT 221456Z AUTO 18009G15KT 10SM OVC003 07/07 A2986 RMK AO2 RAE55 SLP118 P0001 60007 T00670067 56010=
202312221356 METAR KPWT 221356Z AUTO 20006KT 10SM -RA OVC003 07/07 A2986 RMK AO2 SLP118 P0002 T00670067=
202312221256 METAR KPWT 221256Z AUTO 19008KT 10SM -RA OVC003 07/07 A2987 RMK AO2 SLP120 P0004 T00670067=
202312221210 SPECI KPWT 221210Z AUTO 19008KT 10SM -RA OVC003 07/07 A2988 RMK AO2 CIG 002V007 P0001=
202312221156 METAR KPWT 221156Z AUTO 20008KT 10SM -RA BKN005 BKN015 OVC031 07/07 A2989 RMK AO2 CIG 003V007 SLP128 P0005 60007 70007 T00720072 10078 20056 58009=
202312221130 SPECI KPWT 221130Z AUTO 21009KT 10SM -RA BKN005 BKN025 OVC031 08/08 A2990 RMK AO2 CIG 003V007 P0005=
202312221056 METAR KPWT 221056Z AUTO 20010KT 10SM -RA BKN003 BKN007 BKN049 08/08 A2991 RMK AO2 SLP135 P0002 T00780078=
202312220956 METAR KPWT 220956Z AUTO 21010KT 10SM -RA BKN005 07/07 A2992 RMK AO2 RAB50 SLP136 P0000 T00720072=
202312220948 SPECI KPWT 220948Z AUTO 21010KT 10SM SCT005 07/07 A2992 RMK AO2=
202312220936 SPECI KPWT 220936Z AUTO 21010KT 10SM BKN005 07/07 A2992 RMK AO2=
202312220912 SPECI KPWT 220912Z AUTO 20011KT 10SM OVC003 06/06 A2992 RMK AO2 CIG 002V007=
202312220856 METAR KPWT 220856Z AUTO 21008KT 10SM OVC001 06/06 A2993 RMK AO2 SLP140 T00610061 56008=
202312220809 SPECI KPWT 220809Z AUTO 21007KT 3SM BR OVC001 06/06 A2993 RMK AO2=
202312220805 SPECI KPWT 220805Z AUTO 21006KT 1 3/4SM BR OVC001 06/06 A2993 RMK AO2=
202312220756 METAR KPWT 220756Z AUTO 20005KT 1SM BR OVC001 06/06 A2993 RMK AO2 SLP140 T00610061 400780056=
202312220739 SPECI KPWT 220739Z AUTO 21005KT 3/4SM BR OVC001 06/06 A2993 RMK AO2=
202312220730 SPECI KPWT 220730Z AUTO 21005KT 1SM BR OVC001 06/06 A2994 RMK AO2=
202312220719 SPECI KPWT 220719Z AUTO 21005KT 3/4SM BR OVC001 06/06 A2994 RMK AO2=
202312220708 SPECI KPWT 220708Z AUTO 20004KT 1 1/4SM BR OVC001 06/06 A2994 RMK AO2=
202312220656 METAR KPWT 220656Z AUTO 22005KT 3/4SM BR OVC001 06/06 A2994 RMK AO2 SLP145 T00560056=
202312220654 SPECI KPWT 220654Z AUTO 22005KT 3/4SM BR OVC001 06/06 A2994 RMK AO2=
202312220647 SPECI KPWT 220647Z AUTO 21004KT 1 1/2SM BR OVC001 06/06 A2994 RMK AO2=
202312220633 SPECI KPWT 220633Z AUTO 20006KT 1SM BR OVC001 06/06 A2995 RMK AO2=
202312220556 METAR KPWT 220556Z AUTO 20004KT 1/2SM FG OVC001 06/06 A2995 RMK AO2 SLP148 60000 T00610061 10072 20061 58004=
202312220549 SPECI KPWT 220549Z AUTO 21005KT 1/2SM FG OVC001 06/06 A2995 RMK AO2=
202312220456 METAR KPWT 220456Z AUTO 22003KT 1/4SM FG OVC001 06/06 A2996 RMK AO2 RAB06E15B43E53 SLP151 P0000 T00610061=
202312220356 METAR KPWT 220356Z AUTO 22006KT 1/4SM FG OVC001 06/06 A2996 RMK AO2 SLP152 T00610061=
202312220325 SPECI KPWT 220325Z AUTO 22005KT 1/4SM FG OVC001 06/06 A2997 RMK AO2=
202312220256 METAR KPWT 220256Z AUTO 23004KT 1/4SM FG OVC003 06/06 A2996 RMK AO2 SLP152 T00610061 58008=
202312220232 SPECI KPWT 220232Z AUTO 21004KT 1/2SM FG OVC003 06/06 A2996 RMK AO2=
202312220156 METAR KPWT 220156Z AUTO 21003KT 1/4SM FG OVC003 07/07 A2997 RMK AO2 SLP156 T00670067=
202312220056 METAR KPWT 220056Z AUTO 25003KT 1/4SM FG OVC003 07/07 A2999 RMK AO2 SLP160 T00670067=
202312212356 METAR KPWT 212356Z AUTO 22005KT 1/4SM FG OVC003 07/07 A2999 RMK AO2 SLP161 T00720072 10078 20072 58003=
202312212256 METAR KPWT 212256Z AUTO 21004KT 1/4SM FG OVC003 07/07 A2999 RMK AO2 SLP161 T00720072=
202312212249 SPECI KPWT 212249Z AUTO 24003KT 1/4SM FG OVC003 07/07 A2999 RMK AO2=
202312212229 SPECI KPWT 212229Z AUTO 23005KT 3/4SM BR OVC003 07/07 A3000 RMK AO2=
202312212207 SPECI KPWT 212207Z AUTO 22005KT 1/4SM FG OVC003 07/07 A3000 RMK AO2=
202312212156 METAR KPWT 212156Z AUTO 23006KT 1/2SM FG OVC003 07/07 A3000 RMK AO2 SLP164 T00720072=
202312212152 SPECI KPWT 212152Z AUTO 23007KT 3/4SM BR OVC003 07/07 A3000 RMK AO2=
202312212145 SPECI KPWT 212145Z AUTO 23007KT 1SM BR OVC003 08/08 A3000 RMK AO2 VIS 1/2V2=
202312212123 SPECI KPWT 212123Z AUTO 20004KT 1 3/4SM BR OVC003 08/08 A3001 RMK AO2 VIS 1V4=
202312212056 METAR KPWT 212056Z AUTO 21006KT 10SM OVC003 08/08 A3002 RMK AO2 SLP172 T00780078 58016=
202312212044 SPECI KPWT 212044Z AUTO 19004KT 10SM OVC003 08/08 A3003 RMK AO2=
202312212037 SPECI KPWT 212037Z AUTO 20005KT 2 1/2SM BR OVC003 08/08 A3003 RMK AO2 VIS 1/2V5=
202312212034 SPECI KPWT 212034Z AUTO VRB03KT 1SM BR OVC003 08/08 A3003 RMK AO2 VIS 1/4V5=
202312212026 SPECI KPWT 212026Z AUTO 21004KT 1/2SM FG OVC003 07/07 A3003 RMK AO2=
202312211956 METAR KPWT 211956Z AUTO 21004KT 1/4SM FG OVC003 07/07 A3004 RMK AO2 SLP179 T00720072=
202312211907 SPECI KPWT 211907Z AUTO 00000KT 1/4SM FG OVC003 07/07 A3006 RMK AO2=
202312211856 METAR KPWT 211856Z AUTO 20003KT 1/2SM FG OVC003 07/07 A3006 RMK AO2 SLP185 T00720072=
202312211836 SPECI KPWT 211836Z AUTO 23004KT 1/2SM FG OVC003 07/07 A3006 RMK AO2=
202312211756 METAR KPWT 211756Z AUTO 18003KT 1/4SM FG OVC003 07/07 A3007 RMK AO2 SLP188 T00720072 10072 20067 53008=
202312211656 METAR KPWT 211656Z AUTO 21003KT 1/4SM FG OVC003 07/07 A3006 RMK AO2 SLP185 T00670067=
202312211556 METAR KPWT 211556Z AUTO 20005KT 1/4SM FG OVC003 07/07 A3005 RMK AO2 SLP182 T00670067=
202312211456 METAR KPWT 211456Z AUTO 22003KT 1/2SM FG OVC003 07/07 A3005 RMK AO2 SLP180 T00720072 51007=
202312211452 SPECI KPWT 211452Z AUTO 20003KT 1/2SM FG OVC003 07/07 A3004 RMK AO2=
202312211445 SPECI KPWT 211445Z AUTO 20004KT 1/4SM FG OVC003 07/07 A3004 RMK AO2=
202312211422 SPECI KPWT 211422Z AUTO 00000KT 1/2SM FG OVC003 07/07 A3004 RMK AO2=
202312211356 METAR KPWT 211356Z AUTO 00000KT 1/4SM FG OVC003 07/07 A3003 RMK AO2 SLP176 T00720072=
202312211327 SPECI KPWT 211327Z AUTO 19003KT 1/2SM FG OVC003 07/ A3003 RMK AO2=
202312211256 METAR KPWT 211256Z AUTO 19003KT 1/4SM FG OVC003 07/07 A3003 RMK AO2 SLP173 T00720072=
202312211252 SPECI KPWT 211252Z AUTO 00000KT 1/4SM FG OVC003 07/07 A3003 RMK AO2=
202312211229 SPECI KPWT 211229Z AUTO 20003KT 1/2SM FG OVC003 07/07 A3003 RMK AO2=
202312211156 METAR KPWT 211156Z AUTO 20004KT 1/4SM FG OVC003 07/07 A3003 RMK AO2 SLP173 60001 70002 T00720072 10072 20067 53005=
202312211124 SPECI KPWT 211124Z AUTO VRB03KT 1/4SM FG OVC003 07/07 A3002 RMK AO2=
202312211056 METAR KPWT 211056Z AUTO 18003KT 1/2SM FG OVC003 07/07 A3002 RMK AO2 RAE06 SLP170 P0000 T00720072=
202312211030 SPECI KPWT 211030Z AUTO 19004KT 1/2SM FG OVC003 07/07 A3002 RMK AO2 RAE06 P0000=
202312211023 SPECI KPWT 211023Z AUTO 21004KT 3/4SM BR OVC003 07/07 A3002 RMK AO2 RAE06 P0000=
202312210956 METAR KPWT 210956Z AUTO 20004KT 1/2SM -RA FG OVC003 07/07 A3001 RMK AO2 RAB55 SLP168 P0000 T00720072=
202312210952 SPECI KPWT 210952Z AUTO 20004KT 1/2SM FG OVC003 07/07 A3001 RMK AO2=
202312210856 METAR KPWT 210856Z AUTO 00000KT 1/4SM FG OVC003 07/07 A3001 RMK AO2 SLP167 P0001 60001 T00720072 58002=
202312210756 METAR KPWT 210756Z AUTO 00000KT 1/4SM FG OVC003 07/07 A3001 RMK AO2 SLP168 T00720072 400890050=
202312210656 METAR KPWT 210656Z AUTO 23004KT 1/4SM FG OVC003 07/07 A3001 RMK AO2 SLP169 T00720072=
202312210653 SPECI KPWT 210653Z AUTO 22003KT 1/2SM FG OVC003 07/07 A3001 RMK AO2=
202312210645 SPECI KPWT 210645Z AUTO 00000KT 3/4SM BR OVC003 07/07 A3001 RMK AO2=
202312210603 SPECI KPWT 210603Z AUTO 20003KT 1 1/4SM BR OVC003 07/07 A3000 RMK AO2=
202312210556 METAR KPWT 210556Z AUTO 19003KT 3/4SM BR OVC003 07/07 A3000 RMK AO2 SLP165 T00720072 10083 20072 51012=
202312210538 SPECI KPWT 210538Z AUTO 00000KT 1/2SM FG OVC003 07/07 A3000 RMK AO2=
202312210456 METAR KPWT 210456Z AUTO 00000KT 1/4SM FG OVC003 07/07 A2999 RMK AO2 SLP162 T00720072=
202312210436 SPECI KPWT 210436Z AUTO 00000KT 1/4SM FG OVC003 07/07 A2998 RMK AO2=
202312210356 METAR KPWT 210356Z AUTO 00000KT 1/2SM FG OVC003 07/07 A2998 RMK AO2 SLP157 T00720072=
202312210336 SPECI KPWT 210336Z AUTO 00000KT 1/2SM FG OVC003 08/08 A2998 RMK AO2=
202312210323 SPECI KPWT 210323Z AUTO 28003KT 3/4SM BR OVC003 08/08 A2998 RMK AO2=
202312210315 SPECI KPWT 210315Z AUTO 27003KT 1SM BR OVC003 08/08 A2997 RMK AO2=
202312210256 METAR KPWT 210256Z AUTO 00000KT 1 1/4SM BR OVC003 08/08 A2996 RMK AO2 SLP152 T00780078 51008=
202312210215 SPECI KPWT 210215Z AUTO 00000KT 3/4SM BR OVC003 07/07 A2996 RMK AO2=
202312210204 SPECI KPWT 210204Z AUTO 00000KT 1 3/4SM BR OVC003 07/07 A2996 RMK AO2=
202312210156 METAR KPWT 210156Z AUTO 22004KT 4SM BR OVC003 07/07 A2996 RMK AO2 SLP152 T00720072=
202312210150 SPECI KPWT 210150Z AUTO 22005KT 2SM BR BKN003 OVC008 08/08 A2996 RMK AO2=
202312210147 SPECI KPWT 210147Z AUTO 22005KT 1SM BR BKN003 OVC008 08/08 A2996 RMK AO2=
202312210141 SPECI KPWT 210141Z AUTO 23004KT 1/2SM FG OVC003 08/08 A2996 RMK AO2=
202312210131 SPECI KPWT 210131Z AUTO 23003KT 1/4SM FG OVC003 08/08 A2996 RMK AO2=
202312210117 SPECI KPWT 210117Z AUTO 23004KT 1/2SM FG OVC003 08/08 A2996 RMK AO2=
202312210103 SPECI KPWT 210103Z AUTO 00000KT 3/4SM BR OVC003 08/08 A2995 RMK AO2=
202312210056 METAR KPWT 210056Z AUTO 00000KT 1/2SM FG OVC003 08/08 A2995 RMK AO2 SLP147 T00830083=
202312210029 SPECI KPWT 210029Z AUTO 00000KT 1/4SM FG OVC003 08/08 A2995 RMK AO2=
202312202356 METAR KPWT 202356Z AUTO 05003KT 1/4SM FG OVC001 08/08 A2994 RMK AO2 SLP143 T00830083 10089 20067 53006=
202312202340 SPECI KPWT 202340Z AUTO 05004KT 1/4SM FG OVC001 08/08 A2994 RMK AO2=
202312202311 SPECI KPWT 202311Z AUTO 01003KT 1/2SM FG OVC001 09/09 A2994 RMK AO2=
202312202256 METAR KPWT 202256Z AUTO 01003KT 1SM BR OVC001 09/09 A2993 RMK AO2 SLP139 T00890089=
202312202246 SPECI KPWT 202246Z AUTO 00000KT 2 1/2SM BR OVC001 08/08 A2993 RMK AO2 VIS 1 3/4V4=
202312202237 SPECI KPWT 202237Z AUTO 00000KT 1 1/4SM BR OVC001 08/08 A2992 RMK AO2=
202312202233 SPECI KPWT 202233Z AUTO 00000KT 3/4SM BR OVC001 08/08 A2992 RMK AO2=
202312202156 METAR KPWT 202156Z AUTO 00000KT 1/4SM FG OVC001 08/08 A2992 RMK AO2 SLP138 T00830083=
202312202056 METAR KPWT 202056Z AUTO 00000KT 1/4SM FG OVC001 08/08 A2992 RMK AO2 SLP138 T00830083 58003=
202312201956 METAR KPWT 201956Z AUTO 26004KT 1/4SM FG OVC001 07/07 A2993 RMK AO2 SLP141 T00720072=
202312201856 METAR KPWT 201856Z AUTO VRB03KT 1/4SM FG OVC001 07/07 A2993 RMK AO2 SLP141 T00720072=
202312201756 METAR KPWT 201756Z AUTO 00000KT 1/4SM FG OVC001 07/07 A2993 RMK AO2 SLP141 60001 T00670067 10083 20061 51014=
202312201656 METAR KPWT 201656Z AUTO 00000KT M1/4SM FG OVC001 06/06 A2992 RMK AO2 SLP137 T00610061=
202312201556 METAR KPWT 201556Z AUTO 00000KT M1/4SM FG OVC001 07/07 A2991 RMK AO2 SLP132 T00670067=
202312201456 METAR KPWT 201456Z AUTO 00000KT 1/4SM FG OVC001 08/08 A2989 RMK AO2 SLP127 60001 T00780078 53015=
202312201356 METAR KPWT 201356Z AUTO 00000KT 1/4SM FG OVC001 08/08 A2987 RMK AO2 SLP120 T00780078=
202312201256 METAR KPWT 201256Z AUTO 00000KT 1/4SM FG OVC001 08/08 A2986 RMK AO2 SLP115 P0001 T00780078=
202312201235 SPECI KPWT 201235Z AUTO 00000KT 1/4SM FG OVC001 08/08 A2986 RMK AO2 P0001=
202312201211 SPECI KPWT 201211Z AUTO 00000KT 1/2SM FG OVC001 08/08 A2985 RMK AO2=
202312201156 METAR KPWT 201156Z AUTO 00000KT 1/4SM FG OVC001 08/08 A2985 RMK AO2 SLP111 70029 T00830083 10083 20044 51013=
202312201056 METAR KPWT 201056Z AUTO 00000KT 1/4SM FG OVC001 08/08 A2984 RMK AO2 SLP108 T00830083=
202312200956 METAR KPWT 200956Z AUTO 00000KT 1/4SM FG OVC001 07/07 A2983 RMK AO2 SLP104 T00720072=
202312200856 METAR KPWT 200856Z AUTO 00000KT 1/4SM FG OVC001 07/07 A2981 RMK AO2 SLP098 T00720072 51013=
202312200847 SPECI KPWT 200847Z AUTO 00000KT 1/4SM FG OVC001 07/07 A2980 RMK AO2=
202312200826 SPECI KPWT 200826Z AUTO 00000KT 1/2SM FG BKN001 07/07 A2980 RMK AO2=
202312200815 SPECI KPWT 200815Z AUTO 00000KT 1/4SM FG VV001 06/06 A2980 RMK AO2=
202312200753 METAR KPWT 200753Z AUTO 00000KT 1/2SM FG VV001 04/04 A2980 RMK AO2 SLP095 T00440044 401000044=
202312200752 SPECI KPWT 200752Z AUTO 00000KT 1/2SM FG VV001 05/05 A2980 RMK AO2 401000050=
202312200745 SPECI KPWT 200745Z AUTO 19003KT 3/4SM BR CLR 05/05 A2980 RMK AO2=
202312200738 SPECI KPWT 200738Z AUTO 22003KT 1/2SM FG CLR 05/05 A2980 RMK AO2=
202312200709 SPECI KPWT 200709Z AUTO 00000KT 1/4SM FG VV001 07/07 A2979 RMK AO2=
202312200656 METAR KPWT 200656Z AUTO 00000KT 1/4SM FG VV002 07/07 A2979 RMK AO2 SLP092 T00720072=
202312200624 SPECI KPWT 200624Z AUTO 00000KT 1/4SM FG VV001 07/07 A2978 RMK AO2=
202312200617 SPECI KPWT 200617Z AUTO 00000KT 1/2SM FG VV002 07/07 A2978 RMK AO2=
202312200556 METAR KPWT 200556Z AUTO 24004KT 1/4SM FG BKN003 08/08 A2977 RMK AO2 SLP085 60002 T00780078 10100 20078 53011=
202312200533 SPECI KPWT 200533Z AUTO 00000KT 1/4SM FG OVC003 08/08 A2977 RMK AO2=
202312200525 SPECI KPWT 200525Z AUTO 00000KT 1/2SM FG OVC003 09/09 A2976 RMK AO2=
202312200505 SPECI KPWT 200505Z AUTO 00000KT 1/4SM FG BKN003 08/08 A2976 RMK AO2=
202312200456 METAR KPWT 200456Z AUTO 00000KT 1/2SM FG BKN003 08/08 A2976 RMK AO2 SLP081 T00830083=
202312200446 SPECI KPWT 200446Z AUTO 00000KT 1/2SM FG BKN003 08/08 RMK AO2 $=
202312200437 SPECI KPWT 200437Z AUTO 00000KT 3/4SM BR BKN003 OVC050 09/09 A2975 RMK AO2=
202312200434 SPECI KPWT 200434Z AUTO 00000KT 1 1/2SM BR BKN003 OVC050 09/09 A2975 RMK AO2=
202312200430 SPECI KPWT 200430Z AUTO 23003KT 3SM BR BKN003 OVC050 09/09 A2975 RMK AO2=
202312200421 SPECI KPWT 200421Z AUTO 21004KT 8SM SCT003 BKN027 BKN050 09/09 A2974 RMK AO2=
202312200407 SPECI KPWT 200407Z AUTO 22004KT 7SM FEW027 BKN048 09/09 A2974 RMK AO2=
202312200356 METAR KPWT 200356Z AUTO 23004KT 6SM BR FEW003 BKN027 BKN048 09/09 A2974 RMK AO2 SLP074 T00940094=
202312200353 SPECI KPWT 200353Z AUTO 22004KT 6SM BR SCT003 BKN029 BKN048 09/09 A2973 RMK AO2=
202312200256 METAR KPWT 200256Z AUTO 22004KT 8SM BKN003 OVC039 09/09 A2972 RMK AO2 RAE36 SLP068 P0001 60002 T00940094 51023=
202312200245 SPECI KPWT 200245Z AUTO 22004KT 9SM BKN003 BKN016 BKN020 10/10 A2972 RMK AO2 RAE36 P0001=
202312200217 SPECI KPWT 200217Z AUTO 23006KT 7SM -RA SCT003 OVC018 10/10 A2971 RMK AO2 P0000=
202312200156 METAR KPWT 200156Z AUTO 22005KT 9SM -RA BKN003 OVC015 10/10 A2970 RMK AO2 RAB07 SLP062 P0001 T01000100=
202312200056 METAR KPWT 200056Z AUTO 17004KT 7SM OVC003 09/09 A2968 RMK AO2 SLP054 T00940094=
202312192356 METAR KPWT 192356Z AUTO 21004KT 8SM OVC003 09/09 A2965 RMK AO2 SLP046 60021 T00940094 10094 20083 53018=
202312192312 SPECI KPWT 192312Z AUTO 21006KT 10SM OVC003 09/09 A2963 RMK AO2=
202312192256 METAR KPWT 192256Z AUTO 21005KT 10SM OVC005 09/09 A2963 RMK AO2 RAE47 SLP037 P0001 T00940094=
202312192219 SPECI KPWT 192219Z AUTO 22004KT 9SM -RA OVC005 09/09 A2961 RMK AO2 P0001=
202312192156 METAR KPWT 192156Z AUTO 00000KT 5SM -RA BR OVC009 09/09 A2960 RMK AO2 CIG 005V011 SLP027 P0004 T00890089=
202312192125 SPECI KPWT 192125Z AUTO 00000KT 2SM -RA BR OVC007 09/09 A2959 RMK AO2 CIG 003V011 P0003=
202312192108 SPECI KPWT 192108Z AUTO 00000KT 1 1/2SM -RA BR OVC007 09/09 A2959 RMK AO2 CIG 003V012 P0002=
202312192056 METAR KPWT 192056Z AUTO 00000KT 1 3/4SM -RA BR OVC005 09/09 A2959 RMK AO2 CIG 003V008 SLP025 P0008 60016 T00890089 51012=
202312192044 SPECI KPWT 192044Z AUTO 00000KT 2SM -RA BR OVC005 09/09 A2958 RMK AO2 CIG 002V009 P0007=
202312192025 SPECI KPWT 192025Z AUTO 00000KT 1 3/4SM -RA BR BKN005 OVC011 09/09 A2958 RMK AO2 CIG 002V008 P0005=
202312192013 SPECI KPWT 192013Z AUTO 00000KT 3SM RA BR BKN005 BKN011 09/09 A2958 RMK AO2 CIG 003V009 P0004=
202312191956 METAR KPWT 191956Z AUTO 00000KT 2 1/2SM RA BR FEW005 09/09 A2958 RMK AO2 VIS 2V3 SLP021 P0007 T00890089=
202312191940 SPECI KPWT 191940Z AUTO 00000KT 3SM RA BR SCT007 SCT014 08/08 A2958 RMK AO2 P0003=
202312191914 SPECI KPWT 191914Z AUTO 00000KT 2 1/2SM -RA BR BKN009 OVC013 08/08 A2957 RMK AO2 CIG 007V012 P0001=
202312191856 METAR KPWT 191856Z AUTO 00000KT 6SM -RA BR BKN014 OVC018 08/08 A2957 RMK AO2 RAB14 SLP018 P0001 T00830083=
202312191810 SPECI KPWT 191810Z AUTO 21003KT 9SM OVC028 08/08 A2956 RMK AO2=
202312191756 METAR KPWT 191756Z AUTO 00000KT 10SM OVC030 08/08 A2955 RMK AO2 RAB09E28 SLP013 P0000 60006 T00830083 10083 20061 53017=
202312191656 METAR KPWT 191656Z AUTO 32003KT 10SM OVC038 08/08 A2952 RMK AO2 RAB27E50 SLP002 P0000 T00780078=
202312191556 METAR KPWT 191556Z AUTO 04004KT 10SM BKN043 07/07 A2949 RMK AO2 RAE41 SLP993 P0002 T00720072=
202312191456 METAR KPWT 191456Z AUTO 00000KT 10SM -RA CLR 07/07 A2950 RMK AO2 SLP995 P0003 60004 T00670067 51007=
202312191356 METAR KPWT 191356Z AUTO 07003KT 10SM -RA SCT049 07/07 A2949 RMK AO2 RAB04 SLP991 P0001 T00670067=
202312191256 METAR KPWT 191256Z AUTO 00000KT 10SM OVC041 07/07 A2950 RMK AO2 RAE04B32E50 SLP993 P0000 T00670067=
202312191156 METAR KPWT 191156Z AUTO 00000KT 10SM -RA SCT065 06/06 A2948 RMK AO2 SLP988 P0000 60000 70031 T00610061 10067 20050 56008=
202312191056 METAR KPWT 191056Z AUTO 00000KT 10SM -RA FEW070 06/06 A2949 RMK AO2 RAB46 SLP992 P0000 T00610061=
202312190956 METAR KPWT 190956Z AUTO 00000KT 10SM FEW075 SCT100 06/06 A2948 RMK AO2 RAB34E52 SLP989 P0000 T00610061=
202312190856 METAR KPWT 190856Z AUTO 00000KT 4SM BR FEW080 06/06 A2950 RMK AO2 SLP997 60000 T00560056 57019=
202312190825 SPECI KPWT 190825Z AUTO 00000KT 7SM SCT075 SCT110 06/06 A2951 RMK AO2=
202312190818 SPECI KPWT 190818Z AUTO 00000KT 2 1/2SM BR SCT075 BKN110 06/06 A2952 RMK AO2=
202312190806 SPECI KPWT 190806Z AUTO 00000KT 1SM BR CLR 06/06 A2952 RMK AO2 VIS 1/2V5=
202312190756 METAR KPWT 190756Z AUTO 00000KT 2SM BR CLR 06/06 A2952 RMK AO2 VIS 3/4V5 SLP003 T00610061 400720033=
202312190749 SPECI KPWT 190749Z AUTO 00000KT 1SM BR CLR 06/06 A2953 RMK AO2=
202312190732 SPECI KPWT 190732Z AUTO 00000KT 1 3/4SM BR CLR 06/06 A2954 RMK AO2 VIS 3/4V5=
202312190715 SPECI KPWT 190715Z AUTO 00000KT 3SM BR FEW065 07/07 A2953 RMK AO2=
202312190704 SPECI KPWT 190704Z AUTO 00000KT 1 3/4SM BR SCT060 06/06 A2954 RMK AO2=
202312190656 METAR KPWT 190656Z AUTO 00000KT 6SM BR BKN060 07/07 A2954 RMK AO2 RAE39 SLP010 P0000 T00670067=
202312190556 METAR KPWT 190556Z AUTO 00000KT 10SM -RA BKN031 07/07 A2956 RMK AO2 SLP017 P0001 60018 T00670067 10067 20061 56014=
202312190456 METAR KPWT 190456Z AUTO 00000KT 7SM -RA BKN033 07/07 A2958 RMK AO2 SLP022 P0003 T00670067=
202312190356 METAR KPWT 190356Z AUTO 00000KT 7SM -RA SCT001 SCT008 BKN033 07/07 A2959 RMK AO2 SLP026 P0002 T00670067=
202312190256 METAR KPWT 190256Z AUTO 00000KT 10SM -RA FEW003 SCT022 BKN036 07/07 A2961 RMK AO2 RAB00 SLP031 P0001 60012 T00670067 56008=
202312190232 SPECI KPWT 190232Z AUTO 00000KT 5SM -RA BR FEW003 BKN016 OVC037 07/07 A2960 RMK AO2 RAB00 P0001=
202312190210 SPECI KPWT 190210Z AUTO 18003KT 10SM -RA FEW001 OVC014 07/07 A2961 RMK AO2 RAB00 P0000=
202312190156 METAR KPWT 190156Z AUTO 00000KT 10SM OVC012 07/07 A2961 RMK AO2 RAE36 SLP034 P0003 T00670067=
202312190128 SPECI KPWT 190128Z AUTO 00000KT 5SM -RA BR FEW003 BKN012 OVC020 07/07 A2961 RMK AO2 P0002=
202312190121 SPECI KPWT 190121Z AUTO 00000KT 2 1/2SM -RA BR SCT003 BKN012 OVC020 07/07 A2961 RMK AO2 VIS 2V4 P0002=
202312190056 METAR KPWT 190056Z AUTO 00000KT 7SM RA BKN003 OVC021 07/07 A2962 RMK AO2 SLP036 P0008 T00670067=
202312182356 METAR KPWT 182356Z AUTO 00000KT 4SM -RA BR OVC003 07/07 A2963 RMK AO2 RAB15 SLP039 P0005 60013 T00670067 10072 20050 55007=
202312182329 SPECI KPWT 182329Z AUTO 21003KT 4SM -RA BR BKN003 OVC044 07/07 A2965 RMK AO2 RAB15 P0002=
202312182320 SPECI KPWT 182320Z AUTO 21004KT 7SM -RA SCT003 OVC044 07/07 A2965 RMK AO2 RAB15 P0000=
202312182256 METAR KPWT 182256Z AUTO 15003KT 10SM BKN037 OVC046 07/07 A2963 RMK AO2 RAE17B35E49 SLP039 P0001 T00720072=
202312182156 METAR KPWT 182156Z AUTO 30003KT 6SM -RA BR SCT024 OVC031 07/07 A2965 RMK AO2 SLP047 P0006 T00670067=
202312182153 SPECI KPWT 182153Z AUTO 33003KT 4SM -RA BR BKN024 OVC031 07/07 A2965 RMK AO2 P0006=
202312182144 SPECI KPWT 182144Z AUTO 32004KT 2 1/2SM -RA BR FEW007 BKN026 OVC033 06/06 A2965 RMK AO2 P0006=
202312182138 SPECI KPWT 182138Z AUTO 00000KT 3SM -RA BR FEW007 BKN030 OVC035 07/07 A2966 RMK AO2 P0006=
202312182126 SPECI KPWT 182126Z AUTO 28003KT 2 1/2SM RA BR FEW007 SCT024 OVC035 07/07 A2966 RMK AO2 P0005=
202312182056 METAR KPWT 182056Z AUTO 22003KT 8SM -RA FEW030 BKN035 OVC043 07/07 A2968 RMK AO2 RAB37 SLP056 P0001 60001 T00670067 58021=
202312181956 METAR KPWT 181956Z AUTO 28003KT 10SM OVC050 07/07 A2970 RMK AO2 RAE21 SLP065 P0000 T00670067=
202312181856 METAR KPWT 181856Z AUTO 00000KT 10SM -RA FEW003 BKN050 06/06 A2974 RMK AO2 RAB19 SLP076 P0000 T00560056=
202312181851 SPECI KPWT 181851Z AUTO 00000KT 9SM -RA SCT003 BKN050 06/06 A2974 RMK AO2 RAB19 P0000=
202312181832 SPECI KPWT 181832Z AUTO 00000KT 3SM -RA BR OVC003 05/05 A2975 RMK AO2 RAB19 P0000=
202312181830 SPECI KPWT 181830Z AUTO 00000KT 1 1/2SM -RA BR OVC003 05/05 A2975 RMK AO2 VIS 1/4V5 RAB19 P0000=
202312181826 SPECI KPWT 181826Z AUTO 24003KT 3/4SM -RA BR OVC003 05/05 A2975 RMK AO2 VIS 1/4V5 RAB19 P0000=
202312181756 METAR KPWT 181756Z AUTO 00000KT 1/4SM FG OVC003 05/05 A2976 RMK AO2 SLP083 T00500050 10050 20039 56014=
202312181656 METAR KPWT 181656Z AUTO 22004KT 1/4SM FG OVC003 05/05 A2976 RMK AO2 SLP086 T00500050=
202312181556 METAR KPWT 181556Z AUTO 00000KT M1/4SM FG OVC003 05/05 A2977 RMK AO2 SLP087 T00500050=
202312181510 SPECI KPWT 181510Z AUTO 00000KT 1/4SM FG OVC003 04/04 A2979 RMK AO2=
202312181456 METAR KPWT 181456Z AUTO 00000KT 1/2SM FG OVC003 04/04 A2980 RMK AO2 SLP097 T00440044 56020=
202312181420 SPECI KPWT 181420Z AUTO 00000KT 1/2SM FG OVC003 04/04 A2981 RMK AO2=
202312181356 METAR KPWT 181356Z AUTO 00000KT 1/4SM FG OVC003 04/04 A2982 RMK AO2 SLP105 T00390039=
202312181343 SPECI KPWT 181343Z AUTO 00000KT 1/4SM FG OVC003 04/04 A2982 RMK AO2=
202312181335 SPECI KPWT 181335Z AUTO 00000KT 3/4SM BR OVC003 04/04 A2983 RMK AO2=
202312181332 SPECI KPWT 181332Z AUTO 00000KT 1 1/4SM BR OVC003 04/04 A2983 RMK AO2=
202312181318 SPECI KPWT 181318Z AUTO 00000KT 8SM OVC003 04/04 A2983 RMK AO2=
202312181256 METAR KPWT 181256Z AUTO 00000KT 9SM BKN005 BKN120 04/04 A2984 RMK AO2 SLP110 T00390039=
202312181207 SPECI KPWT 181207Z AUTO 00000KT 9SM BKN005 04/04 A2986 RMK AO2=
202312181156 METAR KPWT 181156Z AUTO 00000KT 7SM SCT005 SCT120 04/04 A2986 RMK AO2 SLP118 T00390039 10067 20033 56011=
202312181133 SPECI KPWT 181133Z AUTO 00000KT 3SM BR SCT001 03/03 A2986 RMK AO2=
202312181126 SPECI KPWT 181126Z AUTO 00000KT 1 1/4SM BR SCT001 03/03 A2986 RMK AO2=
202312181123 SPECI KPWT 181123Z AUTO 15003KT 1SM BR BKN002 03/03 A2986 RMK AO2=
202312181101 SPECI KPWT 181101Z AUTO 00000KT 1/2SM FG OVC002 03/03 A2987 RMK AO2=
202312181056 METAR KPWT 181056Z AUTO 00000KT 1SM BR OVC002 03/03 A2986 RMK AO2 SLP119 T00330033=
202312181054 SPECI KPWT 181054Z AUTO 00000KT 1 1/2SM BR OVC002 03/03 A2986 RMK AO2=
202312181029 SPECI KPWT 181029Z AUTO 00000KT 5SM BR BKN002 04/04 A2988 RMK AO2=
202312181018 SPECI KPWT 181018Z AUTO 00000KT 6SM BR SCT002 04/04 A2988 RMK AO2=
202312180956 METAR KPWT 180956Z AUTO 00000KT 8SM CLR 04/04 A2988 RMK AO2 SLP124 T00390039=
202312180856 METAR KPWT 180856Z AUTO 00000KT 6SM BR CLR 04/04 A2989 RMK AO2 SLP128 T00390039 58014=
202312180756 METAR KPWT 180756Z AUTO 23004KT 10SM CLR 04/04 A2993 RMK AO2 SLP141 T00440044 400941022=
202312180656 METAR KPWT 180656Z AUTO 04008KT 10SM FEW110 07/06 A2995 RMK AO2 SLP148 T00670061=
202312180556 METAR KPWT 180556Z AUTO 04011KT 10SM FEW120 06/06 A2994 RMK AO2 SLP144 T00610061 10072 20039 58016=
202312180505 SPECI KPWT 180505Z AUTO 11004KT 7SM FEW001 04/04 A2998 RMK AO2=
202312180456 METAR KPWT 180456Z AUTO 00000KT 2SM BR SCT001 04/04 A2996 RMK AO2 VIS 1 1/4V4 SLP152 T00390039=
202312180451 SPECI KPWT 180451Z AUTO 00000KT 1SM BR VV001 04/04 A2997 RMK AO2=
202312180438 SPECI KPWT 180438Z AUTO 00000KT 1/2SM FG BKN001 04/04 A2998 RMK AO2=
202312180428 SPECI KPWT 180428Z AUTO 36003KT 3/4SM BR OVC001 04/04 A2998 RMK AO2 PRESFR=
202312180425 SPECI KPWT 180425Z AUTO 35003KT 1 1/4SM BR BKN001 04/04 A2998 RMK AO2=
202312180425 METAR KPWT 180425Z AUTO 35003KT 1 1/4SM BR BKN001 04/04 A2998 RMK AO2=
202312180422 SPECI KPWT 180422Z AUTO 00000KT 3/4SM BR BKN001 04/04 A2999 RMK AO2=
202312180404 SPECI KPWT 180404Z AUTO 26003KT 1/4SM FG BKN001 04/04 A3000 RMK AO2=
202312180356 METAR KPWT 180356Z AUTO 22003KT 1/2SM FG VV001 04/04 A3000 RMK AO2 SLP167 T00390039=
202312180354 SPECI KPWT 180354Z AUTO 22003KT 3/4SM BR VV001 04/04 A3000 RMK AO2=
202312180352 SPECI KPWT 180352Z AUTO 23005KT 1 3/4SM BR FEW001 04/04 A3000 RMK AO2=
202312180256 METAR KPWT 180256Z AUTO 02004KT 10SM CLR 07/05 A2998 RMK AO2 SLP159 T00670050 58012=
202312180156 METAR KPWT 180156Z AUTO 00000KT 10SM CLR 04/04 A2999 RMK AO2 SLP162 T00440044=
202312180056 METAR KPWT 180056Z AUTO 06005KT 10SM CLR 07/05 A3001 RMK AO2 SLP169 T00720050=
202312172356 METAR KPWT 172356Z AUTO 02005KT 10SM CLR 07/05 A3002 RMK AO2 SLP172 T00720050 10094 20044 56026=
202312172256 METAR KPWT 172256Z AUTO 04005KT 10SM CLR 09/06 A3004 RMK AO2 SLP177 T00890061=
202312172156 METAR KPWT 172156Z AUTO 05007KT 10SM CLR 09/06 A3006 RMK AO2 SLP183 T00890061=
202312172056 METAR KPWT 172056Z AUTO 00000KT 10SM CLR 09/06 A3010 RMK AO2 SLP198 T00890061 56025=
202312171956 METAR KPWT 171956Z AUTO 05010KT 10SM FEW110 07/06 A3011 RMK AO2 SLP202 T00720056=
202312171856 METAR KPWT 171856Z AUTO 05010KT 10SM CLR 06/05 A3015 RMK AO2 SLP216 T00610050=
202312171756 METAR KPWT 171756Z AUTO 00000KT 10SM OVC110 04/04 A3017 RMK AO2 SLP224 T00440044 10044 21011 50003=
202312171716 SPECI KPWT 171716Z AUTO 00000KT 10SM BKN110 02/02 A3017 RMK AO2 FZRANO=
202312171709 SPECI KPWT 171709Z AUTO 00000KT 2SM BR FEW001 SCT110 03/03 A3017 RMK AO2=
202312171704 SPECI KPWT 171704Z AUTO 00000KT 1SM BR FEW001 SCT110 02/02 A3017 RMK AO2 FZRANO=
202312171656 METAR KPWT 171656Z AUTO 00000KT 1/2SM FG FEW001 SCT110 01/01 A3018 RMK AO2 SLP229 T00110011 FZRANO=
202312171647 SPECI KPWT 171647Z AUTO 00000KT 1/4SM FG SCT001 BKN110 01/01 A3017 RMK AO2 FZRANO=
202312171556 METAR KPWT 171556Z AUTO 00000KT 1/4SM FG OVC001 00/00 A3018 RMK AO2 SLP228 T00000000 FZRANO=
202312171534 SPECI KPWT 171534Z AUTO 23003KT 1/4SM FZFG VV001 M01/M01 A3018 RMK AO2 FZRANO=
202312171456 METAR KPWT 171456Z AUTO 21003KT 1/2SM FG BKN110 01/01 A3016 RMK AO2 SLP221 T00060006 56008 FZRANO=
202312171454 SPECI KPWT 171454Z AUTO 21004KT 1/2SM FG BKN110 01/01 A3016 RMK AO2 FZRANO=
202312171443 SPECI KPWT 171443Z AUTO 22003KT 1/4SM FG SCT002 BKN120 01/01 A3016 RMK AO2 FZRANO=
202312171356 METAR KPWT 171356Z AUTO 00000KT 1/4SM FG OVC002 01/01 A3017 RMK AO2 SLP226 T00060006 FZRANO=
202312171308 SPECI KPWT 171308Z AUTO 00000KT 1/4SM FG OVC002 00/00 A3018 RMK AO2 FZRANO=
202312171259 SPECI KPWT 171259Z AUTO 00000KT 3/4SM BR OVC002 M01/M01 A3019 RMK AO2 FZRANO=
202312171256 METAR KPWT 171256Z AUTO 00000KT 1 1/4SM BR OVC002 M01/M01 A3019 RMK AO2 SLP230 T10061006 FZRANO=
202312171248 SPECI KPWT 171248Z AUTO 00000KT 1 1/2SM BR OVC002 M01/M01 A3019 RMK AO2 FZRANO=
202312171221 SPECI KPWT 171221Z AUTO 00000KT 2SM BR BKN002 M01/M01 A3019 RMK AO2 FZRANO=
202312171216 SPECI KPWT 171216Z AUTO 00000KT 1SM BR VV002 M01/M01 A3019 RMK AO2 FZRANO=
202312171200 SPECI KPWT 171200Z AUTO 00000KT 1/2SM FZFG VV002 M01/M01 A3019 RMK AO2 FZRANO=
202312171156 METAR KPWT 171156Z AUTO 00000KT 1SM BR VV002 M01/M01 A3019 RMK AO2 SLP231 T10061006 11006 21022 58003 FZRANO=
202312171149 SPECI KPWT 171149Z AUTO 00000KT 1 3/4SM BR CLR M01/M01 A3019 RMK AO2 FZRANO=
202312171120 SPECI KPWT 171120Z AUTO 00000KT 10SM CLR M01/M01 A3020 RMK AO2 FZRANO=
202312171113 SPECI KPWT 171113Z AUTO 00000KT 2SM BR CLR M01/M01 A3020 RMK AO2 FZRANO=
202312171101 SPECI KPWT 171101Z AUTO 00000KT 1SM BR CLR M01/M01 A3020 RMK AO2 FZRANO=
202312171056 METAR KPWT 171056Z AUTO 00000KT 2 1/2SM BR CLR M01/M01 A3021 RMK AO2 SLP235 T10111011 FZRANO=
202312171047 SPECI KPWT 171047Z AUTO 00000KT 3SM BR CLR M01/M01 A3021 RMK AO2 FZRANO=
202312171025 SPECI KPWT 171025Z AUTO 01004KT 1 3/4SM BR CLR M01/M01 A3021 RMK AO2 FZRANO=
202312170956 METAR KPWT 170956Z AUTO 00000KT 10SM CLR M02/M02 A3020 RMK AO2 SLP233 T10171017 FZRANO=
202312170953 SPECI KPWT 170953Z AUTO 00000KT 3SM BR CLR M02/M02 A3020 RMK AO2 FZRANO=
202312170943 SPECI KPWT 170943Z AUTO 00000KT 1 3/4SM BR CLR M02/M02 A3020 RMK AO2 VIS 3/4V5 FZRANO=
202312170917 SPECI KPWT 170917Z AUTO 00000KT 9SM CLR M02/M02 A3020 RMK AO2 FZRANO=
202312170910 SPECI KPWT 170910Z AUTO 00000KT 2SM BR CLR M02/M02 A3020 RMK AO2 VIS 1/2V5 FZRANO=
202312170906 SPECI KPWT 170906Z AUTO 00000KT 1SM BR CLR M02/M02 A3020 RMK AO2 FZRANO=
202312170856 METAR KPWT 170856Z AUTO 00000KT 1/2SM FZFG CLR M02/M02 A3020 RMK AO2 SLP235 T10221022 56002 FZRANO=
202312170825 SPECI KPWT 170825Z AUTO 00000KT 1/2SM FZFG CLR M02/M02 A3020 RMK AO2 FZRANO=
202312170819 SPECI KPWT 170819Z AUTO 00000KT 1SM BR CLR M02/M02 A3020 RMK AO2 FZRANO=
202312170756 METAR KPWT 170756Z AUTO 00000KT 1 3/4SM BR CLR M02/M02 A3020 RMK AO2 VIS 1 1/4V3 SLP235 T10171017 400891017 FZRANO=
202312170747 SPECI KPWT 170747Z AUTO 00000KT 3SM BR CLR M02/M02 A3020 RMK AO2 FZRANO=
202312170742 SPECI KPWT 170742Z AUTO 00000KT 1 1/4SM BR CLR M02/M02 A3021 RMK AO2 VIS 1/2V5 FZRANO=
202312170730 SPECI KPWT 170730Z AUTO 00000KT 3/4SM BR CLR M02/M02 A3021 RMK AO2 FZRANO=
202312170719 SPECI KPWT 170719Z AUTO 00000KT 1/4SM FZFG CLR M02/M02 A3021 RMK AO2 FZRANO=
202312170714 SPECI KPWT 170714Z AUTO 00000KT 3/4SM BR CLR M02/M02 A3021 RMK AO2 FZRANO=
202312170711 SPECI KPWT 170711Z AUTO 00000KT 1 1/4SM BR CLR M02/M02 A3021 RMK AO2 FZRANO=
202312170707 SPECI KPWT 170707Z AUTO 00000KT 3/4SM BR CLR M01/M01 A3021 RMK AO2 VIS 1/2V5 FZRANO=
202312170655 METAR KPWT 170655Z AUTO 00000KT 1SM BR CLR M01/M01 A3021 RMK AO2 SLP236 T10111011 FZRANO=
202312170654 SPECI KPWT 170654Z AUTO 00000KT 1SM BR CLR M02/M02 A3021 RMK AO2 FZRANO=
202312170643 SPECI KPWT 170643Z AUTO 00000KT 1/2SM FZFG CLR M02/M02 A3021 RMK AO2 FZRANO=
202312170622 SPECI KPWT 170622Z AUTO 00000KT 3/4SM BR CLR M01/M01 A3021 RMK AO2 FZRANO=
202312170556 METAR KPWT 170556Z AUTO 00000KT 1/4SM FZFG CLR M01/M01 A3021 RMK AO2 SLP238 T10061006 10050 21011 51009 FZRANO=
202312170539 SPECI KPWT 170539Z AUTO 00000KT 1/2SM FZFG CLR M01/M01 A3021 RMK AO2 FZRANO=
202312170535 SPECI KPWT 170535Z AUTO 00000KT 3/4SM BR VV001 M01/M01 A3021 RMK AO2 FZRANO=
202312170530 SPECI KPWT 170530Z AUTO 00000KT 1 3/4SM BR CLR M01/M01 A3021 RMK AO2 FZRANO=
202312170521 SPECI KPWT 170521Z AUTO 00000KT 3SM BR CLR M01/M01 A3021 RMK AO2 FZRANO=
202312170516 SPECI KPWT 170516Z AUTO 00000KT 1 1/4SM BR CLR M01/M01 A3021 RMK AO2 VIS 1/2V5 FZRANO=
202312170514 SPECI KPWT 170514Z AUTO 00000KT 3/4SM BR CLR 00/00 A3021 RMK AO2 FZRANO=
202312170509 SPECI KPWT 170509Z AUTO 00000KT 1/4SM FG VV001 00/00 A3021 RMK AO2 FZRANO=
202312170456 METAR KPWT 170456Z AUTO 00000KT 1/2SM FZFG VV001 M01/M01 A3021 RMK AO2 SLP238 T10061006 FZRANO=
202312170445 SPECI KPWT 170445Z AUTO 23003KT 3/4SM BR VV001 M01/M01 A3021 RMK AO2 VIS 1/2V5 FZRANO=
202312170439 SPECI KPWT 170439Z AUTO 00000KT 1SM BR CLR 00/00 A3021 RMK AO2 VIS 1/2V5 FZRANO=
202312170431 SPECI KPWT 170431Z AUTO 00000KT 2SM BR CLR 00/00 A3020 RMK AO2 VIS 3/4V5 FZRANO=
202312170426 SPECI KPWT 170426Z AUTO 00000KT 1SM BR CLR 00/00 A3020 RMK AO2 FZRANO=
202312170420 METAR KPWT 170420Z AUTO 00000KT 1/2SM FZFG CLR M01/M01 A3020 RMK AO2 FZRANO=
202312170420 SPECI KPWT 170420Z AUTO 00000KT 1/2SM FZFG CLR M01/M01 A3020 RMK AO2 FZRANO=
202312170414 SPECI KPWT 170414Z AUTO 00000KT 1SM BR CLR M01/M01 A3020 RMK AO2 FZRANO=
202312170410 SPECI KPWT 170410Z AUTO 00000KT 2 1/2SM BR CLR M01/M01 A3020 RMK AO2 VIS 1V5 FZRANO=
202312170356 METAR KPWT 170356Z AUTO 21004KT 8SM CLR 00/00 A3020 RMK AO2 SLP234 T00000000 FZRANO=
202312170327 SPECI KPWT 170327Z AUTO 00000KT 9SM CLR 01/01 A3019 RMK AO2 FZRANO=
202312170320 SPECI KPWT 170320Z AUTO 00000KT 2 1/2SM BR CLR 01/01 A3019 RMK AO2 FZRANO=
202312170256 METAR KPWT 170256Z AUTO 00000KT 7SM CLR 01/01 A3018 RMK AO2 SLP229 T00110011 51012 FZRANO=
202312170156 METAR KPWT 170156Z AUTO 00000KT 3SM BR CLR 02/02 A3018 RMK AO2 SLP228 T00170017 FZRANO=
202312170056 METAR KPWT 170056Z AUTO 11003KT 10SM CLR 05/05 A3016 RMK AO2 SLP222 T00500050=
202312162356 METAR KPWT 162356Z AUTO 24003KT 10SM CLR 07/06 A3014 RMK AO2 SLP214 T00720061 10089 20028 55004=
202312162256 METAR KPWT 162256Z AUTO 00000KT 10SM CLR 08/06 A3014 RMK AO2 SLP211 T00830061=
202312162156 METAR KPWT 162156Z AUTO 05003KT 10SM CLR 08/06 A3016 RMK AO2 SLP218 T00830061=
202312162056 METAR KPWT 162056Z AUTO 00000KT 10SM CLR 08/06 A3016 RMK AO2 SLP218 T00780056 55008=
202312161956 METAR KPWT 161956Z AUTO 00000KT 10SM CLR 07/05 A3016 RMK AO2 SLP218 T00720050=
202312161856 METAR KPWT 161856Z AUTO 22003KT 10SM CLR 06/05 A3017 RMK AO2 SLP224 T00610050=
202312161756 METAR KPWT 161756Z AUTO 00000KT 9SM CLR 03/03 A3018 RMK AO2 SLP228 T00280028 10028 21011 53011=
202312161656 METAR KPWT 161656Z AUTO 00000KT 9SM CLR 01/01 A3017 RMK AO2 SLP223 T00060006 FZRANO=
202312161556 METAR KPWT 161556Z AUTO 00000KT 10SM CLR 00/00 A3015 RMK AO2 SLP220 T00000000 FZRANO=
202312161456 METAR KPWT 161456Z AUTO 04003KT 6SM BR CLR M01/M01 A3015 RMK AO2 SLP217 T10061006 53004 FZRANO=
202312161356 METAR KPWT 161356Z AUTO 00000KT 7SM CLR 00/00 A3014 RMK AO2 SLP214 T00000000 FZRANO=
202312161256 METAR KPWT 161256Z AUTO 00000KT 10SM CLR M01/M01 A3014 RMK AO2 SLP213 T10061006 FZRANO=
202312161216 SPECI KPWT 161216Z AUTO 00000KT 3SM BR CLR M01/M01 A3014 RMK AO2 FZRANO=
202312161212 SPECI KPWT 161212Z AUTO 05004KT 1 3/4SM BR CLR M01/M01 A3014 RMK AO2 VIS 3/4V5 FZRANO=
202312161156 METAR KPWT 161156Z AUTO 00000KT 3SM BR CLR M01/M01 A3014 RMK AO2 SLP212 T10111011 10006 21011 58006 FZRANO=
202312161151 SPECI KPWT 161151Z AUTO 00000KT 3SM BR CLR M01/M01 A3014 RMK AO2 FZRANO=
202312161144 SPECI KPWT 161144Z AUTO 00000KT 1 1/2SM BR CLR M01/M01 A3014 RMK AO2 VIS 1V4 FZRANO=
202312161129 SPECI KPWT 161129Z AUTO 00000KT 1SM BR CLR M01/M01 A3014 RMK AO2 VIS 3/4V5 FZRANO=
202312161121 SPECI KPWT 161121Z AUTO 00000KT 2 1/2SM BR CLR M01/M01 A3014 RMK AO2 FZRANO=
202312161106 SPECI KPWT 161106Z AUTO 00000KT 1 3/4SM BR CLR M01/M01 A3014 RMK AO2 FZRANO=
202312161101 SPECI KPWT 161101Z AUTO 00000KT 3SM BR CLR M01/M01 A3014 RMK AO2 FZRANO=
202312161056 METAR KPWT 161056Z AUTO 00000KT 1 1/4SM BR CLR M01/M01 A3014 RMK AO2 SLP215 T10111011 FZRANO=
202312161052 SPECI KPWT 161052Z AUTO 00000KT 1 1/2SM BR CLR M01/M01 A3014 RMK AO2 FZRANO=
202312161017 SPECI KPWT 161017Z AUTO 00000KT 3SM BR CLR M01/M01 A3015 RMK AO2 FZRANO=
202312161014 SPECI KPWT 161014Z AUTO 00000KT 1 1/4SM BR CLR M01/M01 A3015 RMK AO2 FZRANO=
202312161010 SPECI KPWT 161010Z AUTO 00000KT 3/4SM BR CLR M01/M01 A3015 RMK AO2 FZRANO=
202312161001 SPECI KPWT 161001Z AUTO 00000KT 1SM BR CLR M01/M01 A3015 RMK AO2 VIS 1/2V5 FZRANO=
202312160956 METAR KPWT 160956Z AUTO 00000KT 2SM BR CLR M01/M01 A3015 RMK AO2 VIS 3/4V5 SLP218 T10061006 FZRANO=
202312160949 SPECI KPWT 160949Z AUTO 00000KT 1 1/4SM BR CLR M01/M01 A3015 RMK AO2 VIS 3/4V3 FZRANO=
202312160937 SPECI KPWT 160937Z AUTO 00000KT 3/4SM BR CLR M01/M01 A3015 RMK AO2 FZRANO=
202312160929 SPECI KPWT 160929Z AUTO 00000KT 1SM BR CLR M01/M01 A3015 RMK AO2 FZRANO=
202312160907 SPECI KPWT 160907Z AUTO 00000KT 1 1/4SM BR CLR M01/M01 A3015 RMK AO2 FZRANO=
202312160856 METAR KPWT 160856Z AUTO 00000KT 3/4SM BR CLR M01/M01 A3015 RMK AO2 SLP218 T10061006 58005 FZRANO=
202312160834 SPECI KPWT 160834Z AUTO 00000KT 1SM BR CLR M01/M01 A3016 RMK AO2 FZRANO=
202312160829 SPECI KPWT 160829Z AUTO 00000KT 1/2SM FZFG CLR M01/M01 A3016 RMK AO2 FZRANO=
202312160814 SPECI KPWT 160814Z AUTO 00000KT 3/4SM BR CLR M01/M01 A3016 RMK AO2 FZRANO=
202312160804 SPECI KPWT 160804Z AUTO 00000KT 1SM BR CLR M01/M01 A3015 RMK AO2 FZRANO=
202312160756 METAR KPWT 160756Z AUTO 00000KT 1/2SM FZFG CLR M01/M01 A3015 RMK AO2 SLP218 T10061006 401061006 FZRANO=
202312160747 SPECI KPWT 160747Z AUTO 00000KT 1/4SM FG VV001 00/00 A3015 RMK AO2 FZRANO=
202312160712 SPECI KPWT 160712Z AUTO 00000KT 1/2SM FG VV001 00/00 A3017 RMK AO2 FZRANO=
202312160656 METAR KPWT 160656Z AUTO 00000KT 1/2SM FG CLR 01/01 A3017 RMK AO2 SLP224 T00060006 FZRANO=
202312160649 SPECI KPWT 160649Z AUTO 00000KT 1/2SM FG CLR 01/01 A3017 RMK AO2 FZRANO=
202312160624 SPECI KPWT 160624Z AUTO 00000KT 1/4SM FG CLR 01/01 A3017 RMK AO2 FZRANO=
202312160621 SPECI KPWT 160621Z AUTO 00000KT 1/2SM FG VV001 01/01 A3017 RMK AO2 FZRANO=
202312160615 SPECI KPWT 160615Z AUTO 00000KT 1SM BR VV001 01/01 A3017 RMK AO2 FZRANO=
202312160609 SPECI KPWT 160609Z AUTO 00000KT 1/2SM FG CLR 01/01 A3017 RMK AO2 FZRANO=
202312160556 METAR KPWT 160556Z AUTO 00000KT 1/4SM FG CLR 01/01 A3017 RMK AO2 SLP223 T00060006 10078 20006 58006 FZRANO=
202312160544 SPECI KPWT 160544Z AUTO 00000KT 1/2SM FG CLR 01/01 A3017 RMK AO2 VIS 1/4V4 FZRANO=
202312160525 SPECI KPWT 160525Z AUTO 00000KT 1 3/4SM BR CLR 01/01 A3017 RMK AO2 VIS 3/4V5 FZRANO=
202312160520 SPECI KPWT 160520Z AUTO 00000KT 4SM BR CLR 01/01 A3018 RMK AO2 FZRANO=
202312160517 SPECI KPWT 160517Z AUTO 00000KT 1 1/4SM BR CLR 01/01 A3018 RMK AO2 FZRANO=
202312160504 SPECI KPWT 160504Z AUTO 00000KT 1/2SM FG CLR 01/01 A3018 RMK AO2 FZRANO=
202312160502 SPECI KPWT 160502Z AUTO 00000KT 1SM BR CLR 01/01 A3018 RMK AO2 FZRANO=
202312160456 METAR KPWT 160456Z AUTO 00000KT 6SM BR CLR 01/01 A3018 RMK AO2 SLP227 T00110011 FZRANO=
202312160454 SPECI KPWT 160454Z AUTO 00000KT 6SM BR CLR 01/01 A3018 RMK AO2 FZRANO=
202312160447 SPECI KPWT 160447Z AUTO 00000KT 2SM BR CLR 01/01 A3018 RMK AO2 VIS 3/4V5 FZRANO=
202312160443 SPECI KPWT 160443Z AUTO 00000KT 1SM BR CLR 02/02 A3018 RMK AO2 VIS 1/2V5 FZRANO=
202312160440 SPECI KPWT 160440Z AUTO 00000KT 1/2SM FG CLR 02/02 A3018 RMK AO2 FZRANO=
202312160424 SPECI KPWT 160424Z AUTO 00000KT 1/4SM FG CLR 02/02 A3018 RMK AO2 FZRANO=
202312160407 SPECI KPWT 160407Z AUTO 00000KT 3/4SM BR CLR 01/01 A3018 RMK AO2 FZRANO=
202312160401 SPECI KPWT 160401Z AUTO 00000KT 1 3/4SM BR CLR 01/01 A3018 RMK AO2 VIS 3/4V5 FZRANO=
202312160356 METAR KPWT 160356Z AUTO 00000KT 4SM BR CLR 01/01 A3019 RMK AO2 SLP229 T00110011 FZRANO=
202312160348 SPECI KPWT 160348Z AUTO 00000KT 4SM BR CLR 02/02 A3019 RMK AO2 FZRANO=
202312160345 SPECI KPWT 160345Z AUTO 00000KT 1 1/2SM BR CLR 02/02 A3019 RMK AO2 FZRANO=
202312160334 SPECI KPWT 160334Z AUTO 00000KT 3/4SM BR CLR 02/02 A3019 RMK AO2 FZRANO=
202312160326 SPECI KPWT 160326Z AUTO 00000KT 1 1/2SM BR CLR 02/02 A3019 RMK AO2 VIS 1/2V5 FZRANO=
202312160301 SPECI KPWT 160301Z AUTO 00000KT 3SM BR CLR 02/02 A3019 RMK AO2 FZRANO=
202312160256 METAR KPWT 160256Z AUTO 00000KT 1 1/2SM BR CLR 02/02 A3019 RMK AO2 VIS 3/4V5 SLP230 T00220022 58001 FZRANO=
202312160246 SPECI KPWT 160246Z AUTO 00000KT 3/4SM BR CLR 02/02 A3019 RMK AO2 FZRANO=
202312160243 SPECI KPWT 160243Z AUTO 00000KT 1 1/2SM BR CLR 02/02 A3019 RMK AO2 FZRANO=
202312160213 SPECI KPWT 160213Z AUTO 00000KT 3SM BR CLR 02/02 A3019 RMK AO2 FZRANO=
202312160210 SPECI KPWT 160210Z AUTO 00000KT 1 1/4SM BR CLR 03/03 A3020 RMK AO2=
202312160156 METAR KPWT 160156Z AUTO 00000KT 3/4SM BR CLR 03/03 A3019 RMK AO2 SLP231 T00330033=
202312160152 SPECI KPWT 160152Z AUTO 00000KT 1 1/2SM BR CLR 03/03 A3019 RMK AO2=
202312160141 SPECI KPWT 160141Z AUTO 00000KT 4SM BR CLR 03/03 A3019 RMK AO2=
202312160130 SPECI KPWT 160130Z AUTO 00000KT 1 3/4SM BR CLR 03/03 A3019 RMK AO2=
202312160056 METAR KPWT 160056Z AUTO 00000KT 10SM CLR 04/04 A3019 RMK AO2 SLP232 T00440044=
202312152356 METAR KPWT 152356Z AUTO 00000KT 10SM CLR 08/07 A3019 RMK AO2 SLP230 T00780067 10106 20061 56008=
202312152256 METAR KPWT 152256Z AUTO 21003KT 10SM CLR 09/07 A3019 RMK AO2 SLP230 T00940072=
202312152156 METAR KPWT 152156Z AUTO 23004KT 10SM CLR 11/08 A3020 RMK AO2 SLP231 T01060078=
202312152056 METAR KPWT 152056Z AUTO 00000KT 10SM CLR 10/07 A3021 RMK AO2 SLP237 T01000067 58011=
202312151956 METAR KPWT 151956Z AUTO 00000KT 10SM CLR 11/07 A3023 RMK AO2 SLP241 T01060072=
202312151856 METAR KPWT 151856Z AUTO 00000KT 10SM CLR 09/09 A3025 RMK AO2 SLP247 T00940089=
202312151756 METAR KPWT 151756Z AUTO 00000KT 10SM CLR 06/06 A3025 RMK AO2 SLP249 T00610061 10061 20028 51005=
202312151724 SPECI KPWT 151724Z AUTO 00000KT 3SM BR CLR 05/05 A3025 RMK AO2=
202312151713 SPECI KPWT 151713Z AUTO 00000KT 1 3/4SM BR CLR 04/04 A3025 RMK AO2=
202312151656 METAR KPWT 151656Z AUTO 7SM CLR 04/04 A3025 RMK AO2 SLP250 T00440044=
202312151634 SPECI KPWT 151634Z AUTO 00000KT 3SM BR SCT003 04/04 A3025 RMK AO2=
202312151631 SPECI KPWT 151631Z AUTO 00000KT 1 1/4SM BR SCT003 04/04 A3025 RMK AO2 VIS 1/2V5=
202312151629 SPECI KPWT 151629Z AUTO 00000KT 3/4SM BR VV003 04/04 A3024 RMK AO2 VIS 1/4V2 1/2=
202312151556 METAR KPWT 151556Z AUTO 00000KT 1/4SM FG BKN002 04/04 A3024 RMK AO2 SLP247 T00390039=
202312151548 SPECI KPWT 151548Z AUTO 00000KT 1/4SM FG BKN002 03/03 A3024 RMK AO2=
202312151545 SPECI KPWT 151545Z AUTO 00000KT 3/4SM BR BKN002 03/03 A3024 RMK AO2=
202312151543 SPECI KPWT 151543Z AUTO 00000KT 1 3/4SM BR BKN002 03/03 A3024 RMK AO2=
202312151540 SPECI KPWT 151540Z AUTO 00000KT 6SM BR SCT002 03/03 A3024 RMK AO2=
202312151512 SPECI KPWT 151512Z AUTO 00000KT 5SM BR CLR 03/03 A3023 RMK AO2=
202312151505 SPECI KPWT 151505Z AUTO 00000KT 2 1/2SM BR CLR 03/03 A3023 RMK AO2=
202312151456 METAR KPWT 151456Z AUTO 00000KT 6SM BR CLR 03/03 A3023 RMK AO2 SLP245 T00330033 53007=
202312151440 SPECI KPWT 151440Z AUTO 00000KT 10SM CLR 03/03 A3023 RMK AO2=
202312151420 SPECI KPWT 151420Z AUTO 00000KT 2SM BR CLR 03/03 A3023 RMK AO2=
202312151356 METAR KPWT 151356Z AUTO 00000KT 10SM CLR 03/03 A3022 RMK AO2 SLP240 T00330033=
202312151340 SPECI KPWT 151340Z AUTO 00000KT 2SM BR CLR 03/03 A3022 RMK AO2 VIS 1 1/4V5=
202312151336 SPECI KPWT 151336Z AUTO 00000KT 1SM BR CLR 03/03 A3022 RMK AO2 VIS 1/2V5=
202312151314 SPECI KPWT 151314Z AUTO 00000KT 1/2SM FG FEW090 04/04 A3022 RMK AO2=
202312151305 SPECI KPWT 151305Z AUTO 00000KT 3/4SM BR FEW090 04/04 A3022 RMK AO2=
202312151301 SPECI KPWT 151301Z AUTO 00000KT 1 3/4SM BR FEW090 04/04 A3022 RMK AO2=
202312151256 METAR KPWT 151256Z AUTO 00000KT 10SM FEW090 04/04 A3022 RMK AO2 SLP241 T00440044=
202312151249 SPECI KPWT 151249Z AUTO 00000KT 6SM BR FEW090 04/04 A3022 RMK AO2=
202312151247 SPECI KPWT 151247Z AUTO 00000KT 1 1/2SM BR FEW090 04/04 A3023 RMK AO2=
202312151239 SPECI KPWT 151239Z AUTO 00000KT 3/4SM BR CLR 04/04 A3023 RMK AO2=
202312151227 SPECI KPWT 151227Z AUTO 00000KT 1 1/4SM BR FEW060 05/05 A3022 RMK AO2=
202312151219 SPECI KPWT 151219Z AUTO 00000KT 3/4SM BR FEW060 06/06 A3022 RMK AO2=
202312151215 SPECI KPWT 151215Z AUTO 00000KT 1 3/4SM BR SCT060 06/06 A3022 RMK AO2 VIS 3/4V5=
202312151156 METAR KPWT 151156Z AUTO 00000KT 10SM BKN055 06/06 A3021 RMK AO2 SLP237 70011 T00560056 10072 20056 58006=
202312151056 METAR KPWT 151056Z AUTO 00000KT 7SM FEW043 BKN055 BKN070 06/06 A3023 RMK AO2 SLP241 T00610061=
202312151030 SPECI KPWT 151030Z AUTO 00000KT 3SM BR OVC047 06/06 A3022 RMK AO2=
202312151014 SPECI KPWT 151014Z AUTO 00000KT 1 1/4SM BR BKN049 06/06 A3022 RMK AO2=
202312151010 SPECI KPWT 151010Z AUTO 00000KT 3/4SM BR BKN049 07/07 A3022 RMK AO2=
202312151001 SPECI KPWT 151001Z AUTO 00000KT 1SM BR SCT042 BKN049 07/07 A3022 RMK AO2=
202312150956 METAR KPWT 150956Z AUTO 00000KT 2SM BR FEW036 BKN049 07/07 A3022 RMK AO2 VIS 1 1/4V5 SLP239 T00670067=
202312150856 METAR KPWT 150856Z AUTO 32003KT 7SM SCT036 BKN043 BKN055 07/07 A3023 RMK AO2 SLP243 T00670067 58002=
202312150756 METAR KPWT 150756Z AUTO 00000KT 10SM BKN050 BKN080 07/07 A3023 RMK AO2 SLP243 T00720072 400780056=
202312150656 METAR KPWT 150656Z AUTO 00000KT 9SM SCT027 BKN036 07/07 A3024 RMK AO2 SLP245 T00670067=
202312150556 METAR KPWT 150556Z AUTO 00000KT 9SM BKN019 OVC026 07/07 A3023 RMK AO2 SLP244 T00720072 10078 20072 55006=
202312150456 METAR KPWT 150456Z AUTO 00000KT 10SM SCT017 OVC024 07/07 A3023 RMK AO2 SLP242 T00720072=
202312150356 METAR KPWT 150356Z AUTO 02003KT 8SM OVC021 07/07 A3024 RMK AO2 SLP245 T00720072=
202312150317 SPECI KPWT 150317Z AUTO 07003KT 8SM SCT004 BKN023 07/07 A3025 RMK AO2=
202312150256 METAR KPWT 150256Z AUTO 05004KT 8SM BKN004 BKN008 BKN027 07/07 A3025 RMK AO2 PRESRR SLP251 T00720072 53008=
202312150254 SPECI KPWT 150254Z AUTO 05003KT 8SM BKN004 BKN008 BKN027 07/07 A3025 RMK AO2 CIG 002V006 PRESRR=
202312150225 SPECI KPWT 150225Z AUTO 05006KT 3SM BR OVC002 07/07 A3021 RMK AO2=
202312150207 SPECI KPWT 150207Z AUTO 05009KT 1 3/4SM BR OVC002 07/07 A3021 RMK AO2=
202312150156 METAR KPWT 150156Z AUTO 04006KT 3SM BR OVC002 07/07 A3022 RMK AO2 SLP239 T00720072=
202312150056 METAR KPWT 150056Z AUTO 05006KT 5SM BR OVC002 07/07 A3023 RMK AO2 SLP242 T00720072=
202312150014 SPECI KPWT 150014Z AUTO 04006KT 4SM BR BKN002 OVC005 07/07 A3022 RMK AO2=
202312142356 METAR KPWT 142356Z AUTO 04005KT 8SM OVC005 07/07 A3022 RMK AO2 SLP238 T00720072 10078 20067 53008=
202312142256 METAR KPWT 142256Z AUTO 02003KT 10SM OVC005 08/08 A3020 RMK AO2 CIG 003V008 SLP232 T00780078=
202312142231 SPECI KPWT 142231Z AUTO 00000KT 10SM OVC007 08/08 A3019 RMK AO2 CIG 005V010=
202312142156 METAR KPWT 142156Z AUTO 00000KT 10SM OVC005 08/08 A3018 RMK AO2 SLP227 T00780078=
202312142056 METAR KPWT 142056Z AUTO 22003KT 10SM OVC005 07/07 A3019 RMK AO2 SLP229 T00720072 52003=
202312141956 METAR KPWT 141956Z AUTO 21004KT 10SM OVC005 07/07 A3019 RMK AO2 SLP228 T00720072=
202312141922 SPECI KPWT 141922Z AUTO 17004KT 10SM OVC005 07/07 A3018 RMK AO2 CIG 003V008=
202312141856 METAR KPWT 141856Z AUTO 20003KT 10SM OVC003 07/07 A3019 RMK AO2 SLP228 T00670067=
202312141756 METAR KPWT 141756Z AUTO 20005KT 10SM OVC003 07/07 A3018 RMK AO2 RAE19 SLP227 P0000 60011 T00670067 10067 20056 52017=
202312141656 METAR KPWT 141656Z AUTO 20005KT 3SM -RA BR OVC003 06/06 A3016 RMK AO2 SLP219 P0002 T00610061=
202312141652 SPECI KPWT 141652Z AUTO 20005KT 3SM -RA BR OVC003 06/06 A3016 RMK AO2 P0002=
202312141635 SPECI KPWT 141635Z AUTO 20005KT 2SM -RA BR OVC003 06/06 A3015 RMK AO2 P0001=
202312141556 METAR KPWT 141556Z AUTO 19003KT 10SM -RA OVC003 06/06 A3013 RMK AO2 SLP210 P0001 T00610061=
202312141518 SPECI KPWT 141518Z AUTO 00000KT 10SM -RA OVC003 06/06 A3012 RMK AO2 P0000=
202312141456 METAR KPWT 141456Z AUTO 00000KT 10SM -RA BKN005 OVC009 06/06 A3011 RMK AO2 CIG 003V007 SLP204 P0003 60008 T00560056 53012=
202312141448 SPECI KPWT 141448Z AUTO 00000KT 10SM -RA BKN009 OVC012 06/06 A3011 RMK AO2 CIG 004V010 P0003=
202312141403 SPECI KPWT 141403Z AUTO 20003KT 8SM -RA BKN014 OVC020 06/06 A3011 RMK AO2 P0001=
202312141356 METAR KPWT 141356Z AUTO 00000KT 7SM -RA BKN016 OVC024 06/06 A3010 RMK AO2 SLP200 P0002 T00610061=
202312141312 SPECI KPWT 141312Z AUTO 18004KT 10SM -RA FEW021 BKN029 OVC038 06/06 A3009 RMK AO2 P0001=
202312141256 METAR KPWT 141256Z AUTO 19003KT 8SM -RA FEW026 OVC032 06/06 A3009 RMK AO2 SLP197 P0003 T00610061=
202312141156 METAR KPWT 141156Z AUTO 00000KT 8SM -RA OVC035 06/06 A3008 RMK AO2 SLP192 P0003 60005 70005 T00560056 10067 20039 51009=
202312141056 METAR KPWT 141056Z AUTO 15003KT 7SM -RA OVC037 06/06 A3007 RMK AO2 SLP190 P0002 T00560056=
202312140956 METAR KPWT 140956Z AUTO 15003KT 7SM -RA OVC041 06/06 A3007 RMK AO2 RAB06E23B39 SLP187 P0000 T00560056=
202312140856 METAR KPWT 140856Z AUTO 00000KT 10SM BKN050 OVC060 06/05 A3005 RMK AO2 SLP182 T00560050 51005=
202312140756 METAR KPWT 140756Z AUTO 26003KT 10SM BKN065 07/05 A3005 RMK AO2 SLP181 T00670050 401061017=
202312140656 METAR KPWT 140656Z AUTO 00000KT 10SM BKN075 04/04 A3005 RMK AO2 SLP181 T00440044=
202312140556 METAR KPWT 140556Z AUTO 00000KT 10SM SCT085 04/04 A3004 RMK AO2 SLP178 T00390039 10072 20033 51001=
202312140456 METAR KPWT 140456Z AUTO 00000KT 10SM CLR 03/03 A3003 RMK AO2 SLP178 T00330033=
202312140356 METAR KPWT 140356Z AUTO 00000KT 10SM CLR 03/03 A3004 RMK AO2 SLP181 T00330033=
202312140256 METAR KPWT 140256Z AUTO 00000KT 10SM BKN100 OVC110 06/04 A3003 RMK AO2 SLP177 T00560044 51003=
202312140156 METAR KPWT 140156Z AUTO 00000KT 10SM OVC100 06/04 A3003 RMK AO2 SLP175 T00560039=
202312140056 METAR KPWT 140056Z AUTO 00000KT 10SM CLR 04/03 A3003 RMK AO2 SLP177 T00440033=
202312132356 METAR KPWT 132356Z AUTO 00000KT 10SM CLR 07/04 A3003 RMK AO2 SLP174 T00720044 10106 20061 56008=
202312132256 METAR KPWT 132256Z AUTO 00000KT 10SM CLR 09/04 A3003 RMK AO2 SLP174 T00890039=
202312132156 METAR KPWT 132156Z AUTO VRB04KT 10SM CLR 11/03 A3003 RMK AO2 SLP178 T01060033=
202312132056 METAR KPWT 132056Z AUTO 19007KT 10SM CLR 10/03 A3005 RMK AO2 SLP183 T01000033 58013=
202312131956 METAR KPWT 131956Z AUTO 19005KT 10SM CLR 08/03 A3007 RMK AO2 SLP188 T00830033=
202312131856 METAR KPWT 131856Z AUTO 22008KT 10SM CLR 08/03 A3008 RMK AO2 SLP193 T00780033=
202312131756 METAR KPWT 131756Z AUTO 19006KT 10SM CLR 06/03 A3009 RMK AO2 SLP196 T00610028 10061 21006 53003=
202312131656 METAR KPWT 131656Z AUTO 00000KT 10SM CLR 01/01 A3008 RMK AO2 SLP195 T00110011 FZRANO=
202312131556 METAR KPWT 131556Z AUTO 00000KT 9SM CLR 00/00 A3007 RMK AO2 SLP192 T00000000 FZRANO=
202312131456 METAR KPWT 131456Z AUTO 00000KT 10SM CLR 00/00 A3008 RMK AO2 SLP194 T00000000 58006 FZRANO=
202312131356 METAR KPWT 131356Z AUTO 00000KT 10SM CLR 00/00 A3009 RMK AO2 SLP198 T00000000 FZRANO=
202312131256 METAR KPWT 131256Z AUTO 00000KT 10SM CLR 00/00 A3009 RMK AO2 SLP196 T00000000 FZRANO=
202312131156 METAR KPWT 131156Z AUTO 00000KT 7SM CLR M01/M01 A3010 RMK AO2 SLP198 T10061006 10022 21017 58003 FZRANO=
202312131056 METAR KPWT 131056Z AUTO 00000KT 10SM CLR M01/M01 A3010 RMK AO2 SLP199 T10111011 FZRANO=
202312131025 SPECI KPWT 131025Z AUTO 00000KT 3SM BR CLR M01/M01 A3010 RMK AO2 FZRANO=
202312131017 SPECI KPWT 131017Z AUTO 00000KT 1 1/4SM BR CLR M01/M01 A3010 RMK AO2 VIS 1/2V5 FZRANO=
202312130956 METAR KPWT 130956Z AUTO 22003KT 3/4SM BR CLR M02/M02 A3010 RMK AO2 SLP200 T10171017 FZRANO=
202312130946 SPECI KPWT 130946Z AUTO 00000KT 3/4SM BR CLR M01/M01 A3010 RMK AO2 FZRANO=
202312130943 SPECI KPWT 130943Z AUTO 00000KT 1 1/4SM BR CLR M01/M01 A3010 RMK AO2 FZRANO=
202312130928 SPECI KPWT 130928Z AUTO 00000KT 1SM BR CLR M02/M02 A3011 RMK AO2 VIS 1/2V5 FZRANO=
202312130923 SPECI KPWT 130923Z AUTO 00000KT 2SM BR CLR M02/M02 A3011 RMK AO2 VIS 1V5 FZRANO=
202312130909 SPECI KPWT 130909Z AUTO 00000KT 3SM BR CLR M01/M01 A3011 RMK AO2 FZRANO=
202312130901 SPECI KPWT 130901Z AUTO 00000KT 1 1/4SM BR CLR M01/M01 A3011 RMK AO2 FZRANO=
202312130856 METAR KPWT 130856Z AUTO 00000KT 3/4SM BR CLR M01/M01 A3011 RMK AO2 SLP201 T10111011 56018 FZRANO=
202312130828 SPECI KPWT 130828Z AUTO 00000KT 3/4SM BR CLR M01/M01 A3011 RMK AO2 FZRANO=
202312130822 SPECI KPWT 130822Z AUTO 00000KT 1 1/2SM BR CLR M01/M01 A3012 RMK AO2 FZRANO=
202312130756 METAR KPWT 130756Z AUTO 00000KT 4SM BR CLR M01/M01 A3013 RMK AO2 SLP207 T10061006 401001006 FZRANO=
202312130702 SPECI KPWT 130702Z AUTO 13003KT 4SM BR CLR 00/00 A3014 RMK AO2 FZRANO=
202312130700 SPECI KPWT 130700Z AUTO 12003KT 1 1/2SM BR CLR 00/00 A3014 RMK AO2 FZRANO=
202312130656 METAR KPWT 130656Z AUTO 11003KT 3/4SM BR CLR 01/01 A3014 RMK AO2 SLP212 T00060006 FZRANO=
202312130650 SPECI KPWT 130650Z AUTO 00000KT 3/4SM BR CLR 01/01 A3015 RMK AO2 FZRANO=
202312130638 SPECI KPWT 130638Z AUTO 00000KT 1 1/4SM BR CLR 01/01 A3015 RMK AO2 FZRANO=
202312130632 SPECI KPWT 130632Z AUTO 00000KT 3/4SM BR CLR 01/01 A3015 RMK AO2 FZRANO=
202312130625 SPECI KPWT 130625Z AUTO 00000KT 1SM BR CLR 01/01 A3015 RMK AO2 FZRANO=
202312130622 SPECI KPWT 130622Z AUTO 00000KT 3/4SM BR VV001 01/01 A3015 RMK AO2 FZRANO=
202312130604 SPECI KPWT 130604Z AUTO 00000KT 1/4SM FG VV001 02/02 A3016 RMK AO2 FZRANO=
202312130556 METAR KPWT 130556Z AUTO 00000KT 1/2SM FG BKN002 02/02 A3016 RMK AO2 SLP220 T00220022 10067 20000 56004 FZRANO=
202312130456 METAR KPWT 130456Z AUTO 22003KT 1/4SM FG OVC002 03/03 A3017 RMK AO2 SLP223 T00330033=
202312130356 METAR KPWT 130356Z AUTO 14003KT 1/4SM FG OVC002 02/02 A3017 RMK AO2 SLP223 T00220022 FZRANO=
202312130338 SPECI KPWT 130338Z AUTO 00000KT 1/4SM FG OVC002 02/02 A3017 RMK AO2 FZRANO=
202312130329 SPECI KPWT 130329Z AUTO 00000KT 1/2SM FG OVC002 01/01 A3017 RMK AO2 FZRANO=
202312130305 SPECI KPWT 130305Z AUTO 00000KT 1/4SM FG VV002 00/00 A3017 RMK AO2 FZRANO=
202312130259 SPECI KPWT 130259Z AUTO 00000KT 1/2SM FG CLR 01/01 A3017 RMK AO2 FZRANO=
202312130256 METAR KPWT 130256Z AUTO 00000KT 1SM BR CLR 01/01 A3018 RMK AO2 VIS 1/2V3 SLP226 T00060006 56004 FZRANO=
202312130249 SPECI KPWT 130249Z AUTO 00000KT 1 3/4SM BR CLR 01/01 A3018 RMK AO2 FZRANO=
202312130235 SPECI KPWT 130235Z AUTO 00000KT 3SM BR CLR 01/01 A3017 RMK AO2 FZRANO=
202312130227 SPECI KPWT 130227Z AUTO 00000KT 1 1/4SM BR CLR 01/01 A3018 RMK AO2 VIS 1/2V5 FZRANO=
202312130217 SPECI KPWT 130217Z AUTO 00000KT 3/4SM BR CLR 01/01 A3018 RMK AO2 VIS 1/2V5 FZRANO=
202312130214 SPECI KPWT 130214Z AUTO 00000KT 1 3/4SM BR CLR 01/01 A3018 RMK AO2 VIS 1/2V5 FZRANO=
202312130156 METAR KPWT 130156Z AUTO 00000KT 9SM CLR 01/01 A3018 RMK AO2 SLP227 T00110011 FZRANO=
202312130141 SPECI KPWT 130141Z AUTO 00000KT 3SM BR CLR 02/02 A3018 RMK AO2 FZRANO=
202312130130 SPECI KPWT 130130Z AUTO 20003KT 1 3/4SM BR CLR 01/01 A3019 RMK AO2 VIS 1/2V5 FZRANO=
202312130056 METAR KPWT 130056Z AUTO 00000KT 10SM CLR 03/03 A3018 RMK AO2 SLP226 T00280028=
202312122356 METAR KPWT 122356Z AUTO 05003KT 10SM CLR 07/06 A3019 RMK AO2 SLP229 T00670056 10100 20050 55007=
202312122256 METAR KPWT 122256Z AUTO 00000KT 10SM CLR 09/06 A3018 RMK AO2 SLP224 T00890061=
202312122156 METAR KPWT 122156Z AUTO 00000KT 10SM CLR 09/06 A3019 RMK AO2 SLP228 T00890061=
202312122056 METAR KPWT 122056Z AUTO 00000KT 10SM CLR 08/06 A3021 RMK AO2 SLP236 T00830056 58014=
202312122019 SPECI KPWT 122019Z AUTO 04003KT 10SM SCT009 07/05 A3021 RMK AO2=
202312122010 SPECI KPWT 122010Z AUTO 07003KT 10SM BKN009 08/06 A3021 RMK AO2=
202312121956 METAR KPWT 121956Z AUTO VRB03KT 10SM SCT009 08/06 A3022 RMK AO2 SLP240 T00780061=
202312121948 SPECI KPWT 121948Z AUTO 06003KT 10SM FEW009 08/06 A3023 RMK AO2=
202312121856 METAR KPWT 121856Z AUTO 07005KT 10SM CLR 07/06 A3025 RMK AO2 SLP248 T00720056=
202312121756 METAR KPWT 121756Z AUTO 06005KT 10SM FEW005 05/05 A3025 RMK AO2 SLP251 T00500050 10056 20017 53012=
202312121717 SPECI KPWT 121717Z AUTO 04005KT 10SM SCT004 05/05 A3024 RMK AO2=
202312121656 METAR KPWT 121656Z AUTO 05004KT 8SM BKN004 05/05 A3023 RMK AO2 SLP245 T00500050=
202312121556 METAR KPWT 121556Z AUTO 00000KT 5SM BR OVC004 04/04 A3023 RMK AO2 SLP243 T00390039=
202312121541 SPECI KPWT 121541Z AUTO 00000KT 5SM BR BKN004 04/04 A3023 RMK AO2=
202312121509 SPECI KPWT 121509Z AUTO 00000KT 10SM BKN006 04/04 A3022 RMK AO2=
202312121456 METAR KPWT 121456Z AUTO 05005KT 10SM SCT006 04/04 A3022 RMK AO2 SLP239 T00390039 56005=
202312121356 METAR KPWT 121356Z AUTO 00000KT 10SM SCT015 03/03 A3022 RMK AO2 SLP241 T00280028=
202312121256 METAR KPWT 121256Z AUTO 00000KT 10SM OVC015 05/04 A3022 RMK AO2 SLP241 T00500044=
202312121156 METAR KPWT 121156Z AUTO 02003KT 10SM OVC015 06/05 A3023 RMK AO2 SLP244 70001 T00560050 10067 20056 50000=
202312121123 SPECI KPWT 121123Z AUTO 03004KT 10SM OVC015 06/05 A3024 RMK AO2=
202312121056 METAR KPWT 121056Z AUTO 36006KT 10SM OVC013 06/05 A3025 RMK AO2 SLP248 T00560050=
202312120956 METAR KPWT 120956Z AUTO 36006KT 10SM OVC011 06/06 A3024 RMK AO2 SLP247 T00610056=
202312120933 SPECI KPWT 120933Z AUTO 02005KT 10SM OVC011 06/06 A3024 RMK AO2=
202312120856 METAR KPWT 120856Z AUTO 04005KT 10SM OVC007 06/06 A3023 RMK AO2 SLP244 T00610056 58003=
202312120756 METAR KPWT 120756Z AUTO 01004KT 10SM OVC007 06/06 A3024 RMK AO2 SLP246 T00610061 400780061=
202312120656 METAR KPWT 120656Z AUTO 03004KT 10SM OVC007 07/07 A3024 RMK AO2 SLP248 T00670067=
202312120556 METAR KPWT 120556Z AUTO 03005KT 10SM BKN006 OVC011 07/07 A3024 RMK AO2 CIG 005V009 SLP247 T00670067 10072 20067 53006=
202312120456 METAR KPWT 120456Z AUTO 04006KT 10SM OVC011 07/07 A3023 RMK AO2 SLP243 T00670067=
202312120356 METAR KPWT 120356Z AUTO 02005KT 10SM OVC013 07/07 A3023 RMK AO2 SLP242 T00670067=
202312120322 SPECI KPWT 120322Z AUTO 03004KT 10SM OVC013 07/07 A3022 RMK AO2=
202312120256 METAR KPWT 120256Z AUTO 03004KT 10SM FEW007 OVC015 07/07 A3022 RMK AO2 SLP241 T00670067 51003=
202312120232 SPECI KPWT 120232Z AUTO 02005KT 10SM FEW007 OVC015 07/07 A3022 RMK AO2=
202312120228 SPECI KPWT 120228Z AUTO 02005KT 10SM OVC013 07/07 A3022 RMK AO2=
202312120156 METAR KPWT 120156Z AUTO 03005KT 10SM OVC015 07/07 A3022 RMK AO2 SLP240 T00670067=
202312120130 SPECI KPWT 120130Z AUTO 05006KT 10SM SCT009 OVC015 07/06 A3022 RMK AO2=
202312120103 SPECI KPWT 120103Z AUTO 05005KT 10SM OVC009 07/07 A3022 RMK AO2 CIG 008V013=
202312120056 METAR KPWT 120056Z AUTO 04004KT 10SM OVC011 07/07 A3022 RMK AO2 CIG 008V015 SLP239 T00670067=
202312120035 SPECI KPWT 120035Z AUTO 02004KT 10SM OVC011 07/07 A3022 RMK AO2=
202312112356 METAR KPWT 112356Z AUTO 04008KT 10SM OVC009 07/07 A3021 RMK AO2 SLP237 T00720067 10078 20072 53002=
202312112256 METAR KPWT 112256Z AUTO 02008KT 10SM OVC009 08/07 A3021 RMK AO2 SLP234 T00780067=
202312112156 METAR KPWT 112156Z AUTO 04009KT 10SM OVC009 08/07 A3020 RMK AO2 CIG 007V011 SLP232 T00780072=
202312112056 METAR KPWT 112056Z AUTO 03007KT 10SM OVC007 08/07 A3021 RMK AO2 SLP235 T00780072 58008=
202312111956 METAR KPWT 111956Z AUTO 03009KT 10SM OVC007 08/07 A3022 RMK AO2 CIG 005V010 SLP238 T00780072=
202312111856 METAR KPWT 111856Z AUTO 05010KT 10SM OVC009 07/07 A3022 RMK AO2 CIG 006V012 SLP241 T00720072=
202312111756 METAR KPWT 111756Z AUTO 04010KT 10SM OVC009 08/07 A3023 RMK AO2 CIG 007V012 SLP244 60001 T00780072 10078 20067 53006=
202312111656 METAR KPWT 111656Z AUTO 04009KT 10SM BKN007 07/07 A3022 RMK AO2 CIG 005V010 SLP240 T00670067=
202312111636 SPECI KPWT 111636Z AUTO 04008KT 10SM SCT007 07/07 A3022 RMK AO2=
202312111604 SPECI KPWT 111604Z AUTO 03009KT 10SM BKN007 07/07 A3022 RMK AO2 CIG 005V009=
202312111556 METAR KPWT 111556Z AUTO 04009KT 10SM SCT007 BKN019 07/07 A3022 RMK AO2 SLP238 T00670067=
202312111542 SPECI KPWT 111542Z AUTO 03008KT 10SM SCT005 SCT009 BKN019 07/07 A3022 RMK AO2=
202312111456 METAR KPWT 111456Z AUTO 04010KT 10SM BKN005 OVC026 07/07 A3021 RMK AO2 RAE48 CIG 004V011 SLP235 P0001 60001 T00720072 51006=
202312111451 SPECI KPWT 111451Z AUTO 04009KT 10SM BKN007 OVC026 07/07 A3021 RMK AO2 RAE48 CIG 004V011 P0000=
202312111429 SPECI KPWT 111429Z AUTO 03008KT 8SM -RA FEW005 BKN018 OVC027 07/07 A3020 RMK AO2 P0000=
202312111409 SPECI KPWT 111409Z AUTO 03008KT 9SM -RA BKN005 OVC020 07/07 A3020 RMK AO2 CIG 003V007 P0000=
202312111356 METAR KPWT 111356Z AUTO 03005KT 7SM -RA BKN007 BKN013 OVC018 07/07 A3020 RMK AO2 RAB1258E14B42 CIG 004V009 SLP233 P0000 T00720072=
202312111256 METAR KPWT 111256Z AUTO 04006KT 7SM BKN007 BKN027 07/07 A3019 RMK AO2 RAE03 CIG 003V008 SLP228 P0000 T00720072=
202312111218 SPECI KPWT 111218Z AUTO 04008KT 10SM BKN009 BKN019 BKN040 08/08 A3019 RMK AO2 RAE03 P0000=
202312111156 METAR KPWT 111156Z AUTO 05006KT 10SM -RA FEW009 SCT020 OVC027 08/08 A3018 RMK AO2 SLP226 P0001 60002 70009 T00780078 10078 20072 51008=
202312111120 SPECI KPWT 111120Z AUTO 03004KT 9SM -RA BKN016 BKN025 08/08 A3018 RMK AO2 P0000=
202312111056 METAR KPWT 111056Z AUTO 03007KT 7SM -RA CLR 08/08 A3018 RMK AO2 RAB14 SLP225 P0001 T00780078=
202312111036 SPECI KPWT 111036Z AUTO 03004KT 6SM -RA BR SCT003 08/08 A3018 RMK AO2 RAB14 P0001=
202312110956 METAR KPWT 110956Z AUTO 00000KT 3SM BR OVC003 08/08 A3017 RMK AO2 RAE33 SLP222 P0000 T00780078=
202312110904 SPECI KPWT 110904Z AUTO 00000KT 3SM -RA BR OVC003 07/07 A3016 RMK AO2 P0000=
202312110856 METAR KPWT 110856Z AUTO 00000KT 7SM -RA OVC005 07/07 A3016 RMK AO2 RAE14B46 CIG 002V008 SLP218 P0000 60000 T00720072 50006=
202312110811 SPECI KPWT 110811Z AUTO 00000KT 7SM -RA OVC005 07/07 A3017 RMK AO2 P0000=
202312110756 METAR KPWT 110756Z AUTO 00000KT 4SM -RA BR OVC003 07/07 A3016 RMK AO2 RAB35 SLP218 P0000 T00720072 401060056=
202312110656 METAR KPWT 110656Z AUTO 00000KT 8SM OVC003 07/07 A3015 RMK AO2 SLP216 T00720072=
202312110649 SPECI KPWT 110649Z AUTO 00000KT 3SM BR OVC003 07/07 A3015 RMK AO2=
202312110627 SPECI KPWT 110627Z AUTO 00000KT 2 1/2SM BR OVC003 07/07 A3015 RMK AO2 VIS 2V3=
202312110556 METAR KPWT 110556Z AUTO 00000KT 10SM OVC003 08/08 A3014 RMK AO2 SLP212 T00780078 10100 20078 53006=
202312110516 SPECI KPWT 110516Z AUTO 00000KT 10SM OVC003 08/08 A3013 RMK AO2=
202312110456 METAR KPWT 110456Z AUTO 00000KT 10SM OVC005 08/08 A3013 RMK AO2 SLP209 T00780078=
202312110418 SPECI KPWT 110418Z AUTO 00000KT 10SM OVC005 08/08 A3013 RMK AO2 CIG 004V007=
202312110356 METAR KPWT 110356Z AUTO 00000KT 10SM OVC007 08/08 A3012 RMK AO2 CIG 004V011 SLP206 T00830083=
202312110256 METAR KPWT 110256Z AUTO 21003KT 10SM OVC007 08/08 A3012 RMK AO2 CIG 004V009 SLP205 T00830083 53016=
202312110230 SPECI KPWT 110230Z AUTO VRB04KT 10SM BKN005 08/08 A3012 RMK AO2=
202312110220 SPECI KPWT 110220Z AUTO 26003KT 10SM SCT005 08/08 A3011 RMK AO2=
202312110156 METAR KPWT 110156Z AUTO 19003KT 10SM CLR 08/08 A3010 RMK AO2 SLP198 T00830083=
202312110056 METAR KPWT 110056Z AUTO 19007KT 10SM FEW006 09/09 A3010 RMK AO2 SLP196 T00940094=
202312110027 SPECI KPWT 110027Z AUTO 19008KT 10SM SCT008 BKN036 10/10 A3009 RMK AO2=
202312102356 METAR KPWT 102356Z AUTO 18009KT 10SM BKN006 BKN047 10/10 A3008 RMK AO2 CIG 004V010 SLP189 60001 T01000100 10106 20089 53002=
202312102330 SPECI KPWT 102330Z AUTO 19009KT 10SM SCT004 BKN009 BKN035 10/10 A3007 RMK AO2=
202312102256 METAR KPWT 102256Z AUTO 20009KT 10SM BKN004 OVC033 11/11 A3007 RMK AO2 SLP187 T01060106=
202312102156 METAR KPWT 102156Z AUTO 20010G15KT 7SM OVC004 10/10 A3006 RMK AO2 SLP186 T01000100=
202312102056 METAR KPWT 102056Z AUTO 19010KT 3SM BR OVC004 10/10 A3007 RMK AO2 SLP187 60001 T01000100 58007=
202312101956 METAR KPWT 101956Z AUTO 21011G18KT 5SM BR OVC004 09/09 A3008 RMK AO2 RAB21E36 SLP191 P0001 T00940094=
202312101934 SPECI KPWT 101934Z AUTO 19010KT 3SM -RA BR OVC004 09/09 A3008 RMK AO2 RAB21 P0000=
202312101917 SPECI KPWT 101917Z AUTO 20009KT 2SM BR OVC004 09/09 A3009 RMK AO2=
202312101908 SPECI KPWT 101908Z AUTO 19010G17KT 3SM BR OVC004 09/09 A3009 RMK AO2=
202312101856 METAR KPWT 101856Z AUTO 20007KT 2SM BR OVC004 09/09 A3009 RMK AO2 VIS 1 3/4V3 RAE56 SLP196 P0000 T00940094=
202312101852 SPECI KPWT 101852Z AUTO 19010KT 2 1/2SM -RA BR OVC004 09/09 A3009 RMK AO2 VIS 1 3/4V5 P0000=
202312101817 SPECI KPWT 101817Z AUTO 20012G17KT 3SM -RA BR OVC004 09/09 A3010 RMK AO2 P0000=
202312101808 SPECI KPWT 101808Z AUTO 20009KT 2 1/2SM -RA BR OVC004 09/09 A3010 RMK AO2 VIS 1 3/4V4 P0000=
202312101756 METAR KPWT 101756Z AUTO 20010KT 3SM -RA BR OVC004 09/09 A3010 RMK AO2 SLP198 P0000 60006 T00890089 10089 20078 51013=
202312101749 SPECI KPWT 101749Z AUTO 20013KT 2 1/2SM -RA BR OVC004 09/09 A3010 RMK AO2 P0000=
202312101656 METAR KPWT 101656Z AUTO 20010KT 5SM -RA BR OVC004 09/09 A3009 RMK AO2 RAB01 SLP195 P0000 T00890089=
202312101556 METAR KPWT 101556Z AUTO 20014G19KT 4SM BR OVC004 08/08 A3007 RMK AO2 RAE42 SLP191 P0000 T00830083=
202312101456 METAR KPWT 101456Z AUTO 19011G16KT 10SM -RA OVC004 08/08 A3006 RMK AO2 SLP186 P0001 60006 T00830083 53005=
202312101356 METAR KPWT 101356Z AUTO 19010G18KT 8SM -RA OVC004 08/08 A3005 RMK AO2 SLP184 P0003 T00830083=
202312101256 METAR KPWT 101256Z AUTO 20009G17KT 5SM -RA BR OVC004 08/08 A3005 RMK AO2 SLP183 P0002 T00780078=
202312101156 METAR KPWT 101156Z AUTO 20012KT 7SM -RA OVC004 08/08 A3005 RMK AO2 SLP182 P0001 60022 70114 T00780078 10078 20044 58005=
202312101115 SPECI KPWT 101115Z AUTO 20011KT 5SM -RA BR OVC004 07/07 A3005 RMK AO2 P0001=
202312101056 METAR KPWT 101056Z AUTO 20011KT 10SM -RA OVC006 07/07 A3005 RMK AO2 SLP182 P0001 T00720072=
202312100956 METAR KPWT 100956Z AUTO 21008KT 8SM -RA OVC006 07/07 A3006 RMK AO2 CIG 004V010 SLP185 P0004 T00670067=
202312100951 SPECI KPWT 100951Z AUTO 21009KT 7SM -RA OVC006 07/07 A3006 RMK AO2 CIG 004V010 P0004=
202312100856 METAR KPWT 100856Z AUTO VRB05KT 9SM -RA OVC004 06/06 A3006 RMK AO2 SLP186 P0009 60016 T00610061 58004=
202312100756 METAR KPWT 100756Z AUTO 21010KT 4SM -RA BR OVC004 06/06 A3007 RMK AO2 SLP188 P0005 T00560056 400560000=
202312100656 METAR KPWT 100656Z AUTO 20008KT 5SM -RA BR OVC004 06/06 A3007 RMK AO2 SLP188 P0002 T00560056=
202312100556 METAR KPWT 100556Z AUTO 21008KT 4SM -RA BR OVC004 04/04 A3007 RMK AO2 SLP189 P0004 60046 T00440044 10044 20006 58006=
202312100456 METAR KPWT 100456Z AUTO 22008KT 4SM -RA BR OVC004 04/04 A3009 RMK AO2 SLP195 P0004 T00390039=
202312100356 METAR KPWT 100356Z AUTO 21011G16KT 6SM -RA BR OVC004 04/04 A3008 RMK AO2 SLP192 P0004 T00390039=
202312100256 METAR KPWT 100256Z AUTO 22010KT 5SM -RA BR OVC004 03/03 A3009 RMK AO2 SLP197 P0008 60034 T00330033 56012=
202312100156 METAR KPWT 100156Z AUTO 23007KT 3SM -RA BR OVC004 02/02 A3010 RMK AO2 UPB06E10 SLP200 P0012 T00170017 FZRANO=
202312100143 SPECI KPWT 100143Z AUTO 23005KT 3SM -RA BR OVC004 02/02 A3009 RMK AO2 UPB06E10 CIG 003V008 P0009 FZRANO=
202312100056 METAR KPWT 100056Z AUTO 21006KT 8SM -RA BKN007 OVC011 01/01 A3011 RMK AO2 UPB00E05 CIG 003V009 SLP203 P0014 T00110011 FZRANO=
202312100023 SPECI KPWT 100023Z AUTO 21004KT 6SM -RA BR BKN009 OVC014 01/01 A3012 RMK AO2 UPB00E05 CIG 007V012 P0008 FZRANO=
202312092356 METAR KPWT 092356Z AUTO 21004KT 6SM -RA BR BKN010 OVC017 01/01 A3012 RMK AO2 SLP209 P0015 60046 T00060006 10028 20000 58024 FZRANO=
202312092307 SPECI KPWT 092307Z AUTO 20004KT 4SM -RA BR BKN010 OVC028 01/01 A3014 RMK AO2 P0000 FZRANO=
202312092256 METAR KPWT 092256Z AUTO 23003KT 8SM -RA SCT012 BKN028 OVC032 01/01 A3015 RMK AO2 RAB30SNE30 SLP216 P0007 T00060006 FZRANO=
202312092241 SPECI KPWT 092241Z AUTO 22003KT 10SM -RA FEW010 BKN026 OVC033 01/01 A3015 RMK AO2 RAB30SNE30 P0007 FZRANO=
202312092214 SPECI KPWT 092214Z AUTO 28004KT 5SM -SN BR OVC010 01/01 A3017 RMK AO2 CIG 007V012 P0004 FZRANO=
202312092202 SPECI KPWT 092202Z AUTO 28003KT 3SM -SN BR FEW003 BKN008 OVC018 00/00 A3017 RMK AO2 CIG 007V012 P0001 FZRANO=
202312092156 METAR KPWT 092156Z AUTO 27004KT 1 3/4SM -SN BR SCT003 BKN008 OVC018 00/00 A3018 RMK AO2 VIS 1V4 CIG 007V012 SLP228 P0002 T00000000 FZRANO=
202312092128 SPECI KPWT 092128Z AUTO 28004KT 1 1/4SM -SN BR BKN003 OVC006 00/00 A3019 RMK AO2 VIS 3/4V3 CIG 002V006 P0001 FZRANO=
202312092111 SPECI KPWT 092111Z AUTO 26003KT 1SM -SN BR OVC007 00/00 A3019 RMK AO2 CIG 003V010 P0000 FZRANO=
202312092056 METAR KPWT 092056Z AUTO 26005KT 3/4SM -SN BR SCT004 OVC008 00/00 A3020 RMK AO2 SLP235 P0001 60022 T00000000 58025 FZRANO=
202312092029 SPECI KPWT 092029Z AUTO 29004KT 3/4SM -SN BR OVC005 00/00 A3022 RMK AO2 CIG 002V009 P0000 FZRANO=
202312092013 SPECI KPWT 092013Z AUTO 00000KT 1/2SM SN FG OVC003 00/00 A3022 RMK AO2 CIG 002V007 PRESFR P0000 FZRANO=
202312091956 METAR KPWT 091956Z AUTO 29004KT 1SM -SN BR OVC003 00/00 A3025 RMK AO2 RAE05UPB05E27SNB27 SLP251 P0010 T00000000 FZRANO=
202312091953 SPECI KPWT 091953Z AUTO 29004KT 1SM -SN BR OVC003 01/01 A3025 RMK AO2 RAE05UPB05E27SNB27 P0010 FZRANO=
202312091941 SPECI KPWT 091941Z AUTO 28004KT 1 1/2SM -SN BR BKN003 OVC007 01/01 A3025 RMK AO2 RAE05UPB05E27SNB27 CIG 002V005 P0009 FZRANO=
202312091936 SPECI KPWT 091936Z AUTO 27003KT 2 1/2SM -SN BR OVC005 01/01 A3025 RMK AO2 VIS 1V5 RAE05UPB05E27SNB27 CIG 002V009 P0009 FZRANO=
202312091856 METAR KPWT 091856Z AUTO 23011KT 8SM RA BKN007 OVC011 02/02 A3027 RMK AO2 CIG 005V010 SLP259 P0011 T00170017 FZRANO=
202312091843 SPECI KPWT 091843Z AUTO 22011KT 9SM RA BKN009 OVC014 02/02 A3027 RMK AO2 CIG 007V013 P0008 FZRANO=
202312091831 SPECI KPWT 091831Z AUTO 22009KT 9SM RA BKN014 OVC019 03/03 A3027 RMK AO2 P0005=
202312091756 METAR KPWT 091756Z AUTO 24008KT 10SM -RA BKN023 BKN028 03/03 A3028 RMK AO2 RAB18 SLP261 P0000 60000 T00280028 10028 20011 55004=
202312091656 METAR KPWT 091656Z AUTO 23005KT 10SM CLR 02/02 A3027 RMK AO2 SLP258 T00220022 FZRANO=
202312091556 METAR KPWT 091556Z AUTO 00000KT 10SM CLR 02/02 A3026 RMK AO2 SLP256 T00170017 FZRANO=
202312091456 METAR KPWT 091456Z AUTO 00000KT 8SM CLR 01/01 A3029 RMK AO2 SLP266 T00110011 58013 FZRANO=
202312091356 METAR KPWT 091356Z AUTO 00000KT 3SM BR SCT110 02/02 A3032 RMK AO2 SLP274 T00170017 FZRANO=
202312091344 SPECI KPWT 091344Z AUTO 00000KT 3SM BR BKN110 02/02 A3032 RMK AO2 FZRANO=
202312091336 SPECI KPWT 091336Z AUTO 00000KT 1 3/4SM BR OVC110 02/02 A3032 RMK AO2 VIS 3/4V5 FZRANO=
202312091256 METAR KPWT 091256Z AUTO 00000KT 7SM OVC110 02/02 A3033 RMK AO2 SLP278 T00170017 FZRANO=
202312091156 METAR KPWT 091156Z AUTO 00000KT 4SM BR FEW120 02/02 A3035 RMK AO2 SLP283 T00170017 10022 20006 57019 FZRANO=
202312091119 SPECI KPWT 091119Z AUTO 00000KT 3SM BR CLR 01/01 A3036 RMK AO2 FZRANO=
202312091103 SPECI KPWT 091103Z AUTO 00000KT 1 1/4SM BR CLR 01/01 A3037 RMK AO2 VIS 1/2V4 FZRANO=
202312091056 METAR KPWT 091056Z AUTO 00000KT 3/4SM BR CLR 01/01 A3037 RMK AO2 SLP291 T00110011 FZRANO=
202312091049 SPECI KPWT 091049Z AUTO 00000KT 3/4SM BR CLR 01/01 A3037 RMK AO2 FZRANO=
202312091040 SPECI KPWT 091040Z AUTO 00000KT 1 1/2SM BR CLR 01/01 A3038 RMK AO2 FZRANO=
202312091031 SPECI KPWT 091031Z AUTO 00000KT 3SM BR CLR 01/01 A3038 RMK AO2 FZRANO=
202312091026 SPECI KPWT 091026Z AUTO 14003KT 1 1/4SM BR CLR 01/01 A3038 RMK AO2 VIS 1/2V5 FZRANO=
202312091023 SPECI KPWT 091023Z AUTO 00000KT 3/4SM BR CLR 01/01 A3038 RMK AO2 VIS 1/2V2 FZRANO=
202312091017 SPECI KPWT 091017Z AUTO 00000KT 1 1/2SM BR CLR 01/01 A3038 RMK AO2 FZRANO=
202312091011 SPECI KPWT 091011Z AUTO 00000KT 3SM BR CLR 01/01 A3038 RMK AO2 FZRANO=
202312091003 SPECI KPWT 091003Z AUTO 00000KT 1 1/4SM BR CLR 01/01 A3038 RMK AO2 VIS 3/4V2 FZRANO=
202312090956 METAR KPWT 090956Z AUTO 00000KT 2SM BR CLR 01/01 A3038 RMK AO2 VIS 1 1/4V5 SLP296 T00060006 FZRANO=
202312090944 SPECI KPWT 090944Z AUTO 00000KT 1 1/4SM BR CLR 01/01 A3039 RMK AO2 VIS 1/2V4 FZRANO=
202312090934 SPECI KPWT 090934Z AUTO 00000KT 1SM BR CLR 01/01 A3039 RMK AO2 FZRANO=
202312090927 SPECI KPWT 090927Z AUTO 00000KT 1/2SM FG CLR 01/01 A3039 RMK AO2 FZRANO=
202312090910 SPECI KPWT 090910Z AUTO 00000KT 3/4SM BR CLR 01/01 A3040 RMK AO2 FZRANO=
202312090901 SPECI KPWT 090901Z AUTO 00000KT 1 3/4SM BR CLR 01/01 A3040 RMK AO2 FZRANO=
202312090856 METAR KPWT 090856Z AUTO 00000KT 5SM BR CLR 01/01 A3040 RMK AO2 SLP303 T00060006 58012 FZRANO=
202312090756 METAR KPWT 090756Z AUTO 00000KT 10SM CLR 02/02 A3043 RMK AO2 SLP310 T00170017 400611006 FZRANO=
202312090740 SPECI KPWT 090740Z AUTO 00000KT 10SM FEW018 SCT028 02/02 A3043 RMK AO2 FZRANO=
202312090656 METAR KPWT 090656Z AUTO 00000KT 10SM BKN019 OVC024 02/02 A3044 RMK AO2 SLP315 T00220022 FZRANO=
202312090556 METAR KPWT 090556Z AUTO 00000KT 10SM OVC017 02/02 A3044 RMK AO2 SLP315 T00170017 10039 21006 55001 FZRANO=
202312090456 METAR KPWT 090456Z AUTO 00000KT 8SM SCT015 BKN020 00/00 A3043 RMK AO2 SLP314 T00000000 FZRANO=
202312090412 SPECI KPWT 090412Z AUTO 00000KT 10SM SCT022 00/00 A3044 RMK AO2 FZRANO=
202312090356 METAR KPWT 090356Z AUTO 00000KT 9SM BKN022 01/01 A3044 RMK AO2 SLP316 T00060006 FZRANO=
202312090352 SPECI KPWT 090352Z AUTO 00000KT 10SM BKN022 01/01 A3044 RMK AO2 FZRANO=
202312090305 SPECI KPWT 090305Z AUTO 12003KT 3SM BR FEW027 SCT033 00/00 A3044 RMK AO2 FZRANO=
202312090302 SPECI KPWT 090302Z AUTO 12004KT 1 1/4SM BR FEW027 00/00 A3044 RMK AO2 FZRANO=
202312090256 METAR KPWT 090256Z AUTO 00000KT 3/4SM BR FEW025 00/00 A3044 RMK AO2 SLP316 T00000000 53002 FZRANO=
202312090250 SPECI KPWT 090250Z AUTO 00000KT 1SM BR FEW025 00/00 A3044 RMK AO2 FZRANO=
202312090238 SPECI KPWT 090238Z AUTO 00000KT 1/2SM FG CLR 00/00 A3044 RMK AO2 FZRANO=
202312090229 SPECI KPWT 090229Z AUTO 00000KT 3/4SM BR CLR 00/00 A3044 RMK AO2 VIS 1/2V3 FZRANO=
202312090226 SPECI KPWT 090226Z AUTO 00000KT 1 1/2SM BR CLR 00/00 A3044 RMK AO2 VIS 1/2V5 FZRANO=
202312090156 METAR KPWT 090156Z AUTO 00000KT 10SM CLR 00/00 A3044 RMK AO2 SLP316 T00000000 FZRANO=
202312090125 SPECI KPWT 090125Z AUTO 00000KT 4SM BR CLR 00/00 A3044 RMK AO2 FZRANO=
202312090122 SPECI KPWT 090122Z AUTO 00000KT 1 1/2SM BR CLR 01/01 A3044 RMK AO2 FZRANO=
202312090113 SPECI KPWT 090113Z AUTO 00000KT 3/4SM BR CLR 01/01 A3044 RMK AO2 VIS 1/2V5 FZRANO=
202312090106 SPECI KPWT 090106Z AUTO 00000KT 1 3/4SM BR CLR 01/01 A3043 RMK AO2 VIS 3/4V5 FZRANO=
202312090056 METAR KPWT 090056Z AUTO 13003KT 10SM CLR 02/02 A3043 RMK AO2 SLP313 T00170017 FZRANO=
202312082356 METAR KPWT 082356Z AUTO 00000KT 10SM SCT011 04/04 A3043 RMK AO2 SLP313 T00390039 10061 20039 53020=
202312082340 SPECI KPWT 082340Z AUTO 21004KT 10SM BKN011 04/04 A3043 RMK AO2=
202312082256 METAR KPWT 082256Z AUTO 00000KT 8SM CLR 06/03 A3040 RMK AO2 SLP301 T00560033=
202312082235 SPECI KPWT 082235Z AUTO 00000KT 10SM SCT014 06/04 A3039 RMK AO2=
202312082156 METAR KPWT 082156Z AUTO VRB03KT 10SM OVC012 06/04 A3038 RMK AO2 SLP294 T00610039=
202312082056 METAR KPWT 082056Z AUTO 18003KT 10SM OVC010 05/04 A3037 RMK AO2 SLP293 T00500039 51003=
202312082016 SPECI KPWT 082016Z AUTO 00000KT 10SM OVC010 05/04 A3037 RMK AO2=
202312082008 SPECI KPWT 082008Z AUTO 21004KT 10SM OVC008 05/04 A3037 RMK AO2 CIG 008V012=
202312081956 METAR KPWT 081956Z AUTO 00000KT 10SM BKN010 05/04 A3037 RMK AO2 CIG 008V014 SLP292 T00500039=
202312081928 SPECI KPWT 081928Z AUTO VRB03KT 10SM BKN010 05/04 A3037 RMK AO2 CIG 006V011=
202312081913 SPECI KPWT 081913Z AUTO 00000KT 10SM OVC008 04/04 A3037 RMK AO2 CIG 006V011=
202312081856 METAR KPWT 081856Z AUTO 00000KT 10SM OVC010 04/04 A3036 RMK AO2 CIG 007V012 SLP288 T00440044=
202312081756 METAR KPWT 081756Z AUTO 00000KT 10SM FEW006 OVC012 04/04 A3035 RMK AO2 SLP282 60000 T00390039 10039 20017 53034=
202312081739 SPECI KPWT 081739Z AUTO 36003KT 10SM FEW006 OVC012 04/04 A3034 RMK AO2=
202312081656 METAR KPWT 081656Z AUTO 19003KT 10SM OVC012 03/03 A3031 RMK AO2 SLP271 T00330033=
202312081556 METAR KPWT 081556Z AUTO 00000KT 10SM OVC012 03/03 A3027 RMK AO2 SLP259 T00280028=
202312081456 METAR KPWT 081456Z AUTO 00000KT 10SM OVC014 02/02 A3024 RMK AO2 UPE11 SLP249 P0000 60000 T00220022 51021 FZRANO=
202312081433 SPECI KPWT 081433Z AUTO 00000KT 10SM BKN018 BKN110 02/02 A3024 RMK AO2 UPE11 P0000 FZRANO=
202312081420 SPECI KPWT 081420Z AUTO 00000KT 10SM FEW021 BKN110 02/02 A3023 RMK AO2 UPE11 P0000 FZRANO=
202312081406 SPECI KPWT 081406Z AUTO 00000KT 10SM UP SCT014 BKN021 02/02 A3023 RMK AO2 P0000 FZRANO=
202312081356 METAR KPWT 081356Z AUTO 00000KT 10SM UP BKN014 02/02 A3023 RMK AO2 RAB41E53UPB53 SLP242 P0000 T00220022 FZRANO=
202312081335 SPECI KPWT 081335Z AUTO 00000KT 10SM SCT005 BKN014 02/02 A3022 RMK AO2 FZRANO=
202312081317 SPECI KPWT 081317Z AUTO 00000KT 10SM SCT005 02/02 A3021 RMK AO2 FZRANO=
202312081256 METAR KPWT 081256Z AUTO 00000KT 10SM CLR 02/02 A3020 RMK AO2 RAE24 SLP235 P0000 T00170017 FZRANO=
202312081156 METAR KPWT 081156Z AUTO 00000KT 10SM -RA FEW043 SCT050 02/02 A3018 RMK AO2 RAB49 SLP228 P0000 60000 70040 T00170017 10039 20000 53021 FZRANO=
202312081056 METAR KPWT 081056Z AUTO 00000KT 10SM FEW120 01/01 A3016 RMK AO2 SLP220 T00060006 FZRANO=
202312080956 METAR KPWT 080956Z AUTO 00000KT 6SM BR CLR 01/01 A3014 RMK AO2 SLP212 T00060006 FZRANO=
202312080856 METAR KPWT 080856Z AUTO 00000KT 10SM FEW120 02/02 A3012 RMK AO2 SLP208 T00170017 51015 FZRANO=
202312080820 SPECI KPWT 080820Z AUTO 00000KT 3SM BR CLR 01/01 A3011 RMK AO2 FZRANO=
202312080814 SPECI KPWT 080814Z AUTO 00000KT 1 1/2SM BR CLR 01/01 A3010 RMK AO2 FZRANO=
202312080804 SPECI KPWT 080804Z AUTO 00000KT 2SM BR CLR 01/01 A3010 RMK AO2 VIS 1V5 FZRANO=
202312080756 METAR KPWT 080756Z AUTO 19003KT 4SM BR CLR 02/02 A3010 RMK AO2 SLP201 T00170017 400720011 FZRANO=
202312080741 SPECI KPWT 080741Z AUTO 13003KT 2 1/2SM BR CLR 02/02 A3009 RMK AO2 FZRANO=
202312080731 SPECI KPWT 080731Z AUTO 00000KT 3SM BR CLR 02/02 A3009 RMK AO2 FZRANO=
202312080728 SPECI KPWT 080728Z AUTO 00000KT 1 1/4SM BR CLR 02/02 A3009 RMK AO2 FZRANO=
202312080721 SPECI KPWT 080721Z AUTO 00000KT 3/4SM BR CLR 02/02 A3009 RMK AO2 FZRANO=
202312080719 SPECI KPWT 080719Z AUTO 00000KT 1 1/2SM BR CLR 02/02 A3009 RMK AO2 FZRANO=
202312080656 METAR KPWT 080656Z AUTO 09003KT 10SM FEW015 03/03 A3008 RMK AO2 SLP191 T00330033=
202312080637 SPECI KPWT 080637Z AUTO 23003KT 10SM FEW003 SCT013 04/04 A3007 RMK AO2=
202312080556 METAR KPWT 080556Z AUTO 13004KT 10SM FEW100 03/03 A3004 RMK AO2 SLP182 60001 T00330033 10050 20033 51011=
202312080513 SPECI KPWT 080513Z AUTO 20003KT 10SM SCT015 SCT110 04/04 A3005 RMK AO2=
202312080456 METAR KPWT 080456Z AUTO 00000KT 10SM BKN015 BKN110 04/04 A3004 RMK AO2 SLP180 T00390039=
202312080451 SPECI KPWT 080451Z AUTO 00000KT 10SM SCT015 OVC110 04/04 A3004 RMK AO2=
202312080356 METAR KPWT 080356Z AUTO 00000KT 10SM OVC017 04/04 A3001 RMK AO2 SLP169 T00390039=
202312080325 SPECI KPWT 080325Z AUTO 24003KT 10SM BKN017 04/04 A3000 RMK AO2=
202312080256 METAR KPWT 080256Z AUTO 12003KT 10SM SCT120 03/03 A2998 RMK AO2 SLP159 P0001 60001 T00330033 51012=
202312080156 METAR KPWT 080156Z AUTO 00000KT 10SM CLR 04/04 A2997 RMK AO2 SLP156 T00390039=
202312080056 METAR KPWT 080056Z AUTO 11003KT 10SM SCT120 04/04 A2997 RMK AO2 SLP154 T00440044=
202312072356 METAR KPWT 072356Z AUTO 10004KT 10SM FEW120 05/05 A2995 RMK AO2 SLP147 60005 T00500050 10072 20050 53031=
202312072325 SPECI KPWT 072325Z AUTO 12004KT 10SM SCT019 06/06 A2994 RMK AO2=
202312072256 METAR KPWT 072256Z AUTO 13005KT 10SM BKN019 OVC110 06/06 A2992 RMK AO2 RAE10 SLP138 P0000 T00610061=
202312072237 SPECI KPWT 072237Z AUTO 12005KT 10SM BKN019 06/06 A2990 RMK AO2 RAE10 P0000=
202312072156 METAR KPWT 072156Z AUTO 09005KT 10SM -RA FEW018 SCT042 06/06 A2988 RMK AO2 SLP122 P0001 T00610061=
202312072119 SPECI KPWT 072119Z AUTO 03004KT 10SM -RA SCT008 OVC020 07/07 A2987 RMK AO2 P0001=
202312072056 METAR KPWT 072056Z AUTO 00000KT 10SM -RA SCT008 BKN013 OVC020 07/07 A2985 RMK AO2 RAB47 SLP115 P0000 60004 T00720067 51012=
202312072052 SPECI KPWT 072052Z AUTO 00000KT 10SM -RA FEW008 OVC013 07/07 A2985 RMK AO2 RAB47 P0000=
202312072037 SPECI KPWT 072037Z AUTO 23003KT 10SM FEW007 BKN017 OVC023 07/07 A2985 RMK AO2=
202312072029 SPECI KPWT 072029Z AUTO 22004KT 10SM FEW007 OVC014 07/07 A2984 RMK AO2=
202312071956 METAR KPWT 071956Z AUTO 23006KT 10SM OVC009 07/07 A2983 RMK AO2 CIG 004V014 SLP105 T00670067=
202312071939 SPECI KPWT 071939Z AUTO 23009KT 10SM OVC006 07/07 A2982 RMK AO2 CIG 004V010=
202312071856 METAR KPWT 071856Z AUTO 24009KT 10SM OVC004 07/07 A2982 RMK AO2 RAE33 SLP102 P0004 T00670067=
202312071842 SPECI KPWT 071842Z AUTO 21007KT 10SM OVC004 07/07 A2982 RMK AO2 RAE33 CIG 003V009 P0004=
202312071829 SPECI KPWT 071829Z AUTO 21003KT 3SM -RA BR OVC006 06/06 A2982 RMK AO2 CIG 003V010 P0004=
202312071814 SPECI KPWT 071814Z AUTO 00000KT 1 1/2SM -RA BR BKN008 OVC015 06/06 A2981 RMK AO2 VIS 1 1/4V2 1/2 CIG 004V012 P0003=
202312071806 SPECI KPWT 071806Z AUTO 00000KT 1 1/2SM RA BR FEW004 BKN010 OVC015 06/06 A2981 RMK AO2 CIG 007V012 P0002=
202312071756 METAR KPWT 071756Z AUTO 00000KT 1 1/2SM -RA BR OVC010 06/06 A2981 RMK AO2 RAE15B38 CIG 007V013 SLP100 P0003 60034 T00560056 10072 20050 53013=
202312071749 SPECI KPWT 071749Z AUTO 00000KT 1 3/4SM RA BR BKN010 OVC015 06/06 A2981 RMK AO2 VIS 1V3 RAE15B38 CIG 007V011 P0002=
202312071743 SPECI KPWT 071743Z AUTO 00000KT 4SM -RA BR BKN008 OVC015 06/06 A2981 RMK AO2 RAE15B38 CIG 007V012 P0001=
202312071717 SPECI KPWT 071717Z AUTO 00000KT 10SM SCT020 BKN026 OVC032 05/05 A2980 RMK AO2 RAE15 P0001=
202312071656 METAR KPWT 071656Z AUTO 23003KT 10SM -RA BKN033 BKN048 05/05 A2979 RMK AO2 SLP095 P0005 T00500050=
202312071556 METAR KPWT 071556Z AUTO 19010G16KT 10SM RA OVC034 06/05 A2978 RMK AO2 SLP088 P0013 T00560050=
202312071539 SPECI KPWT 071539Z AUTO 18007KT 10SM RA OVC032 06/05 A2978 RMK AO2 P0010=
202312071514 SPECI KPWT 071514Z AUTO 19009KT 10SM RA BKN028 OVC034 06/05 A2977 RMK AO2 P0005=
202312071503 SPECI KPWT 071503Z AUTO 19009KT 10SM RA FEW007 BKN030 OVC037 06/06 A2977 RMK AO2 P0002=
202312071456 METAR KPWT 071456Z AUTO 20006KT 10SM RA SCT007 BKN028 OVC035 06/06 A2977 RMK AO2 SLP088 P0009 60013 T00610061 53006=
202312071356 METAR KPWT 071356Z AUTO 19009KT 10SM -RA OVC007 07/07 A2975 RMK AO2 CIG 005V012 SLP079 P0002 T00720072=
202312071323 SPECI KPWT 071323Z AUTO 17008KT 130V200 9SM -RA OVC007 07/07 A2974 RMK AO2 CIG 005V009 P0001=
202312071256 METAR KPWT 071256Z AUTO 18006KT 10SM -RA OVC005 07/07 A2975 RMK AO2 CIG 004V011 SLP078 P0002 T00720072=
202312071222 SPECI KPWT 071222Z AUTO 22004KT 10SM -RA OVC005 07/07 A2975 RMK AO2 CIG 003V008 P0001=
202312071156 METAR KPWT 071156Z AUTO 19003KT 10SM -RA BKN003 OVC022 07/07 A2976 RMK AO2 RAE19B37 SLP082 P0001 60018 70058 T00670067 10072 20061 57000=
202312071147 SPECI KPWT 071147Z AUTO 24003KT 10SM -RA BKN005 BKN017 OVC024 07/07 A2975 RMK AO2 RAE19B37 P0001=
202312071120 SPECI KPWT 071120Z AUTO 21004KT 10SM FEW007 BKN027 BKN033 06/06 A2975 RMK AO2 RAE19 P0001=
202312071056 METAR KPWT 071056Z AUTO 21006KT 10SM -RA FEW009 SCT023 BKN040 06/06 A2976 RMK AO2 SLP082 P0003 T00610061=
202312071051 SPECI KPWT 071051Z AUTO 21007KT 10SM -RA FEW023 SCT029 BKN040 06/06 A2976 RMK AO2 P0003=
202312071020 SPECI KPWT 071020Z AUTO 21008KT 10SM -RA FEW008 SCT013 OVC027 07/07 A2975 RMK AO2 P0001=
202312070956 METAR KPWT 070956Z AUTO 22005KT 10SM -RA FEW004 BKN012 OVC034 07/07 A2975 RMK AO2 SLP078 P0013 T00670067=
202312070945 SPECI KPWT 070945Z AUTO 23005KT 10SM -RA SCT004 BKN010 OVC034 07/07 A2974 RMK AO2 P0012=
202312070910 SPECI KPWT 070910Z AUTO 20004KT 8SM RA OVC004 07/07 A2974 RMK AO2 CIG 003V007 P0001=
202312070856 METAR KPWT 070856Z AUTO 19003KT 10SM -RA OVC006 07/07 A2974 RMK AO2 RAB53 CIG 004V010 SLP074 P0000 60001 T00720072 58003=
202312070756 METAR KPWT 070756Z AUTO 00000KT 10SM OVC006 07/07 A2974 RMK AO2 CIG 005V009 SLP076 T00720072 400940072=
202312070656 METAR KPWT 070656Z AUTO 00000KT 10SM OVC008 07/07 A2975 RMK AO2 RAE33 CIG 004V011 SLP078 P0001 T00720072=
202312070654 SPECI KPWT 070654Z AUTO 11003KT 10SM OVC008 07/07 A2975 RMK AO2 RAE33 CIG 004V011 P0001=
202312070626 SPECI KPWT 070626Z AUTO 12003KT 10SM -RA SCT005 OVC010 07/07 A2974 RMK AO2 P0001=
202312070556 METAR KPWT 070556Z AUTO 08003KT 10SM -RA OVC005 07/07 A2974 RMK AO2 RAE10B36 CIG 003V007 SLP075 P0000 60027 T00720072 10089 20072 53004=
202312070547 SPECI KPWT 070547Z AUTO 07004KT 10SM -RA BKN005 OVC009 07/07 A2974 RMK AO2 RAE10B36 CIG 003V007 P0000=
202312070456 METAR KPWT 070456Z AUTO 08006KT 10SM -RA OVC007 07/07 A2973 RMK AO2 CIG 005V009 SLP072 P0006 T00720072=
202312070454 SPECI KPWT 070454Z AUTO 08004KT 9SM -RA OVC007 08/08 A2973 RMK AO2 CIG 005V008 P0006=
202312070414 SPECI KPWT 070414Z AUTO 11005KT 6SM RA BR BKN005 OVC009 08/08 A2972 RMK AO2 CIG 002V008 P0003=
202312070356 METAR KPWT 070356Z AUTO 00000KT 5SM -RA BR SCT003 OVC011 08/08 A2972 RMK AO2 CIG 009V015 SLP070 P0002 T00780078=
202312070318 SPECI KPWT 070318Z AUTO 06004KT 7SM -RA BKN013 BKN020 OVC027 08/08 A2972 RMK AO2 P0000=
202312070256 METAR KPWT 070256Z AUTO 00000KT 9SM -RA FEW003 BKN021 OVC029 08/08 A2972 RMK AO2 SLP067 P0002 60019 T00830083 51002=
202312070231 SPECI KPWT 070231Z AUTO 00000KT 10SM -RA FEW003 BKN018 08/08 A2972 RMK AO2 P0001=
202312070156 METAR KPWT 070156Z AUTO 06003KT 8SM -RA CLR 08/08 A2971 RMK AO2 SLP066 P0009 T00780078=
202312070142 SPECI KPWT 070142Z AUTO 00000KT 6SM -RA BR SCT020 08/08 A2972 RMK AO2 P0008=
202312070106 SPECI KPWT 070106Z AUTO 00000KT 5SM -RA BR SCT022 BKN028 08/08 A2972 RMK AO2 P0002=
202312070056 METAR KPWT 070056Z AUTO 07004KT 5SM RA BR SCT027 08/08 A2972 RMK AO2 SLP068 P0008 T00830083=
202312062356 METAR KPWT 062356Z AUTO 36003KT 5SM -RA BR FEW009 SCT015 SCT037 09/09 A2971 RMK AO2 SLP066 P0005 60011 T00890089 10094 20083 56005=
202312062351 SPECI KPWT 062351Z AUTO 00000KT 4SM -RA BR SCT012 BKN025 BKN037 09/09 A2971 RMK AO2 P0004=
202312062336 SPECI KPWT 062336Z AUTO 00000KT 5SM -RA BR BKN012 OVC018 09/09 A2971 RMK AO2 P0003=
202312062319 SPECI KPWT 062319Z AUTO 00000KT 4SM -RA BR FEW009 BKN016 BKN023 09/09 A2971 RMK AO2 P0003=
202312062312 SPECI KPWT 062312Z AUTO 00000KT 2 1/2SM -RA BR FEW009 SCT016 BKN025 09/09 A2971 RMK AO2 VIS 2V5 P0002=
202312062305 SPECI KPWT 062305Z AUTO 06003KT 2SM -RA BR SCT009 BKN014 BKN022 09/09 A2971 RMK AO2 P0002=
202312062256 METAR KPWT 062256Z AUTO 00000KT 1 3/4SM -RA BR FEW003 SCT009 09/09 A2972 RMK AO2 SLP067 P0005 T00890089=
202312062225 SPECI KPWT 062225Z AUTO 00000KT 1 1/2SM -RA BR FEW003 SCT008 OVC014 09/09 A2971 RMK AO2 P0002=
202312062217 SPECI KPWT 062217Z AUTO 00000KT 2SM -RA BR FEW008 BKN014 OVC018 09/09 A2971 RMK AO2 P0002=
202312062202 SPECI KPWT 062202Z AUTO 06003KT 2 1/2SM -RA BR SCT006 SCT011 OVC018 09/09 A2971 RMK AO2 VIS 1 1/2V4 P0001=
202312062156 METAR KPWT 062156Z AUTO 06003KT 3SM RA BR SCT006 BKN011 OVC033 09/09 A2971 RMK AO2 RAE06B46 SLP065 P0001 T00890089=
202312062143 SPECI KPWT 062143Z AUTO 06003KT 10SM BKN006 BKN011 BKN033 09/09 A2971 RMK AO2 RAE06 CIG 004V007 P0000=
202312062119 SPECI KPWT 062119Z AUTO 00000KT 10SM SCT004 SCT037 SCT046 09/09 A2971 RMK AO2 RAE06 P0000=
202312062056 METAR KPWT 062056Z AUTO 00000KT 9SM -RA BKN004 BKN038 09/09 A2973 RMK AO2 RAB47 CIG 003V008 SLP070 P0000 60000 T00890089 58027=
202312061956 METAR KPWT 061956Z AUTO 00000KT 10SM OVC004 09/09 A2975 RMK AO2 SLP080 T00890089=
202312061903 SPECI KPWT 061903Z AUTO 03003KT 3SM BR BKN004 OVC012 09/09 A2979 RMK AO2 CIG 003V010=
202312061856 METAR KPWT 061856Z AUTO 03004KT 4SM BR BKN006 OVC012 08/08 A2979 RMK AO2 RAE12 CIG 003V010 SLP092 P0000 T00830083=
202312061832 SPECI KPWT 061832Z AUTO 04004KT 3SM BR FEW004 SCT008 OVC014 08/08 A2980 RMK AO2 RAE12 P0000=
202312061807 SPECI KPWT 061807Z AUTO 08003KT 3SM -RA BR BKN007 OVC011 08/08 A2981 RMK AO2 CIG 003V008 P0000=
202312061758 SPECI KPWT 061758Z AUTO 07004KT 1 3/4SM -RA BR OVC007 08/08 A2981 RMK AO2 CIG 003V008 P0000=
202312061756 METAR KPWT 061756Z AUTO 07004KT 2SM -RA BR OVC005 08/08 A2981 RMK AO2 CIG 003V008 SLP098 P0001 60002 T00830083 10089 20083 58009=
202312061740 SPECI KPWT 061740Z AUTO 05003KT 2 1/2SM -RA BR OVC005 08/08 A2982 RMK AO2 CIG 003V008 P0000=
202312061727 SPECI KPWT 061727Z AUTO 04003KT 1 3/4SM -RA BR OVC003 08/08 A2982 RMK AO2 P0000=
202312061720 SPECI KPWT 061720Z AUTO 04003KT 4SM -RA BR BKN003 OVC008 08/08 A2982 RMK AO2 CIG 002V006 P0000=
202312061713 SPECI KPWT 061713Z AUTO 05004KT 2 1/2SM -RA BR BKN003 OVC008 08/08 A2983 RMK AO2 VIS 1 3/4V5 CIG 002V006 P0000=
202312061703 SPECI KPWT 061703Z AUTO 00000KT 1 3/4SM -RA BR OVC005 08/08 A2982 RMK AO2 VIS 1 1/4V2 1/2 CIG 002V008 P0000=
202312061656 METAR KPWT 061656Z AUTO 06004KT 1 1/2SM -RA BR OVC003 08/08 A2982 RMK AO2 CIG 002V007 SLP102 P0000 T00830083=
202312061630 SPECI KPWT 061630Z AUTO 34003KT 1 3/4SM -RA BR OVC003 08/08 A2983 RMK AO2 CIG 002V007 P0000=
202312061620 SPECI KPWT 061620Z AUTO 00000KT 3SM BR OVC003 08/08 A2983 RMK AO2 RAE18 CIG 002V007 P0000=
202312061604 SPECI KPWT 061604Z AUTO 07003KT 2SM -RA BR OVC003 08/08 A2983 RMK AO2 CIG 002V007 P0000=
202312061601 SPECI KPWT 061601Z AUTO 09003KT 1SM -RA BR OVC003 08/08 A2983 RMK AO2 CIG 002V007 P0000=
202312061556 METAR KPWT 061556Z AUTO 06003KT 1/2SM -RA FG OVC003 08/08 A2983 RMK AO2 RAB23 SLP107 P0001 T00830083=
202312061545 SPECI KPWT 061545Z AUTO 00000KT 1/4SM -RA FG OVC003 08/08 A2984 RMK AO2 RAB23 CIG 002V008 P0000=
202312061524 SPECI KPWT 061524Z AUTO 00000KT 3/4SM -RA BR OVC003 08/08 A2984 RMK AO2 RAB23 CIG 002V008 P0000=
202312061519 SPECI KPWT 061519Z AUTO 00000KT 1 1/2SM BR OVC003 08/08 A2984 RMK AO2 CIG 002V006=
202312061500 SPECI KPWT 061500Z AUTO 00000KT 3SM BR OVC003 08/08 A2984 RMK AO2=
202312061456 METAR KPWT 061456Z AUTO 00000KT 1 3/4SM BR OVC003 08/08 A2983 RMK AO2 SLP107 60000 T00830083 58013=
202312061434 SPECI KPWT 061434Z AUTO 00000KT 1 3/4SM BR OVC003 08/08 A2985 RMK AO2=
202312061356 METAR KPWT 061356Z AUTO 00000KT 9SM OVC003 08/08 A2986 RMK AO2 SLP116 T00830083=
202312061256 METAR KPWT 061256Z AUTO 19003KT 10SM OVC003 08/08 A2988 RMK AO2 RAB06E16 SLP121 P0000 T00830083=
202312061243 SPECI KPWT 061243Z AUTO 19004KT 3SM BR OVC003 08/08 A2988 RMK AO2 RAB06E16 P0000=
202312061234 SPECI KPWT 061234Z AUTO VRB03KT 1 3/4SM BR OVC003 08/08 A2987 RMK AO2 RAB06E16 P0000=
202312061225 SPECI KPWT 061225Z AUTO 18003KT 3SM BR OVC003 08/08 A2988 RMK AO2 RAB06E16 P0000=
202312061205 SPECI KPWT 061205Z AUTO 16003KT 1 1/2SM BR OVC003 08/08 A2987 RMK AO2=
202312061156 METAR KPWT 061156Z AUTO 00000KT 2 1/2SM BR OVC001 08/08 A2987 RMK AO2 SLP121 60001 70091 T00830083 10083 20072 58008=
202312061140 SPECI KPWT 061140Z AUTO 00000KT 6SM BR BKN001 BKN013 08/08 A2987 RMK AO2=
202312061116 SPECI KPWT 061116Z AUTO 12003KT 4SM BR FEW001 BKN013 08/08 A2988 RMK AO2=
202312061112 SPECI KPWT 061112Z AUTO 13003KT 1 1/4SM BR FEW001 BKN013 08/08 A2988 RMK AO2=
202312061101 SPECI KPWT 061101Z AUTO 00000KT 3/4SM BR SCT001 BKN011 08/08 A2989 RMK AO2=
202312061056 METAR KPWT 061056Z AUTO 00000KT 1SM BR FEW001 SCT011 08/08 A2989 RMK AO2 RAE11 SLP126 P0000 T00780078=
202312061049 SPECI KPWT 061049Z AUTO 00000KT 1 1/2SM BR FEW001 SCT011 08/08 A2990 RMK AO2 RAE11 P0000=
202312061045 SPECI KPWT 061045Z AUTO 16003KT 2 1/2SM BR FEW001 BKN011 BKN100 08/08 A2990 RMK AO2 RAE11 P0000=
202312061029 SPECI KPWT 061029Z AUTO 00000KT 10SM FEW001 SCT011 BKN100 08/08 A2989 RMK AO2 RAE11 P0000=
202312061022 SPECI KPWT 061022Z AUTO 22003KT 2 1/2SM BR SCT001 BKN100 08/08 A2991 RMK AO2 RAE11 P0000=
202312061018 SPECI KPWT 061018Z AUTO 20004KT 1SM BR SCT001 BKN110 08/08 A2991 RMK AO2 RAE11 P0000=
202312061012 SPECI KPWT 061012Z AUTO 00000KT 3/4SM BR BKN002 08/08 A2989 RMK AO2 RAE11 P0000=
202312061003 SPECI KPWT 061003Z AUTO 00000KT 1SM -RA BR BKN002 08/08 A2989 RMK AO2 P0000=
202312060956 METAR KPWT 060956Z AUTO 20003KT 3/4SM -RA BR BKN002 08/08 A2990 RMK AO2 RAB39 SLP129 P0000 T00830083=
202312060948 SPECI KPWT 060948Z AUTO 22004KT 3/4SM -RA BR SCT002 BKN065 08/08 A2990 RMK AO2 RAB39 P0000=
202312060943 SPECI KPWT 060943Z AUTO 23003KT 1 3/4SM -RA BR SCT002 BKN065 08/08 A2990 RMK AO2 RAB39 P0000=
202312060936 SPECI KPWT 060936Z AUTO 00000KT 5SM BR SCT002 BKN065 08/08 A2988 RMK AO2=
202312060856 METAR KPWT 060856Z AUTO 23003KT 7SM SCT065 BKN110 08/08 A2990 RMK AO2 RAE11 SLP131 P0000 60001 T00780078 58008=
202312060834 SPECI KPWT 060834Z AUTO 00000KT 3SM BR OVC110 08/08 A2990 RMK AO2 RAE11 P0000=
202312060821 SPECI KPWT 060821Z AUTO 00000KT 1 3/4SM BR FEW050 BKN110 08/08 A2991 RMK AO2 VIS 1V5 RAE11 P0000=
202312060756 METAR KPWT 060756Z AUTO 00000KT 10SM -RA FEW043 SCT050 08/08 A2992 RMK AO2 RAB31 SLP135 P0001 T00830083 401440083=
202312060656 METAR KPWT 060656Z AUTO 00000KT 10SM BKN050 08/08 A2993 RMK AO2 RAE36 SLP139 P0000 T00830083=
202312060556 METAR KPWT 060556Z AUTO 00000KT 9SM -RA FEW015 08/08 A2993 RMK AO2 SLP140 P0000 60019 T00830083 10094 20083 57006=
202312060456 METAR KPWT 060456Z AUTO 00000KT 8SM -RA FEW037 SCT048 09/09 A2993 RMK AO2 SLP142 P0006 T00890089=
202312060406 SPECI KPWT 060406Z AUTO 00000KT 6SM RA BR FEW007 SCT019 OVC035 09/09 A2994 RMK AO2 P0002=
202312060356 METAR KPWT 060356Z AUTO 00000KT 4SM RA BR FEW007 BKN017 OVC036 09/09 A2994 RMK AO2 SLP144 P0007 T00890089=
202312060326 SPECI KPWT 060326Z AUTO 00000KT 10SM -RA FEW003 BKN019 09/09 A2995 RMK AO2 P0002=
202312060316 SPECI KPWT 060316Z AUTO 00000KT 9SM -RA SCT003 SCT019 09/09 A2994 RMK AO2 P0002=
202312060256 METAR KPWT 060256Z AUTO 00000KT 10SM -RA OVC003 09/09 A2995 RMK AO2 SLP145 P0002 60006 T00890089 56010=
202312060156 METAR KPWT 060156Z AUTO 00000KT 10SM -RA OVC003 09/09 A2996 RMK AO2 RAE11B50 SLP151 P0001 T00890089=
202312060120 SPECI KPWT 060120Z AUTO 00000KT 10SM BKN003 BKN110 09/09 A2996 RMK AO2 RAE11 P0000=
202312060056 METAR KPWT 060056Z AUTO 15005KT 10SM -RA FEW005 09/09 A2996 RMK AO2 SLP149 P0003 T00890089=
202312060020 SPECI KPWT 060020Z AUTO 15004KT 7SM -RA FEW006 SCT009 BKN038 09/09 A2997 RMK AO2 P0002=
202312060007 SPECI KPWT 060007Z AUTO 18003KT 8SM -RA SCT006 BKN009 OVC038 09/09 A2998 RMK AO2 CIG 008V014 P0001=
202312052356 METAR KPWT 052356Z AUTO 20004KT 8SM -RA SCT006 BKN011 BKN038 09/09 A2998 RMK AO2 CIG 008V014 SLP155 P0006 60031 T00940094 10111 20094 53008=
202312052342 SPECI KPWT 052342Z AUTO 21005KT 10SM -RA FEW004 BKN036 09/09 A2997 RMK AO2 P0004=
202312052256 METAR KPWT 052256Z AUTO 00000KT 10SM -RA SCT040 SCT048 09/09 A2995 RMK AO2 SLP148 P0003 T00940094=
202312052156 METAR KPWT 052156Z AUTO 00000KT 10SM -RA FEW034 10/10 A2994 RMK AO2 SLP142 P0004 T01000100=
202312052102 SPECI KPWT 052102Z AUTO 23005KT 10SM -RA SCT004 SCT011 BKN035 11/11 A2995 RMK AO2 P0000=
202312052056 METAR KPWT 052056Z AUTO 26005KT 10SM -RA BKN004 BKN011 BKN035 11/11 A2995 RMK AO2 CIG 003V007 SLP146 P0003 60018 T01060106 51002=
202312052023 SPECI KPWT 052023Z AUTO 25007KT 10SM -RA BKN004 OVC055 11/11 A2996 RMK AO2 PRESRR P0000=
202312051956 METAR KPWT 051956Z AUTO 23004KT 10SM -RA FEW004 SCT045 BKN060 11/11 A2994 RMK AO2 SLP143 P0004 T01060106=
202312051929 SPECI KPWT 051929Z AUTO 22005KT 10SM -RA FEW004 SCT029 BKN037 11/11 A2995 RMK AO2 P0003=
202312051905 SPECI KPWT 051905Z AUTO 26005KT 10SM -RA SCT004 OVC029 11/11 A2995 RMK AO2 P0001=
202312051856 METAR KPWT 051856Z AUTO 24005KT 9SM RA BKN004 OVC029 11/11 A2996 RMK AO2 CIG 003V009 SLP148 P0011 T01060106=
202312051803 SPECI KPWT 051803Z AUTO 23003KT 9SM -RA BKN004 BKN011 OVC044 11/11 A2996 RMK AO2 CIG 003V007 P0001=
202312051756 METAR KPWT 051756Z AUTO 00000KT 10SM -RA FEW004 BKN044 11/11 A2995 RMK AO2 SLP144 P0003 60040 T01110111 10139 20111 51018=
202312051656 METAR KPWT 051656Z AUTO 22006KT 10SM -RA FEW036 11/11 A2993 RMK AO2 SLP139 P0004 T01110111=
202312051556 METAR KPWT 051556Z AUTO 20007KT 10SM -RA SCT034 BKN044 OVC055 11/11 A2991 RMK AO2 SLP132 P0001 T01110111=
202312051516 SPECI KPWT 051516Z AUTO 20008KT 10SM -RA FEW006 BKN044 12/12 A2990 RMK AO2 P0000=
202312051456 METAR KPWT 051456Z AUTO 21008KT 10SM -RA FEW038 SCT047 12/12 A2989 RMK AO2 SLP127 P0007 60032 T01170117 53004=
202312051356 METAR KPWT 051356Z AUTO 20010KT 10SM -RA FEW007 BKN031 OVC040 13/13 A2989 RMK AO2 SLP127 P0010 T01280128=
202312051342 SPECI KPWT 051342Z AUTO 22012KT 10SM -RA SCT006 BKN029 OVC037 13/13 A2988 RMK AO2 P0008=
202312051332 SPECI KPWT 051332Z AUTO 23013G22KT 9SM -RA BKN006 BKN013 BKN038 13/13 A2988 RMK AO2 CIG 003V010 P0008=
202312051256 METAR KPWT 051256Z AUTO 23008KT 9SM -RA OVC004 14/14 A2986 RMK AO2 CIG 003V007 SLP117 P0015 T01390139=
202312051156 METAR KPWT 051156Z AUTO 21011KT 5SM RA BR OVC006 14/14 A2988 RMK AO2 CIG 004V009 SLP123 P0024 60158 70434 T01390139 10144 20139 53006=
202312051056 METAR KPWT 051056Z AUTO 21015G20KT 5SM RA BR OVC006 14/14 A2987 RMK AO2 CIG 004V010 SLP119 P0014 T01390139=
202312051004 SPECI KPWT 051004Z AUTO 21013G18KT 6SM RA BR OVC006 14/14 A2987 RMK AO2 CIG 004V010 P0002=
202312050956 METAR KPWT 050956Z AUTO 21011KT 8SM -RA OVC004 14/14 A2987 RMK AO2 CIG 004V008 SLP118 P0030 T01390139=
202312050856 METAR KPWT 050856Z AUTO 21012KT 6SM RA BR OVC004 14/14 A2986 RMK AO2 SLP116 P0023 60090 T01390139 58002=
202312050756 METAR KPWT 050756Z AUTO 20010KT 7SM RA OVC004 14/14 A2987 RMK AO2 SLP118 P0035 T01390139 401390033=
202312050656 METAR KPWT 050656Z AUTO 20013KT 5SM RA BR OVC004 14/14 A2988 RMK AO2 SLP124 P0032 T01390139=
202312050556 METAR KPWT 050556Z AUTO 21016KT 5SM RA BR OVC004 14/14 A2987 RMK AO2 CIG 003V008 SLP118 P0031 60150 T01390139 10139 20089 55002=
202312050456 METAR KPWT 050456Z AUTO 21016G22KT 6SM RA BR OVC004 14/14 A2985 RMK AO2 CIG 003V008 SLP113 P0025 T01390139=
202312050356 METAR KPWT 050356Z AUTO 21012KT 5SM RA BR OVC004 13/13 A2986 RMK AO2 CIG 003V007 SLP118 P0034 T01330133=
202312050335 SPECI KPWT 050335Z AUTO 21008KT 5SM +RA BR BKN004 BKN010 OVC020 13/13 A2986 RMK AO2 CIG 003V008 P0023=
202312050310 SPECI KPWT 050310Z AUTO 19008KT 5SM RA BR SCT003 BKN011 OVC020 12/12 A2986 RMK AO2 P0008=
202312050256 METAR KPWT 050256Z AUTO 24007KT 4SM +RA BR BKN003 OVC009 12/12 A2987 RMK AO2 CIG 002V006 SLP120 P0028 60060 T01170117 55001=
202312050156 METAR KPWT 050156Z AUTO 21005KT 3SM RA BR OVC003 11/11 A2986 RMK AO2 SLP114 P0018 T01060106=
202312050056 METAR KPWT 050056Z AUTO 22006KT 5SM RA BR OVC003 09/09 A2986 RMK AO2 SLP115 P0014 T00940094=
202312050004 SPECI KPWT 050004Z AUTO 00000KT 7SM -RA OVC003 09/09 A2987 RMK AO2 P0000=
202312042356 METAR KPWT 042356Z AUTO 00000KT 9SM -RA OVC005 09/09 A2988 RMK AO2 CIG 003V006 SLP122 P0011 60072 T00890089 10089 20067 56015=
202312042347 SPECI KPWT 042347Z AUTO 00000KT 10SM -RA BKN005 OVC009 09/09 A2988 RMK AO2 CIG 004V007 P0010=
202312042327 SPECI KPWT 042327Z AUTO 00000KT 3SM RA BR OVC007 09/09 A2988 RMK AO2 CIG 006V010 P0008=
202312042256 METAR KPWT 042256Z AUTO 00000KT 2 1/2SM -RA BR OVC009 09/09 A2989 RMK AO2 CIG 006V012 SLP126 P0014 T00890089=
202312042224 SPECI KPWT 042224Z AUTO 00000KT 2SM RA BR OVC009 09/09 A2990 RMK AO2 CIG 004V011 P0007=
202312042213 SPECI KPWT 042213Z AUTO 00000KT 3SM RA BR SCT005 OVC009 09/09 A2990 RMK AO2 P0004=
202312042156 METAR KPWT 042156Z AUTO 00000KT 4SM RA BR BKN005 OVC009 09/09 A2990 RMK AO2 CIG 003V008 SLP131 P0012 T00890089=
202312042139 SPECI KPWT 042139Z AUTO 00000KT 3SM RA BR BKN005 OVC009 09/09 A2991 RMK AO2 CIG 003V008 P0007=
202312042136 SPECI KPWT 042136Z AUTO 00000KT 2 1/2SM RA BR OVC007 09/09 A2991 RMK AO2 VIS 1 1/2V4 CIG 003V009 P0006=
202312042119 SPECI KPWT 042119Z AUTO 21003KT 10SM -RA BKN007 OVC012 09/09 A2991 RMK AO2 CIG 003V010 P0000=
202312042100 SPECI KPWT 042100Z AUTO 20003KT 3SM -RA BR OVC014 09/09 A2992 RMK AO2 P0000=
202312042056 METAR KPWT 042056Z AUTO 18003KT 2SM -RA BR OVC016 09/09 A2992 RMK AO2 SLP137 P0010 60035 T00890089 58015=
202312041956 METAR KPWT 041956Z AUTO 17005KT 1 1/2SM RA BR OVC018 08/08 A2993 RMK AO2 SLP142 P0011 T00830083=
202312041856 METAR KPWT 041856Z AUTO 00000KT 1 1/2SM -RA BR BKN018 OVC023 07/07 A2995 RMK AO2 SLP149 P0014 T00720072=
202312041756 METAR KPWT 041756Z AUTO 00000KT 2SM RA BR SCT014 OVC023 07/07 A2996 RMK AO2 VIS 1 1/2V3 SLP153 P0015 60054 T00670067 10067 20061 58005=
202312041738 SPECI KPWT 041738Z AUTO 00000KT 2SM RA BR FEW005 SCT010 OVC015 07/07 A2997 RMK AO2 P0011=
202312041724 SPECI KPWT 041724Z AUTO 00000KT 1 3/4SM RA BR FEW005 OVC011 07/07 A2996 RMK AO2 P0006=
202312041717 SPECI KPWT 041717Z AUTO 00000KT 1 3/4SM RA BR BKN011 OVC023 07/07 A2997 RMK AO2 P0004=
202312041707 SPECI KPWT 041707Z AUTO 00000KT 4SM RA BR BKN011 OVC017 07/07 A2997 RMK AO2 P0001=
202312041656 METAR KPWT 041656Z AUTO 00000KT 2SM RA BR BKN013 OVC022 07/07 A2997 RMK AO2 SLP154 P0022 T00670067=
202312041649 SPECI KPWT 041649Z AUTO 00000KT 1 3/4SM RA BR BKN013 OVC020 07/07 A2997 RMK AO2 P0020=
202312041645 SPECI KPWT 041645Z AUTO 00000KT 2SM RA BR BKN015 OVC020 06/06 A2997 RMK AO2 P0019=
202312041637 SPECI KPWT 041637Z AUTO 20003KT 3SM RA BR OVC015 06/06 A2998 RMK AO2 P0015=
202312041556 METAR KPWT 041556Z AUTO 00000KT 2SM RA BR OVC017 07/07 A2998 RMK AO2 SLP157 P0014 T00670067=
202312041553 SPECI KPWT 041553Z AUTO 00000KT 2SM RA BR OVC017 07/07 A2998 RMK AO2 P0013=
202312041515 SPECI KPWT 041515Z AUTO 00000KT 4SM -RA BR BKN019 07/07 A2998 RMK AO2 P0001=
202312041456 METAR KPWT 041456Z AUTO 00000KT 6SM -RA BR FEW023 06/06 A2999 RMK AO2 RAB09 SLP160 P0003 60003 T00610061 58023=
202312041446 SPECI KPWT 041446Z AUTO 00000KT 6SM -RA BR FEW023 06/06 A2999 RMK AO2 RAB09 P0002=
202312041356 METAR KPWT 041356Z AUTO 00000KT 9SM OVC026 06/06 A3001 RMK AO2 SLP169 T00610061=
202312041341 SPECI KPWT 041341Z AUTO 13003KT 8SM OVC028 06/06 A3001 RMK AO2=
202312041256 METAR KPWT 041256Z AUTO 00000KT 8SM BKN035 BKN042 BKN050 07/07 A3003 RMK AO2 RAB43E53 SLP176 P0000 T00670067=
202312041156 METAR KPWT 041156Z AUTO 01003KT 7SM OVC035 06/06 A3005 RMK AO2 SLP182 70028 T00610061 10061 20033 50002=
202312041056 METAR KPWT 041056Z AUTO 00000KT 8SM OVC035 05/05 A3007 RMK AO2 SLP189 T00500050=
202312040956 METAR KPWT 040956Z AUTO 00000KT 8SM CLR 04/04 A3007 RMK AO2 SLP188 T00440044=
202312040921 SPECI KPWT 040921Z AUTO 00000KT 3SM BR CLR 03/03 A3006 RMK AO2=
202312040912 SPECI KPWT 040912Z AUTO 00000KT 1 3/4SM BR CLR 04/04 A3006 RMK AO2 VIS 3/4V5=
202312040856 METAR KPWT 040856Z AUTO 00000KT 4SM BR CLR 04/04 A3005 RMK AO2 SLP181 T00440044 51018=
202312040851 SPECI KPWT 040851Z AUTO 00000KT 3SM BR CLR 05/05 A3005 RMK AO2=
202312040845 SPECI KPWT 040845Z AUTO 00000KT 1 1/4SM BR CLR 04/04 A3004 RMK AO2=
202312040835 SPECI KPWT 040835Z AUTO 00000KT 3/4SM BR CLR 04/04 A3004 RMK AO2 VIS 1/2V2=
202312040829 SPECI KPWT 040829Z AUTO 00000KT 1 3/4SM BR CLR 04/04 A3004 RMK AO2=
202312040812 SPECI KPWT 040812Z AUTO 22003KT 3SM BR CLR 04/04 A3004 RMK AO2=
202312040807 SPECI KPWT 040807Z AUTO 23003KT 1 3/4SM BR CLR 04/04 A3003 RMK AO2 VIS 1V4=
202312040756 METAR KPWT 040756Z AUTO 22003KT 2 1/2SM BR CLR 04/04 A3003 RMK AO2 SLP177 T00440044 401170033=
202312040656 METAR KPWT 040656Z AUTO 26004KT 5SM BR CLR 05/05 A3002 RMK AO2 SLP172 T00500050=
202312040556 METAR KPWT 040556Z AUTO 21006KT 5SM BR CLR 06/06 A3000 RMK AO2 SLP164 T00560056 10100 20050 58004=
202312040530 SPECI KPWT 040530Z AUTO 21007KT 4SM BR CLR 06/06 A3000 RMK AO2=
202312040520 SPECI KPWT 040520Z AUTO 21003KT 1 3/4SM BR CLR 05/05 A3001 RMK AO2=
202312040456 METAR KPWT 040456Z AUTO 20004KT 7SM FEW110 07/07 A3000 RMK AO2 SLP166 T00720072=
202312040403 SPECI KPWT 040403Z AUTO 19004KT 8SM FEW009 08/08 A3003 RMK AO2=
202312040356 METAR KPWT 040356Z AUTO 20006KT 7SM BKN009 07/07 A3002 RMK AO2 SLP174 T00720072=
202312040322 SPECI KPWT 040322Z AUTO 23004KT 8SM BKN009 07/07 A3002 RMK AO2 CIG 007V011=
202312040309 SPECI KPWT 040309Z AUTO 00000KT 9SM SCT009 BKN013 07/07 A3001 RMK AO2=
202312040256 METAR KPWT 040256Z AUTO 21005KT 9SM BKN013 08/08 A3001 RMK AO2 SLP167 T00780078 51034=
202312040156 METAR KPWT 040156Z AUTO 22006KT 10SM CLR 08/08 A2999 RMK AO2 SLP161 T00780078=
202312040125 SPECI KPWT 040125Z AUTO 21007KT 10SM SCT015 08/08 A2998 RMK AO2=
202312040104 SPECI KPWT 040104Z AUTO 21008KT 10SM SCT006 BKN017 08/08 A2997 RMK AO2 PRESRR=
202312040056 METAR KPWT 040056Z AUTO 20009KT 10SM BKN006 BKN017 09/09 A2995 RMK AO2 SLP149 T00890089=
202312040033 SPECI KPWT 040033Z AUTO 19005KT 10SM BKN008 BKN013 OVC035 09/09 A2994 RMK AO2 CIG 005V009=
202312040020 SPECI KPWT 040020Z AUTO 19005KT 10SM FEW008 BKN013 OVC035 09/09 A2993 RMK AO2=
202312032356 METAR KPWT 032356Z AUTO VRB03KT 10SM SCT021 BKN039 10/09 A2991 RMK AO2 SLP133 60004 T01000089 10117 20056 51029=
202312032338 SPECI KPWT 032338Z AUTO 00000KT 10SM SCT005 SCT012 OVC021 10/10 A2990 RMK AO2=
202312032315 SPECI KPWT 032315Z AUTO 03005KT 10SM SCT005 BKN014 OVC021 11/11 A2988 RMK AO2=
202312032256 METAR KPWT 032256Z AUTO 05007KT 10SM BKN012 OVC021 11/10 A2986 RMK AO2 SLP117 T01060100=
202312032156 METAR KPWT 032156Z AUTO 11004KT 10SM BKN010 11/09 A2982 RMK AO2 SLP103 T01060094=
202312032153 SPECI KPWT 032153Z AUTO VRB03KT 10SM BKN010 11/09 A2982 RMK AO2 PRESRR=
202312032116 SPECI KPWT 032116Z AUTO 26004KT 10SM BKN008 12/11 A2976 RMK AO2 CIG 006V011=
202312032107 SPECI KPWT 032107Z AUTO 26005G19KT 10SM SCT005 SCT010 11/10 A2975 RMK AO2 PRESRR=
202312032056 METAR KPWT 032056Z AUTO 21015G26KT 10SM BKN005 10/10 A2973 RMK AO2 PK WND 19026/2050 CIG 003V008 SLP073 P0001 60004 T01000100 55002=
202312032053 SPECI KPWT 032053Z AUTO 20014G26KT 10SM BKN005 09/09 A2973 RMK AO2 PK WND 19026/2050 CIG 003V008 P0001=
202312031956 METAR KPWT 031956Z AUTO 20016G20KT 8SM OVC003 07/07 A2971 RMK AO2 RAE52 SLP067 P0001 T00670067=
202312031856 METAR KPWT 031856Z AUTO 22008KT 3SM -RA BR BKN003 OVC007 06/06 A2974 RMK AO2 SLP076 P0002 T00610061=
202312031849 SPECI KPWT 031849Z AUTO 22008KT 2SM -RA BR BKN003 OVC007 06/06 A2974 RMK AO2 VIS 1 1/2V4 P0002=
202312031841 SPECI KPWT 031841Z AUTO 23008KT 3SM -RA BR OVC003 06/06 A2974 RMK AO2 P0001=
202312031817 SPECI KPWT 031817Z AUTO 21004KT 3SM -RA BR OVC005 06/06 A2973 RMK AO2 CIG 003V009 P0000=
202312031802 SPECI KPWT 031802Z AUTO 21004KT 2SM -RA BR BKN005 OVC010 06/06 A2973 RMK AO2 P0000=
202312031756 METAR KPWT 031756Z AUTO 21005KT 1 1/2SM -RA BR OVC008 06/06 A2972 RMK AO2 RAB00E29B49 CIG 004V011 SLP072 P0001 60024 T00560056 10056 20044 58011=
202312031751 SPECI KPWT 031751Z AUTO 22004KT 1 3/4SM -RA BR OVC010 06/06 A2972 RMK AO2 RAB00E29B49 CIG 005V011 P0001=
202312031739 SPECI KPWT 031739Z AUTO 22003KT 10SM OVC010 06/06 A2973 RMK AO2 RAB00E29 CIG 007V011 P0000=
202312031732 SPECI KPWT 031732Z AUTO 23003KT 10SM OVC008 06/06 A2973 RMK AO2 RAB00E29 CIG 007V012 P0000=
202312031656 METAR KPWT 031656Z AUTO 00000KT 10SM BKN014 OVC019 06/06 A2973 RMK AO2 RAE56 SLP074 P0003 T00560056=
202312031647 SPECI KPWT 031647Z AUTO 22005KT 10SM -RA FEW001 BKN014 OVC019 06/06 A2974 RMK AO2 P0003=
202312031629 SPECI KPWT 031629Z AUTO 00000KT 6SM -RA BR SCT015 OVC020 05/05 A2973 RMK AO2 P0003=
202312031605 SPECI KPWT 031605Z AUTO 00000KT 4SM -RA BR SCT010 OVC014 05/05 A2975 RMK AO2 P0001=
202312031556 METAR KPWT 031556Z AUTO 00000KT 2 1/2SM -RA BR BKN010 OVC014 05/05 A2976 RMK AO2 SLP082 P0007 T00500050=
202312031543 SPECI KPWT 031543Z AUTO 00000KT 1 3/4SM -RA BR OVC010 05/05 A2976 RMK AO2 P0005=
202312031456 METAR KPWT 031456Z AUTO 00000KT 4SM -RA BR SCT006 OVC014 05/05 A2976 RMK AO2 SLP083 P0007 60013 T00500050 56018=
202312031417 SPECI KPWT 031417Z AUTO 00000KT 7SM -RA BKN008 BKN013 OVC025 05/05 A2977 RMK AO2 P0002=
202312031356 METAR KPWT 031356Z AUTO 00000KT 7SM -RA BKN010 OVC015 05/05 A2977 RMK AO2 CIG 008V013 SLP088 P0004 T00500050=
202312031344 SPECI KPWT 031344Z AUTO 00000KT 7SM -RA BKN010 OVC027 05/05 A2978 RMK AO2 P0003=
202312031315 SPECI KPWT 031315Z AUTO 00000KT 8SM -RA FEW017 BKN027 05/05 A2978 RMK AO2 P0001=
202312031256 METAR KPWT 031256Z AUTO 00000KT 8SM -RA FEW027 BKN036 05/05 A2978 RMK AO2 SLP092 P0002 T00500050=
202312031240 SPECI KPWT 031240Z AUTO 00000KT 8SM -RA SCT017 OVC036 05/05 A2979 RMK AO2 P0001=
202312031156 METAR KPWT 031156Z AUTO 00000KT 10SM -RA OVC021 04/04 A2981 RMK AO2 RAB50 SLP101 P0000 60000 70008 T00440044 10050 20028 58015=
202312031108 SPECI KPWT 031108Z AUTO 00000KT 10SM BKN021 04/04 A2983 RMK AO2=
202312031056 METAR KPWT 031056Z AUTO 00000KT 10SM SCT019 04/04 A2983 RMK AO2 SLP108 T00390039=
202312031048 SPECI KPWT 031048Z AUTO 00000KT 10SM BKN019 04/04 A2984 RMK AO2=
202312030956 METAR KPWT 030956Z AUTO 00000KT 8SM CLR 03/03 A2985 RMK AO2 SLP115 T00330033=
202312030856 METAR KPWT 030856Z AUTO 00000KT 10SM FEW100 04/04 A2985 RMK AO2 SLP115 T00440044 58006=
202312030756 METAR KPWT 030756Z AUTO 00000KT 5SM BR OVC100 03/03 A2986 RMK AO2 SLP119 T00330033 400940028=
202312030722 SPECI KPWT 030722Z AUTO 00000KT 4SM BR BKN110 03/03 A2987 RMK AO2=
202312030718 SPECI KPWT 030718Z AUTO 00000KT 1 1/4SM BR BKN110 04/04 A2987 RMK AO2=
202312030709 SPECI KPWT 030709Z AUTO 00000KT 3/4SM BR SCT110 03/03 A2987 RMK AO2=
202312030705 SPECI KPWT 030705Z AUTO 00000KT 1 3/4SM BR FEW110 03/03 A2987 RMK AO2=
202312030656 METAR KPWT 030656Z AUTO 00000KT 9SM CLR 04/04 A2987 RMK AO2 SLP121 T00440044=
202312030556 METAR KPWT 030556Z AUTO 20005KT 10SM FEW041 SCT110 05/05 A2987 RMK AO2 RAE26 SLP122 P0000 60000 T00500050 10078 20050 50001=
202312030518 SPECI KPWT 030518Z AUTO 20005KT 10SM -RA FEW009 SCT017 BKN048 07/06 A2988 RMK AO2 P0000=
202312030509 SPECI KPWT 030509Z AUTO 17005KT 10SM -RA SCT011 BKN017 07/06 A2988 RMK AO2 P0000=
202312030456 METAR KPWT 030456Z AUTO 15005KT 10SM -RA BKN011 OVC017 07/06 A2989 RMK AO2 RAB40 CIG 008V014 SLP127 P0000 T00670061=
202312030439 SPECI KPWT 030439Z AUTO 17005KT 10SM BKN011 OVC017 07/06 A2989 RMK AO2=
202312030356 METAR KPWT 030356Z AUTO 18004KT 10SM SCT016 BKN020 07/06 A2989 RMK AO2 SLP128 T00670061=
202312030256 METAR KPWT 030256Z AUTO 18006KT 10SM CLR 07/06 A2987 RMK AO2 SLP121 T00670056 51015=
202312030156 METAR KPWT 030156Z AUTO 18005KT 10SM CLR 07/06 A2986 RMK AO2 SLP118 T00670056=
202312030056 METAR KPWT 030056Z AUTO 21006KT 10SM CLR 07/06 A2985 RMK AO2 SLP112 T00670056=
202312022356 METAR KPWT 022356Z AUTO 21009KT 10SM CLR 08/05 A2982 RMK AO2 SLP105 T00780050 10094 20072 53025=
202312022256 METAR KPWT 022256Z AUTO 22014KT 10SM CLR 09/05 A2980 RMK AO2 SLP096 T00940050=
202312022156 METAR KPWT 022156Z AUTO 23012KT 10SM CLR 09/04 A2977 RMK AO2 SLP086 T00890044=
202312022056 METAR KPWT 022056Z AUTO 23011KT 10SM CLR 08/04 A2975 RMK AO2 SLP080 T00830044 51027=
202312021956 METAR KPWT 021956Z AUTO 23014G20KT 10SM CLR 09/04 A2972 RMK AO2 SLP070 T00890044=
202312021856 METAR KPWT 021856Z AUTO 22011KT 10SM CLR 09/06 A2970 RMK AO2 SLP064 T00890061=
202312021756 METAR KPWT 021756Z AUTO 21011KT 10SM CLR 07/06 A2967 RMK AO2 SLP052 60008 T00720061 10078 20033 51031=
202312021656 METAR KPWT 021656Z AUTO 21006KT 10SM CLR 05/05 A2964 RMK AO2 SLP044 T00500050=
202312021556 METAR KPWT 021556Z AUTO 21008KT 10SM CLR 04/04 A2961 RMK AO2 SLP034 T00390039=
202312021456 METAR KPWT 021456Z AUTO 22006KT 10SM CLR 05/05 A2958 RMK AO2 SLP022 60008 T00500050 53024=
202312021435 SPECI KPWT 021435Z AUTO 19006KT 10SM SCT011 06/06 A2956 RMK AO2=
202312021406 SPECI KPWT 021406Z AUTO 24006KT 10SM OVC011 07/07 A2954 RMK AO2 CIG 007V014=
202312021356 METAR KPWT 021356Z AUTO 22008G19KT 10SM BKN009 BKN014 07/07 A2952 RMK AO2 RAE20 CIG 007V011 SLP003 P0000 T00670067=
202312021351 SPECI KPWT 021351Z AUTO 20009G19KT 10SM BKN009 BKN014 07/07 A2952 RMK AO2 RAE20 P0000=
202312021334 SPECI KPWT 021334Z AUTO 20011KT 10SM FEW008 07/07 A2951 RMK AO2 RAE20 PRESRR P0000=
202312021323 SPECI KPWT 021323Z AUTO 19007KT 10SM SCT010 07/07 A2948 RMK AO2 RAE20 P0000=
202312021256 METAR KPWT 021256Z AUTO 18012G18KT 10SM -RA BKN008 BKN016 OVC024 07/07 A2951 RMK AO2 RAB03 CIG 006V011 SLP996 P0008 T00720072=
202312021156 METAR KPWT 021156Z AUTO 19013G20KT 10SM FEW007 SCT013 OVC024 08/07 A2950 RMK AO2 PK WND 17029/1057 RAE45 SLP994 P0007 60090 70139 T00780072 10078 20061 56045=
202312021148 SPECI KPWT 021148Z AUTO 19014G21KT 10SM FEW007 BKN024 OVC029 07/07 A2950 RMK AO2 PK WND 17029/1057 RAE45 P0007=
202312021056 METAR KPWT 021056Z AUTO 18015G22KT 10SM -RA BKN007 OVC011 07/07 A2951 RMK AO2 PK WND 18028/1037 CIG 004V010 SLP998 P0019 T00720072=
202312020956 METAR KPWT 020956Z AUTO 18012G24KT 6SM RA BR BKN007 BKN010 OVC027 07/07 A2958 RMK AO2 TSE10 CIG 004V008 SLP022 P0028 T00720072=
202312020916 SPECI KPWT 020916Z AUTO 18013G20KT 6SM RA BR OVC005 07/07 A2962 RMK AO2 TSE10 P0008=
202312020856 METAR KPWT 020856Z AUTO 20012G21KT 7SM TSRA OVC005 07/07 A2963 RMK AO2 TSB55 CIG 004V009 SLP039 P0020 60036 T00670067 58040=
202312020756 METAR KPWT 020756Z AUTO 18010G15KT 10SM -RA OVC005 06/06 A2968 RMK AO2 PRESFR SLP056 P0008 T00610061 401000022=
202312020656 METAR KPWT 020656Z AUTO 18009KT 10SM -RA OVC005 06/06 A2972 RMK AO2 CIG 003V008 PRESFR SLP070 P0008 T00610061=
202312020615 SPECI KPWT 020615Z AUTO 20009KT 8SM RA BKN005 BKN014 OVC039 06/06 A2975 RMK AO2 P0002=
202312020609 SPECI KPWT 020609Z AUTO 20011KT 9SM -RA SCT005 SCT012 OVC039 06/06 A2975 RMK AO2 P0001=
202312020556 METAR KPWT 020556Z AUTO 18010KT 10SM -RA FEW012 OVC039 06/06 A2975 RMK AO2 RAB21 SLP082 P0004 60006 T00610061 10078 20061 53001=
202312020519 SPECI KPWT 020519Z AUTO 20012KT 10SM FEW008 SCT015 BKN110 06/06 A2977 RMK AO2=
202312020456 METAR KPWT 020456Z AUTO 19012G18KT 10SM FEW120 06/06 A2975 RMK AO2 SLP082 T00610061=
202312020406 SPECI KPWT 020406Z AUTO 20008KT 10SM SCT008 SCT013 BKN110 07/07 A2975 RMK AO2=
202312020356 METAR KPWT 020356Z AUTO 20010KT 10SM FEW005 BKN008 BKN016 07/07 A2975 RMK AO2 RAE09 CIG 007V012 SLP081 P0000 T00670067=
202312020344 SPECI KPWT 020344Z AUTO 21012G16KT 10SM SCT006 BKN015 BKN022 07/07 A2975 RMK AO2 RAE09 P0000=
202312020309 SPECI KPWT 020309Z AUTO 20012KT 10SM OVC006 07/07 A2976 RMK AO2 RAE09 CIG 004V008 P0000=
202312020256 METAR KPWT 020256Z AUTO 19009G16KT 10SM -RA BKN004 BKN011 OVC023 07/07 A2976 RMK AO2 CIG 004V007 SLP084 P0001 60002 T00670067 58003=
202312020233 SPECI KPWT 020233Z AUTO 18009G15KT 10SM -RA FEW006 BKN023 06/06 A2976 RMK AO2 P0001=
202312020224 SPECI KPWT 020224Z AUTO 18009KT 10SM -RA FEW006 SCT010 SCT019 07/07 A2977 RMK AO2 P0001=
202312020207 SPECI KPWT 020207Z AUTO 20010KT 10SM -RA FEW006 BKN025 OVC036 07/07 A2978 RMK AO2 P0001=
202312020156 METAR KPWT 020156Z AUTO 20010KT 10SM -RA FEW027 OVC036 07/07 A2978 RMK AO2 RAB20 SLP092 P0001 T00670067=
202312020056 METAR KPWT 020056Z AUTO 20006KT 10SM BKN070 07/06 A2978 RMK AO2 SLP091 T00720056=
202312012356 METAR KPWT 012356Z AUTO 21005KT 10SM FEW100 08/05 A2977 RMK AO2 SLP087 T00780050 10100 20039 51022=
202312012256 METAR KPWT 012256Z AUTO VRB03KT 10SM CLR 09/05 A2975 RMK AO2 SLP079 T00940050=
202312012156 METAR KPWT 012156Z AUTO VRB03KT 10SM CLR 09/04 A2973 RMK AO2 SLP074 T00890044=
202312012056 METAR KPWT 012056Z AUTO 21008KT 10SM CLR 09/05 A2970 RMK AO2 SLP064 T00940050 53017=
202312011956 METAR KPWT 011956Z AUTO 22011KT 10SM CLR 08/06 A2968 RMK AO2 SLP058 T00830056=
202312011915 SPECI KPWT 011915Z AUTO 23012KT 10SM SCT007 SCT011 07/06 A2966 RMK AO2=
202312011856 METAR KPWT 011856Z AUTO 22007KT 10SM OVC007 06/06 A2966 RMK AO2 SLP050 T00610061=
202312011756 METAR KPWT 011756Z AUTO 19008KT 10SM OVC007 04/04 A2965 RMK AO2 SLP046 60043 T00390039 10039 20022 53016=
202312011716 SPECI KPWT 011716Z AUTO VRB06KT 10SM OVC007 03/03 A2964 RMK AO2 CIG 003V012=
202312011707 SPECI KPWT 011707Z AUTO 19007KT 10SM BKN005 OVC009 03/03 A2964 RMK AO2 CIG 003V008=
202312011656 METAR KPWT 011656Z AUTO 20005KT 10SM BKN003 BKN011 02/02 A2964 RMK AO2 SLP045 T00220022 FZRANO=
202312011613 SPECI KPWT 011613Z AUTO 22008KT 10SM OVC003 03/03 A2961 RMK AO2 CIG 002V006=
202312011556 METAR KPWT 011556Z AUTO 22005KT 10SM OVC006 03/03 A2960 RMK AO2 RAE39 CIG 004V011 SLP029 P0003 T00280028=
202312011456 METAR KPWT 011456Z AUTO 24003KT 10SM -RA OVC008 04/04 A2960 RMK AO2 CIG 004V013 SLP030 P0010 60040 T00390039 56023=
202312011435 SPECI KPWT 011435Z AUTO 20005KT 10SM -RA BKN006 OVC011 04/04 A2960 RMK AO2 CIG 004V008 P0008=
202312011427 SPECI KPWT 011427Z AUTO 21007KT 7SM -RA OVC010 03/03 A2960 RMK AO2 CIG 004V014 P0008=
202312011356 METAR KPWT 011356Z AUTO 25006KT 10SM -RA OVC008 03/03 A2961 RMK AO2 CIG 006V012 SLP033 P0011 T00330033=
202312011256 METAR KPWT 011256Z AUTO 20012G17KT 10SM -RA OVC008 03/03 A2964 RMK AO2 PK WND 19028/1226 CIG 006V012 SLP041 P0019 T00330033=
202312011233 SPECI KPWT 011233Z AUTO 19013G28KT 7SM RA BKN006 OVC010 04/04 A2965 RMK AO2 PK WND 19028/1226 CIG 004V008 P0014=
202312011156 METAR KPWT 011156Z AUTO 20009KT 10SM -RA OVC005 04/04 A2967 RMK AO2 CIG 004V009 SLP055 P0003 60009 70020 T00390039 10039 20033 58036=
202312011128 SPECI KPWT 011128Z AUTO 20010G18KT 10SM -RA OVC005 04/04 A2968 RMK AO2 CIG 004V007 P0000=
202312011056 METAR KPWT 011056Z AUTO 19007KT 150V220 10SM -RA OVC003 04/04 A2970 RMK AO2 SLP065 P0003 T00390039=
202312010956 METAR KPWT 010956Z AUTO 20009KT 10SM -RA OVC003 03/03 A2975 RMK AO2 SLP079 P0002 T00330033=
202312010856 METAR KPWT 010856Z AUTO 18010KT 10SM -RA OVC003 03/03 A2978 RMK AO2 RAB01 SLP089 P0001 60001 T00330033 58009=
202312010756 METAR KPWT 010756Z AUTO 19009KT 10SM OVC003 03/03 A2979 RMK AO2 SLP095 T00330033 400501006=
202312010656 METAR KPWT 010656Z AUTO 18008G16KT 8SM OVC003 04/04 A2980 RMK AO2 SLP097 T00390039=
202312010556 METAR KPWT 010556Z AUTO 19008G16KT 6SM BR OVC003 04/04 A2980 RMK AO2 RAE0459 SLP098 P0000 60004 T00390039 10044 20039 55000=
202312010521 SPECI KPWT 010521Z AUTO 20013G18KT 4SM BR OVC003 04/04 A2980 RMK AO2 RAE0459 P0000=
202312010503 SPECI KPWT 010503Z AUTO 21010KT 2SM BR OVC003 04/04 A2980 RMK AO2 VIS 1 3/4V3 RAE0459 P0000=
202312010456 METAR KPWT 010456Z AUTO 21012KT 1 3/4SM -RA BR OVC003 04/04 A2980 RMK AO2 RAB10 SLP097 P0000 T00440044=
202312010438 SPECI KPWT 010438Z AUTO 20011KT 1SM -RA BR OVC003 04/04 A2980 RMK AO2 RAB10 P0000=
202312010426 SPECI KPWT 010426Z AUTO 20010KT 3/4SM -RA BR OVC003 04/04 A2980 RMK AO2 RAB10 P0000=
202312010413 SPECI KPWT 010413Z AUTO 20010KT 1SM -RA BR OVC003 04/04 A2980 RMK AO2 RAB10 P0000=
202312010356 METAR KPWT 010356Z AUTO 19011KT 1 1/2SM BR OVC003 04/04 A2981 RMK AO2 SLP101 T00390039=
202312010328 SPECI KPWT 010328Z AUTO 19007KT 1 3/4SM BR OVC003 04/04 A2980 RMK AO2=
202312010256 METAR KPWT 010256Z AUTO 21008KT 5SM BR OVC003 04/04 A2980 RMK AO2 RAE20 SLP100 P0000 60004 T00390039 53005=
202312010203 SPECI KPWT 010203Z AUTO 19007KT 10SM -RA OVC003 04/04 A2979 RMK AO2 P0000=
202312010156 METAR KPWT 010156Z AUTO 19008KT 10SM -RA OVC005 04/04 A2979 RMK AO2 SLP095 P0001 T00390039=
202312010056 METAR KPWT 010056Z AUTO 19007KT 10SM -RA OVC005 04/04 A2979 RMK AO2 CIG 004V011 SLP096 P0003 T00440044=
202312010044 SPECI KPWT 010044Z AUTO 19006KT 7SM -RA BKN007 OVC010 04/04 A2979 RMK AO2 CIG 004V009 P0002=

# No short TAF reports from KPWT in databse.

###################################
#  large TAF from KPWT
###################################
202312312324 TAF KPWT 312324Z 0100/0124 00000KT P6SM FEW006 BKN200 FM010300
                       00000KT 4SM BR OVC004 FM010900 03002KT 1/2SM
                       FG OVC001 FM011800 02003KT 2SM BR BKN004
                       FM012100 16003KT P6SM FEW250=
202312312201 KPWT 312201Z 3122/0118 00000KT P6SM SCT006 FM010000 04003KT P6SM
                       SCT050 BKN200 FM010700 04002KT 1SM BR BKN003
                       FM011200 05002KT 1/2SM FG OVC002=
202312312103 KPWT 312103Z 3121/0118 24003KT P6SM OVC004 FM010000 04003KT P6SM
                       SCT050 BKN200 FM010700 04002KT 1SM BR BKN003
                       FM011200 05002KT 1/2SM FG OVC002=
202312312001 KPWT 312001Z 3120/0118 23003KT P6SM BKN002 FM312100 16004KT P6SM
                       BKN050 OVC200 FM010000 04003KT P6SM SCT050
                       BKN200 FM010700 04002KT 1SM BR BKN003 FM011200
                       05002KT 1/2SM FG OVC002=
202312311900 KPWT 311900Z 3119/0118 26003KT 1/2SM FG OVC002 FM312100 16004KT
                       P6SM BKN050 OVC200 FM010000 04003KT P6SM
                       SCT050 BKN200 FM010700 04002KT 1SM BR BKN003
                       FM011200 05002KT 1/2SM FG OVC002=
202312311726 TAF KPWT 311726Z 3118/0118 25003KT 2SM BR OVC002
                      TEMPO 3118/3119 3/4SM BR FM311900 22003KT
                       P6SM SCT007 BKN015 FM312200 16004KT P6SM
                       BKN050 OVC200 FM010000 04003KT P6SM SCT050
                       BKN200 FM010700 04002KT 1SM BR BKN003 FM011200
                       05002KT 1/2SM FG OVC002=
202312311138 TAF KPWT 311138Z 3112/0112 22005KT 1SM BR OVC002 FM311700 21004KT
                       5SM BR OVC006 FM311900 22003KT P6SM BKN015
                       FM312200 16004KT P6SM BKN050 OVC200 FM010000
                       04003KT P6SM BKN050 BKN200 FM010700 VRB02KT
                       1SM BR BKN003=
202312310835 KPWT 310835Z 3109/0106 20003KT 4SM BR OVC002 FM311500 20003KT 1/2SM
                       FG OVC001 FM311800 00000KT 5SM BR OVC004=
202312310520 TAF KPWT 310520Z 3106/0106 21008KT P6SM SCT008 FM310900 20003KT
                       4SM BR OVC001 FM311500 20003KT 1/2SM FG
                       OVC001 FM311800 00000KT 5SM BR OVC004=
202312302321 TAF KPWT 302321Z 3100/3124 19008KT P6SM VCSH FEW005 SCT012 OVC060
                       FM310300 20005KT P6SM OVC004 FM310900 20003KT
                       4SM BR OVC001 FM311500 20003KT 1/2SM FG
                       OVC001 FM311800 00000KT 5SM BR OVC004=
202312302124 KPWT 302124Z 3021/3118 20009KT P6SM -SHRA OVC004 FM302300 22007KT
                       P6SM BKN015 OVC020 FM310000 20004KT P6SM
                       OVC025 FM311000 00000KT 1/2SM FG OVC003=
202312301724 TAF KPWT 301724Z 3018/3118 20004KT P6SM -SHRA BKN030 OVC045 FM302200
                       22007KT P6SM BKN015 OVC020 FM310000 20004KT
                       P6SM OVC025 FM311000 00000KT 1/2SM FG OVC003=
202312301427 KPWT 301427Z 3014/3112 VRB02KT P6SM -SHRA VCSH FEW035 FM301600
                       21006KT P6SM OVC015 FM302200 22007KT P6SM
                       BKN015 OVC020 FM310000 20004KT P6SM OVC025
                       FM311000 00000KT 1/2SM FG OVC003=
202312301141 TAF KPWT 301141Z 3012/3112 VRB03KT P6SM -SHRA SCT025 OVC050 FM301400
                       20005KT 6SM BR VCSH OVC015 FM302200 22007KT
                       P6SM BKN015 OVC020 FM310000 20004KT P6SM
                       OVC025 FM311000 00000KT 1/2SM FG OVC003=
202312300522 TAF KPWT 300522Z 3006/3106 15003KT P6SM -RA FEW060 FM300800 VRB03KT
                       P6SM -RA SCT025 OVC035 FM301400 20005KT
                       6SM BR VCSH OVC015 FM302200 22007KT P6SM
                       BKN015 OVC020 FM310000 20004KT P6SM OVC025=
202312292322 TAF KPWT 292322Z 3000/3024 03004KT P6SM VCSH BKN100 OVC120 FM300300
                       23003KT P6SM -RA BKN050 OVC080 FM300800
                       VRB03KT P6SM -RA SCT025 OVC035 FM301400
                       20005KT 6SM BR VCSH OVC015 FM302200 22007KT
                       P6SM BKN015 OVC020=
202312291725 TAF KPWT 291725Z 2918/3018 03004KT P6SM VCSH BKN120 FM300300 VRB02KT
                       P6SM -RA BKN050 OVC120 FM300800 VRB03KT
                       P6SM -RA BKN020 OVC030 FM301200 20005KT
                       5SM BR VCSH OVC015=
202312291128 TAF KPWT 291128Z 2912/3012 00000KT P6SM VCSH BKN070 OVC100 FM291500
                       00000KT 4SM BR BKN070 FM291800 VRB04KT P6SM
                       VCSH BKN090 FM300300 VRB02KT P6SM VCSH BKN025
                       OVC050=
202312290520 TAF KPWT 290520Z 2906/3006 00000KT P6SM -RA FEW050 OVC060 FM290800
                       00000KT P6SM OVC050 FM291200 03003KT 6SM
                       BR BKN070 OVC100=
202312282320 TAF KPWT 282320Z 2900/2924 03003KT P6SM BKN050 OVC060 FM291200
                       03003KT 6SM BR BKN070 OVC100=
202312281720 TAF KPWT 281720Z 2818/2918 VRB03KT P6SM -SHRA SCT030 BKN040 OVC070
                       TEMPO 2818/2820 4SM -RA BR FM282000 03005KT
                       P6SM SCT050 OVC060 FM291000 03005KT 6SM
                       BR VCSH FEW025 OVC050=
202312281432 KPWT 281432Z 2815/2912 00000KT P6SM VCSH OVC040 FM282000 36003KT
                       P6SM FEW035 OVC070 FM290300 05003KT P6SM
                       VCSH OVC050 FM291000 04005KT 6SM BR FEW025
                       OVC050=
202312281355 KPWT 281355Z 2814/2912 20005KT 6SM BR BKN045
                      TEMPO 2814/2817 3/4SM BR FM282000 36003KT
                       P6SM FEW035 OVC070 FM290300 05003KT P6SM
                       VCSH OVC050 FM291000 04005KT 6SM BR FEW025
                       OVC050=
202312281354 KPWT 281354Z 2814/2912 20005KT 6SM BR SCT025 OVC050
                      TEMPO 2814/2817 3/4SM BR FM282000 36003KT
                       P6SM FEW035 OVC070 FM290300 05003KT P6SM
                       VCSH OVC050 FM291000 04005KT 6SM BR FEW025
                       OVC050=
202312281352 KPWT 281352Z 2814/2912 20005KT 6SM BR SCT025 OVC050
                      TEMPO 2814/2817 2SM BR FM282000 36003KT P6SM
                       FEW035 OVC070 FM290300 05003KT P6SM VCSH
                       OVC050 FM291000 04005KT 6SM BR FEW025 OVC050=
202312281131 TAF KPWT 281131Z 2812/2912 VRB03KT P6SM FEW050 SCT060 FM281500
                       20005KT 6SM BR SCT025 OVC050 FM282000 36003KT
                       P6SM FEW035 OVC070 FM290300 05003KT P6SM
                       VCSH OVC050 FM291000 04005KT 6SM BR FEW025
                       OVC050=
202312280902 KPWT 280902Z 2809/2906 21007G16KT P6SM -RA FEW035 SCT050 FM281200
                       VRB03KT 5SM BR VCSH OVC025 FM282000 36003KT
                       P6SM SCT025 OVC050 FM290300 VRB03KT 5SM
                       BR OVC040=
202312280542 TAF KPWT 280542Z 2806/2906 14004KT P6SM -RA BKN040 FM280800 21011KT
                       5SM -RA BR OVC025 FM281200 VRB03KT 5SM BR
                       VCSH OVC025 FM282000 36003KT P6SM SCT025
                       OVC050 FM290300 VRB03KT 5SM BR OVC040=
202312272320 TAF KPWT 272320Z 2800/2824 VRB03KT P6SM -RA OVC045 FM280300 18004KT
                       P6SM VCSH OVC035 FM280800 21011KT 5SM -RA
                       BR OVC025 FM281300 VRB03KT 5SM BR OVC020
                       FM282000 33003KT P6SM SCT025 OVC040=
202312271724 TAF KPWT 271724Z 2718/2818 VRB03KT P6SM VCSH SCT050 OVC100 FM271900
                       26004KT P6SM -RA OVC035 FM280000 21004KT
                       P6SM -RA OVC030 FM280300 18004KT P6SM VCSH
                       OVC030 FM280600 21008KT 5SM -RA BR OVC025=
202312271124 TAF KPWT 271124Z 2712/2812 06004KT 6SM BR VCSH OVC100 FM271400
                       03002KT 6SM BR OVC050 FM272000 20006KT P6SM
                       -RA OVC035 FM280100 21004KT P6SM OVC050
                       FM280600 21008KT P6SM OVC030=
202312270547 TAF KPWT 270547Z 2706/2806 14004KT P6SM VCSH OVC090 FM271200 02004KT
                       6SM BR VCSH OVC050 FM272000 17006KT P6SM
                       -RA OVC035 FM280100 00000KT P6SM OVC050=
202312270214 KPWT 270214Z 2702/2724 VRB03KT 3SM BR BKN005
                      TEMPO 2702/2705 00000KT 2SM BR FM270600 04006KT
                       5SM BR VCSH OVC025 FM271400 VRB03KT 6SM
                       BR VCSH OVC030 FM272000 20006KT P6SM -RA
                       OVC025=
202312262320 TAF KPWT 262320Z 2700/2724 VRB03KT P6SM SCT030 BKN200 FM270200
                       VRB03KT P6SM SCT020 BKN100 FM270600 04006KT
                       5SM BR VCSH OVC025 FM271400 VRB03KT 6SM
                       BR VCSH OVC030 FM272000 20006KT P6SM -RA
                       OVC025=
202312262003 KPWT 262003Z 2620/2718 21004KT P6SM OVC003 FM262200 04004KT P6SM
                       SCT005 SCT030 BKN200 FM270200 VRB03KT P6SM
                       BKN050 FM270600 04006KT 6SM BR VCSH OVC025=
202312261720 TAF KPWT 261720Z 2618/2718 21004KT 5SM BR OVC003 FM262000 04004KT
                       P6SM SCT005 SCT030 BKN200 FM270200 VRB03KT
                       P6SM BKN050 FM270600 04006KT 6SM BR VCSH
                       OVC025=
202312261625 KPWT 261625Z 2616/2712 19005KT 1SM BR BKN004 FM261700 VRB03KT 5SM
                       BR SCT010 BKN030 FM262000 04004KT P6SM SCT030
                       BKN200 FM270000 VRB04KT P6SM BKN150 FM270600
                       04006KT 6SM -SHRA BR SCT020 OVC040=
202312261603 KPWT 261603Z 2616/2712 19005KT P6SM BKN004 FM261700 VRB03KT 5SM
                       BR SCT010 BKN030 FM262000 04004KT P6SM SCT030
                       BKN200 FM270000 VRB04KT P6SM BKN150 FM270600
                       04006KT 6SM -SHRA BR SCT020 OVC040=
202312261331 KPWT 261331Z 2614/2712 19008KT P6SM SCT004 BKN015
                      TEMPO 2614/2616 BKN004 FM261700 VRB03KT 5SM
                       BR SCT010 BKN030 FM262000 04004KT P6SM SCT030
                       BKN200 FM270000 VRB04KT P6SM BKN150 FM270600
                       04006KT 6SM -SHRA BR SCT020 OVC040=
202312261313 KPWT 261313Z 2613/2712 19008KT P6SM SCT004 BKN015 FM261700 VRB03KT
                       5SM BR SCT010 BKN030 FM262000 04004KT P6SM
                       SCT030 BKN200 FM270000 VRB04KT P6SM BKN150
                       FM270600 04006KT 6SM -SHRA BR SCT020 OVC040=
202312261249 KPWT 261249Z 2613/2712 19008KT P6SM SCT004 BKN015
                      TEMPO 2613/2616 BKN004 FM261700 VRB03KT 5SM
                       BR SCT010 BKN030 FM262000 04004KT P6SM SCT030
                       BKN200 FM270000 VRB04KT P6SM BKN150 FM270600
                       04006KT 6SM -SHRA BR SCT020 OVC040=
202312261231 KPWT 261231Z 2613/2712 19008KT P6SM BKN004 BKN015 FM261700 VRB03KT
                       5SM BR SCT010 BKN030 FM262000 04004KT P6SM
                       SCT030 BKN200 FM270000 VRB04KT P6SM BKN150
                       FM270600 04006KT 6SM -SHRA BR SCT020 OVC040=
202312261124 KPWT 261124Z 2611/2712 19008KT P6SM -RA FEW005 BKN010 OVC020 FM261700
                       VRB03KT 5SM BR SCT010 BKN030 FM262000 04004KT
                       P6SM SCT030 BKN200 FM270000 VRB04KT P6SM
                       BKN150 FM270600 04006KT 6SM -SHRA BR SCT020
                       OVC040=
202312261123 TAF KPWT 261123Z 2612/2712 20006KT P6SM BKN020 FM261700 VRB03KT
                       5SM BR SCT010 BKN030 FM262000 04004KT P6SM
                       SCT030 BKN200 FM270000 VRB04KT P6SM BKN150
                       FM270600 04006KT 6SM -SHRA BR SCT020 OVC040=
202312260546 TAF KPWT 260546Z 2606/2706 VRB03KT P6SM -RA BKN040 OVC100 FM260700
                       19008G16KT 5SM -RA BR OVC030 FM261200 20006KT
                       6SM BR OVC035 FM261700 VRB03KT 5SM BR SCT020
                       BKN030 FM262000 04004KT P6SM SCT030 BKN200
                       FM270000 VRB04KT P6SM BKN150=
202312252323 TAF KPWT 252323Z 2600/2624 VRB03KT 5SM -RA BR OVC015 FM260600 20014G23KT
                       4SM -RA BR OVC010 FM261200 20006KT 5SM BR
                       OVC015 FM261700 VRB03KT 5SM BR SCT020 BKN030
                       FM262000 04004KT P6SM SCT030 BKN200=
202312251823 KPWT 251823Z 2518/2618 VRB03KT 2SM -RA BR OVC015 FM260000 18009G16KT
                       5SM -SHRA BR OVC007 FM260600 20014G23KT
                       4SM -RA BR OVC010 FM261200 20006KT 5SM BR
                       OVC015=
202312251758 KPWT 251758Z 2518/2618 VRB02KT 3SM -RA BR OVC025 FM251900 18004KT
                       2SM -RA BR OVC015 FM260000 18009G16KT 5SM
                       -SHRA BR OVC007 FM260600 20014G23KT 4SM
                       -RA BR OVC010 FM261200 20006KT 5SM BR OVC015=
202312251725 TAF KPWT 251725Z 2518/2618 VRB02KT 5SM -RA BR OVC025 FM251900 18004KT
                       4SM -RA BR OVC015 FM260000 18009G16KT 5SM
                       -SHRA BR OVC007 FM260600 20014G23KT 4SM
                       -RA BR OVC010 FM261200 20006KT 5SM BR OVC015=
202312251124 TAF KPWT 251124Z 2512/2612 VRB03KT P6SM VCSH OVC025 FM251600 VRB02KT
                       5SM -RA BR OVC020 FM251900 18004KT 4SM -RA
                       BR OVC012 FM260000 18009G16KT 5SM -SHRA
                       BR OVC015 FM260600 21005KT 4SM -RA BR OVC015=
202312250544 TAF KPWT 250544Z 2506/2606 00000KT P6SM OVC025 FM251200 VRB03KT
                       P6SM VCSH OVC025 FM251600 VRB02KT 5SM -RA
                       BR OVC020 FM251900 18004KT 4SM -RA BR OVC012
                       FM260000 18009G16KT 5SM -RA BR OVC015=
202312242321 TAF KPWT 242321Z 2500/2524 30004KT P6SM -SHRA OVC025 FM250500 VRB03KT
                       P6SM OVC030 FM251200 VRB03KT P6SM VCSH OVC025
                       FM251700 VRB02KT 4SM -RA BR OVC020=
202312242045 KPWT 242045Z 2421/2518 25006KT P6SM -SHRA BKN025 OVC035 FM250500
                       VRB03KT P6SM OVC030 FM251200 VRB03KT P6SM
                       VCSH OVC025=
202312241720 TAF KPWT 241720Z 2418/2518 VRB03KT P6SM OVC250 FM242200 22004KT
                       P6SM VCSH OVC025 FM250500 VRB03KT P6SM OVC030
                       FM251200 VRB03KT P6SM VCSH OVC025=
202312241123 TAF KPWT 241123Z 2412/2512 00000KT P6SM BKN250 FM241700 22004KT
                       P6SM OVC250 FM242200 22004KT P6SM OVC025
                       FM250500 21002KT P6SM OVC050=
202312241023 KPWT 241023Z 2410/2506 00000KT P6SM FEW005 FM242000 21005KT 1SM
                       BR OVC007=
202312240520 TAF KPWT 240520Z 2406/2506 00000KT 1/4SM FG OVC001 FM242000 21005KT
                       1SM BR OVC007=
202312240253 KPWT 240253Z 2403/2424 00000KT 1/4SM FG OVC001 FM242000 21005KT
                       1SM BR OVC007=
202312232322 TAF KPWT 232322Z 2400/2424 VRB03KT 2SM BR OVC002
                      TEMPO 2400/2402 1/4SM FG OVC001 FM240200
                       VRB03KT 1/4SM FG SCT003 BKN250 FM240600
                       VRB03KT 1/4SM FG OVC001 FM242000 21005KT
                       1SM BR OVC007=
202312232213 KPWT 232213Z 2322/2418 VRB03KT 1/4SM FG OVC001 FM240200 VRB03KT
                       1/4SM FG SCT003 BKN250 FM240600 VRB03KT
                       1/4SM FG OVC001=
202312232004 KPWT 232004Z 2320/2418 VRB03KT 1/4SM FG OVC001 FM232200 04003KT
                       3SM BR BKN004 FM240200 VRB03KT 1/4SM FG
                       SCT005 BKN250 FM240600 VRB03KT 1/4SM FG
                       OVC003=
202312231727 TAF KPWT 231727Z 2318/2418 00000KT 1/4SM FG OVC003 FM232000 04003KT
                       4SM BR BKN007 FM232200 05002KT P6SM SCT250
                       FM240200 VRB03KT 1/4SM FG SCT005 BKN250
                       FM240600 VRB03KT 1/4SM FG OVC003=
202312231312 KPWT 231312Z 2313/2412 00000KT 1/4SM FG OVC003 FM232000 04003KT
                       4SM BR BKN007 FM232200 05002KT P6SM SCT250
                       FM240200 04002KT 1/4SM FG BKN250=
202312231311 KPWT 231311Z 2313/2412 00000KT 1/4SM FG VV003 FM232000 04003KT
                       4SM BR BKN007 FM232200 05002KT P6SM SCT250
                       FM240200 04002KT 1/4SM FG BKN250=
202312231135 TAF KPWT 231135Z 2312/2412 00000KT 1/4SM FG VV001 FM232000 04003KT
                       4SM BR BKN007 FM232200 05002KT P6SM SCT250
                       FM240200 04002KT 1/4SM FG BKN250=
202312230520 TAF KPWT 230520Z 2306/2406 07003KT 1SM BR BKN001
                      TEMPO 2306/2308 1/2SM FZFG VV001 FM230800
                       00000KT 1/4SM FZFG VV001 FM231600 00000KT
                       5SM BR OVC003 FM232100 05005KT P6SM SCT250=
202312230404 KPWT 230404Z 2304/2324 00000KT 1/2SM FG VV001 FM231600 00000KT
                       5SM BR OVC003 FM232100 05005KT P6SM SCT250=
202312230102 KPWT 230102Z 2301/2324 00000KT 1/2SM FG SCT002
                      TEMPO 2301/2304 1/2SM FG OVC002 FM231600
                       00000KT 5SM BR OVC003 FM232100 05005KT P6SM
                       SCT250=
202312222332 TAF KPWT 222332Z 2300/2324 05005KT P6SM FEW006 BKN015 FM230600
                       VRB03KT P6SM SCT008 BKN025 FM231000 00000KT
                       5SM BR OVC003 FM232100 05005KT P6SM SCT250=
202312221737 TAF KPWT 221737Z 2218/2318 02005KT P6SM -SHRA BKN007 OVC015 FM222000
                       32005KT P6SM -SHRA SCT007 BKN015 OVC030
                       FM222300 VRB05KT P6SM SCT020 BKN040 FM230600
                       22005KT P6SM SCT008 OVC020 FM231200 VRB03KT
                       5SM BR OVC005=
202312221142 TAF KPWT 221142Z 2212/2312 20012KT 5SM -RA BKN004 OVC040 FM221700
                       22014G22KT P6SM -SHRA SCT006 BKN015 OVC030
                       FM222300 22014KT P6SM SCT020 BKN040 FM230600
                       20008KT P6SM SCT008 OVC015=
202312220527 TAF KPWT 220527Z 2206/2306 22003KT 1/4SM FG OVC001 FM221100 20010G18KT
                       2SM -RA BR OVC007 FM221700 21011G19KT 6SM
                       BR VCSH BKN008 OVC015 FM222100 20012G18KT
                       P6SM SCT008 OVC015=
202312220133 KPWT 220133Z 2202/2224 25003KT 1/4SM FG OVC003 FM221100 20010G18KT
                       2SM -RA BR OVC007 FM221700 21011G19KT 6SM
                       BR VCSH BKN008 OVC015 FM222100 20012G18KT
                       P6SM SCT008 OVC015=
202312212334 TAF KPWT 212334Z 2200/2224 20003KT 1/2SM FG OVC003 FM220100 20003KT
                       2SM BR OVC006 FM220400 21005KT 1/2SM FG
                       OVC003 FM221100 20010G18KT 2SM -RA BR OVC007
                       FM221700 21011G19KT 6SM BR VCSH BKN008 OVC015
                       FM222100 20012G18KT P6SM SCT008 OVC015=
202312212210 KPWT 212210Z 2122/2218 20003KT 1/4SM FG OVC002 FM212300 19003KT
                       2SM BR OVC005 FM220100 20003KT 4SM BR OVC006
                       FM220400 21005KT 1/2SM FG SCT003 OVC008
                       FM220900 21010KT 4SM BR OVC007 FM221200
                       21012G25KT 4SM -RA BR OVC007=
202312211736 TAF KPWT 211736Z 2118/2218 20003KT 1/4SM FG OVC002 FM212200 19003KT
                       2SM BR OVC005 FM220100 20003KT 4SM BR OVC006
                       FM220400 21005KT 1/2SM FG SCT003 OVC008
                       FM220900 21010KT 4SM BR OVC007 FM221200
                       21012G25KT 4SM -RA BR OVC007=
202312211145 TAF KPWT 211145Z 2112/2212 15004KT 1/4SM FG OVC002 FM212200 15004KT
                       1SM BR OVC002 FM220100 15004KT 4SM BR OVC006
                       FM220400 15006KT P6SM SCT008 OVC100=
202312210520 TAF KPWT 210520Z 2106/2206 00000KT 1/4SM FG OVC001 FM220000 18004KT
                       1 1/2SM BR OVC001 FM220300 17003KT 2SM BR
                       OVC004=
202312210010 KPWT 210010Z 2100/2124 VRB03KT 1/4SM FG OVC001 FM212000 VRB03KT
                       1SM BR OVC003=
202312202321 TAF KPWT 202321Z 2100/2124 VRB03KT 1SM BR OVC001 FM210200 00000KT
                       1/4SM FG OVC001 FM212000 VRB03KT 1SM BR
                       OVC003=
202312202205 KPWT 202205Z 2022/2118 VRB03KT 1/4SM FG OVC001 FM210200 VRB03KT
                       4SM BR OVC004 FM210600 00000KT 1/4SM FG
                       OVC001=
202312202000 KPWT 202000Z 2020/2118 20003KT 3SM BR BKN005 BKN200
                      TEMPO 2020/2022 1/4SM FG VV001 FM202200 21004KT
                       6SM BR SCT007 BKN200 FM210200 VRB03KT 4SM
                       BR OVC004 FM210600 00000KT 1/4SM FG OVC001=
202312201720 TAF KPWT 201720Z 2018/2118 00000KT 1/4SM FG VV001 FM202000 20003KT
                       3SM BR BKN005 BKN200 FM202200 21004KT 6SM
                       BR SCT007 BKN200 FM210200 VRB03KT 4SM BR
                       OVC004 FM210600 00000KT 1/4SM FG OVC001=
202312201132 TAF KPWT 201132Z 2012/2112 00000KT 1/4SM FG VV001 FM201800 20003KT
                       3SM BR BKN005 BKN200 FM202000 21004KT 6SM
                       BR SCT007 BKN200 FM210500 VRB03KT 4SM BR
                       OVC004=
202312200541 TAF KPWT 200541Z 2006/2106 00000KT 1/4SM FG OVC003 FM202000 21004KT
                       6SM BR OVC012 FM210400 VRB03KT 2SM BR OVC007=
202312200332 KPWT 200332Z 2004/2024 22004KT 6SM BR BKN003 OVC035 FM200700 VRB02KT
                       P6SM SCT010 BKN035 FM201300 00000KT 1/2SM
                       FG OVC003 FM202000 VRB03KT 6SM BR OVC015=
202312192343 TAF KPWT 192343Z 2000/2024 21003KT 5SM BR OVC010
                      TEMPO 2000/2002 21005KT 6SM BR OVC003 FM200300
                       VRB03KT 5SM BR SCT010 OVC030 FM200700 VRB02KT
                       P6SM SCT010 BKN035 FM201300 00000KT 1/2SM
                       FG OVC003 FM202000 VRB03KT 6SM BR OVC015=
202312192251 KPWT 192251Z 1923/2018 VRB04KT P6SM -RA OVC005
                      TEMPO 1923/1924 4SM BR FM200000 20003KT 5SM
                       BR VCSH OVC015 FM200300 VRB03KT 5SM BR SCT010
                       OVC030 FM200700 VRB02KT 3SM BR SCT006 BKN030
                       FM201300 00000KT 1/2SM FG OVC003=
202312192002 KPWT 192002Z 1920/2018 04004KT 5SM -RA BR OVC010
                      TEMPO 1920/1922 2SM RA BR OVC005 FM200000
                       20003KT 5SM BR VCSH OVC015 FM200300 VRB03KT
                       5SM BR SCT010 OVC030 FM200700 VRB02KT 3SM
                       BR SCT006 BKN030 FM201300 00000KT 1/2SM
                       FG OVC003=
202312191925 KPWT 191925Z 1919/2018 VRB03KT 2SM -RA BR OVC010 FM192000 04004KT
                       5SM -RA BR OVC010 FM200000 20003KT 5SM BR
                       VCSH OVC015 FM200300 VRB03KT 5SM BR SCT010
                       OVC030 FM200700 VRB02KT 3SM BR SCT006 BKN030
                       FM201300 00000KT 1/2SM FG OVC003=
202312191725 TAF KPWT 191725Z 1918/2018 VRB03KT P6SM -RA OVC035 FM192000 04004KT
                       5SM -RA BR OVC015 FM200000 20003KT 5SM BR
                       VCSH OVC010 FM200300 VRB03KT 5SM BR SCT010
                       OVC030 FM200700 VRB02KT 3SM BR SCT006 BKN030
                       FM201300 00000KT 1/2SM FG OVC003=
202312191138 TAF KPWT 191138Z 1912/2012 00000KT P6SM VCSH BKN040 OVC070 FM191400
                       VRB03KT P6SM -RA OVC035 FM191700 04004KT
                       6SM -RA BR OVC018 FM200000 20003KT 5SM BR
                       VCSH OVC010 FM200700 VRB02KT 5SM BR OVC006=
202312190543 TAF KPWT 190543Z 1906/2006 VRB02KT P6SM VCSH OVC035 FM191000 00000KT
                       P6SM -SHRA OVC020 FM191400 VRB03KT P6SM
                       -RA OVC035 FM191700 04006KT 5SM -SHRA OVC015
                       FM200000 20003KT 4SM BR OVC008=
202312190029 KPWT 190029Z 1900/1924 VRB04KT 4SM -RA BR OVC003 FM190400 VRB03KT
                       5SM -SHRA BR BKN011 OVC025 FM191000 00000KT
                       P6SM -SHRA OVC020 FM191600 04006KT 4SM -SHRA
                       BKN015 OVC035=
202312182346 TAF KPWT 182346Z 1900/1924 VRB04KT 6SM -RA BKN025 OVC045 FM190400
                       VRB03KT 5SM -SHRA BR BKN011 OVC025 FM191000
                       00000KT P6SM -SHRA OVC020 FM191600 04006KT
                       4SM -SHRA BKN015 OVC035=
202312181917 KPWT 181917Z 1819/1918 00000KT 6SM -RA BR FEW003 BKN050 OVC120
                       FM182200 VRB04KT P6SM -SHRA BKN025 OVC050
                       FM190300 04004KT 5SM -SHRA BR BKN011 OVC025
                       FM191000 07003KT P6SM -SHRA OVC020
                      TEMPO 1911/1915 1SM -RA BR OVC005 FM191500
                       04006KT P6SM -SHRA BKN015 OVC035=
202312181849 TAF KPWT 181849Z 1819/1918 VRB03KT 3SM -RA BR OVC003 FM182000 VRB03KT
                       6SM -RA BR SCT004 BKN080 OVC120 FM182200
                       VRB04KT P6SM -SHRA BKN025 OVC050 FM190300
                       04004KT 5SM -SHRA BR BKN011 OVC025=
202312181610 KPWT 181610Z 1816/1912 VRB03KT 1/4SM FG OVC002
                      TEMPO 1816/1818 2SM BR SCT003 SCT060 BKN100
                       FM181800 VRB03KT 6SM BR SCT004 BKN080 OVC120
                       FM182200 VRB04KT P6SM -SHRA BKN025 OVC050
                       FM190300 04004KT 5SM -SHRA BR BKN011 OVC025=
202312181120 TAF KPWT 181120Z 1812/1912 VRB03KT 6SM BR SCT002 OVC100
                      TEMPO 1812/1816 1/2SM FG VV002 FM181600 VRB03KT
                       6SM BR SCT004 BKN080 OVC120 FM182200 VRB04KT
                       P6SM -SHRA BKN025 OVC050 FM190300 04004KT
                       5SM -SHRA BR BKN011 OVC025=
202312181033 KPWT 181033Z 1811/1906 VRB03KT P6SM FEW002 OVC100
                      TEMPO 1811/1815 5SM BR BKN002 FM181600 VRB03KT
                       P6SM BKN080 OVC120 FM182200 VRB04KT P6SM
                       -SHRA BKN015 OVC050=
202312180813 KPWT 180813Z 1808/1906 VRB03KT P6SM OVC100 FM181200 VRB03KT P6SM
                       BKN080 OVC120 FM182200 VRB04KT P6SM -SHRA
                       BKN015 OVC050=
202312180526 TAF KPWT 180526Z 1806/1906 00000KT 2SM BR SCT001
                      TEMPO 1806/1810 BKN001 FM181200 05002KT P6SM
                       OVC007 FM182200 VRB04KT P6SM -SHRA BKN015
                       OVC050=
202312180355 KPWT 180355Z 1804/1824 04003KT P6SM BKN100
                      TEMPO 1804/1806 1SM BR BKN001 FM180600 04003KT
                       1/4SM FG OVC001 FM181200 05002KT 1 1/2SM
                       BR OVC100 FM181900 25002KT P6SM VCSH OVC050=
202312180351 KPWT 180351Z 1804/1824 04003KT P6SM BKN100 FM180600 04003KT 1/4SM
                       FG OVC100 FM181200 05002KT 1 1/2SM BR OVC100
                       FM181900 25002KT P6SM VCSH OVC050=
202312172349 TAF KPWT 172349Z 1800/1824 04003KT P6SM BKN100 FM180300 04003KT
                       1/4SM FG OVC100 FM181200 05002KT 1 1/2SM
                       BR OVC100 FM181900 25002KT P6SM VCSH OVC050=
202312171743 TAF KPWT 171743Z 1718/1818 03003KT 1/2SM FG BKN003 FM172000 04003KT
                       P6SM BKN100 FM180300 04003KT 1/4SM FG OVC100
                       FM181200 05002KT 1 1/2SM BR OVC100=
202312171543 KPWT 171543Z 1716/1812 VRB03KT 1/2SM FZFG VV001 FM171700 03003KT
                       1/2SM FG BKN003 FM172000 04003KT P6SM BKN100
                       FM180300 07004KT P6SM BKN120 OVC200 FM180900
                       04003KT 6SM BR SCT005 OVC100=
202312171514 KPWT 171514Z 1715/1812 VRB03KT 1/2SM FG BKN100 FM171800 03003KT
                       3SM BR BKN003 FM172000 04006KT P6SM BKN200
                       FM180300 07004KT P6SM BKN120 OVC200 FM180900
                       04003KT 6SM BR SCT005 OVC100=
202312171134 TAF KPWT 171134Z 1712/1812 00000KT 2SM BR SCT002
                      TEMPO 1712/1714 1/2SM FG VV001 FM171400 VRB02KT
                       1/2SM FG VV001 FM171800 03003KT 3SM BR BKN003
                       FM172000 04006KT P6SM BKN200 FM180300 07004KT
                       P6SM BKN120 OVC200 FM180900 04003KT 6SM
                       BR SCT005 OVC100=
202312170522 TAF KPWT 170522Z 1706/1806 00000KT 1/2SM FZFG VV001 FM171200 VRB03KT
                       1/2SM FG OVC004 FM172000 04006KT P6SM BKN250=
202312170422 KPWT 170422Z 1704/1724 00000KT 1SM BR SCT005 SCT250 FM171000 VRB03KT
                       1/2SM FG OVC004 FM172000 04006KT P6SM BKN250=
202312162329 TAF KPWT 162329Z 1700/1724 00000KT P6SM SCT250 FM170600 VRB03KT
                       1SM BR SCT005 SCT250 FM171000 VRB03KT 1/2SM
                       FG OVC004 FM172000 04006KT P6SM BKN250=
202312161732 TAF KPWT 161732Z 1618/1718 VRB03KT P6SM BKN200 FM170000 00000KT
                       P6SM SCT250 FM170600 VRB03KT 1SM BR SCT005
                       SCT250 FM171000 VRB03KT 1/2SM FG OVC004=
202312161356 KPWT 161356Z 1614/1712 00000KT P6SM FEW250
                      TEMPO 1614/1618 2SM BR OVC002 FM161800 VRB03KT
                       P6SM SCT250 FM162000 VRB03KT P6SM SCT250
                       FM170000 00000KT P6SM SCT250 FM170600 VRB03KT
                       1SM BR SCT005 SCT250 FM171000 VRB03KT 1/2SM
                       FG OVC004=
202312161123 TAF KPWT 161123Z 1612/1712 00000KT 1SM BR FEW250
                      TEMPO 1612/1616 1/2SM FG OVC002 FM161800
                       VRB03KT 3SM BR BKN008 FM162000 VRB03KT P6SM
                       SCT250 FM170000 00000KT P6SM SCT250 FM170600
                       VRB03KT 1SM BR SCT005 SCT250=
202312160852 KPWT 160852Z 1609/1706 00000KT 1SM BR FEW250
                      TEMPO 1609/1612 1/2SM FG OVC002 FM161200
                       00000KT 1/2SM FG OVC002 FM161800 VRB03KT
                       4SM BR BKN008 FM162000 20004KT P6SM SCT250
                       FM170000 00000KT P6SM SCT250=
202312160533 TAF KPWT 160533Z 1606/1706 00000KT 1/2SM FG OVC002 FM161800 VRB03KT
                       4SM BR BKN008 FM162000 20004KT P6SM SCT250
                       FM170000 00000KT P6SM SCT250=
202312160139 KPWT 160139Z 1602/1624 00000KT 1 1/2SM BR SCT003 SCT250
                      TEMPO 1602/1606 1/2SM FG BKN003 FM160600
                       00000KT 1/2SM FG OVC002 FM161800 VRB03KT
                       4SM BR BKN008 FM162000 20004KT P6SM SCT250=
202312152324 TAF KPWT 152324Z 1600/1624 VRB02KT P6SM BKN250 FM161500 00000KT
                       1/2SM FG OVC003 FM161800 VRB03KT 4SM BR
                       BKN008 FM162000 20004KT P6SM SCT250=
202312151745 TAF KPWT 151745Z 1518/1618 VRB03KT 3SM BR SCT120 FM152000 10003KT
                       P6SM SCT015 OVC040 FM152200 13003KT P6SM
                       BKN250 FM160200 VRB03KT 5SM BR SCT250 FM160800
                       00000KT 1/2SM FG OVC003=
202312151625 KPWT 151625Z 1516/1612 VRB03KT P6SM SCT040 OVC060
                      TEMPO 1516/1518 00000KT 1/4SM FG BKN002 FM152000
                       10003KT P6SM SCT015 OVC040 FM152200 13003KT
                       P6SM BKN250 FM160200 VRB03KT 5SM BR SCT250
                       FM160800 00000KT 1/2SM FG OVC003=
202312151554 KPWT 151554Z 1516/1612 VRB03KT P6SM SCT040 OVC060
                      TEMPO 1516/1518 00000KT 1/2SM FG BKN002 FM152000
                       10003KT P6SM SCT015 OVC040 FM152200 13003KT
                       P6SM BKN250 FM160200 VRB03KT 5SM BR SCT250
                       FM160800 00000KT 1/2SM FG OVC003=
202312151319 KPWT 151319Z 1513/1612 VRB03KT P6SM SCT040 OVC060
                      TEMPO 1513/1516 1SM BR OVC007 FM152000 10003KT
                       P6SM SCT015 OVC040 FM152200 13003KT P6SM
                       BKN250 FM160200 VRB03KT 5SM BR SCT250 FM160800
                       00000KT 1/2SM FG OVC003=
202312151120 TAF KPWT 151120Z 1512/1612 VRB03KT P6SM SCT040 OVC060
                      TEMPO 1512/1516 4SM BR OVC007 FM152000 10003KT
                       P6SM SCT015 OVC040 FM152200 13003KT P6SM
                       BKN250 FM160200 VRB03KT 5SM BR SCT250 FM160800
                       00000KT 1/2SM FG OVC003=
202312151006 KPWT 151006Z 1510/1606 04003KT P6SM SCT025 OVC045
                      TEMPO 1510/1513 1SM BR SCT017 OVC024 FM151300
                       04003KT 4SM BR OVC007 FM152000 10003KT P6SM
                       BKN015 FM152200 10003KT P6SM BKN250=
202312150537 TAF KPWT 150537Z 1506/1606 04003KT P6SM SCT017 OVC024 FM151300
                       04003KT 4SM BR OVC007 FM152000 10003KT P6SM
                       BKN015 FM152200 10003KT P6SM BKN250=
202312150337 KPWT 150337Z 1504/1524 07003KT P6SM SCT004 BKN023 FM151300 VRB02KT
                       4SM BR OVC007 FM152000 14003KT P6SM BKN015
                       FM152200 14003KT P6SM BKN250=
202312150203 KPWT 150203Z 1502/1524 04006KT 3SM BR OVC002 FM151300 VRB02KT 4SM
                       BR OVC007 FM152000 14003KT P6SM BKN015 FM152200
                       14003KT P6SM BKN250=
202312142324 TAF KPWT 142324Z 1500/1524 VRB03KT P6SM OVC005 FM150300 00000KT
                       6SM BR OVC020 FM151300 VRB02KT 4SM BR OVC007
                       FM152000 14003KT P6SM BKN015 FM152200 14003KT
                       P6SM BKN250=
202312141914 KPWT 141914Z 1419/1518 03003KT P6SM OVC025
                      TEMPO 1419/1421 P6SM OVC003 FM151500 VRB02KT
                       4SM BR OVC003=
202312141737 TAF KPWT 141737Z 1418/1518 03003KT P6SM OVC025
                      TEMPO 1418/1419 3SM -RA BR OVC003 FM151500
                       VRB02KT 4SM BR OVC003=
202312141611 KPWT 141611Z 1416/1512 20003KT 6SM -RA BR OVC003 FM141800 20004KT
                       P6SM OVC010 FM142300 VRB03KT P6SM FEW025
                       OVC040 FM150800 02004KT P6SM OVC025=
202312141610 KPWT 141610Z 1416/1512 20003KT 5SM -RA BR OVC015 FM141800 20004KT
                       P6SM OVC010 FM142300 VRB03KT P6SM FEW025
                       OVC040 FM150800 02004KT P6SM OVC025=
202312141120 TAF KPWT 141120Z 1412/1512 VRB02KT 6SM -RA OVC035 FM141300 VRB03KT
                       5SM -RA BR OVC015 FM142000 VRB03KT P6SM
                       OVC015 FM150000 03003KT P6SM OVC030=
202312140539 TAF KPWT 140539Z 1406/1506 20003KT P6SM SCT100 BKN200 FM141000
                       VRB02KT 6SM -RA OVC050 FM141200 VRB03KT
                       5SM -RA BR OVC015 FM142000 VRB03KT P6SM
                       OVC015 FM150000 05003KT P6SM OVC030=
202312132339 TAF KPWT 132339Z 1400/1424 21004KT P6SM BKN250 FM141000 VRB02KT
                       6SM -RA OVC050 FM141800 VRB03KT 5SM -RA
                       BR OVC025=
202312131740 TAF KPWT 131740Z 1318/1418 VRB02KT P6SM BKN250 FM140000 21004KT
                       P6SM BKN100 FM140900 VRB03KT P6SM -RA OVC050=
202312131602 KPWT 131602Z 1316/1412 00000KT P6SM BKN200 FM131700 22005KT P6SM
                       OVC200 FM140100 VRB04KT P6SM BKN150 FM140600
                       VRB03KT 4SM -RA BR OVC005=
202312131120 TAF KPWT 131120Z 1312/1412 VRB03KT 1/4SM FG OVC002
                      TEMPO 1312/1316 5SM BR SCT005 FM131700 22005KT
                       P6SM OVC250 FM140100 VRB04KT P6SM BKN150
                       FM140600 VRB03KT 4SM -RA BR OVC005=
202312130741 KPWT 130741Z 1308/1406 VRB03KT 1/4SM FG OVC002
                      TEMPO 1308/1312 4SM BR SCT005 FM131700 22005KT
                       P6SM OVC250 FM140100 VRB04KT P6SM BKN150=
202312130524 TAF KPWT 130524Z 1306/1406 VRB03KT 1/4SM FG OVC002 FM131700 22005KT
                       P6SM OVC250 FM140100 VRB04KT P6SM BKN150=
202312130304 KPWT 130304Z 1303/1324 VRB03KT 6SM BR FEW005 SCT250
                      TEMPO 1303/1306 1/2SM FG BKN005 FM131700
                       22005KT P6SM OVC250=
202312122337 TAF KPWT 122337Z 1300/1324 VRB03KT P6SM SCT250 FM130400 VRB03KT
                       6SM BR SCT250 FM131700 22005KT P6SM OVC250=
202312121738 TAF KPWT 121738Z 1218/1318 05004KT P6SM BKN005 FM121900 04005KT
                       P6SM OVC015 FM122100 05005KT P6SM SCT250
                       FM130800 VRB03KT P6SM BKN050 FM131100 19005KT
                       P6SM OVC020=
202312121630 KPWT 121630Z 1217/1312 VRB04KT 5SM BR OVC004 FM121800 05003KT P6SM
                       BKN015 FM122200 VRB03KT P6SM SCT025 BKN120
                       FM130800 VRB03KT P6SM OVC007=
202312121120 TAF KPWT 121120Z 1212/1312 VRB04KT P6SM OVC012
                      TEMPO 1212/1216 1/4SM FG OVC003 FM122000
                       05003KT P6SM BKN015 FM122200 VRB03KT P6SM
                       SCT025 BKN120 FM130800 VRB03KT P6SM OVC007=
202312120903 KPWT 120903Z 1209/1306 VRB03KT P6SM OVC012 FM121000 00000KT 1/4SM
                       FG OVC003 FM122000 05003KT P6SM BKN007 FM122200
                       VRB03KT P6SM SCT025 BKN120=
202312120520 TAF KPWT 120520Z 1206/1306 VRB03KT P6SM OVC012
                      TEMPO 1206/1209 5SM BR OVC007 FM120900 00000KT
                       1/4SM FG OVC003 FM122000 05003KT P6SM BKN007
                       FM122200 VRB03KT P6SM SCT025 BKN120=
202312112339 TAF KPWT 112339Z 1200/1224 03008KT P6SM OVC009 FM120600 VRB03KT
                       5SM BR OVC007 FM120900 00000KT 1/4SM FG
                       OVC003 FM122100 05003KT P6SM BKN007 FM122200
                       05002KT P6SM SCT025 BKN120=
202312111740 TAF KPWT 111740Z 1118/1218 04009KT P6SM BKN007 FM111900 04004KT
                       P6SM SCT009 OVC015 FM112200 04005KT P6SM
                       OVC020 FM120500 00000KT 1/2SM FG OVC003=
202312111546 KPWT 111546Z 1116/1212 03008KT P6SM SCT009 BKN015 FM111900 03004KT
                       P6SM BKN009 BKN025 FM112200 04005KT P6SM
                       BKN020 BKN040 FM120600 00000KT 1SM BR OVC003=
202312111140 TAF KPWT 111140Z 1112/1212 03003KT P6SM -RA BKN015 BKN025 FM111400
                       04002KT 4SM BR OVC003 FM111900 03004KT P6SM
                       BKN009 BKN025 FM112200 03005KT P6SM BKN020
                       BKN040 FM120600 00000KT 4SM BR OVC003=
202312110520 TAF KPWT 110520Z 1106/1206 VRB03KT 5SM BR OVC005 FM111800 03004KT
                       P6SM BKN009 BKN025 FM112200 03005KT P6SM
                       BKN022 BKN040=
202312110241 KPWT 110241Z 1102/1124 VRB03KT 5SM BR OVC005 FM111800 03004KT P6SM
                       BKN009 BKN025 FM112200 03005KT P6SM BKN022
                       BKN040=
202312110227 KPWT 110227Z 1102/1124 26003KT P6SM SCT005 FM110400 19006KT 6SM
                       BR BKN007 OVC022 FM110600 VRB03KT 5SM BR
                       OVC005 FM111800 03004KT P6SM BKN009 BKN025
                       FM112200 03005KT P6SM BKN022 BKN040=
202312102337 TAF KPWT 102337Z 1100/1124 21008KT P6SM BKN005 BKN027
                      TEMPO 1100/1103 SCT007 BKN030 FM110300 19006KT
                       6SM BR BKN007 OVC022 FM110700 VRB03KT 5SM
                       BR OVC005 FM111800 03004KT P6SM BKN009 BKN025
                       FM112200 03005KT P6SM BKN022 BKN040=
202312102117 KPWT 102117Z 1021/1118 21008KT 3SM BR VCSH BKN005 OVC015 FM110300
                       VRB03KT 5SM BR BKN007 OVC015 FM110800 VRB03KT
                       4SM BR OVC004=
202312101905 KPWT 101905Z 1019/1118 20010KT 3SM -SHRA BR BKN005 OVC015 FM102100
                       21005KT 5SM BR VCSH BKN010 OVC015 FM110300
                       VRB03KT 5SM BR BKN007 OVC015 FM110800 VRB03KT
                       4SM BR OVC004=
202312101731 TAF KPWT 101731Z 1018/1118 20010KT 5SM -SHRA BR BKN005 OVC015 FM102100
                       21005KT 6SM BR VCSH BKN010 OVC015 FM110300
                       VRB03KT 5SM BR BKN007 OVC015 FM110800 VRB03KT
                       4SM BR OVC004=
202312101440 KPWT 101440Z 1015/1112 20010KT P6SM -RA BKN004 OVC015 FM102100
                       21005KT 6SM -SHRA BR BKN010 OVC015 FM110500
                       VRB03KT 4SM BR BKN007 OVC015 FM111100 VRB03KT
                       1 1/2SM BR OVC003=
202312101132 TAF KPWT 101132Z 1012/1112 20010KT P6SM -RA BKN006 OVC015 FM102100
                       21005KT 6SM -SHRA BR BKN010 OVC015 FM110500
                       VRB03KT 4SM BR BKN007 OVC015=
202312100546 TAF KPWT 100546Z 1006/1106 21007KT 3SM -RA BR OVC004 FM101200 20007KT
                       5SM -RA BR BKN007 OVC015 FM102100 21005KT
                       6SM -SHRA BR BKN009 OVC020 FM110100 VRB03KT
                       5SM BR BKN010 OVC020=
202312100156 KPWT 100156Z 1002/1024 21007KT 3SM -RA BR OVC004 FM101200 20007KT
                       5SM -RA BR BKN007 OVC015 FM102100 21005KT
                       6SM -SHRA BR BKN009 OVC020=
202312092340 TAF KPWT 092340Z 1000/1024 21007KT 4SM -RA BR BKN010 OVC020 FM100500
                       20008KT 3SM RA BR OVC006 FM101200 20007KT
                       5SM -RA BR BKN007 OVC015 FM102100 21005KT
                       6SM -SHRA BR BKN009 OVC020=
202312091958 KPWT 091958Z 0920/1018 23006KT 3SM -RA BR OVC010
                      TEMPO 0920/0923 1SM -RASN BR OVC004 FM092300
                       22007KT 4SM -RA BR OVC006 FM100500 20009KT
                       3SM RA BR OVC005=
202312091735 TAF KPWT 091735Z 0918/1018 23006KT 6SM -RA BR OVC025 FM092000 22007KT
                       4SM -RA BR OVC010 FM100500 20009KT 3SM RA
                       BR OVC007=
202312091450 KPWT 091450Z 0915/1012 00000KT 3SM BR BKN110 FM091800 23006KT 6SM
                       -RA BR OVC015 FM092200 22007KT 2SM -RA BR
                       OVC007 FM100600 20009KT 4SM -RA BR BKN010
                       OVC020=
202312091139 TAF KPWT 091139Z 0912/1012 00000KT 3SM BR BKN150
                      TEMPO 0912/0915 1SM BR SCT001 FM091800 23006KT
                       6SM -RA BR OVC015 FM092200 22007KT 2SM -RA
                       BR OVC007 FM100600 20009KT 4SM -RA BR BKN010
                       OVC020=
202312090557 TAF KPWT 090557Z 0906/1006 00000KT P6SM OVC050 FM091800 23006KT
                       6SM -RA BR OVC015 FM092200 22007KT 2SM -RA
                       BR OVC007=
202312082320 TAF KPWT 082320Z 0900/0924 06002KT P6SM SCT015 BKN050 FM090200
                       VRB03KT P6SM BKN100 FM090600 00000KT P6SM
                       OVC050 FM091800 23006KT 6SM -RA BR OVC015
                       FM092200 22007KT 2SM -RA BR OVC007=
202312081734 TAF KPWT 081734Z 0818/0918 VRB02KT P6SM OVC012 FM082200 06002KT
                       P6SM SCT015 BKN050 FM090200 VRB03KT P6SM
                       BKN100 FM090600 00000KT P6SM OVC050=
202312081607 KPWT 081607Z 0816/0912 00000KT P6SM OVC012 FM082200 06002KT P6SM
                       BKN050 FM090200 VRB03KT P6SM BKN100=
202312081139 TAF KPWT 081139Z 0812/0912 00000KT P6SM FEW100 FM081900 17004KT
                       P6SM BKN050 FM090200 VRB03KT P6SM BKN100=
202312080520 TAF KPWT 080520Z 0806/0906 00000KT P6SM OVC017 FM081200 00000KT
                       P6SM OVC015 FM081900 20003KT P6SM BKN050
                       FM090200 VRB03KT P6SM SCT050 BKN100=
202312072333 TAF KPWT 072333Z 0800/0824 13005KT P6SM BKN019 OVC110 FM080400
                       22004KT P6SM OVC025 FM081200 22003KT P6SM
                       OVC015 FM081900 20003KT P6SM BKN050=
202312071802 KPWT 071802Z 0718/0818 23003KT P6SM -SHRA SCT010 BKN030 BKN050
                       TEMPO 0718/0720 2SM -SHRA BR OVC010 FM080000
                       17007KT P6SM BKN030 OVC040 FM080400 22004KT
                       P6SM OVC025=
202312071729 TAF KPWT 071729Z 0718/0818 23003KT P6SM -SHRA BKN035 BKN050 FM080000
                       17007KT P6SM BKN030 OVC040 FM080400 22004KT
                       P6SM OVC025=
202312071604 KPWT 071604Z 0716/0812 19010G16KT P6SM -SHRA OVC035 FM071800 35006KT
                       P6SM OVC015 FM080000 17007KT P6SM BKN030
                       OVC040 FM080400 22004KT P6SM OVC025=
202312071140 TAF KPWT 071140Z 0712/0812 21006KT P6SM -RA BKN020 BKN030 FM071500
                       20006KT P6SM VCSH OVC015 FM072100 35006KT
                       P6SM OVC015 FM080000 17007KT P6SM BKN030
                       OVC040 FM080400 22004KT P6SM OVC025=
202312070845 KPWT 070845Z 0709/0806 00000KT 4SM -RA BR OVC006 FM071300 20004KT
                       P6SM VCSH OVC015 FM072100 19009KT P6SM OVC010
                       FM080000 18007KT P6SM BKN030 OVC040=
202312070549 TAF KPWT 070549Z 0706/0806 00000KT 5SM -SHRA BR OVC007 FM070700
                       19003KT 2SM BR OVC004 FM070900 19003KT 4SM
                       -RA BR OVC008 FM072100 19009KT P6SM OVC010
                       FM080000 18007KT P6SM BKN030 OVC040=
202312070023 KPWT 070023Z 0700/0724 00000KT 5SM -RA BR FEW009 BKN015 OVC025
                       FM070800 19003KT 2SM BR OVC004 FM071200
                       19003KT 4SM -RA BR OVC008 FM072100 19009KT
                       P6SM OVC010=
202312062322 TAF KPWT 062322Z 0700/0724 00000KT 1 1/2SM -RA BR FEW003 BKN012
                       OVC020 FM070800 19003KT 2SM BR OVC004 FM071200
                       19003KT 4SM -RA BR OVC008 FM072100 19009KT
                       P6SM OVC010=
202312061732 TAF KPWT 061732Z 0618/0718 04003KT 1 1/2SM -RA BR OVC005 FM061900
                       04004KT 3SM BR OVC008 FM070600 19003KT 2SM
                       BR OVC004 FM071200 19003KT 4SM -RA BR OVC008=
202312061257 KPWT 061257Z 0613/0712 VRB03KT 3SM BR OVC003 FM061800 03004KT 4SM
                       BR OVC010 FM062200 05004KT P6SM OVC015 FM070200
                       VRB03KT 3SM BR OVC012 FM070800 00000KT 3SM
                       BR OVC009=
202312061142 TAF KPWT 061142Z 0612/0712 00000KT 3SM BR FEW002 BKN012 FM061500
                       VRB03KT 3SM -RA BR OVC006 FM061800 03004KT
                       4SM BR OVC010 FM062200 05004KT P6SM OVC015
                       FM070200 VRB03KT 3SM BR OVC012 FM070800
                       00000KT 3SM BR OVC009=
202312060733 KPWT 060733Z 0608/0706 00000KT P6SM BKN050 FM061200 00000KT 2SM
                       BR OVC006 FM061800 03004KT 4SM BR OVC007
                       FM062200 04004KT P6SM OVC015 FM070200 VRB03KT
                       3SM BR OVC010=
202312060521 TAF KPWT 060521Z 0606/0706 VRB03KT 4SM -RA BR OVC004
                      TEMPO 0606/0608 6SM BR SCT035 OVC050 FM061800
                       03004KT 4SM BR OVC007 FM062200 04004KT P6SM
                       OVC015 FM070200 VRB03KT 3SM BR OVC010=
202312060125 KPWT 060125Z 0601/0624 00000KT P6SM -RA FEW010 SCT040 OVC050
                      TEMPO 0601/0605 OVC003 FM060600 06003KT 4SM
                       -RA BR OVC004 FM061800 03004KT 4SM BR OVC007=
202312052327 TAF KPWT 052327Z 0600/0624 00000KT P6SM -RA FEW010 SCT040 OVC050
                       FM060600 06003KT 4SM -RA BR OVC004 FM061800
                       03004KT 4SM BR OVC007=
202312051813 KPWT 051813Z 0518/0618 23003KT P6SM -RA BKN004 BKN011 OVC045 FM052300
                       VRB03KT 4SM -RA BR OVC007 FM060400 06003KT
                       4SM -RA BR OVC004=
202312051727 TAF KPWT 051727Z 0518/0618 22006KT P6SM -RA FEW035 OVC045 FM052300
                       VRB03KT 4SM -RA BR OVC007 FM060400 06003KT
                       4SM -RA BR OVC004=
202312051456 KPWT 051456Z 0515/0612 20010KT P6SM -RA FEW007 OVC035 FM051700
                       21006KT 4SM -RA BR OVC020 FM052300 VRB03KT
                       4SM -RA BR OVC007 FM060400 06003KT 4SM -RA
                       BR OVC007=
202312051142 TAF KPWT 051142Z 0512/0612 21015G20KT 5SM RA BR OVC006 FM051700
                       21006KT 4SM -RA BR OVC015 FM052300 VRB03KT
                       4SM -RA BR OVC007 FM060400 06003KT 4SM -RA
                       BR OVC007=
202312050521 TAF KPWT 050521Z 0506/0606 20011G20KT 4SM -RA BR OVC004 FM051200
                       20011KT 4SM -RA BR OVC005 FM051700 21004KT
                       4SM -RA BR OVC010 FM052300 VRB03KT 4SM -RA
                       BR OVC007=
202312042340 TAF KPWT 042340Z 0500/0524 VRB02KT 2SM -RA BKN008 FM050100 20011G20KT
                       4SM -RA BR OVC008 FM051200 20011KT 4SM -RA
                       BR OVC007=
202312041740 TAF KPWT 041740Z 0418/0518 VRB03KT 1SM -RA BR BKN008 OVC020 FM042200
                       19012KT 2SM -RA BKN008 FM050100 20011G20KT
                       4SM -RA BR OVC015 FM051200 20011KT 4SM -RA
                       BR OVC007=
202312041147 TAF KPWT 041147Z 0412/0512 12008KT P6SM OVC035 FM041500 14008KT
                       P6SM -RA BKN022 OVC035 FM041800 17010KT
                       4SM -RA BR BKN008 OVC015 FM050000 19012KT
                       2SM -RA BKN004 OVC008=
202312040520 TAF KPWT 040520Z 0406/0506 20004KT P6SM SCT015 SCT100 FM041100
                       VRB03KT 4SM BR OVC010
                      TEMPO 0411/0415 1SM BR OVC007 FM041600 22004KT
                       2SM -RA BR OVC007 FM041900 20008KT 3SM -RA
                       BR OVC007 FM042300 20012G21KT 3SM -RA BR
                       OVC007=
202312040325 KPWT 040325Z 0403/0424 VRB02KT P6SM SCT015 OVC035
                      TEMPO 0403/0407 BKN010 FM041600 00000KT P6SM
                       -RA OVC050 FM041800 VRB02KT 2SM -RA BR OVC007=
202312032335 TAF KPWT 032335Z 0400/0424 VRB02KT P6SM SCT015 OVC035
                      TEMPO 0400/0401 BKN015 FM041600 00000KT P6SM
                       -RA OVC050 FM041800 VRB02KT 2SM -RA BR OVC007=
202312031903 KPWT 031903Z 0319/0418 22008KT 3SM -SHRA BKN007
                      TEMPO 0319/0321 BKN003 FM032300 19010KT P6SM
                       SCT020 BKN035 OVC050 FM041500 23002KT P6SM
                       -RA OVC050=
202312031731 TAF KPWT 031731Z 0318/0418 19008KT P6SM BKN015 FM032300 19010KT
                       P6SM SCT020 BKN035 OVC050 FM041500 23002KT
                       P6SM -RA OVC050=
202312031138 TAF KPWT 031138Z 0312/0412 VRB03KT P6SM OVC060 FM031400 VRB03KT
                       P6SM -RA OVC035 FM031600 19008KT 5SM -RA
                       SCT006 OVC020 FM031800 19008KT 3SM -RA BKN006
                       OVC011 FM032200 21010KT P6SM SCT006 BKN011
                       OVC020 FM040300 19010KT P6SM SCT020 BKN035
                       OVC050=
202312030840 KPWT 030840Z 0309/0406 VRB03KT 5SM BR OVC090 FM031200 VRB03KT P6SM
                       OVC060 FM031500 VRB03KT P6SM -RA OVC035
                       FM032000 21010KT 2SM -RA BR OVC007 FM040100
                       20005KT 5SM -SHRA BR OVC010=
202312030523 TAF KPWT 030523Z 0306/0406 16008KT P6SM OVC010 FM031000 VRB03KT
                       4SM -RA BR OVC005 FM032000 21010KT 2SM -RA
                       BR OVC007 FM040100 20005KT 5SM -SHRA BR
                       OVC010=
202312030001 TAF KPWT 030001Z 0306/0406 18008KT P6SM SCT050 BKN100 FM031000
                       18008KT 5SM -RA OVC030 FM031300 00000KT
                       4SM -RA BR OVC007 FM032300 21011KT P6SM
                       VCSH OVC015=
202312021739 TAF KPWT 021739Z 0218/0318 21008KT P6SM SCT020 FM030200 18008KT
                       P6SM SCT050 BKN100 FM031000 18008KT 5SM
                       -RA OVC030=
202312021509 KPWT 021509Z 0215/0312 21008KT P6SM SCT020
                      TEMPO 0216/0219 BKN020 FM021900 18008KT P6SM
                       SCT025 BKN050 FM030600 18008KT P6SM SCT050
                       BKN100 FM031000 18008KT 5SM -RA OVC035=
202312021141 TAF KPWT 021141Z 0212/0312 19018G28KT P6SM -RA BKN006 OVC011 FM021400
                       19018G28KT P6SM SCT006 BKN011 OVC020 FM021800
                       19012G22KT P6SM SCT020 BKN040 FM030000 18008KT
                       P6SM BKN050 FM030600 18008KT P6SM SCT050
                       BKN100 FM031000 18008KT 5SM -RA OVC035=
202312020528 TAF KPWT 020528Z 0206/0306 18012G20KT 6SM -RA SCT006 BKN025 FM020900
                       20018G30KT 4SM -RA BKN009 OVC015 FM021200
                       21010G20KT P6SM BKN020 FM021800 20009KT
                       P6SM BKN030 FM030300 21002KT P6SM OVC050=
202312012321 TAF KPWT 012321Z 0200/0224 20005KT P6SM SCT025 FM020400 18010KT
                       4SM -RA SCT006 OVC012 FM020900 20018G30KT
                       5SM -RA BKN009 OVC015 FM021500 21010KT P6SM
                       BKN020 FM022000 20008KT P6SM BKN030=
202312012000 KPWT 012000Z 0120/0218 22012KT P6SM SCT010 FM020400 18010KT 4SM
                       -RA SCT006 OVC012 FM020900 20018G30KT 5SM
                       -RA SCT009 OVC015 FM021500 21010KT P6SM
                       BKN020=
202312011736 TAF KPWT 011736Z 0118/0218 20010KT P6SM BKN005 OVC009 FM012000
                       22008KT P6SM SCT009 BKN015 FM020400 18010KT
                       4SM -RA SCT006 OVC012 FM020900 20018G30KT
                       5SM -RA SCT009 OVC015 FM021500 21010KT P6SM
                       BKN020=
202312011619 KPWT 011619Z 0116/0212 20012G20KT P6SM -RA SCT003 OVC006
                      TEMPO 0116/0118 OVC003 FM012000 20012G20KT
                       P6SM -SHRA SCT006 BKN012 OVC020 FM012200
                       20012G20KT P6SM SCT015 BKN025 OVC040 FM020400
                       18010KT 4SM -RA SCT006 OVC012=
202312011152 TAF KPWT 011152Z 0112/0212 20012G20KT P6SM -RA SCT003 OVC006
                      TEMPO 0112/0115 3SM -RA OVC003 FM011700 20012G20KT
                       P6SM -SHRA SCT006 BKN012 OVC020 FM012200
                       20012G20KT P6SM SCT015 BKN025 OVC040 FM020400
                       18010KT 4SM -RA SCT006 OVC012=
202312010525 TAF KPWT 010525Z 0106/0206 20011KT 1SM BR OVC003 FM011100 20007KT
                       4SM BR OVC015 FM011300 21008KT 4SM -RA BR
                       OVC015
                      TEMPO 0113/0116 2SM -RA BR OVC007 FM012200
                       21008KT P6SM VCSH BKN025 OVC035 FM020100
                       21013G23KT 4SM -RA BR OVC015=
202312010218 KPWT 010218Z 0102/0124 20005KT 6SM -RA OVC003 FM010600 20007KT
                       5SM -RA BR SCT003 OVC020 FM011500 20008KT
                       5SM -RA BR OVC009 FM012200 21008KT P6SM
                       VCSH BKN025 OVC035=
202312010029 KPWT 010029Z 0100/0124 20005KT 4SM -RA BR SCT004 BKN015 OVC020
                       FM010300 20007KT 5SM -RA BR FEW006 OVC014
                       FM011500 20008KT 5SM -RA BR OVC009 FM012200
                       21008KT P6SM VCSH BKN025 OVC035=