##########################################################
# Query made at 02/16/2025 01:11:27 UTC
# Time interval: from 01/01/2023 00:00  to 01/31/2023 23:59  UTC
##########################################################

##########################################################
# KPWT, Bremerton National Automatic Weather Observing / Reporting System (United States)
# WMO index: -----. WIGOS ID: Unknown
# Latitude 47-30N. Longitude 122-45W. Altitude 147 m.
##########################################################

###################################
#  METAR/SPECI from KPWT
###################################
202301312356 METAR KPWT 312356Z AUTO 14003KT 10SM FEW120 03/M02 A3019 RMK AO2 SLP232 T00331022 10039 20011 56011=
202301312256 METAR KPWT 312256Z AUTO 14003KT 10SM CLR 04/M02 A3020 RMK AO2 SLP236 T00391022=
202301312156 METAR KPWT 312156Z AUTO 00000KT 10SM CLR 03/M03 A3020 RMK AO2 SLP236 T00331033=
202301312056 METAR KPWT 312056Z AUTO 19004KT 10SM CLR 03/M04 A3022 RMK AO2 SLP242 T00331039 58016=
202301311956 METAR KPWT 311956Z AUTO 27003KT 10SM CLR 02/M02 A3024 RMK AO2 SLP250 T00171022 FZRANO=
202301311856 METAR KPWT 311856Z AUTO 25003KT 10SM CLR 02/M01 A3026 RMK AO2 SLP256 T00171011 FZRANO=
202301311756 METAR KPWT 311756Z AUTO 00000KT 10SM BKN100 01/M02 A3027 RMK AO2 SLP259 T00111022 10011 21022 58008 FZRANO=
202301311656 METAR KPWT 311656Z AUTO 00000KT 10SM OVC100 01/M02 A3028 RMK AO2 SLP263 T00061017 FZRANO=
202301311556 METAR KPWT 311556Z AUTO 00000KT 10SM CLR M01/M02 A3029 RMK AO2 SLP265 T10061022 FZRANO=
202301311456 METAR KPWT 311456Z AUTO 00000KT 10SM CLR M01/M02 A3029 RMK AO2 SLP268 T10061022 53003 FZRANO=
202301311356 METAR KPWT 311356Z AUTO 00000KT 10SM CLR M01/M03 A3028 RMK AO2 SLP265 T10111028 FZRANO=
202301311256 METAR KPWT 311256Z AUTO 00000KT 10SM CLR M02/M03 A3028 RMK AO2 SLP264 T10171028 FZRANO=
202301311156 METAR KPWT 311156Z AUTO 00000KT 10SM OVC100 M02/M03 A3028 RMK AO2 SLP264 7//// T10221033 11006 21039 58007 FZRANO=
202301311056 METAR KPWT 311056Z AUTO 00000KT 10SM CLR M03/M04 A3031 RMK AO2 SLP272 T10331039 FZRANO=
202301310956 METAR KPWT 310956Z AUTO 00000KT 10SM CLR M03/M04 A3030 RMK AO2 SLP270 T10331044 FZRANO=
202301310856 METAR KPWT 310856Z AUTO 00000KT 10SM CLR M02/M03 A3030 RMK AO2 SLP270 T10171028 56013 FZRANO=
202301310756 METAR KPWT 310756Z AUTO 00000KT 10SM BKN085 M01/M02 A3032 RMK AO2 SLP274 T10061022 400441083 FZRANO=
202301310656 METAR KPWT 310656Z AUTO 00000KT 10SM CLR M01/M03 A3033 RMK AO2 SLP279 T10061028 FZRANO=
202301310556 METAR KPWT 310556Z AUTO 00000KT 10SM BKN110 M01/M02 A3034 RMK AO2 SLP284 T10111022 10028 21011 58000 FZRANO=
202301310456 METAR KPWT 310456Z AUTO 00000KT 10SM SCT110 M01/M03 A3034 RMK AO2 SLP284 T10111028 FZRANO=
202301310356 METAR KPWT 310356Z AUTO 00000KT 10SM CLR M01/M04 A3035 RMK AO2 SLP287 T10111039 FZRANO=
202301310256 METAR KPWT 310256Z AUTO 13003KT 10SM FEW120 M01/M04 A3034 RMK AO2 SLP286 T10111039 56010 FZRANO=
202301310156 METAR KPWT 310156Z AUTO 00000KT 10SM CLR M01/M04 A3035 RMK AO2 SLP288 T10111039 FZRANO=
202301310056 METAR KPWT 310056Z AUTO 00000KT 10SM CLR 01/M06 A3036 RMK AO2 SLP291 T00111056 FZRANO=
202301302356 METAR KPWT 302356Z AUTO 19003KT 10SM CLR 03/M07 A3037 RMK AO2 SLP295 T00281067 10044 20006 58014=
202301302256 METAR KPWT 302256Z AUTO 22004KT 10SM CLR 04/M06 A3040 RMK AO2 SLP303 T00391061=
202301302156 METAR KPWT 302156Z AUTO 00000KT 10SM CLR 04/M06 A3041 RMK AO2 SLP307 T00441061=
202301302056 METAR KPWT 302056Z AUTO 21005KT 10SM CLR 03/M04 A3042 RMK AO2 SLP309 T00331044 58013=
202301301956 METAR KPWT 301956Z AUTO VRB03KT 10SM CLR 02/M04 A3045 RMK AO2 SLP319 T00221044 FZRANO=
202301301856 METAR KPWT 301856Z AUTO 22004KT 10SM CLR 02/M01 A3045 RMK AO2 SLP320 T00171011 FZRANO=
202301301756 METAR KPWT 301756Z AUTO 24004KT 10SM CLR 01/M01 A3045 RMK AO2 SLP322 6//// T00061006 10006 21083 55003 FZRANO=
202301301656 METAR KPWT 301656Z AUTO 00000KT 10SM CLR M03/M04 A3045 RMK AO2 SLP322 T10331039 FZRANO=
202301301556 METAR KPWT 301556Z AUTO 00000KT 10SM CLR M08/M08 A3045 RMK AO2 SLP324 T10781083 FZRANO=
202301301456 METAR KPWT 301456Z AUTO 14003KT 10SM CLR M07/M08 A3046 RMK AO2 SLP327 6//// T10721078 55001 FZRANO=
202301301356 METAR KPWT 301356Z AUTO 00000KT 10SM CLR M08/M08 A3046 RMK AO2 SLP326 T10781078 FZRANO=
202301301256 METAR KPWT 301256Z AUTO 00000KT 10SM CLR M07/M07 A3046 RMK AO2 SLP326 T10721072 FZRANO=
202301301156 METAR KPWT 301156Z AUTO 00000KT 10SM CLR M07/M08 A3046 RMK AO2 SLP326 T10721078 11056 21078 51002 FZRANO=
202301301056 METAR KPWT 301056Z AUTO 00000KT 10SM CLR M08/M08 A3046 RMK AO2 SLP325 T10781083 FZRANO=
202301300956 METAR KPWT 300956Z AUTO 00000KT 10SM CLR M07/M08 A3046 RMK AO2 SLP325 T10721078 FZRANO=
202301300856 METAR KPWT 300856Z AUTO 00000KT 10SM CLR M07/M07 A3046 RMK AO2 SLP323 T10721072 58003 FZRANO=
202301300756 METAR KPWT 300756Z AUTO 00000KT 10SM CLR M07/M07 A3047 RMK AO2 SLP327 T10671067 400391067 FZRANO=
202301300656 METAR KPWT 300656Z AUTO 00000KT 10SM CLR M07/M07 A3047 RMK AO2 SLP327 T10671072 FZRANO=
202301300556 METAR KPWT 300556Z AUTO 00000KT 10SM CLR M06/M07 A3047 RMK AO2 SLP327 T10611067 10033 21061 53003 FZRANO=
202301300456 METAR KPWT 300456Z AUTO 00000KT 10SM CLR M06/M06 A3046 RMK AO2 SLP324 T10561061 FZRANO=
202301300356 METAR KPWT 300356Z AUTO 00000KT 10SM CLR M05/M06 A3045 RMK AO2 SLP322 T10501061 FZRANO=
202301300256 METAR KPWT 300256Z AUTO 00000KT 10SM CLR M04/M06 A3046 RMK AO2 SLP323 T10391061 53000 FZRANO=
202301300156 METAR KPWT 300156Z AUTO 00000KT 10SM CLR M02/M05 A3045 RMK AO2 SLP323 T10221050 FZRANO=
202301300056 METAR KPWT 300056Z AUTO 06003KT 10SM CLR 02/M08 A3046 RMK AO2 SLP322 T00171083 FZRANO=
202301292356 METAR KPWT 292356Z AUTO 05008KT 10SM CLR 03/M09 A3046 RMK AO2 SLP322 T00331094 10039 20017 55008=
202301292256 METAR KPWT 292256Z AUTO 07009KT 10SM CLR 04/M09 A3045 RMK AO2 SLP319 T00391089=
202301292156 METAR KPWT 292156Z AUTO 05010KT 10SM CLR 04/M09 A3047 RMK AO2 SLP324 T00391089=
202301292056 METAR KPWT 292056Z AUTO 03010G15KT 10SM CLR 04/M09 A3048 RMK AO2 SLP329 T00391094 50000=
202301291956 METAR KPWT 291956Z AUTO 03011G16KT 10SM CLR 04/M08 A3050 RMK AO2 SLP335 T00391083=
202301291856 METAR KPWT 291856Z AUTO 02012G20KT 10SM CLR 03/M09 A3051 RMK AO2 SLP338 T00281089=
202301291756 METAR KPWT 291756Z AUTO 06015KT 10SM CLR 02/M09 A3048 RMK AO2 SLP330 T00171094 10017 21011 51019 FZRANO=
202301291656 METAR KPWT 291656Z AUTO 04013G16KT 10SM CLR 01/M11 A3047 RMK AO2 SLP325 T00111106 FZRANO=
202301291556 METAR KPWT 291556Z AUTO 06007G15KT 10SM CLR M01/M08 A3045 RMK AO2 SLP319 T10061083 FZRANO=
202301291456 METAR KPWT 291456Z AUTO 05011KT 10SM CLR M01/M08 A3042 RMK AO2 SLP310 T10061078 53009 FZRANO=
202301291356 METAR KPWT 291356Z AUTO 06014G20KT 10SM CLR 00/M06 A3040 RMK AO2 SLP303 T00001056 FZRANO=
202301291256 METAR KPWT 291256Z AUTO 03013G20KT 10SM CLR 01/M06 A3041 RMK AO2 SLP303 T00061061 FZRANO=
202301291156 METAR KPWT 291156Z AUTO 03012G18KT 10SM CLR 01/M06 A3039 RMK AO2 SLP299 T00061061 10033 20006 52018 FZRANO=
202301291056 METAR KPWT 291056Z AUTO 03011G17KT 10SM CLR 01/M06 A3038 RMK AO2 SLP295 T00111061 FZRANO=
202301290956 METAR KPWT 290956Z AUTO 03008G19KT 10SM CLR 02/M05 A3035 RMK AO2 SLP287 T00171050 FZRANO=
202301290856 METAR KPWT 290856Z AUTO 05009KT 10SM BKN034 02/M04 A3034 RMK AO2 SLP280 T00171044 51022 FZRANO=
202301290756 METAR KPWT 290756Z AUTO 09006KT 10SM OVC036 03/M04 A3033 RMK AO2 SLP277 T00281039 400720022=
202301290656 METAR KPWT 290656Z AUTO 05009KT 10SM OVC036 03/M04 A3030 RMK AO2 SLP269 T00331039=
202301290556 METAR KPWT 290556Z AUTO 05009KT 10SM FEW038 03/M03 A3027 RMK AO2 RAB0457E09UPB09E13 SLP259 P0000 60000 T00281028 10067 20022 53036=
202301290456 METAR KPWT 290456Z AUTO 05009G15KT 8SM FEW017 SCT025 OVC040 04/M04 A3024 RMK AO2 PRESRR SLP249 T00391039=
202301290356 METAR KPWT 290356Z AUTO 02013G19KT 10SM CLR 04/M05 A3019 RMK AO2 SLP231 T00391050=
202301290256 METAR KPWT 290256Z AUTO 01014G19KT 10SM CLR 04/M04 A3016 RMK AO2 PK WND 01027/0203 SLP222 T00441044 53021=
202301290156 METAR KPWT 290156Z AUTO 01017G25KT 10SM CLR 05/M04 A3013 RMK AO2 SLP208 T00501039=
202301290056 METAR KPWT 290056Z AUTO 36011G17KT 10SM CLR 06/M02 A3011 RMK AO2 SLP204 T00561022=
202301282356 METAR KPWT 282356Z AUTO 03013G20KT 10SM CLR 07/01 A3010 RMK AO2 SLP200 T00670006 10072 20050 53004=
202301282256 METAR KPWT 282256Z AUTO 04011G18KT 10SM CLR 07/02 A3009 RMK AO2 SLP194 T00720017=
202301282156 METAR KPWT 282156Z AUTO 04008KT 10SM CLR 07/02 A3008 RMK AO2 SLP194 T00670022=
202301282056 METAR KPWT 282056Z AUTO 05008G17KT 10SM CLR 06/03 A3009 RMK AO2 SLP196 T00610028 58016=
202301282010 SPECI KPWT 282010Z AUTO 04008KT 10SM SCT018 06/04 A3010 RMK AO2=
202301281956 METAR KPWT 281956Z AUTO 03007KT 10SM BKN016 BKN022 06/04 A3011 RMK AO2 SLP204 T00610039=
202301281947 SPECI KPWT 281947Z AUTO 04009KT 350V070 10SM BKN016 OVC022 06/04 A3011 RMK AO2=
202301281856 METAR KPWT 281856Z AUTO 04008KT 10SM OVC010 06/04 A3013 RMK AO2 SLP209 T00560044=
202301281756 METAR KPWT 281756Z AUTO 05004KT 10SM BKN010 OVC024 06/05 A3014 RMK AO2 CIG 007V014 SLP212 T00560050 10056 20039 51006=
202301281746 SPECI KPWT 281746Z AUTO 05006KT 10SM BKN010 BKN024 OVC031 06/05 A3013 RMK AO2 CIG 008V012=
202301281656 METAR KPWT 281656Z AUTO 04007KT 10SM FEW006 SCT010 OVC031 05/05 A3013 RMK AO2 SLP211 T00500050=
202301281653 SPECI KPWT 281653Z AUTO 04007KT 10SM SCT006 BKN012 OVC031 05/05 A3013 RMK AO2=
202301281632 SPECI KPWT 281632Z AUTO 04007KT 8SM BKN006 OVC029 05/05 A3013 RMK AO2 CIG 004V008=
202301281621 SPECI KPWT 281621Z AUTO 04005KT 9SM SCT006 OVC027 05/05 A3012 RMK AO2=
202301281556 METAR KPWT 281556Z AUTO 02005KT 9SM OVC027 05/05 A3012 RMK AO2 SLP206 T00500050=
202301281544 SPECI KPWT 281544Z AUTO 03007KT 9SM BKN027 04/04 A3012 RMK AO2=
202301281456 METAR KPWT 281456Z AUTO 04004KT 10SM FEW029 04/04 A3011 RMK AO2 SLP204 T00390039 56008=
202301281405 SPECI KPWT 281405Z AUTO 04008KT 10SM SCT005 04/04 A3011 RMK AO2=
202301281356 METAR KPWT 281356Z AUTO 03009KT 10SM BKN005 05/05 A3012 RMK AO2 SLP205 T00500050=
202301281256 METAR KPWT 281256Z AUTO 03007KT 10SM OVC005 05/05 A3012 RMK AO2 CIG 003V007 SLP207 T00500050=
202301281249 SPECI KPWT 281249Z AUTO 03008KT 10SM OVC005 05/05 A3012 RMK AO2 CIG 003V009=
202301281206 SPECI KPWT 281206Z AUTO 04005KT 10SM OVC009 06/06 A3013 RMK AO2 CIG 004V011=
202301281156 METAR KPWT 281156Z AUTO 03006KT 10SM BKN005 OVC009 06/06 A3014 RMK AO2 RAE31 CIG 001V007 SLP211 P0001 60002 70004 T00560056 10061 20050 55001=
202301281056 METAR KPWT 281056Z AUTO 05006KT 4SM -RA BR BKN003 BKN009 OVC015 06/06 A3013 RMK AO2 SLP209 P0001 T00560056=
202301281041 SPECI KPWT 281041Z AUTO 05004KT 3SM -RA BR BKN003 OVC011 06/06 A3013 RMK AO2 P0001=
202301281028 SPECI KPWT 281028Z AUTO 00000KT 2 1/2SM -RA BR FEW003 OVC011 06/06 A3013 RMK AO2 P0000=
202301280956 METAR KPWT 280956Z AUTO 00000KT 6SM -RA BR BKN011 06/06 A3013 RMK AO2 RAB48 SLP210 P0000 T00560056=
202301280940 SPECI KPWT 280940Z AUTO 03003KT 6SM BR SCT004 BKN011 06/06 A3014 RMK AO2=
202301280930 SPECI KPWT 280930Z AUTO 03003KT 8SM BKN004 BKN011 06/06 A3014 RMK AO2=
202301280921 SPECI KPWT 280921Z AUTO 02004KT 8SM SCT004 BKN011 06/06 A3014 RMK AO2=
202301280856 METAR KPWT 280856Z AUTO 00000KT 8SM OVC013 06/06 A3014 RMK AO2 SLP212 T00560056 58012=
202301280821 SPECI KPWT 280821Z AUTO 00000KT 9SM FEW007 BKN013 05/05 A3015 RMK AO2=
202301280804 SPECI KPWT 280804Z AUTO 00000KT 10SM FEW007 BKN046 05/05 A3016 RMK AO2=
202301280756 METAR KPWT 280756Z AUTO 00000KT 10SM BKN046 05/05 A3016 RMK AO2 SLP220 T00500050 400830050=
202301280728 SPECI KPWT 280728Z AUTO 00000KT 9SM SCT019 OVC046 05/05 A3016 RMK AO2=
202301280656 METAR KPWT 280656Z AUTO 00000KT 10SM OVC015 06/06 A3017 RMK AO2 SLP225 T00560056=
202301280556 METAR KPWT 280556Z AUTO 05003KT 10SM OVC019 06/06 A3018 RMK AO2 SLP225 60001 T00610061 10078 20056 55006=
202301280456 METAR KPWT 280456Z AUTO 00000KT 9SM BKN019 BKN024 OVC042 06/06 A3017 RMK AO2 SLP225 T00560056=
202301280356 METAR KPWT 280356Z AUTO 00000KT 10SM OVC017 06/06 A3019 RMK AO2 SLP230 T00610061=
202301280256 METAR KPWT 280256Z AUTO 00000KT 9SM SCT015 BKN029 OVC036 06/06 A3019 RMK AO2 RAE15 SLP231 P0000 60001 T00560056 56007=
202301280239 SPECI KPWT 280239Z AUTO 00000KT 10SM SCT025 OVC035 06/06 A3020 RMK AO2 RAE15 P0000=
202301280156 METAR KPWT 280156Z AUTO 00000KT 8SM -RA BKN021 OVC027 06/06 A3020 RMK AO2 RAE22B39 SLP232 P0001 T00610061=
202301280118 SPECI KPWT 280118Z AUTO 04004KT 6SM -RA BR FEW006 SCT012 OVC019 06/06 A3020 RMK AO2 P0000=
202301280056 METAR KPWT 280056Z AUTO 00000KT 6SM -RA BR BKN006 OVC010 07/07 A3020 RMK AO2 CIG 004V009 SLP235 P0000 T00670067=
202301280023 SPECI KPWT 280023Z AUTO 09004KT 6SM -RA BR BKN009 BKN014 OVC021 07/07 A3021 RMK AO2 P0000=
202301280009 SPECI KPWT 280009Z AUTO 00000KT 6SM -RA BR FEW009 OVC016 07/07 A3021 RMK AO2 P0000=
202301272356 METAR KPWT 272356Z AUTO 00000KT 9SM -RA OVC017 08/07 A3021 RMK AO2 RAB46 SLP237 P0000 60000 T00780072 10083 20061 56009=
202301272256 METAR KPWT 272256Z AUTO 14003KT 10SM OVC021 08/06 A3022 RMK AO2 SLP238 T00830061=
202301272156 METAR KPWT 272156Z AUTO 00000KT 10SM FEW010 BKN016 OVC031 08/07 A3023 RMK AO2 RAE10 SLP242 P0000 T00830067=
202301272135 SPECI KPWT 272135Z AUTO 00000KT 10SM FEW010 BKN016 OVC031 08/07 A3024 RMK AO2 RAE10 P0000=
202301272056 METAR KPWT 272056Z AUTO 00000KT 5SM -RA BR BKN010 OVC014 07/07 A3024 RMK AO2 RAB43 CIG 008V013 SLP247 P0000 60000 T00720072 58004=
202301272040 SPECI KPWT 272040Z AUTO 03003KT 9SM BKN011 OVC021 08/07 A3024 RMK AO2=
202301271956 METAR KPWT 271956Z AUTO 03006KT 10SM FEW011 OVC026 07/07 A3025 RMK AO2 SLP250 T00720067=
202301271934 SPECI KPWT 271934Z AUTO 04008KT 10SM SCT011 BKN020 OVC026 07/07 A3025 RMK AO2=
202301271856 METAR KPWT 271856Z AUTO 05008KT 10SM BKN009 OVC028 07/07 A3026 RMK AO2 RAE1757 CIG 007V013 SLP253 T00670067=
202301271756 METAR KPWT 271756Z AUTO 04005KT 8SM -RA OVC007 06/06 A3025 RMK AO2 CIG 005V009 SLP252 P0000 60001 T00610061 10061 20056 53017=
202301271717 SPECI KPWT 271717Z AUTO 36004KT 5SM -RA BR OVC007 06/06 A3025 RMK AO2 P0000=
202301271656 METAR KPWT 271656Z AUTO 33008KT 10SM -RA OVC005 06/06 A3024 RMK AO2 RAE02B28 CIG 002V009 SLP248 P0001 T00610061=
202301271647 SPECI KPWT 271647Z AUTO VRB03KT 3SM -RA BR OVC005 06/06 A3024 RMK AO2 RAE02B28 CIG 002V009 P0001=
202301271638 SPECI KPWT 271638Z AUTO 27003KT 1 3/4SM -RA BR OVC007 06/06 A3023 RMK AO2 VIS 3/4V5 RAE02B28 CIG 002V010 P0001=
202301271608 SPECI KPWT 271608Z AUTO 00000KT 6SM BR OVC007 06/06 A3022 RMK AO2 RAE02 CIG 002V009 P0000=
202301271600 SPECI KPWT 271600Z AUTO 00000KT 2SM -RA BR OVC005 06/06 A3021 RMK AO2 CIG 001V008 P0000=
202301271556 METAR KPWT 271556Z AUTO 00000KT 1SM -RA BR OVC005 06/06 A3021 RMK AO2 VIS 1/2V2 RAB48 CIG 001V008 SLP237 P0000 T00610061=
202301271545 SPECI KPWT 271545Z AUTO 00000KT 1SM BR OVC005 06/06 A3021 RMK AO2 CIG 001V008=
202301271524 SPECI KPWT 271524Z AUTO 00000KT 1 3/4SM BR OVC002 06/06 A3021 RMK AO2=
202301271456 METAR KPWT 271456Z AUTO 00000KT 8SM BKN002 OVC014 06/06 A3020 RMK AO2 SLP235 60000 T00610061 50003=
202301271356 METAR KPWT 271356Z AUTO 05004KT 10SM OVC004 06/06 A3021 RMK AO2 SLP236 T00610061=
202301271324 SPECI KPWT 271324Z AUTO 03004KT 3SM BR OVC002 06/06 A3021 RMK AO2=
202301271318 SPECI KPWT 271318Z AUTO 02003KT 1 1/4SM BR OVC002 06/06 A3020 RMK AO2=
202301271308 SPECI KPWT 271308Z AUTO 04003KT 3/4SM BR OVC002 06/06 A3020 RMK AO2=
202301271256 METAR KPWT 271256Z AUTO 05004KT 1/2SM FG OVC002 06/06 A3019 RMK AO2 RAE33 SLP232 P0000 T00560056=
202301271253 SPECI KPWT 271253Z AUTO 05004KT 1/2SM FG OVC002 06/06 A3020 RMK AO2 RAE33 P0000=
202301271235 SPECI KPWT 271235Z AUTO 06004KT 3/4SM BR OVC002 06/06 A3020 RMK AO2 RAE33 P0000=
202301271220 SPECI KPWT 271220Z AUTO 04005KT 1/2SM -RA FG OVC002 06/06 A3020 RMK AO2 P0000=
202301271207 SPECI KPWT 271207Z AUTO 05005KT 3/4SM BR OVC002 06/06 A3020 RMK AO2 RAE1159 P0000=
202301271156 METAR KPWT 271156Z AUTO 05005KT 1 1/2SM -RA BR OVC002 06/06 A3020 RMK AO2 RAB44 SLP235 P0000 60000 70001 T00560056 10061 20050 58002=
202301271151 SPECI KPWT 271151Z AUTO 06004KT 1SM -RA BR OVC002 06/06 A3021 RMK AO2 RAB44 CIG 001V005 P0000=
202301271143 SPECI KPWT 271143Z AUTO 06005KT 3/4SM BR OVC002 06/06 A3020 RMK AO2 CIG 002V005=
202301271126 SPECI KPWT 271126Z AUTO 06004KT 1 1/4SM BR OVC002 06/06 A3020 RMK AO2=
202301271113 SPECI KPWT 271113Z AUTO 04005KT 3/4SM BR OVC002 06/06 A3021 RMK AO2=
202301271109 SPECI KPWT 271109Z AUTO 03005KT 1 3/4SM BR OVC002 06/06 A3021 RMK AO2=
202301271056 METAR KPWT 271056Z AUTO 03005KT 5SM BR OVC002 06/06 A3021 RMK AO2 RAB23E41 SLP237 P0000 T00560056=
202301271033 SPECI KPWT 271033Z AUTO 00000KT 10SM -RA OVC002 06/06 A3021 RMK AO2 RAB23 P0000=
202301271019 SPECI KPWT 271019Z AUTO 08003KT 2SM BR OVC002 06/06 A3022 RMK AO2 VIS 3/4V5=
202301271006 SPECI KPWT 271006Z AUTO 02004KT 1 3/4SM BR OVC002 06/06 A3023 RMK AO2=
202301270956 METAR KPWT 270956Z AUTO 00000KT 10SM OVC002 06/06 A3024 RMK AO2 RAE22 SLP245 P0000 T00610061=
202301270935 SPECI KPWT 270935Z AUTO 20003KT 7SM OVC002 06/06 A3023 RMK AO2 RAE22 P0000=
202301270856 METAR KPWT 270856Z AUTO 20003KT 2 1/2SM -RA BR OVC002 06/06 A3027 RMK AO2 RAE00B26 SLP257 P0000 60000 T00560056 58033=
202301270844 SPECI KPWT 270844Z AUTO 19003KT 1 1/2SM -RA BR OVC002 06/06 A3027 RMK AO2 RAE00B26 P0000=
202301270826 SPECI KPWT 270826Z AUTO 00000KT 2 1/2SM -RA BR OVC002 06/06 A3029 RMK AO2 RAE00B26 CIG 002V005 P0000=
202301270809 SPECI KPWT 270809Z AUTO 00000KT 4SM BR OVC004 06/06 A3031 RMK AO2 RAE00 CIG 002V006 P0000=
202301270756 METAR KPWT 270756Z AUTO 20005KT 3SM -RA BR OVC002 06/06 A3031 RMK AO2 RAB32 CIG 002V006 SLP270 P0000 T00560056 400670011=
202301270746 SPECI KPWT 270746Z AUTO 00000KT 2SM -RA BR OVC002 06/06 A3032 RMK AO2 RAB32 P0000=
202301270740 SPECI KPWT 270740Z AUTO 19004KT 1SM -RA BR OVC002 05/05 A3032 RMK AO2 RAB32 P0000=
202301270722 SPECI KPWT 270722Z AUTO 00000KT 1/2SM FG OVC002 05/05 A3034 RMK AO2=
202301270710 SPECI KPWT 270710Z AUTO 00000KT 3/4SM BR OVC002 05/05 A3035 RMK AO2=
202301270656 METAR KPWT 270656Z AUTO 00000KT 1 3/4SM BR OVC002 05/05 A3036 RMK AO2 VIS 1 1/4V2 1/2 RAE47 SLP289 P0000 T00500050=
202301270556 METAR KPWT 270556Z AUTO 17004KT 5SM -RA BR OVC002 05/05 A3037 RMK AO2 PRESFR SLP292 P0001 60001 T00500050 10061 20050 58037=
202301270534 SPECI KPWT 270534Z AUTO 21004KT 3SM -RA BR OVC002 05/05 A3040 RMK AO2 P0000=
202301270506 SPECI KPWT 270506Z AUTO 00000KT 2 1/2SM -RA BR OVC002 05/05 A3043 RMK AO2 P0000=
202301270456 METAR KPWT 270456Z AUTO 00000KT 3SM -RA BR OVC002 05/05 A3042 RMK AO2 SLP307 P0000 T00500050=
202301270451 SPECI KPWT 270451Z AUTO 22003KT 4SM -RA BR OVC002 05/05 A3043 RMK AO2 P0000=
202301270404 SPECI KPWT 270404Z AUTO VRB04KT 4SM -RA BR OVC004 05/05 A3046 RMK AO2 P0000=
202301270356 METAR KPWT 270356Z AUTO 20005KT 2 1/2SM -RA BR OVC004 05/05 A3048 RMK AO2 VIS 2V3 RAB46 SLP328 P0000 T00500050=
202301270319 SPECI KPWT 270319Z AUTO 20004KT 4SM BR BKN004 OVC012 05/05 A3048 RMK AO2 CIG 003V009=
202301270256 METAR KPWT 270256Z AUTO 20005KT 9SM SCT008 OVC012 05/05 A3049 RMK AO2 SLP333 T00500050 58014=
202301270246 SPECI KPWT 270246Z AUTO 21005KT 10SM OVC012 05/04 A3049 RMK AO2=
202301270156 METAR KPWT 270156Z AUTO 00000KT 10SM OVC015 06/04 A3051 RMK AO2 SLP340 T00560044=
202301270146 SPECI KPWT 270146Z AUTO 00000KT 10SM OVC013 06/04 A3052 RMK AO2=
202301270056 METAR KPWT 270056Z AUTO 20004KT 10SM OVC015 06/04 A3053 RMK AO2 SLP347 T00560044=
202301262356 METAR KPWT 262356Z AUTO 22006KT 10SM OVC017 06/04 A3056 RMK AO2 SLP355 T00610044 10067 20039 58012=
202301262256 METAR KPWT 262256Z AUTO 23005KT 10SM OVC017 07/04 A3058 RMK AO2 SLP361 T00670039=
202301262156 METAR KPWT 262156Z AUTO 23006KT 10SM OVC017 07/04 A3058 RMK AO2 SLP362 T00670039=
202301262056 METAR KPWT 262056Z AUTO 22005KT 10SM BKN017 07/04 A3059 RMK AO2 SLP368 T00670039 56018=
202301262052 SPECI KPWT 262052Z AUTO 22005KT 10SM BKN017 07/04 A3060 RMK AO2=
202301262005 SPECI KPWT 262005Z AUTO 23005KT 10SM SCT009 06/04 A3061 RMK AO2=
202301261956 METAR KPWT 261956Z AUTO 00000KT 10SM BKN009 07/05 A3062 RMK AO2 CIG 007V012 SLP377 T00670050=
202301261942 SPECI KPWT 261942Z AUTO 22003KT 10SM BKN007 06/05 A3062 RMK AO2 CIG 005V010=
202301261923 SPECI KPWT 261923Z AUTO 00000KT 10SM OVC005 06/05 A3064 RMK AO2 CIG 003V008=
202301261904 SPECI KPWT 261904Z AUTO 00000KT 10SM OVC003 05/05 A3065 RMK AO2=
202301261856 METAR KPWT 261856Z AUTO 20003KT 9SM OVC001 04/04 A3065 RMK AO2 SLP386 T00440044=
202301261815 SPECI KPWT 261815Z AUTO 00000KT 3SM BR OVC001 04/04 A3066 RMK AO2=
202301261756 METAR KPWT 261756Z AUTO 16003KT 1 1/4SM BR BKN001 04/04 A3066 RMK AO2 SLP388 T00390039 10039 20011 50000=
202301261746 SPECI KPWT 261746Z AUTO 15003KT 1SM BR BKN001 04/04 A3066 RMK AO2=
202301261740 SPECI KPWT 261740Z AUTO 14004KT 2 1/2SM BR FEW001 04/04 A3066 RMK AO2 VIS 3/4V5=
202301261656 METAR KPWT 261656Z AUTO 00000KT 7SM CLR 02/02 A3067 RMK AO2 SLP391 T00220022 FZRANO=
202301261556 METAR KPWT 261556Z AUTO 00000KT 5SM BR CLR 02/02 A3065 RMK AO2 SLP385 T00170017 FZRANO=
202301261520 SPECI KPWT 261520Z AUTO 00000KT 10SM FEW023 03/03 A3065 RMK AO2=
202301261456 METAR KPWT 261456Z AUTO 00000KT 10SM OVC023 04/04 A3066 RMK AO2 SLP389 T00390039 56004=
202301261356 METAR KPWT 261356Z AUTO 00000KT 10SM OVC021 04/04 A3066 RMK AO2 SLP390 T00390039=
202301261256 METAR KPWT 261256Z AUTO 00000KT 10SM OVC021 03/03 A3066 RMK AO2 SLP388 T00330033=
202301261156 METAR KPWT 261156Z AUTO 00000KT 10SM OVC023 03/03 A3067 RMK AO2 SLP393 6//// 7//// T00330033 10033 20017 58006=
202301261056 METAR KPWT 261056Z AUTO 00000KT 10SM OVC023 03/03 A3069 RMK AO2 SLP399 T00330033=
202301260956 METAR KPWT 260956Z AUTO 00000KT 7SM OVC023 03/03 A3069 RMK AO2 SLP400 T00280028=
202301260856 METAR KPWT 260856Z AUTO 00000KT 10SM OVC023 02/02 A3069 RMK AO2 SLP399 6//// T00220022 56005 FZRANO=
202301260756 METAR KPWT 260756Z AUTO 00000KT 8SM OVC023 02/02 A3069 RMK AO2 SLP403 T00220022 400720017 FZRANO=
202301260723 SPECI KPWT 260723Z AUTO 13003KT 10SM BKN023 02/02 A3069 RMK AO2 FZRANO=
202301260656 METAR KPWT 260656Z AUTO 02004KT 10SM FEW025 02/02 A3069 RMK AO2 SLP401 T00220022 FZRANO=
202301260641 SPECI KPWT 260641Z AUTO 02003KT 10SM SCT023 02/02 A3070 RMK AO2 FZRANO=
202301260620 SPECI KPWT 260620Z AUTO 09003KT 10SM BKN025 03/03 A3069 RMK AO2=
202301260556 METAR KPWT 260556Z AUTO 00000KT 10SM FEW028 03/03 A3070 RMK AO2 SLP405 T00330033 10072 20033 58002=
202301260519 SPECI KPWT 260519Z AUTO 12003KT 10SM SCT026 04/04 A3070 RMK AO2=
202301260456 METAR KPWT 260456Z AUTO 07003KT 10SM FEW016 OVC024 06/05 A3071 RMK AO2 SLP407 T00560050=
202301260356 METAR KPWT 260356Z AUTO 34003KT 10SM OVC020 06/05 A3071 RMK AO2 SLP406 T00610050=
202301260256 METAR KPWT 260256Z AUTO 00000KT 10SM OVC020 07/06 A3071 RMK AO2 SLP407 T00670056 53007=
202301260156 METAR KPWT 260156Z AUTO 00000KT 10SM OVC018 07/06 A3070 RMK AO2 SLP404 T00670056=
202301260056 METAR KPWT 260056Z AUTO 02003KT 10SM OVC020 07/06 A3069 RMK AO2 SLP400 T00670056=
202301252356 METAR KPWT 252356Z AUTO 03003KT 10SM OVC016 07/06 A3069 RMK AO2 SLP400 T00720056 10072 20061 56010=
202301252256 METAR KPWT 252256Z AUTO 01005KT 10SM OVC020 07/05 A3069 RMK AO2 SLP400 T00720050=
202301252156 METAR KPWT 252156Z AUTO 05006KT 10SM OVC020 07/05 A3070 RMK AO2 SLP404 T00720050=
202301252056 METAR KPWT 252056Z AUTO 02005KT 10SM OVC020 07/06 A3072 RMK AO2 SLP410 T00720061 58005=
202301251956 METAR KPWT 251956Z AUTO 05005KT 10SM OVC020 07/06 A3072 RMK AO2 SLP412 T00670061=
202301251856 METAR KPWT 251856Z AUTO 04008KT 10SM OVC020 07/07 A3074 RMK AO2 SLP415 T00720067=
202301251756 METAR KPWT 251756Z AUTO 03005KT 10SM OVC020 06/06 A3074 RMK AO2 SLP416 60000 T00610061 10061 20044 51012=
202301251656 METAR KPWT 251656Z AUTO 00000KT 9SM OVC021 05/05 A3072 RMK AO2 SLP412 T00500050=
202301251556 METAR KPWT 251556Z AUTO 00000KT 4SM BR FEW008 OVC022 05/05 A3071 RMK AO2 RAB09E56 SLP408 P0000 T00500050=
202301251549 SPECI KPWT 251549Z AUTO 00000KT 3SM -RA BR SCT008 OVC021 05/05 A3071 RMK AO2 RAB09 P0000=
202301251543 SPECI KPWT 251543Z AUTO 00000KT 2 1/2SM -RA BR BKN008 BKN012 OVC023 05/05 A3071 RMK AO2 VIS 2V5 RAB09 CIG 006V010 P0000=
202301251514 SPECI KPWT 251514Z AUTO 00000KT 3SM -RA BR FEW001 OVC010 04/04 A3071 RMK AO2 RAB09 P0000=
202301251456 METAR KPWT 251456Z AUTO 00000KT 6SM BR BKN001 OVC016 04/04 A3070 RMK AO2 SLP404 T00440044 53005=
202301251356 METAR KPWT 251356Z AUTO 00000KT 9SM BKN001 OVC020 04/04 A3069 RMK AO2 SLP401 T00440044=
202301251351 SPECI KPWT 251351Z AUTO 00000KT 6SM BR SCT001 OVC020 04/04 A3069 RMK AO2=
202301251340 SPECI KPWT 251340Z AUTO 00000KT 4SM BR OVC020 04/04 A3069 RMK AO2=
202301251323 SPECI KPWT 251323Z AUTO 00000KT 2 1/2SM BR SCT001 OVC020 05/05 A3069 RMK AO2 VIS 1 1/2V5=
202301251256 METAR KPWT 251256Z AUTO 00000KT 9SM OVC003 05/05 A3068 RMK AO2 SLP398 T00500050=
202301251244 SPECI KPWT 251244Z AUTO 00000KT 3SM BR OVC003 05/05 A3068 RMK AO2=
202301251239 SPECI KPWT 251239Z AUTO 00000KT 1 1/4SM BR OVC003 05/05 A3068 RMK AO2=
202301251233 SPECI KPWT 251233Z AUTO 00000KT 3/4SM BR OVC003 05/05 A3068 RMK AO2=
202301251205 SPECI KPWT 251205Z AUTO 00000KT 1 3/4SM BR OVC003 05/05 A3068 RMK AO2=
202301251156 METAR KPWT 251156Z AUTO 00000KT 8SM OVC003 05/05 A3068 RMK AO2 SLP396 60000 70001 T00500050 10056 20050 52004=
202301251133 SPECI KPWT 251133Z AUTO 00000KT 4SM BR BKN003 OVC026 05/05 A3067 RMK AO2=
202301251127 SPECI KPWT 251127Z AUTO 00000KT 2SM BR BKN001 BKN026 05/05 A3067 RMK AO2=
202301251118 SPECI KPWT 251118Z AUTO 00000KT 1 1/4SM BR SCT001 BKN026 05/05 A3067 RMK AO2=
202301251110 SPECI KPWT 251110Z AUTO 00000KT 3/4SM BR FEW001 BKN026 05/05 A3067 RMK AO2=
202301251056 METAR KPWT 251056Z AUTO 00000KT 1/2SM FG BKN001 05/05 A3067 RMK AO2 SLP394 T00500050=
202301251053 SPECI KPWT 251053Z AUTO 00000KT 1/2SM FG BKN001 BKN027 05/05 A3067 RMK AO2=
202301251026 SPECI KPWT 251026Z AUTO 00000KT 1/2SM FG OVC003 05/05 A3067 RMK AO2=
202301250956 METAR KPWT 250956Z AUTO 00000KT 1/4SM FG OVC003 05/05 A3067 RMK AO2 SLP392 T00500050=
202301250856 METAR KPWT 250856Z AUTO 00000KT 1/4SM FG OVC003 05/05 A3067 RMK AO2 SLP392 60000 T00500050 51010=
202301250756 METAR KPWT 250756Z AUTO 00000KT 1/4SM FG OVC003 06/06 A3066 RMK AO2 SLP390 T00560056 400670022=
202301250656 METAR KPWT 250656Z AUTO 00000KT 1/4SM FG OVC003 06/06 A3065 RMK AO2 RAB02E39 SLP387 P0000 T00560056=
202301250556 METAR KPWT 250556Z AUTO 30003KT 1/4SM FG OVC003 06/06 A3064 RMK AO2 RAB07E44 SLP381 P0000 60001 T00560056 10067 20056 53003=
202301250531 SPECI KPWT 250531Z AUTO 20003KT 1/4SM -RA FG OVC003 06/06 A3063 RMK AO2 RAB07 P0000=
202301250456 METAR KPWT 250456Z AUTO 22003KT 1/2SM FG OVC003 06/06 A3063 RMK AO2 RAE21B41E53 SLP379 P0001 T00560056=
202301250452 SPECI KPWT 250452Z AUTO 22003KT 1/2SM -RA FG OVC003 06/06 A3063 RMK AO2 RAE21B41 P0001=
202301250440 SPECI KPWT 250440Z AUTO 21003KT 3/4SM BR OVC003 06/06 A3062 RMK AO2 RAE21 P0001=
202301250425 SPECI KPWT 250425Z AUTO 00000KT 1 3/4SM BR OVC003 06/06 A3063 RMK AO2 RAE21 P0001=
202301250414 SPECI KPWT 250414Z AUTO 00000KT 3SM -RA BR OVC003 06/06 A3062 RMK AO2 P0000=
202301250356 METAR KPWT 250356Z AUTO 00000KT 2 1/2SM -RA BR OVC003 06/06 A3063 RMK AO2 SLP378 P0000 T00560056=
202301250256 METAR KPWT 250256Z AUTO 00000KT 2 1/2SM -RA BR OVC003 06/06 A3061 RMK AO2 RAB54 SLP373 P0000 60000 T00560056 53000=
202301250249 SPECI KPWT 250249Z AUTO 00000KT 2 1/2SM BR OVC003 06/06 A3061 RMK AO2=
202301250223 SPECI KPWT 250223Z AUTO 00000KT 1 3/4SM BR OVC003 06/06 A3061 RMK AO2=
202301250205 SPECI KPWT 250205Z AUTO 00000KT 4SM BR OVC003 06/06 A3061 RMK AO2=
202301250156 METAR KPWT 250156Z AUTO 00000KT 4SM BR OVC005 06/06 A3061 RMK AO2 SLP372 T00560056=
202301250056 METAR KPWT 250056Z AUTO 00000KT 6SM BR OVC005 06/06 A3061 RMK AO2 SLP371 T00560056=
202301250024 SPECI KPWT 250024Z AUTO 00000KT 10SM OVC009 06/06 A3059 RMK AO2 CIG 007V012=
202301242356 METAR KPWT 242356Z AUTO 00000KT 10SM BKN011 06/05 A3059 RMK AO2 SLP366 60000 T00610050 10061 20044 53003=
202301242256 METAR KPWT 242256Z AUTO 00000KT 10SM OVC009 06/06 A3058 RMK AO2 CIG 007V011 SLP364 T00610056=
202301242156 METAR KPWT 242156Z AUTO 00000KT 10SM OVC007 06/06 A3057 RMK AO2 SLP360 T00560056=
202301242056 METAR KPWT 242056Z AUTO 00000KT 10SM OVC007 06/05 A3058 RMK AO2 SLP361 60000 T00560050 56001=
202301242054 SPECI KPWT 242054Z AUTO 00000KT 10SM OVC007 06/05 A3058 RMK AO2=
202301242015 SPECI KPWT 242015Z AUTO 00000KT 9SM OVC005 05/05 A3058 RMK AO2 CIG 003V008=
202301241956 METAR KPWT 241956Z AUTO 35003KT 5SM BR OVC003 05/05 A3058 RMK AO2 SLP360 T00500050=
202301241856 METAR KPWT 241856Z AUTO 33003KT 6SM BR OVC003 05/05 A3058 RMK AO2 RAE29 SLP361 P0000 T00500050=
202301241825 SPECI KPWT 241825Z AUTO 00000KT 4SM -RA BR OVC003 04/04 A3056 RMK AO2 P0000=
202301241756 METAR KPWT 241756Z AUTO 00000KT 2SM -RA BR OVC003 04/04 A3056 RMK AO2 SLP356 P0000 60000 T00440044 10044 20022 53008=
202301241744 SPECI KPWT 241744Z AUTO 00000KT 2 1/2SM -RA BR OVC003 04/04 A3056 RMK AO2 P0000=
202301241718 SPECI KPWT 241718Z AUTO 21003KT 4SM -RA BR OVC003 04/04 A3055 RMK AO2 P0000=
202301241656 METAR KPWT 241656Z AUTO 00000KT 2 1/2SM -RA BR OVC003 04/04 A3055 RMK AO2 VIS 1 3/4V3 RAB31 SLP353 P0000 T00390039=
202301241641 SPECI KPWT 241641Z AUTO 00000KT 2 1/2SM -RA BR OVC003 04/04 A3055 RMK AO2 RAB31 P0000=
202301241556 METAR KPWT 241556Z AUTO 00000KT 10SM OVC003 04/04 A3055 RMK AO2 SLP352 T00390039=
202301241456 METAR KPWT 241456Z AUTO 17003KT 9SM BKN003 OVC010 03/03 A3054 RMK AO2 SLP349 T00330033 55000=
202301241440 SPECI KPWT 241440Z AUTO 13003KT 9SM FEW003 OVC013 03/03 A3053 RMK AO2=
202301241409 SPECI KPWT 241409Z AUTO 14004KT 3SM BR SCT001 BKN015 OVC022 03/03 A3054 RMK AO2=
202301241356 METAR KPWT 241356Z AUTO 15003KT 2 1/2SM BR BKN001 OVC022 03/03 A3054 RMK AO2 SLP349 T00280028=
202301241352 SPECI KPWT 241352Z AUTO 00000KT 3SM BR BKN001 OVC022 03/03 A3054 RMK AO2=
202301241346 SPECI KPWT 241346Z AUTO 00000KT 2SM BR BKN003 OVC022 03/03 A3054 RMK AO2=
202301241338 SPECI KPWT 241338Z AUTO 14003KT 1SM BR OVC003 03/03 A3054 RMK AO2=
202301241328 SPECI KPWT 241328Z AUTO 00000KT 1/2SM FG OVC003 02/02 A3054 RMK AO2 FZRANO=
202301241311 SPECI KPWT 241311Z AUTO 00000KT 1/4SM FG OVC003 02/02 A3053 RMK AO2 FZRANO=
202301241304 SPECI KPWT 241304Z AUTO 00000KT 1/2SM FG OVC003 02/02 A3053 RMK AO2 FZRANO=
202301241256 SPECI KPWT 241256Z AUTO 00000KT 3/4SM BR OVC003 02/02 A3053 RMK AO2 FZRANO=
202301241252 METAR KPWT 241252Z AUTO 00000KT 1 1/2SM BR OVC003 02/02 A3053 RMK AO2 VIS 1/2V4 SLP346 T00220022 FZRANO=
202301241251 SPECI KPWT 241251Z AUTO 00000KT 1 3/4SM BR OVC003 02/02 A3053 RMK AO2 VIS 3/4V4 FZRANO=
202301241232 SPECI KPWT 241232Z AUTO 00000KT 8SM BKN003 OVC110 02/02 A3054 RMK AO2 FZRANO=
202301241211 SPECI KPWT 241211Z AUTO 00000KT 9SM SCT003 BKN110 02/02 A3054 RMK AO2 FZRANO=
202301241156 METAR KPWT 241156Z AUTO 00000KT 10SM BKN003 02/02 A3054 RMK AO2 SLP348 T00220022 10022 20022 55001 FZRANO=
202301241134 SPECI KPWT 241134Z AUTO 00000KT 10SM BKN003 OVC110 02/02 A3054 RMK AO2 FZRANO=
202301241056 METAR KPWT 241056Z AUTO 00000KT 10SM FEW002 BKN110 02/02 A3053 RMK AO2 SLP346 T00220022 FZRANO=
202301240956 METAR KPWT 240956Z AUTO 00000KT 10SM BKN080 02/02 A3053 RMK AO2 SLP346 T00220022 FZRANO=
202301240856 METAR KPWT 240856Z AUTO 00000KT 10SM OVC080 02/02 A3054 RMK AO2 SLP348 T00220022 53002 FZRANO=
202301240756 METAR KPWT 240756Z AUTO 00000KT 10SM BKN080 02/02 A3053 RMK AO2 SLP347 T00220022 400781006 FZRANO=
202301240656 METAR KPWT 240656Z AUTO 00000KT 10SM FEW036 OVC110 02/02 A3054 RMK AO2 SLP348 T00220022 FZRANO=
202301240556 METAR KPWT 240556Z AUTO 00000KT 10SM OVC036 02/02 A3053 RMK AO2 SLP347 T00220022 10072 21006 53007 FZRANO=
202301240456 METAR KPWT 240456Z AUTO 00000KT 10SM OVC036 01/01 A3053 RMK AO2 SLP345 T00110011 FZRANO=
202301240356 METAR KPWT 240356Z AUTO 00000KT 9SM FEW038 00/00 A3052 RMK AO2 SLP343 T00000000 FZRANO=
202301240341 SPECI KPWT 240341Z AUTO 00000KT 4SM BR FEW038 00/00 A3052 RMK AO2 FZRANO=
202301240337 SPECI KPWT 240337Z AUTO 00000KT 1 1/4SM BR FEW038 00/00 A3051 RMK AO2 FZRANO=
202301240330 SPECI KPWT 240330Z AUTO 00000KT 3/4SM BR CLR M01/M01 A3052 RMK AO2 VIS 1/2V2 FZRANO=
202301240325 SPECI KPWT 240325Z AUTO 00000KT 1 3/4SM BR CLR M01/M01 A3052 RMK AO2 VIS 3/4V5 FZRANO=
202301240256 METAR KPWT 240256Z AUTO 00000KT 10SM CLR 00/00 A3051 RMK AO2 SLP341 T00000000 53003 FZRANO=
202301240156 METAR KPWT 240156Z AUTO 00000KT 10SM CLR 01/01 A3051 RMK AO2 SLP339 T00110011 FZRANO=
202301240056 METAR KPWT 240056Z AUTO 00000KT 10SM CLR 04/03 A3050 RMK AO2 SLP334 T00440033=
202301232356 METAR KPWT 232356Z AUTO 00000KT 10SM SCT035 07/04 A3050 RMK AO2 SLP337 T00720039 10078 20028 51004=
202301232333 SPECI KPWT 232333Z AUTO 10004KT 10SM SCT018 OVC035 07/04 A3051 RMK AO2=
202301232306 SPECI KPWT 232306Z AUTO 00000KT 10SM BKN018 08/04 A3050 RMK AO2=
202301232256 METAR KPWT 232256Z AUTO 13003KT 10SM SCT018 07/04 A3050 RMK AO2 SLP337 T00720039=
202301232156 METAR KPWT 232156Z AUTO 00000KT 10SM FEW017 BKN035 07/04 A3051 RMK AO2 SLP339 T00670039=
202301232056 METAR KPWT 232056Z AUTO 18003KT 10SM BKN035 06/04 A3049 RMK AO2 SLP332 T00560039 50003=
202301231956 METAR KPWT 231956Z AUTO 20004KT 10SM SCT003 OVC041 04/04 A3053 RMK AO2 SLP345 T00440044=
202301231923 SPECI KPWT 231923Z AUTO 31005KT 10SM BKN003 04/04 A3052 RMK AO2 PRESRR=
202301231907 SPECI KPWT 231907Z AUTO 00000KT 8SM OVC001 04/04 A3050 RMK AO2=
202301231856 SPECI KPWT 231856Z AUTO 00000KT 2SM BR OVC001 04/04 A3048 RMK AO2 VIS 1 1/4V5 PRESFR=
202301231853 METAR KPWT 231853Z AUTO 00000KT 1SM BR OVC001 04/04 A3049 RMK AO2 VIS 1/4V4 PRESFR SLP330 T00390039=
202301231852 SPECI KPWT 231852Z AUTO 00000KT 1SM BR OVC001 04/04 A3049 RMK AO2 VIS 1/4V4 PRESFR=
202301231837 SPECI KPWT 231837Z AUTO 23003KT 1/2SM FG OVC001 03/03 A3052 RMK AO2=
202301231756 METAR KPWT 231756Z AUTO 26003KT 1/4SM FG OVC001 03/03 A3051 RMK AO2 SLP341 60000 T00330033 10033 20017 53004=
202301231656 METAR KPWT 231656Z AUTO 00000KT M1/4SM FG OVC001 02/02 A3050 RMK AO2 SLP336 T00170017 FZRANO=
202301231556 METAR KPWT 231556Z AUTO 00000KT 1/4SM FG OVC001 02/02 A3049 RMK AO2 SLP333 T00170017 FZRANO=
202301231546 SPECI KPWT 231546Z AUTO 00000KT 1/4SM FG BKN001 OVC065 02/02 A3049 RMK AO2 FZRANO=
202301231543 SPECI KPWT 231543Z AUTO 00000KT 3/4SM BR BKN001 OVC070 02/02 A3049 RMK AO2 VIS 1/4V5 FZRANO=
202301231540 SPECI KPWT 231540Z AUTO 00000KT 2 1/2SM BR BKN001 OVC070 02/02 A3049 RMK AO2 VIS 1V5 FZRANO=
202301231517 SPECI KPWT 231517Z AUTO 18003KT 3SM BR FEW001 OVC060 02/02 A3050 RMK AO2 FZRANO=
202301231501 SPECI KPWT 231501Z AUTO 21004KT 3SM BR OVC060 02/02 A3050 RMK AO2 FZRANO=
202301231456 METAR KPWT 231456Z AUTO 21004KT 1 3/4SM BR OVC060 02/02 A3050 RMK AO2 SLP337 60000 T00170017 55004 FZRANO=
202301231447 SPECI KPWT 231447Z AUTO 22004KT 2SM BR BKN060 02/02 A3050 RMK AO2 FZRANO=
202301231437 SPECI KPWT 231437Z AUTO 21003KT 1SM BR FEW002 BKN065 02/02 A3049 RMK AO2 FZRANO=
202301231433 SPECI KPWT 231433Z AUTO 00000KT 1 1/2SM BR SCT065 02/02 A3049 RMK AO2 VIS 1/2V5 FZRANO=
202301231418 SPECI KPWT 231418Z AUTO 00000KT 5SM BR SCT004 02/02 A3049 RMK AO2 FZRANO=
202301231356 METAR KPWT 231356Z AUTO 00000KT 7SM OVC002 03/03 A3049 RMK AO2 RAE1257UPB1257E00 SLP332 P0000 T00280028=
202301231320 SPECI KPWT 231320Z AUTO 00000KT 3SM BR OVC002 03/03 A3048 RMK AO2 RAE1257UPB1257E00 P0000=
202301231312 SPECI KPWT 231312Z AUTO 00000KT 1 1/2SM BR OVC002 03/03 A3048 RMK AO2 RAE1257UPB1257E00 P0000=
202301231256 METAR KPWT 231256Z AUTO 00000KT 2SM -RA BR BKN002 03/03 A3049 RMK AO2 UPB26E29RAB29 SLP331 P0000 T00280028=
202301231226 SPECI KPWT 231226Z AUTO 16003KT 4SM UP BR BKN002 03/03 A3051 RMK AO2 UPB26 P0000=
202301231214 SPECI KPWT 231214Z AUTO 00000KT 2SM BR OVC002 03/03 RMK AO2 $=
202301231207 SPECI KPWT 231207Z AUTO 00000KT 1SM BR OVC002 03/03 A3052 RMK AO2=
202301231156 METAR KPWT 231156Z AUTO 00000KT 1/2SM FG OVC002 03/03 A3051 RMK AO2 SLP341 T00280028 10028 20006 53017=
202301231127 SPECI KPWT 231127Z AUTO 00000KT 1/4SM FG OVC002 02/02 A3049 RMK AO2 FZRANO=
202301231056 METAR KPWT 231056Z AUTO 00000KT 1/2SM FG OVC002 03/03 A3048 RMK AO2 SLP330 T00280028=
202301231024 SPECI KPWT 231024Z AUTO 00000KT 1/2SM FG OVC002 02/02 A3046 RMK AO2 FZRANO=
202301231014 SPECI KPWT 231014Z AUTO 00000KT 3/4SM BR OVC002 02/02 A3046 RMK AO2 FZRANO=
202301231007 SPECI KPWT 231007Z AUTO 00000KT 1 3/4SM BR OVC002 02/02 A3046 RMK AO2 FZRANO=
202301230956 METAR KPWT 230956Z AUTO 00000KT 7SM OVC002 02/02 A3046 RMK AO2 SLP323 T00170017 FZRANO=
202301230913 SPECI KPWT 230913Z AUTO 00000KT 8SM BKN002 OVC110 02/02 A3045 RMK AO2 FZRANO=
202301230905 SPECI KPWT 230905Z AUTO 00000KT 8SM SCT002 OVC110 02/02 A3046 RMK AO2 FZRANO=
202301230856 METAR KPWT 230856Z AUTO 00000KT 8SM OVC110 02/02 A3046 RMK AO2 SLP323 T00170017 56006 FZRANO=
202301230756 METAR KPWT 230756Z AUTO 00000KT 7SM OVC095 02/02 A3046 RMK AO2 SLP324 T00170017 400560000 FZRANO=
202301230656 METAR KPWT 230656Z AUTO 00000KT 10SM BKN085 01/01 A3047 RMK AO2 SLP326 T00110011 FZRANO=
202301230556 METAR KPWT 230556Z AUTO 00000KT 10SM FEW080 01/01 A3048 RMK AO2 SLP330 T00060006 10056 20000 58002 FZRANO=
202301230511 SPECI KPWT 230511Z AUTO 00000KT 10SM FEW080 01/01 A3048 RMK AO2 FZRANO=
202301230503 SPECI KPWT 230503Z AUTO 00000KT 2SM BR FEW080 00/00 A3048 RMK AO2 FZRANO=
202301230456 METAR KPWT 230456Z AUTO 00000KT 1SM BR CLR 00/00 A3048 RMK AO2 SLP330 T00000000 FZRANO=
202301230432 SPECI KPWT 230432Z AUTO 00000KT 3/4SM BR CLR 00/00 A3048 RMK AO2 FZRANO=
202301230425 SPECI KPWT 230425Z AUTO 00000KT 1/4SM FG CLR 00/00 A3049 RMK AO2 FZRANO=
202301230411 SPECI KPWT 230411Z AUTO 00000KT 1/2SM FG CLR 01/01 A3048 RMK AO2 FZRANO=
202301230356 METAR KPWT 230356Z AUTO 00000KT 1/4SM FG CLR 01/01 A3049 RMK AO2 SLP332 T00060006 FZRANO=
202301230334 SPECI KPWT 230334Z AUTO 00000KT 1/4SM FG VV001 02/02 A3049 RMK AO2 FZRANO=
202301230325 SPECI KPWT 230325Z AUTO 00000KT 3/4SM BR VV001 02/02 A3049 RMK AO2 FZRANO=
202301230320 SPECI KPWT 230320Z AUTO 00000KT 1/2SM FG CLR 01/01 A3049 RMK AO2 FZRANO=
202301230315 SPECI KPWT 230315Z AUTO 00000KT 3/4SM BR VV001 01/01 A3049 RMK AO2 VIS 1/4V5 FZRANO=
202301230313 SPECI KPWT 230313Z AUTO 00000KT 1SM BR FEW001 02/02 A3049 RMK AO2 VIS 1/2V5 FZRANO=
202301230310 SPECI KPWT 230310Z AUTO 00000KT 2 1/2SM BR FEW001 SCT080 02/02 A3049 RMK AO2 VIS 3/4V5 FZRANO=
202301230256 METAR KPWT 230256Z AUTO 00000KT 7SM SCT080 02/02 A3049 RMK AO2 SLP330 T00220022 53002 FZRANO=
202301230238 SPECI KPWT 230238Z AUTO 00000KT 8SM FEW080 03/03 A3049 RMK AO2=
202301230230 SPECI KPWT 230230Z AUTO 00000KT 2SM BR FEW080 03/03 A3049 RMK AO2=
202301230156 METAR KPWT 230156Z AUTO 00000KT 10SM OVC080 04/04 A3048 RMK AO2 SLP329 T00390039=
202301230056 METAR KPWT 230056Z AUTO 00000KT 10SM OVC090 04/04 A3048 RMK AO2 SLP327 T00440044=
202301222356 METAR KPWT 222356Z AUTO 06003KT 10SM FEW015 BKN100 06/04 A3048 RMK AO2 SLP329 60000 T00560039 10056 20039 53011=
202301222256 METAR KPWT 222256Z AUTO 00000KT 10SM SCT018 BKN110 06/04 A3046 RMK AO2 SLP324 T00560039=
202301222242 SPECI KPWT 222242Z AUTO 00000KT 10SM BKN018 OVC110 06/03 A3046 RMK AO2=
202301222156 METAR KPWT 222156Z AUTO 00000KT 10SM FEW010 BKN110 05/04 A3045 RMK AO2 SLP316 T00500039=
202301222152 SPECI KPWT 222152Z AUTO 00000KT 10SM FEW010 SCT018 BKN110 05/04 A3045 RMK AO2=
202301222132 SPECI KPWT 222132Z AUTO 00000KT 10SM SCT010 BKN018 05/04 A3045 RMK AO2=
202301222056 METAR KPWT 222056Z AUTO 00000KT 10SM FEW120 04/03 A3046 RMK AO2 SLP321 60000 T00440033 58003=
202301222038 SPECI KPWT 222038Z AUTO 00000KT 10SM FEW009 SCT014 SCT020 04/04 A3046 RMK AO2=
202301222029 SPECI KPWT 222029Z AUTO 00000KT 10SM FEW007 BKN014 BKN020 04/04 A3045 RMK AO2=
202301221956 METAR KPWT 221956Z AUTO VRB04KT 10SM BKN007 04/04 A3046 RMK AO2 RAE36 CIG 006V011 SLP322 P0000 T00440039=
202301221952 SPECI KPWT 221952Z AUTO 00000KT 10SM BKN007 04/04 A3046 RMK AO2 RAE36 CIG 006V011 P0000=
202301221925 SPECI KPWT 221925Z AUTO 00000KT 7SM -RA FEW007 BKN011 04/04 A3047 RMK AO2 P0000=
202301221904 SPECI KPWT 221904Z AUTO 15004KT 4SM -RA BR OVC011 04/04 A3047 RMK AO2 P0000=
202301221856 METAR KPWT 221856Z AUTO 13004KT 4SM -RA BR OVC009 04/04 A3047 RMK AO2 RAB37 CIG 007V012 SLP324 P0000 T00390039=
202301221811 SPECI KPWT 221811Z AUTO 14003KT 10SM BKN007 OVC011 04/04 A3046 RMK AO2 CIG 005V010=
202301221756 METAR KPWT 221756Z AUTO 10003KT 10SM OVC005 04/04 A3045 RMK AO2 CIG 004V009 SLP320 60000 T00390039 10039 20028 51013=
202301221733 SPECI KPWT 221733Z AUTO 10003KT 10SM BKN005 BKN010 OVC033 04/04 A3045 RMK AO2 CIG 002V008=
202301221726 SPECI KPWT 221726Z AUTO 00000KT 10SM SCT005 BKN010 OVC033 04/04 A3045 RMK AO2 CIG 008V013=
202301221717 SPECI KPWT 221717Z AUTO 00000KT 10SM SCT003 SCT012 OVC033 03/03 A3045 RMK AO2=
202301221656 METAR KPWT 221656Z AUTO 00000KT 10SM OVC030 03/03 A3045 RMK AO2 UPB03E09RAB09E23 SLP317 P0000 T00330033=
202301221556 METAR KPWT 221556Z AUTO 00000KT 9SM BKN017 OVC029 03/03 A3043 RMK AO2 UPB26E35RAB35E36 SLP313 P0000 T00280028=
202301221541 SPECI KPWT 221541Z AUTO 00000KT 10SM FEW007 OVC017 03/03 A3043 RMK AO2 UPB26E35RAB35E36 P0000=
202301221534 SPECI KPWT 221534Z AUTO 00000KT 10SM UP SCT007 BKN011 OVC017 03/03 A3043 RMK AO2 UPB26 P0000=
202301221516 SPECI KPWT 221516Z AUTO 00000KT 10SM BKN007 OVC013 03/03 A3042 RMK AO2 CIG 005V009=
202301221456 METAR KPWT 221456Z AUTO 00000KT 10SM OVC013 03/03 A3042 RMK AO2 RAE1357 SLP308 60000 T00280028 52005=
202301221452 SPECI KPWT 221452Z AUTO 00000KT 10SM OVC013 03/03 A3041 RMK AO2 RAE1357=
202301221356 METAR KPWT 221356Z AUTO 33003KT 10SM -RA FEW007 OVC015 03/03 A3040 RMK AO2 RAB22 SLP304 P0000 T00280028=
202301221353 SPECI KPWT 221353Z AUTO 00000KT 10SM -RA SCT007 OVC015 03/03 A3040 RMK AO2 RAB22 P0000=
202301221308 SPECI KPWT 221308Z AUTO 00000KT 10SM BKN007 OVC012 03/03 A3039 RMK AO2=
202301221256 METAR KPWT 221256Z AUTO 00000KT 10SM OVC011 03/03 A3039 RMK AO2 SLP299 T00280028=
202301221156 METAR KPWT 221156Z AUTO 00000KT 10SM OVC011 03/03 A3038 RMK AO2 SLP294 70039 T00280028 10028 20017 51021=
202301221139 SPECI KPWT 221139Z AUTO 00000KT 10SM SCT006 OVC011 03/03 A3037 RMK AO2=
202301221056 METAR KPWT 221056Z AUTO 00000KT 10SM OVC006 03/03 A3037 RMK AO2 SLP292 T00280028=
202301221019 SPECI KPWT 221019Z AUTO 00000KT 10SM BKN006 OVC016 03/03 A3035 RMK AO2 CIG 003V009=
202301220956 METAR KPWT 220956Z AUTO 00000KT 10SM OVC004 03/03 A3034 RMK AO2 CIG 002V009 SLP282 T00280028=
202301220922 SPECI KPWT 220922Z AUTO 35004KT 10SM OVC002 02/02 A3033 RMK AO2 FZRANO=
202301220856 METAR KPWT 220856Z AUTO 23003KT 10SM BKN004 OVC011 02/02 A3031 RMK AO2 CIG 003V008 SLP273 T00220022 51010 FZRANO=
202301220840 SPECI KPWT 220840Z AUTO 00000KT 10SM BKN004 BKN010 OVC017 02/02 A3031 RMK AO2 FZRANO=
202301220816 SPECI KPWT 220816Z AUTO 00000KT 10SM FEW003 BKN017 OVC028 02/02 A3031 RMK AO2 FZRANO=
202301220805 SPECI KPWT 220805Z AUTO 00000KT 10SM SCT003 SCT020 BKN030 02/02 A3031 RMK AO2 FZRANO=
202301220756 METAR KPWT 220756Z AUTO 00000KT 10SM BKN003 BKN028 02/02 A3030 RMK AO2 SLP269 T00170017 400331022 FZRANO=
202301220751 SPECI KPWT 220751Z AUTO 00000KT 10SM BKN003 OVC026 02/02 A3030 RMK AO2 400331022 FZRANO=
202301220708 SPECI KPWT 220708Z AUTO 00000KT 10SM SCT004 OVC018 02/02 A3029 RMK AO2 FZRANO=
202301220656 METAR KPWT 220656Z AUTO 00000KT 10SM BKN004 BKN018 02/02 A3028 RMK AO2 SLP263 T00220022 FZRANO=
202301220624 SPECI KPWT 220624Z AUTO 00000KT 10SM BKN004 BKN019 02/02 A3026 RMK AO2 FZRANO=
202301220613 SPECI KPWT 220613Z AUTO 00000KT 10SM SCT004 BKN019 02/02 A3025 RMK AO2 FZRANO=
202301220556 METAR KPWT 220556Z AUTO 00000KT 10SM OVC019 02/02 A3025 RMK AO2 SLP250 60002 T00170017 10028 20006 53031 FZRANO=
202301220456 METAR KPWT 220456Z AUTO 00000KT 10SM OVC017 02/02 A3021 RMK AO2 SLP238 T00170017 FZRANO=
202301220356 METAR KPWT 220356Z AUTO 00000KT 10SM OVC017 02/02 A3018 RMK AO2 SLP230 T00170017 FZRANO=
202301220256 METAR KPWT 220256Z AUTO 00000KT 9SM SCT002 BKN023 01/01 A3015 RMK AO2 SLP219 60002 T00110011 53030 FZRANO=
202301220234 SPECI KPWT 220234Z AUTO 14003KT 10SM SCT001 BKN025 01/01 A3013 RMK AO2 FZRANO=
202301220203 SPECI KPWT 220203Z AUTO 22004KT 10SM BKN003 BKN031 01/01 A3012 RMK AO2 FZRANO=
202301220156 METAR KPWT 220156Z AUTO 00000KT 10SM SCT003 BKN031 01/01 A3012 RMK AO2 SLP208 P0001 T00060006 FZRANO=
202301220108 SPECI KPWT 220108Z AUTO 22003KT 10SM FEW003 SCT017 02/02 A3008 RMK AO2 FZRANO=
202301220056 METAR KPWT 220056Z AUTO 00000KT 9SM SCT003 BKN017 03/03 A3006 RMK AO2 RAE30UPB30E54 SLP188 P0001 T00280028=
202301220053 SPECI KPWT 220053Z AUTO 00000KT 6SM UP BR BKN003 BKN017 03/03 A3006 RMK AO2 RAE30UPB30 P0001=
202301220041 SPECI KPWT 220041Z AUTO 30003KT 2SM UP BR BKN003 OVC007 03/03 A3006 RMK AO2 RAE30UPB30 CIG 003V006 P0001=
202301220035 SPECI KPWT 220035Z AUTO 30005KT 3SM UP BR OVC005 03/03 A3006 RMK AO2 RAE30UPB30 CIG 003V008 P0001=
202301220027 SPECI KPWT 220027Z AUTO 28003KT 2 1/2SM -RA BR OVC005 03/03 A3005 RMK AO2 CIG 003V009 P0001=
202301212356 METAR KPWT 212356Z AUTO 18007KT 4SM RA BR OVC007 03/03 A3005 RMK AO2 CIG 004V010 SLP182 P0013 60037 T00280028 10033 20000 56033=
202301212344 SPECI KPWT 212344Z AUTO 20007KT 3SM RA BR OVC007 03/03 A3005 RMK AO2 CIG 004V010 P0009=
202301212337 SPECI KPWT 212337Z AUTO 20005KT 1 1/2SM RA BR OVC007 03/03 A3005 RMK AO2 VIS 1 1/4V3 CIG 004V011 P0007=
202301212316 SPECI KPWT 212316Z AUTO 21008KT 2SM RA BR OVC009 03/03 A3006 RMK AO2 CIG 005V011 P0004=
202301212256 METAR KPWT 212256Z AUTO 22008G17KT 4SM -RA BR OVC009 03/03 A3006 RMK AO2 CIG 007V014 SLP188 P0005 T00330033=
202301212156 METAR KPWT 212156Z AUTO VRB04KT 10SM -RA OVC006 03/03 A3008 RMK AO2 UPB13E18 CIG 003V009 SLP196 P0000 T00280028=
202301212056 METAR KPWT 212056Z AUTO 24005KT 9SM -RA OVC004 01/01 A3014 RMK AO2 UPB34E47RAB47SNE34B36E46 SLP217 P0008 60019 T00060006 58023 FZRANO=
202301212025 SPECI KPWT 212025Z AUTO VRB03KT 3SM -SN BR OVC004 01/01 A3016 RMK AO2 P0005 FZRANO=
202301212007 SPECI KPWT 212007Z AUTO 20005KT 2SM -SN BR OVC004 01/01 A3018 RMK AO2 VIS 1 1/2V4 P0003 FZRANO=
202301211956 METAR KPWT 211956Z AUTO 20009KT 3SM -SN BR OVC004 01/01 A3019 RMK AO2 SLP231 P0007 T00060006 FZRANO=
202301211953 SPECI KPWT 211953Z AUTO 19007KT 3SM -SN BR OVC004 01/01 A3019 RMK AO2 P0006 FZRANO=
202301211941 SPECI KPWT 211941Z AUTO 20007KT 1 1/2SM -SN BR OVC004 01/01 A3019 RMK AO2 P0004 FZRANO=
202301211934 SPECI KPWT 211934Z AUTO 20006KT 1SM -SN BR BKN004 OVC008 00/00 A3020 RMK AO2 P0004 FZRANO=
202301211926 SPECI KPWT 211926Z AUTO 21006KT 1 1/4SM -SN BR BKN004 OVC008 01/01 A3020 RMK AO2 VIS 1V2 P0004 FZRANO=
202301211907 SPECI KPWT 211907Z AUTO 21006KT 2SM -SN BR BKN004 OVC009 01/01 A3021 RMK AO2 CIG 003V007 P0001 FZRANO=
202301211856 METAR KPWT 211856Z AUTO 21006KT 4SM -SN BR OVC004 01/01 A3021 RMK AO2 RAB02E55SNB55 CIG 003V009 SLP240 P0004 T00110011 FZRANO=
202301211836 SPECI KPWT 211836Z AUTO 20009KT 10SM -RA BKN006 OVC018 02/02 A3022 RMK AO2 RAB02 CIG 004V010 P0001 FZRANO=
202301211824 SPECI KPWT 211824Z AUTO 20009KT 10SM -RA FEW008 BKN018 OVC044 01/01 A3022 RMK AO2 RAB02 P0001 FZRANO=
202301211756 METAR KPWT 211756Z AUTO 20006KT 10SM FEW030 SCT050 01/01 A3021 RMK AO2 RAB21E46 SLP239 P0000 60000 T00110011 10011 21011 58007 FZRANO=
202301211656 METAR KPWT 211656Z AUTO 20009KT 10SM SCT002 01/01 A3022 RMK AO2 SLP242 T00060006 FZRANO=
202301211649 SPECI KPWT 211649Z AUTO 18008KT 3SM BR BKN002 01/01 A3022 RMK AO2 FZRANO=
202301211645 SPECI KPWT 211645Z AUTO 20007KT 1 1/4SM BR BKN002 00/00 A3022 RMK AO2 FZRANO=
202301211642 SPECI KPWT 211642Z AUTO 20004KT 3/4SM BR BKN002 00/00 A3022 RMK AO2 FZRANO=
202301211556 METAR KPWT 211556Z AUTO 22006KT 1/4SM FZFG OVC002 M01/M01 A3022 RMK AO2 SLP243 T10061006 FZRANO=
202301211527 SPECI KPWT 211527Z AUTO 21005KT 1/4SM FG VV002 00/00 A3021 RMK AO2 FZRANO=
202301211456 METAR KPWT 211456Z AUTO 23005KT 1/4SM FZFG CLR M01/M01 A3023 RMK AO2 SLP246 T10061006 56029 FZRANO=
202301211437 SPECI KPWT 211437Z AUTO 23004KT 1/4SM FZFG CLR M01/M01 A3024 RMK AO2 FZRANO=
202301211404 SPECI KPWT 211404Z AUTO 23005KT 1/4SM FZFG OVC002 M01/M01 A3026 RMK AO2 FZRANO=
202301211356 METAR KPWT 211356Z AUTO 23006KT 1/2SM FZFG OVC002 M01/M01 A3026 RMK AO2 SLP256 T10061006 FZRANO=
202301211344 SPECI KPWT 211344Z AUTO 19003KT 3/4SM BR OVC002 M01/M01 A3026 RMK AO2 FZRANO=
202301211256 METAR KPWT 211256Z AUTO 00000KT 1/4SM FZFG OVC002 M01/M01 A3028 RMK AO2 SLP262 T10061006 FZRANO=
202301211218 SPECI KPWT 211218Z AUTO 25004KT 1/4SM FG VV002 00/00 A3031 RMK AO2 FZRANO=
202301211156 METAR KPWT 211156Z AUTO 00000KT 1/4SM FG CLR 01/01 A3032 RMK AO2 SLP273 T00060006 10006 21022 58014 FZRANO=
202301211154 SPECI KPWT 211154Z AUTO 00000KT 1/4SM FG CLR 01/01 A3032 RMK AO2 FZRANO=
202301211056 METAR KPWT 211056Z AUTO 00000KT 1/4SM FZFG VV002 M01/M01 A3036 RMK AO2 SLP287 T10061006 FZRANO=
202301211051 SPECI KPWT 211051Z AUTO 00000KT 1/4SM FZFG CLR M01/M01 A3036 RMK AO2 FZRANO=
202301211009 SPECI KPWT 211009Z AUTO 00000KT 1/4SM FZFG BKN001 M02/M02 A3036 RMK AO2 FZRANO=
202301211003 SPECI KPWT 211003Z AUTO 00000KT 3/4SM BR VV001 M02/M02 A3036 RMK AO2 FZRANO=
202301211001 SPECI KPWT 211001Z AUTO 00000KT 1 1/4SM BR SCT001 M02/M02 A3036 RMK AO2 FZRANO=
202301210956 METAR KPWT 210956Z AUTO 00000KT 10SM SCT003 M02/M02 A3036 RMK AO2 SLP290 T10171017 FZRANO=
202301210948 SPECI KPWT 210948Z AUTO 00000KT 10SM SCT005 M02/M02 A3037 RMK AO2 FZRANO=
202301210935 SPECI KPWT 210935Z AUTO 00000KT 10SM BKN005 M01/M01 A3038 RMK AO2 CIG 004V008 FZRANO=
202301210925 SPECI KPWT 210925Z AUTO 14003KT 9SM SCT007 M02/M02 A3038 RMK AO2 FZRANO=
202301210856 METAR KPWT 210856Z AUTO 00000KT 7SM CLR M02/M02 A3038 RMK AO2 SLP294 T10171017 58014 FZRANO=
202301210756 METAR KPWT 210756Z AUTO 00000KT 10SM CLR M02/M02 A3041 RMK AO2 SLP304 T10171017 400781017 FZRANO=
202301210749 SPECI KPWT 210749Z AUTO 00000KT 2 1/2SM BR CLR M02/M02 A3041 RMK AO2 FZRANO=
202301210656 METAR KPWT 210656Z AUTO 00000KT 9SM CLR M02/M02 A3042 RMK AO2 SLP308 T10171017 FZRANO=
202301210643 SPECI KPWT 210643Z AUTO 14003KT 10SM CLR M02/M02 A3041 RMK AO2 FZRANO=
202301210634 SPECI KPWT 210634Z AUTO 00000KT 2SM BR CLR M01/M01 A3041 RMK AO2 FZRANO=
202301210632 SPECI KPWT 210632Z AUTO 00000KT 1SM BR CLR M01/M01 A3041 RMK AO2 FZRANO=
202301210624 SPECI KPWT 210624Z AUTO 00000KT 1/2SM FZFG CLR M02/M02 A3042 RMK AO2 FZRANO=
202301210614 SPECI KPWT 210614Z AUTO 00000KT 3/4SM BR CLR M02/M02 A3042 RMK AO2 VIS 1/4V5 FZRANO=
202301210612 SPECI KPWT 210612Z AUTO 00000KT 1 1/4SM BR CLR M01/M01 A3042 RMK AO2 VIS 1/4V5 FZRANO=
202301210603 SPECI KPWT 210603Z AUTO 00000KT 10SM CLR M01/M01 A3042 RMK AO2 FZRANO=
202301210556 METAR KPWT 210556Z AUTO 00000KT 2SM BR CLR M01/M01 A3042 RMK AO2 SLP309 T10111011 10067 21011 56013 FZRANO=
202301210553 SPECI KPWT 210553Z AUTO 00000KT 1SM BR CLR M01/M01 A3042 RMK AO2 FZRANO=
202301210549 SPECI KPWT 210549Z AUTO 00000KT 1/2SM FZFG CLR M01/M01 A3042 RMK AO2 FZRANO=
202301210540 SPECI KPWT 210540Z AUTO 00000KT 3/4SM BR CLR M01/M01 A3042 RMK AO2 FZRANO=
202301210537 SPECI KPWT 210537Z AUTO 00000KT 1 1/2SM BR CLR M01/M01 A3042 RMK AO2 FZRANO=
202301210507 SPECI KPWT 210507Z AUTO 00000KT 3SM BR CLR M01/M01 A3042 RMK AO2 FZRANO=
202301210502 SPECI KPWT 210502Z AUTO 00000KT 1 1/4SM BR CLR M01/M01 A3042 RMK AO2 VIS 1/2V5 FZRANO=
202301210456 METAR KPWT 210456Z AUTO 00000KT 3/4SM BR CLR M01/M01 A3043 RMK AO2 VIS 1/2V2 1/2 SLP312 T10111011 FZRANO=
202301210453 SPECI KPWT 210453Z AUTO 00000KT 3/4SM BR CLR M01/M01 A3043 RMK AO2 FZRANO=
202301210448 SPECI KPWT 210448Z AUTO 00000KT 1 1/2SM BR CLR M01/M01 A3043 RMK AO2 FZRANO=
202301210433 SPECI KPWT 210433Z AUTO 00000KT 4SM BR CLR M01/M01 A3043 RMK AO2 FZRANO=
202301210419 SPECI KPWT 210419Z AUTO 00000KT 2SM BR CLR M01/M01 A3043 RMK AO2 VIS 3/4V5 FZRANO=
202301210356 METAR KPWT 210356Z AUTO 00000KT 10SM CLR 00/00 A3044 RMK AO2 SLP315 T00000000 FZRANO=
202301210351 SPECI KPWT 210351Z AUTO 00000KT 3SM BR CLR 00/00 A3043 RMK AO2 FZRANO=
202301210342 SPECI KPWT 210342Z AUTO 00000KT 1 3/4SM BR CLR 00/00 A3044 RMK AO2 VIS 1/2V5 FZRANO=
202301210308 SPECI KPWT 210308Z AUTO 00000KT 3SM BR CLR 00/00 A3045 RMK AO2 FZRANO=
202301210256 METAR KPWT 210256Z AUTO 00000KT 1 1/4SM BR CLR 00/00 A3046 RMK AO2 SLP322 T00000000 58008 FZRANO=
202301210250 SPECI KPWT 210250Z AUTO 00000KT 3/4SM BR CLR 01/01 A3046 RMK AO2 VIS 1/2V5 FZRANO=
202301210244 SPECI KPWT 210244Z AUTO 00000KT 1 1/2SM BR CLR 01/01 A3046 RMK AO2 FZRANO=
202301210156 METAR KPWT 210156Z AUTO 00000KT 10SM CLR 02/02 A3047 RMK AO2 SLP324 T00220022 FZRANO=
202301210056 METAR KPWT 210056Z AUTO 00000KT 10SM CLR 05/03 A3048 RMK AO2 SLP329 T00500033=
202301202356 METAR KPWT 202356Z AUTO 06005KT 10SM CLR 07/04 A3048 RMK AO2 SLP329 T00670039 10078 20039 56005=
202301202256 METAR KPWT 202256Z AUTO 05004KT 10SM CLR 07/03 A3048 RMK AO2 SLP329 T00670033=
202301202156 METAR KPWT 202156Z AUTO 07005KT 10SM FEW016 06/04 A3049 RMK AO2 SLP331 T00610039=
202301202148 SPECI KPWT 202148Z AUTO 05006KT 10SM SCT016 06/04 A3049 RMK AO2=
202301202133 SPECI KPWT 202133Z AUTO 00000KT 10SM BKN016 07/04 RMK AO2 $=
202301202056 METAR KPWT 202056Z AUTO 00000KT 10SM CLR 07/04 A3050 RMK AO2 SLP335 T00720039 56009=
202301201956 METAR KPWT 201956Z AUTO 00000KT 10SM FEW008 05/03 A3050 RMK AO2 SLP338 T00500033=
202301201954 SPECI KPWT 201954Z AUTO 00000KT 10SM SCT008 05/03 A3050 RMK AO2=
202301201856 METAR KPWT 201856Z AUTO 00000KT 10SM OVC006 04/03 A3052 RMK AO2 SLP343 T00440033=
202301201822 SPECI KPWT 201822Z AUTO 00000KT 10SM OVC006 04/03 A3052 RMK AO2=
202301201756 METAR KPWT 201756Z AUTO 00000KT 10SM OVC004 04/03 A3052 RMK AO2 SLP343 T00390033 10039 20033 53010=
202301201718 SPECI KPWT 201718Z AUTO 23003KT 9SM OVC004 03/03 A3051 RMK AO2=
202301201656 METAR KPWT 201656Z AUTO 27003KT 10SM OVC006 03/03 A3051 RMK AO2 SLP339 T00330033=
202301201556 METAR KPWT 201556Z AUTO 00000KT 9SM OVC006 03/03 A3050 RMK AO2 SLP335 T00330033=
202301201456 METAR KPWT 201456Z AUTO 00000KT 10SM OVC006 03/03 A3049 RMK AO2 SLP333 T00330033 55000=
202301201356 METAR KPWT 201356Z AUTO 00000KT 9SM OVC006 03/03 A3049 RMK AO2 SLP332 T00330033=
202301201256 METAR KPWT 201256Z AUTO 00000KT 5SM BR OVC006 03/03 A3049 RMK AO2 SLP331 T00330033=
202301201156 METAR KPWT 201156Z AUTO 00000KT 5SM BR OVC006 03/03 A3049 RMK AO2 SLP333 T00330033 10033 20033 50003=
202301201132 SPECI KPWT 201132Z AUTO 00000KT 3SM BR OVC004 03/03 A3050 RMK AO2 CIG 002V007=
202301201056 METAR KPWT 201056Z AUTO 00000KT 3SM BR OVC002 03/03 A3050 RMK AO2 SLP335 T00330033=
202301201039 SPECI KPWT 201039Z AUTO 00000KT 3SM BR OVC002 03/03 A3050 RMK AO2=
202301201029 SPECI KPWT 201029Z AUTO 00000KT 2 1/2SM BR OVC002 03/03 A3050 RMK AO2=
202301201019 SPECI KPWT 201019Z AUTO 00000KT 3SM BR OVC002 03/03 A3050 RMK AO2=
202301201013 SPECI KPWT 201013Z AUTO 00000KT 1 1/4SM BR OVC002 03/03 A3050 RMK AO2=
202301200956 METAR KPWT 200956Z AUTO 00000KT 3/4SM BR OVC002 03/03 A3050 RMK AO2 SLP335 T00330033=
202301200949 SPECI KPWT 200949Z AUTO 00000KT 1SM BR OVC002 03/03 A3050 RMK AO2=
202301200922 SPECI KPWT 200922Z AUTO 00000KT 3/4SM BR OVC002 03/03 A3049 RMK AO2=
202301200908 SPECI KPWT 200908Z AUTO 00000KT 1/2SM FG OVC002 03/03 A3049 RMK AO2=
202301200856 METAR KPWT 200856Z AUTO 00000KT 3/4SM BR OVC002 03/03 A3049 RMK AO2 SLP329 T00330033 52001=
202301200817 SPECI KPWT 200817Z AUTO 00000KT 1 1/4SM BR OVC004 03/03 A3048 RMK AO2=
202301200807 SPECI KPWT 200807Z AUTO 00000KT 3/4SM BR OVC004 03/03 A3048 RMK AO2=
202301200756 METAR KPWT 200756Z AUTO 00000KT 1SM BR OVC004 03/03 A3048 RMK AO2 SLP328 T00330033 400441006=
202301200746 SPECI KPWT 200746Z AUTO 00000KT 1 3/4SM BR OVC004 03/03 A3048 RMK AO2=
202301200712 SPECI KPWT 200712Z AUTO 00000KT 10SM OVC004 03/03 A3049 RMK AO2=
202301200656 METAR KPWT 200656Z AUTO 00000KT 10SM OVC006 03/03 A3049 RMK AO2 SLP331 T00330033=
202301200556 METAR KPWT 200556Z AUTO 00000KT 10SM OVC006 03/03 A3048 RMK AO2 SLP330 T00330033 10033 20022 53015=
202301200456 METAR KPWT 200456Z AUTO 00000KT 10SM OVC006 03/03 A3046 RMK AO2 SLP324 T00330033=
202301200356 METAR KPWT 200356Z AUTO 00000KT 10SM OVC006 03/03 A3045 RMK AO2 SLP318 T00280028=
202301200330 SPECI KPWT 200330Z AUTO 00000KT 10SM OVC006 03/03 A3044 RMK AO2=
202301200256 METAR KPWT 200256Z AUTO 26003KT 10SM OVC004 02/02 A3044 RMK AO2 SLP316 T00220022 53006 FZRANO=
202301200156 METAR KPWT 200156Z AUTO 21003KT 10SM OVC004 03/03 A3043 RMK AO2 SLP313 T00280028=
202301200147 SPECI KPWT 200147Z AUTO 22004KT 10SM OVC004 03/03 A3043 RMK AO2=
202301200056 METAR KPWT 200056Z AUTO 18003KT 10SM OVC006 03/03 A3042 RMK AO2 SLP310 T00280028=
202301192356 METAR KPWT 192356Z AUTO 00000KT 10SM OVC006 03/03 A3042 RMK AO2 SLP310 T00330028 10044 20028 53007=
202301192256 METAR KPWT 192256Z AUTO 00000KT 10SM OVC006 03/03 A3041 RMK AO2 SLP304 T00330028=
202301192156 METAR KPWT 192156Z AUTO 00000KT 10SM OVC008 04/03 A3041 RMK AO2 SLP302 T00390028=
202301192056 METAR KPWT 192056Z AUTO 12004KT 10SM OVC006 04/03 A3040 RMK AO2 SLP300 T00390033 51014=
202301191956 METAR KPWT 191956Z AUTO 00000KT 10SM OVC006 04/03 A3039 RMK AO2 SLP298 T00390028=
202301191856 METAR KPWT 191856Z AUTO 00000KT 10SM OVC006 03/03 A3038 RMK AO2 SLP295 T00330033=
202301191756 METAR KPWT 191756Z AUTO 00000KT 10SM OVC006 03/03 A3036 RMK AO2 SLP287 T00330033 10033 21006 53024=
202301191656 METAR KPWT 191656Z AUTO 21003KT 10SM OVC006 02/02 A3033 RMK AO2 SLP277 T00220022 FZRANO=
202301191556 METAR KPWT 191556Z AUTO 00000KT 10SM BKN006 BKN011 01/01 A3031 RMK AO2 CIG 004V010 SLP270 T00060006 FZRANO=
202301191503 SPECI KPWT 191503Z AUTO 00000KT 10SM BKN006 M01/M01 A3029 RMK AO2 FZRANO=
202301191456 METAR KPWT 191456Z AUTO 00000KT 10SM SCT006 M01/M01 A3029 RMK AO2 SLP264 T10061006 51024 FZRANO=
202301191414 SPECI KPWT 191414Z AUTO 00000KT 10SM SCT009 01/01 A3027 RMK AO2 FZRANO=
202301191356 METAR KPWT 191356Z AUTO 00000KT 10SM BKN009 00/00 A3026 RMK AO2 CIG 008V011 SLP255 T00000000 FZRANO=
202301191322 SPECI KPWT 191322Z AUTO 00000KT 9SM SCT009 01/01 A3025 RMK AO2 FZRANO=
202301191256 METAR KPWT 191256Z AUTO 00000KT 10SM BKN009 01/01 A3024 RMK AO2 SLP248 T00060006 FZRANO=
202301191248 SPECI KPWT 191248Z AUTO 00000KT 10SM BKN009 01/01 A3024 RMK AO2 FZRANO=
202301191232 SPECI KPWT 191232Z AUTO 13004KT 3SM BR FEW009 00/00 A3024 RMK AO2 FZRANO=
202301191222 SPECI KPWT 191222Z AUTO 00000KT 1 3/4SM BR CLR 00/00 A3023 RMK AO2 VIS 3/4V5 FZRANO=
202301191206 SPECI KPWT 191206Z AUTO 22003KT 4SM BR CLR 01/01 A3022 RMK AO2 FZRANO=
202301191156 METAR KPWT 191156Z AUTO 00000KT 1 1/4SM BR CLR 01/01 A3022 RMK AO2 SLP238 70030 T00110011 10044 20011 51024 FZRANO=
202301191153 SPECI KPWT 191153Z AUTO 00000KT 1 3/4SM BR CLR 01/01 A3022 RMK AO2 VIS 3/4V5 FZRANO=
202301191124 SPECI KPWT 191124Z AUTO 00000KT 10SM SCT008 SCT013 03/03 A3021 RMK AO2=
202301191056 METAR KPWT 191056Z AUTO 00000KT 10SM OVC006 04/03 A3020 RMK AO2 SLP233 T00390033=
202301190956 METAR KPWT 190956Z AUTO 00000KT 10SM OVC006 03/03 A3017 RMK AO2 SLP224 T00330033=
202301190924 SPECI KPWT 190924Z AUTO 13003KT 10SM OVC008 03/03 A3015 RMK AO2 CIG 004V011=
202301190856 METAR KPWT 190856Z AUTO 00000KT 10SM OVC004 04/04 A3014 RMK AO2 SLP216 T00390039 51026=
202301190836 SPECI KPWT 190836Z AUTO 00000KT 10SM OVC004 04/04 A3014 RMK AO2=
202301190756 METAR KPWT 190756Z AUTO 14003KT 7SM OVC002 04/04 A3012 RMK AO2 SLP207 T00390039 400670039=
202301190656 METAR KPWT 190656Z AUTO 14003KT 10SM OVC004 04/04 A3010 RMK AO2 SLP199 T00390039=
202301190610 SPECI KPWT 190610Z AUTO 00000KT 10SM OVC004 04/04 A3007 RMK AO2=
202301190556 METAR KPWT 190556Z AUTO 00000KT 10SM OVC006 04/04 A3007 RMK AO2 SLP188 T00440044 10061 20044 53026=
202301190535 SPECI KPWT 190535Z AUTO 05003KT 10SM BKN008 BKN014 04/04 A3005 RMK AO2 CIG 006V011=
202301190519 SPECI KPWT 190519Z AUTO 00000KT 10SM SCT006 BKN012 04/04 A3004 RMK AO2=
202301190507 SPECI KPWT 190507Z AUTO 14004KT 10SM BKN006 OVC009 04/04 A3003 RMK AO2=
202301190456 METAR KPWT 190456Z AUTO 10004KT 10SM OVC004 05/05 A3003 RMK AO2 SLP177 T00500050=
202301190356 METAR KPWT 190356Z AUTO 00000KT 10SM OVC004 05/05 A3001 RMK AO2 SLP169 T00500050=
202301190256 METAR KPWT 190256Z AUTO 00000KT 10SM BKN006 OVC041 05/05 A2999 RMK AO2 SLP161 T00500050 53024=
202301190243 SPECI KPWT 190243Z AUTO 00000KT 10SM SCT006 SCT027 BKN039 05/05 A2998 RMK AO2=
202301190210 SPECI KPWT 190210Z AUTO 00000KT 10SM FEW023 BKN030 OVC038 06/06 A2996 RMK AO2=
202301190156 METAR KPWT 190156Z AUTO 36003KT 10SM OVC028 06/06 A2996 RMK AO2 SLP151 T00560056=
202301190056 METAR KPWT 190056Z AUTO 12003KT 10SM BKN017 BKN037 06/06 A2994 RMK AO2 SLP145 T00560056=
202301190026 SPECI KPWT 190026Z AUTO 06004KT 10SM SCT006 SCT012 OVC019 06/06 A2993 RMK AO2=
202301182356 METAR KPWT 182356Z AUTO 00000KT 10SM BKN006 BKN012 OVC019 06/06 A2991 RMK AO2 CIG 005V009 SLP137 60002 T00610061 10067 20050 53024=
202301182339 SPECI KPWT 182339Z AUTO 00000KT 10SM BKN006 OVC011 06/06 A2990 RMK AO2 CIG 004V009=
202301182328 SPECI KPWT 182328Z AUTO 18003KT 10SM SCT006 OVC011 06/06 A2990 RMK AO2=
202301182313 SPECI KPWT 182313Z AUTO 00000KT 10SM BKN012 OVC019 06/06 A2989 RMK AO2=
202301182303 SPECI KPWT 182303Z AUTO 00000KT 10SM FEW009 OVC017 06/06 A2989 RMK AO2=
202301182256 METAR KPWT 182256Z AUTO 16003KT 10SM OVC017 06/06 A2988 RMK AO2 SLP125 T00610061=
202301182229 SPECI KPWT 182229Z AUTO 19004KT 10SM SCT007 OVC015 06/06 A2987 RMK AO2=
202301182156 METAR KPWT 182156Z AUTO 23005KT 10SM OVC007 06/06 A2986 RMK AO2 CIG 005V010 SLP118 T00560056=
202301182056 METAR KPWT 182056Z AUTO 21007KT 10SM OVC007 05/05 A2984 RMK AO2 CIG 005V010 SLP112 60002 T00500050 51016=
202301181956 METAR KPWT 181956Z AUTO 21009KT 10SM OVC007 05/05 A2983 RMK AO2 RAE22 CIG 005V013 SLP107 P0000 T00500050=
202301181934 SPECI KPWT 181934Z AUTO 20012G16KT 10SM OVC007 05/05 A2983 RMK AO2 RAE22 CIG 004V011 P0000=
202301181922 SPECI KPWT 181922Z AUTO 22008KT 10SM BKN005 05/05 A2983 RMK AO2 RAE22 CIG 004V008 P0000=
202301181856 METAR KPWT 181856Z AUTO 20009KT 10SM -RA BKN007 BKN011 OVC032 05/05 A2981 RMK AO2 CIG 005V010 SLP102 P0002 T00500050=
202301181825 SPECI KPWT 181825Z AUTO 21010KT 10SM -RA BKN009 OVC034 05/05 A2981 RMK AO2 CIG 006V012 P0001=
202301181807 SPECI KPWT 181807Z AUTO 20009KT 10SM -RA FEW009 BKN034 06/05 A2980 RMK AO2 P0000=
202301181756 METAR KPWT 181756Z AUTO 20009KT 10SM -RA SCT010 SCT036 06/06 A2980 RMK AO2 SLP096 P0001 60028 T00560056 10067 20056 51014=
202301181751 SPECI KPWT 181751Z AUTO 20009KT 10SM -RA SCT010 SCT036 06/06 A2979 RMK AO2 P0001=
202301181728 SPECI KPWT 181728Z AUTO 21009G18KT 10SM -RA FEW004 BKN010 06/06 A2979 RMK AO2 CIG 007V014 P0001=
202301181710 SPECI KPWT 181710Z AUTO 22008KT 10SM -RA BKN004 OVC019 06/06 A2978 RMK AO2 CIG 003V007 P0000=
202301181656 METAR KPWT 181656Z AUTO 21010KT 10SM -RA OVC007 06/06 A2977 RMK AO2 CIG 004V010 SLP089 P0002 T00610061=
202301181645 SPECI KPWT 181645Z AUTO 22008KT 10SM -RA OVC009 06/06 A2977 RMK AO2 CIG 005V013 P0002=
202301181556 METAR KPWT 181556Z AUTO 22011KT 10SM -RA OVC011 06/06 A2975 RMK AO2 SLP082 P0002 T00610061=
202301181508 SPECI KPWT 181508Z AUTO 20010G16KT 10SM -RA BKN014 OVC019 07/06 A2974 RMK AO2 P0001=
202301181456 METAR KPWT 181456Z AUTO 20006KT 10SM -RA BKN016 OVC023 07/06 A2974 RMK AO2 SLP077 P0005 60023 T00670061 56016=
202301181356 METAR KPWT 181356Z AUTO 00000KT 7SM RA OVC023 06/06 A2975 RMK AO2 SLP080 P0011 T00560056=
202301181256 METAR KPWT 181256Z AUTO 00000KT 6SM RA BR OVC027 06/06 A2976 RMK AO2 SLP084 P0007 T00610061=
202301181246 SPECI KPWT 181246Z AUTO 00000KT 6SM RA BR OVC029 06/06 A2977 RMK AO2 P0005=
202301181156 METAR KPWT 181156Z AUTO 20006KT 10SM -RA OVC035 06/06 A2979 RMK AO2 SLP094 P0005 60007 70015 T00610061 10067 20061 58023=
202301181056 METAR KPWT 181056Z AUTO 19006KT 10SM -RA SCT041 06/06 A2982 RMK AO2 RAB04 SLP104 P0001 T00610056=
202301181013 SPECI KPWT 181013Z AUTO 18009G16KT 10SM -RA SCT016 OVC039 06/06 A2984 RMK AO2 RAB04 P0001=
202301180956 METAR KPWT 180956Z AUTO 19010KT 10SM BKN016 OVC039 06/06 A2985 RMK AO2 RAB15E40 SLP112 P0000 T00610056=
202301180941 SPECI KPWT 180941Z AUTO 19007KT 10SM BKN016 BKN038 BKN065 06/06 A2985 RMK AO2 RAB15E40 P0000=
202301180856 METAR KPWT 180856Z AUTO 19010KT 10SM FEW035 SCT046 OVC060 06/06 A2986 RMK AO2 RAE18 SLP117 P0000 60001 T00610056 58013=
202301180756 METAR KPWT 180756Z AUTO 19008KT 10SM -RA SCT015 OVC031 06/06 A2988 RMK AO2 SLP123 P0001 T00610056 400720050=
202301180656 METAR KPWT 180656Z AUTO 18005KT 10SM -RA OVC017 06/06 A2989 RMK AO2 RAB22 SLP129 P0000 T00610056=
202301180556 METAR KPWT 180556Z AUTO 19005KT 10SM OVC017 06/06 A2990 RMK AO2 SLP131 60007 T00610056 10067 20061 56006=
202301180456 METAR KPWT 180456Z AUTO 19007KT 10SM SCT013 OVC019 06/06 A2990 RMK AO2 RAE54 SLP132 P0000 T00610056=
202301180417 SPECI KPWT 180417Z AUTO 19007KT 10SM -RA SCT009 BKN015 OVC034 06/06 A2990 RMK AO2 P0000=
202301180356 METAR KPWT 180356Z AUTO 20010KT 10SM -RA BKN009 OVC014 06/06 A2990 RMK AO2 CIG 007V012 SLP133 P0002 T00610056=
202301180256 METAR KPWT 180256Z AUTO 19006KT 10SM -RA BKN007 OVC012 06/06 A2992 RMK AO2 CIG 003V009 SLP137 P0002 60005 T00610061 57006=
202301180215 SPECI KPWT 180215Z AUTO 19006KT 10SM -RA SCT006 OVC013 06/06 A2992 RMK AO2 P0000=
202301180207 SPECI KPWT 180207Z AUTO 20006KT 10SM -RA SCT009 OVC015 06/06 A2992 RMK AO2 P0000=
202301180156 METAR KPWT 180156Z AUTO 20005KT 10SM -RA FEW010 BKN015 OVC021 06/06 A2992 RMK AO2 SLP139 P0002 T00610061=
202301180104 SPECI KPWT 180104Z AUTO 19006KT 9SM -RA SCT006 BKN019 OVC035 06/06 A2993 RMK AO2 P0000=
202301180056 METAR KPWT 180056Z AUTO 19006KT 10SM -RA SCT006 BKN011 OVC033 07/07 A2993 RMK AO2 SLPNO P0001 T00670067=
202301180045 SPECI KPWT 180045Z AUTO 20006KT 6SM -RA BR BKN006 BKN013 OVC026 07/07 A2993 RMK AO2 CIG 004V011 P0001=
202301180038 SPECI KPWT 180038Z AUTO 19006KT 5SM -RA BR SCT006 BKN013 OVC024 07/07 A2993 RMK AO2 P0001=
202301180016 SPECI KPWT 180016Z AUTO 19006KT 10SM -RA FEW008 BKN024 OVC044 07/07 A2993 RMK AO2 P0000=
202301172356 METAR KPWT 172356Z AUTO 20006KT 10SM -RA FEW009 BKN037 OVC044 07/07 A2993 RMK AO2 SLP143 P0001 60001 T00670067 10072 20056 56004=
202301172328 SPECI KPWT 172328Z AUTO 21009KT 10SM -RA SCT009 BKN024 OVC035 07/07 A2994 RMK AO2 P0001=
202301172309 SPECI KPWT 172309Z AUTO 19007G15KT 10SM -RA FEW009 OVC035 07/06 A2994 RMK AO2 P0001=
202301172256 METAR KPWT 172256Z AUTO 20008KT 10SM -RA BKN009 BKN037 BKN045 07/07 A2994 RMK AO2 RAE23B51 CIG 007V013 SLP144 P0000 T00720067=
202301172156 METAR KPWT 172156Z AUTO 20009KT 10SM -RA OVC007 07/07 A2994 RMK AO2 RAE2057B40 CIG 005V012 SLP144 P0000 T00670067=
202301172129 SPECI KPWT 172129Z AUTO 20009KT 10SM BKN007 OVC025 07/07 A2994 RMK AO2 RAE2057=
202301172056 METAR KPWT 172056Z AUTO 20011KT 10SM -RA OVC005 07/07 A2995 RMK AO2 RAE1957B30 SLP147 P0000 60000 T00670067 58003=
202301171956 METAR KPWT 171956Z AUTO 19008KT 8SM -RA OVC005 07/07 A2995 RMK AO2 RAB25 CIG 004V008 SLP150 P0000 T00670067=
202301171856 METAR KPWT 171856Z AUTO 20009KT 10SM OVC005 06/06 A2996 RMK AO2 CIG 004V009 SLP152 T00610061=
202301171756 METAR KPWT 171756Z AUTO 20012KT 7SM OVC005 06/06 A2995 RMK AO2 CIG 004V009 SLP150 T00560056 10061 20056 53016=
202301171656 METAR KPWT 171656Z AUTO 21012KT 10SM OVC005 06/06 A2994 RMK AO2 CIG 004V008 SLP144 T00560056=
202301171617 SPECI KPWT 171617Z AUTO 20009KT 10SM OVC007 06/06 A2992 RMK AO2 CIG 005V011=
202301171608 SPECI KPWT 171608Z AUTO 20011KT 10SM BKN005 OVC011 06/06 A2992 RMK AO2 CIG 003V009=
202301171556 METAR KPWT 171556Z AUTO 20010KT 10SM BKN003 OVC009 06/06 A2992 RMK AO2 CIG 003V006 SLP137 T00560056=
202301171456 METAR KPWT 171456Z AUTO 20008KT 10SM OVC003 06/06 A2991 RMK AO2 SLP134 T00560056 51008=
202301171356 METAR KPWT 171356Z AUTO 20007KT 7SM OVC003 06/06 A2990 RMK AO2 SLP130 T00560056=
202301171256 METAR KPWT 171256Z AUTO 18004KT 3SM BR OVC003 A2990 RMK AO2 SLPNO FZRANO=
202301171156 METAR KPWT 171156Z AUTO 19006KT 4SM BR OVC003 06/06 A2988 RMK AO2 SLP125 70001 T00560056 10056 20044 51009=
202301171056 METAR KPWT 171056Z AUTO 20006KT 4SM BR OVC003 05/05 A2988 RMK AO2 SLP124 T00500050=
202301171047 SPECI KPWT 171047Z AUTO 19007KT 4SM BR OVC005 06/06 A2988 RMK AO2 CIG 003V007=
202301170956 METAR KPWT 170956Z AUTO 19008KT 8SM OVC007 06/06 A2986 RMK AO2 CIG 005V011 SLP117 T00560056=
202301170912 SPECI KPWT 170912Z AUTO 20007KT 9SM OVC009 06/06 A2986 RMK AO2 CIG 007V013=
202301170856 METAR KPWT 170856Z AUTO 20006KT 10SM BKN011 OVC023 06/06 A2985 RMK AO2 SLP115 T00560056 51004=
202301170848 SPECI KPWT 170848Z AUTO 19007KT 10SM SCT013 BKN023 06/06 A2985 RMK AO2=
202301170838 SPECI KPWT 170838Z AUTO 19005KT 10SM BKN013 OVC027 06/06 A2985 RMK AO2=
202301170807 SPECI KPWT 170807Z AUTO 18005KT 10SM BKN029 OVC034 06/06 A2985 RMK AO2=
202301170756 METAR KPWT 170756Z AUTO 19004KT 10SM OVC031 06/06 A2985 RMK AO2 SLP114 T00560056 400890039=
202301170719 SPECI KPWT 170719Z AUTO 21006KT 10SM FEW010 SCT014 OVC035 05/05 A2985 RMK AO2=
202301170704 SPECI KPWT 170704Z AUTO 21005KT 10SM BKN014 BKN025 BKN034 06/06 A2984 RMK AO2=
202301170656 METAR KPWT 170656Z AUTO 20005KT 10SM SCT014 BKN020 OVC034 06/06 A2984 RMK AO2 SLP111 T00560056=
202301170647 SPECI KPWT 170647Z AUTO 20004KT 10SM SCT016 BKN033 05/05 A2984 RMK AO2=
202301170636 SPECI KPWT 170636Z AUTO 20004KT 10SM SCT011 BKN018 OVC033 05/05 A2984 RMK AO2=
202301170620 SPECI KPWT 170620Z AUTO 21003KT 10SM BKN011 BKN025 04/04 A2984 RMK AO2=
202301170604 SPECI KPWT 170604Z AUTO 22004KT 10SM SCT013 BKN025 05/05 A2983 RMK AO2=
202301170556 METAR KPWT 170556Z AUTO 21004KT 10SM BKN013 OVC025 05/05 A2983 RMK AO2 SLP109 T00500050 10072 20039 53009=
202301170537 SPECI KPWT 170537Z AUTO 22004KT 10SM OVC013 05/05 A2983 RMK AO2=
202301170456 METAR KPWT 170456Z AUTO 22005KT 10SM BKN018 OVC026 05/05 A2982 RMK AO2 SLP105 T00500050=
202301170356 METAR KPWT 170356Z AUTO 22004KT 9SM BKN022 OVC029 06/06 A2982 RMK AO2 SLP103 T00560056=
202301170333 SPECI KPWT 170333Z AUTO 23006KT 9SM SCT008 BKN022 OVC027 06/06 A2981 RMK AO2=
202301170315 SPECI KPWT 170315Z AUTO 22004KT 10SM BKN008 BKN013 OVC031 06/06 A2981 RMK AO2 CIG 006V011=
202301170308 SPECI KPWT 170308Z AUTO 22005KT 10SM SCT010 BKN013 OVC031 06/06 A2981 RMK AO2=
202301170256 METAR KPWT 170256Z AUTO 23006KT 10SM FEW022 BKN031 05/05 A2981 RMK AO2 SLP099 T00500050 53015=
202301170156 METAR KPWT 170156Z AUTO 21005KT 10SM CLR 04/04 A2979 RMK AO2 SLP093 T00440044=
202301170056 METAR KPWT 170056Z AUTO 22006KT 10SM BKN035 06/06 A2978 RMK AO2 SLP089 T00610056=
202301170010 SPECI KPWT 170010Z AUTO 19005KT 10SM SCT020 SCT030 OVC035 07/06 A2976 RMK AO2=
202301162356 METAR KPWT 162356Z AUTO 20006KT 10SM BKN020 OVC030 07/06 A2976 RMK AO2 SLP083 60001 T00720061 10089 20061 53011=
202301162303 SPECI KPWT 162303Z AUTO 18005KT 10SM FEW022 BKN027 BKN041 07/06 A2975 RMK AO2=
202301162256 METAR KPWT 162256Z AUTO 20006KT 10SM SCT025 07/06 A2975 RMK AO2 RAB11E31 SLP078 P0001 T00720061=
202301162233 SPECI KPWT 162233Z AUTO 19006KT 10SM FEW017 SCT022 08/06 A2974 RMK AO2 RAB11E31 P0001=
202301162156 METAR KPWT 162156Z AUTO 19008KT 10SM BKN021 BKN026 OVC042 08/06 A2973 RMK AO2 SLP073 T00780056=
202301162149 SPECI KPWT 162149Z AUTO 19007KT 10SM SCT022 BKN036 OVC043 08/06 A2973 RMK AO2=
202301162056 METAR KPWT 162056Z AUTO 22008KT 10SM BKN020 OVC028 08/06 A2973 RMK AO2 SLP072 T00780056 50000=
202301162033 SPECI KPWT 162033Z AUTO 20009KT 10SM SCT018 BKN025 09/06 A2973 RMK AO2=
202301161956 METAR KPWT 161956Z AUTO 20010KT 170V230 10SM FEW012 08/06 A2973 RMK AO2 SLP074 T00830061=
202301161856 METAR KPWT 161856Z AUTO 20009KT 10SM SCT026 07/06 A2974 RMK AO2 SLP075 T00720061=
202301161848 SPECI KPWT 161848Z AUTO 21011KT 10SM FEW008 BKN026 07/06 A2974 RMK AO2=
202301161831 SPECI KPWT 161831Z AUTO 22010KT 10SM FEW008 07/06 A2973 RMK AO2=
202301161756 METAR KPWT 161756Z AUTO 21007KT 10SM SCT026 06/06 A2973 RMK AO2 SLP072 60000 T00610061 10061 20050 51016=
202301161753 SPECI KPWT 161753Z AUTO 21007KT 10SM SCT026 06/06 A2973 RMK AO2=
202301161656 METAR KPWT 161656Z AUTO 22007KT 10SM FEW006 BKN028 BKN033 06/06 A2971 RMK AO2 SLP066 T00560056=
202301161633 SPECI KPWT 161633Z AUTO 22006KT 10SM FEW006 BKN028 05/05 A2970 RMK AO2=
202301161615 SPECI KPWT 161615Z AUTO 23006KT 10SM SCT006 OVC030 06/05 A2969 RMK AO2=
202301161556 METAR KPWT 161556Z AUTO 21008KT 10SM OVC030 06/06 A2968 RMK AO2 SLP057 T00560056=
202301161456 METAR KPWT 161456Z AUTO 18007KT 10SM OVC027 06/06 A2966 RMK AO2 SLP051 60000 T00560056 51011=
202301161356 METAR KPWT 161356Z AUTO 19008KT 10SM OVC027 06/06 A2965 RMK AO2 SLP047 T00560056=
202301161256 METAR KPWT 161256Z AUTO 19006KT 10SM FEW007 OVC025 06/06 A2964 RMK AO2 RAB13E41 SLP045 P0000 T00560056=
202301161156 METAR KPWT 161156Z AUTO 19010G16KT 10SM SCT007 OVC025 06/06 A2963 RMK AO2 SLP039 60004 70070 T00610056 10067 20061 51018=
202301161136 SPECI KPWT 161136Z AUTO 19009KT 10SM SCT007 BKN025 OVC032 06/06 A2963 RMK AO2=
202301161056 METAR KPWT 161056Z AUTO 19009KT 10SM OVC007 06/06 A2962 RMK AO2 SLP035 T00610061=
202301161014 SPECI KPWT 161014Z AUTO 18010KT 10SM OVC007 06/06 A2960 RMK AO2=
202301160956 METAR KPWT 160956Z AUTO 19009KT 10SM OVC005 06/06 A2959 RMK AO2 SLP026 T00610061=
202301160856 METAR KPWT 160856Z AUTO 20011KT 10SM OVC005 06/06 A2958 RMK AO2 RAE40 SLP021 P0000 60004 T00610061 51024=
202301160756 METAR KPWT 160756Z AUTO 20012KT 10SM -RA OVC005 07/07 A2956 RMK AO2 RAB05 SLP015 P0001 T00670067 400720039=
202301160656 METAR KPWT 160656Z AUTO 20012G16KT 10SM OVC005 07/07 A2954 RMK AO2 RAE55 SLP007 P0003 T00670067=
202301160556 METAR KPWT 160556Z AUTO 20012G21KT 10SM -RA OVC005 07/07 A2951 RMK AO2 SLP997 P0004 60024 T00670067 10067 20061 53023=
202301160456 METAR KPWT 160456Z AUTO 17011G14KT 9SM -RA OVC005 07/07 A2948 RMK AO2 SLP988 P0002 T00670067=
202301160424 SPECI KPWT 160424Z AUTO 18008G16KT 10SM -RA OVC005 07/07 A2946 RMK AO2 P0002=
202301160356 METAR KPWT 160356Z AUTO 19008KT 10SM -RA OVC007 06/06 A2946 RMK AO2 SLP980 P0002 T00610061=
202301160256 METAR KPWT 160256Z AUTO 18008G15KT 10SM -RA OVC007 07/07 A2944 RMK AO2 CIG 005V011 SLP973 P0006 60016 T00670067 53021=
202301160156 METAR KPWT 160156Z AUTO 19009G14KT 10SM -RA OVC009 07/07 A2941 RMK AO2 CIG 006V012 SLP964 P0004 T00670067=
202301160056 METAR KPWT 160056Z AUTO VRB05KT 7SM -RA OVC009 07/07 A2939 RMK AO2 CIG 005V012 SLP956 P0006 T00670067=
202301160021 SPECI KPWT 160021Z AUTO VRB03KT 5SM -RA BR BKN007 OVC013 07/07 RMK AO2 CIG 005V011 P0003 $=
202301160004 SPECI KPWT 160004Z AUTO 00000KT 5SM -RA BR SCT007 BKN011 OVC016 07/07 A2938 RMK AO2 P0001=
202301152356 METAR KPWT 152356Z AUTO 00000KT 6SM -RA BR SCT010 OVC016 07/07 A2937 RMK AO2 SLP952 P0008 60029 T00670067 10072 20067 51012=
202301152352 SPECI KPWT 152352Z AUTO 00000KT 5SM -RA BR SCT008 OVC018 07/07 A2937 RMK AO2 P0008=
202301152344 SPECI KPWT 152344Z AUTO 18003KT 5SM RA BR SCT008 BKN014 OVC023 07/07 A2937 RMK AO2 P0007=
202301152333 SPECI KPWT 152333Z AUTO 20003KT 4SM RA BR SCT008 OVC023 07/07 A2937 RMK AO2 P0004=
202301152317 SPECI KPWT 152317Z AUTO 00000KT 5SM -RA BR BKN023 07/07 A2936 RMK AO2 P0002=
202301152256 METAR KPWT 152256Z AUTO 00000KT 6SM -RA BR SCT025 07/07 A2935 RMK AO2 SLP945 P0006 T00720072=
202301152156 METAR KPWT 152156Z AUTO 00000KT 6SM -RA BR OVC027 07/07 A2934 RMK AO2 SLP941 P0006 T00720067=
202301152124 SPECI KPWT 152124Z AUTO VRB03KT 4SM -RA BR FEW021 OVC029 07/06 A2934 RMK AO2 P0004=
202301152056 METAR KPWT 152056Z AUTO 23004KT 9SM -RA FEW011 OVC032 07/07 A2934 RMK AO2 SLP942 P0003 60009 T00720067 51007=
202301152008 SPECI KPWT 152008Z AUTO 29003KT 10SM -RA FEW008 SCT030 OVC035 07/07 A2934 RMK AO2 P0001=
202301151956 METAR KPWT 151956Z AUTO 25004KT 9SM -RA FEW008 BKN026 OVC035 07/07 A2934 RMK AO2 SLP941 P0005 T00720072=
202301151942 SPECI KPWT 151942Z AUTO 23005KT 10SM RA FEW022 BKN029 OVC035 07/07 A2934 RMK AO2 P0003=
202301151908 SPECI KPWT 151908Z AUTO 23003KT 10SM -RA FEW005 BKN037 07/07 A2933 RMK AO2 P0000=
202301151856 METAR KPWT 151856Z AUTO 31003KT 10SM -RA FEW039 07/07 A2933 RMK AO2 SLP938 P0001 T00720072=
202301151756 METAR KPWT 151756Z AUTO 32004KT 10SM -RA FEW033 OVC041 07/07 A2932 RMK AO2 SLP935 P0004 60013 T00670067 10067 20061 53007=
202301151656 METAR KPWT 151656Z AUTO 24004KT 10SM -RA FEW043 SCT050 07/07 A2932 RMK AO2 RAE06B34 SLP932 P0001 T00670067=
202301151556 METAR KPWT 151556Z AUTO 29005KT 10SM -RA FEW001 07/07 A2929 RMK AO2 SLP923 P0005 T00670067=
202301151534 SPECI KPWT 151534Z AUTO 30004KT 10SM -RA SCT003 SCT027 BKN042 07/07 A2930 RMK AO2 P0005=
202301151522 SPECI KPWT 151522Z AUTO 00000KT 8SM -RA BKN003 BKN025 OVC032 07/07 A2931 RMK AO2 P0004=
202301151513 SPECI KPWT 151513Z AUTO 00000KT 7SM RA SCT003 BKN025 OVC032 07/07 A2931 RMK AO2 P0003=
202301151503 SPECI KPWT 151503Z AUTO VRB04KT 10SM -RA BKN003 BKN027 OVC038 07/07 A2931 RMK AO2 P0001=
202301151456 METAR KPWT 151456Z AUTO VRB03KT 10SM -RA FEW003 BKN038 OVC045 07/07 A2930 RMK AO2 SLP927 P0002 60003 T00670067 53007=
202301151356 METAR KPWT 151356Z AUTO 00000KT 10SM -RA BKN050 07/07 A2929 RMK AO2 SLP922 P0001 T00670067=
202301151256 METAR KPWT 151256Z AUTO 06003KT 10SM -RA CLR 06/06 A2928 RMK AO2 SLP919 P0000 T00610061=
202301151156 METAR KPWT 151156Z AUTO 00000KT 10SM -RA FEW048 BKN055 07/07 A2928 RMK AO2 RAB48 SLP919 P0000 60004 70007 T00670067 10089 20039 56007=
202301151056 METAR KPWT 151056Z AUTO 07004KT 10SM SCT070 07/07 A2928 RMK AO2 SLP920 T00670067=
202301151048 SPECI KPWT 151048Z AUTO 05007KT 10SM FEW070 SCT085 07/07 A2928 RMK AO2=
202301151040 SPECI KPWT 151040Z AUTO 07004KT 2SM BR FEW075 05/05 A2929 RMK AO2=
202301151035 SPECI KPWT 151035Z AUTO 04004KT 1SM BR CLR 04/04 A2928 RMK AO2=
202301151020 SPECI KPWT 151020Z AUTO 36003KT 1/2SM FG FEW100 05/05 A2929 RMK AO2=
202301151004 SPECI KPWT 151004Z AUTO 00000KT 1/4SM FG FEW100 05/05 A2929 RMK AO2=
202301150956 METAR KPWT 150956Z AUTO 00000KT 1/2SM FG CLR 05/05 A2929 RMK AO2 SLP923 T00500050=
202301150933 SPECI KPWT 150933Z AUTO 00000KT 1/4SM FG CLR 06/06 A2930 RMK AO2=
202301150922 SPECI KPWT 150922Z AUTO 00000KT 3/4SM BR CLR 06/06 A2930 RMK AO2=
202301150914 SPECI KPWT 150914Z AUTO 00000KT 1 1/2SM BR CLR 06/06 A2930 RMK AO2=
202301150856 METAR KPWT 150856Z AUTO 00000KT 10SM CLR 07/07 A2930 RMK AO2 RAE43 SLP928 P0001 60004 T00720072 58007=
202301150756 METAR KPWT 150756Z AUTO 00000KT 10SM -RA FEW030 SCT037 SCT046 07/07 A2932 RMK AO2 SLP934 P0001 T00720072 401280044=
202301150656 METAR KPWT 150656Z AUTO 04003KT 10SM -RA CLR 08/08 A2932 RMK AO2 SLP932 P0002 T00780078=
202301150556 METAR KPWT 150556Z AUTO 17003KT 10SM -RA CLR 09/07 A2932 RMK AO2 SLP934 P0002 60002 T00890072 10106 20078 53009=
202301150456 METAR KPWT 150456Z AUTO 19003KT 10SM -RA BKN050 08/08 A2931 RMK AO2 RAB28 SLP930 P0000 T00830078=
202301150356 METAR KPWT 150356Z AUTO 06004KT 10SM FEW055 10/06 A2930 RMK AO2 RAB10E23 SLP927 P0000 T01000061=
202301150256 METAR KPWT 150256Z AUTO 05005KT 10SM CLR 09/07 A2930 RMK AO2 RAE04 SLP926 P0000 60000 T00940067 57002=
202301150156 METAR KPWT 150156Z AUTO 03008KT 10SM -RA FEW049 SCT065 10/07 A2930 RMK AO2 RAB20 SLP924 P0000 T01000067=
202301150056 METAR KPWT 150056Z AUTO 03006KT 10SM OVC085 10/07 A2930 RMK AO2 SLP927 T01000067=
202301142356 METAR KPWT 142356Z AUTO 04008KT 10SM FEW110 11/07 A2930 RMK AO2 SLP928 T01110072 10128 20083 56020=
202301142256 METAR KPWT 142256Z AUTO 03007KT 10SM CLR 12/07 A2931 RMK AO2 SLP928 T01170072=
202301142156 METAR KPWT 142156Z AUTO 02008KT 10SM CLR 13/08 A2933 RMK AO2 SLP936 T01280078=
202301142056 METAR KPWT 142056Z AUTO 03009KT 10SM CLR 12/08 A2936 RMK AO2 SLP947 T01220078 58043=
202301141956 METAR KPWT 141956Z AUTO 03005KT 10SM CLR 12/09 A2941 RMK AO2 SLP964 T01170089=
202301141856 METAR KPWT 141856Z AUTO 04008KT 10SM CLR 10/08 A2945 RMK AO2 SLP977 T01000083=
202301141756 METAR KPWT 141756Z AUTO 04006KT 10SM CLR 08/08 A2949 RMK AO2 SLP991 60001 T00830083 10089 20044 56028=
202301141730 SPECI KPWT 141730Z AUTO 05006KT 10SM SCT001 08/08 A2951 RMK AO2=
202301141719 SPECI KPWT 141719Z AUTO 05008KT 7SM BKN001 08/08 A2951 RMK AO2=
202301141711 SPECI KPWT 141711Z AUTO 05007KT 10SM SCT001 08/08 A2952 RMK AO2=
202301141659 SPECI KPWT 141659Z AUTO 04006KT 3SM BR BKN001 08/08 A2952 RMK AO2=
202301141656 METAR KPWT 141656Z AUTO 04005KT 1SM BR BKN001 07/07 A2952 RMK AO2 SLP001 T00720072=
202301141613 SPECI KPWT 141613Z AUTO 04005KT 1/4SM FG VV001 05/05 A2954 RMK AO2=
202301141556 METAR KPWT 141556Z AUTO 00000KT 1/4SM FG CLR 05/05 A2955 RMK AO2 SLP010 T00500050=
202301141531 SPECI KPWT 141531Z AUTO 00000KT 1/4SM FG CLR 05/05 A2956 RMK AO2=
202301141516 SPECI KPWT 141516Z AUTO 00000KT 3/4SM BR CLR 06/06 A2957 RMK AO2=
202301141504 SPECI KPWT 141504Z AUTO 00000KT 1/4SM FG CLR 06/06 A2957 RMK AO2=
202301141456 METAR KPWT 141456Z AUTO 00000KT 1/2SM FG FEW050 06/06 A2958 RMK AO2 RAB25E47 SLP020 P0000 60001 T00610061 58021=
202301141442 SPECI KPWT 141442Z AUTO 00000KT 3/4SM -RA BR FEW050 07/07 A2958 RMK AO2 RAB25 P0000=
202301141436 SPECI KPWT 141436Z AUTO 00000KT 1 3/4SM -RA BR SCT050 06/06 A2958 RMK AO2 VIS 3/4V5 RAB25 P0000=
202301141429 SPECI KPWT 141429Z AUTO 00000KT 3SM -RA BR SCT050 07/07 A2959 RMK AO2 RAB25 P0000=
202301141426 SPECI KPWT 141426Z AUTO 00000KT 1 1/4SM -RA BR FEW055 07/07 A2959 RMK AO2 VIS 1/2V5 RAB25 P0000=
202301141418 SPECI KPWT 141418Z AUTO 00000KT 3/4SM BR FEW044 SCT060 07/07 A2959 RMK AO2=
202301141415 SPECI KPWT 141415Z AUTO 00000KT 1 1/2SM BR SCT044 BKN060 07/07 A2959 RMK AO2=
202301141356 METAR KPWT 141356Z AUTO 00000KT 10SM OVC044 07/07 A2960 RMK AO2 RAB12E35 SLP026 P0001 T00720072=
202301141256 METAR KPWT 141256Z AUTO 00000KT 10SM SCT050 BKN070 08/08 A2962 RMK AO2 SLP035 T00830083=
202301141156 METAR KPWT 141156Z AUTO 20003KT 10SM FEW020 BKN044 09/09 A2964 RMK AO2 RAB16E41 SLP042 P0000 60003 70053 T00890089 10094 20089 58003=
202301141056 METAR KPWT 141056Z AUTO 19007KT 10SM FEW007 BKN033 OVC040 09/09 A2965 RMK AO2 SLP046 T00890089=
202301141043 SPECI KPWT 141043Z AUTO 19007KT 10SM SCT007 SCT027 OVC032 09/09 A2966 RMK AO2=
202301141035 SPECI KPWT 141035Z AUTO 19009KT 10SM BKN007 BKN024 OVC034 09/09 A2966 RMK AO2 CIG 004V007=
202301141004 SPECI KPWT 141004Z AUTO 20009KT 10SM FEW007 BKN022 OVC029 09/09 A2965 RMK AO2=
202301140956 METAR KPWT 140956Z AUTO 19008KT 10SM BKN024 OVC029 09/09 A2965 RMK AO2 SLP045 P0001 T00890089=
202301140921 SPECI KPWT 140921Z AUTO 19008KT 10SM SCT005 OVC026 09/09 A2965 RMK AO2 P0001=
202301140856 METAR KPWT 140856Z AUTO 20009KT 10SM BKN005 OVC026 09/09 A2965 RMK AO2 RAB0757E37 CIG 004V010 SLP045 P0001 60002 T00890089 58002=
202301140831 SPECI KPWT 140831Z AUTO 19011KT 10SM -RA BKN005 BKN022 OVC028 09/09 A2965 RMK AO2 RAB0757 CIG 004V009 P0001=
202301140813 SPECI KPWT 140813Z AUTO 19010KT 10SM -RA FEW005 BKN009 OVC028 09/09 A2965 RMK AO2 RAB0757 CIG 007V015 P0000=
202301140756 METAR KPWT 140756Z AUTO 19009KT 10SM FEW007 BKN028 OVC033 09/09 A2965 RMK AO2 SLP047 T00890089 401060083=
202301140747 SPECI KPWT 140747Z AUTO 18010G17KT 10SM FEW009 BKN028 OVC041 09/09 A2965 RMK AO2=
202301140734 SPECI KPWT 140734Z AUTO 19010KT 10SM SCT009 OVC032 09/09 A2965 RMK AO2=
202301140719 SPECI KPWT 140719Z AUTO 19008KT 10SM BKN007 BKN013 OVC032 09/09 A2966 RMK AO2 CIG 005V011=
202301140708 SPECI KPWT 140708Z AUTO 18008G15KT 10SM OVC011 09/09 A2966 RMK AO2=
202301140656 METAR KPWT 140656Z AUTO 19009KT 10SM BKN009 OVC014 09/09 A2966 RMK AO2 RAE48 CIG 005V012 SLP047 P0001 T00890089=
202301140632 SPECI KPWT 140632Z AUTO 18007KT 10SM -RA SCT008 BKN013 OVC045 09/09 A2965 RMK AO2 P0001=
202301140556 METAR KPWT 140556Z AUTO VRB06KT 10SM -RA BKN009 BKN015 OVC037 09/09 A2965 RMK AO2 CIG 006V012 SLP046 P0007 60019 T00940094 10106 20094 56004=
202301140554 SPECI KPWT 140554Z AUTO VRB06KT 10SM -RA BKN009 BKN015 OVC037 09/09 A2966 RMK AO2 CIG 006V012 P0007=
202301140551 SPECI KPWT 140551Z AUTO 19007KT 10SM -RA BKN010 BKN015 OVC037 09/09 A2966 RMK AO2 CIG 006V012 P0007=
202301140507 SPECI KPWT 140507Z AUTO 20006KT 10SM RA FEW008 OVC033 09/09 A2966 RMK AO2 P0002=
202301140456 METAR KPWT 140456Z AUTO 20007KT 10SM -RA OVC035 09/09 A2966 RMK AO2 SLP049 P0006 T00940094=
202301140356 METAR KPWT 140356Z AUTO 00000KT 10SM -RA SCT043 SCT055 09/09 A2966 RMK AO2 SLP047 P0003 T00940094=
202301140256 METAR KPWT 140256Z AUTO 22004KT 10SM -RA FEW005 SCT008 BKN045 09/09 A2967 RMK AO2 SLP051 P0001 60003 T00940094 56009=
202301140247 SPECI KPWT 140247Z AUTO 22004KT 10SM -RA FEW005 SCT008 BKN043 09/09 A2967 RMK AO2 P0001=
202301140218 SPECI KPWT 140218Z AUTO 21005KT 9SM -RA SCT005 BKN011 OVC041 10/10 A2968 RMK AO2 P0000=
202301140214 SPECI KPWT 140214Z AUTO 19006KT 10SM -RA BKN005 OVC041 10/10 A2968 RMK AO2 CIG 003V013 P0000=
202301140206 SPECI KPWT 140206Z AUTO 20006KT 10SM -RA FEW003 BKN040 OVC050 10/10 A2968 RMK AO2 P0000=
202301140156 METAR KPWT 140156Z AUTO 19006KT 10SM -RA SCT003 BKN010 BKN042 10/10 A2968 RMK AO2 RAE17B44 CIG 007V018 SLP056 P0001 T01000100=
202301140154 SPECI KPWT 140154Z AUTO 19006KT 10SM -RA SCT003 BKN010 BKN045 10/10 A2968 RMK AO2 RAE17B44 CIG 007V012 P0001=
202301140138 SPECI KPWT 140138Z AUTO 19005KT 10SM BKN003 10/10 A2968 RMK AO2 RAE17 P0000=
202301140056 METAR KPWT 140056Z AUTO 20007KT 10SM -RA OVC005 10/10 A2970 RMK AO2 RAB2359 SLP060 P0001 T01000100=
202301132356 METAR KPWT 132356Z AUTO 19008KT 10SM OVC005 11/11 A2970 RMK AO2 RAE48 CIG 003V007 SLP062 P0000 60012 T01060106 10106 20100 56009=
202301132256 METAR KPWT 132256Z AUTO 20008KT 10SM -RA BKN005 11/11 A2970 RMK AO2 SLP063 P0001 T01060106=
202301132156 METAR KPWT 132156Z AUTO 21008KT 10SM -RA OVC005 11/11 A2971 RMK AO2 CIG 003V008 SLP065 P0002 T01060106=
202301132131 SPECI KPWT 132131Z AUTO 20007KT 10SM -RA BKN005 OVC010 11/11 A2971 RMK AO2 CIG 003V008 P0001=
202301132123 SPECI KPWT 132123Z AUTO 21008KT 10SM -RA BKN007 OVC010 11/11 A2972 RMK AO2 CIG 004V010 P0001=
202301132056 METAR KPWT 132056Z AUTO 21006KT 8SM -RA OVC014 11/11 A2972 RMK AO2 SLP071 P0003 60009 T01060106 58015=
202301132013 SPECI KPWT 132013Z AUTO 21005KT 10SM -RA FEW004 SCT020 BKN028 11/11 A2974 RMK AO2 P0001=
202301131956 METAR KPWT 131956Z AUTO 19005KT 10SM -RA SCT028 BKN034 11/11 A2975 RMK AO2 SLP079 P0002 T01060106=
202301131947 SPECI KPWT 131947Z AUTO 20005KT 10SM -RA FEW003 BKN028 OVC034 11/11 A2975 RMK AO2 P0002=
202301131927 SPECI KPWT 131927Z AUTO 21007KT 10SM -RA FEW003 SCT008 OVC035 10/10 A2976 RMK AO2 P0001=
202301131923 SPECI KPWT 131923Z AUTO 20006KT 10SM -RA SCT003 BKN008 OVC035 10/10 A2976 RMK AO2 CIG 007V010 P0001=
202301131912 SPECI KPWT 131912Z AUTO 21007KT 10SM -RA SCT003 BKN022 OVC037 10/10 A2976 RMK AO2 P0001=
202301131856 METAR KPWT 131856Z AUTO 20008KT 9SM -RA BKN003 BKN009 OVC021 10/10 A2976 RMK AO2 SLP083 P0004 T01000100=
202301131849 SPECI KPWT 131849Z AUTO 20007KT 9SM -RA SCT003 BKN009 OVC021 10/10 A2977 RMK AO2 CIG 007V012 P0003=
202301131816 SPECI KPWT 131816Z AUTO 19006KT 10SM -RA FEW003 SCT010 BKN019 09/09 A2977 RMK AO2 P0001=
202301131756 METAR KPWT 131756Z AUTO 19005KT 10SM -RA BKN010 OVC019 09/09 A2977 RMK AO2 SLP085 P0009 60019 T00940094 10094 20083 53009=
202301131749 SPECI KPWT 131749Z AUTO 18005KT 6SM -RA BR FEW007 BKN012 OVC019 09/09 A2977 RMK AO2 P0009=
202301131724 SPECI KPWT 131724Z AUTO 21003KT 3SM -RA BR SCT002 OVC007 09/09 A2977 RMK AO2 CIG 006V011 P0002=
202301131709 SPECI KPWT 131709Z AUTO 00000KT 10SM -RA BKN002 BKN015 OVC022 09/09 A2976 RMK AO2 P0001=
202301131656 METAR KPWT 131656Z AUTO 00000KT 10SM -RA FEW002 OVC020 09/09 A2976 RMK AO2 SLP081 P0002 T00890089=
202301131637 SPECI KPWT 131637Z AUTO 14003KT 10SM -RA FEW004 BKN018 OVC030 09/09 A2976 RMK AO2 P0002=
202301131626 SPECI KPWT 131626Z AUTO 14003KT 9SM -RA SCT004 BKN010 OVC030 09/09 A2975 RMK AO2 P0002=
202301131611 SPECI KPWT 131611Z AUTO 25004KT 3SM -RA BR BKN004 OVC030 09/09 A2975 RMK AO2 P0002=
202301131607 SPECI KPWT 131607Z AUTO 00000KT 1 1/4SM -RA BR BKN004 OVC030 09/09 A2975 RMK AO2 P0001=
202301131604 SPECI KPWT 131604Z AUTO 26003KT 3/4SM RA BR OVC004 09/09 A2975 RMK AO2 P0001=
202301131556 METAR KPWT 131556Z AUTO 24003KT 1/2SM -RA FG OVC002 08/08 A2975 RMK AO2 SLP078 P0001 T00830083=
202301131543 SPECI KPWT 131543Z AUTO 24003KT 3/4SM -RA BR OVC002 09/09 A2975 RMK AO2 P0000=
202301131537 SPECI KPWT 131537Z AUTO 00000KT 1 3/4SM -RA BR OVC002 09/09 A2975 RMK AO2 P0000=
202301131456 METAR KPWT 131456Z AUTO 00000KT 10SM -RA OVC002 09/09 A2974 RMK AO2 SLP076 P0001 60007 T00890089 56005=
202301131432 SPECI KPWT 131432Z AUTO 00000KT 8SM -RA BKN002 BKN026 09/09 A2974 RMK AO2 P0000=
202301131356 METAR KPWT 131356Z AUTO 19004KT 10SM -RA FEW002 BKN026 09/09 A2975 RMK AO2 SLP079 P0003 T00940094=
202301131351 SPECI KPWT 131351Z AUTO 20004KT 10SM -RA BKN026 09/09 A2975 RMK AO2 P0003=
202301131256 METAR KPWT 131256Z AUTO 00000KT 6SM -RA BR SCT035 BKN043 09/09 A2976 RMK AO2 SLP082 P0003 T00890089=
202301131156 METAR KPWT 131156Z AUTO 00000KT 10SM -RA CLR 09/09 A2977 RMK AO2 SLP086 P0004 60019 70122 T00890089 10094 20083 58006=
202301131056 METAR KPWT 131056Z AUTO 00000KT 9SM -RA CLR 09/09 A2978 RMK AO2 SLP088 P0003 T00890089=
202301130956 METAR KPWT 130956Z AUTO 00000KT 10SM -RA BKN033 09/09 A2979 RMK AO2 SLP093 P0004 T00890089=
202301130856 METAR KPWT 130856Z AUTO 01003KT 10SM -RA CLR 09/09 A2979 RMK AO2 RAB09 SLP092 P0001 60008 T00890089 56020=
202301130756 METAR KPWT 130756Z AUTO 00000KT 9SM CLR 09/09 A2980 RMK AO2 RAE44 SLP096 P0001 T00940094 400940061=
202301130713 SPECI KPWT 130713Z AUTO 00000KT 5SM -RA BR CLR 09/09 A2982 RMK AO2 P0001=
202301130704 SPECI KPWT 130704Z AUTO 00000KT 2SM -RA BR CLR 09/09 A2983 RMK AO2 P0000=
202301130656 METAR KPWT 130656Z AUTO 00000KT 4SM -RA BR CLR 09/09 A2983 RMK AO2 SLP105 P0006 T00890089=
202301130650 SPECI KPWT 130650Z AUTO 00000KT 3SM -RA BR CLR 09/09 A2983 RMK AO2 P0005=
202301130642 SPECI KPWT 130642Z AUTO 00000KT 1 3/4SM RA BR CLR 09/09 A2983 RMK AO2 P0005=
202301130636 SPECI KPWT 130636Z AUTO 00000KT 4SM RA BR CLR 09/09 A2983 RMK AO2 P0004=
202301130628 SPECI KPWT 130628Z AUTO 00000KT 2 1/2SM -RA BR CLR 09/09 A2983 RMK AO2 P0003=
202301130556 METAR KPWT 130556Z AUTO 11004KT 8SM -RA SCT037 09/09 A2985 RMK AO2 SLP112 P0004 60021 T00890089 10094 20083 55000=
202301130456 METAR KPWT 130456Z AUTO 00000KT 10SM -RA CLR 09/09 A2984 RMK AO2 SLP108 P0001 T00940094=
202301130356 METAR KPWT 130356Z AUTO 32003KT 8SM -RA CLR 09/09 A2984 RMK AO2 SLP108 P0004 T00890089=
202301130318 SPECI KPWT 130318Z AUTO 00000KT 4SM -RA BR SCT029 SCT037 09/09 A2985 RMK AO2 P0002=
202301130308 SPECI KPWT 130308Z AUTO 00000KT 4SM -RA BR BKN029 BKN037 09/09 A2985 RMK AO2 P0001=
202301130256 METAR KPWT 130256Z AUTO 00000KT 4SM -RA BR BKN033 OVC041 09/09 A2985 RMK AO2 SLP113 P0004 60012 T00890089 58002=
202301130156 METAR KPWT 130156Z AUTO 00000KT 10SM -RA CLR 09/09 A2985 RMK AO2 SLP113 P0005 T00890089=
202301130056 METAR KPWT 130056Z AUTO 00000KT 6SM -RA BR CLR 09/09 A2986 RMK AO2 SLP115 P0003 T00890089=
202301122356 METAR KPWT 122356Z AUTO 07003KT 10SM -RA FEW026 BKN042 OVC049 09/09 A2986 RMK AO2 SLP115 P0004 60041 T00890089 10094 20078 56005=
202301122256 METAR KPWT 122256Z AUTO 00000KT 9SM -RA CLR 09/09 A2986 RMK AO2 SLP117 P0005 T00940094=
202301122156 METAR KPWT 122156Z AUTO 34004KT 10SM -RA CLR 08/08 A2986 RMK AO2 SLP115 P0010 T00830083=
202301122145 SPECI KPWT 122145Z AUTO 33003KT 10SM RA SCT027 08/08 A2986 RMK AO2 P0009=
202301122126 SPECI KPWT 122126Z AUTO 03004KT 6SM RA BR BKN029 OVC036 08/08 A2986 RMK AO2 P0005=
202301122056 METAR KPWT 122056Z AUTO 04005KT 9SM -RA SCT034 08/08 A2987 RMK AO2 SLP121 P0008 60022 T00830083 58007=
202301122050 SPECI KPWT 122050Z AUTO 05004KT 2 1/2SM RA BR FEW034 08/08 A2987 RMK AO2 P0007=
202301122040 SPECI KPWT 122040Z AUTO 05005KT 3/4SM -RA BR CLR 08/08 A2987 RMK AO2 P0006=
202301122038 SPECI KPWT 122038Z AUTO 05005KT 1 1/2SM -RA BR CLR 08/08 A2987 RMK AO2 P0006=
202301121956 METAR KPWT 121956Z AUTO 03003KT 6SM -RA BR FEW029 08/08 A2988 RMK AO2 SLP124 P0012 T00830083=
202301121856 METAR KPWT 121856Z AUTO 04003KT 7SM RA CLR 08/08 A2989 RMK AO2 SLP128 P0002 T00830083=
202301121756 METAR KPWT 121756Z AUTO 00000KT 10SM -RA CLR 08/08 A2989 RMK AO2 SLP128 P0005 60041 T00780078 10078 20067 53016=
202301121714 SPECI KPWT 121714Z AUTO 00000KT 6SM -RA BR SCT028 OVC033 08/08 A2988 RMK AO2 P0002=
202301121656 METAR KPWT 121656Z AUTO 00000KT 3SM -RA BR FEW012 BKN028 08/08 A2987 RMK AO2 SLP122 P0005 T00780078=
202301121648 SPECI KPWT 121648Z AUTO 00000KT 2 1/2SM -RA BR FEW012 SCT028 08/08 A2987 RMK AO2 P0004=
202301121612 SPECI KPWT 121612Z AUTO 00000KT 3SM -RA BR CLR 07/07 A2986 RMK AO2 P0002=
202301121556 METAR KPWT 121556Z AUTO 00000KT 2SM -RA BR SCT014 SCT020 07/07 A2986 RMK AO2 SLP116 P0005 T00720072=
202301121551 SPECI KPWT 121551Z AUTO 00000KT 2 1/2SM -RA BR SCT014 BKN020 07/07 A2986 RMK AO2 P0005=
202301121541 SPECI KPWT 121541Z AUTO 00000KT 3SM -RA BR BKN014 OVC020 07/07 A2985 RMK AO2 P0004=
202301121456 METAR KPWT 121456Z AUTO 00000KT 6SM -RA BR SCT019 OVC027 07/07 A2984 RMK AO2 SLP111 P0004 60026 T00720072 53013=
202301121356 METAR KPWT 121356Z AUTO 00000KT 5SM RA BR BKN026 OVC033 07/07 A2982 RMK AO2 SLP103 P0012 T00720072=
202301121256 METAR KPWT 121256Z AUTO 00000KT 6SM RA BR FEW009 OVC028 07/07 A2981 RMK AO2 SLP098 P0010 T00720072=
202301121236 SPECI KPWT 121236Z AUTO 00000KT 6SM RA BR SCT009 BKN028 OVC033 07/07 A2981 RMK AO2 P0007=
202301121206 SPECI KPWT 121206Z AUTO 29004KT 8SM -RA SCT006 BKN037 07/07 A2981 RMK AO2 P0001=
202301121156 METAR KPWT 121156Z AUTO 00000KT 9SM RA SCT037 07/07 A2980 RMK AO2 SLP097 P0009 60049 7//// T00670067 10067 20061 58008=
202301121056 METAR KPWT 121056Z AUTO 00000KT 9SM -RA CLR 07/07 A2983 RMK AO2 SLP105 P0009 T00670067=
202301120956 METAR KPWT 120956Z AUTO 03003KT 10SM -RA CLR 07/07 A2982 RMK AO2 SLP103 P0008 T00670067=
202301120856 METAR KPWT 120856Z AUTO 05003KT 10SM -RA SCT035 07/07 A2983 RMK AO2 SLP105 P0009 60023 T00670067 58007=
202301120756 METAR KPWT 120756Z AUTO 01003KT 9SM -RA SCT032 06/06 A2984 RMK AO2 SLP110 P0008 T00610061 401170039=
202301120656 METAR KPWT 120656Z AUTO 00000KT 9SM -RA SCT038 07/07 A2985 RMK AO2 SLP113 P0006 T00670067=
202301120556 METAR KPWT 120556Z AUTO 34003KT 9SM -RA BKN034 07/07 A2985 RMK AO2 SLP114 P0005 60011 T00670067 10100 20067 58002=
202301120456 METAR KPWT 120456Z AUTO 00000KT 6SM RA BR FEW029 BKN038 07/07 A2986 RMK AO2 SLP118 P0004 T00670067=
202301120356 METAR KPWT 120356Z AUTO 00000KT 8SM -RA SCT042 07/07 A2985 RMK AO2 SLP114 P0001 T00720067=
202301120256 METAR KPWT 120256Z AUTO 00000KT 10SM -RA SCT050 08/06 A2986 RMK AO2 RAB16 SLP115 P0001 60001 T00780061 52007=
202301120156 METAR KPWT 120156Z AUTO 04003KT 10SM BKN060 08/07 A2984 RMK AO2 SLP111 T00830072=
202301120056 METAR KPWT 120056Z AUTO 02003KT 10SM CLR 09/07 A2985 RMK AO2 SLP112 T00890072=
202301112356 METAR KPWT 112356Z AUTO 00000KT 10SM CLR 10/07 A2983 RMK AO2 SLP108 T01000067 10117 20083 56011=
202301112256 METAR KPWT 112256Z AUTO 03004KT 10SM CLR 11/07 A2984 RMK AO2 SLP109 T01060072=
202301112156 METAR KPWT 112156Z AUTO 01004KT 10SM CLR 11/06 A2985 RMK AO2 SLP115 T01110061=
202301112056 METAR KPWT 112056Z AUTO 02005KT 10SM CLR 11/07 A2987 RMK AO2 SLP119 T01110067 58013=
202301111956 METAR KPWT 111956Z AUTO 00000KT 10SM CLR 11/06 A2988 RMK AO2 SLP125 T01110061=
202301111856 METAR KPWT 111856Z AUTO VRB04KT 10SM FEW055 10/07 A2991 RMK AO2 SLP133 T01000072=
202301111756 METAR KPWT 111756Z AUTO 00000KT 10SM BKN049 BKN070 08/07 A2991 RMK AO2 SLP132 6//// T00830072 10083 20050 53017=
202301111656 METAR KPWT 111656Z AUTO 00000KT 10SM SCT044 BKN050 07/07 A2989 RMK AO2 RAB24E48 SLP127 P0000 T00670067=
202301111556 METAR KPWT 111556Z AUTO 00000KT 10SM SCT035 OVC045 06/06 A2987 RMK AO2 SLP120 T00560056=
202301111456 METAR KPWT 111456Z AUTO 00000KT 10SM BKN031 06/06 A2985 RMK AO2 RAE34 SLP115 P0002 60004 T00560056 51019=
202301111432 SPECI KPWT 111432Z AUTO 00000KT 10SM -RA FEW026 BKN033 06/06 A2985 RMK AO2 P0002=
202301111356 METAR KPWT 111356Z AUTO 00000KT 6SM -RA BR OVC029 06/06 A2984 RMK AO2 RAE1257B32 SLP111 P0001 T00560056=
202301111256 METAR KPWT 111256Z AUTO 00000KT 10SM -RA OVC031 06/06 A2982 RMK AO2 SLP105 P0001 T00560056=
202301111156 METAR KPWT 111156Z AUTO 00000KT 10SM -RA FEW034 05/05 A2980 RMK AO2 SLP096 P0003 60003 70005 T00500050 10061 20039 51023=
202301111056 METAR KPWT 111056Z AUTO 00000KT 10SM -RA OVC039 05/05 A2979 RMK AO2 RAB13 SLP092 P0000 T00500050=
202301110956 METAR KPWT 110956Z AUTO 00000KT 10SM OVC050 04/04 A2976 RMK AO2 SLP083 T00440044=
202301110856 METAR KPWT 110856Z AUTO 13003KT 10SM FEW050 SCT075 04/04 A2973 RMK AO2 SLP073 60000 T00440039 51020=
202301110756 METAR KPWT 110756Z AUTO 22003KT 10SM FEW050 OVC100 04/04 A2972 RMK AO2 SLP069 T00440039 401110017=
202301110656 METAR KPWT 110656Z AUTO 00000KT 10SM FEW080 BKN095 06/04 A2970 RMK AO2 RAB10E30 SLP062 P0000 T00610044=
202301110556 METAR KPWT 110556Z AUTO 00000KT 10SM BKN085 05/04 A2967 RMK AO2 RAB34E49 SLP054 P0000 60000 T00500044 10089 20039 53024=
202301110456 METAR KPWT 110456Z AUTO 00000KT 10SM SCT075 BKN095 04/04 A2964 RMK AO2 SLP044 T00440039=
202301110356 METAR KPWT 110356Z AUTO 00000KT 10SM FEW080 04/03 A2962 RMK AO2 SLP036 T00440033=
202301110256 METAR KPWT 110256Z AUTO 03005KT 10SM CLR 07/04 A2960 RMK AO2 SLP030 T00720039 53006=
202301110156 METAR KPWT 110156Z AUTO 05008KT 10SM CLR 08/05 A2959 RMK AO2 SLP024 T00780050=
202301110056 METAR KPWT 110056Z AUTO 03008KT 10SM CLR 08/05 A2958 RMK AO2 SLP022 T00780050=
202301102356 METAR KPWT 102356Z AUTO 04009KT 10SM CLR 09/06 A2958 RMK AO2 SLP023 T00890056 10111 20072 56000=
202301102256 METAR KPWT 102256Z AUTO 03006KT 10SM CLR 11/06 A2959 RMK AO2 SLP023 T01060056=
202301102156 METAR KPWT 102156Z AUTO 04009KT 10SM CLR 11/07 A2956 RMK AO2 SLP016 T01060067=
202301102056 METAR KPWT 102056Z AUTO 03008KT 10SM CLR 11/07 A2958 RMK AO2 SLP022 T01060067 55011=
202301101956 METAR KPWT 101956Z AUTO 04012KT 10SM CLR 09/06 A2958 RMK AO2 SLP023 T00940061=
202301101856 METAR KPWT 101856Z AUTO 04007KT 10SM CLR 08/06 A2961 RMK AO2 SLP032 T00830061=
202301101756 METAR KPWT 101756Z AUTO 04009KT 10SM CLR 07/06 A2962 RMK AO2 SLP034 60002 T00720061 10072 20017 58007=
202301101656 METAR KPWT 101656Z AUTO 01003KT 10SM CLR 04/04 A2963 RMK AO2 RAE02 SLP038 P0000 T00390039=
202301101643 SPECI KPWT 101643Z AUTO 00000KT 2SM BR CLR 03/03 A2963 RMK AO2 VIS 1/2V5 RAE02 P0000=
202301101639 SPECI KPWT 101639Z AUTO 00000KT 1SM BR CLR 03/03 A2963 RMK AO2 RAE02 P0000=
202301101627 SPECI KPWT 101627Z AUTO 00000KT 1/2SM FG CLR 02/02 A2963 RMK AO2 RAE02 P0000 FZRANO=
202301101609 SPECI KPWT 101609Z AUTO 00000KT 1/4SM FG CLR 02/02 A2964 RMK AO2 RAE02 P0000 FZRANO=
202301101556 METAR KPWT 101556Z AUTO 00000KT 1/2SM -RA FG CLR 03/03 A2964 RMK AO2 SLP044 P0001 T00280028=
202301101539 SPECI KPWT 101539Z AUTO 36003KT CLR 02/02 A2964 RMK AO2 RAEMM P0000 PWINO FZRANO $=
202301101529 SPECI KPWT 101529Z AUTO 00000KT 1/2SM -RA FG CLR 02/02 A2965 RMK AO2 P0000 FZRANO=
202301101510 SPECI KPWT 101510Z AUTO 00000KT 1/4SM -RA FG CLR 03/03 A2965 RMK AO2 P0000=
202301101456 METAR KPWT 101456Z AUTO 00000KT 1/2SM -RA FG CLR 03/03 A2966 RMK AO2 RAB39 SLP050 P0000 60001 T00280028 58008=
202301101443 SPECI KPWT 101443Z AUTO 00000KT 1/2SM -RA FG CLR 03/03 A2966 RMK AO2 RAB39 P0000=
202301101436 SPECI KPWT 101436Z AUTO 00000KT 1/2SM FG VV001 03/03 A2966 RMK AO2=
202301101429 SPECI KPWT 101429Z AUTO 00000KT 3/4SM BR VV001 03/03 A2966 RMK AO2=
202301101419 SPECI KPWT 101419Z AUTO 00000KT 3/4SM BR SCT039 04/04 A2966 RMK AO2=
202301101416 SPECI KPWT 101416Z AUTO 00000KT 1 1/2SM BR SCT039 04/04 A2967 RMK AO2 VIS 1/2V5=
202301101356 METAR KPWT 101356Z AUTO 00000KT 9SM OVC039 05/05 A2967 RMK AO2 RAB00E16 SLP053 P0000 T00500050=
202301101310 SPECI KPWT 101310Z AUTO 00000KT 4SM -RA BR FEW037 05/05 A2968 RMK AO2 RAB00 P0000=
202301101300 SPECI KPWT 101300Z AUTO 00000KT 1 3/4SM -RA BR FEW035 05/05 A2968 RMK AO2 RAB00 P0000=
202301101256 METAR KPWT 101256Z AUTO 00000KT 6SM BR FEW035 06/06 A2968 RMK AO2 RAE41 SLP057 P0001 T00560056=
202301101156 METAR KPWT 101156Z AUTO 05004KT 10SM -RA SCT032 06/06 A2968 RMK AO2 RAB22 SLP056 P0000 60031 70129 T00610061 10061 20050 51007=
202301101056 METAR KPWT 101056Z AUTO 06003KT 10SM SCT007 OVC034 06/06 A2968 RMK AO2 RAE38 SLP055 P0000 T00610061=
202301101011 SPECI KPWT 101011Z AUTO 00000KT 10SM BKN009 OVC030 05/05 A2967 RMK AO2 RAE0959 P0000=
202301100956 METAR KPWT 100956Z AUTO 00000KT 10SM -RA OVC032 05/05 A2967 RMK AO2 SLP052 P0000 T00500050=
202301100909 SPECI KPWT 100909Z AUTO 00000KT 10SM -RA FEW014 BKN030 OVC041 05/05 A2966 RMK AO2 P0000=
202301100856 METAR KPWT 100856Z AUTO 00000KT 10SM -RA FEW009 BKN027 OVC036 06/06 A2966 RMK AO2 SLP049 P0005 60031 T00560056 51001=
202301100853 SPECI KPWT 100853Z AUTO 00000KT 10SM -RA FEW009 BKN015 OVC038 06/06 A2966 RMK AO2 P0004=
202301100830 SPECI KPWT 100830Z AUTO 00000KT 5SM -RA BR FEW009 BKN014 OVC020 05/05 A2966 RMK AO2 P0004=
202301100821 SPECI KPWT 100821Z AUTO 00000KT 5SM -RA BR SCT014 OVC020 05/05 A2966 RMK AO2 P0003=
202301100805 SPECI KPWT 100805Z AUTO 00000KT 4SM RA BR BKN014 OVC020 05/05 A2966 RMK AO2 P0001=
202301100756 METAR KPWT 100756Z AUTO 00000KT 5SM RA BR BKN017 OVC023 05/05 A2966 RMK AO2 SLP050 P0010 T00500050 401000039=
202301100735 SPECI KPWT 100735Z AUTO 00000KT 6SM -RA BR FEW006 BKN015 OVC021 05/05 A2966 RMK AO2 P0007=
202301100728 SPECI KPWT 100728Z AUTO 00000KT 4SM RA BR SCT006 BKN013 OVC023 05/05 A2966 RMK AO2 P0007=
202301100708 SPECI KPWT 100708Z AUTO 00000KT 5SM RA BR BKN006 OVC016 05/05 A2966 RMK AO2 CIG 003V009 P0002=
202301100656 METAR KPWT 100656Z AUTO 30005KT 5SM -RA BR BKN004 BKN012 OVC020 06/06 A2966 RMK AO2 CIG 003V009 SLP048 P0016 T00560056=
202301100639 SPECI KPWT 100639Z AUTO 29007KT 6SM RA BR FEW004 BKN013 OVC021 06/06 A2966 RMK AO2 P0012=
202301100556 METAR KPWT 100556Z AUTO 08003KT 4SM RA BR BKN016 06/06 A2964 RMK AO2 SLP042 P0020 60092 T00610061 10078 20050 50006=
202301100554 SPECI KPWT 100554Z AUTO 08003KT 4SM RA BR SCT016 BKN020 06/06 A2964 RMK AO2 P0019=
202301100456 METAR KPWT 100456Z AUTO 02003KT 6SM RA BR CLR 06/06 A2963 RMK AO2 SLP040 P0018 T00610061=
202301100420 SPECI KPWT 100420Z AUTO 00000KT 6SM RA BR FEW022 SCT029 06/06 A2963 RMK AO2 P0007=
202301100356 METAR KPWT 100356Z AUTO 02003KT 6SM RA BR FEW020 BKN028 OVC033 06/06 A2962 RMK AO2 SLP036 P0017 T00560056=
202301100315 SPECI KPWT 100315Z AUTO 21003KT 6SM RA BR FEW004 BKN029 OVC037 06/06 A2961 RMK AO2 P0005=
202301100304 SPECI KPWT 100304Z AUTO 24006KT 9SM RA FEW004 BKN036 06/06 A2960 RMK AO2 P0001=
202301100256 METAR KPWT 100256Z AUTO 29003KT 10SM -RA SCT038 06/06 A2960 RMK AO2 RAE12B44 SLP029 P0002 60037 T00560056 55001=
202301100214 SPECI KPWT 100214Z AUTO 00000KT 10SM FEW023 BKN032 06/06 A2958 RMK AO2 RAE12 P0001=
202301100156 METAR KPWT 100156Z AUTO 00000KT 8SM -RA SCT021 BKN028 OVC037 06/06 A2958 RMK AO2 SLP023 P0015 T00560056=
202301100151 SPECI KPWT 100151Z AUTO 23003KT 8SM -RA FEW019 BKN029 OVC049 06/06 A2959 RMK AO2 P0015=
202301100132 SPECI KPWT 100132Z AUTO 14004KT 10SM -RA SCT027 BKN036 BKN049 06/06 A2958 RMK AO2 P0013=
202301100056 METAR KPWT 100056Z AUTO 23008KT 5SM RA BR FEW008 BKN019 OVC031 06/06 A2960 RMK AO2 SLP030 P0020 T00560056=
202301100052 SPECI KPWT 100052Z AUTO 25007KT 5SM +RA BR FEW008 BKN021 OVC031 06/06 A2960 RMK AO2 P0017=
202301092356 METAR KPWT 092356Z AUTO 20007KT 10SM -RA FEW012 BKN022 OVC036 08/08 A2956 RMK AO2 SLP013 P0001 60006 T00780078 10100 20067 52014=
202301092353 SPECI KPWT 092353Z AUTO 21008KT 9SM -RA FEW012 BKN022 OVC039 08/08 A2955 RMK AO2 PRESRR P0000=
202301092305 SPECI KPWT 092305Z AUTO 19009KT 10SM -RA FEW020 SCT026 BKN050 09/08 A2952 RMK AO2 P0000=
202301092256 METAR KPWT 092256Z AUTO 19007KT 10SM -RA FEW020 BKN026 BKN034 08/08 A2951 RMK AO2 RAB05 SLP999 P0001 T00830083=
202301092253 SPECI KPWT 092253Z AUTO 19006KT 10SM SCT020 BKN026 OVC034 08/08 A2951 RMK AO2 RAB05E43 P0001=
202301092156 METAR KPWT 092156Z AUTO 20010KT 10SM FEW030 SCT041 BKN080 09/08 A2947 RMK AO2 RAB33E56 SLP984 P0001 T00890078=
202301092056 METAR KPWT 092056Z AUTO 19011G20KT 10SM FEW024 BKN055 BKN075 10/08 A2945 RMK AO2 RAB14E42 SLP976 P0001 60003 T01000083 51016=
202301092051 SPECI KPWT 092051Z AUTO 20011KT 10SM SCT026 SCT037 BKN055 10/08 A2945 RMK AO2 RAB14E42 P0001=

# No short TAF reports from KPWT in databse.

###################################
#  large TAF from KPWT
###################################
202301312320 TAF KPWT 312320Z 0100/0124 00000KT P6SM SCT150 BKN200 FM010300
                       00000KT P6SM OVC120 FM011000 00000KT P6SM
                       OVC100 FM011700 20004KT P6SM OVC250=
202301311723 TAF KPWT 311723Z 3118/0118 00000KT P6SM OVC100 FM312100 00000KT
                       P6SM SCT050 BKN250 FM010300 00000KT P6SM
                       OVC120 FM011000 00000KT P6SM OVC100=
202301311139 TAF KPWT 311139Z 3112/0112 00000KT P6SM BKN110 FM312100 00000KT
                       P6SM SCT050 BKN250 FM010300 00000KT P6SM
                       SCT150 BKN250=
202301310630 KPWT 310630Z 3107/0106 00000KT P6SM BKN110 FM311100 00000KT P6SM
                       OVC050 FM312100 00000KT P6SM SCT050 BKN250
                       FM010300 00000KT P6SM SCT150 BKN250=
202301310520 TAF KPWT 310520Z 3106/0106 00000KT P6SM BKN140 BKN250 FM311100
                       00000KT P6SM OVC050 FM312100 00000KT P6SM
                       SCT050 BKN250 FM010300 00000KT P6SM SCT150
                       BKN250=
202301302320 TAF KPWT 302320Z 3100/3124 00000KT P6SM OVC250 FM310400 VRB03KT
                       P6SM OVC200 FM311000 00000KT P6SM OVC100
                       FM311700 18003KT P6SM OVC050=
202301301720 TAF KPWT 301720Z 3018/3118 00000KT P6SM SKC FM302000 06003KT P6SM
                       SCT250 FM310400 VRB03KT P6SM BKN150 BKN250
                       FM311000 00000KT P6SM OVC100 FM311600 18003KT
                       P6SM BKN070=
202301301431 KPWT 301431Z 3015/3112 00000KT P6SM SKC FM302000 06003KT P6SM SCT250
                       FM310400 VRB03KT P6SM BKN150 BKN250=
202301301135 TAF KPWT 301135Z 3012/3112 00000KT P6SM SKC
                      TEMPO 3013/3015 4SM BR FM302000 06003KT P6SM
                       SCT250 FM310400 VRB03KT P6SM BKN150 BKN250=
202301300525 TAF KPWT 300525Z 3006/3106 00000KT P6SM SKC
                      TEMPO 3011/3015 4SM BR FM302000 06003KT P6SM
                       SCT250 FM310400 VRB03KT P6SM BKN150 BKN250=
202301292320 TAF KPWT 292320Z 3000/3024 05008KT P6SM SKC FM300200 04005KT P6SM
                       SKC FM300600 VRB02KT P6SM SKC=
202301291720 TAF KPWT 291720Z 2918/3018 05012KT P6SM SKC FM300200 04006KT P6SM
                       SKC FM300600 00000KT P6SM SKC=
202301291402 KPWT 291402Z 2914/3012 05013KT P6SM SKC FM300100 04010KT P6SM SKC=
202301291133 TAF KPWT 291133Z 2912/3012 03011KT P6SM SKC FM300300 04004KT P6SM
                       SKC=
202301290521 TAF KPWT 290521Z 2906/3006 02012G20KT P6SM VCSH SCT030 BKN050 FM290800
                       03008KT P6SM SKC FM300300 04004KT P6SM SKC=
202301290424 KPWT 290424Z 2904/2924 02012G20KT P6SM VCSH SCT030 BKN050
                      TEMPO 2904/2906 5SM -SHRA FM290700 03008KT
                       P6SM SKC=
202301282320 TAF KPWT 282320Z 2900/2924 04009G15KT P6SM SKC FM290200 03008KT
                       P6SM SKC=
202301281727 TAF KPWT 281727Z 2818/2918 03007KT P6SM SCT007 OVC030 FM282100
                       03009G15KT P6SM BKN035 FM290200 03010G18KT
                       P6SM SKC FM290800 03009KT P6SM SKC=
202301281412 KPWT 281412Z 2814/2912 00000KT P6SM SCT005 OVC030
                      TEMPO 2814/2816 6SM BR BKN005 OVC022 FM281600
                       00000KT 6SM BR SCT007 OVC025 FM282000 03006KT
                       P6SM SCT015 BKN027 FM282200 04009KT P6SM
                       BKN040 FM290200 03010G18KT P6SM SKC FM290800
                       03007KT P6SM SKC=
202301281122 TAF KPWT 281122Z 2812/2912 00000KT 6SM BR VCSH SCT005 OVC010
                      TEMPO 2812/2816 3SM -RA BR BKN004 OVC009
                       FM281600 00000KT 4SM BR BKN005 OVC010 FM282000
                       03006KT P6SM SCT015 BKN027 FM282200 04009KT
                       P6SM BKN040 FM290200 03010G18KT P6SM SKC
                       FM290800 03007KT P6SM SKC=
202301280525 TAF KPWT 280525Z 2806/2906 00000KT P6SM VCSH OVC015
                      TEMPO 2809/2813 4SM BR BKN007 FM281300 00000KT
                       2SM BR BKN005 OVC010 FM282000 03006KT P6SM
                       SCT015 BKN040 FM282200 04009KT P6SM BKN050
                       FM290200 03012G21KT P6SM SKC=
202301272337 TAF KPWT 272337Z 2800/2824 VRB02KT P6SM OVC020 FM280600 00000KT
                       P6SM OVC007 FM281500 00000KT 4SM BR OVC015
                       FM282000 03003KT P6SM OVC050=
202301271725 TAF KPWT 271725Z 2718/2818 33006KT 5SM BR OVC005 FM272100 00000KT
                       6SM BR OVC015 FM280600 00000KT P6SM OVC007=
202301271126 TAF KPWT 271126Z 2712/2812 03005KT 5SM BR OVC002
                      TEMPO 2712/2716 3/4SM BR OVC002 FM271900
                       03003KT P6SM OVC007 FM272200 VRB03KT P6SM
                       OVC013 FM280600 00000KT P6SM OVC007=
202301270726 KPWT 270726Z 2707/2806 00000KT 1/2SM FG OVC002 FM270800 19012KT
                       2SM -RA BR OVC005 FM271300 15004KT 3SM BR
                       VCSH OVC007 FM271600 VRB03KT 1SM BR OVC003
                       FM272100 03003KT 5SM BR SCT005 OVC010=
202301270520 TAF KPWT 270520Z 2706/2806 VRB04KT 4SM -RA BR OVC004 FM270800 19012KT
                       2SM -RA BR OVC005 FM271300 15004KT 3SM BR
                       VCSH OVC007 FM271600 VRB03KT 1SM BR OVC003
                       FM272100 03003KT 5SM BR SCT005 OVC010=
202301262321 TAF KPWT 262321Z 2700/2724 23004KT P6SM OVC015 FM270500 19008KT
                       2SM BR VCSH OVC007 FM270800 19012KT 2SM
                       -RA BR OVC005 FM271300 15004KT 3SM BR VCSH
                       OVC007 FM271600 VRB03KT 1SM BR OVC003 FM272100
                       03003KT 5SM BR SCT005 OVC010=
202301261723 TAF KPWT 261723Z 2618/2718 00000KT P6SM SCT010 OVC020 FM262100
                       19004KT P6SM OVC015 FM270500 19008KT 2SM
                       BR VCSH OVC007 FM270800 19012KT 2SM -RA
                       BR OVC005 FM271300 15004KT 3SM BR VCSH OVC007
                       FM271600 VRB03KT 1SM BR OVC003=
202301261120 TAF KPWT 261120Z 2612/2712 00000KT P6SM OVC023 FM261500 00000KT
                       3SM BR OVC009 FM262100 19003KT P6SM OVC015
                       FM270500 19008KT P6SM OVC010 FM271000 19012KT
                       P6SM -RA OVC005=
202301260908 KPWT 260908Z 2609/2706 00000KT P6SM OVC023 FM261200 00000KT 6SM
                       BR OVC015 FM261500 00000KT 3SM BR OVC009
                       FM262100 21005KT P6SM OVC015=
202301260520 TAF KPWT 260520Z 2606/2706 00000KT P6SM OVC020 FM260900 00000KT
                       1/2SM FG OVC002 FM261800 00000KT 3SM BR
                       OVC009 FM262100 21005KT P6SM OVC015=
202301252330 TAF KPWT 252330Z 2600/2624 01005KT P6SM OVC020 FM260300 00000KT
                       4SM BR OVC007 FM260900 00000KT 1/2SM FG
                       OVC002 FM261800 00000KT 3SM BR OVC009 FM262100
                       21005KT P6SM OVC015=
202301251724 TAF KPWT 251724Z 2518/2618 00000KT P6SM SCT008 OVC020
                      TEMPO 2518/2520 BKN008 FM252000 00000KT P6SM
                       OVC008 FM260300 00000KT 1SM BR OVC003=
202301251307 KPWT 251307Z 2513/2612 00000KT P6SM OVC003
                      TEMPO 2513/2517 1SM BR FM251900 02003KT P6SM
                       OVC007 FM260200 00000KT 1SM BR OVC003=
202301251120 TAF KPWT 251120Z 2512/2612 00000KT 1/2SM FG OVC003 FM251800 VRB03KT
                       4SM BR OVC005 FM252100 02003KT 6SM BR OVC007
                       FM260200 00000KT 1SM BR OVC003=
202301250520 TAF KPWT 250520Z 2506/2606 22003KT 1/2SM FG OVC003 FM250900 00000KT
                       1/2SM FG OVC003 FM251300 00000KT 1/4SM FG
                       OVC001 FM251800 02003KT 6SM BR OVC007 FM252100
                       VRB03KT 6SM BR OVC007=
202301250216 KPWT 250216Z 2502/2524 00000KT 4SM BR OVC003 FM250300 00000KT 3SM
                       BR OVC005 FM250900 00000KT 1/2SM FG OVC003
                       FM251300 00000KT 1/4SM FG OVC001 FM251800
                       02003KT 6SM BR OVC007=
202301242322 TAF KPWT 242322Z 2500/2524 19004KT P6SM OVC009 FM250300 00000KT
                       3SM BR OVC007 FM250900 00000KT 1/2SM FG
                       OVC003 FM251300 00000KT 1/4SM FG OVC001
                       FM251800 02003KT 6SM BR OVC007=
202301241956 KPWT 241956Z 2420/2518 20003KT 6SM BR OVC003 FM242200 19004KT 6SM
                       BR OVC007 FM250300 00000KT 3SM BR OVC005
                       FM250900 00000KT 1/2SM FG OVC003=
202301241722 TAF KPWT 241722Z 2418/2518 19003KT 3SM BR OVC003 FM241900 20003KT
                       P6SM OVC008 FM242200 19004KT 6SM BR OVC007
                       FM250300 00000KT 3SM BR OVC005 FM250900
                       00000KT 1/2SM FG OVC003=
202301241405 KPWT 241405Z 2414/2512 00000KT 3SM BR SCT002 OVC022
                      TEMPO 2414/2417 1/2SM FG OVC002 FM241700
                       19003KT 3SM BR OVC005 FM241900 20003KT P6SM
                       OVC008 FM250300 00000KT 3SM BR OVC005=
202301241315 KPWT 241315Z 2413/2512 00000KT 1/2SM FG OVC003 FM241600 19003KT
                       3SM BR OVC005 FM241900 20003KT P6SM OVC008
                       FM250300 00000KT 3SM BR OVC005=
202301241123 TAF KPWT 241123Z 2412/2512 00000KT P6SM FEW002 OVC100 FM241500
                       19003KT P6SM OVC015 FM241900 20003KT P6SM
                       OVC008 FM250300 00000KT 3SM BR OVC005=
202301240520 TAF KPWT 240520Z 2406/2506 00000KT P6SM OVC035
                      TEMPO 2406/2409 2SM BR FM241000 00000KT 6SM
                       BR OVC025 FM241400 00000KT 4SM BR OVC007
                       FM241800 19004KT 4SM BR OVC005=
202301240022 KPWT 240022Z 2400/2424 13003KT P6SM SCT035 OVC040 FM240200 19005KT
                       P6SM SCT020 BKN035 FM240800 00000KT 6SM
                       BR OVC025 FM241400 00000KT 4SM BR OVC007
                       FM241800 19004KT 4SM BR OVC005=
202301232325 TAF KPWT 232325Z 2400/2424 13003KT P6SM BKN015 BKN040 FM240200
                       19005KT P6SM SCT020 BKN035 FM240800 00000KT
                       6SM BR OVC025 FM241400 00000KT 4SM BR OVC007
                       FM241800 19004KT 4SM BR OVC005=
202301232028 KPWT 232028Z 2320/2418 20004KT P6SM SCT003 OVC040 FM232200 19005KT
                       P6SM SCT012 OVC020 FM240200 19005KT P6SM
                       SCT020 BKN035 FM240600 00000KT 4SM BR BKN007
                       OVC015 FM241100 00000KT 1/4SM FG OVC001=
202301231915 KPWT 231915Z 2319/2418 00000KT 6SM BR OVC001 FM232200 19005KT P6SM
                       SCT012 OVC020 FM240200 19005KT P6SM SCT020
                       BKN035 FM240600 00000KT 4SM BR BKN007 OVC015
                       FM241100 00000KT 1/4SM FG OVC001=
202301231720 TAF KPWT 231720Z 2318/2418 00000KT 6SM BR SCT008 OVC015
                      TEMPO 2318/2319 1/4SM FG OVC001 FM232200
                       19005KT P6SM SCT012 OVC020 FM240200 19005KT
                       P6SM SCT020 BKN035 FM240600 00000KT 4SM
                       BR BKN007 OVC015 FM241100 00000KT 1/4SM
                       FG OVC001=
202301231606 KPWT 231606Z 2316/2412 00000KT 6SM BR SCT005 OVC040
                      TEMPO 2316/2317 1/4SM FG BKN001 FM231700
                       00000KT 6SM BR SCT008 OVC015 FM232200 19005KT
                       P6SM SCT012 OVC020 FM240200 19005KT P6SM
                       SCT020 BKN035 FM240600 00000KT 4SM BR BKN007
                       OVC015=
202301231421 KPWT 231421Z 2314/2412 00000KT 6SM BR SCT005 OVC040
                      TEMPO 2314/2317 3SM BR BKN005 FM231700 00000KT
                       6SM BR SCT008 OVC015 FM232200 19005KT P6SM
                       SCT012 OVC020 FM240200 19005KT P6SM SCT020
                       BKN035 FM240600 00000KT 4SM BR BKN007 OVC015=
202301231120 TAF KPWT 231120Z 2312/2412 00000KT 3SM BR BKN003 OVC040
                      TEMPO 2312/2315 1/2SM FG VV002 FM231500 00000KT
                       4SM BR OVC005 FM231800 00000KT 6SM BR SCT008
                       OVC015 FM232200 19005KT P6SM SCT012 OVC020
                       FM240200 19005KT P6SM SCT020 BKN035 FM240600
                       00000KT 4SM BR BKN007 OVC015=
202301230917 KPWT 230917Z 2309/2406 00000KT P6SM SCT001 BKN100
                      TEMPO 2309/2313 3SM BR BKN001 FM231300 00000KT
                       4SM BR OVC005 FM231800 00000KT 6SM BR SCT008
                       OVC015 FM232200 19006KT P6SM SCT012 OVC020
                       FM240200 19006KT P6SM SCT020 BKN035=
202301230541 TAF KPWT 230541Z 2306/2406 00000KT P6SM SCT001 BKN100
                      TEMPO 2306/2310 3SM BR BKN001 FM231300 00000KT
                       4SM BR OVC008 FM231800 00000KT 6SM BR SCT008
                       OVC015 FM232200 19006KT P6SM SCT012 OVC020
                       FM240200 19006KT P6SM SCT020 BKN035=
202301230417 KPWT 230417Z 2304/2324 00000KT 1/2SM FG BKN001 FM231300 00000KT
                       2SM BR OVC005 FM231800 00000KT 6SM BR SCT015
                       BKN020=
202301222331 TAF KPWT 222331Z 2300/2324 VRB03KT P6SM SCT020 BKN100 FM230600
                       00000KT 6SM BR OVC007 FM230900 00000KT 2SM
                       BR OVC005 FM231800 00000KT 6SM BR SCT015
                       BKN020=
202301221739 TAF KPWT 221739Z 2218/2318 VRB03KT P6SM BKN005 OVC030 FM222100
                       VRB03KT P6SM OVC020 FM230600 00000KT 6SM
                       BR OVC007 FM231600 00000KT 2SM BR OVC005=
202301221225 KPWT 221225Z 2212/2312 VRB03KT P6SM OVC010 FM222100 VRB03KT P6SM
                       OVC020 FM230600 00000KT 6SM BR OVC007=
202301221127 TAF KPWT 221127Z 2212/2312 VRB03KT 6SM BR OVC005 FM222000 VRB03KT
                       P6SM OVC010 FM222300 VRB03KT P6SM OVC015
                       FM230600 00000KT 6SM BR OVC007=
202301220758 KPWT 220758Z 2208/2306 VRB03KT P6SM BKN005 OVC015 FM221200 VRB03KT
                       6SM BR OVC004 FM222000 VRB03KT P6SM OVC007
                       FM222300 VRB03KT P6SM OVC012=
202301220540 TAF KPWT 220540Z 2206/2306 VRB03KT P6SM OVC015 FM221200 VRB03KT
                       6SM BR OVC004 FM222000 VRB03KT P6SM OVC007
                       FM222300 VRB03KT P6SM OVC012=
202301212331 TAF KPWT 212331Z 2200/2224 21012KT 3SM -RA OVC009 FM220300 19015G25KT
                       P6SM -SHRA SCT015 BKN025 OVC040 FM220900
                       05005KT 6SM BR OVC003 FM222000 06003KT P6SM
                       OVC007=
202301212013 KPWT 212013Z 2120/2218 20005KT 2SM -SNRA BR OVC005 FM212100 19017G27KT
                       5SM -RA BKN012 OVC025 FM220300 19015G25KT
                       P6SM -SHRA SCT015 BKN025 OVC040=
202301211735 TAF KPWT 211735Z 2118/2218 19006KT P6SM -RA SCT002 FM211900 19012KT
                       5SM -RA SCT015 OVC030 FM212100 19017G27KT
                       5SM -RA BKN012 OVC025 FM220300 19015G25KT
                       P6SM -SHRA SCT015 BKN025 OVC040=
202301211456 KPWT 211456Z 2115/2212 00000KT 1SM BR OVC001
                      TEMPO 2115/2116 1/4SM FZFG VV001 FM211700
                       19006KT P6SM -RA OVC040 FM211900 19012KT
                       5SM -RA SCT015 OVC030 FM212100 19017G27KT
                       5SM -RA BKN012 OVC025 FM220300 19015G25KT
                       P6SM -SHRA SCT015 BKN025 OVC040=
202301211130 TAF KPWT 211130Z 2112/2212 00000KT 1SM BR OVC001
                      TEMPO 2112/2115 1/4SM FZFG VV001 FM211500
                       00000KT 4SM BR SCT004 OVC050 FM211700 19006KT
                       P6SM -RA OVC040 FM211900 19012KT 5SM -RA
                       SCT015 OVC030 FM212100 19017G27KT 5SM -RA
                       BKN012 OVC025 FM220300 19015G25KT P6SM -SHRA
                       SCT015 BKN025 OVC040=
202301210536 TAF KPWT 210536Z 2106/2206 00000KT 4SM BR SCT001
                      TEMPO 2106/2110 1SM BR BKN001 FM211000 00000KT
                       1SM BR OVC001 FM211400 00000KT 4SM BR SCT004
                       OVC040 FM211600 19006KT P6SM -RA OVC040
                       FM211900 19012KT 5SM -RA SCT015 OVC030 FM212100
                       19015G25KT 5SM -RA BKN015 OVC030 FM220100
                       19015G25KT P6SM SCT015 BKN025 OVC040=
202301202320 TAF KPWT 202320Z 2100/2124 00000KT P6SM FEW020 SCT250 FM210600
                       00000KT 6SM BR BKN250 FM210900 00000KT 4SM
                       BR BKN003 FM211200 00000KT 1/4SM FG OVC003
                       FM211600 21002KT 2SM BR OVC003=
202301201720 TAF KPWT 201720Z 2018/2118 00000KT P6SM OVC006 FM202100 00000KT
                       P6SM OVC015 FM210000 00000KT P6SM SCT200
                       FM210600 00000KT 6SM BR OVC015 FM211200
                       VRB02KT P6SM BKN050=
202301201341 KPWT 201341Z 2014/2112 00000KT 5SM BR OVC006
                      TEMPO 2014/2016 1/2SM FG FM201700 00000KT
                       6SM BR OVC004 FM202100 00000KT P6SM OVC008
                       FM210000 00000KT P6SM SCT200 FM210600 00000KT
                       2SM BR OVC001=
202301201130 TAF KPWT 201130Z 2012/2112 00000KT 3SM BR OVC002
                      TEMPO 2012/2016 1/2SM FG FM201700 00000KT
                       6SM BR OVC004 FM202100 00000KT P6SM OVC008
                       FM210000 00000KT P6SM SCT200 FM210600 00000KT
                       2SM BR OVC001=
202301200802 KPWT 200802Z 2008/2106 00000KT 1SM BR OVC004 FM201700 00000KT 6SM
                       BR OVC004 FM202000 00000KT P6SM OVC006 FM202300
                       00000KT P6SM SCT012=
202301200530 TAF KPWT 200530Z 2006/2106 19004KT P6SM OVC006 FM201000 00000KT
                       3SM BR OVC002 FM201700 00000KT 6SM BR OVC004
                       FM202000 00000KT P6SM OVC006 FM202300 00000KT
                       P6SM SCT012=
202301200230 KPWT 200230Z 2002/2024 19004KT P6SM OVC004 FM200800 00000KT 3SM
                       BR OVC002 FM201700 00000KT 6SM BR OVC004
                       FM202000 00000KT P6SM OVC006 FM202300 00000KT
                       P6SM SCT012=
202301192320 TAF KPWT 192320Z 2000/2024 19004KT P6SM OVC006 FM200300 00000KT
                       P6SM OVC020 FM200700 00000KT 6SM BR OVC005
                       FM201400 00000KT 4SM BR OVC007 FM201900
                       00000KT 4SM BR OVC015=
202301191720 TAF KPWT 191720Z 1918/2018 00000KT P6SM OVC006 FM192000 19004KT
                       P6SM OVC008 FM200300 00000KT P6SM OVC015
                       FM200900 00000KT 6SM BR OVC007 FM201400
                       00000KT 4SM BR OVC005=
202301191301 KPWT 191301Z 1913/2012 00000KT P6SM OVC008
                      TEMPO 1913/1916 2SM BR FM192000 19004KT P6SM
                       OVC008 FM200300 00000KT P6SM OVC004 FM200900
                       00000KT 4SM BR OVC004=
202301191207 KPWT 191207Z 1912/2012 00000KT 1 1/2SM BR SCT008 OVC012 FM192000
                       19003KT P6SM OVC008 FM200300 00000KT P6SM
                       OVC004 FM200900 00000KT 4SM BR OVC004=
202301191122 TAF KPWT 191122Z 1912/2012 00000KT P6SM OVC005 FM192000 19003KT
                       P6SM OVC008 FM200300 00000KT P6SM OVC004
                       FM200900 00000KT 4SM BR OVC004=
202301190522 TAF KPWT 190522Z 1906/2006 VRB03KT P6SM OVC005 FM191800 19003KT
                       P6SM SCT010 BKN020 FM192000 19005KT P6SM
                       SCT030 BKN050=
202301190419 KPWT 190419Z 1904/1924 00000KT P6SM SCT004 BKN040
                      TEMPO 1904/1906 OVC004 FM190600 00000KT P6SM
                       BKN007 OVC025
                      TEMPO 1912/1916 4SM BR OVC004 FM191800 19003KT
                       P6SM SCT010 BKN030 FM192000 19005KT P6SM
                       SCT030 BKN050=
202301182332 TAF KPWT 182332Z 1900/1924 00000KT P6SM BKN010 OVC020 FM190300
                       19003KT P6SM BKN035 FM190600 20006KT P6SM
                       BKN025 FM191000 VRB02KT 6SM BR OVC015 FM191200
                       00000KT 1/2SM FG OVC003=
202301181940 KPWT 181940Z 1820/1918 19010KT P6SM -RA OVC007 FM182200 20010KT
                       P6SM SCT010 BKN020 OVC035 FM190000 20008KT
                       P6SM -SHRA BKN010 OVC020 FM190600 20006KT
                       P6SM BKN025 FM191000 VRB02KT 6SM BR OVC020=
202301181815 KPWT 181815Z 1818/1918 19008KT P6SM -RA SCT010 BKN035 FM182200
                       20010KT P6SM SCT010 BKN020 OVC035 FM190000
                       20008KT P6SM -SHRA BKN010 OVC020 FM190600
                       20006KT P6SM BKN025 FM191000 VRB02KT 6SM
                       BR OVC020=
202301181724 TAF KPWT 181724Z 1818/1918 19008KT P6SM -RA BKN005 OVC015 FM182200
                       20010KT P6SM SCT010 BKN020 OVC035 FM190000
                       20008KT P6SM -SHRA BKN010 OVC020 FM190600
                       20006KT P6SM BKN025 FM191000 VRB02KT 6SM
                       BR OVC020=
202301181133 TAF KPWT 181133Z 1812/1912 19006KT P6SM -RA SCT040 OVC060 FM181400
                       19008KT P6SM -RA OVC020 FM181600 19008KT
                       4SM -RA BR BKN007 OVC015 FM182100 20010KT
                       P6SM SCT010 BKN020 OVC035 FM190000 20008KT
                       P6SM -SHRA BKN010 OVC020 FM190600 20006KT
                       P6SM OVC010=
202301180900 KPWT 180900Z 1809/1906 19010KT P6SM VCSH FEW035 SCT045 OVC060 FM181000
                       18008KT P6SM VCSH SCT015 BKN025 OVC035 FM181400
                       19008KT P6SM -RA OVC020 FM181600 19008KT
                       4SM -RA BR BKN007 OVC015 FM182100 20010KT
                       P6SM SCT010 BKN020 OVC035 FM190000 20008KT
                       P6SM -SHRA BKN010 OVC020=
202301180520 TAF KPWT 180520Z 1806/1906 19008KT P6SM -RA SCT009 BKN015 OVC035
                       FM181000 18008KT P6SM SCT015 BKN025 OVC035
                       FM181400 19008KT P6SM -RA OVC020 FM181600
                       19008KT 4SM -RA BR BKN007 OVC015 FM182100
                       20010KT P6SM SCT010 BKN020 OVC035 FM190000
                       20008KT P6SM -SHRA BKN010 OVC020=
202301172326 TAF KPWT 172326Z 1800/1824 18007G15KT P6SM -RA OVC015 FM180200
                       19008KT P6SM -RA OVC015 FM180600 19006KT
                       6SM -RA BR OVC010 FM181000 18008KT 6SM BR
                       VCSH OVC015 FM181400 19008KT 6SM -RA BR
                       OVC020=
202301172106 KPWT 172106Z 1721/1818 18007KT P6SM -RA OVC005 FM180100 19005KT
                       P6SM -RA OVC020 FM181000 18008KT 6SM BR
                       VCSH OVC015=
202301171958 KPWT 171958Z 1720/1818 20009KT P6SM OVC005 FM172100 18007KT P6SM
                       OVC015 FM180100 19005KT P6SM -RA OVC020
                       FM181000 18008KT 6SM BR VCSH OVC015=
202301171730 TAF KPWT 171730Z 1718/1818 21012KT P6SM OVC005 FM171900 20009KT
                       P6SM OVC010 FM172100 18007KT P6SM OVC015
                       FM180100 19005KT P6SM -RA OVC020 FM181000
                       18008KT 6SM BR VCSH OVC015=
202301171140 TAF KPWT 171140Z 1712/1812 20006KT 4SM BR OVC003 FM171700 19006KT
                       P6SM OVC010 FM172100 18008KT P6SM BKN025
                       BKN120 FM180100 19005KT P6SM -RA OVC020
                       FM181000 18011G19KT P6SM OVC021=
202301170526 TAF KPWT 170526Z 1706/1806 22005KT P6SM BKN015 OVC025 FM171000
                       20003KT 4SM BR OVC007 FM171800 18006KT P6SM
                       OVC020 FM172100 19008KT P6SM BKN040 BKN120
                       FM180100 19005KT P6SM -RA OVC020=
202301170032 KPWT 170032Z 1701/1724 18005KT P6SM SCT020 OVC035 FM170300 18003KT
                       6SM BR OVC025 FM170700 18004KT 6SM BR OVC015
                       FM171500 20003KT 4SM BR OVC007 FM171800
                       18006KT P6SM OVC020=
202301162320 TAF KPWT 162320Z 1700/1724 18005KT P6SM BKN025 BKN040 FM170300
                       18003KT 6SM BR OVC025 FM170700 18004KT 6SM
                       BR OVC015 FM171500 20003KT 4SM BR OVC007
                       FM171800 18006KT P6SM OVC020=
202301161729 TAF KPWT 161729Z 1618/1718 22007KT P6SM BKN025 BKN040 FM162200
                       19006KT P6SM SCT015 OVC035 FM170500 18003KT
                       6SM BR OVC025 FM171500 20003KT 4SM BR OVC007=
202301161137 TAF KPWT 161137Z 1612/1712 19009KT P6SM OVC007 FM161500 18008KT
                       P6SM OVC015 FM162200 19006KT P6SM SCT015
                       OVC035 FM170700 18003KT 6SM BR OVC007=
202301160520 TAF KPWT 160520Z 1606/1706 17010G18KT P6SM -RA OVC005 FM161100
                       20010KT P6SM VCSH SCT007 OVC015 FM162200
                       19006KT P6SM SCT015 OVC035=
202301152329 TAF KPWT 152329Z 1600/1624 17005KT 4SM -RA BR OVC020 FM160400 19011G18KT
                       3SM -RA BKN007 OVC012 FM161100 20011KT 6SM
                       -SHRA OVC007 FM161500 19008KT P6SM VCSH
                       OVC005 FM162200 19006KT P6SM SCT015 OVC025=
202301151740 TAF KPWT 151740Z 1518/1618 VRB05KT P6SM -RA BKN040 OVC050 FM152100
                       12006KT 4SM -RA BR BKN020 OVC030 FM160000
                       17008KT 3SM -RA BR OVC015 FM160400 19011G18KT
                       3SM -RA BKN007 OVC012 FM161100 20011KT 4SM
                       -RA BR OVC005 FM161500 19008KT 4SM -SHRA
                       OVC005=
202301151145 TAF KPWT 151145Z 1512/1612 06005KT P6SM SCT070 FM151800 VRB04KT
                       P6SM VCSH OVC030 FM152100 12006KT 6SM RA
                       BR OVC021 FM160000 19008KT 4SM -RA BR OVC015
                       FM160800 20009KT 4SM -RA BR OVC007=
202301150524 TAF KPWT 150524Z 1506/1606 05004KT P6SM -RA BKN050 OVC090 FM150900
                       VRB03KT P6SM SCT050 BKN100 FM152100 13005KT
                       P6SM -RA BKN050 OVC090 FM160100 16006KT
                       P6SM -RA BKN020 OVC040 FM160400 17008KT
                       4SM -RA BR OVC010=
202301142351 TAF KPWT 142351Z 1500/1524 03006KT P6SM SCT060 BKN100 FM150400
                       03003KT P6SM OVC025 FM150800 05002KT 1/2SM
                       FG OVC025
                      TEMPO 1513/1516 1/4SM FG VV001 FM151600 VRB04KT
                       P6SM OVC030 FM151800 VRB04KT P6SM -RA OVC030=
202301141801 TAF KPWT 141801Z 1418/1518 05006KT P6SM SCT060 BKN200 FM142000
                       05006KT P6SM SCT050 BKN100 FM150400 03003KT
                       P6SM OVC025 FM150800 05002KT 1/2SM FG OVC025
                       TEMPO 1513/1516 1/4SM FG VV001 FM151600
                       VRB04KT P6SM OVC030=
202301141512 KPWT 141512Z 1415/1512 19007KT 1/4SM FG SKC
                      TEMPO 1415/1418 5SM BR BKN035 FM141800 04004KT
                       P6SM OVC050 FM142000 05006KT P6SM SCT050
                       BKN100 FM150400 03003KT P6SM OVC025 FM150800
                       05002KT 1/2SM FG OVC025=
202301141453 KPWT 141453Z 1415/1512 19007KT P6SM BKN035
                      TEMPO 1415/1417 3/4SM BR FM141700 04004KT
                       P6SM OVC050 FM142000 05006KT P6SM SCT050
                       BKN100 FM150400 03003KT P6SM OVC025 FM150800
                       05002KT 1/2SM FG OVC025=
202301141138 TAF KPWT 141138Z 1412/1512 19007KT P6SM FEW007 BKN035
                      TEMPO 1412/1414 BKN025 FM141700 04004KT P6SM
                       OVC050 FM142000 05006KT P6SM SCT050 BKN100
                       FM150400 03003KT P6SM OVC025 FM150800 05002KT
                       1/2SM FG OVC025=
202301140520 TAF KPWT 140520Z 1406/1506 20004KT P6SM -RA OVC035 FM140900 VRB03KT
                       1/2SM FG OVC001 FM141700 VRB03KT 4SM BR
                       BKN004 FM142000 05006KT P6SM SCT050 BKN100=
202301132339 TAF KPWT 132339Z 1400/1424 19006KT P6SM -RA BKN005 OVC010 FM140900
                       VRB03KT 1/2SM FG OVC001 FM141700 VRB03KT
                       4SM BR BKN004 FM142000 05006KT P6SM SCT050
                       BKN100=
202301131741 TAF KPWT 131741Z 1318/1418 VRB03KT 1SM -RA BKN006 OVC025
                      TEMPO 1318/1322 4SM -RA SCT006 OVC025 FM132200
                       17006KT 5SM -RA BR SCT006 OVC025 FM140800
                       VRB03KT P6SM SCT040 BKN100 FM141100 VRB03KT
                       1/2SM FG OVC001 FM141700 VRB03KT 4SM BR
                       BKN004=
202301131610 KPWT 131610Z 1316/1412 VRB03KT 1SM -RA BKN004 OVC025 FM132000 19007KT
                       4SM -RA BR SCT005 OVC025=
202301131121 TAF KPWT 131121Z 1312/1412 20004KT P6SM -RA OVC050 FM131500 19003KT
                       P6SM -RA OVC045 FM132000 19007KT 4SM -RA
                       BR OVC020 FM140200 19005KT 4SM -RA BR OVC015=
202301130520 TAF KPWT 130520Z 1306/1406 VRB03KT 5SM -RA OVC035 FM130900 20003KT
                       6SM -RA OVC040 FM131200 20004KT 4SM -RA
                       BR OVC030 FM132000 19007KT 2SM -RA BR OVC007=
202301122320 TAF KPWT 122320Z 1300/1324 VRB03KT 5SM -RA OVC035=
202301121728 TAF KPWT 121728Z 1218/1318 15006KT 5SM -RA OVC035=
202301121355 KPWT 121355Z 1214/1312 05003KT 6SM -RA BR OVC050
                      TEMPO 1214/1215 OVC025 FM121500 16007KT P6SM
                       -RA OVC045 FM122100 20004KT 5SM -RA BR OVC050
                       FM130200 18005KT 5SM -RA BR OVC050=
202301121310 KPWT 121310Z 1213/1312 05003KT 6SM -RA BR OVC050
                      TEMPO 1213/1214 OVC025 FM121500 16007KT P6SM
                       -RA OVC045 FM122100 20004KT 5SM -RA BR OVC050
                       FM130200 18005KT 5SM -RA BR OVC050=
202301121121 TAF KPWT 121121Z 1212/1312 05003KT 4SM -RA BR OVC050 FM121500 16007KT
                       P6SM -RA OVC045 FM122100 20004KT 5SM -RA
                       BR OVC050=
202301120520 TAF KPWT 120520Z 1206/1306 VRB03KT P6SM -RA SCT040 FM120900 10004KT
                       4SM -RA BR OVC040 FM121200 05003KT 4SM -RA
                       BR OVC025 FM122100 20004KT 6SM -RA BR OVC050=
202301112330 TAF KPWT 112330Z 1200/1224 03003KT P6SM OVC070 FM120500 02003KT
                       P6SM -RA OVC050 FM121200 05003KT 4SM -RA
                       BR OVC025=
202301111736 TAF KPWT 111736Z 1118/1218 20004KT P6SM OVC050 FM112200 03003KT
                       P6SM OVC070 FM120700 02003KT P6SM -RA OVC050
                       FM121200 05003KT 4SM -RA BR OVC025=
202301111444 KPWT 111444Z 1115/1212 18004KT P6SM VCSH OVC035 FM111700 20004KT
                       P6SM OVC050 FM112200 03003KT P6SM OVC070
                       FM120700 02003KT P6SM -RA OVC050=
202301111419 KPWT 111419Z 1114/1212 18004KT P6SM VCSH OVC030 FM111700 20004KT
                       P6SM OVC050 FM112200 03003KT P6SM OVC070
                       FM120700 02003KT P6SM -RA OVC050=
202301111120 TAF KPWT 111120Z 1112/1212 19003KT P6SM VCSH OVC040 FM111300 18004KT
                       P6SM OVC050 FM111700 20004KT P6SM OVC050
                       FM112200 03003KT P6SM OVC070 FM120700 02003KT
                       P6SM -RA OVC050=
202301110520 TAF KPWT 110520Z 1106/1206 00000KT P6SM SCT070 BKN100 FM110900
                       19003KT P6SM OVC050 FM111300 18004KT P6SM
                       OVC025 FM111700 20004KT P6SM OVC050 FM112200
                       03003KT P6SM BKN100=
202301102327 TAF KPWT 102327Z 1100/1124 03006KT P6SM BKN250 FM110900 19003KT
                       P6SM OVC050 FM112200 03003KT P6SM BKN100=
202301101720 TAF KPWT 101720Z 1018/1118 01003KT P6SM SCT150 FM102100 00000KT
                       P6SM BKN250 FM110900 19003KT P6SM OVC050=
202301101458 KPWT 101458Z 1013/1112 00000KT P6SM FEW035
                      TEMPO 1013/1016 1/2SM BCFG FM101600 03005KT
                       P6SM FEW070 BKN250 FM102100 00000KT P6SM
                       BKN250=
202301101309 KPWT 101309Z 1013/1112 00000KT P6SM FEW035
                      TEMPO 1013/1015 2SM BR FM101600 03005KT P6SM
                       FEW070 BKN250 FM102100 00000KT P6SM BKN250=
202301101123 TAF KPWT 101123Z 1012/1112 06003KT P6SM OVC040 FM101300 00000KT
                       P6SM BKN025 BKN045 FM101600 03005KT P6SM
                       FEW070 BKN250 FM102100 00000KT P6SM BKN250=
202301100524 TAF KPWT 100524Z 1006/1106 VRB03KT 6SM -RA BR BKN025 OVC040 FM100900
                       VRB03KT P6SM OVC015 FM101100 00000KT 4SM
                       BR OVC007 FM101300 00000KT P6SM BKN025 BKN045
                       FM101600 03005KT P6SM FEW070 BKN250 FM110300
                       00000KT P6SM BKN250=
202301100359 KPWT 100359Z 1004/1024 21004KT P6SM -RA FEW004 BKN030 OVC040
                      TEMPO 1004/1008 4SM RA BR BKN004 OVC025 FM100900
                       19004KT 5SM BR OVC007 FM101300 00000KT P6SM
                       BKN025 BKN045 FM101800 03005KT P6SM FEW070=
202301092346 TAF KPWT 092346Z 1000/1024 19010KT P6SM VCSH SCT025 BKN050 FM100400
                       19008KT P6SM VCSH OVC060 FM100500 18006KT
                       P6SM -RA OVC050 FM100900 19004KT 5SM BR
                       OVC025 FM101200 00000KT P6SM BKN045 FM101800
                       03005KT P6SM FEW070=
202301091745 TAF KPWT 091745Z 0918/1018 03006G14KT P6SM -SHRA OVC050 FM092100
                       23008G16KT P6SM -RA OVC050 FM100400 19008KT
                       P6SM VCSH OVC050 FM100500 20004KT 2SM BR
                       OVC010 FM101500 00000KT P6SM SCT080=
202301091139 TAF KPWT 091139Z 0912/1012 03006KT 3/4SM BR OVC002 FM091500 00000KT
                       1SM BR OVC007 FM091800 03006G14KT P6SM -SHRA
                       OVC050 FM092100 23008G16KT P6SM -RA OVC050
                       FM100400 19008KT P6SM VCSH OVC050 FM100500
                       20004KT 1/4SM FG OVC004=
202301090530 TAF KPWT 090530Z 0906/1006 12006KT P6SM -SHRA BKN045 OVC070 FM090900
                       VRB04KT P6SM BKN050 OVC100 FM091200 02006KT
                       P6SM OVC050 FM091800 03009KT P6SM -SHRA
                       OVC050 FM092100 19014KT P6SM -SHRA OVC050
                       FM100400 19008KT P6SM VCSH OVC050=
202301082343 TAF KPWT 082343Z 0900/0924 18009KT P6SM -RA OVC020 FM090300 16010KT
                       P6SM -RA OVC040 FM090700 VRB04KT P6SM OVC003
                       FM091300 04006KT P6SM BKN050=
202301081746 TAF KPWT 081746Z 0818/0918 00000KT 6SM -RA BR BKN060 FM082000 18009KT
                       P6SM -RA OVC020 FM090300 17010KT P6SM -RA
                       OVC040 FM090700 VRB04KT P6SM OVC003 FM091300
                       04006KT P6SM BKN050=
202301081122 TAF KPWT 081122Z 0812/0912 00000KT 6SM -RA BR BKN060 FM082000 18009KT
                       P6SM -RA OVC020 FM090300 16010KT P6SM -RA
                       OVC050 FM090700 20004KT P6SM OVC003=
202301080528 TAF KPWT 080528Z 0806/0906 00000KT 2SM BR FEW001 SCT070 FM080900
                       04004KT P6SM SCT070 OVC120 FM081300 04006KT
                       P6SM -RA OVC050 FM082000 18009KT P6SM -RA
                       OVC020 FM090300 16010KT P6SM -RA OVC050=
202301072342 TAF KPWT 072342Z 0800/0824 13004KT P6SM -RA OVC035 FM080400 VRB03KT
                       P6SM OVC010 FM080600 VRB03KT P6SM OVC003
                       FM081400 05003KT P6SM -RA OVC050 FM081800
                       15007KT P6SM -RA OVC025 FM082100 17011KT
                       P6SM -RA OVC015=
202301071743 TAF KPWT 071743Z 0718/0818 04005KT 6SM -RA BR OVC025
                      TEMPO 0721/0724 4SM -RA BR OVC020 FM080000
                       11004KT 6SM -RA BR OVC035 FM080400 VRB03KT
                       P6SM OVC007 FM080700 04002KT P6SM OVC003
                       FM081400 05003KT P6SM -RA OVC050=
202301071127 TAF KPWT 071127Z 0712/0812 VRB02KT P6SM -RA OVC050 FM071300 05006KT
                       P6SM OVC035 FM071500 05005KT 6SM -RA BR
                       OVC025 FM080300 17007KT P6SM VCSH BKN035
                       FM080700 06002KT P6SM OVC003=
202301070530 TAF KPWT 070530Z 0706/0806 18006KT P6SM -RA OVC060 FM070800 17006KT
                       P6SM OVC045 FM071300 05006KT P6SM OVC035
                       FM071500 05005KT 6SM -RA BR OVC025 FM080300
                       17007KT P6SM VCSH BKN035=
202301062329 TAF KPWT 062329Z 0700/0724 12010KT P6SM -RA OVC040 FM070700 17006KT
                       P6SM VCSH OVC025 FM071200 17004KT P6SM VCSH
                       OVC015 FM071800 04005KT 6SM -RA BR OVC012=
202301061734 TAF KPWT 061734Z 0618/0718 12006KT P6SM VCSH SCT050 OVC070 FM062100
                       06006KT P6SM VCSH SCT050 OVC080 FM070000
                       12010KT P6SM -RA OVC050 FM070700 17006KT
                       P6SM VCSH OVC025=
202301061130 TAF KPWT 061130Z 0612/0712 16010KT P6SM OVC050 FM061800 12006KT
                       P6SM VCSH SCT050 OVC070 FM062100 06006KT
                       P6SM VCSH SCT050 OVC080 FM070000 12010KT
                       P6SM -RA OVC050=
202301060520 TAF KPWT 060520Z 0606/0706 18015G25KT P6SM -SHRA OVC040 FM061100
                       16010KT P6SM OVC050 FM061800 12006KT P6SM
                       VCSH SCT050 OVC070 FM062100 06006KT P6SM
                       VCSH SCT050 OVC080 FM070000 12010KT P6SM
                       -RA OVC050=
202301052321 TAF KPWT 052321Z 0600/0624 18013G22KT P6SM -RA OVC050 FM060300
                       18012G21KT 5SM -RA BR OVC030 FM061000 19005KT
                       4SM BR OVC007 FM062000 03005KT P6SM SCT010
                       OVC050=
202301051720 TAF KPWT 051720Z 0518/0618 06007KT P6SM VCSH OVC040 FM052100 11007KT
                       P6SM -RA OVC070 FM060300 18012G21KT 5SM
                       -RA BR OVC030 FM061000 19005KT 4SM BR OVC007=
202301051139 TAF KPWT 051139Z 0512/0612 VRB03KT P6SM OVC050 FM051800 06007KT
                       P6SM VCSH OVC040 FM052100 11007KT P6SM -RA
                       OVC070 FM060300 18015KT P6SM -RA OVC030=
202301050539 TAF KPWT 050539Z 0506/0606 04009KT P6SM VCSH OVC070
                      TEMPO 0506/0507 -RA BKN070 FM050900 VRB03KT
                       P6SM OVC050 FM051800 06007KT P6SM VCSH OVC040
                       FM052100 11007KT P6SM -RA OVC070 FM060300
                       18015KT P6SM -RA OVC030=
202301042320 TAF KPWT 042320Z 0500/0524 02010KT P6SM VCSH OVC050
                      TEMPO 0502/0506 3SM -RA BR OVC010 FM050900
                       VRB03KT P6SM OVC050 FM052000 22005KT P6SM
                       VCSH OVC040=
202301041720 TAF KPWT 041720Z 0418/0518 04008KT P6SM SCT010 SCT100 FM050000
                       02010KT P6SM VCSH OVC150 FM050900 VRB03KT
                       P6SM OVC050=
202301041127 TAF KPWT 041127Z 0412/0512 VRB03KT 4SM BR BKN020 FM041800 04008KT
                       P6SM SCT010 SCT100 FM050000 02010KT P6SM
                       VCSH OVC150 FM050900 10002KT P6SM OVC050=
202301040548 TAF KPWT 040548Z 0406/0506 18003KT P6SM VCSH OVC010
                      TEMPO 0406/0410 5SM -RA BR FM041200 VRB03KT
                       4SM BR BKN020 FM041800 04008KT P6SM SCT010
                       SCT100 FM050000 02010KT P6SM -RA OVC170=
202301032320 TAF KPWT 032320Z 0400/0424 VRB03KT P6SM SCT030 BKN050 FM040500
                       18003KT P6SM VCSH OVC010
                      TEMPO 0406/0410 4SM -RA BR FM041200 VRB03KT
                       4SM BR OVC005 FM041800 02004KT P6SM SCT010
                       SCT100=
202301031720 TAF KPWT 031720Z 0318/0418 19004KT P6SM OVC020 FM032200 19006KT
                       P6SM SCT030 BKN050 FM040500 VRB04KT P6SM
                       VCSH OVC010
                      PROB30 0406/0412 4SM -RA BR FM041200 VRB03KT
                       4SM BR OVC005=
202301031127 TAF KPWT 031127Z 0312/0412 20003KT 4SM BR VCSH BKN022 OVC035
                      TEMPO 0312/0316 -SHRA FM031700 19004KT P6SM
                       BKN022 BKN040 FM032200 19006KT P6SM SCT030
                       BKN050 FM040500 VRB04KT P6SM VCSH OVC030
                       PROB30 0406/0412 -RA=
202301030854 KPWT 030854Z 0309/0406 06004KT P6SM -RA BKN035 OVC060 FM031200
                       VRB03KT 4SM BR VCSH BKN007 OVC015 FM031700
                       19004KT P6SM BKN015 OVC040 FM032300 19004KT
                       P6SM BKN030 BKN050=
202301030525 TAF KPWT 030525Z 0306/0406 06004KT P6SM BKN035 OVC060 FM031100
                       VRB03KT 4SM BR VCSH BKN007 OVC015 FM031700
                       19004KT P6SM BKN015 OVC040 FM032300 19004KT
                       P6SM BKN030 BKN050=
202301022321 TAF KPWT 022321Z 0300/0324 VRB03KT P6SM BKN250 FM030400 06004KT
                       P6SM BKN040 OVC100 FM031100 VRB03KT 4SM
                       BR VCSH BKN007 OVC015 FM031700 19004KT P6SM
                       BKN015 OVC040=
202301021724 TAF KPWT 021724Z 0218/0318 VRB03KT 4SM BR SCT003 OVC150 FM022100
                       VRB04KT P6SM OVC120 FM030400 06004KT P6SM
                       BKN040 OVC100 FM031100 VRB03KT 4SM BR VCSH
                       BKN007 OVC015=
202301021130 TAF KPWT 021130Z 0212/0312 00000KT 2SM BR BKN002 OVC200
                      TEMPO 0212/0215 1/4SM FG VV001 FM021800 VRB03KT
                       4SM BR SCT003 OVC150 FM022100 VRB04KT P6SM
                       OVC120 FM030400 06004KT P6SM BKN040 OVC100
                       FM031100 VRB03KT 4SM BR VCSH BKN007 OVC015=
202301020528 TAF KPWT 020528Z 0206/0306 03003KT 3SM BR OVC005 FM021800 03003KT
                       6SM BR SCT006 BKN200 FM022100 04004KT P6SM
                       BKN200 FM030400 05004KT P6SM BKN100 OVC200=
202301012338 TAF KPWT 012338Z 0200/0224 VRB04KT P6SM BKN015 BKN030 FM020400
                       03003KT 3SM BR BKN005 OVC010 FM022100 19005KT
                       P6SM FEW250=
202301011739 TAF KPWT 011739Z 0118/0218 00000KT 2SM BR OVC003 FM011900 VRB03KT
                       P6SM SCT007 BKN012 FM012200 VRB04KT P6SM
                       BKN025 BKN040 FM020700 03003KT 3SM BR BKN005
                       OVC010=
202301011128 TAF KPWT 011128Z 0112/0212 00000KT 4SM BR VCSH BKN003 OVC015
                      TEMPO 0112/0114 -SHRA FM011400 00000KT 2SM
                       BR VCSH OVC003 FM011900 VRB03KT P6SM SCT007
                       BKN012 FM012200 VRB04KT P6SM BKN025 BKN040
                       FM020700 03003KT 3SM BR BKN005 OVC010=
202301010618 KPWT 010618Z 0106/0206 00000KT P6SM BKN015 FM010900 VRB02KT 6SM
                       BR OVC007 FM011200 00000KT 5SM BR OVC004
                       FM011900 VRB03KT P6SM BKN012 FM012200 04004KT
                       P6SM BKN025 BKN040 FM020500 03003KT 6SM
                       BR OVC010=
202301010534 TAF KPWT 010534Z 0106/0206 00000KT P6SM BKN015 FM010900 VRB02KT
                       6SM BR OVC007 FM011200 00000KT 5SM BR OVC004
                       FM011900 VRB03KT P6SM BKN012 FM012200 04004KT
                       P6SM BKN025 BKN040 FM020500 03003KT 6SM
                       BR OVC010=