##########################################################
# Query made at 02/16/2025 01:18:21 UTC
# Time interval: from 07/01/2023 00:00  to 07/31/2023 23:59  UTC
##########################################################

##########################################################
# KPWT, Bremerton National Automatic Weather Observing / Reporting System (United States)
# WMO index: -----. WIGOS ID: Unknown
# Latitude 47-30N. Longitude 122-45W. Altitude 147 m.
##########################################################

###################################
#  METAR/SPECI from KPWT
###################################
202307312356 METAR KPWT 312356Z AUTO 04010G14KT 10SM CLR 25/12 A3010 RMK AO2 SLP196 T02500117 10256 20200 56010=
202307312256 METAR KPWT 312256Z AUTO 07008G15KT 10SM CLR 24/12 A3011 RMK AO2 SLP198 T02440117=
202307312156 METAR KPWT 312156Z AUTO 04009KT 10SM CLR 25/11 A3012 RMK AO2 SLP201 T02500111=
202307312056 METAR KPWT 312056Z AUTO VRB03KT 10SM CLR 23/11 A3013 RMK AO2 SLP206 T02330111 58008=
202307311956 METAR KPWT 311956Z AUTO 12004KT 10SM CLR 23/11 A3014 RMK AO2 SLP209 T02280111=
202307311856 METAR KPWT 311856Z AUTO VRB04KT 10SM CLR 22/12 A3015 RMK AO2 SLP213 T02220117=
202307311756 METAR KPWT 311756Z AUTO 26005KT 10SM CLR 21/12 A3016 RMK AO2 SLP214 6//// T02060117 10206 20078 58006=
202307311656 METAR KPWT 311656Z AUTO 28006KT 10SM CLR 20/12 A3016 RMK AO2 SLP216 T02000122=
202307311556 METAR KPWT 311556Z AUTO 33003KT 10SM CLR 18/12 A3017 RMK AO2 SLP220 T01830122=
202307311456 METAR KPWT 311456Z AUTO 07003KT 10SM CLR 16/12 A3017 RMK AO2 SLP219 T01560117 53005=
202307311356 METAR KPWT 311356Z AUTO 00000KT 10SM CLR 11/09 A3017 RMK AO2 SLP218 T01110094=
202307311256 METAR KPWT 311256Z AUTO 00000KT 10SM CLR 08/08 A3016 RMK AO2 SLP217 T00830078=
202307311156 METAR KPWT 311156Z AUTO 00000KT 10SM CLR 08/08 A3016 RMK AO2 SLP216 7//// T00830083 10139 20083 53003=
202307311056 METAR KPWT 311056Z AUTO 00000KT 10SM CLR 09/09 A3015 RMK AO2 SLP215 T00890089=
202307310956 METAR KPWT 310956Z AUTO 00000KT 10SM CLR 10/09 A3015 RMK AO2 SLP211 T01000094=
202307310856 METAR KPWT 310856Z AUTO 06004KT 10SM CLR 11/10 A3015 RMK AO2 SLP212 T01110100 51003=
202307310756 METAR KPWT 310756Z AUTO 00000KT 10SM CLR 11/09 A3015 RMK AO2 SLP213 T01060094 402440100=
202307310656 METAR KPWT 310656Z AUTO 00000KT 10SM CLR 13/11 A3014 RMK AO2 SLP210 T01330106=
202307310556 METAR KPWT 310556Z AUTO 14003KT 10SM CLR 13/11 A3014 RMK AO2 SLP210 T01280106 10239 20128 51003=
202307310456 METAR KPWT 310456Z AUTO 06003KT 10SM CLR 17/11 A3014 RMK AO2 SLP209 T01670106=
202307310356 METAR KPWT 310356Z AUTO 07004KT 10SM CLR 18/11 A3014 RMK AO2 SLP208 T01780106=
202307310256 METAR KPWT 310256Z AUTO 02008KT 10SM FEW065 21/11 A3013 RMK AO2 SLP206 T02110111 55000=
202307310156 METAR KPWT 310156Z AUTO 06009KT 10SM SCT065 22/11 A3012 RMK AO2 SLP203 T02170111=
202307310056 METAR KPWT 310056Z AUTO 06007KT 10SM CLR 23/11 A3012 RMK AO2 SLP203 T02330106=
202307302356 METAR KPWT 302356Z AUTO 05008KT 10SM FEW060 24/11 A3013 RMK AO2 SLP206 6//// T02390111 10244 20183 56007=
202307302256 METAR KPWT 302256Z AUTO 04009KT 10SM OVC055 23/12 A3014 RMK AO2 SLP208 T02280117=
202307302156 METAR KPWT 302156Z AUTO VRB03KT 10SM BKN050 23/11 A3014 RMK AO2 SLP210 T02330106=
202307302056 METAR KPWT 302056Z AUTO 20008KT 140V210 10SM BKN055 24/11 A3015 RMK AO2 SLP213 6//// T02390111 58008=
202307301956 METAR KPWT 301956Z AUTO VRB04KT 10SM BKN039 21/12 A3016 RMK AO2 SLP218 T02060117=
202307301856 METAR KPWT 301856Z AUTO 12004KT 10SM FEW028 20/12 A3017 RMK AO2 SLP219 T02000122=
202307301756 METAR KPWT 301756Z AUTO 18006KT 10SM SCT020 18/12 A3018 RMK AO2 SLP222 6//// T01830122 10183 20111 50005=
202307301656 METAR KPWT 301656Z AUTO 23005KT 10SM FEW016 OVC050 16/12 A3018 RMK AO2 SLP223 T01610122=
202307301556 METAR KPWT 301556Z AUTO 23003KT 10SM OVC046 15/12 A3018 RMK AO2 SLP221 T01500122=
202307301456 METAR KPWT 301456Z AUTO 20003KT 10SM OVC044 14/12 A3016 RMK AO2 SLP216 6//// T01390122 53008=
202307301356 METAR KPWT 301356Z AUTO 00000KT 10SM OVC044 13/12 A3015 RMK AO2 SLP213 T01280122=
202307301256 METAR KPWT 301256Z AUTO 14003KT 10SM OVC044 12/11 A3014 RMK AO2 SLP210 T01170111=
202307301156 METAR KPWT 301156Z AUTO 00000KT 10SM OVC042 12/11 A3014 RMK AO2 SLP208 6//// 7//// T01170111 10139 20100 55000=
202307301056 METAR KPWT 301056Z AUTO 00000KT 10SM BKN040 11/11 A3013 RMK AO2 SLP206 T01110106=
202307300956 METAR KPWT 300956Z AUTO 00000KT 10SM BKN038 11/10 A3013 RMK AO2 SLP207 T01060100=
202307300856 METAR KPWT 300856Z AUTO 00000KT 10SM CLR 11/10 A3014 RMK AO2 SLP208 6//// T01060100 51003=
202307300756 METAR KPWT 300756Z AUTO 00000KT 10SM CLR 11/10 A3013 RMK AO2 SLP206 T01110100 402500111=
202307300656 METAR KPWT 300656Z AUTO 00000KT 10SM CLR 13/11 A3013 RMK AO2 SLP206 T01330111=
202307300556 METAR KPWT 300556Z AUTO 00000KT 10SM CLR 14/12 A3013 RMK AO2 SLP206 T01390117 10244 20133 51012=
202307300456 METAR KPWT 300456Z AUTO 09003KT 10SM CLR 16/12 A3012 RMK AO2 SLP204 T01610122=
202307300356 METAR KPWT 300356Z AUTO 07004KT 10SM CLR 18/12 A3011 RMK AO2 SLP198 T01830122=
202307300256 METAR KPWT 300256Z AUTO 04009KT 10SM CLR 20/13 A3009 RMK AO2 SLP193 T02000128 55001=
202307300156 METAR KPWT 300156Z AUTO 07010KT 10SM FEW050 22/13 A3008 RMK AO2 SLP190 T02220133=
202307300056 METAR KPWT 300056Z AUTO 25004KT 10SM CLR 23/11 A3009 RMK AO2 SLP190 T02330106=
202307292356 METAR KPWT 292356Z AUTO 24007KT 210V280 10SM CLR 24/11 A3010 RMK AO2 SLP193 T02390111 10250 20172 58006=
202307292256 METAR KPWT 292256Z AUTO 24006G14KT 10SM CLR 25/11 A3011 RMK AO2 SLP197 T02500111=
202307292156 METAR KPWT 292156Z AUTO 23009G14KT 190V250 10SM CLR 24/11 A3011 RMK AO2 SLP199 T02390111=
202307292056 METAR KPWT 292056Z AUTO 12003KT 10SM FEW045 23/12 A3011 RMK AO2 SLP200 T02330117 58005=
202307291956 METAR KPWT 291956Z AUTO VRB03KT 10SM CLR 22/12 A3012 RMK AO2 SLP202 T02170117=
202307291856 METAR KPWT 291856Z AUTO VRB04KT 6SM HZ CLR 21/13 A3012 RMK AO2 SLP204 T02060133=
202307291756 METAR KPWT 291756Z AUTO 00000KT 10SM SCT015 17/13 A3013 RMK AO2 SLP206 T01720133 10183 20122 51004=
202307291751 SPECI KPWT 291751Z AUTO VRB05KT 10SM BKN015 18/13 A3013 RMK AO2=
202307291727 SPECI KPWT 291727Z AUTO 28005KT 10SM OVC011 16/13 A3012 RMK AO2=
202307291656 METAR KPWT 291656Z AUTO 20004KT 10SM OVC009 14/13 A3012 RMK AO2 SLP204 T01440128=
202307291604 SPECI KPWT 291604Z AUTO 24004KT 10SM OVC007 14/13 A3012 RMK AO2=
202307291556 METAR KPWT 291556Z AUTO 22005KT 10SM OVC005 14/13 A3012 RMK AO2 SLP202 T01390128=
202307291507 SPECI KPWT 291507Z AUTO 19004KT 10SM OVC005 13/13 A3011 RMK AO2=
202307291456 METAR KPWT 291456Z AUTO 19003KT 10SM OVC003 13/13 A3011 RMK AO2 SLP199 T01330128 51008=
202307291356 METAR KPWT 291356Z AUTO 24007KT 10SM OVC003 13/13 A3010 RMK AO2 SLP196 T01280128=
202307291256 METAR KPWT 291256Z AUTO 22005KT 7SM OVC003 13/13 A3010 RMK AO2 SLP194 T01280128=
202307291156 METAR KPWT 291156Z AUTO 20004KT 9SM OVC003 12/12 A3009 RMK AO2 SLP190 7//// T01220122 10144 20111=
202307291103 SPECI KPWT 291103Z AUTO 19004KT 9SM OVC003 12/12 A3008 RMK AO2=
202307291056 METAR KPWT 291056Z AUTO 20003KT 10SM OVC005 12/12 A3008 RMK AO2 CIG 003V006 SLP187 T01170117=
202307291042 SPECI KPWT 291042Z AUTO 21003KT 10SM BKN005 12/12 A3008 RMK AO2=
202307291017 SPECI KPWT 291017Z AUTO 00000KT 10SM FEW007 12/12 A3008 RMK AO2=
202307290956 METAR KPWT 290956Z AUTO 22003KT 10SM CLR 11/11 RMK AO2 SLPNO T01110111 $=
202307290856 METAR KPWT 290856Z AUTO 19003KT 10SM CLR 12/12 A3007 RMK AO2 SLP186 T01220117 53005=
202307290756 METAR KPWT 290756Z AUTO 00000KT 10SM CLR 12/11 A3007 RMK AO2 SLP185 T01220106 402670106=
202307290656 METAR KPWT 290656Z AUTO 00000KT 10SM CLR 13/12 A3006 RMK AO2 SLP183 T01330117=
202307290556 METAR KPWT 290556Z AUTO 00000KT 10SM CLR 14/12 A3006 RMK AO2 SLP182 6//// T01440122 10261 20144 51007=
202307290456 METAR KPWT 290456Z AUTO 21003KT 10SM CLR 18/13 A3006 RMK AO2 SLP182 T01780128=
202307290356 METAR KPWT 290356Z AUTO 00000KT 10SM CLR 18/13 A3004 RMK AO2 SLP178 T01830133=
202307290256 METAR KPWT 290256Z AUTO 07003KT 10SM CLR 22/14 A3004 RMK AO2 SLP174 6//// T02170139 53000=
202307290156 METAR KPWT 290156Z AUTO 22006KT 10SM CLR 23/13 A3003 RMK AO2 SLP171 T02330133=
202307290056 METAR KPWT 290056Z AUTO 00000KT 10SM FEW050 26/13 A3003 RMK AO2 SLP170 T02560128=
202307282356 METAR KPWT 282356Z AUTO 21007KT 10SM BKN050 26/13 A3004 RMK AO2 SLP172 T02610133 10267 20172 56010=
202307282256 METAR KPWT 282256Z AUTO 24005KT 10SM SCT048 25/13 A3004 RMK AO2 SLP175 T02500133=
202307282156 METAR KPWT 282156Z AUTO 21005KT 10SM CLR 25/14 A3005 RMK AO2 SLP179 T02500139=
202307282056 METAR KPWT 282056Z AUTO 21006KT 10SM CLR 24/13 A3006 RMK AO2 SLP182 T02390133 58010=
202307281956 METAR KPWT 281956Z AUTO VRB04KT 10SM CLR 22/14 A3008 RMK AO2 SLP187 T02170139=
202307281856 METAR KPWT 281856Z AUTO VRB05KT 10SM CLR 21/14 A3009 RMK AO2 SLP191 T02060144=
202307281817 SPECI KPWT 281817Z AUTO 22005KT 10SM SCT013 18/14 A3009 RMK AO2=
202307281808 SPECI KPWT 281808Z AUTO 22005KT 9SM BKN011 18/14 A3009 RMK AO2=
202307281756 METAR KPWT 281756Z AUTO 18004KT 10SM BKN009 17/14 A3010 RMK AO2 SLP194 6//// T01720139 10172 20122 50000=
202307281721 SPECI KPWT 281721Z AUTO VRB04KT 10SM OVC007 16/14 A3010 RMK AO2 CIG 005V010=
202307281656 METAR KPWT 281656Z AUTO 22005KT 10SM OVC005 14/14 A3010 RMK AO2 SLP197 T01440139=
202307281619 SPECI KPWT 281619Z AUTO VRB03KT 9SM OVC003 14/14 A3010 RMK AO2=
202307281556 METAR KPWT 281556Z AUTO 00000KT 5SM BR OVC001 13/13 A3010 RMK AO2 SLP196 T01330133=
202307281547 SPECI KPWT 281547Z AUTO 20004KT 2SM BR OVC001 13/13 A3010 RMK AO2 VIS 1V4=
202307281540 SPECI KPWT 281540Z AUTO 21005KT 1SM BR OVC001 14/14 A3010 RMK AO2 VIS 1/2V2 1/2=
202307281534 SPECI KPWT 281534Z AUTO 20003KT 1/2SM FG OVC001 14/14 A3010 RMK AO2=
202307281456 METAR KPWT 281456Z AUTO 18004KT M1/4SM FG OVC001 13/13 A3010 RMK AO2 SLP194 T01330133 53004=
202307281356 METAR KPWT 281356Z AUTO 25003KT M1/4SM FG OVC001 13/13 A3009 RMK AO2 SLP191 T01280128=
202307281256 METAR KPWT 281256Z AUTO 25003KT M1/4SM FG OVC001 12/12 A3008 RMK AO2 SLP189 T01220122=
202307281210 SPECI KPWT 281210Z AUTO 24004KT 1/4SM FG OVC001 13/13 A3008 RMK AO2=
202307281156 METAR KPWT 281156Z AUTO 24004KT 1/2SM FG OVC001 13/13 A3008 RMK AO2 SLP189 7//// T01280128 10161 20106 51003=
202307281146 SPECI KPWT 281146Z AUTO 24004KT 1/2SM FG OVC001 13/13 A3008 RMK AO2=
202307281123 SPECI KPWT 281123Z AUTO 26004KT 1/4SM FG OVC001 13/13 A3008 RMK AO2=
202307281106 SPECI KPWT 281106Z AUTO 00000KT 1/4SM FG OVC003 13/13 A3008 RMK AO2=
202307281058 SPECI KPWT 281058Z AUTO 24003KT 3/4SM BR BKN003 12/12 A3008 RMK AO2=
202307281056 METAR KPWT 281056Z AUTO 23004KT 1 1/4SM BR BKN003 12/12 A3008 RMK AO2 SLP187 T01220122=
202307281054 SPECI KPWT 281054Z AUTO 22004KT 1 3/4SM BR BKN003 12/12 A3008 RMK AO2=
202307281052 SPECI KPWT 281052Z AUTO 22004KT 3SM BR BKN003 12/12 A3008 RMK AO2=
202307281043 SPECI KPWT 281043Z AUTO 19004KT 3SM BR SCT003 12/12 A3008 RMK AO2=
202307281040 SPECI KPWT 281040Z AUTO 19003KT 1SM BR VV003 11/11 A3008 RMK AO2=
202307281038 SPECI KPWT 281038Z AUTO 19003KT 1/2SM FG VV003 11/11 A3008 RMK AO2=
202307281032 SPECI KPWT 281032Z AUTO 00000KT 1/4SM FG CLR 11/11 A3008 RMK AO2=
202307281027 SPECI KPWT 281027Z AUTO 00000KT 3/4SM BR CLR 12/12 A3008 RMK AO2 VIS 1/4V5=
202307281025 SPECI KPWT 281025Z AUTO 00000KT 1 3/4SM BR CLR 12/12 A3008 RMK AO2 VIS 1/2V5=
202307281005 SPECI KPWT 281005Z AUTO 00000KT 4SM BR CLR 12/12 A3007 RMK AO2=
202307281003 SPECI KPWT 281003Z AUTO 00000KT 1 1/2SM BR CLR 12/12 A3007 RMK AO2 VIS 1/2V5=
202307281001 SPECI KPWT 281001Z AUTO 00000KT 3/4SM BR CLR 12/12 A3007 RMK AO2=
202307280956 METAR KPWT 280956Z AUTO 00000KT 1/4SM FG CLR 11/11 A3007 RMK AO2 SLP186 T01110111=
202307280954 SPECI KPWT 280954Z AUTO 00000KT 1/4SM FG CLR 11/11 A3007 RMK AO2=
202307280946 SPECI KPWT 280946Z AUTO 00000KT 1/2SM FG CLR 12/12 A3007 RMK AO2=
202307280943 SPECI KPWT 280943Z AUTO 00000KT 1 1/4SM BR CLR 12/12 A3007 RMK AO2=
202307280856 METAR KPWT 280856Z AUTO 00000KT 10SM CLR 12/12 A3008 RMK AO2 SLP187 T01220117 53003=
202307280756 METAR KPWT 280756Z AUTO 00000KT 10SM CLR 12/12 A3008 RMK AO2 SLP187 T01220122 402500094=
202307280656 METAR KPWT 280656Z AUTO 19003KT 10SM CLR 14/13 A3007 RMK AO2 SLP183 T01390133=
202307280556 METAR KPWT 280556Z AUTO 00000KT 10SM CLR 16/14 A3007 RMK AO2 SLP184 6//// T01610139 10250 20150 50004=
202307280456 METAR KPWT 280456Z AUTO 00000KT 10SM CLR 17/13 A3007 RMK AO2 SLP185 T01720128=
202307280356 METAR KPWT 280356Z AUTO 00000KT 10SM CLR 19/12 A3006 RMK AO2 SLP182 T01890117=
202307280256 METAR KPWT 280256Z AUTO 06006KT 10SM BKN060 22/11 A3006 RMK AO2 SLP180 T02220111 53003=
202307280156 METAR KPWT 280156Z AUTO 06006KT 10SM OVC060 23/12 A3005 RMK AO2 SLP176 T02330122=
202307280056 METAR KPWT 280056Z AUTO 04007KT 10SM OVC060 24/13 A3005 RMK AO2 SLP177 T02440128=
202307272356 METAR KPWT 272356Z AUTO VRB03KT 10SM OVC065 24/12 A3005 RMK AO2 SLP178 T02440117 10250 20211 56005=
202307272256 METAR KPWT 272256Z AUTO 00000KT 10SM BKN060 24/12 A3005 RMK AO2 SLP179 T02390122=
202307272156 METAR KPWT 272156Z AUTO 00000KT 10SM OVC055 24/12 A3006 RMK AO2 SLP180 T02440117=
202307272056 METAR KPWT 272056Z AUTO 21005KT 10SM BKN055 24/12 A3007 RMK AO2 SLP182 T02390117 57006=
202307271956 METAR KPWT 271956Z AUTO 25005KT 10SM BKN050 24/12 A3007 RMK AO2 SLP184 T02440122=
202307271856 METAR KPWT 271856Z AUTO 00000KT 10SM BKN041 24/12 A3008 RMK AO2 SLP186 T02390122=
202307271756 METAR KPWT 271756Z AUTO 00000KT 10SM CLR 22/12 A3009 RMK AO2 SLP188 T02170122 10222 20094 50000=
202307271656 METAR KPWT 271656Z AUTO 27005KT 10SM CLR 21/12 A3009 RMK AO2 SLP190 T02060122=
202307271556 METAR KPWT 271556Z AUTO 23004KT 10SM CLR 19/12 A3009 RMK AO2 SLP191 T01890122=
202307271456 METAR KPWT 271456Z AUTO 00000KT 10SM FEW050 17/12 A3008 RMK AO2 SLP189 T01670122 51007=
202307271356 METAR KPWT 271356Z AUTO 00000KT 10SM FEW050 13/11 A3008 RMK AO2 SLP189 T01280111=
202307271256 METAR KPWT 271256Z AUTO 00000KT 10SM CLR 09/09 A3007 RMK AO2 SLP186 T00940094=
202307271156 METAR KPWT 271156Z AUTO 13003KT 10SM CLR 11/11 A3006 RMK AO2 SLP183 7//// T01110106 10178 20111 53001=
202307271056 METAR KPWT 271056Z AUTO 00000KT 10SM CLR 12/11 A3006 RMK AO2 SLP181 T01220106=
202307270956 METAR KPWT 270956Z AUTO 00000KT 10SM OVC060 15/12 A3006 RMK AO2 SLP180 T01500117=
202307270856 METAR KPWT 270856Z AUTO 00000KT 10SM OVC055 16/11 A3006 RMK AO2 SLP180 T01610111=
202307270756 METAR KPWT 270756Z AUTO 00000KT 10SM OVC060 17/11 RMK AO2 SLPNO T01670106 402440117 $=
202307270656 METAR KPWT 270656Z AUTO 02004KT 10SM BKN055 17/11 A3006 RMK AO2 SLP181 T01720106=
202307270556 METAR KPWT 270556Z AUTO 05010KT 10SM OVC050 18/11 A3006 RMK AO2 SLP180 6//// T01780106 10244 20178 58004=
202307270456 METAR KPWT 270456Z AUTO 04010KT 10SM FEW050 18/11 A3007 RMK AO2 SLP183 T01780111=
202307270356 METAR KPWT 270356Z AUTO 05007KT 10SM CLR 19/10 A3007 RMK AO2 SLP183 T01940100=
202307270256 METAR KPWT 270256Z AUTO 06009KT 10SM CLR 21/09 A3007 RMK AO2 SLP185 6//// T02060094 56012=
202307270156 METAR KPWT 270156Z AUTO 36009KT 10SM CLR 22/09 A3008 RMK AO2 SLP188 T02220089=
202307270056 METAR KPWT 270056Z AUTO 01010G15KT 10SM CLR 23/09 A3009 RMK AO2 SLP192 T02330094=
202307262356 METAR KPWT 262356Z AUTO 35009G17KT 10SM CLR 24/11 A3010 RMK AO2 SLP196 6//// T02440111 10244 20189 58015=
202307262256 METAR KPWT 262256Z AUTO 36010KT 10SM CLR 24/12 A3012 RMK AO2 SLP201 T02390117=
202307262156 METAR KPWT 262156Z AUTO 08008KT 10SM CLR 23/11 A3014 RMK AO2 SLP206 T02330111=
202307262056 METAR KPWT 262056Z AUTO 03008KT 10SM FEW041 23/12 A3015 RMK AO2 SLP211 T02330122 58011=
202307261956 METAR KPWT 261956Z AUTO 36009KT 340V050 10SM FEW035 22/12 A3016 RMK AO2 SLP215 T02220122=
202307261856 METAR KPWT 261856Z AUTO 05009KT 10SM CLR 20/12 A3018 RMK AO2 SLP222 T02000122=
202307261756 METAR KPWT 261756Z AUTO 02008KT 10SM CLR 21/13 A3018 RMK AO2 SLP223 T02060128 10206 20117=
202307261656 METAR KPWT 261656Z AUTO 01006KT 10SM FEW021 19/13 RMK AO2 SLPNO T01890128 $=
202307261556 METAR KPWT 261556Z AUTO 05007KT 10SM SCT016 17/13 A3019 RMK AO2 SLP228 T01670128=
202307261456 METAR KPWT 261456Z AUTO 03003KT 10SM CLR 15/13 A3020 RMK AO2 SLP229 T01500128 51002=
202307261356 METAR KPWT 261356Z AUTO 00000KT 10SM CLR 13/12 A3020 RMK AO2 SLP228 T01330122=
202307261256 METAR KPWT 261256Z AUTO 00000KT 10SM FEW017 SCT047 12/12 A3019 RMK AO2 SLP229 T01220117=
202307261234 SPECI KPWT 261234Z AUTO 00000KT 10SM SCT017 BKN047 12/12 A3019 RMK AO2=
202307261156 METAR KPWT 261156Z AUTO 06004KT 10SM BKN017 13/12 A3019 RMK AO2 SLP227 7//// T01280122 10144 20128 55001=
202307261147 SPECI KPWT 261147Z AUTO 05004KT 10SM BKN017 BKN043 13/12 A3019 RMK AO2=
202307261056 METAR KPWT 261056Z AUTO 03004KT 10SM SCT043 BKN060 13/12 A3019 RMK AO2 SLP226 T01280117=
202307260956 METAR KPWT 260956Z AUTO 04005KT 10SM BKN042 BKN050 14/12 A3019 RMK AO2 SLP227 T01390122=
202307260856 METAR KPWT 260856Z AUTO 04005KT 10SM SCT038 OVC055 14/12 A3019 RMK AO2 SLP228 T01440122 58001=
202307260756 METAR KPWT 260756Z AUTO 05003KT 10SM FEW039 OVC047 14/12 A3020 RMK AO2 SLP229 T01440117 402280117=
202307260656 METAR KPWT 260656Z AUTO 07004KT 10SM OVC037 14/12 A3020 RMK AO2 SLP229 T01440122=
202307260556 METAR KPWT 260556Z AUTO 08004KT 10SM BKN035 14/13 A3020 RMK AO2 SLP230 6//// T01390128 10228 20139 50004=
202307260456 METAR KPWT 260456Z AUTO 06006KT 10SM BKN035 15/13 A3020 RMK AO2 SLP231 T01500128=
202307260356 METAR KPWT 260356Z AUTO 05009KT 10SM CLR 17/11 A3019 RMK AO2 SLP227 T01670111=
202307260256 METAR KPWT 260256Z AUTO 04008KT 10SM CLR 18/12 A3018 RMK AO2 SLP225 6//// T01830122 53000=
202307260156 METAR KPWT 260156Z AUTO 04010KT 10SM CLR 19/13 A3018 RMK AO2 SLP224 T01940128=
202307260056 METAR KPWT 260056Z AUTO 04010KT 10SM FEW046 20/14 A3018 RMK AO2 SLP223 T02000139=
202307252356 METAR KPWT 252356Z AUTO 22011KT 10SM CLR 23/11 A3018 RMK AO2 SLP224 6//// T02280111 10228 20167 55004=
202307252256 METAR KPWT 252256Z AUTO 23014G20KT 10SM CLR 22/12 A3018 RMK AO2 SLP223 T02170117=
202307252156 METAR KPWT 252156Z AUTO 23017G23KT 10SM CLR 22/12 A3019 RMK AO2 SLP224 T02170117=
202307252056 METAR KPWT 252056Z AUTO 23015G23KT 10SM CLR 21/12 A3020 RMK AO2 SLP228 6//// T02110122 51002=
202307251956 METAR KPWT 251956Z AUTO 21014KT 10SM CLR 19/12 A3019 RMK AO2 SLP227 T01940122=
202307251856 METAR KPWT 251856Z AUTO 23012KT 10SM CLR 19/13 A3020 RMK AO2 SLP229 T01890128=
202307251756 METAR KPWT 251756Z AUTO 21010KT 10SM CLR 17/14 A3019 RMK AO2 SLP227 T01670139 10167 20117 53002=
202307251703 SPECI KPWT 251703Z AUTO 21011KT 10SM SCT008 16/14 A3019 RMK AO2=
202307251656 METAR KPWT 251656Z AUTO 22009KT 10SM BKN008 16/14 A3019 RMK AO2 CIG 006V012 SLP226 T01560144=
202307251556 METAR KPWT 251556Z AUTO 21011KT 10SM OVC008 14/14 A3019 RMK AO2 CIG 005V012 SLP224 T01440144=
202307251456 METAR KPWT 251456Z AUTO 22006KT 10SM BKN006 OVC009 13/13 A3018 RMK AO2 CIG 004V008 SLP224 T01330133 51010=
202307251441 SPECI KPWT 251441Z AUTO 21005KT 10SM OVC006 13/13 A3018 RMK AO2 CIG 004V010=
202307251427 SPECI KPWT 251427Z AUTO 21006KT 10SM OVC004 13/13 A3018 RMK AO2 CIG 003V007=
202307251356 METAR KPWT 251356Z AUTO 24005KT 10SM OVC002 13/13 A3017 RMK AO2 SLP220 T01280128=
202307251256 METAR KPWT 251256Z AUTO 28004KT 10SM OVC002 13/13 A3017 RMK AO2 SLP218 T01280128=
202307251230 SPECI KPWT 251230Z AUTO 23003KT 3SM BR OVC002 13/13 A3016 RMK AO2=
202307251226 SPECI KPWT 251226Z AUTO 25004KT 1 3/4SM BR OVC002 12/12 A3016 RMK AO2 VIS 1 1/4V4=
202307251213 SPECI KPWT 251213Z AUTO 00000KT 7SM BKN002 12/12 A3015 RMK AO2=
202307251206 SPECI KPWT 251206Z AUTO 22003KT 8SM BKN004 12/12 A3015 RMK AO2 CIG 002V006=
202307251156 METAR KPWT 251156Z AUTO 21003KT 9SM SCT004 12/12 A3015 RMK AO2 SLP213 70024 T01170117 10139 20117 51003=
202307251128 SPECI KPWT 251128Z AUTO 23004KT 10SM BKN004 BKN008 13/13 A3015 RMK AO2=
202307251120 SPECI KPWT 251120Z AUTO 00000KT 10SM SCT004 BKN008 13/13 A3015 RMK AO2=
202307251056 METAR KPWT 251056Z AUTO 00000KT 10SM SCT005 12/12 A3015 RMK AO2 SLP213 T01220122=
202307251053 SPECI KPWT 251053Z AUTO 00000KT 10SM SCT005 12/12 A3015 RMK AO2=
202307251037 SPECI KPWT 251037Z AUTO 20003KT 10SM BKN005 12/12 A3015 RMK AO2=
202307251015 SPECI KPWT 251015Z AUTO 16003KT 10SM SCT005 BKN019 BKN035 13/13 A3014 RMK AO2=
202307250956 METAR KPWT 250956Z AUTO 00000KT 10SM FEW005 BKN034 13/13 A3014 RMK AO2 SLP210 T01280128=
202307250940 SPECI KPWT 250940Z AUTO 19003KT 10SM SCT005 SCT024 BKN031 13/13 A3014 RMK AO2=
202307250922 SPECI KPWT 250922Z AUTO 22003KT 10SM SCT005 BKN019 BKN024 13/13 A3014 RMK AO2=
202307250909 SPECI KPWT 250909Z AUTO 00000KT 10SM BKN005 BKN019 13/13 A3014 RMK AO2=
202307250904 SPECI KPWT 250904Z AUTO 00000KT 10SM SCT007 BKN019 12/12 A3014 RMK AO2=
202307250856 METAR KPWT 250856Z AUTO 21004KT 10SM BKN007 BKN019 12/12 A3013 RMK AO2 SLP206 T01220122 51016=
202307250803 SPECI KPWT 250803Z AUTO 00000KT 10SM BKN007 13/13 A3012 RMK AO2=
202307250756 METAR KPWT 250756Z AUTO 00000KT 10SM SCT007 12/12 A3012 RMK AO2 SLP201 T01220122 401780106=
202307250735 SPECI KPWT 250735Z AUTO 00000KT 10SM FEW007 12/12 A3011 RMK AO2=
202307250712 SPECI KPWT 250712Z AUTO 00000KT 10SM BKN007 13/13 A3011 RMK AO2=
202307250703 SPECI KPWT 250703Z AUTO 00000KT 10SM SCT007 13/13 A3010 RMK AO2=
202307250656 METAR KPWT 250656Z AUTO 00000KT 10SM CLR 13/13 A3010 RMK AO2 SLP196 T01280128=
202307250639 SPECI KPWT 250639Z AUTO 00000KT 9SM SCT005 13/13 A3010 RMK AO2=
202307250615 SPECI KPWT 250615Z AUTO 00000KT 10SM BKN005 14/14 A3009 RMK AO2=
202307250606 SPECI KPWT 250606Z AUTO 24003KT 10SM SCT005 14/14 A3009 RMK AO2=
202307250556 METAR KPWT 250556Z AUTO 21004KT 10SM CLR 14/14 A3009 RMK AO2 SLP190 60012 T01390139 10178 20139 53017=
202307250456 METAR KPWT 250456Z AUTO 20008KT 10SM SCT005 15/15 A3006 RMK AO2 SLP183 T01500150=
202307250415 SPECI KPWT 250415Z AUTO 20009KT 10SM FEW007 15/15 A3004 RMK AO2=
202307250356 METAR KPWT 250356Z AUTO 21013KT 10SM CLR 16/16 A3004 RMK AO2 RAB08E48 SLP174 P0001 T01560156=
202307250317 SPECI KPWT 250317Z AUTO 20014G18KT 10SM -RA FEW011 BKN050 BKN060 16/16 A3003 RMK AO2 RAB08 P0000=
202307250256 METAR KPWT 250256Z AUTO 20013G18KT 10SM BKN006 OVC011 17/17 A3003 RMK AO2 RAE55 CIG 004V009 SLP174 P0001 60011 T01670167 51005=
202307250223 SPECI KPWT 250223Z AUTO 21007KT 7SM -RA BKN008 BKN020 OVC025 17/17 A3003 RMK AO2 CIG 006V013 P0001=
202307250209 SPECI KPWT 250209Z AUTO 21009KT 9SM -RA FEW012 BKN021 OVC035 17/17 A3003 RMK AO2 P0001=
202307250156 METAR KPWT 250156Z AUTO 21010KT 10SM -RA FEW008 SCT012 OVC037 17/17 A3003 RMK AO2 SLP173 P0007 T01670167=
202307250149 SPECI KPWT 250149Z AUTO 21011KT 10SM -RA FEW008 BKN018 OVC037 17/17 A3003 RMK AO2 P0007=
202307250104 SPECI KPWT 250104Z AUTO 20010KT 6SM -RA BR BKN006 BKN029 OVC049 17/17 A3003 RMK AO2 CIG 004V013 P0001=
202307250056 METAR KPWT 250056Z AUTO 20010KT 8SM RA SCT006 BKN030 OVC050 17/17 A3003 RMK AO2 SLP172 P0003 T01670167=
202307250053 SPECI KPWT 250053Z AUTO 19009KT 10SM -RA SCT006 BKN030 OVC048 17/17 A3003 RMK AO2 P0002=
202307250013 SPECI KPWT 250013Z AUTO 22011KT 3SM RA BR BKN008 OVC021 17/17 A3002 RMK AO2 CIG 005V011 P0001=
202307242356 METAR KPWT 242356Z AUTO 23009KT 9SM -RA FEW008 BKN011 OVC021 18/17 A3002 RMK AO2 RAE10B28 SLP169 P0000 60003 T01780172 10178 20144 57009=
202307242342 SPECI KPWT 242342Z AUTO 22009KT 10SM -RA BKN008 OVC021 17/17 A3002 RMK AO2 RAE10B28 CIG 006V012 P0000=
202307242306 SPECI KPWT 242306Z AUTO 21007KT 7SM -RA FEW008 OVC019 17/17 A3002 RMK AO2 P0000=
202307242256 METAR KPWT 242256Z AUTO 22006KT 7SM -RA OVC021 17/17 A3003 RMK AO2 RAE05B47 SLP171 P0000 T01670167=
202307242156 METAR KPWT 242156Z AUTO 20008KT 10SM -RA FEW011 SCT016 OVC023 17/16 A3004 RMK AO2 RAE30B53 SLP174 P0000 T01670156=
202307242136 SPECI KPWT 242136Z AUTO 18009KT 10SM SCT006 OVC023 16/15 A3004 RMK AO2 RAE30 P0000=
202307242056 METAR KPWT 242056Z AUTO 20010KT 6SM -RA BR BKN006 BKN010 OVC020 15/15 A3005 RMK AO2 CIG 004V009 SLP177 P0003 60003 T01500150 53002=
202307242011 SPECI KPWT 242011Z AUTO 20009KT 4SM -RA BR BKN006 BKN011 OVC018 15/15 A3005 RMK AO2 CIG 004V008 P0001=
202307241952 METAR KPWT 241952Z AUTO 21009KT 6SM -RA BR SCT008 BKN012 OVC019 15/14 A3005 RMK AO2 RAB01 SLP178 P0000 T01500144=
202307241951 SPECI KPWT 241951Z AUTO 20009KT 6SM -RA BR SCT008 BKN012 OVC019 15/14 A3005 RMK AO2 RAB01 P0000=
202307241856 METAR KPWT 241856Z AUTO 21009KT 10SM OVC019 16/14 A3004 RMK AO2 RAB23E44 SLP175 P0000 T01610144=
202307241756 METAR KPWT 241756Z AUTO 21007KT 10SM OVC017 15/14 A3004 RMK AO2 RAE07 SLP176 P0000 60009 T01500144 10150 20139=
202307241740 SPECI KPWT 241740Z AUTO 19008KT 10SM SCT006 OVC015 14/14 A3004 RMK AO2 RAE07 P0000=
202307241656 METAR KPWT 241656Z AUTO 19006KT 9SM -RA OVC006 14/14 A3003 RMK AO2 CIG 004V008 SLP171 P0009 T01390139=
202307241616 SPECI KPWT 241616Z AUTO 21010KT 4SM RA BR BKN008 BKN015 OVC043 14/14 A3003 RMK AO2 CIG 006V012 P0004=
202307241601 SPECI KPWT 241601Z AUTO 21009KT 10SM -RA FEW008 SCT012 BKN045 14/14 A3003 RMK AO2 P0000=
202307241556 METAR KPWT 241556Z AUTO 20011KT 10SM -RA BKN010 BKN045 14/14 A3002 RMK AO2 CIG 007V014 SLP170 P0000 T01440144=
202307241456 METAR KPWT 241456Z AUTO 20008KT 10SM -RA OVC010 14/14 RMK AO2 RAB21 SLPNO P0000 60000 T01440139 $=
202307241356 METAR KPWT 241356Z AUTO 20009KT 10SM OVC010 14/13 A3000 RMK AO2 SLP159 T01440133=
202307241256 METAR KPWT 241256Z AUTO 21006KT 10SM OVC010 14/13 A2999 RMK AO2 SLP157 T01440133=
202307241156 METAR KPWT 241156Z AUTO 20007KT 10SM OVC010 14/13 A2998 RMK AO2 SLP153 6//// 7//// T01390133 10167 20106 51001=
202307241056 METAR KPWT 241056Z AUTO 22004KT 10SM BKN012 12/11 A2998 RMK AO2 SLP152 T01170111=
202307240956 METAR KPWT 240956Z AUTO 19003KT 10SM CLR 12/11 A2998 RMK AO2 SLP153 T01170106=
202307240856 METAR KPWT 240856Z AUTO 19003KT 10SM CLR 13/11 A2997 RMK AO2 SLP151 6//// T01280111 50003=
202307240756 METAR KPWT 240756Z AUTO VRB03KT 10SM CLR 14/12 A2998 RMK AO2 SLP152 T01440117 402890094=
202307240656 METAR KPWT 240656Z AUTO 18004KT 10SM CLR 16/12 A2997 RMK AO2 SLP151 T01560117=
202307240556 METAR KPWT 240556Z AUTO 19003KT 10SM CLR 17/12 A2997 RMK AO2 SLP149 6//// T01670117 10289 20167 53016=
202307240456 METAR KPWT 240456Z AUTO 00000KT 10SM CLR 18/11 A2995 RMK AO2 SLP142 T01830106=
202307240356 METAR KPWT 240356Z AUTO 20005KT 10SM CLR 20/10 A2993 RMK AO2 SLP137 T02000100=
202307240256 METAR KPWT 240256Z AUTO 21008KT 10SM CLR 23/11 A2992 RMK AO2 SLP132 T02330111 53001=
202307240156 METAR KPWT 240156Z AUTO 24013KT 10SM CLR 26/11 A2991 RMK AO2 SLP129 T02610106=
202307240056 METAR KPWT 240056Z AUTO 22011G15KT 10SM CLR 28/11 A2991 RMK AO2 SLP129 T02780111=
202307232356 METAR KPWT 232356Z AUTO 22009KT 10SM CLR 28/09 A2992 RMK AO2 SLP132 T02830089 10289 20222 56016=
202307232256 METAR KPWT 232256Z AUTO 17007KT 150V220 10SM CLR 28/09 A2993 RMK AO2 SLP136 T02830089=
202307232156 METAR KPWT 232156Z AUTO 25009KT 10SM CLR 27/11 A2995 RMK AO2 SLP143 T02720106=
202307232056 METAR KPWT 232056Z AUTO 29008KT 10SM CLR 27/12 A2996 RMK AO2 SLP148 T02670117 58013=
202307231956 METAR KPWT 231956Z AUTO 20008KT 10SM CLR 26/14 A2998 RMK AO2 SLP153 T02610139=
202307231856 METAR KPWT 231856Z AUTO 20006KT 10SM CLR 24/14 A2999 RMK AO2 SLP156 T02390139=
202307231756 METAR KPWT 231756Z AUTO 00000KT 10SM CLR 22/13 A3000 RMK AO2 SLP160 6//// T02220133 10222 20094 58009=
202307231656 METAR KPWT 231656Z AUTO 30004KT 10SM CLR 22/13 A3002 RMK AO2 SLP165 T02170133=
202307231556 METAR KPWT 231556Z AUTO VRB03KT 10SM SCT047 19/13 A3003 RMK AO2 SLP171 T01890128=
202307231456 METAR KPWT 231456Z AUTO 00000KT 10SM SCT047 17/12 A3003 RMK AO2 SLP170 6//// T01670122 52005=
202307231356 METAR KPWT 231356Z AUTO 00000KT 10SM CLR 13/12 A3003 RMK AO2 SLP170 T01280117=
202307231256 METAR KPWT 231256Z AUTO 14003KT 10SM CLR 11/10 A3002 RMK AO2 SLP166 T01060100=
202307231156 METAR KPWT 231156Z AUTO 00000KT 10SM CLR 11/10 A3002 RMK AO2 SLP166 T01060100 10172 20100 56003=
202307231056 METAR KPWT 231056Z AUTO 00000KT 10SM CLR 11/09 A3002 RMK AO2 SLP167 T01060094=
202307230956 METAR KPWT 230956Z AUTO 00000KT 10SM CLR 11/11 A3002 RMK AO2 SLP167 T01110106=
202307230856 METAR KPWT 230856Z AUTO 00000KT 10SM CLR 12/12 A3003 RMK AO2 SLP169 T01220117 50001=
202307230756 METAR KPWT 230756Z AUTO 00000KT 10SM CLR 12/11 A3003 RMK AO2 SLP170 T01220111 402720111=
202307230656 METAR KPWT 230656Z AUTO 00000KT 10SM CLR 16/13 A3002 RMK AO2 SLP168 T01560128=
202307230556 METAR KPWT 230556Z AUTO 07005KT 10SM CLR 17/13 A3002 RMK AO2 SLP168 T01720133 10261 20172 50000=
202307230456 METAR KPWT 230456Z AUTO 05008KT 10SM CLR 19/13 A3003 RMK AO2 SLP169 T01890133=
202307230356 METAR KPWT 230356Z AUTO 05011KT 10SM CLR 20/14 A3002 RMK AO2 SLP168 T02000139=
202307230256 METAR KPWT 230256Z AUTO 03008KT 10SM CLR 23/15 A3002 RMK AO2 SLP167 T02330150 56007=
202307230156 METAR KPWT 230156Z AUTO 06008KT 10SM FEW075 24/15 A3002 RMK AO2 SLP169 T02440150=
202307230056 METAR KPWT 230056Z AUTO 07010KT 10SM FEW055 26/15 A3003 RMK AO2 SLP169 T02560150=
202307222356 METAR KPWT 222356Z AUTO 04005KT 10SM FEW055 26/15 A3004 RMK AO2 SLP174 T02560150 10272 20206 57011=
202307222256 METAR KPWT 222256Z AUTO 06007KT 10SM FEW055 25/15 A3005 RMK AO2 SLP178 T02500150=
202307222156 METAR KPWT 222156Z AUTO 06007KT 10SM SCT050 25/16 A3007 RMK AO2 SLP183 T02500156=
202307222056 METAR KPWT 222056Z AUTO 00000KT 10SM BKN044 25/14 A3008 RMK AO2 SLP186 T02500144 58007=
202307221956 METAR KPWT 221956Z AUTO 18010G14KT 10SM CLR 26/15 A3009 RMK AO2 SLP188 T02560150=
202307221856 METAR KPWT 221856Z AUTO VRB05KT 9SM CLR 23/14 A3009 RMK AO2 SLP192 T02280144=
202307221756 METAR KPWT 221756Z AUTO VRB06KT 9SM CLR 21/15 A3010 RMK AO2 SLP193 T02060150 10206 20139 57006=
202307221717 SPECI KPWT 221717Z AUTO 19005KT 10SM SCT010 19/14 A3010 RMK AO2=
202307221656 METAR KPWT 221656Z AUTO 21006KT 10SM OVC010 17/14 A3010 RMK AO2 SLP197 T01720144=
202307221651 SPECI KPWT 221651Z AUTO 21008KT 10SM OVC010 17/14 A3011 RMK AO2=
202307221556 METAR KPWT 221556Z AUTO 21007KT 10SM OVC006 15/14 A3011 RMK AO2 SLP199 T01500139=
202307221554 SPECI KPWT 221554Z AUTO 21007KT 10SM OVC006 15/14 A3011 RMK AO2=
202307221513 SPECI KPWT 221513Z AUTO 21008KT 10SM OVC004 14/14 A3011 RMK AO2=
202307221456 METAR KPWT 221456Z AUTO 21005KT 8SM OVC002 14/14 A3011 RMK AO2 SLP197 T01390139 52007=
202307221426 SPECI KPWT 221426Z AUTO 20006KT 3SM BR OVC002 14/14 A3010 RMK AO2=
202307221356 METAR KPWT 221356Z AUTO 19004KT 1 3/4SM BR OVC002 14/14 A3010 RMK AO2 VIS 1V2 1/2 SLP194 T01390139=
202307221351 SPECI KPWT 221351Z AUTO 20004KT 2SM BR OVC002 14/14 A3010 RMK AO2 VIS 1 1/2V3=
202307221311 SPECI KPWT 221311Z AUTO 20005KT 1 3/4SM BR OVC002 14/14 A3009 RMK AO2=
202307221256 METAR KPWT 221256Z AUTO 20005KT 4SM BR OVC002 14/14 A3009 RMK AO2 SLP190 T01390139=
202307221243 SPECI KPWT 221243Z AUTO 20005KT 3SM BR OVC002 14/14 A3009 RMK AO2=
202307221218 SPECI KPWT 221218Z AUTO 21003KT 2SM BR OVC002 14/14 A3008 RMK AO2 VIS 1 1/2V2 1/2=
202307221156 METAR KPWT 221156Z AUTO 19003KT 7SM OVC002 14/14 A3008 RMK AO2 SLP187 T01390139 10161 20111 53003=
202307221142 SPECI KPWT 221142Z AUTO 20004KT 7SM OVC002 14/14 A3008 RMK AO2=
202307221115 SPECI KPWT 221115Z AUTO 19003KT 10SM OVC004 14/14 A3008 RMK AO2=
202307221056 METAR KPWT 221056Z AUTO 00000KT 10SM OVC002 14/14 A3008 RMK AO2 SLP185 T01390139=
202307221005 SPECI KPWT 221005Z AUTO 19003KT 10SM BKN002 13/13 A3008 RMK AO2=
202307220956 METAR KPWT 220956Z AUTO 00000KT 10SM BKN004 12/12 A3007 RMK AO2 SLP185 T01170117=
202307220952 SPECI KPWT 220952Z AUTO 00000KT 10SM SCT004 12/11 A3007 RMK AO2=
202307220856 METAR KPWT 220856Z AUTO 00000KT 10SM CLR 12/12 A3007 RMK AO2 SLP184 T01220117 51005=
202307220756 METAR KPWT 220756Z AUTO 18003KT 7SM CLR 15/13 A3007 RMK AO2 SLP184 T01500133 402720133=
202307220656 METAR KPWT 220656Z AUTO 00000KT 10SM CLR 16/13 A3006 RMK AO2 SLP183 T01560128=
202307220556 METAR KPWT 220556Z AUTO 00000KT 10SM CLR 16/13 A3006 RMK AO2 SLP181 T01610128 10272 20156 50001=
202307220456 METAR KPWT 220456Z AUTO 00000KT 10SM CLR 18/13 A3006 RMK AO2 SLP181 T01830133=
202307220356 METAR KPWT 220356Z AUTO 07003KT 10SM CLR 22/13 A3005 RMK AO2 SLP180 T02170133=
202307220256 METAR KPWT 220256Z AUTO 08005KT 10SM CLR 24/14 A3005 RMK AO2 SLP178 T02440139 56006=
202307220156 METAR KPWT 220156Z AUTO 05008KT 10SM CLR 26/14 A3005 RMK AO2 SLP179 T02560144=
202307220056 METAR KPWT 220056Z AUTO 07007KT 10SM CLR 26/14 A3006 RMK AO2 SLP178 T02610139=
202307212356 METAR KPWT 212356Z AUTO 03007KT 10SM CLR 26/14 A3007 RMK AO2 SLP183 T02610139 10272 20156 56019=
202307212256 METAR KPWT 212256Z AUTO VRB05KT 10SM CLR 26/14 A3009 RMK AO2 SLP189 T02610139=
202307212156 METAR KPWT 212156Z AUTO 36005KT 10SM CLR 26/15 A3011 RMK AO2 SLP196 T02610150=
202307212056 METAR KPWT 212056Z AUTO VRB04KT 10SM CLR 25/14 A3013 RMK AO2 SLP203 T02500144 58012=
202307211956 METAR KPWT 211956Z AUTO 24004KT 10SM CLR 22/14 A3014 RMK AO2 SLP209 T02170144=
202307211923 SPECI KPWT 211923Z AUTO VRB03KT 7SM SCT018 20/14 A3015 RMK AO2=
202307211856 METAR KPWT 211856Z AUTO VRB04KT 10SM OVC016 19/14 A3016 RMK AO2 SLP215 T01890139=
202307211810 SPECI KPWT 211810Z AUTO VRB03KT 10SM OVC010 17/14 A3016 RMK AO2=
202307211756 METAR KPWT 211756Z AUTO 23003KT 10SM OVC008 16/14 A3016 RMK AO2 SLP218 60000 T01610139 10161 20133 58004=
202307211656 METAR KPWT 211656Z AUTO 20005KT 7SM OVC006 14/14 A3017 RMK AO2 CIG 004V009 SLP221 T01440139=
202307211635 SPECI KPWT 211635Z AUTO 20004KT 4SM BR OVC008 14/14 A3017 RMK AO2 CIG 004V009=
202307211627 SPECI KPWT 211627Z AUTO 20005KT 4SM BR BKN004 OVC008 14/14 A3018 RMK AO2 CIG 003V008=
202307211619 SPECI KPWT 211619Z AUTO 21006KT 2 1/2SM BR OVC004 14/14 A3018 RMK AO2 VIS 1 3/4V4=
202307211556 METAR KPWT 211556Z AUTO 4SM BR BKN004 OVC010 14/14 A3017 RMK AO2 SLP221 T01390139=
202307211548 SPECI KPWT 211548Z AUTO 19003KT 5SM BR BKN004 OVC010 14/14 A3017 RMK AO2=
202307211532 SPECI KPWT 211532Z AUTO 21005KT 10SM OVC008 14/14 A3017 RMK AO2 CIG 006V011=
202307211508 SPECI KPWT 211508Z AUTO 20003KT 8SM BKN005 OVC009 14/14 A3018 RMK AO2 CIG 004V007=
202307211456 METAR KPWT 211456Z AUTO 21005KT 9SM SCT005 OVC009 14/14 A3017 RMK AO2 RAE14 SLP219 P0000 60000 T01390139 52003=
202307211454 SPECI KPWT 211454Z AUTO 21004KT 8SM OVC009 14/14 A3017 RMK AO2 RAE14 CIG 003V012 P0000=
202307211411 SPECI KPWT 211411Z AUTO 18005KT 5SM -RA BR OVC004 13/13 A3017 RMK AO2 CIG 003V006 P0000=
202307211356 METAR KPWT 211356Z AUTO 18003KT 2 1/2SM -RA BR OVC004 13/13 A3017 RMK AO2 SLP216 P0000 T01330133=
202307211351 SPECI KPWT 211351Z AUTO 20003KT 2 1/2SM BR OVC004 13/13 A3017 RMK AO2 RAE43 P0000=
202307211315 SPECI KPWT 211315Z AUTO 00000KT 3SM -RA BR OVC004 13/13 A3016 RMK AO2 P0000=
202307211256 METAR KPWT 211256Z AUTO 20005KT 2 1/2SM -RA BR OVC004 13/13 A3016 RMK AO2 RAB31 SLP213 P0000 T01330133=
202307211252 SPECI KPWT 211252Z AUTO 19003KT 3SM -RA BR OVC004 13/13 A3015 RMK AO2 RAB31 P0000=
202307211231 SPECI KPWT 211231Z AUTO 19003KT 2SM -RA BR OVC004 14/14 A3015 RMK AO2 VIS 1 1/4V3 RAB31 P0000=
202307211156 METAR KPWT 211156Z AUTO 18003KT 5SM BR OVC004 14/14 A3014 RMK AO2 SLP209 7//// T01390139 10150 20139 53004=
202307211056 METAR KPWT 211056Z AUTO 18004KT 10SM OVC004 14/14 A3013 RMK AO2 SLP206 T01390139=
202307211039 SPECI KPWT 211039Z AUTO 18003KT 10SM OVC004 14/14 A3013 RMK AO2=
202307210956 METAR KPWT 210956Z AUTO 21006KT 10SM OVC006 14/14 A3013 RMK AO2 SLP205 T01440139=
202307210856 METAR KPWT 210856Z AUTO 22008KT 10SM OVC006 14/14 A3013 RMK AO2 SLP204 T01440139 53007=
202307210756 METAR KPWT 210756Z AUTO 21003KT 10SM OVC008 14/14 A3012 RMK AO2 SLP200 T01440139 402830117=
202307210718 SPECI KPWT 210718Z AUTO 20004KT 10SM BKN008 14/14 A3012 RMK AO2=
202307210706 SPECI KPWT 210706Z AUTO 19003KT 10SM SCT008 14/13 A3012 RMK AO2=
202307210656 METAR KPWT 210656Z AUTO 20004KT 10SM CLR 14/13 A3012 RMK AO2 SLP201 T01390133=
202307210556 METAR KPWT 210556Z AUTO 21005KT 10SM CLR 15/14 A3011 RMK AO2 SLP198 6//// T01500139 10283 20150 51015=
202307210456 METAR KPWT 210456Z AUTO 22006KT 10SM CLR 17/14 A3010 RMK AO2 SLP197 T01670144=
202307210356 METAR KPWT 210356Z AUTO 21007KT 10SM CLR 20/15 A3008 RMK AO2 SLP187 T02000150=
202307210256 METAR KPWT 210256Z AUTO 20008KT 10SM CLR 23/16 A3007 RMK AO2 SLP184 T02330156 53000=
202307210156 METAR KPWT 210156Z AUTO VRB05KT 10SM CLR 26/16 A3006 RMK AO2 SLP181 T02610156=
202307210056 METAR KPWT 210056Z AUTO 21007KT 10SM CLR 27/15 A3006 RMK AO2 SLP181 T02720150=
202307202356 METAR KPWT 202356Z AUTO 20007KT 10SM CLR 28/15 A3007 RMK AO2 SLP182 T02780150 10283 20206 56007=
202307202256 METAR KPWT 202256Z AUTO 19010KT 10SM CLR 28/16 A3007 RMK AO2 SLP186 T02830156=
202307202156 METAR KPWT 202156Z AUTO 19008KT 10SM CLR 28/16 A3008 RMK AO2 SLP187 T02780156=
202307202056 METAR KPWT 202056Z AUTO 23006KT 10SM CLR 26/16 A3009 RMK AO2 SLP190 T02610156 58009=
202307201956 METAR KPWT 201956Z AUTO 27007KT 10SM CLR 25/15 A3010 RMK AO2 SLP192 T02500150=
202307201856 METAR KPWT 201856Z AUTO 23008KT 10SM CLR 23/15 A3011 RMK AO2 SLP198 T02280150=
202307201756 METAR KPWT 201756Z AUTO 22004KT 10SM CLR 21/14 A3012 RMK AO2 SLP199 T02110144 10211 20117 58003=
202307201656 METAR KPWT 201656Z AUTO 23006KT 10SM CLR 18/14 A3012 RMK AO2 SLP201 T01830139=
202307201556 METAR KPWT 201556Z AUTO 22007KT 10SM FEW007 16/13 A3013 RMK AO2 SLP202 T01610133=
202307201554 SPECI KPWT 201554Z AUTO 24007KT 10SM SCT007 16/13 A3013 RMK AO2=
202307201547 SPECI KPWT 201547Z AUTO 23008KT 10SM BKN007 16/13 A3013 RMK AO2=
202307201456 METAR KPWT 201456Z AUTO 25007KT 10SM OVC005 14/13 A3012 RMK AO2 SLP202 T01440133 53012=
202307201356 METAR KPWT 201356Z AUTO 22007KT 10SM OVC003 14/13 A3011 RMK AO2 SLP198 T01390133=
202307201338 SPECI KPWT 201338Z AUTO 23007KT 10SM BKN003 13/13 A3011 RMK AO2=
202307201329 SPECI KPWT 201329Z AUTO 21005KT 10SM SCT003 13/13 A3010 RMK AO2=
202307201256 METAR KPWT 201256Z AUTO 22005KT 10SM CLR 12/12 A3010 RMK AO2 SLP194 T01220122=
202307201156 METAR KPWT 201156Z AUTO 22005KT 10SM CLR 12/12 A3009 RMK AO2 SLP189 7//// T01220122 10189 20122 53010=
202307201056 METAR KPWT 201056Z AUTO 21003KT 10SM CLR 13/12 A3007 RMK AO2 SLP184 T01330122=
202307200956 METAR KPWT 200956Z AUTO 00000KT 10SM CLR 14/12 A3006 RMK AO2 SLP180 T01390117=
202307200856 METAR KPWT 200856Z AUTO 00000KT 10SM CLR 14/12 A3006 RMK AO2 SLP180 T01440122 51005=
202307200756 METAR KPWT 200756Z AUTO 13003KT 10SM CLR 16/12 A3006 RMK AO2 SLP180 T01610122 403170089=
202307200656 METAR KPWT 200656Z AUTO 12003KT 10SM CLR 17/13 A3005 RMK AO2 SLP177 T01670128=
202307200556 METAR KPWT 200556Z AUTO 00000KT 10SM CLR 19/13 A3004 RMK AO2 SLP175 6//// T01890128 10317 20189=
202307200456 METAR KPWT 200456Z AUTO 00000KT 10SM CLR 20/12 RMK AO2 SLPNO T02000117 $=
202307200356 METAR KPWT 200356Z AUTO 05003KT 10SM CLR 25/12 A3003 RMK AO2 SLP169 T02500117=
202307200256 METAR KPWT 200256Z AUTO 06009KT 10SM CLR 28/11 A3002 RMK AO2 SLP166 T02780111 55003=
202307200156 METAR KPWT 200156Z AUTO 06009KT 10SM CLR 29/12 A3001 RMK AO2 SLP165 T02890117=
202307200056 METAR KPWT 200056Z AUTO 06008KT 10SM CLR 31/12 A3002 RMK AO2 SLP167 T03110117=
202307192356 METAR KPWT 192356Z AUTO 07009KT 10SM CLR 32/12 A3003 RMK AO2 SLP170 T03170122 10317 20233 56014=
202307192256 METAR KPWT 192256Z AUTO 07006KT 10SM CLR 31/12 A3004 RMK AO2 SLP174 T03060122=
202307192156 METAR KPWT 192156Z AUTO 08008KT 10SM CLR 31/13 A3006 RMK AO2 SLP179 T03060133=
202307192056 METAR KPWT 192056Z AUTO 04010KT 020V080 10SM CLR 29/13 A3007 RMK AO2 SLP185 T02890133 58018=
202307191956 METAR KPWT 191956Z AUTO 05007KT 010V080 10SM CLR 27/13 A3009 RMK AO2 SLP192 T02720128=
202307191856 METAR KPWT 191856Z AUTO VRB04KT 10SM CLR 26/13 A3011 RMK AO2 SLP199 T02610128=
202307191756 METAR KPWT 191756Z AUTO VRB05KT 10SM CLR 24/13 A3013 RMK AO2 SLP203 6//// T02390128 10239 20089 58004=
202307191656 METAR KPWT 191656Z AUTO 00000KT 8SM CLR 23/12 A3014 RMK AO2 SLP207 T02280122=
202307191556 METAR KPWT 191556Z AUTO VRB03KT 10SM CLR 21/12 A3014 RMK AO2 SLP209 T02060122=
202307191456 METAR KPWT 191456Z AUTO 06003KT 10SM CLR 18/12 A3014 RMK AO2 SLP208 6//// T01780117 51006=
202307191356 METAR KPWT 191356Z AUTO 00000KT 10SM CLR 14/12 A3014 RMK AO2 SLP206 T01390117=
202307191256 METAR KPWT 191256Z AUTO 00000KT 10SM CLR 11/10 A3013 RMK AO2 SLP204 T01060100=
202307191156 METAR KPWT 191156Z AUTO 00000KT 10SM CLR 13/11 A3012 RMK AO2 SLP201 7//// T01280111 10167 20122 53004=
202307191056 METAR KPWT 191056Z AUTO 00000KT 10SM CLR 14/11 A3011 RMK AO2 SLP198 T01390111=
202307190956 METAR KPWT 190956Z AUTO 05006KT 10SM CLR 14/11 A3011 RMK AO2 SLP197 T01390111=
202307190856 METAR KPWT 190856Z AUTO 06005KT 10SM CLR 14/11 A3011 RMK AO2 SLP197 T01440111 55000=
202307190756 METAR KPWT 190756Z AUTO 07003KT 10SM CLR 14/11 A3011 RMK AO2 SLP198 T01440111 402720100=
202307190656 METAR KPWT 190656Z AUTO 08004KT 10SM CLR 16/11 A3011 RMK AO2 SLP196 T01610106=
202307190556 METAR KPWT 190556Z AUTO 00000KT 10SM CLR 16/10 A3011 RMK AO2 SLP198 T01560100 10272 20156 53003=
202307190456 METAR KPWT 190456Z AUTO 05005KT 10SM CLR 19/10 A3010 RMK AO2 SLP196 T01890100=
202307190356 METAR KPWT 190356Z AUTO 06005KT 10SM CLR 21/09 A3010 RMK AO2 SLP193 T02110094=
202307190256 METAR KPWT 190256Z AUTO 03006KT 10SM CLR 24/08 A3010 RMK AO2 SLP195 T02390083 55003=
202307190156 METAR KPWT 190156Z AUTO 04010G15KT 10SM CLR 25/09 A3010 RMK AO2 SLP193 T02500089=
202307190056 METAR KPWT 190056Z AUTO 05010KT 10SM CLR 26/08 A3010 RMK AO2 SLP195 T02610083=
202307182356 METAR KPWT 182356Z AUTO 05013KT 10SM CLR 27/06 A3011 RMK AO2 SLP198 T02670061 10272 20206 58012=
202307182256 METAR KPWT 182256Z AUTO 03011G18KT 10SM CLR 27/09 A3012 RMK AO2 SLP203 T02670089=
202307182156 METAR KPWT 182156Z AUTO 03010G14KT 10SM CLR 27/10 A3014 RMK AO2 SLP207 T02670100=
202307182056 METAR KPWT 182056Z AUTO 07012G16KT 10SM CLR 25/11 A3015 RMK AO2 SLP210 T02500106=
202307181956 METAR KPWT 181956Z AUTO 05008KT 9SM CLR 23/12 A3016 RMK AO2 SLP215 T02330122=
202307181856 METAR KPWT 181856Z AUTO 02008G14KT 10SM CLR 23/12 A3018 RMK AO2 SLP220 T02280117=
202307181756 METAR KPWT 181756Z AUTO 02007KT 10SM CLR 22/13 RMK AO2 SLPNO 6//// T02220128 10222 20100 $=
202307181656 METAR KPWT 181656Z AUTO 00000KT 10SM CLR 19/13 A3019 RMK AO2 SLP226 T01940128=
202307181556 METAR KPWT 181556Z AUTO 03003KT 10SM CLR 17/12 A3019 RMK AO2 SLP227 T01670122=
202307181456 METAR KPWT 181456Z AUTO 04005KT 10SM CLR 15/12 A3019 RMK AO2 SLP227 T01500122 51005=
202307181356 METAR KPWT 181356Z AUTO 03005KT 10SM CLR 14/12 A3019 RMK AO2 SLP227 T01390122=
202307181256 METAR KPWT 181256Z AUTO 00000KT 10SM CLR 11/11 A3019 RMK AO2 SLP224 T01060106=
202307181156 METAR KPWT 181156Z AUTO 00000KT 10SM CLR 12/11 A3018 RMK AO2 SLP222 7//// T01170111 10150 20106 53005=
202307181056 METAR KPWT 181056Z AUTO 04004KT 10SM CLR 12/11 A3017 RMK AO2 SLP220 T01170111=
202307180956 METAR KPWT 180956Z AUTO 00000KT 10SM CLR 11/09 A3017 RMK AO2 SLP218 T01060094=
202307180856 METAR KPWT 180856Z AUTO 00000KT 10SM FEW047 11/09 A3016 RMK AO2 SLP217 T01110094 58002=
202307180756 METAR KPWT 180756Z AUTO 04004KT 10SM SCT046 14/11 A3017 RMK AO2 SLP218 T01440111 402560133=
202307180656 METAR KPWT 180656Z AUTO 05005KT 10SM CLR 14/11 A3017 RMK AO2 SLP219 T01440111=
202307180556 METAR KPWT 180556Z AUTO 05004KT 10SM CLR 14/11 A3017 RMK AO2 SLP218 6//// T01440111 10228 20144 51011=
202307180456 METAR KPWT 180456Z AUTO 07005KT 10SM CLR 16/12 A3016 RMK AO2 SLP217 T01610117=
202307180356 METAR KPWT 180356Z AUTO 07005KT 10SM CLR 17/12 A3015 RMK AO2 SLP212 T01720122=
202307180256 METAR KPWT 180256Z AUTO 07009KT 10SM SCT050 19/12 A3014 RMK AO2 SLP208 6//// T01940117 53008=
202307180156 METAR KPWT 180156Z AUTO 06009KT 10SM FEW060 21/13 A3013 RMK AO2 SLP206 T02060128=
202307180056 METAR KPWT 180056Z AUTO 03009KT 10SM BKN060 22/13 A3012 RMK AO2 SLP203 T02220133=
202307172356 METAR KPWT 172356Z AUTO 06008KT 10SM OVC060 22/13 A3011 RMK AO2 SLP200 6//// T02170133 10256 20211=
202307172256 METAR KPWT 172256Z AUTO 22011G15KT 10SM BKN060 24/09 A3011 RMK AO2 SLP197 T02390094=
202307172156 METAR KPWT 172156Z AUTO 21013G16KT 10SM BKN060 24/10 A3011 RMK AO2 SLP197 T02390100=
202307172056 METAR KPWT 172056Z AUTO 21010KT 10SM OVC055 23/10 RMK AO2 SLPNO 6//// T02330100 $=
202307171956 METAR KPWT 171956Z AUTO 23015G18KT 10SM FEW050 BKN065 22/10 A3010 RMK AO2 SLP196 T02220100=
202307171856 METAR KPWT 171856Z AUTO 21011G18KT 10SM FEW065 22/12 A3010 RMK AO2 SLP195 T02170117=
202307171756 METAR KPWT 171756Z AUTO 24012KT 10SM FEW070 22/12 A3009 RMK AO2 SLP191 6//// T02220122 10222 20133 50004=
202307171718 SPECI KPWT 171718Z AUTO 24010KT 10SM SCT022 BKN065 21/14 A3009 RMK AO2=
202307171656 METAR KPWT 171656Z AUTO 17005KT 10SM BKN024 19/14 A3010 RMK AO2 SLP193 T01940139=
202307171637 SPECI KPWT 171637Z AUTO 21007KT 170V230 10SM BKN022 19/13 A3010 RMK AO2=
202307171613 SPECI KPWT 171613Z AUTO 22009KT 10SM SCT018 18/13 A3010 RMK AO2=
202307171556 METAR KPWT 171556Z AUTO 18006KT 10SM BKN012 17/13 A3010 RMK AO2 SLP193 T01720133=
202307171539 SPECI KPWT 171539Z AUTO 20005KT 10SM BKN012 16/13 A3009 RMK AO2=
202307171456 METAR KPWT 171456Z AUTO 19006KT 10SM FEW010 16/13 A3008 RMK AO2 SLP186 T01560133 51016=
202307171356 METAR KPWT 171356Z AUTO 21004KT 10SM FEW011 BKN037 14/13 A3007 RMK AO2 SLP183 T01390128=
202307171256 METAR KPWT 171256Z AUTO 00000KT 10SM BKN037 13/12 A3005 RMK AO2 SLP176 T01330122=
202307171238 SPECI KPWT 171238Z AUTO 00000KT 10SM SCT011 BKN037 BKN047 13/12 A3005 RMK AO2=
202307171156 METAR KPWT 171156Z AUTO 20003KT 10SM OVC011 14/13 A3003 RMK AO2 SLP171 T01390128 10172 20133 53007=
202307171147 SPECI KPWT 171147Z AUTO 20003KT 10SM OVC009 14/13 A3003 RMK AO2=
202307171056 METAR KPWT 171056Z AUTO 00000KT 10SM OVC013 14/13 A3001 RMK AO2 SLP165 T01390128=
202307170956 METAR KPWT 170956Z AUTO 23003KT 10SM OVC013 14/13 A3001 RMK AO2 SLP165 T01440128=
202307170906 SPECI KPWT 170906Z AUTO 17003KT 10SM BKN013 14/13 A3001 RMK AO2=
202307170856 METAR KPWT 170856Z AUTO 20003KT 10SM SCT013 14/13 A3001 RMK AO2 SLP163 T01390128 51007=
202307170756 METAR KPWT 170756Z AUTO 17004KT 10SM CLR 14/12 A3001 RMK AO2 SLP162 T01440122 402890094=
202307170656 METAR KPWT 170656Z AUTO 11003KT 10SM CLR 16/13 A3000 RMK AO2 SLP159 T01610128=
202307170556 METAR KPWT 170556Z AUTO 16003KT 10SM CLR 17/12 A2999 RMK AO2 SLP156 T01720122 10289 20172 53009=
202307170456 METAR KPWT 170456Z AUTO 18005KT 10SM CLR 19/12 A2998 RMK AO2 SLP153 T01890122=
202307170356 METAR KPWT 170356Z AUTO 00000KT 10SM CLR 21/12 A2997 RMK AO2 SLP148 T02110122=
202307170256 METAR KPWT 170256Z AUTO 20009KT 10SM CLR 24/13 A2996 RMK AO2 SLP148 T02390128 55003=
202307170156 METAR KPWT 170156Z AUTO 24008KT 10SM CLR 26/13 A2996 RMK AO2 SLP145 T02610133=
202307170056 METAR KPWT 170056Z AUTO 25011G18KT 10SM CLR 28/13 A2996 RMK AO2 SLP147 T02780133=
202307162356 METAR KPWT 162356Z AUTO VRB04KT 10SM CLR 29/14 A2997 RMK AO2 SLP151 T02890139 10289 20228 56016=
202307162256 METAR KPWT 162256Z AUTO VRB03KT 10SM CLR 28/13 A2998 RMK AO2 SLP154 T02780133=
202307162156 METAR KPWT 162156Z AUTO 25008KT 210V280 10SM CLR 28/13 A3000 RMK AO2 SLP160 T02780133=
202307162056 METAR KPWT 162056Z AUTO VRB03KT 10SM CLR 27/13 A3002 RMK AO2 SLP167 T02670133 58012=
202307161956 METAR KPWT 161956Z AUTO 00000KT 10SM CLR 24/13 A3003 RMK AO2 SLP172 T02440128=
202307161856 METAR KPWT 161856Z AUTO 13004KT 10SM CLR 24/14 A3005 RMK AO2 SLP176 T02440139=
202307161756 METAR KPWT 161756Z AUTO VRB04KT 10SM CLR 23/14 A3005 RMK AO2 SLP178 T02280139 10233 20094=
202307161656 METAR KPWT 161656Z AUTO 15003KT 8SM CLR 21/14 A3007 RMK AO2 SLP182 T02060139=
202307161556 METAR KPWT 161556Z AUTO 06005KT 10SM CLR 19/13 A3007 RMK AO2 SLP185 T01940133=
202307161456 METAR KPWT 161456Z AUTO 00000KT 10SM CLR 18/13 RMK AO2 SLPNO T01780128 $=
202307161356 METAR KPWT 161356Z AUTO 00000KT 10SM CLR 14/13 A3007 RMK AO2 SLP185 T01390128=
202307161256 METAR KPWT 161256Z AUTO 00000KT 10SM CLR 11/10 A3006 RMK AO2 SLP181 T01060100=
202307161156 METAR KPWT 161156Z AUTO 00000KT 10SM CLR 09/09 A3007 RMK AO2 SLP182 6//// 7//// T00940089 10183 20094 53004=
202307161056 METAR KPWT 161056Z AUTO 00000KT 10SM CLR 12/10 A3006 RMK AO2 SLP182 T01170100=
202307160956 METAR KPWT 160956Z AUTO 00000KT 10SM CLR 12/11 A3005 RMK AO2 SLP179 T01220106=
202307160856 METAR KPWT 160856Z AUTO 00000KT 10SM CLR 12/11 A3005 RMK AO2 SLP178 6//// T01220106 51005=
202307160756 METAR KPWT 160756Z AUTO 00000KT 10SM CLR 14/11 A3005 RMK AO2 SLP177 T01440111 403280128=
202307160656 METAR KPWT 160656Z AUTO 00000KT 10SM CLR 16/12 A3005 RMK AO2 SLP177 T01560117=
202307160556 METAR KPWT 160556Z AUTO 00000KT 10SM CLR 18/12 A3004 RMK AO2 SLP172 T01830122 10317 20183 51012=
202307160456 METAR KPWT 160456Z AUTO 09004KT 10SM CLR 19/12 A3003 RMK AO2 SLP171 T01940122=
202307160356 METAR KPWT 160356Z AUTO 07003KT 10SM CLR 23/12 A3003 RMK AO2 SLP168 T02280117=
202307160256 METAR KPWT 160256Z AUTO 06008KT 10SM CLR 26/12 A3000 RMK AO2 SLP160 T02560117 58007=
202307160156 METAR KPWT 160156Z AUTO 06007KT 10SM CLR 28/12 A3002 RMK AO2 SLP168 T02780117=
202307160056 METAR KPWT 160056Z AUTO 04010KT 10SM CLR 31/13 A3002 RMK AO2 SLP164 T03060128=
202307152356 METAR KPWT 152356Z AUTO 07008KT 10SM CLR 32/13 A3002 RMK AO2 SLP167 6//// T03170128 10328 20267 56015=
202307152256 METAR KPWT 152256Z AUTO VRB06KT 10SM CLR 32/12 A3004 RMK AO2 SLP170 T03170122=
202307152156 METAR KPWT 152156Z AUTO VRB04KT 10SM CLR 31/12 A3005 RMK AO2 SLP175 T03060117=
202307152056 METAR KPWT 152056Z AUTO VRB03KT 10SM CLR 31/13 A3007 RMK AO2 SLP181 T03060128 58012=
202307151956 METAR KPWT 151956Z AUTO VRB03KT 10SM CLR 30/13 A3008 RMK AO2 SLP186 T03000133=
202307151856 METAR KPWT 151856Z AUTO 07005KT 10SM CLR 28/13 A3009 RMK AO2 SLP191 T02780128=
202307151756 METAR KPWT 151756Z AUTO VRB06KT 10SM CLR 26/13 A3010 RMK AO2 SLP194 T02610128 10261 20128 58004=
202307151656 METAR KPWT 151656Z AUTO 03006KT 10SM CLR 24/12 A3011 RMK AO2 SLP196 T02440117=
202307151556 METAR KPWT 151556Z AUTO 06006KT 10SM CLR 22/12 A3011 RMK AO2 SLP198 T02220117=
202307151456 METAR KPWT 151456Z AUTO 06005KT 10SM CLR 21/11 A3011 RMK AO2 SLP197 T02060111 52004=
202307151356 METAR KPWT 151356Z AUTO 00000KT 10SM CLR 18/11 A3011 RMK AO2 SLP197 T01780111=
202307151256 METAR KPWT 151256Z AUTO 00000KT 10SM CLR 13/11 A3010 RMK AO2 SLP196 T01330106=
202307151156 METAR KPWT 151156Z AUTO 05003KT 10SM CLR 14/11 A3010 RMK AO2 SLP194 6//// 7//// T01440106 10206 20144 51000=
202307151056 METAR KPWT 151056Z AUTO 05003KT 10SM CLR 16/11 A3010 RMK AO2 SLP194 T01610111=
202307150956 METAR KPWT 150956Z AUTO 05004KT 10SM CLR 17/11 A3010 RMK AO2 SLP195 T01670111=
202307150856 METAR KPWT 150856Z AUTO 04005KT 10SM CLR 17/12 A3010 RMK AO2 SLP194 T01720117 58001=
202307150756 METAR KPWT 150756Z AUTO 05005KT 10SM CLR 18/12 A3010 RMK AO2 SLP195 T01780117 403000094=
202307150656 METAR KPWT 150656Z AUTO 04004KT 10SM CLR 19/12 A3010 RMK AO2 SLP194 T01890117=
202307150556 METAR KPWT 150556Z AUTO 06007KT 10SM CLR 21/12 A3010 RMK AO2 SLP195 T02060122 10300 20200 50003=
202307150456 METAR KPWT 150456Z AUTO 05003KT 10SM CLR 22/11 A3011 RMK AO2 SLP195 T02170111=
202307150356 METAR KPWT 150356Z AUTO 03006KT 10SM CLR 23/11 A3009 RMK AO2 SLP191 T02330111=
202307150256 METAR KPWT 150256Z AUTO 04007KT 10SM CLR 27/12 A3009 RMK AO2 SLP191 T02670122 55004=
202307150156 METAR KPWT 150156Z AUTO 04009KT 9SM CLR 28/12 A3009 RMK AO2 SLP191 T02830117=
202307150056 METAR KPWT 150056Z AUTO 05008KT 10SM CLR 28/13 A3010 RMK AO2 SLP194 T02830128=
202307142356 METAR KPWT 142356Z AUTO 04009KT 10SM CLR 29/13 A3011 RMK AO2 SLP195 T02940133 10300 20239 58010=
202307142256 METAR KPWT 142256Z AUTO 05010KT 10SM CLR 29/13 A3012 RMK AO2 SLP200 T02940128=
202307142156 METAR KPWT 142156Z AUTO 08006KT 10SM CLR 29/13 A3012 RMK AO2 SLP201 T02940128=
202307142056 METAR KPWT 142056Z AUTO 08009KT 10SM CLR 29/13 A3013 RMK AO2 SLP205 T02890133 58008=
202307141956 METAR KPWT 141956Z AUTO 00000KT 10SM CLR 27/13 A3014 RMK AO2 SLP208 T02670128=
202307141856 METAR KPWT 141856Z AUTO 00000KT 10SM CLR 27/13 A3015 RMK AO2 SLP211 T02670133=
202307141756 METAR KPWT 141756Z AUTO VRB03KT 10SM CLR 25/13 A3016 RMK AO2 SLP214 T02500133 10250 20094 58002=
202307141656 METAR KPWT 141656Z AUTO VRB03KT 10SM CLR 23/13 A3016 RMK AO2 SLP216 T02280133=
202307141556 METAR KPWT 141556Z AUTO VRB03KT 8SM CLR 21/13 A3017 RMK AO2 SLP217 T02060128=
202307141456 METAR KPWT 141456Z AUTO 04004KT 10SM CLR 19/12 A3016 RMK AO2 SLP216 T01890122 51005=
202307141356 METAR KPWT 141356Z AUTO 00000KT 10SM CLR 15/12 A3016 RMK AO2 SLP214 T01500122=
202307141256 METAR KPWT 141256Z AUTO 00000KT 10SM CLR 11/11 A3015 RMK AO2 SLP212 T01060106=
202307141156 METAR KPWT 141156Z AUTO 00000KT 10SM CLR 11/11 A3015 RMK AO2 SLP210 T01110106 10172 20106 51001=
202307141056 METAR KPWT 141056Z AUTO 00000KT 10SM CLR 12/11 A3015 RMK AO2 SLP209 T01170106=
202307140956 METAR KPWT 140956Z AUTO 00000KT 10SM CLR 12/11 A3015 RMK AO2 SLP210 T01170111=
202307140856 METAR KPWT 140856Z AUTO 11003KT 10SM CLR 12/11 A3014 RMK AO2 SLP209 T01220111 51007=
202307140756 METAR KPWT 140756Z AUTO 00000KT 10SM CLR 14/11 A3014 RMK AO2 SLP208 T01390111 402890078=
202307140656 METAR KPWT 140656Z AUTO 00000KT 10SM CLR 14/11 A3013 RMK AO2 SLP206 T01440111=
202307140556 METAR KPWT 140556Z AUTO 00000KT 10SM CLR 17/12 A3012 RMK AO2 SLP202 T01670117 10278 20167 53010=
202307140456 METAR KPWT 140456Z AUTO 05007KT 10SM CLR 19/12 A3011 RMK AO2 SLP198 T01940117=
202307140356 METAR KPWT 140356Z AUTO 04009KT 10SM CLR 21/12 A3010 RMK AO2 SLP195 T02110117=
202307140256 METAR KPWT 140256Z AUTO 05008KT 10SM CLR 24/13 A3009 RMK AO2 SLP192 T02390128 55003=
202307140156 METAR KPWT 140156Z AUTO 05009KT 10SM CLR 26/13 A3009 RMK AO2 SLP190 T02560133=
202307140056 METAR KPWT 140056Z AUTO 05008KT 10SM CLR 26/14 A3010 RMK AO2 SLP194 T02610139=
202307132356 METAR KPWT 132356Z AUTO 06006KT 10SM CLR 26/14 A3010 RMK AO2 SLP196 T02610144 10289 20194 56008=
202307132256 METAR KPWT 132256Z AUTO 36010KT 10SM BKN050 28/14 A3011 RMK AO2 SLP196 T02830144=
202307132156 METAR KPWT 132156Z AUTO 13004KT 10SM FEW048 26/14 A3011 RMK AO2 SLP200 T02560139=
202307132056 METAR KPWT 132056Z AUTO VRB06KT 10SM CLR 25/14 A3013 RMK AO2 SLP204 T02500144 58008=
202307131956 METAR KPWT 131956Z AUTO 30004KT 10SM CLR 23/14 A3014 RMK AO2 SLP207 T02330144=
202307131856 METAR KPWT 131856Z AUTO 24006KT 10SM CLR 22/14 A3014 RMK AO2 SLP209 T02170139=
202307131756 METAR KPWT 131756Z AUTO VRB03KT 10SM CLR 19/13 A3015 RMK AO2 SLP212 T01940133 10200 20078 50001=
202307131656 METAR KPWT 131656Z AUTO VRB03KT 10SM CLR 17/13 A3015 RMK AO2 SLP212 T01720133=
202307131631 SPECI KPWT 131631Z AUTO VRB03KT 10SM FEW006 15/13 A3015 RMK AO2=
202307131613 SPECI KPWT 131613Z AUTO VRB03KT 10SM BKN006 15/13 A3015 RMK AO2 CIG 004V008=
202307131556 METAR KPWT 131556Z AUTO VRB03KT 10SM OVC004 14/12 A3015 RMK AO2 SLP212 T01390122=
202307131456 METAR KPWT 131456Z AUTO 15003KT 9SM OVC004 12/12 A3014 RMK AO2 SLP211 T01220117 53014=
202307131437 SPECI KPWT 131437Z AUTO 14003KT 8SM BKN006 13/12 A3014 RMK AO2=
202307131429 SPECI KPWT 131429Z AUTO 00000KT 10SM SCT006 12/12 A3014 RMK AO2=
202307131356 METAR KPWT 131356Z AUTO 00000KT 10SM CLR 12/12 A3013 RMK AO2 SLP206 T01170117=
202307131256 METAR KPWT 131256Z AUTO 00000KT 10SM CLR 08/08 A3011 RMK AO2 SLP202 T00830083=
202307131156 METAR KPWT 131156Z AUTO 00000KT 10SM CLR 09/09 A3010 RMK AO2 SLP198 T00890089 10150 20083 53003=
202307131056 METAR KPWT 131056Z AUTO 00000KT 10SM CLR 09/09 A3010 RMK AO2 SLP195 T00940094=
202307130956 METAR KPWT 130956Z AUTO 00000KT 10SM CLR 09/09 A3010 RMK AO2 SLP195 T00940094=
202307130856 METAR KPWT 130856Z AUTO 00000KT 10SM CLR 11/10 A3010 RMK AO2 SLP195 T01060100 51003=
202307130756 METAR KPWT 130756Z AUTO 00000KT 10SM CLR 12/12 A3010 RMK AO2 SLP194 T01170117 402280083=
202307130656 METAR KPWT 130656Z AUTO 00000KT 10SM CLR 13/12 A3009 RMK AO2 SLP192 T01280122=
202307130556 METAR KPWT 130556Z AUTO 11003KT 10SM CLR 15/13 A3009 RMK AO2 SLP191 T01500133 10228 20139=
202307130456 METAR KPWT 130456Z AUTO 00000KT 10SM FEW090 17/14 A3007 RMK AO2 SLP188 T01720139=
202307130356 METAR KPWT 130356Z AUTO 07005KT 10SM BKN090 19/14 RMK AO2 SLPNO T01890144 $=
202307130256 METAR KPWT 130256Z AUTO 05008KT 10SM FEW080 20/14 A3005 RMK AO2 SLP179 T02000144=
202307130156 METAR KPWT 130156Z AUTO 21006KT 10SM CLR 22/13 RMK AO2 SLPNO T02220128 $=
202307130056 METAR KPWT 130056Z AUTO 23006KT 10SM SCT110 23/13 A3004 RMK AO2 SLP176 T02280133=
202307122356 METAR KPWT 122356Z AUTO 25006KT 10SM CLR 22/12 A3005 RMK AO2 SLP180 T02170122 10222 20161 58008=
202307122256 METAR KPWT 122256Z AUTO 22010KT 10SM CLR 21/13 A3007 RMK AO2 SLP185 T02060133=
202307122156 METAR KPWT 122156Z AUTO 23008KT 10SM CLR 21/13 A3007 RMK AO2 SLP185 T02110133=
202307122056 METAR KPWT 122056Z AUTO 27008KT 10SM CLR 21/13 A3008 RMK AO2 SLP188 T02060128 56005=
202307121956 METAR KPWT 121956Z AUTO 26010KT 10SM SCT028 21/13 A3008 RMK AO2 SLP188 T02110133=
202307121856 METAR KPWT 121856Z AUTO 30005KT 10SM CLR 20/13 A3008 RMK AO2 SLP188 T02000133=
202307121826 SPECI KPWT 121826Z AUTO 00000KT 10SM SCT016 17/13 A3008 RMK AO2=
202307121756 METAR KPWT 121756Z AUTO VRB04KT 10SM OVC014 17/13 A3009 RMK AO2 SLP193 T01670128 10167 20083 50003=
202307121710 SPECI KPWT 121710Z AUTO VRB04KT 10SM OVC010 14/13 A3010 RMK AO2=
202307121656 METAR KPWT 121656Z AUTO VRB04KT 10SM OVC008 14/13 A3010 RMK AO2 CIG 006V010 SLP195 T01440128=
202307121627 SPECI KPWT 121627Z AUTO 17004KT 10SM OVC006 14/12 A3009 RMK AO2=
202307121556 METAR KPWT 121556Z AUTO 25003KT 10SM OVC004 13/12 A3009 RMK AO2 SLP193 T01280122=
202307121545 SPECI KPWT 121545Z AUTO 19005KT 10SM OVC004 13/12 A3009 RMK AO2=
202307121456 METAR KPWT 121456Z AUTO 22004KT 10SM OVC002 12/12 A3008 RMK AO2 SLP189 T01220122 53010=
202307121407 SPECI KPWT 121407Z AUTO 24003KT 3SM BR OVC002 12/12 A3007 RMK AO2=
202307121356 METAR KPWT 121356Z AUTO 25004KT 1 1/2SM BR OVC002 12/12 A3007 RMK AO2 VIS 3/4V5 SLP183 T01220122=
202307121335 SPECI KPWT 121335Z AUTO 28003KT 1 3/4SM BR OVC002 12/12 A3006 RMK AO2 VIS 1/2V5=
202307121256 METAR KPWT 121256Z AUTO 00000KT 10SM OVC002 12/12 A3005 RMK AO2 SLP179 T01170117=
202307121219 SPECI KPWT 121219Z AUTO 00000KT 10SM OVC002 11/11 A3005 RMK AO2=
202307121209 SPECI KPWT 121209Z AUTO 22004KT 10SM BKN004 10/10 A3006 RMK AO2=
202307121156 METAR KPWT 121156Z AUTO 00000KT 8SM FEW004 09/09 A3005 RMK AO2 SLP179 7//// T00890089 10167 20089 53003=
202307121056 METAR KPWT 121056Z AUTO 00000KT 10SM CLR 11/10 A3005 RMK AO2 SLP177 T01060100=
202307120956 METAR KPWT 120956Z AUTO 00000KT 10SM CLR 12/11 A3004 RMK AO2 SLP175 T01170106=
202307120856 METAR KPWT 120856Z AUTO 00000KT 10SM CLR 12/11 A3004 RMK AO2 SLP176 T01170111 55001=
202307120756 METAR KPWT 120756Z AUTO 14003KT 10SM CLR 13/12 A3004 RMK AO2 SLP175 T01280117 402610072=
202307120656 METAR KPWT 120656Z AUTO 00000KT 10SM CLR 14/12 A3004 RMK AO2 SLP175 T01390117=
202307120556 METAR KPWT 120556Z AUTO 17003KT 10SM CLR 16/12 A3004 RMK AO2 SLP176 6//// T01610122 10261 20161 53006=
202307120456 METAR KPWT 120456Z AUTO 00000KT 10SM CLR 19/12 A3004 RMK AO2 SLP175 T01890122=
202307120356 METAR KPWT 120356Z AUTO 08005KT 10SM CLR 21/12 A3003 RMK AO2 SLP170 T02110117=
202307120256 METAR KPWT 120256Z AUTO 07004KT 10SM CLR 23/13 A3003 RMK AO2 SLP169 T02330128 56010=
202307120156 METAR KPWT 120156Z AUTO 21007KT 10SM CLR 24/13 A3003 RMK AO2 SLP171 T02440128=
202307120056 METAR KPWT 120056Z AUTO VRB04KT 10SM CLR 25/13 A3004 RMK AO2 SLP176 T02500128=
202307112356 METAR KPWT 112356Z AUTO 00000KT 10SM CLR 24/13 A3006 RMK AO2 SLP181 T02440128 10256 20189 58013=
202307112256 METAR KPWT 112256Z AUTO VRB03KT 10SM CLR 23/12 A3007 RMK AO2 SLP186 T02330122=
202307112156 METAR KPWT 112156Z AUTO 21007KT 9SM CLR 23/12 A3009 RMK AO2 SLP190 T02330122=
202307112056 METAR KPWT 112056Z AUTO VRB03KT 10SM FEW038 22/12 A3010 RMK AO2 SLP194 T02220122 58008=
202307111956 METAR KPWT 111956Z AUTO 21007KT 10SM CLR 21/12 A3011 RMK AO2 SLP198 T02110117=
202307111856 METAR KPWT 111856Z AUTO 22007KT 10SM SCT034 20/12 A3012 RMK AO2 SLP202 T02000117=
202307111756 METAR KPWT 111756Z AUTO 21007KT 10SM SCT026 19/12 A3012 RMK AO2 SLP202 6//// T01940117 10194 20072 58002=
202307111714 SPECI KPWT 111714Z AUTO VRB04KT 10SM BKN022 18/12 A3013 RMK AO2=
202307111656 METAR KPWT 111656Z AUTO 18004KT 10SM SCT022 17/12 A3013 RMK AO2 SLP207 T01670117=
202307111556 METAR KPWT 111556Z AUTO VRB03KT 10SM CLR 15/12 A3013 RMK AO2 SLP208 T01500117=
202307111456 METAR KPWT 111456Z AUTO 23003KT 10SM FEW008 13/12 A3013 RMK AO2 SLP205 T01330117 53002=
202307111421 SPECI KPWT 111421Z AUTO 19004KT 10SM FEW007 13/12 A3013 RMK AO2=
202307111356 METAR KPWT 111356Z AUTO 22003KT 10SM CLR 12/11 A3012 RMK AO2 SLP204 T01170111=
202307111256 METAR KPWT 111256Z AUTO 00000KT 10SM CLR 08/07 A3012 RMK AO2 SLP201 T00780072=
202307111156 METAR KPWT 111156Z AUTO 00000KT 10SM CLR 08/08 A3012 RMK AO2 SLP202 7//// T00830083 10144 20078 51004=
202307111056 METAR KPWT 111056Z AUTO 00000KT 10SM CLR 09/09 A3012 RMK AO2 SLP201 T00890089=
202307110956 METAR KPWT 110956Z AUTO 00000KT 10SM CLR 11/10 A3011 RMK AO2 SLP200 T01060100=
202307110856 METAR KPWT 110856Z AUTO 00000KT 10SM CLR 11/10 A3011 RMK AO2 SLP199 T01110100 53004=
202307110756 METAR KPWT 110756Z AUTO 19005KT 10SM CLR 13/11 A3010 RMK AO2 SLP196 T01330106 402170106=
202307110656 METAR KPWT 110656Z AUTO 21005KT 10SM CLR 12/10 A3010 RMK AO2 SLP194 T01220100=
202307110556 METAR KPWT 110556Z AUTO 22005KT 10SM CLR 14/11 A3009 RMK AO2 SLP195 6//// T01440106 10217 20144 51009=
202307110456 METAR KPWT 110456Z AUTO 23008KT 10SM BKN044 16/11 A3009 RMK AO2 SLP194 T01610111=
202307110356 METAR KPWT 110356Z AUTO 20006KT 10SM CLR 17/11 A3008 RMK AO2 SLP190 T01720111=
202307110256 METAR KPWT 110256Z AUTO 20008KT 10SM SCT043 19/12 A3007 RMK AO2 SLP185 6//// T01890117 52004=
202307110156 METAR KPWT 110156Z AUTO 20007KT 10SM OVC043 21/12 A3006 RMK AO2 SLP182 T02060117=
202307110056 METAR KPWT 110056Z AUTO 22006KT 10SM OVC043 21/11 A3006 RMK AO2 SLP181 T02110111=
202307102356 METAR KPWT 102356Z AUTO 18008G16KT 10SM OVC041 21/12 A3005 RMK AO2 SLP180 6//// T02110117 10217 20167 56005=
202307102256 METAR KPWT 102256Z AUTO 21009KT 10SM OVC039 21/12 A3006 RMK AO2 SLP180 T02110117=
202307102156 METAR KPWT 102156Z AUTO VRB06KT 10SM OVC037 20/12 A3006 RMK AO2 SLP184 T02000122=
202307102056 METAR KPWT 102056Z AUTO 21010KT 10SM OVC034 19/12 A3007 RMK AO2 SLP186 T01940122 51006=
202307101956 METAR KPWT 101956Z AUTO 21012KT 10SM OVC030 19/12 A3006 RMK AO2 SLP183 T01890117=
202307101911 SPECI KPWT 101911Z AUTO 19009KT 10SM OVC031 18/11 A3006 RMK AO2=
202307101856 METAR KPWT 101856Z AUTO 16006KT 10SM OVC029 18/12 A3006 RMK AO2 SLP182 T01780117=
202307101756 METAR KPWT 101756Z AUTO 24006KT 10SM OVC025 17/11 A3005 RMK AO2 SLP179 T01670111 10167 20122 50003=
202307101656 METAR KPWT 101656Z AUTO 24005KT 10SM OVC021 15/11 A3005 RMK AO2 SLP181 T01500106=
202307101556 METAR KPWT 101556Z AUTO 22007KT 10SM OVC015 13/11 A3005 RMK AO2 SLP178 T01330106=
202307101511 SPECI KPWT 101511Z AUTO 18007KT 10SM OVC015 13/10 A3004 RMK AO2=
202307101456 METAR KPWT 101456Z AUTO 21007KT 10SM OVC013 13/10 A3004 RMK AO2 SLP175 T01280100 53007=
202307101356 METAR KPWT 101356Z AUTO 21007KT 10SM OVC013 12/11 A3003 RMK AO2 SLP171 T01220106=
202307101256 METAR KPWT 101256Z AUTO 22005KT 10SM OVC013 12/10 A3003 RMK AO2 SLP169 T01220100=
202307101156 METAR KPWT 101156Z AUTO 21007KT 10SM OVC013 12/10 A3002 RMK AO2 SLP167 7//// T01220100 10133 20106 51009=
202307101056 METAR KPWT 101056Z AUTO 22007KT 10SM OVC013 12/10 A3001 RMK AO2 SLP164 T01220100=
202307100956 METAR KPWT 100956Z AUTO 19005KT 10SM OVC013 12/11 A3001 RMK AO2 SLP163 T01220106=
202307100856 METAR KPWT 100856Z AUTO 22007KT 10SM OVC013 12/11 A2999 RMK AO2 SLP158 T01170106 51013=
202307100839 SPECI KPWT 100839Z AUTO 20006KT 10SM BKN013 11/11 A3000 RMK AO2=
202307100756 METAR KPWT 100756Z AUTO 21005KT 10SM CLR 11/10 A2999 RMK AO2 SLP157 T01110100 402780067=
202307100656 METAR KPWT 100656Z AUTO 20005KT 10SM CLR 12/10 A2998 RMK AO2 SLP154 T01220100=
202307100556 METAR KPWT 100556Z AUTO 21006KT 10SM CLR 13/11 A2995 RMK AO2 SLP146 6//// T01330106 10267 20133 51017=
202307100456 METAR KPWT 100456Z AUTO 20006KT 10SM CLR 16/11 A2994 RMK AO2 SLP142 T01560111=
202307100356 METAR KPWT 100356Z AUTO 21008KT 10SM CLR 18/11 A2992 RMK AO2 SLP134 T01830111=
202307100256 METAR KPWT 100256Z AUTO 22010KT 10SM CLR 22/12 A2990 RMK AO2 SLP128 T02170117 53008=
202307100156 METAR KPWT 100156Z AUTO 23011KT 10SM CLR 24/12 A2989 RMK AO2 SLP124 T02440122=
202307100056 METAR KPWT 100056Z AUTO 08007KT 10SM CLR 26/13 A2987 RMK AO2 SLP119 T02610133=
202307092356 METAR KPWT 092356Z AUTO 05005KT 10SM CLR 26/14 A2988 RMK AO2 SLP120 6//// T02610139 10278 20194 56012=
202307092256 METAR KPWT 092256Z AUTO 05006KT 10SM CLR 26/14 A2989 RMK AO2 SLP123 T02610139=
202307092156 METAR KPWT 092156Z AUTO VRB05KT 10SM CLR 26/13 A2990 RMK AO2 SLP126 T02560133=
202307092056 METAR KPWT 092056Z AUTO VRB03KT 10SM CLR 24/14 A2991 RMK AO2 SLP131 6//// T02440139 56015=
202307091956 METAR KPWT 091956Z AUTO VRB03KT 10SM CLR 22/12 A2992 RMK AO2 SLP137 T02220122=
202307091856 METAR KPWT 091856Z AUTO 28007KT 10SM CLR 22/12 A2994 RMK AO2 SLP140 T02220122=
202307091756 METAR KPWT 091756Z AUTO 25005KT 10SM CLR 20/13 A2996 RMK AO2 SLP146 T02000128 10200 20067 58004=
202307091656 METAR KPWT 091656Z AUTO 23004KT 10SM CLR 18/12 A2997 RMK AO2 SLP150 T01780122=
202307091556 METAR KPWT 091556Z AUTO VRB03KT 10SM CLR 16/12 A2997 RMK AO2 SLP151 T01610117=
202307091456 METAR KPWT 091456Z AUTO 00000KT 10SM CLR 14/11 A2997 RMK AO2 SLP149 T01390111 50004=
202307091356 METAR KPWT 091356Z AUTO 00000KT 10SM CLR 11/11 A2997 RMK AO2 SLP151 T01110106=
202307091256 METAR KPWT 091256Z AUTO 00000KT 10SM CLR 07/07 A2996 RMK AO2 SLP149 T00670067=
202307091156 METAR KPWT 091156Z AUTO 00000KT 10SM CLR 07/07 A2996 RMK AO2 SLP148 6//// 7//// T00720072 10144 20072 50000=
202307091056 METAR KPWT 091056Z AUTO 00000KT 10SM CLR 09/08 A2996 RMK AO2 SLP148 T00890083=
202307090956 METAR KPWT 090956Z AUTO 00000KT 10SM CLR 08/08 A2996 RMK AO2 SLP148 T00830083=
202307090856 METAR KPWT 090856Z AUTO 05003KT 10SM CLR 09/09 A2996 RMK AO2 SLP146 6//// T00940089 53004=
202307090756 METAR KPWT 090756Z AUTO 00000KT 10SM CLR 10/09 A2995 RMK AO2 SLP144 T01000089 402390100=
202307090656 METAR KPWT 090656Z AUTO 00000KT 10SM CLR 12/09 A2995 RMK AO2 SLP143 T01170094=
202307090556 METAR KPWT 090556Z AUTO 20003KT 10SM CLR 15/11 A2994 RMK AO2 SLP143 T01500106 10239 20139 51011=
202307090456 METAR KPWT 090456Z AUTO 21005KT 10SM CLR 16/11 A2994 RMK AO2 SLP141 T01560111=
202307090356 METAR KPWT 090356Z AUTO 23006KT 10SM CLR 19/12 A2992 RMK AO2 SLP134 T01890117=
202307090256 METAR KPWT 090256Z AUTO 22006KT 10SM CLR 22/12 A2991 RMK AO2 SLP131 T02220117 55000=
202307090156 METAR KPWT 090156Z AUTO 23006KT 10SM CLR 24/11 A2990 RMK AO2 SLP126 T02390111=
202307090056 METAR KPWT 090056Z AUTO 22006KT 10SM CLR 24/11 A2990 RMK AO2 SLP129 T02390111=
202307082356 METAR KPWT 082356Z AUTO 27007KT 220V320 10SM CLR 24/11 A2991 RMK AO2 SLP131 T02390111 10239 20156=
202307082256 METAR KPWT 082256Z AUTO VRB04KT 10SM CLR 23/11 A2993 RMK AO2 SLP137 T02280111=
202307082156 METAR KPWT 082156Z AUTO 23008KT 10SM CLR 22/12 A2994 RMK AO2 SLP143 T02220117=
202307082056 METAR KPWT 082056Z AUTO 21009KT 10SM CLR 21/12 RMK AO2 SLPNO T02060117 $=
202307081956 METAR KPWT 081956Z AUTO 21007KT 170V240 10SM CLR 19/11 A2997 RMK AO2 SLP153 T01890111=
202307081919 SPECI KPWT 081919Z AUTO 16008KT 10SM SCT023 18/11 A2998 RMK AO2=
202307081856 METAR KPWT 081856Z AUTO 20007KT 10SM BKN021 17/11 A2999 RMK AO2 SLP157 T01720111=
202307081756 METAR KPWT 081756Z AUTO 20009KT 10SM OVC019 16/11 A3000 RMK AO2 SLP162 T01560111 10156 20106 50004=
202307081656 METAR KPWT 081656Z AUTO 22009KT 10SM OVC017 15/11 A3000 RMK AO2 SLP163 T01500106=
202307081556 METAR KPWT 081556Z AUTO 21008KT 10SM OVC015 14/11 A3000 RMK AO2 SLP163 T01440111=
202307081456 METAR KPWT 081456Z AUTO 22008KT 10SM OVC015 13/11 A2999 RMK AO2 SLP159 T01330106 51007=
202307081356 METAR KPWT 081356Z AUTO 22006KT 10SM OVC015 13/11 A2999 RMK AO2 SLP157 T01280106=
202307081314 SPECI KPWT 081314Z AUTO 21003KT 10SM BKN017 12/11 A2998 RMK AO2=
202307081256 METAR KPWT 081256Z AUTO 23004KT 10SM CLR 11/10 A2998 RMK AO2 SLP154 T01110100=
202307081156 METAR KPWT 081156Z AUTO 20005KT 10SM CLR 11/10 A2997 RMK AO2 SLP151 6//// 7//// T01110100 10128 20106 51003=
202307081056 METAR KPWT 081056Z AUTO 19003KT 10SM CLR 11/11 A2997 RMK AO2 SLP150 T01110106=
202307080956 METAR KPWT 080956Z AUTO 18004KT 10SM CLR 12/11 A2997 RMK AO2 SLP150 T01170106=
202307080856 METAR KPWT 080856Z AUTO 00000KT 10SM SCT011 12/11 A2996 RMK AO2 SLP147 T01220111 53009=
202307080844 SPECI KPWT 080844Z AUTO 18004KT 10SM BKN011 12/11 A2996 RMK AO2=
202307080756 METAR KPWT 080756Z AUTO 19005KT 10SM CLR 12/11 A2995 RMK AO2 SLP144 T01170111 402280117=
202307080656 METAR KPWT 080656Z AUTO 20004KT 10SM CLR 12/11 A2994 RMK AO2 SLP141 T01220111=
202307080556 METAR KPWT 080556Z AUTO 21006KT 10SM CLR 13/11 A2993 RMK AO2 SLP138 T01280111 10222 20128=
202307080456 METAR KPWT 080456Z AUTO 21007KT 10SM CLR 14/11 A2992 RMK AO2 SLP136 T01440111=
202307080356 METAR KPWT 080356Z AUTO 22007KT 10SM CLR 17/12 A2990 RMK AO2 SLP129 T01670117=
202307080256 METAR KPWT 080256Z AUTO 20008KT 10SM CLR 19/12 RMK AO2 SLPNO T01890122 $=
202307080156 METAR KPWT 080156Z AUTO 24009KT 10SM CLR 21/13 A2989 RMK AO2 SLP123 T02110128=
202307080056 METAR KPWT 080056Z AUTO 20008KT 10SM CLR 22/13 A2989 RMK AO2 SLP122 T02170128=
202307072356 METAR KPWT 072356Z AUTO 21011G16KT 10SM CLR 22/13 A2989 RMK AO2 SLP122 T02220133 10228 20161 56007=
202307072256 METAR KPWT 072256Z AUTO 19008KT 170V230 10SM CLR 23/13 A2989 RMK AO2 SLP124 T02280128=
202307072156 METAR KPWT 072156Z AUTO 20008G16KT 10SM CLR 23/13 A2989 RMK AO2 SLP126 T02280133=
202307072056 METAR KPWT 072056Z AUTO 21008KT 180V240 10SM CLR 21/13 A2991 RMK AO2 SLP130 T02110128 58008=
202307072019 SPECI KPWT 072019Z AUTO 18007G14KT 10SM SCT021 20/13 A2992 RMK AO2=
202307071956 METAR KPWT 071956Z AUTO 22008KT 170V240 10SM BKN021 18/13 A2992 RMK AO2 SLP136 T01830128=
202307071856 METAR KPWT 071856Z AUTO 19009KT 10SM OVC015 17/12 A2993 RMK AO2 SLP138 T01670122=
202307071756 METAR KPWT 071756Z AUTO 21007KT 10SM OVC015 16/12 A2993 RMK AO2 SLP139 T01610122 10161 20122 56002=
202307071752 SPECI KPWT 071752Z AUTO 21009KT 10SM OVC015 16/12 A2993 RMK AO2=
202307071656 METAR KPWT 071656Z AUTO 21007KT 10SM OVC011 15/12 A2993 RMK AO2 SLP140 T01500117=
202307071556 METAR KPWT 071556Z AUTO 22010KT 10SM OVC011 14/11 A2994 RMK AO2 SLP141 T01390111=
202307071456 METAR KPWT 071456Z AUTO 20009KT 10SM OVC007 13/12 A2994 RMK AO2 SLP140 T01280117 51006=
202307071449 SPECI KPWT 071449Z AUTO 20010KT 10SM OVC007 13/12 A2994 RMK AO2=
202307071356 METAR KPWT 071356Z AUTO 21006KT 10SM OVC005 12/12 A2994 RMK AO2 SLP140 T01220117=
202307071256 METAR KPWT 071256Z AUTO 20009KT 9SM OVC005 12/12 A2993 RMK AO2 SLP136 T01220117=
202307071156 METAR KPWT 071156Z AUTO 20009KT 10SM OVC005 12/12 A2992 RMK AO2 SLP132 6//// 7//// T01220117 10133 20111 53001=
202307071056 METAR KPWT 071056Z AUTO 21008KT 10SM OVC005 12/12 A2991 RMK AO2 SLP130 T01220117=
202307070956 METAR KPWT 070956Z AUTO 22006KT 10SM OVC005 13/12 A2991 RMK AO2 SLP130 T01280122=
202307070856 METAR KPWT 070856Z AUTO 22008KT 10SM OVC005 13/12 A2992 RMK AO2 SLP131 T01280122 53005=
202307070849 SPECI KPWT 070849Z AUTO 21007KT 10SM OVC005 13/12 A2992 RMK AO2=
202307070756 METAR KPWT 070756Z AUTO 21006KT 9SM BKN007 12/12 A2991 RMK AO2 SLP130 T01220117 402830111=
202307070749 SPECI KPWT 070749Z AUTO 21005KT 10SM BKN007 12/12 A2991 RMK AO2=
202307070737 SPECI KPWT 070737Z AUTO 22004KT 10SM SCT007 12/12 A2991 RMK AO2=
202307070656 METAR KPWT 070656Z AUTO 21005KT 10SM CLR 12/11 A2990 RMK AO2 SLP129 T01170111=
202307070556 METAR KPWT 070556Z AUTO 21006KT 10SM CLR 13/12 A2990 RMK AO2 SLP128 6//// T01330122 10283 20133 51011=
202307070456 METAR KPWT 070456Z AUTO 20006KT 10SM CLR 16/13 A2990 RMK AO2 SLP126 T01560128=
202307070356 METAR KPWT 070356Z AUTO 25006KT 10SM CLR 19/14 A2988 RMK AO2 SLP119 T01890139=
202307070256 METAR KPWT 070256Z AUTO 23009KT 10SM CLR 22/14 A2987 RMK AO2 SLP116 6//// T02220139 55000=
202307070156 METAR KPWT 070156Z AUTO 24007KT 10SM CLR 24/14 A2986 RMK AO2 SLP114 T02440144=
202307070056 METAR KPWT 070056Z AUTO 20007KT 10SM CLR 27/14 A2986 RMK AO2 SLP113 T02670139=
202307062356 METAR KPWT 062356Z AUTO 23008KT 10SM CLR 28/14 A2987 RMK AO2 SLP115 6//// T02780144 10283 20217 58015=
202307062256 METAR KPWT 062256Z AUTO 22009KT 10SM CLR 28/14 A2989 RMK AO2 SLP121 T02780139=
202307062156 METAR KPWT 062156Z AUTO 25009KT 10SM CLR 28/12 A2990 RMK AO2 SLP126 T02780122=
202307062056 METAR KPWT 062056Z AUTO 23007KT 10SM CLR 27/14 A2991 RMK AO2 SLP131 6//// T02670139=
202307061956 METAR KPWT 061956Z AUTO 22007KT 10SM CLR 26/14 A2992 RMK AO2 SLP134 T02560144=
202307061856 METAR KPWT 061856Z AUTO 27003KT 10SM CLR 24/14 RMK AO2 SLPNO T02390144 $=
202307061756 METAR KPWT 061756Z AUTO 20004KT 10SM CLR 22/13 A2994 RMK AO2 SLP140 6//// T02170133 10222 20122 51000=
202307061656 METAR KPWT 061656Z AUTO 23006KT 10SM CLR 20/14 A2994 RMK AO2 SLP141 T02000139=
202307061556 METAR KPWT 061556Z AUTO 22005KT 10SM CLR 17/13 A2995 RMK AO2 SLP143 T01720133=
202307061456 METAR KPWT 061456Z AUTO 21004KT 10SM CLR 16/13 A2994 RMK AO2 SLP140 T01560128 51008=
202307061356 METAR KPWT 061356Z AUTO 22004KT 10SM CLR 14/13 A2994 RMK AO2 SLP138 T01390128=
202307061256 METAR KPWT 061256Z AUTO 00000KT 10SM CLR 13/12 A2992 RMK AO2 SLP134 T01280122=
202307061156 METAR KPWT 061156Z AUTO 20003KT 10SM CLR 12/12 A2992 RMK AO2 SLP131 6//// 7//// T01220117 10194 20117 51003=
202307061056 METAR KPWT 061056Z AUTO 00000KT 10SM CLR 12/10 A2991 RMK AO2 SLP130 T01220100=
202307060956 METAR KPWT 060956Z AUTO 00000KT 10SM CLR 14/10 A2992 RMK AO2 SLP131 T01390100=
202307060856 METAR KPWT 060856Z AUTO 13003KT 10SM CLR 16/10 A2991 RMK AO2 SLP128 6//// T01560100 53002=
202307060756 METAR KPWT 060756Z AUTO 00000KT 10SM CLR 16/10 A2990 RMK AO2 SLP127 T01610100 403170106=
202307060656 METAR KPWT 060656Z AUTO 00000KT 10SM CLR 17/11 A2990 RMK AO2 SLP126 T01720106=
202307060556 METAR KPWT 060556Z AUTO 00000KT 10SM CLR 19/10 A2990 RMK AO2 SLP126 6//// T01940100 10317 20189 51008=
202307060456 METAR KPWT 060456Z AUTO 00000KT 8SM CLR 19/11 A2990 RMK AO2 SLP127 T01890106=
202307060356 METAR KPWT 060356Z AUTO 00000KT 10SM CLR 26/09 A2988 RMK AO2 SLP119 T02560089=
202307060256 METAR KPWT 060256Z AUTO 07004KT 10SM CLR 29/09 A2988 RMK AO2 SLP117 T02890094 55006=
202307060156 METAR KPWT 060156Z AUTO 05009KT 10SM CLR 31/09 A2988 RMK AO2 SLP117 T03060094=
202307060056 METAR KPWT 060056Z AUTO 06008KT 10SM CLR 31/10 A2989 RMK AO2 SLP122 T03110100=
202307052356 METAR KPWT 052356Z AUTO 07007KT 050V110 10SM CLR 32/11 A2990 RMK AO2 SLP125 T03170106 10317 20261 58016=
202307052256 METAR KPWT 052256Z AUTO 06007KT 010V080 10SM CLR 32/11 A2991 RMK AO2 SLP130 T03170111=
202307052156 METAR KPWT 052156Z AUTO 08007KT 10SM CLR 31/12 A2993 RMK AO2 SLP136 T03110117=
202307052056 METAR KPWT 052056Z AUTO 08005KT 10SM CLR 30/12 A2994 RMK AO2 SLP141 T03000117 58010=
202307051956 METAR KPWT 051956Z AUTO 09007KT 10SM CLR 28/13 A2996 RMK AO2 SLP146 T02830128=
202307051856 SPECI KPWT 051856Z AUTO 05006KT 10SM CLR 27/12 A2997 RMK AO2 SLP149 T02670122=
202307051856 METAR KPWT 051856Z AUTO 05006KT 10SM CLR 27/12 A2997 RMK AO2 SLP149 T02670122=
202307051756 METAR KPWT 051756Z AUTO 04005KT 10SM CLR 26/11 A2997 RMK AO2 SLP150 T02610111 10261 20106 58002=
202307051656 METAR KPWT 051656Z AUTO 05008KT 10SM CLR 24/10 A2998 RMK AO2 SLP150 T02440100=
202307051556 METAR KPWT 051556Z AUTO 04005KT 9SM CLR 24/08 A2998 RMK AO2 SLP152 T02390083=
202307051456 METAR KPWT 051456Z AUTO 05005KT 10SM CLR 22/08 A2998 RMK AO2 SLP151 T02220083 58001=
202307051356 METAR KPWT 051356Z AUTO 00000KT 10SM CLR 17/11 A2998 RMK AO2 SLP153 T01670111=
202307051256 METAR KPWT 051256Z AUTO 00000KT 10SM CLR 12/08 A2998 RMK AO2 SLP155 T01170083=
202307051156 METAR KPWT 051156Z AUTO 00000KT 10SM CLR 11/08 A2998 RMK AO2 SLP153 7//// T01110078 10178 20106 56004=
202307051056 METAR KPWT 051056Z AUTO 00000KT 10SM CLR 12/08 A2998 RMK AO2 SLP155 T01220083=
202307050956 METAR KPWT 050956Z AUTO 00000KT 10SM CLR 12/08 A2999 RMK AO2 SLP155 T01170083=
202307050856 METAR KPWT 050856Z AUTO 00000KT 8SM CLR 12/08 A2999 RMK AO2 SLP157 T01220083 58003=
202307050756 METAR KPWT 050756Z AUTO 13003KT 10SM CLR 14/09 A3000 RMK AO2 SLP160 T01440089 403060094=
202307050656 METAR KPWT 050656Z AUTO 00000KT 10SM CLR 16/08 A3000 RMK AO2 SLP159 T01560083=
202307050556 METAR KPWT 050556Z AUTO 00000KT 10SM CLR 18/08 A3000 RMK AO2 SLP161 T01780083 10306 20161 53003=
202307050456 METAR KPWT 050456Z AUTO 06005KT 10SM CLR 23/07 A3000 RMK AO2 SLP158 T02280072=
202307050356 METAR KPWT 050356Z AUTO 07005KT 10SM CLR 24/08 A2999 RMK AO2 SLP155 T02440078=
202307050256 METAR KPWT 050256Z AUTO 08005KT 10SM CLR 27/08 A2999 RMK AO2 SLP157 T02670083 56009=
202307050156 METAR KPWT 050156Z AUTO 06009KT 10SM CLR 29/08 A3000 RMK AO2 SLP159 T02890078=
202307050056 METAR KPWT 050056Z AUTO 03009KT 10SM CLR 30/08 A3001 RMK AO2 SLP162 T03000083=
202307042356 METAR KPWT 042356Z AUTO 04009KT 10SM CLR 30/08 A3002 RMK AO2 SLP166 T03000083 10300 20239 56012=
202307042256 METAR KPWT 042256Z AUTO 08007KT 10SM CLR 30/09 A3003 RMK AO2 SLP170 T03000089=
202307042156 METAR KPWT 042156Z AUTO 04007KT 10SM CLR 28/10 A3004 RMK AO2 SLP175 T02830100=
202307042056 METAR KPWT 042056Z AUTO 07006KT 10SM CLR 28/11 A3006 RMK AO2 SLP179 T02780106 56005=
202307041956 METAR KPWT 041956Z AUTO VRB06KT 10SM CLR 27/12 A3006 RMK AO2 SLP180 T02720117=
202307041856 METAR KPWT 041856Z AUTO 06007KT 010V080 10SM CLR 26/11 A3007 RMK AO2 SLP183 T02560111=
202307041756 METAR KPWT 041756Z AUTO 06009G14KT 10SM CLR 24/11 A3007 RMK AO2 SLP184 6//// T02390111 10239 20094 58004=
202307041656 METAR KPWT 041656Z AUTO 05009KT 10SM CLR 22/11 A3008 RMK AO2 SLP186 T02220111=
202307041556 METAR KPWT 041556Z AUTO 05011KT 10SM CLR 21/10 A3008 RMK AO2 SLP187 T02060100=
202307041456 METAR KPWT 041456Z AUTO 04005KT 10SM CLR 19/08 A3008 RMK AO2 SLP189 T01890083 51008=
202307041356 METAR KPWT 041356Z AUTO 06004KT 10SM CLR 16/10 A3008 RMK AO2 SLP185 T01560100=
202307041256 METAR KPWT 041256Z AUTO 00000KT 10SM CLR 11/08 A3007 RMK AO2 SLP184 T01060078=
202307041156 METAR KPWT 041156Z AUTO 00000KT 10SM CLR 10/08 A3006 RMK AO2 SLP180 T01000078 10144 20094 58000=
202307041056 METAR KPWT 041056Z AUTO 00000KT 10SM CLR 10/08 A3006 RMK AO2 SLP182 T01000078=
202307040956 METAR KPWT 040956Z AUTO 00000KT 10SM CLR 10/08 A3006 RMK AO2 SLP181 T01000078=
202307040856 METAR KPWT 040856Z AUTO 00000KT 10SM CLR 11/08 A3006 RMK AO2 SLP181 T01060083 51004=
202307040756 METAR KPWT 040756Z AUTO 00000KT 10SM CLR 12/08 A3006 RMK AO2 SLP180 T01170083 402720067=
202307040656 METAR KPWT 040656Z AUTO 00000KT 10SM CLR 13/09 A3005 RMK AO2 SLP179 T01330089=
202307040556 METAR KPWT 040556Z AUTO 00000KT 10SM CLR 14/09 A3005 RMK AO2 SLP177 T01390089 10272 20133 53006=
202307040456 METAR KPWT 040456Z AUTO 00000KT 10SM CLR 16/09 A3004 RMK AO2 SLP175 T01610094=
202307040356 METAR KPWT 040356Z AUTO 03004KT 10SM CLR 20/09 A3003 RMK AO2 SLP171 T02000089=
202307040256 METAR KPWT 040256Z AUTO 06006KT 10SM CLR 23/10 A3003 RMK AO2 SLP169 T02330100 56002=
202307040156 METAR KPWT 040156Z AUTO 06007KT 10SM CLR 26/11 A3003 RMK AO2 SLP170 T02560106=
202307040056 METAR KPWT 040056Z AUTO VRB05KT 10SM CLR 26/11 A3002 RMK AO2 SLP170 T02610106=
202307032356 METAR KPWT 032356Z AUTO 05007KT 10SM CLR 26/11 A3003 RMK AO2 SLP173 T02610111 10272 20217 56007=
202307032256 METAR KPWT 032256Z AUTO 09007KT 060V130 10SM CLR 27/11 A3004 RMK AO2 SLP175 T02720111=
202307032156 METAR KPWT 032156Z AUTO 05008KT 10SM CLR 27/12 A3005 RMK AO2 SLP178 T02670117=
202307032056 METAR KPWT 032056Z AUTO 08009KT 10SM CLR 26/11 A3006 RMK AO2 SLP180 T02560106 56011=
202307031956 METAR KPWT 031956Z AUTO 05006KT 10SM CLR 26/11 A3007 RMK AO2 SLP183 T02560106=
202307031856 METAR KPWT 031856Z AUTO 05006KT 10SM CLR 23/11 A3007 RMK AO2 SLP185 T02280106=
202307031756 METAR KPWT 031756Z AUTO 05006KT 10SM CLR 22/11 A3009 RMK AO2 SLP190 T02170106 10217 20067 50000=
202307031656 METAR KPWT 031656Z AUTO 05009KT 10SM CLR 21/10 A3009 RMK AO2 SLP192 T02060100=
202307031556 METAR KPWT 031556Z AUTO 05009KT 10SM CLR 19/10 A3010 RMK AO2 SLP192 T01890100=
202307031456 METAR KPWT 031456Z AUTO 05005KT 10SM CLR 17/09 A3009 RMK AO2 SLP190 T01670094 51005=
202307031356 METAR KPWT 031356Z AUTO 00000KT 10SM CLR 12/09 A3009 RMK AO2 SLP191 T01220094=
202307031256 METAR KPWT 031256Z AUTO 00000KT 10SM CLR 08/07 A3008 RMK AO2 SLP190 T00780072=
202307031156 METAR KPWT 031156Z AUTO 00000KT 10SM CLR 07/07 A3008 RMK AO2 SLP187 7//// T00720067 10183 20072 53004=
202307031056 METAR KPWT 031056Z AUTO 00000KT 10SM CLR 08/07 A3007 RMK AO2 SLP185 T00830072=
202307030956 METAR KPWT 030956Z AUTO 00000KT 10SM CLR 11/08 A3006 RMK AO2 SLP183 T01060078=
202307030856 METAR KPWT 030856Z AUTO 00000KT 10SM CLR 11/07 A3006 RMK AO2 SLP183 T01060072 53003=
202307030756 METAR KPWT 030756Z AUTO 06007KT 10SM CLR 16/08 A3006 RMK AO2 SLP179 T01610083 402610083=
202307030656 METAR KPWT 030656Z AUTO 04005KT 10SM CLR 17/07 A3006 RMK AO2 SLP180 T01670072=
202307030556 METAR KPWT 030556Z AUTO 04008KT 10SM CLR 18/06 A3005 RMK AO2 SLP178 6//// T01830061 10261 20178 58000=
202307030456 METAR KPWT 030456Z AUTO 00000KT 10SM CLR 18/07 A3006 RMK AO2 SLP181 T01830067=
202307030356 METAR KPWT 030356Z AUTO 04007KT 10SM CLR 21/07 A3005 RMK AO2 SLP178 T02110067=
202307030256 METAR KPWT 030256Z AUTO 07008KT 10SM CLR 23/08 A3005 RMK AO2 SLP179 T02330078 56007=
202307030156 METAR KPWT 030156Z AUTO 03010KT 10SM CLR 24/09 A3006 RMK AO2 SLP180 T02440089=
202307030056 METAR KPWT 030056Z AUTO 05008KT 10SM CLR 25/09 A3006 RMK AO2 SLP183 T02500094=
202307022356 METAR KPWT 022356Z AUTO 02009KT 10SM CLR 26/11 A3008 RMK AO2 SLP187 6//// T02560106 10261 20206 57014=
202307022256 METAR KPWT 022256Z AUTO 03009KT 10SM CLR 26/11 A3009 RMK AO2 SLP191 T02560106=
202307022156 METAR KPWT 022156Z AUTO VRB06KT 10SM CLR 25/10 A3010 RMK AO2 SLP195 T02500100=
202307022056 METAR KPWT 022056Z AUTO 09006KT 10SM CLR 24/09 A3012 RMK AO2 SLP200 6//// T02440094 58015=
202307021956 METAR KPWT 021956Z AUTO 07005KT 10SM CLR 23/09 A3013 RMK AO2 SLP206 T02330094=
202307021856 METAR KPWT 021856Z AUTO 07006KT 10SM CLR 22/09 A3015 RMK AO2 SLP211 T02220089=
202307021756 METAR KPWT 021756Z AUTO 04008KT 10SM CLR 21/10 A3016 RMK AO2 SLP216 T02060100 10206 20083 56006=
202307021656 METAR KPWT 021656Z AUTO 05007KT 10SM CLR 20/11 A3017 RMK AO2 SLP217 T02000106=
202307021556 METAR KPWT 021556Z AUTO 03008KT 10SM CLR 18/11 A3018 RMK AO2 SLP221 T01780111=
202307021456 METAR KPWT 021456Z AUTO 00000KT 10SM CLR 15/11 A3018 RMK AO2 SLP221 T01500111 51008=
202307021356 METAR KPWT 021356Z AUTO 00000KT 10SM CLR 13/11 A3018 RMK AO2 SLP222 T01280111=
202307021256 METAR KPWT 021256Z AUTO 00000KT 10SM CLR 09/09 A3016 RMK AO2 SLP218 T00890089=
202307021156 METAR KPWT 021156Z AUTO 00000KT 10SM CLR 09/09 A3016 RMK AO2 SLP215 T00940089 10150 20094 53001=
202307021056 METAR KPWT 021056Z AUTO 00000KT 10SM CLR 11/09 A3015 RMK AO2 SLP214 T01060094=
202307020956 METAR KPWT 020956Z AUTO 00000KT 10SM CLR 11/09 A3015 RMK AO2 SLP214 T01110094=
202307020856 METAR KPWT 020856Z AUTO 05003KT 10SM CLR 12/11 A3015 RMK AO2 SLP214 T01220106 56004=
202307020756 METAR KPWT 020756Z AUTO 05005KT 10SM CLR 14/11 A3016 RMK AO2 SLP214 T01390111 402610067=
202307020656 METAR KPWT 020656Z AUTO 03004KT 10SM CLR 14/11 A3016 RMK AO2 SLP216 T01440111=
202307020556 METAR KPWT 020556Z AUTO 05005KT 10SM CLR 15/11 A3017 RMK AO2 SLP218 T01500106 10256 20150 51007=
202307020456 METAR KPWT 020456Z AUTO 07004KT 10SM CLR 16/11 A3017 RMK AO2 SLP218 T01610111=
202307020356 METAR KPWT 020356Z AUTO 06004KT 10SM CLR 18/12 A3015 RMK AO2 SLP213 T01780117=
202307020256 METAR KPWT 020256Z AUTO 05009KT 10SM CLR 21/10 A3015 RMK AO2 SLP210 T02110100 56004=
202307020156 METAR KPWT 020156Z AUTO 05011KT 10SM CLR 23/10 A3015 RMK AO2 SLP212 T02280100=
202307020056 METAR KPWT 020056Z AUTO 05009KT 10SM CLR 24/08 A3015 RMK AO2 SLP213 T02440083=
202307012356 METAR KPWT 012356Z AUTO 06009KT 10SM CLR 26/08 A3016 RMK AO2 SLP216 T02560078 10261 20194 56013=
202307012256 METAR KPWT 012256Z AUTO 08007KT 10SM CLR 24/09 A3017 RMK AO2 SLP219 T02440089=
202307012156 METAR KPWT 012156Z AUTO 25005KT 10SM CLR 24/09 A3018 RMK AO2 SLP223 T02440094=
202307012056 METAR KPWT 012056Z AUTO VRB04KT 10SM CLR 23/09 A3020 RMK AO2 SLP228 T02330094 58004=
202307011956 METAR KPWT 011956Z AUTO 24004KT 10SM CLR 23/10 A3021 RMK AO2 SLP232 T02280100=
202307011856 METAR KPWT 011856Z AUTO VRB04KT 10SM CLR 22/10 A3021 RMK AO2 SLP233 T02170100=
202307011756 METAR KPWT 011756Z AUTO VRB04KT 10SM CLR 19/09 A3021 RMK AO2 SLP233 T01940089 10200 20067 51007=
202307011656 METAR KPWT 011656Z AUTO 09005KT 10SM CLR 18/08 A3020 RMK AO2 SLP231 T01830083=
202307011556 METAR KPWT 011556Z AUTO VRB03KT 10SM CLR 16/09 A3020 RMK AO2 SLP229 T01610094=
202307011456 METAR KPWT 011456Z AUTO 00000KT 10SM CLR 15/09 A3019 RMK AO2 SLP225 T01500094 51013=
202307011356 METAR KPWT 011356Z AUTO 00000KT 10SM CLR 11/10 A3019 RMK AO2 SLP225 T01110100=
202307011256 METAR KPWT 011256Z AUTO 00000KT 9SM CLR 08/08 A3017 RMK AO2 SLP219 T00830078=
202307011156 METAR KPWT 011156Z AUTO 00000KT 10SM CLR 08/08 A3015 RMK AO2 SLP213 7//// T00830078 10156 20072 51012=
202307011056 METAR KPWT 011056Z AUTO 00000KT 10SM CLR 09/08 A3015 RMK AO2 SLP212 T00890078=
202307010956 METAR KPWT 010956Z AUTO 00000KT 10SM CLR 09/08 A3013 RMK AO2 SLP205 T00940083=
202307010856 METAR KPWT 010856Z AUTO 00000KT 10SM CLR 11/08 A3012 RMK AO2 SLP201 T01060083 53008=
202307010756 METAR KPWT 010756Z AUTO 15003KT 10SM CLR 13/10 A3011 RMK AO2 SLP197 T01280100 402670094=
202307010656 METAR KPWT 010656Z AUTO 00000KT 10SM CLR 14/09 A3010 RMK AO2 SLP194 T01390094=
202307010556 METAR KPWT 010556Z AUTO 13003KT 10SM FEW055 16/10 A3009 RMK AO2 SLP192 6//// T01560100 10256 20156 51012=
202307010456 METAR KPWT 010456Z AUTO 00000KT 10SM CLR 17/09 A3009 RMK AO2 SLP190 T01720094=
202307010356 METAR KPWT 010356Z AUTO 08004KT 10SM CLR 20/08 A3006 RMK AO2 SLP182 T02000083=
202307010256 METAR KPWT 010256Z AUTO 06007KT 10SM CLR 22/12 A3006 RMK AO2 SLP180 T02220117 55002=
202307010156 METAR KPWT 010156Z AUTO 05007KT 10SM CLR 24/14 A3005 RMK AO2 SLP178 T02440144=
202307010056 METAR KPWT 010056Z AUTO 06007KT 10SM CLR 25/16 A3006 RMK AO2 SLP179 T02500156=

# No short TAF reports from KPWT in databse.

###################################
#  large TAF from KPWT
###################################
202307312320 TAF KPWT 312320Z 0100/0124 05009KT P6SM SKC FM010500 05004KT P6SM
                       SKC FM011000 00000KT P6SM SKC FM011600 06003KT
                       P6SM SKC=
202307311720 TAF KPWT 311720Z 3118/0118 28005KT P6SM SKC FM311900 04005KT P6SM
                       FEW250 FM312200 05009KT P6SM SCT250 FM010500
                       05004KT P6SM SKC FM011000 00000KT P6SM SKC=
202307311120 TAF KPWT 311120Z 3112/0112 00000KT P6SM FEW050 FM311900 04005KT
                       P6SM FEW250 FM312200 05011KT P6SM SCT250
                       FM010500 05004KT P6SM SKC=
202307310520 TAF KPWT 310520Z 3106/0106 05006KT P6SM SKC FM311000 00000KT P6SM
                       SCT250 FM311400 00000KT P6SM BKN015 FM311900
                       07005KT P6SM SCT020 SCT250 FM312200 05008KT
                       P6SM SCT250=
202307302327 TAF KPWT 302327Z 3100/3124 04007KT P6SM BKN050 FM310200 05006KT
                       P6SM SKC FM311000 00000KT P6SM SCT250 FM311400
                       00000KT P6SM BKN015=
202307301724 TAF KPWT 301724Z 3018/3118 21005KT P6SM BKN040 FM302100 23008KT
                       P6SM BKN070 FM310200 05006KT P6SM SKC FM311000
                       00000KT P6SM SCT250=
202307301124 TAF KPWT 301124Z 3012/3112 VRB03KT P6SM OVC035 FM301800 21005KT
                       P6SM BKN040 FM302100 23008KT P6SM FEW040
                       FM310200 05006KT P6SM SKC=
202307300520 TAF KPWT 300520Z 3006/3106 VRB03KT P6SM SCT250 FM301100 00000KT
                       P6SM OVC015 FM301500 20004KT P6SM OVC007
                       FM301800 21005KT P6SM SCT010 BKN040 FM302100
                       23008KT P6SM SCT040 SCT250 FM310200 07006KT
                       P6SM SCT250=
202307292334 TAF KPWT 292334Z 3000/3024 22005KT P6SM BKN250 FM300300 21003KT
                       P6SM BKN250 FM301100 00000KT P6SM OVC015
                       FM301500 20004KT P6SM OVC007=
202307291733 TAF KPWT 291733Z 2918/3018 22006KT P6SM SCT250 FM292000 22005KT
                       P6SM BKN250 FM300200 21003KT P6SM BKN250
                       FM301100 19004KT P6SM OVC004=
202307291138 TAF KPWT 291138Z 2912/3012 19004KT P6SM OVC003 FM291400 19004KT
                       2SM BR OVC002 FM291700 19004KT P6SM OVC006
                       FM291800 22006KT P6SM SCT250 FM300200 VRB03KT
                       P6SM BKN250 FM301100 19004KT P6SM OVC004=
202307290520 TAF KPWT 290520Z 2906/3006 VRB03KT P6SM SCT250 FM291100 20002KT
                       6SM BR OVC015
                      TEMPO 2912/2916 4SM BR OVC007 FM291800 22006KT
                       P6SM SCT020 BKN250 FM300200 14004KT P6SM
                       BKN250=
202307282320 TAF KPWT 282320Z 2900/2924 24005KT P6SM SCT050 FM290300 VRB03KT
                       P6SM SCT250 FM291100 20002KT 6SM BR OVC015=
202307281832 KPWT 281832Z 2819/2918 22005KT P6SM SCT013 FM282000 21004KT P6SM
                       BKN025 FM282300 VRB05KT P6SM SCT250 FM291100
                       20002KT 6SM BR OVC015=
202307281720 TAF KPWT 281720Z 2818/2918 22005KT P6SM OVC005 FM282000 21004KT
                       P6SM BKN025 FM282300 VRB05KT P6SM SCT250
                       FM291100 20002KT 6SM BR OVC015=
202307281140 TAF KPWT 281140Z 2812/2912 19003KT 1/4SM FG OVC003 FM281700 21003KT
                       6SM BR BKN010 FM281800 22004KT P6SM SCT020
                       SCT250 FM282300 VRB05KT P6SM SCT250 FM291100
                       20002KT 6SM BR OVC015=
202307281043 KPWT 281043Z 2811/2906 19003KT 1SM BR OVC003 FM281600 21003KT 6SM
                       BR BKN010 FM281800 22004KT P6SM SCT020 SCT250
                       FM282100 23006KT P6SM SCT250 FM290100 16006KT
                       P6SM BKN250=
202307280520 TAF KPWT 280520Z 2806/2906 VRB03KT P6SM FEW250 FM281200 VRB03KT
                       P6SM OVC015 FM281800 22004KT P6SM SCT020
                       SCT250 FM282100 23006KT P6SM SCT250 FM290100
                       16006KT P6SM BKN250=
202307272320 TAF KPWT 272320Z 2800/2824 00000KT P6SM BKN060 FM280600 12002KT
                       P6SM FEW250 FM281200 VRB03KT P6SM OVC015
                       FM281800 22005KT P6SM SCT250=
202307271720 TAF KPWT 271720Z 2718/2818 27005KT P6SM SKC FM272200 08005KT P6SM
                       SCT250 FM280600 12002KT P6SM FEW250 FM281200
                       VRB03KT P6SM OVC020=
202307271139 TAF KPWT 271139Z 2712/2812 00000KT P6SM SCT250 FM271800 25005KT
                       P6SM FEW250 FM280600 12002KT P6SM FEW250=
202307270537 TAF KPWT 270537Z 2706/2806 04007KT P6SM BKN250 FM271100 00000KT
                       P6SM SCT250 FM271800 22005KT P6SM FEW250=
202307262320 TAF KPWT 262320Z 2700/2724 36010KT P6SM SKC FM270500 VRB03KT P6SM
                       FEW250 FM271100 00000KT P6SM SCT250 FM271800
                       22005KT P6SM FEW250=
202307261720 TAF KPWT 261720Z 2618/2718 05007KT P6SM SCT035 SCT100 FM262100
                       05009KT P6SM SKC FM270500 VRB03KT P6SM FEW250=
202307261138 TAF KPWT 261138Z 2612/2712 03004KT P6SM SCT040 BKN060 FM261600
                       05007KT P6SM OVC050 FM270500 VRB03KT P6SM
                       FEW250=
202307260538 TAF KPWT 260538Z 2606/2706 04010KT P6SM BKN035 FM261000 VRB04KT
                       P6SM OVC020 FM261600 03007KT P6SM OVC050
                       FM270500 VRB02KT P6SM FEW250=
202307252327 TAF KPWT 252327Z 2600/2624 22012G20KT P6SM BKN050 FM260100 04010KT
                       P6SM BKN070 FM261000 VRB04KT P6SM OVC030
                       TEMPO 2613/2615 OVC015 FM261600 05004KT
                       P6SM OVC050=
202307251755 TAF KPWT 251755Z 2518/2618 21010KT P6SM SCT010 FM252100 22012G20KT
                       P6SM BKN050 FM260100 04010KT P6SM BKN070
                       FM261000 VRB04KT P6SM OVC030
                      TEMPO 2613/2615 OVC015=
202307251137 TAF KPWT 251137Z 2512/2612 21004KT 6SM BR BKN004 FM251500 20005KT
                       P6SM OVC015 FM251900 21010G18KT P6SM BKN025
                       FM252100 22012G20KT P6SM BKN050 FM260100
                       04010KT P6SM BKN070=
202307250538 TAF KPWT 250538Z 2506/2606 20008KT P6SM SCT010 FM251100 21004KT
                       6SM BR OVC003 FM251800 21010G18KT P6SM BKN050=
202307250123 KPWT 250123Z 2501/2524 21012G22KT P6SM -RA BKN030
                      TEMPO 2501/2503 6SM RA BKN006 FM250300 21007KT
                       P6SM OVC030 FM250600 21010KT P6SM -SHRA
                       OVC025 FM251100 21004KT 6SM BR OVC003=
202307242320 TAF KPWT 242320Z 2500/2524 21012G22KT P6SM -RA OVC015 FM250200
                       21013G23KT 6SM -RA BR OVC007 FM250600 21010KT
                       P6SM -SHRA OVC025 FM251100 21004KT 6SM BR
                       OVC003=
202307242100 KPWT 242100Z 2421/2518 21012G22KT P6SM -SHRA BKN015 OVC025
                      TEMPO 2421/2422 BKN006 BKN010 FM250200 21013G23KT
                       6SM -SHRA BR OVC015 FM250600 21010KT P6SM
                       BKN030=
202307241724 TAF KPWT 241724Z 2418/2518 21010KT P6SM -SHRA SCT010 BKN030 OVC035
                       TEMPO 2418/2419 OVC006 FM241900 21012G22KT
                       P6SM -SHRA OVC020 FM250200 21013G23KT 6SM
                       -RA BR OVC015 FM250600 21010KT P6SM BKN030=
202307241249 KPWT 241249Z 2413/2512 21006KT P6SM OVC010 FM241500 21010KT P6SM
                       -RA SCT010 BKN030 OVC035 FM241900 21012G22KT
                       P6SM -SHRA OVC015 FM250700 21008KT P6SM
                       BKN015=
202307241132 TAF KPWT 241132Z 2412/2512 21006KT P6SM SCT010 OVC120
                      TEMPO 2412/2415 BKN010 FM241500 21010KT P6SM
                       -RA SCT015 BKN025 OVC035 FM241900 21012G22KT
                       P6SM -SHRA OVC015 FM250700 21008KT P6SM
                       BKN015=
202307240534 TAF KPWT 240534Z 2406/2506 00000KT P6SM SCT100 FM241100 21005KT
                       P6SM BKN050 OVC250 FM241600 21010KT P6SM
                       -RA OVC040 FM242100 21015KT P6SM -SHRA OVC020=
202307232329 TAF KPWT 232329Z 2400/2424 22007KT P6SM FEW250 FM240900 VRB04KT
                       P6SM BKN250 FM241100 21005KT P6SM BKN050
                       OVC250 FM241600 21010KT P6SM -RA OVC040
                       FM242100 21015KT P6SM -SHRA OVC020=
202307231733 TAF KPWT 231733Z 2318/2418 22007KT P6SM FEW250 FM240900 VRB04KT
                       P6SM BKN250 FM241100 21005KT P6SM BKN050
                       OVC250 FM241600 21010KT P6SM -RA OVC040=
202307231120 TAF KPWT 231120Z 2312/2412 VRB03KT P6SM FEW250 FM231700 22007KT
                       P6SM FEW250 FM240900 19005KT P6SM BKN250=
202307230531 TAF KPWT 230531Z 2306/2406 VRB03KT P6SM SCT080 FM231700 22007KT
                       P6SM SCT150=
202307222322 TAF KPWT 222322Z 2300/2324 06007KT P6SM FEW050 FM230100 10010G15KT
                       P6SM SCT150 FM230600 VRB03KT P6SM SCT010
                       FM231700 22007KT P6SM SCT150=
202307222055 KPWT 222055Z 2221/2318 21010G15KT P6SM SCT010 FM230100 10010G15KT
                       P6SM SCT250 FM230600 VRB03KT P6SM FEW003
                       FM231700 VRB02KT P6SM SCT250=
202307221736 TAF KPWT 221736Z 2218/2318 21007KT P6SM SCT010 FM221900 22009KT
                       P6SM SCT250 FM230200 10009KT P6SM SCT250
                       FM230600 VRB03KT P6SM FEW003 FM231700 VRB02KT
                       P6SM SCT250=
202307221352 KPWT 221352Z 2214/2312 00000KT P6SM OVC003
                      TEMPO 2214/2216 2SM BR FM221800 22009KT P6SM
                       SCT200 FM230300 VRB03KT P6SM SCT200 FM231000
                       VRB03KT P6SM FEW003=
202307221126 TAF KPWT 221126Z 2212/2312 00000KT P6SM OVC005 FM221800 22009KT
                       P6SM SCT200 FM230300 VRB03KT P6SM SCT200
                       FM231000 VRB03KT P6SM FEW003=
202307220959 KPWT 220959Z 2210/2306 00000KT P6SM OVC004 FM221700 21006KT P6SM
                       SCT010 SCT200 FM222000 21009KT P6SM SCT200=
202307220520 TAF KPWT 220520Z 2206/2306 07004KT P6SM SCT200 FM221100 18004KT
                       P6SM OVC006 FM221700 21006KT P6SM SCT010
                       SCT200 FM222000 21009KT P6SM SCT200=
202307212335 TAF KPWT 212335Z 2200/2224 VRB05KT P6SM SCT200 FM221100 18004KT
                       P6SM OVC006 FM221700 21006KT P6SM SCT010
                       SCT200 FM222000 21009KT P6SM SCT200=
202307211723 TAF KPWT 211723Z 2118/2218 20006KT P6SM BKN008 FM212000 22007KT
                       P6SM FEW010 SCT200 FM221100 18004KT P6SM
                       OVC006 FM221700 21007KT P6SM SCT010=
202307211302 KPWT 211302Z 2113/2212 VRB04KT 2SM -RA BR OVC004 FM211700 VRB04KT
                       P6SM BKN012 FM211800 VRB04KT P6SM BKN030
                       FM212100 06006KT P6SM FEW200 FM221000 VRB04KT
                       P6SM OVC010=
202307211120 TAF KPWT 211120Z 2112/2212 VRB04KT P6SM OVC004 FM211700 VRB04KT
                       P6SM BKN012 FM211800 VRB04KT P6SM BKN030
                       FM212100 06006KT P6SM FEW200 FM221000 VRB04KT
                       P6SM OVC010=
202307210806 KPWT 210806Z 2108/2206 VRB04KT P6SM OVC008 FM211700 20005KT P6SM
                       FEW011 SCT200 FM212100 06006KT P6SM FEW200=
202307210526 TAF KPWT 210526Z 2106/2206 20007KT P6SM FEW200 FM210900 19006KT
                       P6SM BKN008 FM211700 20005KT P6SM FEW011
                       SCT200 FM212100 06006KT P6SM FEW200=
202307202320 TAF KPWT 202320Z 2100/2124 19009KT P6SM SCT200 FM210400 20007KT
                       P6SM FEW200 FM211100 19006KT P6SM BKN008
                       FM211700 20005KT P6SM FEW011 SCT200 FM212100
                       06006KT P6SM FEW200=
202307201720 TAF KPWT 201720Z 2018/2118 22007KT P6SM SCT250 FM210100 22009KT
                       P6SM FEW250 FM211100 19006KT P6SM BKN006=
202307201358 KPWT 201358Z 2014/2112 22007KT P6SM OVC003 FM201600 22009KT P6SM
                       SCT250 FM210100 VRB04KT P6SM FEW250 FM211100
                       20003KT P6SM BKN010=
202307201121 TAF KPWT 201121Z 2012/2112 VRB04KT P6SM SKC FM201500 22009KT P6SM
                       SCT250 FM210100 VRB04KT P6SM FEW250 FM211100
                       20003KT P6SM BKN010=
202307200521 TAF KPWT 200521Z 2006/2106 VRB05KT P6SM FEW250 FM201500 20009KT
                       P6SM SCT250=
202307192332 TAF KPWT 192332Z 2000/2024 04009KT P6SM FEW250 FM200800 VRB03KT
                       P6SM FEW250 FM201700 20009KT P6SM SCT250=
202307191726 TAF KPWT 191726Z 1918/2018 00000KT P6SM SKC FM200000 04008KT P6SM
                       SKC FM200500 VRB03KT P6SM SKC FM201500 20004KT
                       P6SM SKC=
202307191125 TAF KPWT 191125Z 1912/2012 VRB03KT P6SM SKC FM191700 05007KT P6SM
                       SKC FM200000 05010KT P6SM SKC FM200400 VRB04KT
                       P6SM SKC=
202307190520 TAF KPWT 190520Z 1906/2006 VRB03KT P6SM FEW250 FM191500 05006KT
                       P6SM FEW250=
202307182332 TAF KPWT 182332Z 1900/1924 04007G15KT P6SM SKC FM190600 VRB02KT
                       P6SM SKC FM191700 05005KT P6SM SCT250=
202307181737 TAF KPWT 181737Z 1818/1918 VRB02KT P6SM SKC FM181900 04007KT P6SM
                       SKC FM191100 VRB01KT P6SM SKC=
202307181124 TAF KPWT 181124Z 1812/1912 VRB03KT P6SM SKC FM181800 04007KT P6SM
                       SCT250 FM182200 04010KT P6SM SKC FM190400
                       05005KT P6SM SKC=
202307180523 TAF KPWT 180523Z 1806/1906 07005KT P6SM SCT250 FM181200 VRB03KT
                       P6SM FEW020 SCT250 FM181800 04007KT P6SM
                       SCT250=
202307172330 TAF KPWT 172330Z 1800/1824 22011G19KT P6SM BKN050 FM180300 05007KT
                       P6SM SCT200
                      TEMPO 1813/1814 BKN020=
202307171736 TAF KPWT 171736Z 1718/1818 18007KT P6SM BKN025 FM172000 22011G19KT
                       P6SM SCT025 BKN050 FM180300 05007KT P6SM
                       SCT200=
202307171339 KPWT 171339Z 1714/1812 21003KT P6SM OVC013
                      TEMPO 1714/1715 BKN040 FM171600 20010KT P6SM
                       OVC015 FM172100 22011G19KT P6SM SCT025 BKN050
                       FM180300 05007KT P6SM BKN100=
202307171129 TAF KPWT 171129Z 1712/1812 21003KT P6SM OVC013 FM171600 20010KT
                       P6SM OVC015 FM172100 22011G19KT P6SM SCT025
                       BKN050 FM180300 05007KT P6SM BKN100=
202307170548 TAF KPWT 170548Z 1706/1806 18005KT P6SM SKC FM170700 21003KT P6SM
                       OVC020 FM171300 21003KT P6SM OVC007 FM171500
                       20006KT P6SM OVC015 FM172000 22011G19KT
                       P6SM SCT020 BKN040=
202307162323 TAF KPWT 162323Z 1700/1724 21005KT P6SM BKN200 FM170700 21003KT
                       P6SM OVC020 FM171300 21003KT P6SM OVC007
                       FM171500 20006KT P6SM OVC015 FM172000 22011G19KT
                       P6SM SCT020 BKN040=
202307161727 TAF KPWT 161727Z 1618/1718 VRB03KT P6SM SCT200 FM162100 21005KT
                       P6SM FEW250 FM171100 20002KT P6SM OVC015=
202307161125 TAF KPWT 161125Z 1612/1712 00000KT P6SM SKC FM161500 VRB03KT P6SM
                       SCT050 FM162100 21005KT P6SM FEW250 FM170000
                       20008KT P6SM BKN250=
202307160544 TAF KPWT 160544Z 1606/1706 08003KT P6SM SKC
                      TEMPO 1613/1615 BKN020 FM161500 VRB03KT P6SM
                       SCT030 FM162100 25004KT P6SM FEW250=
202307152347 TAF KPWT 152347Z 1600/1624 06006KT P6SM FEW250 FM160500 08003KT
                       P6SM SKC
                      TEMPO 1613/1615 BKN020 FM161500 VRB03KT P6SM
                       SCT030 FM162100 25004KT P6SM FEW250=
202307151737 TAF KPWT 151737Z 1518/1618 03006KT P6SM SKC FM160000 03008KT P6SM
                       SKC FM160500 08003KT P6SM SKC=
202307151125 TAF KPWT 151125Z 1512/1612 VRB03KT P6SM SKC FM151900 05004KT P6SM
                       SCT250 FM160000 03008KT P6SM SKC=
202307150520 TAF KPWT 150520Z 1506/1606 VRB03KT P6SM SKC FM151900 05009KT P6SM
                       SCT250=
202307142321 TAF KPWT 142321Z 1500/1524 05008KT P6SM SKC FM150700 05002KT P6SM
                       SKC FM152000 05007KT P6SM SCT250=
202307141723 TAF KPWT 141723Z 1418/1518 VRB03KT P6SM SKC FM142000 06006KT P6SM
                       SKC FM150800 VRB02KT P6SM SKC=
202307141120 TAF KPWT 141120Z 1412/1512 VRB03KT P6SM SKC FM142000 05008KT P6SM
                       SKC FM150000 06008KT P6SM SKC=
202307140527 TAF KPWT 140527Z 1406/1506 05007KT P6SM SKC FM141100 VRB03KT P6SM
                       SCT005 SCT250 FM142000 05008KT P6SM SKC=
202307132323 TAF KPWT 132323Z 1400/1424 05007KT P6SM FEW050 FM140700 05002KT
                       P6SM SKC FM142000 05008KT P6SM SKC=
202307131730 TAF KPWT 131730Z 1318/1418 21005KT P6SM FEW015 FM132300 05006KT
                       P6SM SCT250 FM140700 00000KT P6SM SKC=
202307131439 KPWT 131439Z 1315/1412 VRB03KT P6SM SCT006
                      TEMPO 1315/1317 OVC006 FM131700 21005KT P6SM
                       FEW015 FM132100 05006KT P6SM SCT250=
202307131120 TAF KPWT 131120Z 1312/1412 00000KT P6SM SKC FM131400 VRB03KT P6SM
                       BKN025 FM131700 21005KT P6SM SCT030 FM132100
                       05006KT P6SM SCT250=
202307130525 TAF KPWT 130525Z 1306/1406 VRB04KT P6SM SCT090 FM131100 20003KT
                       3SM BR OVC005 FM131700 21005KT P6SM SCT010
                       BKN020 FM132100 05006KT P6SM SCT250=
202307122336 TAF KPWT 122336Z 1300/1324 VRB04KT P6SM SCT040 BKN200 FM130600
                       16004KT P6SM BKN150 FM131200 19003KT 3SM
                       BR OVC005 FM131700 VRB05KT P6SM SCT010 BKN020
                       FM132000 17006KT P6SM SCT050=
202307121733 TAF KPWT 121733Z 1218/1318 VRB04KT P6SM OVC010 FM122100 22008KT
                       P6SM SCT010 BKN100 FM130600 16004KT P6SM
                       BKN150 FM131200 19003KT P6SM OVC007=
202307121647 KPWT 121647Z 1217/1312 17004KT P6SM OVC006 FM121800 21006KT P6SM
                       SCT020 BKN040 FM130200 20007KT P6SM SKC=
202307121501 KPWT 121501Z 1215/1312 22004KT P6SM OVC002 FM121800 21006KT P6SM
                       SCT020 BKN040 FM130200 20007KT P6SM SKC=
202307121343 KPWT 121343Z 1214/1312 VRB03KT P6SM OVC002
                      TEMPO 1214/1215 1SM BR FM121500 21004KT P6SM
                       OVC070 FM121800 21006KT P6SM SCT020 BKN040
                       FM130200 20007KT P6SM SKC=
202307121223 KPWT 121223Z 1212/1312 VRB03KT P6SM OVC002 FM121500 21004KT P6SM
                       OVC070 FM121800 21006KT P6SM SCT020 BKN040
                       FM130200 20007KT P6SM SKC=
202307121120 TAF KPWT 121120Z 1212/1312 VRB03KT P6SM SKC
                      TEMPO 1212/1214 OVC015 FM121500 21004KT P6SM
                       OVC070 FM121800 21006KT P6SM SCT020 BKN040
                       FM130200 20007KT P6SM SKC=
202307120523 TAF KPWT 120523Z 1206/1306 13006KT P6SM FEW040 FM120800 VRB02KT
                       P6SM BKN050 FM121000 VRB03KT P6SM OVC015
                       FM121800 21006KT P6SM SCT020 BKN040=
202307112328 TAF KPWT 112328Z 1200/1224 22007KT P6SM FEW040 FM120300 13006KT
                       P6SM FEW040 FM120800 VRB02KT P6SM BKN050
                       FM121000 VRB03KT P6SM OVC010 FM121800 21006KT
                       P6SM OVC020=
202307112102 KPWT 112102Z 1121/1218 22005KT P6SM SCT040 SCT250 FM120200 18008KT
                       P6SM SCT020 SCT250 FM121000 VRB04KT P6SM
                       OVC010=
202307111739 TAF KPWT 111739Z 1118/1218 VRB04KT P6SM SCT020 BKN050 FM112100
                       22005KT P6SM SCT020 SCT250 FM120200 18008KT
                       P6SM SCT020 SCT250 FM121000 VRB04KT P6SM
                       OVC010=
202307111120 TAF KPWT 111120Z 1112/1212 00000KT P6SM SKC FM111400 00000KT P6SM
                       BKN020 FM111600 21003KT P6SM BKN040 FM112000
                       22004KT P6SM SCT020 BKN050 FM120000 19006KT
                       P6SM BKN250=
202307110532 TAF KPWT 110532Z 1106/1206 22008KT P6SM SCT045 FM111000 19002KT
                       P6SM BKN007 FM111600 21003KT P6SM OVC015
                       FM112000 22004KT P6SM SCT020 BKN050=
202307102330 TAF KPWT 102330Z 1100/1124 21009KT P6SM BKN040 FM110400 22010KT
                       P6SM FEW050 FM111000 19002KT P6SM BKN007
                       FM111600 21003KT P6SM OVC015 FM112000 22004KT
                       P6SM SCT020 BKN050=
202307102114 KPWT 102114Z 1021/1118 21010KT P6SM OVC035 FM102200 21009KT P6SM
                       BKN040 FM110400 22010KT P6SM FEW050 BKN250
                       FM111000 22006KT P6SM BKN030
                      TEMPO 1112/1116 OVC020=
202307101733 TAF KPWT 101733Z 1018/1118 20007KT P6SM OVC010 FM102000 21009KT
                       P6SM BKN020 FM102300 21009KT P6SM BKN050
                       FM110400 22010KT P6SM FEW050 BKN250 FM111000
                       22006KT P6SM BKN030
                      TEMPO 1112/1116 OVC020=
202307101124 TAF KPWT 101124Z 1012/1112 20007KT P6SM OVC010 FM102000 21009KT
                       P6SM BKN020 FM102300 21009KT P6SM BKN050
                       FM110400 22010KT P6SM FEW050 BKN250=
202307100555 TAF KPWT 100555Z 1006/1106 20008KT P6SM SKC FM101200 20007KT P6SM
                       OVC010 FM101800 21009KT P6SM BKN020 FM102100
                       21009KT P6SM SCT040 SCT200 FM110200 22010KT
                       P6SM FEW050 BKN250=
202307092322 TAF KPWT 092322Z 1000/1024 23007KT P6SM SCT100 FM100500 20008KT
                       P6SM SKC FM101200 20007KT P6SM OVC012 FM101800
                       21009KT P6SM BKN020 FM102100 21009KT P6SM
                       SCT035 SCT200=
202307091723 TAF KPWT 091723Z 0918/1018 23007KT P6SM FEW100 SCT200 FM100500
                       20008KT P6SM SKC FM101200 20007KT P6SM OVC014=
202307091120 TAF KPWT 091120Z 0912/1012 00000KT P6SM FEW070 FM091500 21005KT
                       P6SM FEW010 SCT200 FM091900 24006KT P6SM
                       SKC FM100000 21006KT P6SM SKC=
202307090545 TAF KPWT 090545Z 0906/1006 22005KT P6SM SKC FM091100 VRB03KT P6SM
                       BKN007 FM091700 21005KT P6SM FEW010 SCT200
                       FM091900 24006KT P6SM SKC=
202307082321 TAF KPWT 082321Z 0900/0924 22009KT P6SM FEW150 FM090400 20005KT
                       P6SM SCT150 FM091200 21003KT P6SM BKN007
                       FM091700 21005KT P6SM FEW010 SCT200=
202307081738 TAF KPWT 081738Z 0818/0918 21005KT P6SM SCT025
                      TEMPO 0818/0819 BKN022 FM082000 22009KT P6SM
                       SKC FM090400 20005KT P6SM SCT150 FM091200
                       21003KT P6SM BKN006 FM091700 21005KT P6SM
                       SKC=
202307081327 KPWT 081327Z 0813/0912 21004KT P6SM BKN020 FM081700 22005KT P6SM
                       BKN070 FM082200 21006KT P6SM SKC=
202307081122 TAF KPWT 081122Z 0812/0912 19003KT P6SM BKN050 FM081300 21004KT
                       P6SM OVC020 FM081700 22005KT P6SM BKN070
                       FM082200 21006KT P6SM SKC=
202307080557 TAF KPWT 080557Z 0806/0906 21007KT P6SM SKC FM080800 21004KT P6SM
                       BKN050 FM081300 21004KT P6SM OVC007 FM081600
                       22005KT P6SM BKN080=
202307072344 TAF KPWT 072344Z 0800/0824 20008KT P6SM SKC FM080800 21004KT P6SM
                       BKN008 FM081000 VRB04KT P6SM OVC005=
202307072320 TAF KPWT 072320Z 0800/0824 21008KT P6SM SKC FM080900 21004KT P6SM
                       BKN010
                      TEMPO 0813/0817 OVC008 FM081900 22006KT P6SM
                       SCT015 FM082000 23005KT P6SM SKC=
202307071744 TAF KPWT 071744Z 0718/0818 21007KT P6SM OVC012
                      TEMPO 0718/0720 BKN018 FM072000 22008KT P6SM
                       FEW250 FM080800 21004KT P6SM BKN008 FM081000
                       VRB04KT P6SM OVC005=
202307071124 TAF KPWT 071124Z 0712/0812 21005KT P6SM OVC005 FM072000 22008KT
                       P6SM SCT250 FM081100 21004KT P6SM OVC005=
202307070853 KPWT 070853Z 0709/0806 21005KT P6SM BKN005 FM071800 22005KT P6SM
                       SCT250=
202307070536 TAF KPWT 070536Z 0706/0806 20006KT P6SM FEW250 FM071000 21005KT
                       P6SM BKN005 FM071800 22005KT P6SM SCT250=
202307062320 TAF KPWT 062320Z 0700/0724 22010KT P6SM SKC FM071100 21005KT P6SM
                       BKN005 FM071800 22005KT P6SM SCT250=
202307061742 TAF KPWT 061742Z 0618/0718 23006KT P6SM SKC FM062100 21010KT P6SM
                       SCT250 FM071100 21005KT P6SM BKN005=
202307061131 TAF KPWT 061131Z 0612/0712 00000KT P6SM SCT250 FM061900 21010KT
                       P6SM SCT250 FM071100 21005KT P6SM BKN005=
202307060536 TAF KPWT 060536Z 0606/0706 00000KT P6SM SKC FM061200 21004KT 5SM
                       HZ SKC FM061900 21008KT P6SM SKC=
202307052320 TAF KPWT 052320Z 0600/0624 05008KT P6SM SKC FM060600 VRB03KT P6SM
                       SKC FM061400 21004KT P6SM SKC=
202307051720 TAF KPWT 051720Z 0518/0618 05008KT P6SM SKC FM052100 05008KT P6SM
                       FEW200 FM060600 VRB03KT P6SM SKC=
202307051123 TAF KPWT 051123Z 0512/0612 00000KT 6SM HZ SKC FM051900 05008KT
                       P6SM FEW200 FM060600 VRB03KT P6SM SKC=
202307050528 TAF KPWT 050528Z 0506/0606 05006KT P6SM SKC=
202307042339 TAF KPWT 042339Z 0500/0524 08008KT P6SM SKC FM050500 05003KT P6SM
                       SKC FM052100 05007KT P6SM SKC=
202307041732 TAF KPWT 041732Z 0418/0518 05009KT P6SM SKC FM050500 05003KT P6SM
                       SKC=
202307041120 TAF KPWT 041120Z 0412/0512 00000KT P6SM SKC FM041800 05008KT P6SM
                       SKC FM050500 05003KT P6SM SKC=
202307040537 TAF KPWT 040537Z 0406/0506 00000KT P6SM SKC FM041600 05008KT P6SM
                       SKC=
202307032328 TAF KPWT 032328Z 0400/0424 05008KT P6SM SKC FM040300 04006KT P6SM
                       SKC FM041800 04010KT P6SM SKC=
202307031720 TAF KPWT 031720Z 0318/0418 04010KT P6SM SKC FM040300 04004KT P6SM
                       SKC=
202307031120 TAF KPWT 031120Z 0312/0412 04004KT P6SM SKC FM031900 03009KT P6SM
                       SKC FM040300 04004KT P6SM SKC=
202307030520 TAF KPWT 030520Z 0306/0406 04003KT P6SM SKC FM031900 03009KT P6SM
                       SKC FM040000 04010KT P6SM SKC=
202307022337 TAF KPWT 022337Z 0300/0324 03010KT P6SM SKC FM030400 04006KT P6SM
                       SKC FM031900 03009KT P6SM SKC=
202307021728 TAF KPWT 021728Z 0218/0318 05007KT P6SM SKC FM022000 05010KT P6SM
                       SKC FM030400 05003KT P6SM SKC=
202307021120 TAF KPWT 021120Z 0212/0312 05005KT P6SM SKC FM021900 05010KT P6SM
                       SKC FM030400 05003KT P6SM SKC=
202307020520 TAF KPWT 020520Z 0206/0306 07004KT P6SM SKC FM021000 VRB04KT P6SM
                       SCT250 FM021500 06007KT P6SM SKC FM022100
                       05008KT P6SM SKC=
202307012325 TAF KPWT 012325Z 0200/0224 05007KT P6SM SKC FM020300 05010KT P6SM
                       SKC FM021000 VRB04KT P6SM SCT250 FM021500
                       06007KT P6SM SKC=
202307011720 TAF KPWT 011720Z 0118/0218 33004KT P6SM SKC FM012100 05007KT P6SM
                       SKC FM020100 05010KT P6SM SCT250 FM020500
                       VRB04KT P6SM SCT250=
202307011123 TAF KPWT 011123Z 0112/0212 VRB03KT P6SM SCT250 FM011500 10004KT
                       P6SM SKC FM012100 05007KT P6SM SKC FM020100
                       05010KT P6SM SCT250 FM020500 VRB04KT P6SM
                       SCT250=
202307010520 TAF KPWT 010520Z 0106/0206 VRB03KT P6SM SKC FM011000 VRB03KT P6SM
                       SCT250 FM011500 12004KT P6SM SKC FM012100
                       34005KT P6SM SKC=