##########################################################
# Query made at 02/16/2025 01:14:57 UTC
# Time interval: from 04/01/2023 00:00  to 04/30/2023 23:59  UTC
##########################################################

##########################################################
# KPWT, Bremerton National Automatic Weather Observing / Reporting System (United States)
# WMO index: -----. WIGOS ID: Unknown
# Latitude 47-30N. Longitude 122-45W. Altitude 147 m.
##########################################################

###################################
#  METAR/SPECI from KPWT
###################################
202304302356 METAR KPWT 302356Z AUTO 23012KT 10SM CLR 16/08 A2991 RMK AO2 SLP130 T01610078 10172 20106 58005=
202304302256 METAR KPWT 302256Z AUTO 22014KT 10SM BKN070 16/08 A2992 RMK AO2 SLP136 T01560083=
202304302156 METAR KPWT 302156Z AUTO 21010KT 10SM BKN060 16/10 A2992 RMK AO2 SLP137 T01560100=
202304302056 METAR KPWT 302056Z AUTO 23015KT 10SM FEW065 17/09 A2992 RMK AO2 SLP135 T01720094 55003=
202304301956 METAR KPWT 301956Z AUTO 23015G20KT 10SM SCT027 BKN060 16/09 A2992 RMK AO2 SLP135 T01560089=
202304301932 SPECI KPWT 301932Z AUTO 21012KT 10SM SCT023 OVC060 16/09 A2992 RMK AO2=
202304301856 METAR KPWT 301856Z AUTO 21013KT 10SM BKN021 BKN060 14/10 A2993 RMK AO2 SLP139 T01390100=
202304301852 SPECI KPWT 301852Z AUTO 20009G14KT 10SM BKN021 BKN060 14/10 A2993 RMK AO2=
202304301756 METAR KPWT 301756Z AUTO 18006KT 10SM FEW060 SCT110 11/09 A2993 RMK AO2 SLP141 T01060089 10106 20078 53003=
202304301656 METAR KPWT 301656Z AUTO 19008KT 10SM FEW010 OVC055 11/09 A2993 RMK AO2 SLP138 T01060089=
202304301556 METAR KPWT 301556Z AUTO 18008KT 10SM FEW010 BKN110 09/08 A2992 RMK AO2 SLP137 T00940083=
202304301456 METAR KPWT 301456Z AUTO 19010G15KT 10SM FEW008 SCT110 09/08 A2993 RMK AO2 SLP136 T00940083 53003=
202304301428 SPECI KPWT 301428Z AUTO 19007KT 10SM SCT009 BKN110 09/08 A2992 RMK AO2=
202304301356 METAR KPWT 301356Z AUTO 19008KT 10SM BKN009 09/08 A2992 RMK AO2 CIG 007V012 SLP134 T00890083=
202304301256 METAR KPWT 301256Z AUTO 21006KT 10SM OVC009 08/08 A2991 RMK AO2 SLP133 T00830078=
202304301156 METAR KPWT 301156Z AUTO 19004KT 10SM OVC009 08/07 A2992 RMK AO2 SLP134 T00780072 10111 20061 51000=
202304301135 SPECI KPWT 301135Z AUTO 20004KT 10SM BKN009 OVC110 07/07 A2991 RMK AO2=
202304301125 SPECI KPWT 301125Z AUTO 21004KT 10SM SCT009 BKN110 07/07 A2991 RMK AO2=
202304301056 METAR KPWT 301056Z AUTO 22005KT 10SM CLR 07/07 A2992 RMK AO2 SLP134 T00670067=
202304301010 SPECI KPWT 301010Z AUTO 22006KT 10SM SCT008 07/07 A2992 RMK AO2=
202304300956 METAR KPWT 300956Z AUTO 21004KT 10SM BKN008 06/06 A2992 RMK AO2 SLP134 T00610061=
202304300944 SPECI KPWT 300944Z AUTO 21004KT 10SM FEW008 06/06 A2992 RMK AO2=
202304300856 METAR KPWT 300856Z AUTO 24006KT 10SM CLR 08/07 A2991 RMK AO2 SLP134 T00780072 52001=
202304300756 METAR KPWT 300756Z AUTO 22007KT 10SM CLR 08/07 A2992 RMK AO2 SLP135 T00830072 402440078=
202304300656 METAR KPWT 300656Z AUTO 21003KT 10SM CLR 09/07 A2990 RMK AO2 SLP129 T00940067=
202304300556 METAR KPWT 300556Z AUTO 21004KT 10SM CLR 11/06 A2991 RMK AO2 SLP131 T01110061 10239 20111 51012=
202304300456 METAR KPWT 300456Z AUTO 20007KT 10SM CLR 13/06 A2991 RMK AO2 SLP130 T01330056=
202304300356 METAR KPWT 300356Z AUTO 21003KT 10SM CLR 16/02 A2989 RMK AO2 SLP126 T01610022=
202304300256 METAR KPWT 300256Z AUTO 20008KT 10SM CLR 19/02 A2988 RMK AO2 SLP120 T01890022 56012=
202304300156 METAR KPWT 300156Z AUTO 24013G21KT 10SM CLR 22/01 A2988 RMK AO2 SLP123 T02170006=
202304300056 METAR KPWT 300056Z AUTO 23014KT 10SM CLR 23/07 A2990 RMK AO2 SLP127 T02330067=
202304292356 METAR KPWT 292356Z AUTO 23012KT 10SM CLR 24/09 A2991 RMK AO2 SLP132 T02390089 10244 20183 58017=
202304292256 METAR KPWT 292256Z AUTO 22016G20KT 10SM CLR 24/07 A2993 RMK AO2 SLP138 T02390067=
202304292156 METAR KPWT 292156Z AUTO 22011G19KT 10SM CLR 24/08 A2995 RMK AO2 SLP145 T02390083=
202304292056 METAR KPWT 292056Z AUTO 21010G17KT 10SM CLR 23/10 A2996 RMK AO2 SLP148 T02280100 58014=
202304291956 METAR KPWT 291956Z AUTO 22010KT 10SM CLR 21/12 A2998 RMK AO2 SLP154 T02110117=
202304291856 METAR KPWT 291856Z AUTO 22010KT 10SM CLR 20/12 A2999 RMK AO2 SLP159 T02000117=
202304291756 METAR KPWT 291756Z AUTO 24009KT 10SM CLR 18/11 A3000 RMK AO2 SLP164 T01830111 10183 20094 50001=
202304291656 METAR KPWT 291656Z AUTO 20008KT 10SM CLR 17/11 A3001 RMK AO2 SLP165 T01670106=
202304291556 METAR KPWT 291556Z AUTO 21009KT 10SM CLR 15/10 A3001 RMK AO2 SLP166 T01500100=
202304291456 METAR KPWT 291456Z AUTO 21006KT 10SM CLR 13/09 A3000 RMK AO2 SLP162 T01280094 53015=
202304291356 METAR KPWT 291356Z AUTO 23004KT 10SM CLR 11/09 A2999 RMK AO2 SLP156 T01060094=
202304291256 METAR KPWT 291256Z AUTO 19010KT 10SM CLR 12/09 A2997 RMK AO2 SLP148 T01220094=
202304291156 METAR KPWT 291156Z AUTO 22007KT 10SM CLR 09/08 A2996 RMK AO2 SLP146 T00940083 10144 20078 53012=
202304291056 METAR KPWT 291056Z AUTO 00000KT 10SM CLR 09/08 A2994 RMK AO2 SLP143 T00890078=
202304290956 METAR KPWT 290956Z AUTO 00000KT 10SM CLR 11/09 A2993 RMK AO2 SLP135 T01110089=
202304290856 METAR KPWT 290856Z AUTO 00000KT 10SM CLR 10/09 A2992 RMK AO2 SLP135 T01000094 53007=
202304290756 METAR KPWT 290756Z AUTO 21003KT 10SM CLR 11/09 A2992 RMK AO2 SLP133 T01110089 402780106=
202304290656 METAR KPWT 290656Z AUTO 00000KT 10SM CLR 13/09 A2991 RMK AO2 SLP130 T01280089=
202304290556 METAR KPWT 290556Z AUTO 22007KT 10SM CLR 13/08 A2990 RMK AO2 SLP128 T01330083 10278 20133 53011=
202304290456 METAR KPWT 290456Z AUTO 05005KT 10SM CLR 18/08 A2988 RMK AO2 SLP121 T01830078=
202304290356 METAR KPWT 290356Z AUTO 06004KT 10SM CLR 19/08 A2987 RMK AO2 SLP119 T01890078=
202304290256 METAR KPWT 290256Z AUTO 00000KT 10SM CLR 22/08 A2987 RMK AO2 SLP117 T02220083 55006=
202304290156 METAR KPWT 290156Z AUTO 07005KT 10SM CLR 26/06 A2987 RMK AO2 SLP116 T02610061=
202304290056 METAR KPWT 290056Z AUTO 05008KT 10SM CLR 27/06 A2988 RMK AO2 SLP119 T02720061=
202304282356 METAR KPWT 282356Z AUTO 05008KT 10SM CLR 27/07 A2989 RMK AO2 SLP122 T02720067 10272 20200 58022=
202304282256 METAR KPWT 282256Z AUTO 05010KT 10SM CLR 27/07 A2991 RMK AO2 SLP130 T02670067=
202304282156 METAR KPWT 282156Z AUTO 04009KT 10SM CLR 26/06 A2993 RMK AO2 SLP138 T02560056=
202304282056 METAR KPWT 282056Z AUTO 05011KT 10SM CLR 24/06 A2996 RMK AO2 SLP145 T02390061 58025=
202304281956 METAR KPWT 281956Z AUTO 05011KT 10SM CLR 23/07 A2998 RMK AO2 SLP155 T02280067=
202304281856 METAR KPWT 281856Z AUTO 05009KT 10SM CLR 22/09 A3001 RMK AO2 SLP163 T02170089=
202304281756 METAR KPWT 281756Z AUTO 05010KT 10SM CLR 20/08 A3003 RMK AO2 SLP172 T02000083 10200 20117 58011=
202304281656 METAR KPWT 281656Z AUTO 05011KT 10SM CLR 18/08 A3004 RMK AO2 SLP176 T01780078=
202304281556 METAR KPWT 281556Z AUTO 05010KT 10SM CLR 16/07 A3006 RMK AO2 SLP181 T01560072=
202304281456 METAR KPWT 281456Z AUTO 05013G19KT 10SM CLR 13/06 A3006 RMK AO2 SLP182 T01330061 58004=
202304281356 METAR KPWT 281356Z AUTO 05010KT 10SM CLR 13/06 A3007 RMK AO2 SLP185 T01280061=
202304281256 METAR KPWT 281256Z AUTO 04011KT 10SM CLR 12/05 A3007 RMK AO2 SLP188 T01170050=
202304281156 METAR KPWT 281156Z AUTO 05012KT 10SM CLR 12/04 A3007 RMK AO2 SLP188 7//// T01220044 10133 20117 56006=
202304281056 METAR KPWT 281056Z AUTO 06011KT 10SM CLR 12/04 A3008 RMK AO2 SLP189 T01220039=
202304280956 METAR KPWT 280956Z AUTO 05009KT 9SM CLR 13/04 A3009 RMK AO2 SLP191 T01280044=
202304280856 METAR KPWT 280856Z AUTO 06009KT 10SM CLR 12/06 A3009 RMK AO2 SLP194 T01220061 58011=
202304280756 METAR KPWT 280756Z AUTO 05007KT 10SM CLR 12/06 A3011 RMK AO2 SLP198 T01220061 402110050=
202304280656 METAR KPWT 280656Z AUTO 05009KT 10SM CLR 13/07 A3012 RMK AO2 SLP201 T01280067=
202304280556 METAR KPWT 280556Z AUTO 06007KT 10SM CLR 12/07 A3013 RMK AO2 SLP205 T01220067 10200 20122 58003=
202304280456 METAR KPWT 280456Z AUTO 06006KT 10SM CLR 13/06 A3013 RMK AO2 SLP206 T01280061=
202304280356 METAR KPWT 280356Z AUTO 06007KT 10SM CLR 14/06 A3014 RMK AO2 SLP211 T01390061=
202304280256 METAR KPWT 280256Z AUTO 05008KT 10SM CLR 15/07 A3014 RMK AO2 SLP209 T01500067 58006=
202304280156 METAR KPWT 280156Z AUTO 04013G17KT 10SM CLR 17/03 A3015 RMK AO2 SLP212 T01670028=
202304280056 METAR KPWT 280056Z AUTO 03008KT 10SM CLR 19/05 A3016 RMK AO2 SLP216 T01890050=
202304272356 METAR KPWT 272356Z AUTO 06009KT 10SM CLR 20/05 A3016 RMK AO2 SLP214 6//// T02000050 10211 20150 56021=
202304272256 METAR KPWT 272256Z AUTO 05009KT 10SM CLR 20/05 A3017 RMK AO2 SLP220 T02000050=
202304272156 METAR KPWT 272156Z AUTO 04010G14KT 10SM CLR 20/05 A3019 RMK AO2 SLP227 T02000050=
202304272056 METAR KPWT 272056Z AUTO 03007KT 10SM CLR 19/06 A3022 RMK AO2 SLP236 6//// T01890056 58006=
202304271956 METAR KPWT 271956Z AUTO 05008G14KT 10SM CLR 17/06 A3023 RMK AO2 SLP240 T01720061=
202304271856 METAR KPWT 271856Z AUTO 05008KT 10SM CLR 16/07 A3024 RMK AO2 SLP245 T01610072=
202304271756 METAR KPWT 271756Z AUTO 06010KT 10SM CLR 16/08 A3024 RMK AO2 SLP243 T01560083 10156 20094 55004=
202304271656 METAR KPWT 271656Z AUTO 04015KT 10SM CLR 15/08 A3023 RMK AO2 SLP241 T01500083=
202304271556 METAR KPWT 271556Z AUTO 05011KT 10SM CLR 12/08 A3024 RMK AO2 SLP246 T01220083=
202304271456 METAR KPWT 271456Z AUTO 04011KT 10SM SCT045 11/08 A3025 RMK AO2 SLP247 T01110078 51006=
202304271356 METAR KPWT 271356Z AUTO 06004KT 10SM OVC043 10/08 A3024 RMK AO2 SLP245 T01000078=
202304271256 METAR KPWT 271256Z AUTO 04006KT 10SM OVC041 09/08 A3023 RMK AO2 SLP241 T00940078=
202304271156 METAR KPWT 271156Z AUTO 04007KT 10SM OVC041 09/08 A3023 RMK AO2 SLP239 T00940078 10111 20050 53008=
202304271056 METAR KPWT 271056Z AUTO 05005KT 10SM OVC043 09/08 A3021 RMK AO2 SLP234 T00940083=
202304270956 METAR KPWT 270956Z AUTO 00000KT 10SM OVC045 08/07 A3021 RMK AO2 SLP233 T00780072=
202304270856 METAR KPWT 270856Z AUTO 00000KT 10SM CLR 07/07 A3020 RMK AO2 SLP232 T00670067 51009=
202304270756 METAR KPWT 270756Z AUTO 00000KT 10SM CLR 07/07 A3020 RMK AO2 SLP229 T00720072 402060039=
202304270656 METAR KPWT 270656Z AUTO 00000KT 10SM CLR 08/07 A3019 RMK AO2 SLP227 T00830067=
202304270556 METAR KPWT 270556Z AUTO 03005KT 10SM CLR 11/08 A3018 RMK AO2 SLP223 T01110078 10183 20111 51010=
202304270456 METAR KPWT 270456Z AUTO 06005KT 10SM CLR 12/08 A3017 RMK AO2 SLP222 T01170078=
202304270356 METAR KPWT 270356Z AUTO VRB05KT 10SM CLR 12/07 A3017 RMK AO2 SLP220 T01220072=
202304270256 METAR KPWT 270256Z AUTO 04007KT 10SM CLR 14/07 A3015 RMK AO2 SLP214 T01440067 53005=
202304270156 METAR KPWT 270156Z AUTO 03008KT 10SM CLR 16/08 A3014 RMK AO2 SLP210 T01610078=
202304270056 METAR KPWT 270056Z AUTO 05009KT 10SM CLR 17/08 A3014 RMK AO2 SLP209 T01720078=
202304262356 METAR KPWT 262356Z AUTO 04010KT 10SM CLR 18/08 A3013 RMK AO2 SLP209 T01830083 10206 20139 57010=
202304262256 METAR KPWT 262256Z AUTO 03008KT 10SM CLR 19/08 A3014 RMK AO2 SLP210 T01940078=
202304262156 METAR KPWT 262156Z AUTO VRB04KT 10SM CLR 19/07 A3016 RMK AO2 SLP216 T01940067=
202304262056 METAR KPWT 262056Z AUTO 24005KT 10SM CLR 19/07 A3017 RMK AO2 SLP219 T01890072 58014=
202304261956 METAR KPWT 261956Z AUTO 00000KT 10SM CLR 17/06 A3018 RMK AO2 SLP225 T01720056=
202304261856 METAR KPWT 261856Z AUTO VRB03KT 10SM CLR 16/07 A3021 RMK AO2 SLP234 T01560067=
202304261756 METAR KPWT 261756Z AUTO 28004KT 10SM CLR 13/07 A3021 RMK AO2 SLP234 T01330072 10133 20039 51002=
202304261656 METAR KPWT 261656Z AUTO 00000KT 10SM CLR 11/06 A3021 RMK AO2 SLP233 T01110061=
202304261556 METAR KPWT 261556Z AUTO 05007KT 10SM CLR 09/06 A3020 RMK AO2 SLP233 T00940061=
202304261456 METAR KPWT 261456Z AUTO 00000KT 10SM CLR 08/06 A3020 RMK AO2 SLP233 T00780061 53002=
202304261356 METAR KPWT 261356Z AUTO 00000KT 10SM CLR 06/06 A3019 RMK AO2 SLP230 T00560056=
202304261256 METAR KPWT 261256Z AUTO 00000KT 10SM CLR 04/04 A3019 RMK AO2 SLP228 T00440044=
202304261156 METAR KPWT 261156Z AUTO 00000KT 10SM CLR 04/04 A3019 RMK AO2 SLP231 T00440044 10083 20044 55008=
202304261056 METAR KPWT 261056Z AUTO 00000KT 10SM CLR 05/04 A3019 RMK AO2 SLP230 T00500044=
202304260956 METAR KPWT 260956Z AUTO 00000KT 10SM CLR 07/05 A3020 RMK AO2 SLP232 T00670050=
202304260856 METAR KPWT 260856Z AUTO 06003KT 10SM CLR 07/05 A3022 RMK AO2 SLP239 T00720050 58004=
202304260756 METAR KPWT 260756Z AUTO 06004KT 10SM CLR 08/05 A3023 RMK AO2 SLP242 T00780050 401610056=
202304260656 METAR KPWT 260656Z AUTO 07004KT 10SM CLR 08/05 A3023 RMK AO2 SLP241 T00780050=
202304260556 METAR KPWT 260556Z AUTO 06006KT 10SM CLR 08/06 A3023 RMK AO2 SLP242 T00830056 10156 20083 50006=
202304260456 METAR KPWT 260456Z AUTO 06005KT 10SM CLR 09/06 A3023 RMK AO2 SLP243 T00940061=
202304260356 METAR KPWT 260356Z AUTO 05004KT 10SM CLR 09/07 A3023 RMK AO2 SLP241 T00890067=
202304260256 METAR KPWT 260256Z AUTO 06004KT 10SM CLR 12/06 A3021 RMK AO2 SLP235 T01220061 58004=
202304260156 METAR KPWT 260156Z AUTO 02007KT 10SM CLR 14/06 A3022 RMK AO2 SLP240 T01440061=
202304260056 METAR KPWT 260056Z AUTO 08005KT 10SM CLR 15/05 A3022 RMK AO2 SLP238 T01500050=
202304252356 METAR KPWT 252356Z AUTO 03006KT 10SM CLR 15/07 A3022 RMK AO2 SLP239 T01500067 10161 20089 58015=
202304252256 METAR KPWT 252256Z AUTO 04005KT 10SM CLR 15/07 A3024 RMK AO2 SLP246 T01500067=
202304252156 METAR KPWT 252156Z AUTO 00000KT 10SM FEW036 14/05 A3026 RMK AO2 SLP251 T01440050=
202304252056 METAR KPWT 252056Z AUTO VRB03KT 10SM FEW033 13/06 A3027 RMK AO2 SLP255 T01280061 58005=
202304252027 SPECI KPWT 252027Z AUTO VRB03KT 10SM SCT026 BKN033 12/07 A3027 RMK AO2=
202304252019 SPECI KPWT 252019Z AUTO 00000KT 10SM BKN026 OVC033 12/07 A3027 RMK AO2=
202304251956 METAR KPWT 251956Z AUTO 09004KT 10SM OVC032 12/07 A3028 RMK AO2 SLP257 T01220072=
202304251949 SPECI KPWT 251949Z AUTO VRB03KT 10SM SCT023 OVC030 12/06 A3028 RMK AO2=
202304251856 METAR KPWT 251856Z AUTO 04004KT 10SM OVC017 09/07 A3028 RMK AO2 SLP261 T00940067=
202304251808 SPECI KPWT 251808Z AUTO 06004KT 10SM SCT013 OVC023 09/07 A3028 RMK AO2=
202304251756 METAR KPWT 251756Z AUTO 05004KT 10SM BKN011 OVC021 09/07 A3028 RMK AO2 SLP260 T00890072 10089 20056 55003=
202304251722 SPECI KPWT 251722Z AUTO 02005KT 10SM OVC011 08/08 A3028 RMK AO2=
202304251656 METAR KPWT 251656Z AUTO 05004KT 10SM BKN007 OVC012 08/07 A3028 RMK AO2 SLP258 T00830072=
202304251654 SPECI KPWT 251654Z AUTO VRB03KT 10SM OVC007 08/08 A3028 RMK AO2 CIG 005V010=
202304251637 SPECI KPWT 251637Z AUTO 10004KT 10SM OVC005 08/07 A3028 RMK AO2 CIG 003V008=
202304251618 SPECI KPWT 251618Z AUTO 00000KT 4SM BR OVC003 07/07 A3028 RMK AO2=
202304251607 SPECI KPWT 251607Z AUTO 00000KT 2 1/2SM BR OVC003 07/07 A3029 RMK AO2=
202304251556 METAR KPWT 251556Z AUTO 00000KT 3SM BR OVC003 07/07 A3029 RMK AO2 SLP263 T00720072=
202304251511 SPECI KPWT 251511Z AUTO 00000KT 3SM BR OVC003 07/07 A3030 RMK AO2=
202304251501 SPECI KPWT 251501Z AUTO 00000KT 1 1/4SM BR OVC003 06/06 A3030 RMK AO2=
202304251456 METAR KPWT 251456Z AUTO 00000KT 3/4SM BR OVC003 06/06 A3030 RMK AO2 SLP265 T00610061 53003=
202304251454 SPECI KPWT 251454Z AUTO 00000KT 3/4SM BR OVC003 06/06 A3030 RMK AO2=
202304251356 METAR KPWT 251356Z AUTO 00000KT 1/4SM FG OVC003 06/06 A3029 RMK AO2 SLP261 T00560056=
202304251333 SPECI KPWT 251333Z AUTO 00000KT 1/4SM FG OVC003 06/06 A3029 RMK AO2=
202304251326 SPECI KPWT 251326Z AUTO 00000KT 1/2SM FG OVC003 06/06 A3028 RMK AO2=
202304251318 SPECI KPWT 251318Z AUTO 00000KT 3/4SM BR OVC003 06/06 A3029 RMK AO2=
202304251256 METAR KPWT 251256Z AUTO 00000KT 1/2SM FG OVC003 06/06 A3029 RMK AO2 SLP262 T00560056=
202304251243 SPECI KPWT 251243Z AUTO 00000KT 3/4SM BR OVC003 06/06 A3028 RMK AO2=
202304251232 SPECI KPWT 251232Z AUTO 00000KT 1 3/4SM BR OVC003 06/06 A3028 RMK AO2=
202304251224 SPECI KPWT 251224Z AUTO 00000KT 2SM BR OVC003 06/06 A3028 RMK AO2=
202304251156 METAR KPWT 251156Z AUTO 00000KT 8SM OVC003 06/06 A3028 RMK AO2 SLP259 70001 T00560056 10072 20044 50006=
202304251056 METAR KPWT 251056Z AUTO 21003KT 10SM OVC003 06/06 A3028 RMK AO2 SLP260 T00560056=
202304251043 SPECI KPWT 251043Z AUTO 20003KT 10SM OVC003 06/06 A3028 RMK AO2=
202304250956 METAR KPWT 250956Z AUTO 00000KT 10SM BKN005 BKN041 OVC050 06/06 A3026 RMK AO2 SLP253 T00610061=
202304250953 SPECI KPWT 250953Z AUTO 21003KT 10SM BKN005 BKN039 OVC050 06/06 A3026 RMK AO2=
202304250944 SPECI KPWT 250944Z AUTO 25003KT 10SM SCT005 BKN039 OVC050 07/07 A3026 RMK AO2=
202304250856 METAR KPWT 250856Z AUTO 00000KT 10SM OVC032 07/07 A3026 RMK AO2 SLP252 T00670067 50004=
202304250844 SPECI KPWT 250844Z AUTO 13003KT 10SM OVC030 07/07 A3026 RMK AO2=
202304250756 METAR KPWT 250756Z AUTO 00000KT 10SM OVC028 05/05 A3027 RMK AO2 SLP256 T00500050 401330044=
202304250739 SPECI KPWT 250739Z AUTO 00000KT 10SM BKN028 05/05 A3026 RMK AO2=
202304250656 METAR KPWT 250656Z AUTO 00000KT 10SM FEW018 06/06 A3025 RMK AO2 SLP249 T00560056=
202304250651 SPECI KPWT 250651Z AUTO 00000KT 10SM FEW018 06/06 A3025 RMK AO2=
202304250642 SPECI KPWT 250642Z AUTO 00000KT 2SM BR FEW018 05/05 A3025 RMK AO2 VIS 1/2V5=
202304250556 METAR KPWT 250556Z AUTO 13003KT 10SM CLR 07/07 A3024 RMK AO2 SLP246 60001 T00720072 10133 20072 51007=
202304250525 SPECI KPWT 250525Z AUTO 00000KT 10SM SCT017 BKN030 08/07 A3025 RMK AO2=
202304250456 METAR KPWT 250456Z AUTO 00000KT 10SM BKN017 OVC055 08/08 A3024 RMK AO2 SLP244 T00830078=
202304250453 SPECI KPWT 250453Z AUTO 00000KT 10SM BKN017 BKN055 09/07 A3024 RMK AO2=
202304250356 METAR KPWT 250356Z AUTO 18003KT 10SM OVC049 09/08 A3022 RMK AO2 SLP240 T00890078=
202304250256 METAR KPWT 250256Z AUTO 22004KT 10SM OVC048 10/08 A3020 RMK AO2 SLP232 60001 T01000083 51008=
202304250156 METAR KPWT 250156Z AUTO 20004KT 10SM BKN055 11/08 A3020 RMK AO2 RAE16 SLP230 P0001 T01110083=
202304250056 METAR KPWT 250056Z AUTO 25004KT 10SM -RA BKN038 BKN048 BKN055 11/08 A3018 RMK AO2 RAB45 SLP226 P0000 T01110083=
202304242356 METAR KPWT 242356Z AUTO 25006KT 10SM SCT042 BKN050 13/07 A3018 RMK AO2 RAE19 SLP224 P0000 60000 T01280072 10128 20089 51007=
202304242256 METAR KPWT 242256Z AUTO 16004KT 10SM -RA FEW026 SCT041 BKN050 11/08 A3017 RMK AO2 RAB34 SLP222 P0000 T01110083=
202304242156 METAR KPWT 242156Z AUTO 19005KT 10SM FEW045 12/07 A3017 RMK AO2 RAE2057 SLP220 T01220067=
202304242056 METAR KPWT 242056Z AUTO VRB04KT 10SM -RA SCT049 12/07 A3015 RMK AO2 RAB04 SLP216 P0000 60000 T01170072 53008=
202304242011 SPECI KPWT 242011Z AUTO 20006KT 10SM -RA SCT030 BKN050 10/08 A3015 RMK AO2 RAB04 P0000=
202304241956 METAR KPWT 241956Z AUTO VRB05KT 10SM BKN028 11/07 A3015 RMK AO2 SLP213 T01060072=
202304241949 SPECI KPWT 241949Z AUTO 18004KT 10SM SCT026 11/07 A3015 RMK AO2=
202304241856 METAR KPWT 241856Z AUTO 04004KT 10SM BKN022 BKN028 10/06 A3013 RMK AO2 SLP209 T01000061=
202304241805 SPECI KPWT 241805Z AUTO 06005KT 10SM SCT015 10/07 A3013 RMK AO2=
202304241756 METAR KPWT 241756Z AUTO 05004KT 10SM BKN015 09/07 A3013 RMK AO2 SLP208 T00940067 10100 20061 53024=
202304241727 SPECI KPWT 241727Z AUTO 00000KT 10SM SCT015 BKN021 BKN050 09/07 A3012 RMK AO2=
202304241656 METAR KPWT 241656Z AUTO 00000KT 10SM FEW042 BKN050 08/06 A3011 RMK AO2 SLP201 T00830061=
202304241627 SPECI KPWT 241627Z AUTO VRB03KT 10SM SCT007 OVC050 08/06 A3009 RMK AO2=
202304241556 METAR KPWT 241556Z AUTO 00000KT 10SM OVC005 07/06 A3008 RMK AO2 SLP192 T00670061=
202304241547 SPECI KPWT 241547Z AUTO 23003KT 10SM OVC005 06/06 A3008 RMK AO2=
202304241513 SPECI KPWT 241513Z AUTO 24004KT 10SM BKN007 OVC042 07/06 A3006 RMK AO2=
202304241456 METAR KPWT 241456Z AUTO 20005KT 10SM BKN005 OVC047 07/06 A3006 RMK AO2 CIG 004V007 SLP185 T00670061 53028=
202304241434 SPECI KPWT 241434Z AUTO 22005KT 10SM OVC005 06/06 A3005 RMK AO2 CIG 004V010=
202304241356 METAR KPWT 241356Z AUTO 24003KT 10SM OVC007 06/06 A3003 RMK AO2 CIG 005V010 SLP175 T00610061=
202304241256 METAR KPWT 241256Z AUTO 25004KT 10SM OVC007 06/06 A3000 RMK AO2 SLP165 T00610061=
202304241204 SPECI KPWT 241204Z AUTO 22007KT 10SM OVC007 06/06 A2998 RMK AO2 CIG 005V012=
202304241156 METAR KPWT 241156Z AUTO 25004KT 10SM OVC005 07/07 A2998 RMK AO2 CIG 004V010 SLP156 60003 70022 T00670067 10072 20061 53023=
202304241137 SPECI KPWT 241137Z AUTO VRB03KT 10SM OVC005 07/07 A2997 RMK AO2 CIG 004V010=
202304241106 SPECI KPWT 241106Z AUTO 22008KT 10SM OVC007 07/07 A2995 RMK AO2 CIG 004V011=
202304241056 METAR KPWT 241056Z AUTO 22009KT 10SM OVC005 07/07 A2995 RMK AO2 CIG 004V009 SLP147 T00670067=
202304240956 METAR KPWT 240956Z AUTO 20009KT 10SM OVC005 06/06 A2992 RMK AO2 RAE03 SLP138 P0000 T00610061=
202304240947 SPECI KPWT 240947Z AUTO 20010KT 10SM OVC005 06/06 A2992 RMK AO2 RAE03 P0000=
202304240856 METAR KPWT 240856Z AUTO 20010KT 10SM -RA BKN007 07/07 A2991 RMK AO2 CIG 004V009 SLP132 P0001 60003 T00670067 50004=
202304240843 SPECI KPWT 240843Z AUTO 20011KT 10SM -RA SCT007 BKN011 BKN043 07/07 A2991 RMK AO2 P0001=
202304240836 SPECI KPWT 240836Z AUTO 20010KT 10SM -RA BKN009 07/07 A2991 RMK AO2 CIG 005V013 P0001=
202304240756 METAR KPWT 240756Z AUTO 20010KT 10SM -RA CLR 07/07 A2991 RMK AO2 SLP131 P0001 T00670067 401110067=
202304240656 METAR KPWT 240656Z AUTO 21009KT 10SM -RA FEW008 SCT011 07/07 A2990 RMK AO2 SLP128 P0001 T00670067=
202304240650 SPECI KPWT 240650Z AUTO 20008KT 10SM -RA SCT009 BKN015 07/07 A2989 RMK AO2 P0001=
202304240630 SPECI KPWT 240630Z AUTO 20010KT 10SM -RA BKN009 OVC015 07/07 A2989 RMK AO2 CIG 005V012 P0001=
202304240605 SPECI KPWT 240605Z AUTO 19008KT 10SM -RA SCT010 BKN014 07/07 A2989 RMK AO2 P0000=
202304240556 METAR KPWT 240556Z AUTO 19008KT 10SM -RA SCT010 SCT014 SCT028 07/07 A2989 RMK AO2 SLP126 P0003 60019 T00720072 10089 20072 50001=
202304240553 SPECI KPWT 240553Z AUTO 19008KT 10SM -RA SCT014 SCT027 SCT055 07/07 A2989 RMK AO2 P0003=
202304240524 SPECI KPWT 240524Z AUTO 22009KT 10SM -RA SCT005 BKN017 BKN026 07/07 A2989 RMK AO2 P0003=
202304240508 SPECI KPWT 240508Z AUTO 23010KT 5SM -RA BR BKN007 BKN016 OVC023 07/07 A2989 RMK AO2 CIG 004V010 P0001=
202304240456 METAR KPWT 240456Z AUTO 23010KT 6SM -RA BR BKN005 OVC013 07/07 A2989 RMK AO2 CIG 003V009 SLP126 P0004 T00720072=
202304240356 METAR KPWT 240356Z AUTO 21009KT 6SM -RA BR BKN005 OVC010 07/07 A2989 RMK AO2 SLP125 P0003 T00720072=
202304240256 METAR KPWT 240256Z AUTO 19008KT 10SM -RA OVC005 07/07 A2988 RMK AO2 SLP123 P0003 60009 T00720072 58010=
202304240156 METAR KPWT 240156Z AUTO 19007KT 5SM -RA BR BKN005 OVC010 08/08 A2989 RMK AO2 CIG 004V007 SLP127 P0005 T00780078=
202304240150 SPECI KPWT 240150Z AUTO 19008KT 4SM -RA BR BKN005 OVC010 08/08 A2989 RMK AO2 CIG 004V007 P0004=
202304240128 SPECI KPWT 240128Z AUTO 19010G16KT 10SM -RA FEW008 OVC011 08/08 A2990 RMK AO2 P0001=
202304240120 SPECI KPWT 240120Z AUTO 19011G16KT 10SM -RA BKN008 OVC013 08/08 A2990 RMK AO2 CIG 006V010 P0001=
202304240056 METAR KPWT 240056Z AUTO 19009KT 10SM -RA BKN010 BKN016 OVC024 08/08 A2990 RMK AO2 CIG 008V012 SLP131 P0001 T00780078=
202304240025 SPECI KPWT 240025Z AUTO 21013KT 10SM -RA BKN014 OVC019 08/07 A2991 RMK AO2 P0000=
202304232356 METAR KPWT 232356Z AUTO 21013KT 10SM -RA SCT018 BKN027 OVC033 09/07 A2991 RMK AO2 SLP132 P0000 60000 T00890072 10111 20083 50001=
202304232256 METAR KPWT 232256Z AUTO 21010KT 10SM -RA OVC027 09/06 A2991 RMK AO2 RAB30 SLP134 P0000 T00940061=
202304232156 METAR KPWT 232156Z AUTO 22013KT 10SM FEW016 BKN021 OVC043 10/07 A2991 RMK AO2 RAB24E46 SLP132 P0000 T01000067=
202304232129 SPECI KPWT 232129Z AUTO 22017G21KT 7SM -RA FEW014 BKN025 OVC030 09/07 A2991 RMK AO2 RAB24 P0000=
202304232056 METAR KPWT 232056Z AUTO 23014KT 10SM FEW027 SCT033 11/06 A2989 RMK AO2 RAB26E41 SLP128 P0000 60000 T01060056 51004=
202304232051 SPECI KPWT 232051Z AUTO 21015KT 10SM SCT025 SCT033 11/06 A2989 RMK AO2 RAB26E41 P0000=
202304231956 METAR KPWT 231956Z AUTO 22016KT 10SM BKN020 OVC027 09/06 A2989 RMK AO2 PK WND 22026/1907 SLP126 T00940061=
202304231939 SPECI KPWT 231939Z AUTO 22019G25KT 10SM FEW023 OVC029 10/06 A2989 RMK AO2 PK WND 22026/1907=
202304231926 SPECI KPWT 231926Z AUTO 20015G22KT 10SM SCT023 OVC032 10/06 A2989 RMK AO2 PK WND 22026/1907=
202304231856 METAR KPWT 231856Z AUTO 23018G26KT 10SM OVC025 10/06 A2988 RMK AO2 PK WND 23026/1849 SLP124 T01000056=
202304231756 METAR KPWT 231756Z AUTO 21014KT 10SM BKN025 OVC031 10/06 A2986 RMK AO2 SLP117 60000 T01000056 10100 20078 51010=
202304231707 SPECI KPWT 231707Z AUTO 20016G22KT 10SM OVC017 09/06 A2987 RMK AO2=
202304231656 METAR KPWT 231656Z AUTO 21019G25KT 10SM OVC014 08/06 A2986 RMK AO2 SLP117 T00830061=
202304231624 SPECI KPWT 231624Z AUTO 20016G21KT 10SM BKN012 08/07 A2986 RMK AO2=
202304231556 METAR KPWT 231556Z AUTO 20012G24KT 10SM FEW010 09/07 A2986 RMK AO2 SLP115 T00890072=
202304231528 SPECI KPWT 231528Z AUTO 19013G20KT 150V210 10SM SCT007 BKN065 08/08 A2984 RMK AO2=
202304231456 METAR KPWT 231456Z AUTO 20014G20KT 10SM OVC005 08/08 A2983 RMK AO2 SLP108 60000 T00780078 53004=
202304231356 METAR KPWT 231356Z AUTO 20009KT 10SM BKN005 OVC045 09/09 A2982 RMK AO2 RAB35E46 SLP103 P0000 T00890089=
202304231344 SPECI KPWT 231344Z AUTO 19008KT 10SM -RA BKN005 OVC045 09/09 A2982 RMK AO2 RAB35 P0000=
202304231335 SPECI KPWT 231335Z AUTO 20010KT 10SM -RA SCT005 OVC043 09/09 A2982 RMK AO2 RAB35 P0000=
202304231328 SPECI KPWT 231328Z AUTO 19009KT 10SM BKN005 OVC043 09/09 A2981 RMK AO2=
202304231320 SPECI KPWT 231320Z AUTO 20009KT 10SM BKN007 OVC041 09/09 A2981 RMK AO2 CIG 004V009=
202304231256 METAR KPWT 231256Z AUTO 20010KT 10SM SCT007 OVC041 09/09 A2981 RMK AO2 RAB08E21 SLP100 P0000 T00940094=
202304231203 SPECI KPWT 231203Z AUTO 21010KT 10SM FEW007 BKN043 OVC050 09/09 A2982 RMK AO2=
202304231156 METAR KPWT 231156Z AUTO 22010KT 10SM SCT007 BKN024 OVC055 10/10 A2982 RMK AO2 RAE39 SLP103 P0002 60008 70018 T01000100 10111 20100 56008=
202304231151 SPECI KPWT 231151Z AUTO 22011KT 10SM BKN007 BKN022 OVC055 10/10 A2982 RMK AO2 RAE39 CIG 003V009 P0002=
202304231138 SPECI KPWT 231138Z AUTO 22008KT 10SM -RA BKN005 OVC019 10/10 A2983 RMK AO2 CIG 003V011 P0002=
202304231111 SPECI KPWT 231111Z AUTO 22006KT 4SM -RA BR FEW005 OVC019 10/10 A2983 RMK AO2 P0001=
202304231056 METAR KPWT 231056Z AUTO 22007KT 5SM -RA BR OVC017 10/10 A2983 RMK AO2 SLP105 P0000 T01000100=
202304231022 SPECI KPWT 231022Z AUTO 21008KT 10SM -RA FEW006 OVC015 11/11 A2984 RMK AO2 P0000=
202304230956 METAR KPWT 230956Z AUTO 22006KT 9SM -RA SCT004 SCT008 OVC011 11/11 A2985 RMK AO2 SLP110 P0001 T01060106=
202304230933 SPECI KPWT 230933Z AUTO 23007KT 6SM -RA BR OVC004 11/11 A2985 RMK AO2 CIG 004V007 P0000=
202304230856 METAR KPWT 230856Z AUTO 22005KT 10SM -RA BKN006 OVC011 11/11 A2986 RMK AO2 CIG 005V010 SLP116 P0000 60005 T01110111 56017=
202304230837 SPECI KPWT 230837Z AUTO 22006KT 10SM -RA BKN006 OVC011 11/11 A2987 RMK AO2 CIG 003V010 P0000=
202304230756 METAR KPWT 230756Z AUTO 20005KT 10SM -RA BKN004 OVC007 11/11 A2988 RMK AO2 SLP121 P0001 T01110111 401440061=
202304230738 SPECI KPWT 230738Z AUTO 21005KT 10SM -RA OVC004 11/11 A2988 RMK AO2 CIG 002V005 P0001=
202304230656 METAR KPWT 230656Z AUTO 19004KT 10SM -RA OVC002 11/11 A2989 RMK AO2 SLP126 P0004 T01110111=
202304230635 SPECI KPWT 230635Z AUTO 22005KT 10SM -RA BKN002 OVC007 11/11 A2990 RMK AO2 P0003=
202304230613 SPECI KPWT 230613Z AUTO 00000KT 9SM RA SCT002 BKN007 BKN014 11/11 A2990 RMK AO2 P0003=
202304230556 METAR KPWT 230556Z AUTO 19003KT 8SM RA FEW002 SCT007 BKN032 11/11 A2991 RMK AO2 SLP134 P0005 60010 T01110111 10128 20111 58017=
202304230527 SPECI KPWT 230527Z AUTO 18003KT 7SM -RA FEW004 BKN030 BKN034 11/11 A2992 RMK AO2 P0002=
202304230506 SPECI KPWT 230506Z AUTO 00000KT 8SM -RA OVC004 11/11 A2993 RMK AO2 CIG 002V006 P0000=
202304230456 METAR KPWT 230456Z AUTO 17004KT 5SM -RA BR OVC002 11/11 A2994 RMK AO2 RAB04 CIG 002V007 SLP143 P0001 T01110111=
202304230427 SPECI KPWT 230427Z AUTO 23003KT 6SM -RA BR BKN002 OVC039 12/12 A2995 RMK AO2 RAB04 P0000=
202304230356 METAR KPWT 230356Z AUTO 00000KT 10SM BKN004 OVC042 12/12 A2995 RMK AO2 SLP147 T01170117=
202304230256 METAR KPWT 230256Z AUTO 18003KT 10SM BKN004 BKN008 OVC041 12/12 A2996 RMK AO2 SLP152 P0001 60004 T01170117 58027=
202304230236 SPECI KPWT 230236Z AUTO 22004KT 10SM BKN004 BKN036 12/12 A2997 RMK AO2 P0001=
202304230156 METAR KPWT 230156Z AUTO 24004KT 8SM FEW004 BKN036 OVC043 12/12 A2999 RMK AO2 RAE56 SLP161 P0002 T01220122=
202304230148 SPECI KPWT 230148Z AUTO 24005KT 5SM -RA BR FEW004 BKN033 OVC041 12/12 A3000 RMK AO2 P0002=
202304230136 SPECI KPWT 230136Z AUTO 26005KT 5SM -RA BR SCT004 BKN026 OVC040 12/12 A3000 RMK AO2 P0002=
202304230114 SPECI KPWT 230114Z AUTO 25004KT 7SM RA SCT006 BKN030 OVC045 12/12 A3002 RMK AO2 P0001=
202304230056 METAR KPWT 230056Z AUTO 26005KT 8SM -RA SCT033 OVC041 12/12 A3002 RMK AO2 RAB00 SLP170 P0001 T01220122=
202304222356 METAR KPWT 222356Z AUTO 24006KT 10SM FEW028 OVC043 13/11 A3005 RMK AO2 RAB18E42 SLP180 P0000 60000 T01280111 10144 20094 56024=
202304222256 METAR KPWT 222256Z AUTO 22005KT 10SM OVC041 14/11 A3007 RMK AO2 SLP187 T01440106=
202304222156 METAR KPWT 222156Z AUTO 19007KT 10SM SCT027 BKN047 BKN060 14/11 A3009 RMK AO2 SLP195 T01440106=
202304222109 SPECI KPWT 222109Z AUTO 19008KT 10SM BKN016 OVC027 14/10 A3012 RMK AO2=
202304222056 METAR KPWT 222056Z AUTO 22010KT 10SM BKN014 13/10 A3012 RMK AO2 RAB25E39 SLP204 P0000 60000 T01330100 58024=
202304221956 METAR KPWT 221956Z AUTO 21011KT 10SM OVC012 12/09 A3015 RMK AO2 SLP215 T01220094=
202304221856 METAR KPWT 221856Z AUTO 21009KT 10SM OVC010 11/09 A3018 RMK AO2 SLP224 T01110089=
202304221836 SPECI KPWT 221836Z AUTO 22009KT 10SM OVC010 11/09 A3018 RMK AO2=
202304221756 METAR KPWT 221756Z AUTO 20007KT 10SM OVC008 10/08 A3019 RMK AO2 RAB09E35 SLP228 P0000 60000 T01000083 10100 20061 58014=
202304221656 METAR KPWT 221656Z AUTO 22006KT 7SM BKN008 OVC013 09/08 A3020 RMK AO2 SLP233 T00890078=
202304221629 SPECI KPWT 221629Z AUTO 23005KT 9SM BKN008 OVC013 08/08 A3022 RMK AO2=
202304221616 SPECI KPWT 221616Z AUTO 24003KT 10SM FEW008 OVC015 08/06 A3022 RMK AO2=
202304221556 METAR KPWT 221556Z AUTO 23003KT 10SM OVC021 08/06 A3022 RMK AO2 RAB15E31 SLP240 P0000 T00780061=
202304221456 METAR KPWT 221456Z AUTO 00000KT 10SM OVC025 08/06 A3023 RMK AO2 SLP242 60000 T00780061 56012=
202304221356 METAR KPWT 221356Z AUTO 00000KT 10SM OVC021 07/07 A3024 RMK AO2 SLP245 T00670067=
202304221256 METAR KPWT 221256Z AUTO 00000KT 10SM OVC029 07/07 A3025 RMK AO2 RAE38 SLP248 P0000 T00670067=
202304221244 SPECI KPWT 221244Z AUTO 00000KT 10SM OVC029 07/07 A3025 RMK AO2 RAE38 P0000=
202304221156 METAR KPWT 221156Z AUTO 00000KT 10SM -RA OVC033 07/07 A3027 RMK AO2 RAB24 SLP254 P0001 60001 70001 T00670067 10078 20061 58009=
202304221056 METAR KPWT 221056Z AUTO 00000KT 10SM CLR 06/06 A3028 RMK AO2 RAB04E28 SLP259 P0000 T00610061=
202304221003 SPECI KPWT 221003Z AUTO 00000KT 10SM BKN031 BKN110 07/07 A3029 RMK AO2=
202304220956 METAR KPWT 220956Z AUTO 00000KT 10SM BKN029 OVC110 07/07 A3029 RMK AO2 RAE03 SLP263 P0000 T00670067=
202304220952 SPECI KPWT 220952Z AUTO 00000KT 10SM OVC029 07/07 A3029 RMK AO2 RAE03 P0000=
202304220856 METAR KPWT 220856Z AUTO 00000KT 10SM -RA OVC036 07/07 A3031 RMK AO2 RAE21B47 SLP269 P0000 60000 T00670067 56014=
202304220756 METAR KPWT 220756Z AUTO 00000KT 10SM -RA BKN038 07/07 A3032 RMK AO2 SLP272 P0000 T00720067 401110050=
202304220656 METAR KPWT 220656Z AUTO 00000KT 10SM -RA CLR 07/07 A3033 RMK AO2 RAB48 SLP277 P0000 T00720067=
202304220556 METAR KPWT 220556Z AUTO 00000KT 10SM CLR 08/06 A3035 RMK AO2 SLP283 T00780061 10106 20072 58003=
202304220456 METAR KPWT 220456Z AUTO 19004KT 10SM SCT110 08/07 A3036 RMK AO2 SLP286 T00780067=
202304220356 METAR KPWT 220356Z AUTO 19004KT 10SM CLR 08/07 A3037 RMK AO2 SLP289 T00830067=
202304220256 METAR KPWT 220256Z AUTO 18004KT 10SM CLR 09/07 A3036 RMK AO2 SLP287 T00890067 58007=
202304220156 METAR KPWT 220156Z AUTO 18004KT 10SM CLR 09/07 A3037 RMK AO2 SLP290 T00940067=
202304220056 METAR KPWT 220056Z AUTO 23009KT 10SM CLR 10/06 A3038 RMK AO2 SLP292 T01000056=
202304212356 METAR KPWT 212356Z AUTO 23013KT 10SM CLR 10/06 A3038 RMK AO2 SLP294 T01000056 10111 20083 58003=
202304212336 SPECI KPWT 212336Z AUTO 22012KT 10SM SCT025 11/06 A3038 RMK AO2=
202304212256 METAR KPWT 212256Z AUTO 19009KT 10SM BKN021 OVC028 11/07 A3038 RMK AO2 SLP295 T01060067=
202304212156 METAR KPWT 212156Z AUTO 23011KT 10SM BKN023 11/06 A3039 RMK AO2 SLP297 T01060056=
202304212056 METAR KPWT 212056Z AUTO 19009G14KT 10SM BKN021 BKN029 11/06 A3039 RMK AO2 SLP298 T01060061 50006=
202304211956 METAR KPWT 211956Z AUTO 22009KT 10SM BKN022 OVC028 10/06 A3039 RMK AO2 SLP298 T01000061=
202304211856 METAR KPWT 211856Z AUTO 24011KT 10SM SCT017 BKN025 09/06 A3038 RMK AO2 SLP293 T00940056=
202304211756 METAR KPWT 211756Z AUTO 22008KT 10SM OVC015 08/06 A3037 RMK AO2 SLP292 T00830061 10083 20050 53008=
202304211656 METAR KPWT 211656Z AUTO 22011G16KT 10SM BKN011 08/07 A3035 RMK AO2 CIG 009V013 SLP285 T00830067=
202304211654 SPECI KPWT 211654Z AUTO 21011G18KT 10SM BKN011 08/07 A3036 RMK AO2=
202304211556 METAR KPWT 211556Z AUTO 21011KT 10SM BKN009 07/06 A3035 RMK AO2 CIG 006V012 SLP284 T00670061=
202304211456 METAR KPWT 211456Z AUTO 20010KT 10SM BKN009 BKN065 06/06 A3034 RMK AO2 CIG 007V014 SLP282 T00610061 51005=
202304211451 SPECI KPWT 211451Z AUTO 20008KT 10SM BKN009 BKN065 06/06 A3034 RMK AO2 CIG 006V014=
202304211439 SPECI KPWT 211439Z AUTO 20010KT 10SM SCT007 SCT011 BKN070 06/06 A3034 RMK AO2=
202304211427 SPECI KPWT 211427Z AUTO 20011KT 10SM BKN007 06/06 A3033 RMK AO2 CIG 005V010=
202304211356 METAR KPWT 211356Z AUTO 20010KT 10SM FEW008 SCT065 06/06 A3033 RMK AO2 SLP277 T00560056=
202304211352 SPECI KPWT 211352Z AUTO 20009KT 10SM SCT008 SCT065 06/06 A3033 RMK AO2=
202304211343 SPECI KPWT 211343Z AUTO 20010KT 10SM BKN008 BKN060 06/06 A3032 RMK AO2 CIG 005V010=
202304211321 SPECI KPWT 211321Z AUTO 20008KT 10SM FEW008 SCT013 BKN060 06/05 A3032 RMK AO2=
202304211314 SPECI KPWT 211314Z AUTO 20009KT 10SM FEW008 BKN013 BKN060 06/05 A3032 RMK AO2=
202304211259 SPECI KPWT 211259Z AUTO 20010KT 10SM SCT011 BKN015 BKN060 06/05 A3031 RMK AO2=
202304211256 METAR KPWT 211256Z AUTO 20010KT 10SM SCT011 BKN014 BKN060 05/05 A3031 RMK AO2 SLP272 T00500050=
202304211251 SPECI KPWT 211251Z AUTO 20008KT 10SM BKN011 BKN014 BKN060 05/05 A3031 RMK AO2 CIG 007V013=
202304211231 SPECI KPWT 211231Z AUTO 19008KT 10SM SCT009 SCT065 05/05 A3030 RMK AO2=
202304211156 METAR KPWT 211156Z AUTO 20009KT 10SM OVC007 06/06 A3030 RMK AO2 SLP268 70061 T00560056 10056 20050 51015=
202304211056 METAR KPWT 211056Z AUTO 20006KT 10SM OVC009 05/05 A3029 RMK AO2 CIG 007V014 SLP266 T00500050=
202304210956 METAR KPWT 210956Z AUTO 21005KT 10SM OVC007 05/05 A3028 RMK AO2 SLP259 T00500050=
202304210856 METAR KPWT 210856Z AUTO 00000KT 10SM OVC007 05/05 A3026 RMK AO2 SLP252 T00500050 53027=
202304210756 METAR KPWT 210756Z AUTO 00000KT 10SM OVC009 05/05 A3023 RMK AO2 CIG 008V012 SLP243 T00500050 400560011=
202304210735 SPECI KPWT 210735Z AUTO VRB04KT 10SM OVC011 05/05 A3022 RMK AO2=
202304210656 METAR KPWT 210656Z AUTO 24003KT 10SM OVC007 05/05 A3020 RMK AO2 CIG 006V011 SLP233 T00500050=
202304210635 SPECI KPWT 210635Z AUTO 22005KT 10SM BKN009 05/05 A3019 RMK AO2 CIG 007V011=
202304210608 SPECI KPWT 210608Z AUTO 21009KT 10SM SCT009 05/05 A3018 RMK AO2=
202304210556 METAR KPWT 210556Z AUTO 21010KT 10SM BKN009 05/05 A3017 RMK AO2 RAE0459 CIG 004V012 SLP225 P0000 60029 T00500050 10056 20050 53014=
202304210547 SPECI KPWT 210547Z AUTO 22013KT 10SM BKN007 OVC011 06/06 A3017 RMK AO2 RAE0459 CIG 004V010 P0000=
202304210456 METAR KPWT 210456Z AUTO 16005KT 10SM -RA OVC004 06/06 A3014 RMK AO2 SLP214 P0004 T00560056=
202304210356 METAR KPWT 210356Z AUTO 19005KT 4SM -RA BR OVC004 06/06 A3014 RMK AO2 SLP214 P0004 T00560056=
202304210256 METAR KPWT 210256Z AUTO 18007KT 5SM RA BR OVC006 06/06 A3013 RMK AO2 CIG 005V010 SLP212 P0010 60021 T00560056 56010=
202304210156 METAR KPWT 210156Z AUTO 18009KT 9SM -RA OVC006 06/06 A3013 RMK AO2 CIG 005V009 SLP210 P0006 T00560056=
202304210056 METAR KPWT 210056Z AUTO 20012G20KT 5SM -RA BR OVC006 06/05 A3014 RMK AO2 SLP213 P0005 T00560050=
202304210020 SPECI KPWT 210020Z AUTO 21012G17KT 4SM -RA BR OVC006 06/06 A3016 RMK AO2 P0003=
202304210009 SPECI KPWT 210009Z AUTO 21010KT 2 1/2SM -RA BR OVC006 06/06 A3016 RMK AO2 VIS 1 3/4V5 CIG 004V009 P0002=
202304202356 METAR KPWT 202356Z AUTO 21009KT 3SM -RA BR OVC008 06/06 A3016 RMK AO2 CIG 004V009 SLP221 P0007 60032 T00560056 10056 20050 56030=
202304202322 SPECI KPWT 202322Z AUTO 20009KT 5SM -RA BR BKN008 OVC014 06/06 A3018 RMK AO2 CIG 006V012 P0002=
202304202256 METAR KPWT 202256Z AUTO 20008KT 10SM -RA BKN012 OVC019 06/05 A3019 RMK AO2 SLP230 P0007 T00560050=
202304202235 SPECI KPWT 202235Z AUTO 20011G20KT 10SM -RA SCT009 BKN013 OVC019 06/05 A3020 RMK AO2 P0005=
202304202156 METAR KPWT 202156Z AUTO 20009KT 9SM RA OVC007 06/05 A3023 RMK AO2 CIG 005V010 SLP242 P0007 T00560050=
202304202116 SPECI KPWT 202116Z AUTO 20006KT 7SM RA BKN007 OVC016 05/05 A3025 RMK AO2 CIG 005V012 P0003=
202304202056 METAR KPWT 202056Z AUTO 18005KT 9SM RA SCT007 SCT012 OVC016 05/05 A3026 RMK AO2 SLP252 P0007 60011 T00500050 56013=
202304202018 SPECI KPWT 202018Z AUTO 21006KT 9SM RA BKN005 BKN013 OVC019 05/04 A3027 RMK AO2 CIG 005V009 P0001=
202304202008 SPECI KPWT 202008Z AUTO 21005KT 9SM -RA FEW007 BKN014 OVC019 05/04 A3027 RMK AO2 P0001=
202304201956 METAR KPWT 201956Z AUTO 19005KT 10SM -RA OVC019 05/04 A3027 RMK AO2 SLP258 P0004 T00500044=
202304201856 METAR KPWT 201856Z AUTO 21011KT 10SM -RA BKN020 OVC027 05/04 A3029 RMK AO2 SLP264 P0000 T00500039=
202304201844 SPECI KPWT 201844Z AUTO 21011KT 10SM -RA FEW020 BKN027 BKN034 05/03 A3030 RMK AO2 P0000=
202304201756 METAR KPWT 201756Z AUTO 22005KT 10SM -RA FEW029 05/03 A3031 RMK AO2 RAB38 SLP270 P0000 60000 T00500033 10050 20011 56010=
202304201707 SPECI KPWT 201707Z AUTO 24006KT 10SM FEW008 04/03 A3032 RMK AO2=
202304201656 METAR KPWT 201656Z AUTO 25004KT 10SM FEW100 04/03 A3032 RMK AO2 SLP272 T00440033=
202304201556 METAR KPWT 201556Z AUTO 25003KT 10SM CLR 04/03 A3033 RMK AO2 SLP277 T00390028=
202304201456 METAR KPWT 201456Z AUTO 00000KT 10SM CLR 03/03 A3034 RMK AO2 SLP281 T00280028 56006=
202304201356 METAR KPWT 201356Z AUTO 00000KT 10SM CLR 02/02 A3035 RMK AO2 SLP284 T00170017 FZRANO=
202304201256 METAR KPWT 201256Z AUTO 00000KT 10SM CLR 02/02 A3035 RMK AO2 SLP284 T00170017 FZRANO=
202304201207 SPECI KPWT 201207Z AUTO 00000KT 10SM OVC030 02/02 A3036 RMK AO2 FZRANO=
202304201156 METAR KPWT 201156Z AUTO 00000KT 10SM BKN028 02/02 A3036 RMK AO2 SLP287 70008 T00170017 10033 20011 50002 FZRANO=
202304201107 SPECI KPWT 201107Z AUTO 22004KT 10SM BKN028 02/02 A3036 RMK AO2 FZRANO=
202304201056 METAR KPWT 201056Z AUTO 23004KT 10SM SCT026 01/01 A3036 RMK AO2 SLP287 T00110011 FZRANO=
202304201036 SPECI KPWT 201036Z AUTO 23004KT 10SM SCT003 SCT024 01/01 A3036 RMK AO2 FZRANO=
202304200956 METAR KPWT 200956Z AUTO 00000KT 10SM BKN003 02/02 A3035 RMK AO2 SLP284 T00170017 FZRANO=
202304200952 SPECI KPWT 200952Z AUTO 00000KT 10SM BKN003 02/02 A3035 RMK AO2 FZRANO=
202304200906 SPECI KPWT 200906Z AUTO 24004KT 10SM SCT003 02/02 A3035 RMK AO2 FZRANO=
202304200856 METAR KPWT 200856Z AUTO 24004KT 8SM BKN003 02/02 A3034 RMK AO2 SLP282 T00170017 51014 FZRANO=
202304200837 SPECI KPWT 200837Z AUTO 21003KT 10SM BKN003 02/02 A3035 RMK AO2 FZRANO=
202304200828 SPECI KPWT 200828Z AUTO 22004KT 10SM SCT003 02/02 A3034 RMK AO2 FZRANO=
202304200756 METAR KPWT 200756Z AUTO 18006KT 10SM CLR 03/03 A3033 RMK AO2 SLP279 T00280028 400830022=
202304200656 METAR KPWT 200656Z AUTO 18005KT 10SM CLR 03/03 A3032 RMK AO2 SLP276 T00280028=
202304200556 METAR KPWT 200556Z AUTO 18006KT 10SM CLR 03/02 A3030 RMK AO2 SLP268 T00280022 10083 20022 51020=
202304200456 METAR KPWT 200456Z AUTO 20008KT 10SM CLR 03/02 A3029 RMK AO2 SLP265 T00330022=
202304200356 METAR KPWT 200356Z AUTO 19007KT 10SM CLR 04/02 A3027 RMK AO2 SLP258 T00390022=
202304200256 METAR KPWT 200256Z AUTO 20008KT 10SM CLR 05/02 A3024 RMK AO2 SLP248 T00500022 53014=
202304200156 METAR KPWT 200156Z AUTO 21008KT 10SM FEW024 07/03 A3022 RMK AO2 SLP242 T00670033=
202304200138 SPECI KPWT 200138Z AUTO 20012G18KT 10SM SCT024 07/03 A3022 RMK AO2=
202304200119 SPECI KPWT 200119Z AUTO 21009KT 10SM BKN024 08/03 A3022 RMK AO2=
202304200056 METAR KPWT 200056Z AUTO 23010KT 10SM FEW022 08/03 A3022 RMK AO2 SLP239 T00780033=
202304192356 METAR KPWT 192356Z AUTO 21013G21KT 10SM FEW020 SCT025 08/04 A3020 RMK AO2 RAB10E25 SLP234 P0000 60005 T00780044 10083 20044 51015=
202304192256 METAR KPWT 192256Z AUTO 18006KT 10SM FEW027 SCT033 07/04 A3019 RMK AO2 RAB28E40 SLP230 P0000 T00670044=
202304192227 SPECI KPWT 192227Z AUTO 21009KT 10SM FEW013 SCT019 BKN043 07/04 A3019 RMK AO2=
202304192156 METAR KPWT 192156Z AUTO VRB03KT 10SM BKN019 BKN026 BKN034 06/05 A3019 RMK AO2 RAB17E49 SLP229 P0001 T00560050=
202304192137 SPECI KPWT 192137Z AUTO 19008G14KT 10SM -RA FEW019 BKN027 OVC033 04/04 A3019 RMK AO2 RAB17 P0001=
202304192056 METAR KPWT 192056Z AUTO 27006KT 10SM FEW049 08/04 A3016 RMK AO2 PK WND 23027/2014 RAB18E33 SLP219 P0001 60004 T00780044 51022=
202304192035 SPECI KPWT 192035Z AUTO VRB03KT 10SM FEW022 SCT029 07/04 A3016 RMK AO2 PK WND 23027/2014 RAB18E33 P0001=
202304192008 SPECI KPWT 192008Z AUTO 26005KT 10SM FEW014 BKN028 08/04 A3014 RMK AO2=
202304191956 METAR KPWT 191956Z AUTO 25006KT 10SM FEW014 SCT023 07/04 A3014 RMK AO2 RAE29 SLP212 P0000 T00720044=
202304191937 SPECI KPWT 191937Z AUTO 25004KT 10SM FEW016 SCT027 06/05 A3013 RMK AO2 RAE29 P0000=
202304191856 METAR KPWT 191856Z AUTO 20012KT 10SM -RA FEW019 BKN025 OVC041 06/04 A3012 RMK AO2 RAB03 SLP208 P0003 T00610044=
202304191809 SPECI KPWT 191809Z AUTO 22010KT 6SM -RA BR BKN022 06/03 A3010 RMK AO2 RAB03 P0001=
202304191756 METAR KPWT 191756Z AUTO 21006G14KT 10SM FEW024 SCT034 08/03 A3009 RMK AO2 SLP196 60003 T00780033 10078 20039 51020=
202304191713 SPECI KPWT 191713Z AUTO 20011KT 10SM SCT017 SCT025 BKN030 07/04 A3008 RMK AO2=
202304191656 METAR KPWT 191656Z AUTO 20010KT 10SM SCT016 BKN025 OVC036 07/05 A3007 RMK AO2 RAE36 SLP190 P0000 T00670050=
202304191621 SPECI KPWT 191621Z AUTO 20008KT 10SM -RA BKN013 BKN022 OVC028 05/04 A3007 RMK AO2 P0000=
202304191614 SPECI KPWT 191614Z AUTO 21008KT 10SM SCT011 BKN016 BKN022 05/04 A3006 RMK AO2 RAE07 P0000=
202304191556 METAR KPWT 191556Z AUTO 22008KT 10SM -RA BKN009 OVC016 04/04 A3006 RMK AO2 RAB24 CIG 007V013 SLP185 P0000 T00440044=
202304191540 SPECI KPWT 191540Z AUTO 22011KT 10SM -RA BKN009 BKN016 OVC022 04/04 A3005 RMK AO2 RAB24 CIG 007V012 P0000=
202304191520 SPECI KPWT 191520Z AUTO 20007KT 10SM SCT008 BKN023 OVC028 04/04 A3004 RMK AO2=
202304191456 METAR KPWT 191456Z AUTO 20009KT 10SM BKN008 OVC015 04/04 A3003 RMK AO2 CIG 007V012 SLP176 60003 T00440039 52010=
202304191453 SPECI KPWT 191453Z AUTO 19008KT 10SM BKN008 OVC013 04/04 A3003 RMK AO2 CIG 007V012=
202304191416 SPECI KPWT 191416Z AUTO 19008KT 10SM BKN010 OVC029 04/04 A3001 RMK AO2 CIG 007V014=
202304191409 SPECI KPWT 191409Z AUTO 17008KT 140V200 10SM BKN008 OVC013 04/04 A3001 RMK AO2 CIG 007V011=
202304191356 METAR KPWT 191356Z AUTO 19008KT 10SM OVC013 04/04 A3000 RMK AO2 RAE04 SLP166 P0000 T00390039=
202304191353 SPECI KPWT 191353Z AUTO 20008KT 10SM OVC013 04/04 A3000 RMK AO2 RAE04 P0000=
202304191256 METAR KPWT 191256Z AUTO 19007KT 10SM -RA BKN015 OVC028 04/04 A2998 RMK AO2 SLP160 P0003 T00390039=
202304191156 METAR KPWT 191156Z AUTO 19006KT 10SM -RA OVC017 04/03 A2998 RMK AO2 RAE02B31 SLP157 P0001 60006 70031 T00390033 10039 20033 53006=
202304191056 METAR KPWT 191056Z AUTO 19004KT 10SM -RA OVC021 04/03 A2996 RMK AO2 RAB15 SLP153 P0000 T00390033=
202304190956 METAR KPWT 190956Z AUTO 20004KT 10SM BKN021 OVC030 04/03 A2996 RMK AO2 RAE0857B14E31 SLP152 P0000 T00390033=
202304190856 METAR KPWT 190856Z AUTO 19003KT 10SM -RA OVC023 04/03 A2996 RMK AO2 SLP151 P0005 60005 T00390033 57002=
202304190815 SPECI KPWT 190815Z AUTO VRB04KT 8SM RA FEW016 BKN023 BKN029 04/04 A2996 RMK AO2 P0001=
202304190756 METAR KPWT 190756Z AUTO 20003KT 10SM -RA BKN032 03/03 A2996 RMK AO2 SLP153 P0000 T00330033 400720017=
202304190656 METAR KPWT 190656Z AUTO 20003KT 10SM -RA FEW028 03/03 A2996 RMK AO2 SLP151 P0000 T00330033=
202304190645 SPECI KPWT 190645Z AUTO 20004KT 10SM -RA SCT026 SCT033 03/03 A2996 RMK AO2 P0000=
202304190638 SPECI KPWT 190638Z AUTO 21004KT 10SM -RA BKN026 BKN043 04/04 A2996 RMK AO2 P0000=
202304190556 METAR KPWT 190556Z AUTO 20006KT 10SM -RA SCT023 BKN050 04/04 A2996 RMK AO2 RAB34 SLP154 P0000 60005 T00390039 10072 20039 50001=
202304190456 METAR KPWT 190456Z AUTO 19004KT 10SM SCT012 OVC018 04/04 A2997 RMK AO2 RAE53 SLP153 P0003 T00390039=
202304190454 SPECI KPWT 190454Z AUTO 20004KT 10SM BKN015 OVC021 04/04 A2997 RMK AO2 RAE53 P0003=
202304190412 SPECI KPWT 190412Z AUTO 22005KT 8SM RA BKN013 OVC019 04/04 A2996 RMK AO2 P0002=
202304190356 METAR KPWT 190356Z AUTO 20009KT 8SM +RA SCT013 BKN019 OVC034 05/04 A2996 RMK AO2 RAB42 SLP151 P0002 T00500039=
202304190317 SPECI KPWT 190317Z AUTO 19007KT 10SM BKN020 BKN027 OVC033 06/03 A2994 RMK AO2=
202304190256 METAR KPWT 190256Z AUTO 18004KT 10SM BKN032 OVC039 06/03 A2994 RMK AO2 SLP144 T00560033 53006=
202304190217 SPECI KPWT 190217Z AUTO 18006KT 10SM FEW020 SCT025 BKN034 06/03 A2994 RMK AO2=
202304190156 METAR KPWT 190156Z AUTO 19007KT 10SM OVC020 06/04 A2993 RMK AO2 SLP143 T00610039=
202304190056 METAR KPWT 190056Z AUTO 19007KT 10SM BKN022 OVC028 06/04 A2993 RMK AO2 SLP141 T00610039=
202304182356 METAR KPWT 182356Z AUTO 20012G15KT 10SM BKN018 BKN025 06/04 A2992 RMK AO2 RAE15 SLP140 P0001 60004 T00610044 10067 20044 50001=
202304182348 SPECI KPWT 182348Z AUTO 21012KT 10SM BKN018 OVC025 06/04 A2993 RMK AO2 RAE15 P0001=
202304182256 METAR KPWT 182256Z AUTO 20011KT 10SM -RA BKN013 OVC018 05/04 A2993 RMK AO2 SLP140 P0000 T00500044=
202304182253 SPECI KPWT 182253Z AUTO 21011G16KT 10SM -RA BKN011 OVC019 05/04 A2993 RMK AO2 P0000=
202304182209 SPECI KPWT 182209Z AUTO 18012G19KT 10SM -RA FEW009 BKN015 BKN025 06/06 A2992 RMK AO2 P0000=
202304182158 SPECI KPWT 182158Z AUTO 19009KT 10SM -RA BKN009 BKN018 BKN023 06/05 A2992 RMK AO2 CIG 007V014 P0000=
202304182156 METAR KPWT 182156Z AUTO 19011KT 10SM -RA SCT009 BKN015 OVC021 06/04 A2992 RMK AO2 RAB00 SLP139 P0001 T00560044=
202304182146 SPECI KPWT 182146Z AUTO 21014G19KT 10SM -RA BKN009 BKN016 OVC024 05/05 A2992 RMK AO2 RAB00 CIG 007V014 P0000=
202304181905 SPECI KPWT 181905Z AUTO 19012G20KT 10SM -RA OVC011 05/04 A2988 RMK AO2 P0000=
202304181856 METAR KPWT 181856Z AUTO 21011G19KT 10SM -RA BKN009 OVC014 04/04 A2988 RMK AO2 CIG 007V012 SLP125 P0000 T00440039=
202304181756 METAR KPWT 181756Z AUTO 20010KT 10SM -RA OVC009 04/04 A2985 RMK AO2 RAE21B42 CIG 007V011 SLP112 P0000 60016 T00440039 10044 20017 53027=
202304181716 SPECI KPWT 181716Z AUTO 19012G22KT 10SM -RA BKN007 OVC013 04/03 A2982 RMK AO2 CIG 005V012 P0000=
202304181656 METAR KPWT 181656Z AUTO 19013G21KT 10SM -RA OVC005 03/03 A2981 RMK AO2 RAE20B39 SLP101 P0000 T00330033=
202304181627 SPECI KPWT 181627Z AUTO 20014G20KT 10SM OVC007 03/03 A2980 RMK AO2 RAE20 CIG 004V009 P0000=
202304181556 METAR KPWT 181556Z AUTO 19012G20KT 10SM -RA OVC005 03/03 A2979 RMK AO2 UPE1457RAB1457 CIG 005V010 SLP095 P0008 T00280028=
202304181456 METAR KPWT 181456Z AUTO 19012KT 10SM UP OVC005 02/02 A2976 RMK AO2 RAE51UPB27 SLP086 P0006 60008 T00220022 53026 FZRANO=
202304181435 SPECI KPWT 181435Z AUTO 19009G17KT 10SM UP BKN005 OVC012 02/02 A2976 RMK AO2 RAE27UPB27 P0006 FZRANO=
202304181356 METAR KPWT 181356Z AUTO 20012G21KT 10SM -RA SCT005 BKN009 OVC022 02/02 A2974 RMK AO2 RAB1258 CIG 008V012 SLP076 P0002 T00220022 FZRANO=
202304181256 METAR KPWT 181256Z AUTO 20011KT 10SM OVC007 03/02 A2971 RMK AO2 RAE1158UPB1158E18 CIG 005V010 SLP067 P0000 T00280022=
202304181237 SPECI KPWT 181237Z AUTO 19009KT 10SM OVC007 02/02 A2969 RMK AO2 RAE1158UPB1158E18 CIG 005V009 P0000 FZRANO=
202304181209 SPECI KPWT 181209Z AUTO 20014G17KT 10SM UP OVC005 02/02 A2969 RMK AO2 RAE1158UPB1158 CIG 004V010 P0000 FZRANO=
202304181156 METAR KPWT 181156Z AUTO 18010KT 9SM -RA BKN007 BKN010 OVC016 02/02 A2969 RMK AO2 SLP059 P0004 60014 70039 T00220022 10039 20017 53017 FZRANO=
202304181056 METAR KPWT 181056Z AUTO 19010G15KT 10SM -RA OVC007 03/03 A2966 RMK AO2 SLP050 P0005 T00280028=
202304181035 SPECI KPWT 181035Z AUTO 19010G22KT 10SM -RA OVC007 03/03 A2965 RMK AO2 CIG 006V012 P0005=
202304180956 METAR KPWT 180956Z AUTO 19013G16KT 10SM -RA BKN014 OVC019 03/03 A2964 RMK AO2 SLP042 P0005 T00330028=
202304180952 SPECI KPWT 180952Z AUTO 19010G16KT 10SM -RA BKN014 OVC021 03/03 A2964 RMK AO2 P0005=
202304180856 METAR KPWT 180856Z AUTO 19010G16KT 10SM -RA BKN024 OVC028 04/02 A2963 RMK AO2 RAB08 SLP041 P0000 60000 T00390022 56004=
202304180803 SPECI KPWT 180803Z AUTO 19010G15KT 10SM BKN028 OVC035 04/02 A2964 RMK AO2=
202304180756 METAR KPWT 180756Z AUTO 19009KT 10SM BKN030 OVC035 04/02 A2963 RMK AO2 SLP041 T00390022 400780006=
202304180656 METAR KPWT 180656Z AUTO 19005KT 10SM SCT050 BKN065 04/03 A2964 RMK AO2 SLP043 T00390028=
202304180556 METAR KPWT 180556Z AUTO 18004KT 10SM SCT038 03/03 A2965 RMK AO2 RAE00 SLP045 P0000 60017 T00330033 10072 20033 58002=
202304180505 SPECI KPWT 180505Z AUTO 17005KT 10SM FEW015 SCT049 BKN070 04/04 A2965 RMK AO2 RAE00 P0000=
202304180456 METAR KPWT 180456Z AUTO 17003KT 10SM -RA FEW008 BKN016 OVC065 04/04 A2966 RMK AO2 RAB42 SLP049 P0001 T00390039=
202304180453 SPECI KPWT 180453Z AUTO 18003KT 10SM -RA SCT010 BKN016 BKN050 04/04 A2966 RMK AO2 RAB42 P0001=
202304180409 SPECI KPWT 180409Z AUTO 00000KT 10SM BKN012 OVC016 04/04 A2965 RMK AO2=
202304180356 METAR KPWT 180356Z AUTO 00000KT 10SM OVC017 04/04 A2965 RMK AO2 RAE00 SLP048 P0000 T00390039=
202304180256 METAR KPWT 180256Z AUTO 26004KT 10SM -RA SCT007 BKN027 OVC035 04/04 A2965 RMK AO2 SLP046 P0008 60016 T00390039 56008=
202304180253 SPECI KPWT 180253Z AUTO 27003KT 10SM -RA FEW007 SCT011 BKN036 04/04 A2965 RMK AO2 P0008=
202304180235 SPECI KPWT 180235Z AUTO 25005KT 6SM -RA BR BKN009 BKN018 OVC031 04/04 A2966 RMK AO2 CIG 006V015 P0007=
202304180223 SPECI KPWT 180223Z AUTO 26004KT 5SM RA BR FEW017 BKN025 OVC039 04/04 A2966 RMK AO2 P0003=
202304180156 METAR KPWT 180156Z AUTO 00000KT 10SM -RA SCT028 SCT034 BKN070 04/04 A2965 RMK AO2 LTG DSNT S RAE30B46 SLP047 P0007 T00390039=
202304180135 SPECI KPWT 180135Z AUTO 26003KT 10SM FEW013 SCT021 SCT080 04/04 A2966 RMK AO2 RAE30 P0005=
202304180107 SPECI KPWT 180107Z AUTO 23011KT 4SM +RA BR SCT015 BKN021 OVC055 04/03 A2968 RMK AO2 P0004=
202304180056 METAR KPWT 180056Z AUTO 24014G22KT 6SM RA BR FEW021 SCT034 BKN043 06/04 A2968 RMK AO2 RAB14E27B54 SLP054 P0001 T00560039=
202304180026 SPECI KPWT 180026Z AUTO 20007KT 10SM -RA FEW014 SCT043 07/04 A2966 RMK AO2 RAB14 P0000=
202304180018 SPECI KPWT 180018Z AUTO 20007KT 10SM -RA FEW016 BKN024 BKN040 07/05 A2966 RMK AO2 RAB14 P0000=
202304172356 METAR KPWT 172356Z AUTO 19008KT 10SM FEW014 SCT024 SCT030 07/04 A2967 RMK AO2 RAE2258 SLP054 P0000 60008 T00720044 10078 20050 58005=
202304172348 SPECI KPWT 172348Z AUTO 20010G14KT 10SM FEW018 SCT026 SCT032 08/05 A2967 RMK AO2 RAE2258 P0000=
202304172315 SPECI KPWT 172315Z AUTO 20007KT 10SM SCT010 BKN016 07/06 A2968 RMK AO2 RAE2258 P0000=
202304172256 METAR KPWT 172256Z AUTO 22006KT 10SM -RA BKN008 06/05 A2968 RMK AO2 CIG 005V012 SLP057 P0007 T00560050=
202304172242 SPECI KPWT 172242Z AUTO 25008KT 10SM -RA BKN008 OVC016 05/05 A2969 RMK AO2 CIG 006V010 P0007=
202304172230 SPECI KPWT 172230Z AUTO 22014G21KT 7SM RA FEW009 BKN014 OVC027 06/04 A2969 RMK AO2 P0007=
202304172156 METAR KPWT 172156Z AUTO 20006KT 10SM -RA BKN027 OVC035 06/04 A2968 RMK AO2 SLP055 P0000 T00610044=
202304172105 SPECI KPWT 172105Z AUTO VRB05G15KT 10SM -RA BKN026 OVC033 06/04 A2968 RMK AO2 P0000=
202304172056 METAR KPWT 172056Z AUTO 18010G15KT 10SM -RA SCT024 OVC035 06/04 A2968 RMK AO2 SLP059 P0001 60001 T00610039 56023=
202304171956 METAR KPWT 171956Z AUTO 19007KT 160V260 10SM -RA FEW027 SCT038 08/02 A2969 RMK AO2 RAB13 SLP060 P0000 T00780022=
202304171856 METAR KPWT 171856Z AUTO VRB03KT 10SM FEW050 SCT065 07/03 A2971 RMK AO2 SLP067 T00670033=
202304171756 METAR KPWT 171756Z AUTO 27004KT 10SM SCT090 06/03 A2975 RMK AO2 SLP082 T00610033 10067 20006 56029=
202304171656 METAR KPWT 171656Z AUTO 00000KT 10SM CLR 06/02 A2977 RMK AO2 SLP087 T00610022=
202304171556 METAR KPWT 171556Z AUTO 21004KT 10SM CLR 06/03 A2981 RMK AO2 SLP099 T00560033=
202304171456 METAR KPWT 171456Z AUTO 00000KT 10SM SCT037 BKN047 04/04 A2984 RMK AO2 SLP111 T00390039 56028=
202304171356 METAR KPWT 171356Z AUTO 00000KT 10SM CLR 01/01 A2986 RMK AO2 SLP118 T00110011 FZRANO=
202304171256 METAR KPWT 171256Z AUTO 00000KT 10SM SCT042 BKN065 02/02 A2989 RMK AO2 SLP128 T00170017 FZRANO=
202304171156 METAR KPWT 171156Z AUTO 00000KT 10SM SCT038 SCT050 BKN065 02/02 A2992 RMK AO2 SLP140 60003 70050 T00170017 10028 20011 58013 FZRANO=
202304171056 METAR KPWT 171056Z AUTO 00000KT 10SM FEW010 BKN044 01/01 A2994 RMK AO2 SLP145 T00110011 FZRANO=
202304170956 METAR KPWT 170956Z AUTO 00000KT 10SM FEW012 BKN031 02/02 A2996 RMK AO2 SLP152 T00170017 FZRANO=
202304170954 SPECI KPWT 170954Z AUTO 00000KT 10SM BKN029 BKN047 02/02 A2996 RMK AO2 FZRANO=
202304170911 SPECI KPWT 170911Z AUTO 20005KT 10SM FEW008 02/02 A2997 RMK AO2 FZRANO=
202304170903 SPECI KPWT 170903Z AUTO 20006KT 10SM SCT027 02/02 A2997 RMK AO2 FZRANO=
202304170856 METAR KPWT 170856Z AUTO 21009KT 10SM BKN028 02/02 A2998 RMK AO2 RAE13UPB26E39 SLP158 P0000 60003 T00220022 58010 FZRANO=
202304170830 SPECI KPWT 170830Z AUTO 23008KT 10SM UP SCT006 BKN026 OVC032 03/03 A2998 RMK AO2 RAE13UPB26 P0000=
202304170756 METAR KPWT 170756Z AUTO 21008KT 10SM -RA BKN008 BKN020 OVC026 03/03 A2999 RMK AO2 SLP161 P0001 T00280028 400940028=
202304170744 SPECI KPWT 170744Z AUTO 21007KT 10SM -RA OVC008 03/03 A3000 RMK AO2 CIG 007V011 P0001=
202304170708 SPECI KPWT 170708Z AUTO 19004KT 10SM SCT006 OVC014 03/03 A3000 RMK AO2 RAE07 P0000=
202304170656 METAR KPWT 170656Z AUTO 17004KT 10SM -RA BKN006 OVC016 03/03 A3000 RMK AO2 CIG 005V010 SLP166 P0002 T00280028=
202304170641 SPECI KPWT 170641Z AUTO 21006KT 8SM RA BKN006 OVC020 03/03 A3001 RMK AO2 P0002=
202304170632 SPECI KPWT 170632Z AUTO 21005KT 10SM -RA SCT008 OVC020 03/03 A3001 RMK AO2 P0001=
202304170556 METAR KPWT 170556Z AUTO 23010KT 10SM RA SCT018 OVC024 03/03 A3001 RMK AO2 RAB02 SLP168 P0006 60006 T00280028 10078 20028 50015=
202304170521 SPECI KPWT 170521Z AUTO 22011KT 10SM RA BKN018 BKN028 03/02 A3001 RMK AO2 RAB02 P0002=
202304170456 METAR KPWT 170456Z AUTO 21012KT 10SM FEW090 04/02 A3001 RMK AO2 SLP169 T00390022=
202304170442 SPECI KPWT 170442Z AUTO 19007KT 150V220 10SM SCT025 SCT090 04/03 A3000 RMK AO2=
202304170418 SPECI KPWT 170418Z AUTO 20006KT 10SM SCT021 BKN028 04/03 A3000 RMK AO2=
202304170356 METAR KPWT 170356Z AUTO 21008KT 10SM FEW023 04/03 A2998 RMK AO2 SLP160 T00440028=
202304170342 SPECI KPWT 170342Z AUTO 20008KT 10SM SCT023 04/03 A2998 RMK AO2=
202304170256 METAR KPWT 170256Z AUTO 22012G20KT 10SM SCT021 BKN028 06/03 A2996 RMK AO2 SLP153 60000 T00560033 53017=
202304170156 METAR KPWT 170156Z AUTO 22017G23KT 10SM FEW018 07/04 A2994 RMK AO2 SLP145 T00670039=
202304170056 METAR KPWT 170056Z AUTO 22019G24KT 10SM CLR 07/04 A2992 RMK AO2 PK WND 25030/0025 RAE53 SLP138 P0000 T00670044=
202304162356 METAR KPWT 162356Z AUTO 22016G21KT 10SM -RA FEW010 SCT036 07/07 A2991 RMK AO2 SLP135 P0000 60010 T00720067 10094 20067 50003=
202304162351 SPECI KPWT 162351Z AUTO 21015G22KT 10SM -RA SCT010 SCT030 BKN036 07/07 A2992 RMK AO2 P0000=
202304162341 SPECI KPWT 162341Z AUTO 22014G23KT 10SM -RA BKN010 BKN036 07/06 A2992 RMK AO2 LTG DSNT E AND SE P0000=
202304162256 METAR KPWT 162256Z AUTO 23018G22KT 10SM -RA FEW011 SCT014 BKN035 07/06 A2992 RMK AO2 WSHFT 2214 RAB15 SLP139 P0002 T00670061=
202304162239 SPECI KPWT 162239Z AUTO 23017G23KT 8SM -RA FEW009 BKN015 OVC022 07/07 A2992 RMK AO2 WSHFT 2214 RAB15 P0002=
202304162234 SPECI KPWT 162234Z AUTO 23014G21KT 6SM RA BR SCT010 BKN015 OVC035 07/07 A2992 RMK AO2 WSHFT 2214 RAB15 P0001=
202304162156 METAR KPWT 162156Z AUTO 20009G18KT 10SM SCT015 BKN026 OVC034 09/07 A2991 RMK AO2 SLP132 T00890067=
202304162139 SPECI KPWT 162139Z AUTO 20012G16KT 10SM BKN015 BKN026 OVC034 08/07 A2990 RMK AO2=
202304162056 METAR KPWT 162056Z AUTO 20013G20KT 10SM FEW008 BKN011 OVC036 08/07 A2991 RMK AO2 RAE40 SLP133 P0000 60008 T00830072 51001=
202304162052 SPECI KPWT 162052Z AUTO 20012KT 10SM SCT008 BKN011 OVC030 08/07 A2991 RMK AO2 RAE40 P0000=
202304162019 SPECI KPWT 162019Z AUTO 20012KT 10SM -RA BKN008 BKN019 OVC026 07/07 A2991 RMK AO2 CIG 005V011 P0000=
202304162005 SPECI KPWT 162005Z AUTO 20010KT 10SM -RA SCT008 OVC028 07/06 A2991 RMK AO2 P0000=
202304161956 METAR KPWT 161956Z AUTO 20009KT 10SM -RA SCT010 BKN023 OVC028 07/06 A2991 RMK AO2 SLP134 P0004 T00670061=
202304161945 SPECI KPWT 161945Z AUTO 21013KT 10SM -RA SCT010 BKN020 OVC028 07/06 A2991 RMK AO2 P0003=
202304161938 SPECI KPWT 161938Z AUTO 21012G19KT 10SM -RA BKN010 OVC024 07/06 A2991 RMK AO2 CIG 007V013 P0003=
202304161856 METAR KPWT 161856Z AUTO 22011KT 10SM -RA BKN008 BKN012 OVC025 07/07 A2990 RMK AO2 CIG 006V010 SLP132 P0004 T00670067=
202304161811 SPECI KPWT 161811Z AUTO 22013G21KT 10SM -RA FEW006 BKN012 OVC024 07/06 A2990 RMK AO2 P0001=
202304161756 METAR KPWT 161756Z AUTO 21014G18KT 9SM -RA BKN006 BKN010 OVC033 07/07 A2990 RMK AO2 SLP130 P0008 60031 T00720067 10072 20056 53002=
202304161751 SPECI KPWT 161751Z AUTO 19014G18KT 10SM -RA BKN008 OVC033 07/07 A2989 RMK AO2 CIG 006V011 P0007=
202304161740 SPECI KPWT 161740Z AUTO 20011G17KT 10SM -RA FEW006 SCT009 OVC033 07/07 A2989 RMK AO2 P0006=
202304161656 METAR KPWT 161656Z AUTO 20009KT 10SM -RA BKN006 BKN012 OVC030 07/07 A2989 RMK AO2 CIG 004V009 SLP127 P0010 T00670067=
202304161637 SPECI KPWT 161637Z AUTO 20006KT 8SM RA BKN006 BKN012 BKN016 07/07 A2989 RMK AO2 CIG 004V010 P0008=
202304161556 METAR KPWT 161556Z AUTO 23005KT 8SM RA FEW005 BKN010 OVC016 07/07 A2989 RMK AO2 CIG 007V013 SLP127 P0009 T00670067=
202304161530 SPECI KPWT 161530Z AUTO 25003KT 8SM RA FEW003 SCT009 BKN012 06/06 A2989 RMK AO2 P0004=
202304161456 METAR KPWT 161456Z AUTO 00000KT 9SM -RA CLR 07/07 A2989 RMK AO2 SLP127 P0004 60004 T00670067 56019=
202304161356 METAR KPWT 161356Z AUTO 00000KT 10SM -RA CLR 06/06 A2990 RMK AO2 RAB15 SLP132 P0000 T00610061=
202304161256 METAR KPWT 161256Z AUTO 00000KT 10SM SCT050 06/06 A2993 RMK AO2 SLP141 T00610061=
202304161156 METAR KPWT 161156Z AUTO 00000KT 10SM SCT033 BKN060 06/06 A2995 RMK AO2 RAE08B35E45 SLP147 P0000 60001 70004 T00610061 10078 20061 56017=
202304161056 METAR KPWT 161056Z AUTO 22003KT 10SM -RA BKN040 OVC060 07/07 A2996 RMK AO2 RAB17 SLP151 P0001 T00670067=
202304160956 METAR KPWT 160956Z AUTO 00000KT 10SM SCT042 BKN060 OVC070 07/06 A2997 RMK AO2 RAB14E50 SLP156 P0000 T00670061=
202304160856 METAR KPWT 160856Z AUTO 15003KT 10SM FEW044 BKN070 07/06 A3000 RMK AO2 SLP164 T00670061 58021=
202304160756 METAR KPWT 160756Z AUTO 24003KT 10SM BKN080 07/07 A3002 RMK AO2 SLP169 T00720067 401000017=
202304160656 METAR KPWT 160656Z AUTO 21004KT 10SM BKN080 07/07 A3004 RMK AO2 SLP179 T00720067=
202304160622 SPECI KPWT 160622Z AUTO 20004KT 10SM SCT025 SCT080 08/07 A3005 RMK AO2=
202304160614 SPECI KPWT 160614Z AUTO 19005KT 10SM BKN025 BKN032 08/07 A3006 RMK AO2=
202304160556 METAR KPWT 160556Z AUTO 20004KT 10SM FEW023 SCT090 07/07 A3006 RMK AO2 SLP184 60000 T00720067 10100 20072 53001=
202304160456 METAR KPWT 160456Z AUTO 00000KT 10SM FEW050 SCT065 07/07 A3006 RMK AO2 RAE04B37E52 SLP185 P0000 T00720067=
202304160356 METAR KPWT 160356Z AUTO VRB03KT 10SM -RA FEW016 08/07 A3005 RMK AO2 RAB50 SLP182 P0000 T00780067=
202304160256 METAR KPWT 160256Z AUTO 19004KT 10SM SCT070 08/07 A3006 RMK AO2 SLP185 60000 T00830067 57015=
202304160156 METAR KPWT 160156Z AUTO 21007KT 10SM CLR 09/07 A3007 RMK AO2 SLP189 T00890067=
202304160056 METAR KPWT 160056Z AUTO 20008KT 10SM BKN046 09/07 A3009 RMK AO2 RAE17 SLP196 P0000 T00940067=
202304152356 METAR KPWT 152356Z AUTO 24008KT 10SM -RA FEW042 BKN055 09/07 A3010 RMK AO2 SLP200 P0000 60003 T00890067 10100 20083 58007=
202304152328 SPECI KPWT 152328Z AUTO 22009KT 10SM -RA FEW024 SCT029 SCT050 09/07 A3012 RMK AO2 P0000=
202304152312 SPECI KPWT 152312Z AUTO 23008KT 10SM -RA FEW014 BKN027 BKN036 09/07 A3012 RMK AO2 P0000=
202304152256 METAR KPWT 152256Z AUTO 21010KT 10SM -RA FEW014 SCT026 BKN036 09/07 A3012 RMK AO2 SLP207 P0000 T00940072=
202304152206 SPECI KPWT 152206Z AUTO 21010KT 10SM -RA SCT013 09/07 A3013 RMK AO2 P0000=
202304152156 METAR KPWT 152156Z AUTO 23010KT 10SM -RA BKN013 09/07 A3013 RMK AO2 SLP211 P0001 T00890072=
202304152056 METAR KPWT 152056Z AUTO 23007KT 10SM -RA CLR 09/08 A3012 RMK AO2 SLP207 P0002 60002 T00890078 51006=
202304151956 METAR KPWT 151956Z AUTO 23007KT 10SM -RA SCT025 BKN034 BKN042 09/07 A3012 RMK AO2 SLP206 P0000 T00890067=
202304151856 METAR KPWT 151856Z AUTO 22010KT 10SM -RA SCT025 09/05 A3011 RMK AO2 RAB48 SLP202 P0000 T00940050=
202304151844 SPECI KPWT 151844Z AUTO 23009KT 10SM BKN025 10/05 A3011 RMK AO2=
202304151756 METAR KPWT 151756Z AUTO 22011KT 10SM CLR 10/05 A3011 RMK AO2 SLP201 T01000050 10100 20050 50007=
202304151656 METAR KPWT 151656Z AUTO 21009KT 10SM FEW055 09/06 A3011 RMK AO2 SLP201 T00890056=
202304151556 METAR KPWT 151556Z AUTO 20009KT 10SM CLR 08/06 A3010 RMK AO2 SLP198 T00780056=
202304151456 METAR KPWT 151456Z AUTO 19006KT 10SM CLR 07/05 A3009 RMK AO2 SLP194 T00670050 53005=
202304151356 METAR KPWT 151356Z AUTO 18007KT 10SM CLR 06/05 A3008 RMK AO2 SLP190 T00610050=
202304151256 METAR KPWT 151256Z AUTO 19006KT 10SM SCT110 06/04 A3007 RMK AO2 SLP188 T00560044=
202304151156 METAR KPWT 151156Z AUTO 00000KT 10SM OVC110 05/04 A3007 RMK AO2 SLP187 T00500044 10061 20017 53003=
202304151056 METAR KPWT 151056Z AUTO 00000KT 10SM CLR 03/03 A3007 RMK AO2 SLP187 T00280028=
202304150956 METAR KPWT 150956Z AUTO 00000KT 10SM CLR 03/03 A3006 RMK AO2 SLP184 T00330028=
202304150856 METAR KPWT 150856Z AUTO 00000KT 10SM CLR 04/03 A3006 RMK AO2 SLP185 T00440033 53005=
202304150756 METAR KPWT 150756Z AUTO 00000KT 10SM CLR 06/04 A3005 RMK AO2 SLP182 T00560039 401390000=
202304150656 METAR KPWT 150656Z AUTO 00000KT 10SM CLR 06/04 A3005 RMK AO2 SLP180 T00560039=
202304150556 METAR KPWT 150556Z AUTO 00000KT 10SM CLR 06/03 A3005 RMK AO2 SLP180 T00560033 10139 20056 50012=
202304150456 METAR KPWT 150456Z AUTO 14003KT 10SM CLR 06/04 A3005 RMK AO2 SLP181 T00610039=
202304150356 METAR KPWT 150356Z AUTO 13004KT 10SM CLR 07/03 A3003 RMK AO2 SLP175 T00670033=
202304150256 METAR KPWT 150256Z AUTO 19004KT 10SM CLR 09/03 A3001 RMK AO2 SLP170 T00890028 55001=
202304150156 METAR KPWT 150156Z AUTO 19005KT 10SM CLR 12/02 A3001 RMK AO2 SLP167 T01220017=
202304150056 METAR KPWT 150056Z AUTO VRB04KT 10SM CLR 13/01 A3001 RMK AO2 SLP168 T01330006=
202304142356 METAR KPWT 142356Z AUTO 00000KT 10SM CLR 13/M01 A3002 RMK AO2 SLP170 T01331011 10133 20078 58007=
202304142256 METAR KPWT 142256Z AUTO 23011G14KT 10SM CLR 13/00 A3003 RMK AO2 SLP176 T01280000=
202304142156 METAR KPWT 142156Z AUTO 27004KT 10SM BKN050 12/01 A3004 RMK AO2 SLP177 T01220011=
202304142056 METAR KPWT 142056Z AUTO 00000KT 10SM SCT035 BKN044 BKN060 11/03 A3004 RMK AO2 SLP177 T01060028 56006=
202304141956 METAR KPWT 141956Z AUTO VRB05KT 10SM FEW031 10/03 A3004 RMK AO2 SLP177 T01000033=
202304141856 METAR KPWT 141856Z AUTO VRB04KT 10SM FEW029 BKN034 BKN044 10/04 A3005 RMK AO2 SLP181 T01000044=
202304141843 SPECI KPWT 141843Z AUTO 00000KT 10SM SCT027 BKN036 BKN044 09/04 A3005 RMK AO2=
202304141756 METAR KPWT 141756Z AUTO 03005KT 10SM OVC020 08/04 A3005 RMK AO2 SLP184 T00780044 10089 20000 51004=
202304141747 SPECI KPWT 141747Z AUTO 04005KT 10SM BKN020 BKN024 OVC035 08/04 A3005 RMK AO2=
202304141656 METAR KPWT 141656Z AUTO 00000KT 10SM FEW013 BKN030 BKN037 07/04 A3005 RMK AO2 SLP183 T00670039=
202304141654 SPECI KPWT 141654Z AUTO 12003KT 10SM SCT013 BKN030 BKN037 07/04 A3005 RMK AO2=
202304141646 SPECI KPWT 141646Z AUTO 09003KT 10SM SCT013 BKN028 07/04 A3005 RMK AO2=
202304141639 SPECI KPWT 141639Z AUTO 00000KT 10SM BKN013 BKN028 07/04 A3005 RMK AO2=
202304141556 METAR KPWT 141556Z AUTO 00000KT 10SM FEW015 06/05 A3004 RMK AO2 SLP179 T00610050=
202304141545 SPECI KPWT 141545Z AUTO 00000KT 10SM FEW013 06/05 A3004 RMK AO2=
202304141456 METAR KPWT 141456Z AUTO 00000KT 10SM BKN011 03/03 A3002 RMK AO2 SLP173 T00330033 53004=
202304141444 SPECI KPWT 141444Z AUTO 00000KT 10SM BKN011 BKN035 02/02 A3002 RMK AO2 FZRANO=
202304141420 SPECI KPWT 141420Z AUTO 00000KT 10SM FEW010 SCT035 01/01 A3001 RMK AO2 FZRANO=
202304141411 SPECI KPWT 141411Z AUTO 00000KT 2SM BR FEW010 BKN035 02/02 A3001 RMK AO2 FZRANO=
202304141356 METAR KPWT 141356Z AUTO 00000KT 10SM FEW010 BKN035 01/01 A3001 RMK AO2 SLP167 T00110011 FZRANO=
202304141313 SPECI KPWT 141313Z AUTO 00000KT 8SM CLR 00/00 A3001 RMK AO2 FZRANO=
202304141306 SPECI KPWT 141306Z AUTO 00000KT 2SM BR CLR 01/01 A3001 RMK AO2 VIS 1/2V5 FZRANO=
202304141304 SPECI KPWT 141304Z AUTO 00000KT 1SM BR CLR 01/01 A3000 RMK AO2 VIS 1/4V5 FZRANO=
202304141256 METAR KPWT 141256Z AUTO 00000KT 1/2SM FG CLR 01/01 A3000 RMK AO2 SLP168 T00060006 FZRANO=
202304141239 SPECI KPWT 141239Z AUTO 00000KT 3/4SM BR CLR 02/02 A3000 RMK AO2 FZRANO=
202304141233 SPECI KPWT 141233Z AUTO 00000KT 1 3/4SM BR CLR 02/02 A3000 RMK AO2 VIS 1/2V5 FZRANO=
202304141156 METAR KPWT 141156Z AUTO 00000KT 4SM BR OVC035 02/02 A3001 RMK AO2 SLP167 T00220022 10044 20011 51002 FZRANO=
202304141056 METAR KPWT 141056Z AUTO 00000KT 10SM OVC037 02/02 A3000 RMK AO2 SLP167 T00220022 FZRANO=
202304140956 METAR KPWT 140956Z AUTO 00000KT 4SM BR CLR 02/02 A3000 RMK AO2 SLP166 T00170017 FZRANO=
202304140921 SPECI KPWT 140921Z AUTO 00000KT 10SM FEW012 BKN033 03/03 A3000 RMK AO2=
202304140913 SPECI KPWT 140913Z AUTO 00000KT 1 1/4SM BR BKN033 03/03 A3000 RMK AO2 VIS 1/4V5=
202304140907 SPECI KPWT 140907Z AUTO 00000KT 3/4SM BR BKN033 03/03 A3000 RMK AO2=
202304140904 SPECI KPWT 140904Z AUTO 00000KT 1 1/4SM BR BKN033 03/03 A3000 RMK AO2=
202304140856 METAR KPWT 140856Z AUTO 00000KT 10SM BKN033 04/04 A3000 RMK AO2 SLP164 T00390039 50000=
202304140837 SPECI KPWT 140837Z AUTO 00000KT 10SM FEW024 OVC031 04/04 A3000 RMK AO2=
202304140756 METAR KPWT 140756Z AUTO 00000KT 10SM OVC026 04/04 A3000 RMK AO2 SLP165 T00390039 401060000=
202304140656 METAR KPWT 140656Z AUTO 00000KT 10SM SCT007 OVC017 03/03 A3000 RMK AO2 SLP166 T00280028=
202304140619 SPECI KPWT 140619Z AUTO 00000KT 10SM BKN007 03/03 A3000 RMK AO2=
202304140605 SPECI KPWT 140605Z AUTO 00000KT 10SM FEW007 BKN100 03/03 A3000 RMK AO2=
202304140556 METAR KPWT 140556Z AUTO 00000KT 10SM SCT100 03/03 A3000 RMK AO2 SLP165 60000 T00280028 10094 20028 50007=
202304140456 METAR KPWT 140456Z AUTO 00000KT 10SM BKN100 04/04 A3000 RMK AO2 SLP167 T00440044=
202304140356 METAR KPWT 140356Z AUTO 00000KT 10SM CLR 05/04 A2999 RMK AO2 SLP162 T00500044=
202304140256 METAR KPWT 140256Z AUTO 14003KT 10SM CLR 06/04 A2997 RMK AO2 RAE05 SLP158 P0000 60000 T00560044 58001=
202304140242 SPECI KPWT 140242Z AUTO 15003KT 10SM SCT023 06/05 A2997 RMK AO2 RAE05 P0000=
202304140156 METAR KPWT 140156Z AUTO 09003KT 10SM -RA BKN018 OVC025 07/04 A2998 RMK AO2 RAE17B41 SLP158 P0000 T00670044=
202304140141 SPECI KPWT 140141Z AUTO 06004KT 10SM -RA FEW018 OVC028 07/04 A2998 RMK AO2 RAE17B41 P0000=
202304140056 METAR KPWT 140056Z AUTO 05006KT 10SM -RA BKN030 08/04 A2997 RMK AO2 RAB44 SLP157 P0000 T00780044=
202304132356 METAR KPWT 132356Z AUTO 35011KT 320V020 10SM SCT050 09/03 A2998 RMK AO2 RAE03 SLP158 P0000 60000 T00940028 10106 20061 56005=
202304132256 METAR KPWT 132256Z AUTO 22011KT 10SM -RA BKN039 BKN055 09/03 A2998 RMK AO2 RAB12E23B46 SLP159 P0000 T00940033=
202304132156 METAR KPWT 132156Z AUTO 19007KT 150V220 10SM BKN034 BKN044 10/03 A2998 RMK AO2 SLP160 T01000028=
202304132056 METAR KPWT 132056Z AUTO 17007KT 150V220 10SM BKN032 BKN043 09/03 A2999 RMK AO2 SLP163 T00940028 58015=
202304132018 SPECI KPWT 132018Z AUTO VRB06KT 10SM SCT027 BKN035 BKN043 09/03 A3001 RMK AO2=
202304131956 METAR KPWT 131956Z AUTO 20006KT 10SM BKN022 OVC029 09/04 A3001 RMK AO2 SLP170 T00890039=
202304131856 METAR KPWT 131856Z AUTO 19006KT 10SM BKN020 OVC026 08/04 A3003 RMK AO2 SLP176 T00780039=
202304131756 METAR KPWT 131756Z AUTO 21008KT 10SM BKN015 OVC020 06/03 A3004 RMK AO2 SLP178 T00610033 10061 20028 56005=
202304131721 SPECI KPWT 131721Z AUTO 18008KT 10SM BKN011 06/03 A3004 RMK AO2=
202304131656 METAR KPWT 131656Z AUTO 21006KT 10SM OVC006 04/03 A3005 RMK AO2 CIG 004V009 SLP182 T00440033=
202304131631 SPECI KPWT 131631Z AUTO 24005KT 10SM OVC004 04/04 A3005 RMK AO2=
202304131556 METAR KPWT 131556Z AUTO 23006KT 8SM OVC002 03/03 A3005 RMK AO2 SLP185 T00330033=
202304131542 SPECI KPWT 131542Z AUTO 24005KT 10SM OVC002 03/03 A3006 RMK AO2=
202304131456 METAR KPWT 131456Z AUTO 16003KT 10SM OVC004 03/02 A3006 RMK AO2 SLP185 T00280022 56002=
202304131447 SPECI KPWT 131447Z AUTO 15003KT 10SM OVC004 03/02 A3005 RMK AO2=
202304131356 METAR KPWT 131356Z AUTO 00000KT 10SM BKN008 OVC015 03/03 A3006 RMK AO2 SLP185 T00330028=
202304131256 METAR KPWT 131256Z AUTO 00000KT 10SM OVC008 03/03 A3005 RMK AO2 SLP182 T00280028=
202304131156 METAR KPWT 131156Z AUTO 00000KT 10SM OVC008 03/03 A3006 RMK AO2 SLP186 T00280028 10033 20000 58004=
202304131122 SPECI KPWT 131122Z AUTO 00000KT 10SM BKN008 OVC013 03/03 A3007 RMK AO2=
202304131056 METAR KPWT 131056Z AUTO 00000KT 10SM SCT008 OVC013 02/02 A3007 RMK AO2 SLP187 T00220022 FZRANO=
202304131008 SPECI KPWT 131008Z AUTO 00000KT 10SM SCT009 BKN013 OVC018 01/01 A3007 RMK AO2 FZRANO=
202304130956 METAR KPWT 130956Z AUTO 00000KT 10SM SCT013 BKN018 01/01 A3007 RMK AO2 SLP189 T00060006 FZRANO=
202304130856 METAR KPWT 130856Z AUTO 04003KT 10SM CLR 01/01 A3007 RMK AO2 SLP190 T00060006 58002 FZRANO=
202304130756 METAR KPWT 130756Z AUTO 00000KT 10SM CLR 02/02 A3007 RMK AO2 SLP190 T00220017 401170011 FZRANO=
202304130656 METAR KPWT 130656Z AUTO 00000KT 10SM CLR 02/01 A3008 RMK AO2 SLP192 T00170011 FZRANO=
202304130556 METAR KPWT 130556Z AUTO 00000KT 10SM CLR 02/01 A3008 RMK AO2 SLP192 T00170011 10117 20017 51004 FZRANO=
202304130456 METAR KPWT 130456Z AUTO 00000KT 10SM CLR 02/01 A3007 RMK AO2 SLP191 T00220006 FZRANO=
202304130356 METAR KPWT 130356Z AUTO 00000KT 10SM FEW070 05/02 A3008 RMK AO2 SLP192 T00500017=
202304130256 METAR KPWT 130256Z AUTO 11003KT 10SM CLR 08/00 A3007 RMK AO2 SLP188 T00780000 55002=
202304130156 METAR KPWT 130156Z AUTO 10004KT 10SM OVC044 09/01 A3007 RMK AO2 SLP188 T00890006=
202304130056 METAR KPWT 130056Z AUTO 13006KT 10SM BKN050 OVC060 10/01 A3006 RMK AO2 SLP187 T01000006=
202304122356 METAR KPWT 122356Z AUTO 00000KT 10SM BKN055 OVC070 12/00 A3007 RMK AO2 SLP189 T01170000 10117 20089 58002=
202304122256 METAR KPWT 122256Z AUTO 07005KT 10SM OVC049 11/00 A3008 RMK AO2 SLP190 T01060000=
202304122156 METAR KPWT 122156Z AUTO 03006KT 10SM BKN047 OVC055 10/00 A3008 RMK AO2 SLP193 T01000000=
202304122056 METAR KPWT 122056Z AUTO 03010KT 10SM OVC050 11/01 A3008 RMK AO2 SLP191 T01060011 51002=
202304121956 METAR KPWT 121956Z AUTO 07010G15KT 10SM BKN044 10/01 A3008 RMK AO2 SLP191 T01000011=
202304121856 METAR KPWT 121856Z AUTO 05012G18KT 10SM CLR 10/01 A3008 RMK AO2 SLP191 T01000011=
202304121756 METAR KPWT 121756Z AUTO 04012G21KT 10SM CLR 09/01 A3007 RMK AO2 SLP190 T00890011 10094 20028 53011=
202304121656 METAR KPWT 121656Z AUTO 04011G15KT 10SM CLR 08/02 A3006 RMK AO2 SLP185 T00780017=
202304121556 METAR KPWT 121556Z AUTO 06006KT 10SM CLR 07/02 A3005 RMK AO2 SLP183 T00670017=
202304121456 METAR KPWT 121456Z AUTO 06005KT 10SM CLR 04/01 A3004 RMK AO2 SLP179 T00440011 53008=
202304121356 METAR KPWT 121356Z AUTO 08004KT 10SM CLR 03/02 A3003 RMK AO2 SLP175 T00330022=
202304121256 METAR KPWT 121256Z AUTO 04005KT 10SM BKN060 BKN110 03/03 A3002 RMK AO2 SLP171 T00330028=
202304121243 SPECI KPWT 121243Z AUTO 05005KT 10SM SCT013 BKN110 03/03 A3002 RMK AO2=
202304121232 SPECI KPWT 121232Z AUTO 06004KT 10SM BKN013 BKN110 03/02 A3002 RMK AO2=
202304121156 METAR KPWT 121156Z AUTO 00000KT 10SM BKN015 03/02 A3001 RMK AO2 SLP169 70013 T00280022 10028 20017 53003=
202304121149 SPECI KPWT 121149Z AUTO 00000KT 10SM BKN015 03/02 A3001 RMK AO2=
202304121056 METAR KPWT 121056Z AUTO 00000KT 10SM FEW060 BKN110 02/02 A3000 RMK AO2 SLP165 T00220022 FZRANO=
202304120956 METAR KPWT 120956Z AUTO 25003KT 10SM SCT055 03/02 A3000 RMK AO2 SLP164 T00280022=
202304120856 METAR KPWT 120856Z AUTO 20003KT 10SM BKN055 03/02 A3001 RMK AO2 SLP167 T00280022 57011=
202304120756 METAR KPWT 120756Z AUTO 00000KT 10SM SCT055 02/02 A3001 RMK AO2 SLP171 T00220017 401060017 FZRANO=
202304120656 METAR KPWT 120656Z AUTO 00000KT 10SM BKN060 03/02 A3003 RMK AO2 SLP176 T00280022=
202304120556 METAR KPWT 120556Z AUTO 00000KT 10SM CLR 03/02 A3004 RMK AO2 SLP179 T00280022 10106 20022 50002=
202304120456 METAR KPWT 120456Z AUTO 00000KT 10SM CLR 03/02 A3005 RMK AO2 SLP182 T00330017=
202304120356 METAR KPWT 120356Z AUTO 20003KT 10SM CLR 04/01 A3004 RMK AO2 SLP179 T00390011=
202304120256 METAR KPWT 120256Z AUTO 23006KT 10SM FEW120 07/M01 A3003 RMK AO2 SLP177 T00721011 58004=
202304120156 METAR KPWT 120156Z AUTO 22007KT 10SM CLR 08/M01 A3004 RMK AO2 SLP180 T00781011=
202304120056 METAR KPWT 120056Z AUTO 24007G14KT 10SM FEW060 09/M02 A3004 RMK AO2 SLP178 T00941022=
202304112356 METAR KPWT 112356Z AUTO 22012KT 10SM BKN060 11/M01 A3005 RMK AO2 SLP180 T01061011 10106 20072 56004=
202304112256 METAR KPWT 112256Z AUTO 22016G21KT 10SM FEW055 10/M01 A3005 RMK AO2 SLP181 T01001011=
202304112156 METAR KPWT 112156Z AUTO 23019G24KT 10SM CLR 11/M01 A3005 RMK AO2 SLP182 T01061006=
202304112056 METAR KPWT 112056Z AUTO 22019G25KT 10SM FEW045 10/01 A3006 RMK AO2 PK WND 22027/1958 SLP184 T01000006 51013=
202304111956 METAR KPWT 111956Z AUTO 22023G28KT 10SM CLR 09/02 A3006 RMK AO2 PK WND 22028/1948 SLP184 T00890022=
202304111856 METAR KPWT 111856Z AUTO 21017G27KT 10SM CLR 08/02 A3004 RMK AO2 PK WND 22029/1806 SLP177 T00830022=
202304111756 METAR KPWT 111756Z AUTO 21020G26KT 10SM FEW013 SCT020 07/04 A3002 RMK AO2 PK WND 20026/1755 SLP171 60013 T00720039 10072 20033 51012=
202304111752 SPECI KPWT 111752Z AUTO 21019G24KT 10SM FEW013 SCT020 07/04 A3002 RMK AO2 PK WND 21026/1723=
202304111717 SPECI KPWT 111717Z AUTO 20015KT 10SM BKN011 06/04 A3000 RMK AO2=
202304111656 METAR KPWT 111656Z AUTO 20016G19KT 10SM BKN009 05/04 A2999 RMK AO2 CIG 007V014 SLP161 T00500044=
202304111652 SPECI KPWT 111652Z AUTO 19013G18KT 10SM BKN009 05/04 A2998 RMK AO2 CIG 007V014=
202304111645 SPECI KPWT 111645Z AUTO 19011G18KT 10SM BKN011 04/04 A2998 RMK AO2 CIG 007V014=
202304111620 SPECI KPWT 111620Z AUTO 20015G19KT 10SM SCT008 04/03 A2997 RMK AO2=
202304111556 METAR KPWT 111556Z AUTO 20014G21KT 10SM OVC008 04/04 A2996 RMK AO2 PK WND 20026/1531 RAE1458 CIG 005V011 SLP153 P0000 T00390039=
202304111456 METAR KPWT 111456Z AUTO 20013G16KT 10SM -RA OVC006 03/03 A2994 RMK AO2 RAE28B48 CIG 004V011 SLP145 P0000 60013 T00330033 53005=
202304111410 SPECI KPWT 111410Z AUTO 19011G17KT 10SM -RA BKN008 BKN020 03/03 A2992 RMK AO2 CIG 007V014 P0000=
202304111403 SPECI KPWT 111403Z AUTO 19012G17KT 10SM -RA SCT010 BKN020 03/03 A2992 RMK AO2 P0000=
202304111356 METAR KPWT 111356Z AUTO 20010G20KT 10SM -RA BKN010 BKN020 OVC026 03/03 A2992 RMK AO2 CIG 007V014 SLP138 P0004 T00330033=
202304111256 METAR KPWT 111256Z AUTO 21014G19KT 10SM -RA SCT006 BKN010 OVC022 04/04 A2992 RMK AO2 CIG 008V011 SLP138 P0009 T00440039=
202304111248 SPECI KPWT 111248Z AUTO 20013KT 10SM -RA BKN006 OVC013 04/04 A2992 RMK AO2 CIG 004V009 P0007=
202304111156 METAR KPWT 111156Z AUTO 20009KT 10SM RA OVC004 04/04 A2992 RMK AO2 SLP140 P0003 60003 70044 T00440044 10050 20044 56007=
202304111117 SPECI KPWT 111117Z AUTO 20008KT 10SM -RA OVC004 04/04 A2993 RMK AO2 P0000=
202304111106 SPECI KPWT 111106Z AUTO 20007KT 10SM -RA OVC006 04/04 A2993 RMK AO2 CIG 004V010 P0000=
202304111056 METAR KPWT 111056Z AUTO 19009KT 10SM -RA OVC004 04/04 A2993 RMK AO2 CIG 003V008 SLP141 P0000 T00440044=
202304111007 SPECI KPWT 111007Z AUTO 20007KT 10SM -RA BKN008 OVC011 05/05 A2994 RMK AO2 CIG 005V011 P0000=
202304110956 METAR KPWT 110956Z AUTO 19010KT 10SM -RA OVC011 04/04 A2994 RMK AO2 RAB55 SLP145 P0000 T00440044=
202304110856 METAR KPWT 110856Z AUTO 20011KT 10SM FEW004 OVC011 04/04 A2995 RMK AO2 RAB21E32 SLP147 P0000 60000 T00440044 50005=
202304110853 SPECI KPWT 110853Z AUTO 20009KT 10SM FEW004 OVC011 04/04 A2995 RMK AO2 RAB21E32 P0000=
202304110841 SPECI KPWT 110841Z AUTO 20010KT 10SM BKN011 04/04 A2995 RMK AO2 RAB21E32 P0000=
202304110823 SPECI KPWT 110823Z AUTO 21010KT 10SM -RA FEW009 04/04 A2994 RMK AO2 RAB21 P0000=
202304110756 METAR KPWT 110756Z AUTO 21010KT 10SM FEW011 04/04 A2994 RMK AO2 SLP146 T00440044 400830044=
202304110656 METAR KPWT 110656Z AUTO 21007KT 10SM SCT007 04/04 A2993 RMK AO2 RAE33 SLP142 P0000 T00440044=
202304110616 SPECI KPWT 110616Z AUTO 23005KT 10SM SCT007 SCT025 05/05 A2994 RMK AO2 RAE11 P0000=
202304110609 SPECI KPWT 110609Z AUTO 24006KT 10SM -RA SCT025 05/05 A2995 RMK AO2 P0000=
202304110556 METAR KPWT 110556Z AUTO 23006KT 10SM -RA FEW006 BKN025 05/05 A2995 RMK AO2 SLP147 P0002 60026 T00500050 10072 20050 56002=
202304110456 METAR KPWT 110456Z AUTO 22011KT 9SM -RA BKN008 OVC013 06/06 A2995 RMK AO2 SLP150 P0008 T00560056=
202304110439 SPECI KPWT 110439Z AUTO VRB03KT 4SM RA BR BKN008 OVC015 06/06 A2995 RMK AO2 CIG 005V011 P0007=
202304110429 SPECI KPWT 110429Z AUTO 11003KT 5SM RA BR FEW008 OVC014 06/06 A2996 RMK AO2 P0005=
202304110356 METAR KPWT 110356Z AUTO 00000KT 6SM -RA BR OVC020 06/06 A2995 RMK AO2 SLP150 P0007 T00560056=
202304110317 SPECI KPWT 110317Z AUTO 00000KT 6SM -RA BR OVC020 06/06 A2995 RMK AO2 P0003=
202304110307 SPECI KPWT 110307Z AUTO 00000KT 2SM RA BR OVC020 06/06 A2995 RMK AO2 VIS 3/4V4 P0002=
202304110256 METAR KPWT 110256Z AUTO 00000KT 8SM -RA OVC020 06/06 A2995 RMK AO2 SLP148 P0005 60009 T00610061 58012=
202304110203 SPECI KPWT 110203Z AUTO 06004KT 10SM -RA FEW005 SCT009 OVC016 07/07 A2996 RMK AO2 P0001=
202304110156 METAR KPWT 110156Z AUTO 07003KT 10SM -RA SCT011 OVC016 07/07 A2997 RMK AO2 SLP154 P0002 T00720072=
202304110110 SPECI KPWT 110110Z AUTO 00000KT 10SM -RA BKN019 07/07 A2997 RMK AO2 P0000=
202304110056 METAR KPWT 110056Z AUTO 00000KT 10SM -RA SCT019 07/06 A2997 RMK AO2 SLP155 P0002 T00720061=
202304102356 METAR KPWT 102356Z AUTO 24003KT 10SM -RA FEW011 SCT035 07/07 A2999 RMK AO2 SLP160 P0001 60003 T00720067 10083 20067 58010=
202304102342 SPECI KPWT 102342Z AUTO 22003KT 10SM -RA SCT009 SCT038 07/06 A2998 RMK AO2 P0001=
202304102323 SPECI KPWT 102323Z AUTO 21005KT 10SM -RA BKN009 BKN030 OVC038 08/07 A2999 RMK AO2 P0001=
202304102256 METAR KPWT 102256Z AUTO 00000KT 10SM -RA FEW026 BKN032 08/07 A3000 RMK AO2 RAB13 SLP164 P0000 T00780067=
202304102252 SPECI KPWT 102252Z AUTO VRB03KT 10SM -RA FEW020 SCT032 08/06 A3000 RMK AO2 RAB13 P0000=
202304102222 SPECI KPWT 102222Z AUTO 23004KT 10SM -RA FEW014 BKN021 OVC032 08/06 A3001 RMK AO2 RAB13 P0000=
202304102156 METAR KPWT 102156Z AUTO 23003KT 10SM FEW017 BKN034 08/05 A3002 RMK AO2 RAB16E29 SLP170 P0000 T00780050=
202304102138 SPECI KPWT 102138Z AUTO 24004KT 10SM SCT015 08/06 A3002 RMK AO2 RAB16E29 P0000=
202304102105 SPECI KPWT 102105Z AUTO 00000KT 10SM OVC015 08/05 A3002 RMK AO2=
202304102056 METAR KPWT 102056Z AUTO 00000KT 10SM BKN013 08/05 A3002 RMK AO2 RAE10 SLP171 P0000 60002 T00780050 58017=
202304102048 SPECI KPWT 102048Z AUTO 00000KT 10SM BKN013 08/06 A3002 RMK AO2 RAE10 P0000=
202304101956 METAR KPWT 101956Z AUTO 00000KT 10SM -RA CLR 07/06 A3004 RMK AO2 SLP180 P0001 T00720056=
202304101856 METAR KPWT 101856Z AUTO 28004KT 10SM -RA SCT009 07/06 A3007 RMK AO2 SLP188 P0001 T00720056=
202304101854 SPECI KPWT 101854Z AUTO 29003KT 10SM -RA SCT009 07/06 A3007 RMK AO2 P0001=
202304101756 METAR KPWT 101756Z AUTO 00000KT 10SM -RA CLR 07/06 A3007 RMK AO2 SLP188 P0003 60012 T00670056 10072 20061 58011=
202304101656 METAR KPWT 101656Z AUTO 00000KT 10SM -RA SCT024 BKN033 07/05 A3008 RMK AO2 SLP193 P0004 T00670050=
202304101556 METAR KPWT 101556Z AUTO 00000KT 5SM RA BR OVC025 07/06 A3009 RMK AO2 SLP194 P0004 T00670061=
202304101522 SPECI KPWT 101522Z AUTO 00000KT 9SM -RA OVC029 07/07 A3009 RMK AO2 P0001=
202304101456 METAR KPWT 101456Z AUTO 00000KT 10SM -RA BKN031 07/07 A3010 RMK AO2 SLP198 P0001 60001 T00670067 55005=
202304101356 METAR KPWT 101356Z AUTO 00000KT 10SM -RA FEW004 SCT008 BKN043 07/07 A3010 RMK AO2 RAB23 SLP197 P0000 T00670067=
202304101351 SPECI KPWT 101351Z AUTO 15004KT 10SM -RA SCT004 SCT008 BKN043 07/07 A3010 RMK AO2 RAB23 P0000=
202304101256 METAR KPWT 101256Z AUTO 00000KT 10SM BKN004 07/07 A3010 RMK AO2 SLP197 T00670067=
202304101208 SPECI KPWT 101208Z AUTO 00000KT 10SM OVC004 07/07 A3011 RMK AO2=
202304101156 METAR KPWT 101156Z AUTO 00000KT 10SM BKN006 OVC015 07/07 A3012 RMK AO2 SLP203 70075 T00670067 10078 20067 58009=
202304101116 SPECI KPWT 101116Z AUTO 00000KT 10SM BKN008 OVC015 07/07 A3012 RMK AO2 CIG 004V011=
202304101056 METAR KPWT 101056Z AUTO 00000KT 10SM FEW008 OVC015 07/07 A3013 RMK AO2 SLP208 T00720072=
202304101053 SPECI KPWT 101053Z AUTO 00000KT 10SM FEW008 OVC015 07/07 A3013 RMK AO2=
202304101046 SPECI KPWT 101046Z AUTO 00000KT 10SM FEW008 OVC013 07/07 A3013 RMK AO2=
202304100956 METAR KPWT 100956Z AUTO 00000KT 10SM BKN013 BKN110 07/07 A3014 RMK AO2 SLP213 T00670067=
202304100953 SPECI KPWT 100953Z AUTO 00000KT 10SM BKN013 BKN110 07/07 A3014 RMK AO2=
202304100945 SPECI KPWT 100945Z AUTO 00000KT 10SM SCT013 BKN110 07/07 A3014 RMK AO2=
202304100928 SPECI KPWT 100928Z AUTO 00000KT 10SM BKN013 07/07 A3015 RMK AO2=
202304100856 METAR KPWT 100856Z AUTO 00000KT 10SM BKN015 OVC023 07/07 A3016 RMK AO2 SLP220 T00720072 50001=
202304100756 METAR KPWT 100756Z AUTO 10003KT 10SM BKN017 BKN120 07/07 A3017 RMK AO2 CIG 011V021 SLP220 T00720072 401060072=
202304100754 SPECI KPWT 100754Z AUTO 00000KT 10SM FEW011 BKN017 BKN120 07/07 A3017 RMK AO2 401060072=
202304100734 SPECI KPWT 100734Z AUTO 10003KT 10SM BKN010 OVC016 07/07 A3017 RMK AO2 CIG 008V014=
202304100656 METAR KPWT 100656Z AUTO 08003KT 10SM OVC008 07/07 A3016 RMK AO2 SLP219 T00720072=
202304100605 SPECI KPWT 100605Z AUTO 00000KT 10SM BKN006 OVC110 07/07 A3015 RMK AO2=
202304100556 METAR KPWT 100556Z AUTO VRB03KT 10SM SCT008 OVC110 08/07 A3015 RMK AO2 SLP213 60019 T00780072 10106 20072 51025=
202304100554 SPECI KPWT 100554Z AUTO VRB03KT 10SM SCT008 OVC110 08/07 A3014 RMK AO2=
202304100456 METAR KPWT 100456Z AUTO 23010KT 10SM SCT065 08/07 A3011 RMK AO2 SLP201 T00780072=
202304100356 METAR KPWT 100356Z AUTO 22013KT 10SM CLR 08/08 A3007 RMK AO2 RAE35 SLP187 P0000 T00830078=
202304100256 METAR KPWT 100256Z AUTO 22013KT 10SM -RA FEW010 SCT050 09/09 A3004 RMK AO2 SLP178 P0002 60019 T00940089 51015=
202304100245 SPECI KPWT 100245Z AUTO 22013G22KT 10SM -RA SCT010 BKN050 09/09 A3004 RMK AO2 P0001=
202304100232 SPECI KPWT 100232Z AUTO 20014G20KT 10SM -RA BKN010 BKN041 OVC050 10/10 A3004 RMK AO2 CIG 005V012 P0001=
202304100156 METAR KPWT 100156Z AUTO 21015KT 8SM -RA OVC006 11/11 A3003 RMK AO2 CIG 004V009 SLP173 P0007 T01060106=
202304100137 SPECI KPWT 100137Z AUTO 21013G18KT 8SM -RA OVC006 11/11 A3002 RMK AO2 CIG 004V008 P0006=
202304100126 SPECI KPWT 100126Z AUTO 20012G19KT 10SM -RA OVC004 11/11 A3002 RMK AO2 CIG 004V009 P0005=
202304100056 METAR KPWT 100056Z AUTO 20015G20KT 7SM RA OVC006 11/11 A3002 RMK AO2 PK WND 20027/0001 CIG 004V009 SLP169 P0010 T01060106=
202304092356 METAR KPWT 092356Z AUTO 20020G25KT 4SM -RA BR OVC006 11/11 A3000 RMK AO2 PK WND 20026/2335 CIG 004V008 SLP163 P0008 60044 T01060106 10106 20094 53001=
202304092256 METAR KPWT 092256Z AUTO 20015G27KT 6SM -RA BR OVC006 11/11 A2999 RMK AO2 PK WND 22027/2251 SLP159 P0008 T01060106=
202304092156 METAR KPWT 092156Z AUTO 21013G22KT 7SM -RA OVC006 10/10 A2999 RMK AO2 CIG 004V009 SLP159 P0007 T01000100=
202304092116 SPECI KPWT 092116Z AUTO 20013KT 7SM -RA OVC006 10/10 A2999 RMK AO2 CIG 004V008 P0002=
202304092056 METAR KPWT 092056Z AUTO 21010KT 9SM RA OVC004 10/10 A3000 RMK AO2 CIG 003V009 SLP162 P0011 60021 T01000100 51001=
202304092011 SPECI KPWT 092011Z AUTO 21009KT 8SM RA BKN006 OVC017 09/09 A2999 RMK AO2 CIG 004V010 P0003=
202304091956 METAR KPWT 091956Z AUTO 22010KT 9SM RA SCT008 BKN018 OVC032 09/09 A2999 RMK AO2 SLP161 P0007 T00940094=
202304091943 SPECI KPWT 091943Z AUTO 22012KT 8SM RA FEW006 BKN022 OVC032 09/09 A2999 RMK AO2 P0005=
202304091856 METAR KPWT 091856Z AUTO 21012KT 10SM -RA FEW007 OVC032 09/09 A3000 RMK AO2 SLP163 P0003 T00940094=
202304091833 SPECI KPWT 091833Z AUTO 22013KT 8SM -RA FEW009 OVC030 09/09 A3000 RMK AO2 P0002=
202304091756 METAR KPWT 091756Z AUTO 21011KT 10SM -RA FEW035 BKN045 09/09 A2999 RMK AO2 RAE20B38 SLP161 P0000 60012 T00940094 10100 20072 58004=
202304091731 SPECI KPWT 091731Z AUTO 20011KT 10SM SCT029 BKN047 OVC055 09/09 A2999 RMK AO2 RAE20 P0000=
202304091656 METAR KPWT 091656Z AUTO 21008KT 10SM -RA OVC027 08/08 A3000 RMK AO2 SLP165 P0001 T00830083=
202304091629 SPECI KPWT 091629Z AUTO 21009KT 10SM -RA BKN027 OVC036 08/08 A3001 RMK AO2 P0000=
202304091616 SPECI KPWT 091616Z AUTO 20007KT 10SM -RA FEW005 SCT021 OVC036 08/08 A3000 RMK AO2 P0000=
202304091556 METAR KPWT 091556Z AUTO 20005KT 10SM -RA FEW005 BKN021 OVC036 08/08 A3001 RMK AO2 SLP166 P0001 T00830083=
202304091510 SPECI KPWT 091510Z AUTO 20006KT 5SM -RA BR SCT005 BKN026 OVC033 08/08 A3000 RMK AO2 P0001=
202304091456 METAR KPWT 091456Z AUTO 19006KT 3SM -RA BR BKN005 BKN010 OVC028 08/08 A3000 RMK AO2 SLP165 P0002 60010 T00780078 56001=
202304091452 SPECI KPWT 091452Z AUTO 19005KT 5SM -RA BR BKN005 BKN008 OVC028 08/08 A3001 RMK AO2 P0002=
202304091445 SPECI KPWT 091445Z AUTO 20005KT 10SM -RA SCT005 BKN008 OVC028 08/08 A3001 RMK AO2 CIG 006V011 P0002=
202304091421 SPECI KPWT 091421Z AUTO 20007KT 5SM -RA BR FEW004 BKN026 OVC033 08/08 A3000 RMK AO2 P0001=
202304091413 SPECI KPWT 091413Z AUTO 19007KT 8SM -RA SCT004 BKN030 OVC039 08/08 A3000 RMK AO2 P0001=
202304091356 METAR KPWT 091356Z AUTO VRB03KT 5SM -RA BR OVC004 08/08 A3000 RMK AO2 SLP162 P0003 T00780078=
202304091338 SPECI KPWT 091338Z AUTO 20005KT 5SM -RA BR BKN004 OVC034 08/08 A3000 RMK AO2 CIG 003V009 P0003=
202304091330 SPECI KPWT 091330Z AUTO 20006KT 8SM -RA SCT004 BKN010 OVC034 08/08 A3000 RMK AO2 CIG 008V019 P0002=
202304091256 METAR KPWT 091256Z AUTO 20005KT 10SM -RA FEW008 BKN030 OVC037 08/08 A3001 RMK AO2 SLP166 P0005 T00780078=
202304091156 METAR KPWT 091156Z AUTO 21006KT 10SM -RA FEW005 OVC035 07/07 A3001 RMK AO2 SLP169 P0006 60013 70049 T00720072 10078 20072 55002=
202304091123 SPECI KPWT 091123Z AUTO 20006KT 10SM -RA SCT003 BKN034 OVC041 07/07 A3001 RMK AO2 P0003=
202304091111 SPECI KPWT 091111Z AUTO 21006KT 9SM -RA BKN003 BKN007 OVC034 07/07 A3001 RMK AO2 P0001=
202304091104 SPECI KPWT 091104Z AUTO 21005KT 9SM RA SCT003 BKN009 OVC037 07/07 A3001 RMK AO2 CIG 006V013 P0001=
202304091056 METAR KPWT 091056Z AUTO 22005KT 10SM RA SCT003 SCT011 OVC041 07/07 A3001 RMK AO2 SLP168 P0004 T00720072=
202304091044 SPECI KPWT 091044Z AUTO 21004KT 10SM -RA SCT003 SCT009 OVC043 07/07 A3000 RMK AO2 P0002=
202304090956 METAR KPWT 090956Z AUTO 21004KT 10SM -RA OVC041 07/07 A3001 RMK AO2 SLP167 P0001 T00720072=
202304090856 METAR KPWT 090856Z AUTO 00000KT 8SM -RA OVC039 07/07 A3002 RMK AO2 SLP171 P0002 60002 T00720072 58006=
202304090756 METAR KPWT 090756Z AUTO 24004KT 9SM -RA BKN039 BKN048 OVC055 07/07 A3003 RMK AO2 SLP176 P0000 T00720072 400890056=
202304090656 METAR KPWT 090656Z AUTO 00000KT 10SM -RA OVC037 07/07 A3003 RMK AO2 RAB53 SLP174 P0000 T00720072=
202304090556 METAR KPWT 090556Z AUTO 00000KT 10SM OVC033 07/07 A3004 RMK AO2 RAE27 SLP177 P0000 60005 T00720072 10083 20072 50006=
202304090456 METAR KPWT 090456Z AUTO 00000KT 10SM -RA OVC037 08/08 A3004 RMK AO2 SLP177 P0001 T00780078=
202304090356 METAR KPWT 090356Z AUTO 00000KT 10SM -RA OVC035 08/08 A3003 RMK AO2 SLP174 P0001 T00830083=
202304090256 METAR KPWT 090256Z AUTO 00000KT 10SM -RA OVC031 08/08 A3002 RMK AO2 SLP171 P0000 60003 T00830078 55001=
202304090231 SPECI KPWT 090231Z AUTO 00000KT 10SM -RA OVC031 08/08 A3002 RMK AO2 P0000=
202304090156 METAR KPWT 090156Z AUTO 00000KT 10SM -RA OVC027 08/08 A3002 RMK AO2 SLP170 P0001 T00830078=
202304090056 METAR KPWT 090056Z AUTO 13003KT 10SM -RA OVC023 08/08 A3001 RMK AO2 SLP169 P0002 T00830078=
202304090004 SPECI KPWT 090004Z AUTO 16004KT 5SM -RA BR OVC019 08/08 A3002 RMK AO2 P0001=
202304082356 METAR KPWT 082356Z AUTO 19005KT 2 1/2SM -RA BR OVC019 08/08 A3002 RMK AO2 VIS 2V4 SLP171 P0003 60025 T00780078 10089 20072 51005=
202304082256 METAR KPWT 082256Z AUTO 19004KT 10SM -RA FEW012 OVC021 08/08 A3002 RMK AO2 SLP171 P0003 T00830078=
202304082228 SPECI KPWT 082228Z AUTO 19004KT 9SM -RA SCT009 SCT014 OVC021 08/08 A3002 RMK AO2 P0001=
202304082218 SPECI KPWT 082218Z AUTO 21004KT 4SM -RA BR FEW007 BKN012 OVC021 08/08 RMK AO2 P0001 $=
202304082156 METAR KPWT 082156Z AUTO 18003KT 8SM -RA SCT014 OVC021 08/08 A3001 RMK AO2 SLP168 P0005 T00830078=
202304082135 SPECI KPWT 082135Z AUTO 18004KT 9SM -RA SCT007 OVC014 08/08 A3001 RMK AO2 P0003=
202304082056 METAR KPWT 082056Z AUTO 14004KT 4SM RA BR BKN007 OVC011 08/08 A3001 RMK AO2 CIG 004V010 SLP167 P0006 60014 T00780078 51005=
202304081956 METAR KPWT 081956Z AUTO 19003KT 9SM -RA BKN007 BKN012 OVC027 08/07 A3000 RMK AO2 SLP165 P0004 T00780072=
202304081948 SPECI KPWT 081948Z AUTO 21003KT 10SM -RA SCT007 BKN012 OVC027 07/07 A3000 RMK AO2 P0004=
202304081912 SPECI KPWT 081912Z AUTO 22004KT 4SM -RA BR BKN007 BKN012 OVC026 07/07 A3001 RMK AO2 CIG 004V010 P0001=
202304081856 METAR KPWT 081856Z AUTO 19004KT 3SM -RA BR FEW007 BKN011 OVC026 07/07 A3000 RMK AO2 SLP166 P0004 T00720072=
202304081813 SPECI KPWT 081813Z AUTO 17004KT 3SM -RA BR BKN007 OVC012 07/07 A3000 RMK AO2 CIG 004V010 P0001=
202304081756 METAR KPWT 081756Z AUTO 20004KT 2SM -RA BR BKN008 OVC024 07/07 A2999 RMK AO2 CIG 004V013 SLP161 P0004 60006 T00720072 10072 20061 53014=
202304081734 SPECI KPWT 081734Z AUTO 00000KT 2 1/2SM -RA BR FEW005 BKN024 OVC029 07/07 A2999 RMK AO2 P0002=
202304081721 SPECI KPWT 081721Z AUTO 00000KT 2 1/2SM -RA BR BKN026 OVC032 07/07 A2998 RMK AO2 P0001=
202304081713 SPECI KPWT 081713Z AUTO 24003KT 3SM -RA BR BKN026 OVC032 07/07 A2998 RMK AO2 P0000=
202304081703 SPECI KPWT 081703Z AUTO 00000KT 3SM -RA BR BKN030 OVC036 07/06 A2997 RMK AO2 P0000=
202304081656 METAR KPWT 081656Z AUTO 25003KT 3SM -RA BR BKN028 OVC036 07/06 A2997 RMK AO2 SLP155 P0001 T00670061=
202304081643 SPECI KPWT 081643Z AUTO 25003KT 10SM -RA SCT027 OVC036 07/06 A2997 RMK AO2 P0000=
202304081618 SPECI KPWT 081618Z AUTO 22004KT 10SM -RA BKN027 OVC036 07/06 A2996 RMK AO2 P0000=
202304081556 METAR KPWT 081556Z AUTO 24003KT 10SM -RA SCT028 OVC036 07/06 A2996 RMK AO2 SLP150 P0001 T00670061=
202304081543 SPECI KPWT 081543Z AUTO 22003KT 10SM -RA SCT028 OVC036 07/06 A2995 RMK AO2 P0001=
202304081526 SPECI KPWT 081526Z AUTO 23005KT 10SM -RA BKN028 OVC036 07/06 A2995 RMK AO2 P0001=
202304081456 METAR KPWT 081456Z AUTO 23007KT 7SM -RA OVC035 07/05 A2995 RMK AO2 SLP147 P0000 60000 T00670050 53005=
202304081356 METAR KPWT 081356Z AUTO 21007KT 10SM -RA OVC035 07/05 A2994 RMK AO2 RAB33 SLP143 P0000 T00670050=
202304081256 METAR KPWT 081256Z AUTO 19007KT 10SM OVC037 07/04 A2992 RMK AO2 SLP138 T00670044=
202304081156 METAR KPWT 081156Z AUTO 19007KT 10SM SCT043 BKN050 06/04 A2993 RMK AO2 SLP140 70012 T00610044 10067 20056 58001=
202304081056 METAR KPWT 081056Z AUTO 20005KT 10SM FEW044 BKN050 BKN090 06/04 A2994 RMK AO2 SLP142 T00560044=
202304080956 METAR KPWT 080956Z AUTO 20004KT 10SM OVC050 06/04 A2993 RMK AO2 SLP141 T00560039=
202304080856 METAR KPWT 080856Z AUTO 23009KT 10SM FEW030 BKN044 06/04 A2993 RMK AO2 SLP141 T00610039 53003=
202304080756 METAR KPWT 080756Z AUTO 22010KT 10SM FEW037 BKN048 06/04 A2993 RMK AO2 SLP138 T00610044 401280061=
202304080656 METAR KPWT 080656Z AUTO 22009KT 10SM OVC044 07/04 A2992 RMK AO2 SLP137 T00670039=
202304080556 METAR KPWT 080556Z AUTO 22007KT 10SM BKN040 06/04 A2992 RMK AO2 SLP138 T00610039 10111 20061 51014=
202304080456 METAR KPWT 080456Z AUTO 21010KT 10SM SCT039 BKN120 07/04 A2992 RMK AO2 SLP137 T00670044=
202304080356 METAR KPWT 080356Z AUTO 20011KT 10SM OVC035 07/04 A2992 RMK AO2 SLP135 T00720039=
202304080256 METAR KPWT 080256Z AUTO 21011KT 10SM BKN033 08/04 A2988 RMK AO2 SLP124 T00780039 51020=
202304080156 METAR KPWT 080156Z AUTO 22017G23KT 10SM CLR 08/04 A2987 RMK AO2 SLP118 T00830039=
202304080056 METAR KPWT 080056Z AUTO 21014G25KT 10SM CLR 09/03 A2984 RMK AO2 PK WND 23028/0037 SLP110 T00940033=
202304072356 METAR KPWT 072356Z AUTO 23020G27KT 10SM CLR 12/06 A2982 RMK AO2 PK WND 23027/2351 SLP103 T01170056 10128 20106 53001=
202304072256 METAR KPWT 072256Z AUTO 22020G27KT 10SM CLR 12/06 A2981 RMK AO2 PK WND 21027/2248 SLP101 T01220056=
202304072156 METAR KPWT 072156Z AUTO 23017G23KT 10SM FEW046 13/06 A2981 RMK AO2 SLP098 T01280061=
202304072056 METAR KPWT 072056Z AUTO 23014G21KT 10SM BKN040 12/06 A2982 RMK AO2 SLP102 T01220061 51003=
202304071956 METAR KPWT 071956Z AUTO 23014G20KT 10SM SCT026 BKN038 12/07 A2982 RMK AO2 SLP102 T01220072=
202304071927 SPECI KPWT 071927Z AUTO 22015KT 10SM SCT019 SCT039 11/08 A2982 RMK AO2=
202304071856 METAR KPWT 071856Z AUTO 23015G18KT 10SM BKN019 BKN025 12/08 A2982 RMK AO2 SLP101 T01170083=
202304071832 SPECI KPWT 071832Z AUTO 20012KT 10SM BKN017 12/09 A2982 RMK AO2=
202304071816 SPECI KPWT 071816Z AUTO 20012KT 10SM FEW014 12/09 A2981 RMK AO2=
202304071756 METAR KPWT 071756Z AUTO 22010KT 10SM BKN010 11/09 A2981 RMK AO2 SLP100 60012 T01060089 10117 20089 53004=
202304071656 METAR KPWT 071656Z AUTO 21011KT 10SM SCT006 BKN013 BKN039 10/10 A2981 RMK AO2 RAB09E31 SLP098 P0002 T01000100=
202304071639 SPECI KPWT 071639Z AUTO 19006KT 10SM SCT006 BKN038 BKN047 10/09 A2980 RMK AO2 RAB09E31 P0002=
202304071624 SPECI KPWT 071624Z AUTO 20007KT 6SM -RA BR BKN004 OVC037 09/09 A2980 RMK AO2 RAB09 CIG 004V010 P0002=
202304071556 METAR KPWT 071556Z AUTO 20007KT 10SM OVC006 09/09 A2980 RMK AO2 RAE38 CIG 004V008 SLP095 P0001 T00940094=
202304071456 METAR KPWT 071456Z AUTO 19007KT 3SM -RA BR BKN004 OVC009 09/09 A2980 RMK AO2 CIG 003V007 SLP095 P0005 60009 T00940094 53002=
202304071428 SPECI KPWT 071428Z AUTO 18005KT 2SM RA BR OVC006 09/09 A2979 RMK AO2 VIS 1 1/4V3 CIG 003V009 P0002=
202304071420 SPECI KPWT 071420Z AUTO 18004KT 2 1/2SM -RA BR OVC004 09/09 A2979 RMK AO2 VIS 1 1/2V3 CIG 003V008 P0001=
202304071356 METAR KPWT 071356Z AUTO 18004KT 8SM -RA OVC004 09/09 A2979 RMK AO2 RAE12B41 SLP092 P0001 T00940094=
202304071318 SPECI KPWT 071318Z AUTO 18004KT 10SM OVC004 09/09 A2979 RMK AO2 RAE12 P0001=
202304071256 METAR KPWT 071256Z AUTO 19005KT 10SM -RA BKN006 BKN040 09/09 A2979 RMK AO2 CIG 004V008 SLP092 P0003 T00940094=
202304071156 METAR KPWT 071156Z AUTO 21006KT 10SM -RA BKN004 BKN035 BKN044 09/09 A2979 RMK AO2 CIG 003V011 SLP093 P0002 60019 70125 T00890089 10094 20089 53003=
202304071056 METAR KPWT 071056Z AUTO 22008KT 10SM -RA OVC004 09/09 A2979 RMK AO2 SLP093 P0001 T00940094=
202304070956 METAR KPWT 070956Z AUTO 20008KT 10SM -RA OVC004 09/09 A2978 RMK AO2 SLP090 P0002 T00940094=
202304070856 METAR KPWT 070856Z AUTO 19009KT 10SM -RA OVC004 09/09 A2978 RMK AO2 SLP090 P0003 60014 T00940094 53008=
202304070822 SPECI KPWT 070822Z AUTO 20008KT 10SM -RA BKN004 BKN010 OVC015 09/09 A2978 RMK AO2 P0002=
202304070811 SPECI KPWT 070811Z AUTO 20008KT 10SM -RA SCT004 BKN010 OVC015 09/09 A2977 RMK AO2 CIG 007V011 P0002=
202304070756 METAR KPWT 070756Z AUTO 19011KT 7SM +RA BKN004 OVC009 09/09 A2977 RMK AO2 CIG 003V007 SLP086 P0008 T00890089 401060050=
202304070738 SPECI KPWT 070738Z AUTO 20011KT 10SM -RA BKN006 OVC021 09/09 A2977 RMK AO2 CIG 004V010 P0002=
202304070724 SPECI KPWT 070724Z AUTO 20007KT 10SM -RA FEW008 BKN021 BKN034 09/09 A2977 RMK AO2 P0001=
202304070656 METAR KPWT 070656Z AUTO 20008KT 10SM -RA SCT024 SCT030 BKN036 09/09 A2977 RMK AO2 SLP084 P0003 T00940089=
202304070556 METAR KPWT 070556Z AUTO 18004KT 10SM -RA FEW031 09/09 A2976 RMK AO2 SLP082 P0001 60029 T00940089 10106 20094 51001=
202304070456 METAR KPWT 070456Z AUTO 20004KT 10SM -RA OVC037 09/09 A2976 RMK AO2 SLP081 P0003 T00940094=
202304070356 METAR KPWT 070356Z AUTO 00000KT 10SM -RA OVC038 09/09 A2976 RMK AO2 SLP082 P0005 T00940094=
202304070256 METAR KPWT 070256Z AUTO 00000KT 6SM RA BR BKN037 OVC045 09/09 A2976 RMK AO2 SLP082 P0006 60020 T00940094 56009=
202304070156 METAR KPWT 070156Z AUTO 00000KT 9SM -RA FEW032 OVC043 10/09 A2976 RMK AO2 SLP083 P0006 T01000094=
202304070056 METAR KPWT 070056Z AUTO 16004KT 9SM -RA SCT028 BKN038 BKN045 10/10 A2977 RMK AO2 SLP086 P0008 T01000100=
202304062356 METAR KPWT 062356Z AUTO VRB03KT 5SM RA BR FEW006 SCT011 OVC031 10/10 A2978 RMK AO2 SLP091 P0008 60054 T01000100 10106 20083 56014=
202304062316 SPECI KPWT 062316Z AUTO 00000KT 6SM RA BR FEW006 OVC031 10/10 A2980 RMK AO2 P0003=
202304062307 SPECI KPWT 062307Z AUTO 00000KT 5SM RA BR FEW006 OVC029 10/10 A2980 RMK AO2 P0002=
202304062256 METAR KPWT 062256Z AUTO 16003KT 5SM RA BR OVC029 10/10 A2980 RMK AO2 SLP098 P0011 T01000100=
202304062212 SPECI KPWT 062212Z AUTO 14003KT 4SM RA BR SCT006 SCT011 OVC033 10/10 A2982 RMK AO2 P0003=
202304062156 METAR KPWT 062156Z AUTO 16003KT 5SM RA BR BKN006 OVC029 10/10 A2983 RMK AO2 CIG 004V010 SLP105 P0010 T01000100=
202304062056 METAR KPWT 062056Z AUTO 00000KT 6SM RA BR BKN006 OVC029 09/09 A2983 RMK AO2 CIG 004V009 SLP107 P0008 60025 T00940094 56012=
202304062041 SPECI KPWT 062041Z AUTO 00000KT 6SM RA BR SCT006 OVC029 09/09 A2983 RMK AO2 P0006=
202304062025 SPECI KPWT 062025Z AUTO 13003KT 6SM RA BR OVC029 09/09 A2983 RMK AO2 P0005=
202304061956 METAR KPWT 061956Z AUTO 00000KT 6SM RA BR FEW007 OVC031 09/09 A2984 RMK AO2 SLP110 P0010 T00890089=
202304061856 METAR KPWT 061856Z AUTO 5SM RA BR FEW007 OVC031 09/08 A2985 RMK AO2 SLP114 P0007 T00890083=
202304061811 SPECI KPWT 061811Z AUTO 14003KT 6SM RA BR FEW007 OVC031 08/08 A2986 RMK AO2 P0001=
202304061756 METAR KPWT 061756Z AUTO 8SM RA FEW007 OVC029 08/08 A2986 RMK AO2 SLP119 P0005 60023 T00830083 10083 20056 56012=
202304061656 METAR KPWT 061656Z AUTO 00000KT 10SM -RA FEW005 OVC029 08/08 A2987 RMK AO2 SLP122 P0004 T00780078=
202304061556 METAR KPWT 061556Z AUTO 00000KT 10SM -RA FEW007 OVC029 07/07 A2989 RMK AO2 SLP127 P0003 T00720067=
202304061535 SPECI KPWT 061535Z AUTO 00000KT 10SM -RA FEW007 OVC029 07/06 A2989 RMK AO2 P0002=
202304061456 METAR KPWT 061456Z AUTO 00000KT 10SM -RA OVC027 06/06 A2990 RMK AO2 SLP131 P0004 60011 T00610061 56012=
202304061356 METAR KPWT 061356Z AUTO 00000KT 10SM -RA OVC025 06/06 A2991 RMK AO2 SLP134 P0004 T00560056=
202304061256 METAR KPWT 061256Z AUTO 00000KT 10SM -RA FEW003 OVC027 06/06 A2992 RMK AO2 SLP138 P0003 T00560056=
202304061236 SPECI KPWT 061236Z AUTO 00000KT 10SM -RA FEW003 OVC027 06/06 A2993 RMK AO2 P0001=
202304061156 METAR KPWT 061156Z AUTO 00000KT 9SM -RA OVC027 06/06 A2994 RMK AO2 SLP143 P0003 60007 70009 T00560056 10061 20050 56019=
202304061056 METAR KPWT 061056Z AUTO 00000KT 9SM -RA OVC027 06/06 A2995 RMK AO2 SLP147 P0002 T00560056=
202304060956 METAR KPWT 060956Z AUTO 00000KT 10SM -RA OVC029 06/06 A2997 RMK AO2 SLP156 P0001 T00560056=
202304060945 SPECI KPWT 060945Z AUTO 00000KT 10SM -RA OVC029 06/06 A2998 RMK AO2 P0001=
202304060856 METAR KPWT 060856Z AUTO 00000KT 10SM -RA OVC033 06/06 A2999 RMK AO2 SLP162 P0001 60001 T00560056 58014=
202304060756 METAR KPWT 060756Z AUTO 00000KT 10SM -RA OVC033 06/06 A3001 RMK AO2 SLP168 P0000 T00610056 401061028=
202304060656 METAR KPWT 060656Z AUTO 00000KT 10SM -RA OVC037 06/06 A3002 RMK AO2 SLP172 P0000 T00610056=
202304060556 METAR KPWT 060556Z AUTO 25003KT 10SM -RA SCT032 06/06 A3004 RMK AO2 SLP177 P0001 60002 T00560056 10100 20056 58005=
202304060456 METAR KPWT 060456Z AUTO 00000KT 10SM -RA SCT038 06/06 A3005 RMK AO2 SLP182 P0001 T00560056=
202304060356 METAR KPWT 060356Z AUTO 24004KT 10SM -RA BKN035 07/06 A3005 RMK AO2 SLP183 P0000 T00670056=
202304060256 METAR KPWT 060256Z AUTO 20004KT 10SM -RA BKN030 BKN037 07/05 A3005 RMK AO2 SLP182 P0000 60000 T00670050 56014=
202304060156 METAR KPWT 060156Z AUTO 24005KT 10SM -RA BKN037 08/04 A3007 RMK AO2 RAB48 SLP189 P0000 T00830039=
202304060056 METAR KPWT 060056Z AUTO 26007KT 10SM FEW038 09/03 A3007 RMK AO2 SLP191 T00940028=
202304052356 METAR KPWT 052356Z AUTO 24007KT 10SM BKN042 BKN049 10/02 A3009 RMK AO2 SLP196 T01000022 10106 20072 58018=
202304052256 METAR KPWT 052256Z AUTO 21008KT 10SM BKN039 11/02 A3011 RMK AO2 SLP202 T01060017=
202304052156 METAR KPWT 052156Z AUTO 21010KT 10SM FEW040 OVC050 10/01 A3013 RMK AO2 SLP212 T01000011=
202304052056 METAR KPWT 052056Z AUTO 21010G18KT 10SM BKN038 BKN050 10/00 A3015 RMK AO2 SLP215 T01000000 58013=
202304051956 METAR KPWT 051956Z AUTO 18009G14KT 10SM BKN034 09/02 A3016 RMK AO2 SLP221 T00940017=
202304051856 METAR KPWT 051856Z AUTO 20009KT 160V220 10SM SCT026 08/01 A3018 RMK AO2 SLP225 T00780011=
202304051756 METAR KPWT 051756Z AUTO 22009KT 10SM OVC020 07/02 A3019 RMK AO2 SLP229 T00720022 10072 21006 58003=
202304051731 SPECI KPWT 051731Z AUTO 21009KT 10SM SCT014 BKN021 06/03 A3019 RMK AO2=
202304051656 METAR KPWT 051656Z AUTO 21007KT 10SM SCT010 05/03 A3019 RMK AO2 SLP231 T00500033=
202304051556 METAR KPWT 051556Z AUTO 21007KT 10SM BKN006 BKN016 OVC044 04/04 A3020 RMK AO2 CIG 004V009 SLP232 T00390039=
202304051543 SPECI KPWT 051543Z AUTO 21006KT 10SM FEW002 BKN006 OVC046 04/04 A3020 RMK AO2 CIG 005V009=
202304051524 SPECI KPWT 051524Z AUTO 23005KT 4SM BR BKN002 OVC016 03/03 A3020 RMK AO2=
202304051522 SPECI KPWT 051522Z AUTO 23004KT 1 3/4SM BR OVC002 03/03 A3020 RMK AO2 VIS 1/2V5=
202304051520 SPECI KPWT 051520Z AUTO 23004KT 3/4SM BR OVC002 03/03 A3020 RMK AO2 VIS 1/4V5=
202304051505 SPECI KPWT 051505Z AUTO 22003KT 1/4SM FG OVC002 01/01 A3020 RMK AO2 FZRANO=
202304051456 METAR KPWT 051456Z AUTO 24004KT 1/2SM FG BKN002 01/01 A3020 RMK AO2 SLP233 T00060006 58002 FZRANO=
202304051448 SPECI KPWT 051448Z AUTO 22003KT 1SM BR BKN002 01/01 A3020 RMK AO2 FZRANO=
202304051444 SPECI KPWT 051444Z AUTO 21003KT 1/2SM FG VV002 01/01 A3020 RMK AO2 FZRANO=
202304051413 SPECI KPWT 051413Z AUTO 23003KT 1/4SM FG OVC001 00/00 A3020 RMK AO2 FZRANO=
202304051356 METAR KPWT 051356Z AUTO 00000KT 1/4SM FG OVC003 00/00 A3020 RMK AO2 SLP234 T00000000 FZRANO=
202304051328 SPECI KPWT 051328Z AUTO 00000KT 1/4SM FG OVC003 00/00 A3020 RMK AO2 FZRANO=
202304051318 SPECI KPWT 051318Z AUTO 00000KT 1/2SM FZFG OVC001 M01/M01 A3020 RMK AO2 FZRANO=
202304051256 METAR KPWT 051256Z AUTO 00000KT 1/4SM FZFG BKN001 M01/M01 A3020 RMK AO2 SLP234 T10061006 FZRANO=
202304051238 SPECI KPWT 051238Z AUTO 00000KT 1/4SM FZFG VV001 M01/M01 A3020 RMK AO2 FZRANO=
202304051210 SPECI KPWT 051210Z AUTO 24003KT 1/4SM FZFG OVC002 M02/M02 A3020 RMK AO2 FZRANO=
202304051205 SPECI KPWT 051205Z AUTO 00000KT 3/4SM BR OVC002 M02/M02 A3020 RMK AO2 FZRANO=
202304051203 SPECI KPWT 051203Z AUTO 00000KT 1 1/2SM BR OVC002 M02/M02 A3020 RMK AO2 FZRANO=
202304051156 METAR KPWT 051156Z AUTO 00000KT 4SM BR BKN002 M03/M03 A3020 RMK AO2 SLP233 T10281028 11011 21028 51002 FZRANO=
202304051151 SPECI KPWT 051151Z AUTO 00000KT 3SM BR BKN002 M03/M03 A3020 RMK AO2 FZRANO=
202304051143 SPECI KPWT 051143Z AUTO 00000KT 9SM SCT002 M03/M03 A3020 RMK AO2 FZRANO=
202304051112 SPECI KPWT 051112Z AUTO 00000KT 10SM CLR M03/M03 A3020 RMK AO2 FZRANO=
202304051105 SPECI KPWT 051105Z AUTO 00000KT 2 1/2SM BR CLR M03/M03 A3020 RMK AO2 VIS 1V5 FZRANO=
202304051056 METAR KPWT 051056Z AUTO 00000KT 5SM BR CLR M03/M03 A3020 RMK AO2 SLP233 T10281028 FZRANO=
202304050956 METAR KPWT 050956Z AUTO 00000KT 8SM CLR M01/M01 A3020 RMK AO2 SLP231 T10111011 FZRANO=
202304050856 METAR KPWT 050856Z AUTO 00000KT 10SM CLR M02/M02 A3020 RMK AO2 SLP234 T10221022 51005 FZRANO=
202304050756 METAR KPWT 050756Z AUTO 00000KT 10SM CLR M01/M01 A3020 RMK AO2 SLP233 T10111011 401111017 FZRANO=
202304050746 SPECI KPWT 050746Z AUTO 00000KT 2SM BR CLR M02/M02 A3020 RMK AO2 FZRANO=
202304050656 METAR KPWT 050656Z AUTO 00000KT 10SM CLR M01/M01 A3019 RMK AO2 SLP230 T10111011 FZRANO=
202304050556 METAR KPWT 050556Z AUTO 00000KT 10SM CLR M01/M02 A3018 RMK AO2 SLP229 T10111017 10111 21011 51010 FZRANO=
202304050456 METAR KPWT 050456Z AUTO 00000KT 10SM CLR 01/M01 A3018 RMK AO2 SLP229 T00061011 FZRANO=
202304050356 METAR KPWT 050356Z AUTO 13003KT 10SM CLR 02/00 A3017 RMK AO2 SLP224 T00170000 FZRANO=
202304050256 METAR KPWT 050256Z AUTO 00000KT 10SM CLR 03/01 A3015 RMK AO2 SLP218 T00330006 53000=
202304050156 METAR KPWT 050156Z AUTO 00000KT 10SM CLR 09/M02 A3015 RMK AO2 SLP216 T00941017=
202304050056 METAR KPWT 050056Z AUTO 06005KT 10SM OVC050 11/M01 A3015 RMK AO2 SLP216 T01061011=
202304042356 METAR KPWT 042356Z AUTO 25003KT 10SM CLR 10/M02 A3015 RMK AO2 SLP218 T01001017 10100 20039 58008=
202304042256 METAR KPWT 042256Z AUTO 14003KT 10SM BKN047 09/M01 A3016 RMK AO2 SLP220 T00891006=
202304042156 METAR KPWT 042156Z AUTO VRB04KT 10SM CLR 09/00 A3017 RMK AO2 SLP223 T00890000=
202304042056 METAR KPWT 042056Z AUTO 17003KT 10SM BKN030 BKN035 07/01 A3018 RMK AO2 SLP224 T00720011 51003=
202304041956 METAR KPWT 041956Z AUTO VRB03KT 10SM OVC032 06/02 A3018 RMK AO2 SLP225 T00560017=
202304041929 SPECI KPWT 041929Z AUTO 18004KT 10SM FEW011 SCT016 SCT024 06/03 A3017 RMK AO2=
202304041919 SPECI KPWT 041919Z AUTO 00000KT 10SM SCT011 BKN016 BKN025 05/03 A3018 RMK AO2=
202304041856 METAR KPWT 041856Z AUTO 00000KT 10SM OVC013 04/02 A3018 RMK AO2 SLP226 T00440022=
202304041822 SPECI KPWT 041822Z AUTO 09004KT 10SM SCT009 OVC016 04/02 A3017 RMK AO2=
202304041756 METAR KPWT 041756Z AUTO 17004KT 10SM OVC009 04/03 A3017 RMK AO2 CIG 007V012 SLP223 60000 T00390028 10039 20017 52018=
202304041729 SPECI KPWT 041729Z AUTO 00000KT 10SM OVC007 03/03 A3016 RMK AO2 CIG 005V011=
202304041707 SPECI KPWT 041707Z AUTO 00000KT 10SM OVC004 03/03 A3015 RMK AO2 CIG 002V008=
202304041656 METAR KPWT 041656Z AUTO 00000KT 10SM OVC002 03/03 A3015 RMK AO2 SLP216 T00330033=
202304041642 SPECI KPWT 041642Z AUTO 00000KT 5SM BR OVC002 03/03 A3014 RMK AO2=
202304041632 SPECI KPWT 041632Z AUTO 00000KT 2SM BR OVC002 03/03 A3014 RMK AO2 VIS 3/4V5=
202304041626 SPECI KPWT 041626Z AUTO 00000KT 1SM BR OVC002 03/03 A3014 RMK AO2=
202304041622 SPECI KPWT 041622Z AUTO 13003KT 1/2SM FG OVC002 02/02 A3014 RMK AO2 FZRANO=
202304041556 METAR KPWT 041556Z AUTO 10003KT 1/4SM FG OVC002 02/02 A3013 RMK AO2 SLP212 T00220022 FZRANO=
202304041502 SPECI KPWT 041502Z AUTO 00000KT 1/4SM FG OVC002 02/02 A3012 RMK AO2 FZRANO=
202304041452 METAR KPWT 041452Z AUTO 00000KT 1/4SM FG OVC004 02/02 A3011 RMK AO2 RAE15UPB15E22 SLP204 P0000 60000 T00170017 53011 FZRANO=
202304041451 SPECI KPWT 041451Z AUTO 00000KT 1/4SM FG OVC004 02/02 A3011 RMK AO2 RAE15UPB15E22 P0000 FZRANO=
202304041444 SPECI KPWT 041444Z AUTO 00000KT 3/4SM BR OVC004 02/02 A3011 RMK AO2 RAE15UPB15E22 P0000 FZRANO=
202304041437 SPECI KPWT 041437Z AUTO 00000KT 1 3/4SM BR OVC004 02/02 A3011 RMK AO2 RAE15UPB15E22 P0000 FZRANO=
202304041356 METAR KPWT 041356Z AUTO 00000KT 9SM -RA OVC004 02/02 A3010 RMK AO2 RAE03B54UPB39E54 SLP199 P0000 T00170017 FZRANO=
202304041256 METAR KPWT 041256Z AUTO 00000KT 10SM -RA OVC006 02/02 A3009 RMK AO2 RAB39 SLP195 P0000 T00170017 FZRANO=
202304041156 METAR KPWT 041156Z AUTO 00000KT 10SM OVC006 02/02 A3008 RMK AO2 CIG 005V009 SLP192 70002 T00170017 10017 20000 53006 FZRANO=
202304041118 SPECI KPWT 041118Z AUTO 00000KT 10SM BKN008 OVC029 02/02 A3007 RMK AO2 CIG 005V008 FZRANO=
202304041056 METAR KPWT 041056Z AUTO 00000KT 10SM FEW008 OVC029 02/02 A3007 RMK AO2 SLP189 T00170017 FZRANO=
202304041044 SPECI KPWT 041044Z AUTO 00000KT 10SM SCT013 OVC029 01/01 A3007 RMK AO2 FZRANO=
202304041009 SPECI KPWT 041009Z AUTO 00000KT 10SM OVC011 02/02 A3007 RMK AO2 FZRANO=
202304040956 METAR KPWT 040956Z AUTO 00000KT 10SM OVC009 02/02 A3007 RMK AO2 CIG 007V011 SLP189 T00170017 FZRANO=
202304040928 SPECI KPWT 040928Z AUTO 00000KT 10SM OVC007 01/01 A3007 RMK AO2 CIG 004V008 FZRANO=
202304040915 SPECI KPWT 040915Z AUTO 00000KT 10SM BKN005 01/01 A3007 RMK AO2 CIG 003V008 FZRANO=
202304040856 METAR KPWT 040856Z AUTO 00000KT 10SM BKN003 01/01 A3006 RMK AO2 SLP188 T00060006 53002 FZRANO=
202304040756 METAR KPWT 040756Z AUTO 00000KT 3SM BR FEW007 SCT011 00/00 A3006 RMK AO2 SLP187 T00000000 400890000 FZRANO=
202304040753 SPECI KPWT 040753Z AUTO 00000KT 2 1/2SM BR FEW007 00/00 A3006 RMK AO2 VIS 1V5 400890000 FZRANO=
202304040750 SPECI KPWT 040750Z AUTO 00000KT 1 3/4SM BR FEW011 00/00 A3006 RMK AO2 VIS 1V5 400890000 FZRANO=
202304040710 SPECI KPWT 040710Z AUTO 12004KT 10SM SCT006 00/00 A3006 RMK AO2 FZRANO=
202304040656 METAR KPWT 040656Z AUTO 00000KT 3SM BR CLR 01/01 A3006 RMK AO2 SLP185 T00060006 FZRANO=
202304040556 METAR KPWT 040556Z AUTO 00000KT 10SM CLR 01/01 A3006 RMK AO2 SLP186 60001 T00060006 10067 20006 50003 FZRANO=
202304040456 METAR KPWT 040456Z AUTO 00000KT 10SM FEW075 BKN110 02/02 A3006 RMK AO2 SLP186 T00170017 FZRANO=
202304040454 SPECI KPWT 040454Z AUTO 00000KT 9SM FEW080 BKN110 02/02 A3006 RMK AO2 FZRANO=
202304040445 SPECI KPWT 040445Z AUTO 00000KT 2SM BR FEW080 BKN110 01/01 A3006 RMK AO2 FZRANO=
202304040356 METAR KPWT 040356Z AUTO 00000KT 3SM BR FEW120 02/02 A3005 RMK AO2 SLP183 T00170017 FZRANO=
202304040256 METAR KPWT 040256Z AUTO 13003KT 10SM BKN120 04/03 A3004 RMK AO2 RAE16 SLP179 P0000 60001 T00390033 58005=
202304040156 METAR KPWT 040156Z AUTO 19003KT 10SM -RA BKN035 BKN055 06/03 A3005 RMK AO2 RAB48 SLP182 P0000 T00560033=
202304040056 METAR KPWT 040056Z AUTO 00000KT 10SM CLR 06/03 A3005 RMK AO2 RAE54 SLP182 P0001 T00560028=
202304040005 SPECI KPWT 040005Z AUTO 33003KT 10SM -RA SCT024 BKN032 06/04 A3005 RMK AO2 P0000=
202304032356 METAR KPWT 032356Z AUTO 04004KT 10SM -RA SCT022 BKN029 BKN034 06/03 A3005 RMK AO2 SLP183 P0001 60001 T00610028 10089 20028 58005=
202304032333 SPECI KPWT 032333Z AUTO 06004KT 10SM -RA SCT020 BKN036 06/03 A3006 RMK AO2 P0001=
202304032303 SPECI KPWT 032303Z AUTO 05006KT 10SM RA SCT020 BKN026 OVC050 06/03 A3007 RMK AO2 P0000=
202304032256 METAR KPWT 032256Z AUTO 01004KT 10SM -RA SCT028 BKN038 OVC050 06/03 A3007 RMK AO2 RAB26 SLP189 P0000 T00560033=
202304032156 METAR KPWT 032156Z AUTO 04012KT 10SM BKN044 OVC060 06/03 A3007 RMK AO2 SLP187 T00610033=
202304032056 METAR KPWT 032056Z AUTO VRB04KT 10SM FEW024 BKN032 08/01 A3007 RMK AO2 SLP189 60000 T00780011 58006=
202304032044 SPECI KPWT 032044Z AUTO VRB05KT 10SM FEW022 SCT026 08/02 A3007 RMK AO2=
202304032033 SPECI KPWT 032033Z AUTO 18006KT 10SM SCT020 BKN026 08/03 A3008 RMK AO2=
202304031956 METAR KPWT 031956Z AUTO 21005KT 10SM FEW026 BKN070 06/03 A3009 RMK AO2 SLP194 T00610028=
202304031930 SPECI KPWT 031930Z AUTO 19004KT 10SM SCT012 06/03 A3009 RMK AO2=
202304031856 METAR KPWT 031856Z AUTO 00000KT 10SM BKN010 OVC014 04/03 A3009 RMK AO2 RAB07E17 CIG 008V012 SLP196 P0000 T00440033=
202304031854 SPECI KPWT 031854Z AUTO 00000KT 10SM BKN010 OVC014 04/03 A3009 RMK AO2 RAB07E17 CIG 008V012 P0000=
202304031809 SPECI KPWT 031809Z AUTO 23004KT 10SM -RA BKN006 03/03 A3009 RMK AO2 RAB07 P0000=
202304031756 METAR KPWT 031756Z AUTO 00000KT 10SM BKN004 03/02 A3008 RMK AO2 RAB24E40 CIG 003V007 SLP195 P0000 60000 T00280022 10028 20006 53009=
202304031749 SPECI KPWT 031749Z AUTO 00000KT 10SM BKN004 02/02 A3008 RMK AO2 RAB24E40 CIG 003V007 P0000 FZRANO=
202304031656 METAR KPWT 031656Z AUTO 25004KT 10SM OVC002 02/02 A3007 RMK AO2 SLP190 T00170017 FZRANO=
202304031648 SPECI KPWT 031648Z AUTO 25005KT 2 1/2SM BR OVC002 02/02 A3007 RMK AO2 VIS 3/4V5 FZRANO=
202304031643 SPECI KPWT 031643Z AUTO 24004KT 1SM BR OVC002 02/02 A3007 RMK AO2 VIS 1/2V4 FZRANO=
202304031631 SPECI KPWT 031631Z AUTO 27004KT 1/2SM FG OVC002 02/02 A3006 RMK AO2 FZRANO=
202304031628 SPECI KPWT 031628Z AUTO 27004KT 1SM BR OVC002 02/02 A3006 RMK AO2 FZRANO=
202304031620 SPECI KPWT 031620Z AUTO 22003KT 2SM BR OVC002 02/02 A3006 RMK AO2 VIS 3/4V5 FZRANO=
202304031612 SPECI KPWT 031612Z AUTO 20004KT 1SM BR OVC002 02/02 A3006 RMK AO2 VIS 1/2V5 FZRANO=
202304031606 SPECI KPWT 031606Z AUTO 19004KT 1/2SM FG OVC002 01/01 A3006 RMK AO2 FZRANO=
202304031556 METAR KPWT 031556Z AUTO 21003KT 1/4SM FG OVC002 01/01 A3006 RMK AO2 SLP186 T00110011 FZRANO=
202304031456 METAR KPWT 031456Z AUTO 29004KT M1/4SM FG OVC002 01/01 A3005 RMK AO2 SLP182 T00110011 51014 FZRANO=
202304031356 METAR KPWT 031356Z AUTO 00000KT 1/4SM FG OVC002 01/01 A3003 RMK AO2 SLP178 T00110011 FZRANO=
202304031256 METAR KPWT 031256Z AUTO VRB04KT 1/4SM FG OVC002 01/01 A3002 RMK AO2 SLP171 T00110011 FZRANO=
202304031220 SPECI KPWT 031220Z AUTO 00000KT 1/4SM FG OVC002 01/01 A3001 RMK AO2 FZRANO=
202304031156 METAR KPWT 031156Z AUTO 24004KT 1/2SM FG OVC002 01/01 A3000 RMK AO2 RAE20 SLP167 P0000 60000 7//// T00110011 10017 20011 53007 FZRANO=
202304031139 SPECI KPWT 031139Z AUTO 23005KT 1/2SM FG OVC002 01/01 A3000 RMK AO2 RAE20 P0000 FZRANO=
202304031129 SPECI KPWT 031129Z AUTO 25003KT 3/4SM BR OVC002 01/01 A3000 RMK AO2 RAE20 P0000 FZRANO=
202304031123 SPECI KPWT 031123Z AUTO VRB03KT 1 1/4SM BR OVC002 01/01 A3000 RMK AO2 RAE20 P0000 FZRANO=
202304031112 SPECI KPWT 031112Z AUTO 00000KT 1SM -RA BR OVC002 01/01 A2999 RMK AO2 P0000 FZRANO=
202304031105 SPECI KPWT 031105Z AUTO 23003KT 2 1/2SM -RA BR OVC002 01/01 A3000 RMK AO2 VIS 1 1/4V4 P0000 FZRANO=
202304031056 METAR KPWT 031056Z AUTO 28003KT 1 1/4SM -RA BR OVC002 02/02 A2999 RMK AO2 RAB46 SLP165 P0000 T00170017 FZRANO=
202304031045 SPECI KPWT 031045Z AUTO 00000KT 1 3/4SM BR OVC002 01/01 A2999 RMK AO2 FZRANO=
202304030956 METAR KPWT 030956Z AUTO 27003KT 10SM OVC002 02/02 A2998 RMK AO2 SLP161 T00170017 FZRANO=
202304030923 SPECI KPWT 030923Z AUTO 26005KT 4SM BR OVC002 02/02 A2998 RMK AO2 FZRANO=
202304030856 METAR KPWT 030856Z AUTO 25003KT 10SM OVC004 02/02 A2998 RMK AO2 SLP160 T00170017 53011 FZRANO=
202304030838 SPECI KPWT 030838Z AUTO 24003KT 10SM BKN004 BKN018 OVC026 02/02 A2998 RMK AO2 FZRANO=
202304030756 METAR KPWT 030756Z AUTO 26004KT 10SM FEW009 BKN016 BKN027 02/02 A2997 RMK AO2 SLP154 T00170017 400830011 FZRANO=
202304030746 SPECI KPWT 030746Z AUTO 26003KT 10SM FEW003 BKN016 OVC027 02/02 A2996 RMK AO2 FZRANO=
202304030736 SPECI KPWT 030736Z AUTO 31003KT 10SM SCT005 BKN009 OVC027 02/02 A2996 RMK AO2 FZRANO=
202304030713 SPECI KPWT 030713Z AUTO 25004KT 10SM FEW005 OVC015 02/02 A2996 RMK AO2 FZRANO=
202304030656 METAR KPWT 030656Z AUTO 24004KT 10SM OVC015 02/02 A2996 RMK AO2 SLP152 T00170017 FZRANO=
202304030628 SPECI KPWT 030628Z AUTO 00000KT 10SM BKN015 OVC022 02/02 A2995 RMK AO2 FZRANO=
202304030556 METAR KPWT 030556Z AUTO 00000KT 10SM BKN013 02/02 A2995 RMK AO2 SLP148 60033 T00170017 10072 20011 51007 FZRANO=
202304030539 SPECI KPWT 030539Z AUTO 24004KT 10SM BKN011 OVC017 02/02 A2995 RMK AO2 FZRANO=
202304030532 SPECI KPWT 030532Z AUTO 26004KT 10SM BKN008 OVC015 02/02 A2995 RMK AO2 FZRANO=
202304030506 SPECI KPWT 030506Z AUTO 00000KT 10SM SCT006 BKN015 01/01 A2994 RMK AO2 FZRANO=
202304030456 METAR KPWT 030456Z AUTO 00000KT 10SM BKN006 BKN055 02/01 A2994 RMK AO2 RAE32UPB02E07 CIG 005V009 SLP146 P0003 T00170011 FZRANO=
202304030430 SPECI KPWT 030430Z AUTO 00000KT 10SM -RA FEW006 SCT015 BKN060 02/02 A2994 RMK AO2 UPB02E07 P0002 FZRANO=
202304030356 METAR KPWT 030356Z AUTO 11007KT 8SM RA OVC017 01/01 A2993 RMK AO2 UPE41RAB41SNB04E16 SLP142 P0009 T00110011 FZRANO=
202304030351 SPECI KPWT 030351Z AUTO 14003KT 9SM RA OVC017 01/01 A2993 RMK AO2 UPE41RAB41SNB04E16 P0009 FZRANO=
202304030304 SPECI KPWT 030304Z AUTO 02004KT 4SM -SN BR OVC012 02/01 A2992 RMK AO2 UPE04SNB04 P0002 FZRANO=
202304030256 METAR KPWT 030256Z AUTO 01004KT 1 3/4SM UP BR OVC012 01/01 A2991 RMK AO2 RAE20UPB33SNB20E33 SLP138 P0016 60021 T00110011 53010 FZRANO=
202304030245 SPECI KPWT 030245Z AUTO 03004KT 2SM UP BR OVC012 02/01 A2991 RMK AO2 VIS 1V5 RAE20UPB33SNB20E33 P0013 FZRANO=
202304030156 METAR KPWT 030156Z AUTO 35008KT 9SM RA BKN014 OVC023 03/02 A2990 RMK AO2 RAB08 SLP132 P0005 T00280022=
202304030148 SPECI KPWT 030148Z AUTO 36008KT 10SM RA FEW008 SCT014 OVC023 03/02 A2990 RMK AO2 RAB08 P0003=
202304030056 METAR KPWT 030056Z AUTO 03010KT 10SM BKN022 OVC033 04/02 A2988 RMK AO2 SLP126 T00440022=
202304030046 SPECI KPWT 030046Z AUTO 03008KT 10SM BKN022 OVC033 04/02 A2988 RMK AO2=
202304022356 METAR KPWT 022356Z AUTO 22009KT 170V250 10SM CLR 07/01 A2987 RMK AO2 SLP124 6//// T00720006 10083 20044 55000=
202304022256 METAR KPWT 022256Z AUTO 20009KT 10SM SCT027 BKN033 07/02 A2987 RMK AO2 RAB12E46 SLP121 P0000 T00720022=
202304022233 SPECI KPWT 022233Z AUTO 21010G17KT 10SM -RA BKN027 OVC033 06/02 A2987 RMK AO2 RAB12 P0000=
202304022156 METAR KPWT 022156Z AUTO 23008G15KT 10SM SCT026 BKN033 BKN044 07/02 A2986 RMK AO2 SLP119 T00720017=
202304022132 SPECI KPWT 022132Z AUTO 21012KT 10SM SCT022 BKN028 08/02 A2986 RMK AO2=
202304022056 METAR KPWT 022056Z AUTO 21011G15KT 10SM FEW018 07/03 A2987 RMK AO2 SLP123 6//// T00720028 56005=
202304022052 SPECI KPWT 022052Z AUTO 21010KT 10SM FEW018 07/03 A2987 RMK AO2=
202304021956 METAR KPWT 021956Z AUTO 18009KT 10SM BKN016 BKN023 BKN028 06/03 A2989 RMK AO2 RAB09E35 SLP126 P0000 T00560033=
202304021945 SPECI KPWT 021945Z AUTO 20010G15KT 10SM FEW013 BKN018 OVC038 06/03 A2989 RMK AO2 RAB09E35 P0000=
202304021856 METAR KPWT 021856Z AUTO 17006KT 10SM BKN013 05/03 A2989 RMK AO2 SLP127 T00500033=
202304021822 SPECI KPWT 021822Z AUTO 21013G16KT 10SM BKN010 BKN015 OVC020 06/04 A2989 RMK AO2 CIG 008V012=
202304021756 METAR KPWT 021756Z AUTO 20008G15KT 10SM BKN009 OVC013 04/03 A2989 RMK AO2 CIG 006V011 SLP128 60006 T00440033 10044 20011 55000=
202304021729 SPECI KPWT 021729Z AUTO 20009KT 10SM OVC009 03/03 A2989 RMK AO2 CIG 005V011=
202304021656 METAR KPWT 021656Z AUTO 19010G14KT 10SM OVC005 03/03 A2989 RMK AO2 SLP128 T00280028=
202304021556 METAR KPWT 021556Z AUTO 22009KT 10SM OVC005 02/02 A2989 RMK AO2 RAE38 SLP127 P0001 T00220022 FZRANO=
202304021536 SPECI KPWT 021536Z AUTO 20006KT 10SM -RA OVC005 02/02 A2989 RMK AO2 P0001 FZRANO=
202304021456 METAR KPWT 021456Z AUTO 20005KT 4SM -RA BR OVC003 02/02 A2989 RMK AO2 SLP129 P0002 60005 T00170017 55001 FZRANO=
202304021416 SPECI KPWT 021416Z AUTO 23004KT 7SM -RA OVC003 02/02 A2989 RMK AO2 P0000 FZRANO=
202304021356 METAR KPWT 021356Z AUTO 20003KT 10SM -RA OVC005 01/01 A2989 RMK AO2 SLP127 P0002 T00110011 FZRANO=
202304021317 SPECI KPWT 021317Z AUTO 20007KT 10SM -RA OVC005 02/02 A2989 RMK AO2 P0001 FZRANO=
202304021256 METAR KPWT 021256Z AUTO 20011G17KT 10SM -RA OVC003 02/02 A2989 RMK AO2 UPE1159RAB1159E00B19 SLP128 P0001 T00170017 FZRANO=
202304021156 METAR KPWT 021156Z AUTO 19005KT 10SM UP BKN003 OVC012 02/02 A2990 RMK AO2 RAE50UPB50 SLP131 P0000 60008 70008 T00170017 10028 20011 58010 FZRANO=
202304021056 METAR KPWT 021056Z AUTO 19006KT 10SM -RA OVC005 02/02 A2991 RMK AO2 RAE01B30 CIG 003V008 SLP134 P0001 T00220017 FZRANO=
202304020956 METAR KPWT 020956Z AUTO 20009KT 10SM -RA OVC005 02/02 A2991 RMK AO2 UPE43RAB03E18B43 SLP137 P0000 T00220017 FZRANO=
202304020945 SPECI KPWT 020945Z AUTO 20009G17KT 10SM -RA OVC005 02/02 A2992 RMK AO2 UPE43RAB03E18B43 P0000 FZRANO=
202304020856 METAR KPWT 020856Z AUTO 19007KT 10SM UP OVC003 02/02 A2993 RMK AO2 RAE03B40E53UPB03E34B53SNB20E29 SLP140 P0002 60007 T00170017 58009 FZRANO=
202304020829 SPECI KPWT 020829Z AUTO 20008KT 9SM UP BKN005 OVC015 02/02 A2993 RMK AO2 RAE03UPB03SNB20E29 CIG 004V009 P0002 FZRANO=
202304020756 METAR KPWT 020756Z AUTO 19009KT 9SM RA BKN007 OVC015 02/01 A2994 RMK AO2 UPE01RAB20 CIG 005V011 SLP145 P0005 T00170011 400940017 FZRANO=
202304020749 SPECI KPWT 020749Z AUTO 19008KT 10SM RA BKN007 OVC015 02/02 A2994 RMK AO2 UPE01RAB20 CIG 005V011 P0003 FZRANO=
202304020724 SPECI KPWT 020724Z AUTO 20009KT 10SM -RA FEW007 BKN016 BKN060 02/02 A2995 RMK AO2 UPE01RAB20 P0000 FZRANO=
202304020656 METAR KPWT 020656Z AUTO 19009KT 10SM UP FEW010 02/02 A2994 RMK AO2 RAE00UPB48 SLP146 P0000 T00220017 FZRANO=
202304020629 SPECI KPWT 020629Z AUTO 19009KT 10SM SCT008 02/02 A2994 RMK AO2 RAE00 P0000 FZRANO=
202304020614 SPECI KPWT 020614Z AUTO 20009KT 10SM BKN008 BKN012 02/02 A2995 RMK AO2 RAE00 CIG 007V011 P0000 FZRANO=
202304020556 METAR KPWT 020556Z AUTO 21011G15KT 10SM -RA BKN011 03/02 A2995 RMK AO2 UPB40E49RAB49 SLP150 P0000 60000 T00280017 10078 20022 50007=
202304020533 SPECI KPWT 020533Z AUTO 21010KT 10SM SCT014 03/02 A2996 RMK AO2=
202304020523 SPECI KPWT 020523Z AUTO 19011KT 10SM BKN014 03/02 A2996 RMK AO2=
202304020456 METAR KPWT 020456Z AUTO 19008KT 10SM CLR 02/02 A2996 RMK AO2 SLP150 T00220017 FZRANO=
202304020356 METAR KPWT 020356Z AUTO 20010G17KT 10SM CLR 03/01 A2994 RMK AO2 SLP145 T00280011=
202304020256 METAR KPWT 020256Z AUTO 21011KT 10SM CLR 03/01 A2993 RMK AO2 SLP143 T00330006 51005=
202304020156 METAR KPWT 020156Z AUTO 21015G21KT 10SM CLR 05/01 A2993 RMK AO2 PK WND 21027/0123 SLP140 T00500011=
202304020056 METAR KPWT 020056Z AUTO 23011G19KT 10SM CLR 07/01 A2993 RMK AO2 SLP141 T00670011=
202304012356 METAR KPWT 012356Z AUTO 21017G23KT 10SM CLR 07/02 A2992 RMK AO2 PK WND 21027/2333 SLP137 T00720022 10094 20056 53008=
202304012256 METAR KPWT 012256Z AUTO 22018G27KT 10SM CLR 08/01 A2991 RMK AO2 PK WND 22029/2232 SLP134 T00830011=
202304012156 METAR KPWT 012156Z AUTO 21020G25KT 10SM FEW033 08/02 A2990 RMK AO2 PK WND 21030/2106 SLP130 T00830017=
202304012056 METAR KPWT 012056Z AUTO 22022G27KT 10SM CLR 09/01 A2989 RMK AO2 PK WND 23027/2054 LTG DSNT NE SLP129 T00890011 51002=
202304012003 SPECI KPWT 012003Z AUTO 23019G27KT 10SM FEW027 08/02 A2989 RMK AO2=
202304011956 METAR KPWT 011956Z AUTO 23019G27KT 10SM BKN027 08/02 A2989 RMK AO2 PK WND 23027/1956 SLP129 T00780017=
202304011856 METAR KPWT 011856Z AUTO 23012G21KT 10SM OVC019 08/03 A2989 RMK AO2 SLP128 T00780028=
202304011806 SPECI KPWT 011806Z AUTO 21014G21KT 10SM OVC015 06/04 A2989 RMK AO2=
202304011756 METAR KPWT 011756Z AUTO 22015G20KT 10SM OVC013 07/03 A2988 RMK AO2 SLP126 T00670033 10067 20022 51002=
202304011752 SPECI KPWT 011752Z AUTO 21016G21KT 10SM OVC013 07/04 A2988 RMK AO2=
202304011743 SPECI KPWT 011743Z AUTO 20015G19KT 10SM SCT010 BKN015 07/04 A2988 RMK AO2=
202304011656 METAR KPWT 011656Z AUTO 20012G22KT 10SM OVC009 06/04 A2988 RMK AO2 CIG 007V011 SLP125 T00560039=
202304011652 SPECI KPWT 011652Z AUTO 20015G22KT 10SM BKN011 05/03 A2988 RMK AO2 CIG 007V011=
202304011556 METAR KPWT 011556Z AUTO 22013KT 10SM OVC007 03/03 A2987 RMK AO2 SLP122 T00330028=
202304011529 SPECI KPWT 011529Z AUTO 21012KT 10SM BKN009 03/03 A2987 RMK AO2 CIG 006V012=
202304011459 SPECI KPWT 011459Z AUTO 20010KT 10SM SCT007 SCT011 03/02 A2986 RMK AO2=
202304011456 METAR KPWT 011456Z AUTO 20013KT 10SM BKN007 BKN011 03/02 A2986 RMK AO2 CIG 006V010 SLP118 T00280022 53008=
202304011441 SPECI KPWT 011441Z AUTO 21013KT 10SM BKN009 03/02 A2986 RMK AO2 CIG 005V012=
202304011431 SPECI KPWT 011431Z AUTO 20011G17KT 10SM FEW005 BKN011 BKN120 03/02 A2986 RMK AO2=
202304011419 SPECI KPWT 011419Z AUTO 19013KT 10SM FEW005 SCT011 SCT120 02/02 A2986 RMK AO2 FZRANO=
202304011356 METAR KPWT 011356Z AUTO 20012G18KT 10SM FEW120 02/02 A2985 RMK AO2 SLP112 T00220022 FZRANO=
202304011312 SPECI KPWT 011312Z AUTO 20011G16KT 10SM FEW005 SCT110 02/02 A2984 RMK AO2 FZRANO=
202304011256 METAR KPWT 011256Z AUTO 20010KT 10SM CLR 02/02 A2984 RMK AO2 SLP109 T00220022 FZRANO=
202304011207 SPECI KPWT 011207Z AUTO 19011KT 10SM SCT009 03/03 A2984 RMK AO2=
202304011156 METAR KPWT 011156Z AUTO 20012KT 10SM CLR 03/03 A2984 RMK AO2 SLP111 60001 70082 T00280028 10039 20028 58001=
202304011056 METAR KPWT 011056Z AUTO 19011KT 10SM BKN075 03/03 A2984 RMK AO2 SLP112 T00330028=
202304010956 METAR KPWT 010956Z AUTO 18008KT 10SM SCT070 03/03 A2985 RMK AO2 SLP115 T00280028=
202304010925 SPECI KPWT 010925Z AUTO 20008KT 10SM SCT007 BKN070 03/03 A2984 RMK AO2=
202304010856 METAR KPWT 010856Z AUTO 24006KT 10SM OVC007 03/03 A2984 RMK AO2 CIG 005V010 SLP111 60001 T00330028 53015=
202304010846 SPECI KPWT 010846Z AUTO 22005KT 10SM OVC007 03/03 A2984 RMK AO2 CIG 005V010=
202304010838 SPECI KPWT 010838Z AUTO 28003KT 10SM BKN005 OVC009 03/03 A2984 RMK AO2 CIG 005V008=
202304010818 SPECI KPWT 010818Z AUTO 22006KT 10SM OVC007 03/03 A2983 RMK AO2 CIG 004V010=
202304010756 METAR KPWT 010756Z AUTO 21007KT 10SM OVC005 03/03 A2982 RMK AO2 CIG 004V009 SLP104 T00330033 400670028=
202304010712 SPECI KPWT 010712Z AUTO 21009KT 10SM BKN005 OVC009 03/03 A2981 RMK AO2=
202304010656 METAR KPWT 010656Z AUTO 00000KT 10SM SCT005 BKN009 OVC016 03/03 A2980 RMK AO2 UPB07E18RAB18E19 CIG 008V012 SLP100 P0001 T00280028=
202304010612 SPECI KPWT 010612Z AUTO 23004KT 8SM UP OVC007 03/03 A2980 RMK AO2 UPB07 CIG 003V008 P0001=
202304010556 METAR KPWT 010556Z AUTO 28005KT 10SM OVC005 03/03 A2980 RMK AO2 UPE28RAB28E56 CIG 003V008 SLP097 P0003 60060 T00280028 10061 20028 55010=
202304010525 SPECI KPWT 010525Z AUTO 27005KT 4SM UP BR OVC003 03/03 A2980 RMK AO2 P0003=
202304010456 METAR KPWT 010456Z AUTO 24007KT 6SM UP BR BKN005 OVC009 03/03 A2979 RMK AO2 RAE44UPB26 CIG 004V007 SLP096 P0008 T00280028=
202304010403 SPECI KPWT 010403Z AUTO 26006KT 6SM -RA BR FEW004 BKN007 OVC013 03/03 A2981 RMK AO2 P0002=
202304010356 METAR KPWT 010356Z AUTO 25005KT 6SM -RA BR SCT005 OVC010 03/03 A2981 RMK AO2 CIG 008V013 SLP102 P0015 T00330033=
202304010338 SPECI KPWT 010338Z AUTO 26005KT 5SM -RA BR BKN005 BKN009 OVC013 03/03 A2982 RMK AO2 CIG 003V007 P0012=
202304010256 METAR KPWT 010256Z AUTO 25008KT 10SM -RA BKN007 OVC012 05/05 A2983 RMK AO2 CIG 004V008 SLP107 P0014 60034 T00500050 56020=
202304010249 SPECI KPWT 010249Z AUTO 25007KT 10SM -RA BKN007 OVC012 05/05 A2983 RMK AO2 CIG 004V009 P0012=
202304010220 SPECI KPWT 010220Z AUTO 23010KT 10SM -RA FEW007 BKN010 OVC018 06/05 A2983 RMK AO2 CIG 008V012 P0005=
202304010156 METAR KPWT 010156Z AUTO 21008G15KT 9SM -RA BKN007 OVC012 06/05 A2984 RMK AO2 CIG 004V010 SLP112 P0014 T00560050=
202304010141 SPECI KPWT 010141Z AUTO 20009KT 10SM -RA SCT003 BKN009 OVC013 06/06 A2985 RMK AO2 CIG 006V011 P0010=
202304010132 SPECI KPWT 010132Z AUTO 21010G14KT 9SM -RA BKN003 OVC013 06/06 A2985 RMK AO2 CIG 003V008 P0009=
202304010107 SPECI KPWT 010107Z AUTO 21008KT 9SM RA OVC005 06/06 A2985 RMK AO2 CIG 003V011 P0002=
202304010056 METAR KPWT 010056Z AUTO 20012G16KT 10SM -RA BKN004 OVC009 06/06 A2986 RMK AO2 CIG 003V007 SLP118 P0006 T00560056=
202304010037 SPECI KPWT 010037Z AUTO 21008KT 10SM RA BKN006 BKN014 OVC021 06/06 A2987 RMK AO2 CIG 004V009 P0004=
202304010011 SPECI KPWT 010011Z AUTO 20013G17KT 9SM -RA SCT008 BKN012 OVC019 06/05 A2988 RMK AO2 P0002=

# No short TAF reports from KPWT in databse.

###################################
#  large TAF from KPWT
###################################
202304302334 TAF KPWT 302334Z 0100/0124 21010KT P6SM SCT030 BKN050 OVC080
                      TEMPO 0102/0106 BKN030 OVC050 FM011100 02006KT
                       P6SM BKN050 OVC080 FM011400 02006KT P6SM
                       BKN015 OVC030 FM011800 02006KT P6SM SCT025
                       BKN045 OVC080=
202304301739 TAF KPWT 301739Z 3018/0118 20008KT P6SM SCT020 BKN045 BKN120 FM011100
                       02006KT P6SM BKN050 OVC080=
202304301502 KPWT 301502Z 3015/0112 20008KT P6SM SCT010 BKN120 FM301900 21010KT
                       P6SM BKN045 OVC090 FM302200 21012G18KT P6SM
                       OVC050 FM010100 21008KT P6SM BKN050 FM010500
                       VRB02KT P6SM OVC050=
202304301144 KPWT 301144Z 3012/0112 20006KT P6SM BKN009 BKN100 FM301800 21010KT
                       P6SM SCT010 OVC020 FM302200 21012G18KT P6SM
                       OVC050 FM010100 21008KT P6SM BKN050 FM010500
                       VRB02KT P6SM OVC050=
202304301137 TAF KPWT 301137Z 3012/0112 20006KT P6SM BKN010 BKN100 FM302200
                       21012G18KT P6SM OVC050 FM010100 21008KT
                       P6SM BKN050 FM010500 VRB02KT P6SM OVC050=
202304300531 TAF KPWT 300531Z 3006/0106 20005KT P6SM SCT250 FM301200 20006KT
                       P6SM BKN040 OVC050 FM301400 20005KT P6SM
                       BKN025 FM302000 21011KT P6SM OVC025 FM010100
                       21008KT P6SM BKN050=
202304292322 TAF KPWT 292322Z 3000/3024 24010G15KT P6SM SCT250 FM301000 20006KT
                       P6SM BKN120 FM301400 20006KT P6SM BKN040
                       OVC070=
202304291729 TAF KPWT 291729Z 2918/3018 20008KT P6SM SCT250 FM292300 24008KT
                       P6SM SCT250 FM300500 20006KT P6SM SCT250
                       FM301000 20006KT P6SM BKN120 FM301400 20006KT
                       P6SM BKN045 OVC080=
202304291132 TAF KPWT 291132Z 2912/3012 20010KT P6SM SCT200 FM291800 21009KT
                       P6SM SKC FM301100 21004KT P6SM BKN040=
202304290523 TAF KPWT 290523Z 2906/3006 05005KT P6SM SCT200 FM290900 20010KT
                       P6SM SCT200 FM291800 21009KT P6SM FEW250=
202304282321 TAF KPWT 282321Z 2900/2924 04010KT P6SM SKC FM290400 05006KT P6SM
                       SCT200 FM290900 19010KT P6SM SCT200 FM291400
                       19008KT P6SM BCFG FEW003 FM291800 20009KT
                       P6SM SCT200=
202304281729 TAF KPWT 281729Z 2818/2918 04010KT P6SM SKC FM290400 05006KT P6SM
                       SKC FM290900 19010KT P6SM SKC FM291400 19008KT
                       P6SM BCFG FEW003=
202304281133 TAF KPWT 281133Z 2812/2912 04009KT P6SM FEW250 FM290500 18004KT
                       P6SM SCT250=
202304280520 TAF KPWT 280520Z 2806/2906 05006KT P6SM SCT250 FM281200 04006KT
                       P6SM SCT200 FM281800 03008KT P6SM SCT200
                       FM290300 VRB03KT P6SM SCT200=
202304272323 TAF KPWT 272323Z 2800/2824 05009KT P6SM SCT250 FM281200 04008KT
                       P6SM SCT200 FM281800 03008KT P6SM SCT200=
202304271737 TAF KPWT 271737Z 2718/2818 03012KT P6SM SCT250 FM271900 03006KT
                       P6SM SCT250 FM281200 04008KT P6SM SCT200=
202304271121 TAF KPWT 271121Z 2712/2812 00000KT P6SM BKN040 FM271900 03006KT
                       P6SM SCT250=
202304270540 TAF KPWT 270540Z 2706/2806 04004KT P6SM BKN200 FM271200 VRB03KT
                       5SM BR BKN004 FM271600 03006KT P6SM SCT020
                       SCT200 FM271900 03006KT P6SM FEW200=
202304262323 TAF KPWT 262323Z 2700/2724 03007KT P6SM SCT120 BKN200 FM270300
                       04004KT P6SM BKN100 BKN200 FM270900 VRB03KT
                       P6SM OVC014 FM271700 03006KT P6SM SCT020
                       SCT200 FM272100 03007KT P6SM FEW200=
202304261720 TAF KPWT 261720Z 2618/2718 VRB03KT P6SM SCT100 OVC200 FM262000
                       19005KT P6SM BKN080 OVC120 FM270100 04004KT
                       P6SM BKN050 FM270900 VRB03KT P6SM OVC015
                       FM271700 03006KT P6SM SCT025 SCT200=
202304261132 TAF KPWT 261132Z 2612/2712 VRB03KT P6SM SCT100 OVC200 FM261900
                       VRB04KT P6SM BKN080 OVC120 FM262100 06008KT
                       P6SM SCT060 FM270200 04006KT P6SM BKN060
                       FM271000 VRB03KT P6SM OVC025=
202304260540 TAF KPWT 260540Z 2606/2706 03006KT P6SM BKN250 FM261600 VRB03KT
                       P6SM BKN120 OVC200 FM261900 21006KT P6SM
                       BKN080 OVC120 FM270200 36006KT P6SM SCT250=
202304252320 TAF KPWT 252320Z 2600/2624 03005KT P6SM FEW050 SCT250 FM260500
                       05005KT P6SM BKN250 FM261200 VRB03KT P6SM
                       BCFG SCT005 BKN100 FM262100 19007KT P6SM
                       OVC050=
202304251731 TAF KPWT 251731Z 2518/2618 05003KT P6SM BKN010
                      TEMPO 2518/2520 SCT012 BKN030 FM252000 05003KT
                       P6SM SCT020 BKN040 FM252200 03005KT P6SM
                       FEW050 SCT250 FM260500 05005KT P6SM BKN250
                       FM261200 VRB03KT P6SM BCFG SCT005 BKN100=
202304251340 KPWT 251340Z 2514/2612 00000KT 4SM BR OVC003
                      TEMPO 2514/2516 1/2SM FG FM251700 00000KT
                       P6SM SCT006 BKN015 FM251900 VRB03KT P6SM
                       SCT020 BKN040 FM252200 03005KT P6SM FEW050
                       SCT250 FM260500 00000KT P6SM BKN250=
202304251131 TAF KPWT 251131Z 2512/2612 00000KT 4SM BR OVC003 FM251700 00000KT
                       P6SM SCT006 BKN015 FM251900 VRB03KT P6SM
                       SCT020 BKN040 FM252200 03005KT P6SM FEW050
                       SCT250 FM260500 00000KT P6SM BKN250=
202304250538 TAF KPWT 250538Z 2506/2606 00000KT P6SM SCT015 BKN030
                      TEMPO 2506/2510 BKN015 OVC030 FM251000 00000KT
                       3SM BR OVC006 FM251600 00000KT P6SM SCT010
                       OVC015 FM251900 00000KT P6SM BKN040 FM252200
                       01008KT P6SM SCT250=
202304242320 TAF KPWT 242320Z 2500/2524 VRB03KT P6SM VCSH SCT020 BKN050 FM250400
                       21007KT P6SM OVC025 FM251000 00000KT 3SM
                       BR OVC007 FM251600 04002KT P6SM SCT010 OVC015=
202304241731 KPWT 241731Z 2418/2518 VRB03KT P6SM VCSH SCT020 BKN050
                      TEMPO 2418/2421 -SHRA OVC020 FM250400 21007KT
                       P6SM OVC025 FM251000 00000KT 3SM BR OVC007
                       FM251600 04002KT P6SM SCT010 OVC015=
202304241729 TAF KPWT 241729Z 2418/2518 VRB03KT P6SM SCT030 BKN050 FM250400
                       21007KT P6SM OVC025 FM251000 00000KT 3SM
                       BR OVC007 FM251600 04002KT P6SM SCT010 OVC015=
202304241137 TAF KPWT 241137Z 2412/2512 20008KT P6SM OVC006 FM241800 19005KT
                       P6SM OVC035 FM250300 21007KT P6SM OVC025
                       FM251000 00000KT 3SM BR OVC007=
202304240535 TAF KPWT 240535Z 2406/2506 20009KT 5SM -RA BR BKN007 OVC020 FM240800
                       19008KT 4SM -RA BR OVC010 FM241300 VRB03KT
                       P6SM VCSH OVC025 FM241800 19005KT P6SM OVC035
                       FM250000 04006KT P6SM BKN030=
202304232325 TAF KPWT 232325Z 2400/2424 21010KT P6SM -RA OVC025 FM240400 20009KT
                       6SM -RA BKN010 OVC020 FM240800 19008KT 4SM
                       -RA BR OVC010 FM241300 VRB03KT P6SM VCSH
                       OVC025 FM241800 19005KT P6SM OVC025=
202304231723 TAF KPWT 231723Z 2318/2418 20014G21KT P6SM OVC015 FM232000 21013G21KT
                       P6SM OVC035 FM240400 19010G17KT 4SM -RA
                       OVC020 FM240800 19008KT 2SM -RA BR OVC010=
202304231141 TAF KPWT 231141Z 2312/2412 20005KT P6SM -SHRA SCT005 BKN015 OVC035
                       TEMPO 2312/2316 BKN005 FM231600 20010KT
                       P6SM OVC010 FM240400 19010G17KT P6SM -RA
                       OVC007=
202304230534 TAF KPWT 230534Z 2306/2406 VRB04KT P6SM -RA SCT004 OVC030 FM230900
                       VRB04KT 4SM -RA BR OVC010 FM231100 19005KT
                       3SM -RA BR OVC007 FM231700 20010KT 6SM BR
                       OVC015=
202304230409 KPWT 230409Z 2304/2324 22005KT P6SM VCSH BKN004 OVC040 FM230600
                       20005KT P6SM -RA BKN004 OVC030 FM230900
                       20004KT 4SM -RA BR OVC010 FM231100 19005KT
                       3SM -RA BR OVC007 FM231700 20005KT 6SM BR
                       VCSH OVC015=
202304222338 TAF KPWT 222338Z 2300/2324 22005KT P6SM OVC040 FM230600 20005KT
                       P6SM -RA SCT015 OVC030 FM230900 20004KT
                       4SM -RA BR OVC010 FM231100 19005KT 3SM -RA
                       BR OVC007 FM231700 20005KT 6SM BR VCSH OVC015=
202304221731 TAF KPWT 221731Z 2218/2318 22006KT P6SM BKN008 OVC015 FM222100
                       21005KT P6SM BKN025 OVC050 FM230500 20005KT
                       P6SM -SHRA BKN020 OVC040 FM231400 19003KT
                       6SM -RA BR OVC007=
202304221128 TAF KPWT 221128Z 2212/2312 19006KT P6SM SCT030 BKN070 OVC110 FM221300
                       19006KT P6SM SCT040 BKN060 OVC120
                      TEMPO 2217/2221 BKN025 OVC030 FM222100 21005KT
                       P6SM VCSH SCT025 BKN035 OVC050 FM230300
                       19005KT 6SM -RA SCT015 BKN025 OVC040 FM230900
                       21009KT 6SM -RA BR SCT007 OVC015=
202304220538 TAF KPWT 220538Z 2206/2306 19006KT P6SM SCT035 OVC090 FM221300
                       17006KT P6SM SCT040 BKN060 OVC120 FM230300
                       17006KT P6SM -RA SCT015 BKN025 OVC040=
202304212331 TAF KPWT 212331Z 2200/2224 19009KT P6SM BKN020 OVC030 FM220300
                       22004KT P6SM BKN035 OVC050 FM220800 05004KT
                       P6SM VCSH BKN025 BKN040 FM221200 05003KT
                       6SM -SHRA OVC025 FM221600 04004KT 4SM -RA
                       OVC015=
202304211737 TAF KPWT 211737Z 2118/2218 22010KT P6SM VCSH BKN011 OVC040 FM212200
                       20007KT P6SM SCT022 BKN030 FM220000 19005KT
                       P6SM SCT035 OVC050 FM220800 05004KT P6SM
                       BKN025 BKN040 FM221200 05003KT 6SM -SHRA
                       OVC025 FM221600 04004KT 4SM -RA OVC015=
202304211124 TAF KPWT 211124Z 2112/2212 21005KT P6SM VCSH BKN010 OVC020 FM211800
                       19008KT P6SM VCSH SCT015 BKN020 OVC040 FM212100
                       20007KT P6SM SCT022 BKN030 FM220000 19005KT
                       P6SM SCT035 BKN050 OVC120 FM220800 05004KT
                       P6SM BKN025 BKN040=
202304210745 KPWT 210745Z 2108/2206 21005KT P6SM VCSH BKN011 OVC025 FM211600
                       19008KT P6SM SCT008 BKN015 OVC030 FM211800
                       19008KT P6SM SCT015 BKN025 OVC040 FM212000
                       19008KT P6SM SCT025 BKN040 FM220100 VRB03KT
                       P6SM SCT045 BKN080 OVC120=
202304210528 TAF KPWT 210528Z 2106/2206 19008KT P6SM -SHRA OVC004 FM211000 19008KT
                       P6SM SCT004 BKN008 OVC015 FM211600 19008KT
                       P6SM SCT008 BKN015 OVC030 FM211800 19008KT
                       P6SM SCT015 BKN025 OVC040 FM212000 19008KT
                       P6SM SCT025 BKN040 FM220100 VRB03KT P6SM
                       SCT045 BKN080 OVC120=
202304210414 KPWT 210414Z 2104/2124 19008KT 4SM -RA OVC004 FM210700 20012KT
                       5SM -SHRA BR OVC010 FM211200 20003KT 6SM
                       BR OVC007 FM211900 19008KT P6SM OVC025=
202304202320 TAF KPWT 202320Z 2100/2124 20012G20KT P6SM -RA SCT009 BKN015 OVC020
                       FM210200 20012G25KT 5SM -SHRA BR OVC010
                       FM210400 21005KT 6SM -RA BR BKN025 FM211200
                       20003KT 6SM BR OVC007 FM211900 19008KT P6SM
                       OVC025=
202304201739 TAF KPWT 201739Z 2018/2118 17010KT P6SM FEW008 BKN035 OVC060 FM202000
                       19012G25KT 6SM -RA BR OVC015 FM202200 19022G32KT
                       5SM RA BR OVC010 FM210200 20018G28KT 6SM
                       -SHRA OVC015 FM210700 19012G18KT P6SM VCSH
                       BKN025 OVC040 FM211400 21002KT P6SM BKN025=
202304201125 TAF KPWT 201125Z 2012/2112 20005KT P6SM BKN040 OVC100 FM201600
                       17010KT P6SM BKN035 OVC060 FM202000 19020G30KT
                       6SM -RA BR OVC022 FM202200 19022G32KT 5SM
                       RA BR OVC010 FM210200 20018G28KT 6SM -SHRA
                       OVC015 FM210700 19012G18KT P6SM VCSH BKN025
                       OVC040=
202304201005 KPWT 201005Z 2010/2106 20005KT P6SM SCT005 BKN040 BKN100
                      TEMPO 2010/2012 BKN003 FM201300 17007KT P6SM
                       BKN050 OVC100 FM201700 18019G28KT P6SM OVC020
                       FM202000 20020G30KT 4SM -RA BR OVC010 FM210200
                       20012KT 4SM BR OVC015=
202304200520 TAF KPWT 200520Z 2006/2106 20005KT P6SM SCT050 BKN100 FM201100
                       17007KT P6SM BKN050 OVC100 FM201700 18019G28KT
                       P6SM OVC020 FM202000 20020G30KT 4SM -RA
                       BR OVC010 FM210200 20012KT 4SM BR OVC015=
202304192323 TAF KPWT 192323Z 2000/2024 20011G17KT P6SM VCSH BKN050 FM200300
                       20005KT P6SM BKN050 BKN100 FM201100 17007KT
                       P6SM SCT050 OVC100 FM201700 18019G24KT P6SM
                       OVC050=
202304192102 KPWT 192102Z 1921/2018 20011G17KT P6SM VCSH BKN050 FM200200 20008KT
                       P6SM BKN050 BKN100 FM201100 17007KT P6SM
                       SCT050 OVC100=
202304191720 TAF KPWT 191720Z 1918/2018 20011KT P6SM -SHRA OVC020 FM192100 20011G17KT
                       P6SM VCSH BKN030 OVC050 FM200200 20008KT
                       P6SM BKN050 BKN100 FM201100 17007KT P6SM
                       SCT050 OVC100=
202304191131 TAF KPWT 191131Z 1912/2012 19006KT P6SM -SHRA BKN022 OVC035 FM191800
                       20011KT P6SM -SHRA OVC020 FM192100 20011KT
                       P6SM VCSH BKN030 OVC050 FM200300 20006KT
                       P6SM BKN040 BKN090 FM201100 17007KT P6SM
                       SCT050 BKN100=
202304190520 TAF KPWT 190520Z 1906/2006 20005KT P6SM SCT010 OVC020 FM190900
                       19009KT 4SM BR VCSH OVC007 FM191800 20015G23KT
                       P6SM VCSH OVC015 FM192100 20011KT P6SM -SHRA
                       OVC020 FM200000 18005KT P6SM BKN030=
202304182337 TAF KPWT 182337Z 1900/1924 20010G18KT P6SM -SHRA BKN030 OVC045
                       FM190300 20010KT P6SM -SHRA BKN025 OVC040
                       FM190900 19009KT P6SM VCSH BKN007 FM191800
                       20015G21KT P6SM OVC015 FM192100 20011G17KT
                       P6SM -SHRA OVC050=
202304181742 TAF KPWT 181742Z 1818/1918 19010G20KT P6SM -SHRA BKN007 BKN015
                       FM181900 20014G24KT P6SM -SHRA BKN015 OVC030
                       FM182100 20014G22KT P6SM -SHRA BKN030 OVC045
                       FM190300 20010G16KT P6SM -SHRA BKN025 OVC040
                       FM190900 19009KT P6SM VCSH BKN007=
202304181547 KPWT 181547Z 1816/1912 19010G20KT P6SM -SHRA BKN007 BKN015 FM181900
                       20014G24KT P6SM -SHRA BKN015 OVC030 FM182100
                       20014G22KT P6SM -SHRA BKN030 OVC045 FM190300
                       20010G16KT P6SM -SHRA BKN025 OVC040 FM190900
                       19009KT P6SM VCSH BKN015=
202304181123 TAF KPWT 181123Z 1812/1912 19015G25KT P6SM -SHRA SCT007 BKN017
                       OVC030
                      TEMPO 1812/1816 -SHRA BKN006 OVC012 FM181600
                       20014G24KT P6SM -SHRA BKN018 OVC030 FM182100
                       20014G22KT P6SM -SHRA BKN030 OVC045 FM190300
                       20010G16KT P6SM -SHRA BKN025 OVC040 FM190900
                       19009KT P6SM VCSH BKN015=
202304180524 TAF KPWT 180524Z 1806/1906 17003KT P6SM VCSH SCT030 BKN050 BKN070
                       FM180900 19015G25KT P6SM -SHRA SCT015 BKN020
                       OVC030
                      TEMPO 1809/1813 BKN010 FM181800 20015G25KT
                       P6SM -SHRA OVC025=
202304172336 TAF KPWT 172336Z 1800/1824 20012G20KT P6SM -SHRA BKN035 OVC040
                       TEMPO 1800/1801 BKN008 FM180600 19012G18KT
                       P6SM -SHRASN BKN020 OVC030 FM181600 20013G19KT
                       P6SM -SHRA OVC050=
202304171735 TAF KPWT 171735Z 1718/1818 15007KT P6SM VCSH SCT035 BKN050 FM172000
                       19011G18KT P6SM -RA OVC035 FM172300 20012G20KT
                       P6SM -SHRA BKN035 OVC040 FM180600 19012G18KT
                       P6SM -SHRASN BKN020 OVC030 FM181600 20013G19KT
                       P6SM -SHRA OVC050=
202304171120 TAF KPWT 171120Z 1712/1812 15007KT P6SM VCSH SCT025 BKN050 FM172000
                       19011G18KT P6SM -RA OVC035 FM172300 20012G20KT
                       P6SM -SHRA BKN035 OVC040 FM180600 19012G18KT
                       P6SM -SHRASN BKN020 OVC030=
202304170524 TAF KPWT 170524Z 1706/1806 20011KT P6SM -SHRA SCT025 BKN040
                      TEMPO 1706/1710 BKN025 FM171200 17007KT P6SM
                       VCSH BKN028 BKN040 FM171900 18011KT P6SM
                       -RA OVC030 FM172200 20012G20KT P6SM -SHRA
                       BKN025 BKN035=
202304170250 KPWT 170250Z 1703/1724 23018G22KT P6SM VCSH SCT015 BKN040 FM170600
                       19011KT P6SM BKN050 FM171500 05008G16KT
                       P6SM OVC050 FM171800 07012G20KT P6SM -SHRA
                       OVC050 FM172100 15015G25KT P6SM -SHRA OVC050=
202304162322 TAF KPWT 162322Z 1700/1724 23018G22KT P6SM -RA FEW011 SCT014 BKN035
                       TEMPO 1700/1704 BKN015 FM170600 19011KT
                       P6SM BKN050 FM171500 05008G16KT P6SM OVC050
                       FM171800 07012G20KT P6SM -SHRA OVC050 FM172100
                       15015G25KT P6SM -SHRA OVC050=
202304161733 TAF KPWT 161733Z 1618/1718 20009KT P6SM -RA BKN006 BKN012 OVC030
                       FM162100 20015G25KT P6SM -SHRA BKN025 FM170200
                       21013G22KT P6SM VCSH BKN045 FM170600 19012KT
                       P6SM OVC050 FM171400 05010G16KT P6SM OVC050=
202304161143 TAF KPWT 161143Z 1612/1712 VRB03KT P6SM VCSH BKN040 OVC080 FM161500
                       19008KT P6SM -RA BKN015 OVC040 FM162100
                       20015G25KT P6SM -SHRA BKN025 FM170200 21013G22KT
                       P6SM VCSH BKN045 FM170800 19007G14KT P6SM
                       OVC025=
202304160528 TAF KPWT 160528Z 1606/1706 VRB03KT P6SM VCSH BKN040 OVC080
                      TEMPO 1606/1610 -SHRA FM161300 19008KT P6SM
                       -RA BKN030 OVC040 FM161700 20015G25KT 6SM
                       -RA BR OVC012 FM162100 20015G25KT 4SM -SHRA
                       OVC018 FM170200 21013G22KT P6SM VCSH BKN045=
202304152330 TAF KPWT 152330Z 1600/1624 20010KT P6SM -RA FEW015 BKN035 OVC060
                       FM160900 20010KT P6SM -RA BKN030 OVC050
                       FM161700 20015G25KT 6SM -RA BR OVC015 FM162100
                       20015G25KT P6SM -SHRA SCT025 OVC050=
202304151731 TAF KPWT 151731Z 1518/1618 21009KT P6SM FEW060 OVC100 FM152100
                       20012KT P6SM OVC050 FM160000 20010KT P6SM
                       VCSH OVC040 FM160900 18010KT P6SM -RA OVC025=
202304151135 TAF KPWT 151135Z 1512/1612 VRB03KT P6SM OVC120 FM151900 19006KT
                       P6SM OVC080 FM152200 19006KT P6SM -RA OVC040=
202304150526 TAF KPWT 150526Z 1506/1606 14003KT P6SM SCT060 BKN200 FM151500
                       VRB03KT P6SM OVC080 FM152100 21008KT P6SM
                       -RA OVC035 FM160300 22007KT P6SM -RA OVC030=
202304142344 TAF KPWT 142344Z 1500/1524 21006KT P6SM FEW035 FM150300 17006KT
                       P6SM SCT060 BKN150 FM151200 VRB04KT P6SM
                       BKN010 OVC080 FM151500 19003KT P6SM SCT010
                       OVC050 FM152100 21008KT P6SM -RA BKN030
                       OVC060=
202304141720 TAF KPWT 141720Z 1418/1518 00000KT P6SM BKN011 FM141900 21006KT
                       P6SM BKN050 FM150300 17006KT P6SM SCT060
                       BKN150 FM151200 VRB04KT P6SM BKN010 OVC080
                       FM151700 21008KT P6SM -RA BKN030 OVC060=
202304141128 TAF KPWT 141128Z 1412/1512 00000KT P6SM BKN035
                      TEMPO 1413/1416 4SM BR FM141900 21006KT P6SM
                       BKN050 FM150200 17006KT P6SM SCT060 BKN150=
202304140526 TAF KPWT 140526Z 1406/1506 00000KT P6SM VCSH BKN040 BKN100 FM140700
                       00000KT 6SM BR BKN040 BKN100 FM141100 00000KT
                       4SM BR BKN006
                      TEMPO 1413/1416 1/2SM FG FM141600 VRB03KT
                       P6SM SCT006 BKN015 FM141900 19005KT P6SM
                       BKN050=
202304132320 TAF KPWT 132320Z 1400/1424 21008KT P6SM VCSH BKN035 BKN100
                      TEMPO 1400/1402 -SHRA BKN025 FM140400 21008KT
                       P6SM SCT025 OVC040 FM140800 21008KT P6SM
                       OVC015 FM141500 02002KT P6SM OVC003 FM141600
                       05003KT P6SM OVC025 FM141800 19008KT P6SM
                       OVC050=
202304131720 TAF KPWT 131720Z 1318/1418 21008KT P6SM SCT010 BKN020 OVC035
                      TEMPO 1318/1319 BKN008 FM132200 21008KT P6SM
                       VCSH SCT025 OVC045 FM140400 21008KT P6SM
                       SCT025 OVC040 FM140800 21008KT P6SM OVC015
                       FM141500 02002KT P6SM OVC003 FM141700 05003KT
                       P6SM OVC025=
202304131602 KPWT 131602Z 1316/1412 21008KT P6SM BKN008
                      TEMPO 1316/1317 OVC004 FM131800 21008KT P6SM
                       SCT012 BKN020 OVC035 FM132100 21008KT P6SM
                       -RA SCT022 OVC035 FM140400 21008KT P6SM
                       SCT025 OVC040 FM140900 21008KT P6SM OVC015=
202304131520 KPWT 131520Z 1315/1412 21008KT P6SM BKN008
                      TEMPO 1315/1316 OVC004 FM131800 21008KT P6SM
                       SCT012 BKN020 OVC035 FM132100 21008KT P6SM
                       -RA SCT022 OVC035 FM140400 21008KT P6SM
                       SCT025 OVC040 FM140900 21008KT P6SM OVC015=
202304131125 TAF KPWT 131125Z 1312/1412 21008KT P6SM BKN008 OVC012 FM131500
                       21008KT P6SM SCT008 BKN012 OVC020 FM131800
                       21008KT P6SM SCT012 BKN020 OVC035 FM132100
                       21008KT P6SM -RA SCT022 OVC035 FM140400
                       21008KT P6SM SCT025 OVC040 FM140900 21008KT
                       P6SM OVC015=
202304130532 TAF KPWT 130532Z 1306/1406 18003KT P6SM FEW070 FEW200 FM131000
                       21008KT P6SM BKN015 OVC035 FM131800 23005KT
                       P6SM OVC050 FM132100 20005KT P6SM -RA OVC050
                       FM140200 20004KT P6SM OVC050=
202304122320 TAF KPWT 122320Z 1300/1324 21010KT P6SM SCT100 BKN200 FM131000
                       21008KT P6SM BKN015 OVC035 FM131800 23005KT
                       P6SM OVC050=
202304121730 TAF KPWT 121730Z 1218/1318 VRB03KT P6SM SCT030 BKN050 OVC100 FM121900
                       02008KT P6SM SCT050 BKN100 FM130000 21008KT
                       P6SM SCT100 BKN200 FM131000 21008KT P6SM
                       BKN020 OVC035=
202304121135 TAF KPWT 121135Z 1212/1312 VRB03KT P6SM SCT050 OVC100 FM121500
                       VRB03KT P6SM SCT030 BKN050 OVC100
                      TEMPO 1215/1218 BKN030 OVC050 FM121900 02008KT
                       P6SM SCT050 BKN100 FM130000 21008KT P6SM
                       SCT100 BKN200 FM131000 21008KT P6SM BKN020
                       OVC035=
202304120523 TAF KPWT 120523Z 1206/1306 VRB03KT P6SM FEW070 BKN150 FM120900
                       03004KT P6SM BKN050 BKN100 FM121200 03003KT
                       P6SM BKN015 FM121800 03005KT P6SM BKN050
                       FM122100 04006KT P6SM SCT050 SCT200=
202304112326 TAF KPWT 112326Z 1200/1224 19010G22KT P6SM BKN050 FM120300 20006KT
                       P6SM BKN050 BKN100 FM120900 00000KT P6SM
                       OVC007 FM121600 03002KT P6SM OVC050=
202304111741 TAF KPWT 111741Z 1118/1218 19010G22KT P6SM VCSH SCT010 BKN035 BKN050
                       FM120300 20006KT P6SM BKN050 BKN100 FM120900
                       00000KT P6SM OVC007 FM121600 03002KT P6SM
                       OVC050=
202304111139 TAF KPWT 111139Z 1112/1212 20010KT P6SM VCSH OVC005 FM111400 19010G22KT
                       4SM -RA BR SCT005 OVC012 FM112000 21015G25KT
                       P6SM VCSH BKN030 BKN050 FM120300 20006KT
                       P6SM BKN050 BKN100=
202304110534 TAF KPWT 110534Z 1106/1206 22011KT P6SM -RA BKN008 OVC013 FM110900
                       20010KT P6SM VCSH OVC010 FM111400 19010G22KT
                       4SM -RA BR SCT005 OVC012 FM112000 21015G25KT
                       P6SM VCSH BKN030 BKN050 FM120300 20006KT
                       P6SM BKN050 BKN100=
202304102334 TAF KPWT 102334Z 1100/1124 VRB03KT P6SM -RA FEW025 OVC030 FM110200
                       21003KT P6SM -RA OVC015 FM111100 19008KT
                       4SM -RA OVC007 FM111500 20010G20KT 6SM BR
                       VCSH OVC015 FM111900 20012G22KT P6SM VCSH
                       OVC030=
202304101739 TAF KPWT 101739Z 1018/1118 VRB03KT P6SM -RA SCT025 BKN035 FM102000
                       VRB03KT 4SM -RA BR OVC025 FM110800 19005KT
                       4SM BR VCSH OVC007 FM111600 20010G20KT 6SM
                       BR VCSH OVC015=
202304101444 KPWT 101444Z 1015/1112 VRB03KT 6SM -RA FEW004 SCT008 BKN040
                      TEMPO 1015/1018 OVC004 FM110500 20005KT 4SM
                       BR VCSH OVC007=
202304101348 KPWT 101348Z 1014/1112 VRB03KT 6SM -RA OVC004 FM110500 20005KT
                       4SM BR VCSH OVC007=
202304101124 TAF KPWT 101124Z 1012/1112 00000KT P6SM BKN008 OVC015 FM101300
                       VRB03KT 6SM -RA OVC009 FM110500 20005KT
                       4SM BR VCSH OVC007=
202304100902 KPWT 100902Z 1009/1106 00000KT P6SM BKN015 OVC022 FM101500 VRB03KT
                       6SM -RA OVC012 FM102000 VRB04KT 4SM -RA
                       OVC005 FM110500 20005KT 4SM BR VCSH OVC007=
202304100526 TAF KPWT 100526Z 1006/1106 22012KT P6SM VCSH SCT030 OVC050 FM100900
                       VRB03KT 3SM BR VCSH BKN010 OVC050 FM101500
                       VRB03KT 6SM -RA OVC012 FM102000 VRB04KT
                       4SM -RA OVC005 FM110500 20005KT 4SM BR VCSH
                       OVC007=
202304092332 TAF KPWT 092332Z 1000/1024 17010G23KT 6SM -RA BR OVC006 FM100300
                       20010KT 5SM -RA BR OVC007 FM100900 00000KT
                       4SM -RA BR OVC010 FM101300 00000KT 1/2SM
                       FG OVC007=
202304091722 TAF KPWT 091722Z 0918/1018 19011G22KT 5SM -RA BKN015 OVC025 FM091900
                       19022G35KT 3SM -RA BR OVC010 FM100300 20009KT
                       5SM BR BKN015 OVC025 FM100900 VRB03KT 4SM
                       -RA BR OVC007=
202304091136 TAF KPWT 091136Z 0912/1012 19008KT P6SM -RA SCT006 OVC035 FM091500
                       19012G22KT 4SM -RA OVC006 FM092100 19022G35KT
                       3SM -RA BR OVC004 FM100300 20012KT 5SM -RA
                       OVC006 FM100700 VRB03KT 2SM BR OVC003=
202304090528 TAF KPWT 090528Z 0906/1006 VRB03KT P6SM -SHRA OVC035 FM091100 19008KT
                       6SM -RA BR BKN010 OVC020 FM091500 19013G22KT
                       4SM -RA OVC009 FM092100 19023G33KT 3SM -RA
                       BR OVC005 FM100500 20012G20KT 6SM BR VCSH
                       OVC007=
202304090300 KPWT 090300Z 0903/0924 16004KT 6SM -RA OVC030 FM091100 18014G22KT
                       4SM -RA BR BKN009 OVC015 FM092100 19023G33KT
                       3SM -RA BR SCT009 OVC015=
202304082320 TAF KPWT 082320Z 0900/0924 19006KT 4SM -RA BR SCT007 OVC015 FM090100
                       20012G20KT 5SM -RA SCT010 OVC015 FM091100
                       18014G22KT 4SM -RA BR BKN009 OVC015 FM092100
                       19023G33KT 3SM -RA BR SCT009 OVC015=
202304081721 TAF KPWT 081721Z 0818/0918 18012KT 4SM -SHRA BKN020 OVC025 FM082000
                       19009KT 3SM -RA SCT008 OVC012 FM090100 20012G20KT
                       6SM -SHRA SCT010 OVC015 FM091100 18012G22KT
                       3SM -RA BR BKN009 OVC015=
202304081140 TAF KPWT 081140Z 0812/0912 20005KT P6SM OVC050 FM081600 18012KT
                       P6SM -SHRA OVC025 FM082000 19009KT 6SM -RA
                       SCT008 OVC012 FM090100 20012G20KT 5SM -SHRA
                       OVC015=
202304080522 TAF KPWT 080522Z 0806/0906 21011KT P6SM OVC035 FM081600 18012KT
                       P6SM -RA OVC025 FM082000 19009KT 6SM -RA
                       SCT008 OVC012 FM090100 20012G20KT 5SM -SHRA
                       OVC010=
202304072339 TAF KPWT 072339Z 0800/0824 21012G22KT P6SM BKN050 FM080700 19012KT
                       P6SM OVC035 FM081400 19012G20KT P6SM -SHRA
                       OVC025 FM081600 18014G22KT 6SM -RA OVC010=
202304071728 TAF KPWT 071728Z 0718/0818 21010KT P6SM VCSH SCT006 BKN015 OVC040
                       FM072000 20011KT P6SM VCSH SCT015 OVC030
                       FM072200 21010KT P6SM OVC050 FM080700 19012KT
                       P6SM OVC020 FM081500 18013G20KT P6SM -RA
                       OVC007=
202304071151 KPWT 071151Z 0712/0812 20005KT P6SM -RA OVC003 FM071800 21006KT
                       P6SM -SHRA OVC007 FM072000 20011KT P6SM
                       VCSH SCT015 OVC030 FM072200 21010KT P6SM
                       OVC050 FM080700 19012G19KT P6SM OVC025=
202304071148 TAF KPWT 071148Z 0712/0812 20008KT 3SM -RA BR OVC007 FM071300 20005KT
                       1 1/2SM -RA BR OVC003 FM071500 21006KT 4SM
                       -SHRA BR OVC007 FM072100 20011KT P6SM VCSH
                       SCT015 OVC030 FM080000 20010KT P6SM VCSH
                       BKN040=
202304070526 TAF KPWT 070526Z 0706/0806 17004KT 6SM -RA BR OVC035 FM070800 18012KT
                       4SM -RA BR OVC015 FM071100 20008KT 3SM -RA
                       BR OVC007 FM071300 20005KT 1 1/2SM -RA BR
                       OVC003 FM071500 21006KT 4SM -SHRA BR OVC007
                       FM072100 20011KT P6SM VCSH SCT015 OVC030
                       FM080000 20010KT P6SM VCSH BKN040=
202304070252 KPWT 070252Z 0703/0724 17005KT 6SM -RA BR SCT028 OVC040 FM070800
                       20010KT 4SM -RA BR OVC015 FM071000 19006KT
                       3SM -RA BR OVC007 FM071100 20005KT 1 1/2SM
                       -RA BR OVC003 FM071500 21002KT 1 1/2SM -RA
                       BR OVC007=
202304062339 TAF KPWT 062339Z 0700/0724 15010KT 5SM RA BR FEW006 OVC030 FM070300
                       17010G18KT 6SM -RA BR OVC025 FM070800 20010KT
                       4SM -RA BR OVC015 FM071000 19006KT 3SM -RA
                       BR OVC007 FM071100 20005KT 1 1/2SM -RA BR
                       OVC003 FM071500 21002KT 1 1/2SM -RA BR OVC007=
202304061733 TAF KPWT 061733Z 0618/0718 12003KT P6SM -RA FEW005 OVC030 FM061900
                       15010G18KT 6SM -RA BR OVC025 FM070100 21010G18KT
                       4SM -RA BR OVC015 FM071100 20005KT 3SM -RA
                       BR OVC007=
202304061142 TAF KPWT 061142Z 0612/0712 12003KT P6SM -RA OVC025 FM061900 08011G18KT
                       6SM -RA BR OVC025 FM071100 20005KT 6SM -RA
                       BR OVC007=
202304060526 TAF KPWT 060526Z 0606/0706 20005KT P6SM -RA OVC040 FM060800 17004KT
                       P6SM -RA OVC050 FM061200 15006KT 6SM -RA
                       BKN007 OVC015 FM061800 14012G25KT 4SM -RA
                       BR OVC010=
202304052339 TAF KPWT 052339Z 0600/0624 21008KT P6SM BKN050 OVC150 FM060700
                       19012G20KT P6SM -RA OVC025 FM061100 12012G22KT
                       6SM -RA OVC015 FM061600 11012G25KT 4SM -RA
                       BR OVC010=
202304051729 TAF KPWT 051729Z 0518/0618 21008KT P6SM SCT010 OVC045 FM052100
                       19010G18KT P6SM OVC060 FM060700 19012G20KT
                       P6SM -RA OVC025 FM061100 12012G22KT 4SM
                       -RA OVC010=
202304051336 KPWT 051336Z 0514/0612 VRB02KT P6SM BKN040
                      TEMPO 0514/0518 1/2SM FG BKN004 FM052100
                       19012G18KT P6SM OVC050 FM060700 19013G19KT
                       P6SM -RA OVC025 FM061100 12013G21KT P6SM
                       -RA OVC025=
202304051203 KPWT 051203Z 0512/0612 VRB02KT P6SM SCT150
                      TEMPO 0512/0516 4SM BR BKN004 FM052100 19012G18KT
                       P6SM OVC050 FM060700 19013G19KT P6SM -RA
                       OVC025 FM061100 12013G21KT P6SM -RA OVC025=
202304051138 TAF KPWT 051138Z 0512/0612 VRB02KT P6SM SCT150 FM052100 19012G18KT
                       P6SM OVC050 FM060700 19013G19KT P6SM -RA
                       OVC025 FM061100 12013G21KT P6SM -RA OVC025=
202304050539 TAF KPWT 050539Z 0506/0606 VRB03KT P6SM BKN200 FM051200 18003KT
                       P6SM BKN080 OVC120 FM052100 19012G18KT P6SM
                       OVC050 FM060300 20014G20KT P6SM VCSH OVC030=
202304042326 TAF KPWT 042326Z 0500/0524 20005KT P6SM SCT045 FM050200 21005KT
                       P6SM SCT050 SCT200 FM050900 20006KT P6SM
                       BKN050 FM051900 19012G20KT P6SM OVC050=
202304041730 TAF KPWT 041730Z 0418/0518 18004KT P6SM OVC025
                      TEMPO 0418/0420 OVC004 FM042100 20005KT P6SM
                       BKN035 FM050200 19005KT P6SM SCT050 SCT200
                       FM050600 18002KT P6SM BKN050 FM051200 14003KT
                       1/4SM FG OVC008=
202304041505 KPWT 041505Z 0415/0512 VRB03KT 6SM BR BKN010 OVC025
                      TEMPO 0415/0417 1/4SM FG BKN002 FM041800
                       18004KT P6SM BKN022 FM042100 20005KT P6SM
                       BKN035 FM050200 19005KT P6SM SCT040 SCT200
                       FM050600 18002KT P6SM BKN050=
202304041136 TAF KPWT 041136Z 0412/0512 VRB03KT 6SM BR BKN010 OVC025
                      TEMPO 0412/0416 BKN005 FM041800 18004KT P6SM
                       BKN022 FM042100 20005KT P6SM BKN035 FM050200
                       19005KT P6SM SCT040 SCT200 FM050600 18002KT
                       P6SM BKN050=
202304040527 TAF KPWT 040527Z 0406/0506 VRB03KT P6SM FEW015 SCT035 BKN050
                      TEMPO 0407/0410 BKN014 OVC030 FM041000 VRB03KT
                       6SM BR BKN010 OVC025 FM041800 18004KT P6SM
                       BKN022 FM042100 20005KT P6SM BKN035 FM050200
                       19005KT P6SM SCT040 SCT200=
202304032320 TAF KPWT 032320Z 0400/0424 19005KT P6SM VCSH BKN025 BKN040 FM040300
                       VRB04KT P6SM BKN025 OVC030 FM040900 00000KT
                       3SM BR BKN010 OVC020 FM041800 16005KT P6SM
                       OVC015=
202304031919 KPWT 031919Z 0319/0418 25004KT P6SM -SHRA BKN010 OVC015 FM032200
                       19005KT P6SM VCSH SCT025 BKN040 FM040300
                       VRB04KT P6SM BKN025 OVC030 FM040900 00000KT
                       3SM BR BKN010 OVC020=
202304031738 TAF KPWT 031738Z 0318/0418 25004KT 5SM BR VCSH OVC002 FM032200
                       19005KT P6SM VCSH SCT025 BKN040 FM040300
                       VRB04KT P6SM BKN025 OVC030 FM040900 00000KT
                       3SM BR BKN010 OVC020=
202304031155 TAF KPWT 031155Z 0312/0412 VRB03KT 3/4SM BR OVC002
                      TEMPO 0312/0316 2SM -SHRA BR FM031800 21004KT
                       P6SM BKN020 BKN040
                      TEMPO 0318/0322 -SHRA BKN015 OVC030 FM032200
                       19005KT P6SM VCSH SCT025 BKN040 FM040300
                       VRB04KT P6SM BKN025 OVC030
                      TEMPO 0408/0412 3SM BR BKN010 OVC020=
202304030520 TAF KPWT 030520Z 0306/0406 VRB03KT P6SM VCSH SCT007 BKN018
                      TEMPO 0306/0310 BKN006 OVC015 FM031000 VRB03KT
                       P6SM OVC008 FM031800 18004KT P6SM BKN015
                       BKN040 FM032100 19005KT P6SM VCSH SCT025
                       BKN040=
202304030306 KPWT 030306Z 0303/0324 03005KT P6SM VCSH SCT015 OVC030
                      TEMPO 0303/0305 4SM -SHRASN BKN012 OVC020
                       FM030500 VRB04KT P6SM VCSH BKN020 FM030700
                       VRB04KT P6SM OVC015 FM031100 VRB03KT P6SM
                       OVC009 FM031800 18004KT P6SM BKN025 BKN040
                       FM032100 19005KT P6SM SCT025 BKN050=
202304030141 KPWT 030141Z 0302/0324 03009KT P6SM VCSH SCT025 OVC040
                      TEMPO 0302/0304 6SM -SHRA BKN022 OVC030 FM030400
                       VRB04KT P6SM VCSH BKN030 FM030700 VRB04KT
                       P6SM OVC015 FM031100 VRB03KT P6SM OVC009
                       FM031800 18004KT P6SM BKN025 BKN040 FM032100
                       19005KT P6SM SCT025 BKN050=
202304022334 TAF KPWT 022334Z 0300/0324 20009KT P6SM VCSH SCT025 OVC040
                      TEMPO 0300/0303 6SM -SHRA BKN022 OVC030 FM030300
                       VRB04KT P6SM VCSH BKN030 FM030700 VRB04KT
                       P6SM OVC015 FM031100 VRB03KT P6SM OVC009
                       FM031800 18004KT P6SM BKN025 BKN040 FM032100
                       19005KT P6SM SCT025 BKN050=
202304022134 KPWT 022134Z 0222/0318 21011KT P6SM VCSH SCT015 BKN025 OVC040 FM030000
                       VRB04KT P6SM -SHRA BKN025 OVC040 FM030400
                       VRB04KT P6SM VCSH BKN035=
202304021952 KPWT 021952Z 0220/0318 20011KT P6SM VCSH SCT015 BKN019 OVC040 FM022100
                       VRB04KT P6SM -SHRA BKN025 OVC040 FM030400
                       VRB04KT P6SM VCSH BKN035=
202304021727 TAF KPWT 021727Z 0218/0318 20009KT P6SM -SHRA OVC005 FM022100 VRB04KT
                       P6SM -SHRA BKN025 OVC040 FM030400 VRB04KT
                       P6SM VCSH BKN035=
202304021445 KPWT 021445Z 0215/0312 20007KT 6SM -SHRASN OVC003 FM021700 20009KT
                       P6SM -SHRA BKN015 OVC035 FM022100 VRB04KT
                       P6SM -SHRA BKN025 OVC040 FM030400 VRB04KT
                       P6SM VCSH BKN035=
202304021154 TAF KPWT 021154Z 0212/0312 20007KT 6SM -SHRA OVC005
                      TEMPO 0216/0218 P6SM BKN015 OVC025 FM021800
                       20009KT P6SM -SHRA BKN022 OVC035 FM022300
                       VRB04KT P6SM -SHRA BKN025 OVC040 FM030400
                       VRB04KT P6SM VCSH BKN035=
202304020858 KPWT 020858Z 0209/0306 19010KT P6SM VCSH BKN015 OVC040
                      TEMPO 0209/0212 -SHRA BKN003 OVC015 FM021200
                       20009KT 6SM -SHRA BKN018 OVC030 FM021700
                       20006KT P6SM -SHRA BKN022 OVC035 FM022300
                       03005KT P6SM -SHRA BKN025 OVC040 FM030400
                       VRB04KT P6SM VCSH BKN035=
202304020520 TAF KPWT 020520Z 0206/0306 20010G16KT P6SM SCT040 BKN070 FM020900
                       19010KT P6SM VCSH BKN025 OVC040 FM021100
                       20009KT 6SM -SHRA BKN018 OVC030 FM021700
                       20006KT P6SM -SHRA BKN022 OVC035 FM022300
                       03005KT P6SM -SHRA BKN025 OVC040 FM030400
                       VRB04KT P6SM VCSH BKN035=
202304012328 TAF KPWT 012328Z 0200/0224 23014G24KT P6SM -SHRA BKN035 BKN050
                       FM020400 20008KT P6SM VCSH BKN022 OVC035
                       FM021200 20006KT 2SM -SHRA OVC007 FM021700
                       23003KT P6SM -RA OVC015=
202304011720 TAF KPWT 011720Z 0118/0218 20015G24KT P6SM -SHRA OVC011 FM012000
                       23014G24KT P6SM -SHRA BKN035 BKN050 FM020400
                       20008KT P6SM VCSH BKN022 OVC035 FM021200
                       20006KT 2SM -SHRA OVC007 FM021700 23003KT
                       P6SM -RA OVC015=
202304011152 TAF KPWT 011152Z 0112/0212 19010KT P6SM SCT007 BKN070 FM011400
                       22008KT P6SM -SHRA SCT003 BKN008 OVC015
                       FM011800 22012KT P6SM -SHRA SCT015 BKN022
                       OVC035 FM012000 23014G24KT P6SM -SHRA BKN035
                       BKN050 FM020400 20008KT P6SM VCSH BKN022
                       OVC035=
202304010930 KPWT 010930Z 0110/0206 25008KT P6SM SCT007 BKN070 FM011300 19008KT
                       P6SM -SHRA SCT003 BKN008 OVC015 FM011800
                       19012KT P6SM -SHRA SCT015 BKN022 OVC035
                       FM012000 19014G24KT P6SM -SHRA BKN035 BKN050=
202304010540 TAF KPWT 010540Z 0106/0206 25008KT P6SM OVC003
                      TEMPO 0106/0109 4SM -SHRA FM011300 19008KT
                       P6SM -SHRA SCT003 BKN008 OVC015 FM011800
                       19012KT P6SM -SHRA SCT015 BKN022 OVC035
                       FM012000 19014G24KT P6SM -SHRA BKN035 BKN050=