##########################################################
# Query made at 02/16/2025 01:13:46 UTC
# Time interval: from 03/01/2023 00:00  to 03/31/2023 23:59  UTC
##########################################################

##########################################################
# KPWT, Bremerton National Automatic Weather Observing / Reporting System (United States)
# WMO index: -----. WIGOS ID: Unknown
# Latitude 47-30N. Longitude 122-45W. Altitude 147 m.
##########################################################

###################################
#  METAR/SPECI from KPWT
###################################
202303312356 METAR KPWT 312356Z AUTO 20013KT 10SM RA BKN008 OVC016 06/06 A2989 RMK AO2 CIG 005V011 SLP127 P0005 60019 T00610056 10067 20056 58013=
202303312256 METAR KPWT 312256Z AUTO 21014KT 10SM -RA OVC008 06/06 A2990 RMK AO2 CIG 006V011 SLP131 P0004 T00610061=
202303312209 SPECI KPWT 312209Z AUTO 19012G20KT 10SM -RA BKN008 OVC013 06/06 A2991 RMK AO2 CIG 006V012 P0001=
202303312156 METAR KPWT 312156Z AUTO 20012G18KT 10SM -RA OVC010 06/06 A2991 RMK AO2 CIG 006V014 SLP136 P0003 T00610056=
202303312056 METAR KPWT 312056Z AUTO 20013G21KT 10SM -RA SCT010 BKN014 OVC027 06/06 A2992 RMK AO2 SLP140 P0000 60007 T00610056 58001=
202303312022 SPECI KPWT 312022Z AUTO 19013G23KT 10SM -RA BKN012 BKN018 BKN032 07/06 A2993 RMK AO2 P0000=
202303312011 SPECI KPWT 312011Z AUTO 20011G17KT 10SM -RA SCT012 BKN017 BKN034 07/06 A2993 RMK AO2 P0000=
202303312004 SPECI KPWT 312004Z AUTO 19010G15KT 10SM -RA FEW010 BKN014 BKN021 06/06 A2993 RMK AO2 P0000=
202303311956 METAR KPWT 311956Z AUTO 20014KT 10SM -RA SCT012 BKN019 06/06 A2993 RMK AO2 SLP141 P0005 T00610056=
202303311904 SPECI KPWT 311904Z AUTO 19013G21KT 10SM -RA BKN015 BKN019 OVC023 07/06 A2992 RMK AO2 P0000=
202303311856 METAR KPWT 311856Z AUTO 20010G15KT 10SM -RA BKN013 BKN018 OVC023 06/06 A2992 RMK AO2 SLP139 P0002 T00610056=
202303311756 METAR KPWT 311756Z AUTO 19012G17KT 10SM -RA OVC015 06/04 A2993 RMK AO2 SLP141 P0000 60002 T00610044 10061 20044 53001=
202303311656 METAR KPWT 311656Z AUTO 20008KT 9SM -RA OVC013 06/05 A2993 RMK AO2 RAB51 SLP140 P0000 T00560050=
202303311624 SPECI KPWT 311624Z AUTO 19011KT 10SM BKN011 OVC028 06/05 A2992 RMK AO2 CIG 007V013=
202303311556 METAR KPWT 311556Z AUTO 19009KT 10SM BKN007 OVC011 05/04 A2992 RMK AO2 RAB01E56 CIG 005V009 SLP140 P0000 T00500044=
202303311456 METAR KPWT 311456Z AUTO 19013G17KT 10SM OVC009 04/04 A2992 RMK AO2 RAE19 CIG 005V011 SLP140 P0001 60002 T00440044 53001=
202303311356 METAR KPWT 311356Z AUTO 19010KT 9SM -RA BKN007 BKN014 OVC023 04/04 A2992 RMK AO2 CIG 005V009 SLP139 P0001 T00440044=
202303311342 SPECI KPWT 311342Z AUTO 19008KT 10SM -RA BKN007 OVC014 04/04 A2992 RMK AO2 CIG 005V011 P0001=
202303311333 SPECI KPWT 311333Z AUTO 20009KT 7SM -RA SCT007 BKN014 OVC020 04/04 A2992 RMK AO2 P0001=
202303311256 METAR KPWT 311256Z AUTO 20008KT 10SM -RA BKN007 OVC019 04/04 A2992 RMK AO2 CIG 004V010 SLP138 P0000 T00440044=
202303311156 METAR KPWT 311156Z AUTO 19009KT 10SM -RA BKN009 OVC018 04/04 A2992 RMK AO2 RAE02B20 CIG 007V012 SLP138 P0001 60002 7//// T00440039 10050 20039 58001=
202303311147 SPECI KPWT 311147Z AUTO 20008KT 10SM -RA BKN009 OVC018 04/04 A2992 RMK AO2 RAE02B20 CIG 007V012 P0000=
202303311056 METAR KPWT 311056Z AUTO 21008KT 10SM -RA BKN011 OVC014 04/04 A2993 RMK AO2 RAB07 SLP139 P0001 T00440039=
202303311046 SPECI KPWT 311046Z AUTO 21008KT 10SM -RA BKN009 OVC017 04/04 A2993 RMK AO2 RAB07 CIG 008V013 P0001=
202303311040 SPECI KPWT 311040Z AUTO 22008KT 10SM -RA BKN011 OVC017 04/04 A2993 RMK AO2 RAB07 CIG 008V012 P0001=
202303311004 SPECI KPWT 311004Z AUTO 20007KT 10SM BKN023 OVC031 05/03 A2992 RMK AO2=
202303310956 METAR KPWT 310956Z AUTO 19008KT 10SM SCT023 BKN031 OVC055 05/03 A2992 RMK AO2 SLP138 T00500033=
202303310856 METAR KPWT 310856Z AUTO 19007KT 10SM SCT023 OVC055 05/03 A2993 RMK AO2 SLP140 T00500028 53003=
202303310756 METAR KPWT 310756Z AUTO 19009KT 10SM OVC050 05/03 A2992 RMK AO2 SLP138 T00500028 401220022=
202303310656 METAR KPWT 310656Z AUTO 20011KT 10SM OVC050 04/03 A2992 RMK AO2 SLP138 T00440028=
202303310556 METAR KPWT 310556Z AUTO 20008KT 10SM BKN055 04/03 A2992 RMK AO2 SLP137 T00440028 10106 20044 51015=
202303310456 METAR KPWT 310456Z AUTO 20011KT 10SM CLR 04/02 A2991 RMK AO2 SLP135 T00440022=
202303310356 METAR KPWT 310356Z AUTO 20009G16KT 10SM CLR 05/02 A2989 RMK AO2 SLP129 T00500022=
202303310256 METAR KPWT 310256Z AUTO 21010KT 10SM FEW070 06/02 A2987 RMK AO2 SLP123 T00560022 53012=
202303310156 METAR KPWT 310156Z AUTO 21013G17KT 10SM CLR 07/01 A2986 RMK AO2 SLP117 T00720006=
202303310056 METAR KPWT 310056Z AUTO 23013KT 10SM CLR 09/01 A2985 RMK AO2 SLP113 T00890011=
202303302356 METAR KPWT 302356Z AUTO 23015G22KT 10SM FEW065 11/01 A2984 RMK AO2 SLP110 6//// T01060006 10122 20089 53002=
202303302256 METAR KPWT 302256Z AUTO 23019G24KT 10SM CLR 11/M01 A2983 RMK AO2 PK WND 23027/2240 SLP107 T01111006=
202303302156 METAR KPWT 302156Z AUTO 22016G24KT 10SM CLR 12/01 A2983 RMK AO2 SLP107 T01170006=
202303302056 METAR KPWT 302056Z AUTO 23016G21KT 10SM OVC041 11/01 A2983 RMK AO2 SLP108 T01060011 50002=
202303301956 METAR KPWT 301956Z AUTO 21011G22KT 10SM SCT037 10/02 A2984 RMK AO2 SLP109 T01000017=
202303301856 METAR KPWT 301856Z AUTO 22012KT 10SM BKN030 11/02 A2983 RMK AO2 SLP108 T01060022=
202303301820 SPECI KPWT 301820Z AUTO 22012G19KT 10SM SCT028 09/02 A2983 RMK AO2=
202303301756 METAR KPWT 301756Z AUTO 22010KT 10SM BKN026 09/02 A2983 RMK AO2 SLP106 T00940022 10094 20039 52008=
202303301656 METAR KPWT 301656Z AUTO 22008KT 10SM FEW020 08/02 A2982 RMK AO2 SLP103 T00780022=
202303301615 SPECI KPWT 301615Z AUTO 23008KT 10SM SCT014 06/03 A2982 RMK AO2=
202303301556 METAR KPWT 301556Z AUTO 24009KT 10SM BKN012 06/03 A2982 RMK AO2 SLP103 T00560033=
202303301521 SPECI KPWT 301521Z AUTO 23007KT 10SM OVC010 05/03 A2981 RMK AO2=
202303301456 METAR KPWT 301456Z AUTO 22007KT 10SM OVC008 04/03 A2981 RMK AO2 SLP100 T00440033 53005=
202303301356 METAR KPWT 301356Z AUTO 23007KT 10SM OVC006 04/03 A2980 RMK AO2 SLP095 T00390033=
202303301345 SPECI KPWT 301345Z AUTO 23007KT 10SM OVC006 04/03 A2980 RMK AO2=
202303301256 METAR KPWT 301256Z AUTO 21005KT 10SM OVC004 04/03 A2980 RMK AO2 SLP094 T00390033=
202303301156 METAR KPWT 301156Z AUTO 23007KT 10SM OVC004 04/04 A2979 RMK AO2 SLP093 T00390039 10056 20017 55003=
202303301146 SPECI KPWT 301146Z AUTO 20005KT 10SM BKN004 OVC090 04/03 A2979 RMK AO2=
202303301132 SPECI KPWT 301132Z AUTO 21004KT 10SM FEW004 OVC090 03/03 A2979 RMK AO2=
202303301056 METAR KPWT 301056Z AUTO 21003KT 10SM OVC090 03/03 A2979 RMK AO2 SLP093 T00330033=
202303300956 METAR KPWT 300956Z AUTO 23003KT 10SM CLR 02/02 A2979 RMK AO2 SLP094 T00220022 FZRANO=
202303300856 METAR KPWT 300856Z AUTO 20003KT 10SM SCT080 04/02 A2980 RMK AO2 SLP096 T00440022 52001=
202303300756 METAR KPWT 300756Z AUTO 18003KT 10SM OVC070 06/03 A2980 RMK AO2 SLP097 T00560028 401670017=
202303300656 METAR KPWT 300656Z AUTO 00000KT 10SM BKN070 04/01 A2979 RMK AO2 SLP094 T00390011=
202303300556 METAR KPWT 300556Z AUTO 00000KT 10SM FEW070 03/01 A2980 RMK AO2 SLP095 T00330011 10156 20033 51009=
202303300456 METAR KPWT 300456Z AUTO 14003KT 10SM SCT070 06/01 A2979 RMK AO2 SLP094 T00560006=
202303300356 METAR KPWT 300356Z AUTO 22005KT 10SM CLR 05/00 A2978 RMK AO2 SLP091 T00500000=
202303300256 METAR KPWT 300256Z AUTO 00000KT 10SM CLR 08/00 A2977 RMK AO2 SLP086 T00780000 55002=
202303300156 METAR KPWT 300156Z AUTO 08004KT 10SM CLR 13/M03 A2976 RMK AO2 SLP083 T01281028=
202303300056 METAR KPWT 300056Z AUTO VRB04KT 10SM CLR 15/M02 A2977 RMK AO2 SLP084 T01501022=
202303292356 METAR KPWT 292356Z AUTO VRB03KT 10SM CLR 15/M04 A2977 RMK AO2 SLP086 T01501044 10167 20122 56014=
202303292256 METAR KPWT 292256Z AUTO 03007KT 10SM CLR 16/M04 A2978 RMK AO2 SLP090 T01611039=
202303292156 METAR KPWT 292156Z AUTO VRB04KT 10SM CLR 15/M02 A2980 RMK AO2 SLP096 T01501022=
202303292056 METAR KPWT 292056Z AUTO 08008KT 060V120 10SM CLR 15/M04 A2982 RMK AO2 SLP102 T01501039 58004=
202303291956 METAR KPWT 291956Z AUTO 02007KT 10SM SCT090 14/M04 A2982 RMK AO2 SLP103 T01441039=
202303291856 METAR KPWT 291856Z AUTO 06011KT 10SM CLR 13/M04 A2982 RMK AO2 SLP103 T01331039=
202303291756 METAR KPWT 291756Z AUTO 04008KT 10SM FEW095 12/M02 A2983 RMK AO2 SLP105 T01171022 10117 20022 58001=
202303291656 METAR KPWT 291656Z AUTO 03007KT 10SM CLR 09/01 A2984 RMK AO2 SLP108 T00890011=
202303291556 METAR KPWT 291556Z AUTO 06007KT 10SM FEW110 08/01 A2983 RMK AO2 SLP108 T00780011=
202303291456 METAR KPWT 291456Z AUTO 06006KT 10SM CLR 06/02 A2983 RMK AO2 SLP106 T00610017 53012=
202303291356 METAR KPWT 291356Z AUTO 07004KT 10SM OVC100 06/01 A2981 RMK AO2 SLP100 T00610006=
202303291256 METAR KPWT 291256Z AUTO 08004KT 10SM CLR 06/00 A2981 RMK AO2 SLP098 T00610000=
202303291156 METAR KPWT 291156Z AUTO 00000KT 10SM CLR 02/M01 A2979 RMK AO2 SLP095 70008 T00221006 10111 20017 56008 FZRANO=
202303291056 METAR KPWT 291056Z AUTO 05005KT 10SM BKN100 07/00 A2979 RMK AO2 SLP094 T00670000=
202303290956 METAR KPWT 290956Z AUTO 06006KT 10SM OVC100 08/01 A2980 RMK AO2 SLP096 T00780006=
202303290856 METAR KPWT 290856Z AUTO 00000KT 10SM OVC095 05/00 A2982 RMK AO2 SLP102 T00500000 56005=
202303290756 METAR KPWT 290756Z AUTO 01003KT 10SM CLR 07/M01 A2982 RMK AO2 SLP102 T00721011 401500072=
202303290656 METAR KPWT 290656Z AUTO 05008KT 10SM CLR 11/M02 A2981 RMK AO2 SLP100 T01061017=
202303290556 METAR KPWT 290556Z AUTO 36007KT 10SM CLR 10/00 A2983 RMK AO2 RAB00E23 SLP107 P0000 60000 T01000000 10133 20100 50006=
202303290456 METAR KPWT 290456Z AUTO 07006G18KT 10SM FEW049 SCT060 SCT070 12/M02 A2984 RMK AO2 RAB22E40 SLP110 P0000 T01171022=
202303290356 METAR KPWT 290356Z AUTO 01007KT 10SM SCT075 12/M02 A2983 RMK AO2 SLP104 T01171022=
202303290256 METAR KPWT 290256Z AUTO 04004KT 10SM FEW070 12/M02 A2982 RMK AO2 RAB04E14 SLP102 P0000 60000 T01171022 51014=
202303290156 METAR KPWT 290156Z AUTO 06012G17KT 10SM SCT060 12/M03 A2981 RMK AO2 SLP098 T01221033=
202303290056 METAR KPWT 290056Z AUTO 05006KT 10SM FEW060 13/M04 A2979 RMK AO2 SLP095 T01281039=
202303282356 METAR KPWT 282356Z AUTO 05007KT 10SM CLR 13/M04 A2977 RMK AO2 SLP086 T01331039 10150 20117 55001=
202303282256 METAR KPWT 282256Z AUTO 07008KT 10SM CLR 14/M05 A2977 RMK AO2 SLP086 T01391050=
202303282156 METAR KPWT 282156Z AUTO 04012KT 10SM CLR 14/M05 A2977 RMK AO2 SLP084 T01441050=
202303282056 METAR KPWT 282056Z AUTO 06012KT 10SM CLR 14/M05 A2978 RMK AO2 SLP087 T01391050 56012=
202303281956 METAR KPWT 281956Z AUTO 06012G18KT 10SM CLR 13/M04 A2979 RMK AO2 SLP091 T01331044=
202303281856 METAR KPWT 281856Z AUTO 06010G19KT 10SM CLR 13/M03 A2979 RMK AO2 SLP093 T01281028=
202303281756 METAR KPWT 281756Z AUTO 03010KT 10SM CLR 12/M02 A2981 RMK AO2 SLP100 60008 T01171017 10117 20072 58008=
202303281656 METAR KPWT 281656Z AUTO 03010KT 10SM CLR 10/M02 A2982 RMK AO2 SLP103 P0008 T01001022=
202303281648 SPECI KPWT 281648Z AUTO 03009KT 10SM CLR 10/M02 A2983 RMK AO2 P0008=
202303281633 SPECI KPWT 281633Z AUTO 03012KT 3/4SM HZ CLR 09/M03 A2982 RMK AO2 P0008=
202303281556 METAR KPWT 281556Z AUTO 03007KT 10SM CLR 09/M03 A2983 RMK AO2 SLP104 T00891028=
202303281456 METAR KPWT 281456Z AUTO 03012KT 10SM CLR 08/M03 A2984 RMK AO2 SLP107 T00781033 56005=
202303281356 METAR KPWT 281356Z AUTO 04012KT 10SM BKN100 07/M03 A2984 RMK AO2 SLP109 T00721033=
202303281256 METAR KPWT 281256Z AUTO 03011KT 10SM OVC090 07/M03 A2984 RMK AO2 SLP110 T00721033=
202303281156 METAR KPWT 281156Z AUTO 04010KT 10SM FEW090 08/M03 A2985 RMK AO2 SLP113 T00781033 10078 20072 58015=
202303281056 METAR KPWT 281056Z AUTO 04010KT 10SM CLR 08/M04 A2987 RMK AO2 SLP118 T00781039=
202303280956 METAR KPWT 280956Z AUTO 04010KT 10SM CLR 08/M04 A2988 RMK AO2 SLP125 T00781039=
202303280856 METAR KPWT 280856Z AUTO 04010KT 10SM FEW110 07/M04 A2989 RMK AO2 SLP128 T00721039 57021=
202303280756 METAR KPWT 280756Z AUTO 05009KT 10SM FEW110 08/M04 A2991 RMK AO2 SLP134 T00781039 401331033=
202303280656 METAR KPWT 280656Z AUTO 04009KT 10SM CLR 08/M04 A2994 RMK AO2 SLP142 T00781044=
202303280556 METAR KPWT 280556Z AUTO 04009KT 10SM CLR 08/M03 A2996 RMK AO2 SLP150 T00781033 10128 20072 58019=
202303280456 METAR KPWT 280456Z AUTO 04007KT 10SM CLR 07/M03 A2998 RMK AO2 SLP158 T00721033=
202303280356 METAR KPWT 280356Z AUTO 04007KT 10SM CLR 08/M02 A3000 RMK AO2 SLP164 T00781017=
202303280256 METAR KPWT 280256Z AUTO 04007KT 10SM CLR 09/M01 A3001 RMK AO2 SLP171 T00891011 56015=
202303280156 METAR KPWT 280156Z AUTO 03008KT 10SM FEW120 11/M01 A3003 RMK AO2 SLP174 T01061011=
202303280056 METAR KPWT 280056Z AUTO 03006KT 10SM CLR 12/M01 A3004 RMK AO2 SLP181 T01171011=
202303272356 METAR KPWT 272356Z AUTO 02010G17KT 10SM CLR 13/M01 A3006 RMK AO2 SLP186 T01281011 10133 20072 56033=
202303272256 METAR KPWT 272256Z AUTO 06012KT 10SM CLR 13/M02 A3009 RMK AO2 SLP195 T01281017=
202303272156 METAR KPWT 272156Z AUTO 05007G16KT 350V100 10SM CLR 12/M02 A3012 RMK AO2 SLP208 T01221017=
202303272056 METAR KPWT 272056Z AUTO 06008KT 030V090 10SM CLR 11/M02 A3016 RMK AO2 SLP220 T01111022 58025=
202303271956 METAR KPWT 271956Z AUTO 06010KT 10SM CLR 10/00 A3019 RMK AO2 SLP228 T01000000=
202303271856 METAR KPWT 271856Z AUTO 02008KT 10SM CLR 09/02 A3022 RMK AO2 SLP240 T00890017=
202303271756 METAR KPWT 271756Z AUTO 04009G15KT 10SM CLR 08/02 A3023 RMK AO2 SLP245 T00780017 10078 21033 56012=
202303271656 METAR KPWT 271656Z AUTO 05006KT 10SM CLR 05/02 A3025 RMK AO2 SLP249 T00500022=
202303271556 METAR KPWT 271556Z AUTO 05007KT 10SM CLR 03/03 A3025 RMK AO2 SLP252 T00330028=
202303271456 METAR KPWT 271456Z AUTO 00000KT 10SM CLR 00/00 A3027 RMK AO2 SLP258 T00000000 57011 FZRANO=
202303271427 SPECI KPWT 271427Z AUTO 00000KT 5SM BR CLR M03/M03 A3027 RMK AO2 FZRANO=
202303271403 SPECI KPWT 271403Z AUTO 00000KT 1 1/4SM BR CLR M03/M03 A3028 RMK AO2 FZRANO=
202303271356 METAR KPWT 271356Z AUTO 00000KT 1/2SM FZFG CLR M03/M03 A3028 RMK AO2 SLP262 T10331033 FZRANO=
202303271353 SPECI KPWT 271353Z AUTO 00000KT 3/4SM BR CLR M03/M03 A3028 RMK AO2 FZRANO=
202303271349 SPECI KPWT 271349Z AUTO 00000KT 2SM BR CLR M03/M03 A3028 RMK AO2 FZRANO=
202303271343 SPECI KPWT 271343Z AUTO 00000KT 1SM BR CLR M03/M03 A3028 RMK AO2 FZRANO=
202303271334 SPECI KPWT 271334Z AUTO 00000KT 1/2SM FZFG CLR M03/M03 A3028 RMK AO2 FZRANO=
202303271324 SPECI KPWT 271324Z AUTO 00000KT 1/4SM FZFG CLR M03/M03 A3029 RMK AO2 FZRANO=
202303271306 SPECI KPWT 271306Z AUTO 00000KT 1/2SM FZFG CLR M03/M03 A3029 RMK AO2 FZRANO=
202303271256 METAR KPWT 271256Z AUTO 00000KT 1/4SM FZFG CLR M03/M03 A3029 RMK AO2 SLP266 T10331033 FZRANO=
202303271236 SPECI KPWT 271236Z AUTO 00000KT 1/4SM FZFG CLR M03/M03 A3029 RMK AO2 FZRANO=
202303271206 SPECI KPWT 271206Z AUTO 00000KT 1/2SM FZFG CLR M02/M02 A3030 RMK AO2 FZRANO=
202303271156 METAR KPWT 271156Z AUTO 00000KT 1/4SM FZFG CLR M02/M02 A3030 RMK AO2 SLP269 T10171017 10022 21028 58006 FZRANO=
202303271144 SPECI KPWT 271144Z AUTO 00000KT 1/4SM FZFG CLR M02/M02 A3030 RMK AO2 FZRANO=
202303271136 SPECI KPWT 271136Z AUTO 00000KT 1/2SM FZFG VV004 M02/M02 A3031 RMK AO2 FZRANO=
202303271116 SPECI KPWT 271116Z AUTO 00000KT 1/2SM FZFG OVC002 M01/M01 A3031 RMK AO2 CIG 001V004 FZRANO=
202303271056 METAR KPWT 271056Z AUTO 00000KT 1/4SM FG OVC002 00/00 A3031 RMK AO2 SLP271 T00000000 FZRANO=
202303271009 SPECI KPWT 271009Z AUTO 00000KT 1/4SM FZFG OVC002 M01/M01 A3031 RMK AO2 FZRANO=
202303270956 METAR KPWT 270956Z AUTO 00000KT 1/2SM FZFG OVC002 M02/M02 A3032 RMK AO2 SLP273 T10171017 FZRANO=
202303270947 SPECI KPWT 270947Z AUTO 00000KT 3/4SM BR OVC002 M02/M02 A3032 RMK AO2 FZRANO=
202303270941 SPECI KPWT 270941Z AUTO 00000KT 1 3/4SM BR BKN002 M02/M02 A3032 RMK AO2 FZRANO=
202303270936 SPECI KPWT 270936Z AUTO 00000KT 7SM BKN002 M02/M02 A3032 RMK AO2 FZRANO=
202303270927 SPECI KPWT 270927Z AUTO 00000KT 10SM SCT002 M03/M03 A3032 RMK AO2 FZRANO=
202303270856 METAR KPWT 270856Z AUTO 00000KT 10SM CLR M02/M02 A3032 RMK AO2 SLP275 T10221022 51002 FZRANO=
202303270756 METAR KPWT 270756Z AUTO 00000KT 10SM CLR M02/M02 A3032 RMK AO2 SLP275 T10221022 400941022 FZRANO=
202303270656 METAR KPWT 270656Z AUTO 00000KT 10SM CLR 01/01 A3032 RMK AO2 SLP274 T00110011 FZRANO=
202303270556 METAR KPWT 270556Z AUTO 18006KT 10SM CLR 02/02 A3031 RMK AO2 SLP272 60000 T00220017 10089 20011 51012 FZRANO=
202303270456 METAR KPWT 270456Z AUTO 23003KT 10SM CLR 02/02 A3031 RMK AO2 SLP270 T00220017 FZRANO=
202303270356 METAR KPWT 270356Z AUTO 17004KT 10SM CLR 03/02 A3029 RMK AO2 SLP265 T00280022=
202303270256 METAR KPWT 270256Z AUTO 19008KT 10SM CLR 04/02 A3028 RMK AO2 SLP261 60000 T00390022 58000=
202303270156 METAR KPWT 270156Z AUTO 20008KT 10SM SCT020 SCT026 06/03 A3028 RMK AO2 RAB08E23 SLP261 P0000 T00610033=
202303270105 SPECI KPWT 270105Z AUTO 21010KT 10SM FEW021 SCT029 SCT042 07/03 A3028 RMK AO2=
202303270056 METAR KPWT 270056Z AUTO 22012KT 10SM FEW021 BKN029 OVC048 07/03 A3029 RMK AO2 SLP262 T00670028=
202303270040 SPECI KPWT 270040Z AUTO 22012KT 10SM BKN029 BKN040 BKN049 08/02 A3028 RMK AO2=
202303262356 METAR KPWT 262356Z AUTO 22008KT 10SM CLR 08/02 A3028 RMK AO2 SLP262 60000 T00780017 10094 20044 56004=
202303262256 METAR KPWT 262256Z AUTO 19009G16KT 10SM SCT028 SCT033 07/02 A3028 RMK AO2 SLP262 T00720017=
202303262220 SPECI KPWT 262220Z AUTO 20007G14KT 160V240 10SM SCT031 09/01 A3028 RMK AO2=
202303262156 METAR KPWT 262156Z AUTO 22007KT 10SM BKN029 BKN035 08/01 A3028 RMK AO2 SLP260 T00830011=
202303262056 METAR KPWT 262056Z AUTO 21004KT 10SM BKN027 07/02 A3029 RMK AO2 SLP266 60000 T00670017 58004=
202303261956 METAR KPWT 261956Z AUTO 21008KT 10SM OVC018 06/02 A3030 RMK AO2 RAE21 SLP267 P0000 T00610022=
202303261941 SPECI KPWT 261941Z AUTO 18004KT 10SM OVC018 05/02 A3030 RMK AO2 RAE21 CIG 011V023 P0000=
202303261856 METAR KPWT 261856Z AUTO 23005KT 7SM -RA OVC013 04/03 A3030 RMK AO2 RAB52 SLP270 P0000 T00440028=
202303261756 METAR KPWT 261756Z AUTO 19005KT 10SM OVC011 04/03 A3031 RMK AO2 SLP270 60000 T00440033 10044 21011 51008=
202303261656 METAR KPWT 261656Z AUTO VRB03KT 10SM OVC007 03/03 A3030 RMK AO2 UPE13RAB28E42 SLP268 P0000 T00330028=
202303261629 SPECI KPWT 261629Z AUTO 21003KT 8SM -RA OVC007 03/03 A3029 RMK AO2 UPE13RAB28 CIG 004V011 P0000=
202303261556 METAR KPWT 261556Z AUTO 00000KT 7SM UP OVC005 03/03 A3029 RMK AO2 UPB53 SLP266 P0000 T00280028=
202303261456 METAR KPWT 261456Z AUTO 00000KT 10SM BKN005 BKN022 02/02 A3028 RMK AO2 UPB10E19RAB19E20 SLP261 P0000 60000 T00170017 52002 FZRANO=
202303261453 SPECI KPWT 261453Z AUTO 00000KT 10SM BKN005 BKN022 02/02 A3028 RMK AO2 UPB10E19RAB19E20 P0000 FZRANO=
202303261439 SPECI KPWT 261439Z AUTO 00000KT 10SM SCT005 BKN022 02/01 A3028 RMK AO2 UPB10E19RAB19E20 P0000 FZRANO=
202303261356 METAR KPWT 261356Z AUTO 00000KT 10SM BKN005 OVC020 01/01 A3028 RMK AO2 SLP260 T00060006 FZRANO=
202303261351 SPECI KPWT 261351Z AUTO 00000KT 10SM BKN005 OVC020 01/01 A3028 RMK AO2 FZRANO=
202303261310 SPECI KPWT 261310Z AUTO 00000KT 10SM FEW009 BKN020 00/M01 A3028 RMK AO2 FZRANO=
202303261256 METAR KPWT 261256Z AUTO 23003KT 10SM BKN020 M01/M01 A3028 RMK AO2 SLP260 T10061011 FZRANO=
202303261227 SPECI KPWT 261227Z AUTO 22005KT 10SM SCT006 M01/M01 A3028 RMK AO2 FZRANO=
202303261156 METAR KPWT 261156Z AUTO 21004KT 10SM OVC006 01/01 A3027 RMK AO2 RAB33E42UPB42E46 CIG 004V009 SLP260 P0000 60000 T00110006 10022 21017 53004 FZRANO=
202303261056 METAR KPWT 261056Z AUTO 21004KT 10SM OVC006 02/02 A3027 RMK AO2 CIG 004V009 SLP257 T00170017 FZRANO=
202303260956 METAR KPWT 260956Z AUTO 19004KT 9SM OVC003 02/02 A3026 RMK AO2 SLP255 T00170017 FZRANO=
202303260907 SPECI KPWT 260907Z AUTO 00000KT 10SM OVC005 02/02 A3026 RMK AO2 FZRANO=
202303260856 METAR KPWT 260856Z AUTO 00000KT 10SM OVC007 02/02 A3026 RMK AO2 CIG 005V008 SLP255 T00170017 51003 FZRANO=
202303260835 SPECI KPWT 260835Z AUTO 00000KT 10SM OVC007 02/02 A3026 RMK AO2 CIG 005V008 FZRANO=
202303260813 SPECI KPWT 260813Z AUTO 00000KT 10SM OVC005 02/02 A3026 RMK AO2 FZRANO=
202303260756 METAR KPWT 260756Z AUTO 19003KT 10SM OVC007 02/02 A3026 RMK AO2 CIG 004V010 SLP253 T00170017 400941017 FZRANO=
202303260713 SPECI KPWT 260713Z AUTO 00000KT 10SM OVC009 01/01 A3026 RMK AO2 FZRANO=
202303260656 METAR KPWT 260656Z AUTO 00000KT 10SM BKN011 M01/M01 A3026 RMK AO2 SLP254 T10111011 FZRANO=
202303260644 SPECI KPWT 260644Z AUTO 00000KT 10SM BKN011 BKN023 M01/M01 A3026 RMK AO2 FZRANO=
202303260556 METAR KPWT 260556Z AUTO 00000KT 10SM FEW060 M01/M01 A3025 RMK AO2 SLP252 T10111011 10078 21011 51007 FZRANO=
202303260456 METAR KPWT 260456Z AUTO 00000KT 10SM CLR 00/M01 A3025 RMK AO2 SLP250 T00001006 FZRANO=
202303260356 METAR KPWT 260356Z AUTO 00000KT 10SM CLR 01/M01 A3024 RMK AO2 SLP248 T00061006 FZRANO=
202303260256 METAR KPWT 260256Z AUTO 00000KT 10SM SCT060 04/02 A3023 RMK AO2 SLP244 T00440017 53001=
202303260156 METAR KPWT 260156Z AUTO 20006KT 10SM FEW031 SCT055 06/01 A3022 RMK AO2 SLP241 T00610011=
202303260056 METAR KPWT 260056Z AUTO 21008KT 10SM SCT038 BKN050 07/00 A3022 RMK AO2 SLP240 T00720000=
202303252356 METAR KPWT 252356Z AUTO 20005KT 10SM FEW041 08/M03 A3023 RMK AO2 SLP244 T00781028 10094 20028 56012=
202303252256 METAR KPWT 252256Z AUTO VRB04KT 10SM SCT036 08/M01 A3023 RMK AO2 SLP246 T00781006=
202303252156 METAR KPWT 252156Z AUTO 21006KT 10SM FEW030 08/00 A3025 RMK AO2 SLP251 T00780000=
202303252056 METAR KPWT 252056Z AUTO 23007KT 10SM SCT025 07/01 A3026 RMK AO2 SLP253 T00670006 58008=
202303251956 METAR KPWT 251956Z AUTO 20004KT 10SM SCT019 06/01 A3028 RMK AO2 SLP259 T00560006=
202303251928 SPECI KPWT 251928Z AUTO 21005KT 10SM OVC017 04/01 A3028 RMK AO2=
202303251856 METAR KPWT 251856Z AUTO 26006KT 10SM OVC011 04/02 A3029 RMK AO2 SLP266 T00440017=
202303251806 SPECI KPWT 251806Z AUTO 21005KT 10SM OVC007 03/02 A3029 RMK AO2 CIG 006V009=
202303251756 METAR KPWT 251756Z AUTO 20004KT 10SM OVC005 03/02 A3029 RMK AO2 SLP264 T00280017 10028 20006 51007=
202303251716 SPECI KPWT 251716Z AUTO VRB04KT 10SM OVC005 02/01 A3028 RMK AO2 FZRANO=
202303251656 METAR KPWT 251656Z AUTO 21004KT 10SM OVC003 02/01 A3028 RMK AO2 SLP262 T00170011 FZRANO=
202303251556 METAR KPWT 251556Z AUTO 21007KT 10SM OVC003 01/01 A3028 RMK AO2 SLP260 T00110006 FZRANO=
202303251456 METAR KPWT 251456Z AUTO 21003KT 10SM BKN003 OVC006 01/01 A3026 RMK AO2 CIG 003V006 SLP255 T00110006 53009 FZRANO=
202303251442 SPECI KPWT 251442Z AUTO 21004KT 10SM OVC006 01/01 A3026 RMK AO2 CIG 001V009 FZRANO=
202303251406 SPECI KPWT 251406Z AUTO 20003KT 3SM BR OVC002 01/01 A3025 RMK AO2 FZRANO=
202303251356 METAR KPWT 251356Z AUTO 19003KT 7SM OVC004 01/01 A3025 RMK AO2 SLP251 T00060006 FZRANO=
202303251256 METAR KPWT 251256Z AUTO 00000KT 10SM BKN004 BKN015 01/00 A3024 RMK AO2 SLP247 T00060000 FZRANO=
202303251239 SPECI KPWT 251239Z AUTO 20003KT 10SM BKN004 OVC015 01/01 A3024 RMK AO2 FZRANO=
202303251232 SPECI KPWT 251232Z AUTO 00000KT 10SM BKN006 BKN015 01/01 A3024 RMK AO2 FZRANO=
202303251208 SPECI KPWT 251208Z AUTO 22003KT 10SM SCT006 OVC013 01/01 A3024 RMK AO2 FZRANO=
202303251156 METAR KPWT 251156Z AUTO 00000KT 10SM OVC013 01/01 A3024 RMK AO2 SLP247 T00060006 10011 21011 53002 FZRANO=
202303251142 SPECI KPWT 251142Z AUTO 00000KT 10SM SCT010 OVC015 01/00 A3023 RMK AO2 FZRANO=
202303251056 METAR KPWT 251056Z AUTO 22005KT 10SM OVC012 01/01 A3023 RMK AO2 SLP243 T00110011 FZRANO=
202303250956 METAR KPWT 250956Z AUTO 20003KT 10SM OVC011 01/01 A3023 RMK AO2 SLP245 T00110011 FZRANO=
202303250929 SPECI KPWT 250929Z AUTO 00000KT 10SM OVC011 01/01 A3023 RMK AO2 FZRANO=
202303250856 METAR KPWT 250856Z AUTO 00000KT 10SM OVC009 01/01 A3023 RMK AO2 SLP242 T00110011 51005 FZRANO=
202303250837 SPECI KPWT 250837Z AUTO 00000KT 10SM BKN011 BKN027 01/01 A3023 RMK AO2 FZRANO=
202303250756 METAR KPWT 250756Z AUTO 00000KT 10SM BKN027 M01/M01 A3023 RMK AO2 SLP243 T10061006 400891011 FZRANO=
202303250656 METAR KPWT 250656Z AUTO 00000KT 8SM CLR M01/M01 A3021 RMK AO2 SLP239 T10061011 FZRANO=
202303250556 METAR KPWT 250556Z AUTO 18004KT 10SM CLR 01/01 A3021 RMK AO2 SLP237 T00110006 10089 20011 51015 FZRANO=
202303250456 METAR KPWT 250456Z AUTO 18005KT 10SM CLR 02/01 A3020 RMK AO2 SLP232 T00170006 FZRANO=
202303250356 METAR KPWT 250356Z AUTO 19006KT 10SM CLR 03/02 A3018 RMK AO2 SLP227 T00330017=
202303250333 SPECI KPWT 250333Z AUTO 16003KT 10SM FEW020 SCT026 03/02 A3017 RMK AO2=
202303250256 METAR KPWT 250256Z AUTO 12004KT 10SM BKN020 BKN031 04/03 A3017 RMK AO2 SLP222 T00390028 51013=
202303250156 METAR KPWT 250156Z AUTO 07005KT 10SM OVC020 04/02 A3016 RMK AO2 SLP219 T00440022=
202303250113 SPECI KPWT 250113Z AUTO 05010KT 10SM FEW017 BKN024 OVC033 05/03 A3015 RMK AO2=
202303250056 METAR KPWT 250056Z AUTO VRB05KT 10SM OVC035 07/02 A3014 RMK AO2 SLP215 T00670017=
202303250015 SPECI KPWT 250015Z AUTO 22013KT 10SM SCT026 BKN035 BKN060 08/02 A3013 RMK AO2=
202303242356 METAR KPWT 242356Z AUTO 23009KT 10SM BKN024 08/02 A3013 RMK AO2 SLP209 T00830022 10083 20044 55001=
202303230956 METAR KPWT 230956Z AUTO 20014G18KT 10SM CLR 06/04 A2991 RMK AO2 SLP132 T00610044=
202303230856 METAR KPWT 230856Z AUTO 20011G20KT 10SM FEW055 SCT100 07/04 A2990 RMK AO2 SLP128 T00670044 51007=
202303230820 SPECI KPWT 230820Z AUTO 22015G19KT 10SM SCT015 07/04 A2988 RMK AO2=
202303230756 METAR KPWT 230756Z AUTO 20008KT 10SM OVC015 07/04 A2989 RMK AO2 SLP126 T00670044 401720011=
202303230708 SPECI KPWT 230708Z AUTO 20010KT 10SM OVC015 06/04 A2989 RMK AO2=
202303230656 METAR KPWT 230656Z AUTO 21009KT 10SM OVC013 06/04 A2988 RMK AO2 SLP124 T00610044=
202303230621 SPECI KPWT 230621Z AUTO 21009KT 10SM BKN013 BKN100 06/05 A2988 RMK AO2=
202303230556 METAR KPWT 230556Z AUTO 20008KT 10SM FEW013 OVC100 07/05 A2987 RMK AO2 SLP121 6//// T00670050 10167 20067 51025=
202303230456 METAR KPWT 230456Z AUTO 22007KT 10SM OVC100 07/06 A2985 RMK AO2 SLP114 T00670056=
202303230356 METAR KPWT 230356Z AUTO 19006KT 10SM SCT110 09/06 A2983 RMK AO2 SLP105 T00890056=
202303230256 METAR KPWT 230256Z AUTO 23010KT 10SM CLR 11/05 A2980 RMK AO2 SLP095 6//// T01110050 53005=
202303230156 METAR KPWT 230156Z AUTO 22009KT 10SM CLR 14/03 A2979 RMK AO2 SLP093 T01390033=
202303230056 METAR KPWT 230056Z AUTO 21008KT 10SM FEW100 16/02 A2978 RMK AO2 SLP089 T01610017=
202303222356 METAR KPWT 222356Z AUTO 24007KT 10SM CLR 17/01 A2979 RMK AO2 SLP090 T01670011 10172 20106 56005=
202303222256 METAR KPWT 222256Z AUTO 27005KT 10SM CLR 17/00 A2979 RMK AO2 SLP091 T01670000=
202303222156 METAR KPWT 222156Z AUTO VRB04KT 10SM CLR 17/04 A2979 RMK AO2 SLP092 T01670044=
202303222056 METAR KPWT 222056Z AUTO 10004KT 10SM CLR 16/04 A2980 RMK AO2 SLP094 T01560039 58007=
202303221956 METAR KPWT 221956Z AUTO 03003KT 10SM CLR 14/06 A2981 RMK AO2 SLP099 T01390061=
202303221856 METAR KPWT 221856Z AUTO 00000KT 10SM CLR 12/07 A2982 RMK AO2 SLP103 T01220067=
202303221756 METAR KPWT 221756Z AUTO 04005KT 10SM CLR 11/06 A2982 RMK AO2 SLP102 T01060061 10106 20011 51008=
202303221656 METAR KPWT 221656Z AUTO 06006KT 10SM CLR 09/06 A2981 RMK AO2 SLP100 T00890056=
202303221556 METAR KPWT 221556Z AUTO 04006KT 10SM CLR 07/06 A2981 RMK AO2 SLP099 T00720056=
202303221456 METAR KPWT 221456Z AUTO 06004KT 10SM FEW100 06/06 A2979 RMK AO2 SLP094 T00610056 51008=
202303221356 METAR KPWT 221356Z AUTO 23003KT 5SM BR FEW100 02/02 A2979 RMK AO2 SLP093 T00170017 FZRANO=
202303221256 METAR KPWT 221256Z AUTO 06004KT 10SM CLR 04/04 A2978 RMK AO2 SLP088 T00440044=
202303221156 METAR KPWT 221156Z AUTO 06006KT 10SM CLR 06/04 A2977 RMK AO2 SLP085 T00560044 10083 20056 51007=
202303221056 METAR KPWT 221056Z AUTO 07006KT 10SM CLR 06/04 A2976 RMK AO2 SLP084 T00560039=
202303220956 METAR KPWT 220956Z AUTO 05006KT 10SM CLR 07/04 A2977 RMK AO2 SLP086 T00670039=
202303220856 METAR KPWT 220856Z AUTO 05009KT 10SM CLR 08/03 A2975 RMK AO2 SLP078 T00830033 56003=
202303220756 METAR KPWT 220756Z AUTO 03010KT 10SM CLR 08/04 A2975 RMK AO2 SLP080 T00780039 401330044=
202303220656 METAR KPWT 220656Z AUTO 04009KT 10SM CLR 08/04 A2975 RMK AO2 SLP080 T00780044=
202303220556 METAR KPWT 220556Z AUTO 05011KT 10SM CLR 08/06 A2976 RMK AO2 SLP081 T00780056 10133 20072 53006=
202303220456 METAR KPWT 220456Z AUTO 04009KT 10SM CLR 08/06 A2975 RMK AO2 SLP080 T00780056=
202303220356 METAR KPWT 220356Z AUTO 04010KT 10SM CLR 08/05 A2974 RMK AO2 SLP076 T00830050=
202303220256 METAR KPWT 220256Z AUTO 00000KT 10SM CLR 07/04 A2974 RMK AO2 SLP076 T00720044 55002=
202303220156 METAR KPWT 220156Z AUTO 04009KT 10SM CLR 11/05 A2973 RMK AO2 SLP072 T01060050=
202303220056 METAR KPWT 220056Z AUTO 03009KT 10SM CLR 12/06 A2973 RMK AO2 SLP071 T01220056=
202303212356 METAR KPWT 212356Z AUTO 03010KT 10SM CLR 13/06 A2974 RMK AO2 SLP076 T01280061 10133 20083 56015=
202303212256 METAR KPWT 212256Z AUTO 05013G20KT 10SM CLR 13/06 A2975 RMK AO2 SLP078 T01280056=
202303212156 METAR KPWT 212156Z AUTO 03013KT 10SM CLR 13/06 A2977 RMK AO2 SLP086 T01330061=
202303212056 METAR KPWT 212056Z AUTO 03011G16KT 10SM SCT026 12/07 A2979 RMK AO2 SLP092 T01220067 58014=
202303212014 SPECI KPWT 212014Z AUTO 03008KT 10SM SCT026 11/06 A2981 RMK AO2=
202303211956 METAR KPWT 211956Z AUTO 05013G16KT 10SM BKN024 BKN028 12/06 A2981 RMK AO2 SLP099 T01170061=
202303211941 SPECI KPWT 211941Z AUTO 05010G15KT 10SM BKN024 BKN028 12/07 A2981 RMK AO2=
202303211932 SPECI KPWT 211932Z AUTO 04007KT 10SM FEW019 SCT025 11/06 A2982 RMK AO2=
202303211856 METAR KPWT 211856Z AUTO 06008KT 10SM BKN015 BKN022 10/07 A2983 RMK AO2 SLP106 T01000067=
202303211851 SPECI KPWT 211851Z AUTO 03007KT 10SM BKN015 BKN022 09/07 A2983 RMK AO2=
202303211819 SPECI KPWT 211819Z AUTO 04005KT 10SM OVC011 09/07 A2985 RMK AO2=
202303211756 METAR KPWT 211756Z AUTO 05006KT 10SM OVC009 08/07 A2985 RMK AO2 CIG 008V013 SLP114 T00830067 10083 20044 50000=
202303211725 SPECI KPWT 211725Z AUTO 01004KT 10SM BKN009 OVC013 08/07 A2985 RMK AO2=
202303211656 METAR KPWT 211656Z AUTO 05005KT 10SM FEW007 BKN012 OVC035 08/07 A2985 RMK AO2 SLP116 T00780067=
202303211648 SPECI KPWT 211648Z AUTO 05005KT 10SM FEW007 BKN014 OVC035 07/07 A2985 RMK AO2=
202303211556 METAR KPWT 211556Z AUTO 04005KT 10SM FEW009 OVC037 07/07 A2985 RMK AO2 SLP114 T00670067=
202303211532 SPECI KPWT 211532Z AUTO 00000KT 10SM BKN007 OVC039 06/06 A2985 RMK AO2 CIG 004V009=
202303211504 SPECI KPWT 211504Z AUTO 00000KT 10SM OVC005 06/06 A2985 RMK AO2 CIG 004V008=
202303211456 METAR KPWT 211456Z AUTO 00000KT 10SM BKN007 05/05 A2985 RMK AO2 SLP114 T00500050 57002=
202303211356 METAR KPWT 211356Z AUTO 08003KT 7SM SCT003 OVC007 06/06 A2985 RMK AO2 SLP113 T00560056=
202303211348 SPECI KPWT 211348Z AUTO 00000KT 2SM BR BKN003 OVC007 06/06 A2985 RMK AO2=
202303211256 METAR KPWT 211256Z AUTO 00000KT 9SM OVC003 06/06 A2985 RMK AO2 SLP115 T00560056=
202303211227 SPECI KPWT 211227Z AUTO 00000KT 10SM OVC003 06/06 A2985 RMK AO2=
202303211156 METAR KPWT 211156Z AUTO 00000KT 10SM OVC005 06/06 A2985 RMK AO2 SLP115 70006 T00560056 10067 20056 51002=
202303211056 METAR KPWT 211056Z AUTO 00000KT 10SM OVC005 06/06 A2985 RMK AO2 SLP115 T00560056=
202303210956 METAR KPWT 210956Z AUTO 19003KT 10SM OVC005 06/06 A2985 RMK AO2 SLP114 T00610061=
202303210856 METAR KPWT 210856Z AUTO 19004KT 10SM OVC005 07/06 A2985 RMK AO2 SLP112 T00670061 53009=
202303210809 SPECI KPWT 210809Z AUTO 20005KT 10SM OVC005 07/07 A2984 RMK AO2 CIG 004V008=
202303210756 METAR KPWT 210756Z AUTO 20004KT 10SM OVC007 07/07 A2984 RMK AO2 CIG 004V011 SLP108 T00670067 401170044=
202303210739 SPECI KPWT 210739Z AUTO 19005KT 10SM OVC007 07/07 A2983 RMK AO2 CIG 004V011=
202303210728 SPECI KPWT 210728Z AUTO 18004KT 10SM OVC005 07/07 A2983 RMK AO2 CIG 004V009=
202303210656 METAR KPWT 210656Z AUTO 00000KT 10SM OVC003 07/07 A2983 RMK AO2 SLP107 T00670067=
202303210628 SPECI KPWT 210628Z AUTO 20003KT 10SM OVC003 07/07 A2983 RMK AO2=
202303210556 METAR KPWT 210556Z AUTO 21004KT 10SM OVC005 07/07 A2982 RMK AO2 SLP104 T00670067 10100 20044 51014=
202303210543 SPECI KPWT 210543Z AUTO 22005KT 10SM BKN005 OVC065 06/06 A2982 RMK AO2=
202303210534 SPECI KPWT 210534Z AUTO 00000KT 10SM SCT005 OVC065 06/06 A2982 RMK AO2=
202303210456 METAR KPWT 210456Z AUTO 21004KT 10SM FEW065 04/04 A2981 RMK AO2 SLP101 T00440044=
202303210356 METAR KPWT 210356Z AUTO 00000KT 10SM BKN043 06/06 A2980 RMK AO2 SLP096 T00610061=
202303210256 METAR KPWT 210256Z AUTO 20004KT 10SM SCT036 07/07 A2978 RMK AO2 SLP090 T00720067 53012=
202303210156 METAR KPWT 210156Z AUTO 21007KT 10SM FEW025 SCT033 BKN042 09/08 A2977 RMK AO2 SLP084 T00890083=
202303210149 SPECI KPWT 210149Z AUTO 21008KT 10SM SCT025 SCT033 BKN042 09/08 A2976 RMK AO2=
202303210056 METAR KPWT 210056Z AUTO 21007KT 10SM BKN018 09/08 A2975 RMK AO2 SLP078 T00940083=
202303210000 METAR KPWT 182356Z AUTO 22004KT 10SM CLR 18/M02 A2994 RMK AO2 SLP144 T01781022 10189 20133 56015=
202303202356 METAR KPWT 202356Z AUTO 19009KT 10SM FEW013 SCT029 SCT034 10/08 A2975 RMK AO2 RAE31 SLP077 P0001 60002 T01000083 10117 20083 51007=
202303202318 SPECI KPWT 202318Z AUTO 19007KT 10SM -RA FEW015 SCT037 09/08 A2974 RMK AO2 P0001=
202303202256 METAR KPWT 202256Z AUTO 19009KT 10SM -RA FEW007 SCT021 OVC027 09/08 A2974 RMK AO2 RAB2158 SLP076 P0000 T00940083=
202303202242 SPECI KPWT 202242Z AUTO 18007KT 10SM -RA FEW007 SCT019 BKN027 09/09 A2974 RMK AO2 RAB2158 P0000=
202303202156 METAR KPWT 202156Z AUTO 21011KT 10SM FEW027 BKN036 11/09 A2973 RMK AO2 RAE00 SLP072 P0000 T01060089=
202303202104 SPECI KPWT 202104Z AUTO 22011KT 10SM FEW024 SCT029 SCT035 10/09 A2973 RMK AO2 RAE00 P0000=
202303202056 METAR KPWT 202056Z AUTO 22010KT 10SM -RA FEW019 BKN027 BKN035 10/09 A2972 RMK AO2 RAB00 SLP070 P0001 60001 T01000094 51006=
202303202012 SPECI KPWT 202012Z AUTO 21011KT 10SM -RA SCT009 SCT020 BKN029 09/09 A2973 RMK AO2 RAB00 P0000=
202303202005 SPECI KPWT 202005Z AUTO 21010KT 9SM -RA BKN009 BKN029 09/09 A2972 RMK AO2 RAB00 CIG 005V014 P0000=
202303201956 METAR KPWT 201956Z AUTO 22009KT 10SM SCT006 BKN012 OVC033 10/09 A2972 RMK AO2 RAE05 SLP069 P0000 T01000089=
202303201941 SPECI KPWT 201941Z AUTO 20008KT 10SM SCT006 BKN012 OVC033 11/10 A2972 RMK AO2 RAE05 P0000=
202303201921 SPECI KPWT 201921Z AUTO 20010KT 6SM BR OVC006 09/09 A2972 RMK AO2 RAE05 CIG 003V010 P0000=
202303201909 SPECI KPWT 201909Z AUTO 21008KT 4SM BR BKN004 OVC008 09/09 A2972 RMK AO2 RAE05 CIG 003V007 P0000=
202303201856 METAR KPWT 201856Z AUTO 21009KT 5SM -RA BR OVC006 08/08 A2972 RMK AO2 CIG 003V007 SLP067 P0000 T00830083=
202303201839 SPECI KPWT 201839Z AUTO 20007KT 6SM -RA BR BKN006 OVC009 08/08 A2971 RMK AO2 CIG 003V007 P0000=
202303201756 METAR KPWT 201756Z AUTO 21008KT 10SM -RA OVC004 08/08 A2971 RMK AO2 SLP064 P0000 60004 T00780078 10083 20067 53015=
202303201656 METAR KPWT 201656Z AUTO 21005KT 4SM -RA BR OVC004 08/08 A2969 RMK AO2 SLP059 P0002 T00780078=
202303201606 SPECI KPWT 201606Z AUTO 20004KT 10SM -RA OVC004 08/08 A2968 RMK AO2 P0000=
202303201556 METAR KPWT 201556Z AUTO 20004KT 10SM -RA OVC002 08/08 A2968 RMK AO2 SLP053 P0001 T00780078=
202303201456 METAR KPWT 201456Z AUTO 00000KT 4SM -RA BR BKN002 OVC014 07/07 A2966 RMK AO2 SLP049 P0000 60001 T00720072 53012=
202303201444 SPECI KPWT 201444Z AUTO 00000KT 4SM -RA BR BKN002 OVC014 07/07 A2966 RMK AO2 P0000=
202303201424 SPECI KPWT 201424Z AUTO 00000KT 2 1/2SM -RA BR OVC002 07/07 A2966 RMK AO2 P0000=
202303201356 METAR KPWT 201356Z AUTO 00000KT 6SM -RA BR BKN002 OVC022 07/07 A2965 RMK AO2 RAB1258 SLP046 P0001 T00720072=
202303201346 SPECI KPWT 201346Z AUTO 00000KT 4SM -RA BR BKN002 BKN007 OVC022 07/07 A2965 RMK AO2 RAB1258 P0001=
202303201338 SPECI KPWT 201338Z AUTO 00000KT 5SM -RA BR SCT002 OVC020 07/07 A2965 RMK AO2 RAB1258 P0001=
202303201319 SPECI KPWT 201319Z AUTO 00000KT 3SM -RA BR BKN002 BKN018 OVC025 07/07 A2964 RMK AO2 RAB1258 P0001=
202303201311 SPECI KPWT 201311Z AUTO 00000KT 1 1/4SM -RA BR OVC002 07/07 A2964 RMK AO2 RAB1258 P0001=
202303201301 SPECI KPWT 201301Z AUTO 06003KT 3/4SM -RA BR OVC002 07/07 A2964 RMK AO2 RAB1258 P0000=
202303201256 METAR KPWT 201256Z AUTO 05003KT 1 1/4SM BR OVC002 07/07 A2964 RMK AO2 RAE56 SLP041 P0000 T00720072=
202303201253 SPECI KPWT 201253Z AUTO 00000KT 1 3/4SM -RA BR BKN002 OVC028 07/07 A2964 RMK AO2 P0000=
202303201248 SPECI KPWT 201248Z AUTO 05003KT 3SM -RA BR BKN002 OVC028 07/07 A2964 RMK AO2 P0000=
202303201233 SPECI KPWT 201233Z AUTO 05003KT 10SM -RA FEW002 OVC028 07/07 A2963 RMK AO2 P0000=
202303201156 METAR KPWT 201156Z AUTO 04003KT 9SM -RA BKN030 07/07 A2963 RMK AO2 SLP037 P0002 60014 70014 T00670067 10083 20067 55002=
202303201135 SPECI KPWT 201135Z AUTO 00000KT 8SM -RA OVC030 07/07 A2963 RMK AO2 P0002=
202303201116 SPECI KPWT 201116Z AUTO 00000KT 8SM -RA BKN027 OVC035 07/07 A2963 RMK AO2 P0001=
202303201056 METAR KPWT 201056Z AUTO 00000KT 8SM -RA BKN032 BKN039 07/07 A2963 RMK AO2 SLP036 P0003 T00670067=
202303200956 METAR KPWT 200956Z AUTO 00000KT 10SM -RA BKN031 OVC041 07/07 A2963 RMK AO2 SLP039 P0002 T00670067=
202303200856 METAR KPWT 200856Z AUTO 23003KT 10SM -RA OVC039 07/07 A2963 RMK AO2 SLP039 P0003 60007 T00670067 55000=
202303200756 METAR KPWT 200756Z AUTO 00000KT 9SM -RA OVC039 08/07 A2963 RMK AO2 SLP038 P0003 T00780072 401610028=
202303200656 METAR KPWT 200656Z AUTO 00000KT 10SM -RA OVC039 08/07 A2963 RMK AO2 SLP038 P0001 T00780072=
202303200556 METAR KPWT 200556Z AUTO 28003KT 10SM -RA SCT047 08/07 A2963 RMK AO2 SLP040 P0000 60000 T00830072 10139 20083 51001=
202303200456 METAR KPWT 200456Z AUTO 27005KT 10SM -RA FEW034 BKN046 BKN060 08/07 A2963 RMK AO2 SLP038 P0000 T00830072=
202303200356 METAR KPWT 200356Z AUTO 24007KT 10SM -RA CLR 09/06 A2964 RMK AO2 RAB46 SLP041 P0000 T00940061=
202303200256 METAR KPWT 200256Z AUTO 23009KT 10SM CLR 11/04 A2963 RMK AO2 SLP039 T01060044 55005=
202303200156 METAR KPWT 200156Z AUTO 24008KT 10SM CLR 12/03 A2962 RMK AO2 SLP036 T01220033=
202303200056 METAR KPWT 200056Z AUTO 23006KT 10SM CLR 13/03 A2963 RMK AO2 SLP039 T01330033=
202303192356 METAR KPWT 192356Z AUTO 21010KT 10SM CLR 14/03 A2965 RMK AO2 SLP043 T01390028 10161 20122 56020=
202303192256 METAR KPWT 192256Z AUTO 25006KT 10SM FEW080 15/02 A2966 RMK AO2 SLP048 T01500017=
202303192156 METAR KPWT 192156Z AUTO 00000KT 10SM CLR 16/02 A2968 RMK AO2 SLP053 T01610017=
202303192056 METAR KPWT 192056Z AUTO 02005KT 10SM CLR 14/02 A2970 RMK AO2 SLP063 T01440017 57018=
202303191956 METAR KPWT 191956Z AUTO 05008KT 10SM CLR 14/02 A2972 RMK AO2 SLP068 T01390022=
202303191856 METAR KPWT 191856Z AUTO 06007KT 10SM CLR 13/02 A2974 RMK AO2 SLP076 T01280017=
202303191756 METAR KPWT 191756Z AUTO 04008KT 10SM CLR 12/02 A2976 RMK AO2 SLP082 T01170017 10122 20033 58010=
202303191656 METAR KPWT 191656Z AUTO 00000KT 10SM CLR 09/04 A2978 RMK AO2 SLP090 T00890044=
202303191556 METAR KPWT 191556Z AUTO 04004KT 10SM CLR 09/02 A2978 RMK AO2 SLP091 T00890022=
202303191456 METAR KPWT 191456Z AUTO 03006KT 10SM CLR 09/02 A2979 RMK AO2 SLP091 T00890017 58018=
202303191356 METAR KPWT 191356Z AUTO 00000KT 10SM CLR 06/02 A2980 RMK AO2 SLP097 T00560022=
202303191256 METAR KPWT 191256Z AUTO 00000KT 10SM CLR 05/02 A2983 RMK AO2 SLP104 T00500022=
202303191156 METAR KPWT 191156Z AUTO 00000KT 10SM SCT120 04/02 A2984 RMK AO2 SLP110 T00440022 10083 20028 58016=
202303191056 METAR KPWT 191056Z AUTO 00000KT 10SM FEW110 03/02 A2986 RMK AO2 SLP116 T00330017=
202303190956 METAR KPWT 190956Z AUTO 00000KT 10SM SCT100 04/02 A2988 RMK AO2 SLP124 T00440022=
202303190856 METAR KPWT 190856Z AUTO 00000KT 10SM SCT100 04/02 A2989 RMK AO2 SLP126 T00440017 58009=
202303190756 METAR KPWT 190756Z AUTO 00000KT 10SM CLR 04/01 A2990 RMK AO2 SLP130 T00440011 401891011=
202303190656 METAR KPWT 190656Z AUTO 00000KT 10SM CLR 06/01 A2991 RMK AO2 SLP134 T00610011=
202303190556 METAR KPWT 190556Z AUTO 03003KT 10SM CLR 08/01 A2992 RMK AO2 SLP135 T00830011 10178 20061 58001=
202303190456 METAR KPWT 190456Z AUTO 00000KT 10SM CLR 07/02 A2992 RMK AO2 SLP136 T00670022=
202303190356 METAR KPWT 190356Z AUTO 00000KT 10SM CLR 06/02 A2992 RMK AO2 SLP138 T00610022=
202303190256 METAR KPWT 190256Z AUTO 00000KT 10SM CLR 08/04 A2992 RMK AO2 SLP139 T00830044 56007=
202303190156 METAR KPWT 190156Z AUTO 03003KT 10SM CLR 13/03 A2992 RMK AO2 SLP139 T01330028=
202303190056 METAR KPWT 190056Z AUTO 22004KT 10SM CLR 17/M01 A2993 RMK AO2 SLP140 T01671006=
202303182356 METAR KPWT 182356Z AUTO 22004KT 10SM CLR 18/M02 A2994 RMK AO2 SLP144 T01781022 10189 20133 56015=
202303182256 METAR KPWT 182256Z AUTO VRB03KT 10SM CLR 19/00 A2995 RMK AO2 SLP148 T01890000=
202303182156 METAR KPWT 182156Z AUTO VRB04KT 10SM CLR 18/00 A2996 RMK AO2 SLP152 T01780000=
202303182056 METAR KPWT 182056Z AUTO VRB06KT 10SM CLR 17/01 A2999 RMK AO2 SLP159 T01720011 58023=
202303181956 METAR KPWT 181956Z AUTO 00000KT 10SM CLR 16/02 A3002 RMK AO2 SLP171 T01610017=
202303181856 METAR KPWT 181856Z AUTO VRB04KT 10SM CLR 14/01 A3005 RMK AO2 SLP179 T01440011=
202303181756 METAR KPWT 181756Z AUTO 00000KT 10SM CLR 13/02 A3005 RMK AO2 SLP183 T01330022 10133 21011 58009=
202303181656 METAR KPWT 181656Z AUTO 32004KT 10SM CLR 11/04 A3006 RMK AO2 SLP185 T01110044=
202303181556 METAR KPWT 181556Z AUTO 00000KT 10SM CLR 06/03 A3007 RMK AO2 SLP189 T00560033=
202303181456 METAR KPWT 181456Z AUTO 00000KT 10SM CLR 00/00 A3008 RMK AO2 SLP194 T00000000 58004 FZRANO=
202303181439 SPECI KPWT 181439Z AUTO 00000KT 4SM BR CLR M01/M01 A3008 RMK AO2 FZRANO=
202303181436 SPECI KPWT 181436Z AUTO 00000KT 1 1/4SM BR CLR M01/M01 A3008 RMK AO2 FZRANO=
202303181430 SPECI KPWT 181430Z AUTO 00000KT 1/2SM FZFG CLR M01/M01 A3009 RMK AO2 VIS 1/4V5 FZRANO=
202303181426 SPECI KPWT 181426Z AUTO 00000KT 1SM BR CLR M01/M01 A3009 RMK AO2 FZRANO=
202303181356 METAR KPWT 181356Z AUTO 00000KT 10SM CLR M01/M01 A3009 RMK AO2 SLP195 T10111011 FZRANO=
202303181256 METAR KPWT 181256Z AUTO 00000KT 10SM CLR 00/00 A3009 RMK AO2 SLP196 T00000000 FZRANO=
202303181156 METAR KPWT 181156Z AUTO 00000KT 10SM CLR 02/01 A3009 RMK AO2 SLP195 T00170011 10072 20017 58004 FZRANO=
202303181056 METAR KPWT 181056Z AUTO 00000KT 10SM CLR 02/02 A3010 RMK AO2 SLP197 T00220017 FZRANO=
202303180956 METAR KPWT 180956Z AUTO 00000KT 10SM CLR 02/02 A3011 RMK AO2 SLP200 T00220017 FZRANO=
202303180856 METAR KPWT 180856Z AUTO 00000KT 10SM CLR 03/02 A3010 RMK AO2 SLP199 T00280017 56002=
202303180756 METAR KPWT 180756Z AUTO 00000KT 10SM CLR 04/02 A3010 RMK AO2 SLP199 T00390017 401671033=
202303180656 METAR KPWT 180656Z AUTO 22003KT 10SM CLR 04/02 A3011 RMK AO2 SLP200 T00390022=
202303180556 METAR KPWT 180556Z AUTO 00000KT 10SM CLR 07/02 A3011 RMK AO2 SLP201 T00670022 10161 20061 51008=
202303180456 METAR KPWT 180456Z AUTO 01005KT 10SM CLR 09/02 A3010 RMK AO2 SLP200 T00940022=
202303180356 METAR KPWT 180356Z AUTO 00000KT 10SM CLR 07/02 A3009 RMK AO2 SLP197 T00720022=
202303180256 METAR KPWT 180256Z AUTO 00000KT 10SM CLR 09/03 A3009 RMK AO2 SLP195 T00890028 55001=
202303180156 METAR KPWT 180156Z AUTO 00000KT 10SM CLR 12/03 A3008 RMK AO2 SLP194 T01170028=
202303180056 METAR KPWT 180056Z AUTO 00000KT 10SM CLR 15/M01 A3008 RMK AO2 SLP194 T01501011=
202303172356 METAR KPWT 172356Z AUTO 19005KT 10SM CLR 16/M02 A3009 RMK AO2 SLP195 T01611022 10167 20117 56012=
202303172256 METAR KPWT 172256Z AUTO 27007KT 10SM CLR 16/M03 A3010 RMK AO2 SLP197 T01611033=
202303172156 METAR KPWT 172156Z AUTO 26006KT 10SM CLR 17/M02 A3011 RMK AO2 SLP201 T01671017=
202303172056 METAR KPWT 172056Z AUTO VRB04KT 10SM CLR 16/M02 A3012 RMK AO2 SLP207 T01611022 58011=
202303171956 METAR KPWT 171956Z AUTO 16006KT 10SM CLR 14/M03 A3014 RMK AO2 SLP212 T01441028=
202303171856 METAR KPWT 171856Z AUTO 33003KT 10SM CLR 14/M02 A3015 RMK AO2 SLP214 T01391017=
202303171756 METAR KPWT 171756Z AUTO VRB03KT 10SM CLR 12/M02 A3016 RMK AO2 SLP217 T01171017 10117 21033 55000=
202303171656 METAR KPWT 171656Z AUTO 06005KT 10SM CLR 10/M02 A3016 RMK AO2 SLP217 T01001017=
202303171556 METAR KPWT 171556Z AUTO 00000KT 10SM CLR 03/02 A3015 RMK AO2 SLP218 T00330017=
202303171456 METAR KPWT 171456Z AUTO 00000KT 10SM CLR M02/M02 A3016 RMK AO2 SLP219 T10221022 51005 FZRANO=
202303171356 METAR KPWT 171356Z AUTO 00000KT 10SM CLR M03/M03 A3015 RMK AO2 SLP218 T10331033 FZRANO=
202303171256 METAR KPWT 171256Z AUTO 00000KT 10SM CLR M03/M03 A3015 RMK AO2 SLP217 T10281033 FZRANO=
202303171156 METAR KPWT 171156Z AUTO 00000KT 10SM CLR M03/M03 A3014 RMK AO2 SLP214 T10281033 10056 21028 58006 FZRANO=
202303171056 METAR KPWT 171056Z AUTO 24003KT 10SM CLR M02/M03 A3015 RMK AO2 SLP216 T10171028 FZRANO=
202303170956 METAR KPWT 170956Z AUTO 00000KT 10SM CLR M02/M02 A3016 RMK AO2 SLP220 T10171022 FZRANO=
202303170856 METAR KPWT 170856Z AUTO 00000KT 10SM CLR M01/M01 A3016 RMK AO2 SLP220 T10061011 50004 FZRANO=
202303170756 METAR KPWT 170756Z AUTO 00000KT 10SM CLR 00/M02 A3017 RMK AO2 SLP223 T00001022 401280000 FZRANO=
202303170656 METAR KPWT 170656Z AUTO 02003KT 10SM CLR 04/M01 A3016 RMK AO2 SLP218 T00391006=
202303170556 METAR KPWT 170556Z AUTO 04007KT 10SM CLR 06/M01 A3015 RMK AO2 SLP216 T00561006 10122 20056 53005=
202303170456 METAR KPWT 170456Z AUTO 04010KT 10SM CLR 07/M01 A3014 RMK AO2 SLP213 T00671006=
202303170356 METAR KPWT 170356Z AUTO 04009KT 10SM CLR 07/M01 A3013 RMK AO2 SLP211 T00721006=
202303170256 METAR KPWT 170256Z AUTO 04007KT 10SM CLR 07/M01 A3014 RMK AO2 SLP213 T00721011 55008=
202303170156 METAR KPWT 170156Z AUTO 04010KT 10SM CLR 09/M01 A3013 RMK AO2 SLP209 T00891006=
202303170056 METAR KPWT 170056Z AUTO 02010KT 10SM CLR 11/M01 A3014 RMK AO2 SLP212 T01111006=
202303162356 METAR KPWT 162356Z AUTO 02009KT 10SM CLR 12/M02 A3016 RMK AO2 SLP219 T01221017 10128 20078 56022=
202303162256 METAR KPWT 162256Z AUTO 04009KT 10SM CLR 12/M02 A3018 RMK AO2 SLP225 T01221017=
202303162156 METAR KPWT 162156Z AUTO 03011KT 10SM CLR 12/M02 A3020 RMK AO2 SLP231 T01171017=
202303162056 METAR KPWT 162056Z AUTO 06009KT 10SM CLR 11/M01 A3022 RMK AO2 SLP240 T01111011 58013=
202303161956 METAR KPWT 161956Z AUTO 01007KT 10SM CLR 10/00 A3024 RMK AO2 SLP247 T01000000=
202303161856 METAR KPWT 161856Z AUTO 05011KT 10SM CLR 09/01 A3025 RMK AO2 SLP251 T00890006=
202303161756 METAR KPWT 161756Z AUTO 03010KT 10SM CLR 08/02 A3026 RMK AO2 SLP255 T00780022 10078 20017 58004=
202303161656 METAR KPWT 161656Z AUTO 03011KT 10SM CLR 06/03 A3027 RMK AO2 SLP256 T00560033=
202303161556 METAR KPWT 161556Z AUTO 04011KT 10SM FEW005 03/03 A3027 RMK AO2 SLP258 T00330028=
202303161525 SPECI KPWT 161525Z AUTO 03012KT 10SM FEW005 02/02 A3027 RMK AO2 FZRANO=
202303161456 METAR KPWT 161456Z AUTO 04011KT 10SM CLR 02/02 A3027 RMK AO2 SLP259 T00170017 58003 FZRANO=
202303161356 METAR KPWT 161356Z AUTO 05008KT 10SM CLR 02/02 A3028 RMK AO2 SLP260 T00170017 FZRANO=
202303161256 METAR KPWT 161256Z AUTO 03007KT 10SM CLR 02/02 A3028 RMK AO2 SLP262 T00170017 FZRANO=
202303161156 METAR KPWT 161156Z AUTO 04008KT 10SM CLR 02/02 A3028 RMK AO2 SLP262 T00220017 10033 20022 58005 FZRANO=
202303161056 METAR KPWT 161056Z AUTO 04008KT 10SM CLR 03/02 A3029 RMK AO2 SLP263 T00280017=
202303160956 METAR KPWT 160956Z AUTO 05006KT 10SM CLR 03/02 A3029 RMK AO2 SLP266 T00280017=
202303160856 METAR KPWT 160856Z AUTO 05007KT 10SM CLR 03/02 A3030 RMK AO2 SLP267 T00280017 50001=
202303160756 METAR KPWT 160756Z AUTO 06006KT 10SM CLR 03/01 A3030 RMK AO2 SLP267 T00280011 400941017=
202303160656 METAR KPWT 160656Z AUTO 05005KT 10SM FEW060 03/01 A3030 RMK AO2 SLP267 T00280011=
202303160556 METAR KPWT 160556Z AUTO 06004KT 10SM CLR 03/01 A3030 RMK AO2 SLP266 T00280006 10089 20017 51008=
202303160456 METAR KPWT 160456Z AUTO 00000KT 10SM BKN060 02/01 A3029 RMK AO2 SLP265 T00220006 FZRANO=
202303160356 METAR KPWT 160356Z AUTO 00000KT 10SM BKN055 02/01 A3028 RMK AO2 SLP262 T00220011 FZRANO=
202303160256 METAR KPWT 160256Z AUTO 00000KT 10SM CLR 03/01 A3027 RMK AO2 SLP259 T00330011 53012=
202303160156 METAR KPWT 160156Z AUTO 06003KT 10SM BKN047 07/01 A3026 RMK AO2 SLP253 T00670011=
202303160056 METAR KPWT 160056Z AUTO 00000KT 10SM BKN047 09/M02 A3025 RMK AO2 SLP250 T00891017=
202303152356 METAR KPWT 152356Z AUTO 07003KT 10SM CLR 08/M01 A3024 RMK AO2 SLP246 T00831011 10094 20061 53008=
202303152256 METAR KPWT 152256Z AUTO 03005KT 10SM BKN065 09/00 A3023 RMK AO2 SLP243 T00890000=
202303152156 METAR KPWT 152156Z AUTO 00000KT 10SM SCT065 09/M01 A3021 RMK AO2 SLP238 T00891011=
202303152056 METAR KPWT 152056Z AUTO 18006KT 10SM FEW037 SCT050 09/01 A3021 RMK AO2 SLP237 T00940006 51014=
202303151956 METAR KPWT 151956Z AUTO 06008KT 010V100 10SM FEW029 09/02 A3020 RMK AO2 SLP235 T00890017=
202303151947 SPECI KPWT 151947Z AUTO VRB04KT 10SM SCT031 SCT043 08/02 A3020 RMK AO2=
202303151916 SPECI KPWT 151916Z AUTO 09007KT 060V160 10SM BKN027 OVC039 08/02 A3019 RMK AO2=
202303151904 SPECI KPWT 151904Z AUTO 07006KT 10SM SCT027 BKN033 OVC040 08/02 A3019 RMK AO2=
202303151856 METAR KPWT 151856Z AUTO 13005KT 10SM BKN029 BKN037 07/02 A3019 RMK AO2 SLP231 T00720017=
202303151843 SPECI KPWT 151843Z AUTO 13004KT 10SM SCT029 BKN036 06/01 A3019 RMK AO2=
202303151805 SPECI KPWT 151805Z AUTO 11005KT 10SM BKN027 07/01 A3018 RMK AO2=
202303151756 METAR KPWT 151756Z AUTO 12004KT 10SM SCT027 07/01 A3017 RMK AO2 SLP224 T00670011 10072 21017 51029=
202303151724 SPECI KPWT 151724Z AUTO VRB03KT 10SM BKN022 07/02 A3016 RMK AO2=
202303151656 METAR KPWT 151656Z AUTO 00000KT 10SM CLR 06/02 A3014 RMK AO2 SLP213 T00610017=
202303151556 METAR KPWT 151556Z AUTO 00000KT 10SM BKN050 04/03 A3011 RMK AO2 SLP205 T00390033=
202303151456 METAR KPWT 151456Z AUTO 00000KT 10SM CLR M02/M02 A3008 RMK AO2 SLP196 T10171017 51043 FZRANO=
202303151356 METAR KPWT 151356Z AUTO 00000KT 10SM CLR M01/M01 A3004 RMK AO2 SLP180 T10061011 FZRANO=
202303151328 SPECI KPWT 151328Z AUTO 08003KT 10SM SCT019 01/00 A3002 RMK AO2 FZRANO=
202303151256 METAR KPWT 151256Z AUTO 00000KT 10SM BKN021 01/01 A3000 RMK AO2 SLP165 T00110006 FZRANO=
202303151232 SPECI KPWT 151232Z AUTO 00000KT 10SM FEW007 01/00 A2998 RMK AO2 FZRANO=
202303151156 METAR KPWT 151156Z AUTO 00000KT 10SM BKN009 03/02 A2995 RMK AO2 SLP149 T00280017 10033 20011 53034=
202303151115 SPECI KPWT 151115Z AUTO 21007KT 10SM OVC009 03/02 A2993 RMK AO2=
202303151056 METAR KPWT 151056Z AUTO 22007KT 10SM OVC011 03/02 A2992 RMK AO2 SLP138 T00330022=
202303151033 SPECI KPWT 151033Z AUTO 23007KT 10SM BKN011 OVC110 03/02 A2991 RMK AO2=
202303150956 METAR KPWT 150956Z AUTO 20012KT 10SM BKN110 03/02 A2988 RMK AO2 SLP124 T00330022=
202303150856 METAR KPWT 150856Z AUTO 21010KT 10SM SCT085 03/02 A2985 RMK AO2 SLP116 T00280022 53026=
202303150756 METAR KPWT 150756Z AUTO 22006KT 10SM CLR 01/01 A2982 RMK AO2 SLP105 T00110006 401060006 FZRANO=
202303150656 METAR KPWT 150656Z AUTO 20005KT 10SM CLR 02/01 A2980 RMK AO2 SLP096 T00170011 FZRANO=
202303150556 METAR KPWT 150556Z AUTO 22003KT 10SM CLR 02/01 A2978 RMK AO2 SLP088 T00220011 10106 20006 52027 FZRANO=
202303150456 METAR KPWT 150456Z AUTO 00000KT 10SM SCT095 02/01 A2975 RMK AO2 SLP082 T00170011 FZRANO=
202303150356 METAR KPWT 150356Z AUTO 00000KT 10SM SCT100 02/01 A2972 RMK AO2 SLP071 T00170006 FZRANO=
202303150256 METAR KPWT 150256Z AUTO 00000KT 10SM CLR 02/00 A2970 RMK AO2 SLP063 T00220000 53003 FZRANO=
202303150156 METAR KPWT 150156Z AUTO 21005KT 10SM CLR 07/M01 A2968 RMK AO2 SLP058 T00671006=
202303150056 METAR KPWT 150056Z AUTO VRB03KT 10SM CLR 10/M01 A2968 RMK AO2 SLP056 T01001011=
202303142356 METAR KPWT 142356Z AUTO 21007KT 180V240 10SM BKN050 OVC060 11/M02 A2969 RMK AO2 SLP059 T01061017 10106 20050 56026=
202303142256 METAR KPWT 142256Z AUTO 15006KT 10SM SCT050 11/M01 A2971 RMK AO2 SLP065 T01061011=
202303142156 METAR KPWT 142156Z AUTO VRB04KT 10SM FEW049 09/M01 A2973 RMK AO2 SLP074 T00941011=
202303142056 METAR KPWT 142056Z AUTO 23004KT 10SM FEW048 09/M01 A2976 RMK AO2 SLP085 T00941006 58026=
202303141956 METAR KPWT 141956Z AUTO 20005KT 10SM FEW041 08/02 A2980 RMK AO2 SLP097 T00780017=
202303141937 SPECI KPWT 141937Z AUTO 22005KT 10SM SCT028 07/02 A2981 RMK AO2=
202303141930 SPECI KPWT 141930Z AUTO 24005KT 10SM BKN028 08/03 A2981 RMK AO2=
202303141856 METAR KPWT 141856Z AUTO 30005KT 10SM FEW019 08/03 A2982 RMK AO2 SLP105 T00780033=
202303141815 SPECI KPWT 141815Z AUTO 23006KT 10SM SCT015 05/03 A2983 RMK AO2=
202303141756 METAR KPWT 141756Z AUTO 25005KT 10SM BKN013 05/03 A2984 RMK AO2 SLP110 60000 T00500033 10061 20006 58015=
202303141727 SPECI KPWT 141727Z AUTO 25006KT 10SM BKN010 06/04 A2985 RMK AO2=
202303141656 METAR KPWT 141656Z AUTO 22007KT 10SM BKN006 OVC011 04/04 A2986 RMK AO2 SLP118 T00440039=
202303141633 SPECI KPWT 141633Z AUTO 22006KT 10SM BKN006 04/04 A2986 RMK AO2 CIG 004V009=
202303141622 SPECI KPWT 141622Z AUTO 24005KT 10SM BKN004 04/04 A2987 RMK AO2=
202303141606 SPECI KPWT 141606Z AUTO 23006KT 10SM FEW004 SCT046 03/03 A2987 RMK AO2=
202303141556 METAR KPWT 141556Z AUTO 21003KT 8SM FEW045 02/02 A2988 RMK AO2 SLP124 T00220022 FZRANO=
202303141533 SPECI KPWT 141533Z AUTO 20003KT 8SM SCT028 01/01 A2988 RMK AO2 FZRANO=
202303141456 METAR KPWT 141456Z AUTO 00000KT 8SM BKN026 01/01 A2988 RMK AO2 SLP127 60000 T00110011 58004 FZRANO=
202303141427 SPECI KPWT 141427Z AUTO 00000KT 7SM SCT003 01/01 A2989 RMK AO2 FZRANO=
202303141418 SPECI KPWT 141418Z AUTO 00000KT 9SM BKN003 BKN022 01/01 A2989 RMK AO2 FZRANO=
202303141415 SPECI KPWT 141415Z AUTO 00000KT 9SM SCT003 SCT022 01/01 A2989 RMK AO2 FZRANO=
202303141356 METAR KPWT 141356Z AUTO 21003KT 10SM SCT020 02/02 A2989 RMK AO2 RAB16E42 SLP128 P0000 T00170017 FZRANO=
202303141328 SPECI KPWT 141328Z AUTO 18005KT 9SM -RA SCT007 BKN020 01/01 A2990 RMK AO2 RAB16 P0000 FZRANO=
202303141256 METAR KPWT 141256Z AUTO 23003KT 10SM BKN005 OVC021 01/01 A2990 RMK AO2 CIG 003V007 SLP130 T00060006 FZRANO=
202303141243 SPECI KPWT 141243Z AUTO 18003KT 10SM FEW007 BKN021 01/01 A2990 RMK AO2 FZRANO=
202303141236 SPECI KPWT 141236Z AUTO 25003KT 10SM BKN021 01/01 A2990 RMK AO2 FZRANO=
202303141156 METAR KPWT 141156Z AUTO 21004KT 10SM SCT008 01/01 A2990 RMK AO2 SLP131 60000 70006 T00110011 10022 20006 58001 FZRANO=
202303141143 SPECI KPWT 141143Z AUTO 23004KT 10SM FEW008 01/01 A2990 RMK AO2 FZRANO=
202303141131 SPECI KPWT 141131Z AUTO 22003KT 10SM FEW006 BKN019 01/01 A2990 RMK AO2 FZRANO=
202303141124 SPECI KPWT 141124Z AUTO 23003KT 10SM FEW019 02/02 A2990 RMK AO2 FZRANO=
202303141113 SPECI KPWT 141113Z AUTO 21004KT 10SM SCT005 BKN019 02/02 A2990 RMK AO2 FZRANO=
202303141056 METAR KPWT 141056Z AUTO 19006KT 10SM BKN005 OVC017 02/02 A2990 RMK AO2 SLP133 T00170017 FZRANO=
202303141047 SPECI KPWT 141047Z AUTO 20005KT 10SM BKN007 BKN017 02/02 A2990 RMK AO2 FZRANO=
202303141034 SPECI KPWT 141034Z AUTO 21004KT 10SM FEW007 BKN017 02/02 A2991 RMK AO2 FZRANO=
202303140956 METAR KPWT 140956Z AUTO 19008KT 10SM CLR 02/02 A2991 RMK AO2 SLP135 T00220017 FZRANO=
202303140856 METAR KPWT 140856Z AUTO 19007KT 10SM FEW018 02/02 A2990 RMK AO2 SLP133 60000 T00220022 51022 FZRANO=
202303140756 METAR KPWT 140756Z AUTO 19008KT 10SM CLR 02/02 A2988 RMK AO2 RAB0657E10 SLP125 P0000 T00220017 400940017 FZRANO=
202303140656 METAR KPWT 140656Z AUTO 20009KT 10SM CLR 02/01 A2986 RMK AO2 UPE0559 SLP119 P0000 T00170011 FZRANO=
202303140556 METAR KPWT 140556Z AUTO 21012KT 10SM UP FEW013 02/02 A2984 RMK AO2 UPB47 SLP109 P0000 60000 T00220017 10089 20022 51021 FZRANO=
202303140456 METAR KPWT 140456Z AUTO 21009KT 10SM CLR 02/02 A2982 RMK AO2 SLP104 T00220017 FZRANO=
202303140356 METAR KPWT 140356Z AUTO 22011KT 10SM FEW020 03/01 A2979 RMK AO2 SLP095 T00330011=
202303140256 METAR KPWT 140256Z AUTO 20012KT 10SM CLR 03/01 A2977 RMK AO2 SLP087 T00330011 53018=
202303140156 METAR KPWT 140156Z AUTO 21014KT 10SM CLR 04/01 A2975 RMK AO2 SLP082 T00440011=
202303140056 METAR KPWT 140056Z AUTO 23014G20KT 10SM FEW042 07/01 A2973 RMK AO2 SLP074 T00720006=
202303132356 METAR KPWT 132356Z AUTO 22017KT 10SM CLR 09/01 A2972 RMK AO2 SLP069 60000 T00890006 10094 20056 51007=
202303132256 METAR KPWT 132256Z AUTO 22013G21KT 10SM CLR 09/02 A2971 RMK AO2 SLP065 T00890022=
202303132156 METAR KPWT 132156Z AUTO 20013KT 10SM FEW075 07/04 A2971 RMK AO2 SLP066 T00720039=
202303132056 METAR KPWT 132056Z AUTO 21010KT 10SM BKN060 07/05 A2970 RMK AO2 SLP062 60000 T00670050 50007=
202303132012 SPECI KPWT 132012Z AUTO 20009KT 10SM SCT010 OVC055 06/06 A2970 RMK AO2=
202303131956 METAR KPWT 131956Z AUTO 19010KT 10SM BKN010 OVC050 06/06 A2970 RMK AO2 SLP062 T00610056=
202303131937 SPECI KPWT 131937Z AUTO 19007KT 10SM BKN010 OVC014 07/06 A2970 RMK AO2=
202303131856 METAR KPWT 131856Z AUTO 19011KT 10SM OVC008 06/06 A2968 RMK AO2 RAE15 CIG 006V013 SLP056 P0000 T00610056=
202303131756 METAR KPWT 131756Z AUTO 18007KT 10SM -RA BKN008 06/05 A2968 RMK AO2 CIG 005V012 SLP056 P0000 60006 T00560050 10056 20044 53003=
202303131743 SPECI KPWT 131743Z AUTO 18010G17KT 10SM -RA BKN008 BKN013 06/05 A2968 RMK AO2 CIG 005V010 P0000=
202303131721 SPECI KPWT 131721Z AUTO 18007KT 10SM -RA BKN005 OVC009 05/05 A2967 RMK AO2 CIG 005V008 P0000=
202303131656 METAR KPWT 131656Z AUTO 19011KT 10SM -RA OVC007 05/05 A2967 RMK AO2 CIG 004V012 SLP054 P0000 T00500050=
202303131649 SPECI KPWT 131649Z AUTO 18010KT 10SM -RA OVC007 05/05 A2967 RMK AO2 CIG 004V012 P0000=
202303131556 METAR KPWT 131556Z AUTO 19006KT 10SM -RA OVC005 05/05 A2967 RMK AO2 RAB02E13B34 CIG 004V010 SLP053 P0000 T00500050=
202303131456 METAR KPWT 131456Z AUTO 20010KT 10SM BKN007 BKN011 OVC070 04/04 A2967 RMK AO2 RAE07 SLP052 P0001 60006 T00440044 53017=
202303131446 SPECI KPWT 131446Z AUTO 19010KT 10SM BKN007 BKN011 BKN070 04/04 A2966 RMK AO2 RAE07 CIG 006V010 P0001=
202303131356 METAR KPWT 131356Z AUTO 21010KT 10SM -RA FEW007 SCT037 OVC047 04/04 A2964 RMK AO2 RAE15B36 SLP045 P0000 T00440044=
202303131347 SPECI KPWT 131347Z AUTO 20007KT 10SM -RA FEW007 BKN047 OVC055 04/04 A2964 RMK AO2 RAE15B36 P0000=
202303131256 METAR KPWT 131256Z AUTO 22009KT 10SM -RA BKN042 BKN050 05/04 A2962 RMK AO2 SLP037 P0005 T00500044=
202303131156 METAR KPWT 131156Z AUTO 21011KT 10SM -RA OVC044 06/06 A2962 RMK AO2 SLP035 P0001 60022 70079 T00560056 10089 20056 55001=
202303131056 METAR KPWT 131056Z AUTO 23012G20KT 10SM -RA SCT005 OVC040 07/07 A2961 RMK AO2 SLP033 P0004 T00670067=
202303131030 SPECI KPWT 131030Z AUTO 22014KT 8SM -RA OVC005 07/07 A2961 RMK AO2 CIG 003V008 P0003=
202303130956 METAR KPWT 130956Z AUTO 20009G16KT 10SM -RA OVC003 09/09 A2960 RMK AO2 SLP030 P0003 T00890089=
202303130856 METAR KPWT 130856Z AUTO 21012G18KT 9SM -RA OVC003 09/09 A2962 RMK AO2 SLP035 P0006 60014 T00890089 56014=
202303130756 METAR KPWT 130756Z AUTO 20010KT 8SM -RA OVC003 08/08 A2963 RMK AO2 SLP037 P0004 T00830083 400831033=
202303130656 METAR KPWT 130656Z AUTO 21006KT 5SM -RA BR OVC003 07/07 A2964 RMK AO2 SLP043 P0004 T00720072=
202303130556 METAR KPWT 130556Z AUTO 22006KT 9SM RA BKN003 OVC008 07/07 A2966 RMK AO2 SLP050 P0010 60042 T00670067 10067 20044 58004=
202303130551 SPECI KPWT 130551Z AUTO 23007KT 10SM -RA BKN005 OVC011 07/07 A2966 RMK AO2 CIG 003V008 P0009=
202303130544 SPECI KPWT 130544Z AUTO 23008KT 8SM RA SCT003 OVC008 07/07 A2966 RMK AO2 CIG 007V012 P0008=
202303130456 METAR KPWT 130456Z AUTO 20006KT 8SM -RA OVC003 06/06 A2968 RMK AO2 SLP056 P0009 T00610061=
202303130356 METAR KPWT 130356Z AUTO 25005KT 8SM -RA OVC003 05/05 A2967 RMK AO2 SLP054 P0003 T00500050=
202303130337 SPECI KPWT 130337Z AUTO 00000KT 10SM -RA OVC003 05/05 A2967 RMK AO2 P0001=
202303130256 METAR KPWT 130256Z AUTO 00000KT 5SM -RA BR OVC005 05/05 A2967 RMK AO2 SLP055 P0006 60020 T00500050 58014=
202303130245 SPECI KPWT 130245Z AUTO 00000KT 5SM -RA BR OVC005 05/05 A2968 RMK AO2 CIG 003V007 P0004=
202303130156 METAR KPWT 130156Z AUTO 00000KT 4SM -RA BR OVC009 04/04 A2969 RMK AO2 SLP060 P0008 T00440044=
202303130106 SPECI KPWT 130106Z AUTO 00000KT 8SM -RA OVC009 05/05 A2970 RMK AO2 CIG 008V012 P0001=
202303130056 METAR KPWT 130056Z AUTO 27003KT 7SM RA OVC011 05/05 A2970 RMK AO2 CIG 008V014 SLP065 P0006 T00500050=
202303122356 METAR KPWT 122356Z AUTO 33003KT 7SM -RA OVC011 05/05 A2971 RMK AO2 SLP069 P0003 60015 T00500050 10061 20039 56023=
202303122330 SPECI KPWT 122330Z AUTO 29004KT 10SM -RA SCT008 OVC013 05/05 A2973 RMK AO2 P0002=
202303122322 SPECI KPWT 122322Z AUTO 00000KT 4SM -RA BR BKN010 OVC015 05/05 A2972 RMK AO2 CIG 007V012 P0001=
202303122309 SPECI KPWT 122309Z AUTO 31004KT 4SM -RA BR SCT011 OVC017 05/05 A2973 RMK AO2 P0001=
202303122303 SPECI KPWT 122303Z AUTO 29003KT 2 1/2SM -RA BR BKN011 OVC017 05/05 A2973 RMK AO2 VIS 2V5 P0001=
202303122256 METAR KPWT 122256Z AUTO 28003KT 2 1/2SM -RA BR SCT011 OVC020 05/05 A2974 RMK AO2 SLP077 P0007 T00500050=
202303122229 SPECI KPWT 122229Z AUTO 32003KT 6SM -RA BR FEW004 BKN022 OVC026 05/05 A2974 RMK AO2 P0004=
202303122220 SPECI KPWT 122220Z AUTO 30005KT 2 1/2SM -RA BR FEW004 BKN022 OVC026 06/06 A2974 RMK AO2 P0003=
202303122156 METAR KPWT 122156Z AUTO 27006KT 8SM -RA FEW004 OVC028 06/06 A2975 RMK AO2 SLP082 P0002 T00610056=
202303122056 METAR KPWT 122056Z AUTO 00000KT 9SM -RA OVC025 06/05 A2978 RMK AO2 SLP091 P0003 60003 T00610050 56014=
202303122013 SPECI KPWT 122013Z AUTO 28005KT 10SM -RA OVC029 06/06 A2979 RMK AO2 P0001=
202303121956 METAR KPWT 121956Z AUTO 27005KT 10SM -RA BKN033 OVC042 06/06 A2979 RMK AO2 SLP094 P0000 T00610056=
202303121856 METAR KPWT 121856Z AUTO 25003KT 10SM -RA FEW035 06/04 A2981 RMK AO2 SLP101 P0000 T00560039=
202303121756 METAR KPWT 121756Z AUTO 00000KT 10SM -RA CLR 04/04 A2982 RMK AO2 RAB24 SLP106 P0000 60000 T00390039 10039 21033 56009=
202303121656 METAR KPWT 121656Z AUTO 00000KT 10SM CLR 02/02 A2982 RMK AO2 SLP106 T00220022 FZRANO=
202303121556 METAR KPWT 121556Z AUTO 00000KT 10SM CLR 00/00 A2984 RMK AO2 SLP111 T00000000 FZRANO=
202303121456 METAR KPWT 121456Z AUTO 00000KT 10SM CLR M02/M02 A2985 RMK AO2 SLP115 T10171017 57015 FZRANO=
202303121431 SPECI KPWT 121431Z AUTO 00000KT 10SM CLR M03/M03 A2986 RMK AO2 FZRANO=
202303121421 SPECI KPWT 121421Z AUTO 00000KT 1 1/2SM BR CLR M03/M03 A2986 RMK AO2 FZRANO=
202303121356 METAR KPWT 121356Z AUTO 00000KT 10SM CLR M03/M03 A2986 RMK AO2 SLP119 T10281028 FZRANO=
202303121256 METAR KPWT 121256Z AUTO 00000KT 10SM CLR M03/M03 A2988 RMK AO2 SLP127 T10281028 FZRANO=
202303121156 METAR KPWT 121156Z AUTO 00000KT 9SM CLR M03/M03 A2989 RMK AO2 SLP130 70006 T10281028 11006 21033 58013 FZRANO=
202303121152 SPECI KPWT 121152Z AUTO 00000KT 2SM BR CLR M03/M03 A2989 RMK AO2 FZRANO=
202303121147 SPECI KPWT 121147Z AUTO 00000KT 1SM BR CLR M03/M03 A2989 RMK AO2 FZRANO=
202303121121 SPECI KPWT 121121Z AUTO 00000KT 1/2SM FZFG CLR M03/M03 A2990 RMK AO2 FZRANO=
202303121118 SPECI KPWT 121118Z AUTO 00000KT 1SM BR CLR M03/M03 A2990 RMK AO2 FZRANO=
202303121113 SPECI KPWT 121113Z AUTO 00000KT 2 1/2SM BR CLR M03/M03 A2990 RMK AO2 VIS 3/4V5 FZRANO=
202303121104 SPECI KPWT 121104Z AUTO 00000KT 1 1/4SM BR CLR M03/M03 A2990 RMK AO2 FZRANO=
202303121056 METAR KPWT 121056Z AUTO 00000KT 3/4SM BR CLR M02/M02 A2991 RMK AO2 SLP136 T10221022 FZRANO=
202303121054 SPECI KPWT 121054Z AUTO 00000KT 3/4SM BR CLR M02/M02 A2991 RMK AO2 FZRANO=
202303121051 SPECI KPWT 121051Z AUTO 00000KT 1 3/4SM BR CLR M02/M02 A2991 RMK AO2 FZRANO=
202303120956 METAR KPWT 120956Z AUTO 00000KT 10SM CLR M02/M02 A2992 RMK AO2 SLP140 T10221022 FZRANO=
202303120856 METAR KPWT 120856Z AUTO 00000KT 10SM FEW065 M01/M01 A2993 RMK AO2 SLP143 T10111011 56004 FZRANO=
202303120756 METAR KPWT 120756Z AUTO 00000KT 10SM CLR M01/M01 A2993 RMK AO2 SLP143 T10111011 400781017 FZRANO=
202303120717 SPECI KPWT 120717Z AUTO 00000KT 4SM BR CLR M01/M01 A2994 RMK AO2 FZRANO=
202303120713 SPECI KPWT 120713Z AUTO 00000KT 1 1/4SM BR CLR M01/M01 A2994 RMK AO2 FZRANO=
202303120706 SPECI KPWT 120706Z AUTO 00000KT 3/4SM BR CLR M01/M01 A2994 RMK AO2 FZRANO=
202303120701 SPECI KPWT 120701Z AUTO 00000KT 1 1/2SM BR CLR M01/M01 A2994 RMK AO2 FZRANO=
202303120656 METAR KPWT 120656Z AUTO 00000KT 9SM CLR M01/M01 A2994 RMK AO2 SLP145 T10111011 FZRANO=
202303120639 SPECI KPWT 120639Z AUTO 00000KT 2 1/2SM BR CLR M01/M01 A2994 RMK AO2 FZRANO=
202303120635 SPECI KPWT 120635Z AUTO 00000KT 3/4SM BR CLR M01/M01 A2994 RMK AO2 FZRANO=
202303120628 SPECI KPWT 120628Z AUTO 00000KT 1/4SM FZFG CLR M01/M01 A2994 RMK AO2 FZRANO=
202303120621 SPECI KPWT 120621Z AUTO 00000KT 3/4SM BR CLR M01/M01 A2994 RMK AO2 VIS 1/2V5 FZRANO=
202303120619 SPECI KPWT 120619Z AUTO 00000KT 1 1/2SM BR CLR M01/M01 A2994 RMK AO2 VIS 1/2V5 FZRANO=
202303120612 SPECI KPWT 120612Z AUTO 00000KT 3SM BR CLR M01/M01 A2994 RMK AO2 FZRANO=
202303120602 SPECI KPWT 120602Z AUTO 00000KT 1 3/4SM BR CLR M01/M01 A2994 RMK AO2 FZRANO=
202303120556 METAR KPWT 120556Z AUTO 00000KT 7SM CLR M01/M01 A2994 RMK AO2 SLP147 T10061006 10067 21006 53004 FZRANO=
202303120544 SPECI KPWT 120544Z AUTO 00000KT 10SM CLR 00/00 A2995 RMK AO2 FZRANO=
202303120537 SPECI KPWT 120537Z AUTO 00000KT 2 1/2SM BR CLR 01/01 A2995 RMK AO2 FZRANO=
202303120529 SPECI KPWT 120529Z AUTO 00000KT 1 1/2SM BR CLR 00/00 A2994 RMK AO2 FZRANO=
202303120456 METAR KPWT 120456Z AUTO 00000KT 10SM CLR 02/02 A2994 RMK AO2 SLP144 T00170017 FZRANO=
202303120356 METAR KPWT 120356Z AUTO 00000KT 10SM CLR 03/03 A2993 RMK AO2 SLP142 T00330033=
202303120256 METAR KPWT 120256Z AUTO 00000KT 10SM CLR 05/04 A2993 RMK AO2 SLP144 T00500039 55000=
202303120156 METAR KPWT 120156Z AUTO 24003KT 10SM FEW080 06/04 A2993 RMK AO2 SLP142 T00560039=
202303120056 METAR KPWT 120056Z AUTO 26005KT 10SM FEW100 06/04 A2993 RMK AO2 SLP140 T00610044=
202303112356 METAR KPWT 112356Z AUTO 24006KT 10SM FEW060 06/04 A2993 RMK AO2 SLP143 60002 T00610039 10078 20044 58001=
202303112256 METAR KPWT 112256Z AUTO 26007KT 10SM FEW013 SCT043 06/04 A2994 RMK AO2 RAB13E47 SLP145 P0000 T00610044=
202303112252 SPECI KPWT 112252Z AUTO 26007KT 10SM FEW011 SCT025 SCT043 07/05 A2994 RMK AO2 RAB13E47 P0000=
202303112236 SPECI KPWT 112236Z AUTO 27007KT 10SM -RA SCT011 BKN025 BKN030 06/05 A2994 RMK AO2 RAB13 P0000=
202303112217 SPECI KPWT 112217Z AUTO 25007KT 10SM -RA BKN011 BKN014 OVC055 07/05 A2994 RMK AO2 RAB13 P0000=
202303112156 METAR KPWT 112156Z AUTO VRB06KT 10SM SCT009 BKN055 07/05 A2994 RMK AO2 RAE36 SLP144 P0000 T00670050=
202303112152 SPECI KPWT 112152Z AUTO VRB05KT 10SM FEW009 SCT050 07/05 A2994 RMK AO2 RAE36 P0000=
202303112056 METAR KPWT 112056Z AUTO 26008G24KT 9SM -RA SCT021 SCT026 BKN034 05/04 A2994 RMK AO2 RAB46 SLP147 P0001 60002 T00500039 51002=
202303112031 SPECI KPWT 112031Z AUTO 20008KT 10SM SCT016 BKN023 08/04 A2994 RMK AO2=
202303111956 METAR KPWT 111956Z AUTO 22007KT 10SM BKN012 BKN019 OVC036 07/06 A2994 RMK AO2 RAE18 SLP145 P0000 T00670056=
202303111947 SPECI KPWT 111947Z AUTO 21008KT 10SM BKN012 BKN019 BKN036 07/06 A2994 RMK AO2 RAE18 P0000=
202303111856 METAR KPWT 111856Z AUTO 22006KT 10SM -RA FEW008 SCT029 SCT035 05/04 A2994 RMK AO2 SLP145 P0001 T00500044=
202303111819 SPECI KPWT 111819Z AUTO 21009KT 10SM -RA FEW007 BKN013 OVC025 05/04 A2994 RMK AO2 P0001=
202303111756 METAR KPWT 111756Z AUTO 21008KT 10SM -RA BKN009 OVC013 05/04 A2994 RMK AO2 CIG 005V011 SLP144 P0000 60004 T00500044 10050 20033 51010=
202303111656 METAR KPWT 111656Z AUTO 19008KT 10SM -RA BKN007 04/04 A2993 RMK AO2 CIG 005V011 SLP142 P0000 T00440044=
202303111556 METAR KPWT 111556Z AUTO 20007KT 10SM -RA BKN009 OVC013 04/03 A2992 RMK AO2 CIG 005V012 SLP138 P0004 T00390033=
202303111456 METAR KPWT 111456Z AUTO 20005KT 10SM -RA OVC009 04/03 A2990 RMK AO2 RAB40 CIG 006V012 SLP133 P0000 60000 T00390033 53009=
202303111424 SPECI KPWT 111424Z AUTO 19004KT 10SM BKN007 OVC027 03/03 A2990 RMK AO2 CIG 005V013=
202303111415 SPECI KPWT 111415Z AUTO 22005KT 10SM SCT007 OVC027 03/03 A2990 RMK AO2=
202303111403 SPECI KPWT 111403Z AUTO 20005KT 10SM BKN027 BKN038 BKN046 03/03 A2989 RMK AO2=
202303111356 METAR KPWT 111356Z AUTO 19005KT 10SM FEW006 SCT029 BKN040 03/03 A2989 RMK AO2 SLP129 T00330033=
202303111314 SPECI KPWT 111314Z AUTO 20004KT 10SM FEW006 BKN035 OVC050 03/03 A2989 RMK AO2=
202303111304 SPECI KPWT 111304Z AUTO 19004KT 10SM FEW024 BKN045 OVC055 03/03 A2989 RMK AO2=
202303111256 METAR KPWT 111256Z AUTO 19005KT 10SM FEW005 BKN024 OVC055 03/03 A2988 RMK AO2 SLP126 T00330033=
202303111240 SPECI KPWT 111240Z AUTO 17007KT 10SM BKN024 BKN033 OVC045 03/03 A2988 RMK AO2=
202303111221 SPECI KPWT 111221Z AUTO 18005KT 10SM FEW003 BKN039 OVC046 03/03 A2988 RMK AO2=
202303111156 METAR KPWT 111156Z AUTO 20008KT 10SM BKN003 OVC110 03/03 A2988 RMK AO2 SLP124 60001 70007 T00330033 10044 20028 51013=
202303111149 SPECI KPWT 111149Z AUTO 19006KT 10SM BKN003 OVC110 03/03 A2988 RMK AO2=
202303111134 SPECI KPWT 111134Z AUTO 19007KT 10SM FEW003 BKN110 03/03 A2987 RMK AO2=
202303111107 SPECI KPWT 111107Z AUTO 18007KT 10SM SCT012 BKN120 03/03 A2987 RMK AO2=
202303111056 METAR KPWT 111056Z AUTO 19008KT 10SM BKN012 OVC120 03/03 A2987 RMK AO2 SLP122 T00330033=
202303111046 SPECI KPWT 111046Z AUTO 20008KT 10SM FEW009 BKN012 BKN120 03/03 A2987 RMK AO2=
202303110956 METAR KPWT 110956Z AUTO 20009KT 10SM FEW023 SCT043 OVC055 03/03 A2986 RMK AO2 RAB21E51 SLP117 P0001 T00330033=
202303110949 SPECI KPWT 110949Z AUTO 19008KT 10SM -RA FEW008 BKN043 OVC055 03/03 A2986 RMK AO2 RAB21 P0001=
202303110929 SPECI KPWT 110929Z AUTO 19011G17KT 10SM -RA FEW006 SCT011 BKN018 04/03 A2986 RMK AO2 RAB21 P0000=
202303110911 SPECI KPWT 110911Z AUTO 19008KT 10SM FEW006 SCT120 03/03 A2985 RMK AO2=
202303110856 METAR KPWT 110856Z AUTO 19007KT 10SM FEW120 03/03 A2984 RMK AO2 SLP111 T00330033 53028=
202303110756 METAR KPWT 110756Z AUTO 21010KT 10SM FEW075 04/03 A2981 RMK AO2 SLP101 T00390033 400940022=
202303110705 SPECI KPWT 110705Z AUTO 20014G18KT 10SM FEW012 04/04 A2979 RMK AO2=
202303110656 METAR KPWT 110656Z AUTO 21010KT 10SM BKN012 04/04 A2978 RMK AO2 SLP091 T00440039=
202303110639 SPECI KPWT 110639Z AUTO 20014KT 10SM BKN012 04/04 A2977 RMK AO2=
202303110616 SPECI KPWT 110616Z AUTO 19011KT 10SM SCT014 04/04 A2976 RMK AO2=
202303110603 SPECI KPWT 110603Z AUTO 20009G16KT 10SM FEW008 BKN014 04/04 A2975 RMK AO2=
202303110556 METAR KPWT 110556Z AUTO 19008KT 10SM BKN014 04/04 A2975 RMK AO2 RAB21E50 SLP082 P0001 60003 T00440044 10072 20044 51021=
202303110541 SPECI KPWT 110541Z AUTO 20008KT 10SM -RA FEW007 BKN012 OVC017 04/04 A2975 RMK AO2 RAB21 P0001=
202303110519 SPECI KPWT 110519Z AUTO 19010KT 10SM BKN014 BKN021 OVC032 04/04 A2975 RMK AO2=
202303110456 METAR KPWT 110456Z AUTO 19008KT 10SM BKN016 OVC030 04/04 A2974 RMK AO2 RAB06E51 SLP079 P0002 T00440044=
202303110413 SPECI KPWT 110413Z AUTO 19006KT 10SM -RA SCT020 BKN025 OVC045 05/03 A2973 RMK AO2 RAB06 P0000=
202303110356 METAR KPWT 110356Z AUTO 18006KT 10SM FEW023 SCT037 OVC110 05/03 A2972 RMK AO2 SLP069 T00500028=
202303110256 METAR KPWT 110256Z AUTO 25009KT 10SM FEW060 BKN080 BKN120 06/03 A2969 RMK AO2 SLP062 T00610028 51027=
202303110156 METAR KPWT 110156Z AUTO 23010KT 10SM FEW060 BKN120 07/03 A2967 RMK AO2 SLP054 T00670028=
202303110056 METAR KPWT 110056Z AUTO 22014KT 10SM BKN055 07/03 A2964 RMK AO2 SLP043 T00720028=
202303102356 METAR KPWT 102356Z AUTO 22012KT 10SM SCT038 BKN060 OVC080 08/03 A2961 RMK AO2 SLP034 T00830028 10094 20067 53032=
202303102256 METAR KPWT 102256Z AUTO 23015G19KT 10SM FEW049 09/02 A2958 RMK AO2 SLP021 T00890017=
202303102156 METAR KPWT 102156Z AUTO 24013G18KT 10SM SCT042 BKN049 09/02 A2955 RMK AO2 SLP010 T00890017=
202303102056 METAR KPWT 102056Z AUTO 24014G19KT 7SM FEW025 BKN110 08/03 A2952 RMK AO2 SLP000 T00830028 51021=
202303102052 SPECI KPWT 102052Z AUTO 22015G20KT 9SM SCT025 SCT110 08/03 A2952 RMK AO2=
202303102039 SPECI KPWT 102039Z AUTO 24013KT 7SM BKN025 BKN029 08/03 A2951 RMK AO2=
202303101956 METAR KPWT 101956Z AUTO 21010G19KT 10SM CLR 07/03 A2949 RMK AO2 SLP991 T00720028=
202303101856 METAR KPWT 101856Z AUTO 23014KT 10SM FEW020 07/03 A2945 RMK AO2 SLP979 T00670033=
202303101848 SPECI KPWT 101848Z AUTO 22011KT 10SM SCT020 07/03 A2945 RMK AO2=
202303101827 SPECI KPWT 101827Z AUTO 21012KT 10SM SCT013 SCT019 BKN024 07/04 A2944 RMK AO2=
202303101806 SPECI KPWT 101806Z AUTO 21012KT 10SM BKN013 07/04 A2944 RMK AO2=
202303101756 METAR KPWT 101756Z AUTO 22011KT 10SM SCT013 07/04 A2943 RMK AO2 SLP973 60003 T00670044 10067 20022 51014=
202303101721 SPECI KPWT 101721Z AUTO 23011KT 10SM SCT006 05/04 A2942 RMK AO2=
202303101656 METAR KPWT 101656Z AUTO 23011KT 10SM BKN006 04/03 A2942 RMK AO2 CIG 004V008 SLP967 T00390033=
202303101653 SPECI KPWT 101653Z AUTO 22009KT 10SM BKN006 BKN010 04/03 A2942 RMK AO2 CIG 003V008=
202303101556 METAR KPWT 101556Z AUTO 26006KT 10SM BKN004 OVC009 03/03 A2939 RMK AO2 CIG 002V007 SLP960 T00280028=
202303101540 SPECI KPWT 101540Z AUTO 27003KT 10SM BKN008 OVC013 03/03 A2939 RMK AO2 CIG 003V011=
202303101456 METAR KPWT 101456Z AUTO 27003KT 10SM OVC010 02/02 A2937 RMK AO2 UPE32 CIG 006V014 SLP951 P0000 60003 T00220022 53010 FZRANO=
202303101356 METAR KPWT 101356Z AUTO 06004KT 7SM UP OVC014 02/02 A2936 RMK AO2 RAE25UPB25 SLP947 P0000 T00220022 FZRANO=
202303101348 SPECI KPWT 101348Z AUTO 06003KT 9SM UP BKN014 OVC020 02/02 A2936 RMK AO2 RAE25UPB25 P0000 FZRANO=
202303101256 METAR KPWT 101256Z AUTO 06006KT 10SM -RA BKN026 02/02 A2934 RMK AO2 SLP941 P0003 T00220022 FZRANO=
202303101225 SPECI KPWT 101225Z AUTO 02006KT 10SM -RA FEW006 SCT011 OVC028 02/02 A2934 RMK AO2 P0002 FZRANO=
202303101156 METAR KPWT 101156Z AUTO 03005KT 9SM RA BKN009 BKN015 OVC019 03/02 A2934 RMK AO2 CIG 007V011 SLP941 P0010 60020 70036 T00280022 10072 20028 51002=
202303101139 SPECI KPWT 101139Z AUTO 03006KT 10SM RA BKN009 OVC013 03/02 A2934 RMK AO2 CIG 006V011 P0008=
202303101124 SPECI KPWT 101124Z AUTO 02008KT 10SM RA FEW007 OVC013 03/03 A2934 RMK AO2 P0005=
202303101116 SPECI KPWT 101116Z AUTO 03007KT 9SM RA SCT010 OVC016 03/03 A2934 RMK AO2 P0004=
202303101056 METAR KPWT 101056Z AUTO 02008KT 7SM -RA BKN014 OVC019 03/03 A2934 RMK AO2 SLP940 P0007 T00280028=
202303101051 SPECI KPWT 101051Z AUTO 02008KT 8SM -RA BKN012 OVC019 03/03 A2934 RMK AO2 P0007=
202303100956 METAR KPWT 100956Z AUTO 08012G17KT 050V110 10SM -RA SCT019 BKN026 OVC032 04/02 A2934 RMK AO2 SLP941 P0002 T00440022=
202303100856 METAR KPWT 100856Z AUTO 04011G18KT 10SM -RA BKN024 OVC028 06/01 A2935 RMK AO2 RAB03 SLP945 P0001 60001 T00560011 56028=
202303100841 SPECI KPWT 100841Z AUTO 04012G18KT 360V060 10SM -RA BKN026 OVC033 06/00 A2935 RMK AO2 RAB03 P0001=
202303100756 METAR KPWT 100756Z AUTO 04009KT 10SM BKN041 BKN049 06/M02 A2935 RMK AO2 SLP946 T00611017 400671011=
202303100656 METAR KPWT 100656Z AUTO 04008KT 10SM SCT048 06/M01 A2938 RMK AO2 SLP955 T00611011=
202303100556 METAR KPWT 100556Z AUTO 04007KT 10SM CLR 06/M01 A2943 RMK AO2 SLP974 60000 T00561006 10061 20044 58046=
202303100456 METAR KPWT 100456Z AUTO 04008KT 10SM CLR 06/00 A2948 RMK AO2 SLP988 T00560000=
202303100356 METAR KPWT 100356Z AUTO 04009KT 10SM CLR 06/00 A2953 RMK AO2 SLP005 T00560000=
202303100256 METAR KPWT 100256Z AUTO 06005KT 10SM CLR 06/01 A2957 RMK AO2 SLP020 60000 T00560006 56043=
202303100156 METAR KPWT 100156Z AUTO 03008KT 10SM CLR 06/01 A2962 RMK AO2 SLP035 T00560006=
202303100056 METAR KPWT 100056Z AUTO 02007KT 10SM CLR 05/03 A2965 RMK AO2 RAE47 SLP048 P0000 T00500028=
202303092356 METAR KPWT 092356Z AUTO 30005KT 10SM -RA CLR 04/03 A2970 RMK AO2 SLP064 P0000 60004 T00440033 10056 20022 58034=
202303092256 METAR KPWT 092256Z AUTO VRB03KT 10SM -RA CLR 05/03 A2975 RMK AO2 RAB52 SLP079 P0000 T00500033=
202303092156 METAR KPWT 092156Z AUTO 24005KT 10SM CLR 04/04 A2978 RMK AO2 SLP092 T00440039=
202303092056 METAR KPWT 092056Z AUTO 36003KT 10SM FEW050 05/03 A2980 RMK AO2 SLP099 60004 T00500033 58036=
202303091956 METAR KPWT 091956Z AUTO 01006KT 10SM CLR 04/03 A2983 RMK AO2 RAE52 SLP110 P0000 T00440033=
202303091856 METAR KPWT 091856Z AUTO 00000KT 10SM -RA CLR 03/03 A2989 RMK AO2 SLP129 P0004 T00330028=
202303091756 METAR KPWT 091756Z AUTO 00000KT 10SM -RA CLR 03/02 A2991 RMK AO2 SLP136 P0004 60012 T00280022 10028 20006 56007=
202303091656 METAR KPWT 091656Z AUTO 00000KT 10SM -RA CLR 02/02 A2991 RMK AO2 RAB06 SLP137 P0001 T00220022 FZRANO=
202303091556 METAR KPWT 091556Z AUTO 03003KT 10SM SCT022 02/02 A2992 RMK AO2 RAE1459B25E44UPB1459E25 SLP139 P0002 T00170017 FZRANO=
202303091456 METAR KPWT 091456Z AUTO 01004KT 6SM -RA BR FEW016 01/01 A2993 RMK AO2 SLP142 P0005 60005 T00110006 57007 FZRANO=
202303091454 SPECI KPWT 091454Z AUTO 01004KT 5SM -RA BR SCT016 01/01 A2993 RMK AO2 P0005 FZRANO=
202303091356 METAR KPWT 091356Z AUTO 00000KT 10SM -RA BKN020 BKN025 02/02 A2995 RMK AO2 RAB01 SLP148 P0000 T00170017 FZRANO=
202303091352 SPECI KPWT 091352Z AUTO 19003KT 10SM -RA BKN022 02/02 A2995 RMK AO2 RAB01 P0000 FZRANO=
202303091256 METAR KPWT 091256Z AUTO 00000KT 10SM CLR 01/01 A2995 RMK AO2 SLP148 T00110011 FZRANO=
202303091156 METAR KPWT 091156Z AUTO 00000KT 10SM CLR 01/01 A2996 RMK AO2 SLP150 T00060006 10006 21017 58010 FZRANO=
202303091056 METAR KPWT 091056Z AUTO 00000KT 10SM OVC046 01/01 A2997 RMK AO2 SLP156 T00060006 FZRANO=
202303090956 METAR KPWT 090956Z AUTO 00000KT 10SM OVC046 M01/M01 A2998 RMK AO2 SLP160 T10061006 FZRANO=
202303090856 METAR KPWT 090856Z AUTO 00000KT 10SM SCT039 M01/M01 A2999 RMK AO2 SLP161 T10061006 58004 FZRANO=
202303090756 METAR KPWT 090756Z AUTO 00000KT 10SM OVC039 M01/M01 A2999 RMK AO2 SLP163 T10111011 400831022 FZRANO=
202303090656 METAR KPWT 090656Z AUTO 00000KT 8SM FEW037 M02/M02 A3000 RMK AO2 SLP166 T10171017 FZRANO=
202303090556 METAR KPWT 090556Z AUTO 00000KT 10SM CLR M01/M01 A3000 RMK AO2 SLP165 T10061011 10072 21006 51006 FZRANO=
202303090456 METAR KPWT 090456Z AUTO 00000KT 10SM CLR 01/01 A2999 RMK AO2 SLP163 T00110006 FZRANO=
202303090356 METAR KPWT 090356Z AUTO 00000KT 10SM FEW040 03/02 A2999 RMK AO2 SLP162 T00280017=
202303090256 METAR KPWT 090256Z AUTO 00000KT 10SM SCT110 04/02 A2998 RMK AO2 SLP159 T00390017 53009=
202303090156 METAR KPWT 090156Z AUTO 16004KT 10SM CLR 05/02 A2996 RMK AO2 SLP154 T00500017=
202303090056 METAR KPWT 090056Z AUTO 17005KT 10SM CLR 07/01 A2995 RMK AO2 SLP150 T00670006=
202303082356 METAR KPWT 082356Z AUTO VRB04KT 10SM CLR 07/M01 A2995 RMK AO2 SLP148 T00721011 10083 20033 56001=
202303082256 METAR KPWT 082256Z AUTO 19006KT 10SM FEW040 08/M02 A2995 RMK AO2 SLP148 T00781017=
202303082156 METAR KPWT 082156Z AUTO VRB03KT 10SM FEW031 07/01 A2994 RMK AO2 SLP147 T00720011=
202303082056 METAR KPWT 082056Z AUTO 22004KT 10SM FEW021 07/02 A2995 RMK AO2 SLP149 T00670017 50001=
202303082029 SPECI KPWT 082029Z AUTO 22006KT 10SM SCT019 SCT025 07/02 A2996 RMK AO2=
202303081956 METAR KPWT 081956Z AUTO 23004KT 10SM BKN017 06/02 A2996 RMK AO2 SLP152 T00560022=
202303081938 SPECI KPWT 081938Z AUTO VRB06KT 10SM OVC015 06/03 A2996 RMK AO2=
202303081914 SPECI KPWT 081914Z AUTO 23006KT 10SM OVC011 04/03 A2995 RMK AO2=
202303081856 METAR KPWT 081856Z AUTO 21005KT 10SM OVC009 04/03 A2995 RMK AO2 CIG 007V012 SLP150 T00440033=
202303081809 SPECI KPWT 081809Z AUTO 25004KT 10SM BKN007 BKN032 04/03 A2995 RMK AO2 CIG 004V010=
202303081756 METAR KPWT 081756Z AUTO 22004KT 10SM SCT004 BKN032 03/03 A2995 RMK AO2 RAB00E30 SLP149 P0000 60000 T00330033 10044 21011 51005=
202303081739 SPECI KPWT 081739Z AUTO VRB03KT 10SM SCT002 OVC032 04/04 A2995 RMK AO2 RAB00E30 P0000=
202303081729 SPECI KPWT 081729Z AUTO 25003KT 10SM -RA BKN002 OVC034 04/04 A2995 RMK AO2 RAB00 P0000=
202303081710 SPECI KPWT 081710Z AUTO 33003KT 2SM -RA BR OVC002 03/03 A2995 RMK AO2 VIS 3/4V5 RAB00 P0000=
202303081656 METAR KPWT 081656Z AUTO 00000KT 1SM BR OVC002 02/02 A2995 RMK AO2 RAB27E44 SLP149 P0000 T00220022 FZRANO=
202303081641 SPECI KPWT 081641Z AUTO 23003KT 1 1/4SM -RA BR OVC002 02/02 A2995 RMK AO2 RAB27 P0000 FZRANO=
202303081613 SPECI KPWT 081613Z AUTO 22004KT 3/4SM BR OVC002 02/02 A2995 RMK AO2 FZRANO=
202303081606 SPECI KPWT 081606Z AUTO 24005KT 1/2SM FG OVC002 01/01 A2995 RMK AO2 FZRANO=
202303081556 METAR KPWT 081556Z AUTO 21003KT 1/4SM FG OVC002 01/01 A2995 RMK AO2 SLP149 T00110011 FZRANO=
202303081456 METAR KPWT 081456Z AUTO 29003KT 1/4SM FG OVC002 01/01 A2994 RMK AO2 SLP145 T00060006 51004 FZRANO=
202303081415 SPECI KPWT 081415Z AUTO 00000KT 1/4SM FG OVC002 00/00 A2994 RMK AO2 FZRANO=
202303081407 SPECI KPWT 081407Z AUTO 00000KT 1/2SM FG OVC002 00/00 A2994 RMK AO2 FZRANO=
202303081356 METAR KPWT 081356Z AUTO 00000KT 3/4SM BR OVC002 00/00 A2993 RMK AO2 SLP143 T00000000 FZRANO=
202303081349 SPECI KPWT 081349Z AUTO 00000KT 1SM BR OVC002 00/00 A2993 RMK AO2 FZRANO=
202303081332 SPECI KPWT 081332Z AUTO 00000KT 1 3/4SM BR OVC002 M01/M01 A2993 RMK AO2 FZRANO=
202303081328 SPECI KPWT 081328Z AUTO 00000KT 4SM BR OVC002 M01/M01 A2993 RMK AO2 FZRANO=
202303081319 SPECI KPWT 081319Z AUTO 00000KT 10SM BKN004 OVC100 M01/M01 A2993 RMK AO2 FZRANO=
202303081310 SPECI KPWT 081310Z AUTO 00000KT 10SM SCT004 BKN100 M01/M01 A2993 RMK AO2 FZRANO=
202303081256 METAR KPWT 081256Z AUTO 00000KT 10SM BKN100 M01/M01 A2993 RMK AO2 SLP143 T10111011 FZRANO=
202303081156 METAR KPWT 081156Z AUTO 00000KT 10SM SCT100 00/00 A2992 RMK AO2 SLP138 70009 T00000000 10000 21022 56009 FZRANO=
202303081056 METAR KPWT 081056Z AUTO 00000KT 10SM BKN095 00/00 A2993 RMK AO2 SLP142 T00000000 FZRANO=
202303080956 METAR KPWT 080956Z AUTO 12005KT 10SM SCT090 M01/M01 A2994 RMK AO2 SLP146 T10111011 FZRANO=
202303080856 METAR KPWT 080856Z AUTO 00000KT 10SM FEW080 M01/M01 A2995 RMK AO2 SLP148 T10111011 56005 FZRANO=
202303080851 SPECI KPWT 080851Z AUTO 16003KT 2 1/2SM BR FEW080 M02/M02 A2995 RMK AO2 FZRANO=
202303080831 SPECI KPWT 080831Z AUTO 00000KT 1 3/4SM BR CLR M02/M02 A2995 RMK AO2 FZRANO=
202303080756 METAR KPWT 080756Z AUTO 00000KT 10SM FEW065 M01/M01 A2996 RMK AO2 SLP150 T10111011 401001017 FZRANO=
202303080656 METAR KPWT 080656Z AUTO 00000KT 10SM FEW065 M01/M01 A2996 RMK AO2 SLP154 T10061006 FZRANO=
202303080556 METAR KPWT 080556Z AUTO 00000KT 10SM SCT120 00/00 A2998 RMK AO2 SLP159 60005 T00000000 10072 20000 58003 FZRANO=
202303080456 METAR KPWT 080456Z AUTO 00000KT 10SM SCT046 BKN110 02/02 A2999 RMK AO2 SLP161 T00170017 FZRANO=
202303080356 METAR KPWT 080356Z AUTO 31003KT 10SM CLR 03/02 A2999 RMK AO2 RAE0258 SLP161 P0000 T00330022=
202303080256 METAR KPWT 080256Z AUTO 00000KT 10SM -RA FEW050 04/03 A2999 RMK AO2 SLP163 P0001 60005 T00390033 50003=
202303080219 SPECI KPWT 080219Z AUTO 30005KT 10SM -RA SCT026 BKN039 04/04 A2999 RMK AO2 P0001=
202303080156 METAR KPWT 080156Z AUTO 26005KT 10SM -RA OVC028 04/03 A3000 RMK AO2 SLP165 P0003 T00440033=
202303080111 SPECI KPWT 080111Z AUTO 20007KT 10SM -RA SCT025 BKN034 OVC041 05/03 A2999 RMK AO2 P0000=
202303080056 METAR KPWT 080056Z AUTO 00000KT 9SM -RA BKN028 OVC036 06/03 A2999 RMK AO2 RAB01 SLP163 P0001 T00560028=
202303080047 SPECI KPWT 080047Z AUTO 19005KT 10SM -RA BKN028 OVC036 06/03 A2999 RMK AO2 RAB01 P0001=
202303072356 METAR KPWT 072356Z AUTO 33003KT 10SM BKN049 OVC060 07/04 A2998 RMK AO2 RAB15E39 SLP160 P0000 60000 T00720044 10100 20061 56013=
202303072256 METAR KPWT 072256Z AUTO 00000KT 10SM FEW050 SCT065 BKN085 08/00 A2999 RMK AO2 SLP162 T00830000=
202303072156 METAR KPWT 072156Z AUTO 25005KT 10SM FEW042 09/02 A3000 RMK AO2 SLP165 T00940017=
202303072056 METAR KPWT 072056Z AUTO 00000KT 10SM FEW042 09/01 A3002 RMK AO2 SLP172 T00890011 58007=
202303071956 METAR KPWT 071956Z AUTO 29005KT 10SM CLR 08/03 A3003 RMK AO2 SLP178 T00830033=
202303071856 METAR KPWT 071856Z AUTO 20003KT 10SM CLR 07/03 A3004 RMK AO2 SLP182 T00720028=
202303071756 METAR KPWT 071756Z AUTO 00000KT 10SM CLR 06/03 A3004 RMK AO2 SLP180 60004 T00610033 10061 20000 50001=
202303071656 METAR KPWT 071656Z AUTO 00000KT 10SM SCT080 04/03 A3005 RMK AO2 SLP180 T00390033=
202303071556 METAR KPWT 071556Z AUTO 00000KT 10SM SCT060 03/03 A3005 RMK AO2 SLP182 T00280028=
202303071456 METAR KPWT 071456Z AUTO 00000KT 10SM FEW075 00/00 A3004 RMK AO2 SLP179 P0001 60004 T00000000 56005 FZRANO=
202303071356 METAR KPWT 071356Z AUTO 00000KT 10SM CLR 01/01 A3004 RMK AO2 RAE24 SLP180 P0000 T00060006 FZRANO=
202303071256 METAR KPWT 071256Z AUTO 00000KT 10SM -RA CLR 01/01 A3005 RMK AO2 SLP182 P0003 T00110011 FZRANO=
202303071203 SPECI KPWT 071203Z AUTO 00000KT 10SM -RA SCT019 01/01 A3005 RMK AO2 P0000 FZRANO=
202303071156 METAR KPWT 071156Z AUTO 00000KT 10SM -RA SCT019 BKN024 01/01 A3005 RMK AO2 SLP185 P0006 60020 70021 T00110011 10039 20000 58001 FZRANO=
202303071056 METAR KPWT 071056Z AUTO 22003KT 10SM RA FEW005 SCT011 OVC019 01/01 A3006 RMK AO2 SLP187 P0011 T00110011 FZRANO=
202303071052 SPECI KPWT 071052Z AUTO 22003KT 10SM -RA FEW005 SCT011 OVC019 02/02 A3006 RMK AO2 P0010 FZRANO=
202303071018 SPECI KPWT 071018Z AUTO 19004KT 10SM RA FEW011 OVC023 02/02 A3006 RMK AO2 P0003 FZRANO=
202303070956 METAR KPWT 070956Z AUTO 00000KT 8SM -RA OVC013 02/02 A3006 RMK AO2 RAB15 SLP185 P0002 T00220022 FZRANO=
202303070949 SPECI KPWT 070949Z AUTO 17003KT 10SM -RA BKN013 BKN026 OVC031 02/02 A3006 RMK AO2 RAB15 P0002 FZRANO=
202303070936 SPECI KPWT 070936Z AUTO VRB03KT 6SM RA BR SCT016 BKN029 OVC046 01/01 A3005 RMK AO2 RAB15 P0001 FZRANO=
202303070856 METAR KPWT 070856Z AUTO 00000KT 10SM BKN042 OVC050 01/01 A3005 RMK AO2 SLP180 60001 T00060006 53002 FZRANO=
202303070756 METAR KPWT 070756Z AUTO 00000KT 5SM BR FEW055 00/00 A3004 RMK AO2 SLP179 T00000000 400831022 FZRANO=
202303070656 METAR KPWT 070656Z AUTO 00000KT 10SM FEW036 02/02 A3004 RMK AO2 RAE08 SLP179 P0001 T00170017 FZRANO=
202303070556 METAR KPWT 070556Z AUTO 18004KT 10SM -RA BKN030 04/03 A3004 RMK AO2 SLP178 P0001 60001 T00390028 10083 20011 53011=
202303070504 SPECI KPWT 070504Z AUTO 21006KT 10SM -RA BKN026 BKN034 04/03 A3003 RMK AO2 P0000=
202303070456 METAR KPWT 070456Z AUTO 22005KT 10SM -RA FEW023 SCT028 BKN034 03/03 A3003 RMK AO2 RAB0358E08B36UPB45E48 SLP175 P0000 T00330028=
202303070356 METAR KPWT 070356Z AUTO 00000KT 10SM FEW046 02/01 A3001 RMK AO2 SLP171 T00170011 FZRANO=
202303070256 METAR KPWT 070256Z AUTO 27004KT 10SM CLR 03/01 A3001 RMK AO2 SLP169 T00280011 53007=
202303070156 METAR KPWT 070156Z AUTO 20007KT 10SM FEW050 06/01 A2999 RMK AO2 SLP165 T00560011=
202303070056 METAR KPWT 070056Z AUTO 20012KT 10SM FEW070 07/02 A2999 RMK AO2 SLP161 T00720017=
202303062356 METAR KPWT 062356Z AUTO 21013G17KT 10SM SCT037 BKN080 08/02 A2999 RMK AO2 RAB24E36 SLP160 P0000 60000 T00780017 10083 20033 56002=
202303062256 METAR KPWT 062256Z AUTO 21010KT 10SM FEW029 08/02 A2999 RMK AO2 RAE46 SLP160 P0000 T00780022=
202303062156 METAR KPWT 062156Z AUTO 17005KT 10SM -RA BKN032 BKN042 08/02 A2999 RMK AO2 RAB55 SLP161 P0000 T00780022=
202303062056 METAR KPWT 062056Z AUTO 21007KT 10SM SCT024 BKN032 OVC041 07/02 A2999 RMK AO2 SLP162 60000 T00720022 58001=
202303061956 METAR KPWT 061956Z AUTO 00000KT 10SM OVC022 06/03 A3000 RMK AO2 SLP165 T00560028=
202303061856 METAR KPWT 061856Z AUTO 20003KT 10SM BKN015 BKN055 BKN070 05/03 A3000 RMK AO2 RAE06 SLP165 P0000 T00500028=
202303061756 METAR KPWT 061756Z AUTO 00000KT 8SM -RA BKN037 OVC045 04/04 A3000 RMK AO2 RAB53 SLP164 P0000 60000 T00390039 10044 21022 51013=
202303061656 METAR KPWT 061656Z AUTO 00000KT 10SM BKN039 OVC060 02/02 A2999 RMK AO2 SLP161 T00220022 FZRANO=
202303061556 METAR KPWT 061556Z AUTO VRB03KT 10SM OVC041 01/01 A2997 RMK AO2 SLP157 T00060006 FZRANO=
202303061456 METAR KPWT 061456Z AUTO 00000KT 10SM BKN045 OVC055 M01/M01 A2996 RMK AO2 SLP152 T10061006 53005 FZRANO=
202303061356 METAR KPWT 061356Z AUTO 00000KT 10SM FEW043 SCT070 M01/M01 A2995 RMK AO2 SLP149 T10111011 FZRANO=
202303061256 METAR KPWT 061256Z AUTO 00000KT 10SM SCT043 M02/M02 A2994 RMK AO2 SLP146 T10171017 FZRANO=
202303061248 SPECI KPWT 061248Z AUTO 00000KT 3SM BR FEW043 M02/M02 A2994 RMK AO2 FZRANO=
202303061240 SPECI KPWT 061240Z AUTO 00000KT 1 3/4SM BR FEW039 M02/M02 A2994 RMK AO2 FZRANO=
202303061156 METAR KPWT 061156Z AUTO 00000KT 3SM BR BKN039 BKN070 M02/M02 A2994 RMK AO2 SLP145 60001 70008 T10171017 10028 21022 51005 FZRANO=
202303061056 METAR KPWT 061056Z AUTO 00000KT 9SM CLR M02/M02 A2994 RMK AO2 SLP144 T10221022 FZRANO=
202303061022 SPECI KPWT 061022Z AUTO 00000KT 4SM BR CLR M01/M01 A2994 RMK AO2 FZRANO=
202303061017 SPECI KPWT 061017Z AUTO 00000KT 1 1/4SM BR CLR M01/M01 A2994 RMK AO2 FZRANO=
202303061007 SPECI KPWT 061007Z AUTO 00000KT 3/4SM BR CLR M02/M02 A2994 RMK AO2 FZRANO=
202303061002 SPECI KPWT 061002Z AUTO 00000KT 1 3/4SM BR CLR M02/M02 A2994 RMK AO2 FZRANO=
202303060956 METAR KPWT 060956Z AUTO 00000KT 3SM BR CLR M02/M02 A2994 RMK AO2 SLP145 T10171017 FZRANO=
202303060951 SPECI KPWT 060951Z AUTO 00000KT 1SM BR CLR M01/M01 A2994 RMK AO2 FZRANO=
202303060947 SPECI KPWT 060947Z AUTO 00000KT 1/2SM FZFG CLR M01/M01 A2994 RMK AO2 FZRANO=
202303060939 SPECI KPWT 060939Z AUTO 00000KT 3/4SM BR CLR M01/M01 A2994 RMK AO2 FZRANO=
202303060930 SPECI KPWT 060930Z AUTO 00000KT 1 1/4SM BR CLR M01/M01 A2993 RMK AO2 FZRANO=
202303060915 SPECI KPWT 060915Z AUTO 00000KT 3/4SM BR CLR M01/M01 A2993 RMK AO2 FZRANO=
202303060907 SPECI KPWT 060907Z AUTO 14003KT 1 3/4SM BR FEW019 M01/M01 A2993 RMK AO2 FZRANO=
202303060856 METAR KPWT 060856Z AUTO 14003KT 4SM BR FEW019 00/00 A2993 RMK AO2 SLP140 60001 T00000000 53015 FZRANO=
202303060842 SPECI KPWT 060842Z AUTO 00000KT 3SM BR SCT019 00/00 A2992 RMK AO2 FZRANO=
202303060835 SPECI KPWT 060835Z AUTO 00000KT 1 3/4SM BR SCT017 01/01 A2992 RMK AO2 FZRANO=
202303060805 SPECI KPWT 060805Z AUTO 00000KT 7SM BKN019 BKN031 02/02 A2991 RMK AO2 FZRANO=
202303060756 METAR KPWT 060756Z AUTO 00000KT 8SM SCT021 BKN033 02/02 A2991 RMK AO2 SLP135 T00220022 400831033 FZRANO=
202303060741 SPECI KPWT 060741Z AUTO 00000KT 10SM FEW003 OVC033 02/02 A2990 RMK AO2 FZRANO=
202303060734 SPECI KPWT 060734Z AUTO 14004KT 10SM FEW003 BKN015 OVC033 02/02 A2990 RMK AO2 FZRANO=
202303060726 SPECI KPWT 060726Z AUTO 00000KT 10SM FEW003 SCT015 OVC035 02/02 A2990 RMK AO2 FZRANO=
202303060656 METAR KPWT 060656Z AUTO 00000KT 10SM SCT003 OVC017 02/02 A2990 RMK AO2 RAE12 SLP131 P0001 T00220022 FZRANO=
202303060614 SPECI KPWT 060614Z AUTO 00000KT 10SM SCT008 SCT014 OVC019 02/02 A2989 RMK AO2 RAE12 P0001 FZRANO=
202303060603 SPECI KPWT 060603Z AUTO 00000KT 10SM -RA SCT008 BKN011 OVC019 02/02 A2988 RMK AO2 P0001 FZRANO=
202303060556 METAR KPWT 060556Z AUTO 00000KT 4SM -RA BR SCT013 OVC019 02/02 A2988 RMK AO2 RAE14B30UPB27E30 SLP125 P0006 60007 T00220017 10072 20022 53018 FZRANO=
202303060522 SPECI KPWT 060522Z AUTO 00000KT 10SM BKN021 BKN045 03/03 A2987 RMK AO2 RAE14 P0000=
202303060512 SPECI KPWT 060512Z AUTO 14004KT 10SM -RA FEW021 SCT026 BKN043 03/03 A2987 RMK AO2 P0000=
202303060456 METAR KPWT 060456Z AUTO 12003KT 9SM -RA BKN026 BKN039 OVC046 03/03 A2986 RMK AO2 UPB20E25 SLP119 P0001 T00330028=
202303060446 SPECI KPWT 060446Z AUTO 00000KT 10SM BKN028 OVC041 03/03 A2986 RMK AO2 RAE44UPB20E25 P0001=
202303060356 METAR KPWT 060356Z AUTO 07003KT 10SM -RA FEW020 SCT025 SCT031 03/03 A2985 RMK AO2 RAB22 SLP115 P0000 T00330028=
202303060339 SPECI KPWT 060339Z AUTO 13003KT 9SM -RA BKN025 OVC033 03/02 A2985 RMK AO2 RAB22 P0000=
202303060256 METAR KPWT 060256Z AUTO 00000KT 10SM CLR 04/02 A2983 RMK AO2 RAE07 SLP109 P0000 60000 T00440017 53025=
202303060156 METAR KPWT 060156Z AUTO 24008KT 10SM -RA CLR 05/02 A2981 RMK AO2 RAB54 SLP101 P0000 T00500017=
202303060056 METAR KPWT 060056Z AUTO 00000KT 10SM FEW055 07/M01 A2978 RMK AO2 SLP089 T00721006=
202303052356 METAR KPWT 052356Z AUTO 07004KT 10SM CLR 07/00 A2975 RMK AO2 SLP082 T00720000 10083 20050 53009=
202303052256 METAR KPWT 052256Z AUTO 04005KT 10SM CLR 08/M01 A2974 RMK AO2 SLP079 T00781006=
202303052156 METAR KPWT 052156Z AUTO 02005KT 10SM CLR 08/01 A2973 RMK AO2 SLP075 T00780006=
202303052056 METAR KPWT 052056Z AUTO 04006KT 10SM CLR 07/01 A2973 RMK AO2 SLP074 T00670006 53004=
202303051956 METAR KPWT 051956Z AUTO 01007KT 10SM CLR 07/02 A2972 RMK AO2 SLP072 T00720017=
202303051856 METAR KPWT 051856Z AUTO 03005KT 10SM CLR 06/02 A2972 RMK AO2 SLP071 T00610017=
202303051756 METAR KPWT 051756Z AUTO 00000KT 10SM CLR 05/01 A2972 RMK AO2 SLP070 T00500011 10050 21022 51010=
202303051656 METAR KPWT 051656Z AUTO 00000KT 10SM CLR 03/03 A2971 RMK AO2 SLP069 T00330033=
202303051556 METAR KPWT 051556Z AUTO 00000KT 10SM CLR 00/00 A2970 RMK AO2 SLP064 T00000000 FZRANO=
202303051456 METAR KPWT 051456Z AUTO 00000KT 10SM SCT060 M02/M02 A2968 RMK AO2 SLP061 T10221022 51011 FZRANO=
202303051356 METAR KPWT 051356Z AUTO 05003KT 9SM FEW026 BKN050 M01/M01 A2968 RMK AO2 SLP057 T10111011 FZRANO=
202303051348 SPECI KPWT 051348Z AUTO 01003KT 10SM FEW024 OVC050 M01/M01 A2968 RMK AO2 FZRANO=
202303051304 SPECI KPWT 051304Z AUTO 00000KT 10SM BKN022 BKN049 M01/M01 A2968 RMK AO2 FZRANO=
202303051256 METAR KPWT 051256Z AUTO 00000KT 10SM SCT020 BKN034 OVC049 M01/M01 A2967 RMK AO2 SLP055 T10111011 FZRANO=
202303051156 METAR KPWT 051156Z AUTO 00000KT 10SM FEW049 M01/M01 A2965 RMK AO2 SLP048 6//// 7//// T10061006 10000 21033 53002 FZRANO=
202303051056 METAR KPWT 051056Z AUTO 21003KT 10SM SCT047 M03/M03 A2964 RMK AO2 SLP047 T10281028 FZRANO=
202303051031 SPECI KPWT 051031Z AUTO 21004KT 3SM BR CLR M03/M03 A2964 RMK AO2 FZRANO=
202303051022 SPECI KPWT 051022Z AUTO 23003KT 1 3/4SM BR FEW060 M03/M03 A2964 RMK AO2 VIS 1/2V5 FZRANO=
202303050956 METAR KPWT 050956Z AUTO 00000KT 10SM BKN060 M02/M02 A2965 RMK AO2 SLP047 T10221022 FZRANO=
202303050943 SPECI KPWT 050943Z AUTO 00000KT 3SM BR CLR M02/M02 A2965 RMK AO2 FZRANO=
202303050938 SPECI KPWT 050938Z AUTO 00000KT 1 3/4SM BR CLR M02/M02 A2965 RMK AO2 VIS 3/4V5 FZRANO=
202303050924 SPECI KPWT 050924Z AUTO 00000KT 3SM BR CLR M02/M02 A2965 RMK AO2 FZRANO=
202303050914 SPECI KPWT 050914Z AUTO 00000KT 2 1/2SM BR CLR M02/M02 A2965 RMK AO2 VIS 3/4V5 FZRANO=
202303050903 SPECI KPWT 050903Z AUTO 00000KT 6SM BR CLR M02/M02 A2965 RMK AO2 FZRANO=
202303050856 METAR KPWT 050856Z AUTO 00000KT 2 1/2SM BR FEW049 M03/M03 A2965 RMK AO2 SLP047 T10281028 51012 FZRANO=
202303050841 SPECI KPWT 050841Z AUTO 00000KT 2 1/2SM BR FEW049 M03/M03 A2964 RMK AO2 VIS 3/4V5 FZRANO=
202303050822 SPECI KPWT 050822Z AUTO 00000KT 3SM BR FEW049 M02/M02 A2964 RMK AO2 FZRANO=
202303050812 SPECI KPWT 050812Z AUTO 00000KT 1 3/4SM BR FEW049 M02/M02 A2964 RMK AO2 VIS 3/4V5 FZRANO=
202303050756 METAR KPWT 050756Z AUTO 00000KT 10SM CLR M02/M02 A2964 RMK AO2 SLP045 T10221022 400391028 FZRANO=
202303050736 SPECI KPWT 050736Z AUTO 00000KT 10SM CLR M02/M02 A2964 RMK AO2 FZRANO=
202303050727 SPECI KPWT 050727Z AUTO 00000KT 2SM BR CLR M02/M02 A2963 RMK AO2 VIS 3/4V5 FZRANO=
202303050656 METAR KPWT 050656Z AUTO 00000KT 10SM CLR M02/M02 A2963 RMK AO2 SLP041 T10171017 FZRANO=
202303050556 METAR KPWT 050556Z AUTO 16003KT 10SM CLR M01/M01 A2961 RMK AO2 SLP035 60004 T10111011 10039 21011 51023 FZRANO=
202303050456 METAR KPWT 050456Z AUTO 00000KT 10SM CLR 01/00 A2959 RMK AO2 SLP028 T00060000 FZRANO=
202303050356 METAR KPWT 050356Z AUTO 18004KT 10SM OVC041 02/02 A2957 RMK AO2 RAE02 SLP020 P0000 T00220022 FZRANO=
202303050256 METAR KPWT 050256Z AUTO VRB06KT 10SM -RA CLR 03/03 A2954 RMK AO2 RAB03 SLP010 P0002 60004 T00280028 53027=
202303050244 SPECI KPWT 050244Z AUTO 17007KT 10SM -RA FEW015 SCT031 03/03 A2954 RMK AO2 RAB03 P0002=
202303050217 SPECI KPWT 050217Z AUTO 19008KT 10SM -RA BKN017 BKN028 BKN050 03/03 A2953 RMK AO2 RAB03 P0001=
202303050156 METAR KPWT 050156Z AUTO 20003KT 10SM FEW036 SCT055 03/03 A2951 RMK AO2 RAE35 SLP999 P0001 T00330028=
202303050056 METAR KPWT 050056Z AUTO 25005KT 10SM -RA FEW025 BKN036 OVC047 04/04 A2948 RMK AO2 RAB2357 SLP988 P0001 T00390039=
202303042356 METAR KPWT 042356Z AUTO 07004KT 10SM OVC042 03/03 A2946 RMK AO2 RAE46 SLP981 P0000 60020 T00330033 10039 20006 52001=
202303042256 METAR KPWT 042256Z AUTO 06003KT 10SM -RA OVC039 03/03 A2946 RMK AO2 RAB51 SLP983 P0000 T00330033=
202303042156 METAR KPWT 042156Z AUTO 35003KT 10SM OVC041 04/03 A2945 RMK AO2 RAE45 SLP979 P0004 T00390033=
202303042147 SPECI KPWT 042147Z AUTO 00000KT 10SM SCT015 OVC041 03/03 A2945 RMK AO2 RAE45 P0004=
202303042056 METAR KPWT 042056Z AUTO VRB06KT 6SM -RA BR OVC019 03/02 A2946 RMK AO2 SLP981 P0004 60016 T00330022 55001=
202303042036 SPECI KPWT 042036Z AUTO 20003KT 9SM -RA BKN020 03/02 A2946 RMK AO2 P0001=
202303042017 SPECI KPWT 042017Z AUTO 00000KT 10SM -RA FEW022 SCT026 03/02 A2945 RMK AO2 P0001=
202303041956 METAR KPWT 041956Z AUTO 06004KT 10SM -RA SCT020 BKN027 02/02 A2945 RMK AO2 UPB15E22 SLP980 P0004 T00220022 FZRANO=
202303041856 METAR KPWT 041856Z AUTO 04007KT 10SM -RA FEW013 BKN022 OVC026 01/01 A2945 RMK AO2 UPB15E27B48E55 SLP980 P0008 T00110011 FZRANO=
202303041756 METAR KPWT 041756Z AUTO 05007KT 10SM -RA FEW018 BKN024 BKN033 01/01 A2946 RMK AO2 RAB42SNE42 SLP982 P0008 60037 T00060006 10017 20000 56017 FZRANO=
202303041735 SPECI KPWT 041735Z AUTO 04007KT 8SM -SN SCT004 SCT010 OVC024 01/01 A2946 RMK AO2 P0006 FZRANO=
202303041727 SPECI KPWT 041727Z AUTO 04006KT 3SM -SN BR BKN004 BKN010 OVC024 01/01 A2946 RMK AO2 P0004 FZRANO=
202303041723 SPECI KPWT 041723Z AUTO 04006KT 1 3/4SM -SN BR BKN004 BKN007 OVC021 01/01 A2946 RMK AO2 P0003 FZRANO=
202303041711 SPECI KPWT 041711Z AUTO 03006KT 1 1/4SM -SN BR SCT004 BKN008 OVC018 01/01 A2947 RMK AO2 CIG 007V011 P0002 FZRANO=
202303041704 SPECI KPWT 041704Z AUTO 04006KT 2 1/2SM -SN BR SCT004 BKN008 OVC018 01/01 A2947 RMK AO2 VIS 1V5 CIG 007V011 P0001 FZRANO=
202303041700 SPECI KPWT 041700Z AUTO 04006KT 3SM -SN BR BKN004 BKN018 01/01 A2947 RMK AO2 CIG 003V010 P0001 FZRANO=
202303041656 METAR KPWT 041656Z AUTO 04006KT 2SM -SN BR SCT004 BKN009 BKN018 01/01 A2947 RMK AO2 VIS 1 1/4V5 CIG 007V011 SLP987 P0005 T00060006 FZRANO=
202303041643 SPECI KPWT 041643Z AUTO 04006KT 1SM -SN BKN004 OVC011 00/ A2947 RMK AO2 CIG 003V010 P0002 FZRANO=
202303041635 SPECI KPWT 041635Z AUTO 04006KT 3/4SM -SN BR BKN004 OVC011 00/00 A2948 RMK AO2 CIG 003V007 P0002 FZRANO=
202303041628 SPECI KPWT 041628Z AUTO 04005KT 1SM -SN BR SCT004 OVC011 00/00 A2948 RMK AO2 P0002 FZRANO=
202303041621 SPECI KPWT 041621Z AUTO 04006KT 3/4SM -SN BR SCT004 OVC011 00/00 A2948 RMK AO2 P0001 FZRANO=
202303041611 SPECI KPWT 041611Z AUTO 04006KT 1SM -SN BR FEW004 OVC013 00/00 A2949 RMK AO2 P0000 FZRANO=
202303041603 SPECI KPWT 041603Z AUTO 04007KT 1 1/4SM -SN BR OVC013 00/00 A2949 RMK AO2 P0000 FZRANO=
202303041554 METAR KPWT 041554Z AUTO 04006KT 1SM -SN BR FEW003 BKN013 OVC018 00/00 A2949 RMK AO2 VIS 3/4V1 1/2 SLP994 P0008 T00000000 FZRANO=
202303041553 SPECI KPWT 041553Z AUTO 04006KT 1SM -SN BR FEW003 BKN013 OVC018 00/00 A2949 RMK AO2 VIS 3/4V1 3/4 P0008 FZRANO=
202303041547 SPECI KPWT 041547Z AUTO 05005KT 1 1/2SM -SN BR FEW003 OVC015 00/00 A2949 RMK AO2 VIS 3/4V3 P0007 FZRANO=
202303041525 SPECI KPWT 041525Z AUTO 04004KT 2SM -SN BR FEW005 OVC015 00/00 A2950 RMK AO2 VIS 1 1/4V3 P0004 FZRANO=
202303041518 SPECI KPWT 041518Z AUTO 04006KT 1 3/4SM -SN BR FEW005 OVC013 00/00 A2950 RMK AO2 VIS 1V3 P0003 FZRANO=
202303041506 SPECI KPWT 041506Z AUTO 06004KT 1 1/2SM -SN BR FEW005 OVC015 00/00 A2951 RMK AO2 VIS 1V3 P0001 FZRANO=
202303041456 METAR KPWT 041456Z AUTO 05005KT 2SM -SN BR FEW008 OVC015 00/00 A2951 RMK AO2 VIS 1 1/4V4 SLP000 P0006 60016 T00000000 56016 FZRANO=
202303041452 SPECI KPWT 041452Z AUTO 05005KT 2SM -SN BR FEW006 OVC013 00/00 A2951 RMK AO2 VIS 1 1/2V4 P0006 FZRANO=
202303041441 SPECI KPWT 041441Z AUTO 05004KT 3SM -SN BR FEW004 OVC013 01/01 A2951 RMK AO2 P0005 FZRANO=
202303041412 SPECI KPWT 041412Z AUTO 04005KT 4SM -SN BR BKN013 OVC018 01/01 A2953 RMK AO2 P0002 FZRANO=
202303041356 METAR KPWT 041356Z AUTO 06003KT 5SM -SN BR SCT006 OVC016 01/01 A2953 RMK AO2 RAE18UPB18E47SNB47 SLP008 P0006 T00060006 FZRANO=
202303041314 SPECI KPWT 041314Z AUTO 11003KT 9SM -RA BKN008 OVC017 02/01 A2955 RMK AO2 CIG 005V010 P0003 FZRANO=
202303041256 METAR KPWT 041256Z AUTO 14005KT 10SM RA BKN010 OVC016 02/02 A2956 RMK AO2 UPB1159E31 CIG 007V012 SLP016 P0004 T00170017 FZRANO=
202303041254 SPECI KPWT 041254Z AUTO 16005KT 10SM RA BKN008 OVC016 02/02 A2956 RMK AO2 UPB1159E31 CIG 007V012 P0004 FZRANO=
202303041156 METAR KPWT 041156Z AUTO 04004KT 10SM -RA SCT006 OVC020 02/02 A2957 RMK AO2 SLP018 P0001 60014 7//// T00220022 10028 20017 56022 FZRANO=
202303041147 SPECI KPWT 041147Z AUTO 05004KT 10SM -RA SCT004 BKN009 OVC020 02/02 A2957 RMK AO2 CIG 008V012 P0001 FZRANO=
202303041134 SPECI KPWT 041134Z AUTO 00000KT 10SM -RA BKN004 OVC011 02/02 A2957 RMK AO2 CIG 004V008 P0001 FZRANO=
202303041116 SPECI KPWT 041116Z AUTO 06003KT 10SM -RA FEW006 OVC013 02/02 A2958 RMK AO2 P0001 FZRANO=
202303041056 METAR KPWT 041056Z AUTO 00000KT 9SM -RA OVC013 02/02 A2959 RMK AO2 SLP028 P0001 T00220022 FZRANO=
202303041043 SPECI KPWT 041043Z AUTO 00000KT 10SM -RA OVC011 02/02 A2960 RMK AO2 P0001 FZRANO=
202303040956 METAR KPWT 040956Z AUTO VRB04KT 10SM -RA OVC006 02/02 A2963 RMK AO2 CIG 004V011 SLP040 P0004 T00220022 FZRANO=
202303040856 METAR KPWT 040856Z AUTO 00000KT 7SM RA OVC006 02/02 A2965 RMK AO2 CIG 004V008 SLP047 P0003 60008 T00220017 56013 FZRANO=
202303040833 SPECI KPWT 040833Z AUTO 00000KT 8SM -RA BKN008 OVC012 02/02 A2966 RMK AO2 CIG 004V010 P0001 FZRANO=
202303040756 METAR KPWT 040756Z AUTO 15004KT 5SM -RA BR OVC005 02/02 A2966 RMK AO2 CIG 004V009 SLP052 P0002 T00220022 400560011 FZRANO=
202303040752 SPECI KPWT 040752Z AUTO 13006KT 5SM -RA BR OVC005 02/02 A2966 RMK AO2 CIG 004V009 P0002 400560011 FZRANO=
202303040705 SPECI KPWT 040705Z AUTO 18006KT 10SM -RA BKN007 OVC013 02/02 A2968 RMK AO2 CIG 005V010 P0000 FZRANO=
202303040656 METAR KPWT 040656Z AUTO 19006KT 9SM RA SCT007 OVC015 02/02 A2969 RMK AO2 SLP059 P0003 T00220022 FZRANO=
202303040613 SPECI KPWT 040613Z AUTO 00000KT 10SM -RA FEW007 OVC019 02/02 A2970 RMK AO2 P0001 FZRANO=
202303040556 METAR KPWT 040556Z AUTO 00000KT 10SM -RA FEW007 OVC012 02/02 A2971 RMK AO2 SLP067 P0003 60021 T00170017 10028 20011 58014 FZRANO=
202303040533 SPECI KPWT 040533Z AUTO 00000KT 10SM -RA SCT006 OVC010 02/02 A2972 RMK AO2 P0003 FZRANO=
202303040526 SPECI KPWT 040526Z AUTO 00000KT 9SM -RA BKN006 OVC010 02/02 A2972 RMK AO2 CIG 003V008 P0002 FZRANO=
202303040456 METAR KPWT 040456Z AUTO 00000KT 8SM -RA OVC004 02/02 A2973 RMK AO2 CIG 003V007 SLP076 P0002 T00170017 FZRANO=
202303040451 SPECI KPWT 040451Z AUTO 19003KT 8SM -RA BKN004 OVC011 02/02 A2973 RMK AO2 CIG 003V007 P0002 FZRANO=
202303040356 METAR KPWT 040356Z AUTO 18009G14KT 10SM -RA OVC006 02/02 A2975 RMK AO2 CIG 004V009 SLP082 P0003 T00220022 FZRANO=
202303040256 METAR KPWT 040256Z AUTO 18006KT 10SM -RA OVC006 03/03 A2978 RMK AO2 CIG 004V008 SLP090 P0003 60013 T00280028 56023=
202303040156 METAR KPWT 040156Z AUTO 19006KT 10SM -RA OVC006 03/03 A2979 RMK AO2 CIG 004V011 SLP096 P0002 T00280028=
202303040141 SPECI KPWT 040141Z AUTO 19006KT 7SM -RA OVC006 03/03 A2980 RMK AO2 CIG 003V009 P0002=
202303040056 METAR KPWT 040056Z AUTO 00000KT 10SM -RA BKN003 BKN010 OVC016 02/02 A2982 RMK AO2 RAE25B43UPB38E43SNB25E38 CIG 003V007 SLP105 P0008 T00170017 FZRANO=
202303040016 SPECI KPWT 040016Z AUTO 22007KT 9SM RA OVC005 02/02 A2984 RMK AO2 P0002 FZRANO=
202303032356 METAR KPWT 032356Z AUTO 20009KT 10SM -RA OVC007 03/02 A2984 RMK AO2 SLP114 P0004 60013 T00280022 10056 20011 56025=
202303032343 SPECI KPWT 032343Z AUTO 21011G19KT 9SM -RA BKN007 OVC015 03/02 A2985 RMK AO2 CIG 006V011 P0004=
202303032332 SPECI KPWT 032332Z AUTO 21012G17KT 9SM -RA SCT007 BKN011 OVC017 03/03 A2985 RMK AO2 P0002=
202303032310 SPECI KPWT 032310Z AUTO 19008KT 150V210 10SM -RA SCT015 BKN029 04/03 A2986 RMK AO2 P0000=
202303032303 SPECI KPWT 032303Z AUTO 19007KT 10SM -RA SCT015 SCT029 04/03 A2986 RMK AO2 P0000=
202303032256 METAR KPWT 032256Z AUTO 19009G18KT 10SM -RA FEW010 BKN015 BKN031 04/03 A2986 RMK AO2 RAB25 SLP119 P0001 T00390028=
202303032216 SPECI KPWT 032216Z AUTO 21003KT 10SM FEW006 BKN012 OVC028 03/03 A2988 RMK AO2=
202303032204 SPECI KPWT 032204Z AUTO 20003KT 10SM BKN012 OVC028 03/03 A2989 RMK AO2=
202303032156 METAR KPWT 032156Z AUTO 20004KT 10SM FEW010 BKN015 OVC028 03/03 A2989 RMK AO2 RAB11E30B52E53UPB49E52SNB30E49 SLP130 P0008 T00280028=
202303032124 SPECI KPWT 032124Z AUTO 23013G18KT 5SM RA BR FEW006 BKN012 OVC017 02/02 A2992 RMK AO2 RAB11 P0004 FZRANO=
202303032111 SPECI KPWT 032111Z AUTO 19011KT 10SM -RA OVC015 04/02 A2992 RMK AO2 RAB11 P0000=
202303032056 METAR KPWT 032056Z AUTO 20010G16KT 10SM BKN013 OVC023 04/02 A2992 RMK AO2 RAE41 SLP138 P0000 60000 T00390022 58016=
202303032025 SPECI KPWT 032025Z AUTO 20010G16KT 10SM -RA BKN013 BKN019 BKN026 04/03 A2993 RMK AO2 P0000=
202303031956 METAR KPWT 031956Z AUTO 20012G20KT 10SM -RA BKN015 OVC024 04/02 A2994 RMK AO2 RAB48 SLP146 P0000 T00440022=
202303031856 METAR KPWT 031856Z AUTO 20014G21KT 10SM OVC011 05/02 A2996 RMK AO2 SLP153 T00500022=
202303031756 METAR KPWT 031756Z AUTO 22013G18KT 10SM OVC011 04/02 A2997 RMK AO2 SLP155 6//// T00440022 10044 20011 58006=
202303031733 SPECI KPWT 031733Z AUTO 22011KT 10SM OVC011 04/02 A2997 RMK AO2=
202303031656 METAR KPWT 031656Z AUTO 20009KT 10SM OVC009 03/02 A2998 RMK AO2 SLP159 T00280017=
202303031556 METAR KPWT 031556Z AUTO 21013G16KT 10SM OVC007 02/01 A2998 RMK AO2 SLP160 T00220011 FZRANO=
202303031456 METAR KPWT 031456Z AUTO 21006KT 10SM OVC007 02/01 A2999 RMK AO2 SLP163 6//// T00170011 58007 FZRANO=
202303031356 METAR KPWT 031356Z AUTO 20010KT 10SM OVC007 02/01 A3000 RMK AO2 SLP166 T00170011 FZRANO=
202303031256 METAR KPWT 031256Z AUTO 21008KT 10SM BKN009 01/01 A3001 RMK AO2 CIG 006V011 SLP167 T00110006 FZRANO=
202303031217 SPECI KPWT 031217Z AUTO 20010KT 10SM SCT009 01/01 A3001 RMK AO2 FZRANO=
202303031156 METAR KPWT 031156Z AUTO 21013G18KT 10SM BKN009 02/01 A3001 RMK AO2 SLP168 70018 T00170011 10017 20011 56005 FZRANO=
202303031154 SPECI KPWT 031154Z AUTO 20012G18KT 10SM BKN009 02/01 A3001 RMK AO2 CIG 006V011 FZRANO=
202303031144 SPECI KPWT 031144Z AUTO 21012G18KT 10SM SCT007 01/01 A3001 RMK AO2 FZRANO=
202303031114 SPECI KPWT 031114Z AUTO 21011KT 10SM BKN007 01/01 A3001 RMK AO2 FZRANO=
202303031056 METAR KPWT 031056Z AUTO 21012KT 10SM FEW007 SCT095 01/01 A3002 RMK AO2 SLP172 T00110011 FZRANO=
202303031004 SPECI KPWT 031004Z AUTO 21011KT 10SM FEW007 BKN110 01/01 A3002 RMK AO2 FZRANO=
202303030956 METAR KPWT 030956Z AUTO 20012KT 10SM BKN110 01/01 A3002 RMK AO2 SLP174 T00110011 FZRANO=
202303030910 SPECI KPWT 030910Z AUTO 22016G22KT 10SM FEW008 BKN110 02/01 A3002 RMK AO2 FZRANO=
202303030856 METAR KPWT 030856Z AUTO 23012KT 10SM BKN008 OVC110 01/01 A3001 RMK AO2 SLP171 T00110006 55000 FZRANO=
202303030846 SPECI KPWT 030846Z AUTO 23012KT 10SM BKN008 BKN120 01/01 A3002 RMK AO2 CIG 007V011 FZRANO=
202303030839 SPECI KPWT 030839Z AUTO 23010KT 10SM BKN010 01/01 A3001 RMK AO2 CIG 007V011 FZRANO=
202303030756 METAR KPWT 030756Z AUTO 23016G20KT 10SM CLR 02/01 A3000 RMK AO2 SLP166 T00170006 401000011 FZRANO=
202303030723 SPECI KPWT 030723Z AUTO 22009KT 10SM SCT009 SCT120 01/01 A3001 RMK AO2 FZRANO=
202303030656 METAR KPWT 030656Z AUTO 22007KT 10SM BKN009 01/01 A3002 RMK AO2 SLP173 T00110006 FZRANO=
202303030649 SPECI KPWT 030649Z AUTO 21008KT 10SM BKN009 01/01 A3002 RMK AO2 FZRANO=
202303030639 SPECI KPWT 030639Z AUTO 20007KT 10SM SCT009 01/01 A3002 RMK AO2 FZRANO=
202303030556 METAR KPWT 030556Z AUTO 24009KT 10SM FEW120 02/01 A3002 RMK AO2 SLP170 T00170006 10083 20011 52013 FZRANO=
202303030456 METAR KPWT 030456Z AUTO 23008KT 10SM CLR 02/01 A3000 RMK AO2 SLP167 T00170006 FZRANO=
202303030356 METAR KPWT 030356Z AUTO 23012KT 10SM CLR 02/01 A2999 RMK AO2 SLP162 T00220006 FZRANO=
202303030256 METAR KPWT 030256Z AUTO 22011KT 10SM CLR 02/01 A2998 RMK AO2 SLP159 T00220006 51018 FZRANO=
202303030156 METAR KPWT 030156Z AUTO 22010KT 10SM BKN120 04/01 A2997 RMK AO2 SLP154 T00440011=
202303030056 METAR KPWT 030056Z AUTO 21016G22KT 10SM CLR 06/M01 A2996 RMK AO2 SLP150 T00611006=
202303022356 METAR KPWT 022356Z AUTO 22017G22KT 10SM CLR 08/M02 A2992 RMK AO2 SLP140 T00831022 10100 20056 53010=
202303022256 METAR KPWT 022256Z AUTO 23014G22KT 10SM CLR 09/M02 A2991 RMK AO2 SLP135 T00941022=
202303022156 METAR KPWT 022156Z AUTO 23014KT 10SM CLR 09/01 A2990 RMK AO2 SLP132 T00940006=
202303022056 METAR KPWT 022056Z AUTO 22017G23KT 10SM CLR 09/01 A2990 RMK AO2 SLP130 T00890011 50002=
202303022017 SPECI KPWT 022017Z AUTO 23012KT 10SM SCT028 BKN034 09/02 A2990 RMK AO2=
202303021956 METAR KPWT 021956Z AUTO 23012KT 10SM BKN024 08/03 A2991 RMK AO2 SLP134 T00830033=
202303021944 SPECI KPWT 021944Z AUTO 24010KT 10SM BKN024 08/03 A2991 RMK AO2=
202303021928 SPECI KPWT 021928Z AUTO 23003KT 10SM SCT023 07/04 A2990 RMK AO2=
202303021856 METAR KPWT 021856Z AUTO 25012KT 10SM BKN023 BKN028 08/04 A2990 RMK AO2 SLP133 T00780039=
202303021847 SPECI KPWT 021847Z AUTO 22013KT 10SM BKN023 08/04 A2990 RMK AO2=
202303021818 SPECI KPWT 021818Z AUTO 21011KT 10SM FEW008 SCT017 SCT025 07/05 A2989 RMK AO2=
202303021811 SPECI KPWT 021811Z AUTO 21008KT 10SM SCT008 BKN015 07/06 A2989 RMK AO2=
202303021756 METAR KPWT 021756Z AUTO 20008G14KT 10SM BKN008 06/05 A2989 RMK AO2 CIG 005V011 SLP127 60018 T00560050 10056 20017 53019=
202303021746 SPECI KPWT 021746Z AUTO 21008KT 10SM BKN006 BKN011 05/04 A2988 RMK AO2 CIG 004V009=
202303021656 METAR KPWT 021656Z AUTO 19011G17KT 140V230 10SM OVC004 04/04 A2986 RMK AO2 SLP119 T00390039=
202303021556 METAR KPWT 021556Z AUTO 20015G24KT 10SM OVC004 03/02 A2983 RMK AO2 RAE31 SLP109 P0001 T00280022=
202303021554 SPECI KPWT 021554Z AUTO 20014G24KT 10SM OVC004 03/02 A2983 RMK AO2 RAE31 P0001=
202303021456 METAR KPWT 021456Z AUTO 20013G19KT 10SM -RA OVC006 02/02 A2984 RMK AO2 SLP111 P0007 60017 T00170017 56027 FZRANO=
202303021356 METAR KPWT 021356Z AUTO 21013G20KT 10SM -RA OVC006 02/02 A2987 RMK AO2 SLP120 P0004 T00220017 FZRANO=
202303021256 METAR KPWT 021256Z AUTO 21015G20KT 9SM -RA OVC006 02/02 A2989 RMK AO2 CIG 004V009 SLP126 P0006 T00170017 FZRANO=
202303021240 SPECI KPWT 021240Z AUTO 21015G19KT 10SM -RA OVC006 02/02 A2990 RMK AO2 P0005 FZRANO=
202303021215 SPECI KPWT 021215Z AUTO 21013G17KT 10SM -RA OVC004 02/02 A2991 RMK AO2 P0003 FZRANO=
202303021156 METAR KPWT 021156Z AUTO 20012G18KT 10SM -RA OVC006 02/02 A2992 RMK AO2 CIG 005V009 SLP137 P0005 60010 70010 T00220017 10022 20017 58030 FZRANO=
202303021056 METAR KPWT 021056Z AUTO 20013KT 10SM -RA OVC006 02/02 A2995 RMK AO2 SLP150 P0003 T00220017 FZRANO=
202303020956 METAR KPWT 020956Z AUTO 19013G17KT 10SM -RA OVC006 02/02 A2998 RMK AO2 UPB01E03 SLP159 P0001 T00220022 FZRANO=
202303020856 METAR KPWT 020856Z AUTO 22013KT 10SM -RA BKN006 BKN009 02/02 A3001 RMK AO2 SLP169 P0000 60001 T00220022 58015 FZRANO=
202303020756 METAR KPWT 020756Z AUTO 21014KT 10SM -RA OVC006 02/02 A3003 RMK AO2 UPB18E20RAB20 CIG 004V009 SLP177 P0001 T00220022 400671056 FZRANO=
202303020656 METAR KPWT 020656Z AUTO 20012G19KT 10SM OVC006 02/02 A3005 RMK AO2 SLP184 T00220017 FZRANO=
202303020635 SPECI KPWT 020635Z AUTO 21011KT 10SM BKN008 BKN100 02/02 A3004 RMK AO2 CIG 006V013 FZRANO=
202303020556 METAR KPWT 020556Z AUTO 20014KT 10SM FEW010 02/02 A3005 RMK AO2 RAE30 SLP184 P0000 60000 T00220017 10056 20022 58009 FZRANO=
202303020516 SPECI KPWT 020516Z AUTO 20014KT 10SM -RA FEW011 SCT041 03/02 A3007 RMK AO2 P0000=
202303020456 METAR KPWT 020456Z AUTO 21010G17KT 10SM -RA BKN024 OVC038 03/02 A3008 RMK AO2 SLP193 P0000 T00280022=
202303020356 METAR KPWT 020356Z AUTO 22014G21KT 10SM -RA CLR 04/01 A3008 RMK AO2 RAB44 SLP195 P0000 T00390006=
202303020256 METAR KPWT 020256Z AUTO 19010KT 10SM CLR 04/01 A3008 RMK AO2 SLP194 60000 T00390011 56008=
202303020156 METAR KPWT 020156Z AUTO 20009KT 10SM FEW100 04/02 A3008 RMK AO2 RAB13E32 SLP196 P0000 T00390017=
202303020056 METAR KPWT 020056Z AUTO 22011KT 10SM FEW100 06/01 A3009 RMK AO2 SLP197 T00560011=
202303012356 METAR KPWT 012356Z AUTO 22011KT 10SM BKN095 06/02 A3011 RMK AO2 SLP204 T00560017 10067 20017 53003=
202303012256 METAR KPWT 012256Z AUTO 20009KT 10SM CLR 06/01 A3010 RMK AO2 SLP201 T00610011=
202303012156 METAR KPWT 012156Z AUTO 20008KT 10SM FEW018 06/02 A3010 RMK AO2 SLP200 T00560022=
202303012139 SPECI KPWT 012139Z AUTO 22009KT 10SM SCT018 06/02 A3009 RMK AO2=
202303012117 SPECI KPWT 012117Z AUTO 20009KT 10SM BKN018 04/02 A3010 RMK AO2=
202303012056 METAR KPWT 012056Z AUTO 22011KT 10SM SCT014 04/02 A3010 RMK AO2 SLP201 T00440017 50006=
202303012041 SPECI KPWT 012041Z AUTO 20011KT 10SM SCT008 BKN015 04/02 A3010 RMK AO2=
202303012039 SPECI KPWT 012039Z AUTO 22010KT 10SM BKN010 04/02 A3010 RMK AO2 CIG 007V012=
202303011956 METAR KPWT 011956Z AUTO 21005KT 10SM OVC006 03/03 A3010 RMK AO2 CIG 004V010 SLP202 T00330033=
202303011922 SPECI KPWT 011922Z AUTO 19005KT 10SM OVC006 02/02 A3009 RMK AO2 CIG 003V009 FZRANO=
202303011856 METAR KPWT 011856Z AUTO 20004KT 10SM OVC003 02/01 A3009 RMK AO2 SLP198 T00170011 FZRANO=
202303011844 SPECI KPWT 011844Z AUTO 20005KT 3SM BR OVC003 01/01 A3009 RMK AO2 FZRANO=
202303011837 SPECI KPWT 011837Z AUTO 22005KT 1 1/4SM BR OVC003 01/01 A3009 RMK AO2 VIS 3/4V3 FZRANO=
202303011808 SPECI KPWT 011808Z AUTO 20006KT 3/4SM BR OVC003 01/01 A3008 RMK AO2 FZRANO=
202303011756 METAR KPWT 011756Z AUTO 22006KT 1/4SM FG OVC003 01/01 A3008 RMK AO2 SLP196 T00060006 10006 21056 53017 FZRANO=
202303011730 SPECI KPWT 011730Z AUTO 20005KT 1/4SM FG OVC003 01/00 A3008 RMK AO2 FZRANO=
202303011722 SPECI KPWT 011722Z AUTO 22005KT 1/2SM FG BKN003 OVC036 01/01 A3007 RMK AO2 VIS M1/4V4 FZRANO=
202303011720 SPECI KPWT 011720Z AUTO 20004KT 1 1/4SM BR BKN003 OVC036 01/01 A3007 RMK AO2 VIS 1/4V4 FZRANO=
202303011714 SPECI KPWT 011714Z AUTO 20004KT 4SM BR BKN003 OVC036 01/01 A3007 RMK AO2 FZRANO=
202303011705 SPECI KPWT 011705Z AUTO 00000KT 7SM SCT003 BKN036 00/00 A3006 RMK AO2 FZRANO=
202303011656 METAR KPWT 011656Z AUTO 19003KT 10SM BKN036 00/00 A3006 RMK AO2 SLP189 T00000000 FZRANO=
202303011556 METAR KPWT 011556Z AUTO 22004KT 10SM BKN038 M01/M01 A3004 RMK AO2 SLP183 T10111011 FZRANO=
202303011456 METAR KPWT 011456Z AUTO 00000KT 10SM OVC034 M02/M02 A3003 RMK AO2 SLP178 T10221022 51022 FZRANO=
202303011356 METAR KPWT 011356Z AUTO 00000KT 10SM OVC030 M03/M03 A3001 RMK AO2 SLP172 T10281028 FZRANO=
202303011256 METAR KPWT 011256Z AUTO 00000KT 10SM OVC030 M04/M04 A2999 RMK AO2 SLP164 T10391039 FZRANO=
202303011156 METAR KPWT 011156Z AUTO 00000KT 10SM CLR M06/M06 A2996 RMK AO2 SLP154 6//// 7//// T10561056 11033 21056 53030 FZRANO=
202303011056 METAR KPWT 011056Z AUTO 00000KT 10SM CLR M06/M06 A2993 RMK AO2 SLP144 T10561056 FZRANO=
202303010956 METAR KPWT 010956Z AUTO 00000KT 9SM CLR M05/M05 A2990 RMK AO2 SLP134 T10501050 FZRANO=
202303010954 SPECI KPWT 010954Z AUTO 00000KT 4SM BR CLR M05/M05 A2990 RMK AO2 FZRANO=
202303010939 SPECI KPWT 010939Z AUTO 00000KT 1 3/4SM BR CLR M05/M05 A2988 RMK AO2 VIS 3/4V5 FZRANO=
202303010856 METAR KPWT 010856Z AUTO 00000KT 10SM CLR M04/M04 A2987 RMK AO2 SLP124 T10441044 51026 FZRANO=
202303010756 METAR KPWT 010756Z AUTO 00000KT 10SM CLR M03/M03 A2986 RMK AO2 SLP121 T10331033 400721050 FZRANO=
202303010656 METAR KPWT 010656Z AUTO 22003KT 10SM CLR M04/M04 A2984 RMK AO2 SLP112 T10391039 FZRANO=
202303010653 SPECI KPWT 010653Z AUTO 00000KT 3SM BR CLR M04/M04 A2983 RMK AO2 FZRANO=
202303010645 SPECI KPWT 010645Z AUTO 00000KT 1 1/2SM BR CLR M04/M04 A2983 RMK AO2 VIS 1V5 FZRANO=
202303010556 METAR KPWT 010556Z AUTO 00000KT 10SM CLR M03/M03 A2980 RMK AO2 SLP098 60000 T10331033 10022 21033 53024 FZRANO=
202303010456 METAR KPWT 010456Z AUTO 00000KT 10SM CLR M02/M02 A2977 RMK AO2 SLP089 T10221022 FZRANO=
202303010356 METAR KPWT 010356Z AUTO 00000KT 10SM FEW025 M02/M02 A2974 RMK AO2 SLP081 T10171017 FZRANO=
202303010256 METAR KPWT 010256Z AUTO 00000KT 10SM FEW075 M01/M01 A2972 RMK AO2 SLP074 60000 T10061006 53030 FZRANO=
202303010156 METAR KPWT 010156Z AUTO 06004KT 10SM CLR 01/01 A2969 RMK AO2 SLP061 T00110006 FZRANO=
202303010056 METAR KPWT 010056Z AUTO 05005KT 10SM SCT046 SCT055 02/02 A2966 RMK AO2 RAE37SNB11E23 SLP050 P0000 T00220017 FZRANO=

# No short TAF reports from KPWT in databse.

###################################
#  large TAF from KPWT
###################################
202303312346 TAF KPWT 312346Z 0100/0124 20014G25KT 6SM -RA BR BKN008 OVC015
                       FM010300 20010KT P6SM -SHRA OVC020 FM012000
                       19014G21KT P6SM -SHRA BKN050=
202303311737 TAF KPWT 311737Z 3118/0118 20012G19KT P6SM -SHRA BKN015 OVC025
                       FM312100 20014G25KT 6SM -RA BR BKN010 OVC015
                       FM010700 20010KT P6SM VCSH OVC020=
202303311136 TAF KPWT 311136Z 3112/0112 21008KT P6SM -RA BKN011 OVC014 FM311500
                       20012G19KT P6SM -RA BKN015 OVC025 FM312100
                       20014G25KT 6SM -RA BR BKN010 OVC015 FM010700
                       20010KT P6SM VCSH OVC020=
202303310908 KPWT 310908Z 3109/0106 19007KT P6SM VCSH SCT023 OVC060 FM311500
                       20012G19KT P6SM -RA BKN015 OVC025 FM312100
                       20014G25KT 6SM -RA BR BKN010 OVC015=
202303310531 TAF KPWT 310531Z 3106/0106 22011KT P6SM BKN050 FM310900 18005KT
                       P6SM VCSH BKN015 OVC020 FM311500 20012G19KT
                       P6SM -RA BKN015 OVC025 FM312100 20014G25KT
                       6SM -RA BR BKN010 OVC015=
202303310305 KPWT 310305Z 3103/3124 22011KT P6SM BKN050 FM310900 18005KT P6SM
                       VCSH BKN015 OVC020 FM311500 20012G19KT P6SM
                       -RA BKN015 OVC025 FM312100 20014G25KT 6SM
                       -RA BR BKN010 OVC015=
202303302331 TAF KPWT 302331Z 3100/3124 22012G21KT P6SM BKN050 FM310900 18005KT
                       P6SM VCSH BKN015 OVC020 FM311500 20012G19KT
                       P6SM -RA BKN015 OVC025 FM312100 20014G25KT
                       6SM -RA BR BKN010 OVC015=
202303301721 TAF KPWT 301721Z 3018/3118 23008KT P6SM SCT020 BKN250 FM302100
                       21011G18KT P6SM BKN050 FM310300 22006KT
                       P6SM SCT030 OVC050 FM310900 18005KT P6SM
                       VCSH BKN015 OVC025=
202303301209 KPWT 301209Z 3012/3112 23007KT P6SM OVC004 FM301800 23007KT P6SM
                       OVC015 FM302000 19007KT P6SM BKN040 FM310000
                       20011KT P6SM BKN050 FM310300 22005KT P6SM
                       OVC040 FM310900 18005KT P6SM OVC020=
202303301139 TAF KPWT 301139Z 3012/3112 21003KT P6SM SCT010 OVC090
                      TEMPO 3012/3016 OVC010 FM301900 19007KT P6SM
                       BKN040 FM310000 20011KT P6SM BKN050 FM310300
                       22005KT P6SM OVC040 FM310900 18005KT P6SM
                       OVC020=
202303300525 TAF KPWT 300525Z 3006/3106 VRB04KT P6SM BKN200 FM301200 VRB03KT
                       P6SM OVC030 FM301900 19007KT P6SM BKN040
                       FM310000 20011KT P6SM BKN050=
202303292323 TAF KPWT 292323Z 3000/3024 05008KT P6SM SCT200 FM300200 VRB04KT
                       P6SM BKN200 FM301200 VRB03KT P6SM OVC030
                       FM301900 19007KT P6SM BKN040=
202303291720 TAF KPWT 291720Z 2918/3018 06008KT P6SM SCT120 FM292300 VRB04KT
                       P6SM FEW100 BKN200 FM301200 VRB03KT P6SM
                       OVC022=
202303291120 TAF KPWT 291120Z 2912/3012 05005KT P6SM BKN100 FM291800 04005KT
                       P6SM SCT120 BKN200 FM292300 19005KT P6SM
                       SCT120 BKN200=
202303290521 TAF KPWT 290521Z 2906/3006 07008G15KT P6SM BKN150 FM290800 VRB03KT
                       P6SM SCT120 BKN200 FM291700 04005KT P6SM
                       SCT120 BKN200 FM292300 19005KT P6SM BKN200=
202303282320 TAF KPWT 282320Z 2900/2924 07008KT P6SM BKN120 OVC200 FM290300
                       03006KT P6SM BKN150 FM290800 VRB03KT P6SM
                       SCT120 BKN200 FM291700 04005KT P6SM SCT120
                       BKN200 FM292300 19005KT P6SM BKN200=
202303281723 TAF KPWT 281723Z 2818/2918 04010KT P6SM BKN120 OVC200 FM290100
                       03007KT P6SM BKN100 OVC150 FM290800 VRB03KT
                       P6SM SCT120 BKN200 FM291700 04005KT P6SM
                       SCT120 BKN200=
202303281120 TAF KPWT 281120Z 2812/2912 04012KT P6SM OVC110 FM290100 03007KT
                       P6SM BKN100 OVC150 FM290800 02003KT P6SM
                       BKN150=
202303280521 TAF KPWT 280521Z 2806/2906 04009KT P6SM SCT120 BKN200 FM281700
                       03012KT P6SM SCT120 BKN200 FM290100 03007KT
                       P6SM BKN080 OVC200=
202303272338 TAF KPWT 272338Z 2800/2824 05011KT P6SM BKN200 FM280700 03008KT
                       P6SM SCT120 BKN200 FM281700 03012KT P6SM
                       SCT120 BKN200=
202303271740 TAF KPWT 271740Z 2718/2818 04006KT P6SM SCT200 FM272100 03010KT
                       P6SM SCT200 FM280700 03008KT P6SM SCT120
                       BKN200=
202303271454 KPWT 271454Z 2715/2812 00000KT P6SM FEW003
                      TEMPO 2715/2717 5SM BR FM271700 03006KT P6SM
                       SCT250 FM272100 03010KT P6SM SCT250 FM280600
                       03012KT P6SM BKN200=
202303271317 KPWT 271317Z 2713/2812 00000KT 1SM BR BKN002
                      TEMPO 2713/2715 1/2SM FZFG BKN002 FM271500
                       VRB03KT 2SM BR BKN005 FM271600 03006KT P6SM
                       SCT250 FM272100 03010KT P6SM SCT250 FM280600
                       03012KT P6SM BKN200=
202303271149 TAF KPWT 271149Z 2712/2812 00000KT 1SM BR BKN002
                      TEMPO 2712/2714 1/4SM FZFG OVC002 FM271400
                       VRB03KT 2SM BR BKN005 FM271600 03006KT P6SM
                       SCT250 FM272100 03010KT P6SM SCT250 FM280600
                       03012KT P6SM BKN200=
202303270936 KPWT 270936Z 2710/2806 00000KT P6SM SCT002 FM271100 00000KT 3SM
                       BR BKN002 FM271600 03006KT P6SM SCT250 FM272100
                       03010KT P6SM SCT250=
202303270549 TAF KPWT 270549Z 2706/2806 VRB03KT P6SM SKC
                      TEMPO 2708/2711 3SM BR SCT002 FM271100 00000KT
                       1SM BR OVC002 FM271600 03006KT P6SM SCT250
                       FM272100 03010KT P6SM SCT250=
202303262320 TAF KPWT 262320Z 2700/2724 19009KT P6SM VCSH SCT025 BKN040 FM270900
                       VRB02KT 5SM BR SCT010 BKN090 FM271600 03003KT
                       P6SM SCT250 FM272100 02009KT P6SM SCT250=
202303261720 TAF KPWT 261720Z 2618/2718 20003KT P6SM OVC010 FM262100 20008KT
                       P6SM BKN035 OVC050 FM270300 VRB03KT P6SM
                       BKN050 BKN120 FM270900 VRB02KT 6SM BR SCT010
                       BKN090 FM271500 03005KT P6SM SCT250=
202303261221 KPWT 261221Z 2612/2712 21004KT P6SM OVC005 FM261500 20003KT P6SM
                       OVC007 FM262000 20008KT P6SM OVC040 FM270300
                       VRB03KT P6SM BKN050=
202303261136 TAF KPWT 261136Z 2612/2712 18004KT P6SM OVC003 FM261300 00000KT
                       4SM BR OVC003 FM261500 20003KT P6SM OVC007
                       FM262000 20008KT P6SM OVC040 FM270300 VRB03KT
                       P6SM BKN050=
202303260747 KPWT 260747Z 2608/2706 00000KT P6SM OVC009 FM261000 00000KT 3SM
                       BR BKN002 FM261200 00000KT 1SM BR OVC002
                       FM261600 00000KT 3SM BR BKN004 FM261700
                       00000KT 5SM BR SCT006 FM261800 20004KT P6SM
                       SCT050=
202303260538 TAF KPWT 260538Z 2606/2706 00000KT P6SM SKC FM261000 00000KT 3SM
                       BR BKN002 FM261200 00000KT 1SM BR OVC002
                       FM261600 00000KT 3SM BR BKN004 FM261700
                       00000KT 5SM BR SCT006 FM261800 20004KT P6SM
                       SCT050=
202303252338 TAF KPWT 252338Z 2600/2624 20008KT P6SM BKN040 FM260300 20008KT
                       P6SM BKN040 FM260800 20004KT P6SM BKN012
                       OVC020 FM261000 20004KT P6SM BKN006 OVC012
                       FM261700 20004KT P6SM BKN015 FM262000 20008KT
                       P6SM SCT045=
202303251737 TAF KPWT 251737Z 2518/2618 20003KT P6SM BKN007 OVC015 FM251900
                       19006KT P6SM BKN015 OVC050 FM252100 18006KT
                       P6SM VCSH SCT035 BKN050 FM260200 06004KT
                       P6SM -SHRA OVC025 FM260700 VRB02KT P6SM
                       VCSH BKN005 OVC009=
202303251606 KPWT 251606Z 2516/2612 20003KT P6SM BKN003 OVC015 FM251900 16006KT
                       P6SM BKN015 OVC050 FM252100 16006KT P6SM
                       VCSH SCT035 BKN050 FM260200 06004KT P6SM
                       VCSH OVC025=
202303251507 KPWT 251507Z 2515/2612 20003KT P6SM BKN004 OVC015 FM251700 16006KT
                       P6SM BKN010 OVC050 FM252000 16006KT P6SM
                       VCSH SCT035 BKN050 FM260200 06004KT P6SM
                       VCSH OVC025=
202303251243 KPWT 251243Z 2513/2612 VRB03KT P6SM BKN004 OVC015 FM251600 16006KT
                       P6SM BKN025 OVC050 FM252000 16006KT P6SM
                       VCSH SCT035 BKN050 FM260200 06004KT P6SM
                       VCSH OVC025=
202303251148 TAF KPWT 251148Z 2512/2612 22005KT P6SM OVC012 FM251400 20003KT
                       P6SM OVC007 FM251600 16006KT P6SM BKN025
                       OVC050 FM252000 16006KT P6SM VCSH SCT035
                       BKN050 FM260200 06004KT P6SM VCSH OVC025=
202303250912 KPWT 250912Z 2509/2606 VRB03KT P6SM OVC009 FM251100 18006KT P6SM
                       OVC015 FM251800 16006KT P6SM BKN030 OVC050
                       FM252100 16006KT P6SM SCT030 BKN050=
202303250535 TAF KPWT 250535Z 2506/2606 20010KT P6SM SCT035 FM251000 18006KT
                       P6SM OVC015 FM251800 16006KT P6SM BKN030
                       OVC050 FM252100 16006KT P6SM SCT030 BKN050=
202303242336 TAF KPWT 242336Z 2500/2524 20010G18KT P6SM -SHRA BKN025 OVC040
                       FM250400 20007KT P6SM VCSH BKN025 OVC040
                       FM251000 19005KT P6SM OVC015 FM251900 16006KT
                       P6SM BKN030 OVC050=
202303241720 TAF KPWT 241720Z 2418/2518 19012G20KT P6SM VCSH BKN015 OVC030 FM242100
                       20010G18KT P6SM -SHRA BKN025 OVC040 FM250400
                       20007KT P6SM VCSH BKN025 OVC040 FM251000
                       19005KT P6SM OVC015=
202303241141 TAF KPWT 241141Z 2412/2512 19010KT P6SM VCSH OVC015 FM241700 19012G20KT
                       P6SM -SHRA BKN025 OVC040 FM242100 20010G18KT
                       P6SM -SHRA OVC050 FM250600 20007KT P6SM
                       VCSH OVC050=
202303240538 TAF KPWT 240538Z 2406/2506 19012KT P6SM -SHRA OVC035 FM241100 19010KT
                       P6SM VCSH OVC015 FM241900 19012G20KT P6SM
                       -SHRA BKN025 OVC040=
202303232320 TAF KPWT 232320Z 2400/2424 19014G22KT P6SM -SHRA OVC025 FM240300
                       19012G18KT P6SM -SHRA OVC035 FM240700 19009KT
                       P6SM -SHRA OVC025 FM241100 18006KT P6SM
                       VCSH OVC015 FM241900 18012G20KT P6SM -SHRA
                       BKN025 OVC040=
202303231736 TAF KPWT 231736Z 2318/2418 17016G25KT P6SM -RA OVC030 FM231900
                       19014G22KT P6SM -RA OVC015 FM240200 19016G24KT
                       P6SM -SHRA OVC035 FM240700 19006KT P6SM
                       -SHRA OVC025 FM241100 20003KT P6SM OVC015=
202303231140 TAF KPWT 231140Z 2312/2412 20012G20KT P6SM SCT050 BKN080 FM231700
                       17016G25KT P6SM -RA OVC030 FM231900 19014G22KT
                       P6SM -RA OVC015 FM240200 19016G24KT P6SM
                       -SHRA OVC050 FM240700 19006KT P6SM -SHRA
                       OVC050 FM241100 20003KT P6SM OVC025=
202303230539 TAF KPWT 230539Z 2306/2406 20008KT P6SM OVC080 FM230900 19007KT
                       P6SM BKN025 FM231700 17016G25KT P6SM -RA
                       OVC030 FM240200 19017G24KT P6SM -SHRA OVC050=
202303222334 TAF KPWT 222334Z 2300/2324 15008KT P6SM FEW250 FM230900 19007KT
                       P6SM BKN025 FM231700 17016G25KT P6SM -RA
                       OVC050=
202303221731 TAF KPWT 221731Z 2218/2318 04006KT P6SM SKC FM222300 15008KT P6SM
                       FEW250 FM230900 19007KT P6SM BKN025 FM231700
                       18021G27KT P6SM VCSH OVC050=
202303221126 TAF KPWT 221126Z 2212/2312 05006KT P6SM SKC FM221300 00000KT P6SM
                       SCT010 FM221700 VRB03KT P6SM SKC FM222300
                       15008KT P6SM FEW250 FM230900 19007KT P6SM
                       BKN025=
202303220523 TAF KPWT 220523Z 2206/2306 05007KT P6SM SCT150 FM221100 02002KT
                       4SM BR BKN004 FM221700 VRB03KT P6SM SCT100
                       FM222300 15008KT P6SM FEW250=
202303212336 TAF KPWT 212336Z 2200/2224 05015KT P6SM SCT150 FM221300 02002KT
                       4SM BR BKN004 FM221700 VRB03KT P6SM SCT100=
202303211735 TAF KPWT 211735Z 2118/2218 05005KT P6SM SCT009 BKN013 OVC035 FM212000
                       02004KT P6SM BKN050 FM212300 02005KT P6SM
                       SCT150 FM221500 02002KT 4SM BR BKN004=
202303211342 KPWT 211342Z 2114/2212 00000KT P6SM OVC003 FM211600 03002KT P6SM
                       OVC007 FM211800 03003KT P6SM OVC015 FM212000
                       02004KT P6SM BKN050 FM212300 02005KT P6SM
                       SCT250=
202303211137 TAF KPWT 211137Z 2112/2212 19003KT P6SM OVC005 FM211300 00000KT
                       P6SM OVC007 FM211800 00000KT P6SM OVC015
                       FM212000 02004KT P6SM BKN050 FM212300 02005KT
                       P6SM SCT250=
202303210529 TAF KPWT 210529Z 2106/2206 19006KT P6SM OVC035 FM210900 VRB03KT
                       P6SM SCT007 OVC015 FM211300 00000KT P6SM
                       OVC007 FM211500 00000KT P6SM OVC015 FM212100
                       02004KT P6SM BKN050=
202303202323 TAF KPWT 202323Z 2100/2124 19006KT P6SM VCSH OVC035 FM210900 VRB03KT
                       4SM BR SCT007 OVC015 FM212100 02004KT P6SM
                       BKN050=
202303201920 KPWT 201920Z 2019/2118 21008KT 4SM -RA BR BKN004 OVC009 FM202100
                       20009KT P6SM VCSH FEW015 OVC030 FM210000
                       19006KT P6SM OVC030 FM210900 VRB03KT 4SM
                       BR SCT007 OVC015=
202303201740 TAF KPWT 201740Z 2018/2118 22004KT P6SM -RA OVC004 FM201900 20007KT
                       P6SM -SHRA SCT006 OVC015 FM202100 20009KT
                       P6SM VCSH FEW015 OVC030 FM210000 19006KT
                       P6SM OVC030 FM210900 VRB03KT 4SM BR SCT007
                       OVC015=
202303201637 KPWT 201637Z 2017/2112 22004KT P6SM -RA OVC004 FM201900 20007KT
                       P6SM -SHRA SCT006 OVC015 FM202100 20009KT
                       P6SM VCSH FEW015 OVC030 FM210000 19006KT
                       P6SM OVC030 FM210900 VRB03KT 4SM BR SCT007
                       OVC015=
202303201131 TAF KPWT 201131Z 2012/2112 VRB03KT 6SM -RA SCT004 OVC018
                      TEMPO 2012/2015 BKN004 FM201700 20007KT P6SM
                       -SHRA SCT006 OVC015 FM202100 20009KT P6SM
                       VCSH FEW015 OVC030 FM210000 19006KT P6SM
                       OVC030 FM210900 VRB03KT 4SM BR SCT007 OVC015=
202303200520 TAF KPWT 200520Z 2006/2106 24007KT P6SM -RA OVC060 FM201000 VRB03KT
                       P6SM -RA BKN007 OVC025 FM201300 20003KT
                       P6SM -RA OVC015 FM201700 20005KT P6SM VCSH
                       OVC020 FM202100 20007KT P6SM VCSH OVC025=
202303192324 TAF KPWT 192324Z 2000/2024 25006KT P6SM SCT050 OVC090 FM200300
                       VRB04KT P6SM -RA SCT028 OVC035 FM201000
                       VRB03KT P6SM -RA BKN007 OVC015 FM201600
                       20005KT P6SM VCSH OVC015 FM202100 20007KT
                       P6SM VCSH OVC020=
202303191735 TAF KPWT 191735Z 1918/2018 00000KT P6SM FEW050 OVC100 FM191900
                       04003KT P6SM FEW050 OVC100 FM192300 20007KT
                       P6SM BKN045 OVC100 FM200400 VRB04KT P6SM
                       -RA SCT028 OVC035 FM201000 VRB03KT P6SM
                       -RA BKN007 OVC015 FM201600 20005KT P6SM
                       VCSH OVC015=
202303191125 TAF KPWT 191125Z 1912/2012 00000KT P6SM BKN100 OVC250 FM191900
                       04003KT P6SM OVC100 FM192300 20007KT P6SM
                       BKN045 OVC100 FM200400 VRB04KT P6SM -RA
                       SCT028 OVC035 FM201000 VRB03KT P6SM -RA
                       BKN007 OVC015=
202303190520 TAF KPWT 190520Z 1906/2006 VRB03KT P6SM SCT200 FM191200 04003KT
                       P6SM BKN100 OVC150 FM200000 20005KT P6SM
                       -RA OVC050 FM200400 28005KT P6SM -RA OVC027=
202303182320 TAF KPWT 182320Z 1900/1924 VRB03KT P6SM FEW250 FM190300 00000KT
                       P6SM SCT250 FM191200 04003KT P6SM BKN100
                       OVC150 FM192100 04005KT P6SM OVC100=
202303181727 TAF KPWT 181727Z 1818/1918 04004KT P6SM SKC FM190200 00000KT P6SM
                       SCT250 FM191200 04003KT P6SM BKN100 OVC150=
202303181120 TAF KPWT 181120Z 1812/1912 VRB03KT P6SM SKC FM181900 03005KT P6SM
                       SKC FM190300 VRB03KT P6SM BKN250=
202303180520 TAF KPWT 180520Z 1806/1906 VRB04KT P6SM BKN250 FM180900 00000KT
                       P6SM SCT100 OVC200 FM181200 VRB03KT P6SM
                       BKN100 OVC200 FM181800 03005KT P6SM SCT250
                       FM190300 VRB03KT P6SM BKN250=
202303172320 TAF KPWT 172320Z 1800/1824 26006KT P6SM BKN250 FM180900 00000KT
                       P6SM SCT100 OVC200 FM181200 03004KT P6SM
                       BKN100 OVC200 FM181800 03005KT P6SM SCT250=
202303171720 TAF KPWT 171720Z 1718/1818 06005KT P6SM SCT250 FM180300 00000KT
                       P6SM OVC200 FM180900 00000KT P6SM SCT150
                       OVC200 FM181500 03004KT P6SM BKN100 OVC200=
202303171120 TAF KPWT 171120Z 1712/1812 VRB03KT P6SM SKC FM171800 VRB05KT P6SM
                       BKN250 FM172100 16005KT P6SM SCT250 FM180100
                       VRB03KT P6SM BKN200=
202303170530 TAF KPWT 170530Z 1706/1806 04007KT P6SM SCT250 FM171100 VRB03KT
                       P6SM BCFG SCT005 SCT200 FM171800 04005KT
                       P6SM BKN250 FM172100 16006KT P6SM SCT250
                       FM180100 VRB03KT P6SM BKN250=
202303162321 TAF KPWT 162321Z 1700/1724 03010KT P6SM SCT200 FM170300 03006KT
                       P6SM SCT200 FM171100 VRB03KT P6SM BCFG SCT004
                       SCT200 FM171800 03005KT P6SM BKN200=
202303161720 TAF KPWT 161720Z 1618/1718 03011KT P6SM SCT200 FM170300 03006KT
                       P6SM SCT200 FM171100 VRB03KT P6SM BCFG SCT004
                       SCT200=
202303161120 TAF KPWT 161120Z 1612/1712 05005KT P6SM SCT250 FM161800 03009KT
                       P6SM BKN250 FM170600 02003KT P6SM SCT250=
202303160521 TAF KPWT 160521Z 1606/1706 00000KT P6SM BKN050 FM161400 03004KT
                       P6SM SCT250 FM162100 02003KT P6SM FEW250=
202303152320 TAF KPWT 152320Z 1600/1624 03005KT P6SM SCT050 BKN100 FM160400
                       00000KT P6SM SCT250 FM161400 03004KT P6SM
                       FEW070 BKN250 FM162100 02003KT P6SM FEW250=
202303151745 TAF KPWT 151745Z 1518/1618 00000KT P6SM SCT025 FM152000 VRB03KT
                       P6SM SCT050 FM160200 05003KT P6SM SCT070
                       FM161400 03007KT P6SM FEW070 BKN250=
202303151125 TAF KPWT 151125Z 1512/1612 22007KT P6SM VCSH BKN012 OVC080 FM151600
                       19007KT P6SM VCSH BKN060 FM151900 17006KT
                       P6SM BKN060 FM160200 02003KT P6SM SCT070=
202303150538 TAF KPWT 150538Z 1506/1606 VRB03KT P6SM SCT090 FM151000 20003KT
                       P6SM VCSH BKN035 FM151600 19004KT P6SM OVC050
                       FM152300 VRB03KT P6SM BKN100 FM160200 02003KT
                       P6SM SCT250=
202303142330 TAF KPWT 142330Z 1500/1524 23004KT P6SM SCT030 SCT150 FM151100
                       20003KT P6SM OVC025 FM151600 19003KT P6SM
                       OVC050=
202303141743 TAF KPWT 141743Z 1418/1518 23004KT P6SM SCT010 SCT070 BKN200 FM150900
                       20003KT P6SM OVC025 FM151600 19003KT P6SM
                       OVC050=
202303141125 TAF KPWT 141125Z 1412/1512 20006KT P6SM VCSH BKN006 BKN015 FM141600
                       20004KT P6SM SCT015 SCT070 FM142100 18004KT
                       P6SM SCT070 SCT200 FM150700 VRB03KT P6SM
                       -RA BKN025 BKN100=
202303140853 KPWT 140853Z 1409/1506 20009KT P6SM VCSH SCT015 BKN040 FM141200
                       19003KT P6SM BKN025 BKN070 FM141600 19002KT
                       P6SM OVC050 FM142100 18005KT P6SM BKN100=
202303140544 TAF KPWT 140544Z 1406/1506 21009KT P6SM FEW020 FM141000 19003KT
                       P6SM BKN025 BKN070 FM141600 19002KT P6SM
                       OVC050 FM142100 18005KT P6SM BKN100=
202303132327 TAF KPWT 132327Z 1400/1424 20011KT P6SM VCSH BKN040 BKN070 FM141000
                       19003KT P6SM BKN025 BKN070 FM141600 19002KT
                       P6SM OVC050 FM142100 18005KT P6SM BKN100=
202303131723 TAF KPWT 131723Z 1318/1418 21012G18KT 6SM -RA BR BKN007 OVC040
                       FM131900 20012G18KT P6SM -SHRA SCT015 OVC040
                       FM132200 20011KT P6SM VCSH BKN040 BKN070
                       FM141000 19003KT P6SM BKN025 BKN070 FM141600
                       19002KT P6SM OVC050=
202303131124 TAF KPWT 131124Z 1312/1412 22012G18KT 6SM -RA BR BKN005 OVC040
                       FM131900 20012G18KT P6SM -SHRA SCT015 OVC040
                       FM132200 20011KT P6SM VCSH BKN040 BKN070
                       FM141000 19003KT P6SM BKN025 BKN070=
202303130853 KPWT 130853Z 1309/1406 20010KT 6SM -RA BR OVC003 FM131300 19010G16KT
                       6SM -RA BR SCT006 OVC012 FM131900 20012G18KT
                       P6SM -SHRA BKN022 OVC035 FM132200 20011KT
                       P6SM VCSH BKN035=
202303130524 TAF KPWT 130524Z 1306/1406 19007KT 6SM -RA BR OVC005 FM131300 19010G16KT
                       6SM -RA BR SCT006 OVC012 FM131900 20012G18KT
                       P6SM -SHRA BKN022 OVC035 FM132200 20011KT
                       P6SM VCSH BKN035=
202303130253 KPWT 130253Z 1303/1324 VRB03KT P6SM -RA SCT010 OVC015
                      TEMPO 1303/1306 4SM RA BR BKN005 OVC012 FM130600
                       19006KT 5SM -RA BR OVC011 FM131500 20003KT
                       4SM -SHRA BR OVC015 FM132000 20008KT P6SM
                       -SHRA OVC050=
202303122330 TAF KPWT 122330Z 1300/1324 30003KT P6SM -RA SCT010 OVC015 FM130500
                       19006KT 5SM -RA BR OVC012 FM131500 20003KT
                       4SM -SHRA BR OVC015 FM132000 20008KT P6SM
                       -SHRA OVC050=
202303121731 TAF KPWT 121731Z 1218/1318 03003KT P6SM -RA BKN060 OVC090 FM122200
                       20004KT 6SM -RA BR OVC025 FM130500 19006KT
                       5SM -RA BR OVC012 FM131500 20003KT 4SM -SHRA
                       BR OVC015=
202303121122 TAF KPWT 121122Z 1212/1312 00000KT 2SM BR SCT002 SCT060
                      TEMPO 1212/1215 1/2SM FG BKN002 FM121500
                       00000KT 4SM BR SCT004 SCT060 FM121700 03003KT
                       P6SM BKN060 OVC090 FM122000 02005KT P6SM
                       -RA OVC040 FM122300 05004KT 6SM -RA BR OVC022
                       FM130500 19006KT 5SM -RA BR OVC012=
202303120715 KPWT 120715Z 1207/1306 00000KT 1/2SM FG BKN001 FM121500 00000KT
                       2SM BR BKN007 BKN100 FM121700 03003KT P6SM
                       BKN060 OVC090 FM122100 02005KT P6SM -RA
                       OVC040 FM130100 05004KT 6SM -RA BR OVC025
                       FM130500 19006KT 5SM -RA BR OVC015=
202303120522 TAF KPWT 120522Z 1206/1306 VRB02KT P6SM SCT090 FM121100 00000KT
                       P6SM BCFG SCT007 BKN100
                      TEMPO 1212/1216 BKN006 FM121700 03003KT P6SM
                       BKN060 OVC090 FM122100 02005KT P6SM -RA
                       OVC040 FM130100 05004KT 6SM -RA BR OVC025
                       FM130500 19006KT 5SM -RA BR OVC015=
202303112339 TAF KPWT 112339Z 1200/1224 25006KT P6SM BKN045 OVC100 FM120400
                       VRB02KT P6SM BKN070 OVC120 FM121200 VRB01KT
                       1/4SM FG BKN004 FM121700 04001KT 2SM BR
                       BKN050 FM122100 20005KT P6SM -RA OVC050=
202303111733 TAF KPWT 111733Z 1118/1218 18004KT P6SM -SHRA BKN008 BKN050 OVC100
                       FM112100 20007KT P6SM OVC015 FM112200 21006KT
                       P6SM OVC050 FM120400 VRB02KT P6SM BKN070
                       OVC120=
202303111121 TAF KPWT 111121Z 1112/1212 19008KT P6SM VCSH BKN015 OVC120 FM111400
                       19005KT P6SM VCSH OVC050 FM111800 18004KT
                       P6SM VCSH OVC035 FM120400 VRB03KT P6SM BKN070
                       OVC120=
202303110526 TAF KPWT 110526Z 1106/1206 18007KT P6SM VCSH OVC020 FM111800 18004KT
                       P6SM VCSH OVC025 FM120400 VRB03KT P6SM BKN070
                       OVC120=
202303110420 KPWT 110420Z 1104/1124 19007KT P6SM SCT025 BKN040 BKN120
                      TEMPO 1104/1106 -SHRA BKN022 OVC040 FM110600
                       18005KT P6SM VCSH OVC020 FM111500 18004KT
                       P6SM -RA OVC025=
202303102321 TAF KPWT 102321Z 1100/1124 24012G18KT P6SM BKN040 BKN120 FM110300
                       19007KT P6SM BKN035 OVC050 FM110600 18005KT
                       P6SM OVC020 FM111500 18004KT P6SM -RA OVC025=
202303101721 TAF KPWT 101721Z 1018/1118 23010KT P6SM BKN006 BKN013 FM102000
                       22008KT P6SM BKN015 BKN030 FM102200 20006KT
                       P6SM SCT020 BKN035 FM110000 22005KT P6SM
                       SCT025 BKN040 FM110700 16005KT P6SM OVC020=
202303101120 TAF KPWT 101120Z 1012/1112 03007KT 6SM -RA BR SCT007 OVC010
                      TEMPO 1012/1016 VRB05KT 3SM -RA BR OVC007
                       FM101700 21008KT P6SM SCT010 OVC020 FM102100
                       20006KT P6SM SCT020 BKN035 FM110000 22005KT
                       P6SM SCT025 BKN040 FM110700 16005KT P6SM
                       OVC020=
202303100847 KPWT 100847Z 1009/1106 04008KT P6SM -RA BKN030 OVC035 FM101100
                       03005KT 6SM -RA BR OVC015
                      TEMPO 1012/1016 3SM -RA BR OVC007 FM102100
                       19006KT P6SM SCT015 BKN030 FM110000 20006KT
                       P6SM SCT025 BKN040 FM110500 16005KT P6SM
                       OVC022=
202303100520 TAF KPWT 100520Z 1006/1106 04008KT P6SM BKN060 OVC090 FM101100
                       03005KT 6SM -RA BR OVC022 FM102100 19006KT
                       P6SM SCT015 BKN030 FM110000 20006KT P6SM
                       SCT025 BKN040 FM110500 16005KT P6SM OVC022=
202303092327 TAF KPWT 092327Z 1000/1024 02005KT P6SM BKN060 OVC090 FM101100
                       03005KT 5SM -RA BR OVC015 FM101800 19006KT
                       P6SM SCT020 BKN040=
202303091722 TAF KPWT 091722Z 0918/1018 03005KT P6SM -RA SCT020 BKN080
                      TEMPO 0918/0922 5SM -RA BR BKN020 OVC080
                       FM100300 02009KT P6SM BKN070 OVC100 FM101100
                       03005KT 6SM -RA BR BKN015 OVC030=
202303091355 KPWT 091355Z 0914/1012 05003KT P6SM SCT040 OVC050
                      TEMPO 0914/0916 -RA BKN020 FM091800 06007KT
                       P6SM SCT060 BKN090 BKN200 FM100300 02009KT
                       P6SM BKN070 OVC100 FM101100 03005KT 6SM
                       -RA BR BKN025 OVC040=
202303091123 TAF KPWT 091123Z 0912/1012 05003KT P6SM SCT040 OVC050 FM091800
                       06007KT P6SM SCT060 BKN090 BKN200 FM100300
                       02009KT P6SM BKN070 OVC100 FM101100 03005KT
                       6SM -RA BR BKN025 OVC040=
202303090542 TAF KPWT 090542Z 0906/1006 12003KT P6SM SKC FM091200 03003KT P6SM
                       BKN050 BKN100 FM091800 08006KT P6SM SCT050
                       BKN100 BKN200=
202303082320 TAF KPWT 082320Z 0900/0924 19006KT P6SM SCT040 BKN070 BKN120
                      TEMPO 0900/0904 -SHRA BKN030 OVC070 FM090500
                       12003KT P6SM FEW050 SCT100 BKN200 FM091200
                       00000KT P6SM BKN050 BKN100 FM091800 03006KT
                       P6SM SCT050 BKN100 BKN200=
202303081724 TAF KPWT 081724Z 0818/0918 00000KT 2SM BR OVC003 FM081900 VRB03KT
                       5SM BR BKN005 BKN050 FM082000 19006KT P6SM
                       VCSH BKN050 BKN100 FM090300 VRB03KT P6SM
                       BKN050=
202303081608 KPWT 081608Z 0816/0912 VRB03KT P6SM SCT010 BKN040
                      TEMPO 0816/0818 1/2SM FG BKN002 FM081900
                       19006KT P6SM VCSH BKN050 BKN100 FM090300
                       VRB03KT P6SM BKN050=
202303081411 KPWT 081411Z 0814/0912 09005KT P6SM SCT010 BKN040
                      TEMPO 0814/0816 1/2SM FG BKN002 FM081900
                       19006KT P6SM VCSH BKN050 BKN100 FM090300
                       VRB03KT P6SM BKN050=
202303081325 KPWT 081325Z 0813/0912 09005KT P6SM SCT010 BKN040
                      TEMPO 0813/0817 3SM BR BKN005 FM081900 19006KT
                       P6SM VCSH BKN050 BKN100 FM090300 VRB03KT
                       P6SM BKN050=
202303081120 TAF KPWT 081120Z 0812/0912 09003KT P6SM FEW025 SCT050 BKN100 FM081300
                       09005KT P6SM SCT010 BKN040
                      TEMPO 0814/0818 5SM BR BKN010 FM081900 19006KT
                       P6SM VCSH BKN050 BKN100 FM090300 VRB03KT
                       P6SM BKN050=
202303080520 TAF KPWT 080520Z 0806/0906 VRB03KT P6SM FEW025 SCT050 BKN100 FM081300
                       00000KT P6SM SCT010 BKN080
                      TEMPO 0813/0817 BKN010 OVC080 FM081900 19006KT
                       P6SM VCSH BKN050 BKN100 FM090200 VRB03KT
                       P6SM OVC040=
202303072320 TAF KPWT 072320Z 0800/0824 VRB03KT P6SM FEW025 SCT050 BKN100
                      TEMPO 0800/0804 -SHRA SCT025 BKN035 BKN050
                       FM081300 00000KT P6SM SCT010 BKN080
                      TEMPO 0813/0817 BKN010 OVC080 FM081900 19006KT
                       P6SM VCSH BKN050 BKN100=
202303071733 TAF KPWT 071733Z 0718/0818 VRB03KT P6SM SCT050 BKN100=
202303071120 TAF KPWT 071120Z 0712/0812 VRB04KT P6SM VCSH SCT025 BKN045 BKN100
                       TEMPO 0712/0716 -SHRA BKN010 OVC030 FM072000
                       20005KT P6SM VCSH SCT030 BKN050 BKN100 FM080400
                       00000KT P6SM SCT050 BKN100=
202303070944 KPWT 070944Z 0710/0806 VRB04KT P6SM VCSH BKN045 BKN100
                      TEMPO 0710/0712 5SM -SHRA BR BKN015 BKN030
                       FM071300 VRB03KT P6SM VCSH SCT010 BKN050
                       TEMPO 0714/0718 -SHRA BKN010 OVC050 FM072000
                       20005KT P6SM VCSH SCT030 BKN050 BKN100 FM080400
                       00000KT P6SM SCT050 BKN100=
202303070523 TAF KPWT 070523Z 0706/0806 VRB04KT P6SM VCSH BKN045 BKN100
                      TEMPO 0706/0708 -RA OVC040 FM071300 VRB03KT
                       P6SM VCSH SCT010 BKN050
                      TEMPO 0714/0718 -SHRA BKN010 OVC050 FM072000
                       20005KT P6SM VCSH SCT030 BKN050 BKN100 FM080400
                       00000KT P6SM SCT050 BKN100=
202303070429 KPWT 070429Z 0704/0724 VRB04KT P6SM VCSH BKN045 BKN100
                      TEMPO 0704/0706 -RA OVC040 FM070600 00000KT
                       P6SM BKN050 BKN100 FM071400 00000KT P6SM
                       SCT010 BKN050
                      TEMPO 0714/0718 -SHRA BKN010 OVC050 FM072000
                       20005KT P6SM BKN035 BKN050=
202303062322 TAF KPWT 062322Z 0700/0724 20008KT P6SM BKN070 BKN250 FM070600
                       00000KT P6SM BKN050 BKN100 FM071400 00000KT
                       P6SM SCT010 BKN050
                      TEMPO 0714/0718 -SHRA BKN010 OVC050 FM072000
                       20005KT P6SM BKN035 BKN050=
202303061725 TAF KPWT 061725Z 0618/0718 00000KT P6SM BKN040 OVC060 FM062100
                       20008KT P6SM BKN050 BKN100 FM070600 00000KT
                       P6SM OVC050=
202303061127 TAF KPWT 061127Z 0612/0712 00000KT P6SM BKN050
                      TEMPO 0612/0613 1SM BR FEW001 FM061600 16003KT
                       P6SM SCT020 BKN050 BKN100 FM062100 20011KT
                       P6SM OVC050 FM070400 18007KT P6SM OVC050=
202303060530 TAF KPWT 060530Z 0606/0706 VRB03KT P6SM -SHRA BKN020 OVC035 FM060900
                       VRB03KT 3SM BR BKN007 OVC012 FM061600 16003KT
                       P6SM SCT020 BKN050 BKN100 FM062100 20013KT
                       P6SM BKN100=
202303052331 TAF KPWT 052331Z 0600/0624 02005KT P6SM VCSH SCT050 BKN100
                      TEMPO 0601/0605 -SHRA BKN050 FM060500 VRB03KT
                       P6SM -SHRA BKN020 OVC035 FM060900 VRB03KT
                       3SM BR BKN007 OVC012 FM061600 16003KT P6SM
                       SCT020 BKN050 BKN100 FM062100 20013KT P6SM
                       BKN100=
202303051724 TAF KPWT 051724Z 0518/0618 VRB03KT P6SM SCT025 BKN150 FM052100
                       02005KT P6SM BKN100 FM060400 03004KT P6SM
                       VCSH OVC040 FM060800 VRB03KT P6SM VCSH SCT007
                       OVC010 FM061700 14003KT P6SM BKN015 OVC025=
202303051129 TAF KPWT 051129Z 0512/0612 VRB03KT P6SM SCT050 SCT250
                      TEMPO 0512/0513 1 1/2SM BR FEW001 FM051900
                       20004KT P6SM SCT025 OVC040 FM052100 20005KT
                       P6SM BKN050 FM060600 00000KT 6SM BR OVC025
                       FM061000 00000KT 6SM BR BKN015=
202303050536 TAF KPWT 050536Z 0506/0606 VRB04KT P6SM VCSH OVC050 FM050900 VRB03KT
                       4SM BR OVC015 FM051900 20004KT P6SM SCT025
                       OVC040 FM052100 20005KT P6SM BKN050=
202303042328 TAF KPWT 042328Z 0500/0524 06005KT P6SM VCSH OVC040 FM050400 VRB04KT
                       P6SM VCSH OVC050 FM050900 VRB03KT 4SM BR
                       OVC015 FM051900 20004KT P6SM SCT025 OVC040
                       FM052100 20005KT P6SM BKN050=
202303042053 KPWT 042053Z 0421/0518 05006KT P6SM -RA OVC022 FM042200 07010KT
                       P6SM VCSH SCT022 OVC030 FM050400 12007KT
                       P6SM OVC040 FM050900 19003KT P6SM VCSH OVC015
                       PROB30 0512/0518 -RA=
202303041728 TAF KPWT 041728Z 0418/0518 04006KT 3SM -SN BR BKN004 OVC015 FM042000
                       05008KT P6SM -RA BKN012 OVC022 FM042300
                       07010KT P6SM VCSH BKN020 OVC030 FM050400
                       12007KT P6SM OVC040 FM050900 19003KT P6SM
                       VCSH OVC015
                      PROB30 0512/0518 -RA=
202303041452 KPWT 041452Z 0415/0512 05005KT 5SM -SN BR SCT009 OVC014 FM041800
                       05006KT P6SM -SHRA BKN020 OVC035 FM042300
                       07005KT P6SM VCSH SCT022 OVC040 FM050900
                       19003KT 6SM -SHRA BR OVC017=
202303041125 TAF KPWT 041125Z 0412/0512 VRB03KT 6SM -RA BR SCT009 OVC014 FM041900
                       05006KT P6SM -SHRA BKN020 OVC035 FM042300
                       07005KT P6SM VCSH SCT022 OVC040 FM050900
                       19003KT 6SM -SHRA BR OVC017=
202303040636 KPWT 040636Z 0407/0506 19005KT 6SM -SHRASN BR SCT007 OVC017
                      TEMPO 0407/0411 BKN006 FM041100 11003KT 3SM
                       -SHSN BR SCT007 OVC012 FM041900 10006KT
                       6SM -SHRA BR BKN015 OVC020 FM042200 07005KT
                       P6SM SCT025 OVC040=
202303040521 TAF KPWT 040521Z 0406/0506 19009KT 6SM -SHRASN BR OVC005 FM041200
                       11003KT 3SM -SHSN BR SCT007 OVC012 FM041900
                       10006KT 6SM -SHRA BR BKN015 OVC020 FM042200
                       07005KT P6SM SCT025 OVC040=
202303040037 KPWT 040037Z 0401/0424 19009KT 6SM -SHRASN BR OVC005 FM041200 11003KT
                       3SM -SHSN BR SCT007 OVC012 FM041900 VRB05KT
                       6SM -SHRASN BR BKN015 OVC020=
202303032323 TAF KPWT 032323Z 0400/0424 19009KT P6SM -SHRA SCT015 BKN035
                      TEMPO 0400/0402 5SM -SHRA BR BKN015 OVC025
                       FM040200 19006KT 6SM -SHRASN BKN007 OVC015
                       FM041200 11003KT 3SM -SHSN BR SCT007 OVC012
                       FM041900 VRB05KT 6SM -SHRASN BR BKN015 OVC020=
202303031727 TAF KPWT 031727Z 0318/0418 21010KT P6SM VCSH BKN015 BKN100 FM032000
                       19011KT P6SM -SHRA BKN025 OVC035 FM040300
                       19006KT 6SM -SHRASN BKN010 OVC020 FM040900
                       VRB03KT 3SM -SHSN BR OVC012 FM041600 VRB03KT
                       6SM -SHSN OVC015=
202303031128 TAF KPWT 031128Z 0312/0412 21010KT P6SM VCSH BKN015 BKN100
                      TEMPO 0312/0316 SCT020 BKN100 FM032000 19011KT
                       P6SM -SHRA SCT025 OVC035 FM040300 19006KT
                       6SM -SHRASN BKN017 OVC030 FM040900 VRB03KT
                       5SM -SHSN OVC012=
202303030526 TAF KPWT 030526Z 0306/0406 23008KT P6SM VCSH BKN035 FM031200 21007KT
                       P6SM -SHRA SCT010 BKN020 OVC025 FM032000
                       19011KT P6SM -SHRA SCT025 OVC035=
202303022320 TAF KPWT 022320Z 0300/0324 23014G25KT P6SM VCSH SCT040 FM030300
                       19008KT P6SM VCSH BKN035 FM031200 21007KT
                       P6SM -SHRA SCT010 BKN020 OVC025 FM032000
                       19011KT P6SM -SHRA SCT025 OVC035=
202303021732 TAF KPWT 021732Z 0218/0318 20012G25KT P6SM VCSH SCT004 OVC007
                      TEMPO 0218/0219 OVC004 FM021900 22015G27KT
                       P6SM -SHRA BKN025 OVC030 FM022100 22014G30KT
                       P6SM VCSH BKN040 FM030300 19009KT P6SM VCSH
                       BKN035 FM031200 21008KT P6SM BKN020 OVC030=
202303021129 TAF KPWT 021129Z 0212/0312 20012G29KT 6SM -RA BR OVC007 FM021900
                       21015G27KT P6SM -SHRA BKN025 OVC030 FM022100
                       21012G20KT P6SM VCSH BKN040 FM030400 19008KT
                       P6SM VCSH BKN035=
202303020526 TAF KPWT 020526Z 0206/0306 20012G20KT P6SM -RA BKN020 OVC040 FM020900
                       20009G19KT 5SM -RA BR SCT007 OVC012 FM021200
                       20012G29KT 3SM -RA BR OVC007 FM021900 21015G27KT
                       P6SM -SHRA BKN025 OVC030 FM022100 19011KT
                       P6SM VCSH BKN045=
202303012324 TAF KPWT 012324Z 0200/0224 20009KT P6SM BKN040 OVC070 FM020500
                       20008KT P6SM -RA SCT015 OVC020 FM020800
                       19009G19KT 5SM -RA BR SCT007 OVC012 FM021100
                       19012G29KT 3SM -RA BR OVC007 FM021900 21015G27KT
                       P6SM -SHRA SCT025 OVC035=
202303012009 KPWT 012009Z 0120/0218 20008KT P6SM SCT010 OVC080
                      TEMPO 0120/0122 OVC009 FM020300 20008KT P6SM
                       OVC050 FM020700 19009G19KT P6SM -RA SCT007
                       OVC015 FM021100 19012G29KT 5SM -RA BR SCT007
                       OVC010=
202303011734 TAF KPWT 011734Z 0118/0218 19005KT P6SM SCT003 BKN035
                      TEMPO 0118/0120 1/2SM FG BKN003 FM012000
                       20008KT P6SM OVC080 FM020300 20008KT P6SM
                       OVC050 FM020700 19009G19KT P6SM -RA SCT007
                       OVC015 FM021100 19012G29KT 5SM -RA BR SCT007
                       OVC010=
202303011131 TAF KPWT 011131Z 0112/0212 00000KT P6SM FEW002 SCT025 OVC200
                      TEMPO 0112/0116 3SM BR FM011700 19005KT P6SM
                       SCT030 OVC120 FM012100 20008KT P6SM OVC100
                       FM020300 20008KT P6SM OVC050 FM020700 19009KT
                       P6SM -RA OVC030 FM021100 19010G18KT 6SM
                       -RA BR OVC018=
202303010528 TAF KPWT 010528Z 0106/0206 00000KT P6SM SCT025 BKN050 FM010900
                       00000KT 5SM BR BKN010 FM011300 00000KT 1/2SM
                       FZFG BKN004 FM011800 19005KT 4SM BR SCT007
                       BKN015 FM012100 20008KT P6SM BKN040=