##########################################################
# Query made at 02/16/2025 01:21:47 UTC
# Time interval: from 10/01/2023 00:00  to 10/31/2023 23:59  UTC
##########################################################

##########################################################
# KPWT, Bremerton National Automatic Weather Observing / Reporting System (United States)
# WMO index: -----. WIGOS ID: Unknown
# Latitude 47-30N. Longitude 122-45W. Altitude 147 m.
##########################################################

###################################
#  METAR/SPECI from KPWT
###################################
202310312356 METAR KPWT 312356Z AUTO 00000KT 10SM CLR 12/03 A3013 RMK AO2 SLP211 T01170033 10128 20072 56011=
202310312256 METAR KPWT 312256Z AUTO 00000KT 10SM CLR 12/07 A3014 RMK AO2 SLP212 T01220067=
202310312156 METAR KPWT 312156Z AUTO 00000KT 10SM CLR 12/07 A3015 RMK AO2 SLP215 T01170067=
202310312056 METAR KPWT 312056Z AUTO 26004KT 10SM CLR 11/06 A3017 RMK AO2 SLP222 T01110061 58012=
202310311956 METAR KPWT 311956Z AUTO 29004KT 10SM CLR 13/07 A3018 RMK AO2 SLP228 T01280067=
202310311856 METAR KPWT 311856Z AUTO 32003KT 10SM CLR 09/06 A3020 RMK AO2 SLP232 T00890061=
202310311756 METAR KPWT 311756Z AUTO 26004KT 10SM CLR 08/05 A3020 RMK AO2 SLP234 T00780050 10078 21017 50005=
202310311656 METAR KPWT 311656Z AUTO 24003KT 10SM CLR 06/06 A3020 RMK AO2 SLP233 T00610056=
202310311556 METAR KPWT 311556Z AUTO 00000KT 10SM CLR 01/01 A3019 RMK AO2 SLP230 T00060006 FZRANO=
202310311503 SPECI KPWT 311503Z AUTO 00000KT 8SM CLR M01/M01 A3018 RMK AO2 FZRANO=
202310311456 METAR KPWT 311456Z AUTO 00000KT 1 1/2SM BR CLR M01/M01 A3018 RMK AO2 VIS 1/4V5 SLP228 T10111011 57007 FZRANO=
202310311438 SPECI KPWT 311438Z AUTO 00000KT 1/4SM FZFG CLR M01/M02 A3019 RMK AO2 FZRANO=
202310311429 SPECI KPWT 311429Z AUTO 00000KT 1/2SM FZFG CLR M01/M02 A3019 RMK AO2 FZRANO=
202310311426 SPECI KPWT 311426Z AUTO 00000KT 1SM BR CLR M01/M02 A3019 RMK AO2 FZRANO=
202310311410 SPECI KPWT 311410Z AUTO 22003KT 10SM CLR M02/M02 A3019 RMK AO2 FZRANO=
202310311403 SPECI KPWT 311403Z AUTO 00000KT 2 1/2SM BR CLR M02/M02 A3019 RMK AO2 VIS 1V5 FZRANO=
202310311356 METAR KPWT 311356Z AUTO 00000KT 1 3/4SM BR CLR M02/M02 A3019 RMK AO2 VIS 1/2V5 SLP230 T10171017 FZRANO=
202310311354 SPECI KPWT 311354Z AUTO 00000KT 1 1/4SM BR CLR M01/M02 A3019 RMK AO2 VIS 1/2V5 FZRANO=
202310311346 SPECI KPWT 311346Z AUTO 00000KT 3/4SM BR CLR M01/M01 A3019 RMK AO2 VIS 1/2V5 FZRANO=
202310311337 SPECI KPWT 311337Z AUTO 00000KT 1 1/4SM BR CLR 00/00 A3019 RMK AO2 VIS 1/2V5 FZRANO=
202310311326 SPECI KPWT 311326Z AUTO 00000KT 3/4SM BR CLR M01/M01 A3019 RMK AO2 FZRANO=
202310311324 SPECI KPWT 311324Z AUTO 00000KT 1 1/2SM BR CLR M01/M01 A3019 RMK AO2 FZRANO=
202310311307 SPECI KPWT 311307Z AUTO 00000KT 3SM BR CLR M01/M01 A3019 RMK AO2 FZRANO=
202310311302 SPECI KPWT 311302Z AUTO 00000KT 1 1/4SM BR CLR M01/M01 A3020 RMK AO2 VIS 1/2V5 FZRANO=
202310311256 METAR KPWT 311256Z AUTO 00000KT 3/4SM BR CLR M01/M01 A3020 RMK AO2 SLP234 T10061011 FZRANO=
202310311250 SPECI KPWT 311250Z AUTO 00000KT 3/4SM BR CLR M01/M01 A3020 RMK AO2 FZRANO=
202310311245 SPECI KPWT 311245Z AUTO 00000KT 1 3/4SM BR CLR M01/M01 A3020 RMK AO2 FZRANO=
202310311236 SPECI KPWT 311236Z AUTO 00000KT 3SM BR CLR M01/M01 A3020 RMK AO2 FZRANO=
202310311230 SPECI KPWT 311230Z AUTO 00000KT 1 1/4SM BR CLR M01/M01 A3020 RMK AO2 VIS 1/2V5 FZRANO=
202310311227 SPECI KPWT 311227Z AUTO 00000KT 1/2SM FZFG CLR M01/M01 A3020 RMK AO2 FZRANO=
202310311220 SPECI KPWT 311220Z AUTO 00000KT 3/4SM BR CLR M01/M01 A3020 RMK AO2 FZRANO=
202310311218 SPECI KPWT 311218Z AUTO 00000KT 1 1/2SM BR CLR M01/M01 A3020 RMK AO2 FZRANO=
202310311156 METAR KPWT 311156Z AUTO 04003KT 10SM CLR M02/M02 A3020 RMK AO2 SLP235 T10171017 10006 21022 58005 FZRANO=
202310311056 METAR KPWT 311056Z AUTO 00000KT 10SM CLR M02/M02 A3022 RMK AO2 SLP239 T10171022 FZRANO=
202310310956 METAR KPWT 310956Z AUTO 22004KT 10SM CLR M02/M03 A3022 RMK AO2 SLP242 T10221028 FZRANO=
202310310935 SPECI KPWT 310935Z AUTO 00000KT 6SM BR CLR M01/M01 A3022 RMK AO2 FZRANO=
202310310928 SPECI KPWT 310928Z AUTO 00000KT 2SM BR CLR M01/M01 A3022 RMK AO2 VIS 1/2V5 FZRANO=
202310310922 SPECI KPWT 310922Z AUTO 00000KT 1SM BR CLR M01/M02 A3022 RMK AO2 VIS 1/2V5 FZRANO=
202310310913 SPECI KPWT 310913Z AUTO 00000KT 2SM BR CLR M01/M01 A3022 RMK AO2 VIS 1/2V5 FZRANO=
202310310856 METAR KPWT 310856Z AUTO 00000KT 10SM CLR M01/M01 A3022 RMK AO2 SLP240 T10111011 56003 FZRANO=
202310310756 METAR KPWT 310756Z AUTO 00000KT 10SM CLR M01/M01 A3022 RMK AO2 SLP241 T10061006 401391011 FZRANO=
202310310656 METAR KPWT 310656Z AUTO 00000KT 10SM CLR 01/00 A3022 RMK AO2 SLP241 T00060000 FZRANO=
202310310556 METAR KPWT 310556Z AUTO 00000KT 10SM CLR 01/00 A3023 RMK AO2 SLP243 T00060000 10122 20006 56003 FZRANO=
202310310456 METAR KPWT 310456Z AUTO 00000KT 10SM CLR 02/02 A3023 RMK AO2 SLP245 T00170017 FZRANO=
202310310356 METAR KPWT 310356Z AUTO 00000KT 10SM CLR 05/02 A3023 RMK AO2 SLP244 T00500022=
202310310256 METAR KPWT 310256Z AUTO 00000KT 10SM CLR 07/03 A3024 RMK AO2 SLP246 T00670033 56007=
202310310156 METAR KPWT 310156Z AUTO 06005KT 10SM CLR 08/04 A3024 RMK AO2 SLP246 T00780039=
202310310056 METAR KPWT 310056Z AUTO 04005KT 10SM CLR 09/04 A3025 RMK AO2 SLP248 T00940044=
202310302356 METAR KPWT 302356Z AUTO 06006KT 10SM CLR 12/03 A3026 RMK AO2 SLP251 T01220033 10139 20089 56012=
202310302256 METAR KPWT 302256Z AUTO 03005KT 10SM CLR 13/04 A3027 RMK AO2 SLP254 T01330039=
202310302156 METAR KPWT 302156Z AUTO 05007KT 10SM CLR 13/03 A3028 RMK AO2 SLP259 T01330033=
202310302056 METAR KPWT 302056Z AUTO 05009KT 10SM CLR 13/03 A3029 RMK AO2 SLP263 T01280033 58015=
202310301956 METAR KPWT 301956Z AUTO 02007KT 10SM CLR 12/04 A3032 RMK AO2 SLP271 T01220039=
202310301856 METAR KPWT 301856Z AUTO 03007KT 10SM CLR 11/04 A3033 RMK AO2 SLP276 T01110044=
202310301756 METAR KPWT 301756Z AUTO 05008KT 10SM CLR 09/05 A3034 RMK AO2 SLP279 T00890050 10089 20039 58004=
202310301656 METAR KPWT 301656Z AUTO 05012KT 10SM CLR 07/05 A3034 RMK AO2 SLP281 T00720050=
202310301556 METAR KPWT 301556Z AUTO 04007KT 10SM CLR 06/04 A3035 RMK AO2 SLP283 T00610044=
202310301456 METAR KPWT 301456Z AUTO 06006KT 10SM CLR 04/04 A3035 RMK AO2 SLP284 T00390039 53001=
202310301356 METAR KPWT 301356Z AUTO 05007KT 10SM CLR 04/04 A3034 RMK AO2 SLP282 T00440039=
202310301256 METAR KPWT 301256Z AUTO 04006KT 10SM CLR 04/03 A3034 RMK AO2 SLP283 T00440033=
202310301156 METAR KPWT 301156Z AUTO 04008KT 10SM CLR 04/03 A3034 RMK AO2 SLP282 T00440033 10061 20044 58006=
202310301056 METAR KPWT 301056Z AUTO 05009KT 10SM CLR 05/03 A3035 RMK AO2 SLP282 T00500033=
202310300956 METAR KPWT 300956Z AUTO 04006KT 10SM CLR 06/03 A3036 RMK AO2 SLP286 T00560033=
202310300856 METAR KPWT 300856Z AUTO 04007KT 10SM CLR 05/03 A3036 RMK AO2 SLP287 T00500028 56005=
202310300756 METAR KPWT 300756Z AUTO 06005KT 10SM CLR 05/02 A3037 RMK AO2 SLP290 T00500022 401281022=
202310300656 METAR KPWT 300656Z AUTO 06006KT 10SM CLR 06/02 A3037 RMK AO2 SLP290 T00560017=
202310300556 METAR KPWT 300556Z AUTO 05010KT 10SM CLR 06/01 A3038 RMK AO2 SLP293 T00610006 10111 20056 55001=
202310300456 METAR KPWT 300456Z AUTO 06006KT 10SM CLR 06/00 A3038 RMK AO2 SLP294 T00610000=
202310300356 METAR KPWT 300356Z AUTO 05004KT 10SM CLR 06/00 A3037 RMK AO2 SLP293 T00560000=
202310300256 METAR KPWT 300256Z AUTO 05008KT 10SM CLR 07/01 A3038 RMK AO2 SLP294 T00670011 56004=
202310300156 METAR KPWT 300156Z AUTO 04007KT 10SM CLR 07/01 A3038 RMK AO2 SLP294 T00670011=
202310300056 METAR KPWT 300056Z AUTO 04005KT 10SM CLR 08/02 A3038 RMK AO2 SLP296 T00780017=
202310292356 METAR KPWT 292356Z AUTO 03005KT 10SM CLR 11/01 A3039 RMK AO2 SLP298 T01110011 10128 20078 56010=
202310292256 METAR KPWT 292256Z AUTO 06007KT 10SM CLR 12/01 A3040 RMK AO2 SLP299 T01220006=
202310292156 METAR KPWT 292156Z AUTO 05007KT 10SM CLR 12/01 A3041 RMK AO2 SLP302 T01220011=
202310292056 METAR KPWT 292056Z AUTO 05003KT 10SM CLR 12/02 A3042 RMK AO2 SLP309 T01170017 58016=
202310291956 METAR KPWT 291956Z AUTO 05005KT 10SM CLR 11/01 A3044 RMK AO2 SLP315 T01060011=
202310291856 METAR KPWT 291856Z AUTO 06008KT 10SM CLR 09/01 A3046 RMK AO2 SLP321 T00940006=
202310291756 METAR KPWT 291756Z AUTO 04010KT 10SM CLR 08/01 A3047 RMK AO2 SLP325 T00780006 10078 21017 50000=
202310291656 METAR KPWT 291656Z AUTO 04009KT 10SM CLR 06/02 A3048 RMK AO2 SLP327 T00610022=
202310291556 METAR KPWT 291556Z AUTO 00000KT 10SM CLR 04/01 A3048 RMK AO2 SLP328 T00390011=
202310291456 METAR KPWT 291456Z AUTO 00000KT 10SM CLR 01/M01 A3047 RMK AO2 SLP327 T00111011 58005 FZRANO=
202310291356 METAR KPWT 291356Z AUTO 04006KT 10SM CLR 01/01 A3048 RMK AO2 SLP328 T00110006 FZRANO=
202310291256 METAR KPWT 291256Z AUTO 00000KT 10SM CLR M01/M02 A3048 RMK AO2 SLP329 T10111022 FZRANO=
202310291156 METAR KPWT 291156Z AUTO 36004KT 10SM CLR 02/00 A3049 RMK AO2 SLP331 T00170000 10039 21022 58008 FZRANO=
202310291056 METAR KPWT 291056Z AUTO 05006KT 10SM CLR 03/02 A3050 RMK AO2 SLP333 T00280017=
202310290956 METAR KPWT 290956Z AUTO 06007KT 10SM CLR 03/02 A3050 RMK AO2 SLP336 T00330017=
202310290856 METAR KPWT 290856Z AUTO 00000KT 10SM CLR M02/M03 A3051 RMK AO2 SLP338 T10221028 55000 FZRANO=
202310290756 METAR KPWT 290756Z AUTO 00000KT 10SM CLR 00/M01 A3050 RMK AO2 SLP337 T00001011 401001033 FZRANO=
202310290656 METAR KPWT 290656Z AUTO 08003KT 10SM CLR 03/01 A3051 RMK AO2 SLP338 T00330006=
202310290556 METAR KPWT 290556Z AUTO 06005KT 10SM CLR 03/01 A3051 RMK AO2 SLP339 T00330006 10089 21011 53003=
202310290456 METAR KPWT 290456Z AUTO 04007KT 10SM CLR 04/M01 A3050 RMK AO2 SLP337 T00441006=
202310290356 METAR KPWT 290356Z AUTO 04006KT 10SM CLR 02/00 A3050 RMK AO2 SLP335 T00170000 FZRANO=
202310290256 METAR KPWT 290256Z AUTO 00000KT 10SM CLR M01/M01 A3050 RMK AO2 SLP337 T10061011 53001 FZRANO=
202310290156 METAR KPWT 290156Z AUTO 00000KT 10SM CLR 02/M01 A3049 RMK AO2 SLP333 T00171006 FZRANO=
202310290056 METAR KPWT 290056Z AUTO 00000KT 10SM CLR 07/M01 A3049 RMK AO2 SLP331 T00671006=
202310282356 METAR KPWT 282356Z AUTO 07005KT 10SM CLR 09/M02 A3050 RMK AO2 SLP334 T00891017 10100 20072 56012=
202310282256 METAR KPWT 282256Z AUTO 03007KT 10SM CLR 10/M02 A3050 RMK AO2 SLP336 T01001017=
202310282156 METAR KPWT 282156Z AUTO 05008KT 10SM CLR 09/M01 A3052 RMK AO2 SLP341 T00941011=
202310282056 METAR KPWT 282056Z AUTO 04007KT 10SM CLR 09/M01 A3053 RMK AO2 SLP345 T00941011 58003=
202310281956 METAR KPWT 281956Z AUTO 04006KT 10SM CLR 09/M01 A3054 RMK AO2 SLP348 T00891011=
202310281856 METAR KPWT 281856Z AUTO 05009KT 10SM CLR 08/M01 A3055 RMK AO2 SLP351 T00781006=
202310281756 METAR KPWT 281756Z AUTO 04005KT 10SM CLR 07/00 A3054 RMK AO2 SLP349 T00720000 10072 21022 51007=
202310281656 METAR KPWT 281656Z AUTO 03005KT 10SM CLR 06/00 A3054 RMK AO2 SLP349 T00560000=
202310281556 METAR KPWT 281556Z AUTO 04004KT 10SM CLR 04/02 A3053 RMK AO2 SLP346 T00390017=
202310281456 METAR KPWT 281456Z AUTO 04003KT 10SM CLR 01/M01 A3052 RMK AO2 SLP342 T00061011 51004 FZRANO=
202310281356 METAR KPWT 281356Z AUTO 06007KT 10SM CLR 02/M01 A3052 RMK AO2 SLP340 T00221006 FZRANO=
202310281256 METAR KPWT 281256Z AUTO 04006KT 10SM CLR 03/M01 A3051 RMK AO2 SLP341 T00281011=
202310281156 METAR KPWT 281156Z AUTO 06005KT 10SM CLR M02/M02 A3051 RMK AO2 SLP338 T10221022 10044 21033 51009 FZRANO=
202310281056 METAR KPWT 281056Z AUTO 00000KT 10SM CLR M02/M03 A3050 RMK AO2 SLP336 T10221033 FZRANO=
202310280956 METAR KPWT 280956Z AUTO 00000KT 10SM CLR 00/M04 A3050 RMK AO2 SLP334 T00001039 FZRANO=
202310280856 METAR KPWT 280856Z AUTO 06007KT 10SM CLR 04/M05 A3048 RMK AO2 SLP328 T00391050 53006=
202310280756 METAR KPWT 280756Z AUTO 05009KT 10SM CLR 04/M05 A3047 RMK AO2 SLP324 T00391050 401000022=
202310280656 METAR KPWT 280656Z AUTO 05009KT 10SM CLR 04/M06 A3047 RMK AO2 SLP324 T00441056=
202310280556 METAR KPWT 280556Z AUTO 05009KT 10SM CLR 04/M06 A3046 RMK AO2 SLP323 T00391056 10083 20039 53013=
202310280456 METAR KPWT 280456Z AUTO 05007KT 10SM CLR 04/M06 A3044 RMK AO2 SLP316 T00441056=
202310280356 METAR KPWT 280356Z AUTO 06007KT 10SM CLR 05/M06 A3043 RMK AO2 SLP313 T00501056=
202310280256 METAR KPWT 280256Z AUTO 02006KT 10SM CLR 06/M06 A3043 RMK AO2 SLP310 T00561061 53005=
202310280156 METAR KPWT 280156Z AUTO 05008KT 10SM CLR 05/M06 A3042 RMK AO2 SLP308 T00501056=
202310280056 METAR KPWT 280056Z AUTO 04007KT 10SM CLR 06/M06 A3041 RMK AO2 SLP303 T00611056=
202310272356 METAR KPWT 272356Z AUTO 01009KT 10SM CLR 08/M06 A3041 RMK AO2 SLP305 T00831056 10100 20078 51003=
202310272256 METAR KPWT 272256Z AUTO 02013G17KT 10SM CLR 09/M08 A3041 RMK AO2 SLP304 T00891083=
202310272156 METAR KPWT 272156Z AUTO 03009KT 10SM CLR 09/M07 A3041 RMK AO2 SLP302 T00941067=
202310272056 METAR KPWT 272056Z AUTO 02008KT 10SM CLR 09/M05 A3040 RMK AO2 SLP300 T00941050 51003=
202310271956 METAR KPWT 271956Z AUTO 03009KT 10SM CLR 09/M04 A3040 RMK AO2 SLP300 T00941044=
202310271856 METAR KPWT 271856Z AUTO 02011G21KT 10SM CLR 08/M04 A3040 RMK AO2 SLP302 T00831039=
202310271756 METAR KPWT 271756Z AUTO 03014G20KT 10SM CLR 08/M04 A3039 RMK AO2 SLP297 T00781044 10078 20033 51016=
202310271656 METAR KPWT 271656Z AUTO 02012KT 10SM CLR 07/M04 A3038 RMK AO2 SLP295 T00721044=
202310271556 METAR KPWT 271556Z AUTO 01012G22KT 10SM CLR 06/M05 A3036 RMK AO2 SLP289 T00561050=
202310271456 METAR KPWT 271456Z AUTO 02014G26KT 10SM CLR 05/M06 A3034 RMK AO2 PK WND 04026/1448 SLP282 T00501056 52008=
202310271356 METAR KPWT 271356Z AUTO 04009G18KT 010V070 10SM CLR 04/M04 A3033 RMK AO2 SLP279 T00441039=
202310271256 METAR KPWT 271256Z AUTO 03010KT 10SM CLR 04/M04 A3032 RMK AO2 SLP276 T00391044=
202310271156 METAR KPWT 271156Z AUTO 04009G18KT 10SM CLR 04/M03 A3032 RMK AO2 SLP272 T00391033 10056 20022 52004=
202310271056 METAR KPWT 271056Z AUTO 04005KT 10SM CLR 03/M01 A3031 RMK AO2 SLP271 T00331011=
202310270956 METAR KPWT 270956Z AUTO 07008KT 10SM CLR 04/M01 A3031 RMK AO2 SLP269 T00441011=
202310270856 METAR KPWT 270856Z AUTO 09004KT 10SM CLR 04/M01 A3030 RMK AO2 SLP268 T00391006 53007=
202310270756 METAR KPWT 270756Z AUTO 04006KT 10SM CLR 03/00 A3029 RMK AO2 SLP264 T00330000 401111017=
202310270656 METAR KPWT 270656Z AUTO 03007KT 10SM CLR 04/01 A3029 RMK AO2 SLP262 T00390011=
202310270556 METAR KPWT 270556Z AUTO 04010KT 10SM CLR 05/02 A3028 RMK AO2 SLP262 T00500017 10089 20039 53004=
202310270456 METAR KPWT 270456Z AUTO 04003KT 10SM CLR 04/01 A3028 RMK AO2 SLP263 T00390006=
202310270356 METAR KPWT 270356Z AUTO 02003KT 10SM FEW055 04/03 A3027 RMK AO2 SLP256 T00440033=
202310270256 METAR KPWT 270256Z AUTO 04005KT 10SM CLR 04/04 A3027 RMK AO2 SLP257 T00440039 53012=
202310270156 METAR KPWT 270156Z AUTO 03003KT 10SM CLR 05/04 A3026 RMK AO2 SLP253 T00500044=
202310270056 METAR KPWT 270056Z AUTO 14003KT 10SM FEW070 06/06 A3024 RMK AO2 SLP246 T00610056=
202310262356 METAR KPWT 262356Z AUTO 07003KT 10SM SCT055 SCT085 09/06 A3024 RMK AO2 SLP246 T00890056 10111 20072 53004=
202310262256 METAR KPWT 262256Z AUTO 04004KT 10SM FEW085 09/05 A3023 RMK AO2 SLP245 T00890050=
202310262156 METAR KPWT 262156Z AUTO VRB03KT 10SM BKN033 OVC040 11/04 A3022 RMK AO2 SLP241 T01060039=
202310262147 SPECI KPWT 262147Z AUTO VRB03KT 10SM BKN033 OVC040 11/04 A3022 RMK AO2=
202310262110 SPECI KPWT 262110Z AUTO 23004KT 10SM BKN029 OVC036 10/04 A3022 RMK AO2=
202310262056 METAR KPWT 262056Z AUTO VRB06KT 10SM FEW029 BKN036 BKN043 11/05 A3022 RMK AO2 SLP242 T01110050 58005=
202310262022 SPECI KPWT 262022Z AUTO 20006KT 10SM SCT025 BKN033 11/04 A3023 RMK AO2=
202310262014 SPECI KPWT 262014Z AUTO 23005KT 10SM BKN025 BKN031 10/04 A3023 RMK AO2=
202310262005 SPECI KPWT 262005Z AUTO 20005KT 10SM SCT021 SCT028 09/05 A3024 RMK AO2=
202310261956 METAR KPWT 261956Z AUTO 23004KT 10SM BKN021 09/05 A3024 RMK AO2 SLP245 T00890050=
202310261934 SPECI KPWT 261934Z AUTO 26005KT 10SM BKN019 10/06 A3024 RMK AO2=
202310261856 METAR KPWT 261856Z AUTO 25005KT 10SM SCT015 09/05 A3024 RMK AO2 SLP248 T00890050=
202310261756 METAR KPWT 261756Z AUTO VRB03KT 10SM CLR 07/04 A3024 RMK AO2 SLP246 T00720044 10072 20000 51011=
202310261656 METAR KPWT 261656Z AUTO 00000KT 10SM FEW036 05/04 A3023 RMK AO2 SLP245 T00500039=
202310261556 METAR KPWT 261556Z AUTO 00000KT 10SM OVC034 03/03 A3022 RMK AO2 SLP242 T00280028=
202310261456 METAR KPWT 261456Z AUTO 00000KT 10SM BKN032 01/01 A3020 RMK AO2 SLP235 T00060006 53011 FZRANO=
202310261405 SPECI KPWT 261405Z AUTO 00000KT 10SM BKN032 00/00 A3019 RMK AO2 FZRANO=
202310261356 METAR KPWT 261356Z AUTO 00000KT 2 1/2SM BR FEW032 00/00 A3019 RMK AO2 VIS 3/4V5 SLP231 T00000000 FZRANO=
202310261256 METAR KPWT 261256Z AUTO 00000KT 10SM BKN055 02/02 A3018 RMK AO2 SLP229 T00170017 FZRANO=
202310261156 METAR KPWT 261156Z AUTO 00000KT 10SM FEW027 OVC050 02/02 A3017 RMK AO2 SLP224 70033 T00170017 10017 21017 FZRANO=
202310261056 METAR KPWT 261056Z AUTO 00000KT 10SM OVC050 00/00 A3017 RMK AO2 SLP222 T00000000 FZRANO=
202310260956 METAR KPWT 260956Z AUTO 00000KT 10SM BKN060 M01/M01 RMK AO2 SLPNO T10061006 FZRANO $=
202310260856 METAR KPWT 260856Z AUTO 00000KT 9SM CLR M01/M01 A3013 RMK AO2 SLP210 T10111011 53017 FZRANO=
202310260756 METAR KPWT 260756Z AUTO 00000KT 10SM CLR M01/M01 A3010 RMK AO2 SLP200 T10111011 400941011 FZRANO=
202310260656 METAR KPWT 260656Z AUTO 00000KT 10SM CLR M01/M02 A3009 RMK AO2 SLP197 T10061017 FZRANO=
202310260556 METAR KPWT 260556Z AUTO 00000KT 10SM CLR 02/M01 A3008 RMK AO2 SLP194 T00221006 10089 20011 51021 FZRANO=
202310260456 METAR KPWT 260456Z AUTO 00000KT 10SM CLR 01/01 A3006 RMK AO2 SLP188 T00110006 FZRANO=
202310260356 METAR KPWT 260356Z AUTO 00000KT 10SM FEW055 03/00 A3004 RMK AO2 SLP181 T00280000=
202310260256 METAR KPWT 260256Z AUTO 11005KT 10SM CLR 05/00 A3002 RMK AO2 SLP171 T00500000 51021=
202310260156 METAR KPWT 260156Z AUTO 05008KT 10SM CLR 06/01 A3000 RMK AO2 SLP166 T00560006=
202310260056 METAR KPWT 260056Z AUTO 04009KT 10SM CLR 07/02 A2997 RMK AO2 SLP157 T00670017=
202310252356 METAR KPWT 252356Z AUTO 04010KT 10SM CLR 09/04 A2996 RMK AO2 SLP149 60007 T00890039 10094 20061 53015=
202310252256 METAR KPWT 252256Z AUTO 04010KT 10SM CLR 09/05 A2993 RMK AO2 LTG DSNT SE SLP142 T00940050=
202310252156 METAR KPWT 252156Z AUTO 02009KT 10SM CLR 09/06 A2992 RMK AO2 SLP136 T00940061=
202310252129 SPECI KPWT 252129Z AUTO 02006KT 10SM FEW016 SCT025 09/07 A2991 RMK AO2=
202310252056 METAR KPWT 252056Z AUTO 36005KT 10SM BKN016 BKN049 08/07 A2991 RMK AO2 RAE20 SLP134 P0000 60007 T00780072 51019=
202310252027 SPECI KPWT 252027Z AUTO 02004KT 10SM SCT023 07/07 A2991 RMK AO2 RAE20 P0000=
202310252019 SPECI KPWT 252019Z AUTO 03005KT 10SM -RA SCT023 BKN029 07/07 A2991 RMK AO2 P0000=
202310251956 METAR KPWT 251956Z AUTO 02005KT 10SM -RA FEW010 07/07 A2990 RMK AO2 SLP133 P0006 T00670067=
202310251947 SPECI KPWT 251947Z AUTO 05005KT 9SM -RA FEW008 SCT012 07/06 A2990 RMK AO2 P0006=
202310251856 METAR KPWT 251856Z AUTO 04009KT 6SM RA BR FEW018 BKN026 OVC036 07/07 A2988 RMK AO2 RAE19B36 SLP126 P0001 T00670067=
202310251818 SPECI KPWT 251818Z AUTO 02008KT 10SM -RA BKN020 BKN032 08/07 A2986 RMK AO2 P0000=
202310251756 METAR KPWT 251756Z AUTO 03004KT 10SM -RA FEW020 07/06 A2985 RMK AO2 SLP116 P0004 60026 T00670061 10067 20050 51031=
202310251656 METAR KPWT 251656Z AUTO 02004KT 10SM -RA SCT012 BKN034 OVC041 06/06 A2983 RMK AO2 SLP108 P0001 T00560056=
202310251602 SPECI KPWT 251602Z AUTO 03007KT 10SM -RA FEW006 BKN010 OVC023 06/06 A2980 RMK AO2 P0000=
202310251556 METAR KPWT 251556Z AUTO 03008KT 10SM -RA SCT010 BKN018 BKN023 06/06 A2980 RMK AO2 SLP096 P0001 T00560056=
202310251546 SPECI KPWT 251546Z AUTO 03008KT 10SM -RA FEW010 BKN023 06/06 A2979 RMK AO2 P0001=
202310251456 METAR KPWT 251456Z AUTO 03006KT 10SM -RA CLR 05/05 A2976 RMK AO2 SLP084 P0008 60020 T00500050 53021=
202310251446 SPECI KPWT 251446Z AUTO 02006KT 10SM -RA SCT023 05/05 A2976 RMK AO2 P0007=
202310251356 METAR KPWT 251356Z AUTO 36006KT 8SM -RA SCT023 OVC027 05/05 A2973 RMK AO2 SLP075 P0006 T00500050=
202310251318 SPECI KPWT 251318Z AUTO 04005KT 10SM -RA FEW019 BKN029 05/05 A2972 RMK AO2 P0002=
202310251256 METAR KPWT 251256Z AUTO 00000KT 10SM -RA CLR 05/05 A2971 RMK AO2 SLP068 P0006 T00500050=
202310251237 SPECI KPWT 251237Z AUTO 00000KT 10SM -RA SCT021 05/05 A2971 RMK AO2 P0004=
202310251217 SPECI KPWT 251217Z AUTO 36003KT 5SM RA BR BKN019 BKN025 05/05 A2970 RMK AO2 P0004=
202310251156 METAR KPWT 251156Z AUTO 32004KT 5SM RA BR SCT021 05/05 A2970 RMK AO2 SLP062 P0008 60013 70094 T00500050 10056 20050 53012=
202310251056 METAR KPWT 251056Z AUTO 00000KT 7SM -RA SCT018 OVC025 06/06 A2968 RMK AO2 SLP056 P0005 T00560056=
202310250956 METAR KPWT 250956Z AUTO 08003KT 10SM -RA BKN029 OVC033 06/06 A2967 RMK AO2 SLP052 P0000 T00560056=
202310250929 SPECI KPWT 250929Z AUTO 00000KT 10SM BKN029 OVC034 06/06 A2966 RMK AO2 RAE25 P0000=
202310250856 METAR KPWT 250856Z AUTO 15003KT 10SM -RA FEW010 SCT033 BKN045 06/06 A2966 RMK AO2 RAB50 SLP050 P0000 60000 T00560056 51013=
202310250756 METAR KPWT 250756Z AUTO 15004KT 10SM FEW110 05/05 A2965 RMK AO2 SLP046 T00500050 400940033=
202310250656 METAR KPWT 250656Z AUTO 18005KT 10SM CLR 05/05 A2964 RMK AO2 SLP041 T00500050=
202310250638 SPECI KPWT 250638Z AUTO 19005KT 10SM SCT007 05/05 A2964 RMK AO2=
202310250629 SPECI KPWT 250629Z AUTO 19005KT 10SM SCT007 BKN010 06/06 A2963 RMK AO2=
202310250556 METAR KPWT 250556Z AUTO 19006KT 10SM FEW009 06/06 A2962 RMK AO2 RAE13 SLP036 P0000 60057 T00560056 10078 20056 53007=
202310250456 METAR KPWT 250456Z AUTO 19007KT 10SM -RA FEW006 SCT042 BKN050 06/06 A2961 RMK AO2 SLP030 P0002 T00610061=
202310250451 SPECI KPWT 250451Z AUTO 19007KT 10SM -RA SCT006 BKN043 BKN055 06/06 A2961 RMK AO2 P0002=
202310250435 SPECI KPWT 250435Z AUTO 19007KT 10SM -RA SCT007 BKN011 OVC047 07/07 A2961 RMK AO2 P0001=
202310250425 SPECI KPWT 250425Z AUTO 20007KT 10SM -RA BKN009 OVC037 07/07 A2961 RMK AO2 CIG 007V012 P0001=
202310250356 METAR KPWT 250356Z AUTO 20007KT 10SM -RA FEW004 OVC037 07/07 A2960 RMK AO2 SLP029 P0007 T00670067=
202310250344 SPECI KPWT 250344Z AUTO 20007KT 10SM -RA SCT004 SCT011 OVC039 07/07 A2961 RMK AO2 P0007=
202310250327 SPECI KPWT 250327Z AUTO 22006KT 9SM RA BKN004 OVC008 07/07 A2961 RMK AO2 CIG 003V007 P0006=
202310250317 SPECI KPWT 250317Z AUTO 20007KT 8SM RA SCT004 BKN008 OVC021 07/07 A2961 RMK AO2 CIG 007V012 P0003=
202310250256 METAR KPWT 250256Z AUTO 19005KT 8SM RA FEW007 BKN021 OVC025 07/07 A2961 RMK AO2 SLP031 P0020 60048 T00720072 56026=
202310250242 SPECI KPWT 250242Z AUTO 17005KT 7SM RA FEW007 BKN021 OVC026 07/07 A2961 RMK AO2 P0017=
202310250226 SPECI KPWT 250226Z AUTO 24007KT 8SM +RA SCT007 BKN010 OVC019 07/07 A2962 RMK AO2 CIG 008V012 P0010=
202310250156 METAR KPWT 250156Z AUTO 23003KT 7SM +RA OVC005 07/07 A2962 RMK AO2 CIG 004V009 SLP036 P0017 T00670067=
202310250135 SPECI KPWT 250135Z AUTO 00000KT 6SM RA BR BKN007 OVC017 07/07 A2963 RMK AO2 CIG 005V011 P0009=
202310250056 METAR KPWT 250056Z AUTO 14005KT 5SM RA BR SCT007 OVC017 07/07 A2964 RMK AO2 SLP044 P0011 T00720072=
202310250041 SPECI KPWT 250041Z AUTO 13007KT 7SM RA SCT007 OVC017 07/07 A2965 RMK AO2 P0008=
202310242356 METAR KPWT 242356Z AUTO 19006KT 8SM RA BKN009 OVC013 08/08 A2969 RMK AO2 CIG 006V012 SLP059 P0012 60024 T00780078 10094 20078 58038=
202310242316 SPECI KPWT 242316Z AUTO 18006KT 8SM RA BKN009 BKN016 OVC023 08/08 A2972 RMK AO2 CIG 006V012 P0005=
202310242256 METAR KPWT 242256Z AUTO 18009G14KT 9SM -RA SCT009 BKN016 OVC032 08/08 A2973 RMK AO2 SLP074 P0008 T00780078=
202310242232 SPECI KPWT 242232Z AUTO 18006KT 8SM -RA SCT009 BKN016 OVC032 08/08 A2975 RMK AO2 P0005=
202310242156 METAR KPWT 242156Z AUTO 20008KT 8SM RA BKN011 OVC016 08/08 A2978 RMK AO2 SLP089 P0003 T00830083=
202310242056 METAR KPWT 242056Z AUTO 19008KT 10SM -RA OVC011 09/08 A2980 RMK AO2 SLP096 P0000 60001 T00890083=
202310242006 SPECI KPWT 242006Z AUTO 17008KT 10SM -RA BKN011 OVC015 08/08 A2983 RMK AO2 P0000=
202310241956 METAR KPWT 241956Z AUTO 20007KT 10SM -RA OVC009 09/08 RMK AO2 CIG 007V013 SLPNO P0001 T00890083 $=
202310241907 SPECI KPWT 241907Z AUTO VRB05KT 10SM -RA OVC009 08/08 A2987 RMK AO2 CIG 007V011 P0001=
202310241856 METAR KPWT 241856Z AUTO 20011G14KT 10SM -RA OVC011 08/08 A2988 RMK AO2 SLP122 P0000 T00830078=
202310241813 SPECI KPWT 241813Z AUTO 20011KT 10SM -RA BKN011 OVC029 09/08 A2989 RMK AO2 P0000=
202310241756 METAR KPWT 241756Z AUTO 21007KT 10SM -RA SCT011 BKN027 09/07 A2990 RMK AO2 RAE01B56 SLP130 P0000 60000 T00940072 10094 20044 58023=
202310241656 METAR KPWT 241656Z AUTO 22008KT 10SM -RA CLR 07/07 A2992 RMK AO2 RAB18 SLP139 P0000 T00720072=
202310241556 METAR KPWT 241556Z AUTO 21007KT 10SM CLR 06/06 A2996 RMK AO2 SLP151 T00610061=
202310241456 METAR KPWT 241456Z AUTO 20005KT 10SM CLR 06/06 A2997 RMK AO2 SLP155 T00560056 56015=
202310241356 METAR KPWT 241356Z AUTO 20006KT 10SM CLR 06/06 A2998 RMK AO2 SLP156 T00610056=
202310241256 METAR KPWT 241256Z AUTO 19003KT 10SM SCT110 05/05 A2999 RMK AO2 SLP162 T00500050=
202310241156 METAR KPWT 241156Z AUTO 00000KT 10SM SCT120 04/04 A3001 RMK AO2 SLP168 T00440044 10061 20033 58012=
202310241056 METAR KPWT 241056Z AUTO 00000KT 10SM FEW120 05/04 A3003 RMK AO2 SLP176 T00500044=
202310240956 METAR KPWT 240956Z AUTO 00000KT 10SM FEW021 05/04 A3005 RMK AO2 SLP179 T00500044=
202310240856 METAR KPWT 240856Z AUTO 00000KT 10SM CLR 04/04 A3005 RMK AO2 SLP180 T00440044 53004=
202310240756 METAR KPWT 240756Z AUTO 00000KT 10SM CLR 04/04 A3005 RMK AO2 SLP180 T00390039 401500033=
202310240656 METAR KPWT 240656Z AUTO 00000KT 10SM BKN048 06/06 A3004 RMK AO2 SLP178 T00560056=
202310240556 METAR KPWT 240556Z AUTO 00000KT 10SM OVC044 05/05 A3004 RMK AO2 SLP177 T00500050 10128 20039 55001=
202310240456 METAR KPWT 240456Z AUTO 00000KT 10SM FEW050 04/04 A3003 RMK AO2 SLP176 T00440044=
202310240356 METAR KPWT 240356Z AUTO 00000KT 10SM CLR 05/05 A3003 RMK AO2 SLP174 T00500050=
202310240256 METAR KPWT 240256Z AUTO 00000KT 10SM SCT026 07/06 A3004 RMK AO2 SLP178 T00670061 53009=
202310240156 METAR KPWT 240156Z AUTO 10004KT 10SM SCT036 09/07 A3002 RMK AO2 SLP172 T00890067=
202310240056 METAR KPWT 240056Z AUTO 05008KT 10SM SCT055 11/07 A3001 RMK AO2 SLP167 T01060072=
202310232356 METAR KPWT 232356Z AUTO 22008KT 10SM OVC049 12/04 A3001 RMK AO2 SLP167 T01220044 10150 20094 53001=
202310232256 METAR KPWT 232256Z AUTO 23011KT 10SM SCT045 14/06 A3000 RMK AO2 SLP161 T01440056=
202310232156 METAR KPWT 232156Z AUTO 23006KT 10SM BKN039 OVC060 14/06 A3000 RMK AO2 SLP163 T01390061=
202310232056 METAR KPWT 232056Z AUTO VRB03KT 10SM BKN032 OVC041 13/08 A3001 RMK AO2 SLP167 T01280078 58002=
202310232004 SPECI KPWT 232004Z AUTO 00000KT 10SM FEW020 BKN033 OVC046 12/09 A3001 RMK AO2=
202310231956 METAR KPWT 231956Z AUTO 00000KT 10SM SCT020 BKN026 OVC042 12/09 A3002 RMK AO2 SLP169 T01170094=
202310231906 SPECI KPWT 231906Z AUTO 24004KT 10SM SCT007 BKN018 OVC031 10/09 A3002 RMK AO2=
202310231856 METAR KPWT 231856Z AUTO 20004KT 10SM BKN007 BKN018 BKN029 10/09 A3002 RMK AO2 SLP172 T01000089=
202310231756 METAR KPWT 231756Z AUTO 20005KT 10SM OVC007 09/09 A3002 RMK AO2 SLP170 T00940089 10100 20083 51008=
202310231656 METAR KPWT 231656Z AUTO 21004KT 10SM OVC005 09/09 A3001 RMK AO2 SLP168 T00890089=
202310231622 SPECI KPWT 231622Z AUTO 21003KT 10SM BKN005 OVC011 09/09 A3000 RMK AO2=
202310231556 METAR KPWT 231556Z AUTO 22003KT 10SM BKN009 OVC027 09/09 A3000 RMK AO2 CIG 008V011 SLP164 T00890089=
202310231523 SPECI KPWT 231523Z AUTO 20004KT 9SM BKN009 OVC020 09/09 A2999 RMK AO2=
202310231456 METAR KPWT 231456Z AUTO 23003KT 10SM BKN011 OVC022 09/09 A2999 RMK AO2 SLP160 T00890089 51004=
202310231356 METAR KPWT 231356Z AUTO 19003KT 10SM BKN013 BKN019 09/09 A2999 RMK AO2 SLP160 T00940089=
202310231308 SPECI KPWT 231308Z AUTO 19003KT 10SM OVC011 09/09 A2999 RMK AO2=
202310231256 METAR KPWT 231256Z AUTO 19006KT 10SM OVC009 09/09 A2999 RMK AO2 SLP158 T00940094=
202310231209 SPECI KPWT 231209Z AUTO 18006KT 10SM OVC006 10/10 A2998 RMK AO2 CIG 004V009=
202310231156 METAR KPWT 231156Z AUTO 19006KT 10SM BKN004 OVC009 10/10 A2998 RMK AO2 CIG 004V009 SLP155 T01000100 10100 20050 53003=
202310231143 SPECI KPWT 231143Z AUTO 19005KT 10SM SCT006 OVC009 10/10 A2997 RMK AO2=
202310231127 SPECI KPWT 231127Z AUTO 20005KT 10SM BKN004 OVC009 10/10 A2997 RMK AO2 CIG 002V007=
202310231056 METAR KPWT 231056Z AUTO 20004KT 7SM OVC002 10/10 A2997 RMK AO2 SLP152 T01000100=
202310230956 METAR KPWT 230956Z AUTO 14005KT 8SM OVC004 09/09 A2997 RMK AO2 SLP152 T00940094=
202310230944 SPECI KPWT 230944Z AUTO 15003KT 10SM OVC004 09/09 A2997 RMK AO2=
202310230856 METAR KPWT 230856Z AUTO 00000KT 10SM OVC008 07/07 A2997 RMK AO2 CIG 006V011 SLP153 T00720072 58002=
202310230846 SPECI KPWT 230846Z AUTO 00000KT 7SM BKN010 OVC030 06/06 A2997 RMK AO2=
202310230831 SPECI KPWT 230831Z AUTO 00000KT 3SM BR FEW010 OVC030 06/06 A2998 RMK AO2=
202310230825 SPECI KPWT 230825Z AUTO 00000KT 1 3/4SM BR BKN030 06/06 A2997 RMK AO2=
202310230756 METAR KPWT 230756Z AUTO 00000KT 7SM SCT030 06/06 A2998 RMK AO2 SLP156 T00610061 401440050=
202310230742 SPECI KPWT 230742Z AUTO 00000KT 3SM BR FEW030 06/06 A2997 RMK AO2=
202310230736 SPECI KPWT 230736Z AUTO 00000KT 1 1/4SM BR CLR 06/06 A2997 RMK AO2 VIS 1/2V5=
202310230723 SPECI KPWT 230723Z AUTO 00000KT 3/4SM BR CLR 05/05 A2998 RMK AO2 VIS 1/2V2 1/2=
202310230718 SPECI KPWT 230718Z AUTO 00000KT 1 3/4SM BR CLR 05/05 A2998 RMK AO2=
202310230715 SPECI KPWT 230715Z AUTO 00000KT 4SM BR CLR 05/05 A2998 RMK AO2=
202310230707 SPECI KPWT 230707Z AUTO 00000KT 1 1/4SM BR CLR 06/06 A2997 RMK AO2 VIS 1/4V5=
202310230658 SPECI KPWT 230658Z AUTO 00000KT 3/4SM BR CLR 05/05 A2998 RMK AO2=
202310230656 METAR KPWT 230656Z AUTO 00000KT 1 1/4SM BR CLR 05/05 A2998 RMK AO2 SLP156 T00500050=
202310230652 SPECI KPWT 230652Z AUTO 00000KT 3SM BR CLR 05/05 A2998 RMK AO2=
202310230643 SPECI KPWT 230643Z AUTO 00000KT 1 1/2SM BR CLR 06/06 A2998 RMK AO2 VIS 3/4V5=
202310230556 METAR KPWT 230556Z AUTO 00000KT 10SM SCT023 06/06 A2998 RMK AO2 SLP155 T00610061 10144 20061 51006=
202310230456 METAR KPWT 230456Z AUTO 13003KT 9SM FEW023 06/06 A2997 RMK AO2 SLP154 T00610061=
202310230356 METAR KPWT 230356Z AUTO 00000KT 10SM FEW022 07/07 A2997 RMK AO2 SLP153 T00720072=
202310230256 METAR KPWT 230256Z AUTO 00000KT 10SM CLR 08/08 A2996 RMK AO2 SLP149 T00780078 53010=
202310230156 METAR KPWT 230156Z AUTO 00000KT 10SM FEW023 10/10 A2995 RMK AO2 SLP147 T01000100=
202310230148 SPECI KPWT 230148Z AUTO 04004KT 9SM SCT023 11/11 A2995 RMK AO2=
202310230056 METAR KPWT 230056Z AUTO 00000KT 10SM OVC024 13/11 A2993 RMK AO2 SLP140 T01330106=
202310222356 METAR KPWT 222356Z AUTO 28004KT 10SM OVC023 14/10 A2993 RMK AO2 SLP138 T01390100 10139 20111 53009=
202310222256 METAR KPWT 222256Z AUTO 33003KT 10SM BKN019 BKN026 14/11 A2992 RMK AO2 SLP134 T01390106=
202310222156 METAR KPWT 222156Z AUTO 07003KT 10SM OVC019 13/11 A2991 RMK AO2 SLP132 T01330106=
202310222056 METAR KPWT 222056Z AUTO 02003KT 10SM OVC017 13/11 A2990 RMK AO2 SLP129 T01330106 50000=
202310221956 METAR KPWT 221956Z AUTO 35006KT 10SM OVC017 13/11 A2991 RMK AO2 SLP132 T01330106=
202310221856 METAR KPWT 221856Z AUTO 03007KT 10SM OVC015 13/11 A2991 RMK AO2 SLP132 T01280111=
202310221842 SPECI KPWT 221842Z AUTO VRB03KT 10SM FEW007 BKN012 OVC019 12/11 A2991 RMK AO2=
202310221826 SPECI KPWT 221826Z AUTO VRB04KT 10SM BKN012 12/11 A2991 RMK AO2=
202310221814 SPECI KPWT 221814Z AUTO 02004KT 10SM FEW008 11/11 A2991 RMK AO2=
202310221756 METAR KPWT 221756Z AUTO 04007KT 10SM CLR 11/11 A2990 RMK AO2 RAB23E44 SLP130 P0000 60000 T01110106 10117 20094 51002=
202310221717 SPECI KPWT 221717Z AUTO 02005KT 10SM FEW008 SCT095 12/11 A2990 RMK AO2=
202310221656 METAR KPWT 221656Z AUTO 05005KT 10SM SCT011 11/11 A2990 RMK AO2 SLP130 T01110106=
202310221643 SPECI KPWT 221643Z AUTO 04004KT 10SM BKN011 11/11 A2990 RMK AO2=
202310221635 SPECI KPWT 221635Z AUTO 02003KT 10SM BKN009 BKN095 11/11 A2990 RMK AO2=
202310221608 SPECI KPWT 221608Z AUTO 04003KT 10SM SCT009 SCT100 11/11 A2990 RMK AO2=
202310221556 METAR KPWT 221556Z AUTO 02003KT 10SM FEW100 11/11 A2990 RMK AO2 SLP130 T01060106=
202310221456 METAR KPWT 221456Z AUTO 00000KT 10SM SCT090 SCT110 10/10 A2989 RMK AO2 SLP127 60000 T01000100 55000=
202310221356 METAR KPWT 221356Z AUTO 00000KT 10SM FEW014 SCT090 10/10 A2989 RMK AO2 RAE17 SLP127 P0000 T01000100=
202310221352 SPECI KPWT 221352Z AUTO 00000KT 10SM FEW014 SCT090 10/10 A2989 RMK AO2 RAE17 P0000=
202310221338 SPECI KPWT 221338Z AUTO 00000KT 10SM SCT006 BKN014 BKN095 10/10 A2989 RMK AO2 RAE17 P0000=
202310221256 METAR KPWT 221256Z AUTO 03005KT 10SM -RA BKN006 OVC023 11/11 A2989 RMK AO2 RAB39 CIG 005V010 SLP127 P0000 T01060106=
202310221249 SPECI KPWT 221249Z AUTO 05004KT 10SM -RA BKN006 OVC023 11/11 A2989 RMK AO2 RAB39 CIG 004V010 P0000=
202310221218 SPECI KPWT 221218Z AUTO 05005KT 10SM FEW006 BKN023 BKN095 11/11 A2989 RMK AO2=
202310221156 METAR KPWT 221156Z AUTO 05006KT 10SM FEW023 BKN110 11/11 A2989 RMK AO2 SLP125 T01060106 10111 20106 56002=
202310221152 SPECI KPWT 221152Z AUTO 05006KT 10SM SCT023 BKN110 11/11 A2989 RMK AO2=
202310221056 METAR KPWT 221056Z AUTO 07003KT 10SM OVC021 11/11 A2989 RMK AO2 SLP124 T01110111=
202310220956 METAR KPWT 220956Z AUTO 05003KT 10SM OVC021 11/11 A2989 RMK AO2 SLP126 T01110111=
202310220856 METAR KPWT 220856Z AUTO 00000KT 10SM OVC021 11/11 A2989 RMK AO2 SLP125 T01110111 55000=
202310220756 METAR KPWT 220756Z AUTO 00000KT 10SM OVC017 11/11 A2989 RMK AO2 SLP126 T01110111 401390083=
202310220656 METAR KPWT 220656Z AUTO 00000KT 10SM OVC015 11/11 A2988 RMK AO2 SLP123 T01110111=
202310220648 SPECI KPWT 220648Z AUTO 00000KT 10SM OVC015 11/11 A2988 RMK AO2=
202310220556 METAR KPWT 220556Z AUTO 00000KT 10SM OVC013 11/11 A2989 RMK AO2 SLP126 60000 T01110111 10128 20106 56001=
202310220507 SPECI KPWT 220507Z AUTO 00000KT 10SM OVC013 11/11 A2989 RMK AO2=
202310220456 METAR KPWT 220456Z AUTO 00000KT 10SM OVC015 11/11 A2989 RMK AO2 RAB15E35 SLP127 P0000 T01110111=
202310220356 METAR KPWT 220356Z AUTO 00000KT 10SM OVC015 11/11 A2989 RMK AO2 RAE09 SLP126 P0000 T01110111=
202310220256 METAR KPWT 220256Z AUTO 00000KT 10SM -RA OVC015 12/11 A2989 RMK AO2 RAE01B32 SLP128 P0000 60000 T01170111 53004=
202310220156 METAR KPWT 220156Z AUTO 13003KT 10SM -RA OVC015 12/11 A2990 RMK AO2 SLP129 P0000 T01170111=
202310220147 SPECI KPWT 220147Z AUTO 00000KT 10SM -RA OVC015 12/11 A2990 RMK AO2 P0000=
202310220113 SPECI KPWT 220113Z AUTO VRB03KT 10SM -RA OVC013 12/11 A2988 RMK AO2 P0000=
202310220056 METAR KPWT 220056Z AUTO 08006KT 10SM -RA OVC015 12/11 A2987 RMK AO2 RAB41 SLP118 P0000 T01220111=
202310212356 METAR KPWT 212356Z AUTO 06004KT 10SM OVC015 13/11 A2988 RMK AO2 SLP123 T01280106 10139 20122 56001=
202310212256 METAR KPWT 212256Z AUTO 05008KT 10SM OVC017 13/11 A2988 RMK AO2 SLP124 T01330106=
202310212156 METAR KPWT 212156Z AUTO 04007KT 10SM OVC015 14/11 A2988 RMK AO2 SLP122 T01390106=
202310212056 METAR KPWT 212056Z AUTO 02007KT 10SM OVC013 13/11 A2989 RMK AO2 SLP124 T01330106 58011=
202310211956 METAR KPWT 211956Z AUTO 05006KT 10SM OVC011 13/11 A2990 RMK AO2 SLP130 T01280106=
202310211856 METAR KPWT 211856Z AUTO 02008KT 10SM OVC011 12/11 A2992 RMK AO2 SLP135 T01220106=
202310211756 METAR KPWT 211756Z AUTO 03007KT 10SM OVC011 12/11 A2992 RMK AO2 SLP136 T01220111 10122 20083 50003=
202310211656 METAR KPWT 211656Z AUTO 03003KT 10SM OVC013 12/11 A2992 RMK AO2 SLP136 T01170106=
202310211556 METAR KPWT 211556Z AUTO 04003KT 10SM OVC011 11/11 A2992 RMK AO2 SLP135 T01110106=
202310211516 SPECI KPWT 211516Z AUTO 05004KT 10SM OVC011 10/10 A2992 RMK AO2=
202310211456 METAR KPWT 211456Z AUTO 04005KT 10SM OVC009 11/10 A2991 RMK AO2 SLP133 T01060100 56003=
202310211404 SPECI KPWT 211404Z AUTO 00000KT 10SM BKN009 09/09 A2992 RMK AO2=
202310211356 METAR KPWT 211356Z AUTO 06003KT 10SM SCT009 09/09 A2991 RMK AO2 SLP134 T00890089=
202310211256 METAR KPWT 211256Z AUTO 05004KT 10SM CLR 09/09 A2992 RMK AO2 SLP136 T00940089=
202310211156 METAR KPWT 211156Z AUTO 05004KT 10SM CLR 09/09 A2992 RMK AO2 SLP137 T00890089 10111 20089 58005=
202310211056 METAR KPWT 211056Z AUTO 05004KT 10SM CLR 10/10 A2993 RMK AO2 SLP139 T01000100=
202310210956 METAR KPWT 210956Z AUTO 03004KT 10SM FEW017 10/10 A2994 RMK AO2 SLP142 T01000100=
202310210921 SPECI KPWT 210921Z AUTO 06005KT 10SM FEW015 11/10 A2994 RMK AO2=
202310210914 SPECI KPWT 210914Z AUTO 06005KT 10SM BKN015 11/10 A2994 RMK AO2=
202310210856 METAR KPWT 210856Z AUTO 06006KT 10SM SCT015 11/11 A2994 RMK AO2 SLP141 T01060106 56006=
202310210803 SPECI KPWT 210803Z AUTO 04007KT 10SM BKN015 11/11 A2994 RMK AO2=
202310210756 METAR KPWT 210756Z AUTO 04008KT 10SM SCT015 11/11 A2995 RMK AO2 SLP143 T01060106 401780106=
202310210656 METAR KPWT 210656Z AUTO 04007KT 10SM CLR 11/11 A2995 RMK AO2 SLP145 T01060106=
202310210556 METAR KPWT 210556Z AUTO 06005KT 10SM FEW010 11/11 A2996 RMK AO2 SLP148 T01110106 10144 20111 56004=
202310210554 SPECI KPWT 210554Z AUTO 06007KT 10SM SCT010 11/11 A2996 RMK AO2=
202310210530 SPECI KPWT 210530Z AUTO 04006KT 10SM OVC010 11/11 A2997 RMK AO2=
202310210456 METAR KPWT 210456Z AUTO 04007KT 10SM BKN008 11/11 A2997 RMK AO2 SLP152 T01110111=
202310210356 METAR KPWT 210356Z AUTO 03008KT 10SM BKN008 11/11 A2997 RMK AO2 SLP152 T01110111=
202310210326 SPECI KPWT 210326Z AUTO 02006KT 10SM SCT010 11/11 A2998 RMK AO2=
202310210305 SPECI KPWT 210305Z AUTO 04006KT 10SM BKN010 11/11 A2998 RMK AO2=
202310210256 METAR KPWT 210256Z AUTO 04005KT 10SM SCT010 11/11 A2998 RMK AO2 SLP157 T01110106 56007=
202310210156 METAR KPWT 210156Z AUTO 04006KT 10SM CLR 12/11 A2999 RMK AO2 SLP158 T01170106=
202310210056 METAR KPWT 210056Z AUTO 04007KT 10SM CLR 13/11 A2999 RMK AO2 SLP160 T01280106=
202310202356 METAR KPWT 202356Z AUTO 03009KT 10SM CLR 14/11 A3000 RMK AO2 SLP162 T01440106 10178 20139 56010=
202310202256 METAR KPWT 202256Z AUTO 05008KT 10SM CLR 16/11 A3001 RMK AO2 SLP165 T01560106=
202310202156 METAR KPWT 202156Z AUTO 03010KT 10SM CLR 17/11 A3002 RMK AO2 SLP168 T01720111=
202310202056 METAR KPWT 202056Z AUTO 03009KT 10SM CLR 17/12 A3003 RMK AO2 SLP174 T01720117 58016=
202310201956 METAR KPWT 201956Z AUTO 04009G15KT 10SM CLR 17/12 A3006 RMK AO2 SLP182 T01670117=
202310201856 METAR KPWT 201856Z AUTO 03011G16KT 10SM FEW014 16/13 A3007 RMK AO2 SLP186 T01610128=
202310201807 SPECI KPWT 201807Z AUTO 03011G18KT 10SM FEW012 SCT048 14/12 A3008 RMK AO2=
202310201756 METAR KPWT 201756Z AUTO 03011G19KT 10SM BKN012 14/12 A3008 RMK AO2 SLP189 T01390122 10139 20117 50004=
202310201739 SPECI KPWT 201739Z AUTO 03011KT 10SM OVC010 14/13 A3009 RMK AO2 CIG 007V013=
202310201656 METAR KPWT 201656Z AUTO 04009G17KT 10SM OVC008 13/13 A3008 RMK AO2 SLP190 T01330128=
202310201631 SPECI KPWT 201631Z AUTO 03010KT 10SM BKN008 OVC046 13/13 A3008 RMK AO2=
202310201603 SPECI KPWT 201603Z AUTO 05009KT 10SM FEW009 BKN046 13/13 A3008 RMK AO2=
202310201556 METAR KPWT 201556Z AUTO 05010KT 10SM BKN046 13/13 A3008 RMK AO2 SLP188 T01280128=
202310201504 SPECI KPWT 201504Z AUTO 05008KT 10SM SCT004 12/12 A3007 RMK AO2=
202310201456 METAR KPWT 201456Z AUTO 05007KT 10SM BKN002 12/12 A3007 RMK AO2 SLP184 T01170117 53002=
202310201356 METAR KPWT 201356Z AUTO 07005KT 7SM OVC002 12/12 A3006 RMK AO2 SLP183 T01220122=
202310201333 SPECI KPWT 201333Z AUTO 06005KT 8SM BKN002 12/12 A3006 RMK AO2=
202310201256 METAR KPWT 201256Z AUTO 07005KT 10SM FEW004 13/13 A3006 RMK AO2 SLP183 T01280128=
202310201240 SPECI KPWT 201240Z AUTO 05006KT 10SM SCT006 13/13 A3006 RMK AO2=
202310201156 METAR KPWT 201156Z AUTO 06006KT 10SM OVC004 14/14 A3006 RMK AO2 SLP183 7//// T01390139 10156 20139 51001=
202310201144 SPECI KPWT 201144Z AUTO 07004KT 10SM OVC004 14/14 A3006 RMK AO2=
202310201056 METAR KPWT 201056Z AUTO 06006KT 10SM OVC006 14/14 A3006 RMK AO2 CIG 003V007 SLP182 T01390139=
202310201040 SPECI KPWT 201040Z AUTO 06004KT 10SM BKN004 BKN025 14/14 A3006 RMK AO2=
202310201033 SPECI KPWT 201033Z AUTO 05005KT 10SM BKN006 BKN025 14/14 A3006 RMK AO2=
202310201014 SPECI KPWT 201014Z AUTO 05004KT 10SM FEW006 SCT024 14/14 A3006 RMK AO2=
202310200956 METAR KPWT 200956Z AUTO 07005KT 10SM SCT004 BKN024 14/14 A3006 RMK AO2 SLP181 T01440144=
202310200940 SPECI KPWT 200940Z AUTO 06005KT 10SM SCT004 OVC022 14/14 A3006 RMK AO2=
202310200856 METAR KPWT 200856Z AUTO 05003KT 10SM OVC019 14/14 A3007 RMK AO2 SLP185 T01440144 53002=
202310200756 METAR KPWT 200756Z AUTO 05005KT 10SM OVC017 14/14 A3006 RMK AO2 SLP183 T01440144 402170072=
202310200704 SPECI KPWT 200704Z AUTO 05004KT 10SM BKN015 BKN027 15/15 A3007 RMK AO2=
202310200656 METAR KPWT 200656Z AUTO 05007KT 10SM BKN013 BKN027 15/15 A3006 RMK AO2 SLP183 T01500150=
202310200556 METAR KPWT 200556Z AUTO 00000KT 10SM OVC013 16/16 A3006 RMK AO2 SLP184 6//// T01560156 10183 20156 51001=
202310200543 SPECI KPWT 200543Z AUTO 07003KT 10SM OVC013 16/16 A3006 RMK AO2=
202310200456 METAR KPWT 200456Z AUTO 00000KT 10SM OVC015 16/16 A3006 RMK AO2 SLP183 T01560156=
202310200418 SPECI KPWT 200418Z AUTO 04003KT 10SM FEW008 OVC017 16/16 A3006 RMK AO2=
202310200403 SPECI KPWT 200403Z AUTO 00000KT 10SM SCT010 OVC017 16/16 A3006 RMK AO2=
202310200356 METAR KPWT 200356Z AUTO 00000KT 10SM BKN008 OVC015 16/16 A3007 RMK AO2 CIG 007V012 SLP184 T01610161=
202310200320 SPECI KPWT 200320Z AUTO 00000KT 10SM FEW005 OVC014 16/16 A3006 RMK AO2=
202310200256 METAR KPWT 200256Z AUTO 00000KT 6SM BR BKN010 OVC014 16/16 A3006 RMK AO2 RAB05E24 CIG 006V013 SLP182 P0000 6//// T01610161 53003=
202310200208 SPECI KPWT 200208Z AUTO 04004KT 4SM -RA BR OVC008 17/17 A3006 RMK AO2 RAB05 CIG 005V011 P0000=
202310200156 METAR KPWT 200156Z AUTO 00000KT 10SM BKN010 OVC014 17/17 A3006 RMK AO2 SLP182 T01720167=
202310200128 SPECI KPWT 200128Z AUTO 20003KT 10SM OVC014 17/17 A3006 RMK AO2=
202310200056 METAR KPWT 200056Z AUTO 19004KT 10SM OVC018 18/17 A3005 RMK AO2 SLP178 T01780167=
202310192356 METAR KPWT 192356Z AUTO 17004KT 10SM OVC016 18/17 A3005 RMK AO2 SLP179 6//// T01830167 10217 20156 58002=
202310192256 METAR KPWT 192256Z AUTO 20006KT 10SM OVC022 20/17 A3006 RMK AO2 SLP181 T02000167=
202310192236 SPECI KPWT 192236Z AUTO 24008KT 10SM BKN020 21/16 A3006 RMK AO2=
202310192220 SPECI KPWT 192220Z AUTO 23010KT 10SM SCT018 21/17 A3006 RMK AO2=
202310192156 METAR KPWT 192156Z AUTO 22008KT 10SM BKN018 21/17 A3006 RMK AO2 SLP180 T02060167=
202310192137 SPECI KPWT 192137Z AUTO 22010KT 10SM BKN018 21/17 A3005 RMK AO2=
202310192056 METAR KPWT 192056Z AUTO 21011KT 10SM SCT018 21/17 A3006 RMK AO2 SLP181 T02060167 58003=
202310192003 SPECI KPWT 192003Z AUTO 22014G19KT 10SM BKN016 20/16 A3007 RMK AO2=
202310191956 METAR KPWT 191956Z AUTO 20012G19KT 10SM SCT016 21/17 A3007 RMK AO2 SLP185 T02060167=
202310191921 SPECI KPWT 191921Z AUTO 20009G19KT 10SM SCT014 19/16 A3007 RMK AO2=
202310191856 METAR KPWT 191856Z AUTO 20010KT 10SM BKN012 18/16 A3007 RMK AO2 SLP185 T01830161=
202310191841 SPECI KPWT 191841Z AUTO 20009KT 10SM OVC010 18/16 A3007 RMK AO2=
202310191813 SPECI KPWT 191813Z AUTO 19008KT 10SM OVC006 16/16 A3006 RMK AO2 CIG 004V010=
202310191756 METAR KPWT 191756Z AUTO 20008KT 10SM OVC004 16/16 A3007 RMK AO2 SLP184 60001 T01560156 10156 20111 51013=
202310191742 SPECI KPWT 191742Z AUTO 19007KT 10SM OVC004 15/15 A3007 RMK AO2=
202310191656 METAR KPWT 191656Z AUTO 21007KT 10SM OVC002 14/14 A3006 RMK AO2 SLP183 T01440144=
202310191623 SPECI KPWT 191623Z AUTO 20007KT 10SM OVC002 14/14 A3005 RMK AO2=
202310191556 METAR KPWT 191556Z AUTO 19007KT 9SM OVC004 14/14 A3004 RMK AO2 SLP177 T01390139=
202310191456 METAR KPWT 191456Z AUTO 21007KT 10SM OVC004 14/14 A3003 RMK AO2 SLP171 P0001 60001 T01390139 52003=
202310191356 METAR KPWT 191356Z AUTO 20008KT 10SM OVC004 13/13 A3003 RMK AO2 CIG 003V006 SLP170 T01280128=
202310191332 SPECI KPWT 191332Z AUTO 23006KT 10SM OVC004 12/12 A3003 RMK AO2=
202310191256 METAR KPWT 191256Z AUTO 21005KT 9SM BKN002 12/12 A3002 RMK AO2 SLP170 T01170117=
202310191254 SPECI KPWT 191254Z AUTO 20004KT 3SM BR BKN002 12/12 A3002 RMK AO2=
202310191250 SPECI KPWT 191250Z AUTO 19004KT 1SM BR BKN002 12/12 A3002 RMK AO2=
202310191235 SPECI KPWT 191235Z AUTO 21004KT 1/2SM FG OVC002 12/12 A3002 RMK AO2=
202310191156 METAR KPWT 191156Z AUTO 21003KT 1/4SM FG OVC002 12/12 A3002 RMK AO2 SLP168 7//// T01170117 10117 20072 58003=
202310191107 SPECI KPWT 191107Z AUTO 00000KT 1/4SM FG OVC002 10/10 A3003 RMK AO2=
202310191056 METAR KPWT 191056Z AUTO 00000KT 1/2SM FG OVC002 09/09 A3002 RMK AO2 SLP170 T00940094=
202310191043 SPECI KPWT 191043Z AUTO 00000KT 1/2SM FG BKN002 09/09 A3003 RMK AO2=
202310191033 SPECI KPWT 191033Z AUTO 00000KT 1/4SM FG VV002 08/08 A3003 RMK AO2=
202310190956 METAR KPWT 190956Z AUTO 00000KT 1/4SM FG CLR 08/08 A3003 RMK AO2 SLP172 T00780078=
202310190939 SPECI KPWT 190939Z AUTO 00000KT 1/4SM FG CLR 08/08 A3003 RMK AO2=
202310190919 SPECI KPWT 190919Z AUTO 00000KT 1/2SM FG CLR 08/08 A3003 RMK AO2 VIS 1/4V1 3/4=
202310190912 SPECI KPWT 190912Z AUTO 00000KT 1/4SM FG CLR 08/08 A3003 RMK AO2=
202310190907 SPECI KPWT 190907Z AUTO 00000KT 3/4SM BR CLR 08/08 A3003 RMK AO2=
202310190904 SPECI KPWT 190904Z AUTO 00000KT 1 3/4SM BR CLR 08/08 A3003 RMK AO2=
202310190856 METAR KPWT 190856Z AUTO 00000KT 8SM CLR 09/09 A3003 RMK AO2 SLP172 T00890089 50003=
202310190844 SPECI KPWT 190844Z AUTO 00000KT 3SM BR CLR 08/08 A3003 RMK AO2=
202310190836 SPECI KPWT 190836Z AUTO 00000KT 1 1/4SM BR CLR 09/09 A3003 RMK AO2=
202310190828 SPECI KPWT 190828Z AUTO 00000KT 3/4SM BR CLR 08/08 A3003 RMK AO2=
202310190826 SPECI KPWT 190826Z AUTO 00000KT 1 1/2SM BR CLR 08/08 A3003 RMK AO2=
202310190823 SPECI KPWT 190823Z AUTO 00000KT 4SM BR CLR 09/09 A3003 RMK AO2=
202310190801 SPECI KPWT 190801Z AUTO 00000KT 1 1/2SM BR CLR 09/09 A3003 RMK AO2 VIS 3/4V5=
202310190756 METAR KPWT 190756Z AUTO 00000KT 3SM BR CLR 09/09 A3003 RMK AO2 SLP173 T00940094 402170078=
202310190752 SPECI KPWT 190752Z AUTO 00000KT 2SM BR CLR 09/09 A3003 RMK AO2 402170078=
202310190656 METAR KPWT 190656Z AUTO 00000KT 4SM BR CLR 09/09 A3002 RMK AO2 SLP169 T00940094=
202310190650 SPECI KPWT 190650Z AUTO 00000KT 2 1/2SM BR CLR 10/10 A3002 RMK AO2 VIS 3/4V5=
202310190647 SPECI KPWT 190647Z AUTO 00000KT 1SM BR CLR 10/10 A3002 RMK AO2 VIS 1/4V5=
202310190640 SPECI KPWT 190640Z AUTO 00000KT 1 1/4SM BR CLR 09/09 A3002 RMK AO2 VIS 1/4V5=
202310190627 SPECI KPWT 190627Z AUTO 00000KT 3SM BR CLR 10/10 A3002 RMK AO2=
202310190623 SPECI KPWT 190623Z AUTO 00000KT 1 1/4SM BR CLR 11/11 A3002 RMK AO2 VIS 1/4V5=
202310190615 SPECI KPWT 190615Z AUTO 00000KT 3/4SM BR CLR 11/11 A3002 RMK AO2=
202310190612 SPECI KPWT 190612Z AUTO 00000KT 1 1/2SM BR CLR 10/10 A3002 RMK AO2=
202310190601 SPECI KPWT 190601Z AUTO 00000KT 4SM BR CLR 09/09 A3002 RMK AO2=
202310190558 SPECI KPWT 190558Z AUTO 00000KT 1 1/4SM BR CLR 11/11 A3002 RMK AO2=
202310190556 METAR KPWT 190556Z AUTO 00000KT 3/4SM BR CLR 12/12 A3002 RMK AO2 SLP169 6//// T01220122 10211 20100 51006=
202310190538 SPECI KPWT 190538Z AUTO 00000KT 1/2SM FG CLR 11/11 A3002 RMK AO2=
202310190534 SPECI KPWT 190534Z AUTO 00000KT 1SM BR CLR 11/11 A3002 RMK AO2=
202310190456 METAR KPWT 190456Z AUTO 00000KT 10SM CLR 12/12 A3002 RMK AO2 SLP168 T01220122=
202310190356 METAR KPWT 190356Z AUTO 22003KT 10SM CLR 13/13 A3001 RMK AO2 SLP165 T01280128=
202310190353 SPECI KPWT 190353Z AUTO 23003KT 3SM BR CLR 13/13 A3001 RMK AO2=
202310190341 SPECI KPWT 190341Z AUTO 00000KT 1 3/4SM BR CLR 11/11 A3000 RMK AO2 VIS 3/4V5=
202310190256 METAR KPWT 190256Z AUTO 00000KT 10SM CLR 15/14 A3000 RMK AO2 SLP163 6//// T01500139 57003=
202310190156 METAR KPWT 190156Z AUTO 22004KT 10SM CLR 16/14 A3001 RMK AO2 SLP164 T01610144=
202310190056 METAR KPWT 190056Z AUTO 21006KT 10SM CLR 19/15 A3001 RMK AO2 SLP165 T01940150=
202310182356 METAR KPWT 182356Z AUTO 20010KT 10SM CLR 21/15 A3001 RMK AO2 SLP167 T02110150 10217 20156 56009=
202310182256 METAR KPWT 182256Z AUTO 19014KT 10SM CLR 22/14 A3001 RMK AO2 SLP167 T02170144=
202310182156 METAR KPWT 182156Z AUTO 19010KT 10SM CLR 22/14 A3002 RMK AO2 SLP170 T02170144=
202310182056 METAR KPWT 182056Z AUTO 20011G16KT 10SM CLR 21/13 A3004 RMK AO2 SLP174 T02060133 58013=
202310181956 METAR KPWT 181956Z AUTO 21013KT 10SM CLR 19/12 A3005 RMK AO2 SLP179 T01940117=
202310181856 METAR KPWT 181856Z AUTO 20008KT 10SM CLR 18/12 A3007 RMK AO2 SLP186 T01780117=
202310181756 METAR KPWT 181756Z AUTO 20007KT 10SM CLR 16/12 A3008 RMK AO2 SLP189 T01560117 10156 20106 58006=
202310181656 METAR KPWT 181656Z AUTO 21007KT 10SM CLR 14/12 A3009 RMK AO2 SLP195 T01390117=
202310181556 METAR KPWT 181556Z AUTO 21004KT 10SM OVC050 12/11 A3010 RMK AO2 SLP197 T01170111=
202310181456 METAR KPWT 181456Z AUTO 24003KT 10SM FEW042 OVC055 12/11 A3009 RMK AO2 SLP195 T01170111 53003=
202310181356 METAR KPWT 181356Z AUTO VRB03KT 10SM OVC055 11/11 A3009 RMK AO2 SLP194 T01110111=
202310181256 METAR KPWT 181256Z AUTO 17005KT 10SM OVC055 11/11 A3008 RMK AO2 SLP191 T01110111=
202310181156 METAR KPWT 181156Z AUTO 25004KT 10SM BKN040 OVC049 11/11 A3008 RMK AO2 SLP192 70009 T01110111 10111 20067 55005=
202310181056 METAR KPWT 181056Z AUTO 23007KT 10SM SCT039 BKN050 11/11 A3008 RMK AO2 SLP190 T01060106=
202310180956 METAR KPWT 180956Z AUTO 18007KT 10SM FEW047 09/09 A3008 RMK AO2 SLP192 T00940094=
202310180944 SPECI KPWT 180944Z AUTO 21003KT 3SM BR FEW047 08/08 A3009 RMK AO2=
202310180921 SPECI KPWT 180921Z AUTO 23004KT 1 3/4SM BR CLR 08/08 A3010 RMK AO2 VIS 1V5=
202310180904 SPECI KPWT 180904Z AUTO 22004KT 8SM FEW001 09/09 A3010 RMK AO2=
202310180856 SPECI KPWT 180856Z AUTO 21004KT 2SM BR FEW001 08/08 A3010 RMK AO2=
202310180853 METAR KPWT 180853Z AUTO 20004KT 1SM BR FEW001 08/08 A3010 RMK AO2 VIS 1/2V4 SLP197 T00830083 56009=
202310180852 SPECI KPWT 180852Z AUTO 20003KT 1SM BR FEW001 SCT046 08/08 A3010 RMK AO2 VIS 1/2V3=
202310180842 SPECI KPWT 180842Z AUTO 21004KT 3/4SM BR VV001 08/08 A3011 RMK AO2=
202310180837 SPECI KPWT 180837Z AUTO 23005KT 1 1/2SM BR CLR 09/09 A3010 RMK AO2=
202310180756 METAR KPWT 180756Z AUTO 21003KT 10SM CLR 08/08 A3011 RMK AO2 SLP200 T00830083 401390061=
202310180656 METAR KPWT 180656Z AUTO 21003KT 10SM CLR 07/07 A3012 RMK AO2 SLP204 T00670067=
202310180627 SPECI KPWT 180627Z AUTO 00000KT 3SM BR CLR 07/07 A3012 RMK AO2=
202310180622 SPECI KPWT 180622Z AUTO 23003KT 1 1/4SM BR CLR 07/07 A3012 RMK AO2 VIS 1/2V5=
202310180615 SPECI KPWT 180615Z AUTO 00000KT 2SM BR CLR 07/07 A3012 RMK AO2=
202310180603 SPECI KPWT 180603Z AUTO 00000KT 1 1/2SM BR CLR 07/07 A3013 RMK AO2 VIS 1/2V5=
202310180556 METAR KPWT 180556Z AUTO 00000KT 2SM BR CLR 07/07 A3013 RMK AO2 VIS 1V5 SLP206 60003 T00670067 10122 20061 56008=
202310180549 SPECI KPWT 180549Z AUTO 22003KT 1SM BR CLR 07/07 A3013 RMK AO2=
202310180532 SPECI KPWT 180532Z AUTO 00000KT 1/2SM FG CLR 07/07 A3013 RMK AO2=
202310180522 SPECI KPWT 180522Z AUTO 00000KT 3/4SM BR CLR 08/08 A3013 RMK AO2 VIS 1/2V1 3/4=
202310180456 METAR KPWT 180456Z AUTO 00000KT 1/2SM FG CLR 07/07 A3013 RMK AO2 SLP208 T00720072=
202310180447 SPECI KPWT 180447Z AUTO 00000KT 3/4SM BR CLR 08/08 A3013 RMK AO2=
202310180445 SPECI KPWT 180445Z AUTO 00000KT 1 1/2SM BR CLR 08/08 A3013 RMK AO2=
202310180429 SPECI KPWT 180429Z AUTO 00000KT 4SM BR CLR 08/08 A3014 RMK AO2=
202310180427 SPECI KPWT 180427Z AUTO 00000KT 1 1/2SM BR CLR 08/08 A3014 RMK AO2=
202310180417 SPECI KPWT 180417Z AUTO 00000KT 3/4SM BR CLR 08/08 A3014 RMK AO2 VIS 1/4V2 1/2=
202310180405 SPECI KPWT 180405Z AUTO 00000KT 1 1/2SM BR CLR 09/09 A3014 RMK AO2=
202310180403 SPECI KPWT 180403Z AUTO 00000KT 3SM BR CLR 09/09 A3014 RMK AO2=
202310180356 METAR KPWT 180356Z AUTO 00000KT 2 1/2SM BR FEW050 09/09 A3014 RMK AO2 VIS 3/4V5 SLP211 T00890089=
202310180348 SPECI KPWT 180348Z AUTO 00000KT 1 3/4SM BR FEW055 09/09 A3013 RMK AO2=
202310180256 METAR KPWT 180256Z AUTO 00000KT 10SM BKN055 11/11 A3015 RMK AO2 RAE00 SLP214 P0001 60003 T01060106 58011=
202310180156 METAR KPWT 180156Z AUTO 00000KT 10SM -RA FEW019 SCT120 11/11 A3016 RMK AO2 RAB15 SLP219 P0001 T01110111=
202310180056 METAR KPWT 180056Z AUTO 22005KT 10SM FEW090 12/11 A3018 RMK AO2 RAE16 SLP223 P0001 T01170111=
202310172356 METAR KPWT 172356Z AUTO 23005KT 10SM -RA CLR 12/11 A3018 RMK AO2 SLP225 P0005 60006 T01220111 10139 20122 58008=
202310172256 METAR KPWT 172256Z AUTO 19003KT 9SM -RA CLR 13/12 A3022 RMK AO2 RAB18 SLP237 P0001 T01330122=
202310172156 METAR KPWT 172156Z AUTO 00000KT 10SM BKN075 14/12 A3021 RMK AO2 SLP235 T01390117=
202310172056 METAR KPWT 172056Z AUTO 25005KT 10SM FEW015 BKN070 14/12 A3021 RMK AO2 SLP233 60000 T01390117 53002=
202310171956 METAR KPWT 171956Z AUTO 22007KT 10SM FEW009 14/12 A3021 RMK AO2 RAE25 SLP233 P0000 T01390122=
202310171856 METAR KPWT 171856Z AUTO 19006KT 10SM -RA FEW009 13/12 A3020 RMK AO2 RAB42 SLP231 P0000 T01280122=
202310171846 SPECI KPWT 171846Z AUTO 21005KT 10SM -RA SCT009 SCT075 13/12 A3020 RMK AO2 RAB42 P0000=
202310171756 METAR KPWT 171756Z AUTO 20004KT 10SM OVC007 12/12 A3020 RMK AO2 CIG 005V011 SLP232 60000 T01220122 10122 20106 50006=
202310171725 SPECI KPWT 171725Z AUTO 20003KT 10SM OVC005 12/12 A3021 RMK AO2=
202310171656 METAR KPWT 171656Z AUTO 22006KT 10SM BKN007 12/12 A3021 RMK AO2 RAE32 CIG 004V009 SLP234 P0000 T01170117=
202310171644 SPECI KPWT 171644Z AUTO 21006KT 10SM BKN005 12/12 A3020 RMK AO2 RAE32 CIG 003V008 P0000=
202310171556 METAR KPWT 171556Z AUTO 22004KT 9SM -RA OVC003 11/11 A3019 RMK AO2 RAB49 SLP229 P0000 T01110111=
202310171532 SPECI KPWT 171532Z AUTO 20003KT 7SM OVC003 11/11 A3019 RMK AO2=
202310171524 SPECI KPWT 171524Z AUTO 23003KT 2SM BR OVC003 11/11 A3020 RMK AO2 VIS 3/4V5=
202310171515 SPECI KPWT 171515Z AUTO 25004KT 1SM BR OVC003 11/11 A3020 RMK AO2=
202310171456 METAR KPWT 171456Z AUTO 21003KT 1 3/4SM BR OVC003 11/11 A3018 RMK AO2 SLP225 T01060106 51006=
202310171356 METAR KPWT 171356Z AUTO 21005KT 10SM OVC003 11/11 A3017 RMK AO2 CIG 003V006 SLP221 T01060106=
202310171346 SPECI KPWT 171346Z AUTO 20004KT 10SM OVC005 11/11 A3017 RMK AO2 CIG 002V007=
202310171256 METAR KPWT 171256Z AUTO 23003KT 6SM BR OVC003 11/11 A3018 RMK AO2 SLP226 T01060106=
202310171208 SPECI KPWT 171208Z AUTO 16004KT 5SM BR OVC003 11/11 A3016 RMK AO2=
202310171156 METAR KPWT 171156Z AUTO 00000KT 2SM BR OVC003 11/11 A3016 RMK AO2 SLP218 70058 T01060106 10106 20094 51007=
202310171154 SPECI KPWT 171154Z AUTO 00000KT 2SM BR OVC003 11/11 A3016 RMK AO2=
202310171056 METAR KPWT 171056Z AUTO 20005KT 10SM OVC003 11/11 A3016 RMK AO2 SLP216 T01060106=
202310170956 METAR KPWT 170956Z AUTO 21006KT 10SM OVC003 11/11 A3014 RMK AO2 SLP211 T01060106=
202310170856 METAR KPWT 170856Z AUTO VRB06KT 10SM BKN003 11/11 A3012 RMK AO2 SLP203 T01060106 50010=
202310170851 SPECI KPWT 170851Z AUTO 20007KT 9SM BKN003 11/11 A3012 RMK AO2=
202310170836 SPECI KPWT 170836Z AUTO 21009KT 10SM FEW003 11/11 A3012 RMK AO2=
202310170756 METAR KPWT 170756Z AUTO 20009KT 10SM CLR 10/10 A3010 RMK AO2 SLP197 T01000100 401560089=
202310170656 METAR KPWT 170656Z AUTO 22007KT 10SM CLR 10/10 A3009 RMK AO2 SLP193 T01000100=
202310170556 METAR KPWT 170556Z AUTO 20010KT 10SM CLR 11/11 A3007 RMK AO2 SLP187 T01060106 10144 20106 53007=
202310170456 METAR KPWT 170456Z AUTO 19009KT 10SM CLR 11/11 A3006 RMK AO2 SLP184 T01110111=
202310170419 SPECI KPWT 170419Z AUTO 19010KT 10SM SCT008 12/12 A3005 RMK AO2=
202310170356 METAR KPWT 170356Z AUTO 19009KT 10SM BKN008 OVC110 12/12 A3005 RMK AO2 SLP180 T01220122=
202310170354 SPECI KPWT 170354Z AUTO 18008KT 10SM BKN008 BKN110 12/12 A3005 RMK AO2=
202310170321 SPECI KPWT 170321Z AUTO 19008KT 10SM FEW005 SCT010 12/12 A3005 RMK AO2=
202310170256 METAR KPWT 170256Z AUTO 18007KT 10SM CLR 12/12 A3003 RMK AO2 SLP172 T01170117 53035=
202310170156 METAR KPWT 170156Z AUTO 20012KT 10SM CLR 12/11 A2998 RMK AO2 SLP158 T01170111=
202310170056 METAR KPWT 170056Z AUTO 20011KT 10SM FEW080 13/12 A2994 RMK AO2 SLP143 T01280117=
202310162356 METAR KPWT 162356Z AUTO 23013G21KT 10SM FEW013 15/12 A2992 RMK AO2 RAB2257E18 SLP136 P0000 60019 T01500122 10156 20144 53010=
202310162346 SPECI KPWT 162346Z AUTO 22016G24KT 10SM SCT015 SCT028 BKN055 15/13 A2992 RMK AO2 RAB2257E18 P0000=
202310162334 SPECI KPWT 162334Z AUTO 23019G24KT 10SM BKN015 BKN023 16/15 A2991 RMK AO2 RAB2257E18 P0000=
202310162256 METAR KPWT 162256Z AUTO 22013KT 10SM CLR 16/15 A2989 RMK AO2 RAB2159E47 SLP125 P0001 T01560150=
202310162238 SPECI KPWT 162238Z AUTO 21014KT 10SM -RA FEW010 SCT017 16/16 A2988 RMK AO2 RAB2159 P0001=
202310162217 SPECI KPWT 162217Z AUTO 22014G19KT 10SM -RA SCT010 BKN015 OVC028 16/16 A2989 RMK AO2 RAB2159 P0001=
202310162156 METAR KPWT 162156Z AUTO 21012G17KT 10SM FEW006 BKN013 OVC055 16/16 A2989 RMK AO2 RAE53 SLP124 P0016 T01560156=
202310162137 SPECI KPWT 162137Z AUTO 21011KT 9SM -RA SCT006 BKN013 OVC021 16/16 A2989 RMK AO2 P0016=
202310162056 METAR KPWT 162056Z AUTO 19009KT 10SM -RA OVC004 15/15 A2989 RMK AO2 RAE09B30 SLP125 P0000 60002 T01500150 58002=
202310161956 METAR KPWT 161956Z AUTO 19010KT 10SM -RA OVC004 15/15 A2990 RMK AO2 SLP128 P0000 T01500150=
202310161856 METAR KPWT 161856Z AUTO 20011G16KT 10SM -RA OVC004 14/14 A2990 RMK AO2 SLP129 P0002 T01440144=
202310161756 METAR KPWT 161756Z AUTO 19012G19KT 7SM -RA OVC004 14/14 A2990 RMK AO2 SLP128 P0003 60039 T01440144 10144 20094 51010=
202310161751 SPECI KPWT 161751Z AUTO 20012G18KT 8SM -RA OVC004 14/14 A2990 RMK AO2 P0002=
202310161656 METAR KPWT 161656Z AUTO 20013G17KT 10SM -RA OVC006 14/14 A2989 RMK AO2 CIG 004V010 SLP123 P0010 T01390139=
202310161556 METAR KPWT 161556Z AUTO 20009KT 8SM RA BKN009 BKN016 OVC023 13/13 A2987 RMK AO2 CIG 005V013 SLP117 P0015 T01280128=
202310161539 SPECI KPWT 161539Z AUTO 21007KT 9SM RA FEW007 BKN012 OVC027 13/13 A2987 RMK AO2 P0012=
202310161531 SPECI KPWT 161531Z AUTO 22007KT 7SM RA SCT010 BKN021 OVC038 12/12 A2987 RMK AO2 P0011=
202310161456 METAR KPWT 161456Z AUTO 25005KT 9SM RA FEW035 OVC043 12/12 A2985 RMK AO2 SLP113 P0010 60011 T01170117 50012=
202310161412 SPECI KPWT 161412Z AUTO 26007KT 7SM RA SCT002 BKN031 OVC055 12/12 A2985 RMK AO2 P0002=
202310161356 METAR KPWT 161356Z AUTO 22008KT 7SM -RA BKN002 BKN060 11/11 A2986 RMK AO2 RAB54 CIG 001V007 SLP116 P0001 T01060106=
202310161352 SPECI KPWT 161352Z AUTO 22010KT 10SM SCT002 BKN060 11/11 A2987 RMK AO2 PRESRR=
202310161256 METAR KPWT 161256Z AUTO 11004KT 5SM BR CLR 10/10 A2982 RMK AO2 PRESFR SLP101 T01000100=
202310161156 METAR KPWT 161156Z AUTO 22004KT 10SM FEW095 10/10 A2987 RMK AO2 SLP117 70005 T01000100 10111 20089 56012=
202310161134 SPECI KPWT 161134Z AUTO 23003KT 5SM BR FEW090 10/10 A2987 RMK AO2=
202310161107 SPECI KPWT 161107Z AUTO 20003KT 2SM BR SCT090 10/10 A2987 RMK AO2 VIS 1 1/4V5=
202310161056 METAR KPWT 161056Z AUTO 00000KT 10SM CLR 10/10 A2987 RMK AO2 SLP120 T01000100=
202310161045 SPECI KPWT 161045Z AUTO 00000KT 3SM BR CLR 11/11 A2987 RMK AO2=
202310161036 SPECI KPWT 161036Z AUTO 20004KT 1 3/4SM BR CLR 10/10 A2988 RMK AO2=
202310161017 SPECI KPWT 161017Z AUTO 22004KT 3SM BR CLR 09/09 A2988 RMK AO2=
202310161012 SPECI KPWT 161012Z AUTO 00000KT 1 1/4SM BR CLR 09/09 A2988 RMK AO2=
202310161009 SPECI KPWT 161009Z AUTO 00000KT 3/4SM BR CLR 09/09 A2988 RMK AO2=
202310161002 SPECI KPWT 161002Z AUTO 00000KT 1 3/4SM BR CLR 10/10 A2988 RMK AO2=
202310160956 METAR KPWT 160956Z AUTO 00000KT 9SM CLR 10/10 A2988 RMK AO2 SLP123 T01000100=
202310160928 SPECI KPWT 160928Z AUTO 00000KT 6SM BR CLR 10/10 A2989 RMK AO2=
202310160920 SPECI KPWT 160920Z AUTO 00000KT 2SM BR CLR 09/09 A2990 RMK AO2 VIS 3/4V5=
202310160856 METAR KPWT 160856Z AUTO 00000KT 5SM BR CLR 10/10 A2990 RMK AO2 SLP129 T01000100 56021=
202310160847 SPECI KPWT 160847Z AUTO 00000KT 2 1/2SM BR CLR 10/10 A2991 RMK AO2=
202310160824 SPECI KPWT 160824Z AUTO 00000KT 4SM BR CLR 10/10 A2992 RMK AO2=
202310160818 SPECI KPWT 160818Z AUTO 00000KT 1 1/4SM BR CLR 11/11 A2992 RMK AO2=
202310160812 SPECI KPWT 160812Z AUTO 00000KT 3/4SM BR CLR 10/10 A2993 RMK AO2=
202310160805 SPECI KPWT 160805Z AUTO 00000KT 1SM BR CLR 10/10 A2993 RMK AO2=
202310160756 METAR KPWT 160756Z AUTO 00000KT 1/2SM FG CLR 11/11 A2993 RMK AO2 SLP138 T01060106 401670100=
202310160742 SPECI KPWT 160742Z AUTO 00000KT 3/4SM BR FEW110 10/10 A2993 RMK AO2=
202310160739 SPECI KPWT 160739Z AUTO 00000KT 1 3/4SM BR FEW110 11/11 RMK AO2 $=
202310160735 SPECI KPWT 160735Z AUTO 00000KT 3SM BR FEW110 10/10 A2993 RMK AO2=
202310160729 SPECI KPWT 160729Z AUTO 00000KT 1 1/4SM BR SCT110 11/11 A2993 RMK AO2 VIS 3/4V5=
202310160719 SPECI KPWT 160719Z AUTO 00000KT 3/4SM BR CLR 11/11 A2993 RMK AO2=
202310160708 SPECI KPWT 160708Z AUTO 00000KT 1 1/4SM BR CLR 11/11 A2993 RMK AO2=
202310160656 METAR KPWT 160656Z AUTO 00000KT 3/4SM BR CLR 11/11 A2994 RMK AO2 SLP142 T01060106=
202310160653 SPECI KPWT 160653Z AUTO 00000KT 3/4SM BR CLR 11/11 A2995 RMK AO2=
202310160647 SPECI KPWT 160647Z AUTO 00000KT 1 3/4SM BR CLR 11/11 A2995 RMK AO2 VIS 1V5=
202310160556 METAR KPWT 160556Z AUTO 00000KT 4SM BR CLR 11/11 A2997 RMK AO2 SLP151 T01110111 10150 20106 56008=
202310160456 METAR KPWT 160456Z AUTO 00000KT 10SM CLR 11/11 A2997 RMK AO2 SLP153 T01110111=
202310160416 SPECI KPWT 160416Z AUTO 00000KT 9SM CLR 11/11 A2998 RMK AO2=
202310160409 SPECI KPWT 160409Z AUTO 00000KT 2SM BR FEW120 11/11 A2999 RMK AO2=
202310160404 SPECI KPWT 160404Z AUTO 00000KT 1SM BR FEW120 11/11 A2999 RMK AO2=
202310160356 METAR KPWT 160356Z AUTO 00000KT 1/4SM FG FEW120 11/11 A2998 RMK AO2 VIS M1/4V4 SLP157 T01110111=
202310160353 SPECI KPWT 160353Z AUTO 00000KT 1/4SM FG FEW120 12/12 A2999 RMK AO2=
202310160350 SPECI KPWT 160350Z AUTO 00000KT 3/4SM BR FEW120 11/11 A2999 RMK AO2 VIS 1/2V2 1/2=
202310160345 SPECI KPWT 160345Z AUTO 00000KT 1 1/4SM BR FEW120 11/11 A2999 RMK AO2 VIS 1/2V4=
202310160343 SPECI KPWT 160343Z AUTO 00000KT 3/4SM BR CLR 11/11 A2999 RMK AO2 VIS 1/4V4=
202310160256 METAR KPWT 160256Z AUTO 00000KT 1/2SM FG FEW120 12/12 A2999 RMK AO2 SLP160 T01220122 56017=
202310160253 SPECI KPWT 160253Z AUTO 00000KT 3/4SM BR SCT110 12/12 A2999 RMK AO2=
202310160242 SPECI KPWT 160242Z AUTO 00000KT 1 3/4SM BR SCT110 13/13 A2999 RMK AO2=
202310160156 METAR KPWT 160156Z AUTO 00000KT 10SM FEW100 13/13 A3000 RMK AO2 SLP164 T01330133=
202310160056 METAR KPWT 160056Z AUTO 00000KT 10SM FEW060 14/14 A3002 RMK AO2 SLP170 T01440144=
202310152356 METAR KPWT 152356Z AUTO 00000KT 10SM CLR 15/14 A3004 RMK AO2 RAE47 SLP176 P0001 60005 T01500144 10167 20150 58019=
202310152256 METAR KPWT 152256Z AUTO 35004KT 10SM -RA CLR 15/14 A3007 RMK AO2 SLP186 P0002 T01500144=
202310152156 METAR KPWT 152156Z AUTO 01003KT 10SM -RA CLR 16/16 A3008 RMK AO2 SLP188 P0002 T01560156=
202310152056 METAR KPWT 152056Z AUTO 00000KT 10SM -RA CLR 17/15 A3010 RMK AO2 RAB01 SLP195 P0000 60000 T01670150 56018=
202310151956 METAR KPWT 151956Z AUTO 07003KT 10SM CLR 16/15 A3011 RMK AO2 SLP199 T01560150=
202310151856 METAR KPWT 151856Z AUTO 00000KT 10SM CLR 16/13 A3014 RMK AO2 SLP207 T01560128=
202310151756 METAR KPWT 151756Z AUTO 00000KT 10SM CLR 16/13 A3015 RMK AO2 SLP213 T01560128 10156 20122 58006=
202310151656 METAR KPWT 151656Z AUTO 00000KT 10SM CLR 15/13 A3016 RMK AO2 SLP217 T01500128=
202310151556 METAR KPWT 151556Z AUTO 00000KT 10SM OVC035 13/13 A3016 RMK AO2 SLP218 T01330133=
202310151456 METAR KPWT 151456Z AUTO 00000KT 10SM OVC035 12/12 A3017 RMK AO2 SLP220 T01220122 53001=
202310151356 METAR KPWT 151356Z AUTO 00000KT 10SM OVC035 12/12 A3017 RMK AO2 SLP220 T01220122=
202310151256 METAR KPWT 151256Z AUTO 00000KT 10SM OVC035 12/12 A3017 RMK AO2 SLP219 T01220122=
202310151156 METAR KPWT 151156Z AUTO 00000KT 10SM BKN035 BKN065 12/12 A3017 RMK AO2 SLP219 60003 70006 T01220122 10128 20122 51003=
202310151056 METAR KPWT 151056Z AUTO 00000KT 10SM BKN035 12/12 A3016 RMK AO2 SLP218 T01220122=
202310150956 METAR KPWT 150956Z AUTO 00000KT 10SM BKN035 BKN060 12/12 A3017 RMK AO2 SLP219 T01220122=
202310150856 METAR KPWT 150856Z AUTO 17003KT 10SM OVC047 13/13 A3016 RMK AO2 SLP217 60003 T01280128 51011=
202310150840 SPECI KPWT 150840Z AUTO 18005KT 10SM SCT029 OVC045 13/13 A3016 RMK AO2=
202310150756 METAR KPWT 150756Z AUTO 00000KT 10SM OVC027 13/13 A3015 RMK AO2 RAE43 SLP214 P0002 T01280128 401440106=
202310150656 METAR KPWT 150656Z AUTO 00000KT 8SM -RA OVC029 13/13 A3014 RMK AO2 RAE29B52 SLP209 P0001 T01280128=
202310150556 METAR KPWT 150556Z AUTO 00000KT 8SM -RA BKN024 OVC030 13/13 A3013 RMK AO2 RAB25 SLP205 P0000 60002 T01280128 10139 20122 51013=
202310150530 SPECI KPWT 150530Z AUTO 00000KT 8SM -RA OVC028 12/12 A3012 RMK AO2 RAB25 P0000=
202310150456 METAR KPWT 150456Z AUTO 00000KT 10SM OVC048 12/12 A3011 RMK AO2 SLP201 T01220122=
202310150356 METAR KPWT 150356Z AUTO 21003KT 10SM FEW029 BKN037 OVC050 13/13 A3010 RMK AO2 RAE41 SLP197 P0001 T01280128=
202310150256 METAR KPWT 150256Z AUTO 00000KT 9SM -RA SCT041 SCT048 BKN060 13/13 A3009 RMK AO2 SLP192 P0000 60001 T01280128 53015=
202310150156 METAR KPWT 150156Z AUTO 00000KT 10SM -RA CLR 13/13 A3007 RMK AO2 SLP185 P0001 T01280128=
202310150056 METAR KPWT 150056Z AUTO 20003KT 10SM -RA FEW032 13/13 A3005 RMK AO2 RAB01 SLP180 P0000 T01330133=
202310142356 METAR KPWT 142356Z AUTO 23004KT 10SM CLR 14/13 A3004 RMK AO2 RAE20 SLP176 P0000 60000 T01390133 10144 20133 50004=
202310142256 METAR KPWT 142256Z AUTO 20004KT 10SM -RA BKN048 14/13 A3005 RMK AO2 RAB54 SLP178 P0000 T01390128=
202310142156 METAR KPWT 142156Z AUTO 21005KT 10SM CLR 14/13 A3004 RMK AO2 SLP176 T01440128=
202310142056 METAR KPWT 142056Z AUTO 25004KT 10SM SCT009 SCT014 14/13 A3003 RMK AO2 SLP172 T01390128 50004=
202310142034 SPECI KPWT 142034Z AUTO 23004KT 10SM BKN007 14/13 A3003 RMK AO2 CIG 006V011=
202310141956 METAR KPWT 141956Z AUTO 22004KT 10SM SCT008 14/13 A3003 RMK AO2 SLP174 T01390128=
202310141856 METAR KPWT 141856Z AUTO 24006KT 10SM BKN008 14/13 A3004 RMK AO2 SLP174 T01390128=
202310141839 SPECI KPWT 141839Z AUTO 23004KT 8SM BKN008 13/13 A3003 RMK AO2 CIG 005V011=
202310141829 SPECI KPWT 141829Z AUTO VRB03KT 10SM BKN005 BKN010 14/13 A3003 RMK AO2=
202310141756 METAR KPWT 141756Z AUTO VRB04KT 10SM FEW005 13/13 A3002 RMK AO2 SLP168 60001 T01330128 10133 20106 51008=
202310141708 SPECI KPWT 141708Z AUTO 25004KT 7SM SCT003 12/12 A3001 RMK AO2=
202310141656 METAR KPWT 141656Z AUTO 26003KT 9SM BKN003 12/12 A3001 RMK AO2 SLP166 T01170117=
202310141633 SPECI KPWT 141633Z AUTO 00000KT 6SM BR FEW003 11/11 A3001 RMK AO2=
202310141556 METAR KPWT 141556Z AUTO 23004KT 10SM CLR 12/12 A3001 RMK AO2 SLP165 T01170117=
202310141456 METAR KPWT 141456Z AUTO 21003KT 10SM FEW047 BKN060 12/12 A2999 RMK AO2 SLP159 60001 T01170117 53012=
202310141356 METAR KPWT 141356Z AUTO 16003KT 10SM OVC043 12/12 A2997 RMK AO2 SLP154 P0001 T01170117=
202310141256 METAR KPWT 141256Z AUTO 00000KT 10SM BKN041 OVC049 12/12 A2996 RMK AO2 RAE1157 SLP149 T01170117=
202310141156 METAR KPWT 141156Z AUTO 00000KT 10SM -RA OVC039 12/12 A2996 RMK AO2 SLP146 P0000 60011 7//// T01170117 10122 20117 51010=
202310141117 SPECI KPWT 141117Z AUTO 24004KT 10SM FEW025 BKN032 OVC040 12/12 A2995 RMK AO2 RAE13 P0000=
202310141056 METAR KPWT 141056Z AUTO 24003KT 10SM -RA OVC025 12/12 A2994 RMK AO2 SLP142 P0000 T01170117=
202310140956 METAR KPWT 140956Z AUTO 19003KT 10SM -RA FEW016 BKN027 OVC046 12/12 A2994 RMK AO2 SLP141 P0001 T01170117=
202310140927 SPECI KPWT 140927Z AUTO 00000KT 8SM -RA FEW024 BKN038 OVC050 12/12 A2993 RMK AO2 P0000=
202310140919 SPECI KPWT 140919Z AUTO 00000KT 8SM -RA FEW020 BKN027 OVC048 12/12 A2993 RMK AO2 P0000=
202310140856 METAR KPWT 140856Z AUTO 00000KT 6SM -RA BR SCT026 BKN033 OVC045 12/12 A2992 RMK AO2 SLP136 P0003 60010 T01170117 53003=
202310140756 METAR KPWT 140756Z AUTO 00000KT 9SM -RA FEW005 SCT019 OVC039 12/12 A2992 RMK AO2 SLP136 P0002 T01170117 402170050=
202310140735 SPECI KPWT 140735Z AUTO 00000KT 7SM -RA FEW008 SCT025 OVC037 12/12 A2992 RMK AO2 P0001=
202310140728 SPECI KPWT 140728Z AUTO 00000KT 7SM -RA BKN025 OVC037 12/12 A2992 RMK AO2 P0001=
202310140656 METAR KPWT 140656Z AUTO 00000KT 10SM -RA FEW026 BKN039 OVC045 12/12 A2991 RMK AO2 SLP133 P0005 T01170117=
202310140556 METAR KPWT 140556Z AUTO 20003KT 10SM -RA BKN034 BKN043 12/12 A2991 RMK AO2 SLP132 P0008 6//// T01170117 10183 20117 51010=
202310140456 METAR KPWT 140456Z AUTO 20005KT 8SM -RA OVC034 12/12 A2991 RMK AO2 SLP132 P0009 T01220122=
202310140356 METAR KPWT 140356Z AUTO 21009KT 10SM -RA OVC037 12/12 A2990 RMK AO2 SLP130 P0006 T01220122=
202310140256 METAR KPWT 140256Z AUTO 23007KT 10SM -RA BKN037 13/12 A2988 RMK AO2 SLP124 P0003 6//// T01280122 51036=
202310140156 METAR KPWT 140156Z AUTO 23007KT 10SM -RA CLR 14/12 A2985 RMK AO2 SLP113 P0001 T01390122=
202310140056 METAR KPWT 140056Z AUTO 20003KT 10SM -RA CLR 14/12 A2982 RMK AO2 RAB18 SLP101 T01440122=
202310132356 METAR KPWT 132356Z AUTO 00000KT 10SM CLR 18/09 A2978 RMK AO2 SLP086 T01780089 10217 20167 57003=
202310132256 METAR KPWT 132256Z AUTO 35006KT 10SM CLR 18/09 A2977 RMK AO2 PRESFR SLP086 T01830094=
202310132156 METAR KPWT 132156Z AUTO 25006KT 10SM CLR 19/09 A2979 RMK AO2 SLP089 T01940089=
202310132056 METAR KPWT 132056Z AUTO 22007KT 10SM CLR 21/08 A2979 RMK AO2 SLP090 T02110083 56005=
202310131956 METAR KPWT 131956Z AUTO VRB03KT 10SM CLR 20/09 A2979 RMK AO2 SLP090 T02000089=
202310131856 METAR KPWT 131856Z AUTO 00000KT 10SM CLR 18/08 A2980 RMK AO2 SLP092 T01830083=
202310131756 METAR KPWT 131756Z AUTO 00000KT 10SM CLR 17/08 A2980 RMK AO2 SLP093 T01670078 10167 20050 56007=
202310131656 METAR KPWT 131656Z AUTO 00000KT 10SM CLR 16/08 A2981 RMK AO2 SLP095 T01560083=
202310131556 METAR KPWT 131556Z AUTO 00000KT 10SM CLR 11/09 A2981 RMK AO2 SLP099 T01060089=
202310131456 METAR KPWT 131456Z AUTO 00000KT 6SM BR CLR 06/06 A2982 RMK AO2 SLP103 T00560056 56004=
202310131356 METAR KPWT 131356Z AUTO 00000KT 10SM CLR 06/06 A2982 RMK AO2 SLP104 T00560056=
202310131256 METAR KPWT 131256Z AUTO 06003KT 10SM CLR 08/07 A2983 RMK AO2 SLP105 T00780072=
202310131156 METAR KPWT 131156Z AUTO 00000KT 10SM CLR 07/07 A2983 RMK AO2 SLP106 T00720067 10128 20061 56014=
202310131056 METAR KPWT 131056Z AUTO 00000KT 10SM CLR 07/07 A2985 RMK AO2 SLP112 T00670067=
202310130956 METAR KPWT 130956Z AUTO 00000KT 10SM CLR 08/08 A2986 RMK AO2 SLP115 T00780078=
202310130856 METAR KPWT 130856Z AUTO 07003KT 10SM CLR 11/08 A2988 RMK AO2 SLP120 T01060078 57015=
202310130756 METAR KPWT 130756Z AUTO 05008KT 10SM CLR 12/08 A2989 RMK AO2 SLP125 T01170083 401780044=
202310130656 METAR KPWT 130656Z AUTO 05003KT 10SM CLR 11/08 A2991 RMK AO2 SLP133 T01060083=
202310130556 METAR KPWT 130556Z AUTO 06007KT 10SM CLR 13/09 A2992 RMK AO2 SLP136 T01330089 10172 20117 58012=
202310130456 METAR KPWT 130456Z AUTO 05006KT 10SM CLR 13/09 A2994 RMK AO2 SLP142 T01280094=
202310130356 METAR KPWT 130356Z AUTO 05005KT 10SM CLR 12/09 A2995 RMK AO2 SLP146 T01220094=
202310130256 METAR KPWT 130256Z AUTO 05007KT 10SM CLR 13/11 A2996 RMK AO2 SLP149 T01330111 56014=
202310130156 METAR KPWT 130156Z AUTO 06006KT 10SM CLR 13/12 A2997 RMK AO2 SLP153 T01330117=
202310130056 METAR KPWT 130056Z AUTO 05004KT 10SM CLR 16/11 A2998 RMK AO2 SLP156 T01560111=
202310122356 METAR KPWT 122356Z AUTO 06004KT 10SM CLR 17/12 A3000 RMK AO2 SLP163 T01720117 10178 20111 56014=
202310122256 METAR KPWT 122256Z AUTO 04005KT 10SM CLR 18/12 A3001 RMK AO2 SLP166 T01780122=
202310122156 METAR KPWT 122156Z AUTO 00000KT 10SM CLR 18/12 A3003 RMK AO2 SLP172 T01780117=
202310122056 METAR KPWT 122056Z AUTO 01003KT 10SM CLR 17/12 A3004 RMK AO2 SLP176 T01720122 58015=
202310121956 METAR KPWT 121956Z AUTO 00000KT 10SM FEW009 15/12 A3006 RMK AO2 SLP185 T01500122=
202310121931 SPECI KPWT 121931Z AUTO VRB03KT 10SM OVC007 13/12 A3008 RMK AO2 CIG 006V009=
202310121856 METAR KPWT 121856Z AUTO VRB03KT 10SM OVC005 12/12 A3008 RMK AO2 SLP193 T01220117=
202310121821 SPECI KPWT 121821Z AUTO 00000KT 10SM OVC005 12/12 A3009 RMK AO2=
202310121756 METAR KPWT 121756Z AUTO VRB03KT 9SM OVC003 11/11 A3009 RMK AO2 CIG 002V005 SLP194 T01110111 10111 20044 50003=
202310121727 SPECI KPWT 121727Z AUTO 00000KT 3SM BR OVC003 11/11 A3009 RMK AO2=
202310121724 SPECI KPWT 121724Z AUTO VRB03KT 1 3/4SM BR OVC003 11/11 A3009 RMK AO2 VIS 3/4V4=
202310121715 SPECI KPWT 121715Z AUTO 00000KT 1SM BR OVC003 11/11 A3009 RMK AO2=
202310121701 SPECI KPWT 121701Z AUTO 00000KT 1/2SM FG OVC003 11/11 A3009 RMK AO2=
202310121656 METAR KPWT 121656Z AUTO 12003KT 1SM BR BKN003 11/11 A3009 RMK AO2 SLP194 T01060106=
202310121649 SPECI KPWT 121649Z AUTO 00000KT 2 1/2SM BR BKN003 11/11 A3009 RMK AO2=
202310121642 SPECI KPWT 121642Z AUTO 00000KT 10SM SCT003 11/11 A3009 RMK AO2=
202310121556 METAR KPWT 121556Z AUTO 00000KT 10SM CLR 08/08 A3009 RMK AO2 SLP194 T00780078=
202310121456 METAR KPWT 121456Z AUTO 00000KT 10SM CLR 06/06 A3008 RMK AO2 SLP191 T00560056 53004=
202310121438 SPECI KPWT 121438Z AUTO 00000KT 10SM CLR 06/06 A3008 RMK AO2=
202310121430 SPECI KPWT 121430Z AUTO 00000KT 1 1/4SM BR CLR 06/06 A3008 RMK AO2=
202310121414 SPECI KPWT 121414Z AUTO 00000KT 3/4SM BR CLR 06/06 A3007 RMK AO2 VIS 1/4V5=
202310121412 SPECI KPWT 121412Z AUTO 00000KT 1 1/2SM BR CLR 06/06 A3007 RMK AO2 VIS 1/4V5=
202310121401 SPECI KPWT 121401Z AUTO 14003KT 3SM BR CLR 06/06 A3007 RMK AO2=
202310121356 METAR KPWT 121356Z AUTO 00000KT 1 3/4SM BR CLR 06/06 A3007 RMK AO2 VIS 1V5 SLP188 T00610061=
202310121345 SPECI KPWT 121345Z AUTO 00000KT 1 1/4SM BR SCT001 06/06 A3007 RMK AO2=
202310121341 SPECI KPWT 121341Z AUTO 00000KT 3/4SM BR VV001 06/06 A3007 RMK AO2=
202310121314 SPECI KPWT 121314Z AUTO 04003KT 1/4SM FG BKN002 08/08 A3007 RMK AO2=
202310121308 SPECI KPWT 121308Z AUTO 00000KT 3/4SM BR BKN002 BKN033 08/08 A3007 RMK AO2=
202310121303 SPECI KPWT 121303Z AUTO 00000KT 1 3/4SM BR BKN002 BKN033 07/07 A3007 RMK AO2=
202310121256 METAR KPWT 121256Z AUTO 34003KT 6SM BR SCT002 SCT033 07/07 A3007 RMK AO2 SLP188 T00670067=
202310121252 SPECI KPWT 121252Z AUTO 34003KT 4SM BR FEW002 07/07 A3007 RMK AO2=
202310121251 SPECI KPWT 121251Z AUTO 00000KT 3SM BR FEW034 06/06 A3007 RMK AO2=
202310121229 SPECI KPWT 121229Z AUTO 23003KT 1 1/4SM BR CLR 06/06 A3006 RMK AO2=
202310121220 SPECI KPWT 121220Z AUTO 00000KT 3/4SM BR CLR 06/06 A3006 RMK AO2 VIS 1/2V2=
202310121204 SPECI KPWT 121204Z AUTO 00000KT 1/2SM FG CLR 05/05 A3005 RMK AO2=
202310121156 METAR KPWT 121156Z AUTO 21004KT 3/4SM BR CLR 05/05 A3004 RMK AO2 SLP178 60001 70031 T00500050 10100 20050 53018=
202310121116 SPECI KPWT 121116Z AUTO 00000KT 4SM BR CLR 07/07 A3002 RMK AO2=
202310121113 SPECI KPWT 121113Z AUTO 00000KT 1 3/4SM BR FEW029 07/07 A3002 RMK AO2=
202310121106 SPECI KPWT 121106Z AUTO 00000KT 2SM BR SCT029 08/08 A3002 RMK AO2=
202310121056 METAR KPWT 121056Z AUTO 00000KT 10SM BKN029 08/08 A3002 RMK AO2 SLP170 T00830083=
202310120956 METAR KPWT 120956Z AUTO 00000KT 10SM OVC029 07/07 A3001 RMK AO2 SLP166 P0001 T00720072=
202310120934 SPECI KPWT 120934Z AUTO 00000KT 2 1/2SM BR BKN029 06/06 A3000 RMK AO2 P0001=
202310120856 METAR KPWT 120856Z AUTO 00000KT 10SM CLR 07/07 A2999 RMK AO2 SLP160 T00670067 53017=
202310120852 SPECI KPWT 120852Z AUTO 00000KT 3SM BR CLR 07/07 A2998 RMK AO2=
202310120847 SPECI KPWT 120847Z AUTO 00000KT 1 1/4SM BR CLR 07/07 A2998 RMK AO2=
202310120841 SPECI KPWT 120841Z AUTO 00000KT 3/4SM BR CLR 07/07 A2998 RMK AO2 VIS 1/2V4=
202310120828 SPECI KPWT 120828Z AUTO 00000KT 1 3/4SM BR CLR 06/06 A2998 RMK AO2=
202310120819 SPECI KPWT 120819Z AUTO 15003KT 3SM BR CLR 07/07 A2997 RMK AO2=
202310120814 SPECI KPWT 120814Z AUTO 00000KT 1SM BR CLR 07/07 A2997 RMK AO2=
202310120757 SPECI KPWT 120757Z AUTO 00000KT 1/2SM FG CLR 06/06 A2997 RMK AO2=
202310120753 METAR KPWT 120753Z AUTO 00000KT 1SM BR CLR 07/07 A2997 RMK AO2 SLP152 T00670067 401440067=
202310120752 SPECI KPWT 120752Z AUTO 00000KT 1SM BR CLR 07/07 A2997 RMK AO2 VIS 3/4V2 1/2 401440067=
202310120743 SPECI KPWT 120743Z AUTO 00000KT 2SM BR CLR 07/07 A2996 RMK AO2 VIS 3/4V5=
202310120656 METAR KPWT 120656Z AUTO 00000KT 10SM CLR 08/08 A2995 RMK AO2 SLP148 T00780078=
202310120653 SPECI KPWT 120653Z AUTO 00000KT 3SM BR CLR 08/08 A2995 RMK AO2=
202310120643 SPECI KPWT 120643Z AUTO 00000KT 1 3/4SM BR CLR 08/08 A2995 RMK AO2 VIS 1/2V5=
202310120556 METAR KPWT 120556Z AUTO 00000KT 10SM CLR 10/10 A2994 RMK AO2 SLP141 60000 T01000100 10139 20100 51020=
202310120456 METAR KPWT 120456Z AUTO 06006KT 10SM CLR 11/11 A2991 RMK AO2 SLP134 T01110106=
202310120356 METAR KPWT 120356Z AUTO 06004KT 10SM OVC036 12/11 A2990 RMK AO2 SLP129 T01220111=
202310120256 METAR KPWT 120256Z AUTO 04004KT 10SM BKN038 12/12 A2988 RMK AO2 SLP121 60000 T01170117 51030=
202310120156 METAR KPWT 120156Z AUTO 06005KT 10SM SCT035 12/12 A2985 RMK AO2 SLP111 T01170117=
202310120056 METAR KPWT 120056Z AUTO 02005KT 10SM SCT065 13/12 A2982 RMK AO2 RAE01 SLP103 P0000 T01330122=
202310112356 METAR KPWT 112356Z AUTO 04008KT 10SM -RA FEW007 BKN033 OVC045 14/13 A2978 RMK AO2 SLP089 P0000 60001 T01390128 10144 20122 53028=
202310112307 SPECI KPWT 112307Z AUTO 04008KT 10SM -RA FEW008 13/13 A2976 RMK AO2 P0000=
202310112256 METAR KPWT 112256Z AUTO 04008KT 10SM -RA FEW010 SCT021 SCT037 13/13 A2976 RMK AO2 SLP080 P0000 T01330128=
202310112225 SPECI KPWT 112225Z AUTO 03006KT 10SM -RA SCT011 SCT017 13/13 A2974 RMK AO2 P0000=
202310112204 SPECI KPWT 112204Z AUTO 02007KT 10SM -RA BKN011 BKN016 BKN035 14/13 A2973 RMK AO2 P0000=
202310112156 METAR KPWT 112156Z AUTO 36006KT 10SM -RA SCT011 BKN035 14/13 A2973 RMK AO2 RAE39B55 SLP070 P0001 T01390128=
202310112127 SPECI KPWT 112127Z AUTO VRB04KT 10SM -RA FEW007 SCT026 14/13 A2971 RMK AO2 P0001=
202310112115 SPECI KPWT 112115Z AUTO 13004KT 10SM -RA FEW007 SCT019 BKN026 14/13 A2971 RMK AO2 P0001=
202310112105 SPECI KPWT 112105Z AUTO 00000KT 4SM -RA BR BKN026 OVC035 13/13 A2971 RMK AO2 P0001=
202310112056 METAR KPWT 112056Z AUTO 15005KT 7SM -RA FEW009 BKN035 OVC055 13/12 A2970 RMK AO2 RAE14B53 SLP061 P0000 60000 T01330122 53028=
202310112039 SPECI KPWT 112039Z AUTO 15005KT 10SM FEW009 SCT022 BKN050 14/13 A2969 RMK AO2 RAE14 P0000=
202310112029 SPECI KPWT 112029Z AUTO 17004KT 10SM FEW014 BKN050 14/12 A2969 RMK AO2 RAE14 P0000=
202310112020 SPECI KPWT 112020Z AUTO 18004KT 10SM FEW012 BKN022 OVC050 14/12 A2968 RMK AO2 RAE14 P0000=
202310112013 SPECI KPWT 112013Z AUTO 17005KT 10SM -RA SCT012 SCT019 BKN030 14/12 A2968 RMK AO2 P0000=
202310112004 SPECI KPWT 112004Z AUTO 17005KT 10SM -RA BKN012 BKN019 OVC026 14/13 A2968 RMK AO2 P0000=
202310111956 METAR KPWT 111956Z AUTO 17005KT 9SM -RA SCT012 BKN016 BKN022 14/12 A2967 RMK AO2 RAB54 SLP051 P0000 T01390122=
202310111920 SPECI KPWT 111920Z AUTO 18004KT 10SM SCT010 BKN014 OVC022 14/13 A2965 RMK AO2=
202310111903 SPECI KPWT 111903Z AUTO 18007KT 10SM SCT008 SCT014 BKN025 13/13 A2964 RMK AO2=
202310111856 METAR KPWT 111856Z AUTO 17007KT 10SM FEW008 BKN012 BKN018 13/13 A2964 RMK AO2 SLP042 T01280128=
202310111756 METAR KPWT 111756Z AUTO 18006KT 10SM OVC006 12/12 A2962 RMK AO2 RAE36 CIG 004V008 SLP033 P0004 60029 T01220122 10128 20100 53024=
202310111743 SPECI KPWT 111743Z AUTO 19007G14KT 10SM OVC006 13/13 A2961 RMK AO2 RAE36 CIG 003V008 P0004=
202310111656 METAR KPWT 111656Z AUTO 20005KT 5SM -RA BR OVC004 12/12 A2959 RMK AO2 SLP023 P0005 T01170117=
202310111618 SPECI KPWT 111618Z AUTO 20007KT 6SM -RA BR OVC004 11/11 A2956 RMK AO2 CIG 003V009 P0001=
202310111609 SPECI KPWT 111609Z AUTO 19008KT 8SM -RA OVC006 11/11 A2956 RMK AO2 CIG 004V009 P0001=
202310111556 METAR KPWT 111556Z AUTO 20007KT 3SM -RA BR OVC004 11/11 A2955 RMK AO2 CIG 004V009 SLP010 P0004 T01110111=
202310111551 SPECI KPWT 111551Z AUTO 19007KT 2 1/2SM -RA BR OVC004 11/11 A2954 RMK AO2 VIS 2V4 CIG 004V008 P0004=
202310111534 SPECI KPWT 111534Z AUTO 19007KT 6SM -RA BR BKN004 OVC010 11/11 A2954 RMK AO2 CIG 004V008 P0001=
202310111456 METAR KPWT 111456Z AUTO VRB05KT 10SM -RA BKN006 BKN012 OVC017 11/11 A2952 RMK AO2 CIG 005V009 SLP000 P0004 60016 T01060106 53004=
202310111416 SPECI KPWT 111416Z AUTO 14006KT 5SM -RA BR FEW008 BKN012 OVC020 11/11 A2950 RMK AO2 P0002=
202310111356 METAR KPWT 111356Z AUTO 14006KT 5SM -RA BR FEW009 BKN026 OVC032 10/10 A2950 RMK AO2 SLP994 P0006 T01000100=
202310111341 SPECI KPWT 111341Z AUTO VRB03KT 10SM -RA FEW018 BKN028 OVC035 10/10 A2950 RMK AO2 P0006=
202310111309 SPECI KPWT 111309Z AUTO 11003KT 9SM -RA FEW019 BKN032 OVC050 10/10 A2949 RMK AO2 P0002=
202310111256 METAR KPWT 111256Z AUTO VRB04KT 6SM RA BR FEW019 OVC029 10/10 A2950 RMK AO2 RAB1157 SLP993 P0006 T01000100=
202310111219 SPECI KPWT 111219Z AUTO 14004KT 10SM -RA SCT016 BKN024 OVC055 10/10 A2950 RMK AO2 RAB1157 P0000=
202310111156 METAR KPWT 111156Z AUTO 15004KT 10SM SCT034 BKN046 BKN060 10/10 A2950 RMK AO2 RAE03 SLP995 P0000 60014 70048 T01000100 10111 20100 53003=
202310111138 SPECI KPWT 111138Z AUTO 15005KT 10SM SCT013 BKN033 OVC047 10/10 A2950 RMK AO2 RAE03 P0000=
202310111056 METAR KPWT 111056Z AUTO 16005KT 10SM -RA OVC017 10/10 A2950 RMK AO2 SLP991 P0004 T01000100=
202310111046 SPECI KPWT 111046Z AUTO 16004KT 10SM -RA BKN019 BKN055 10/10 A2949 RMK AO2 P0004=
202310111030 SPECI KPWT 111030Z AUTO 15006KT 10SM -RA FEW019 SCT028 BKN055 10/10 A2949 RMK AO2 P0004=
202310110956 METAR KPWT 110956Z AUTO VRB03KT 9SM -RA BKN023 OVC039 10/10 A2950 RMK AO2 SLP991 P0008 T01000100=
202310110856 METAR KPWT 110856Z AUTO 18007KT 10SM -RA FEW011 SCT032 BKN043 11/10 A2949 RMK AO2 SLP992 P0002 60002 T01060100 55000=
202310110756 METAR KPWT 110756Z AUTO 19006KT 10SM -RA BKN045 OVC055 11/11 A2949 RMK AO2 RAB54 SLP989 P0000 T01060106 401440094=
202310110727 SPECI KPWT 110727Z AUTO 18006KT 10SM FEW006 SCT045 11/11 A2949 RMK AO2=
202310110656 METAR KPWT 110656Z AUTO 18007KT 10SM OVC006 11/11 A2950 RMK AO2 CIG 004V010 SLP993 T01060106=
202310110556 METAR KPWT 110556Z AUTO 19009KT 10SM BKN008 OVC026 11/11 A2950 RMK AO2 RAB08E19 CIG 005V011 SLP992 P0000 60007 T01110111 10133 20111 51013=
202310110505 SPECI KPWT 110505Z AUTO 19007KT 10SM FEW004 BKN008 OVC055 11/11 A2949 RMK AO2 CIG 006V011=
202310110456 METAR KPWT 110456Z AUTO 18009KT 10SM SCT006 BKN021 OVC055 11/11 A2949 RMK AO2 RAE53 SLP989 P0000 T01110111=
202310110425 SPECI KPWT 110425Z AUTO 19005KT 10SM -RA FEW006 BKN019 BKN031 11/11 A2947 RMK AO2 P0000=
202310110417 SPECI KPWT 110417Z AUTO 18006KT 10SM -RA SCT006 BKN031 OVC042 11/11 A2947 RMK AO2 P0000=
202310110356 METAR KPWT 110356Z AUTO 18007KT 10SM -RA BKN006 BKN035 BKN050 12/12 A2947 RMK AO2 CIG 003V009 SLP983 P0002 T01170117=
202310110320 SPECI KPWT 110320Z AUTO 18009KT 10SM -RA SCT006 SCT037 12/12 A2945 RMK AO2 P0001=
202310110256 METAR KPWT 110256Z AUTO 19009KT 10SM -RA OVC008 12/12 A2946 RMK AO2 RAB32 CIG 005V012 SLP978 P0003 60005 T01220122 53007=
202310110228 SPECI KPWT 110228Z AUTO 19007G14KT 10SM BKN008 OVC013 13/13 A2945 RMK AO2 CIG 007V012=
202310110215 SPECI KPWT 110215Z AUTO 19007KT 10SM BKN013 BKN075 13/12 A2945 RMK AO2=
202310110156 METAR KPWT 110156Z AUTO 18006KT 10SM FEW060 13/12 A2944 RMK AO2 RAB0058E54 SLP973 P0000 T01280122=
202310110056 METAR KPWT 110056Z AUTO 20006KT 10SM FEW050 SCT065 13/13 A2943 RMK AO2 RAB2359E40 SLP970 P0002 T01280128=
202310110031 SPECI KPWT 110031Z AUTO 18005KT 10SM -RA SCT017 BKN035 BKN055 13/13 A2944 RMK AO2 RAB2359 P0001=
202310110015 SPECI KPWT 110015Z AUTO 19006KT 10SM -RA BKN017 13/13 A2944 RMK AO2 RAB2359 P0001=
202310102356 METAR KPWT 102356Z AUTO 19007KT 10SM FEW030 SCT041 SCT049 13/13 A2944 RMK AO2 RAE15 SLP971 P0000 60001 T01330128 10144 20106 56006=
202310102317 SPECI KPWT 102317Z AUTO 17007KT 10SM SCT011 BKN041 BKN049 13/13 A2943 RMK AO2 RAE15 P0000=
202310102256 METAR KPWT 102256Z AUTO 17009KT 140V200 10SM -RA OVC013 14/13 A2944 RMK AO2 RAB02E16B39 SLP972 P0000 T01390133=
202310102231 SPECI KPWT 102231Z AUTO 20010G15KT 10SM BKN013 BKN041 OVC060 14/13 A2944 RMK AO2 RAB02E16 P0000=
202310102156 METAR KPWT 102156Z AUTO 19011G18KT 10SM FEW009 SCT027 BKN038 14/13 A2944 RMK AO2 RAE11 SLP973 P0000 T01390128=
202310102140 SPECI KPWT 102140Z AUTO 19012G17KT 10SM SCT007 BKN038 14/13 A2944 RMK AO2 RAE11 P0000=
202310102056 METAR KPWT 102056Z AUTO 18010G16KT 10SM -RA BKN009 OVC015 13/13 A2945 RMK AO2 RAB34 CIG 005V011 SLP976 P0000 60001 T01280128 58003=
202310102000 SPECI KPWT 102000Z AUTO 20006KT 10SM BKN008 OVC014 12/12 A2946 RMK AO2 CIG 006V012=
202310101956 METAR KPWT 101956Z AUTO 19007KT 10SM SCT010 OVC014 12/12 A2946 RMK AO2 RAB21E50 SLP980 P0000 T01220122=
202310101954 SPECI KPWT 101954Z AUTO 19007KT 10SM SCT010 OVC014 12/12 A2946 RMK AO2 RAB21E50 P0000=
202310101856 METAR KPWT 101856Z AUTO 19004KT 10SM OVC020 12/11 A2946 RMK AO2 RAE25 SLP980 P0001 T01170111=
202310101756 METAR KPWT 101756Z AUTO VRB04KT 10SM -RA OVC022 11/11 A2947 RMK AO2 SLP985 P0004 60026 T01060106 10111 20100 56019=
202310101656 METAR KPWT 101656Z AUTO 14004KT 4SM -RA BR OVC026 11/11 A2949 RMK AO2 SLP990 P0003 T01060106=
202310101631 SPECI KPWT 101631Z AUTO VRB04KT 7SM -RA OVC028 11/11 A2949 RMK AO2 P0002=
202310101556 METAR KPWT 101556Z AUTO 16003KT 4SM -RA BR OVC032 11/11 A2951 RMK AO2 SLP997 P0009 T01060106=
202310101543 SPECI KPWT 101543Z AUTO 00000KT 2SM RA BR OVC034 11/11 A2951 RMK AO2 VIS 1 1/2V2 1/2 P0007=
202310101456 METAR KPWT 101456Z AUTO 00000KT 4SM -RA BR SCT038 11/11 A2953 RMK AO2 SLP004 P0003 60010 T01060106 56022=
202310101356 METAR KPWT 101356Z AUTO 00000KT 10SM -RA OVC038 11/11 A2955 RMK AO2 SLP009 P0003 T01060106=
202310101256 METAR KPWT 101256Z AUTO 00000KT 10SM -RA BKN050 11/11 A2957 RMK AO2 SLP018 P0004 T01060106=
202310101217 SPECI KPWT 101217Z AUTO 20004KT 8SM -RA FEW015 BKN035 11/11 A2959 RMK AO2 P0003=
202310101207 SPECI KPWT 101207Z AUTO 20005KT 8SM RA FEW009 BKN015 OVC037 11/11 A2959 RMK AO2 P0002=
202310101156 METAR KPWT 101156Z AUTO 19004KT 9SM -RA FEW014 BKN019 BKN038 11/11 A2960 RMK AO2 SLP025 P0003 6//// 7//// T01110111 10117 20094 56019=
202310101141 SPECI KPWT 101141Z AUTO 19004KT 7SM -RA BKN020 BKN030 BKN036 11/11 A2960 RMK AO2 P0002=
202310101056 METAR KPWT 101056Z AUTO 00000KT 10SM -RA FEW042 BKN050 11/11 A2961 RMK AO2 RAB36 SLP030 P0000 T01110111=
202310100956 METAR KPWT 100956Z AUTO 00000KT 10SM SCT060 11/11 A2963 RMK AO2 SLP038 T01060106=
202310100856 METAR KPWT 100856Z AUTO 19004KT 10SM BKN055 11/11 A2965 RMK AO2 SLP044 T01110111 58007=
202310100756 METAR KPWT 100756Z AUTO 21004KT 8SM CLR 09/09 A2966 RMK AO2 SLP048 T00940094 401670094=
202310100656 METAR KPWT 100656Z AUTO 20008KT 10SM CLR 11/11 A2967 RMK AO2 SLP049 T01110111=
202310100612 SPECI KPWT 100612Z AUTO 22011KT 10SM SCT007 11/11 A2967 RMK AO2=
202310100556 METAR KPWT 100556Z AUTO 21011KT 10SM BKN007 12/12 A2967 RMK AO2 SLP052 60000 T01170117 10150 20117 50002=
202310100456 METAR KPWT 100456Z AUTO 21011KT 10SM BKN007 12/12 A2968 RMK AO2 SLP053 T01220122=
202310100433 SPECI KPWT 100433Z AUTO 21013KT 10SM BKN009 12/12 A2968 RMK AO2 CIG 007V011=
202310100412 SPECI KPWT 100412Z AUTO 20012KT 10SM BKN011 12/12 A2967 RMK AO2 CIG 008V012=
202310100356 METAR KPWT 100356Z AUTO 19012G17KT 10SM SCT009 12/12 A2967 RMK AO2 SLP050 T01220122=
202310100353 SPECI KPWT 100353Z AUTO 20012G16KT 10SM SCT009 12/12 A2967 RMK AO2=
202310100256 METAR KPWT 100256Z AUTO 20011KT 10SM CLR 12/12 A2966 RMK AO2 RAB08E26 SLP046 P0000 60000 T01220122 53004=
202310100220 SPECI KPWT 100220Z AUTO 21011KT 10SM -RA SCT011 13/12 A2965 RMK AO2 RAB08 P0000=
202310100212 SPECI KPWT 100212Z AUTO 20010KT 10SM -RA BKN011 13/13 A2965 RMK AO2 RAB08 P0000=
202310100156 METAR KPWT 100156Z AUTO 20009KT 10SM SCT007 13/13 A2965 RMK AO2 SLP044 T01330128=
202310100127 SPECI KPWT 100127Z AUTO 21013G17KT 10SM BKN009 BKN049 14/14 A2965 RMK AO2 CIG 007V012=
202310100106 SPECI KPWT 100106Z AUTO 20013KT 10SM SCT018 BKN049 15/14 A2965 RMK AO2=
202310100056 METAR KPWT 100056Z AUTO 20009KT 10SM BKN019 15/15 A2964 RMK AO2 RAE04 SLP040 P0000 T01500150=
202310100003 SPECI KPWT 100003Z AUTO 19005KT 10SM -RA SCT009 OVC017 15/15 A2964 RMK AO2 P0000=
202310092356 METAR KPWT 092356Z AUTO 20004KT 8SM -RA SCT009 BKN012 OVC019 15/15 A2964 RMK AO2 RAE16B35 SLP040 P0000 60003 T01500150 10167 20150 58002=
202310092326 SPECI KPWT 092326Z AUTO 19005KT 10SM FEW008 OVC021 15/15 A2965 RMK AO2 RAE16 P0000=
202310092304 SPECI KPWT 092304Z AUTO 19004KT 10SM -RA BKN008 BKN014 OVC023 15/15 A2965 RMK AO2 P0000=
202310092256 METAR KPWT 092256Z AUTO 20005KT 7SM -RA SCT008 OVC023 16/16 A2965 RMK AO2 SLP042 P0001 T01560156=
202310092240 SPECI KPWT 092240Z AUTO 20006KT 10SM -RA BKN025 OVC033 16/15 A2965 RMK AO2 P0001=
202310092156 METAR KPWT 092156Z AUTO 21006KT 10SM -RA BKN047 16/15 A2965 RMK AO2 SLP043 P0000 T01560150=
202310092056 METAR KPWT 092056Z AUTO 20005KT 10SM -RA CLR 15/14 A2966 RMK AO2 SLP045 P0002 60002 T01500144 56005=
202310091956 METAR KPWT 091956Z AUTO 19005KT 10SM -RA CLR 16/14 A2966 RMK AO2 RAB17 SLP046 P0000 T01610139=
202310091856 METAR KPWT 091856Z AUTO 18005KT 10SM CLR 17/13 A2967 RMK AO2 SLP048 T01670133=
202310091756 METAR KPWT 091756Z AUTO 20007KT 10SM FEW039 15/13 A2967 RMK AO2 SLP051 T01500128 10150 20111 53002=
202310091656 METAR KPWT 091656Z AUTO 18006KT 10SM CLR 14/12 A2967 RMK AO2 SLP048 T01440122=
202310091556 METAR KPWT 091556Z AUTO 22003KT 10SM CLR 14/12 A2966 RMK AO2 SLP047 T01390122=
202310091456 METAR KPWT 091456Z AUTO 00000KT 10SM CLR 13/12 A2966 RMK AO2 SLP049 T01280122 58005=
202310091356 METAR KPWT 091356Z AUTO 00000KT 10SM SCT065 11/11 A2968 RMK AO2 SLP054 T01110111=
202310091256 METAR KPWT 091256Z AUTO 24004KT 10SM FEW075 12/11 A2968 RMK AO2 SLP052 T01220111=
202310091156 METAR KPWT 091156Z AUTO 17005KT 10SM CLR 13/12 A2968 RMK AO2 SLP052 T01330117 10150 20100 58012=
202310091056 METAR KPWT 091056Z AUTO 20005KT 10SM CLR 14/12 A2969 RMK AO2 SLP056 T01440117=
202310090956 METAR KPWT 090956Z AUTO 20008KT 10SM CLR 14/11 A2970 RMK AO2 SLP060 T01440111=
202310090856 METAR KPWT 090856Z AUTO 23010KT 10SM CLR 15/12 A2971 RMK AO2 SLP064 T01500117 53010=
202310090756 METAR KPWT 090756Z AUTO 22008KT 10SM CLR 12/12 A2969 RMK AO2 SLP057 T01220122 402220089=
202310090656 METAR KPWT 090656Z AUTO 20005KT 6SM BR CLR 11/11 A2968 RMK AO2 SLP054 T01060106=
202310090646 SPECI KPWT 090646Z AUTO 23004KT 9SM CLR 11/11 A2968 RMK AO2=
202310090637 SPECI KPWT 090637Z AUTO 17003KT 1 1/4SM BR CLR 11/11 A2968 RMK AO2=
202310090630 SPECI KPWT 090630Z AUTO 00000KT 3/4SM BR CLR 11/11 A2968 RMK AO2 VIS 1/4V5=
202310090627 SPECI KPWT 090627Z AUTO 00000KT 1 1/2SM BR CLR 11/11 A2968 RMK AO2 VIS 1/4V5=
202310090556 METAR KPWT 090556Z AUTO 13004KT 9SM CLR 12/12 A2969 RMK AO2 SLP054 T01170117 10222 20117 56006=
202310090456 METAR KPWT 090456Z AUTO 00000KT 10SM CLR 13/13 A2969 RMK AO2 SLP056 T01280128=
202310090356 METAR KPWT 090356Z AUTO 00000KT 10SM CLR 13/13 A2969 RMK AO2 SLP058 T01330128=
202310090256 METAR KPWT 090256Z AUTO 00000KT 10SM CLR 14/13 A2970 RMK AO2 SLP061 T01390128 55015=
202310090156 METAR KPWT 090156Z AUTO 20004KT 10SM CLR 14/12 A2970 RMK AO2 SLP060 T01440122=
202310090056 METAR KPWT 090056Z AUTO 24007KT 10SM CLR 21/13 A2972 RMK AO2 SLP069 T02110133=
202310082356 METAR KPWT 082356Z AUTO 22009KT 10SM CLR 22/14 A2975 RMK AO2 SLP076 T02220139 10222 20167 56017=
202310082256 METAR KPWT 082256Z AUTO 22006KT 10SM CLR 22/14 A2976 RMK AO2 SLP080 T02220144=
202310082156 METAR KPWT 082156Z AUTO 19007KT 10SM CLR 22/14 A2978 RMK AO2 SLP085 T02220144=
202310082056 METAR KPWT 082056Z AUTO 23007KT 10SM CLR 21/14 A2980 RMK AO2 SLP093 T02110144 58019=
202310081956 METAR KPWT 081956Z AUTO 22010KT 10SM CLR 20/14 A2982 RMK AO2 SLP101 T02000139=
202310081856 METAR KPWT 081856Z AUTO 22007KT 10SM CLR 18/14 A2984 RMK AO2 SLP108 T01830139=
202310081756 METAR KPWT 081756Z AUTO 21006KT 10SM CLR 16/13 A2985 RMK AO2 SLP112 T01610133 10161 20089 58009=
202310081656 METAR KPWT 081656Z AUTO 21006KT 10SM FEW007 15/13 A2987 RMK AO2 SLP117 T01500133=
202310081556 METAR KPWT 081556Z AUTO 21007KT 10SM FEW008 13/13 A2988 RMK AO2 SLP121 T01330133=
202310081554 SPECI KPWT 081554Z AUTO 21005KT 10SM FEW008 13/13 A2988 RMK AO2=
202310081456 METAR KPWT 081456Z AUTO 00000KT 10SM OVC008 11/11 A2989 RMK AO2 SLP123 T01110111 58005=
202310081453 SPECI KPWT 081453Z AUTO 00000KT 5SM BR OVC008 11/11 A2989 RMK AO2=
202310081440 SPECI KPWT 081440Z AUTO 00000KT 1 1/2SM BR BKN008 11/11 A2989 RMK AO2 VIS 1/2V5=
202310081431 SPECI KPWT 081431Z AUTO 00000KT 1SM BR BKN008 11/11 A2989 RMK AO2 VIS 1/4V5=
202310081418 SPECI KPWT 081418Z AUTO 00000KT 1/2SM FG VV008 11/11 A2989 RMK AO2 VIS M1/4V5=
202310081415 SPECI KPWT 081415Z AUTO 00000KT 1SM BR BKN009 11/11 A2989 RMK AO2 VIS 1/4V5=
202310081356 METAR KPWT 081356Z AUTO 00000KT 10SM OVC009 11/11 A2990 RMK AO2 SLP127 T01110111=
202310081340 SPECI KPWT 081340Z AUTO 00000KT 9SM OVC009 11/11 A2990 RMK AO2=
202310081332 SPECI KPWT 081332Z AUTO 00000KT 2 1/2SM BR BKN009 11/11 A2990 RMK AO2 VIS 3/4V5=
202310081321 SPECI KPWT 081321Z AUTO 00000KT 4SM BR BKN009 09/09 A2990 RMK AO2=
202310081305 SPECI KPWT 081305Z AUTO 00000KT 1 1/4SM BR FEW009 09/09 A2990 RMK AO2 VIS 1/4V5=
202310081256 METAR KPWT 081256Z AUTO 00000KT 1 1/2SM BR CLR 10/10 A2990 RMK AO2 VIS 3/4V5 SLP128 T01000100=
202310081253 SPECI KPWT 081253Z AUTO 00000KT 1 3/4SM BR CLR 09/09 A2990 RMK AO2 VIS 3/4V5=
202310081225 SPECI KPWT 081225Z AUTO 00000KT 10SM FEW008 09/09 A2990 RMK AO2=
202310081156 METAR KPWT 081156Z AUTO 00000KT 10SM CLR 09/09 A2990 RMK AO2 SLP127 7//// T00940094 10133 20094 58002=
202310081144 SPECI KPWT 081144Z AUTO 00000KT 3SM BR CLR 10/10 A2990 RMK AO2=
202310081141 SPECI KPWT 081141Z AUTO 00000KT 1 1/4SM BR CLR 11/11 A2990 RMK AO2=
202310081138 SPECI KPWT 081138Z AUTO 00000KT 3/4SM BR CLR 11/11 A2990 RMK AO2=
202310081123 SPECI KPWT 081123Z AUTO 00000KT 1/4SM FG CLR 09/09 A2990 RMK AO2=
202310081116 SPECI KPWT 081116Z AUTO 00000KT 3/4SM BR CLR 11/11 A2990 RMK AO2=
202310081111 SPECI KPWT 081111Z AUTO 00000KT 1/4SM FG CLR 11/11 A2990 RMK AO2=
202310081103 SPECI KPWT 081103Z AUTO 00000KT 1/2SM FG CLR 10/10 A2990 RMK AO2 VIS 1/4V5=
202310081101 SPECI KPWT 081101Z AUTO 00000KT 1SM BR CLR 11/11 A2991 RMK AO2 VIS 1/4V5=
202310081056 METAR KPWT 081056Z AUTO 00000KT 6SM BR CLR 12/12 A2990 RMK AO2 SLP128 T01170117=
202310081032 SPECI KPWT 081032Z AUTO 00000KT 3SM BR CLR 11/11 A2991 RMK AO2=
202310081026 SPECI KPWT 081026Z AUTO 00000KT 1 3/4SM BR CLR 11/11 A2991 RMK AO2 VIS 3/4V5=
202310080956 METAR KPWT 080956Z AUTO 00000KT 9SM CLR 12/12 A2991 RMK AO2 SLP130 T01170117=
202310080856 METAR KPWT 080856Z AUTO 22004KT 10SM CLR 12/12 A2991 RMK AO2 SLP129 T01170117 53003=
202310080756 METAR KPWT 080756Z AUTO 22004KT 10SM CLR 12/12 A2990 RMK AO2 SLP128 T01220122 402780067=
202310080656 METAR KPWT 080656Z AUTO 22003KT 10SM CLR 12/12 A2990 RMK AO2 SLP127 T01220122=
202310080556 METAR KPWT 080556Z AUTO 00000KT 10SM CLR 13/12 A2990 RMK AO2 SLP127 6//// T01330122 10267 20122 51012=
202310080456 METAR KPWT 080456Z AUTO 00000KT 10SM CLR 15/13 A2989 RMK AO2 SLP123 T01500133=
202310080356 METAR KPWT 080356Z AUTO 23003KT 10SM CLR 16/13 A2988 RMK AO2 SLP120 T01610133=
202310080256 METAR KPWT 080256Z AUTO 00000KT 10SM CLR 16/13 A2986 RMK AO2 SLP116 6//// T01610133 55002=
202310080156 METAR KPWT 080156Z AUTO 00000KT 10SM CLR 19/13 A2986 RMK AO2 SLP113 T01940128=
202310080056 METAR KPWT 080056Z AUTO 20005KT 10SM CLR 25/12 A2986 RMK AO2 SLP113 T02500122=
202310072356 METAR KPWT 072356Z AUTO 21007KT 10SM CLR 27/12 A2987 RMK AO2 SLP117 T02670117 10278 20217 56011=
202310072256 METAR KPWT 072256Z AUTO 20007KT 10SM CLR 27/11 A2988 RMK AO2 SLP118 T02720111=
202310072156 METAR KPWT 072156Z AUTO 21006KT 10SM CLR 27/11 A2989 RMK AO2 SLP122 T02720106=
202310072056 METAR KPWT 072056Z AUTO 23004KT 10SM CLR 27/12 A2990 RMK AO2 SLP126 T02720117 58016=
202310071956 METAR KPWT 071956Z AUTO 26004KT 10SM CLR 26/13 A2992 RMK AO2 SLP134 T02610128=
202310071856 METAR KPWT 071856Z AUTO 28003KT 10SM CLR 24/14 A2994 RMK AO2 SLP137 T02390144=
202310071756 METAR KPWT 071756Z AUTO 00000KT 10SM CLR 22/13 A2995 RMK AO2 SLP143 60000 T02170133 10217 20067 50000=
202310071656 METAR KPWT 071656Z AUTO 00000KT 10SM CLR 19/13 A2995 RMK AO2 SLP145 T01940128=
202310071556 METAR KPWT 071556Z AUTO 00000KT 10SM CLR 13/13 A2995 RMK AO2 SLP146 T01330128=
202310071511 SPECI KPWT 071511Z AUTO 00000KT 5SM BR CLR 09/09 A2995 RMK AO2=
202310071508 SPECI KPWT 071508Z AUTO 00000KT 1 1/4SM BR CLR 09/09 A2995 RMK AO2=
202310071504 SPECI KPWT 071504Z AUTO 00000KT 3/4SM BR CLR 09/09 A2995 RMK AO2=
202310071456 METAR KPWT 071456Z AUTO 00000KT 1/2SM FG CLR 08/08 A2995 RMK AO2 RAE01 SLP145 P0000 60000 T00830083=
202310071448 SPECI KPWT 071448Z AUTO 00000KT 1/2SM FG CLR 07/07 A2995 RMK AO2 VIS M1/4V5 RAE01 P0000=
202310071446 SPECI KPWT 071446Z AUTO 00000KT 1SM BR CLR 07/07 A2995 RMK AO2 VIS M1/4V5 RAE01 P0000=
202310071436 SPECI KPWT 071436Z AUTO 00000KT 1/2SM FG CLR 07/07 A2995 RMK AO2 RAE01 P0000=
202310071405 SPECI KPWT 071405Z AUTO 00000KT 9SM CLR 07/07 A2995 RMK AO2 RAE01 P0000=
202310071358 SPECI KPWT 071358Z AUTO 00000KT 2SM -RA BR CLR 08/08 A2995 RMK AO2 P0000=
202310071356 METAR KPWT 071356Z AUTO 00000KT 1SM -RA BR CLR 08/08 RMK AO2 RAE05B48 SLPNO P0000 T00780078 $=
202310071347 SPECI KPWT 071347Z AUTO 00000KT 1/2SM FG CLR 07/07 A2995 RMK AO2 RAE05 P0000=
202310071341 SPECI KPWT 071341Z AUTO 00000KT 1SM BR CLR 08/08 A2995 RMK AO2 RAE05 P0000=
202310071331 SPECI KPWT 071331Z AUTO 00000KT 1/2SM FG CLR 07/07 A2995 RMK AO2 RAE05 P0000=
202310071329 SPECI KPWT 071329Z AUTO 00000KT 1SM BR CLR 07/07 A2995 RMK AO2 RAE05 P0000=
202310071308 SPECI KPWT 071308Z AUTO 00000KT 4SM BR CLR 08/08 A2995 RMK AO2 RAE05 P0000=
202310071256 METAR KPWT 071256Z AUTO 00000KT 1 3/4SM -RA BR CLR 08/08 A2996 RMK AO2 VIS 1V5 RAB17 SLP147 P0000 T00780078=
202310071252 SPECI KPWT 071252Z AUTO 00000KT 2 1/2SM BR CLR 08/08 A2996 RMK AO2 VIS 1V5 RAB17E50 P0000=
202310071247 SPECI KPWT 071247Z AUTO 00000KT 1SM -RA BR CLR 08/08 A2996 RMK AO2 RAB17 P0000=
202310071239 SPECI KPWT 071239Z AUTO 00000KT 1 1/2SM BR CLR 08/08 A2996 RMK AO2 VIS 3/4V5 RAB17E34 P0000=
202310071235 SPECI KPWT 071235Z AUTO 00000KT 5SM BR CLR 08/08 A2996 RMK AO2 RAB17E34 P0000=
202310071228 SPECI KPWT 071228Z AUTO 00000KT 2SM -RA BR CLR 08/08 A2996 RMK AO2 RAB17 P0000=
202310071226 SPECI KPWT 071226Z AUTO 00000KT 1SM -RA BR CLR 08/08 A2996 RMK AO2 RAB17 P0000=
202310071218 SPECI KPWT 071218Z AUTO 00000KT 1/2SM -RA FG CLR 09/09 A2996 RMK AO2 RAB17 P0000=
202310071209 SPECI KPWT 071209Z AUTO 00000KT 3/4SM BR CLR 08/08 A2996 RMK AO2 VIS 1/4V5=
202310071206 SPECI KPWT 071206Z AUTO 00000KT 1 3/4SM BR CLR 08/08 A2996 RMK AO2=
202310071156 METAR KPWT 071156Z AUTO 00000KT 10SM CLR 08/08 A2997 RMK AO2 SLP151 T00830083 10172 20078 58009=
202310071143 SPECI KPWT 071143Z AUTO 00000KT 4SM BR CLR 09/09 A2997 RMK AO2=
202310071139 SPECI KPWT 071139Z AUTO 00000KT 1 1/4SM BR CLR 09/09 A2997 RMK AO2=
202310071130 SPECI KPWT 071130Z AUTO 00000KT 3/4SM BR CLR 08/08 A2997 RMK AO2=
202310071126 SPECI KPWT 071126Z AUTO 00000KT 1 3/4SM BR CLR 08/08 A2997 RMK AO2=
202310071124 SPECI KPWT 071124Z AUTO 00000KT 3SM BR CLR 08/08 A2997 RMK AO2=
202310071117 SPECI KPWT 071117Z AUTO 00000KT 2 1/2SM BR CLR 09/09 A2997 RMK AO2=
202310071109 SPECI KPWT 071109Z AUTO 00000KT 1SM BR CLR 09/09 A2997 RMK AO2=
202310071056 METAR KPWT 071056Z AUTO 00000KT 10SM CLR 10/10 A2998 RMK AO2 SLP153 T01000100=
202310071017 SPECI KPWT 071017Z AUTO 00000KT 5SM BR CLR 08/08 A2998 RMK AO2=
202310071008 SPECI KPWT 071008Z AUTO 00000KT 1 3/4SM BR CLR 09/09 A2998 RMK AO2=
202310070956 METAR KPWT 070956Z AUTO 00000KT 10SM CLR 11/11 A2999 RMK AO2 SLP157 T01060106=
202310070856 METAR KPWT 070856Z AUTO 00000KT 10SM CLR 14/12 A2999 RMK AO2 SLP158 T01390117 56006=
202310070756 METAR KPWT 070756Z AUTO 04006KT 10SM CLR 17/12 A2999 RMK AO2 SLP158 T01670122 402440139=
202310070656 METAR KPWT 070656Z AUTO 05007KT 10SM CLR 17/12 A3000 RMK AO2 SLP161 T01720122=
202310070556 METAR KPWT 070556Z AUTO 06007KT 10SM CLR 17/12 A3001 RMK AO2 SLP164 T01720122 10233 20156=
202310070456 METAR KPWT 070456Z AUTO 00000KT 10SM CLR 16/11 A3002 RMK AO2 SLP167 T01610111=
202310070356 METAR KPWT 070356Z AUTO 05005KT 10SM CLR 18/12 A3002 RMK AO2 SLP168 T01780117=
202310070256 METAR KPWT 070256Z AUTO 05006KT 10SM CLR 18/11 RMK AO2 SLPNO T01830111 $=
202310070156 METAR KPWT 070156Z AUTO 05006KT 10SM CLR 18/12 A3004 RMK AO2 SLP176 T01830122=
202310070056 METAR KPWT 070056Z AUTO 04006KT 10SM CLR 22/13 A3006 RMK AO2 SLP181 T02170133=
202310062356 METAR KPWT 062356Z AUTO VRB05KT 10SM CLR 23/13 A3008 RMK AO2 SLP186 T02330133 10244 20194 56021=
202310062256 METAR KPWT 062256Z AUTO 06008KT 10SM CLR 24/14 A3009 RMK AO2 SLP191 T02440139=
202310062156 METAR KPWT 062156Z AUTO 06009KT 10SM CLR 24/14 A3011 RMK AO2 SLP197 T02390144=
202310062056 METAR KPWT 062056Z AUTO 06008KT 10SM CLR 23/14 A3014 RMK AO2 SLP208 T02330144 58021=
202310061956 METAR KPWT 061956Z AUTO 05009KT 10SM CLR 22/14 A3017 RMK AO2 SLP217 T02220139=
202310061856 METAR KPWT 061856Z AUTO 05006KT 10SM CLR 21/14 A3018 RMK AO2 SLP223 T02110139=
202310061756 METAR KPWT 061756Z AUTO 05008KT 10SM CLR 19/14 A3020 RMK AO2 SLP230 T01940139 10194 20144 58007=
202310061656 METAR KPWT 061656Z AUTO 04008KT 10SM CLR 18/13 A3021 RMK AO2 SLP234 T01780133=
202310061556 METAR KPWT 061556Z AUTO 35005KT 10SM CLR 16/12 A3022 RMK AO2 SLP237 T01560117=
202310061456 METAR KPWT 061456Z AUTO 06008KT 10SM CLR 15/13 A3022 RMK AO2 SLP237 T01500128 55010=
202310061356 METAR KPWT 061356Z AUTO 04012KT 10SM CLR 15/13 A3022 RMK AO2 SLP238 T01500128=
202310061256 METAR KPWT 061256Z AUTO 04012KT 10SM CLR 15/12 A3024 RMK AO2 SLP243 T01500122=
202310061156 METAR KPWT 061156Z AUTO 05011KT 10SM CLR 14/12 A3025 RMK AO2 SLP247 T01440122 10156 20139 56007=
202310061056 METAR KPWT 061056Z AUTO 04011KT 10SM CLR 14/12 A3026 RMK AO2 SLP249 T01440122=
202310060956 METAR KPWT 060956Z AUTO 04010KT 10SM CLR 14/12 A3026 RMK AO2 SLP251 T01390122=
202310060856 METAR KPWT 060856Z AUTO 04011KT 10SM CLR 14/12 A3027 RMK AO2 SLP254 T01390117 56005=
202310060756 METAR KPWT 060756Z AUTO 04010KT 10SM CLR 15/12 A3028 RMK AO2 SLP255 T01500117 402060117=
202310060656 METAR KPWT 060656Z AUTO 05013KT 10SM CLR 15/12 A3028 RMK AO2 SLP257 T01500117=
202310060556 METAR KPWT 060556Z AUTO 04009G17KT 10SM CLR 15/12 A3029 RMK AO2 SLP260 T01500117 10189 20139 58001=
202310060456 METAR KPWT 060456Z AUTO 02010KT 10SM CLR 15/12 A3029 RMK AO2 SLP262 T01500117=
202310060356 METAR KPWT 060356Z AUTO 05010KT 10SM CLR 14/12 A3030 RMK AO2 SLP262 T01440117=
202310060256 METAR KPWT 060256Z AUTO 04006KT 10SM CLR 15/12 A3029 RMK AO2 SLP260 T01500122 55003=
202310060156 METAR KPWT 060156Z AUTO 03009KT 10SM CLR 16/12 A3029 RMK AO2 SLP260 T01560122=
202310060056 METAR KPWT 060056Z AUTO 03011G18KT 10SM CLR 18/12 A3029 RMK AO2 SLP261 T01780122=
202310052356 METAR KPWT 052356Z AUTO 02009G17KT 10SM CLR 19/13 A3030 RMK AO2 SLP264 T01890128 10206 20167 56010=
202310052256 METAR KPWT 052256Z AUTO 03012G19KT 10SM CLR 19/12 A3031 RMK AO2 SLP267 T01940122=
202310052156 METAR KPWT 052156Z AUTO 03016G23KT 10SM CLR 20/12 A3032 RMK AO2 SLP270 T02000122=
202310052056 METAR KPWT 052056Z AUTO 02014G19KT 10SM CLR 21/13 A3033 RMK AO2 SLP273 T02060128 58015=
202310051956 METAR KPWT 051956Z AUTO 04014G22KT 10SM CLR 19/12 A3034 RMK AO2 SLP279 T01940122=
202310051856 METAR KPWT 051856Z AUTO 03015G19KT 10SM FEW020 18/12 A3036 RMK AO2 SLP284 T01780122=
202310051839 SPECI KPWT 051839Z AUTO 03009KT 10SM SCT020 18/13 A3036 RMK AO2=
202310051806 SPECI KPWT 051806Z AUTO 05009KT 10SM BKN016 17/13 A3037 RMK AO2=
202310051756 METAR KPWT 051756Z AUTO 04010G16KT 10SM SCT016 17/13 A3037 RMK AO2 SLP288 T01670133 10167 20117 51001=
202310051656 METAR KPWT 051656Z AUTO 05010G18KT 10SM CLR 16/13 A3037 RMK AO2 SLP287 T01610133=
202310051621 SPECI KPWT 051621Z AUTO 05009KT 10SM SCT023 15/13 A3037 RMK AO2=
202310051556 METAR KPWT 051556Z AUTO 06007KT 10SM BKN023 14/13 A3037 RMK AO2 SLP288 T01390128=
202310051456 METAR KPWT 051456Z AUTO 05008KT 10SM CLR 13/13 A3037 RMK AO2 SLP287 T01280128=
202310051442 SPECI KPWT 051442Z AUTO 05006KT 10SM SCT025 13/12 A3037 RMK AO2=
202310051356 METAR KPWT 051356Z AUTO 05005KT 10SM OVC025 13/13 A3037 RMK AO2 SLP287 T01280128=
202310051256 METAR KPWT 051256Z AUTO 10SM OVC029 13/13 RMK AO2 SLPNO T01280128 $=
202310051246 SPECI KPWT 051246Z AUTO 05008KT 10SM BKN029 13/13 A3037 RMK AO2=
202310051156 METAR KPWT 051156Z AUTO 10003KT 10SM BKN032 12/12 A3038 RMK AO2 SLP290 7//// T01220122 10133 20117 53000=
202310051106 SPECI KPWT 051106Z AUTO 06005KT 10SM FEW004 12/12 A3038 RMK AO2=
202310051056 METAR KPWT 051056Z AUTO 06006KT 10SM CLR 12/12 A3038 RMK AO2 SLP291 T01220122=
202310050956 METAR KPWT 050956Z AUTO 06004KT 10SM CLR 12/12 A3038 RMK AO2 SLP290 T01220122=
202310050916 SPECI KPWT 050916Z AUTO 08003KT 10SM FEW003 12/12 A3038 RMK AO2=
202310050856 METAR KPWT 050856Z AUTO 09004KT 10SM BKN003 12/12 A3038 RMK AO2 SLP290 T01220122 51003=
202310050844 SPECI KPWT 050844Z AUTO 05006KT 3SM BR OVC003 12/12 A3038 RMK AO2=
202310050833 SPECI KPWT 050833Z AUTO 04007KT 1 3/4SM BR OVC003 12/12 A3038 RMK AO2=
202310050756 METAR KPWT 050756Z AUTO 05010KT 7SM OVC003 13/13 A3038 RMK AO2 SLP290 T01280128 402000100=
202310050738 SPECI KPWT 050738Z AUTO 05009KT 10SM BKN003 13/13 A3037 RMK AO2=
202310050729 SPECI KPWT 050729Z AUTO 06008KT 10SM SCT003 13/13 A3037 RMK AO2=
202310050656 METAR KPWT 050656Z AUTO 07008KT 10SM CLR 13/13 A3037 RMK AO2 SLP287 T01280128=
202310050556 METAR KPWT 050556Z AUTO 00000KT 10SM CLR 13/13 A3037 RMK AO2 SLP287 T01330128 10189 20128 51010=
202310050456 METAR KPWT 050456Z AUTO 06006KT 10SM CLR 14/13 A3036 RMK AO2 SLP284 T01390128=
202310050356 METAR KPWT 050356Z AUTO 06005KT 10SM CLR 14/13 A3035 RMK AO2 SLP281 T01390128=
202310050256 METAR KPWT 050256Z AUTO 06004KT 10SM CLR 14/13 A3034 RMK AO2 SLP277 T01440128=
202310050156 METAR KPWT 050156Z AUTO 00000KT 10SM CLR 15/12 A3033 RMK AO2 SLP275 T01500122=
202310050056 METAR KPWT 050056Z AUTO 05005KT 10SM CLR 18/13 RMK AO2 SLPNO T01780128 $=
202310042356 METAR KPWT 042356Z AUTO 05006KT 10SM CLR 19/13 A3033 RMK AO2 SLP275 6//// T01890128 10200 20133 56008=
202310042256 METAR KPWT 042256Z AUTO 05004KT 10SM FEW029 19/13 A3034 RMK AO2 SLP277 T01890128=
202310042245 SPECI KPWT 042245Z AUTO 04004KT 10SM FEW029 19/13 A3034 RMK AO2=
202310042219 SPECI KPWT 042219Z AUTO 04005KT 9SM BKN029 19/13 A3035 RMK AO2=
202310042156 METAR KPWT 042156Z AUTO 00000KT 10SM FEW027 19/13 A3035 RMK AO2 SLP282 T01890128=
202310042146 SPECI KPWT 042146Z AUTO 11007KT 10SM SCT027 19/13 A3035 RMK AO2=
202310042103 SPECI KPWT 042103Z AUTO 05006KT 10SM BKN025 18/13 A3036 RMK AO2=
202310042056 METAR KPWT 042056Z AUTO 08006KT 10SM SCT025 19/13 A3036 RMK AO2 SLP285 T01890128 58001=
202310041956 METAR KPWT 041956Z AUTO 00000KT 10SM CLR 18/13 A3037 RMK AO2 SLP287 T01780128=
202310041911 SPECI KPWT 041911Z AUTO 00000KT 10SM SCT009 SCT028 16/12 A3036 RMK AO2=
202310041856 METAR KPWT 041856Z AUTO VRB05KT 10SM BKN009 BKN028 14/12 A3036 RMK AO2 SLP284 T01440122=
202310041756 METAR KPWT 041756Z AUTO 24004KT 10SM OVC009 13/12 A3036 RMK AO2 SLP285 T01330117 10133 20111=
202310041726 SPECI KPWT 041726Z AUTO 25004KT 10SM BKN007 OVC027 13/12 A3036 RMK AO2=
202310041656 METAR KPWT 041656Z AUTO 16003KT 10SM OVC005 12/12 RMK AO2 SLPNO T01220117 $=
202310041556 METAR KPWT 041556Z AUTO 19003KT 10SM OVC005 12/12 A3035 RMK AO2 SLP282 T01170117=
202310041525 SPECI KPWT 041525Z AUTO 00000KT 10SM OVC005 12/12 A3035 RMK AO2=
202310041456 METAR KPWT 041456Z AUTO 00000KT 10SM OVC007 12/12 A3034 RMK AO2 SLP280 T01170117 53005=
202310041356 METAR KPWT 041356Z AUTO VRB04KT 10SM OVC007 12/12 A3034 RMK AO2 SLP277 T01170117=
202310041256 METAR KPWT 041256Z AUTO 00000KT 10SM OVC009 12/12 A3033 RMK AO2 SLP274 T01170117=
202310041156 METAR KPWT 041156Z AUTO 22003KT 10SM OVC009 11/11 A3033 RMK AO2 SLP272 T01110111 10133 20100 51002=
202310041143 SPECI KPWT 041143Z AUTO 00000KT 10SM OVC009 11/11 A3033 RMK AO2=
202310041116 SPECI KPWT 041116Z AUTO 00000KT 4SM BR BKN011 BKN030 11/11 A3033 RMK AO2=
202310041105 SPECI KPWT 041105Z AUTO 00000KT 2SM BR BKN011 BKN030 11/11 A3032 RMK AO2=
202310041056 METAR KPWT 041056Z AUTO 00000KT 9SM SCT030 11/11 A3032 RMK AO2 SLP272 T01110111=
202310041054 SPECI KPWT 041054Z AUTO 00000KT 9SM SCT030 11/11 A3032 RMK AO2=
202310040956 METAR KPWT 040956Z AUTO 22004KT 10SM FEW002 BKN018 OVC028 12/12 A3032 RMK AO2 SLP271 T01170117=
202310040947 SPECI KPWT 040947Z AUTO 21004KT 10SM SCT002 OVC018 12/12 A3032 RMK AO2=
202310040933 SPECI KPWT 040933Z AUTO 22003KT 10SM BKN002 OVC018 12/12 A3032 RMK AO2=
202310040926 SPECI KPWT 040926Z AUTO 00000KT 10SM BKN004 OVC018 12/12 A3033 RMK AO2=
202310040908 SPECI KPWT 040908Z AUTO 00000KT 10SM FEW004 OVC018 12/12 A3032 RMK AO2=
202310040856 METAR KPWT 040856Z AUTO 25003KT 10SM OVC018 12/12 A3031 RMK AO2 SLP268 T01220122 53004=
202310040804 SPECI KPWT 040804Z AUTO 21003KT 10SM FEW008 BKN022 OVC028 13/13 A3031 RMK AO2=
202310040756 METAR KPWT 040756Z AUTO 19005KT 10SM SCT022 BKN028 13/13 A3031 RMK AO2 SLP266 T01280128 401610100=
202310040735 SPECI KPWT 040735Z AUTO 18003KT 10SM FEW012 BKN028 13/13 A3031 RMK AO2=
202310040656 METAR KPWT 040656Z AUTO 19003KT 10SM OVC012 13/13 A3030 RMK AO2 SLP264 T01280128=
202310040556 METAR KPWT 040556Z AUTO 19003KT 10SM OVC012 13/13 A3030 RMK AO2 SLP263 T01280128 10161 20100 53010=
202310040456 METAR KPWT 040456Z AUTO 00000KT 10SM OVC012 13/13 A3029 RMK AO2 SLP261 T01280128=
202310040435 SPECI KPWT 040435Z AUTO 00000KT 10SM OVC014 13/13 A3028 RMK AO2=
202310040356 METAR KPWT 040356Z AUTO 00000KT 10SM OVC018 12/12 A3027 RMK AO2 SLP255 T01170117=
202310040311 SPECI KPWT 040311Z AUTO 00000KT 10SM BKN020 11/11 A3027 RMK AO2=
202310040256 METAR KPWT 040256Z AUTO 00000KT 10SM FEW022 11/11 A3027 RMK AO2 SLP255 T01060106 53007=
202310040156 METAR KPWT 040156Z AUTO 00000KT 10SM CLR 12/12 A3026 RMK AO2 SLP251 T01220122=
202310040056 METAR KPWT 040056Z AUTO 22005KT 10SM CLR 14/12 A3025 RMK AO2 SLP247 T01440122=
202310040005 SPECI KPWT 040005Z AUTO 23006KT 10SM SCT017 16/12 A3025 RMK AO2=
202310032356 METAR KPWT 032356Z AUTO 24005KT 10SM BKN017 16/12 A3025 RMK AO2 SLP246 T01610122 10161 20144 50000=
202310032256 METAR KPWT 032256Z AUTO 20005KT 10SM OVC017 15/12 A3026 RMK AO2 SLP249 T01500122=
202310032224 SPECI KPWT 032224Z AUTO 24004KT 10SM OVC015 15/12 A3026 RMK AO2=
202310032156 METAR KPWT 032156Z AUTO 19004KT 10SM OVC013 15/12 A3025 RMK AO2 SLP245 T01500122=
202310032154 SPECI KPWT 032154Z AUTO 20005KT 10SM OVC013 15/12 A3025 RMK AO2=
202310032056 METAR KPWT 032056Z AUTO 26005KT 10SM OVC017 15/12 A3025 RMK AO2 SLP247 T01500122 53013=
202310031956 METAR KPWT 031956Z AUTO 22004KT 10SM OVC024 16/11 A3023 RMK AO2 SLP241 T01560111=
202310031923 SPECI KPWT 031923Z AUTO VRB03KT 10SM BKN024 OVC043 16/11 A3022 RMK AO2=
202310031856 METAR KPWT 031856Z AUTO 10005KT 10SM SCT022 OVC043 16/11 A3022 RMK AO2 SLP235 T01560106=
202310031851 SPECI KPWT 031851Z AUTO VRB03KT 10SM SCT022 OVC043 16/11 A3022 RMK AO2=
202310031822 SPECI KPWT 031822Z AUTO 08004KT 10SM BKN022 OVC044 15/11 A3021 RMK AO2=
202310031756 METAR KPWT 031756Z AUTO 05006KT 10SM FEW022 OVC044 14/10 A3021 RMK AO2 SLP234 T01440100 10144 20100 51022=
202310031741 SPECI KPWT 031741Z AUTO 03003KT 10SM SCT021 OVC044 14/11 A3020 RMK AO2=
202310031719 SPECI KPWT 031719Z AUTO 01006KT 10SM BKN019 BKN045 14/11 A3020 RMK AO2=
202310031704 SPECI KPWT 031704Z AUTO 36004KT 10SM SCT019 BKN045 14/11 A3019 RMK AO2=
202310031656 METAR KPWT 031656Z AUTO 01003KT 10SM BKN019 BKN045 14/11 A3019 RMK AO2 SLP229 T01390106=
202310031646 SPECI KPWT 031646Z AUTO VRB03KT 10SM BKN019 OVC050 14/11 A3019 RMK AO2=
202310031556 METAR KPWT 031556Z AUTO 06004KT 10SM CLR 13/11 A3017 RMK AO2 SLP221 T01330106=
202310031456 METAR KPWT 031456Z AUTO 00000KT 10SM CLR 11/10 A3014 RMK AO2 SLP212 T01110100 51032=
202310031356 METAR KPWT 031356Z AUTO 07004KT 10SM OVC050 11/11 A3011 RMK AO2 SLP201 T01060106=
202310031256 METAR KPWT 031256Z AUTO 05007KT 10SM CLR 11/10 A3008 RMK AO2 SLP191 T01060100=
202310031156 METAR KPWT 031156Z AUTO 06005KT 10SM FEW013 11/11 A3005 RMK AO2 SLP180 60000 7//// T01110106 10122 20111 51021=
202310031139 SPECI KPWT 031139Z AUTO 05006KT 10SM SCT013 11/11 A3004 RMK AO2=
202310031056 METAR KPWT 031056Z AUTO 04009KT 10SM BKN011 12/11 A3003 RMK AO2 SLP173 T01170111=
202310031018 SPECI KPWT 031018Z AUTO 05007KT 10SM BKN011 OVC016 12/12 A3002 RMK AO2 CIG 008V012=
202310030956 METAR KPWT 030956Z AUTO 04006KT 10SM BKN007 OVC012 12/12 A3001 RMK AO2 SLP167 T01220117=
202310030856 METAR KPWT 030856Z AUTO 03008KT 10SM OVC007 12/12 A2999 RMK AO2 SLP158 60000 T01220122 51017=
202310030756 METAR KPWT 030756Z AUTO 03010KT 10SM OVC009 12/12 A2997 RMK AO2 RAE09 CIG 006V011 SLP153 P0000 T01220122 401280094=
202310030714 SPECI KPWT 030714Z AUTO 04010KT 10SM SCT002 BKN009 OVC034 12/12 A2996 RMK AO2 RAE09 CIG 007V011 P0000=
202310030656 METAR KPWT 030656Z AUTO 07007KT 8SM -RA OVC002 12/12 A2996 RMK AO2 RAE02B20 SLP148 P0000 T01220122=
202310030643 SPECI KPWT 030643Z AUTO 06006KT 5SM -RA BR BKN002 OVC007 12/12 A2995 RMK AO2 RAE02B20 P0000=
202310030631 SPECI KPWT 030631Z AUTO 04006KT 2 1/2SM -RA BR BKN002 OVC005 12/12 A2995 RMK AO2 RAE02B20 P0000=
202310030556 METAR KPWT 030556Z AUTO 03004KT 8SM -RA OVC005 12/12 A2994 RMK AO2 RAB0457 CIG 002V007 SLP142 P0001 60004 T01220122 10128 20122 53013=
202310030536 SPECI KPWT 030536Z AUTO 04003KT 3SM -RA BR OVC003 12/12 A2993 RMK AO2 RAB0457 P0000=
202310030456 METAR KPWT 030456Z AUTO 24003KT 2 1/2SM BR OVC003 13/13 A2993 RMK AO2 SLP138 T01280128=
202310030356 METAR KPWT 030356Z AUTO 20008KT 10SM OVC003 12/12 A2991 RMK AO2 RAE02 SLP132 P0000 T01220122=
202310030256 METAR KPWT 030256Z AUTO 21009KT 7SM -RA OVC003 12/12 A2990 RMK AO2 SLP129 P0000 60003 T01220122 55010=
202310030156 METAR KPWT 030156Z AUTO 20010KT 7SM -RA OVC003 12/12 A2990 RMK AO2 CIG 003V008 SLP128 P0002 T01220122=
202310030056 METAR KPWT 030056Z AUTO 19010G16KT 6SM -RA BR OVC003 12/12 A2990 RMK AO2 SLP131 P0001 T01220122=
202310022356 METAR KPWT 022356Z AUTO 19008G18KT 5SM -RA BR OVC003 12/12 A2993 RMK AO2 SLP139 P0001 60005 T01220122 10122 20106 58023=
202310022256 METAR KPWT 022256Z AUTO 19009KT 8SM -RA OVC003 12/12 A2995 RMK AO2 SLP148 P0002 T01220122=
202310022156 METAR KPWT 022156Z AUTO 19010KT 5SM -RA BR OVC003 12/12 A2997 RMK AO2 RAB05 SLP154 P0000 T01220122=
202310022056 METAR KPWT 022056Z AUTO 19008KT 10SM OVC003 12/12 A3000 RMK AO2 RAE34 SLP162 P0000 60002 T01170117 58017=
202310021956 METAR KPWT 021956Z AUTO 20007KT 10SM -RA OVC003 12/12 A3001 RMK AO2 SLP167 P0001 T01170117=
202310021856 METAR KPWT 021856Z AUTO 20007KT 6SM -RA BR OVC003 11/11 A3004 RMK AO2 SLP177 P0001 T01110111=
202310021756 METAR KPWT 021756Z AUTO 18006KT 5SM -RA BR OVC003 11/11 A3005 RMK AO2 RAE13B32 SLP180 P0000 6//// T01060106 10111 20100 50002=
202310021656 METAR KPWT 021656Z AUTO 19007KT 4SM -RA BR OVC003 11/11 A3005 RMK AO2 RAB45 SLP182 P0000 T01060106=
202310021628 SPECI KPWT 021628Z AUTO 18008KT 4SM BR OVC003 11/11 A3005 RMK AO2=
202310021616 SPECI KPWT 021616Z AUTO 18004KT 2 1/2SM BR OVC003 11/11 A3005 RMK AO2 VIS 1 3/4V3=
202310021606 SPECI KPWT 021606Z AUTO 20004KT 1 3/4SM BR OVC003 11/11 A3005 RMK AO2 VIS 3/4V5=
202310021556 METAR KPWT 021556Z AUTO 21004KT 9SM OVC003 11/11 A3005 RMK AO2 SLP181 T01110111=
202310021456 METAR KPWT 021456Z AUTO 18003KT 9SM OVC005 11/11 A3004 RMK AO2 SLP178 6//// T01060106 58006=
202310021356 METAR KPWT 021356Z AUTO 15003KT 10SM OVC005 10/10 A3005 RMK AO2 SLP180 T01000100=
202310021330 SPECI KPWT 021330Z AUTO VRB03KT 4SM BR OVC003 10/10 A3005 RMK AO2=
202310021314 SPECI KPWT 021314Z AUTO 00000KT 2SM BR OVC003 10/10 A3005 RMK AO2=
202310021307 SPECI KPWT 021307Z AUTO 00000KT 1SM BR OVC003 10/10 A3005 RMK AO2=
202310021256 METAR KPWT 021256Z AUTO 00000KT 1/2SM FG OVC003 10/10 A3005 RMK AO2 SLP179 T01000100=
202310021156 METAR KPWT 021156Z AUTO 00000KT 1/2SM FG OVC003 10/10 A3006 RMK AO2 SLP181 7//// T01000100 10100 20078 58009=
202310021105 SPECI KPWT 021105Z AUTO 00000KT 1/2SM FG OVC003 10/10 A3007 RMK AO2=
202310021056 METAR KPWT 021056Z AUTO 00000KT 3/4SM BR OVC003 10/10 A3007 RMK AO2 SLP185 T01000100=
202310021049 SPECI KPWT 021049Z AUTO 00000KT 3/4SM BR OVC003 10/10 A3007 RMK AO2=
202310021043 SPECI KPWT 021043Z AUTO 00000KT 1 1/2SM BR OVC003 10/10 A3007 RMK AO2 VIS 1V2 1/2=
202310021021 SPECI KPWT 021021Z AUTO 00000KT 2 1/2SM BR OVC003 10/10 A3008 RMK AO2 VIS 2V3=
202310020956 METAR KPWT 020956Z AUTO 00000KT 9SM OVC003 10/10 A3008 RMK AO2 SLP188 T01000100=
202310020932 SPECI KPWT 020932Z AUTO 25004KT 10SM BKN003 10/10 A3008 RMK AO2=
202310020924 SPECI KPWT 020924Z AUTO 22003KT 10SM BKN005 09/09 A3008 RMK AO2=
202310020916 SPECI KPWT 020916Z AUTO 19004KT 10SM SCT005 09/09 A3008 RMK AO2=
202310020856 METAR KPWT 020856Z AUTO 23003KT 10SM CLR 10/10 A3009 RMK AO2 SLP191 T01000100 55003=
202310020756 METAR KPWT 020756Z AUTO 00000KT 10SM CLR 09/09 A3008 RMK AO2 SLP190 T00940094 402000028=
202310020656 METAR KPWT 020656Z AUTO 00000KT 10SM CLR 09/09 A3010 RMK AO2 SLP196 T00890089=
202310020556 METAR KPWT 020556Z AUTO 00000KT 10SM CLR 08/08 A3010 RMK AO2 SLP196 6//// T00830083 10200 20083 50002=
202310020456 METAR KPWT 020456Z AUTO 14003KT 10SM CLR 09/09 A3010 RMK AO2 SLP198 T00890089=
202310020356 METAR KPWT 020356Z AUTO 00000KT 10SM CLR 10/09 A3009 RMK AO2 SLP195 T01000094=
202310020256 METAR KPWT 020256Z AUTO 00000KT 10SM CLR 11/09 A3009 RMK AO2 SLP196 6//// T01110094 50002=
202310020156 METAR KPWT 020156Z AUTO 00000KT 10SM CLR 14/10 A3010 RMK AO2 SLP197 T01440100=
202310020056 METAR KPWT 020056Z AUTO 16004KT 10SM CLR 17/10 A3008 RMK AO2 SLP192 T01720100=
202310012356 METAR KPWT 012356Z AUTO 24004KT 10SM CLR 20/09 A3008 RMK AO2 SLP191 6//// T02000089 10200 20128 56007=
202310012256 METAR KPWT 012256Z AUTO VRB03KT 10SM CLR 19/09 A3009 RMK AO2 SLP194 T01940094=
202310012156 METAR KPWT 012156Z AUTO 00000KT 10SM CLR 18/09 A3010 RMK AO2 SLP196 T01780094=
202310012056 METAR KPWT 012056Z AUTO 02003KT 10SM CLR 17/10 A3011 RMK AO2 SLP199 6//// T01720100 58014=
202310011956 METAR KPWT 011956Z AUTO 00000KT 10SM CLR 17/10 A3012 RMK AO2 SLP205 T01720100=
202310011856 METAR KPWT 011856Z AUTO 00000KT 10SM FEW019 15/10 A3013 RMK AO2 SLP209 T01500100=
202310011756 METAR KPWT 011756Z AUTO 04007KT 10SM CLR 13/09 A3015 RMK AO2 SLP214 T01280094 10128 20028 58002=
202310011656 METAR KPWT 011656Z AUTO VRB06KT 10SM FEW019 12/09 A3016 RMK AO2 SLP216 T01170094=
202310011556 METAR KPWT 011556Z AUTO 00000KT 10SM CLR 09/09 A3016 RMK AO2 SLP217 T00890089=
202310011456 METAR KPWT 011456Z AUTO 00000KT 10SM FEW011 04/04 A3015 RMK AO2 SLP218 T00390039 53007=
202310011437 SPECI KPWT 011437Z AUTO 00000KT 3SM BR CLR 04/04 A3015 RMK AO2=
202310011432 SPECI KPWT 011432Z AUTO 00000KT 1 1/4SM BR CLR 04/04 A3015 RMK AO2 VIS 1/4V5=
202310011423 SPECI KPWT 011423Z AUTO 00000KT 3/4SM BR CLR 03/03 A3015 RMK AO2 VIS 1/4V5=
202310011421 SPECI KPWT 011421Z AUTO 00000KT 1 1/4SM BR CLR 03/03 A3015 RMK AO2 VIS 1/4V5=
202310011356 METAR KPWT 011356Z AUTO 00000KT 7SM CLR 04/04 A3015 RMK AO2 SLP213 T00390039=
202310011343 SPECI KPWT 011343Z AUTO 00000KT 2SM BR CLR 04/04 A3014 RMK AO2 VIS 1/2V5=
202310011256 METAR KPWT 011256Z AUTO 00000KT 8SM CLR 04/04 A3014 RMK AO2 SLP211 T00440044=
202310011156 METAR KPWT 011156Z AUTO 07003KT 10SM CLR 04/04 A3013 RMK AO2 SLP209 7//// T00440044 10067 20039 53002=
202310011056 METAR KPWT 011056Z AUTO 00000KT 10SM CLR 04/04 A3013 RMK AO2 SLP207 T00440044=
202310010956 METAR KPWT 010956Z AUTO 00000KT 10SM CLR 04/04 A3013 RMK AO2 SLP207 T00440044=
202310010856 METAR KPWT 010856Z AUTO 00000KT 10SM CLR 06/06 A3013 RMK AO2 SLP206 T00560056 53005=
202310010756 METAR KPWT 010756Z AUTO 00000KT 10SM CLR 06/06 A3012 RMK AO2 SLP205 T00560056 401720022=
202310010656 METAR KPWT 010656Z AUTO 00000KT 10SM CLR 06/06 A3011 RMK AO2 SLP203 T00610061=
202310010556 METAR KPWT 010556Z AUTO 00000KT 10SM CLR 07/06 A3011 RMK AO2 SLP201 6//// T00670061 10167 20061 53010=
202310010456 METAR KPWT 010456Z AUTO 00000KT 10SM CLR 07/07 A3010 RMK AO2 SLP198 T00670067=
202310010356 METAR KPWT 010356Z AUTO 00000KT 10SM CLR 08/08 A3009 RMK AO2 SLP195 T00780078=
202310010256 METAR KPWT 010256Z AUTO 00000KT 10SM CLR 08/08 A3008 RMK AO2 SLP193 6//// T00830078 52007=
202310010156 METAR KPWT 010156Z AUTO 00000KT 10SM CLR 12/09 A3007 RMK AO2 SLP189 T01220094=
202310010056 METAR KPWT 010056Z AUTO 05004KT 10SM CLR 16/09 A3007 RMK AO2 SLP186 T01560094=

# No short TAF reports from KPWT in databse.

###################################
#  large TAF from KPWT
###################################
202310312326 TAF KPWT 312326Z 0100/0124 24002KT P6SM BKN150 FM011100 VRB02KT
                       P6SM BKN100
                      TEMPO 0111/0115 3SM BR SCT005 FM011500 VRB04KT
                       P6SM BKN080 FM012200 22005KT P6SM -RA OVC050=
202310311745 TAF KPWT 311745Z 3118/0118 VRB03KT P6SM SKC FM312000 21002KT P6SM
                       SCT180 FM011100 VRB02KT P6SM BKN100
                      TEMPO 0111/0115 3SM BR SCT005 FM011500 VRB04KT
                       P6SM BKN080=
202310311456 KPWT 311456Z 3115/0112 00000KT 1/4SM FZFG SKC FM311600 00000KT
                       6SM BR SCT002 SCT250 FM311800 19002KT P6SM
                       SCT250 FM011100 VRB02KT P6SM BKN100=
202310311342 KPWT 311342Z 3114/0112 00000KT 1SM BR SKC FM311500 00000KT 6SM
                       BR SCT002 SCT250 FM311800 19002KT P6SM SCT250
                       FM011100 VRB02KT P6SM BKN100=
202310311136 TAF KPWT 311136Z 3112/0112 00000KT P6SM SKC FM311500 00000KT 6SM
                       BR SCT002 SCT250 FM311800 19002KT P6SM SCT250
                       FM011100 VRB02KT P6SM BKN100=
202310310524 TAF KPWT 310524Z 3106/0106 00000KT 6SM BR SCT002 FM311500 00000KT
                       4SM BR BKN002 FM311800 19002KT P6SM SKC=
202310302337 TAF KPWT 302337Z 3100/3124 03007KT P6SM SKC FM310400 05004KT P6SM
                       SCT200 FM311100 VRB03KT 6SM BR SCT002 FM311500
                       00000KT 4SM BR BKN002 FM311800 19002KT P6SM
                       SKC=
202310301720 TAF KPWT 301720Z 3018/3118 05011KT P6SM SKC FM302100 03007KT P6SM
                       SKC FM310400 05004KT P6SM SCT200 FM311100
                       VRB03KT 6SM BR SCT002 FM311500 00000KT 4SM
                       BR SCT001=
202310301127 TAF KPWT 301127Z 3012/3112 05008KT P6SM SKC FM302100 03007KT P6SM
                       SKC FM310400 05004KT P6SM SCT200 FM311100
                       VRB03KT 6SM BR SCT002=
202310300521 TAF KPWT 300521Z 3006/3106 06007KT P6SM SKC FM301200 05004KT 6SM
                       BR SCT010 FM301700 03007KT P6SM SKC=
202310292320 TAF KPWT 292320Z 3000/3024 06007KT P6SM SKC FM301200 05004KT 6SM
                       BR SKC=
202310291720 TAF KPWT 291720Z 2918/3018 04009KT P6SM SKC FM300000 05005KT P6SM
                       SKC FM301200 05004KT 6SM BR SKC=
202310291123 TAF KPWT 291123Z 2912/3012 04006KT P6SM SKC
                      TEMPO 2914/2916 6SM BR SCT001=
202310290525 TAF KPWT 290525Z 2906/3006 VRB03KT P6SM SKC FM290800 05006KT P6SM
                       SKC FM291200 04004KT P6SM SKC FM291800 34007KT
                       P6SM SKC=
202310282320 TAF KPWT 282320Z 2900/2924 05008KT P6SM SKC FM290300 VRB03KT P6SM
                       SKC FM290800 05006KT P6SM SKC FM291200 04004KT
                       P6SM SKC=
202310281721 TAF KPWT 281721Z 2818/2918 03005KT P6SM SKC FM290300 VRB03KT P6SM
                       SKC FM290800 05006KT P6SM SKC=
202310281122 TAF KPWT 281122Z 2812/2912 VRB03KT P6SM SKC FM281800 04006KT P6SM
                       SKC FM290300 VRB03KT P6SM SKC=
202310280520 TAF KPWT 280520Z 2806/2906 05006KT P6SM SKC FM281200 05004KT P6SM
                       SKC FM281800 04006KT P6SM SKC FM290300 VRB03KT
                       P6SM SKC=
202310280259 KPWT 280259Z 2803/2824 02007KT P6SM SKC FM280400 05005KT P6SM SKC
                       FM281200 05004KT P6SM SKC=
202310272320 TAF KPWT 272320Z 2800/2824 02012G18KT P6SM SKC FM280400 05009KT
                       P6SM SKC FM281200 05004KT P6SM SKC=
202310271720 TAF KPWT 271720Z 2718/2818 01010G20KT P6SM SKC FM271900 02012KT
                       P6SM SKC FM280400 05009KT P6SM SKC=
202310271133 TAF KPWT 271133Z 2712/2812 04006KT P6SM SKC FM271900 02012KT P6SM
                       SKC FM280400 02006KT P6SM SKC=
202310270540 TAF KPWT 270540Z 2706/2806 04004KT P6SM SKC
                      TEMPO 2712/2715 4SM BR SCT001 FM271900 02012KT
                       P6SM SKC FM280400 02006KT P6SM SKC=
202310262323 TAF KPWT 262323Z 2700/2724 06004KT P6SM BKN060 FM270500 04006KT
                       P6SM FEW070 FM271200 04009KT 6SM BR SCT007
                       FM271700 04011KT P6SM SKC=
202310261720 TAF KPWT 261720Z 2618/2718 21003KT P6SM BKN050 FM262200 06004KT
                       P6SM BKN060 FM270900 04006KT P6SM FEW070
                       FM271200 04009KT P6SM SKC=
202310261132 TAF KPWT 261132Z 2612/2712 00000KT P6SM BKN050 FM261400 00000KT
                       P6SM SCT025 BKN050 FM261700 21003KT P6SM
                       BKN050 FM262200 06004KT P6SM BKN060 FM270900
                       04006KT P6SM FEW070=
202310260524 TAF KPWT 260524Z 2606/2706 VRB03KT P6SM SCT040 BKN070 FM261000
                       VRB03KT 4SM BR SCT008 FM261300 00000KT 3SM
                       BR OVC010 FM261700 23003KT 6SM BR OVC015
                       FM262000 06004KT P6SM SCT015 BKN070 FM270200
                       VRB03KT P6SM SCT070 SCT250=
202310252320 TAF KPWT 252320Z 2600/2624 03010KT P6SM SCT025 BKN040 FM260200
                       VRB03KT P6SM SCT040 BKN070 FM261000 VRB02KT
                       4SM BR SCT008 FM261300 00000KT 3SM BR OVC010
                       FM261700 23003KT 6SM BR OVC015=
202310251724 TAF KPWT 251724Z 2518/2618 04008KT P6SM -RA SCT015 OVC035 FM252200
                       03006KT P6SM SCT025 BKN040 FM260200 VRB03KT
                       P6SM SCT040 BKN070 FM261000 VRB02KT 4SM
                       BR SCT008 FM261300 00000KT 3SM BR OVC007=
202310251134 TAF KPWT 251134Z 2512/2612 VRB03KT 6SM BR VCSH SCT015 OVC025 FM251300
                       05005KT 6SM BR VCSH OVC015 FM251800 04008KT
                       P6SM SCT015 OVC020 FM252200 03006KT P6SM
                       SCT020 BKN040 FM260300 VRB03KT P6SM SCT040
                       BKN070 FM261000 VRB02KT 4SM BR SCT010=
202310250537 TAF KPWT 250537Z 2506/2606 19007KT P6SM -RA SCT006 OVC030 FM250800
                       VRB03KT P6SM VCSH SCT006 OVC020 FM251300
                       05005KT 6SM BR OVC005 FM251800 04008KT P6SM
                       SCT005 OVC015 FM252200 03006KT P6SM SCT020
                       BKN040 FM260300 VRB03KT P6SM SCT040 BKN070=
202310250225 KPWT 250225Z 2502/2524 16010G19KT P6SM -RA OVC015
                      TEMPO 2502/2504 4SM RA BR OVC005 FM250800
                       19004KT P6SM VCSH OVC020 FM251300 06005KT
                       6SM BR OVC007=
202310242324 TAF KPWT 242324Z 2500/2524 20008KT P6SM -RA BKN015 OVC025 FM250200
                       16010G19KT 4SM -RA OVC015 FM250800 19004KT
                       P6SM VCSH OVC020 FM251300 06005KT 6SM BR
                       OVC007=
202310242005 KPWT 242005Z 2420/2518 20009KT P6SM -RA OVC009 FM242100 20008KT
                       5SM -RA OVC025 FM250100 16010G19KT 4SM -RA
                       OVC015 FM250800 19004KT P6SM VCSH OVC020=
202310241729 TAF KPWT 241729Z 2418/2518 20009KT P6SM -RA OVC035 FM242100 20008KT
                       5SM -RA OVC025 FM250100 16010G19KT 4SM -RA
                       OVC015 FM250800 19004KT P6SM VCSH OVC020=
202310241135 TAF KPWT 241135Z 2412/2512 00000KT P6SM FEW020 BKN150 FM241800
                       20009KT P6SM -RA OVC020 FM250100 16007KT
                       P6SM -RA OVC015=
202310240522 TAF KPWT 240522Z 2406/2506 VRB03KT P6SM OVC040 FM241200 21003KT
                       P6SM OVC025 FM241800 20009KT P6SM -RA OVC020
                       FM250100 16007KT P6SM -RA OVC015=
202310232330 TAF KPWT 232330Z 2400/2424 22010KT P6SM SCT030 BKN050 FM240300
                       VRB03KT P6SM OVC040 FM241500 21003KT P6SM
                       OVC025 FM241800 20009KT P6SM -RA OVC050=
202310231743 TAF KPWT 231743Z 2318/2418 18006KT P6SM BKN005 FM232000 20004KT
                       P6SM BKN025 FM232100 19006KT P6SM SCT030
                       BKN050 FM240300 VRB03KT P6SM OVC040 FM241600
                       21003KT P6SM OVC025=
202310231133 TAF KPWT 231133Z 2312/2412 20004KT P6SM OVC003 FM231800 18006KT
                       P6SM BKN020 FM232200 21010KT P6SM SCT030
                       BKN100 FM240300 21005KT P6SM OVC040=
202310230530 TAF KPWT 230530Z 2306/2406 VRB03KT P6SM FEW020 FM230900 20004KT
                       P6SM BKN020 FM231200 20006KT P6SM OVC009
                       FM231800 18012G18KT P6SM BKN025 OVC050 FM232200
                       21013G20KT P6SM SCT030 BKN100=
202310222336 TAF KPWT 222336Z 2300/2324 VRB03KT P6SM BKN018
                      TEMPO 2302/2305 SCT022 FM230500 20004KT P6SM
                       BKN015 FM230900 20005KT P6SM OVC009 FM231800
                       18012G18KT P6SM BKN025 OVC050 FM232200 21013G20KT
                       P6SM SCT030 BKN100=
202310221730 TAF KPWT 221730Z 2218/2318 04004KT P6SM SCT012 BKN080 FM222000
                       03005KT P6SM BKN025 BKN100 FM230000 VRB03KT
                       P6SM SCT030 BKN120 FM230600 20004KT P6SM
                       BKN035 FM231000 20005KT P6SM OVC012=
202310221507 KPWT 221507Z 2215/2312 VRB03KT P6SM SCT020 BKN090
                      TEMPO 2215/2217 BKN020 FM222000 03005KT P6SM
                       BKN035 BKN200 FM230200 VRB02KT P6SM SCT030
                       BKN250 FM230900 VRB02KT P6SM SCT015=
202310221134 TAF KPWT 221134Z 2212/2312 VRB03KT P6SM OVC020 FM222000 03005KT
                       P6SM BKN035 BKN200 FM230200 VRB02KT P6SM
                       SCT030 BKN250 FM230900 VRB02KT P6SM SCT015=
202310220907 KPWT 220907Z 2209/2306 00000KT P6SM OVC020 FM221300 00000KT 6SM
                       BR OVC010 FM222000 03005KT P6SM BKN018 BKN200
                       FM230000 05005KT P6SM SCT030 BKN120=
202310220526 TAF KPWT 220526Z 2206/2306 VRB03KT P6SM VCSH OVC015 FM220800 00000KT
                       6SM BR OVC005 FM222000 03005KT P6SM BKN018
                       BKN200 FM230000 05005KT P6SM SCT030 BKN120=
202310212332 TAF KPWT 212332Z 2200/2224 04007KT P6SM VCSH OVC015 FM220400 VRB03KT
                       P6SM VCSH OVC010 FM220800 00000KT 6SM BR
                       OVC005 FM222000 03005KT P6SM BKN018 BKN200=
202310212004 KPWT 212004Z 2120/2218 04005KT P6SM BKN015 BKN200 FM220400 VRB03KT
                       P6SM BKN014 OVC100 FM220800 00000KT 6SM
                       BR OVC005=
202310211729 TAF KPWT 211729Z 2118/2218 04005KT P6SM OVC015 FM212000 05005KT
                       P6SM SCT015 BKN200 FM220400 VRB03KT P6SM
                       BKN014 OVC100 FM220800 00000KT 6SM BR OVC005=
202310211424 KPWT 211424Z 2114/2212 04005KT 6SM BR BKN007 FM212000 05005KT P6SM
                       SCT015 BKN200 FM220900 VRB02KT 5SM BR OVC004=
202310211150 KPWT 211150Z 2112/2212 03006KT P6SM SCT015 FM211800 04005KT 6SM
                       BR BKN007 FM212000 05005KT P6SM SCT015 BKN200
                       FM220900 VRB02KT 5SM BR OVC004=
202310211124 TAF KPWT 211124Z 2112/2212 03006KT P6SM BKN015
                      TEMPO 2112/2115 3SM BR OVC003 FM211800 04005KT
                       6SM BR BKN007 FM212000 05005KT P6SM SCT015
                       BKN200 FM220900 VRB02KT 5SM BR OVC004=
202310210855 KPWT 210855Z 2109/2206 03006KT P6SM BKN015 FM211200 00000KT 3SM
                       BR OVC003 FM211800 04005KT 6SM BR BKN007
                       FM212000 05005KT P6SM SCT015 BKN200=
202310210800 KPWT 210800Z 2108/2206 03006KT P6SM SCT015 FM211200 00000KT 3SM
                       BR OVC003 FM211800 04005KT 6SM BR BKN007
                       FM212000 05005KT P6SM SCT015 BKN200=
202310210520 TAF KPWT 210520Z 2106/2206 03006KT P6SM BKN007 FM210900 00000KT
                       3SM BR OVC003 FM211800 04005KT 6SM BR BKN007
                       FM212000 05005KT P6SM SCT015 BKN200=
202310210311 KPWT 210311Z 2103/2124 04008KT P6SM SCT030 BKN200
                      TEMPO 2103/2107 BKN010 FM210900 03004KT 6SM
                       BR BKN005 FM211200 00000KT 3SM BR OVC003
                       FM211800 04005KT 6SM BR BKN007 FM212000
                       05005KT P6SM SCT015 BKN200=
202310202326 TAF KPWT 202326Z 2100/2124 04008KT P6SM SCT030 BKN200 FM210900
                       03004KT 6SM BR BKN005 FM211200 00000KT 3SM
                       BR OVC003 FM211800 04005KT 6SM BR BKN007
                       FM212000 05005KT P6SM SCT015 BKN200=
202310201958 KPWT 201958Z 2020/2118 04010KT P6SM SCT020 BKN200 FM210000 04007KT
                       P6SM SCT035 BKN200 FM210900 03004KT 5SM
                       BR BKN004=
202310201720 TAF KPWT 201720Z 2018/2118 04008KT P6SM BKN008 BKN040
                      TEMPO 2018/2022 SCT010 BKN040 FM202200 04010KT
                       P6SM SCT017 BKN045 FM210000 04007KT P6SM
                       SCT035 BKN200 FM210900 03004KT 5SM BR BKN004=
202310201350 KPWT 201350Z 2014/2112 06006KT P6SM BKN002 FM201500 04008KT P6SM
                       BKN004 OVC015 FM201900 04010KT P6SM BKN009
                       BKN022 FM210000 04005KT P6SM SCT025 OVC050=
202310201120 TAF KPWT 201120Z 2012/2112 06006KT P6SM OVC006 FM201500 04008KT
                       P6SM OVC015 FM201900 04010KT P6SM BKN009
                       BKN022 FM210000 04005KT P6SM SCT025 OVC050=
202310200520 TAF KPWT 200520Z 2006/2106 VRB03KT P6SM OVC015 FM200900 00000KT
                       6SM BR OVC007 FM201200 03003KT 5SM BR OVC004
                       FM201900 04010KT P6SM BKN009 BKN022 FM210000
                       04005KT P6SM SCT025 OVC050=
202310192324 TAF KPWT 192324Z 2000/2024 21006KT P6SM BKN022 OVC045 FM200500
                       VRB03KT P6SM OVC015 FM200900 00000KT 6SM
                       BR OVC007 FM201200 03003KT 5SM BR OVC004
                       FM201900 04006KT P6SM BKN009 BKN022=
202310191900 KPWT 191900Z 1919/2018 21010KT P6SM BKN012
                      TEMPO 1919/1921 SCT015 FM192100 21008KT P6SM
                       SCT015 BKN035 FM200500 VRB03KT 5SM BR OVC010
                       FM200900 03004KT 4SM BR VCSH OVC005=
202310191735 TAF KPWT 191735Z 1918/2018 21008KT P6SM OVC005 FM192100 21008KT
                       P6SM SCT007 BKN025 FM200500 VRB03KT 5SM
                       BR OVC010 FM200900 03004KT 4SM BR VCSH OVC005=
202310191433 KPWT 191433Z 1915/2012 20008KT 6SM BR OVC005 FM191800 21008KT P6SM
                       BKN009 FM192100 21008KT P6SM SCT007 OVC025
                       FM200300 VRB03KT 3SM BR OVC010=
202310191120 TAF KPWT 191120Z 1912/2012 00000KT 1/2SM FG OVC002 FM191800 21008KT
                       4SM BR OVC005 FM192100 21008KT P6SM SCT007
                       OVC025 FM200300 VRB03KT 3SM BR OVC010=
202310190904 KPWT 190904Z 1909/2006 VRB03KT P6SM SKC
                      TEMPO 1909/1910 3SM BR OVC005 FM191100 21003KT
                       1SM BR OVC003
                      TEMPO 1912/1916 1/2SM FG OVC001 FM191800
                       21008KT 4SM BR OVC005 FM192100 21008KT P6SM
                       SCT007 OVC025 FM200300 VRB03KT 3SM BR OVC010=
202310190538 KPWT 190538Z 1906/2006 VRB03KT 4SM BR SCT005 BKN030
                      TEMPO 1906/1910 1SM BR OVC005 FM191100 21003KT
                       1SM BR OVC003
                      TEMPO 1912/1916 1/2SM FG OVC001 FM191800
                       21008KT 4SM BR OVC005 FM192100 21008KT P6SM
                       SCT007 OVC025 FM200300 VRB03KT 3SM BR OVC010=
202310190523 TAF KPWT 190523Z 1906/2006 VRB03KT P6SM SCT250 FM190800 21003KT
                       4SM BR SCT005 BKN030 FM191100 21003KT 1SM
                       BR OVC003
                      TEMPO 1912/1916 1/2SM FG OVC001 FM191800
                       21008KT 4SM BR OVC005 FM192100 21008KT P6SM
                       SCT007 OVC025 FM200300 VRB03KT 3SM BR OVC010=
202310190346 KPWT 190346Z 1904/1924 VRB03KT P6SM SCT250
                      TEMPO 1904/1908 2SM BR FM191100 21003KT 1SM
                       BR OVC003
                      TEMPO 1912/1916 1/2SM FG OVC001 FM191800
                       21008KT 4SM BR OVC005 FM192100 21008KT P6SM
                       SCT007 OVC015=
202310182330 TAF KPWT 182330Z 1900/1924 20009KT P6SM FEW250 FM190300 VRB03KT
                       P6SM SCT250 FM191100 21003KT 1SM BR OVC003
                       TEMPO 1912/1916 1/2SM FG OVC001 FM191800
                       21008KT 4SM BR OVC005 FM192100 21008KT P6SM
                       SCT007 OVC015=
202310181723 TAF KPWT 181723Z 1818/1918 20005KT P6SM FEW250 FM190300 VRB03KT
                       P6SM SCT250 FM191100 21003KT 3SM BR OVC003=
202310181120 TAF KPWT 181120Z 1812/1912 23007KT P6SM SCT040 BKN050
                      TEMPO 1814/1816 4SM BR OVC100 FM181700 21005KT
                       P6SM SCT250 FM190200 VRB03KT P6SM BKN250=
202310180834 KPWT 180834Z 1809/1906 VRB03KT P6SM SKC FM181100 19003KT 5SM BR
                       BKN003 BKN250 FM181700 21005KT P6SM SCT250
                       FM190200 VRB03KT P6SM BKN250=
202310180521 TAF KPWT 180521Z 1806/1906 VRB03KT 1/2SM FG SCT005 BKN070 FM181100
                       19003KT 2SM BR BKN003 BKN250 FM181700 21005KT
                       P6SM SCT250 FM190200 VRB03KT P6SM BKN250=
202310180358 KPWT 180358Z 1804/1824 19003KT P6SM BKN070 BKN250
                      TEMPO 1804/1808 1 1/2SM BR BKN050 FM181100
                       19003KT 5SM BR BKN003 BKN250 FM181700 21005KT
                       P6SM SCT250=
202310172330 TAF KPWT 172330Z 1800/1824 19003KT P6SM BKN070 BKN250 FM181100
                       19003KT 5SM BR BKN003 BKN250 FM181700 21005KT
                       P6SM SCT250=
202310171720 TAF KPWT 171720Z 1718/1818 20005KT P6SM BKN015 FM172000 19005KT
                       P6SM BKN050 BKN150 FM180000 VRB03KT P6SM
                       BKN070 BKN250 FM181100 19003KT 5SM BR OVC003=
202310171348 KPWT 171348Z 1714/1812 21006KT P6SM OVC005 FM171800 20003KT P6SM
                       BKN025 FM172000 18005KT P6SM BKN050 FM180000
                       VRB03KT P6SM BKN070 FM181100 19003KT P6SM
                       OVC003=
202310171120 TAF KPWT 171120Z 1712/1812 21006KT P6SM OVC004 FM171800 20003KT
                       6SM BR BKN025 FM172000 18005KT P6SM BKN050
                       FM180000 VRB03KT P6SM BKN070 FM181100 19003KT
                       P6SM OVC003=
202310170854 KPWT 170854Z 1709/1806 20007KT P6SM BKN003 FM171000 21003KT 3SM
                       BR OVC004 FM171800 20003KT 6SM BR BKN025
                       FM172000 18005KT P6SM BKN050 FM180000 VRB03KT
                       P6SM BKN070=
202310170528 TAF KPWT 170528Z 1706/1806 20007KT P6SM FEW010 BKN050 FM171000
                       21003KT 3SM BR OVC004 FM171800 20003KT 6SM
                       BR BKN025 FM172000 18005KT P6SM BKN050 FM180000
                       VRB03KT P6SM BKN070=
202310162332 TAF KPWT 162332Z 1700/1724 21012G19KT P6SM -SHRA SCT035 BKN050
                       FM170300 21006KT P6SM FEW010 BKN050 FM171100
                       21003KT 3SM BR OVC004 FM171800 19003KT 6SM
                       BR BKN025 FM172000 20005KT P6SM BKN050=
202310162120 KPWT 162120Z 1621/1718 21012G19KT P6SM -SHRA OVC004 FM162300 21011G22KT
                       P6SM -SHRA SCT005 BKN050 FM170600 21006KT
                       P6SM FEW010 BKN050 FM171100 21003KT 5SM
                       BR OVC007=
202310161737 TAF KPWT 161737Z 1618/1718 21012G22KT P6SM -SHRA OVC010 FM162300
                       21011G22KT P6SM -SHRA BKN050 FM170600 21006KT
                       P6SM FEW010 BKN050 FM171100 21003KT 5SM
                       BR OVC007=
202310161459 KPWT 161459Z 1615/1712 20008KT 6SM -RA FEW002 BKN025 OVC050
                      TEMPO 1615/1617 21012G18KT 4SM RA BR SCT002
                       BKN015 OVC025 FM161700 21012G24KT 6SM -SHRA
                       BR OVC015 FM162100 21011G22KT P6SM -SHRA
                       OVC050 FM170800 21003KT 5SM BR OVC006=
202310161236 KPWT 161236Z 1613/1712 21002KT 6SM BR FEW100 FM161400 20004KT 4SM
                       -RA BR OVC007 FM161700 21012KT 6SM -RA BR
                       OVC015 FM162100 21006KT P6SM -SHRA OVC050
                       FM170800 21003KT 5SM BR OVC006=
202310161121 TAF KPWT 161121Z 1612/1712 21002KT 2SM BR FEW110 FM161400 20004KT
                       4SM -RA BR OVC007 FM161700 21012KT 6SM -RA
                       BR OVC015 FM162100 21006KT P6SM -SHRA OVC050
                       FM170800 21003KT 5SM BR OVC006=
202310160905 KPWT 160905Z 1609/1706 00000KT 5SM BR FEW110
                      TEMPO 1609/1612 2SM BR FM161200 21002KT 1/2SM
                       FG FEW110 FM161400 20004KT 4SM -RA BR OVC007
                       FM161700 21008KT 6SM -RA BR OVC015 FM162100
                       21012KT P6SM -SHRA OVC050=
202310160855 KPWT 160855Z 1609/1706 00000KT 1SM BR FEW110 FM161200 21002KT 1/2SM
                       FG FEW110 FM161400 20004KT 4SM -RA BR OVC007
                       FM161700 21008KT 6SM -RA BR OVC015 FM162100
                       21012KT P6SM -SHRA OVC050=
202310160801 KPWT 160801Z 1608/1706 00000KT 1/2SM FG FEW110 FM161400 20004KT
                       4SM -RA BR OVC007 FM161700 21008KT 6SM -RA
                       BR OVC015 FM162100 21012KT P6SM -SHRA OVC050=
202310160731 KPWT 160731Z 1608/1706 00000KT P6SM SCT120 BKN150
                      TEMPO 1607/1609 1SM BR FM160900 00000KT 1/2SM
                       FG OVC001 FM161400 20004KT 4SM -RA BR OVC007
                       FM161700 21008KT 6SM -RA BR OVC015 FM162100
                       21012KT P6SM -SHRA OVC050=
202310160522 TAF KPWT 160522Z 1606/1706 00000KT P6SM SCT120 BKN150
                      TEMPO 1606/1609 1/2SM FG BKN001 FM160900
                       00000KT 1/2SM FG OVC001 FM161400 20004KT
                       4SM -RA BR OVC007 FM161700 21008KT 6SM -RA
                       BR OVC015 FM162100 21012KT P6SM -SHRA OVC050=
202310160302 KPWT 160302Z 1603/1624 00000KT 1/2SM FG FEW001 FEW120 FM160900
                       00000KT 1/2SM FG BKN001 BKN120 FM161300
                       00000KT P6SM -SHRA OVC035 FM161700 20008KT
                       5SM -RA BR OVC025 FM162100 21015KT P6SM
                       -SHRA OVC050=
202310152320 TAF KPWT 152320Z 1600/1624 03003KT P6SM -RA OVC070 FM160400 00000KT
                       P6SM OVC060 FM161300 00000KT P6SM -SHRA
                       OVC035 FM161700 20008KT 5SM -RA BR OVC025
                       FM162100 21015KT P6SM -SHRA OVC050=
202310151724 TAF KPWT 151724Z 1518/1618 VRB02KT P6SM BKN050 FM152000 03003KT
                       P6SM OVC070 FM160400 00000KT P6SM OVC050
                       FM161300 00000KT P6SM -SHRA OVC035 FM161700
                       20008KT 5SM -RA BR OVC030=
202310151120 TAF KPWT 151120Z 1512/1612 17005KT P6SM BKN035 FM151900 03003KT
                       P6SM OVC070 FM160800 22002KT P6SM BKN005=
202310150523 TAF KPWT 150523Z 1506/1606 00000KT P6SM -SHRA OVC050 FM150900 05003KT
                       P6SM OVC050 FM151200 00000KT 6SM BR BKN004
                       OVC050 FM151900 03003KT P6SM OVC070=
202310142320 TAF KPWT 142320Z 1500/1524 20005KT P6SM -RA OVC050 FM150400 VRB02KT
                       P6SM -RA OVC040 FM151000 VRB03KT P6SM -SHRA
                       OVC040 FM151500 00000KT 6SM BR OVC050 FM151900
                       33003KT P6SM OVC050=
202310141722 TAF KPWT 141722Z 1418/1518 VRB03KT P6SM FEW020 OVC070 FM150000
                       20007KT P6SM -RA OVC050 FM151000 VRB03KT
                       P6SM -SHRA OVC035 FM151500 00000KT 6SM BR
                       OVC050=
202310141321 KPWT 141321Z 1413/1512 21003KT P6SM -RA OVC040 FM141700 20005KT
                       P6SM OVC070 FM150000 20007KT P6SM -RA OVC050
                       FM151000 VRB03KT P6SM -RA OVC008=
202310141130 KPWT 141130Z 1412/1512 21003KT P6SM OVC025 FM141700 20005KT P6SM
                       OVC070 FM150000 20007KT P6SM -RA OVC050
                       FM151000 VRB03KT P6SM -RA OVC008=
202310140528 TAF KPWT 140528Z 1406/1506 20005KT P6SM -RA OVC035 FM141000 20004KT
                       P6SM -SHRA OVC025 FM141700 20005KT P6SM
                       OVC070 FM142000 20005KT P6SM OVC070 FM150000
                       20007KT P6SM -RA OVC050=
202310132322 TAF KPWT 132322Z 1400/1424 19005KT P6SM -RA SCT250 FM140200 20005KT
                       P6SM -RA OVC100 FM140700 00000KT P6SM -SHRA
                       OVC045 FM141100 20004KT P6SM OVC050 FM141600
                       21005KT P6SM OVC070=
202310131722 TAF KPWT 131722Z 1318/1418 04003KT P6SM SKC FM131900 19005KT P6SM
                       SCT250 FM140200 20005KT P6SM OVC100 FM140500
                       00000KT P6SM -RA OVC045 FM141100 20004KT
                       P6SM OVC050=
202310131338 KPWT 131338Z 1314/1412 04003KT 6SM BCFG SCT002 FM131900 19005KT
                       P6SM SCT250 FM140300 20005KT P6SM OVC100
                       FM140600 21002KT P6SM -RA OVC035=
202310131206 KPWT 131206Z 1312/1412 04003KT 6SM BCFG SCT002 FM131900 19005KT
                       P6SM SCT250 FM140300 20005KT P6SM OVC100
                       FM140600 21002KT P6SM -RA OVC035=
202310131120 TAF KPWT 131120Z 1312/1412 04003KT 6SM BCFG SCT002 FM131300 04003KT
                       1/2SM FG BKN002 FM131900 19005KT P6SM SCT250
                       FM140300 20005KT P6SM OVC100 FM140600 21002KT
                       P6SM -RA OVC035=
202310130523 TAF KPWT 130523Z 1306/1406 05006KT P6SM FEW250 FM130900 04003KT
                       6SM BCFG SCT002 FM131200 04003KT 1/2SM FG
                       BKN002 FM131900 19005KT P6SM SCT250 FM140300
                       20005KT P6SM OVC100=
202310122321 TAF KPWT 122321Z 1300/1324 03004KT P6SM SKC FM130700 VRB03KT 6SM
                       BCFG SCT002 FM131400 04003KT P6SM SCT010
                       FM131900 19005KT P6SM SCT250=
202310121943 KPWT 121943Z 1220/1318 VRB02KT 3SM BR OVC007 FM122200 03004KT P6SM
                       SKC FM130900 VRB03KT 6SM BCFG SCT002 FM131600
                       04003KT P6SM SCT010=
202310121737 KPWT 121737Z 1218/1318 VRB02KT 3SM BR OVC003 FM121900 05003KT P6SM
                       SKC FM130400 03004KT P6SM SKC FM130900 VRB03KT
                       6SM BCFG SCT002 FM131600 04003KT P6SM SCT010=
202310121732 TAF KPWT 121732Z 1218/1318 VRB02KT 6SM BR SCT005 FM122000 05006KT
                       P6SM SKC FM130400 03004KT P6SM SKC FM130900
                       VRB03KT 6SM BCFG SCT002 FM131600 04003KT
                       P6SM SCT010=
202310121327 KPWT 121327Z 1213/1312 00000KT 6SM BR SCT003 SCT025
                      TEMPO 1213/1216 1/4SM FG VV002 FM121800 04004KT
                       6SM BR SCT005 FM122000 05006KT P6SM SKC
                       FM130400 03004KT P6SM SKC FM130900 VRB03KT
                       6SM BCFG SCT002=
202310121132 TAF KPWT 121132Z 1212/1312 00000KT 6SM BR SCT003 SCT025
                      TEMPO 1212/1216 1SM BR BKN003 FM121800 04004KT
                       6SM BR SCT005 FM122000 05006KT P6SM SKC
                       FM130400 03004KT P6SM SKC FM130900 VRB03KT
                       6SM BCFG SCT002=
202310120529 TAF KPWT 120529Z 1206/1306 05003KT P6SM SKC
                      TEMPO 1207/1210 2SM BR BKN007 FM121000 00000KT
                       1/2SM FG OVC003 FM121800 VRB03KT 6SM BR
                       SCT005 SCT010 FM122000 05006KT P6SM SKC=
202310112336 TAF KPWT 112336Z 1200/1224 04006KT P6SM SCT012 SCT020 FM120500
                       VRB03KT P6SM SCT250 FM121100 00000KT 1SM
                       BR OVC003 FM121700 17005KT P6SM SCT015 FM122000
                       06006KT P6SM SCT050=
202310111743 TAF KPWT 111743Z 1118/1218 15006KT 4SM -RA BR OVC004 FM112000 20005KT
                       P6SM VCSH OVC025 FM112300 04006KT P6SM SCT025
                       BKN045 FM120500 VRB03KT P6SM SCT250 FM121100
                       VRB03KT 1SM BR OVC005 FM121700 05004KT P6SM
                       SCT015=
202310111555 KPWT 111555Z 1116/1212 15006KT P6SM -SHRA BKN008 OVC015
                      TEMPO 1116/1117 2SM -RA BR OVC004 FM112100
                       20006KT P6SM SCT015 BKN025 OVC040 FM112300
                       03006KT P6SM SCT025 BKN045 FM120900 00000KT
                       1SM BR OVC002=
202310111512 KPWT 111512Z 1115/1212 15006KT P6SM -SHRA SCT008 OVC015
                      TEMPO 1115/1117 6SM -RA BKN006 OVC015 FM112100
                       20006KT P6SM SCT015 BKN025 OVC040 FM112300
                       03006KT P6SM SCT025 BKN045 FM120900 00000KT
                       1SM BR OVC002=
202310111134 TAF KPWT 111134Z 1112/1212 16006KT P6SM -SHRA SCT008 OVC015
                      TEMPO 1112/1116 4SM SHRA BKN008 OVC015 FM112100
                       20006KT P6SM SCT015 BKN025 OVC040 FM112300
                       03006KT P6SM SCT025 BKN045 FM120900 00000KT
                       1SM BR OVC002=
202310110533 TAF KPWT 110533Z 1106/1206 18011G17KT P6SM -SHRA SCT008 OVC020
                       FM111100 15008KT 5SM -SHRA OVC008 FM112100
                       04003KT P6SM OVC020 FM112300 03005KT P6SM
                       BKN035 OVC050=
202310110235 KPWT 110235Z 1103/1124 17008G15KT P6SM -SHRA SCT010 OVC020
                      TEMPO 1103/1107 BKN008 FM111000 18008KT 5SM
                       -SHRA OVC015 FM111500 20002KT 6SM -SHRA
                       BR OVC010 FM112100 24003KT P6SM OVC025 FM112300
                       24004KT P6SM OVC050=
202310102340 TAF KPWT 102340Z 1100/1124 17008G18KT P6SM -SHRA SCT010 BKN040
                       OVC050 FM111000 18008KT 5SM -SHRA OVC015
                       FM111500 20002KT 6SM -SHRA BR OVC010 FM112100
                       24003KT P6SM OVC025 FM112300 24004KT P6SM
                       OVC050=
202310101739 TAF KPWT 101739Z 1018/1118 14008KT 4SM -RA BR BKN025 OVC035 FM102200
                       20010G18KT P6SM -SHRA BKN015 OVC030 FM111000
                       18008KT 5SM -SHRA OVC011=
202310101125 TAF KPWT 101125Z 1012/1112 18008KT P6SM -RA OVC040 FM101800 20012KT
                       5SM -RA BKN020 OVC035 FM102200 20012G18KT
                       P6SM -SHRA BKN015 OVC030 FM111000 18008KT
                       P6SM -SHRA OVC011=
202310100520 TAF KPWT 100520Z 1006/1106 21011KT P6SM BKN050 FM100900 18009KT
                       P6SM BKN035 OVC050 FM101400 17011G15KT 6SM
                       -RA BR BKN015 OVC025 FM102000 20012G22KT
                       P6SM -SHRA BKN030 OVC040=
202310092320 TAF KPWT 092320Z 1000/1024 21008KT P6SM SCT020 BKN035 OVC060 FM100700
                       18008KT P6SM SCT045 OVC070 FM101300 00000KT
                       P6SM -RA OVC050 FM101800 20008KT P6SM -SHRA
                       OVC050=
202310091728 TAF KPWT 091728Z 0918/1018 18008KT P6SM BKN120 OVC200 FM091900
                       18008KT P6SM -SHRA OVC035 FM100000 21008KT
                       P6SM SCT020 BKN035 OVC060 FM100700 18008KT
                       P6SM SCT045 OVC070 FM101300 00000KT P6SM
                       -RA OVC050=
202310091140 TAF KPWT 091140Z 0912/1012 18008KT P6SM SCT120 BKN200 FM091600
                       18008KT P6SM BKN120 OVC200 FM091900 18008KT
                       P6SM -RA OVC035 FM092300 21008KT P6SM SCT020
                       BKN035 OVC060 FM100700 18008KT P6SM SCT045
                       OVC070=
202310090521 TAF KPWT 090521Z 0906/1006 20003KT P6SM SCT120 BKN200 FM091000
                       20005KT P6SM OVC120 FM091600 21005KT P6SM
                       VCSH SCT050 OVC100 FM091800 21003KT P6SM
                       -RA OVC025 FM100000 21007KT P6SM OVC040=
202310082320 TAF KPWT 082320Z 0900/0924 20006KT P6SM SKC FM090200 00000KT P6SM
                       FEW250 FM091000 17008KT P6SM BKN120 OVC200
                       FM091600 21002KT P6SM VCSH OVC100 FM091800
                       21003KT P6SM -RA OVC050=
202310081731 TAF KPWT 081731Z 0818/0918 20006KT P6SM SKC FM090200 00000KT P6SM
                       FEW250 FM091000 17008KT P6SM BKN120 OVC200=
202310081555 KPWT 081555Z 0816/0912 00000KT P6SM BKN008 FM081800 19006KT P6SM
                       SKC FM091000 17008KT P6SM BKN120 OVC200=
202310081136 TAF KPWT 081136Z 0812/0912 00000KT 1/2SM FG SCT004 FM081400 00000KT
                       3SM BR BKN004 FM081700 19006KT P6SM BKN008
                       FM081800 19006KT P6SM SKC FM091000 17008KT
                       P6SM BKN120 OVC200=
202310080520 TAF KPWT 080520Z 0806/0906 20004KT P6SM SKC FM081000 20003KT P6SM
                       OVC007 FM081200 19004KT 2SM BR OVC004 FM081900
                       20005KT P6SM SCT250=
202310072342 TAF KPWT 072342Z 0800/0824 22005KT P6SM SKC FM081000 20003KT P6SM
                       BKN004 FM081800 20005KT P6SM SCT250=
202310071736 TAF KPWT 071736Z 0718/0818 00000KT P6SM SKC FM072100 22005KT P6SM
                       SKC FM080900 20003KT 6SM BCFG SCT002=
202310071348 KPWT 071348Z 0714/0812 VRB02KT 6SM BR SKC
                      TEMPO 0714/0716 1SM BR FM071700 20004KT P6SM
                       SKC FM080900 20003KT 6SM BCFG SCT002=
202310071127 TAF KPWT 071127Z 0712/0812 VRB02KT P6SM SKC
                      TEMPO 0712/0716 3SM BR FM071900 20004KT P6SM
                       SKC FM080900 20003KT 6SM BCFG SCT002=
202310070520 TAF KPWT 070520Z 0706/0806 04003KT P6SM SKC FM071200 06004KT 1/2SM
                       FG BKN001 FM071800 20004KT P6SM SKC=
202310062320 TAF KPWT 062320Z 0700/0724 06008KT P6SM SKC FM071200 03004KT 1/2SM
                       FG BKN001 FM071800 20004KT P6SM SKC=
202310061720 TAF KPWT 061720Z 0618/0718 04010KT P6SM SKC FM070300 04004KT P6SM
                       SKC FM070900 05004KT 6SM BR FEW001 FM071700
                       20004KT P6SM SKC=
202310061120 TAF KPWT 061120Z 0612/0712 04010KT P6SM SKC FM061700 04007KT P6SM
                       SKC FM070900 05004KT 6SM BR FEW001=
202310060522 TAF KPWT 060522Z 0606/0706 04008KT P6SM SKC FM061000 04007KT 6SM
                       BR SCT003 FM061700 04006KT P6SM SKC=
202310052320 TAF KPWT 052320Z 0600/0624 04010G18KT P6SM SKC FM060500 04005KT
                       P6SM SKC FM061000 04004KT 6SM BCFG SCT003
                       FM061700 04004KT P6SM SKC=
202310051724 KPWT 051724Z 0517/0618 04010G18KT P6SM SCT025 FM052000 04010KT
                       P6SM SKC FM060500 04005KT P6SM SKC FM061000
                       04004KT 6SM BCFG SCT001 FM061700 04004KT
                       P6SM SKC=
202310051720 TAF KPWT 051720Z 0518/0618 04008KT P6SM SCT025 FM052000 04010KT
                       P6SM SKC FM060500 04005KT P6SM SKC FM061000
                       04004KT 6SM BCFG SCT001 FM061700 04004KT
                       P6SM SKC=
202310051629 KPWT 051629Z 0516/0612 04008KT P6SM SCT025 FM052000 04010KT P6SM
                       SKC FM060500 04005KT P6SM SKC FM061000 04004KT
                       6SM BCFG SCT001=
202310051603 KPWT 051603Z 0516/0612 06004KT P6SM BKN020 FM051700 04008KT P6SM
                       SCT025 FM052000 04010KT P6SM SKC FM060500
                       04005KT P6SM SKC FM061000 04004KT 6SM BCFG
                       SCT001=
202310051506 KPWT 051506Z 0515/0612 06004KT 6SM BR SCT020 FM051700 04008KT P6SM
                       SCT025 FM052000 04010KT P6SM SKC FM060500
                       04005KT P6SM SKC FM061000 04004KT 6SM BCFG
                       SCT001=
202310051450 KPWT 051450Z 0515/0612 06004KT 6SM BR BKN020 FM051700 04008KT P6SM
                       SCT025 FM052000 04010KT P6SM SKC FM060500
                       04005KT P6SM SKC FM061000 04004KT 6SM BCFG
                       SCT001=
202310051124 TAF KPWT 051124Z 0512/0612 06004KT 6SM BR SCT004
                      TEMPO 0512/0516 3SM BR BKN002 FM051700 04008KT
                       P6SM SCT008 FM052000 04010KT P6SM SKC FM060500
                       04005KT P6SM SKC FM061000 04004KT 6SM BCFG
                       SCT001=
202310050742 KPWT 050742Z 0508/0606 06005KT 6SM BR BKN003 FM051200 03003KT 4SM
                       BR BKN002 FM051700 04008KT P6SM SCT015 FM052100
                       04013KT P6SM FEW030 FM060000 03008KT P6SM
                       SKC=
202310050534 TAF KPWT 050534Z 0506/0606 06005KT P6SM SKC FM050900 VRB03KT 6SM
                       BR SCT003 FM051200 03003KT 1/2SM FG BKN002
                       FM051700 04008KT P6SM SCT015 FM052100 04013KT
                       P6SM FEW030 FM060000 03008KT P6SM SKC=
202310042320 TAF KPWT 042320Z 0500/0524 04005KT P6SM FEW020 SCT200 FM050300
                       04005KT P6SM SCT025 SCT200 FM050900 VRB03KT
                       6SM BCFG SCT003 FM051200 03003KT 1/2SM BCFG
                       BKN005 FM051700 04008KT P6SM SCT015 FM052100
                       04013KT P6SM FEW250=
202310041726 TAF KPWT 041726Z 0418/0518 04004KT P6SM OVC005 FM042000 04005KT
                       P6SM SCT015 SCT200 FM050100 04005KT P6SM
                       SCT025 SCT200 FM050900 VRB03KT 6SM BCFG
                       SCT003 FM051200 03003KT 4SM BCFG BKN005
                       FM051700 04008KT P6SM SCT015=
202310041142 TAF KPWT 041142Z 0412/0512 00000KT 6SM BR BKN009 OVC025
                      TEMPO 0412/0416 3SM BR OVC005 FM041800 04004KT
                       6SM BR BKN012 FM042000 04005KT P6SM SCT015
                       SCT200 FM050100 04005KT P6SM SCT025 SCT200
                       FM050900 VRB03KT 6SM BCFG SCT003=
202310040535 TAF KPWT 040535Z 0406/0506 00000KT P6SM OVC015 FM041000 00000KT
                       6SM BR OVC009 FM041300 00000KT 4SM BR OVC007
                       FM042100 04003KT P6SM SCT015 FM050000 04003KT
                       P6SM BKN100=
202310032327 TAF KPWT 032327Z 0400/0424 20005KT P6SM OVC020 FM040300 00000KT
                       P6SM OVC015 FM040700 VRB03KT 6SM BR OVC009
                       FM041300 00000KT 4SM BR OVC007 FM042100
                       04003KT P6SM SCT015=
202310031724 TAF KPWT 031724Z 0318/0418 36003KT P6SM BKN015 BKN030 FM032100
                       20005KT P6SM OVC020 FM040100 17004KT P6SM
                       OVC023 FM040700 VRB03KT 6SM BR OVC009 FM041300
                       00000KT 4SM BR OVC007=
202310031125 TAF KPWT 031125Z 0312/0412 04006KT 6SM BR OVC009 FM031800 18004KT
                       P6SM OVC011 FM032100 20005KT P6SM OVC020
                       FM040100 17004KT P6SM OVC023 FM040700 VRB03KT
                       6SM BR OVC009=
202310030524 TAF KPWT 030524Z 0306/0406 20008KT 4SM BR OVC003 FM030800 VRB03KT
                       2SM BR OVC003 FM031900 20004KT P6SM OVC015=
202310030109 KPWT 030109Z 0301/0324 19010G16KT 5SM -SHRA BR OVC003 FM030300
                       19004KT 3SM BR OVC004 FM030800 03005KT 2SM
                       BR OVC006 FM031800 VRB02KT 4SM BR OVC007=
202310022328 TAF KPWT 022328Z 0300/0324 19010KT 3SM -SHRA OVC006 FM030300 18003KT
                       4SM BR OVC007 FM030800 18004KT 5SM BR OVC004
                       FM031200 30002KT 2SM BR OVC003 FM031800
                       VRB02KT 4SM BR OVC007=
202310022205 KPWT 022205Z 0222/0318 18008KT 3SM -RA BR OVC003 FM022300 18008KT
                       3SM -SHRA BKN006 OVC011 FM030200 18006KT
                       4SM BR BKN010 OVC020 FM030800 18004KT 3SM
                       BR OVC004 FM031200 00000KT 2SM BR OVC003=
202310021721 TAF KPWT 021721Z 0218/0318 18008KT 3SM -RA BR OVC003 FM022200 18008KT
                       3SM -SHRA BKN006 OVC011 FM030200 18006KT
                       4SM BR BKN010 OVC020 FM030800 18004KT 3SM
                       BR OVC004 FM031200 00000KT 2SM BR OVC003=
202310021131 TAF KPWT 021131Z 0212/0312 00000KT 1/2SM FG OVC003 FM021400 00000KT
                       1SM BR OVC004 FM021600 18008KT 5SM -RA BR
                       SCT006 BKN011 OVC020 FM022200 18008KT 3SM
                       -SHRA BKN006 OVC011 FM030200 18008KT P6SM
                       SCT006 OVC011 FM030800 18008KT 3SM BR OVC004=
202310020520 TAF KPWT 020520Z 0206/0306 00000KT P6SM SCT020 BKN200 FM021000
                       19006KT P6SM SCT010 OVC025 FM021500 20008KT
                       4SM -RA BR OVC015 FM022200 21005KT P6SM
                       -RA OVC020=
202310012340 TAF KPWT 012340Z 0200/0224 03006KT P6SM SKC FM020200 19006KT P6SM
                       SCT250 FM021000 19006KT P6SM OVC010 FM021500
                       20008KT 4SM -RA BR OVC015=
202310011739 TAF KPWT 011739Z 0118/0218 03006KT P6SM SKC FM020200 19006KT P6SM
                       SCT250 FM021000 19006KT P6SM OVC010 FM021500
                       20008KT 4SM -RA BR OVC015=
202310011134 TAF KPWT 011134Z 0112/0212 00000KT P6SM SKC FM011400 00000KT 6SM
                       BR SCT002 FM011700 03006KT P6SM SKC FM020200
                       19006KT P6SM SKC FM021000 19006KT P6SM OVC010=
202310010524 TAF KPWT 010524Z 0106/0206 00000KT P6SM SKC FM011400 00000KT 6SM
                       BR BKN008 FM011900 06003KT P6SM FEW010=