##########################################################
# Query made at 02/16/2025 01:28:54 UTC
# Time interval: from 04/01/2024 00:00  to 04/30/2024 23:59  UTC
##########################################################

##########################################################
# KPWT, Bremerton National Automatic Weather Observing / Reporting System (United States)
# WMO index: -----. WIGOS ID: Unknown
# Latitude 47-30N. Longitude 122-45W. Altitude 147 m.
##########################################################

###################################
#  METAR/SPECI from KPWT
###################################
202404302356 METAR KPWT 302356Z AUTO 03009KT 10SM BKN055 11/03 A3011 RMK AO2 SLP201 60000 T01110028 10133 20061 50002=
202404302256 METAR KPWT 302256Z AUTO 05005KT 10SM FEW037 SCT046 BKN060 11/03 A3011 RMK AO2 SLP201 T01060033=
202404302156 METAR KPWT 302156Z AUTO 01009KT 10SM SCT034 BKN060 11/04 A3011 RMK AO2 SLP202 T01060039=
202404302056 METAR KPWT 302056Z AUTO 03006KT 10SM FEW023 SCT030 BKN036 12/05 A3010 RMK AO2 RAE15 SLP198 P0000 60000 T01220050 58002=
202404302021 SPECI KPWT 302021Z AUTO VRB03KT 10SM SCT022 BKN038 09/05 A3011 RMK AO2 RAE15 P0000=
202404301956 METAR KPWT 301956Z AUTO 35005KT 10SM -RA BKN023 OVC030 08/06 A3011 RMK AO2 RAB53 SLP203 P0000 T00830061=
202404301944 SPECI KPWT 301944Z AUTO 28004KT 10SM FEW014 BKN029 OVC034 09/06 A3011 RMK AO2=
202404301935 SPECI KPWT 301935Z AUTO 00000KT 10SM FEW014 OVC032 08/05 A3011 RMK AO2=
202404301911 SPECI KPWT 301911Z AUTO 00000KT 10SM BKN016 OVC022 07/05 A3012 RMK AO2=
202404301856 METAR KPWT 301856Z AUTO 00000KT 10SM OVC014 07/04 A3012 RMK AO2 SLP205 T00670044=
202404301837 SPECI KPWT 301837Z AUTO VRB03KT 10SM BKN014 OVC019 07/05 A3011 RMK AO2=
202404301756 METAR KPWT 301756Z AUTO 19004KT 10SM BKN015 OVC020 06/05 A3011 RMK AO2 RAE13 SLP202 P0000 60000 T00610050 10067 20039 53007=
202404301742 SPECI KPWT 301742Z AUTO 21003KT 10SM OVC015 06/04 A3011 RMK AO2 RAE13 P0000=
202404301714 SPECI KPWT 301714Z AUTO 22005KT 10SM BKN013 OVC019 06/05 A3010 RMK AO2 RAE13 P0000=
202404301656 METAR KPWT 301656Z AUTO VRB05KT 10SM -RA SCT011 OVC021 06/05 A3010 RMK AO2 SLP198 P0000 T00610050=
202404301641 SPECI KPWT 301641Z AUTO 22006KT 10SM -RA SCT009 OVC021 06/06 A3010 RMK AO2 P0000=
202404301612 SPECI KPWT 301612Z AUTO 18006KT 10SM -RA BKN011 OVC019 06/05 A3009 RMK AO2 CIG 007V012 P0000=
202404301556 METAR KPWT 301556Z AUTO 19003KT 10SM -RA SCT009 BKN018 OVC027 06/05 A3009 RMK AO2 SLP197 P0000 T00560050=
202404301544 SPECI KPWT 301544Z AUTO 21003KT 10SM -RA FEW009 BKN016 OVC027 05/05 A3009 RMK AO2 P0000=
202404301456 METAR KPWT 301456Z AUTO 18005KT 10SM -RA OVC011 04/04 A3009 RMK AO2 RAB51 CIG 008V012 SLP194 P0000 60000 T00440044 53004=
202404301409 SPECI KPWT 301409Z AUTO 18005KT 10SM OVC013 04/04 A3008 RMK AO2=
202404301356 METAR KPWT 301356Z AUTO 19006KT 10SM OVC015 04/04 A3008 RMK AO2 SLP190 T00440044=
202404301256 METAR KPWT 301256Z AUTO 19004KT 10SM OVC017 04/04 A3007 RMK AO2 RAE16 SLP188 P0000 T00440044=
202404301226 SPECI KPWT 301226Z AUTO 00000KT 10SM SCT009 OVC017 04/04 A3007 RMK AO2 RAE16 P0000=
202404301156 METAR KPWT 301156Z AUTO 20003KT 10SM -RA BKN009 OVC021 04/04 A3007 RMK AO2 RAB02 CIG 008V012 SLP190 P0000 60001 70011 T00440044 10056 20033 56004=
202404301143 SPECI KPWT 301143Z AUTO 21003KT 10SM -RA FEW007 BKN011 OVC021 04/04 A3008 RMK AO2 RAB02 P0000=
202404301121 SPECI KPWT 301121Z AUTO 21004KT 10SM -RA OVC009 04/04 A3008 RMK AO2 RAB02 CIG 006V013 P0000=
202404301056 METAR KPWT 301056Z AUTO 20003KT 10SM OVC013 04/04 A3008 RMK AO2 SLP190 T00440044=
202404301014 SPECI KPWT 301014Z AUTO 21003KT 10SM FEW021 BKN026 OVC033 03/03 A3009 RMK AO2=
202404300956 METAR KPWT 300956Z AUTO 23004KT 10SM FEW012 BKN030 04/04 A3008 RMK AO2 RAE22 SLP193 P0000 T00390039=
202404300944 SPECI KPWT 300944Z AUTO 21005KT 10SM SCT012 04/04 A3008 RMK AO2 RAE22 P0000=
202404300929 SPECI KPWT 300929Z AUTO 21006KT 10SM OVC014 05/04 A3009 RMK AO2 RAE22 P0000=
202404300856 METAR KPWT 300856Z AUTO 23004KT 10SM -RA OVC020 05/05 A3009 RMK AO2 RAB09 SLP195 P0001 60001 T00500050 50002=
202404300808 SPECI KPWT 300808Z AUTO 21005KT 10SM BKN020 BKN033 BKN100 06/04 A3009 RMK AO2=
202404300756 METAR KPWT 300756Z AUTO 20007KT 10SM FEW020 SCT035 BKN045 06/04 A3009 RMK AO2 RAE24 SLP195 P0000 T00560039 401280039=
202404300739 SPECI KPWT 300739Z AUTO 20005KT 10SM SCT027 BKN041 05/04 A3009 RMK AO2 RAE24 P0000=
202404300714 SPECI KPWT 300714Z AUTO 20007KT 10SM -RA BKN029 BKN036 06/04 A3009 RMK AO2 P0000=
202404300656 METAR KPWT 300656Z AUTO 19008KT 10SM -RA FEW047 06/03 A3009 RMK AO2 RAB47 SLP194 P0000 T00560033=
202404300556 METAR KPWT 300556Z AUTO 20007KT 10SM CLR 05/03 A3008 RMK AO2 SLP194 T00500033 10128 20050 51005=
202404300456 METAR KPWT 300456Z AUTO 21008KT 10SM FEW120 06/03 A3008 RMK AO2 SLP192 T00610033=
202404300356 METAR KPWT 300356Z AUTO 20004KT 10SM CLR 06/02 A3008 RMK AO2 SLP193 T00610022=
202404300256 METAR KPWT 300256Z AUTO 23008KT 10SM CLR 09/02 A3007 RMK AO2 SLP188 T00890022 51004=
202404300156 METAR KPWT 300156Z AUTO 00000KT 10SM BKN039 09/07 A3007 RMK AO2 SLP187 T00940067=
202404300056 METAR KPWT 300056Z AUTO 05008KT 10SM OVC047 10/06 A3006 RMK AO2 SLP186 T01000056=
202404292356 METAR KPWT 292356Z AUTO 21014G20KT 10SM SCT045 SCT050 BKN070 11/03 A3006 RMK AO2 SLP184 60000 T01110033 10128 20067 58004=
202404292256 METAR KPWT 292256Z AUTO 23016KT 10SM FEW038 SCT060 12/03 A3006 RMK AO2 RAB41E52 SLP185 P0000 T01220028=
202404292156 METAR KPWT 292156Z AUTO 20006KT 10SM FEW034 BKN049 11/04 A3007 RMK AO2 SLP187 T01110039=
202404292056 METAR KPWT 292056Z AUTO VRB06KT 10SM FEW028 BKN040 BKN048 10/04 A3007 RMK AO2 SLP188 60000 T01000044 50002=
202404291956 METAR KPWT 291956Z AUTO VRB05KT 10SM FEW030 SCT036 BKN055 09/04 A3007 RMK AO2 SLP190 T00940039=
202404291907 SPECI KPWT 291907Z AUTO 17007KT 10SM FEW021 SCT026 BKN033 09/04 A3007 RMK AO2=
202404291856 METAR KPWT 291856Z AUTO VRB03KT 10SM FEW017 BKN024 OVC033 09/04 A3007 RMK AO2 RAE08 SLP188 P0000 T00940044=
202404291843 SPECI KPWT 291843Z AUTO 21005KT 10SM FEW017 BKN024 09/04 A3007 RMK AO2 RAE08 P0000=
202404291756 METAR KPWT 291756Z AUTO 22004KT 10SM -RA FEW010 07/05 A3006 RMK AO2 RAB22 SLP186 P0001 60010 T00670050 10072 20039 51013=
202404291743 SPECI KPWT 291743Z AUTO 21003KT 10SM -RA SCT010 SCT015 06/05 A3006 RMK AO2 RAB22 P0001=
202404291738 SPECI KPWT 291738Z AUTO 25003KT 7SM -RA BKN013 06/06 A3006 RMK AO2 RAB22 P0001=
202404291708 SPECI KPWT 291708Z AUTO 25003KT 10SM BKN016 07/05 A3006 RMK AO2=
202404291656 METAR KPWT 291656Z AUTO 03003KT 10SM OVC014 07/04 A3005 RMK AO2 SLP183 T00720044=
202404291556 METAR KPWT 291556Z AUTO 00000KT 10SM FEW009 BKN014 BKN047 06/04 A3005 RMK AO2 RAE16 SLP181 P0000 T00560044=
202404291523 SPECI KPWT 291523Z AUTO 00000KT 10SM BKN009 05/04 A3004 RMK AO2 RAE16 CIG 008V011 P0000=
202404291456 METAR KPWT 291456Z AUTO 00000KT 10SM -RA CLR 04/04 A3002 RMK AO2 SLP174 P0005 60009 T00440044 51007=
202404291445 SPECI KPWT 291445Z AUTO 12004KT 10SM -RA SCT025 04/04 A3002 RMK AO2 P0005=
202404291424 SPECI KPWT 291424Z AUTO 00000KT 7SM -RA FEW004 SCT012 OVC025 04/04 A3002 RMK AO2 P0004=
202404291418 SPECI KPWT 291418Z AUTO 00000KT 6SM -RA BR BKN006 BKN012 OVC023 04/04 A3003 RMK AO2 CIG 003V009 P0004=
202404291409 SPECI KPWT 291409Z AUTO VRB03KT 8SM RA FEW004 BKN011 OVC022 04/04 A3002 RMK AO2 P0002=
202404291356 METAR KPWT 291356Z AUTO 00000KT 6SM -RA BR SCT004 OVC016 04/04 A3002 RMK AO2 RAB03 SLP171 P0003 T00390039=
202404291329 SPECI KPWT 291329Z AUTO 00000KT 5SM -RA BR OVC016 04/04 A3001 RMK AO2 RAB03 P0000=
202404291307 SPECI KPWT 291307Z AUTO 00000KT 10SM -RA BKN014 OVC036 04/04 A3000 RMK AO2 RAB03 P0000=
202404291256 METAR KPWT 291256Z AUTO 00000KT 10SM SCT014 BKN036 04/04 A3000 RMK AO2 RAB07E49 SLP166 P0001 T00390039=
202404291233 SPECI KPWT 291233Z AUTO 00000KT 10SM -RA BKN014 BKN034 04/04 A3000 RMK AO2 RAB07 P0001=
202404291226 SPECI KPWT 291226Z AUTO 00000KT 10SM -RA BKN016 BKN034 04/04 A3000 RMK AO2 RAB07 P0001=
202404291156 METAR KPWT 291156Z AUTO 00000KT 10SM FEW016 BKN055 04/04 A3000 RMK AO2 RAE47 SLP165 P0001 60009 70009 T00390039 10061 20039 58004=
202404291146 SPECI KPWT 291146Z AUTO 17003KT 10SM -RA SCT015 BKN055 04/04 A3000 RMK AO2 P0001=
202404291056 METAR KPWT 291056Z AUTO 19006KT 10SM -RA FEW010 BKN019 OVC025 04/04 A3001 RMK AO2 RAB11 SLP168 P0008 T00440044=
202404291054 SPECI KPWT 291054Z AUTO 19006KT 8SM -RA FEW008 BKN019 OVC025 04/04 A3001 RMK AO2 RAB11 P0008=
202404291045 SPECI KPWT 291045Z AUTO 19005KT 5SM RA BR FEW008 BKN014 OVC019 04/04 A3002 RMK AO2 RAB11 P0007=
202404291040 SPECI KPWT 291040Z AUTO 22007KT 7SM -RA SCT010 OVC015 04/04 A3002 RMK AO2 RAB11 P0004=
202404291004 SPECI KPWT 291004Z AUTO 00000KT 10SM BKN010 06/06 A3001 RMK AO2=
202404290956 METAR KPWT 290956Z AUTO 00000KT 10SM SCT010 06/06 A3001 RMK AO2 SLP168 T00560056=
202404290856 METAR KPWT 290856Z AUTO 00000KT 10SM CLR 06/06 A3003 RMK AO2 SLP173 T00560056 58007=
202404290756 METAR KPWT 290756Z AUTO 00000KT 10SM FEW090 SCT120 05/05 A3004 RMK AO2 SLP177 T00500050 401280050=
202404290656 METAR KPWT 290656Z AUTO 00000KT 10SM SCT009 06/05 A3005 RMK AO2 SLP181 T00560050=
202404290556 METAR KPWT 290556Z AUTO 22007KT 10SM CLR 06/04 A3004 RMK AO2 SLP180 60000 T00610044 10106 20061 53005=
202404290456 METAR KPWT 290456Z AUTO 23011KT 10SM CLR 07/04 A3004 RMK AO2 SLP176 T00670039=
202404290356 METAR KPWT 290356Z AUTO 20011KT 10SM CLR 07/05 A3004 RMK AO2 SLP177 T00670050=
202404290256 METAR KPWT 290256Z AUTO 21011KT 10SM FEW018 SCT090 SCT110 08/06 A3003 RMK AO2 SLP175 60000 T00780061 58006=
202404290156 METAR KPWT 290156Z AUTO 21013KT 10SM CLR 09/06 A3003 RMK AO2 RAB03E24 SLP175 P0000 T00940061=
202404290056 METAR KPWT 290056Z AUTO 23016G22KT 10SM CLR 09/06 A3005 RMK AO2 SLP180 T00940056=
202404282356 METAR KPWT 282356Z AUTO 22017G26KT 10SM CLR 11/06 A3005 RMK AO2 PK WND 21029/2302 SLP180 60000 T01060056 10128 20089 53001=
202404282256 METAR KPWT 282256Z AUTO 22019G23KT 10SM CLR 11/05 A3004 RMK AO2 PK WND 21026/2241 SLP176 T01110050=
202404282156 METAR KPWT 282156Z AUTO 23017G25KT 10SM FEW022 11/06 A3004 RMK AO2 PK WND 21026/2130 SLP179 T01110061=
202404282056 METAR KPWT 282056Z AUTO 22018G21KT 10SM CLR 11/04 A3005 RMK AO2 PK WND 25029/2001 RAE1959 SLP179 P0000 60000 T01110044 58003=
202404281956 METAR KPWT 281956Z AUTO 23021G26KT 10SM -RA FEW022 11/07 A3005 RMK AO2 PK WND 23030/1943 RAE10B43 SLP181 P0000 T01060072=
202404281856 METAR KPWT 281856Z AUTO 22014G20KT 10SM -RA FEW023 BKN036 OVC043 09/07 A3006 RMK AO2 RAE02B39 SLP183 P0000 T00890067=
202404281805 SPECI KPWT 281805Z AUTO 19017G20KT 10SM SCT017 BKN044 BKN055 11/07 A3006 RMK AO2 RAE02 P0000=
202404281756 METAR KPWT 281756Z AUTO 20011KT 10SM -RA BKN017 BKN044 BKN050 09/07 A3006 RMK AO2 RAB04E17B50 SLP182 P0000 60000 T00940072 10106 20067 56001=
202404281656 METAR KPWT 281656Z AUTO 20015G22KT 10SM BKN016 OVC060 09/07 A3006 RMK AO2 SLP183 T00940067=
202404281645 SPECI KPWT 281645Z AUTO 20016G22KT 10SM OVC016 09/07 A3006 RMK AO2=
202404281629 SPECI KPWT 281629Z AUTO 21011G18KT 10SM BKN014 09/07 A3006 RMK AO2=
202404281556 METAR KPWT 281556Z AUTO 19014G19KT 10SM FEW013 08/07 A3005 RMK AO2 SLP182 T00780067=
202404281544 SPECI KPWT 281544Z AUTO 20012G17KT 10SM SCT013 SCT060 08/07 A3005 RMK AO2=
202404281456 METAR KPWT 281456Z AUTO 21010KT 10SM BKN011 BKN060 07/07 A3006 RMK AO2 SLP183 T00720072 53011=
202404281430 SPECI KPWT 281430Z AUTO 19010G16KT 10SM SCT029 BKN055 07/07 A3005 RMK AO2=
202404281412 SPECI KPWT 281412Z AUTO 20009KT 10SM BKN029 BKN060 07/07 A3005 RMK AO2=
202404281356 METAR KPWT 281356Z AUTO 20008KT 10SM FEW029 07/07 A3005 RMK AO2 SLP180 T00670067=
202404281256 METAR KPWT 281256Z AUTO 20010KT 10SM FEW055 07/07 A3003 RMK AO2 SLP174 T00670067=
202404281156 METAR KPWT 281156Z AUTO 21012KT 10SM BKN060 07/07 A3003 RMK AO2 SLP172 70014 T00720067 10089 20067 53003=
202404281132 SPECI KPWT 281132Z AUTO 20010KT 10SM SCT011 07/07 A3002 RMK AO2=
202404281116 SPECI KPWT 281116Z AUTO 22010KT 10SM BKN011 BKN026 07/07 A3003 RMK AO2 CIG 007V014=
202404281106 SPECI KPWT 281106Z AUTO 21011G17KT 10SM BKN009 BKN013 BKN026 07/07 A3002 RMK AO2 CIG 007V012=
202404281056 METAR KPWT 281056Z AUTO 21011KT 10SM FEW009 BKN026 08/08 A3002 RMK AO2 SLP171 T00780078=
202404281050 SPECI KPWT 281050Z AUTO 21010KT 10SM FEW009 BKN026 BKN030 08/08 A3002 RMK AO2=
202404280956 METAR KPWT 280956Z AUTO 21010KT 10SM CLR 07/07 A3002 RMK AO2 SLP169 T00720072=
202404280856 METAR KPWT 280856Z AUTO 22012KT 10SM SCT050 08/08 A3002 RMK AO2 SLP169 T00780078 51012=
202404280756 METAR KPWT 280756Z AUTO 21009KT 10SM CLR 08/08 A3001 RMK AO2 SLP165 T00780078 401000078=
202404280656 METAR KPWT 280656Z AUTO 21010KT 10SM SCT043 08/08 A3000 RMK AO2 SLP163 T00830083=
202404280556 METAR KPWT 280556Z AUTO 21013KT 10SM FEW008 09/09 A2998 RMK AO2 SLP157 60004 T00890089 10100 20089 51011=
202404280523 SPECI KPWT 280523Z AUTO 21013KT 10SM SCT005 09/09 A2998 RMK AO2=
202404280456 METAR KPWT 280456Z AUTO 20014G19KT 10SM OVC003 09/09 A2997 RMK AO2 SLP154 T00940094=
202404280432 SPECI KPWT 280432Z AUTO 20014KT 10SM BKN003 BKN009 09/09 A2997 RMK AO2=
202404280356 METAR KPWT 280356Z AUTO 20012KT 10SM OVC005 09/09 A2996 RMK AO2 SLP150 T00940094=
202404280256 METAR KPWT 280256Z AUTO 19014G20KT 10SM OVC005 09/09 A2995 RMK AO2 RAE12B32E47 SLP146 P0001 60004 T00940094 55004=
202404280156 METAR KPWT 280156Z AUTO 19011G21KT 9SM -RA OVC005 09/09 A2995 RMK AO2 CIG 004V010 SLP145 P0001 T00940094=
202404280136 SPECI KPWT 280136Z AUTO 21006KT 6SM -RA BR BKN005 OVC009 09/09 A2995 RMK AO2 P0001=
202404280056 METAR KPWT 280056Z AUTO 19007G15KT 160V220 5SM -RA BR BKN007 OVC020 10/10 A2996 RMK AO2 CIG 004V010 SLP150 P0002 T01000100=
202404272359 SPECI KPWT 272359Z AUTO 19007KT 8SM -RA BKN009 BKN026 OVC038 10/10 A2996 RMK AO2 CIG 006V013 P0000=
202404272356 METAR KPWT 272356Z AUTO 20007KT 10SM -RA SCT011 BKN026 OVC038 10/10 A2996 RMK AO2 SLP150 P0002 60010 T01000100 10100 20083 58007=
202404272345 SPECI KPWT 272345Z AUTO 19008KT 10SM -RA SCT009 BKN026 OVC036 10/10 A2996 RMK AO2 P0002=
202404272339 SPECI KPWT 272339Z AUTO 19009KT 10SM -RA BKN009 OVC028 09/09 A2996 RMK AO2 CIG 007V016 P0002=
202404272333 SPECI KPWT 272333Z AUTO 19009KT 8SM -RA SCT009 BKN016 OVC026 09/09 A2997 RMK AO2 P0001=
202404272326 SPECI KPWT 272326Z AUTO 19010G14KT 7SM -RA SCT009 BKN012 OVC028 10/10 A2997 RMK AO2 P0001=
202404272314 SPECI KPWT 272314Z AUTO 20008G14KT 10SM -RA FEW009 SCT019 OVC030 10/10 A2996 RMK AO2 P0001=
202404272256 METAR KPWT 272256Z AUTO 18007KT 10SM -RA FEW010 BKN030 OVC035 10/09 A2997 RMK AO2 SLP152 P0001 T01000094=
202404272251 SPECI KPWT 272251Z AUTO 19008KT 10SM -RA SCT011 BKN030 OVC036 10/09 A2997 RMK AO2 P0001=
202404272245 SPECI KPWT 272245Z AUTO 19010KT 10SM -RA FEW009 BKN013 OVC034 09/09 A2997 RMK AO2 P0001=
202404272212 SPECI KPWT 272212Z AUTO 18009G17KT 10SM -RA BKN009 OVC024 09/09 A2998 RMK AO2 CIG 007V016 P0000=
202404272156 METAR KPWT 272156Z AUTO 18011G15KT 10SM -RA SCT009 BKN013 OVC047 09/09 A2998 RMK AO2 SLP157 P0002 T00940094=
202404272154 SPECI KPWT 272154Z AUTO 20010KT 10SM -RA BKN011 BKN027 BKN047 09/09 A2998 RMK AO2 P0002=
202404272137 SPECI KPWT 272137Z AUTO 19008G17KT 10SM -RA SCT013 BKN023 BKN036 09/09 A2998 RMK AO2 P0002=
202404272056 METAR KPWT 272056Z AUTO 20012KT 10SM -RA BKN011 BKN027 OVC037 09/09 A2998 RMK AO2 SLP158 P0001 60005 T00940089 56004=
202404272047 SPECI KPWT 272047Z AUTO 19011G17KT 10SM -RA SCT011 BKN016 OVC037 09/09 A2999 RMK AO2 P0001=
202404271956 METAR KPWT 271956Z AUTO 19010KT 10SM -RA BKN011 BKN020 OVC030 09/09 A2999 RMK AO2 SLP160 P0001 T00940089=
202404271954 SPECI KPWT 271954Z AUTO 20010KT 10SM -RA SCT011 BKN016 OVC039 09/09 A2999 RMK AO2 P0001=
202404271929 SPECI KPWT 271929Z AUTO 20014G20KT 10SM -RA SCT008 BKN012 BKN027 09/09 A3000 RMK AO2 P0001=
202404271926 SPECI KPWT 271926Z AUTO 21015KT 10SM -RA SCT010 BKN027 BKN033 09/09 A3000 RMK AO2 P0001=
202404271918 SPECI KPWT 271918Z AUTO 19007KT 10SM -RA FEW010 SCT027 BKN033 09/09 A2999 RMK AO2 P0000=
202404271856 METAR KPWT 271856Z AUTO 21011KT 10SM -RA SCT010 BKN015 OVC027 08/08 A3000 RMK AO2 SLP163 P0003 T00830083=
202404271852 SPECI KPWT 271852Z AUTO 21010KT 10SM -RA BKN010 BKN015 OVC044 08/08 A3000 RMK AO2 CIG 008V013 P0002=
202404271811 SPECI KPWT 271811Z AUTO 20011G20KT 10SM -RA BKN019 BKN026 BKN030 09/07 A3000 RMK AO2 P0000=
202404271756 METAR KPWT 271756Z AUTO 21013G18KT 10SM -RA SCT019 BKN032 10/07 A2999 RMK AO2 RAB28 SLP163 P0000 60000 T01000072 10100 20083 51005=
202404271724 SPECI KPWT 271724Z AUTO 20011G16KT 10SM SCT015 SCT021 09/07 A2999 RMK AO2=
202404271656 METAR KPWT 271656Z AUTO 20010KT 10SM BKN015 09/08 A2999 RMK AO2 SLP161 T00890078=
202404271632 SPECI KPWT 271632Z AUTO 20012KT 10SM FEW010 BKN018 OVC055 09/08 A2999 RMK AO2=
202404271624 SPECI KPWT 271624Z AUTO 19011KT 10SM SCT010 SCT023 OVC055 08/08 A2999 RMK AO2=
202404271556 METAR KPWT 271556Z AUTO 20009KT 10SM BKN010 BKN013 08/08 A2998 RMK AO2 CIG 008V012 SLP159 T00830083=
202404271456 METAR KPWT 271456Z AUTO 21011KT 10SM BKN011 BKN016 BKN055 08/08 A2998 RMK AO2 RAB23E39 SLP156 P0000 60000 T00830083 53004=
202404271430 SPECI KPWT 271430Z AUTO 20012KT 10SM -RA SCT010 BKN014 BKN060 08/08 A2997 RMK AO2 RAB23 P0000=
202404271421 SPECI KPWT 271421Z AUTO 21011KT 10SM SCT010 SCT016 BKN060 08/08 A2997 RMK AO2=
202404271356 METAR KPWT 271356Z AUTO 21011KT 10SM OVC010 08/08 A2997 RMK AO2 SLP153 T00830078=
202404271338 SPECI KPWT 271338Z AUTO 21013G17KT 10SM BKN012 BKN024 08/08 A2997 RMK AO2=
202404271331 SPECI KPWT 271331Z AUTO 20011KT 10SM SCT012 BKN024 08/08 A2997 RMK AO2=
202404271256 METAR KPWT 271256Z AUTO 21010KT 10SM SCT012 BKN060 08/08 A2996 RMK AO2 SLP150 T00830078=
202404271156 METAR KPWT 271156Z AUTO 21013G18KT 10SM BKN010 OVC013 09/08 A2997 RMK AO2 CIG 007V012 SLP151 T00890083 10100 20089 50003=
202404271145 SPECI KPWT 271145Z AUTO 22013KT 10SM BKN010 OVC013 09/08 A2997 RMK AO2 CIG 007V012=
202404271056 METAR KPWT 271056Z AUTO 20013KT 10SM BKN009 OVC033 09/09 A2997 RMK AO2 CIG 006V012 SLP152 T00890089=
202404271007 SPECI KPWT 271007Z AUTO 20011KT 10SM BKN009 BKN016 OVC055 09/09 A2996 RMK AO2 CIG 007V013=
202404270956 METAR KPWT 270956Z AUTO 20012G16KT 10SM SCT009 BKN016 OVC055 09/09 A2996 RMK AO2 SLP149 T00940094=
202404270935 SPECI KPWT 270935Z AUTO 19011KT 10SM SCT009 OVC060 09/09 A2996 RMK AO2=
202404270915 SPECI KPWT 270915Z AUTO 19011G18KT 10SM OVC009 09/09 A2996 RMK AO2 CIG 007V013=
202404270856 METAR KPWT 270856Z AUTO 19008KT 10SM OVC011 09/09 A2996 RMK AO2 CIG 008V015 SLP149 T00890089 51004=
202404270814 SPECI KPWT 270814Z AUTO 20009KT 10SM BKN011 09/09 A2996 RMK AO2 CIG 009V014=
202404270756 METAR KPWT 270756Z AUTO 19009KT 10SM SCT011 09/09 A2996 RMK AO2 SLP149 T00890089 401610083=
202404270656 METAR KPWT 270656Z AUTO 19010KT 10SM FEW009 OVC049 09/09 A2996 RMK AO2 SLP148 T00940094=
202404270556 METAR KPWT 270556Z AUTO 19008KT 10SM FEW055 10/10 A2995 RMK AO2 SLP146 T01000100 10161 20100 51016=
202404270519 SPECI KPWT 270519Z AUTO 20008KT 10SM SCT009 OVC055 11/11 A2994 RMK AO2=
202404270456 METAR KPWT 270456Z AUTO 20008KT 10SM SCT011 BKN050 11/11 A2994 RMK AO2 SLP144 T01110106=
202404270356 METAR KPWT 270356Z AUTO 16004KT 10SM BKN065 12/10 A2992 RMK AO2 SLP138 T01170100=
202404270256 METAR KPWT 270256Z AUTO 20008KT 10SM FEW070 13/11 A2990 RMK AO2 SLP130 T01280106 51009=
202404270156 METAR KPWT 270156Z AUTO 19007KT 10SM CLR 14/09 A2990 RMK AO2 SLP128 T01390094=
202404270056 METAR KPWT 270056Z AUTO 22007KT 10SM FEW065 14/10 A2989 RMK AO2 SLP126 T01390100=
202404262356 METAR KPWT 262356Z AUTO 22005KT 10SM BKN060 16/08 A2987 RMK AO2 SLP119 60000 T01610083 10161 20117 53000=
202404262256 METAR KPWT 262256Z AUTO 20008KT 10SM BKN060 16/08 A2987 RMK AO2 SLP117 T01560083=
202404262156 METAR KPWT 262156Z AUTO 21008KT 10SM BKN033 BKN040 16/08 A2987 RMK AO2 SLP117 T01560083=
202404262056 METAR KPWT 262056Z AUTO 19005KT 10SM OVC055 14/09 A2987 RMK AO2 SLP120 60000 T01390089 51002=
202404262023 SPECI KPWT 262023Z AUTO 21009KT 10SM FEW023 SCT028 BKN060 13/10 A2987 RMK AO2=
202404261956 METAR KPWT 261956Z AUTO 21005KT 10SM SCT021 BKN026 BKN048 13/10 A2987 RMK AO2 RAB08E18 SLP120 P0000 T01330100=
202404261921 SPECI KPWT 261921Z AUTO 22004KT 10SM FEW018 SCT027 OVC039 12/11 A2987 RMK AO2 RAB08E18 P0000=
202404261856 METAR KPWT 261856Z AUTO 26008KT 10SM BKN018 BKN025 OVC043 12/10 A2987 RMK AO2 SLP119 T01220100=
202404261847 SPECI KPWT 261847Z AUTO 25008KT 10SM SCT016 BKN020 OVC043 13/10 A2987 RMK AO2=
202404261833 SPECI KPWT 261833Z AUTO 22006KT 10SM SCT013 OVC043 12/11 A2987 RMK AO2=
202404261803 SPECI KPWT 261803Z AUTO 21009KT 10SM BKN011 BKN023 OVC029 12/11 A2987 RMK AO2=
202404261756 METAR KPWT 261756Z AUTO 20009KT 10SM SCT011 BKN016 OVC029 12/11 A2987 RMK AO2 SLP118 60000 T01170106 10117 20083 51008=
202404261656 METAR KPWT 261656Z AUTO 22008KT 10SM FEW008 SCT017 BKN023 11/10 A2985 RMK AO2 SLP114 T01060100=
202404261651 SPECI KPWT 261651Z AUTO 19008KT 10SM FEW008 BKN017 BKN026 11/10 A2985 RMK AO2=
202404261556 METAR KPWT 261556Z AUTO 22007KT 10SM BKN008 BKN030 OVC055 10/10 A2984 RMK AO2 SLP111 T01000100=
202404261540 SPECI KPWT 261540Z AUTO 22007KT 10SM FEW008 SCT011 OVC055 10/10 A2984 RMK AO2=
202404261520 SPECI KPWT 261520Z AUTO 21006KT 10SM FEW008 BKN011 BKN030 09/09 A2983 RMK AO2 TSNO=
202404261356 METAR KPWT 261356Z AUTO 20007KT 10SM FEW037 OVC044 09/09 A2981 RMK AO2 SLP099 T00890089=
202404261256 METAR KPWT 261256Z AUTO 21006KT 10SM CLR 08/08 A2979 RMK AO2 RAE12 SLP093 P0000 T00830083=
202404261232 SPECI KPWT 261232Z AUTO 21007KT 10SM FEW024 08/08 A2979 RMK AO2 RAE12 P0000=
202404261156 METAR KPWT 261156Z AUTO 20006KT 10SM -RA FEW012 BKN020 BKN030 08/08 A2979 RMK AO2 SLP091 P0001 60003 7//// T00830083 10094 20083 51008=
202404261142 SPECI KPWT 261142Z AUTO 21007KT 10SM -RA FEW006 SCT012 BKN020 08/08 A2979 RMK AO2 P0000=
202404261056 METAR KPWT 261056Z AUTO 21005KT 10SM -RA OVC006 09/09 A2978 RMK AO2 RAB02 CIG 004V008 SLP090 P0001 T00890089=
202404261035 SPECI KPWT 261035Z AUTO 22007KT 10SM -RA BKN006 OVC016 09/09 A2978 RMK AO2 RAB02 CIG 005V010 P0000=
202404260951 METAR KPWT 260951Z AUTO 20007KT 10SM FEW009 SCT013 OVC023 09/09 A2977 RMK AO2 SLP086 T00890089=
202404260950 SPECI KPWT 260950Z AUTO 20007KT 10SM FEW009 SCT013 OVC023 09/09 A2977 RMK AO2=
202404260923 SPECI KPWT 260923Z AUTO 21008KT 10SM BKN013 OVC018 09/09 A2977 RMK AO2=
202404260856 METAR KPWT 260856Z AUTO 20010KT 10SM BKN017 09/09 A2976 RMK AO2 SLP084 P0001 60001 T00890089 50006=
202404260820 SPECI KPWT 260820Z AUTO 20011KT 10SM OVC015 09/09 A2976 RMK AO2 P0001=
202404260756 METAR KPWT 260756Z AUTO 20009KT 10SM BKN013 09/09 A2976 RMK AO2 RAB0657E42 SLP084 P0000 T00890089 401110083=
202404260733 SPECI KPWT 260733Z AUTO 20010KT 10SM -RA FEW006 OVC015 09/09 A2976 RMK AO2 RAB0657 P0000=
202404260656 METAR KPWT 260656Z AUTO 20010KT 7SM OVC006 09/09 A2975 RMK AO2 RAB00E44 CIG 004V008 SLP080 P0000 T00940094=
202404260642 SPECI KPWT 260642Z AUTO 20009KT 10SM -RA BKN006 OVC011 09/09 A2975 RMK AO2 RAB00 CIG 004V008 P0000=
202404260632 SPECI KPWT 260632Z AUTO 21010KT 8SM -RA OVC004 09/09 A2975 RMK AO2 RAB00 CIG 003V008 P0000=
202404260556 METAR KPWT 260556Z AUTO 21010KT 10SM OVC006 09/09 A2974 RMK AO2 RAE18 CIG 004V010 SLP076 P0000 6//// T00940094 10106 20094 51013=
202404260456 METAR KPWT 260456Z AUTO 21012G15KT 10SM -RA BKN006 OVC011 10/10 A2974 RMK AO2 CIG 004V008 SLP075 T01000100=
202404260439 SPECI KPWT 260439Z AUTO 20009KT 10SM -RA FEW004 BKN009 BKN019 10/10 A2973 RMK AO2 CIG 007V012=
202404260356 METAR KPWT 260356Z AUTO 18008KT 10SM -RA SCT006 BKN012 OVC017 10/10 A2972 RMK AO2 SLP069 P0001 T01000100=
202404260343 SPECI KPWT 260343Z AUTO 19010G15KT 10SM -RA SCT006 BKN012 OVC017 10/10 A2972 RMK AO2 P0001=
202404260256 METAR KPWT 260256Z AUTO 18007KT 8SM -RA OVC006 10/10 A2970 RMK AO2 CIG 005V010 SLP063 P0004 60013 T01000100 56006=
202404260156 METAR KPWT 260156Z AUTO 19007KT 10SM -RA BKN007 BKN011 OVC049 10/10 A2970 RMK AO2 CIG 004V010 SLP063 P0005 T01000100=
202404260154 SPECI KPWT 260154Z AUTO 18007KT 140V200 10SM -RA SCT007 BKN011 BKN014 10/10 A2970 RMK AO2 P0005=
202404260145 SPECI KPWT 260145Z AUTO VRB06KT 10SM -RA BKN007 BKN011 OVC017 10/10 A2971 RMK AO2 CIG 004V009 P0005=
202404260137 SPECI KPWT 260137Z AUTO 20005KT 8SM -RA SCT007 BKN011 OVC023 10/10 A2971 RMK AO2 P0004=
202404260056 METAR KPWT 260056Z AUTO VRB04KT 10SM -RA FEW007 BKN021 OVC031 11/11 A2972 RMK AO2 SLP069 P0004 T01060106=
202404252356 METAR KPWT 252356Z AUTO VRB04KT 10SM -RA FEW008 BKN022 OVC028 11/11 A2974 RMK AO2 SLP075 P0005 60015 T01060106 10111 20094 57021=
202404252348 SPECI KPWT 252348Z AUTO VRB06KT 10SM -RA SCT008 SCT011 OVC022 11/11 A2974 RMK AO2 P0005=
202404252256 METAR KPWT 252256Z AUTO 18008KT 4SM -RA BR BKN008 OVC014 10/10 A2975 RMK AO2 CIG 004V011 SLP080 P0002 T01000100=
202404252237 SPECI KPWT 252237Z AUTO 20007KT 9SM -RA BKN007 OVC012 11/11 A2977 RMK AO2 CIG 005V010 P0001=
202404252221 SPECI KPWT 252221Z AUTO 22007KT 10SM -RA BKN010 OVC035 11/11 A2977 RMK AO2 P0000=
202404252213 SPECI KPWT 252213Z AUTO 20006KT 10SM -RA SCT010 BKN015 OVC035 11/11 A2978 RMK AO2 P0000=
202404252156 METAR KPWT 252156Z AUTO 19008KT 10SM -RA BKN009 BKN015 OVC033 11/11 A2978 RMK AO2 CIG 007V012 SLP091 P0001 T01110111=
202404252132 SPECI KPWT 252132Z AUTO 20011KT 10SM -RA BKN009 BKN013 BKN041 11/11 A2979 RMK AO2 CIG 007V011 P0001=
202404252128 SPECI KPWT 252128Z AUTO 18009KT 10SM -RA SCT009 BKN015 11/11 A2979 RMK AO2 P0001=
202404252119 SPECI KPWT 252119Z AUTO 20010KT 10SM -RA SCT012 BKN017 11/11 A2980 RMK AO2 P0001=
202404252109 SPECI KPWT 252109Z AUTO 19010G18KT 10SM -RA SCT012 SCT016 BKN038 10/10 A2980 RMK AO2 P0000=
202404252056 METAR KPWT 252056Z AUTO 20011G15KT 10SM -RA SCT013 SCT019 BKN027 11/11 A2980 RMK AO2 SLP097 P0003 60007 T01060106 58008=
202404252046 SPECI KPWT 252046Z AUTO 19009G17KT 10SM -RA FEW013 SCT030 BKN038 11/11 A2980 RMK AO2 P0002=
202404252018 SPECI KPWT 252018Z AUTO 21012G18KT 10SM -RA SCT011 BKN016 OVC030 11/11 A2981 RMK AO2 P0001=
202404251956 METAR KPWT 251956Z AUTO 20009G17KT 10SM -RA BKN009 BKN019 OVC024 11/11 A2981 RMK AO2 CIG 006V013 SLP099 P0001 T01110106=
202404251856 METAR KPWT 251856Z AUTO 21012G18KT 10SM -RA OVC009 10/10 A2982 RMK AO2 CIG 006V013 SLP102 P0003 T01000100=
202404251839 SPECI KPWT 251839Z AUTO 23011KT 10SM -RA BKN009 BKN013 OVC020 10/10 A2982 RMK AO2 CIG 005V013 P0002=
202404251822 SPECI KPWT 251822Z AUTO 21009KT 10SM -RA SCT007 SCT014 BKN021 10/10 A2983 RMK AO2 P0001=
202404251803 SPECI KPWT 251803Z AUTO 23011KT 10SM -RA SCT013 SCT019 BKN032 09/09 A2982 RMK AO2 P0001=
202404251756 METAR KPWT 251756Z AUTO 23012KT 10SM -RA BKN013 BKN019 BKN032 09/09 A2983 RMK AO2 SLP104 P0002 60026 T00940094 10100 20083 56006=
202404251731 SPECI KPWT 251731Z AUTO 23013KT 10SM -RA SCT007 SCT013 BKN021 09/09 A2983 RMK AO2 P0001=
202404251656 METAR KPWT 251656Z AUTO 23013KT 10SM -RA BKN007 BKN011 09/09 A2983 RMK AO2 CIG 005V010 SLP106 P0004 T00940094=
202404251648 SPECI KPWT 251648Z AUTO 23014G20KT 10SM -RA SCT009 09/09 A2983 RMK AO2 P0003=
202404251556 METAR KPWT 251556Z AUTO 24011KT 10SM -RA BKN008 BKN011 BKN019 09/09 A2984 RMK AO2 CIG 005V009 SLP108 P0003 T00940094=
202404251456 METAR KPWT 251456Z AUTO 23011KT 10SM -RA BKN006 BKN011 OVC028 09/09 A2984 RMK AO2 CIG 004V009 SLP112 P0004 60017 T00890089 56011=
202404251442 SPECI KPWT 251442Z AUTO 22009KT 10SM -RA BKN004 BKN010 OVC027 09/09 A2984 RMK AO2 CIG 003V007 P0003=
202404251356 METAR KPWT 251356Z AUTO 21007KT 6SM -RA BR OVC002 09/09 A2984 RMK AO2 SLP112 P0006 T00890089=
202404251343 SPECI KPWT 251343Z AUTO 22007KT 5SM -RA BR OVC002 09/09 A2985 RMK AO2 P0005=
202404251305 SPECI KPWT 251305Z AUTO 22006KT 2SM -RA BR OVC002 08/08 A2985 RMK AO2 P0001=
202404251256 METAR KPWT 251256Z AUTO 23005KT 3SM -RA BR OVC002 08/08 A2986 RMK AO2 SLP116 P0007 T00830083=
202404251212 SPECI KPWT 251212Z AUTO 26004KT 3SM -RA BR OVC002 08/08 A2987 RMK AO2 P0002=
202404251207 SPECI KPWT 251207Z AUTO 25004KT 2 1/2SM -RA BR OVC004 08/08 A2987 RMK AO2 P0002=
202404251156 METAR KPWT 251156Z AUTO 24005KT 3SM -RA BR OVC004 09/09 A2988 RMK AO2 SLP122 P0004 60009 70009 T00890089 10089 20083 56008=
202404251154 SPECI KPWT 251154Z AUTO 23005KT 3SM -RA BR OVC004 09/09 A2988 RMK AO2 P0004=
202404251138 SPECI KPWT 251138Z AUTO 23004KT 2 1/2SM -RA BR OVC004 08/08 A2989 RMK AO2 P0003=
202404251113 SPECI KPWT 251113Z AUTO 22003KT 3SM -RA BR BKN004 OVC007 08/08 A2989 RMK AO2 P0001=
202404251056 METAR KPWT 251056Z AUTO 18003KT 3SM -RA BR OVC002 08/08 A2990 RMK AO2 SLP130 P0003 T00830083=
202404251054 SPECI KPWT 251054Z AUTO 18003KT 3SM -RA BR OVC002 08/08 A2990 RMK AO2 P0003=
202404251045 SPECI KPWT 251045Z AUTO 21003KT 2 1/2SM -RA BR OVC002 08/08 A2991 RMK AO2 P0003=
202404251016 SPECI KPWT 251016Z AUTO 22003KT 3SM -RA BR OVC002 08/08 A2992 RMK AO2 P0001=
202404250956 METAR KPWT 250956Z AUTO 22004KT 2 1/2SM -RA BR OVC004 08/08 A2993 RMK AO2 CIG 002V006 SLP140 P0001 T00830083=
202404250948 SPECI KPWT 250948Z AUTO 22004KT 3SM -RA BR OVC004 08/08 A2993 RMK AO2 CIG 002V007 P0001=
202404250922 SPECI KPWT 250922Z AUTO 23004KT 4SM -RA BR BKN006 OVC012 08/08 A2995 RMK AO2 CIG 003V009 P0000=
202404250903 SPECI KPWT 250903Z AUTO 19005KT 9SM -RA SCT009 BKN014 OVC021 09/09 A2995 RMK AO2 P0000=
202404250856 METAR KPWT 250856Z AUTO 18005KT 9SM -RA OVC021 09/09 A2996 RMK AO2 RAE26B42 SLP148 P0001 60001 T00890089 58015=
202404250827 SPECI KPWT 250827Z AUTO 19004KT 10SM BKN023 08/08 A2997 RMK AO2 RAE26 P0001=
202404250756 METAR KPWT 250756Z AUTO 18005KT 10SM -RA FEW035 SCT050 08/08 A2998 RMK AO2 SLP155 P0000 T00830083 401390033=
202404250656 METAR KPWT 250656Z AUTO 21003KT 10SM -RA BKN048 OVC100 09/07 A2999 RMK AO2 RAB56 SLP160 P0000 T00890072=
202404250556 METAR KPWT 250556Z AUTO 20005KT 10SM OVC050 09/07 A3000 RMK AO2 SLP163 60000 T00890067 10122 20083 58003=
202404250456 METAR KPWT 250456Z AUTO 18003KT 10SM BKN050 OVC110 09/07 A3001 RMK AO2 SLP166 T00890067=
202404250356 METAR KPWT 250356Z AUTO 20005KT 10SM BKN110 09/07 A3001 RMK AO2 SLP168 T00890067=
202404250256 METAR KPWT 250256Z AUTO 21007KT 10SM BKN060 BKN100 11/07 A3001 RMK AO2 SLP166 60000 T01060067 58008=
202404250156 METAR KPWT 250156Z AUTO 20008KT 10SM OVC050 11/07 A3002 RMK AO2 RAE0059 SLP170 P0000 T01110067=
202404250056 METAR KPWT 250056Z AUTO 19006KT 10SM -RA OVC055 12/06 A3003 RMK AO2 RAB49 SLP172 P0000 T01170061=
202404242356 METAR KPWT 242356Z AUTO 18008KT 10SM OVC055 12/06 A3003 RMK AO2 SLP174 60000 T01220056 10139 20100 56009=
202404242256 METAR KPWT 242256Z AUTO 19011G18KT 10SM FEW070 13/06 A3004 RMK AO2 RAE40 SLP177 P0000 T01330061=
202404242156 METAR KPWT 242156Z AUTO 22013G23KT 10SM -RA BKN055 12/06 A3005 RMK AO2 RAE27B48 SLP181 P0000 T01220056=
202404242056 METAR KPWT 242056Z AUTO 23014KT 10SM -RA FEW043 BKN055 12/07 A3006 RMK AO2 SLP184 P0000 60000 T01220067 53003=
202404241956 METAR KPWT 241956Z AUTO 22010KT 10SM -RA SCT045 BKN055 12/07 A3006 RMK AO2 RAB49 SLP183 P0000 T01220072=
202404241856 METAR KPWT 241856Z AUTO 18010KT 10SM SCT016 12/08 A3005 RMK AO2 SLP182 T01170083=
202404241809 SPECI KPWT 241809Z AUTO 18008KT 10SM SCT007 OVC012 10/09 A3006 RMK AO2=
202404241756 METAR KPWT 241756Z AUTO 20009KT 10SM OVC005 10/09 A3005 RMK AO2 CIG 005V009 SLP182 60000 T01000089 10100 20044 51005=
202404241656 METAR KPWT 241656Z AUTO 19005KT 10SM OVC005 09/09 A3005 RMK AO2 RAB36E46 SLP180 P0000 T00890089=
202404241556 METAR KPWT 241556Z AUTO 22008KT 10SM OVC005 08/08 A3005 RMK AO2 SLP180 T00830078=
202404241504 SPECI KPWT 241504Z AUTO 21004KT 10SM BKN007 BKN090 07/06 A3004 RMK AO2=
202404241456 METAR KPWT 241456Z AUTO 20004KT 10SM SCT009 BKN095 07/06 A3004 RMK AO2 SLP176 T00670056 51002=
202404241356 METAR KPWT 241356Z AUTO 00000KT 10SM OVC110 06/05 A3004 RMK AO2 SLP175 T00560050=
202404241256 METAR KPWT 241256Z AUTO 00000KT 10SM FEW100 05/04 A3003 RMK AO2 SLP173 T00500044=
202404241156 METAR KPWT 241156Z AUTO 06004KT 10SM CLR 04/04 A3003 RMK AO2 SLP174 7//// T00440039 10094 20033 53007=
202404241056 METAR KPWT 241056Z AUTO 00000KT 10SM CLR 04/03 A3002 RMK AO2 SLP170 T00440033=
202404240956 METAR KPWT 240956Z AUTO 00000KT 10SM CLR 03/03 A3002 RMK AO2 SLP168 T00330028=
202404240856 METAR KPWT 240856Z AUTO 00000KT 10SM CLR 04/03 A3001 RMK AO2 SLP167 T00390028 51013=
202404240756 METAR KPWT 240756Z AUTO 00000KT 10SM CLR 05/03 A3000 RMK AO2 SLP164 T00500033 402280044=
202404240656 METAR KPWT 240656Z AUTO 00000KT 10SM CLR 08/04 A2998 RMK AO2 SLP157 T00780044=
202404240556 METAR KPWT 240556Z AUTO 09003KT 10SM CLR 09/05 A2997 RMK AO2 SLP154 6//// T00940050 10228 20094 53023=
202404240456 METAR KPWT 240456Z AUTO 13003KT 10SM CLR 11/04 A2994 RMK AO2 SLP144 T01060044=
202404240356 METAR KPWT 240356Z AUTO 00000KT 10SM CLR 12/04 A2993 RMK AO2 SLP138 T01170039=
202404240256 METAR KPWT 240256Z AUTO 07008KT 10SM CLR 16/03 A2990 RMK AO2 SLP130 6//// T01560033 53003=
202404240156 METAR KPWT 240156Z AUTO 04012KT 10SM CLR 18/04 A2989 RMK AO2 SLP127 T01830039=
202404240056 METAR KPWT 240056Z AUTO 04010KT 10SM CLR 19/03 A2990 RMK AO2 SLP126 T01940028=
202404232356 METAR KPWT 232356Z AUTO VRB03KT 10SM CLR 22/01 A2990 RMK AO2 SLP127 T02220006 10222 20167 58012=
202404232256 METAR KPWT 232256Z AUTO VRB04KT 10SM CLR 21/M01 A2991 RMK AO2 SLP131 T02111011=
202404232156 METAR KPWT 232156Z AUTO 21005KT 10SM CLR 21/M01 A2993 RMK AO2 SLP136 T02111006=
202404232056 METAR KPWT 232056Z AUTO VRB06KT 10SM CLR 20/M01 A2993 RMK AO2 SLP138 T02001011 58011=
202404231956 METAR KPWT 231956Z AUTO 24005KT 9SM CLR 19/01 A2994 RMK AO2 SLP142 T01890011=
202404231856 METAR KPWT 231856Z AUTO VRB03KT 10SM CLR 18/01 A2995 RMK AO2 SLP146 T01830011=
202404231756 METAR KPWT 231756Z AUTO VRB03KT 10SM CLR 17/02 A2996 RMK AO2 SLP149 T01720022 10172 20050 58003=
202404231656 METAR KPWT 231656Z AUTO 04003KT 10SM CLR 15/02 A2997 RMK AO2 SLP153 T01500022=
202404231556 METAR KPWT 231556Z AUTO 00000KT 10SM CLR 13/04 A2998 RMK AO2 SLP155 T01280039=
202404231456 METAR KPWT 231456Z AUTO 00000KT 10SM CLR 11/04 A2997 RMK AO2 SLP154 T01060039 55000=
202404231356 METAR KPWT 231356Z AUTO 00000KT 10SM CLR 05/02 A2997 RMK AO2 SLP153 T00500022=
202404231256 METAR KPWT 231256Z AUTO 05006KT 10SM CLR 08/01 A2996 RMK AO2 SLP151 T00830011=
202404231156 METAR KPWT 231156Z AUTO 04007KT 10SM CLR 09/02 A2997 RMK AO2 SLP154 T00890017 10106 20083 58008=
202404231056 METAR KPWT 231056Z AUTO 05008KT 10SM CLR 09/01 A2999 RMK AO2 SLP158 T00940011=
202404230956 METAR KPWT 230956Z AUTO 00000KT 10SM CLR 09/01 A2999 RMK AO2 SLP159 T00890011=
202404230856 METAR KPWT 230856Z AUTO 05009KT 10SM CLR 10/01 A3000 RMK AO2 SLP162 T01000011 58004=
202404230756 METAR KPWT 230756Z AUTO 06010KT 10SM CLR 10/01 A3001 RMK AO2 SLP166 T01000011 401610028=
202404230656 METAR KPWT 230656Z AUTO 06006KT 10SM CLR 09/01 A3001 RMK AO2 SLP168 T00940011=
202404230556 METAR KPWT 230556Z AUTO 07007KT 10SM CLR 11/01 A3001 RMK AO2 SLP168 T01060006 10161 20100 58005=
202404230456 METAR KPWT 230456Z AUTO 05008KT 10SM CLR 11/01 A3003 RMK AO2 SLP173 T01110011=
202404230356 METAR KPWT 230356Z AUTO 04009KT 10SM CLR 11/01 A3002 RMK AO2 SLP173 T01110011=
202404230256 METAR KPWT 230256Z AUTO 05008KT 10SM CLR 12/02 A3003 RMK AO2 SLP172 T01170017 56012=
202404230156 METAR KPWT 230156Z AUTO 03007KT 10SM CLR 13/M02 A3003 RMK AO2 SLP174 T01331017=
202404230056 METAR KPWT 230056Z AUTO 04011G17KT 10SM CLR 15/M01 A3005 RMK AO2 SLP179 T01501006=
202404222356 METAR KPWT 222356Z AUTO 04011G16KT 10SM CLR 16/02 A3006 RMK AO2 SLP185 T01560017 10161 20117 56026=
202404222256 METAR KPWT 222256Z AUTO 03009G15KT 10SM CLR 16/02 A3009 RMK AO2 SLP192 T01560017=
202404222156 METAR KPWT 222156Z AUTO 03011KT 10SM CLR 15/02 A3011 RMK AO2 SLP202 T01500017=
202404222056 METAR KPWT 222056Z AUTO 04012KT 10SM CLR 14/02 A3014 RMK AO2 SLP211 T01390022 58017=
202404221956 METAR KPWT 221956Z AUTO 04012G19KT 10SM CLR 13/03 A3016 RMK AO2 SLP219 T01280033=
202404221856 METAR KPWT 221856Z AUTO 04014G19KT 10SM CLR 12/04 A3018 RMK AO2 SLP224 T01220039=
202404221756 METAR KPWT 221756Z AUTO 05009G16KT 10SM FEW031 12/05 A3019 RMK AO2 SLP229 T01220050 10128 20028 56013=
202404221656 METAR KPWT 221656Z AUTO 05010KT 10SM FEW026 11/06 A3020 RMK AO2 SLP234 T01060056=
202404221556 METAR KPWT 221556Z AUTO 05009KT 10SM CLR 09/04 A3021 RMK AO2 SLP235 T00890044=
202404221456 METAR KPWT 221456Z AUTO 08005KT 10SM CLR 07/03 A3023 RMK AO2 SLP241 T00670033 56009=
202404221356 METAR KPWT 221356Z AUTO 03004KT 10SM CLR 04/03 A3024 RMK AO2 SLP245 T00440028=
202404221256 METAR KPWT 221256Z AUTO 05006KT 10SM CLR 03/02 A3024 RMK AO2 SLP245 T00330022=
202404221156 METAR KPWT 221156Z AUTO 02005KT 10SM CLR 03/03 A3026 RMK AO2 SLP252 70009 T00280028 10083 20028 58010=
202404221056 METAR KPWT 221056Z AUTO 04003KT 10SM BKN055 06/05 A3027 RMK AO2 SLP256 T00560050=
202404220956 METAR KPWT 220956Z AUTO 06005KT 10SM FEW043 06/04 A3027 RMK AO2 SLP257 T00560044=
202404220856 METAR KPWT 220856Z AUTO 04006KT 10SM BKN043 07/05 A3029 RMK AO2 SLP261 T00670050 56006=
202404220756 METAR KPWT 220756Z AUTO 02003KT 10SM OVC039 07/05 A3029 RMK AO2 SLP263 T00670050 401391011=
202404220656 METAR KPWT 220656Z AUTO 07005KT 10SM OVC060 08/05 A3030 RMK AO2 SLP264 T00780050=
202404220556 METAR KPWT 220556Z AUTO 06004KT 10SM FEW044 OVC060 08/06 A3030 RMK AO2 SLP268 60000 T00830056 10128 20078 58004=
202404220456 METAR KPWT 220456Z AUTO 05004KT 10SM OVC055 09/05 A3031 RMK AO2 SLP271 T00890050=
202404220356 METAR KPWT 220356Z AUTO 03005KT 10SM BKN055 09/05 A3032 RMK AO2 SLP272 T00890050=
202404220256 METAR KPWT 220256Z AUTO 05005KT 10SM CLR 09/04 A3031 RMK AO2 SLP271 60000 T00940044 58007=
202404220156 METAR KPWT 220156Z AUTO 04008KT 10SM FEW037 BKN060 11/05 A3033 RMK AO2 RAE08 SLP276 P0000 T01110050=
202404220056 METAR KPWT 220056Z AUTO 07004KT 10SM -RA FEW031 BKN050 12/06 A3033 RMK AO2 RAB46 SLP279 P0000 T01220056=
202404212356 METAR KPWT 212356Z AUTO 09005KT 10SM BKN031 12/06 A3034 RMK AO2 SLP279 60009 T01220056 10139 20094 58006=
202404212256 METAR KPWT 212256Z AUTO 08004KT 10SM SCT060 12/07 A3035 RMK AO2 RAE30 SLP283 P0002 T01220067=
202404212156 METAR KPWT 212156Z AUTO VRB03KT 6SM RA SCT022 BKN030 OVC043 10/07 A3037 RMK AO2 RAB29 SLP289 P0001 T01000072=
202404212056 METAR KPWT 212056Z AUTO VRB04KT 10SM SCT050 SCT085 12/06 A3035 RMK AO2 RAE16 SLP283 P0000 60006 T01170061 58004=
202404211956 METAR KPWT 211956Z AUTO 15003KT 10SM -RA FEW025 10/07 A3036 RMK AO2 SLP287 P0004 T01000072=
202404211856 METAR KPWT 211856Z AUTO 34005KT 7SM -RA SCT024 BKN031 OVC036 10/07 A3037 RMK AO2 RAB30 SLP288 P0002 T01000067=
202404211756 METAR KPWT 211756Z AUTO 22007KT 10SM BKN033 BKN060 12/04 A3037 RMK AO2 SLP288 T01170044 10117 21011 53002=
202404211728 SPECI KPWT 211728Z AUTO 00000KT 10SM BKN031 11/04 A3036 RMK AO2=
202404211656 METAR KPWT 211656Z AUTO 21012KT 10SM BKN027 11/05 A3036 RMK AO2 SLP287 T01110050=
202404211647 SPECI KPWT 211647Z AUTO 20011KT 10SM BKN027 11/05 A3037 RMK AO2=
202404211556 METAR KPWT 211556Z AUTO 22006KT 10SM SCT014 08/06 A3036 RMK AO2 SLP286 T00830061=
202404211456 METAR KPWT 211456Z AUTO 18005KT 10SM FEW010 06/06 A3036 RMK AO2 SLP287 T00560056 53013=
202404211356 METAR KPWT 211356Z AUTO 00000KT 10SM CLR 02/02 A3035 RMK AO2 SLP283 T00170017 FZRANO=
202404211256 METAR KPWT 211256Z AUTO 00000KT 10SM CLR M01/M01 A3032 RMK AO2 SLPNO T10111011 FZRANO=
202404211156 METAR KPWT 211156Z AUTO 00000KT 10SM CLR 00/00 A3032 RMK AO2 SLPNO 7//// T00000000 10061 20000 51017 FZRANO=
202404211056 METAR KPWT 211056Z AUTO 00000KT 10SM CLR 02/02 A3031 RMK AO2 SLP271 T00170017 FZRANO=
202404210956 METAR KPWT 210956Z AUTO 21006KT 10SM CLR 03/03 A3029 RMK AO2 SLP262 T00330028=
202404210856 METAR KPWT 210856Z AUTO 21006KT 10SM CLR 04/04 A3027 RMK AO2 SLP255 T00440039 51020=
202404210756 METAR KPWT 210756Z AUTO 19008KT 10SM CLR 06/04 A3026 RMK AO2 SLP250 T00560044 402110011=
202404210656 METAR KPWT 210656Z AUTO 20012KT 10SM CLR 06/04 A3024 RMK AO2 SLP244 T00610044=
202404210556 METAR KPWT 210556Z AUTO 20011KT 10SM CLR 06/04 A3021 RMK AO2 SLP235 6//// T00610044 51027=
202404210456 METAR KPWT 210456Z AUTO 21014KT 10SM CLR 07/05 A3019 RMK AO2 SLP229 T00670050=
202404210356 METAR KPWT 210356Z AUTO 22014KT 10SM CLR 07/05 A3016 RMK AO2 PK WND 23026/0315 RAB14E33 SLP218 P0000 T00670050=
202404210256 METAR KPWT 210256Z AUTO 22014G22KT 10SM CLR 08/06 A3013 RMK AO2 SLP209 6//// T00830056=
202404210156 METAR KPWT 210156Z AUTO 22016G22KT 10SM SCT070 10/06 A3011 RMK AO2 SLP203 T01000056=
202404210056 METAR KPWT 210056Z AUTO RMK AO2 SLPNO PWINO FZRANO $=
202404202356 METAR KPWT 202356Z AUTO RMK AO2 RAB07RAEMM SLPNO P0000 6//// 10211 20111 PWINO FZRANO $=
202404202256 METAR KPWT 202256Z AUTO 25019G32KT 10SM FEW055 13/02 A3001 RMK AO2 PK WND 25032/2251 RAB32E51 SLP167 P0000 T01280022=
202404202156 METAR KPWT 202156Z AUTO 25015G22KT 10SM CLR 16/M01 A2997 RMK AO2 SLP151 T01611006=
202404202056 METAR KPWT 202056Z AUTO 21012G19KT 10SM CLR 19/02 A2992 RMK AO2 SLP135 6//// T01940017 56017=
202404201956 METAR KPWT 201956Z AUTO 22015G20KT 10SM CLR 21/01 A2994 RMK AO2 SLP140 T02110006=
202404201856 METAR KPWT 201856Z AUTO VRB06KT 10SM CLR 20/M01 A2995 RMK AO2 SLP145 T02001006=
202404201756 METAR KPWT 201756Z AUTO VRB03KT 10SM CLR 18/M03 A2997 RMK AO2 SLP152 T01781028 10183 20011 56013=
202404201656 METAR KPWT 201656Z AUTO 18004KT 10SM CLR 16/M02 A2998 RMK AO2 SLP156 T01611022=
202404201556 METAR KPWT 201556Z AUTO VRB03KT 10SM CLR 14/M03 A2999 RMK AO2 SLP159 T01441033=
202404201456 METAR KPWT 201456Z AUTO 00000KT 10SM CLR 12/01 A3001 RMK AO2 SLP165 T01170011 56005=
202404201356 METAR KPWT 201356Z AUTO 00000KT 10SM CLR 04/M01 A3001 RMK AO2 SLP167 T00391011=
202404201256 METAR KPWT 201256Z AUTO 00000KT 10SM CLR 03/M01 A3002 RMK AO2 SLP169 T00331011=
202404201156 METAR KPWT 201156Z AUTO 00000KT 10SM CLR 02/M02 A3002 RMK AO2 SLP172 7//// T00171022 10100 20017 55005 FZRANO=
202404201056 METAR KPWT 201056Z AUTO 00000KT 10SM CLR 04/M01 A3002 RMK AO2 SLP171 T00441011=
202404200956 METAR KPWT 200956Z AUTO 02004KT 10SM CLR 08/M03 A3002 RMK AO2 SLP170 T00781028=
202404200856 METAR KPWT 200856Z AUTO 03003KT 10SM CLR 07/M02 A3004 RMK AO2 SLP175 T00671017 58010=
202404200756 METAR KPWT 200756Z AUTO 00000KT 10SM CLR 08/M02 A3005 RMK AO2 SLP181 T00831017 401890067=
202404200656 METAR KPWT 200656Z AUTO 05006KT 10SM CLR 10/M02 A3006 RMK AO2 SLP182 T01001022=
202404200556 METAR KPWT 200556Z AUTO 03003KT 10SM CLR 09/M02 A3007 RMK AO2 SLP185 6//// T00941022 10189 20094 50003=
202404200456 METAR KPWT 200456Z AUTO 06008KT 10SM CLR 12/M03 A3007 RMK AO2 SLP186 T01171028=
202404200356 METAR KPWT 200356Z AUTO 04009KT 10SM CLR 13/M03 A3007 RMK AO2 SLP186 T01331028=
202404200256 METAR KPWT 200256Z AUTO 04009KT 10SM CLR 14/M02 A3006 RMK AO2 SLP183 6//// T01391022 56012=
202404200156 METAR KPWT 200156Z AUTO 03010KT 10SM CLR 17/M03 A3007 RMK AO2 SLP185 T01671028=
202404200056 METAR KPWT 200056Z AUTO 01010KT 10SM CLR 18/M04 A3008 RMK AO2 SLP191 T01831039=
202404192356 METAR KPWT 192356Z AUTO 01009G16KT 10SM CLR 19/M04 A3010 RMK AO2 SLP194 T01891039 10189 20144 56014=
202404192256 METAR KPWT 192256Z AUTO 02011G17KT 10SM CLR 19/M03 A3011 RMK AO2 SLP198 T01891033=
202404192156 METAR KPWT 192156Z AUTO 02013G20KT 350V100 10SM CLR 18/M03 A3012 RMK AO2 SLP203 T01831028=
202404192056 METAR KPWT 192056Z AUTO 02009G16KT 10SM CLR 18/M03 A3014 RMK AO2 SLP208 T01781028 56018=
202404191956 METAR KPWT 191956Z AUTO 07010G17KT 10SM CLR 17/M03 A3015 RMK AO2 SLP213 T01671028=
202404191856 METAR KPWT 191856Z AUTO 04009G15KT 10SM CLR 16/M03 A3018 RMK AO2 SLP222 T01611033=
202404191756 METAR KPWT 191756Z AUTO 07011KT 10SM CLR 14/M04 A3019 RMK AO2 SLP227 T01441044 10150 20072 58010=
202404191656 METAR KPWT 191656Z AUTO 05012KT 10SM CLR 14/M02 A3020 RMK AO2 SLP230 T01391022=
202404191556 METAR KPWT 191556Z AUTO 03007KT 10SM CLR 13/M02 A3021 RMK AO2 SLP235 T01281022=
202404191456 METAR KPWT 191456Z AUTO 04006KT 10SM CLR 11/M02 A3022 RMK AO2 SLP239 T01061017 53006=
202404191356 METAR KPWT 191356Z AUTO 03007KT 10SM CLR 08/M02 A3021 RMK AO2 SLP237 T00831022=
202404191256 METAR KPWT 191256Z AUTO 05008KT 10SM CLR 08/M03 A3020 RMK AO2 SLP232 T00781028=
202404191156 METAR KPWT 191156Z AUTO 05007KT 10SM CLR 08/M03 A3020 RMK AO2 SLP231 T00831028 10117 20072 53002=
202404191056 METAR KPWT 191056Z AUTO 06008KT 10SM CLR 09/M04 A3020 RMK AO2 SLP230 T00891039=
202404190956 METAR KPWT 190956Z AUTO 05008KT 10SM CLR 08/M04 A3020 RMK AO2 SLP229 T00831044=
202404190856 METAR KPWT 190856Z AUTO 06007KT 10SM CLR 09/M05 A3020 RMK AO2 SLP230 T00941050 58000=
202404190756 METAR KPWT 190756Z AUTO 07008KT 10SM CLR 09/M04 A3020 RMK AO2 SLP232 T00941044 401780044=
202404190656 METAR KPWT 190656Z AUTO 05011KT 10SM CLR 11/M04 A3020 RMK AO2 SLP231 T01061044=
202404190556 METAR KPWT 190556Z AUTO 07008KT 10SM CLR 12/M06 A3020 RMK AO2 SLP230 T01171056 10172 20111 52006=
202404190456 METAR KPWT 190456Z AUTO 04008KT 10SM CLR 12/M06 A3019 RMK AO2 SLP228 T01221061=
202404190356 METAR KPWT 190356Z AUTO 03011G16KT 10SM CLR 12/M06 A3019 RMK AO2 SLP227 T01221061=
202404190256 METAR KPWT 190256Z AUTO 03010KT 10SM CLR 13/M05 A3018 RMK AO2 SLP226 T01281050 57007=
202404190156 METAR KPWT 190156Z AUTO 03010KT 10SM CLR 15/M05 A3019 RMK AO2 SLP228 T01501050=
202404190056 METAR KPWT 190056Z AUTO 01011KT 10SM CLR 16/M05 A3020 RMK AO2 SLP230 T01611050=
202404182356 METAR KPWT 182356Z AUTO 03014G17KT 10SM CLR 18/M04 A3020 RMK AO2 SLP233 T01781039 10178 20133 56013=
202404182256 METAR KPWT 182256Z AUTO 01014G20KT 10SM CLR 17/M03 A3021 RMK AO2 SLP236 T01671028=
202404182156 METAR KPWT 182156Z AUTO 02010KT 10SM CLR 17/M03 A3023 RMK AO2 SLP241 T01721028=
202404182056 METAR KPWT 182056Z AUTO 04012G17KT 10SM CLR 16/M02 A3024 RMK AO2 SLP246 T01611022 56018=
202404181956 METAR KPWT 181956Z AUTO 04010G17KT 360V060 10SM CLR 16/00 A3026 RMK AO2 SLP251 T01610000=
202404181856 METAR KPWT 181856Z AUTO 02010KT 10SM CLR 15/01 A3028 RMK AO2 SLP258 T01500011=
202404181756 METAR KPWT 181756Z AUTO 03016KT 10SM CLR 13/M01 A3030 RMK AO2 SLP264 T01331006 10133 20044 56008=
202404181656 METAR KPWT 181656Z AUTO 04011G15KT 10SM CLR 12/02 A3030 RMK AO2 SLP266 T01170017=
202404181556 METAR KPWT 181556Z AUTO 05012KT 10SM CLR 09/01 A3032 RMK AO2 SLP271 T00940006=
202404181456 METAR KPWT 181456Z AUTO 04011KT 10SM CLR 07/01 A3032 RMK AO2 SLP273 T00720011 56001=
202404181356 METAR KPWT 181356Z AUTO 05008KT 10SM CLR 06/01 A3032 RMK AO2 SLP273 T00560011=
202404181256 METAR KPWT 181256Z AUTO 05009KT 10SM CLR 05/01 A3032 RMK AO2 SLP271 T00500011=
202404181156 METAR KPWT 181156Z AUTO 05008KT 10SM CLR 05/00 A3033 RMK AO2 SLP275 7//// T00500000 10067 20017 56007=
202404181056 METAR KPWT 181056Z AUTO 07009KT 10SM CLR 06/M04 A3033 RMK AO2 SLP276 T00611039=
202404180956 METAR KPWT 180956Z AUTO 07006KT 10SM CLR 06/M04 A3034 RMK AO2 SLP279 T00611044=
202404180856 METAR KPWT 180856Z AUTO 05004KT 10SM CLR 06/M05 A3035 RMK AO2 SLP283 T00611050 58013=
202404180756 METAR KPWT 180756Z AUTO 06005KT 10SM CLR 05/M04 A3037 RMK AO2 SLP288 T00501044 401501022=
202404180656 METAR KPWT 180656Z AUTO 03003KT 10SM CLR 02/M03 A3038 RMK AO2 SLP293 T00171028 FZRANO=
202404180556 METAR KPWT 180556Z AUTO 00000KT 10SM CLR 04/M04 A3039 RMK AO2 SLP296 T00441039 10144 20039 53000=
202404180456 METAR KPWT 180456Z AUTO 03004KT 10SM CLR 07/M05 A3039 RMK AO2 SLP294 T00721050=
202404180356 METAR KPWT 180356Z AUTO 05007KT 10SM CLR 09/M05 A3038 RMK AO2 SLP294 T00891050=
202404180256 METAR KPWT 180256Z AUTO 05004KT 10SM CLR 09/M04 A3039 RMK AO2 SLP296 T00941039 56007=
202404180156 METAR KPWT 180156Z AUTO 03007G15KT 10SM CLR 13/M04 A3039 RMK AO2 SLP299 T01281044=
202404180056 METAR KPWT 180056Z AUTO 04011KT 10SM CLR 13/M04 A3040 RMK AO2 SLP301 T01331044=
202404172356 METAR KPWT 172356Z AUTO 03011KT 10SM CLR 14/M03 A3041 RMK AO2 SLP303 6//// T01441028 10150 20106 56009=
202404172256 METAR KPWT 172256Z AUTO 03011G16KT 10SM CLR 14/M03 A3041 RMK AO2 SLP305 T01441028=
202404172156 METAR KPWT 172156Z AUTO 05011G18KT 020V080 10SM CLR 14/M02 A3042 RMK AO2 SLP307 T01441017=
202404172056 METAR KPWT 172056Z AUTO 06009G17KT 10SM CLR 14/M02 A3043 RMK AO2 SLP312 T01391017 58014=
202404171956 METAR KPWT 171956Z AUTO 05008KT 10SM CLR 12/02 A3045 RMK AO2 SLP318 T01220022=
202404171856 METAR KPWT 171856Z AUTO 06005G17KT 10SM CLR 12/02 A3047 RMK AO2 SLP324 T01170022=
202404171756 METAR KPWT 171756Z AUTO VRB05KT 10SM CLR 11/03 A3048 RMK AO2 SLP327 T01110033 10111 21022 51006=
202404171656 METAR KPWT 171656Z AUTO 09005KT 10SM CLR 09/03 A3047 RMK AO2 SLP326 T00890033=
202404171556 METAR KPWT 171556Z AUTO 03005KT 10SM CLR 08/04 A3046 RMK AO2 SLP323 T00780039=
202404171456 METAR KPWT 171456Z AUTO 00000KT 10SM CLR 04/03 A3046 RMK AO2 SLP321 T00440033 53008=
202404171356 METAR KPWT 171356Z AUTO 00000KT 10SM CLR M01/M01 A3044 RMK AO2 SLP316 T10061006 FZRANO=
202404171328 SPECI KPWT 171328Z AUTO 00000KT 5SM BR CLR M02/M02 A3044 RMK AO2 FZRANO=
202404171326 SPECI KPWT 171326Z AUTO 00000KT 1SM BR CLR M02/M02 A3044 RMK AO2 FZRANO=
202404171317 SPECI KPWT 171317Z AUTO 00000KT 1/2SM FZFG CLR M02/M02 A3044 RMK AO2 FZRANO=
202404171315 SPECI KPWT 171315Z AUTO 00000KT 1 1/4SM BR CLR M02/M02 A3044 RMK AO2 FZRANO=
202404171256 METAR KPWT 171256Z AUTO 00000KT 10SM CLR M02/M02 A3044 RMK AO2 SLP314 T10221022 FZRANO=
202404171156 METAR KPWT 171156Z AUTO 00000KT 10SM CLR M02/M02 A3043 RMK AO2 SLP313 T10171017 10022 21022 51009 FZRANO=
202404171056 METAR KPWT 171056Z AUTO 00000KT 10SM CLR M02/M02 A3043 RMK AO2 SLP312 T10171017 FZRANO=
202404170956 METAR KPWT 170956Z AUTO 20004KT 10SM CLR M02/M02 A3042 RMK AO2 SLP307 T10171017 FZRANO=
202404170856 METAR KPWT 170856Z AUTO 00000KT 8SM CLR M01/M01 A3041 RMK AO2 SLP305 T10061006 51006 FZRANO=
202404170756 METAR KPWT 170756Z AUTO 00000KT 8SM CLR 00/00 A3040 RMK AO2 SLP302 T00000000 401220000 FZRANO=
202404170656 METAR KPWT 170656Z AUTO 00000KT 10SM CLR 01/01 A3040 RMK AO2 SLP302 T00060006 FZRANO=
202404170556 METAR KPWT 170556Z AUTO 00000KT 10SM CLR 02/02 A3039 RMK AO2 SLP298 60000 T00170017 10122 20011 51015 FZRANO=
202404170456 METAR KPWT 170456Z AUTO 00000KT 10SM CLR 02/02 A3038 RMK AO2 SLP294 T00170017 FZRANO=
202404170356 METAR KPWT 170356Z AUTO 00000KT 10SM CLR 03/02 A3037 RMK AO2 SLP291 T00330017=
202404170256 METAR KPWT 170256Z AUTO 00000KT 10SM CLR 07/02 A3034 RMK AO2 SLP282 60000 T00720022 53005=
202404170156 METAR KPWT 170156Z AUTO 06005KT 10SM CLR 11/01 A3033 RMK AO2 SLP278 T01060006=
202404170056 METAR KPWT 170056Z AUTO 00000KT 10SM CLR 12/01 A3033 RMK AO2 RAE03 SLP274 P0000 T01170011=
202404162356 METAR KPWT 162356Z AUTO 35005KT 10SM -RA FEW040 SCT050 11/03 A3033 RMK AO2 RAB42 SLP276 P0000 60000 T01110028 10111 20078 55000=
202404162256 METAR KPWT 162256Z AUTO 02010KT 10SM FEW055 11/03 A3033 RMK AO2 RAE04 SLP275 P0000 T01060033=
202404162156 METAR KPWT 162156Z AUTO 04009KT 10SM -RA FEW035 SCT050 09/04 A3033 RMK AO2 RAE07B37 SLP277 P0000 T00940039=
202404162056 METAR KPWT 162056Z AUTO 06007KT 10SM -RA FEW047 BKN060 09/03 A3033 RMK AO2 RAB51 SLP277 P0000 60000 T00940028 55009=
202404161956 METAR KPWT 161956Z AUTO 05006KT 10SM FEW038 SCT045 OVC060 09/01 A3033 RMK AO2 SLP276 T00940011=
202404161856 METAR KPWT 161856Z AUTO VRB06KT 10SM FEW030 BKN037 OVC047 08/02 A3034 RMK AO2 SLP281 T00830022=
202404161825 SPECI KPWT 161825Z AUTO 19003KT 10SM SCT030 BKN041 BKN050 08/02 A3035 RMK AO2=
202404161756 METAR KPWT 161756Z AUTO VRB03KT 10SM BKN026 OVC035 08/02 A3036 RMK AO2 SLP286 60000 T00830017 10089 20044 53001=
202404161747 SPECI KPWT 161747Z AUTO VRB06KT 10SM BKN026 OVC043 08/02 A3035 RMK AO2=
202404161711 SPECI KPWT 161711Z AUTO 15006KT 10SM SCT026 SCT039 BKN047 08/03 A3036 RMK AO2=
202404161656 METAR KPWT 161656Z AUTO VRB03KT 10SM BKN026 BKN042 08/02 A3035 RMK AO2 SLP285 T00780022=
202404161638 SPECI KPWT 161638Z AUTO 14004KT 10SM BKN026 08/02 A3035 RMK AO2=
202404161606 SPECI KPWT 161606Z AUTO VRB03KT 10SM SCT017 SCT022 07/02 A3035 RMK AO2=
202404161556 METAR KPWT 161556Z AUTO 00000KT 10SM BKN017 07/03 A3035 RMK AO2 SLP284 T00670033=
202404161547 SPECI KPWT 161547Z AUTO 00000KT 10SM BKN017 07/03 A3035 RMK AO2=
202404161456 METAR KPWT 161456Z AUTO 00000KT 10SM CLR 06/03 A3035 RMK AO2 SLP284 60000 T00560028 53003=
202404161356 METAR KPWT 161356Z AUTO 00000KT 10SM BKN031 04/03 A3035 RMK AO2 RAB35E50 SLP282 P0000 T00440028=
202404161256 METAR KPWT 161256Z AUTO 04003KT 10SM OVC033 04/03 A3034 RMK AO2 SLP280 T00440033=
202404161156 METAR KPWT 161156Z AUTO 06005KT 10SM FEW019 OVC034 04/03 A3034 RMK AO2 RAE1058 SLP281 P0000 60000 70002 T00440033 10072 20044 51004=
202404161154 SPECI KPWT 161154Z AUTO 07005KT 10SM SCT019 OVC034 04/03 A3034 RMK AO2 RAE1058 P0000=
202404161133 SPECI KPWT 161133Z AUTO 07004KT 10SM BKN019 OVC036 04/03 A3034 RMK AO2 RAE1058 P0000=
202404161056 METAR KPWT 161056Z AUTO 03007KT 10SM -RA FEW013 SCT036 04/03 A3034 RMK AO2 RAB34 SLP279 P0000 T00440033=
202404161041 SPECI KPWT 161041Z AUTO 01007KT 10SM -RA SCT011 SCT018 BKN033 05/04 A3034 RMK AO2 RAB34 P0000=
202404161018 SPECI KPWT 161018Z AUTO 02005KT 10SM OVC013 05/03 A3033 RMK AO2=
202404160956 METAR KPWT 160956Z AUTO 03004KT 10SM SCT016 BKN021 OVC033 04/03 A3033 RMK AO2 SLP275 T00440033=
202404160935 SPECI KPWT 160935Z AUTO 00000KT 10SM OVC031 04/03 A3032 RMK AO2=
202404160856 METAR KPWT 160856Z AUTO 12003KT 10SM OVC027 04/03 A3031 RMK AO2 SLP271 T00440028 51003=
202404160756 METAR KPWT 160756Z AUTO 00000KT 10SM OVC023 05/03 A3031 RMK AO2 SLP270 T00500028 401220050=
202404160737 SPECI KPWT 160737Z AUTO 19003KT 10SM BKN023 OVC044 06/03 A3031 RMK AO2=
202404160720 SPECI KPWT 160720Z AUTO 20003KT 10SM FEW025 OVC044 06/02 A3031 RMK AO2=
202404160656 METAR KPWT 160656Z AUTO 21005KT 10SM OVC023 06/03 A3031 RMK AO2 SLP269 T00610028=
202404160556 METAR KPWT 160556Z AUTO 23006KT 10SM OVC019 07/03 A3030 RMK AO2 SLP266 T00720028 10106 20072 51013=
202404160506 SPECI KPWT 160506Z AUTO 00000KT 10SM BKN028 BKN035 OVC046 08/04 A3030 RMK AO2=
202404160456 METAR KPWT 160456Z AUTO VRB04KT 10SM SCT028 OVC035 08/04 A3030 RMK AO2 SLP264 T00780039=
202404160356 METAR KPWT 160356Z AUTO 05005KT 10SM OVC037 08/04 A3028 RMK AO2 SLP259 T00830039=
202404160256 METAR KPWT 160256Z AUTO 06009KT 10SM OVC036 09/03 A3026 RMK AO2 SLP253 T00890033 51006=
202404160156 METAR KPWT 160156Z AUTO 06007KT 10SM BKN038 09/04 A3025 RMK AO2 SLP250 T00940039=
202404160056 METAR KPWT 160056Z AUTO 05010KT 10SM SCT041 SCT050 10/05 A3026 RMK AO2 SLP251 T01000050=
202404152356 METAR KPWT 152356Z AUTO 04010KT 10SM BKN050 11/06 A3025 RMK AO2 SLP247 60002 T01060056 10122 20094 55003=
202404152256 METAR KPWT 152256Z AUTO 06010KT 10SM SCT048 BKN060 11/07 A3024 RMK AO2 SLP246 T01060067=
202404152156 METAR KPWT 152156Z AUTO 04010KT 10SM FEW065 12/07 A3024 RMK AO2 RAE09 SLP246 P0000 T01170072=
202404152056 METAR KPWT 152056Z AUTO 07007KT 10SM -RA FEW036 OVC045 09/07 A3025 RMK AO2 RAB34 SLP250 P0000 60002 T00940072 53001=
202404151956 METAR KPWT 151956Z AUTO 07007KT 10SM BKN046 09/08 A3025 RMK AO2 RAE28 SLP247 P0001 T00940078=
202404151923 SPECI KPWT 151923Z AUTO 02007KT 10SM -RA FEW023 SCT031 BKN050 09/08 A3024 RMK AO2 P0001=
202404151856 METAR KPWT 151856Z AUTO 35003KT 7SM -RA BKN025 BKN038 09/07 A3025 RMK AO2 RAB33 SLP247 P0001 T00940072=
202404151756 METAR KPWT 151756Z AUTO 22004KT 10SM FEW017 OVC026 09/06 A3025 RMK AO2 SLP249 T00940061 10094 20067 51013=
202404151656 METAR KPWT 151656Z AUTO 22003KT 10SM OVC021 08/06 A3024 RMK AO2 SLP245 T00830061=
202404151617 SPECI KPWT 151617Z AUTO 21004KT 10SM SCT014 BKN018 BKN048 08/07 A3023 RMK AO2=
202404151556 METAR KPWT 151556Z AUTO 22006KT 10SM SCT024 BKN048 08/07 A3023 RMK AO2 SLP242 T00780067=
202404151524 SPECI KPWT 151524Z AUTO 22005KT 10SM OVC015 07/07 A3023 RMK AO2=
202404151456 METAR KPWT 151456Z AUTO 22004KT 10SM OVC013 07/07 A3021 RMK AO2 SLP236 T00720067 53017=
202404151414 SPECI KPWT 151414Z AUTO 19003KT 10SM OVC013 07/06 A3020 RMK AO2=
202404151356 METAR KPWT 151356Z AUTO 00000KT 10SM OVC015 07/06 A3019 RMK AO2 SLP229 T00720061=
202404151256 METAR KPWT 151256Z AUTO 25003KT 10SM OVC015 07/06 A3018 RMK AO2 SLP224 T00720056=
202404151156 METAR KPWT 151156Z AUTO 00000KT 10SM OVC015 07/06 A3016 RMK AO2 SLP218 7//// T00720056 10078 20067 53012=
202404151056 METAR KPWT 151056Z AUTO 00000KT 10SM OVC015 07/05 A3015 RMK AO2 SLP212 T00720050=
202404150956 METAR KPWT 150956Z AUTO 00000KT 10SM OVC017 07/05 A3014 RMK AO2 SLP209 T00720050=
202404150856 METAR KPWT 150856Z AUTO 20003KT 10SM OVC017 07/05 A3013 RMK AO2 SLP206 T00720050 51012=
202404150756 METAR KPWT 150756Z AUTO 18004KT 10SM OVC017 08/05 A3012 RMK AO2 SLP203 T00780050 401890011=
202404150656 METAR KPWT 150656Z AUTO 20005KT 10SM OVC017 08/06 A3011 RMK AO2 SLP202 T00780056=
202404150626 SPECI KPWT 150626Z AUTO 19004KT 10SM BKN019 BKN048 07/06 A3011 RMK AO2=
202404150556 METAR KPWT 150556Z AUTO 18003KT 10SM CLR 07/05 A3009 RMK AO2 SLP195 6//// T00720050 10189 20072 51023=
202404150456 METAR KPWT 150456Z AUTO 20007KT 10SM FEW050 08/06 A3007 RMK AO2 SLP189 T00830056=
202404150356 METAR KPWT 150356Z AUTO 21009G14KT 10SM BKN050 09/06 A3005 RMK AO2 SLP183 T00940061=
202404150256 METAR KPWT 150256Z AUTO 22011KT 10SM CLR 12/06 A3003 RMK AO2 SLP172 6//// T01170061 53009=
202404150156 METAR KPWT 150156Z AUTO 21008KT 10SM CLR 15/08 A3001 RMK AO2 SLP167 T01500078=
202404150056 METAR KPWT 150056Z AUTO 23012KT 10SM FEW042 17/09 A3000 RMK AO2 SLP164 T01720089=
202404142356 METAR KPWT 142356Z AUTO 27007KT 10SM CLR 19/09 A3000 RMK AO2 SLP163 T01890089 10189 20144 56003=
202404142256 METAR KPWT 142256Z AUTO 23007KT 10SM CLR 18/07 A3000 RMK AO2 SLP163 T01830067=
202404142156 METAR KPWT 142156Z AUTO 23007KT 10SM CLR 18/07 A3000 RMK AO2 SLP164 T01830067=
202404142056 METAR KPWT 142056Z AUTO VRB05KT 10SM CLR 18/07 A3001 RMK AO2 SLP165 T01830072 56001=
202404141956 METAR KPWT 141956Z AUTO 23007KT 10SM CLR 17/07 A3001 RMK AO2 SLP165 T01670067=
202404141856 METAR KPWT 141856Z AUTO 25004KT 10SM CLR 16/07 A3000 RMK AO2 SLP164 T01560067=
202404141756 METAR KPWT 141756Z AUTO 23005KT 10SM CLR 14/07 A3001 RMK AO2 SLP166 T01440072 10156 20011 53004=
202404141656 METAR KPWT 141656Z AUTO VRB03KT 10SM CLR 13/07 A3000 RMK AO2 SLP163 T01330067=
202404141556 METAR KPWT 141556Z AUTO 16003KT 10SM CLR 11/07 A3001 RMK AO2 SLP166 T01060067=
202404141456 METAR KPWT 141456Z AUTO 00000KT 10SM CLR 07/07 A3000 RMK AO2 SLP164 T00670067 53011=
202404141356 METAR KPWT 141356Z AUTO 00000KT 10SM CLR 02/02 A2998 RMK AO2 SLP158 T00220022 FZRANO=
202404141352 SPECI KPWT 141352Z AUTO 00000KT 4SM BR CLR 02/02 A2998 RMK AO2 FZRANO=
202404141349 SPECI KPWT 141349Z AUTO 00000KT 1SM BR CLR 02/02 A2998 RMK AO2 FZRANO=
202404141343 SPECI KPWT 141343Z AUTO 00000KT 1/2SM FG CLR 01/01 A2998 RMK AO2 VIS 1/4V5 FZRANO=
202404141340 SPECI KPWT 141340Z AUTO 00000KT 1SM BR CLR 01/01 A2998 RMK AO2 VIS 1/4V5 FZRANO=
202404141256 METAR KPWT 141256Z AUTO 00000KT 10SM CLR 02/02 A2998 RMK AO2 SLP156 T00170017 FZRANO=
202404141156 METAR KPWT 141156Z AUTO 00000KT 10SM CLR 02/02 A2997 RMK AO2 SLP152 T00220022 10106 20017 53005 FZRANO=
202404141056 METAR KPWT 141056Z AUTO 00000KT 10SM CLR 03/03 A2995 RMK AO2 SLP147 T00280028=
202404140956 METAR KPWT 140956Z AUTO 21003KT 10SM CLR 03/03 A2994 RMK AO2 SLP144 T00330033=
202404140856 METAR KPWT 140856Z AUTO 00000KT 10SM CLR 06/04 A2995 RMK AO2 SLP147 T00560039 50000=
202404140756 METAR KPWT 140756Z AUTO 05006KT 10SM CLR 09/05 A2997 RMK AO2 SLP151 T00940050 401720067=
202404140656 METAR KPWT 140656Z AUTO 05008KT 10SM CLR 11/05 A2996 RMK AO2 SLP148 T01060050=
202404140556 METAR KPWT 140556Z AUTO 05005KT 10SM CLR 09/05 A2995 RMK AO2 SLP147 T00940050 10172 20083 50013=
202404140456 METAR KPWT 140456Z AUTO 05003KT 10SM CLR 09/07 A2995 RMK AO2 SLP148 T00940067=
202404140356 METAR KPWT 140356Z AUTO 05003KT 10SM CLR 11/07 A2994 RMK AO2 SLP143 T01110067=
202404140256 METAR KPWT 140256Z AUTO 07004KT 10SM CLR 13/07 A2991 RMK AO2 SLP134 T01280067 53001=
202404140156 METAR KPWT 140156Z AUTO 05005KT 10SM CLR 16/07 A2990 RMK AO2 SLP130 T01560067=
202404140056 METAR KPWT 140056Z AUTO 03006KT 10SM CLR 17/06 A2991 RMK AO2 SLP131 T01720056=
202404132356 METAR KPWT 132356Z AUTO 08008KT 10SM CLR 16/06 A2991 RMK AO2 SLP133 T01560061 10167 20128 58003=
202404132256 METAR KPWT 132256Z AUTO 06005KT 10SM CLR 17/07 A2991 RMK AO2 SLP133 T01670072=
202404132156 METAR KPWT 132156Z AUTO 04008KT 10SM CLR 16/07 A2992 RMK AO2 SLP136 T01560072=
202404132056 METAR KPWT 132056Z AUTO 05009KT 10SM CLR 15/07 A2992 RMK AO2 SLP136 T01500072 56010=
202404131956 METAR KPWT 131956Z AUTO 06009KT 10SM CLR 15/07 A2993 RMK AO2 SLP139 T01500072=
202404131856 METAR KPWT 131856Z AUTO 03007KT 10SM CLR 14/07 A2994 RMK AO2 SLP143 T01390072=
202404131756 METAR KPWT 131756Z AUTO 04009KT 10SM CLR 13/07 A2995 RMK AO2 SLP147 T01280067 10133 20067 52010=
202404131656 METAR KPWT 131656Z AUTO 03009KT 10SM CLR 11/06 A2994 RMK AO2 SLP144 T01110061=
202404131556 METAR KPWT 131556Z AUTO 04010KT 10SM CLR 10/06 A2993 RMK AO2 SLP141 T01000056=
202404131456 METAR KPWT 131456Z AUTO 05008KT 10SM CLR 08/05 A2992 RMK AO2 SLP137 T00780050 50007=
202404131356 METAR KPWT 131356Z AUTO 04005KT 10SM CLR 07/04 A2992 RMK AO2 SLP137 T00670039=
202404131256 METAR KPWT 131256Z AUTO 05009KT 10SM CLR 07/03 A2990 RMK AO2 SLP130 T00720033=
202404131156 METAR KPWT 131156Z AUTO 05008KT 10SM CLR 07/03 A2990 RMK AO2 SLP130 T00720033 10089 20072 50005=
202404131056 METAR KPWT 131056Z AUTO 06005KT 10SM CLR 07/04 A2990 RMK AO2 SLP131 T00720039=
202404130956 METAR KPWT 130956Z AUTO 06006KT 10SM CLR 07/04 A2990 RMK AO2 SLP128 T00720044=
202404130856 METAR KPWT 130856Z AUTO 05008KT 10SM CLR 07/04 A2988 RMK AO2 SLP124 T00720044 51006=
202404130756 METAR KPWT 130756Z AUTO 05009KT 10SM CLR 08/04 A2988 RMK AO2 SLP123 T00830039 401440050=
202404130656 METAR KPWT 130656Z AUTO 04012KT 10SM CLR 09/04 A2987 RMK AO2 SLP120 T00890044=
202404130556 METAR KPWT 130556Z AUTO 05011KT 10SM CLR 09/04 A2987 RMK AO2 SLP119 T00890044 10133 20089 53014=
202404130456 METAR KPWT 130456Z AUTO 05010KT 10SM CLR 09/05 A2985 RMK AO2 SLP115 T00890050=
202404130356 METAR KPWT 130356Z AUTO 04010KT 10SM CLR 10/04 A2983 RMK AO2 SLP107 T01000044=
202404130256 METAR KPWT 130256Z AUTO 05008KT 10SM CLR 11/05 A2982 RMK AO2 SLP104 T01060050 55003=
202404130156 METAR KPWT 130156Z AUTO 07009KT 10SM CLR 12/06 A2982 RMK AO2 SLP103 T01220056=
202404130056 METAR KPWT 130056Z AUTO 04013KT 10SM CLR 13/06 A2982 RMK AO2 SLP103 T01330056=
202404122356 METAR KPWT 122356Z AUTO 05014G19KT 10SM CLR 13/06 A2983 RMK AO2 SLP108 T01330061 10144 20111 55004=
202404122256 METAR KPWT 122256Z AUTO 04011G21KT 10SM CLR 14/06 A2983 RMK AO2 SLP108 T01390061=
202404122156 METAR KPWT 122156Z AUTO 04014G19KT 10SM CLR 14/07 A2983 RMK AO2 SLP108 T01390067=
202404122056 METAR KPWT 122056Z AUTO 05016G19KT 10SM CLR 13/07 A2985 RMK AO2 SLP112 T01330067 58013=
202404121956 METAR KPWT 121956Z AUTO 02010KT 10SM CLR 14/07 A2986 RMK AO2 SLP115 T01390067=
202404121922 SPECI KPWT 121922Z AUTO 01012G17KT 10SM SCT027 13/06 A2987 RMK AO2=
202404121856 METAR KPWT 121856Z AUTO 04010KT 10SM BKN027 12/06 A2988 RMK AO2 SLP123 T01220056=
202404121838 SPECI KPWT 121838Z AUTO 04008G17KT 10SM BKN027 12/06 A2989 RMK AO2=
202404121756 METAR KPWT 121756Z AUTO 04009KT 10SM SCT022 11/06 A2988 RMK AO2 SLP124 T01110061 10117 20056 58000=
202404121745 SPECI KPWT 121745Z AUTO 04008KT 10SM BKN022 12/06 A2988 RMK AO2=
202404121715 SPECI KPWT 121715Z AUTO 04009KT 10SM SCT018 10/06 A2988 RMK AO2=
202404121656 METAR KPWT 121656Z AUTO 04008KT 10SM BKN016 11/07 A2988 RMK AO2 SLP124 T01060067=
202404121642 SPECI KPWT 121642Z AUTO 03007KT 10SM SCT023 09/07 A2988 RMK AO2=
202404121556 METAR KPWT 121556Z AUTO 02007KT 10SM OVC021 08/07 A2989 RMK AO2 SLP127 T00780067=
202404121456 METAR KPWT 121456Z AUTO 03007KT 10SM FEW008 OVC021 07/07 A2988 RMK AO2 SLP125 T00720072 53005=
202404121449 SPECI KPWT 121449Z AUTO 03006KT 10SM SCT008 OVC021 07/07 A2988 RMK AO2=
202404121406 SPECI KPWT 121406Z AUTO 04004KT 10SM BKN006 OVC023 07/07 A2988 RMK AO2=
202404121356 METAR KPWT 121356Z AUTO 04004KT 10SM SCT006 OVC023 07/07 A2988 RMK AO2 SLP121 T00670067=
202404121308 SPECI KPWT 121308Z AUTO 05004KT 10SM BKN023 BKN090 06/06 A2987 RMK AO2=
202404121256 METAR KPWT 121256Z AUTO 00000KT 10SM FEW023 SCT090 06/06 A2987 RMK AO2 SLP119 T00560056=
202404121239 SPECI KPWT 121239Z AUTO 00000KT 10SM SCT008 BKN095 06/06 A2987 RMK AO2=
202404121226 SPECI KPWT 121226Z AUTO 00000KT 10SM BKN008 BKN090 06/06 A2987 RMK AO2 CIG 008V012=
202404121208 SPECI KPWT 121208Z AUTO 00000KT 10SM BKN010 BKN090 06/06 A2987 RMK AO2 CIG 008V012=
202404121201 SPECI KPWT 121201Z AUTO 00000KT 10SM BKN008 BKN012 BKN090 06/06 A2987 RMK AO2 CIG 008V011=
202404121156 METAR KPWT 121156Z AUTO 08003KT 10SM SCT008 BKN090 06/06 A2987 RMK AO2 SLP119 T00610061 10072 20050 50000=
202404121151 SPECI KPWT 121151Z AUTO 00000KT 10SM SCT008 BKN095 06/06 A2987 RMK AO2=
202404121139 SPECI KPWT 121139Z AUTO 07003KT 10SM BKN008 06/06 A2987 RMK AO2=
202404121121 SPECI KPWT 121121Z AUTO 09003KT 10SM FEW008 06/06 A2987 RMK AO2=
202404121056 METAR KPWT 121056Z AUTO 00000KT 10SM FEW065 06/06 A2987 RMK AO2 SLP121 T00560056=
202404120956 METAR KPWT 120956Z AUTO 06003KT 10SM SCT100 06/06 A2987 RMK AO2 SLP119 T00560056=
202404120856 METAR KPWT 120856Z AUTO 00000KT 10SM FEW011 SCT018 06/06 A2987 RMK AO2 SLP120 T00610061 51003=
202404120756 METAR KPWT 120756Z AUTO 00000KT 10SM FEW090 BKN110 07/07 A2987 RMK AO2 SLP118 T00670067 401280028=
202404120656 METAR KPWT 120656Z AUTO 19005KT 10SM BKN110 07/07 A2987 RMK AO2 SLP120 T00720072=
202404120556 METAR KPWT 120556Z AUTO 21006KT 10SM FEW041 06/06 A2986 RMK AO2 SLP117 60000 T00610061 10106 20061 50005=
202404120456 METAR KPWT 120456Z AUTO 18004KT 10SM FEW011 07/07 A2987 RMK AO2 SLP118 T00670067=
202404120356 METAR KPWT 120356Z AUTO 22007KT 10SM CLR 07/07 A2986 RMK AO2 RAE07 SLP117 P0000 T00720072=
202404120256 METAR KPWT 120256Z AUTO 23011G17KT 10SM -RA CLR 08/07 A2985 RMK AO2 RAB02E14B51 SLP113 P0000 60000 T00830072 56009=
202404120219 SPECI KPWT 120219Z AUTO 24013KT 10SM SCT019 09/07 A2985 RMK AO2 RAB02E14 P0000=
202404120206 SPECI KPWT 120206Z AUTO 24014G17KT 10SM -RA BKN019 10/07 A2985 RMK AO2 RAB02 P0000=
202404120156 METAR KPWT 120156Z AUTO 23009KT 10SM SCT019 10/07 A2985 RMK AO2 SLP115 T01000072=
202404120056 METAR KPWT 120056Z AUTO 23011KT 10SM CLR 11/07 A2987 RMK AO2 SLP120 T01060067=
202404112356 METAR KPWT 112356Z AUTO 23012KT 10SM SCT045 OVC050 11/06 A2988 RMK AO2 SLP123 T01060061 10128 20106 56014=
202404112256 METAR KPWT 112256Z AUTO 23014KT 10SM CLR 11/06 A2989 RMK AO2 SLP126 T01110061=
202404112156 METAR KPWT 112156Z AUTO 23013KT 10SM CLR 12/06 A2990 RMK AO2 SLP130 T01170061=
202404112056 METAR KPWT 112056Z AUTO 22013KT 10SM CLR 12/05 A2992 RMK AO2 SLP137 T01170050 56022=
202404111956 METAR KPWT 111956Z AUTO 20012KT 10SM CLR 11/02 A2993 RMK AO2 SLP141 T01110017=
202404111856 METAR KPWT 111856Z AUTO 19010KT 10SM CLR 12/05 A2996 RMK AO2 SLP150 T01220050=
202404111756 METAR KPWT 111756Z AUTO 20009KT 10SM CLR 11/06 A2999 RMK AO2 SLP159 T01110056 10111 20039 58015=
202404111656 METAR KPWT 111656Z AUTO 19007KT 10SM FEW033 09/06 A3000 RMK AO2 SLP165 T00940061=
202404111556 METAR KPWT 111556Z AUTO 22008KT 10SM FEW009 SCT044 08/07 A3002 RMK AO2 SLP172 T00780067=
202404111456 METAR KPWT 111456Z AUTO 00000KT 10SM CLR 06/06 A3003 RMK AO2 SLP174 T00560056 58016=
202404111356 METAR KPWT 111356Z AUTO 00000KT 10SM CLR 05/05 A3005 RMK AO2 SLP181 T00500050=
202404111256 METAR KPWT 111256Z AUTO 00000KT 10SM CLR 04/04 A3007 RMK AO2 SLP186 T00440044=
202404111156 METAR KPWT 111156Z AUTO 00000KT 10SM CLR 04/04 A3008 RMK AO2 SLP190 T00440044 10061 20028 58016=
202404111056 METAR KPWT 111056Z AUTO 00000KT 10SM CLR 04/04 A3010 RMK AO2 SLP199 T00390039=
202404110956 METAR KPWT 110956Z AUTO 00000KT 10SM CLR 03/03 A3011 RMK AO2 SLP201 T00330033=
202404110856 METAR KPWT 110856Z AUTO 00000KT 10SM CLR 04/03 A3013 RMK AO2 SLP207 T00390033 56015=
202404110756 METAR KPWT 110756Z AUTO 00000KT 10SM CLR 05/03 A3014 RMK AO2 SLP211 T00500033 401610022=
202404110656 METAR KPWT 110656Z AUTO 05003KT 10SM CLR 06/04 A3016 RMK AO2 SLP216 T00560039=
202404110556 METAR KPWT 110556Z AUTO 00000KT 10SM CLR 05/04 A3017 RMK AO2 SLP222 T00500039 10144 20044 58011=
202404110456 METAR KPWT 110456Z AUTO 00000KT 10SM OVC110 06/04 A3019 RMK AO2 SLP230 T00610044=
202404110356 METAR KPWT 110356Z AUTO 07003KT 10SM FEW110 08/03 A3020 RMK AO2 SLP232 T00830033=
202404110256 METAR KPWT 110256Z AUTO 05005KT 10SM CLR 11/02 A3020 RMK AO2 SLP233 T01060022 58016=
202404110156 METAR KPWT 110156Z AUTO 04006KT 10SM CLR 13/03 A3022 RMK AO2 SLP237 T01280028=
202404110056 METAR KPWT 110056Z AUTO 03007KT 10SM CLR 14/03 A3024 RMK AO2 SLP245 T01390033=
202404102356 METAR KPWT 102356Z AUTO 06005KT 10SM CLR 14/04 A3025 RMK AO2 SLP249 T01440039 10161 20111 58018=
202404102256 METAR KPWT 102256Z AUTO VRB03KT 10SM CLR 16/04 A3027 RMK AO2 SLP257 T01560039=
202404102156 METAR KPWT 102156Z AUTO 04004KT 10SM CLR 15/04 A3029 RMK AO2 SLP261 T01500044=
202404102056 METAR KPWT 102056Z AUTO 32004KT 10SM CLR 16/04 A3030 RMK AO2 SLP267 T01560039 58013=
202404101956 METAR KPWT 101956Z AUTO 03005KT 10SM CLR 13/04 A3032 RMK AO2 SLP271 T01330039=
202404101856 METAR KPWT 101856Z AUTO VRB04KT 10SM CLR 13/05 A3033 RMK AO2 SLP277 T01330050=
202404101756 METAR KPWT 101756Z AUTO 03004KT 10SM CLR 12/05 A3034 RMK AO2 SLP280 T01170050 10117 20022 58002=
202404101656 METAR KPWT 101656Z AUTO 04006KT 10SM CLR 09/04 A3036 RMK AO2 SLP285 T00940044=
202404101556 METAR KPWT 101556Z AUTO 04007KT 10SM CLR 08/05 A3035 RMK AO2 SLP282 T00780050=
202404101456 METAR KPWT 101456Z AUTO 04007KT 10SM CLR 07/05 A3035 RMK AO2 SLP282 T00670050 56003=
202404101356 METAR KPWT 101356Z AUTO 04003KT 10SM CLR 04/04 A3035 RMK AO2 SLP284 T00440044=
202404101256 METAR KPWT 101256Z AUTO 00000KT 10SM CLR 03/03 A3035 RMK AO2 SLP284 T00330033=
202404101156 METAR KPWT 101156Z AUTO 05004KT 10SM CLR 03/03 A3036 RMK AO2 SLP286 7//// T00280028 10078 20028 58003=
202404101056 METAR KPWT 101056Z AUTO 00000KT 10SM FEW060 04/04 A3037 RMK AO2 SLP288 T00440044=
202404100956 METAR KPWT 100956Z AUTO 00000KT 10SM OVC060 06/06 A3037 RMK AO2 SLP289 T00560056=
202404100856 METAR KPWT 100856Z AUTO 04003KT 10SM BKN060 06/06 A3037 RMK AO2 SLP289 T00560056 51002=
202404100756 METAR KPWT 100756Z AUTO 08004KT 10SM BKN060 07/06 A3037 RMK AO2 SLP288 T00720056 401500050=
202404100656 METAR KPWT 100656Z AUTO 00000KT 10SM OVC055 07/07 A3037 RMK AO2 SLP288 T00720067=
202404100556 METAR KPWT 100556Z AUTO 00000KT 10SM FEW043 BKN055 07/06 A3036 RMK AO2 SLP286 60000 T00720061 10117 20072 51014=
202404100456 METAR KPWT 100456Z AUTO 00000KT 10SM SCT041 BKN060 09/06 A3035 RMK AO2 SLP285 T00890056=
202404100356 METAR KPWT 100356Z AUTO 00000KT 10SM BKN039 BKN055 09/07 A3034 RMK AO2 RAB18E49 SLP281 P0000 T00890067=
202404100256 METAR KPWT 100256Z AUTO 02004KT 10SM OVC041 09/04 A3032 RMK AO2 SLP273 T00940039 53007=
202404100156 METAR KPWT 100156Z AUTO 07004KT 10SM FEW042 10/05 A3031 RMK AO2 SLP269 T01000050=
202404100056 METAR KPWT 100056Z AUTO 05008KT 10SM SCT042 BKN049 11/05 A3031 RMK AO2 SLP267 T01110050=
202404092356 METAR KPWT 092356Z AUTO 04012G16KT 10SM CLR 11/04 A3030 RMK AO2 SLP266 6//// T01110039 10150 20106 51009=
202404092256 METAR KPWT 092256Z AUTO 06011KT 10SM CLR 12/06 A3029 RMK AO2 SLP263 T01220056=
202404092156 METAR KPWT 092156Z AUTO 05013KT 10SM BKN070 12/07 A3028 RMK AO2 SLP260 T01170067=
202404092056 METAR KPWT 092056Z AUTO 04012KT 10SM SCT042 BKN050 BKN060 12/07 A3027 RMK AO2 SLP256 6//// T01170072 53010=
202404091956 METAR KPWT 091956Z AUTO 19009KT 10SM FEW060 14/03 A3026 RMK AO2 SLP252 T01440033=
202404091856 METAR KPWT 091856Z AUTO 23009KT 10SM FEW035 SCT047 14/06 A3025 RMK AO2 SLP249 T01390056=
202404091756 METAR KPWT 091756Z AUTO 23007KT 10SM FEW017 BKN055 12/08 A3024 RMK AO2 SLP246 T01170078 10117 20050 51015=
202404091724 SPECI KPWT 091724Z AUTO 21006KT 10SM SCT013 11/09 A3024 RMK AO2=
202404091656 METAR KPWT 091656Z AUTO 24009KT 10SM BKN013 BKN065 11/09 A3023 RMK AO2 SLP243 T01110089=
202404091648 SPECI KPWT 091648Z AUTO VRB05KT 10SM SCT011 BKN016 BKN065 11/09 A3023 RMK AO2=
202404091556 METAR KPWT 091556Z AUTO 00000KT 10SM OVC009 09/08 A3022 RMK AO2 SLP238 T00890083=
202404091518 SPECI KPWT 091518Z AUTO 31003KT 10SM OVC009 08/08 A3021 RMK AO2=
202404091456 METAR KPWT 091456Z AUTO 32003KT 10SM BKN011 07/07 A3020 RMK AO2 SLP232 T00720072 53024=
202404091356 METAR KPWT 091356Z AUTO 00000KT 10SM FEW009 06/06 A3017 RMK AO2 SLP222 T00610061=
202404091256 METAR KPWT 091256Z AUTO 25005KT 10SM CLR 06/06 A3015 RMK AO2 SLP214 T00610061=
202404091156 METAR KPWT 091156Z AUTO 24003KT 10SM FEW010 07/07 A3013 RMK AO2 RAE04 SLP208 P0000 60001 70042 T00670067 10089 20067 53013=
202404091134 SPECI KPWT 091134Z AUTO 21005KT 10SM BKN010 08/08 A3012 RMK AO2 RAE04 CIG 007V013 P0000=
202404091056 METAR KPWT 091056Z AUTO 21003KT 10SM -RA BKN006 09/09 A3012 RMK AO2 RAB37 SLP203 P0000 T00890089=
202404091048 SPECI KPWT 091048Z AUTO 25003KT 10SM -RA BKN006 BKN065 09/09 A3011 RMK AO2 RAB37 P0000=
202404091025 SPECI KPWT 091025Z AUTO 21008KT 10SM SCT006 SCT009 BKN060 09/09 A3010 RMK AO2=
202404090956 METAR KPWT 090956Z AUTO 19013G19KT 10SM OVC006 09/09 A3009 RMK AO2 CIG 004V009 SLP194 T00890089=
202404090904 SPECI KPWT 090904Z AUTO 20014KT 10SM OVC006 09/09 A3009 RMK AO2 CIG 003V010=
202404090856 METAR KPWT 090856Z AUTO 19014G21KT 10SM BKN004 OVC009 09/09 A3009 RMK AO2 CIG 003V008 SLP193 60001 T00890089 50001=
202404090756 METAR KPWT 090756Z AUTO 20012KT 10SM OVC004 09/09 A3009 RMK AO2 RAE37 SLP195 P0000 T00890089 401000039=
202404090656 METAR KPWT 090656Z AUTO 19010G16KT 9SM -RA OVC004 09/09 A3008 RMK AO2 SLP193 P0001 T00890089=
202404090556 METAR KPWT 090556Z AUTO 19010G16KT 10SM -RA OVC004 09/09 A3008 RMK AO2 SLP193 P0002 60034 T00890089 10089 20083 50003=
202404090456 METAR KPWT 090456Z AUTO 19014G17KT 10SM -RA OVC004 09/09 A3009 RMK AO2 SLP196 P0004 T00890089=
202404090356 METAR KPWT 090356Z AUTO 20014G18KT 6SM -RA BR OVC004 08/08 A3008 RMK AO2 SLP193 P0009 T00830083=
202404090256 METAR KPWT 090256Z AUTO 19013G17KT 7SM -RA OVC004 08/08 A3008 RMK AO2 SLP190 P0007 60019 T00830083 58009=
202404090156 METAR KPWT 090156Z AUTO 20014G20KT 5SM -RA BR OVC004 08/08 A3009 RMK AO2 SLP194 P0010 T00830083=
202404090146 SPECI KPWT 090146Z AUTO 19009G16KT 6SM -RA BR OVC004 08/08 A3009 RMK AO2 P0009=
202404090056 METAR KPWT 090056Z AUTO 20010KT 4SM -RA BR OVC006 08/08 A3010 RMK AO2 CIG 005V010 SLP199 P0002 T00830083=
202404090036 SPECI KPWT 090036Z AUTO 20011G20KT 6SM -RA BR OVC008 08/08 A3010 RMK AO2 CIG 007V011 P0001=
202404082356 METAR KPWT 082356Z AUTO 19011G18KT 10SM -RA BKN014 OVC022 09/09 A3010 RMK AO2 SLP200 P0001 60002 T00890089 10100 20067 58007=
202404082348 SPECI KPWT 082348Z AUTO 19017G23KT 10SM -RA BKN014 OVC022 09/09 A3011 RMK AO2 P0000=
202404082256 METAR KPWT 082256Z AUTO 19012G22KT 10SM -RA OVC016 09/08 A3012 RMK AO2 SLP205 P0000 T00940083=
202404082156 METAR KPWT 082156Z AUTO 21014G21KT 10SM -RA OVC018 10/08 A3013 RMK AO2 RAB33 SLP207 P0001 T01000083=
202404082056 METAR KPWT 082056Z AUTO 21018G23KT 10SM BKN018 OVC026 10/08 A3013 RMK AO2 SLP207 60000 T01000083 58017=
202404082024 SPECI KPWT 082024Z AUTO 20013KT 10SM BKN016 OVC022 08/08 A3014 RMK AO2=
202404081956 METAR KPWT 081956Z AUTO 19011G16KT 10SM OVC014 08/08 A3014 RMK AO2 RAE46 SLP214 P0000 T00780078=
202404081924 SPECI KPWT 081924Z AUTO 19005KT 10SM -RA OVC014 07/07 A3015 RMK AO2 P0000=
202404081856 METAR KPWT 081856Z AUTO 19006KT 10SM -RA OVC016 07/07 A3017 RMK AO2 SLP222 P0000 T00670067=
202404081835 SPECI KPWT 081835Z AUTO 18008KT 10SM -RA OVC016 07/07 A3017 RMK AO2 P0000=
202404081756 METAR KPWT 081756Z AUTO 20007KT 10SM -RA BKN012 OVC018 07/07 A3018 RMK AO2 RAE33B52 SLP225 P0000 60005 T00670067 10067 20050 58006=
202404081743 SPECI KPWT 081743Z AUTO 20008KT 10SM OVC012 07/07 A3018 RMK AO2 RAE33 P0000=
202404081734 SPECI KPWT 081734Z AUTO 19009KT 10SM BKN009 OVC014 06/06 A3018 RMK AO2 RAE33 CIG 006V013 P0000=
202404081656 METAR KPWT 081656Z AUTO 19009KT 10SM -RA SCT008 BKN014 OVC028 06/06 A3019 RMK AO2 SLP229 P0001 T00610061=
202404081653 SPECI KPWT 081653Z AUTO 19007KT 10SM -RA SCT008 BKN014 OVC028 06/06 A3019 RMK AO2 P0001=
202404081642 SPECI KPWT 081642Z AUTO 19010KT 10SM -RA BKN008 BKN015 OVC026 06/06 A3019 RMK AO2 CIG 005V011 P0001=
202404081632 SPECI KPWT 081632Z AUTO 19008KT 10SM -RA SCT008 BKN013 OVC026 06/06 A3019 RMK AO2 P0001=
202404081556 METAR KPWT 081556Z AUTO 18009KT 10SM -RA FEW008 OVC024 06/06 A3019 RMK AO2 SLP231 P0002 T00560056=
202404081526 SPECI KPWT 081526Z AUTO 20010KT 10SM -RA SCT006 OVC024 06/06 A3019 RMK AO2 P0001=
202404081456 METAR KPWT 081456Z AUTO 19006KT 10SM -RA BKN008 OVC024 06/06 A3019 RMK AO2 CIG 005V011 SLP230 P0002 60002 T00560056 55001 TSNO=
202404081430 SPECI KPWT 081430Z AUTO 19005KT 10SM -RA BKN008 OVC024 05/05 A3019 RMK AO2 CIG 005V011 P0000 TSNO=
202404081407 SPECI KPWT 081407Z AUTO 20005KT 10SM -RA FEW008 OVC024 05/05 A3019 RMK AO2 P0000 TSNO=
202404081356 METAR KPWT 081356Z AUTO 20004KT 10SM -RA OVC024 05/05 A3019 RMK AO2 SLP230 P0000 T00500050 TSNO=
202404081256 METAR KPWT 081256Z AUTO 20008KT 10SM -RA FEW019 OVC027 06/05 A3019 RMK AO2 RAB53 SLP229 P0000 T00560050 TSNO=
202404081248 SPECI KPWT 081248Z AUTO 20006KT 10SM BKN026 BKN033 06/04 A3019 RMK AO2 TSNO=
202404081212 SPECI KPWT 081212Z AUTO 18008KT 10SM FEW022 BKN030 OVC100 06/04 A3019 RMK AO2 TSNO=
202404081156 METAR KPWT 081156Z AUTO 18007KT 10SM SCT022 OVC028 06/04 A3020 RMK AO2 SLP231 T00560044 10056 20039 55007 TSNO=
202404081145 SPECI KPWT 081145Z AUTO 20006KT 10SM FEW020 BKN028 06/04 A3020 RMK AO2 TSNO=
202404081056 METAR KPWT 081056Z AUTO 20009KT 10SM FEW026 BKN035 BKN120 06/04 A3020 RMK AO2 SLP230 T00560044 TSNO=
202404080956 METAR KPWT 080956Z AUTO 20007KT 10SM OVC110 06/04 A3021 RMK AO2 SLP234 T00560044 TSNO=
202404080856 METAR KPWT 080856Z AUTO 19006KT 10SM OVC110 05/04 A3022 RMK AO2 SLP238 T00500044 58003 TSNO=
202404080756 METAR KPWT 080756Z AUTO 19003KT 10SM BKN110 04/03 A3022 RMK AO2 SLP240 T00440033 401220011=
202404080656 METAR KPWT 080656Z AUTO 16003KT 10SM CLR 05/04 A3023 RMK AO2 SLP242 T00500039=
202404080556 METAR KPWT 080556Z AUTO 19005KT 10SM CLR 06/04 A3023 RMK AO2 SLP242 T00560039 10117 20050 51009=
202404080456 METAR KPWT 080456Z AUTO 21004KT 10SM CLR 06/03 A3022 RMK AO2 SLP239 T00560033=
202404080356 METAR KPWT 080356Z AUTO 21007KT 10SM CLR 07/03 A3022 RMK AO2 SLP238 T00670028=
202404080256 METAR KPWT 080256Z AUTO 22009KT 10SM CLR 08/03 A3020 RMK AO2 SLP232 T00830028 53002=
202404080156 METAR KPWT 080156Z AUTO 21012KT 10SM CLR 10/03 A3020 RMK AO2 SLP231 T01000028=
202404080056 METAR KPWT 080056Z AUTO 23012G20KT 10SM CLR 11/03 A3019 RMK AO2 SLP229 T01060028=
202404072356 METAR KPWT 072356Z AUTO 22016KT 10SM CLR 12/03 A3019 RMK AO2 SLP230 60000 T01170028 10122 20078 55006=
202404072256 METAR KPWT 072256Z AUTO 21014G20KT 10SM CLR 12/04 A3019 RMK AO2 SLP228 T01170044=
202404072156 METAR KPWT 072156Z AUTO 20012KT 10SM FEW025 11/06 A3021 RMK AO2 SLP236 T01110061=
202404072056 METAR KPWT 072056Z AUTO 20014G19KT 10SM CLR 12/06 A3021 RMK AO2 SLP235 60000 T01220061 58007=
202404071956 METAR KPWT 071956Z AUTO 20010G17KT 10SM FEW035 11/07 A3023 RMK AO2 RAE00 SLP242 P0000 T01060067=
202404071856 METAR KPWT 071856Z AUTO 19008KT 10SM -RA FEW027 08/08 A3024 RMK AO2 RAB1757 SLP246 P0000 T00830078=
202404071831 SPECI KPWT 071831Z AUTO 21008KT 10SM -RA FEW015 SCT020 BKN043 08/07 A3024 RMK AO2 RAB1757 P0000=
202404071756 METAR KPWT 071756Z AUTO 24009KT 10SM BKN016 OVC024 09/07 A3023 RMK AO2 SLP244 60000 T00940072 10094 20044 55000=
202404071753 SPECI KPWT 071753Z AUTO 25009KT 10SM BKN016 OVC022 09/07 A3023 RMK AO2=
202404071734 SPECI KPWT 071734Z AUTO 22010G15KT 10SM BKN012 OVC020 09/07 A3023 RMK AO2=
202404071656 METAR KPWT 071656Z AUTO 22010KT 10SM BKN007 OVC012 08/08 A3023 RMK AO2 CIG 006V010 SLP245 T00830078=
202404071651 SPECI KPWT 071651Z AUTO 22010KT 10SM BKN007 OVC012 08/08 A3023 RMK AO2 CIG 005V010=
202404071558 SPECI KPWT 071558Z AUTO 20007KT 10SM BKN005 OVC019 07/07 A3023 RMK AO2 CIG 003V008=
202404071556 METAR KPWT 071556Z AUTO 20007KT 10SM SCT003 SCT008 OVC019 07/07 A3023 RMK AO2 RAB29E51 SLP244 P0000 T00670067=
202404071531 SPECI KPWT 071531Z AUTO 19007KT 5SM -RA BR BKN003 BKN013 06/06 A3023 RMK AO2 RAB29 P0000=
202404071522 SPECI KPWT 071522Z AUTO 20007KT 10SM SCT003 BKN013 06/06 A3023 RMK AO2=
202404071515 SPECI KPWT 071515Z AUTO 20007KT 9SM FEW003 SCT013 06/06 A3022 RMK AO2=
202404071508 SPECI KPWT 071508Z AUTO 20007KT 9SM SCT003 SCT013 BKN019 06/06 A3022 RMK AO2=
202404071456 METAR KPWT 071456Z AUTO 19006KT 10SM SCT013 SCT019 06/06 A3022 RMK AO2 SLP239 T00610061 53006=
202404071441 SPECI KPWT 071441Z AUTO 19007KT 10SM BKN013 BKN027 06/06 A3022 RMK AO2=
202404071356 METAR KPWT 071356Z AUTO 19006KT 10SM SCT012 SCT110 05/05 A3021 RMK AO2 SLP238 T00500050=
202404071328 SPECI KPWT 071328Z AUTO 18006KT 10SM SCT005 BKN033 05/05 A3021 RMK AO2=
202404071256 METAR KPWT 071256Z AUTO 20003KT 10SM OVC005 04/04 A3021 RMK AO2 SLP236 T00440044=
202404071213 SPECI KPWT 071213Z AUTO 00000KT 10SM OVC005 03/03 A3020 RMK AO2=
202404071156 METAR KPWT 071156Z AUTO 00000KT 10SM BKN007 03/03 A3020 RMK AO2 CIG 003V009 SLP234 T00280028 10050 20011 51004=
202404071147 SPECI KPWT 071147Z AUTO 00000KT 10SM SCT004 SCT009 03/03 A3020 RMK AO2=
202404071117 SPECI KPWT 071117Z AUTO 00000KT 10SM BKN004 OVC040 02/02 A3020 RMK AO2 CIG 003V007 FZRANO=
202404071105 SPECI KPWT 071105Z AUTO 00000KT 9SM BKN006 BKN040 02/02 A3020 RMK AO2 FZRANO=
202404071056 METAR KPWT 071056Z AUTO 00000KT 2SM BR FEW006 SCT040 02/02 A3020 RMK AO2 VIS 3/4V5 SLP233 T00220022 FZRANO=
202404071052 SPECI KPWT 071052Z AUTO 00000KT 2 1/2SM BR SCT040 03/03 A3020 RMK AO2 VIS 3/4V5=
202404071037 SPECI KPWT 071037Z AUTO 00000KT 1 3/4SM BR CLR 02/02 A3019 RMK AO2 VIS 3/4V5 FZRANO=
202404071022 SPECI KPWT 071022Z AUTO 00000KT 9SM CLR 03/03 A3020 RMK AO2=
202404071012 SPECI KPWT 071012Z AUTO 00000KT 2SM BR FEW003 03/03 A3019 RMK AO2=
202404070956 METAR KPWT 070956Z AUTO 00000KT 7SM FEW029 03/03 A3019 RMK AO2 SLP230 T00330033=
202404070922 SPECI KPWT 070922Z AUTO 00000KT 10SM SCT029 OVC040 04/04 A3019 RMK AO2=
202404070856 METAR KPWT 070856Z AUTO 00000KT 10SM BKN023 OVC028 04/04 A3019 RMK AO2 SLP230 T00440044 51009=
202404070756 METAR KPWT 070756Z AUTO 20004KT 10SM BKN017 OVC023 05/05 A3019 RMK AO2 SLP229 T00500050 400830039=
202404070656 METAR KPWT 070656Z AUTO 00000KT 10SM BKN017 OVC023 05/05 A3017 RMK AO2 SLP224 T00500050=
202404070646 SPECI KPWT 070646Z AUTO 00000KT 10SM BKN021 BKN080 04/04 A3017 RMK AO2=
202404070556 METAR KPWT 070556Z AUTO 00000KT 10SM FEW080 05/05 A3016 RMK AO2 SLP220 T00500050 10078 20039 53010=
202404070456 METAR KPWT 070456Z AUTO 00000KT 10SM CLR 04/04 A3015 RMK AO2 SLP218 T00390039=
202404070356 METAR KPWT 070356Z AUTO 17003KT 10SM CLR 06/06 A3014 RMK AO2 SLP212 T00610061=
202404070331 SPECI KPWT 070331Z AUTO 14003KT 10SM FEW016 07/07 A3013 RMK AO2=
202404070311 SPECI KPWT 070311Z AUTO 15003KT 10SM FEW010 OVC014 07/07 A3013 RMK AO2=
202404070256 METAR KPWT 070256Z AUTO VRB04KT 10SM OVC016 07/07 A3013 RMK AO2 SLP210 T00720067 51002=
202404070156 METAR KPWT 070156Z AUTO 15003KT 10SM BKN018 OVC025 07/07 A3013 RMK AO2 SLP210 T00720067=
202404070056 METAR KPWT 070056Z AUTO 18007KT 10SM SCT010 OVC025 08/06 A3013 RMK AO2 SLP209 T00780061=
202404070013 SPECI KPWT 070013Z AUTO 19008KT 10SM FEW013 OVC023 08/06 A3013 RMK AO2=
202404070004 SPECI KPWT 070004Z AUTO 20006KT 10SM BKN013 OVC019 08/06 A3013 RMK AO2=
202404062356 METAR KPWT 062356Z AUTO 20008KT 10SM BKN015 OVC021 08/06 A3013 RMK AO2 SLP209 60000 T00780061 10083 20061 55000=
202404062256 METAR KPWT 062256Z AUTO 19009KT 10SM BKN015 OVC020 08/06 A3012 RMK AO2 SLP207 T00780056=
202404062156 METAR KPWT 062156Z AUTO 19009KT 10SM BKN015 07/05 A3013 RMK AO2 SLP207 T00720050=
202404062056 METAR KPWT 062056Z AUTO 20012G18KT 10SM BKN015 OVC028 07/05 A3013 RMK AO2 RAE39 SLP208 P0000 60000 T00720050 51006=
202404062048 SPECI KPWT 062048Z AUTO 20011G18KT 10SM BKN013 BKN021 OVC028 07/05 A3013 RMK AO2 RAE39 P0000=
202404061956 METAR KPWT 061956Z AUTO 21012KT 10SM -RA OVC018 07/06 A3013 RMK AO2 SLP207 P0000 T00670056=
202404061936 SPECI KPWT 061936Z AUTO 22009KT 10SM -RA BKN018 BKN027 07/04 A3013 RMK AO2 P0000=
202404061921 SPECI KPWT 061921Z AUTO 18006KT 10SM -RA SCT020 SCT027 07/04 A3013 RMK AO2 P0000=
202404061856 METAR KPWT 061856Z AUTO 20011KT 10SM -RA BKN018 07/04 A3012 RMK AO2 RAB1758 SLP207 P0000 T00720044=
202404061843 SPECI KPWT 061843Z AUTO 20007KT 10SM -RA SCT023 07/04 A3012 RMK AO2 RAB1758 P0000=
202404061806 SPECI KPWT 061806Z AUTO 20007KT 10SM -RA BKN019 07/04 A3011 RMK AO2 RAB1758 P0000=
202404061756 METAR KPWT 061756Z AUTO 20010KT 10SM SCT019 08/04 A3011 RMK AO2 RAE38 SLP202 P0000 60000 T00780044 10078 20039 51022=
202404061727 SPECI KPWT 061727Z AUTO 20011G15KT 10SM -RA SCT027 07/04 A3010 RMK AO2 P0000=
202404061706 SPECI KPWT 061706Z AUTO 20009KT 10SM -RA BKN025 07/04 A3010 RMK AO2 P0000=
202404061656 METAR KPWT 061656Z AUTO 20010KT 10SM -RA SCT025 SCT030 SCT080 07/04 A3009 RMK AO2 RAB56 SLP196 P0000 T00720039=
202404061556 METAR KPWT 061556Z AUTO 18008KT 10SM CLR 07/04 A3007 RMK AO2 SLP187 T00670044=
202404061456 METAR KPWT 061456Z AUTO 20011KT 10SM CLR 06/04 A3004 RMK AO2 SLP179 T00560044 53016=
202404061356 METAR KPWT 061356Z AUTO 20007KT 10SM CLR 04/04 A3002 RMK AO2 SLP172 T00440039=
202404061256 METAR KPWT 061256Z AUTO 19007KT 10SM CLR 04/04 A3000 RMK AO2 SLP166 T00390039=
202404061156 METAR KPWT 061156Z AUTO 21006KT 10SM BKN050 04/04 A2999 RMK AO2 SLP162 T00440039 10072 20044 51012=
202404061056 METAR KPWT 061056Z AUTO 21005KT 10SM CLR 04/04 A2998 RMK AO2 SLP159 T00440039=
202404060956 METAR KPWT 060956Z AUTO 20008KT 10SM OVC043 06/04 A2997 RMK AO2 SLP153 T00560039=
202404060856 METAR KPWT 060856Z AUTO 18004KT 10SM SCT085 06/04 A2996 RMK AO2 SLP149 T00610039 52017=
202404060756 METAR KPWT 060756Z AUTO 20005KT 10SM CLR 07/03 A2994 RMK AO2 SLP143 T00670033 401110039=
202404060656 METAR KPWT 060656Z AUTO 20004KT 10SM CLR 07/03 A2992 RMK AO2 SLP138 T00670033=
202404060556 METAR KPWT 060556Z AUTO 20008KT 10SM BKN085 07/04 A2991 RMK AO2 SLP132 T00720039 10106 20072 51015=
202404060456 METAR KPWT 060456Z AUTO 20009KT 10SM BKN085 08/03 A2989 RMK AO2 SLP127 T00780033=
202404060356 METAR KPWT 060356Z AUTO 19007KT 10SM BKN090 08/05 A2988 RMK AO2 SLP124 T00830050=
202404060256 METAR KPWT 060256Z AUTO 18007KT 10SM FEW060 09/06 A2986 RMK AO2 SLP117 T00890056 51005=
202404060156 METAR KPWT 060156Z AUTO 22008KT 10SM FEW070 10/05 A2986 RMK AO2 SLP116 T01000050=
202404060056 METAR KPWT 060056Z AUTO 21007KT 10SM FEW100 10/04 A2985 RMK AO2 SLP114 T01000044=
202404052356 METAR KPWT 052356Z AUTO 18005KT 10SM FEW036 SCT080 11/04 A2984 RMK AO2 SLP112 T01060039 10111 20072 53006=
202404052256 METAR KPWT 052256Z AUTO 22009KT 10SM BKN080 11/03 A2983 RMK AO2 SLP107 T01110028=
202404052156 METAR KPWT 052156Z AUTO 15006KT 10SM BKN075 10/02 A2983 RMK AO2 SLP107 T01000022=
202404052056 METAR KPWT 052056Z AUTO 20005KT 10SM FEW034 SCT070 10/03 A2983 RMK AO2 SLP105 T01000028 53006=
202404051956 METAR KPWT 051956Z AUTO 24004KT 10SM OVC070 10/03 A2982 RMK AO2 SLP102 T01000028=
202404051856 METAR KPWT 051856Z AUTO 24004KT 10SM OVC060 08/04 A2981 RMK AO2 SLP101 T00830044=
202404051756 METAR KPWT 051756Z AUTO VRB03KT 10SM BKN060 07/04 A2981 RMK AO2 SLP100 60000 T00720044 10072 20039 53006=
202404051656 METAR KPWT 051656Z AUTO 21005KT 10SM BKN065 06/04 A2979 RMK AO2 SLP095 T00610044=
202404051630 SPECI KPWT 051630Z AUTO 21006KT 10SM FEW009 SCT065 06/04 A2980 RMK AO2=
202404051556 METAR KPWT 051556Z AUTO 21004KT 10SM SCT060 05/04 A2979 RMK AO2 SLP096 T00500044=
202404051456 METAR KPWT 051456Z AUTO 00000KT 10SM BKN060 04/03 A2979 RMK AO2 RAE51 SLP094 P0000 60000 T00390033 51010=
202404051356 METAR KPWT 051356Z AUTO 14003KT 10SM -RA FEW032 SCT040 BKN055 04/04 A2979 RMK AO2 RAB12 SLP093 P0000 T00390039=
202404051256 METAR KPWT 051256Z AUTO 00000KT 10SM SCT060 BKN100 04/04 A2977 RMK AO2 SLP086 T00390039=
202404051156 METAR KPWT 051156Z AUTO 28003KT 10SM SCT060 04/04 A2976 RMK AO2 RAE56 SLP084 P0000 60000 T00390039 10044 20033 50000=
202404051056 METAR KPWT 051056Z AUTO 00000KT 10SM -RA SCT045 OVC055 04/04 A2977 RMK AO2 RAB04 SLP086 P0000 T00390039=
202404050956 METAR KPWT 050956Z AUTO 00000KT 10SM OVC050 04/04 A2976 RMK AO2 RAB00E38 SLP085 P0000 T00390039=
202404050856 METAR KPWT 050856Z AUTO 20003KT 10SM OVC060 04/03 A2976 RMK AO2 SLP084 60000 T00390033 58003=
202404050756 METAR KPWT 050756Z AUTO 00000KT 10SM OVC065 04/03 A2977 RMK AO2 SLP087 T00390033 400890028=
202404050656 METAR KPWT 050656Z AUTO 00000KT 10SM FEW046 OVC070 03/03 A2978 RMK AO2 RAE05 SLP090 P0000 T00330033=
202404050556 METAR KPWT 050556Z AUTO 00000KT 10SM -RA BKN048 BKN060 04/03 A2977 RMK AO2 RAB50 SLP086 P0000 60000 T00440033 10078 20028 50001=
202404050456 METAR KPWT 050456Z AUTO 00000KT 10SM BKN050 BKN060 03/03 A2978 RMK AO2 SLP091 T00330033=
202404050356 METAR KPWT 050356Z AUTO 00000KT 10SM CLR 04/03 A2977 RMK AO2 SLP087 T00390028=
202404050256 METAR KPWT 050256Z AUTO 00000KT 10SM SCT041 06/03 A2976 RMK AO2 SLP085 60000 T00560028 55006=
202404050156 METAR KPWT 050156Z AUTO 12004KT 10SM OVC041 07/02 A2976 RMK AO2 SLP083 T00720022=
202404050056 METAR KPWT 050056Z AUTO 04004KT 10SM FEW047 08/02 A2976 RMK AO2 RAE00 SLP085 P0000 T00780017=
202404042356 METAR KPWT 042356Z AUTO 00000KT 10SM -RA FEW030 07/02 A2978 RMK AO2 SLP091 P0000 60000 T00720022 10089 20067 58007=
202404042308 SPECI KPWT 042308Z AUTO 34004KT 10SM -RA FEW026 SCT035 08/03 A2979 RMK AO2 P0000=
202404042256 METAR KPWT 042256Z AUTO VRB03KT 10SM -RA BKN026 BKN034 08/03 A2979 RMK AO2 RAB2158 SLP095 P0000 T00780028=
202404042156 METAR KPWT 042156Z AUTO 06006KT 10SM BKN041 OVC050 08/01 A2979 RMK AO2 SLP093 T00830006=
202404042056 METAR KPWT 042056Z AUTO 32003KT 10SM FEW038 OVC048 08/00 A2980 RMK AO2 SLP097 T00830000 58014=
202404041956 METAR KPWT 041956Z AUTO VRB03KT 10SM OVC040 08/01 A2981 RMK AO2 SLP102 T00780006=
202404041856 METAR KPWT 041856Z AUTO 23005KT 10SM BKN038 08/02 A2983 RMK AO2 SLP107 T00780022=
202404041756 METAR KPWT 041756Z AUTO 24003KT 10SM OVC060 07/01 A2984 RMK AO2 SLP112 T00670011 10067 20028 56010=
202404041656 METAR KPWT 041656Z AUTO 19004KT 10SM CLR 06/02 A2985 RMK AO2 SLP113 T00610017=
202404041556 METAR KPWT 041556Z AUTO 26005KT 10SM FEW040 04/02 A2986 RMK AO2 SLP117 T00440017=
202404041456 METAR KPWT 041456Z AUTO 29005KT 10SM CLR 04/01 A2987 RMK AO2 SLP122 T00390006 58004=
202404041356 METAR KPWT 041356Z AUTO 00000KT 10SM CLR 03/M01 A2988 RMK AO2 SLP125 T00331006=
202404041256 METAR KPWT 041256Z AUTO 01008KT 10SM CLR 05/M01 A2988 RMK AO2 SLP124 T00501011=
202404041156 METAR KPWT 041156Z AUTO 05007G14KT 10SM CLR 05/M01 A2988 RMK AO2 SLP125 T00501011 10056 20039 56020=
202404041056 METAR KPWT 041056Z AUTO 06006KT 10SM FEW120 04/M02 A2990 RMK AO2 SLP130 T00441017=
202404040956 METAR KPWT 040956Z AUTO 09005KT 10SM CLR 04/M02 A2992 RMK AO2 SLP139 T00441022=
202404040856 METAR KPWT 040856Z AUTO 05005KT 10SM CLR 04/M02 A2994 RMK AO2 SLP145 T00441022 58010=
202404040756 METAR KPWT 040756Z AUTO 06007KT 10SM CLR 04/M01 A2996 RMK AO2 SLP152 T00441011 401170011=
202404040656 METAR KPWT 040656Z AUTO 05008KT 10SM FEW110 05/M02 A2997 RMK AO2 SLP153 T00501017=
202404040556 METAR KPWT 040556Z AUTO 04005KT 10SM CLR 05/M01 A2997 RMK AO2 SLP155 T00501011 10094 20044 58007=
202404040456 METAR KPWT 040456Z AUTO 05009KT 10SM CLR 06/M01 A2999 RMK AO2 SLP161 T00561011=
202404040356 METAR KPWT 040356Z AUTO 03007KT 10SM CLR 06/00 A2999 RMK AO2 SLP161 T00560000=
202404040256 METAR KPWT 040256Z AUTO 03007KT 10SM CLR 06/01 A2999 RMK AO2 SLP164 T00560006 56016=
202404040156 METAR KPWT 040156Z AUTO 02007KT 10SM CLR 07/04 A3000 RMK AO2 SLP167 T00720039=
202404040056 METAR KPWT 040056Z AUTO 35010KT 10SM FEW021 09/04 A3002 RMK AO2 SLP171 T00890044=
202404032356 METAR KPWT 032356Z AUTO 02008KT 10SM CLR 08/03 A3004 RMK AO2 SLP179 T00830033 10117 20078 56025=
202404032256 METAR KPWT 032256Z AUTO 02010KT 10SM FEW031 BKN060 09/04 A3006 RMK AO2 SLP185 T00940044=
202404032156 METAR KPWT 032156Z AUTO VRB05KT 10SM FEW050 09/04 A3009 RMK AO2 SLP195 T00940039=
202404032056 METAR KPWT 032056Z AUTO 19007KT 10SM FEW043 11/01 A3011 RMK AO2 SLP203 T01060006 58020=
202404031956 METAR KPWT 031956Z AUTO 23009KT 10SM FEW043 09/01 A3013 RMK AO2 SLP209 T00940011=
202404031856 METAR KPWT 031856Z AUTO 19005KT 10SM SCT041 10/01 A3016 RMK AO2 SLP217 T01000006=
202404031756 METAR KPWT 031756Z AUTO 25008KT 10SM CLR 08/01 A3017 RMK AO2 SLP224 T00780011 10078 20011 58010=
202404031656 METAR KPWT 031656Z AUTO VRB04KT 10SM FEW018 06/03 A3019 RMK AO2 SLP230 T00610033=
202404031633 SPECI KPWT 031633Z AUTO 00000KT 10SM SCT016 06/03 A3020 RMK AO2=
202404031556 METAR KPWT 031556Z AUTO 00000KT 10SM BKN010 05/04 A3020 RMK AO2 SLP234 T00500039=
202404031456 METAR KPWT 031456Z AUTO 22005KT 10SM CLR 03/03 A3020 RMK AO2 SLP234 T00330033 58002=
202404031356 METAR KPWT 031356Z AUTO 19005KT 10SM CLR 02/02 A3021 RMK AO2 SLP235 T00220022 FZRANO=
202404031256 METAR KPWT 031256Z AUTO 18006KT 10SM CLR 03/03 A3021 RMK AO2 SLP235 T00280028=
202404031204 SPECI KPWT 031204Z AUTO 16004KT 10SM SCT011 03/03 A3021 RMK AO2=
202404031156 METAR KPWT 031156Z AUTO 18004KT 10SM BKN011 03/03 A3021 RMK AO2 SLP237 60000 T00330033 10078 20028 56001=
202404031153 SPECI KPWT 031153Z AUTO 19003KT 10SM BKN011 03/03 A3021 RMK AO2=
202404031056 METAR KPWT 031056Z AUTO 18004KT 10SM CLR 03/03 A3021 RMK AO2 SLP235 T00330033=
202404030956 METAR KPWT 030956Z AUTO 00000KT 10SM CLR 04/04 A3021 RMK AO2 SLP236 T00390039=
202404030856 METAR KPWT 030856Z AUTO 19006KT 10SM CLR 04/03 A3021 RMK AO2 SLP236 60000 T00440033 51018=
202404030756 METAR KPWT 030756Z AUTO 20005KT 10SM BKN110 06/04 A3020 RMK AO2 SLP232 T00560039 401830050=
202404030656 METAR KPWT 030656Z AUTO 21010KT 10SM FEW055 07/05 A3018 RMK AO2 RAE24 SLP226 P0000 T00670050=
202404030556 METAR KPWT 030556Z AUTO 20011G19KT 10SM -RA FEW055 08/06 A3016 RMK AO2 RAB13 SLP218 P0000 60000 T00780056 10161 20078 53022=
202404030456 METAR KPWT 030456Z AUTO 21015G19KT 10SM SCT013 BKN060 09/07 A3013 RMK AO2 SLP209 T00890072=
202404030416 SPECI KPWT 030416Z AUTO 19012G17KT 10SM BKN013 OVC055 10/09 A3012 RMK AO2=
202404030356 METAR KPWT 030356Z AUTO 21016G22KT 10SM SCT055 BKN100 10/08 A3011 RMK AO2 SLP202 T01000083=
202404030256 METAR KPWT 030256Z AUTO 21017KT 10SM CLR 11/08 A3009 RMK AO2 PK WND 21027/0227 SLP195 T01060083 58004=
202404030156 METAR KPWT 030156Z AUTO 21016G21KT 10SM CLR 11/08 A3010 RMK AO2 PK WND 21026/0142 SLP196 T01110083=
202404030056 METAR KPWT 030056Z AUTO 22021G27KT 10SM FEW120 13/09 A3010 RMK AO2 PK WND 22028/0039 SLP198 T01330089=
202404022356 METAR KPWT 022356Z AUTO 22018G24KT 10SM CLR 16/09 A3010 RMK AO2 SLP199 T01610089 10183 20150 56010=
202404022256 METAR KPWT 022256Z AUTO 22018G23KT 10SM CLR 17/09 A3011 RMK AO2 SLP199 T01720094=
202404022156 METAR KPWT 022156Z AUTO 23018G22KT 10SM CLR 18/09 A3013 RMK AO2 SLP205 T01780094=
202404022056 METAR KPWT 022056Z AUTO 23017G24KT 10SM CLR 18/07 A3014 RMK AO2 SLP209 T01830072 58017=
202404021956 METAR KPWT 021956Z AUTO 20013G21KT 10SM CLR 18/07 A3015 RMK AO2 SLP215 T01780072=
202404021856 METAR KPWT 021856Z AUTO 19011G20KT 10SM CLR 17/08 A3017 RMK AO2 SLP221 T01670078=
202404021756 METAR KPWT 021756Z AUTO 20011KT 10SM CLR 15/06 A3019 RMK AO2 SLP226 T01500056 10150 20050 50001=
202404021656 METAR KPWT 021656Z AUTO 20010KT 10SM CLR 12/06 A3019 RMK AO2 SLP229 T01220061=
202404021556 METAR KPWT 021556Z AUTO 19007KT 10SM CLR 09/08 A3019 RMK AO2 SLP226 T00890078=
202404021456 METAR KPWT 021456Z AUTO 20006KT 10SM CLR 07/07 A3018 RMK AO2 SLP227 T00720072 58008=
202404021356 METAR KPWT 021356Z AUTO 22004KT 10SM CLR 05/05 A3019 RMK AO2 SLP229 T00500050=
202404021256 METAR KPWT 021256Z AUTO 21003KT 10SM CLR 06/06 A3020 RMK AO2 SLP233 T00560056=
202404021156 METAR KPWT 021156Z AUTO 22004KT 10SM CLR 06/06 A3021 RMK AO2 SLP234 T00560056 10094 20056 56008=
202404021108 SPECI KPWT 021108Z AUTO 22004KT 10SM SCT002 06/06 A3021 RMK AO2=
202404021056 METAR KPWT 021056Z AUTO VRB03KT 10SM BKN002 07/07 A3021 RMK AO2 SLP236 T00670067=
202404021012 SPECI KPWT 021012Z AUTO 20004KT 9SM OVC002 07/07 A3022 RMK AO2=
202404021004 SPECI KPWT 021004Z AUTO 21004KT 2SM BR OVC002 07/07 A3022 RMK AO2=
202404021001 SPECI KPWT 021001Z AUTO 22005KT 1SM BR OVC002 07/07 A3022 RMK AO2=
202404020956 METAR KPWT 020956Z AUTO 21005KT 1/2SM FG OVC002 07/07 A3022 RMK AO2 SLP240 T00720072=
202404020925 SPECI KPWT 020925Z AUTO 21004KT 1/2SM FG OVC002 07/07 A3023 RMK AO2=
202404020906 SPECI KPWT 020906Z AUTO 00000KT 1/4SM FG OVC002 07/07 A3023 RMK AO2=
202404020852 METAR KPWT 020852Z AUTO 19003KT 1/2SM FG OVC002 07/07 A3023 RMK AO2 SLP243 T00720072 57002=
202404020851 SPECI KPWT 020851Z AUTO 19003KT 1/2SM FG OVC002 07/07 A3023 RMK AO2=
202404020845 SPECI KPWT 020845Z AUTO 21003KT 1SM BR OVC002 07/07 A3024 RMK AO2=
202404020830 SPECI KPWT 020830Z AUTO 21003KT 1 3/4SM BR BKN002 07/07 A3024 RMK AO2=
202404020823 SPECI KPWT 020823Z AUTO 20004KT 4SM BR BKN002 07/07 A3024 RMK AO2=
202404020814 SPECI KPWT 020814Z AUTO 20004KT 2SM BR FEW002 07/07 A3024 RMK AO2 VIS 1V5=
202404020756 METAR KPWT 020756Z AUTO 22003KT 9SM CLR 07/07 A3024 RMK AO2 SLP243 T00720072 401720028=
202404020656 METAR KPWT 020656Z AUTO 00000KT 10SM CLR 08/08 A3024 RMK AO2 SLP244 T00830083=
202404020556 METAR KPWT 020556Z AUTO 23003KT 10SM CLR 09/09 A3024 RMK AO2 SLP244 T00940094 10172 20083 51010=
202404020456 METAR KPWT 020456Z AUTO 00000KT 10SM CLR 09/09 A3024 RMK AO2 SLP243 T00940094=
202404020356 METAR KPWT 020356Z AUTO 00000KT 10SM CLR 09/09 A3023 RMK AO2 SLP240 T00940089=
202404020256 METAR KPWT 020256Z AUTO 00000KT 10SM CLR 12/09 A3021 RMK AO2 SLP234 T01220094 53005=
202404020156 METAR KPWT 020156Z AUTO 20007KT 10SM CLR 15/09 A3020 RMK AO2 SLP231 T01500094=
202404020056 METAR KPWT 020056Z AUTO 00000KT 10SM CLR 17/08 A3019 RMK AO2 SLP229 T01720083=
202404012356 METAR KPWT 012356Z AUTO 00000KT 10SM CLR 17/08 A3019 RMK AO2 SLP229 T01670083 10167 20089 56008=
202404012256 METAR KPWT 012256Z AUTO 21008KT 10SM CLR 16/09 A3020 RMK AO2 SLP232 T01610089=
202404012156 METAR KPWT 012156Z AUTO 24005KT 10SM CLR 15/08 A3021 RMK AO2 SLP234 T01500083=
202404012056 METAR KPWT 012056Z AUTO 21007KT 190V260 10SM CLR 13/08 A3022 RMK AO2 SLP237 T01330083 51007=
202404012041 SPECI KPWT 012041Z AUTO 20003KT 10SM SCT021 12/08 A3022 RMK AO2=
202404011956 METAR KPWT 011956Z AUTO 00000KT 10SM OVC017 11/08 A3022 RMK AO2 SLP237 T01110078=
202404011931 SPECI KPWT 011931Z AUTO 24004KT 10SM OVC015 11/08 A3021 RMK AO2=
202404011856 METAR KPWT 011856Z AUTO 23005KT 10SM OVC011 09/08 A3021 RMK AO2 SLP234 T00940078=
202404011827 SPECI KPWT 011827Z AUTO 23006KT 10SM OVC011 09/08 A3021 RMK AO2=
202404011756 METAR KPWT 011756Z AUTO 25005KT 10SM OVC009 09/08 A3019 RMK AO2 SLP231 60000 T00890083 10089 20039 53016=
202404011656 METAR KPWT 011656Z AUTO 22005KT 10SM OVC007 08/08 A3017 RMK AO2 SLP223 T00830078=
202404011647 SPECI KPWT 011647Z AUTO 21006KT 10SM OVC007 08/08 A3017 RMK AO2=
202404011556 METAR KPWT 011556Z AUTO 21006KT 10SM OVC005 07/07 A3015 RMK AO2 SLP217 T00720072=
202404011517 SPECI KPWT 011517Z AUTO 21004KT 10SM OVC005 07/07 A3014 RMK AO2 CIG 003V007=
202404011456 METAR KPWT 011456Z AUTO 21007KT 10SM OVC002 07/07 A3015 RMK AO2 SLP213 60000 T00670067 53017=
202404011406 SPECI KPWT 011406Z AUTO 22004KT 3SM BR OVC002 06/06 A3012 RMK AO2=
202404011356 METAR KPWT 011356Z AUTO 22004KT 1 1/4SM BR OVC002 06/06 A3012 RMK AO2 RAB1258E36 SLP205 P0000 T00610061=
202404011347 SPECI KPWT 011347Z AUTO 24005KT 1 1/2SM BR OVC002 06/06 A3012 RMK AO2 VIS 3/4V3 RAB1258E36 P0000=
202404011337 SPECI KPWT 011337Z AUTO 24004KT 1SM BR OVC002 06/06 A3012 RMK AO2 RAB1258E36 P0000=
202404011256 METAR KPWT 011256Z AUTO 21006KT 1/2SM FG BKN002 06/06 A3011 RMK AO2 SLP201 T00560056=
202404011251 SPECI KPWT 011251Z AUTO 20006KT 3/4SM BR BKN002 05/05 A3011 RMK AO2=
202404011244 SPECI KPWT 011244Z AUTO 20005KT 1 3/4SM BR BKN002 04/04 A3011 RMK AO2 VIS 3/4V5=
202404011240 SPECI KPWT 011240Z AUTO 20004KT 4SM BR SCT002 04/04 A3011 RMK AO2=
202404011156 METAR KPWT 011156Z AUTO 00000KT 9SM CLR 04/04 A3010 RMK AO2 SLP197 7//// T00390039 10056 20028 52015=
202404011056 METAR KPWT 011056Z AUTO 00000KT 10SM CLR 04/04 A3008 RMK AO2 SLP192 T00390039=
202404010956 METAR KPWT 010956Z AUTO 21003KT 10SM CLR 04/04 A3007 RMK AO2 SLP187 T00390039=
202404010856 METAR KPWT 010856Z AUTO 00000KT 10SM CLR 03/03 A3005 RMK AO2 SLP181 T00330033 52006=
202404010756 METAR KPWT 010756Z AUTO 00000KT 10SM CLR 05/05 A3005 RMK AO2 SLP180 T00500050 401670006=
202404010656 METAR KPWT 010656Z AUTO 14003KT 10SM CLR 05/05 A3004 RMK AO2 SLP177 T00500050=
202404010556 METAR KPWT 010556Z AUTO 00000KT 10SM CLR 06/05 A3004 RMK AO2 SLP176 T00560050 10156 20050 51013=
202404010456 METAR KPWT 010456Z AUTO 00000KT 10SM CLR 06/04 A3003 RMK AO2 SLP175 T00560039=
202404010356 METAR KPWT 010356Z AUTO 00000KT 10SM CLR 08/05 A3002 RMK AO2 SLP171 T00780050=
202404010256 METAR KPWT 010256Z AUTO 00000KT 10SM CLR 10/04 A3000 RMK AO2 SLP162 T01000044 53002=
202404010156 METAR KPWT 010156Z AUTO 06004KT 10SM CLR 13/02 A2999 RMK AO2 SLP159 T01330022=
202404010056 METAR KPWT 010056Z AUTO 05004KT 10SM CLR 15/03 A2998 RMK AO2 SLP157 T01500033=

# No short TAF reports from KPWT in databse.

###################################
#  large TAF from KPWT
###################################
202404302335 TAF KPWT 302335Z 0100/0124 04006KT P6SM SCT035 BKN050 FM010600
                       22004KT P6SM SCT050 FM011500 18006KT P6SM
                       SCT050 BKN100=
202404301735 TAF KPWT 301735Z 3018/0118 22006KT P6SM -SHRA BKN012 OVC020 FM302100
                       04006KT P6SM SCT015 BKN025 OVC040 FM302300
                       04006KT P6SM SCT025 BKN040 FM010600 22004KT
                       P6SM SCT050 FM011500 18006KT P6SM SCT050
                       BKN100=
202404301120 TAF KPWT 301120Z 3012/0112 VRB02KT P6SM VCSH BKN025 OVC035 FM301500
                       22002KT P6SM -RA OVC015 FM302100 04006KT
                       P6SM OVC050 FM010400 24002KT P6SM BKN050=
202404300533 TAF KPWT 300533Z 3006/0106 21009KT P6SM VCSH OVC050 FM300900 VRB02KT
                       P6SM VCSH OVC025 FM302100 06006KT P6SM OVC050=
202404292325 TAF KPWT 292325Z 3000/3024 20010KT P6SM VCSH BKN060 FM300200 21009KT
                       P6SM VCSH OVC050 FM300900 VRB02KT P6SM VCSH
                       OVC025 FM302100 06006KT P6SM OVC050=
202404291743 TAF KPWT 291743Z 2918/3018 22004KT P6SM VCSH OVC015 FM292000 18009G22KT
                       P6SM VCSH BKN060 FM300200 21009KT P6SM VCSH
                       OVC050 FM300900 VRB02KT P6SM VCSH OVC025=
202404291140 TAF KPWT 291140Z 2912/3012 19006KT P6SM VCSH FEW010 OVC035
                      TEMPO 2912/2913 6SM -RA OVC020 FM291600 22004KT
                       P6SM VCSH OVC020 FM292000 18009G22KT P6SM
                       VCSH BKN060 FM300200 21009KT P6SM VCSH OVC050
                       FM300900 20003KT P6SM VCSH OVC025=
202404290529 TAF KPWT 290529Z 2906/3006 21010KT P6SM VCSH OVC035 FM290700 21006KT
                       P6SM -SHRA OVC025 FM291200 21002KT P6SM
                       OVC007 FM291700 22004KT P6SM OVC015 FM292000
                       21009KT P6SM BKN050=
202404282339 TAF KPWT 282339Z 2900/2924 22014G24KT P6SM VCSH OVC040 FM290300
                       21010KT P6SM VCSH OVC035 FM290700 21006KT
                       P6SM -SHRA OVC025 FM291200 21002KT P6SM
                       OVC007 FM291700 22004KT P6SM OVC015 FM292000
                       21009KT P6SM BKN050=
202404281741 TAF KPWT 281741Z 2818/2918 21012G22KT P6SM -SHRA BKN015 OVC040
                       FM282000 22014G24KT P6SM VCSH OVC040 FM290300
                       21010KT P6SM VCSH OVC035 FM290700 21006KT
                       P6SM VCSH OVC025=
202404280530 TAF KPWT 280530Z 2806/2906 21014KT 6SM -RA BR SCT005 FM280900 20020KT
                       P6SM OVC006 FM281700 21012G21KT P6SM -SHRA
                       OVC050 FM290300 21010KT P6SM VCSH OVC025=
202404280153 KPWT 280153Z 2802/2824 21008KT 6SM -RA BR BKN005 OVC010 FM280600
                       20010KT P6SM OVC010 FM281700 21012G19KT
                       P6SM OVC050=
202404272320 TAF KPWT 272320Z 2800/2824 20012G18KT P6SM -SHRA BKN025 OVC035
                       FM280100 21008KT P6SM -SHRA OVC010 FM280600
                       20010KT P6SM OVC010 FM281700 21012G19KT
                       P6SM OVC050=
202404271743 TAF KPWT 271743Z 2718/2818 21012KT P6SM SCT025 BKN045 FM271900
                       20012G18KT P6SM -RA BKN025 OVC035 FM280100
                       21008KT P6SM -SHRA OVC010 FM280600 20010KT
                       P6SM OVC010 FM281700 21012G19KT P6SM OVC050=
202404271321 KPWT 271321Z 2713/2812 21010KT P6SM SCT010 BKN060 FM271600 21012KT
                       P6SM SCT025 BKN045 FM272000 20012G18KT P6SM
                       -RA BKN025 OVC035 FM280100 21008KT P6SM
                       -SHRA OVC010
                      PROB30 2801/2804 4SM -SHRA OVC007 FM280600
                       20010KT P6SM OVC010=
202404271147 TAF KPWT 271147Z 2712/2812 20012KT P6SM BKN009 OVC035 FM271600
                       21008KT P6SM SCT025 BKN045 FM272000 20012KT
                       P6SM -RA BKN025 OVC035 FM280100 21008KT
                       P6SM -SHRA OVC010
                      PROB30 2801/2804 4SM -SHRA OVC007 FM280600
                       20010KT P6SM OVC010=
202404270719 KPWT 270719Z 2707/2806 20009KT P6SM SCT010 OVC045 FM271200 21008KT
                       P6SM BKN020 OVC035 FM271600 21008KT P6SM
                       SCT025 BKN045 FM272000 21012KT P6SM -RA
                       SCT025 OVC045 FM280000 21008KT P6SM -SHRA
                       BKN008 OVC015=
202404270532 TAF KPWT 270532Z 2706/2806 21008KT P6SM SCT015 OVC050
                      TEMPO 2706/2708 BKN015 OVC050 FM271200 21008KT
                       P6SM BKN020 OVC035 FM271600 21008KT P6SM
                       SCT025 BKN045 FM272000 21012KT P6SM -RA
                       SCT025 OVC045 FM280000 21008KT P6SM -SHRA
                       BKN008 OVC015=
202404262339 TAF KPWT 262339Z 2700/2724 21008KT P6SM BKN050 BKN200 FM270600
                       21008KT P6SM SCT050 BKN200 FM271200 21008KT
                       P6SM BKN020 OVC035 FM271600 21008KT P6SM
                       SCT025 BKN045 FM272000 21012KT P6SM -RA
                       OVC025=
202404261741 TAF KPWT 261741Z 2618/2718 22008KT P6SM VCSH BKN020 OVC050 FM262000
                       21007KT P6SM VCSH SCT025 OVC060 FM270600
                       20004KT P6SM OVC050 FM271000 20006KT P6SM
                       BKN015 OVC050
                      TEMPO 2710/2714 3SM BR OVC008=
202404261142 TAF KPWT 261142Z 2612/2712 20008KT P6SM -SHRA BKN006 OVC015 FM261500
                       19012KT P6SM VCSH BKN008 OVC015 FM262200
                       21007KT P6SM VCSH SCT015 OVC040 FM270600
                       21007KT P6SM OVC025=
202404260539 TAF KPWT 260539Z 2606/2706 20008KT P6SM -RA BKN006 OVC020 FM261100
                       20008KT 6SM -SHRA OVC004 FM261800 22006KT
                       P6SM VCSH SCT004 BKN008 OVC015 FM262100
                       22006KT P6SM SCT012 BKN020 OVC030 FM270000
                       22006KT P6SM SCT020 BKN035 OVC050=
202404252326 TAF KPWT 252326Z 2600/2624 19008KT 4SM -RA BR BKN008 OVC015 FM260300
                       18009KT P6SM -RA OVC015 FM260600 20012KT
                       6SM -RA BR OVC007 FM261500 20004KT 6SM -SHRA
                       OVC004 FM261800 21006KT P6SM VCSH OVC015
                       FM262200 22006KT P6SM VCSH OVC035=
202404252102 KPWT 252102Z 2521/2618 21012G21KT 6SM -RA BKN025 FM260600 20012KT
                       6SM -RA BR OVC007 FM261500 20004KT 6SM -SHRA
                       OVC004=
202404251725 TAF KPWT 251725Z 2518/2618 23013KT 6SM -RA BKN007 BKN011 FM252100
                       21012G21KT 4SM -RA BR OVC015 FM260600 20012KT
                       6SM -RA BR OVC007 FM261500 20004KT 6SM -SHRA
                       OVC004=
202404251120 TAF KPWT 251120Z 2512/2612 18003KT 3SM -RA BR OVC002 FM251700 21011KT
                       4SM -RA BR OVC012 FM252100 21012G21KT 4SM
                       -RA BR OVC015 FM260600 20012KT 6SM -RA BR
                       OVC007=
202404251014 KPWT 251014Z 2510/2606 22004KT 2SM -RA BR OVC004 FM251200 19006KT
                       6SM -RA BR OVC007 FM251700 21011KT 6SM -RA
                       BR OVC015 FM252100 21012G21KT 4SM -RA BR
                       OVC017=
202404250520 TAF KPWT 250520Z 2506/2606 20005KT P6SM OVC050 FM250800 20006KT
                       P6SM -RA OVC015 FM251200 19006KT 6SM -RA
                       BR OVC007 FM251700 21011KT 6SM -RA BR OVC015
                       FM252100 21012G21KT 4SM -RA BR OVC017=
202404242330 TAF KPWT 242330Z 2500/2524 19011G18KT P6SM VCSH FEW070 FM250300
                       21007KT P6SM OVC050 FM250800 20006KT P6SM
                       -RA OVC015 FM251200 19006KT 6SM -RA BR OVC007
                       FM251800 21011KT 6SM -RA BR OVC015=
202404242102 KPWT 242102Z 2421/2518 22013KT P6SM -RA FEW045 BKN060 FM242200
                       22011KT P6SM VCSH OVC025 FM250100 21006KT
                       P6SM OVC030 FM250800 20006KT P6SM -RA OVC015
                       FM251200 19006KT 6SM -RA BR OVC007=
202404241729 TAF KPWT 241729Z 2418/2518 20006KT P6SM OVC005 FM242200 22011KT
                       P6SM VCSH OVC025 FM250100 21006KT P6SM OVC030
                       FM250800 20006KT P6SM -RA OVC015 FM251200
                       19006KT 6SM -RA BR OVC007=
202404241123 TAF KPWT 241123Z 2412/2512 00000KT P6SM OVC050 FM241500 21004KT
                       P6SM OVC025 FM242200 22011KT P6SM VCSH OVC025
                       FM250100 21006KT P6SM -SHRA OVC025=
202404240520 TAF KPWT 240520Z 2406/2506 VRB03KT P6SM BKN200 FM241000 21004KT
                       P6SM OVC050 FM241800 22009KT P6SM OVC030
                       FM242200 22011KT P6SM VCSH OVC025 FM250100
                       21006KT P6SM -SHRA OVC025=
202404232331 TAF KPWT 232331Z 2400/2424 23007KT P6SM BKN250 FM240300 VRB03KT
                       P6SM BKN200 FM241200 21004KT P6SM OVC050
                       FM241800 22009KT P6SM OVC050=
202404231730 TAF KPWT 231730Z 2318/2418 04004KT P6SM SCT250 FM232000 20005KT
                       P6SM SCT250 FM240000 23007KT P6SM BKN250
                       FM240300 VRB03KT P6SM BKN200 FM241200 21004KT
                       P6SM OVC050=
202404231120 TAF KPWT 231120Z 2312/2412 04006KT P6SM BKN250 FM232000 13005KT
                       P6SM SCT250 FM240000 20007KT P6SM BKN250
                       FM240300 VRB03KT P6SM BKN200 FM241100 00000KT
                       P6SM OVC100=
202404230520 TAF KPWT 230520Z 2306/2406 03008KT P6SM SKC FM230700 04004KT P6SM
                       FEW250 FM232000 13005KT P6SM SCT250 FM240000
                       20007KT P6SM BKN250 FM240300 VRB04KT P6SM
                       BKN200=
202404222320 TAF KPWT 222320Z 2300/2324 03009G15KT P6SM SKC FM230300 04004KT
                       P6SM FEW200 FM231800 23005KT P6SM SCT250=
202404221722 TAF KPWT 221722Z 2218/2318 05010KT P6SM FEW030 FM222000 05014G20KT
                       P6SM SKC FM230300 04004KT P6SM FEW200=
202404221127 TAF KPWT 221127Z 2212/2312 04003KT P6SM FEW015 SCT050 FM221700
                       04009KT P6SM FEW200 FM230400 04004KT P6SM
                       FEW200=
202404220520 TAF KPWT 220520Z 2206/2306 05006KT P6SM BKN050 FM220900 04003KT
                       P6SM SCT050 FM221700 04009KT P6SM FEW200
                       FM230400 04004KT P6SM FEW200=
202404212320 TAF KPWT 212320Z 2200/2224 VRB05KT P6SM VCSH SCT060 FM220300 05009KT
                       P6SM SCT060 FM220900 00000KT P6SM FEW020
                       FM221600 04009KT P6SM FEW250=
202404212200 KPWT 212200Z 2122/2218 VRB05KT 6SM -RA SCT022 BKN030 OVC045 FM220000
                       36012G18KT P6SM BKN060 FM220300 04005KT
                       P6SM SCT060 FM220900 00000KT P6SM SCT050
                       BKN250=
202404211720 TAF KPWT 211720Z 2118/2218 21012G18KT P6SM VCSH SCT025 BKN050 FM220000
                       36012G18KT P6SM BKN060 FM220300 04005KT
                       P6SM SCT060 FM220900 00000KT P6SM SCT050
                       BKN250=
202404211121 TAF KPWT 211121Z 2112/2212 20008KT P6SM VCSH BKN040 FM211800 21007KT
                       P6SM VCSH BKN050 FM220000 VRB05KT P6SM BKN060
                       FM220300 04005KT P6SM SCT060 FM220900 00000KT
                       P6SM BKN250=
202404210525 TAF KPWT 210525Z 2106/2206 21012KT P6SM VCSH SCT035 BKN045 FM211100
                       20008KT P6SM VCSH BKN040 FM211800 21007KT
                       P6SM VCSH BKN050 FM220000 VRB05KT P6SM BKN060
                       FM220300 04005KT P6SM SCT060=
202404210239 KPWT 210239Z 2103/2124 21013G20KT P6SM VCSH SCT040 BKN060 FM210600
                       21009KT P6SM BKN040
                      PROB30 2112/2118 -SHRA FM211800 23010G18KT
                       P6SM BKN050
                      PROB30 2118/2123 -SHRA=
202404202327 TAF KPWT 202327Z 2100/2124 25020G30KT P6SM -SHRA FEW050 OVC100
                       FM210400 20012G20KT P6SM VCSH SCT050 FM211200
                       21005KT P6SM BKN045
                      PROB30 2112/2118 -SHRA FM211800 23010G18KT
                       P6SM BKN050
                      PROB30 2118/2123 -SHRA=
202404201727 TAF KPWT 201727Z 2018/2118 18008KT P6SM FEW250 FM202100 21016G25KT
                       P6SM BKN050 OVC080 FM210000 23016G26KT P6SM
                       -SHRA BKN045 OVC060 FM210400 20009KT P6SM
                       VCSH BKN050 FM211200 21003KT P6SM BKN045
                       PROB30 2112/2118 -SHRA=
202404201123 TAF KPWT 201123Z 2012/2112 05008KT P6SM FEW200 FM202100 21016G25KT
                       P6SM BKN050 OVC080 FM210000 23016G26KT P6SM
                       -SHRA BKN035 OVC050 FM210900 20009KT P6SM
                       BKN050=
202404200528 TAF KPWT 200528Z 2006/2106 05008KT P6SM SCT200 FM201700 06010KT
                       P6SM BKN120 OVC200 FM202100 21016G25KT P6SM
                       BKN050 OVC080 FM210000 23016G26KT P6SM -SHRA
                       BKN035 OVC050=
202404192327 TAF KPWT 192327Z 2000/2024 02011G17KT P6SM SKC FM200300 03008KT
                       P6SM SKC FM201700 19005KT P6SM SCT250 FM202100
                       21015G25KT P6SM BKN100=
202404191720 TAF KPWT 191720Z 1918/2018 05012KT P6SM SKC FM192000 03013G21KT
                       P6SM SKC FM200400 04008KT P6SM SKC FM201700
                       20005KT P6SM SCT250=
202404191120 TAF KPWT 191120Z 1912/2012 06008KT P6SM SKC FM191600 04011KT P6SM
                       SKC FM192000 03013G21KT P6SM SKC FM200400
                       04009KT P6SM SKC=
202404190525 TAF KPWT 190525Z 1906/2006 04010KT P6SM SKC FM190800 04006KT P6SM
                       SKC FM191600 04011KT P6SM SKC FM192000 03013G21KT
                       P6SM SKC FM200400 04009KT P6SM SKC=
202404182320 TAF KPWT 182320Z 1900/1924 03012G18KT P6SM SKC FM190800 05007KT
                       P6SM SKC FM191600 04011KT P6SM SKC FM192000
                       04012G18KT P6SM SKC=
202404181720 TAF KPWT 181720Z 1818/1918 04012G20KT P6SM SKC FM190800 05008KT
                       P6SM SKC FM191600 04012KT P6SM SKC=
202404181128 TAF KPWT 181128Z 1812/1912 07009KT P6SM SKC FM181900 04013G21KT
                       P6SM SKC FM190800 05010KT P6SM SKC=
202404180526 TAF KPWT 180526Z 1806/1906 02003KT P6SM SKC FM181800 04013G21KT
                       P6SM SKC=
202404180315 KPWT 180315Z 1803/1824 05005KT P6SM SKC FM180600 02003KT P6SM SKC
                       FM181800 04013G21KT P6SM SKC=
202404172320 TAF KPWT 172320Z 1800/1824 04010G18KT P6SM SKC FM180600 02003KT
                       P6SM SKC FM181800 04013G21KT P6SM SKC=
202404171720 TAF KPWT 171720Z 1718/1818 06005KT P6SM SKC FM172100 04010KT P6SM
                       SKC FM180600 02003KT P6SM SKC=
202404171503 KPWT 171503Z 1715/1812 20004KT P6SM SKC FM171600 04004KT P6SM SKC
                       FM172100 04011KT P6SM SKC FM180300 02007KT
                       P6SM SKC=
202404171322 KPWT 171322Z 1713/1812 20004KT P6SM SKC
                      TEMPO 1713/1716 1/2SM FG FM171600 04004KT
                       P6SM SKC FM172100 04011KT P6SM SKC FM180300
                       02007KT P6SM SKC=
202404171120 TAF KPWT 171120Z 1712/1812 20004KT P6SM SKC FM171600 04004KT P6SM
                       SKC FM172100 04011KT P6SM SKC FM180300 02007KT
                       P6SM SKC=
202404170520 TAF KPWT 170520Z 1706/1806 00000KT P6SM SKC FM171200 VRB04KT 6SM
                       BR FEW010 FM171600 04004KT P6SM SKC FM172100
                       04011KT P6SM SKC FM180300 02007KT P6SM SKC=
202404162322 TAF KPWT 162322Z 1700/1724 03010KT P6SM FEW050 FM170300 VRB03KT
                       P6SM FEW250 FM171700 04004KT P6SM SKC FM172100
                       04011KT P6SM SKC=
202404161728 TAF KPWT 161728Z 1618/1718 VRB03KT P6SM SCT030 BKN045 FM162200
                       04006KT P6SM BKN050 FM170300 VRB03KT P6SM
                       FEW250=
202404161120 TAF KPWT 161120Z 1612/1712 03007KT P6SM -RA FEW010 SCT035 FM162200
                       06006KT P6SM BKN050 FM170600 VRB03KT P6SM
                       FEW250=
202404160520 TAF KPWT 160520Z 1606/1706 05006KT P6SM OVC040 FM160900 VRB03KT
                       P6SM OVC045 FM162200 06006KT P6SM BKN050=
202404152334 TAF KPWT 152334Z 1600/1624 05010KT P6SM VCSH SCT045 BKN060 FM160300
                       VRB05KT P6SM OVC050 FM162200 06005KT P6SM
                       BKN100=
202404151735 TAF KPWT 151735Z 1518/1618 15005KT P6SM VCSH OVC020
                      TEMPO 1518/1520 04009KT -SHRA FM152000 VRB06KT
                       P6SM VCSH BKN040 FM160300 VRB05KT P6SM OVC050=
202404151133 TAF KPWT 151133Z 1512/1612 VRB05KT P6SM VCSH OVC015 FM151500 15005KT
                       P6SM VCSH OVC025
                      TEMPO 1517/1520 04009KT -SHRA FM152000 VRB06KT
                       P6SM VCSH BKN040=
202404150812 KPWT 150812Z 1508/1606 18004KT P6SM BKN015 OVC050 FM151200 VRB05KT
                       P6SM VCSH OVC050 FM151500 15005KT P6SM VCSH
                       OVC025 FM160000 VRB05KT P6SM VCSH BKN040
                       FM160500 20006KT P6SM SCT005 BKN040=
202404150701 KPWT 150701Z 1507/1606 20007KT P6SM SCT120 FM150800 VRB03KT P6SM
                       BKN040 FM151200 VRB05KT P6SM VCSH OVC050
                       FM151500 15005KT P6SM VCSH OVC025
                      PROB30 1516/1520 4SM -RA BR OVC015 FM160000
                       VRB05KT P6SM VCSH BKN040 FM160500 20006KT
                       P6SM SCT005 BKN040=
202404142349 TAF KPWT 142349Z 1500/1524 23007KT P6SM FEW040 SCT250 FM150200
                       18007KT P6SM SCT120 FM150800 VRB05KT P6SM
                       BKN040 FM151200 18005KT P6SM VCSH OVC050
                       FM151500 15005KT P6SM VCSH OVC025
                      PROB30 1515/1519 4SM -RA BR OVC015=
202404141742 TAF KPWT 141742Z 1418/1518 VRB03KT P6SM FEW120 FM142100 23006KT
                       P6SM SCT120 FM150200 18007KT P6SM OVC100
                       FM150800 VRB05KT P6SM BKN040 FM151200 18005KT
                       P6SM VCSH OVC050=
202404141400 KPWT 141400Z 1414/1512 VRB03KT P6SM SCT250 FM142100 23006KT P6SM
                       SCT250 FM150400 19007KT P6SM OVC100 FM150900
                       VRB05KT P6SM BKN040=
202404141350 KPWT 141350Z 1414/1512 VRB03KT P6SM SCT250
                      TEMPO 1414/1417 1/2SM FG BKN002 FM142100
                       23006KT P6SM SCT250 FM150400 19007KT P6SM
                       OVC100 FM150900 VRB05KT P6SM BKN040=
202404141120 TAF KPWT 141120Z 1412/1512 VRB03KT P6SM SCT250 FM142100 23006KT
                       P6SM SCT250 FM150400 19007KT P6SM OVC100
                       FM150900 VRB05KT P6SM BKN040=
202404140542 TAF KPWT 140542Z 1406/1506 05003KT P6SM SCT250 FM142100 21006KT
                       P6SM SCT250 FM150400 15005KT P6SM OVC100=
202404132320 TAF KPWT 132320Z 1400/1424 04008KT P6SM SCT200 FM140500 03003KT
                       P6SM SCT200 FM142100 21006KT P6SM BKN250=
202404131720 TAF KPWT 131720Z 1318/1418 03010KT P6SM SCT200 FM140500 05003KT
                       P6SM SCT200=
202404131120 TAF KPWT 131120Z 1312/1412 04010KT P6SM SCT200 FM140400 05005KT
                       P6SM SCT200=
202404130526 TAF KPWT 130526Z 1306/1406 04010KT P6SM SCT200=
202404122320 TAF KPWT 122320Z 1300/1324 04010G20KT P6SM SKC FM130600 04005KT
                       P6SM SCT200 FM131800 03009KT P6SM SCT200=
202404122001 KPWT 122001Z 1220/1318 04010KT P6SM FEW200 FM130600 04005KT P6SM
                       SCT200=
202404121848 KPWT 121848Z 1219/1318 04008KT P6SM SCT025
                      TEMPO 1219/1221 BKN025 FM122100 04010G18KT
                       P6SM SCT040 SCT200 FM130600 VRB03KT P6SM
                       SCT200=
202404121720 TAF KPWT 121720Z 1218/1318 04008KT P6SM SCT020 FM122100 04010G18KT
                       P6SM SCT040 SCT200 FM130600 VRB03KT P6SM
                       SCT200=
202404121126 TAF KPWT 121126Z 1212/1312 VRB03KT P6SM FEW008 BKN050 FM121400
                       04006KT P6SM SCT010 BKN020 OVC040 FM122100
                       04010KT P6SM SCT040 SCT200=
202404120544 TAF KPWT 120544Z 1206/1306 19006KT P6SM SCT011 BKN060 FM121000
                       VRB03KT P6SM BKN008 OVC015 FM121600 04006KT
                       P6SM SCT010 BKN020 OVC040 FM122100 04008KT
                       P6SM SCT040 SCT200=
202404112330 TAF KPWT 112330Z 1200/1224 22012KT P6SM OVC040 FM120200 21011KT
                       P6SM -RA OVC030 FM120400 21005KT 6SM -RA
                       SCT012 OVC022 FM121100 04003KT 6SM BR VCSH
                       BKN009 OVC022 FM121800 04006KT P6SM BKN027
                       FM122200 04008KT P6SM SCT040 SCT200=
202404111730 TAF KPWT 111730Z 1118/1218 19007KT P6SM SCT060 OVC100 FM112100
                       20010KT P6SM OVC050 FM120200 21011KT P6SM
                       -RA OVC030 FM120500 21005KT 6SM -RA SCT012
                       OVC020 FM121100 04003KT 6SM BR VCSH BKN010
                       OVC025=
202404111126 TAF KPWT 111126Z 1112/1212 00000KT P6SM OVC100 FM111900 20010KT
                       P6SM OVC050 FM120300 21011KT P6SM -RA OVC030
                       FM120500 21006KT 6SM -RA SCT015 OVC025=
202404110540 TAF KPWT 110540Z 1106/1206 04005KT P6SM BKN110 FM111100 00000KT
                       P6SM OVC100 FM111900 20010KT P6SM OVC050
                       FM112300 21011KT P6SM -RA OVC030 FM120100
                       21006KT 6SM -RA OVC025=
202404102320 TAF KPWT 102320Z 1100/1124 04005KT P6SM BKN200 FM110900 00000KT
                       P6SM OVC120 FM111700 20006KT P6SM OVC070
                       FM112200 21011KT P6SM -RA OVC030=
202404101724 TAF KPWT 101724Z 1018/1118 04005KT P6SM SCT200 FM110000 04006KT
                       P6SM BKN200 FM110900 00000KT P6SM OVC100
                       FM111700 20006KT P6SM VCSH OVC070=
202404101120 TAF KPWT 101120Z 1012/1112 VRB02KT P6SM BCFG FEW050 FM101800 VRB04KT
                       P6SM SCT200 FM110100 04006KT P6SM OVC250
                       FM110600 00000KT P6SM OVC100=
202404100534 TAF KPWT 100534Z 1006/1106 VRB04KT P6SM SCT040 BKN060 FM101200
                       VRB02KT P6SM BCFG SCT005 BKN200 FM101800
                       VRB04KT P6SM SCT200 FM110100 04006KT P6SM
                       OVC250=
202404092320 TAF KPWT 092320Z 1000/1024 04009KT P6SM SCT050 FM100300 05005KT
                       P6SM FEW050 SCT200 FM100600 VRB03KT P6SM
                       BKN200 FM101200 VRB02KT P6SM BCFG SCT005
                       BKN200 FM101800 VRB04KT P6SM SCT200=
202404092123 KPWT 092123Z 0921/1018 04008KT P6SM BKN050 FM100200 05005KT P6SM
                       SCT050 SCT200 FM100600 VRB03KT P6SM BKN200
                       FM101200 VRB02KT P6SM BCFG SCT005 BKN200=
202404091731 TAF KPWT 091731Z 0918/1018 24007KT P6SM SCT020 BKN045 FM092200
                       VRB06KT P6SM BKN050 FM100200 05005KT P6SM
                       SCT050 SCT200 FM100600 VRB03KT P6SM BKN200
                       FM101200 VRB02KT P6SM BCFG SCT005 BKN200=
202404091127 TAF KPWT 091127Z 0912/1012 23005KT P6SM VCSH BKN006 OVC025 FM091400
                       22011KT P6SM OVC015 FM091700 02010KT P6SM
                       BKN025 FM092200 05005KT P6SM OVC040=
202404090902 TAF AMD KPWT 090902Z 0909/1006 23005KT P6SM OVC004 FM091700 02010KT
                       P6SM BKN025 FM092200 05005KT P6SM OVC030=
202404090530 TAF KPWT 090530Z 0906/1006 20015KT 6SM -RA OVC004 FM090900 23005KT
                       P6SM VCSH OVC015 FM091700 02010KT P6SM BKN050=
202404090222 KPWT 090222Z 0902/0924 20018KT 4SM -RA BR OVC005 FM091300 23005KT
                       P6SM VCSH OVC015 FM092000 02010KT P6SM BKN050=
202404082320 TAF KPWT 082320Z 0900/0924 21014G22KT 5SM -RA OVC015 FM090200 20018KT
                       4SM -RA BR OVC007 FM091300 23005KT P6SM
                       VCSH OVC015 FM092000 02010KT P6SM BKN050=
202404081743 TAF KPWT 081743Z 0818/0918 20010G18KT P6SM -SHRA OVC020 FM082200
                       21018G22KT 4SM -RA BR OVC015 FM090000 21016G22KT
                       5SM -RA BR OVC007 FM090500 20018KT 1 1/2SM
                       -RA BR OVC003 FM091500 23005KT P6SM OVC015=
202404081514 KPWT 081514Z 0815/0912 20007KT P6SM -RA BKN008 OVC020 FM081800
                       21015G22KT P6SM -SHRA OVC020 FM082200 21018G28KT
                       4SM -RA BR OVC015 FM090000 21016G25KT 5SM
                       -RA BR OVC007=
202404081121 TAF KPWT 081121Z 0812/0912 21007KT P6SM SCT030 SCT100 SCT200 FM081300
                       20007KT P6SM VCSH OVC030 FM081800 21015G22KT
                       P6SM -SHRA OVC020 FM082200 21018G28KT 4SM
                       -RA BR OVC015 FM090200 21016G25KT 4SM -RA
                       BR OVC007=
202404080520 TAF KPWT 080520Z 0806/0906 21007KT P6SM SCT030 SCT100 SCT200 FM081300
                       20007KT P6SM VCSH OVC030 FM081800 21015G22KT
                       P6SM -SHRA OVC020 FM082200 21018G28KT 4SM
                       -RA BR OVC015=
202404072323 TAF KPWT 072323Z 0800/0824 21014G20KT P6SM SCT020 OVC100 FM080300
                       21007KT P6SM OVC050 FM081300 20007KT P6SM
                       VCSH OVC025 FM081800 21015G22KT P6SM -SHRA
                       OVC025=
202404071720 TAF KPWT 071720Z 0718/0818 22010KT P6SM VCSH BKN007 OVC012 FM071900
                       20010KT P6SM BKN015 FM072100 22011KT P6SM
                       VCSH SCT020 OVC030 FM080300 21007KT P6SM
                       OVC040 FM081500 19008KT P6SM SCT025 OVC040=
202404071120 TAF KPWT 071120Z 0712/0812 VRB03KT 2SM BR OVC007 FM071600 21008KT
                       P6SM VCSH OVC015 FM072100 22011KT P6SM SCT020
                       OVC030 FM080300 21007KT P6SM OVC040=
202404070520 TAF KPWT 070520Z 0706/0806 VRB03KT P6SM SCT015 FM070800 20004KT
                       4SM BR OVC020 FM071200 VRB03KT 4SM BR OVC007
                       FM071700 21008KT P6SM VCSH OVC015 FM072100
                       22011KT P6SM SCT020 OVC030 FM080300 21007KT
                       P6SM OVC040=
202404062322 TAF KPWT 062322Z 0700/0724 20009KT P6SM -SHRA BKN015 OVC030 FM070600
                       20004KT P6SM OVC015 FM071700 21008KT P6SM
                       VCSH OVC015=
202404061728 TAF KPWT 061728Z 0618/0718 20009KT P6SM -RA BKN025 BKN080 FM061900
                       20007KT P6SM -RA OVC020 FM070000 21007KT
                       P6SM -SHRA OVC035 FM070600 20004KT P6SM
                       OVC015=
202404061121 TAF KPWT 061121Z 0612/0712 20006KT P6SM OVC060 FM061600 22009KT
                       P6SM VCSH OVC030 FM062000 20007KT P6SM -RA
                       OVC020 FM070300 20004KT P6SM OVC015=
202404060520 TAF KPWT 060520Z 0606/0706 20008KT P6SM OVC060 FM061400 22009KT
                       P6SM VCSH OVC025 FM062000 20007KT P6SM -RA
                       OVC020 FM070300 20004KT P6SM OVC030=
202404052323 TAF KPWT 052323Z 0600/0624 22008KT P6SM OVC060 FM060100 20006KT
                       P6SM BKN040 FM060400 VRB03KT P6SM BKN030
                       FM061500 22009KT P6SM VCSH OVC025 FM062000
                       20007KT P6SM VCSH OVC020=
202404051757 TAF KPWT 051757Z 0518/0618 22005KT P6SM OVC060 FM060000 20006KT
                       P6SM BKN040 FM060400 VRB03KT P6SM BKN050
                       FM061500 22008KT P6SM OVC040=
202404051525 KPWT 051525Z 0515/0612 00000KT P6SM -SHRA BKN060 FM051800 22005KT
                       P6SM OVC060 FM060000 20006KT P6SM BKN040
                       FM060400 VRB03KT P6SM BKN050=
202404051122 TAF KPWT 051122Z 0512/0612 00000KT P6SM FEW025 OVC050 FM051300
                       00000KT P6SM OVC020 FM051800 22005KT P6SM
                       OVC035 FM060000 20006KT P6SM BKN040 FM060400
                       VRB03KT P6SM BKN050=
202404050520 TAF KPWT 050520Z 0506/0606 00000KT P6SM FEW025 OVC050 FM051300
                       00000KT P6SM OVC020 FM051900 22005KT P6SM
                       OVC030 FM060000 20006KT P6SM BKN040 FM060300
                       VRB03KT P6SM BKN050=
202404042326 TAF KPWT 042326Z 0500/0524 05005KT P6SM VCSH OVC050 FM050500 00000KT
                       P6SM FEW020 OVC050 FM051300 00000KT P6SM
                       OVC025 FM051900 22004KT P6SM OVC050=
202404041732 TAF KPWT 041732Z 0418/0518 05009KT P6SM OVC050 FM050000 05005KT
                       P6SM VCSH OVC050 FM050500 00000KT P6SM FEW020
                       OVC050
                      PROB30 0505/0510 -SHRA FM051300 00000KT P6SM
                       OVC025=
202404041125 TAF KPWT 041125Z 0412/0512 05007KT P6SM SCT060 BKN100 FM041800
                       05009KT P6SM OVC050 FM050000 05005KT P6SM
                       OVC060
                      PROB30 0500/0506 -SHRA FM050600 00000KT P6SM
                       FEW020 OVC050
                      PROB30 0506/0512 -SHRA=
202404040520 TAF KPWT 040520Z 0406/0506 04008KT P6SM BKN060 FM040700 05003KT
                       P6SM SCT060 OVC100 FM041700 05012KT P6SM
                       OVC050=
202404032325 TAF KPWT 032325Z 0400/0424 02010KT P6SM VCSH SCT030 OVC060 FM040100
                       04008KT P6SM BKN060 FM040600 05003KT P6SM
                       SCT060 OVC100 FM041700 05012KT P6SM OVC050=
202404031736 TAF KPWT 031736Z 0318/0418 20005KT P6SM SCT015 BKN045 FM031900
                       21006KT P6SM OVC060 FM040100 04008KT P6SM
                       BKN060 FM040600 05003KT P6SM OVC100=
202404031122 TAF KPWT 031122Z 0312/0412 20005KT P6SM OVC045 FM031900 21006KT
                       P6SM OVC060
                      PROB30 0323/0403 -SHRA FM040300 04004KT P6SM
                       BKN060=
202404030523 TAF KPWT 030523Z 0306/0406 22011KT P6SM SCT020 OVC060
                      TEMPO 0306/0309 6SM -RA BR BKN020 FM031600
                       21008KT P6SM OVC060 FM032100 02006KT P6SM
                       OVC060=
202404022338 TAF KPWT 022338Z 0300/0324 22015G22KT P6SM SCT040 BKN250 FM030100
                       22019G25KT P6SM VCSH OVC025 FM030400 21011KT
                       6SM -SHRA BR BKN020 OVC035 FM030900 21010KT
                       P6SM OVC025 FM031600 21008KT P6SM OVC050
                       FM032000 23006KT P6SM OVC050=
202404021744 TAF KPWT 021744Z 0218/0318 20010KT P6SM SCT250 FM021900 22014G22KT
                       P6SM SCT040 BKN250 FM030100 22019G25KT P6SM
                       VCSH OVC025 FM030400 21011KT 6SM -SHRA BR
                       BKN020 OVC035 FM030900 21010KT P6SM OVC025
                       FM031600 22007KT P6SM OVC050=
202404021124 TAF KPWT 021124Z 0212/0312 20005KT 6SM BR SCT002 FM021900 22014G22KT
                       P6SM BKN050 FM030300 21011KT P6SM -SHRA
                       BKN020 OVC035=
202404020933 KPWT 020933Z 0210/0306 21003KT P6SM FEW002
                      TEMPO 0210/0212 1/2SM FG OVC002 FM021200
                       19006KT P6SM SCT005 OVC010 FM021900 22012G19KT
                       P6SM BKN050 FM030300 21012KT P6SM VCSH BKN020
                       OVC035=
202404020818 KPWT 020818Z 0208/0306 21003KT P6SM FEW002
                      TEMPO 0208/0212 2SM BR BKN002 FM021200 19006KT
                       P6SM SCT005 OVC010 FM021900 22012G19KT P6SM
                       BKN050 FM030300 21012KT P6SM VCSH BKN020
                       OVC035=
202404020525 TAF KPWT 020525Z 0206/0306 21003KT P6SM SCT050 BKN200 FM020900
                       19006KT P6SM SCT005 OVC010 FM021900 22012G19KT
                       P6SM BKN050 FM030300 21012KT P6SM VCSH BKN020
                       OVC035=
202404012321 TAF KPWT 012321Z 0200/0224 21006KT P6SM SCT025 BKN150 FM020900
                       19006KT P6SM OVC015 FM021900 20009KT P6SM
                       BKN050=
202404011736 TAF KPWT 011736Z 0118/0218 21006KT P6SM OVC010 FM012200 21006KT
                       P6SM SCT025 BKN150 FM020800 19006KT P6SM
                       OVC010=
202404011358 KPWT 011358Z 0114/0212 23006KT 2SM BR OVC002 FM011700 23006KT 4SM
                       BR OVC006 FM011800 21006KT P6SM BKN200 FM021100
                       21006KT P6SM OVC012=
202404011142 TAF KPWT 011142Z 0112/0212 00000KT P6SM BKN200 FM011400 00000KT
                       P6SM BKN010 FM011700 21006KT P6SM BKN200
                       FM021100 21006KT P6SM OVC012=
202404010527 TAF KPWT 010527Z 0106/0206 00000KT P6SM SCT250 FM011400 VRB02KT
                       P6SM FEW007 BKN015 FM011800 21006KT P6SM
                       SCT200=