##########################################################
# Query made at 02/16/2025 01:32:20 UTC
# Time interval: from 07/01/2024 00:00  to 07/31/2024 23:59  UTC
##########################################################

##########################################################
# KPWT, Bremerton National Automatic Weather Observing / Reporting System (United States)
# WMO index: -----. WIGOS ID: Unknown
# Latitude 47-30N. Longitude 122-45W. Altitude 147 m.
##########################################################

###################################
#  METAR/SPECI from KPWT
###################################
202407312356 METAR KPWT 312356Z AUTO VRB03KT 10SM CLR 26/16 A3005 RMK AO2 SLP176 T02560156 10261 20189 56012=
202407312256 METAR KPWT 312256Z AUTO 01005KT 10SM CLR 25/16 A3006 RMK AO2 SLP179 T02500156=
202407312156 METAR KPWT 312156Z AUTO 25005KT 10SM BKN036 25/16 A3007 RMK AO2 SLP184 T02500156=
202407312056 METAR KPWT 312056Z AUTO 00000KT 10SM OVC032 22/16 A3008 RMK AO2 SLP189 T02220156 55001=
202407312040 SPECI KPWT 312040Z AUTO 03007KT 10SM SCT028 OVC032 23/16 A3008 RMK AO2=
202407312014 SPECI KPWT 312014Z AUTO 01006KT 10SM BKN028 OVC033 22/16 A3009 RMK AO2=
202407311956 METAR KPWT 311956Z AUTO 10004KT 10SM OVC034 22/16 A3008 RMK AO2 SLP189 T02220161=
202407311856 METAR KPWT 311856Z AUTO VRB03KT 10SM CLR 22/16 A3008 RMK AO2 SLP189 T02170161=
202407311756 METAR KPWT 311756Z AUTO 00000KT 10SM FEW015 OVC036 19/16 A3009 RMK AO2 SLP191 T01940161 10194 20150 51001=
202407311751 SPECI KPWT 311751Z AUTO 00000KT 10SM SCT015 OVC036 19/17 A3009 RMK AO2=
202407311718 SPECI KPWT 311718Z AUTO 00000KT 10SM OVC011 18/16 A3009 RMK AO2=
202407311656 METAR KPWT 311656Z AUTO 00000KT 10SM OVC007 17/17 A3009 RMK AO2 CIG 006V011 SLP192 T01720167=
202407311649 SPECI KPWT 311649Z AUTO 02004KT 10SM OVC007 17/17 A3009 RMK AO2=
202407311637 SPECI KPWT 311637Z AUTO 00000KT 10SM OVC005 17/17 A3009 RMK AO2 CIG 003V008=
202407311556 METAR KPWT 311556Z AUTO 04004KT 4SM BR OVC003 16/16 A3009 RMK AO2 SLP191 T01610161=
202407311553 SPECI KPWT 311553Z AUTO 06003KT 3SM BR OVC003 16/16 A3009 RMK AO2=
202407311513 SPECI KPWT 311513Z AUTO 04004KT 2 1/2SM BR OVC003 16/16 A3008 RMK AO2 CIG 002V007=
202407311456 METAR KPWT 311456Z AUTO 05004KT 10SM OVC005 16/16 A3008 RMK AO2 SLP187 T01610161 51006=
202407311451 SPECI KPWT 311451Z AUTO 03004KT 10SM OVC005 16/16 A3008 RMK AO2 CIG 003V008=
202407311356 METAR KPWT 311356Z AUTO 00000KT 9SM OVC003 16/16 A3007 RMK AO2 SLP184 T01560156=
202407311314 SPECI KPWT 311314Z AUTO 00000KT 10SM OVC003 16/16 A3006 RMK AO2=
202407311256 METAR KPWT 311256Z AUTO 00000KT 10SM BKN005 OVC010 16/16 A3006 RMK AO2 SLP180 T01560156=
202407311245 SPECI KPWT 311245Z AUTO 00000KT 10SM BKN005 BKN010 15/15 A3006 RMK AO2=
202407311228 SPECI KPWT 311228Z AUTO 00000KT 5SM BR SCT005 BKN010 15/15 A3005 RMK AO2=
202407311219 SPECI KPWT 311219Z AUTO 12003KT 2 1/2SM BR BKN005 OVC010 15/15 A3005 RMK AO2 CIG 002V006=
202407311156 METAR KPWT 311156Z AUTO 00000KT 2 1/2SM BR OVC003 15/15 A3005 RMK AO2 SLP177 7//// T01500150 10156 20144 53002=
202407311127 SPECI KPWT 311127Z AUTO 00000KT 5SM BR OVC003 15/15 A3005 RMK AO2=
202407311117 SPECI KPWT 311117Z AUTO 00000KT 2SM BR OVC003 15/15 A3004 RMK AO2=
202407311056 METAR KPWT 311056Z AUTO 00000KT 6SM BR OVC003 15/15 A3004 RMK AO2 SLP175 T01500150=
202407311033 SPECI KPWT 311033Z AUTO 18003KT 7SM OVC003 15/15 A3004 RMK AO2=
202407311025 SPECI KPWT 311025Z AUTO 00000KT 2 1/2SM BR OVC003 16/16 A3004 RMK AO2=
202407310956 METAR KPWT 310956Z AUTO 00000KT 3SM BR OVC003 16/16 A3003 RMK AO2 SLP172 T01560156=
202407310856 METAR KPWT 310856Z AUTO 00000KT 10SM OVC003 16/16 A3004 RMK AO2 SLP174 T01560156 58003=
202407310804 SPECI KPWT 310804Z AUTO 00000KT 10SM BKN003 OVC007 16/16 A3004 RMK AO2=
202407310756 METAR KPWT 310756Z AUTO 00000KT 10SM BKN007 15/15 A3005 RMK AO2 CIG 003V009 SLP176 T01500150 402390144=
202407310742 SPECI KPWT 310742Z AUTO 00000KT 10SM SCT009 15/15 A3005 RMK AO2=
202407310735 SPECI KPWT 310735Z AUTO 00000KT 2 1/2SM BR FEW009 15/15 A3005 RMK AO2=
202407310730 SPECI KPWT 310730Z AUTO 00000KT 1SM BR VV009 14/14 A3005 RMK AO2=
202407310725 SPECI KPWT 310725Z AUTO 00000KT 1 3/4SM BR CLR 14/14 A3005 RMK AO2=
202407310656 METAR KPWT 310656Z AUTO 20003KT 10SM FEW008 16/16 A3005 RMK AO2 SLP177 T01560156=
202407310651 SPECI KPWT 310651Z AUTO 19005KT 10SM FEW008 16/16 A3005 RMK AO2=
202407310638 SPECI KPWT 310638Z AUTO 16003KT 10SM SCT010 16/16 A3005 RMK AO2=
202407310556 METAR KPWT 310556Z AUTO 20003KT 10SM BKN010 16/16 A3005 RMK AO2 SLP178 6//// T01610161 10228 20161 51008=
202407310520 SPECI KPWT 310520Z AUTO 19003KT 10SM BKN010 16/16 A3005 RMK AO2=
202407310513 SPECI KPWT 310513Z AUTO 19003KT 10SM SCT010 16/16 A3005 RMK AO2=
202407310456 METAR KPWT 310456Z AUTO 19006KT 10SM BKN012 17/17 A3005 RMK AO2 SLP178 T01720167=
202407310442 SPECI KPWT 310442Z AUTO 19005KT 10SM BKN012 17/17 A3005 RMK AO2=
202407310356 METAR KPWT 310356Z AUTO 20006KT 10SM CLR 18/16 A3004 RMK AO2 SLP174 T01780161=
202407310256 METAR KPWT 310256Z AUTO 22009KT 10SM FEW020 20/17 A3003 RMK AO2 SLP170 6//// T02000167 53003=
202407310223 SPECI KPWT 310223Z AUTO 21011KT 10SM SCT022 21/16 A3003 RMK AO2=
202407310212 SPECI KPWT 310212Z AUTO 23010KT 10SM BKN022 22/17 A3003 RMK AO2=
202407310156 METAR KPWT 310156Z AUTO 24009KT 10SM FEW024 22/17 A3002 RMK AO2 SLP168 T02170167=
202407310056 METAR KPWT 310056Z AUTO 23014G22KT 10SM CLR 22/16 A3002 RMK AO2 SLP166 T02220161=
202407302356 METAR KPWT 302356Z AUTO 21014G20KT 10SM FEW025 22/17 A3002 RMK AO2 SLP167 T02170167 10239 20200 55001=
202407302256 METAR KPWT 302256Z AUTO 21014G19KT 10SM SCT025 23/17 A3002 RMK AO2 SLP165 T02330167=
202407302156 METAR KPWT 302156Z AUTO 22016G21KT 10SM FEW023 OVC060 23/17 A3002 RMK AO2 SLP167 T02280167=
202407302056 METAR KPWT 302056Z AUTO 20013G23KT 10SM FEW024 23/17 A3002 RMK AO2 SLP168 T02280167 53003=
202407301956 METAR KPWT 301956Z AUTO 21015G24KT 10SM FEW022 22/17 A3002 RMK AO2 SLP167 T02170167=
202407301952 SPECI KPWT 301952Z AUTO 22017G22KT 10SM SCT022 22/17 A3002 RMK AO2=
202407301856 METAR KPWT 301856Z AUTO 20016G20KT 10SM BKN018 21/17 A3001 RMK AO2 SLP165 T02060167=
202407301851 SPECI KPWT 301851Z AUTO 21014G22KT 10SM BKN018 21/17 A3001 RMK AO2=
202407301756 METAR KPWT 301756Z AUTO 21014G23KT 10SM SCT014 20/17 A3000 RMK AO2 SLP162 T02000167 10211 20161 51005=
202407301753 SPECI KPWT 301753Z AUTO 22016G23KT 10SM SCT014 20/17 A3000 RMK AO2=
202407301705 SPECI KPWT 301705Z AUTO 20012KT 10SM OVC010 19/18 A3000 RMK AO2 CIG 006V015=
202407301656 METAR KPWT 301656Z AUTO 20011KT 10SM OVC008 19/18 A3000 RMK AO2 CIG 006V012 SLP160 T01890178=
202407301556 METAR KPWT 301556Z AUTO 20010KT 10SM BKN006 17/17 A2999 RMK AO2 SLP158 T01720172=
202407301530 SPECI KPWT 301530Z AUTO 20011G16KT 10SM BKN006 OVC043 17/17 A2998 RMK AO2 CIG 005V009=
202407301511 SPECI KPWT 301511Z AUTO 20011KT 10SM SCT006 BKN043 17/17 A2998 RMK AO2=
202407301456 METAR KPWT 301456Z AUTO 20011G17KT 10SM BKN006 BKN043 17/17 A2997 RMK AO2 CIG 004V010 SLP152 T01670167 51004=
202407301451 SPECI KPWT 301451Z AUTO 20012KT 10SM OVC006 17/17 A2997 RMK AO2 CIG 004V010=
202407301356 METAR KPWT 301356Z AUTO 21008KT 10SM OVC004 16/16 A2997 RMK AO2 SLP150 T01610161=
202407301256 METAR KPWT 301256Z AUTO 20009KT 10SM OVC004 16/ A2996 RMK AO2 SLP149 T0161=
202407301246 SPECI KPWT 301246Z AUTO 21009KT 10SM OVC004 16/ A2996 RMK AO2=
202407301233 SPECI KPWT 301233Z AUTO 21011KT 10SM OVC006 16/ A2996 RMK AO2 CIG 004V009=
202407301214 SPECI KPWT 301214Z AUTO 20008KT 10SM OVC004 16/ A2996 RMK AO2 CIG 004V009=
202407301156 METAR KPWT 301156Z AUTO 21007KT 10SM OVC006 16/ A2996 RMK AO2 RAE27 SLP145 P0002 60008 7//// T0161 10161 20161 53005=
202407301056 METAR KPWT 301056Z AUTO 21008KT 10SM -RA OVC006 16/16 A2994 RMK AO2 CIG 004V010 SLP142 P0001 T01610161=
202407300956 METAR KPWT 300956Z AUTO 21008KT 9SM -RA OVC006 16/16 A2994 RMK AO2 CIG 004V009 SLP142 P0004 T01610161=
202407300856 METAR KPWT 300856Z AUTO 21008KT 10SM -RA OVC006 16/16 A2994 RMK AO2 RAE06B41 SLP141 P0001 60001 T01610161 51003=
202407300756 METAR KPWT 300756Z AUTO 20007KT 10SM -RA OVC006 16/16 A2994 RMK AO2 RAB28 CIG 004V009 SLP142 P0000 T01610161 402110144=
202407300656 METAR KPWT 300656Z AUTO 21010KT 10SM OVC006 16/16 A2993 RMK AO2 SLP139 T01610161=
202407300556 METAR KPWT 300556Z AUTO 21010KT 10SM OVC006 16/16 A2993 RMK AO2 RAB07E48 CIG 005V012 SLP140 P0001 60001 T01610161 10200 20161 53006=
202407300518 SPECI KPWT 300518Z AUTO 21011KT 10SM -RA BKN006 OVC010 17/17 A2993 RMK AO2 RAB07 P0000=
202407300456 METAR KPWT 300456Z AUTO 21010KT 10SM OVC010 17/17 A2993 RMK AO2 RAB11E53 CIG 005V013 SLP138 P0000 T01670167=
202407300356 METAR KPWT 300356Z AUTO 21011KT 10SM OVC012 17/17 A2992 RMK AO2 SLP134 T01720167=
202407300256 METAR KPWT 300256Z AUTO 20009KT 10SM BKN014 18/17 A2992 RMK AO2 SLP133 T01830167 51004=
202407300252 SPECI KPWT 300252Z AUTO 20009KT 10SM BKN014 18/17 A2992 RMK AO2=
202407300156 METAR KPWT 300156Z AUTO 20013KT 10SM CLR 18/17 A2991 RMK AO2 SLP131 T01830167=
202407300056 METAR KPWT 300056Z AUTO 20012G18KT 10SM FEW016 SCT080 19/17 A2990 RMK AO2 SLP129 T01890172=
202407300023 SPECI KPWT 300023Z AUTO 20013KT 10SM SCT016 19/17 A2991 RMK AO2=
202407292356 METAR KPWT 292356Z AUTO 20015G22KT 10SM BKN018 21/17 A2990 RMK AO2 SLP129 6//// T02060167 10211 20161 53000=
202407292316 SPECI KPWT 292316Z AUTO 20014G22KT 10SM OVC016 21/18 A2990 RMK AO2=
202407292256 METAR KPWT 292256Z AUTO 19014G19KT 10SM OVC014 21/18 A2990 RMK AO2 SLP128 T02060178=
202407292213 SPECI KPWT 292213Z AUTO 21011G17KT 10SM BKN010 OVC019 20/19 A2991 RMK AO2=
202407292156 METAR KPWT 292156Z AUTO 20014G20KT 10SM BKN008 BKN011 OVC021 20/18 A2990 RMK AO2 SLP128 T02000183=
202407292056 METAR KPWT 292056Z AUTO 20011G17KT 10SM OVC006 19/18 A2990 RMK AO2 CIG 004V010 SLP128 60000 T01890183 56001=
202407292049 SPECI KPWT 292049Z AUTO 21011G17KT 10SM OVC006 19/18 A2990 RMK AO2 CIG 004V010=
202407291956 METAR KPWT 291956Z AUTO 19010G15KT 10SM OVC004 17/17 A2990 RMK AO2 SLP130 T01720172=
202407291856 METAR KPWT 291856Z AUTO 19011KT 10SM OVC004 17/17 A2990 RMK AO2 RAB1757E09 SLP130 P0000 T01670167=
202407291756 METAR KPWT 291756Z AUTO 19010KT 5SM BR OVC004 16/16 A2991 RMK AO2 RAE10 SLP131 P0000 60009 T01610161 10161 20144 53003=
202407291656 METAR KPWT 291656Z AUTO 20010KT 8SM -RA OVC004 16/16 A2990 RMK AO2 SLP129 P0002 T01560156=
202407291556 METAR KPWT 291556Z AUTO 20008KT 6SM -RA BR OVC004 15/15 A2990 RMK AO2 SLP129 P0002 T01500150=
202407291456 METAR KPWT 291456Z AUTO 20009KT 9SM -RA OVC004 14/14 A2990 RMK AO2 SLP128 P0002 60005 T01440144 53003=
202407291356 METAR KPWT 291356Z AUTO 21009KT 9SM -RA OVC004 14/14 A2989 RMK AO2 SLP125 P0000 T01440144=
202407291256 METAR KPWT 291256Z AUTO 20007KT 10SM -RA OVC004 14/14 A2989 RMK AO2 CIG 003V007 SLP123 P0003 T01440144=
202407291235 SPECI KPWT 291235Z AUTO 20009KT 10SM -RA BKN008 BKN014 14/14 A2989 RMK AO2 CIG 005V009 P0001=
202407291225 SPECI KPWT 291225Z AUTO 19007KT 10SM -RA SCT008 BKN014 BKN026 14/14 A2989 RMK AO2 P0001=
202407291222 SPECI KPWT 291222Z AUTO 20007KT 10SM -RA FEW010 SCT014 BKN026 14/14 A2989 RMK AO2 P0001=
202407291156 METAR KPWT 291156Z AUTO 20006KT 10SM -RA FEW028 OVC036 14/14 A2989 RMK AO2 RAB44 SLP124 P0000 60000 7//// T01440144 10150 20139 56006=
202407291056 METAR KPWT 291056Z AUTO 21006KT 10SM OVC034 15/14 A2989 RMK AO2 SLP125 T01500144=
202407290956 METAR KPWT 290956Z AUTO 21005KT 10SM FEW011 BKN034 15/14 A2990 RMK AO2 SLP126 T01500139=
202407290856 METAR KPWT 290856Z AUTO 20005KT 10SM CLR 15/14 A2991 RMK AO2 SLP130 T01500139 58002=
202407290756 METAR KPWT 290756Z AUTO 18003KT 10SM OVC120 14/13 A2991 RMK AO2 SLP133 T01440133 402060117=
202407290656 METAR KPWT 290656Z AUTO 19004KT 10SM SCT120 14/13 A2992 RMK AO2 SLP134 T01440128=
202407290556 METAR KPWT 290556Z AUTO 19004KT 10SM CLR 15/13 A2991 RMK AO2 SLP133 6//// T01500128 10206 20144 50004=
202407290456 METAR KPWT 290456Z AUTO 21005KT 10SM CLR 15/13 A2992 RMK AO2 SLP134 T01500128=
202407290356 METAR KPWT 290356Z AUTO 21003KT 10SM CLR 16/13 A2991 RMK AO2 SLP131 T01560128=
202407290256 METAR KPWT 290256Z AUTO 20008KT 10SM CLR 18/13 A2990 RMK AO2 SLP129 6//// T01780133 56005=
202407290156 METAR KPWT 290156Z AUTO 18008KT 10SM CLR 19/13 A2991 RMK AO2 SLP129 T01940133=
202407290056 METAR KPWT 290056Z AUTO 21007KT 10SM CLR 21/13 A2991 RMK AO2 SLP130 T02060133=
202407290003 SPECI KPWT 290003Z AUTO 20007G15KT 10SM SCT024 21/13 A2992 RMK AO2=
202407282356 METAR KPWT 282356Z AUTO 21007KT 10SM BKN024 20/13 A2992 RMK AO2 SLP133 T02000133 10200 20150 58012=
202407282256 METAR KPWT 282256Z AUTO VRB06KT 10SM OVC022 19/13 A2994 RMK AO2 SLP141 T01890133=
202407282156 METAR KPWT 282156Z AUTO 20011G16KT 160V230 10SM OVC020 18/13 A2994 RMK AO2 SLP141 T01830133=
202407282056 METAR KPWT 282056Z AUTO 22011KT 10SM OVC018 18/13 A2995 RMK AO2 SLP145 T01780133 58002=
202407281956 METAR KPWT 281956Z AUTO 19007KT 10SM OVC016 17/13 A2996 RMK AO2 SLP146 T01670133=
202407281856 METAR KPWT 281856Z AUTO 18005KT 10SM BKN016 OVC021 16/13 A2996 RMK AO2 SLP147 T01610133=
202407281756 METAR KPWT 281756Z AUTO 20007KT 10SM OVC012 16/13 A2996 RMK AO2 SLP148 T01560128 10156 20133 51007=
202407281656 METAR KPWT 281656Z AUTO 20006KT 10SM OVC012 14/13 A2996 RMK AO2 SLP148 T01440128=
202407281556 METAR KPWT 281556Z AUTO 19005KT 10SM OVC010 14/13 A2995 RMK AO2 SLP144 T01390128=
202407281456 METAR KPWT 281456Z AUTO 21007KT 10SM OVC010 14/13 A2994 RMK AO2 SLP141 T01390128 51007=
202407281356 METAR KPWT 281356Z AUTO 20006KT 10SM OVC010 13/12 A2993 RMK AO2 SLP138 T01330122=
202407281256 METAR KPWT 281256Z AUTO 20007KT 10SM OVC010 13/12 A2993 RMK AO2 SLP136 T01330122=
202407281156 METAR KPWT 281156Z AUTO 20007KT 10SM OVC010 13/12 A2992 RMK AO2 SLP133 7//// T01330122 10144 20117 53005=
202407281056 METAR KPWT 281056Z AUTO 20005KT 10SM OVC010 13/12 A2991 RMK AO2 SLP129 T01330122=
202407280956 METAR KPWT 280956Z AUTO 21004KT 10SM OVC010 13/12 A2991 RMK AO2 SLP129 T01280122=
202407280917 SPECI KPWT 280917Z AUTO 20003KT 10SM BKN010 12/12 A2990 RMK AO2=
202407280856 METAR KPWT 280856Z AUTO 00000KT 10SM CLR 12/12 A2990 RMK AO2 SLP128 T01220117 51007=
202407280756 METAR KPWT 280756Z AUTO 20004KT 10SM CLR 12/12 A2990 RMK AO2 SLP127 T01220117 402610089=
202407280656 METAR KPWT 280656Z AUTO 21005KT 10SM CLR 13/12 A2989 RMK AO2 SLP124 T01330122=
202407280556 METAR KPWT 280556Z AUTO 20005KT 10SM CLR 14/13 A2988 RMK AO2 SLP121 6//// T01440128 10256 20144 53008=
202407280456 METAR KPWT 280456Z AUTO 21005KT 10SM CLR 16/13 A2988 RMK AO2 SLP119 T01610133=
202407280356 METAR KPWT 280356Z AUTO 22009KT 10SM CLR 19/13 A2986 RMK AO2 SLP115 T01890133=
202407280256 METAR KPWT 280256Z AUTO 23010KT 10SM CLR 22/13 A2986 RMK AO2 SLP113 6//// T02170133 55002=
202407280156 METAR KPWT 280156Z AUTO 22008KT 10SM CLR 24/12 A2985 RMK AO2 SLP111 T02390122=
202407280056 METAR KPWT 280056Z AUTO 23007KT 10SM CLR 25/12 A2985 RMK AO2 SLP111 T02500117=
202407272356 METAR KPWT 272356Z AUTO 21005KT 10SM CLR 26/12 A2986 RMK AO2 SLP115 T02560117 10261 20200 56009=
202407272256 METAR KPWT 272256Z AUTO 27006KT 10SM CLR 24/12 A2987 RMK AO2 SLP116 T02440117=
202407272156 METAR KPWT 272156Z AUTO 25006KT 10SM CLR 24/12 A2988 RMK AO2 SLP118 T02440122=
202407272056 METAR KPWT 272056Z AUTO 25006KT 10SM CLR 24/11 A2989 RMK AO2 SLP123 T02390111 58008=
202407271956 METAR KPWT 271956Z AUTO VRB04KT 10SM CLR 23/12 A2990 RMK AO2 SLP127 T02280117=
202407271856 METAR KPWT 271856Z AUTO 24006KT 10SM CLR 22/12 A2990 RMK AO2 SLP129 T02170117=
202407271756 METAR KPWT 271756Z AUTO VRB03KT 10SM CLR 21/12 A2991 RMK AO2 SLP132 6//// T02060122 10206 20089 58005=
202407271656 METAR KPWT 271656Z AUTO VRB05KT 10SM CLR 19/12 A2992 RMK AO2 SLP134 T01890117=
202407271556 METAR KPWT 271556Z AUTO 21003KT 10SM CLR 16/12 A2993 RMK AO2 SLP137 T01610117=
202407271456 METAR KPWT 271456Z AUTO VRB03KT 10SM CLR 14/12 A2993 RMK AO2 SLP136 6//// T01390117 51004=
202407271356 METAR KPWT 271356Z AUTO 00000KT 10SM CLR 12/11 A2993 RMK AO2 SLP136 T01170106=
202407271256 METAR KPWT 271256Z AUTO 00000KT 10SM CLR 10/09 A2992 RMK AO2 SLP135 T01000089=
202407271156 METAR KPWT 271156Z AUTO 00000KT 10SM CLR 09/09 A2992 RMK AO2 SLP133 T00940089 10144 20094 55001=
202407271056 METAR KPWT 271056Z AUTO 00000KT 10SM CLR 11/10 A2991 RMK AO2 SLP132 T01110100=
202407270956 METAR KPWT 270956Z AUTO 00000KT 10SM CLR 12/10 A2992 RMK AO2 SLP132 T01220100=
202407270856 METAR KPWT 270856Z AUTO 00000KT 10SM CLR 14/11 A2992 RMK AO2 SLP133 T01440106 58005=
202407270756 METAR KPWT 270756Z AUTO 00000KT 10SM CLR 14/09 A2993 RMK AO2 SLP136 T01390094 402500078=
202407270656 METAR KPWT 270656Z AUTO 07003KT 10SM CLR 13/09 A2993 RMK AO2 SLP138 T01280089=
202407270556 METAR KPWT 270556Z AUTO 00000KT 10SM CLR 14/09 A2993 RMK AO2 SLP139 T01440089 10250 20144 56001=
202407270456 METAR KPWT 270456Z AUTO 00000KT 10SM CLR 17/09 A2994 RMK AO2 SLP140 T01720094=
202407270356 METAR KPWT 270356Z AUTO 03005KT 10SM CLR 20/09 A2993 RMK AO2 SLP138 T02000094=
202407270256 METAR KPWT 270256Z AUTO 05006KT 10SM CLR 22/08 A2994 RMK AO2 SLP140 T02220083 56012=
202407270156 METAR KPWT 270156Z AUTO 03010KT 10SM CLR 23/08 A2994 RMK AO2 SLP142 T02330078=
202407270056 METAR KPWT 270056Z AUTO 03009KT 360V060 10SM CLR 24/09 A2996 RMK AO2 SLP148 T02390089=
202407262356 METAR KPWT 262356Z AUTO VRB05KT 10SM CLR 24/09 A2997 RMK AO2 SLP152 T02440094 10250 20194 56023=
202407262256 METAR KPWT 262256Z AUTO 04009KT 10SM CLR 24/09 A2999 RMK AO2 SLP159 T02440094=
202407262156 METAR KPWT 262156Z AUTO 07009G14KT 10SM CLR 24/10 A3001 RMK AO2 SLP166 T02390100=
202407262056 METAR KPWT 262056Z AUTO 02006KT 10SM CLR 23/11 A3004 RMK AO2 SLP175 T02330111 58018=
202407261956 METAR KPWT 261956Z AUTO VRB05KT 10SM CLR 22/11 A3006 RMK AO2 SLP182 T02220111=
202407261856 METAR KPWT 261856Z AUTO 06007KT 10SM CLR 21/11 A3008 RMK AO2 SLP189 T02110111=
202407261756 METAR KPWT 261756Z AUTO 07006KT 10SM CLR 19/12 A3010 RMK AO2 SLP194 T01940117 10194 20078 58015=
202407261656 METAR KPWT 261656Z AUTO 34003KT 10SM CLR 18/12 A3011 RMK AO2 SLP199 T01780117=
202407261556 METAR KPWT 261556Z AUTO 00000KT 10SM CLR 16/12 A3013 RMK AO2 SLP205 T01560117=
202407261456 METAR KPWT 261456Z AUTO 05003KT 10SM CLR 14/12 A3014 RMK AO2 SLP209 T01390117 57007=
202407261356 METAR KPWT 261356Z AUTO 00000KT 10SM CLR 11/11 A3015 RMK AO2 SLP213 T01060106=
202407261256 METAR KPWT 261256Z AUTO 00000KT 10SM CLR 08/08 A3015 RMK AO2 SLP214 T00830083=
202407261156 METAR KPWT 261156Z AUTO 00000KT 10SM CLR 09/09 A3016 RMK AO2 SLP217 T00890089 10156 20083 57005=
202407261056 METAR KPWT 261056Z AUTO 00000KT 10SM CLR 10/10 A3017 RMK AO2 SLP219 T01000100=
202407260956 METAR KPWT 260956Z AUTO 05003KT 10SM CLR 12/11 A3017 RMK AO2 SLP221 T01170106=
202407260856 METAR KPWT 260856Z AUTO 06004KT 10SM CLR 13/11 A3018 RMK AO2 SLP222 T01280111 56010=
202407260756 METAR KPWT 260756Z AUTO 06005KT 10SM CLR 13/11 A3019 RMK AO2 SLP225 T01330111 402170122=
202407260656 METAR KPWT 260656Z AUTO 05005KT 10SM CLR 14/11 A3020 RMK AO2 SLP228 T01440106=
202407260556 METAR KPWT 260556Z AUTO 05007KT 10SM CLR 16/11 A3021 RMK AO2 SLP232 T01560106 10217 20156 58003=
202407260456 METAR KPWT 260456Z AUTO 05008KT 10SM CLR 16/11 A3022 RMK AO2 SLP236 T01610106=
202407260356 METAR KPWT 260356Z AUTO 03006KT 10SM CLR 18/10 A3022 RMK AO2 SLP234 T01780100=
202407260256 METAR KPWT 260256Z AUTO 04007KT 10SM FEW070 20/09 A3022 RMK AO2 SLP235 T02000094 56009=
202407260156 METAR KPWT 260156Z AUTO 05005KT 10SM BKN050 21/09 A3022 RMK AO2 SLP235 T02110094=
202407260056 METAR KPWT 260056Z AUTO 00000KT 10SM BKN050 BKN070 21/10 A3022 RMK AO2 SLP238 T02110100=
202407252356 METAR KPWT 252356Z AUTO 20003KT 10SM OVC050 21/09 A3024 RMK AO2 SLP244 T02060094 10217 20178 58003=
202407252256 METAR KPWT 252256Z AUTO 17003KT 10SM OVC049 21/09 A3025 RMK AO2 SLP247 T02060089=
202407252156 METAR KPWT 252156Z AUTO 07006KT 10SM OVC047 21/10 A3026 RMK AO2 SLP249 T02060100=
202407252056 METAR KPWT 252056Z AUTO VRB05KT 10SM SCT045 BKN055 21/09 A3025 RMK AO2 SLP247 T02060094 53003=
202407251956 METAR KPWT 251956Z AUTO VRB03KT 10SM SCT042 BKN070 21/11 A3025 RMK AO2 SLP245 T02060106=
202407251856 METAR KPWT 251856Z AUTO VRB06KT 10SM CLR 19/11 A3025 RMK AO2 SLP246 T01890111=
202407251831 SPECI KPWT 251831Z AUTO VRB05KT 10SM SCT029 18/11 A3025 RMK AO2=
202407251818 SPECI KPWT 251818Z AUTO 15007KT 10SM BKN029 BKN035 19/12 A3025 RMK AO2=
202407251756 METAR KPWT 251756Z AUTO 00000KT 10SM CLR 18/11 A3024 RMK AO2 SLP244 T01780111 10178 20128 51009=
202407251744 SPECI KPWT 251744Z AUTO VRB03KT 10SM SCT023 17/12 A3024 RMK AO2=
202407251656 METAR KPWT 251656Z AUTO 22004KT 10SM BKN020 16/12 A3024 RMK AO2 SLP243 T01610117=
202407251637 SPECI KPWT 251637Z AUTO 00000KT 10SM BKN018 16/12 A3023 RMK AO2=
202407251556 METAR KPWT 251556Z AUTO 16004KT 10SM FEW035 15/11 A3023 RMK AO2 SLP239 T01500111=
202407251520 SPECI KPWT 251520Z AUTO 20003KT 10SM SCT013 OVC031 14/12 A3022 RMK AO2=
202407251456 METAR KPWT 251456Z AUTO 23004KT 10SM SCT013 BKN022 OVC029 14/12 A3022 RMK AO2 SLP235 T01390117 53014=
202407251444 SPECI KPWT 251444Z AUTO 21005KT 10SM BKN013 OVC022 13/12 A3021 RMK AO2=
202407251356 METAR KPWT 251356Z AUTO 00000KT 10SM OVC022 13/12 A3019 RMK AO2 SLP228 T01330117=
202407251322 SPECI KPWT 251322Z AUTO 00000KT 10SM BKN026 BKN055 13/11 A3019 RMK AO2=
202407251256 METAR KPWT 251256Z AUTO 00000KT 10SM OVC055 13/12 A3018 RMK AO2 SLP222 T01330117=
202407251156 METAR KPWT 251156Z AUTO 00000KT 10SM SCT027 BKN036 13/11 A3017 RMK AO2 SLP219 T01330111 10150 20122 53008=
202407251056 METAR KPWT 251056Z AUTO 00000KT 10SM OVC036 13/11 A3016 RMK AO2 SLP215 T01330111=
202407251019 SPECI KPWT 251019Z AUTO 00000KT 10SM SCT028 SCT038 13/11 A3016 RMK AO2=
202407250956 METAR KPWT 250956Z AUTO 19003KT 10SM BKN026 13/11 A3015 RMK AO2 SLP213 T01330111=
202407250907 SPECI KPWT 250907Z AUTO 00000KT 10SM BKN028 13/11 A3015 RMK AO2=
202407250856 METAR KPWT 250856Z AUTO 00000KT 10SM SCT028 13/11 A3015 RMK AO2 SLP211 T01330106 53007=
202407250756 METAR KPWT 250756Z AUTO 00000KT 10SM BKN055 14/11 A3014 RMK AO2 SLP207 T01440111 402440072=
202407250656 METAR KPWT 250656Z AUTO 07003KT 10SM FEW033 OVC060 15/11 A3013 RMK AO2 SLP205 T01500111=
202407250605 SPECI KPWT 250605Z AUTO 00000KT 10SM SCT028 OVC039 15/11 A3013 RMK AO2=
202407250556 METAR KPWT 250556Z AUTO 13003KT 10SM BKN028 OVC037 15/12 A3013 RMK AO2 SLP205 T01500117 10222 20150 51012=
202407250554 SPECI KPWT 250554Z AUTO 13003KT 10SM BKN028 OVC037 15/12 A3013 RMK AO2=
202407250456 METAR KPWT 250456Z AUTO 12005KT 10SM OVC037 16/12 A3011 RMK AO2 SLP199 T01560117=
202407250356 METAR KPWT 250356Z AUTO 10005KT 10SM BKN043 BKN050 17/12 A3009 RMK AO2 SLP193 T01720122=
202407250256 METAR KPWT 250256Z AUTO 08006KT 10SM OVC055 19/13 A3008 RMK AO2 SLP189 T01890128 58001=
202407250156 METAR KPWT 250156Z AUTO 08005KT 10SM BKN049 BKN055 20/12 A3008 RMK AO2 SLP190 T02000122=
202407250056 METAR KPWT 250056Z AUTO 23005KT 10SM OVC047 21/11 A3009 RMK AO2 SLP191 T02110106=
202407242356 METAR KPWT 242356Z AUTO VRB04KT 10SM BKN050 23/12 A3008 RMK AO2 SLP191 T02280117 10244 20194 55003=
202407242256 METAR KPWT 242256Z AUTO 21010KT 10SM BKN048 24/12 A3008 RMK AO2 SLP188 T02440122=
202407242156 METAR KPWT 242156Z AUTO 20010G14KT 10SM FEW044 SCT055 24/13 A3009 RMK AO2 SLP191 T02440128=
202407242056 METAR KPWT 242056Z AUTO 24008KT 10SM BKN042 OVC050 23/13 A3009 RMK AO2 SLP193 T02280128 58004=
202407241956 METAR KPWT 241956Z AUTO 25010KT 220V290 10SM CLR 22/12 A3010 RMK AO2 SLP196 T02220122=
202407241856 METAR KPWT 241856Z AUTO 24009KT 10SM CLR 21/11 A3011 RMK AO2 SLP199 T02110111=
202407241756 METAR KPWT 241756Z AUTO VRB04KT 10SM CLR 19/11 A3011 RMK AO2 SLP198 T01940111 10194 20072 56004=
202407241656 METAR KPWT 241656Z AUTO VRB03KT 10SM CLR 17/11 A3011 RMK AO2 SLP198 T01720106=
202407241556 METAR KPWT 241556Z AUTO 00000KT 10SM CLR 16/11 A3012 RMK AO2 SLP201 T01610106=
202407241456 METAR KPWT 241456Z AUTO 00000KT 10SM CLR 14/11 A3012 RMK AO2 SLP202 T01390111 53001=
202407241356 METAR KPWT 241356Z AUTO 12003KT 10SM CLR 11/10 A3011 RMK AO2 SLP200 T01110100=
202407241256 METAR KPWT 241256Z AUTO 00000KT 10SM CLR 09/08 A3012 RMK AO2 SLP202 T00890083=
202407241156 METAR KPWT 241156Z AUTO 00000KT 10SM CLR 08/08 A3012 RMK AO2 SLP202 T00830078 10161 20078 53001=
202407241056 METAR KPWT 241056Z AUTO 00000KT 10SM CLR 08/08 A3012 RMK AO2 SLP202 T00830083=
202407240956 METAR KPWT 240956Z AUTO 00000KT 10SM CLR 10/09 A3011 RMK AO2 SLP201 T01000089=
202407240856 METAR KPWT 240856Z AUTO 00000KT 10SM CLR 11/09 A3011 RMK AO2 SLP200 T01110089 51007=
202407240756 METAR KPWT 240756Z AUTO 00000KT 10SM CLR 12/09 A3011 RMK AO2 SLP199 T01170094 402440117=
202407240656 METAR KPWT 240656Z AUTO 00000KT 10SM CLR 13/09 A3010 RMK AO2 SLP197 T01280094=
202407240556 METAR KPWT 240556Z AUTO 06004KT 10SM CLR 16/10 A3009 RMK AO2 SLP193 T01610100 10244 20161 50005=
202407240456 METAR KPWT 240456Z AUTO 06003KT 10SM CLR 17/08 A3010 RMK AO2 SLP194 T01670083=
202407240356 METAR KPWT 240356Z AUTO 07004KT 10SM CLR 19/08 A3008 RMK AO2 SLP189 T01890083=
202407240256 METAR KPWT 240256Z AUTO 05007KT 10SM CLR 21/10 A3008 RMK AO2 SLP187 T02110100 56007=
202407240156 METAR KPWT 240156Z AUTO 05009KT 10SM CLR 22/11 A3008 RMK AO2 SLP188 T02220111=
202407240056 METAR KPWT 240056Z AUTO 04009KT 10SM CLR 24/12 A3008 RMK AO2 SLP188 T02390117=
202407232356 METAR KPWT 232356Z AUTO 04007KT 10SM CLR 24/11 A3010 RMK AO2 SLP195 T02390111 10239 20183 58018=
202407232256 METAR KPWT 232256Z AUTO 06009KT 10SM CLR 23/11 A3012 RMK AO2 SLP202 T02330111=
202407232156 METAR KPWT 232156Z AUTO 04004KT 10SM CLR 22/12 A3014 RMK AO2 SLP207 T02220117=
202407232056 METAR KPWT 232056Z AUTO 03007KT 330V110 10SM CLR 22/12 A3016 RMK AO2 SLP213 T02220117=
202407231956 METAR KPWT 231956Z AUTO VRB06KT 10SM CLR 22/12 A3017 RMK AO2 SLP219 T02170117=
202407231856 METAR KPWT 231856Z AUTO VRB03KT 10SM CLR 19/12 RMK AO2 SLPNO T01940117 $=
202407231815 SPECI KPWT 231815Z AUTO 08006KT 10SM SCT029 19/12 RMK AO2 $=
202407231756 METAR KPWT 231756Z AUTO 03005KT 10SM BKN029 19/12 A3020 RMK AO2 SLP230 T01890117 10189 20133 58004=
202407231656 METAR KPWT 231656Z AUTO VRB03KT 10SM BKN025 18/12 A3021 RMK AO2 SLP233 T01830117=
202407231647 SPECI KPWT 231647Z AUTO 29003KT 10SM BKN023 18/12 A3021 RMK AO2=
202407231635 SPECI KPWT 231635Z AUTO VRB03KT 10SM SCT023 17/12 A3021 RMK AO2=
202407231627 SPECI KPWT 231627Z AUTO VRB03KT 10SM BKN021 17/12 A3022 RMK AO2=
202407231556 METAR KPWT 231556Z AUTO 03003KT 10SM CLR 16/11 A3022 RMK AO2 SLP236 T01610111=
202407231456 METAR KPWT 231456Z AUTO 06005KT 10SM CLR 15/11 A3022 RMK AO2 SLP236 T01500111 58007=
202407231356 METAR KPWT 231356Z AUTO 00000KT 10SM OVC036 14/11 A3022 RMK AO2 SLP237 T01390111=
202407231256 METAR KPWT 231256Z AUTO 00000KT 10SM OVC033 14/11 A3024 RMK AO2 SLP242 T01390111=
202407231156 METAR KPWT 231156Z AUTO 00000KT 10SM BKN033 13/12 A3024 RMK AO2 SLP243 T01330117 10144 20133 53002=
202407231121 SPECI KPWT 231121Z AUTO 05003KT 10SM SCT019 BKN033 14/12 A3023 RMK AO2=
202407231056 METAR KPWT 231056Z AUTO 04003KT 10SM BKN019 14/12 A3023 RMK AO2 SLP241 T01390117=
202407231029 SPECI KPWT 231029Z AUTO 06004KT 10SM SCT028 14/12 A3023 RMK AO2=
202407230956 METAR KPWT 230956Z AUTO 00000KT 10SM OVC026 14/12 A3023 RMK AO2 SLP240 T01390117=
202407230856 METAR KPWT 230856Z AUTO 07004KT 10SM OVC022 14/12 A3021 RMK AO2 SLP233 T01390122 51009=
202407230756 METAR KPWT 230756Z AUTO 00000KT 10SM BKN022 14/12 A3020 RMK AO2 SLP230 T01390122 401940117=
202407230714 SPECI KPWT 230714Z AUTO 05004KT 10SM BKN022 14/13 A3020 RMK AO2=
202407230707 SPECI KPWT 230707Z AUTO 04005KT 10SM SCT022 BKN031 14/13 A3020 RMK AO2=
202407230656 METAR KPWT 230656Z AUTO 04004KT 10SM SCT008 BKN022 BKN034 14/13 A3020 RMK AO2 SLP228 T01390128=
202407230618 SPECI KPWT 230618Z AUTO 06004KT 10SM BKN008 OVC022 14/13 A3018 RMK AO2=
202407230556 METAR KPWT 230556Z AUTO 06005KT 10SM FEW008 OVC022 14/14 A3018 RMK AO2 SLP224 T01440139 10194 20144 52014=
202407230529 SPECI KPWT 230529Z AUTO 05005KT 10SM SCT007 OVC024 14/14 A3017 RMK AO2=
202407230456 METAR KPWT 230456Z AUTO 04006KT 10SM OVC007 14/14 A3017 RMK AO2 SLP220 T01440139=
202407230356 METAR KPWT 230356Z AUTO 03008KT 10SM BKN007 OVC042 15/14 A3015 RMK AO2 SLP214 T01500139=
202407230327 SPECI KPWT 230327Z AUTO 04008KT 10SM BKN007 OVC044 15/14 A3015 RMK AO2=
202407230316 SPECI KPWT 230316Z AUTO 04007KT 10SM SCT007 OVC044 16/14 A3014 RMK AO2=
202407230256 METAR KPWT 230256Z AUTO 05010KT 10SM OVC042 16/14 A3014 RMK AO2 SLP210 T01560144 55000=
202407230156 METAR KPWT 230156Z AUTO 04011KT 10SM FEW038 BKN047 17/14 A3014 RMK AO2 SLP209 T01720144=
202407230056 METAR KPWT 230056Z AUTO 04009KT 10SM BKN049 18/14 A3014 RMK AO2 SLP210 T01830144=
202407222356 METAR KPWT 222356Z AUTO 02008KT 10SM FEW021 OVC047 18/14 A3014 RMK AO2 SLP211 T01830139 10183 20144 56003=
202407222352 SPECI KPWT 222352Z AUTO 02007KT 10SM FEW021 OVC047 18/14 A3014 RMK AO2=
202407222256 METAR KPWT 222256Z AUTO 05004KT 10SM OVC019 18/14 A3014 RMK AO2 SLP212 T01780139=
202407222156 METAR KPWT 222156Z AUTO 00000KT 10SM BKN017 BKN026 17/13 A3015 RMK AO2 SLP213 T01670133=
202407222132 SPECI KPWT 222132Z AUTO 00000KT 10SM OVC015 17/13 A3015 RMK AO2=
202407222056 METAR KPWT 222056Z AUTO 17005KT 10SM OVC013 16/13 A3015 RMK AO2 SLP211 T01610133 53005=
202407221956 METAR KPWT 221956Z AUTO 15005KT 10SM OVC013 16/13 A3014 RMK AO2 SLP208 T01610133=
202407221928 SPECI KPWT 221928Z AUTO 20006KT 10SM OVC011 16/13 A3013 RMK AO2=
202407221856 METAR KPWT 221856Z AUTO 21004KT 10SM OVC007 15/14 A3013 RMK AO2 CIG 007V012 SLP207 T01500139=
202407221756 METAR KPWT 221756Z AUTO 26007KT 10SM OVC009 15/14 A3013 RMK AO2 RAE27 CIG 005V012 SLP206 P0000 60000 T01500144 10150 20128 50002=
202407221739 SPECI KPWT 221739Z AUTO 23006KT 10SM BKN007 OVC013 15/15 A3013 RMK AO2 RAE27 CIG 004V010 P0000=
202407221732 SPECI KPWT 221732Z AUTO 21005KT 8SM SCT005 BKN010 OVC015 14/14 A3013 RMK AO2 RAE27 CIG 008V011 P0000=
202407221709 SPECI KPWT 221709Z AUTO 21005KT 3SM -RA BR BKN005 OVC010 14/14 A3013 RMK AO2 CIG 003V008 P0000=
202407221703 SPECI KPWT 221703Z AUTO 24006KT 2 1/2SM -RA BR OVC008 14/14 A3013 RMK AO2 CIG 003V010 P0000=
202407221656 METAR KPWT 221656Z AUTO 22005KT 5SM -RA BR OVC008 14/14 A3013 RMK AO2 RAB43 CIG 004V011 SLP207 P0000 T01390139=
202407221637 SPECI KPWT 221637Z AUTO 21003KT 4SM BR OVC008 14/14 A3013 RMK AO2 CIG 004V011=
202407221556 METAR KPWT 221556Z AUTO 21003KT 6SM BR BKN005 OVC013 14/13 A3013 RMK AO2 SLP205 T01390133=
202407221545 SPECI KPWT 221545Z AUTO 00000KT 6SM BR BKN005 OVC013 14/13 A3013 RMK AO2=
202407221532 SPECI KPWT 221532Z AUTO 00000KT 10SM FEW005 OVC013 13/13 A3013 RMK AO2=
202407221508 SPECI KPWT 221508Z AUTO 00000KT 4SM BR BKN005 OVC015 13/13 A3012 RMK AO2 CIG 004V009=
202407221456 METAR KPWT 221456Z AUTO 00000KT 3SM BR OVC007 13/13 A3012 RMK AO2 CIG 005V008 SLP204 T01330133 52004=
202407221426 SPECI KPWT 221426Z AUTO 00000KT 7SM OVC009 13/13 A3012 RMK AO2=
202407221356 METAR KPWT 221356Z AUTO 21003KT 10SM OVC013 13/13 A3012 RMK AO2 SLP200 T01330128=
202407221256 METAR KPWT 221256Z AUTO 00000KT 10SM OVC017 13/13 A3012 RMK AO2 SLP200 T01330128=
202407221156 METAR KPWT 221156Z AUTO 00000KT 10SM BKN023 13/13 A3011 RMK AO2 SLP198 7//// T01280128 10167 20117 53001=
202407221125 SPECI KPWT 221125Z AUTO 21003KT 10SM BKN023 13/13 A3011 RMK AO2=
202407221056 METAR KPWT 221056Z AUTO 17003KT 10SM SCT009 13/13 A3011 RMK AO2 SLP198 T01280128=
202407221045 SPECI KPWT 221045Z AUTO 00000KT 10SM SCT009 12/12 A3011 RMK AO2=
202407220956 METAR KPWT 220956Z AUTO 00000KT 10SM CLR 13/13 A3011 RMK AO2 SLP196 T01280128=
202407220856 METAR KPWT 220856Z AUTO 00000KT 10SM CLR 13/13 A3011 RMK AO2 SLP197 T01330128 51006=
202407220756 METAR KPWT 220756Z AUTO 18003KT 10SM CLR 14/13 A3010 RMK AO2 SLP196 T01390133 402560111=
202407220656 METAR KPWT 220656Z AUTO 19004KT 10SM CLR 16/14 A3010 RMK AO2 SLP196 T01560144=
202407220556 METAR KPWT 220556Z AUTO 18003KT 10SM CLR 17/15 A3009 RMK AO2 SLP192 6//// T01670150 10256 20167 51005=
202407220456 METAR KPWT 220456Z AUTO 20003KT 10SM CLR 19/16 A3009 RMK AO2 SLP191 T01940156=
202407220356 METAR KPWT 220356Z AUTO 00000KT 10SM CLR 21/16 A3008 RMK AO2 SLP188 T02110156=
202407220256 METAR KPWT 220256Z AUTO 06005KT 10SM CLR 22/16 A3007 RMK AO2 SLP186 T02220156 55002=
202407220156 METAR KPWT 220156Z AUTO 22006KT 10SM CLR 24/16 A3007 RMK AO2 SLP181 T02390156=
202407220056 METAR KPWT 220056Z AUTO VRB05KT 10SM CLR 25/16 A3006 RMK AO2 SLP182 T02500156=
202407212356 METAR KPWT 212356Z AUTO VRB05KT 10SM CLR 26/15 A3008 RMK AO2 SLP187 60000 T02560150 10256 20172 58004=
202407212256 METAR KPWT 212256Z AUTO 24005KT 10SM CLR 25/16 A3009 RMK AO2 SLP191 T02500156=
202407212156 METAR KPWT 212156Z AUTO 25008KT 10SM CLR 24/14 A3008 RMK AO2 SLP187 T02440144=
202407212056 METAR KPWT 212056Z AUTO 22009KT 10SM CLR 23/16 A3009 RMK AO2 SLP191 60000 T02330156 56007=
202407211956 METAR KPWT 211956Z AUTO 12004KT 10SM CLR 20/16 A3011 RMK AO2 RAE10 SLP196 P0000 T02000156=
202407211856 METAR KPWT 211856Z AUTO 25004KT 10SM -RA CLR 17/16 A3006 RMK AO2 RAE00B22 SLP182 P0000 T01720161=
202407211756 METAR KPWT 211756Z AUTO 25006KT 10SM -RA CLR 17/15 A3011 RMK AO2 RAB50 SLP199 P0000 60000 T01720150 10183 20128 53010=
202407211656 METAR KPWT 211656Z AUTO VRB04KT 10SM CLR 18/15 A3006 RMK AO2 SLP181 T01780150=
202407211556 METAR KPWT 211556Z AUTO 25005KT 10SM FEW009 17/15 A3010 RMK AO2 SLP192 T01720150=
202407211543 SPECI KPWT 211543Z AUTO 25010KT 10SM FEW009 17/15 A3010 RMK AO2=
202407211456 METAR KPWT 211456Z AUTO 28003KT 10SM CLR 16/14 A3008 RMK AO2 SLP188 T01610144 55005=
202407211356 METAR KPWT 211356Z AUTO 00000KT 10SM CLR 16/14 A3007 RMK AO2 SLP183 T01560139=
202407211256 METAR KPWT 211256Z AUTO 00000KT 10SM CLR 14/14 A3006 RMK AO2 PRESFR SLP181 T01390139=
202407211156 METAR KPWT 211156Z AUTO 22006KT 10SM CLR 13/13 A3010 RMK AO2 SLP193 T01280128 10200 20111 53020=
202407211056 METAR KPWT 211056Z AUTO 23004KT 10SM CLR 12/11 A3006 RMK AO2 SLP181 T01170111=
202407210956 METAR KPWT 210956Z AUTO 00000KT 10SM CLR 15/14 A3003 RMK AO2 SLP170 T01500139=
202407210856 METAR KPWT 210856Z AUTO 00000KT 10SM CLR 16/14 A3004 RMK AO2 SLP172 T01560139 58003=
202407210756 METAR KPWT 210756Z AUTO 00000KT 10SM CLR 16/13 A3004 RMK AO2 SLP172 T01610133 403060111=
202407210656 METAR KPWT 210656Z AUTO 00000KT 10SM CLR 18/13 A3004 RMK AO2 SLP175 T01830133=
202407210556 METAR KPWT 210556Z AUTO 00000KT 10SM CLR 20/13 A3004 RMK AO2 SLP174 T02000128 10306 20200 53003=
202407210456 METAR KPWT 210456Z AUTO 05004KT 10SM CLR 22/12 A3004 RMK AO2 SLP173 T02170117=
202407210356 METAR KPWT 210356Z AUTO 06006KT 10SM CLR 23/12 A3003 RMK AO2 SLP171 T02330117=
202407210256 METAR KPWT 210256Z AUTO 05007KT 10SM CLR 27/12 A3004 RMK AO2 SLP171 T02670117 56007=
202407210156 METAR KPWT 210156Z AUTO 06008KT 10SM CLR 29/12 A3004 RMK AO2 SLP173 T02890117=
202407210056 METAR KPWT 210056Z AUTO 07008KT 10SM CLR 29/11 A3004 RMK AO2 SLP175 T02940111=
202407202356 METAR KPWT 202356Z AUTO 06011KT 10SM CLR 31/12 A3006 RMK AO2 SLP179 T03060117 10306 20256 56019=
202407202256 METAR KPWT 202256Z AUTO 02007KT 330V050 10SM CLR 30/11 A3008 RMK AO2 SLP186 T03000111=
202407202156 METAR KPWT 202156Z AUTO 04007G14KT 350V050 10SM CLR 29/14 A3009 RMK AO2 SLP191 T02940139=
202407202056 METAR KPWT 202056Z AUTO 05008KT 10SM CLR 29/13 A3011 RMK AO2 SLP198 T02890133 58013=
202407201956 METAR KPWT 201956Z AUTO 08007KT 10SM CLR 28/12 A3013 RMK AO2 SLP203 T02830117=
202407201856 METAR KPWT 201856Z AUTO 07006KT 10SM CLR 27/14 A3014 RMK AO2 SLP207 T02670139=
202407201756 METAR KPWT 201756Z AUTO VRB03KT 10SM CLR 26/15 A3015 RMK AO2 SLP211 T02610150 10261 20111 58007=
202407201656 METAR KPWT 201656Z AUTO 00000KT 9SM CLR 23/14 A3016 RMK AO2 SLP216 T02280139=
202407201556 METAR KPWT 201556Z AUTO 00000KT 10SM CLR 21/14 A3017 RMK AO2 SLP218 T02060139=
202407201456 METAR KPWT 201456Z AUTO 05003KT 10SM CLR 18/14 A3017 RMK AO2 SLP218 T01830139 53002=
202407201356 METAR KPWT 201356Z AUTO 05003KT 10SM CLR 16/14 A3016 RMK AO2 SLP215 T01610139=
202407201256 METAR KPWT 201256Z AUTO 00000KT 10SM CLR 13/13 A3016 RMK AO2 SLP215 T01330128=
202407201156 METAR KPWT 201156Z AUTO 00000KT 10SM CLR 13/12 A3016 RMK AO2 SLP216 7//// T01280122 10194 20111 56000=
202407201056 METAR KPWT 201056Z AUTO 00000KT 10SM CLR 13/13 A3017 RMK AO2 SLP216 T01280128=
202407200956 METAR KPWT 200956Z AUTO 00000KT 10SM CLR 14/13 A3016 RMK AO2 SLP214 T01390128=
202407200856 METAR KPWT 200856Z AUTO 00000KT 10SM CLR 16/14 A3017 RMK AO2 SLP217 T01610139 50001=
202407200756 METAR KPWT 200756Z AUTO 01003KT 10SM CLR 17/13 A3017 RMK AO2 SLP216 T01670133 403000128=
202407200656 METAR KPWT 200656Z AUTO 00000KT 10SM CLR 18/14 A3016 RMK AO2 SLP215 T01830139=
202407200556 METAR KPWT 200556Z AUTO 06004KT 10SM CLR 19/13 A3016 RMK AO2 SLP215 6//// T01940133 10300 20194=
202407200456 METAR KPWT 200456Z AUTO 05007KT 10SM CLR 21/13 A3016 RMK AO2 SLP213 T02060133=
202407200356 METAR KPWT 200356Z AUTO 06006KT 10SM CLR 23/12 A3014 RMK AO2 SLP209 T02280122=
202407200256 METAR KPWT 200256Z AUTO 10SM CLR 26/14 RMK AO2 SLPNO T02560144 $=
202407200156 METAR KPWT 200156Z AUTO 05006KT 10SM CLR 27/14 A3014 RMK AO2 SLP206 T02670144=
202407200056 METAR KPWT 200056Z AUTO 06007KT 10SM CLR 28/13 A3014 RMK AO2 SLP208 T02830133=
202407192356 METAR KPWT 192356Z AUTO 00000KT 10SM CLR 29/13 A3015 RMK AO2 SLP212 6//// T02940128 10300 20194 58013=
202407192256 METAR KPWT 192256Z AUTO VRB03KT 10SM CLR 28/12 A3017 RMK AO2 SLP217 T02830117=
202407192156 METAR KPWT 192156Z AUTO 00000KT 10SM CLR 27/12 A3018 RMK AO2 SLP222 T02720117=
202407192056 METAR KPWT 192056Z AUTO 30004KT 10SM CLR 26/13 A3019 RMK AO2 SLP225 6//// T02610128 57009=
202407191956 METAR KPWT 191956Z AUTO 00000KT 10SM CLR 24/13 A3020 RMK AO2 SLP228 T02440133=
202407191856 METAR KPWT 191856Z AUTO 20003KT 10SM CLR 22/14 A3021 RMK AO2 SLP231 T02170139=
202407191756 METAR KPWT 191756Z AUTO 22005KT 10SM CLR 19/14 A3022 RMK AO2 SLP235 T01940139 10194 20139 50005=
202407191720 SPECI KPWT 191720Z AUTO VRB04KT 10SM SCT014 18/14 A3022 RMK AO2=
202407191656 METAR KPWT 191656Z AUTO 15005KT 10SM BKN012 17/13 A3022 RMK AO2 SLP236 T01720133=
202407191556 METAR KPWT 191556Z AUTO 22005KT 10SM OVC010 16/13 A3022 RMK AO2 SLP234 T01610133=
202407191509 SPECI KPWT 191509Z AUTO 19004KT 10SM OVC010 15/13 A3021 RMK AO2=
202407191456 METAR KPWT 191456Z AUTO 19004KT 10SM OVC008 15/13 A3020 RMK AO2 SLP229 T01500133 53011=
202407191356 METAR KPWT 191356Z AUTO 20005KT 10SM OVC008 14/13 A3019 RMK AO2 SLP224 T01440133=
202407191256 METAR KPWT 191256Z AUTO 22003KT 10SM OVC008 14/13 A3018 RMK AO2 SLP219 T01440133=
202407191156 METAR KPWT 191156Z AUTO 19005KT 10SM OVC006 14/13 A3017 RMK AO2 SLP218 7//// T01390133 10156 20128 53009=
202407191056 METAR KPWT 191056Z AUTO 19004KT 10SM OVC006 14/13 A3016 RMK AO2 SLP214 T01390133=
202407191027 SPECI KPWT 191027Z AUTO 20006KT 10SM OVC004 13/13 A3015 RMK AO2=
202407190956 METAR KPWT 190956Z AUTO 19005KT 10SM OVC006 13/13 A3015 RMK AO2 SLP210 T01330133=
202407190929 SPECI KPWT 190929Z AUTO 20004KT 10SM BKN006 13/13 A3015 RMK AO2=
202407190920 SPECI KPWT 190920Z AUTO 22005KT 10SM SCT008 13/13 A3014 RMK AO2=
202407190856 METAR KPWT 190856Z AUTO 20004KT 10SM CLR 13/12 A3014 RMK AO2 SLP209 T01280122 51008=
202407190756 METAR KPWT 190756Z AUTO 21003KT 10SM CLR 14/13 A3014 RMK AO2 SLP208 T01440128 402890139=
202407190656 METAR KPWT 190656Z AUTO 19007KT 10SM CLR 16/13 A3013 RMK AO2 SLP203 T01560133=
202407190556 METAR KPWT 190556Z AUTO 22005KT 10SM CLR 16/12 A3012 RMK AO2 SLPNO 6//// T01560122 10283 20156 51020=
202407190456 METAR KPWT 190456Z AUTO 16005KT 10SM CLR 18/12 A3010 RMK AO2 SLPNO T01830122=
202407190356 METAR KPWT 190356Z AUTO 20005KT 10SM CLR 20/12 A3008 RMK AO2 SLPNO T02000122=
202407190256 METAR KPWT 190256Z AUTO 22012KT 10SM CLR 23/11 A3006 RMK AO2 SLPNO 6//// T02330106 53003=
202407190156 METAR KPWT 190156Z AUTO 22011G17KT 10SM CLR 26/12 A3005 RMK AO2 SLPNO T02560117=
202407190056 METAR KPWT 190056Z AUTO 22014KT 10SM CLR 27/13 A3005 RMK AO2 SLPNO T02670128=
202407182356 METAR KPWT 182356Z AUTO 23011KT 10SM CLR 28/13 A3005 RMK AO2 SLPNO 6//// T02830128 10289 20211 56009=
202407182256 METAR KPWT 182256Z AUTO 23007G16KT 10SM CLR 28/13 A3005 RMK AO2 SLPNO T02830133=
202407182156 METAR KPWT 182156Z AUTO 20008KT 170V240 10SM CLR 27/15 A3006 RMK AO2 SLPNO T02720150=
202407182056 METAR KPWT 182056Z AUTO VRB06KT 10SM CLR 26/14 A3008 RMK AO2 SLPNO 6//// T02610144=
202407181956 METAR KPWT 181956Z AUTO VRB05KT 7SM CLR 23/14 RMK AO2 SLPNO T02330144 $=
202407181856 METAR KPWT 181856Z AUTO 21005KT 10SM 22/14 A3009 RMK AO2 SLPNO T02220144=
202407181756 METAR KPWT 181756Z AUTO 23005KT 10SM CLR 19/13 A3010 RMK AO2 SLPNO 6//// T01940133=
202407181656 METAR KPWT 181656Z AUTO RMK AO2 SLPNO PWINO FZRANO $=
202407181556 METAR KPWT 181556Z AUTO RMK AO2 SLPNO PWINO FZRANO $=
202407181456 METAR KPWT 181456Z AUTO RMK AO2 SLPNO 6//// PWINO FZRANO $=
202407181356 METAR KPWT 181356Z AUTO RMK AO2 SLPNO PWINO FZRANO $=
202407181256 METAR KPWT 181256Z AUTO RMK AO2 SLPNO PWINO FZRANO $=
202407181156 METAR KPWT 181156Z AUTO RMK AO2 SLPNO 6//// 7//// PWINO FZRANO $=
202407181056 METAR KPWT 181056Z AUTO RMK AO2 SLPNO PWINO FZRANO $=
202407180956 METAR KPWT 180956Z AUTO RMK AO2 SLPNO PWINO FZRANO $=
202407180856 METAR KPWT 180856Z AUTO RMK AO2 SLPNO 6//// PWINO FZRANO $=
202407180756 METAR KPWT 180756Z AUTO RMK AO2 SLPNO PWINO FZRANO $=
202407180656 METAR KPWT 180656Z AUTO RMK AO2 SLPNO PWINO FZRANO $=
202407180556 METAR KPWT 180556Z AUTO RMK AO2 SLPNO 6//// PWINO FZRANO $=
202407180456 METAR KPWT 180456Z AUTO RMK AO2 SLPNO PWINO FZRANO $=
202407180356 METAR KPWT 180356Z AUTO RMK AO2 SLPNO PWINO FZRANO $=
202407180256 METAR KPWT 180256Z AUTO RMK AO2 SLPNO 6//// PWINO FZRANO $=
202407180156 METAR KPWT 180156Z AUTO RMK AO2 SLPNO PWINO FZRANO $=
202407180056 METAR KPWT 180056Z AUTO RMK AO2 SLPNO PWINO FZRANO $=
202407172356 METAR KPWT 172356Z AUTO RMK AO2 SLPNO 6//// PWINO FZRANO $=
202407172256 METAR KPWT 172256Z AUTO RMK AO2 SLPNO PWINO FZRANO $=
202407172156 METAR KPWT 172156Z AUTO RMK AO2 SLPNO PWINO FZRANO $=
202407172056 METAR KPWT 172056Z AUTO RMK AO2 SLPNO 6//// PWINO FZRANO $=
202407171956 METAR KPWT 171956Z AUTO RMK AO2 SLPNO PWINO FZRANO $=
202407171856 METAR KPWT 171856Z AUTO RMK AO2 SLPNO PWINO FZRANO $=
202407171756 METAR KPWT 171756Z AUTO RMK AO2 SLPNO 6//// PWINO FZRANO $=
202407171656 METAR KPWT 171656Z AUTO RMK AO2 SLPNO PWINO FZRANO $=
202407171556 METAR KPWT 171556Z AUTO RMK AO2 SLPNO PWINO FZRANO $=
202407171456 METAR KPWT 171456Z AUTO RMK AO2 SLPNO 6//// PWINO FZRANO $=
202407171356 METAR KPWT 171356Z AUTO RMK AO2 SLPNO PWINO FZRANO $=
202407171256 METAR KPWT 171256Z AUTO RMK AO2 SLPNO PWINO FZRANO $=
202407171156 METAR KPWT 171156Z AUTO RMK AO2 SLPNO 6//// 7//// PWINO FZRANO $=
202407171056 METAR KPWT 171056Z AUTO RMK AO2 SLPNO PWINO FZRANO $=
202407170956 METAR KPWT 170956Z AUTO RMK AO2 SLPNO PWINO FZRANO $=
202407170856 METAR KPWT 170856Z AUTO RMK AO2 SLPNO 6//// PWINO FZRANO $=
202407170756 METAR KPWT 170756Z AUTO RMK AO2 SLPNO PWINO FZRANO $=
202407170656 METAR KPWT 170656Z AUTO RMK AO2 SLPNO PWINO FZRANO $=
202407170556 METAR KPWT 170556Z AUTO RMK AO2 SLPNO 6//// PWINO FZRANO $=
202407170456 METAR KPWT 170456Z AUTO RMK AO2 SLPNO PWINO FZRANO $=
202407170356 METAR KPWT 170356Z AUTO RMK AO2 SLPNO PWINO FZRANO $=
202407170256 METAR KPWT 170256Z AUTO RMK AO2 SLPNO 6//// PWINO FZRANO $=
202407170156 METAR KPWT 170156Z AUTO RMK AO2 SLPNO PWINO FZRANO $=
202407170056 METAR KPWT 170056Z AUTO RMK AO2 SLPNO PWINO FZRANO $=
202407162356 METAR KPWT 162356Z AUTO RMK AO2 SLPNO 6//// PWINO FZRANO $=
202407162256 METAR KPWT 162256Z AUTO RMK AO2 SLPNO PWINO FZRANO $=
202407162156 METAR KPWT 162156Z AUTO RMK AO2 SLPNO PWINO FZRANO $=
202407162056 METAR KPWT 162056Z AUTO RMK AO2 SLPNO 6//// PWINO FZRANO $=
202407161956 METAR KPWT 161956Z AUTO RMK AO2 SLPNO PWINO FZRANO $=
202407161856 METAR KPWT 161856Z AUTO RMK AO2 SLPNO PWINO FZRANO $=
202407161756 METAR KPWT 161756Z AUTO RMK AO2 SLPNO 6//// PWINO FZRANO $=
202407161656 METAR KPWT 161656Z AUTO RMK AO2 SLPNO PWINO FZRANO $=
202407161556 METAR KPWT 161556Z AUTO RMK AO2 SLPNO PWINO FZRANO $=
202407161456 METAR KPWT 161456Z AUTO 18/14 RMK AO2 SLPNO 6//// T01830139 PWINO $=
202407161356 METAR KPWT 161356Z AUTO 03005KT 10SM CLR 17/14 A3004 RMK AO2 SLP174 T01670139=
202407161256 METAR KPWT 161256Z AUTO 03003KT 10SM CLR 13/12 A3004 RMK AO2 SLP173 T01280122=
202407161156 METAR KPWT 161156Z AUTO 00000KT 10SM CLR 14/13 A3003 RMK AO2 SLP170 7//// T01390133 10189 20133 54000=
202407161056 METAR KPWT 161056Z AUTO 00000KT 10SM CLR 14/13 A3003 RMK AO2 SLP170 T01440128=
202407160956 METAR KPWT 160956Z AUTO 05003KT 10SM CLR 16/13 A3003 RMK AO2 SLP170 T01560133=
202407160856 METAR KPWT 160856Z AUTO 05004KT 10SM CLR 16/14 A3003 RMK AO2 SLP171 T01560139 58004=
202407160756 METAR KPWT 160756Z AUTO 06003KT 10SM CLR 17/14 A3004 RMK AO2 SLP174 T01720139 402830122=
202407160656 METAR KPWT 160656Z AUTO 06004KT 10SM CLR 18/15 A3004 RMK AO2 SLP174 T01780150=
202407160556 METAR KPWT 160556Z AUTO 00000KT 10SM CLR 18/14 A3004 RMK AO2 SLP176 6//// T01780139 10272 20178 58001=
202407160456 METAR KPWT 160456Z AUTO 00000KT 10SM CLR 20/14 A3005 RMK AO2 SLP179 T02000144=
202407160356 METAR KPWT 160356Z AUTO 07003KT 10SM CLR 22/14 A3005 RMK AO2 SLP178 T02220144=
202407160256 METAR KPWT 160256Z AUTO 04005KT 10SM CLR 25/15 A3005 RMK AO2 SLP176 T02500150 56010=
202407160156 METAR KPWT 160156Z AUTO 06007KT 10SM CLR 26/15 A3005 RMK AO2 SLP178 T02560150=
202407160056 METAR KPWT 160056Z AUTO 06007KT 10SM CLR 27/15 A3006 RMK AO2 SLP181 T02670150=
202407152356 METAR KPWT 152356Z AUTO VRB04KT 10SM CLR 27/14 A3008 RMK AO2 SLP185 T02720139 10283 20156 58016=
202407152256 METAR KPWT 152256Z AUTO 16006KT 6SM HZ CLR 26/13 A3009 RMK AO2 SLP191 T02610133=
202407152156 METAR KPWT 152156Z AUTO VRB03KT 10SM CLR 25/13 A3011 RMK AO2 SLP198 T02500133=
202407152056 METAR KPWT 152056Z AUTO 00000KT 10SM CLR 22/14 A3012 RMK AO2 SLP203 T02220139 58013=
202407151956 METAR KPWT 151956Z AUTO 23005KT 10SM CLR 21/14 A3014 RMK AO2 SLP209 T02110139=
202407151856 METAR KPWT 151856Z AUTO VRB04KT 10SM FEW014 18/14 A3015 RMK AO2 SLP213 T01830139=
202407151839 SPECI KPWT 151839Z AUTO VRB03KT 10SM FEW014 17/13 A3015 RMK AO2=
202407151807 SPECI KPWT 151807Z AUTO 22007KT 10SM BKN012 17/13 A3016 RMK AO2=
202407151756 METAR KPWT 151756Z AUTO VRB03KT 10SM SCT010 16/13 A3016 RMK AO2 SLP216 T01560128 10161 20122 50003=
202407151747 SPECI KPWT 151747Z AUTO 00000KT 10SM SCT010 16/13 A3016 RMK AO2=
202407151713 SPECI KPWT 151713Z AUTO VRB05KT 10SM BKN010 15/13 A3016 RMK AO2=
202407151656 METAR KPWT 151656Z AUTO 15005KT 10SM BKN008 14/13 A3016 RMK AO2 SLP218 T01440128=
202407151641 SPECI KPWT 151641Z AUTO 21005KT 10SM BKN008 14/13 A3016 RMK AO2=
202407151629 SPECI KPWT 151629Z AUTO 21006KT 10SM SCT006 14/13 A3016 RMK AO2=
202407151609 SPECI KPWT 151609Z AUTO 20007KT 10SM BKN006 14/13 A3016 RMK AO2=
202407151556 METAR KPWT 151556Z AUTO 23006KT 8SM OVC004 13/13 A3016 RMK AO2 SLP216 T01330128=
202407151456 METAR KPWT 151456Z AUTO 22006KT 8SM OVC004 13/13 A3015 RMK AO2 SLP213 T01280128 51011=
202407151406 SPECI KPWT 151406Z AUTO 20004KT 10SM OVC004 13/13 A3014 RMK AO2 CIG 002V006=
202407151356 METAR KPWT 151356Z AUTO 20006KT 8SM OVC002 12/12 A3014 RMK AO2 CIG 002V005 SLP209 T01220122=
202407151352 SPECI KPWT 151352Z AUTO 19005KT 3SM BR OVC002 12/12 A3014 RMK AO2=
202407151345 SPECI KPWT 151345Z AUTO 20006KT 1 3/4SM BR OVC002 12/12 A3014 RMK AO2=
202407151338 SPECI KPWT 151338Z AUTO 20006KT 2SM BR OVC002 12/12 A3014 RMK AO2 VIS 1V3=
202407151256 METAR KPWT 151256Z AUTO 21003KT 4SM BR OVC004 12/12 A3013 RMK AO2 SLP203 T01220122=
202407151156 METAR KPWT 151156Z AUTO 22005KT 10SM BKN004 13/13 A3012 RMK AO2 SLP200 7//// T01280128 10144 20122 51006=
202407151153 SPECI KPWT 151153Z AUTO 20004KT 10SM SCT004 13/13 A3012 RMK AO2=
202407151144 SPECI KPWT 151144Z AUTO VRB04KT 10SM BKN004 13/13 A3012 RMK AO2=
202407151137 SPECI KPWT 151137Z AUTO 20004KT 10SM SCT004 13/13 A3012 RMK AO2=
202407151120 SPECI KPWT 151120Z AUTO 20006KT 10SM BKN004 13/13 A3012 RMK AO2=
202407151056 METAR KPWT 151056Z AUTO 20004KT 10SM FEW004 13/13 A3011 RMK AO2 SLP197 T01280128=
202407150956 METAR KPWT 150956Z AUTO 22006KT 10SM FEW005 13/13 A3010 RMK AO2 SLP194 T01280128=
202407150856 METAR KPWT 150856Z AUTO 20004KT 10SM FEW005 13/13 A3010 RMK AO2 SLP192 T01330128 51009=
202407150843 SPECI KPWT 150843Z AUTO 19004KT 10SM SCT007 13/13 A3009 RMK AO2=
202407150756 METAR KPWT 150756Z AUTO 21004KT 10SM BKN007 13/13 A3009 RMK AO2 SLP191 T01280128 402830122=
202407150747 SPECI KPWT 150747Z AUTO 22004KT 10SM FEW007 13/13 A3009 RMK AO2=
202407150656 METAR KPWT 150656Z AUTO 10SM CLR 13/12 A3009 RMK AO2 SLP189 T01280122=
202407150556 METAR KPWT 150556Z AUTO 20005KT 10SM CLR 14/13 A3007 RMK AO2 SLP184 6//// T01440128 10278 20144 53018=
202407150456 METAR KPWT 150456Z AUTO 20005KT 10SM CLR 16/13 A3005 RMK AO2 SLP177 T01610133=
202407150356 METAR KPWT 150356Z AUTO 21006KT 10SM CLR 19/14 A3003 RMK AO2 SLP170 T01940139=
202407150256 METAR KPWT 150256Z AUTO 20007KT 10SM CLR 23/14 A3002 RMK AO2 SLP165 T02280139 55001=
202407150156 METAR KPWT 150156Z AUTO 20008KT 10SM CLR 26/14 A3001 RMK AO2 SLP164 T02560144=
202407150056 METAR KPWT 150056Z AUTO 22008KT 10SM CLR 27/14 A3001 RMK AO2 SLP163 T02720144=
202407142356 METAR KPWT 142356Z AUTO 20007KT 10SM CLR 28/14 A3002 RMK AO2 SLP167 6//// T02780144 10283 20239 58007=
202407142256 METAR KPWT 142256Z AUTO 22008KT 200V260 10SM CLR 28/15 A3003 RMK AO2 SLP170 T02780150=
202407142156 METAR KPWT 142156Z AUTO 23008KT 10SM CLR 28/16 A3004 RMK AO2 SLP173 T02780156=
202407142056 METAR KPWT 142056Z AUTO 19007KT 150V210 10SM CLR 27/14 A3004 RMK AO2 SLP173 6//// T02670144 58002=
202407141956 METAR KPWT 141956Z AUTO 17008KT 10SM CLR 27/15 A3004 RMK AO2 SLP174 T02670150=
202407141856 METAR KPWT 141856Z AUTO 21007KT 10SM CLR 26/15 A3004 RMK AO2 SLP174 T02560150=
202407141756 METAR KPWT 141756Z AUTO VRB03KT 10SM CLR 24/14 A3005 RMK AO2 SLP175 T02390144 10239 20128 50000=
202407141656 METAR KPWT 141656Z AUTO 22003KT 10SM CLR 22/15 A3005 RMK AO2 SLP175 T02220150=
202407141556 METAR KPWT 141556Z AUTO 20005KT 10SM CLR 21/15 A3005 RMK AO2 SLP177 T02060150=
202407141456 METAR KPWT 141456Z AUTO 21004KT 10SM CLR 18/16 A3004 RMK AO2 SLP174 T01830156 51010=
202407141356 METAR KPWT 141356Z AUTO 22003KT 10SM CLR 17/15 A3003 RMK AO2 SLP170 T01670150=
202407141256 METAR KPWT 141256Z AUTO 00000KT 10SM CLR 13/12 A3002 RMK AO2 SLP168 T01330122=
202407141156 METAR KPWT 141156Z AUTO 00000KT 10SM CLR 14/12 A3001 RMK AO2 SLP164 6//// 7//// T01390122 10206 20133 53006=
202407141056 METAR KPWT 141056Z AUTO 00000KT 10SM CLR 14/12 A3000 RMK AO2 SLP160 T01390117=
202407140956 METAR KPWT 140956Z AUTO 00000KT 10SM CLR 16/13 A2999 RMK AO2 SLP158 T01560128=
202407140856 METAR KPWT 140856Z AUTO 00000KT 10SM CLR 16/13 A3000 RMK AO2 SLP158 6//// T01610128 51001=
202407140756 METAR KPWT 140756Z AUTO 00000KT 10SM CLR 17/13 A2999 RMK AO2 SLP157 T01720128 403110111=
202407140656 METAR KPWT 140656Z AUTO 13004KT 10SM CLR 19/13 A3000 RMK AO2 SLP158 T01940128=
202407140556 METAR KPWT 140556Z AUTO 00000KT 10SM CLR 20/12 A2999 RMK AO2 SLP156 T02000122 10311 20194 51007=
202407140456 METAR KPWT 140456Z AUTO 06003KT 10SM CLR 22/12 A2999 RMK AO2 SLP156 T02220117=
202407140356 METAR KPWT 140356Z AUTO 00000KT 10SM CLR 25/11 A2998 RMK AO2 SLP152 T02500111=
202407140256 METAR KPWT 140256Z AUTO 07005KT 10SM CLR 28/12 A2997 RMK AO2 SLP148 T02780117 56004=
202407140156 METAR KPWT 140156Z AUTO 05006KT 10SM CLR 29/13 A2997 RMK AO2 SLP150 T02940128=
202407140056 METAR KPWT 140056Z AUTO 08007KT 10SM CLR 31/12 A2997 RMK AO2 SLP151 T03060122=
202407132356 METAR KPWT 132356Z AUTO 06007KT 10SM CLR 31/13 A2998 RMK AO2 SLP153 T03110128 10311 20250 58012=
202407132256 METAR KPWT 132256Z AUTO VRB06KT 10SM CLR 31/13 A2999 RMK AO2 SLP158 T03110133=
202407132156 METAR KPWT 132156Z AUTO 06007KT 10SM CLR 30/12 A3001 RMK AO2 SLP161 T03000122=
202407132056 METAR KPWT 132056Z AUTO 05007KT 10SM CLR 29/12 A3002 RMK AO2 SLP165 T02940122 58007=
202407131956 METAR KPWT 131956Z AUTO VRB05KT 10SM CLR 28/13 A3002 RMK AO2 SLP168 T02780128=
202407131856 METAR KPWT 131856Z AUTO 05007KT 10SM CLR 26/13 A3003 RMK AO2 SLP171 T02610133=
202407131756 METAR KPWT 131756Z AUTO 08007KT 10SM CLR 26/14 A3004 RMK AO2 SLP172 T02560139 10256 20111 56004=
202407131656 METAR KPWT 131656Z AUTO 04008KT 10SM CLR 24/13 A3004 RMK AO2 SLP175 T02390128=
202407131556 METAR KPWT 131556Z AUTO 05006KT 10SM CLR 23/14 A3004 RMK AO2 SLP174 T02280139=
202407131456 METAR KPWT 131456Z AUTO 07003KT 10SM CLR 19/14 A3005 RMK AO2 SLP176 T01940139 51006=
202407131356 METAR KPWT 131356Z AUTO 00000KT 10SM CLR 16/14 A3005 RMK AO2 SLP176 T01560139=
202407131256 METAR KPWT 131256Z AUTO 00000KT 10SM CLR 12/11 A3004 RMK AO2 SLP174 T01170111=
202407131156 METAR KPWT 131156Z AUTO 00000KT 10SM CLR 13/12 A3003 RMK AO2 SLP172 7//// T01330122 10183 20122 53003=
202407131056 METAR KPWT 131056Z AUTO 00000KT 10SM CLR 12/12 A3002 RMK AO2 SLP167 T01220117=
202407130956 METAR KPWT 130956Z AUTO 00000KT 10SM CLR 14/12 A3003 RMK AO2 SLP169 T01390122=
202407130856 METAR KPWT 130856Z AUTO 00000KT 10SM CLR 14/12 A3002 RMK AO2 SLP169 T01440117 50000=
202407130756 METAR KPWT 130756Z AUTO 00000KT 10SM CLR 15/12 A3003 RMK AO2 SLP169 T01500117 403000094=
202407130656 METAR KPWT 130656Z AUTO 00000KT 10SM CLR 16/13 A3003 RMK AO2 SLP169 T01560128=
202407130556 METAR KPWT 130556Z AUTO 14003KT 10SM CLR 18/14 A3003 RMK AO2 SLP168 T01830139 10289 20167 53003=
202407130456 METAR KPWT 130456Z AUTO 00000KT 10SM CLR 18/14 A3002 RMK AO2 SLP168 T01780139=
202407130356 METAR KPWT 130356Z AUTO 11003KT 10SM CLR 24/14 A3001 RMK AO2 SLP164 T02390139=
202407130256 METAR KPWT 130256Z AUTO 07006KT 10SM CLR 26/14 A3002 RMK AO2 SLP164 T02610139 56004=
202407130156 METAR KPWT 130156Z AUTO 06006KT 10SM CLR 28/14 A3002 RMK AO2 SLP165 T02780139=
202407130056 METAR KPWT 130056Z AUTO 07005KT 10SM CLR 28/14 A3002 RMK AO2 SLP166 T02830144=
202407122356 METAR KPWT 122356Z AUTO VRB05KT 10SM CLR 29/14 A3003 RMK AO2 SLP169 T02890144 10300 20228 57013=
202407122256 METAR KPWT 122256Z AUTO 05007KT 020V100 10SM CLR 29/14 A3004 RMK AO2 SLP173 T02890144=
202407122156 METAR KPWT 122156Z AUTO VRB04KT 10SM CLR 28/14 A3005 RMK AO2 SLP177 T02830144=
202407122056 METAR KPWT 122056Z AUTO VRB03KT 10SM CLR 27/14 A3006 RMK AO2 SLP182 T02720144 58015=
202407121956 METAR KPWT 121956Z AUTO VRB03KT 10SM CLR 26/14 A3008 RMK AO2 SLP187 T02610144=
202407121856 METAR KPWT 121856Z AUTO 00000KT 10SM CLR 24/13 A3010 RMK AO2 SLP193 T02390133=
202407121756 METAR KPWT 121756Z AUTO 04003KT 10SM CLR 23/13 A3011 RMK AO2 SLP196 6//// T02280133 10228 20094 58007=
202407121656 METAR KPWT 121656Z AUTO VRB04KT 10SM CLR 19/13 A3012 RMK AO2 SLP201 T01940133=
202407121556 METAR KPWT 121556Z AUTO 23004KT 10SM CLR 17/13 A3013 RMK AO2 SLP204 T01670133=
202407121456 METAR KPWT 121456Z AUTO 21004KT 10SM CLR 14/13 A3013 RMK AO2 SLP205 T01440128 51005=
202407121356 METAR KPWT 121356Z AUTO 20003KT 10SM CLR 12/12 A3013 RMK AO2 SLP204 T01220117=
202407121256 METAR KPWT 121256Z AUTO 00000KT 10SM CLR 09/09 A3012 RMK AO2 SLP203 T00940094=
202407121156 METAR KPWT 121156Z AUTO 00000KT 10SM CLR 11/11 A3011 RMK AO2 SLP199 T01110106 10167 20106 53005=
202407121056 METAR KPWT 121056Z AUTO 00000KT 10SM CLR 11/11 A3010 RMK AO2 SLP195 T01110106=
202407120956 METAR KPWT 120956Z AUTO 00000KT 10SM CLR 12/11 A3010 RMK AO2 SLP193 T01170106=
202407120856 METAR KPWT 120856Z AUTO 00000KT 10SM CLR 12/12 A3010 RMK AO2 SLP193 T01170117 50001=
202407120756 METAR KPWT 120756Z AUTO 00000KT 10SM CLR 13/11 A3010 RMK AO2 SLP195 T01330111 402890111=
202407120656 METAR KPWT 120656Z AUTO 00000KT 10SM CLR 15/12 A3010 RMK AO2 SLP194 T01500122=
202407120556 METAR KPWT 120556Z AUTO 00000KT 10SM CLR 17/12 A3010 RMK AO2 SLP192 T01670122 10278 20161 53005=
202407120456 METAR KPWT 120456Z AUTO 12003KT 10SM CLR 18/12 A3009 RMK AO2 SLP191 T01830122=
202407120356 METAR KPWT 120356Z AUTO 00000KT 10SM CLR 22/12 A3009 RMK AO2 SLP188 T02220117=
202407120256 METAR KPWT 120256Z AUTO 05008KT 10SM CLR 24/13 A3008 RMK AO2 SLP187 T02440128 55002=
202407120156 METAR KPWT 120156Z AUTO 05009KT 10SM CLR 26/13 A3008 RMK AO2 SLP187 T02610128=
202407120056 METAR KPWT 120056Z AUTO 04011KT 10SM CLR 27/13 A3008 RMK AO2 SLP187 T02670128=
202407112356 METAR KPWT 112356Z AUTO 05008KT 10SM CLR 28/13 A3009 RMK AO2 SLP189 T02780133 10289 20233 58010=
202407112256 METAR KPWT 112256Z AUTO 03009KT 10SM CLR 27/13 A3010 RMK AO2 SLP193 T02720133=
202407112156 METAR KPWT 112156Z AUTO 02009KT 10SM CLR 28/13 A3011 RMK AO2 SLP196 T02780133=
202407112056 METAR KPWT 112056Z AUTO 30007KT 10SM CLR 28/14 A3012 RMK AO2 SLP200 T02830139 58013=
202407111956 METAR KPWT 111956Z AUTO VRB04KT 10SM CLR 26/13 A3014 RMK AO2 SLP207 T02560133=
202407111856 METAR KPWT 111856Z AUTO VRB04KT 10SM CLR 25/14 A3015 RMK AO2 SLP210 T02500139=
202407111756 METAR KPWT 111756Z AUTO 27004KT 10SM CLR 23/13 A3016 RMK AO2 SLP214 T02330133 10233 20111 58000=
202407111656 METAR KPWT 111656Z AUTO VRB03KT 10SM CLR 21/12 A3016 RMK AO2 SLP214 T02060122=
202407111556 METAR KPWT 111556Z AUTO 06004KT 10SM CLR 19/13 A3016 RMK AO2 SLP215 T01890128=
202407111456 METAR KPWT 111456Z AUTO 00000KT 10SM CLR 17/13 A3016 RMK AO2 SLP214 T01670133 53010=
202407111356 METAR KPWT 111356Z AUTO 14003KT 10SM CLR 14/13 A3014 RMK AO2 SLP209 T01440133=
202407111256 METAR KPWT 111256Z AUTO 00000KT 10SM CLR 12/11 A3013 RMK AO2 SLP204 T01170111=
202407111156 METAR KPWT 111156Z AUTO 00000KT 10SM CLR 12/12 A3013 RMK AO2 SLP204 6//// 7//// T01220117 10189 20111 53006=
202407111056 METAR KPWT 111056Z AUTO 00000KT 10SM CLR 13/12 A3012 RMK AO2 SLP202 T01280122=
202407110956 METAR KPWT 110956Z AUTO 00000KT 10SM CLR 13/12 A3011 RMK AO2 SLP199 T01280117=
202407110856 METAR KPWT 110856Z AUTO 00000KT 10SM CLR 13/12 A3011 RMK AO2 SLP198 6//// T01330117 51008=
202407110756 METAR KPWT 110756Z AUTO 00000KT 10SM CLR 15/12 A3011 RMK AO2 SLP196 T01500122 403110111=
202407110656 METAR KPWT 110656Z AUTO 00000KT 10SM CLR 16/12 A3010 RMK AO2 SLP192 T01610122=
202407110556 METAR KPWT 110556Z AUTO 00000KT 10SM CLR 19/13 A3009 RMK AO2 SLP190 T01890128 10306 20189 52013=
202407110456 METAR KPWT 110456Z AUTO 09003KT 10SM CLR 20/13 A3008 RMK AO2 SLP185 T02000128=
202407110356 METAR KPWT 110356Z AUTO 04004KT 10SM CLR 22/12 A3006 RMK AO2 SLP180 T02170122=
202407110256 METAR KPWT 110256Z AUTO 05005KT 10SM CLR 26/12 A3005 RMK AO2 SLP177 T02610122 53005=
202407110156 METAR KPWT 110156Z AUTO VRB05KT 10SM CLR 28/12 A3004 RMK AO2 SLP174 T02830117=
202407110056 METAR KPWT 110056Z AUTO 06008KT 10SM CLR 29/11 A3003 RMK AO2 SLP170 T02940111=
202407102356 METAR KPWT 102356Z AUTO 05009KT 10SM CLR 30/13 A3003 RMK AO2 SLP172 6//// T03000128 10311 20233 58005=
202407102256 METAR KPWT 102256Z AUTO VRB03KT 10SM CLR 31/13 A3005 RMK AO2 SLP175 T03060128=
202407102156 METAR KPWT 102156Z AUTO VRB03KT 8SM CLR 29/13 A3005 RMK AO2 SLP176 T02940128=
202407102056 METAR KPWT 102056Z AUTO VRB04KT 10SM CLR 29/12 A3005 RMK AO2 SLP176 6//// T02890122 51001=
202407101956 METAR KPWT 101956Z AUTO VRB03KT 10SM CLR 28/14 A3005 RMK AO2 SLP176 T02780139=
202407101856 METAR KPWT 101856Z AUTO 00000KT 10SM CLR 25/14 A3005 RMK AO2 SLP176 T02500139=
202407101756 METAR KPWT 101756Z AUTO VRB03KT 10SM CLR 23/13 A3005 RMK AO2 SLP176 T02330133 10233 20111 51007=
202407101656 METAR KPWT 101656Z AUTO 19004KT 10SM CLR 21/13 A3004 RMK AO2 SLP173 T02060133=
202407101556 METAR KPWT 101556Z AUTO 21006KT 10SM CLR 17/13 A3004 RMK AO2 SLP172 T01720128=
202407101456 METAR KPWT 101456Z AUTO 22005KT 10SM CLR 16/13 A3002 RMK AO2 SLP167 T01560128 53018=
202407101356 METAR KPWT 101356Z AUTO 22004KT 10SM CLR 14/12 A3001 RMK AO2 SLP161 T01390122=
202407101256 METAR KPWT 101256Z AUTO 22003KT 10SM CLR 11/11 A2998 RMK AO2 SLP154 T01110111=
202407101156 METAR KPWT 101156Z AUTO 22006KT 10SM CLR 13/12 A2997 RMK AO2 SLP149 6//// 7//// T01280117 10211 20128 53016=
202407101056 METAR KPWT 101056Z AUTO 00000KT 10SM CLR 14/13 A2994 RMK AO2 SLP139 T01440128=
202407100956 METAR KPWT 100956Z AUTO 00000KT 10SM CLR 15/12 A2992 RMK AO2 SLP133 T01500122=
202407100856 METAR KPWT 100856Z AUTO 00000KT 10SM CLR 16/13 A2992 RMK AO2 SLP133 6//// T01610128 52013=
202407100756 METAR KPWT 100756Z AUTO 00000KT 10SM CLR 17/12 A2991 RMK AO2 SLP128 T01670122 403610139=
202407100656 METAR KPWT 100656Z AUTO 13003KT 10SM CLR 19/13 A2990 RMK AO2 SLP124 T01940128=
202407100556 METAR KPWT 100556Z AUTO 11003KT 10SM CLR 21/13 A2988 RMK AO2 SLP119 6//// T02110133 10361 20206 52015=
202407100456 METAR KPWT 100456Z AUTO 00000KT 10SM CLR 24/13 A2987 RMK AO2 SLP115 T02390128=
202407100356 METAR KPWT 100356Z AUTO 00000KT 10SM CLR 29/10 A2985 RMK AO2 SLP108 T02890100=
202407100256 METAR KPWT 100256Z AUTO 07007KT 10SM CLR 32/10 A2984 RMK AO2 SLP104 6//// T03220100 55003=
202407100156 METAR KPWT 100156Z AUTO 05009KT 10SM CLR 34/11 A2984 RMK AO2 SLP102 T03440111=
202407100056 METAR KPWT 100056Z AUTO 05009KT 10SM CLR 36/12 A2984 RMK AO2 SLP104 T03560122=
202407092356 METAR KPWT 092356Z AUTO 08006KT 10SM CLR 36/13 A2985 RMK AO2 SLP106 6//// T03610133 10361 20300 58010=
202407092256 METAR KPWT 092256Z AUTO 06008KT 10SM CLR 36/13 A2986 RMK AO2 SLP111 T03610128=
202407092156 METAR KPWT 092156Z AUTO 02008KT 10SM CLR 36/13 A2987 RMK AO2 SLP115 T03560133=
202407091956 METAR KPWT 091956Z AUTO 00000KT 10SM CLR 33/13 A2989 RMK AO2 SLP121 T03330133=
202407091856 METAR KPWT 091856Z AUTO 04005KT 10SM CLR 32/13 A2990 RMK AO2 SLP123 T03170133=
202407091756 METAR KPWT 091756Z AUTO 00000KT 10SM CLR 30/13 A2990 RMK AO2 SLP126 T03000128 10300 20139 58002=
202407091656 METAR KPWT 091656Z AUTO 07005KT 10SM CLR 28/13 A2991 RMK AO2 SLP127 T02780128=
202407091556 METAR KPWT 091556Z AUTO 05005KT 10SM CLR 26/13 A2991 RMK AO2 SLP127 T02610128=
202407091456 METAR KPWT 091456Z AUTO 05007KT 10SM CLR 24/11 A2991 RMK AO2 SLP127 T02390111 51005=
202407091356 METAR KPWT 091356Z AUTO 00000KT 10SM CLR 20/13 A2990 RMK AO2 SLP126 T02000128=
202407091256 METAR KPWT 091256Z AUTO 21004KT 10SM CLR 14/11 A2990 RMK AO2 SLP125 T01440111=
202407091156 METAR KPWT 091156Z AUTO 00000KT 10SM CLR 16/11 A2989 RMK AO2 SLP121 6//// 7//// T01610106 10228 20161 55000=
202407091056 METAR KPWT 091056Z AUTO 00000KT 10SM CLR 20/11 A2989 RMK AO2 SLP120 T02000111=
202407090956 METAR KPWT 090956Z AUTO 00000KT 10SM CLR 20/10 A2989 RMK AO2 SLP120 T02000100=
202407090856 METAR KPWT 090856Z AUTO 05005KT 10SM CLR 21/11 A2989 RMK AO2 SLP121 T02060106 58004=
202407090756 METAR KPWT 090756Z AUTO 03003KT 10SM CLR 21/11 A2990 RMK AO2 SLP124 T02110106 403440139=
202407090656 METAR KPWT 090656Z AUTO 09003KT 10SM CLR 21/11 A2990 RMK AO2 SLP125 T02060106=
202407090556 METAR KPWT 090556Z AUTO 00000KT 10SM CLR 23/12 A2990 RMK AO2 SLP126 6//// T02280117 10344 20206 53003=
202407090456 METAR KPWT 090456Z AUTO 00000KT 10SM CLR 23/12 A2990 RMK AO2 SLP126 T02330122=
202407090356 METAR KPWT 090356Z AUTO 00000KT 10SM CLR 28/11 A2989 RMK AO2 SLP123 T02780111=
202407090256 METAR KPWT 090256Z AUTO 06007KT 10SM CLR 31/11 A2990 RMK AO2 SLP123 T03110111 55002=
202407090156 METAR KPWT 090156Z AUTO 06007KT 10SM CLR 33/11 A2989 RMK AO2 SLP121 T03280111=
202407090056 METAR KPWT 090056Z AUTO 06007KT 10SM CLR 34/11 A2989 RMK AO2 SLP122 T03390111=
202407082356 METAR KPWT 082356Z AUTO 04009KT 10SM CLR 34/12 A2990 RMK AO2 SLP125 T03440117 10344 20283 58014=
202407082256 METAR KPWT 082256Z AUTO 06007KT 030V090 10SM CLR 34/11 A2992 RMK AO2 SLP130 T03390111=
202407082156 METAR KPWT 082156Z AUTO 06006KT 10SM CLR 34/09 A2993 RMK AO2 SLP134 T03440094=
202407082056 METAR KPWT 082056Z AUTO 06007KT 10SM CLR 34/10 A2994 RMK AO2 SLP139 T03390100 58011=
202407081956 METAR KPWT 081956Z AUTO VRB03KT 10SM CLR 32/11 A2996 RMK AO2 SLP143 T03170106=
202407081856 METAR KPWT 081856Z AUTO 00000KT 10SM CLR 31/12 A2997 RMK AO2 SLP147 T03060122=
202407081756 METAR KPWT 081756Z AUTO 04006KT 10SM CLR 28/13 A2997 RMK AO2 SLP150 6//// T02830128 10283 20139 58003=
202407081656 METAR KPWT 081656Z AUTO 03005KT 10SM CLR 27/11 A2998 RMK AO2 SLP151 T02720111=
202407081556 METAR KPWT 081556Z AUTO 07006KT 10SM CLR 26/11 A2998 RMK AO2 SLP152 T02560106=
202407081456 METAR KPWT 081456Z AUTO 05006KT 10SM CLR 24/11 A2999 RMK AO2 SLP153 6//// T02440111 53001=
202407081356 METAR KPWT 081356Z AUTO 00000KT 10SM CLR 20/13 A2998 RMK AO2 SLP150 T02000128=
202407081256 METAR KPWT 081256Z AUTO 00000KT 10SM CLR 15/11 A2998 RMK AO2 SLP152 T01500111=
202407081156 METAR KPWT 081156Z AUTO 00000KT 10SM CLR 16/11 A2998 RMK AO2 SLP152 T01610111 10206 20150 53002=
202407081056 METAR KPWT 081056Z AUTO 00000KT 10SM CLR 16/11 A2998 RMK AO2 SLP151 T01560111=
202407080956 METAR KPWT 080956Z AUTO 00000KT 10SM CLR 17/12 A2997 RMK AO2 SLP150 T01670117=
202407080856 METAR KPWT 080856Z AUTO 00000KT 10SM CLR 17/12 A2997 RMK AO2 SLP149 T01720117 50002=
202407080756 METAR KPWT 080756Z AUTO 00000KT 10SM CLR 18/12 A2998 RMK AO2 SLP151 T01780117 403330122=
202407080656 METAR KPWT 080656Z AUTO 00000KT 10SM CLR 19/12 A2997 RMK AO2 SLP148 T01940117=
202407080556 METAR KPWT 080556Z AUTO 00000KT 8SM CLR 21/12 A2997 RMK AO2 SLP147 T02060122 10333 20200 53004=
202407080456 METAR KPWT 080456Z AUTO 00000KT 10SM CLR 22/11 A2996 RMK AO2 SLP146 T02220111=
202407080356 METAR KPWT 080356Z AUTO 07003KT 10SM CLR 27/09 A2996 RMK AO2 SLP143 T02670094=
202407080256 METAR KPWT 080256Z AUTO 06005KT 10SM CLR 31/08 A2996 RMK AO2 SLP144 T03060083 56005=
202407080156 METAR KPWT 080156Z AUTO 06007KT 10SM CLR 32/09 A2996 RMK AO2 SLP144 T03220094=
202407080056 METAR KPWT 080056Z AUTO 08007KT 10SM CLR 33/10 A2996 RMK AO2 SLP145 T03280100=
202407072356 METAR KPWT 072356Z AUTO 03006KT 10SM CLR 33/11 A2997 RMK AO2 SLP149 T03330111 10333 20278 56009=
202407072256 METAR KPWT 072256Z AUTO 05006KT 10SM CLR 33/11 A2998 RMK AO2 SLP150 T03330106=
202407072156 METAR KPWT 072156Z AUTO 05008KT 10SM CLR 33/11 A2999 RMK AO2 SLP155 T03280111=
202407072056 METAR KPWT 072056Z AUTO VRB05KT 10SM CLR 31/11 A3000 RMK AO2 SLP157 T03110111 58001=
202407071956 METAR KPWT 071956Z AUTO 08008KT 10SM CLR 31/11 A3000 RMK AO2 SLP159 T03110111=
202407071856 METAR KPWT 071856Z AUTO VRB05KT 10SM CLR 29/12 A3001 RMK AO2 SLP161 T02940122=
202407071756 METAR KPWT 071756Z AUTO 08007KT 10SM CLR 28/12 A3000 RMK AO2 SLP159 T02780122 10278 20122 52003=
202407071656 METAR KPWT 071656Z AUTO 05007KT 10SM CLR 27/12 A3000 RMK AO2 SLP157 T02670117=
202407071556 METAR KPWT 071556Z AUTO 00000KT 10SM CLR 24/12 A3000 RMK AO2 SLP157 T02440117=
202407071456 METAR KPWT 071456Z AUTO 02003KT 10SM CLR 23/11 A2999 RMK AO2 SLP155 T02280111 52008=
202407071356 METAR KPWT 071356Z AUTO 00000KT 10SM CLR 17/12 A2998 RMK AO2 SLP152 T01720117=
202407071256 METAR KPWT 071256Z AUTO 00000KT 10SM CLR 12/10 A2998 RMK AO2 SLP153 T01220100=
202407071156 METAR KPWT 071156Z AUTO 21004KT 10SM CLR 13/09 A2997 RMK AO2 SLP148 7//// T01330094 10222 20133=
202407071056 METAR KPWT 071056Z AUTO 00000KT 10SM CLR 17/09 A2996 RMK AO2 SLP144 T01670094=
202407070956 METAR KPWT 070956Z AUTO 02006KT 10SM CLR 20/10 A2996 RMK AO2 SLP145 T02000100=
202407070856 METAR KPWT 070856Z AUTO 00000KT 10SM CLR 20/10 RMK AO2 SLPNO T02000100 $=
202407070756 METAR KPWT 070756Z AUTO 05003KT 10SM CLR 22/09 A2996 RMK AO2 SLP144 T02170089 403280117=
202407070656 METAR KPWT 070656Z AUTO 00000KT 10SM CLR 20/11 A2996 RMK AO2 SLP144 T02000106=
202407070556 METAR KPWT 070556Z AUTO 05003KT 10SM CLR 22/11 A2996 RMK AO2 SLP143 T02170106 10317 20217 53003=
202407070456 METAR KPWT 070456Z AUTO 05007KT 10SM CLR 24/10 A2995 RMK AO2 SLP142 T02440100=
202407070356 METAR KPWT 070356Z AUTO 06004KT 10SM CLR 25/10 A2995 RMK AO2 SLP141 T02500100=
202407070256 METAR KPWT 070256Z AUTO 06007KT 10SM CLR 29/09 A2995 RMK AO2 SLP141 T02890094 56007=
202407070156 METAR KPWT 070156Z AUTO 05007KT 10SM CLR 30/11 A2995 RMK AO2 SLP142 T03000106=
202407070056 METAR KPWT 070056Z AUTO 05011KT 10SM CLR 31/12 A2995 RMK AO2 SLP144 T03110117=
202407062356 METAR KPWT 062356Z AUTO 07008KT 10SM CLR 32/12 A2997 RMK AO2 SLP149 6//// T03170117 10328 20272 56013=
202407062256 METAR KPWT 062256Z AUTO 04008KT 10SM CLR 32/12 A2998 RMK AO2 SLP152 T03220117=
202407062156 METAR KPWT 062156Z AUTO 06008KT 10SM CLR 31/11 A2999 RMK AO2 SLP156 T03110111=
202407062056 METAR KPWT 062056Z AUTO 03007KT 10SM CLR 31/12 A3001 RMK AO2 SLP162 6//// T03110117 58008=
202407061956 METAR KPWT 061956Z AUTO 00000KT 10SM CLR 29/11 A3002 RMK AO2 SLP165 T02940111=
202407061856 METAR KPWT 061856Z AUTO VRB06KT 10SM CLR 29/11 A3003 RMK AO2 SLP169 T02890106=
202407061756 METAR KPWT 061756Z AUTO 05008KT 10SM CLR 27/11 A3003 RMK AO2 SLP170 T02720111 10272 20117 58003=
202407061656 METAR KPWT 061656Z AUTO 03008KT 10SM CLR 26/10 A3004 RMK AO2 SLP171 T02560100=
202407061556 METAR KPWT 061556Z AUTO 04009KT 10SM CLR 24/09 A3004 RMK AO2 SLP171 T02440094=
202407061456 METAR KPWT 061456Z AUTO 04005KT 10SM CLR 24/10 A3004 RMK AO2 SLP170 T02390100 58001=
202407061356 METAR KPWT 061356Z AUTO 00000KT 10SM CLR 18/12 A3004 RMK AO2 SLP171 T01780117=
202407061256 METAR KPWT 061256Z AUTO 00000KT 10SM CLR 13/10 A3004 RMK AO2 SLP175 T01280100=
202407061156 METAR KPWT 061156Z AUTO 00000KT 10SM CLR 13/10 A3004 RMK AO2 SLP174 T01330100 10178 20117 56004=
202407061056 METAR KPWT 061056Z AUTO 00000KT 10SM CLR 13/09 A3005 RMK AO2 SLP175 T01280094=
202407060956 METAR KPWT 060956Z AUTO 00000KT 10SM CLR 13/09 A3005 RMK AO2 SLP178 T01330094=
202407060856 METAR KPWT 060856Z AUTO 00000KT 10SM CLR 14/09 A3006 RMK AO2 SLP179 T01440094 56010=
202407060756 METAR KPWT 060756Z AUTO 00000KT 10SM CLR 16/09 A3007 RMK AO2 SLP184 T01560094 403110100=
202407060656 METAR KPWT 060656Z AUTO 00000KT 10SM CLR 17/09 A3007 RMK AO2 SLP185 T01670094=
202407060556 METAR KPWT 060556Z AUTO 13003KT 10SM CLR 18/09 A3009 RMK AO2 SLP189 T01780094 10311 20167 56002=
202407060456 METAR KPWT 060456Z AUTO 00000KT 10SM CLR 22/09 A3009 RMK AO2 SLP189 T02170089=
202407060356 METAR KPWT 060356Z AUTO 03005KT 10SM CLR 25/08 A3009 RMK AO2 SLP188 T02500078=
202407060256 METAR KPWT 060256Z AUTO 04007KT 10SM CLR 28/07 A3009 RMK AO2 SLP190 T02780072 56012=
202407060156 METAR KPWT 060156Z AUTO 05012KT 10SM CLR 29/06 A3010 RMK AO2 SLP194 T02940061=
202407060056 METAR KPWT 060056Z AUTO 06009KT 10SM CLR 31/07 A3011 RMK AO2 SLP198 T03060067=
202407052356 METAR KPWT 052356Z AUTO 05010KT 10SM CLR 31/09 A3013 RMK AO2 SLP204 T03110089 10311 20256 58015=
202407052256 METAR KPWT 052256Z AUTO 04010KT 10SM CLR 31/11 A3015 RMK AO2 SLP209 T03110106=
202407052156 METAR KPWT 052156Z AUTO VRB06G14KT 10SM CLR 30/12 A3016 RMK AO2 SLP214 T03000122=
202407052056 METAR KPWT 052056Z AUTO 06008KT 10SM CLR 29/12 A3017 RMK AO2 SLP219 T02890117 58010=
202407051956 METAR KPWT 051956Z AUTO 07007KT 10SM CLR 28/11 A3019 RMK AO2 SLP224 T02780111=
202407051856 METAR KPWT 051856Z AUTO 04011G15KT 10SM CLR 27/11 A3020 RMK AO2 SLP226 T02670111=
202407051756 METAR KPWT 051756Z AUTO 03010KT 10SM CLR 26/11 A3020 RMK AO2 SLP228 T02610111 10261 20100 58006=
202407051656 METAR KPWT 051656Z AUTO 05010KT 10SM CLR 24/11 A3021 RMK AO2 SLP232 T02390106=
202407051556 METAR KPWT 051556Z AUTO 06007KT 10SM CLR 22/11 A3022 RMK AO2 SLP235 T02170111=
202407051456 METAR KPWT 051456Z AUTO 05006KT 10SM CLR 19/11 A3022 RMK AO2 SLP234 T01940111 53005=
202407051356 METAR KPWT 051356Z AUTO VRB03KT 10SM CLR 17/11 A3022 RMK AO2 SLP234 T01720111=
202407051256 METAR KPWT 051256Z AUTO 00000KT 10SM CLR 11/09 A3021 RMK AO2 SLP231 T01060089=
202407051156 METAR KPWT 051156Z AUTO 00000KT 10SM CLR 11/09 A3020 RMK AO2 SLP230 T01060089 10183 20106 52001=
202407051056 METAR KPWT 051056Z AUTO 13003KT 10SM CLR 13/09 A3020 RMK AO2 SLP229 T01280094=
202407050956 METAR KPWT 050956Z AUTO 11003KT 10SM CLR 15/09 A3020 RMK AO2 SLP228 T01500089=
202407050856 METAR KPWT 050856Z AUTO 00000KT 10SM CLR 13/09 A3020 RMK AO2 SLP227 T01280094 58001=
202407050756 METAR KPWT 050756Z AUTO 00000KT 8SM CLR 13/09 A3020 RMK AO2 SLP230 T01280094 402780089=
202407050656 METAR KPWT 050656Z AUTO 13003KT 10SM CLR 14/09 A3020 RMK AO2 SLP229 T01440089=
202407050556 METAR KPWT 050556Z AUTO 01004KT 10SM CLR 18/07 A3020 RMK AO2 SLP228 T01830072 10272 20178 53004=
202407050456 METAR KPWT 050456Z AUTO 03004KT 10SM CLR 18/08 A3020 RMK AO2 SLP228 T01830083=
202407050356 METAR KPWT 050356Z AUTO 03005KT 10SM CLR 21/08 A3019 RMK AO2 SLP223 T02110078=
202407050256 METAR KPWT 050256Z AUTO 02007KT 10SM CLR 25/08 A3019 RMK AO2 SLP224 T02500083 56006=
202407050156 METAR KPWT 050156Z AUTO 05009KT 10SM CLR 26/09 A3019 RMK AO2 SLP225 T02610089=
202407050056 METAR KPWT 050056Z AUTO 03011KT 10SM CLR 27/12 A3020 RMK AO2 SLP227 T02720117=
202407042356 METAR KPWT 042356Z AUTO 03010KT 10SM CLR 27/12 A3021 RMK AO2 SLP231 T02720117 10278 20217 58013=
202407042256 METAR KPWT 042256Z AUTO 02010KT 10SM CLR 28/12 A3023 RMK AO2 SLP237 T02780122=
202407042156 METAR KPWT 042156Z AUTO 04011G15KT 10SM CLR 27/12 A3023 RMK AO2 SLP239 T02670122=
202407042056 METAR KPWT 042056Z AUTO 03008KT 360V070 10SM CLR 27/12 A3025 RMK AO2 SLP243 T02670122 56010=
202407041956 METAR KPWT 041956Z AUTO 05007KT 10SM CLR 26/12 A3025 RMK AO2 SLP245 T02560122=
202407041856 METAR KPWT 041856Z AUTO VRB05KT 10SM CLR 23/12 A3027 RMK AO2 SLP253 T02280117=
202407041756 METAR KPWT 041756Z AUTO 04007KT 010V080 10SM CLR 22/12 A3028 RMK AO2 SLP255 T02170117 10222 20089 58004=
202407041656 METAR KPWT 041656Z AUTO 04008KT 10SM CLR 21/12 A3028 RMK AO2 SLP257 T02060117=
202407041556 METAR KPWT 041556Z AUTO 05008KT 10SM CLR 19/12 A3029 RMK AO2 SLP258 T01890122=
202407041456 METAR KPWT 041456Z AUTO 06005KT 10SM CLR 16/12 A3029 RMK AO2 SLP259 T01610122 52005=
202407041356 METAR KPWT 041356Z AUTO 06005KT 10SM CLR 14/12 A3028 RMK AO2 SLP256 T01440117=
202407041256 METAR KPWT 041256Z AUTO 00000KT 10SM CLR 09/09 A3028 RMK AO2 SLP259 T00940094=
202407041056 METAR KPWT 041056Z AUTO 00000KT 10SM CLR 11/10 A3027 RMK AO2 SLP253 T01060100=
202407040956 METAR KPWT 040956Z AUTO 00000KT 10SM CLR 12/11 A3027 RMK AO2 SLP253 T01220106=
202407040856 METAR KPWT 040856Z AUTO 06004KT 10SM CLR 14/11 A3027 RMK AO2 SLP251 T01440106 51005=
202407040756 METAR KPWT 040756Z AUTO 05006KT 10SM CLR 16/11 A3026 RMK AO2 SLP250 T01560106 402390072=
202407040656 METAR KPWT 040656Z AUTO 00000KT 10SM CLR 15/11 A3026 RMK AO2 SLP250 T01500111=
202407040556 METAR KPWT 040556Z AUTO 00000KT 10SM CLR 16/12 A3025 RMK AO2 SLP247 6//// T01560117 10239 20144=
202407040456 METAR KPWT 040456Z AUTO 00000KT 10SM CLR 16/12 RMK AO2 SLPNO T01610122 $=
202407040356 METAR KPWT 040356Z AUTO 05005KT 10SM FEW050 19/13 A3024 RMK AO2 SLP242 T01940128=
202407040256 METAR KPWT 040256Z AUTO 04006KT 10SM CLR 22/13 A3024 RMK AO2 SLP243 6//// T02170133 56005=
202407040156 METAR KPWT 040156Z AUTO 05007KT 10SM SCT044 23/13 A3024 RMK AO2 SLP243 T02280133=
202407040056 METAR KPWT 040056Z AUTO 06007KT 10SM OVC046 22/13 A3025 RMK AO2 SLP246 T02220133=
202407032356 METAR KPWT 032356Z AUTO 09006KT 10SM OVC048 23/13 A3026 RMK AO2 SLP248 6//// T02330133 10239 20178 58008=
202407032256 METAR KPWT 032256Z AUTO 03004KT 9SM OVC043 22/13 A3027 RMK AO2 SLP253 T02220133=
202407032156 METAR KPWT 032156Z AUTO VRB06KT 10SM OVC041 23/13 A3027 RMK AO2 SLP255 T02280128=
202407032056 METAR KPWT 032056Z AUTO 19005KT 10SM CLR 22/13 A3028 RMK AO2 SLP257 6//// T02220128 57009=
202407031956 METAR KPWT 031956Z AUTO VRB05KT 10SM CLR 21/12 A3029 RMK AO2 SLP259 T02060122=
202407031856 METAR KPWT 031856Z AUTO 00000KT 10SM CLR 19/12 A3030 RMK AO2 SLP264 T01940122=
202407031756 METAR KPWT 031756Z AUTO VRB05KT 10SM CLR 18/12 A3031 RMK AO2 SLP266 T01780122 10178 20100 58000=
202407031656 METAR KPWT 031656Z AUTO 00000KT 10SM CLR 16/12 A3031 RMK AO2 SLP269 T01610117=
202407031556 METAR KPWT 031556Z AUTO VRB03KT 10SM CLR 15/11 A3031 RMK AO2 SLP266 T01500111=
202407031456 METAR KPWT 031456Z AUTO 23003KT 10SM CLR 13/12 A3031 RMK AO2 SLP267 T01280117 53006=
202407031434 SPECI KPWT 031434Z AUTO 22003KT 10SM FEW029 12/12 A3030 RMK AO2=
202407031356 METAR KPWT 031356Z AUTO 24003KT 10SM BKN027 11/11 A3030 RMK AO2 SLP264 T01110111=
202407031306 SPECI KPWT 031306Z AUTO 26004KT 10SM FEW005 11/11 A3029 RMK AO2=
202407031256 METAR KPWT 031256Z AUTO 24004KT 10SM FEW028 11/11 A3029 RMK AO2 SLP261 T01060106=
202407031246 SPECI KPWT 031246Z AUTO 25004KT 10SM SCT028 11/11 A3029 RMK AO2=
202407031204 SPECI KPWT 031204Z AUTO 22004KT 10SM BKN028 10/10 A3029 RMK AO2=
202407031156 METAR KPWT 031156Z AUTO 00000KT 10SM SCT028 10/10 A3029 RMK AO2 SLP260 7//// T01000100 10128 20072 53003=
202407031056 METAR KPWT 031056Z AUTO 00000KT 10SM SCT027 09/09 A3028 RMK AO2 SLP257 T00890089=
202407031041 SPECI KPWT 031041Z AUTO 00000KT 10SM BKN027 08/08 A3029 RMK AO2=
202407030956 METAR KPWT 030956Z AUTO 00000KT 10SM CLR 08/08 A3028 RMK AO2 SLP257 T00830083=
202407030856 METAR KPWT 030856Z AUTO 00000KT 10SM CLR 09/09 A3028 RMK AO2 SLP257 T00890089 53015=
202407030756 METAR KPWT 030756Z AUTO 00000KT 10SM CLR 09/09 A3026 RMK AO2 SLP251 T00940089 402060094=
202407030656 METAR KPWT 030656Z AUTO 00000KT 10SM CLR 11/11 A3025 RMK AO2 SLP247 T01110106=
202407030556 METAR KPWT 030556Z AUTO 19003KT 10SM CLR 13/11 A3023 RMK AO2 SLP241 6//// T01280106 10200 20128 53006=
202407030456 METAR KPWT 030456Z AUTO 21005KT 10SM SCT038 16/11 A3023 RMK AO2 SLP238 T01560111=
202407030356 METAR KPWT 030356Z AUTO 22007KT 10SM OVC038 18/12 A3022 RMK AO2 SLP236 T01780117=
202407030256 METAR KPWT 030256Z AUTO 17003KT 10SM SCT040 19/13 A3021 RMK AO2 SLP235 T01890133 55002=
202407030156 METAR KPWT 030156Z AUTO 00000KT 10SM OVC038 19/13 A3021 RMK AO2 SLP235 T01940133=
202407030056 METAR KPWT 030056Z AUTO 00000KT 10SM OVC040 20/13 A3021 RMK AO2 SLP235 T02000133=
202407022356 METAR KPWT 022356Z AUTO VRB05KT 10SM BKN036 OVC043 20/13 A3022 RMK AO2 SLP237 6//// T02000133 10206 20150=
202407022256 METAR KPWT 022256Z AUTO VRB04KT 10SM FEW029 BKN038 20/13 RMK AO2 SLPNO T02000128 $=
202407022242 SPECI KPWT 022242Z AUTO 25008KT 10SM SCT029 BKN038 20/13 A3023 RMK AO2=
202407022230 SPECI KPWT 022230Z AUTO 24009KT 10SM BKN029 BKN036 21/13 A3023 RMK AO2=
202407022216 SPECI KPWT 022216Z AUTO VRB03KT 10SM SCT029 19/13 A3023 RMK AO2=
202407022156 METAR KPWT 022156Z AUTO VRB04KT 10SM BKN025 19/13 A3024 RMK AO2 SLP244 T01890128=
202407022056 METAR KPWT 022056Z AUTO 23006KT 10SM BKN021 18/13 A3026 RMK AO2 SLP250 T01780128 58002=
202407022038 SPECI KPWT 022038Z AUTO 20006KT 10SM SCT021 17/12 A3026 RMK AO2=
202407021956 METAR KPWT 021956Z AUTO 22005KT 10SM BKN021 17/12 A3027 RMK AO2 SLP252 T01670122=
202407021856 METAR KPWT 021856Z AUTO VRB03KT 10SM OVC017 15/12 A3028 RMK AO2 SLP256 T01500117=
202407021756 METAR KPWT 021756Z AUTO VRB03KT 10SM OVC015 14/12 A3026 RMK AO2 SLP251 T01440117 10144 20117 51005=
202407021656 METAR KPWT 021656Z AUTO 23006KT 10SM OVC013 14/12 A3026 RMK AO2 SLP252 T01390117=
202407021603 SPECI KPWT 021603Z AUTO VRB03KT 10SM OVC011 13/11 A3025 RMK AO2=
202407021556 METAR KPWT 021556Z AUTO 18004KT 10SM OVC009 13/12 A3026 RMK AO2 SLP249 T01280117=
202407021456 METAR KPWT 021456Z AUTO 18004KT 10SM BKN009 12/12 A3025 RMK AO2 SLP246 T01220117 51007=
202407021356 METAR KPWT 021356Z AUTO 21005KT 10SM OVC009 12/12 A3024 RMK AO2 SLP245 T01220117=
202407021256 METAR KPWT 021256Z AUTO 20004KT 10SM BKN009 12/12 A3024 RMK AO2 SLP242 T01170117=
202407021242 SPECI KPWT 021242Z AUTO 20003KT 10SM BKN009 12/12 A3023 RMK AO2=
202407021220 SPECI KPWT 021220Z AUTO 20004KT 10SM FEW009 12/12 A3023 RMK AO2=
202407021156 METAR KPWT 021156Z AUTO 19003KT 10SM CLR 12/12 A3023 RMK AO2 SLP239 7//// T01170117 10150 20117 53008=
202407021056 METAR KPWT 021056Z AUTO 19003KT 10SM BKN046 12/12 A3021 RMK AO2 SLP233 T01170117=
202407020956 METAR KPWT 020956Z AUTO 21005KT 10SM BKN042 BKN049 12/12 A3021 RMK AO2 SLP232 T01220117=
202407020856 METAR KPWT 020856Z AUTO 22003KT 10SM BKN039 13/12 A3020 RMK AO2 SLP230 T01280117 53005=
202407020756 METAR KPWT 020756Z AUTO 20004KT 10SM SCT041 13/11 A3019 RMK AO2 SLP228 T01330111 402390133=
202407020656 METAR KPWT 020656Z AUTO 19004KT 10SM OVC045 14/11 A3019 RMK AO2 SLP227 T01390106=
202407020556 METAR KPWT 020556Z AUTO 00000KT 10SM SCT049 15/11 A3019 RMK AO2 SLP225 6//// T01500111 10222 20144 53013=
202407020456 METAR KPWT 020456Z AUTO 00000KT 10SM CLR 17/12 A3017 RMK AO2 SLP218 T01670122=
202407020356 METAR KPWT 020356Z AUTO 02004KT 10SM CLR 18/14 A3015 RMK AO2 SLP213 T01830144=
202407020256 METAR KPWT 020256Z AUTO VRB03KT 10SM SCT033 21/16 A3015 RMK AO2 SLP211 6//// T02060156 55002=
202407020156 METAR KPWT 020156Z AUTO 05006KT 10SM SCT043 22/16 A3014 RMK AO2 SLP209 T02170156=
202407020056 METAR KPWT 020056Z AUTO 05006KT 10SM BKN041 22/16 A3014 RMK AO2 SLP209 T02170156=
202407012356 METAR KPWT 012356Z AUTO 04005KT 10SM BKN036 OVC045 22/16 A3015 RMK AO2 SLP212 6//// T02220156 10239 20189 58006=
202407012256 METAR KPWT 012256Z AUTO 00000KT 10SM SCT041 BKN055 22/15 A3016 RMK AO2 SLP215 T02220150=
202407012156 METAR KPWT 012156Z AUTO VRB03KT 10SM SCT027 BKN034 22/16 A3017 RMK AO2 SLP217 T02170161=
202407012121 SPECI KPWT 012121Z AUTO 05006KT 10SM BKN027 BKN038 OVC049 21/16 A3017 RMK AO2=
202407012103 SPECI KPWT 012103Z AUTO 07006KT 10SM FEW025 BKN038 OVC049 21/16 A3017 RMK AO2=
202407012056 METAR KPWT 012056Z AUTO 05004KT 10SM BKN027 BKN038 OVC049 21/16 A3017 RMK AO2 SLP220 6//// T02110156 56002=
202407012033 SPECI KPWT 012033Z AUTO 07004KT 10SM BKN027 BKN033 21/16 A3017 RMK AO2=
202407011956 METAR KPWT 011956Z AUTO 21003KT 10SM SCT027 BKN037 21/16 A3017 RMK AO2 SLP220 T02060156=
202407011913 SPECI KPWT 011913Z AUTO 10003KT 9SM BKN023 OVC037 20/15 A3018 RMK AO2=
202407011856 METAR KPWT 011856Z AUTO 00000KT 10SM FEW021 SCT029 OVC037 21/15 A3017 RMK AO2 SLP220 T02060150=
202407011756 METAR KPWT 011756Z AUTO 00000KT 8SM FEW017 OVC030 19/16 A3018 RMK AO2 SLP222 T01890156 10189 20150 50003=
202407011746 SPECI KPWT 011746Z AUTO VRB03KT 10SM SCT017 OVC032 19/16 A3018 RMK AO2=
202407011718 SPECI KPWT 011718Z AUTO 00000KT 10SM BKN015 19/16 A3018 RMK AO2=
202407011656 METAR KPWT 011656Z AUTO VRB03KT 10SM BKN013 18/16 A3018 RMK AO2 SLP223 T01780156=
202407011652 SPECI KPWT 011652Z AUTO 00000KT 10SM BKN013 BKN030 18/16 A3018 RMK AO2=
202407011613 SPECI KPWT 011613Z AUTO 00000KT 10SM SCT013 17/16 A3017 RMK AO2=
202407011556 METAR KPWT 011556Z AUTO 20003KT 10SM BKN013 17/16 A3017 RMK AO2 SLP219 T01720156=
202407011524 SPECI KPWT 011524Z AUTO 00000KT 10SM FEW008 BKN012 17/16 A3016 RMK AO2=
202407011516 SPECI KPWT 011516Z AUTO 00000KT 10SM FEW008 SCT014 BKN034 17/16 A3016 RMK AO2=
202407011456 METAR KPWT 011456Z AUTO 00000KT 10SM FEW018 BKN034 17/16 A3016 RMK AO2 SLP215 T01670161 53002=
202407011452 SPECI KPWT 011452Z AUTO 00000KT 10SM FEW013 SCT018 BKN034 17/17 A3016 RMK AO2=
202407011426 SPECI KPWT 011426Z AUTO 00000KT 10SM FEW013 BKN018 16/16 A3016 RMK AO2=
202407011356 METAR KPWT 011356Z AUTO 00000KT 10SM SCT016 16/16 A3015 RMK AO2 SLP212 T01560156=
202407011343 SPECI KPWT 011343Z AUTO 00000KT 10SM SCT019 16/16 A3015 RMK AO2=
202407011256 METAR KPWT 011256Z AUTO 00000KT 10SM OVC021 15/15 A3015 RMK AO2 SLP212 T01500150=
202407011156 METAR KPWT 011156Z AUTO 00000KT 10SM BKN021 15/15 A3014 RMK AO2 SLP209 7//// T01500150 10161 20133 51004=
202407011146 SPECI KPWT 011146Z AUTO 00000KT 10SM BKN023 15/15 A3014 RMK AO2=
202407011139 SPECI KPWT 011139Z AUTO 00000KT 10SM SCT023 14/14 A3014 RMK AO2=
202407011124 SPECI KPWT 011124Z AUTO 21004KT 10SM BKN023 14/14 A3014 RMK AO2=
202407011056 METAR KPWT 011056Z AUTO 04003KT 10SM FEW021 14/14 A3014 RMK AO2 SLP207 T01440144=
202407011005 SPECI KPWT 011005Z AUTO 00000KT 10SM FEW022 SCT028 15/15 A3014 RMK AO2=
202407010956 METAR KPWT 010956Z AUTO 00000KT 10SM BKN025 15/15 A3013 RMK AO2 SLP206 T01500150=
202407010926 SPECI KPWT 010926Z AUTO 00000KT 10SM BKN023 14/14 A3014 RMK AO2=
202407010856 METAR KPWT 010856Z AUTO 00000KT 10SM SCT023 14/14 A3013 RMK AO2 SLP204 T01440144 58001=
202407010843 SPECI KPWT 010843Z AUTO 00000KT 10SM SCT025 14/14 A3014 RMK AO2=
202407010817 SPECI KPWT 010817Z AUTO 00000KT 10SM BKN027 14/14 A3014 RMK AO2=
202407010756 METAR KPWT 010756Z AUTO 00000KT 10SM CLR 14/14 A3013 RMK AO2 SLP207 T01390139 402440139=
202407010656 METAR KPWT 010656Z AUTO 00000KT 10SM SCT024 BKN039 16/16 A3013 RMK AO2 SLP207 T01560156=
202407010633 SPECI KPWT 010633Z AUTO 00000KT 10SM BKN024 15/15 A3013 RMK AO2=
202407010556 METAR KPWT 010556Z AUTO 08003KT 10SM CLR 16/16 A3013 RMK AO2 SLP206 6//// T01560156 10239 20156 50006=
202407010456 METAR KPWT 010456Z AUTO 07005KT 10SM CLR 17/16 A3014 RMK AO2 SLP207 T01720161=
202407010356 METAR KPWT 010356Z AUTO 06006KT 10SM CLR 18/17 A3012 RMK AO2 SLP201 T01830167=
202407010256 METAR KPWT 010256Z AUTO 05007KT 10SM CLR 20/17 A3011 RMK AO2 SLP199 6//// T02000167=
202407010156 METAR KPWT 010156Z AUTO 05008KT 10SM FEW044 22/16 RMK AO2 SLPNO T02170161 $=
202407010056 METAR KPWT 010056Z AUTO 04006KT 10SM OVC046 22/17 A3012 RMK AO2 SLP200 T02220167=

# No short TAF reports from KPWT in databse.

###################################
#  large TAF from KPWT
###################################
202407312320 TAF KPWT 312320Z 0100/0124 01005KT P6SM SKC FM010200 04008KT P6SM
                       SKC FM010900 04005KT 6SM BR SKC FM011600
                       04009KT P6SM SKC=
202407311818 KPWT 311818Z 3118/0118 00000KT P6SM FEW015 OVC040 FM312100 03006KT
                       P6SM SKC FM010200 04008KT P6SM SKC FM010900
                       04005KT P6SM SCT010=
202407311727 TAF KPWT 311727Z 3118/0118 00000KT P6SM OVC007 FM312100 03006KT
                       P6SM SKC FM010200 04008KT P6SM SKC FM010900
                       04005KT P6SM SCT010=
202407311130 TAF KPWT 311130Z 3112/0112 VRB02KT P6SM OVC004 FM311800 04004KT
                       P6SM OVC015 FM312100 03006KT P6SM SKC FM010200
                       04008KT P6SM SKC=
202407310520 TAF KPWT 310520Z 3106/0106 20003KT P6SM OVC010 FM310800 VRB02KT
                       P6SM OVC004 FM311800 04004KT P6SM OVC015
                       FM312100 03006KT P6SM SKC=
202407302335 TAF KPWT 302335Z 3100/3124 22012G22KT P6SM SCT025 FM310300 22009KT
                       P6SM SCT050 FM310530 20003KT P6SM BKN006
                       FM310900 00000KT P6SM OVC007 FM311700 06004KT
                       P6SM OVC015 FM312100 05004KT P6SM SKC=
202407302116 KPWT 302116Z 3021/3118 22012G22KT P6SM SCT025 FM310300 22011KT
                       P6SM OVC035 FM310530 20003KT P6SM BKN006
                       FM310900 00000KT P6SM OVC007 FM311700 06004KT
                       P6SM OVC015=
202407301720 TAF KPWT 301720Z 3018/3118 21010KT 6SM BR OVC007 FM302000 22012KT
                       P6SM OVC015 FM302200 22011G19KT P6SM OVC025
                       FM310400 20003KT P6SM BKN015 OVC025 FM310900
                       00000KT P6SM OVC007=
202407301346 KPWT 301346Z 3014/3112 21010KT P6SM OVC004 FM301600 21010KT 6SM
                       BR OVC007 FM302000 22012KT P6SM OVC015 FM302200
                       22011G19KT P6SM OVC025 FM310400 20003KT
                       P6SM BKN015 OVC025=
202407301133 TAF KPWT 301133Z 3012/3112 21010KT P6SM VCSH OVC006 FM301600 21010KT
                       6SM BR OVC007 FM302000 22012KT P6SM OVC015
                       FM302200 22011G19KT P6SM OVC025 FM310400
                       20003KT P6SM BKN015 OVC025=
202407300539 TAF KPWT 300539Z 3006/3106 21010KT P6SM VCSH BKN006 OVC010 FM301600
                       21010KT 6SM BR OVC007 FM302000 22010KT P6SM
                       OVC015 FM302200 22011G19KT P6SM OVC025=
202407292339 TAF KPWT 292339Z 3000/3024 21015KT P6SM VCSH OVC015 FM300400 21008KT
                       P6SM VCSH OVC015 FM301600 21010KT 6SM BR
                       OVC007 FM302200 22010KT P6SM OVC015=
202407291731 TAF KPWT 291731Z 2918/3018 20010KT 6SM -SHRA BR OVC004 FM292300
                       21011KT P6SM VCSH OVC010 FM300400 21008KT
                       P6SM VCSH OVC015 FM301600 21010KT 6SM BR
                       OVC007=
202407291259 KPWT 291259Z 2913/3012 20003KT P6SM -SHRA OVC005 FM291600 20010KT
                       4SM -SHRA BR OVC007 FM292300 21011KT P6SM
                       VCSH OVC010 FM300400 21008KT P6SM VCSH OVC015=
202407291128 TAF KPWT 291128Z 2912/3012 20006KT P6SM OVC030 FM291300 20003KT
                       3SM -SHRA BR OVC015 FM291600 20010KT 4SM
                       -SHRA BR OVC007 FM292300 21011KT P6SM VCSH
                       OVC010 FM300400 21008KT P6SM VCSH OVC015=
202407290520 TAF KPWT 290520Z 2906/3006 21006KT P6SM SCT015 BKN150 FM290800
                       20004KT P6SM OVC015 FM291300 20003KT 3SM
                       -SHRA BR OVC008 FM291900 21011KT 5SM -SHRA
                       BR OVC010=
202407282329 TAF KPWT 282329Z 2900/2924 21006KT P6SM SCT015 BKN150 FM290800
                       20004KT P6SM OVC015 FM291300 20003KT P6SM
                       -SHRA OVC008 FM291900 21011KT P6SM -SHRA
                       OVC015=
202407282206 KPWT 282206Z 2822/2918 21006KT P6SM OVC015 FM282300 22009KT P6SM
                       SCT015 BKN150 FM290800 20004KT P6SM OVC015
                       FM291300 20003KT P6SM -SHRA OVC010=
202407281734 TAF KPWT 281734Z 2818/2918 21006KT P6SM OVC015 FM282200 22009KT
                       P6SM SCT015 BKN150 FM290800 20004KT P6SM
                       OVC015 FM291300 20003KT P6SM -SHRA OVC010=
202407281120 TAF KPWT 281120Z 2812/2912 20004KT P6SM OVC010 FM281600 21006KT
                       P6SM OVC007 FM282200 22009KT P6SM OVC050
                       FM290400 21005KT P6SM OVC070 FM290800 20003KT
                       P6SM OVC030=
202407281005 KPWT 281005Z 2810/2906 20004KT P6SM OVC010 FM281600 21006KT P6SM
                       OVC015 FM282200 22009KT P6SM OVC050 FM290400
                       21005KT P6SM OVC070=
202407280520 TAF KPWT 280520Z 2806/2906 20005KT P6SM BKN100 FM280900 20004KT
                       P6SM OVC007 FM281600 21006KT P6SM OVC015
                       FM282200 22009KT P6SM OVC050 FM290400 21005KT
                       P6SM OVC070=
202407272320 TAF KPWT 272320Z 2800/2824 24005KT P6SM SKC FM280300 20005KT P6SM
                       BKN100 FM280900 20004KT P6SM OVC007 FM281600
                       21006KT P6SM OVC015 FM282200 22009KT P6SM
                       OVC050=
202407271725 TAF KPWT 271725Z 2718/2818 22005KT P6SM SKC FM280300 20005KT P6SM
                       BKN100 FM280900 20004KT P6SM OVC007 FM281600
                       21006KT P6SM OVC015=
202407271324 KPWT 271324Z 2713/2812 00000KT P6SM FEW250 FM271700 22005KT P6SM
                       SKC FM280300 20005KT P6SM BKN100 FM280900
                       21004KT P6SM OVC015=
202407271120 TAF KPWT 271120Z 2712/2812 VRB03KT P6SM SCT025 FM271300 00000KT
                       P6SM OVC010
                      TEMPO 2713/2716 OVC007 FM271700 22005KT P6SM
                       SKC FM280300 20005KT P6SM BKN100 FM280900
                       21004KT P6SM OVC015=
202407270521 TAF KPWT 270521Z 2706/2806 VRB03KT P6SM FEW250 FM271100 VRB03KT
                       P6SM SCT025 FM271300 00000KT P6SM OVC010
                       TEMPO 2713/2716 OVC007 FM271700 22005KT
                       P6SM SKC FM280300 20005KT P6SM BKN100=
202407262320 TAF KPWT 262320Z 2700/2724 06008KT P6SM SCT250 FM270800 00000KT
                       P6SM FEW250 FM271100 VRB03KT P6SM SCT025
                       FM271300 00000KT P6SM SCT015 FM271700 22003KT
                       P6SM SKC=
202407261720 TAF KPWT 261720Z 2618/2718 04003KT 6SM BR FEW050 FM261900 06008KT
                       P6SM SCT250 FM270800 00000KT P6SM FEW250
                       FM271100 VRB03KT P6SM SCT025 FM271300 00000KT
                       P6SM OVC015=
202407261120 TAF KPWT 261120Z 2612/2712 04003KT 6SM BR FEW050 FM261900 06008KT
                       P6SM SCT250 FM270600 08003KT P6SM FEW250
                       FM271100 VRB03KT P6SM SCT025=
202407260534 TAF KPWT 260534Z 2606/2706 VRB05KT P6SM BKN050 FM260900 04007KT
                       P6SM BKN050 FM261900 06008KT P6SM SCT200=
202407252333 TAF KPWT 252333Z 2600/2624 VRB05KT P6SM BKN050 FM260900 04007KT
                       P6SM BKN050=
202407251720 TAF KPWT 251720Z 2518/2618 22005KT P6SM BKN020 FM251900 15004KT
                       P6SM BKN030 FM252000 10004KT P6SM BKN050
                       FM252300 06006KT P6SM BKN200 FM261100 03002KT
                       P6SM BKN050=
202407251121 TAF KPWT 251121Z 2512/2612 00000KT P6SM SCT027 OVC035 FM251800
                       16006KT P6SM SCT040 FM252300 06006KT P6SM
                       BKN200 FM261100 03002KT P6SM BKN050=
202407250704 KPWT 250704Z 2507/2606 12008KT P6SM SCT030 OVC060 FM251200 19008KT
                       P6SM OVC030 FM251800 13006KT P6SM SCT050
                       FM252200 06006KT P6SM BKN150=
202407250603 KPWT 250603Z 2506/2606 12008KT P6SM BKN028 OVC040 FM251200 19008KT
                       P6SM OVC030 FM251800 13006KT P6SM SCT050
                       FM252200 06006KT P6SM BKN150=
202407250522 TAF KPWT 250522Z 2506/2606 12008KT P6SM BKN040 FM251200 19008KT
                       P6SM OVC030 FM251800 13006KT P6SM SCT050
                       FM252200 06006KT P6SM BKN150=
202407242320 TAF KPWT 242320Z 2500/2524 21010KT P6SM BKN050 FM250800 12008KT
                       P6SM BKN050 FM251200 19008KT P6SM OVC035
                       FM251800 14004KT P6SM SCT050=
202407241726 TAF KPWT 241726Z 2418/2518 VRB03KT P6SM SCT200 FM250200 02006KT
                       P6SM SCT050 BKN150 FM250800 19008KT P6SM
                       BKN050 FM251200 19008KT P6SM OVC035=
202407241120 TAF KPWT 241120Z 2412/2512 VRB02KT P6SM FEW250 FM241800 20006KT
                       P6SM SCT150 FM250000 04005KT P6SM SCT050
                       BKN100 FM250700 VRB02KT P6SM SCT030 BKN040=
202407240549 TAF KPWT 240549Z 2406/2506 06004KT P6SM SKC FM240800 VRB02KT P6SM
                       FEW250 FM241800 20006KT P6SM SCT150 FM250000
                       04005KT P6SM SCT050 BKN100=
202407232357 TAF KPWT 232357Z 2400/2424 06008KT P6SM SKC FM240600 VRB02KT P6SM
                       SKC FM241600 20006KT P6SM FEW150=
202407231720 TAF KPWT 231720Z 2318/2418 05005KT P6SM SCT025 FM240300 04006KT
                       P6SM SCT250 FM241200 00000KT P6SM SKC=
202407231319 KPWT 231319Z 2313/2412 VRB03KT P6SM BKN035 FM231400 05003KT P6SM
                       OVC025 FM231800 05005KT P6SM SCT025 FM240300
                       04006KT P6SM SCT250=
202407231122 TAF KPWT 231122Z 2312/2412 VRB03KT P6SM BKN015 FM231400 05003KT
                       P6SM OVC025 FM231800 05005KT P6SM SCT025
                       FM240300 04006KT P6SM SCT250=
202407230554 TAF KPWT 230554Z 2306/2406 05005KT P6SM BKN007 OVC025 FM231100
                       VRB03KT P6SM BKN005 FM231300 05003KT P6SM
                       OVC007 FM231700 05005KT P6SM SCT025 FM232000
                       04006KT P6SM FEW060=
202407222329 TAF KPWT 222329Z 2300/2324 05005KT P6SM OVC020 FM230100 05008KT
                       P6SM BKN035 FM230500 06005KT P6SM OVC025
                       FM231100 VRB03KT P6SM BKN015 FM231300 05003KT
                       P6SM OVC007 FM231800 05003KT P6SM SCT025=
202407221732 TAF KPWT 221732Z 2218/2318 21006KT 2SM BR VCSH OVC008 FM222000
                       21005KT P6SM OVC015 FM222100 22011KT P6SM
                       SCT035 FM230500 06005KT P6SM SCT040 FM231000
                       VRB03KT P6SM BKN015=
202407221335 KPWT 221335Z 2214/2312 19004KT P6SM BKN012 FM221700 21006KT P6SM
                       BKN018 FM222100 22011KT P6SM SCT035 FM230500
                       06005KT P6SM SCT040 FM231000 VRB03KT P6SM
                       BKN015=
202407221122 TAF KPWT 221122Z 2212/2312 19004KT P6SM BKN009 FM221700 21006KT
                       P6SM BKN018 FM222100 22011KT P6SM SCT035
                       FM230500 06005KT P6SM SCT040 FM231000 VRB03KT
                       P6SM BKN015=
202407220817 KPWT 220817Z 2208/2306 20003KT P6SM FEW015 FM221100 19004KT P6SM
                       OVC010 FM221700 21006KT P6SM BKN018 FM222100
                       21006KT P6SM SCT050=
202407220527 TAF KPWT 220527Z 2206/2306 20003KT P6SM BKN150 FM220900 19005KT
                       P6SM OVC015 FM221100 19004KT P6SM OVC006
                       FM221900 21006KT P6SM BKN025 FM222100 21006KT
                       P6SM SCT050=
202407212341 TAF KPWT 212341Z 2200/2224 24007KT P6SM BKN150 FM220900 19005KT
                       P6SM OVC015 FM221100 19004KT P6SM OVC006
                       FM221900 21006KT P6SM BKN025 FM222100 21006KT
                       P6SM SCT050=
202407211725 TAF KPWT 211725Z 2118/2218 VRB04KT P6SM SCT080 BKN150 FM212200
                       20010KT P6SM BKN150 FM220900 19005KT P6SM
                       OVC010 FM221100 19004KT P6SM OVC006=
202407211124 TAF KPWT 211124Z 2112/2212 VRB03KT P6SM FEW005 SCT150 FM211300
                       19003KT P6SM SCT005 BKN150
                      TEMPO 2114/2117 BKN005 FM211800 VRB04KT P6SM
                       SCT080 BKN150 FM212200 20010KT P6SM SCT150
                       FM220900 19005KT P6SM OVC006=
202407210524 TAF KPWT 210524Z 2106/2206 02007KT P6SM SKC FM211100 17005KT P6SM
                       SCT015 FM211400 19003KT P6SM OVC015 FM211800
                       21002KT P6SM BKN150=
202407202340 TAF KPWT 202340Z 2100/2124 02007KT P6SM SKC FM211100 17005KT P6SM
                       SCT015 FM211400 19003KT P6SM OVC015 FM211800
                       21002KT P6SM BKN150=
202407201726 TAF KPWT 201726Z 2018/2118 04004KT P6SM SKC FM202300 04008KT P6SM
                       SKC FM211100 17005KT P6SM SCT005=
202407201127 TAF KPWT 201127Z 2012/2112 VRB03KT P6SM SKC FM201700 04004KT P6SM
                       SKC FM202300 04008KT P6SM SKC FM211100 17005KT
                       P6SM SCT005=
202407200522 TAF KPWT 200522Z 2006/2106 04006KT P6SM SKC FM201200 VRB03KT P6SM
                       SCT004 FM201700 04004KT P6SM SKC FM202300
                       04008KT P6SM SKC=
202407192323 TAF KPWT 192323Z 2000/2024 22006KT P6SM SKC FM200100 04006KT P6SM
                       SKC FM200900 00000KT P6SM SKC FM201200 00000KT
                       P6SM BKN050 FM201500 04002KT P6SM SKC=
202407191720 TAF KPWT 191720Z 1918/2018 22005KT P6SM SCT010 FM192100 22006KT
                       P6SM SKC FM200100 04006KT P6SM SKC FM200900
                       00000KT P6SM SKC FM201700 05003KT P6SM SKC=
202407191120 TAF KPWT 191120Z 1912/2012 21008KT P6SM OVC006 FM191800 22005KT
                       P6SM SCT010 FM192100 22006KT P6SM SKC FM200100
                       04006KT P6SM SKC=
202407190520 TAF KPWT 190520Z 1906/2006 16005KT P6SM SKC FM191000 21008KT P6SM
                       OVC006 FM191900 22005KT P6SM SCT010 FM192100
                       22006KT P6SM SKC FM192300 04006KT P6SM SKC=
202407182320 TAF KPWT 182320Z 1900/1924 21008KT P6SM SKC FM191000 21008KT P6SM
                       OVC006 FM191800 22005KT P6SM SCT010=
202407181721 TAF KPWT 181721Z 1818/1918 21008KT P6SM SKC FM191000 21008KT P6SM
                       OVC006=
202407181134 TAF KPWT 181134Z 1812/1912 21008KT P6SM OVC003 FM181600 21008KT
                       P6SM BKN006 FM181700 21008KT P6SM SKC FM191000
                       21008KT P6SM OVC006=
202407180520 TAF KPWT 180520Z 1806/1906 20008KT P6SM FEW150 FM181000 19006KT
                       P6SM OVC007 FM181200 21009KT P6SM OVC003
                       FM181900 21009KT P6SM SKC=
202407180043 TAF KPWT 180043Z 1801/1824 22010KT P6SM SCT150 FM180300 19006KT
                       P6SM SKC FM180800 19006KT P6SM OVC006 FM181200
                       21009KT P6SM OVC003 FM181900 21009KT P6SM
                       SKC AMD NOT SKED=
202407171740 TAF KPWT 171740Z 1718/1818 19006KT P6SM BKN150 FM180300 19006KT
                       P6SM SKC FM180800 19006KT P6SM OVC006 FM181200
                       21009KT P6SM OVC003=
202407171126 TAF KPWT 171126Z 1712/1812 21006KT P6SM FEW007 BKN150 FM171600
                       19006KT P6SM BKN150 FM180300 19006KT P6SM
                       SKC FM180800 19006KT P6SM OVC006=
202407170524 TAF KPWT 170524Z 1706/1806 VRB04KT P6SM SKC FM171200 21007KT P6SM
                       FEW007 BKN150 FM171900 19005KT P6SM SCT150=
202407162327 TAF KPWT 162327Z 1700/1724 04006KT P6SM SKC FM170900 VRB04KT P6SM
                       BKN150 FM171800 22005KT P6SM SCT150=
202407161732 TAF KPWT 161732Z 1618/1718 04006KT P6SM SKC FM170900 19006KT P6SM
                       BKN150
                      TEMPO 1712/1715 OVC007 FM171700 22004KT P6SM
                       BKN150=
202407161122 TAF KPWT 161122Z 1612/1712 04006KT P6SM SKC
                      TEMPO 1614/1616 SCT002 FM170900 19006KT P6SM
                       BKN150=
202407160525 TAF KPWT 160525Z 1606/1706 05004KT P6SM SKC FM161200 VRB03KT P6SM
                       SCT007
                      TEMPO 1612/1616 BKN007 FM161700 04007KT P6SM
                       SKC=
202407152320 TAF KPWT 152320Z 1600/1624 VRB05KT P6SM SKC FM160300 05004KT P6SM
                       SKC FM161200 VRB03KT P6SM SCT007
                      TEMPO 1612/1616 BKN007 FM161900 04005KT P6SM
                       SKC=
202407151729 TAF KPWT 151729Z 1518/1618 15005KT P6SM BKN008 FM151900 22006KT
                       P6SM BKN015 FM152100 04006KT P6SM FEW020
                       FM152200 04005KT P6SM SKC FM161200 VRB03KT
                       P6SM SCT007=
202407151223 KPWT 151223Z 1512/1612 21005KT P6SM BKN004 FM151800 22004KT P6SM
                       SKC FM152300 04006KT P6SM SKC FM160600 VRB02KT
                       P6SM SKC=
202407151120 TAF KPWT 151120Z 1512/1612 20004KT P6SM SCT004 FM151800 22004KT
                       P6SM SKC FM152300 04006KT P6SM SKC FM160600
                       VRB02KT P6SM SKC=
202407150815 KPWT 150815Z 1508/1606 21004KT P6SM BKN007 FM151200 19004KT P6SM
                       OVC004 FM151800 22004KT P6SM SKC FM152300
                       04006KT P6SM SKC=
202407150523 TAF KPWT 150523Z 1506/1606 20005KT P6SM SKC FM150900 20004KT P6SM
                       FEW005 BKN010 FM151100 19004KT P6SM OVC005
                       FM151800 22004KT P6SM SKC FM152300 04006KT
                       P6SM SKC=
202407142320 TAF KPWT 142320Z 1500/1524 21007KT P6SM SKC FM151000 20004KT P6SM
                       BKN015 FM151700 22004KT P6SM SCT025 FM152300
                       04006KT P6SM SKC=
202407141725 TAF KPWT 141725Z 1418/1518 22005KT P6SM SKC FM150600 19004KT P6SM
                       SKC FM151000 20004KT P6SM BKN015 FM151700
                       22004KT P6SM SCT025=
202407141120 TAF KPWT 141120Z 1412/1512 VRB02KT P6SM SKC FM141600 22005KT P6SM
                       SKC FM150600 19004KT P6SM SKC FM151000 20003KT
                       P6SM BKN015=
202407140520 TAF KPWT 140520Z 1406/1506 VRB03KT P6SM SKC FM141600 22005KT P6SM
                       SKC=
202407132320 TAF KPWT 132320Z 1400/1424 06006KT P6SM SKC FM140500 VRB03KT P6SM
                       SKC FM141500 22005KT P6SM SKC=
202407131720 TAF KPWT 131720Z 1318/1418 06006KT P6SM SKC FM140400 VRB03KT P6SM
                       SKC FM140900 20005KT P6SM SKC=
202407131120 TAF KPWT 131120Z 1312/1412 VRB02KT P6SM SKC FM131700 06005KT P6SM
                       SKC FM140400 VRB02KT P6SM SKC=
202407130524 TAF KPWT 130524Z 1306/1406 VRB02KT P6SM SKC FM131700 06005KT P6SM
                       SKC FM140400 VRB02KT P6SM SKC=
202407122320 TAF KPWT 122320Z 1300/1324 04006KT P6SM SKC FM130400 00000KT P6SM
                       SKC FM131200 VRB02KT P6SM SKC FM131700 06003KT
                       P6SM SKC=
202407121720 TAF KPWT 121720Z 1218/1318 VRB04KT P6SM SKC FM122100 04006KT P6SM
                       SKC FM130400 00000KT P6SM SKC FM131200 VRB02KT
                       P6SM SKC=
202407121120 TAF KPWT 121120Z 1212/1312 00000KT P6SM SKC
                      TEMPO 1212/1214 SCT010 FM121700 VRB04KT P6SM
                       SKC FM122100 04006KT P6SM SKC FM130400 00000KT
                       P6SM SKC=
202407120534 TAF KPWT 120534Z 1206/1306 12003KT P6SM SKC FM121400 21003KT P6SM
                       SCT015 FM121700 VRB04KT P6SM SKC FM122100
                       04006KT P6SM SKC=
202407112320 TAF KPWT 112320Z 1200/1224 04009KT P6SM SKC FM120600 00000KT P6SM
                       SKC FM121400 21003KT P6SM BKN015 FM121700
                       27003KT P6SM SKC=
202407111720 TAF KPWT 111720Z 1118/1218 06007KT P6SM SKC FM120600 00000KT P6SM
                       SKC FM121400 21003KT P6SM BKN015=
202407111131 TAF KPWT 111131Z 1112/1212 00000KT P6SM SKC FM111800 06007KT P6SM
                       SKC FM120600 00000KT P6SM SKC=
202407110520 TAF KPWT 110520Z 1106/1206 10003KT P6SM SKC FM111200 20003KT P6SM
                       SCT010
                      TEMPO 1112/1116 OVC006 FM111800 06007KT P6SM
                       SKC=
202407102329 TAF KPWT 102329Z 1100/1124 04003KT P6SM SKC FM110600 VRB03KT P6SM
                       SKC FM111200 VRB03KT P6SM SCT010
                      TEMPO 1112/1116 OVC006 FM111800 06007KT P6SM
                       SKC=
202407101720 TAF KPWT 101720Z 1018/1118 21004KT P6SM SKC FM102300 07007KT P6SM
                       SKC FM110000 04008KT P6SM SKC FM110600 VRB03KT
                       P6SM SKC FM111200 VRB03KT P6SM SCT015
                      TEMPO 1112/1116 OVC010=
202407101121 TAF KPWT 101121Z 1012/1112 00000KT P6SM SKC FM101700 21004KT P6SM
                       SKC FM102300 07007KT P6SM SKC FM110000 04008KT
                       P6SM SKC=
202407100520 TAF KPWT 100520Z 1006/1106 18004KT P6SM SKC FM101800 21009KT P6SM
                       SKC FM110000 04008KT P6SM SKC=
202407092320 TAF KPWT 092320Z 1000/1024 05007KT P6SM SKC FM100600 19004KT P6SM
                       SKC FM101800 21005KT P6SM SKC=
202407091720 TAF KPWT 091720Z 0918/1018 05005KT P6SM SKC FM100600 19004KT P6SM
                       SKC=
202407091120 TAF KPWT 091120Z 0912/1012 VRB03KT P6SM SKC FM091800 05005KT P6SM
                       SKC FM100600 19005KT P6SM SKC=
202407090520 TAF KPWT 090520Z 0906/1006 VRB03KT P6SM SKC FM091700 05005KT P6SM
                       SKC=
202407082320 TAF KPWT 082320Z 0900/0924 06006KT P6SM SKC FM090400 VRB03KT P6SM
                       SKC FM091500 06007KT P6SM SKC=
202407081720 TAF KPWT 081720Z 0818/0918 05006KT P6SM SKC FM091200 15003KT P6SM
                       SKC=
202407081122 TAF KPWT 081122Z 0812/0912 VRB02KT P6SM SKC FM081600 05006KT P6SM
                       SKC=
202407081049 TAF KPWT 081049Z 0811/0906 00000KT P6SM SKC FM081500 06004KT P6SM
                       SKC=
202407080528 TAF KPWT 080528Z 0806/0906 05006KT P6SM SKC FM080800 00000KT P6SM
                       SKC FM081500 06004KT P6SM SKC=
202407072320 TAF KPWT 072320Z 0800/0824 05006KT P6SM SKC FM080800 00000KT P6SM
                       SKC FM081500 06004KT P6SM SKC=
202407071720 TAF KPWT 071720Z 0718/0818 06006KT P6SM SKC FM072200 05006KT P6SM
                       SKC FM080800 00000KT P6SM SKC=
202407071120 TAF KPWT 071120Z 0712/0812 VRB03KT P6SM SKC FM071500 06006KT P6SM
                       SKC=
202407070520 TAF KPWT 070520Z 0706/0806 05007KT P6SM SKC FM071200 00000KT P6SM
                       SKC FM071500 06006KT P6SM SKC=
202407062320 TAF KPWT 062320Z 0700/0724 04008KT P6SM SKC FM070100 05008KT P6SM
                       SKC FM071200 00000KT P6SM SKC=
202407061720 TAF KPWT 061720Z 0618/0718 04006KT P6SM SKC FM070100 05008KT P6SM
                       SKC FM071200 00000KT P6SM SKC=
202407061120 TAF KPWT 061120Z 0612/0712 04006KT P6SM SKC=
202407060520 TAF KPWT 060520Z 0606/0706 05006KT P6SM SKC=
202407052320 TAF KPWT 052320Z 0600/0624 04010KT P6SM SKC FM060400 05004KT P6SM
                       SKC FM061600 06006KT P6SM SKC=
202407051720 TAF KPWT 051720Z 0518/0618 04010KT P6SM SKC FM052200 04008KT P6SM
                       SKC FM060400 05003KT P6SM SKC=
202407051120 TAF KPWT 051120Z 0512/0612 05006KT P6SM SKC FM051600 04010KT P6SM
                       SKC FM060300 05005KT P6SM SKC=
202407050520 TAF KPWT 050520Z 0506/0606 05006KT P6SM SKC FM051500 05010KT P6SM
                       SKC FM060300 05005KT P6SM SKC=
202407042328 TAF KPWT 042328Z 0500/0524 02010KT P6SM SKC FM050400 05006KT P6SM
                       SKC=
202407041720 TAF KPWT 041720Z 0418/0518 04008KT P6SM SKC FM042200 04010KT P6SM
                       SKC FM050400 05006KT P6SM SKC=
202407041126 TAF KPWT 041126Z 0412/0512 00000KT P6SM SKC FM041600 04008KT P6SM
                       SKC FM042200 04010KT P6SM SKC FM050400 05006KT
                       P6SM SKC=
202407040522 TAF KPWT 040522Z 0406/0506 04003KT P6SM SKC FM041600 04008KT P6SM
                       SKC FM042200 04010KT P6SM SKC FM050400 05006KT
                       P6SM SKC=
202407032324 TAF KPWT 032324Z 0400/0424 03004KT P6SM OVC045 FM040300 05005KT
                       P6SM SCT050 FM040600 04003KT P6SM SKC FM041800
                       04008KT P6SM SKC=
202407031720 TAF KPWT 031720Z 0318/0418 20004KT P6SM FEW030 FM032100 04007KT
                       P6SM SCT050 FM040300 05005KT P6SM SKC=
202407031123 TAF KPWT 031123Z 0312/0412 00000KT P6SM BKN020 BKN045 FM031800
                       VRB04KT P6SM BKN050 FM032100 04007KT P6SM
                       SCT050 FM040300 05005KT P6SM SKC=
202407030520 TAF KPWT 030520Z 0306/0406 VRB05KT P6SM SCT035 FM031000 VRB03KT
                       P6SM SCT015 BKN020 FM031200 00000KT P6SM
                       OVC012 FM031900 06005KT P6SM BKN050 FM032100
                       04007KT P6SM SCT050 FM040300 05005KT P6SM
                       SKC=
202407022320 TAF KPWT 022320Z 0300/0324 VRB04KT P6SM FEW029 BKN040 FM030600
                       VRB05KT P6SM SCT050 FM031000 VRB03KT P6SM
                       SCT015 BKN020 FM031200 00000KT P6SM OVC012
                       FM031900 06005KT P6SM BKN050 FM032100 04005KT
                       P6SM SCT050=
202407021730 TAF KPWT 021730Z 0218/0318 23006KT P6SM OVC013 FM022100 20006KT
                       P6SM SCT050 FM030000 04005KT P6SM SCT050
                       FM031000 16003KT P6SM SCT015 BKN020 FM031200
                       00000KT P6SM OVC012=
202407021249 KPWT 021249Z 0213/0312 19003KT P6SM BKN009 BKN040 FM021700 20005KT
                       P6SM SCT012 BKN050 FM022100 20006KT P6SM
                       SCT050 SCT200 FM030600 VRB03KT P6SM SCT050
                       FM031000 16003KT P6SM SCT010 BKN020=
202407021129 TAF KPWT 021129Z 0212/0312 19003KT P6SM BKN040 FM022100 20006KT
                       P6SM SCT050 SCT200 FM030600 VRB03KT P6SM
                       SCT050 FM031000 16003KT P6SM SCT010 BKN020=
202407020520 TAF KPWT 020520Z 0206/0306 VRB03KT P6SM FEW040 FM021100 00000KT
                       P6SM SCT015 BKN022 OVC035 FM022100 04003KT
                       P6SM SCT025 BKN040 FM030200 VRB03KT P6SM
                       SCT035 SCT050=
202407012332 TAF KPWT 012332Z 0200/0224 VRB03KT P6SM SCT040 BKN060 FM020200
                       05007KT P6SM SCT040 FM020900 18004KT P6SM
                       BKN022 FM021100 00000KT P6SM OVC015 FM022100
                       04003KT P6SM SCT025 OVC040=
202407011729 TAF KPWT 011729Z 0118/0218 VRB03KT P6SM BKN015 FM012100 04006KT
                       P6SM BKN040 FM020200 05007KT P6SM SCT040
                       FM020900 18004KT P6SM BKN022 FM021100 00000KT
                       P6SM OVC015=
202407011121 TAF KPWT 011121Z 0112/0212 VRB03KT P6SM SCT014 BKN035
                      TEMPO 0112/0114 BKN012 FM011400 VRB03KT P6SM
                       OVC011 FM011700 04005KT P6SM BKN015 BKN035
                       FM012100 04006KT P6SM BKN040 FM020200 05007KT
                       P6SM SCT040 FM020900 18004KT P6SM BKN022=
202407010821 KPWT 010821Z 0108/0206 VRB03KT P6SM SCT012 BKN025 FM011100 07003KT
                       P6SM BKN010 OVC030 FM011700 04005KT P6SM
                       BKN035 FM012300 04007KT P6SM SCT040=
202407010523 TAF KPWT 010523Z 0106/0206 06006KT P6SM SCT040 FM011100 07003KT
                       P6SM BKN010 OVC030 FM011700 04005KT P6SM
                       BKN035 FM012300 04007KT P6SM SCT040=