##########################################################
# Query made at 02/16/2025 01:27:43 UTC
# Time interval: from 03/01/2024 00:00  to 03/31/2024 23:59  UTC
##########################################################

##########################################################
# KPWT, Bremerton National Automatic Weather Observing / Reporting System (United States)
# WMO index: -----. WIGOS ID: Unknown
# Latitude 47-30N. Longitude 122-45W. Altitude 147 m.
##########################################################

###################################
#  METAR/SPECI from KPWT
###################################
202403312356 METAR KPWT 312356Z AUTO 07007KT 10SM CLR 16/04 A2999 RMK AO2 SLP161 6//// T01560044 10167 20117 56003=
202403312256 METAR KPWT 312256Z AUTO 02006KT 10SM CLR 16/06 A2999 RMK AO2 SLP161 T01610056=
202403312156 METAR KPWT 312156Z AUTO VRB04KT 10SM CLR 16/04 A2999 RMK AO2 SLP160 T01560044=
202403312056 METAR KPWT 312056Z AUTO 06007KT 10SM CLR 14/06 A3000 RMK AO2 SLP164 T01440056 58002=
202403311956 METAR KPWT 311956Z AUTO VRB03KT 10SM CLR 14/04 A3000 RMK AO2 SLP164 T01390044=
202403311856 METAR KPWT 311856Z AUTO 06006KT 10SM CLR 13/06 A3001 RMK AO2 SLP165 T01280056=
202403311756 METAR KPWT 311756Z AUTO 06006KT 10SM CLR 12/06 A3001 RMK AO2 SLP167 T01170061 10122 20006 51015=
202403311656 METAR KPWT 311656Z AUTO 02005KT 10SM CLR 11/06 A3000 RMK AO2 SLP162 T01060056=
202403311556 METAR KPWT 311556Z AUTO 02008KT 10SM CLR 09/06 A2998 RMK AO2 SLP157 T00890056=
202403311456 METAR KPWT 311456Z AUTO 01007KT 10SM CLR 07/04 A2996 RMK AO2 SLP151 T00670044 53016=
202403311356 METAR KPWT 311356Z AUTO 01006KT 10SM CLR 04/04 A2995 RMK AO2 SLP146 T00440044=
202403311256 METAR KPWT 311256Z AUTO 01004KT 10SM CLR 02/02 A2993 RMK AO2 SLP140 T00220022 FZRANO=
202403311156 METAR KPWT 311156Z AUTO 01003KT 10SM CLR 02/02 A2991 RMK AO2 SLP135 T00170017 10078 20006 53002 FZRANO=
202403311056 METAR KPWT 311056Z AUTO 00000KT 10SM CLR 01/01 A2991 RMK AO2 SLP133 T00110011 FZRANO=
202403310956 METAR KPWT 310956Z AUTO 00000KT 10SM CLR 02/02 A2990 RMK AO2 SLP131 T00220022 FZRANO=
202403310856 METAR KPWT 310856Z AUTO 00000KT 10SM FEW060 02/02 A2991 RMK AO2 SLP132 T00220022 51007 FZRANO=
202403310756 METAR KPWT 310756Z AUTO 00000KT 10SM CLR 03/03 A2990 RMK AO2 SLP130 T00280028 401440000=
202403310656 METAR KPWT 310656Z AUTO 00000KT 10SM CLR 06/04 A2989 RMK AO2 SLP127 T00560039=
202403310556 METAR KPWT 310556Z AUTO 04007KT 10SM CLR 08/04 A2988 RMK AO2 SLP125 T00780044 10128 20067 51003=
202403310456 METAR KPWT 310456Z AUTO 03009KT 10SM SCT050 08/03 A2988 RMK AO2 SLP124 T00830033=
202403310356 METAR KPWT 310356Z AUTO 03005KT 10SM BKN050 08/04 A2989 RMK AO2 SLP125 T00830044=
202403310256 METAR KPWT 310256Z AUTO 00000KT 10SM FEW055 09/04 A2987 RMK AO2 SLP122 T00890039 56010=
202403310156 METAR KPWT 310156Z AUTO 06004KT 10SM CLR 11/04 A2987 RMK AO2 SLP123 T01110044=
202403310056 METAR KPWT 310056Z AUTO 05008KT 10SM CLR 12/04 A2989 RMK AO2 SLP128 T01220039=
202403302356 METAR KPWT 302356Z AUTO 04007KT 10SM CLR 13/04 A2991 RMK AO2 SLP131 T01280039 10144 20117 56008=
202403302256 METAR KPWT 302256Z AUTO 05008KT 10SM CLR 13/06 A2991 RMK AO2 SLP132 T01330056=
202403302156 METAR KPWT 302156Z AUTO 07004KT 10SM CLR 14/05 A2992 RMK AO2 SLP135 T01390050=
202403302056 METAR KPWT 302056Z AUTO 05008KT 10SM CLR 14/05 A2993 RMK AO2 SLP140 T01390050 58014=
202403301956 METAR KPWT 301956Z AUTO 02007KT 10SM CLR 14/06 A2995 RMK AO2 SLP146 T01390056=
202403301856 METAR KPWT 301856Z AUTO 08006KT 10SM CLR 13/06 A2997 RMK AO2 SLP152 T01280056=
202403301756 METAR KPWT 301756Z AUTO 06005KT 10SM CLR 12/06 A2997 RMK AO2 SLP155 T01170061 10117 20000 58004=
202403301656 METAR KPWT 301656Z AUTO 02007KT 10SM CLR 11/06 A2997 RMK AO2 SLP154 T01060056=
202403301556 METAR KPWT 301556Z AUTO 03004KT 10SM CLR 08/05 A2999 RMK AO2 SLP159 T00830050=
202403301456 METAR KPWT 301456Z AUTO 00000KT 10SM CLR 04/04 A2998 RMK AO2 SLP159 T00440044 53012=
202403301356 METAR KPWT 301356Z AUTO 00000KT 10SM CLR 00/00 A2997 RMK AO2 SLP154 T00000000 FZRANO=
202403301256 METAR KPWT 301256Z AUTO 00000KT 10SM CLR 02/02 A2996 RMK AO2 SLP152 T00220017 FZRANO=
202403301156 METAR KPWT 301156Z AUTO 03006KT 10SM CLR 05/03 A2995 RMK AO2 SLP146 70001 T00500033 10078 20050 53003=
202403301056 METAR KPWT 301056Z AUTO 06010KT 10SM CLR 07/03 A2994 RMK AO2 SLP143 T00720033=
202403300956 METAR KPWT 300956Z AUTO 08009KT 10SM CLR 07/03 A2994 RMK AO2 SLP143 T00720033=
202403300856 METAR KPWT 300856Z AUTO 05007KT 10SM CLR 07/03 A2994 RMK AO2 SLP143 T00720033 53003=
202403300756 METAR KPWT 300756Z AUTO 06010KT 10SM CLR 07/03 A2993 RMK AO2 SLP141 T00720028 401440050=
202403300656 METAR KPWT 300656Z AUTO 05008KT 10SM CLR 08/02 A2993 RMK AO2 SLP140 T00780022=
202403300556 METAR KPWT 300556Z AUTO 07008KT 10SM CLR 08/02 A2993 RMK AO2 SLP140 T00780022 10139 20078 51006=
202403300456 METAR KPWT 300456Z AUTO 06008KT 10SM CLR 08/02 A2993 RMK AO2 SLP140 T00830022=
202403300356 METAR KPWT 300356Z AUTO 05008KT 10SM CLR 08/03 A2992 RMK AO2 SLP139 T00830028=
202403300256 METAR KPWT 300256Z AUTO 04011KT 10SM CLR 09/03 A2991 RMK AO2 SLP135 T00890033 53007=
202403300156 METAR KPWT 300156Z AUTO 04010KT 10SM CLR 11/03 A2990 RMK AO2 SLP131 T01110033=
202403300056 METAR KPWT 300056Z AUTO 01011G17KT 10SM CLR 13/04 A2989 RMK AO2 SLP127 T01280044=
202403292356 METAR KPWT 292356Z AUTO 02009G15KT 350V060 10SM CLR 13/04 A2989 RMK AO2 SLP127 T01330044 10144 20100 56010=
202403292256 METAR KPWT 292256Z AUTO 01008KT 10SM CLR 13/04 A2990 RMK AO2 SLP130 T01330039=
202403292156 METAR KPWT 292156Z AUTO 04008G14KT 10SM FEW045 13/04 A2990 RMK AO2 SLP132 T01330039=
202403292056 METAR KPWT 292056Z AUTO 00000KT 10SM CLR 13/04 A2992 RMK AO2 SLP138 T01330039 58004=
202403291956 METAR KPWT 291956Z AUTO VRB03KT 10SM CLR 12/04 A2993 RMK AO2 SLP141 T01170044=
202403291856 METAR KPWT 291856Z AUTO VRB03KT 10SM SCT025 10/04 A2993 RMK AO2 SLP141 T01000039=
202403291853 SPECI KPWT 291853Z AUTO 00000KT 10SM SCT025 11/04 A2993 RMK AO2=
202403291756 METAR KPWT 291756Z AUTO VRB03KT 10SM BKN021 10/06 A2993 RMK AO2 SLP138 60001 T01000061 10100 20050 51007=
202403291743 SPECI KPWT 291743Z AUTO VRB03KT 10SM BKN021 09/06 A2993 RMK AO2=
202403291703 SPECI KPWT 291703Z AUTO 28005KT 10SM SCT018 09/07 A2992 RMK AO2=
202403291656 METAR KPWT 291656Z AUTO VRB05KT 10SM BKN016 08/06 A2992 RMK AO2 SLP137 T00830061=
202403291651 SPECI KPWT 291651Z AUTO 25005KT 10SM BKN016 08/06 A2992 RMK AO2=
202403291556 METAR KPWT 291556Z AUTO 26005KT 10SM CLR 07/07 A2990 RMK AO2 SLP132 T00720067=
202403291456 METAR KPWT 291456Z AUTO 00000KT 10SM OVC060 06/06 A2990 RMK AO2 SLP131 60001 T00560056 53008=
202403291356 METAR KPWT 291356Z AUTO 00000KT 10SM BKN036 05/05 A2989 RMK AO2 SLP127 P0001 T00500050=
202403291303 SPECI KPWT 291303Z AUTO 00000KT 10SM FEW015 BKN037 06/06 A2988 RMK AO2 P0001=
202403291256 METAR KPWT 291256Z AUTO 00000KT 10SM BKN015 OVC035 06/06 A2988 RMK AO2 RAE52 SLP123 P0000 T00560056=
202403291247 SPECI KPWT 291247Z AUTO 22003KT 10SM -RA BKN015 OVC035 06/06 A2988 RMK AO2 P0000=
202403291215 SPECI KPWT 291215Z AUTO 22004KT 10SM -RA BKN013 OVC028 06/06 A2987 RMK AO2 P0000=
202403291156 METAR KPWT 291156Z AUTO 21005KT 10SM -RA OVC028 06/06 A2987 RMK AO2 SLP121 P0002 60004 70028 T00560056 10061 20056 51008=
202403291144 SPECI KPWT 291144Z AUTO 21006KT 10SM -RA SCT014 OVC026 06/06 A2987 RMK AO2 P0002=
202403291105 SPECI KPWT 291105Z AUTO 19003KT 10SM -RA OVC014 06/06 A2987 RMK AO2 P0001=
202403291056 METAR KPWT 291056Z AUTO 19004KT 10SM -RA FEW010 OVC017 06/06 A2987 RMK AO2 SLP119 P0001 T00610061=
202403291047 SPECI KPWT 291047Z AUTO 19005KT 10SM -RA FEW011 OVC017 06/06 A2987 RMK AO2 P0001=
202403290956 METAR KPWT 290956Z AUTO 19004KT 10SM -RA OVC013 06/06 A2986 RMK AO2 RAB0858 SLP117 P0000 T00610061=
202403290856 METAR KPWT 290856Z AUTO 19004KT 10SM OVC011 06/06 A2985 RMK AO2 SLP113 60001 T00610061 53017=
202403290812 SPECI KPWT 290812Z AUTO 20008KT 10SM OVC013 06/06 A2983 RMK AO2=
202403290756 METAR KPWT 290756Z AUTO 19006KT 10SM BKN015 OVC036 06/06 A2983 RMK AO2 RAE49 SLP106 P0000 T00610061 401000050=
202403290748 SPECI KPWT 290748Z AUTO 20005KT 10SM -RA BKN015 BKN036 06/06 A2983 RMK AO2 P0000=
202403290729 SPECI KPWT 290729Z AUTO 20006KT 10SM -RA SCT017 BKN038 06/06 A2982 RMK AO2 P0000=
202403290717 SPECI KPWT 290717Z AUTO 21009KT 10SM -RA BKN017 BKN038 06/06 A2982 RMK AO2 P0000=
202403290656 METAR KPWT 290656Z AUTO 20008KT 10SM -RA FEW015 SCT060 06/06 A2981 RMK AO2 SLP101 P0001 T00610061=
202403290556 METAR KPWT 290556Z AUTO 20010G18KT 10SM -RA FEW015 BKN042 BKN050 06/06 A2980 RMK AO2 RAE14B50 SLP095 P0000 60011 T00610061 10083 20061 51017=
202403290456 METAR KPWT 290456Z AUTO 18007KT 10SM -RA FEW040 BKN050 BKN060 06/06 A2978 RMK AO2 RAB06 SLP090 P0001 T00610061=
202403290356 METAR KPWT 290356Z AUTO 19008G15KT 10SM FEW018 BKN038 OVC048 07/07 A2976 RMK AO2 RAE46 SLP083 P0000 T00670067=
202403290256 METAR KPWT 290256Z AUTO 21006KT 10SM -RA FEW029 BKN035 OVC043 07/07 A2974 RMK AO2 SLP079 P0002 60010 T00670067 51014=
202403290156 METAR KPWT 290156Z AUTO 20008KT 10SM -RA FEW021 SCT033 BKN043 07/07 A2974 RMK AO2 SLP076 P0004 T00670067=
202403290056 METAR KPWT 290056Z AUTO 21009KT 10SM -RA OVC030 07/07 A2972 RMK AO2 SLP072 P0004 T00720072=
202403282356 METAR KPWT 282356Z AUTO 19006KT 10SM -RA BKN036 08/06 A2970 RMK AO2 RAB32 SLP063 P0000 60005 T00830056 10100 20067 55005=
202403282256 METAR KPWT 282256Z AUTO 17009G16KT 130V200 10SM BKN032 BKN043 09/05 A2970 RMK AO2 SLP062 T00940050=
202403282156 METAR KPWT 282156Z AUTO 20011KT 10SM SCT022 SCT027 BKN036 09/06 A2970 RMK AO2 SLP063 T00940061=
202403282115 SPECI KPWT 282115Z AUTO 19010KT 10SM SCT013 BKN020 OVC033 08/08 A2971 RMK AO2 LTG DSNT NE=
202403282056 METAR KPWT 282056Z AUTO 19008KT 10SM SCT020 SCT027 BKN035 08/08 A2972 RMK AO2 LTG DSNT NE RAE53 SLP068 P0003 60005 T00780078 53004=
202403281956 METAR KPWT 281956Z AUTO 20009KT 10SM -RA FEW028 OVC036 08/07 A2971 RMK AO2 RAE1859B18E31B53 SLP066 P0000 T00830067=
202403281856 METAR KPWT 281856Z AUTO 18007KT 10SM -RA OVC030 08/07 A2971 RMK AO2 RAB06 SLP064 P0002 T00780072=
202403281852 SPECI KPWT 281852Z AUTO 19005KT 10SM -RA BKN030 OVC036 08/07 A2971 RMK AO2 RAB06 P0002=
202403281756 METAR KPWT 281756Z AUTO 20006KT 10SM BKN026 OVC030 07/07 A2970 RMK AO2 RAE51 SLP062 P0001 60008 T00720072 10072 20050 55003=
202403281713 SPECI KPWT 281713Z AUTO 18004KT 10SM -RA OVC028 07/07 A2970 RMK AO2 P0000=
202403281656 METAR KPWT 281656Z AUTO 20003KT 10SM -RA BKN030 OVC037 07/07 A2970 RMK AO2 SLP062 P0002 T00670067=
202403281639 SPECI KPWT 281639Z AUTO 00000KT 10SM -RA BKN030 OVC037 06/06 A2970 RMK AO2 P0002=
202403281556 METAR KPWT 281556Z AUTO 21004KT 10SM -RA BKN029 BKN036 BKN047 06/06 A2970 RMK AO2 SLP062 P0003 T00610061=
202403281546 SPECI KPWT 281546Z AUTO 21003KT 10SM -RA BKN032 BKN041 06/06 A2970 RMK AO2 P0003=
202403281456 METAR KPWT 281456Z AUTO 00000KT 10SM -RA OVC028 05/05 A2971 RMK AO2 SLP065 P0001 60002 T00500050 58002=
202403281446 SPECI KPWT 281446Z AUTO 00000KT 10SM -RA BKN028 05/05 A2971 RMK AO2 P0001=
202403281356 METAR KPWT 281356Z AUTO 00000KT 10SM -RA FEW028 05/05 A2971 RMK AO2 RAB22 SLP066 P0001 T00500050=
202403281343 SPECI KPWT 281343Z AUTO 00000KT 10SM -RA SCT023 BKN032 05/05 A2971 RMK AO2 RAB22 P0001=
202403281332 SPECI KPWT 281332Z AUTO 00000KT 10SM -RA BKN023 BKN030 BKN041 05/05 A2972 RMK AO2 RAB22 P0000=
202403281256 METAR KPWT 281256Z AUTO 00000KT 10SM SCT041 BKN050 05/05 A2972 RMK AO2 SLP069 T00500050=
202403281210 SPECI KPWT 281210Z AUTO 19004KT 10SM FEW006 SCT013 05/05 A2971 RMK AO2=
202403281156 METAR KPWT 281156Z AUTO VRB03KT 10SM FEW004 SCT010 BKN015 05/05 A2971 RMK AO2 RAE21 SLP066 P0000 60029 70080 T00500050 10061 20050 56007=
202403281125 SPECI KPWT 281125Z AUTO 19003KT 10SM FEW008 SCT013 BKN019 05/05 A2972 RMK AO2 RAE21 P0000=
202403281114 SPECI KPWT 281114Z AUTO 18003KT 10SM -RA SCT008 BKN013 OVC019 05/05 A2972 RMK AO2 P0000=
202403281056 METAR KPWT 281056Z AUTO 18004KT 10SM -RA BKN020 BKN028 OVC039 05/05 A2972 RMK AO2 SLP068 P0002 T00500050=
202403280956 METAR KPWT 280956Z AUTO 19005KT 9SM -RA SCT015 BKN024 OVC029 05/05 A2973 RMK AO2 SLP072 P0007 T00500050=
202403280856 METAR KPWT 280856Z AUTO 20003KT 7SM RA OVC029 05/05 A2974 RMK AO2 SLP075 P0009 60020 T00500050 58001=
202403280853 SPECI KPWT 280853Z AUTO 19003KT 6SM -RA BR OVC029 05/05 A2974 RMK AO2 P0008=
202403280829 SPECI KPWT 280829Z AUTO 00000KT 10SM -RA FEW022 BKN033 05/05 A2973 RMK AO2 P0004=
202403280756 METAR KPWT 280756Z AUTO 26004KT 9SM -RA FEW010 BKN027 OVC032 05/05 A2974 RMK AO2 SLP076 P0006 T00500050 401280050=
202403280733 SPECI KPWT 280733Z AUTO 24007KT 10SM -RA BKN013 BKN019 OVC029 06/06 A2974 RMK AO2 P0004=
202403280716 SPECI KPWT 280716Z AUTO 19010KT 9SM -RA FEW011 BKN029 06/06 A2974 RMK AO2 P0003=
202403280656 METAR KPWT 280656Z AUTO 19004KT 10SM -RA FEW028 BKN034 BKN043 06/06 A2974 RMK AO2 SLP076 P0005 T00560056=
202403280631 SPECI KPWT 280631Z AUTO 20003KT 10SM FEW020 SCT027 OVC045 06/06 A2974 RMK AO2 RAE31 P0003=
202403280605 SPECI KPWT 280605Z AUTO 19012G17KT 9SM -RA FEW015 BKN028 OVC037 06/05 A2975 RMK AO2 P0001=
202403280556 METAR KPWT 280556Z AUTO 19006KT 10SM -RA FEW022 SCT028 OVC037 06/06 A2975 RMK AO2 RAB18 SLP080 P0003 60003 T00610061 10117 20061 51009=
202403280456 METAR KPWT 280456Z AUTO 18005KT 10SM BKN039 OVC050 07/05 A2974 RMK AO2 SLP077 T00670050=
202403280356 METAR KPWT 280356Z AUTO 19006KT 10SM SCT027 OVC035 08/05 A2974 RMK AO2 SLP076 T00780050=
202403280256 METAR KPWT 280256Z AUTO 21008G16KT 10SM BKN055 08/04 A2972 RMK AO2 SLP071 60000 T00780044 53013=
202403280156 METAR KPWT 280156Z AUTO 23011KT 10SM FEW055 09/06 A2971 RMK AO2 SLP065 T00940056=
202403280056 METAR KPWT 280056Z AUTO 23009KT 10SM FEW047 09/05 A2970 RMK AO2 RAB2358E11 SLP062 P0000 T00940050=
202403272356 METAR KPWT 272356Z AUTO 21011KT 10SM FEW030 SCT037 BKN060 12/08 A2969 RMK AO2 SLP057 60007 T01170078 10128 20072 58004=
202403272256 METAR KPWT 272256Z AUTO 23014KT 10SM FEW020 12/09 A2969 RMK AO2 RAE35 SLP060 P0000 T01220089=
202403272251 SPECI KPWT 272251Z AUTO 23010G15KT 10SM FEW016 SCT022 12/09 A2970 RMK AO2 RAE35 P0000=
202403272236 SPECI KPWT 272236Z AUTO 21008KT 10SM SCT008 BKN017 OVC027 11/09 A2970 RMK AO2 LTG DSNT E RAE35 P0000=
202403272215 SPECI KPWT 272215Z AUTO 22007KT 10SM -RA BKN008 BKN019 BKN028 10/10 A2970 RMK AO2 CIG 007V012 P0000=
202403272156 METAR KPWT 272156Z AUTO 21009KT 9SM -RA SCT021 BKN027 OVC048 09/09 A2970 RMK AO2 RAB48 SLP062 P0001 T00940094=
202403272151 SPECI KPWT 272151Z AUTO 22011KT 9SM -RA SCT027 BKN034 OVC060 10/09 A2970 RMK AO2 RAB48 P0001=
202403272139 SPECI KPWT 272139Z AUTO 22012G17KT 10SM FEW013 BKN027 OVC047 10/09 A2970 RMK AO2=
202403272131 SPECI KPWT 272131Z AUTO 22010KT 10SM SCT013 SCT026 BKN036 11/10 A2970 RMK AO2=
202403272120 SPECI KPWT 272120Z AUTO 22015G21KT 10SM FEW009 SCT013 BKN017 10/09 A2969 RMK AO2 LTG DSNT S=
202403272056 METAR KPWT 272056Z AUTO 21012KT 10SM BKN007 BKN012 OVC033 11/11 A2970 RMK AO2 RAB20E44 CIG 004V010 SLP060 P0000 60006 T01060106 53009=
202403272044 SPECI KPWT 272044Z AUTO 20010KT 10SM BKN007 OVC011 09/09 A2969 RMK AO2 RAB20E44 CIG 004V008 P0000=
202403271956 METAR KPWT 271956Z AUTO 21010KT 10SM OVC005 09/09 A2968 RMK AO2 RAE20 SLP056 P0000 T00940094=
202403271903 SPECI KPWT 271903Z AUTO 20007KT 3SM -RA BR OVC005 08/08 A2967 RMK AO2 P0000=
202403271856 METAR KPWT 271856Z AUTO 19005KT 1 3/4SM -RA BR OVC005 08/08 A2967 RMK AO2 CIG 004V009 SLP054 P0006 T00780078=
202403271848 SPECI KPWT 271848Z AUTO 23003KT 2 1/2SM -RA BR OVC005 08/08 A2968 RMK AO2 P0005=
202403271844 SPECI KPWT 271844Z AUTO 22004KT 5SM -RA BR OVC007 08/08 A2968 RMK AO2 P0004=
202403271837 SPECI KPWT 271837Z AUTO 00000KT 2 1/2SM -RA BR OVC007 08/08 A2967 RMK AO2 VIS 1 1/2V5 CIG 004V009 P0004=
202403271821 SPECI KPWT 271821Z AUTO 26003KT 5SM -RA BR BKN007 08/08 A2968 RMK AO2 P0001=
202403271756 METAR KPWT 271756Z AUTO 00000KT 9SM -RA SCT003 SCT009 07/07 A2967 RMK AO2 SLP052 P0004 60041 T00720072 10072 20056 55001=
202403271743 SPECI KPWT 271743Z AUTO 00000KT 2 1/2SM -RA BR BKN003 OVC008 07/07 A2966 RMK AO2 CIG 002V006 P0003=
202403271733 SPECI KPWT 271733Z AUTO 00000KT 2SM -RA BR BKN006 OVC015 07/07 A2966 RMK AO2 CIG 003V009 P0002=
202403271719 SPECI KPWT 271719Z AUTO 00000KT 2 1/2SM -RA BR FEW006 OVC017 07/07 A2966 RMK AO2 P0001=
202403271656 METAR KPWT 271656Z AUTO 08003KT 3SM -RA BR BKN017 07/07 A2965 RMK AO2 SLP047 P0005 T00670067=
202403271556 METAR KPWT 271556Z AUTO 00000KT 8SM -RA CLR 06/06 A2966 RMK AO2 SLP050 P0005 T00610061=
202403271456 METAR KPWT 271456Z AUTO 00000KT 5SM -RA BR CLR 06/06 A2967 RMK AO2 SLP053 P0008 60027 T00610061 58017=
202403271356 METAR KPWT 271356Z AUTO 01003KT 9SM -RA FEW027 06/06 A2970 RMK AO2 SLP060 P0009 T00610061=
202403271256 METAR KPWT 271256Z AUTO 05003KT 10SM -RA SCT027 06/06 A2972 RMK AO2 SLP069 P0010 T00610061=
202403271156 METAR KPWT 271156Z AUTO 00000KT 7SM -RA SCT011 OVC025 06/06 A2976 RMK AO2 SLP081 P0008 60016 70016 T00610061 10067 20056 56034=
202403271133 SPECI KPWT 271133Z AUTO 00000KT 6SM -RA BR FEW010 SCT022 BKN028 06/06 A2977 RMK AO2 P0004=
202403271109 SPECI KPWT 271109Z AUTO 00000KT 10SM -RA FEW028 06/06 A2978 RMK AO2 P0002=
202403271056 METAR KPWT 271056Z AUTO 00000KT 9SM -RA BKN028 06/06 A2978 RMK AO2 SLP091 P0006 T00610061=
202403271035 SPECI KPWT 271035Z AUTO 00000KT 8SM -RA BKN028 06/06 A2980 RMK AO2 P0003=
202403270956 METAR KPWT 270956Z AUTO 00000KT 10SM -RA CLR 06/06 A2982 RMK AO2 SLP103 P0002 T00610061=
202403270856 METAR KPWT 270856Z AUTO 00000KT 10SM -RA BKN036 06/06 A2986 RMK AO2 RAB16 SLP115 P0000 60000 T00610061 58024=
202403270756 METAR KPWT 270756Z AUTO 00000KT 10SM FEW043 BKN049 07/05 A2989 RMK AO2 SLP126 T00670050 401330050=
202403270656 METAR KPWT 270656Z AUTO 18003KT 10SM OVC043 07/05 A2991 RMK AO2 SLP134 T00670050=
202403270556 METAR KPWT 270556Z AUTO 00000KT 10SM SCT055 07/04 A2993 RMK AO2 SLP140 T00670044 10122 20056 58011=
202403270456 METAR KPWT 270456Z AUTO 19005KT 10SM CLR 07/04 A2995 RMK AO2 SLP148 T00720039=
202403270356 METAR KPWT 270356Z AUTO 20005KT 10SM CLR 07/03 A2996 RMK AO2 SLP153 T00670033=
202403270256 METAR KPWT 270256Z AUTO 21006KT 10SM CLR 07/02 A2996 RMK AO2 SLP152 T00720022 56008=
202403270156 METAR KPWT 270156Z AUTO 23008KT 10SM CLR 11/02 A2996 RMK AO2 SLP153 T01060017=
202403270056 METAR KPWT 270056Z AUTO 23011KT 10SM CLR 12/02 A2997 RMK AO2 SLP155 T01170022=
202403262356 METAR KPWT 262356Z AUTO 24016G19KT 10SM CLR 12/03 A2999 RMK AO2 SLP159 T01220028 10133 20100 55008=
202403262256 METAR KPWT 262256Z AUTO 23009G14KT 10SM SCT045 BKN060 13/03 A2998 RMK AO2 SLP159 T01330033=
202403262156 METAR KPWT 262156Z AUTO 23010G20KT 10SM FEW040 13/04 A3000 RMK AO2 SLP164 T01330044=
202403262056 METAR KPWT 262056Z AUTO 20014G21KT 10SM FEW041 12/03 A3001 RMK AO2 SLP168 T01220033 58001=
202403261956 METAR KPWT 261956Z AUTO 23012KT 10SM FEW041 11/03 A3001 RMK AO2 SLP168 T01060033=
202403261856 METAR KPWT 261856Z AUTO 21008KT 10SM SCT028 BKN042 12/05 A3001 RMK AO2 SLP168 T01170050=
202403261839 SPECI KPWT 261839Z AUTO 19008KT 10SM BKN028 OVC036 11/05 A3001 RMK AO2=
202403261815 SPECI KPWT 261815Z AUTO 22010KT 10SM SCT022 OVC032 10/05 A3001 RMK AO2=
202403261756 METAR KPWT 261756Z AUTO VRB06KT 10SM SCT022 BKN028 10/06 A3001 RMK AO2 SLP168 T01000061 10100 20050 51013=
202403261729 SPECI KPWT 261729Z AUTO 23006KT 10SM SCT014 08/06 A3001 RMK AO2=
202403261656 METAR KPWT 261656Z AUTO 20006KT 10SM OVC012 08/06 A3001 RMK AO2 SLP167 T00780061=
202403261635 SPECI KPWT 261635Z AUTO 20004KT 10SM SCT007 BKN012 07/06 A3000 RMK AO2=
202403261556 METAR KPWT 261556Z AUTO 23007KT 10SM OVC007 06/06 A2999 RMK AO2 SLP160 T00610061=
202403261540 SPECI KPWT 261540Z AUTO 22005KT 10SM OVC007 06/06 A2998 RMK AO2=
202403261518 SPECI KPWT 261518Z AUTO 19005KT 10SM OVC005 06/06 A2998 RMK AO2=
202403261456 METAR KPWT 261456Z AUTO 19003KT 10SM OVC003 06/06 A2998 RMK AO2 SLP156 T00560056 53010=
202403261410 SPECI KPWT 261410Z AUTO 22004KT 10SM OVC003 05/05 A2997 RMK AO2=
202403261403 SPECI KPWT 261403Z AUTO 23006KT 2SM BR OVC003 05/05 A2997 RMK AO2=
202403261356 METAR KPWT 261356Z AUTO 20005KT 1SM BR OVC003 05/05 A2997 RMK AO2 SLP153 T00500050=
202403261349 SPECI KPWT 261349Z AUTO 20005KT 3/4SM BR OVC003 05/05 A2997 RMK AO2=
202403261335 SPECI KPWT 261335Z AUTO 20005KT 1SM BR OVC003 05/05 A2996 RMK AO2 VIS 1/2V3=
202403261256 METAR KPWT 261256Z AUTO 00000KT 3/4SM BR OVC003 05/05 A2995 RMK AO2 SLP148 T00500050=
202403261238 SPECI KPWT 261238Z AUTO 00000KT 1/2SM FG OVC003 05/05 A2995 RMK AO2=
202403261220 SPECI KPWT 261220Z AUTO 23004KT 3/4SM BR OVC003 05/05 A2995 RMK AO2=
202403261212 SPECI KPWT 261212Z AUTO 22004KT 1 1/4SM BR OVC003 06/06 A2995 RMK AO2=
202403261156 METAR KPWT 261156Z AUTO 21004KT 3/4SM BR OVC003 05/05 A2994 RMK AO2 SLP146 T00500050 10072 20050 53006=
202403261148 SPECI KPWT 261148Z AUTO 21006KT 1SM BR OVC003 06/06 A2994 RMK AO2=
202403261136 SPECI KPWT 261136Z AUTO 22005KT 1 3/4SM BR OVC003 06/06 A2994 RMK AO2 VIS 1V5=
202403261056 METAR KPWT 261056Z AUTO 22005KT 10SM OVC003 06/06 A2993 RMK AO2 SLP141 T00610061=
202403261013 SPECI KPWT 261013Z AUTO 00000KT 10SM BKN003 BKN019 07/07 A2993 RMK AO2=
202403260956 METAR KPWT 260956Z AUTO 20004KT 10SM SCT003 BKN019 OVC025 07/07 A2993 RMK AO2 SLP140 T00670067=
202403260856 METAR KPWT 260856Z AUTO 20003KT 10SM OVC015 07/07 A2993 RMK AO2 SLP138 T00670067 53009=
202403260847 SPECI KPWT 260847Z AUTO 00000KT 10SM OVC015 07/07 A2992 RMK AO2=
202403260756 METAR KPWT 260756Z AUTO 23003KT 10SM OVC013 07/07 A2991 RMK AO2 SLP134 T00670067 401110061=
202403260720 SPECI KPWT 260720Z AUTO 00000KT 10SM BKN013 OVC020 06/06 A2990 RMK AO2=
202403260656 METAR KPWT 260656Z AUTO 00000KT 10SM FEW013 BKN020 06/06 A2990 RMK AO2 SLP129 T00610061=
202403260651 SPECI KPWT 260651Z AUTO 00000KT 10SM SCT013 BKN020 06/06 A2990 RMK AO2=
202403260556 METAR KPWT 260556Z AUTO 20003KT 10SM FEW018 BKN040 07/07 A2989 RMK AO2 SLP126 T00720072 10106 20072 53013=
202403260544 SPECI KPWT 260544Z AUTO 19005KT 10SM SCT016 OVC040 07/07 A2988 RMK AO2=
202403260456 METAR KPWT 260456Z AUTO 22004KT 10SM OVC010 08/07 A2987 RMK AO2 SLP121 T00780072=
202403260427 SPECI KPWT 260427Z AUTO 20003KT 10SM OVC010 08/08 A2987 RMK AO2=
202403260417 SPECI KPWT 260417Z AUTO 20004KT 10SM BKN009 OVC014 08/08 A2987 RMK AO2=
202403260356 METAR KPWT 260356Z AUTO 20004KT 10SM OVC014 08/08 A2986 RMK AO2 SLP118 T00780078=
202403260337 SPECI KPWT 260337Z AUTO 19005KT 10SM FEW010 BKN014 OVC030 08/08 A2986 RMK AO2=
202403260256 METAR KPWT 260256Z AUTO 18006KT 10SM FEW010 OVC025 08/08 A2985 RMK AO2 SLP114 T00830078 55001=
202403260156 METAR KPWT 260156Z AUTO 19007KT 10SM BKN017 BKN110 09/07 A2985 RMK AO2 SLP113 T00940072=
202403260135 SPECI KPWT 260135Z AUTO 20008KT 10SM FEW019 SCT024 BKN110 09/07 A2985 RMK AO2=
202403260103 SPECI KPWT 260103Z AUTO 20007KT 10SM BKN018 BKN027 11/07 A2985 RMK AO2=
202403260056 METAR KPWT 260056Z AUTO 17005KT 10SM SCT018 SCT027 11/07 A2985 RMK AO2 SLP113 T01060072=
202403260037 SPECI KPWT 260037Z AUTO 17009KT 10SM FEW018 SCT024 10/07 A2985 RMK AO2=
202403252356 METAR KPWT 252356Z AUTO 20007G17KT 10SM SCT020 BKN028 11/07 A2985 RMK AO2 SLP114 60000 T01060067 10111 20083 58008=
202403252256 METAR KPWT 252256Z AUTO 17007KT 10SM OVC018 10/07 A2986 RMK AO2 SLP117 T01000067=
202403252226 SPECI KPWT 252226Z AUTO 19009KT 10SM BKN018 OVC027 09/06 A2987 RMK AO2=
202403252156 METAR KPWT 252156Z AUTO 19009KT 10SM BKN010 OVC028 09/08 A2987 RMK AO2 RAB02E37 CIG 008V014 SLP121 P0000 T00940078=
202403252136 SPECI KPWT 252136Z AUTO 18010KT 10SM -RA BKN012 BKN022 BKN033 09/08 A2987 RMK AO2 RAB02 P0000=
202403252126 SPECI KPWT 252126Z AUTO 19010KT 10SM -RA SCT012 BKN018 BKN023 08/07 A2988 RMK AO2 RAB02 P0000=
202403252117 SPECI KPWT 252117Z AUTO 21012G16KT 10SM -RA BKN012 BKN018 BKN037 09/07 A2988 RMK AO2 RAB02 P0000=
202403252056 METAR KPWT 252056Z AUTO 20011KT 10SM BKN016 BKN038 BKN055 09/07 A2988 RMK AO2 RAB04E34 SLP122 P0000 60000 T00940067 50000=
202403252054 SPECI KPWT 252054Z AUTO 19009KT 10SM BKN016 BKN055 09/07 A2988 RMK AO2 RAB04E34 P0000=
202403252035 SPECI KPWT 252035Z AUTO 20010KT 10SM FEW016 SCT022 BKN055 09/07 A2988 RMK AO2 RAB04E34 P0000=
202403251956 METAR KPWT 251956Z AUTO 18010KT 10SM BKN022 09/06 A2988 RMK AO2 SLP123 T00940061=
202403251927 SPECI KPWT 251927Z AUTO 21011KT 10SM SCT022 SCT040 09/06 A2988 RMK AO2=
202403251856 METAR KPWT 251856Z AUTO 21013KT 10SM BKN024 BKN029 10/05 A2988 RMK AO2 SLP122 T01000050=
202403251812 SPECI KPWT 251812Z AUTO 23012KT 10SM BKN024 09/05 A2988 RMK AO2=
202403251756 METAR KPWT 251756Z AUTO 22013KT 10SM FEW017 SCT022 BKN050 09/06 A2987 RMK AO2 SLP121 T00940056 10094 20061 52003=
202403251749 SPECI KPWT 251749Z AUTO 20013G17KT 10SM FEW017 SCT022 BKN050 09/05 A2987 RMK AO2=
202403251714 SPECI KPWT 251714Z AUTO 20010G17KT 10SM BKN017 BKN049 09/06 A2987 RMK AO2=
202403251656 METAR KPWT 251656Z AUTO 21012KT 10SM SCT015 BKN049 09/06 A2987 RMK AO2 SLP120 T00890061=
202403251556 METAR KPWT 251556Z AUTO 20011KT 10SM FEW011 07/06 A2987 RMK AO2 SLP118 T00720061=
202403251456 METAR KPWT 251456Z AUTO 19010KT 10SM CLR 07/06 A2986 RMK AO2 SLP118 T00670056 53005=
202403251356 METAR KPWT 251356Z AUTO 19009KT 10SM CLR 06/05 A2985 RMK AO2 SLP114 T00610050=
202403251256 METAR KPWT 251256Z AUTO 20012KT 10SM BKN045 07/06 A2985 RMK AO2 SLP112 T00670056=
202403251156 METAR KPWT 251156Z AUTO 21008KT 10SM OVC037 07/06 A2985 RMK AO2 SLP113 7//// T00670061 10072 20061 58007=
202403251056 METAR KPWT 251056Z AUTO 21010KT 10SM FEW037 BKN080 07/06 A2986 RMK AO2 SLP116 T00670056=
202403250956 METAR KPWT 250956Z AUTO 20008KT 10SM CLR 06/06 A2987 RMK AO2 SLP120 T00610056=
202403250939 SPECI KPWT 250939Z AUTO 21009KT 10SM FEW012 07/06 A2987 RMK AO2=
202403250856 METAR KPWT 250856Z AUTO 21010KT 10SM BKN012 07/07 A2987 RMK AO2 SLP121 T00720067 50007=
202403250851 SPECI KPWT 250851Z AUTO 21010KT 10SM BKN012 07/07 A2987 RMK AO2=
202403250809 SPECI KPWT 250809Z AUTO 21008KT 10SM SCT012 07/06 A2986 RMK AO2=
202403250756 METAR KPWT 250756Z AUTO 22008KT 10SM BKN012 07/07 A2986 RMK AO2 SLP118 T00670067 401500050=
202403250740 SPECI KPWT 250740Z AUTO 20009KT 10SM BKN012 07/07 A2986 RMK AO2=
202403250656 METAR KPWT 250656Z AUTO 20005KT 10SM FEW070 07/06 A2985 RMK AO2 SLP114 T00670056=
202403250556 METAR KPWT 250556Z AUTO 21010KT 10SM CLR 07/06 A2985 RMK AO2 SLP112 T00720056 10144 20072 53008=
202403250456 METAR KPWT 250456Z AUTO 21009KT 10SM CLR 08/06 A2984 RMK AO2 SLP109 T00780061=
202403250356 METAR KPWT 250356Z AUTO 21011KT 10SM CLR 09/07 A2983 RMK AO2 SLP105 T00890067=
202403250256 METAR KPWT 250256Z AUTO 19007KT 10SM CLR 10/07 A2982 RMK AO2 SLP104 T01000067 53003=
202403250156 METAR KPWT 250156Z AUTO 21005KT 10SM FEW037 SCT047 12/05 A2982 RMK AO2 SLP101 T01220050=
202403250056 METAR KPWT 250056Z AUTO 16005KT 10SM CLR 14/04 A2981 RMK AO2 SLP099 T01390044=
202403242356 METAR KPWT 242356Z AUTO 20008KT 10SM CLR 14/06 A2981 RMK AO2 SLP100 6//// T01440056 10150 20094 58004=
202403242256 METAR KPWT 242256Z AUTO 22009KT 10SM CLR 14/06 A2982 RMK AO2 SLP102 T01390056=
202403242156 METAR KPWT 242156Z AUTO VRB04KT 10SM SCT039 14/06 A2982 RMK AO2 SLP103 T01440056=
202403242056 METAR KPWT 242056Z AUTO VRB05KT 10SM FEW040 14/05 A2983 RMK AO2 SLP104 T01390050 50004=
202403241956 METAR KPWT 241956Z AUTO 25005KT 10SM OVC035 13/06 A2983 RMK AO2 SLP105 T01330061=
202403241916 SPECI KPWT 241916Z AUTO 19004KT 10SM SCT023 SCT030 BKN037 11/05 A2982 RMK AO2=
202403241856 METAR KPWT 241856Z AUTO 24006KT 10SM BKN023 OVC029 11/07 A2982 RMK AO2 SLP104 T01060067=
202403241840 SPECI KPWT 241840Z AUTO 23005KT 10SM SCT021 BKN029 12/07 A2982 RMK AO2=
202403241756 METAR KPWT 241756Z AUTO 19004KT 10SM FEW013 BKN031 09/07 A2982 RMK AO2 SLP101 T00940072 10094 20050 51014=
202403241753 SPECI KPWT 241753Z AUTO 23004KT 10SM FEW013 BKN031 09/07 A2981 RMK AO2=
202403241656 METAR KPWT 241656Z AUTO 19003KT 10SM OVC025 09/07 A2980 RMK AO2 SLP095 T00890072=
202403241621 SPECI KPWT 241621Z AUTO 00000KT 10SM FEW005 OVC023 08/08 A2978 RMK AO2=
202403241556 METAR KPWT 241556Z AUTO 00000KT 10SM OVC025 07/07 A2977 RMK AO2 SLP088 T00720072=
202403241530 SPECI KPWT 241530Z AUTO 00000KT 10SM BKN025 06/06 A2977 RMK AO2=
202403241456 METAR KPWT 241456Z AUTO 00000KT 10SM SCT037 06/06 A2976 RMK AO2 SLP082 T00560056 53021=
202403241356 METAR KPWT 241356Z AUTO 00000KT 10SM OVC045 07/07 A2973 RMK AO2 SLP073 T00670067=
202403241256 METAR KPWT 241256Z AUTO 23003KT 10SM BKN035 OVC042 07/07 A2971 RMK AO2 SLP066 T00670067=
202403241156 METAR KPWT 241156Z AUTO 00000KT 10SM OVC055 07/07 A2969 RMK AO2 SLP059 70003 T00670067 10078 20067 51013=
202403241134 SPECI KPWT 241134Z AUTO 00000KT 10SM SCT025 SCT037 OVC049 07/07 A2969 RMK AO2=
202403241124 SPECI KPWT 241124Z AUTO 00000KT 10SM BKN025 BKN035 OVC049 07/07 A2969 RMK AO2=
202403241056 METAR KPWT 241056Z AUTO 00000KT 10SM OVC031 07/07 A2968 RMK AO2 SLP055 T00670067=
202403241042 SPECI KPWT 241042Z AUTO 00000KT 10SM SCT024 OVC031 07/07 A2968 RMK AO2=
202403240956 METAR KPWT 240956Z AUTO 00000KT 10SM OVC027 07/07 A2967 RMK AO2 SLP052 T00720067=
202403240915 SPECI KPWT 240915Z AUTO 03004KT 10SM BKN025 OVC034 07/07 A2966 RMK AO2=
202403240856 METAR KPWT 240856Z AUTO 03004KT 10SM SCT021 OVC034 07/07 A2966 RMK AO2 SLP047 T00720067 52012=
202403240841 SPECI KPWT 240841Z AUTO 03004KT 10SM BKN021 OVC034 07/07 A2965 RMK AO2=
202403240756 METAR KPWT 240756Z AUTO 03003KT 10SM OVC036 07/07 A2964 RMK AO2 SLP042 T00720067 401110072=
202403240656 METAR KPWT 240656Z AUTO 00000KT 10SM OVC034 07/07 A2963 RMK AO2 SLP039 T00720067=
202403240556 METAR KPWT 240556Z AUTO 06003KT 10SM OVC036 08/06 A2962 RMK AO2 SLP035 60000 T00780061 10100 20078 53013=
202403240456 METAR KPWT 240456Z AUTO 06003KT 10SM FEW034 OVC048 08/07 A2961 RMK AO2 SLP030 T00780067=
202403240356 METAR KPWT 240356Z AUTO 04010KT 10SM OVC046 08/07 A2960 RMK AO2 SLP026 T00780067=
202403240256 METAR KPWT 240256Z AUTO 04011KT 10SM OVC040 08/07 A2958 RMK AO2 SLP023 60000 T00780067 53006=
202403240156 METAR KPWT 240156Z AUTO 04009KT 10SM BKN031 08/08 A2958 RMK AO2 RAE12 SLP020 P0000 T00830078=
202403240056 METAR KPWT 240056Z AUTO 04008KT 10SM -RA FEW023 SCT034 OVC050 09/08 A2957 RMK AO2 RAB47 SLP016 P0000 T00890083=
202403240035 SPECI KPWT 240035Z AUTO 03010KT 10SM FEW011 SCT019 OVC036 09/08 A2957 RMK AO2=
202403240023 SPECI KPWT 240023Z AUTO 04010KT 10SM FEW011 BKN019 BKN034 09/08 A2957 RMK AO2=
202403232356 METAR KPWT 232356Z AUTO 03009KT 10SM FEW011 SCT055 10/08 A2957 RMK AO2 SLP016 T01000083 10111 20094 55002=
202403232335 SPECI KPWT 232335Z AUTO 04010KT 10SM FEW015 SCT030 OVC055 10/08 A2956 RMK AO2=
202403232304 SPECI KPWT 232304Z AUTO 03008KT 10SM BKN011 10/08 A2956 RMK AO2=
202403232256 METAR KPWT 232256Z AUTO 02009KT 10SM SCT011 11/09 A2956 RMK AO2 SLP015 T01060094=
202403232156 METAR KPWT 232156Z AUTO 04007KT 10SM FEW013 SCT060 11/09 A2956 RMK AO2 SLP014 T01060089=
202403232122 SPECI KPWT 232122Z AUTO 04006KT 10SM SCT013 SCT028 11/08 A2957 RMK AO2=
202403232115 SPECI KPWT 232115Z AUTO 05005KT 10SM FEW013 BKN028 11/08 A2957 RMK AO2=
202403232056 METAR KPWT 232056Z AUTO 10004KT 10SM FEW013 11/09 A2957 RMK AO2 SLP018 T01110089 58000=
202403232000 SPECI KPWT 232000Z AUTO 05006KT 10SM SCT009 SCT016 10/09 A2958 RMK AO2=
202403231956 METAR KPWT 231956Z AUTO 05005KT 10SM SCT009 BKN014 BKN019 10/09 A2958 RMK AO2 SLP022 T01000089=
202403231924 SPECI KPWT 231924Z AUTO 06006KT 10SM SCT007 BKN014 10/09 A2958 RMK AO2=
202403231856 METAR KPWT 231856Z AUTO 07006KT 10SM BKN007 BKN012 BKN060 09/09 A2957 RMK AO2 CIG 005V011 SLP019 T00940094=
202403231807 SPECI KPWT 231807Z AUTO 02004KT 10SM BKN007 OVC055 09/09 A2957 RMK AO2 CIG 005V010=
202403231756 METAR KPWT 231756Z AUTO 03007KT 10SM OVC005 09/09 A2957 RMK AO2 RAB15E55 CIG 005V009 SLP018 P0000 60003 T00940094 10094 20078 58001=
202403231728 SPECI KPWT 231728Z AUTO 02003KT 10SM -RA BKN005 09/09 A2958 RMK AO2 RAB15 P0000=
202403231715 SPECI KPWT 231715Z AUTO 06004KT 10SM -RA SCT007 SCT046 09/09 A2958 RMK AO2 RAB15 P0000=
202403231656 METAR KPWT 231656Z AUTO 00000KT 10SM BKN007 BKN013 OVC046 09/09 A2958 RMK AO2 CIG 004V009 SLP022 T00890089=
202403231645 SPECI KPWT 231645Z AUTO 13003KT 10SM BKN007 OVC011 09/09 A2958 RMK AO2 CIG 004V009=
202403231627 SPECI KPWT 231627Z AUTO 03003KT 10SM BKN005 BKN048 08/08 A2959 RMK AO2=
202403231618 SPECI KPWT 231618Z AUTO 08003KT 10SM SCT005 BKN048 08/08 A2959 RMK AO2=
202403231556 METAR KPWT 231556Z AUTO 00000KT 10SM SCT050 08/08 A2958 RMK AO2 RAE25 SLP021 P0000 T00830083=
202403231456 METAR KPWT 231456Z AUTO 03003KT 10SM -RA FEW038 08/08 A2958 RMK AO2 SLP019 P0003 60003 T00780078 57003=
202403231433 SPECI KPWT 231433Z AUTO 33003KT 10SM -RA SCT029 BKN036 08/08 A2958 RMK AO2 P0003=
202403231353 METAR KPWT 231353Z AUTO 23007KT 10SM -RA SCT003 BKN028 OVC039 08/08 A2959 RMK AO2 RAB05E28B47 SLP023 P0000 T00830083=
202403231352 SPECI KPWT 231352Z AUTO 23007KT 10SM -RA SCT003 BKN028 OVC039 08/08 A2959 RMK AO2 RAB05E28B47 P0000=
202403231256 METAR KPWT 231256Z AUTO 06003KT 10SM BKN050 BKN060 08/08 A2957 RMK AO2 SLP019 T00780078=
202403231156 METAR KPWT 231156Z AUTO 30003KT 10SM FEW009 BKN038 08/08 A2959 RMK AO2 SLP024 60001 70016 T00830083 10094 20083 56012=
202403231151 SPECI KPWT 231151Z AUTO 33004KT 10SM SCT009 BKN038 08/08 A2959 RMK AO2=
202403231141 SPECI KPWT 231141Z AUTO VRB03KT 10SM FEW007 BKN011 BKN014 08/08 A2960 RMK AO2=
202403231130 SPECI KPWT 231130Z AUTO 26005KT 10SM BKN007 OVC032 08/08 A2960 RMK AO2 CIG 005V011=
202403231119 SPECI KPWT 231119Z AUTO 25005KT 6SM BR FEW005 BKN017 OVC032 08/08 A2960 RMK AO2=
202403231056 METAR KPWT 231056Z AUTO 00000KT 6SM BR FEW011 BKN016 BKN023 09/09 A2961 RMK AO2 RAB10E52 SLP031 P0000 T00890089=
202403231049 SPECI KPWT 231049Z AUTO 00000KT 6SM -RA BR FEW007 SCT010 BKN016 09/09 A2961 RMK AO2 RAB10 P0000=
202403231025 SPECI KPWT 231025Z AUTO 00000KT 8SM -RA SCT010 BKN031 09/09 A2961 RMK AO2 RAB10 P0000=
202403231015 SPECI KPWT 231015Z AUTO 20004KT 8SM -RA SCT008 BKN029 09/09 A2962 RMK AO2 RAB10 P0000=
202403230956 METAR KPWT 230956Z AUTO 00000KT 10SM BKN006 09/09 A2962 RMK AO2 CIG 005V011 SLP036 T00940094=
202403230925 SPECI KPWT 230925Z AUTO 02006KT 7SM OVC006 09/09 A2962 RMK AO2 CIG 003V009=
202403230856 METAR KPWT 230856Z AUTO 02004KT 7SM OVC004 09/09 A2963 RMK AO2 SLP039 60001 T00940094 58021=
202403230813 SPECI KPWT 230813Z AUTO 04003KT 6SM BR BKN004 09/09 A2965 RMK AO2 CIG 003V008=
202403230756 METAR KPWT 230756Z AUTO 05004KT 6SM BR OVC002 09/09 A2966 RMK AO2 RAE18 SLP046 P0000 T00940094 401170061=
202403230656 METAR KPWT 230656Z AUTO 00000KT 7SM -RA BKN002 09/09 A2967 RMK AO2 RAB18 SLP052 P0001 T00940094=
202403230556 METAR KPWT 230556Z AUTO 00000KT 9SM FEW003 BKN046 BKN055 09/09 A2969 RMK AO2 SLP060 60001 T00940094 10117 20083 56007=
202403230515 SPECI KPWT 230515Z AUTO 00000KT 8SM SCT037 BKN045 BKN055 09/09 A2970 RMK AO2=
202403230456 METAR KPWT 230456Z AUTO 00000KT 2 1/2SM BR BKN047 09/09 A2970 RMK AO2 VIS 1 1/2V4 SLP060 T00890089=
202403230452 SPECI KPWT 230452Z AUTO 00000KT 2SM BR BKN047 09/09 A2970 RMK AO2 VIS 1V4=
202403230435 SPECI KPWT 230435Z AUTO 00000KT 1SM BR BKN047 09/09 A2971 RMK AO2=
202403230428 SPECI KPWT 230428Z AUTO 00000KT 1/2SM FG FEW036 BKN047 08/08 A2971 RMK AO2=
202403230420 SPECI KPWT 230420Z AUTO 00000KT 3/4SM BR SCT036 BKN049 08/08 A2971 RMK AO2 VIS 1/2V5=
202403230416 SPECI KPWT 230416Z AUTO 00000KT 1 3/4SM BR SCT036 BKN049 09/09 A2971 RMK AO2 VIS 1/2V5=
202403230356 METAR KPWT 230356Z AUTO 00000KT 10SM FEW036 SCT055 SCT070 09/09 A2971 RMK AO2 SLP066 T00940094=
202403230256 METAR KPWT 230256Z AUTO 00000KT 10SM FEW060 09/09 A2972 RMK AO2 RAE07 SLP067 P0000 60001 T00940094 58013=
202403230156 METAR KPWT 230156Z AUTO 00000KT 10SM -RA FEW036 BKN047 10/10 A2973 RMK AO2 RAB01 SLP073 P0001 T01000100=
202403230056 METAR KPWT 230056Z AUTO 24004KT 10SM SCT048 BKN060 11/11 A2975 RMK AO2 RAB16E43 SLP077 P0000 T01110111=
202403222356 METAR KPWT 222356Z AUTO 00000KT 10SM SCT046 BKN055 12/11 A2976 RMK AO2 SLP081 60013 T01170111 10117 20094 56029=
202403222312 SPECI KPWT 222312Z AUTO 01003KT 10SM FEW004 11/11 A2976 RMK AO2=
202403222256 METAR KPWT 222256Z AUTO 03003KT 10SM FEW075 11/11 A2978 RMK AO2 RAE2159B15E48 SLP088 P0000 T01060106=
202403222156 METAR KPWT 222156Z AUTO 05004KT 10SM -RA CLR 10/10 A2980 RMK AO2 SLP096 P0002 T01000100=
202403222056 METAR KPWT 222056Z AUTO 04004KT 10SM -RA CLR 10/10 A2984 RMK AO2 SLP111 P0005 60011 T01000100 58015=
202403221956 METAR KPWT 221956Z AUTO 07004KT 9SM -RA CLR 09/09 A2987 RMK AO2 SLP120 P0005 T00940094=
202403221856 METAR KPWT 221856Z AUTO 05006KT 10SM -RA CLR 09/09 A2988 RMK AO2 SLP122 P0001 T00940094=
202403221756 METAR KPWT 221756Z AUTO 00000KT 10SM -RA CLR 09/09 A2989 RMK AO2 SLP126 P0001 60001 T00940094 10094 20061 56000=
202403221656 METAR KPWT 221656Z AUTO VRB03KT 10SM -RA FEW005 09/09 A2991 RMK AO2 RAB43 SLP134 P0000 T00890089=
202403221556 METAR KPWT 221556Z AUTO 03005KT 10SM CLR 09/09 A2986 RMK AO2 SLP117 T00890089=
202403221456 METAR KPWT 221456Z AUTO 03003KT 10SM CLR 08/08 A2989 RMK AO2 SLP126 T00830083 56022=
202403221356 METAR KPWT 221356Z AUTO 02004KT 10SM CLR 08/08 A2991 RMK AO2 SLP132 T00780078=
202403221318 SPECI KPWT 221318Z AUTO 00000KT 6SM BR CLR 07/07 A2993 RMK AO2=
202403221309 SPECI KPWT 221309Z AUTO 00000KT 2SM BR CLR 07/07 A2993 RMK AO2 VIS 1V5=
202403221256 METAR KPWT 221256Z AUTO 00000KT 9SM CLR 07/07 A2993 RMK AO2 SLP140 T00670067=
202403221218 SPECI KPWT 221218Z AUTO 04003KT 5SM BR CLR 07/07 A2995 RMK AO2=
202403221209 SPECI KPWT 221209Z AUTO 00000KT 2 1/2SM BR FEW110 07/07 A2995 RMK AO2 VIS 1V5=
202403221203 SPECI KPWT 221203Z AUTO 00000KT 1SM BR FEW110 07/07 A2996 RMK AO2 VIS 1/2V3=
202403221156 METAR KPWT 221156Z AUTO 00000KT 1/2SM FG FEW110 07/07 A2996 RMK AO2 RAB36E48 SLP149 P0000 60000 7//// T00670067 10089 20067 58025=
202403221150 SPECI KPWT 221150Z AUTO 00000KT 3/4SM BR FEW110 07/07 A2996 RMK AO2 RAB36E48 P0000=
202403221147 SPECI KPWT 221147Z AUTO 03003KT 1 3/4SM -RA BR SCT110 07/07 A2996 RMK AO2 VIS 1/2V5 RAB36 P0000=
202403221121 SPECI KPWT 221121Z AUTO 00000KT 6SM BR CLR 07/07 A2998 RMK AO2=
202403221108 SPECI KPWT 221108Z AUTO 00000KT 2SM BR CLR 07/07 A2998 RMK AO2 VIS 3/4V5=
202403221056 METAR KPWT 221056Z AUTO 00000KT 1SM BR CLR 07/07 A2999 RMK AO2 SLP159 T00670067=
202403221051 SPECI KPWT 221051Z AUTO 00000KT 1 3/4SM BR CLR 07/07 A2999 RMK AO2=
202403221036 SPECI KPWT 221036Z AUTO 00000KT 3SM BR CLR 07/07 A2999 RMK AO2=
202403221032 SPECI KPWT 221032Z AUTO 00000KT 1 1/4SM BR CLR 07/07 A3000 RMK AO2=
202403221010 SPECI KPWT 221010Z AUTO 00000KT 3/4SM BR CLR 07/07 A3000 RMK AO2=
202403221004 SPECI KPWT 221004Z AUTO 00000KT 1 3/4SM BR CLR 07/07 A3000 RMK AO2=
202403220956 METAR KPWT 220956Z AUTO 00000KT 3SM BR CLR 07/07 A3001 RMK AO2 SLP166 T00670067=
202403220954 SPECI KPWT 220954Z AUTO 00000KT 2SM BR CLR 07/07 A3001 RMK AO2 VIS 1V5=
202403220943 SPECI KPWT 220943Z AUTO 00000KT 1SM BR FEW120 07/07 A3001 RMK AO2 VIS 1/2V5=
202403220936 SPECI KPWT 220936Z AUTO 00000KT 3SM BR SCT120 07/07 A3002 RMK AO2=
202403220911 SPECI KPWT 220911Z AUTO 00000KT 1 3/4SM BR FEW036 SCT049 BKN110 07/07 A3002 RMK AO2=
202403220856 METAR KPWT 220856Z AUTO 00000KT 10SM SCT036 SCT049 BKN110 07/07 A3003 RMK AO2 SLP176 T00720072 56011=
202403220844 SPECI KPWT 220844Z AUTO 00000KT 3SM BR BKN036 08/08 A3003 RMK AO2=
202403220824 SPECI KPWT 220824Z AUTO 00000KT 1 3/4SM BR FEW037 08/08 A3003 RMK AO2=
202403220756 METAR KPWT 220756Z AUTO 00000KT 10SM BKN037 BKN110 09/09 A3004 RMK AO2 SLP176 T00890089 401330050=
202403220656 METAR KPWT 220656Z AUTO 13003KT 10SM FEW037 SCT110 09/09 A3005 RMK AO2 SLP183 T00890089=
202403220556 METAR KPWT 220556Z AUTO 00000KT 10SM SCT060 09/09 A3007 RMK AO2 SLP187 P0001 60003 T00940094 10117 20089 55001=
202403220456 METAR KPWT 220456Z AUTO 00000KT 10SM BKN050 09/09 A3006 RMK AO2 SLP185 T00940094=
202403220356 METAR KPWT 220356Z AUTO 18005KT 10SM OVC032 10/10 A3007 RMK AO2 RAB01E26 SLP187 P0000 T01000100=
202403220324 SPECI KPWT 220324Z AUTO 16003KT 10SM -RA FEW004 SCT011 OVC036 10/10 A3007 RMK AO2 RAB01 P0000=
202403220310 SPECI KPWT 220310Z AUTO 16003KT 6SM -RA BR SCT004 BKN011 OVC043 10/10 A3007 RMK AO2 RAB01 CIG 008V012 P0000=
202403220303 SPECI KPWT 220303Z AUTO 18003KT 8SM -RA SCT004 BKN009 BKN015 10/10 A3007 RMK AO2 RAB01 P0000=
202403220256 METAR KPWT 220256Z AUTO 00000KT 10SM SCT004 SCT009 BKN021 10/10 A3007 RMK AO2 RAE23 SLP188 P0000 60002 T01000100 55001=
202403220254 SPECI KPWT 220254Z AUTO 00000KT 10SM SCT004 SCT009 BKN021 10/10 A3007 RMK AO2 RAE23 P0000=
202403220233 SPECI KPWT 220233Z AUTO 00000KT 10SM SCT011 SCT021 SCT028 11/11 A3006 RMK AO2 RAE23 P0000=
202403220159 SPECI KPWT 220159Z AUTO 00000KT 10SM -RA SCT008 BKN013 OVC020 11/11 A3007 RMK AO2 P0000=
202403220156 METAR KPWT 220156Z AUTO 00000KT 10SM -RA SCT010 BKN014 OVC019 11/11 A3007 RMK AO2 RAB45 SLP186 P0000 T01060106=
202403220152 SPECI KPWT 220152Z AUTO 00000KT 10SM -RA FEW008 BKN013 OVC021 11/11 A3007 RMK AO2 RAB45 P0000=
202403220111 SPECI KPWT 220111Z AUTO 20003KT 10SM BKN025 BKN030 BKN044 11/11 A3007 RMK AO2=
202403220056 METAR KPWT 220056Z AUTO 00000KT 10SM FEW029 SCT033 BKN046 11/11 A3007 RMK AO2 RAE31 SLP188 P0002 T01060106=
202403220026 SPECI KPWT 220026Z AUTO 20004KT 10SM -RA SCT029 OVC037 11/11 A3007 RMK AO2 P0002=
202403220018 SPECI KPWT 220018Z AUTO 19005KT 10SM -RA BKN029 OVC039 11/11 A3007 RMK AO2 P0001=
202403212356 METAR KPWT 212356Z AUTO 19007KT 10SM -RA OVC041 12/09 A3007 RMK AO2 RAB56 SLP188 P0000 60000 T01170094 10133 20100 55002=
202403212256 METAR KPWT 212256Z AUTO 19006KT 10SM FEW018 BKN034 OVC048 12/09 A3007 RMK AO2 SLP189 T01220089=
202403211937 SPECI KPWT 211937Z AUTO VRB04KT 10SM FEW021 SCT027 BKN048 12/08 A3009 RMK AO2=
202403211856 METAR KPWT 211856Z AUTO 19005KT 10SM BKN021 BKN027 11/08 A3009 RMK AO2 SLP194 T01110078=
202403211831 SPECI KPWT 211831Z AUTO 21006KT 10SM BKN023 11/08 A3008 RMK AO2=
202403211756 METAR KPWT 211756Z AUTO 22003KT 10SM FEW012 SCT020 11/08 A3008 RMK AO2 SLP191 6//// T01060083 10106 20050 51012=
202403211748 SPECI KPWT 211748Z AUTO 23005KT 10SM SCT012 SCT018 11/08 A3008 RMK AO2=
202403211725 SPECI KPWT 211725Z AUTO 19007KT 10SM SCT009 BKN014 10/09 A3008 RMK AO2=
202403211656 METAR KPWT 211656Z AUTO 21006KT 10SM OVC009 09/09 A3007 RMK AO2 CIG 007V011 SLP188 T00940089=
202403211603 SPECI KPWT 211603Z AUTO 26005KT 10SM BKN008 BKN011 08/08 A3006 RMK AO2 CIG 006V011=
202403211556 METAR KPWT 211556Z AUTO 24005KT 10SM BKN011 08/08 A3006 RMK AO2 CIG 006V014 SLP184 T00830083=
202403211554 SPECI KPWT 211554Z AUTO 25005KT 10SM FEW007 BKN011 08/08 A3006 RMK AO2=
202403211504 SPECI KPWT 211504Z AUTO 21003KT 3SM BR 06/06 A3005 RMK AO2=
202403211456 METAR KPWT 211456Z AUTO 20003KT 1 3/4SM BR 06/06 A3005 RMK AO2 VIS 1/2V5 SLP180 6//// T00560056 51015=
202403211452 SPECI KPWT 211452Z AUTO 2 1/2SM BR 06/06 A3004 RMK AO2 VIS 1 1/2V5=
202403211409 SPECI KPWT 211409Z AUTO 22003KT 6SM BR OVC002 07/07 A3004 RMK AO2=
202403211356 METAR KPWT 211356Z AUTO 22004KT 9SM OVC004 06/06 A3003 RMK AO2 SLP176 T00610061=
202403211328 SPECI KPWT 211328Z AUTO 21004KT 10SM BKN004 06/06 A3002 RMK AO2=
202403211318 SPECI KPWT 211318Z AUTO 22006KT 10SM SCT004 BKN016 06/06 A3002 RMK AO2=
202403211311 SPECI KPWT 211311Z AUTO 21006KT 10SM FEW016 06/06 A3003 RMK AO2=
202403211304 SPECI KPWT 211304Z AUTO 20006KT 10SM FEW003 BKN016 07/07 A3002 RMK AO2=
202403211256 METAR KPWT 211256Z AUTO 21006KT 10SM FEW003 BKN014 07/07 A3002 RMK AO2 SLP171 T00670067=
202403211244 SPECI KPWT 211244Z AUTO 21006KT 10SM SCT003 BKN014 07/07 A3002 RMK AO2=
202403211214 SPECI KPWT 211214Z AUTO 20006KT 10SM SCT003 SCT060 07/07 A3001 RMK AO2=
202403211156 METAR KPWT 211156Z AUTO 20004KT 9SM OVC003 07/07 A3000 RMK AO2 SLP164 60001 70002 T00720072 10072 20072 51004=
202403211056 METAR KPWT 211056Z AUTO 21005KT 5SM BR OVC003 07/07 A3000 RMK AO2 SLP164 T00720072=
202403211011 SPECI KPWT 211011Z AUTO 21005KT 8SM BKN003 07/07 A3000 RMK AO2=
202403210956 METAR KPWT 210956Z AUTO 21005KT 10SM FEW003 SCT028 07/07 A3000 RMK AO2 SLP162 T00720072=
202403210913 SPECI KPWT 210913Z AUTO 21006KT 10SM SCT003 BKN022 07/07 A2999 RMK AO2=
202403210856 METAR KPWT 210856Z AUTO 20005KT 7SM BKN003 07/07 A2999 RMK AO2 RAB09E25 SLP160 P0000 60001 T00720072 51001=
202403210756 METAR KPWT 210756Z AUTO 21004KT 9SM BKN003 OVC037 07/07 A2999 RMK AO2 RAE14 SLP160 P0001 T00720072 401060067=
202403210752 SPECI KPWT 210752Z AUTO 10SM BKN003 OVC037 07/07 A2999 RMK AO2 RAE14 P0001 401060067=
202403210734 SPECI KPWT 210734Z AUTO 20003KT 10SM SCT007 OVC035 07/07 A2998 RMK AO2 RAE14 P0001=
202403210656 METAR KPWT 210656Z AUTO 00000KT 10SM -RA OVC005 07/07 A2999 RMK AO2 CIG 003V007 SLP159 P0000 T00720072=
202403210609 SPECI KPWT 210609Z AUTO 00000KT 10SM -RA OVC009 07/07 A2999 RMK AO2 P0000=
202403210556 METAR KPWT 210556Z AUTO 00000KT 10SM -RA BKN011 BKN037 07/07 A2999 RMK AO2 SLP160 P0001 60001 T00720072 10094 20072 51004=
202403210521 SPECI KPWT 210521Z AUTO 00000KT 10SM -RA BKN013 OVC018 08/08 A2999 RMK AO2 P0001=
202403210456 METAR KPWT 210456Z AUTO 00000KT 10SM -RA BKN020 08/08 A2999 RMK AO2 RAB24 SLP160 P0000 T00780078=
202403210443 SPECI KPWT 210443Z AUTO 00000KT 10SM -RA BKN022 BKN040 07/07 A2998 RMK AO2 RAB24 P0000=
202403210356 METAR KPWT 210356Z AUTO 00000KT 10SM BKN043 07/07 A2998 RMK AO2 SLP159 T00720072=
202403210256 METAR KPWT 210256Z AUTO 21004KT 10SM OVC033 07/07 A2998 RMK AO2 RAB16E55 SLP157 P0000 60000 T00720072 53000=
202403210249 SPECI KPWT 210249Z AUTO 22004KT 10SM -RA FEW028 OVC033 08/08 A2998 RMK AO2 RAB16 P0000=
202403210209 SPECI KPWT 210209Z AUTO 20005KT 10SM OVC028 08/07 A2997 RMK AO2=
202403210156 METAR KPWT 210156Z AUTO 19006KT 10SM BKN030 OVC036 08/07 A2997 RMK AO2 SLP155 T00830072=
202403210135 SPECI KPWT 210135Z AUTO 19007KT 10SM SCT029 OVC036 08/07 A2997 RMK AO2=
202403210056 METAR KPWT 210056Z AUTO 19005KT 10SM FEW014 BKN022 OVC033 08/07 A2997 RMK AO2 RAB36E54 SLP156 P0000 T00830072=
202403210026 SPECI KPWT 210026Z AUTO 22008KT 10SM BKN021 BKN033 OVC040 09/07 A2998 RMK AO2=
202403210015 SPECI KPWT 210015Z AUTO 20008KT 10SM FEW023 SCT028 OVC036 09/06 A2998 RMK AO2=
202403202356 METAR KPWT 202356Z AUTO 20009KT 10SM SCT023 BKN027 OVC034 09/06 A2998 RMK AO2 SLP156 T00940061 10106 20089 55002=
202403202319 SPECI KPWT 202319Z AUTO 20007KT 10SM BKN027 OVC042 10/06 A2997 RMK AO2=
202403202256 METAR KPWT 202256Z AUTO 22006KT 10SM SCT029 OVC042 11/06 A2998 RMK AO2 SLP155 T01060056=
202403202222 SPECI KPWT 202222Z AUTO 20009KT 10SM FEW025 SCT034 OVC042 10/06 A2998 RMK AO2=
202403202156 METAR KPWT 202156Z AUTO 20008KT 10SM FEW024 BKN029 OVC036 10/05 A2998 RMK AO2 SLP158 T01000050=
202403202154 SPECI KPWT 202154Z AUTO 20009KT 10SM FEW024 BKN029 OVC038 10/06 A2998 RMK AO2=
202403202056 METAR KPWT 202056Z AUTO 22009KT 10SM OVC036 10/05 A3000 RMK AO2 SLP162 T01000050 58006=
202403202023 SPECI KPWT 202023Z AUTO 23009KT 10SM SCT023 OVC036 09/05 A3000 RMK AO2=
202403201956 METAR KPWT 201956Z AUTO 23011KT 10SM SCT021 BKN029 OVC036 09/06 A3001 RMK AO2 SLP166 T00940056=
202403201856 METAR KPWT 201856Z AUTO 22011KT 10SM OVC036 09/05 A3001 RMK AO2 SLP167 T00940050=
202403201756 METAR KPWT 201756Z AUTO 21010KT 10SM OVC034 09/05 A3001 RMK AO2 SLP169 T00890050 10089 20067 51004=
202403201746 SPECI KPWT 201746Z AUTO 22009KT 10SM BKN031 OVC035 09/05 A3001 RMK AO2=
202403201735 SPECI KPWT 201735Z AUTO 24009KT 10SM OVC029 08/04 A3001 RMK AO2=
202403201705 SPECI KPWT 201705Z AUTO 22009KT 10SM OVC031 08/04 A3001 RMK AO2=
202403201656 METAR KPWT 201656Z AUTO 24007KT 10SM BKN027 OVC034 08/04 A3001 RMK AO2 SLP167 T00780044=
202403201556 METAR KPWT 201556Z AUTO 21009KT 10SM OVC021 07/04 A3001 RMK AO2 SLP168 T00720044=
202403201456 METAR KPWT 201456Z AUTO 21010KT 10SM OVC019 07/04 A3000 RMK AO2 SLP165 T00670044 53000=
202403201356 METAR KPWT 201356Z AUTO 21006KT 10SM OVC017 07/04 A3000 RMK AO2 SLP162 T00670044=
202403201256 METAR KPWT 201256Z AUTO 21007KT 10SM OVC015 07/04 A3000 RMK AO2 SLP166 T00670044=
202403201156 METAR KPWT 201156Z AUTO 20008KT 10SM OVC017 07/04 A3000 RMK AO2 SLP164 7//// T00670044 10072 20050 55003=
202403201056 METAR KPWT 201056Z AUTO 21010KT 10SM OVC017 07/04 A3000 RMK AO2 SLP162 T00670044=
202403200956 METAR KPWT 200956Z AUTO 20008KT 10SM OVC017 07/05 A3000 RMK AO2 SLP164 T00670050=
202403200856 METAR KPWT 200856Z AUTO 22007KT 10SM OVC015 07/05 A3001 RMK AO2 SLP166 T00670050 51003=
202403200841 SPECI KPWT 200841Z AUTO 21009KT 10SM OVC015 07/06 A3001 RMK AO2=
202403200756 METAR KPWT 200756Z AUTO 22007KT 10SM OVC013 07/06 A3001 RMK AO2 SLP166 T00720061 401780017=
202403200656 METAR KPWT 200656Z AUTO 21006KT 10SM OVC013 07/06 A3001 RMK AO2 SLP167 T00670061=
202403200625 SPECI KPWT 200625Z AUTO 20004KT 10SM BKN013 06/06 A3000 RMK AO2=
202403200556 METAR KPWT 200556Z AUTO 21004KT 10SM CLR 05/05 A3000 RMK AO2 SLP165 T00500050 10150 20050 52012=
202403200456 METAR KPWT 200456Z AUTO 22010KT 10SM CLR 06/06 A2999 RMK AO2 SLP160 T00610061=
202403200356 METAR KPWT 200356Z AUTO 22006KT 10SM CLR 07/06 A2998 RMK AO2 SLP156 T00670061=
202403200256 METAR KPWT 200256Z AUTO 19005KT 10SM CLR 08/07 A2997 RMK AO2 SLP154 T00780067 53001=
202403200156 METAR KPWT 200156Z AUTO 23008KT 10SM CLR 10/08 A2996 RMK AO2 SLP151 T01000078=
202403200056 METAR KPWT 200056Z AUTO 23008KT 10SM CLR 13/09 A2996 RMK AO2 SLP150 T01280094=
202403192356 METAR KPWT 192356Z AUTO 23010KT 10SM CLR 15/09 A2996 RMK AO2 SLP152 6//// T01500094 10178 20139 56013=
202403192256 METAR KPWT 192256Z AUTO 24010KT 10SM CLR 17/09 A2997 RMK AO2 SLP152 T01720089=
202403192156 METAR KPWT 192156Z AUTO 23008KT 7SM CLR 18/08 A2997 RMK AO2 SLP155 T01780078=
202403192056 METAR KPWT 192056Z AUTO VRB03KT 10SM CLR 17/06 A3000 RMK AO2 SLP163 T01720061 58015 TSNO=
202403191956 METAR KPWT 191956Z AUTO 25006KT 10SM CLR 16/07 A3002 RMK AO2 SLP169 T01610072 TSNO=
202403191856 METAR KPWT 191856Z AUTO 00000KT 10SM CLR 15/08 A3004 RMK AO2 SLP175 T01500078=
202403191756 METAR KPWT 191756Z AUTO 34003KT 10SM CLR 14/08 A3004 RMK AO2 SLP178 T01440078 10144 20017 51004=
202403191656 METAR KPWT 191656Z AUTO 33003KT 10SM CLR 13/07 A3004 RMK AO2 SLP178 T01280072=
202403191556 METAR KPWT 191556Z AUTO 00000KT 10SM CLR 09/07 A3004 RMK AO2 SLP176 T00940072=
202403191456 METAR KPWT 191456Z AUTO 00000KT 7SM CLR 03/03 A3003 RMK AO2 SLP176 T00280028 55004=
202403191356 METAR KPWT 191356Z AUTO 00000KT 10SM CLR 02/02 A3003 RMK AO2 SLP174 T00220022 FZRANO=
202403191256 METAR KPWT 191256Z AUTO 00000KT 10SM CLR 03/03 A3004 RMK AO2 SLP176 T00330033=
202403191156 METAR KPWT 191156Z AUTO 00000KT 10SM CLR 04/04 A3004 RMK AO2 SLP177 7//// T00440039 10100 20028 58009=
202403191056 METAR KPWT 191056Z AUTO 00000KT 10SM CLR 04/04 A3006 RMK AO2 SLP183 T00390039=
202403190956 METAR KPWT 190956Z AUTO 00000KT 10SM CLR 04/04 A3007 RMK AO2 SLP186 T00390039=
202403190856 METAR KPWT 190856Z AUTO 00000KT 10SM CLR 05/05 A3007 RMK AO2 SLP187 T00500050 56004=
202403190756 METAR KPWT 190756Z AUTO 03003KT 10SM CLR 09/06 A3007 RMK AO2 SLP187 T00890056 401940028=
202403190656 METAR KPWT 190656Z AUTO 00000KT 10SM CLR 09/06 A3008 RMK AO2 SLP189 T00940056=
202403190556 METAR KPWT 190556Z AUTO 00000KT 10SM CLR 08/06 A3008 RMK AO2 SLP192 T00780056 10194 20067 55000=
202403190456 METAR KPWT 190456Z AUTO 00000KT 10SM CLR 09/06 A3008 RMK AO2 SLP192 T00940056=
202403190356 METAR KPWT 190356Z AUTO 05004KT 10SM CLR 12/07 A3008 RMK AO2 SLP192 T01220072=
202403190256 METAR KPWT 190256Z AUTO 06003KT 10SM CLR 12/07 A3008 RMK AO2 SLP192 T01170072 55008=
202403190156 METAR KPWT 190156Z AUTO 05004KT 10SM CLR 16/08 A3008 RMK AO2 SLP192 T01610078=
202403190056 METAR KPWT 190056Z AUTO 05006KT 10SM CLR 18/08 A3009 RMK AO2 SLP193 T01830078=
202403182356 METAR KPWT 182356Z AUTO 06006KT 10SM CLR 19/08 A3011 RMK AO2 SLP199 6//// T01940078 10194 20128 56018=
202403182256 METAR KPWT 182256Z AUTO 04006KT 10SM CLR 19/08 A3012 RMK AO2 SLP205 T01890083=
202403182156 METAR KPWT 182156Z AUTO 07007KT 030V090 10SM CLR 19/08 A3014 RMK AO2 SLP210 T01890078=
202403182056 METAR KPWT 182056Z AUTO 08006KT 10SM CLR 17/08 A3016 RMK AO2 SLP218 6//// T01720078 58017=
202403181956 METAR KPWT 181956Z AUTO 05007KT 10SM CLR 16/08 A3018 RMK AO2 SLP223 T01610083=
202403181856 METAR KPWT 181856Z AUTO 06009KT 10SM CLR 14/08 A3020 RMK AO2 SLP230 T01440083=
202403181756 METAR KPWT 181756Z AUTO 05010KT 10SM CLR 13/08 A3021 RMK AO2 SLP235 T01280083 10128 20044 50001=
202403181656 METAR KPWT 181656Z AUTO 05009KT 10SM CLR 11/08 A3022 RMK AO2 SLP237 T01060078=
202403181556 METAR KPWT 181556Z AUTO 02004KT 10SM CLR 10/08 A3021 RMK AO2 SLP236 T01000078=
202403181456 METAR KPWT 181456Z AUTO 02003KT 10SM CLR 07/07 A3021 RMK AO2 SLP234 T00720067 51002=
202403181356 METAR KPWT 181356Z AUTO 05004KT 10SM CLR 06/06 A3020 RMK AO2 SLP233 T00560056=
202403181256 METAR KPWT 181256Z AUTO 00000KT 10SM CLR 06/06 A3021 RMK AO2 SLP232 T00560056=
202403181156 METAR KPWT 181156Z AUTO 00000KT 10SM CLR 07/07 A3020 RMK AO2 SLP230 T00670067 10100 20028 51001=
202403181056 METAR KPWT 181056Z AUTO 00000KT 10SM CLR 03/03 A3020 RMK AO2 SLP231 T00330033=
202403180956 METAR KPWT 180956Z AUTO 00000KT 10SM CLR 04/04 A3020 RMK AO2 SLP232 T00440039=
202403180856 METAR KPWT 180856Z AUTO 00000KT 10SM CLR 05/04 A3020 RMK AO2 SLP230 T00500044 58003=
202403180756 METAR KPWT 180756Z AUTO 00000KT 10SM CLR 08/05 A3021 RMK AO2 SLP231 T00780050 402280022=
202403180656 METAR KPWT 180656Z AUTO 00000KT 10SM CLR 08/06 A3021 RMK AO2 SLP233 T00830056=
202403180556 METAR KPWT 180556Z AUTO 00000KT 10SM CLR 10/06 A3021 RMK AO2 SLP233 T01000056 10211 20100 52010=
202403180456 METAR KPWT 180456Z AUTO 00000KT 10SM CLR 12/07 A3020 RMK AO2 SLP230 T01220067=
202403180356 METAR KPWT 180356Z AUTO 06005KT 10SM CLR 13/07 A3019 RMK AO2 SLP228 T01330067=
202403180256 METAR KPWT 180256Z AUTO 05007KT 10SM CLR 15/07 A3018 RMK AO2 SLP224 T01500067=
202403180156 METAR KPWT 180156Z AUTO 10SM CLR 18/08 RMK AO2 SLPNO T01780078 $=
202403180056 METAR KPWT 180056Z AUTO 06006KT 10SM CLR 20/08 A3016 RMK AO2 SLP218 T02000078=
202403172356 METAR KPWT 172356Z AUTO 05007KT 10SM CLR 21/08 A3017 RMK AO2 SLP220 T02110078 10228 20156 56010=
202403172256 METAR KPWT 172256Z AUTO 04006KT 10SM CLR 22/07 A3018 RMK AO2 SLP223 T02170072=
202403172156 METAR KPWT 172156Z AUTO 00000KT 10SM CLR 22/07 A3019 RMK AO2 SLP226 T02220072=
202403172056 METAR KPWT 172056Z AUTO 33004KT 10SM CLR 22/07 A3020 RMK AO2 SLP229 T02170072 58010=
202403171956 METAR KPWT 171956Z AUTO 30003KT 10SM CLR 21/08 A3021 RMK AO2 SLP233 T02060078=
202403171856 METAR KPWT 171856Z AUTO 00000KT 10SM CLR 17/07 A3022 RMK AO2 SLP239 T01670072=
202403171756 METAR KPWT 171756Z AUTO 00000KT 10SM CLR 16/08 A3023 RMK AO2 SLP241 T01560078 10156 20022 50008=
202403171656 METAR KPWT 171656Z AUTO 23003KT 10SM CLR 12/08 A3023 RMK AO2 SLP243 T01170078=
202403171556 METAR KPWT 171556Z AUTO 00000KT 10SM CLR 08/08 A3022 RMK AO2 SLP238 T00830078=
202403171456 METAR KPWT 171456Z AUTO 00000KT 9SM CLR 03/03 A3021 RMK AO2 SLP235 T00280028 51011=
202403171356 METAR KPWT 171356Z AUTO 00000KT 10SM CLR 03/03 A3020 RMK AO2 SLP231 T00280028=
202403171256 METAR KPWT 171256Z AUTO 00000KT 10SM CLR 05/05 A3018 RMK AO2 SLP224 T00500050=
202403171156 METAR KPWT 171156Z AUTO 00000KT 10SM CLR 04/04 A3017 RMK AO2 SLP220 7//// T00440044 10089 20033 51011=
202403171056 METAR KPWT 171056Z AUTO 00000KT 10SM CLR 04/03 A3017 RMK AO2 SLP218 T00390033=
202403170956 METAR KPWT 170956Z AUTO 00000KT 10SM CLR 05/05 A3016 RMK AO2 SLP216 T00500050=
202403170856 METAR KPWT 170856Z AUTO 00000KT 10SM CLR 07/06 A3014 RMK AO2 SLP209 T00670056 53015=
202403170756 METAR KPWT 170756Z AUTO 00000KT 10SM CLR 07/06 A3012 RMK AO2 SLP204 T00670056 402440061=
202403170656 METAR KPWT 170656Z AUTO 00000KT 10SM CLR 07/06 A3011 RMK AO2 SLP198 T00720061=
202403170556 METAR KPWT 170556Z AUTO 00000KT 10SM CLR 09/07 A3009 RMK AO2 SLP194 T00890067 10244 20078 51018=
202403170456 METAR KPWT 170456Z AUTO 21005KT 10SM CLR 08/07 A3008 RMK AO2 SLP191 T00780072=
202403170356 METAR KPWT 170356Z AUTO 00000KT 10SM CLR 10/08 A3006 RMK AO2 SLP184 T01000078=
202403170256 METAR KPWT 170256Z AUTO 00000KT 10SM CLR 12/08 A3004 RMK AO2 SLP177 T01170078 53006=
202403170156 METAR KPWT 170156Z AUTO 00000KT 10SM CLR 19/07 A3003 RMK AO2 SLP170 T01940072=
202403170056 METAR KPWT 170056Z AUTO 23007KT 10SM CLR 23/04 A3002 RMK AO2 SLP170 T02280039=
202403162356 METAR KPWT 162356Z AUTO 28005KT 10SM CLR 24/04 A3002 RMK AO2 SLP169 6//// T02440039 10244 20150 56006=
202403162256 METAR KPWT 162256Z AUTO 23005KT 10SM CLR 23/04 A3003 RMK AO2 SLP170 T02330044=
202403162156 METAR KPWT 162156Z AUTO 00000KT 10SM CLR 23/06 A3003 RMK AO2 SLP172 T02280061=
202403162056 METAR KPWT 162056Z AUTO 00000KT 10SM CLR 22/07 A3004 RMK AO2 SLP177 6//// T02170067 57006=
202403161956 METAR KPWT 161956Z AUTO 06006KT 10SM CLR 19/07 A3005 RMK AO2 SLP177 T01890067=
202403161856 METAR KPWT 161856Z AUTO 00000KT 10SM CLR 17/08 A3006 RMK AO2 SLP180 T01670078=
202403161756 METAR KPWT 161756Z AUTO 27003KT 10SM CLR 16/07 A3006 RMK AO2 SLP183 T01560072 10156 20083 51006=
202403161656 METAR KPWT 161656Z AUTO 05006KT 10SM CLR 13/07 A3005 RMK AO2 SLP179 T01330067=
202403161556 METAR KPWT 161556Z AUTO 22005KT 10SM CLR 09/06 A3006 RMK AO2 SLP184 T00940056=
202403161456 METAR KPWT 161456Z AUTO 04006KT 10SM CLR 09/06 A3004 RMK AO2 SLP177 T00940056 50001=
202403161356 METAR KPWT 161356Z AUTO 03007KT 10SM CLR 09/05 A3004 RMK AO2 SLP178 T00940050=
202403161256 METAR KPWT 161256Z AUTO 04007KT 10SM CLR 10/05 A3004 RMK AO2 SLP176 T01000050=
202403161156 METAR KPWT 161156Z AUTO 04007KT 10SM CLR 10/05 A3004 RMK AO2 SLP175 T01000050 10111 20094 56008=
202403161056 METAR KPWT 161056Z AUTO 05010KT 10SM CLR 10/04 A3004 RMK AO2 SLP177 T01000044=
202403160956 METAR KPWT 160956Z AUTO 05009KT 10SM CLR 10/04 A3006 RMK AO2 SLP182 T01000044=
202403160856 METAR KPWT 160856Z AUTO 04010KT 10SM CLR 11/04 A3006 RMK AO2 SLP183 T01060044 56009=
202403160756 METAR KPWT 160756Z AUTO 04011KT 10SM CLR 11/04 A3007 RMK AO2 SLP187 T01110044 401670056=
202403160656 METAR KPWT 160656Z AUTO 04010KT 10SM CLR 11/04 A3008 RMK AO2 SLP189 T01060044=
202403160556 METAR KPWT 160556Z AUTO 05008KT 10SM CLR 11/04 A3009 RMK AO2 SLP194 T01060044 10161 20100 53002=
202403160456 METAR KPWT 160456Z AUTO 04016KT 10SM CLR 11/04 A3008 RMK AO2 SLP193 T01060044=
202403160356 METAR KPWT 160356Z AUTO 05013KT 10SM CLR 11/05 A3008 RMK AO2 SLP191 T01060050=
202403160256 METAR KPWT 160256Z AUTO 04011KT 10SM CLR 11/05 A3008 RMK AO2 SLP192 T01110050 56009=
202403160156 METAR KPWT 160156Z AUTO 04011KT 10SM CLR 12/06 A3009 RMK AO2 SLP194 T01220061=
202403160056 METAR KPWT 160056Z AUTO 04008KT 10SM CLR 14/07 A3010 RMK AO2 SLP199 T01440067=
202403152356 METAR KPWT 152356Z AUTO 05012KT 10SM CLR 16/06 A3011 RMK AO2 SLP201 T01610061 10167 20117 56025=
202403152256 METAR KPWT 152256Z AUTO 04012KT 10SM CLR 16/07 A3013 RMK AO2 SLP208 T01610067=
202403152156 METAR KPWT 152156Z AUTO 03011KT 10SM CLR 16/06 A3015 RMK AO2 SLP215 T01560061=
202403152056 METAR KPWT 152056Z AUTO 05009KT 10SM CLR 15/06 A3019 RMK AO2 SLP227 T01500061 56020=
202403151956 METAR KPWT 151956Z AUTO 06013G17KT 10SM CLR 14/06 A3020 RMK AO2 SLP233 T01390061=
202403151856 METAR KPWT 151856Z AUTO 04009KT 10SM CLR 13/06 A3023 RMK AO2 SLP242 T01280056=
202403151756 METAR KPWT 151756Z AUTO 04013G17KT 10SM CLR 12/06 A3025 RMK AO2 SLP247 T01170056 10117 20056 58011=
202403151656 METAR KPWT 151656Z AUTO 05010KT 10SM CLR 09/05 A3026 RMK AO2 SLP251 T00890050=
202403151556 METAR KPWT 151556Z AUTO 05013G18KT 10SM CLR 07/05 A3027 RMK AO2 SLP256 T00720050=
202403151456 METAR KPWT 151456Z AUTO 05006KT 10SM CLR 06/03 A3028 RMK AO2 SLP259 T00560033 58005=
202403151356 METAR KPWT 151356Z AUTO 07005KT 10SM CLR 06/03 A3028 RMK AO2 SLP260 T00560033=
202403151256 METAR KPWT 151256Z AUTO 05006KT 10SM CLR 06/02 A3029 RMK AO2 SLP263 T00610022=
202403151156 METAR KPWT 151156Z AUTO 06009KT 10SM CLR 06/02 A3029 RMK AO2 SLP264 T00610022 10072 20061 56009=
202403151056 METAR KPWT 151056Z AUTO 05008KT 10SM CLR 06/02 A3030 RMK AO2 SLP266 T00610022=
202403150956 METAR KPWT 150956Z AUTO 04009KT 10SM CLR 07/02 A3031 RMK AO2 SLP269 T00670022=
202403150856 METAR KPWT 150856Z AUTO 04008KT 10SM CLR 07/02 A3032 RMK AO2 SLP273 T00720022 58014=
202403150756 METAR KPWT 150756Z AUTO 05007KT 10SM CLR 07/02 A3034 RMK AO2 SLP279 T00670022 401281006=
202403150656 METAR KPWT 150656Z AUTO 06009KT 10SM CLR 07/03 A3035 RMK AO2 SLP283 T00670028=
202403150556 METAR KPWT 150556Z AUTO 05010KT 10SM CLR 07/03 A3036 RMK AO2 SLP288 T00670028 10128 20067 58004=
202403150456 METAR KPWT 150456Z AUTO 04007KT 10SM CLR 07/02 A3037 RMK AO2 SLP291 T00720022=
202403150356 METAR KPWT 150356Z AUTO 04008KT 10SM CLR 08/02 A3038 RMK AO2 SLP294 T00780022=
202403150256 METAR KPWT 150256Z AUTO 05008KT 10SM CLR 08/03 A3038 RMK AO2 SLP294 T00780033 56010=
202403150156 METAR KPWT 150156Z AUTO 04008KT 10SM CLR 09/02 A3039 RMK AO2 SLP297 T00940022=
202403150056 METAR KPWT 150056Z AUTO 05009KT 10SM CLR 12/02 A3039 RMK AO2 SLP298 T01170022=
202403142356 METAR KPWT 142356Z AUTO 04010KT 10SM CLR 12/03 A3041 RMK AO2 SLP303 T01220028 10128 20083 56019=
202403142256 METAR KPWT 142256Z AUTO 06009KT 10SM CLR 13/03 A3042 RMK AO2 SLP307 T01280028=
202403142156 METAR KPWT 142156Z AUTO 02011KT 10SM CLR 12/02 A3044 RMK AO2 SLP316 T01220022=
202403142056 METAR KPWT 142056Z AUTO 03010KT 10SM CLR 12/03 A3046 RMK AO2 SLP323 T01170033 58016=
202403141956 METAR KPWT 141956Z AUTO 06012G17KT 10SM CLR 11/04 A3048 RMK AO2 SLP329 T01060039=
202403141856 METAR KPWT 141856Z AUTO 04010KT 10SM CLR 09/04 A3050 RMK AO2 SLP335 T00940044=
202403141756 METAR KPWT 141756Z AUTO 03007KT 10SM CLR 08/04 A3051 RMK AO2 SLP339 T00780044 10078 20011 58007=
202403141656 METAR KPWT 141656Z AUTO 06008KT 10SM CLR 06/04 A3052 RMK AO2 SLP344 T00610044=
202403141556 METAR KPWT 141556Z AUTO 05008KT 10SM CLR 04/04 A3053 RMK AO2 SLP345 T00440044=
202403141456 METAR KPWT 141456Z AUTO 03005KT 10SM CLR 03/03 A3053 RMK AO2 SLP347 T00280028 52001=
202403141356 METAR KPWT 141356Z AUTO 02003KT 10SM CLR 01/01 A3053 RMK AO2 SLP346 T00110011 FZRANO=
202403141256 METAR KPWT 141256Z AUTO 03005KT 10SM CLR 01/01 A3053 RMK AO2 SLP346 T00110011 FZRANO=
202403141156 METAR KPWT 141156Z AUTO 03004KT 10SM CLR 02/02 A3053 RMK AO2 SLP346 T00170017 10022 21006 53000 FZRANO=
202403141056 METAR KPWT 141056Z AUTO 03005KT 10SM CLR 02/02 A3053 RMK AO2 SLP345 T00170017 FZRANO=
202403140956 METAR KPWT 140956Z AUTO 05004KT 10SM CLR 01/01 A3053 RMK AO2 SLP345 T00110011 FZRANO=
202403140856 METAR KPWT 140856Z AUTO 00000KT 10SM CLR 00/00 A3053 RMK AO2 SLP345 T00000000 52008 FZRANO=
202403140756 METAR KPWT 140756Z AUTO 00000KT 10SM CLR 01/01 A3052 RMK AO2 SLP342 T00060006 401060006 FZRANO=
202403140656 METAR KPWT 140656Z AUTO 00000KT 10SM CLR 01/01 A3052 RMK AO2 SLP340 T00110011 FZRANO=
202403140556 METAR KPWT 140556Z AUTO 00000KT 10SM CLR 02/02 A3050 RMK AO2 SLP338 T00170017 10094 20011 51008 FZRANO=
202403140456 METAR KPWT 140456Z AUTO 00000KT 10SM CLR 02/02 A3049 RMK AO2 SLP333 T00220022 FZRANO=
202403140356 METAR KPWT 140356Z AUTO 00000KT 10SM OVC055 04/03 A3049 RMK AO2 SLP331 T00440033=
202403140256 METAR KPWT 140256Z AUTO 00000KT 10SM BKN055 04/03 A3048 RMK AO2 SLP329 T00390033 53007=
202403140156 METAR KPWT 140156Z AUTO 00000KT 10SM CLR 06/03 A3047 RMK AO2 SLP325 T00610033=
202403140056 METAR KPWT 140056Z AUTO 00000KT 10SM CLR 08/02 A3046 RMK AO2 SLP324 T00830022=
202403132356 METAR KPWT 132356Z AUTO 06003KT 10SM OVC047 09/01 A3046 RMK AO2 SLP322 T00940011 10106 20061 51006=
202403132256 METAR KPWT 132256Z AUTO 07004KT 10SM BKN040 09/02 A3046 RMK AO2 SLP320 T00940022=
202403132156 METAR KPWT 132156Z AUTO VRB03KT 10SM SCT060 09/02 A3045 RMK AO2 SLP317 T00940017=
202403132056 METAR KPWT 132056Z AUTO 35004KT 10SM FEW065 09/02 A3044 RMK AO2 SLP316 T00940017 50006=
202403131956 METAR KPWT 131956Z AUTO 00000KT 10SM OVC060 09/03 A3044 RMK AO2 SLP316 T00890028=
202403131856 METAR KPWT 131856Z AUTO 24005KT 10SM FEW031 BKN039 07/04 A3044 RMK AO2 SLP314 T00670039=
202403131756 METAR KPWT 131756Z AUTO 00000KT 10SM FEW014 07/03 A3042 RMK AO2 SLP310 T00670033 10067 20006 51013=
202403131743 SPECI KPWT 131743Z AUTO 00000KT 10SM SCT014 07/04 A3042 RMK AO2=
202403131727 SPECI KPWT 131727Z AUTO 00000KT 10SM BKN014 06/03 A3042 RMK AO2=
202403131656 METAR KPWT 131656Z AUTO 00000KT 10SM FEW011 06/04 A3042 RMK AO2 SLP307 T00560039=
202403131648 SPECI KPWT 131648Z AUTO 00000KT 10SM SCT011 06/04 A3042 RMK AO2=
202403131603 SPECI KPWT 131603Z AUTO 00000KT 10SM SCT002 OVC013 03/03 A3040 RMK AO2=
202403131556 METAR KPWT 131556Z AUTO 00000KT 2 1/2SM BR BKN002 OVC013 03/03 A3040 RMK AO2 SLP301 T00280028=
202403131552 SPECI KPWT 131552Z AUTO 00000KT 1SM BR OVC002 03/03 A3040 RMK AO2=
202403131530 SPECI KPWT 131530Z AUTO 00000KT 1/2SM FG OVC002 02/02 A3039 RMK AO2 FZRANO=
202403131524 SPECI KPWT 131524Z AUTO 00000KT 1SM BR BKN002 02/02 A3039 RMK AO2 FZRANO=
202403131519 SPECI KPWT 131519Z AUTO 00000KT 2 1/2SM BR BKN002 BKN065 02/02 A3039 RMK AO2 VIS 1 1/4V5 FZRANO=
202403131512 SPECI KPWT 131512Z AUTO 00000KT 6SM BR SCT002 BKN065 02/02 A3039 RMK AO2 FZRANO=
202403131456 METAR KPWT 131456Z AUTO 20003KT 10SM SCT065 01/01 A3038 RMK AO2 SLP296 T00110011 53015 FZRANO=
202403131356 METAR KPWT 131356Z AUTO 00000KT 10SM SCT016 02/02 A3036 RMK AO2 SLP287 T00220022 FZRANO=
202403131351 SPECI KPWT 131351Z AUTO 00000KT 10SM BKN016 02/02 A3035 RMK AO2 FZRANO=
202403131310 SPECI KPWT 131310Z AUTO 00000KT 10SM BKN014 OVC019 02/02 A3034 RMK AO2 FZRANO=
202403131256 METAR KPWT 131256Z AUTO 00000KT 10SM OVC018 02/02 A3034 RMK AO2 SLP281 T00220022 FZRANO=
202403131247 SPECI KPWT 131247Z AUTO 00000KT 10SM OVC016 02/02 A3033 RMK AO2 FZRANO=
202403131156 METAR KPWT 131156Z AUTO 00000KT 10SM OVC011 02/02 A3031 RMK AO2 SLP272 70006 T00220022 10022 20000 53015 FZRANO=
202403131117 SPECI KPWT 131117Z AUTO 21003KT 10SM BKN011 BKN017 02/02 A3030 RMK AO2 FZRANO=
202403131056 METAR KPWT 131056Z AUTO 00000KT 10SM OVC016 02/02 A3029 RMK AO2 SLP265 T00220022 FZRANO=
202403130956 METAR KPWT 130956Z AUTO 00000KT 10SM OVC010 02/02 A3027 RMK AO2 SLP258 T00220022 FZRANO=
202403130856 METAR KPWT 130856Z AUTO 00000KT 10SM BKN010 02/02 A3027 RMK AO2 SLP257 T00170017 52026 FZRANO=
202403130813 SPECI KPWT 130813Z AUTO 00000KT 10SM SCT012 BKN027 01/01 A3025 RMK AO2 FZRANO=
202403130756 METAR KPWT 130756Z AUTO 00000KT 10SM BKN012 01/01 A3024 RMK AO2 SLP249 T00060006 400940000 FZRANO=
202403130749 SPECI KPWT 130749Z AUTO 00000KT 10SM BKN012 01/01 A3024 RMK AO2 FZRANO=
202403130656 METAR KPWT 130656Z AUTO 20003KT 10SM CLR 01/01 A3022 RMK AO2 SLP241 T00060006 FZRANO=
202403130556 METAR KPWT 130556Z AUTO 19003KT 10SM FEW031 02/02 A3019 RMK AO2 SLP231 T00170017 10083 20006 53029 FZRANO=
202403130456 METAR KPWT 130456Z AUTO 00000KT 10SM FEW031 02/02 A3016 RMK AO2 SLP220 T00220022 FZRANO=
202403130356 METAR KPWT 130356Z AUTO 10003KT 10SM CLR 03/02 A3013 RMK AO2 SLP210 T00330022=
202403130256 METAR KPWT 130256Z AUTO 22008KT 10SM CLR 04/02 A3010 RMK AO2 SLP201 T00440022 51029=
202403130156 METAR KPWT 130156Z AUTO 20007KT 10SM CLR 06/03 A3008 RMK AO2 SLP192 T00610028=
202403130056 METAR KPWT 130056Z AUTO 23009KT 10SM CLR 08/03 A3005 RMK AO2 SLP182 T00830028=
202403122356 METAR KPWT 122356Z AUTO 22013KT 10SM CLR 08/03 A3002 RMK AO2 SLP170 T00830033 10094 20072 53027=
202403122256 METAR KPWT 122256Z AUTO 22018G23KT 10SM CLR 09/03 A2998 RMK AO2 PK WND 24027/2229 SLP157 T00890028=
202403122156 METAR KPWT 122156Z AUTO 22018G29KT 10SM CLR 09/03 A2995 RMK AO2 PK WND 22029/2150 SLP147 T00940028=
202403122056 METAR KPWT 122056Z AUTO 23018G28KT 10SM CLR 08/04 A2994 RMK AO2 PK WND 23028/2052 SLP143 T00830044 51027=
202403121956 METAR KPWT 121956Z AUTO 23018G23KT 10SM CLR 08/04 A2991 RMK AO2 PK WND 23026/1922 SLP132 T00780044=
202403121856 METAR KPWT 121856Z AUTO 21019G26KT 10SM CLR 08/04 A2988 RMK AO2 PK WND 20026/1856 SLP125 T00830044=
202403121756 METAR KPWT 121756Z AUTO 20015G19KT 10SM CLR 07/06 A2985 RMK AO2 SLP115 60006 T00720061 10072 20056 53033=
202403121726 SPECI KPWT 121726Z AUTO 21011KT 10SM FEW009 06/06 A2984 RMK AO2=
202403121656 METAR KPWT 121656Z AUTO 19012KT 10SM FEW120 06/06 A2982 RMK AO2 RAE03 SLP103 P0000 T00560056=
202403121556 METAR KPWT 121556Z AUTO 20013KT 10SM -RA FEW017 06/06 A2978 RMK AO2 RAE25B50 SLP092 P0000 T00560056=
202403121456 METAR KPWT 121456Z AUTO 19009KT 10SM -RA CLR 06/06 A2976 RMK AO2 SLP083 P0001 60006 T00560056 53021=
202403121436 SPECI KPWT 121436Z AUTO 19010G16KT 10SM -RA FEW010 SCT020 SCT029 06/06 A2974 RMK AO2 P0001=
202403121414 SPECI KPWT 121414Z AUTO 20010KT 10SM -RA FEW006 BKN020 OVC046 06/06 A2974 RMK AO2 P0000=
202403121356 METAR KPWT 121356Z AUTO 19009G14KT 10SM -RA FEW006 BKN013 OVC027 06/06 A2973 RMK AO2 RAB39 SLP074 P0001 T00610061=
202403121318 SPECI KPWT 121318Z AUTO 19007KT 10SM FEW008 OVC017 06/06 A2972 RMK AO2=
202403121256 METAR KPWT 121256Z AUTO 19010KT 10SM BKN019 OVC024 06/06 A2970 RMK AO2 RAE44 SLP064 P0004 T00610061=
202403121238 SPECI KPWT 121238Z AUTO 19009G15KT 10SM -RA SCT007 SCT013 OVC023 06/06 A2970 RMK AO2 P0004=
202403121209 SPECI KPWT 121209Z AUTO 20011KT 10SM -RA BKN009 BKN016 OVC025 06/06 A2970 RMK AO2 CIG 005V013 P0002=
202403121156 METAR KPWT 121156Z AUTO 19009KT 8SM -RA FEW009 BKN025 OVC037 06/06 A2969 RMK AO2 SLP060 P0002 60019 7//// T00610061 10067 20061 51006=
202403121131 SPECI KPWT 121131Z AUTO 19009G15KT 10SM -RA FEW007 BKN036 OVC045 06/06 A2968 RMK AO2 P0000=
202403121056 METAR KPWT 121056Z AUTO 18010KT 9SM -RA OVC007 07/07 A2968 RMK AO2 CIG 005V012 SLP054 P0002 T00670067=
202403120956 METAR KPWT 120956Z AUTO 18010G17KT 10SM -RA OVC007 07/07 A2967 RMK AO2 CIG 005V012 SLP054 P0004 T00670067=
202403120909 SPECI KPWT 120909Z AUTO 18010G17KT 10SM -RA OVC007 07/07 A2967 RMK AO2 CIG 005V009 P0001=
202403120856 METAR KPWT 120856Z AUTO 20010G17KT 10SM -RA OVC005 07/07 A2966 RMK AO2 CIG 005V009 SLP050 P0005 60011 T00670067 51016=
202403120756 METAR KPWT 120756Z AUTO 19007G15KT 7SM RA OVC005 07/07 A2965 RMK AO2 SLP046 P0004 T00670067 400720056=
202403120656 METAR KPWT 120656Z AUTO 19011G16KT 10SM -RA OVC005 07/07 A2963 RMK AO2 SLP040 P0002 T00670067=
202403120647 SPECI KPWT 120647Z AUTO 19009G21KT 10SM -RA OVC005 07/07 A2963 RMK AO2 P0002=
202403120556 METAR KPWT 120556Z AUTO 20014G20KT 10SM -RA OVC009 07/07 A2962 RMK AO2 CIG 006V011 SLP035 P0002 60040 T00670067 10067 20056 51013=
202403120552 SPECI KPWT 120552Z AUTO 20014G20KT 10SM -RA OVC009 07/07 A2962 RMK AO2 CIG 007V012 P0001=
202403120533 SPECI KPWT 120533Z AUTO 20014G19KT 10SM OVC013 07/07 A2960 RMK AO2 RAE25 P0001=
202403120456 METAR KPWT 120456Z AUTO 20011G17KT 10SM -RA OVC017 06/06 A2959 RMK AO2 SLP026 P0002 T00610061=
202403120356 METAR KPWT 120356Z AUTO 19008KT 150V220 10SM -RA OVC019 06/06 A2958 RMK AO2 SLPNO P0002 T00610061=
202403120256 METAR KPWT 120256Z AUTO 20010KT 7SM -RA SCT010 OVC016 06/06 A2958 RMK AO2 SLPNO P0009 60034 T00610061 56014=
202403120241 SPECI KPWT 120241Z AUTO 21008G16KT 7SM -RA SCT010 OVC016 06/06 A2959 RMK AO2 P0008=
202403120208 SPECI KPWT 120208Z AUTO 20009G20KT 6SM RA BR BKN010 BKN015 OVC020 06/06 A2960 RMK AO2 CIG 007V013 P0003=
202403120156 METAR KPWT 120156Z AUTO 21010KT 5SM RA BR BKN009 BKN013 OVC020 06/06 A2960 RMK AO2 CIG 007V013 SLPNO P0013 T00610061=
202403120108 SPECI KPWT 120108Z AUTO 22007KT 5SM RA BR SCT007 BKN012 OVC017 06/06 A2960 RMK AO2 P0002=
202403120056 METAR KPWT 120056Z AUTO 21006KT 5SM RA BR FEW006 BKN015 OVC022 07/07 A2961 RMK AO2 SLPNO P0012 T00670067=
202403120054 SPECI KPWT 120054Z AUTO 22008KT 5SM -RA BR FEW006 BKN013 OVC019 07/07 A2961 RMK AO2 P0011=
202403112356 METAR KPWT 112356Z AUTO 20005KT 7SM -RA OVC026 07/07 A2963 RMK AO2 SLPNO P0008 60016 T00670067 10072 20056 56022=
202403112256 METAR KPWT 112256Z AUTO 18007KT 9SM -RA OVC028 07/07 A2965 RMK AO2 SLPNO P0004 T00720067=
202403112209 SPECI KPWT 112209Z AUTO 18007KT 10SM -RA OVC028 07/07 A2966 RMK AO2 P0001=
202403112156 METAR KPWT 112156Z AUTO 19006KT 10SM -RA OVC030 07/07 A2966 RMK AO2 SLPNO P0002 T00720067=
202403112125 SPECI KPWT 112125Z AUTO 10SM -RA BKN030 07/07 A2968 RMK AO2 P0001=
202403112056 METAR KPWT 112056Z AUTO 19004KT 10SM -RA BKN028 OVC034 07/07 A2969 RMK AO2 SLPNO P0002 60002 T00720072 58030=
202403112047 SPECI KPWT 112047Z AUTO 19005KT 10SM -RA BKN028 OVC034 07/07 A2970 RMK AO2 P0002=
202403111956 METAR KPWT 111956Z AUTO 20005KT 10SM -RA BKN030 07/07 A2973 RMK AO2 RAB31 SLPNO P0000 T00670067=
202403111927 SPECI KPWT 111927Z AUTO 21006KT 10SM FEW015 SCT026 BKN036 07/07 A2974 RMK AO2=
202403111856 METAR KPWT 111856Z AUTO 21006KT 10SM FEW009 BKN024 06/06 A2976 RMK AO2 SLPNO T00610061=
202403111756 METAR KPWT 111756Z AUTO 18004KT 10SM SCT007 SCT080 06/06 A2978 RMK AO2 RAB23E43 SLPNO P0000 6//// T00560056=
202403111746 SPECI KPWT 111746Z AUTO 21005KT 10SM SCT007 BKN080 06/06 A2979 RMK AO2 RAB23E43 P0000=
202403111724 SPECI KPWT 111724Z AUTO 20007KT 10SM -RA BKN007 BKN060 06/06 A2980 RMK AO2 RAB23 CIG 005V011 P0000=
202403111656 METAR KPWT 111656Z AUTO VRB04KT 10SM BKN005 OVC041 06/06 A2981 RMK AO2 SLPNO T00560056=
202403111634 SPECI KPWT 111634Z AUTO 20004KT 10SM OVC005 06/06 A2981 RMK AO2=
202403111554 SPECI KPWT 111554Z AUTO 20006KT 10SM BKN007 OVC011 05/05 A2982 RMK AO2 CIG 004V011=
202403111516 SPECI KPWT 111516Z AUTO 18004KT 10SM FEW008 BKN012 BKN035 05/05 A2983 RMK AO2=
202403111456 METAR KPWT 111456Z AUTO 17003KT 10SM FEW010 BKN070 05/05 A2983 RMK AO2 SLP108 60002 T00500050 58008=
202403111447 SPECI KPWT 111447Z AUTO 19007KT 10SM FEW008 BKN070 04/04 A2983 RMK AO2=
202403111440 SPECI KPWT 111440Z AUTO 18005KT 10SM SCT010 SCT039 BKN075 04/04 A2983 RMK AO2=
202403111410 SPECI KPWT 111410Z AUTO 21004KT 10SM FEW010 BKN029 OVC037 04/04 A2984 RMK AO2=
202403111356 METAR KPWT 111356Z AUTO 21005KT 10SM BKN032 04/04 A2985 RMK AO2 SLP115 T00390039=
202403111305 SPECI KPWT 111305Z AUTO 21007KT 10SM SCT010 SCT021 BKN037 04/04 A2984 RMK AO2=
202403111256 METAR KPWT 111256Z AUTO 21005KT 10SM BKN012 BKN016 OVC037 04/04 A2984 RMK AO2 RAE29 SLP111 P0002 T00440044=
202403111227 SPECI KPWT 111227Z AUTO 21010KT 10SM -RA OVC018 04/04 A2985 RMK AO2 P0002=
202403111206 SPECI KPWT 111206Z AUTO 23009G16KT 10SM -RA SCT008 OVC014 04/04 A2985 RMK AO2 P0001=
202403111156 METAR KPWT 111156Z AUTO 24008KT 10SM -RA BKN008 BKN016 OVC021 04/04 A2985 RMK AO2 RAB51 CIG 005V010 SLP116 P0001 60004 70071 T00440044 10061 20044 51005=
202403111126 SPECI KPWT 111126Z AUTO 20007KT 10SM FEW008 BKN024 OVC040 04/04 A2986 RMK AO2=
202403111109 SPECI KPWT 111109Z AUTO 19004KT 10SM FEW008 SCT040 04/04 A2985 RMK AO2=
202403111056 METAR KPWT 111056Z AUTO 20006KT 10SM CLR 04/04 A2985 RMK AO2 RAE29 SLP116 P0000 T00440044=
202403111011 SPECI KPWT 111011Z AUTO 20009KT 10SM -RA SCT029 OVC034 05/05 A2985 RMK AO2 P0000=
202403110956 METAR KPWT 110956Z AUTO 20011KT 10SM -RA FEW009 OVC029 05/04 A2984 RMK AO2 RAB22 SLP113 P0002 T00500044=
202403110948 SPECI KPWT 110948Z AUTO 20011G18KT 7SM -RA FEW009 BKN027 05/05 A2984 RMK AO2 RAB22 P0001=
202403110908 SPECI KPWT 110908Z AUTO 19010KT 10SM FEW009 SCT015 06/06 A2984 RMK AO2=
202403110856 METAR KPWT 110856Z AUTO 20007KT 10SM FEW010 BKN015 06/06 A2984 RMK AO2 SLP111 P0001 60001 T00560056 53012=
202403110836 SPECI KPWT 110836Z AUTO 19009KT 10SM BKN015 BKN020 06/06 A2984 RMK AO2 P0001=
202403110817 SPECI KPWT 110817Z AUTO 20012KT 10SM SCT007 06/06 A2983 RMK AO2=
202403110756 METAR KPWT 110756Z AUTO 21010KT 10SM OVC007 06/06 A2983 RMK AO2 CIG 004V011 SLP108 T00610061 400890044=
202403110656 METAR KPWT 110656Z AUTO 20013KT 10SM OVC007 06/06 A2981 RMK AO2 CIG 005V009 SLP101 T00610061=
202403110636 SPECI KPWT 110636Z AUTO 20012KT 10SM OVC007 06/06 A2981 RMK AO2 CIG 004V010=
202403110556 METAR KPWT 110556Z AUTO 20010KT 10SM BKN005 OVC015 06/06 A2980 RMK AO2 RAE48 CIG 003V010 SLP099 P0001 60015 T00610061 10061 20050 51019=
202403110533 SPECI KPWT 110533Z AUTO 20010KT 10SM -RA SCT005 BKN008 OVC014 06/06 A2980 RMK AO2 CIG 007V010 P0001=
202403110456 METAR KPWT 110456Z AUTO 20009KT 10SM -RA BKN005 06/06 A2979 RMK AO2 RAB55 CIG 003V007 SLP094 P0000 T00560056=
202403110434 SPECI KPWT 110434Z AUTO 21011KT 10SM SCT003 05/05 A2978 RMK AO2=
202403110356 METAR KPWT 110356Z AUTO 22011KT 10SM OVC003 06/06 A2975 RMK AO2 RAE40 SLP079 P0001 T00560056=
202403110256 METAR KPWT 110256Z AUTO 23005KT 6SM -RA BR OVC003 06/06 A2972 RMK AO2 SLP070 P0001 60013 T00560056 53007=
202403110222 SPECI KPWT 110222Z AUTO 24004KT 10SM -RA OVC003 06/06 A2971 RMK AO2 P0000=
202403110207 SPECI KPWT 110207Z AUTO 24004KT 5SM -RA BR OVC005 05/05 A2971 RMK AO2 P0000=
202403110156 METAR KPWT 110156Z AUTO 22004KT 4SM -RA BR OVC003 05/05 A2970 RMK AO2 SLP065 P0006 T00500050=
202403110126 SPECI KPWT 110126Z AUTO 26005KT 8SM -RA OVC003 05/05 A2971 RMK AO2 CIG 003V009 P0005=
202403110113 SPECI KPWT 110113Z AUTO 25004KT 7SM RA BKN005 OVC011 05/05 A2971 RMK AO2 CIG 003V009 P0004=
202403110056 METAR KPWT 110056Z AUTO 22005KT 9SM -RA BKN007 OVC011 05/05 A2970 RMK AO2 CIG 004V009 SLP064 P0006 T00500050=
202403110030 SPECI KPWT 110030Z AUTO 24006KT 9SM -RA BKN009 BKN014 OVC019 05/05 A2970 RMK AO2 CIG 007V011 P0005=
202403110019 SPECI KPWT 110019Z AUTO 24004KT 9SM RA SCT009 BKN014 OVC019 05/05 A2970 RMK AO2 P0003=
202403102356 METAR KPWT 102356Z AUTO 19011G18KT 7SM RA BKN015 OVC021 05/05 A2970 RMK AO2 SLP063 P0017 60035 T00500050 10072 20050 53014=
202403102256 METAR KPWT 102256Z AUTO 20007KT 10SM -RA BKN020 BKN024 OVC029 07/07 A2966 RMK AO2 SLP049 P0001 T00670067=
202403102156 METAR KPWT 102156Z AUTO 20007KT 10SM -RA FEW010 BKN019 OVC026 07/07 A2965 RMK AO2 SLP046 P0005 T00670067=
202403102056 METAR KPWT 102056Z AUTO 20011G15KT 10SM -RA OVC018 06/06 A2966 RMK AO2 RAB30 SLP047 P0001 60012 T00610061 58003=
202403102012 SPECI KPWT 102012Z AUTO 20011G17KT 10SM FEW012 OVC019 07/06 A2966 RMK AO2=
202403101956 METAR KPWT 101956Z AUTO 20013G20KT 10SM BKN013 OVC018 06/06 A2966 RMK AO2 RAE41 SLP051 P0002 T00610061=
202403101922 SPECI KPWT 101922Z AUTO 20007KT 10SM -RA FEW008 OVC015 06/06 A2966 RMK AO2 P0001=
202403101914 SPECI KPWT 101914Z AUTO 20009KT 10SM -RA OVC015 06/06 A2967 RMK AO2 CIG 008V020 P0001=
202403101904 SPECI KPWT 101904Z AUTO 20010G15KT 10SM -RA FEW008 BKN014 OVC019 06/06 A2967 RMK AO2 P0000=
202403101856 METAR KPWT 101856Z AUTO 20008KT 10SM -RA BKN011 OVC016 06/06 A2966 RMK AO2 SLP051 P0009 T00560056=
202403101830 SPECI KPWT 101830Z AUTO 19008G16KT 9SM -RA OVC013 06/06 A2967 RMK AO2 P0006=
202403101756 METAR KPWT 101756Z AUTO 20008KT 10SM -RA OVC017 06/06 A2966 RMK AO2 SLP049 P0007 60017 T00560056 10072 20056 53007=
202403101656 METAR KPWT 101656Z AUTO VRB06KT 10SM -RA OVC019 06/06 A2964 RMK AO2 SLP045 P0005 T00560056=
202403101556 METAR KPWT 101556Z AUTO 20015G18KT 10SM -RA OVC017 06/05 A2964 RMK AO2 RAB42 SLP044 P0001 T00560050=
202403101517 SPECI KPWT 101517Z AUTO 20013G17KT 10SM BKN015 06/05 A2963 RMK AO2=
202403101456 METAR KPWT 101456Z AUTO 20012G21KT 10SM OVC013 06/05 A2964 RMK AO2 RAE19 SLP042 P0000 60004 T00560050 51008=
202403101356 METAR KPWT 101356Z AUTO 20012G19KT 10SM -RA OVC011 06/05 A2963 RMK AO2 RAE06B26 SLP041 P0000 T00560050=
202403101354 SPECI KPWT 101354Z AUTO 20012G19KT 10SM -RA OVC011 06/05 A2963 RMK AO2 RAE06B26 P0000=
202403101342 SPECI KPWT 101342Z AUTO 19012G17KT 10SM -RA OVC009 06/06 A2963 RMK AO2 RAE06B26 CIG 008V012 P0000=
202403101312 SPECI KPWT 101312Z AUTO 20010G16KT 10SM OVC013 06/05 A2961 RMK AO2 RAE06 P0000=
202403101256 METAR KPWT 101256Z AUTO 20014G21KT 10SM -RA BKN015 OVC020 06/05 A2961 RMK AO2 SLP034 P0004 T00560050=
202403101208 SPECI KPWT 101208Z AUTO 20014G22KT 10SM -RA OVC029 07/04 A2958 RMK AO2 P0001=
202403101156 METAR KPWT 101156Z AUTO 19015G23KT 10SM -RA OVC033 07/03 A2957 RMK AO2 RAB34 SLP020 P0000 60000 70010 T00720033 10089 20044 56021=
202403101056 METAR KPWT 101056Z AUTO 19019G30KT 10SM OVC050 08/02 A2958 RMK AO2 PK WND 20030/1056 RAE17 SLP021 P0000 T00830017=
202403100956 METAR KPWT 100956Z AUTO 19015G25KT 10SM -RA OVC048 09/01 A2961 RMK AO2 PK WND 20027/0923 SLP030 P0000 T00890011=
202403100856 METAR KPWT 100856Z AUTO 20008KT 10SM -RA OVC050 08/03 A2964 RMK AO2 RAE22B50 SLP041 P0000 60000 T00780028 56028=
202403100756 METAR KPWT 100756Z AUTO 22003KT 10SM -RA OVC044 04/04 A2966 RMK AO2 RAB01E15B31 SLP049 P0000 T00440044 400890028=
202403100656 METAR KPWT 100656Z AUTO VRB03KT 10SM BKN050 OVC060 04/04 A2969 RMK AO2 SLP059 T00440044=
202403100556 METAR KPWT 100556Z AUTO 00000KT 10SM SCT046 BKN060 05/05 A2972 RMK AO2 RAE26 SLP071 P0000 60004 T00500050 10067 20044 58014=
202403100456 METAR KPWT 100456Z AUTO 20008KT 10SM -RA BKN030 06/04 A2975 RMK AO2 SLP080 P0001 T00560044=
202403100447 SPECI KPWT 100447Z AUTO 21009KT 10SM -RA OVC030 06/04 A2975 RMK AO2 P0001=
202403100425 SPECI KPWT 100425Z AUTO 22005KT 10SM -RA OVC028 05/05 A2976 RMK AO2 P0001=
202403100356 METAR KPWT 100356Z AUTO 21006KT 10SM -RA OVC030 05/04 A2976 RMK AO2 SLP085 P0002 T00500044=
202403100353 SPECI KPWT 100353Z AUTO 21007KT 10SM -RA OVC030 05/04 A2976 RMK AO2 P0002=
202403100256 METAR KPWT 100256Z AUTO 21007KT 10SM -RA BKN028 OVC033 05/04 A2978 RMK AO2 SLP091 P0001 60001 T00500044 50002=
202403100156 METAR KPWT 100156Z AUTO 19010G17KT 10SM -RA FEW030 06/03 A2979 RMK AO2 RAB47 SLP093 P0000 T00610033=
202403100107 SPECI KPWT 100107Z AUTO 21012G16KT 10SM FEW015 SCT023 06/04 A2978 RMK AO2=
202403100056 METAR KPWT 100056Z AUTO 22012KT 10SM FEW013 SCT019 BKN023 06/05 A2978 RMK AO2 PK WND 21029/0005 SLP091 T00610050=
202403100045 SPECI KPWT 100045Z AUTO 23014G21KT 10SM SCT013 SCT017 BKN023 06/05 A2978 RMK AO2 PK WND 21029/0005=
202403092356 METAR KPWT 092356Z AUTO 21016G23KT 10SM SCT024 BKN037 07/05 A2977 RMK AO2 PK WND 23042/2257 RAE12 SLP088 P0000 60005 T00720050 10089 20061 53005=
202403092315 SPECI KPWT 092315Z AUTO 22016G27KT 10SM FEW018 SCT024 SCT120 07/05 A2977 RMK AO2 PK WND 23042/2257 RAE12 P0000=
202403092256 METAR KPWT 092256Z AUTO 22020G33KT 8SM RA SCT020 BKN025 BKN031 07/06 A2977 RMK AO2 PK WND 22033/2256 LTG DSNT NE RAE23B52 SLP088 P0002 T00720056=
202403092230 SPECI KPWT 092230Z AUTO 20014G20KT 10SM FEW016 08/07 A2977 RMK AO2 RAE23 P0001=
202403092211 SPECI KPWT 092211Z AUTO 20013KT 10SM -RA SCT016 SCT022 BKN027 07/07 A2977 RMK AO2 P0001=
202403092156 METAR KPWT 092156Z AUTO 20012KT 10SM -RA FEW025 SCT031 BKN040 08/07 A2976 RMK AO2 SLP084 P0000 T00780072=
202403092127 SPECI KPWT 092127Z AUTO 21015G20KT 10SM -RA FEW016 SCT021 BKN032 08/07 A2976 RMK AO2 P0000=
202403092056 METAR KPWT 092056Z AUTO 19011G18KT 10SM -RA OVC016 08/07 A2976 RMK AO2 RAB06 SLP084 P0002 60003 T00780072 53000=
202403091956 METAR KPWT 091956Z AUTO 19011G19KT 160V220 10SM OVC020 08/07 A2976 RMK AO2 RAE52 SLP083 P0000 T00830067=
202403091856 METAR KPWT 091856Z AUTO 20009KT 10SM -RA OVC024 07/07 A2975 RMK AO2 SLP082 P0001 T00720067=
202403091808 SPECI KPWT 091808Z AUTO 21011KT 10SM BKN028 OVC039 07/06 A2976 RMK AO2 RAE02 P0000=
202403091756 METAR KPWT 091756Z AUTO 21011KT 10SM -RA FEW028 BKN039 BKN050 07/06 A2976 RMK AO2 SLP083 P0001 60001 T00670056 10067 20028 53003=
202403091656 METAR KPWT 091656Z AUTO 22008KT 10SM -RA OVC042 06/04 A2976 RMK AO2 SLP083 P0000 T00560044=
202403091556 METAR KPWT 091556Z AUTO 22003KT 10SM -RA OVC046 05/04 A2975 RMK AO2 SLP080 P0000 T00500044=
202403091456 METAR KPWT 091456Z AUTO 23003KT 10SM -RA FEW060 04/04 A2975 RMK AO2 RAB46 SLP080 P0000 60000 T00440039 56017=
202403091356 METAR KPWT 091356Z AUTO 00000KT 10SM FEW070 SCT095 04/04 A2975 RMK AO2 SLP082 T00390039=
202403091256 METAR KPWT 091256Z AUTO 00000KT 10SM FEW095 03/03 A2977 RMK AO2 SLP087 T00330033=
202403091156 METAR KPWT 091156Z AUTO 00000KT 10SM BKN110 03/03 A2980 RMK AO2 SLP096 T00330033 10044 20028 56022=
202403091056 METAR KPWT 091056Z AUTO 00000KT 10SM CLR 03/03 A2982 RMK AO2 SLP102 T00330033=
202403090956 METAR KPWT 090956Z AUTO 00000KT 10SM CLR 04/04 A2984 RMK AO2 SLP111 T00390039=
202403090856 METAR KPWT 090856Z AUTO 00000KT 10SM CLR 03/03 A2986 RMK AO2 SLP120 T00280028 57024=
202403090756 METAR KPWT 090756Z AUTO 00000KT 10SM CLR 03/03 A2989 RMK AO2 SLP127 T00330033 401060017=
202403090656 METAR KPWT 090656Z AUTO 00000KT 10SM CLR 03/03 A2991 RMK AO2 SLP136 T00330033=
202403090556 METAR KPWT 090556Z AUTO 00000KT 10SM CLR 04/03 A2994 RMK AO2 SLP144 T00390033 10100 20039 56010=
202403090456 METAR KPWT 090456Z AUTO 00000KT 10SM CLR 04/03 A2994 RMK AO2 SLP147 T00390033=
202403090356 METAR KPWT 090356Z AUTO 00000KT 10SM CLR 05/03 A2995 RMK AO2 SLP149 T00500033=
202403090256 METAR KPWT 090256Z AUTO 00000KT 10SM FEW120 06/04 A2997 RMK AO2 SLP155 T00560044 56024=
202403090156 METAR KPWT 090156Z AUTO 00000KT 10SM CLR 08/03 A2998 RMK AO2 SLP160 T00780033=
202403090056 METAR KPWT 090056Z AUTO 23003KT 10SM CLR 09/02 A3000 RMK AO2 SLP166 T00940017=
202403082356 METAR KPWT 082356Z AUTO 24005KT 10SM CLR 10/02 A3004 RMK AO2 SLP177 60000 T01000017 10106 20061 56034=
202403082256 METAR KPWT 082256Z AUTO 22005KT 10SM CLR 10/02 A3006 RMK AO2 SLP187 T01000017=
202403082156 METAR KPWT 082156Z AUTO 25005KT 10SM OVC049 09/02 A3010 RMK AO2 SLP199 T00940022=
202403082056 METAR KPWT 082056Z AUTO 23004KT 10SM OVC041 08/03 A3014 RMK AO2 RAE06 SLP212 P0000 60000 T00830028 58023=
202403081956 METAR KPWT 081956Z AUTO 24006KT 10SM -RA OVC041 08/04 A3017 RMK AO2 RAB1857 SLP225 P0000 T00780039=
202403081856 METAR KPWT 081856Z AUTO 22007KT 10SM CLR 07/03 A3020 RMK AO2 RAB1759E29 SLP232 P0000 T00670033=
202403081756 METAR KPWT 081756Z AUTO 23005KT 10SM CLR 06/03 A3021 RMK AO2 RAE45 SLP234 P0000 60000 T00610033 10061 20017 58006=
202403081656 METAR KPWT 081656Z AUTO 21003KT 10SM -RA CLR 05/02 A3022 RMK AO2 SLP239 P0000 T00500022=
202403081556 METAR KPWT 081556Z AUTO 10SM -RA CLR 04/02 A3022 RMK AO2 RAB31 SLP242 P0000 T00390022=
202403081456 METAR KPWT 081456Z AUTO 00000KT 10SM CLR 03/02 A3022 RMK AO2 SLP242 T00280017 50000=
202403081356 METAR KPWT 081356Z AUTO 00000KT 10SM CLR 02/02 A3022 RMK AO2 SLP242 T00220017 FZRANO=
202403081256 METAR KPWT 081256Z AUTO 00000KT 10SM BKN060 02/01 A3022 RMK AO2 SLP243 T00220011 FZRANO=
202403081156 METAR KPWT 081156Z AUTO 00000KT 10SM FEW060 03/02 A3022 RMK AO2 SLP242 T00280017 10028 20011 58009=
202403081056 METAR KPWT 081056Z AUTO 00000KT 10SM FEW075 02/01 A3024 RMK AO2 SLP246 T00220011 FZRANO=
202403080956 METAR KPWT 080956Z AUTO 00000KT 10SM BKN070 02/01 A3024 RMK AO2 SLP249 T00220011 FZRANO=
202403080856 METAR KPWT 080856Z AUTO 00000KT 10SM CLR 02/01 A3025 RMK AO2 SLP251 T00170006 53003 FZRANO=
202403080756 METAR KPWT 080756Z AUTO 00000KT 10SM CLR 02/01 A3025 RMK AO2 SLP249 T00170006 400831039 FZRANO=
202403080656 METAR KPWT 080656Z AUTO 00000KT 10SM CLR 01/01 A3025 RMK AO2 SLP249 T00110006 FZRANO=
202403080556 METAR KPWT 080556Z AUTO 00000KT 10SM BKN100 01/00 A3024 RMK AO2 SLP249 T00110000 10083 20000 53002 FZRANO=
202403080456 METAR KPWT 080456Z AUTO 00000KT 10SM FEW110 00/M01 A3024 RMK AO2 SLP249 T00001011 FZRANO=
202403080356 METAR KPWT 080356Z AUTO 13004KT 10SM CLR 01/M01 A3023 RMK AO2 SLP246 T00061011 FZRANO=
202403080256 METAR KPWT 080256Z AUTO 00000KT 10SM CLR 02/M01 A3024 RMK AO2 SLP249 T00221006 53005 FZRANO=
202403080156 METAR KPWT 080156Z AUTO 14003KT 10SM CLR 04/M01 A3021 RMK AO2 SLP241 T00441011=
202403080056 METAR KPWT 080056Z AUTO 14004KT 10SM CLR 07/M03 A3023 RMK AO2 SLP243 T00671033=
202403072356 METAR KPWT 072356Z AUTO 18005KT 10SM CLR 08/M02 A3022 RMK AO2 SLP242 T00781017 10083 20044 55002=
202403072256 METAR KPWT 072256Z AUTO 00000KT 10SM FEW042 08/M02 A3022 RMK AO2 SLP241 T00781017=
202403072156 METAR KPWT 072156Z AUTO 00000KT 10SM CLR 07/M02 A3023 RMK AO2 SLP244 T00671022=
202403072056 METAR KPWT 072056Z AUTO VRB03KT 10SM BKN038 08/M01 A3023 RMK AO2 SLP244 T00781006 50003=
202403071956 METAR KPWT 071956Z AUTO VRB03KT 10SM BKN037 06/M01 A3024 RMK AO2 SLP246 T00611006=
202403071856 METAR KPWT 071856Z AUTO 00000KT 10SM FEW024 OVC038 05/00 A3023 RMK AO2 SLP245 T00500000=
202403071832 SPECI KPWT 071832Z AUTO 00000KT 10SM SCT022 BKN033 OVC042 04/01 A3023 RMK AO2=
202403071803 SPECI KPWT 071803Z AUTO 26004KT 10SM BKN020 06/01 A3023 RMK AO2=
202403071756 METAR KPWT 071756Z AUTO VRB03KT 10SM SCT020 06/01 A3022 RMK AO2 SLP241 T00560011 10056 21039 51009=
202403071656 METAR KPWT 071656Z AUTO 23004KT 10SM CLR 03/02 A3022 RMK AO2 SLP239 T00330017=
202403071556 METAR KPWT 071556Z AUTO 00000KT 10SM CLR 01/01 A3021 RMK AO2 SLP238 T00110011 FZRANO=
202403071456 METAR KPWT 071456Z AUTO 00000KT 10SM CLR M03/M03 A3019 RMK AO2 SLP234 T10331033 51013 FZRANO=
202403071356 METAR KPWT 071356Z AUTO 00000KT 5SM BR CLR M03/M03 A3018 RMK AO2 SLP230 T10331033 FZRANO=
202403071256 METAR KPWT 071256Z AUTO 00000KT 10SM CLR M03/M03 A3017 RMK AO2 SLP226 T10331033 FZRANO=
202403071156 METAR KPWT 071156Z AUTO 00000KT 10SM CLR M03/M03 A3016 RMK AO2 SLP220 T10281028 10006 21033 51005 FZRANO=
202403071056 METAR KPWT 071056Z AUTO 00000KT 10SM SCT050 M02/M02 A3015 RMK AO2 SLP219 T10221022 FZRANO=
202403071017 SPECI KPWT 071017Z AUTO 00000KT 10SM BKN050 M02/M02 A3015 RMK AO2 FZRANO=
202403071010 SPECI KPWT 071010Z AUTO 00000KT 2 1/2SM BR SCT050 M02/M02 A3015 RMK AO2 FZRANO=
202403070956 METAR KPWT 070956Z AUTO 00000KT 10SM FEW060 M02/M02 A3015 RMK AO2 SLP218 T10221022 FZRANO=
202403070856 METAR KPWT 070856Z AUTO 00000KT 10SM CLR M02/M02 A3014 RMK AO2 SLP215 T10221022 53005 FZRANO=
202403070756 METAR KPWT 070756Z AUTO 00000KT 10SM SCT060 M01/M01 A3013 RMK AO2 SLP212 T10111011 400611033 FZRANO=
202403070656 METAR KPWT 070656Z AUTO 00000KT 10SM BKN065 M01/M01 A3013 RMK AO2 SLP212 T10061006 FZRANO=
202403070556 METAR KPWT 070556Z AUTO 00000KT 10SM CLR 01/M01 A3013 RMK AO2 SLP209 T00061006 10050 20006 53007 FZRANO=
202403070456 METAR KPWT 070456Z AUTO 00000KT 10SM FEW070 02/00 A3012 RMK AO2 SLP207 T00170000 FZRANO=
202403070356 METAR KPWT 070356Z AUTO 00000KT 10SM FEW055 SCT070 02/01 A3011 RMK AO2 SLP205 T00220006 FZRANO=
202403070256 METAR KPWT 070256Z AUTO 06004KT 10SM CLR 03/01 A3011 RMK AO2 SLP202 T00330011 53005=
202403070156 METAR KPWT 070156Z AUTO 03004KT 10SM SCT070 04/01 A3010 RMK AO2 SLP201 T00390006=
202403070056 METAR KPWT 070056Z AUTO 00000KT 10SM FEW065 05/M03 A3009 RMK AO2 SLP198 T00501028=
202403062356 METAR KPWT 062356Z AUTO 06004KT 10SM OVC065 05/M02 A3009 RMK AO2 SLP198 T00501022 10061 20017 57002=
202403062256 METAR KPWT 062256Z AUTO 00000KT 10SM BKN038 OVC060 06/M02 A3009 RMK AO2 SLP198 T00561017=
202403062156 METAR KPWT 062156Z AUTO VRB03KT 10SM OVC060 06/M01 A3009 RMK AO2 SLP198 T00611011=
202403062056 METAR KPWT 062056Z AUTO 00000KT 10SM OVC060 04/M01 A3010 RMK AO2 SLP199 T00391011 58004=
202403061956 METAR KPWT 061956Z AUTO 22004KT 10SM OVC060 03/01 A3010 RMK AO2 SLP203 T00330006=
202403061856 METAR KPWT 061856Z AUTO 00000KT 10SM OVC060 03/03 A3010 RMK AO2 SLP202 T00280028=
202403061756 METAR KPWT 061756Z AUTO 21003KT 10SM OVC055 02/02 A3011 RMK AO2 SLP204 T00170017 10017 21017 51007 FZRANO=
202403061656 METAR KPWT 061656Z AUTO 00000KT 10SM OVC055 01/01 A3010 RMK AO2 SLP202 T00110011 FZRANO=
202403061556 METAR KPWT 061556Z AUTO 00000KT 10SM FEW032 OVC055 00/00 A3010 RMK AO2 SLP200 T00000000 FZRANO=
202403061456 METAR KPWT 061456Z AUTO 00000KT 10SM OVC050 M01/M01 A3009 RMK AO2 SLP197 T10061006 51005 FZRANO=
202403061356 METAR KPWT 061356Z AUTO 00000KT 10SM SCT035 OVC060 M01/M01 A3008 RMK AO2 SLP194 T10111011 FZRANO=
202403061256 METAR KPWT 061256Z AUTO 00000KT 10SM OVC060 M02/M02 A3008 RMK AO2 SLP193 T10171017 FZRANO=
202403061156 METAR KPWT 061156Z AUTO 00000KT 10SM FEW042 OVC055 M01/M01 A3007 RMK AO2 SLP189 T10111011 11011 21039 58005 FZRANO=
202403061056 METAR KPWT 061056Z AUTO 00000KT 10SM FEW039 BKN055 M02/M02 A3008 RMK AO2 SLP194 T10171017 FZRANO=
202403060956 METAR KPWT 060956Z AUTO 00000KT 10SM OVC055 M01/M01 A3009 RMK AO2 SLP196 T10111011 FZRANO=
202403060856 METAR KPWT 060856Z AUTO 00000KT 10SM OVC050 M02/M02 A3009 RMK AO2 SLP196 T10171017 53007 FZRANO=
202403060756 METAR KPWT 060756Z AUTO 22005KT 10SM CLR M04/M04 A3008 RMK AO2 SLP194 T10391039 400611039 FZRANO=
202403060656 METAR KPWT 060656Z AUTO 00000KT 10SM CLR M03/M03 A3007 RMK AO2 SLP192 T10281028 FZRANO=
202403060556 METAR KPWT 060556Z AUTO 00000KT 10SM CLR M03/M03 A3006 RMK AO2 SLP190 T10281028 10061 21028 52006 FZRANO=
202403060456 METAR KPWT 060456Z AUTO 04003KT 10SM CLR M02/M02 A3006 RMK AO2 SLP186 T10221022 FZRANO=
202403060356 METAR KPWT 060356Z AUTO 00000KT 10SM CLR M02/M02 A3006 RMK AO2 SLP187 T10171017 FZRANO=
202403060256 METAR KPWT 060256Z AUTO 00000KT 10SM CLR M01/M02 A3005 RMK AO2 SLP184 T10061017 53003 FZRANO=
202403060156 METAR KPWT 060156Z AUTO 00000KT 10SM CLR 03/M02 A3003 RMK AO2 SLP178 T00331017=
202403060056 METAR KPWT 060056Z AUTO 03004KT 10SM CLR 04/M01 A3003 RMK AO2 SLP178 T00441011=
202403052356 METAR KPWT 052356Z AUTO 01005KT 10SM OVC035 06/M01 A3004 RMK AO2 SLP179 T00611006 10061 20033 55000=
202403052256 METAR KPWT 052256Z AUTO 03005KT 10SM OVC037 05/M01 A3004 RMK AO2 SLP178 T00501006=
202403052156 METAR KPWT 052156Z AUTO 05007KT 10SM OVC035 06/M01 A3003 RMK AO2 SLP177 T00561006=
202403052056 METAR KPWT 052056Z AUTO VRB05KT 10SM OVC033 06/M01 A3004 RMK AO2 SLP179 T00561006 50000=
202403052045 SPECI KPWT 052045Z AUTO 06005KT 10SM OVC031 05/M01 A3004 RMK AO2=
202403051956 METAR KPWT 051956Z AUTO 05009KT 10SM BKN025 05/M01 A3004 RMK AO2 SLP180 T00501006=
202403051934 SPECI KPWT 051934Z AUTO 06007KT 10SM SCT023 04/00 A3004 RMK AO2=
202403051856 METAR KPWT 051856Z AUTO 03009KT 10SM OVC019 04/01 A3004 RMK AO2 SLP179 T00390006=
202403051826 SPECI KPWT 051826Z AUTO 04009G14KT 10SM BKN017 03/01 A3003 RMK AO2=
202403051756 METAR KPWT 051756Z AUTO 04010KT 10SM SCT017 03/01 A3003 RMK AO2 SLP176 T00330011 10044 21017 51013=
202403051745 SPECI KPWT 051745Z AUTO 04010G17KT 10SM SCT015 03/01 A3003 RMK AO2=
202403051734 SPECI KPWT 051734Z AUTO 05013KT 10SM BKN015 03/01 A3002 RMK AO2=
202403051724 SPECI KPWT 051724Z AUTO 05011KT 10SM BKN013 03/01 A3002 RMK AO2=
202403051656 METAR KPWT 051656Z AUTO 02009KT 10SM CLR 04/03 A3002 RMK AO2 SLP173 T00390033=
202403051556 METAR KPWT 051556Z AUTO 04011KT 10SM CLR 02/02 A3000 RMK AO2 SLP168 T00170017 FZRANO=
202403051456 METAR KPWT 051456Z AUTO 03010KT 10SM FEW055 00/00 A2999 RMK AO2 SLP163 T00000000 51009 FZRANO=
202403051356 METAR KPWT 051356Z AUTO 02006KT 10SM OVC055 00/00 A2998 RMK AO2 SLP161 T00000000 FZRANO=
202403051256 METAR KPWT 051256Z AUTO 03005KT 10SM CLR M01/M01 A2997 RMK AO2 SLP157 T10111011 FZRANO=
202403051156 METAR KPWT 051156Z AUTO 23003KT 10SM CLR M01/M01 A2996 RMK AO2 SLP154 70001 T10111011 10017 21011 53004 FZRANO=
202403051143 SPECI KPWT 051143Z AUTO 00000KT 4SM BR CLR M01/M01 A2995 RMK AO2 FZRANO=
202403051139 SPECI KPWT 051139Z AUTO 00000KT 1 1/4SM BR CLR M01/M01 A2995 RMK AO2 FZRANO=
202403051133 SPECI KPWT 051133Z AUTO 00000KT 3/4SM BR CLR M01/M01 A2995 RMK AO2 VIS 1/2V4 FZRANO=
202403051128 SPECI KPWT 051128Z AUTO 00000KT 1 3/4SM BR CLR M01/M01 A2995 RMK AO2 FZRANO=
202403051106 SPECI KPWT 051106Z AUTO 00000KT 10SM SCT003 SCT060 00/00 A2995 RMK AO2 FZRANO=
202403051056 METAR KPWT 051056Z AUTO 00000KT 9SM BKN003 BKN060 01/01 A2995 RMK AO2 SLP150 T00060006 FZRANO=
202403051042 SPECI KPWT 051042Z AUTO 00000KT 6SM BR OVC003 01/01 A2995 RMK AO2 FZRANO=
202403051035 SPECI KPWT 051035Z AUTO 06003KT 2 1/2SM BR OVC003 01/01 A2996 RMK AO2 VIS 1 1/2V5 FZRANO=
202403051020 SPECI KPWT 051020Z AUTO 07003KT 3SM BR OVC003 01/01 A2996 RMK AO2 FZRANO=
202403051007 SPECI KPWT 051007Z AUTO 07006KT 1 3/4SM BR BKN003 01/01 A2996 RMK AO2 FZRANO=
202403050956 METAR KPWT 050956Z AUTO 06005KT 10SM BKN003 01/01 A2995 RMK AO2 SLP150 T00060006 FZRANO=
202403050920 SPECI KPWT 050920Z AUTO 08005KT 10SM SCT003 01/01 A2995 RMK AO2 FZRANO=
202403050856 METAR KPWT 050856Z AUTO 06003KT 6SM BR OVC003 01/01 A2995 RMK AO2 SLP149 T00060006 51004 FZRANO=
202403050853 SPECI KPWT 050853Z AUTO 05003KT 5SM BR OVC003 01/01 A2995 RMK AO2 FZRANO=
202403050846 SPECI KPWT 050846Z AUTO 03003KT 2SM BR OVC003 01/01 A2995 RMK AO2 VIS 1V4 FZRANO=
202403050837 SPECI KPWT 050837Z AUTO 00000KT 1 3/4SM BR OVC003 01/01 A2995 RMK AO2 VIS 1V5 FZRANO=
202403050756 METAR KPWT 050756Z AUTO 00000KT 10SM OVC003 01/01 A2995 RMK AO2 SLP147 T00110011 400671017 FZRANO=
202403050656 METAR KPWT 050656Z AUTO 10003KT 10SM BKN003 OVC007 01/01 A2994 RMK AO2 SLP145 T00110011 FZRANO=
202403050556 METAR KPWT 050556Z AUTO 05005KT 10SM BKN003 01/01 A2994 RMK AO2 UPE27RAB04E14 SLP146 P0000 60001 T00110011 10033 20011 51002 FZRANO=
202403050552 SPECI KPWT 050552Z AUTO 06005KT 10SM BKN003 01/01 A2994 RMK AO2 UPE27RAB04E14 CIG 002V006 P0000 FZRANO=
202403050527 SPECI KPWT 050527Z AUTO 06005KT 9SM SCT003 01/01 A2994 RMK AO2 UPE27RAB04E14 P0000 FZRANO=
202403050456 METAR KPWT 050456Z AUTO 04005KT 10SM UP CLR 01/01 A2994 RMK AO2 RAB14E32UPB32 SLP148 P0000 T00110011 FZRANO=
202403050356 METAR KPWT 050356Z AUTO 05004KT 10SM CLR 01/01 A2994 RMK AO2 RAE53 SLP145 P0001 T00110011 FZRANO=
202403050332 SPECI KPWT 050332Z AUTO 06004KT 10SM -RA FEW022 SCT028 01/01 A2993 RMK AO2 P0001 FZRANO=
202403050311 SPECI KPWT 050311Z AUTO 00000KT 10SM -RA SCT011 BKN020 OVC026 02/02 A2993 RMK AO2 P0000 FZRANO=
202403050256 METAR KPWT 050256Z AUTO 00000KT 9SM -RA BKN011 BKN020 02/02 A2993 RMK AO2 RAB0158 SLP144 P0000 60000 T00170017 53003 FZRANO=
202403050241 SPECI KPWT 050241Z AUTO 00000KT 10SM -RA BKN013 OVC024 02/01 A2993 RMK AO2 RAB0158 P0000 FZRANO=
202403050228 SPECI KPWT 050228Z AUTO 20003KT 10SM -RA SCT015 BKN024 02/01 A2993 RMK AO2 RAB0158 P0000 FZRANO=
202403050156 METAR KPWT 050156Z AUTO 22004KT 10SM CLR 02/01 A2992 RMK AO2 SLP141 T00220011 FZRANO=
202403050056 METAR KPWT 050056Z AUTO VRB03KT 10SM CLR 03/01 A2992 RMK AO2 SLP138 T00280011=
202403042356 METAR KPWT 042356Z AUTO VRB03KT 10SM CLR 03/02 A2992 RMK AO2 RAE2258 SLP140 P0000 60000 T00280017 10067 20028 58002=
202403042325 SPECI KPWT 042325Z AUTO 28005KT 10SM FEW025 03/01 A2992 RMK AO2 RAE2258 P0000=
202403042256 METAR KPWT 042256Z AUTO 30006KT 10SM -RA SCT012 BKN016 OVC036 03/02 A2993 RMK AO2 RAB28 SLP141 P0000 T00330022=
202403042247 SPECI KPWT 042247Z AUTO 28006KT 10SM -RA BKN012 BKN026 OVC050 03/02 A2993 RMK AO2 RAB28 P0000=
202403042156 METAR KPWT 042156Z AUTO 19009KT 10SM FEW065 04/01 A2992 RMK AO2 SLP139 T00440011=
202403042056 METAR KPWT 042056Z AUTO 19008KT 10SM FEW030 SCT055 06/01 A2993 RMK AO2 SLP141 T00560011 50005=
202403042032 SPECI KPWT 042032Z AUTO 20007KT 10SM FEW026 BKN032 OVC041 06/01 A2993 RMK AO2=
202403041956 METAR KPWT 041956Z AUTO 17008KT 10SM BKN024 BKN030 BKN037 05/01 A2993 RMK AO2 SLP142 T00500011=
202403041856 METAR KPWT 041856Z AUTO VRB05KT 10SM SCT025 06/01 A2992 RMK AO2 SLP138 T00560011=
202403041756 METAR KPWT 041756Z AUTO 19004KT 10SM CLR 04/01 A2991 RMK AO2 SLP136 T00390011 10044 21017 51022=
202403041656 METAR KPWT 041656Z AUTO 18004KT 10SM CLR 02/01 A2989 RMK AO2 SLP130 T00220011 FZRANO=
202403041556 METAR KPWT 041556Z AUTO 00000KT 10SM CLR 02/02 A2987 RMK AO2 SLP122 T00220022 FZRANO=
202403041456 METAR KPWT 041456Z AUTO VRB03KT 10SM CLR M01/M01 A2984 RMK AO2 SLP115 T10111011 53019 FZRANO=
202403041428 SPECI KPWT 041428Z AUTO 18005KT 10SM FEW008 00/00 A2983 RMK AO2 FZRANO=
202403041356 METAR KPWT 041356Z AUTO 17004KT 10SM FEW014 01/01 A2982 RMK AO2 SLP106 T00060006 FZRANO=
202403041317 SPECI KPWT 041317Z AUTO 19005KT 10SM FEW008 01/01 A2981 RMK AO2 FZRANO=
202403041256 METAR KPWT 041256Z AUTO 17003KT 10SM OVC006 01/01 A2981 RMK AO2 CIG 004V010 SLP101 T00110011 FZRANO=
202403041213 SPECI KPWT 041213Z AUTO 19003KT 10SM BKN006 BKN016 BKN120 01/01 A2980 RMK AO2 FZRANO=
202403041204 SPECI KPWT 041204Z AUTO 18004KT 10SM SCT006 BKN016 BKN120 01/01 A2979 RMK AO2 FZRANO=
202403041156 METAR KPWT 041156Z AUTO 18005KT 10SM BKN006 01/01 A2979 RMK AO2 CIG 005V009 SLP094 60000 70031 T00110011 10022 20011 51011 FZRANO=
202403041056 METAR KPWT 041056Z AUTO 22005KT 10SM OVC006 02/02 A2978 RMK AO2 SLP090 T00170017 FZRANO=
202403040956 METAR KPWT 040956Z AUTO 20008KT 10SM OVC006 02/02 A2977 RMK AO2 RAE17 SLP087 P0000 T00170017 FZRANO=
202403040914 SPECI KPWT 040914Z AUTO 21009KT 10SM -RA OVC006 02/02 A2976 RMK AO2 P0000 FZRANO=
202403040856 METAR KPWT 040856Z AUTO 21009KT 10SM -RA OVC004 01/01 A2975 RMK AO2 RAB30 SLP082 P0000 60000 T00110011 52012 FZRANO=
202403040756 METAR KPWT 040756Z AUTO 21009KT 10SM OVC004 02/02 A2974 RMK AO2 SLP080 T00170017 400500006 FZRANO=
202403040656 METAR KPWT 040656Z AUTO 20010G16KT 10SM OVC004 02/02 A2973 RMK AO2 SLP075 T00170017 FZRANO=
202403040646 SPECI KPWT 040646Z AUTO 20009KT 10SM OVC004 02/02 A2973 RMK AO2 FZRANO=
202403040556 METAR KPWT 040556Z AUTO 20012G21KT 10SM OVC006 02/02 A2972 RMK AO2 RAB01E38UPB38E51 CIG 005V010 SLP071 P0000 60003 T00170017 10039 20017 51009 FZRANO=
202403040456 METAR KPWT 040456Z AUTO 20012KT 10SM OVC006 02/02 A2972 RMK AO2 CIG 004V010 SLP070 T00220022 FZRANO=
202403040356 METAR KPWT 040356Z AUTO 19011G16KT 10SM OVC006 02/02 A2970 RMK AO2 RAE51 CIG 004V009 SLP065 P0002 T00220022 FZRANO=
202403040256 METAR KPWT 040256Z AUTO 19009KT 10SM -RA OVC006 02/02 A2969 RMK AO2 CIG 004V008 SLP062 P0001 60001 T00220022 51005 FZRANO=
202403040205 SPECI KPWT 040205Z AUTO 20012KT 10SM -RA BKN008 BKN013 OVC028 03/03 A2969 RMK AO2 P0000=
202403040156 METAR KPWT 040156Z AUTO 20009KT 10SM -RA SCT008 BKN013 BKN028 03/03 A2969 RMK AO2 RAE21B49UPB21E49 SLP061 P0000 T00280028=
202403040148 SPECI KPWT 040148Z AUTO 19010KT 10SM UP SCT008 BKN015 BKN029 02/02 A2969 RMK AO2 RAE21UPB21 P0000 FZRANO=
202403040141 SPECI KPWT 040141Z AUTO 20007KT 10SM UP FEW010 SCT015 BKN029 02/02 A2969 RMK AO2 RAE21UPB21 P0000 FZRANO=
202403040056 METAR KPWT 040056Z AUTO 20010KT 10SM -RA BKN011 OVC024 03/03 A2968 RMK AO2 RAB35 SLP057 P0000 T00330028=
202403040034 SPECI KPWT 040034Z AUTO 20011G16KT 10SM BKN013 04/03 A2968 RMK AO2=
202403040021 SPECI KPWT 040021Z AUTO 20009G15KT 10SM SCT013 BKN020 04/03 A2968 RMK AO2=
202403040007 SPECI KPWT 040007Z AUTO 20011KT 10SM FEW013 SCT020 BKN036 04/03 A2968 RMK AO2=
202403032356 METAR KPWT 032356Z AUTO 20011G17KT 10SM SCT017 BKN022 BKN030 04/02 A2967 RMK AO2 SLP055 60000 T00390022 10050 20011 53002=
202403032354 SPECI KPWT 032354Z AUTO 20012G18KT 10SM FEW014 BKN020 BKN030 04/03 A2967 RMK AO2=
202403032324 SPECI KPWT 032324Z AUTO 20010KT 10SM BKN014 BKN023 BKN028 04/03 A2967 RMK AO2=
202403032316 SPECI KPWT 032316Z AUTO 20012KT 10SM SCT016 BKN023 BKN028 04/02 A2967 RMK AO2=
202403032256 METAR KPWT 032256Z AUTO 20016KT 10SM SCT016 05/03 A2967 RMK AO2 RAE05 SLP052 P0000 T00500028=
202403032232 SPECI KPWT 032232Z AUTO 19011KT 10SM FEW014 04/03 A2966 RMK AO2 RAE05 P0000=
202403032156 METAR KPWT 032156Z AUTO 20012G17KT 10SM -RA BKN014 OVC021 04/03 A2967 RMK AO2 RAB50 SLP053 P0000 T00390028=
202403032056 METAR KPWT 032056Z AUTO 20011G17KT 10SM OVC010 04/03 A2967 RMK AO2 CIG 008V012 SLP054 60000 T00390033 50004=
202403031956 METAR KPWT 031956Z AUTO 20012G18KT 10SM OVC008 03/03 A2967 RMK AO2 SLP056 T00280028=
202403031856 METAR KPWT 031856Z AUTO 19010G20KT 10SM OVC006 02/02 A2967 RMK AO2 RAE40 CIG 005V009 SLP053 P0000 T00220022 FZRANO=
202403031756 METAR KPWT 031756Z AUTO 19009KT 10SM -RA OVC006 01/01 A2966 RMK AO2 RAB14E31B50UPB39E50SNE14 CIG 005V009 SLP051 P0010 60028 T00110011 10017 20006 51017 FZRANO=
202403031656 METAR KPWT 031656Z AUTO 18007KT 9SM -SN OVC006 01/01 A2964 RMK AO2 RAE1557SNB1557 CIG 003V009 SLP046 P0004 T00060006 FZRANO=
202403031648 SPECI KPWT 031648Z AUTO 18006KT 3SM -SN BR OVC004 01/01 A2964 RMK AO2 RAE1557SNB1557 CIG 003V007 P0002 FZRANO=
202403031637 SPECI KPWT 031637Z AUTO 18004KT 1 1/4SM -SN BR OVC004 01/01 A2964 RMK AO2 VIS 3/4V3 RAE1557SNB1557 CIG 003V008 P0001 FZRANO=
202403031628 SPECI KPWT 031628Z AUTO 18006KT 1SM -SN BR OVC004 01/01 A2964 RMK AO2 RAE1557SNB1557 CIG 003V008 P0001 FZRANO=
202403031614 SPECI KPWT 031614Z AUTO 20009KT 1 3/4SM -SN BR BKN004 OVC009 01/01 A2964 RMK AO2 RAE1557SNB1557 P0001 FZRANO=
202403031600 SPECI KPWT 031600Z AUTO 23005KT 1 3/4SM -SN BR OVC006 01/01 A2964 RMK AO2 VIS 1V5 RAE1557SNB1557 CIG 003V011 P0001 FZRANO=
202403031556 METAR KPWT 031556Z AUTO 24007KT 3SM -RA BR OVC008 01/01 A2964 RMK AO2 UPB07E10RAB16E28B53SNE07 CIG 003V011 SLP045 P0003 T00110011 FZRANO=
202403031506 SPECI KPWT 031506Z AUTO 19003KT 9SM -SN OVC006 01/01 A2961 RMK AO2 CIG 003V011 P0002 FZRANO=
202403031456 METAR KPWT 031456Z AUTO 19005KT 2 1/2SM -SN BR OVC006 01/01 A2961 RMK AO2 VIS 1V5 RAE08SNB08 CIG 003V008 SLP035 P0006 60011 T00060006 53007 FZRANO=
202403031453 SPECI KPWT 031453Z AUTO 19007KT 2 1/2SM -SN BR OVC006 01/01 A2961 RMK AO2 VIS 1V5 RAE08SNB08 CIG 003V008 P0006 FZRANO=
202403031439 SPECI KPWT 031439Z AUTO 18006KT 3SM -SN BR BKN004 OVC010 01/01 A2961 RMK AO2 RAE08SNB08 CIG 003V007 P0006 FZRANO=
202403031433 SPECI KPWT 031433Z AUTO 19005KT 2 1/2SM -SN BR OVC006 01/01 A2960 RMK AO2 VIS 1 1/4V5 RAE08SNB08 CIG 004V008 P0005 FZRANO=
202403031356 METAR KPWT 031356Z AUTO 19007KT 9SM -RA OVC008 01/01 A2960 RMK AO2 RAE29B56UPB17E21SNB29E56 CIG 005V011 SLP030 P0003 T00110011 FZRANO=
202403031256 METAR KPWT 031256Z AUTO 19006KT 10SM -RA BKN008 OVC014 01/01 A2959 RMK AO2 SLP027 P0002 T00110011 FZRANO=
202403031254 SPECI KPWT 031254Z AUTO 20008KT 10SM -RA BKN008 OVC014 01/01 A2959 RMK AO2 P0002 FZRANO=
202403031159 SPECI KPWT 031159Z AUTO 19004KT 10SM -RA FEW009 BKN014 OVC055 01/01 A2958 RMK AO2 P0000 FZRANO=
202403031156 METAR KPWT 031156Z AUTO 18005KT 10SM -RA SCT011 BKN022 OVC055 01/01 A2958 RMK AO2 UPB27E37 SLP023 P0000 60001 70049 T00110011 10017 20006 58001 FZRANO=
202403031116 SPECI KPWT 031116Z AUTO 20007KT 10SM -RA BKN013 BKN026 01/01 A2958 RMK AO2 P0000 FZRANO=
202403031056 METAR KPWT 031056Z AUTO 20007KT 10SM -RA SCT028 02/02 A2958 RMK AO2 UPE01RAB01E02B43 SLP024 P0000 T00170017 FZRANO=
202403031051 SPECI KPWT 031051Z AUTO 20007KT 10SM -RA SCT028 02/02 A2958 RMK AO2 UPE01RAB01E02B43 P0000 FZRANO=
202403031037 SPECI KPWT 031037Z AUTO 19007KT 10SM BKN028 02/02 A2958 RMK AO2 UPE01RAB01E02 P0000 FZRANO=
202403030956 METAR KPWT 030956Z AUTO 20006KT 10SM UP FEW016 BKN033 02/02 A2958 RMK AO2 RAE0858UPB43 SLP024 P0000 T00170017 FZRANO=
202403030856 METAR KPWT 030856Z AUTO 20005KT 10SM -RA FEW016 01/01 A2957 RMK AO2 SLP022 P0001 60001 T00110011 51004 FZRANO=
202403030854 SPECI KPWT 030854Z AUTO 19005KT 10SM -RA FEW016 SCT028 01/01 A2957 RMK AO2 P0001 FZRANO=
202403030803 SPECI KPWT 030803Z AUTO 22006KT 10SM -RA FEW012 BKN017 OVC050 01/01 A2958 RMK AO2 P0000 FZRANO=
202403030756 METAR KPWT 030756Z AUTO 22003KT 10SM -RA FEW019 BKN038 OVC050 01/01 A2957 RMK AO2 RAE27B50 SLP022 P0000 T00110011 400500000 FZRANO=
202403030656 METAR KPWT 030656Z AUTO 22004KT 10SM -RA FEW023 SCT036 BKN043 01/01 A2956 RMK AO2 SLP017 P0000 T00110011 FZRANO=
202403030642 SPECI KPWT 030642Z AUTO 20006KT 10SM -RA FEW021 SCT029 BKN036 01/01 A2956 RMK AO2 P0000 FZRANO=
202403030621 SPECI KPWT 030621Z AUTO 20007KT 10SM -RA SCT021 BKN029 BKN038 01/01 A2956 RMK AO2 P0000 FZRANO=
202403030611 SPECI KPWT 030611Z AUTO 19004KT 10SM -RA SCT025 SCT031 01/01 A2956 RMK AO2 P0000 FZRANO=
202403030556 METAR KPWT 030556Z AUTO 21004KT 10SM -RA BKN025 01/01 A2956 RMK AO2 RAE10B54 SLP018 P0001 60025 T00060006 10022 20000 51004 FZRANO=
202403030548 SPECI KPWT 030548Z AUTO 21004KT 10SM BKN025 01/01 A2956 RMK AO2 RAE10 P0001 FZRANO=
202403030456 METAR KPWT 030456Z AUTO 19003KT 10SM -RA SCT007 SCT011 01/01 A2956 RMK AO2 RAB0357SNE0357B23E53 SLP016 P0001 T00110011 FZRANO=
202403030356 METAR KPWT 030356Z AUTO 18007KT 160V220 9SM -SN OVC007 01/01 A2956 RMK AO2 RAB15E24SNB24 CIG 004V012 SLP016 P0003 T00060006 FZRANO=
202403030343 SPECI KPWT 030343Z AUTO 20007KT 6SM -SN BR BKN005 OVC010 01/01 A2956 RMK AO2 RAB15E24SNB24 CIG 004V008 P0002 FZRANO=
202403030328 SPECI KPWT 030328Z AUTO 20008KT 9SM -SN BKN007 OVC014 01/01 A2956 RMK AO2 RAB15E24SNB24 CIG 005V009 P0001 FZRANO=
202403030320 SPECI KPWT 030320Z AUTO 20006KT 10SM -RA BKN011 BKN016 01/01 A2956 RMK AO2 RAB15 CIG 008V012 P0001 FZRANO=
202403030313 SPECI KPWT 030313Z AUTO 21005KT 10SM BKN015 BKN033 01/01 A2956 RMK AO2 P0001 FZRANO=
202403030256 METAR KPWT 030256Z AUTO 19007KT 10SM FEW004 SCT020 BKN032 01/01 A2955 RMK AO2 UPB16E21RAB44E56SNE16B21E44 SLP014 P0007 60020 T00060006 53013 FZRANO=
202403030252 SPECI KPWT 030252Z AUTO 19007KT 10SM -RA FEW006 BKN032 OVC045 01/01 A2955 RMK AO2 UPB16E21RAB44SNE16B21E44 P0007 FZRANO=
202403030242 SPECI KPWT 030242Z AUTO 19007KT 9SM -SN FEW004 BKN011 BKN020 01/01 A2955 RMK AO2 UPB16E21SNE16B21 P0007 FZRANO=
202403030208 SPECI KPWT 030208Z AUTO 21004KT 3SM -SN BR BKN007 BKN027 00/00 A2954 RMK AO2 CIG 003V010 P0001 FZRANO=
202403030203 SPECI KPWT 030203Z AUTO 19003KT 1 1/2SM -SN BR OVC007 01/01 A2954 RMK AO2 VIS 3/4V4 CIG 003V011 P0001 FZRANO=
202403030156 METAR KPWT 030156Z AUTO 21006KT 1SM -SN BR OVC007 01/01 A2954 RMK AO2 UPE0058RAB04E38SNB38 CIG 004V012 SLP011 P0005 T00060006 FZRANO=
202403030149 SPECI KPWT 030149Z AUTO 24009KT 1SM -SN BR BKN007 OVC013 01/01 A2954 RMK AO2 UPE0058RAB04E38SNB38 CIG 004V009 P0005 FZRANO=
202403030144 SPECI KPWT 030144Z AUTO 23012KT 2 1/2SM -SN BR BKN007 OVC013 01/01 A2954 RMK AO2 UPE0058RAB04E38SNB38 CIG 004V009 P0004 FZRANO=
202403030127 SPECI KPWT 030127Z AUTO 21011KT 10SM -RA FEW009 BKN014 BKN020 02/02 A2953 RMK AO2 UPE0058RAB04 P0001 FZRANO=
202403030110 SPECI KPWT 030110Z AUTO 00000KT 10SM -RA FEW006 SCT016 BKN030 01/01 A2952 RMK AO2 UPE0058RAB04 P0001 FZRANO=
202403030103 SPECI KPWT 030103Z AUTO 00000KT 10SM FEW008 SCT016 BKN021 01/01 A2952 RMK AO2 UPE0058 P0001 FZRANO=
202403030056 METAR KPWT 030056Z AUTO 00000KT 10SM UP FEW004 BKN014 OVC019 01/01 A2952 RMK AO2 RAE19B40E52UPB19 SLP003 P0008 T00110011 FZRANO=
202403022356 METAR KPWT 022356Z AUTO 20007KT 8SM -RA BKN007 OVC014 03/03 A2951 RMK AO2 CIG 006V011 SLP999 P0001 60016 T00280028 10050 20017 51011=
202403022256 METAR KPWT 022256Z AUTO 20008KT 10SM -RA OVC007 02/02 A2950 RMK AO2 RAE39B55UPB50E55 SLP997 P0001 T00220022 FZRANO=
202403022236 SPECI KPWT 022236Z AUTO 19009KT 10SM -RA BKN007 OVC013 02/02 A2950 RMK AO2 P0001 FZRANO=
202403022214 SPECI KPWT 022214Z AUTO 20009KT 10SM -RA FEW007 BKN013 OVC022 02/02 A2950 RMK AO2 P0000 FZRANO=
202403022205 SPECI KPWT 022205Z AUTO 21012KT 10SM -RA BKN015 OVC021 02/02 A2950 RMK AO2 P0000 FZRANO=
202403022156 METAR KPWT 022156Z AUTO 20011KT 10SM -RA BKN013 BKN018 OVC023 03/02 A2950 RMK AO2 RAE08B44 SLP994 P0002 T00280022=
202403022145 SPECI KPWT 022145Z AUTO 22012KT 10SM -RA FEW016 BKN022 BKN036 03/02 A2949 RMK AO2 RAE08B44 P0002=
202403022113 SPECI KPWT 022113Z AUTO 23006KT 10SM FEW018 SCT022 03/03 A2948 RMK AO2 RAE08 P0002=
202403022056 METAR KPWT 022056Z AUTO 22004KT 10SM -RA BKN017 BKN026 02/02 A2948 RMK AO2 RAE12B37SNB12E37 SLP989 P0012 60012 T00220022 51023 FZRANO=
202403022025 SPECI KPWT 022025Z AUTO 23005KT 4SM -SN BR BKN020 BKN029 02/01 A2947 RMK AO2 RAE12SNB12 P0003 FZRANO=
202403022010 SPECI KPWT 022010Z AUTO 28004KT 2 1/2SM -RA BR FEW015 SCT021 BKN029 02/02 A2947 RMK AO2 VIS 1 1/4V5 P0002 FZRANO=
202403021956 METAR KPWT 021956Z AUTO 17004KT 10SM -RA FEW018 SCT035 BKN049 02/02 A2946 RMK AO2 RAB26 SLP984 P0000 T00220017 FZRANO=
202403021908 SPECI KPWT 021908Z AUTO 23013KT 10SM BKN016 BKN021 04/02 A2944 RMK AO2=
202403021856 METAR KPWT 021856Z AUTO 22011KT 10SM BKN014 04/03 A2944 RMK AO2 SLP974 T00440028=
202403021843 SPECI KPWT 021843Z AUTO 22011KT 10SM BKN014 BKN022 04/03 A2943 RMK AO2=
202403021833 SPECI KPWT 021833Z AUTO 22012G19KT 10SM SCT014 BKN018 BKN026 04/02 A2943 RMK AO2=
202403021756 METAR KPWT 021756Z AUTO 20012G19KT 10SM FEW016 04/03 A2941 RMK AO2 SLP965 60007 T00390028 10044 20006 53029=
202403021737 SPECI KPWT 021737Z AUTO 20014G20KT 10SM SCT007 04/04 A2940 RMK AO2=
202403021727 SPECI KPWT 021727Z AUTO 20015G21KT 10SM BKN007 03/03 A2939 RMK AO2 CIG 005V009=
202403021656 METAR KPWT 021656Z AUTO 20012KT 10SM BKN005 02/02 A2938 RMK AO2 SLP955 T00170017 FZRANO=
202403021556 METAR KPWT 021556Z AUTO 20013KT 10SM OVC005 01/01 A2935 RMK AO2 SLP945 T00110011 FZRANO=
202403021456 METAR KPWT 021456Z AUTO 21010KT 10SM BKN005 OVC011 01/01 A2932 RMK AO2 RAB06E28SNE06 CIG 003V008 SLP937 P0000 60007 T00110011 53013 FZRANO=
202403021429 SPECI KPWT 021429Z AUTO 20009KT 10SM BKN003 01/01 A2932 RMK AO2 RAB06E28SNE06 P0000 FZRANO=
202403021356 METAR KPWT 021356Z AUTO 20005KT 8SM -SN BKN005 OVC017 01/01 A2931 RMK AO2 RAE24B51E54SNB24 CIG 003V008 SLP931 P0006 T00060006 FZRANO=
202403021341 SPECI KPWT 021341Z AUTO 21004KT 6SM -SN BR BKN005 BKN013 OVC018 01/01 A2931 RMK AO2 RAE24SNB24 CIG 003V008 P0004 FZRANO=
202403021334 SPECI KPWT 021334Z AUTO 23007KT 4SM -SN BR SCT007 BKN013 OVC018 01/01 A2930 RMK AO2 RAE24SNB24 P0004 FZRANO=
202403021256 METAR KPWT 021256Z AUTO 23011KT 7SM -RA BKN005 BKN011 OVC020 02/02 A2930 RMK AO2 RAB09E22B43UPB38E43 CIG 003V007 SLP926 P0001 T00220022 FZRANO=
202403021245 SPECI KPWT 021245Z AUTO 23007KT 10SM -RA BKN005 OVC009 03/03 A2929 RMK AO2 RAB09E22B43UPB38E43 CIG 003V008 P0000=
202403021238 SPECI KPWT 021238Z AUTO 22006KT 10SM UP SCT005 OVC009 02/02 A2929 RMK AO2 RAB09E22UPB38 CIG 009V013 P0000 FZRANO=
202403021156 METAR KPWT 021156Z AUTO 19005KT 10SM BKN013 OVC040 02/02 A2928 RMK AO2 RAE30 SLP921 P0000 60000 70025 T00220022 10028 20011 53002 FZRANO=
202403021147 SPECI KPWT 021147Z AUTO 18004KT 10SM BKN013 OVC040 02/02 A2928 RMK AO2 RAE30 P0000 FZRANO=
202403021056 METAR KPWT 021056Z AUTO 19004KT 10SM -RA OVC021 02/02 A2927 RMK AO2 SLP918 P0000 T00220022 FZRANO=
202403020956 METAR KPWT 020956Z AUTO 00000KT 10SM -RA BKN017 OVC021 02/02 A2927 RMK AO2 SLP919 P0000 T00220022 FZRANO=
202403020925 SPECI KPWT 020925Z AUTO 00000KT 10SM -RA BKN022 OVC030 02/02 A2928 RMK AO2 P0000 FZRANO=
202403020856 METAR KPWT 020856Z AUTO 11003KT 10SM -RA BKN032 OVC040 02/02 A2928 RMK AO2 RAE10B55 SLP921 P0000 60000 T00170017 56012 FZRANO=
202403020756 METAR KPWT 020756Z AUTO 05005KT 10SM -RA FEW033 BKN055 02/02 A2928 RMK AO2 RAB17 SLP921 P0000 T00220022 400500000 FZRANO=
202403020656 METAR KPWT 020656Z AUTO 36003KT 10SM FEW060 02/02 A2928 RMK AO2 SLP923 T00170017 FZRANO=
202403020556 METAR KPWT 020556Z AUTO 00000KT 10SM CLR 01/01 A2931 RMK AO2 SLP932 60000 T00110011 10044 20000 56029 FZRANO=
202403020456 METAR KPWT 020456Z AUTO 35004KT 10SM FEW100 02/02 A2933 RMK AO2 SLP939 T00170017 FZRANO=
202403020356 METAR KPWT 020356Z AUTO 03006KT 9SM BKN110 01/01 A2936 RMK AO2 SLP948 T00110011 FZRANO=
202403020256 METAR KPWT 020256Z AUTO 04003KT 10SM CLR 00/00 A2940 RMK AO2 SLP963 60000 T00000000 58025 FZRANO=
202403020156 METAR KPWT 020156Z AUTO 31003KT 10SM CLR 03/03 A2943 RMK AO2 SLP973 T00280028=
202403020056 METAR KPWT 020056Z AUTO 20004KT 10SM SCT013 SCT021 BKN045 03/03 A2946 RMK AO2 RAB2357E25 SLP983 P0000 T00330033=
202403020035 SPECI KPWT 020035Z AUTO 20006KT 10SM FEW012 BKN033 OVC045 04/03 A2947 RMK AO2 RAB2357E25 P0000=
202403020022 SPECI KPWT 020022Z AUTO 18007KT 10SM -RA FEW009 BKN016 OVC047 04/03 A2947 RMK AO2 RAB2357 P0000=
202403012356 METAR KPWT 012356Z AUTO 17009KT 10SM BKN016 05/03 A2947 RMK AO2 SLP986 60014 T00500028 10050 20022 58002=
202403012342 SPECI KPWT 012342Z AUTO 19007KT 10SM BKN014 BKN027 BKN034 05/04 A2947 RMK AO2=
202403012306 SPECI KPWT 012306Z AUTO 20009G15KT 10SM SCT012 SCT026 BKN046 05/04 A2947 RMK AO2=
202403012256 METAR KPWT 012256Z AUTO 18007KT 10SM SCT012 BKN024 OVC044 04/04 A2948 RMK AO2 SLP990 T00440039=
202403012247 SPECI KPWT 012247Z AUTO 21011KT 10SM BKN012 BKN022 BKN030 04/03 A2949 RMK AO2=
202403012156 METAR KPWT 012156Z AUTO 19013G18KT 10SM BKN009 04/04 A2947 RMK AO2 RAE40 CIG 006V014 SLP987 P0003 T00390039=
202403012056 METAR KPWT 012056Z AUTO 21007KT 8SM RA OVC006 02/02 A2948 RMK AO2 SLP990 P0005 60011 T00220022 55005 FZRANO=
202403011956 METAR KPWT 011956Z AUTO 00000KT 9SM -RA BKN006 OVC013 02/02 A2948 RMK AO2 CIG 005V010 SLP990 P0005 T00220022 FZRANO=
202403011922 SPECI KPWT 011922Z AUTO 21007KT 10SM -RA BKN008 OVC016 03/03 A2949 RMK AO2 CIG 007V010 P0001=
202403011856 METAR KPWT 011856Z AUTO 20007KT 8SM -RA BKN013 OVC017 03/03 A2949 RMK AO2 SLP995 P0001 T00280028=
202403011853 SPECI KPWT 011853Z AUTO 22007KT 9SM -RA BKN012 BKN017 OVC022 03/03 A2949 RMK AO2 P0001=
202403011836 SPECI KPWT 011836Z AUTO 20007KT 10SM -RA FEW014 BKN022 03/03 A2949 RMK AO2 P0000=
202403011756 METAR KPWT 011756Z AUTO 21007KT 10SM -RA FEW031 03/03 A2949 RMK AO2 RAB13E24B54 SLP993 P0000 60011 T00330033 10033 20006 58005=
202403011656 METAR KPWT 011656Z AUTO 20008KT 10SM SCT047 SCT060 03/03 A2949 RMK AO2 UPE03 SLP995 P0000 T00280028=
202403011607 SPECI KPWT 011607Z AUTO 19006KT 10SM FEW017 SCT029 BKN037 02/02 A2951 RMK AO2 UPE03 P0000 FZRANO=
202403011556 METAR KPWT 011556Z AUTO 19010G17KT 10SM UP SCT012 BKN019 BKN029 02/02 A2951 RMK AO2 RAE49UPB49 SLP000 P0001 T00170017 FZRANO=
202403011456 METAR KPWT 011456Z AUTO 19008KT 10SM -RA SCT007 OVC014 01/01 A2951 RMK AO2 RAE08B43SNB08E43 SLP999 P0007 60010 T00060006 53003 FZRANO=
202403011410 SPECI KPWT 011410Z AUTO 20010G18KT 6SM -SN BR BKN009 OVC015 01/01 A2951 RMK AO2 RAE08SNB08 CIG 006V011 P0003 FZRANO=
202403011356 METAR KPWT 011356Z AUTO 20011G17KT 10SM -RA FEW009 OVC015 02/02 A2950 RMK AO2 SLP996 P0001 T00170017 FZRANO=
202403011256 METAR KPWT 011256Z AUTO 19009KT 10SM -RA SCT007 OVC013 02/02 A2950 RMK AO2 SLP996 P0002 T00170017 FZRANO=
202403011244 SPECI KPWT 011244Z AUTO 19007KT 10SM -RA BKN007 BKN012 OVC018 02/02 A2950 RMK AO2 CIG 006V010 P0002 FZRANO=
202403011156 METAR KPWT 011156Z AUTO 18011G16KT 10SM -RA OVC010 02/02 A2950 RMK AO2 RAE1058B55 CIG 008V013 SLP994 P0000 60018 70035 T00220022 10022 20006 50002 FZRANO=
202403011128 SPECI KPWT 011128Z AUTO 19009G16KT 10SM OVC012 02/02 A2950 RMK AO2 RAE1058 P0000 FZRANO=
202403011056 METAR KPWT 011056Z AUTO 19009KT 10SM -RA OVC007 02/02 A2950 RMK AO2 CIG 006V010 SLP995 P0002 T00170017 FZRANO=
202403010956 METAR KPWT 010956Z AUTO 18010G16KT 10SM -RA OVC007 02/02 A2951 RMK AO2 RAE09B32SNB09E32 CIG 005V013 SLP998 P0009 T00170017 FZRANO=
202403010856 METAR KPWT 010856Z AUTO 19013G16KT 10SM -RA OVC009 02/02 A2949 RMK AO2 CIG 006V012 SLP993 P0000 60007 T00220022 53005 FZRANO=
202403010756 METAR KPWT 010756Z AUTO 19009G18KT 10SM -RA OVC007 02/02 A2948 RMK AO2 UPE09RAB09 SLP987 P0007 T00170017 400440000 FZRANO=
202403010746 SPECI KPWT 010746Z AUTO 19010G17KT 10SM RA BKN007 OVC011 02/02 A2948 RMK AO2 UPE09RAB09 P0005 FZRANO=
202403010731 SPECI KPWT 010731Z AUTO 19009G15KT 10SM RA BKN010 OVC016 02/02 A2947 RMK AO2 UPE09RAB09 CIG 007V012 P0002 FZRANO=
202403010656 METAR KPWT 010656Z AUTO 18009KT 10SM UP BKN018 BKN027 02/02 A2947 RMK AO2 UPB54 SLP985 P0000 T00170017 FZRANO=
202403010556 METAR KPWT 010556Z AUTO 18007KT 10SM BKN017 BKN021 OVC046 01/01 A2947 RMK AO2 RAB00E09SNE00 SLP988 P0002 60016 T00060006 10039 20000 55004 FZRANO=
202403010525 SPECI KPWT 010525Z AUTO 19004KT 10SM FEW005 SCT013 BKN017 01/01 A2947 RMK AO2 RAB00E09SNE00 P0002 FZRANO=
202403010517 SPECI KPWT 010517Z AUTO 00000KT 10SM SCT007 BKN014 OVC019 01/01 A2947 RMK AO2 RAB00E09SNE00 P0001 FZRANO=
202403010511 SPECI KPWT 010511Z AUTO 00000KT 10SM BKN005 BKN009 OVC014 01/01 A2947 RMK AO2 RAB00E09SNE00 CIG 003V008 P0001 FZRANO=
202403010503 SPECI KPWT 010503Z AUTO 00000KT 10SM -RA FEW005 OVC012 01/01 A2947 RMK AO2 RAB00SNE00 P0001 FZRANO=
202403010456 METAR KPWT 010456Z AUTO 00000KT 7SM -SN OVC011 01/01 A2947 RMK AO2 CIG 005V014 SLP987 P0008 T00060006 FZRANO=
202403010444 SPECI KPWT 010444Z AUTO 21003KT 4SM -SN BR OVC011 00/00 A2947 RMK AO2 P0006 FZRANO=
202403010437 SPECI KPWT 010437Z AUTO 20005KT 2 1/2SM -SN BR OVC011 00/00 A2948 RMK AO2 VIS 2V4 P0004 FZRANO=
202403010423 SPECI KPWT 010423Z AUTO 22004KT 4SM -SN BR OVC011 00/00 A2948 RMK AO2 P0002 FZRANO=
202403010403 SPECI KPWT 010403Z AUTO 20007KT 2SM -SN BR FEW004 OVC011 01/01 A2948 RMK AO2 VIS 1 1/4V4 CIG 007V013 P0000 FZRANO=
202403010356 METAR KPWT 010356Z AUTO 19006KT 3SM -SN BR SCT004 OVC011 01/01 A2948 RMK AO2 RAE24SNB24 SLP990 P0004 T00060006 FZRANO=
202403010256 METAR KPWT 010256Z AUTO 18010KT 10SM -RA OVC004 02/02 A2949 RMK AO2 RAB22 SLP993 P0001 60002 T00170017 53002 FZRANO=
202403010209 SPECI KPWT 010209Z AUTO 19009KT 10SM BKN004 02/02 A2948 RMK AO2 CIG 004V009 FZRANO=
202403010156 METAR KPWT 010156Z AUTO 19008KT 10SM BKN006 02/02 A2948 RMK AO2 RAE34UPB34E40 CIG 004V008 SLP989 P0001 T00170017 FZRANO=
202403010134 SPECI KPWT 010134Z AUTO 19008KT 10SM UP BKN006 02/02 A2948 RMK AO2 RAE34UPB34 P0001 FZRANO=
202403010111 SPECI KPWT 010111Z AUTO 19007KT 10SM -RA SCT008 BKN017 BKN022 02/02 A2948 RMK AO2 P0001 FZRANO=
202403010056 METAR KPWT 010056Z AUTO 20009KT 10SM -RA BKN008 BKN014 BKN019 03/03 A2949 RMK AO2 RAE05B46UPB42E46 SLP992 P0000 T00280028=
202403010039 SPECI KPWT 010039Z AUTO 20008KT 10SM BKN008 03/03 A2949 RMK AO2 RAE05 CIG 007V011 P0000=
202403010034 SPECI KPWT 010034Z AUTO 19012KT 10SM SCT010 03/03 A2949 RMK AO2 RAE05 P0000=

# No short TAF reports from KPWT in databse.

###################################
#  large TAF from KPWT
###################################
202403312320 TAF KPWT 312320Z 0100/0124 02008KT P6SM SCT200 FM010500 VRB04KT
                       P6SM SCT200 FM011600 21004KT P6SM BKN050
                       FM011900 24006KT P6SM SCT200=
202403311720 TAF KPWT 311720Z 3118/0118 02008KT P6SM SCT200 FM010500 17006KT
                       P6SM SCT200 FM011600 21004KT P6SM BKN050=
202403311138 TAF KPWT 311138Z 3112/0112 02006KT P6SM SCT200 FM010500 17006KT
                       P6SM SCT200=
202403310520 TAF KPWT 310520Z 3106/0106 03006KT P6SM SCT050 FM311200 02003KT
                       P6SM BKN250 FM312100 04008KT P6SM SKC=
202403302320 TAF KPWT 302320Z 3100/3124 05008KT P6SM SKC FM311200 00000KT P6SM
                       SKC FM312100 04010KT P6SM SKC=
202403301720 TAF KPWT 301720Z 3018/3118 03007KT P6SM FEW250=
202403301122 TAF KPWT 301122Z 3012/3112 04010KT P6SM SKC FM310300 02006KT P6SM
                       SKC=
202403300520 TAF KPWT 300520Z 3006/3106 06008KT P6SM SKC FM300800 04006KT P6SM
                       SKC FM301700 05011KT P6SM SCT250 FM310300
                       05004KT P6SM BKN250=
202403292320 TAF KPWT 292320Z 3000/3024 03008KT P6SM BKN050 FM300100 03012KT
                       P6SM BKN200 FM300800 04006KT P6SM SKC FM301700
                       05011KT P6SM SCT250=
202403291720 TAF KPWT 291720Z 2918/3018 VRB03KT P6SM SCT020 BKN035 BKN050 FM292100
                       03008KT P6SM BKN050 FM300000 03012KT P6SM
                       BKN200 FM300800 04006KT P6SM SKC=
202403291132 TAF KPWT 291132Z 2912/3012 19006KT P6SM -SHRA OVC011 FM291500 19006KT
                       P6SM SCT011 BKN020 OVC035 FM291800 VRB03KT
                       P6SM SCT020 BKN035 BKN050 FM292100 03008KT
                       P6SM BKN050 FM300000 03012KT P6SM BKN200
                       FM300600 03006KT P6SM SKC=
202403290520 TAF KPWT 290520Z 2906/3006 18007KT P6SM -SHRA FEW040 BKN050 BKN060
                       FM291100 20003KT P6SM OVC030 FM291900 04004KT
                       P6SM OVC050 FM292100 03006KT P6SM BKN250=
202403282331 TAF KPWT 282331Z 2900/2924 19007G17KT P6SM -SHRA OVC035 FM291100
                       20003KT P6SM OVC025 FM291700 16004KT P6SM
                       OVC050 FM291900 04004KT P6SM OVC050=
202403281744 TAF KPWT 281744Z 2818/2918 20007KT P6SM -SHRA OVC025 FM282300 21008G18KT
                       P6SM -SHRA OVC035 FM291100 20003KT P6SM
                       OVC025 FM291700 16004KT P6SM OVC050=
202403281124 TAF KPWT 281124Z 2812/2912 18008KT P6SM -RA BKN020 OVC040 FM281500
                       20006KT P6SM -RA OVC025 FM281700 20007KT
                       P6SM -SHRA OVC050 FM282200 21008KT P6SM
                       -SHRA OVC035=
202403280520 TAF KPWT 280520Z 2806/2906 18005KT P6SM BKN040 OVC050 FM280700
                       18008KT P6SM -SHRA BKN035 FM281500 20006KT
                       P6SM -RA OVC025 FM281700 20007KT P6SM -SHRA
                       OVC050=
202403272335 TAF KPWT 272335Z 2800/2824 21010KT P6SM -SHRA BKN040 FM280300 21006KT
                       P6SM VCSH OVC010 FM280600 21006KT P6SM -SHRA
                       OVC007 FM281500 20006KT P6SM -SHRA OVC025
                       FM281700 20007KT P6SM -SHRA OVC050=
202403272137 KPWT 272137Z 2722/2818 21007KT P6SM -SHRA BKN035 FM280000 21010KT
                       P6SM VCSH BKN040 FM280600 19004KT P6SM -SHRA
                       OVC035=
202403271732 TAF KPWT 271732Z 2718/2818 17007KT P6SM -SHRA BKN035
                      TEMPO 2718/2720 BKN025 FM272000 21007KT P6SM
                       -SHRA BKN030 FM280000 21010KT P6SM VCSH
                       BKN040 FM280600 19004KT P6SM -SHRA OVC035=
202403271720 TAF KPWT 271720Z 2718/2818 17007KT P6SM -SHRA BKN035
                      TEMPO 2718/2720 BKN025 FM272000 21007KT P6SM
                       -SHRA BKN030 FM280000 21010KT P6SM VCSH
                       BKN040 FM280600 19004KT P6SM -SHRA OVC035=
202403271127 TAF KPWT 271127Z 2712/2812 VRB03KT P6SM -RA SCT028 FM271600 17007KT
                       6SM -SHRA OVC015 FM272000 21007KT P6SM -SHRA
                       BKN030 FM280000 21010KT P6SM VCSH BKN040
                       FM280600 19004KT P6SM -SHRA OVC035=
202403270520 TAF KPWT 270520Z 2706/2806 19005KT P6SM SKC FM270800 20003KT P6SM
                       OVC080 FM271200 17006KT P6SM -RA OVC025
                       FM271600 20007KT 6SM BR OVC015
                      PROB30 2716/2721 -RA FM272100 21007KT P6SM
                       OVC030
                      PROB30 2721/2724 -SHRA=
202403262334 TAF KPWT 262334Z 2700/2724 20009G14KT P6SM SCT045 BKN060 FM270800
                       20003KT P6SM VCSH OVC080 FM271200 17006KT
                       P6SM -RA OVC025 FM271600 20007KT 6SM BR
                       OVC015
                      PROB30 2716/2721 -RA FM272100 21007KT P6SM
                       OVC030
                      PROB30 2721/2724 -SHRA=
202403262057 KPWT 262057Z 2621/2718 20012KT P6SM FEW040 FM270600 20003KT P6SM
                       VCSH OVC080 FM271100 17006KT P6SM OVC020
                       PROB30 2712/2718 -RA=
202403261723 TAF KPWT 261723Z 2618/2718 20008KT P6SM OVC020 FM262100 21010KT
                       P6SM SCT100 FM270600 20003KT P6SM VCSH OVC080
                       FM271100 17006KT P6SM OVC020
                      PROB30 2712/2718 -RA=
202403261530 KPWT 261530Z 2616/2712 22005KT P6SM OVC005 FM261700 20004KT P6SM
                       OVC015 FM261900 22008KT P6SM OVC050 FM262200
                       21010KT P6SM BKN100 FM270600 20004KT P6SM
                       BKN100 FM270900 VRB03KT P6SM -RA OVC040=
202403261500 KPWT 261500Z 2615/2712 22005KT P6SM OVC003 FM261700 20004KT P6SM
                       OVC015 FM261900 22008KT P6SM OVC050 FM262200
                       21010KT P6SM BKN100 FM270600 20004KT P6SM
                       BKN100 FM270900 VRB03KT P6SM -RA OVC040=
202403261217 KPWT 261217Z 2612/2712 22005KT P6SM OVC003
                      TEMPO 2612/2615 1SM BR FM261600 20004KT P6SM
                       OVC015 FM261900 22008KT P6SM OVC050 FM262200
                       21010KT P6SM BKN100 FM270600 20004KT P6SM
                       BKN100 FM270900 VRB03KT P6SM -RA OVC040=
202403261124 TAF KPWT 261124Z 2612/2712 22005KT P6SM OVC003 FM261600 20004KT
                       P6SM OVC015 FM261900 22008KT P6SM OVC050
                       FM262200 21010KT P6SM BKN100 FM270600 20004KT
                       P6SM BKN100 FM270900 VRB03KT P6SM -RA OVC040=
202403260547 TAF KPWT 260547Z 2606/2706 22004KT P6SM OVC010 FM260800 21004KT
                       P6SM FEW008 OVC015 FM261600 20008KT P6SM
                       OVC035 FM262200 21010KT P6SM SCT050=
202403252323 TAF KPWT 252323Z 2600/2624 17009KT P6SM VCSH OVC020 FM260800 21004KT
                       P6SM VCSH FEW008 OVC015 FM261600 20008KT
                       P6SM OVC035 FM262200 21010KT P6SM SCT050=
202403251724 TAF KPWT 251724Z 2518/2618 21008KT P6SM BKN015 OVC040 FM260000
                       21006KT P6SM VCSH OVC025 FM260800 21004KT
                       P6SM VCSH FEW008 OVC015 FM261600 20008KT
                       P6SM OVC035=
202403251122 TAF KPWT 251122Z 2512/2612 21010KT P6SM FEW040 BKN080 FM251500
                       21008KT P6SM OVC035 FM252100 21006KT P6SM
                       VCSH OVC025 FM260600 21004KT P6SM VCSH BKN015
                       FM260900 00000KT P6SM OVC015=
202403250900 KPWT 250900Z 2509/2606 21010KT P6SM BKN012 FM251500 21008KT P6SM
                       OVC035 FM252200 21006KT P6SM VCSH OVC025
                       FM260100 21004KT P6SM VCSH BKN015=
202403250527 TAF KPWT 250527Z 2506/2606 21010KT P6SM FEW250 FM251000 20009KT
                       P6SM BKN050 FM252200 21006KT P6SM VCSH OVC025
                       FM260100 21004KT P6SM VCSH BKN015=
202403242323 TAF KPWT 242323Z 2500/2524 22009KT P6SM FEW035 FM250300 20004KT
                       P6SM FEW040 BKN100 FM250600 21003KT P6SM
                       OVC020 FM251100 19009KT P6SM OVC015 FM252200
                       21006KT P6SM VCSH OVC025=
202403241726 TAF KPWT 241726Z 2418/2518 19003KT P6SM OVC025 FM242000 21005KT
                       P6SM BKN050 FM250200 20004KT P6SM OVC030
                       FM250600 21003KT P6SM OVC020 FM251100 19009KT
                       P6SM OVC015=
202403241122 TAF KPWT 241122Z 2412/2512 00000KT P6SM VCSH OVC035 FM241500 10003KT
                       P6SM OVC025 FM242000 21005KT P6SM BKN050
                       FM250200 20004KT P6SM OVC030 FM250600 21003KT
                       P6SM OVC020=
202403240520 TAF KPWT 240520Z 2406/2506 VRB03KT P6SM VCSH SCT030 OVC050 FM240700
                       VRB03KT 5SM BR OVC020 FM241200 VRB03KT 3SM
                       BR OVC010 FM241800 10003KT P6SM OVC025 FM242100
                       21005KT P6SM BKN050 FM250200 VRB03KT P6SM
                       OVC030=
202403232320 TAF KPWT 232320Z 2400/2424 02009KT P6SM VCSH SCT011 BKN030 BKN130
                       FM240400 05004KT 6SM BR VCSH OVC020 FM240700
                       VRB03KT 4SM -SHRA BR OVC012 FM241200 VRB03KT
                       P6SM OVC015 FM242000 21005KT P6SM BKN050=
202403231739 TAF KPWT 231739Z 2318/2418 06004KT P6SM -SHRA SCT007 SCT045
                      TEMPO 2318/2320 BKN005 FM232000 04005KT P6SM
                       VCSH BKN040 FM240400 05004KT 6SM BR VCSH
                       OVC020 FM240700 VRB03KT 4SM -SHRA BR OVC012
                       FM241200 VRB03KT P6SM OVC015=
202403231123 TAF KPWT 231123Z 2312/2412 VRB03KT 6SM BR VCSH BKN015 OVC035 FM231700
                       VRB03KT P6SM VCSH OVC025 FM232100 04005KT
                       P6SM VCSH OVC040 FM240400 05004KT 6SM BR
                       VCSH OVC020 FM240700 VRB02KT 6SM BR OVC012=
202403230706 KPWT 230706Z 2307/2406 VRB03KT 6SM -RA BR SCT005 OVC035
                      TEMPO 2307/2311 4SM BR BKN003 OVC020 FM231100
                       21006KT 4SM -RA BR OVC010 FM231700 20003KT
                       P6SM OVC020 FM232000 02005KT P6SM OVC030
                       FM240200 05004KT 5SM BR OVC020=
202403230520 TAF KPWT 230520Z 2306/2406 VRB03KT 3SM -RA BR OVC035
                      TEMPO 2306/2310 1/2SM FG OVC020 FM231100
                       21006KT 3SM -RA BR OVC010 FM231700 20003KT
                       P6SM OVC020 FM232000 02005KT P6SM OVC030
                       FM240200 05004KT 5SM BR OVC020=
202403230433 KPWT 230433Z 2305/2324 04004KT 1/2SM FG OVC050 FM230600 06002KT
                       4SM -RA BR OVC035 FM231100 21006KT 6SM -RA
                       BR OVC020 FM231700 18003KT P6SM OVC040=
202403222321 TAF KPWT 222321Z 2300/2324 04004KT P6SM -SHRA OVC070 FM230500 06002KT
                       4SM -RA BR OVC035 FM231100 21006KT 6SM -RA
                       BR OVC020 FM231700 18003KT P6SM OVC040=
202403221728 TAF KPWT 221728Z 2218/2318 04005KT P6SM -RA BKN040 OVC100 FM222000
                       04004KT P6SM -SHRA OVC050 FM230500 06002KT
                       4SM -RA BR OVC035 FM231100 21006KT 6SM -RA
                       BR OVC020=
202403221522 KPWT 221522Z 2215/2312 00000KT P6SM SKC FM221700 04005KT P6SM OVC100
                       FM221900 04004KT P6SM -SHRA OVC050 FM230500
                       06002KT 4SM -RA BR OVC050=
202403221120 TAF KPWT 221120Z 2212/2312 00000KT 1/2SM FG SKC FM221700 04005KT
                       2SM BR OVC100 FM221900 04004KT P6SM -SHRA
                       OVC050 FM230500 06002KT 4SM -RA BR OVC050=
202403220520 TAF KPWT 220520Z 2206/2306 VRB03KT P6SM OVC040 FM221000 VRB03KT
                       P6SM OVC030 FM221600 03003KT P6SM OVC050
                       FM222200 05004KT P6SM -SHRA OVC040 FM230300
                       VRB03KT P6SM -SHRA OVC030=
202403212329 TAF KPWT 212329Z 2200/2224 20007KT P6SM BKN035 OVC050 FM220300
                       00000KT P6SM OVC040 FM221000 00000KT P6SM
                       OVC030 FM221600 03003KT P6SM OVC050=
202403211720 TAF KPWT 211720Z 2118/2218 20005KT P6SM OVC010 FM212000 20007KT
                       P6SM OVC050 FM220300 00000KT P6SM -SHRA
                       OVC035 FM221000 00000KT P6SM OVC030=
202403211138 TAF KPWT 211138Z 2112/2212 20004KT 5SM BR OVC003 FM211500 21003KT
                       P6SM OVC007 FM211700 20005KT P6SM OVC015
                       FM212000 20007KT P6SM OVC050 FM220800 00000KT
                       P6SM -SHRA OVC025=
202403210520 TAF KPWT 210520Z 2106/2206 21002KT P6SM -SHRA OVC020 FM211200 20004KT
                       5SM BR OVC015 FM212200 VRB04KT P6SM -SHRA
                       SCT025 OVC035=
202403210124 KPWT 210124Z 2101/2124 21008KT P6SM FEW015 BKN020 OVC035 FM210500
                       21003KT P6SM -SHRA OVC025 FM211200 20004KT
                       6SM BR OVC020 FM212200 22006KT P6SM SCT025
                       OVC035=
202403202320 TAF KPWT 202320Z 2100/2124 22008KT P6SM SCT030 OVC040 FM210500
                       21003KT P6SM -SHRA OVC025 FM211200 20004KT
                       6SM BR OVC020 FM212200 22006KT P6SM SCT025
                       OVC035=
202403201720 TAF KPWT 201720Z 2018/2118 24007KT P6SM BKN027 OVC035 FM202100
                       20008KT P6SM FEW020 OVC035 FM210500 21003KT
                       P6SM -SHRA OVC025 FM211200 20004KT 6SM BR
                       OVC020=
202403201139 TAF KPWT 201139Z 2012/2112 19002KT P6SM SCT007 OVC015 FM202100
                       20008KT P6SM FEW020 OVC035 FM210500 21003KT
                       P6SM -SHRA OVC025=
202403200653 KPWT 200653Z 2007/2106 19002KT P6SM SCT007 OVC015 FM201800 20009KT
                       P6SM BKN020 OVC050 FM202100 20008KT P6SM
                       FEW020 OVC050 FM210500 21003KT P6SM VCSH
                       OVC025=
202403200521 KPWT 200521Z 2005/2106 19002KT P6SM SCT250 FM200900 19005KT 6SM
                       BR SCT007 OVC015 FM201800 20009KT P6SM BKN020
                       OVC050 FM202100 20008KT P6SM FEW020 OVC050
                       FM210500 21003KT P6SM VCSH OVC025=
202403200520 KPWT 200520Z 2005/2106 19002KT P6SM SCT250 FM200900 19005KT 6SM
                       BR SCT007 OVC015 FM201800 20009KT P6SM BKN020
                       OVC050 FM202100 20008KT P6SM FEW020 OVC050
                       FM210500 21003KT P6SM VCSH OVC025=
202403192320 TAF KPWT 192320Z 2000/2024 22007KT P6SM SCT250 FM200600 19002KT
                       P6SM BKN007 OVC015 FM200900 19005KT 5SM
                       BR OVC007 FM201800 20009KT P6SM BKN020 OVC050
                       FM202100 20008KT P6SM FEW020 OVC050=
202403191720 TAF KPWT 191720Z 1918/2018 VRB03KT P6SM FEW250 FM192100 22007KT
                       P6SM SCT250 FM200900 19002KT P6SM BKN005
                       OVC015 FM201200 19005KT 5SM BR OVC005=
202403191122 TAF KPWT 191122Z 1912/2012 00000KT P6SM FEW250 FM191300 VRB03KT
                       6SM BR SCT010 FM191700 22007KT P6SM SCT150
                       FM200900 19002KT P6SM OVC004=
202403190520 TAF KPWT 190520Z 1906/2006 06004KT P6SM FEW250 FM191300 VRB03KT
                       6SM BR SCT010 FM191700 22007KT P6SM SCT150=
202403182322 TAF KPWT 182322Z 1900/1924 07007KT P6SM FEW250 FM190800 VRB03KT
                       6SM BR SCT010 FM191200 00000KT 1/2SM FG
                       BKN002 FM191800 20005KT P6SM FEW250=
202403181742 TAF KPWT 181742Z 1818/1918 04009KT P6SM FEW250 FM190200 08004KT
                       P6SM SKC FM191200 00000KT 1/2SM FG BKN002
                       FM191600 VRB04KT P6SM SKC=
202403181525 KPWT 181525Z 1815/1912 03005KT P6SM FEW250 FM181700 04008KT P6SM
                       SKC=
202403181136 TAF KPWT 181136Z 1812/1912 00000KT P6SM SKC FM181500 VRB03KT 1SM
                       BR OVC002 FM181700 04008KT P6SM SKC=
202403180538 TAF KPWT 180538Z 1806/1906 04006KT P6SM SKC FM181300 VRB03KT 1SM
                       BR OVC002 FM181700 04008KT P6SM FEW200=
202403172320 TAF KPWT 172320Z 1800/1824 04006KT P6SM SKC FM181100 VRB03KT 1SM
                       BR OVC002 FM181700 04008KT P6SM FEW200=
202403171746 TAF KPWT 171746Z 1718/1818 VRB03KT P6SM SKC FM171900 03004KT P6SM
                       SKC FM180500 VRB03KT P6SM SKC FM181100 VRB03KT
                       1SM BR OVC002 FM181700 04008KT 6SM BR SKC=
202403171126 TAF KPWT 171126Z 1712/1812 VRB03KT P6SM SKC FM171900 03004KT P6SM
                       SKC FM180500 VRB03KT P6SM SKC FM181100 VRB03KT
                       1SM BR OVC002=
202403170539 TAF KPWT 170539Z 1706/1806 22004KT P6SM SKC FM171900 03004KT P6SM
                       SKC=
202403162320 TAF KPWT 162320Z 1700/1724 VRB04KT P6SM SKC FM170300 25004KT P6SM
                       SKC FM171900 03004KT P6SM SKC=
202403161753 TAF KPWT 161753Z 1618/1718 05006KT P6SM SKC FM170000 VRB04KT P6SM
                       SKC FM170300 25004KT P6SM SKC FM170800 VRB03KT
                       P6SM SKC=
202403161136 TAF KPWT 161136Z 1612/1712 05008KT P6SM SKC FM170000 VRB03KT P6SM
                       SKC=
202403160520 TAF KPWT 160520Z 1606/1706 04012KT P6SM SKC FM161200 05008KT P6SM
                       SKC FM170000 VRB03KT P6SM SKC=
202403160054 KPWT 160054Z 1601/1624 05012KT P6SM FEW250 FM160600 04008KT P6SM
                       SKC=
202403151740 TAF KPWT 151740Z 1518/1618 05010KT P6SM SCT250 FM152100 04012KT
                       P6SM FEW250 FM160600 04008KT P6SM SKC=
202403151141 TAF KPWT 151141Z 1512/1612 04008KT P6SM BKN250 FM152100 04012KT
                       P6SM SCT250 FM160600 04008KT P6SM SKC=
202403150530 TAF KPWT 150530Z 1506/1606 04008KT P6SM SCT250 FM151500 04012KT
                       P6SM SCT250 FM160200 04007KT P6SM SKC=
202403142320 TAF KPWT 142320Z 1500/1524 01010KT P6SM SCT250 FM151600 04012KT
                       P6SM SCT250=
202403141739 TAF KPWT 141739Z 1418/1518 06008KT P6SM SCT250 FM151600 04012KT
                       P6SM SCT250=
202403141120 TAF KPWT 141120Z 1412/1512 03005KT 6SM BR FEW003 SCT250 FM141800
                       03008KT P6SM SCT250=
202403140520 TAF KPWT 140520Z 1406/1506 00000KT P6SM FEW050 SCT250 FM141000
                       VRB03KT 6SM BR BCFG SCT005 SCT250 FM141800
                       03008KT P6SM FEW010 SCT250=
202403132320 TAF KPWT 132320Z 1400/1424 06004KT P6SM BKN040 FM140300 04003KT
                       P6SM SCT050 BKN200 FM140900 VRB03KT 6SM
                       BR BCFG SCT005 FM141200 04003KT 4SM BR OVC005
                       FM141700 03008KT P6SM SCT010 BKN250=
202403131829 KPWT 131829Z 1318/1418 VRB03KT P6SM FEW015 FM131900 25002KT P6SM
                       BKN025 FM132100 04004KT P6SM SCT035 BKN050
                       FM140300 04003KT P6SM SCT100 BKN200 FM140900
                       04003KT 6SM BR BCFG SCT005 FM141200 05003KT
                       4SM BR OVC005=
202403131729 TAF KPWT 131729Z 1318/1418 VRB03KT 1/2SM FG OVC002 FM131900 25002KT
                       P6SM BKN025 FM132100 04004KT P6SM SCT035
                       BKN050 FM140300 04003KT P6SM SCT100 BKN200
                       FM140900 04003KT 6SM BR BCFG SCT005 FM141200
                       05003KT 4SM BR OVC005=
202403131539 KPWT 131539Z 1316/1412 VRB03KT 1/2SM FG OVC002 FM131900 25002KT
                       P6SM BKN025 FM132100 04004KT P6SM SCT035
                       BKN050 FM140300 04003KT P6SM SCT100 BKN200
                       FM140900 04003KT 6SM BR BCFG SCT005=
202403131120 TAF KPWT 131120Z 1312/1412 VRB03KT P6SM BKN017 BKN035 FM131700
                       VRB04KT P6SM BKN027 BKN045 FM132100 04004KT
                       P6SM SCT035 BKN050 FM140300 04003KT P6SM
                       SCT100 BKN200 FM140900 04003KT 6SM BR BCFG
                       SCT005=
202403130523 TAF KPWT 130523Z 1306/1406 21008KT P6SM FEW025 BKN040 FM130900
                       20003KT P6SM BKN035 FM132000 05004KT P6SM
                       BKN050 FM140000 04003KT P6SM BKN100=
202403122330 TAF KPWT 122330Z 1300/1324 22012G22KT P6SM -SHRA SCT020 OVC040
                       FM130200 21008KT P6SM VCSH FEW025 BKN040
                       FM130700 20006KT P6SM BKN035 FM131300 00000KT
                       P6SM OVC025 FM131900 22003KT P6SM BKN050=
202403121732 TAF KPWT 121732Z 1218/1318 20012G22KT P6SM -RA FEW015 OVC035 FM122200
                       22012G20KT P6SM -SHRA SCT020 OVC040 FM130200
                       21009KT P6SM VCSH FEW015 BKN040 FM130700
                       20006KT P6SM BKN030 FM131300 00000KT P6SM
                       OVC025=
202403121135 KPWT 121135Z 1212/1312 18010KT P6SM -SHRA SCT008 BKN030
                      TEMPO 1212/1216 BKN008 FM121600 20011KT P6SM
                       -SHRA BKN015 OVC035 FM122200 22012G18KT
                       P6SM -SHRA SCT020 OVC035 FM130200 21009KT
                       P6SM VCSH FEW015 BKN040 FM130700 20006KT
                       P6SM BKN017=
202403121124 TAF KPWT 121124Z 1212/1312 18010KT P6SM -SHRA BKN008 BKN030 FM121600
                       20011KT P6SM -SHRA BKN015 OVC035 FM122200
                       22012G18KT P6SM -SHRA SCT020 OVC035 FM130200
                       21009KT P6SM VCSH FEW015 BKN040 FM130700
                       20006KT P6SM BKN017=
202403120828 KPWT 120828Z 1208/1306 20010KT P6SM -SHRA SCT005 OVC015
                      TEMPO 1208/1212 BKN005 FM121500 20011G17KT
                       P6SM -SHRA OVC035 FM122200 22013G20KT P6SM
                       -SHRA SCT020 OVC040 FM130300 21009KT P6SM
                       VCSH FEW015 BKN040=
202403120521 TAF KPWT 120521Z 1206/1306 20010KT P6SM -SHRA OVC015 FM121500 20011G17KT
                       P6SM -SHRA OVC035 FM122200 22013G20KT P6SM
                       -SHRA SCT020 OVC040 FM130300 21009KT P6SM
                       VCSH FEW015 BKN040=
202403120256 KPWT 120256Z 1203/1224 20008G15KT 6SM -RA BR SCT010 OVC015 FM120600
                       20013KT 6SM -SHRA BR OVC010 FM121200 20011G17KT
                       P6SM -SHRA OVC025=
202403112324 TAF KPWT 112324Z 1200/1224 18015KT 6SM RA BR OVC025 FM120300 20013KT
                       6SM -SHRA BR OVC010 FM121200 20011G17KT
                       P6SM -SHRA OVC025=
202403111739 TAF KPWT 111739Z 1118/1218 20008KT P6SM -RA BKN007 OVC025 FM112000
                       19011G20KT P6SM -RA OVC020 FM112300 20015G25KT
                       6SM RA BR OVC012 FM120300 20011G18KT 6SM
                       -SHRA BR OVC010 FM121200 20011G17KT P6SM
                       -SHRA OVC025=
202403111130 TAF KPWT 111130Z 1112/1212 20008KT P6SM VCSH SCT015 BKN035 FM111400
                       19006KT P6SM OVC040 FM111900 20008KT P6SM
                       -RA OVC025 FM112300 20010G18KT 6SM -RA BR
                       OVC014 FM120300 20013G20KT 6SM RA BR OVC009=
202403110914 KPWT 110914Z 1109/1206 20010KT P6SM VCSH SCT015
                      TEMPO 1113/1117 BKN010 FM111700 20008KT P6SM
                       -RA OVC015 FM112300 20008G20KT 4SM -RA BR
                       OVC010=
202403110526 TAF KPWT 110526Z 1106/1206 20010KT P6SM BKN005 FM111700 20008KT
                       P6SM -RA OVC015 FM112300 20008G20KT 4SM
                       -RA BR OVC010=
202403110001 TAF KPWT 110001Z 1100/1124 20011KT P6SM -SHRA SCT010 BKN019 OVC025
                       FM110200 20013G22KT P6SM VCSH OVC022 FM110600
                       20010KT P6SM OVC025 FM111700 20009G18KT
                       P6SM -RA OVC025=
202403102114 KPWT 102114Z 1021/1118 21011G19KT P6SM -SHRA OVC018 FM110200 20013G22KT
                       P6SM VCSH OVC022 FM111100 20008KT P6SM OVC025
                       FM111700 20009G18KT P6SM -RA OVC025=
202403101720 TAF KPWT 101720Z 1018/1118 21013G20KT 6SM -RA BR OVC017 FM102000
                       21012G18KT P6SM -SHRA SCT015 OVC025 FM110600
                       20013G22KT P6SM VCSH OVC022=
202403101308 KPWT 101308Z 1013/1112 19014G22KT P6SM -RA OVC020 FM101400 21013G20KT
                       6SM -RA BR OVC022 FM102000 21012G18KT P6SM
                       -SHRA SCT015 OVC025 FM110600 20013G22KT
                       P6SM VCSH OVC022=
202403101122 TAF KPWT 101122Z 1012/1112 19014G22KT P6SM -RA OVC035 FM101400
                       21013G20KT 6SM -RA BR OVC025 FM102000 21012G18KT
                       P6SM -SHRA SCT015 OVC025 FM110600 20013G22KT
                       P6SM VCSH OVC022=
202403100526 TAF KPWT 100526Z 1006/1106 21009KT P6SM -RA OVC030 FM100800 19012G18KT
                       P6SM -RA OVC025 FM101500 20005KT 4SM -RA
                       BR OVC015 FM102300 20011G20KT 4SM -SHRA
                       OVC025=
202403092320 TAF KPWT 092320Z 1000/1024 22020G35KT P6SM -RA BKN025 OVC035 FM100300
                       21009KT P6SM -SHRA OVC040 FM100800 19012G18KT
                       P6SM -RA OVC035 FM101500 20005KT P6SM -RA
                       OVC015 FM102300 20011G20KT 4SM -RA OVC025=
202403091720 TAF KPWT 091720Z 0918/1018 22008KT P6SM -RA OVC040 FM091900 20013G21KT
                       P6SM -RA OVC030 FM100300 21009KT P6SM -SHRA
                       OVC040 FM100800 19012G18KT P6SM -RA OVC035=
202403091129 TAF KPWT 091129Z 0912/1012 19005KT P6SM OVC090 FM091500 20008KT
                       P6SM -RA OVC050 FM091800 20013G21KT P6SM
                       -RA OVC030 FM100300 21009KT P6SM -SHRA OVC040
                       FM100800 19012G18KT P6SM -RA OVC035=
202403090538 TAF KPWT 090538Z 0906/1006 00000KT P6SM BKN100 FM091200 19008KT
                       P6SM VCSH OVC080 FM091500 20010KT P6SM -RA
                       OVC050 FM091800 20015G24KT P6SM -SHRA OVC025=
202403082320 TAF KPWT 082320Z 0900/0924 20004KT P6SM OVC100 FM090400 00000KT
                       P6SM BKN100 FM091200 19008KT P6SM VCSH OVC080
                       FM091500 20010KT P6SM VCSH OVC050 FM091800
                       20015G24KT P6SM OVC050=
202403081723 TAF KPWT 081723Z 0818/0918 21004KT P6SM OVC100
                      TEMPO 0818/0820 P6SM -RA FM082100 20004KT
                       P6SM OVC100 FM090400 00000KT P6SM BKN100
                       FM091200 19008KT P6SM -RA OVC080 FM091500
                       20012G20KT P6SM -RA OVC050=
202403081120 TAF KPWT 081120Z 0812/0912 00000KT P6SM OVC070 FM081500 21004KT
                       P6SM VCSH OVC050 FM082100 20004KT P6SM OVC100
                       FM090400 00000KT P6SM BKN100=
202403080520 TAF KPWT 080520Z 0806/0906 13004KT P6SM SKC FM081200 20003KT P6SM
                       OVC050 FM081500 21004KT P6SM VCSH OVC050
                       FM082000 20004KT P6SM OVC100=
202403072320 TAF KPWT 072320Z 0800/0824 VRB04KT P6SM FEW040 FM080600 20002KT
                       P6SM OVC100 FM081200 20003KT P6SM OVC050
                       PROB30 0813/0815 -RA OVC050=
202403071720 TAF KPWT 071720Z 0718/0818 21004KT P6SM BKN050 FM080000 18004KT
                       P6SM BKN250 FM080600 20002KT P6SM OVC100
                       FM081200 20003KT P6SM OVC050=
202403071122 TAF KPWT 071122Z 0712/0812 00000KT P6SM SCT050 FM071800 21004KT
                       P6SM BKN050 FM080000 18004KT P6SM BKN250=
202403070520 TAF KPWT 070520Z 0706/0806 VRB03KT P6SM FEW070 FM071200 00000KT
                       P6SM OVC025 FM071800 21004KT P6SM BKN050=
202403062329 TAF KPWT 062329Z 0700/0724 VRB03KT P6SM BKN035 OVC060 FM071200
                       00000KT P6SM OVC025 FM071800 21004KT P6SM
                       BKN050=
202403061733 TAF KPWT 061733Z 0618/0718 20003KT P6SM BKN050 OVC200 FM071200
                       00000KT P6SM OVC030=
202403061120 TAF KPWT 061120Z 0612/0712 00000KT P6SM BKN050
                      TEMPO 0612/0614 1SM BR BKN002 OVC050 FM061700
                       23006KT P6SM SCT120 BKN200 FM070500 00000KT
                       P6SM BKN200=
202403060535 TAF KPWT 060535Z 0606/0706 VRB03KT P6SM SKC FM061000 00000KT 5SM
                       BR SCT002 BKN050
                      TEMPO 0610/0614 1SM BR BKN002 OVC050 FM061700
                       19006KT P6SM SCT120 BKN200 FM070400 15004KT
                       P6SM BKN200=
202403052342 TAF KPWT 052342Z 0600/0624 03006KT P6SM BKN035 FM060600 VRB03KT
                       P6SM SCT040 FM061000 00000KT 1/2SM FG OVC001
                       FM061600 VRB03KT 3SM BR BKN002 FM061800
                       19006KT P6SM BKN120=
202403052159 KPWT 052159Z 0522/0618 05004KT P6SM OVC035 FM060600 VRB03KT P6SM
                       BKN050 FM060800 00000KT 3SM BR BKN010 FM061700
                       VRB03KT 6SM BR OVC030=
202403051744 TAF KPWT 051744Z 0518/0618 05012KT P6SM BKN015 FM051900 02004KT
                       P6SM SCT015 BKN025 FM060000 06006KT P6SM
                       SCT025 BKN050 FM060600 VRB03KT P6SM BKN050
                       FM060800 00000KT 3SM BR BKN010 FM061700
                       VRB03KT 6SM BR OVC030=
202403051124 TAF KPWT 051124Z 0512/0612 02004KT P6SM SCT008 OVC050 FM051600
                       02004KT P6SM BKN015 FM051900 02004KT P6SM
                       SCT015 BKN025 FM060000 06006KT P6SM SCT025
                       BKN050=
202403050539 TAF KPWT 050539Z 0506/0606 05006KT P6SM SCT050 FM050800 02004KT
                       2SM BR OVC003 FM051600 02004KT P6SM SCT006
                       BKN011 FM051900 02004KT P6SM SCT015 BKN025
                       FM052100 04004KT P6SM SCT025 BKN050 FM052300
                       04004KT P6SM BKN200=
202403042332 TAF KPWT 042332Z 0500/0524 30006KT P6SM VCSH SCT012 BKN016 OVC035
                       FM050400 05006KT P6SM SCT015 BKN050 BKN200
                       FM050900 02004KT P6SM OVC015 FM052100 04004KT
                       P6SM SCT025 BKN050=
202403042108 KPWT 042108Z 0421/0518 19008KT P6SM VCSH FEW030 SCT060 FM042300
                       22008KT P6SM SCT020 BKN035 FM050400 05006KT
                       P6SM SCT050 BKN200 FM050900 02002KT P6SM
                       OVC015 FM051200 02003KT P6SM OVC007=
202403041729 TAF KPWT 041729Z 0418/0518 18004KT P6SM FEW020 SCT200 FM042300
                       22008KT P6SM SCT020 BKN035 FM050400 05006KT
                       P6SM SCT050 BKN200 FM050900 02002KT P6SM
                       OVC015 FM051200 02003KT P6SM OVC007=
202403041433 KPWT 041433Z 0415/0512 18005KT P6SM SCT010 BKN050 FM042300 22008KT
                       P6SM SCT020 BKN035 FM050400 05006KT P6SM
                       SCT050 BKN200=
202403041127 TAF KPWT 041127Z 0412/0512 22005KT P6SM VCSH OVC006 FM041800 22008KT
                       P6SM SCT008 BKN015 OVC030 FM042300 22008KT
                       P6SM SCT020 BKN035 FM050400 05006KT P6SM
                       SCT050 BKN200=
202403040539 TAF KPWT 040539Z 0406/0506 20012KT P6SM -SHRA BKN006 OVC012 FM040900
                       20012KT 3SM -SHRASN BKN004 OVC008 FM041500
                       22008KT P6SM SCT004 BKN008 OVC015 FM041800
                       22008KT P6SM SCT008 BKN015 OVC030 FM042300
                       22008KT P6SM SCT020 BKN035 FM050400 05006KT
                       P6SM SCT050 BKN200=
202403032331 TAF KPWT 032331Z 0400/0424 20016KT P6SM -SHRA SCT016 BKN030
                      TEMPO 0400/0404 -SHRA BKN015 FM040900 21005KT
                       P6SM OVC015 FM041900 21005KT P6SM SCT025
                       OVC050=
202403032112 KPWT 032112Z 0321/0418 20011G17KT P6SM -SHRA OVC010 FM040000 19006KT
                       P6SM VCSH SCT001 BKN020 OVC040 FM040900
                       21005KT P6SM OVC015=
202403031733 TAF KPWT 031733Z 0318/0418 18007KT P6SM -SN OVC006
                      TEMPO 0318/0320 2SM -SHSNRA OVC006 FM032000
                       19006KT P6SM -SHSN SCT006 BKN011 OVC020
                       FM040000 19006KT P6SM VCSH SCT001 BKN020
                       OVC040 FM040900 21005KT P6SM OVC015=
202403031608 KPWT 031608Z 0316/0412 19006KT P6SM -SHSNRA OVC008
                      TEMPO 0316/0320 2SM -SHSNRA OVC006 FM032000
                       19006KT P6SM VCSH SCT006 BKN011 OVC020 FM040000
                       19006KT P6SM VCSH SCT001 BKN020 OVC040=
202403031304 KPWT 031304Z 0313/0412 19006KT P6SM -SHRA SCT009 BKN012
                      TEMPO 0314/0317 3SM -SHSNRA OVC005 FM032000
                       19006KT P6SM VCSH SCT006 BKN011 OVC020 FM040000
                       19006KT P6SM VCSH SCT001 BKN020 OVC040=
202403031139 TAF KPWT 031139Z 0312/0412 19006KT P6SM -SHRA SCT009 BKN012
                      TEMPO 0314/0317 3SM -SHSNRA OVC003 FM032000
                       19006KT P6SM VCSH SCT006 BKN011 OVC020 FM040000
                       19006KT P6SM VCSH SCT001 BKN020 OVC040=
202403030541 TAF KPWT 030541Z 0306/0406 19006KT P6SM SCT006 BKN011 OVC020 FM031100
                       19006KT 2SM -SN OVC006 FM031500 19006KT
                       P6SM SCT003 BKN006 OVC011
                      TEMPO 0315/0319 3SM -SHRASN OVC003 FM032000
                       19006KT P6SM VCSH SCT006 BKN011 OVC020 FM040000
                       19006KT P6SM VCSH SCT001 BKN020 OVC040=
202403022323 TAF KPWT 022323Z 0300/0324 20008KT P6SM VCSH BKN007 OVC015 FM030600
                       19004KT P6SM VCSH OVC015 FM030900 20003KT
                       P6SM VCSH OVC015
                      PROB30 0309/0315 P6SM -RASN OVC015 FM031500
                       20006KT P6SM VCSH OVC015
                      PROB30 0315/0318 P6SM -RASN OVC015=
202403021734 TAF KPWT 021734Z 0218/0318 20012KT P6SM VCSH BKN005 FM022000 20010KT
                       P6SM VCSH SCT020 OVC040 FM030000 19008KT
                       P6SM VCSH BKN050 FM030600 19004KT P6SM VCSH
                       OVC015 FM030900 20003KT P6SM VCSH OVC015
                       PROB30 0309/0315 P6SM -RASN OVC015=
202403021611 KPWT 021611Z 0216/0312 21012KT P6SM VCSH BKN005 OVC015 FM022000
                       20006KT P6SM VCSH SCT020 OVC040 FM030000
                       19008KT P6SM VCSH BKN060 FM030600 19004KT
                       P6SM OVC015=
202403021357 KPWT 021357Z 0214/0312 21006KT 6SM -SHSNRA BKN005 OVC015 FM021600
                       20006KT P6SM VCSH OVC040 FM030000 19008KT
                       P6SM VCSH BKN060 FM030600 19004KT P6SM OVC015=
202403021120 TAF KPWT 021120Z 0212/0312 19006KT 6SM -SHRA BR OVC020 FM021500
                       20006KT P6SM VCSH OVC040 FM030000 19008KT
                       P6SM VCSH BKN060=
202403020535 TAF KPWT 020535Z 0206/0306 02006KT P6SM BKN100 FM020800 04005KT
                       P6SM -RA OVC050 FM021000 19006KT 6SM -SHRA
                       BR OVC020 FM021500 20006KT P6SM VCSH OVC040
                       FM030000 19008KT P6SM VCSH BKN060=
202403012323 TAF KPWT 012323Z 0200/0224 20012KT P6SM SCT010 SCT030 BKN045 FM020400
                       04004KT P6SM OVC050 FM021000 00000KT 6SM
                       BR OVC070 FM021400 20006KT P6SM OVC020=
202403011720 TAF KPWT 011720Z 0118/0218 20008KT P6SM SCT050 SCT060 FM012000
                       20007KT 5SM -RA OVC020 FM020000 19006KT
                       P6SM BKN050 OVC100 FM020400 04004KT P6SM
                       OVC100=
202403011133 TAF KPWT 011133Z 0112/0212 19010KT P6SM -SHRA OVC012 FM011800 20004KT
                       6SM -SHRA SCT030 OVC040 FM020000 19006KT
                       P6SM BKN050 OVC100=
202403010521 TAF KPWT 010521Z 0106/0206 19009KT 6SM -SHSN BR OVC010 FM010800
                       20012G18KT 4SM -SHSN BR OVC015 FM011800
                       20004KT 6SM -SHRA SCT030 OVC040 FM020000
                       19006KT P6SM BKN050 OVC100=