##########################################################
# Query made at 02/16/2025 01:26:33 UTC
# Time interval: from 02/01/2024 00:00  to 02/29/2024 23:59  UTC
##########################################################

##########################################################
# KPWT, Bremerton National Automatic Weather Observing / Reporting System (United States)
# WMO index: -----. WIGOS ID: Unknown
# Latitude 47-30N. Longitude 122-45W. Altitude 147 m.
##########################################################

###################################
#  METAR/SPECI from KPWT
###################################
202402292356 METAR KPWT 292356Z AUTO 20011KT 10SM -RA BKN010 03/03 A2948 RMK AO2 RAB40 CIG 007V013 SLP989 P0000 60001 T00330033 10044 20033 53000=
202402292256 METAR KPWT 292256Z AUTO 20008KT 10SM OVC008 03/03 A2947 RMK AO2 RAE34 SLP986 P0001 T00330033=
202402292226 SPECI KPWT 292226Z AUTO 21008KT 10SM -RA BKN008 BKN012 03/03 A2947 RMK AO2 P0001=
202402292156 METAR KPWT 292156Z AUTO 20010G20KT 10SM -RA BKN010 BKN014 OVC021 03/03 A2947 RMK AO2 CIG 008V012 SLP987 P0000 T00330033=
202402292056 METAR KPWT 292056Z AUTO 19011KT 10SM -RA BKN014 OVC023 04/04 A2948 RMK AO2 SLP990 P0000 60000 T00440039 50004=
202402292046 SPECI KPWT 292046Z AUTO 20010KT 10SM -RA FEW008 BKN014 OVC021 04/04 A2948 RMK AO2 P0000=
202402291956 METAR KPWT 291956Z AUTO 25009KT 10SM -RA OVC008 03/03 A2948 RMK AO2 RAE11B33 CIG 006V013 SLP989 P0000 T00330033=
202402291856 METAR KPWT 291856Z AUTO 21011KT 10SM -RA OVC008 03/03 A2947 RMK AO2 RAB38 CIG 006V011 SLP987 P0000 T00330033=
202402291756 METAR KPWT 291756Z AUTO 20011KT 10SM BKN006 03/03 A2947 RMK AO2 SLP984 60000 T00330033 10033 20022 51009=
202402291751 SPECI KPWT 291751Z AUTO 21012KT 10SM SCT006 03/03 A2946 RMK AO2=
202402291741 SPECI KPWT 291741Z AUTO 20011KT 10SM BKN006 03/03 A2946 RMK AO2=
202402291724 SPECI KPWT 291724Z AUTO 19009KT 10SM SCT006 03/03 A2945 RMK AO2=
202402291707 SPECI KPWT 291707Z AUTO 19012G19KT 10SM BKN006 03/03 A2946 RMK AO2=
202402291656 METAR KPWT 291656Z AUTO 20011KT 10SM SCT008 03/03 A2946 RMK AO2 SLP983 T00280028=
202402291642 SPECI KPWT 291642Z AUTO 20010KT 10SM SCT008 SCT020 03/03 A2946 RMK AO2=
202402291612 SPECI KPWT 291612Z AUTO 19014G18KT 10SM BKN008 BKN020 03/03 A2946 RMK AO2=
202402291556 METAR KPWT 291556Z AUTO 20009KT 10SM SCT008 03/03 A2944 RMK AO2 RAB04E45UPB25E33 PRESFR SLP975 P0000 T00280028=
202402291532 SPECI KPWT 291532Z AUTO 20008KT 10SM UP SCT008 SCT012 03/03 A2946 RMK AO2 RAB04E25UPB25 P0000=
202402291525 SPECI KPWT 291525Z AUTO 19010KT 10SM UP BKN010 03/03 A2945 RMK AO2 RAB04E25UPB25 CIG 006V014 P0000=
202402291518 SPECI KPWT 291518Z AUTO 21008KT 10SM -RA BKN008 BKN012 03/03 A2945 RMK AO2 RAB04 CIG 004V010 P0000=
202402291456 METAR KPWT 291456Z AUTO 20011KT 10SM SCT007 BKN012 03/03 A2944 RMK AO2 UPE11RAB11E36 SLP977 P0000 60000 T00280028 50002=
202402291454 SPECI KPWT 291454Z AUTO 20009KT 10SM SCT007 BKN012 03/03 A2945 RMK AO2 UPE11RAB11E36 P0000=
202402291442 SPECI KPWT 291442Z AUTO 20008G16KT 10SM SCT009 03/03 A2945 RMK AO2 UPE11RAB11E36 P0000=
202402291405 SPECI KPWT 291405Z AUTO 20012G17KT 10SM UP SCT007 BKN011 03/03 A2945 RMK AO2 P0000=
202402291356 METAR KPWT 291356Z AUTO 19010G19KT 10SM UP BKN009 03/03 A2944 RMK AO2 RAB00E56UPB56 CIG 006V012 SLP975 P0000 T00280028=
202402291314 SPECI KPWT 291314Z AUTO 20010KT 10SM -RA BKN007 BKN036 03/03 A2944 RMK AO2 RAB00 P0000=
202402291303 SPECI KPWT 291303Z AUTO 19010G17KT 10SM -RA SCT007 BKN040 03/03 A2942 RMK AO2 RAB00 P0000=
202402291256 METAR KPWT 291256Z AUTO 20010KT 10SM BKN007 03/03 A2944 RMK AO2 RAE12 SLP974 P0000 T00280028=
202402291239 SPECI KPWT 291239Z AUTO 19009KT 10SM SCT007 SCT011 03/03 A2944 RMK AO2 RAE12 P0000=
202402291156 METAR KPWT 291156Z AUTO 19010G16KT 10SM -RA OVC009 03/03 A2943 RMK AO2 CIG 005V014 SLP972 P0001 60016 70232 T00280028 10067 20028 53003=
202402291056 METAR KPWT 291056Z AUTO 19009KT 10SM -RA OVC009 03/03 A2943 RMK AO2 RAB23 CIG 007V011 SLP971 P0000 T00330033=
202402291043 SPECI KPWT 291043Z AUTO 20011G16KT 10SM -RA BKN009 03/03 A2943 RMK AO2 RAB23 P0000=
202402290956 METAR KPWT 290956Z AUTO 21014KT 10SM FEW009 03/03 A2942 RMK AO2 RAB20E40 SLP970 P0000 T00330033=
202402290947 SPECI KPWT 290947Z AUTO 21016G22KT 10SM FEW009 04/03 A2943 RMK AO2 RAB20E40 P0000=
202402290856 METAR KPWT 290856Z AUTO 22013KT 10SM BKN050 04/04 A2942 RMK AO2 RAE13 SLP969 P0000 60015 T00390039 53013=
202402290756 METAR KPWT 290756Z AUTO 21013G23KT 10SM -RA OVC041 04/04 A2938 RMK AO2 SLP957 P0005 T00390039 400830039=
202402290656 METAR KPWT 290656Z AUTO 22011KT 10SM RA SCT007 OVC032 05/05 A2938 RMK AO2 SLP956 P0010 T00500050=
202402290633 SPECI KPWT 290633Z AUTO 22015KT 10SM RA BKN007 OVC034 06/06 A2939 RMK AO2 CIG 005V013 P0006=
202402290556 METAR KPWT 290556Z AUTO 20007KT 10SM -RA FEW007 SCT011 OVC036 07/07 A2938 RMK AO2 SLP955 P0009 60099 T00670067 10083 20067 56020=
202402290508 SPECI KPWT 290508Z AUTO 22010KT 9SM RA SCT006 OVC031 07/07 A2938 RMK AO2 P0005=
202402290456 METAR KPWT 290456Z AUTO 23015G23KT 6SM RA BR OVC006 08/08 A2939 RMK AO2 CIG 005V009 SLP958 P0022 T00830083=
202402290356 METAR KPWT 290356Z AUTO 19011G17KT 9SM RA OVC008 08/08 A2940 RMK AO2 CIG 005V011 SLP961 P0019 T00830083=
202402290256 METAR KPWT 290256Z AUTO 19011KT 8SM RA OVC006 08/08 A2944 RMK AO2 CIG 004V010 SLP975 P0021 60049 T00830083 56018=
202402290249 SPECI KPWT 290249Z AUTO 20014G21KT 8SM RA OVC006 08/08 A2944 RMK AO2 CIG 003V010 P0019=
202402290230 SPECI KPWT 290230Z AUTO 18012G18KT 8SM RA OVC004 08/08 A2945 RMK AO2 CIG 003V007 P0012=
202402290156 METAR KPWT 290156Z AUTO 18011G16KT 10SM -RA BKN006 BKN014 OVC031 08/08 A2945 RMK AO2 CIG 005V010 SLP979 P0008 T00830083=
202402290147 SPECI KPWT 290147Z AUTO 18009G17KT 10SM -RA SCT008 BKN014 OVC031 08/08 A2946 RMK AO2 P0007=
202402290137 SPECI KPWT 290137Z AUTO 18012G19KT 10SM -RA SCT008 BKN016 OVC034 08/08 A2946 RMK AO2 P0007=
202402290128 SPECI KPWT 290128Z AUTO 19012G18KT 10SM -RA SCT006 BKN010 OVC028 08/08 A2947 RMK AO2 CIG 008V012 PRESFR P0006=
202402290056 METAR KPWT 290056Z AUTO 20012G20KT 7SM RA OVC006 08/08 A2950 RMK AO2 CIG 003V009 SLP994 P0020 T00830083=
202402282356 METAR KPWT 282356Z AUTO 19016G24KT 6SM RA BR OVC006 08/08 A2952 RMK AO2 SLP003 P0018 60070 T00830083 10083 20072 56024=
202402282256 METAR KPWT 282256Z AUTO 19013G17KT 8SM RA OVC006 08/08 A2955 RMK AO2 CIG 004V009 SLPNO P0019 T00830083=
202402282156 METAR KPWT 282156Z AUTO 20015G22KT 8SM -RA OVC006 08/08 A2957 RMK AO2 PK WND 19026/2140 SLP018 P0013 T00830083=
202402282056 METAR KPWT 282056Z AUTO 19014G21KT 10SM -RA OVC006 08/08 A2960 RMK AO2 PK WND 21028/2016 SLP027 P0008 60020 T00780078 58022=
202402281956 METAR KPWT 281956Z AUTO 19015G23KT 10SM -RA OVC006 08/08 A2963 RMK AO2 PK WND 21029/1930 SLP038 P0005 T00780078=
202402281856 METAR KPWT 281856Z AUTO 19013G22KT 10SM -RA OVC006 07/07 A2966 RMK AO2 PK WND 20027/1842 SLP048 P0007 T00720072=
202402281756 METAR KPWT 281756Z AUTO 20016G27KT 5SM -RA BR OVC006 07/07 A2966 RMK AO2 PK WND 20031/1714 SLP050 P0005 60047 T00720072 10072 20061 58008=
202402281720 SPECI KPWT 281720Z AUTO 19018G31KT 10SM -RA BKN006 BKN011 OVC014 07/07 A2968 RMK AO2 PK WND 20031/1714 P0003=
202402281656 METAR KPWT 281656Z AUTO 21020G28KT 9SM -RA OVC004 07/07 A2969 RMK AO2 PK WND 20031/1636 SLP060 P0004 T00720072=
202402281556 METAR KPWT 281556Z AUTO 20018G27KT 4SM RA BR OVC004 07/07 A2967 RMK AO2 PK WND 21029/1545 SLP055 P0011 T00670067=
202402281456 METAR KPWT 281456Z AUTO 20015G23KT 160V220 9SM -RA OVC004 07/07 A2969 RMK AO2 SLP059 P0004 60027 T00670067 56022=
202402281356 METAR KPWT 281356Z AUTO 20012G19KT 9SM -RA OVC004 07/07 A2970 RMK AO2 SLP065 P0005 T00670067=
202402281320 SPECI KPWT 281320Z AUTO 19013G18KT 10SM -RA OVC004 06/06 A2972 RMK AO2 P0002=
202402281256 METAR KPWT 281256Z AUTO 19013G21KT 10SM -RA OVC006 06/06 A2973 RMK AO2 SLP072 P0018 T00610061=
202402281156 METAR KPWT 281156Z AUTO 18013G22KT 10SM -RA OVC006 06/06 A2975 RMK AO2 CIG 004V008 SLP081 P0013 60032 70048 T00610061 58022=
202402281056 METAR KPWT 281056Z AUTO 19012G19KT 6SM RA OVC006 A2978 RMK AO2 SLPNO P0008 FZRANO=
202402280956 METAR KPWT 280956Z AUTO 19014G17KT 10SM -RA OVC006 06/06 A2980 RMK AO2 PK WND 20026/0913 SLP098 P0005 T00610061=
202402280856 METAR KPWT 280856Z AUTO 19012G20KT 10SM -RA OVC006 06/06 A2982 RMK AO2 PK WND 20027/0812 SLP103 P0003 60006 T00610061 58012=
202402280756 METAR KPWT 280756Z AUTO 20011G23KT 10SM -RA OVC006 06/06 A2983 RMK AO2 PK WND 20026/0706 SLP108 P0002 T00610061 400611044=
202402280656 METAR KPWT 280656Z AUTO 19016G27KT 9SM -RA OVC006 06/06 A2984 RMK AO2 PK WND 21027/0651 SLP114 P0001 T00560056=
202402280556 METAR KPWT 280556Z AUTO 19015G24KT 9SM -RA OVC006 06/06 A2985 RMK AO2 SLP115 P0001 60015 T00560056 10056 20039 56023=
202402280535 SPECI KPWT 280535Z AUTO 20013G20KT 10SM -RA OVC006 06/06 A2986 RMK AO2 P0000=
202402280456 METAR KPWT 280456Z AUTO 21014G20KT 10SM -RA OVC004 05/05 A2987 RMK AO2 SLP121 P0002 T00500050=
202402280356 METAR KPWT 280356Z AUTO 20011G16KT 8SM -RA OVC004 04/04 A2988 RMK AO2 SLP128 P0003 T00440044=
202402280256 METAR KPWT 280256Z AUTO 20009KT 6SM -RA BR OVC004 04/04 A2992 RMK AO2 CIG 003V009 SLP141 P0004 60009 T00440044 58028=
202402280209 SPECI KPWT 280209Z AUTO 19008KT 6SM -RA BR OVC004 04/04 A2994 RMK AO2 CIG 004V008 P0001=
202402280156 METAR KPWT 280156Z AUTO 19008KT 8SM -RA OVC006 04/04 A2995 RMK AO2 CIG 004V008 SLP150 P0003 T00390039=
202402280056 METAR KPWT 280056Z AUTO 20012G17KT 10SM -RA OVC008 04/04 A2998 RMK AO2 CIG 005V011 SLP161 P0002 T00440044=
202402272356 METAR KPWT 272356Z AUTO 19009KT 10SM -RA OVC007 04/04 A3001 RMK AO2 CIG 005V009 SLP169 P0001 60001 T00440044 10044 20022 56017=
202402272354 SPECI KPWT 272354Z AUTO 19007KT 9SM -RA BKN007 OVC011 04/04 A3001 RMK AO2 CIG 005V009 P0001=
202402272256 METAR KPWT 272256Z AUTO 18008KT 10SM -RA OVC012 04/04 A3003 RMK AO2 SLP179 P0000 T00390039=
202402272156 METAR KPWT 272156Z AUTO 20008KT 10SM -RA BKN014 OVC022 04/03 A3006 RMK AO2 SLP186 P0000 T00390033=
202402272148 SPECI KPWT 272148Z AUTO 19009KT 10SM -RA BKN014 BKN020 04/03 A3006 RMK AO2 P0000=
202402272103 SPECI KPWT 272103Z AUTO 21008KT 10SM -RA BKN019 OVC046 04/02 A3007 RMK AO2 P0000=
202402272056 METAR KPWT 272056Z AUTO 21009KT 10SM -RA SCT019 OVC048 04/02 A3007 RMK AO2 RAB52 SLP193 P0000 60000 T00390017 58009=
202402271956 METAR KPWT 271956Z AUTO 20005KT 10SM FEW070 03/02 A3009 RMK AO2 SLP199 T00330017=
202402271856 METAR KPWT 271856Z AUTO 21006KT 10SM SCT060 03/03 A3010 RMK AO2 SLP202 T00330033=
202402271838 SPECI KPWT 271838Z AUTO 00000KT 10SM FEW009 03/02 A3010 RMK AO2=
202402271810 SPECI KPWT 271810Z AUTO 23004KT 10SM BKN007 03/03 A3010 RMK AO2=
202402271756 METAR KPWT 271756Z AUTO 13004KT 10SM FEW007 02/02 A3010 RMK AO2 SLP202 T00220022 10022 21044 51016 FZRANO=
202402271656 METAR KPWT 271656Z AUTO 00000KT 10SM CLR 00/00 A3009 RMK AO2 SLP199 T00000000 FZRANO=
202402271556 METAR KPWT 271556Z AUTO 00000KT 10SM CLR M03/M03 A3007 RMK AO2 SLP192 T10331033 FZRANO=
202402271456 METAR KPWT 271456Z AUTO 00000KT 10SM CLR M04/M04 A3005 RMK AO2 SLP186 T10391039 53016 FZRANO=
202402271356 METAR KPWT 271356Z AUTO 00000KT 10SM CLR M04/M04 A3004 RMK AO2 SLP180 T10441044 FZRANO=
202402271256 METAR KPWT 271256Z AUTO 00000KT 10SM CLR M04/M04 A3002 RMK AO2 SLP174 T10391039 FZRANO=
202402271156 METAR KPWT 271156Z AUTO 00000KT 10SM CLR M03/M03 A3001 RMK AO2 SLP170 70002 T10331033 11011 21044 52019 FZRANO=
202402271056 METAR KPWT 271056Z AUTO 00000KT 10SM SCT014 M03/M03 A2999 RMK AO2 SLP163 T10281028 FZRANO=
202402271017 SPECI KPWT 271017Z AUTO 05005KT 10SM FEW007 M02/M02 A2997 RMK AO2 FZRANO=
202402270956 METAR KPWT 270956Z AUTO 03003KT 10SM CLR M03/M03 A2997 RMK AO2 SLP155 T10331033 FZRANO=
202402270856 METAR KPWT 270856Z AUTO 00000KT 10SM CLR M04/M04 A2995 RMK AO2 SLP150 T10391039 53017 FZRANO=
202402270756 METAR KPWT 270756Z AUTO 00000KT 10SM CLR M04/M04 A2993 RMK AO2 SLP144 T10441044 400671044 FZRANO=
202402270656 METAR KPWT 270656Z AUTO 00000KT 10SM CLR M04/M04 A2991 RMK AO2 SLP138 T10391039 FZRANO=
202402270556 METAR KPWT 270556Z AUTO 00000KT 10SM CLR M03/M03 A2990 RMK AO2 SLP134 60001 T10331033 10033 21033 51017 FZRANO=
202402270456 METAR KPWT 270456Z AUTO 00000KT 10SM CLR M02/M02 A2989 RMK AO2 SLP129 T10221022 FZRANO=
202402270356 METAR KPWT 270356Z AUTO 00000KT 10SM CLR M02/M02 A2987 RMK AO2 SLP124 T10171022 FZRANO=
202402270256 METAR KPWT 270256Z AUTO 22003KT 10SM CLR M01/M01 A2985 RMK AO2 SLP116 60001 T10111011 53011 FZRANO=
202402270156 METAR KPWT 270156Z AUTO 04003KT 10SM CLR 01/01 A2984 RMK AO2 SLP113 T00110011 FZRANO=
202402270056 METAR KPWT 270056Z AUTO 00000KT 10SM CLR 03/01 A2982 RMK AO2 RAE25UPB2359E07 SLP107 P0001 T00330011=
202402262356 METAR KPWT 262356Z AUTO 02008KT 5SM -RA BR FEW015 BKN035 OVC050 02/01 A2982 RMK AO2 RAB29 SLP104 P0001 60001 T00220011 10067 20022 55005 FZRANO=
202402262256 METAR KPWT 262256Z AUTO 18005KT 10SM CLR 06/01 A2980 RMK AO2 SLP097 T00560006=
202402262156 METAR KPWT 262156Z AUTO VRB05KT 10SM BKN032 BKN055 06/00 A2982 RMK AO2 SLP106 T00610000=
202402262056 METAR KPWT 262056Z AUTO VRB03KT 10SM SCT032 BKN070 07/01 A2983 RMK AO2 SLP109 T00670006 50003=
202402261956 METAR KPWT 261956Z AUTO 16004KT 10SM FEW021 SCT070 05/01 A2984 RMK AO2 SLP111 T00500006=
202402261856 METAR KPWT 261856Z AUTO 00000KT 10SM FEW014 04/01 A2983 RMK AO2 SLP107 T00390011=
202402261756 METAR KPWT 261756Z AUTO VRB03KT 10SM SCT008 03/02 A2982 RMK AO2 SLP104 T00330017 10033 21028 52015=
202402261656 METAR KPWT 261656Z AUTO 21003KT 10SM FEW008 03/02 A2981 RMK AO2 SLP101 T00330017=
202402261556 METAR KPWT 261556Z AUTO 00000KT 10SM FEW010 M01/M01 A2979 RMK AO2 SLP096 T10061006 FZRANO=
202402261456 METAR KPWT 261456Z AUTO 04004KT 10SM CLR M03/M03 A2978 RMK AO2 SLP091 T10281033 51007 FZRANO=
202402261356 METAR KPWT 261356Z AUTO 00000KT 10SM CLR M02/M02 A2977 RMK AO2 SLP088 T10171022 FZRANO=
202402261339 SPECI KPWT 261339Z AUTO 00000KT 10SM SCT009 M01/M01 A2977 RMK AO2 FZRANO=
202402261256 METAR KPWT 261256Z AUTO 20003KT 10SM BKN009 00/00 A2976 RMK AO2 SLP086 T00000000 FZRANO=
202402261209 SPECI KPWT 261209Z AUTO 00000KT 10SM BKN009 01/00 A2976 RMK AO2 FZRANO=
202402261156 METAR KPWT 261156Z AUTO VRB03KT 10SM SCT011 01/01 A2975 RMK AO2 SLP082 70002 T00060006 10050 21006 53004 FZRANO=
202402261056 METAR KPWT 261056Z AUTO 25008KT 10SM CLR 01/01 A2975 RMK AO2 SLP079 T00110006 FZRANO=
202402260956 METAR KPWT 260956Z AUTO 20004KT 10SM CLR 00/M01 A2974 RMK AO2 SLP078 T00001011 FZRANO=
202402260856 METAR KPWT 260856Z AUTO 22009KT 10SM CLR 02/M01 A2974 RMK AO2 SLP078 T00221011 50003 FZRANO=
202402260756 METAR KPWT 260756Z AUTO 20003KT 10SM CLR 00/M02 A2975 RMK AO2 SLP080 T00001017 401110000 FZRANO=
202402260656 METAR KPWT 260656Z AUTO 24003KT 10SM CLR 03/M02 A2974 RMK AO2 SLP077 T00331022=
202402260556 METAR KPWT 260556Z AUTO 29004KT 10SM CLR 04/M02 A2973 RMK AO2 SLP075 T00441017 10100 20039 51026=
202402260456 METAR KPWT 260456Z AUTO 00000KT 10SM CLR 06/M01 A2971 RMK AO2 SLP067 T00561011=
202402260356 METAR KPWT 260356Z AUTO 21009KT 10SM FEW120 05/02 A2968 RMK AO2 SLP056 T00500022=
202402260256 METAR KPWT 260256Z AUTO 19013KT 10SM OVC110 06/04 A2965 RMK AO2 PK WND 20029/0231 SLP047 T00610039 53004=
202402260156 METAR KPWT 260156Z AUTO 20015G21KT 10SM CLR 08/06 A2965 RMK AO2 SLP046 T00780056=
202402260056 METAR KPWT 260056Z AUTO 21018G26KT 10SM CLR 09/07 A2964 RMK AO2 PK WND 20029/0015 SLP040 T00890067=
202402252356 METAR KPWT 252356Z AUTO 20022KT 10SM CLR 10/07 A2964 RMK AO2 PK WND 19031/2310 SLP042 60002 T01000072 10111 20078 56018=
202402252256 METAR KPWT 252256Z AUTO 21020G29KT 10SM CLR 11/08 A2964 RMK AO2 PK WND 22038/2209 SLP041 T01110078=
202402252233 SPECI KPWT 252233Z AUTO 21021G32KT 10SM SCT014 11/08 A2964 RMK AO2 PK WND 22038/2209=
202402252156 METAR KPWT 252156Z AUTO 21027G33KT 10SM OVC014 11/08 A2966 RMK AO2 PK WND 22035/2116 SLP047 T01060083=
202402252124 SPECI KPWT 252124Z AUTO 21026G35KT 10SM BKN014 BKN019 11/09 A2968 RMK AO2 PK WND 22035/2116=
202402252116 SPECI KPWT 252116Z AUTO 21023G35KT 10SM SCT012 SCT018 10/08 A2968 RMK AO2 PK WND 22035/2116=
202402252056 METAR KPWT 252056Z AUTO 20023G29KT 10SM BKN012 BKN017 10/09 A2969 RMK AO2 PK WND 20032/2026 SLP060 60002 T01000089 58035=
202402252037 SPECI KPWT 252037Z AUTO 21022G30KT 10SM BKN012 BKN017 10/09 A2970 RMK AO2 PK WND 20032/2026=
202402252030 SPECI KPWT 252030Z AUTO 21021G32KT 10SM SCT010 BKN015 10/09 A2971 RMK AO2 PK WND 20032/2026 PRESFR=
202402251956 METAR KPWT 251956Z AUTO 20018G24KT 10SM BKN008 OVC011 09/09 A2974 RMK AO2 RAE40 SLP076 P0001 T00890089=
202402251856 METAR KPWT 251856Z AUTO 20014G21KT 10SM -RA OVC006 08/08 A2978 RMK AO2 CIG 004V011 SLP089 P0001 T00830083=
202402251756 METAR KPWT 251756Z AUTO 19013G24KT 6SM -RA BR OVC006 08/08 A2980 RMK AO2 SLP096 P0000 60000 T00780078 10078 20072 58015=
202402251656 METAR KPWT 251656Z AUTO 20013G19KT 10SM -RA OVC006 08/08 A2983 RMK AO2 RAB17 SLP106 P0000 T00780078=
202402251556 METAR KPWT 251556Z AUTO 21018KT 10SM OVC008 07/07 A2984 RMK AO2 SLP110 T00720072=
202402251518 SPECI KPWT 251518Z AUTO 21018G24KT 10SM OVC008 08/07 A2984 RMK AO2=
202402251456 METAR KPWT 251456Z AUTO 21017G24KT 10SM OVC010 08/07 A2984 RMK AO2 SLP111 T00780072 58019=
202402251356 METAR KPWT 251356Z AUTO 20015KT 10SM OVC010 07/07 A2987 RMK AO2 CIG 007V011 SLP120 T00720072=
202402251341 SPECI KPWT 251341Z AUTO 20017G22KT 10SM BKN010 08/07 A2987 RMK AO2=
202402251311 SPECI KPWT 251311Z AUTO 20015G20KT 10SM OVC008 08/08 A2988 RMK AO2 CIG 007V012=
202402251303 SPECI KPWT 251303Z AUTO 20014G22KT 10SM BKN010 08/08 A2988 RMK AO2 CIG 007V012=
202402251256 METAR KPWT 251256Z AUTO 19016G22KT 10SM BKN008 08/08 A2988 RMK AO2 CIG 007V012 SLP122 T00780078=
202402251245 SPECI KPWT 251245Z AUTO 19016G22KT 10SM BKN008 08/08 A2988 RMK AO2 CIG 007V012=
202402251215 SPECI KPWT 251215Z AUTO 20016G21KT 10SM SCT010 08/08 A2990 RMK AO2=
202402251156 METAR KPWT 251156Z AUTO 20014G23KT 10SM BKN010 08/07 A2990 RMK AO2 CIG 007V012 SLP130 T00780072 10083 20072 58023=
202402251130 SPECI KPWT 251130Z AUTO 20014KT 10SM BKN008 08/08 A2991 RMK AO2 CIG 007V012=
202402251056 METAR KPWT 251056Z AUTO 21016G24KT 10SM OVC010 08/07 A2992 RMK AO2 SLP137 T00780072=
202402250956 METAR KPWT 250956Z AUTO 20014G20KT 10SM BKN010 08/07 A2995 RMK AO2 SLP148 T00780072=
202402250856 METAR KPWT 250856Z AUTO 21011G21KT 10SM BKN010 OVC110 08/08 A2997 RMK AO2 CIG 007V011 SLP154 T00780078 58007=
202402250836 SPECI KPWT 250836Z AUTO 21015G22KT 10SM BKN010 08/08 A2997 RMK AO2 CIG 008V012=
202402250756 METAR KPWT 250756Z AUTO 20014G24KT 10SM SCT010 08/08 A2998 RMK AO2 SLP158 T00780078 400940039=
202402250752 SPECI KPWT 250752Z AUTO 21015G21KT 10SM SCT010 08/08 A2998 RMK AO2 400940039=
202402250656 METAR KPWT 250656Z AUTO 20008G16KT 10SM OVC010 08/08 A2999 RMK AO2 CIG 007V013 SLP162 T00780078=
202402250622 SPECI KPWT 250622Z AUTO 21011G18KT 10SM OVC010 08/08 A2999 RMK AO2 CIG 007V012=
202402250556 METAR KPWT 250556Z AUTO 21010G17KT 10SM OVC006 08/08 A3001 RMK AO2 SLP167 T00780078 10094 20078 58012=
202402250456 METAR KPWT 250456Z AUTO 21010KT 10SM OVC008 08/08 A3002 RMK AO2 SLP172 T00780078=
202402250356 METAR KPWT 250356Z AUTO 21006KT 10SM OVC008 08/08 A3003 RMK AO2 SLP174 T00780078=
202402250256 METAR KPWT 250256Z AUTO 23006KT 10SM OVC008 08/08 A3004 RMK AO2 SLP179 T00780078 56010=
202402250156 METAR KPWT 250156Z AUTO 22007KT 10SM BKN014 08/07 A3004 RMK AO2 SLP179 T00830072=
202402250108 SPECI KPWT 250108Z AUTO 22008KT 10SM OVC014 09/07 A3005 RMK AO2=
202402250056 METAR KPWT 250056Z AUTO 21009KT 10SM OVC016 09/08 A3005 RMK AO2 SLP183 T00940078=
202402242356 METAR KPWT 242356Z AUTO 00000KT 10SM OVC020 09/08 A3007 RMK AO2 SLP189 T00940078 10094 20056 58012=
202402242256 METAR KPWT 242256Z AUTO 02003KT 10SM OVC018 08/08 A3009 RMK AO2 SLP195 T00830078=
202402242222 SPECI KPWT 242222Z AUTO 00000KT 10SM OVC017 08/07 A3009 RMK AO2=
202402242156 METAR KPWT 242156Z AUTO 00000KT 10SM BKN011 OVC019 08/07 A3011 RMK AO2 SLP202 T00780072=
202402242142 SPECI KPWT 242142Z AUTO 14003KT 10SM BKN009 OVC027 08/08 A3011 RMK AO2=
202402242132 SPECI KPWT 242132Z AUTO 00000KT 10SM SCT009 OVC029 08/08 A3011 RMK AO2=
202402242118 SPECI KPWT 242118Z AUTO 00000KT 10SM SCT005 OVC031 08/08 A3012 RMK AO2=
202402242110 SPECI KPWT 242110Z AUTO 00000KT 10SM BKN005 OVC031 07/07 A3012 RMK AO2 CIG 003V007=
202402242056 METAR KPWT 242056Z AUTO 22003KT 10SM OVC003 07/07 A3013 RMK AO2 CIG 002V007 SLP208 T00720072 58014=
202402242034 SPECI KPWT 242034Z AUTO 00000KT 3SM BR OVC003 07/07 A3015 RMK AO2=
202402242022 SPECI KPWT 242022Z AUTO 24003KT 2SM BR OVC003 07/07 A3016 RMK AO2=
202402241956 METAR KPWT 241956Z AUTO 22005KT 4SM BR OVC003 06/06 A3017 RMK AO2 SLP222 T00610061=
202402241856 METAR KPWT 241856Z AUTO 24004KT 9SM OVC003 06/06 A3017 RMK AO2 SLP222 T00610061=
202402241839 SPECI KPWT 241839Z AUTO 00000KT 8SM OVC003 06/06 A3017 RMK AO2=
202402241829 SPECI KPWT 241829Z AUTO 22003KT 2SM BR OVC003 06/06 A3017 RMK AO2 VIS 3/4V5=
202402241756 METAR KPWT 241756Z AUTO 20005KT 7SM OVC003 06/06 A3017 RMK AO2 SLP222 60000 T00560056 10056 20044 51002=
202402241656 METAR KPWT 241656Z AUTO 00000KT 4SM BR OVC003 06/06 A3017 RMK AO2 SLP222 T00560056=
202402241631 SPECI KPWT 241631Z AUTO 00000KT 10SM BKN003 BKN009 BKN035 05/05 A3016 RMK AO2=
202402241620 SPECI KPWT 241620Z AUTO 00000KT 10SM SCT009 BKN035 05/05 A3017 RMK AO2=
202402241611 SPECI KPWT 241611Z AUTO 00000KT 10SM SCT007 BKN011 OVC035 05/05 A3017 RMK AO2=
202402241556 METAR KPWT 241556Z AUTO 00000KT 10SM BKN005 05/05 A3017 RMK AO2 SLP222 T00500050=
202402241542 SPECI KPWT 241542Z AUTO 00000KT 10SM BKN005 05/05 A3017 RMK AO2 CIG 003V007=
202402241532 SPECI KPWT 241532Z AUTO 00000KT 3SM BR OVC003 05/05 A3016 RMK AO2 CIG 003V007=
202402241529 SPECI KPWT 241529Z AUTO 00000KT 3/4SM BR OVC003 05/05 A3016 RMK AO2 CIG 003V007=
202402241456 METAR KPWT 241456Z AUTO 00000KT 1/4SM FG OVC003 04/04 A3016 RMK AO2 SLP220 60000 T00440044 58007=
202402241356 METAR KPWT 241356Z AUTO 26003KT 1/4SM FG OVC003 04/04 A3017 RMK AO2 RAE32 SLP222 P0000 T00440044=
202402241341 SPECI KPWT 241341Z AUTO 00000KT 1/4SM FG OVC003 04/04 A3017 RMK AO2 RAE32 P0000=
202402241322 SPECI KPWT 241322Z AUTO 00000KT 1/2SM -RA FG OVC003 04/04 A3018 RMK AO2 P0000=
202402241314 SPECI KPWT 241314Z AUTO 00000KT 1/4SM FG OVC003 04/04 A3018 RMK AO2 RAE02 P0000=
202402241256 METAR KPWT 241256Z AUTO 00000KT 1/2SM -RA FG OVC003 04/04 A3018 RMK AO2 RAB28 SLP225 P0000 T00440044=
202402241211 SPECI KPWT 241211Z AUTO 00000KT 1/2SM FG OVC003 04/04 A3018 RMK AO2=
202402241203 SPECI KPWT 241203Z AUTO 00000KT 3/4SM BR OVC003 04/04 A3019 RMK AO2=
202402241156 METAR KPWT 241156Z AUTO 00000KT 1SM BR OVC003 04/04 A3018 RMK AO2 SLP226 7//// T00440044 10044 20028 56006=
202402241131 SPECI KPWT 241131Z AUTO 00000KT 1 1/2SM BR OVC003 04/04 A3018 RMK AO2=
202402241120 SPECI KPWT 241120Z AUTO 00000KT 1SM BR OVC003 04/04 A3019 RMK AO2=
202402241056 METAR KPWT 241056Z AUTO 00000KT 3/4SM BR OVC003 04/04 A3019 RMK AO2 SLP228 T00390039=
202402241044 SPECI KPWT 241044Z AUTO 00000KT 1 1/4SM BR OVC003 04/04 A3019 RMK AO2=
202402241037 SPECI KPWT 241037Z AUTO 15004KT 3/4SM BR OVC003 04/04 A3019 RMK AO2=
202402241010 SPECI KPWT 241010Z AUTO 00000KT 1SM BR OVC003 04/04 A3020 RMK AO2=
202402240956 METAR KPWT 240956Z AUTO 00000KT 3/4SM BR OVC001 04/04 A3020 RMK AO2 SLP234 T00390039=
202402240939 SPECI KPWT 240939Z AUTO 00000KT 1SM BR OVC001 04/04 A3019 RMK AO2=
202402240856 METAR KPWT 240856Z AUTO 18003KT 1 1/2SM BR OVC001 04/04 A3019 RMK AO2 SLP231 T00440044 58009=
202402240848 SPECI KPWT 240848Z AUTO 00000KT 1 1/4SM BR OVC001 04/04 A3020 RMK AO2=
202402240833 SPECI KPWT 240833Z AUTO 00000KT 3/4SM BR OVC001 04/04 A3020 RMK AO2=
202402240830 SPECI KPWT 240830Z AUTO 21003KT 1 1/2SM BR BKN001 OVC120 04/04 A3020 RMK AO2=
202402240823 SPECI KPWT 240823Z AUTO 00000KT 7SM BKN001 OVC120 04/04 A3020 RMK AO2=
202402240814 SPECI KPWT 240814Z AUTO 00000KT 8SM SCT001 OVC120 04/04 A3020 RMK AO2=
202402240756 METAR KPWT 240756Z AUTO 00000KT 10SM BKN120 04/04 A3020 RMK AO2 SLP235 T00390039 401281011=
202402240734 SPECI KPWT 240734Z AUTO 00000KT 5SM BR FEW120 04/04 A3020 RMK AO2=
202402240724 SPECI KPWT 240724Z AUTO 00000KT 2 1/2SM BR CLR 03/03 A3021 RMK AO2=
202402240656 METAR KPWT 240656Z AUTO 00000KT 10SM CLR 03/03 A3021 RMK AO2 SLP237 T00330033=
202402240637 SPECI KPWT 240637Z AUTO 00000KT 3SM BR CLR 04/04 A3021 RMK AO2=
202402240632 SPECI KPWT 240632Z AUTO 00000KT 1 1/4SM BR CLR 04/04 A3021 RMK AO2=
202402240628 SPECI KPWT 240628Z AUTO 00000KT 3/4SM BR CLR 03/03 A3021 RMK AO2=
202402240615 SPECI KPWT 240615Z AUTO 00000KT 1SM BR FEW036 03/03 A3022 RMK AO2 VIS 1/2V5=
202402240607 SPECI KPWT 240607Z AUTO 00000KT 2SM BR FEW036 04/04 A3022 RMK AO2=
202402240604 SPECI KPWT 240604Z AUTO 00000KT 1SM BR FEW036 03/03 A3022 RMK AO2=
202402240556 METAR KPWT 240556Z AUTO 00000KT 1/2SM FG FEW036 04/04 A3022 RMK AO2 SLP242 T00390039 10128 20033 56005=
202402240552 SPECI KPWT 240552Z AUTO 00000KT 1/2SM FG SCT036 04/04 A3022 RMK AO2=
202402240535 SPECI KPWT 240535Z AUTO 00000KT 1/4SM FG CLR 04/04 A3023 RMK AO2=
202402240526 SPECI KPWT 240526Z AUTO 00000KT 1/2SM FG CLR 03/03 A3023 RMK AO2=
202402240523 SPECI KPWT 240523Z AUTO 00000KT 1SM BR CLR 04/04 A3023 RMK AO2=
202402240514 SPECI KPWT 240514Z AUTO 00000KT 2 1/2SM BR FEW001 03/03 A3023 RMK AO2=
202402240456 METAR KPWT 240456Z AUTO 00000KT 10SM CLR 04/04 A3023 RMK AO2 SLP246 T00440044=
202402240432 SPECI KPWT 240432Z AUTO 00000KT 3SM BR CLR 04/04 A3023 RMK AO2=
202402240430 SPECI KPWT 240430Z AUTO 00000KT 1 1/4SM BR CLR 04/04 A3023 RMK AO2 VIS 1/2V5=
202402240420 SPECI KPWT 240420Z AUTO 00000KT 3/4SM BR CLR 04/04 A3023 RMK AO2 VIS 1/4V5=
202402240418 SPECI KPWT 240418Z AUTO 00000KT 1 1/2SM BR CLR 04/04 A3024 RMK AO2 VIS 1/2V5=
202402240356 METAR KPWT 240356Z AUTO 00000KT 10SM SCT035 07/07 A3024 RMK AO2 SLP246 T00670067=
202402240256 METAR KPWT 240256Z AUTO 00000KT 10SM OVC033 08/08 A3024 RMK AO2 SLP246 T00830078 58007=
202402240156 METAR KPWT 240156Z AUTO 00000KT 10SM OVC033 08/08 A3025 RMK AO2 SLP250 T00830078=
202402240056 METAR KPWT 240056Z AUTO 05006KT 10SM FEW019 10/08 A3026 RMK AO2 SLP254 T01000078=
202402232356 METAR KPWT 232356Z AUTO 00000KT 10SM CLR 13/07 A3026 RMK AO2 SLP253 6//// T01280072 10128 20050 58016=
202402232256 METAR KPWT 232256Z AUTO 00000KT 10SM CLR 11/08 A3028 RMK AO2 SLP260 T01060078=
202402232222 SPECI KPWT 232222Z AUTO VRB03KT 10SM SCT009 09/08 A3029 RMK AO2=
202402232156 METAR KPWT 232156Z AUTO 00000KT 10SM BKN007 08/08 A3031 RMK AO2 SLP270 T00780078=
202402232151 SPECI KPWT 232151Z AUTO 00000KT 10SM OVC007 08/08 A3031 RMK AO2=
202402232106 SPECI KPWT 232106Z AUTO 00000KT 10SM OVC005 07/07 A3032 RMK AO2=
202402232056 METAR KPWT 232056Z AUTO 05004KT 10SM OVC003 07/07 A3032 RMK AO2 SLP274 T00670067 56013=
202402231956 METAR KPWT 231956Z AUTO 08006KT 6SM BR OVC003 06/06 A3032 RMK AO2 SLP275 T00610061=
202402231905 SPECI KPWT 231905Z AUTO 08003KT 3SM BR OVC003 06/06 A3034 RMK AO2=
202402231856 METAR KPWT 231856Z AUTO 04004KT 2 1/2SM BR OVC003 06/06 A3034 RMK AO2 VIS 1 3/4V5 SLP284 T00610061=
202402231837 SPECI KPWT 231837Z AUTO 00000KT 3SM BR OVC003 06/06 A3034 RMK AO2=
202402231830 SPECI KPWT 231830Z AUTO 02004KT 1 1/4SM BR OVC003 06/06 A3035 RMK AO2 VIS 1/2V3=
202402231825 SPECI KPWT 231825Z AUTO 07003KT 3/4SM BR OVC003 06/06 A3035 RMK AO2=
202402231756 METAR KPWT 231756Z AUTO 00000KT 1/4SM FG OVC003 05/05 A3035 RMK AO2 SLP286 T00500050 10050 21011 50001=
202402231656 METAR KPWT 231656Z AUTO 00000KT 1/4SM FG OVC003 04/04 A3036 RMK AO2 SLP287 T00440044=
202402231556 METAR KPWT 231556Z AUTO 04003KT 1/4SM FG OVC003 04/04 A3036 RMK AO2 SLP288 T00440044=
202402231456 METAR KPWT 231456Z AUTO 05005KT 1/4SM FG OVC003 04/04 A3035 RMK AO2 SLP285 T00440044 58001=
202402231434 SPECI KPWT 231434Z AUTO 05008KT 1/4SM FG OVC003 04/04 A3035 RMK AO2=
202402231426 SPECI KPWT 231426Z AUTO 05005KT 1/2SM FG OVC003 03/03 A3035 RMK AO2=
202402231414 SPECI KPWT 231414Z AUTO 04003KT 3/4SM BR OVC003 01/01 A3036 RMK AO2 FZRANO=
202402231403 SPECI KPWT 231403Z AUTO 00000KT 1 3/4SM BR OVC003 00/00 A3035 RMK AO2 VIS 1V3 FZRANO=
202402231356 METAR KPWT 231356Z AUTO 00000KT 4SM BR BKN003 00/00 A3035 RMK AO2 SLP284 T00000000 FZRANO=
202402231354 SPECI KPWT 231354Z AUTO 00000KT 6SM BR BKN003 00/00 A3035 RMK AO2 FZRANO=
202402231345 SPECI KPWT 231345Z AUTO 00000KT 6SM BR SCT003 M01/M01 A3035 RMK AO2 FZRANO=
202402231321 SPECI KPWT 231321Z AUTO 00000KT 3SM BR CLR M01/M01 A3035 RMK AO2 FZRANO=
202402231318 SPECI KPWT 231318Z AUTO 00000KT 1 1/4SM BR CLR M01/M01 A3036 RMK AO2 FZRANO=
202402231309 SPECI KPWT 231309Z AUTO 22003KT 3/4SM BR CLR M01/M01 A3036 RMK AO2 FZRANO=
202402231305 SPECI KPWT 231305Z AUTO 22003KT 1 1/2SM BR CLR M01/M01 A3036 RMK AO2 VIS 3/4V5 FZRANO=
202402231256 METAR KPWT 231256Z AUTO 22004KT 10SM CLR M01/M01 A3035 RMK AO2 SLP285 T10111011 FZRANO=
202402231248 SPECI KPWT 231248Z AUTO 22004KT 3SM BR CLR M01/M01 A3035 RMK AO2 FZRANO=
202402231238 SPECI KPWT 231238Z AUTO 22004KT 1 3/4SM BR CLR M01/M01 A3035 RMK AO2 FZRANO=
202402231217 SPECI KPWT 231217Z AUTO 22003KT 4SM BR CLR M01/M01 A3035 RMK AO2 FZRANO=
202402231214 SPECI KPWT 231214Z AUTO 22003KT 1 3/4SM BR CLR M01/M01 A3035 RMK AO2 FZRANO=
202402231202 SPECI KPWT 231202Z AUTO 00000KT 2SM BR CLR M01/M01 A3035 RMK AO2 VIS 3/4V5 FZRANO=
202402231156 METAR KPWT 231156Z AUTO 00000KT 1SM BR CLR 00/00 A3035 RMK AO2 VIS 1/2V3 SLP284 T00000000 10044 20000 55002 FZRANO=
202402231143 SPECI KPWT 231143Z AUTO 00000KT 3/4SM BR CLR 00/00 A3035 RMK AO2 VIS 1/2V5 FZRANO=
202402231140 SPECI KPWT 231140Z AUTO 00000KT 1 3/4SM BR CLR 00/00 A3035 RMK AO2 VIS 1/2V5 FZRANO=
202402231138 SPECI KPWT 231138Z AUTO 00000KT 3SM BR CLR 00/00 A3035 RMK AO2 FZRANO=
202402231125 SPECI KPWT 231125Z AUTO 00000KT 1 1/2SM BR CLR 00/00 A3035 RMK AO2 FZRANO=
202402231106 SPECI KPWT 231106Z AUTO 00000KT 3SM BR CLR 00/00 A3035 RMK AO2 FZRANO=
202402231102 SPECI KPWT 231102Z AUTO 00000KT 1 1/4SM BR CLR 00/00 A3035 RMK AO2 FZRANO=
202402231100 SPECI KPWT 231100Z AUTO 00000KT 3/4SM BR CLR 00/00 A3035 RMK AO2 FZRANO=
202402231056 METAR KPWT 231056Z AUTO 00000KT 1/4SM FG CLR 00/00 A3035 RMK AO2 SLP284 T00000000 FZRANO=
202402231046 SPECI KPWT 231046Z AUTO 00000KT 1/4SM FG CLR 00/00 A3035 RMK AO2 FZRANO=
202402231042 SPECI KPWT 231042Z AUTO 00000KT 3/4SM BR CLR 00/00 A3035 RMK AO2 VIS 1/4V5 FZRANO=
202402231031 SPECI KPWT 231031Z AUTO 00000KT 2SM BR CLR 01/01 A3035 RMK AO2 VIS 1/2V5 FZRANO=
202402231028 SPECI KPWT 231028Z AUTO 00000KT 1SM BR CLR 01/01 A3035 RMK AO2 FZRANO=
202402231023 SPECI KPWT 231023Z AUTO 00000KT 1/2SM FG CLR 01/01 A3035 RMK AO2 FZRANO=
202402231005 SPECI KPWT 231005Z AUTO 00000KT 3/4SM BR CLR 01/01 A3035 RMK AO2 FZRANO=
202402230956 METAR KPWT 230956Z AUTO 00000KT 1SM BR CLR 01/01 A3035 RMK AO2 VIS 1/2V5 SLP283 T00110011 FZRANO=
202402230949 SPECI KPWT 230949Z AUTO 00000KT 1 3/4SM BR CLR 02/02 A3035 RMK AO2 VIS 1/2V5 FZRANO=
202402230913 SPECI KPWT 230913Z AUTO 00000KT 4SM BR CLR 03/03 A3036 RMK AO2=
202402230903 SPECI KPWT 230903Z AUTO 00000KT 1 3/4SM BR CLR 02/02 A3036 RMK AO2 VIS 1/2V5 FZRANO=
202402230856 METAR KPWT 230856Z AUTO 00000KT 10SM CLR 02/02 A3036 RMK AO2 SLP286 T00170017 53002 FZRANO=
202402230842 SPECI KPWT 230842Z AUTO 00000KT 3SM BR CLR 03/03 A3036 RMK AO2=
202402230839 SPECI KPWT 230839Z AUTO 00000KT 1 3/4SM BR CLR 03/03 A3035 RMK AO2 VIS 1/2V5=
202402230756 METAR KPWT 230756Z AUTO 00000KT 10SM CLR 04/04 A3035 RMK AO2 SLP285 T00390039 401330017=
202402230656 METAR KPWT 230656Z AUTO 02003KT 10SM CLR 03/03 A3035 RMK AO2 SLP285 T00280028=
202402230556 METAR KPWT 230556Z AUTO 00000KT CLR 02/02 A3035 RMK AO2 SLP285 T00170017 10133 20017 52006 FZRANO=
202402230456 METAR KPWT 230456Z AUTO 00000KT 10SM CLR 03/03 A3035 RMK AO2 SLP284 T00280028=
202402230356 METAR KPWT 230356Z AUTO 00000KT 10SM CLR 03/03 A3034 RMK AO2 SLP281 T00330033=
202402230256 METAR KPWT 230256Z AUTO 13003KT 10SM CLR 05/05 A3034 RMK AO2 SLP280 T00500050 53006=
202402230156 METAR KPWT 230156Z AUTO 00000KT 10SM CLR 07/06 A3032 RMK AO2 SLP274 T00720061=
202402230056 METAR KPWT 230056Z AUTO 00000KT 10SM CLR 13/04 A3032 RMK AO2 SLP275 T01280044=
202402222356 METAR KPWT 222356Z AUTO 26005KT 10SM CLR 13/04 A3032 RMK AO2 SLP272 T01330044 10133 20089 58008=
202402222256 METAR KPWT 222256Z AUTO 13003KT 10SM OVC038 12/06 A3033 RMK AO2 SLP276 T01220056=
202402222156 METAR KPWT 222156Z AUTO 33003KT 10SM SCT033 BKN043 12/07 A3033 RMK AO2 SLP277 T01170067=
202402222056 METAR KPWT 222056Z AUTO 23005KT 10SM FEW024 BKN041 12/07 A3034 RMK AO2 SLP280 T01170072 50002=
202402221956 METAR KPWT 221956Z AUTO 25004KT 10SM FEW019 BKN045 11/07 A3035 RMK AO2 SLP281 T01060072=
202402221856 METAR KPWT 221856Z AUTO 23005KT 10SM SCT014 OVC041 09/08 A3035 RMK AO2 SLP282 T00940078=
202402221756 METAR KPWT 221756Z AUTO 19006KT 10SM BKN043 09/08 A3033 RMK AO2 SLP277 T00940078 10094 20050 53013=
202402221656 METAR KPWT 221656Z AUTO 20005KT 10SM CLR 08/08 A3032 RMK AO2 SLP271 T00830083=
202402221645 SPECI KPWT 221645Z AUTO 21007KT 10SM SCT003 08/08 A3031 RMK AO2=
202402221611 SPECI KPWT 221611Z AUTO 00000KT 8SM BKN003 06/06 A3030 RMK AO2=
202402221556 METAR KPWT 221556Z AUTO 27003KT 8SM SCT003 06/06 A3030 RMK AO2 SLP265 T00610061=
202402221553 SPECI KPWT 221553Z AUTO 00000KT 7SM SCT003 06/06 A3030 RMK AO2=
202402221456 METAR KPWT 221456Z AUTO 22003KT 10SM CLR 05/05 A3028 RMK AO2 SLP259 T00500050 51016=
202402221356 METAR KPWT 221356Z AUTO 19005KT 10SM BKN060 06/06 A3026 RMK AO2 SLP254 T00610061=
202402221256 METAR KPWT 221256Z AUTO 18005KT 10SM FEW028 BKN045 07/07 A3025 RMK AO2 SLP249 T00670067=
202402221156 METAR KPWT 221156Z AUTO 19006KT 10SM BKN030 BKN045 07/07 A3023 RMK AO2 SLP242 60002 70058 T00670067 10078 20067 51009=
202402221153 SPECI KPWT 221153Z AUTO 20006KT 10SM BKN030 BKN045 07/07 A3023 RMK AO2=
202402221056 METAR KPWT 221056Z AUTO 20008KT 10SM OVC024 07/07 A3022 RMK AO2 RAE23 SLP238 P0000 T00720072=
202402220956 METAR KPWT 220956Z AUTO 20009KT 10SM -RA OVC024 07/07 A3020 RMK AO2 RAB0859 SLP234 P0002 T00720072=
202402220911 SPECI KPWT 220911Z AUTO 20008KT 10SM -RA FEW008 OVC024 08/08 A3019 RMK AO2 RAB0859 P0001=
202402220856 METAR KPWT 220856Z AUTO 20007KT 10SM OVC026 08/08 A3019 RMK AO2 SLP229 T00780078 51020=
202402220756 METAR KPWT 220756Z AUTO 19007KT 10SM OVC028 08/08 A3017 RMK AO2 SLP223 T00780078 401000067=
202402220656 METAR KPWT 220656Z AUTO 20008KT 10SM OVC028 08/08 A3016 RMK AO2 SLP217 T00780078=
202402220556 METAR KPWT 220556Z AUTO 18008KT 10SM BKN023 OVC029 08/08 A3013 RMK AO2 RAE35 SLP210 P0000 60013 T00780078 10094 20078 53018=
202402220456 METAR KPWT 220456Z AUTO 19009KT 10SM -RA OVC023 08/08 A3011 RMK AO2 SLP199 P0001 T00830083=
202402220356 METAR KPWT 220356Z AUTO 19008G16KT 10SM -RA FEW009 BKN025 OVC032 08/08 A3008 RMK AO2 SLP191 P0002 T00830083=
202402220354 SPECI KPWT 220354Z AUTO 19008G16KT 10SM -RA FEW009 BKN025 OVC030 08/08 A3008 RMK AO2 P0002=
202402220304 SPECI KPWT 220304Z AUTO 18006KT 10SM -RA BKN007 BKN013 OVC022 08/08 A3006 RMK AO2 CIG 004V009 P0000=
202402220256 METAR KPWT 220256Z AUTO 18007KT 10SM -RA SCT007 BKN013 OVC023 08/08 A3006 RMK AO2 SLP185 P0004 60010 T00830083 52015=
202402220210 SPECI KPWT 220210Z AUTO 18006KT 10SM -RA SCT007 BKN012 OVC038 09/09 A3004 RMK AO2 P0001=
202402220156 METAR KPWT 220156Z AUTO 18007KT 10SM -RA BKN007 BKN012 OVC040 09/09 A3004 RMK AO2 CIG 004V010 SLP176 P0006 T00890089=
202402220153 SPECI KPWT 220153Z AUTO 19005KT 9SM -RA BKN007 OVC012 09/09 A3004 RMK AO2 CIG 004V010 P0006=
202402220144 SPECI KPWT 220144Z AUTO 17006KT 8SM RA BKN005 OVC012 09/09 A3003 RMK AO2 CIG 004V010 P0004=
202402220126 SPECI KPWT 220126Z AUTO 19005KT 10SM -RA SCT007 BKN011 OVC033 09/09 A3002 RMK AO2 P0002=
202402220056 METAR KPWT 220056Z AUTO 18006KT 8SM -RA OVC007 09/09 A3001 RMK AO2 CIG 004V010 SLP168 P0000 T00890089=
202402212356 METAR KPWT 212356Z AUTO 19009KT 10SM -RA BKN007 BKN019 OVC026 09/09 A3000 RMK AO2 RAB23 CIG 005V012 SLP162 P0001 60024 T00940094 10100 20083 53016=
202402212256 METAR KPWT 212256Z AUTO 19009KT 10SM BKN007 OVC019 09/09 A2998 RMK AO2 RAE27 CIG 005V011 SLP156 P0000 T00940094=
202402212156 METAR KPWT 212156Z AUTO 15005KT 6SM -RA BR BKN007 OVC010 08/08 A2996 RMK AO2 CIG 004V009 SLP151 P0008 T00830083=
202402212141 SPECI KPWT 212141Z AUTO 17007KT 10SM -RA BKN005 OVC013 08/08 A2996 RMK AO2 CIG 004V010 P0008=
202402212133 SPECI KPWT 212133Z AUTO VRB04KT 3SM -RA BR BKN007 OVC017 08/08 A2996 RMK AO2 CIG 004V010 P0008=
202402212125 SPECI KPWT 212125Z AUTO 15006KT 1 3/4SM -RA BR BKN007 OVC011 08/08 A2995 RMK AO2 CIG 004V009 P0007=
202402212056 METAR KPWT 212056Z AUTO 17006KT 6SM RA BR BKN007 OVC013 08/08 A2995 RMK AO2 CIG 005V009 SLP147 P0007 60015 T00830083 51013=
202402212045 SPECI KPWT 212045Z AUTO VRB04KT 10SM -RA BKN007 OVC013 09/09 A2994 RMK AO2 CIG 005V010 P0005=
202402212018 SPECI KPWT 212018Z AUTO VRB03KT 3SM -RA BR SCT008 OVC017 08/08 A2994 RMK AO2 P0004=
202402211956 METAR KPWT 211956Z AUTO VRB05KT 8SM RA BKN010 OVC017 08/08 A2994 RMK AO2 CIG 007V013 SLP144 P0006 T00830083=
202402211925 SPECI KPWT 211925Z AUTO 19004KT 8SM RA OVC014 08/08 A2994 RMK AO2 P0001=
202402211918 SPECI KPWT 211918Z AUTO 18004KT 10SM -RA FEW009 OVC017 08/08 A2994 RMK AO2 P0000=
202402211856 METAR KPWT 211856Z AUTO 00000KT 9SM -RA OVC019 08/08 A2993 RMK AO2 SLP139 P0002 T00830083=
202402211821 SPECI KPWT 211821Z AUTO 00000KT 4SM -RA BR OVC017 08/08 A2992 RMK AO2 P0001=
202402211812 SPECI KPWT 211812Z AUTO 00000KT 2SM -RA BR OVC017 08/08 A2991 RMK AO2 VIS 1 1/2V4 P0001=
202402211756 METAR KPWT 211756Z AUTO 12003KT 4SM -RA BR OVC018 08/08 A2991 RMK AO2 RAB08 SLP133 P0005 60019 T00780078 10078 20072 53018=
202402211656 METAR KPWT 211656Z AUTO 00000KT 10SM OVC020 08/08 A2989 RMK AO2 SLP126 P0001 T00780078=
202402211556 METAR KPWT 211556Z AUTO 00000KT 10SM OVC022 07/07 A2987 RMK AO2 RAE53 SLP119 P0001 T00720072=
202402211456 METAR KPWT 211456Z AUTO 00000KT 4SM -RA BR BKN024 07/07 A2986 RMK AO2 SLP116 P0008 60012 T00720072 51003=
202402211453 SPECI KPWT 211453Z AUTO 00000KT 4SM -RA BR BKN024 07/07 A2986 RMK AO2 P0008=
202402211356 METAR KPWT 211356Z AUTO 00000KT 7SM -RA CLR 07/07 A2985 RMK AO2 SLP114 P0002 T00720072=
202402211311 SPECI KPWT 211311Z AUTO 00000KT 7SM -RA SCT021 07/07 A2985 RMK AO2 P0001=
202402211256 METAR KPWT 211256Z AUTO 04003KT 8SM -RA BKN021 07/07 A2985 RMK AO2 SLP111 P0002 T00720072=
202402211156 METAR KPWT 211156Z AUTO 00000KT 5SM -RA BR BKN019 OVC025 07/07 A2985 RMK AO2 RAE00B24 SLP112 P0002 60015 70028 T00720072 10083 20067 55005=
202402211124 SPECI KPWT 211124Z AUTO 00000KT 9SM -RA BKN026 OVC033 07/07 A2985 RMK AO2 RAE00B24 P0000=
202402211056 METAR KPWT 211056Z AUTO 00000KT 10SM -RA BKN033 07/07 A2985 RMK AO2 SLP111 P0005 T00720072=
202402210956 METAR KPWT 210956Z AUTO 34003KT 9SM -RA SCT002 07/07 A2986 RMK AO2 SLP116 P0004 T00720072=
202402210933 SPECI KPWT 210933Z AUTO 00000KT 7SM -RA SCT002 BKN037 07/07 A2987 RMK AO2 P0002=
202402210924 SPECI KPWT 210924Z AUTO 00000KT 2SM -RA BR FEW002 OVC037 07/07 A2987 RMK AO2 P0001=
202402210919 SPECI KPWT 210919Z AUTO 00000KT 1 3/4SM -RA BR OVC039 07/07 A2987 RMK AO2 P0001=
202402210856 METAR KPWT 210856Z AUTO 00000KT 4SM -RA BR BKN043 07/07 A2987 RMK AO2 SLP118 P0001 60004 T00720072 51003=
202402210843 SPECI KPWT 210843Z AUTO 00000KT 4SM -RA BR SCT001 BKN045 07/07 A2986 RMK AO2 P0001=
202402210836 SPECI KPWT 210836Z AUTO 00000KT 2 1/2SM -RA BR SCT001 BKN045 07/07 A2986 RMK AO2 VIS 1 1/4V5 P0001=
202402210823 SPECI KPWT 210823Z AUTO 00000KT 1 3/4SM -RA BR BKN001 07/07 A2986 RMK AO2 VIS 1V4 CIG 001V004 P0000=
202402210818 SPECI KPWT 210818Z AUTO 00000KT 2SM -RA BR BKN003 07/07 A2986 RMK AO2 VIS 1 1/4V4 CIG 001V004 P0000=
202402210808 SPECI KPWT 210808Z AUTO 28003KT 1SM -RA BR BKN003 07/07 A2986 RMK AO2 P0000=
202402210802 SPECI KPWT 210802Z AUTO 29004KT 1 3/4SM -RA BR SCT003 07/07 A2986 RMK AO2 VIS 1 1/4V4 P0000=
202402210756 METAR KPWT 210756Z AUTO 30004KT 4SM -RA BR SCT003 08/08 A2987 RMK AO2 SLP118 P0003 T00780078 401000033=
202402210745 SPECI KPWT 210745Z AUTO 33003KT 10SM -RA FEW003 08/08 A2987 RMK AO2 P0003=
202402210656 METAR KPWT 210656Z AUTO 07003KT 10SM -RA CLR 08/08 A2987 RMK AO2 RAB19 SLP118 P0000 T00830083=
202402210556 METAR KPWT 210556Z AUTO 03003KT 10SM CLR 08/08 A2986 RMK AO2 RAE55 SLP116 P0002 60003 T00780078 10100 20072 58007=
202402210456 METAR KPWT 210456Z AUTO 04004KT 10SM -RA CLR 07/07 A2988 RMK AO2 SLP124 P0001 T00720072=
202402210356 METAR KPWT 210356Z AUTO 00000KT 10SM -RA FEW065 08/08 A2988 RMK AO2 RAB51 SLP125 P0000 T00780078=
202402210256 METAR KPWT 210256Z AUTO 00000KT 10SM FEW047 08/08 A2988 RMK AO2 RAE51 SLP124 P0000 60000 T00780078 58005=
202402210156 METAR KPWT 210156Z AUTO 00000KT 10SM -RA FEW045 08/08 A2989 RMK AO2 RAB34 SLP126 P0000 T00830083=
202402210056 METAR KPWT 210056Z AUTO 00000KT 10SM OVC046 09/09 A2989 RMK AO2 RAB17E52 SLP127 P0000 T00940094=
202402202356 METAR KPWT 202356Z AUTO 22004KT 10SM OVC044 09/09 A2990 RMK AO2 RAB01E14 SLP129 P0000 60002 T00940094 10100 20067 56006=
202402202256 METAR KPWT 202256Z AUTO 25005KT 10SM FEW050 10/09 A2990 RMK AO2 RAB00E31 SLP129 P0000 T01000094=
202402202205 SPECI KPWT 202205Z AUTO 24005KT 10SM -RA FEW009 10/10 A2990 RMK AO2 RAB00 P0000=
202402202156 METAR KPWT 202156Z AUTO 19006KT 10SM FEW039 SCT049 10/09 A2991 RMK AO2 RAE02B34E52 SLP133 P0000 T01000094=
202402202056 METAR KPWT 202056Z AUTO 21004KT 10SM -RA FEW003 SCT033 BKN041 09/09 A2991 RMK AO2 SLP136 P0001 60002 T00890089 50002=
202402202047 SPECI KPWT 202047Z AUTO 23004KT 10SM -RA SCT003 BKN033 BKN039 09/09 A2992 RMK AO2 P0001=
202402202035 SPECI KPWT 202035Z AUTO 24004KT 10SM -RA BKN003 BKN035 09/09 A2992 RMK AO2 P0001=
202402202025 SPECI KPWT 202025Z AUTO 27004KT 10SM -RA BKN005 08/08 A2992 RMK AO2 P0001=
202402202016 SPECI KPWT 202016Z AUTO 27004KT 10SM -RA SCT005 BKN036 BKN043 08/08 A2992 RMK AO2 P0001=
202402201956 METAR KPWT 201956Z AUTO 26003KT 10SM -RA BKN005 BKN042 08/08 A2992 RMK AO2 SLP139 P0000 T00830083=
202402201947 SPECI KPWT 201947Z AUTO 00000KT 10SM -RA BKN005 08/08 A2992 RMK AO2 P0000=
202402201915 SPECI KPWT 201915Z AUTO 25004KT 6SM -RA BR BKN003 BKN029 OVC037 08/08 A2992 RMK AO2 P0000=
202402201856 METAR KPWT 201856Z AUTO 23004KT 8SM -RA FEW003 BKN027 OVC039 08/08 A2992 RMK AO2 RAE23B44 SLP138 P0001 T00780078=
202402201848 SPECI KPWT 201848Z AUTO 00000KT 7SM -RA SCT003 SCT025 BKN039 08/08 A2991 RMK AO2 RAE23B44 P0001=
202402201820 SPECI KPWT 201820Z AUTO 00000KT 6SM -RA BR BKN003 BKN030 07/07 A2991 RMK AO2 P0001=
202402201756 METAR KPWT 201756Z AUTO 25003KT 10SM -RA FEW003 SCT028 BKN033 07/07 A2991 RMK AO2 SLP134 P0001 60008 T00670067 10072 20044 51016=
202402201714 SPECI KPWT 201714Z AUTO 22004KT 7SM -RA SCT003 06/06 A2990 RMK AO2 P0001=
202402201656 METAR KPWT 201656Z AUTO 00000KT 5SM -RA BR BKN003 06/06 A2989 RMK AO2 SLP130 P0003 T00560056=
202402201604 SPECI KPWT 201604Z AUTO 00000KT 4SM -RA BR BKN003 BKN023 06/06 A2988 RMK AO2 P0001=
202402201556 METAR KPWT 201556Z AUTO 00000KT 4SM -RA BR FEW003 SCT021 06/06 A2988 RMK AO2 SLP123 P0002 T00560056=
202402201547 SPECI KPWT 201547Z AUTO 00000KT 4SM -RA BR FEW003 BKN023 06/06 A2988 RMK AO2 P0001=
202402201516 SPECI KPWT 201516Z AUTO 00000KT 4SM -RA BR BKN026 05/05 A2987 RMK AO2 P0000=
202402201504 SPECI KPWT 201504Z AUTO 20003KT 2 1/2SM -RA BR BKN028 BKN037 BKN047 04/04 A2987 RMK AO2 P0000=
202402201456 METAR KPWT 201456Z AUTO 00000KT 4SM -RA BR FEW030 SCT040 BKN050 05/05 A2986 RMK AO2 SLP118 P0001 60002 T00500050 53009=
202402201356 METAR KPWT 201356Z AUTO 00000KT 4SM -RA BR BKN037 BKN049 05/05 A2985 RMK AO2 RAB19 SLP114 P0000 T00500050=
202402201256 METAR KPWT 201256Z AUTO 00000KT 7SM SCT049 06/06 A2983 RMK AO2 RAE46 SLP107 P0001 T00560056=
202402201156 METAR KPWT 201156Z AUTO 00000KT 10SM -RA OVC031 05/05 A2983 RMK AO2 SLP108 P0001 60002 70013 T00500050 10056 20022 51010=
202402201056 METAR KPWT 201056Z AUTO 00000KT 9SM -RA FEW033 BKN044 04/04 A2982 RMK AO2 SLP106 P0000 T00440044=
202402200956 METAR KPWT 200956Z AUTO 00000KT 10SM -RA OVC048 04/04 A2982 RMK AO2 RAB16 SLP104 P0000 T00440044=
202402200856 METAR KPWT 200856Z AUTO 00000KT 10SM FEW055 SCT075 03/03 A2980 RMK AO2 SLP098 60001 T00330033 53006=
202402200756 METAR KPWT 200756Z AUTO 14003KT 10SM BKN050 BKN100 03/03 A2979 RMK AO2 RAE37 SLP094 P0000 T00330033 400830011=
202402200656 METAR KPWT 200656Z AUTO 00000KT 8SM -RA BKN055 03/03 A2978 RMK AO2 RAB43 SLP091 P0001 T00280028=
202402200645 SPECI KPWT 200645Z AUTO 00000KT 3SM -RA BR SCT055 03/03 A2978 RMK AO2 RAB43 P0000=
202402200634 SPECI KPWT 200634Z AUTO 00000KT 1 1/4SM BR SCT055 02/02 A2978 RMK AO2 FZRANO=
202402200607 SPECI KPWT 200607Z AUTO 00000KT 3/4SM BR FEW085 02/02 A2978 RMK AO2 FZRANO=
202402200556 METAR KPWT 200556Z AUTO 00000KT 1 3/4SM BR FEW090 03/03 A2978 RMK AO2 VIS 1 1/4V4 SLP091 T00280028 10072 20011 51010=
202402200554 SPECI KPWT 200554Z AUTO 00000KT 1 3/4SM BR FEW090 03/03 A2978 RMK AO2 VIS 1 1/4V4=
202402200545 SPECI KPWT 200545Z AUTO 00000KT 1SM BR CLR 03/03 A2978 RMK AO2=
202402200528 SPECI KPWT 200528Z AUTO 00000KT 1/2SM FG CLR 02/02 A2978 RMK AO2 FZRANO=
202402200456 METAR KPWT 200456Z AUTO 00000KT 1/4SM FG VV001 01/01 A2976 RMK AO2 SLP087 T00110011 FZRANO=
202402200445 SPECI KPWT 200445Z AUTO 00000KT 1/4SM FG CLR 01/01 A2976 RMK AO2 FZRANO=
202402200431 SPECI KPWT 200431Z AUTO 00000KT 1/2SM FG CLR 01/01 A2976 RMK AO2 FZRANO=
202402200421 SPECI KPWT 200421Z AUTO 00000KT 1/4SM FG CLR 02/02 A2976 RMK AO2 FZRANO=
202402200356 METAR KPWT 200356Z AUTO 00000KT 1/2SM FG CLR 02/02 A2975 RMK AO2 SLP082 T00220022 FZRANO=
202402200353 SPECI KPWT 200353Z AUTO 00000KT 1/2SM FG CLR 02/02 A2975 RMK AO2 FZRANO=
202402200322 SPECI KPWT 200322Z AUTO 00000KT 3/4SM BR CLR 03/03 A2974 RMK AO2=
202402200315 SPECI KPWT 200315Z AUTO 00000KT 1 1/2SM BR FEW040 03/03 A2974 RMK AO2 VIS 1V5=
202402200306 SPECI KPWT 200306Z AUTO 00000KT 3SM BR CLR 04/04 A2974 RMK AO2=
202402200256 METAR KPWT 200256Z AUTO 00000KT 1 1/2SM BR CLR 05/05 A2974 RMK AO2 SLP077 T00500050 53004=
202402200246 SPECI KPWT 200246Z AUTO 00000KT 1 3/4SM BR CLR 05/05 A2974 RMK AO2=
202402200156 METAR KPWT 200156Z AUTO 02003KT 10SM FEW050 SCT085 07/07 A2973 RMK AO2 SLP072 T00670067=
202402200056 METAR KPWT 200056Z AUTO 04003KT 10SM BKN050 OVC060 07/07 A2973 RMK AO2 SLP072 T00720072=
202402192356 METAR KPWT 192356Z AUTO 04004KT 10SM BKN075 07/07 A2973 RMK AO2 RAE22 SLP072 P0000 60011 T00720067 10083 20067 55001=
202402192256 METAR KPWT 192256Z AUTO 04004KT 10SM -RA CLR 07/07 A2973 RMK AO2 SLP071 P0003 T00720072=
202402192156 METAR KPWT 192156Z AUTO 00000KT 10SM -RA CLR 07/07 A2973 RMK AO2 SLP072 P0005 T00670067=
202402192056 METAR KPWT 192056Z AUTO 00000KT 10SM -RA CLR 07/07 A2973 RMK AO2 SLP073 P0003 60003 T00720067 53007=
202402191956 METAR KPWT 191956Z AUTO 00000KT 8SM -RA SCT030 SCT043 OVC050 08/05 A2972 RMK AO2 RAE1857B27 SLP070 P0000 T00780050=
202402191856 METAR KPWT 191856Z AUTO 05007KT 10SM -RA BKN055 08/04 A2970 RMK AO2 RAB33 SLP063 P0000 T00830039=
202402191756 METAR KPWT 191756Z AUTO 03007KT 10SM BKN055 07/04 A2971 RMK AO2 RAB24E35 SLP067 P0000 60000 T00720044 10072 20050 51005=
202402191656 METAR KPWT 191656Z AUTO 05008KT 10SM BKN070 07/04 A2971 RMK AO2 SLP067 T00720039=
202402191556 METAR KPWT 191556Z AUTO 05009KT 10SM OVC070 07/04 A2970 RMK AO2 SLP062 T00670039=
202402191456 METAR KPWT 191456Z AUTO 03005KT 10SM BKN065 06/04 A2969 RMK AO2 SLP061 T00610039 50009=
202402191356 METAR KPWT 191356Z AUTO 02004KT 10SM SCT080 06/03 A2970 RMK AO2 SLP062 T00610033=
202402191256 METAR KPWT 191256Z AUTO 01006KT 10SM CLR 06/03 A2970 RMK AO2 SLP061 T00610033=
202402191156 METAR KPWT 191156Z AUTO 05010KT 10SM FEW110 07/04 A2967 RMK AO2 SLP052 70001 T00670039 10072 20033 58022=
202402191056 METAR KPWT 191056Z AUTO 02007KT 10SM CLR 06/04 A2972 RMK AO2 SLP070 T00560044=
202402190956 METAR KPWT 190956Z AUTO 04007KT 10SM CLR 06/04 A2974 RMK AO2 SLP077 T00610044=
202402190856 METAR KPWT 190856Z AUTO 05009KT 10SM CLR 07/05 A2974 RMK AO2 SLP074 T00670050 56015=
202402190756 METAR KPWT 190756Z AUTO 02010KT 10SM CLR 07/06 A2974 RMK AO2 SLP078 T00670061 400780033=
202402190656 METAR KPWT 190656Z AUTO 05005KT 10SM CLR 06/06 A2977 RMK AO2 SLP086 T00560056=
202402190559 SPECI KPWT 190559Z AUTO 07003KT 4SM BR CLR 04/04 A2978 RMK AO2=
202402190556 METAR KPWT 190556Z AUTO 06003KT 1 1/2SM BR CLR 04/04 A2978 RMK AO2 SLP091 T00390039 10072 20033 56008=
202402190549 SPECI KPWT 190549Z AUTO 00000KT 1 1/2SM BR CLR 03/03 A2979 RMK AO2=
202402190456 METAR KPWT 190456Z AUTO 00000KT 4SM BR CLR 04/04 A2979 RMK AO2 SLP094 T00440044=
202402190421 SPECI KPWT 190421Z AUTO 00000KT 10SM SCT020 06/06 A2979 RMK AO2=
202402190356 METAR KPWT 190356Z AUTO 01004KT 10SM FEW011 OVC020 07/07 A2979 RMK AO2 SLP093 T00670067=
202402190256 METAR KPWT 190256Z AUTO 36004KT 10SM OVC020 07/07 A2981 RMK AO2 SLP100 T00720072 56010=
202402190211 SPECI KPWT 190211Z AUTO 00000KT 10SM SCT006 OVC020 07/07 A2981 RMK AO2=
202402190156 METAR KPWT 190156Z AUTO 05003KT 10SM BKN006 OVC020 07/07 A2981 RMK AO2 SLP100 T00720072=
202402190056 METAR KPWT 190056Z AUTO 00000KT 10SM OVC008 07/07 A2982 RMK AO2 CIG 005V009 SLP105 T00720072=
202402190022 SPECI KPWT 190022Z AUTO 00000KT 10SM OVC008 07/07 A2983 RMK AO2 CIG 004V010=
202402182356 METAR KPWT 182356Z AUTO 00000KT 10SM OVC005 07/07 A2984 RMK AO2 SLP109 60001 T00720072 10078 20056 58007=
202402182345 SPECI KPWT 182345Z AUTO 00000KT 8SM OVC005 07/07 A2984 RMK AO2=
202402182256 METAR KPWT 182256Z AUTO 15003KT 10SM OVC007 07/07 A2985 RMK AO2 RAE16 SLP114 P0000 T00720072=
202402182224 SPECI KPWT 182224Z AUTO 21003KT 10SM OVC007 07/07 A2985 RMK AO2 RAE16 CIG 005V011 P0000=
202402182156 METAR KPWT 182156Z AUTO 14003KT 6SM -RA BR OVC005 07/07 A2985 RMK AO2 RAB2058 CIG 004V009 SLP116 P0001 T00720072=
202402182154 SPECI KPWT 182154Z AUTO 14003KT 6SM -RA BR OVC005 07/07 A2986 RMK AO2 RAB2058 CIG 004V009 P0000=
202402182123 SPECI KPWT 182123Z AUTO 17004KT 8SM -RA BKN009 OVC015 07/07 A2986 RMK AO2 RAB2058 CIG 006V012 P0000=
202402182108 SPECI KPWT 182108Z AUTO 15003KT 10SM -RA FEW007 OVC015 07/07 A2986 RMK AO2 RAB2058 P0000=
202402182056 METAR KPWT 182056Z AUTO 20003KT 10SM OVC017 07/06 A2986 RMK AO2 SLP119 60000 T00670061 51002=
202402181956 METAR KPWT 181956Z AUTO 00000KT 10SM FEW007 OVC019 06/06 A2986 RMK AO2 RAB04E22 SLP119 P0000 T00610056=
202402181856 METAR KPWT 181856Z AUTO 19003KT 10SM OVC021 06/05 A2986 RMK AO2 RAB12E36 SLP119 P0000 T00610050=
202402181756 METAR KPWT 181756Z AUTO 00000KT 10SM OVC025 06/04 A2985 RMK AO2 RAE30 SLP115 P0000 60000 T00560044 10056 20039 51015=
202402181728 SPECI KPWT 181728Z AUTO 00000KT 10SM -RA FEW021 OVC029 05/04 A2984 RMK AO2 P0000=
202402181656 METAR KPWT 181656Z AUTO 25003KT 10SM -RA SCT025 OVC033 05/03 A2983 RMK AO2 RAB05 SLP110 P0000 T00500033=
202402181639 SPECI KPWT 181639Z AUTO 00000KT 10SM -RA BKN025 OVC033 05/03 A2983 RMK AO2 RAB05 P0000=
202402181556 METAR KPWT 181556Z AUTO 22003KT 10SM OVC033 04/03 A2982 RMK AO2 SLP106 T00440028=
202402181456 METAR KPWT 181456Z AUTO 00000KT 10SM OVC037 04/03 A2980 RMK AO2 SLP099 60000 T00440028 53005=
202402181356 METAR KPWT 181356Z AUTO 00000KT 10SM OVC037 04/03 A2979 RMK AO2 SLP095 T00440033=
202402181256 METAR KPWT 181256Z AUTO 00000KT 10SM OVC037 04/03 A2979 RMK AO2 RAE46 SLP093 P0000 T00390028=
202402181156 METAR KPWT 181156Z AUTO 00000KT 10SM -RA OVC037 04/02 A2979 RMK AO2 RAB53 SLP093 P0000 60000 70001 T00440017 10044 20022 58002=
202402181056 METAR KPWT 181056Z AUTO 00000KT 10SM OVC043 04/02 A2979 RMK AO2 SLP094 T00390022=
202402180956 METAR KPWT 180956Z AUTO 00000KT 10SM OVC045 04/02 A2980 RMK AO2 SLP096 T00390022=
202402180856 METAR KPWT 180856Z AUTO 00000KT 10SM OVC045 04/02 A2980 RMK AO2 SLP095 T00390022 56005=
202402180756 METAR KPWT 180756Z AUTO 00000KT 10SM OVC050 04/02 A2980 RMK AO2 SLP096 T00390017 401000000=
202402180656 METAR KPWT 180656Z AUTO 00000KT 10SM OVC060 03/01 A2980 RMK AO2 SLP098 T00280011=
202402180556 METAR KPWT 180556Z AUTO 00000KT 10SM FEW075 03/00 A2981 RMK AO2 SLP100 60000 T00330000 10100 20028 58007=
202402180456 METAR KPWT 180456Z AUTO 00000KT 10SM BKN095 04/01 A2982 RMK AO2 SLP103 T00390006=
202402180356 METAR KPWT 180356Z AUTO 00000KT 10SM FEW070 SCT085 06/01 A2983 RMK AO2 SLP107 T00610011=
202402180256 METAR KPWT 180256Z AUTO 05003KT 10SM OVC055 06/03 A2983 RMK AO2 SLP108 60000 T00610028 56014=
202402180156 METAR KPWT 180156Z AUTO 00000KT 10SM BKN048 07/03 A2984 RMK AO2 RAB0057E45 SLP110 P0000 T00670028=
202402180056 METAR KPWT 180056Z AUTO 00000KT 10SM OVC050 08/01 A2985 RMK AO2 SLP116 T00830006=
202402172356 METAR KPWT 172356Z AUTO 00000KT 10SM FEW080 10/M01 A2987 RMK AO2 SLP121 60000 T01001011 10100 20039 56023=
202402172256 METAR KPWT 172256Z AUTO 02003KT 10SM FEW090 09/M01 A2989 RMK AO2 SLP127 T00941011=
202402172156 METAR KPWT 172156Z AUTO 02004KT 10SM BKN075 09/M01 A2991 RMK AO2 SLP136 T00891006=
202402172056 METAR KPWT 172056Z AUTO 01004KT 10SM BKN065 BKN080 09/M02 A2994 RMK AO2 SLP146 60000 T00891017 58024=
202402171956 METAR KPWT 171956Z AUTO 35003KT 10SM BKN055 08/M01 A2997 RMK AO2 RAE04 SLP155 P0000 T00781011=
202402171856 METAR KPWT 171856Z AUTO 01004KT 10SM -RA BKN060 07/M02 A2999 RMK AO2 RAB47 SLP163 P0000 T00721017=
202402171756 METAR KPWT 171756Z AUTO 00000KT 10SM BKN050 04/02 A3002 RMK AO2 RAE52 SLP170 P0000 60001 T00390017 10044 20000 58011=
202402171656 METAR KPWT 171656Z AUTO 00000KT 10SM -RA CLR 02/01 A3003 RMK AO2 SLP177 P0001 T00220006 FZRANO=
202402171556 METAR KPWT 171556Z AUTO 00000KT 10SM -RA CLR 03/M02 A3004 RMK AO2 RAB03 SLP179 P0000 T00331017=
202402171456 METAR KPWT 171456Z AUTO 00000KT 10SM BKN060 03/M04 A3005 RMK AO2 SLP181 T00331039 56008=
202402171356 METAR KPWT 171356Z AUTO 00000KT 10SM SCT065 SCT080 BKN120 01/M02 A3005 RMK AO2 SLP182 T00061017 FZRANO=
202402171256 METAR KPWT 171256Z AUTO 00000KT 10SM CLR 01/M04 A3005 RMK AO2 SLP184 T00111039 FZRANO=
202402171156 METAR KPWT 171156Z AUTO 03004KT 10SM CLR 03/M03 A3007 RMK AO2 SLP191 T00331033 10044 20011 58019=
202402171056 METAR KPWT 171056Z AUTO 06005KT 10SM CLR 04/M05 A3010 RMK AO2 SLP198 T00441050=
202402170956 METAR KPWT 170956Z AUTO 04005KT 10SM CLR 03/M04 A3012 RMK AO2 SLP205 T00331039=
202402170856 METAR KPWT 170856Z AUTO 04003KT 10SM FEW110 02/M03 A3013 RMK AO2 SLP211 T00221028 56012 FZRANO=
202402170756 METAR KPWT 170756Z AUTO 00000KT 10SM CLR 02/M03 A3014 RMK AO2 SLP211 T00171028 400781028 FZRANO=
202402170656 METAR KPWT 170656Z AUTO 03003KT 10SM CLR 03/M03 A3015 RMK AO2 SLP218 T00281033=
202402170556 METAR KPWT 170556Z AUTO 03003KT 10SM CLR 04/M03 A3016 RMK AO2 SLP222 T00391033 10072 20028 58006=
202402170456 METAR KPWT 170456Z AUTO 00000KT 10SM SCT110 03/M02 A3018 RMK AO2 SLP226 T00281017=
202402170356 METAR KPWT 170356Z AUTO 02004KT 10SM CLR 04/M01 A3018 RMK AO2 SLP226 T00391011=
202402170256 METAR KPWT 170256Z AUTO 02003KT 10SM SCT120 04/M01 A3018 RMK AO2 SLP229 T00441011 56009=
202402170156 METAR KPWT 170156Z AUTO 03004KT 10SM CLR 05/M02 A3019 RMK AO2 SLP230 T00501017=
202402170056 METAR KPWT 170056Z AUTO 02005KT 10SM CLR 05/00 A3019 RMK AO2 SLP233 T00500000=
202402162356 METAR KPWT 162356Z AUTO 02004KT 10SM CLR 07/M01 A3021 RMK AO2 SLP236 T00721011 10078 20044 56014=
202402162256 METAR KPWT 162256Z AUTO 02003KT 10SM CLR 06/M01 A3022 RMK AO2 SLP239 T00611011=
202402162156 METAR KPWT 162156Z AUTO 02003KT 10SM CLR 07/M02 A3024 RMK AO2 SLP245 T00671022=
202402162056 METAR KPWT 162056Z AUTO 01005KT 10SM CLR 06/M02 A3025 RMK AO2 SLP252 T00611022 58010=
202402161956 METAR KPWT 161956Z AUTO 03008KT 10SM CLR 05/M02 A3026 RMK AO2 SLP254 T00501017=
202402161856 METAR KPWT 161856Z AUTO 03008KT 10SM CLR 06/M02 A3028 RMK AO2 SLP260 T00561017=
202402161756 METAR KPWT 161756Z AUTO 05009KT 10SM CLR 04/M02 A3028 RMK AO2 SLP261 T00441022 10044 21028 50003=
202402161656 METAR KPWT 161656Z AUTO 04005KT 10SM CLR 03/M02 A3029 RMK AO2 SLP264 T00281017=
202402161556 METAR KPWT 161556Z AUTO 05006KT 10SM CLR M01/M01 A3028 RMK AO2 SLP262 T10111011 FZRANO=
202402161456 METAR KPWT 161456Z AUTO 00000KT 10SM CLR M01/M01 A3027 RMK AO2 SLP260 T10111011 53006 FZRANO=
202402161356 METAR KPWT 161356Z AUTO 00000KT 10SM CLR M02/M02 A3026 RMK AO2 SLP257 T10171017 FZRANO=
202402161256 METAR KPWT 161256Z AUTO 03003KT 10SM CLR M02/M02 A3026 RMK AO2 SLP254 T10171017 FZRANO=
202402161156 METAR KPWT 161156Z AUTO 02003KT 10SM CLR 00/00 A3025 RMK AO2 SLP252 70038 T00000000 10028 21006 51011 FZRANO=
202402161056 METAR KPWT 161056Z AUTO 04004KT 10SM CLR 00/00 A3025 RMK AO2 SLP251 T00000000 FZRANO=
202402160956 METAR KPWT 160956Z AUTO 03005KT 10SM CLR 01/01 A3024 RMK AO2 SLP248 T00060006 FZRANO=
202402160856 METAR KPWT 160856Z AUTO 05009KT 10SM CLR 02/02 A3022 RMK AO2 SLP240 T00220022 51014 FZRANO=
202402160756 METAR KPWT 160756Z AUTO 03005KT 10SM OVC055 03/03 A3021 RMK AO2 SLP236 T00280028 400330000=
202402160656 METAR KPWT 160656Z AUTO 05005KT 10SM OVC055 02/02 A3020 RMK AO2 SLP233 T00220022 FZRANO=
202402160556 METAR KPWT 160556Z AUTO 03005KT 10SM OVC043 02/02 A3018 RMK AO2 SLP227 T00220022 10028 20017 53020 FZRANO=
202402160456 METAR KPWT 160456Z AUTO 04004KT 10SM OVC060 02/02 A3016 RMK AO2 SLP220 T00220022 FZRANO=
202402160356 METAR KPWT 160356Z AUTO 04005KT 10SM BKN039 OVC060 02/02 A3013 RMK AO2 SLP212 T00170017 FZRANO=
202402160306 SPECI KPWT 160306Z AUTO 02004KT 9SM OVC033 02/02 A3012 RMK AO2 FZRANO=
202402160256 METAR KPWT 160256Z AUTO 01004KT 2 1/2SM BR OVC031 02/02 A3012 RMK AO2 SLP207 T00170017 53012 FZRANO=
202402160156 METAR KPWT 160156Z AUTO 00000KT 10SM OVC033 02/02 A3010 RMK AO2 SLP201 T00170017 FZRANO=
202402160056 METAR KPWT 160056Z AUTO 06005KT 10SM BKN039 OVC060 02/02 A3009 RMK AO2 SLP196 T00220022 FZRANO=
202402160015 SPECI KPWT 160015Z AUTO 04004KT 10SM SCT002 BKN055 02/02 A3009 RMK AO2 FZRANO=
202402152356 METAR KPWT 152356Z AUTO 03007KT 9SM BKN002 02/02 A3008 RMK AO2 RAE29B54E55UPB42E54 SLP194 P0000 60002 T00220022 10033 20011 53010 FZRANO=
202402152316 SPECI KPWT 152316Z AUTO 04004KT 8SM -RA BKN002 03/03 A3008 RMK AO2 P0000=
202402152303 SPECI KPWT 152303Z AUTO 03005KT 7SM -RA SCT002 03/03 A3007 RMK AO2 P0000=
202402152256 METAR KPWT 152256Z AUTO 03004KT 10SM -RA CLR 03/03 A3007 RMK AO2 SLP189 P0001 T00280028=
202402152209 SPECI KPWT 152209Z AUTO 02004KT 10SM -RA SCT002 03/03 A3005 RMK AO2 P0000=
202402152156 METAR KPWT 152156Z AUTO 03004KT 10SM -RA SCT018 03/03 A3005 RMK AO2 SLP184 P0000 T00330033=
202402152127 SPECI KPWT 152127Z AUTO 06003KT 10SM -RA SCT003 OVC018 03/03 A3005 RMK AO2 P0000=
202402152103 SPECI KPWT 152103Z AUTO 04004KT 10SM -RA BKN003 BKN007 OVC018 03/03 A3004 RMK AO2 P0000=
202402152056 METAR KPWT 152056Z AUTO 04004KT 10SM -RA SCT003 BKN007 OVC018 03/03 A3004 RMK AO2 SLP180 P0000 60001 T00280028 51026=
202402152010 SPECI KPWT 152010Z AUTO 00000KT 10SM SCT009 OVC020 02/02 A3003 RMK AO2 RAE02 P0000 FZRANO=
202402151956 METAR KPWT 151956Z AUTO 07003KT 6SM -RA BR BKN009 OVC022 02/02 A3003 RMK AO2 RAE1857B24 CIG 007V013 SLP177 P0001 T00220022 FZRANO=
202402151947 SPECI KPWT 151947Z AUTO 00000KT 7SM -RA OVC009 02/02 A3003 RMK AO2 RAE1857B24 CIG 007V013 P0001 FZRANO=
202402151856 METAR KPWT 151856Z AUTO 05006KT 10SM -RA OVC011 01/01 A3000 RMK AO2 UPB12E16 SLP166 P0000 T00110011 FZRANO=
202402151813 SPECI KPWT 151813Z AUTO 05008KT 7SM UP FEW004 OVC013 01/01 A2997 RMK AO2 RAE12UPB12 P0000 FZRANO=
202402151756 METAR KPWT 151756Z AUTO 07005KT 4SM -RA BR OVC013 01/01 A2996 RMK AO2 SLP153 P0003 60036 T00110011 10011 20000 51020 FZRANO=
202402151656 METAR KPWT 151656Z AUTO 06006KT 10SM -RA OVC024 01/01 A2993 RMK AO2 RAE13B38UPB22E24SNB13E22B24E38 SLP144 P0006 T00110011 FZRANO=
202402151556 METAR KPWT 151556Z AUTO 06005KT 10SM -RA BKN025 01/01 A2990 RMK AO2 SLP132 P0005 T00110011 FZRANO=
202402151456 METAR KPWT 151456Z AUTO 03005KT 10SM -RA OVC027 01/01 A2987 RMK AO2 RAB06SNE06B23E33 SLP120 P0004 60022 T00060006 53020 FZRANO=
202402151356 METAR KPWT 151356Z AUTO 03011KT 8SM -SN FEW014 OVC021 01/01 A2983 RMK AO2 SLP108 P0007 T00060006 FZRANO=
202402151352 SPECI KPWT 151352Z AUTO 04012G17KT 8SM -SN SCT012 OVC019 01/01 A2983 RMK AO2 P0007 FZRANO=
202402151307 SPECI KPWT 151307Z AUTO 03007KT 6SM -SN BR FEW005 OVC010 01/01 A2981 RMK AO2 P0002 FZRANO=
202402151256 METAR KPWT 151256Z AUTO 03006KT 6SM -SN BR OVC010 01/01 A2981 RMK AO2 CIG 005V013 SLP100 P0011 T00060006 FZRANO=
202402151213 SPECI KPWT 151213Z AUTO 03010KT 3SM -SN BR FEW006 BKN010 OVC016 00/00 A2979 RMK AO2 P0005 FZRANO=
202402151156 METAR KPWT 151156Z AUTO 03012KT 3SM -SN BR BKN008 OVC016 00/00 A2979 RMK AO2 UPB20E26SNEMMB26 CIG 005V012 SLP093 P0009 60021 70023 T00000000 10011 20000 53003 FZRANO=
202402151154 SPECI KPWT 151154Z AUTO 03011KT 3SM -SN BR FEW006 BKN010 OVC016 01/01 A2979 RMK AO2 UPB20E26SNEMMB26 P0009 FZRANO=
202402151124 SPECI KPWT 151124Z AUTO 03011KT UP 01/01 A2978 RMK AO2 UPB20SNEMM P0005 FZRANO=
202402151117 SPECI KPWT 151117Z AUTO 2 1/2SM -SN BR 00/00 RMK AO2 P0005 FZRANO $=
202402151105 SPECI KPWT 151105Z AUTO 04013KT 2 1/2SM -SN BR SCT004 OVC009 00/00 A2978 RMK AO2 CIG 006V012 P0004 FZRANO=
202402151056 METAR KPWT 151056Z AUTO 03014KT 1 1/2SM -SN BR FEW004 OVC009 00/00 A2978 RMK AO2 VIS 1 1/4V2 1/2 CIG 007V012 SLP090 P0002 T00000000 FZRANO=
202402151041 SPECI KPWT 151041Z AUTO 03011KT 1 1/4SM -SN BR OVC006 00/00 A2978 RMK AO2 CIG 003V009 P0002 FZRANO=
202402151034 SPECI KPWT 151034Z AUTO 03010KT 3/4SM -SN BR OVC006 00/00 A2978 RMK AO2 CIG 003V008 P0002 FZRANO=
202402151025 SPECI KPWT 151025Z AUTO 02011KT 1/2SM SN FG OVC004 00/00 A2978 RMK AO2 P0002 FZRANO=
202402150956 METAR KPWT 150956Z AUTO 02013KT 3/4SM -SN BR BKN004 OVC008 00/00 A2978 RMK AO2 CIG 003V008 SLP090 P0000 T00000000 FZRANO=
202402150856 METAR KPWT 150856Z AUTO 03012KT 1 1/2SM -SN BR OVC004 00/00 A2977 RMK AO2 CIG 002V007 SLP088 P0000 60010 T00000000 56012 FZRANO=
202402150756 METAR KPWT 150756Z AUTO 04011KT 1 1/2SM -SN BR OVC004 00/00 A2978 RMK AO2 SLP092 P0003 T00000000 400720000 FZRANO=
202402150727 SPECI KPWT 150727Z AUTO 04009KT 1 3/4SM -SN BR OVC004 01/01 A2979 RMK AO2 VIS 1V2 1/2 P0003 FZRANO=
202402150656 METAR KPWT 150656Z AUTO 04012KT 4SM -SN BR BKN004 01/01 A2979 RMK AO2 UPB00E11SNE00B11 SLP094 P0007 T00060006 FZRANO=
202402150642 SPECI KPWT 150642Z AUTO 04012KT 4SM -SN BR BKN006 01/01 A2979 RMK AO2 UPB00E11SNE00B11 P0005 FZRANO=
202402150612 SPECI KPWT 150612Z AUTO 05012KT 7SM -SN FEW008 01/01 A2980 RMK AO2 UPB00E11SNE00B11 P0001 FZRANO=
202402150556 METAR KPWT 150556Z AUTO 07009KT 7SM -SN CLR 02/01 A2981 RMK AO2 RAE32UPB32E49SNB49 SLP102 P0002 60002 T00170011 10061 20017 53002 FZRANO=
202402150541 SPECI KPWT 150541Z AUTO 07010KT 8SM UP SCT015 02/01 A2981 RMK AO2 RAE32UPB32 P0000 FZRANO=
202402150456 METAR KPWT 150456Z AUTO 09008KT 040V130 10SM -RA BKN023 OVC029 03/M01 A2981 RMK AO2 RAB19 SLP100 P0000 T00331006=
202402150440 SPECI KPWT 150440Z AUTO 08007G17KT 10SM -RA BKN023 03/M01 A2981 RMK AO2 RAB19 P0000=
202402150356 METAR KPWT 150356Z AUTO 06008G15KT 10SM CLR 05/M03 A2980 RMK AO2 SLP100 T00501033=
202402150256 METAR KPWT 150256Z AUTO 09010KT 10SM CLR 06/M03 A2980 RMK AO2 SLP100 T00561028 55002=
202402150156 METAR KPWT 150156Z AUTO 04007KT 10SM CLR 06/00 A2980 RMK AO2 SLP096 T00560000=
202402150056 METAR KPWT 150056Z AUTO 04008KT 10SM FEW065 06/01 A2980 RMK AO2 SLP099 T00610006=
202402142356 METAR KPWT 142356Z AUTO 04006KT 10SM BKN085 06/01 A2981 RMK AO2 SLP101 T00610011 10072 20061 56013=
202402142256 METAR KPWT 142256Z AUTO 02008KT 10SM OVC080 07/01 A2981 RMK AO2 SLP102 T00670011=
202402142156 METAR KPWT 142156Z AUTO 01008KT 10SM FEW090 07/02 A2982 RMK AO2 SLP106 T00670017=
202402142056 METAR KPWT 142056Z AUTO 03010KT 10SM FEW090 07/02 A2985 RMK AO2 SLP114 T00720017 58018=
202402141956 METAR KPWT 141956Z AUTO 04009KT 10SM CLR 07/01 A2987 RMK AO2 SLP123 T00670011=
202402141856 METAR KPWT 141856Z AUTO 03009KT 10SM CLR 07/02 A2989 RMK AO2 SLP128 T00720022=
202402141756 METAR KPWT 141756Z AUTO 02012KT 10SM CLR 07/03 A2990 RMK AO2 SLP132 60000 T00670028 10067 20033 58009=
202402141656 METAR KPWT 141656Z AUTO 03010KT 10SM CLR 04/02 A2992 RMK AO2 SLP137 T00440022=
202402141556 METAR KPWT 141556Z AUTO 05010KT 10SM FEW060 03/02 A2993 RMK AO2 SLP141 T00330017=
202402141456 METAR KPWT 141456Z AUTO 04009KT 10SM BKN080 03/02 A2993 RMK AO2 SLP143 60000 T00330022 58008=
202402141356 METAR KPWT 141356Z AUTO 04009KT 10SM OVC033 04/02 A2994 RMK AO2 RAB01E17 SLP146 P0000 T00390017=
202402141256 METAR KPWT 141256Z AUTO 03004KT 10SM OVC035 04/02 A2996 RMK AO2 SLP151 T00390017=
202402141156 METAR KPWT 141156Z AUTO 05007KT 10SM FEW055 BKN070 04/01 A2995 RMK AO2 SLP150 T00390011 10039 21017 58014=
202402141056 METAR KPWT 141056Z AUTO 05004KT 10SM BKN055 BKN075 04/02 A2997 RMK AO2 SLP155 T00390017=
202402140956 METAR KPWT 140956Z AUTO 05006KT 10SM BKN050 BKN070 04/01 A2999 RMK AO2 SLP161 T00390011=
202402140915 SPECI KPWT 140915Z AUTO 03005KT 10SM SCT027 BKN065 03/01 A2999 RMK AO2=
202402140856 METAR KPWT 140856Z AUTO 04005KT 10SM OVC027 04/01 A3000 RMK AO2 SLP164 T00390006 58010=
202402140756 METAR KPWT 140756Z AUTO 02004KT 10SM OVC027 00/00 A3001 RMK AO2 SLP168 T00000000 400891017 FZRANO=
202402140733 SPECI KPWT 140733Z AUTO 00000KT 10SM BKN027 M01/M01 A3002 RMK AO2 FZRANO=
202402140656 METAR KPWT 140656Z AUTO 00000KT 10SM CLR M01/M01 A3001 RMK AO2 SLP170 T10111011 FZRANO=
202402140556 METAR KPWT 140556Z AUTO 00000KT 10SM CLR M01/M01 A3003 RMK AO2 SLP174 T10061006 10083 21006 56003 FZRANO=
202402140456 METAR KPWT 140456Z AUTO 06004KT 10SM CLR 03/01 A3003 RMK AO2 SLP177 T00330011=
202402140356 METAR KPWT 140356Z AUTO 05007KT 10SM CLR 03/02 A3003 RMK AO2 SLP175 T00280017=
202402140256 METAR KPWT 140256Z AUTO 00000KT 10SM CLR 01/01 A3004 RMK AO2 SLP178 T00110011 55005 FZRANO=
202402140156 METAR KPWT 140156Z AUTO 00000KT 10SM CLR 03/02 A3003 RMK AO2 SLP176 T00280022=
202402140056 METAR KPWT 140056Z AUTO 03005KT 10SM CLR 07/03 A3004 RMK AO2 SLP179 T00720033=
202402132356 METAR KPWT 132356Z AUTO 04006KT 10SM CLR 08/03 A3005 RMK AO2 SLP182 T00830028 10089 20061 56014=
202402132256 METAR KPWT 132256Z AUTO 03006KT 10SM CLR 08/03 A3006 RMK AO2 SLP184 T00830033=
202402132214 SPECI KPWT 132214Z AUTO 04009KT 10SM SCT023 08/04 A3007 RMK AO2=
202402132156 METAR KPWT 132156Z AUTO 01011KT 10SM BKN023 08/04 A3007 RMK AO2 SLP189 T00780044=
202402132056 METAR KPWT 132056Z AUTO 04009KT 10SM OVC023 07/04 A3009 RMK AO2 SLP195 T00720044 58010=
202402131956 METAR KPWT 131956Z AUTO 03008KT 10SM OVC027 07/04 A3011 RMK AO2 SLP202 T00720039=
202402131856 METAR KPWT 131856Z AUTO 01006KT 10SM BKN027 08/06 A3011 RMK AO2 SLP204 T00780061=
202402131756 METAR KPWT 131756Z AUTO 03006KT 10SM OVC025 06/06 A3012 RMK AO2 SLP206 T00610056 10061 20011 57001=
202402131656 METAR KPWT 131656Z AUTO 07003KT 10SM OVC023 06/06 A3012 RMK AO2 SLP207 T00560056=
202402131556 METAR KPWT 131556Z AUTO 08003KT 10SM FEW008 OVC025 05/05 A3012 RMK AO2 SLP206 T00500050=
202402131545 SPECI KPWT 131545Z AUTO 07003KT 10SM FEW008 OVC025 05/05 A3012 RMK AO2=
202402131456 METAR KPWT 131456Z AUTO 06003KT 10SM OVC025 05/05 A3012 RMK AO2 SLP207 T00500050 58001=
202402131356 METAR KPWT 131356Z AUTO 07003KT 10SM OVC023 04/04 A3013 RMK AO2 SLP210 T00440044=
202402131256 METAR KPWT 131256Z AUTO 04004KT 10SM OVC025 04/04 A3013 RMK AO2 SLP211 T00390039=
202402131241 SPECI KPWT 131241Z AUTO 04004KT 10SM BKN025 03/03 A3013 RMK AO2=
202402131156 METAR KPWT 131156Z AUTO 00000KT 6SM BR SCT030 02/02 A3013 RMK AO2 SLP208 70006 T00220022 10056 20022 57011 FZRANO=
202402131125 SPECI KPWT 131125Z AUTO 00000KT 10SM OVC030 04/04 A3013 RMK AO2=
202402131056 METAR KPWT 131056Z AUTO 12003KT 10SM OVC028 04/04 A3013 RMK AO2 SLP211 T00440044=
202402130956 METAR KPWT 130956Z AUTO 35004KT 10SM OVC024 06/06 A3015 RMK AO2 SLP215 T00560056=
202402130856 METAR KPWT 130856Z AUTO 01005KT 10SM OVC024 06/06 A3016 RMK AO2 SLP218 T00560056 58004=
202402130756 METAR KPWT 130756Z AUTO 36004KT 10SM OVC026 05/05 A3016 RMK AO2 SLP220 T00500050 400830011=
202402130656 METAR KPWT 130656Z AUTO 00000KT 10SM OVC026 04/04 A3017 RMK AO2 SLP223 T00440044=
202402130616 SPECI KPWT 130616Z AUTO 03005KT 10SM BKN026 04/04 A3017 RMK AO2=
202402130556 METAR KPWT 130556Z AUTO 06005KT 10SM CLR 04/04 A3017 RMK AO2 SLP223 T00390039 10078 20011 50002=
202402130456 METAR KPWT 130456Z AUTO 00000KT 10SM CLR 01/01 A3017 RMK AO2 SLP223 T00110011 FZRANO=
202402130356 METAR KPWT 130356Z AUTO 00000KT 10SM CLR 02/02 A3017 RMK AO2 SLP223 T00220022 FZRANO=
202402130256 METAR KPWT 130256Z AUTO 00000KT 10SM CLR 04/04 A3016 RMK AO2 SLP221 T00440044 51003=
202402130156 METAR KPWT 130156Z AUTO 03005KT 10SM FEW016 06/06 A3016 RMK AO2 SLP220 T00560056=
202402130144 SPECI KPWT 130144Z AUTO 04004KT 10SM SCT016 06/06 A3016 RMK AO2=
202402130133 SPECI KPWT 130133Z AUTO 03003KT 10SM BKN016 07/07 A3016 RMK AO2=
202402130056 METAR KPWT 130056Z AUTO 04003KT 10SM CLR 07/07 A3016 RMK AO2 SLP219 T00720067=
202402130041 SPECI KPWT 130041Z AUTO 06004KT 10SM FEW010 SCT016 07/07 A3016 RMK AO2=
202402130019 SPECI KPWT 130019Z AUTO 05004KT 10SM OVC013 08/07 A3015 RMK AO2=
202402122356 METAR KPWT 122356Z AUTO 05004KT 10SM OVC015 08/07 A3015 RMK AO2 SLP217 60002 T00780067 10083 20072 58000=
202402122346 SPECI KPWT 122346Z AUTO 06003KT 10SM OVC015 08/07 A3015 RMK AO2=
202402122256 METAR KPWT 122256Z AUTO 07005KT 10SM OVC013 08/07 A3016 RMK AO2 SLP218 T00780067=
202402122156 METAR KPWT 122156Z AUTO 04008KT 10SM FEW008 OVC013 08/07 A3015 RMK AO2 SLP217 T00780072=
202402122141 SPECI KPWT 122141Z AUTO 04007KT 10SM OVC013 08/08 A3016 RMK AO2=
202402122126 SPECI KPWT 122126Z AUTO 03007KT 10SM SCT008 OVC015 08/08 A3015 RMK AO2=
202402122056 METAR KPWT 122056Z AUTO 04005KT 10SM BKN006 BKN012 OVC055 08/08 A3015 RMK AO2 RAB04E29 CIG 004V010 SLP217 P0000 60002 T00830083 51008=
202402122015 SPECI KPWT 122015Z AUTO 02005KT 3SM -RA BR BKN008 OVC011 08/08 A3015 RMK AO2 RAB04 CIG 004V009 P0000=
202402122008 SPECI KPWT 122008Z AUTO 01005KT 2 1/2SM -RA BR BKN008 OVC011 07/07 A3015 RMK AO2 VIS 1 3/4V4 RAB04 CIG 004V009 P0000=
202402121956 METAR KPWT 121956Z AUTO 03006KT 5SM BR OVC008 07/07 A3015 RMK AO2 CIG 005V010 SLP217 T00720072=
202402121931 SPECI KPWT 121931Z AUTO 02005KT 9SM BKN008 OVC013 07/07 A3016 RMK AO2 CIG 005V010=
202402121920 SPECI KPWT 121920Z AUTO 03006KT 10SM FEW008 BKN011 OVC031 08/08 A3015 RMK AO2=
202402121908 SPECI KPWT 121908Z AUTO 05006KT 9SM FEW009 BKN017 BKN031 07/07 A3015 RMK AO2=
202402121856 METAR KPWT 121856Z AUTO 03004KT 10SM SCT029 08/08 A3015 RMK AO2 RAE40 SLP214 P0002 T00780078=
202402121840 SPECI KPWT 121840Z AUTO 04003KT 10SM FEW004 SCT008 07/07 A3014 RMK AO2 RAE40 P0002=
202402121833 SPECI KPWT 121833Z AUTO 01003KT 2 1/2SM -RA BR SCT004 BKN008 07/07 A3014 RMK AO2 CIG 006V011 P0002=
202402121826 SPECI KPWT 121826Z AUTO 36004KT 1 3/4SM -RA BR BKN004 OVC008 07/07 A3014 RMK AO2 P0001=
202402121819 SPECI KPWT 121819Z AUTO 34004KT 2 1/2SM -RA BR OVC006 07/07 A3014 RMK AO2 CIG 003V008 P0000=
202402121810 SPECI KPWT 121810Z AUTO 00000KT 5SM -RA BR OVC004 07/07 A3013 RMK AO2 P0000=
202402121756 METAR KPWT 121756Z AUTO 00000KT 2SM -RA BR BKN004 BKN008 OVC017 07/07 A3013 RMK AO2 RAE18B55 SLP209 P0002 60004 T00720072 10072 20067 51020=
202402121754 SPECI KPWT 121754Z AUTO 00000KT 2SM BR SCT004 BKN008 OVC017 07/07 A3013 RMK AO2 RAE18 P0002=
202402121721 SPECI KPWT 121721Z AUTO 00000KT 10SM SCT003 OVC022 07/07 A3012 RMK AO2 RAE18 P0002=
202402121712 SPECI KPWT 121712Z AUTO 20003KT 3SM -RA BR BKN003 BKN008 OVC024 07/07 A3012 RMK AO2 CIG 002V006 P0002=
202402121656 METAR KPWT 121656Z AUTO 00000KT 1 1/2SM -RA BR OVC003 07/07 A3011 RMK AO2 RAE05B51 SLP203 P0000 T00670067=
202402121646 SPECI KPWT 121646Z AUTO 03003KT 1 3/4SM BR OVC003 07/07 A3011 RMK AO2 RAE05 P0000=
202402121619 SPECI KPWT 121619Z AUTO 00000KT 3SM BR OVC003 07/07 A3010 RMK AO2 RAE05 P0000=
202402121604 SPECI KPWT 121604Z AUTO 00000KT 1 1/4SM -RA BR OVC003 07/07 A3009 RMK AO2 P0000=
202402121558 SPECI KPWT 121558Z AUTO 00000KT 3/4SM -RA BR OVC003 07/07 A3009 RMK AO2 CIG 002V007 P0000=
202402121556 METAR KPWT 121556Z AUTO 00000KT 1SM -RA BR OVC005 07/07 A3009 RMK AO2 CIG 002V007 SLP195 P0000 T00670067=
202402121553 SPECI KPWT 121553Z AUTO 00000KT 1 1/2SM BR OVC005 07/07 A3009 RMK AO2 RAE41 CIG 002V007 P0000=
202402121545 SPECI KPWT 121545Z AUTO 00000KT 8SM OVC005 07/07 A3009 RMK AO2 RAE41 CIG 002V007 P0000=
202402121535 SPECI KPWT 121535Z AUTO 00000KT 2SM -RA BR OVC005 07/07 A3008 RMK AO2 P0000=
202402121514 SPECI KPWT 121514Z AUTO 00000KT 1 3/4SM -RA BR OVC005 07/07 A3007 RMK AO2 CIG 003V007 P0000=
202402121456 METAR KPWT 121456Z AUTO 00000KT 3SM -RA BR OVC005 07/07 A3007 RMK AO2 CIG 003V008 SLP189 P0001 60002 T00670067 51006=
202402121454 SPECI KPWT 121454Z AUTO 00000KT 3SM -RA BR OVC005 07/07 A3007 RMK AO2 CIG 003V008 P0001=
202402121443 SPECI KPWT 121443Z AUTO 00000KT 4SM -RA BR OVC007 07/07 A3007 RMK AO2 CIG 003V009 P0001=
202402121421 SPECI KPWT 121421Z AUTO 00000KT 2SM -RA BR OVC007 07/07 A3007 RMK AO2 CIG 004V009 P0001=
202402121356 METAR KPWT 121356Z AUTO 33003KT 1 1/2SM -RA BR OVC005 07/07 A3006 RMK AO2 RAB02 SLP185 P0001 T00670067=
202402121328 SPECI KPWT 121328Z AUTO 00000KT 1 3/4SM -RA BR OVC005 07/07 A3006 RMK AO2 RAB02 CIG 003V008 P0001=
202402121318 SPECI KPWT 121318Z AUTO 26003KT 2SM -RA BR OVC005 07/07 A3005 RMK AO2 RAB02 CIG 002V008 P0001=
202402121304 SPECI KPWT 121304Z AUTO 23004KT 1 3/4SM -RA BR OVC003 07/07 A3005 RMK AO2 RAB02 CIG 002V007 P0000=
202402121256 METAR KPWT 121256Z AUTO 24004KT 9SM OVC003 07/07 A3005 RMK AO2 RAB01E45 CIG 002V007 SLP182 P0000 T00670067=
202402121156 METAR KPWT 121156Z AUTO 21007KT 4SM BR OVC003 07/07 A3003 RMK AO2 RAE54 SLP176 P0000 60008 70082 T00670067 10067 20067 55002=
202402121131 SPECI KPWT 121131Z AUTO 19008KT 5SM -RA BR OVC003 07/07 A3003 RMK AO2 P0000=
202402121056 METAR KPWT 121056Z AUTO 20008KT 7SM -RA OVC005 07/07 A3003 RMK AO2 SLP175 P0001 T00670067=
202402121009 SPECI KPWT 121009Z AUTO 18006KT 8SM -RA OVC005 07/07 A3004 RMK AO2 P0000=
202402120956 METAR KPWT 120956Z AUTO 19008KT 10SM -RA OVC007 07/07 A3004 RMK AO2 CIG 004V009 SLP176 P0002 T00670067=
202402120916 SPECI KPWT 120916Z AUTO 18006KT 7SM -RA BKN009 OVC017 07/07 A3004 RMK AO2 CIG 005V013 P0001=
202402120907 SPECI KPWT 120907Z AUTO 18006KT 6SM -RA BR FEW007 BKN012 OVC021 07/07 A3004 RMK AO2 P0001=
202402120856 METAR KPWT 120856Z AUTO 20006KT 6SM -RA BR SCT011 BKN019 OVC034 07/07 A3004 RMK AO2 SLP178 P0005 60005 T00670067 58007=
202402120817 SPECI KPWT 120817Z AUTO 20006KT 6SM -RA BR FEW006 BKN020 OVC025 07/07 A3006 RMK AO2 P0001=
202402120756 METAR KPWT 120756Z AUTO 20007KT 10SM -RA BKN020 OVC027 07/07 A3006 RMK AO2 RAB31 SLP186 P0000 T00670067 400940039=
202402120738 SPECI KPWT 120738Z AUTO 22009KT 5SM -RA BR BKN020 BKN031 07/07 A3007 RMK AO2 RAB31 P0000=
202402120703 SPECI KPWT 120703Z AUTO 20011KT 10SM SCT010 OVC050 07/07 A3006 RMK AO2=
202402120656 METAR KPWT 120656Z AUTO 20011KT 10SM BKN010 BKN050 OVC060 07/07 A3006 RMK AO2 CIG 008V012 SLP185 T00670067=
202402120651 SPECI KPWT 120651Z AUTO 20011KT 10SM BKN010 BKN060 07/07 A3006 RMK AO2 CIG 008V012=
202402120556 METAR KPWT 120556Z AUTO 21014G18KT 10SM FEW011 07/07 A3005 RMK AO2 SLP182 60033 T00670067 10089 20067 53012=
202402120534 SPECI KPWT 120534Z AUTO 20012KT 10SM FEW009 07/07 A3005 RMK AO2=
202402120456 METAR KPWT 120456Z AUTO 21011G19KT 10SM BKN007 OVC011 08/08 A3004 RMK AO2 RAE39 CIG 004V008 SLP177 P0002 T00780078=
202402120442 SPECI KPWT 120442Z AUTO 20010KT 10SM BKN007 OVC044 08/08 A3003 RMK AO2 RAE39 CIG 005V010 P0001=
202402120356 METAR KPWT 120356Z AUTO 20013G17KT 6SM RA BR OVC005 08/08 A3002 RMK AO2 SLP172 P0009 T00830083=
202402120256 METAR KPWT 120256Z AUTO 19009G17KT 7SM -RA OVC005 08/08 A3002 RMK AO2 CIG 004V008 SLP170 P0011 60022 T00830083 53006=
202402120156 METAR KPWT 120156Z AUTO 19010G17KT 6SM -RA BR OVC005 08/08 A3001 RMK AO2 CIG 004V010 SLP168 P0009 T00830083=
202402120056 METAR KPWT 120056Z AUTO 18010G17KT 8SM -RA OVC005 08/08 A3000 RMK AO2 CIG 003V009 SLP166 P0002 T00830083=
202402112356 METAR KPWT 112356Z AUTO 19012KT 9SM -RA OVC005 09/09 A3000 RMK AO2 SLP164 P0001 60008 T00890089 10094 20061 52003=
202402112305 SPECI KPWT 112305Z AUTO 19012G17KT 6SM -RA BR OVC005 08/08 A3000 RMK AO2 CIG 004V008 P0000=
202402112256 METAR KPWT 112256Z AUTO 19012G17KT 6SM -RA BR OVC007 09/09 A3000 RMK AO2 RAB14 CIG 004V009 SLP163 P0002 T00890089=
202402112156 METAR KPWT 112156Z AUTO 19011KT 10SM BKN007 BKN020 OVC029 09/09 A2999 RMK AO2 RAE22 CIG 005V012 SLP161 P0000 T00940094=
202402112151 SPECI KPWT 112151Z AUTO 20010KT 10SM OVC007 09/09 A2999 RMK AO2 RAE22 CIG 005V010 P0000=
202402112056 METAR KPWT 112056Z AUTO 21012G19KT 10SM -RA OVC005 09/09 A3000 RMK AO2 RAB46 SLP164 P0000 60005 T00890089 56008=
202402111956 METAR KPWT 111956Z AUTO 20012G17KT 10SM OVC005 08/08 A3000 RMK AO2 RAB22E54 CIG 004V008 SLP166 P0001 T00830083=
202402111941 SPECI KPWT 111941Z AUTO 21013G16KT 10SM -RA OVC005 08/08 A3001 RMK AO2 RAB22 CIG 004V008 P0001=
202402111856 METAR KPWT 111856Z AUTO 20009KT 10SM OVC003 07/07 A3001 RMK AO2 RAE54 SLP170 P0004 T00720072=
202402111806 SPECI KPWT 111806Z AUTO 00000KT 4SM -RA BR OVC003 06/06 A3002 RMK AO2 P0000=
202402111756 METAR KPWT 111756Z AUTO 23003KT 6SM -RA BR OVC005 06/06 A3002 RMK AO2 SLP173 P0007 60033 T00610061 10061 20050 58002=
202402111739 SPECI KPWT 111739Z AUTO 00000KT 9SM -RA OVC005 06/06 A3002 RMK AO2 CIG 004V008 P0007=
202402111656 METAR KPWT 111656Z AUTO 00000KT 5SM RA BR OVC009 06/06 A3002 RMK AO2 CIG 004V011 SLP173 P0012 T00560056=
202402111627 SPECI KPWT 111627Z AUTO 00000KT 4SM -RA BR SCT004 BKN010 OVC013 06/06 A3003 RMK AO2 CIG 006V013 P0006=
202402111612 SPECI KPWT 111612Z AUTO 23003KT 3SM -RA BR SCT004 BKN007 OVC013 06/06 A3003 RMK AO2 P0003=
202402111556 METAR KPWT 111556Z AUTO 24003KT 2 1/2SM RA BR BKN004 OVC015 06/06 A3004 RMK AO2 SLP178 P0002 T00560056=
202402111541 SPECI KPWT 111541Z AUTO 24003KT 6SM -RA BR BKN004 BKN012 OVC027 06/06 A3003 RMK AO2 P0001=
202402111456 METAR KPWT 111456Z AUTO 18005KT 8SM -RA FEW006 BKN020 OVC031 06/06 A3003 RMK AO2 SLP176 P0005 60012 T00560056 58007=
202402111436 SPECI KPWT 111436Z AUTO 18004KT 6SM -RA BR FEW004 BKN022 OVC031 06/06 A3003 RMK AO2 P0004=
202402111356 METAR KPWT 111356Z AUTO 19005KT 10SM -RA OVC024 06/06 A3005 RMK AO2 SLP181 P0005 T00560056=
202402111311 SPECI KPWT 111311Z AUTO 20004KT 10SM -RA BKN026 OVC033 06/06 A3004 RMK AO2 P0001=
202402111256 METAR KPWT 111256Z AUTO 19004KT 8SM -RA FEW026 OVC035 05/05 A3004 RMK AO2 SLP180 P0002 T00500050=
202402111156 METAR KPWT 111156Z AUTO 00000KT 10SM -RA BKN032 OVC047 05/05 A3005 RMK AO2 SLP181 P0000 60000 T00500050 10056 20039 58011=
202402111056 METAR KPWT 111056Z AUTO 00000KT 10SM -RA BKN031 05/04 A3006 RMK AO2 RAB09 SLP186 P0000 T00500044=
202402110956 METAR KPWT 110956Z AUTO 00000KT 10SM SCT075 04/04 A3008 RMK AO2 SLP191 T00440044=
202402110856 METAR KPWT 110856Z AUTO 00000KT 10SM FEW050 04/04 A3008 RMK AO2 SLP193 T00390039 56016=
202402110756 METAR KPWT 110756Z AUTO 00000KT 10SM OVC050 04/04 A3010 RMK AO2 SLP199 T00440044 400940000=
202402110656 METAR KPWT 110656Z AUTO 00000KT 10SM FEW044 BKN120 04/04 A3011 RMK AO2 SLP203 T00440039=
202402110556 METAR KPWT 110556Z AUTO 00000KT 10SM BKN042 04/04 A3013 RMK AO2 SLP211 60000 T00390039 10089 20039 56011=
202402110456 METAR KPWT 110456Z AUTO 00000KT 10SM BKN110 04/04 A3014 RMK AO2 SLP214 T00440039=
202402110356 METAR KPWT 110356Z AUTO 00000KT 10SM FEW060 BKN120 05/05 A3015 RMK AO2 RAE09 SLP217 P0000 T00500050=
202402110256 METAR KPWT 110256Z AUTO 00000KT 10SM -RA FEW120 06/05 A3016 RMK AO2 SLP221 P0000 60000 T00560050 56009=
202402110156 METAR KPWT 110156Z AUTO 00000KT 10SM -RA BKN110 06/05 A3017 RMK AO2 RAB16E36B52 SLP223 P0000 T00610050=
202402110056 METAR KPWT 110056Z AUTO 00000KT 10SM FEW050 08/03 A3018 RMK AO2 SLP226 T00830028=
202402102356 METAR KPWT 102356Z AUTO 14003KT 10SM OVC048 09/03 A3019 RMK AO2 SLP231 T00890028 10094 20050 56009=
202402102256 METAR KPWT 102256Z AUTO 23003KT 10SM BKN060 09/04 A3020 RMK AO2 SLP232 T00890039=
202402102156 METAR KPWT 102156Z AUTO VRB03KT 10SM BKN070 09/03 A3020 RMK AO2 SLP234 T00940033=
202402102056 METAR KPWT 102056Z AUTO 23007KT 10SM CLR 09/03 A3022 RMK AO2 SLP241 T00890033 58015=
202402101956 METAR KPWT 101956Z AUTO 22008KT 10SM CLR 09/04 A3024 RMK AO2 SLP248 T00890039=
202402101856 METAR KPWT 101856Z AUTO 23004KT 10SM CLR 07/04 A3026 RMK AO2 SLP252 T00720039=
202402101756 METAR KPWT 101756Z AUTO 00000KT 10SM CLR 04/04 A3026 RMK AO2 SLP256 T00440044 10050 20006 50001=
202402101656 METAR KPWT 101656Z AUTO 00000KT 7SM SCT110 04/04 A3026 RMK AO2 SLP256 T00440044=
202402101649 SPECI KPWT 101649Z AUTO 00000KT 3SM BR FEW110 04/04 A3026 RMK AO2=
202402101643 SPECI KPWT 101643Z AUTO 00000KT 1 1/4SM BR CLR 03/03 A3026 RMK AO2 VIS 3/4V4=
202402101634 SPECI KPWT 101634Z AUTO 00000KT 3/4SM BR CLR 03/03 A3027 RMK AO2 VIS 1/2V4=
202402101630 SPECI KPWT 101630Z AUTO 00000KT 1 1/2SM BR CLR 03/03 A3027 RMK AO2 VIS 1/2V5=
202402101615 SPECI KPWT 101615Z AUTO 00000KT 3SM BR CLR 02/02 A3027 RMK AO2 FZRANO=
202402101613 SPECI KPWT 101613Z AUTO 00000KT 1 1/4SM BR CLR 01/01 A3027 RMK AO2 FZRANO=
202402101600 SPECI KPWT 101600Z AUTO 00000KT 3/4SM BR CLR 01/01 A3027 RMK AO2 VIS 1/4V4 FZRANO=
202402101556 METAR KPWT 101556Z AUTO 00000KT 1 1/2SM BR CLR 01/01 A3026 RMK AO2 VIS 1/4V5 SLP258 T00060006 FZRANO=
202402101542 SPECI KPWT 101542Z AUTO 15003KT 5SM BR CLR 01/01 A3026 RMK AO2 FZRANO=
202402101534 SPECI KPWT 101534Z AUTO 14003KT 2SM BR CLR 01/01 A3026 RMK AO2 FZRANO=
202402101524 SPECI KPWT 101524Z AUTO 15004KT 1SM BR CLR 01/01 A3026 RMK AO2 FZRANO=
202402101516 SPECI KPWT 101516Z AUTO 00000KT 2 1/2SM BR CLR 01/01 A3026 RMK AO2 FZRANO=
202402101509 SPECI KPWT 101509Z AUTO 00000KT 1 3/4SM BR CLR 01/01 A3026 RMK AO2 VIS 3/4V5 FZRANO=
202402101456 METAR KPWT 101456Z AUTO 00000KT 9SM CLR 01/01 A3026 RMK AO2 SLP255 T00110011 55002 FZRANO=
202402101445 SPECI KPWT 101445Z AUTO 00000KT 9SM FEW001 02/02 A3026 RMK AO2 FZRANO=
202402101438 SPECI KPWT 101438Z AUTO 00000KT 2 1/2SM BR FEW001 02/02 A3025 RMK AO2 FZRANO=
202402101434 SPECI KPWT 101434Z AUTO 00000KT 1 1/4SM BR CLR 01/01 A3025 RMK AO2 FZRANO=
202402101430 SPECI KPWT 101430Z AUTO 00000KT 3/4SM BR CLR 01/01 A3025 RMK AO2 FZRANO=
202402101425 SPECI KPWT 101425Z AUTO 00000KT 1 3/4SM BR CLR 01/01 A3025 RMK AO2 FZRANO=
202402101356 METAR KPWT 101356Z AUTO 00000KT 6SM BR CLR 02/02 A3025 RMK AO2 SLP251 T00170017 FZRANO=
202402101336 SPECI KPWT 101336Z AUTO 00000KT 8SM FEW002 02/02 A3025 RMK AO2 FZRANO=
202402101317 SPECI KPWT 101317Z AUTO 00000KT 3SM BR BKN002 02/02 A3025 RMK AO2 FZRANO=
202402101311 SPECI KPWT 101311Z AUTO 00000KT 1 1/4SM BR OVC002 02/02 A3025 RMK AO2 FZRANO=
202402101307 SPECI KPWT 101307Z AUTO 00000KT 3/4SM BR OVC002 02/02 A3026 RMK AO2 FZRANO=
202402101256 METAR KPWT 101256Z AUTO 00000KT 1/2SM FG OVC002 02/02 A3026 RMK AO2 SLP254 T00220022 FZRANO=
202402101249 SPECI KPWT 101249Z AUTO 00000KT 3/4SM BR OVC002 02/02 A3026 RMK AO2 FZRANO=
202402101219 SPECI KPWT 101219Z AUTO 00000KT 1/2SM FG OVC002 02/02 A3026 RMK AO2 FZRANO=
202402101156 METAR KPWT 101156Z AUTO 00000KT 1/4SM FG OVC002 01/01 A3027 RMK AO2 SLP257 T00110011 10011 21006 51005 FZRANO=
202402101151 SPECI KPWT 101151Z AUTO 00000KT 1/4SM FG OVC002 01/01 A3027 RMK AO2 FZRANO=
202402101145 SPECI KPWT 101145Z AUTO 00000KT 3/4SM BR OVC002 01/01 A3027 RMK AO2 FZRANO=
202402101136 SPECI KPWT 101136Z AUTO 00000KT 10SM BKN002 BKN100 01/01 A3026 RMK AO2 FZRANO=
202402101128 SPECI KPWT 101128Z AUTO 00000KT 10SM SCT002 BKN100 01/01 A3026 RMK AO2 FZRANO=
202402101056 METAR KPWT 101056Z AUTO 00000KT 10SM CLR 01/01 A3026 RMK AO2 SLP255 T00060006 FZRANO=
202402100956 METAR KPWT 100956Z AUTO 00000KT 10SM CLR 01/01 A3026 RMK AO2 SLP255 T00060006 FZRANO=
202402100856 METAR KPWT 100856Z AUTO 00000KT 10SM BKN110 00/00 A3025 RMK AO2 SLP251 T00000000 50003 FZRANO=
202402100756 METAR KPWT 100756Z AUTO 00000KT 10SM CLR 00/00 A3026 RMK AO2 SLP254 T00000000 400831006 FZRANO=
202402100656 METAR KPWT 100656Z AUTO 00000KT 4SM BR CLR M01/M01 A3025 RMK AO2 SLP251 T10061006 FZRANO=
202402100556 METAR KPWT 100556Z AUTO 00000KT 10SM CLR 00/00 A3024 RMK AO2 SLP248 T00000000 10072 20000 52007 FZRANO=
202402100456 METAR KPWT 100456Z AUTO 00000KT 10SM CLR 00/00 A3024 RMK AO2 SLP247 T00000000 FZRANO=
202402100356 METAR KPWT 100356Z AUTO 00000KT 10SM CLR 01/01 A3023 RMK AO2 SLP245 T00060006 FZRANO=
202402100256 METAR KPWT 100256Z AUTO 00000KT 10SM CLR 01/01 A3022 RMK AO2 SLP243 T00110011 51008 FZRANO=
202402100156 METAR KPWT 100156Z AUTO 00000KT 10SM CLR 03/03 A3021 RMK AO2 SLP239 T00330028=
202402100113 SPECI KPWT 100113Z AUTO 07003KT 10SM SCT029 BKN035 06/03 A3021 RMK AO2=
202402100056 METAR KPWT 100056Z AUTO 05004KT 10SM OVC027 07/03 A3021 RMK AO2 SLP236 T00670033=
202402092356 METAR KPWT 092356Z AUTO 04005KT 10SM BKN025 OVC032 07/04 A3020 RMK AO2 SLP232 T00720039 10083 20050 55001=
202402092308 SPECI KPWT 092308Z AUTO 04005KT 10SM BKN027 BKN037 OVC050 08/03 A3019 RMK AO2=
202402092256 METAR KPWT 092256Z AUTO 05006KT 10SM FEW027 BKN037 OVC050 08/03 A3019 RMK AO2 SLP230 T00780033=
202402092156 METAR KPWT 092156Z AUTO 11004KT 10SM SCT039 08/04 A3019 RMK AO2 SLP231 T00780039=
202402092131 SPECI KPWT 092131Z AUTO 12006KT 10SM SCT029 07/04 A3019 RMK AO2=
202402092123 SPECI KPWT 092123Z AUTO 13005KT 10SM BKN029 07/03 A3019 RMK AO2=
202402092056 METAR KPWT 092056Z AUTO 15003KT 10SM FEW023 07/03 A3020 RMK AO2 SLP233 T00720033 51011=
202402091956 METAR KPWT 091956Z AUTO VRB03KT 10SM SCT016 OVC033 07/04 A3020 RMK AO2 SLP233 T00670039=
202402091856 METAR KPWT 091856Z AUTO 00000KT 10SM FEW014 OVC030 06/04 A3019 RMK AO2 SLP229 T00560044=
202402091756 METAR KPWT 091756Z AUTO 00000KT 10SM FEW010 OVC034 05/05 A3017 RMK AO2 SLP222 T00500050 10056 21006 53014=
202402091656 METAR KPWT 091656Z AUTO 00000KT 10SM FEW030 BKN065 03/03 A3015 RMK AO2 SLP214 T00330033=
202402091610 SPECI KPWT 091610Z AUTO 00000KT 4SM BR SCT065 01/01 A3014 RMK AO2 FZRANO=
202402091603 SPECI KPWT 091603Z AUTO 00000KT 2 1/2SM BR FEW065 01/01 A3014 RMK AO2 VIS 1 1/4V5 FZRANO=
202402091556 METAR KPWT 091556Z AUTO 00000KT 1 3/4SM BR CLR 01/01 A3014 RMK AO2 VIS 1 1/4V5 SLP213 T00060006 FZRANO=
202402091529 SPECI KPWT 091529Z AUTO 00000KT 2SM BR CLR 00/00 A3013 RMK AO2 FZRANO=
202402091512 SPECI KPWT 091512Z AUTO 00000KT 1SM BR CLR 00/00 A3013 RMK AO2 VIS 1/2V4 FZRANO=
202402091509 SPECI KPWT 091509Z AUTO 00000KT 1/2SM FG CLR 00/00 A3013 RMK AO2 FZRANO=
202402091456 METAR KPWT 091456Z AUTO 00000KT 1/4SM FG VV001 00/00 A3012 RMK AO2 SLP208 T00000000 53013 FZRANO=
202402091448 SPECI KPWT 091448Z AUTO 00000KT 1/4SM FG BKN001 00/00 A3012 RMK AO2 FZRANO=
202402091439 SPECI KPWT 091439Z AUTO 00000KT 1/2SM FZFG BKN001 M01/M01 A3012 RMK AO2 FZRANO=
202402091432 SPECI KPWT 091432Z AUTO 00000KT 1SM BR BKN001 M01/M01 A3012 RMK AO2 FZRANO=
202402091422 SPECI KPWT 091422Z AUTO 00000KT 3/4SM BR VV002 M01/M01 A3011 RMK AO2 FZRANO=
202402091410 SPECI KPWT 091410Z AUTO 00000KT 3/4SM BR CLR M01/M01 A3011 RMK AO2 FZRANO=
202402091404 SPECI KPWT 091404Z AUTO 00000KT 1 1/2SM BR CLR 00/00 A3011 RMK AO2 FZRANO=
202402091356 METAR KPWT 091356Z AUTO 00000KT 10SM CLR 00/00 A3011 RMK AO2 SLP202 T00000000 FZRANO=
202402091256 METAR KPWT 091256Z AUTO 00000KT 10SM CLR 01/01 A3010 RMK AO2 SLP200 T00110011 FZRANO=
202402091156 METAR KPWT 091156Z AUTO 00000KT 10SM FEW031 OVC110 03/03 A3008 RMK AO2 SLP194 60000 T00280028 10050 20028 50008=
202402091056 METAR KPWT 091056Z AUTO 00000KT 10SM BKN035 OVC042 03/03 A3009 RMK AO2 SLP196 T00330033=
202402090956 METAR KPWT 090956Z AUTO 00000KT 10SM BKN030 03/03 A3008 RMK AO2 RAE10 SLP193 P0000 T00330033=
202402090856 METAR KPWT 090856Z AUTO 00000KT 10SM -RA FEW007 SCT035 SCT044 04/04 A3006 RMK AO2 RAE04B22 SLP186 P0000 60000 T00440044 50009=
202402090849 SPECI KPWT 090849Z AUTO 00000KT 10SM -RA FEW007 SCT024 BKN035 04/04 A3006 RMK AO2 RAE04B22 P0000=
202402090826 SPECI KPWT 090826Z AUTO 00000KT 10SM -RA FEW007 BKN024 BKN033 04/04 A3006 RMK AO2 RAE04B22 P0000=
202402090803 SPECI KPWT 090803Z AUTO 00000KT 10SM -RA FEW007 SCT035 04/04 A3007 RMK AO2 P0000=
202402090756 METAR KPWT 090756Z AUTO 00000KT 10SM -RA SCT037 04/04 A3006 RMK AO2 RAE0659B32 SLP186 P0000 T00440044 400780028=
202402090706 SPECI KPWT 090706Z AUTO 06003KT 10SM FEW006 04/04 A3004 RMK AO2 RAE0659 P0000=
202402090656 METAR KPWT 090656Z AUTO 00000KT 10SM -RA BKN008 04/04 A3004 RMK AO2 CIG 004V011 SLP179 P0000 T00440044=
202402090556 METAR KPWT 090556Z AUTO 00000KT 10SM -RA BKN008 OVC011 05/03 A3003 RMK AO2 RAE20B46 CIG 008V011 SLP176 P0000 60000 T00500033 10078 20044 53006=
202402090506 SPECI KPWT 090506Z AUTO 00000KT 10SM -RA BKN013 04/04 A3002 RMK AO2 P0000=
202402090456 METAR KPWT 090456Z AUTO 00000KT 10SM -RA SCT015 04/04 A3002 RMK AO2 RAB46 SLP173 P0000 T00440039=
202402090356 METAR KPWT 090356Z AUTO 00000KT 10SM CLR 05/03 A3002 RMK AO2 SLP174 T00500033=
202402090256 METAR KPWT 090256Z AUTO 14003KT 10SM CLR 05/03 A3001 RMK AO2 SLP171 T00500033 53002=
202402090156 METAR KPWT 090156Z AUTO 20005KT 10SM FEW033 OVC095 06/03 A3001 RMK AO2 SLP169 T00610033=
202402090056 METAR KPWT 090056Z AUTO 20006KT 10SM SCT033 07/03 A3000 RMK AO2 SLP166 T00720033=
202402082356 METAR KPWT 082356Z AUTO 19004KT 10SM SCT027 SCT032 08/05 A3001 RMK AO2 SLP168 T00780050 10078 20056 51006=
202402082338 SPECI KPWT 082338Z AUTO 18003KT 10SM BKN025 BKN033 OVC040 08/05 A3001 RMK AO2=
202402082256 METAR KPWT 082256Z AUTO 19004KT 10SM FEW019 SCT025 OVC046 08/05 A3000 RMK AO2 SLP165 T00780050=
202402082254 SPECI KPWT 082254Z AUTO 20005KT 10SM FEW019 SCT025 OVC046 08/05 A3000 RMK AO2=
202402082243 SPECI KPWT 082243Z AUTO 18005KT 10SM SCT019 BKN025 BKN042 07/04 A2999 RMK AO2=
202402082156 METAR KPWT 082156Z AUTO VRB05KT 10SM SCT017 SCT027 08/05 A2999 RMK AO2 SLP161 T00780050=
202402082056 METAR KPWT 082056Z AUTO VRB03KT 10SM BKN019 08/04 A2999 RMK AO2 SLP163 T00780044 58002=
202402082008 SPECI KPWT 082008Z AUTO 22006KT 10SM SCT017 BKN046 07/04 A3000 RMK AO2=
202402081956 METAR KPWT 081956Z AUTO VRB05KT 10SM BKN019 BKN023 BKN046 07/05 A3001 RMK AO2 SLP168 T00720050=
202402081946 SPECI KPWT 081946Z AUTO 23005KT 10SM BKN019 07/05 A3001 RMK AO2=
202402081932 SPECI KPWT 081932Z AUTO 25004KT 10SM SCT020 06/04 A3001 RMK AO2=
202402081856 METAR KPWT 081856Z AUTO 23007KT 10SM OVC015 06/05 A3001 RMK AO2 SLP170 T00610050=
202402081839 SPECI KPWT 081839Z AUTO 24004KT 10SM BKN015 06/05 A3001 RMK AO2=
202402081831 SPECI KPWT 081831Z AUTO 22006KT 10SM BKN013 BKN018 06/05 A3001 RMK AO2=
202402081756 METAR KPWT 081756Z AUTO 23004KT 10SM FEW015 SCT041 06/05 A3000 RMK AO2 SLP165 T00610050 10067 20028 51015=
202402081729 SPECI KPWT 081729Z AUTO 00000KT 10SM SCT002 BKN041 04/04 A2999 RMK AO2=
202402081719 SPECI KPWT 081719Z AUTO 00000KT 10SM BKN002 BKN025 04/04 A2999 RMK AO2=
202402081707 SPECI KPWT 081707Z AUTO 00000KT 10SM FEW002 SCT025 SCT031 04/04 A2999 RMK AO2=
202402081656 METAR KPWT 081656Z AUTO 00000KT 10SM SCT025 BKN031 04/04 A2999 RMK AO2 SLP161 T00390039=
202402081642 SPECI KPWT 081642Z AUTO 00000KT 10SM FEW002 SCT026 BKN031 04/04 A2998 RMK AO2=
202402081631 SPECI KPWT 081631Z AUTO 00000KT 7SM SCT002 BKN026 BKN031 03/03 A2998 RMK AO2=
202402081556 METAR KPWT 081556Z AUTO 00000KT 4SM BR BKN002 03/03 A2998 RMK AO2 SLP159 T00330033=
202402081544 SPECI KPWT 081544Z AUTO 00000KT 6SM BR SCT002 03/03 A2997 RMK AO2=
202402081456 METAR KPWT 081456Z AUTO 00000KT 10SM FEW024 BKN032 04/04 A2995 RMK AO2 SLP150 T00390039 51008=
202402081452 SPECI KPWT 081452Z AUTO 00000KT 10SM FEW024 BKN032 03/03 A2995 RMK AO2=
202402081417 SPECI KPWT 081417Z AUTO 00000KT 10SM BKN022 BKN031 03/03 A2995 RMK AO2=
202402081405 SPECI KPWT 081405Z AUTO 18003KT 10SM FEW022 SCT031 03/03 A2995 RMK AO2=
202402081356 METAR KPWT 081356Z AUTO 21003KT 10SM BKN022 BKN031 03/03 A2995 RMK AO2 SLP148 T00280028=
202402081349 SPECI KPWT 081349Z AUTO 00000KT 10SM SCT022 BKN033 03/03 A2995 RMK AO2=
202402081339 SPECI KPWT 081339Z AUTO 00000KT 10SM BKN022 BKN033 03/03 A2994 RMK AO2=
202402081256 METAR KPWT 081256Z AUTO 00000KT 10SM BKN041 BKN080 03/03 A2993 RMK AO2 SLP141 T00330033=
202402081156 METAR KPWT 081156Z AUTO 00000KT 10SM SCT080 03/03 A2992 RMK AO2 SLP138 60000 T00330033 10050 20033 51006=
202402081134 SPECI KPWT 081134Z AUTO 00000KT 10SM FEW026 SCT031 BKN080 03/03 A2992 RMK AO2=
202402081117 SPECI KPWT 081117Z AUTO 00000KT 9SM FEW023 BKN029 BKN075 04/04 A2991 RMK AO2=
202402081056 METAR KPWT 081056Z AUTO 00000KT 10SM FEW031 BKN070 04/04 A2991 RMK AO2 RAB26E37 SLP135 P0000 T00390039=
202402080956 METAR KPWT 080956Z AUTO 00000KT 10SM OVC070 03/03 A2991 RMK AO2 SLP134 T00330033=
202402080856 METAR KPWT 080856Z AUTO 00000KT 10SM BKN041 BKN070 03/03 A2990 RMK AO2 SLP132 T00330033 53015=
202402080756 METAR KPWT 080756Z AUTO 00000KT 10SM FEW037 BKN065 04/04 A2988 RMK AO2 SLP126 T00390039 400890011=
202402080656 METAR KPWT 080656Z AUTO 21003KT 10SM BKN030 BKN055 04/04 A2987 RMK AO2 SLP121 T00440044=
202402080556 METAR KPWT 080556Z AUTO 00000KT 10SM OVC026 05/04 A2985 RMK AO2 SLP116 T00500039 10083 20050 53010=
202402080456 METAR KPWT 080456Z AUTO 06004KT 10SM BKN024 BKN070 06/04 A2984 RMK AO2 SLP112 T00560039=
202402080356 METAR KPWT 080356Z AUTO 05004KT 10SM OVC070 06/04 A2983 RMK AO2 SLP107 T00560044=
202402080256 METAR KPWT 080256Z AUTO 00000KT 10SM BKN065 06/04 A2983 RMK AO2 SLP105 T00560044 52015=
202402080156 METAR KPWT 080156Z AUTO 00000KT 10SM BKN065 06/04 A2981 RMK AO2 SLP103 T00610044=
202402080056 METAR KPWT 080056Z AUTO 00000KT 10SM OVC060 08/04 A2979 RMK AO2 SLP095 T00780039=
202402080020 SPECI KPWT 080020Z AUTO 00000KT 10SM SCT028 BKN035 OVC055 08/04 A2979 RMK AO2=
202402080011 SPECI KPWT 080011Z AUTO 00000KT 10SM BKN028 BKN035 OVC060 08/03 A2978 RMK AO2=
202402072356 METAR KPWT 072356Z AUTO 00000KT 10SM FEW028 SCT035 OVC060 08/03 A2978 RMK AO2 SLP090 T00830033 10089 20056 53009=
202402072256 METAR KPWT 072256Z AUTO 00000KT 10SM BKN060 09/03 A2977 RMK AO2 SLP086 T00890028=
202402072156 METAR KPWT 072156Z AUTO 00000KT 10SM FEW031 OVC055 08/03 A2976 RMK AO2 SLP083 T00830033=
202402072056 METAR KPWT 072056Z AUTO 08004KT 10SM CLR 08/02 A2975 RMK AO2 SLP081 T00830022 51002=
202402071956 METAR KPWT 071956Z AUTO 06007KT 10SM CLR 08/04 A2975 RMK AO2 SLP081 T00830039=
202402071856 METAR KPWT 071856Z AUTO 06003KT 10SM FEW005 OVC055 06/05 A2975 RMK AO2 SLP082 T00610050=
202402071838 SPECI KPWT 071838Z AUTO 01003KT 10SM FEW005 BKN055 06/06 A2975 RMK AO2=
202402071756 METAR KPWT 071756Z AUTO 00000KT 10SM OVC060 05/05 A2975 RMK AO2 SLP080 T00500050 10050 20011 53010=
202402071656 METAR KPWT 071656Z AUTO 00000KT 10SM BKN060 03/03 A2973 RMK AO2 SLP076 T00280028=
202402071619 SPECI KPWT 071619Z AUTO 00000KT 4SM BR BKN055 01/01 A2972 RMK AO2 FZRANO=
202402071614 SPECI KPWT 071614Z AUTO 00000KT 1 1/4SM BR SCT055 01/01 A2972 RMK AO2 FZRANO=
202402071556 METAR KPWT 071556Z AUTO 00000KT 3/4SM BR CLR 02/02 A2972 RMK AO2 SLP068 T00170017 FZRANO=
202402071553 SPECI KPWT 071553Z AUTO 00000KT 3/4SM BR CLR 01/01 A2971 RMK AO2 FZRANO=
202402071541 SPECI KPWT 071541Z AUTO 00000KT 1/2SM FG CLR 02/02 A2971 RMK AO2 FZRANO=
202402071538 SPECI KPWT 071538Z AUTO 00000KT 1SM BR CLR 02/02 A2971 RMK AO2 FZRANO=
202402071517 SPECI KPWT 071517Z AUTO 00000KT 4SM BR SCT060 02/02 A2971 RMK AO2 FZRANO=
202402071508 SPECI KPWT 071508Z AUTO 00000KT 1 3/4SM BR BKN060 02/02 A2970 RMK AO2 VIS 3/4V5 FZRANO=
202402071456 METAR KPWT 071456Z AUTO 00000KT 10SM OVC055 02/02 A2970 RMK AO2 SLP062 T00220022 53007 FZRANO=
202402071356 METAR KPWT 071356Z AUTO 00000KT 8SM OVC055 03/03 A2969 RMK AO2 SLP061 T00280028=
202402071339 SPECI KPWT 071339Z AUTO 00000KT 3SM BR BKN055 03/03 A2969 RMK AO2=
202402071332 SPECI KPWT 071332Z AUTO 00000KT 1 1/4SM BR BKN055 03/03 A2969 RMK AO2=
202402071326 SPECI KPWT 071326Z AUTO 00000KT 3/4SM BR SCT055 03/03 A2969 RMK AO2=
202402071312 SPECI KPWT 071312Z AUTO 00000KT 1/2SM FG SCT001 SCT055 03/03 A2969 RMK AO2=
202402071256 METAR KPWT 071256Z AUTO 00000KT 1/2SM FG BKN001 03/03 A2968 RMK AO2 SLP057 T00330033=
202402071240 SPECI KPWT 071240Z AUTO 00000KT 1/2SM FG VV001 03/03 A2968 RMK AO2=
202402071226 SPECI KPWT 071226Z AUTO 00000KT 3/4SM BR BKN003 03/03 A2968 RMK AO2=
202402071216 SPECI KPWT 071216Z AUTO 00000KT 1 3/4SM BR OVC003 03/03 A2968 RMK AO2=
202402071207 SPECI KPWT 071207Z AUTO 00000KT 4SM BR BKN003 BKN055 03/03 A2968 RMK AO2=
202402071200 SPECI KPWT 071200Z AUTO 00000KT 2 1/2SM BR BKN003 BKN050 03/03 A2968 RMK AO2 VIS 1 1/2V5=
202402071156 METAR KPWT 071156Z AUTO 00000KT 1 1/4SM BR SCT003 BKN050 03/03 A2968 RMK AO2 SLP056 70002 T00330033 10039 20028 57001=
202402071148 SPECI KPWT 071148Z AUTO 00000KT 3/4SM BR SCT003 BKN050 03/03 A2968 RMK AO2=
202402071140 SPECI KPWT 071140Z AUTO 00000KT 1SM BR BKN050 03/03 A2968 RMK AO2=
202402071130 SPECI KPWT 071130Z AUTO 00000KT 1 3/4SM BR FEW003 BKN050 03/03 A2968 RMK AO2=
202402071120 SPECI KPWT 071120Z AUTO 00000KT 4SM BR FEW003 BKN050 03/03 A2968 RMK AO2=
202402071056 METAR KPWT 071056Z AUTO 00000KT 9SM BKN003 03/03 A2968 RMK AO2 SLP057 T00330033=
202402071029 SPECI KPWT 071029Z AUTO 00000KT 10SM BKN003 BKN050 03/03 A2968 RMK AO2=
202402071020 SPECI KPWT 071020Z AUTO 00000KT 10SM SCT003 BKN050 03/03 A2968 RMK AO2=
202402070956 METAR KPWT 070956Z AUTO 00000KT 10SM OVC050 03/03 A2968 RMK AO2 SLP057 T00330033=
202402070856 METAR KPWT 070856Z AUTO 00000KT 9SM OVC048 03/03 A2968 RMK AO2 SLP057 T00330033 58006=
202402070812 SPECI KPWT 070812Z AUTO 00000KT 3SM BR OVC050 04/04 A2969 RMK AO2=
202402070806 SPECI KPWT 070806Z AUTO 00000KT 1 1/4SM BR OVC050 03/03 A2969 RMK AO2=
202402070756 METAR KPWT 070756Z AUTO 00000KT 3/4SM BR BKN050 04/04 A2969 RMK AO2 SLP061 T00390039 400720033=
202402070747 SPECI KPWT 070747Z AUTO 00000KT 3/4SM BR SCT003 OVC050 03/03 A2969 RMK AO2=
202402070741 SPECI KPWT 070741Z AUTO 00000KT 1 1/2SM BR SCT003 BKN050 03/03 A2969 RMK AO2 VIS 3/4V5=
202402070736 SPECI KPWT 070736Z AUTO 00000KT 2 1/2SM BR BKN003 BKN050 04/04 A2969 RMK AO2 VIS 1V5=
202402070725 SPECI KPWT 070725Z AUTO 00000KT 1 3/4SM BR BKN003 BKN045 04/04 A2969 RMK AO2=
202402070718 SPECI KPWT 070718Z AUTO 00000KT 4SM BR BKN003 BKN045 04/04 A2969 RMK AO2=
202402070656 METAR KPWT 070656Z AUTO 00000KT 10SM SCT003 OVC055 04/04 A2969 RMK AO2 SLP062 T00390039=
202402070623 SPECI KPWT 070623Z AUTO 00000KT 10SM FEW003 BKN048 03/03 A2970 RMK AO2=
202402070556 METAR KPWT 070556Z AUTO 00000KT 10SM SCT050 04/04 A2970 RMK AO2 RAE11 SLP065 P0000 60000 T00390039 10072 20039 56006=
202402070504 SPECI KPWT 070504Z AUTO 17003KT 10SM -RA FEW010 SCT023 BKN031 05/05 A2970 RMK AO2 P0000=
202402070456 METAR KPWT 070456Z AUTO 15004KT 10SM -RA FEW010 BKN021 BKN031 06/06 A2970 RMK AO2 RAB43 SLP065 P0000 T00560056=
202402070448 SPECI KPWT 070448Z AUTO 15003KT 10SM -RA SCT010 BKN021 OVC050 06/06 A2971 RMK AO2 RAB43 P0000=
202402070356 METAR KPWT 070356Z AUTO 00000KT 10SM FEW028 SCT039 OVC050 06/06 A2971 RMK AO2 SLP066 T00560056=
202402070256 METAR KPWT 070256Z AUTO 00000KT 10SM OVC042 06/06 A2972 RMK AO2 SLP070 T00560056 56008=
202402070156 METAR KPWT 070156Z AUTO 00000KT 10SM OVC036 06/06 A2972 RMK AO2 SLP072 T00610061=
202402070114 SPECI KPWT 070114Z AUTO 00000KT 10SM OVC030 06/06 A2973 RMK AO2=
202402070056 METAR KPWT 070056Z AUTO 00000KT 10SM OVC026 07/06 A2973 RMK AO2 SLP075 T00670061=
202402070033 SPECI KPWT 070033Z AUTO 00000KT 10SM OVC028 07/06 A2974 RMK AO2=
202402062356 METAR KPWT 062356Z AUTO 22004KT 10SM SCT013 OVC030 07/06 A2974 RMK AO2 SLP078 60000 T00720061 10072 20050 56015=
202402062256 METAR KPWT 062256Z AUTO 18003KT 10SM FEW008 07/06 A2976 RMK AO2 RAE11 SLP083 P0000 T00670056=
202402062232 SPECI KPWT 062232Z AUTO 23003KT 10SM FEW008 BKN031 07/06 A2976 RMK AO2 RAE11 P0000=
202402062218 SPECI KPWT 062218Z AUTO 00000KT 10SM FEW010 SCT015 OVC031 06/06 A2976 RMK AO2 RAE11 P0000=
202402062156 METAR KPWT 062156Z AUTO 00000KT 10SM -RA FEW007 OVC013 06/06 A2977 RMK AO2 SLP088 P0000 T00610061=
202402062144 SPECI KPWT 062144Z AUTO 00000KT 10SM -RA SCT007 BKN015 OVC020 06/06 A2977 RMK AO2 P0000=
202402062133 SPECI KPWT 062133Z AUTO 20003KT 10SM SCT007 BKN013 OVC020 06/06 A2978 RMK AO2 RAE23 P0000=
202402062118 SPECI KPWT 062118Z AUTO 00000KT 10SM -RA BKN007 BKN013 OVC018 06/06 A2978 RMK AO2 CIG 006V011 P0000=
202402062102 SPECI KPWT 062102Z AUTO 00000KT 10SM -RA FEW007 BKN013 OVC018 06/06 A2979 RMK AO2 P0000=
202402062056 METAR KPWT 062056Z AUTO 21003KT 10SM -RA OVC018 06/06 A2979 RMK AO2 RAB28 SLP093 P0000 60000 T00610056 56007=
202402062051 SPECI KPWT 062051Z AUTO 20003KT 10SM -RA FEW014 OVC018 06/06 A2979 RMK AO2 RAB28 P0000=
202402062026 SPECI KPWT 062026Z AUTO 20003KT 10SM BKN012 OVC021 06/06 A2979 RMK AO2=
202402062007 SPECI KPWT 062007Z AUTO 13003KT 10SM FEW008 SCT016 OVC025 06/06 A2980 RMK AO2=
202402061956 METAR KPWT 061956Z AUTO 17003KT 10SM SCT008 BKN012 OVC025 06/06 A2980 RMK AO2 SLP098 T00610056=
202402061953 SPECI KPWT 061953Z AUTO 00000KT 10SM SCT008 SCT012 OVC025 06/06 A2980 RMK AO2=
202402061942 SPECI KPWT 061942Z AUTO 00000KT 10SM BKN008 BKN012 OVC025 06/06 A2980 RMK AO2=
202402061929 SPECI KPWT 061929Z AUTO 00000KT 10SM BKN010 OVC025 06/06 A2980 RMK AO2 CIG 007V012=
202402061911 SPECI KPWT 061911Z AUTO 00000KT 10SM BKN008 OVC023 06/06 A2981 RMK AO2=
202402061856 METAR KPWT 061856Z AUTO 00000KT 10SM FEW003 OVC023 06/06 A2981 RMK AO2 RAE01 SLP100 P0000 T00560056=
202402061756 METAR KPWT 061756Z AUTO 00000KT 10SM -RA FEW003 OVC023 05/05 A2981 RMK AO2 RAE02B42 SLP101 P0000 60002 T00500050 10050 20039 51007=
202402061656 METAR KPWT 061656Z AUTO 00000KT 10SM -RA OVC023 04/04 A2981 RMK AO2 RAB04 SLP101 P0000 T00440044=
202402061556 METAR KPWT 061556Z AUTO 00000KT 10SM FEW014 OVC027 04/04 A2980 RMK AO2 SLP097 T00440044=
202402061456 METAR KPWT 061456Z AUTO 21003KT 10SM OVC023 04/04 A2979 RMK AO2 RAE52 SLP095 P0001 60002 T00390039 51004=
202402061452 SPECI KPWT 061452Z AUTO 20003KT 4SM BR OVC021 04/04 A2979 RMK AO2 RAE52 P0001=
202402061440 SPECI KPWT 061440Z AUTO 20003KT 1 3/4SM -RA BR BKN019 OVC024 04/04 A2979 RMK AO2 P0001=
202402061356 METAR KPWT 061356Z AUTO 00000KT 10SM -RA BKN026 OVC034 04/04 A2979 RMK AO2 SLP093 P0001 T00390039=
202402061331 SPECI KPWT 061331Z AUTO 00000KT 10SM -RA BKN026 OVC032 04/04 A2979 RMK AO2 P0001=
202402061256 METAR KPWT 061256Z AUTO 00000KT 10SM -RA OVC032 04/04 A2979 RMK AO2 SLP093 P0000 T00390039=
202402061156 METAR KPWT 061156Z AUTO 00000KT 10SM -RA SCT032 04/04 A2978 RMK AO2 SLP089 P0002 60006 70013 T00440044 10050 20039 50005=
202402061056 METAR KPWT 061056Z AUTO 00000KT 10SM -RA SCT032 04/04 A2978 RMK AO2 SLP089 P0001 T00390039=
202402060956 METAR KPWT 060956Z AUTO 00000KT 10SM -RA CLR 04/04 A2977 RMK AO2 SLP089 P0001 T00390039=
202402060856 METAR KPWT 060856Z AUTO 00000KT 10SM -RA CLR 04/04 A2976 RMK AO2 SLP084 P0002 60002 T00440044 51013=
202402060756 METAR KPWT 060756Z AUTO 36003KT 10SM -RA SCT029 04/04 A2975 RMK AO2 SLP081 P0000 T00440044 400780044=
202402060733 SPECI KPWT 060733Z AUTO 04004KT 10SM -RA BKN029 04/04 A2975 RMK AO2 P0000=
202402060656 METAR KPWT 060656Z AUTO 07004KT 10SM -RA CLR 04/04 A2974 RMK AO2 RAB0558 SLP076 P0000 T00440044=
202402060556 METAR KPWT 060556Z AUTO 06006KT 10SM FEW039 05/05 A2972 RMK AO2 RAE27 SLP071 P0000 60003 T00500050 10061 20050 51010=
202402060456 METAR KPWT 060456Z AUTO 03007KT 10SM -RA OVC034 05/05 A2972 RMK AO2 SLP069 P0000 T00500050=
202402060356 METAR KPWT 060356Z AUTO 06005KT 10SM -RA OVC030 05/05 A2970 RMK AO2 SLP065 P0002 T00500050=
202402060256 METAR KPWT 060256Z AUTO 07004KT 10SM -RA FEW027 OVC033 05/05 A2969 RMK AO2 SLP060 P0000 60001 T00500050 52013=
202402060230 SPECI KPWT 060230Z AUTO 07007KT 10SM -RA SCT029 OVC035 06/06 A2969 RMK AO2 P0000=
202402060207 SPECI KPWT 060207Z AUTO 07005KT 10SM -RA BKN029 OVC038 06/06 A2968 RMK AO2 P0000=
202402060156 METAR KPWT 060156Z AUTO 08005KT 10SM -RA BKN032 OVC039 06/06 A2968 RMK AO2 SLP057 P0000 T00560056=
202402060056 METAR KPWT 060056Z AUTO 05006KT 10SM -RA SCT035 BKN044 06/06 A2966 RMK AO2 SLP051 P0001 T00610056=
202402052356 METAR KPWT 052356Z AUTO 05007KT 10SM -RA FEW036 06/06 A2965 RMK AO2 SLP047 P0002 60004 T00610061 10078 20056 53014=
202402052256 METAR KPWT 052256Z AUTO 04007KT 10SM -RA SCT044 06/06 A2963 RMK AO2 SLP041 P0000 T00610056=
202402052156 METAR KPWT 052156Z AUTO 03008KT 10SM -RA CLR 07/06 A2962 RMK AO2 SLP036 P0001 T00670056=
202402052056 METAR KPWT 052056Z AUTO 05008KT 10SM -RA CLR 07/05 A2961 RMK AO2 RAB00 SLP032 P0000 60001 T00670050 51007=
202402051956 METAR KPWT 051956Z AUTO 02007KT 10SM SCT044 08/04 A2960 RMK AO2 RAE38 SLP030 P0000 T00780044=
202402051856 METAR KPWT 051856Z AUTO 36008KT 10SM -RA SCT040 06/04 A2960 RMK AO2 SLP030 P0001 T00610044=
202402051756 METAR KPWT 051756Z AUTO 04008KT 10SM -RA FEW038 06/03 A2959 RMK AO2 SLP026 P0000 60000 T00560033 10067 20056 53011=
202402051656 METAR KPWT 051656Z AUTO 04007KT 10SM -RA FEW055 06/03 A2958 RMK AO2 RAE07B31 SLP022 P0000 T00610028=
202402051556 METAR KPWT 051556Z AUTO 05008KT 10SM -RA CLR 06/02 A2956 RMK AO2 RAE21B56 SLP017 P0000 T00560022=
202402051456 METAR KPWT 051456Z AUTO 04009KT 10SM -RA CLR 06/02 A2956 RMK AO2 SLP014 P0000 60000 T00610017 53005=
202402051356 METAR KPWT 051356Z AUTO 02009KT 10SM -RA SCT075 07/01 A2955 RMK AO2 RAB11 SLP011 P0000 T00670006=
202402051256 METAR KPWT 051256Z AUTO 03010KT 10SM FEW080 06/01 A2955 RMK AO2 SLP011 T00610011=
202402051156 METAR KPWT 051156Z AUTO 04010KT 10SM BKN085 06/01 A2954 RMK AO2 SLP009 T00610011 10067 20056 56011=
202402051056 METAR KPWT 051056Z AUTO 04012KT 10SM OVC110 06/01 A2955 RMK AO2 SLP010 T00610011=
202402050956 METAR KPWT 050956Z AUTO 03010KT 10SM BKN120 06/01 A2955 RMK AO2 SLP012 T00610011=
202402050856 METAR KPWT 050856Z AUTO 03012G17KT 10SM SCT100 06/02 A2957 RMK AO2 SLP020 T00610017 56023=
202402050756 METAR KPWT 050756Z AUTO 03010KT 10SM FEW110 06/02 A2959 RMK AO2 SLP027 T00610017 400830000=
202402050656 METAR KPWT 050656Z AUTO 03010KT 10SM CLR 06/02 A2962 RMK AO2 SLP035 T00560017=
202402050556 METAR KPWT 050556Z AUTO 02010KT 10SM CLR 05/01 A2964 RMK AO2 SLP044 T00500011 10072 20044 56017=
202402050456 METAR KPWT 050456Z AUTO 04011KT 10SM CLR 05/01 A2966 RMK AO2 SLP051 T00500011=
202402050356 METAR KPWT 050356Z AUTO 04012KT 10SM CLR 05/02 A2967 RMK AO2 SLP054 T00500017=
202402050256 METAR KPWT 050256Z AUTO 03012KT 10SM CLR 06/02 A2969 RMK AO2 SLP062 T00560022 57022=
202402050156 METAR KPWT 050156Z AUTO 04011G18KT 10SM CLR 05/02 A2972 RMK AO2 SLP070 T00500022=
202402050056 METAR KPWT 050056Z AUTO 05013KT 10SM CLR 06/03 A2974 RMK AO2 SLP077 T00610028=
202402042356 METAR KPWT 042356Z AUTO 03014G18KT 10SM CLR 08/03 A2976 RMK AO2 SLP084 T00780033 10083 20056 56033=
202402042256 METAR KPWT 042256Z AUTO 03010KT 10SM CLR 08/04 A2979 RMK AO2 SLP093 T00830039=
202402042156 METAR KPWT 042156Z AUTO 04013G19KT 10SM CLR 08/04 A2982 RMK AO2 SLP102 T00830039=
202402042056 METAR KPWT 042056Z AUTO 04014KT 10SM FEW017 08/04 A2986 RMK AO2 SLP119 T00780044 56028=
202402042051 SPECI KPWT 042051Z AUTO 03012KT 10SM SCT017 08/05 A2986 RMK AO2=
202402042005 SPECI KPWT 042005Z AUTO 04014KT 10SM BKN015 BKN020 07/04 A2990 RMK AO2=
202402041956 METAR KPWT 041956Z AUTO 03011KT 10SM BKN012 BKN018 07/05 A2991 RMK AO2 SLP136 T00720050=
202402041945 SPECI KPWT 041945Z AUTO 03010KT 10SM BKN012 BKN018 BKN027 08/06 A2992 RMK AO2=
202402041856 METAR KPWT 041856Z AUTO 05009KT 10SM SCT010 OVC027 07/05 A2994 RMK AO2 SLP145 T00670050=
202402041756 METAR KPWT 041756Z AUTO 03008KT 10SM OVC025 06/05 A2995 RMK AO2 SLP150 T00560050 10056 20028 57007=
202402041656 METAR KPWT 041656Z AUTO 04004KT 10SM OVC025 05/05 A2996 RMK AO2 SLP150 T00500050=
202402041556 METAR KPWT 041556Z AUTO 04004KT 10SM OVC023 05/05 A2997 RMK AO2 SLP155 T00500050=
202402041456 METAR KPWT 041456Z AUTO 04008KT 10SM BKN023 OVC029 04/04 A2997 RMK AO2 SLP156 T00440044 56013=
202402041411 SPECI KPWT 041411Z AUTO 05004KT 10SM FEW009 SCT015 BKN029 04/04 A2998 RMK AO2=
202402041356 METAR KPWT 041356Z AUTO 04005KT 10SM SCT015 04/04 A2999 RMK AO2 SLP163 T00390039=
202402041327 SPECI KPWT 041327Z AUTO 00000KT 10SM BKN017 03/03 A3000 RMK AO2=
202402041256 METAR KPWT 041256Z AUTO 04004KT 10SM CLR 03/03 A3001 RMK AO2 SLP169 T00330033=
202402041156 METAR KPWT 041156Z AUTO 00000KT 10SM CLR 03/03 A3002 RMK AO2 SLP173 7//// T00280028 10050 20000 58012=
202402041124 SPECI KPWT 041124Z AUTO 03003KT 10SM FEW014 04/04 A3003 RMK AO2=
202402041109 SPECI KPWT 041109Z AUTO 03005KT 10SM BKN014 04/04 A3004 RMK AO2=
202402041105 SPECI KPWT 041105Z AUTO 02005KT 10SM SCT016 04/04 A3004 RMK AO2=
202402041056 METAR KPWT 041056Z AUTO 03004KT 10SM BKN016 04/04 A3004 RMK AO2 SLP179 T00390039=
202402040956 METAR KPWT 040956Z AUTO 03007KT 10SM OVC012 04/04 A3005 RMK AO2 SLP182 T00440044=
202402040856 METAR KPWT 040856Z AUTO 04003KT 10SM BKN012 01/01 A3006 RMK AO2 SLP185 T00110011 50000 FZRANO=
202402040846 SPECI KPWT 040846Z AUTO 00000KT 9SM BKN012 01/01 A3006 RMK AO2 FZRANO=
202402040838 SPECI KPWT 040838Z AUTO 00000KT 9SM SCT010 01/01 A3006 RMK AO2 FZRANO=
202402040833 SPECI KPWT 040833Z AUTO 00000KT 2SM BR BKN010 01/01 A3006 RMK AO2 FZRANO=
202402040827 SPECI KPWT 040827Z AUTO 00000KT 1SM BR BKN010 00/00 A3006 RMK AO2 FZRANO=
202402040814 SPECI KPWT 040814Z AUTO 00000KT 3/4SM BR VV010 01/01 A3006 RMK AO2 FZRANO=
202402040809 SPECI KPWT 040809Z AUTO 00000KT 1 3/4SM BR SCT011 01/01 A3006 RMK AO2 FZRANO=
202402040756 METAR KPWT 040756Z AUTO 00000KT 6SM BR FEW011 01/01 A3006 RMK AO2 SLP187 T00110011 401001011 FZRANO=
202402040750 SPECI KPWT 040750Z AUTO 00000KT 3SM BR CLR 01/01 A3006 RMK AO2 401001011 FZRANO=
202402040744 SPECI KPWT 040744Z AUTO 00000KT 1 1/4SM BR CLR 01/01 A3006 RMK AO2 FZRANO=
202402040740 SPECI KPWT 040740Z AUTO 00000KT 3/4SM BR CLR 01/01 A3006 RMK AO2 FZRANO=
202402040725 SPECI KPWT 040725Z AUTO 00000KT 1/2SM FG CLR 01/01 A3006 RMK AO2 FZRANO=
202402040717 SPECI KPWT 040717Z AUTO 00000KT 1SM BR CLR 01/01 A3006 RMK AO2 FZRANO=
202402040711 SPECI KPWT 040711Z AUTO 00000KT 1/2SM FG CLR 01/01 A3006 RMK AO2 FZRANO=
202402040703 SPECI KPWT 040703Z AUTO 00000KT 3/4SM BR CLR 01/01 A3006 RMK AO2 FZRANO=
202402040656 METAR KPWT 040656Z AUTO 00000KT 1/2SM FG CLR 01/01 A3006 RMK AO2 SLP187 T00110011 FZRANO=
202402040651 SPECI KPWT 040651Z AUTO 00000KT 3/4SM BR VV006 01/01 A3006 RMK AO2 FZRANO=
202402040630 SPECI KPWT 040630Z AUTO 00000KT 1/2SM FG VV006 02/02 A3006 RMK AO2 FZRANO=
202402040614 SPECI KPWT 040614Z AUTO 00000KT 1/2SM FG CLR 02/02 A3006 RMK AO2 FZRANO=
202402040610 SPECI KPWT 040610Z AUTO 00000KT 1SM BR CLR 02/02 A3006 RMK AO2 FZRANO=
202402040556 METAR KPWT 040556Z AUTO 00000KT 10SM CLR 03/03 A3006 RMK AO2 SLP185 6//// T00330033 10094 20033 51001=
202402040456 METAR KPWT 040456Z AUTO 07005KT 10SM CLR 05/05 A3005 RMK AO2 SLP183 T00500050=
202402040356 METAR KPWT 040356Z AUTO 05004KT 10SM FEW060 06/06 A3006 RMK AO2 SLP186 T00560056=
202402040256 METAR KPWT 040256Z AUTO 05004KT 10SM OVC060 05/05 A3005 RMK AO2 SLP185 6//// T00500050 53001=
202402040156 METAR KPWT 040156Z AUTO 00000KT 10SM FEW055 05/04 A3005 RMK AO2 SLP184 T00500044=
202402040056 METAR KPWT 040056Z AUTO 00000KT 10SM FEW028 09/04 A3005 RMK AO2 SLP183 T00890044=
202402040033 SPECI KPWT 040033Z AUTO 00000KT 10SM SCT028 09/03 A3005 RMK AO2=
202402040009 SPECI KPWT 040009Z AUTO 20003KT 10SM BKN028 09/03 A3005 RMK AO2=
202402032356 METAR KPWT 032356Z AUTO 00000KT 10SM FEW028 09/03 A3005 RMK AO2 SLP182 T00940033 10100 20061 53002=
202402032256 METAR KPWT 032256Z AUTO 00000KT 10SM CLR 09/04 A3004 RMK AO2 SLP180 T00890039=
202402032156 METAR KPWT 032156Z AUTO 00000KT 10SM CLR 09/04 A3004 RMK AO2 SLP179 T00890039=
202402032056 METAR KPWT 032056Z AUTO 26003KT 10SM CLR 08/04 A3004 RMK AO2 SLP181 T00830044 50003=
202402031956 METAR KPWT 031956Z AUTO 23004KT 10SM CLR 09/04 A3005 RMK AO2 SLP181 T00890044=
202402031856 METAR KPWT 031856Z AUTO 00000KT 10SM CLR 08/06 A3005 RMK AO2 SLP182 T00780061=
202402031756 METAR KPWT 031756Z AUTO 00000KT 10SM CLR 06/06 A3003 RMK AO2 SLP178 T00610061 10061 21011 52017=
202402031656 METAR KPWT 031656Z AUTO 00000KT 10SM CLR 01/01 A3002 RMK AO2 SLP172 T00110011 FZRANO=
202402031556 METAR KPWT 031556Z AUTO 00000KT 9SM CLR M01/M01 A3000 RMK AO2 SLP167 T10061006 FZRANO=
202402031543 SPECI KPWT 031543Z AUTO 00000KT 3SM BR CLR 00/00 A3000 RMK AO2 FZRANO=
202402031531 SPECI KPWT 031531Z AUTO 00000KT 1 3/4SM BR CLR M01/M01 A2999 RMK AO2 FZRANO=
202402031516 SPECI KPWT 031516Z AUTO 00000KT 10SM CLR M01/M01 A2999 RMK AO2 FZRANO=
202402031509 SPECI KPWT 031509Z AUTO 00000KT 2 1/2SM BR CLR M01/M01 A2999 RMK AO2 FZRANO=
202402031506 SPECI KPWT 031506Z AUTO 00000KT 1SM BR CLR M01/M01 A2999 RMK AO2 FZRANO=
202402031456 METAR KPWT 031456Z AUTO 00000KT 1/2SM FZFG CLR M01/M01 A2998 RMK AO2 SLP161 T10111011 52014 FZRANO=
202402031453 SPECI KPWT 031453Z AUTO 00000KT 1/2SM FZFG CLR M01/M01 A2998 RMK AO2 FZRANO=
202402031448 SPECI KPWT 031448Z AUTO 00000KT 1SM BR CLR M01/M01 A2998 RMK AO2 FZRANO=
202402031438 SPECI KPWT 031438Z AUTO 00000KT 9SM CLR M01/M01 A2998 RMK AO2 FZRANO=
202402031430 SPECI KPWT 031430Z AUTO 00000KT 2SM BR CLR M01/M01 A2998 RMK AO2 VIS 1V5 FZRANO=
202402031423 SPECI KPWT 031423Z AUTO 00000KT 1SM BR CLR M01/M01 A2998 RMK AO2 FZRANO=
202402031414 SPECI KPWT 031414Z AUTO 00000KT 1 3/4SM BR CLR M01/M01 A2997 RMK AO2 VIS 1/2V5 FZRANO=
202402031404 SPECI KPWT 031404Z AUTO 00000KT 4SM BR CLR M01/M01 A2997 RMK AO2 FZRANO=
202402031356 METAR KPWT 031356Z AUTO 00000KT 2SM BR CLR M01/M01 A2997 RMK AO2 SLP156 T10111011 FZRANO=
202402031341 SPECI KPWT 031341Z AUTO 00000KT 1 3/4SM BR CLR M01/M01 A2997 RMK AO2 VIS 3/4V5 FZRANO=
202402031334 SPECI KPWT 031334Z AUTO 00000KT 3SM BR CLR M01/M01 A2996 RMK AO2 FZRANO=
202402031325 SPECI KPWT 031325Z AUTO 00000KT 1 3/4SM BR CLR M01/M01 A2996 RMK AO2 FZRANO=
202402031256 METAR KPWT 031256Z AUTO 00000KT 10SM CLR M01/M01 A2996 RMK AO2 SLP151 T10061006 FZRANO=
202402031210 SPECI KPWT 031210Z AUTO 00000KT 8SM CLR 00/00 A2995 RMK AO2 FZRANO=
202402031203 SPECI KPWT 031203Z AUTO 00000KT 2SM BR CLR 00/00 A2995 RMK AO2 VIS 3/4V5 FZRANO=
202402031156 METAR KPWT 031156Z AUTO 00000KT 3SM BR FEW055 00/00 A2994 RMK AO2 SLP147 T00000000 10028 20000 51015 FZRANO=
202402031056 METAR KPWT 031056Z AUTO 00000KT 10SM FEW050 01/01 A2993 RMK AO2 SLP143 T00060006 FZRANO=
202402030956 METAR KPWT 030956Z AUTO 20003KT 9SM BKN050 01/01 A2992 RMK AO2 SLP137 T00060006 FZRANO=
202402030856 METAR KPWT 030856Z AUTO 00000KT 10SM SCT043 01/01 A2990 RMK AO2 SLP131 T00060006 53009 FZRANO=
202402030756 METAR KPWT 030756Z AUTO 04003KT 10SM CLR 01/01 A2989 RMK AO2 SLP127 T00060006 401170006 FZRANO=
202402030750 SPECI KPWT 030750Z AUTO 00000KT 3SM BR CLR 01/01 A2988 RMK AO2 401170006 FZRANO=
202402030746 SPECI KPWT 030746Z AUTO 00000KT 1 1/4SM BR CLR 01/01 A2988 RMK AO2 FZRANO=
202402030739 SPECI KPWT 030739Z AUTO 00000KT 3/4SM BR CLR 01/01 A2988 RMK AO2 FZRANO=
202402030734 SPECI KPWT 030734Z AUTO 00000KT 1 3/4SM BR CLR 01/01 A2988 RMK AO2 FZRANO=
202402030656 METAR KPWT 030656Z AUTO 00000KT 9SM CLR 01/01 A2987 RMK AO2 SLP122 T00110011 FZRANO=
202402030651 SPECI KPWT 030651Z AUTO 00000KT 2SM BR CLR 02/02 A2987 RMK AO2 FZRANO=
202402030637 SPECI KPWT 030637Z AUTO 00000KT 3SM BR CLR 02/02 A2987 RMK AO2 FZRANO=
202402030626 SPECI KPWT 030626Z AUTO 00000KT 1 1/2SM BR CLR 02/02 A2986 RMK AO2 VIS 1/2V5 FZRANO=
202402030607 SPECI KPWT 030607Z AUTO 14003KT 3SM BR CLR 02/02 A2986 RMK AO2 FZRANO=
202402030604 SPECI KPWT 030604Z AUTO 00000KT 1 1/4SM BR CLR 03/03 A2986 RMK AO2=
202402030556 METAR KPWT 030556Z AUTO 00000KT 2 1/2SM BR CLR 03/03 A2985 RMK AO2 SLP116 T00280028 10111 20028 51019=
202402030456 METAR KPWT 030456Z AUTO 00000KT 10SM CLR 03/03 A2984 RMK AO2 SLP111 T00330033=
202402030356 METAR KPWT 030356Z AUTO 26004KT 10SM OVC041 04/04 A2982 RMK AO2 SLP106 T00440044=
202402030256 METAR KPWT 030256Z AUTO 00000KT 10SM CLR 04/04 A2980 RMK AO2 SLP097 T00390039 53019=
202402030156 METAR KPWT 030156Z AUTO 24004KT 10SM CLR 07/05 A2978 RMK AO2 SLP090 T00670050=
202402030056 METAR KPWT 030056Z AUTO 00000KT 10SM CLR 08/07 A2976 RMK AO2 SLP082 T00780067=
202402022356 METAR KPWT 022356Z AUTO 24004KT 10SM CLR 11/06 A2974 RMK AO2 SLP076 T01060056 10117 20083 53007=
202402022256 METAR KPWT 022256Z AUTO 24007KT 10SM CLR 11/06 A2973 RMK AO2 SLP073 T01110061=
202402022156 METAR KPWT 022156Z AUTO 23007KT 10SM FEW026 SCT030 BKN043 10/07 A2972 RMK AO2 SLP069 T01000067=
202402022056 METAR KPWT 022056Z AUTO 22010KT 10SM FEW021 11/07 A2972 RMK AO2 SLP069 T01060067 51007=
202402021956 METAR KPWT 021956Z AUTO 22010KT 10SM FEW012 10/08 A2972 RMK AO2 SLP069 T01000083=
202402021856 METAR KPWT 021856Z AUTO 21010KT 10SM FEW021 09/08 A2972 RMK AO2 SLP067 T00940083=
202402021756 METAR KPWT 021756Z AUTO 21007KT 10SM BKN034 08/08 A2970 RMK AO2 SLP063 60000 T00830083 10083 20056 53021=
202402021656 METAR KPWT 021656Z AUTO 21005KT 10SM FEW039 SCT065 07/07 A2968 RMK AO2 SLP055 T00720072=
202402021556 METAR KPWT 021556Z AUTO 21004KT 10SM BKN047 BKN055 07/07 A2965 RMK AO2 RAE16 SLP047 P0000 T00670067=
202402021456 METAR KPWT 021456Z AUTO 20003KT 10SM -RA SCT040 BKN120 07/07 A2964 RMK AO2 RAB54 SLP041 P0000 60000 T00670067 53017=
202402021356 METAR KPWT 021356Z AUTO 20003KT 10SM SCT044 07/07 A2962 RMK AO2 RAB1258E20 SLP034 P0000 T00670067=
202402021256 METAR KPWT 021256Z AUTO 23003KT 10SM OVC042 07/07 A2960 RMK AO2 RAB30E54 SLP029 P0000 T00670067=
202402021156 METAR KPWT 021156Z AUTO 00000KT 10SM OVC042 06/06 A2959 RMK AO2 RAE09 SLP023 P0000 60001 70005 T00560056 10072 20056 53009=
202402021056 METAR KPWT 021056Z AUTO 00000KT 9SM -RA FEW048 07/07 A2958 RMK AO2 SLP021 P0001 T00670067=
202402020956 METAR KPWT 020956Z AUTO 00000KT 10SM -RA FEW039 06/06 A2957 RMK AO2 RAB07 SLP018 P0000 T00610061=
202402020856 METAR KPWT 020856Z AUTO 00000KT 10SM BKN050 06/06 A2956 RMK AO2 RAB33E56 SLP014 P0000 60000 T00610061 51005=
202402020756 METAR KPWT 020756Z AUTO 00000KT 10SM CLR 07/07 A2956 RMK AO2 RAB07E21 SLP013 P0000 T00670067 401390067=
202402020656 METAR KPWT 020656Z AUTO 00000KT 10SM FEW060 07/07 A2956 RMK AO2 SLP013 T00670067=
202402020556 METAR KPWT 020556Z AUTO 00000KT 10SM OVC110 07/07 A2955 RMK AO2 SLP009 P0001 60004 T00670067 10128 20067 51009=
202402020456 METAR KPWT 020456Z AUTO 21005KT 10SM SCT100 07/07 A2954 RMK AO2 SLP007 T00720067=
202402020356 METAR KPWT 020356Z AUTO 22004KT 10SM FEW047 SCT060 07/07 A2952 RMK AO2 SLP003 T00720072=
202402020256 METAR KPWT 020256Z AUTO 22003KT 10SM BKN060 08/08 A2952 RMK AO2 RAE39 SLP000 P0000 60003 T00780078 53016=
202402020156 METAR KPWT 020156Z AUTO 26008KT 10SM -RA FEW029 SCT034 BKN048 09/09 A2951 RMK AO2 RAB07 SLP997 P0003 T00890089=
202402020056 METAR KPWT 020056Z AUTO 10SM BKN060 12/09 A2948 RMK AO2 SLP986 T01170089=
202402012356 METAR KPWT 012356Z AUTO 13003KT 10SM SCT060 13/09 A2947 RMK AO2 SLP983 T01280094 10139 20100 55003=
202402012256 METAR KPWT 012256Z AUTO 19006KT 10SM CLR 13/08 A2947 RMK AO2 SLP982 T01330083=
202402012156 METAR KPWT 012156Z AUTO 20008KT 10SM CLR 13/09 A2947 RMK AO2 SLP983 T01330089=
202402012056 METAR KPWT 012056Z AUTO 19004KT 10SM CLR 11/11 A2948 RMK AO2 SLP987 T01110106 58003=
202402011956 METAR KPWT 011956Z AUTO 24004KT 10SM CLR 11/11 A2948 RMK AO2 SLP988 T01110111=
202402011856 METAR KPWT 011856Z AUTO 22003KT 10SM FEW005 11/11 A2949 RMK AO2 SLP992 T01060106=
202402011852 SPECI KPWT 011852Z AUTO 21003KT 10SM FEW005 11/11 A2949 RMK AO2=
202402011756 METAR KPWT 011756Z AUTO 00000KT 10SM CLR 10/10 A2948 RMK AO2 RAE41 SLP988 P0000 60000 T01000100 10100 20078 53006=
202402011656 METAR KPWT 011656Z AUTO 00000KT 10SM -RA CLR 09/09 A2947 RMK AO2 RAB1557E28B49 SLP984 P0000 T00890089=
202402011556 METAR KPWT 011556Z AUTO 00000KT 6SM BR FEW060 08/08 A2946 RMK AO2 RAE22 SLP981 P0000 T00780078=
202402011456 METAR KPWT 011456Z AUTO 00000KT 5SM -RA BR CLR 08/08 A2946 RMK AO2 RAB05E16B49 SLP981 P0000 60000 T00780078 57000=
202402011454 SPECI KPWT 011454Z AUTO 00000KT 5SM -RA BR CLR 08/08 A2946 RMK AO2 RAB05E16B49 P0000=
202402011429 SPECI KPWT 011429Z AUTO 00000KT 2SM BR CLR 08/08 A2946 RMK AO2 RAB05E16 P0000=
202402011424 SPECI KPWT 011424Z AUTO 00000KT 1SM BR CLR 08/08 A2946 RMK AO2 RAB05E16 P0000=
202402011416 SPECI KPWT 011416Z AUTO 00000KT 1 1/2SM BR CLR 08/08 A2946 RMK AO2 VIS 3/4V5 RAB05E16 P0000=
202402011356 METAR KPWT 011356Z AUTO 00000KT 4SM BR CLR 08/08 A2946 RMK AO2 RAB02E56 SLP980 P0000 T00830083=
202402011354 SPECI KPWT 011354Z AUTO 00000KT 3SM -RA BR CLR 08/08 A2946 RMK AO2 RAB02 P0000=
202402011345 SPECI KPWT 011345Z AUTO 00000KT 1 3/4SM -RA BR CLR 08/08 A2946 RMK AO2 RAB02 P0000=
202402011256 METAR KPWT 011256Z AUTO 00000KT 9SM FEW070 08/08 A2946 RMK AO2 RAE10 SLP981 P0000 T00830083=
202402011156 METAR KPWT 011156Z AUTO 00000KT 10SM -RA CLR 09/09 A2946 RMK AO2 SLP982 P0001 60008 70023 T00890089 10094 20083 50000=
202402011056 METAR KPWT 011056Z AUTO 00000KT 10SM -RA FEW043 09/09 A2947 RMK AO2 SLP983 P0001 T00890089=
202402010956 METAR KPWT 010956Z AUTO 00000KT 7SM -RA BKN037 BKN050 09/09 A2947 RMK AO2 SLP984 P0003 T00940094=
202402010856 METAR KPWT 010856Z AUTO 19004KT 10SM -RA FEW035 BKN045 BKN055 09/09 A2946 RMK AO2 SLP981 P0001 60003 T00940094 51005=
202402010756 METAR KPWT 010756Z AUTO 00000KT 10SM -RA FEW041 SCT048 SCT060 09/09 A2946 RMK AO2 SLP981 P0001 T00940094 401170083=
202402010656 METAR KPWT 010656Z AUTO 22003KT 10SM -RA FEW046 09/09 A2945 RMK AO2 RAB31 SLP978 P0001 T00890089=
202402010556 METAR KPWT 010556Z AUTO 00000KT 10SM SCT100 09/09 A2945 RMK AO2 SLP977 60000 T00940094 10111 20089 55002=
202402010456 METAR KPWT 010456Z AUTO 00000KT 10SM OVC110 09/09 A2944 RMK AO2 RAB04E16 SLP975 P0000 T00940094=
202402010356 METAR KPWT 010356Z AUTO 00000KT 10SM BKN110 11/11 A2943 RMK AO2 RAE40 SLP971 P0000 T01060106=
202402010256 METAR KPWT 010256Z AUTO 26003KT 10SM -RA BKN060 11/11 A2945 RMK AO2 RAB03 SLP977 P0000 60000 T01060106 55004=
202402010156 METAR KPWT 010156Z AUTO 00000KT 7SM BKN060 10/10 A2944 RMK AO2 RAE01 SLP976 P0000 T01000100=
202402010144 SPECI KPWT 010144Z AUTO 00000KT 5SM BR BKN060 BKN110 10/10 A2945 RMK AO2 RAE01 P0000=
202402010141 SPECI KPWT 010141Z AUTO 00000KT 1 1/4SM BR BKN060 BKN110 10/10 A2945 RMK AO2 RAE01 P0000=
202402010130 SPECI KPWT 010130Z AUTO 00000KT 3/4SM BR FEW060 SCT110 10/10 A2945 RMK AO2 RAE01 P0000=
202402010128 SPECI KPWT 010128Z AUTO 00000KT 1 1/4SM BR FEW110 10/10 A2945 RMK AO2 RAE01 P0000=
202402010056 METAR KPWT 010056Z AUTO 00000KT 10SM -RA FEW060 11/11 A2945 RMK AO2 RAE04B39 SLP977 P0000 T01060106=

# No short TAF reports from KPWT in databse.

###################################
#  large TAF from KPWT
###################################
202402292320 TAF KPWT 292320Z 0100/0124 20008KT P6SM VCSH OVC008 FM010200 19009KT
                       6SM -RA BR OVC025 FM010800 20012G18KT 6SM
                       -SHRASN BR OVC018 FM011800 20004KT 6SM -RA
                       OVC040=
202402291720 TAF KPWT 291720Z 2918/0118 20011KT P6SM SCT008 FM292100 19006KT
                       P6SM VCSH SCT020 BKN035 FM010300 19009KT
                       6SM -SHRA BR OVC025 FM010800 20012G18KT
                       6SM -SHRASN BR OVC018 FM011300 20004KT 6SM
                       BR OVC015=
202402291139 TAF KPWT 291139Z 2912/0112 20010KT P6SM VCSH OVC015
                      TEMPO 2912/2916 6SM -SHRA BR OVC009 FM291700
                       20008KT P6SM VCSH SCT014 BKN025 FM292100
                       19006KT P6SM VCSH SCT020 BKN035 FM010300
                       19009KT 6SM -SHRA BR OVC025 FM010800 20012G18KT
                       6SM -SHRASN BR OVC018=
202402290545 TAF KPWT 290545Z 2906/0106 22010KT 6SM -RA SCT006 OVC030 FM290900
                       19010KT 6SM BR VCSH OVC025 FM291200 20011KT
                       4SM BR VCSH OVC015
                      TEMPO 2913/2914 5SM -RA BR OVC010 FM291500
                       21003KT 6SM BR VCSH OVC030 FM010000 20006KT
                       6SM -SHRA BR OVC040=
202402282320 TAF KPWT 282320Z 2900/2924 19010G20KT 6SM -RA OVC006 FM290300 20018G25KT
                       6SM -RA OVC015 FM291200 20011KT 4SM -RA
                       OVC007 FM291500 21003KT 6SM -RA OVC030=
202402281720 TAF KPWT 281720Z 2818/2918 20018G30KT 4SM RA BR OVC004 FM282200
                       21017G26KT 4SM -RA OVC010 FM291200 20011KT
                       4SM -RA OVC007 FM291500 21003KT 6SM -RA
                       OVC030=
202402281122 TAF KPWT 281122Z 2812/2912 19014G23KT P6SM -RA OVC007 FM282200
                       21017G26KT 4SM -RA OVC010 FM290500 20011KT
                       4SM -RA OVC007=
202402280520 TAF KPWT 280520Z 2806/2906 20015G25KT 6SM -RA OVC004 FM281000 19014G23KT
                       P6SM -RA OVC007 FM282200 21017G26KT 4SM
                       -RA OVC015 FM290500 20011KT 4SM -RA OVC007=
202402280318 KPWT 280318Z 2803/2824 19007KT P6SM -RA OVC007 FM280445 20015G27KT
                       6SM -RA OVC007 FM281600 20018G36KT 6SM -RA
                       OVC015=
202402272347 TAF KPWT 272347Z 2800/2824 18007KT P6SM -SHRA OVC012 FM280300 20015G29KT
                       6SM -RA OVC015 FM281600 20018G36KT 6SM -RA
                       OVC015=
202402271739 TAF KPWT 271739Z 2718/2818 VRB03KT P6SM SCT015 OVC100 FM272000
                       20007KT P6SM VCSH OVC030 FM280500 20012G22KT
                       6SM -RA BR OVC015=
202402271123 TAF KPWT 271123Z 2712/2812 VRB03KT P6SM SCT010 BKN200 FM271500
                       VRB03KT P6SM SCT015 OVC100 FM271900 20007KT
                       5SM -RA BR OVC025 FM280500 20012G21KT 4SM
                       -RA BR OVC010=
202402270537 TAF KPWT 270537Z 2706/2806 00000KT P6SM SKC
                      TEMPO 2708/2710 1/2SM FZFG FM271900 20005KT
                       P6SM -RA OVC025 FM280500 20012G21KT 4SM
                       -RA BR OVC015=
202402262320 TAF KPWT 262320Z 2700/2724 18005KT P6SM VCSH BKN050 FM270300 22006KT
                       P6SM BKN070 FM270500 VRB03KT P6SM OVC040
                       FM271900 20005KT P6SM OVC025=
202402261720 TAF KPWT 261720Z 2618/2718 21004KT P6SM FEW008 FM270000 23007KT
                       P6SM VCSH OVC070 FM270500 VRB03KT P6SM OVC040=
202402261341 KPWT 261341Z 2614/2712 VRB03KT P6SM VCSH OVC010 FM261800 24010KT
                       P6SM -SHRA OVC070 FM270000 23007KT P6SM
                       VCSH OVC070 FM270500 VRB03KT P6SM OVC040=
202402261123 TAF KPWT 261123Z 2612/2712 21010KT P6SM VCSH OVC100 FM261800 24010KT
                       P6SM -SHRA OVC070 FM270000 23007KT P6SM
                       VCSH OVC070 FM270500 VRB03KT P6SM OVC040=
202402260527 TAF KPWT 260527Z 2606/2706 21010KT P6SM VCSH OVC100 FM261200 22007KT
                       P6SM -SHRA OVC035 FM261800 18010KT P6SM
                       -SNRA OVC070 FM270000 23007KT P6SM -SHSN
                       OVC070=
202402252331 TAF KPWT 252331Z 2600/2624 22020G30KT P6SM BKN025 FM260200 21014G20KT
                       P6SM -SHRA OVC035 FM260900 22007KT P6SM
                       -SHRA OVC035 FM261600 22005KT P6SM -SNRA
                       BKN050=
202402251740 TAF KPWT 251740Z 2518/2618 20014G26KT P6SM -RA OVC006 FM252000
                       21016G30KT 6SM -RA BR OVC012 FM260000 22015G24KT
                       P6SM -RA OVC025 FM260200 21011KT P6SM -RA
                       OVC035 FM260900 22007KT P6SM -SHSN OVC035
                       FM261600 22005KT P6SM BKN050=
202402251614 KPWT 251614Z 2516/2612 21017G26KT P6SM OVC008 FM251900 21016G24KT
                       5SM -RA BR OVC012 FM260200 21011KT P6SM
                       -RA OVC025 FM260900 21007KT P6SM -RASN OVC025=
202402251121 TAF KPWT 251121Z 2512/2612 20014G23KT P6SM VCSH OVC008 FM251500
                       21017G26KT 5SM -RA BR OVC010 FM252300 21016G24KT
                       5SM -RA BR OVC015 FM260200 21011KT P6SM
                       -RA OVC025 FM260900 21007KT P6SM -RASN OVC025=
202402250528 TAF KPWT 250528Z 2506/2606 20010KT 5SM BR VCSH OVC008 FM251500
                       21012G25KT 5SM -RA BR OVC010 FM252300 21016G30KT
                       5SM -RA BR OVC015 FM260200 21012G22KT P6SM
                       -RA OVC025=
202402242344 TAF KPWT 242344Z 2500/2524 VRB03KT P6SM OVC018 FM250600 20007KT
                       5SM BR VCSH OVC015 FM251200 20010G18KT 5SM
                       -RA BR OVC015 FM251500 21012G25KT 6SM -RA
                       BR OVC010=
202402242017 KPWT 242017Z 2420/2518 22005KT 4SM BR OVC003 FM242200 21008KT 4SM
                       BR OVC007 FM250800 20007KT 5SM BR VCSH OVC010
                       FM251500 21012G22KT 6SM BR VCSH OVC012=
202402241838 KPWT 241838Z 2419/2518 22004KT 5SM BR OVC010
                      TEMPO 2419/2421 2SM BR OVC003 FM242100 21008KT
                       4SM BR OVC012 FM250800 20007KT 5SM BR VCSH
                       OVC007 FM251500 21012G22KT 6SM BR VCSH OVC012=
202402241740 TAF KPWT 241740Z 2418/2518 00000KT 6SM BR OVC010
                      TEMPO 2418/2420 4SM BR OVC004 FM242100 21008KT
                       4SM BR OVC012 FM250800 20007KT 5SM BR VCSH
                       OVC007 FM251500 21012G22KT 6SM BR VCSH OVC012=
202402241634 KPWT 241634Z 2417/2512 VRB03KT P6SM BKN004 BKN030 FM242100 22010KT
                       4SM BR VCSH OVC012 FM250300 20007KT 5SM
                       BR VCSH OVC007=
202402241606 KPWT 241606Z 2416/2512 00000KT 6SM BR BKN005 FM241800 20004KT 4SM
                       BR OVC008 FM242100 22010KT 4SM BR VCSH OVC012
                       FM250300 20007KT 5SM BR VCSH OVC007=
202402241121 TAF KPWT 241121Z 2412/2512 VRB03KT 1SM BR OVC003
                      TEMPO 2412/2416 1/2SM FG VV001 FM241700 20004KT
                       4SM BR OVC008 FM242100 22010KT 4SM BR VCSH
                       OVC012 FM250300 20007KT 5SM BR VCSH OVC007=
202402241010 KPWT 241010Z 2410/2506 00000KT 4SM BR SCT001
                      TEMPO 2410/2412 1/2SM FG VV001 FM241200 19006KT
                       6SM BR OVC008 FM241900 21008KT 5SM BR VCSH
                       OVC012=
202402240534 TAF KPWT 240534Z 2406/2506 00000KT 4SM BR SCT001
                      TEMPO 2406/2410 1/2SM FG VV001 FM241200 19006KT
                       6SM BR OVC008 FM241900 21008KT 5SM BR VCSH
                       OVC012=
202402232324 TAF KPWT 232324Z 2400/2424 VRB04KT P6SM FEW010 SCT200 FM240400
                       20004KT P6SM BKN200 FM240900 19005KT 6SM
                       BR OVC027 FM241100 21005KT 6SM BR OVC015
                       FM241900 21007KT 5SM BR VCSH OVC010=
202402232205 KPWT 232205Z 2322/2418 05004KT P6SM BKN007
                      TEMPO 2322/2323 SCT011 FM232300 VRB04KT P6SM
                       FEW011 SCT200 FM240100 16007KT P6SM BKN200
                       FM240800 19005KT 6SM BR OVC022 FM241100
                       21005KT 6SM BR OVC014=
202402232103 KPWT 232103Z 2321/2418 05004KT 3SM BR BKN005
                      TEMPO 2321/2322 6SM BR SCT005 FM232200 VRB04KT
                       P6SM FEW005 SCT200 FM240100 16007KT P6SM
                       BKN200 FM240800 19005KT 6SM BR OVC022 FM241100
                       21005KT 6SM BR OVC014=
202402231853 KPWT 231853Z 2319/2418 VRB03KT 3SM BR BKN005
                      TEMPO 2319/2321 6SM BR SCT005 FM232100 VRB04KT
                       P6SM FEW005 SCT200 FM240100 16007KT P6SM
                       BKN200 FM240800 19005KT 6SM BR OVC022 FM241100
                       21005KT 6SM BR OVC014=
202402231740 TAF KPWT 231740Z 2318/2418 VRB03KT 3SM BR BKN005
                      TEMPO 2318/2319 1/2SM FG VV003 FM231900 VRB04KT
                       P6SM FEW005 SCT200 FM240100 16007KT P6SM
                       BKN200 FM240800 19005KT 6SM BR OVC022 FM241100
                       21005KT 6SM BR OVC014=
202402231607 KPWT 231607Z 2316/2412 04003KT 4SM BR BKN003
                      TEMPO 2316/2318 1/2SM FG FM231800 VRB03KT
                       3SM BR FEW005 SCT200 FM231900 19003KT P6SM
                       SCT200 FM240300 VRB02KT P6SM BKN250 FM240800
                       00000KT 6SM BR OVC050=
202402231425 KPWT 231425Z 2314/2412 00000KT 4SM BR OVC003
                      TEMPO 2314/2316 3/4SM BR FM231700 00000KT
                       3SM BR FEW250 FM231900 19003KT P6SM SCT200
                       FM240300 VRB02KT P6SM BKN250 FM240800 00000KT
                       6SM BR OVC050=
202402231125 TAF KPWT 231125Z 2312/2412 00000KT 3SM BR SKC
                      TEMPO 2313/2315 1/4SM FG FM231700 00000KT
                       3SM BR FEW250 FM231900 19003KT P6SM SCT200
                       FM240300 VRB02KT P6SM BKN250 FM240800 00000KT
                       6SM BR OVC050=
202402230529 TAF KPWT 230529Z 2306/2406 00000KT P6SM SKC FM230800 00000KT 4SM
                       BR SCT002 FM231000 00000KT 1/2SM FG OVC001
                       FM231700 00000KT 2SM BR OVC002 FM231900
                       VRB03KT P6SM SCT200=
202402222332 TAF KPWT 222332Z 2300/2324 02006KT P6SM BKN040 FM230200 VRB03KT
                       P6SM SCT045 SCT200 FM230900 02003KT 6SM
                       BR SCT005
                      TEMPO 2313/2317 5SM BR BKN004 FM231900 17004KT
                       P6SM FEW010 BKN200=
202402221737 TAF KPWT 221737Z 2218/2318 20005KT P6SM SCT005 BKN060 FM222100
                       VRB04KT P6SM SCT025 SCT060 FM230000 02006KT
                       P6SM SCT045 SCT200 FM230900 02003KT 6SM
                       BR SCT005
                      TEMPO 2312/2316 5SM BR BKN004=
202402221643 KPWT 221643Z 2217/2312 VRB03KT P6SM SCT005 BKN060
                      TEMPO 2217/2219 BKN003 FM222100 22006KT P6SM
                       SCT025 BKN050 FM230000 02006KT P6SM SCT045
                       BKN200 FM230900 02003KT 6SM BR SCT001=
202402221358 KPWT 221358Z 2214/2312 19005KT P6SM BKN060 FM222100 22006KT P6SM
                       SCT025 BKN050 FM230000 02006KT P6SM SCT045
                       BKN200 FM230900 02003KT 6SM BR SCT001=
202402221129 TAF KPWT 221129Z 2212/2312 20008KT P6SM OVC025 FM221800 20005KT
                       P6SM OVC030 FM222100 22006KT P6SM SCT025
                       BKN050 FM230000 02006KT P6SM SCT045 BKN200
                       FM230900 02003KT 6SM BR SCT001=
202402220530 TAF KPWT 220530Z 2206/2306 19008KT P6SM SCT012 OVC022 FM221000
                       19008KT P6SM SCT006 OVC012 FM221800 22006KT
                       P6SM SCT012 BKN022 OVC040 FM222100 22006KT
                       P6SM SCT025 BKN040 FM230100 02006KT P6SM
                       SCT045 BKN200=
202402212338 TAF KPWT 212338Z 2200/2224 19008KT P6SM BKN006 OVC012
                      TEMPO 2200/2204 3SM -SHRA FM221000 19008KT
                       P6SM BKN004 OVC008 FM221800 22006KT P6SM
                       SCT006 BKN012 OVC020 FM222200 22006KT P6SM
                       SCT025 BKN040=
202402212128 KPWT 212128Z 2121/2218 20005KT 5SM -SHRA OVC020
                      TEMPO 2121/2123 2SM -RA BR FM220300 20010KT
                       6SM -SHRA OVC020 FM220600 20006KT P6SM VCSH
                       OVC015 FM221200 20004KT P6SM OVC020=
202402211816 KPWT 211816Z 2118/2218 20005KT 5SM -SHRA OVC020
                      TEMPO 2118/2119 2SM -RA BR FM220300 20010KT
                       6SM -SHRA OVC020 FM220600 20006KT P6SM VCSH
                       OVC015 FM221200 20004KT P6SM OVC020=
202402211735 TAF KPWT 211735Z 2118/2218 20005KT 5SM -SHRA OVC020 FM220300 20010KT
                       6SM -SHRA OVC020 FM220600 20006KT P6SM VCSH
                       OVC015 FM221200 20004KT P6SM OVC020=
202402211129 TAF KPWT 211129Z 2112/2212 00000KT P6SM -SHRA SCT002 BKN035 FM211300
                       VRB02KT 6SM -RA BR OVC025 FM211800 20008KT
                       P6SM -SHRA OVC015 FM220000 19010KT P6SM
                       -SHRA OVC015 FM220600 20006KT P6SM -SHRA
                       OVC015=
202402210811 KPWT 210811Z 2108/2206 04004KT P6SM -RA SCT060 BKN070 OVC080
                      TEMPO 2108/2109 1SM RA BR BKN003 FM211100
                       00000KT P6SM -SHRA OVC050 FM211900 20008KT
                       P6SM -SHRA SCT015 OVC020 FM220300 18010KT
                       P6SM -SHRA OVC030=
202402210533 TAF KPWT 210533Z 2106/2206 04004KT P6SM -RA SCT060 BKN070 OVC080
                       FM211100 00000KT P6SM -SHRA OVC050 FM211900
                       20008KT P6SM -SHRA SCT015 OVC020 FM220300
                       18010KT P6SM -SHRA OVC030=
202402202320 TAF KPWT 202320Z 2100/2124 24002KT P6SM -SHRA OVC040 FM210900 12002KT
                       6SM -SHRA BR OVC030 FM211700 14007KT P6SM
                       -SHRA OVC020 FM212000 18010KT P6SM -SHRA
                       OVC020=
202402201727 TAF KPWT 201727Z 2018/2118 00000KT 6SM -SHRA SCT003 OVC030 FM201900
                       24002KT P6SM -SHRA OVC050 FM210900 12002KT
                       6SM -SHRA BR OVC025 FM211200 14007KT P6SM
                       -SHRA OVC025 FM211700 18010KT P6SM -SHRA
                       OVC025=
202402201129 TAF KPWT 201129Z 2012/2112 00000KT P6SM -RA FEW035 BKN050 FM201500
                       00000KT 4SM -RA BR OVC025 FM201900 24002KT
                       P6SM -SHRA OVC050 FM210900 12002KT 6SM -SHRA
                       BR OVC025=
202402200617 KPWT 200617Z 2006/2106 00000KT 1SM -RA BR FEW001 BKN100
                      TEMPO 2006/2009 1/2SM FG BKN001 FM200900
                       00000KT 1/2SM -RA FG OVC025 FM201200 00000KT
                       1/2SM -RA FG OVC015 FM202100 20003KT 4SM
                       -RA BR OVC015 FM210000 20003KT 4SM -RA OVC050=
202402200529 TAF KPWT 200529Z 2006/2106 00000KT 1/4SM FG VV001 FM200900 00000KT
                       1/2SM -RA FG OVC025 FM201200 00000KT 1/2SM
                       -RA FG OVC015 FM202100 20003KT 4SM -RA BR
                       OVC015 FM210000 20003KT 4SM -RA OVC050=
202402200412 KPWT 200412Z 2004/2024 00000KT 1/2SM FG SCT001 FM200900 VRB03KT
                       P6SM OVC050 FM201400 00000KT P6SM -RA OVC025=
202402200300 KPWT 200300Z 2003/2024 00000KT 1 1/2SM BR SCT001 FM200600 VRB03KT
                       P6SM OVC050 FM201400 00000KT P6SM -RA OVC025=
202402192336 TAF KPWT 192336Z 2000/2024 05005KT 6SM -RA BR OVC050 FM200600 VRB03KT
                       P6SM OVC050 FM201400 00000KT P6SM -RA OVC025=
202402191740 TAF KPWT 191740Z 1918/2018 05008KT P6SM VCSH BKN070 FM192000 05005KT
                       6SM BR OVC050 FM200200 VRB03KT P6SM OVC050
                       FM201400 00000KT P6SM -RA OVC025=
202402191142 TAF KPWT 191142Z 1912/2012 03007KT P6SM SCT150 OVC250 FM191500
                       04004KT P6SM OVC050
                      TEMPO 1915/1919 P6SM -RA OVC035 FM192000
                       05005KT 6SM BR OVC050 FM200200 VRB03KT P6SM
                       OVC050=
202402190857 KPWT 190857Z 1909/2006 03009KT P6SM OVC250 FM191200 04003KT P6SM
                       OVC007 FM191500 04004KT P6SM OVC015
                      TEMPO 1915/1919 P6SM -RA OVC015 FM192000
                       04005KT 6SM BR OVC050 FM200000 04003KT P6SM
                       SCT250=
202402190603 KPWT 190603Z 1906/2006 03003KT 4SM BR SCT004
                      TEMPO 1906/1910 1 1/2SM BR BKN004 FM191200
                       04003KT P6SM OVC007 FM191500 04004KT P6SM
                       OVC015
                      TEMPO 1915/1919 P6SM -RA OVC015 FM192000
                       04005KT 6SM BR OVC050 FM200000 04003KT P6SM
                       SCT250=
202402190601 KPWT 190601Z 1906/2006 03003KT 1 1/2SM BR SCT004
                      TEMPO 1906/1910 BKN004 FM191200 04003KT P6SM
                       OVC007 FM191500 04004KT P6SM OVC015
                      TEMPO 1915/1919 P6SM -RA OVC015 FM192000
                       04005KT 6SM BR OVC050 FM200000 04003KT P6SM
                       SCT250=
202402190533 TAF KPWT 190533Z 1906/2006 03003KT 4SM BR SCT004
                      TEMPO 1906/1910 BKN004 FM191200 04003KT P6SM
                       OVC007 FM191500 04004KT P6SM OVC015
                      TEMPO 1915/1919 P6SM -RA OVC015 FM192000
                       04005KT 6SM BR OVC050 FM200000 04003KT P6SM
                       SCT250=
202402190228 KPWT 190228Z 1902/1924 00000KT P6SM SCT006 OVC020 FM191100 04004KT
                       P6SM OVC050 FM191700 04005KT 6SM BR OVC050=
202402182320 TAF KPWT 182320Z 1900/1924 14003KT 5SM -RA BR OVC007 FM190200 03005KT
                       P6SM FEW030 BKN100 FM191100 04004KT P6SM
                       OVC050 FM191700 04005KT 6SM BR OVC050=
202402182207 KPWT 182207Z 1822/1918 14003KT 5SM -RA BR OVC005 FM190200 03005KT
                       P6SM FEW030 BKN100 FM191100 04004KT P6SM
                       OVC050=
202402181727 TAF KPWT 181727Z 1818/1918 25003KT P6SM -RA SCT025 OVC035 FM182200
                       16005KT P6SM VCSH SCT030 OVC035 FM190200
                       03005KT P6SM FEW030 BKN100 FM191100 04004KT
                       P6SM OVC050=
202402181133 TAF KPWT 181133Z 1812/1912 00000KT P6SM VCSH OVC040 FM181300 VRB03KT
                       P6SM -RA SCT025 OVC035 FM181500 19005KT
                       P6SM -RA OVC025 FM182200 16005KT P6SM VCSH
                       SCT030 OVC035 FM190200 03005KT P6SM FEW030
                       BKN100=
202402180535 TAF KPWT 180535Z 1806/1906 00000KT P6SM BKN100 FM180900 00000KT
                       P6SM OVC050 FM181400 05004KT P6SM -RA BKN025
                       OVC040 FM181600 05006KT P6SM -RA OVC025
                       FM182200 05005KT P6SM VCSH SCT030 OVC040
                       FM190100 04005KT P6SM FEW030 BKN100=
202402172329 TAF KPWT 172329Z 1800/1824 00000KT P6SM VCSH OVC060 FM180300 03004KT
                       P6SM OVC050 FM180900 00000KT P6SM -RA SCT025
                       OVC040 FM181300 00000KT 5SM -RA BR OVC020=
202402171739 TAF KPWT 171739Z 1718/1818 00000KT P6SM -SHRA OVC060 FM172200 03004KT
                       P6SM OVC050 FM180600 00000KT P6SM OVC050
                       FM180900 00000KT P6SM -RA SCT025 OVC040
                       FM181300 00000KT 5SM -RA BR OVC020=
202402171417 KPWT 171417Z 1714/1812 04006KT P6SM BKN060 OVC150 FM171700 03006KT
                       P6SM -RA BKN050 OVC090 FM172200 03004KT
                       P6SM OVC050 FM180600 00000KT P6SM OVC050
                       PROB30 1807/1811 6SM -RA OVC050=
202402171120 TAF KPWT 171120Z 1712/1812 04006KT P6SM OVC250 FM171700 03006KT
                       P6SM VCSH OVC090 FM172200 03004KT P6SM OVC050
                       FM180600 00000KT P6SM OVC050
                      PROB30 1807/1811 6SM -RA OVC050=
202402170520 TAF KPWT 170520Z 1706/1806 02006KT P6SM BKN150 FM171700 02006KT
                       P6SM OVC090 FM172200 03004KT P6SM VCSH OVC060=
202402162333 TAF KPWT 162333Z 1700/1724 02006KT P6SM BKN200 FM170600 03008KT
                       P6SM BKN150 FM171600 04004KT P6SM OVC090
                       FM172100 30004KT P6SM -RA OVC050=
202402161735 TAF KPWT 161735Z 1618/1718 04008KT P6SM SCT250 FM162300 04009G16KT
                       P6SM BKN250 FM170600 03008KT P6SM BKN150=
202402161141 TAF KPWT 161141Z 1612/1712 04005KT P6SM SKC FM161600 04008KT P6SM
                       SCT250 FM162300 04009G16KT P6SM BKN250 FM170600
                       03008KT P6SM BKN150=
202402160520 TAF KPWT 160520Z 1606/1706 03005KT P6SM BKN035 OVC050 FM161000
                       04005KT 6SM BR SCT007 BKN050 FM161700 04008KT
                       P6SM SCT250 FM162300 04009KT P6SM BKN250=
202402152331 TAF KPWT 152331Z 1600/1624 07005KT P6SM VCSH BKN035 FM160400 04006KT
                       P6SM BKN035 OVC050 FM160800 04003KT 6SM
                       BR BKN009 FM161500 04006KT P6SM OVC250=
202402151727 TAF KPWT 151727Z 1518/1618 05007KT P6SM -SHRA OVC025 FM152100 07005KT
                       P6SM VCSH OVC030 FM160300 04006KT P6SM BKN035
                       OVC050 FM160800 04003KT 6SM BR BKN009=
202402151440 KPWT 151440Z 1515/1612 04013KT 6SM -SN BR FEW015 OVC020 FM151600
                       05007KT 6SM -SHRA BR BKN010 OVC015 FM152100
                       07005KT 6SM BR VCSH OVC020 FM160300 04006KT
                       P6SM BKN025 OVC050 FM160800 04003KT 6SM
                       BR BKN009=
202402151145 TAF KPWT 151145Z 1512/1612 04013KT 2SM -SN BR SCT004 OVC009 FM151600
                       05007KT 6SM -SHRA BR BKN010 OVC015 FM152100
                       07005KT 6SM BR VCSH OVC020 FM160300 04006KT
                       P6SM BKN025 OVC050 FM160800 04003KT 6SM
                       BR BKN009=
202402150750 KPWT 150750Z 1508/1606 04010KT 1SM -SN BR OVC004 FM151200 02009KT
                       2SM -SN BKN015 OVC025 FM151900 05007KT 6SM
                       -SHRA BR BKN010 OVC015 FM160300 04006KT
                       P6SM BKN025 OVC050=
202402150532 TAF KPWT 150532Z 1506/1606 08008KT 6SM -RASN BR BKN025 OVC030 FM150800
                       03012KT 3SM -RASN BR BKN015 OVC020 FM151200
                       02009KT 2SM -SN BKN015 OVC025 FM151900 05007KT
                       6SM -SHRA BR BKN010 OVC015 FM160300 04006KT
                       P6SM BKN025 OVC050=
202402142320 TAF KPWT 142320Z 1500/1524 02008KT P6SM OVC080 FM150200 05012KT
                       P6SM OVC060 FM150800 05012KT 2SM -RA OVC020
                       FM151200 04009KT 2SM -RASN OVC025 FM151800
                       02009KT P6SM -SHRA OVC015=
202402141720 TAF KPWT 141720Z 1418/1518 03008KT P6SM FEW060 FM142000 05008KT
                       P6SM BKN120 OVC200 FM150200 05012KT P6SM
                       OVC070 FM150800 05012KT P6SM -RA OVC040
                       FM151200 04009KT P6SM -RA OVC025=
202402141130 TAF KPWT 141130Z 1412/1512 05004KT P6SM SCT025 BKN045 FM141800
                       03008KT P6SM SCT050 BKN120 OVC200 FM142000
                       05008KT P6SM BKN120 OVC200 FM150200 05012KT
                       P6SM OVC070 FM150800 05012KT P6SM -RA OVC040=
202402140539 TAF KPWT 140539Z 1406/1506 05004KT P6SM SKC FM141000 05004KT 1/2SM
                       FG OVC001 FM141700 05004KT 4SM BR BKN003
                       BKN120 FM141800 05008KT P6SM BKN120 OVC200
                       FM142100 05012KT P6SM OVC070 FM150400 05012KT
                       P6SM -RA OVC040=
202402132334 TAF KPWT 132334Z 1400/1424 03006KT P6SM SCT025 FM141000 04004KT
                       P6SM BKN050 FM141800 03007KT P6SM SCT250=
202402131739 TAF KPWT 131739Z 1318/1418 07003KT P6SM OVC025 FM132000 03008KT
                       P6SM BKN050 FM132200 04006KT P6SM SCT200
                       FM141000 03004KT 3SM BR SCT002 BKN050 FM141600
                       04004KT P6SM SCT025 BKN050=
202402131136 TAF KPWT 131136Z 1312/1412 VRB03KT P6SM OVC022 FM131600 03006KT
                       4SM BR OVC006 FM132000 03006KT P6SM BKN010
                       FM132100 03006KT P6SM BKN200 FM141000 03006KT
                       3SM BR SCT002=
202402130523 TAF KPWT 130523Z 1306/1406 00000KT P6SM OVC012 FM130900 04002KT
                       4SM BR OVC007 FM131200 04003KT 1 1/2SM BR
                       OVC003 FM131800 05006KT 4SM BR BKN007 FM132100
                       04007KT P6SM SCT020 BKN050 FM140000 02006KT
                       P6SM SCT250=
202402122336 TAF KPWT 122336Z 1300/1324 20003KT P6SM OVC013 FM130200 04003KT
                       P6SM OVC025 FM131000 04002KT 4SM BR OVC007
                       FM131200 04003KT 1 1/2SM BR OVC003 FM131800
                       05006KT 4SM BR BKN007 FM132000 04007KT P6SM
                       SCT020 BKN050=
202402121914 TAF AMD KPWT 121914Z 1219/1318 20003KT P6SM VCSH FEW009 BKN018
                       OVC030 FM130900 04002KT 4SM BR OVC007 FM131200
                       04003KT 1 1/2SM BR OVC003 FM131700 05006KT
                       4SM BR BKN007=
202402121738 TAF KPWT 121738Z 1218/1318 20003KT 3SM -RA BR VCSH BKN003 BKN008
                       OVC025 FM122200 05006KT P6SM SCT009 BKN015
                       OVC025 FM130900 04002KT 4SM BR OVC007 FM131200
                       04003KT 1 1/2SM BR OVC003=
202402121140 TAF KPWT 121140Z 1212/1312 20010KT 4SM -SHRA OVC003 FM121800 23006KT
                       P6SM SCT005 BKN009 OVC015 FM122200 23006KT
                       P6SM SCT009 BKN015 OVC025 FM130200 03006KT
                       P6SM BKN035 FM130700 03006KT 2SM BR OVC004=
202402120528 TAF KPWT 120528Z 1206/1306 20010G18KT P6SM -SHRA OVC007 FM120900
                       22010KT 4SM BR VCSH OVC007 FM122200 20004KT
                       P6SM OVC015 FM122300 06005KT P6SM OVC015=
202402112324 TAF KPWT 112324Z 1200/1224 20010G18KT 6SM -RA BR OVC005 FM120500
                       20009KT P6SM VCSH OVC015 FM120900 22010KT
                       4SM BR VCSH OVC007 FM122200 20004KT P6SM
                       OVC015=
202402111731 TAF KPWT 111731Z 1118/1218 20008KT 5SM -RA BR OVC009 FM112000 20010G18KT
                       6SM BR VCSH OVC015 FM120900 20009KT 6SM
                       BR OVC010 FM121500 22003KT 4SM BR OVC007=
202402111555 KPWT 111555Z 1116/1212 VRB03KT 6SM -RA BR BKN004 BKN010 OVC025
                       FM111700 20008KT 6SM -RA OVC015 FM112000
                       20010G18KT P6SM VCSH OVC015 FM120900 20005KT
                       P6SM OVC010=
202402111358 KPWT 111358Z 1114/1212 VRB03KT P6SM -SHRA OVC025 FM111700 20008KT
                       6SM -RA OVC015 FM112000 20010G18KT P6SM
                       VCSH OVC015 FM120900 20005KT P6SM OVC010=
202402111127 TAF KPWT 111127Z 1112/1212 VRB03KT P6SM -SHRA OVC035 FM111700 20008KT
                       6SM -RA OVC015 FM112000 20010G18KT P6SM
                       VCSH OVC015 FM120900 20005KT P6SM OVC010=
202402110531 TAF KPWT 110531Z 1106/1206 00000KT P6SM OVC060 FM111000 20003KT
                       P6SM -SHRA OVC025 FM111700 20012KT 4SM -RA
                       BR OVC015 FM112000 20010G20KT P6SM VCSH
                       OVC015=
202402102341 TAF KPWT 102341Z 1100/1124 23004KT P6SM OVC060 FM110800 18004KT
                       P6SM OVC035 FM111000 20003KT P6SM -SHRA
                       OVC025 FM111700 20012KT 4SM -RA BR OVC015
                       FM112000 20010KT P6SM VCSH OVC015=
202402101740 TAF KPWT 101740Z 1018/1118 20004KT P6SM SCT100 FM102000 21004KT
                       P6SM BKN050 FM110800 18004KT P6SM OVC025
                       FM111000 20003KT P6SM -SHRA OVC025 FM111700
                       20010KT 4SM -RA BR OVC015=
202402101634 KPWT 101634Z 1017/1112 20004KT 2SM BR FEW001 FM102000 21004KT P6SM
                       BKN050 FM110700 18004KT P6SM OVC025 FM111000
                       20003KT P6SM -SHRA OVC020=
202402101430 KPWT 101430Z 1015/1112 18002KT P6SM FEW002 BKN070
                      TEMPO 1014/1016 2SM BR FM101600 20004KT P6SM
                       BKN040 FM110400 18004KT P6SM OVC025 FM111000
                       20003KT P6SM -SHRA OVC020=
202402101347 KPWT 101347Z 1014/1112 18002KT P6SM FEW002 BKN070 FM101600 20004KT
                       P6SM BKN040 FM110400 18004KT P6SM OVC025
                       FM111000 20003KT P6SM -SHRA OVC020=
202402101329 KPWT 101329Z 1013/1112 18002KT P6SM SCT002 BKN070
                      TEMPO 1013/1015 3SM BR BKN002 FM101600 20004KT
                       P6SM BKN040 FM110400 18004KT P6SM OVC025
                       FM111000 20003KT P6SM -SHRA OVC020=
202402101158 KPWT 101158Z 1012/1112 18002KT P6SM SCT002 BKN070
                      TEMPO 1012/1015 1/4SM FG BKN002 FM101600
                       20004KT P6SM BKN040 FM110400 18004KT P6SM
                       OVC025 FM111000 20003KT P6SM -SHRA OVC020=
202402101152 KPWT 101152Z 1012/1112 18002KT P6SM SCT002 BKN070
                      TEMPO 1012/1015 3/4SM BR BKN002 FM101600
                       20004KT P6SM BKN040 FM110400 18004KT P6SM
                       OVC025 FM111000 20003KT P6SM -SHRA OVC020=
202402101138 KPWT 101138Z 1012/1112 18002KT P6SM SCT002 BKN070
                      TEMPO 1012/1015 BKN002 FM101600 20004KT P6SM
                       BKN040 FM110400 18004KT P6SM OVC025 FM111000
                       20003KT P6SM -SHRA OVC020=
202402101132 TAF KPWT 101132Z 1012/1112 18002KT P6SM SCT002 BKN070 FM101600
                       20004KT P6SM BKN040 FM110400 18004KT P6SM
                       OVC025 FM111000 20003KT P6SM -SHRA OVC020=
202402100903 KPWT 100903Z 1009/1106 00000KT P6SM BKN110 FM101400 00000KT 3/4SM
                       BR VV001 FM101600 20004KT 6SM BR BKN035
                       FM110000 21004KT P6SM OVC025=
202402100902 KPWT 100902Z 1009/1106 00000KT P6SM BKN110 FM101000 00000KT 3/4SM
                       BR VV001 FM101600 20004KT 6SM BR BKN035
                       FM110000 21004KT P6SM OVC025=
202402100700 KPWT 100700Z 1007/1106 00000KT 4SM BR BKN250 FM101000 00000KT 3/4SM
                       BR VV001 FM101600 20004KT 6SM BR BKN035
                       FM110000 21004KT P6SM OVC025=
202402100533 TAF KPWT 100533Z 1006/1106 00000KT P6SM BKN250 FM100800 00000KT
                       3/4SM BR VV001 FM101600 20004KT 6SM BR BKN035
                       FM110000 21004KT P6SM OVC025=
202402092325 TAF KPWT 092325Z 1000/1024 05006KT P6SM SCT015 OVC050 FM100600
                       00000KT 4SM BR OVC025 FM101200 00000KT 4SM
                       BR OVC015 FM101600 20004KT 6SM BR OVC019=
202402091738 TAF KPWT 091738Z 0918/1018 VRB02KT P6SM FEW030 BKN035 FM092200
                       15003KT P6SM SCT015 OVC060 FM100600 00000KT
                       4SM BR OVC025 FM101200 00000KT 4SM BR OVC015=
202402091434 KPWT 091434Z 0915/1012 VRB02KT 4SM BR SCT030 BKN050
                      TEMPO 0915/0917 1/2SM FG BKN002 FM091800
                       VRB02KT 6SM BR BKN025 FM092200 15003KT P6SM
                       SCT015 OVC030 FM100500 00000KT 6SM BR OVC015=
202402091122 TAF KPWT 091122Z 0912/1012 00000KT 5SM -RA SCT015 BKN030 FM091400
                       VRB02KT 6SM BR BKN015 OVC025 FM092200 15003KT
                       P6SM SCT015 OVC030 FM100500 00000KT 6SM
                       BR OVC015=
202402090904 KPWT 090904Z 0909/1006 00000KT 5SM -RA FEW005 SCT025 OVC035 FM091300
                       00000KT 5SM BR BKN010 OVC020 FM092100 22003KT
                       P6SM SCT007 OVC015 FM100300 00000KT P6SM
                       OVC015=
202402090530 TAF KPWT 090530Z 0906/1006 00000KT 5SM -SHRA OVC015 FM091200 00000KT
                       5SM BR OVC007 FM092100 22003KT P6SM SCT007
                       OVC015 FM100300 00000KT P6SM OVC015=
202402082320 TAF KPWT 082320Z 0900/0924 19005KT P6SM FEW020 SCT025 OVC045 FM090200
                       VRB03KT P6SM BKN020 OVC030 FM090600 00000KT
                       5SM -RA BR BKN010 OVC015 FM091400 00000KT
                       4SM BR OVC007 FM092100 22003KT P6SM SCT007
                       OVC035=
202402082000 KPWT 082000Z 0820/0918 19003KT P6SM BKN019 BKN025 FM082300 20005KT
                       P6SM BKN020 OVC030 FM090600 00000KT 5SM
                       -RA BR BKN010 OVC015 FM091400 00000KT 4SM
                       BR OVC007=
202402081123 TAF KPWT 081123Z 0812/0912 00000KT 6SM BR FEW015 BKN030 OVC050
                       FM081300 19003KT 6SM BR SCT007 OVC015 FM082300
                       20005KT P6SM BKN020 OVC030 FM090600 00000KT
                       5SM -RA BR BKN010 OVC015=
202402080520 TAF KPWT 080520Z 0806/0906 00000KT P6SM OVC070 FM081000 00000KT
                       6SM BR OVC025 FM081200 00000KT 6SM BR OVC015
                       FM081900 20003KT P6SM OVC025 FM082100 19004KT
                       P6SM OVC035=
202402072326 TAF KPWT 072326Z 0800/0824 00000KT P6SM BKN060 FM080600 00000KT
                       5SM BR OVC025 FM081200 00000KT 2SM BR OVC007
                       FM081900 20003KT P6SM OVC025 FM082100 19004KT
                       P6SM OVC035=
202402071723 TAF KPWT 071723Z 0718/0818 00000KT P6SM BKN060 FM072000 03005KT
                       P6SM BKN050 FM080500 VRB02KT 5SM BR OVC025
                       FM080900 00000KT 2SM BR OVC007=
202402071354 KPWT 071354Z 0714/0812 00000KT 3SM BR SCT002 BKN050
                      TEMPO 0714/0717 1/2SM FG BKN002 FM071700
                       03003KT P6SM FEW020 BKN050 FM072000 03005KT
                       P6SM BKN050 FM080500 VRB02KT 5SM BR OVC025
                       FM080900 00000KT 2SM BR OVC007=
202402071306 KPWT 071306Z 0713/0812 00000KT 3SM BR BKN002
                      TEMPO 0713/0717 1/2SM FG FM071700 03003KT
                       P6SM FEW020 BKN050 FM072000 03005KT P6SM
                       BKN050 FM080500 VRB02KT 5SM BR OVC025 FM080900
                       00000KT 2SM BR OVC007=
202402071129 TAF KPWT 071129Z 0712/0812 00000KT 4SM BR BKN003 FM071700 03003KT
                       P6SM FEW020 BKN050 FM072000 03005KT P6SM
                       BKN050 FM080500 VRB02KT 5SM BR OVC025 FM080900
                       00000KT 2SM BR OVC007=
202402070520 TAF KPWT 070520Z 0706/0806 VRB02KT P6SM FEW030 SCT040 OVC050 FM070900
                       00000KT 6SM BR OVC040 FM071200 00000KT 4SM
                       BR OVC007 FM071800 03003KT P6SM BKN050=
202402070036 KPWT 070036Z 0701/0724 VRB03KT P6SM SCT015 OVC025 FM070300 VRB02KT
                       P6SM OVC030 FM070900 00000KT 6SM BR OVC025
                       FM071200 00000KT 4SM BR OVC007 FM071800
                       03003KT P6SM BKN050=
202402062325 TAF KPWT 062325Z 0700/0724 18003KT P6SM FEW008 FM070300 VRB02KT
                       P6SM OVC030 FM070900 00000KT 6SM BR OVC025
                       FM071200 00000KT 4SM BR OVC007 FM071800
                       03003KT P6SM BKN050=
202402062110 KPWT 062110Z 0621/0718 21003KT P6SM VCSH FEW007 BKN015 OVC020 FM070300
                       VRB02KT P6SM OVC030 FM070900 00000KT 6SM
                       BR OVC025 FM071500 00000KT 2SM BR OVC007=
202402061732 TAF KPWT 061732Z 0618/0718 VRB03KT P6SM VCSH OVC025 FM062100 21003KT
                       P6SM OVC025 FM070300 VRB02KT P6SM OVC030
                       FM070900 00000KT 6SM BR OVC025 FM071500
                       00000KT 2SM BR OVC007=
202402061451 KPWT 061451Z 0615/0712 VRB03KT P6SM -SHRA BKN020
                      TEMPO 0615/0616 1 1/2SM BR FM061600 VRB03KT
                       4SM BR OVC007 FM062100 20003KT 6SM BR OVC015=
202402061120 TAF KPWT 061120Z 0612/0712 VRB03KT P6SM -SHRA BKN025 FM061600 VRB03KT
                       4SM BR OVC007 FM062100 20003KT 6SM BR OVC015=
202402060520 TAF KPWT 060520Z 0606/0706 03007KT P6SM -RA OVC035 FM060700 00000KT
                       6SM -SHRA BR OVC025 FM061600 00000KT 4SM
                       BR OVC007 FM062100 20003KT 6SM BR OVC015=
202402052320 TAF KPWT 052320Z 0600/0624 36008KT P6SM -SHRA OVC040 FM060100 05004KT
                       P6SM -SHRA OVC025 FM060700 00000KT 6SM -SHRA
                       BR OVC015 FM061600 00000KT 4SM BR OVC007
                       FM062100 20003KT 6SM BR OVC015=
202402051730 TAF KPWT 051730Z 0518/0618 04007KT P6SM SCT050 OVC070 FM052100
                       36008KT P6SM -SHRA OVC040 FM060100 05004KT
                       P6SM -SHRA OVC025 FM060700 00000KT 6SM -SHRA
                       BR OVC015 FM061500 00000KT 4SM -SHRA BR
                       OVC007=
202402051153 TAF KPWT 051153Z 0512/0612 03012KT P6SM OVC100 FM051800 03008KT
                       P6SM BKN050 OVC100 FM052100 36008KT P6SM
                       -SHRA OVC040 FM060500 VRB03KT P6SM -SHRA
                       BKN025 OVC040 FM061000 15004KT P6SM BKN006
                       OVC011=
202402050540 TAF KPWT 050540Z 0506/0606 04011KT P6SM SCT250 FM051500 03006KT
                       P6SM BKN050 FM052000 02009KT P6SM VCSH OVC030
                       FM052200 04007KT P6SM -RA OVC025 FM060500
                       02006KT 5SM -RA BR OVC015=
202402042320 TAF KPWT 042320Z 0500/0524 03010KT P6SM FEW250 FM050300 04010KT
                       P6SM BKN250 FM050900 03008KT P6SM OVC100
                       FM051600 04006KT P6SM OVC050 FM052000 02009KT
                       P6SM VCSH OVC030 FM052200 04007KT P6SM -RA
                       OVC025=
202402041721 TAF KPWT 041721Z 0418/0518 04004KT P6SM OVC025 FM042000 04008KT
                       P6SM FEW025 BKN050 FM050000 04008KT P6SM
                       SCT250 FM050900 04004KT 1SM BR BKN002=
202402041125 TAF KPWT 041125Z 0412/0512 04008KT P6SM OVC012 FM042000 04008KT
                       P6SM FEW020 BKN050 FM050000 04008KT P6SM
                       SCT250 FM050900 04004KT 1SM BR BKN002=
202402040909 KPWT 040909Z 0409/0506 04004KT P6SM BKN010 FM041200 04006KT 5SM
                       BR BKN008 FM042100 04008KT P6SM FEW020 BKN050
                       FM050200 04008KT P6SM SCT250=
202402040647 KPWT 040647Z 0407/0506 00000KT 1/2SM FG OVC005 FM041600 04006KT
                       5SM BR BKN010 FM042100 03007KT P6SM FEW020
                       BKN050 FM050200 03006KT P6SM SCT250=
202402040542 TAF KPWT 040542Z 0406/0506 05004KT P6SM SKC FM040900 VRB04KT P6SM
                       BKN020 FM041700 04006KT P6SM BKN020 FM042100
                       03007KT P6SM FEW020 BKN050 FM050200 03006KT
                       P6SM SCT250=
202402032320 TAF KPWT 032320Z 0400/0424 00000KT P6SM FEW030 SCT120 FM040900
                       03004KT P6SM BKN008 FM041200 00000KT 1/2SM
                       FG BKN001 FM041800 02006KT P6SM BKN004 FM042100
                       02007KT P6SM FEW020 BKN050=
202402031720 TAF KPWT 031720Z 0318/0418 00000KT P6SM BKN040 BKN080 FM040000
                       03004KT P6SM BKN040 FM040900 03004KT P6SM
                       BKN008 FM041200 00000KT 1/2SM FG BKN001=
202402031146 TAF KPWT 031146Z 0312/0412 00000KT P6SM BKN045 FM031400 00000KT
                       4SM BR BKN045
                      TEMPO 0314/0317 1SM BR FM031800 VRB04KT P6SM
                       BKN045 FM040000 03004KT P6SM BKN045 FM041000
                       03004KT P6SM BKN008=
202402030533 TAF KPWT 030533Z 0306/0406 VRB03KT P6SM SCT050 FM031000 00000KT
                       P6SM BKN035 FM031300 00000KT 5SM BR OVC015
                       FM032000 VRB04KT P6SM BKN025 FM040000 03004KT
                       P6SM BKN025=
202402022326 TAF KPWT 022326Z 0300/0324 24007KT P6SM BKN250 FM030200 VRB03KT
                       P6SM SCT050 BKN100 FM031200 00000KT 5SM
                       BR BKN015 FM031500 00000KT 4SM BR OVC004
                       FM031900 03003KT P6SM BKN025=
202402021727 TAF KPWT 021727Z 0218/0318 21005KT P6SM VCSH BKN050 FM022000 20006KT
                       P6SM BKN040 FM030200 VRB03KT P6SM SCT050
                       BKN100 FM030900 00000KT 5SM BR BKN015 FM031500
                       00000KT 4SM BR OVC007=
202402021131 TAF KPWT 021131Z 0212/0312 20005KT P6SM VCSH BKN045 FM021500 21005KT
                       P6SM VCSH OVC030 FM022000 20006KT P6SM BKN040
                       FM030200 VRB03KT P6SM SCT050 BKN100 FM030900
                       00000KT 5SM BR BKN005=
202402020544 TAF KPWT 020544Z 0206/0306 21005KT P6SM BKN080 FM020800 20005KT
                       6SM BR VCSH SCT040 BKN050 FM021500 21005KT
                       P6SM OVC025 FM022000 20006KT P6SM BKN050
                       FM030200 VRB03KT P6SM OVC045=
202402012320 TAF KPWT 012320Z 0200/0224 19008KT P6SM SCT100 FM020300 21005KT
                       P6SM BKN050 FM020800 20005KT 6SM BR VCSH
                       BKN050 FM021500 21005KT 6SM BR OVC025 FM022100
                       21006KT P6SM BKN050=
202402011725 TAF KPWT 011725Z 0118/0218 00000KT P6SM -SHRA OVC100 FM012200 20005KT
                       P6SM VCSH BKN070 FM020300 21005KT P6SM BKN045
                       FM020800 20005KT 6SM -SHRA BR OVC050=
202402011421 KPWT 011421Z 0114/0212 VRB03KT 5SM -SHRA BR SCT025 OVC045
                      TEMPO 0114/0117 1 1/2SM BR FM011700 18005KT
                       P6SM -SHRA OVC035 FM012200 20005KT P6SM
                       VCSH BKN040 BKN070 FM020300 21003KT P6SM
                       BKN045=
202402011135 TAF KPWT 011135Z 0112/0212 VRB03KT P6SM -SHRA SCT025 OVC045 FM011600
                       18005KT P6SM -SHRA OVC035 FM012200 20005KT
                       P6SM VCSH BKN040 BKN070 FM020300 21003KT
                       P6SM BKN045=
202402010527 TAF KPWT 010527Z 0106/0206 00000KT P6SM -SHRA BKN110 FM011000 20003KT
                       6SM -RA BR SCT025 OVC040 FM011800 18005KT
                       P6SM OVC050 FM020100 21003KT P6SM -SHRA
                       OVC050=