##########################################################
# Query made at 02/16/2025 01:25:22 UTC
# Time interval: from 01/01/2024 00:00  to 01/31/2024 23:59  UTC
##########################################################

##########################################################
# KPWT, Bremerton National Automatic Weather Observing / Reporting System (United States)
# WMO index: -----. WIGOS ID: Unknown
# Latitude 47-30N. Longitude 122-45W. Altitude 147 m.
##########################################################

###################################
#  METAR/SPECI from KPWT
###################################
202401312356 METAR KPWT 312356Z AUTO 00000KT 10SM -RA BKN055 11/11 A2947 RMK AO2 SLP982 P0001 60005 T01110111 10117 20100 56005=
202401312256 METAR KPWT 312256Z AUTO 00000KT 10SM -RA BKN055 11/11 A2947 RMK AO2 SLP982 P0000 T01110111=
202401312156 METAR KPWT 312156Z AUTO 00000KT 10SM -RA BKN055 12/12 A2947 RMK AO2 SLP984 P0001 T01170117=
202401312056 METAR KPWT 312056Z AUTO 00000KT 10SM -RA BKN060 11/11 A2948 RMK AO2 SLP987 P0002 60003 T01110111 58002=
202401311956 METAR KPWT 311956Z AUTO 00000KT 10SM -RA CLR 11/11 A2949 RMK AO2 SLP991 P0001 T01060106=
202401311856 METAR KPWT 311856Z AUTO 00000KT 10SM -RA SCT060 11/11 A2949 RMK AO2 SLP991 P0000 T01060106=
202401311756 METAR KPWT 311756Z AUTO 00000KT 10SM -RA CLR 11/11 A2949 RMK AO2 SLP989 P0001 60010 T01060106 10106 20094 56003=
202401311656 METAR KPWT 311656Z AUTO 00000KT 10SM -RA CLR 10/10 A2949 RMK AO2 RAE1557B29 SLP991 P0000 T01000100=
202401311556 METAR KPWT 311556Z AUTO 00000KT 10SM -RA FEW060 10/10 A2949 RMK AO2 SLP990 P0001 T01000100=
202401311456 METAR KPWT 311456Z AUTO 00000KT 10SM -RA CLR 10/10 A2950 RMK AO2 SLP992 P0003 60008 T01000100 56008=
202401311356 METAR KPWT 311356Z AUTO 00000KT 10SM -RA CLR 10/10 A2950 RMK AO2 SLP994 P0002 T01000100=
202401311256 METAR KPWT 311256Z AUTO 00000KT 10SM -RA CLR 11/11 A2951 RMK AO2 SLP997 P0003 T01060106=
202401311156 METAR KPWT 311156Z AUTO 03003KT 10SM -RA CLR 11/11 A2952 RMK AO2 SLP999 P0004 60015 70016 T01060106 10122 20100 56020=
202401311056 METAR KPWT 311056Z AUTO 35003KT 10SM -RA CLR 11/11 A2954 RMK AO2 SLP006 P0001 T01110111=
202401310956 METAR KPWT 310956Z AUTO 00000KT 10SM -RA CLR 11/11 A2954 RMK AO2 SLP007 P0003 T01060106=
202401310856 METAR KPWT 310856Z AUTO 31003KT 10SM -RA FEW036 11/11 A2958 RMK AO2 SLP019 P0002 60007 T01060106 58005=
202401310756 METAR KPWT 310756Z AUTO 28003KT 10SM -RA FEW033 11/11 A2959 RMK AO2 SLP026 P0004 T01060106 401390089=
202401310656 METAR KPWT 310656Z AUTO 00000KT 10SM -RA CLR 11/11 A2958 RMK AO2 SLP021 P0001 T01060106=
202401310556 METAR KPWT 310556Z AUTO 30004KT 10SM -RA CLR 11/11 A2959 RMK AO2 RAB21 SLP025 P0000 60000 T01110106 10133 20106 56034=
202401310456 METAR KPWT 310456Z AUTO 00000KT 10SM SCT090 11/11 A2962 RMK AO2 RAB20E36 SLP034 P0000 T01060106=
202401310356 METAR KPWT 310356Z AUTO 00000KT 10SM FEW080 11/11 A2965 RMK AO2 RAE46 SLP045 P0000 T01110111=
202401310256 METAR KPWT 310256Z AUTO 00000KT 10SM -RA BKN075 11/11 A2970 RMK AO2 RAB53 SLP060 P0000 60000 T01060106 58028=
202401310156 METAR KPWT 310156Z AUTO 00000KT 10SM BKN070 OVC110 11/11 A2973 RMK AO2 SLP073 T01110111=
202401310056 METAR KPWT 310056Z AUTO 00000KT 10SM SCT070 SCT090 12/11 A2976 RMK AO2 SLP081 T01170111=
202401302356 METAR KPWT 302356Z AUTO 00000KT 10SM OVC075 13/11 A2978 RMK AO2 SLP088 60000 T01330111 10139 20111 56027=
202401302256 METAR KPWT 302256Z AUTO 05008KT 10SM OVC075 14/11 A2979 RMK AO2 SLP092 T01390111=
202401302156 METAR KPWT 302156Z AUTO 04004KT 10SM BKN090 13/12 A2983 RMK AO2 SLP104 T01330122=
202401302056 METAR KPWT 302056Z AUTO 02006KT 10SM SCT095 13/12 A2986 RMK AO2 SLP115 60000 T01330122 58038=
202401301956 METAR KPWT 301956Z AUTO 01005KT 10SM CLR 13/12 A2989 RMK AO2 RAE39 PRESFR SLP126 P0000 T01280122=
202401301856 METAR KPWT 301856Z AUTO 33003KT 10SM -RA CLR 12/12 A2996 RMK AO2 SLP149 P0000 T01170117=
202401301756 METAR KPWT 301756Z AUTO 00000KT 10SM -RA CLR 12/12 A2998 RMK AO2 RAB08 SLP155 P0001 60001 T01170117 10117 20089 58007=
202401301656 METAR KPWT 301656Z AUTO 00000KT 10SM OVC075 11/11 A2998 RMK AO2 SLP157 T01060106=
202401301556 METAR KPWT 301556Z AUTO 00000KT 10SM BKN080 09/09 A2999 RMK AO2 SLP161 T00940094=
202401301456 METAR KPWT 301456Z AUTO 00000KT 10SM BKN085 10/10 A3000 RMK AO2 SLP162 T01000100 58003=
202401301356 METAR KPWT 301356Z AUTO 00000KT 10SM BKN100 11/11 A3000 RMK AO2 SLP162 T01110111=
202401301256 METAR KPWT 301256Z AUTO 15005KT 10SM BKN100 11/11 A3001 RMK AO2 SLP167 T01110111=
202401301156 METAR KPWT 301156Z AUTO 27003KT 10SM CLR 12/11 A3001 RMK AO2 SLP164 60000 T01170111 10128 20106 50002=
202401301056 METAR KPWT 301056Z AUTO 20003KT 10SM CLR 11/11 A3001 RMK AO2 SLP166 T01110106=
202401300956 METAR KPWT 300956Z AUTO 21004KT 10SM CLR 11/11 A3000 RMK AO2 SLP162 T01060106=
202401300856 METAR KPWT 300856Z AUTO 21007KT 10SM SCT070 12/11 A3000 RMK AO2 SLP162 60000 T01220106 50002=
202401300756 METAR KPWT 300756Z AUTO 20005KT 10SM SCT070 12/11 A3001 RMK AO2 SLP167 T01170106 401390067=
202401300656 METAR KPWT 300656Z AUTO 27005KT 10SM FEW085 11/11 A2998 RMK AO2 RAE50 SLP158 P0000 T01110111=
202401300556 METAR KPWT 300556Z AUTO 20006KT 10SM -RA CLR 12/12 A2999 RMK AO2 RAB26 SLP161 P0000 60000 T01170117 10128 20100 53026=
202401300456 METAR KPWT 300456Z AUTO 19004KT 10SM CLR 13/11 A2995 RMK AO2 SLP147 T01280111=
202401300356 METAR KPWT 300356Z AUTO 22006KT 10SM BKN120 12/12 A2994 RMK AO2 SLP144 T01170117=
202401300256 METAR KPWT 300256Z AUTO 22004KT 10SM SCT110 11/11 A2992 RMK AO2 SLP135 T01110111 53004=
202401300156 METAR KPWT 300156Z AUTO 22004KT 10SM CLR 10/10 A2991 RMK AO2 SLP134 T01000100=
202401300056 METAR KPWT 300056Z AUTO 00000KT 10SM CLR 12/12 A2989 RMK AO2 SLP127 T01170117=
202401292356 METAR KPWT 292356Z AUTO 25003KT 10SM CLR 13/12 A2990 RMK AO2 SLP131 T01280122 10139 20106 56016=
202401292256 METAR KPWT 292256Z AUTO 22005KT 10SM CLR 13/12 A2992 RMK AO2 SLP136 T01330122=
202401292156 METAR KPWT 292156Z AUTO 19003KT 10SM CLR 14/13 A2992 RMK AO2 SLP136 T01390133=
202401292056 METAR KPWT 292056Z AUTO 21004KT 10SM CLR 13/12 A2995 RMK AO2 SLP146 T01330122 58017=
202401291956 METAR KPWT 291956Z AUTO 00000KT 10SM CLR 13/12 A2997 RMK AO2 SLP152 T01330122=
202401291856 METAR KPWT 291856Z AUTO 00000KT 10SM CLR 12/12 A2999 RMK AO2 SLP160 T01220122=
202401291756 METAR KPWT 291756Z AUTO 00000KT 10SM CLR 11/11 A3000 RMK AO2 SLP164 T01060106 10106 20067 58007=
202401291656 METAR KPWT 291656Z AUTO 00000KT 10SM CLR 08/08 A3001 RMK AO2 SLP169 T00830083=
202401291645 SPECI KPWT 291645Z AUTO 00000KT 3SM BR CLR 08/08 A3002 RMK AO2=
202401291640 SPECI KPWT 291640Z AUTO 00000KT 1 1/2SM BR CLR 08/08 A3001 RMK AO2 VIS 1/2V5=
202401291635 SPECI KPWT 291635Z AUTO 00000KT 3/4SM BR CLR 08/08 A3001 RMK AO2 VIS 1/2V4=
202401291621 SPECI KPWT 291621Z AUTO 00000KT 1/4SM FG CLR 08/08 A3002 RMK AO2=
202401291604 SPECI KPWT 291604Z AUTO 00000KT 1/2SM FG CLR 08/08 A3001 RMK AO2=
202401291556 METAR KPWT 291556Z AUTO 00000KT 1/4SM FG CLR 08/08 A3002 RMK AO2 SLP169 T00780078=
202401291529 SPECI KPWT 291529Z AUTO 00000KT 1/4SM FG CLR 07/07 A3002 RMK AO2=
202401291527 SPECI KPWT 291527Z AUTO 00000KT 3/4SM BR CLR 07/07 A3002 RMK AO2=
202401291525 SPECI KPWT 291525Z AUTO 00000KT 1 1/2SM BR CLR 07/07 A3002 RMK AO2=
202401291522 SPECI KPWT 291522Z AUTO 00000KT 4SM BR CLR 07/07 A3002 RMK AO2=
202401291515 SPECI KPWT 291515Z AUTO 00000KT 2SM BR CLR 07/07 A3002 RMK AO2 VIS 3/4V5=
202401291511 SPECI KPWT 291511Z AUTO 00000KT 1SM BR CLR 08/08 A3002 RMK AO2=
202401291456 METAR KPWT 291456Z AUTO 00000KT 1/2SM FG CLR 07/07 A3002 RMK AO2 SLP171 T00720072 56012=
202401291448 SPECI KPWT 291448Z AUTO 00000KT 1/2SM FG CLR 08/08 A3002 RMK AO2=
202401291439 SPECI KPWT 291439Z AUTO 00000KT 3/4SM BR CLR 07/07 A3003 RMK AO2=
202401291403 SPECI KPWT 291403Z AUTO 00000KT 1/2SM FG CLR 08/08 A3003 RMK AO2=
202401291356 METAR KPWT 291356Z AUTO 03003KT 3/4SM BR CLR 09/09 A3003 RMK AO2 SLP174 T00890089=
202401291347 SPECI KPWT 291347Z AUTO 00000KT 3/4SM BR CLR 08/08 A3003 RMK AO2=
202401291334 SPECI KPWT 291334Z AUTO 00000KT 1/2SM FG CLR 08/08 A3003 RMK AO2=
202401291319 SPECI KPWT 291319Z AUTO 00000KT 3/4SM BR CLR 09/09 A3004 RMK AO2=
202401291307 SPECI KPWT 291307Z AUTO 00000KT 1/2SM FG VV001 08/08 A3004 RMK AO2=
202401291256 METAR KPWT 291256Z AUTO 00000KT 1/4SM FG VV001 09/09 A3005 RMK AO2 SLP180 T00890089=
202401291240 SPECI KPWT 291240Z AUTO 00000KT 1/4SM FG CLR 08/08 A3005 RMK AO2=
202401291234 SPECI KPWT 291234Z AUTO 00000KT 1/2SM FG VV002 08/08 A3005 RMK AO2=
202401291156 METAR KPWT 291156Z AUTO 00000KT 1/2SM FG CLR 08/08 A3006 RMK AO2 SLP183 60000 70025 T00780078 10117 20078 58003=
202401291147 SPECI KPWT 291147Z AUTO 00000KT 1/2SM FG CLR 09/09 A3006 RMK AO2=
202401291137 SPECI KPWT 291137Z AUTO 00000KT 3/4SM BR CLR 08/08 A3006 RMK AO2=
202401291117 SPECI KPWT 291117Z AUTO 00000KT 1/2SM FG CLR 09/09 A3006 RMK AO2=
202401291104 SPECI KPWT 291104Z AUTO 00000KT 3/4SM BR CLR 09/09 A3007 RMK AO2=
202401291056 METAR KPWT 291056Z AUTO 00000KT 1/2SM FG CLR 08/08 A3007 RMK AO2 SLP187 T00830083=
202401291048 SPECI KPWT 291048Z AUTO 00000KT 1SM BR CLR 09/09 A3007 RMK AO2=
202401291034 SPECI KPWT 291034Z AUTO 00000KT 1/2SM FG CLR 09/09 A3007 RMK AO2=
202401291029 SPECI KPWT 291029Z AUTO 00000KT 1SM BR CLR 09/09 A3007 RMK AO2=
202401291025 SPECI KPWT 291025Z AUTO 00000KT 2SM BR CLR 09/09 A3007 RMK AO2 VIS 1 1/4V5=
202401291004 SPECI KPWT 291004Z AUTO 00000KT 1SM BR CLR 10/10 A3007 RMK AO2 VIS 3/4V2 1/2=
202401290956 METAR KPWT 290956Z AUTO 00000KT 2SM BR CLR 11/11 A3007 RMK AO2 SLP187 T01060106=
202401290952 SPECI KPWT 290952Z AUTO 00000KT 1 1/4SM BR CLR 11/11 A3007 RMK AO2=
202401290943 SPECI KPWT 290943Z AUTO 22004KT 3/4SM BR CLR 09/09 A3007 RMK AO2=
202401290938 SPECI KPWT 290938Z AUTO 23004KT 1/4SM FG CLR 09/09 A3007 RMK AO2=
202401290926 SPECI KPWT 290926Z AUTO 00000KT 1/2SM FG CLR 09/09 A3006 RMK AO2=
202401290917 SPECI KPWT 290917Z AUTO 00000KT 1SM BR CLR 10/10 A3007 RMK AO2=
202401290859 SPECI KPWT 290859Z AUTO 00000KT 1 3/4SM BR CLR 11/11 A3006 RMK AO2=
202401290856 METAR KPWT 290856Z AUTO 00000KT 5SM BR CLR 11/11 A3007 RMK AO2 SLP186 60000 T01060106 58004=
202401290849 SPECI KPWT 290849Z AUTO 00000KT 3SM BR CLR 11/11 A3006 RMK AO2=
202401290839 SPECI KPWT 290839Z AUTO 00000KT 1 3/4SM BR CLR 11/11 A3006 RMK AO2 VIS 1V5=
202401290835 SPECI KPWT 290835Z AUTO 00000KT 3SM BR CLR 11/11 A3006 RMK AO2=
202401290827 SPECI KPWT 290827Z AUTO 00000KT 1 1/4SM BR CLR 11/11 A3006 RMK AO2=
202401290818 SPECI KPWT 290818Z AUTO 00000KT 3/4SM BR FEW110 11/11 A3007 RMK AO2=
202401290808 SPECI KPWT 290808Z AUTO 00000KT 1 3/4SM BR FEW110 11/11 A3007 RMK AO2=
202401290756 METAR KPWT 290756Z AUTO 00000KT 6SM BR SCT110 11/11 A3007 RMK AO2 SLP188 T01110111 401390111=
202401290754 SPECI KPWT 290754Z AUTO 00000KT 3SM BR FEW110 11/11 A3008 RMK AO2 401390111=
202401290717 SPECI KPWT 290717Z AUTO 00000KT 1 3/4SM BR FEW060 12/12 A3007 RMK AO2 VIS 1V2 1/2=
202401290708 SPECI KPWT 290708Z AUTO 00000KT 1SM BR FEW060 11/11 A3007 RMK AO2=
202401290656 METAR KPWT 290656Z AUTO 00000KT 1 1/2SM BR FEW060 12/12 A3007 RMK AO2 VIS 1V5 RAB13E50 SLP187 P0000 T01170117=
202401290644 SPECI KPWT 290644Z AUTO 00000KT 1 3/4SM -RA BR SCT060 11/11 A3007 RMK AO2 RAB13 P0000=
202401290637 SPECI KPWT 290637Z AUTO 00000KT 4SM -RA BR SCT060 11/11 A3007 RMK AO2 RAB13 P0000=
202401290630 SPECI KPWT 290630Z AUTO 00000KT 2 1/2SM -RA BR SCT060 12/12 A3007 RMK AO2 RAB13 P0000=
202401290619 SPECI KPWT 290619Z AUTO 00000KT 1SM -RA BR SCT060 BKN110 11/11 A3008 RMK AO2 RAB13 P0000=
202401290614 SPECI KPWT 290614Z AUTO 00000KT 2SM -RA BR FEW060 BKN110 12/12 A3008 RMK AO2 VIS 1V5 RAB13 P0000=
202401290605 SPECI KPWT 290605Z AUTO 00000KT 1 1/4SM BR BKN110 12/12 A3008 RMK AO2 VIS 3/4V5=
202401290556 METAR KPWT 290556Z AUTO 00000KT 3/4SM BR OVC110 11/11 A3008 RMK AO2 SLP190 60007 T01110111 10139 20111 55003=
202401290542 SPECI KPWT 290542Z AUTO 00000KT 1SM BR OVC110 12/12 A3007 RMK AO2=
202401290529 SPECI KPWT 290529Z AUTO 00000KT 3/4SM BR OVC110 12/12 A3007 RMK AO2=
202401290521 SPECI KPWT 290521Z AUTO 00000KT 1SM BR OVC110 12/12 A3007 RMK AO2=
202401290456 METAR KPWT 290456Z AUTO 00000KT 2SM BR OVC110 12/12 A3008 RMK AO2 VIS 1 1/2V5 SLP190 T01170117=
202401290448 SPECI KPWT 290448Z AUTO 00000KT 1 1/4SM BR OVC110 12/12 A3008 RMK AO2 VIS 3/4V5=
202401290425 SPECI KPWT 290425Z AUTO 00000KT 3/4SM BR FEW065 12/12 A3008 RMK AO2=
202401290408 SPECI KPWT 290408Z AUTO 00000KT 1 3/4SM BR FEW065 BKN110 12/12 A3008 RMK AO2 VIS 1V5=
202401290356 METAR KPWT 290356Z AUTO 00000KT 10SM OVC110 13/13 A3008 RMK AO2 RAE0257 SLP189 T01280128=
202401290256 METAR KPWT 290256Z AUTO 00000KT 10SM -RA SCT002 13/13 A3009 RMK AO2 SLP192 P0003 60007 T01330133 56008=
202401290235 SPECI KPWT 290235Z AUTO VRB03KT 10SM -RA SCT002 13/13 A3009 RMK AO2 P0002=
202401290211 SPECI KPWT 290211Z AUTO 28003KT 4SM -RA BR CLR 13/13 A3009 RMK AO2 P0001=
202401290202 SPECI KPWT 290202Z AUTO 00000KT 2SM -RA BR CLR 13/13 A3009 RMK AO2 VIS 1 1/4V4 P0001=
202401290156 METAR KPWT 290156Z AUTO 00000KT 1SM -RA BR CLR 12/12 A3009 RMK AO2 SLP193 P0002 T01220122=
202401290130 SPECI KPWT 290130Z AUTO 00000KT 1 3/4SM -RA BR CLR 13/13 A3010 RMK AO2 VIS 3/4V5 P0002=
202401290056 METAR KPWT 290056Z AUTO 00000KT 10SM -RA FEW040 14/14 A3010 RMK AO2 SLP197 P0002 T01390139=
202401290014 SPECI KPWT 290014Z AUTO 00000KT 8SM -RA FEW004 SCT007 BKN040 14/14 A3011 RMK AO2 P0001=
202401282356 METAR KPWT 282356Z AUTO 00000KT 7SM -RA BKN004 BKN036 14/14 A3011 RMK AO2 RAB07 CIG 003V008 SLP201 P0006 60007 T01390139 10139 20122 56005=
202401282256 METAR KPWT 282256Z AUTO 00000KT 10SM OVC004 13/13 A3011 RMK AO2 RAE17 SLP201 P0000 T01330133=
202401282156 METAR KPWT 282156Z AUTO 23004KT 5SM -RA BR OVC004 13/13 A3012 RMK AO2 SLP204 P0001 T01280128=
202401282107 SPECI KPWT 282107Z AUTO 24004KT 3SM -RA BR OVC004 13/13 A3013 RMK AO2 P0000=
202401282056 METAR KPWT 282056Z AUTO 24004KT 4SM -RA BR OVC006 13/13 A3013 RMK AO2 RAB24 CIG 004V008 SLP206 P0000 60000 T01280128 58006=
202401282020 SPECI KPWT 282020Z AUTO 22006KT 10SM OVC008 13/13 A3014 RMK AO2 CIG 004V010=
202401281956 METAR KPWT 281956Z AUTO 23005KT 5SM BR BKN010 OVC021 13/13 A3014 RMK AO2 RAE00 CIG 007V013 SLP211 P0000 T01280128=
202401281937 SPECI KPWT 281937Z AUTO 22007KT 10SM SCT007 BKN012 BKN021 13/13 A3015 RMK AO2 RAE00 P0000=
202401281856 METAR KPWT 281856Z AUTO 22006KT 4SM -RA BR BKN007 12/12 A3015 RMK AO2 RAB51 CIG 004V011 SLP212 P0000 T01220122=
202401281846 SPECI KPWT 281846Z AUTO 22008KT 5SM BR BKN005 BKN010 BKN036 12/12 A3014 RMK AO2 CIG 004V008=
202401281827 SPECI KPWT 281827Z AUTO 22006KT 10SM FEW005 SCT014 BKN036 12/12 A3014 RMK AO2=
202401281807 SPECI KPWT 281807Z AUTO 22009KT 10SM SCT005 OVC014 12/12 A3014 RMK AO2=
202401281756 METAR KPWT 281756Z AUTO 23009KT 10SM BKN005 BKN014 12/12 A3014 RMK AO2 SLP209 60011 T01220122 10128 20111 51019=
202401281656 METAR KPWT 281656Z AUTO 21009KT 10SM OVC005 12/12 A3012 RMK AO2 SLP204 T01170117=
202401281646 SPECI KPWT 281646Z AUTO 20009KT 10SM OVC005 12/12 A3012 RMK AO2=
202401281614 SPECI KPWT 281614Z AUTO 21011KT 10SM BKN007 OVC017 12/12 A3011 RMK AO2=
202401281604 SPECI KPWT 281604Z AUTO 21010KT 10SM SCT007 OVC019 12/12 A3011 RMK AO2=
202401281556 METAR KPWT 281556Z AUTO 21013KT 10SM BKN019 12/12 A3011 RMK AO2 SLP198 T01170117=
202401281546 SPECI KPWT 281546Z AUTO 21013KT 10SM BKN020 12/12 A3010 RMK AO2=
202401281529 SPECI KPWT 281529Z AUTO 21011KT 10SM SCT007 11/11 A3009 RMK AO2=
202401281456 METAR KPWT 281456Z AUTO 21013G21KT 10SM OVC007 12/12 A3008 RMK AO2 SLP190 60011 T01170117 53021=
202401281356 METAR KPWT 281356Z AUTO 21012G18KT 10SM OVC009 12/12 A3005 RMK AO2 RAE25 CIG 007V012 SLP179 P0001 T01220122=
202401281256 METAR KPWT 281256Z AUTO 22012G18KT 5SM -RA BR BKN007 BKN010 OVC028 12/12 A3003 RMK AO2 CIG 004V009 SLP174 P0010 T01220122=
202401281232 SPECI KPWT 281232Z AUTO 22018G24KT 3SM RA BR OVC007 13/13 A3003 RMK AO2 CIG 004V011 P0005=
202401281156 METAR KPWT 281156Z AUTO 19008KT 8SM -RA OVC005 13/13 A3002 RMK AO2 CIG 004V008 SLP169 P0010 60033 70162 T01280128 10133 20128 50002=
202401281056 METAR KPWT 281056Z AUTO 20013KT 10SM -RA OVC005 13/13 A3002 RMK AO2 SLP169 P0005 T01330133=
202401280956 METAR KPWT 280956Z AUTO 20009G16KT 10SM -RA OVC005 13/13 A3001 RMK AO2 SLP166 P0009 T01330133=
202401280936 SPECI KPWT 280936Z AUTO 20012G15KT 10SM -RA OVC005 13/13 A3001 RMK AO2 P0006=
202401280903 SPECI KPWT 280903Z AUTO 20009KT 9SM -RA BKN007 BKN012 OVC016 13/13 A3001 RMK AO2 CIG 005V010 P0001=
202401280856 METAR KPWT 280856Z AUTO 20009KT 9SM -RA SCT007 BKN011 OVC018 13/13 A3001 RMK AO2 RAB05 SLP166 P0005 60009 T01330133 58007=
202401280839 SPECI KPWT 280839Z AUTO 20006KT 9SM -RA FEW006 BKN018 OVC033 13/13 A3001 RMK AO2 RAB05 P0002=
202401280756 METAR KPWT 280756Z AUTO 21007KT 10SM FEW006 OVC035 13/13 A3003 RMK AO2 RAE48 SLP172 P0003 T01330133 401330083=
202401280736 SPECI KPWT 280736Z AUTO 21007KT 10SM -RA SCT006 SCT017 OVC039 13/13 A3003 RMK AO2 P0003=
202401280719 SPECI KPWT 280719Z AUTO 20007KT 10SM -RA BKN006 OVC012 13/13 A3004 RMK AO2 P0002=
202401280656 METAR KPWT 280656Z AUTO 21009KT 10SM -RA FEW007 OVC014 13/13 A3003 RMK AO2 RAB18 SLP174 P0001 T01330133=
202401280651 SPECI KPWT 280651Z AUTO 20009KT 10SM -RA FEW007 OVC014 13/13 A3003 RMK AO2 RAB18 P0001=
202401280637 SPECI KPWT 280637Z AUTO 21011KT 10SM -RA OVC009 13/13 A3003 RMK AO2 RAB18 CIG 004V012 P0000=
202401280556 METAR KPWT 280556Z AUTO 19011G17KT 10SM OVC005 13/13 A3004 RMK AO2 RAE30 CIG 004V010 SLP177 P0000 60029 T01330133 10133 20128 51005=
202401280507 SPECI KPWT 280507Z AUTO 19012KT 10SM -RA OVC005 13/13 A3004 RMK AO2 P0000=
202401280456 METAR KPWT 280456Z AUTO 20011G18KT 10SM -RA OVC003 13/13 A3004 RMK AO2 SLP175 P0004 T01330133=
202401280356 METAR KPWT 280356Z AUTO 21012KT 4SM -RA BR OVC003 13/13 A3004 RMK AO2 SLP176 P0003 T01330133=
202401280256 METAR KPWT 280256Z AUTO 20008KT 10SM -RA OVC003 13/13 A3003 RMK AO2 SLP172 P0004 60022 T01330133 58003=
202401280233 SPECI KPWT 280233Z AUTO 20008KT 10SM -RA OVC003 13/13 A3003 RMK AO2 P0003=
202401280156 METAR KPWT 280156Z AUTO 20008KT 7SM RA OVC005 13/13 A3003 RMK AO2 SLP174 P0012 T01330133=
202401280056 METAR KPWT 280056Z AUTO 21009KT 7SM -RA OVC005 13/13 A3004 RMK AO2 SLP176 P0006 T01280128=
202401272356 METAR KPWT 272356Z AUTO 19007KT 7SM -RA OVC005 13/13 A3003 RMK AO2 SLP175 P0005 60036 T01280128 10128 20100 58003=
202401272256 METAR KPWT 272256Z AUTO 18008KT 3SM RA BR OVC005 13/13 A3004 RMK AO2 CIG 003V009 SLP178 P0007 T01280128=
202401272156 METAR KPWT 272156Z AUTO 20010KT 3SM -RA BR OVC005 12/12 A3004 RMK AO2 SLP178 P0006 T01220122=
202401272056 METAR KPWT 272056Z AUTO 20008KT 5SM -RA BR OVC005 12/12 A3004 RMK AO2 CIG 004V009 SLP178 P0008 60018 T01170117 51014=
202401271956 METAR KPWT 271956Z AUTO 19011G21KT 8SM -RA OVC005 11/11 A3003 RMK AO2 SLP174 P0003 T01110111=
202401271916 SPECI KPWT 271916Z AUTO 19012G18KT 10SM -RA OVC005 11/11 A3002 RMK AO2 CIG 004V009 P0001=
202401271856 METAR KPWT 271856Z AUTO 19010KT 10SM -RA OVC007 11/11 A3002 RMK AO2 CIG 004V009 SLP172 P0007 T01110111=
202401271836 SPECI KPWT 271836Z AUTO 19005KT 4SM -RA BR BKN007 OVC012 11/11 A3001 RMK AO2 CIG 004V010 P0005=
202401271814 SPECI KPWT 271814Z AUTO VRB03KT 2 1/2SM RA BR BKN005 OVC010 11/11 A3000 RMK AO2 P0002=
202401271808 SPECI KPWT 271808Z AUTO 00000KT 3SM -RA BR SCT005 OVC010 11/11 A3000 RMK AO2 CIG 007V015 P0001=
202401271804 SPECI KPWT 271804Z AUTO 17003KT 3SM RA BR BKN005 OVC012 11/11 A3000 RMK AO2 CIG 003V010 P0000=
202401271802 SPECI KPWT 271802Z AUTO 00000KT 2 1/2SM RA BR SCT005 BKN008 OVC012 11/11 A3000 RMK AO2 VIS 1 1/2V5 P0000=
202401271756 METAR KPWT 271756Z AUTO 00000KT 5SM -RA BR BKN005 OVC010 10/10 A3000 RMK AO2 CIG 003V008 SLP163 P0010 60064 T01000100 10100 20089 55000=
202401271730 SPECI KPWT 271730Z AUTO 00000KT 3SM -RA BR BKN005 OVC011 10/10 A2999 RMK AO2 CIG 004V009 P0007=
202401271653 METAR KPWT 271653Z AUTO 00000KT 2SM -RA BR BKN009 OVC013 09/09 A2999 RMK AO2 CIG 006V011 SLP160 P0013 T00940094=
202401271652 SPECI KPWT 271652Z AUTO 00000KT 2SM -RA BR OVC009 09/09 A2999 RMK AO2 CIG 006V013 P0013=
202401271637 SPECI KPWT 271637Z AUTO 00000KT 1 3/4SM -RA BR BKN011 09/09 A2999 RMK AO2 CIG 008V013 P0011=
202401271605 SPECI KPWT 271605Z AUTO 00000KT 2SM RA BR FEW007 SCT017 09/09 A2999 RMK AO2 P0003=
202401271556 METAR KPWT 271556Z AUTO 00000KT 2 1/2SM RA BR SCT007 BKN011 BKN017 09/09 A2999 RMK AO2 SLP161 P0015 T00940094=
202401271546 SPECI KPWT 271546Z AUTO 00000KT 2 1/2SM RA BR SCT007 BKN011 OVC017 09/09 A2999 RMK AO2 P0012=
202401271538 SPECI KPWT 271538Z AUTO 00000KT 3SM RA BR BKN007 OVC013 09/09 A2999 RMK AO2 CIG 006V011 P0010=
202401271531 SPECI KPWT 271531Z AUTO 13003KT 3SM RA BR SCT007 BKN011 OVC029 09/09 A3000 RMK AO2 P0009=
202401271512 SPECI KPWT 271512Z AUTO 00000KT 4SM -RA BR SCT007 BKN021 OVC029 09/09 A3000 RMK AO2 P0003=
202401271456 METAR KPWT 271456Z AUTO 00000KT 4SM -RA BR BKN007 OVC018 09/09 A3000 RMK AO2 SLP163 P0010 60026 T00890089 58009=
202401271430 SPECI KPWT 271430Z AUTO 00000KT 3SM -RA BR OVC007 09/09 A3001 RMK AO2 P0007=
202401271420 SPECI KPWT 271420Z AUTO 00000KT 2 1/2SM RA BR OVC007 09/09 A3001 RMK AO2 VIS 1 3/4V3 CIG 005V011 P0006=
202401271402 SPECI KPWT 271402Z AUTO 00000KT 3SM RA BR BKN007 OVC011 09/09 A3002 RMK AO2 CIG 004V009 P0002=
202401271356 METAR KPWT 271356Z AUTO 00000KT 1 3/4SM RA BR OVC007 09/09 A3002 RMK AO2 CIG 003V011 SLP170 P0010 T00890089=
202401271346 SPECI KPWT 271346Z AUTO 00000KT 2SM -RA BR FEW003 OVC009 09/09 A3002 RMK AO2 CIG 007V011 P0008=
202401271324 SPECI KPWT 271324Z AUTO 00000KT 3SM RA BR FEW003 BKN009 09/09 A3002 RMK AO2 P0004=
202401271315 SPECI KPWT 271315Z AUTO 00000KT 2 1/2SM -RA BR FEW003 09/09 A3002 RMK AO2 P0002=
202401271256 METAR KPWT 271256Z AUTO 00000KT 1 1/4SM RA BR FEW013 09/09 A3003 RMK AO2 SLP172 P0006 T00890089=
202401271206 SPECI KPWT 271206Z AUTO 00000KT 1 3/4SM -RA BR CLR 09/09 A3004 RMK AO2 P0001=
202401271156 METAR KPWT 271156Z AUTO 00000KT 3SM -RA BR CLR 09/09 A3004 RMK AO2 SLP177 P0002 60009 70058 T00890089 10089 20083 56009=
202401271154 SPECI KPWT 271154Z AUTO 00000KT 2 1/2SM -RA BR CLR 09/09 A3004 RMK AO2 P0002=
202401271125 SPECI KPWT 271125Z AUTO 00000KT 1 1/2SM -RA BR SCT007 SCT021 09/09 A3005 RMK AO2 P0001=
202401271114 SPECI KPWT 271114Z AUTO 00000KT 1 3/4SM -RA BR BKN007 OVC021 09/09 A3005 RMK AO2 P0001=
202401271056 METAR KPWT 271056Z AUTO 00000KT 1 1/2SM -RA BR FEW007 OVC021 08/08 A3006 RMK AO2 SLP184 P0001 T00830083=
202401271051 SPECI KPWT 271051Z AUTO 00000KT 1 3/4SM -RA BR FEW007 OVC021 08/08 A3006 RMK AO2 P0001=
202401271030 SPECI KPWT 271030Z AUTO 00000KT 3SM -RA BR FEW006 OVC019 09/09 A3006 RMK AO2 P0001=
202401271002 SPECI KPWT 271002Z AUTO 00000KT 1 1/2SM -RA BR SCT003 OVC015 09/09 A3007 RMK AO2 P0000=
202401270956 METAR KPWT 270956Z AUTO 00000KT 2 1/2SM -RA BR BKN003 BKN007 OVC015 09/09 A3007 RMK AO2 RAE28B49 SLP186 P0000 T00890089=
202401270926 SPECI KPWT 270926Z AUTO 00000KT 5SM -RA BR OVC003 09/09 A3006 RMK AO2 P0000=
202401270856 METAR KPWT 270856Z AUTO 00000KT 3SM -RA BR BKN005 OVC015 09/09 A3006 RMK AO2 SLP185 P0001 60006 T00890089 50001=
202401270846 SPECI KPWT 270846Z AUTO 00000KT 2 1/2SM -RA BR BKN003 09/09 A3007 RMK AO2 CIG 003V007 P0001=
202401270831 SPECI KPWT 270831Z AUTO 00000KT 2 1/2SM -RA BR FEW005 09/09 A3007 RMK AO2 P0001=
202401270756 METAR KPWT 270756Z AUTO 22003KT 3SM -RA BR CLR 09/09 A3007 RMK AO2 SLP187 P0002 T00890089 401060050=
202401270737 SPECI KPWT 270737Z AUTO 00000KT 2 1/2SM -RA BR CLR 08/08 A3007 RMK AO2 P0002=
202401270723 SPECI KPWT 270723Z AUTO 00000KT 1 1/2SM -RA BR CLR 08/08 A3007 RMK AO2 P0001=
202401270656 METAR KPWT 270656Z AUTO 00000KT 2SM -RA BR SCT004 08/08 A3008 RMK AO2 SLP189 P0003 T00830083=
202401270556 METAR KPWT 270556Z AUTO 00000KT 2 1/2SM -RA BR OVC004 08/08 A3006 RMK AO2 SLP184 P0004 60048 T00830083 10083 20078 53014=
202401270456 METAR KPWT 270456Z AUTO 00000KT 2 1/2SM -RA BR OVC004 08/08 A3004 RMK AO2 SLP177 P0003 T00830083=
202401270426 SPECI KPWT 270426Z AUTO 00000KT 4SM -RA BR OVC004 08/08 A3003 RMK AO2 CIG 003V009 P0001=
202401270356 METAR KPWT 270356Z AUTO 21003KT 6SM -RA BR OVC007 08/08 A3002 RMK AO2 CIG 005V011 SLP171 P0007 T00830083=
202401270256 METAR KPWT 270256Z AUTO 00000KT 7SM RA BKN009 OVC015 08/08 A3002 RMK AO2 CIG 007V013 SLP170 P0017 60034 T00830083 53003=
202401270251 SPECI KPWT 270251Z AUTO 25003KT 6SM RA BR BKN009 OVC017 08/08 A3002 RMK AO2 CIG 007V012 P0016=
202401270229 SPECI KPWT 270229Z AUTO 30003KT 9SM RA FEW009 BKN017 08/08 A3002 RMK AO2 P0009=
202401270156 METAR KPWT 270156Z AUTO 00000KT 6SM RA BR FEW028 08/08 A3001 RMK AO2 SLP167 P0011 T00780078=
202401270128 SPECI KPWT 270128Z AUTO 00000KT 4SM RA BR BKN028 OVC036 08/08 A3001 RMK AO2 P0006=
202401270056 METAR KPWT 270056Z AUTO 00000KT 5SM -RA BR SCT003 BKN030 OVC038 08/08 A3002 RMK AO2 SLP171 P0006 T00830083=
202401270023 SPECI KPWT 270023Z AUTO 26003KT 9SM -RA FEW026 OVC035 08/08 A3002 RMK AO2 P0002=
202401262356 METAR KPWT 262356Z AUTO 25003KT 10SM -RA OVC029 09/09 A3004 RMK AO2 RAB13 SLP177 P0001 60001 T00890089 10106 20078 56012=
202401262256 METAR KPWT 262256Z AUTO 22004KT 10SM BKN029 OVC034 10/09 A3005 RMK AO2 SLP180 T01000089=
202401262156 METAR KPWT 262156Z AUTO 24004KT 10SM OVC040 10/08 A3005 RMK AO2 SLP181 T01000083=
202401262056 METAR KPWT 262056Z AUTO 24005KT 10SM OVC044 10/08 A3007 RMK AO2 SLP188 T01000083 58016=
202401261956 METAR KPWT 261956Z AUTO 22004KT 10SM OVC046 10/08 A3009 RMK AO2 SLP193 T01000078=
202401261856 METAR KPWT 261856Z AUTO 21003KT 10SM OVC050 09/08 A3012 RMK AO2 SLP203 T00940083=
202401261756 METAR KPWT 261756Z AUTO 21003KT 10SM OVC055 08/08 A3012 RMK AO2 SLP205 T00780078 10078 20050 55004=
202401261656 METAR KPWT 261656Z AUTO 00000KT 10SM OVC060 07/07 A3011 RMK AO2 SLP204 T00670067=
202401261623 SPECI KPWT 261623Z AUTO 00000KT 10SM SCT070 06/06 A3012 RMK AO2=
202401261616 SPECI KPWT 261616Z AUTO 00000KT 2SM BR SCT065 06/06 A3012 RMK AO2 VIS 1/2V5=
202401261613 SPECI KPWT 261613Z AUTO 00000KT 1SM BR FEW065 06/06 A3012 RMK AO2 VIS 1/2V5=
202401261602 SPECI KPWT 261602Z AUTO 00000KT 1/2SM FG SCT110 06/06 A3012 RMK AO2=
202401261556 METAR KPWT 261556Z AUTO 00000KT 1SM BR SCT110 06/06 A3013 RMK AO2 SLP207 T00560056=
202401261553 SPECI KPWT 261553Z AUTO 00000KT 1 1/2SM BR SCT110 06/06 A3012 RMK AO2=
202401261456 METAR KPWT 261456Z AUTO 00000KT 10SM OVC037 07/07 A3013 RMK AO2 SLP210 T00670067 58003=
202401261356 METAR KPWT 261356Z AUTO 13003KT 10SM BKN041 06/06 A3014 RMK AO2 SLP214 T00610061=
202401261349 SPECI KPWT 261349Z AUTO 00000KT 3SM BR SCT037 BKN045 06/06 A3015 RMK AO2=
202401261340 SPECI KPWT 261340Z AUTO 00000KT 1 3/4SM BR BKN045 06/06 A3015 RMK AO2=
202401261324 SPECI KPWT 261324Z AUTO 00000KT 3SM BR OVC047 06/06 A3014 RMK AO2=
202401261315 SPECI KPWT 261315Z AUTO 00000KT 1 3/4SM BR BKN047 07/07 A3014 RMK AO2=
202401261256 METAR KPWT 261256Z AUTO 00000KT 5SM BR BKN045 06/06 A3014 RMK AO2 SLP212 T00610061=
202401261238 SPECI KPWT 261238Z AUTO 00000KT 3SM BR FEW002 07/07 A3014 RMK AO2=
202401261230 SPECI KPWT 261230Z AUTO 00000KT 1 1/4SM BR FEW002 07/07 A3014 RMK AO2=
202401261156 METAR KPWT 261156Z AUTO 00000KT 1SM BR FEW002 BKN045 07/07 A3014 RMK AO2 SLP213 60000 70041 T00670067 10083 20067 58007=
202401261147 SPECI KPWT 261147Z AUTO 00000KT 1 1/2SM BR FEW002 07/07 A3014 RMK AO2=
202401261133 SPECI KPWT 261133Z AUTO 00000KT 6SM BR FEW002 07/07 A3014 RMK AO2=
202401261056 METAR KPWT 261056Z AUTO 00000KT 10SM BKN037 07/07 A3015 RMK AO2 SLP214 T00720072=
202401260956 METAR KPWT 260956Z AUTO 21004KT 10SM SCT020 07/07 A3016 RMK AO2 SLP219 T00720072=
202401260924 SPECI KPWT 260924Z AUTO 20006KT 10SM BKN018 08/08 A3016 RMK AO2=
202401260856 METAR KPWT 260856Z AUTO 20006KT 10SM SCT020 08/08 A3016 RMK AO2 RAB14E25 SLP219 P0000 60000 T00780078 50000=
202401260826 SPECI KPWT 260826Z AUTO 19008KT 10SM SCT004 OVC024 08/08 A3017 RMK AO2 RAB14E25 P0000=
202401260756 METAR KPWT 260756Z AUTO 21009KT 9SM OVC004 08/08 A3017 RMK AO2 SLP223 T00830083 400890061=
202401260656 METAR KPWT 260656Z AUTO 20009KT 10SM OVC004 08/08 A3017 RMK AO2 SLP220 T00830083=
202401260556 METAR KPWT 260556Z AUTO 20009KT 10SM OVC004 08/08 A3016 RMK AO2 RAE42 SLP218 P0002 60012 T00830083 10089 20083 52009=
202401260456 METAR KPWT 260456Z AUTO 20010KT 6SM -RA BR OVC004 08/08 A3016 RMK AO2 SLP218 P0001 T00830083=
202401260356 METAR KPWT 260356Z AUTO 20009KT 10SM -RA OVC004 08/08 A3014 RMK AO2 RAB13 SLP212 P0002 T00830083=
202401260316 SPECI KPWT 260316Z AUTO 19010KT 10SM -RA BKN004 BKN015 08/08 A3014 RMK AO2 RAB13 CIG 003V008 P0000=
202401260308 SPECI KPWT 260308Z AUTO 19009KT 10SM SCT004 BKN015 08/08 A3014 RMK AO2=
202401260256 METAR KPWT 260256Z AUTO 19010KT 10SM BKN004 08/08 A3013 RMK AO2 RAE42 SLP210 P0004 60007 T00830083 51014=
202401260156 METAR KPWT 260156Z AUTO 20012KT 9SM -RA OVC004 09/09 A3012 RMK AO2 RAB26 CIG 003V008 SLP205 P0000 T00890089=
202401260056 METAR KPWT 260056Z AUTO 19010KT 8SM OVC004 09/09 A3011 RMK AO2 RAE44 SLP203 P0003 T00890089=
202401260020 SPECI KPWT 260020Z AUTO 19008KT 4SM -RA BR OVC004 09/09 A3010 RMK AO2 P0001=
202401252356 METAR KPWT 252356Z AUTO 20010KT 6SM -RA BR OVC006 09/09 A3009 RMK AO2 CIG 004V009 SLP196 P0003 60009 T00890089 10089 20078 53010=
202401252256 METAR KPWT 252256Z AUTO 19009KT 6SM -RA BR OVC006 09/09 A3008 RMK AO2 CIG 004V009 SLP191 P0004 T00890089=
202401252156 METAR KPWT 252156Z AUTO 18008KT 10SM -RA BKN008 OVC012 09/09 A3007 RMK AO2 CIG 005V010 SLP187 P0001 T00890089=
202401252056 METAR KPWT 252056Z AUTO 18009G17KT 10SM -RA OVC009 09/08 A3006 RMK AO2 RAE24B49 CIG 006V012 SLP186 P0000 60001 T00890083 51011=
202401252010 SPECI KPWT 252010Z AUTO 19011G18KT 10SM -RA OVC009 08/08 A3006 RMK AO2 CIG 008V013 P0000=
202401251956 METAR KPWT 251956Z AUTO 20009G15KT 10SM -RA BKN011 OVC028 08/08 A3006 RMK AO2 RAB03 CIG 008V014 SLP185 P0001 T00830083=
202401251936 SPECI KPWT 251936Z AUTO 19010KT 10SM -RA BKN011 BKN028 OVC036 08/08 A3006 RMK AO2 RAB03 P0001=
202401251856 METAR KPWT 251856Z AUTO 20008KT 10SM BKN009 BKN013 OVC025 08/08 A3006 RMK AO2 RAE52 CIG 007V011 SLP184 P0000 T00830083=
202401251850 SPECI KPWT 251850Z AUTO 19007KT 10SM -RA BKN009 BKN013 OVC033 08/08 A3006 RMK AO2 CIG 007V011 P0000=
202401251812 SPECI KPWT 251812Z AUTO 19010G14KT 10SM -RA SCT007 BKN023 OVC034 08/08 A3004 RMK AO2 P0000=
202401251756 METAR KPWT 251756Z AUTO 19010G16KT 7SM -RA BKN007 OVC019 08/08 A3003 RMK AO2 CIG 004V008 SLP175 P0001 60020 T00780078 10078 20067 53025=
202401251656 METAR KPWT 251656Z AUTO 21009KT 5SM -RA BR OVC005 07/07 A3000 RMK AO2 CIG 004V007 SLP166 P0001 T00720072=
202401251616 SPECI KPWT 251616Z AUTO 19009G15KT 10SM OVC007 07/07 A2998 RMK AO2 RAE16 P0001=
202401251556 METAR KPWT 251556Z AUTO 19008G16KT 9SM -RA OVC005 07/07 A2997 RMK AO2 CIG 004V009 SLP156 P0002 T00720072=
202401251506 SPECI KPWT 251506Z AUTO 18008G17KT 6SM -RA BR OVC005 07/07 A2996 RMK AO2 P0001=
202401251456 METAR KPWT 251456Z AUTO 19010G14KT 7SM -RA OVC007 07/07 A2996 RMK AO2 CIG 004V009 SLP150 P0003 60016 T00720072 53006=
202401251356 METAR KPWT 251356Z AUTO 18009G14KT 10SM -RA OVC007 07/07 A2994 RMK AO2 CIG 005V010 SLP144 P0008 T00720072=
202401251256 METAR KPWT 251256Z AUTO 18008G16KT 9SM -RA BKN009 BKN028 OVC035 07/07 A2994 RMK AO2 CIG 006V013 SLP144 P0005 T00670067=
202401251223 SPECI KPWT 251223Z AUTO 18007KT 8SM -RA BKN013 OVC028 07/07 A2993 RMK AO2 P0001=
202401251207 SPECI KPWT 251207Z AUTO 20005KT 10SM -RA FEW015 OVC028 07/07 A2993 RMK AO2 P0000=
202401251156 METAR KPWT 251156Z AUTO 19007KT 150V210 8SM -RA OVC030 07/07 A2992 RMK AO2 SLP136 P0005 60009 70102 T00670067 10072 20061 53010=
202401251056 METAR KPWT 251056Z AUTO 19006KT 10SM -RA SCT029 BKN037 07/07 A2991 RMK AO2 SLP134 P0002 T00670067=
202401250956 METAR KPWT 250956Z AUTO 19008KT 10SM -RA OVC037 07/07 A2990 RMK AO2 SLP129 P0002 T00670067=
202401250856 METAR KPWT 250856Z AUTO 18004KT 10SM -RA BKN045 OVC050 07/07 A2989 RMK AO2 RAB52 SLP127 P0000 60000 T00670067 51017=
202401250756 METAR KPWT 250756Z AUTO 00000KT 10SM BKN048 07/07 A2987 RMK AO2 SLP122 T00670067 400940028=
202401250656 METAR KPWT 250656Z AUTO 19004KT 10SM FEW044 07/07 A2986 RMK AO2 SLP115 T00670067=
202401250556 METAR KPWT 250556Z AUTO 19008G14KT 10SM CLR 07/07 A2984 RMK AO2 RAE0458 SLP109 P0001 60019 T00720072 10094 20072 53009=
202401250456 METAR KPWT 250456Z AUTO 19006KT 10SM -RA FEW006 SCT055 08/08 A2983 RMK AO2 RAB00 SLP106 P0002 T00780078=
202401250444 SPECI KPWT 250444Z AUTO 18007KT 10SM -RA SCT006 SCT013 BKN036 08/08 A2983 RMK AO2 RAB00 P0002=
202401250437 SPECI KPWT 250437Z AUTO 17007KT 8SM -RA SCT006 BKN013 BKN028 08/08 A2983 RMK AO2 RAB00 P0002=
202401250413 SPECI KPWT 250413Z AUTO 17004KT 10SM -RA FEW006 08/08 A2982 RMK AO2 RAB00 P0000=
202401250356 METAR KPWT 250356Z AUTO 18005KT 10SM FEW023 08/08 A2981 RMK AO2 RAE22 SLP101 P0002 T00780078=
202401250344 SPECI KPWT 250344Z AUTO 18009KT 10SM FEW023 08/08 A2981 RMK AO2 RAE22 P0002=
202401250256 METAR KPWT 250256Z AUTO 20013KT 6SM RA BR SCT005 BKN017 OVC026 08/08 A2981 RMK AO2 SLP100 P0013 60014 T00830083 53020=
202401250250 SPECI KPWT 250250Z AUTO 20009KT 8SM RA SCT005 BKN008 OVC017 08/08 A2981 RMK AO2 CIG 006V011 P0011=
202401250225 SPECI KPWT 250225Z AUTO 19008KT 6SM RA BR BKN003 BKN007 OVC030 09/09 A2979 RMK AO2 P0004=
202401250218 SPECI KPWT 250218Z AUTO 18006KT 10SM -RA SCT003 BKN007 BKN016 09/09 A2979 RMK AO2 CIG 005V010 P0002=
202401250211 SPECI KPWT 250211Z AUTO VRB05KT 9SM -RA BKN003 BKN008 OVC041 09/09 A2979 RMK AO2 P0002=
202401250204 SPECI KPWT 250204Z AUTO 18005KT 6SM RA BR SCT005 BKN008 OVC045 09/09 A2979 RMK AO2 P0002=
202401250156 METAR KPWT 250156Z AUTO 20007KT 10SM -RA FEW005 BKN015 OVC045 09/09 A2979 RMK AO2 RAE03B26 SLP094 P0000 T00890089=
202401250146 SPECI KPWT 250146Z AUTO 20007KT 10SM -RA SCT005 BKN013 BKN035 09/09 A2979 RMK AO2 RAE03B26 P0000=
202401250124 SPECI KPWT 250124Z AUTO 19008KT 10SM BKN005 BKN009 OVC013 09/09 A2978 RMK AO2 RAE03 CIG 003V008 P0000=
202401250111 SPECI KPWT 250111Z AUTO 18005KT 10SM FEW007 BKN013 BKN024 09/09 A2977 RMK AO2 RAE03 P0000=
202401250109 SPECI KPWT 250109Z AUTO 19006KT 10SM BKN013 BKN018 BKN028 09/09 A2977 RMK AO2 RAE03 P0000=
202401250056 METAR KPWT 250056Z AUTO 20011KT 10SM -RA FEW024 SCT037 09/09 A2976 RMK AO2 SLP085 P0001 T00890089=
202401250029 SPECI KPWT 250029Z AUTO 20010KT 10SM FEW006 SCT014 BKN038 09/09 A2976 RMK AO2 RAE26 P0001=
202401250024 SPECI KPWT 250024Z AUTO 20011KT 10SM -RA SCT006 BKN012 BKN019 09/09 A2975 RMK AO2 P0001=
202401250003 SPECI KPWT 250003Z AUTO 20009KT 10SM BKN006 BKN011 OVC031 09/09 A2975 RMK AO2 RAE02 CIG 005V009 P0000=
202401242356 METAR KPWT 242356Z AUTO 20010KT 10SM -RA SCT006 BKN018 OVC031 09/09 A2975 RMK AO2 SLP080 P0003 60027 T00940094 10094 20061 53005=
202401242256 METAR KPWT 242256Z AUTO 20006KT 3SM RA BR BKN006 BKN011 OVC020 08/08 A2974 RMK AO2 CIG 003V009 SLP077 P0010 T00830083=
202401242246 SPECI KPWT 242246Z AUTO VRB06KT 4SM -RA BR BKN006 BKN011 OVC024 09/09 A2974 RMK AO2 CIG 004V010 P0004=
202401242231 SPECI KPWT 242231Z AUTO 17004KT 9SM -RA FEW006 BKN011 BKN028 09/09 A2973 RMK AO2 CIG 008V013 P0003=
202401242223 SPECI KPWT 242223Z AUTO 17005KT 10SM -RA SCT007 SCT011 BKN028 09/09 A2974 RMK AO2 P0003=
202401242156 METAR KPWT 242156Z AUTO 19006KT 10SM -RA OVC007 08/08 A2974 RMK AO2 CIG 003V011 SLP076 P0003 T00830083=
202401242153 SPECI KPWT 242153Z AUTO 19007KT 10SM -RA SCT004 OVC009 08/08 A2974 RMK AO2 CIG 007V011 P0003=
202401242056 METAR KPWT 242056Z AUTO 21004KT 3SM -RA BR OVC003 08/08 A2974 RMK AO2 SLP076 P0002 60011 T00780078 51004=
202401242030 SPECI KPWT 242030Z AUTO 21003KT 10SM -RA OVC003 07/07 A2973 RMK AO2 P0001=
202401241956 METAR KPWT 241956Z AUTO 20004KT 4SM -RA BR OVC005 07/07 A2973 RMK AO2 CIG 004V009 SLP074 P0004 T00670067=
202401241949 SPECI KPWT 241949Z AUTO 18003KT 3SM -RA BR OVC005 07/07 A2973 RMK AO2 CIG 004V009 P0004=
202401241934 SPECI KPWT 241934Z AUTO 00000KT 1 3/4SM -RA BR BKN007 OVC012 07/07 A2974 RMK AO2 CIG 005V009 P0003=
202401241925 SPECI KPWT 241925Z AUTO 00000KT 1 3/4SM -RA BR OVC010 07/07 A2974 RMK AO2 CIG 006V012 P0002=
202401241916 SPECI KPWT 241916Z AUTO 00000KT 3SM -RA BR BKN010 OVC014 07/07 A2974 RMK AO2 CIG 006V012 P0001=
202401241908 SPECI KPWT 241908Z AUTO 00000KT 1 1/2SM -RA BR BKN010 OVC014 07/07 A2974 RMK AO2 CIG 006V012 P0001=
202401241856 METAR KPWT 241856Z AUTO 00000KT 2SM -RA BR BKN010 OVC014 07/07 A2974 RMK AO2 CIG 006V013 SLP076 P0005 T00670067=
202401241843 SPECI KPWT 241843Z AUTO 00000KT 1 1/2SM -RA BR OVC012 07/07 A2974 RMK AO2 P0003=
202401241836 SPECI KPWT 241836Z AUTO 00000KT 2SM -RA BR BKN010 BKN015 BKN020 07/07 A2974 RMK AO2 CIG 009V012 P0003=
202401241829 SPECI KPWT 241829Z AUTO 00000KT 3SM -RA BR BKN012 06/06 A2974 RMK AO2 P0002=
202401241756 METAR KPWT 241756Z AUTO 00000KT 3SM -RA BR CLR 06/06 A2973 RMK AO2 SLP073 P0004 60047 T00610061 10061 20050 53002=
202401241737 SPECI KPWT 241737Z AUTO 29004KT 2SM -RA BR CLR 06/06 A2973 RMK AO2 P0002=
202401241656 METAR KPWT 241656Z AUTO 00000KT 4SM -RA BR CLR 06/06 A2972 RMK AO2 SLP069 P0004 T00610061=
202401241652 SPECI KPWT 241652Z AUTO 00000KT 4SM -RA BR CLR 06/06 A2972 RMK AO2 P0004=
202401241637 SPECI KPWT 241637Z AUTO 00000KT 2 1/2SM -RA BR FEW023 06/06 A2972 RMK AO2 P0003=
202401241622 SPECI KPWT 241622Z AUTO 00000KT 1 3/4SM -RA BR FEW023 06/06 A2972 RMK AO2 P0002=
202401241613 SPECI KPWT 241613Z AUTO 00000KT 2 1/2SM -RA BR SCT023 BKN029 06/06 A2972 RMK AO2 P0001=
202401241606 SPECI KPWT 241606Z AUTO 00000KT 4SM -RA BR FEW012 SCT025 SCT030 06/06 A2972 RMK AO2 P0001=
202401241556 METAR KPWT 241556Z AUTO 00000KT 4SM -RA BR FEW012 BKN025 BKN030 06/06 A2972 RMK AO2 SLP070 P0010 T00560056=
202401241526 SPECI KPWT 241526Z AUTO 31004KT 10SM RA BKN029 06/06 A2973 RMK AO2 P0005=
202401241456 METAR KPWT 241456Z AUTO 00000KT 6SM RA BR CLR 06/06 A2973 RMK AO2 SLP074 P0011 60029 T00560056 56019=
202401241356 METAR KPWT 241356Z AUTO 00000KT 8SM RA BKN035 06/06 A2974 RMK AO2 SLP076 P0009 T00560056=
202401241256 METAR KPWT 241256Z AUTO 00000KT 10SM -RA FEW038 06/06 A2976 RMK AO2 SLP083 P0009 T00610061=
202401241156 METAR KPWT 241156Z AUTO 00000KT 10SM -RA OVC037 05/05 A2979 RMK AO2 SLP092 P0003 60003 70004 T00500050 10050 20022 56018=
202401241056 METAR KPWT 241056Z AUTO 00000KT 10SM -RA SCT044 05/05 A2980 RMK AO2 RAB28 SLP096 P0000 T00500050=
202401240956 METAR KPWT 240956Z AUTO 00000KT 10SM FEW040 04/04 A2982 RMK AO2 SLP102 T00440044=
202401240856 METAR KPWT 240856Z AUTO 00000KT 10SM OVC038 04/04 A2984 RMK AO2 SLP111 T00390039 58023=
202401240756 METAR KPWT 240756Z AUTO 00000KT 9SM CLR 03/03 A2987 RMK AO2 SLP119 T00330033 401110022=
202401240705 SPECI KPWT 240705Z AUTO 00000KT 9SM CLR 03/03 A2989 RMK AO2=
202401240656 METAR KPWT 240656Z AUTO 00000KT 2SM BR CLR 03/03 A2989 RMK AO2 SLP127 T00280028=
202401240641 SPECI KPWT 240641Z AUTO 00000KT 3SM BR CLR 03/03 A2989 RMK AO2=
202401240626 SPECI KPWT 240626Z AUTO 00000KT 1 1/2SM BR CLR 02/02 A2989 RMK AO2 VIS 1/2V5 FZRANO=
202401240556 METAR KPWT 240556Z AUTO 00000KT 5SM BR FEW025 03/03 A2991 RMK AO2 SLP135 T00280028 10089 20022 58009=
202401240545 SPECI KPWT 240545Z AUTO 00000KT 3SM BR SCT023 03/03 A2991 RMK AO2=
202401240537 SPECI KPWT 240537Z AUTO 00000KT 2 1/2SM BR BKN023 03/03 A2992 RMK AO2=
202401240522 SPECI KPWT 240522Z AUTO 00000KT 8SM SCT021 03/03 A2992 RMK AO2=
202401240515 SPECI KPWT 240515Z AUTO 00000KT 10SM SCT021 BKN028 03/03 A2992 RMK AO2=
202401240504 SPECI KPWT 240504Z AUTO 00000KT 10SM FEW024 BKN030 04/04 A2992 RMK AO2=
202401240456 METAR KPWT 240456Z AUTO 00000KT 10SM BKN028 04/04 A2992 RMK AO2 SLP139 T00390039=
202401240429 SPECI KPWT 240429Z AUTO 00000KT 3SM BR BKN034 04/04 A2993 RMK AO2=
202401240415 SPECI KPWT 240415Z AUTO 00000KT 1 3/4SM BR CLR 04/04 A2993 RMK AO2 VIS 3/4V5=
202401240356 METAR KPWT 240356Z AUTO 22003KT 10SM FEW049 05/05 A2993 RMK AO2 SLP141 T00500050=
202401240256 METAR KPWT 240256Z AUTO 15004KT 10SM FEW050 07/07 A2994 RMK AO2 SLP143 T00670067 50002=
202401240156 METAR KPWT 240156Z AUTO 21005KT 10SM BKN050 07/07 A2994 RMK AO2 SLP145 T00670067=
202401240056 METAR KPWT 240056Z AUTO 20008KT 10SM BKN046 08/07 A2994 RMK AO2 SLP142 T00830067=
202401232356 METAR KPWT 232356Z AUTO 22011KT 10SM FEW022 09/07 A2993 RMK AO2 SLP140 T00890072 10111 20083 53003=
202401232256 METAR KPWT 232256Z AUTO 23010KT 10SM FEW017 10/08 A2992 RMK AO2 SLP137 T01000078=
202401232252 SPECI KPWT 232252Z AUTO 22010KT 10SM SCT017 10/08 A2992 RMK AO2=
202401232234 SPECI KPWT 232234Z AUTO 21012KT 10SM SCT019 BKN024 BKN047 09/08 A2992 RMK AO2=
202401232156 METAR KPWT 232156Z AUTO 21012KT 10SM FEW015 10/08 A2992 RMK AO2 SLP136 T01000083=
202401232056 METAR KPWT 232056Z AUTO 22014KT 10SM FEW033 10/08 A2992 RMK AO2 SLP136 T01000078 53002=
202401232031 SPECI KPWT 232031Z AUTO 21011KT 10SM SCT014 SCT025 BKN032 09/08 A2992 RMK AO2=
202401231956 METAR KPWT 231956Z AUTO 20013G19KT 10SM BKN012 11/09 A2991 RMK AO2 SLP133 T01060089=
202401231951 SPECI KPWT 231951Z AUTO 20014G19KT 10SM BKN012 11/09 A2991 RMK AO2=
202401231856 METAR KPWT 231856Z AUTO 21012KT 10SM FEW009 09/08 A2991 RMK AO2 SLP134 T00890083=
202401231847 SPECI KPWT 231847Z AUTO 21012KT 10SM SCT007 09/08 A2991 RMK AO2=
202401231833 SPECI KPWT 231833Z AUTO 21013G20KT 10SM BKN007 BKN013 09/09 A2990 RMK AO2 CIG 005V010=
202401231821 SPECI KPWT 231821Z AUTO 20010KT 10SM OVC005 09/09 A2990 RMK AO2=
202401231756 METAR KPWT 231756Z AUTO 21011KT 10SM BKN007 OVC010 09/09 A2989 RMK AO2 SLP126 60001 T00890089 10089 20089 53020=
202401231656 METAR KPWT 231656Z AUTO 20009KT 10SM OVC005 09/09 A2986 RMK AO2 SLP117 T00890089=
202401231619 SPECI KPWT 231619Z AUTO 20012KT 10SM OVC005 09/09 A2985 RMK AO2 CIG 003V008=
202401231556 METAR KPWT 231556Z AUTO 20012KT 10SM OVC003 09/09 A2984 RMK AO2 SLP110 T00890089=
202401231456 METAR KPWT 231456Z AUTO 20007KT 8SM OVC003 09/ A2983 RMK AO2 RAB15E37 SLP106 P0000 60001 T0089 53016=
202401231356 METAR KPWT 231356Z AUTO 20008KT 4SM BR OVC003 09/09 A2981 RMK AO2 SLP100 T00890089=
202401231256 METAR KPWT 231256Z AUTO 19007KT 10SM OVC003 09/09 A2979 RMK AO2 RAB13E32 SLP093 P0001 T00890089=
202401231156 METAR KPWT 231156Z AUTO 19006KT 9SM OVC003 09/09 A2978 RMK AO2 RAE09 SLP090 P0000 60001 70035 T00890089 10089 20067 53008=
202401231056 METAR KPWT 231056Z AUTO 20009KT 7SM -RA OVC003 09/09 A2977 RMK AO2 RAB37 SLP087 P0001 T00890089=
202401230956 METAR KPWT 230956Z AUTO 20009KT 10SM OVC003 09/09 A2976 RMK AO2 SLP084 T00890089=
202401230923 SPECI KPWT 230923Z AUTO 20007KT 3SM BR OVC003 08/08 A2976 RMK AO2=
202401230918 SPECI KPWT 230918Z AUTO 21005KT 1 1/4SM BR OVC003 08/08 A2976 RMK AO2=
202401230908 SPECI KPWT 230908Z AUTO 21005KT 3/4SM BR OVC003 08/08 A2976 RMK AO2=
202401230859 SPECI KPWT 230859Z AUTO 22005KT 1 3/4SM BR OVC003 08/08 A2976 RMK AO2=
202401230856 METAR KPWT 230856Z AUTO 22005KT 3SM BR BKN003 OVC013 08/08 A2976 RMK AO2 SLP081 T00830083 51008=
202401230847 SPECI KPWT 230847Z AUTO 20006KT 9SM BKN003 OVC013 08/08 A2976 RMK AO2=
202401230830 SPECI KPWT 230830Z AUTO 22004KT 5SM BR SCT003 OVC013 08/08 A2975 RMK AO2=
202401230756 METAR KPWT 230756Z AUTO 20004KT 3SM BR BKN003 OVC016 07/07 A2975 RMK AO2 SLP079 T00720072 401000061=
202401230754 SPECI KPWT 230754Z AUTO 20003KT 2 1/2SM BR OVC003 07/07 A2975 RMK AO2 401000061=
202401230740 SPECI KPWT 230740Z AUTO 20003KT 6SM BR BKN003 BKN017 08/08 A2974 RMK AO2=
202401230729 SPECI KPWT 230729Z AUTO 19004KT 4SM BR SCT003 BKN017 07/07 A2974 RMK AO2=
202401230722 SPECI KPWT 230722Z AUTO 19004KT 2 1/2SM BR SCT003 07/07 A2974 RMK AO2=
202401230713 SPECI KPWT 230713Z AUTO 00000KT 1 1/2SM BR BKN003 07/07 A2974 RMK AO2 VIS 3/4V5=
202401230703 SPECI KPWT 230703Z AUTO 21003KT 3SM BR OVC003 08/08 A2973 RMK AO2=
202401230656 METAR KPWT 230656Z AUTO 20004KT 2 1/2SM BR OVC003 08/08 A2973 RMK AO2 SLP073 T00780078=
202401230654 SPECI KPWT 230654Z AUTO 19004KT 2SM BR OVC003 08/08 A2973 RMK AO2=
202401230642 SPECI KPWT 230642Z AUTO 21003KT 1SM BR OVC003 07/07 A2973 RMK AO2=
202401230624 SPECI KPWT 230624Z AUTO 21003KT 1 3/4SM BR BKN003 07/07 A2972 RMK AO2=
202401230616 SPECI KPWT 230616Z AUTO 22004KT 9SM BKN003 07/07 A2972 RMK AO2=
202401230556 METAR KPWT 230556Z AUTO 22004KT 10SM SCT003 07/07 A2972 RMK AO2 SLP069 60000 T00720072 10094 20072 51013=
202401230535 SPECI KPWT 230535Z AUTO 22006KT 10SM SCT016 08/08 A2971 RMK AO2=
202401230456 METAR KPWT 230456Z AUTO 21008KT 10SM FEW005 BKN016 09/09 A2971 RMK AO2 RAB19E36 SLP065 P0000 T00890089=
202401230356 METAR KPWT 230356Z AUTO 21007KT 10SM BKN005 OVC020 09/09 A2970 RMK AO2 CIG 004V010 SLP061 T00890089=
202401230303 SPECI KPWT 230303Z AUTO 21006KT 10SM BKN005 BKN015 OVC020 09/09 A2968 RMK AO2 CIG 004V008=
202401230256 METAR KPWT 230256Z AUTO 21006KT 10SM SCT005 BKN013 OVC031 09/09 A2968 RMK AO2 SLP056 60000 T00890089 51023=
202401230247 SPECI KPWT 230247Z AUTO 21008KT 10SM SCT007 BKN013 OVC020 09/09 A2968 RMK AO2=
202401230229 SPECI KPWT 230229Z AUTO 21008KT 10SM BKN011 BKN027 09/09 A2967 RMK AO2=
202401230156 METAR KPWT 230156Z AUTO 20012KT 10SM SCT006 BKN015 OVC029 09/09 A2966 RMK AO2 SLP049 T00890089=
202401230133 SPECI KPWT 230133Z AUTO 21012KT 10SM BKN006 BKN015 OVC022 09/09 A2965 RMK AO2 CIG 005V009=
202401230117 SPECI KPWT 230117Z AUTO 20011KT 10SM SCT006 BKN015 OVC020 09/09 A2965 RMK AO2=
202401230056 METAR KPWT 230056Z AUTO 20010KT 10SM BKN006 OVC009 09/09 A2964 RMK AO2 RAB44E56 CIG 004V009 SLP041 P0000 T00940094=
202401222356 METAR KPWT 222356Z AUTO 21011KT 10SM BKN007 BKN012 BKN060 10/10 A2961 RMK AO2 CIG 007V010 SLP032 60012 T01000100 10100 20072 53023=
202401222342 SPECI KPWT 222342Z AUTO 21011KT 10SM SCT006 BKN011 BKN060 10/10 A2961 RMK AO2=
202401222256 METAR KPWT 222256Z AUTO 20011G17KT 10SM BKN006 OVC011 10/10 A2959 RMK AO2 RAE35 CIG 004V009 SLP024 P0000 T01000100=
202401222228 SPECI KPWT 222228Z AUTO 19011KT 10SM -RA OVC006 09/09 A2958 RMK AO2 CIG 004V008 P0000=
202401222156 METAR KPWT 222156Z AUTO 19011G18KT 10SM -RA OVC004 09/09 A2956 RMK AO2 CIG 003V008 SLP015 P0003 T00940094=
202401222056 METAR KPWT 222056Z AUTO 19012G18KT 10SM -RA OVC004 09/09 A2954 RMK AO2 SLP010 P0003 60009 T00890089 51016=
202401221956 METAR KPWT 221956Z AUTO 19010KT 4SM -RA BR OVC004 08/08 A2953 RMK AO2 SLP006 P0005 T00830083=
202401221856 METAR KPWT 221856Z AUTO 20008KT 5SM -RA BR OVC004 08/08 A2952 RMK AO2 CIG 003V007 SLP001 P0001 T00830083=
202401221828 SPECI KPWT 221828Z AUTO 18003KT 3SM -RA BR BKN004 OVC012 08/08 A2951 RMK AO2 CIG 003V009 P0001=
202401221813 SPECI KPWT 221813Z AUTO 14003KT 2 1/2SM -RA BR SCT006 OVC012 07/07 A2950 RMK AO2 P0000=
202401221806 SPECI KPWT 221806Z AUTO 17003KT 5SM -RA BR BKN009 OVC015 07/07 A2950 RMK AO2 CIG 007V012 P0000=
202401221756 METAR KPWT 221756Z AUTO 00000KT 10SM -RA SCT009 BKN013 OVC019 07/07 A2950 RMK AO2 SLP993 P0007 60022 T00720072 10072 20061 53023=
202401221753 SPECI KPWT 221753Z AUTO 00000KT 10SM -RA SCT009 BKN015 OVC019 07/07 A2949 RMK AO2 P0007=
202401221739 SPECI KPWT 221739Z AUTO 00000KT 5SM -RA BR SCT015 OVC019 07/07 A2949 RMK AO2 P0006=
202401221732 SPECI KPWT 221732Z AUTO 08004KT 3SM RA BR FEW010 BKN014 OVC019 07/07 A2948 RMK AO2 P0005=
202401221723 SPECI KPWT 221723Z AUTO 07003KT 2 1/2SM -RA BR BKN014 OVC021 07/07 A2948 RMK AO2 P0004=
202401221706 SPECI KPWT 221706Z AUTO 09003KT 1 1/2SM -RA BR BKN011 OVC016 07/07 A2948 RMK AO2 P0002=
202401221656 METAR KPWT 221656Z AUTO 00000KT 2SM RA BR SCT011 BKN016 BKN029 07/07 A2947 RMK AO2 SLP984 P0008 T00670067=
202401221646 SPECI KPWT 221646Z AUTO VRB03KT 2 1/2SM RA BR FEW011 SCT018 BKN028 07/07 A2946 RMK AO2 P0005=
202401221637 SPECI KPWT 221637Z AUTO 04004KT 3SM -RA BR FEW030 07/07 A2945 RMK AO2 P0003=
202401221629 SPECI KPWT 221629Z AUTO 04003KT 2 1/2SM -RA BR CLR 07/07 A2945 RMK AO2 P0003=
202401221606 SPECI KPWT 221606Z AUTO 00000KT 9SM -RA SCT022 07/07 A2944 RMK AO2 P0001=
202401221556 METAR KPWT 221556Z AUTO 00000KT 10SM -RA BKN022 07/07 A2944 RMK AO2 SLP974 P0001 T00670067=
202401221536 SPECI KPWT 221536Z AUTO 00000KT 10SM -RA BKN027 BKN031 06/06 A2943 RMK AO2 P0000=
202401221456 METAR KPWT 221456Z AUTO 00000KT 10SM -RA OVC036 07/07 A2943 RMK AO2 RAB52 SLP970 P0000 60006 T00670067 55001=
202401221415 SPECI KPWT 221415Z AUTO 00000KT 10SM BKN032 BKN042 06/06 A2942 RMK AO2=
202401221356 METAR KPWT 221356Z AUTO 00000KT 2 1/2SM BR SCT032 06/06 A2943 RMK AO2 RAE34 SLP969 P0001 T00610061=
202401221340 SPECI KPWT 221340Z AUTO 00000KT 2SM BR FEW024 06/06 A2943 RMK AO2 VIS 1V5 RAE34 P0001=
202401221256 METAR KPWT 221256Z AUTO 00000KT 9SM -RA CLR 06/06 A2943 RMK AO2 SLP970 P0005 T00610061=
202401221214 SPECI KPWT 221214Z AUTO 34005KT 3SM -RA BR SCT023 07/07 A2943 RMK AO2 P0003=
202401221211 SPECI KPWT 221211Z AUTO 33006KT 2 1/2SM -RA BR BKN023 07/07 A2943 RMK AO2 P0002=
202401221156 METAR KPWT 221156Z AUTO 34003KT 5SM -RA BR OVC025 07/07 A2943 RMK AO2 SLP971 P0012 60040 70138 T00670067 10067 20061 55004=
202401221146 SPECI KPWT 221146Z AUTO 03003KT 8SM RA OVC028 07/07 A2943 RMK AO2 P0010=
202401221056 METAR KPWT 221056Z AUTO 03004KT 7SM RA SCT034 06/06 A2943 RMK AO2 SLP970 P0009 T00610061=
202401220956 METAR KPWT 220956Z AUTO 03004KT 10SM -RA CLR 06/06 A2943 RMK AO2 SLP971 P0006 T00610061=
202401220856 METAR KPWT 220856Z AUTO 02004KT 9SM -RA CLR 06/06 A2944 RMK AO2 SLP975 P0006 60013 T00610061 58011=
202401220756 METAR KPWT 220756Z AUTO 00000KT 10SM -RA CLR 06/06 A2946 RMK AO2 SLP980 P0002 T00610061 400780044=
202401220656 METAR KPWT 220656Z AUTO 04004KT 10SM -RA CLR 07/07 A2947 RMK AO2 SLP986 P0005 T00670067=
202401220556 METAR KPWT 220556Z AUTO 04003KT 6SM -RA BR CLR 06/06 A2948 RMK AO2 SLP988 P0004 60051 T00610061 10078 20061 56006=
202401220456 METAR KPWT 220456Z AUTO 04004KT 5SM -RA BR FEW018 SCT025 07/07 A2948 RMK AO2 RAB0357 SLP989 P0011 T00670067=
202401220440 SPECI KPWT 220440Z AUTO 00000KT 3SM RA BR FEW003 BKN018 OVC027 07/07 A2949 RMK AO2 RAB0357 P0008=
202401220429 SPECI KPWT 220429Z AUTO 00000KT 2SM RA BR BKN018 OVC027 07/07 A2949 RMK AO2 RAB0357 P0005=
202401220419 SPECI KPWT 220419Z AUTO 00000KT 3SM -RA BR FEW002 BKN026 OVC031 07/07 A2949 RMK AO2 RAB0357 P0003=
202401220412 SPECI KPWT 220412Z AUTO 00000KT 3SM -RA BR FEW002 SCT018 OVC031 07/07 A2949 RMK AO2 RAB0357 P0002=
202401220409 SPECI KPWT 220409Z AUTO 06003KT 2 1/2SM -RA BR FEW002 BKN018 OVC031 07/07 A2949 RMK AO2 RAB0357 P0002=
202401220403 SPECI KPWT 220403Z AUTO 00000KT 5SM -RA BR FEW002 SCT016 OVC031 07/07 A2949 RMK AO2 RAB0357 P0001=
202401220356 METAR KPWT 220356Z AUTO 00000KT 10SM BKN031 07/07 A2949 RMK AO2 RAE48 SLP991 P0008 T00670067=
202401220325 SPECI KPWT 220325Z AUTO 05005KT 9SM -RA FEW020 BKN030 BKN037 07/07 A2948 RMK AO2 P0007=
202401220318 SPECI KPWT 220318Z AUTO 06006KT 7SM -RA FEW002 SCT023 BKN028 07/07 A2948 RMK AO2 P0006=
202401220256 METAR KPWT 220256Z AUTO 08004KT 4SM RA BR FEW002 SCT013 SCT031 07/07 A2949 RMK AO2 SLP994 P0008 60028 T00720072 53002=
202401220156 METAR KPWT 220156Z AUTO 04006KT 5SM -RA BR FEW033 07/07 A2948 RMK AO2 SLP990 P0017 T00670067=
202401220136 SPECI KPWT 220136Z AUTO 04004KT 5SM -RA BR SCT003 SCT009 07/07 A2949 RMK AO2 P0014=
202401220128 SPECI KPWT 220128Z AUTO 00000KT 5SM RA BR BKN003 BKN009 07/07 A2950 RMK AO2 P0012=
202401220116 SPECI KPWT 220116Z AUTO 31003KT 6SM RA BR FEW003 BKN009 BKN013 07/07 A2950 RMK AO2 CIG 007V011 P0007=
202401220056 METAR KPWT 220056Z AUTO VRB05KT 2 1/2SM RA BR OVC009 07/07 A2949 RMK AO2 VIS 1 3/4V5 RAB43 CIG 008V013 SLP992 P0003 T00720072=
202401220050 SPECI KPWT 220050Z AUTO 00000KT 2 1/2SM -RA BR BKN009 BKN029 07/07 A2949 RMK AO2 VIS 1 3/4V3 RAB43 CIG 008V013 P0001=
202401220046 SPECI KPWT 220046Z AUTO 00000KT 3SM -RA BR BKN011 BKN039 07/07 A2950 RMK AO2 RAB43 CIG 008V012 P0000=
202401212356 METAR KPWT 212356Z AUTO 00000KT 10SM CLR 07/07 A2949 RMK AO2 RAE50 SLP992 P0002 60033 T00720072 10072 20061 55001=
202401212256 METAR KPWT 212256Z AUTO 00000KT 5SM -RA BR CLR 07/07 A2948 RMK AO2 SLP990 P0003 T00670067=
202401212214 SPECI KPWT 212214Z AUTO 00000KT 6SM -RA BR FEW025 07/07 A2948 RMK AO2 P0001=
202401212156 METAR KPWT 212156Z AUTO 00000KT 2 1/2SM -RA BR SCT025 07/07 A2948 RMK AO2 VIS 2V4 SLP989 P0002 T00670067=
202401212149 SPECI KPWT 212149Z AUTO 00000KT 4SM -RA BR BKN025 07/07 A2948 RMK AO2 P0001=
202401212056 METAR KPWT 212056Z AUTO 03004KT 10SM -RA SCT030 07/07 A2949 RMK AO2 SLP992 P0006 60026 T00670067 58006=
202401211956 METAR KPWT 211956Z AUTO 36003KT 10SM -RA FEW030 07/07 A2950 RMK AO2 SLP996 P0013 T00670067=
202401211946 SPECI KPWT 211946Z AUTO 00000KT 6SM -RA BR BKN030 07/07 A2950 RMK AO2 P0012=
202401211934 SPECI KPWT 211934Z AUTO 00000KT 2SM RA BR FEW021 BKN030 OVC034 07/07 A2951 RMK AO2 P0010=
202401211923 SPECI KPWT 211923Z AUTO 00000KT 3SM RA BR BKN028 BKN036 07/07 A2951 RMK AO2 P0006=
202401211856 METAR KPWT 211856Z AUTO 00000KT 4SM -RA BR BKN030 OVC036 07/07 A2951 RMK AO2 SLP999 P0007 T00670067=
202401211827 SPECI KPWT 211827Z AUTO 00000KT 4SM -RA BR BKN032 07/07 A2951 RMK AO2 P0003=
202401211817 SPECI KPWT 211817Z AUTO 00000KT 2 1/2SM -RA BR BKN032 07/07 A2951 RMK AO2 VIS 1 1/2V4 P0002=
202401211756 METAR KPWT 211756Z AUTO 00000KT 1 1/2SM -RA BR OVC032 06/06 A2951 RMK AO2 RAB40 SLP998 P0001 60014 T00610061 10061 20044 50000=
202401211751 SPECI KPWT 211751Z AUTO 00000KT 1 3/4SM -RA BR OVC032 06/06 A2951 RMK AO2 VIS 1 1/4V4 RAB40 P0000=
202401211736 SPECI KPWT 211736Z AUTO 00000KT 4SM BR OVC034 06/06 A2951 RMK AO2=
202401211733 SPECI KPWT 211733Z AUTO 00000KT 1 1/4SM BR OVC034 06/06 A2950 RMK AO2=
202401211725 SPECI KPWT 211725Z AUTO 00000KT 3/4SM BR OVC032 06/06 A2950 RMK AO2 VIS 1/2V5=
202401211722 SPECI KPWT 211722Z AUTO 00000KT 1 1/2SM BR OVC032 06/06 A2950 RMK AO2 VIS 1/2V5=
202401211713 SPECI KPWT 211713Z AUTO 00000KT 3SM BR OVC030 06/06 A2950 RMK AO2=
202401211708 SPECI KPWT 211708Z AUTO 00000KT 1 1/4SM BR OVC028 06/06 A2950 RMK AO2 VIS 1/2V5=
202401211656 METAR KPWT 211656Z AUTO 00000KT 3/4SM BR OVC026 06/06 A2951 RMK AO2 SLP998 T00560056=
202401211647 SPECI KPWT 211647Z AUTO 00000KT 1SM BR OVC026 06/06 A2951 RMK AO2 VIS 1/2V4=
202401211633 SPECI KPWT 211633Z AUTO 00000KT 5SM BR OVC024 06/06 A2951 RMK AO2=
202401211626 SPECI KPWT 211626Z AUTO 05003KT 2SM BR OVC024 05/05 A2951 RMK AO2=
202401211623 SPECI KPWT 211623Z AUTO 00000KT 1SM BR OVC024 05/05 A2951 RMK AO2=
202401211556 METAR KPWT 211556Z AUTO 00000KT 1/2SM FG OVC029 04/04 A2951 RMK AO2 RAB05E48 SLP999 P0000 T00440044=
202401211551 SPECI KPWT 211551Z AUTO 00000KT 3/4SM BR FEW018 OVC029 05/05 A2950 RMK AO2 RAB05E48 P0000=
202401211544 SPECI KPWT 211544Z AUTO 00000KT 1 3/4SM -RA BR FEW014 BKN024 OVC029 05/05 A2950 RMK AO2 VIS 1/2V4 RAB05 P0000=
202401211542 SPECI KPWT 211542Z AUTO 00000KT 3SM -RA BR FEW014 OVC027 05/05 A2950 RMK AO2 RAB05 P0000=
202401211528 SPECI KPWT 211528Z AUTO 00000KT 1 3/4SM -RA BR FEW002 BKN015 OVC024 05/05 A2951 RMK AO2 VIS 1V4 RAB05 P0000=
202401211456 METAR KPWT 211456Z AUTO 00000KT 3SM BR SCT002 BKN019 05/05 A2951 RMK AO2 RAE47 SLP000 P0001 60013 T00500050 50002=
202401211438 SPECI KPWT 211438Z AUTO 00000KT 3SM -RA BR FEW002 04/04 A2951 RMK AO2 P0001=
202401211356 METAR KPWT 211356Z AUTO 00000KT 4SM -RA BR CLR 05/05 A2951 RMK AO2 SLP001 P0005 T00500050=
202401211346 SPECI KPWT 211346Z AUTO 00000KT 3SM -RA BR CLR 05/05 A2952 RMK AO2 P0004=
202401211339 SPECI KPWT 211339Z AUTO 00000KT 2 1/2SM -RA BR CLR 05/05 A2951 RMK AO2 VIS 1 1/2V5 P0004=
202401211330 SPECI KPWT 211330Z AUTO 00000KT 1 3/4SM -RA BR CLR 05/05 A2951 RMK AO2 VIS 1 1/4V4 P0003=
202401211256 METAR KPWT 211256Z AUTO 36003KT 6SM -RA BR CLR 05/05 A2951 RMK AO2 SLP999 P0007 T00500050=
202401211156 METAR KPWT 211156Z AUTO 00000KT 4SM -RA BR CLR 05/05 A2951 RMK AO2 SLP998 P0006 60038 70047 T00500050 10050 20044 53002=
202401211132 SPECI KPWT 211132Z AUTO 00000KT 4SM RA BR SCT008 05/05 A2951 RMK AO2 P0003=
202401211121 SPECI KPWT 211121Z AUTO 00000KT 3SM -RA BR BKN008 BKN016 05/05 A2950 RMK AO2 CIG 006V012 P0002=
202401211105 SPECI KPWT 211105Z AUTO 00000KT 4SM -RA BR BKN010 BKN018 05/05 A2950 RMK AO2 CIG 007V015 P0001=
202401211056 METAR KPWT 211056Z AUTO 00000KT 4SM -RA BR FEW008 SCT012 BKN021 05/05 A2951 RMK AO2 SLP996 P0001 T00500050=
202401211044 SPECI KPWT 211044Z AUTO 00000KT 7SM -RA SCT014 BKN021 05/05 A2951 RMK AO2 P0001=
202401211026 SPECI KPWT 211026Z AUTO 00000KT 7SM -RA FEW014 SCT025 05/05 A2951 RMK AO2 P0001=
202401211019 SPECI KPWT 211019Z AUTO 03003KT 8SM -RA SCT014 BKN025 05/05 A2951 RMK AO2 P0001=
202401211003 SPECI KPWT 211003Z AUTO 00000KT 7SM -RA BKN014 BKN025 05/05 A2950 RMK AO2 P0000=
202401210956 METAR KPWT 210956Z AUTO 01003KT 5SM -RA BR BKN016 BKN025 05/05 A2950 RMK AO2 SLP995 P0001 T00500050=
202401210924 SPECI KPWT 210924Z AUTO 05003KT 3SM -RA BR CLR 05/05 A2950 RMK AO2 P0001=
202401210915 SPECI KPWT 210915Z AUTO 00000KT 1 3/4SM -RA BR CLR 04/04 A2950 RMK AO2 VIS 1V5 P0000=
202401210911 SPECI KPWT 210911Z AUTO 00000KT 3SM -RA BR CLR 05/05 A2950 RMK AO2 P0000=
202401210856 METAR KPWT 210856Z AUTO 01003KT 1 3/4SM -RA BR FEW014 05/05 A2950 RMK AO2 SLP995 P0010 60030 T00500050 50003=
202401210836 SPECI KPWT 210836Z AUTO 00000KT 1 1/2SM -RA BR CLR 05/05 A2950 RMK AO2 P0007=
202401210828 SPECI KPWT 210828Z AUTO 00000KT 2SM RA BR CLR 05/05 A2950 RMK AO2 P0006=
202401210806 SPECI KPWT 210806Z AUTO 00000KT 1 3/4SM RA BR CLR 05/05 A2950 RMK AO2 P0002=
202401210801 SPECI KPWT 210801Z AUTO 00000KT 3SM RA BR CLR 05/05 A2950 RMK AO2 P0001=
202401210756 METAR KPWT 210756Z AUTO 00000KT 1 1/2SM -RA BR FEW023 05/05 A2950 RMK AO2 SLP997 P0010 T00500050 400941006=
202401210746 SPECI KPWT 210746Z AUTO 00000KT 1SM -RA BR SCT025 05/05 A2951 RMK AO2 P0008=
202401210740 SPECI KPWT 210740Z AUTO 00000KT 1 3/4SM -RA BR BKN027 04/04 A2951 RMK AO2 P0008=
202401210709 SPECI KPWT 210709Z AUTO 00000KT 4SM RA BR BKN029 OVC034 05/05 A2950 RMK AO2 P0001=
202401210656 METAR KPWT 210656Z AUTO 00000KT 6SM -RA BR FEW025 BKN031 05/05 A2950 RMK AO2 SLP996 P0010 T00500050=
202401210556 METAR KPWT 210556Z AUTO 06003KT 7SM -RA CLR 05/05 A2949 RMK AO2 SLP993 P0005 60009 T00500050 10067 20044 50003=
202401210456 METAR KPWT 210456Z AUTO 16003KT 8SM -RA FEW028 OVC043 05/05 A2951 RMK AO2 SLP998 P0002 T00500050=
202401210356 METAR KPWT 210356Z AUTO 00000KT 10SM -RA CLR 04/04 A2948 RMK AO2 SLP990 P0001 T00440044=
202401210256 METAR KPWT 210256Z AUTO 00000KT 10SM -RA CLR 04/04 A2948 RMK AO2 SLP991 P0001 60001 T00440044 58002=
202401210156 METAR KPWT 210156Z AUTO 26003KT 10SM -RA BKN060 06/05 A2949 RMK AO2 RAE0059B53 SLP994 P0000 T00560050=
202401210056 METAR KPWT 210056Z AUTO 00000KT 10SM -RA BKN060 06/05 A2950 RMK AO2 RAB43 SLP995 P0000 T00560050=
202401202356 METAR KPWT 202356Z AUTO 00000KT 10SM BKN110 07/04 A2949 RMK AO2 SLP991 T00670044 10094 20044 56012=
202401202256 METAR KPWT 202256Z AUTO 05005KT 10SM CLR 09/04 A2949 RMK AO2 SLP993 T00890039=
202401202156 METAR KPWT 202156Z AUTO VRB04KT 10SM FEW110 08/05 A2950 RMK AO2 SLP995 T00830050=
202401202056 METAR KPWT 202056Z AUTO 03005KT 10SM CLR 08/04 A2952 RMK AO2 SLP005 T00780044 58027=
202401201956 METAR KPWT 201956Z AUTO 04006KT 10SM FEW120 06/04 A2955 RMK AO2 SLP014 T00610039=
202401201856 METAR KPWT 201856Z AUTO 06006KT 10SM CLR 06/04 A2958 RMK AO2 SLP024 T00560044=
202401201756 METAR KPWT 201756Z AUTO 05004KT 10SM CLR 04/04 A2961 RMK AO2 SLP032 T00440044 10044 21006 58009=
202401201725 SPECI KPWT 201725Z AUTO 00000KT 3SM BR FEW110 01/01 A2961 RMK AO2 FZRANO=
202401201722 SPECI KPWT 201722Z AUTO 00000KT 1 1/2SM BR SCT110 01/01 A2961 RMK AO2 FZRANO=
202401201709 SPECI KPWT 201709Z AUTO 00000KT 2SM BR BKN110 01/01 A2962 RMK AO2 FZRANO=
202401201656 METAR KPWT 201656Z AUTO 00000KT 7SM BKN110 00/00 A2962 RMK AO2 SLP039 T00000000 FZRANO=
202401201648 SPECI KPWT 201648Z AUTO 00000KT 6SM BR FEW001 SCT110 00/00 A2963 RMK AO2 FZRANO=
202401201556 METAR KPWT 201556Z AUTO 00000KT 10SM CLR M01/M01 A2963 RMK AO2 SLP041 T10061006 FZRANO=
202401201456 METAR KPWT 201456Z AUTO 00000KT 10SM CLR 00/00 A2963 RMK AO2 SLP042 T00000000 56014 FZRANO=
202401201400 SPECI KPWT 201400Z AUTO 14003KT 3SM BR CLR 01/01 A2965 RMK AO2 FZRANO=
202401201356 METAR KPWT 201356Z AUTO 11003KT 1 3/4SM BR CLR 01/01 A2964 RMK AO2 VIS 1V5 SLP046 T00060006 FZRANO=
202401201256 METAR KPWT 201256Z AUTO 00000KT 10SM FEW110 00/00 A2965 RMK AO2 SLP049 T00000000 FZRANO=
202401201218 SPECI KPWT 201218Z AUTO 00000KT 7SM CLR 01/01 A2966 RMK AO2 FZRANO=
202401201211 SPECI KPWT 201211Z AUTO 00000KT 2SM BR CLR 01/01 A2967 RMK AO2 VIS 3/4V5 FZRANO=
202401201204 SPECI KPWT 201204Z AUTO 00000KT 1SM BR CLR 01/01 A2967 RMK AO2 FZRANO=
202401201156 METAR KPWT 201156Z AUTO 00000KT 1 1/4SM BR CLR 01/01 A2968 RMK AO2 SLP056 70006 T00110011 10039 20011 58017 FZRANO=
202401201153 SPECI KPWT 201153Z AUTO 00000KT 1 3/4SM BR CLR 01/01 A2968 RMK AO2 FZRANO=
202401201056 METAR KPWT 201056Z AUTO 00000KT 10SM SCT110 02/02 A2971 RMK AO2 SLP065 T00170017 FZRANO=
202401200956 METAR KPWT 200956Z AUTO 00000KT 10SM CLR 02/02 A2972 RMK AO2 SLP070 T00170017 FZRANO=
202401200856 METAR KPWT 200856Z AUTO 00000KT 10SM BKN110 01/01 A2973 RMK AO2 SLP073 T00110011 57015 FZRANO=
202401200756 METAR KPWT 200756Z AUTO 00000KT 10SM CLR 03/03 A2974 RMK AO2 SLP076 T00280028 400670011=
202401200656 METAR KPWT 200656Z AUTO 05004KT 10SM FEW120 03/03 A2976 RMK AO2 SLP082 T00280028=
202401200556 METAR KPWT 200556Z AUTO 00000KT 10SM FEW120 02/02 A2977 RMK AO2 SLP088 60001 T00170017 10056 20017 56012 FZRANO=
202401200456 METAR KPWT 200456Z AUTO 00000KT 9SM CLR 03/03 A2978 RMK AO2 SLP089 T00280028=
202401200356 METAR KPWT 200356Z AUTO 04003KT 6SM BR CLR 02/02 A2979 RMK AO2 SLP096 T00170017 FZRANO=
202401200345 SPECI KPWT 200345Z AUTO 00000KT 3SM BR CLR 02/02 A2980 RMK AO2 FZRANO=
202401200326 SPECI KPWT 200326Z AUTO 00000KT 1 3/4SM BR CLR 02/02 A2980 RMK AO2 VIS 1V5 FZRANO=
202401200316 SPECI KPWT 200316Z AUTO 00000KT 6SM BR CLR 03/03 A2980 RMK AO2=
202401200305 SPECI KPWT 200305Z AUTO 00000KT 2SM BR CLR 03/03 A2980 RMK AO2 VIS 1V5=
202401200256 METAR KPWT 200256Z AUTO 00000KT 4SM BR CLR 03/03 A2981 RMK AO2 SLP099 60001 T00280028 56017=
202401200246 SPECI KPWT 200246Z AUTO 00000KT 5SM BR CLR 03/03 A2980 RMK AO2=
202401200238 SPECI KPWT 200238Z AUTO 00000KT 2 1/2SM BR CLR 02/02 A2981 RMK AO2 VIS 1 1/2V5 FZRANO=
202401200216 SPECI KPWT 200216Z AUTO 00000KT 1 3/4SM BR CLR 03/03 A2981 RMK AO2=
202401200208 SPECI KPWT 200208Z AUTO 00000KT 1SM BR CLR 03/03 A2981 RMK AO2=
202401200156 METAR KPWT 200156Z AUTO 00000KT 1/2SM FG CLR 03/03 A2982 RMK AO2 SLP103 P0001 T00330033=
202401200149 SPECI KPWT 200149Z AUTO 00000KT 1/2SM FG CLR 03/03 A2981 RMK AO2 P0001=
202401200136 SPECI KPWT 200136Z AUTO 00000KT 3/4SM BR CLR 03/03 A2982 RMK AO2=
202401200128 SPECI KPWT 200128Z AUTO 00000KT 1 3/4SM BR CLR 03/03 A2982 RMK AO2=
202401200121 SPECI KPWT 200121Z AUTO 00000KT 3SM BR CLR 04/04 A2982 RMK AO2=
202401200114 SPECI KPWT 200114Z AUTO 00000KT 2 1/2SM BR CLR 04/04 A2982 RMK AO2 VIS 1/2V5=
202401200110 SPECI KPWT 200110Z AUTO 00000KT 1SM BR CLR 04/04 A2983 RMK AO2=
202401200102 SPECI KPWT 200102Z AUTO 00000KT 1 3/4SM BR CLR 03/03 A2983 RMK AO2 VIS 3/4V5=
202401200056 METAR KPWT 200056Z AUTO 00000KT 3SM BR CLR 03/03 A2983 RMK AO2 SLP109 T00330033=
202401192356 METAR KPWT 192356Z AUTO 27003KT 10SM CLR 06/05 A2986 RMK AO2 SLP116 60004 T00560050 10067 20033 56021=
202401192256 METAR KPWT 192256Z AUTO 00000KT 10SM CLR 06/06 A2988 RMK AO2 RAB2159E30 SLP123 P0000 T00610056=
202401192156 METAR KPWT 192156Z AUTO 00000KT 10SM FEW075 05/05 A2990 RMK AO2 RAE36 SLP130 P0002 T00500050=
202401192056 METAR KPWT 192056Z AUTO 33003KT 10SM -RA SCT036 BKN055 05/04 A2992 RMK AO2 SLP138 P0002 60002 T00500044 58008=
202401191956 METAR KPWT 191956Z AUTO 00000KT 10SM -RA CLR 05/03 A2994 RMK AO2 RAE20B46 SLP144 P0000 T00500033=
202401191856 METAR KPWT 191856Z AUTO 00000KT 10SM -RA FEW060 04/04 A2994 RMK AO2 SLP147 P0000 T00440044=
202401191756 METAR KPWT 191756Z AUTO 00000KT 10SM -RA CLR 03/03 A2994 RMK AO2 SLP148 P0001 60001 T00330033 10033 20011 56005=
202401191656 METAR KPWT 191656Z AUTO 00000KT 10SM -RA FEW060 03/03 A2995 RMK AO2 RAE01B31 SLP149 P0000 T00280028=
202401191556 METAR KPWT 191556Z AUTO 07005KT 10SM -RA FEW065 02/02 A2993 RMK AO2 RAB1458E21B41 SLP144 P0000 T00220022 FZRANO=
202401191456 METAR KPWT 191456Z AUTO 00000KT 10SM CLR 02/02 A2996 RMK AO2 UPE01RAB09E22 SLP152 P0000 60000 T00220022 55009 FZRANO=
202401191356 METAR KPWT 191356Z AUTO 04004KT 10SM UP CLR 02/02 A2994 RMK AO2 RAB28E44UPB48 SLP147 P0000 T00220022 FZRANO=
202401191256 METAR KPWT 191256Z AUTO 02003KT 10SM CLR 02/02 A2997 RMK AO2 SLP156 T00220022 FZRANO=
202401191156 METAR KPWT 191156Z AUTO 01003KT 10SM CLR 01/01 A2999 RMK AO2 SLP162 P0001 60005 70067 T00110011 10017 20011 58017 FZRANO=
202401191056 METAR KPWT 191056Z AUTO 03004KT 10SM CLR 02/02 A3002 RMK AO2 RAE28 SLP172 P0000 T00170017 FZRANO=
202401190956 METAR KPWT 190956Z AUTO 00000KT 10SM -RA CLR 02/02 A3003 RMK AO2 SLP177 P0002 T00170017 FZRANO=
202401190856 METAR KPWT 190856Z AUTO 00000KT 10SM -RA CLR 01/01 A3004 RMK AO2 RAB00 SLP179 P0000 60002 T00110011 58010 FZRANO=
202401190756 METAR KPWT 190756Z AUTO 00000KT 10SM CLR 01/01 A3006 RMK AO2 RAE44 SLP186 P0001 T00110011 400220006 FZRANO=
202401190656 METAR KPWT 190656Z AUTO 01003KT 10SM -RA CLR 01/01 A3006 RMK AO2 SLP188 P0001 T00110011 FZRANO=
202401190556 METAR KPWT 190556Z AUTO 03003KT 10SM -RA CLR 01/01 A3007 RMK AO2 SLP189 P0001 60012 T00110011 10017 20011 58011 FZRANO=
202401190456 METAR KPWT 190456Z AUTO 01003KT 10SM -RA CLR 01/01 A3008 RMK AO2 SLP195 P0001 T00110011 FZRANO=
202401190356 METAR KPWT 190356Z AUTO 00000KT 10SM -RA FEW037 01/01 A3010 RMK AO2 SLP201 P0002 T00110011 FZRANO=
202401190338 SPECI KPWT 190338Z AUTO 02003KT 10SM -RA SCT027 SCT037 01/01 A3010 RMK AO2 P0001 FZRANO=
202401190256 METAR KPWT 190256Z AUTO 04005KT 10SM -RA BKN025 01/01 A3010 RMK AO2 SLP200 P0001 60008 T00110011 55000 FZRANO=
202401190156 METAR KPWT 190156Z AUTO 04006KT 10SM -RA OVC025 02/02 A3010 RMK AO2 UPB21E33 SLP200 P0004 T00170017 FZRANO=
202401190056 METAR KPWT 190056Z AUTO 05008KT 10SM -RA FEW007 OVC023 02/02 A3009 RMK AO2 UPB49E54 SLP198 P0003 T00170017 FZRANO=
202401190046 SPECI KPWT 190046Z AUTO 04006KT 10SM -RA SCT007 SCT011 OVC023 02/02 A3010 RMK AO2 P0003 FZRANO=
202401190022 SPECI KPWT 190022Z AUTO 05008KT 10SM -RA BKN007 OVC021 02/02 A3010 RMK AO2 CIG 004V011 P0001 FZRANO=
202401182356 METAR KPWT 182356Z AUTO 04007KT 8SM -RA OVC005 02/02 A3010 RMK AO2 CIG 003V010 SLP201 P0006 60032 T00170017 10022 20017 55004 FZRANO=
202401182321 SPECI KPWT 182321Z AUTO 03008KT 9SM RA BKN005 OVC009 02/02 A3010 RMK AO2 CIG 003V008 P0003 FZRANO=
202401182307 SPECI KPWT 182307Z AUTO 05007KT 10SM -RA SCT003 BKN009 OVC020 02/02 A3010 RMK AO2 CIG 008V011 P0001 FZRANO=
202401182256 METAR KPWT 182256Z AUTO 05008KT 9SM -RA BKN003 BKN009 OVC018 02/02 A3010 RMK AO2 UPB06E18 SLP200 P0006 T00220022 FZRANO=
202401182238 SPECI KPWT 182238Z AUTO 04007KT 9SM -RA BKN003 OVC018 02/02 A3010 RMK AO2 UPB06E18 P0004 FZRANO=
202401182214 SPECI KPWT 182214Z AUTO 06009KT 8SM UP SCT005 OVC018 02/02 A3010 RMK AO2 RAE06UPB06 P0002 FZRANO=
202401182156 METAR KPWT 182156Z AUTO 04007KT 7SM RA BKN005 OVC016 02/02 A3010 RMK AO2 CIG 003V009 SLP202 P0006 T00170017 FZRANO=
202401182138 SPECI KPWT 182138Z AUTO 05007KT 10SM -RA BKN005 OVC018 02/02 A3010 RMK AO2 CIG 003V008 P0004 FZRANO=
202401182128 SPECI KPWT 182128Z AUTO 04007KT 10SM -RA SCT005 BKN010 OVC020 02/02 A3010 RMK AO2 P0003 FZRANO=
202401182056 METAR KPWT 182056Z AUTO 04009KT 8SM -RA OVC005 02/02 A3011 RMK AO2 SLP204 P0005 60014 T00220022 58005 FZRANO=
202401182011 SPECI KPWT 182011Z AUTO 02007KT 10SM -RA BKN005 BKN011 OVC022 02/02 A3012 RMK AO2 CIG 003V008 P0001 FZRANO=
202401181956 METAR KPWT 181956Z AUTO 03007KT 9SM -RA FEW003 BKN010 OVC022 02/02 A3012 RMK AO2 CIG 006V016 SLP206 P0005 T00220022 FZRANO=
202401181916 SPECI KPWT 181916Z AUTO 04004KT 4SM -RA BR FEW005 OVC012 02/02 A3013 RMK AO2 P0002 FZRANO=
202401181856 METAR KPWT 181856Z AUTO 04004KT 5SM -RA BR OVC010 02/02 A3013 RMK AO2 CIG 008V013 SLP209 P0004 T00220022 FZRANO=
202401181852 SPECI KPWT 181852Z AUTO 04004KT 6SM -RA BR OVC010 02/02 A3013 RMK AO2 CIG 006V012 P0004 FZRANO=
202401181829 SPECI KPWT 181829Z AUTO 04007KT 9SM -RA OVC006 02/02 A3012 RMK AO2 CIG 004V010 P0002 FZRANO=
202401181756 METAR KPWT 181756Z AUTO 03008KT 6SM -RA BR BKN004 OVC007 02/02 A3010 RMK AO2 SLP202 P0007 60018 T00170017 10022 20006 53013 FZRANO=
202401181749 SPECI KPWT 181749Z AUTO 03007KT 7SM -RA BKN004 BKN009 OVC025 02/02 A3010 RMK AO2 CIG 003V007 P0006 FZRANO=
202401181656 METAR KPWT 181656Z AUTO 04007KT 8SM -RA BKN009 OVC025 02/02 A3008 RMK AO2 CIG 005V012 SLP195 P0005 T00170017 FZRANO=
202401181617 SPECI KPWT 181617Z AUTO 05009KT 10SM -RA FEW005 OVC025 02/02 A3008 RMK AO2 P0001 FZRANO=
202401181556 METAR KPWT 181556Z AUTO 04007KT 9SM -RA BKN027 02/02 A3006 RMK AO2 SLP189 P0004 T00170017 FZRANO=
202401181456 METAR KPWT 181456Z AUTO 02003KT 10SM -RA CLR 02/02 A3005 RMK AO2 SLP183 P0002 60002 T00170017 53003 FZRANO=
202401181356 METAR KPWT 181356Z AUTO 00000KT 10SM -RA SCT031 02/02 A3004 RMK AO2 RAB31 SLP180 P0000 T00170017 FZRANO=
202401181319 SPECI KPWT 181319Z AUTO 03003KT 10SM OVC029 02/02 A3004 RMK AO2 FZRANO=
202401181256 METAR KPWT 181256Z AUTO 01003KT 10SM OVC031 01/01 A3004 RMK AO2 SLP181 T00110011 FZRANO=
202401181156 METAR KPWT 181156Z AUTO 00000KT 5SM BR FEW013 BKN037 01/01 A3004 RMK AO2 SLP179 70018 T00060006 10011 20006 50001 FZRANO=
202401181147 SPECI KPWT 181147Z AUTO 00000KT 8SM SCT013 BKN039 01/01 A3004 RMK AO2 FZRANO=
202401181056 METAR KPWT 181056Z AUTO 01004KT 10SM OVC011 01/01 A3004 RMK AO2 SLP181 T00110011 FZRANO=
202401180956 METAR KPWT 180956Z AUTO 04006KT 10SM OVC013 01/01 A3003 RMK AO2 SLP178 T00110011 FZRANO=
202401180936 SPECI KPWT 180936Z AUTO 06005KT 10SM BKN013 01/01 A3003 RMK AO2 FZRANO=
202401180856 METAR KPWT 180856Z AUTO 06004KT 10SM FEW012 OVC047 01/01 A3003 RMK AO2 SLP178 T00110011 51017 FZRANO=
202401180854 SPECI KPWT 180854Z AUTO 06004KT 10SM SCT012 OVC047 01/01 A3003 RMK AO2 FZRANO=
202401180756 METAR KPWT 180756Z AUTO 00000KT 10SM OVC012 01/01 A3001 RMK AO2 SLP170 T00060006 400330000 FZRANO=
202401180656 METAR KPWT 180656Z AUTO 00000KT 6SM BR OVC012 01/01 A2998 RMK AO2 SLP161 T00110011 FZRANO=
202401180621 SPECI KPWT 180621Z AUTO 00000KT 4SM BR OVC012 01/01 A2996 RMK AO2 FZRANO=
202401180612 SPECI KPWT 180612Z AUTO 00000KT 2 1/2SM BR OVC012 01/01 A2995 RMK AO2 FZRANO=
202401180556 METAR KPWT 180556Z AUTO 03003KT 1 1/4SM BR OVC014 01/01 A2995 RMK AO2 SLP148 T00060006 10017 20006 51040 FZRANO=
202401180544 SPECI KPWT 180544Z AUTO 00000KT 1 1/4SM BR OVC014 01/01 A2994 RMK AO2 FZRANO=
202401180529 SPECI KPWT 180529Z AUTO 00000KT 3/4SM BR OVC014 01/01 A2993 RMK AO2 FZRANO=
202401180525 SPECI KPWT 180525Z AUTO 00000KT 1 3/4SM BR OVC012 01/01 A2993 RMK AO2 FZRANO=
202401180456 METAR KPWT 180456Z AUTO 00000KT 6SM BR FEW004 OVC012 01/01 A2992 RMK AO2 SLP138 T00110011 FZRANO=
202401180437 SPECI KPWT 180437Z AUTO 00000KT 8SM FEW004 OVC012 01/01 A2991 RMK AO2 FZRANO=
202401180356 METAR KPWT 180356Z AUTO 00000KT 9SM BKN014 OVC019 01/01 A2987 RMK AO2 SLP123 T00110011 FZRANO=
202401180346 SPECI KPWT 180346Z AUTO 00000KT 9SM SCT004 BKN014 OVC020 02/02 A2986 RMK AO2 FZRANO=
202401180256 METAR KPWT 180256Z AUTO 04003KT 9SM BKN004 BKN014 01/01 A2983 RMK AO2 SLP108 T00110011 53034 FZRANO=
202401180227 SPECI KPWT 180227Z AUTO 00000KT 5SM BR BKN004 OVC014 01/01 A2981 RMK AO2 FZRANO=
202401180156 METAR KPWT 180156Z AUTO 04004KT 10SM FEW004 OVC014 01/01 A2979 RMK AO2 SLP097 T00110011 FZRANO=
202401180138 SPECI KPWT 180138Z AUTO 04003KT 10SM SCT004 OVC014 01/01 A2978 RMK AO2 FZRANO=
202401180056 METAR KPWT 180056Z AUTO VRB03KT 10SM OVC004 02/02 A2975 RMK AO2 SLP083 T00170017 FZRANO=
202401172356 METAR KPWT 172356Z AUTO 09003KT 10SM OVC004 02/02 A2972 RMK AO2 RAE2259UPB2259E11 SLP073 P0000 60006 T00170017 10028 20011 51063 FZRANO=
202401172339 SPECI KPWT 172339Z AUTO 06003KT 10SM BKN004 BKN009 OVC020 02/02 A2970 RMK AO2 RAE2259UPB2259E11 P0000 FZRANO=
202401172333 SPECI KPWT 172333Z AUTO 06004KT 10SM SCT006 SCT009 OVC020 02/02 A2970 RMK AO2 RAE2259UPB2259E11 P0000 FZRANO=
202401172322 SPECI KPWT 172322Z AUTO 07004KT 10SM SCT006 BKN009 BKN020 02/02 A2969 RMK AO2 RAE2259UPB2259E11 CIG 008V011 P0000 FZRANO=
202401172256 METAR KPWT 172256Z AUTO 00000KT 8SM -RA OVC004 02/02 A2968 RMK AO2 UPE23RAB23 PRESRR SLP056 P0001 T00170017 FZRANO=
202401172156 METAR KPWT 172156Z AUTO VRB05KT 4SM UP BR BKN004 OVC009 01/01 A2960 RMK AO2 UPB20 CIG 003V007 SLP032 P0000 T00110011 FZRANO=
202401172056 METAR KPWT 172056Z AUTO 06009KT 10SM OVC006 01/01 A2954 RMK AO2 PRESRR SLP010 60005 T00110011 53044 FZRANO=
202401172004 SPECI KPWT 172004Z AUTO 05011KT 10SM OVC006 02/02 A2949 RMK AO2 CIG 004V009 FZRANO=
202401171956 METAR KPWT 171956Z AUTO 05009KT 10SM OVC004 02/02 A2948 RMK AO2 RAE24 CIG 003V008 SLP988 P0001 T00170017 FZRANO=
202401171922 SPECI KPWT 171922Z AUTO 04010KT 10SM -RA OVC004 03/03 A2945 RMK AO2 P0001=
202401171904 SPECI KPWT 171904Z AUTO 11004KT 10SM -RA BKN006 OVC012 03/03 A2943 RMK AO2 P0000=
202401171856 METAR KPWT 171856Z AUTO 06003KT 10SM -RA SCT006 OVC012 03/03 A2943 RMK AO2 SLP974 P0004 T00280028=
202401171840 SPECI KPWT 171840Z AUTO 19006KT 10SM -RA SCT004 BKN014 OVC019 03/03 A2942 RMK AO2 P0004=
202401171829 SPECI KPWT 171829Z AUTO 18008KT 10SM -RA BKN004 OVC021 03/03 A2941 RMK AO2 P0003=
202401171756 METAR KPWT 171756Z AUTO 21009KT 5SM -RA BR OVC002 03/03 A2941 RMK AO2 SLP965 P0004 60012 T00280028 10033 20000 55001=
202401171754 SPECI KPWT 171754Z AUTO 21009KT 5SM -RA BR OVC002 03/03 A2940 RMK AO2 P0004=
202401171733 SPECI KPWT 171733Z AUTO 21009KT 2 1/2SM -RA BR OVC002 03/03 A2940 RMK AO2 VIS 1 1/2V4 P0002=
202401171656 METAR KPWT 171656Z AUTO 20014G20KT 1 1/2SM -RA BR OVC002 03/03 A2940 RMK AO2 UPE55RAB55 SLP961 P0001 T00280028=
202401171641 SPECI KPWT 171641Z AUTO 20010KT 3SM UP BR OVC002 02/02 A2940 RMK AO2 P0001 FZRANO=
202401171615 SPECI KPWT 171615Z AUTO 21003KT 1 1/4SM UP BR OVC002 01/01 A2940 RMK AO2 P0000 FZRANO=
202401171607 SPECI KPWT 171607Z AUTO 23003KT 2SM UP BR OVC002 01/01 A2941 RMK AO2 P0000 FZRANO=
202401171556 METAR KPWT 171556Z AUTO 20004KT 1 1/2SM UP BR OVC002 01/01 A2941 RMK AO2 SLP967 P0001 T00060006 FZRANO=
202401171549 SPECI KPWT 171549Z AUTO 21005KT 2SM UP BR OVC002 01/01 A2942 RMK AO2 VIS 1 1/4V3 P0001 FZRANO=
202401171456 METAR KPWT 171456Z AUTO 00000KT 1 3/4SM UP BR OVC002 00/00 A2944 RMK AO2 SLP976 P0002 60006 T00000000 56032 FZRANO=
202401171440 SPECI KPWT 171440Z AUTO 00000KT 1 3/4SM UP BR BKN002 00/00 A2945 RMK AO2 P0001 FZRANO=
202401171433 SPECI KPWT 171433Z AUTO 00000KT 2SM UP BR SCT002 00/00 A2945 RMK AO2 P0001 FZRANO=
202401171356 METAR KPWT 171356Z AUTO 00000KT 2 1/2SM UP BR CLR 00/00 A2946 RMK AO2 SLP985 P0001 T00000000 FZRANO=
202401171338 SPECI KPWT 171338Z AUTO 00000KT 2SM UP BR CLR 00/00 A2948 RMK AO2 P0001 FZRANO=
202401171330 SPECI KPWT 171330Z AUTO 00000KT 1 3/4SM UP BR CLR 00/00 A2948 RMK AO2 P0001 FZRANO=
202401171322 SPECI KPWT 171322Z AUTO 00000KT 2SM UP BR CLR 00/00 A2948 RMK AO2 P0000 FZRANO=
202401171312 SPECI KPWT 171312Z AUTO 00000KT 3SM UP BR CLR 00/00 A2949 RMK AO2 P0000 FZRANO=
202401171256 METAR KPWT 171256Z AUTO 00000KT 2 1/2SM UP BR FEW004 00/00 A2950 RMK AO2 SLP996 P0003 T00000000 FZRANO=
202401171250 SPECI KPWT 171250Z AUTO 00000KT 2SM UP BR SCT004 00/00 A2950 RMK AO2 P0002 FZRANO=
202401171242 SPECI KPWT 171242Z AUTO 00000KT 1 1/2SM UP BR BKN004 BKN008 00/00 A2950 RMK AO2 P0002 FZRANO=
202401171220 SPECI KPWT 171220Z AUTO 00000KT 1 3/4SM UP BR OVC002 00/00 A2952 RMK AO2 P0000 FZRANO=
202401171214 SPECI KPWT 171214Z AUTO 00000KT 4SM UP BR OVC002 00/00 A2952 RMK AO2 P0000 FZRANO=
202401171156 METAR KPWT 171156Z AUTO 00000KT 2SM UP BR OVC002 00/00 A2953 RMK AO2 VIS 1 1/2V3 UPB1059E14B39 SLP008 P0001 60030 70036 T00000000 10000 20000 58017 FZRANO=
202401171056 METAR KPWT 171056Z AUTO 00000KT 7SM BKN002 OVC007 00/00 A2956 RMK AO2 UPE0959B16E43SNB0959E16 SLP017 P0002 T00000000 FZRANO=
202401171037 SPECI KPWT 171037Z AUTO 00000KT 6SM UP BR SCT002 OVC009 00/00 A2956 RMK AO2 UPE0959B16SNB0959E16 CIG 006V014 P0002 FZRANO=
202401171030 SPECI KPWT 171030Z AUTO 00000KT 3SM UP BR SCT005 OVC011 00/00 A2956 RMK AO2 UPE0959B16SNB0959E16 P0002 FZRANO=
202401171027 SPECI KPWT 171027Z AUTO 00000KT 2 1/2SM UP BR FEW003 BKN009 OVC013 00/00 A2957 RMK AO2 UPE0959B16SNB0959E16 CIG 007V011 P0002 FZRANO=
202401171016 SPECI KPWT 171016Z AUTO 00000KT 2SM UP BR SCT005 OVC011 00/00 A2957 RMK AO2 UPE0959B16SNB0959E16 P0001 FZRANO=
202401171014 SPECI KPWT 171014Z AUTO 00000KT 1 3/4SM -SN BR BKN005 OVC011 00/00 A2957 RMK AO2 UPE0959SNB0959 CIG 002V008 P0001 FZRANO=
202401171007 SPECI KPWT 171007Z AUTO 00000KT 1SM -SN BR BKN005 OVC011 00/00 A2957 RMK AO2 UPE0959SNB0959 CIG 002V008 P0001 FZRANO=
202401170959 SPECI KPWT 170959Z AUTO 00000KT 1 1/4SM -SN BR BKN003 OVC007 00/00 A2958 RMK AO2 UPE59SNB59 P0000 FZRANO=
202401170956 METAR KPWT 170956Z AUTO 00000KT 2SM UP BR OVC005 00/00 A2958 RMK AO2 CIG 002V009 SLP025 P0007 T00000000 FZRANO=
202401170953 SPECI KPWT 170953Z AUTO 00000KT 2SM UP BR OVC005 00/00 A2958 RMK AO2 CIG 003V008 P0006 FZRANO=
202401170944 SPECI KPWT 170944Z AUTO 00000KT 1 3/4SM UP BR BKN003 OVC010 00/00 A2958 RMK AO2 P0005 FZRANO=
202401170935 SPECI KPWT 170935Z AUTO 00000KT 1 1/2SM UP BR BKN005 OVC012 00/00 A2959 RMK AO2 CIG 003V008 P0005 FZRANO=
202401170925 SPECI KPWT 170925Z AUTO 00000KT 2SM UP BR BKN005 OVC012 00/00 A2959 RMK AO2 CIG 003V007 P0003 FZRANO=
202401170902 SPECI KPWT 170902Z AUTO 00000KT 2SM UP BR BKN007 BKN012 00/00 A2960 RMK AO2 CIG 004V010 P0001 FZRANO=
202401170856 METAR KPWT 170856Z AUTO 00000KT 2SM UP BR BKN010 BKN015 00/00 A2960 RMK AO2 CIG 005V013 SLP031 P0005 60020 T00000000 58025 FZRANO=
202401170850 SPECI KPWT 170850Z AUTO 00000KT 1 3/4SM UP BR FEW005 BKN010 BKN015 00/00 A2960 RMK AO2 CIG 008V012 P0004 FZRANO=
202401170845 SPECI KPWT 170845Z AUTO 00000KT 1 3/4SM UP BR SCT010 BKN015 00/00 A2960 RMK AO2 P0004 FZRANO=
202401170838 SPECI KPWT 170838Z AUTO 00000KT 2SM UP BR BKN013 OVC018 00/00 A2960 RMK AO2 P0003 FZRANO=
202401170814 SPECI KPWT 170814Z AUTO 00000KT 2 1/2SM UP BR BKN017 00/00 A2962 RMK AO2 P0001 FZRANO=
202401170803 SPECI KPWT 170803Z AUTO 00000KT 2SM UP BR SCT019 00/00 A2963 RMK AO2 P0001 FZRANO=
202401170756 METAR KPWT 170756Z AUTO 00000KT 1SM UP BR VV019 00/00 A2963 RMK AO2 UPB30SNE30 SLP043 P0010 T00000000 400171089 FZRANO=
202401170753 SPECI KPWT 170753Z AUTO 00000KT 1SM UP BR CLR 00/00 A2963 RMK AO2 UPB30SNE30 P0010 400171089 FZRANO=
202401170730 SPECI KPWT 170730Z AUTO 00000KT 2 1/2SM UP BR CLR 00/00 A2965 RMK AO2 UPB30SNE30 P0007 FZRANO=
202401170726 SPECI KPWT 170726Z AUTO 00000KT 1SM -SN BR CLR 00/00 A2965 RMK AO2 P0007 FZRANO=
202401170722 SPECI KPWT 170722Z AUTO 00000KT 1/2SM -SN FG CLR 00/00 A2965 RMK AO2 P0006 FZRANO=
202401170714 SPECI KPWT 170714Z AUTO 00000KT 3/4SM -SN BR CLR 00/00 A2965 RMK AO2 VIS 1/4V1 3/4 P0005 FZRANO=
202401170708 SPECI KPWT 170708Z AUTO 02003KT 1SM -SN BR VV004 00/00 A2965 RMK AO2 VIS 1/2V2 P0003 FZRANO=
202401170704 SPECI KPWT 170704Z AUTO 01003KT 3/4SM -SN BR FEW004 00/00 A2965 RMK AO2 VIS 1/4V3 P0002 FZRANO=
202401170656 METAR KPWT 170656Z AUTO 00000KT 1 3/4SM -SN BR FEW004 SCT020 00/00 A2965 RMK AO2 VIS 1/2V3 UPE56SNB56 SLP050 P0005 T00000000 FZRANO=
202401170621 SPECI KPWT 170621Z AUTO 00000KT 3SM UP BR SCT014 00/00 A2967 RMK AO2 P0002 FZRANO=
202401170611 SPECI KPWT 170611Z AUTO 00000KT 2 1/2SM UP BR FEW004 BKN014 BKN022 00/00 A2967 RMK AO2 VIS 1V4 P0001 FZRANO=
202401170604 SPECI KPWT 170604Z AUTO 01003KT 3SM UP BR SCT004 BKN014 00/00 A2967 RMK AO2 P0001 FZRANO=
202401170556 METAR KPWT 170556Z AUTO 02003KT 5SM UP BR BKN004 BKN010 OVC014 00/00 A2967 RMK AO2 SLP057 P0002 60006 T00000000 10011 21011 56018 FZRANO=
202401170553 SPECI KPWT 170553Z AUTO 01003KT 5SM UP BR BKN004 OVC010 00/00 A2967 RMK AO2 P0002 FZRANO=
202401170525 SPECI KPWT 170525Z AUTO 00000KT 6SM UP BR FEW004 BKN010 BKN021 M01/M01 A2968 RMK AO2 P0001 FZRANO=
202401170518 SPECI KPWT 170518Z AUTO 12003KT 5SM UP BR SCT010 BKN021 M01/M01 A2969 RMK AO2 P0001 FZRANO=
202401170456 METAR KPWT 170456Z AUTO 01004KT 6SM UP BR SCT010 M01/M01 A2969 RMK AO2 SLP063 P0004 T10061011 FZRANO=
202401170451 SPECI KPWT 170451Z AUTO 01003KT 5SM UP BR SCT010 M01/M01 A2970 RMK AO2 P0003 FZRANO=
202401170413 SPECI KPWT 170413Z AUTO 00000KT 5SM UP BR BKN010 OVC015 M01/M02 A2972 RMK AO2 P0000 FZRANO=
202401170356 METAR KPWT 170356Z AUTO 00000KT 8SM UP BKN015 OVC030 M01/M02 A2973 RMK AO2 UPB05 SLP075 P0000 T10061022 FZRANO=
202401170256 METAR KPWT 170256Z AUTO 00000KT 10SM SCT021 BKN026 OVC039 01/M05 A2975 RMK AO2 SLP083 T00061050 56015 FZRANO=
202401170254 SPECI KPWT 170254Z AUTO 00000KT 10SM SCT021 BKN026 OVC039 01/M05 A2975 RMK AO2 FZRANO=
202401170156 METAR KPWT 170156Z AUTO 00000KT 10SM BKN034 OVC047 01/M04 A2976 RMK AO2 SLP087 T00061044 FZRANO=
202401170056 METAR KPWT 170056Z AUTO 00000KT 10SM OVC034 01/M06 A2979 RMK AO2 SLP098 T00061056 FZRANO=
202401162356 METAR KPWT 162356Z AUTO 00000KT 10SM BKN037 BKN060 01/M06 A2982 RMK AO2 SLP107 T00061056 10017 21022 56034 FZRANO=
202401162256 METAR KPWT 162256Z AUTO 00000KT 10SM CLR 01/M06 A2986 RMK AO2 SLP121 T00111061 FZRANO=
202401162156 METAR KPWT 162156Z AUTO 34003KT 10SM CLR 01/M06 A2989 RMK AO2 SLP130 T00111061 FZRANO=
202401162056 METAR KPWT 162056Z AUTO 24003KT 10SM CLR 01/M06 A2992 RMK AO2 SLP142 T00061061 58033 FZRANO=
202401161956 METAR KPWT 161956Z AUTO 00000KT 10SM CLR 01/M05 A2996 RMK AO2 SLP157 T00111050 FZRANO=
202401161856 METAR KPWT 161856Z AUTO 25003KT 10SM CLR 00/M04 A3001 RMK AO2 SLP171 T00001044 FZRANO=
202401161756 METAR KPWT 161756Z AUTO 00000KT 10SM CLR M02/M07 A3002 RMK AO2 SLP175 T10221072 11022 21089 56016 FZRANO=
202401161656 METAR KPWT 161656Z AUTO 00000KT 10SM CLR M06/M07 A3004 RMK AO2 SLP182 T10561067 FZRANO=
202401161556 METAR KPWT 161556Z AUTO 00000KT 10SM CLR M08/M08 A3004 RMK AO2 SLP185 T10781083 FZRANO=
202401161456 METAR KPWT 161456Z AUTO 00000KT 10SM CLR M09/M09 A3007 RMK AO2 SLP195 T10891094 58027 FZRANO=
202401161356 METAR KPWT 161356Z AUTO 00000KT 10SM CLR M08/M09 A3010 RMK AO2 SLP204 T10831089 FZRANO=
202401161256 METAR KPWT 161256Z AUTO 00000KT 10SM CLR M08/M08 A3013 RMK AO2 SLP212 T10781083 FZRANO=
202401161156 METAR KPWT 161156Z AUTO 00000KT 10SM CLR M06/M08 A3015 RMK AO2 SLP219 T10561078 11017 21056 58019 FZRANO=
202401161056 METAR KPWT 161056Z AUTO 06004KT 10SM CLR M03/M07 A3018 RMK AO2 SLP229 T10331072 FZRANO=
202401160956 METAR KPWT 160956Z AUTO 00000KT 10SM CLR M04/M08 A3019 RMK AO2 SLP232 T10391078 FZRANO=
202401160856 METAR KPWT 160856Z AUTO 00000KT 10SM CLR M04/M08 A3021 RMK AO2 SLP239 T10391083 58017 FZRANO=
202401160756 METAR KPWT 160756Z AUTO 02003KT 10SM CLR M03/M07 A3023 RMK AO2 SLP248 T10331072 400171050 FZRANO=
202401160656 METAR KPWT 160656Z AUTO 06006KT 10SM CLR M02/M07 A3024 RMK AO2 SLP251 T10221072 FZRANO=
202401160556 METAR KPWT 160556Z AUTO 03006KT 10SM CLR M02/M06 A3026 RMK AO2 SLP256 T10221056 10011 21050 58008 FZRANO=
202401160456 METAR KPWT 160456Z AUTO 03008KT 10SM CLR M02/M06 A3027 RMK AO2 SLP261 T10171061 FZRANO=
202401160356 METAR KPWT 160356Z AUTO 05006KT 10SM CLR M02/M08 A3028 RMK AO2 SLP264 T10221078 FZRANO=
202401160256 METAR KPWT 160256Z AUTO 00000KT 10SM CLR M04/M07 A3028 RMK AO2 SLP265 T10441072 56014 FZRANO=
202401160156 METAR KPWT 160156Z AUTO 00000KT 10SM CLR M02/M08 A3029 RMK AO2 SLP266 T10171078 FZRANO=
202401160056 METAR KPWT 160056Z AUTO 04004KT 10SM CLR M01/M08 A3031 RMK AO2 SLP273 T10111083 FZRANO=
202401152356 METAR KPWT 152356Z AUTO 03007KT 10SM CLR 01/M11 A3033 RMK AO2 SLP280 T00111106 10017 21011 56014 FZRANO=
202401152256 METAR KPWT 152256Z AUTO 05008KT 10SM CLR 01/M11 A3034 RMK AO2 SLP284 T00111106 FZRANO=
202401152156 METAR KPWT 152156Z AUTO 06007KT 10SM CLR 02/M09 A3035 RMK AO2 SLP288 T00171094 FZRANO=
202401152056 METAR KPWT 152056Z AUTO 06007KT 10SM CLR 01/M10 A3037 RMK AO2 SLP293 T00111100 58005 FZRANO=
202401151956 METAR KPWT 151956Z AUTO 03007KT 10SM CLR 01/M08 A3038 RMK AO2 SLP298 T00111078 FZRANO=
202401151856 METAR KPWT 151856Z AUTO 05010KT 10SM CLR 00/M07 A3039 RMK AO2 SLP302 T00001072 FZRANO=
202401151756 METAR KPWT 151756Z AUTO 06007KT 10SM CLR M01/M08 A3038 RMK AO2 SLP299 T10111078 11011 21044 51004 FZRANO=
202401151656 METAR KPWT 151656Z AUTO 05007KT 10SM CLR M02/M07 A3038 RMK AO2 SLP298 T10221072 FZRANO=
202401151556 METAR KPWT 151556Z AUTO 04007KT 10SM CLR M04/M08 A3038 RMK AO2 SLP297 T10441078 FZRANO=
202401151456 METAR KPWT 151456Z AUTO 06006KT 10SM CLR M04/M07 A3037 RMK AO2 SLP296 T10441072 53001 FZRANO=
202401151356 METAR KPWT 151356Z AUTO 04008KT 10SM CLR M04/M06 A3036 RMK AO2 SLP292 T10391056 FZRANO=
202401151256 METAR KPWT 151256Z AUTO 04010KT 10SM CLR M04/M06 A3035 RMK AO2 SLP287 T10391056 FZRANO=
202401151156 METAR KPWT 151156Z AUTO 05010KT 10SM CLR M04/M06 A3037 RMK AO2 SLP293 T10391061 11039 21078 50007 FZRANO=
202401151056 METAR KPWT 151056Z AUTO 05007KT 10SM CLR M04/M07 A3037 RMK AO2 SLP294 T10441067 FZRANO=
202401150956 METAR KPWT 150956Z AUTO 05011KT 10SM CLR M04/M06 A3035 RMK AO2 SLP289 T10391061 FZRANO=
202401150856 METAR KPWT 150856Z AUTO 04007KT 10SM CLR M04/M06 A3034 RMK AO2 SLP285 T10441061 51010 FZRANO=
202401150756 METAR KPWT 150756Z AUTO 04006KT 10SM CLR M05/M07 A3034 RMK AO2 SLP284 T10501067 400111111 FZRANO=
202401150656 METAR KPWT 150656Z AUTO 06003KT 10SM CLR M08/M08 A3033 RMK AO2 SLP282 T10781078 FZRANO=
202401150556 METAR KPWT 150556Z AUTO 00000KT 10SM CLR M07/M07 A3031 RMK AO2 SLP275 T10671072 11011 21067 50004 FZRANO=
202401150456 METAR KPWT 150456Z AUTO 06003KT 10SM CLR M04/M07 A3032 RMK AO2 SLP277 T10441067 FZRANO=
202401150356 METAR KPWT 150356Z AUTO 05003KT 10SM CLR M04/M07 A3032 RMK AO2 SLP277 T10441067 FZRANO=
202401150256 METAR KPWT 150256Z AUTO 00000KT 10SM CLR M06/M08 A3030 RMK AO2 SLP272 T10611083 51021 FZRANO=
202401150156 METAR KPWT 150156Z AUTO 00000KT 10SM CLR M06/M08 A3028 RMK AO2 SLP265 T10561083 FZRANO=
202401150056 METAR KPWT 150056Z AUTO 00000KT 10SM CLR M03/M08 A3026 RMK AO2 SLP261 T10331078 FZRANO=
202401142356 METAR KPWT 142356Z AUTO 06006KT 10SM CLR M01/M07 A3024 RMK AO2 SLP251 T10111072 10011 21022 53007 FZRANO=
202401142256 METAR KPWT 142256Z AUTO 04006KT 10SM CLR M01/M08 A3022 RMK AO2 SLP245 T10061078 FZRANO=
202401142156 METAR KPWT 142156Z AUTO 05005KT 10SM CLR 01/M09 A3022 RMK AO2 SLP244 T00111089 FZRANO=
202401142056 METAR KPWT 142056Z AUTO 05006KT 10SM CLR M01/M09 A3022 RMK AO2 SLP243 T10111089 50004 FZRANO=
202401141956 METAR KPWT 141956Z AUTO 04006KT 10SM CLR 00/M09 A3023 RMK AO2 SLP246 T00001094 FZRANO=
202401141856 METAR KPWT 141856Z AUTO 04005KT 10SM CLR M01/M09 A3022 RMK AO2 SLP245 T10111089 FZRANO=
202401141756 METAR KPWT 141756Z AUTO 03003KT 10SM CLR M02/M08 A3020 RMK AO2 SLP238 T10171078 11017 21106 53024 FZRANO=
202401141656 METAR KPWT 141656Z AUTO 00000KT 10SM CLR M06/M09 A3018 RMK AO2 SLP230 T10611089 FZRANO=
202401141556 METAR KPWT 141556Z AUTO 19003KT 10SM CLR M11/M12 A3015 RMK AO2 SLP219 T11061117 FZRANO=
202401141456 METAR KPWT 141456Z AUTO 00000KT 10SM CLR M09/M11 A3013 RMK AO2 SLP214 T10891111 53031 FZRANO=
202401141356 METAR KPWT 141356Z AUTO 00000KT 10SM CLR M11/M12 A3010 RMK AO2 SLP202 T11061117 FZRANO=
202401141256 METAR KPWT 141256Z AUTO 00000KT 10SM CLR M10/M11 A3006 RMK AO2 SLP191 T11001111 FZRANO=
202401141156 METAR KPWT 141156Z AUTO 00000KT 10SM CLR M11/M12 A3004 RMK AO2 SLP183 7//// T11061117 11067 21111 51021 FZRANO=
202401141056 METAR KPWT 141056Z AUTO 00000KT 10SM CLR M10/M12 A3003 RMK AO2 SLP179 T11001122 FZRANO=
202401140956 METAR KPWT 140956Z AUTO 00000KT 10SM CLR M08/M12 A3000 RMK AO2 SLP171 T10781117 FZRANO=
202401140856 METAR KPWT 140856Z AUTO 04006KT 10SM CLR M07/M11 A2998 RMK AO2 SLP162 T10671106 53027 FZRANO=
202401140756 METAR KPWT 140756Z AUTO 04008KT 10SM CLR M07/M11 A2995 RMK AO2 SLP151 T10671106 410561100 FZRANO=
202401140656 METAR KPWT 140656Z AUTO 04004KT 10SM CLR M08/M11 A2992 RMK AO2 SLP142 T10781111 FZRANO=
202401140556 METAR KPWT 140556Z AUTO 04006KT 10SM CLR M07/M12 A2990 RMK AO2 SLP135 T10671122 11056 21067 53015 FZRANO=
202401140456 METAR KPWT 140456Z AUTO 05012G16KT 10SM CLR M06/M11 A2988 RMK AO2 SLP128 T10611111 FZRANO=
202401140356 METAR KPWT 140356Z AUTO 03012G19KT 10SM CLR M06/M10 A2986 RMK AO2 SLP122 T10611100 FZRANO=
202401140256 METAR KPWT 140256Z AUTO 02016KT 10SM CLR M07/M11 A2985 RMK AO2 SLP119 T10671106 51023 FZRANO=
202401140156 METAR KPWT 140156Z AUTO 02011KT 10SM CLR M06/M12 A2984 RMK AO2 SLP115 T10611117 FZRANO=
202401140056 METAR KPWT 140056Z AUTO 03009KT 10SM CLR M06/M13 A2981 RMK AO2 SLP106 T10561133 FZRANO=
202401132356 METAR KPWT 132356Z AUTO 02011G16KT 10SM CLR M06/M12 A2978 RMK AO2 SLP096 T10561122 11056 21078 55009 FZRANO=
202401132256 METAR KPWT 132256Z AUTO 03010G21KT 10SM CLR M06/M13 A2977 RMK AO2 SLP092 T10561128 FZRANO=
202401132156 METAR KPWT 132156Z AUTO 04013G19KT 10SM CLR M06/M12 A2978 RMK AO2 SLP095 T10561122 FZRANO=
202401132056 METAR KPWT 132056Z AUTO 03010G17KT 10SM CLR M06/M12 A2981 RMK AO2 SLP105 T10561122 58044 FZRANO=
202401131956 METAR KPWT 131956Z AUTO 03011KT 10SM CLR M06/M12 A2985 RMK AO2 SLP119 T10611122 FZRANO=
202401131856 METAR KPWT 131856Z AUTO 03013G18KT 10SM CLR M07/M13 A2990 RMK AO2 SLP137 T10671128 FZRANO=
202401131756 METAR KPWT 131756Z AUTO 04015G19KT 10SM CLR M08/M13 A2994 RMK AO2 SLP150 6//// T10781133 11078 21100 56027 FZRANO=
202401131656 METAR KPWT 131656Z AUTO 03011KT 10SM CLR M09/M14 A2997 RMK AO2 SLP160 T10891139 FZRANO=
202401131556 METAR KPWT 131556Z AUTO 03010KT 10SM CLR M09/M14 A2998 RMK AO2 SLP165 T10941139 FZRANO=
202401131456 METAR KPWT 131456Z AUTO 03009KT 10SM CLR M10/M14 A3002 RMK AO2 SLP179 6//// T11001139 58032 FZRANO=
202401131356 METAR KPWT 131356Z AUTO 03010KT 10SM CLR M09/M14 A3006 RMK AO2 SLP191 T10941139 FZRANO=
202401131256 METAR KPWT 131256Z AUTO 04007KT 10SM CLR M09/M14 A3010 RMK AO2 SLP204 T10941139 FZRANO=
202401131156 METAR KPWT 131156Z AUTO 05008KT 10SM CLR M09/M13 A3012 RMK AO2 SLP210 T10941128 11089 21094 56023 FZRANO=
202401131056 METAR KPWT 131056Z AUTO 04008KT 10SM CLR M09/M12 A3014 RMK AO2 SLP219 T10941122 FZRANO=
202401130956 METAR KPWT 130956Z AUTO 03009KT 10SM CLR M09/M12 A3016 RMK AO2 SLP226 T10941122 FZRANO=
202401130856 METAR KPWT 130856Z AUTO 02010KT 10SM CLR M09/M12 A3019 RMK AO2 SLP234 T10941122 58019 FZRANO=
202401130756 METAR KPWT 130756Z AUTO 02008G16KT 10SM CLR M09/M12 A3021 RMK AO2 SLP243 T10891117 410501106 FZRANO=
202401130656 METAR KPWT 130656Z AUTO 02011KT 10SM CLR M09/M12 A3024 RMK AO2 SLP250 T10941117 FZRANO=
202401130556 METAR KPWT 130556Z AUTO 03010KT 10SM CLR M09/M12 A3025 RMK AO2 SLP254 T10941122 11078 21106 58007 FZRANO=
202401130456 METAR KPWT 130456Z AUTO 03008KT 10SM CLR M09/M13 A3026 RMK AO2 SLP259 T10941128 FZRANO=
202401130356 METAR KPWT 130356Z AUTO 03011G18KT 10SM CLR M10/M14 A3026 RMK AO2 SLP259 T11001144 FZRANO=
202401130256 METAR KPWT 130256Z AUTO 02010KT 10SM CLR M10/M15 A3027 RMK AO2 SLP261 T11001150 50006 FZRANO=
202401130156 METAR KPWT 130156Z AUTO 04007KT 10SM CLR M10/M16 A3028 RMK AO2 SLP264 T11001156 FZRANO=
202401130056 METAR KPWT 130056Z AUTO 03013G19KT 10SM CLR M10/M16 A3026 RMK AO2 SLP259 T11001161 FZRANO=
202401122356 METAR KPWT 122356Z AUTO 03015G21KT 10SM CLR M08/M17 A3025 RMK AO2 PK WND 04026/2300 SLP256 T10781167 11056 21078 53007 FZRANO=
202401122256 METAR KPWT 122256Z AUTO 05014G21KT 10SM CLR M07/M14 A3024 RMK AO2 SLP252 T10671139 FZRANO=
202401122156 METAR KPWT 122156Z AUTO 05014G22KT 10SM FEW055 M07/M16 A3023 RMK AO2 SLP249 T10671156 FZRANO=
202401122056 METAR KPWT 122056Z AUTO 05017G22KT 10SM FEW050 M07/M16 A3023 RMK AO2 PK WND 05028/2019 SLP248 T10671161 51012 FZRANO=
202401121956 METAR KPWT 121956Z AUTO 04017G29KT 10SM SCT060 M06/M16 A3022 RMK AO2 PK WND 04029/1953 SLP244 T10611161 FZRANO=
202401121856 METAR KPWT 121856Z AUTO 04013G25KT 10SM CLR M07/M15 A3022 RMK AO2 SLP243 T10671150 FZRANO=
202401121756 METAR KPWT 121756Z AUTO 04016G26KT 10SM FEW055 M08/M15 A3019 RMK AO2 PK WND 04029/1711 SLP236 60000 T10781150 11061 21078 53021 FZRANO=
202401121656 METAR KPWT 121656Z AUTO 02015G26KT 10SM OVC055 M08/M13 A3017 RMK AO2 PK WND 04028/1558 SLP229 T10781133 FZRANO=
202401121556 METAR KPWT 121556Z AUTO 03013G23KT 10SM OVC055 M08/M13 A3015 RMK AO2 SNE44 SLP221 P0000 T10781128 FZRANO=
202401121456 METAR KPWT 121456Z AUTO 03012G19KT 9SM -SN OVC050 M07/M12 A3013 RMK AO2 SLP214 P0000 60000 T10721122 53018 FZRANO=
202401121356 METAR KPWT 121356Z AUTO 03015G19KT 9SM -SN OVC050 M07/M12 A3011 RMK AO2 SLP207 P0000 T10721117 FZRANO=
202401121256 METAR KPWT 121256Z AUTO 02014G21KT 9SM -SN CLR M07/M12 A3009 RMK AO2 PK WND 03026/1239 SNB1157 SLP201 P0000 T10671117 FZRANO=
202401121156 METAR KPWT 121156Z AUTO 03013G22KT 10SM FEW050 M06/M11 A3008 RMK AO2 SNB03E13 SLP194 P0000 60000 T10611111 11039 21061 53026 FZRANO=
202401121056 METAR KPWT 121056Z AUTO 04013KT 10SM FEW050 M06/M12 A3005 RMK AO2 SLP183 T10611117 FZRANO=
202401120956 METAR KPWT 120956Z AUTO 04016G24KT 10SM CLR M06/M11 A3001 RMK AO2 SLP171 T10561111 FZRANO=
202401120856 METAR KPWT 120856Z AUTO 03008G22KT 10SM FEW050 M06/M11 A3000 RMK AO2 SLP168 60000 T10561111 53025 FZRANO=
202401120756 METAR KPWT 120756Z AUTO 04016G23KT 10SM FEW037 M05/M10 A2997 RMK AO2 SNB24E37 SLP157 P0000 T10501100 400721050 FZRANO=
202401120656 METAR KPWT 120656Z AUTO 04012KT 10SM BKN035 OVC044 M04/M09 A2995 RMK AO2 SLP151 T10441094 FZRANO=
202401120556 METAR KPWT 120556Z AUTO 04012G20KT 10SM BKN042 M04/M08 A2992 RMK AO2 SNE33 SLP142 P0000 60000 T10391078 10050 21039 51022 FZRANO=
202401120456 METAR KPWT 120456Z AUTO 05014G20KT 9SM -SN FEW038 M04/M06 A2991 RMK AO2 SLP136 P0000 T10391061 FZRANO=
202401120408 SPECI KPWT 120408Z AUTO 04017G25KT 5SM -SN BR FEW011 SCT023 BKN035 M04/M05 A2989 RMK AO2 P0000 FZRANO=
202401120356 METAR KPWT 120356Z AUTO 04015G23KT 7SM -SN SCT011 BKN024 BKN029 M03/M05 A2988 RMK AO2 SLP128 P0000 T10331050 FZRANO=
202401120341 SPECI KPWT 120341Z AUTO 04009G20KT 6SM -SN BR BKN011 BKN024 OVC028 M03/M04 A2988 RMK AO2 P0000 FZRANO=
202401120335 SPECI KPWT 120335Z AUTO 04014G20KT 5SM -SN BR SCT011 OVC030 M03/M04 A2988 RMK AO2 P0000 FZRANO=
202401120321 SPECI KPWT 120321Z AUTO 03013KT 5SM -SN BR SCT013 SCT022 BKN027 M03/M04 A2986 RMK AO2 P0000 FZRANO=
202401120256 METAR KPWT 120256Z AUTO 04014KT 9SM -SN FEW013 BKN035 M02/M04 A2986 RMK AO2 SNB00 SLP120 P0000 60000 T10221039 53021 FZRANO=
202401120203 SPECI KPWT 120203Z AUTO 05012G18KT 10SM -SN SCT014 M02/M03 A2983 RMK AO2 SNB00 P0000 FZRANO=
202401120156 METAR KPWT 120156Z AUTO 03012G19KT 10SM BKN014 M01/M03 A2983 RMK AO2 SLP110 T10111033 FZRANO=
202401120153 SPECI KPWT 120153Z AUTO 04012G19KT 10SM BKN014 M01/M03 A2983 RMK AO2 FZRANO=
202401120056 METAR KPWT 120056Z AUTO 04014G21KT 10SM CLR M01/M03 A2980 RMK AO2 WSHFT 0001 SLP098 T10061028 FZRANO=
202401120021 SPECI KPWT 120021Z AUTO 05013KT 10SM CLR 01/M02 A2978 RMK AO2 WSHFT 0001 FZRANO=
202401112356 METAR KPWT 112356Z AUTO VRB06KT 10SM CLR 05/M07 A2976 RMK AO2 SLP085 T00501072 10072 20022 53006=
202401112256 METAR KPWT 112256Z AUTO 23013KT 10SM CLR 06/M04 A2974 RMK AO2 SLP076 T00611039=
202401112156 METAR KPWT 112156Z AUTO 24009G17KT 10SM CLR 07/M01 A2973 RMK AO2 SLP074 T00671011=
202401112056 METAR KPWT 112056Z AUTO 22012KT 10SM CLR 06/02 A2974 RMK AO2 SLP077 T00560022 58021=
202401111956 METAR KPWT 111956Z AUTO 22012KT 10SM CLR 06/02 A2977 RMK AO2 SLP087 T00560017=
202401111856 METAR KPWT 111856Z AUTO 00000KT 10SM CLR 03/01 A2979 RMK AO2 SLP096 T00330011=
202401111756 METAR KPWT 111756Z AUTO VRB03KT 10SM FEW080 04/02 A2981 RMK AO2 SLP101 T00390017 10039 21028 58002=
202401111656 METAR KPWT 111656Z AUTO 00000KT 10SM FEW080 M01/M01 A2982 RMK AO2 SLP105 T10061006 FZRANO=
202401111556 METAR KPWT 111556Z AUTO 19003KT 10SM CLR M02/M02 A2982 RMK AO2 SLP106 T10171017 FZRANO=
202401111456 METAR KPWT 111456Z AUTO VRB03KT 10SM CLR M02/M02 A2981 RMK AO2 SLP104 T10221022 50004 FZRANO=
202401111428 SPECI KPWT 111428Z AUTO 03003KT 6SM BR CLR M02/M02 A2982 RMK AO2 FZRANO=
202401111420 SPECI KPWT 111420Z AUTO VRB05KT 2SM BR FEW001 M02/M02 A2982 RMK AO2 FZRANO=
202401111414 SPECI KPWT 111414Z AUTO 14003KT 1SM BR VV001 M02/M02 A2982 RMK AO2 FZRANO=
202401111405 SPECI KPWT 111405Z AUTO 13004KT 1/2SM FZFG VV001 M02/M02 A2982 RMK AO2 FZRANO=
202401111356 METAR KPWT 111356Z AUTO 33003KT 1/4SM FZFG BKN002 M02/M02 A2983 RMK AO2 SLP108 T10171017 FZRANO=
202401111349 SPECI KPWT 111349Z AUTO 07003KT 1/4SM FZFG BKN002 M02/M02 A2982 RMK AO2 FZRANO=
202401111345 SPECI KPWT 111345Z AUTO 02003KT 3/4SM BR VV001 M02/M02 A2982 RMK AO2 VIS 1/4V5 FZRANO=
202401111343 SPECI KPWT 111343Z AUTO 04003KT 1 1/4SM BR SCT002 M03/M03 A2982 RMK AO2 VIS 1/4V5 FZRANO=
202401111339 SPECI KPWT 111339Z AUTO 00000KT 4SM BR FEW002 M02/M02 A2982 RMK AO2 FZRANO=
202401111256 METAR KPWT 111256Z AUTO 00000KT 10SM CLR M01/M01 A2981 RMK AO2 SLP103 T10111011 FZRANO=
202401111205 SPECI KPWT 111205Z AUTO 00000KT 10SM FEW008 00/00 A2980 RMK AO2 FZRANO=
202401111156 METAR KPWT 111156Z AUTO 33003KT 10SM BKN006 01/01 A2980 RMK AO2 CIG 004V009 SLP098 T00060006 10017 20006 53004 FZRANO=
202401111151 SPECI KPWT 111151Z AUTO 00000KT 10SM BKN006 01/01 A2980 RMK AO2 CIG 004V009 FZRANO=
202401111056 METAR KPWT 111056Z AUTO 23003KT 10SM OVC004 01/01 A2978 RMK AO2 SLP091 T00110011 FZRANO=
202401110956 METAR KPWT 110956Z AUTO 21005KT 10SM OVC004 01/01 A2979 RMK AO2 SLP094 T00110011 FZRANO=
202401110924 SPECI KPWT 110924Z AUTO 21008KT 10SM OVC004 01/01 A2979 RMK AO2 FZRANO=
202401110856 METAR KPWT 110856Z AUTO 21010KT 10SM OVC002 02/02 A2980 RMK AO2 SLP096 T00170017 58009 FZRANO=
202401110821 SPECI KPWT 110821Z AUTO 20008KT 5SM BR OVC002 02/02 A2981 RMK AO2 FZRANO=
202401110805 SPECI KPWT 110805Z AUTO 20006KT 2SM BR OVC002 02/02 A2981 RMK AO2 FZRANO=
202401110756 METAR KPWT 110756Z AUTO 20007KT 1 1/2SM BR OVC002 02/02 A2982 RMK AO2 SLP103 T00170017 400501017 FZRANO=
202401110736 SPECI KPWT 110736Z AUTO 20008KT 1SM BR OVC002 02/02 A2982 RMK AO2 FZRANO=
202401110722 SPECI KPWT 110722Z AUTO 20005KT 3/4SM BR OVC002 02/02 A2982 RMK AO2 FZRANO=
202401110705 SPECI KPWT 110705Z AUTO 20004KT 1 3/4SM BR OVC002 02/02 A2982 RMK AO2 FZRANO=
202401110656 METAR KPWT 110656Z AUTO 20005KT 3SM BR OVC002 02/02 A2982 RMK AO2 SLP106 T00170017 FZRANO=
202401110618 SPECI KPWT 110618Z AUTO 00000KT 3SM BR OVC002 01/01 A2983 RMK AO2 FZRANO=
202401110608 SPECI KPWT 110608Z AUTO 00000KT 1 1/2SM BR OVC002 01/01 A2983 RMK AO2 FZRANO=
202401110556 METAR KPWT 110556Z AUTO 23003KT 1SM BR OVC002 00/00 A2983 RMK AO2 SLP110 T00000000 10044 21017 51011 FZRANO=
202401110543 SPECI KPWT 110543Z AUTO 00000KT 1SM BR BKN002 BKN040 00/00 A2983 RMK AO2 FZRANO=
202401110538 SPECI KPWT 110538Z AUTO 18003KT 2 1/2SM BR BKN002 BKN040 00/00 A2983 RMK AO2 FZRANO=
202401110503 SPECI KPWT 110503Z AUTO 00000KT 10SM SCT001 BKN044 M01/M01 A2982 RMK AO2 FZRANO=
202401110456 METAR KPWT 110456Z AUTO 00000KT 10SM BKN001 BKN044 M01/M01 A2982 RMK AO2 SLP107 T10061006 FZRANO=
202401110442 SPECI KPWT 110442Z AUTO 00000KT 3SM BR BKN001 M01/M01 A2982 RMK AO2 FZRANO=
202401110434 SPECI KPWT 110434Z AUTO 00000KT 2 1/2SM BR BKN001 M01/M01 A2982 RMK AO2 VIS 1 1/4V5 FZRANO=
202401110429 SPECI KPWT 110429Z AUTO 00000KT 1SM BR BKN001 M01/M01 A2983 RMK AO2 FZRANO=
202401110414 SPECI KPWT 110414Z AUTO 00000KT 1/2SM FZFG BKN001 M01/M01 A2983 RMK AO2 FZRANO=
202401110411 SPECI KPWT 110411Z AUTO 00000KT 1SM BR BKN001 M01/M01 A2982 RMK AO2 FZRANO=
202401110407 SPECI KPWT 110407Z AUTO 00000KT 2 1/2SM BR BKN001 BKN049 M01/M01 A2982 RMK AO2 FZRANO=
202401110404 SPECI KPWT 110404Z AUTO 14003KT 6SM BR SCT001 SCT049 M01/M01 A2982 RMK AO2 FZRANO=
202401110356 METAR KPWT 110356Z AUTO 00000KT 10SM FEW049 M02/M02 A2982 RMK AO2 SLP106 T10171017 FZRANO=
202401110256 METAR KPWT 110256Z AUTO 00000KT 10SM CLR M01/M01 A2980 RMK AO2 SLP100 T10111011 53012 FZRANO=
202401110156 METAR KPWT 110156Z AUTO 00000KT 10SM CLR 00/00 A2978 RMK AO2 SLP094 T00000000 FZRANO=
202401110056 METAR KPWT 110056Z AUTO 00000KT 10SM SCT023 BKN031 03/02 A2977 RMK AO2 SLP087 T00280022=
202401110054 SPECI KPWT 110054Z AUTO 00000KT 10SM SCT023 BKN031 03/03 A2977 RMK AO2=
202401102356 METAR KPWT 102356Z AUTO 07004KT 10SM BKN017 OVC022 04/03 A2975 RMK AO2 SLP080 T00440028 10050 20017 53021=
202401102256 METAR KPWT 102256Z AUTO 04003KT 10SM OVC022 05/02 A2972 RMK AO2 SLP071 T00500022=
202401102220 SPECI KPWT 102220Z AUTO 09003KT 10SM BKN017 BKN027 OVC043 05/02 A2970 RMK AO2=
202401102209 SPECI KPWT 102209Z AUTO 03003KT 10SM FEW017 SCT029 BKN043 05/02 A2970 RMK AO2=
202401102156 METAR KPWT 102156Z AUTO 00000KT 10SM BKN020 BKN029 OVC041 04/02 A2970 RMK AO2 SLP062 T00440017=
202401102056 METAR KPWT 102056Z AUTO 14006KT 10SM BKN022 BKN027 OVC040 05/02 A2969 RMK AO2 SLP059 T00500017 51008=
202401101956 METAR KPWT 101956Z AUTO 12004KT 10SM OVC016 04/02 A2968 RMK AO2 SLP058 T00390022=
202401101944 SPECI KPWT 101944Z AUTO 11003KT 10SM OVC016 04/02 A2968 RMK AO2=
202401101856 METAR KPWT 101856Z AUTO VRB03KT 10SM OVC012 03/03 A2968 RMK AO2 SLP056 T00330028=
202401101836 SPECI KPWT 101836Z AUTO 13003KT 10SM BKN007 BKN012 03/03 A2967 RMK AO2 CIG 004V010=
202401101828 SPECI KPWT 101828Z AUTO 13003KT 10SM BKN005 03/03 A2966 RMK AO2 CIG 003V009=
202401101756 METAR KPWT 101756Z AUTO 00000KT 3SM BR OVC003 02/02 A2966 RMK AO2 SLP051 T00170017 10017 20011 51022 FZRANO=
202401101737 SPECI KPWT 101737Z AUTO 00000KT 3SM BR OVC003 02/02 A2966 RMK AO2 FZRANO=
202401101702 SPECI KPWT 101702Z AUTO 00000KT 1 3/4SM BR OVC003 01/01 A2964 RMK AO2 FZRANO=
202401101656 METAR KPWT 101656Z AUTO 00000KT 3SM BR OVC003 01/01 A2964 RMK AO2 SLP045 T00110011 FZRANO=
202401101648 SPECI KPWT 101648Z AUTO 00000KT 3SM BR OVC003 01/01 A2964 RMK AO2 FZRANO=
202401101630 SPECI KPWT 101630Z AUTO 00000KT 1 3/4SM BR OVC003 01/01 A2963 RMK AO2 FZRANO=
202401101623 SPECI KPWT 101623Z AUTO 00000KT 4SM BR OVC003 01/01 A2963 RMK AO2 FZRANO=
202401101612 SPECI KPWT 101612Z AUTO 00000KT 2SM BR OVC003 01/01 A2963 RMK AO2 FZRANO=
202401101556 METAR KPWT 101556Z AUTO 00000KT 9SM OVC003 01/01 A2962 RMK AO2 SLP036 T00110011 FZRANO=
202401101512 SPECI KPWT 101512Z AUTO 00000KT 6SM BR OVC003 01/01 A2960 RMK AO2 FZRANO=
202401101456 METAR KPWT 101456Z AUTO 00000KT 9SM OVC005 01/01 A2959 RMK AO2 SLP029 T00110011 53005 FZRANO=
202401101356 METAR KPWT 101356Z AUTO 00000KT 8SM OVC005 01/01 A2959 RMK AO2 SLP025 T00110011 FZRANO=
202401101341 SPECI KPWT 101341Z AUTO 20004KT 9SM OVC005 02/02 A2959 RMK AO2 FZRANO=
202401101256 METAR KPWT 101256Z AUTO 00000KT 10SM OVC009 02/02 A2957 RMK AO2 SLP020 T00170017 FZRANO=
202401101156 METAR KPWT 101156Z AUTO 20006KT 10SM OVC007 02/02 A2958 RMK AO2 SLP022 70018 T00170017 10028 20011 56000 FZRANO=
202401101108 SPECI KPWT 101108Z AUTO 19006KT 10SM BKN007 02/02 A2958 RMK AO2 FZRANO=
202401101056 METAR KPWT 101056Z AUTO 19005KT 10SM FEW007 01/01 A2958 RMK AO2 SLP023 T00110011 FZRANO=
202401100956 METAR KPWT 100956Z AUTO 19004KT 10SM SCT008 01/01 A2957 RMK AO2 SLP022 T00110011 FZRANO=
202401100930 SPECI KPWT 100930Z AUTO 20005KT 10SM SCT008 BKN049 02/02 A2958 RMK AO2 FZRANO=
202401100918 SPECI KPWT 100918Z AUTO 19006KT 10SM BKN008 BKN049 02/02 A2958 RMK AO2 CIG 006V010 FZRANO=
202401100913 SPECI KPWT 100913Z AUTO 20005KT 10SM SCT010 BKN049 02/02 A2958 RMK AO2 FZRANO=
202401100856 METAR KPWT 100856Z AUTO 20005KT 10SM OVC010 02/02 A2958 RMK AO2 SLP024 T00170017 53002 FZRANO=
202401100756 METAR KPWT 100756Z AUTO 20005KT 10SM OVC010 02/02 A2957 RMK AO2 CIG 007V012 SLP020 T00220017 400780017 FZRANO=
202401100746 SPECI KPWT 100746Z AUTO 21006KT 10SM BKN010 OVC110 02/02 A2957 RMK AO2 FZRANO=
202401100656 METAR KPWT 100656Z AUTO 21005KT 10SM SCT120 02/02 A2956 RMK AO2 SLP018 T00220017 FZRANO=
202401100556 METAR KPWT 100556Z AUTO 21011KT 10SM OVC110 03/02 A2958 RMK AO2 SLP022 T00280022 10056 20028 58031=
202401100456 METAR KPWT 100456Z AUTO 21012KT 10SM BKN110 03/02 A2961 RMK AO2 SLP033 T00330022=
202401100356 METAR KPWT 100356Z AUTO 20014KT 10SM CLR 03/02 A2965 RMK AO2 SLP045 T00280022=
202401100256 METAR KPWT 100256Z AUTO 21017G20KT 10SM CLR 03/02 A2967 RMK AO2 SLP052 T00280022 51007=
202401100156 METAR KPWT 100156Z AUTO 22010G19KT 10SM CLR 04/02 A2967 RMK AO2 SLP054 T00390022=
202401100056 METAR KPWT 100056Z AUTO 21015G20KT 10SM FEW013 04/03 A2966 RMK AO2 SLP049 T00440033=
202401092356 METAR KPWT 092356Z AUTO 22011G16KT 10SM CLR 06/03 A2965 RMK AO2 RAE10 SLP046 P0000 60001 T00610033 10078 20056 53019=
202401092256 METAR KPWT 092256Z AUTO 22014KT 10SM -RA SCT021 BKN030 06/05 A2963 RMK AO2 PK WND 23026/2202 RAB07 SLP038 P0001 T00610050=
202401092156 METAR KPWT 092156Z AUTO 23015G23KT 10SM CLR 07/05 A2961 RMK AO2 PK WND 23030/2103 RAE45 SLP030 P0000 T00720050=
202401092056 METAR KPWT 092056Z AUTO 22023G29KT 10SM -RA CLR 07/05 A2959 RMK AO2 PK WND 23031/2045 RAE05B26 SLP026 P0000 60000 T00670050 51015=
202401091956 METAR KPWT 091956Z AUTO 23021G31KT 10SM -RA CLR 07/04 A2958 RMK AO2 PK WND 23032/1921 RAB16E26B49 SLP021 P0000 T00670044=
202401091856 METAR KPWT 091856Z AUTO 21019G26KT 10SM FEW014 07/05 A2957 RMK AO2 PK WND 23026/1855 RAE44 SLP018 P0000 T00670050=
202401091756 METAR KPWT 091756Z AUTO 20015G22KT 10SM -RA FEW014 SCT027 BKN032 06/06 A2955 RMK AO2 PK WND 21030/1731 SLP011 P0005 60017 T00560056 10056 20039 58002=
202401091746 SPECI KPWT 091746Z AUTO 20016KT 10SM -RA FEW012 BKN029 OVC034 06/05 A2955 RMK AO2 PK WND 21030/1731 P0005=
202401091726 SPECI KPWT 091726Z AUTO 20015G23KT 8SM -RA BKN014 BKN019 OVC027 05/05 A2954 RMK AO2 PK WND 22028/1713 P0005=
202401091656 METAR KPWT 091656Z AUTO 21020G26KT 10SM -RA OVC016 05/05 A2956 RMK AO2 PK WND 20029/1613 RAB04 SLP015 P0001 T00500050=
202401091626 SPECI KPWT 091626Z AUTO 20018G27KT 10SM -RA BKN018 BKN034 OVC043 05/04 A2955 RMK AO2 PK WND 20029/1613 RAB04 P0000=
202401091556 METAR KPWT 091556Z AUTO 20018G24KT 10SM FEW014 05/04 A2955 RMK AO2 PK WND 21028/1539 RAE16 SLP011 P0000 T00500044=
202401091545 SPECI KPWT 091545Z AUTO 19016G28KT 10SM SCT013 05/04 A2954 RMK AO2 PK WND 21028/1539 RAE16 P0000=
202401091507 SPECI KPWT 091507Z AUTO 20015G20KT 10SM -RA OVC013 05/05 A2956 RMK AO2 P0000=
202401091456 METAR KPWT 091456Z AUTO 20015G23KT 10SM -RA SCT011 OVC015 05/04 A2955 RMK AO2 PK WND 19028/1359 SLP014 P0001 60011 T00500044 58005=
202401091429 SPECI KPWT 091429Z AUTO 20015G21KT 10SM -RA BKN011 BKN038 04/04 A2956 RMK AO2 PK WND 19028/1359 CIG 007V014 P0001=
202401091356 METAR KPWT 091356Z AUTO 21021G29KT 10SM -RA FEW030 04/04 A2955 RMK AO2 PK WND 20029/1353 RAE14B52 SLP012 P0002 T00440039=
202401091323 SPECI KPWT 091323Z AUTO 21020G26KT 10SM FEW011 SCT019 04/03 A2955 RMK AO2 PK WND 22026/1322 RAE14 P0002=
202401091256 METAR KPWT 091256Z AUTO 22018G24KT 6SM -RA BR FEW013 OVC019 05/04 A2958 RMK AO2 RAB15 SLP022 P0008 T00500044=
202401091239 SPECI KPWT 091239Z AUTO 21017G22KT 10SM -RA SCT021 BKN028 OVC035 05/04 A2959 RMK AO2 RAB15 P0001=
202401091156 METAR KPWT 091156Z AUTO 20014G22KT 10SM FEW011 SCT024 SCT030 05/04 A2957 RMK AO2 PK WND 20027/1059 RAB21E49 SLP020 P0001 60038 70129 T00500044 10083 20050 50004=
202401091142 SPECI KPWT 091142Z AUTO 20017G23KT 10SM -RA SCT013 BKN019 BKN024 06/05 A2957 RMK AO2 PK WND 20027/1059 RAB21 P0001=
202401091056 METAR KPWT 091056Z AUTO 22017G20KT 10SM FEW018 SCT025 SCT047 06/05 A2958 RMK AO2 PK WND 22026/1020 RAB16E47 SLP024 P0001 T00560050=
202401091051 SPECI KPWT 091051Z AUTO 21014G21KT 10SM SCT018 SCT024 BKN047 06/05 A2958 RMK AO2 PK WND 22026/1020 RAB16E47 P0001=
202401091043 SPECI KPWT 091043Z AUTO 20014G22KT 10SM -RA SCT018 BKN026 BKN033 06/05 A2957 RMK AO2 PK WND 22026/1020 RAB16 P0001=
202401090956 METAR KPWT 090956Z AUTO 21016G27KT 10SM FEW110 06/05 A2956 RMK AO2 PK WND 22029/0925 SLP016 T00610050=
202401090856 METAR KPWT 090856Z AUTO 22024G29KT 10SM CLR 07/06 A2952 RMK AO2 PK WND 22029/0855 RAE10 SLP004 P0000 60036 T00670056 55000=
202401090812 SPECI KPWT 090812Z AUTO 21021G26KT 10SM FEW008 SCT045 SCT060 07/07 A2951 RMK AO2 PK WND 22027/0759 RAE10 P0000=
202401090804 SPECI KPWT 090804Z AUTO 21018G31KT 10SM -RA SCT007 SCT010 BKN019 08/08 A2951 RMK AO2 PK WND 22027/0759 CIG 015V025 P0000=
202401090756 METAR KPWT 090756Z AUTO 22023G31KT 8SM -RA BKN007 BKN010 BKN042 08/08 A2951 RMK AO2 PK WND 19032/0744 SLP999 P0019 T00780078 400830017=
202401090754 SPECI KPWT 090754Z AUTO 23019G23KT 7SM -RA BKN007 BKN010 OVC042 08/08 A2951 RMK AO2 PK WND 19032/0744 P0019 400830017=
202401090656 METAR KPWT 090656Z AUTO 19013G21KT 9SM RA OVC005 08/08 A2953 RMK AO2 CIG 005V009 PRESFR SLP004 P0017 T00780078=
202401090605 SPECI KPWT 090605Z AUTO 20016G23KT 8SM RA OVC005 07/07 A2960 RMK AO2 P0002=
202401090556 METAR KPWT 090556Z AUTO 20015G23KT 8SM RA OVC003 07/07 A2961 RMK AO2 PK WND 20028/0534 SLP034 P0012 60038 T00720072 10072 20033 56049=
202401090456 METAR KPWT 090456Z AUTO 20019G28KT 6SM -RA BR OVC003 07/07 A2963 RMK AO2 PK WND 21028/0456 SLP039 P0006 T00670067=
202401090356 METAR KPWT 090356Z AUTO 19012G19KT 8SM -RA OVC003 07/07 A2971 RMK AO2 SLP066 P0002 T00670067=
202401090332 SPECI KPWT 090332Z AUTO 19013G18KT 6SM -RA BR OVC003 06/06 A2973 RMK AO2 P0001=
202401090256 METAR KPWT 090256Z AUTO 20012G22KT 5SM -RA BR OVC005 06/06 A2976 RMK AO2 SLP086 P0005 60018 T00610061 58045=
202401090156 METAR KPWT 090156Z AUTO 20010G17KT 6SM -RA BR OVC005 06/06 A2981 RMK AO2 SLP102 P0009 T00560056=
202401090111 SPECI KPWT 090111Z AUTO 19005KT 3SM -RA BR OVC003 04/04 A2985 RMK AO2 P0002=
202401090103 SPECI KPWT 090103Z AUTO 20004KT 2 1/2SM -RA BR OVC003 04/04 A2986 RMK AO2 P0001=
202401090056 METAR KPWT 090056Z AUTO 19003KT 1 3/4SM -RA BR BKN003 04/04 A2986 RMK AO2 SLP118 P0004 T00440044=
202401090052 SPECI KPWT 090052Z AUTO 00000KT 2SM -RA BR BKN003 04/04 A2986 RMK AO2 P0004=
202401082356 METAR KPWT 082356Z AUTO 00000KT 1 1/2SM -RA BR FEW006 03/03 A2990 RMK AO2 SLP131 P0004 60023 T00330033 10033 20022 56030=
202401082345 SPECI KPWT 082345Z AUTO 00000KT 1 1/2SM -RA BR SCT006 03/03 A2990 RMK AO2 P0003=
202401082329 SPECI KPWT 082329Z AUTO 00000KT 2SM -RA BR BKN006 03/03 A2991 RMK AO2 P0002=
202401082316 SPECI KPWT 082316Z AUTO 00000KT 1 1/4SM -RA BR SCT006 03/03 A2992 RMK AO2 P0001=
202401082256 METAR KPWT 082256Z AUTO 00000KT 1 3/4SM -RA BR BKN006 03/03 A2993 RMK AO2 SLP141 P0002 T00330033=
202401082242 SPECI KPWT 082242Z AUTO 00000KT 2SM -RA BR BKN006 03/03 A2994 RMK AO2 CIG 003V007 P0001=
202401082236 SPECI KPWT 082236Z AUTO 00000KT 1 3/4SM -RA BR BKN004 03/03 A2994 RMK AO2 P0001=
202401082214 SPECI KPWT 082214Z AUTO 00000KT 2SM -RA BR OVC004 03/03 A2995 RMK AO2 CIG 003V006 P0000=
202401082156 METAR KPWT 082156Z AUTO 00000KT 1 1/4SM -RA BR OVC004 03/03 A2995 RMK AO2 SLP150 P0003 T00280028=
202401082149 SPECI KPWT 082149Z AUTO 31003KT 1 1/4SM -RA BR OVC004 03/03 A2996 RMK AO2 P0003=
202401082137 SPECI KPWT 082137Z AUTO 29003KT 2 1/2SM -RA BR OVC004 03/03 A2996 RMK AO2 P0002=
202401082056 METAR KPWT 082056Z AUTO 29004KT 6SM -RA BR OVC004 03/03 A2999 RMK AO2 CIG 003V008 SLP161 P0003 60014 T00280028 56012=
202401082053 SPECI KPWT 082053Z AUTO 28003KT 6SM -RA BR BKN004 OVC009 03/03 A2999 RMK AO2 CIG 003V006 P0003=
202401082022 SPECI KPWT 082022Z AUTO 28005KT 10SM -RA FEW003 OVC008 03/03 A3001 RMK AO2 CIG 006V013 P0001=
202401082012 SPECI KPWT 082012Z AUTO 30004KT 10SM -RA BKN005 OVC010 02/02 A3001 RMK AO2 CIG 003V008 P0001 FZRANO=
202401082004 SPECI KPWT 082004Z AUTO 30005KT 10SM -RA OVC003 03/03 A3002 RMK AO2 CIG 003V007 P0001=
202401081956 METAR KPWT 081956Z AUTO 30003KT 9SM -RA BKN005 OVC011 03/03 A3002 RMK AO2 CIG 003V008 SLP174 P0004 T00280028=
202401081941 SPECI KPWT 081941Z AUTO 30004KT 8SM -RA SCT003 BKN013 OVC020 03/03 A3003 RMK AO2 P0004=
202401081905 SPECI KPWT 081905Z AUTO 25004KT 5SM -RA BR SCT009 OVC019 03/03 A3005 RMK AO2 P0002=
202401081856 METAR KPWT 081856Z AUTO 24004KT 5SM -RA BR BKN009 OVC019 03/03 A3006 RMK AO2 CIG 006V012 SLP185 P0007 T00280028=
202401081844 SPECI KPWT 081844Z AUTO 22005KT 6SM RA BR BKN009 OVC019 03/03 A3006 RMK AO2 CIG 007V012 P0006=
202401081818 SPECI KPWT 081818Z AUTO 19004KT 8SM RA BKN011 OVC019 03/03 A3006 RMK AO2 P0003=
202401081756 METAR KPWT 081756Z AUTO 21003KT 8SM -RA BKN009 OVC014 03/03 A3007 RMK AO2 CIG 005V011 SLP189 P0008 60030 T00280028 10028 20028 58014=
202401081656 METAR KPWT 081656Z AUTO 21004KT 7SM -RA OVC009 03/03 A3008 RMK AO2 CIG 005V014 SLP194 P0006 T00280028=
202401081631 SPECI KPWT 081631Z AUTO 19003KT 7SM -RA BKN009 OVC019 03/03 A3008 RMK AO2 CIG 005V013 P0003=
202401081617 SPECI KPWT 081617Z AUTO 19007KT 9SM -RA OVC011 03/03 A3009 RMK AO2 CIG 007V013 P0002=
202401081556 METAR KPWT 081556Z AUTO 19006KT 10SM -RA BKN009 OVC013 03/03 A3009 RMK AO2 CIG 006V011 SLP197 P0005 T00280028=
202401081511 SPECI KPWT 081511Z AUTO 19004KT 10SM -RA OVC008 03/03 A3010 RMK AO2 CIG 005V013 P0001=
202401081456 METAR KPWT 081456Z AUTO 19005KT 10SM -RA FEW005 OVC010 03/03 A3011 RMK AO2 CIG 008V013 SLP202 P0004 60011 T00280028 58009=
202401081416 SPECI KPWT 081416Z AUTO 20004KT 9SM -RA FEW004 BKN010 OVC019 03/03 A3011 RMK AO2 CIG 008V012 P0001=
202401081356 METAR KPWT 081356Z AUTO 19004KT 8SM -RA BKN002 BKN010 OVC014 03/03 A3012 RMK AO2 SLP206 P0003 T00280028=
202401081256 METAR KPWT 081256Z AUTO 00000KT 5SM -RA BR OVC002 03/03 A3013 RMK AO2 SLP209 P0004 T00280028=
202401081222 SPECI KPWT 081222Z AUTO 00000KT 6SM -RA BR OVC002 03/03 A3013 RMK AO2 P0001=
202401081156 METAR KPWT 081156Z AUTO 00000KT 6SM -RA BR OVC004 03/03 A3013 RMK AO2 SLP210 P0001 60001 70001 T00280028 10028 20006 51004=
202401081056 METAR KPWT 081056Z AUTO 00000KT 6SM -RA BR OVC004 03/03 A3013 RMK AO2 UPB27E44RAB44 SLP209 P0000 T00280028=
202401080956 METAR KPWT 080956Z AUTO 22003KT 10SM OVC004 02/02 A3013 RMK AO2 SLP209 T00220022 FZRANO=
202401080946 SPECI KPWT 080946Z AUTO 00000KT 10SM OVC004 02/02 A3013 RMK AO2 CIG 002V006 FZRANO=
202401080856 METAR KPWT 080856Z AUTO 00000KT 6SM BR OVC002 02/02 A3012 RMK AO2 SLP207 T00220022 58001 FZRANO=
202401080838 SPECI KPWT 080838Z AUTO 00000KT 3SM BR BKN002 OVC007 02/02 A3012 RMK AO2 FZRANO=
202401080822 SPECI KPWT 080822Z AUTO 00000KT 3SM BR FEW002 BKN007 OVC014 02/02 A3013 RMK AO2 CIG 005V009 FZRANO=
202401080813 SPECI KPWT 080813Z AUTO 19003KT 10SM SCT005 OVC014 02/02 A3013 RMK AO2 FZRANO=
202401080756 METAR KPWT 080756Z AUTO 00000KT 10SM OVC014 02/02 A3013 RMK AO2 SLP209 T00170017 400611011 FZRANO=
202401080723 SPECI KPWT 080723Z AUTO 23003KT 10SM BKN014 OVC024 01/01 A3013 RMK AO2 FZRANO=
202401080656 METAR KPWT 080656Z AUTO 00000KT 9SM BKN016 OVC024 01/01 A3013 RMK AO2 SLP209 T00110011 FZRANO=
202401080556 METAR KPWT 080556Z AUTO 00000KT 10SM BKN020 01/01 A3012 RMK AO2 SLP208 T00110011 10044 20006 53001 FZRANO=
202401080509 SPECI KPWT 080509Z AUTO 00000KT 3SM BR BKN018 01/01 A3012 RMK AO2 FZRANO=
202401080501 SPECI KPWT 080501Z AUTO 00000KT 1 1/4SM BR BKN018 01/01 A3012 RMK AO2 FZRANO=
202401080456 METAR KPWT 080456Z AUTO 00000KT 2 1/2SM BR SCT018 01/01 A3012 RMK AO2 SLP206 T00060006 FZRANO=
202401080411 SPECI KPWT 080411Z AUTO 08003KT 10SM SCT018 02/02 A3011 RMK AO2 FZRANO=
202401080356 METAR KPWT 080356Z AUTO 00000KT 10SM BKN016 02/02 A3011 RMK AO2 SLP206 T00220022 FZRANO=
202401080256 METAR KPWT 080256Z AUTO 00000KT 9SM OVC016 02/02 A3012 RMK AO2 SLP208 T00220022 53012 FZRANO=
202401080222 SPECI KPWT 080222Z AUTO 00000KT 4SM BR BKN018 01/01 A3011 RMK AO2 FZRANO=
202401080156 METAR KPWT 080156Z AUTO 00000KT 10SM CLR 02/02 A3011 RMK AO2 SLP202 T00170017 FZRANO=
202401080056 METAR KPWT 080056Z AUTO 00000KT 10SM OVC050 04/03 A3010 RMK AO2 SLP200 T00390033=
202401080024 SPECI KPWT 080024Z AUTO 00000KT 10SM SCT016 OVC050 04/03 A3008 RMK AO2=
202401072356 METAR KPWT 072356Z AUTO 26003KT 10SM BKN018 BKN050 04/03 A3009 RMK AO2 SLP196 T00440033 10061 20033 53006=
202401072340 SPECI KPWT 072340Z AUTO 24004KT 10SM OVC016 04/03 A3008 RMK AO2=
202401072317 SPECI KPWT 072317Z AUTO 20004KT 10SM BKN014 BKN046 04/03 A3007 RMK AO2=
202401072256 METAR KPWT 072256Z AUTO 22004KT 10SM FEW010 BKN044 04/03 A3007 RMK AO2 SLP192 T00440033=
202401072248 SPECI KPWT 072248Z AUTO 23005KT 10SM SCT019 OVC044 04/03 A3007 RMK AO2=
202401072220 SPECI KPWT 072220Z AUTO 27005KT 10SM BKN017 OVC046 06/03 A3008 RMK AO2=
202401072156 METAR KPWT 072156Z AUTO 26004KT 10SM SCT015 BKN046 05/03 A3007 RMK AO2 SLP190 T00500028=
202401072120 SPECI KPWT 072120Z AUTO VRB04KT 10SM BKN013 BKN019 05/03 A3006 RMK AO2=
202401072056 METAR KPWT 072056Z AUTO 24004KT 10SM SCT011 BKN019 04/03 A3007 RMK AO2 SLP189 T00440033 55001=
202401072047 SPECI KPWT 072047Z AUTO 24005KT 10SM BKN011 BKN017 BKN038 05/03 A3007 RMK AO2 CIG 008V012=
202401072031 SPECI KPWT 072031Z AUTO 26006KT 10SM SCT009 BKN017 04/04 A3007 RMK AO2=
202401072023 SPECI KPWT 072023Z AUTO 23007KT 10SM FEW009 SCT015 05/04 A3007 RMK AO2=
202401071956 METAR KPWT 071956Z AUTO 20006KT 10SM SCT018 06/03 A3007 RMK AO2 SLP189 T00560033=
202401071954 SPECI KPWT 071954Z AUTO 20005KT 10SM SCT018 SCT023 05/03 A3007 RMK AO2=
202401071932 SPECI KPWT 071932Z AUTO 24005KT 10SM FEW007 BKN018 OVC045 04/03 A3006 RMK AO2=
202401071914 SPECI KPWT 071914Z AUTO 00000KT 10SM SCT014 BKN025 OVC045 04/02 A3007 RMK AO2=
202401071856 METAR KPWT 071856Z AUTO 24004KT 10SM OVC014 04/03 A3007 RMK AO2 SLP189 T00440028=
202401071844 SPECI KPWT 071844Z AUTO VRB03KT 10SM BKN014 OVC045 04/03 A3008 RMK AO2=
202401071756 METAR KPWT 071756Z AUTO 22004KT 10SM FEW022 04/03 A3006 RMK AO2 RAB05E16UPB16E20 SLP185 P0000 60000 T00390033 10044 21006 53012=
202401071722 SPECI KPWT 071722Z AUTO 00000KT 10SM SCT016 03/03 A3005 RMK AO2 RAB05E16UPB16E20 P0000=
202401071704 SPECI KPWT 071704Z AUTO 23003KT 10SM BKN016 02/02 A3006 RMK AO2 FZRANO=
202401071656 METAR KPWT 071656Z AUTO 22003KT 10SM BKN014 OVC044 02/02 A3005 RMK AO2 SLP184 T00170017 FZRANO=
202401071607 SPECI KPWT 071607Z AUTO 24003KT 10SM BKN014 BKN021 01/01 A3003 RMK AO2 FZRANO=
202401071556 METAR KPWT 071556Z AUTO 00000KT 10SM SCT014 BKN021 01/01 A3003 RMK AO2 SLP177 T00060006 FZRANO=
202401071527 SPECI KPWT 071527Z AUTO 00000KT 10SM BKN014 BKN023 BKN043 01/01 A3003 RMK AO2 FZRANO=
202401071456 METAR KPWT 071456Z AUTO 00000KT 10SM SCT035 OVC045 01/01 A3002 RMK AO2 SLP175 T00060006 53013 FZRANO=
202401071356 METAR KPWT 071356Z AUTO 00000KT 10SM OVC043 01/01 A3000 RMK AO2 SLP168 T00060006 FZRANO=
202401071256 METAR KPWT 071256Z AUTO 00000KT 10SM OVC041 01/01 A2999 RMK AO2 SLP163 T00060006 FZRANO=
202401071217 SPECI KPWT 071217Z AUTO 22003KT 7SM SCT001 OVC041 00/00 A2999 RMK AO2 FZRANO=
202401071156 METAR KPWT 071156Z AUTO 22004KT 10SM OVC043 M01/M01 A2999 RMK AO2 SLP162 70007 T10061006 10033 21011 51018 FZRANO=
202401071056 METAR KPWT 071056Z AUTO 00000KT 10SM CLR 00/00 A2997 RMK AO2 SLP156 T00000000 FZRANO=
202401070956 METAR KPWT 070956Z AUTO 00000KT 10SM BKN042 BKN060 01/01 A2995 RMK AO2 SLP149 T00110011 FZRANO=
202401070856 METAR KPWT 070856Z AUTO 00000KT 10SM SCT030 BKN065 02/02 A2993 RMK AO2 SLP142 T00220022 51012 FZRANO=
202401070756 METAR KPWT 070756Z AUTO 05004KT 10SM OVC031 03/03 A2993 RMK AO2 SLP142 T00330033 400670017=
202401070656 METAR KPWT 070656Z AUTO 10003KT 10SM OVC031 03/03 A2991 RMK AO2 SLP135 T00330033=
202401070624 SPECI KPWT 070624Z AUTO 08003KT 10SM SCT016 OVC031 03/03 A2991 RMK AO2=
202401070556 METAR KPWT 070556Z AUTO 00000KT 10SM BKN016 OVC022 03/03 A2990 RMK AO2 SLP129 60000 T00330033 10050 20017 51020=
202401070336 SPECI KPWT 070336Z AUTO 00000KT 10SM BKN012 OVC018 03/03 A2985 RMK AO2=
202401070311 SPECI KPWT 070311Z AUTO 00000KT 10SM BKN018 BKN024 03/03 A2984 RMK AO2=
202401070256 METAR KPWT 070256Z AUTO 23004KT 10SM FEW019 02/02 A2984 RMK AO2 SLP110 60000 T00170017 53023 FZRANO=
202401070156 METAR KPWT 070156Z AUTO 07005KT 10SM CLR 03/03 A2980 RMK AO2 RAB22E34 SLP098 P0000 T00330028=
202401070056 METAR KPWT 070056Z AUTO 00000KT 10SM SCT060 03/03 A2979 RMK AO2 SLP094 T00280028=
202401070028 SPECI KPWT 070028Z AUTO 00000KT 10SM SCT011 BKN060 04/04 A2978 RMK AO2 LTG DSNT NE=
202401062356 METAR KPWT 062356Z AUTO 00000KT 10SM OVC011 05/05 A2977 RMK AO2 SLP087 T00500050 10067 20039 53005=
202401062256 METAR KPWT 062256Z AUTO 05006KT 10SM OVC013 06/05 A2976 RMK AO2 SLP083 T00560050=
202401062253 SPECI KPWT 062253Z AUTO 04005KT 10SM OVC013 06/05 A2976 RMK AO2=
202401062156 METAR KPWT 062156Z AUTO 08003KT 10SM FEW012 OVC025 06/05 A2975 RMK AO2 SLP082 T00610050=
202401062147 SPECI KPWT 062147Z AUTO 09004KT 10SM SCT014 OVC023 06/05 A2975 RMK AO2=
202401062137 SPECI KPWT 062137Z AUTO 08004KT 10SM BKN014 OVC021 07/05 A2975 RMK AO2=
202401062121 SPECI KPWT 062121Z AUTO 14004KT 10SM OVC016 06/04 A2975 RMK AO2=
202401062056 METAR KPWT 062056Z AUTO 14003KT 10SM BKN014 06/04 A2975 RMK AO2 SLP081 T00560044 58002=
202401062014 SPECI KPWT 062014Z AUTO 10SM BKN011 06/05 A2976 RMK AO2=
202401061956 METAR KPWT 061956Z AUTO 17004KT 10SM OVC007 06/05 A2976 RMK AO2 CIG 005V012 SLP084 T00560050=
202401061949 SPECI KPWT 061949Z AUTO VRB03KT 10SM OVC007 06/05 A2976 RMK AO2 CIG 005V012=
202401061924 SPECI KPWT 061924Z AUTO 19004KT 10SM OVC005 05/05 A2977 RMK AO2=
202401061856 METAR KPWT 061856Z AUTO 20005KT 10SM OVC003 04/04 A2976 RMK AO2 SLP085 T00440044=
202401061835 SPECI KPWT 061835Z AUTO 21006KT 10SM OVC003 04/04 A2977 RMK AO2=
202401061815 SPECI KPWT 061815Z AUTO 22006KT 3SM BR OVC001 04/04 A2977 RMK AO2=
202401061812 SPECI KPWT 061812Z AUTO 22007KT 3/4SM BR OVC001 04/04 A2977 RMK AO2 VIS 1/4V5=
202401061756 METAR KPWT 061756Z AUTO 22004KT M1/4SM FG OVC001 04/04 A2976 RMK AO2 SLP083 60007 T00390039 10044 20033 53005=
202401061722 SPECI KPWT 061722Z AUTO 00000KT 1/4SM FG BKN001 BKN022 03/03 A2976 RMK AO2=
202401061716 SPECI KPWT 061716Z AUTO 00000KT 1/2SM FG SCT001 BKN022 03/03 A2976 RMK AO2=
202401061714 SPECI KPWT 061714Z AUTO 00000KT 3/4SM BR SCT001 SCT022 03/03 A2976 RMK AO2=
202401061712 SPECI KPWT 061712Z AUTO 00000KT 1 1/2SM BR SCT001 SCT022 03/03 A2976 RMK AO2=
202401061706 SPECI KPWT 061706Z AUTO 00000KT 10SM SCT001 SCT022 03/03 A2975 RMK AO2=
202401061656 METAR KPWT 061656Z AUTO 00000KT 10SM FEW022 03/03 A2975 RMK AO2 RAE21 SLP081 P0000 T00330033=
202401061643 SPECI KPWT 061643Z AUTO 00000KT 10SM SCT016 04/04 A2975 RMK AO2 RAE21 P0000=
202401061618 SPECI KPWT 061618Z AUTO 00000KT 8SM -RA SCT005 OVC014 04/04 A2974 RMK AO2 P0000=
202401061609 SPECI KPWT 061609Z AUTO 06003KT 3SM -RA BR BKN005 OVC012 04/04 A2974 RMK AO2 CIG 002V009 P0000=
202401061604 SPECI KPWT 061604Z AUTO 04003KT 1 3/4SM -RA BR SCT005 OVC009 04/04 A2974 RMK AO2 CIG 006V012 P0000=
202401061556 METAR KPWT 061556Z AUTO 01004KT 2 1/2SM -RA BR BKN005 OVC011 04/04 A2974 RMK AO2 RAB42 CIG 002V007 SLP078 P0000 T00390039=
202401061535 SPECI KPWT 061535Z AUTO 00000KT 7SM FEW007 BKN014 OVC026 04/04 A2974 RMK AO2=
202401061528 SPECI KPWT 061528Z AUTO 00000KT 10SM SCT007 BKN017 OVC026 04/04 A2974 RMK AO2=
202401061456 METAR KPWT 061456Z AUTO 00000KT 10SM OVC007 04/04 A2973 RMK AO2 SLP074 P0001 60007 T00390039 53013=
202401061409 SPECI KPWT 061409Z AUTO 00000KT 10SM BKN007 OVC029 04/04 A2972 RMK AO2=
202401061406 SPECI KPWT 061406Z AUTO 00000KT 10SM SCT007 OVC031 04/04 A2972 RMK AO2=
202401061356 METAR KPWT 061356Z AUTO 00000KT 10SM BKN031 OVC110 04/04 A2971 RMK AO2 RAE20 SLP068 P0000 T00390039=
202401061337 SPECI KPWT 061337Z AUTO 00000KT 10SM SCT004 BKN033 OVC110 04/04 A2970 RMK AO2 RAE20 P0000=
202401061321 SPECI KPWT 061321Z AUTO 05003KT 10SM OVC004 04/04 A2969 RMK AO2 RAE20 P0000=
202401061256 METAR KPWT 061256Z AUTO 00000KT 10SM -RA BKN006 BKN014 04/04 A2969 RMK AO2 CIG 004V010 SLP060 P0006 T00390039=
202401061234 SPECI KPWT 061234Z AUTO 00000KT 3SM -RA BR BKN006 OVC012 04/04 A2968 RMK AO2 CIG 004V009 P0006=
202401061229 SPECI KPWT 061229Z AUTO 00000KT 2 1/2SM -RA BR SCT005 OVC012 04/04 A2968 RMK AO2 P0006=
202401061213 SPECI KPWT 061213Z AUTO 00000KT 2 1/2SM RA BR OVC007 04/04 A2969 RMK AO2 CIG 005V011 P0004=
202401061156 METAR KPWT 061156Z AUTO 22004KT 10SM -RA OVC009 04/04 A2969 RMK AO2 CIG 006V011 SLP061 P0007 60065 70108 T00440044 10067 20039 56021=
202401061056 METAR KPWT 061056Z AUTO 20006KT 6SM RA BR BKN007 BKN016 OVC021 04/04 A2971 RMK AO2 CIG 005V012 SLP066 P0002 T00390039=
202401061053 SPECI KPWT 061053Z AUTO 21007KT 7SM RA BKN007 OVC019 04/04 A2971 RMK AO2 CIG 005V011 P0001=
202401061047 SPECI KPWT 061047Z AUTO 20008KT 10SM -RA SCT007 BKN017 OVC022 04/04 A2971 RMK AO2 P0000=
202401060956 METAR KPWT 060956Z AUTO 21014G18KT 10SM -RA BKN007 OVC014 04/04 A2970 RMK AO2 CIG 006V010 SLP065 P0007 T00440044=
202401060909 SPECI KPWT 060909Z AUTO 21013G22KT 10SM -RA BKN009 BKN014 OVC021 05/05 A2974 RMK AO2 CIG 007V011 P0003=
202401060856 METAR KPWT 060856Z AUTO 20015G29KT 7SM RA BKN010 OVC023 05/05 A2976 RMK AO2 PK WND 22029/0853 CIG 007V014 SLP082 P0020 60049 T00500050 58035=
202401060848 SPECI KPWT 060848Z AUTO 21015KT 6SM RA BR FEW007 SCT012 OVC023 05/05 A2976 RMK AO2 P0017=
202401060756 METAR KPWT 060756Z AUTO 21014G22KT 8SM -RA BKN007 BKN012 OVC020 06/06 A2979 RMK AO2 CIG 005V009 SLP094 P0016 T00560056 400670033=
202401060720 SPECI KPWT 060720Z AUTO 21012G18KT 8SM RA OVC007 06/06 A2982 RMK AO2 CIG 004V010 P0007=
202401060656 METAR KPWT 060656Z AUTO 21013KT 9SM RA OVC005 06/06 A2984 RMK AO2 PK WND 22028/0628 CIG 004V008 SLP110 P0013 T00610061=
202401060556 METAR KPWT 060556Z AUTO 20014G19KT 10SM -RA OVC005 07/07 A2986 RMK AO2 RAB01 SLP118 P0004 60018 T00670067 10067 20067 58030=
202401060542 SPECI KPWT 060542Z AUTO 20016G22KT 10SM -RA OVC005 07/07 A2987 RMK AO2 RAB01 P0002=
202401060529 SPECI KPWT 060529Z AUTO 20011G18KT 10SM -RA BKN007 OVC012 07/07 A2988 RMK AO2 RAB01 CIG 004V009 P0001=
202401060456 METAR KPWT 060456Z AUTO 20018G24KT 10SM OVC005 07/07 A2990 RMK AO2 RAE41 SLP132 P0001 T00670067=
202401060356 METAR KPWT 060356Z AUTO 20011G22KT 10SM -RA OVC005 07/07 A2994 RMK AO2 RAE23B41 CIG 004V009 PRESFR SLP147 P0007 T00670067=
202401060353 SPECI KPWT 060353Z AUTO 18013G22KT 10SM -RA OVC005 07/07 A2995 RMK AO2 RAE23B41 P0007=
202401060320 SPECI KPWT 060320Z AUTO 20016G22KT 10SM -RA BKN007 OVC015 07/07 A2998 RMK AO2 CIG 004V011 P0006=
202401060256 METAR KPWT 060256Z AUTO 20016G21KT 8SM RA OVC005 07/07 A3000 RMK AO2 RAB0159 SLP165 P0005 60006 T00670067 58037=
202401060225 SPECI KPWT 060225Z AUTO 19012G17KT 10SM -RA OVC005 07/07 A3001 RMK AO2 RAB0159 P0000=
202401060156 METAR KPWT 060156Z AUTO 19013KT 10SM OVC007 07/07 A3003 RMK AO2 RAB0057E49 CIG 004V008 SLP177 P0000 T00670067=
202401060056 METAR KPWT 060056Z AUTO 20013KT 10SM OVC005 07/07 A3008 RMK AO2 RAE12B35E53 SLP192 P0001 T00670067=
202401052356 METAR KPWT 052356Z AUTO 20010KT 9SM -RA BKN005 OVC010 07/07 A3011 RMK AO2 CIG 003V007 SLP202 P0007 60025 T00670067 10067 20056 58033=
202401052346 SPECI KPWT 052346Z AUTO 19012G20KT 5SM RA BR BKN005 BKN010 OVC014 07/07 A3012 RMK AO2 CIG 003V007 P0006=
202401052317 SPECI KPWT 052317Z AUTO 20010G21KT 8SM RA BKN007 OVC014 07/07 A3013 RMK AO2 CIG 004V010 P0003=
202401052256 METAR KPWT 052256Z AUTO 20010KT 9SM -RA BKN005 BKN010 OVC017 07/07 A3015 RMK AO2 CIG 004V009 SLP215 P0003 T00670067=
202401052248 SPECI KPWT 052248Z AUTO 19012KT 10SM -RA BKN005 BKN010 OVC017 07/07 A3015 RMK AO2 CIG 004V007 P0003=
202401052213 SPECI KPWT 052213Z AUTO 20009KT 10SM -RA SCT006 OVC013 07/07 A3017 RMK AO2 P0002=
202401052156 METAR KPWT 052156Z AUTO 19012G18KT 10SM -RA BKN008 OVC013 06/06 A3018 RMK AO2 CIG 005V012 SLP227 P0006 T00610061=
202401052056 METAR KPWT 052056Z AUTO 21012G17KT 6SM RA BR OVC008 06/06 A3021 RMK AO2 CIG 005V009 SLP235 P0008 60009 T00610061 56026=
202401052044 SPECI KPWT 052044Z AUTO 20009G15KT 6SM RA BR BKN008 OVC028 06/06 A3021 RMK AO2 P0005=
202401051956 METAR KPWT 051956Z AUTO 19011KT 10SM -RA SCT008 OVC028 06/06 A3024 RMK AO2 RAB25 SLP247 P0001 T00560056=
202401051932 SPECI KPWT 051932Z AUTO 18011G17KT 10SM -RA SCT006 BKN030 BKN037 06/06 A3026 RMK AO2 RAB25 P0000=
202401051856 METAR KPWT 051856Z AUTO 18008KT 10SM OVC004 06/06 A3028 RMK AO2 SLP262 T00610061=
202401051756 METAR KPWT 051756Z AUTO 19012KT 10SM OVC004 06/06 A3030 RMK AO2 CIG 003V008 SLP266 T00560056 10056 20044 53005=
202401051656 METAR KPWT 051656Z AUTO 20005KT 10SM OVC004 06/06 A3028 RMK AO2 CIG 003V008 SLP261 T00560056=
202401051653 SPECI KPWT 051653Z AUTO 17004KT 10SM OVC006 06/06 A3027 RMK AO2 CIG 003V008=
202401051607 SPECI KPWT 051607Z AUTO 19007KT 10SM BKN004 04/04 A3029 RMK AO2=
202401051556 METAR KPWT 051556Z AUTO 18006KT 10SM SCT004 04/04 A3028 RMK AO2 SLP261 T00440044=
202401051504 SPECI KPWT 051504Z AUTO 21007KT 10SM OVC004 04/04 A3028 RMK AO2 CIG 002V008=
202401051456 METAR KPWT 051456Z AUTO 21007KT 10SM OVC002 04/04 A3028 RMK AO2 CIG 002V006 SLP261 T00440044 53008=
202401051356 METAR KPWT 051356Z AUTO 20007KT 5SM BR OVC002 05/05 A3028 RMK AO2 SLP259 T00500050=
202401051256 METAR KPWT 051256Z AUTO 20006KT 9SM OVC002 05/05 A3025 RMK AO2 SLP252 T00500050=
202401051243 SPECI KPWT 051243Z AUTO 20007KT 8SM OVC002 04/04 A3025 RMK AO2=
202401051204 SPECI KPWT 051204Z AUTO 17006KT 10SM BKN004 BKN041 04/04 A3026 RMK AO2=
202401051156 METAR KPWT 051156Z AUTO VRB06KT 10SM SCT004 BKN041 04/04 A3026 RMK AO2 RAE41 SLP252 P0001 60003 70012 T00440044 10061 20033 50009=
202401051140 SPECI KPWT 051140Z AUTO 18007KT 10SM -RA SCT004 BKN041 04/04 A3025 RMK AO2 P0001=
202401051056 METAR KPWT 051056Z AUTO 19004KT 6SM -RA BR BKN004 BKN022 OVC035 04/04 A3026 RMK AO2 RAB22 SLP254 P0002 T00440044=
202401051050 SPECI KPWT 051050Z AUTO 22004KT 6SM -RA BR BKN004 BKN022 BKN035 04/04 A3026 RMK AO2 RAB22 P0002=
202401051016 SPECI KPWT 051016Z AUTO 21008KT 9SM FEW009 BKN110 04/04 A3025 RMK AO2=
202401050956 METAR KPWT 050956Z AUTO 20010KT 10SM FEW110 04/04 A3024 RMK AO2 SLP248 T00440044=
202401050856 METAR KPWT 050856Z AUTO 19006KT 10SM CLR 04/04 A3023 RMK AO2 SLP244 60000 T00390039 50001=
202401050756 METAR KPWT 050756Z AUTO 00000KT 10SM CLR 03/03 A3024 RMK AO2 SLP246 T00330033 400780033=
202401050656 METAR KPWT 050656Z AUTO 21004KT 10SM FEW003 04/04 A3023 RMK AO2 RAB16E46 SLP244 P0000 T00440044=
202401050647 SPECI KPWT 050647Z AUTO 22003KT 10SM SCT003 05/05 A3023 RMK AO2 RAB16E46 P0000=
202401050642 SPECI KPWT 050642Z AUTO 00000KT 2SM -RA BR BKN003 05/05 A3023 RMK AO2 RAB16 P0000=
202401050640 SPECI KPWT 050640Z AUTO 00000KT 1SM -RA BR BKN003 05/05 A3023 RMK AO2 RAB16 P0000=
202401050622 SPECI KPWT 050622Z AUTO 21006KT 1/2SM -RA FG OVC003 05/05 A3023 RMK AO2 RAB16 P0000=
202401050614 SPECI KPWT 050614Z AUTO 00000KT 3/4SM BR OVC003 06/06 A3022 RMK AO2=
202401050611 SPECI KPWT 050611Z AUTO 00000KT 1 1/2SM BR OVC003 06/06 A3022 RMK AO2=
202401050556 METAR KPWT 050556Z AUTO 23003KT 10SM BKN003 OVC029 06/06 A3023 RMK AO2 RAE00 SLP242 P0000 60000 T00610061 10072 20061 51010=
202401050543 SPECI KPWT 050543Z AUTO 00000KT 10SM SCT003 OVC029 06/06 A3022 RMK AO2 RAE00 P0000=
202401050512 SPECI KPWT 050512Z AUTO 22005KT 10SM OVC027 06/06 A3022 RMK AO2 RAE00 P0000=
202401050505 SPECI KPWT 050505Z AUTO 23004KT 10SM FEW016 SCT023 OVC030 06/06 A3022 RMK AO2 RAE00 P0000=
202401050456 METAR KPWT 050456Z AUTO 00000KT 10SM -RA FEW008 BKN023 OVC030 06/06 A3022 RMK AO2 SLP240 P0000 T00610061=
202401050446 SPECI KPWT 050446Z AUTO 00000KT 10SM -RA SCT002 BKN016 OVC022 07/07 A3022 RMK AO2 P0000=
202401050438 SPECI KPWT 050438Z AUTO 20004KT 10SM -RA BKN002 OVC014 07/07 A3022 RMK AO2 P0000=
202401050430 SPECI KPWT 050430Z AUTO 16004KT 2SM -RA BR BKN002 OVC010 07/07 A3022 RMK AO2 CIG 001V006 P0000=
202401050427 SPECI KPWT 050427Z AUTO 16003KT 1SM -RA BR OVC002 07/07 A3022 RMK AO2 P0000=
202401050411 SPECI KPWT 050411Z AUTO 22003KT 1/2SM -RA FG OVC002 07/07 A3022 RMK AO2 P0000=
202401050356 METAR KPWT 050356Z AUTO 23004KT 1/4SM -RA FG OVC002 07/07 A3021 RMK AO2 RAB53 SLP238 P0000 T00670067=
202401050350 SPECI KPWT 050350Z AUTO 23004KT 1/2SM FG BKN002 OVC037 07/07 A3021 RMK AO2=
202401050348 SPECI KPWT 050348Z AUTO 24004KT 1SM BR BKN002 OVC037 07/07 A3021 RMK AO2=
202401050346 SPECI KPWT 050346Z AUTO 24005KT 2 1/2SM BR BKN002 OVC039 07/07 A3021 RMK AO2=
202401050312 SPECI KPWT 050312Z AUTO 00000KT 9SM FEW002 OVC037 06/06 A3020 RMK AO2=
202401050256 METAR KPWT 050256Z AUTO 00000KT 10SM OVC035 07/07 A3020 RMK AO2 SLP231 T00670067 51014=
202401050205 SPECI KPWT 050205Z AUTO 21003KT 10SM OVC031 07/07 A3019 RMK AO2=
202401050156 METAR KPWT 050156Z AUTO 23003KT 10SM OVC029 07/07 A3019 RMK AO2 SLP228 T00670067=
202401050056 METAR KPWT 050056Z AUTO 03004KT 10SM OVC025 07/07 A3017 RMK AO2 SLP221 T00720072=
202401042356 METAR KPWT 042356Z AUTO 33003KT 10SM SCT004 OVC025 07/07 A3015 RMK AO2 SLP217 60001 T00720072 10078 20061 51014=
202401042352 SPECI KPWT 042352Z AUTO 00000KT 10SM SCT004 OVC025 07/07 A3015 RMK AO2=
202401042336 SPECI KPWT 042336Z AUTO 00000KT 10SM BKN004 OVC025 07/07 A3015 RMK AO2=
202401042256 METAR KPWT 042256Z AUTO 00000KT 10SM OVC006 08/08 A3013 RMK AO2 CIG 004V009 SLP209 T00780078=
202401042212 SPECI KPWT 042212Z AUTO 00000KT 10SM OVC006 07/07 A3012 RMK AO2 CIG 003V008=
202401042156 METAR KPWT 042156Z AUTO 00000KT 8SM OVC004 07/07 A3011 RMK AO2 RAE09 SLP203 P0000 T00720072=
202401042106 SPECI KPWT 042106Z AUTO 00000KT 3SM -RA BR OVC004 07/07 A3011 RMK AO2 CIG 003V008 P0000=
202401042056 METAR KPWT 042056Z AUTO 22003KT 1 1/2SM -RA BR OVC004 07/07 A3012 RMK AO2 RAB52 SLP204 P0000 60001 T00670067 53003=
202401042049 SPECI KPWT 042049Z AUTO 24004KT 1 3/4SM BR OVC004 07/07 A3012 RMK AO2 CIG 003V006=
202401042043 SPECI KPWT 042043Z AUTO 24004KT 3SM BR OVC004 07/07 A3012 RMK AO2 CIG 002V006=
202401042036 SPECI KPWT 042036Z AUTO 23004KT 2 1/2SM BR OVC004 07/07 A3012 RMK AO2=
202401041956 METAR KPWT 041956Z AUTO 20005KT 3SM BR OVC004 07/07 A3011 RMK AO2 RAE25 SLP202 P0000 T00670067=
202401041916 SPECI KPWT 041916Z AUTO 20008KT 3SM -RA BR OVC004 07/07 A3010 RMK AO2 P0000=
202401041905 SPECI KPWT 041905Z AUTO 20008KT 2 1/2SM -RA BR OVC004 06/06 A3010 RMK AO2 P0000=
202401041856 METAR KPWT 041856Z AUTO 21009KT 3SM -RA BR OVC004 06/06 A3011 RMK AO2 SLP200 P0001 T00610061=
202401041756 METAR KPWT 041756Z AUTO 20013G16KT 3SM -RA BR OVC004 06/06 A3011 RMK AO2 SLP200 P0001 60008 T00610061 10067 20056 53005=
202401041656 METAR KPWT 041656Z AUTO 20006KT 4SM -RA BR OVC004 06/06 A3009 RMK AO2 CIG 003V009 SLP196 P0001 T00560056=
202401041641 SPECI KPWT 041641Z AUTO 21006KT 4SM -RA BR OVC004 06/06 A3009 RMK AO2 CIG 003V009 P0001=
202401041624 SPECI KPWT 041624Z AUTO 21006KT 8SM -RA BKN006 OVC012 06/06 A3009 RMK AO2 CIG 004V008 P0000=
202401041556 METAR KPWT 041556Z AUTO 20010KT 10SM -RA OVC011 06/06 A3008 RMK AO2 SLP193 P0001 T00560056=
202401041544 SPECI KPWT 041544Z AUTO 20009G15KT 10SM -RA OVC009 06/06 A3008 RMK AO2 CIG 007V013 P0001=
202401041456 METAR KPWT 041456Z AUTO 20010KT 10SM -RA FEW007 BKN011 OVC023 06/06 A3009 RMK AO2 SLP195 P0001 60005 T00610061 58006=
202401041439 SPECI KPWT 041439Z AUTO 20008KT 10SM -RA FEW009 BKN012 OVC024 06/06 A3009 RMK AO2 P0001=
202401041406 SPECI KPWT 041406Z AUTO 20008KT 10SM -RA BKN007 OVC011 06/06 A3010 RMK AO2 CIG 004V008 P0000=
202401041356 METAR KPWT 041356Z AUTO 19009KT 10SM -RA BKN005 OVC013 06/06 A3010 RMK AO2 CIG 004V009 SLP200 P0003 T00610061=
202401041256 METAR KPWT 041256Z AUTO 19006KT 10SM -RA OVC005 06/06 A3010 RMK AO2 CIG 004V009 SLP197 P0001 T00610061=
202401041236 SPECI KPWT 041236Z AUTO 21007KT 10SM -RA BKN005 OVC009 07/07 A3010 RMK AO2 CIG 004V008 P0001=
202401041228 SPECI KPWT 041228Z AUTO 20008KT 10SM -RA OVC007 07/07 A3010 RMK AO2 CIG 005V011 P0001=
202401041156 METAR KPWT 041156Z AUTO 20009KT 10SM -RA BKN005 OVC031 07/07 A3011 RMK AO2 CIG 004V009 SLP201 P0000 60003 70007 T00670067 10067 20067 58001=
202401041056 METAR KPWT 041056Z AUTO 20007KT 10SM -RA OVC005 07/07 A3012 RMK AO2 CIG 004V010 SLP204 P0002 T00670067=
202401041020 SPECI KPWT 041020Z AUTO 20007KT 10SM -RA BKN005 BKN027 OVC033 07/07 A3011 RMK AO2 CIG 004V009 P0001=
202401041009 SPECI KPWT 041009Z AUTO 20010KT 9SM -RA SCT005 BKN027 BKN034 07/07 A3011 RMK AO2 P0000=
202401040956 METAR KPWT 040956Z AUTO 21010KT 10SM -RA FEW003 07/07 A3011 RMK AO2 RAB00 SLP202 P0001 T00670067=
202401040952 SPECI KPWT 040952Z AUTO 20008KT 10SM -RA FEW003 07/07 A3011 RMK AO2 RAB00 P0001=
202401040856 METAR KPWT 040856Z AUTO 20011KT 10SM OVC003 07/07 A3010 RMK AO2 RAE05 SLP200 P0000 60000 T00670067 52007=
202401040756 METAR KPWT 040756Z AUTO 21010KT 10SM -RA OVC003 07/07 A3010 RMK AO2 RAB23 SLP199 P0000 T00670067 400780022=
202401040656 METAR KPWT 040656Z AUTO 21010KT 10SM BKN003 OVC010 07/07 A3009 RMK AO2 RAB30E42 SLP194 P0000 T00670067=
202401040645 SPECI KPWT 040645Z AUTO 21009KT 10SM BKN003 OVC009 07/07 A3008 RMK AO2 RAB30E42 P0000=
202401040630 SPECI KPWT 040630Z AUTO 20010KT 6SM -RA BR BKN005 OVC009 07/07 A3008 RMK AO2 RAB30 P0000=
202401040614 SPECI KPWT 040614Z AUTO 19011KT 10SM BKN003 OVC009 07/07 A3008 RMK AO2=
202401040556 METAR KPWT 040556Z AUTO 19010KT 10SM OVC005 07/07 A3008 RMK AO2 CIG 003V007 SLP193 60001 T00670067 10072 20067 51008=
202401040456 METAR KPWT 040456Z AUTO 20010KT 10SM OVC005 07/07 A3008 RMK AO2 CIG 004V010 SLP192 T00670067=
202401040356 METAR KPWT 040356Z AUTO 20009KT 10SM BKN005 OVC012 07/07 A3007 RMK AO2 RAE13B30E44 CIG 003V009 SLP190 P0000 T00720072=
202401040327 SPECI KPWT 040327Z AUTO 20011G15KT 10SM BKN003 OVC008 07/07 A3007 RMK AO2 RAE13 P0000=
202401040256 METAR KPWT 040256Z AUTO 20011G14KT 10SM -RA OVC005 07/07 A3006 RMK AO2 CIG 003V007 SLP185 P0000 60001 T00720072 51013=
202401040244 SPECI KPWT 040244Z AUTO 19010KT 10SM -RA OVC005 07/07 A3005 RMK AO2 CIG 003V007 P0000=
202401040156 METAR KPWT 040156Z AUTO 20009KT 10SM -RA OVC003 07/07 A3005 RMK AO2 RAB0057 SLP181 P0000 T00720072=
202401040056 METAR KPWT 040056Z AUTO 20011KT 10SM BKN003 OVC012 07/07 A3004 RMK AO2 RAE11B27E39 SLP178 P0001 T00720072=
202401032356 METAR KPWT 032356Z AUTO 20010KT 8SM -RA OVC003 07/07 A3002 RMK AO2 SLP172 P0001 60003 T00720072 10078 20061 53009=
202401032256 METAR KPWT 032256Z AUTO 20007KT 10SM -RA OVC003 07/07 A3001 RMK AO2 SLP168 P0000 T00670067=
202401032156 METAR KPWT 032156Z AUTO 20007KT 10SM -RA OVC005 07/07 A2999 RMK AO2 SLP164 P0002 T00670067=
202401032125 SPECI KPWT 032125Z AUTO 21005KT 7SM -RA OVC005 07/07 A2999 RMK AO2 CIG 003V007 P0001=
202401032118 SPECI KPWT 032118Z AUTO 20006KT 2 1/2SM -RA BR OVC005 07/07 A2999 RMK AO2 VIS 1 3/4V5 CIG 003V008 P0001=
202401032105 SPECI KPWT 032105Z AUTO 20006KT 6SM -RA BR BKN005 OVC010 07/07 A2999 RMK AO2 CIG 004V007 P0000=
202401032056 METAR KPWT 032056Z AUTO 21008KT 10SM -RA BKN010 OVC016 07/07 A2999 RMK AO2 RAB03 CIG 007V011 SLP162 P0000 60000 T00670067 52001=
202401032054 SPECI KPWT 032054Z AUTO 20007KT 10SM -RA BKN010 OVC018 07/07 A2999 RMK AO2 RAB03 CIG 008V011 P0000=
202401031956 METAR KPWT 031956Z AUTO 25005KT 10SM OVC029 07/06 A2999 RMK AO2 RAB34E52 SLP161 P0000 T00670061=
202401031942 SPECI KPWT 031942Z AUTO 24009KT 7SM -RA BKN029 OVC035 07/06 A2999 RMK AO2 RAB34 P0000=
202401031856 METAR KPWT 031856Z AUTO 00000KT 10SM OVC039 07/06 A2999 RMK AO2 SLP161 T00670061=
202401031756 METAR KPWT 031756Z AUTO 00000KT 10SM OVC037 06/06 A2998 RMK AO2 RAE33 SLP157 P0000 60000 T00610061 10061 20022 53012=
202401031656 METAR KPWT 031656Z AUTO 00000KT 9SM -RA OVC043 04/04 A2996 RMK AO2 RAB47 SLP154 P0000 T00390039=
202401031556 METAR KPWT 031556Z AUTO 00000KT 9SM BKN050 BKN060 03/03 A2995 RMK AO2 SLP147 T00280028=
202401031514 SPECI KPWT 031514Z AUTO 00000KT 3SM BR SCT050 02/02 A2995 RMK AO2 FZRANO=
202401031503 SPECI KPWT 031503Z AUTO 00000KT 1 3/4SM BR FEW120 02/02 A2994 RMK AO2 VIS 1/2V5 FZRANO=
202401031456 METAR KPWT 031456Z AUTO 00000KT 9SM FEW120 03/03 A2994 RMK AO2 SLP147 T00280028 53009=
202401031356 METAR KPWT 031356Z AUTO 00000KT 10SM SCT050 03/03 A2992 RMK AO2 SLP141 T00330033=
202401031256 METAR KPWT 031256Z AUTO 00000KT 10SM SCT042 BKN055 03/03 A2993 RMK AO2 SLP141 T00330033=
202401031156 METAR KPWT 031156Z AUTO 00000KT 9SM BKN048 03/03 A2992 RMK AO2 SLP138 60001 70043 T00280028 10050 20022 55002=
202401031126 SPECI KPWT 031126Z AUTO 14003KT 3SM BR FEW040 02/02 A2992 RMK AO2 FZRANO=
202401031124 SPECI KPWT 031124Z AUTO 00000KT 1 1/4SM BR FEW040 03/03 A2992 RMK AO2=
202401031113 SPECI KPWT 031113Z AUTO 00000KT 3/4SM BR SCT038 03/03 A2991 RMK AO2=
202401031110 SPECI KPWT 031110Z AUTO 00000KT 1 1/2SM BR SCT036 03/03 A2991 RMK AO2=
202401031108 SPECI KPWT 031108Z AUTO 00000KT 3SM BR SCT036 03/03 A2991 RMK AO2=
202401031102 SPECI KPWT 031102Z AUTO 00000KT 1 1/4SM BR SCT036 BKN050 03/03 A2991 RMK AO2=
202401031056 METAR KPWT 031056Z AUTO 00000KT 3/4SM BR BKN036 BKN055 03/03 A2991 RMK AO2 SLP136 T00330033=
202401031043 SPECI KPWT 031043Z AUTO 00000KT 1 3/4SM BR SCT036 SCT055 BKN100 03/03 A2992 RMK AO2=
202401030956 METAR KPWT 030956Z AUTO 00000KT 4SM BR BKN049 04/04 A2991 RMK AO2 RAE51 SLP137 P0000 T00440044=
202401030856 METAR KPWT 030856Z AUTO 00000KT 6SM -RA BR FEW060 04/04 A2992 RMK AO2 RAB25 SLP138 P0000 60001 T00440044 51007=
202401030840 SPECI KPWT 030840Z AUTO 00000KT 6SM -RA BR FEW060 04/04 A2993 RMK AO2 RAB25 P0000=
202401030833 SPECI KPWT 030833Z AUTO 00000KT 2 1/2SM -RA BR FEW060 04/04 A2992 RMK AO2 RAB25 P0000=
202401030756 METAR KPWT 030756Z AUTO 00000KT 5SM BR FEW045 SCT055 OVC110 05/05 A2992 RMK AO2 SLP137 T00500050 400610017=
202401030656 METAR KPWT 030656Z AUTO 00000KT 5SM BR BKN047 OVC055 05/05 A2992 RMK AO2 RAE18 SLP138 P0001 T00500050=
202401030556 METAR KPWT 030556Z AUTO 00000KT 7SM -RA BKN055 05/05 A2990 RMK AO2 RAB25 SLP133 P0000 60003 T00500050 10056 20039 53006=
202401030456 METAR KPWT 030456Z AUTO 00000KT 3SM BR OVC050 04/04 A2989 RMK AO2 SLP128 T00440044=
202401030449 SPECI KPWT 030449Z AUTO 00000KT 2 1/2SM BR OVC055 04/04 A2989 RMK AO2=
202401030432 SPECI KPWT 030432Z AUTO 23003KT 1 1/2SM BR BKN050 04/04 A2989 RMK AO2=
202401030426 SPECI KPWT 030426Z AUTO 00000KT 3SM BR BKN055 04/04 A2988 RMK AO2=
202401030422 SPECI KPWT 030422Z AUTO 00000KT 1 1/4SM BR BKN055 BKN110 04/04 A2988 RMK AO2 VIS 1/2V5=
202401030411 SPECI KPWT 030411Z AUTO 00000KT 3/4SM BR FEW110 04/04 A2988 RMK AO2 VIS 1/2V3=
202401030356 METAR KPWT 030356Z AUTO 00000KT 1 1/2SM BR FEW110 04/04 A2988 RMK AO2 VIS 3/4V4 RAE17 SLP127 P0000 T00440044=
202401030353 SPECI KPWT 030353Z AUTO 00000KT 1 3/4SM BR FEW110 04/04 A2988 RMK AO2 VIS 1 1/4V4 RAE17 P0000=
202401030256 METAR KPWT 030256Z AUTO 00000KT 9SM -RA CLR 06/06 A2989 RMK AO2 SLP129 P0001 60003 T00560056 56008=
202401030156 METAR KPWT 030156Z AUTO 00000KT 10SM -RA FEW035 OVC046 06/06 A2990 RMK AO2 RAE04B43 SLP133 P0000 T00560056=
202401030056 METAR KPWT 030056Z AUTO 34003KT 10SM -RA FEW036 06/06 A2990 RMK AO2 SLP131 P0002 T00560056=
202401022356 METAR KPWT 022356Z AUTO 00000KT 9SM -RA CLR 06/06 A2992 RMK AO2 SLP136 P0002 60035 T00560056 10061 20039 55013=
202401022256 METAR KPWT 022256Z AUTO 33004KT 10SM -RA FEW037 06/06 A2991 RMK AO2 SLP137 P0004 T00610061=
202401022156 METAR KPWT 022156Z AUTO 33004KT 10SM -RA CLR 06/06 A2993 RMK AO2 SLP142 P0007 T00610061=
202401022056 METAR KPWT 022056Z AUTO 32003KT 10SM -RA CLR 06/06 A2995 RMK AO2 SLP151 P0004 60022 T00610061 58020=
202401021956 METAR KPWT 021956Z AUTO 00000KT 5SM RA BR SCT028 BKN035 06/06 A2998 RMK AO2 SLP157 P0009 T00560056=
202401021856 METAR KPWT 021856Z AUTO 00000KT 3SM RA BR BKN030 BKN036 BKN042 04/04 A3000 RMK AO2 SLP164 P0009 T00440044=
202401021844 SPECI KPWT 021844Z AUTO 00000KT 3SM RA BR FEW025 BKN032 04/04 A3000 RMK AO2 P0007=
202401021829 SPECI KPWT 021829Z AUTO 00000KT 5SM -RA BR BKN029 BKN035 OVC042 04/04 A3001 RMK AO2 P0005=
202401021756 METAR KPWT 021756Z AUTO 00000KT 5SM -RA BR FEW030 BKN039 04/04 A3001 RMK AO2 SLP170 P0004 60004 T00390039 10039 20022 52009=
202401021736 SPECI KPWT 021736Z AUTO 00000KT 9SM -RA FEW002 BKN039 OVC046 03/03 A3002 RMK AO2 P0002=
202401021656 METAR KPWT 021656Z AUTO 22005KT 10SM -RA FEW030 BKN042 OVC050 04/04 A3001 RMK AO2 RAB06 SLP170 P0000 T00390039=
202401021556 METAR KPWT 021556Z AUTO 21004KT 10SM CLR 04/04 A2999 RMK AO2 RAB17E54 SLP160 P0000 T00390039=
202401021456 METAR KPWT 021456Z AUTO 00000KT 10SM CLR 03/03 A2999 RMK AO2 SLP160 T00330033 55013=
202401021356 METAR KPWT 021356Z AUTO 00000KT 10SM FEW110 03/03 A2999 RMK AO2 SLP161 T00280028=
202401021256 METAR KPWT 021256Z AUTO 00000KT 10SM BKN110 02/02 A3000 RMK AO2 SLP167 T00220022 FZRANO=
202401021156 METAR KPWT 021156Z AUTO 00000KT 10SM CLR 02/02 A3002 RMK AO2 SLP173 T00220022 10028 20017 58022 FZRANO=
202401021056 METAR KPWT 021056Z AUTO 00000KT 9SM FEW120 02/02 A3006 RMK AO2 SLP184 T00220022 FZRANO=
202401021050 SPECI KPWT 021050Z AUTO 00000KT 3SM BR FEW120 02/02 A3006 RMK AO2 FZRANO=
202401021044 SPECI KPWT 021044Z AUTO 00000KT 1 3/4SM BR CLR 02/02 A3006 RMK AO2 VIS 1V5 FZRANO=
202401020956 METAR KPWT 020956Z AUTO 00000KT 10SM FEW120 02/02 A3007 RMK AO2 SLP189 T00170017 FZRANO=
202401020856 METAR KPWT 020856Z AUTO 00000KT 10SM BKN110 03/03 A3009 RMK AO2 SLP197 T00280028 58012=
202401020808 SPECI KPWT 020808Z AUTO 00000KT 10SM CLR 02/02 A3010 RMK AO2 FZRANO=
202401020756 METAR KPWT 020756Z AUTO 00000KT 2 1/2SM BR CLR 02/02 A3010 RMK AO2 VIS 1V5 SLP199 T00220022 400560011 FZRANO=
202401020656 METAR KPWT 020656Z AUTO 00000KT 9SM CLR 03/03 A3011 RMK AO2 SLP203 T00280028=
202401020640 SPECI KPWT 020640Z AUTO 00000KT 3SM BR CLR 02/02 A3011 RMK AO2 FZRANO=
202401020556 METAR KPWT 020556Z AUTO 00000KT 1 1/4SM BR CLR 02/02 A3012 RMK AO2 SLP208 T00220022 10039 20022 56012 FZRANO=
202401020540 SPECI KPWT 020540Z AUTO 00000KT 1/2SM FG CLR 02/02 A3013 RMK AO2 FZRANO=
202401020531 SPECI KPWT 020531Z AUTO 00000KT 1/4SM FG CLR 03/03 A3013 RMK AO2=
202401020524 SPECI KPWT 020524Z AUTO 00000KT 1/2SM FG CLR 03/03 A3013 RMK AO2=
202401020514 SPECI KPWT 020514Z AUTO 00000KT 1/4SM FG VV001 03/03 A3013 RMK AO2=
202401020456 METAR KPWT 020456Z AUTO 00000KT 1/2SM FG BKN001 03/03 A3014 RMK AO2 SLP214 T00280028=
202401020454 SPECI KPWT 020454Z AUTO 00000KT 1/2SM FG OVC001 03/03 A3014 RMK AO2=
202401020356 METAR KPWT 020356Z AUTO 00000KT 1/4SM FG OVC001 04/04 A3016 RMK AO2 SLP220 T00390039=
202401020256 METAR KPWT 020256Z AUTO 00000KT 1/4SM FG BKN001 04/04 A3017 RMK AO2 SLP224 T00390039 58006=
202401020229 SPECI KPWT 020229Z AUTO 00000KT 1/2SM FG BKN001 04/04 A3017 RMK AO2=
202401020156 METAR KPWT 020156Z AUTO 00000KT 1/4SM FG OVC001 04/04 A3018 RMK AO2 SLP225 T00390039=
202401020142 SPECI KPWT 020142Z AUTO 00000KT 1/4SM FG OVC001 04/04 A3018 RMK AO2=
202401020056 METAR KPWT 020056Z AUTO 27004KT M1/4SM FG OVC003 04/04 A3019 RMK AO2 SLP229 T00440044=
202401012356 METAR KPWT 012356Z AUTO 25004KT 1/4SM FG OVC003 05/05 A3019 RMK AO2 SLP229 T00500050 10056 20033 56004=
202401012345 SPECI KPWT 012345Z AUTO 00000KT 1/2SM FG OVC003 05/05 A3019 RMK AO2=
202401012340 SPECI KPWT 012340Z AUTO 00000KT 1SM BR OVC003 05/05 A3019 RMK AO2 VIS 1/2V2=
202401012328 SPECI KPWT 012328Z AUTO 00000KT 2 1/2SM BR OVC003 05/05 A3019 RMK AO2 VIS 1 1/4V5=
202401012256 METAR KPWT 012256Z AUTO 00000KT 8SM OVC003 06/06 A3019 RMK AO2 SLP231 T00560056=
202401012156 METAR KPWT 012156Z AUTO 30003KT 9SM OVC003 06/06 A3019 RMK AO2 SLP230 T00560056=
202401012126 SPECI KPWT 012126Z AUTO 28003KT 10SM OVC003 06/06 A3020 RMK AO2=
202401012056 METAR KPWT 012056Z AUTO 00000KT 10SM OVC005 06/06 A3020 RMK AO2 SLP234 T00560056 58012=
202401011956 METAR KPWT 011956Z AUTO 00000KT 10SM OVC003 05/05 A3022 RMK AO2 SLP241 T00500050=
202401011856 METAR KPWT 011856Z AUTO 00000KT 8SM OVC001 04/04 A3024 RMK AO2 SLP247 T00440044=
202401011803 SPECI KPWT 011803Z AUTO 00000KT 10SM BKN001 BKN060 03/03 A3024 RMK AO2=
202401011756 METAR KPWT 011756Z AUTO 00000KT 10SM SCT001 BKN060 03/03 A3024 RMK AO2 SLP247 60000 T00330033 10033 20011 53013=
202401011709 SPECI KPWT 011709Z AUTO 21003KT 10SM FEW001 OVC055 02/02 A3022 RMK AO2 FZRANO=
202401011703 SPECI KPWT 011703Z AUTO 00000KT 2 1/2SM BR BKN055 02/02 A3022 RMK AO2 FZRANO=
202401011659 SPECI KPWT 011659Z AUTO 00000KT 1SM BR BKN055 02/02 A3022 RMK AO2 FZRANO=
202401011656 METAR KPWT 011656Z AUTO 00000KT 1/2SM FG BKN055 02/02 A3022 RMK AO2 SLP240 T00170017 FZRANO=
202401011633 SPECI KPWT 011633Z AUTO 00000KT 1/4SM FG CLR 01/01 A3021 RMK AO2 FZRANO=
202401011626 SPECI KPWT 011626Z AUTO 00000KT 1/4SM FG VV002 01/01 A3020 RMK AO2 FZRANO=
202401011556 METAR KPWT 011556Z AUTO 00000KT 1/4SM FG FEW001 SCT055 02/02 A3020 RMK AO2 RAB20E35 SLP234 P0000 T00220022 FZRANO=
202401011548 SPECI KPWT 011548Z AUTO 00000KT 1/4SM FG SCT001 BKN055 02/02 A3020 RMK AO2 RAB20E35 P0000 FZRANO=
202401011456 METAR KPWT 011456Z AUTO 00000KT 1/4SM FG OVC002 03/03 A3020 RMK AO2 SLP233 T00280028 56005=
202401011356 METAR KPWT 011356Z AUTO 36003KT 1/4SM FG OVC002 03/03 A3021 RMK AO2 SLP237 T00330033=
202401011256 METAR KPWT 011256Z AUTO 00000KT 1/4SM FG OVC002 03/03 A3021 RMK AO2 SLP237 T00280028=
202401011156 METAR KPWT 011156Z AUTO 03003KT 1/4SM FG OVC002 03/03 A3022 RMK AO2 SLP240 60000 T00280028 10028 20000 58001=
202401011143 SPECI KPWT 011143Z AUTO 00000KT 1/4SM FG OVC002 03/03 A3022 RMK AO2=
202401011132 SPECI KPWT 011132Z AUTO 00000KT 1/2SM FG OVC002 03/03 A3022 RMK AO2=
202401011056 METAR KPWT 011056Z AUTO 00000KT 1/4SM FG OVC002 03/03 A3023 RMK AO2 SLP242 T00280028=
202401010956 METAR KPWT 010956Z AUTO 00000KT 1/4SM FG OVC002 02/02 A3022 RMK AO2 RAB18E44 SLP242 P0000 T00220022 FZRANO=
202401010856 METAR KPWT 010856Z AUTO 22004KT 1/4SM FG OVC002 01/01 A3022 RMK AO2 SLP239 T00110011 53000 FZRANO=
202401010808 SPECI KPWT 010808Z AUTO 00000KT 1/4SM FG OVC002 01/01 A3021 RMK AO2 FZRANO=
202401010756 METAR KPWT 010756Z AUTO 04003KT 1/2SM FG OVC002 01/01 A3021 RMK AO2 SLP236 T00110011 400780000 FZRANO=
202401010732 SPECI KPWT 010732Z AUTO 00000KT 1/2SM FG VV002 01/01 A3022 RMK AO2 FZRANO=
202401010725 SPECI KPWT 010725Z AUTO 00000KT 1/2SM FG VV004 01/01 A3022 RMK AO2 FZRANO=
202401010722 SPECI KPWT 010722Z AUTO 13005KT 3/4SM BR CLR 01/01 A3022 RMK AO2 FZRANO=
202401010719 SPECI KPWT 010719Z AUTO 13003KT 1 1/2SM BR CLR 01/01 A3022 RMK AO2 FZRANO=
202401010656 METAR KPWT 010656Z AUTO 21003KT 3SM BR CLR 00/00 A3022 RMK AO2 SLP240 T00000000 FZRANO=
202401010654 SPECI KPWT 010654Z AUTO 21003KT 2 1/2SM BR CLR 00/00 A3022 RMK AO2 FZRANO=
202401010643 SPECI KPWT 010643Z AUTO 00000KT 3SM BR CLR 01/01 A3021 RMK AO2 FZRANO=
202401010640 SPECI KPWT 010640Z AUTO 00000KT 1 3/4SM BR CLR 01/01 A3021 RMK AO2 FZRANO=
202401010628 SPECI KPWT 010628Z AUTO 00000KT 2SM BR CLR 00/00 A3021 RMK AO2 VIS 1 1/4V5 FZRANO=
202401010601 SPECI KPWT 010601Z AUTO 00000KT 3SM BR CLR 01/01 A3021 RMK AO2 FZRANO=
202401010556 METAR KPWT 010556Z AUTO 00000KT 1 1/4SM BR CLR 01/01 A3021 RMK AO2 SLP237 60000 T00110011 10067 20011 53001 FZRANO=
202401010554 SPECI KPWT 010554Z AUTO 00000KT 1SM BR CLR 01/01 A3021 RMK AO2 FZRANO=
202401010549 SPECI KPWT 010549Z AUTO 00000KT 3/4SM BR VV001 01/01 A3021 RMK AO2 FZRANO=
202401010535 SPECI KPWT 010535Z AUTO 00000KT 1/2SM FG VV001 01/01 A3021 RMK AO2 FZRANO=
202401010514 SPECI KPWT 010514Z AUTO 00000KT 1/4SM FG OVC002 02/02 A3021 RMK AO2 FZRANO=
202401010503 SPECI KPWT 010503Z AUTO 00000KT 1/2SM FG BKN002 02/02 A3020 RMK AO2 FZRANO=
202401010456 METAR KPWT 010456Z AUTO 00000KT 1SM BR BKN002 02/02 A3021 RMK AO2 SLP235 T00220022 FZRANO=
202401010450 SPECI KPWT 010450Z AUTO 00000KT 2SM BR BKN002 02/02 A3021 RMK AO2 VIS 1 1/4V5 FZRANO=
202401010448 SPECI KPWT 010448Z AUTO 00000KT 3SM BR SCT002 02/02 A3021 RMK AO2 FZRANO=
202401010441 SPECI KPWT 010441Z AUTO 00000KT 2SM BR FEW002 02/02 A3021 RMK AO2 VIS 1/2V5 FZRANO=
202401010438 SPECI KPWT 010438Z AUTO 21003KT 1SM BR CLR 02/02 A3021 RMK AO2 VIS 1/2V5 FZRANO=
202401010432 SPECI KPWT 010432Z AUTO 22003KT 1/2SM FG CLR 02/02 A3021 RMK AO2 FZRANO=
202401010421 SPECI KPWT 010421Z AUTO 00000KT 3/4SM BR CLR 02/02 A3021 RMK AO2 FZRANO=
202401010415 SPECI KPWT 010415Z AUTO 00000KT 1 3/4SM BR CLR 02/02 A3020 RMK AO2 FZRANO=
202401010403 SPECI KPWT 010403Z AUTO 00000KT 8SM CLR 03/03 A3020 RMK AO2=
202401010356 METAR KPWT 010356Z AUTO 00000KT 2 1/2SM BR CLR 03/03 A3021 RMK AO2 RAE09 SLP234 P0000 T00280028=
202401010350 SPECI KPWT 010350Z AUTO 00000KT 1SM BR CLR 03/03 A3021 RMK AO2 RAE09 P0000=
202401010332 SPECI KPWT 010332Z AUTO 00000KT 1/2SM FG CLR 03/03 A3021 RMK AO2 RAE09 P0000=
202401010256 METAR KPWT 010256Z AUTO 00000KT 1/4SM -RA FG OVC001 04/04 A3021 RMK AO2 RAB55 SLP236 P0000 60000 T00440044 51004=
202401010156 METAR KPWT 010156Z AUTO 00000KT 1/4SM FG OVC001 05/05 A3020 RMK AO2 SLP234 T00500050=
202401010151 SPECI KPWT 010151Z AUTO 00000KT 1/4SM FG OVC001 05/05 A3020 RMK AO2=
202401010129 SPECI KPWT 010129Z AUTO 30003KT 1/4SM FG OVC003 06/06 A3020 RMK AO2=
202401010115 SPECI KPWT 010115Z AUTO 00000KT 1/2SM FG OVC003 06/06 A3019 RMK AO2=
202401010107 SPECI KPWT 010107Z AUTO 28003KT 3/4SM BR OVC003 06/06 A3019 RMK AO2=
202401010104 SPECI KPWT 010104Z AUTO 29003KT 1 3/4SM BR OVC003 06/06 A3019 RMK AO2 VIS 3/4V5=
202401010056 METAR KPWT 010056Z AUTO 00000KT 3SM BR BKN003 06/06 A3019 RMK AO2 SLP232 T00610061=
202401010044 SPECI KPWT 010044Z AUTO 00000KT 9SM BKN003 06/06 A3019 RMK AO2=

# No short TAF reports from KPWT in databse.

###################################
#  large TAF from KPWT
###################################
202401312321 TAF KPWT 312321Z 0100/0124 00000KT 6SM -RA BR OVC060 FM010600 00000KT
                       6SM -SHRA BR OVC045 FM011000 20003KT 6SM
                       BR VCSH SCT025 OVC040 FM011800 18005KT P6SM
                       OVC050=
202401311721 TAF KPWT 311721Z 3118/0118 VRB02KT P6SM -RA OVC050 FM312100 VRB04KT
                       6SM -RA BR OVC030 FM010400 22003KT 6SM -SHRA
                       BR BKN022 OVC035 FM011000 20003KT 6SM BR
                       VCSH BKN017 OVC030=
202401311135 TAF KPWT 311135Z 3112/0112 VRB03KT P6SM -RA OVC050 FM312100 VRB04KT
                       6SM -RA BR OVC030 FM010400 22003KT 6SM -SHRA
                       BR BKN022 OVC035 FM011000 VRB03KT 6SM BR
                       VCSH BKN017 OVC030=
202401310520 TAF KPWT 310520Z 3106/0106 04005KT P6SM SCT090 BKN100 FM310900
                       00000KT 6SM -RA BR OVC060 FM311200 03003KT
                       4SM -RA BR OVC050 FM312100 15004KT 5SM -RA
                       BR OVC025=
202401302331 TAF KPWT 302331Z 3100/3124 04005KT P6SM OVC070 FM310900 00000KT
                       P6SM -RA OVC060 FM311200 03003KT 4SM -RA
                       BR OVC050 FM312100 15004KT 5SM -RA BR OVC025=
202401301733 TAF KPWT 301733Z 3018/3118 00000KT P6SM -RA OVC080 FM302200 VRB03KT
                       P6SM OVC060 FM310900 00000KT P6SM -RA OVC060
                       FM311600 03003KT 4SM -RA BR OVC050=
202401301123 TAF KPWT 301123Z 3012/3112 20003KT P6SM OVC080 FM301700 25004KT
                       P6SM VCSH SCT060 BKN100 OVC200 FM310900
                       00000KT P6SM -RA OVC060=
202401300831 KPWT 300831Z 3009/3106 20005KT P6SM SCT070 FM301300 16006KT P6SM
                       BKN060 OVC100 FM301800 05006KT P6SM SCT060
                       BKN100 OVC200=
202401300539 TAF KPWT 300539Z 3006/3106 18008KT P6SM -SHRA BKN050 OVC100
                      TEMPO 3007/3011 4SM -SHRA FM301300 16006KT
                       P6SM BKN060 OVC100 FM301800 05006KT P6SM
                       SCT060 BKN100 OVC200=
202401300310 KPWT 300310Z 3003/3024 21006KT P6SM -RA SCT040 OVC080 FM300900
                       21004KT 2SM BR OVC004 FM301600 01005KT 4SM
                       BR VCSH BKN025 FM301900 29006KT P6SM -SHRA
                       OVC035=
202401292320 TAF KPWT 292320Z 3000/3024 19004KT P6SM BKN100 OVC200 FM300100
                       21010KT P6SM -RA BKN025 OVC050 FM300700
                       21004KT 2SM BR OVC004 FM301600 01005KT 4SM
                       BR VCSH BKN025 FM301900 29006KT P6SM -SHRA
                       OVC035=
202401291736 TAF KPWT 291736Z 2918/3018 19004KT P6SM BKN100 OVC200 FM300300
                       21010KT P6SM -RA BKN025 OVC050 FM300700
                       21004KT 2SM BR OVC004 FM301700 01005KT 4SM
                       BR VCSH BKN025=
202401291135 TAF KPWT 291135Z 2912/3012 00000KT 1/2SM FG SCT001
                      TEMPO 2912/2916 1/4SM FG BKN001 FM291800
                       00000KT 3SM BR BKN004 BKN100 FM292000 19004KT
                       P6SM SCT045 BKN100 OVC200 FM300600 21008KT
                       P6SM -RA BKN025 OVC050 FM300900 21004KT
                       4SM -RA BR OVC004=
202401290535 TAF KPWT 290535Z 2906/3006 00000KT 1SM BR OVC100 FM290800 00000KT
                       1/2SM FG OVC002 FM291800 00000KT 3SM BR
                       BKN004 BKN100 FM292000 19004KT P6SM SCT045
                       BKN100 OVC200 FM300100 19008KT P6SM BKN045
                       OVC070=
202401290411 KPWT 290411Z 2904/2924 00000KT 2SM BR OVC100 FM291100 00000KT 1SM
                       BR OVC002 FM291600 00000KT 4SM BR BKN008
                       BKN100 FM291900 00000KT P6SM SCT045 BKN100
                       OVC200=
202401290409 KPWT 290409Z 2904/2924 00000KT P6SM OVC100 FM291100 00000KT 1SM
                       BR OVC002 FM291600 00000KT 4SM BR BKN008
                       BKN100 FM291900 00000KT P6SM SCT045 BKN100
                       OVC200=
202401282341 TAF KPWT 282341Z 2900/2924 22004KT P6SM OVC004 FM290400 18004KT
                       P6SM SCT004 BKN008 OVC015 FM290900 00000KT
                       3SM BR OVC004 FM291600 00000KT P6SM BKN008
                       BKN120 FM291900 00000KT P6SM SCT045 BKN120=
202401282303 KPWT 282303Z 2823/2918 22004KT P6SM OVC004 FM290400 18004KT P6SM
                       SCT004 BKN008 OVC015 FM290900 00000KT 3SM
                       BR OVC004=
202401281720 TAF KPWT 281720Z 2818/2918 21009KT P6SM OVC005 FM282100 19006KT
                       P6SM SCT006 BKN012 OVC020 FM290100 17006KT
                       P6SM SCT060 BKN120 FM291200 00000KT 6SM
                       BR OVC007=
202401281403 KPWT 281403Z 2814/2912 21012G18KT P6SM OVC009 FM281800 19004KT
                       4SM BR SCT004 OVC009 FM282100 19006KT P6SM
                       SCT006 BKN012 OVC020 FM290100 17006KT P6SM
                       SCT060 BKN120=
202401281120 TAF KPWT 281120Z 2812/2912 20013KT P6SM -RA OVC005
                      TEMPO 2812/2814 2SM -RA BR FM281400 20004KT
                       2SM BR OVC004 FM281800 19004KT 4SM BR SCT004
                       OVC008 FM282100 19006KT P6SM SCT006 BKN012
                       OVC020 FM290100 17006KT P6SM SCT060 BKN120=
202401280542 TAF KPWT 280542Z 2806/2906 19012KT P6SM -RA OVC004
                      TEMPO 2808/2812 3SM -RA FM281400 00000KT
                       2SM BR OVC004 FM281800 00000KT 4SM BR SCT004
                       OVC008 FM282100 17006KT P6SM SCT006 BKN012
                       OVC020 FM290000 17006KT P6SM SCT060 BKN120=
202401272320 TAF KPWT 272320Z 2800/2824 VRB04KT 3SM RA BR OVC005 FM280100 20006KT
                       3SM -RA BR OVC007 FM280600 18010G20KT 5SM
                       -RA BR OVC004 FM281500 00000KT 6SM BR OVC015=
202401271720 TAF KPWT 271720Z 2718/2818 00000KT 2SM -RA BR BKN009 OVC010 FM280100
                       20006KT 3SM -RA BR OVC010 FM280600 18010KT
                       5SM -RA BR OVC004=
202401271131 TAF KPWT 271131Z 2712/2812 VRB03KT 2SM -RA SCT007 OVC020 FM271400
                       VRB03KT 3SM -RA OVC006 FM271800 21006KT
                       2SM -RA OVC003 FM280100 20006KT 3SM -RA
                       BR OVC007 FM280600 18010KT 5SM -RA BR OVC004=
202401270540 TAF KPWT 270540Z 2706/2806 VRB03KT 2SM -RA OVC004 FM271400 17006KT
                       3SM -RA OVC006 FM272000 21006KT 2SM -RA
                       OVC003=
202401270418 KPWT 270418Z 2704/2724 21004KT 4SM -RA BR OVC006 FM270800 VRB03KT
                       4SM BR OVC006 FM271300 VRB02KT 5SM -RA BR
                       OVC006 FM272000 21005KT 4SM BR OVC004=
202401262331 TAF KPWT 262331Z 2700/2724 22004KT P6SM -SHRA BKN030 OVC035 FM270300
                       19004KT 4SM -RA BR OVC015 FM270800 VRB03KT
                       4SM BR OVC006 FM271300 VRB02KT 5SM -RA BR
                       OVC006 FM272000 21005KT 4SM BR OVC004=
202401261739 TAF KPWT 261739Z 2618/2718 VRB03KT P6SM OVC060 FM262100 VRB04KT
                       6SM -SHRA BR OVC035 FM270200 17004KT 4SM
                       -RA BR OVC008 FM270800 VRB03KT 4SM BR OVC004
                       FM271300 VRB02KT 5SM -RA BR OVC006=
202401261557 KPWT 261557Z 2616/2712 VRB03KT P6SM -SHRA OVC035
                      TEMPO 2616/2618 1SM BR FM262100 VRB02KT 6SM
                       -RA BR OVC015 FM270200 00000KT 4SM -RA BR
                       OVC007 FM270800 VRB02KT 4SM -RA BR OVC004=
202401261233 KPWT 261233Z 2613/2712 00000KT 1SM BR FEW002 FM261400 VRB03KT P6SM
                       -SHRA OVC035 FM262100 VRB02KT 6SM -RA BR
                       OVC015 FM270200 00000KT 4SM -RA BR OVC007
                       FM270800 VRB02KT 4SM -RA BR OVC004=
202401261120 TAF KPWT 261120Z 2612/2712 20004KT P6SM OVC035 FM261400 VRB03KT
                       P6SM -SHRA OVC035 FM262100 VRB02KT 6SM -RA
                       BR OVC015 FM270200 00000KT 4SM -RA BR OVC007
                       FM270800 VRB02KT 4SM -RA BR OVC004=
202401260521 TAF KPWT 260521Z 2606/2706 20007KT P6SM -SHRA OVC004 FM261800 04003KT
                       P6SM OVC015 FM270200 00000KT 4SM -RA BR
                       OVC007=
202401260450 KPWT 260450Z 2605/2624 20007KT P6SM -SHRA OVC004 FM260900 19004KT
                       5SM BR OVC007 FM261500 VRB04KT P6SM -SHRA
                       OVC015=
202401260022 KPWT 260022Z 2600/2624 20007KT P6SM -SHRA OVC006
                      TEMPO 2600/2603 4SM -RA BR OVC004 FM260900
                       19004KT 5SM BR OVC007 FM261500 VRB04KT P6SM
                       -SHRA OVC015=
202401252326 TAF KPWT 252326Z 2600/2624 20007KT P6SM -SHRA OVC006 FM260900 19004KT
                       5SM BR OVC007 FM261500 VRB04KT P6SM -SHRA
                       OVC015=
202401251816 KPWT 251816Z 2518/2618 19009G15KT P6SM -RA SCT007 BKN025 OVC035
                       FM252300 20007KT P6SM VCSH OVC015 FM260900
                       19004KT 5SM BR OVC007 FM261500 VRB04KT P6SM
                       OVC015=
202401251730 KPWT 251730Z 2518/2618 19009G15KT 5SM -RA BR OVC005 FM252300 20007KT
                       P6SM VCSH OVC015 FM260900 19004KT 5SM BR
                       OVC007 FM261500 VRB04KT P6SM OVC015=
202401251729 TAF KPWT 251729Z 2518/2618 19009G15KT 4SM -RA BR OVC005 FM252300
                       20007KT P6SM VCSH OVC015 FM260900 19004KT
                       5SM BR OVC007 FM261500 VRB04KT P6SM OVC015=
202401251416 KPWT 251416Z 2514/2612 20010G15KT P6SM -SHRA OVC007 FM251800 19010KT
                       4SM -SHRA OVC015 FM252300 20007KT P6SM VCSH
                       OVC015 FM260900 18003KT 5SM BR OVC007=
202401251120 TAF KPWT 251120Z 2512/2612 19008KT P6SM -SHRA OVC035 FM251500 20010KT
                       P6SM -SHRA OVC010 FM251800 19010KT 4SM -SHRA
                       OVC015 FM252300 20007KT P6SM VCSH OVC015
                       FM260900 18003KT 5SM BR OVC007=
202401250539 TAF KPWT 250539Z 2506/2606 20008KT P6SM BKN050 FM251100 19008KT
                       P6SM -SHRA OVC025 FM251800 19010KT 4SM -SHRA
                       OVC007 FM252300 20007KT P6SM OVC015=
202401242331 TAF KPWT 242331Z 2500/2524 20008KT 6SM -RA BR BKN015 OVC020 FM250200
                       20008KT 6SM BR OVC025 FM250800 20007KT 5SM
                       -SHRA OVC030 FM251300 19011KT 6SM -RA BR
                       OVC015=
202401241848 KPWT 241848Z 2419/2518 21004KT 2SM -RA BR OVC012 FM242100 19006KT
                       P6SM -SHRA BKN025 OVC050 FM250000 20008KT
                       P6SM -SHRA OVC040 FM250800 20007KT 5SM -SHRA
                       OVC030=
202401241725 TAF KPWT 241725Z 2418/2518 21007KT 4SM -RA BR OVC025 FM242100 19006KT
                       P6SM -SHRA BKN025 OVC050 FM250000 20008KT
                       P6SM -SHRA OVC040 FM250800 20007KT 5SM -SHRA
                       OVC030=
202401241120 TAF KPWT 241120Z 2412/2512 00000KT P6SM -RA OVC045 FM241600 21007KT
                       5SM -RA BR OVC015 FM242100 19006KT P6SM
                       -SHRA OVC015 FM250000 20008KT P6SM -SHRA
                       OVC025=
202401240543 KPWT 240543Z 2406/2506 18003KT P6SM FEW025 BKN035 BKN200
                      TEMPO 2406/2408 2SM BR FEW004 BKN023 FM240800
                       21004KT P6SM BKN035 OVC070 FM241000 VRB02KT
                       4SM -RA BR OVC005 FM241700 21007KT 4SM -RA
                       BR OVC007 FM242100 19006KT P6SM -SHRA OVC015=
202401240521 TAF KPWT 240521Z 2406/2506 18003KT P6SM FEW025 BKN030 BKN200 FM240800
                       21004KT P6SM BKN035 OVC070 FM241000 VRB02KT
                       4SM -RA BR OVC005 FM241700 21007KT 4SM -RA
                       BR OVC007 FM242100 19006KT P6SM -SHRA OVC015=
202401240422 KPWT 240422Z 2404/2424 21006KT P6SM BKN050
                      TEMPO 2404/2408 1SM BR SCT001 FM240800 21004KT
                       P6SM BKN035 OVC070 FM241000 VRB02KT 4SM
                       -RA BR OVC005 FM241700 21007KT 4SM -RA BR
                       OVC007=
202401232324 TAF KPWT 232324Z 2400/2424 21010KT P6SM SCT025 FM240600 21004KT
                       P6SM BKN035 OVC070 FM241000 VRB02KT 4SM
                       -RA BR OVC005 FM241700 21007KT 4SM -RA BR
                       OVC007=
202401231729 TAF KPWT 231729Z 2318/2418 20008KT P6SM OVC007 FM232100 20009KT
                       P6SM SCT020 OVC035 FM240000 21005KT P6SM
                       OVC040 FM240600 VRB02KT 5SM BR OVC005 FM241000
                       VRB02KT 3SM -RA BR OVC005=
202401231134 TAF KPWT 231134Z 2312/2412 20009KT 6SM -RA BR OVC003 FM231800 20008KT
                       P6SM VCSH OVC015 FM232100 20009KT P6SM SCT020
                       OVC035 FM240000 21005KT P6SM OVC040 FM240600
                       VRB02KT 5SM BR OVC005 FM241000 VRB02KT 5SM
                       -RA BR OVC005=
202401230909 KPWT 230909Z 2309/2406 20007KT 2SM -RA BR OVC003 FM231900 21010KT
                       P6SM VCSH SCT007 OVC015 FM232300 21007KT
                       P6SM SCT020 BKN035=
202401230856 KPWT 230856Z 2309/2406 20007KT 4SM -RA BR OVC005 FM231900 21010KT
                       P6SM VCSH SCT007 OVC015 FM232300 21007KT
                       P6SM SCT020 BKN035=
202401230521 TAF KPWT 230521Z 2306/2406 20007KT P6SM VCSH SCT005 OVC015
                      TEMPO 2306/2309 4SM BR BKN005 FM231000 20008KT
                       4SM -RA BR OVC005 FM231900 21010KT P6SM
                       VCSH SCT007 OVC015 FM232300 21007KT P6SM
                       SCT020 BKN035=
202401222333 TAF KPWT 222333Z 2300/2324 20011KT P6SM BKN007 OVC010 FM230600
                       VRB03KT P6SM VCSH OVC007 FM231100 20003KT
                       P6SM VCSH OVC005 FM231700 21006KT P6SM VCSH
                       OVC010=
202401221913 KPWT 221913Z 2219/2318 20009KT 5SM -RA BR OVC004 FM222300 20005KT
                       5SM -SHRA BR BKN007 OVC010 FM230600 VRB03KT
                       3SM -RA BR OVC007 FM231100 20003KT 4SM -RA
                       BR OVC005=
202401221722 TAF KPWT 221722Z 2218/2318 20009KT 1SM -RA BR BKN010 OVC020 FM222300
                       20005KT 5SM -SHRA BR BKN007 OVC010 FM230600
                       VRB03KT 3SM -RA BR OVC007 FM231100 20003KT
                       4SM -RA BR OVC005=
202401221549 KPWT 221549Z 2216/2312 VRB03KT P6SM -RA BKN025 FM221800 20009KT
                       3SM -RA BR OVC007 FM222300 20005KT 5SM -SHRA
                       BR BKN007 OVC010 FM230600 VRB03KT 3SM -RA
                       BR OVC007=
202401221424 KPWT 221424Z 2214/2312 04003KT P6SM -RA SCT015 OVC030 FM221500
                       VRB03KT 4SM -RA BR OVC007 FM221800 20009KT
                       3SM -RA BR OVC007 FM222300 20005KT 5SM -SHRA
                       BR BKN007 OVC010 FM230600 VRB03KT 3SM -RA
                       BR OVC007=
202401221123 TAF KPWT 221123Z 2212/2312 04003KT P6SM -RA SCT015 OVC030 FM221400
                       VRB03KT 4SM -RA BR OVC007 FM221800 20009KT
                       3SM -RA BR OVC007 FM222300 20005KT 5SM -SHRA
                       BR BKN007 OVC010 FM230600 VRB03KT 3SM -RA
                       BR OVC007=
202401220528 TAF KPWT 220528Z 2206/2306 04003KT 4SM -RA BR BKN015 OVC025 FM221300
                       VRB03KT 4SM -RA BR OVC007 FM221800 19011KT
                       3SM -RA BR OVC007 FM222300 20009KT 5SM -SHRA
                       BR BKN007 OVC010=
202401212320 TAF KPWT 212320Z 2200/2224 00000KT 5SM -RA BR BKN025 OVC050 FM220300
                       04003KT 6SM -RA BR OVC015 FM220900 VRB03KT
                       4SM -RA BR OVC007 FM222100 21004KT 2SM -RA
                       BR OVC004=
202401211837 KPWT 211837Z 2119/2218 00000KT 4SM -RA BR BKN030 FM212000 17003KT
                       4SM -RA BR OVC015 FM220300 04003KT 2SM -RA
                       BR OVC010=
202401211727 TAF KPWT 211727Z 2118/2218 20004KT 1SM -RA BR OVC025 FM212000 17003KT
                       4SM -RA BR OVC015 FM220300 04003KT 2SM -RA
                       BR OVC010=
202401211122 TAF KPWT 211122Z 2112/2212 VRB03KT 4SM -RA BR SCT007 OVC015 FM211500
                       24003KT 2SM -RA BR BKN007 OVC015 FM212000
                       17003KT 4SM -RA BR OVC015 FM220300 04003KT
                       4SM -RA BR OVC010=
202401210853 KPWT 210853Z 2109/2206 20007KT 2SM -RA BR SCT007 OVC010 FM211500
                       18006KT 4SM -RA BR BKN007 OVC015=
202401210524 TAF KPWT 210524Z 2106/2206 06003KT P6SM -RA SCT030 OVC040 FM210700
                       20007KT 4SM -RA BR SCT007 OVC010 FM211500
                       18006KT 4SM -RA BR BKN007 OVC015=
202401202320 TAF KPWT 202320Z 2100/2124 05004KT P6SM FEW060 SCT110 BKN200 FM210200
                       11005KT P6SM BKN050 OVC100 FM210500 14005KT
                       P6SM -RA OVC050 FM210700 20007KT 4SM -RA
                       BR OVC012 FM211500 18006KT 2SM -RA BR OVC007=
202401201726 KPWT 201726Z 2017/2118 00000KT P6SM SCT001 BKN110
                      TEMPO 2018/2020 1SM BR BKN001 FM202000 04006KT
                       P6SM OVC120 FM202200 07005KT P6SM SCT070
                       OVC120 FM210200 11005KT P6SM OVC050 FM210500
                       14005KT P6SM -RA OVC050 FM210700 20007KT
                       4SM -RA BR OVC012=
202401201720 TAF KPWT 201720Z 2018/2118 00000KT P6SM BKN110 FM202000 04006KT
                       P6SM OVC120 FM202200 07005KT P6SM SCT070
                       OVC120 FM210200 11005KT P6SM OVC050 FM210500
                       14005KT P6SM -RA OVC050 FM210700 20007KT
                       4SM -RA BR OVC012=
202401201208 KPWT 201208Z 2012/2112 VRB03KT P6SM BKN100
                      TEMPO 2012/2015 1SM BR OVC007 FM201500 VRB03KT
                       P6SM OVC080 FM202000 04004KT P6SM OVC060
                       FM210400 VRB03KT P6SM -RA OVC025 FM210700
                       00000KT 3SM -RA BR OVC010=
202401201120 TAF KPWT 201120Z 2012/2112 VRB03KT P6SM BKN100 FM201500 VRB03KT
                       P6SM OVC080 FM202000 04004KT P6SM OVC060
                       FM210400 VRB03KT P6SM -RA OVC025 FM210700
                       00000KT 3SM -RA BR OVC010=
202401200534 TAF KPWT 200534Z 2006/2106 00000KT P6SM SCT180 FM201000 00000KT
                       4SM BR BKN100 FM201500 VRB03KT P6SM OVC080
                       FM202000 04004KT P6SM OVC060 FM210400 VRB03KT
                       P6SM VCSH OVC025=
202401200258 KPWT 200258Z 2003/2024 00000KT 4SM BR SCT010 FM201200 05004KT P6SM
                       OVC060 FM201700 04003KT P6SM OVC050=
202401200157 KPWT 200157Z 2002/2024 00000KT 3SM BR SKC
                      TEMPO 2002/2006 1/2SM FG VV002 FM201000 05004KT
                       P6SM OVC060 FM201700 04003KT P6SM OVC050=
202401192321 TAF KPWT 192321Z 2000/2024 33005KT P6SM -RA OVC070 FM200300 04004KT
                       P6SM OVC100 FM201000 05004KT P6SM OVC060
                       FM201700 04003KT P6SM OVC050=
202401191725 TAF KPWT 191725Z 1918/2018 VRB03KT P6SM -SHRA BKN050 FM192000 33005KT
                       P6SM -RA OVC050 FM200300 04004KT P6SM OVC025
                       FM201000 05004KT P6SM OVC050=
202401191120 TAF KPWT 191120Z 1912/2012 VRB03KT P6SM VCSH OVC040
                      TEMPO 1912/1916 4SM BR OVC015 FM191600 VRB03KT
                       6SM BR OVC030 FM192000 33005KT 5SM BR VCSH
                       OVC020 FM200300 04004KT P6SM OVC015=
202401190539 TAF KPWT 190539Z 1906/2006 02004KT 6SM -RA BR BKN040 FM191000 VRB03KT
                       4SM BR VCSH OVC015 FM191600 VRB03KT 6SM
                       BR VCSH OVC015 FM192000 19005KT P6SM OVC020
                       FM200300 VRB02KT P6SM OVC015=
202401182336 TAF KPWT 182336Z 1900/1924 04005KT P6SM -RA BKN009 OVC020 FM190600
                       04004KT 3SM -RA BR OVC009 FM191000 04005KT
                       4SM -RA BR OVC012 FM191600 00000KT 6SM BR
                       OVC015=
202401181737 TAF KPWT 181737Z 1818/1918 04003KT P6SM -RA BKN009 OVC025 FM182100
                       04005KT 2SM -RA BR OVC004 FM190600 04004KT
                       3SM -RA BR OVC004 FM191000 04005KT 4SM -RA
                       BR OVC007=
202401181125 TAF KPWT 181125Z 1812/1912 VRB03KT P6SM OVC010 FM181600 04003KT
                       4SM -RASN OVC007 FM182100 04005KT 2SM -RA
                       BR OVC004 FM190600 04004KT 3SM -RA BR OVC004=
202401180933 KPWT 180933Z 1810/1906 VRB03KT P6SM SCT010 OVC040
                      TEMPO 1810/1814 2SM BR OVC004 FM181600 04003KT
                       4SM -RASN OVC004 FM182100 04005KT 2SM -RA
                       BR OVC004=
202401180536 KPWT 180536Z 1806/1906 00000KT 2SM BR FEW004 OVC012
                      TEMPO 1806/1809 1SM BR BKN004 FM180900 00000KT
                       2SM BR OVC004 FM181600 04003KT 4SM -RASN
                       OVC004 FM182100 04005KT 2SM -RA BR OVC004=
202401180534 TAF KPWT 180534Z 1806/1906 00000KT 6SM BR FEW004 OVC012 FM180900
                       00000KT 2SM BR OVC004 FM181600 04003KT 4SM
                       -RASN OVC004 FM182100 04005KT 2SM -RA BR
                       OVC004=
202401172329 TAF KPWT 172329Z 1800/1824 VRB04KT P6SM VCSH OVC004 FM180500 04004KT
                       5SM BR BKN008 OVC015 FM181100 03004KT 4SM
                       BR OVC007 FM181600 00000KT 4SM -RASN OVC006=
202401171735 TAF KPWT 171735Z 1718/1818 21006KT 2SM -RA BR OVC002 FM172000 22007KT
                       4SM -RA BR OVC007 FM180000 VRB04KT 4SM -RA
                       BR OVC010 FM180500 04004KT 5SM BR BKN008
                       OVC015 FM181100 03004KT 2SM BR BKN004 OVC008=
202401171223 KPWT 171223Z 1712/1812 VRB03KT 6SM BR VCSH SCT003 OVC009
                      TEMPO 1712/1716 2SM -RASN BKN002 OVC007 FM171800
                       21006KT 5SM -RA BR BKN007 OVC014 FM180000
                       VRB04KT 4SM -RA BR OVC006 FM180500 04004KT
                       5SM BR BKN008 OVC015=
202401171132 TAF KPWT 171132Z 1712/1812 VRB03KT 6SM BR VCSH SCT003 OVC009
                      TEMPO 1712/1716 4SM -RASN BKN003 OVC007 FM171800
                       21006KT 5SM -RA BR BKN007 OVC014 FM180000
                       VRB04KT 4SM -RA BR OVC006 FM180500 04004KT
                       5SM BR BKN008 OVC015=
202401170615 KPWT 170615Z 1706/1806 01004KT 2SM -FZRA SCT004 OVC015 FM170900
                       VRB03KT P6SM VCSH OVC007 FM171200 23004KT
                       4SM BR OVC007 FM180000 15004KT 4SM BR OVC004=
202401170530 TAF KPWT 170530Z 1706/1806 01004KT 6SM -FZRA SCT010 OVC015 FM170900
                       VRB03KT P6SM VCSH OVC007 FM171200 23004KT
                       4SM BR OVC007 FM180000 15004KT 4SM BR OVC004=
202401170401 KPWT 170401Z 1704/1724 VRB03KT 4SM -FZRA BR BKN015 OVC030 FM170800
                       VRB03KT 5SM -RASN BR OVC007 FM171200 23004KT
                       4SM -RA BR OVC005 FM171600 21003KT 4SM -RA
                       OVC007=
202401162340 TAF KPWT 162340Z 1700/1724 VRB03KT P6SM OVC050 FM170200 VRB03KT
                       6SM -SN BR OVC022
                      TEMPO 1704/1708 4SM -FZRA BR OVC007 FM170800
                       VRB03KT 5SM -RASN BR OVC007 FM171200 23004KT
                       4SM -RA BR OVC005 FM171600 21003KT 4SM -RA
                       OVC007=
202401161735 TAF KPWT 161735Z 1618/1718 VRB03KT P6SM BKN120 FM162300 VRB03KT
                       P6SM OVC050 FM170200 VRB03KT 6SM -SN BR
                       OVC022 FM170800 VRB03KT 5SM -RASN BR OVC007
                       FM171200 23004KT 4SM -RA BR OVC005=
202401161133 TAF KPWT 161133Z 1612/1712 VRB03KT P6SM BKN200 FM161800 VRB04KT
                       P6SM BKN120 FM162300 VRB03KT P6SM OVC050
                       FM170200 VRB03KT 6SM -SN BR OVC022 FM170800
                       VRB03KT 5SM -RASN BR OVC007=
202401160531 TAF KPWT 160531Z 1606/1706 05006KT P6SM SCT250 FM160900 VRB03KT
                       P6SM SCT200 FM161500 00000KT 5SM BR SCT002
                       SCT200 FM161800 VRB04KT P6SM BKN180 FM162300
                       VRB03KT P6SM OVC050 FM170200 VRB03KT 6SM
                       RASN OVC025
                      PROB30 1702/1705 FZRASN=
202401152322 TAF KPWT 152322Z 1600/1624 05008KT P6SM SCT200 FM160400 04005KT
                       P6SM SCT200 FM160900 04004KT 6SM BR FEW006
                       SCT200 FM161500 00000KT 4SM BR SCT002 SCT200
                       FM161800 17003KT P6SM BKN200=
202401151727 TAF KPWT 151727Z 1518/1618 05007KT P6SM SCT200 FM160400 04005KT
                       P6SM SCT200 FM160900 04004KT 6SM BR FEW006
                       SCT200 FM161500 00000KT 4SM BR SCT002 SCT200=
202401151132 TAF KPWT 151132Z 1512/1612 05007KT P6SM SCT200 FM151800 04009KT
                       P6SM SCT200 FM160400 04005KT P6SM SCT200
                       FM160900 04004KT 6SM BR FEW006 SCT200=
202401150536 TAF KPWT 150536Z 1506/1606 VRB03KT P6SM BKN250 FM151500 04006KT
                       P6SM SCT200 FM160400 04005KT P6SM BKN025=
202401142334 TAF KPWT 142334Z 1500/1524 04006KT P6SM BKN200
                      TEMPO 1514/1517 05008G18KT=
202401141730 TAF KPWT 141730Z 1418/1518 04005KT P6SM BKN200=
202401141126 TAF KPWT 141126Z 1412/1512 VRB03KT P6SM SCT200 FM141500 04005KT
                       P6SM BKN200 FM142100 04005KT P6SM FEW050
                       BKN200 FM150600 VRB04KT P6SM SCT030 BKN200=
202401140520 TAF KPWT 140520Z 1406/1506 03010KT P6SM BKN200
                      TEMPO 1406/1407 03012G20KT FM141400 05005KT
                       P6SM SCT060 BKN250 FM141800 04005KT P6SM
                       SCT250 FM150200 VRB04KT 6SM BR OVC020=
202401132320 TAF KPWT 132320Z 1400/1424 04011G20KT P6SM SKC FM140700 06006KT
                       P6SM SCT250 FM142000 04005KT P6SM SCT250=
202401131730 TAF KPWT 131730Z 1318/1418 03010KT P6SM SKC FM140000 04011KT P6SM
                       BKN070 OVC120 FM140700 06006KT P6SM SCT250=
202401131137 TAF KPWT 131137Z 1312/1412 04008KT P6SM SCT200 FM131600 04010G16KT
                       P6SM SCT150 BKN200 FM140000 04011KT P6SM
                       BKN070 OVC120 FM140700 06006KT P6SM SCT015
                       BKN040=
202401130542 TAF KPWT 130542Z 1306/1406 03008KT P6SM SCT250 FM131600 03011KT
                       P6SM SCT070 FM140000 04012KT P6SM BKN035=
202401130338 KPWT 130338Z 1304/1324 03009KT P6SM SCT200 FM130600 04009KT P6SM
                       SCT010 OVC030 FM131200 03008KT P6SM OVC007
                       FM131700 04011KT P6SM SCT010 SCT250=
202401122320 TAF KPWT 122320Z 1300/1324 04015G22KT P6SM SCT070 SCT250 FM130600
                       04009KT P6SM SCT010 OVC030 FM131200 03008KT
                       P6SM OVC007 FM131700 04011KT P6SM SCT010
                       SCT250=
202401121727 TAF KPWT 121727Z 1218/1318 02013G23KT P6SM BKN050 FM122000 04015G22KT
                       P6SM BKN070 FM130100 03011KT P6SM BKN035
                       FM130600 04007KT P6SM SCT010 OVC030 FM131200
                       03008KT P6SM OVC007=
202401121121 TAF KPWT 121121Z 1212/1312 04013G21KT P6SM BKN040 FM121600 02009G16KT
                       P6SM BKN050 FM122000 04015G22KT P6SM BKN070
                       FM130100 03011KT P6SM BKN035=
202401120541 TAF KPWT 120541Z 1206/1306 05009KT P6SM OVC035
                      TEMPO 1206/1208 05012G20KT -SN BKN030 FM120800
                       04010KT P6SM BKN030 FM121800 02009G16KT
                       P6SM BKN050 FM130100 03011KT P6SM BKN035=
202401112337 TAF KPWT 112337Z 1200/1224 02013G18KT P6SM SKC
                      TEMPO 1201/1203 -SNRA BKN015 OVC020 FM120400
                       02011G25KT P6SM VCSH OVC015 FM120800 03014G22KT
                       P6SM BKN030 FM121200 02009G15KT P6SM OVC020=
202401111759 TAF KPWT 111759Z 1118/1218 25008KT P6SM VCSH OVC080 FM112100 02013G20KT
                       6SM -SHRA BR BKN015 OVC025 FM120400 02011G23KT
                       P6SM VCSH OVC007 FM121200 02009G15KT P6SM
                       OVC015=
202401111412 KPWT 111412Z 1114/1212 23004KT P6SM OVC004
                      TEMPO 1114/1115 1/2SM FZFG VV001 FM111700
                       25008KT P6SM VCSH OVC007 FM112200 02013G20KT
                       6SM -SHRA BR BKN015 OVC025 FM120400 02011G23KT
                       P6SM VCSH OVC007=
202401111135 TAF KPWT 111135Z 1112/1212 23004KT P6SM OVC004 FM111700 25008KT
                       P6SM VCSH OVC007 FM112200 02013G20KT 6SM
                       -SHRA BR BKN015 OVC025 FM120400 02011G23KT
                       P6SM VCSH OVC007=
202401111010 KPWT 111010Z 1110/1206 23008KT P6SM OVC004 FM111700 25008KT P6SM
                       VCSH BKN025 FM112200 02013G20KT 6SM -SHRA
                       BR BKN015 OVC025 FM120100 02011KT P6SM VCSH
                       OVC007=
202401110536 TAF KPWT 110536Z 1106/1206 22004KT P6SM VCSH SCT001 BKN030
                      TEMPO 1106/1110 2SM BR BKN001 BKN015 FM111000
                       23008KT 4SM BR SCT015 BKN035 FM111700 25008KT
                       P6SM VCSH BKN025 FM112200 02013G20KT 6SM
                       -SHRA BR BKN015 OVC025 FM120100 02011KT
                       P6SM VCSH OVC007=
202401110456 KPWT 110456Z 1105/1124 22004KT P6SM VCSH BKN030
                      TEMPO 1105/1109 2SM BR BKN001 BKN015 FM111000
                       23008KT 4SM BR SCT015 BKN035 FM111200 20012KT
                       P6SM BKN035 FM111700 20008KT P6SM VCSH OVC015
                       FM112200 02013G20KT 6SM -SHRA BR OVC009=
202401102340 TAF KPWT 102340Z 1100/1124 05004KT P6SM VCSH OVC020 FM110600 21008KT
                       5SM BR SCT015 OVC020 FM111200 20012KT P6SM
                       BKN035 FM111700 20008KT P6SM VCSH OVC015
                       FM112200 02013G20KT 6SM -SHRA BR OVC009=
202401102158 KPWT 102158Z 1022/1118 14006KT P6SM BKN020 BKN030 OVC040 FM110400
                       00000KT 6SM BR OVC010 FM110900 21008KT 5SM
                       BR OVC006 FM111700 20008KT P6SM OVC010=
202401101900 KPWT 101900Z 1019/1118 VRB03KT P6SM OVC012 FM102100 06004KT P6SM
                       OVC015 FM110400 00000KT 6SM BR OVC010 FM110900
                       21008KT 5SM BR OVC006 FM111700 20008KT P6SM
                       OVC010=
202401101835 KPWT 101835Z 1019/1118 00000KT P6SM BKN005 FM102100 06004KT P6SM
                       OVC015 FM110400 00000KT 6SM BR OVC010 FM110900
                       21008KT 5SM BR OVC006 FM111700 20008KT P6SM
                       OVC010=
202401101742 TAF KPWT 101742Z 1018/1118 00000KT 2SM BR VCSH OVC003 FM102100
                       06004KT P6SM OVC015 FM110400 00000KT 6SM
                       BR OVC010 FM110900 21008KT 5SM BR OVC006
                       FM111700 20008KT P6SM OVC010=
202401101624 KPWT 101624Z 1016/1112 VRB05KT 3SM BR OVC003 FM101800 03005KT P6SM
                       -SHRA OVC015 FM102300 08003KT P6SM OVC015
                       FM110400 00000KT 6SM BR OVC010=
202401101539 KPWT 101539Z 1016/1112 VRB05KT 6SM BR OVC004 FM101700 03005KT P6SM
                       -SHRA OVC015 FM102300 08003KT P6SM OVC015
                       FM110400 00000KT 6SM BR OVC010=
202401101436 KPWT 101436Z 1015/1112 VRB05KT P6SM OVC005 FM101700 03005KT P6SM
                       -SHRA OVC015 FM102300 08003KT P6SM OVC015
                       FM110400 00000KT 6SM BR OVC010=
202401101347 KPWT 101347Z 1014/1112 18005KT P6SM -SHRA OVC006 FM101500 VRB05KT
                       5SM -SHRA BR OVC015 FM101900 03005KT P6SM
                       -SHRA OVC015 FM102300 08003KT P6SM OVC015
                       FM110400 00000KT 6SM BR OVC010=
202401101129 TAF KPWT 101129Z 1012/1112 18005KT P6SM -SHRA BKN007 OVC015 FM101500
                       VRB05KT 5SM -SHRA BR OVC015 FM101900 03005KT
                       P6SM -SHRA OVC015 FM102300 08003KT P6SM
                       OVC015 FM110400 00000KT 6SM BR OVC010=
202401100527 TAF KPWT 100527Z 1006/1106 21011G18KT P6SM VCSH BKN050 FM100800
                       21008KT 6SM -SHRA BR OVC020 FM101200 18005KT
                       4SM -SHRA BR OVC010 FM101600 VRB05KT 5SM
                       -SHRA BR OVC015 FM101900 03005KT P6SM -SHRA
                       OVC015=
202401092328 TAF KPWT 092328Z 1000/1024 21015G23KT P6SM -RA SCT020 BKN030 FM100300
                       21010G18KT P6SM VCSH BKN015 OVC025 FM100800
                       21008KT 6SM -SHRA BR OVC020 FM102100 VRB05KT
                       5SM -SHRA BR OVC015=
202401091725 TAF KPWT 091725Z 0918/1018 21020G29KT P6SM -RA OVC015 FM092200
                       21025G31KT P6SM VCSH BKN015 OVC035 FM100300
                       21012G20KT P6SM VCSH BKN015 OVC025 FM100800
                       21008KT 6SM -SHRA BR OVC020 FM101200 VRB05KT
                       6SM -SHRA BR OVC015=
202401091142 KPWT 091142Z 0912/1012 21020G30KT P6SM -SHRA BKN035 OVC040 FM091500
                       21020G29KT 6SM -SHRA BR BKN015 OVC025 FM092200
                       21025G31KT P6SM VCSH BKN015 OVC035 FM100300
                       21012G20KT P6SM VCSH BKN015 OVC025 FM100800
                       21008KT P6SM -SHRA OVC020=
202401091141 TAF KPWT 091141Z 0912/1012 21020G30KT P6SM -SHRA BKN025 OVC030
                       FM091500 21020G29KT 6SM -SHRA BR BKN015
                       OVC025 FM092200 21025G31KT P6SM VCSH BKN015
                       OVC035 FM100300 21012G20KT P6SM VCSH BKN015
                       OVC025 FM100800 21008KT P6SM -SHRA OVC020=
202401090533 TAF KPWT 090533Z 0906/1006 21014G28KT 3SM RA BR OVC003 FM090800
                       21020G33KT 5SM -RA BR BKN010 OVC015 FM091500
                       21020G30KT 6SM -SHRA BR BKN015 OVC025 FM092200
                       21025G35KT P6SM VCSH BKN015 OVC035 FM100300
                       21011KT P6SM VCSH BKN015 OVC025=
202401090314 KPWT 090314Z 0903/0924 21014G28KT 3SM -RA BR OVC005 FM090900 21020G30KT
                       5SM RA BR OVC009 FM091500 21020G30KT P6SM
                       -SHRA BKN015 OVC040 FM092200 21025G35KT
                       P6SM VCSH OVC025=
202401082320 TAF KPWT 082320Z 0900/0924 21008KT 2SM -RA BR OVC006
                      TEMPO 0900/0904 1 1/2SM -RA BR FM090400 20012G18KT
                       1SM RA BR OVC005 FM090900 21020G30KT 5SM
                       RA BR OVC009 FM091500 21020G30KT P6SM -SHRA
                       BKN015 OVC040 FM092200 21025G35KT P6SM VCSH
                       OVC025=
202401082200 KPWT 082200Z 0822/0918 20004KT 2SM -RA BR OVC004
                      TEMPO 0822/0902 1SM -RA BR FM090400 20012G18KT
                       1SM RA BR OVC005 FM090900 21020G30KT 5SM
                       RA BR OVC009 FM091500 21020G30KT P6SM -SHRA
                       BKN015 OVC040=
202401082111 KPWT 082111Z 0821/0918 29004KT 6SM -RA BR OVC004 FM090400 20012G18KT
                       4SM RA BR OVC005 FM090900 21020G30KT 5SM
                       RA BR OVC009 FM091500 21020G30KT P6SM -SHRA
                       BKN015 OVC040=
202401081722 TAF KPWT 081722Z 0818/0918 21004KT P6SM -RA OVC009 FM082100 20008KT
                       4SM -RA OVC010 FM090400 20012G18KT 4SM RA
                       BR OVC005 FM090900 21020G30KT 5SM RA BR
                       OVC009 FM091500 21020G30KT P6SM -SHRA BKN015
                       OVC040=
202401081138 TAF KPWT 081138Z 0812/0912 19004KT 6SM -RA BR OVC005 FM081500 18007KT
                       4SM -RA BR OVC008 FM082100 20008KT 4SM -RA
                       OVC010 FM090400 20012G18KT 4SM RA BR OVC005
                       FM090900 21016G26KT 5SM RA BR OVC009=
202401080911 KPWT 080911Z 0809/0906 00000KT 6SM BR OVC004 FM081100 19004KT 6SM
                       -RA BR OVC008 FM081400 18007KT 4SM -RA BR
                       OVC005 FM090300 20011G18KT 4SM RA BR OVC003=
202401080525 TAF KPWT 080525Z 0806/0906 00000KT 3SM BR BKN015 FM081000 19004KT
                       P6SM -RA OVC008 FM081400 18007KT 4SM -RA
                       BR OVC005 FM090300 20011G18KT 4SM RA BR
                       OVC003=
202401080114 KPWT 080114Z 0801/0824 22004KT P6SM BKN045 FM080500 15003KT P6SM
                       BKN020 FM081000 19004KT P6SM OVC010 FM081400
                       18007KT 4SM RA BR OVC006=
202401072334 TAF KPWT 072334Z 0800/0824 22004KT P6SM BKN014 BKN045 FM080500
                       15003KT P6SM BKN020 FM081000 19004KT P6SM
                       OVC010 FM081400 18007KT 4SM RA BR OVC006=
202401071908 KPWT 071908Z 0719/0818 23003KT P6SM BKN015 BKN040 FM072000 19003KT
                       P6SM BKN035 BKN050 FM080500 15003KT P6SM
                       BKN020 FM081000 19004KT P6SM OVC010 FM081400
                       18007KT 4SM RA BR OVC006=
202401071732 TAF KPWT 071732Z 0718/0818 23003KT P6SM SCT015 BKN040 FM072000
                       19003KT P6SM BKN035 BKN050 FM080500 15003KT
                       P6SM BKN020 FM081000 19004KT P6SM OVC010
                       FM081400 18007KT 4SM RA BR OVC006=
202401071121 TAF KPWT 071121Z 0712/0812 VRB03KT P6SM SCT015 BKN035 FM072000
                       VRB03KT P6SM BKN035 BKN050 FM080500 VRB03KT
                       P6SM BKN020 FM081000 19004KT P6SM OVC010=
202401070903 KPWT 070903Z 0709/0806 00000KT 6SM BR VCSH SCT015 BKN022 OVC040
                       FM071200 VRB03KT P6SM BKN015 BKN030 FM072000
                       15004KT P6SM OVC020=
202401070526 TAF KPWT 070526Z 0706/0806 VRB03KT 5SM -SHRA BR BKN010 OVC015 FM070900
                       00000KT 4SM BR VCSH OVC007 FM072000 15004KT
                       P6SM OVC020=
202401062336 TAF KPWT 062336Z 0700/0724 05006KT P6SM OVC015 FM070600 VRB03KT
                       5SM BR BKN006 OVC011 FM071500 17004KT P6SM
                       OVC007=
202401061729 TAF KPWT 061729Z 0618/0718 00000KT 1/2SM FG VCSH BKN002 OVC025
                       FM062000 22006KT 6SM BR VCSH SCT008 BKN015
                       BKN030 FM070200 04006KT 6SM BR BKN012 OVC022
                       FM070600 VRB03KT 5SM BR BKN006 OVC011=
202401061425 KPWT 061425Z 0614/0712 VRB05KT P6SM VCSH BKN008 BKN025 FM061600
                       22006KT 6SM BR VCSH SCT008 BKN015 BKN030
                       FM070200 04006KT 6SM BR BKN012 OVC022 FM070600
                       VRB03KT 5SM BR BKN006 OVC011=
202401061134 TAF KPWT 061134Z 0612/0712 20007KT 6SM -SHRA BR SCT007 BKN013 OVC025
                       FM061400 06005KT P6SM VCSH BKN011 BKN020
                       FM061600 22006KT 6SM BR VCSH SCT006 BKN013
                       BKN025 FM070200 04006KT 6SM BR BKN012 OVC022
                       FM070600 VRB03KT 5SM BR BKN006 OVC011=
202401060909 KPWT 060909Z 0609/0706 21013G22KT 6SM -RA BR BKN010 OVC022 FM061200
                       05009KT 5SM BR VCSH BKN014 BKN025 FM061600
                       23006KT 5SM BR SCT004 OVC010 FM070000 07007KT
                       3SM BR OVC007=
202401060520 TAF KPWT 060520Z 0606/0706 20015G25KT 5SM -RA BR OVC005 FM060900
                       21013G22KT 5SM -RA BR OVC003 FM061200 05009KT
                       3SM BR VCSH OVC004 FM061600 23006KT 5SM
                       BR SCT004 OVC010 FM070000 07007KT 3SM BR
                       OVC007=
202401052330 TAF KPWT 052330Z 0600/0624 21011KT P6SM -RA SCT005 OVC010
                      TEMPO 0600/0603 3SM -RA BR OVC005 FM060300
                       20015G25KT 5SM -RA BR OVC005 FM060900 21013G22KT
                       5SM -RA BR OVC003 FM061200 18009KT 3SM BR
                       OVC004 FM061800 23006KT 5SM BR SCT004 OVC010=
202401052035 KPWT 052035Z 0521/0618 21014G22KT P6SM -RA OVC020 FM060300 20015G25KT
                       5SM -RA BR OVC012 FM060900 21014G22KT 5SM
                       -RA BR OVC008 FM061200 VRB05KT P6SM OVC012=
202401051725 TAF KPWT 051725Z 0518/0618 20010KT P6SM OVC004 FM052200 21014G22KT
                       P6SM -RA OVC020 FM060300 20015G25KT 5SM
                       -RA BR OVC012 FM060900 21014G22KT 5SM -RA
                       BR OVC008 FM061200 VRB05KT P6SM OVC012=
202401051402 KPWT 051402Z 0514/0612 19006KT P6SM SCT006 OVC020
                      TEMPO 0514/0517 6SM BR BKN003 OVC012 FM051700
                       20010KT P6SM BKN011 BKN025 FM052200 21014G22KT
                       P6SM -RA OVC030 FM060300 20015G25KT 5SM
                       -RA BR OVC012 FM060900 21014G22KT 5SM -RA
                       BR OVC008=
202401051135 TAF KPWT 051135Z 0512/0612 19006KT P6SM VCSH SCT006 OVC025
                      TEMPO 0512/0514 6SM -SHRA BR BKN005 OVC020
                       FM051500 20008KT P6SM BKN020 BKN040 FM052200
                       21014G22KT P6SM -RA OVC030 FM060300 20015G25KT
                       5SM -RA BR OVC012 FM060900 21014G22KT 5SM
                       -RA BR OVC008=
202401050911 KPWT 050911Z 0509/0606 20008KT 6SM BR VCSH SCT014 OVC035 FM051200
                       19006KT 6SM BR VCSH OVC025 FM051500 20008KT
                       P6SM OVC015 FM052200 21015G25KT P6SM -RA
                       OVC015 FM060300 20017G26KT 5SM -RA BR OVC007=
202401050539 TAF KPWT 050539Z 0506/0606 21005KT P6SM OVC025
                      TEMPO 0506/0508 1/2SM -RA FG OVC002 FM050800
                       20010KT 4SM BR VCSH OVC006 FM051200 19006KT
                       3SM BR OVC004 FM051500 20008KT P6SM OVC007
                       FM052200 21015G25KT P6SM -RA OVC015 FM060300
                       20017G26KT 5SM -RA BR OVC007=
202401050416 KPWT 050416Z 0504/0524 21005KT 3SM BR BKN003 OVC025
                      TEMPO 0504/0508 1/2SM -RA FG OVC002 FM050800
                       20010G18KT 4SM -RA BR BKN003 OVC006 FM051500
                       20008KT P6SM OVC015 FM052200 21015G25KT
                       P6SM OVC015=
202401050349 KPWT 050349Z 0504/0524 21005KT 3SM BR BKN003 OVC025 FM050800 20010G18KT
                       4SM -RA BR BKN003 OVC006 FM051500 20008KT
                       P6SM OVC015 FM052200 21015G25KT P6SM OVC015=
202401050000 KPWT 050000Z 0500/0524 VRB04KT P6SM SCT004 OVC025 FM050300 21005KT
                       6SM BR SCT006 OVC025 FM050800 20010G18KT
                       4SM -RA BR BKN003 OVC006 FM051500 20008KT
                       P6SM OVC015 FM052200 21015G25KT P6SM OVC015=
202401042340 KPWT 042340Z 0500/0524 VRB04KT 6SM BR VCSH BKN004 OVC025 FM050300
                       21005KT 6SM BR BKN006 OVC008 FM050800 20010G18KT
                       4SM -RA BR BKN003 OVC006 FM051500 20008KT
                       P6SM OVC015 FM052200 21015G25KT P6SM OVC015=
202401042336 TAF KPWT 042336Z 0500/0524 VRB04KT 6SM BR VCSH OVC006 FM050300
                       21005KT 6SM BR BKN006 OVC008 FM050800 20010G18KT
                       4SM -RA BR BKN003 OVC006 FM051500 20008KT
                       P6SM OVC015 FM052200 21015G25KT P6SM OVC015=
202401042103 KPWT 042103Z 0421/0518 20010KT 2SM -RA BR OVC004 FM050000 21010KT
                       P6SM VCSH BKN014 OVC022 FM050300 19007KT
                       P6SM BKN008 OVC015 FM051300 20006KT P6SM
                       -RA OVC015=
202401041728 TAF KPWT 041728Z 0418/0518 20010KT 4SM -RA BR OVC004 FM042200 21010KT
                       P6SM VCSH BKN014 OVC022 FM050300 19007KT
                       P6SM BKN008 OVC015 FM051300 20006KT P6SM
                       -RA OVC015=
202401041134 TAF KPWT 041134Z 0412/0512 20009KT P6SM -RA BKN005 BKN025 OVC040
                       FM041600 20008KT 6SM -RA BR BKN008 OVC015
                       FM042200 21010KT P6SM VCSH BKN014 OVC022
                       FM050300 19007KT P6SM BKN008 OVC015=
202401040617 KPWT 040617Z 0406/0506 19010KT P6SM BKN004 OVC009 FM041600 20005KT
                       5SM BR BKN008 OVC012 FM042300 20008KT P6SM
                       OVC025=
202401040523 TAF KPWT 040523Z 0406/0506 20010KT P6SM OVC010 FM040700 21007KT
                       P6SM -RA SCT015 OVC030 FM041600 20005KT
                       5SM BR BKN008 OVC012 FM042300 20008KT P6SM
                       OVC025=
202401032332 TAF KPWT 032332Z 0400/0424 20008KT P6SM -RA OVC003 FM040100 20008KT
                       P6SM BKN015 OVC025 FM040700 21007KT P6SM
                       -RA SCT015 OVC030 FM041600 20005KT 5SM BR
                       BKN008 OVC012 FM042300 20008KT P6SM OVC025=
202401032230 KPWT 032230Z 0323/0418 20008KT 6SM -RA BR BKN005 OVC010 FM040100
                       18008KT 5SM BR BKN015 OVC025 FM040700 21007KT
                       P6SM -RA SCT015 OVC030 FM041600 20005KT
                       5SM BR SCT007 OVC015=
202401032122 KPWT 032122Z 0321/0418 20008KT 6SM -RA BR BKN005 OVC010
                      TEMPO 0321/0323 2SM BR FM040100 18008KT 5SM
                       BR BKN015 OVC025 FM040700 21007KT P6SM -RA
                       SCT015 OVC030 FM041600 20005KT 5SM BR SCT007
                       OVC015=
202401032113 KPWT 032113Z 0321/0418 20008KT 6SM -RA BR BKN005 OVC010 FM040100
                       18008KT 5SM BR BKN015 OVC025 FM040700 21007KT
                       P6SM -RA SCT015 OVC030 FM041600 20005KT
                       5SM BR SCT007 OVC015=
202401032059 KPWT 032059Z 0321/0418 20008KT P6SM -RA BKN010 OVC015 FM040100
                       18008KT 5SM BR BKN015 OVC025 FM040700 21007KT
                       P6SM -RA SCT015 OVC030 FM041600 20005KT
                       5SM BR SCT007 OVC015=
202401031948 KPWT 031948Z 0320/0418 20006KT 6SM -RA BKN025 OVC035 FM040100 18008KT
                       5SM BR BKN015 OVC025 FM040700 21007KT P6SM
                       -RA SCT015 OVC030 FM041600 20005KT 5SM BR
                       SCT007 OVC015=
202401031738 TAF KPWT 031738Z 0318/0418 20006KT P6SM -SHRA OVC040 FM040100 18008KT
                       5SM BR BKN015 OVC025 FM040700 21007KT P6SM
                       -RA SCT015 OVC030 FM041600 20005KT 5SM BR
                       SCT007 OVC015=
202401031140 TAF KPWT 031140Z 0312/0412 VRB03KT 3SM BR BKN040 OVC080 FM031600
                       16004KT P6SM BKN060 OVC090 FM031900 16004KT
                       4SM -RA OVC035 FM040100 18008KT P6SM BKN015
                       OVC025=
202401030532 TAF KPWT 030532Z 0306/0406 VRB04KT 3SM -RA SCT020 OVC035 FM030700
                       11006KT 5SM BR SCT020 OVC030 FM031600 18003KT
                       4SM BR OVC020 FM032100 21007KT P6SM OVC015=
202401022336 TAF KPWT 022336Z 0300/0324 VRB04KT 5SM -RA SCT020 OVC035 FM030300
                       11006KT 5SM BR SCT020 OVC030 FM031600 18003KT
                       4SM BR OVC020 FM032100 21007KT P6SM OVC015=
202401021902 KPWT 021902Z 0219/0318 22005KT 3SM -RA BKN030 BKN035 OVC050 FM022000
                       04006KT 5SM -RA OVC045 FM030300 11006KT
                       5SM BR OVC030 FM030800 14003KT 4SM BR OVC012=
202401021842 KPWT 021842Z 0219/0318 22005KT 5SM -RA BKN029 BKN035 OVC050 FM022000
                       04006KT 5SM -RA OVC045 FM030300 11006KT
                       5SM BR OVC030 FM030800 14003KT 4SM BR OVC012=
202401021729 TAF KPWT 021729Z 0218/0318 22005KT P6SM -RA FEW030 BKN040 OVC050
                       FM022000 04006KT 5SM -RA OVC045 FM030300
                       11006KT 5SM BR OVC030 FM030800 14003KT 4SM
                       BR OVC012=
202401021135 TAF KPWT 021135Z 0212/0312 00000KT P6SM BKN150
                      TEMPO 0212/0216 5SM BR FM021800 04006KT 5SM
                       -RA OVC045 FM030300 11006KT 5SM BR OVC030
                       FM030800 14003KT 2SM BR OVC004=
202401020928 KPWT 020928Z 0209/0306 00000KT P6SM OVC100
                      TEMPO 0210/0214 5SM BR FM021800 04003KT 5SM
                       -RA OVC045 FM030000 00000KT 5SM BR OVC030=
202401020529 TAF KPWT 020529Z 0206/0306 00000KT 1/4SM FG VV001 FM021600 VRB02KT
                       1/2SM FG OVC002 FM022000 04003KT 1/4SM -RA
                       FG OVC015 FM030300 00000KT 1/4SM FG OVC015=
202401020426 KPWT 020426Z 0204/0224 00000KT 1/4SM FG OVC001 FM021600 VRB02KT
                       1/2SM FG OVC002 FM022000 04003KT P6SM -SHRA
                       OVC015=
202401012358 KPWT 012358Z 0200/0224 00000KT P6SM OVC003
                      TEMPO 0200/0202 1/4SM FG FM020600 VRB02KT
                       5SM BR OVC003 FM021600 VRB02KT P6SM -SHRA
                       FEW003 OVC040 FM022000 04003KT P6SM -SHRA
                       OVC015=
202401012346 KPWT 012346Z 0200/0224 00000KT P6SM OVC003
                      TEMPO 0200/0201 1SM BR FM020600 VRB02KT 5SM
                       BR OVC003 FM021600 VRB02KT P6SM -SHRA FEW003
                       OVC040 FM022000 04003KT P6SM -SHRA OVC015=
202401012329 TAF KPWT 012329Z 0200/0224 00000KT P6SM OVC003 FM020600 VRB02KT
                       5SM BR OVC003 FM021600 VRB02KT P6SM -SHRA
                       FEW003 OVC040 FM022000 04003KT P6SM -SHRA
                       OVC015=
202401012040 KPWT 012040Z 0121/0218 00000KT P6SM OVC003 FM020000 21002KT P6SM
                       BKN250 FM020400 VRB03KT 1SM BR OVC003=
202401011959 KPWT 011959Z 0120/0218 00000KT P6SM FEW001 OVC050
                      TEMPO 0120/0121 OVC003 FM012100 21002KT P6SM
                       BKN250 FM020400 VRB03KT 1SM BR OVC003=
202401011904 KPWT 011904Z 0119/0218 21003KT P6SM FEW001 OVC050
                      TEMPO 0119/0121 BKN001 FM012100 21002KT P6SM
                       BKN250 FM020400 VRB03KT 1SM BR OVC003=
202401011810 KPWT 011810Z 0118/0218 21003KT P6SM FEW001 OVC050
                      TEMPO 0118/0120 BKN001 FM012100 21002KT P6SM
                       BKN250 FM020400 VRB03KT 1SM BR OVC003=
202401011729 TAF KPWT 011729Z 0118/0218 21003KT P6SM FEW001 OVC050 FM012100
                       21002KT P6SM BKN250 FM020400 VRB03KT 1SM
                       BR OVC003=
202401011628 KPWT 011628Z 0116/0212 00000KT 1/4SM FG VV002 FM012000 02003KT
                       2SM BR BKN010 FM012200 16003KT P6SM FEW250
                       FM020400 VRB03KT 1SM BR OVC003=
202401011559 KPWT 011559Z 0116/0212 00000KT 1/4SM FG FEW001 SCT050 FM012000
                       02003KT 2SM BR BKN010 FM012200 16003KT P6SM
                       FEW250 FM020400 VRB03KT 1SM BR OVC003=
202401011143 TAF KPWT 011143Z 0112/0212 00000KT 1/4SM FG VV002 FM012000 02003KT
                       2SM BR BKN010 FM012200 16003KT P6SM FEW250
                       FM020400 VRB03KT 1SM BR OVC003=
202401011050 KPWT 011050Z 0111/0206 00000KT 1/4SM FG VV002 FM011800 02003KT
                       2SM BR BKN004 FM012300 16003KT P6SM FEW250=
202401010520 TAF KPWT 010520Z 0106/0206 00000KT 1/2SM FG BKN002 FM010900 00000KT
                       1/2SM FG OVC001 FM011800 02003KT 2SM BR
                       BKN004 FM012300 16003KT P6SM FEW250=
202401010208 KPWT 010208Z 0102/0124 00000KT 1/4SM FG OVC001 FM010300 00000KT
                       4SM BR OVC004 FM010900 03002KT 1/2SM FG
                       OVC001 FM011800 02003KT 2SM BR BKN004 FM012100
                       16003KT P6SM FEW250=
202401010003 KPWT 010003Z 0100/0124 00000KT P6SM SCT005 BKN200
                      TEMPO 0100/0103 BKN005 FM010300 00000KT 4SM
                       BR OVC004 FM010900 03002KT 1/2SM FG OVC001
                       FM011800 02003KT 2SM BR BKN004 FM012100
                       16003KT P6SM FEW250=