##########################################################
# Query made at 02/16/2025 01:33:29 UTC
# Time interval: from 08/01/2024 00:00  to 08/31/2024 23:59  UTC
##########################################################

##########################################################
# KPWT, Bremerton National Automatic Weather Observing / Reporting System (United States)
# WMO index: -----. WIGOS ID: Unknown
# Latitude 47-30N. Longitude 122-45W. Altitude 147 m.
##########################################################

###################################
#  METAR/SPECI from KPWT
###################################
202408312356 METAR KPWT 312356Z AUTO 07008KT 10SM CLR 29/14 A2996 RMK AO2 SLP147 6//// T02890144 10294 20239 58017=
202408312256 METAR KPWT 312256Z AUTO 06009KT 10SM CLR 29/14 A2998 RMK AO2 SLP150 T02890144=
202408312156 METAR KPWT 312156Z AUTO 06008KT 10SM CLR 28/15 A2999 RMK AO2 SLP157 T02830150=
202408312056 METAR KPWT 312056Z AUTO 07009KT 8SM CLR 28/14 A3001 RMK AO2 SLP164 6//// T02830144 58013=
202408311956 METAR KPWT 311956Z AUTO 03008KT 10SM CLR 27/15 A3002 RMK AO2 SLP168 T02720150=
202408311856 METAR KPWT 311856Z AUTO 05009KT 10SM CLR 26/15 A3004 RMK AO2 SLP173 T02560150=
202408311756 METAR KPWT 311756Z AUTO 05011KT 10SM CLR 24/14 A3005 RMK AO2 SLP175 6//// T02390144 10239 20106 58004=
202408311656 METAR KPWT 311656Z AUTO 05007KT 10SM CLR 22/14 A3006 RMK AO2 SLP181 T02170139=
202408311556 METAR KPWT 311556Z AUTO 05009G15KT 10SM CLR 19/13 A3006 RMK AO2 SLP179 T01940133=
202408311456 METAR KPWT 311456Z AUTO 05009KT 10SM CLR 18/14 A3006 RMK AO2 SLP179 T01780139 50000=
202408311356 METAR KPWT 311356Z AUTO 00000KT 10SM CLR 12/12 A3006 RMK AO2 SLP182 T01220117=
202408311256 METAR KPWT 311256Z AUTO 00000KT 10SM CLR 12/11 A3006 RMK AO2 SLP179 T01170111=
202408311156 METAR KPWT 311156Z AUTO 00000KT 10SM CLR 14/11 A3006 RMK AO2 SLP180 7//// T01390111 10194 20122 55001=
202408311056 METAR KPWT 311056Z AUTO 07006KT 10SM CLR 19/12 A3006 RMK AO2 SLP178 T01940117=
202408310956 METAR KPWT 310956Z AUTO 04003KT 10SM CLR 18/12 A3006 RMK AO2 SLP180 T01780122=
202408310856 METAR KPWT 310856Z AUTO 36003KT 10SM CLR 14/12 A3006 RMK AO2 SLP180 T01390117 58003=
202408310756 METAR KPWT 310756Z AUTO 00000KT 10SM CLR 14/12 A3006 RMK AO2 SLP181 T01440122 402890094=
202408310656 METAR KPWT 310656Z AUTO 00000KT 10SM CLR 13/12 A3007 RMK AO2 SLP183 T01330122=
202408310556 METAR KPWT 310556Z AUTO 00000KT 10SM CLR 16/13 A3007 RMK AO2 SLP184 T01610128 10283 20161 50004=
202408310456 METAR KPWT 310456Z AUTO 06005KT 10SM CLR 20/13 A3007 RMK AO2 SLP183 T02000133=
202408310356 METAR KPWT 310356Z AUTO 05006KT 10SM CLR 21/13 A3007 RMK AO2 SLP181 T02110133=
202408310256 METAR KPWT 310256Z AUTO 06005KT 10SM CLR 22/14 A3006 RMK AO2 SLP180 T02220139 55000=
202408310156 METAR KPWT 310156Z AUTO 07006KT 10SM CLR 26/12 A3005 RMK AO2 SLP178 T02560117=
202408310056 METAR KPWT 310056Z AUTO 07009KT 10SM CLR 28/14 A3005 RMK AO2 SLP178 T02780139=
202408302356 METAR KPWT 302356Z AUTO 05008KT 10SM CLR 28/14 A3006 RMK AO2 SLP179 6//// T02830139 10289 20228 56012=
202408302256 METAR KPWT 302256Z AUTO 06008KT 10SM CLR 28/14 A3007 RMK AO2 SLP184 T02830139=
202408302156 METAR KPWT 302156Z AUTO 07008KT 10SM CLR 28/15 A3008 RMK AO2 SLP188 T02780150=
202408302056 METAR KPWT 302056Z AUTO 05006KT 10SM CLR 27/14 A3010 RMK AO2 SLP193 6//// T02670139 58009=
202408301956 METAR KPWT 301956Z AUTO 05008KT 7SM CLR 25/14 A3011 RMK AO2 SLP195 T02500144=
202408301856 METAR KPWT 301856Z AUTO 05008KT 9SM CLR 24/14 A3011 RMK AO2 SLP198 T02390144=
202408301756 METAR KPWT 301756Z AUTO 06007KT 030V090 10SM CLR 23/14 A3012 RMK AO2 SLP200 T02280139 10228 20111 51003=
202408301656 METAR KPWT 301656Z AUTO 05009G15KT 10SM CLR 21/14 A3012 RMK AO2 SLP200 T02060139=
202408301556 METAR KPWT 301556Z AUTO 04006KT 10SM CLR 19/13 A3012 RMK AO2 SLP200 T01890133=
202408301456 METAR KPWT 301456Z AUTO 23003KT 10SM CLR 14/13 A3011 RMK AO2 SLP200 T01440133 53012=
202408301356 METAR KPWT 301356Z AUTO 00000KT 10SM CLR 13/11 A3010 RMK AO2 SLP194 T01280106=
202408301256 METAR KPWT 301256Z AUTO 06004KT 10SM CLR 16/12 A3008 RMK AO2 SLP186 T01560117=
202408301156 METAR KPWT 301156Z AUTO 00000KT 10SM CLR 12/11 A3008 RMK AO2 SLP187 7//// T01170106 10183 20094 56001=
202408301056 METAR KPWT 301056Z AUTO 00000KT 10SM CLR 11/10 A3008 RMK AO2 SLP187 T01060100=
202408300956 METAR KPWT 300956Z AUTO 00000KT 10SM CLR 11/11 A3008 RMK AO2 SLP186 T01110106=
202408300856 METAR KPWT 300856Z AUTO 23003KT 10SM CLR 12/10 A3008 RMK AO2 SLP187 T01170100 53001=
202408300756 METAR KPWT 300756Z AUTO 04003KT 10SM CLR 16/11 A3008 RMK AO2 SLP186 T01560106 402610111=
202408300656 METAR KPWT 300656Z AUTO 06008KT 10SM CLR 18/11 A3008 RMK AO2 SLP185 T01780106=
202408300556 METAR KPWT 300556Z AUTO 06009KT 10SM CLR 18/11 A3008 RMK AO2 SLP187 T01830111 10256 20183 51004=
202408300456 METAR KPWT 300456Z AUTO 05010G14KT 10SM CLR 19/11 A3008 RMK AO2 SLP186 T01890111=
202408300356 METAR KPWT 300356Z AUTO 05006KT 10SM CLR 18/12 A3008 RMK AO2 SLP187 T01830117=
202408300256 METAR KPWT 300256Z AUTO 05005KT 10SM CLR 19/12 A3006 RMK AO2 SLP183 T01940122 55006=
202408300156 METAR KPWT 300156Z AUTO 06009KT 10SM CLR 23/13 A3006 RMK AO2 SLP183 T02280128=
202408300056 METAR KPWT 300056Z AUTO 04010KT 10SM CLR 24/12 A3007 RMK AO2 SLP185 T02440122=
202408292356 METAR KPWT 292356Z AUTO 05009KT 10SM CLR 26/13 A3008 RMK AO2 SLP188 6//// T02560128 10261 20200 56016=
202408292256 METAR KPWT 292256Z AUTO 05008KT 10SM CLR 26/13 A3009 RMK AO2 SLP190 T02610128=
202408292156 METAR KPWT 292156Z AUTO 05010KT 10SM CLR 25/13 A3011 RMK AO2 SLP197 T02500128=
202408292056 METAR KPWT 292056Z AUTO 05007KT 010V090 10SM CLR 24/13 A3013 RMK AO2 SLP205 6//// T02440128 56013=
202408291956 METAR KPWT 291956Z AUTO 06011KT 10SM CLR 24/13 A3014 RMK AO2 SLP208 T02390128=
202408291856 METAR KPWT 291856Z AUTO 06010KT 10SM CLR 22/12 A3015 RMK AO2 SLP213 T02170122=
202408291756 METAR KPWT 291756Z AUTO 05010KT 10SM CLR 20/12 A3017 RMK AO2 SLP218 T02000122 10200 20122 58006=
202408291656 METAR KPWT 291656Z AUTO 05010KT 10SM CLR 18/12 A3018 RMK AO2 SLP224 T01780117=
202408291556 METAR KPWT 291556Z AUTO 05010KT 10SM CLR 16/11 A3019 RMK AO2 SLP225 T01560111=
202408291456 METAR KPWT 291456Z AUTO 05009KT 10SM CLR 14/10 A3019 RMK AO2 SLP224 T01390100 53005=
202408291356 METAR KPWT 291356Z AUTO 04008KT 10SM CLR 13/09 A3018 RMK AO2 SLP224 T01280094=
202408291256 METAR KPWT 291256Z AUTO 05009KT 10SM CLR 13/09 A3017 RMK AO2 SLP219 T01280094=
202408291156 METAR KPWT 291156Z AUTO 05007KT 10SM CLR 12/09 A3017 RMK AO2 SLP219 7//// T01220094 10139 20111 58005=
202408291056 METAR KPWT 291056Z AUTO 04006KT 10SM CLR 13/09 A3018 RMK AO2 SLP223 T01280089=
202408290956 METAR KPWT 290956Z AUTO 04007KT 10SM CLR 13/09 A3018 RMK AO2 SLP221 T01280089=
202408290856 METAR KPWT 290856Z AUTO 06005KT 10SM CLR 11/09 A3019 RMK AO2 SLP225 T01110089 58005=
202408290756 METAR KPWT 290756Z AUTO 05005KT 10SM CLR 13/09 A3020 RMK AO2 SLP229 T01280089 402110061=
202408290656 METAR KPWT 290656Z AUTO 05007KT 10SM CLR 14/08 A3020 RMK AO2 SLP231 T01390083=
202408290556 METAR KPWT 290556Z AUTO 05005KT 10SM CLR 13/08 A3020 RMK AO2 SLP230 6//// T01330083 10206 20128 50002=
202408290456 METAR KPWT 290456Z AUTO 05004KT 10SM CLR 14/09 A3021 RMK AO2 SLP232 T01390089=
202408290356 METAR KPWT 290356Z AUTO 05006KT 10SM CLR 14/08 A3020 RMK AO2 SLP229 T01440083=
202408290256 METAR KPWT 290256Z AUTO 03008KT 10SM CLR 16/08 A3020 RMK AO2 SLP229 6//// T01610078 56007=
202408290156 METAR KPWT 290156Z AUTO 03006KT 10SM CLR 18/08 A3020 RMK AO2 SLP230 T01830083=
202408290056 METAR KPWT 290056Z AUTO 03009KT 10SM CLR 20/09 A3021 RMK AO2 SLP233 T02000089=
202408282356 METAR KPWT 282356Z AUTO 05007KT 10SM CLR 21/09 A3022 RMK AO2 SLP236 6//// T02060089 10211 20167 56014=
202408282256 METAR KPWT 282256Z AUTO 05011KT 10SM CLR 21/07 A3023 RMK AO2 SLP240 T02060072=
202408282156 METAR KPWT 282156Z AUTO 05010G15KT 10SM CLR 21/09 A3024 RMK AO2 SLP244 T02060094=
202408282056 METAR KPWT 282056Z AUTO 03007KT 10SM CLR 19/09 A3026 RMK AO2 SLP249 T01940094 56015=
202408281956 METAR KPWT 281956Z AUTO 05009KT 10SM CLR 19/09 A3027 RMK AO2 SLP253 T01890094=
202408281856 METAR KPWT 281856Z AUTO 05009KT 10SM CLR 18/10 A3029 RMK AO2 SLP260 T01780100=
202408281756 METAR KPWT 281756Z AUTO 05010KT 10SM CLR 16/11 A3030 RMK AO2 SLP265 T01610106 10167 20061 58001=
202408281656 METAR KPWT 281656Z AUTO 05009KT 10SM CLR 16/09 A3030 RMK AO2 SLP264 T01560094=
202408281556 METAR KPWT 281556Z AUTO 04003KT 10SM CLR 14/09 A3031 RMK AO2 SLP266 T01390094=
202408281456 METAR KPWT 281456Z AUTO 00000KT 10SM CLR 11/10 A3030 RMK AO2 SLP266 T01060100 53002=
202408281356 METAR KPWT 281356Z AUTO 00000KT 10SM CLR 07/07 A3030 RMK AO2 SLP265 T00720072=
202408281256 METAR KPWT 281256Z AUTO 00000KT 10SM CLR 07/07 A3030 RMK AO2 SLP263 T00670067=
202408281156 METAR KPWT 281156Z AUTO 00000KT 10SM CLR 06/06 A3030 RMK AO2 SLP264 7//// T00610061 10111 20061 55001=
202408281056 METAR KPWT 281056Z AUTO 00000KT 10SM CLR 07/07 A3030 RMK AO2 SLP264 T00720072=
202408280956 METAR KPWT 280956Z AUTO 00000KT 10SM CLR 08/08 A3030 RMK AO2 SLP264 T00780078=
202408280856 METAR KPWT 280856Z AUTO 00000KT 10SM CLR 08/08 A3030 RMK AO2 SLP265 T00830083 51009=
202408280756 METAR KPWT 280756Z AUTO 00000KT 10SM CLR 09/09 A3030 RMK AO2 SLP265 T00940094 402110089=
202408280656 METAR KPWT 280656Z AUTO 00000KT 10SM BKN044 10/09 A3029 RMK AO2 SLP261 T01000094=
202408280556 METAR KPWT 280556Z AUTO 00000KT 10SM CLR 11/09 A3027 RMK AO2 SLP256 6//// T01060094 10189 20100 51010=
202408280456 METAR KPWT 280456Z AUTO 00000KT 10SM SCT055 SCT070 13/10 A3026 RMK AO2 SLP250 T01280100=
202408280356 METAR KPWT 280356Z AUTO 00000KT 10SM FEW060 13/09 A3026 RMK AO2 SLP251 T01330094=
202408280256 METAR KPWT 280256Z AUTO 07004KT 10SM CLR 15/09 A3024 RMK AO2 SLP244 6//// T01500094 53012=
202408280156 METAR KPWT 280156Z AUTO 05009KT 10SM CLR 17/09 A3023 RMK AO2 SLP239 T01720089=
202408280056 METAR KPWT 280056Z AUTO 03009KT 10SM CLR 18/08 A3022 RMK AO2 SLP236 T01830083=
202408272356 METAR KPWT 272356Z AUTO 04012G16KT 10SM CLR 19/09 A3021 RMK AO2 SLP233 T01890089 10211 20150 53005=
202408272256 METAR KPWT 272256Z AUTO 05012KT 10SM CLR 18/10 A3020 RMK AO2 SLP229 T01780100=
202408272156 METAR KPWT 272156Z AUTO 05009KT 10SM BKN060 BKN075 20/09 A3019 RMK AO2 SLP226 T02000089=
202408272056 METAR KPWT 272056Z AUTO 00000KT 10SM FEW040 SCT049 18/09 A3019 RMK AO2 SLP226 T01830089 58008=
202408271956 METAR KPWT 271956Z AUTO VRB05KT 10SM FEW031 17/11 A3021 RMK AO2 SLP233 T01670111=
202408271909 SPECI KPWT 271909Z AUTO VRB03KT 10SM SCT027 BKN042 17/11 A3021 RMK AO2=
202408271856 METAR KPWT 271856Z AUTO 16004KT 10SM BKN027 BKN042 16/11 A3021 RMK AO2 SLP235 T01610106=
202408271846 SPECI KPWT 271846Z AUTO 10003KT 10SM SCT023 SCT030 BKN042 16/11 A3021 RMK AO2=
202408271828 SPECI KPWT 271828Z AUTO 09005KT 10SM BKN023 16/11 A3022 RMK AO2=
202408271756 METAR KPWT 271756Z AUTO 08004KT 10SM SCT040 15/11 A3022 RMK AO2 SLP236 60002 T01500111 10156 20117 53013=
202408271656 METAR KPWT 271656Z AUTO 15005KT 10SM FEW016 14/11 A3020 RMK AO2 SLP232 T01440106=
202408271556 METAR KPWT 271556Z AUTO 05006KT 10SM FEW035 13/12 A3019 RMK AO2 SLP225 T01330122=
202408271456 METAR KPWT 271456Z AUTO 00000KT 10SM SCT024 BKN030 BKN037 12/12 A3018 RMK AO2 SLP222 60002 T01220117 53017=
202408271356 METAR KPWT 271356Z AUTO 08004KT 10SM OVC020 12/12 A3015 RMK AO2 RAE08 SLP214 P0000 T01170117=
202408271331 SPECI KPWT 271331Z AUTO 05006KT 10SM SCT006 OVC016 12/12 A3015 RMK AO2 RAE08 P0000=
202408271324 SPECI KPWT 271324Z AUTO 07006KT 7SM BKN004 OVC014 12/12 A3015 RMK AO2 RAE08 CIG 004V009 P0000=
202408271256 METAR KPWT 271256Z AUTO 08005KT 9SM -RA OVC003 12/12 A3014 RMK AO2 RAB18 SLP209 P0002 T01220122=
202408271235 SPECI KPWT 271235Z AUTO 06009KT 030V100 5SM -RA BR OVC003 13/13 A3013 RMK AO2 RAB18 P0001=
202408271156 METAR KPWT 271156Z AUTO 06007KT 8SM OVC005 13/13 A3013 RMK AO2 RAE50 SLP204 P0002 60004 70004 T01280128 10156 20128 53011=
202408271144 SPECI KPWT 271144Z AUTO 05006KT 8SM -RA OVC005 13/13 A3012 RMK AO2 CIG 003V009 P0002=
202408271114 SPECI KPWT 271114Z AUTO 05007KT 7SM -RA OVC003 13/13 A3012 RMK AO2 P0002=
202408271056 METAR KPWT 271056Z AUTO 05007KT 4SM -RA BR OVC005 13/13 A3011 RMK AO2 RAB12 CIG 003V008 SLP200 P0001 T01330133=
202408271014 SPECI KPWT 271014Z AUTO 06009KT 10SM -RA OVC005 14/14 A3010 RMK AO2 RAB12 CIG 004V009 P0000=
202408270956 METAR KPWT 270956Z AUTO VRB03KT 10SM OVC007 15/15 A3010 RMK AO2 SLP196 T01500150=
202408270856 METAR KPWT 270856Z AUTO 23006KT 10SM OVC007 16/16 A3009 RMK AO2 CIG 006V011 SLP193 60001 T01560156 53001=
202408270756 METAR KPWT 270756Z AUTO 24007KT 10SM OVC007 15/15 A3009 RMK AO2 CIG 005V010 SLP192 T01500150 402110089=
202408270720 SPECI KPWT 270720Z AUTO 20009G14KT 10SM BKN007 15/15 A3008 RMK AO2 CIG 006V013=
202408270713 SPECI KPWT 270713Z AUTO 20010KT 10SM BKN011 15/15 A3008 RMK AO2 CIG 007V013=
202408270656 METAR KPWT 270656Z AUTO 19012G17KT 10SM FEW011 15/15 A3007 RMK AO2 RAB01E51 SLP186 P0001 T01500150=
202408270556 METAR KPWT 270556Z AUTO 21010KT 10SM OVC049 16/14 A3009 RMK AO2 RAB03E54 SLP192 P0000 60000 T01560144 10211 20150 53002=
202408270456 METAR KPWT 270456Z AUTO 21009KT 10SM SCT036 BKN045 BKN075 17/14 A3009 RMK AO2 RAE26 SLP191 P0000 T01670144=
202408270356 METAR KPWT 270356Z AUTO 20009KT 10SM -RA OVC110 18/14 A3008 RMK AO2 RAB27 SLP189 P0000 T01780139=
202408270256 METAR KPWT 270256Z AUTO 20011KT 10SM SCT110 18/13 A3009 RMK AO2 SLP192 T01830128 56012=
202408270156 METAR KPWT 270156Z AUTO 20007KT 10SM FEW110 20/13 A3009 RMK AO2 SLP191 T02000128=
202408270056 METAR KPWT 270056Z AUTO 20008KT 10SM CLR 21/13 A3011 RMK AO2 SLP199 T02060133=
202408262356 METAR KPWT 262356Z AUTO 22011KT 10SM CLR 21/13 A3012 RMK AO2 RAE06 SLP204 P0000 60000 T02060133 10211 20178 58012=
202408262256 METAR KPWT 262256Z AUTO 19006KT 10SM -RA CLR 20/16 A3014 RMK AO2 RAB42 SLP210 P0000 T02000156=
202408262156 METAR KPWT 262156Z AUTO 23004KT 10SM CLR 19/16 A3015 RMK AO2 RAB18E56 SLP211 P0000 T01890161=
202408262056 METAR KPWT 262056Z AUTO 24004KT 10SM CLR 19/16 A3016 RMK AO2 RAB02E20B37E54 SLP215 P0000 60000 T01890156 55010=
202408261956 METAR KPWT 261956Z AUTO 19004KT 10SM CLR 19/14 A3016 RMK AO2 SLP216 T01890144=
202408261856 METAR KPWT 261856Z AUTO 23006KT 10SM CLR 19/14 A3017 RMK AO2 SLP221 T01940144=
202408261756 METAR KPWT 261756Z AUTO 00000KT 10SM CLR 18/15 A3019 RMK AO2 SLP225 T01780150 10183 20089 58004=
202408261656 METAR KPWT 261656Z AUTO 00000KT 10SM CLR 17/13 A3020 RMK AO2 SLP228 T01720133=
202408261556 METAR KPWT 261556Z AUTO 00000KT 10SM CLR 16/14 A3020 RMK AO2 SLP230 T01610139=
202408261456 METAR KPWT 261456Z AUTO 00000KT 10SM CLR 13/13 A3020 RMK AO2 SLP230 T01280128 55003=
202408261417 SPECI KPWT 261417Z AUTO 20003KT 3SM BR CLR 09/09 A3020 RMK AO2=
202408261415 SPECI KPWT 261415Z AUTO 20003KT 1SM BR CLR 09/09 A3020 RMK AO2=
202408261401 SPECI KPWT 261401Z AUTO 00000KT 1/2SM FG CLR 09/09 A3020 RMK AO2 VIS 1/4V5=
202408261358 SPECI KPWT 261358Z AUTO 00000KT 1SM BR CLR 09/09 A3020 RMK AO2 VIS 1/4V5=
202408261356 METAR KPWT 261356Z AUTO 00000KT 2 1/2SM BR CLR 09/09 A3020 RMK AO2 VIS 1V5 SLP229 T00940094=
202408261348 SPECI KPWT 261348Z AUTO 00000KT 2SM BR CLR 09/09 A3020 RMK AO2 VIS 1/2V5=
202408261256 METAR KPWT 261256Z AUTO 00000KT 10SM CLR 09/09 A3020 RMK AO2 SLP231 T00940094=
202408261156 METAR KPWT 261156Z AUTO 00000KT 10SM CLR 11/11 A3021 RMK AO2 SLP234 7//// T01060106 10156 20094 58003=
202408261056 METAR KPWT 261056Z AUTO 00000KT 10SM CLR 11/11 A3021 RMK AO2 SLP234 T01060106=
202408261031 SPECI KPWT 261031Z AUTO 00000KT 3SM BR CLR 11/11 A3021 RMK AO2=
202408261025 SPECI KPWT 261025Z AUTO 00000KT 1 3/4SM BR CLR 11/11 A3021 RMK AO2 VIS 3/4V5=
202408260956 METAR KPWT 260956Z AUTO 00000KT 3SM BR CLR 11/11 A3021 RMK AO2 SLP235 T01060106=
202408260856 METAR KPWT 260856Z AUTO 00000KT 10SM CLR 11/11 A3022 RMK AO2 SLP236 T01110111 56006=
202408260756 METAR KPWT 260756Z AUTO 00000KT 10SM CLR 12/12 A3022 RMK AO2 SLP238 T01220122 402280122=
202408260656 METAR KPWT 260656Z AUTO 05003KT 10SM CLR 14/13 A3023 RMK AO2 SLP239 T01440133=
202408260556 METAR KPWT 260556Z AUTO 06005KT 10SM CLR 16/13 A3024 RMK AO2 SLP242 6//// T01560133 10228 20144 58000=
202408260456 METAR KPWT 260456Z AUTO 02003KT 10SM CLR 16/13 A3024 RMK AO2 SLP243 T01560133=
202408260356 METAR KPWT 260356Z AUTO 04003KT 10SM CLR 17/13 A3024 RMK AO2 SLP243 T01670133=
202408260256 METAR KPWT 260256Z AUTO 00000KT 10SM CLR 18/13 A3024 RMK AO2 SLP243 6//// T01830133 55003=
202408260156 METAR KPWT 260156Z AUTO 35006KT 10SM CLR 22/12 A3023 RMK AO2 SLP240 T02220122=
202408260056 METAR KPWT 260056Z AUTO 31003KT 10SM CLR 22/12 A3024 RMK AO2 SLP242 T02170117=
202408252356 METAR KPWT 252356Z AUTO VRB03KT 10SM CLR 22/12 A3024 RMK AO2 SLP244 6//// T02170122 10228 20167 58008=
202408252256 METAR KPWT 252256Z AUTO VRB03KT 10SM CLR 22/12 A3026 RMK AO2 SLP247 T02220122=
202408252156 METAR KPWT 252156Z AUTO 11005KT 10SM FEW039 21/12 A3026 RMK AO2 SLP250 T02110122=
202408252056 METAR KPWT 252056Z AUTO 20008KT 160V220 10SM SCT034 21/13 A3027 RMK AO2 SLP253 T02060128 58007=
202408252009 SPECI KPWT 252009Z AUTO 00000KT 10SM BKN030 19/13 A3028 RMK AO2=
202408251956 METAR KPWT 251956Z AUTO VRB04KT 10SM BKN028 19/13 A3028 RMK AO2 SLP257 T01890133=
202408251856 METAR KPWT 251856Z AUTO 00000KT 10SM SCT018 OVC032 18/14 A3029 RMK AO2 SLP261 T01780139=
202408251834 SPECI KPWT 251834Z AUTO VRB03KT 10SM BKN015 OVC031 18/14 A3029 RMK AO2=
202408251821 SPECI KPWT 251821Z AUTO 08003KT 10SM BKN013 BKN029 17/14 A3029 RMK AO2=
202408251756 METAR KPWT 251756Z AUTO 00000KT 10SM FEW007 SCT019 OVC027 17/14 A3029 RMK AO2 SLP261 T01670144 10167 20133 51009=
202408251750 SPECI KPWT 251750Z AUTO 00000KT 10SM FEW007 BKN019 OVC027 16/15 A3029 RMK AO2=
202408251747 SPECI KPWT 251747Z AUTO 00000KT 10SM BKN010 BKN019 OVC027 16/14 A3029 RMK AO2 CIG 006V013=
202408251737 SPECI KPWT 251737Z AUTO VRB03KT 10SM BKN006 OVC010 16/15 A3029 RMK AO2 CIG 004V009=
202408251656 METAR KPWT 251656Z AUTO 00000KT 10SM OVC004 15/15 A3029 RMK AO2 SLP259 T01500150=
202408251645 SPECI KPWT 251645Z AUTO 00000KT 10SM OVC004 15/15 A3028 RMK AO2 CIG 003V007=
202408251556 METAR KPWT 251556Z AUTO 22003KT 8SM OVC002 14/14 A3028 RMK AO2 SLP255 T01390139=
202408251541 SPECI KPWT 251541Z AUTO 21003KT 4SM BR OVC002 14/14 A3027 RMK AO2=
202408251523 SPECI KPWT 251523Z AUTO 00000KT 2SM BR OVC002 14/14 A3027 RMK AO2=
202408251456 METAR KPWT 251456Z AUTO 00000KT 4SM BR OVC002 14/14 A3026 RMK AO2 SLP251 T01390139 53009=
202408251417 SPECI KPWT 251417Z AUTO 00000KT 5SM BR BKN002 OVC006 14/14 A3026 RMK AO2=
202408251356 METAR KPWT 251356Z AUTO 00000KT 4SM BR BKN004 OVC007 13/13 A3025 RMK AO2 CIG 002V006 SLP246 T01330133=
202408251329 SPECI KPWT 251329Z AUTO 00000KT 5SM BR OVC002 13/13 A3024 RMK AO2=
202408251256 METAR KPWT 251256Z AUTO 00000KT 10SM OVC004 13/13 A3024 RMK AO2 SLP241 T01330133=
202408251241 SPECI KPWT 251241Z AUTO 00000KT 10SM BKN004 13/13 A3023 RMK AO2=
202408251233 SPECI KPWT 251233Z AUTO 19003KT 10SM SCT004 13/13 A3023 RMK AO2=
202408251156 METAR KPWT 251156Z AUTO 00000KT 10SM FEW004 OVC018 13/13 A3023 RMK AO2 SLP241 70027 T01330133 10144 20133 51009=
202408251118 SPECI KPWT 251118Z AUTO 00000KT 10SM FEW006 OVC018 14/14 A3023 RMK AO2=
202408251056 METAR KPWT 251056Z AUTO 00000KT 10SM OVC018 14/14 A3022 RMK AO2 SLP238 T01390139=
202408251013 SPECI KPWT 251013Z AUTO 22003KT 10SM SCT014 BKN021 14/14 A3022 RMK AO2=
202408250956 METAR KPWT 250956Z AUTO 18003KT 10SM OVC014 14/14 A3021 RMK AO2 SLP234 T01390139=
202408250946 SPECI KPWT 250946Z AUTO 19003KT 10SM SCT008 OVC014 14/14 A3021 RMK AO2=
202408250856 METAR KPWT 250856Z AUTO 00000KT 10SM OVC008 14/14 A3020 RMK AO2 CIG 005V010 SLP231 T01390139 51008=
202408250803 SPECI KPWT 250803Z AUTO 17003KT 10SM BKN010 OVC014 14/14 A3020 RMK AO2 CIG 007V012=
202408250756 METAR KPWT 250756Z AUTO 16004KT 10SM OVC008 14/14 A3020 RMK AO2 CIG 004V013 SLP229 T01390139 401780128=
202408250656 METAR KPWT 250656Z AUTO 21003KT 10SM OVC006 14/14 A3019 RMK AO2 SLP226 T01440144=
202408250556 METAR KPWT 250556Z AUTO 00000KT 10SM OVC006 14/14 A3018 RMK AO2 SLP222 T01440144 10172 20139 51017=
202408250530 SPECI KPWT 250530Z AUTO 00000KT 10SM BKN008 14/14 A3018 RMK AO2 CIG 006V010=
202408250456 METAR KPWT 250456Z AUTO 20005KT 10SM CLR 14/14 A3017 RMK AO2 SLP219 T01440144=
202408250356 METAR KPWT 250356Z AUTO 18009KT 10SM FEW020 15/15 A3015 RMK AO2 SLP214 T01500150=
202408250345 SPECI KPWT 250345Z AUTO 17007KT 10SM FEW020 15/15 A3015 RMK AO2=
202408250311 SPECI KPWT 250311Z AUTO 18007KT 10SM BKN020 BKN040 16/16 A3014 RMK AO2=
202408250256 METAR KPWT 250256Z AUTO 19005KT 10SM FEW020 SCT038 16/16 A3013 RMK AO2 SLP206 T01560156 52017=
202408250156 METAR KPWT 250156Z AUTO 19009KT 10SM FEW021 BKN030 OVC050 16/16 A3011 RMK AO2 SLP199 T01610156=
202408250124 SPECI KPWT 250124Z AUTO 18005KT 10SM SCT014 OVC021 17/16 A3011 RMK AO2=
202408250056 METAR KPWT 250056Z AUTO VRB05KT 10SM BKN012 OVC018 17/16 A3010 RMK AO2 SLP195 T01670161=
202408250016 SPECI KPWT 250016Z AUTO VRB06KT 10SM FEW009 BKN014 OVC029 17/16 A3009 RMK AO2=
202408242356 METAR KPWT 242356Z AUTO 18008KT 10SM FEW009 BKN016 BKN023 17/16 A3008 RMK AO2 SLP189 60001 T01720161 10178 20133 51014=
202408242256 METAR KPWT 242256Z AUTO 17008KT 10SM FEW007 BKN019 17/16 A3007 RMK AO2 SLP185 T01670161=
202408242242 SPECI KPWT 242242Z AUTO 19009KT 10SM SCT007 BKN017 17/16 A3007 RMK AO2=
202408242210 SPECI KPWT 242210Z AUTO 19008KT 10SM SCT007 SCT017 17/16 A3006 RMK AO2=
202408242203 SPECI KPWT 242203Z AUTO 19007KT 10SM BKN007 BKN017 16/16 A3006 RMK AO2 CIG 005V010=
202408242156 METAR KPWT 242156Z AUTO 19008KT 10SM SCT007 BKN017 16/16 A3006 RMK AO2 SLP180 T01610156=
202408242056 METAR KPWT 242056Z AUTO 18007KT 10SM BKN007 OVC011 14/14 A3004 RMK AO2 RAE35 CIG 003V008 SLP174 P0000 60001 T01440144 51021=
202408242033 SPECI KPWT 242033Z AUTO 19008KT 10SM -RA OVC007 14/14 A3003 RMK AO2 CIG 003V011 P0000=
202408241956 METAR KPWT 241956Z AUTO 18009KT 10SM -RA OVC005 14/14 A3002 RMK AO2 CIG 003V008 SLP169 P0001 T01390139=
202408241856 METAR KPWT 241856Z AUTO 19010G15KT 10SM -RA OVC005 14/14 A3000 RMK AO2 RAE19B45 SLP160 P0000 T01390139=
202408241842 SPECI KPWT 241842Z AUTO 19010KT 10SM OVC005 14/14 A2999 RMK AO2 RAE19 CIG 003V007 P0000=
202408241756 METAR KPWT 241756Z AUTO 19013KT 10SM -RA OVC003 13/13 A2998 RMK AO2 SLP154 P0002 60026 T01330133 10133 20128 51021=
202408241656 METAR KPWT 241656Z AUTO 20008G15KT 10SM -RA OVC003 13/13 A2996 RMK AO2 SLP148 P0003 T01280128=
202408241556 METAR KPWT 241556Z AUTO 19010G21KT 10SM -RA BKN005 OVC009 13/13 A2994 RMK AO2 CIG 004V008 SLP142 P0003 T01280128=
202408241543 SPECI KPWT 241543Z AUTO 19009KT 10SM -RA BKN005 BKN009 13/13 A2993 RMK AO2 P0003=
202408241533 SPECI KPWT 241533Z AUTO 20012G16KT 10SM -RA BKN007 BKN011 13/13 A2993 RMK AO2 CIG 004V011 P0002=
202408241528 SPECI KPWT 241528Z AUTO 20010G18KT 10SM -RA SCT009 13/13 A2993 RMK AO2 P0002=
202408241456 METAR KPWT 241456Z AUTO 19013G19KT 10SM -RA BKN009 13/13 A2991 RMK AO2 CIG 005V012 SLP133 P0005 60018 T01280128 53014=
202408241420 SPECI KPWT 241420Z AUTO 20013KT 10SM -RA BKN007 BKN011 13/13 A2990 RMK AO2 CIG 004V009 P0003=
202408241356 METAR KPWT 241356Z AUTO 20012G19KT 9SM -RA OVC005 13/ A2990 RMK AO2 CIG 003V007 SLP128 P0007 T0128=
202408241256 METAR KPWT 241256Z AUTO 20011KT 10SM -RA OVC005 13/ A2988 RMK AO2 CIG 003V009 SLP122 P0006 T0128=
202408241226 SPECI KPWT 241226Z AUTO 20012KT 10SM -RA BKN005 13/ A2988 RMK AO2 CIG 003V007 P0003=
202408241156 METAR KPWT 241156Z AUTO 19011G18KT 10SM -RA BKN007 13/13 A2987 RMK AO2 CIG 003V010 SLP119 P0004 60006 70038 T01280128 10133 20128 53008=
202408241147 SPECI KPWT 241147Z AUTO 20012KT 10SM -RA SCT004 OVC009 13/13 A2987 RMK AO2 P0004=
202408241104 SPECI KPWT 241104Z AUTO 19011G17KT 10SM -RA BKN004 OVC008 13/13 A2986 RMK AO2 P0001=
202408241056 METAR KPWT 241056Z AUTO 20011G17KT 10SM -RA OVC006 13/13 A2986 RMK AO2 CIG 003V010 SLP116 P0002 T01280128=
202408240956 METAR KPWT 240956Z AUTO 20011G17KT 10SM -RA BKN006 BKN010 13/13 A2985 RMK AO2 RAB02 CIG 004V009 SLP112 P0000 T01280128=
202408240951 SPECI KPWT 240951Z AUTO 19012G18KT 10SM -RA BKN006 BKN010 13/13 A2985 RMK AO2 RAB02 CIG 004V009 P0000=
202408240940 SPECI KPWT 240940Z AUTO 19012G19KT 10SM -RA SCT006 BKN010 13/13 A2984 RMK AO2 RAB02 P0000=
202408240856 METAR KPWT 240856Z AUTO 19011KT 10SM BKN004 BKN009 13/13 A2984 RMK AO2 SLP107 60000 T01280128 55002=
202408240756 METAR KPWT 240756Z AUTO 20009G15KT 10SM BKN004 OVC009 13/13 A2984 RMK AO2 RAE0657 CIG 003V007 SLP105 T01330133 401500128=
202408240656 METAR KPWT 240656Z AUTO 20009KT 10SM -RA OVC004 13/13 A2984 RMK AO2 CIG 003V009 SLP108 P0000 T01330133=
202408240648 SPECI KPWT 240648Z AUTO 21009KT 10SM -RA OVC006 13/13 A2984 RMK AO2 CIG 003V009 P0000=
202408240556 METAR KPWT 240556Z AUTO 21008KT 10SM -RA OVC004 13/13 A2984 RMK AO2 CIG 003V010 SLP108 P0001 60022 T01330133 10139 20128 53002=
202408240524 SPECI KPWT 240524Z AUTO 21008KT 10SM -RA BKN004 BKN010 OVC055 13/13 A2984 RMK AO2 CIG 003V007 P0001=
202408240456 METAR KPWT 240456Z AUTO 20008KT 10SM -RA SCT008 BKN012 BKN055 13/13 A2984 RMK AO2 SLP108 P0000 T01280128=
202408240356 METAR KPWT 240356Z AUTO 21008KT 10SM -RA SCT009 SCT035 OVC060 13/13 A2983 RMK AO2 SLP106 P0004 T01280128=
202408240336 SPECI KPWT 240336Z AUTO 20006KT 10SM -RA SCT009 BKN012 OVC034 13/13 A2983 RMK AO2 P0003=
202408240313 SPECI KPWT 240313Z AUTO 19006KT 10SM -RA FEW009 BKN034 OVC042 13/13 A2983 RMK AO2 P0001=
202408240256 METAR KPWT 240256Z AUTO 19007KT 10SM -RA FEW011 BKN034 OVC046 13/13 A2983 RMK AO2 SLP104 P0005 60017 T01280128 53003=
202408240223 SPECI KPWT 240223Z AUTO 20010KT 10SM -RA FEW007 BKN032 OVC055 13/13 A2982 RMK AO2 P0002=
202408240218 SPECI KPWT 240218Z AUTO 19007KT 10SM -RA BKN010 BKN025 OVC055 13/13 A2982 RMK AO2 CIG 006V017 P0002=
202408240206 SPECI KPWT 240206Z AUTO 19010KT 8SM -RA SCT008 BKN025 BKN035 13/13 A2982 RMK AO2 P0001=
202408240156 METAR KPWT 240156Z AUTO 19009KT 10SM -RA SCT010 BKN032 BKN042 13/13 A2982 RMK AO2 SLP100 P0007 T01330133=
202408240153 SPECI KPWT 240153Z AUTO 19007KT 10SM -RA SCT010 SCT029 BKN039 13/13 A2982 RMK AO2 P0007=
202408240144 SPECI KPWT 240144Z AUTO 18008KT 10SM -RA SCT008 SCT014 BKN029 13/13 A2982 RMK AO2 P0007=
202408240114 SPECI KPWT 240114Z AUTO 20008KT 5SM -RA BR OVC008 13/13 A2981 RMK AO2 CIG 005V014 P0004=
202408240056 METAR KPWT 240056Z AUTO 20010KT 7SM -RA BKN010 OVC015 14/14 A2982 RMK AO2 CIG 006V012 SLP100 P0005 T01390139=
202408240028 SPECI KPWT 240028Z AUTO 20011KT 10SM -RA FEW006 BKN015 OVC035 14/14 A2982 RMK AO2 P0002=
202408240017 SPECI KPWT 240017Z AUTO 19008KT 10SM -RA SCT008 SCT016 OVC033 14/14 A2982 RMK AO2 P0002=
202408232356 METAR KPWT 232356Z AUTO 19009KT 10SM -RA BKN006 13/13 A2982 RMK AO2 CIG 005V012 SLP100 P0004 60010 T01330133 10139 20133 53001=
202408232256 METAR KPWT 232256Z AUTO 19006KT 10SM -RA BKN008 BKN013 14/14 A2982 RMK AO2 CIG 005V012 SLP099 P0002 T01390139=
202408232156 METAR KPWT 232156Z AUTO 20008KT 10SM -RA OVC011 14/14 A2981 RMK AO2 RAB31 SLP098 P0000 T01390139=
202408232126 SPECI KPWT 232126Z AUTO 20006KT 10SM OVC011 14/14 A2981 RMK AO2=
202408232056 METAR KPWT 232056Z AUTO 20008KT 10SM OVC009 14/14 A2981 RMK AO2 RAE42 SLP098 P0000 60004 T01390139 52007=
202408232014 SPECI KPWT 232014Z AUTO 20008KT 10SM -RA OVC007 14/14 A2981 RMK AO2 CIG 004V009 P0000=
202408231956 METAR KPWT 231956Z AUTO 20008KT 10SM -RA OVC005 14/14 A2981 RMK AO2 SLP095 P0002 T01390139=
202408231940 SPECI KPWT 231940Z AUTO 19007KT 10SM -RA OVC005 13/13 A2980 RMK AO2 P0001=
202408231856 METAR KPWT 231856Z AUTO 18005KT 4SM -RA BR OVC003 13/13 A2980 RMK AO2 SLP093 P0002 T01330133=
202408231805 SPECI KPWT 231805Z AUTO 16003KT 6SM -RA BR OVC003 13/13 A2979 RMK AO2 P0000=
202408231756 METAR KPWT 231756Z AUTO 00000KT 7SM -RA OVC005 13/13 A2979 RMK AO2 RAB54 SLP091 P0000 60000 T01330133 10144 20133 53003=
202408231742 SPECI KPWT 231742Z AUTO 20004KT 10SM OVC005 13/13 A2979 RMK AO2=
202408231656 METAR KPWT 231656Z AUTO 20004KT 10SM OVC003 13/13 A2978 RMK AO2 SLP086 T01330133=
202408231605 SPECI KPWT 231605Z AUTO 21005KT 3SM BR OVC003 14/14 A2978 RMK AO2=
202408231601 SPECI KPWT 231601Z AUTO 22005KT 1 1/4SM BR OVC003 14/14 A2978 RMK AO2=
202408231556 METAR KPWT 231556Z AUTO 23005KT 3/4SM BR OVC003 14/14 A2978 RMK AO2 SLP088 T01390139=
202408231534 SPECI KPWT 231534Z AUTO 21003KT 3/4SM BR OVC003 14/14 A2979 RMK AO2=
202408231507 SPECI KPWT 231507Z AUTO 19004KT 1/2SM FG OVC003 14/14 A2979 RMK AO2=
202408231456 METAR KPWT 231456Z AUTO 20005KT 1/4SM FG OVC003 14/14 A2978 RMK AO2 SLP088 T01390139 56007=
202408231433 SPECI KPWT 231433Z AUTO 22008KT 1/4SM FG OVC003 14/14 A2978 RMK AO2=
202408231430 SPECI KPWT 231430Z AUTO 22009KT 3/4SM BR OVC003 14/14 A2978 RMK AO2=
202408231356 METAR KPWT 231356Z AUTO 00000KT 7SM OVC003 14/14 A2978 RMK AO2 SLP088 T01440144=
202408231308 SPECI KPWT 231308Z AUTO 00000KT 8SM OVC003 14/14 A2978 RMK AO2=
202408231256 METAR KPWT 231256Z AUTO 00000KT 9SM OVC005 14/14 A2978 RMK AO2 SLP086 T01440144=
202408231211 SPECI KPWT 231211Z AUTO 33003KT 8SM OVC005 14/14 A2979 RMK AO2=
202408231156 METAR KPWT 231156Z AUTO 00000KT 10SM OVC003 14/14 A2980 RMK AO2 RAB02E19 SLP094 P0000 60008 7//// T01440144 10161 20139 58003=
202408231117 SPECI KPWT 231117Z AUTO 23005KT 10SM -RA BKN003 14/14 A2981 RMK AO2 RAB02 P0000=
202408231106 SPECI KPWT 231106Z AUTO 22003KT 10SM -RA SCT003 14/14 A2981 RMK AO2 RAB02 P0000=
202408231056 METAR KPWT 231056Z AUTO VRB03KT 10SM CLR 14/14 A2980 RMK AO2 RAE56 SLP094 P0004 T01440144=
202408230956 METAR KPWT 230956Z AUTO 05005KT 10SM -RA FEW042 14/14 A2981 RMK AO2 RAE15B45 SLP098 P0001 T01440144=
202408230856 METAR KPWT 230856Z AUTO 00000KT 10SM -RA CLR 14/14 A2981 RMK AO2 SLP097 P0001 60003 T01440144 58014=
202408230756 METAR KPWT 230756Z AUTO 10004KT 10SM -RA CLR 14/14 A2987 RMK AO2 RAE13B40 SLP119 P0002 T01440144 402110133=
202408230656 METAR KPWT 230656Z AUTO 35005KT 10SM -RA FEW060 16/15 A2981 RMK AO2 RAB07 SLP098 P0000 T01560150=
202408230556 METAR KPWT 230556Z AUTO 04006KT 10SM CLR 16/14 A2985 RMK AO2 SLP111 T01610139 10194 20161 58001=
202408230456 METAR KPWT 230456Z AUTO 00000KT 10SM BKN060 17/14 A2986 RMK AO2 SLP113 T01670144=
202408230356 METAR KPWT 230356Z AUTO 03003KT 10SM FEW065 17/15 A2986 RMK AO2 SLP113 T01670150=
202408230256 METAR KPWT 230256Z AUTO 22004KT 10SM SCT060 17/15 A2986 RMK AO2 SLP113 T01720150 56009=
202408230156 METAR KPWT 230156Z AUTO 20004KT 10SM CLR 18/14 A2987 RMK AO2 SLP116 T01830139=
202408230056 METAR KPWT 230056Z AUTO 22006KT 10SM CLR 19/14 A2987 RMK AO2 SLP116 T01890139=
202408222356 METAR KPWT 222356Z AUTO 24006KT 10SM CLR 19/14 A2988 RMK AO2 LTG DSNT NW SLP121 6//// T01940139 10211 20167 58008=
202408222256 METAR KPWT 222256Z AUTO 22008KT 10SM CLR 20/14 A2989 RMK AO2 SLP125 T02000144=
202408222156 METAR KPWT 222156Z AUTO 20006KT 10SM CLR 21/14 A2990 RMK AO2 SLP127 T02060144=
202408222056 METAR KPWT 222056Z AUTO VRB04KT 10SM SCT025 20/14 A2991 RMK AO2 SLP130 60000 T02000144 58008=
202408221956 METAR KPWT 221956Z AUTO 21005KT 10SM CLR 19/14 A2992 RMK AO2 RAB07E19 SLP133 P0000 T01940139=
202408221856 METAR KPWT 221856Z AUTO 00000KT 10SM FEW012 SCT026 BKN034 18/15 A2993 RMK AO2 SLP139 T01830150=
202408221852 SPECI KPWT 221852Z AUTO 00000KT 10SM SCT012 SCT021 BKN029 18/15 A2993 RMK AO2=
202408221845 SPECI KPWT 221845Z AUTO 00000KT 10SM SCT012 BKN036 18/16 A2993 RMK AO2=
202408221835 SPECI KPWT 221835Z AUTO 00000KT 10SM BKN012 OVC022 18/16 A2993 RMK AO2=
202408221819 SPECI KPWT 221819Z AUTO 00000KT 10SM FEW010 BKN022 18/16 A2993 RMK AO2=
202408221756 METAR KPWT 221756Z AUTO 00000KT 10SM FEW007 17/16 A2993 RMK AO2 SLP140 60002 T01670161 10167 20133 53001=
202408221741 SPECI KPWT 221741Z AUTO 00000KT 10SM FEW007 17/16 A2993 RMK AO2=
202408221656 METAR KPWT 221656Z AUTO 00000KT 10SM CLR 16/16 A2993 RMK AO2 RAE34 SLP136 P0002 T01610161=
202408221556 METAR KPWT 221556Z AUTO 00000KT 10SM -RA FEW041 SCT060 16/16 A2993 RMK AO2 RAB11 SLP138 P0000 T01560156=
202408221456 METAR KPWT 221456Z AUTO 00000KT 10SM SCT027 BKN055 15/15 A2993 RMK AO2 SLP139 T01500150 53002=
202408221356 METAR KPWT 221356Z AUTO 00000KT 10SM FEW035 14/14 A2993 RMK AO2 SLP137 T01440144=
202408221256 METAR KPWT 221256Z AUTO 00000KT 10SM SCT039 14/14 A2992 RMK AO2 SLP135 T01390139=
202408221156 METAR KPWT 221156Z AUTO 00000KT 10SM CLR 14/14 A2992 RMK AO2 SLP137 70006 T01390139 10144 20133 56005=
202408221056 METAR KPWT 221056Z AUTO 00000KT 10SM BKN035 BKN060 14/14 A2993 RMK AO2 SLP138 T01440144=
202408220956 METAR KPWT 220956Z AUTO 00000KT 10SM OVC037 14/14 A2993 RMK AO2 SLP138 T01390139=
202408220856 METAR KPWT 220856Z AUTO 00000KT 10SM CLR 13/13 A2994 RMK AO2 SLP142 T01330133 56003=
202408220756 METAR KPWT 220756Z AUTO 00000KT 10SM BKN047 BKN120 14/14 A2994 RMK AO2 SLP144 T01390139 401890117=
202408220656 METAR KPWT 220656Z AUTO 00000KT 10SM CLR 14/14 A2994 RMK AO2 SLP144 T01390139=
202408220556 METAR KPWT 220556Z AUTO 00000KT 10SM BKN120 14/14 A2995 RMK AO2 SLP145 60001 T01390139 10167 20139 56007=
202408220456 METAR KPWT 220456Z AUTO 00000KT 10SM BKN120 14/14 A2996 RMK AO2 SLP146 T01390139=
202408220356 METAR KPWT 220356Z AUTO 00000KT 10SM FEW055 15/15 A2996 RMK AO2 SLP149 T01500150=
202408220256 METAR KPWT 220256Z AUTO 17003KT 10SM FEW055 16/15 A2997 RMK AO2 RAB38E56 SLP152 P0001 60001 T01560150 56014=
202408220156 METAR KPWT 220156Z AUTO 23004KT 10SM FEW060 16/14 A2998 RMK AO2 SLP156 T01610144=
202408220056 METAR KPWT 220056Z AUTO 22006KT 10SM FEW070 16/16 A3000 RMK AO2 SLP162 T01610156=
202408212356 METAR KPWT 212356Z AUTO 25007KT 10SM FEW024 BKN047 17/15 A3001 RMK AO2 SLP166 60005 T01670150 10189 20161 58010=
202408212256 METAR KPWT 212256Z AUTO 20004KT 10SM FEW070 18/17 A3003 RMK AO2 RAE07 SLP171 P0000 T01780167=
202408212205 SPECI KPWT 212205Z AUTO 18005KT 10SM -RA SCT022 SCT033 BKN041 16/16 A3004 RMK AO2 P0000=
202408212156 METAR KPWT 212156Z AUTO 19006KT 8SM -RA BKN022 BKN033 OVC043 16/16 A3004 RMK AO2 RAB26 SLP175 P0005 T01610161=
202408212136 SPECI KPWT 212136Z AUTO 20007KT 7SM -RA BKN022 BKN028 OVC039 17/16 A3004 RMK AO2 RAB26 P0002=
202408212121 SPECI KPWT 212121Z AUTO 20007KT 10SM FEW026 BKN036 OVC050 19/14 A3004 RMK AO2=
202408212056 METAR KPWT 212056Z AUTO 20006KT 10SM SCT024 BKN028 BKN034 18/14 A3004 RMK AO2 RAE20 SLP177 P0000 60000 T01830139 56009=
202408211956 METAR KPWT 211956Z AUTO 22008KT 10SM -RA FEW017 BKN022 OVC046 18/16 A3005 RMK AO2 RAB43 SLP179 P0000 T01830156=
202408211856 METAR KPWT 211856Z AUTO 22009KT 10SM BKN017 BKN025 18/15 A3006 RMK AO2 SLP182 T01780150=
202408211756 METAR KPWT 211756Z AUTO 19009KT 10SM BKN015 17/15 A3007 RMK AO2 SLP186 T01670150 10167 20133 55004=
202408211734 SPECI KPWT 211734Z AUTO 20009KT 10SM BKN015 17/15 A3007 RMK AO2=
202408211719 SPECI KPWT 211719Z AUTO 20010KT 10SM SCT012 16/14 A3007 RMK AO2=
202408211656 METAR KPWT 211656Z AUTO 21009KT 10SM BKN010 16/14 A3007 RMK AO2 SLP186 T01610144=
202408211642 SPECI KPWT 211642Z AUTO 21010KT 10SM OVC010 16/14 A3007 RMK AO2 CIG 007V015=
202408211556 METAR KPWT 211556Z AUTO 20007KT 10SM OVC008 15/15 A3008 RMK AO2 SLP189 T01500150=
202408211456 METAR KPWT 211456Z AUTO 20006KT 10SM FEW006 BKN009 OVC021 14/14 A3008 RMK AO2 SLP190 T01440144 51001=
202408211453 SPECI KPWT 211453Z AUTO 20004KT 10SM BKN011 OVC021 14/14 A3008 RMK AO2=
202408211403 SPECI KPWT 211403Z AUTO 21006KT 10SM FEW006 OVC016 14/14 A3009 RMK AO2=
202408211356 METAR KPWT 211356Z AUTO 21006KT 10SM FEW006 OVC014 14/14 A3009 RMK AO2 SLP192 T01390139=
202408211341 SPECI KPWT 211341Z AUTO 22006KT 10SM SCT006 BKN014 14/14 A3008 RMK AO2=
202408211331 SPECI KPWT 211331Z AUTO 21004KT 10SM SCT006 SCT010 BKN019 14/14 A3008 RMK AO2=
202408211319 SPECI KPWT 211319Z AUTO 21003KT 10SM FEW006 SCT019 14/14 A3008 RMK AO2=
202408211310 SPECI KPWT 211310Z AUTO 21003KT 10SM SCT006 BKN019 14/14 A3008 RMK AO2=
202408211303 SPECI KPWT 211303Z AUTO 22003KT 10SM SCT008 BKN011 BKN019 14/14 A3008 RMK AO2=
202408211256 METAR KPWT 211256Z AUTO 21003KT 10SM SCT008 BKN019 14/14 A3008 RMK AO2 SLP189 T01390139=
202408211239 SPECI KPWT 211239Z AUTO 19003KT 10SM BKN006 OVC010 14/14 A3008 RMK AO2 CIG 004V009=
202408211156 METAR KPWT 211156Z AUTO 00000KT 10SM BKN004 13/13 A3008 RMK AO2 SLP191 7//// T01330133 10139 20117 58001=
202408211151 SPECI KPWT 211151Z AUTO 00000KT 10SM SCT004 BKN021 13/13 A3009 RMK AO2=
202408211144 SPECI KPWT 211144Z AUTO 19003KT 10SM SCT021 13/13 A3009 RMK AO2=
202408211056 METAR KPWT 211056Z AUTO 21003KT 10SM OVC019 13/13 A3008 RMK AO2 SLP191 T01330133=
202408211034 SPECI KPWT 211034Z AUTO 21003KT 10SM BKN017 13/13 A3008 RMK AO2=
202408211026 SPECI KPWT 211026Z AUTO 00000KT 2SM BR BKN017 12/12 A3008 RMK AO2 VIS 1V5=
202408211019 SPECI KPWT 211019Z AUTO 00000KT 1 1/4SM BR SCT017 13/13 A3008 RMK AO2 VIS 1/2V3=
202408211015 SPECI KPWT 211015Z AUTO 00000KT 3/4SM BR VV018 13/13 A3008 RMK AO2 VIS 1/2V3=
202408211003 SPECI KPWT 211003Z AUTO 00000KT 3/4SM BR CLR 13/13 A3008 RMK AO2=
202408210956 METAR KPWT 210956Z AUTO 00000KT 3/4SM BR VV001 13/13 A3009 RMK AO2 SLP190 T01280128=
202408210941 SPECI KPWT 210941Z AUTO 00000KT 1/2SM FG VV001 13/13 A3009 RMK AO2=
202408210932 SPECI KPWT 210932Z AUTO 00000KT 1SM BR BKN002 14/14 A3008 RMK AO2=
202408210915 SPECI KPWT 210915Z AUTO 00000KT 1/2SM FG BKN002 14/14 A3009 RMK AO2=
202408210905 SPECI KPWT 210905Z AUTO 19003KT 3/4SM BR BKN002 14/14 A3008 RMK AO2=
202408210901 SPECI KPWT 210901Z AUTO 19003KT 1SM BR SCT002 BKN023 13/13 A3008 RMK AO2=
202408210856 METAR KPWT 210856Z AUTO 00000KT 2SM BR FEW002 SCT023 13/13 A3009 RMK AO2 SLP191 T01330133 58002=
202408210849 SPECI KPWT 210849Z AUTO 00000KT 10SM FEW023 14/14 A3009 RMK AO2=
202408210836 SPECI KPWT 210836Z AUTO 00000KT 10SM SCT002 BKN021 14/14 A3009 RMK AO2=
202408210756 METAR KPWT 210756Z AUTO 22006KT 10SM BKN002 14/14 A3009 RMK AO2 SLP194 T01390139 402000128=
202408210753 SPECI KPWT 210753Z AUTO 22005KT 10SM BKN002 14/14 A3009 RMK AO2 402000128=
202408210709 SPECI KPWT 210709Z AUTO 21004KT 6SM BR SCT002 13/13 A3009 RMK AO2=
202408210702 SPECI KPWT 210702Z AUTO 21003KT 2 1/2SM BR FEW002 13/13 A3009 RMK AO2 VIS 1 1/4V5=
202408210656 METAR KPWT 210656Z AUTO 00000KT 4SM BR CLR 13/13 A3009 RMK AO2 SLP192 T01330133=
202408210651 SPECI KPWT 210651Z AUTO 00000KT 4SM BR CLR 13/13 A3009 RMK AO2=
202408210641 SPECI KPWT 210641Z AUTO 00000KT 1 1/2SM BR CLR 13/13 A3009 RMK AO2 VIS 1/2V5=
202408210556 METAR KPWT 210556Z AUTO 00000KT 10SM CLR 14/14 A3010 RMK AO2 SLP196 T01390139 10189 20139=
202408210456 METAR KPWT 210456Z AUTO 20004KT 10SM CLR 15/15 A3011 RMK AO2 SLP198 T01500150=
202408210356 METAR KPWT 210356Z AUTO 17004KT 10SM CLR 16/16 RMK AO2 SLPNO T01560156 $=
202408210256 METAR KPWT 210256Z AUTO 19005KT 10SM CLR 16/15 A3009 RMK AO2 SLP193 T01610150 58006=
202408210156 METAR KPWT 210156Z AUTO 21006KT 10SM FEW041 17/15 A3010 RMK AO2 SLP197 T01720150=
202408210121 SPECI KPWT 210121Z AUTO 22008KT 10SM FEW017 SCT024 BKN031 17/15 A3010 RMK AO2=
202408210056 METAR KPWT 210056Z AUTO 23011KT 10SM FEW017 BKN023 18/15 A3010 RMK AO2 SLP197 T01780150=
202408202356 METAR KPWT 202356Z AUTO 21010KT 10SM CLR 18/14 A3011 RMK AO2 SLP199 6//// T01830144 10200 20156 56003=
202408202320 SPECI KPWT 202320Z AUTO 22011KT 10SM SCT020 18/15 A3012 RMK AO2=
202408202313 SPECI KPWT 202313Z AUTO 22010KT 10SM FEW017 BKN023 18/15 A3012 RMK AO2=
202408202256 METAR KPWT 202256Z AUTO 21009KT 10SM FEW021 SCT070 19/15 A3011 RMK AO2 SLP200 T01890150=
202408202213 SPECI KPWT 202213Z AUTO 21009KT 10SM SCT017 SCT024 BKN075 19/15 A3011 RMK AO2=
202408202156 METAR KPWT 202156Z AUTO 19009KT 10SM SCT015 BKN021 20/16 A3011 RMK AO2 SLP200 T02000161=
202408202056 METAR KPWT 202056Z AUTO 20007KT 10SM SCT016 18/16 A3012 RMK AO2 SLP203 60001 T01830156 58004=
202408201956 METAR KPWT 201956Z AUTO 22005KT 10SM CLR 18/16 A3013 RMK AO2 RAE10 SLP205 P0000 T01830161=
202408201923 SPECI KPWT 201923Z AUTO 19005KT 10SM FEW006 17/17 A3013 RMK AO2 RAE10 P0000=
202408201856 METAR KPWT 201856Z AUTO 19004KT 10SM -RA BKN006 16/16 A3014 RMK AO2 RAB06 CIG 004V009 SLP207 P0001 T01560156=
202408201756 METAR KPWT 201756Z AUTO 21006KT 10SM SCT008 SCT029 16/16 A3013 RMK AO2 SLP208 60002 T01560156 10161 20139 51005=
202408201753 SPECI KPWT 201753Z AUTO 21009KT 10SM SCT008 16/16 A3013 RMK AO2=
202408201656 METAR KPWT 201656Z AUTO 20007KT 10SM BKN006 16/16 A3012 RMK AO2 SLP204 T01560156=
202408201625 SPECI KPWT 201625Z AUTO 21006KT 10SM BKN004 16/16 A3012 RMK AO2=
202408201604 SPECI KPWT 201604Z AUTO 21005KT 10SM SCT004 14/14 A3012 RMK AO2=
202408201556 METAR KPWT 201556Z AUTO 20004KT 10SM BKN004 14/14 A3012 RMK AO2 SLP201 T01440144=
202408201538 SPECI KPWT 201538Z AUTO 19005KT 10SM BKN004 14/14 A3012 RMK AO2=
202408201526 SPECI KPWT 201526Z AUTO VRB03KT 10SM SCT006 14/14 A3012 RMK AO2=
202408201519 SPECI KPWT 201519Z AUTO 19003KT 10SM BKN006 14/14 A3012 RMK AO2=
202408201510 SPECI KPWT 201510Z AUTO 21004KT 10SM SCT006 14/14 A3012 RMK AO2=
202408201456 METAR KPWT 201456Z AUTO 21004KT 10SM CLR 14/14 A3012 RMK AO2 SLP203 60002 T01390139 53008=
202408201356 METAR KPWT 201356Z AUTO 00000KT 10SM CLR 14/14 A3011 RMK AO2 SLP201 T01390139=
202408201256 METAR KPWT 201256Z AUTO 19004KT 10SM CLR 14/14 A3010 RMK AO2 RAE44 SLP195 P0002 T01440144=
202408201156 METAR KPWT 201156Z AUTO 19004KT 10SM -RA FEW038 14/14 A3010 RMK AO2 RAB05 SLP194 P0002 60002 7//// T01440144 10150 20144 58001=
202408201056 METAR KPWT 201056Z AUTO 20005KT 10SM SCT120 14/14 A3010 RMK AO2 RAB34E44 SLP194 P0000 T01440144=
202408200956 METAR KPWT 200956Z AUTO 19006KT 10SM FEW014 SCT035 15/15 A3010 RMK AO2 SLP196 T01500150=
202408200942 SPECI KPWT 200942Z AUTO 18004KT 10SM SCT014 15/15 A3010 RMK AO2=
202408200856 METAR KPWT 200856Z AUTO 19005KT 10SM BKN014 14/14 A3010 RMK AO2 SLP194 T01440144 55002=
202408200851 SPECI KPWT 200851Z AUTO 19005KT 10SM BKN014 14/14 A3010 RMK AO2=
202408200756 METAR KPWT 200756Z AUTO 19005KT 10SM CLR 14/14 A3010 RMK AO2 SLP194 T01440144 402440072=
202408200706 SPECI KPWT 200706Z AUTO 21007KT 10SM SCT008 14/14 A3010 RMK AO2=
202408200656 METAR KPWT 200656Z AUTO 20006KT 10SM BKN008 14/14 A3011 RMK AO2 CIG 007V011 SLP196 T01440144=
202408200641 SPECI KPWT 200641Z AUTO 20006KT 10SM SCT008 15/15 A3011 RMK AO2=
202408200603 SPECI KPWT 200603Z AUTO 21010KT 10SM BKN008 OVC060 15/15 A3011 RMK AO2 CIG 006V011=
202408200556 METAR KPWT 200556Z AUTO 21010KT 10SM SCT008 BKN060 16/15 A3011 RMK AO2 SLP197 60000 T01560150 10217 20156 51004=
202408200456 METAR KPWT 200456Z AUTO 23009KT 10SM FEW060 16/14 A3011 RMK AO2 RAB41E53 SLP198 P0000 T01560144=
202408200356 METAR KPWT 200356Z AUTO 24009KT 10SM CLR 16/14 A3010 RMK AO2 SLP196 T01560144=
202408200256 METAR KPWT 200256Z AUTO 24007KT 10SM CLR 16/13 A3010 RMK AO2 SLP194 T01610128 51012=
202408200156 METAR KPWT 200156Z AUTO 24010KT 10SM CLR 17/12 A3009 RMK AO2 SLP193 T01720117=
202408200056 METAR KPWT 200056Z AUTO 24011G18KT 10SM FEW100 19/12 A3008 RMK AO2 SLP191 T01890117=
202408192356 METAR KPWT 192356Z AUTO 23012G18KT 10SM FEW055 22/13 A3006 RMK AO2 SLP183 6//// T02170133 10244 20206 53004=
202408192256 METAR KPWT 192256Z AUTO 21012G18KT 10SM SCT050 23/11 A3005 RMK AO2 SLP177 T02330106=
202408192156 METAR KPWT 192156Z AUTO 19010G15KT 10SM SCT050 23/11 A3005 RMK AO2 SLP179 T02280106=
202408192056 METAR KPWT 192056Z AUTO 22013G17KT 10SM CLR 23/11 A3005 RMK AO2 SLP178 T02330111 56000=
202408191956 METAR KPWT 191956Z AUTO 21011KT 10SM CLR 23/12 A3005 RMK AO2 SLP178 T02280117=
202408191856 METAR KPWT 191856Z AUTO 20009KT 10SM CLR 22/11 A3005 RMK AO2 SLP177 T02170111=
202408191756 METAR KPWT 191756Z AUTO 20009KT 10SM CLR 21/13 A3005 RMK AO2 SLP178 T02060128 10206 20072 50002=
202408191656 METAR KPWT 191656Z AUTO 21003KT 10SM CLR 19/14 A3005 RMK AO2 SLP179 T01940139=
202408191556 METAR KPWT 191556Z AUTO 19003KT 10SM CLR 17/13 A3005 RMK AO2 SLP179 T01670128=
202408191456 METAR KPWT 191456Z AUTO 00000KT 10SM CLR 13/13 A3004 RMK AO2 SLP176 T01280128 58000=
202408191409 SPECI KPWT 191409Z AUTO 00000KT 9SM CLR 09/09 A3004 RMK AO2=
202408191402 SPECI KPWT 191402Z AUTO 00000KT 1 1/2SM BR CLR 09/09 A3005 RMK AO2 VIS 1/4V5=
202408191356 METAR KPWT 191356Z AUTO 00000KT 3/4SM BR CLR 09/09 A3005 RMK AO2 VIS 1/4V5 SLP178 T00890089=
202408191351 SPECI KPWT 191351Z AUTO 00000KT 3/4SM BR CLR 09/09 A3004 RMK AO2=
202408191343 SPECI KPWT 191343Z AUTO 00000KT 1/4SM FG CLR 08/08 A3005 RMK AO2=
202408191339 SPECI KPWT 191339Z AUTO 00000KT 3/4SM BR CLR 08/08 A3005 RMK AO2=
202408191337 SPECI KPWT 191337Z AUTO 00000KT 1 1/4SM BR CLR 08/08 A3005 RMK AO2=
202408191325 SPECI KPWT 191325Z AUTO 00000KT 10SM CLR 09/09 A3005 RMK AO2=
202408191318 SPECI KPWT 191318Z AUTO 00000KT 2 1/2SM BR CLR 09/09 A3005 RMK AO2=
202408191316 SPECI KPWT 191316Z AUTO 00000KT 3/4SM BR CLR 09/09 A3005 RMK AO2=
202408191256 METAR KPWT 191256Z AUTO 21003KT 1/4SM FG CLR 08/08 A3005 RMK AO2 SLP178 T00780078=
202408191252 SPECI KPWT 191252Z AUTO 00000KT 1/2SM FG CLR 08/08 A3005 RMK AO2=
202408191250 SPECI KPWT 191250Z AUTO 00000KT 1 1/2SM BR CLR 08/08 A3004 RMK AO2=
202408191246 SPECI KPWT 191246Z AUTO 00000KT 10SM CLR 09/09 A3004 RMK AO2=
202408191239 SPECI KPWT 191239Z AUTO 00000KT 2 1/2SM BR CLR 09/09 A3004 RMK AO2=
202408191237 SPECI KPWT 191237Z AUTO 00000KT 1SM BR CLR 09/09 A3004 RMK AO2=
202408191224 SPECI KPWT 191224Z AUTO 00000KT 1/2SM FG CLR 08/08 A3004 RMK AO2=
202408191221 SPECI KPWT 191221Z AUTO 00000KT 1SM BR CLR 08/08 A3004 RMK AO2=
202408191156 METAR KPWT 191156Z AUTO 00000KT 10SM CLR 09/09 A3004 RMK AO2 SLP178 7//// T00890089 10128 20083 50002=
202408191148 SPECI KPWT 191148Z AUTO 00000KT 10SM CLR 09/09 A3004 RMK AO2=
202408191141 SPECI KPWT 191141Z AUTO 00000KT 2SM BR CLR 09/09 A3005 RMK AO2 VIS 1/4V5=
202408191139 SPECI KPWT 191139Z AUTO 00000KT 1SM BR CLR 09/09 A3004 RMK AO2 VIS 1/4V5=
202408191130 SPECI KPWT 191130Z AUTO 00000KT 1/2SM FG CLR 08/08 A3005 RMK AO2=
202408191127 SPECI KPWT 191127Z AUTO 00000KT 1SM BR CLR 08/08 A3005 RMK AO2=
202408191056 METAR KPWT 191056Z AUTO 00000KT 10SM CLR 10/10 A3005 RMK AO2 SLP179 T01000100=
202408190956 METAR KPWT 190956Z AUTO 00000KT 10SM CLR 11/11 A3005 RMK AO2 SLP178 T01060106=
202408190933 SPECI KPWT 190933Z AUTO 00000KT 3SM BR CLR 10/10 A3004 RMK AO2=
202408190926 SPECI KPWT 190926Z AUTO 00000KT 1 3/4SM BR CLR 09/09 A3004 RMK AO2 VIS 3/4V5=
202408190856 METAR KPWT 190856Z AUTO 00000KT 10SM CLR 11/11 A3004 RMK AO2 SLP175 T01060106 58005=
202408190756 METAR KPWT 190756Z AUTO 00000KT 10SM CLR 12/12 A3005 RMK AO2 SLP178 T01170117 402610111=
202408190656 METAR KPWT 190656Z AUTO 00000KT 10SM CLR 12/12 A3005 RMK AO2 SLP178 T01220122=
202408190556 METAR KPWT 190556Z AUTO 00000KT 10SM CLR 13/13 A3005 RMK AO2 SLP180 60000 T01280128 10183 20128 50003=
202408190456 METAR KPWT 190456Z AUTO 16004KT 10SM CLR 14/13 A3006 RMK AO2 SLP182 T01390133=
202408190356 METAR KPWT 190356Z AUTO 15004KT 10SM CLR 15/14 A3006 RMK AO2 SLP180 T01500139=
202408190256 METAR KPWT 190256Z AUTO 22010KT 10SM CLR 17/14 A3005 RMK AO2 SLP177 60000 T01670144 51012=
202408190156 METAR KPWT 190156Z AUTO 22015G18KT 10SM FEW016 18/14 A3004 RMK AO2 SLP174 T01780144=
202408190056 METAR KPWT 190056Z AUTO 24011KT 10SM CLR 18/16 A3002 RMK AO2 RAE07 SLP169 P0000 T01830161=
202408182356 METAR KPWT 182356Z AUTO 30008KT 10SM -RA SCT034 BKN049 16/15 A3001 RMK AO2 PK WND 24030/2301 LTG DSNT N RAB21 PRESFR SLP165 6//// T01560150 10261 20156 53010=
202408182256 METAR KPWT 182256Z AUTO 20017G23KT 10SM FEW055 25/12 A2998 RMK AO2 LTG DSNT S-NW SLP152 T02500117=
202408182156 METAR KPWT 182156Z AUTO 26007KT 10SM FEW045 24/13 A2997 RMK AO2 SLP150 P0001 T02390133=
202408182056 METAR KPWT 182056Z AUTO 21009KT 180V260 10SM CLR 23/14 A2998 RMK AO2 SLP153 6//// T02330139 51002=
202408181956 METAR KPWT 181956Z AUTO 20011G17KT 10SM SCT037 BKN049 22/13 A2998 RMK AO2 LTG DSNT W SLP153 T02220133=
202408181856 METAR KPWT 181856Z AUTO 18009G17KT 10SM FEW030 22/14 A2998 RMK AO2 SLP154 T02170144=
202408181756 METAR KPWT 181756Z AUTO 20013G18KT 10SM FEW023 21/16 A2998 RMK AO2 SLP152 60000 T02110156 10211 20150 51012=
202408181726 SPECI KPWT 181726Z AUTO 19011KT 10SM SCT015 SCT021 19/16 A2997 RMK AO2=
202408181715 SPECI KPWT 181715Z AUTO 21012KT 10SM BKN015 19/16 A2997 RMK AO2=
202408181656 METAR KPWT 181656Z AUTO 21012G17KT 10SM SCT015 18/16 A2996 RMK AO2 SLP149 T01830161=
202408181556 METAR KPWT 181556Z AUTO 21010KT 10SM SCT009 18/17 A2996 RMK AO2 SLP147 T01780167=
202408181544 SPECI KPWT 181544Z AUTO 21011G16KT 10SM BKN009 18/17 A2995 RMK AO2 CIG 007V013=
202408181524 SPECI KPWT 181524Z AUTO 21007KT 10SM SCT009 SCT035 17/17 A2995 RMK AO2=
202408181456 METAR KPWT 181456Z AUTO 20007KT 10SM CLR 17/17 A2994 RMK AO2 SLP139 60000 T01670167 53007=
202408181356 METAR KPWT 181356Z AUTO 21004KT 10SM SCT018 15/15 A2993 RMK AO2 RAE01 SLP134 P0000 T01500150=
202408181327 SPECI KPWT 181327Z AUTO 20005KT 10SM FEW016 15/15 A2993 RMK AO2 RAE01 P0000=
202408181256 METAR KPWT 181256Z AUTO 20006KT 10SM -RA FEW004 BKN018 OVC045 16/16 A2992 RMK AO2 RAB03 SLP134 P0000 T01560156=
202408181249 SPECI KPWT 181249Z AUTO 20006KT 10SM -RA FEW004 BKN026 OVC047 16/16 A2992 RMK AO2 RAB03 P0000=
202408181246 SPECI KPWT 181246Z AUTO 20006KT 10SM -RA SCT018 BKN032 OVC045 16/16 A2992 RMK AO2 RAB03 P0000=
202408181156 METAR KPWT 181156Z AUTO 18004KT 10SM FEW004 SCT023 BKN029 16/16 A2992 RMK AO2 SLP133 60001 7//// T01610161 10167 20156 51014=
202408181056 METAR KPWT 181056Z AUTO 15003KT 10SM SCT030 SCT041 BKN055 16/16 A2991 RMK AO2 SLP129 T01610161=
202408180956 METAR KPWT 180956Z AUTO 23005KT 10SM BKN032 BKN041 16/16 A2990 RMK AO2 SLP125 T01610161=
202408180925 SPECI KPWT 180925Z AUTO 24007KT 10SM BKN030 BKN034 16/16 A2989 RMK AO2=
202408180909 SPECI KPWT 180909Z AUTO 21004KT 10SM FEW003 BKN028 16/16 A2989 RMK AO2=
202408180856 METAR KPWT 180856Z AUTO 25006KT 10SM FEW003 SCT025 16/16 A2988 RMK AO2 RAB0758E25 SLP119 P0000 60001 T01610161 51004=
202408180827 SPECI KPWT 180827Z AUTO 29004KT 10SM FEW003 BKN019 BKN025 17/17 A2988 RMK AO2 RAB0758E25 P0000=
202408180756 METAR KPWT 180756Z AUTO VRB03KT 10SM BKN003 BKN021 16/16 A2988 RMK AO2 CIG 002V005 SLP118 T01610161 402720128=
202408180744 SPECI KPWT 180744Z AUTO 31006KT 10SM SCT005 BKN019 17/17 A2988 RMK AO2=
202408180720 SPECI KPWT 180720Z AUTO 00000KT 10SM BKN015 17/17 A2988 RMK AO2=
202408180656 METAR KPWT 180656Z AUTO 17006KT 10SM BKN011 16/16 A2989 RMK AO2 RAE37 SLP122 P0001 T01610161=
202408180556 METAR KPWT 180556Z AUTO 13004KT 10SM -RA BKN110 17/17 A2987 RMK AO2 LTG DSNT NE TSE13RAE22B55 SLP115 P0000 60027 T01670167 10272 20167=
202408180513 SPECI KPWT 180513Z AUTO 21006KT 10SM -RA SCT008 BKN110 17/17 A2987 RMK AO2 LTG DSNT NW-E TSE13 P0000=
202408180456 METAR KPWT 180456Z AUTO 25009G18KT 10SM VCTS -RA SCT008 BKN013 OVC044 17/17 A2987 RMK AO2 LTG DSNT NW-E TSE46B53 PRESFR SLP117 P0016 T01670167=
202408180449 SPECI KPWT 180449Z AUTO 24012G19KT 8SM RA SCT008 BKN013 OVC046 17/17 A2989 RMK AO2 LTG DSNT NW-NE TSE46 P0015=
202408180356 METAR KPWT 180356Z AUTO 22014G28KT 6SM TSRA BR SCT008 BKN032 BKN042 18/18 A2989 RMK AO2 PK WND 19030/0339 LTG DSNT ALQDS TSB20RAB25 PRESRR SLP125 P0011 T01780178=
202408180326 SPECI KPWT 180326Z AUTO 19012G18KT 10SM VCTS -RA FEW050 BKN110 22/16 A2985 RMK AO2 LTG DSNT ALQDS TSB20RAB25 P0000=
202408180256 METAR KPWT 180256Z AUTO 00000KT 10SM CLR 23/15 RMK AO2 LTG DSNT S SLPNO T02280150 $=
202408180156 METAR KPWT 180156Z AUTO 00000KT 10SM CLR 24/15 A2973 RMK AO2 SLP069 T02440150=
202408180056 METAR KPWT 180056Z AUTO 11006KT 10SM CLR 27/15 A2976 RMK AO2 SLP077 T02670150=
202408172356 METAR KPWT 172356Z AUTO 01004KT 10SM CLR 27/14 A2976 RMK AO2 SLP076 6//// T02720144 10272 20222 56019=
202408172256 METAR KPWT 172256Z AUTO 04005KT 10SM CLR 27/15 A2976 RMK AO2 RAE09 SLP079 P0000 T02670150=
202408172156 METAR KPWT 172156Z AUTO VRB03KT 10SM -RA CLR 26/14 A2977 RMK AO2 RAB54 SLP082 P0000 T02560144=
202408172056 METAR KPWT 172056Z AUTO 05003KT 10SM CLR 26/14 A2981 RMK AO2 SLP095 6//// T02560139 55016=
202408171956 METAR KPWT 171956Z AUTO 03010KT 10SM CLR 24/14 A2980 RMK AO2 SLP093 T02390139=
202408171856 METAR KPWT 171856Z AUTO 05009KT 10SM CLR 24/14 A2984 RMK AO2 SLP105 T02390144=
202408171756 METAR KPWT 171756Z AUTO 05010G19KT 10SM CLR 22/14 A2986 RMK AO2 SLP112 T02220144 10222 20128 57017=
202408171656 METAR KPWT 171656Z AUTO 05012KT 10SM CLR 20/14 A2987 RMK AO2 SLP117 T02000139=
202408171556 METAR KPWT 171556Z AUTO 06008KT 10SM CLR 18/13 A2990 RMK AO2 SLP126 T01780133=
202408171456 METAR KPWT 171456Z AUTO 05008KT 10SM CLR 16/13 A2991 RMK AO2 SLP131 T01560128 58004=
202408171356 METAR KPWT 171356Z AUTO 06006KT 10SM CLR 14/12 A2992 RMK AO2 SLP135 T01390122=
202408171256 METAR KPWT 171256Z AUTO 04004KT 10SM CLR 13/12 A2992 RMK AO2 SLP134 T01330122=
202408171156 METAR KPWT 171156Z AUTO 06005KT 10SM CLR 14/12 A2992 RMK AO2 SLP134 7//// T01390122 10167 20139 58005=
202408171056 METAR KPWT 171056Z AUTO 04005KT 10SM CLR 14/12 A2993 RMK AO2 SLP135 T01440122=
202408170956 METAR KPWT 170956Z AUTO 05007KT 10SM CLR 15/12 A2993 RMK AO2 SLP138 T01500122=
202408170856 METAR KPWT 170856Z AUTO 05009KT 10SM CLR 15/12 A2994 RMK AO2 SLP139 T01500122 58013=
202408170756 METAR KPWT 170756Z AUTO 05009KT 10SM CLR 16/12 A2995 RMK AO2 SLP144 T01560122 402440106=
202408170656 METAR KPWT 170656Z AUTO 03003KT 10SM CLR 16/13 A2996 RMK AO2 SLP150 T01560128=
202408170556 METAR KPWT 170556Z AUTO 05005KT 10SM CLR 16/13 A2997 RMK AO2 SLP153 6//// T01560133 10244 20156 58002=
202408170456 METAR KPWT 170456Z AUTO 06003KT 10SM CLR 16/13 A2998 RMK AO2 SLP156 T01610128=
202408170356 METAR KPWT 170356Z AUTO 04005KT 10SM CLR 18/13 A2998 RMK AO2 SLP157 T01780128=
202408170256 METAR KPWT 170256Z AUTO 05005KT 10SM CLR 20/11 A2998 RMK AO2 SLP154 6//// T02000111 55003=
202408170156 METAR KPWT 170156Z AUTO 06008KT 10SM CLR 22/11 A2998 RMK AO2 SLP153 T02170111=
202408170056 METAR KPWT 170056Z AUTO 06008KT 10SM CLR 23/11 A2998 RMK AO2 SLP154 T02280111=
202408162356 METAR KPWT 162356Z AUTO 24006KT 10SM CLR 24/11 A2999 RMK AO2 SLP157 T02440106 10244 20156 58014=
202408162256 METAR KPWT 162256Z AUTO VRB04KT 10SM FEW090 22/11 A3000 RMK AO2 SLP163 T02220106=
202408162156 METAR KPWT 162156Z AUTO 28005KT 10SM CLR 21/11 A3002 RMK AO2 SLP170 T02110111=
202408162056 METAR KPWT 162056Z AUTO 23008KT 10SM CLR 21/11 A3003 RMK AO2 SLP172 T02060111 58008=
202408162006 SPECI KPWT 162006Z AUTO VRB04KT 10SM FEW021 19/13 A3004 RMK AO2=
202408161956 METAR KPWT 161956Z AUTO 07003KT 10SM BKN021 18/13 A3004 RMK AO2 SLP175 T01830133=
202408161856 METAR KPWT 161856Z AUTO 26005KT 10SM OVC019 17/13 A3005 RMK AO2 SLP179 T01670128=
202408161756 METAR KPWT 161756Z AUTO 22005KT 10SM OVC019 16/13 A3006 RMK AO2 SLP181 T01560128 10156 20111 53001=
202408161656 METAR KPWT 161656Z AUTO 23004KT 10SM OVC021 15/12 A3005 RMK AO2 SLP180 T01500122=
202408161556 METAR KPWT 161556Z AUTO VRB03KT 10SM BKN021 14/12 A3005 RMK AO2 SLP179 T01440122=
202408161553 SPECI KPWT 161553Z AUTO 15003KT 10SM BKN021 14/12 A3005 RMK AO2=
202408161506 SPECI KPWT 161506Z AUTO 17003KT 10SM SCT023 14/12 A3005 RMK AO2=
202408161456 METAR KPWT 161456Z AUTO 17003KT 10SM BKN023 14/12 A3005 RMK AO2 SLP179 T01390122 51006=
202408161356 METAR KPWT 161356Z AUTO 00000KT 10SM BKN029 13/12 A3005 RMK AO2 SLP178 T01330122=
202408161256 METAR KPWT 161256Z AUTO 00000KT 10SM BKN029 12/12 A3004 RMK AO2 SLP176 T01220117=
202408161234 SPECI KPWT 161234Z AUTO 00000KT 10SM OVC029 12/11 A3004 RMK AO2=
202408161156 METAR KPWT 161156Z AUTO 00000KT 10SM CLR 11/11 A3004 RMK AO2 SLP174 7//// T01110106 10167 20106 55004=
202408161056 METAR KPWT 161056Z AUTO 00000KT 10SM CLR 12/11 A3003 RMK AO2 SLP173 T01220106=
202408160956 METAR KPWT 160956Z AUTO 00000KT 10SM CLR 14/12 A3004 RMK AO2 SLP173 T01390117=
202408160856 METAR KPWT 160856Z AUTO 00000KT 10SM CLR 14/12 A3005 RMK AO2 SLP176 T01390122 58007=
202408160756 METAR KPWT 160756Z AUTO 00000KT 10SM CLR 16/12 A3006 RMK AO2 SLP180 T01560122 402330100=
202408160656 METAR KPWT 160656Z AUTO 00000KT 10SM CLR 16/12 A3006 RMK AO2 SLP181 T01610122=
202408160556 METAR KPWT 160556Z AUTO 20005KT 10SM CLR 17/12 A3007 RMK AO2 SLP184 6//// T01670122 10228 20167 51001=
202408160456 METAR KPWT 160456Z AUTO 19005KT 10SM CLR 18/13 A3007 RMK AO2 SLP184 T01780128=
202408160356 METAR KPWT 160356Z AUTO 20005KT 10SM CLR 18/13 A3007 RMK AO2 SLP186 T01830133=
202408160256 METAR KPWT 160256Z AUTO 19006KT 10SM CLR 19/14 A3007 RMK AO2 SLP185 6//// T01940144 55001=
202408160156 METAR KPWT 160156Z AUTO 21008KT 10SM CLR 21/14 A3006 RMK AO2 SLP182 T02060144=
202408160056 METAR KPWT 160056Z AUTO 23012KT 10SM CLR 22/15 A3006 RMK AO2 SLP181 T02170150=
202408152356 METAR KPWT 152356Z AUTO 22006KT 10SM CLR 23/15 A3007 RMK AO2 SLP185 6//// T02280150 10233 20194 56010=
202408152256 METAR KPWT 152256Z AUTO VRB04KT 10SM FEW032 22/15 A3008 RMK AO2 SLP188 T02220150=
202408152156 METAR KPWT 152156Z AUTO 24005KT 10SM SCT032 22/16 A3009 RMK AO2 SLP192 T02220156=
202408152056 METAR KPWT 152056Z AUTO 16005KT 10SM CLR 22/14 A3010 RMK AO2 SLP195 T02220144 58006=
202408151956 METAR KPWT 151956Z AUTO VRB04KT 10SM FEW024 21/14 A3011 RMK AO2 SLP197 T02110144=
202408151941 SPECI KPWT 151941Z AUTO VRB03KT 10SM SCT024 BKN033 21/14 A3011 RMK AO2=
202408151856 METAR KPWT 151856Z AUTO 19006KT 10SM OVC022 21/15 A3012 RMK AO2 SLP199 T02060150=
202408151756 METAR KPWT 151756Z AUTO VRB03KT 10SM BKN020 20/15 A3012 RMK AO2 SLP202 6//// T02000150 10200 20100 55000=
202408151656 METAR KPWT 151656Z AUTO 00000KT 10SM CLR 18/14 A3012 RMK AO2 SLP200 T01830144=
202408151556 METAR KPWT 151556Z AUTO 20003KT 10SM SCT003 14/14 A3012 RMK AO2 SLP202 T01440144=
202408151458 SPECI KPWT 151458Z AUTO 00000KT 4SM BR OVC003 13/13 A3012 RMK AO2=
202408151456 METAR KPWT 151456Z AUTO 00000KT 1 1/4SM BR OVC003 13/13 A3012 RMK AO2 SLP203 6//// T01280128 53011=
202408151447 SPECI KPWT 151447Z AUTO 00000KT 1/4SM FG OVC003 13/13 A3012 RMK AO2=
202408151438 SPECI KPWT 151438Z AUTO 00000KT 1/2SM FG BKN003 13/13 A3012 RMK AO2=
202408151434 SPECI KPWT 151434Z AUTO 00000KT 1SM BR BKN003 13/13 A3012 RMK AO2=
202408151430 SPECI KPWT 151430Z AUTO 00000KT 2SM BR BKN003 13/13 A3012 RMK AO2 VIS 3/4V5=
202408151421 SPECI KPWT 151421Z AUTO 00000KT 10SM SCT003 12/12 A3012 RMK AO2=
202408151356 METAR KPWT 151356Z AUTO 00000KT 10SM CLR 12/12 A3011 RMK AO2 SLP199 T01220122=
202408151256 METAR KPWT 151256Z AUTO 00000KT 10SM CLR 11/11 A3010 RMK AO2 SLP194 T01110111=
202408151156 METAR KPWT 151156Z AUTO 00000KT 10SM CLR 11/11 A3009 RMK AO2 SLP192 7//// T01110111 10167 20106 50002=
202408151056 METAR KPWT 151056Z AUTO 00000KT 10SM CLR 12/12 A3009 RMK AO2 SLP192 T01220122=
202408150956 METAR KPWT 150956Z AUTO 00000KT 10SM CLR 12/12 A3009 RMK AO2 SLP191 T01170117=
202408150856 METAR KPWT 150856Z AUTO 07003KT 10SM CLR 14/13 A3009 RMK AO2 SLP190 T01440128 55000=
202408150756 METAR KPWT 150756Z AUTO 05004KT 10SM CLR 16/13 A3008 RMK AO2 SLP189 T01560133 402500144=
202408150656 METAR KPWT 150656Z AUTO 06004KT 10SM CLR 16/13 A3008 RMK AO2 SLP189 T01610133=
202408150556 METAR KPWT 150556Z AUTO 00000KT 10SM CLR 16/14 A3009 RMK AO2 SLP190 T01560144 10250 20150 50005=
202408150456 METAR KPWT 150456Z AUTO 00000KT 10SM CLR 18/14 A3009 RMK AO2 SLP190 T01780139=
202408150356 METAR KPWT 150356Z AUTO 00000KT 9SM CLR 18/14 A3008 RMK AO2 SLP189 T01830144=
202408150256 METAR KPWT 150256Z AUTO 00000KT 10SM CLR 23/14 A3007 RMK AO2 SLP185 T02280144 55001=
202408150156 METAR KPWT 150156Z AUTO 00000KT 10SM CLR 24/14 A3007 RMK AO2 SLP184 T02390144=
202408150056 METAR KPWT 150056Z AUTO VRB03KT 10SM FEW049 25/14 A3007 RMK AO2 SLP184 T02500144=
202408142356 METAR KPWT 142356Z AUTO 00000KT 10SM SCT045 24/14 A3008 RMK AO2 SLP186 6//// T02440144 10250 20200 56011=
202408142256 METAR KPWT 142256Z AUTO VRB04KT 10SM BKN041 24/14 A3008 RMK AO2 SLP189 T02390144=
202408142156 METAR KPWT 142156Z AUTO 00000KT 10SM OVC037 24/15 A3010 RMK AO2 SLP194 T02390150=
202408142056 METAR KPWT 142056Z AUTO 01003KT 10SM OVC040 23/14 A3011 RMK AO2 SLP197 6//// T02330144=
202408141956 METAR KPWT 141956Z AUTO 16004KT 10SM OVC030 22/14 A3012 RMK AO2 SLP200 T02170144=
202408141903 SPECI KPWT 141903Z AUTO 00000KT 10SM OVC030 21/14 A3012 RMK AO2=
202408141856 METAR KPWT 141856Z AUTO VRB03KT 10SM OVC028 21/14 RMK AO2 SLPNO T02060144 $=
202408141810 SPECI KPWT 141810Z AUTO VRB03KT 10SM BKN026 21/14 A3012 RMK AO2=
202408141756 METAR KPWT 141756Z AUTO 36003KT 10SM SCT024 21/14 A3012 RMK AO2 SLP201 T02110144 10211 20144 58002=
202408141656 METAR KPWT 141656Z AUTO 00000KT 10SM CLR 19/14 A3012 RMK AO2 SLP202 T01940144=
202408141556 METAR KPWT 141556Z AUTO 17003KT 10SM FEW048 SCT060 16/14 A3012 RMK AO2 SLP203 T01610144=
202408141456 METAR KPWT 141456Z AUTO 00000KT 10SM BKN033 16/14 A3012 RMK AO2 SLP204 T01560144 53009=
202408141356 METAR KPWT 141356Z AUTO 00000KT 10SM SCT033 14/14 A3011 RMK AO2 SLP200 T01440144=
202408141256 METAR KPWT 141256Z AUTO 00000KT 10SM OVC033 14/14 A3010 RMK AO2 SLP196 T01440139=
202408141156 METAR KPWT 141156Z AUTO 00000KT 10SM OVC035 14/14 A3010 RMK AO2 SLP194 7//// T01440139 10161 20144 53001=
202408141056 METAR KPWT 141056Z AUTO 00000KT 10SM SCT037 15/14 A3009 RMK AO2 SLP194 T01500139=
202408140956 METAR KPWT 140956Z AUTO 00000KT 10SM SCT038 15/14 A3009 RMK AO2 SLP193 T01500139=
202408140856 METAR KPWT 140856Z AUTO 00000KT 10SM OVC038 15/14 A3009 RMK AO2 SLP194 T01500139 55001=
202408140756 METAR KPWT 140756Z AUTO 00000KT 10SM FEW040 16/14 A3009 RMK AO2 SLP193 T01560139 402000139=
202408140656 METAR KPWT 140656Z AUTO 00000KT 10SM CLR 16/14 A3010 RMK AO2 SLP194 T01560139=
202408140556 METAR KPWT 140556Z AUTO 00000KT 10SM CLR 16/14 A3010 RMK AO2 SLP196 6//// T01610144 10200 20161 51009=
202408140456 METAR KPWT 140456Z AUTO 20003KT 10SM OVC042 17/14 A3010 RMK AO2 SLP196 T01670139=
202408140356 METAR KPWT 140356Z AUTO 19003KT 10SM OVC040 17/14 A3009 RMK AO2 SLP192 T01720139=
202408140256 METAR KPWT 140256Z AUTO 22006KT 10SM OVC040 18/14 A3007 RMK AO2 SLP185 6//// T01830139 53003=
202408140156 METAR KPWT 140156Z AUTO 19006KT 10SM OVC042 19/13 A3007 RMK AO2 SLP184 T01890133=
202408140056 METAR KPWT 140056Z AUTO 22008KT 10SM SCT035 OVC044 19/13 A3006 RMK AO2 SLP182 T01940133=
202408132356 METAR KPWT 132356Z AUTO 22004KT 10SM OVC047 19/13 A3006 RMK AO2 SLP183 T01940128 10200 20167 50001=
202408132256 METAR KPWT 132256Z AUTO 22004KT 10SM OVC047 19/13 A3006 RMK AO2 SLP183 T01940128=
202408132156 METAR KPWT 132156Z AUTO VRB03KT 10SM OVC045 19/12 A3006 RMK AO2 SLP182 T01890122=
202408132121 SPECI KPWT 132121Z AUTO 23005KT 10SM OVC031 19/12 A3006 RMK AO2=
202408132056 METAR KPWT 132056Z AUTO VRB04KT 10SM OVC029 19/12 A3006 RMK AO2 SLP181 T01890122 53003=
202408131956 METAR KPWT 131956Z AUTO 23004KT 10SM BKN023 BKN044 18/13 A3005 RMK AO2 SLP180 T01830133=
202408131856 METAR KPWT 131856Z AUTO 18006KT 10SM BKN019 OVC046 18/13 A3005 RMK AO2 SLP179 T01780133=
202408131756 METAR KPWT 131756Z AUTO 21004KT 10SM OVC017 16/13 A3005 RMK AO2 SLP180 T01610133 10161 20139 51010=
202408131712 SPECI KPWT 131712Z AUTO 22004KT 10SM OVC015 16/13 A3004 RMK AO2=
202408131656 METAR KPWT 131656Z AUTO 21005KT 10SM OVC013 16/13 A3004 RMK AO2 SLP177 T01560133=
202408131556 METAR KPWT 131556Z AUTO 19005KT 10SM OVC011 16/13 A3003 RMK AO2 SLP172 T01560133=
202408131456 METAR KPWT 131456Z AUTO 20004KT 10SM OVC011 14/13 A3002 RMK AO2 SLP169 T01440133 51009=
202408131356 METAR KPWT 131356Z AUTO 00000KT 10SM OVC011 14/13 A3001 RMK AO2 SLP166 T01440133=
202408131334 SPECI KPWT 131334Z AUTO 00000KT 10SM BKN011 14/13 A3001 RMK AO2=
202408131256 METAR KPWT 131256Z AUTO 00000KT 10SM SCT011 14/13 A3000 RMK AO2 SLP163 T01390133=
202408131156 METAR KPWT 131156Z AUTO 00000KT 10SM CLR 14/13 A2999 RMK AO2 SLP158 7//// T01390128 10161 20139 52003=
202408131056 METAR KPWT 131056Z AUTO 20003KT 10SM CLR 14/13 A2999 RMK AO2 SLP158 T01390128=
202408130956 METAR KPWT 130956Z AUTO 20004KT 10SM CLR 14/13 A2999 RMK AO2 SLP155 T01440128=
202408130856 METAR KPWT 130856Z AUTO 18005KT 10SM CLR 14/12 A2998 RMK AO2 SLP156 T01440122 58001=
202408130756 METAR KPWT 130756Z AUTO 19003KT 10SM CLR 15/12 A2999 RMK AO2 SLP157 T01500122 402330128=
202408130656 METAR KPWT 130656Z AUTO 00000KT 10SM CLR 16/12 A2999 RMK AO2 SLP157 T01610117=
202408130556 METAR KPWT 130556Z AUTO 00000KT 10SM CLR 16/11 A2999 RMK AO2 SLP157 T01610111 10233 20161 51005=
202408130456 METAR KPWT 130456Z AUTO 21005KT 10SM CLR 17/12 A2999 RMK AO2 SLP158 T01670117=
202408130356 METAR KPWT 130356Z AUTO 23008KT 10SM OVC055 18/12 A2998 RMK AO2 SLP154 T01780117=
202408130256 METAR KPWT 130256Z AUTO 23011KT 10SM FEW050 18/12 A2997 RMK AO2 SLP153 T01830117 53009=
202408130156 METAR KPWT 130156Z AUTO 22009KT 10SM OVC048 20/11 A2996 RMK AO2 SLP148 T02000111=
202408130056 METAR KPWT 130056Z AUTO 21009KT 10SM SCT048 21/11 A2995 RMK AO2 SLP144 T02110106=
202408122356 METAR KPWT 122356Z AUTO 22008KT 10SM BKN044 23/11 A2995 RMK AO2 SLP142 6//// T02280106 10228 20172 56010=
202408122256 METAR KPWT 122256Z AUTO 20009G18KT 10SM BKN044 22/11 A2995 RMK AO2 SLP144 T02220111=
202408122156 METAR KPWT 122156Z AUTO 21009G16KT 10SM SCT040 BKN047 22/12 A2997 RMK AO2 SLP151 T02220117=
202408122056 METAR KPWT 122056Z AUTO 20008KT 10SM FEW042 21/12 A2998 RMK AO2 SLP153 T02110122 56004=
202408121956 METAR KPWT 121956Z AUTO 21006KT 10SM FEW029 OVC035 19/12 A2998 RMK AO2 SLP155 T01890122=
202408121948 SPECI KPWT 121948Z AUTO 23009KT 10SM SCT029 OVC035 18/12 A2998 RMK AO2=
202408121904 SPECI KPWT 121904Z AUTO 20009KT 10SM BKN029 OVC035 18/12 A2998 RMK AO2=
202408121856 METAR KPWT 121856Z AUTO 23006KT 10SM SCT029 OVC035 18/12 A2998 RMK AO2 SLP155 T01830117=
202408121839 SPECI KPWT 121839Z AUTO 20009KT 10SM OVC030 18/12 A2999 RMK AO2=
202408121830 SPECI KPWT 121830Z AUTO 19009KT 10SM OVC028 18/12 A2999 RMK AO2=
202408121804 SPECI KPWT 121804Z AUTO 20009KT 10SM SCT021 OVC030 17/12 A2999 RMK AO2=
202408121756 METAR KPWT 121756Z AUTO 18008KT 10SM BKN021 OVC030 17/12 A2999 RMK AO2 SLP158 T01720122 10172 20128 50001=
202408121656 METAR KPWT 121656Z AUTO 20009KT 10SM BKN020 OVC026 16/12 A2999 RMK AO2 SLP157 T01560117=
202408121638 SPECI KPWT 121638Z AUTO 19007KT 10SM BKN022 OVC028 16/12 A2999 RMK AO2=
202408121607 SPECI KPWT 121607Z AUTO 17007KT 10SM OVC030 16/12 A2999 RMK AO2=
202408121556 METAR KPWT 121556Z AUTO 20009KT 10SM FEW012 OVC028 15/12 A2999 RMK AO2 SLP159 T01500122=
202408121540 SPECI KPWT 121540Z AUTO 20007KT 10SM SCT012 OVC028 14/13 A2999 RMK AO2=
202408121456 METAR KPWT 121456Z AUTO 19005KT 10SM BKN012 BKN028 14/13 A2999 RMK AO2 SLP157 T01390128 51010=
202408121356 METAR KPWT 121356Z AUTO 19007KT 10SM OVC010 13/12 A2998 RMK AO2 SLP155 T01280122=
202408121256 METAR KPWT 121256Z AUTO 16004KT 10SM OVC012 13/12 A2997 RMK AO2 SLP151 T01280122=
202408121156 METAR KPWT 121156Z AUTO 17003KT 10SM OVC010 13/13 A2995 RMK AO2 SLP147 6//// 7//// T01330128 10133 20106 56002=
202408121056 METAR KPWT 121056Z AUTO 18003KT 10SM OVC010 13/13 A2996 RMK AO2 SLP147 T01330128=
202408120956 METAR KPWT 120956Z AUTO 18004KT 10SM OVC010 13/13 A2996 RMK AO2 SLP148 T01330128=
202408120935 SPECI KPWT 120935Z AUTO 18003KT 10SM BKN010 BKN026 13/13 A2996 RMK AO2=
202408120856 METAR KPWT 120856Z AUTO 19005KT 10SM OVC024 13/12 A2996 RMK AO2 SLP149 T01330122 58005=
202408120756 METAR KPWT 120756Z AUTO 20005KT 10SM OVC028 13/13 A2997 RMK AO2 SLP152 T01330128 401890106=
202408120724 SPECI KPWT 120724Z AUTO 00000KT 10SM OVC029 12/12 A2998 RMK AO2=
202408120656 METAR KPWT 120656Z AUTO 00000KT 10SM SCT033 11/11 A2998 RMK AO2 SLP154 T01110111=
202408120556 METAR KPWT 120556Z AUTO 00000KT 10SM CLR 13/12 A2998 RMK AO2 SLP154 T01330122 10189 20122 58001=
202408120456 METAR KPWT 120456Z AUTO 00000KT 10SM CLR 14/13 A2998 RMK AO2 SLP155 T01440128=
202408120413 SPECI KPWT 120413Z AUTO 18004KT 10SM SCT025 16/13 A2998 RMK AO2=
202408120356 METAR KPWT 120356Z AUTO 17004KT 10SM OVC025 17/13 A2998 RMK AO2 SLP156 T01670133=
202408120256 METAR KPWT 120256Z AUTO 00000KT 10SM OVC019 18/14 A2998 RMK AO2 SLP155 T01780144 55005=
202408120156 METAR KPWT 120156Z AUTO 20004KT 10SM OVC019 18/14 A2998 RMK AO2 SLP155 T01780144=
202408120056 METAR KPWT 120056Z AUTO 21006KT 10SM OVC019 18/14 A2999 RMK AO2 SLP158 T01830144=
202408112356 METAR KPWT 112356Z AUTO 20006KT 10SM OVC019 19/14 A3000 RMK AO2 SLP160 T01890144 10189 20156 58012=
202408112256 METAR KPWT 112256Z AUTO 21007KT 10SM OVC017 19/14 A3001 RMK AO2 SLP165 T01890144=
202408112156 METAR KPWT 112156Z AUTO 21009KT 10SM OVC015 18/15 A3002 RMK AO2 SLP169 T01780150=
202408112129 SPECI KPWT 112129Z AUTO 20009KT 10SM OVC015 18/15 A3003 RMK AO2=
202408112056 METAR KPWT 112056Z AUTO 21007KT 10SM OVC011 17/15 A3003 RMK AO2 SLP173 T01720150 58008=
202408112036 SPECI KPWT 112036Z AUTO 20007KT 10SM OVC011 17/15 A3004 RMK AO2=
202408111956 METAR KPWT 111956Z AUTO 18006KT 10SM OVC009 16/15 A3004 RMK AO2 SLP177 T01610150=
202408111856 METAR KPWT 111856Z AUTO 18005KT 10SM OVC009 16/15 A3005 RMK AO2 CIG 008V013 SLP180 T01560150=
202408111841 SPECI KPWT 111841Z AUTO 20006KT 10SM BKN009 OVC015 16/15 A3005 RMK AO2 CIG 008V012=
202408111813 SPECI KPWT 111813Z AUTO 18006KT 10SM OVC012 16/15 A3006 RMK AO2=
202408111756 METAR KPWT 111756Z AUTO 19005KT 10SM BKN008 OVC016 16/15 A3006 RMK AO2 CIG 006V011 SLP181 6//// T01560150 10156 20133 56002=
202408111749 SPECI KPWT 111749Z AUTO 19005KT 10SM SCT008 OVC016 16/16 A3006 RMK AO2=
202408111656 METAR KPWT 111656Z AUTO 20007KT 9SM BKN006 OVC012 15/15 A3006 RMK AO2 RAB18E43 CIG 004V010 SLP182 P0001 T01500150=
202408111642 SPECI KPWT 111642Z AUTO 21006KT 8SM -RA BKN006 BKN010 OVC015 14/14 A3006 RMK AO2 RAB18 P0001=
202408111556 METAR KPWT 111556Z AUTO 20004KT 4SM BR BKN004 OVC010 14/14 A3006 RMK AO2 RAE47 CIG 003V007 SLP182 P0000 T01440144=
202408111513 SPECI KPWT 111513Z AUTO 20005KT 4SM -RA BR BKN004 OVC010 14/14 A3006 RMK AO2 P0000=
202408111456 METAR KPWT 111456Z AUTO 19003KT 2SM -RA BR OVC004 14/14 A3006 RMK AO2 VIS 1 1/2V5 RAB21E34B55 CIG 003V008 SLP182 P0000 60000 T01390139 52009=
202408111435 SPECI KPWT 111435Z AUTO 20004KT 6SM BR OVC004 14/14 A3005 RMK AO2 RAB21E34 CIG 003V008 P0000=
202408111413 SPECI KPWT 111413Z AUTO 00000KT 2 1/2SM BR OVC004 14/14 A3005 RMK AO2 VIS 2V4=
202408111356 METAR KPWT 111356Z AUTO 19003KT 6SM BR OVC004 14/14 A3005 RMK AO2 RAE14 SLP178 P0000 T01390139=
202408111256 METAR KPWT 111256Z AUTO 20003KT 4SM -RA BR OVC004 14/14 A3004 RMK AO2 RAB54 SLP175 P0000 T01390139=
202408111156 METAR KPWT 111156Z AUTO 21004KT 7SM OVC004 14/14 A3004 RMK AO2 SLP172 7//// T01390139 10156 20139 55000=
202408111056 METAR KPWT 111056Z AUTO 21005KT 6SM BR OVC004 14/14 A3003 RMK AO2 SLP171 T01390139=
202408110956 METAR KPWT 110956Z AUTO 22007KT 5SM BR OVC004 14/14 A3004 RMK AO2 SLP173 T01390139=
202408110856 METAR KPWT 110856Z AUTO 21006KT 10SM OVC004 14/14 A3004 RMK AO2 SLP172 T01440144 51006=
202408110756 METAR KPWT 110756Z AUTO 21006KT 10SM OVC004 15/15 A3003 RMK AO2 SLP173 T01500150 402670133=
202408110741 SPECI KPWT 110741Z AUTO 22007KT 10SM OVC004 15/15 A3003 RMK AO2=
202408110656 METAR KPWT 110656Z AUTO 22006KT 10SM OVC006 16/16 A3003 RMK AO2 SLP171 T01560156=
202408110621 SPECI KPWT 110621Z AUTO 20005KT 10SM BKN006 15/15 A3002 RMK AO2=
202408110612 SPECI KPWT 110612Z AUTO 21005KT 10SM SCT008 14/14 A3002 RMK AO2=
202408110556 METAR KPWT 110556Z AUTO 21004KT 10SM CLR 14/14 A3002 RMK AO2 SLP169 T01440144 10261 20144 51007=
202408110456 METAR KPWT 110456Z AUTO 22005KT 10SM CLR 16/15 A3002 RMK AO2 SLP168 T01560150=
202408110356 METAR KPWT 110356Z AUTO 20005KT 10SM CLR 18/16 A3001 RMK AO2 SLP165 T01780156=
202408110256 METAR KPWT 110256Z AUTO 23008KT 10SM CLR 20/16 A3000 RMK AO2 SLP160 T02000156 53002=
202408110156 METAR KPWT 110156Z AUTO 23008KT 10SM CLR 22/16 A2999 RMK AO2 SLP158 T02220161=
202408110056 METAR KPWT 110056Z AUTO 23007KT 10SM CLR 24/16 A2999 RMK AO2 SLP158 T02390161=
202408102356 METAR KPWT 102356Z AUTO 25007KT 10SM CLR 25/17 A2999 RMK AO2 SLP157 6//// T02500167 10267 20161=
202408102256 METAR KPWT 102256Z AUTO 26007KT 10SM CLR 26/16 A3000 RMK AO2 SLP159 T02610161=
202408102156 METAR KPWT 102156Z AUTO 25007KT 10SM CLR 24/16 A3002 RMK AO2 SLP167 T02390161=
202408102056 METAR KPWT 102056Z AUTO 00000KT 10SM CLR 22/16 RMK AO2 SLPNO T02170156 $=
202408102017 SPECI KPWT 102017Z AUTO 28006KT 10SM SCT014 20/16 A3005 RMK AO2=
202408101956 METAR KPWT 101956Z AUTO 24007KT 210V300 10SM BKN012 19/16 A3005 RMK AO2 SLP178 T01940156=
202408101929 SPECI KPWT 101929Z AUTO 24006KT 10SM OVC010 18/15 A3006 RMK AO2 CIG 008V012=
202408101856 METAR KPWT 101856Z AUTO 22006KT 10SM OVC008 17/16 A3006 RMK AO2 SLP183 T01720156=
202408101756 METAR KPWT 101756Z AUTO 21007KT 10SM OVC006 16/15 A3007 RMK AO2 SLP185 T01610150 10161 20139 51003=
202408101736 SPECI KPWT 101736Z AUTO 20006KT 10SM OVC006 16/15 A3007 RMK AO2=
202408101656 METAR KPWT 101656Z AUTO 22006KT 10SM OVC004 16/15 A3006 RMK AO2 SLP183 T01560150=
202408101636 SPECI KPWT 101636Z AUTO 22006KT 10SM OVC004 15/15 A3006 RMK AO2=
202408101556 METAR KPWT 101556Z AUTO 21007KT 10SM OVC002 14/14 A3007 RMK AO2 SLP183 T01440144=
202408101456 METAR KPWT 101456Z AUTO 21006KT 5SM BR OVC002 14/14 A3006 RMK AO2 SLP179 T01440144 51013=
202408101424 SPECI KPWT 101424Z AUTO 22007KT 4SM BR OVC002 14/14 A3005 RMK AO2=
202408101411 SPECI KPWT 101411Z AUTO 22007KT 2 1/2SM BR OVC002 14/14 A3005 RMK AO2 VIS 1 1/2V4=
202408101356 METAR KPWT 101356Z AUTO 22007KT 1 1/2SM BR OVC002 14/14 A3005 RMK AO2 VIS 1V3 SLP177 T01390139=
202408101344 SPECI KPWT 101344Z AUTO 20007KT 1 1/4SM BR OVC002 14/14 A3005 RMK AO2=
202408101329 SPECI KPWT 101329Z AUTO 20006KT 2SM BR OVC002 14/14 A3004 RMK AO2=
202408101323 SPECI KPWT 101323Z AUTO 20005KT 1SM BR OVC002 14/14 A3004 RMK AO2=
202408101306 SPECI KPWT 101306Z AUTO 21006KT 1 3/4SM BR OVC002 14/14 A3004 RMK AO2 VIS 3/4V5=
202408101256 METAR KPWT 101256Z AUTO 22006KT 6SM BR OVC002 14/14 A3004 RMK AO2 SLP173 T01390139=
202408101156 METAR KPWT 101156Z AUTO 22006KT 5SM BR OVC002 14/14 A3002 RMK AO2 SLP167 7//// T01390139 10172 20133 51006=
202408101116 SPECI KPWT 101116Z AUTO 22006KT 5SM BR OVC002 14/14 A3002 RMK AO2=
202408101108 SPECI KPWT 101108Z AUTO 22006KT 2 1/2SM BR OVC002 14/14 A3002 RMK AO2 VIS 1 1/4V5=
202408101056 METAR KPWT 101056Z AUTO 20005KT 1 3/4SM BR OVC002 14/14 A3001 RMK AO2 VIS 1 1/4V2 1/2 SLP164 T01390139=
202408101046 SPECI KPWT 101046Z AUTO 21005KT 1SM BR OVC002 14/14 A3002 RMK AO2=
202408101021 SPECI KPWT 101021Z AUTO 21006KT 1 3/4SM BR OVC002 14/14 A3001 RMK AO2 VIS 1V4=
202408100956 METAR KPWT 100956Z AUTO 22006KT 6SM BR OVC002 14/14 A3000 RMK AO2 SLP161 T01440144=
202408100943 SPECI KPWT 100943Z AUTO 22008KT 9SM OVC002 14/14 A3000 RMK AO2=
202408100903 SPECI KPWT 100903Z AUTO 21004KT 10SM BKN004 14/14 A3000 RMK AO2=
202408100856 METAR KPWT 100856Z AUTO 20005KT 10SM SCT004 14/14 A3000 RMK AO2 SLP160 T01390139 51003=
202408100854 SPECI KPWT 100854Z AUTO 20005KT 10SM SCT004 14/14 A3000 RMK AO2=
202408100756 METAR KPWT 100756Z AUTO 22004KT 10SM CLR 14/14 A2999 RMK AO2 SLP157 T01390139 403060133=
202408100656 METAR KPWT 100656Z AUTO 21005KT 10SM CLR 16/15 A2999 RMK AO2 SLP157 T01560150=
202408100556 METAR KPWT 100556Z AUTO 21004KT 10SM CLR 17/16 A2997 RMK AO2 SLP150 6//// T01720161 10300 20172 51009=
202408100456 METAR KPWT 100456Z AUTO 22004KT 10SM CLR 19/17 A2997 RMK AO2 SLP149 T01940172=
202408100356 METAR KPWT 100356Z AUTO 20004KT 10SM CLR 22/17 A2995 RMK AO2 SLP143 T02220172=
202408100256 METAR KPWT 100256Z AUTO 00000KT 10SM CLR 26/16 A2994 RMK AO2 SLP142 T02560156 53007=
202408100156 METAR KPWT 100156Z AUTO 12003KT 10SM CLR 28/16 A2992 RMK AO2 SLP134 T02780161=
202408100056 METAR KPWT 100056Z AUTO 22006KT 10SM CLR 29/16 A2992 RMK AO2 SLP133 T02890156=
202408092356 METAR KPWT 092356Z AUTO 21008KT 10SM CLR 30/16 A2992 RMK AO2 SLP133 T03000161 10306 20228 56015=
202408092256 METAR KPWT 092256Z AUTO 27008KT 10SM CLR 31/15 A2993 RMK AO2 SLP135 T03060150=
202408092156 METAR KPWT 092156Z AUTO VRB03KT 9SM CLR 28/17 A2995 RMK AO2 SLP142 T02830172=
202408092056 METAR KPWT 092056Z AUTO VRB04KT 10SM CLR 28/17 A2997 RMK AO2 SLP147 T02780172 57008=
202408091956 METAR KPWT 091956Z AUTO 20004KT 10SM CLR 26/17 A2998 RMK AO2 SLP153 T02560167=
202408091856 METAR KPWT 091856Z AUTO VRB03KT 6SM HZ CLR 27/17 A2998 RMK AO2 SLP152 T02670167=
202408091756 METAR KPWT 091756Z AUTO VRB03KT 10SM CLR 23/17 A2999 RMK AO2 SLP157 6//// T02280167 10228 20133 50002=
202408091656 METAR KPWT 091656Z AUTO 24003KT 10SM CLR 22/16 A2999 RMK AO2 SLP157 T02220161=
202408091556 METAR KPWT 091556Z AUTO 00000KT 10SM CLR 18/16 A2999 RMK AO2 SLP156 T01830156=
202408091456 METAR KPWT 091456Z AUTO 22003KT 10SM CLR 16/16 A2998 RMK AO2 SLP155 T01610156 53010=
202408091356 METAR KPWT 091356Z AUTO 22003KT 10SM CLR 14/14 A2997 RMK AO2 SLP151 T01390139=
202408091256 METAR KPWT 091256Z AUTO 00000KT 10SM CLR 15/15 A2996 RMK AO2 SLP147 T01500150=
202408091156 METAR KPWT 091156Z AUTO 00000KT 10SM CLR 16/16 A2995 RMK AO2 SLP144 7//// T01560156 10200 20150 52000=
202408091056 METAR KPWT 091056Z AUTO 20004KT 10SM CLR 16/16 A2995 RMK AO2 SLP143 T01610161=
202408090956 METAR KPWT 090956Z AUTO 00000KT 10SM CLR 15/14 A2995 RMK AO2 SLP144 T01500139=
202408090856 METAR KPWT 090856Z AUTO 00000KT 10SM CLR 16/14 A2995 RMK AO2 SLP143 T01610139 50004=
202408090756 METAR KPWT 090756Z AUTO 00000KT 10SM CLR 17/14 A2996 RMK AO2 SLP145 T01720144 403110122=
202408090656 METAR KPWT 090656Z AUTO 00000KT 10SM CLR 19/14 A2995 RMK AO2 SLP143 T01890144=
202408090556 METAR KPWT 090556Z AUTO 00000KT 10SM CLR 20/14 A2994 RMK AO2 SLP140 6//// T02000144 10306 20200 51008=
202408090456 METAR KPWT 090456Z AUTO 00000KT 10SM CLR 21/14 A2994 RMK AO2 SLP140 T02060144=
202408090356 METAR KPWT 090356Z AUTO 05005KT 10SM CLR 23/15 A2993 RMK AO2 SLP136 T02330150=
202408090256 METAR KPWT 090256Z AUTO 07005KT 10SM CLR 26/16 A2991 RMK AO2 SLP130 T02560161 53001=
202408090156 METAR KPWT 090156Z AUTO 07006KT 10SM CLR 28/16 A2990 RMK AO2 SLP127 T02780161=
202408090056 METAR KPWT 090056Z AUTO 05008KT 10SM CLR 29/16 A2990 RMK AO2 SLP127 T02940156=
202408082356 METAR KPWT 082356Z AUTO 05008KT 10SM CLR 31/16 A2991 RMK AO2 SLP129 6//// T03060161 10311 20228 56018=
202408082256 METAR KPWT 082256Z AUTO 04006KT 8SM CLR 31/16 A2992 RMK AO2 SLP134 T03060156=
202408082156 METAR KPWT 082156Z AUTO 04007KT 10SM CLR 29/15 A2995 RMK AO2 SLP142 T02940150=
202408082056 METAR KPWT 082056Z AUTO 06005KT 10SM CLR 28/15 A2996 RMK AO2 SLP148 6//// T02830150 56016=
202408081956 METAR KPWT 081956Z AUTO VRB04KT 10SM CLR 27/15 A2998 RMK AO2 SLP153 T02670150=
202408081856 METAR KPWT 081856Z AUTO 05009KT 10SM CLR 25/14 A2999 RMK AO2 SLP157 T02500144=
202408081756 METAR KPWT 081756Z AUTO 06007KT 10SM CLR 23/15 A3001 RMK AO2 SLP163 6//// T02280150 10233 20122 56003=
202408081656 METAR KPWT 081656Z AUTO 04007KT 10SM CLR 22/14 A3001 RMK AO2 SLP164 T02170139=
202408081556 METAR KPWT 081556Z AUTO 06004KT 10SM CLR 20/14 A3002 RMK AO2 SLP166 T02000144=
202408081456 METAR KPWT 081456Z AUTO 03004KT 10SM CLR 18/14 A3002 RMK AO2 SLP167 T01830144 50000=
202408081356 METAR KPWT 081356Z AUTO 00000KT 10SM CLR 14/13 A3002 RMK AO2 SLP168 T01390128=
202408081256 METAR KPWT 081256Z AUTO 00000KT 10SM CLR 14/13 A3002 RMK AO2 SLP167 T01440133=
202408081156 METAR KPWT 081156Z AUTO 06004KT 10SM CLR 16/14 A3002 RMK AO2 SLP167 6//// 7//// T01560139 10167 20128 58005=
202408081056 METAR KPWT 081056Z AUTO 06004KT 10SM CLR 16/14 A3003 RMK AO2 SLP170 T01610139=
202408080956 METAR KPWT 080956Z AUTO 00000KT 10SM CLR 14/13 A3003 RMK AO2 SLP171 T01390128=
202408080856 METAR KPWT 080856Z AUTO 00000KT 10SM CLR 14/13 A3004 RMK AO2 SLP173 6//// T01390128 58001=
202408080756 METAR KPWT 080756Z AUTO 00000KT 10SM CLR 14/13 A3004 RMK AO2 SLP174 T01440133 402610111=
202408080656 METAR KPWT 080656Z AUTO 00000KT 10SM CLR 14/13 A3004 RMK AO2 SLP176 T01440128=
202408080556 METAR KPWT 080556Z AUTO 00000KT 10SM CLR 17/14 A3004 RMK AO2 SLP175 6//// T01670139 10261 20156 50001=
202408080456 METAR KPWT 080456Z AUTO 00000KT 10SM CLR 18/14 A3005 RMK AO2 SLP177 T01830144=
202408080356 METAR KPWT 080356Z AUTO 00000KT 10SM CLR 22/14 A3004 RMK AO2 SLP175 T02170144=
202408080256 METAR KPWT 080256Z AUTO 03006KT 10SM CLR 23/14 A3004 RMK AO2 SLP175 T02330144 56010=
202408080156 METAR KPWT 080156Z AUTO 05005KT 10SM CLR 25/15 A3005 RMK AO2 SLP176 T02500150=
202408080056 METAR KPWT 080056Z AUTO 06006KT 10SM CLR 26/15 A3006 RMK AO2 SLP179 T02560150=
202408072356 METAR KPWT 072356Z AUTO 05007KT 10SM CLR 26/15 A3007 RMK AO2 SLP184 T02610150 10261 20178 58022=
202408072256 METAR KPWT 072256Z AUTO 04007KT 10SM CLR 26/15 A3009 RMK AO2 SLP191 T02610150=
202408072156 METAR KPWT 072156Z AUTO VRB05KT 10SM CLR 24/15 A3011 RMK AO2 SLP199 T02390150=
202408072056 METAR KPWT 072056Z AUTO 06007KT 10SM CLR 23/14 A3013 RMK AO2 SLP206 T02330144 58017=
202408071956 METAR KPWT 071956Z AUTO 05006KT 10SM CLR 22/14 A3016 RMK AO2 SLP214 T02170139=
202408071856 METAR KPWT 071856Z AUTO VRB04KT 10SM CLR 20/14 A3017 RMK AO2 SLP220 T02000139=
202408071756 METAR KPWT 071756Z AUTO 06004KT 10SM CLR 18/14 A3019 RMK AO2 SLP225 T01780139 10178 20111 58007=
202408071722 SPECI KPWT 071722Z AUTO VRB04KT 10SM SCT005 16/13 A3019 RMK AO2=
202408071656 METAR KPWT 071656Z AUTO 06006KT 10SM OVC005 14/13 A3020 RMK AO2 SLP229 T01440133=
202408071642 SPECI KPWT 071642Z AUTO 09004KT 10SM OVC005 14/13 A3020 RMK AO2=
202408071556 METAR KPWT 071556Z AUTO 06004KT 8SM OVC003 13/13 A3021 RMK AO2 SLP232 T01280128=
202408071521 SPECI KPWT 071521Z AUTO VRB04KT 3SM BR OVC001 13/13 A3021 RMK AO2=
202408071456 METAR KPWT 071456Z AUTO 07005KT 1 1/2SM BR OVC001 12/12 A3021 RMK AO2 VIS 1/2V4 SLP234 T01220122 53005=
202408071453 SPECI KPWT 071453Z AUTO 07007KT 1 3/4SM BR OVC001 12/12 A3021 RMK AO2 VIS 1/2V4=
202408071447 SPECI KPWT 071447Z AUTO 07005KT 3SM BR OVC001 12/12 A3021 RMK AO2=
202408071425 SPECI KPWT 071425Z AUTO 06004KT 2SM BR OVC001 12/12 A3021 RMK AO2 VIS 1 1/4V3=
202408071417 SPECI KPWT 071417Z AUTO 05004KT 3SM BR OVC001 12/12 A3021 RMK AO2=
202408071410 SPECI KPWT 071410Z AUTO 06006KT 1 1/4SM BR OVC001 12/12 A3021 RMK AO2=
202408071356 METAR KPWT 071356Z AUTO 04005KT 3/4SM BR OVC001 12/12 A3020 RMK AO2 SLP231 T01170117=
202408071351 SPECI KPWT 071351Z AUTO 05005KT 1 1/2SM BR BKN001 12/12 A3020 RMK AO2=
202408071345 SPECI KPWT 071345Z AUTO 04005KT 4SM BR BKN001 12/12 A3020 RMK AO2=
202408071336 SPECI KPWT 071336Z AUTO 04004KT 4SM BR SCT001 12/12 A3020 RMK AO2=
202408071256 METAR KPWT 071256Z AUTO 05004KT 8SM CLR 11/11 A3020 RMK AO2 SLP229 T01110111=
202408071156 METAR KPWT 071156Z AUTO 00000KT 10SM CLR 12/12 A3020 RMK AO2 SLP228 T01170117 10144 20117 53002=
202408071056 METAR KPWT 071056Z AUTO 05003KT 10SM CLR 12/12 A3019 RMK AO2 SLP228 T01220122=
202408070956 METAR KPWT 070956Z AUTO 00000KT 10SM CLR 13/13 A3019 RMK AO2 SLP227 T01280128=
202408070856 METAR KPWT 070856Z AUTO 00000KT 10SM CLR 13/13 A3019 RMK AO2 SLP226 T01280128 50002=
202408070756 METAR KPWT 070756Z AUTO 00000KT 7SM CLR 12/12 A3019 RMK AO2 SLP227 T01170117 402220117=
202408070656 METAR KPWT 070656Z AUTO 00000KT 10SM CLR 13/13 A3019 RMK AO2 SLP226 T01280128=
202408070556 METAR KPWT 070556Z AUTO 20003KT 10SM CLR 14/13 A3018 RMK AO2 SLP223 T01440133 10222 20144 51009=
202408070456 METAR KPWT 070456Z AUTO 20004KT 10SM CLR 14/13 A3018 RMK AO2 SLP222 T01440133=
202408070356 METAR KPWT 070356Z AUTO 00000KT 10SM CLR 17/14 A3017 RMK AO2 SLP220 T01670139=
202408070256 METAR KPWT 070256Z AUTO 22008KT 10SM CLR 19/14 A3016 RMK AO2 SLP216 T01940139 55004=
202408070156 METAR KPWT 070156Z AUTO 19006KT 10SM CLR 21/13 A3015 RMK AO2 SLP213 T02110133=
202408070056 METAR KPWT 070056Z AUTO 00000KT 10SM CLR 22/13 A3016 RMK AO2 SLP215 T02220133=
202408062356 METAR KPWT 062356Z AUTO 00000KT 10SM CLR 21/13 A3017 RMK AO2 SLP218 T02110133 10217 20144 56007=
202408062256 METAR KPWT 062256Z AUTO 25004KT 10SM FEW025 20/13 A3018 RMK AO2 SLP221 T02000133=
202408062254 SPECI KPWT 062254Z AUTO 24004KT 10SM FEW025 21/13 A3018 RMK AO2=
202408062156 METAR KPWT 062156Z AUTO VRB03KT 10SM OVC021 18/13 A3019 RMK AO2 SLP227 T01830133=
202408062056 METAR KPWT 062056Z AUTO VRB04KT 10SM OVC015 17/13 A3019 RMK AO2 SLP227 T01670133 50003=
202408061956 METAR KPWT 061956Z AUTO 20004KT 10SM OVC015 16/13 A3020 RMK AO2 SLP228 T01610133=
202408061856 METAR KPWT 061856Z AUTO 18004KT 10SM OVC016 15/14 A3019 RMK AO2 SLP228 T01500139=
202408061834 SPECI KPWT 061834Z AUTO 19005KT 10SM FEW011 OVC016 15/14 A3019 RMK AO2=
202408061822 SPECI KPWT 061822Z AUTO 21005KT 10SM OVC014 15/14 A3019 RMK AO2=
202408061809 SPECI KPWT 061809Z AUTO 19006KT 10SM FEW006 SCT010 OVC016 14/14 A3019 RMK AO2=
202408061756 METAR KPWT 061756Z AUTO 21004KT 10SM BKN007 OVC012 14/14 A3019 RMK AO2 RAB13E24 CIG 005V010 SLP224 P0000 60000 T01440144 10144 20128 51004=
202408061751 SPECI KPWT 061751Z AUTO 18004KT 10SM OVC010 14/14 A3018 RMK AO2 RAB13E24 CIG 005V013 P0000=
202408061656 METAR KPWT 061656Z AUTO VRB03KT 7SM OVC005 14/14 A3018 RMK AO2 RAB07E23 CIG 003V009 SLP223 P0000 T01390139=
202408061608 SPECI KPWT 061608Z AUTO 19004KT 3SM -RA BR OVC005 13/13 A3017 RMK AO2 RAB07 CIG 003V009 P0000=
202408061556 METAR KPWT 061556Z AUTO 19004KT 6SM BR BKN007 OVC012 13/13 A3017 RMK AO2 RAB47E56 CIG 004V009 SLP220 P0000 T01330133=
202408061542 SPECI KPWT 061542Z AUTO 16004KT 4SM BR BKN007 OVC012 13/13 A3017 RMK AO2 CIG 004V010=
202408061531 SPECI KPWT 061531Z AUTO 18004KT 5SM BR SCT005 BKN010 OVC014 13/13 A3017 RMK AO2 CIG 008V012=
202408061520 SPECI KPWT 061520Z AUTO 18003KT 6SM BR BKN007 OVC012 13/13 A3017 RMK AO2 CIG 003V009=
202408061456 METAR KPWT 061456Z AUTO 18005KT 5SM BR OVC004 13/13 A3016 RMK AO2 RAB26E45 CIG 003V007 SLP217 P0000 60000 T01280128 51010=
202408061442 SPECI KPWT 061442Z AUTO 19004KT 4SM -RA BR OVC004 13/13 A3016 RMK AO2 RAB26 P0000=
202408061423 SPECI KPWT 061423Z AUTO 00000KT 2 1/2SM BR BKN004 OVC010 13/13 A3015 RMK AO2 VIS 1 1/2V5 CIG 003V008=
202408061405 SPECI KPWT 061405Z AUTO 19004KT 4SM BR BKN006 OVC010 13/13 A3015 RMK AO2 CIG 003V008=
202408061356 METAR KPWT 061356Z AUTO 20003KT 5SM BR BKN004 OVC010 13/13 A3015 RMK AO2 CIG 003V008 SLP211 T01280128=
202408061353 SPECI KPWT 061353Z AUTO 20003KT 6SM BR BKN006 OVC010 13/13 A3014 RMK AO2 CIG 003V009=
202408061346 SPECI KPWT 061346Z AUTO VRB03KT 6SM BR BKN005 OVC010 13/13 A3014 RMK AO2 CIG 004V009=
202408061325 SPECI KPWT 061325Z AUTO 00000KT 6SM BR OVC006 13/13 A3014 RMK AO2 CIG 004V010=
202408061318 SPECI KPWT 061318Z AUTO 20003KT 6SM BR OVC004 13/13 A3013 RMK AO2 CIG 003V008=
202408061256 METAR KPWT 061256Z AUTO 20003KT 4SM BR BKN006 OVC009 13/13 A3013 RMK AO2 CIG 003V008 SLP205 T01280128=
202408061156 METAR KPWT 061156Z AUTO 20005KT 10SM BKN007 OVC011 13/13 A3011 RMK AO2 CIG 004V009 SLP198 7//// T01280128 10139 20117 53009=
202408061056 METAR KPWT 061056Z AUTO 20004KT 9SM OVC005 13/13 A3010 RMK AO2 SLP193 T01330133=
202408061042 SPECI KPWT 061042Z AUTO 19005KT 9SM BKN005 OVC009 13/13 A3009 RMK AO2 CIG 004V007=
202408061015 SPECI KPWT 061015Z AUTO 19004KT 10SM OVC007 13/13 A3009 RMK AO2 CIG 004V008=
202408060956 METAR KPWT 060956Z AUTO 20006KT 8SM OVC005 13/13 A3008 RMK AO2 CIG 004V008 SLP190 T01330133=
202408060856 METAR KPWT 060856Z AUTO 20004KT 10SM OVC005 13/13 A3008 RMK AO2 SLP190 T01330133 53004=
202408060829 SPECI KPWT 060829Z AUTO 21004KT 10SM OVC005 13/13 RMK AO2 $=
202408060756 METAR KPWT 060756Z AUTO 18003KT 10SM OVC007 13/13 A3008 RMK AO2 SLP189 T01330133 402390117=
202408060656 METAR KPWT 060656Z AUTO 00000KT 10SM BKN007 12/12 A3007 RMK AO2 SLP186 T01220122=
202408060651 SPECI KPWT 060651Z AUTO 00000KT 10SM SCT007 12/12 A3007 RMK AO2=
202408060556 METAR KPWT 060556Z AUTO 22003KT 10SM CLR 13/13 A3007 RMK AO2 SLP184 T01280128 10233 20128 51019=
202408060456 METAR KPWT 060456Z AUTO 20004KT 10SM CLR 13/13 A3005 RMK AO2 SLP179 T01330133=
202408060356 METAR KPWT 060356Z AUTO 21007KT 10SM CLR 16/13 A3003 RMK AO2 SLP172 T01610133=
202408060256 METAR KPWT 060256Z AUTO 21008KT 10SM CLR 19/14 A3001 RMK AO2 SLP165 T01940139 53002=
202408060156 METAR KPWT 060156Z AUTO 24008KT 10SM CLR 22/14 A3000 RMK AO2 SLP162 T02220144=
202408060056 METAR KPWT 060056Z AUTO 22007KT 10SM CLR 23/14 A3000 RMK AO2 SLP162 T02280139=
202408052356 METAR KPWT 052356Z AUTO 22009KT 10SM CLR 23/14 A3000 RMK AO2 SLP162 6//// T02330139 10239 20161 58008=
202408052256 METAR KPWT 052256Z AUTO 24009KT 10SM CLR 23/14 A3001 RMK AO2 SLP165 T02330139=
202408052156 METAR KPWT 052156Z AUTO 24006KT 10SM CLR 22/14 A3002 RMK AO2 SLP168 T02220144=
202408052056 METAR KPWT 052056Z AUTO VRB05KT 10SM CLR 21/14 A3003 RMK AO2 SLP172 6//// T02060139 58004=
202408051956 METAR KPWT 051956Z AUTO 23008KT 190V260 10SM CLR 19/14 A3004 RMK AO2 SLP175 T01890139=
202408051939 SPECI KPWT 051939Z AUTO 26009KT 10SM SCT016 19/14 A3004 RMK AO2=
202408051856 METAR KPWT 051856Z AUTO VRB06KT 10SM OVC012 17/13 A3004 RMK AO2 SLP177 T01720133=
202408051756 METAR KPWT 051756Z AUTO 22010KT 10SM OVC010 16/13 A3004 RMK AO2 SLP177 T01610133 10161 20133 51005=
202408051753 SPECI KPWT 051753Z AUTO 21008KT 10SM OVC010 16/13 A3004 RMK AO2=
202408051656 METAR KPWT 051656Z AUTO VRB04KT 10SM OVC006 15/14 A3004 RMK AO2 SLP173 T01500139=
202408051640 SPECI KPWT 051640Z AUTO 23007KT 10SM OVC006 14/14 A3003 RMK AO2=
202408051610 SPECI KPWT 051610Z AUTO VRB04KT 10SM OVC004 14/14 A3003 RMK AO2=
202408051556 METAR KPWT 051556Z AUTO 17005KT 9SM OVC002 14/14 A3003 RMK AO2 SLP171 T01390139=
202408051456 METAR KPWT 051456Z AUTO 21006KT 3SM BR OVC002 13/13 A3002 RMK AO2 SLP166 T01330133 53006=
202408051438 SPECI KPWT 051438Z AUTO 22005KT 3SM BR OVC002 13/13 A3001 RMK AO2=
202408051429 SPECI KPWT 051429Z AUTO 20006KT 2 1/2SM BR OVC002 13/13 A3001 RMK AO2 VIS 2V3=
202408051420 SPECI KPWT 051420Z AUTO 21006KT 1 3/4SM BR OVC002 13/13 A3001 RMK AO2=
202408051409 SPECI KPWT 051409Z AUTO 20006KT 2SM BR OVC002 13/13 A3001 RMK AO2 VIS 1 3/4V3=
202408051356 METAR KPWT 051356Z AUTO 19006KT 3SM BR OVC002 13/13 A3001 RMK AO2 SLP164 T01330133=
202408051346 SPECI KPWT 051346Z AUTO 21006KT 5SM BR OVC002 13/13 A3001 RMK AO2=
202408051313 SPECI KPWT 051313Z AUTO 21006KT 2 1/2SM BR OVC002 13/13 A3000 RMK AO2 VIS 1V5=
202408051256 METAR KPWT 051256Z AUTO 22005KT 1 1/4SM BR OVC002 13/13 A3000 RMK AO2 SLP160 T01330133=
202408051252 SPECI KPWT 051252Z AUTO 20005KT 1SM BR OVC002 13/13 A3000 RMK AO2=
202408051234 SPECI KPWT 051234Z AUTO 20005KT 2SM BR OVC002 13/13 A3000 RMK AO2 VIS 1 1/4V5=
202408051156 METAR KPWT 051156Z AUTO 23006KT 5SM BR OVC002 14/14 A2999 RMK AO2 SLP157 T01390139 10156 20117 51007=
202408051108 SPECI KPWT 051108Z AUTO 21005KT 3SM BR OVC002 13/13 A2999 RMK AO2=
202408051056 METAR KPWT 051056Z AUTO 20006KT 2SM BR OVC002 13/13 A2999 RMK AO2 SLP155 T01330133=
202408051050 SPECI KPWT 051050Z AUTO 20006KT 1 3/4SM BR OVC002 13/13 A2999 RMK AO2=
202408051026 SPECI KPWT 051026Z AUTO 20004KT 3SM BR OVC002 14/14 A2998 RMK AO2=
202408050956 METAR KPWT 050956Z AUTO 22005KT 6SM BR OVC004 14/14 A2998 RMK AO2 SLP151 T01390139=
202408050908 SPECI KPWT 050908Z AUTO 22005KT 7SM BKN004 13/13 A2997 RMK AO2=
202408050856 METAR KPWT 050856Z AUTO 21004KT 7SM FEW004 12/12 A2997 RMK AO2 SLP150 T01170117 51008=
202408050756 METAR KPWT 050756Z AUTO 23003KT 10SM CLR 13/13 A2996 RMK AO2 SLP148 T01280128 402890128=
202408050656 METAR KPWT 050656Z AUTO 22003KT 10SM CLR 14/14 A2995 RMK AO2 SLP145 T01440144=
202408050556 METAR KPWT 050556Z AUTO 20004KT 10SM CLR 15/14 A2994 RMK AO2 SLP143 T01500144 10289 20150 53009=
202408050456 METAR KPWT 050456Z AUTO 21003KT 10SM CLR 18/16 A2994 RMK AO2 SLP141 T01780156=
202408050356 METAR KPWT 050356Z AUTO 21004KT 10SM CLR 20/17 A2992 RMK AO2 SLP134 T02000167=
202408050256 METAR KPWT 050256Z AUTO 23007KT 10SM CLR 24/16 A2992 RMK AO2 SLP132 T02440156 55005=
202408050228 SPECI KPWT 050228Z AUTO 23007KT 10SM FEW002 26/16 A2991 RMK AO2=
202408050156 METAR KPWT 050156Z AUTO 23007KT 10SM CLR 27/16 A2991 RMK AO2 SLP129 T02720156=
202408050056 METAR KPWT 050056Z AUTO 22007KT 10SM CLR 28/16 A2992 RMK AO2 SLP134 T02830156=
202408042356 METAR KPWT 042356Z AUTO 27006KT 10SM CLR 29/16 A2993 RMK AO2 SLP137 T02890156 10289 20183 58009=
202408042256 METAR KPWT 042256Z AUTO VRB06KT 10SM CLR 28/15 A2994 RMK AO2 SLP141 T02780150=
202408042156 METAR KPWT 042156Z AUTO 26005KT 10SM CLR 27/16 A2995 RMK AO2 SLP142 T02670161=
202408042056 METAR KPWT 042056Z AUTO 25003KT 10SM CLR 25/17 A2996 RMK AO2 SLP146 T02500167=
202408041956 METAR KPWT 041956Z AUTO 25005KT 10SM CLR 23/16 RMK AO2 SLPNO T02280156 $=
202408041856 METAR KPWT 041856Z AUTO VRB05KT 10SM CLR 20/15 A2998 RMK AO2 SLP153 T02000150=
202408041756 METAR KPWT 041756Z AUTO VRB05KT 10SM FEW008 18/15 A2999 RMK AO2 SLP157 T01830150 10183 20133 50001=
202408041748 SPECI KPWT 041748Z AUTO 19006KT 10SM SCT008 18/15 A2999 RMK AO2=
202408041729 SPECI KPWT 041729Z AUTO 20006KT 10SM OVC006 16/15 A2999 RMK AO2 CIG 002V009=
202408041712 SPECI KPWT 041712Z AUTO VRB03KT 10SM OVC004 15/14 A2999 RMK AO2=
202408041656 METAR KPWT 041656Z AUTO 18004KT 10SM OVC002 14/14 A2999 RMK AO2 SLP160 T01390139=
202408041618 SPECI KPWT 041618Z AUTO 21006KT 5SM BR OVC002 13/13 A2999 RMK AO2=
202408041556 METAR KPWT 041556Z AUTO 22006KT 2 1/2SM BR OVC002 13/13 A2999 RMK AO2 VIS 1V5 SLP157 T01330133=
202408041546 SPECI KPWT 041546Z AUTO 22004KT 2SM BR OVC002 13/13 A2999 RMK AO2 VIS 1V5=
202408041541 SPECI KPWT 041541Z AUTO 20005KT 1SM BR OVC002 13/13 A2999 RMK AO2 VIS 3/4V4=
202408041527 SPECI KPWT 041527Z AUTO 24004KT 3/4SM BR OVC002 13/13 A2999 RMK AO2 VIS 1/4V1 3/4=
202408041456 METAR KPWT 041456Z AUTO 19006KT 1/4SM FG OVC002 13/13 A2999 RMK AO2 SLP156 T01330133 53005=
202408041356 METAR KPWT 041356Z AUTO 22006KT 1/4SM FG OVC002 13/13 A2998 RMK AO2 SLP154 T01330133=
202408041256 METAR KPWT 041256Z AUTO 24005KT 1/4SM FG OVC002 13/13 A2997 RMK AO2 SLP152 T01330133=
202408041232 SPECI KPWT 041232Z AUTO 20005KT 1/4SM FG OVC002 13/13 A2997 RMK AO2=
202408041220 SPECI KPWT 041220Z AUTO 21005KT 1/2SM FG OVC002 14/14 A2997 RMK AO2=
202408041156 METAR KPWT 041156Z AUTO 20004KT 1/4SM FG OVC002 14/14 A2997 RMK AO2 SLP151 7//// T01390139 10200 20133 51001=
202408041123 SPECI KPWT 041123Z AUTO 20005KT 1/4SM FG OVC002 14/14 A2997 RMK AO2=
202408041111 SPECI KPWT 041111Z AUTO 19004KT 1/2SM FG OVC002 14/14 A2997 RMK AO2=
202408041100 SPECI KPWT 041100Z AUTO 19004KT 3/4SM BR OVC002 14/14 A2997 RMK AO2=
202408041056 METAR KPWT 041056Z AUTO 20004KT 1 1/4SM BR OVC002 14/14 A2997 RMK AO2 SLP150 T01440144=
202408041053 SPECI KPWT 041053Z AUTO 21003KT 1 3/4SM BR OVC002 14/14 A2997 RMK AO2 VIS 1 1/4V4=
202408041043 SPECI KPWT 041043Z AUTO 20004KT 6SM BR OVC002 14/14 A2997 RMK AO2=
202408041022 SPECI KPWT 041022Z AUTO 21003KT 10SM BKN004 14/14 A2998 RMK AO2=
202408041013 SPECI KPWT 041013Z AUTO 00000KT 10SM SCT004 14/14 A2997 RMK AO2=
202408040956 METAR KPWT 040956Z AUTO 21003KT 10SM CLR 14/14 A2998 RMK AO2 SLP151 T01390139=
202408040856 METAR KPWT 040856Z AUTO 22003KT 10SM CLR 16/16 A2997 RMK AO2 SLP149 T01560156 51004=
202408040756 METAR KPWT 040756Z AUTO 00000KT 10SM CLR 17/16 A2997 RMK AO2 SLP148 T01670161 402940133=
202408040656 METAR KPWT 040656Z AUTO 20003KT 10SM CLR 18/17 A2997 RMK AO2 SLP149 T01830167=
202408040556 METAR KPWT 040556Z AUTO 00000KT 10SM CLR 19/16 A2996 RMK AO2 SLP146 6//// T01890156 10294 20183 55002=
202408040456 METAR KPWT 040456Z AUTO 00000KT 10SM CLR 20/14 A2995 RMK AO2 SLP146 T02000144=
202408040356 METAR KPWT 040356Z AUTO 00000KT 10SM CLR 23/14 A2995 RMK AO2 SLP145 T02330139=
202408040256 METAR KPWT 040256Z AUTO 04004KT 9SM CLR 26/13 A2996 RMK AO2 SLP147 T02560133 55010=
202408040156 METAR KPWT 040156Z AUTO 03006KT 10SM CLR 27/14 A2996 RMK AO2 SLP146 T02720144=
202408040056 METAR KPWT 040056Z AUTO 33004KT 10SM CLR 29/16 A2997 RMK AO2 SLP149 T02890161=
202408032356 METAR KPWT 032356Z AUTO 16004KT 10SM CLR 28/16 A2999 RMK AO2 SLP158 T02830156 10289 20172 58019=
202408032256 METAR KPWT 032256Z AUTO VRB04KT 10SM CLR 27/16 A3001 RMK AO2 SLP164 T02720156=
202408032156 METAR KPWT 032156Z AUTO 27004KT 9SM CLR 26/16 A3003 RMK AO2 SLP170 T02610156=
202408032056 METAR KPWT 032056Z AUTO VRB04KT 10SM CLR 26/15 A3005 RMK AO2 SLP176 T02560150 58015=
202408031956 METAR KPWT 031956Z AUTO 23005KT 10SM CLR 23/15 A3007 RMK AO2 SLP184 T02330150=
202408031856 METAR KPWT 031856Z AUTO VRB03KT 10SM CLR 21/15 A3008 RMK AO2 SLP190 T02060150=
202408031756 METAR KPWT 031756Z AUTO VRB03KT 10SM CLR 17/15 A3010 RMK AO2 SLP194 T01720150 10172 20139 58006=
202408031745 SPECI KPWT 031745Z AUTO 21006KT 10SM SCT009 17/15 A3010 RMK AO2=
202408031727 SPECI KPWT 031727Z AUTO VRB04KT 10SM BKN007 17/15 A3010 RMK AO2 CIG 005V009=
202408031708 SPECI KPWT 031708Z AUTO 24006KT 10SM OVC005 16/15 A3011 RMK AO2=
202408031656 METAR KPWT 031656Z AUTO 20005KT 10SM OVC003 15/15 A3011 RMK AO2 SLP198 T01500150=
202408031613 SPECI KPWT 031613Z AUTO 25003KT 10SM OVC003 14/14 A3011 RMK AO2=
202408031556 METAR KPWT 031556Z AUTO 23006KT 9SM OVC001 14/14 A3011 RMK AO2 SLP200 T01390139=
202408031536 SPECI KPWT 031536Z AUTO 22004KT 3SM BR OVC001 14/14 A3011 RMK AO2=
202408031513 SPECI KPWT 031513Z AUTO 19004KT 1 1/4SM BR OVC001 14/14 A3012 RMK AO2=
202408031507 SPECI KPWT 031507Z AUTO 20005KT 3/4SM BR OVC001 14/14 A3011 RMK AO2=
202408031456 METAR KPWT 031456Z AUTO 22004KT 1/2SM FG OVC001 14/14 A3011 RMK AO2 SLP199 T01390139 51005=
202408031356 METAR KPWT 031356Z AUTO 21005KT 1/4SM FG OVC001 14/14 A3011 RMK AO2 SLP197 T01390139=
202408031256 METAR KPWT 031256Z AUTO 21005KT 1/4SM FG OVC001 14/14 A3011 RMK AO2 SLP197 T01390139=
202408031156 METAR KPWT 031156Z AUTO 19003KT 1/4SM FG OVC001 14/14 A3010 RMK AO2 SLP194 7//// T01390139 10167 20133 58009=
202408031123 SPECI KPWT 031123Z AUTO 00000KT 1/4SM FG OVC001 14/14 A3011 RMK AO2=
202408031107 SPECI KPWT 031107Z AUTO 00000KT 1/4SM FG OVC003 14/14 A3011 RMK AO2=
202408031056 METAR KPWT 031056Z AUTO 18003KT 1/2SM FG OVC003 14/14 A3012 RMK AO2 SLP200 T01390139=
202408031048 SPECI KPWT 031048Z AUTO 19004KT 1/4SM FG OVC003 14/14 A3012 RMK AO2=
202408031035 SPECI KPWT 031035Z AUTO 21003KT 1/2SM FG OVC003 14/14 A3012 RMK AO2=
202408031011 SPECI KPWT 031011Z AUTO 20003KT 3/4SM BR OVC003 14/14 A3012 RMK AO2=
202408031002 SPECI KPWT 031002Z AUTO 22004KT 1SM BR OVC003 14/14 A3012 RMK AO2 VIS 3/4V4=
202408030956 METAR KPWT 030956Z AUTO 23005KT 2 1/2SM BR OVC003 14/14 A3012 RMK AO2 VIS 1 1/4V5 SLP203 T01440144=
202408030949 SPECI KPWT 030949Z AUTO 24004KT 2 1/2SM BR OVC003 14/14 A3013 RMK AO2 VIS 1 1/2V5=
202408030916 SPECI KPWT 030916Z AUTO 21005KT 1 3/4SM BR OVC003 14/14 A3013 RMK AO2 VIS 1V5=
202408030856 METAR KPWT 030856Z AUTO 19003KT 10SM BKN003 14/14 A3013 RMK AO2 SLP202 T01440144 53003=
202408030848 SPECI KPWT 030848Z AUTO 21003KT 10SM BKN005 14/14 A3012 RMK AO2=
202408030840 SPECI KPWT 030840Z AUTO 21004KT 10SM SCT005 14/14 A3012 RMK AO2=
202408030756 METAR KPWT 030756Z AUTO 20003KT 10SM CLR 14/14 A3012 RMK AO2 SLP200 T01390139 402940139=
202408030656 METAR KPWT 030656Z AUTO 22004KT 10SM CLR 15/15 A3012 RMK AO2 SLP200 T01500150=
202408030556 METAR KPWT 030556Z AUTO 21004KT 10SM CLR 17/16 A3012 RMK AO2 SLP199 T01670161 10294 20167 53009=
202408030456 METAR KPWT 030456Z AUTO 19003KT 10SM CLR 18/17 A3011 RMK AO2 SLP196 T01830172=
202408030356 METAR KPWT 030356Z AUTO 20004KT 10SM CLR 20/18 A3009 RMK AO2 SLP191 T02000178=
202408030256 METAR KPWT 030256Z AUTO 20006KT 10SM CLR 23/18 A3009 RMK AO2 SLP190 T02330178 53001=
202408030156 METAR KPWT 030156Z AUTO 24008KT 10SM CLR 26/18 A3008 RMK AO2 SLP187 T02560178=
202408030056 METAR KPWT 030056Z AUTO 25006KT 10SM CLR 28/17 A3008 RMK AO2 SLP185 T02830172=
202408022356 METAR KPWT 022356Z AUTO 25006KT 10SM CLR 29/18 A3008 RMK AO2 SLP188 6//// T02940178 10294 20233 57012=
202408022256 METAR KPWT 022256Z AUTO 15006KT 10SM CLR 29/17 A3009 RMK AO2 SLP191 T02890172=
202408022156 METAR KPWT 022156Z AUTO 21006KT 10SM CLR 27/18 A3011 RMK AO2 SLP197 T02720178=
202408022056 METAR KPWT 022056Z AUTO 21007KT 10SM CLR 26/18 A3012 RMK AO2 SLP201 6//// T02610183 56004=
202408021956 METAR KPWT 021956Z AUTO 16005KT 10SM CLR 26/18 A3012 RMK AO2 SLP203 T02610178=
202408021856 METAR KPWT 021856Z AUTO 22006KT 10SM CLR 25/18 A3013 RMK AO2 SLP203 T02500178=
202408021756 METAR KPWT 021756Z AUTO 23005KT 10SM CLR 24/18 A3013 RMK AO2 SLP205 T02390178 10239 20150 51001=
202408021656 METAR KPWT 021656Z AUTO 22005KT 10SM CLR 21/17 A3013 RMK AO2 SLP205 T02110172=
202408021556 METAR KPWT 021556Z AUTO 21006KT 10SM CLR 19/17 A3014 RMK AO2 SLP206 T01940172=
202408021456 METAR KPWT 021456Z AUTO 20005KT 10SM CLR 18/17 A3013 RMK AO2 SLP204 T01830167 53011=
202408021356 METAR KPWT 021356Z AUTO 20003KT 10SM CLR 17/17 A3012 RMK AO2 SLP199 T01720167=
202408021256 METAR KPWT 021256Z AUTO 22003KT 10SM CLR 17/17 A3011 RMK AO2 SLP195 T01670167=
202408021156 METAR KPWT 021156Z AUTO 00000KT 10SM CLR 16/15 A3010 RMK AO2 SLP193 6//// 7//// T01610150 10228 20144 51009=
202408021056 METAR KPWT 021056Z AUTO 00000KT 10SM CLR 17/15 A3010 RMK AO2 SLP192 T01720150=
202408020956 METAR KPWT 020956Z AUTO 00000KT 10SM CLR 17/14 A3009 RMK AO2 SLP189 T01670144=
202408020856 METAR KPWT 020856Z AUTO 00000KT 10SM CLR 17/14 A3007 RMK AO2 SLP183 T01720139 51012=
202408020756 METAR KPWT 020756Z AUTO 00000KT 10SM CLR 17/14 A3006 RMK AO2 SLP180 T01720139 403000150=
202408020656 METAR KPWT 020656Z AUTO 00000KT 10SM CLR 19/13 A3006 RMK AO2 SLP178 T01890133=
202408020556 METAR KPWT 020556Z AUTO 00000KT 10SM CLR 22/13 A3003 RMK AO2 SLP170 T02220133 10300 20217=
202408020456 METAR KPWT 020456Z AUTO 05003KT 10SM CLR 22/14 A3003 RMK AO2 SLP168 T02220144=
202408020356 METAR KPWT 020356Z AUTO 05003KT 10SM CLR 24/14 RMK AO2 SLPNO T02440144 $=
202408020256 METAR KPWT 020256Z AUTO 03006KT 10SM CLR 27/16 A3000 RMK AO2 SLP159 T02670161 55001=
202408020156 METAR KPWT 020156Z AUTO 05007KT 10SM CLR 28/16 A3000 RMK AO2 SLP159 T02830161=
202408020056 METAR KPWT 020056Z AUTO 05010KT 10SM CLR 29/15 A3000 RMK AO2 SLP159 T02940150=
202408012356 METAR KPWT 012356Z AUTO 05008KT 10SM CLR 30/16 A3000 RMK AO2 SLP161 T03000156 10300 20250 58009=
202408012256 METAR KPWT 012256Z AUTO 04009KT 10SM CLR 29/16 A3002 RMK AO2 SLP165 T02940161=
202408012156 METAR KPWT 012156Z AUTO 07009KT 10SM CLR 28/16 A3003 RMK AO2 SLP169 T02830161=
202408012056 METAR KPWT 012056Z AUTO 04010KT 10SM CLR 28/17 A3003 RMK AO2 SLP171 T02830167 58007=
202408011956 METAR KPWT 011956Z AUTO 03009KT 10SM CLR 27/17 A3005 RMK AO2 SLP176 T02670167=
202408011856 METAR KPWT 011856Z AUTO 05010KT 5SM HZ CLR 27/17 A3005 RMK AO2 SLP176 T02670167=
202408011756 METAR KPWT 011756Z AUTO 02009G19KT 10SM CLR 26/17 A3006 RMK AO2 SLP179 T02560167 10256 20161=
202408011656 METAR KPWT 011656Z AUTO 04008G16KT 10SM CLR 23/16 RMK AO2 SLPNO T02330161 $=
202408011556 METAR KPWT 011556Z AUTO 04008KT 10SM CLR 21/16 A3007 RMK AO2 SLP184 T02060156=
202408011456 METAR KPWT 011456Z AUTO 05008KT 10SM CLR 18/15 A3007 RMK AO2 SLP183 T01830150 51012=
202408011356 METAR KPWT 011356Z AUTO 06005KT 10SM CLR 17/14 A3006 RMK AO2 SLP180 T01670144=
202408011256 METAR KPWT 011256Z AUTO 07005KT 10SM CLR 16/14 A3005 RMK AO2 SLP176 T01610144=
202408011156 METAR KPWT 011156Z AUTO 06007KT 10SM CLR 16/14 A3003 RMK AO2 SLP172 T01610144 10178 20150 56003=
202408011056 METAR KPWT 011056Z AUTO 06006KT 10SM CLR 16/14 A3004 RMK AO2 SLP172 T01560139=
202408010956 METAR KPWT 010956Z AUTO 06008KT 10SM CLR 16/14 A3004 RMK AO2 SLP172 T01560139=
202408010856 METAR KPWT 010856Z AUTO 07006KT 10SM CLR 16/14 A3004 RMK AO2 SLP175 T01610139 58005=
202408010756 METAR KPWT 010756Z AUTO 06006KT 10SM CLR 17/14 A3005 RMK AO2 SLP178 T01670144 402610150=
202408010656 METAR KPWT 010656Z AUTO 05007KT 10SM CLR 17/14 A3006 RMK AO2 SLP180 T01720144=
202408010556 METAR KPWT 010556Z AUTO 03010KT 10SM CLR 18/14 A3006 RMK AO2 SLP180 T01780144 10256 20178=
202408010456 METAR KPWT 010456Z AUTO 04006KT 10SM CLR 18/14 A3006 RMK AO2 SLP181 T01830144=
202408010356 METAR KPWT 010356Z AUTO 04007KT 10SM CLR 19/15 A3005 RMK AO2 SLP179 T01940150=
202408010256 METAR KPWT 010256Z AUTO 04008KT 10SM CLR 23/16 RMK AO2 SLPNO T02280161 $=
202408010156 METAR KPWT 010156Z AUTO 03008KT 10SM CLR 25/16 A3005 RMK AO2 SLP175 T02500161=
202408010056 METAR KPWT 010056Z AUTO VRB05KT 10SM CLR 26/16 A3005 RMK AO2 SLP175 T02560161=

# No short TAF reports from KPWT in databse.

###################################
#  large TAF from KPWT
###################################
202408312336 TAF KPWT 312336Z 0100/0124 06009KT P6SM SKC FM010600 VRB02KT P6SM
                       SKC FM011800 04005KT P6SM FEW250=
202408311729 TAF KPWT 311729Z 3118/0118 05008KT P6SM SKC FM010700 VRB02KT P6SM
                       SKC=
202408311132 TAF KPWT 311132Z 3112/0112 05008KT P6SM SKC=
202408310552 TAF KPWT 310552Z 3106/0106 06005KT P6SM SKC FM311500 04007KT P6SM
                       SKC FM010400 03008KT P6SM SCT250=
202408302320 TAF KPWT 302320Z 3100/3124 03008KT P6SM SKC FM310400 05006KT P6SM
                       SKC FM311500 04007KT P6SM SKC=
202408301720 TAF KPWT 301720Z 3018/3118 03008KT P6SM SKC=
202408301133 TAF KPWT 301133Z 3012/3112 VRB03KT P6SM SKC FM301600 03008KT P6SM
                       SKC=
202408300542 TAF KPWT 300542Z 3006/3106 05010KT P6SM SKC FM301800 04006KT P6SM
                       SKC=
202408292320 TAF KPWT 292320Z 3000/3024 05010KT P6SM SKC FM300600 05005KT P6SM
                       SKC FM302100 04010KT P6SM SKC=
202408291731 TAF KPWT 291731Z 2918/3018 04011KT P6SM SKC FM300700 05004KT P6SM
                       SKC=
202408291120 TAF KPWT 291120Z 2912/3012 04006KT P6SM SKC FM291700 04011KT P6SM
                       SKC FM300400 05004KT P6SM SKC=
202408290520 TAF KPWT 290520Z 2906/3006 04006KT P6SM SKC FM291700 04011KT P6SM
                       SKC=
202408282320 TAF KPWT 282320Z 2900/2924 04010KT P6SM SKC FM290400 04009KT P6SM
                       SKC FM291000 05006KT P6SM SKC FM291700 05012KT
                       P6SM SKC=
202408281720 TAF KPWT 281720Z 2818/2918 04009KT P6SM SKC FM290000 04008KT P6SM
                       SKC FM291000 05006KT P6SM SKC=
202408281142 TAF KPWT 281142Z 2812/2912 00000KT P6SM FEW005 FEW050 FM281800
                       04006KT P6SM SKC FM290000 04008KT P6SM SKC=
202408280535 TAF KPWT 280535Z 2806/2906 00000KT P6SM SCT060 SCT070 FM281000
                       00000KT P6SM SCT015 FM281800 04006KT P6SM
                       SKC=
202408272329 TAF KPWT 272329Z 2800/2824 05012KT P6SM SCT035 BKN100 FM280300
                       05007KT P6SM FEW040 SCT200 FM281000 VRB03KT
                       P6SM SCT005 SCT200=
202408271901 KPWT 271901Z 2719/2818 15005KT P6SM BKN025 OVC040 FM272000 19009KT
                       P6SM SCT035 BKN100 FM280300 05007KT P6SM
                       FEW040 SCT200 FM281000 VRB03KT P6SM SCT005
                       SCT200=
202408271726 TAF KPWT 271726Z 2718/2818 15005KT P6SM SCT015 FM272000 19009KT
                       P6SM SCT035 BKN100 FM280300 05007KT P6SM
                       FEW040 SCT200 FM281000 VRB03KT P6SM SCT005
                       SCT200=
202408271125 TAF KPWT 271125Z 2712/2812 21006KT P6SM VCSH SCT006 BKN010
                      TEMPO 2712/2716 VRB05KT 4SM -SHRA BKN005
                       FM271700 21008KT P6SM BKN015 BKN030 FM272000
                       19009KT P6SM SCT035 BKN100 FM280300 05007KT
                       P6SM FEW040 SCT200 FM281000 VRB03KT P6SM
                       SCT005 SCT200=
202408270731 KPWT 270731Z 2708/2806 20010KT P6SM VCSH BKN010 FM271800 21009KT
                       P6SM BKN035 FM280200 05007KT P6SM FEW040
                       SCT200=
202408270538 TAF KPWT 270538Z 2706/2806 21009KT P6SM VCSH SCT035 BKN045 FM270900
                       20010KT P6SM OVC015 FM271800 21009KT P6SM
                       BKN100 FM280200 05007KT P6SM SCT250=
202408262332 TAF KPWT 262332Z 2700/2724 19006KT P6SM VCSH BKN040 BKN100 FM270300
                       22010KT P6SM VCSH OVC030 FM270700 19011KT
                       6SM -RA BR OVC015 FM271400 18009KT P6SM
                       BKN050 FM271800 21006G16KT P6SM BKN100=
202408261721 TAF KPWT 261721Z 2618/2718 VRB03KT P6SM SCT100 BKN200 FM262300
                       23009KT P6SM VCSH BKN040 BKN100 FM270300
                       22010KT P6SM VCSH OVC030 FM270700 19011KT
                       6SM -RA BR OVC007 FM271400 18004KT P6SM
                       OVC005=
202408261140 TAF KPWT 261140Z 2612/2712 VRB03KT P6SM FEW003 SCT100 SCT200
                      TEMPO 2612/2616 3SM BR FM261600 21005KT P6SM
                       SCT100 BKN200 FM262300 23007KT P6SM SCT050
                       BKN100 FM270300 22010KT P6SM VCSH OVC050
                       FM270700 19011KT 6SM -RA BR OVC018=
202408260534 TAF KPWT 260534Z 2606/2706 VRB03KT P6SM FEW050 SCT200 FM261300
                       19003KT 6SM BR BKN004 OVC035 FM261700 21005KT
                       P6SM FEW100 SCT180 FM270000 23007KT P6SM
                       BKN110 FM270400 23010KT P6SM -SHRA SCT045
                       OVC050=
202408252329 TAF KPWT 252329Z 2600/2624 VRB04KT P6SM SCT050 FM260700 VRB03KT
                       P6SM FEW050 SCT200 FM261300 19003KT 6SM
                       BR OVC004=
202408251926 KPWT 251926Z 2519/2618 21004KT P6SM SCT018 OVC035 FM252200 VRB04KT
                       P6SM SCT050 FM260700 VRB03KT P6SM FEW050
                       SCT200 FM261300 19003KT 6SM BR OVC004=
202408251730 TAF KPWT 251730Z 2518/2618 19003KT 6SM BR OVC004 FM251930 21004KT
                       P6SM SCT012 BKN025 FM252200 VRB04KT P6SM
                       SCT025 BKN040 FM260200 04004KT P6SM SCT045
                       SCT200 FM260700 VRB03KT P6SM FEW050 SCT200
                       FM261300 19003KT 6SM BR OVC004=
202408251510 KPWT 251510Z 2515/2612 19003KT 4SM BR OVC003 FM251800 21004KT P6SM
                       SCT012 BKN025 FM252200 VRB04KT P6SM SCT025
                       BKN040 FM260200 04004KT P6SM SCT045 SCT200
                       FM260700 VRB03KT P6SM FEW050 SCT200=
202408251314 TAF AMD KPWT 251314Z 2513/2612 19003KT 6SM BR OVC007 FM251800 21004KT
                       P6SM SCT012 BKN025 FM252200 VRB04KT P6SM
                       SCT025 BKN040 FM260200 04004KT P6SM SCT045
                       SCT200 FM260700 VRB03KT P6SM FEW050 SCT200=
202408251120 TAF KPWT 251120Z 2512/2612 19003KT 6SM BR OVC014 FM251800 21004KT
                       P6SM SCT012 BKN025 FM252200 VRB04KT P6SM
                       SCT025 BKN040 FM260200 04004KT P6SM SCT045
                       SCT200 FM260700 VRB03KT P6SM FEW050 SCT200=
202408250848 KPWT 250848Z 2509/2606 17003KT 6SM BR OVC010 FM251900 16004KT P6SM
                       SCT009 OVC020 FM260000 06003KT P6SM BKN035
                       FM260400 36002KT P6SM SCT050=
202408250533 KPWT 250533Z 2506/2606 00000KT 5SM BR OVC005 FM251900 16004KT P6SM
                       SCT009 OVC020 FM260000 06003KT P6SM BKN035
                       FM260400 36002KT P6SM SCT050=
202408250527 TAF KPWT 250527Z 2506/2606 18009KT P6SM SCT020 BKN040 FM250700
                       20004KT P6SM OVC020 FM251200 00000KT 3SM
                       BR OVC005 FM251900 16004KT P6SM SCT009 OVC020
                       FM260000 06003KT P6SM BKN035 FM260400 36002KT
                       P6SM SCT050=
202408250107 KPWT 250107Z 2501/2524 VRB05KT P6SM VCSH BKN012 OVC018 FM250400
                       21008KT P6SM SCT025 OVC040 FM250900 20004KT
                       P6SM OVC020 FM251200 00000KT 3SM BR OVC005
                       FM251900 16004KT P6SM SCT009 OVC015=
202408242320 TAF KPWT 242320Z 2500/2524 21010KT P6SM SCT009 BKN015 FM250200
                       21008KT P6SM SCT025 OVC040 FM250900 20004KT
                       P6SM OVC020 FM251200 00000KT 3SM BR OVC005
                       FM251900 16004KT P6SM SCT009 OVC015=
202408241846 KPWT 241846Z 2419/2518 20010G16KT 6SM -RA BR OVC005 FM242100 21010G16KT
                       6SM BR VCSH BKN015 FM250200 21008KT P6SM
                       SCT025 OVC040 FM250900 20004KT P6SM OVC020=
202408241727 TAF KPWT 241727Z 2418/2518 20010G16KT 6SM -RA BR OVC003 FM242100
                       21010G16KT 6SM BR VCSH BKN015 FM250200 21008KT
                       P6SM SCT025 OVC040 FM250900 20004KT P6SM
                       OVC020=
202408241121 TAF KPWT 241121Z 2412/2512 20010G16KT 6SM -RA BR OVC006 FM242100
                       21010G16KT 6SM BR VCSH BKN015 FM250200 21008KT
                       P6SM SCT025 OVC040 FM250900 20004KT P6SM
                       OVC020=
202408240702 KPWT 240702Z 2407/2506 21010KT 6SM -RA BR BKN005 BKN010 FM241200
                       20012KT 4SM -RA BR OVC004 FM242100 21015G22KT
                       6SM BR BKN015 FM250000 21010KT P6SM SCT025
                       OVC050=
202408240535 TAF KPWT 240535Z 2406/2506 21010KT 6SM -RA BR SCT004 BKN010 FM241200
                       20012KT 4SM -RA BR OVC004 FM242100 21015G22KT
                       6SM BR BKN015 FM250000 21010KT P6SM SCT025
                       OVC050=
202408232320 TAF KPWT 232320Z 2400/2424 21008G16KT 4SM -RA BR BKN015 FM240300
                       20010G20KT 4SM -RA BR OVC015 FM240600 21010G20KT
                       6SM -RA BR OVC025 FM242100 21020KT 3SM BR
                       BKN015=
202408231720 TAF KPWT 231720Z 2318/2418 20004KT 3SM BR OVC003 FM232000 21008G16KT
                       4SM -RA BR BKN015 FM240300 20010G20KT 4SM
                       -RA BR OVC015 FM240600 21010G20KT 6SM -RA
                       BR OVC030=
202408231531 KPWT 231531Z 2316/2412 20002KT 1/2SM FG OVC003 FM232000 21008G16KT
                       6SM -RA BR BKN015 FM240300 20010G20KT 4SM
                       -RA BR OVC015=
202408231140 TAF KPWT 231140Z 2312/2412 22003KT P6SM -RA SCT003 OVC020 FM231300
                       20002KT P6SM VCSH OVC007 FM232000 21008G16KT
                       6SM -RA BR BKN015 FM240300 20010G20KT 4SM
                       -RA BR OVC015=
202408230529 TAF KPWT 230529Z 2306/2406 03003KT P6SM FEW070 FM230900 21002KT
                       P6SM -RA OVC020 FM231300 20002KT P6SM OVC007
                       FM232100 21007KT P6SM VCSH BKN015 FM240300
                       20010KT 5SM -RA BR OVC015=
202408222332 TAF KPWT 222332Z 2300/2324 22008KT P6SM OVC050 FM230700 21002KT
                       P6SM -RA OVC025 FM231000 00000KT P6SM -RA
                       OVC007 FM231300 20002KT 6SM BR OVC015=
202408221720 TAF KPWT 221720Z 2218/2318 00000KT P6SM SCT060 FM222100 05006KT
                       P6SM OVC050 FM230700 21002KT P6SM OVC025
                       FM231000 00000KT 6SM BR OVC007=
202408221125 TAF KPWT 221125Z 2212/2312 06002KT P6SM BKN035 BKN060 FM221500
                       22002KT P6SM OVC025 FM222100 05006KT P6SM
                       OVC050 FM230700 21002KT P6SM OVC025=
202408220541 TAF KPWT 220541Z 2206/2306 00000KT P6SM BKN120 FM220700 00000KT
                       P6SM OVC040 FM221200 06002KT P6SM OVC015
                       FM222100 03006KT P6SM OVC050=
202408212320 TAF KPWT 212320Z 2200/2224 19005KT P6SM -SHRA OVC050 FM220700 00000KT
                       P6SM OVC040 FM221200 06002KT P6SM OVC020
                       FM221700 17004KT P6SM OVC025=
202408211720 TAF KPWT 211720Z 2118/2218 21006KT P6SM OVC010 FM211900 21006KT
                       P6SM SCT025 BKN030 FM212100 19005KT P6SM
                       -SHRA OVC050 FM220700 00000KT 6SM BR VCSH
                       OVC003 FM221200 06002KT 6SM BR OVC007=
202408211526 KPWT 211526Z 2115/2212 21006KT P6SM BKN009 OVC020 FM211900 21006KT
                       P6SM SCT025 BKN030 FM212100 19005KT P6SM
                       -SHRA OVC050 FM220700 00000KT 6SM BR VCSH
                       OVC003=
202408211139 TAF KPWT 211139Z 2112/2212 21003KT P6SM OVC018 FM211900 21006KT
                       P6SM SCT025 BKN030 FM212100 19005KT P6SM
                       -SHRA OVC050 FM220700 00000KT 6SM BR VCSH
                       OVC003=
202408210520 TAF KPWT 210520Z 2106/2206 20004KT P6SM BKN120 FM211000 VRB03KT
                       P6SM OVC020 FM211900 21006KT P6SM SCT025
                       BKN050 FM212100 19005KT P6SM -SHRA OVC050=
202408202320 TAF KPWT 202320Z 2100/2124 21009KT P6SM -SHRA SCT025 OVC070 FM210100
                       21007KT P6SM OVC080 FM211000 VRB03KT P6SM
                       OVC020 FM211900 21006KT P6SM SCT025 BKN050=
202408201720 TAF KPWT 201720Z 2018/2118 20007KT P6SM -SHRA SCT005 OVC025 FM210100
                       21007KT P6SM OVC080 FM211000 VRB03KT P6SM
                       OVC020=
202408201544 KPWT 201544Z 2016/2112 20007KT P6SM -SHRA OVC025
                      TEMPO 2016/2018 BKN004 FM202200 21007KT P6SM
                       VCSH OVC050 FM211100 20003KT P6SM OVC025=
202408201136 TAF KPWT 201136Z 2012/2112 20005KT P6SM -SHRA BKN015 FM201500 20007KT
                       P6SM -SHRA OVC025 FM202200 21007KT P6SM
                       VCSH OVC050 FM211100 20003KT P6SM OVC025=
202408200533 TAF KPWT 200533Z 2006/2106 22005KT P6SM OVC100 FM200800 18004KT
                       P6SM BKN015 FM201200 21006KT P6SM VCSH OVC004
                       FM201600 20007KT P6SM -SHRA OVC025 FM210200
                       22007KT P6SM OVC050=
202408200153 KPWT 200153Z 2002/2024 22012KT P6SM VCSH SCT050 SCT100 BKN220 FM200230
                       22005KT P6SM OVC100 FM201000 18004KT P6SM
                       OVC015 FM201200 21006KT P6SM VCSH OVC004
                       FM201700 20007KT P6SM -SHRA OVC025=
202408192332 TAF KPWT 192332Z 2000/2024 22012KT P6SM SCT050 SCT100 BKN220 FM200200
                       22005KT P6SM OVC100 FM201000 18004KT P6SM
                       OVC015 FM201200 21006KT P6SM VCSH OVC004
                       FM201700 20007KT P6SM -SHRA OVC025=
202408191731 TAF KPWT 191731Z 1918/2018 20003KT P6SM FEW050 SCT100 BKN220 FM192100
                       22012KT P6SM SCT050 SCT100 BKN220 FM200200
                       22005KT P6SM OVC100 FM201000 18004KT P6SM
                       OVC015 FM201500 21006KT P6SM VCSH OVC004=
202408191236 KPWT 191236Z 1913/2012 00000KT 1SM BR SCT002 FM191430 21003KT P6SM
                       SKC FM191800 22010G18KT P6SM BKN100 FM200200
                       22007KT P6SM OVC100=
202408191120 TAF KPWT 191120Z 1912/2012 16004KT P6SM SKC FM192000 22010G18KT
                       P6SM BKN100 FM200200 22007KT P6SM OVC100=
202408190916 KPWT 190916Z 1909/2006 16004KT P6SM SKC FM191100 19002KT P6SM BKN007
                       FM191400 20002KT P6SM SCT200 FM192000 22010G18KT
                       P6SM SCT250 FM200200 22007KT P6SM OVC100=
202408190543 TAF KPWT 190543Z 1906/2006 16004KT P6SM SKC FM190830 19002KT P6SM
                       BKN007 FM191400 20002KT P6SM SCT200 FM192000
                       22010G18KT P6SM SCT250 FM200200 22007KT
                       P6SM OVC100=
202408190037 KPWT 190037Z 1901/1924 21006KT P6SM BKN050 FM190400 20004KT P6SM
                       BKN150 FM191400 20003KT P6SM BKN007 FM192000
                       22010G18KT P6SM SCT250=
202408182341 TAF KPWT 182341Z 1900/1924 23012G25KT 2SM TSRA SCT050 BKN070CB
                       FM190200 21006KT P6SM BKN050 FM190400 20004KT
                       P6SM BKN150 FM191400 20003KT P6SM BKN007
                       FM192000 22010G18KT P6SM SCT250=
202408182258 KPWT 182258Z 1823/1918 26007KT P6SM SCT050 FM182330 23006KT 2SM
                       TSRA SCT050 BKN070CB FM190000 21006KT P6SM
                       VCSH BKN050 FM190400 20004KT P6SM BKN150
                       FM191400 20003KT P6SM BKN007=
202408181726 TAF KPWT 181726Z 1818/1918 21012G17KT P6SM SCT015 SCT050 FM182100
                       21010KT P6SM -SHRA BKN050 FM190100 21006KT
                       P6SM VCSH BKN050 FM190400 20004KT P6SM BKN150
                       FM191400 20003KT P6SM BKN007=
202408181324 KPWT 181324Z 1813/1912 19005KT P6SM -SHRA SCT010 BKN018 OVC045
                       FM181700 20008KT P6SM VCSH SCT025 BKN050
                       FM182100 21010KT P6SM -SHRA BKN050=
202408181127 TAF KPWT 181127Z 1812/1912 19005KT P6SM VCSH SCT020 OVC050 FM181700
                       20008KT P6SM VCSH BKN050 FM182100 21010KT
                       P6SM -SHRA BKN050=
202408180543 TAF KPWT 180543Z 1806/1906 21006KT P6SM -SHRA BKN050 OVC080 FM180900
                       19005KT P6SM -SHRA BKN015 BKN040 OVC100
                       FM181700 20008KT P6SM VCSH BKN050 FM182100
                       21010KT P6SM -SHRA BKN050=
202408180306 KPWT 180306Z 1803/1824 04005KT P6SM SCT150 BKN200 FM180330 19015G25KT
                       2SM TSRA BKN050CB OVC100 FM180500 21010KT
                       P6SM -SHRA BKN050 OVC080
                      TEMPO 1805/1807 2SM SHRA FM181200 19005KT
                       P6SM -RA BKN015 BKN040 OVC100 FM181700 20008KT
                       P6SM VCSH BKN050 FM182100 21010KT P6SM -SHRA
                       BKN050=
202408172328 TAF KPWT 172328Z 1800/1824 04005KT P6SM SCT150 BKN200 FM180300
                       19015G25KT 4SM TSRA BKN050CB OVC100 FM180500
                       21010KT P6SM -SHRA BKN050 OVC080
                      TEMPO 1805/1807 2SM SHRA FM181200 19005KT
                       P6SM -RA BKN015 BKN040 OVC100 FM181700 20008KT
                       P6SM VCSH BKN050 FM182100 21010KT P6SM -SHRA
                       BKN050=
202408171730 TAF KPWT 171730Z 1718/1818 05012KT P6SM FEW100 FEW200 FM180100
                       19015G25KT 4SM TSRA BKN050CB OVC100 FM180700
                       21010KT P6SM -SHRA BKN050 OVC080 FM181200
                       19005KT P6SM -RA BKN015 BKN040 OVC100 FM181700
                       20008KT P6SM VCSH BKN050=
202408171139 TAF KPWT 171139Z 1712/1812 05003KT P6SM SCT150 FM171900 05010KT
                       P6SM BKN250 FM180100 19010G20KT 4SM TSRA
                       BKN050CB FM180700 21010KT P6SM -SHRA BKN050
                       OVC080=
202408170543 TAF KPWT 170543Z 1706/1806 04005KT P6SM SKC FM171200 05003KT P6SM
                       OVC250
                      TEMPO 1712/1715 BKN004 FM171900 05010KT P6SM
                       BKN250 FM180300 19010G20KT P6SM BKN060
                      PROB30 1803/1806 VRB10KT -TSRA BKN050CB=
202408162320 TAF KPWT 162320Z 1700/1724 21006KT P6SM SCT050 BKN100 FM170300
                       02005KT P6SM FEW100 FM171200 05003KT P6SM
                       OVC250
                      TEMPO 1712/1715 BKN004 FM171900 05010KT P6SM
                       BKN250=
202408161734 TAF KPWT 161734Z 1618/1718 21004KT P6SM SCT010 OVC025 FM162100
                       21006KT P6SM SCT050 BKN100 FM170300 02005KT
                       P6SM FEW100 FM171200 05003KT P6SM OVC250=
202408161240 KPWT 161240Z 1613/1712 00000KT P6SM BKN030 FM161400 19004KT 6SM
                       BR FEW009 BKN025 FM161700 21004KT P6SM SCT010
                       OVC025 FM162100 21006KT P6SM SCT050 BKN100
                       FM170300 02005KT P6SM FEW100=
202408161120 TAF KPWT 161120Z 1612/1712 00000KT P6SM BKN050 FM161400 19004KT
                       6SM BR FEW009 BKN025 FM161700 21004KT P6SM
                       SCT010 OVC025 FM162100 21006KT P6SM SCT050
                       BKN100 FM170300 02005KT P6SM FEW100=
202408160520 TAF KPWT 160520Z 1606/1706 20005KT P6SM BKN050 FM161100 19004KT
                       6SM BR BKN007 OVC015 FM161700 21004KT P6SM
                       SCT010 OVC025 FM162100 21006KT P6SM SCT050
                       BKN100=
202408152323 TAF KPWT 152323Z 1600/1624 20005KT P6SM BKN035 FM161100 19004KT
                       6SM BR BKN007 OVC015 FM161800 21004KT P6SM
                       SCT010 OVC025 FM162000 21006KT P6SM SCT050
                       BKN100=
202408151732 TAF KPWT 151732Z 1518/1618 19005KT P6SM SCT050 FM161100 19004KT
                       6SM BR BKN007 OVC015=
202408151311 KPWT 151311Z 1513/1612 00000KT P6SM SCT050 FM151400 18003KT P6SM
                       BKN018 OVC022 FM151900 20005KT P6SM BKN035
                       FM152200 21006KT P6SM SCT050 FM161000 19004KT
                       P6SM SCT020 BKN035=
202408151120 TAF KPWT 151120Z 1512/1612 00000KT P6SM SCT050 FM151300 18003KT
                       P6SM BKN018 OVC022 FM151900 20005KT P6SM
                       BKN035 FM152200 21006KT P6SM SCT050 FM161000
                       19004KT P6SM SCT020 BKN035=
202408150549 TAF KPWT 150549Z 1506/1606 00000KT P6SM SKC FM150800 07003KT P6SM
                       BKN050 FM151100 20003KT P6SM OVC007 FM151800
                       21005KT P6SM BKN015 FM152100 21006KT P6SM
                       BKN050=
202408142331 TAF KPWT 142331Z 1500/1524 07003KT P6SM BKN050 FM151100 20003KT
                       P6SM OVC007 FM151800 21005KT P6SM BKN015
                       FM152100 21006KT P6SM BKN050=
202408141741 TAF KPWT 141741Z 1418/1518 VRB03KT P6SM SCT020 FM142100 05005KT
                       P6SM SCT030 SCT060 FM151100 VRB03KT P6SM
                       BKN015 FM151400 VRB03KT P6SM BKN007=
202408141723 TAF KPWT 141723Z 1418/1518 VRB03KT P6SM SCT020 FM142100 05005KT
                       P6SM SCT030 SCT060 FM151100 VRB03KT P6SM
                       BKN015 FM151400 VRB03KT P6SM BKN007=
202408141120 TAF KPWT 141120Z 1412/1512 VRB03KT P6SM OVC020 FM142000 05005KT
                       P6SM SCT030 FM151100 VRB03KT P6SM BKN015=
202408140520 TAF KPWT 140520Z 1406/1506 VRB03KT P6SM BKN040 FM141100 VRB02KT
                       P6SM OVC015 FM142000 05005KT P6SM SCT030=
202408132332 TAF KPWT 132332Z 1400/1424 22005KT P6SM OVC040 FM140500 VRB03KT
                       P6SM BKN035 FM141100 VRB02KT P6SM OVC010
                       FM141900 VRB03KT P6SM SCT030=
202408131723 TAF KPWT 131723Z 1318/1418 21006KT P6SM OVC020 FM132100 22005KT
                       P6SM SCT020 OVC035 FM140500 VRB03KT P6SM
                       BKN035 FM141100 VRB02KT P6SM OVC007=
202408131142 TAF KPWT 131142Z 1312/1412 21005KT P6SM BKN050 FM131300 21004KT
                       P6SM OVC020
                      TEMPO 1313/1316 OVC007 FM132000 22006KT P6SM
                       SCT010 BKN040 FM140300 VRB03KT P6SM BKN035=
202408130520 TAF KPWT 130520Z 1306/1406 21006KT P6SM BKN050 FM130800 21002KT
                       P6SM OVC025 FM131200 21004KT P6SM OVC007
                       TEMPO 1312/1316 OVC004 FM132000 22006KT
                       P6SM SCT010 BKN020 FM140000 20007KT P6SM
                       BKN030 FM140300 VRB03KT P6SM BKN030=
202408122321 TAF KPWT 122321Z 1300/1324 21008KT P6SM BKN040 FM130700 21002KT
                       P6SM OVC025 FM131200 21004KT P6SM OVC007
                       TEMPO 1312/1316 OVC004 FM132000 22006KT
                       P6SM SCT010 BKN020=
202408122058 KPWT 122058Z 1221/1318 21006KT P6SM SCT030 OVC035 FM130700 21002KT
                       P6SM OVC025 FM131200 21002KT P6SM OVC015=
202408121720 TAF KPWT 121720Z 1218/1318 20008KT P6SM BKN020 OVC030 FM122200
                       22007KT P6SM SCT020 BKN040 FM130700 21002KT
                       P6SM OVC025 FM131200 21002KT P6SM OVC015=
202408121145 TAF KPWT 121145Z 1212/1312 21004KT P6SM OVC015 FM121700 22007KT
                       P6SM SCT020 OVC030 FM122200 22007KT P6SM
                       SCT020 BKN040 FM130700 21002KT P6SM OVC025=
202408120929 KPWT 120929Z 1209/1306 21004KT P6SM OVC020 FM121700 22007KT P6SM
                       SCT020 OVC030 FM122100 22007KT P6SM SCT020
                       BKN040=
202408120555 TAF KPWT 120555Z 1206/1306 VRB02KT P6SM SKC FM120800 21004KT P6SM
                       OVC006 FM121700 22007KT P6SM SCT005 OVC015
                       FM122100 22007KT P6SM SCT020 BKN040=
202408120351 KPWT 120351Z 1204/1224 21005KT P6SM OVC020 FM120900 21004KT P6SM
                       OVC003 FM121700 22007KT P6SM SCT005 OVC015
                       FM122100 22007KT P6SM SCT020 OVC040=
202408112324 TAF KPWT 112324Z 1200/1224 20007KT P6SM BKN015 FM120300 21005KT
                       P6SM SCT020 BKN250 FM120900 21004KT P6SM
                       OVC003 FM121700 22007KT P6SM SCT005 OVC015
                       FM122100 22007KT P6SM SCT020 OVC040=
202408111726 TAF KPWT 111726Z 1118/1218 20007KT P6SM BKN006 OVC012 FM111900
                       21005KT P6SM BKN015 FM112300 22006KT P6SM
                       SCT015 BKN250 FM120300 21005KT P6SM BKN250
                       FM120900 21004KT P6SM OVC003=
202408111130 TAF KPWT 111130Z 1112/1212 21004KT P6SM OVC004 FM111800 21005KT
                       P6SM OVC010 FM112300 22006KT P6SM SCT015
                       BKN250 FM120300 21005KT P6SM BKN250 FM120900
                       21004KT P6SM OVC003=
202408110710 KPWT 110710Z 1107/1206 21004KT P6SM OVC006 FM111800 21005KT P6SM
                       OVC010 FM112300 22006KT P6SM SCT015 BKN250
                       FM120300 21005KT P6SM BKN250=
202408110520 TAF KPWT 110520Z 1106/1206 21004KT P6SM SKC FM110700 21004KT 4SM
                       BR OVC003 FM111800 21005KT P6SM OVC010 FM112300
                       22006KT P6SM SCT015 BKN250 FM120300 21005KT
                       P6SM BKN250=
202408102320 TAF KPWT 102320Z 1100/1124 26007KT P6SM SKC FM110300 VRB03KT P6SM
                       SKC FM110700 21004KT 6SM BR OVC004 FM111800
                       21005KT P6SM OVC015 FM112300 22006KT P6SM
                       BKN250=
202408101823 KPWT 101823Z 1018/1118 21007KT P6SM OVC006 FM101900 22006KT P6SM
                       SKC FM110300 VRB03KT P6SM SKC FM110700 21004KT
                       6SM BR OVC004=
202408101724 TAF KPWT 101724Z 1018/1118 22006KT P6SM OVC004 FM101900 22006KT
                       P6SM SKC FM110300 VRB03KT P6SM SKC FM110700
                       21004KT 6SM BR OVC004=
202408101135 TAF KPWT 101135Z 1012/1112 21003KT 2SM BR OVC002 FM101700 21005KT
                       6SM BR OVC007 FM101800 22006KT P6SM FEW250
                       FM110300 VRB03KT P6SM SKC FM110700 21004KT
                       6SM BR OVC008=
202408100520 TAF KPWT 100520Z 1006/1106 VRB03KT P6SM SCT250 FM101000 21003KT
                       P6SM BKN005 FM101800 22006KT P6SM FEW250
                       FM110300 VRB03KT P6SM SKC=
202408092320 TAF KPWT 092320Z 1000/1024 VRB04KT P6SM SKC FM100300 VRB02KT P6SM
                       SCT250 FM101000 21003KT P6SM BKN005 FM101900
                       22006KT P6SM FEW250=
202408091720 TAF KPWT 091720Z 0918/1018 24003KT P6SM SKC FM092100 24005KT P6SM
                       SCT250 FM100300 VRB03KT P6SM SCT250 FM101000
                       21003KT P6SM BKN005=
202408091436 KPWT 091436Z 0915/1012 VRB03KT P6SM BKN250 FM092100 24005KT P6SM
                       SCT250 FM100300 VRB03KT P6SM SCT250 FM101100
                       21003KT P6SM BKN005=
202408091129 TAF KPWT 091129Z 0912/1012 VRB03KT P6SM SCT250
                      TEMPO 0913/0916 OVC003 FM091600 VRB03KT P6SM
                       BKN250 FM092100 24005KT P6SM SCT250 FM100300
                       VRB03KT P6SM SCT250 FM101100 21003KT P6SM
                       BKN005=
202408090520 TAF KPWT 090520Z 0906/1006 VRB03KT P6SM SCT250 FM091000 VRB03KT
                       P6SM SCT250
                      TEMPO 0912/0916 OVC007 FM091600 VRB03KT P6SM
                       BKN250 FM092100 24005KT P6SM SCT250 FM100300
                       VRB03KT P6SM SCT250=
202408082321 TAF KPWT 082321Z 0900/0924 04006KT P6SM SKC FM090400 VRB03KT P6SM
                       SCT250 FM091000 VRB03KT P6SM OVC250
                      TEMPO 0912/0916 OVC007 FM091600 VRB03KT P6SM
                       BKN250 FM092100 26005KT P6SM SCT250=
202408081753 TAF KPWT 081753Z 0818/0918 VRB03KT P6SM SKC FM082200 04006KT P6SM
                       SKC FM090400 00000KT P6SM SKC FM091600 23003KT
                       P6SM SKC=
202408081130 TAF KPWT 081130Z 0812/0912 VRB03KT P6SM SKC FM081700 03007KT P6SM
                       SKC FM082200 04006KT P6SM SKC FM090400 00000KT
                       P6SM SKC=
202408080521 TAF KPWT 080521Z 0806/0906 VRB03KT P6SM SKC FM081200 VRB03KT 3SM
                       BR OVC010 FM081700 03007KT P6SM SKC FM082200
                       04006KT P6SM SKC=
202408072335 TAF KPWT 072335Z 0800/0824 04008KT P6SM SKC FM080400 VRB03KT P6SM
                       SKC FM081200 VRB03KT 3SM BR OVC010 FM081700
                       03007KT P6SM SKC=
202408071732 TAF KPWT 071732Z 0718/0818 06006KT P6SM SCT015 FM071900 04005KT
                       P6SM SKC FM080400 VRB03KT P6SM SKC FM081200
                       00000KT 3SM BR OVC010=
202408071444 KPWT 071444Z 0715/0812 VRB04KT 2SM BR OVC001 FM071600 04005KT 6SM
                       BR OVC005 FM071800 04005KT P6SM SKC FM080400
                       00000KT P6SM SKC=
202408071317 KPWT 071317Z 0713/0812 VRB04KT P6SM SKC
                      TEMPO 0713/0716 BKN003 FM071800 04005KT P6SM
                       SKC FM080400 00000KT P6SM SKC=
202408071120 TAF KPWT 071120Z 0712/0812 VRB04KT P6SM SKC
                      TEMPO 0712/0715 BKN003 FM071800 04005KT P6SM
                       SKC FM080400 00000KT P6SM SKC=
202408070520 TAF KPWT 070520Z 0706/0806 20004KT P6SM SKC FM071100 VRB04KT P6SM
                       OVC012 FM071800 04005KT P6SM SKC=
202408062328 TAF KPWT 062328Z 0700/0724 25004KT P6SM FEW025 FM070300 VRB04KT
                       P6SM SKC FM071100 VRB04KT P6SM OVC012 FM071800
                       04005KT P6SM SKC=
202408062101 KPWT 062101Z 0621/0718 VRB04KT P6SM OVC015 FM062300 22006KT P6SM
                       SCT020 FM071200 VRB04KT P6SM SCT015=
202408061934 KPWT 061934Z 0620/0718 VRB04KT P6SM OVC015 FM062100 22006KT P6SM
                       SCT020 FM062300 22007KT P6SM SKC FM071200
                       VRB04KT P6SM SCT015=
202408061720 TAF KPWT 061720Z 0618/0718 VRB04KT P6SM OVC005 FM062100 22006KT
                       P6SM SCT020 FM062300 22007KT P6SM SKC FM071200
                       VRB04KT P6SM SCT015=
202408061349 KPWT 061349Z 0614/0712 21005KT 6SM BR OVC005 FM061600 20004KT P6SM
                       OVC007 FM062100 22006KT P6SM SCT020 FM062300
                       22007KT P6SM SKC=
202408061306 KPWT 061306Z 0613/0712 21005KT 4SM BR OVC006 FM061600 20004KT P6SM
                       OVC007 FM062100 22006KT P6SM SCT020 FM062300
                       22007KT P6SM SKC=
202408061132 TAF KPWT 061132Z 0612/0712 21005KT 6SM BR OVC005 FM061600 20004KT
                       P6SM OVC007 FM062100 22006KT P6SM SCT020
                       FM062300 22007KT P6SM SKC=
202408060522 TAF KPWT 060522Z 0606/0706 20004KT P6SM SKC FM060800 21005KT 6SM
                       BR OVC005 FM061600 20004KT P6SM OVC007 FM062100
                       22006KT P6SM SCT020 FM062300 22007KT P6SM
                       SKC=
202408060310 KPWT 060310Z 0603/0624 21008KT P6SM SKC FM060800 21005KT 6SM BR
                       OVC005 FM062000 22006KT P6SM SCT010=
202408052324 TAF KPWT 052324Z 0600/0624 24010KT P6SM SCT015 FM060800 21005KT
                       6SM BR OVC005 FM062000 22006KT P6SM SCT010=
202408051837 KPWT 051837Z 0519/0618 22010KT P6SM OVC010 FM052000 22010KT P6SM
                       SCT015 FM060800 21005KT 6SM BR OVC005=
202408051722 TAF KPWT 051722Z 0518/0618 22007KT P6SM SKC
                      TEMPO 0518/0519 OVC006 FM060800 21005KT 6SM
                       BR OVC005=
202408051144 TAF KPWT 051144Z 0512/0612 22005KT 3SM BR OVC002 FM051700 20005KT
                       P6SM OVC007 FM051900 22004KT P6SM SKC FM060800
                       21004KT 6SM BR OVC005=
202408050809 KPWT 050809Z 0508/0606 21003KT P6SM SCT004 FM050900 22005KT 4SM
                       BR OVC004 FM051700 20005KT P6SM OVC012 FM051900
                       22004KT P6SM SKC=
202408050520 TAF KPWT 050520Z 0506/0606 21003KT P6SM SKC FM051100 22005KT 2SM
                       BR OVC004 FM051700 20005KT P6SM OVC012 FM051900
                       22004KT P6SM SKC=
202408042339 TAF KPWT 042339Z 0500/0524 22007KT P6SM SKC FM050500 20003KT P6SM
                       SKC FM051300 22005KT 2SM BR OVC004 FM051800
                       22004KT P6SM SKC=
202408041735 KPWT 041735Z 0418/0518 22005KT P6SM OVC006 FM041900 22007KT P6SM
                       SKC FM050500 20003KT P6SM SKC FM051300 22005KT
                       2SM BR OVC004=
202408041732 TAF KPWT 041732Z 0418/0518 22005KT P6SM OVC004 FM041900 22007KT
                       P6SM SKC FM050500 20003KT P6SM SKC FM051300
                       22005KT 2SM BR OVC004=
202408041510 KPWT 041510Z 0415/0512 19004KT 1/4SM FG OVC002 FM041800 22005KT
                       P6SM SCT005 FM041900 22007KT P6SM SKC FM050500
                       20003KT P6SM SKC=
202408041126 TAF KPWT 041126Z 0412/0512 19004KT 5SM BR OVC003
                      TEMPO 0412/0416 1/2SM FG VV002 FM041800 22005KT
                       P6SM SCT005 FM041900 22007KT P6SM SKC FM050500
                       20003KT P6SM SKC=
202408041040 KPWT 041040Z 0411/0506 19004KT 5SM BR OVC003 FM041800 22005KT P6SM
                       SCT009 FM041900 22007KT P6SM SKC=
202408040524 TAF KPWT 040524Z 0406/0506 00000KT P6SM FEW150 BKN200 FM041100
                       19003KT P6SM SCT005 FM041300 19004KT 2SM
                       BR OVC003 FM041800 22005KT P6SM SCT009 FM041900
                       22007KT P6SM SKC=
202408032329 TAF KPWT 032329Z 0400/0424 21005KT P6SM SCT200 FM041100 19003KT
                       P6SM SCT005 FM041300 19004KT 2SM BR OVC003
                       FM041800 22005KT P6SM SCT009 SCT200=
202408031727 TAF KPWT 031727Z 0318/0418 19004KT P6SM OVC005 FM031900 21005KT
                       P6SM SCT006 SCT200 FM032000 21005KT P6SM
                       SCT200 FM041100 19003KT P6SM SCT005 FM041300
                       19004KT 2SM BR OVC003=
202408031520 KPWT 031520Z 0315/0412 19004KT 2SM BR OVC003 FM031700 21005KT P6SM
                       SCT006 SCT200 FM032000 21005KT P6SM SCT200
                       FM041100 19003KT P6SM SCT005=
202408031308 KPWT 031308Z 0313/0412 19004KT 3SM BR OVC004
                      TEMPO 0313/0316 1/4SM FG VV001 FM031700 21005KT
                       P6SM SCT006 SCT200 FM032000 21005KT P6SM
                       SCT200 FM041100 19003KT P6SM SCT005=
202408031120 TAF KPWT 031120Z 0312/0412 19004KT 3SM BR OVC004
                      TEMPO 0312/0316 1/2SM FG VV002 FM031700 21005KT
                       P6SM SCT006 SCT200 FM032000 21005KT P6SM
                       SCT200 FM041100 19003KT P6SM SCT005=
202408030927 KPWT 030927Z 0309/0406 21004KT 3SM BR OVC004 FM031700 21005KT P6SM
                       FEW007 SCT200 FM032200 07004KT P6SM BKN200=
202408030852 KPWT 030852Z 0309/0406 21003KT 6SM BR OVC005 FM031700 21005KT P6SM
                       FEW007 SCT200 FM032200 07004KT P6SM BKN200=
202408030524 TAF KPWT 030524Z 0306/0406 20004KT P6SM SCT150 FM031100 21003KT
                       6SM BR BKN005 FM031700 23003KT P6SM SCT150
                       FM032200 07004KT P6SM BKN200=
202408022320 TAF KPWT 022320Z 0300/0324 21006KT P6SM SCT150 FM030600 20004KT
                       P6SM SCT150 FM031100 21003KT 6SM BR BKN005
                       FM031700 23003KT P6SM SCT150=
202408021734 TAF KPWT 021734Z 0218/0318 22004KT P6SM BKN150 FM022200 22008KT
                       P6SM SCT150 FM030600 20004KT P6SM SCT150
                       FM031100 21003KT 6SM BR BKN005=
202408021125 TAF KPWT 021125Z 0212/0312 VRB03KT P6SM SCT250 FM021600 22004KT
                       P6SM BKN250 FM022200 22008KT P6SM SCT250
                       FM030600 20004KT P6SM SCT250 FM031100 21003KT
                       6SM BR BKN005=
202408020520 TAF KPWT 020520Z 0206/0306 VRB03KT P6SM SKC FM021300 22004KT P6SM
                       FEW015 BKN250 FM021700 22006KT P6SM SCT250=
202408012320 TAF KPWT 012320Z 0200/0224 04012KT P6SM SKC FM020500 04005KT P6SM
                       SKC FM020900 24002KT P6SM FEW015 SCT100=
202408011726 TAF KPWT 011726Z 0118/0218 04012KT P6SM SKC FM020500 04005KT P6SM
                       SKC FM020900 24002KT P6SM FEW015 SCT100=
202408011138 TAF KPWT 011138Z 0112/0212 04010KT P6SM SKC=
202408010521 TAF KPWT 010521Z 0106/0206 04006KT P6SM SKC FM011800 05010KT P6SM
                       SKC=